0000011100
120
UANT99 KDDL 111611
ARP GEC8221 5652N04206W 1611 F350 MS54 264/39 KT
DALCA QXT IGW 111611 F05A
0000011000
121
UANT99 KDDL 111611
ARP ACA865 5406N02709W 1611 F380 MS57 192/47 KT
CGFAH DDL XXW 111611 J85A
0000011100
122
UANT99 KDDL 111611
ARP DAL107 5205N02225W 1611 F350 MS57 193/81 KT
N195DN QXT AOE 111611 F21A
0000333300
123
SNVZ11 SBBR 111600 RRB
BBXX
SHIP 11161 99/// 1//// 36/// /1401 10303 20163 39324 40168 57///
  333 10311 20295 553// 02342 91106=
SHIP 11161 99/// 1//// 36/// /1504 10301 20194 30110 40121
  333 10376 20292 553// 03918 91110=
SHIP 11161 99/// 1//// 36/// /0402 10275 20203 39240 40128
  333 10303 20274 553// 01640 91106=
SHIP 11161 99/// 1//// 36/// /0203 10299 20152 39138 40127
  333 10299 20289 553// 04012 91107=
SHIP 11161 99/// 1//// 36/// /0805 10301 20203 30113 40149 57///
  333 10316 20296 553// 03791 91110=
SHIP 11161 99/// 1//// 36/// /3603 10289 20168 39285 40078
  333 10299 20289 553// 01445 91107=
SHIP 11161 99/// 1//// 36/// /0103 10274 20169 38970 40050
  333 10286 20261 553// 03548 91108=
SHIP 11161 99/// 1//// 36/// /0401 10344 20172 39480 40101 57///
  333 10344 20322 91105=
SHIP 11161 99/// 1//// 36/// /3303 10314 20183 39479 40156
  333 10320 20292 553// 04444 91107=
SHIP 11161 99/// 1//// 36/// /1402 10279 20181 39318 40131
  333 10282 20270 553// 02437 91104=
SHIP 11161 99/// 1//// 36/// /1004 10309 20183 39902 40136 57///
  333 10320 20302 553// 03103 91110=
SHIP 11161 99/// 1//// 36/// /1204 10308 20176 39878 40137 57///
  333 10321 20307 553// 02510 91108=
SHIP 11161 99/// 1//// 16/// /1501 10192 20182 39659 40159 57/// 6005/
  333 10194 20192 553// 00225 91109=
SHIP 11161 99/// 1//// 36/// /0504 10237 20137 38693 49753
  333 10252 20232 553// 02883 91109=
SHIP 11161 99/// 1//// 36/// /3502 10309 20148 39330 40127
  333 10327 20302 553// 02657 91107=
SHIP 11161 99/// 1//// 36/// /1006 10310 20119 39439 40101
  333 10326 20306 553// 03638 91115=
SHIP 11161 99/// 1//// 16/// /2403 10345 20139 39910 40088 57/// 6992/
  333 10355 20331 553// 03858 91108=
SHIP 11161 99/// 1//// 36/// /0701 10344 20174 39996 40068
  333 10364 20335 553// 02219 91106=
SHIP 11161 99/// 1//// 36/// /3102 10297 20227 39567 40110
  333 10304 20289 553// 02587 91105=
SHIP 11161 99/// 1//// 36/// /0801 10327 20210 39979 40120 57///
  333 10331 20315 553// 03345 91104=
SHIP 11161 99/// 1//// 36/// /0500 10293 20222 39953 40120
  333 10297 20277 553// 02446 91103=
SHIP 11161 99/// 1//// 36/// /0301 10296 20214 39934 40107 52///
  333 10305 20291 553// 02073 91104=
SHIP 11161 99/// 1//// 36/// /1403 10282 20225 30108 40109 52///
  333 10302 20274 553// 03156 91106=
SHIP 11161 99/// 1//// 36/// /2506 10299 20184 39389 40120
  333 10303 20296 553// 02548 91111=
SHIP 11161 99/// 1//// 36/// /0802 10296 20167 39385 40131 57///
  333 10296 20278 553// 03563 91106=
SHIP 11161 99/// 1//// 36/// /3204 10241 20151 38622 49672
  333 10243 20230 553// 03347 91109=
SHIP 11161 99/// 1//// 36/// /0100 10347 20189 39729 40098 57///
  333 10351 20335 553// 03776 91106=
SHIP 11161 99/// 1//// 36/// /2601 10299 20202 39862 40129 57///
  333 10304 20294 553// 02612 91104=
SHIP 11161 99/// 1//// 36/// /0408 10297 20226 30151 40155 52///
  333 10298 20287 553// 03850 91113=
SHIP 11161 99/// 1//// 36/// /1002 10287 20225 39997 40117
  333 10288 20277 553// 01918 91104=
SHIP 11161 99/// 1//// 36/// /1105 10287 20204 30044 40117 57///
  333 10296 20282 553// 02290 91108=
SHIP 11161 99/// 1//// 36/// /1003 10286 20138 39009 40320
  333 10298 20278 553// 03700 91106=
0000012200
124
SNVD15 KWNB 111600 RRH
BBXX
41051 11161 99183 70650 46/// /0909 10265 91540 333 91211 555
11103 22112=
0000013800
125
SNVF51 EGRR 111600
BBXX
62081 11164 99521 70105 46/// /1419 10085 20041 40157 57020 22200
10805 70025 333 90710 91128=
0000012800
126
SNVF51 EGRR 111600
BBXX
62304 11164 99512 10018 46/98 /3016 10087 20031 40217 52024 22200
00102 10501 70003=
0000012800
127
SNVF51 EGRR 111600
BBXX
62305 11164 99504 70000 46/// /3008 10085 20031 40225 52054 22200
00110 10701 70005=
0000012800
128
SNVF51 EGRR 111600
BBXX
62305 11164 99504 70000 46/// /3008 10085 20031 40225 52014 22200
00110 10701 70005=
0000011200
129
SNVF51 EGRR 111600
BBXX
64046 11164 99605 70042 46/// /3027 10073 20009 40051 333 90710 91137=
0000011600
130
SNVF51 EGRR 111600
BBXX
62303 11164 99516 70051 46/// /1404 10083 20017 40217 22200 10703
70015=
0000010900
131
UANT01 CWAO 111611
ARP DAL9 5301N01938W 1611 F330 MS58 197/85 KT
N174DN QXT AOE 111611 F13A
0000094000
132
SSVX08 KARS 111611
ZZYY 23001 10014 1200/ 100066 080606 6111/
33311 88872 20001 32869 43524 20060 32776 43537 20080 32582
20100 32117 20120 31830 20140 31638 20180 31388 20300 31123
20500 31006
444 20110 10014 1035/ 521//=
ZZYY 23001 11014 15004 100078 080603 6112/
11119 01807 10285 29077 40125
22219 00288
444 20120 11014 1538/ 521// 60401=
ZZYY 23008 10014 12004 112077 088820 6111/
11119 00610 10265 29078
33311 88872 20020 32729 43378 20040 32725 43380 20060 32731 43442
20080 32442 20100 32166 20120 31984 20140 31812 20180 31508
20300 31168 20500 30991
444 20110 10014 1204/ 521// 60401=
ZZYY 23002 10014 12004 101541 080591 6112/
11119 03212 10284 29080
22219 00289
33311 88872 20000 32894 20001 32885 20020 32883 43490
20040 32851 43525 20060 32723 43554 20080 32215 20100 31838
20120 31698 20140 31586 20180 31498 20300 31154 20500 31001
444 20120 10014 1206/ 521// 60401=
0000020400
133
UAUS31 KWBC 111612
ARP UAL876 50N 140W 1550 F350 TB LGT TO MOD RM B772 OV 50N140W
    TRACK 1 STARTS N5014.9W14156.4=
ARP UAL122 4611N 06434W 1608 F370 MS65 295/115KT TB LGT SK ON TOP=
0000072100
134
SNBX40 EBBR 111600
AAXX 11161
06407 42980 12905 10068 20018 30203 40209 52023 80001
333 81075 91108 91206=
06428 45/80 /9901 10064 20022 30167 40210 53025
 333 91106 91203=
06447 NIL=
06451 42581 22903 10060 20023 30137 40205 51030 82200
333 82828 91108 91206=
06456 42470 52803 10055 20035 39862 40210 51027 83831
 333 81710 83816 91106 91204=
06476 461// 83007 10040 20032 39536 40208 53019
333 82/02 85/03 88/04 91111 91207=
06479 42570 12704 10056 20035 30120 40197 52032 81100
 333 81825 91107 91204=
06490 462// 82904 10035 2//// 39623 4//// 53022
333 84/04 87/05 88/07 91112 91206=
06590 42370 72505 10063 20048 39741 40197 53009 875//
333 82709 87638 91110 91206=
0000068700
135
SNBX41 EBBR 111600
AAXX 11161
06400 42581 13003 10065 20023 30204 40212 52020 81800
 333 81820 91106 91204=
06431 NIL=
06432 45/78 /3004 10060 20027 30140 40214 53025
 333 91105 91204=
06449 42470 33003 10061 20025 39979 40210 52029 82202
333 82814 91107 91204=
06450 42570 12804 10072 20026 30184 40200 53030 81100
333 81825 91110 91207=
06458 45467 /2903 10054 20038 30065 40205 52027
 333 82/17 91108 91204=
06465 45/76 /2802 10060 20028 30135 40200 53030
 333 91106 91205=
06478 42460 22604 10049 20036 39978 40202 51032 82401
333 82616 91108 91205=
06496 47365 /3005 10029 20020 39518 40200 53022 70065
 333 81/08 85/11 91114 91209=
0000009500
136
SAIN90 VOTV 111610
METAR VOTV 111610Z 00000KT 4000 HZ FEW015 26/23 Q1013 NOSIG=
0000027800
137
SAIN31 VOMM 111610
METAR VOHS 111610Z 12003KT 5000 HZ SCT020 20/14 Q1018 NOSIG=
METAR VOMM 111610Z 09006KT 6000 FEW020 23/20 Q1015 NOSIG=
METAR VOTR 111610Z 09008KT 4000 HZ NSC 24/20 Q1015 NOSIG=
METAR VOTV 111610Z 00000KT 4000 HZ FEW015 26/23 Q1013 NOSIG=
0000424000
138
SNCZ64 OKPR 111600
AAXX 11161
11406 27561 /2103 10023 20011 39579 40174 55002 70011
  333 60005 81/22 85/50 87/56
  555 392// 50027 60027 70029 80037 90051=
11414 22462 82603 10026 20002 39432 42766 57007 8657/
  333 60005 86615 88356
  555 384// 50023 60020 70025 80034=
11423 27002 /2605 10009 20009 39281 42775 55003 73333
  333 60005 89/01
  555 300// 50018 60020 70025 80035=
11438 22966 72605 10046 20014 39757 40154 58007 8707/
  333 60005 87360 91111
  555 380// 50029 60030 70032 80048 90055=
11450 27664 /2205 10041 20021 39717 40169 58006 72381
  333 69905 81/34 83/58 87/60
  555 12306 387// 50030 60028 70031 80037=
11457 21175 82505 10018 20014 38867 48466 51003 72162 885//
  333 69905 83703 88608 91114
  555 397// 50004 60012 70012 80024=
11464 42581 72411 10010 21005 39149 42754 57011 875//
  333 87623 91115
  555 390//=
11487 21568 79901 10027 20000 39541 40173 58005 72162 875//
  333 69905 82625 87646
  555 382// 50024 60022 70021 80032 90045=
11502 NIL=
11509 22670 72801 10036 20022 39956 40154 58013 87500
  333 60005 83642 87650
  555 391// 50033 60033 70033 80041 90054=
11518 21682 71904 10040 20014 39713 40157 57013 72162 875//
  333 69905 83640 87650
  555 383//=
11519 21670 79903 10056 20004 39850 40160 58009 72162 875//
  333 69905 83645 87650
  555 369//=
11520 21680 82103 10047 20005 39792 40163 57010 72162 8652/
  333 69925 86640 88457
  555 374// 50028 60034 70033 80043 90052=
11538 21580 81202 10040 20015 39558 40170 58005 72052 885//
  333 69905 88628
  555 384// 50014 60030 70031 80041=
11546 27661 /2002 10061 20036 39681 40167 50000 70081
  333 60005 81/37 85/50 88/56
  555 384// 50041 60041 70044 80053 90058=
11567 21665 82002 10046 20015 39810 40159 57009 72162 885//
  333 69905 88640
  555 380// 50037=
11603 25767 /1302 10032 20004 39666 40154 55009
  333 60005 88/56
  555 381// 50033 60036 70039 80049 90058=
11624 22770 71601 10059 20008 39870 40162 57010 87500
  333 60005 87656
  555 369// 50037=
11628 21870 82205 10042 20002 39525 40166 58005 76122 8807/
  333 69905 88357
  555 375// 50026 60028 70029 80040 90048=
11636 27670 /1902 10035 21001 39488 42780 55004 75100
  333 60005 85/40 88/47
  555 377// 50018 60024 70030 80042 90049=
11643 22470 82003 10005 21010 39182 42761 57012 885//
  333 60005 88611
  555 13606 390// 50012 60014 70017=
11652 22770 82001 10058 20002 39883 40164 57010 885//
  333 60005 88656
  555 367// 50045=
11653 26/// ///// 11049 21050 3//// 4//// 5////
  333 6///5 91123
  555 399//=
11659 27870 /1302 10035 21009 39523 40170 55007 70011
  333 60005 88/57
  555 373// 50011 60027 70025 80035 90044=
11669 22770 72205 10016 21002 39271 42763 57012 81530
  333 60005 81650 87360
  555 388// 50015 60028 70030 80038 90050=
11679 27770 /9902 10048 21007 39673 40163 58011 70011
  333 60005 83/56 87/60 88/63
  555 368// 50039 60040 70037 80047 90061=
11683 25/70 /2104 10018 21024 39285 42771 55007
  333 60005
  555 1//04 374// 50026 60024 70026 80036=
11692 22765 71702 10027 20010 39595 40177 57008 87500
  333 60005 85650 87656
  555 389// 50022=
11693 22767 71702 10031 20007 39688 40178 58009 875//
  333 60005 87650
  555 11806 384// 50032 60035 70035 80053 90059=
11698 27660 /1702 10037 20012 39766 40180 55009 75100
  333 69905 88/48
  555 384// 50041 60042 70046 80055 90065=
11710 25870 /2203 10033 21007 39549 40171 56007
  333 60005 81/57 87/58
  555 375// 50044 60043 70042 80050=
11723 22865 70902 10039 20002 39878 40180 56006 87071
  333 6///5 87457
  555 377// 50034 60034 70039 80051=
11730 27001 /2510 11032 21043 38609 48429 56016 76466
  333 69905 89/01 91116
  555 392//=
11766 27970 /2206 10005 21014 39269 42770 56011 70011
  333 60005 81/58 85/62 91111
  555 387// 50009 60013 70020 80037=
11774 25968 /1802 10029 20003 39905 40182 57008
  333 60005 81/62 87/69
  555 383//=
11782 22880 62104 10052 21011 39864 40172 55008 86032
  333 60005 86358
  555 364//=
11787 22186 52307 11031 21039 38630 48449 55009 81472
  333 60005 81601 83358 91111 93518
  555 394// 50006 60012 70009 80021=
0000014400
139
SIVE10 EHDB 111500 RRA
BBXX
MCLJ8 11154 99021 11021 41398 31115 10260 20231 40121 52010 70200
8167/ 22200 20302 30000 80240=
00000000