0000365600
000
SNPL40 SOWR 111600
AAXX 11161
12100 41358 81904 10054 20044 30054 40061 56025 76066 8472/
  333 91109=
12105 41559 81904 10050 20041 30022 40064 57025 76162 885//
  333 91109=
12115 41459 82106 10052 20040 30039 40053 58026 76162 885//=
12120 42465 82308 10053 20035 30052 40056 57021 885//=
12125 46/// /2105 10054 20032 30011 40061 57022 =
12135 42465 82304 10054 20039 30059 40062 58020 885//
  333 91010 91110=
12160 42465 72107 10035 20028 39849 40077 57018 875//
  333 91112=
12185 42570 72205 10037 20021 39946 40082 58013 875//=
12195 42464 82506 10037 20024 39855 40083 58010 885//=
12200 41481 72103 10061 20036 30056 40063 57026 78022 873//=
12205 42681 52106 10067 20022 30069 40077 57022 85500=
12210 46/// /2004 10054 20029 30002 40066 57024=
12215 41/// /2005 10042 20027 39910 40081 57022 7////
  =
12230 42575 42203 10052 20019 30002 40092 57018 83502=
12235 41361 82107 10041 20031 39871 40082 57020 76162 8572/=
12250 41659 82003 10050 20030 30015 40104 57018 76122 885//=
12270 41458 72405 10041 20029 39923 40106 58015 71022 875//
  333 87614=
12272 42665 72104 10039 20018 39921 40089 57016 83506=
12280 42570 82104 10041 20018 39935 40093 57011 885//=
12285 41/// /2204 10048 20017 39991 40107 57014 700//=
12295 42565 82504 10040 20014 39922 40107 57007 885//=
12300 42984 22403 10047 20012 30010 40100 57016 82031=
12310 42980 52205 10056 20015 30038 40105 57021 85050=
12330 42965 12103 10043 20010 30005 40114 57015 81030=
12345 42661 71904 10057 20016 39975 40119 56017 875//=
12360 42665 72204 10051 20019 39978 40112 57018 875//=
12375 42670 52102 10048 20013 39994 40126 58013 82531=
12385 42663 72204 10043 20020 39936 40127 58009 875//=
12399 41559 82303 10047 20008 39960 40130 57007 71022 885//=
12400 42975 12203 10047 20006 39884 40121 57016 81041=
12415 42684 72605 10065 21007 39981 40134 57014 875//
  333 91110=
12418 42970 22205 10057 20005 30010 40125 57015 82030=
12424 42982 72205 10060 20013 39986 40139 57013 8707/=
12435 42965 72005 10054 20011 39957 40130 57017 8703/=
12455 42974 72304 10045 21001 39896 40144 57012 8703/=
12465 42663 72104 10043 20008 39910 40134 58013 875//=
12469 42670 62105 10030 21001 39906 40141 57015 865//=
12488 42574 72203 10042 20002 39984 40140 58010 875//=
12495 42660 72303 10030 20006 39854 40150 57008 8453/=
12497 42570 72204 10036 20008 39919 40141 58006 875//=
12500 42984 72204 10053 21014 39725 40144 56013 8707/=
12510 41/91 72714 11052 21052 38294 48421 56011 74843 875//
  444 76//5=
12520 42583 71904 10044 20000 39723 40160 56012 8157/=
12530 42960 71902 10053 20005 39951 40153 57011 8705/=
12540 42960 72203 10044 20009 39913 40169 56006 8707/=
12550 41956 72103 10035 21005 39789 40152 57013 71011 85051=
12560 42965 52103 10036 21002 39819 40164 57011 84052=
12566 42965 52303 10036 21012 39865 40163 57012 81038=
12570 41958 62304 10037 21003 39833 40155 57010 70422 82058=
12575 42660 72102 10055 21017 39908 40165 56010 83508=
12580 42980 52005 10026 21010 39906 40170 58008 81032=
12585 41957 61902 10029 20003 39885 40156 57013 71022 83078=
12595 46/70 /2103 10029 21002 39881 40160 57006 =
12600 42984 32104 10040 21018 39679 40167 58012 82032=
12625 42960 71201 10004 21043 39159 42778 57009 84048=
12650 41984 72809 11054 21120 37947 48459 57003 73833 84078
  333 91114=
12660 42970 72003 10050 21038 39812 40175 56007 80008=
12670 41958 71904 10004 21012 39773 40186 58004 71022 8707/=
12690 42680 71904 10015 21025 39665 40186 58009 81508=
12695 41/// /2504 10035 21029 39832 40177 57007 700//=
0000032200
001
SNMK10 LYPG 111600
AAXX 11161
13463 42570 50901 10106 20076 30169 40229 52004 83830=
13459 42670 71404 10084 20083 39466 40226 51002 84830 333 84696 86399
=
13461 42670 60703 10113 20089 30224 40231 58001 83834 333 81840 82656
92312 92428=
13363 42970 32501 10071 20025 39300 48522 57004 82031=
0000033300
002
SICY20 LCLK 111500
AAXX 11154
17600 42570 53206 10159 20100 30219 40229 55000 82102
  333 6///7 82830 84075=
17601 42681 62709 10161 20082 30191 40223 50001 82501
  333 55300 ///// 6///7 82645 86075=
17607 4//// ///// 48///=
17609 42780 52305 10167 20081 30215 40219 58001 82802
  333 6///7 82697 85075=
0000025200
003
SNBX42 EBUM 111600
AAXX 11161
06414 46/// /2702 10069 20030 30174 40207 53025 333   91106 91205=
06459 46/// /3004 10063 20058 30018 40213 52029 333   91107 91206=
06494 46/// /2906 10021 20016 39387 40198 53020 333   91113 91208=
0000065600
004
SNBX43 EBUM 111600
AAXX 11161
06418 46/// /3105 10075 20031 30192 40204 53025 333   91108 91206=
06434 46/// /2903 10072 20026 30191 40211 53028 333   91107 91205=
06439 46/// /2903 10072 20020 30192 40206 53030 333   91107 91205=
06447 42598 23104 10069 20025 30079 40205 53028 82200 333   91107
91205=
06455 46/// /2802 10058 20028 39912 40200 51026 333   91107 91204=
06464 46/// /2803 10064 20051 30161 40189 53029 333   91106 91204=
06472 46/// ///// 10050 20042 39849 40213 53025=
06477 46/// /2804 10069 20030 30147 40197 53030 333   91107 91205=
06484 46/// /2702 10066 20066 39812 40207 53014 333   91105 91203=
0000013800
005
SNFR30 LFPW 111600 CCA
AAXX 11164
07747 22570 70404 10128 20103 30154 40207 53004 875//
  333 60005 87626 90710 91107=
0000011100
006
UANT01 CWAO 111609
ARP SOO275 5957N03020W 1609 F330 MS59 207/78 KT
N775SA DDL XXW 111609 F52A
0000011100
007
UANT01 CWAO 111609
ARP UAL914 4906N04649W 1609 F310 MS56 297/60 KT
N675UA DDL XXN 111609 F31A
0000011000
008
UANT01 CWAO 111609
ARP AFR842 4552N03312W 1609 F320 MS51 320/39 KT
FGSQX QXT AOE 111609 F34A
0000003800
009
SDTH20 VTBB 111600
NIL
0000003800
010
SAUK53 EGRR 111600
NIL
0000057600
011
SNUK41 EGRR 111600 RRA
AAXX 11164
03257 45974 /3102 10045 20000 30146 40187 53024
  333 55307 20180 8//99=
03302 45970 /2403 10073 20017 30194 40209 53013
  333 55309 20365 8//99=
03414 45980 /2405 10050 20003 30122 40211 52016
  333 55310 20262 8//99=
03482 45578 /2710 10050 20020 30178 40205 52027
  333 82/25=
03502 45980 /1202 10060 20013 30052 40217 52011
  333 55310 20316 8//99=
03590 45683 /2910 10050 20014 30093 40205 53021
  333 55305 20178 82/31=
03853 45980 /2903 10062 20018 30194 40218 51010
  333 55309 20329 8//99=
0000314600
012
SNUK42 EGRR 111600
AAXX 11164
03002 47663 /2627 10053 20015 39999 40017 51007 781//
  333 81/36 87/50 90710 91142 91038=
03008 46/// /2823 10057 20015 39990 40063 53018
  333 90710 91138 91036=
03010 46/// /2820 10059 20005 40099 51019
  333 90710 91136=
03014 46/// /3033 40049 52016
  333 90710 91145=
03031 47784 /2910 10011 21008 39813 40147 51021 724//
  333 553// 20085 83/56 83/61=
03034 47982 /2612 10046 20007 30128 40142 53019 723//
  333 8//99=
03037 47675 /1905 10043 20015 30131 40154 53019 723//
  333 81/36 83/50=
03039 46/// /3024 11016 21021
  333 90710 91129=
03044 47783 /2712 10033 20000 30020 40121 52018 781//
  333 553// 20082 83/56 90710 91125=
03047 47357 /2808 10014 21007 39860 40170 52018 767//
  333 553// 20015 81/08 86/11=
03062 45984 /2009 10018 20000 30128 40133 53024
  333 553// 20039 8//99=
03065 46/// /2733 11056 21064
  333 90710 91145 91045=
03068 42584 12518 10030 21002 30125 40134 53025 81960
  333 81920 90710 91128=
03072 46/// /2929 11033 21063
  333 90710 91147=
03080 45984 /2808 10023 21031 39965 40140 52027
  333 8//99=
03088 45984 /2717 10039 21029 39967 40133 52020
  333 553// 20129 8//99 90710 91127=
03105 45972 /2712 10059 20030 30161 40178 53012
  333 8//99=
03132 45980 /2508 10034 20023 30173 40187 51010
  333 8//99=
03144 45784 /2309 10035 20003 30118 40162 52022
  333 553// 20114 81/50=
03148 46/// /2715 11011 21016
  333 90710 91127=
03153 45974 /2608 10025 20013 30044 40186 51016
  333 553// 20126 8//99=
03155 46982 /2410 10020 20007 39871 40175 51020
  333 8//99=
03158 45984 /2509 10033 20000 30023 40162 53023
  333 553// 20142 8//99=
03210 46470 /2711 10042 20035 30040 40194 51017
  333 81/13=
03212 45/80 /3003 10038 20010 30088 40189 51012=
03214 45981 /2808 10053 20029 30176 40195 51015
  333 8//99=
03220 46982 ///// 10041 20020 30149 40184 51017
  333 8//99=
03224 45382 /2614 10018 20015 39827 40181 51017
  333 81/07 84/22=
03225 46982 /1304 10014 21015 39877 40192 51016
  333 553// 20133 8//99=
03226 45984 /3504 10028 21001 39906 40188 51019
  333 8//99=
03227 46/// /2819 11022 2////
  333 90710 91127=
03230 46980 /2503 10018 21003 39915 40179 51024
  333 8//99=
03238 45984 /2709 10028 20006 39997 40174 51025
  333 8//99=
03261 46984 /2910 10045 21001 30148 40190 53021
  333 8//99=
03265 45982 /2808 10052 21003 30158 40189 52023
  333 8//99=
03266 46981 /2705 10044 21007 30173 40190 53024
  333 8//99=
03275 45979 /2612 10036 20001 39983 40180 53027
  333 8//99=
03281 46/// /2509 10025 21010=
03901 45982 /1505 10030 20016 30096 40187 52005
  333 55305 20277 83/68=
03904 45980 /2305 10040 20015 30125 40186 52006
  333 8//99=
03907 45682 /2209 10045 20026 30177 40185 53011
  333 55302 20171 84/39 83/48=
03911 46979 /2607 10018 20005 39914 40195 53009
  333 8//99=
03915 46969 /1605 10028 20013 30109 40189 53013
  333 8//99=
03916 46982 /2305 10027 20003 39992 40186 53010
  333 553// 20103 8//99=
03923 45972 /2506 10024 20018 39993 40194 53007
  333 85/64=
0000385800
013
SNUK43 EGRR 111600
AAXX 11164
03301 46969 /2404 10058 20020 30136 40211 53015
  333 8//99=
03305 45984 /2604 10034 21001 39949 40217 53018
  333 8//99=
03313 46986 /2505 10049 21006 30115 40211 52014
  333 8//99=
03316 45566 /2609 10065 20037 30195 40207 52019
  333 85/21=
03318 46/// /2707 10053 20035=
03321 45981 /3401 10068 20004 30197 40209 51017
  333 55310 20259 8//99=
03330 45481 /2806 10035 20014 39840 40209 51023
  333 82/12 85/18=
03344 45484 /2405 10029 20007 39873 40198 51026
  333 84/19=
03346 46/// /2914 10031 20004=
03351 45580 /2303 10051 20026 30164 40207 52020
  333 55304 20170 82/23=
03373 46984 /2707 10032 20001 30129 40200 52026
  333 8//99=
03379 46982 /2809 10047 20011 30127 40206 53024
  333 8//99=
03382 45982 /2606 10045 20011 30177 40186 51024
  333 55307 20154 8//99=
03385 46972 /2607 10045 20016 30186 40196 53030
  333 8//99=
03391 42782 12705 10055 20011 30195 40202 53027 81500
  333 81650=
03392 46980 /2710 10048 20022 30198 40202 53029
  333 8//99=
03405 469// /2107 10063 20017 30102 40220 52012
  333 553// 20376 8//99=
03409 46/// /2404 10047 20009 30010 40214 52016
  333 55307 2////=
03410 46981 /2405 10029 20001 39770 40215 51017
  333 553// 20271 8//99=
03469 45983 /2709 10048 20021 30202 40206 53028
  333 553// 20102 8//99=
03488 45984 /2713 10046 20018 30168 40195 53027
  333 8//99=
03503 45981 /1801 10041 20017 30140 40219 52015
  333 8//99=
03520 46979 /2703 10054 20005 30095 40218 51018
  333 553// 20298 8//99=
03522 45978 /2503 10054 20006 30127 40222 51018
  333 8//99=
03529 45981 /3002 10057 21001 30178 40222 53016
  333 8//99=
03544 45984 /2804 10047 20006 30081 40215 51024
  333 553// 20212 8//99=
03560 45984 /3008 10046 20008 30106 40213 51021
  333 553// 20228 8//99=
03604 46983 /1503 10066 20011 30164 40219 53012
  333 8//99=
03605 46981 /1703 10067 20021 30213 40221 53012
  333 8//99=
03609 46/// /1704 10075 20039 30173 40226 53012=
03628 45974 /2305 10053 20012 30145 40219 53014
  333 55309 20304 8//99=
03647 46980 /3106 10027 21004 39955 40217 52017
  333 553// 20276 8//99=
03658 42582 22803 10062 20013 30146 40217 51015 81101
  333 81825=
03660 45983 /2904 10052 20000 39966 40219 52019
  333 8//99=
03672 42585 13105 10064 20002 30175 40216 53018 81401
  333 81625=
03680 46/// ///// 10053 20012 30057 40216 52018
  333 553// 20243=
03684 45582 /2808 10060 20016 30100 40208 53020
  333 82/24=
03693 45984 /3006 10065 20025 30211 40213 53021
  333 8//99=
03707 45983 /1601 10085 20013 30213 40220 53008
  333 8//99=
03710 46981 /2701 10060 21011 39792 40218 53010
  333 553// 20327 8//99=
03743 46982 /2802 10058 20018 30057 40221 51014
  333 8//99=
03749 46976 /3202 10065 20015 30110 40222 53015
  333 8//99=
03761 42982 22904 10067 20014 30073 40219 53015 80001
  333 55309 20302 82075=
03768 46982 /3004 10066 20012 30138 40219 53016
  333 8//99=
03769 45980 /2703 10067 20006 30133 40217 53016
  333 55307 20175 8//99=
03770 46/// ///// 10075 20009=
03781 45984 /2906 10049 20002 30007 40218 53017
  333 553// 20225 8//99=
03784 46/// /2907 10073 20019 30208 40212 53019=
03797 45681 /2909 10068 20019 30154 40215 53021
  333 55307 20247 83/34=
03823 45979 /1607 10062 20036 39970 40217 52009
  333 553// 20415 8//99=
03839 46/// ///// 10066 20011
  333 553// 20263=
03857 45981 /2801 10083 20017 30154 40219 50011
  333 8//99=
03862 45982 /3302 10066 20012 30207 40219 52012
  333 55310 20337 8//99=
03866 46/// /2705 10084 20034 30196 40221 53016=
03872 45984 ///// 10073 20011 30214 40219 53016
  333 553// 20316 8//99 91007=
03876 46/// /3305 10065 20019 30217 40219 53017=
03895 42484 10505 10086 20046 40222 52008 81501 333 81617=
0000004800
014
SREW41 EGRR 111500 RRA
03047002=
0000125000
015
SREW41 EGRR 111600
03002OTR 03005000 03008000 03017OTR 03026OTR 03031006 03034OTR
03037OTR 03044006 03047010 03062000 03063OTR 03066000 03068000
03075000 03080000 03088000 03091000 03100000 03105000 03111000
03132000 03134000 03136000 03144000 03153000 03155000 03158000
03162000 03166000 03171000 03204000 03210000 03212000 03214000
03220000 03224000 03225000 03226000 03230000 03238000 03240000
03257000 03261000 03265000 03266000 03275000 03281000 03292000
03301000 03302000 03305000 03313000 03316000 03318000 03321000
03330000 03344000 03346000 03351000 03354000 03373000 03377000
03379000 03382000 03391000 03392000 03405000 03409000 03410000
03414000 03462000 03469000 03482000 03488000 03502000 03503000
03520000 03522000 03529000 03535000 03544000 03560000 03590000
03604000 03605000 03609000 03628000 03647000 03649000 03658000
03660000 03672000 03684000 03693000 03707000 03710000 03716000
03740000 03743000 03746000 03749000 03761000 03768000 03769000
03770000 03772000 03781000 03797000 03803000 03808000 03809000
03823000 03827000 03839000 03840000 03853000 03857000 03862000
03866000 03872000 03876000 03882000 03901000 03904000 03907000
03911999 03915000 03916000 03917000 03923000=
0000174900
016
SASA85 EGRR 111600 RRA
METAR SAWG 111600Z 32006KT 9999 FEW030 18/06 Q1008=
METAR SBAR 111600Z 17008KT 9999 SCT016 29/21 Q1014=
METAR SBBR 111600Z 07007KT 9999 BKN040 28/14 Q1019=
METAR SBBV 111600Z 02011KT 010V080 9999 SCT040 31/16 Q1014=
METAR SBCR 111600Z 01006KT 9999 FEW020 34/22 Q1012=
METAR SBCY 111600Z 03007KT 9999 SCT020 FEW025TCU 28/19 Q1014=
METAR SBFI 111600Z 35010KT 9999 SCT025 SCT100 34/22 Q1012=
METAR SBFN 111600Z 09013KT 9999 SCT023 29/20 Q1013=
METAR SBFZ 111600Z 08020KT 9999 SCT025 31/18 Q1011=
METAR SBGO 111600Z 06006KT 9999 SCT035 FEW040TCU 31/15 Q1017=
METAR SBKP 111600Z 31007KT 9999 BKN048 SCT090 31/18 Q1017=
METAR SBMO 111600Z 14010KT 9999 SCT020 30/20 Q1014=
METAR SBNT 111600Z 12014KT 9999 BKN030 30/20 Q1012=
METAR SBPA 111600Z 28008KT 9999 FEW037 FEW040TCU SCT100 28/19 Q1011=
METAR SBPV 111600Z 29001KT 9999 SCT013 BKN018 BKN100 26/22 Q1014=
METAR SBRB 111600Z 36002KT 9999 BKN020 BKN100 ///// Q1013=
METAR SBRF 111600Z 15009KT 9999 SCT020 28/23 Q1013=
METAR SBRP 111600Z 33015KT 9999 -RA BKN045 29/22 Q1016=
METAR SBSJ 111600Z 03005KT 9999 FEW025 FEW030TCU 33/13 Q1017=
METAR SKBO 111600Z VRB02KT 9999 FEW020 18/05 A3035=
METAR SMJP 111600Z 11003KT 9999 SCT020 29/22 Q1014 NOSIG=
METAR SPIM 111600Z 16008KT 130V200 9999 SCT010 23/19 Q1012 NOSIG RMK
      PP000=
METAR SUMU 111600Z 18015G25KT 9999 BKN026 20/12 Q1017 NOSIG=
METAR SVBC 111600Z 36010KT 9999 FEW010 33/22 Q1017=
METAR SVBM 111600Z 11009KT 9999 SCT016 28/19 Q1020=
METAR SVJC 111600Z 09026KT 9999 SCT013 29/21 Q1016=
METAR SVMC 111600Z /////KT 9999 FEW016 33/23 Q1015=
METAR SVMI 111600Z 05003KT 9999 SCT016 28/21 Q1017 NOSIG=
METAR SVSA 111600Z /////KT 9999 FEW017 31/14 Q1016=
0000172400
017
SASA85 EGRR 111600 RRB
METAR SADF 111600Z 14009G19KT CAVOK 25/05 Q1018=
METAR SBFL 111600Z 36012KT CAVOK 32/21 Q1011=
METAR SEGU 111600Z 03003KT 9999 SCT020 BKN033 BKN100 29/20 Q1012 RMK
      A2988 NOSIG=
METAR SEMT 111600Z 27007KT 9999 FEW020 BKN026 27/23 Q1012=
METAR SPCL 111600Z 35003KT 9999 FEW018 BKN080 28/23 Q1014 RMK BIRD
      HAZARD RWY 02/20 PP000=
METAR SPGM 111600Z /////KT 8000 SCT020 OVC090 22/20 Q1017 RMK PP010=
METAR SPHI 111600Z 17007KT 110V210 9999 FEW030 29/22 Q1012 RMK PP000=
METAR SPHO 111600Z VRB04KT 9999 SCT033 BKN080 17/14 Q1026 RMK BR PP000=
METAR SPHY 111600Z 35007KT 9000 SCT012 SCT050 14/09 Q1034 RMK PP000=
METAR SPJI 111600Z 00000KT 9999 BKN030 29/23 Q1022 RMK PP000=
METAR SPJL 111600Z 12014KT CAVOK 16/02 Q1038 RMK PP000=
METAR SPJR 111600Z 14003KT 9999 FEW026 20/12 Q1027 RMK PP000=
METAR SPLO 111600Z 16008KT CAVOK 25/20 Q1009 RMK PP000=
METAR SPME 111600Z 35005KT 9999 FEW013 OVC017 27/23 Q1012 RMK BIRD
      HAZARD RWY 32/14 PP000=
METAR SPMS 111600Z /////KT 9999 SCT020 SCT100 29/23 Q1015 RMK BIRD
      HAZARD 09/27 PP000=
METAR SPQT 111600Z 05007KT 020V090 9999 BKN025 BKN100 30/23 Q1013 NOSIG
      RMK PP000=
METAR SPRU 111600Z 16010KT 9999 SCT013 BKN120 22/19 Q1012 RMK PP000=
METAR SPSO 111600Z /////KT 8000 FEW020 SCT100 25/20 Q1012 RMK BIRD
      HAZARD RWY 22/04 PP000=
METAR SPST 111600Z 00000KT 9999 SCT025 BKN100 28/19 Q1013 RMK BIRD
      HAZARD RWY 17/35 PP000=
METAR SPTN 111600Z 21009KT CAVOK 27/16 Q1009 RMK PP000=
METAR SPTU 111600Z 33005KT 8000 -RA SCT009 FEW010TCU 29/26 Q1012 RMK
      BIRD HAZARD RWY 01/19 -RA AL MOMENTO PP000=
METAR SPYL 111600Z 16011KT CAVOK 30/20 Q1011 RMK PP000=
0000164400
018
SASA85 EGRR 111600 RRC
METAR SABE 111600Z 14017KT CAVOK 24/03 Q1018=
METAR SACO 111600Z 14007KT CAVOK 28/11 Q1022=
METAR SARF 111600Z 18014KT 0700 +TSRA BKN007 BKN040 FEW040CB 20/19
      Q1016=
METAR SAVC 111600Z 07011KT CAVOK 20/05 Q1017=
METAR SAVE 111600Z 23004KT CAVOK 20/03 Q1019=
METAR SBCF 111600Z 08007KT 9999 BKN040 29/15 Q1020=
METAR SBCT 111600Z 03010KT 6000 -TSRA BKN020 FEW030CB 19/17 Q1018=
METAR SBCZ 111600Z 36004KT 5000 -RA BKN006 OVC090 25/24 Q1014=
METAR SBMA 111600Z 07003KT 9999 SCT023 30/24 Q1012=
METAR SBMN 111600Z 05006KT 9999 SCT019 FEW025TCU BKN100 27/22 Q1014=
METAR SBMQ 111600Z 00000KT 9999 BKN015 BKN080 30/24 Q1012=
METAR SBPP 111600Z 33008KT 9999 SCT025 32/19 Q1016=
METAR SBRJ 111600Z 01005KT 9999 FEW025 35/23 Q1012=
METAR SBSN 111600Z 06005KT 9999 SCT017 BKN100 30/20 Q1013=
METAR SBTE 111600Z 00000KT 9999 SCT040 32/22 Q1010=
METAR SBUG 111600Z 15003KT 9999 BKN020 BKN100 24/19 Q1015=
METAR SBVT 111600Z 08014KT 9999 FEW030 33/23 Q1016=
METAR SCAR 111600Z 20012KT CAVOK 25/17 Q1010=
METAR SCBA 111600Z 29014KT 260V330 CAVOK 18/05 Q1018=
METAR SCDA 111600Z 20013KT CAVOK 25/15 Q1011=
METAR SELT 111600Z 14007KT 9999 SCT030 SCT100 17/11 Q1029=
METAR SGAS 111600Z 18018KT 9999 -SHRA BKN030 BKN030 BKN083 28/21 Q1011=
METAR SGES 111600Z 01014KT 320V070 9999 SCT027 FEW040TCU BKN200 30/24
      Q1012=
METAR SOCA 111600Z AUTO 05003KT 010V090 9999 SCT011 BKN076 BKN110 26/22
      Q1013=
METAR SPQU 111600Z 24009KT 210V280 CAVOK 20/09 Q1024 NOSIG RMK PP000=
METAR SPZO 111600Z VRB03KT 9999 FEW040 SCT080 18/04 Q1031 NOSIG RMK
      PP000=
0000123200
019
FTSA85 EGRR 111603
TAF SBFZ 111600Z 1118/1218 08012KT 9999 SCT020 TN25/1208Z TX30/1215Z
     BECMG 1121/1122 08008KT
     BECMG 1209/1211 08013KT
     RMK PEA=
TAF SBJP 111600Z 1118/1218 11007KT 9999 SCT020 TN22/1205Z TX29/1214Z
     BECMG 1203/1205 21005KT
     BECMG 1211/1213 12010KT
     RMK PEA=
TAF SBMO 111600Z 1118/1218 09009KT 9999 SCT020 TN22/1205Z TX29/1213Z
     BECMG 1202/1203 03004KT
     BECMG 1209/1211 11008KT
     RMK PEA=
TAF SBNT 111600Z 1118/1218 12012KT 9999 SCT020 TN24/1208Z TX30/1214Z
     BECMG 1122/1123 12006KT
     BECMG 1210/1212 12013KT BKN020
     RMK PEA=
TAF SVBC 111600Z 1118/1218 00000KT 9999 FEW010 SCT090 TX34/18Z
     TN21/11Z
     FM112230 34005KT 9999 SCT010
     BECMG 1202/1206 9000 DZ BKN010=
TAF SVMC 111600Z 1118/1218 09003KT 9999 FEW013 SCT100 TX34/17Z
     TN2/12Z
     FM112230 34008KT 9999 FEW020
     BECMG 1202/1206 FEW010 SCT090=
TAF SVMG 111600Z 1118/1218 00000KT 9999 FEW010 TX32/19Z TN24/11Z
     FM112230 09012KT 9999 FEW010 SCT080
     BECMG 1202/1206 SCT010 BKN270=
TAF SVMI 111600Z 1118/1218 07008KT 9999 SCT016 TX29/17Z TN22/11Z
     FM112230 02006KT 9999 FEW016
     BECMG 1202/1206 9999 SCT016=
00000000