0000190000
760
SSVX02 KARS 111603
ZZYY 56607 11014 1555/ 311273 125597 6111/
22219 00305
444 20110 11014 1547/ 50101 80104 80047 9/015=
ZZYY 56608 11014 1555/ 311969 131577 6111/
22219 00313
444 20110 11014 1546/ 50101 80104 80036 9/015=
ZZYY 55947 11014 1555/ 312033 132262 6112/
22219 00314
444 20120 11014 1546/ 50101 80104 80014 9/015=
ZZYY 56610 11014 1556/ 318827 119887 6111/
22219 00298
444 20110 11014 1403/ 50101 80104 80025 9/015=
ZZYY 56606 11014 1556/ 313924 126677 6111/
22219 00309
444 20110 11014 1404/ 50101 80104 80003 9/015=
ZZYY 51667 11014 1556/ 312930 127093 6111/
22219 00304
444 20110 11014 1547/ 50101 80106 80008 9/015=
ZZYY 55945 11014 1556/ 311445 139493 6111/
22219 00305
444 20110 11014 1544/ 50101 80104 80020 9/015=
ZZYY 55939 11014 1554/ 310537 134737 6113/
22219 00305
444 20130 11014 1304/ 50101 80104 80043 9/015=
ZZYY 56904 11014 1555/ 316041 119843 6112/
22219 00297
444 20120 11014 1441/ 50101 80104 80047 9/015=
ZZYY 56903 11014 1556/ 318941 119853 6111/
22219 00300
444 20110 11014 1549/ 50101 80104 80011 9/015=
ZZYY 55908 11014 1556/ 334413 165726 6112/
22219 00201
444 20120 11014 1553/ 50101 80098 80008 9/015=
ZZYY 71667 11014 1550/ 340902 115483 6111/
11119 30180 40180
444 20110 11014 1536/ 50101 80070 80006 9/015=
ZZYY 71675 11014 1530/ 347672 161575 6111/
11119 39978 49978
22219 00115
444 20110 11014 1427/ 50101 80060 80097 9/015=
ZZYY 55930 11014 1553/ 331764 162806 6111/
22219 00216
444 20110 11014 1037/ 50101 80101 80035 9/015=
ZZYY 71664 11014 1530/ 344845 156401 6111/
11119 30029 40029
22219 00136
444 20110 11014 1419/ 50101 80090 80098 9/015=
ZZYY 71661 11014 1520/ 335835 117582 6112/
444 20120 11014 1438/ 50101 80130 80098 9/015=
ZZYY 54551 11014 1555/ 326255 169450 6111/
22219 00251
444 20110 11014 1552/ 50101 80084 80022 9/015=
0000125800
761
SNNO23 ENMI 111600
AAXX 11161
01015 46/// ///// 11071 21100=
01023 41689 12101 11268 21294 30094 40202 57001 70200 81500=
01033 46/// /1505 11041 21080 30147 40179 50000=
01059 46/// /2002 11124 21137 30179 40189 53002=
01089 46/// /1404 11193 21211 30066 40183 55002=
01167 NIL=
01180 NIL=
01210 46/// /1804 11020 21034 39974 40001 52006=
01228 46/// /1109 11055 21098 30010 40018 52005=
01240 46/// /1012 11063 21101 30011 40032 55001=
01304 46/// /1003 10007 21051 39973 40005 52011=
01311 47/81 00101 11002 21013 39955 40017 53024 700//=
01340 46/// /2704 11018 21028 39114 49986 53013=
01355 26/// ///// 10003 2//// 39974 49979 53009 333 60005=
01360 NIL=
01392 46/// /0403 11086 21110 39793 40028 53002=
01406 46/// ///// 10036 21002 39998 40016 52027=
01411 46/// ///// 10053 20025 39988 40016 53019=
01425 26/// /1802 10028 20009 39933 40013 53008 333 69955=
01433 46/// /2706 11038 21049 38731 49993 53010=
01442 26/// /3401 10026 21021 39737 49994 57002 333 60005=
01450 26/// /2806 11023 21054 38836 49977 53006 333 4/048 60005=
01452 46/// /2602 10036 20008 39976 49997 55000=
01473 46/// /0103 11033 21044 39785 49997 53005=
01494 47234 80204 11017 21021 39927 49993 52004 710//=
0000010000
762
SIXX40 ETGT 111500 RRD
AAXX 11154
40255 42960 00000 10110 20045 39508 40235 54003=
0000070900
763
SNIY21 LIIB 111600
AAXX 11164
16022 41/00 92417 11014 21021 37861 48503 56002 74944 333 55300 89/00
      92865=
16052 42880 50509 11070 21172 36635 47069 58004 85020 333 55300
      85457=
16061 41/01 90000 10066 20066 39378 42822 56001 74742 333 55300 89/01
      90004=
16098 41635 70000 10086 20062 30166 40218 57012 71022 87200 333
      87640=
16179 42580 50602 10098 20062 39530 42821 54000 81131 333 81830
      83358=
16224 41657 70402 10088 20069 39893 40215 57007 71022 81570 333 55300
      81640 83358=
16258 41/00 91705 10068 20068 39215 42816 57005 74542 333 89/00=
16344 42760 42710 10066 21097 38346 48527 54004 84030 333 84350 95000
      95100=
0000011000
764
UANT01 CWAO 111606
ARP AAL37 5516N04105W 1605 F330 MS56 278/48 KT
N390AA DDL XXN 111606 F76A
0000011000
765
UANT01 CWAO 111606
ARP EIN137 5307N02310W 1605 F380 MS57 199/61 KT
EIDUO DDL XXN 111606 J22A
0000015700
766
SSVX13 LFPW 111600
ZZYY 64609 11014 1600/ 768954 004366 6113/ 11119 40125 52003 22219
 00047 444 20130 11014 1500/ 50101 80140 80031 9/015=
0000015700
767
SSVX13 LFPW 111600
ZZYY 44765 11014 1600/ 746719 035505 6113/ 11119 40063 57005 22219
 00110 444 20130 11014 1500/ 50101 80138 8//// 9/015=
0000015700
768
SSVX13 LFPW 111600
ZZYY 64664 11014 1600/ 768006 016144 6113/ 11119 40068 52004 22219
 00014 444 20130 11014 1500/ 50101 80148 80006 9/015=
0000015700
769
SSVX13 LFPW 111600
ZZYY 25652 11014 1600/ 181944 103490 6113/ 11119 40152 57006 22219
 01095 444 20130 11014 1500/ 50101 80138 8//// 9/015=
0000015700
770
SSVX13 LFPW 111600
ZZYY 64613 11014 1600/ 762343 005413 6113/ 11119 40032 52044 22219
 00080 444 20130 11014 1500/ 50101 80142 80010 9/015=
0000014500
771
SSVX13 LFPW 111600
ZZYY 64519 11014 1600/ 163048 007399 6113/ 11119 49993 52005 444
 20130 11014 1500/ 50101 80138 80002 9/015=
0000015700
772
SSVX13 LFPW 111600
ZZYY 16536 11014 1600/ 338615 059264 6113/ 11119 40139 57025 22219
 00170 444 20130 11014 1500/ 50101 80142 80013 9/015=
0000015700
773
SSVX13 LFPW 111600
ZZYY 16539 11014 1600/ 342302 089833 6113/ 11119 40072 57009 22219
 00118 444 20130 11014 1500/ 50101 80144 80034 9/015=
0000015700
774
SSVX13 LFPW 111600
ZZYY 44726 11014 1600/ 750014 003028 6113/ 11119 40213 52007 22219
 00116 444 20130 11014 1500/ 50101 80100 80003 9/015=
0000015700
775
SSVX13 LFPW 111600
ZZYY 16537 11014 1600/ 334983 054674 6113/ 11119 40120 57011 22219
 00193 444 20130 11014 1500/ 50101 80144 80015 9/015=
0000015700
776
SSVX13 LFPW 111600
ZZYY 16617 11014 1600/ 335997 078166 6113/ 11119 40242 52008 22219
 00167 444 20130 11014 1500/ 50101 80148 80011 9/015=
0000015700
777
SSVX13 LFPW 111600
ZZYY 64622 11014 1600/ 766560 009505 6113/ 11119 40066 52006 22219
 00021 444 20130 11014 1500/ 50101 80142 80010 9/015=
0000015700
778
SSVX13 LFPW 111600
ZZYY 44724 11014 1600/ 756267 021701 6113/ 11119 49980 57056 22219
 00103 444 20130 11014 1500/ 50101 80130 80021 9/015=
0000015700
779
SSVX13 LFPW 111600
ZZYY 16543 11014 1600/ 346033 078115 6113/ 11119 40089 52011 22219
 00074 444 20130 11014 1500/ 50101 80142 80019 9/015=
00000000