0000024100
547
SOAT10 KWAL 111623
FA8005BC 011162337 OT12 ID:KN-BASS-01 DT:2014 01 11 16 21
:RD -3043 -3027 -3057 -3079 -3061 -3071 -3041 -3052 -3054 -3051
:PR 0577 0644 0639 0605 0664 0643 0602 0602 0627 0624
:B 13.7V
 46+1NN 219E
0000045800
548
SAIN31 VABB 111610
METAR VAAH 111610Z 04006KT 3000 HZ NSC 16/08 Q1019 NOSIG=
METAR VABB 111610Z 33004KT 2500 FU NSC 21/06 Q1016 NOSIG=
METAR VANP 111610Z 03004KT 4000 HZ NSC 18/13 Q1017 NOSIG=
METAR VOHS 111610Z 12003KT 5000 HZ SCT020 20/14 Q1018 NOSIG=
METAR VOMM 111610Z 09006KT 6000 FEW020 23/20 Q1015 NOSIG=
METAR VOTR 111610Z 09008KT 4000 HZ NSC 24/20 Q1015 NOSIG=
METAR VOTV 111610Z 00000KT 4000 HZ FEW015 26/23 Q1013 NOSIG=
0000071100
549
WWCN02 CYTR 111621
WEATHER BULLETIN FOR CFB COLD LAKE PREPARED BY THE JOINT
METEOROLOGICAL CENTRE AT 9:21 AM MST SATURDAY 11 JANUARY 2014.
LOCATION: CFB COLD LAKE (CYOD)
TYPE: SNOWFALL WARNING IN EFFECT
DESCRIPTION: SNOWFALL ACCUMULATIONS GREATER THAN 2.5 CM IN 6 HOURS
VALID: 11/1800Z TO 12/0200Z (11/1100 MST TO 11/1900 MST)
COMMENTS: A LOW PRESSURE SYSTEM CURRENTLY OVER THE ROCKIES WILL MOVE
EAST AND MOVE INTO ALBERTA TODAY. THIS SYSTEM WILL PUSH SNOWFALL
INTO THE COLD LAKE AREA BEGINNING THIS AFTERNOON. SNOWFALL
ACCUMULATIONS OF 3 TO 5 CM ARE EXPECTED BEFORE THE SNOW ENDS THIS
EVENING.
NEXT UPDATE: THIS BULLETIN WILL BE UPDATED BY 11/2230Z (11/1530 MST)
END/JMC
0000146400
550
WWTO40 NFFN 111500
 
Special Weather Bulletin Number THIRTY TWO for Tonga ON SEVERE
TROPICAL CYCLONE IAN ISSUED FROM RSMC NADI
Jan 11/1624 UTC 2014 UTC.
 

 

THE TROPICAL CYCLONE GALE WARNING PREVIOUSLY IN FORCE FOR THE
TONGATAPU GROUP IS NOW CANCELLED.
A STRONG WIND WARNING REMAINS IN FORCE FOR THE VA'VAU AND HA'APAI
GROUP AND IS NOW IN FORCE FOR THE TONGATAPU GROUP.

SEVERE TROPICAL CYCLONE IAN CENTRE [935HPA] CAT 5 WAS LOCATED NEAR 22
DECIMAL 0 SOUTH 173 DECIMAL 4 WEST OR ABOUT 145 NAUTICAL MILES
SOUTH-SOUTHEAST OF HA'APAI OR 110 NAUTICAL MILES EAST-SOUTHEAST OF
NUKU'ALOFA AT 111500 UTC.  CLOSE TO ITS CENTRE, THE CYCLONE IS
ESTIMATED TO HAVE AVERAGE WINDS UP TO ABOUT 110 KNOTS WITH MOMENTARY
GUSTS TO 155 KNOTS. IAN IS CURRENTLY MOVING TOWARDS THE
SOUTH-SOUTHEAST AT ABOUT 11 KNOTS AWAY FROM TONGA.

ON THIS TRACK, THE CYCLONE IS NOT EXPECTED TO DIRECTLY CAUSE GALES
OVER THE TONGATAPU GROUP IN THE NEXT 2 TO 3 HOURS.


FOR THE TONGATAPU GROUP, VA'VAU AND HA'APAI GROUP:
NORTHWEST TO SOUTHWEST WINDS 20 TO 25, GUSTING TO 40 KNOTS.
OCCASIOANL RAIN, HEAVY AT TIMES AND SQUALLY THUNDERSTORMS. FLOODING
INCLUDING SEA FLOODING OF LOW LYING COASTAL AREAS STILL LIKELY. SEAS
VERY ROUGH WITH DAMAGING HEAVY SWELLS.

FOR THE NIUAS AND TAFAHI:
MODERATE TO FRESH WESTERLY WINDS. OCCASIONAL SHOWERS, HEAVY AT
TIMES.SEAS ROUGH WITH MODERATE SWELLS.
 
 

THIS WILL BE THE LAST SPECIAL WEATHER BULLETIN FOR TONGA.
0000024900
551
SNHK22 VHHH 111615
AAXX 11161
45032 36/// /1301 10142 20129 30221 40238 57001=
45035 36/// /0603 10138 20121 30197 40241 54000=
45039 36/// /9901 10130 20124 30226 40242 54000=
45044 36/// /0504 10153 20126 30140 40236 57001=
0000017700
552
SNAA19 LFVW 111600 RRA
AAXX 11164
89807 46/// /0000 11082 29089 39824 4//// 5////=
89614 46/// /0922 11023 29001 39024 4//// 5//// 91630
  333 90700 91127=
0000009000
553
SNSE01 LFVW 111600
AAXX 1116/
94997 46/// ///// 10027 39978 49993 5////=
0000009000
554
SISE01 LFVW 111500
AAXX 1115/
94997 46/// ///// 10025 39966 49981 5////=
0000010000
555
SIAU24 AMMC 111500 RRB
AAXX 11154
94997 46/// ///// 10025 39966 49981 5////=


0000011100
556
UANT99 KDDL 111622
ARP XLF1670 4803N00944W 1622 F380 MS63 269/47 KT
FGRSQ DDL BES 111622 J53A
0000011000
557
UANT99 KDDL 111622
ARP FDX32 5520N03709W 1622 F349 MS57 259/26 KT
N580FE QXT AOW 111622 F48A
0000010900
558
UANT99 KDDL 111622
ARP AAL49 6659N06005W 1623 F340 MS61 180/8 KT
N355AA DDL SFJ 111622 F65A
0000192200
559
SZAU01 AMMC 111624
CREX++
T000103 A001 D01021 D06025++
-1927750 14705860 59260 2014 01 11 16 17 3022 11 07 00 01
00919 0193 00929 0198 00935 0199 00938 0196 00944 0197 00950 0198+
-2316110 15079000 59670 2014 01 11 16 17 2998 11 07 00 01
01702 0186 01712 0188 01708 0173 01715 0172 01726 0176 01731 0170+
-3447330 15091170 60420 2014 01 11 16 17 2945 11 07 00 01
00997 -0034 01011 -0024 01015 -0024 01028 -0015 01032 -0015 01036 -0015+
-4105000 14591500 60910 2014 01 11 16 17 2888 11 07 00 01
00920 -0058 00919 -0060 00912 -0068 00917 -0064 00920 -0062 00919 -0065+
-4254640 14793080 61170 2014 01 11 16 17 2903 11 07 00 01
01341 0041 01352 0050 01356 0051 01358 0051 01354 0045 01364 0053+
-3834390 14161360 61410 2014 01 11 16 17 2908 11 07 00 01
00728 0001 00719 -0007 00726 0000 00726 0001 00716 -0009 00685 -0039+
-3214890 13364170 62000 2014 01 11 16 17 2955 11 07 00 01
01488 0042 01488 0044 01482 0040 01479 0039 01474 0036 01472 0036+
-3387080 12189720 62080 2014 01 11 16 17 2948 11 07 00 01
00861 0012 00860 0012 00866 0020 00869 0025 00853 0010 00853 0012+
-3182560 11573860 62237 2014 01 11 16 17 2973 11 07 00 01
00657 0049 00657 0050 00652 0047 00651 0047 00644 0041 00648 0047+
-2422000 11339750 62385 2014 01 11 16 17 //// 11 07 00 01
00797 -0046 00769 -0073 00759 -0082 00737 -0102 00726 -0112 00705 -0132+
-2181670 11419110 62430 2014 01 11 16 17 //// 11 07 00 01
01337 -0112 01324 -0122 01314 -0130 01298 -0144 01312 -0127 01310 -0127+
-1800080 12221830 62650 2014 01 11 16 17 3043 11 07 00 01
04785 0264 04778 0264 04772 0264 04766 0266 04761 0267 04756 0268+
-1247190 13084580 63230 2014 01 11 16 17 3050 11 07 00 01
05068 -0134 05067 -0137 05070 -0136 05082 -0126 05084 -0126 05081 -0130+
-1386000 13641580 63511 2014 01 11 16 17 3043 11 07 00 01
01698 0087 01698 0089 01696 0089 01696 0091 01697 0094 01697 0096++
7777

0000179400
560
SZPS01 AMMC 111624
CREX++
T000103 A001 D01021 D06025++
-0204190 14737360 56130 2014 01 11 16 17 3025 11 07 00 01
00654 0095 00656 0095 00657 0094 00660 0095 00663 0096 00666 0097+
-0669280 15640860 56363 2014 01 11 16 17 //// 11 07 00 01
00665 -0053 00667 -0050 00668 -0049 00665 -0052 00671 -0045 00669 -0046+
-0942890 15995560 56670 2014 01 11 16 17 3038 11 07 00 01
00594 -0043 00595 -0044 00596 -0044 00594 -0047 00598 -0044 00599 -0044+
-1072080 16580190 57131 2014 01 11 16 17 //// 11 07 00 01
02400 1572 02691 1864 02731 1905 02823 1997 03361 2537 02241 1417+
-1551560 16718860 57210 2014 01 11 16 17 //// 11 07 00 01
01080 -0131 01079 -0132 01095 -0115 01084 -0126 01079 -0130 01080 -0128+
-1775690 16830030 57320 2014 01 11 16 17 3015 11 07 00 01
01117 -0041 01120 -0038 01124 -0035 01127 -0033 01128 -0032 01130 -0031+
-4397330 16861610 65180 2014 01 11 16 17 2883 11 07 00 01
01554 0421 01533 0396 01555 0413 01585 0437 01576 0424 01573 0416+
-2120470 -15978530 65980 2014 01 11 16 17 3008 11 07 00 01
00836 0058 00808 0030 00775 -0003 00817 0040 00839 0062 00822 0046+
-2113810 -17518140 66600 2014 01 11 16 17 //// 11 07 00 01
01514 0091 01511 0088 01510 0089 01505 0085 01510 0090 01505 0087+
-1382670 -17176110 66840 2014 01 11 16 17 3010 11 07 00 01
01054 0064 01058 0070 01053 0067 01049 0065 01046 0064 01045 0065+
-1813250 17842750 67050 2014 01 11 16 17 3030 11 07 00 01
01647 0085 01643 0082 01641 0081 01639 0080 01645 0087 01644 0087+
-1760530 17743810 67070 2014 01 11 16 17 3028 11 07 00 01
01783 0039 01780 0037 01779 0037 01779 0039 01778 0038 ///// ////+
-0850250 17919500 67440 2014 01 11 16 17 3027 11 07 00 01
02302 -0007 02290 -0017 02296 -0008 02298 -0003 02290 -0009 02283 -0013++
7777

0000034200
561
SZIO01 AMMC 111624
CREX++
T000103 A001 D01021 D06025++
-1211670 09689190 46280 2014 01 11 16 17 3020 11 07 00 01
00674 0007 00677 0009 00678 0010 00682 0013 00682 0011 00677 0006+
-1042940 10566940 46290 2014 01 11 16 17 //// 11 07 00 01
00689 0057 00618 -0014 00692 0060 00640 0009 00664 0034 00646 0016++
7777

0000046800
562
SZPA01 AMMC 111624
CREX++
T000103 A001 D01021 D06025++
0136250 17293000 67590 2014 01 11 16 17 3015 11 07 00 01
01835 0009 01824 0001 01821 0001 01817 0000 01818 0004 01808 -0003+
0710610 17137250 67680 2014 01 11 16 17 3013 11 07 00 01
01140 0036 01137 0035 01136 0037 01138 0042 01131 0037 01135 0044+
0698060 15820000 67950 2014 01 11 16 17 3022 11 07 00 01
00775 0119 00778 0123 00775 0120 00772 0118 00766 0113 00764 0111++
7777

0000012200
563
SNVX21 EDZW 111600
BBXX
DBBH 11161 99172 30115 41/96 /1809 10193 20177 40128 57009
7//// 22271 04197 =
0000742900
564
SNVF21 EGRR 111600
BBXX
62163 11164 99475 70084 46/// /1715 10113 20092 40177 56007 22200
00122 10705 70025=
62301 11164 99524 70047 46/// /1804 10073 20010 40215 52007 22200
00096 10503 70014=
64045 11164 99591 70117 46/// /2617 10066 20001 40117 52011 22200
00096 10808 70039=
62105 11164 99550 70132 46/// /1617 10088 20032 40125 58021 22200
00108 10707 70034 333 90710 91125=
62001 11164 99452 70050 46/// /1111 10121 20079 40201 55006 22200
00128 11005 70024=
62107 11164 99501 70061 46/// /1315 10093 20046 40207 57003 22200
00105 11205 70024=
62159 11164 99609 70022 41497 62719 10071 20005 40025 51015 70222
865// 22200 10710 70048=
63115 11164 99616 10013 47397 /1012 10023 20001 49985 58013 771// 22200 10806 70031=
MWYG6 11164 99603 70040 47698 /2729 40063 52020 700// 22200=
63056 11164 99597 10016 47598 /2930 10056 20009 40027 52016 700// 22200 10707 70037=
63109 11164 99596 10015 46/// /3030 10060 20007 40029 52017 22200=
63110 11164 99595 10015 47598 /3027 10062 20012 40040 52016 700// 22200 10707 70033=
MQSY9 11164 99593 10015 47598 /2930 10067 20009 52014 700// 22200=
63057 11164 99592 10015 47598 /2831 10064 21001 40038 52013 700// 22200 10707 70034=
62128 11164 99587 10014 47998 /2929 10060 20012 40067 52022 700// 22200 10607 70035=
62129 11164 99584 10003 46/// /2826 10060 20012 40083 53023 22200=
62113 11164 99584 10002 47998 /2827 10060 20013 40088 53024 700// 22200=
ZQSD5 11164 99583 10008 47598 ///// 10062 20022 40074 52023 700// 22200 1//00 70000=
62114 11164 99583 10000 46/// /2828 10055 20022 40080 52021 22200=
62134 11164 99580 10014 47997 /3120 10048 20008 40084 52026 700// 22200 10606 70032=
63114 11164 99613 10017 47397 /1312 10021 20016 49989 58009 762// 22200=
63117 11164 99613 10011 47495 /2821 49982 58018 762// 22200=
63104 11164 99612 10016 47397 /1510 10036 20006 49986 58014 762// 22200 10806 70028=
63103 11164 99612 10011 46/// ///// 10050 20027 49983 56004 22200 10706 70031=
63101 11164 99612 10009 46/// /2827 10050 20018 49981 57015 22200 10707 70033=
63107 11164 99611 10017 46/// /2808 10044 49989 58010 22200=
63112 11164 99611 10010 47497 /3128 10053 20023 49980 57014 700// 22200 10707 70033=
63113 11164 99610 10017 46/// /2815 10057 20029 49995 58006 22200 10806 70028=
63105 11164 99610 10017 47497 /2911 10064 20021 49988 58013 762// 22200=
63106 11164 99610 10017 46/// /2913 10045 58012 22200=
63108 11164 99608 10017 47/97 /2832 10051 20023 40005 53006 761// 22200 10706 70028=
63055 11164 99606 10016 47597 /2834 10052 20013 40016 53016 762// 22200 10606 70030=
62112 11164 99584 70002 47598 /2916 10070 20026 40083 52016 700// 22200=
PJAI 11164 99581 70014 47598 /2722 10064 20003 40102 52023 700// 22200=
62111 11164 99580 70003 46/// /2932 10062 20012 40115 52024 22200 10606 70032=
62142 11164 99530 10021 47998 /2922 10063 20032 40183 52026 700// 22200 10503 70017=
62145 11164 99531 10028 47498 /2823 10063 20016 40194 52032 700// 22200 10504 70021=
62144 11164 99534 10017 47998 /2719 10059 20017 40196 52028 700// 22200 10504 70018=
62121 11164 99535 10027 46/// ///// 10065 20012 40173 52030 22200=
62150 11164 99536 10007 47999 /2722 10059 20008 40200 52027 700// 22200 10503 70015=
62148 11164 99536 10015 46/// ///// 22200=
62149 11164 99537 10011 47999 /2820 10066 20011 40187 52028 700// 22200 10504 70019=
62131 11164 99539 10012 46/// /2916 10064 20017 40178 52028 22200=
62127 11164 99540 10007 47999 ///// 10062 20004 40181 52028 700// 22200 10504 70018=
62165 11164 99540 10011 47698 /2819 10063 20015 40183 52029 700// 22200 10504 70019=
64041 11164 99607 70026 47597 /2929 40031 53012 700// 22200 11009 70046=
62123 11164 99563 10022 47598 /3025 10061 20010 40109 52026 700// 22200 1//06 70031=
62132 11164 99564 10020 46/// /3227 10052 21009 40128 52027 22200=
62120 11164 99564 10021 47998 /3028 10056 20001 40107 52024 700// 22200=
62154 11164 99564 10022 46/// /3124 10055 21003 40103 52022 22200=
62152 11164 99570 10018 47998 /2817 10046 20010 40108 52023 700// 22200 10607 70034=
62119 11164 99570 10019 47497 /3026 10054 20014 40107 52022 700// 22200 10606 70031=
62133 11164 99571 10009 46/// /3027 40106 52025 22200 10606 70032=
62164 11164 99572 10008 47598 /3024 10062 20014 40107 52026 700// 22200 00084 10607 70033=
62146 11164 99572 10021 47498 /2809 10053 20017 40097 52021 700// 22200 10606 70032=
62140 11164 99573 10013 46/// ///33 10064 20008 40093 53019 22200=
62122 11164 99573 10016 47597 /3024 10057 20014 40090 52017 762// 22200 10606 70032=
62153 11164 99573 10020 47598 /2918 40088 53019 700// 22200 10607 70033=
62104 11164 99574 10013 47298 /3029 10067 20018 40089 52021 700// 22200=
62116 11164 99576 10011 47997 /3228 10056 20009 40090 52024 740// 22200 10607 70033=
62155 11164 99577 10007 47598 /2929 10063 20018 40101 53025 762// 22200 10606 70032=
62118 11164 99577 10009 46497 /3224 10046 20004 40093 52025 22200 10707 70033=
62143 11164 99577 10018 47497 /3120 10041 20011 40102 52025 762// 22200 10607 70033=
62117 11164 99579 10000 47497 /2928 10058 20010 40084 51023 700// 22200 10606 70030=
62102 11164 99579 10018 46/// /3125 10046 21002 40074 52023 22200 10706 70031=
A8HR5 11164 99365 70010 41297 80510 10185 20153 40190 54000 705//
8/6// 22223 04157 20204 80165=
AMOUK05 1116/ 99519 10041 46/// ///// 10075 20024 40193=
AMOUK06 1116/ 99508 10009 46/// ///// 10096 20024 40221=
AMOUK14 1116/ 99533 70062 46/// ///// 10077 21007 40203=
AMOUK24 1116/ 99571 70065 46/// ///// 10071 20007 40154=
AMOUK30 1116/ 99564 70055 46/// ///// 10066 20014 40165=
AMOUK11 1116/ 99534 70057 46/// ///// 10070 20016=
AMOUK02 1116/ 99534 70057 46/// ///// 10074 21000 40209=
AMOUK43 1116/ 99547 70056 46/// ///// 10047 20021 40191=
AMOUK31 1116/ 99558 70060 46/// ///// 10060 20039 40174=
AMOUK04 1116/ 99535 70030 46/// ///// 10067 20028 40205=
AMOUK44 1116/ 99539 70032 46/// ///// 1//// 2//// 40206=
AMOUK32 1116/ 99559 70047 46/// ///// 10055 20022 40169=
AMOUK28 1116/ 99576 70072 46/// ///// 1//// 2//// 40143=
AMOUK23 1116/ 99578 70029 46/// ///// 10045 20001 40127=
AMOUK36 1116/ 99581 70021 46/// ///// 10056 21001 40115=
AMOUK13 1116/ 99518 10017 46/// ///// 10081 20036 40208=
AMOUK29 1116/ 99510 70076 46/// ///// 1//// 2//// 40192=
AMOUK45 1116/ 99509 70014 46/// ///// 10081 21006 40211 22200   402110104=
AMOUK42 1116/ 99506 70025 46/// ///// 10097 20002 40220=
AMOUK34 1116/ 99519 10035 46/// ///// 10079 20026 40191=
AMOUK09 1116/ 99517 10017 46/// ///// 10076 20066 40211=
AMOUK26 1116/ 99502 70008 46/// ///// 10090 20033 40225=
AMOUK33 1116/ 99555 10084 46/// ///// 10051 20019 40068=
62081 11164 99521 70105 46/// /1419 10085 20041 40157 57020 22200
10805 70025 333 90710 91128=
62304 11164 99512 10018 46/98 /3016 10087 20031 40217 52024 22200
00102 10501 70003=
64046 11164 99605 70042 46/// /3027 10073 20009 40051 333 90710 91137=
62305 11164 99504 70000 46/// /3008 10085 20031 40225 52054 22200
00110 10701 70005=
62305 11164 99504 70000 46/// /3008 10085 20031 40225 52014 22200
00110 10701 70005=
62303 11164 99516 70051 46/// /1404 10083 20017 40217 22200 10703
70015=
62023 11163 99514 70079 46/97 /1518 10084 2//// 4//// 5////
22200 10704 70020 555 70032 80007=
62050 11164 99500 70044 46/// /1408 10094 20038 40219 22200 10802
70011=
0000011000
565
UANT01 CWAO 111622
ARP AZA604 5044N03408W 1622 F390 MS52 259/21 KT
EIEJP QXT AOE 111622 J19A
0000011000
566
UANT01 CWAO 111622
ARP AFR650 4654N04021W 1622 F330 MS58 309/51 KT
FGZNG QXT AOE 111622 F38A
00000000