0000034200
459
SZIO01 AMMC 111621
CREX++
T000103 A001 D01021 D06025++
-1211670 09689190 46280 2014 01 11 16 14 3020 11 07 00 01
00672 0008 00673 0008 00673 0007 00674 0007 00677 0009 00678 0010+
-1042940 10566940 46290 2014 01 11 16 14 //// 11 07 00 01
00643 0009 00677 0043 00634 0001 00689 0057 00618 -0014 00692 0060++
7777

0000176600
460
SASA85 EGRR 111600 RRE
METAR SBCB 111600Z 08017KT 9999 FEW030 32/24 Q1014=
METAR SBGR 111600Z 34007KT 9999 BKN045 32/17 Q1017=
METAR SKBG 111600Z 29004KT 9999 FEW017 25/16 A3002=
METAR SKBO 111600Z VRB02KT 9999 FEW020 18/05 A3035=
METAR SKBQ 111600Z 08008KT CAVOK 30/21 A2990=
METAR SKCG 111600Z 32008KT CAVOK 31/22 A2988=
METAR SKCL 111600Z 00000KT 7000 SCT015 BKN090 24/22 A3003 RMK HZ=
METAR SKLT 111600Z 00000KT 9999 BKN006 BKN080 26/25 A2995 RMK AD OPR
      IMC=
METAR SKMD 111600Z 04006KT 9999 FEW030 23/16 A3011=
METAR SKPE 111600Z 29004KT 9999 SCT017 SCT090 24/18 A3013=
METAR SKSM 111600Z 22006KT 9999 FEW020 29/24 A2986=
METAR SLAS 111600Z 36007KT 9999 BKN017 29/24 Q1013=
METAR SLCA 111600Z 00000KT 9999 SCT033 32/20 Q1013=
METAR SLCP 111600Z 00000KT 9999 BKN015 BKN070 26/24 Q1016=
METAR SLET 111600Z 32013G23KT 9999 SCT012 BKN017 30/23 Q1012=
METAR SLJO 111600Z 36008KT 8000 VCSH SCT017 FEW020CB 29/25 Q1012=
METAR SLMG 111600Z 09004KT 9999 FEW017 FEW023CB 30/24 Q1014=
METAR SLOR 111600Z 07009KT 9999 FEW015 17/06 Q1035=
METAR SLPS 111600Z 36008KT 9999 SCT020 33/25 Q1011=
METAR SLRB 111600Z 36006KT 9999 SCT020 32/24 Q1014=
METAR SLRI 111600Z 03010KT 8000 VCSH BKN017 FEW020CB BKN200 29/24 Q1013=
METAR SLRQ 111600Z 33006KT 9999 SCT016 FEW020CB BKN200 29/25 Q1012=
METAR SLSA 111600Z 34008KT 8000 VCSH BKN017 FEW023CB BKN080 30/25 Q1012=
METAR SLSI 111600Z 33012KT 9999 BKN017 FEW030CB 28/24 Q1014=
METAR SLSU 111600Z 06003KT 9999 SCT023 20/11 Q1030=
METAR SLTJ 111600Z 18010KT 9999 FEW030 FEW033CB SCT200 28/15 Q1019=
METAR SLTR 111600Z 34008KT 9999 FEW017 BKN080 29/24 Q1013=
METAR SLVM 111600Z 36006KT FEW023 36/24 Q1008=
METAR SLYA 111600Z 00000KT 9999 SCT023 33/24 Q1010=
0000182700
461
SASA85 EGRR 111600 RRF
METAR SAAR 111600Z 11012KT CAVOK 26/08 Q1019=
METAR SANT 111600Z 18010KT 5000 -RA BKN004 FEW045CB OVC050 19/19 Q1021=
METAR SAOC 111600Z 02010KT CAVOK 23/11 Q1020=
METAR SARC 111600Z 05006KT 6000 -TSRA OVC040 FEW045CB 20/19 Q1015=
METAR SARE 111600Z 07007KT 5000 TSRA SCT030 OVC040 FEW056CB 20/20 Q1015=
METAR SARL 111600Z 18007KT 9999 SCT008 BKN100 OVC200 24/20 Q1014 RERA=
METAR SASJ 111600Z 16022G42KT 8000 SCT035 BKN040 27/19 Q1015=
METAR SAWH 111600Z 02005KT 9999 BKN035 OVC100 10/05 Q1000=
METAR SAZM 111600Z 18014KT 9999 SCT025 19/06 Q1021=
METAR SAZN 111600Z 05005KT CAVOK 26/03 Q1019=
METAR SAZS 111600Z 00000KT CAVOK 23/07 Q1020=
METAR SBAF 111600Z 30006KT 9999 FEW020 37/19 Q1012=
METAR SBBH 111600Z 09006KT 9999 SCT040 29/15 Q1019=
METAR SBBU 111600Z 35005KT 9999 SCT045 33/21 Q1017=
METAR SBIH 111600Z 00000KT 9999 SCT017 BKN100 29/24 Q1013 RETS=
METAR SBIL 111600Z 11007KT 9999 FEW030 29/24 Q1016=
METAR SBKG 111600Z 12007KT 9999 VCSH BKN020 SCT025 BKN080 23/21 Q1015=
METAR SBME 111600Z 10012KT CAVOK 32/22 Q1014=
METAR SBMK 111600Z 08009KT 9999 SCT035 BKN050 28/16 Q1019=
METAR SBMS 111600Z 12008KT 9999 SCT030 36/18 Q1010=
METAR SBMT 111600Z 31008KT 9999 BKN040 32/18 Q1016=
METAR SBPC 111600Z 01006KT 9999 TS SCT020 FEW020CB 30/20 Q1022=
METAR SBTC 111600Z 18002KT 9999 FEW015 BKN060 32/24 Q1016=
METAR SBTK 111600Z 34008KT 9999 OVC018 27/23 Q1014=
METAR SBTU 111600Z 00000KT 9999 SCT015 BKN070 28/24 Q1015=
METAR SBUL 111600Z 03010KT 9999 SCT040 28/16 Q1020=
METAR SBYS 111600Z 36011KT 9999 BKN045 FEW050TCU SCT100 33/18 Q1016=
METAR SKRG 111600Z 03006KT 9999 SCT015 SCT080 18/13 A3030=
METAR SKSP 111600Z 08015KT 9999 FEW020 28/23 A2996=
METAR SLCO 111600Z 33006KT 6000 VCSH BKN017 FEW020CB BKN080 30/24 Q1012=
0000127200
462
FTSA85 EGRR 111613 RRB
TAF SBGR 111608Z 1118/1224 33008KT 9999 SCT035 FEW045TCU TX33/1119Z
     TN20/1208Z
     PROB40 1118/1123 31010KT 7000 TSRA SCT030 FEW045CB
     BECMG 1123/1201 09004KT CAVOK
     BECMG 1212/1214 33008KT SCT040
     BECMG 1215/1217 SCT035 FEW045TCU
     PROB30 1218/1222 30008KT 5000 TSRA SCT030 FEW045CB
     RMK PGD=
TAF SKBO 111600Z 1118/1218 05005KT 9999 FEW020 SCT200
     TEMPO 1118/1123 32006KT FEW023
     PROB40 1119/1122 DZ SCT020TCU
     TEMPO 1200/1204 SCT020
     TEMPO 1209/1212 8000 MIFG SCT015 TX21/1118Z TN06/1211Z=
TAF SKCG 111600Z 1118/1218 VRB02KT 9999 FEW017
     TEMPO 1118/1123 32007KT FEW020
     PROB40 1120/1123 CAVOK
     TEMPO 1200/1204 CAVOK
     TEMPO 1210/1212 FEW012 TX32/1118Z TN23/1211Z=
TAF SKLT 111600Z 1118/1218 VRB02KT 9999 SCT015 SCT090
     TEMPO 1118/1123 23005KT SCT017
     PROB40 TEMPO 1118/1121 5000 TSRA SCT015CB
     TEMPO 1200/1203 DZ SCT012
     TEMPO 1209/1212 3000 BR DZ SCT010 TX31/1119Z TN23/1211Z=
TAF SKRG 111600Z 1118/1218 VRB02KT 9999 SCT017 SCT090
     TEMPO 1118/1123 09007KT SCT020TCU
     PROB40 1120/1123 8000 -DZRA SCT017CB
     TEMPO 1200/1204 DZ SCT017
     TEMPO 1208/1212 3000 BR DZ SCT010 TX22/1118Z TN12/1211Z=
0000166300
463
SASA85 EGRR 111600 RRG
METAR SBAN 111600Z 10007KT 9999 TS VCSH SCT030 FEW035CB 27/17 Q1020=
METAR SBAT 111600Z 08001KT 9999 -RA FEW013 SCT100 27/23 Q1015=
METAR SBBI 111600Z 16005KT 9999 TS VCSH BKN020 FEW025CB 22/19 Q1019=
METAR SBBQ 111600Z 02007KT 9999 SCT040 FEW045TCU 28/16 Q1023=
METAR SBBW 111600Z 10004KT 9999 FEW020 FEW025TCU SCT090 31/21 Q1016=
METAR SBCC 111600Z 03006KT 9999 SCT025 28/19 Q1016=
METAR SBCO 111600Z 28009KT 9999 SCT035 FEW040TCU SCT100 31/// Q1011=
METAR SBDN 111600Z 34004KT 9999 FEW040 33/16 Q1015=
METAR SBGW 111600Z 34003KT 9999 SCT025 FEW030TCU 33/16 Q1016=
METAR SBHT 111600Z 10001KT 9999 -RA SCT010 BKN020 BKN100 26/25 Q1013=
METAR SBIZ 111600Z 16003KT 9999 BKN020 33/22 Q1011=
METAR SBJF 111600Z 05008KT 9999 BKN018 FEW025TCU 28/20 Q1020=
METAR SBJR 111600Z 03005KT 9999 FEW030 38/24 Q1012=
METAR SBSC 111600Z 03015KT CAVOK 35/20 Q1012=
METAR SBSM 111600Z 35002KT 9999 SCT010 FEW035TCU BKN100 24/21 Q1013
      R ETS=
METAR COR SBST 111600Z 27004KT 9999 SCT023 32/24 Q1012=
METAR SBUR 111600Z 02004KT 9999 BKN045 30/16 Q1018=
METAR SBVH 111600Z 02008KT 9999 BKN020 28/21 Q1016=
METAR SCEL 111600Z 15007KT 100V220 CAVOK 31/05 Q1011 NOSIG=
METAR SVAC 111600Z 14004KT 9999 FEW020 31/22 Q1017=
METAR SVBI 111600Z 14008KT 9999 FEW023 33/19 Q1016=
METAR SVBS 111600Z 18007KT 9999 SCT013 30/18 Q1019=
METAR SVJC 111600Z AUTO 09026KT 9999 SCT013 29/21 Q1016=
METAR SVJM 111600Z /////KT 9999 SCT020 30/11 Q1015=
METAR SVMN 111600Z 16002KT 9999 FEW013 32/// Q1015=
METAR SVMT 111600Z 02008KT 9999 BKN013 29/20 Q1013=
METAR SVSO 111600Z 11004KT 9999 FEW023 30/19 Q1022=
0000085000
464
FTSA85 EGRR 111618 RRC
TAF SBCF 111608Z 1118/1218 12008KT 9999 SCT035 TX31/1118Z TN19/1209Z
     PROB30 1119/1121 04010KT 8000 TSRA BKN035 FEW040CB
     TEMPO 1202/1210 14005KT CAVOK
     RMK PGD=
TAF SBKP 111608Z 1118/1218 32008KT 9999 SCT035 FEW045TCU TX33/1119Z
     TN21/1208Z
     PROB40 1118/1202 15008KT 8000 TSRA SCT035 FEW045CB
     BECMG 1202/1204 12008KT CAVOK
     BECMG 1210/1212 04005KT
     BECMG 1212/1214 01005KT FEW030
     BECMG 1215/1217 33008KT SCT040 FEW045TCU
     RMK PGD=
TAF SBSP 111608Z 1118/1218 31008KT 9999 FEW035 FEW045TCU TX33/1119Z
     TN20/1208Z
     PROB40 1118/1123 20005KT 8000 TSRA SCT030 FEW045CB
     BECMG 1123/1201 12004KT CAVOK
     BECMG 1204/1206 05005KT
     BECMG 1211/1213 35008KT SCT035
     BECMG 1215/1217 30005KT SCT035 FEW045TCU
     RMK PGD=
0000016900
465
SPSA85 EGRR 111618
SPECI SGAS 111610Z 18016KT 1500 +TSRA OVC015 FEW040CB 26/22 Q1010=
SPECI SPGM 111615Z /////KT 2000 -DZ BR BKN010 OVC070 22/20 Q1017=
0000048100
466
SFUK43 EGRR 111615
voR SFUK43_EGRR_111615.CSV uj@  &;*(֦R*K}J@::fm_wu4=ǜ!EX8S;oCK̅nႱJ2V%:vM9~((8q7쾱~uNHDg8[)PŤG8Ί(<๖#HM򠂱qJ	bA^Aqd¬Ht܊
55\[hc
nR:9qQ^9'hjs!׎Pa'N\P >rZ-E[JI+gҚ12ʂ{$dlVU_=kƮH5Ȇ՗_u+?vr{P{  
0001250000
467
SFUK45 EGRR 111600
kR SFUK45_EGRR_111600.DAT }}eǍݽ*~̅1cl'@r(VO"@&|ZUGJ3$uUEr\d釿~}Oӯ>ZG)>~oU_ۇq'~?O_~o_|ӧ}o?7o߿gۧ/jRJmeʨ(=>\k<>t+On= fٽ=>,>wKck=>>艔=Z> (gVl??2u6kO{#&c=m%B>zu<ij-s?Yg~gXyαYY~L{:jυJ9zVk,%j`5CRx?fF/f,4ǧtǮgݝO+O/G+6r><TU!?]LXe|x,,X}MÇcY}<sŎBm:=sj
lϚ#z[74(KS:tBqpJqZ
'|.H5D5S=:b5'db ب/d/x5h	.?qXqvr![_P*˅lRjYzWߡZ8:!ؑ=l<:~7J?Ē	M,Vi1SnQ:	P6Tg>VܵxYZelϒ-?ޢRp.z{/s܏zԲGu6~w)=ݡ->^mOWrl`5ڵ<Tg,4؄,bi2T񵡬=bvHR&c6c0NaVϞ#&,6NJ;f fqf_F4]G(T|E`7mHGn`%7?÷Oy<Jn/l- 7pwUV3r{ußSv޳>-9ڍ6׎Ζ@=;P^hɘqv.dX3oTǀ8/gxqlϖ(xZyD6z/%t8}ʬ11{,cKb-ze8[v-QKGm-h4Kj g<
g/TXMTƧy˪C{E=I?hfß=zqrMv>M+Вǒ=I@q>:F!GY^Uo3νdnn/<ns]L.c[X|_;`LM6@1AuLzrl98R5z(<Ӆ%n'<*B6ϥgԍ'm"nm)*V V8sO__k'(	s<'f1*J6b4Z&ۚy -"]d z9N7xpO<\OLGyQ֥ԆFP-XΘ1gM~
WKD>A' lHܬuO1[j Ϣh@Xƫ3r'`0?H}7l"Q(~b:5֤FGA!viP;|FcV2xrrcjǪ%\:Uڱ'\A,OH{'ȡˉ GqȖӲ%< :9sU;00!sp*u\j]ulhxiI;q5O89ĲeeNNLIC-,'m&GCCb'CJk ̧$>t/7a%7ѥ0SoP.CMe_	+Ƀ_dVeZwIh9
!%Zt9cU1grsV^3'?Ǚ0c'$,VOu0VZ6Q_!ݏ#GV6H9kpZd98Í{5BOs1<s gQB@q`*g\uh N{??e;soy| 鷘˖<xƧEc6V;2l(R8zVzD 6SkX`֑f``3aPgQF/xOծ%^}2dJx 
kЎΒăbq.ʒ}($]r ۵0QPJ[vWO	=e!3ΕdcO=Sʴϱd]*.UYHrm~ILջx0aiB4*VƠmŕ93%R0RsW'+8}%FcZ)D	ɉ tb(K^Y4aN] TuAfG+@FkVPr^TXTј
3{mv*^h3D 2oΰZ1Y,Xm:TaҼĀW(!(*jc*bJ+(]LYeK!)2_Y6k;|'dUa&Ьn Ȋ\̠D~"cR.S-In?eKkJdU9%wbl:q~اr lp"u* ةԅgHlԸp
߰=!TN	DvCLҠV&;0@\9 t-qX.AE2MܒTR-B'Od1h͟pU	יiCYr+*U8o_dh.wD`c2`b	Ph2t4J/(f1&_-B.WV96)Z̃J3uY1(eĀ]Wٓ["UN.a02*%í$ݼA83cu	ohV-X1eyUwX]U:E	G	WTC٢ǚ'eJgyeػ]"+,=Ff@벻V)Mծmʸ0	;-Gֵ|LW"Dp}uV {Ŧx#Mn=CcI|0,-R^KARTX[&op8 N5(YYl牍Xh+^t43:e	SWd)c%$B."J*e3W]8£٢0Ұzܾ~jjXWYQU`^ Aegv\:B6gfyV8q(纟(cf	bkvkyqf4haU2	Ɖ:܂W(
Os[Rpp2'M#_3U\RY;14̑.S@$[ \_0Izܩ0T&n	P.2nWN}7Z.x 7櫭bž ڗM;:ƌHwrHzDsTj(@"6'r0uu|6I_%G	zU26,AjE0.@qcgzt]Q)jeS@#32We)K&Wm]c[V º%u!(=Xײl$j<$$zqz AވN	dVV5O 7Xyd9ul!knd!K`*]J+ӉXk7EX2`ABE*!֮Y쁛S7kJ "z"@8j 0<6MhZc1ɰ"'vߟn=,BͬO	]LX0:EaCb'#9\2ɶ F$Fҷ^lTI:';yxhُ r8:<ɦ7ƗXK~
o,-diֺ9of7GPNPp".3nέ&tcWFOnN1ޡץOU=hd0`T\̾@0슧Hr,gr,F9?!)&1g	Q4waeUD˟39(ܺ۩[P|޹"u7+X A9m`-IH,`cB xxLh%jλ@n&$4o&6nBiMN.͓~s8LӂPORi[u Ă̔ubCnFgLϒ;[bN7[M)!V,g!|i9nWHd,7,-
Z	ʷZ%|Gd#jJ5tQ-"UYOX_Y˝
q!=JHWl W1,n:1R	'M's_<G_&` H7.*1KOyebέWF<QJ1
u[ud6|.n9׽HG9~48GzIAl|b<p"\ƜE}	ً2],C^Z33#s.od*DR. .2|D<P\8]%a䚋NY{뭆F%؛Bxp"ƩLlS-y޳WJ)¿#8;=r#3|DC-@e?E*^&sn.\d"qV7Lv8J,΁IHa	Xkɤ`3bK~yY~~P=pJ]Gt]jEY^	cRLLixT\\)QpYhvH$#ۛEm̒Rϓ-oNPb64refb5Zgx"SOtXAbk~ԙiĈ	4?hl=n^/'RD!,GÀ~f320bqZKZR@"Y$jfE-"J>![d[$Kox|q<&[=JVɫ#9g
ze
|25|s׵EF0kIl%A.z>GLV3]bJFV՛`^ ]NroWDE6ɔlMڜ?h<bH,D1@&!vBAa3',J
[=Xyp6J~թE6K,)/֜`бX`H@LA.Q5imo&v2wVpE:WM'qf[$JSR]!%1Ocnw>hAM,"=3g3٢FGpȅz;Dn_ [=\{QX^E j&k$(ο Cl2K(DQn |댵8*Fvp0D"a0d%f,BlI$MST!*23T]~Ԫ-$3a[K˹!]HŖ\k&y"$^|IMp2oDB=){X3+|nWLĀ	$k2G!I*Qp<0j p8P0K
3BhD
ݤFgXwAb1aJqY')ȆIZȢ؈!iY#P^:1,UxiwITZ2F>I'yKV%S|Yږ%nkr?CsBTidOcj.4ORꟕ"nYy#U5b!xon'oaiLC{xbc9w%6-^s^5jD<?e /iü<(pxZUAD!E"|7v'A.("zTΦl(Ǽ؋DEzvҊZ-sbP/(v!ul1!qٺ;~zɫ,dtשճKYKZN>"P.'uMbtX`W	=;*|UQ>$R",+kt;<48fةk
XDt[ћȧ@39bU~b- ,Ba
>
[dֲ5!&ÜzȣߧS ئTl9s.dPϞzkhIaN:=}Zve V̆x'&:|r+b"B8%sJHLEmAKW'Ǐ۶ف,)$|\d*jDO/OxC;EVl}C6w;ΓEzEInjop	Z'E'2A>1[%bGh9fA;'DJN6wd۲5ۭ[a{zl̖9?fD!U^Xw޹Enr;ȗK@vkwaf@nēJ,rj]h/ldދQٚ	Ui(l4S'A;)HRh{i V5MdfHc"ӄvI~{';*5NPFkX:fC^T+gxfjg'
ȶI!lh׸9OKzQ3W@9iMcIXA11Od3^gIAz٪
GDN`R	%I:6̉Q-&F0}pƍb;Hٷx0]4fYZڻ,+	;=r9*l@6UxQ/lrlizs<B'TqUMM?ifYgm&#5{D*$пwV8qNJwv2?#F'?	F/i1ș2ι'ju@$^r\3"1bF^/cRKn'L
:;O20'F}C#! I,Xnyy3bĀvu51ED"px5;۝xuMxpPו(N1!MͫP`1yۓ´JHIn'(-Ҟ]mT#nw]&sh4":Bl,vlzd%*\Ξ] v;1j\"޶UcF0ǁ	4X۩F.^mr.B7##e.5#S:FLÅ.5f>a72lgS[2Ly־/b=0.އ8{ ayXͦS\0g=AɡlzvG2^sahr{$;%6j
F9 x]^*a 8Uܢqt\]u1Y`%f3WϷ48^L;>qI]j+}J*!.LZ+޳GlƼSdvre9]0`T;ƪE#m\1=z!]zd*jUr܉dȘ-+cKl{q%
+C,r(o^efUuݞ!FJjA[Y3]?
s1*g%@tͶ[`\$J6;=MUωFlv0oш'Q | ͬ  .S}hڶfLY:,r52H6`6GX*&"]]8]سw8Af?s4JG#N,ˇ*<*N1`pyH'[d5NLHMkHQDՄ-0َKc"J{y4|tyuWH)'|J"7Fs*K7UF5LY^1L#irv"!h.cUv[?Ñ8jJЄ+.g(G-ѝ-i2E|z#qR~,b)/QtVHYxcbƍK$_XIEbWL <Db3NZ1-!FR*^t܊iv~*AcE)W%!`uF)ϼ:&ЊNzpin{UM_MDVo{LbRɯ$ԍ0]<\6c9_FC3UYg*
!(Ό$d=]Idg	LłX717m<?9gzHœ6Y3f	CN.yNR
_s79w,xb r
94CoAsN ~wԒԡbG]5(uRKsǭ~,@M^3!T;NTDSYǇ;S8$Py	|@Yg\gvVz \uHύ&`k<(ڻl95nrjX8QLVgŗޱ10}GZ|1aRVՔKc,x:xLGֶ&ޠ4le0HiigB
9:8dJpx&HGPE!_D=ls&sH[#[gTs0;S"1V^H4SSCDcũ-%c;Ur\gJ9K{Ή3"IuFwH"g'hk)%`J3:A,~b;ҏ6I=2G!Sʑ#ڭli(ZRϙZa#L2L܃f5+9CHչ{7Ŵ;-&i&Јj<TǛȣ]2(M	 (MIwZ67bzĈZ6sdaoh.ٓ$
e$̙w"lob־l%Ǫ@1ɫmWf;C>64cF߾i%/`F>!->N!w%a͸ANp;pAU9h:wzKq מC\!Hf6W	k.F2^i̺[R
*1
H?5$.ycJMIɲTcmfVrScܼsՙfu`>ZZaJ`߻F$復eX|ju)'3UbQbW?irv,k]E/ɻ0;W@qFM6YR"stfbTèCFEBzCOP+φK#,R0fj[Rqjeɋ@baBZHh{^vIߢg`jN>$d,{!r']᙮]lj}[ͦ̌y'>,(`vIẅdFaĥY@Kp`mnS*NG3/׼q(vDKK9C#	s]|QDkiBK4in25P4߬{ɐrWPV5- @7̅oR'ܷ(.lho\[pmgq44X[|>/Q#Xg&f&өHFVDs$š7'6xo}E	Kk'}Rԥۺn,DFq3 ՅOXgE;V<ZLfHvXj?mj8ie{2`M9,=SFjb[\֠xE،h3Ow[.$h׭ZqG]q{\kcyrZ̴LѬ[Cn-ӘU/	TH9\HabCNӚX-,IrXICѳqTN7U;N(\ϠR_!Y)3PO	qpj6[ƹ;"C3=Ъ'S$l}#A*yiTbw=^t/Nmr7!ǪVDWi-3kF`77eb$/75K3N,R5ɳ*sn1_fVv).^]k-瘰dvSBwB!,x]%5Ř;i&ͷ)fX*%QNbTi*Yp:3:D3GDfEkɚ8fbpəw|ߩ.oI+$[ه9';*ǍvzQkLiQͶҷnZͷDS«h&RrIylW~{	#U'PɰC¹Ր"%Uk33ӓƊv:n߽KW<gN6V9t/')a}w'8	jد[b`#ŬcxF_fh%œ""u͟onϴ8te0/Fh_Mv^y*]-_#è	0?	qZġXjRVԣb`Z!j>Ng%$2`GjīީM
0ȸlzcqʸ|M8lԥu!e̙5+B Nʩx^/JJY[2v36OvC3"H7_dȍRSN`uW3ILc^3(l;8K43lo~>#Ȋ]b&ImwYF,.MRtmh)xoκ7 &=-<e4t	xS7$c95)`kAʾ)AMGkhd;-F)]fB"qu9jRX*gOd`%T]Εγ0ud 
^01*U
%KN6ΨwF+D9>"mwy忂7?Chǥh[ MtCڪ8X2DGd&h*g(:]#jsydgkF*TlkǞ:YkC#Qf0MIl6Ȯ<r9hr Jb][]uPWC`bKWQyEu*%+vq1y%}g/akMkߤUhqzִ[j&i隔}Ƶ*L%)˓Y$5]50^Y)Eb>xkJy=]W;GZwqAa)1M݈,pM\D m]N8d2mi5~	-P"NQI6]5WEWdVq{6IzvkK3<s3D\d]nŒ|1}4F>aϓ_Φ
;?9	[_idѽ$v=^{4s쾽Ɗ_e͈=ngNbY@> ǋ{nQ
GMyyqވKf9Nsi y#&3v7ӄMbǽ9yvr4FvI'X!79|\3Ms!s.EGG']j҃UPk5۞1Z2c9{:y>uZ8/&uO]'yL/|^]čf2q	 } E^H֥]KJ㽋Ab(ճ!EΊ֎qj+u
.E,f9Y]i 61UuPSwU'w,nPLsùEEpnyblzr_4龀tMմ׹iV4}#R!پG ׍mָ[t]¼SHPh~1nIHRλvN,$a5n[1k'MJe.BX~lU==R-rq 3X	F)jP:,MikϨE]
(BveJ񮲔T x_M{Is+^gO6rTPFgmo_|_u/o~埾//~Oÿק}Og~w7wh6  
0000029300
468
UDAS02 BABJ 111611
AMDAR 1116
DES CNFNXL 3655N 11624E 111607 F120 MS170 280/031 TB/ S//1=
DES CNFNXL 3655N 11625E 111607 F119 MS170 280/029 TB/ S//1=
DES CNFNXL 3657N 11631E 111608 F101 MS145 288/019 TB/ S//1=
DES CNFNXL 3658N 11637E 111609 F088 MS143 310/024 TB/ S//1=
0000054100
469
UDAS02 BABJ 111612
AMDAR 1116
DES CNFNXQ 3703N 11705E 111608 F033 MS033 281/020 TB/ S//1=
DES CNFNXQ 3703N 11706E 111609 F030 MS028 285/020 TB/ S//1=
DES CNFNXQ 3703N 11709E 111609 F024 MS015 283/016 TB/ S//1=
DES CNFNXQ 3701N 11711E 111610 F016 PS010 277/019 TB/ S//1=
DES CNFPTK 3604N 12026E 111609 F025 MS018 289/013 TB/ S//1=
DES CNFPTK 3606N 12026E 111610 F025 MS018 292/013 TB/ S//1=
DES CNFPTK 3607N 12025E 111610 F025 MS019 295/014 TB/ S//1=
DES CNFPTK 3609N 12025E 111611 F016 MS003 284/014 TB/ S//1=
0000011300
470
SIOM20 OOMS 110300 RRN
AAXX 11034
41250 36/// /1306 10136 20089 39901 40203
333 0E017 58005 =
0000050100
471
SNAA01 KARS 111600
AAXX 1116/
89869 46/// ///// 11058 39906 4//// 5////=
89866 46/// ///// 11013 39864 4//// 5////=
89329 46/// ///// 11108 38787 4//// 5////=
89799 46/// ///// 11203 4//// 5////=
89799 46/// ///// 11200 4//// 5//// 91610=
89828 46/// ///// 11346 36537 4//// 5////=
89108 46/// ///// 11196 37007 4//// 5////=
89879 46/// ///// 10008 39885 4//// 5//// 91610=
89314 46/// ///// 11149 38271 4//// 5////=
89314 46/// ///// 11154 38271 4//// 5//// 91610=
0000012700
472
SSVX02 CWAO 111600
ZZYY 48741 11014 1600/ 174197 157366 6113/ 444 
20130 11014 1600/ 50101 80134 80002 9////=
0000013900
473
SSVX02 CWAO 111600
ZZYY 64725 11014 1600/ 170997 025396 6113/ 22231 
00051 444 20130 11014 1600/ 50101 80138 80002 9////=
0000013900
474
SSVX02 CWAO 111600
ZZYY 64736 11014 1600/ 168559 005576 6113/ 22219 
00066 444 20130 11014 1600/ 50101 80140 80003 9/015=
0000013900
475
SSVX02 CWAO 111600
ZZYY 47564 11014 1600/ 767112 028502 6113/ 11119 
49998 52026 444 20130 11014 1600/ 50400 80138 80001=
0000012700
476
SSVX02 CWAO 111600
ZZYY 47537 11014 1600/ 783290 048067 6113/ 444 
20130 11014 1600/ 50001 80136 80001 9////=
0000012700
477
SSVX05 CWAO 111600
ZZYY 47550 11014 1600/ 770787 069468 6113/ 444 
20130 11014 1600/ 50101 80134 80001 9////=
0000013900
478
SSVX02 CWAO 111600
ZZYY 64728 11014 1600/ 765162 008731 6113/ 22219 
00028 444 20130 11014 1600/ 50101 80140 80003 9/015=
00000000