0000209400
740
SNRO41 YRBK 111600
AAXX 11161
15015 22598 81201 10014 21005 39600 42802 58008 885// 333 60005 91002
91102=
15020 22997 63601 10051 21012 39994 40194 54000 86070 333 60005 91002
91102=
15090 22997 83601 10049 21018 30102 40196 54001 84077 333 55300 0////
20000
30002 60005 91001 91103=
15108 21/91 92718 11073 21073 38052 48476 54000 74944 333 60005 91024
92723=
15120 21597 80901 10037 20019 39712 40217 58006 72162 8557/ 333 55300
10028
20005 30006 6///5 91003 91103=
15150 22997 42502 10026 21023 39983 40200 54000 84030 333 60005 91002
91103=
15170 22598 60901 10017 21030 39413 42803 56008 84308 333 60005 91003
91105=
15200 22597 81202 10063 20053 30059 40206 57009 885// 333 60005 91002
91103=
15230 22597 73203 10073 20025 39924 40220 55001 87500 333 55300 10099
20028
30029 60005 91005 91105=
15260 22599 72402 10051 20016 39670 40212 56009 84570 333 60005 91003
91103
95000=
15280 21093 82720 11088 21096 37470 47012 58001 74144 885// 333 60005
91028=
15292 22998 72100 10102 20022 39919 40213 55002 87070 333 60005 91001
91101
95000=
15310 22997 41802 10054 20023 30120 40207 57002 82031 333 55300 10213
20012
30011 60005 91004 91104=
15335 22997 62901 10048 20000 30202 40209 54001 80006 333 60005 91002
91102=
15346 22997 31201 10058 21011 39917 40210 57003 82071 333 60005 91001
91103=
15350 22997 32402 10054 21020 30089 40211 52002 80005 333 60005 91003
91106=
15360 22597 72004 10058 20058 30192 40207 54000 83506 333 60005 91005
91105=
15410 22997 20100 10083 20028 30112 40209 57009 82030 333 60005 91002
91102
99705=
15420 22997 32001 10027 21001 30101 40216 55001 82041 333 55300 0////
20041
3//// 60005 91002 91103 99706=
15450 22997 41703 10084 20016 39974 40211 57006 84070 333 55300 10169
20042
30020 60005 91004 91104=
15460 22997 32503 10066 20021 30191 40216 54000 82071 333 60005 91004
91106=
15470 22997 02501 10055 20035 30082 40211 57007 333 60005 91002
91102=
15480 22997 32901 10064 20010 30194 40212 53002 80001 333 60005 91002
91104=
0000011100
741
UANT01 CWAO 111605
ARP AAL211 5009N04639W 1605 F350 MS61 300/65 KT
N185AN DDL XXN 111605 F52A
0000113000
742
SNNO21 ENMI 111600
AAXX 11161
01001 46/// /1306 11002 21008 30142 40154 53009=
01008 46/// /2710 11003 21047 30066 40100 52001=
01010 41689 11405 11060 21120 30160 40177 53002 70200 81100=
01026 26/// /0401 11116 21127 30042 40193 54000 333 60005=
01055 46/// /2306 11015 21090 30158 40176 57001=
01062 46/// /2104 11018 21036 30102 40115 52002=
01098 46/// /2002 11044 21066 30153 40171 53009=
01115 26/// /1312 11049 21152 30084 40106 50002 333 60005=
01152 46/// /1109 11074 21199 30117 40133 50000=
01205 46/// /0000 11010 21034 39958 40004 52009=
01212 26/// /2003 11022 21055 39981 49999 52005 333 69925=
01271 47/74 90705 11091 21150 30020 40042 55001 778//=
01288 46/// /1103 11153 21180 39267 40060 53002=
01300 NIL=
01317 26/// /3103 10009 21036 30001 40016 53024 333 60005=
01367 46/// /1201 11077 21102 39555 40011 52004=
01384 46241 /0203 11070 21076 55001=
01403 46/// /3509 10046 20023 39949 40018 53022=
01415 47/64 43112 10055 20029 30010 40020 53016 781//=
01482 46/// /0108 10007 21003 39975 49985 53005=
01492 46/// /0304 11048 21064 39882 40003 53004=
0000091600
743
SNNO22 ENMI 111600
AAXX 11161
01003 NIL=
01007 46/// /2504 11015 21064 30089 40099 52008=
01028 41460 41802 11029 21035 30130 40150 53001 72681 83970=
01047 NIL=
01049 26/// /2001 11119 21136 30188 40191 57005 333 60005=
01078 46/// /2404 11041 21064 30166 40176 52003=
01102 46/// ///// 11055 21111 30051 40071 55001=
01160 46/// /0810 11047 21120 30132 40150 55001=
01218 26/// /1503 11049 21126 39992 40014 51015 333 60005=
01238 46/// /0801 11164 21184 38835 49964 52009=
01241 41488 71208 11068 21120 30015 40026 53007 70222 8177/=
01281 46/// /0806 11105 21170 39909 40094 53003=
01338 46/// /2803 10020 21029 39925 49992 53024=
01359 46/// /0501 11068 21078 39060 49990 52008=
01397 46/// /2901 11116 21131 39586 40043 55000=
01400 NIL=
01427 26/// /3011 10040 20025 30002 40018 53009 333 69935=
01447 NIL=
01448 46/// /2804 10039 20015 39990 40000 55001=
0000014500
744
SSVX13 LFPW 111600
ZZYY 41739 11014 1600/ 724243 072467 6113/ 11119 40223 54000 444
 20130 11014 1500/ 50101 80142 80002 9/015=
0000015700
745
SSVX13 LFPW 111600
ZZYY 16542 11014 1600/ 346107 069560 6113/ 11119 40137 52001 22219
 00066 444 20130 11014 1500/ 50101 80144 80023 9/015=
0000015700
746
SSVX13 LFPW 111600
ZZYY 16538 11014 1600/ 340761 078494 6113/ 11119 40184 52008 22219
 00143 444 20130 11014 1500/ 50101 80144 80018 9/015=
0000015700
747
SSVX13 LFPW 111600
ZZYY 16532 11014 1600/ 329292 106378 6113/ 11119 40177 54000 22219
 00219 444 20130 11014 1500/ 50101 80108 80002 9/015=
0000015700
748
SSVX13 LFPW 111600
ZZYY 15547 11014 1600/ 527065 014626 6113/ 11119 40231 57005 22219
 00252 444 20130 11014 1500/ 50101 80144 80008 9/015=
0000015700
749
SSVX13 LFPW 111600
ZZYY 31718 11014 1600/ 540721 037469 6113/ 11119 40072 52007 22219
 00164 444 20130 11014 1500/ 50101 80142 80003 9/015=
0000015700
750
SSVX13 LFPW 111600
ZZYY 41706 11014 1600/ 715717 052416 6113/ 11119 40176 57013 22219
 00260 444 20130 11014 1500/ 50101 80144 80024 9/015=
0000013900
751
SSVX13 LFPW 111600
ZZYY 63639 11014 1600/ 172042 035023 6113/ 22219 00038 444 20130
 11014 1500/ 50101 80134 80002 9/015=
0000015700
752
SSVX13 LFPW 111600
ZZYY 14511 11014 1600/ 331683 088955 6113/ 11119 40235 52012 22219
 00214 444 20130 11014 1500/ 50101 80080 80003 9/015=
0000015700
753
SSVX13 LFPW 111600
ZZYY 16544 11014 1600/ 345268 094371 6113/ 11119 49999 57019 22219
 00098 444 20130 11014 1500/ 50101 80144 80011 9/015=
0000015700
754
SSVX13 LFPW 111600
ZZYY 13666 11014 1600/ 714601 048146 6113/ 11119 40204 52018 22219
 00259 444 20130 11014 1500/ 50101 80144 80003 9/015=
0000015700
755
SSVX13 LFPW 111600
ZZYY 16642 11014 1600/ 343866 053805 6113/ 11119 49995 57004 22219
 00104 444 20130 11014 1500/ 50101 80150 80015 9/015=
0000015700
756
SSVX13 LFPW 111600
ZZYY 44602 11014 1600/ 754700 037797 6113/ 11119 40000 57030 22219
 00059 444 20130 11014 1500/ 50101 80138 80008 9/015=
0000015700
757
SSVX13 LFPW 111600
ZZYY 41711 11014 1600/ 717364 050813 6113/ 11119 40183 57016 22219
 00260 444 20130 11014 1500/ 50101 80146 80018 9/015=
0000015700
758
SSVX13 LFPW 111600
ZZYY 64614 11014 1600/ 761993 018105 6113/ 11119 40057 52004 22219
 00088 444 20130 11014 1500/ 50101 80142 80008 9/015=
0000012800
759
SSVX13 LFVW 111605
ZZYY 16551 11014 1600/ 321899 060341 6113/
11119 40182 52020
444 50101 80074 80000 9/015=
00000000