0000011800
745
SNAU45 AMMC 111600 CCH
AAXX 11164
95815 15/// /1904 10131 20112 30166 40198 58009 60001 91630=


0000011800
746
SNAU44 AMMC 111600 CCF
AAXX 11164
94690 15/// /1810 10154 20116 30058 40187 56004 60001 91630=


0000011800
747
SNAU45 AMMC 111600 CCI
AAXX 11164
94813 15/// /1705 10132 20109 30190 40211 58008 60001 91630=


0000011800
748
SNAU45 AMMC 111600 CCJ
AAXX 11164
95816 15/// /1607 10144 20123 30206 40210 57012 60001 91630=


0000011800
749
SNAU03 AMMC 111600 RRF
AAXX 11164
95481 15/// /1006 10268 20078 30072 40115 58008 60003 91630=


0000066100
750
UDAF01 FAPR 111629
AMDAR 1116
LVR AFZA63 0214N 06020E 111539 F410 MS581 108/033 TB0 S031 333 F/// VG000=
LVR AFZA63 0257N 06050E 111547 F410 MS582 112/034 TB0 S031 333 F/// VG000=
LVR AFZA63 0341N 06121E 111554 F410 MS584 125/029 TB0 S031 333 F/// VG000=
LVR AFZA63 0424N 06152E 111601 F410 MS596 123/042 TB0 S031 333 F/// VG000=
LVR AFZA63 0508N 06223E 111608 F380 MS536 105/016 TB0 S031 333 F/// VG000=
LVR AFZA63 0553N 06255E 111615 F330 MS397 127/017 TB0 S031 333 F/// VG000=
LVR AFZA63 0638N 06326E 111622 F330 MS389 131/021 TB0 S031 333 F/// VG000=
LVR AFZA63 0723N 06358E 111629 F330 MS394 136/016 TB0 S031 333 F/// VG000=
0000034500
751
SNVD01 KWBC 111400 RRU
BBXX
42392 11141 99272 70900 46/// ///// 1//// 91420 22200 10402 70010=
42887 11141 99282 70885 46/// /2308 10224 20201 91420 22200 10402
 70011 555 11065 22071=
42369 11141 99272 70903 46/// /2201 1//// 91420=
42375 11141 99285 70883 46/// /2110 1//// 91420 22200 10402 70010
 555 11080 22087=
0000011900
752
SIVD30 KWBC 111500 RRP
BBXX
42022 11151 99275 70837 46/// /1207 10224 40177 91529 555 11078
 22085=
0000026200
753
SNVA01 KWBC 111600 RRB
BBXX
DBBH 11161 99172 30115 41/96 /1809 10193 20177 40128 57009 7////
 22271 04197=
VRED4 11164 99344 30096 415// 52509 10200 2010/ 40230 57200 7//00
 8513/ 22223 0//// 2//// 3//// 40402 5//// 6//// 80140 ICE /////=
0000011800
754
SNAU03 AMMC 111600 RRG
AAXX 11164
95666 15/// /1512 10210 20142 30150 40166 58009 60003 91630=


0000023300
755
SNVB01 KWBC 111600 RRB
BBXX
JGQH 11164 99299 11370 46/// /3113 10131 20020 40260 57012 8////
 22242 00193 10703 70015=
JPBN 11164 99253 11289 46/// /0612 10181 20092 40249 58015 8////
 22261 00236 1//03 70013=
0000352600
756
SNVD01 KWBC 111600 RRI
BBXX
46204 11161 99514 71288 46/// /1306 10060 49821 57004 22200 0////
 11005 70023 333 91208=
46131 11161 99499 71250 46/// /1808 10085 49871 57003 22200 00079
 10401 70005 333 91209=
46145 11161 99544 71324 46/// /3104 10040 49841 52033 22200 00068
 11102 70012 333 91205=
V7YW3 11164 99260 70547 41798 10824 10230 2019/ 40230 54000 70300
 81131 22273 04200 20601 30909 41006 50906 6//// 80200 ICE /////=
46147 11161 99518 71312 46/// /0805 10065 49817 52018 22200 00074
 10907 70034 333 91206=
44095 11161 99358 70753 46/// ///// 1//// 91617 22200 00108 10806
 20806 312// 41101 70029=
46219 11161 99332 71199 46/// ///// 1//// 91610 22200 00142 11404
 21003 331// 41403 70022=
46211 11161 99469 71242 46/// ///// 1//// 91613 22200 00087 11009
 21007 320// 41106 70046=
44100 11161 99363 70756 46/// ///// 1//// 91604 22200 00091 10804
 20804 312// 41101 70021=
44060 11161 99413 70721 46/// /1910 10100 20098 40126 56035 91600
 22200 00044 333 91213 555 11113 22129=
44039 11161 99411 70727 46/// /1912 10112 20110 91600 333 91215
 555 11149 22170=
44099 11161 99369 70757 46/// ///// 1//// 91618 22200 00069 10803
 20803 312// 41101 70015=
44096 11161 99370 70758 46/// ///// 1//// 91617 22200 00073 10803
 20602 313// 40802 70015=
41115 11161 99184 70673 46/// ///// 1//// 91611 22200 10802 20802
 301// 41101 70011=
46215 11161 99352 71209 46/// ///// 1//// 91605 22200 00144 11205
 21003 327// 41204 70023=
51206 11161 99198 71550 46/// ///// 1//// 91603 22200 00247 10905
 20904 334// 41302 70024=
46114 11161 99367 71223 46/// ///// 1//// 91608 22200 00126 11507
 21003 330// 41506 70034=
SHIP 11164 99623 70748 41998 01713 11210 21255 40085 54004 70200
 80000 22240 0//// 2//// ICE55095=
VCLM 11164 99623 70748 41998 01713 11210 21255 40085 54004 70200
 80000 22240 0//// 2//// ICE55095=
46222 11161 99336 71183 46/// ///// 1//// 91532 22200 00155 11302
 20901 327// 41302 70010=
46223 11161 99335 71178 46/// ///// 1//// 91548 22200 00156 11302
 21001 328// 41301 70008=
46225 11161 99329 71174 46/// ///// 1//// 91542 22200 00154 11402
 20901 328// 41402 70011=
46216 11161 99343 71198 46/// ///// 1//// 91542 22200 00151 11102
 21002 327// 41102 70012=
46251 11161 99338 71196 46/// ///// 1//// 91609 22200 00153 11303
 21002 327// 41302 70015=
46217 11161 99342 71194 46/// ///// 1//// 91609 22200 00152 11302
 21001 327// 41301 70009=
46243 11161 99462 71241 46/// ///// 1//// 91616 22200 00088 11008
 21007 323// 41105 70042=
WACW 11164 99474 71474 41598 32637 10100 2010/ 40110 54000 70100
 834// 22243 00100 2//// 326// 41209 5//// 6//// 80100 ICE /////=
46207 11161 99509 71299 46/// /0305 10058 49805 57001 22200 00077
 11006 70031 333 91207=
44063 11161 99390 70764 46/// /1907 10062 40054 91610 333 91209
 555 11083 22090=
44042 11161 99380 70763 46/// /1804 10095 40075 91610 333 91205
 555 11047 22051=
44041 11161 99372 70768 46/// /2306 10169 91610 333 91209 555
 11070 22077=
44064 11161 99370 70760 46/// /2008 10162 40097 91610 333 91212
 555 11096 22104=
46126 11161 99540 71666 46/// /2404 10035 49799 50000 91600 22200
 00048 1//00 70002 333 91206 555 11046 22050=
44062 11161 99386 70764 46/// /1706 10056 40078 91610 333 91207
 555 11074 22080=
44059 11161 99368 70763 46/// /2205 10196 40089 91610 333 91208
 555 11060 22065=
44058 11161 99376 70763 46/// /1806 10088 40088 91610 333 91207
 555 11068 22074=
0000016300
757
SNVE01 KWBC 111600 RRB
BBXX
C6OM7 11163 99282 31539 41598 10503 10240 20176 40150 57010 70111
 81180 22243 06274 20601 399// 40601 5//// 80200=
0000040800
758
SNVF01 KWBC 111600 RRE
BBXX
62163 11164 99475 70084 46/// /1715 10113 20092 40177 56007 22200
 00122 10705 70025=
64045 11164 99591 70117 46/// /2617 10066 20001 40117 52011 22200
 00096 10808 70039=
62301 11164 99524 70047 46/// /1804 10073 20010 40215 52007 22200
 00096 10503 70014=
LF4B 11164 99606 10037 47/98 /2103 10028 40015 52008 700// 91610
 22200 00036 10705 70025=
0000369000
759
SNVF01 KWBC 111600 RRC
BBXX
C6WK7 11164 99377 10236 41597 52108 10140 2006/ 40230 54000 7//22
 854// 22233 00150 20302 32121 40302 50201 6/00/ 80100 ICE /////=
62050 11164 99500 70044 46/// /1408 10094 20038 40219 22200 10802
 70011=
62303 11164 99516 70051 46/// /1404 10083 20017 40217 22200 10703
 70015=
62304 11164 99512 10018 46/98 /3016 10087 20031 40217 52024 22200
 00102 10501 70003=
64046 11164 99605 70042 46/// /3027 10073 20009 40051 333 90710
 91137=
62305 11164 99504 70000 46/// /3008 10085 20031 40225 52054 22200
 00110 10701 70005=
62305 11164 99504 70000 46/// /3008 10085 20031 40225 52014 22200
 00110 10701 70005=
62081 11164 99521 70105 46/// /1419 10085 20041 40157 57020 22200
 10805 70025 333 90710 91128=
AMOUK09 1116/ 99517 10017 46/// ///// 10076 20066 40211=
AMOUK34 1116/ 99519 10035 46/// ///// 10079 20026 40191=
AMOUK33 1116/ 99555 10084 46/// ///// 10051 20019 40068=
AMOUK26 1116/ 99502 70008 46/// ///// 10090 20033 40225=
AMOUK42 1116/ 99506 70025 46/// ///// 10097 20002 40220=
AMOUK29 1116/ 99510 70076 46/// ///// 1//// 2//// 40192=
AMOUK45 1116/ 99509 70014 46/// ///// 10081 21006 40211 22200
 402110104=
AMOUK36 1116/ 99581 70021 46/// ///// 10056 21001 40115=
AMOUK13 1116/ 99518 10017 46/// ///// 10081 20036 40208=
AMOUK28 1116/ 99576 70072 46/// ///// 1//// 2//// 40143=
AMOUK32 1116/ 99559 70047 46/// ///// 10055 20022 40169=
AMOUK23 1116/ 99578 70029 46/// ///// 10045 20001 40127=
AMOUK31 1116/ 99558 70060 46/// ///// 10060 20039 40174=
AMOUK44 1116/ 99539 70032 46/// ///// 1//// 2//// 40206=
AMOUK04 1116/ 99535 70030 46/// ///// 10067 20028 40205=
AMOUK02 1116/ 99534 70057 46/// ///// 10074 21000 40209=
AMOUK43 1116/ 99547 70056 46/// ///// 10047 20021 40191=
AMOUK24 1116/ 99571 70065 46/// ///// 10071 20007 40154=
AMOUK30 1116/ 99564 70055 46/// ///// 10066 20014 40165=
AMOUK11 1116/ 99534 70057 46/// ///// 10070 20016=
AMOUK06 1116/ 99508 10009 46/// ///// 10096 20024 40221=
AMOUK14 1116/ 99533 70062 46/// ///// 10077 21007 40203=
62102 11164 99579 10018 46/// /3125 10046 21002 40074 52023 22200
 10706 70031=
AMOUK05 1116/ 99519 10041 46/// ///// 10075 20024 40193=
A8HR5 11164 99365 70010 41297 80510 10185 20153 40190 54000 705//
 8/6// 22223 04157 20204 80165=
62117 11164 99579 10000 47497 /2928 10058 20010 40084 51023 700//
 22200 10606 70030=
62116 11164 99576 10011 47997 /3228 10056 20009 40090 52024 740//
 22200 10607 70033=
62155 11164 99577 10007 47598 /2929 10063 20018 40101 53025 762//
 22200 10606 70032=
62118 11164 99577 10009 46497 /3224 10046 20004 40093 52025 22200
 10707 70033=
62143 11164 99577 10018 47497 /3120 10041 20011 40102 52025 762//
 22200 10607 70033=
62122 11164 99573 10016 47597 /3024 10057 20014 40090 52017 762//
 22200 10606 70032=
62153 11164 99573 10020 47598 /2918 40088 53019 700// 22200 10607
 70033=
62104 11164 99574 10013 47298 /3029 10067 20018 40089 52021 700//
 22200=
62146 11164 99572 10021 47498 /2809 10053 20017 40097 52021 700//
 22200 10606 70032=
62140 11164 99573 10013 46/// ///33 10064 20008 40093 53019 22200=
62133 11164 99571 10009 46/// /3027 40106 52025 22200 10606 70032=
62164 11164 99572 10008 47598 /3024 10062 20014 40107 52026 700//
 22200 00084 10607 70033=
62154 11164 99564 10022 46/// /3124 10055 21003 40103 52022 22200=
62152 11164 99570 10018 47998 /2817 10046 20010 40108 52023 700//
 22200 10607 70034=
62119 11164 99570 10019 47497 /3026 10054 20014 40107 52022 700//
 22200 10606 70031=
62123 11164 99563 10022 47598 /3025 10061 20010 40109 52026 700//
 22200 1//06 70031=
0000370000
760
SNVF01 KWBC 111600 RRD
BBXX
62120 11164 99564 10021 47998 /3028 10056 20001 40107 52024 700//
 22200=
64041 11164 99607 70026 47597 /2929 40031 53012 700// 22200 11009
 70046=
62165 11164 99540 10011 47698 /2819 10063 20015 40183 52029 700//
 22200 10504 70019=
62132 11164 99564 10020 46/// /3227 10052 21009 40128 52027 22200=
62127 11164 99540 10007 47999 ///// 10062 20004 40181 52028 700//
 22200 10504 70018=
62148 11164 99536 10015 46/// ///// 22200=
62150 11164 99536 10007 47999 /2722 10059 20008 40200 52027 700//
 22200 10503 70015=
62149 11164 99537 10011 47999 /2820 10066 20011 40187 52028 700//
 22200 10504 70019=
62131 11164 99539 10012 46/// /2916 10064 20017 40178 52028 22200=
62121 11164 99535 10027 46/// ///// 10065 20012 40173 52030 22200=
62145 11164 99531 10028 47498 /2823 10063 20016 40194 52032 700//
 22200 10504 70021=
62142 11164 99530 10021 47998 /2922 10063 20032 40183 52026 700//
 22200 10503 70017=
62144 11164 99534 10017 47998 /2719 10059 20017 40196 52028 700//
 22200 10504 70018=
62111 11164 99580 70003 46/// /2932 10062 20012 40115 52024 22200
 10606 70032=
62112 11164 99584 70002 47598 /2916 10070 20026 40083 52016 700//
 22200=
PJAI 11164 99581 70014 47598 /2722 10064 20003 40102 52023 700//
 22200=
63107 11164 99611 10017 46/// /2808 10044 49989 58010 22200=
63112 11164 99611 10010 47497 /3128 10053 20023 49980 57014 700//
 22200 10707 70033=
63108 11164 99608 10017 47/97 /2832 10051 20023 40005 53006 761//
 22200 10706 70028=
63055 11164 99606 10016 47597 /2834 10052 20013 40016 53016 762//
 22200 10606 70030=
63106 11164 99610 10017 46/// /2913 10045 58012 22200=
63105 11164 99610 10017 47497 /2911 10064 20021 49988 58013 762//
 22200=
63113 11164 99610 10017 46/// /2815 10057 20029 49995 58006 22200
 10806 70028=
63101 11164 99612 10009 46/// /2827 10050 20018 49981 57015 22200
 10707 70033=
63104 11164 99612 10016 47397 /1510 10036 20006 49986 58014 762//
 22200 10806 70028=
63103 11164 99612 10011 46/// ///// 10050 20027 49983 56004 22200
 10706 70031=
63114 11164 99613 10017 47397 /1312 10021 20016 49989 58009 762//
 22200=
63117 11164 99613 10011 47495 /2821 49982 58018 762// 22200=
62134 11164 99580 10014 47997 /3120 10048 20008 40084 52026 700//
 22200 10606 70032=
62114 11164 99583 10000 46/// /2828 10055 20022 40080 52021 22200=
ZQSD5 11164 99583 10008 47598 ///// 10062 20022 40074 52023 700//
 22200 1//00 70000=
62129 11164 99584 10003 46/// /2826 10060 20012 40083 53023 22200=
62113 11164 99584 10002 47998 /2827 10060 20013 40088 53024 700//
 22200=
62128 11164 99587 10014 47998 /2929 10060 20012 40067 52022 700//
 22200 10607 70035=
MQSY9 11164 99593 10015 47598 /2930 10067 20009 52014 700// 22200=
63057 11164 99592 10015 47598 /2831 10064 21001 40038 52013 700//
 22200 10707 70034=
63110 11164 99595 10015 47598 /3027 10062 20012 40040 52016 700//
 22200 10707 70033=
63109 11164 99596 10015 46/// /3030 10060 20007 40029 52017 22200=
63115 11164 99616 10013 47397 /1012 10023 20001 49985 58013 771//
 22200 10806 70031=
MWYG6 11164 99603 70040 47698 /2729 40063 52020 700// 22200=
62107 11164 99501 70061 46/// /1315 10093 20046 40207 57003 22200
 00105 11205 70024=
63056 11164 99597 10016 47598 /2930 10056 20009 40027 52016 700//
 22200 10707 70037=
62159 11164 99609 70022 41497 62719 10071 20005 40025 51015 70222
 865// 22200 10710 70048=
62001 11164 99452 70050 46/// /1111 10121 20079 40201 55006 22200
 00128 11005 70024=
62105 11164 99550 70132 46/// /1617 10088 20032 40125 58021 22200
 00108 10707 70034 333 90710 91125=
0000013600
761
SNVD17 CWVR 111600
BBXX
46185 11161 99524 71298 46/// /1505 10054 49826 52014
22200 00074 1//// 70/// 333 91206 =

0000068500
762
UDEU02 EGRR 111631
AMDAR 1116
ASC EU6386   5114N 00012W 111626 F001 PS062 339/002 TB/ S031=
ASC EU6386   5114N 00013W 111626 F003 PS057 341/006 TB/ S031=
ASC EU6386   5114N 00013W 111626 F006 PS052 339/007 TB/ S031=
ASC EU6386   5114N 00014W 111626 F009 PS045 345/004 TB/ S031=
ASC EU6386   5113N 00014W 111626 F012 PS037 340/005 TB/ S031=
ASC EU6386   5113N 00015W 111627 F014 PS030 338/006 TB/ S031=
ASC EU6386   5113N 00016W 111627 F017 PS022 331/008 TB/ S031=
ASC EU6386   5113N 00017W 111627 F021 PS017 352/008 TB/ S031=
ASC EU6386   5113N 00017W 111627 F023 PS025 356/014 TB/ S031=
ASC EU6386   5113N 00018W 111627 F026 PS020 002/015 TB/ S031=
0000179300
763
SZPS01 AMMC 111630
CREX++
T000103 A001 D01021 D06025++
-0204190 14737360 56130 2014 01 11 16 23 3025 11 07 00 01
00669 0098 00679 0107 00679 0105 00689 0113 00697 0119 00698 0118+
-0669280 15640860 56363 2014 01 11 16 23 //// 11 07 00 01
00668 -0047 00669 -0045 00666 -0048 00666 -0047 00664 -0048 00664 -0048+
-0942890 15995560 56670 2014 01 11 16 23 3038 11 07 00 01
00600 -0044 00602 -0044 00602 -0045 00603 -0045 00607 -0042 00606 -0044+
-1072080 16580190 57131 2014 01 11 16 23 //// 11 07 00 01
02376 1553 03088 2266 02977 2155 02642 1822 03077 2257 02550 1731+
-1551560 16718860 57210 2014 01 11 16 23 //// 11 07 00 01
01087 -0121 01086 -0121 01076 -0130 01059 -0147 01089 -0115 01091 -0113+
-1775690 16830030 57320 2014 01 11 16 23 3015 11 07 00 01
01131 -0030 01134 -0028 01134 -0029 01134 -0029 01132 -0032 01131 -0033+
-4397330 16861610 65180 2014 01 11 16 23 2883 11 07 00 01
01586 0424 01587 0420 01595 0422 01623 0446 01629 0447 01643 0455+
-2120470 -15978530 65980 2014 01 11 16 23 3008 11 07 00 01
00820 0044 00789 0014 00813 0038 00833 0059 00808 0034 00796 0023+
-2113810 -17518140 66600 2014 01 11 16 23 //// 11 07 00 01
01512 0095 01504 0088 01506 0091 01502 0088 01501 0088 01487 0076+
-1382670 -17176110 66840 2014 01 11 16 23 3010 11 07 00 01
01052 0074 01037 0061 01039 0065 01038 0066 01028 0058 01026 0058+
-1813250 17842750 67050 2014 01 11 16 23 3030 11 07 00 01
01644 0088 01637 0082 01631 0077 01632 0079 01632 0080 01627 0077+
-1760530 17743810 67070 2014 01 11 16 23 3028 11 07 00 01
01778 0041 01778 0042 01779 0045 01778 0045 01777 0045 ///// ////+
-0850250 17919500 67440 2014 01 11 16 23 3027 11 07 00 01
02280 -0013 02286 -0005 02278 -0009 02281 -0004 02276 -0005 02274 -0005++
7777

0000193000
764
SZAU01 AMMC 111630
CREX++
T000103 A001 D01021 D06025++
-1927750 14705860 59260 2014 01 11 16 23 3022 11 07 00 01
00950 0192 00960 0197 00964 0196 00971 0196 00978 0198 00982 0195+
-2316110 15079000 59670 2014 01 11 16 23 2998 11 07 00 01
01739 0169 01756 0178 01763 0174 01774 0177 01788 0180 01803 0186+
-3447330 15091170 60420 2014 01 11 16 23 2945 11 07 00 01
01037 -0019 01028 -0031 01028 -0035 01024 -0043 01027 -0044 01030 -0045+
-4105000 14591500 60910 2014 01 11 16 23 2888 11 07 00 01
00926 -0059 00929 -0058 00925 -0063 00927 -0062 00923 -0068 00920 -0073+
-4254640 14793080 61170 2014 01 11 16 23 2903 11 07 00 01
01364 0051 01362 0046 01370 0052 01367 0047 01375 0053 01386 0062+
-3834390 14161360 61410 2014 01 11 16 23 2908 11 07 00 01
00719 -0005 00654 -0069 00729 0006 00689 -0033 00707 -0015 00704 -0017+
-3214890 13364170 62000 2014 01 11 16 23 2955 11 07 00 01
01469 0035 01466 0034 01461 0031 01458 0031 01453 0028 01450 0027+
-3387080 12189720 62080 2014 01 11 16 23 2948 11 07 00 01
00831 -0008 00823 -0014 00806 -0030 00803 -0031 00799 -0033 00791 -0040+
-3182560 11573860 62237 2014 01 11 16 23 2973 11 07 00 01
00641 0041 00646 0047 00644 0047 00647 0051 00650 0056 00650 0057+
-2422000 11339750 62385 2014 01 11 16 23 //// 11 07 00 01
00699 -0136 00728 -0106 00745 -0088 00748 -0084 00812 -0019 00755 -0074+
-2181670 11419110 62430 2014 01 11 16 23 //// 11 07 00 01
01310 -0125 01295 -0138 01314 -0117 01294 -0135 01303 -0123 01307 -0117+
-1800080 12221830 62650 2014 01 11 16 23 3043 11 07 00 01
04751 0271 04744 0270 04739 0271 04733 0272 04726 0272 04720 0272+
-1247190 13084580 63230 2014 01 11 16 23 3050 11 07 00 01
05080 -0133 05082 -0133 05082 -0135 05084 -0134 05086 -0134 05085 -0136+
-1386000 13641580 63511 2014 01 11 16 23 3043 11 07 00 01
01696 0097 01694 0097 01692 0097 01690 0097 01688 0097 01687 0098++
7777

00000000