0000011100
240
UANT01 CWAO 111613
ARP UAL133 4806N04329W 1613 F330 MS60 285/50 KT
N76064 DDL XXW 111613 F07A
0000011000
241
UANT01 CWAO 111613
ARP BAW67V 5130N04204W 1613 F380 MS58 279/43 KT
GVIIG QXT AOE 111613 F26A
0000011100
242
UANT01 CWAO 111614
ARP AAL101 4935N04823W 1612 F340 MS60 302/68 KT
N726AN DDL XXW 111614 F72A
0000011000
243
UANT01 CWAO 111614
ARP AAL79 5814N02336W 1614 F360 MS63 217/78 KT
N775AN DDL XXN 111614 F35A
0000011000
244
UANT01 CWAO 111614
ARP KLM641 5252N03159W 1614 F320 MS52 148/22 KT
PHBVB QXT EUA 111614 F21A
0000169600
245
SSVX02 KARS 111611
ZZYY 23907 11014 1600/ 114660 085861 6111/
22219 00261
444 2011/ 11014 1539/ 50101 80091 80029 9/015=
ZZYY 23687 11014 1600/ 107948 079315 6113/
22219 00273
444 2013/ 11014 1152/ 50101 80092 80024 9/015=
ZZYY 23908 11014 1600/ 116056 081726 6111/
22219 00261
444 2011/ 11014 1601/ 50101 80092 80016 9/015=
ZZYY 23902 11014 1600/ 115740 081984 6111/
22219 00262
444 2011/ 11014 1539/ 50101 80091 80016 9/015=
ZZYY 23906 11014 1600/ 120173 091415 6113/
22219 00234
444 2013/ 11014 1541/ 50101 80089 80016 9/015=
ZZYY 23660 11014 1600/ 126255 056412 6113/
22219 00178=
ZZYY 23699 11014 1600/ 126048 055381 6113/
22219 00228=
ZZYY 23696 11014 1600/ 125758 056840 6113/
22219 00229=
ZZYY 23688 11014 1600/ 118120 061819 6111/
11119 40186 52022
22219 00245
444 2011/ 11014 1602/ 50101 80119 80017 9/015=
ZZYY 23688 11014 1500/ 118129 061800 6112/
11119 40180 52020
22219 00245
444 2012/ 11014 1447/ 50101 80119 80012 9/015=
ZZYY 22647 11014 1604/ 107633 106011 6113/
22219 00245
444 50101 80116 80023 9/015=
ZZYY 22935 11014 1603/ 121214 117469 6113/
22219 00232
444 50101 80112 80024 9/015=
ZZYY 22908 11014 1605/ 105361 106278 6110/
22219 00258
444 20100 11014 1606/ 50101 80112 80032 9/015=
ZZYY 22938 11014 1604/ 121695 116978 6113/
22219 00229
444 50101 80114 80035 9/015=
ZZYY 33576 11014 1604/ 553076 051355 6113/
22219 00054
444 50101 80110 80037 9/015=
ZZYY 22925 11014 1605/ 118009 112390 6110/
22219 00235
444 2020/ 118009 112390 50101 80112 80039 9/015=
ZZYY 33577 11014 1605/ 548672 051773 6110/
22219 00075
444 2020/ 548672 051773 50101 80112 80034 9/015=
0000003800
246
UANT01 EGRR 111600
NIL
0000009100
247
SXEO40 EEMH 111600
SEA 1116
26058  3/560=
26115  3/532=
86094  3/542=
0000011300
248
SIOM20 OOMS 111500 RRG
AAXX 11154
41301 36/// /0912 10203 20099 30021 40163
333 0E015 58004 =
0000039800
249
SWIO40 RJTD 111615
:PRS 1 #1 1886 1898 1883 1893 1865 1889 1888 1863 1874 1863 1865 1858
1861 1872 1850 1851 1851 1863 1851 1879 1858 1864 1877 1863 1880 1867
1849 1863 1870 1885 :RAD 1 #3 6264 6256 6244 6242 6241 6245 6249 6251
6246 6250 :ENC 5 #5 5250 5236 5234 5245 5243 5244 5238 5230 5215 5203
5195 5190 :SW1 15 #60 33 :SW2 45 #60 39 :BAT 14 #15 12.7 :NAME 
0650018E=
0000030900
250
SAUK53 EGRR 111600 RRA
METAR EGUL 111558Z AUTO 29009KT 9999 SCT032 06/03 A3012 RMK AO2 SLP203
      T00560032=
METAR EGUN 111558Z AUTO 30010KT 9999 SCT033 06/02 A3013 RMK AO2 SLP207
      T00600024=
METAR EGVA 111558Z AUTO 32003KT 9999 CLR 06/04 A3016 RMK AO2 SLP219
      T00630035=
0000095500
251
SAAU31 AMMC 111600
METAR YBAS 111600Z AUTO 09008KT 9999 // NCD 30/07 Q1013=
METAR YBBN 111600Z 00000KT 9999 FEW030 21/18 Q1015
     NOSIG=
METAR YBCS 111600Z 19010KT 9999 -RA FEW015 SCT040 BKN120 25/23 Q1008
     INTER 1600/1900 VRB15G25KT 4000 SHRA FEW008 BKN020=
METAR YBTL 111600Z AUTO 13009KT 9999 // NCD 27/21 Q1010=
METAR YMML NIL=
METAR YPAD 111600Z 17011KT 9999 FEW022 17/13 Q1018
     FM1600 MOD TURB BLW 3000FT=
METAR YPCC 111600Z AUTO 10006KT 9999 // ////// 27/23 Q1012=
METAR YPDN 111600Z 15010KT 9999 -RA BKN160 25/23 Q1006=
METAR YPKU 111600Z AUTO 35001KT 9999 // NCD 25/24 Q1005=
METAR YPLM 111600Z AUTO 31005KT 9999 // NCD 26/20 Q1008=
METAR YPPH 111600Z 12009KT CAVOK 34/01 Q1008
     FM1600 MOD TURB BLW 3000FT=
METAR YPTN 111600Z AUTO 11004KT 9999 // NCD 24/22 Q1007=
METAR YPXM 111600Z AUTO 00000KT //// // ////// 23/22 Q1013=
METAR YSSY 111600Z 10005KT CAVOK 21/19 Q1015
     NOSIG=
0000003800
252
SNVA21 AMMC 111600
NIL
0000003800
253
SNVB21 AMMC 111600
NIL
0000003800
254
SNVC21 AMMC 111600
NIL
0000003800
255
SNVD21 AMMC 111600
NIL
0000003800
256
SNVF21 AMMC 111600
NIL
0000023900
257
SNVJ21 AMMC 111600
BBXX
VHMW 11154 99648 31298 41/91 /0106 11004 21005 49943 53005 74974
8//// 22252 05013 20000 304// 40601 81004=
FHZI 11154 99654 31401 46/// /1514 11010 21010 39904 49915 52012
22200 05016 86010=
0000010900
258
UANT99 KDDL 111613
ARP SWR86 5406N02710W 1613 F370 MS59 195/52 KT
HBJHE QXT AOE 111614 J60A
0000011000
259
UANT99 KDDL 111614
ARP AFR474 4859N03010W 1614 F320 MS47 224/27 KT
FGSPN QXT AOE 111614 F25A
00000000