0000017900
920
SNVD01 PANC 110400 RRL
BBXX
3FUU 11044 99249 70859
41898 41418 10260 20232 40210 51010 70221 8318/
22233 00200 20403 31411 40503 50302 6/00/ 80240 ICE /////=
0000017900
921
SNVD01 PANC 111300 RRI
BBXX
3FUU 11134 99241 70838
41899 61415 10250 20236 40210 52010 70121 84191
22233 00250 21102 32927 41001 50901 6//// 80240 ICE /////=
0000017900
922
SIVD01 PANC 110900 RRH
BBXX
3FUU 11094 99245 70848
41598 41413 10250 20222 40200 53010 7//00 83132
22233 00260 208// 3//// 406// 504// 6//// 80230 ICE /////=
0000114000
923
SNVD01 PANC 111600 RRA
BBXX
WYP8657 11164 99459 70852
43/// /3010 10003 49923
2227/ 00001=
WUR8857 11164 99430 70879
43/// /2915 10012 49988
2221/ 00007=
9HJG9 11164 99157 70695
41698 70727 10270 2//// 40170 54/// 70321 8484/
22243 04270 20804 3//// 40706 51004 6//// 8//// ICE /////=
WECB 11164 99327 71172
43/// /3502 10142 20092 40216 5//// 7//// 8////
222// 04147 2//// 3//// 4//// 5//// 6//// 8//// ICE /////=
WSQ2674 11164 99327 71172
43/// /0302 10121 2//// 40209 5//// 7//// 8////
222// 04150 2//// 3//// 4//// 5//// 6//// 8//// ICE /////=
KAOU 11164 99049 31069
43/// /3210 10270 20237 40123 5//// 7//// 8////
222// 04300 2//// 3//// 4//// 5//// 6//// 8//// ICE /////=
WYQ4356 11164 99461 70840
43/// /2407 10018 49920
2227/ 00002=
KAQP 11164 99098 71043
43/// /0813 10268 20222 40125 5//// 7//// 8////
222// 04270 2//// 3//// 4//// 5//// 6//// 8//// ICE /////=
WCF3012 11164 99431 70824
43/// /2014 10053 49940
2221/ 00426=
C6VG7 11164 99232 70834
41898 31513 10260 2//// 40195 53005 7//11 831//
22214 00270 20202 331// 4//02 5//02 6//// 8//// ICE /////=
0000068500
924
UDAF02 EGRR 111611
AMDAR 1115
ASC EU9622   2956N 01400W 111502 F338 MS515 297/055 TB/ S031=
LVR EU9622   3042N 01327W 111509 F340 MS525 290/050 TB/ S031=
LVR EU9622   3130N 01258W 111516 F340 MS531 288/054 TB/ S031=
LVR EU9622   3217N 01228W 111523 F340 MS536 288/052 TB/ S031=
LVR EU9622   3304N 01158W 111530 F340 MS545 293/044 TB/ S031=
LVR EU9622   3351N 01127W 111537 F340 MS550 296/047 TB/ S031=
LVR EU9622   3437N 01057W 111544 F340 MS553 306/046 TB/ S031=
LVR EU9622   3522N 01026W 111551 F340 MS555 315/048 TB/ S031=
LVR EU9622   3607N 00959W 111558 F340 MS563 326/048 TB/ S031=
LVR EU9622   3655N 00951W 111605 F360 MS613 326/050 TB/ S031=
0000026300
925
SNVD20 EHDB 111600
BBXX
PHEO 11164 99217 71589 41/98 /1307 10230 20207 40090 54000 70200
8//// 22263 00260 20301 317// 40905 80215=
PHSG 11164 99080 71324 41/96 80730 10260 20260 40100 54000 72396
88/// 22214 00250 20206 325// 40308 80260=
0000069300
926
UDEU02 EGRR 111611
AMDAR 1116
ASC EU0079   5217N 00445E 111608 F000 PS060 309/010 TB1 S031
333 F000 VG025=
ASC EU0079   5217N 00444E 111608 F002 PS056 302/013 TB0 S031
333 F002 VG015=
ASC EU0079   5217N 00444E 111608 F003 PS054 302/014 TB0 S031
333 F003 VG016=
ASC EU0079   5217N 00444E 111608 F005 PS050 306/016 TB0 S031
333 F005 VG017=
ASC EU0079   5217N 00444E 111609 F008 PS043 293/018 TB0 S031
333 F008 VG016=
ASC EU0079   5217N 00443E 111609 F011 PS035 300/023 TB0 S031
333 F011 VG009=
ASC EU0079   5216N 00443E 111609 F014 PS027 302/026 TB0 S031
333 F014 VG010=
ASC EU0079   5216N 00442E 111609 F016 PS020 304/025 TB0 S031
333 F016 VG011=
0000053500
927
UDEU02 EGRR 111611 RRA
AMDAR 1116
ASC EU0103   4902N 00256E 111600 F050 PS017 286/021 TB0 S031
333 F050 VG003=
DES EU0103   4902N 00255E 111600 F050 PS017 286/021 TB0 S031
333 F050 VG003=
DES EU0103   4902N 00255E 111601 F050 PS017 286/021 TB0 S031
333 F050 VG003=
DES EU0103   4901N 00247E 111602 F036 PS032 311/012 TB0 S031
333 F036 VG003=
DES EU0103   4901N 00240E 111603 F021 PS040 341/014 TB0 S031
333 F021 VG002=
DES EU0103   4900N 00234E 111605 F007 PS070 292/007 TB0 S031
333 F007 VG003=
0000124600
928
WWCN03 CYZX 111605
WEATHER BULLETIN FOR GAGETOWN PREPARED BY THE JOINT METEOROLOGICAL
CENTRE AT 12:05 PM AST SATURDAY 11 JANUARY 2014.
LOCATION: 5 CDSB GAGETOWN (CYCX)
TYPE: FREEZING PRECIPITATION WARNING IN EFFECT
DESCRIPTION: FREEZING RAIN
VALID: UNTIL 11/1800Z (UNTIL 11/1400 AST)
TYPE: RAINFALL WARNING IN EFFECT
DESCRIPTION: RAINFALL AMOUNTS IN EXCESS OF 25 MM IN 24 HOURS
VALID: 11/1800Z TO 12/1600Z (11/1400 AST TO 12/1200 AST)
TYPE: WIND ADVISORY IN EFFECT
DESCRIPTION: WINDS GUSTING IN EXCESS OF 25 KNOTS
VALID: 11/1800Z TO 13/1200Z (11/1400 AST TO 13/0800 AST)
COMMENTS: A LOW PRESSURE SYSTEM OVER ONTARIO WILL CONTINUE TO
TRACK NORTHEAST INTO QUEBEC TODAY. FREEZING RAIN HAS MOVED INTO THE
GAGETOWN AREA AHEAD OF THE WARM FRONT. FREEZING RAIN IS EXPECTED
TO CHANGE TO RAIN OVER THE NEXT FEW HOURS AS THE WARM FRONT PASSES
AND THE SURFACE TEMPERATURE RISES ABOVE ZERO. RAIN WILL CONTINUE TO
FALL UNTIL SUNDAY AFTERNOON, GIVING TOTAL RAINFALL AMOUNTS OF 25 TO
35 MM. IN ADDITION, THE TIGHT PRESSURE GRADIENT AROUND THE LOW WILL
PRODUCE STRONG WINDS GUSTING IN EXCESS OF 25 KNOTS UNTIL MONDAY
MORNING.
NEXT UPDATE: THIS BULLETIN WILL BE UPDATED BY 11/1800Z (11/1400 AST)
END/JMC
0000070200
929
SNNL50 EHDB 111600
AAXX 11161
06206 47/// /2912 10069 20024 30100 40153 53029 7//00
333 91016 91117 91214=
06207 45572 22915 10071 20012 30089 40143 52026 8////
333 82/23 91017 91118 91215=
06239 47572 22813 10067 20028 30053 40115 53021 70385 8////
333 81/22 91016 91118 91214=
06252 46/// /2712 10072 20035 30127 40173 53030 222// 00096 10605
333 91014 91115 91213=
06260 47572 12904 10068 20022 30179 40181 53034 70185 8////
333 81/29 91008 91109 91204
555 53006=
06270 47575 13006 10057 20021 30149 40149 53032 70280 8////
333 81/27 91009 91112 91208
555 53006=
06290 47983 02403 10035 20024 30119 40160 53035 70186
333 91005 91105 91203
555 53006=
0000166800
930
SNNL51 EHDB 111600
AAXX 11161
06201 45567 43012 10066 20014 30099 40152 52027 8////
333 81/23 84/30 91015 91116 91213=
06203 45579 3//08 10083 20018 30133 40184 53028 8////
333 82/28 83/31 91011 91114 91210=
06204 45574 73012 10071 20020 30117 40168 53030 8////
333 83/20 85/23 87/29 91016 91116 91212=
06205 47570 23213 10065 20014 30051 40111 53020 70185 8////
333 82/23 91016 91117 91214=
06208 47573 12912 10072 20023 30087 40137 53035 70180 8////
333 81/23 91016 91117 91214=
06211 45577 62813 10067 20013 30105 40161 53030 8////
333 83/24 86/31 91015 91116 91214=
06212 45577 12913 10073 20022 3//// 4//// 5//// 8////
333 81/23 91015 91116 91213=
06235 45573 32908 10066 20024 30168 40168 53031 8////
333 82/26 83/30 91011 91112 91208
555 53005=
06240 45572 42907 10062 20027 30186 40181 53034 8////
333 83/25 84/29 91009 91111 91208
555 53006=
06251 41/70 /2910 10065 20027 30149 40150 53030 7//00
333 91013 91113 91210
555 53005=
06258 46/// /2909
333 91012 91112 91209=
06269 47576 22806 10062 20027 30176 40170 53034 70165 8////
333 82/30 91008 91110 91206
555 53005=
06280 47568 22807 10060 20026 30141 40145 53032 70186 8////
333 82/25 91011 91111 91207
555 53003=
06310 45978 13004 10074 20025 30190 40200 53027 8////
333 81/80 91007 91108 91205
555 53013=
06344 45571 32905 10060 20023 30196 40189 53033 8////
333 82/27 83/31 91008 91109 91206
555 53008=
06370 47569 22705 10064 20031 30163 40189 53032 70386 8////
333 82/26 91007 91107 91205
555 53009=
06380 47464 12703 10059 20041 30057 40200 53033 70185 8////
333 81/19 91004 91108 91204
555 53004=
0000083400
931
SNNL52 EHDB 111600
AAXX 11161
06210 45579 22908 10067 20026 30185 40185 53032 8////
333 81/23 91011 91112 91208
555 53009=
06225 46/// /3013
333 91015 91115 91213=
06242 45564 32912 10068 20023 30156 40158 53030 8////
333 82/25 83/37 91015 91116 91213=
06257 46/// ///// 10072 20024
555 53007=
06275 47570 22703 10047 20030 30118 40174 51037 70286 8////
333 81/24 91005 91105 91203
555 53008=
06330 46/// /2909 10073 20020 30175 40190 53031
333 91011 91113 91210
555 53010=
06340 47976 72704 10057 20028 30178 40197 53029 70180 8////
333 81/70 87/81 91005 91106 91204=
06350 47574 42704 10067 20033 30176 40191 52035 70286 8////
333 83/30 84/36 91007 91109 91206
555 53009=
06375 47574 22704 10063 20030 30157 40182 53033 70386 8////
333 81/26 91005 91107 91204
555 53008=
0000112500
932
SNNL53 EHDB 111600
AAXX 11161
06248 46/// /2904
333 91008 91108 91205=
06249 47/74 /2908 10064 20026 70080
333 91011 91111 91208
555 53006=
06267 47970 02909 10062 20028 70286
333 91012 91113 91209
555 53005=
06273 47/73 /2806 10061 20029 70060
333 91008 91110 91207
555 53005=
06277 46/// /3013 10068 20026
333 91016 91117 91214
555 53003=
06278 46/// /2704 10053 20035
333 91005 91106 91204
555 53004=
06279 47567 32805 10053 20032 30132 40152 53035 70265 8////
333 83/24 91007 91108 91205
555 53004=
06283 46/// /2404 10036 20028
333 91005 91105 91204
555 53005=
06286 46/// /2807 10058 20030
333 91009 91111 91208
555 53004=
06319 41/79 /2603 10065 20031 30202 40204 53029 7//00
333 91004 91107 91205
555 53011=
06348 45/80 /2905 10060 20026 30184 40183 53033
333 91008 91108 91205
555 53006=
06356 465// 52804 10057 20031 30183 40184 53035 8////
333 82/30 85/34 91005 91108 91206
555 53006=
06377 47964 02703 10053 20035 70186
333 91005 91108 91205
555 53008=
06391 46/// /2802 10056 20030
333 91005 91108 91204
555 53010=
0000040600
933
SNNL54 EHDB 111600
AAXX 11161
06209 NIL=
06285 NIL=
06308 NIL=
06311 NIL=
06312 NIL=
06313 NIL=
06315 NIL=
06316 NIL=
06320 46/80 /3010 10081 20032 30164 40191 53027 222// 00081 10604
333 91012 91113 91211=
06321 46/80 /3010 10081 20021 30170 40194 53026 222// 00086 10604
333 91012 91112 91211=
06324 NIL=
06331 NIL=
06343 46/// /3008
333 91011 91112 91209=
0000003800
934
SNVC20 EHDB 111600
NIL
0000253500
935
UDFR01 LFPW 111609
AMDAR 1115
ASC EU0983 0449N 05222W 111552 F002 PS232 /// 260/002 TB1 S031
333 F002 VG051=
ASC EU0983 0449N 05221W 111552 F010 PS212 /// 153/001 TB0 S031
333 F010 VG005=
UNS EU0983 0449N 05220W 111553 F018 PS200 /// 347/001 TB1 S031
333 F018 VG051=
UNS EU0983 0450N 05220W 111553 F021 PS192 /// 163/004 TB1 S031
333 F021 VG021=
ASC EU0983 0451N 05220W 111553 F024 PS190 /// 113/009 TB1 S031
333 F024 VG030=
UNS EU0983 0452N 05221W 111554 F029 PS182 /// 127/010 TB1 S031
333 F029 VG030=
ASC EU0983 0454N 05222W 111554 F039 PS172 /// 136/012 TB0 S031
333 F039 VG008=
ASC EU0983 0455N 05222W 111554 F051 PS152 /// 147/012 TB0 S031
333 F051 VG008=
ASC EU0983 0456N 05223W 111555 F062 PS132 /// 183/009 TB1 S031
333 F062 VG019=
ASC EU0983 0458N 05223W 111555 F075 PS117 /// 172/011 TB0 S031
333 F075 VG002=
ASC EU0983 0459N 05225W 111555 F089 PS095 /// 194/011 TB2 S031
333 F089 VG038=
ASC EU0983 0501N 05225W 111556 F099 PS075 /// 210/011 TB1 S031
333 F099 VG016=
ASC EU0983 0502N 05226W 111556 F109 PS057 /// 232/012 TB1 S031
333 F109 VG010=
UNS EU0983 0503N 05227W 111556 F119 PS042 /// 277/003 TB0 S031
333 F119 VG007=
UNS EU0983 0504N 05228W 111557 F128 PS032 /// 178/002 TB0 S031
333 F128 VG005=
ASC EU0983 0506N 05228W 111557 F137 PS017 /// 207/005 TB0 S031
333 F137 VG008=
ASC EU0983 0508N 05229W 111557 F145 PS000 /// 200/004 TB0 S031
333 F145 VG006=
ASC EU0983 0509N 05229W 111558 F151 MS020 /// 275/005 TB1 S031
333 F151 VG009=
ASC EU0983 0511N 05229W 111558 F155 MS030 /// 285/006 TB0 S031
333 F155 VG003=
ASC EU0983 0513N 05229W 111558 F159 MS037 /// 275/009 TB2 S031
333 F159 VG031=
ASC EU0983 0514N 05230W 111559 F169 MS047 /// 268/012 TB1 S031
333 F169 VG014=
ASC EU0983 0516N 05231W 111559 F182 MS072 /// 271/010 TB1 S031
333 F182 VG027=
UNS EU0983 0518N 05231W 111559 F189 MS092 /// 238/007 TB1 S031
333 F189 VG020=
UNS EU0983 0520N 05232W 111600 F194 MS102 /// 219/010 TB2 S031
333 F194 VG032=
ASC EU0983 0521N 05233W 111600 F202 MS115 /// 001/004 TB0 S031
333 F202 VG003=
ASC EU0983 0523N 05234W 111600 F210 MS127 /// 307/005 TB1 S031
333 F210 VG013=
ASC EU0983 0524N 05236W 111601 F217 MS140 /// 331/007 TB1 S031
333 F217 VG018=
ASC EU0983 0525N 05237W 111601 F223 MS145 /// 003/004 TB1 S031
333 F223 VG021=
ASC EU0983 0526N 05238W 111601 F228 MS157 /// 015/008 TB1 S031
333 F228 VG010=
ASC EU0983 0528N 05240W 111602 F235 MS167 /// 037/004 TB1 S031
333 F235 VG014=
0000003800
936
SNVE20 EHDB 111600
NIL
0000003800
937
SNVJ20 EHDB 111600
NIL
0000011000
938
UANT99 KDDL 111608
ARP AAL47 5734N02723W 1608 F360 MS61 205/72 KT
N754AN DDL XXN 111608 F41A
0000017800
939
SMVD01 KWBC 110600 RRX
BBXX
3FUU 11064 99248 70856 41798 81215 10270 20243 40210 50010 70322
 88656 22233 00240 21501 31311 41501 51501 6//// 80250 ICE /////=
00000000