0000009900
527
SAIN34 VOMM 111610 RRA
METAR VOHS 111610Z 12003KT 5000 HZ SCT020 20/14 Q1018 NOSIG=
0000065700
528
WWCN12 CWTO 111620
SEVERE WEATHER BULLETIN
ISSUED BY ENVIRONMENT CANADA
AT 11:20 AM EST SATURDAY 11 JANUARY 2014.
---------------------------------------------------------------------
WATCHES/WARNINGS ENDED FOR NORTHERN ONTARIO...
FREEZING RAIN WARNING ENDED FOR:
      KIRKLAND LAKE - NEW LISKEARD - TEMAGAMI
      NORTH BAY - POWASSAN - MATTAWA.
      THE WEATHER CONDITIONS WHICH PROMPTED THE FREEZING RAIN WARNING
      HAVE NOW ENDED OR MOVED OUT OF THE AREA.
---------------------------------------------------------------------
==DISCUSSION==
REFER TO YOUR LOCAL PUBLIC FORECAST FOR FURTHER DETAILS.
END/OSPC
0000011000
529
UANT01 CWAO 111621
ARP QTR707 6321N04234W 1621 F340 MS60 180/27 KT
A7BAO QXT AOW 111621 F56A
0000011000
530
UANT01 CWAO 111621
ARP DLH410 4952N04034W 1621 F370 MS60 300/49 KT
DAIKQ QXT AME 111621 J70A
0000010400
531
UACN10 CYEG 111620
EG
UA /OV YYC 158035 /TM 1619 /FLDURD /TP PA30 /TA 06 /WV 210025G30
0000128300
532
FQDN45 EKMI 111620
Marine Forecast valid to late Sunday evening, issued at 17.35.



Southern Baltic:
Gale from southwest, 10 til15 m/s. Rain with moderate
visibility. This night up to gale from west and northwest, 10
to 15 m/s, Sunday 15 to 20 m/s, gradually decreasing to, 8 to
13 m/s. Improving visibility from northwest, apart from a few
showers.


Western Baltic:
Gradually west, increasing up to gale, 10 to 15 m/s, this night
becoming west and northwest, Sunday afternoon decreasing, to 8
to 13 m/s, at first in western part. Improving visibility from
northwest, apart from a few showers.


The Belt and the Sound:
The Belts:
west, 8 to 13 m/s, this night west and northwest up to gale, 10
to 15 m/s, from Sunday afternoon decreasing to, 5 to 10 m/s.
Showers otherwise good visibility.

The Sound:
west, 5 to 10 m/s, this night west and northwest, up to gale,
10 to 15 m/s, Sunday morning transiently up to 18 m/s. From
Sunday afternoon decreasing, to 8 to 13 m/s. Showers otherwise
good visibility.


Kattegat:
West 8 to 13 m/s, this night gale from west later northwest, 13
to 18 m/s, Sunday morning transiently up to 20 m/s, then
decreasing and in the evening around north, 5 to 10 m/s.
Showers otherwise good visibility.
0000011000
533
UANT01 CWAO 111622
ARP PIA711 5400N01950W 1621 F350 MS59 204/86 KT
APBGZ QXT AOE 111622 F34A
0000019100
534
FTGD31 TGPY 111600
TGPY 111600Z 1118/1218 11014KT 9999 SCT019 BECMG 1200/1202 08010KT
SCT018 SCT040 PROB30 TEMPO 1207/1211 5000 SHRA SCT016 BKN038 BECMG
1211/1213 12014KT=
0000011000
535
UANT01 CWAO 111622
ARP BAW43C 4855N04729W 1622 F370 MS60 295/62 KT
GVIIR QXS YYT 111622 F31A
0000011000
536
UANT01 CWAO 111622
ARP BAW273 5721N02251W 1621 F320 MS59 209/92 KT
GYMMC QXT AOE 111622 F10A
0000011100
537
UANT01 CWAO 111622
ARP BER7450 5308N02332W 1622 F380 MS57 194/60 KT
DALPE QXT AOE 111622 J76A
0000016800
538
SIDL22 EDZW 111500 CCE
AAXX 11151
10113 21575 53111 10067 20038 30090 40109 53029 72586 83930
  333 55300 20128 30128 69937 82920 83360 91118 91215=
0000099300
539
SNGL61 EKMI 111600
AAXX 11164
04211 47/59 /3213 11095 21103 39815 49978 52002 72481 =
04213 46/// /2102 11068 21112 39860 49971 52017 =
04220 45684 71709 11091 21127 39925 49977 52011
  333 55300 20018 81/34 85/41 87/59 =
04221 45584 81508 11100 21166 39937 49975 52014
  333 83/29 88/57 =
04224 45684 71609 11090 21129 39941 49975 52011
  333 87/33 =
04231 45984 10707 11178 21227 39924 40001 52008
  333 81/58 =
04234 45/84 /0903 11102 21165 39965 49976 52011 =
04241 45981 10910 11100 21163 39939 49979 52008
  333 81/67 =
04250 45/84 00610 11088 21169 39851 49958 52007
  333 55300 20209 =
04260 45/83 /1403 11099 21214 39903 49951 52005 =
04270 45962 70617 11099 21214 39921 49961 57008
  333 81/60 85/62 87/65 =
04272 45780 70514 11072 21153 39870 49943 57010
  333 85/57 87/59 =
04320 45/84 03115 11165 21215 30032 40048 52004
  333 55300 20007 =
04339 NIL =
04360 NIL =
04390 45/84 02907 11056 21134 39857 49952 52001 =
0000068400
540
SNNO49 ENMI 111600 RRA
AAXX 11161
01027 26/// ///// 11107 21126 333 60005=
01084 26/// /0000 11244 21270 333 60005=
01117 26/// /1006 11079 21208 333 60005=
01153 26/// ///// 11076 21201 333 60005=
01270 26/// ///// 11093 21155 333 60005=
01272 26/// ///// 11090 21142 333 60005=
01308 26/// ///// 11033 21051 333 60005=
01342 26/// ///// 10048 20003 333 69925=
01371 26/// ///// 11100 21113 333 60005=
01381 26/// ///// 11089 21106 333 60005=
01382 26/// ///// 11079 21108 333 60005=
01387 26/// ///// 11074 21110 333 60005=
01413 26/// ///// 10044 20020 333 69965=
01464 26/// /2102 10031 20003 333 60005=
01485 46/// /3604 11031 21041=
0000010900
541
UANT01 CWAO 111622
ARP XLF64 4717N02415W 1622 F370 MS45 210/52 KT
CGGTS QXT AOE 111622 J54A
0000018200
542
SNCZ64 OKPR 111600 RRA
AAXX 11161
11502 27661 /2301 10021 21002 39692 40155 56013 70010
  333 60005 81/37 85/57 88/59
  555 385// 50024 60025 70029 80040 90053=
0000014400
543
SNVD02 CWAO 111600
BBXX
SHIP 11164 99623 70748 41998 01713 11210 21255 40085 54004 70200 80000 22240 0//// 2//// ICE55095 =

0000011300
544
SIOM20 OOMS 111500 RRH
AAXX 11154
41250 36/// /2605 10200 20085 39903 40198
333 0E017 58009 =
0000021000
545
SZSR01 WSSS 111624
CREX++
T000103 A001 D01021 D06025++
0126166 10385160 00044 2014 01 11 15 42 //// 11 07 00 06
01954 -0086 01938 -0082 01918 -0092 01900 -0090 01883 -0087 01867 -0092++
7777
0000216500
546
SZNZ01 NZKL 111624
CREX++
T000103 A001 D01021 D06025++
-3683144 17478654 AUCT  2014 01 11 16 16 //// 11 07 00 01
05973 3149 05972 3149 05972 3149 05971 3149 05970 3148 05968 3147+
-4402404 -17636748 CHIT  2014 01 11 16 16 //// 11 07 00 01
05037 2111 05020 2097 05002 2083 04989 2075 04965 2054 04965 2058+
-4089929 17623168 CPIT  2014 01 11 16 16 //// 11 07 00 01
04175 2296 04154 2279 04149 2278 04161 2296 04154 2293 04146 2290+
-3618905 17548887 GBIT  2014 01 11 16 16 //// 11 07 00 01
06391 0017 06386 0014 06383 0012 06391 0021 06398 0029 06384 0017+
-3867541 17802288 GIST  2014 01 11 16 16 //// 11 07 00 01
04368 2714 04380 2730 04365 2718 04361 2718 04352 2713 04343 2706+
-4241288 17370277 KAIT  2014 01 11 16 16 //// 11 07 00 01
03516 2229 03505 2223 03512 2236 03534 2263 03541 2275 03547 2286+
-3755040 17815904 LOTT  2014 01 11 16 16 //// 11 07 00 01
03965 0198 03978 0213 03955 0192 03957 0196 03958 0199 03948 0192+
-3704657 17451175 MNKT  2014 01 11 16 16 //// 11 07 00 01
02771 -0113 02790 -0102 02797 -0102 02795 -0111 02809 -0104 02821 -0099+
-3947566 17692007 NAPT  2014 01 11 16 16 //// 11 07 00 01
03352 2035 03346 2033 03330 2021 03324 2020 03308 2008 03314 2019+
-3441483 17304870 NCPT  2014 01 11 16 16 //// 11 07 00 01
-04050 -9013 -04147 -9112 -04196 -9162 -04257 -9225 -04275 -9244 -04292 -9262+
-4581435 17062939 OTAT  2014 01 11 16 16 //// 11 07 00 01
04448 3475 04444 3477 04437 3476 04432 3477 04425 3477 04421 3479+
-2928002 -17789440 RBCT  2014 01 11 16 16 //// 11 07 00 01
06333 1994 06314 1976 06319 1981 06312 1975 06323 1987 06340 2005+
-2925114 -17790384 RFRT  2014 01 11 16 16 //// 11 07 00 01
03270 0142 03286 0159 03276 0149 03265 0139 03261 0136 03262 0138+
-4357010 17277383 SUMT  2014 01 11 16 16 //// 11 07 00 01
02167 1879 02170 1889 02114 1840 02134 1867 02124 1863 02103 1849+
-3764109 17618118 TAUT  2014 01 11 16 16 //// 11 07 00 01
05621 3980 05622 3981 05621 3982 05622 3984 05620 3982 05619 3982+
-4128448 17477985 WLGT  2014 01 11 16 16 //// 11 07 00 01
03258 2026 03251 2023 03256 2031 03252 2032 03254 2038 03255 2044++
7777
00000000