0000192400
900
SZAU01 AMMC 111609
CREX++
T000103 A001 D01021 D06025++
-1927750 14705860 59260 2014 01 11 16 02 3023 11 07 00 01
00877 0219 00879 0218 00882 0216 00885 0215 00878 0204 00876 0198+
-2316110 15079000 59670 2014 01 11 16 02 2998 11 07 00 01
01578 0187 01576 0176 01583 0176 01588 0174 01599 0175 01606 0175+
-3447330 15091170 60420 2014 01 11 16 02 2945 11 07 00 01
00945 -0027 00940 -0035 00937 -0043 00940 -0043 00939 -0048 00942 -0050+
-4105000 14591500 60910 2014 01 11 16 02 2888 11 07 00 01
00916 -0059 00916 -0058 00904 -0070 00901 -0073 00910 -0064 00916 -0058+
-4254640 14793080 61170 2014 01 11 16 02 2903 11 07 00 01
01300 0034 01302 0033 01311 0040 01308 0034 01302 0026 01304 0026+
-3834390 14161360 61410 2014 01 11 16 02 2908 11 07 00 01
00749 0016 00732 -0001 00744 0011 00759 0027 00770 0038 00756 0025+
-3214890 13364170 62000 2014 01 11 16 02 2957 11 07 00 01
01532 0061 01528 0059 01528 0060 01526 0060 01526 0061 01520 0057+
-3387080 12189720 62080 2014 01 11 16 02 2948 11 07 00 01
00881 0007 00879 0006 00849 -0022 00850 -0019 00856 -0012 00855 -0011+
-3182560 11573860 62237 2014 01 11 16 02 2973 11 07 00 01
00673 0044 00670 0042 00660 0034 00657 0032 00645 0022 00649 0027+
-2422000 11339750 62385 2014 01 11 16 02 //// 11 07 00 01
00824 -0040 00776 -0086 00815 -0046 00804 -0056 00812 -0046 00776 -0081+
-2181670 11419110 62430 2014 01 11 16 02 //// 11 07 00 01
01368 -0116 01370 -0112 01346 -0134 01397 -0080 01356 -0119 01357 -0115+
-1800080 12221830 62650 2014 01 11 16 02 3043 11 07 00 01
04873 0244 04868 0246 04861 0247 04855 0249 04850 0250 04844 0252+
-1247190 13084580 63230 2014 01 11 16 02 3050 11 07 00 01
05038 -0128 05041 -0127 05044 -0127 05048 -0126 05051 -0125 05053 -0127+
-1386000 13641580 63511 2014 01 11 16 02 3043 11 07 00 01
01727 0087 01725 0087 01723 0087 01719 0085 01717 0084 01716 0086++
7777

0000011100
901
UANT01 CWAO 111607
ARP UAL967 4906N04652W 1607 F340 MS61 299/60 KT
N672UA DDL XXN 111607 F33A
0000011000
902
UANT01 CWAO 111607
ARP DLH408 5051N04422W 1607 F370 MS59 292/53 KT
DAIGW QXT AOW 111607 J33A
0000011000
903
UANT01 CWAO 111607
ARP VIR15N 5105N02755W 1607 F340 MS49 193/47 KT
GVGAL DDL XXF 111607 F06A
0000010000
904
SNNO22 ENMI 111600 RRA
AAXX 11161
01003 46/// /3006 10004 21046 30100 40114 53005=
0000164600
905
SNNO48 ENMI 111600
AAXX 11161
01002 46/// /2008 11043 21083 30053 40064 54001=
01006 46/// /0000 11109 21117 30077 40093 52009=
01009 46/// /2204 11021 2//// 30065 40071 52003=
01011 46/// /1402 11047 21055 30068 40079 54000=
01016 46/// /1805 11069 21082 30063 40080 56003=
01017 46/// /2605 10000 2//// 30105 40113 54002=
01020 46/// /2807 11007 21022 30107 40118 54003=
01024 NIL=
01035 46/// ///// 11147 2//// 333 4/168=
01043 46/// /0000 11056 2////=
01105 46/// /0713 11051 21092=
01124 26/// ///// 11110 21168 333 60005=
01133 26/// /1206 11111 21209 333 4/011 60005=
01146 26/// /0504 11100 21189 333 60005=
01148 26/// /1307 11110 21219 333 4/071 60005=
01158 26/// ///// 11092 21227 30142 40152 53006 333 60005=
01198 26/// ///// 11205 21228 39931 40207 57002 333 60005=
01214 46/// /1001 11037 21065=
01221 46/// ///// 11136 21182=
01224 NIL=
01239 26/// /2702 11200 21224 333 4/025 69915=
01242 46/// ///// 11088 21147=
01287 46/// ///// 11165 21194 333 4/031=
01315 26/// /2502 10022 21017 333 60005=
01326 46/// ///// 10007 21003=
01346 26/// /2808 11054 21067 333 60005=
01352 NIL=
01356 46/// ///// 11112 2//// 49938 53005=
01365 26/// /0803 11128 21142 333 4/077 60005=
01414 46/// /3508 10046 2////=
01417 26/// ///// 10033 20017 333 60005=
01418 46/// ///// 10016 2////=
01426 46/// /3113 10048 2////=
01444 26/// /0101 11004 21011 333 60005=
01449 26/// /2701 10002 21002 333 60005=
01453 26/// /1705 10031 21012 333 4/002 60005=
01478 46/// ///// 11003 2////=
01486 26/// ///// 11048 21064 333 60005=
01487 46/// /0505 11054 21068=
0000188500
906
SNNO49 ENMI 111600
AAXX 11161
01027 NIL=
01044 46/// /1401 11047 21082 30174 40183 57000=
01068 46/// /0802 11043 21068 30164 40182 53002=
01074 46/// /1604 11062 21081 30163 40178 52002=
01083 46/// /0205 11023 21081 30157 40174 54000=
01084 NIL=
01086 46/// /0305 11043 21089 39978 40168 54000=
01088 46/// /0602 11075 21106 30118 40168 55000=
01099 46/// /2204 11076 21087 30154 40170 52010=
01112 46/// /0806 11068 21159 30078 40088 53008=
01116 46/// /0305 11076 21194 30083 40104 53010=
01117 NIL=
01139 46/// /0812 11026 21087 30127 40132 55001=
01151 46/// /0802 11124 21217 30051 40143 53004=
01153 NIL=
01161 46/// /0608 11054 21103 30143 40155 54000=
01162 46/// /0405 11066 21133 30155 40160 57002=
01183 46/// /2403 11071 21134 30136 40170 57001=
01193 46/// /0505 11069 21121 30131 40169 57000=
01209 46/// /2701 11078 21089 39916 40011 52009=
01217 46/// /0604 11055 21084 30002 40006 52007=
01220 46/// /2303 11142 21163 333 4/113=
01223 46/// /0802 11066 21090 39928 40007 52007=
01250 46/// ///// 11143 21164=
01270 NIL=
01272 NIL=
01282 46/// /0909 11078 21143 30065 40071 55000=
01290 46/// /0708 11094 21149 30064 40067 55000=
01308 NIL=
01310 46/// /0501 11015 21059 39991 40006 52014=
01320 46/// /2703 11020 21059 39932 40006 53012=
01323 46/// /0000 11045 21065 39608 40002 52015=
01342 NIL=
01347 46/// /2709 11018 21037 39383 49985 53012=
01358 46/// ///// 11065 21076 39253 49989 52009=
01362 46/// /2611 11135 21149 49972 53008 333 4/051=
01368 46/// /0901 11113 21127 39007 40013 52004=
01371 NIL=
01381 NIL=
01382 NIL=
01387 NIL=
01408 46/// /3509 10046 20016 39984 40016 53021=
01413 NIL=
01463 26/// ///// 11038 21038 333 69915=
01464 NIL=
01466 46/// /0304 11057 21067 39872 40008 52003=
01485 NIL=
01489 26/// ///// 11074 2//// 333 69925=
0000013900
907
SSVX13 LFPW 111601
ZZYY 41738 11014 1601/ 726608 077016 6113/ 22219 00268 444 20130
 11014 1501/ 50101 80050 80000 9/015=
0000087400
908
WOIN90 VECC 111551

FROM ACWC KOLKATA

TO    ALL



EVENING  INFERENCE FOR KOLKATA REGION DATED 11-10-2013 AAA



MAIN SYNOPTIC FEATURE BASED ON 111730 HRS IST OBSN.:-



MORNING\U2019S TROUGH OF LOW PRESSURE OVER SE- BAY AND ADJ. ANDAMAN
SEA PERSISTS AAA MORNING\U2019S CYCIR OVER E-MP AND ADJ.AREA
EXTENDING UPTO 0.9 KM ASL PERSISTS AAA



MAIN FEATURE OF WX F/C VALID TILL  121730 HRS IST:-



RA/TS WOULD OCCUR AT A FEW  PLACES OVER SHWB & SKM, AND BHR ;

AT ISLTD PLACES OVER JRKD,A & N ISLDS,MSD,NDA,BRB DIST OF GWB AAA

MOD. FOG REDUCING SURFACE VISIBILITYU LESS THAN 500 M MAY OCCUR AT A
FEW PLACES OVER ODS,GWB DURING NEXT 12 HRS AAA

WX WILL BE MAINLY DRY OVER ODS AND REST DIST OF GWB AAA



WX WARNING:-   NIL





O/L VALID TILL 141730 HRS IST OBSN.:- L/C  AAA=
0000011000
909
UANT01 CWAO 111607
ARP EIN121 5056N04410W 1607 F360 MS63 295/60 KT
EIEAV DDL XXN 111607 J19A
0000011000
910
UANT01 CWAO 111607
ARP DLH418 5110N03856W 1607 F350 MS60 299/48 KT
DABYK QXT EUA 111607 F39A
0000013000
911
SICY20 LCLK 111500 CCA
AAXX 11154
17609 42780 52305 10167 20081 30215 40219 58001 82502 333 6///7 82697
85075=
0000039100
912
SICI29 BABJ 111500 RRA
AAXX 11151
58968 32570 10901 10179 20111 30214 40222 58005 81500=
58974 46/// /1709 10188 20145 30113 40238 58004=
59358 31920 00404 10174 20146 30203 40235 50001 71010=
59559 32563 20504 10200 20150 30203 40232 58001 82430=
59792 12460 50806 10213 20193 30209 40214 51004 6003/ 84470=
59997 32460 30508 10270 20234 30142 40150 50010 83400=
0000018000
913
SIAA01 KARS 111600
AAXX 1116/
89866 46/// ///// 11016 39864 4//// 5////=
89828 46/// ///// 11339 36539 4//// 5////=
89879 46/// ///// 10006 39885 4//// 5////=
0000068300
914
SABN32 OBBI 111600
METAR OMAA 111600Z 05004KT 9000 -RA NSC 18/16 Q1020 A3013 NOSIG=
METAR OMAD 111600Z 04003KT 360V090 9999 -RA FEW045 19/16 Q1020 A3014
                    NOSIG=
METAR OMAL 111600Z 02005KT CAVOK 20/09 Q1021 A3015 NOSIG=
METAR OMDB 111600Z 05003KT 020V100 8000 -RA NSC 18/14 Q1021 NOSIG=
METAR OMDW 111600Z 04005KT 9999 -RA NSC 17/15 Q1022 NOSIG=
METAR OMFJ 111600Z 23001KT 9999 SCT020 BKN100 20/12 Q1021 A3015=
METAR OMRK 111600Z 13002KT 9999 RA SCT040 18/16 Q1021 A3016=
METAR OMSJ NIL=
METAR OOMS 111550Z 09004KT 9999 FEW030 SCT100 BKN200 19/09 Q1021
NOSIG=
METAR OOSA 111550Z 11009KT 070V150 9999 BKN025 23/14
Q1018 NOSIG=
0000023800
915
SNVD22 KWNB 111600 RRL
BBXX
46053 11161 99343 71199 46/// /2903 10132 40214 53013 91550 22200
00147 11403 20401 329// 41403 70014 333 91204 555 11028 22029
31545 42904 61549 291026 282027 284017 265018 262009 273010=
0000024900
916
SNVD20 KWNB 111600 RRG
BBXX
44059 11161 99368 70763 46/// /2206 10195 40092 91600 22200 00080
333 91210 555 11067 22073=
44058 11161 99376 70763 46/// /1806 10085 40090 91600 22200 00047
10301 70004 333 91207 555 11069 22075=
0000023800
917
SNVE15 KWNB 111600 RRD
BBXX
51003 11161 99193 71606 46/// /1105 10244 40114 55004 91550 22200
00253 11004 20401 3//// 41004 70022 333 91206 555 11047 22049
31455 41207 61549 112045 108048 104045 110051 109049 114056=
0000119900
918
SNVD15 KWNB 111600 RRG
BBXX
41036 11161 99342 70769 46/// /1911 10224 20205 40141 56013 91550
22200 00209 10805 20805 70026 333 91213 555 11121 22131 31507
42015 61549 194113 196116 197118 197117 196117 198110=
42060 11161 99163 70632 46/// /0709 10263 40179 58005 91550 22200
00267 10604 20603 307// 41002 70019 333 91211 555 11100 22107
31538 40811 61549 072095 076092 072088 065086 068086 067087 80810
91534=
41046 11161 99238 70683 46/// /1010 10257 20192 40233 58005 91550
22200 00260 10806 20806 70028 333 91211 555 11102 22108 31522
41012 61549 100095 096095 096096 096093 096094 093097 80910 91502=
44064 11161 99370 70760 46/// /2008 10161 40100 56028 91600 22200
00080 10301 70006 333 91212 555 11096 22104=
44062 11161 99386 70764 46/// /1707 10057 40081 91600 22200 00030
10301 70006 333 91208 555 11077 22084=
44063 11161 99390 70764 46/// /1907 10060 40057 57038 91600 22200
00015 10301 70004 333 91209 555 11083 22090=
44041 11161 99372 70768 46/// /2306 10165 91600 22200 00055 1//00
70001 333 91208 555 11066 22072=
44042 11161 99380 70763 46/// /1805 10097 40076 57035 91600 22200
00041 10301 70004 333 91205 555 11052 22057=
0000023300
919
SNVD17 KWNB 111600 RRG
BBXX
51205 11161 99210 71564 46/// ///// 1//// 91551 22200 00248 11005
21004 334// 41103 70026=
46239 11161 99363 71221 46/// ///// 1//// 91559 22200 00133 11407
21003 330// 41407 70036=
00000000