0000011000
879
UANT99 KDDL 110543
ARP BAW81V 5412N02837W 0543 F350 MS60 229/63 KT
GCIVM QXT AOE 110543 F12A
0000011100
880
UANT99 KDDL 110543
ARP AAL120 4611N03915W 0543 F350 MS50 304/29 KT
N191AN DDL XXW 110543 F62A
0000107300
881
SNAU02 AMMC 110500 RRA
AAXX 11054
94120 11580 73010 10320 20222 30014 40053 58029 69921 70222 81238
90530=
94122 46/// /2007 10317 20243 30050 40058 57024 6///1 90530=
94131 17/// /1308 10314 20230 39899 40048 56029 60051 7//44 90530=
94132 11450 60000 10301 20238 69961 71662 86300 90530=
94147 15/// /1112 10328 20245 30019 40041 56026 60001 90530=
94150 11475 71015 10289 20240 39986 40046 56028 60091 72522 86832
90530=
94151 17/// /1014 10257 20237 30039 40059 56020 60071 7//44 90530=
94236 11/80 61304 10382 20161 39800 40045 57054 60001 70311 86900
90530=
94238 11981 50712 10379 20117 39635 40047 56036 60001 70311 85082
90530=
94248 17/// /1711 10260 20248 30063 40077 58007 60471 7//44 90530=
94324 11/80 20907 10390 20059 39339 40059 57029 60001 70200 81031
90530=
94327 15/// /1112 39704 40067 56026 60001 90530=
94462 15/// /1211 10397 21025 39554 40093 56025 60001 90530=
95111 17/// /2806 10319 20240 30026 40059 58029 69921 7//44 90530=
95322 15/// /1511 10423 20110 39684 40055 58032 60001 90530=

0000024100
882
SNAU04 AMMC 110500 RRA
AAXX 11054
94290 46/// /1218 10283 30080 40089 56016 90524=
94294 11570 70917 10311 20207 30085 40095 58023 60001 70522 82239=
94366 11475 70919 10314 20201 30092 40101 58021 60001 71422 86342=

0000129100
883
SNAU47 AMMC 110500 RRA
AAXX 11054
94127 15/// /3605 10305 20242 30049 40051 56024 60001 90530=
94128 15/// /2207 10343 20226 30000 40049 58036 60001 90530=
94129 17/// /2005 10310 20265 30033 40055 56025 60011 7//44 90530=
94130 15/// /1608 10369 20198 39972 40057 57036 60001 90530=
94135 17/// /0615 10269 20259 30046 40049 58020 60011 7//44 90530=
94137 15/// /1308 10317 20221 30020 40052 58021 60001 90530=
94140 15/// /1209 10308 20237 30024 40043 58025 60001 90530=
94141 15/// /1410 10297 20188 39594 40048 58018 60001 90530=
94143 15/// /1508 39938 40054 57028 60001 90530=
94152 17/// /0000 10237 20225 30064 40083 58001 60201 7//44 90530=
94153 15/// /1111 10300 30038 40054 56026 60001 90530=
94225 158// 11109 10376 20171 39795 40040 58038 60001 90530=
94229 11882 41308 10394 20161 39829 40047 57038 60001 70311 83208
90530=
94231 15/// /1207 10403 20077 39699 40046 58036 60001 90530=
94232 15/// ///// 10374 20179 39949 40049 58038 60001 90530=
94239 174// 80504 10257 20257 30034 40080 55002 60081 7//44 90530=
94242 11/60 63112 10330 20213 39812 40053 57035 60021 75022 86900
90530=
94321 35/// /1011 10418 21084 39579 40078 56026 90530=
94463 11782 10902 10395 20018 39557 40094 57024 60001 70300 81100
90530=

0000018400
884
SNAU48 AMMC 110500 RRA
AAXX 11054
95142 171// 81615 10246 20243 30014 40047 56014 60131 7//44 90530=
95146 15/// /0808 10313 20256 30029 40039 58028 60001 90530=

0000015400
885
SNAU49 AMMC 110500 RRA
AAXX 11054
94350 11784 40505 10331 20187 60001 70300 84300=
94371 46/// /1018 10251 30107 40114 56014 90520=

0000040000
886
SNAU50 AMMC 110500 RRA
AAXX 11054
94377 11/80 313// 10301 20128 60001 70311=
94384 11584 61615 10283 20261 30083 40136 56019 60001 70322 83206=
94494 11682 60504 10359 20172 39887 40106 57025 60001 70311 86200=
94513 11/82 40000 10279 20228 39916 40123 58014 60261 72500=
94514 11/84 40904 10300 20178 39740 40117 57020 60001 70322=
94550 11/// ///// 10222 20185 60211=

0000010900
887
SNAU51 AMMC 110500 RRA
AAXX 11054
95370 15/// /0908 10273 20229 30096 40128 56017 60001=

0000008700
888
UPIN90 VIJP 110600
PPAA 61051 42339
55392 04514 03509 03014 77999=

0000011100
889
UGIN90 VIJP 110600
PPBB 61051 42339
90012 04504 05512 04515 9037/ 04515 03020 911// 00522=

0000027100
890
SNVX22 EGRR 110500 RRA
BBXX
TBWUK30 11053 99103 30722 41598 62007 10295 20238 40116 70152 82268
22254 04300 20601 317// 41003 5//// 80255=
MZFC6 11051 99096 10682 41597 33609 10280 20224 40146 51005 70500
83100 22223 00278 20303 303// 40603 80242=
0000215900
891
SZNZ01 NZKL 110545
CREX++
T000103 A001 D01021 D06025++
-3683144 17478654 AUCT  2014 01 11 05 37 //// 11 07 00 01
05482 3116 05475 3116 05465 3114 05456 3112 05447 3111 05440 3111+
-4402404 -17636748 CHIT  2014 01 11 05 37 //// 11 07 00 01
04531 2005 04514 1991 04516 1996 04509 1992 04499 1985 04493 1982+
-4089929 17623168 CPIT  2014 01 11 05 37 //// 11 07 00 01
03590 2298 03568 2281 03580 2298 03571 2293 03575 2302 03567 2299+
-3618905 17548887 GBIT  2014 01 11 05 37 //// 11 07 00 01
05998 0037 05994 0038 05996 0045 05996 0051 05991 0051 05982 0048+
-3867541 17802288 GIST  2014 01 11 05 37 //// 11 07 00 01
03852 2728 03856 2738 03862 2750 03844 2736 03845 2743 03829 2732+
-4241288 17370277 KAIT  2014 01 11 05 37 //// 11 07 00 01
02850 2176 02832 2162 02855 2188 02830 2167 02847 2190 02845 2192+
-3755040 17815904 LOTT  2014 01 11 05 37 //// 11 07 00 01
03533 0223 03524 0220 03522 0224 03516 0222 03517 0229 03507 0224+
-3704657 17451175 MNKT  2014 01 11 05 37 //// 11 07 00 01
03384 -0134 03378 -0142 03384 -0140 03389 -0138 03394 -0135 03385 -0147+
-3947566 17692007 NAPT  2014 01 11 05 37 //// 11 07 00 01
02793 2060 02772 2045 02764 2042 02767 2050 02767 2056 02769 2063+
-3441483 17304870 NCPT  2014 01 11 05 37 //// 11 07 00 01
02099 -2701 02023 -2773 02083 -2708 02068 -2719 02084 -2699 02183 -2595+
-4581435 17062939 OTAT  2014 01 11 05 37 //// 11 07 00 01
03834 3435 03831 3435 03828 3434 03828 3436 03825 3436 03822 3435+
-2928002 -17789440 RBCT  2014 01 11 05 37 //// 11 07 00 01
06163 2036 06157 2035 06181 2062 06183 2069 06155 2044 06145 2038+
-2925114 -17790384 RFRT  2014 01 11 05 37 //// 11 07 00 01
03113 0246 03102 0238 03083 0224 03080 0225 03077 0226 03072 0225+
-4357010 17277383 SUMT  2014 01 11 05 37 //// 11 07 00 01
01331 1821 01355 1849 01325 1824 01347 1851 01333 1842 01323 1837+
-3764109 17618118 TAUT  2014 01 11 05 37 //// 11 07 00 01
05292 3996 05288 3997 05285 3999 05279 3999 05273 3998 05271 4000+
-4128448 17477985 WLGT  2014 01 11 05 37 //// 11 07 00 01
02814 2058 02818 2065 02814 2065 02810 2065 02794 2052 02805 2066++
7777
0000068500
892
UDNA02 EGRR 110546
AMDAR 1101
LVR EU8000   4354N 06052W 110142 F329 MS580 291/053 TB0 S031=
LVR EU8000   4412N 05937W 110149 F330 MS582 287/054 TB0 S031=
LVR EU8000   4429N 05821W 110156 F330 MS592 292/052 TB0 S031=
LVR EU8000   4445N 05705W 110203 F329 MS592 289/050 TB0 S031=
LVR EU8000   4500N 05549W 110210 F329 MS610 288/045 TB0 S031=
LVR EU8000   4515N 05433W 110217 F349 MS632 297/049 TB0 S031=
LVR EU8000   4528N 05316W 110224 F369 MS642 296/054 TB0 S031=
LVR EU8000   4542N 05158W 110231 F369 MS642 294/050 TB0 S031=
LVR EU8000   4554N 05040W 110238 F369 MS627 291/050 TB0 S031=
LVR EU8000   4608N 04923W 110245 F370 MS625 291/053 TB0 S031=
0000068500
893
UDNT02 EGRR 110546
AMDAR 1102
LVR EU8000   4627N 04808W 110252 F369 MS620 309/061 TB0 S031=
LVR EU8000   4644N 04652W 110259 F369 MS605 312/065 TB0 S031=
LVR EU8000   4700N 04535W 110306 F369 MS595 313/064 TB0 S031=
LVR EU8000   4716N 04416W 110313 F369 MS567 320/055 TB0 S031=
LVR EU8000   4730N 04257W 110320 F370 MS550 307/052 TB0 S031=
LVR EU8000   4744N 04136W 110327 F370 MS530 305/037 TB0 S031=
LVR EU8000   4757N 04015W 110334 F370 MS525 290/033 TB0 S031=
LVR EU8000   4815N 03856W 110341 F369 MS525 263/031 TB0 S031=
LVR EU8000   4834N 03736W 110348 F369 MS527 250/028 TB0 S031=
LVR EU8000   4852N 03615W 110355 F370 MS515 309/061 TB0 S031=
0000068900
894
UDNT02 EGRR 110546 RRA
AMDAR 1104
LVR EU8000   4908N 03453W 110402 F370 MS540 212/040 TB0 S031=
LVR EU8000   4925N 03329W 110409 F369 MS535 204/052 TB0 S031=
LVR EU8000   4940N 03203W 110416 F369 MS520 215/054 TB0 S031=
LVR EU8000   4954N 03038W 110423 F369 MS525 209/048 TB0 S031=
LVR EU8000   5006N 02912W 110430 F369 MS567 206/055 TB0 S031=
LVR EU8000   5017N 02747W 110437 F370 MS577 205/062 TB0 S031=
LVR EU8000   5028N 02619W 110444 F369 MS610 210/068 TB0 S031=
LVR EU8000   5037N 02451W 110451 F370 MS602 211/073 TB0 S031=
LVR EU8000   5045N 02323W 110458 F370 MS625 205/072 TB0 S031=
LVW EU8000   5052N 02153W 110505 F370 MS632 212/040 TB0 S031=
0000014600
895
SNVD20 KWNB 110400 RRX
BBXX
44040 11041 99410 70736 46/// /0603 10015 20015 90419 22200 1//00
70000 333 91204 555 11036 22046=
0000015800
896
SNVD15 KWNB 110500 RRP
BBXX
42360 11051 99267 70905 46/// /1604 10223 40148 50000 90500 22200
00227 10702 70009 333 91206 555 11042 22046=
0000011200
897
UANT01 CWAO 110543
ARP GTI8164 5501N03017W 0543 F360 MS58 212/50 KT
N465MC DDL XXW 110543 F72A
0000011000
898
UANT01 CWAO 110543
ARP DAL32 4808N04500W 0543 F390 MS58 302/58 KT
N858NW DDL XXW 110543 J22A
00000000