0000007800
659
SNAL55 EUMS 110500
AAXX 11054
60679 46/// /0000 10112 21204=
0000017500
660
SNAL51 DAMM 110500 RRC
AAXX 11051
60379 46/// /0000 10153=
60380 46/// /0000 10120 20074=
60394 46/// /0000 10122 20072=
60374 46/// /0000 10171 20061=
0000087500
661
SIBW20 VGDC 110300 CCB
AAXX 11034
41859 31440 82302 10142 20110 30135 40174 70522 8562/ 333 20114 
56599 58005 70000 83710 84618 88458=
41883 31820 60000 10156 20135 30154 40175 71040 86030 333 20116 
56090 59005 70000 86362=
41891 31440 10902 10170 20110 30135 40175 70500 81500 333 20120 
56900 59004 70000 81615=
41907 31909 00000 10148 20130 30150 40165 74244 333 20102 59007 
70000=
41923 31920 03602 10184 20130 30159 40169 70544 333 20117 59007 
70000=
41936 31907 00000 10150 20140 30166 40174 74244 333 20096 59009 
70000=
41943 31940 00000 10168 20140 30155 40163 70500 333 20113 59009 
70000=
41950 31905 00000 10140 20140 30170 40173 74244 333 20105 59002 
70000=
41978 31916 00303 10170 20140 30158 40164 71044 333 20134 59003 
70000=
41992 31930 00000 10195 20140 30150 40152 70500 333 20124 59003 
70000=
0000012700
662
SSVX02 CWAO 110500
ZZYY 47537 11014 0500/ 783289 048079 6113/ 444 
20130 11014 0500/ 50001 80136 80001 9////=
0000015100
663
SSVX02 CWAO 110400
ZZYY 47565 11014 0400/ 767395 028650 6113/ 11119 
49939 52002 22219 01004 444 20130 11014 0400/ 50400 80138 80001=
0000013900
664
SSVX02 CWAO 110500
ZZYY 47571 11014 0500/ 771334 104399 6113/ 11119 
49928 444 20130 11014 0500/ 50401 80129 80001 9////=
0000013900
665
SSVX02 CWAO 110500
ZZYY 47564 11014 0500/ 767178 027926 6113/ 11119 
49947 52003 444 20130 11014 0500/ 50400 80138 80001=
0000015100
666
SSVX02 CWAO 110500
ZZYY 26535 11014 0500/ 187280 040526 6113/ 11131 
11134 40006 57014 444 20130 11014 0500/ 50101 80134 80001 9////=
0000015100
667
SSVX05 CWAO 110500
ZZYY 48510 11014 0500/ 779001 129207 6113/ 11122 
11224 49816 57029 444 20130 11014 0500/ 50100 80132 80001 9////=
0000014500
668
SSVX05 CWAO 110500
ZZYY 48509 11014 0500/ 775632 141150 6113/ 11131 
11221 49962 57026 444 20130 11014 0500/ 50400 80132 80001=
0000028600
669
SXHW11 KWAL 110527
15DEF7B8 011052753"
1,140111,04:15:02,9.7,83,14.2,20.3,964.6,0.00,13.1,
1,140111,04:30:02,10.0,91,17.6,20.1,964.6,0.00,13.1,
1,140111,04:45:02,10.5,94,16.8,20.2,964.8,0.00,13.1,
1,140111,05:00:02,10.1,83,15.6,20.1,964.9,0.00,13.1, 43-0NN  30W
0000015100
670
SSVX02 CWAO 110500
ZZYY 56504 11014 0500/ 317093 093433 6113/ 11119 
40137 57010 22219 00269 444 20130 11014 0500/ 50100 80146 80023=
0000016000
671
SSVX02 CWAO 110500
ZZYY 56948 11014 0500/ 315975 090389 611// 11119 
40132 57012 22219 00274 444 20130 11014 0500/ 50101 80144 80013 
9/015=
0000015100
672
SSVX02 CWAO 110401
ZZYY 48597 11014 0401/ 184377 164399 6112/ 11121 
01100 11288 21320 40080 444 20130 11014 0401/ 50400 89990 80001=
0000015100
673
SSVX02 CWAO 110400
ZZYY 48598 11014 0400/ 774861 145118 6112/ 11121 
01500 11310 21345 40010 444 20130 11014 0400/ 50400 89990 80001=
0000016000
674
SSVX02 CWAO 110500
ZZYY 56516 11014 0500/ 355788 116842 6112/ 11119 
40001 52014 22219 00045 444 20130 11014 0500/ 50101 80148 80019 
9/015=
0000016000
675
SSVX02 CWAO 110500
ZZYY 56945 11014 0500/ 317759 111530 6113/ 11119 
40094 57008 22219 00292 444 20130 11014 0500/ 50101 80144 80027 
9/015=
0000016000
676
SSVX02 CWAO 110500
ZZYY 56540 11014 0500/ 554121 177469 6113/ 11119 
49993 52012 22219 00116 444 20130 11014 0500/ 50101 80136 80013 
9/015=
0000013900
677
SSVX02 CWAO 110500
ZZYY 64712 11014 0500/ 169558 010013 6113/ 22219 
00063 444 20130 11014 0500/ 50101 80134 80003 9/015=
0000016000
678
SSVX02 CWAO 110500
ZZYY 56538 11014 0500/ 337634 135144 6113/ 11119 
40236 57004 22219 00178 444 20130 11014 0500/ 50101 80136 80008 
9/015=
00000000