0000040700
799
SXXX32 EUMS 110530
262D700E
:PRS 1 /1 2544 2541 2576 2549 2590 2565 2540 2526 2516 2555 2540 2642 2612 2632 2614 2591 2590 2618 2644 2569 2610 2602 2659 2695 2662 2695 2687 2685 2661 2629 :RAD 1 /3 5012 5017 5032 5059 5065 5071 5098 5128 5128 5131 5154 5169 5176 5196 5217 :ENC 5 /5 5096 5150 5147 5192 5228 5226 5261 5274 5330 5324 5350 5394 :SW1 30 /60 15 :BAT 14 /15 13.9 :NAME 262D700E
0000044900
800
SXXX32 EUMS 110530 RRA
16289262
:PRS 1 /1 2433 2436 2447 2428 2428 2438 2433 2452 2449 2454 2452 2468 2439 2450 2451 2457 2455 2449 2464 2462 2442 2464 2463 2462 2441 2462 2468 2458 2471 2473 :RAD 1 /3 7900 7902 7903 7909 7916 7919 7924 7926 7929 7932 7935 7937 7944 7945 7946 7952 7956 7958 7956 7961 :ENC 5 /5 5275 5277 5289 5289 5300 5301 5303 5312 5310 5325 5324 5332 :SW1 30 /60 0 :SW2 60 /60 0 :BAT 14 /15 13.2 :NAME 16289262
0000045500
801
SXXX32 EUMS 110530 RRB
324DF524
:PRS 1 /1 3913 3907 3903 3898 3892 3887 3882 3877 3872 3866 3861 3855 3850 3844 3838 3832 3826 3820 3813 3806 3800 3793 3786 3779 3772 3765 3758 3750 3743 3736 :RAD 1 /3 3923 3906 3893 3877 3858 3838 3817 3797 3774 3750 3726 3704 3681 3659 3633 3606 3580 3551 3524 3497 :ENC 5 /5 2856 2827 2798 2765 2728 2692 2654 2615 2573 2529 2483 2437 :SW1 30 /60 0 0 :SW2 60 /60 60 60 :BAT 14 /15 13.3 :NAME 324DF524
0000041400
802
SXXX32 EUMS 110531
26CB10AC
:PRS 1 /1 -1339 -1339 -1339 -1339 -1339 -1339 -1339 -1339 -1339 -1339 -1339 -1339 -1339 -1340 -1339 -1339 -1339 -1339 -1339 -1339 -1339 -1339 -1339 -1339 -1339 -1339 -1339 -1339 -1340 -1339 :RAD 3 /3 6032 6042 6049 6059 6064 6074 6078 6089 6093 6102 :RA2 3 /3 5990 6004 6004 6026 6017 6041 6032 6053 6051 6061 :SW1 32 /60 0 :SW2 2 /60 1 :BAT 14 /15 13.0 :N/ME 26CB10AC
0000044900
803
SXXX32 EUMS 110531 RRA
1227146C
:PRS 1 /1 2700 2701 2704 2706 2709 2710 2712 2715 2716 2719 2720 2722 2725 2727 2729 2730 2732 2734 2738 2741 2744 2746 2746 2744 2746 2747 2749 2749 2752 2755 :RAD 3 /3 2684 2694 2705 2706 2719 2729 2732 2723 2737 2738 2753 2749 2749 2767 2763 2785 2781 2782 2792 2805 :ENC 1 /5 3447 3457 3467 3478 3487 3493 3502 3514 3528 3538 3545 3558 :SW1 32 /60 0 :SW2 2 /60 60 :BAT 14 /15 13.4 :NAME 1227146C
0000044400
804
SXXX32 EUMS 110533
22856700
:PRS 1 /1 3428 3421 3420 3415 3413 3417 3419 3413 3406 3401 3397 3395 3390 3388 3389 3387 3382 3383 3382 3377 3372 3365 3364 3362 3362 3360 3350 3341 3339 3341 :RAD 1 /3 6910 6905 6897 6886 6881 6873 6862 6851 6841 6836 6834 6826 6814 6803 6796 6794 6787 6775 6771 6767 :ENC 3 /5 5115 5101 5085 5074 5058 5038 5040 5016 5003 4998 4980 4970 :SW1 33 /60 0 :SW2 3 /60 0 :BAT 14 /15 13.0 :NAME 22856700
0000044900
805
SXXX32 EUMS 110533 RRA
32D8A2BE
:PRS 1 /1 2033 2029 2032 2040 2031 2036 2040 2026 2043 2040 2036 2032 2049 2038 2040 2044 2031 2046 2032 2050 2040 2039 2049 2045 2035 2041 2045 2040 2044 2046 :RAD 1 /3 7619 7611 7610 7615 7618 7610 7610 7612 7612 7615 7615 7614 7612 7612 7613 7622 7623 7625 7629 7628 :ENC 3 /5 5036 5039 5041 5040 5041 5043 5043 5045 5044 5046 5048 5046 :SW1 33 /60 9 :SW2 3 /60 33 :BAT 14 /15 13.4 :NAME 32D8A2BE
0000047700
806
SXXX32 EUMS 110534
262AD2C2
OT12 ID:PK-ORMA-10 DT:2014 01 11 05 33
:PRS /1 07279 07295 07270 07269 07271 07245 07231 07220 07238 07229 07216 07222 07213 07195 07208 07194 07188 07187 07179 07162 07169 07162 07163 07164 07144 07138 07127 07130 07113 07098
:RAD /1 ///// ///// ///// ///// ///// ///// ///// ///// ///// ///// ///// ///// ///// ///// ///// ///// ///// ///// ///// ///// ///// ///// ///// ///// ///// ///// ///// ///// ///// /////
:BAT 13.0V
0000011100
807
UANT99 KDDL 110536
ARP DAL178 5806N01352W 0535 F390 MS48 236/37 KT
N860NW DDL XXW 110536 J70A
0000010800
808
UANT99 KDDL 110536
ARP SWR9 5505N04540W 0535 F390 MS59 278/47 KT
HBJHB QXT AOW 110536 J15A
0000010900
809
UANT99 KDDL 110536
ARP BAW94 5505N02401W 0536 F360 MS58 226/53 KT
GYMMB QXT AOE 110536 F25A
0000014300
810
UANT99 KDDL 110536
ARP DAL410 5041N02410W 0533 F350 5059N02000W 0552 5059N01500W MS63
 223/61 KT
N195DN QXT AOE 110536 F59A
0000011000
811
UANT99 KDDL 110536
ARP ACA830 5128N02616W 0536 F370 MS59 208/73 KT
CGFAF DDL XXW 110536 J83A
0000011000
812
UANT99 KDDL 110536
ARP AFR333 5056N02033W 0536 F380 MS57 232/76 KT
FGSPU QXT AOE 110536 F28A
0000011000
813
UANT01 CWAO 110535
ARP DLH437 5501N03048W 0535 F370 MS57 217/51 KT
DAIGV QXT AOE 110535 J44A
0000011000
814
UANT01 CWAO 110536
ARP UAL29 5232N03240W 0536 F390 MS54 214/46 KT
N78004 DDL XXW 110536 F40A
0000011100
815
UANT01 CWAO 110536
ARP SVA034 4744N04128W 0536 F330 MS56 332/57 KT
HZAK19 QXT AME 110536 F19A
0000366700
816
SMCN04 KWBC 110000 RRF
AAXX 11004
71392 15/// /2702 11077 21098 60001 333 11077 21218 70000=
71395 13474 82112 11011 21035 30100 40285 56009 60001 885// 333
11011 21143 70000=
71930 12774 72205 11047 21078 39111 40051 53021 60001 83571 333
11002 21097 70004=
71936 11766 72905 11246 21271 39749 40020 53007 69981 77172 85071
333 11224 21247 48032 70032 90927 93101=
71938 11562 32717 11269 21326 39960 49990 51008 69901 77677 82530
333 11230 21272 46029 79999 90973=
71946 11974 23202 11232 21248 39846 40069 53016 69901 70271 81071
333 11218 21261 48053 70020 90947=
71949 15/// /3202 11138 21154 39095 49969 55005 60001 333 11091
21142 70000=
71964 43583 62202 11131 21151 39103 49967 57013 6///1 333 11102
21155=
71968 47/09 02925 11246 30022 40089 56002 6///1 771// 333 11239
21252 7////=
71121 15964 02811 11042 21106 39215 40044 53030 60001 333 11007
21103 70000=
71127 15/// /3012 11012 21070 39128 40039 53028 60001 333 10002
21068 70000=
71130 15961 62305 11148 21156 39526 49989 53011 60001 333 11075
21154 70000=
71139 15/// /3111 11034 21075 38572 40023 53026 60001 333 11001
21035 70000=
71149 15/// /3403 11088 21108 60001 333 11088 21168 70000=
71159 15/// /2609 11039 21078 30144 40218 58003 60001 333 11039
21088 70003=
71362 17/// /2303 11181 21207 39750 40013 51016 69921 7//4/ 333
11175 21212 70002=
71426 15/// /2125 11036 21052 60001 333 11035 21098 70000=
71436 17259 81505 10012 20006 39959 40200 56018 60021 71044 333
10012 21149 70023=
71451 17/// /0405 11159 21178 39567 40000 51014 69971 7//4/ 333
11114 21163 70040=
71452 15/// /3010 11072 21077 39302 40018 51019 60001 333 11059
21111 70002=
71454 15/// /2704 11090 21101 39292 49986 51018 60001 333 11021
21120 70000=
71458 45/// /2706 11049 21080 39258 40041 53025 6///1 333 11015
21181 7////=
71459 15/// /2807 11086 21115 39229 40050 53035 60001 333 11070
21149 70002=
71460 45/// /1714 10003 21005 39908 40152 58016 6///1 333 10004
21058 7////=
71471 15966 02609 11033 21094 39242 40040 51017 60001 333 10001
21169 70000=
71475 17/// /1203 10051 20044 30009 40102 56049 60021 7//4/ 333
10063 20005 70028=
71481 15/// /2703 11029 21076 60001 333 10003 21109 70000=
71486 15/// /1001 11026 21059 38876 40080 50023 60001 333 10004
21056 70000=
71489 15/// /2705 11076 21085 39222 40023 51023 60001 333 11060
21149 70000=
71491 45/// /2704 11268 21294 6///1 333 11218 21277 7////=
71494 15/// /2205 11062 21078 39708 40249 55003 60001 333 11061
21204 70004=
71497 45/// /0508 11182 21214 39789 40062 51017 6///1 333 11168
21204 7////=
71700 15966 82404 11078 21106 30237 40264 55002 60001 333 11018
21247 70000=
71701 12974 22304 11051 21094 30200 40265 55002 60001 81041 333
11020 21208 70000=
71712 15/// /0605 11038 21059 30173 40237 57015 60001 333 11038
21193 70000=
71720 17/// ///// 10048 20041 39952 40104 58041 69981 7//4/ 333
10060 20007 70014=
71724 45/// /0104 11098 21120 30247 40255 57008 6///1 333 11098
21180 7////=
71732 15/// /1609 11015 21037 60001 333 11011 21095 70000=
71736 15/// /2416 10023 21049 38689 40061 53023 60001 333 10038
21019 70000=
71747 15/// /1703 11054 21066 39535 40013 58013 60001 333 11054
21091 70000=
71821 45/// /1907 11043 21052 39789 40142 58003 6///1 333 11043
21095 7////=
71825 11669 82106 11125 21156 39433 40127 51010 69921 77177 885//
333 11121 21233 48089 70018 90983=
71850 11324 81710 11051 21062 39481 49983 56007 60021 77177 885//
333 11049 21094 48048 70022 90983 93102=
71861 15/// /3007 11070 21078 39271 40004 51018 60001 333 11070
21166 70000=
0000372400
817
SMCN04 KWBC 110000 RRG
AAXX 11004
71862 11216 82908 11055 21059 39316 40020 53021 69901 73672 886//
333 11025 21059 48016 79999 90921=
71914 17/// /0501 10058 20050 39893 40113 58026 60011 7//4/ 333
10076 20056 70016=
71927 17/// /0000 10071 20062 30063 40120 58030 60021 7//4/ 333
10105 20050 70065=
71947 15461 81908 11043 21056 39787 40139 58003 60001 333 11043
21094 70000=
71948 47917 02923 11332 39867 49984 52015 6///1 771// 333 11247
21332 7////=
71111 17448 81223 10050 20034 39959 49967 56071 60011 761// 333
10059 20011 70026=
71113 17/// /0901 10068 20057 30114 40138 58013 60021 7//4/ 333
10097 20028 70086=
71118 15/// /2814 11037 21054 39203 40035 52026 60001 333 11037
21145 70000=
71133 15/// /2611 11053 21087 39280 49986 51019 60001 333 11015
21082 70000=
71150 45/// /3210 11099 21111 39300 49990 51017 6///1 333 11097
21193 7////=
71157 45/// ///// 11021 21056 6///1 333 11001 21126 7////=
71177 45/// /2005 11192 38952 49976 50002 6///1 333 11186 21237
7////=
71180 15/// /2519 11030 21071 30214 40254 50000 60001 333 11029
21075 70000=
71187 17656 82812 10070 20042 30085 40133 56005 60051 7624/ 333
10091 20024 70226=
71199 15/// /1102 11102 21115 39136 49974 56003 60001 333 11085
21146 70009=
71253 45/// /0000 11167 21176 6///1 333 11144 21240 7////=
71254 15/// /2808 11064 21071 60001 333 11008 21179 70000=
71263 11436 81704 10014 20010 39889 40183 56016 60001 71042 885//
333 10020 21077 70032=
71265 15366 80706 10017 20010 30090 40185 58019 60001 333 10020
21050 70020=
71270 15/// /1206 10003 21010 39944 40168 58017 60001 333 10019
21083 70000=
71284 15/// ///// 11026 21083 60001 333 11006 21115 70006=
71292 17258 83007 11056 21061 39394 40008 51018 60001 710// 333
11054 21147 70000=
71299 15/// /1811 11019 21036 39817 40091 55009 60001 333 11019
21079 70000=
71357 15/// /0702 11228 21250 39912 49919 51029 60001 333 11176
21252 70009=
71372 15/// /1609 11017 21041 60001 333 11016 21177 70000=
71398 15566 81907 11019 21033 30068 40079 58011 60001 333 11019
21061 70000=
71414 15/// ///// 11052 21076 60001 333 11035 21171 70005=
71415 15/// /2206 11021 21059 30265 40268 56005 60001 333 11014
21141 70000=
71425 15/// /1508 11073 21121 30159 40197 58006 60001 333 11059
21154 70000=
71427 15/// /2428 11032 21066 30186 40194 58002 60001 333 11030
21123 70000=
71437 45/// /2801 10004 21008 30086 40183 56018 6///1 333 10006
21067 7////=
71449 17/// /2205 11025 21047 39570 49973 56004 69951 7//4/ 333
11016 21135 70005=
71453 15/// /2605 11020 21081 39134 40048 53036 60001 333 10016
21059 70000=
71493 15/// /2404 11001 21017 30229 40269 55006 60001 333 11001
21206 70002=
71710 15/// /2213 11034 21062 30231 40241 58001 60001 333 11034
21102 70000=
71721 15/// /1704 11042 21042 39963 40218 56010 60001 333 11041
21193 70000=
71746 15/// /1811 10025 20012 39916 40139 58026 60001 333 10025
21046 70028=
71818 12674 82210 11127 21142 30070 40089 57015 60001 885// 333
11123 21225 70000=
71827 11158 82008 11061 21071 39837 40084 52007 69981 76877 886//
333 11060 21105 47016 70060 90983 93101=
71842 11348 81706 11067 21079 39531 40006 57013 69901 77177 886//
333 11066 21092 47042 70002 90983 93100=
71900 45/// /2411 11120 21156 30032 40045 56012 6///1 333 11118
21188 7////=
71931 45/// /2512 11075 21125 30152 40164 58017 6///1 333 11058
21153 7////=
71940 13982 62619 11019 21089 39231 40039 52014 60001 82031 333
11009 21104 70000=
71941 15466 81809 11046 21057 39748 40174 5/009 60001 333 11046
21106 70000=
71943 13974 42413 11049 21109 39185 40035 50010 60001 80001 333
11049 21182 70000=
0000371400
818
SMCN04 KWBC 110000 RRH
AAXX 11004
71966 15/// /0000 11244 21273 39557 40034 57003 60001 333 11197
21254 70000=
71066 17/12 /0201 11164 21188 39603 40035 53015 60001 771// 333
11164 21212 70000=
71337 45/// /2409 11077 21105 39911 40156 57007 6///1 333 11055
21167 7////=
71338 15666 60802 11224 21246 39912 49920 51030 60001 333 11175
21250 70000=
71339 15964 02411 11134 21214 30101 40116 58005 60001 333 11099
21235 70005=
71349 15/// ///// 11071 21095 60001 333 11039 21125 70000=
71513 17466 82911 11074 21089 30167 40183 54000 60001 771// 333
11074 21196 70000=
71527 17948 /1708 11063 21067 39490 49999 57011 60001 710// 333
11061 21094 70000=
71539 15/// /2603 11063 21080 39326 40027 53016 60001 333 11051
21155 70005=
71553 15/// /2806 11084 21093 39338 40014 51026 60001 333 11084
21174 70000=
71564 17/// /3106 11016 21038 39606 49977 51011 69931 7//4/ 333
10004 21125 70005=
71570 17/// /1901 11042 21055 39663 49975 53002 60031 7//4/ 333
11042 21075 70032=
71576 15/// /1805 11233 21259 39810 49896 51030 60001 333 11202
21266 70013=
71579 15/// /2303 11045 21065 39683 49967 53006 60001 333 11039
21090 70000=
71582 17566 81205 10040 20033 39981 40034 58069 60011 7614/ 333
10049 20007 70081=
71584 15566 82808 11085 21107 30136 40185 58001 60001 333 11085
21173 70000=
71587 17520 81104 11073 21081 39629 49990 58003 60001 771// 333
11068 21109 70000=
71738 11348 82008 11020 21027 39740 40096 57011 69901=
71882 15/// /1605 10006 20001 39590 40128 53013 60001 333 10015
21000 70040=
71952 15/// /0000 11091 21100 39196 40058 58021 60001 333 11087
21158 70011=
71956 15/// /1810 10003 21008 39897 40131 58018 60001 333 10003
21057 70000=
71960 45/// /2917 11333 39903 40042 51007 6///1 333 11254 21333
7////=
71967 15/// ///// 11040 21055 30150 40261 55005 60001 333 11035
21185 70000=
71970 15/// /2610 11046 21073 39405 49992 51020 60001 333 11037
21116 70006=
71972 45/// /2815 39476 53021 6///1 333 7////=
71973 15/// /2604 11063 21084 30012 40205 56004 60001 333 11062
21122 70006=
71984 17/// /2917 11312 21342 39996 40005 51022 69921 7//4/ 333
11226 21312 70007=
71987 15/// /2311 11069 21102 30235 40245 51003 60001 333 11058
21137 70000=
71999 15/// ///// 10033 21003 39805 40098 58008 60001 333 10042
21004 70000=
71090 15966 /2807 11248 21282 39856 49892 51012 60001 333 11220
21307 70000=
71094 45964 02011 11204 38972 49871 51019 6///1 333 11179 21218
7////=
71303 45/// ///// 10025 20014 39921 40140 57027 6///1 333 10039
21016 7////=
71308 15/// /1912 11035 21069 30201 40289 56006 60001 333 11027
21145 70000=
71315 15/// /2905 11101 21154 30180 40237 51003 60001 333 11064
21252 70007=
71505 47/// /0000 11183 21201 39229 49968 58013 6///1 7//4/ 333
11150 21202 7////=
71507 15/// /2104 11143 21158 60001 333 11128 21170 70000=
71511 45/// /2206 11132 21143 39377 40025 53019 6///1 333 11085
21143 7////=
71515 15/// /3007 11084 21087 39313 40025 51019 60001 333 11072
21196 70000=
71519 15/// /0107 11023 21065 60001 333 10041 21069 70000=
71526 15/// /3002 11070 21104 60001 333 11027 21079 70000=
71529 45/// /0000 11203 21230 39769 40004 56004 6///1 333 11202
21267 7////=
71532 17248 81407 11006 21010 39831 40182 58016 60001 710// 333
11006 21122 70000=
71542 15/// /1602 11160 21177 60001 333 11149 21210 70006=
71543 15/// /2608 11037 21095 60001 333 11025 21150 70000=
71551 17/// /2505 11054 21059 39361 40030 51025 69931 7//4/ 333
11033 21122 70003=
71552 45/// /1002 11051 21063 6///1 333 11045 21092 7////=
71556 15/// /1706 11107 21114 39409 40023 51018 60001 333 11083
21138 70008=
00000000