0000075100
919
USAA01 NZCM 110000
TTAA 61001 89664
99997 00056 18501 00512 ///// ///// 92601 07158 18518
85255 11341 17017 70716 21114 15006 50514 33959 24513
40666 44759 24520 30855 51765 24023 25975 45585 24514
20124 43786 24513 15318 43586 26009 10592 41586 23504
88320 52361 23026
77999
31313 48008 82219=

0000069700
87361=
0000011200
87368=
0000015000
87382
0000012800
87386
0000045600
87406
0000047700
87410
0000049800
87416
0000051900
87420=
0000047900
87502
0000013400
87528
0000052100
87563
0000054200
87615
0000064600
87668=
0000054400
88240
0000056500
88514
0000068900
88787
0000058600
89255
0000064800
89805
0000069000
90714
0000075200
91784
0000070900
920
USAA01 NZCM 110000
TTAA 61001 89664
99997 00056 18501 00512 ///// ///// 92601 07158 18518
85255 11341 17017 70716 21114 15006 50514 33959 24513
40666 44759 24520 30855 51765 24023 25975 45585 24514
20124 43786 24513 15318 43586 26009 10592 41586 23504
88320 52361 23026
77999
31313 48008 82219=

0000069700
87361=
0000011200
87368
0000009600
87371
0000035800
87378
0000037300
87381=
0000039500
87413
0000041600
87422
0000043700
87443=
0000052100
87539=
0000058400
87751
0000060500
87950
0000058500
88129
0000060600
88428
0000064800
88741
0000071000
89235
0000073100
89786
0000081400
90674
0000067000
91782
0000028900
921
FCIN90 VOBL 110600
TAF VOBL 110600Z 1109/1118 09010KT 8000 FEW015=  

TAF VOBG 110600Z 1109/1118 09010KT 8000 FEW015=   
 
TAF VOML 110600Z 1109/1118 29010KT 6000 FEW015=  
 
TAF VOHB 110600Z 1109/1118 14005KT 8000 FEW015= 

TAF VOBM 110600Z 1109/1118 14005KT 8000 FEW015=

0000079200
922
USAA01 NZCM 110000
TTAA 61001 89664
99997 00056 18501 00512 ///// ///// 92601 07158 18518
85255 11341 17017 70716 21114 15006 50514 33959 24513
40666 44759 24520 30855 51765 24023 25975 45585 24514
20124 43786 24513 15318 43586 26009 10592 41586 23504
88320 52361 23026
77999
31313 48008 82219=

0000069700
87361=
0000011200
87368=
0000015000
87382
0000012800
87386
0000045600
87406
0000047700
87410
0000049800
87416=
0000045800
87478
0000043800
87484
0000050000
87523
0000054200
87562
0000060400
87623
0000056300
87678
0000064600
87811
0000068800
87998
0000062600
88186
0000062700
88471
0000060600
88740
0000062800
89209
0000077200
89748
0000064900
90698
0000087600
91780
0000062700
923
USAA01 NZCM 110000
TTAA 61001 89664
99997 00056 18501 00512 ///// ///// 92601 07158 18518
85255 11341 17017 70716 21114 15006 50514 33959 24513
40666 44759 24520 30855 51765 24023 25975 45585 24514
20124 43786 24513 15318 43586 26009 10592 41586 23504
88320 52361 23026
77999
31313 48008 82219=

0000069700
87361=
0000011200
87368=
0000015000
87382=
0000030600
87414=
0000011000
87481=
0000054200
87583
0000058400
87642=
0000062700
88217
0000064800
88493
0000062700
88763
0000071000
89226
0000058600
89792
0000067000
90686
0000077300
91787
0000066800
924
USAA01 NZCM 110000
TTAA 61001 89664
99997 00056 18501 00512 ///// ///// 92601 07158 18518
85255 11341 17017 70716 21114 15006 50514 33959 24513
40666 44759 24520 30855 51765 24023 25975 45585 24514
20124 43786 24513 15318 43586 26009 10592 41586 23504
88320 52361 23026
77999
31313 48008 82219=

0000069700
87361=
0000011200
87368=
0000015000
87382
0000012800
87386
0000045600
87406
0000047700
87410
0000049800
87416
0000051900
87420
0000047800
87441=
0000045900
87536=
0000052200
87739=
0000054400
88796
0000058600
89260
0000066900
89810
0000067000
90721
0000083500
91789
0000089500
925
USAA01 NZCM 110000
TTAA 61001 89664
99997 00056 18501 00512 ///// ///// 92601 07158 18518
85255 11341 17017 70716 21114 15006 50514 33959 24513
40666 44759 24520 30855 51765 24023 25975 45585 24514
20124 43786 24513 15318 43586 26009 10592 41586 23504
88320 52361 23026
77999
31313 48008 82219=

0000069700
87361=
0000011200
87368
0000009600
87371
0000035800
87378
0000037300
87381
0000039400
87385
0000039400
87407
0000041500
87411
0000014600
87417
0000045700
87421
0000049900
87440
0000052000
87462
0000050000
87472
0000005900
87495
0000058300
87519
0000056300
87548
0000056300
87600
0000062500
87655
0000054300
87765
0000062600
87953
0000058500
88149
0000060600
88438
0000062700
88693
0000068900
89181
0000069000
89739
0000073100
90672
0000069000
91781
0000032800
926
FCIN90 VIJP 110000
TAF VIJP 110000Z 1103/1112 VRB02KT 1000 FU SCT035 SCT100  BECMG  1105/1107 09004KT 3000 FU/HZ=
TAF VIJO 110000Z 1103/1112 VRB03KT 1500 FU SCT035 SCT100 BECMG 1105/1107 05005KT 3000 HZ=
TAF VAUD 110000Z 1103/1112 VRB03KT 3000 HZ SCT035 SCT100 BECMG 1105/1107 02005KT 5000 HZ=

      

0000005200
927
RRIN23 VIDP 110017
RQRPT 103-144=

0000069500
928
SMIN90 VISR 110000
AAXX 11004
42027 21595 72502 10004 21001 38455 48542 70522 83520
  333 58039 6996/=
42056 31695 20501 10070 20032 39719 71000 82400
  333 58008=
42045 22696 53603 10024 21038 38394 48527 83130
  333 58025 6003/=
42044 22494 80000 11024 21034 38270 48519 887//
  333 58014 6008/=
42043 22796 23202 10020 21004 38445 82030
  333 58024 6003/=
42054 22996 00000 10060 20021 39220
  333 58015 6992/=
42048 22996 00501 11010 21024 38400
  333 58022 6996/=
42028 22596 50000 11100 21131 37885 82530
  333 58045 6020/=
42031 32995 00000 11026 21036 38387
  333 58004=
42046 22595 80000 11026 21036 38136 8552/
  333 58004 6011/=
0000073400
929
FCIN90 VILK 110000
TAF VILK 110000Z 1103/1112 VRB02KT 0300 FG VV/// BECMG 1104/1106
0800 MIFG/BR SCT020 BKN100 BECMG 1106/1108 32004KT 2000 HZ TEMPO
1106/1112 0800 TA/TSRA FEW030CB OVC090=
FCIN90 VILK 110000
TAF VIBN 110000Z 1103/1112 VRB02KT 0300 FG VV/// BECMG 1104/1106
0800 MIFG/BR SCT020 BKN100 BECMG 1106/1108 32004KT 2000 HZ TEMPO
1106/1112 0800 TA/TSRA FEW030CB OVC090=
FCIN90 VILK 110000
TAF VICX 110000Z 1103/1112 VRB02KT 0300 FG VV/// BECMG 1104/1106
0800 MIFG/BR SCT020 BKN100 BECMG 1106/1108 32004KT 2000 HZ TEMPO
1106/1112 0800 TA/TSRA FEW030CB OVC090=
TAF VIDN 110000Z 1103/1112 00000KT 1500 HZ/BR SCT020 SCT080
BECMG 1106/1108 11004KT 3000 HZ TEMPO 1106/1112 FEW030CB BKN080=

0000066800
930
USAA01 NZCM 110000
TTAA 61001 89664
99997 00056 18501 00512 ///// ///// 92601 07158 18518
85255 11341 17017 70716 21114 15006 50514 33959 24513
40666 44759 24520 30855 51765 24023 25975 45585 24514
20124 43786 24513 15318 43586 26009 10592 41586 23504
88320 52361 23026
77999
31313 48008 82219=

0000069700
87361=
0000011200
87368=
0000015000
87382
0000012800
87386
0000045600
87406
0000047700
87410
0000049800
87416
0000051900
87420=
0000047900
87502
0000013400
87528=
0000048100
87743=
0000052400
88807
0000056500
89256
0000056600
89808
0000069000
90718
0000058700
91791
0000077100
931
USAA01 NZCM 110000
TTAA 61001 89664
99997 00056 18501 00512 ///// ///// 92601 07158 18518
85255 11341 17017 70716 21114 15006 50514 33959 24513
40666 44759 24520 30855 51765 24023 25975 45585 24514
20124 43786 24513 15318 43586 26009 10592 41586 23504
88320 52361 23026
77999
31313 48008 82219=

0000069700
87361=
0000011200
87368
0000009600
87371
0000035800
87378
0000037300
87381=
0000039500
87413
0000041600
87422
0000043700
87443
0000045800
87466
0000054100
87469
0000050000
87483
0000045900
87525=
0000058400
87752
0000050200
87943
0000068800
88132
0000077100
88437
0000056500
88729
0000062700
89217
0000060700
89768
0000075200
90670
0000067000
91785
0000085400
932
USAA01 NZCM 110000
TTAA 61001 89664
99997 00056 18501 00512 ///// ///// 92601 07158 18518
85255 11341 17017 70716 21114 15006 50514 33959 24513
40666 44759 24520 30855 51765 24023 25975 45585 24514
20124 43786 24513 15318 43586 26009 10592 41586 23504
88320 52361 23026
77999
31313 48008 82219=

0000069700
87361=
0000011200
87368
0000009600
87371
0000035800
87378
0000037300
87381
0000039400
87385
0000039400
87407
0000041500
87411
0000014600
87417
0000045700
87421
0000049900
87440
0000052000
87462
0000050000
87472
0000005900
87495
0000058300
87519
0000056300
87548=
0000056400
87866
0000052300
88017
0000062700
88211
0000062700
88460
0000073000
88748
0000064800
89229
0000064800
89785
0000056600
90706
0000064900
91790
0000079200
933
USAA01 NZCM 110000
TTAA 61001 89664
99997 00056 18501 00512 ///// ///// 92601 07158 18518
85255 11341 17017 70716 21114 15006 50514 33959 24513
40666 44759 24520 30855 51765 24023 25975 45585 24514
20124 43786 24513 15318 43586 26009 10592 41586 23504
88320 52361 23026
77999
31313 48008 82219=

0000069700
87361=
0000011200
87368=
0000015000
87382=
0000030600
87414
0000014800
87423
0000049900
87438
0000052000
87459
0000058200
87471
0000050000
87489
0000052100
87522
0000058300
87546
0000054200
87595
0000058400
87662
0000064600
87772
0000066700
87960
0000056400
88139
0000058500
88433
0000062700
88751
0000058600
89236
0000066900
89789
0000075200
90697
0000064900
91788
0000060600
934
USAA01 NZCM 110000
TTAA 61001 89664
99997 00056 18501 00512 ///// ///// 92601 07158 18518
85255 11341 17017 70716 21114 15006 50514 33959 24513
40666 44759 24520 30855 51765 24023 25975 45585 24514
20124 43786 24513 15318 43586 26009 10592 41586 23504
88320 52361 23026
77999
31313 48008 82219=

0000069700
87361=
0000011200
87368=
0000015000
87382=
0000030600
87414=
0000011000
87481=
0000054200
87583
0000058400
87642
0000062600
87763=
0000060600
88809
0000077200
89269
0000066900
89800
0000066900
90716
0000067000
91792
0000066800
935
USAA01 NZCM 110000
TTAA 61001 89664
99997 00056 18501 00512 ///// ///// 92601 07158 18518
85255 11341 17017 70716 21114 15006 50514 33959 24513
40666 44759 24520 30855 51765 24023 25975 45585 24514
20124 43786 24513 15318 43586 26009 10592 41586 23504
88320 52361 23026
77999
31313 48008 82219=

0000069700
87361=
0000011200
87368=
0000015000
87382
0000012800
87386
0000045600
87406
0000047700
87410
0000049800
87416
0000051900
87420
0000047800
87441=
0000045900
87536=
0000052200
87739
0000056400
87935
0000064700
88130
0000058500
88429=
0000069000
90645
0000064900
91794
0000068900
936
USAA01 NZCM 110000
TTAA 61001 89664
99997 00056 18501 00512 ///// ///// 92601 07158 18518
85255 11341 17017 70716 21114 15006 50514 33959 24513
40666 44759 24520 30855 51765 24023 25975 45585 24514
20124 43786 24513 15318 43586 26009 10592 41586 23504
88320 52361 23026
77999
31313 48008 82219=

0000069700
87361=
0000011200
87368=
0000015000
87382
0000012800
87386
0000045600
87406
0000047700
87410=
0000049900
87467
0000047900
87475=
0000048000
87589
0000058400
87664=
0000058500
88242
0000066800
88515
0000062700
88789
0000060700
89244
0000060700
89815
0000073100
90699
0000069000
91805
0000070900
937
USAA01 NZCM 110000
TTAA 61001 89664
99997 00056 18501 00512 ///// ///// 92601 07158 18518
85255 11341 17017 70716 21114 15006 50514 33959 24513
40666 44759 24520 30855 51765 24023 25975 45585 24514
20124 43786 24513 15318 43586 26009 10592 41586 23504
88320 52361 23026
77999
31313 48008 82219=

0000069700
87361=
0000011200
87368
0000009600
87371
0000035800
87378
0000037300
87381
0000039400
87385=
0000043700
87428
0000047800
87442=
0000052100
87533
0000058300
87555
0000060400
87612
0000058400
87657
0000064600
87769=
0000066800
88818
0000054500
89274
0000060700
89819
0000062800
90701
0000071100
91806
0000068900
938
USAA01 NZCM 110000
TTAA 61001 89664
99997 00056 18501 00512 ///// ///// 92601 07158 18518
85255 11341 17017 70716 21114 15006 50514 33959 24513
40666 44759 24520 30855 51765 24023 25975 45585 24514
20124 43786 24513 15318 43586 26009 10592 41586 23504
88320 52361 23026
77999
31313 48008 82219=

0000069700
87361=
0000011200
87368=
0000015000
87382
0000012800
87386
0000045600
87406=
0000047800
87429=
0000005900
87506
0000058300
87508
0000054200
87566=
0000056400
87888
0000058500
88076
0000064700
88361
0000056500
88689
0000066900
89164
0000073100
89744
0000064900
90651
0000060800
91786
00000000