0000014800
619
SMRO50 YRBK 110000 CCA
AAXX 11001
15498 03/// /2604 10058 20023 30168 40211 52020 60001 333 55000 60007
91006
91109 555 60000=
0000011100
620
UANT01 CWAO 110432
ARP UAL907 5008N04452W 0431 F360 MS61 321/61 KT
N776UA DDL XXW 110432 F11A
0000011000
621
UANT01 CWAO 110432
ARP KLM678 5753N02811W 0432 F410 MS53 216/57 KT
PHAOK QXT AOE 110432 J08A
0000011200
622
UANT01 CWAO 110432
ARP GTI8164 5418N04743W 0430 F360 MS63 296/63 KT
N465MC DDL XXW 110432 F56A
0000011000
623
UANT01 CWAO 110432
ARP UAL27 5005N03510W 0432 F360 MS53 210/35 KT
N17122 DDL IG1 110432 F73A
0000299000
624
SSVX08 KARS 110431
ZZYY 23003 10014 12004 301518 080513 6111/
11119 00312 10271 29085
22219 00290
33311 88872 20000 32896 20001 32891 43507 20020 32873 43507
20040 32831 43523 20060 32756 43524 20080 32480 20100 32219
20120 31814 20140 31622 20180 31422 20300 31155 20500 30961
444 20110 10014 1206/ 521// 60401=
ZZYY 23003 11014 02004 301518 080518 6111/
11119 00108 10282 29079
22219 00286
444 20110 11014 0217/ 521// 60401=
ZZYY 53005 10014 1200/ 307994 080453 6112/
33311 88872 20001 32922 43401 20020 32914 43409 20040 32846 43404
20060 32696 43404 20080 32486 20120 32049 20140 31916 20180 31626
20500 30920
444 20120 10014 1346/ 521//=
ZZYY 53005 11014 02004 307991 080456 6112/
11119 03106 10259 29087 40116
22219 00290
444 20120 10014 2253/ 521// 60401=
ZZYY 23004 10014 12004 100061 090182 6111/
11119 00702 10291 29068
22219 00297
33311 88872 20000 32965 20001 32930 43404 20080 32865 20100 32838
20120 31960 20180 31439 20300 31155 20500 30972
444 20110 10014 1216/ 521// 60401=
ZZYY 23004 11014 02004 100075 090185 6111/
11119 02106 10278 29082
22219 00286
444 20110 11014 0212/ 521// 60401=
ZZYY 23009 10014 12004 114998 089943 6111/
11119 00409 10255 29078 40126
22219 00271
33311 88872 20000 32708 20001 32711 43333 20020 32712 43343
20040 32715 43359 20060 32710 43364 20080 32672 20100 32346
20120 32051 20140 31773 20180 31447 20300 31143 20500 30984
444 20110 10014 1204/ 521// 60401=
ZZYY 23009 11014 02004 114998 089943 6112/
11119 00606 10256 29080 40154
22219 00271
444 20120 11014 0251/ 521// 60401=
ZZYY 23001 10014 1200/ 100066 080606 6111/
33311 88872 20001 32869 43524 20060 32776 43537 20080 32582
20100 32117 20120 31830 20140 31638 20180 31388 20300 31123
20500 31006
444 20110 10014 1035/ 521//=
ZZYY 23001 11014 02004 100088 080602 6111/
11119 01309 10283 29079 40118
22219 00286
444 20110 11014 0218/ 521// 60401=
ZZYY 23010 10014 1200/ 304025 080469 6112/
33311 88872 20001 32895 20020 32896 43440 20040 32840 43499
20060 32447 43536 20080 32201 20100 31989 20120 31800 20140 31604
20300 31126 20500 30929
444 20120 10014 1035/ 521//=
ZZYY 23010 11014 02004 304025 080463 6111/
11119 03508 10279 29084
22219 00288
444 20110 11014 0216/ 521// 60401=
ZZYY 23008 10014 12004 112077 088820 6111/
11119 00610 10265 29078
33311 88872 20020 32729 43378 20040 32725 43380 20060 32731 43442
20080 32442 20100 32166 20120 31984 20140 31812 20180 31508
20300 31168 20500 30991
444 20110 10014 1204/ 521// 60401=
ZZYY 23008 11014 02004 112074 088825 6112/
11119 00812 10268 29081
444 20120 11014 0253/ 521// 60401=
ZZYY 23002 10014 12004 101541 080591 6112/
11119 03212 10284 29080
22219 00289
33311 88872 20000 32894 20001 32885 20020 32883 43490
20040 32851 43525 20060 32723 43554 20080 32215 20100 31838
20120 31698 20140 31586 20180 31498 20300 31154 20500 31001
444 20120 10014 1206/ 521// 60401=
0000011100
625
UANT01 CWAO 110432
ARP UAL909 5420N05724W 0432 F350 MS65 282/81 KT
N652UA QXS YHO 110432 F56A
0000012700
626
UAUS31 KWBC 110433
ARP UAL625 3918N 11347W 0427 F340 TB OCNL LGT CHOP RM A320 OV
    DTA255060 CONT LGT CHOP=
0000008000
627
UANT01 KWBC 110433
ARP SLM994 16N 051W 0427 F310 MS36 015/030KT=
0000019900
628
UAPA01 KWBC 110433
ARP WJA1882 46N 135W 0426 F340 MS45 231/089KT=
ARP ASA899 3500N 14221W 0425 F340 MS52 249/072KT TB CONT CHOP=
ARP UAL1228 2425N 14459W 0428 F360 MS44 264/047KT=
0000024100
629
SOAT10 KWAL 110433
FA8005BC 011043337 OT12 ID:KN-BASS-01 DT:2014 01 11 04 31
:RD -3228 -3202 -3206 -3213 -3202 -3226 -3188 -3222 -3192 -3184
:PR 0432 0397 0431 0465 0433 0499 0463 0462 0473 0512
:B 13.7V
 46+0NN 219E
0000013600
630
SNVD17 CWVR 110400
BBXX
46206 11041 99488 71260 46/// /1709 10092 49957 57078
22200 00075 11408 70038 333 91212 =

0000309700
631
FCIN35 VABB 110300 RRA
TAF VAAH 110300Z 1106/1115 34006KT 5000 FU FEW100 BECMG 1112/1114
     32004KT 4000 FU/HZ=
TAF VAAU 110300Z 1106/1115 090/06KT 3000 FU NSC
         BECMG 1108/1110 25006KT 4000 
         BECMG 1113/1115 320/05KT 3000 FU =
TAF VABB 110300Z 1106/1115 10005KT 2500 FU/HZ FEW100
     BECMG 1107/1109 27008KT 3000 FU
     BECMG 1113/1115 33007KT 2500 FU/HZ NSC=
TAF VABO 110300Z 1106/1115 34006KT 5000 FU FEW100 BECMG 1112/1114
     32004KT 4000 FU/HZ=
TAF VABV 110300Z 1106/1115 34006KT 5000 FU FEW100 BECMG 1112/1114
     32004KT 4000 FU/HZ=
TAF VAJM 110300Z 1106/1115 34006KT 5000 FU FEW100 BECMG 1112/1114
     32004KT 4000 FU/HZ=
TAF VANP 110300Z 1106/1115 14005KT 3000 HZ FEW020 SCT025
    BECMG 11081110 20005KT 4000 HZ
    BECMG 11121114 14003KT 3000 HZ FEW025 SCT100=
TAF VAPO 110300Z 1106/1115 28005KT 6000 SCT250 =
TAF VARK 110300Z 1106/1115 34006KT 5000 FU FEW100 BECMG 1112/1114
     32004KT 4000 FU/HZ=
TAF VARP 110300Z 1106/1115 15005KT 5000 HZ FEW025 BECMG 1109/1111
     21005KT 6000 BECMG 1113/1115 VRB02KT 3000 HZ=
TAF VAUD 110300Z 1106/1115 05005KT 5000 HZ SCT035 SCT100 BECMG
     1112/1114 VRB02KT 3000 HZ=
TAF VEAT 110300Z 1106/1115 33006KT 2000 BR NSC BECMG 1108/1109
    2500 HZ BECMG 1111/1112 1500 BR=
TAF VEBI 110300Z 1106/1115 03005KT 3000 HZ FEW015 SCT100 BEC
    1112/1114 00000KT 1500 BR SCT100=
TAF VEBS 110300Z 1106/1115 05005KT 2000 HZ NSC
    BECMG 1108/1110 2500 HZ BECMG 1112/1114 08003KT 2000 HZ=
TAF VECC 110300Z 1106/1115 35005KT 2800 HZ NSC
     BECMG 1112/1114 00000KT 1800 BR=
TAF VEGT 110300Z 1106/1115 04005KT 3000 HZ FEW018 SCT100 BEC
    1112/1114 00000KT 2500 BR SCT100=
TAF VEIM 110300Z 1106/1115 04006KT 3000 HZ FEW018 SCT100 BEC 112/1114
    00000KT 2000 BR SCT100=
TAF VEJS 110300Z 1106/1115 00000KT 0800 FG NSC BECMG 1109/1112 1200
     BR=
TAF VEKU 110300Z 1106/1115 04005KT 4000 HZ FEW018 SCT100 BEC
    1112/1114 00000KT 3000 HZ SCT100=
TAF VELR 110300Z 1106/1115 05005KT 3000 HZ FEW018 SCT100 BEC
    1112/1114  00000KT 2500 BR SCT100=
TAF VEMR 110300Z 1106/1115 07007KT 3500 HZ FEW018 SCT100 BEC
    1112/1114 00000KT 2500 HZ SCT100=
TAF VEPT 110300Z 1106/1115 00000KT 0500 FG SCT020 FEW030CB BKN100
     BECMG 1109/1112 1200=
TAF VERC 110300Z 1106/1115 00000KT 0800 FG NSC BECMG 1109/1112 1200
     BR=
TAF VETZ 110300Z 1106/1115 05005KT 3000 HZ FEW018 SCT100 BEC
    1112/1114 00000KT 2500 BR SCT100=
TAF VIBN 110300Z 1106/1115 32004KT 2000 HZ SCT020 BKN100 TEMPO
    1106/1112 0800 RA/TSRA FEW030CB OVC090 BECMG 1112/1114 VRB02KT
    1000 MIFG/BR SCT020 SCT100=
TAF VIDP 110300Z 1106/1115 26005KT 1200 MIFG/FU NSC
     BECMG 1108/1110 33007KT 3000 HZ=
TAF VIJO 110300Z 1106/1115 36005KT 3000 HZ FEW035 SCT100 BECMG
     1112/1114 VRB02KT 2000 HZ=
TAF VIJP 110300Z 1106/1115 05005KT 3000 HZ FEW035 SCT100 BECMG
     1112/1114 VRB02KT 1500 FU=
TAF VILK 110300Z 1106/1115 32004KT 2000 HZ SCT020 BKN100 TEMPO
    1106/1112 0800 RA/TSRA FEW030CB OVC090 BECMG 1112/1114 VRB02KT
    1000 MIFG/BR SCT020 SCT100=
TAF VOHY 110300Z 1106/1115 14010KT 5000 HZ 11008KT 3000 HZ FEW020
     BECMG 1108/111 0 5000 HZ=

0000198200
632
FCIN32 VABB 110300 RRA
TAF VAAH 110300Z 1106/1115 34006KT 5000 FU FEW100 BECMG 1112/1114
     32004KT 4000 FU/HZ=
TAF VAAU 110300Z 1106/1115 090/06KT 3000 FU NSC
         BECMG 1108/1110 25006KT 4000 
         BECMG 1113/1115 320/05KT 3000 FU =
TAF VABB 110300Z 1106/1115 10005KT 2500 FU/HZ FEW100
     BECMG 1107/1109 27008KT 3000 FU
     BECMG 1113/1115 33007KT 2500 FU/HZ NSC=
TAF VABO 110300Z 1106/1115 34006KT 5000 FU FEW100 BECMG 1112/1114
     32004KT 4000 FU/HZ=
TAF VABV 110300Z 1106/1115 34006KT 5000 FU FEW100 BECMG 1112/1114
     32004KT 4000 FU/HZ=
TAF VAJM 110300Z 1106/1115 34006KT 5000 FU FEW100 BECMG 1112/1114
     32004KT 4000 FU/HZ=
TAF VANP 110300Z 1106/1115 14005KT 3000 HZ FEW020 SCT025
    BECMG 11081110 20005KT 4000 HZ
    BECMG 11121114 14003KT 3000 HZ FEW025 SCT100=
TAF VAPO 110300Z 1106/1115 28005KT 6000 SCT250 =
TAF VARK 110300Z 1106/1115 34006KT 5000 FU FEW100 BECMG 1112/1114
     32004KT 4000 FU/HZ=
TAF VARP 110300Z 1106/1115 15005KT 5000 HZ FEW025 BECMG 1109/1111
     21005KT 6000 BECMG 1113/1115 VRB02KT 3000 HZ=
TAF VOBG 110300Z 1106/1115 09010KT 8000 FEW015=
TAF VOBZ 110300Z 1106/1115 11008KT 3000 HZ FEW020 BECMG 1108/1110
    5000 HZ= 
TAF VOCB 110300Z 1106/1115 09005KT 6000 FEW015 SCT080=
TAF VOCI 110300Z 1106/1115 22005KT 5000 HZ FEW015 SCT100
    TEMPO 1109/1112 FEW025CB BECMG 1117/1118 00000KT 4000 HZ=
TAF VOCL 110300Z 1106/1115 25005KT 5000 HZ FEW015 SCT100
    TEMPO 1109/1112 FEW025CB=
TAF VOHY 110300Z 1106/1115 14010KT 5000 HZ 11008KT 3000 HZ FEW020
     BECMG 1108/111 0 5000 HZ=
TAF VOMD 110300Z 1106/1115 05010KT 4000 HZ FEW020=
TAF VOMM 110300Z 1106/1115 04010KT 4000 HZ SCT020 BECMG 1109/1110
    04010G20KT 6000 BECMG 1112/1113 04005KT 4000 HZ=
TAF VOTP 110300Z 1106/1115 09010KT 4000 HZ SCT020=
TAF VOTR 110300Z 1106/1115 07010KT 3000 HZ FEW020 SCT080
    BECMG 1109/1110 5000 HZ=
TAF VOTV 110300Z 1106/1115 14005KT 5000 HZ FEW015 SCT100
    TEMPO 1109/1112 2000 TSRA/RA SCT008 SCT012 FEW025CB OVC090=

0000010000
633
SAIN90 VILK 110430
METAR VILK 110430Z 29003KT 0500 R27/0800 VV/// 14/13 Q1018 NOSIG=
0000114300
634
SIIN90 VOBG 110300
AAXX 11034
43291 32995 00501 10214 20170 39340 40193
  333 10304 20189 58002
  555 10000=
43161 32997 00000 10218 20119 39473 40137
  333 10305 20125 59001
  555 10000=
43169 32997 40000 10188 20168 39698 40156 80004
  333 10310 20176 58000
  555 10000=
43287 31995 20501 10214 20170 38940 48587 71011 80001
  333 10250 20138 56009 58007
  555 10000=
43205 32996 10902 10224 20179 39647 40153 80001
  333 20180 58003
  555 10000=
43263 31596 50501 10192 20139 39097 48544 705// 80001
  333 10286 20102 58006
  555 10000=
43257 32497 50902 10190 20174 39415 40157 83642
  333 10300 20132 58005
  555 10000=
43289 32596 41403 10204 20166 39385 40160 70500 82501
  333 10306 20177 58004
  555 10000=
43229 32696 59901 10214 20185 30099 40150 80078
  333 10324 20198 58012
  555 10000=
43200 32597 23201 10206 20144 39401 40176 82500
  333 10302 20146 58006
  555 10000=
43160 31595 40000 10188 20154 39558 40154 70500 84007
  333 10325 20141 59001
  555 10000=
43197 32997 00504 10182 20135 39312 40155
  333 10300 20162 58000
  555 10000=
0000059500
635
SIIN42 VOMM 110300 RRC
AAXX 11034
43161 32997 00000 10218 20119 39473 40137
  333 10305 20125 59001
  555 10000=
43169 32997 40000 10188 20168 39698 40156 80004
  333 10310 20176 58000
  555 10000=
43205 32996 10902 10224 20179 39647 40153 80001
  333 20180 58003
  555 10000=
43263 31596 50501 10192 20139 39097 48544 705// 80001
  333 10286 20102 58006
  555 10000=
43287 31995 20501 10214 20170 38940 48587 71011 80001
  333 10250 20138 56009 58007
  555 10000=
43291 32995 00501 10214 20170 39340 40193
  333 10304 20189 58002
  555 10000=
0000107800
636
SIIN64 VOMM 110300 RRA
AAXX 11034
43160 31595 40000 10188 20154 39558 40154 70500 84007
333 10325 20141 59001 555 10000=
43161 32997 00000 10218 20119 39473 40137 333 10305
20125 59001 555 10000=
43169 32997 40000 10188 20168 39698 40156 80004 333
10310 20176 58000 555 10000=
43197 32997 00504 10182 20135 39312 40155 333 10300
20162 58000 555 10000=
43200 32597 23201 10206 20144 39401 40176 82500 333
10302 20146 58006 555 10000=
43205 32996 10902 10224 20179 39647 40153 80001 333
20180 58003 555 10000=
43229 32696 59901 10214 20185 30099 40150 80078 333
10324 20198 58012 555 10000=
43257 32497 50902 10190 20174 39415 40157 83642 333
10300 20132 58005 555 10000=
43263 31596 50501 10192 20139 39097 48544 705// 80001
333 10286 20102 58006 555 10000=
43287 31995 20501 10214 20170 38940 48587 71011 80001
333 10250 20138 56009 58007 555 10000=
43289 32596 41403 10204 20166 39385 40160 70500 82501
333 10306 20177 58004 555 10000=
43291 32995 00501 10214 20170 39340 40193 333 10304
20189 58002 555 10000=

0000013600
637
SNVD17 CWVR 110400
BBXX
46205 11041 99542 71343 46/// /0813 10051 49839 57070
22200 00074 11306 70028 333 91216 =

0000029200
638
SIPH20 RPMM 110300 RRA
AAXX 11031
98132 31465 10906 10229 20178 40260 5/001 70544 81100
333 56299 81818=
98222 31575 30901 10280 20194 40175 50004 70544 81207
333 56999 81822=
98642 21458 83203 10252 20243 30113 40122 58002 76366
8552/ 333 56199 60057 85615 88457=
00000000