0000009000
739
SAER41 OMAM 110427 RRF
METAR OMAM 110430Z 14008KT CAVOK 17/08 Q1020 A3012=
0000013600
740
SNVD17 CWHX 110400
BBXX
44137 11041 99423 70620 46/// /2904 10043 40309 57011
22200 00076 10702 70011 333 91206 =

0000017000
741
SOVI10 KWAL 110441
B110070A 011044101"P9751095 B\P~W@@d0ekD1@qI???CpCs>@qL3@NC?@V4Cy5D@6bR9I|<BH2?????@"??? iTDfLBYBUBQBNBFBL:AMPTEMP 26.94C  47-0NN 219E
0000011100
742
UANT99 KDDL 110439
ARP DAL116 5000N02947W 0438 F350 MS56 195/54 KT
N175DZ QXT AOE 110439 F51A
0000011000
743
UANT99 KDDL 110439
ARP VIR12E 5142N03149W 0439 F380 MS55 221/50 KT
GVLUV DDL XXF 110439 J39A
0000011000
744
UANT99 KDDL 110439
ARP JAI229 5502N02832W 0437 F370 MS57 223/60 KT
VTJWS QXT AOE 110439 J39A
0000010900
745
UANT99 KDDL 110439
ARP BAW9E 5140N02417W 0439 F400 MS54 228/73 KT
GVIIB QXT AOW 110439 F25A
0000011000
746
UANT99 KDDL 110439
ARP UAL19 5010N02847W 0439 F340 MS61 200/64 KT
N76054 DDL XXW 110439 F79A
0000011000
747
UANT99 KDDL 110439
ARP DAL14 4821N01349W 0439 F340 MS61 266/75 KT
N839MH QXT AOE 110439 F99A
0000010900
748
UANT99 KDDL 110439
ARP SIA25 4820N04359W 0439 F390 MS58 309/44 KT
9VSKR QXT AME 110439 J39A
0000011000
749
UANT99 KDDL 110439
ARP VIR46C 5231N03245W 0439 F390 MS55 202/45 KT
GVWOW DDL XXW 110440 F90A
0000011000
750
UANT99 KDDL 110439
ARP SWR17P 4902N01707W 0439 F390 MS56 255/51 KT
HBJHJ QXT AOE 110440 J82A
0000011100
751
UANT99 KDDL 110440
ARP DAL176 5132N03244W 0440 F370 MS55 212/53 KT
N1604R QXT AOW 110440 F37A
0000011100
752
UANT99 KDDL 110440
ARP AWE730 5211N02838W 0440 F370 MS54 220/55 KT
N273AY DDL XXN 110440 J91A
0000023100
753
SNVD20 KWNB 110400 RRS
BBXX
44060 11041 99413 70721 46/// /0302 10040 20037 40264 90415 22200
00042 333 91203 555 11021 22026=
44022 11041 99409 70737 46/// /0603 10014 20009 90430 333 91203
555 11026 22026=
0000073300
754
SAUR31 UKMS 110430
METAR UKLR 110430Z 27012MPS 9999 SCT026 OVC100 04/00
         Q1010 NOSIG=
METAR UKLI 110430Z 24006MPS 9999 SCT040 BKN100 05/M04
          Q1016 28090070 NOSIG=
METAR UKON 110430Z 28008MPS CAVOK 03/M01 Q1014 NOSIG=
METAR UKCM 110430Z 28008MPS 9999 OVC019 05/03 Q1009
         NOSIG=
METAR UKCW 110430Z 27008MPS 9999 SCT012 BKN025CB
         04/02  Q1004 2729//60 TEMPO 27010G18MPS=
METAR UKLU 110430Z 16002MPS 9999 OVC006 02/02 Q1020
         NOSIG=
METAR UKKK 110430Z 28009MPS 9999 BKN026 05/01 Q1005
         26250255  TEMPO 27012G18MPS=
METAR UKKM NIL=
METAR UKKE NIL=
METAR UKLN 110430Z 27006G11MPS 200V310 CAVOK 05/M06
         Q1016 15////// TEMPO 32011G16MPS=
0000015000
755
FCBY31 UMMM 110500
TAF UMMM 110440Z 1106/1115 30010G15MPS 6000 -SHRA BKN010 BKN015CB
TEMPO 1107/1115 26009G14MPS 2000 SHRASN BKN007=
0000066500
756
UDAS02 BABJ 110433
AMDAR 1104
DES CNFLZP 2436N 11803E 110428 F248 MS168 259/074 TB/ S//1=
DES CNFLZP 2432N 11759E 110428 F240 MS150 264/074 TB/ S//1=
DES CNFLZP 2427N 11754E 110429 F230 MS135 263/071 TB/ S//1=
DES CNFLZP 2423N 11749E 110430 F220 MS134 258/070 TB/ S//1=
ASC CNFNXL 2324N 11319E 110430 F002 PS160 228/004 TB/ S//1=
ASC CNFNXL 2325N 11319E 110430 F007 PS144 213/005 TB/ S//1=
ASC CNFLWT 3308N 11843E 110430 F210 MS238 266/053 TB/ S//1=
ASC CNFLWT 3312N 11843E 110430 F216 MS255 270/054 TB/ S//1=
LVR CNFLWT 3316N 11844E 110431 F217 MS258 271/056 TB/ S//1=
LVR CNFLWT 3317N 11844E 110431 F217 MS258 272/058 TB/ S//1=
0000103700
757
UDAS02 BABJ 110431
AMDAR 1104
DES CNFPYL 3759N 10633E 110427 F110 MS158 301/028 TB/ S//1=
DES CNFPYL 3803N 10631E 110428 F094 MS135 309/011 TB/ S//1=
DES CNFPYL 3805N 10631E 110428 F094 MS133 305/011 TB/ S//1=
DES CNFPYL 3807N 10629E 110429 F093 MS135 306/010 TB/ S//1=
LVR CNFOZM 2105N 11112E 110420 F301 MS309 256/043 TB/ S//1=
LVR CNFOZM 2051N 11055E 110423 F301 MS310 257/043 TB/ S//1=
LVR CNFOZM 2037N 11039E 110426 F301 MS308 261/041 TB/ S//1=
LVR CNFOZM 2022N 11024E 110429 F301 MS305 263/038 TB/ S//1=
LVR CNFLWT 3256N 11839E 110428 F177 MS155 276/043 TB/ S//1=
LVR CNFLWT 3257N 11840E 110428 F177 MS155 275/043 TB/ S//1=
ASC CNFLWT 3300N 11840E 110428 F183 MS171 276/042 TB/ S//1=
ASC CNFLWT 3304N 11842E 110429 F198 MS210 271/046 TB/ S//1=
LVR CNFOZL 3652N 12325E 110421 F256 MS390 270/096 TB/ S//1=
LVR CNFOZL 3643N 12308E 110424 F256 MS389 269/094 TB/ S//1=
LVR CNFOZL 3635N 12251E 110427 F256 MS390 268/091 TB/ S//1=
DES CNFOZL 3632N 12246E 110428 F250 MS375 270/092 TB/ S//1=
0000159500
758
UDAS02 BABJ 110435
AMDAR 1104
ASC CNFNXL 2325N 11319E 110430 F009 PS138 191/003 TB/ S//1=
ASC CNFNXL 2325N 11319E 110431 F011 PS131 186/003 TB/ S//1=
ASC CNFNXL 2326N 11319E 110431 F013 PS125 194/004 TB/ S//1=
DES CNFPYL 3811N 10627E 110430 F093 MS138 310/019 TB/ S//1=
DES CNFPYL 3815N 10626E 110431 F093 MS135 311/021 TB/ S//1=
DES CNFPYL 3816N 10625E 110431 F093 MS133 305/019 TB/ S//1=
DES CNFPYL 3817N 10624E 110432 F092 MS130 316/022 TB/ S//1=
ASC CNFNXL 2326N 11320E 110431 F014 PS123 212/006 TB/ S//1=
ASC CNFNXL 2328N 11321E 110431 F027 PS125 189/010 TB/ S//1=
ASC CNFNXL 2330N 11323E 110432 F043 PS113 178/020 TB/ S//1=
LVR CNFLWQ 3958N 11454E 110424 F276 MS510 269/071 TB/ S//1=
LVR CNFLWQ 3948N 11433E 110427 F276 MS518 268/069 TB/ S//1=
LVR CNFLWQ 3934N 11417E 110430 F276 MS510 269/069 TB/ S//1=
LVR CNFLWQ 3914N 11409E 110433 F276 MS504 273/070 TB/ S//1=
LVR CNFLWT 3320N 11845E 110431 F217 MS263 271/056 TB/ S//1=
LVR CNFLWT 3324N 11845E 110432 F217 MS261 274/058 TB/ S//1=
LVR CNFLWT 3327N 11846E 110432 F217 MS265 271/056 TB/ S//1=
LVR CNFLWT 3331N 11846E 110433 F217 MS263 272/059 TB/ S//1=
LVR CNFLWN 2820N 10642E 110426 F291 MS320 259/100 TB/ S//1=
LVR CNFLWN 2758N 10642E 110429 F291 MS338 256/093 TB/ S//1=
DES CNFLWN 2739N 10641E 110432 F274 MS328 246/089 TB/ S//1=
DES CNFLZP 2422N 11748E 110431 F217 MS135 262/070 TB/ S//1=
DES CNFLZP 2418N 11744E 110431 F210 MS120 264/070 TB/ S//1=
DES CNFLZP 2414N 11739E 110432 F200 MS101 270/067 TB/ S//1=
DES CNFLZP 2409N 11734E 110433 F186 MS095 265/053 TB/ S//1=
00000000