0000062100
639
UDAF02 EGRR 110435
AMDAR 1101
LVR EU1795   2715N 01143E 110120 F360 MS525 270/073 TB0 S031=
LVW EU1795   2809N 01135E 110127 F360 MS532 265/085 TB0 S031=
LVR EU1795   2904N 01126E 110134 F360 MS532 263/091 TB0 S031=
LVR EU1795   2959N 01118E 110141 F360 MS532 260/093 TB0 S031=
LVR EU1795   3054N 01109E 110148 F370 MS557 261/089 TB0 S031=
LVR EU1795   3149N 01100E 110155 F380 MS580 262/102 TB0 S031=
LVR EU1795   3245N 01051E 110202 F380 MS580 257/101 TB0 S031=
LVR EU1795   3342N 01043E 110209 F380 MS585 255/083 TB0 S031=
LVR EU1795   3439N 01034E 110216 F380 MS580 251/078 TB0 S031=
0000042900
640
UDNT02 EGRR 110435
AMDAR 1103
LVR EU6113   6056N 03107W 110358 F370 MS557 207/027 TB/ S031=
LVR EU6113   6107N 02913W 110405 F370 MS555 202/028 TB/ S031=
LVR EU6113   6122N 02720W 110412 F370 MS535 193/025 TB/ S031=
LVR EU6113   6134N 02524W 110419 F370 MS535 192/023 TB/ S031=
LVR EU6113   6145N 02329W 110426 F370 MS520 182/024 TB/ S031=
LVR EU6113   6155N 02132W 110433 F379 MS500 186/034 TB/ S031=
0000052600
641
SAIR31 OIII 110430
METAR OIAW 110430Z 10010KT 7000 FEW030CB SCT025 OVC090 11/10
Q1019=
METAR OIFM 110430Z 00000KT 0000 FG VV016 M05/M06 Q1020 A3014=
METAR OIII 110430Z 14006KT 9999 FEW040 SCT100 BKN200 02/M06 Q1021
 A3015 NOSIG=
METAR OIKB 110430Z NIL=
METAR OIKK 110430Z NIL=
METAR OIMM 110430Z NIL=
METAR OISS 110430Z 00000KT 2500 BR FEW030CB FEW035 OVC080 01/M00
Q1023 A3023=
METAR OITT 110430Z 06006KT 6000 NSC M11/M14 Q1022 A3019=
METAR OIZH 110430Z 25004KT CAVOK 00/M04 Q1024 A3024=
0000011000
642
UANT99 KDDL 110432
ARP KLM678 5753N02809W 0432 F410 MS53 216/58 KT
PHAOK QXT AOE 110432 J09A
0000011100
643
UANT99 KDDL 110432
ARP DLH431 5500N02001W 0432 F310 MS57 260/100 KT
DABYH QXT EUA 110432 F58A
0000011000
644
UANT99 KDDL 110432
ARP DAL98 5503N02848W 0432 F360 MS59 222/60 KT
N833MH QXT AOE 110432 F69A
0000048100
645
SAIR32 OIII 110430
METAR OIAA 110430Z NIL=
METAR OIBK 110430Z 08014KT 6000 -RA FEW030CB SCT025 OVC080 14/09
Q1020=
METAR OICC 110430Z 10008KT 4000 BR FEW035CB SCT040 OVC080
M01/M02 Q1019 A3009 NOSIG=
METAR OIGG 110430Z 00000KT 2500 BR FEW015CB BKN020
BKN080 02/02 Q1018=
METAR OIIE 110430Z NIL=
METAR OITR 110430Z 27004KT 1400 R21/P2000 BR SCT035 BKN140 M11/M13
 Q1021=
METAR OIYY 110430Z NIL=
METAR OAKN 110430Z NIL=
METAR OAKB 110430Z NIL=
0000042000
646
SAIR33 OIII 110430
METAR OIBB 110430Z 12006KT 9999 FEW030CB SCT040 OVC090 15/07 Q1018
A3009=
METAR OIBP 110430Z NIL=
METAR OICK 110430Z 12004KT 9999 FEW010 FEW030CB SCT040 OVC080 01/01
Q1020=
METAR OICS 110430Z 16002KT 2000 BR SCT015 SCT035 BKN080 M04/M04
Q1020=
METAR OIHH 110430Z NIL=
METAR OINZ 110430Z NIL=
METAR OISR 110430Z NIL=
METAR OITL 110430Z NIL=
METAR OIZC 110430Z NIL=
0000013600
647
SNVD17 CWVR 110400
BBXX
46132 11041 99497 71279 46/// /1613 10093 49892 57063
22200 00076 10809 70044 333 91217 =

0000011000
648
UANT01 CWAO 110433
ARP UAL48 5112N05311W 0432 F330 MS60 294/65 KT
N77014 DDL YQX 110433 F29A
0000010900
649
UANT01 CWAO 110433
ARP BAW52 5735N03500W 0433 F380 MS54 229/35 KT
GVIIG QXT AOW 110433 F27A
0000011000
650
UANT01 CWAO 110433
ARP DLH441 5258N04017W 0433 F380 MS56 273/26 KT
DAIMH QXT AME 110433 J01A
0000011100
651
UANT01 CWAO 110433
ARP DAL176 5118N03403W 0433 F370 MS56 216/42 KT
N1604R QXT AOW 110433 F36A
0000011000
652
UANT01 CWAO 110434
ARP BAW81V 5237N04501W 0433 F350 MS62 317/64 KT
GCIVM QXT AOW 110434 F96A
0000078900
653
UDAS02 BABJ 110424
AMDAR 1104
ASC CNFNXM 3051N 12020E 110413 F300 MS345 253/126 TB/ S//1=
LVR CNFNXM 3037N 12010E 110416 F321 MS368 262/140 TB/ S//1=
LVR CNFNXM 3022N 12000E 110419 F321 MS368 259/140 TB/ S//1=
LVR CNFNXM 3007N 11949E 110422 F321 MS368 259/139 TB/ S//1=
DES CNFPYL 3731N 10648E 110421 F198 MS303 275/043 TB/ S//1=
DES CNFPYL 3736N 10645E 110422 F183 MS280 268/037 TB/ S//1=
DES CNFPYL 3738N 10644E 110422 F174 MS265 272/033 TB/ S//1=
DES CNFPYL 3741N 10642E 110423 F163 MS248 291/029 TB/ S//1=
ASC CNFOZN 3559N 12031E 110421 F109 MS145 265/019 TB/ S//1=
ASC CNFOZN 3556N 12032E 110422 F126 MS173 264/019 TB/ S//1=
ASC CNFOZN 3553N 12034E 110423 F144 MS195 274/024 TB/ S//1=
ASC CNFOZN 3552N 12035E 110423 F152 MS206 276/030 TB/ S//1=
0000153300
654
UDAS02 BABJ 110426
AMDAR 1104
LVR CNFLWT 3216N 11842E 110421 F177 MS153 277/044 TB/ S//1=
LVR CNFLWT 3220N 11841E 110422 F177 MS153 278/043 TB/ S//1=
LVR CNFLWT 3223N 11840E 110423 F177 MS154 277/042 TB/ S//1=
LVR CNFLWT 3227N 11839E 110423 F177 MS153 278/042 TB/ S//1=
LVR CNFLWN 2948N 10637E 110414 F301 MS388 252/083 TB/ S//1=
LVR CNFLWN 2926N 10638E 110417 F301 MS379 256/083 TB/ S//1=
DES CNFLWN 2904N 10640E 110420 F291 MS348 254/087 TB/ S//1=
LVR CNFLWN 2842N 10641E 110423 F291 MS335 256/091 TB/ S//1=
LVR CNFLZP 2531N 11907E 110416 F256 MS195 262/085 TB/ S//1=
LVR CNFLZP 2517N 11851E 110419 F256 MS193 262/082 TB/ S//1=
LVR CNFLZP 2504N 11835E 110422 F256 MS193 262/080 TB/ S//1=
LVR CNFLZP 2450N 11819E 110425 F256 MS193 259/076 TB/ S//1=
ASC CNFOZN 3550N 12035E 110423 F163 MS230 268/034 TB/ S//1=
ASC CNFOZN 3547N 12037E 110424 F177 MS225 262/052 TB/ S//1=
LVR CNFOZN 3544N 12039E 110424 F178 MS220 263/055 TB/ S//1=
ASC CNFOZN 3541N 12041E 110425 F190 MS236 265/057 TB/ S//1=
LVR CNFLWT 3231N 11838E 110424 F177 MS153 278/041 TB/ S//1=
LVR CNFLWT 3234N 11837E 110424 F177 MS153 278/041 TB/ S//1=
LVR CNFLWT 3238N 11836E 110425 F177 MS155 276/041 TB/ S//1=
LVR CNFLWT 3238N 11835E 110425 F177 MS155 277/040 TB/ S//1=
DES CNFPTK 4024N 11440E 110416 F191 MS325 273/055 TB/ S//1=
DES CNFPTK 4024N 11507E 110419 F166 MS285 283/043 TB/ S//1=
DES CNFPTK 4023N 11533E 110422 F148 MS245 276/039 TB/ S//1=
DES CNFPTK 4022N 11558E 110425 F148 MS250 277/037 TB/ S//1=
0000008800
655
SPIN90 VIGG 110430
SPECI VIGG 110430Z 05001KT 5000 HZ NSC 12/03 Q1020

0000035500
656
SSVX01 DEMS 110435
ZZYY 23460 10014 09001 107009 087972 111// 00407 10278 40091 222// 00/// 1//03=
ZZYY 23097 11014 03001 114988 068987 111// 03305 10/// 40165 222// 00259 1////=
ZZYY 23456 11014 03001 118814 067101 111// 00305 10218 40177 222// 00/// 10402=
ZZYY 23459 11014 03001 113996 086985 111// 00704 10261 40163 222// 00/// 1////=

0000077100
657
USAA01 NZCM 110000
TTAA 61001 89664
99997 00056 18501 00512 ///// ///// 92601 07158 18518
85255 11341 17017 70716 21114 15006 50514 33959 24513
40666 44759 24520 30855 51765 24023 25975 45585 24514
20124 43786 24513 15318 43586 26009 10592 41586 23504
88320 52361 23026
77999
31313 48008 82219=

0000069700
87361=
0000011200
87368
0000009600
87371
0000035800
87378
0000037300
87381
0000039400
87385
0000039400
87407
0000041500
87411
0000014600
87417
0000045700
87421
0000049900
87440=
0000052100
87535
0000052100
87570
0000011400
87630
0000056300
87656
0000060500
87770
0000062600
87958
0000056400
88145
0000066800
88432
0000066800
88714=
0000069100
91392
0000060600
658
USAA01 NZCM 110000
TTAA 61001 89664
99997 00056 18501 00512 ///// ///// 92601 07158 18518
85255 11341 17017 70716 21114 15006 50514 33959 24513
40666 44759 24520 30855 51765 24023 25975 45585 24514
20124 43786 24513 15318 43586 26009 10592 41586 23504
88320 52361 23026
77999
31313 48008 82219=

0000069700
87361=
0000011200
87368
0000009600
87371
0000035800
87378
0000037300
87381
0000039400
87385
0000039400
87407=
0000012000
87430=
0000054100
87500=
0000056300
87703=
0000056500
88302
0000060700
88560=
0000037600
91352
00000000