0000010600
622
SMAU40 AMMC 111800 CCA
AAXX 11184
95961 35/// /2716 10135 20101 30139 40181 53007=


0000040600
623
SAPK31 OPKC 111900
METAR OPGD 111900Z NIL=
METAR OPKC 111900Z NIL=
METAR OPLA 111855Z 00000KT 4000 FU NSC 10/05 Q1022/A30.17 NOSIG=
METAR OPNH 111900Z 36003KTS 3000M FU NSC 12/07 Q.1022=
METAR OPPS 111900Z 00000KT 4000 HZ FEW100 SCT200 08/02 Q1022.9=
METAR OPRN 111900Z 05004KT 4000 HZ FEW100 07/02 Q1022.9/30.20=
METAR OPSK 111900Z 00000KTS 3000 HZ NSC 09/05 QNH 1022 RH.73 PC=
0000024100
624
SOAT10 KWAL 111858
FA8005BC 011185837 OT12 ID:KN-BASS-01 DT:2014 01 11 18 56
:RD -3138 -3144 -3163 -3158 -3146 -3138 -3175 -3165 -3144 -3153
:PR 0485 0535 0531 0511 0543 0553 0497 0469 0523 0514
:B 13.7V
 46+1NN 219E
0000008700
625
UPIN90 VIJP 111800
PPAA 61171 42542
55392 07027 04018 08021 77999=

0000010500
626
UGIN90 VIJP 111800
PPBB 61171 42542
90023 04501 04507 06522 907// 04020 910// 07020=

0000018700
627
UGIN90 VIJP 111800 CCA
PPBB 61171 42348
90023 00000 02511 01510 9046/ 00000 03007=
PPBB 61171 42165
90012 00000 03009 03009 90378 03008 03504 03502 911//
32513=

0000010300
628
UGIN40 DEMS 111800 CCA
PPBB 61171 42348
90023 00000 02511 01510 9046/ 00000 03007=

0000012300
629
UGIN40 DEMS 111800 CCB
PPBB 61171 42165
90012 00000 03009 03009 90378 03008 03504 03502 911//
32513=

0000116600
630
SMCO01 SKBO 111800
AAXX 11181
80001 NIL=
80002 NIL=
80009 31560 12702 10300 20240 30095 40100 70500 81101  333 560/0 58012 81820=
80022 NIL=
80028 31960 10903 10320 20222 30070 40105  81100 333 12001 80028=
80035 32570 10908 10318 20185 30125 40130 81100 333 562// 58013 81820
80036 31968 00505 10351 20146 70500 333 NIL=
80063 31565 40000 10326 20224 70511 83400 333 560// 83620=
80084 NIL=
80091 NIL=
80094 31562 12794 19258 20172 38806 70500 81100 333 567// 58008 81820=
80097 NIL=
80099 NIL=
80110 NIL=
80112 31570 40706 10209 20129 37902 70552 84871 333 56999 59009 84820=
80139 NIL=
80144 31450 60000 10300 20228 70542 85250 333 56009 85820 83358=
80210 NIL=
80214 NIL=
80222 31562 31209 10200 20040 37515 70522 82805 333 563/7 58009 82820 81083=
80234 NIL=
80259 11357 80000 10258 20204 39057 69941 70552 8387/ 333 5639/ 58009 83815 86359=
80315 NIL=
80342 11450 70000 10186 20171 38216 74062 84830 333 5637/ 58012 84815 86358=
80370 31462 70903 10154 20110 37169 71522 87800 333 563// 58010 87818
80398 01340 80000 10246 20242 30031 40127 60261 76166 8577/ 333 5689/ 58028 60057 85707 86358
0000068500
631
UDNT02 EGRR 111900
AMDAR 1117
LVR EU0285   5035N 04141W 111750 F330 MS602 281/058 TB0 S031=
LVR EU0285   5016N 04249W 111757 F330 MS592 286/057 TB0 S031=
LVR EU0285   4957N 04358W 111804 F329 MS592 299/059 TB0 S031=
LVR EU0285   4937N 04506W 111811 F330 MS590 305/065 TB0 S031=
LVR EU0285   4916N 04615W 111818 F330 MS600 310/075 TB0 S031=
LVR EU0285   4854N 04722W 111825 F330 MS607 312/080 TB0 S031=
LVR EU0285   4832N 04828W 111832 F330 MS585 312/076 TB0 S031=
LVW EU0285   4809N 04933W 111839 F330 MS585 316/103 TB0 S031=
LVR EU0285   4753N 05038W 111846 F312 MS540 324/121 TB0 S031=
LVR EU0285   4740N 05148W 111853 F300 MS510 320/102 TB0 S031=
0000068500
632
UDEU02 EGRR 111900
AMDAR 1117
LVR EU0650   3657N 00825W 111751 F360 MS610 335/058 TB/ S031=
LVR EU0650   3740N 00801W 111758 F360 MS613 337/058 TB/ S031=
LVR EU0650   3823N 00736W 111805 F360 MS608 335/052 TB/ S031=
LVR EU0650   3907N 00711W 111812 F360 MS610 338/047 TB/ S031=
LVR EU0650   3951N 00645W 111819 F360 MS618 333/045 TB/ S031=
LVR EU0650   4035N 00618W 111826 F360 MS613 329/040 TB/ S031=
LVR EU0650   4118N 00548W 111833 F360 MS613 330/037 TB/ S031=
LVR EU0650   4203N 00520W 111840 F360 MS618 329/041 TB/ S031=
LVR EU0650   4248N 00454W 111847 F360 MS618 326/043 TB/ S031=
LVR EU0650   4333N 00428W 111854 F360 MS618 321/042 TB/ S031=
0000011200
633
UAUS31 KWBC 111857
ARP UAL221 4120N 07646W 1853 F360 MS57 233/118KT TB LGT RM A319 OV
    FQM=
0000018500
634
UAPA01 KWBC 111857
ARP DAL1197 2842N 13926W 1849 F340 MS45 259/050KT=
ARP ASA881 2754N 14758W 1850 F380 MS56 235/066KT=
ARP ASA861 43N 138W 1839 F340 MS58 324/096KT=
0000011100
635
UANT01 CWAO 111857
ARP UAL111 5258N03048W 1856 F350 MS52 213/19 KT
N33103 DDL IG1 111857 F46A
0000011200
636
UANT01 CWAO 111857
ARP CFC4022 5157N01945W 1857 F280 MS45 185/95 KT
77702A QXT AOE 111857 F13A
0000011100
637
UANT01 CWAO 111857
ARP XLF1670 4451N03555W 1857 F380 MS54 289/38 KT
FGRSQ DDL XXN 111857 J90A
0000013200
638
UACN10 CYQK 111855
WG
UA /OV CYRL /TM 1855 /FLDURD /TP SW4 /SK 023OVC040 /IC MDT CLR ICGIC
/RM RWY VSBL 3 FNL 26
0000011200
639
SNVF25 LFPW 111900
BBXX
BAREU67 11194 99440 10099 46/// ///// 10128 29078 40222 52016
22200=
0000016000
640
SSVX13 LFVW 111857
ZZYY 17572 11014 1900/ 537940 171735 6110/
11119 40165 52013
22219 00208
444 20100 11014 1856/ 50101 80110 80000 9/015=
0000017100
641
SAGU31 MGGT 111900
METAR
MGGT 111900Z 36008KT 9999 FEW025 24/09 Q1024 A3024  VOL. PACAYA CON
VA A 9000FT CON DIRECCION S-SSW A UNA DISTANCIA DE 6-10KM=
00000000