0000046300
402
WSBZ22 SBBS 112202
SBBS SIGMET 14 VALID 112215/120215 SBBS -
SBBS
BRASILIA FIR EMBD TS FCST WI S1444 W04438 - S1706 W04745 - S1922

W04724 - S2056 W04621 - S2112 W04434 - S2320 W04618 - S2328 W04650 -
 S2230 W04833 - S2211 W04832 - S2157 W04905 - S1932 W05136 - S1713 W0
5254 - S1437 W05336 - S1257 W05328 - S1215 W05258 - S1109 W05147 - S1
022 W05053 - S1036 W04904 - S1021 W04827 - S1016 W04738 - S1444 W0443
8 TOP FL430 STNR NC=
0000012600
403
WSPR31 SPIM 112210
SPIM SIGMET B6 VALID 112210/112300 SPIM-
SPIM LIMA FIR CNL SIGMET B5 VALID 112100/112300=
0000193100
404
SZAU01 AMMC 112212
CREX++
T000103 A001 D01021 D06025++
-1927750 14705860 59260 2014 01 11 22 05 3013 11 07 00 01
03062 0136 03063 0139 03059 0137 03060 0140 03052 0135 03050 0135+
-2316110 15079000 59670 2014 01 11 22 05 2995 11 07 00 01
04103 0150 04095 0148 04091 0148 04084 0148 04083 0152 04076 0152+
-3447330 15091170 60420 2014 01 11 22 05 2945 11 07 00 01
01133 -0063 01131 -0061 01129 -0059 01124 -0061 01115 -0066 01107 -0070+
-4105000 14591500 60910 2014 01 11 22 05 2887 11 07 00 01
03062 -0086 03055 -0093 03057 -0089 03052 -0093 03056 -0088 03059 -0084+
-4254640 14793080 61170 2014 01 11 22 05 2905 11 07 00 01
01369 0129 01370 0132 01361 0126 01360 0128 01357 0127 01355 0129+
-3834390 14161360 61410 2014 01 11 22 05 2908 11 07 00 01
00391 -0040 00403 -0027 00411 -0018 00421 -0007 00411 -0016 00399 -0027+
-3214890 13364170 62000 2014 01 11 22 05 2948 11 07 00 01
00626 -0046 00629 -0047 00633 -0046 00636 -0046 00639 -0047 00644 -0045+
-3387080 12189720 62080 2014 01 11 22 05 2947 11 07 00 01
00404 -0034 00400 -0038 00395 -0043 00388 -0050 00391 -0048 00395 -0044+
-3182560 11573860 62237 2014 01 11 22 05 2972 11 07 00 01
00479 0080 00479 0079 00475 0075 00477 0077 00474 0073 00472 0071+
-2422000 11339750 62385 2014 01 11 22 05 //// 11 07 00 01
00792 -0159 00854 -0098 00861 -0092 00873 -0081 00872 -0083 00849 -0107+
-2181670 11419110 62430 2014 01 11 22 05 //// 11 07 00 01
01506 -0088 01499 -0097 01505 -0093 01501 -0099 01507 -0095 01518 -0086+
-1800080 12221830 62650 2014 01 11 22 05 3043 11 07 00 01
05961 0048 05970 0048 05978 0049 05988 0051 05998 0052 06007 0054+
-1247190 13084580 63230 2014 01 11 22 05 3047 11 07 00 01
03097 0112 03091 0115 03084 0115 03078 0118 03071 0120 03065 0122+
-1386000 13641580 63511 2014 01 11 22 05 3040 11 07 00 01
01299 0124 01299 0124 01301 0127 01304 0131 01306 0134 01310 0138++
7777

0000015100
405
SSVX05 CWAO 112200
ZZYY 48510 11014 2200/ 778957 129508 6113/ 11119 
11273 49858 57002 444 20130 11014 2200/ 50100 80132 80001 9////=
0000014500
406
SSVX05 CWAO 112200
ZZYY 48509 11014 2200/ 775493 140962 6113/ 11131 
11215 49860 52010 444 20130 11014 2200/ 50400 80134 80001=
0000027500
407
SXHW11 KWAL 112212
15D142A4 011221202":PRS 1 #1 1416 1417 1414 1409 1405 1401 1417 1418 1424 1416 :RAD 1 #1 6996 6995 6994 6994 6994 6998 7003 7005 7001 6995 :ENC 2 #5 4899 4906 4895 4897 :SW1 12 #60 0 :SW2 42 #60 3 :BAT 4 #5 13.8 :NAME 15D142A4  35+0NN 216W
0000062100
408
UDEU02 EGRR 112214
AMDAR 1121
DES EU0447   5240N 00302W 112159 F166 MS227 260/034 TB/ S031=
DES EU0447   5248N 00302W 112201 F138 MS170 264/029 TB/ S031=
DES EU0447   5257N 00304W 112202 F093 MS075 252/010 TB/ S031=
DES EU0447   5305N 00305W 112204 F055 PS000 248/012 TB/ S031=
DES EU0447   5312N 00307W 112205 F032 PS000 191/009 TB/ S031=
DES EU0447   5317N 00308W 112207 F032 MS002 190/011 TB/ S031=
DES EU0447   5321N 00305W 112208 F022 PS007 172/006 TB/ S031=
DES EU0447   5321N 00258W 112210 F011 PS030 176/005 TB/ S031=
DES EU0447   5321N 00252W 112211 F000 PS037 176/006 TB/ S031=
0000010000
409
SIAA01 KARS 112100 RRC
AAXX 1121/
89879 46/// ///// 10046 39885 4//// 5//// 92110=
0000068500
410
UDNA02 EGRR 112214
AMDAR 1122
DES EU0204   1924N 08122W 112201 F063 PS145 192/008 TB/ S031=
DES EU0204   1923N 08123W 112201 F060 PS150 153/006 TB/ S031=
DES EU0204   1923N 08124W 112202 F057 PS160 156/007 TB/ S031=
DES EU0204   1923N 08125W 112202 F054 PS167 157/011 TB/ S031=
DES EU0204   1923N 08126W 112202 F050 PS167 158/010 TB/ S031=
DES EU0204   1923N 08127W 112202 F047 PS172 156/008 TB/ S031=
UNS EU0204   1922N 08128W 112203 F044 PS172 142/015 TB/ S031=
UNS EU0204   1922N 08129W 112203 F041 PS172 132/016 TB/ S031=
DES EU0204   1922N 08129W 112203 F038 PS180 132/013 TB/ S031=
UNS EU0204   1921N 08130W 112203 F035 PS187 124/022 TB/ S031=
0000056100
411
UDNA02 EGRR 112214 RRA
AMDAR 1121
DES EU0204   1936N 08104W 112157 F117 PS055 090/009 TB/ S031=
DES EU0204   1934N 08106W 112157 F106 PS080 094/012 TB/ S031=
DES EU0204   1932N 08108W 112158 F098 PS105 083/012 TB/ S031=
UNS EU0204   1925N 08115W 112200 F080 PS127 075/006 TB/ S031=
UNS EU0204   1920N 08131W 112204 F032 PS197 119/017 TB/ S031=
DES EU0204   1917N 08131W 112204 F027 PS217 127/014 TB/ S031=
DES EU0204   1916N 08127W 112206 F017 PS230 117/014 TB/ S031=
DES EU0204   1917N 08123W 112208 F003 PS267 110/014 TB/ S031=
0000043300
412
UDEU02 EGRR 112214 RRA
AMDAR 1121
LVR EU2863   5142N 00448E 112135 F370 MS565 293/070 TB/ S031=
LVR EU2863   5222N 00548E 112142 F370 MS515 303/059 TB/ S031=
LVR EU2863   5301N 00649E 112149 F370 MS507 294/057 TB/ S031=
LVR EU2863   5340N 00752E 112156 F370 MS472 306/048 TB/ S031=
LVR EU2863   5417N 00858E 112203 F370 MS450 295/042 TB/ S031=
LVR EU2863   5450N 01014E 112210 F354 MS452 305/048 TB/ S031=
0000075300
413
UDEU02 EGRR 112214 RRB
AMDAR 1121
ASC EU0460   3407N 00723W 112154 F225 MS270 335/039 TB/ S031=
ASC EU0460   3411N 00720W 112154 F237 MS300 326/049 TB/ S031=
ASC EU0460   3415N 00718W 112154 F248 MS327 322/051 TB/ S031=
ASC EU0460   3419N 00715W 112155 F259 MS352 323/055 TB/ S031=
ASC EU0460   3423N 00713W 112155 F270 MS382 329/053 TB/ S031=
ASC EU0460   3427N 00710W 112155 F280 MS412 329/054 TB/ S031=
ASC EU0460   3431N 00708W 112156 F289 MS437 329/056 TB/ S031=
ASC EU0460   3435N 00705W 112156 F297 MS460 330/056 TB/ S031=
ASC EU0460   3439N 00703W 112156 F305 MS475 327/058 TB/ S031=
ASC EU0460   3443N 00700W 112157 F312 MS490 327/057 TB/ S031=
ASC EU0460   3447N 00657W 112157 F320 MS510 325/059 TB/ S031=
0000013000
414
SNNL51 EHDB 112200 CCA
AAXX 11221
06251 41/75 /2909 10059 20013 30200 40201 53024 7//88
333 91012 91113 91210=
0000010600
415
SMRA17 RUHB 111800 RRB
AAXX 11181
25648 42598 30203 11198 21239 30052 40110 52014 83500=
0000188300
416
FCIN90 VIDP 112100
TAF VIDP 112100Z 1200/1209 00000KT 0300 FG FEW030 SCT100
     BECMG 1204/1205 25004KT 1000 BR
     BECMG 1207/1208 29006KT 2000 FU=
TAF VIAG 112100Z 1200/1209 00000KT 0300 FG FEW030 SCT100
     BECMG 1204/1205 25004KT 1000 BR
     BECMG 1207/1208 29006KT 2000 FU=
TAF VILH 112100Z 1200/1209 VRB02KT 6000 FEW070=
TAF VISR 112100Z 1200/1209 00000KT 2500 BR FEW020
     BECMG 1206/1207 VRB02KT 5000 HZ=
TAF VICG 112100Z 1200/1209 VRB02KT 0800 MIFG NSC
     BECMG 1204/1205 29004KT 2500 BR
     BECMG 1207/1208 32006KT 4000 HZ=
TAF VIPK 112100Z 1200/1209 VRB02KT 3000 BR NSC
     BECMG 1205/1206 25005KT 5000 HZ FEW025 SCT090=
TAF VIJU 112100Z 1200/1209 VRB02KT 3000 BR NSC
     BECMG 1205/1206 25005KT 5000 HZ FEW025 SCT090=
TAF VIPT 112100Z 1200/1209 00000KT 0050 VV///
     BECMG 1207/1208 VRB02KT 0500 FG=
TAF VIDN 112100Z 1200/1209 00000KT 0300 FG NSC
     BECMG 1204/1205 VRB02KT 1000 BR
     BECMG 1207/1208 25005KT 2500 HZ=
TAF VISP 112100Z 1200/1209 00000KT 0300 FG FEW030 SCT100
     BECMG 1204/1205 25004KT 1000 BR
     BECMG 1207/1208 29006KT 2000 FU=
TAF VIBR 112100Z 1200/1209 00000KT 4000 BR FEW020
     BECMG 1205/1206 23004KT 6000=
TAF VIKU 112100Z 1200/1209 00000KT 4000 BR FEW020
     BECMG 1205/1206 23004KT 6000=
TAF VIDM 112100Z 1200/1209 00000KT 4000 BR FEW020
     BECMG 1205/1206 23004KT 6000=
TAF VIGG 112100Z 1200/1209 00000KT 4000 BR FEW020
     BECMG 1205/1206 23004KT 6000=
TAF VISM 112100Z 1200/1209 00000KT 4000 BR FEW020
     BECMG 1205/1206 23004KT 6000=
TAF VIAR 112100Z 1200/1209 00000KT 0800 MIFG FEW030 SCT100
     BECMG 1204/1205 VRB02KT 1500 BR
     BECMG 1207/1208 25005KT 3000 HZ=
TAF VIJO 112100Z 1200/1209 VRB03KT 2500 HZ FEW035 SCT100
     BECMG 1205/1209 36005KT 5000 HZ=

=
ERROR MULTI-PART MESSAGE MISSING LAST PART(S)=

0000016600
417
SAIN31 VOMM 112210
METAR VOHS 112210Z 13005KT 5000 HZ SCT020 17/14 Q1016 NOSIG=
METAR VOMM 112210Z 00000KT 3000 HZ FEW020 21/20 Q1013 TEMPO 1500 BR=
0000003800
418
SNVF20 EHDB 112200
NIL
0000011000
419
UANT01 CWAO 112211
ARP MSR996 5419N03737W 2210 F350 MS54 266/34 KT
SUGDN QXT AOW 112211 F13A
0000011000
420
UAUS31 KWBC 112212
ARP UAL931 5247N 11753W 2206 F380 TB LGT CHOP RM B772 OV
    5247N11753W=
0000008200
421
UAPA01 KWBC 112212
ARP AAL7 3329N 12235W 2204 F360 MS56 247/064KT=
00000000