0000008800
422
UANT01 KWBC 112212
ARP DAL2038 3610N 6927W 2205 F370 TB CONT LIGHT CHOP=
0000457000
423
SNCZ64 OKPR 112200
AAXX 11221
11406 27570 /2803 10026 21003 39616 40213 52032 70011
  333 60005 81/21 83/29 91111
  555 381// 50026 60027 70030 80036 90051=
11414 22565 62907 10023 21015 39465 42794 52031 86500
  333 60005 86623 91111
  555 376// 50023 60021 70026 80033=
11423 27470 /2807 10015 20007 39314 42804 53027 70011
  333 60005 81/14 83/17 85/21 87/27 91012 91115
  555 395// 50019 60021 70025 80034=
11438 26/// /3008 10039 20002 39790 40189 53035
  333 69915 91118
  555 377// 50030 60032 70033 80047 90055=
11450 25570 /2705 10052 20013 39749 40201 53026
  333 60005 81/30 85/38 87/43
  555 12912 2//15 376// 50029 60028 70032 80037=
11457 27270 /2609 10010 20007 38889 48485 53018 78110
  333 69925 81/06 83/09 85/13 87/17 91016 91117
  555 398// 50004 60011 70012 80024=
11464 41381 43117 11006 21017 39165 42768 52023 70161 82131
  333 82806 91023 91123
  555 392//=
11487 27670 /2811 10044 20009 39563 40192 53019 72385
  333 69905 81/41 91016 91117
  555 378// 50025 60024 70023 80032 90045=
11502 27670 /3310 10030 21015 39710 40173 53023 72381
  333 69915 81/39 91019 91123
  555 372// 50024 60025 70030 80040 90054=
11509 27570 /2907 10050 20012 39978 40175 53026 78165
  333 69915 81/26 83/39 85/57 91012 91115
  555 377// 50031 60032 70034 80041 90055=
11518 21440 72708 10041 20016 39735 40180 53025 78022 8587/
  333 69915 82815 84630 91016 91115
  555 384//=
11519 27670 /2908 10059 20019 39869 40179 53023 76100
  333 69905 81/39 83/50 91112
  555 376//=
11520 25670 /2704 10052 20019 39808 40178 53017
  333 60005 81/47 83/59
  555 379// 50027 60034 70035 80043 90052=
11538 27474 /0909 10056 20026 39584 40194 53020 78140
  333 69905 81/19 85/23 87/28
  555 381// 50013 60031 70033 80041=
11546 27578 /2503 10068 20035 39703 40189 52015 76180
  333 69905 83/31 87/39
  555 380// 50043 60044 70046 80053 90058=
11567 21565 62607 10054 20023 39825 40173 52023 76062 83530
  333 69905 83630 86359 91114
  555 380// 50037=
11603 27461 /2809 10036 20014 39668 40156 53012 78161
  333 69945 87/16 91016 91115
  555 385// 50033 60036 70039 80049 90058=
11624 21770 72709 10064 20025 39872 40164 53010 72162 84570
  333 69905 84650 87357 91015 91115
  555 376// 50038=
11628 27450 /2707 10046 20023 39537 40177 53013 78161
  333 69915 81/17 85/20 87/29 91014 91113
  555 385// 50026 60029 70031 80039 90048=
11636 27870 /2805 10044 20027 39488 42781 50004 75155
  333 69905 85/57
  555 389// 50019 60027 70032 80042 90048=
11643 27320 /9902 10005 21001 39168 42749 50002 77111
  333 60025 81/07 88/13
  555 13609 21414 396// 50013 60014 70016=
11652 21570 72710 10063 20020 39881 40161 52010 72162 84530
  333 69905 84626 87357 91115
  555 374// 50042=
11653 26/// ///// 11044 21045 3//// 4//// 5////
  333 6///5
  555 399//=
11659 27470 /2706 10045 20023 39523 40167 53005 78166
  333 69915 81/15 85/19 88/23
  555 386// 50012 60028 70025 80034 90044=
11669 21/01 92706 10010 20009 39263 42756 52008 74774
  333 69935 89/01 91012 91113
  555 399// 50015 60028 70029 80038 90051=
11679 27457 /2710 10048 20024 39668 40158 53005 76266
  333 69925 81/18 85/23 87/27 91115
  555 384// 50039 60040 70038 80047 90061=
11683 27/70 /2811 10029 20007 39279 42766 53003 78160
  333 69905 91017 91116
  555 1//11 386// 50025 60023 70027 80036=
11692 22865 52605 10048 20031 39593 40170 53001 85030
  333 60005 85358
  555 389// 50023=
11693 27870 /2605 10046 20039 39687 40174 53001 70011
  333 60005 83/58
  555 12711 2//13 395// 50032 60036 70036 80053 90059=
11698 27870 /2706 10064 20036 39762 40172 53001 70011
  333 60005 87/58
  555 382// 50041 60043 70048 80055 90065=
11710 25869 /2708 10029 20010 39530 40152 56007
  333 60005 81/57 91113
  555 387// 50039 60041 70043 80050=
11723 22960 62801 10033 20020 39870 40173 55000 86030
  333 6///5 86359
  555 391// 50033 60034 70040 80050=
11730 27000 /2708 11022 21031 38596 48418 50003 78588
  333 69905 89/01 91017 91118
  555 393//=
11766 27050 /2305 10012 20010 39254 42757 55003 72033
  333 60005 81/01 83/03 85/06 87/11 91010
  555 399// 50008 60012 70018 80036=
11774 27647 /1805 10048 20036 39892 40166 55005 71011
  333 60005 88/49
  555 392//=
11782 22575 82205 10051 20020 39848 40156 58001 8253/
  333 60005 82620 88357
  555 380//=
11787 27001 /2706 11011 21013 38615 48436 57004 78573
  333 60005 89/01 91016 91115
  555 398// 50005 60011 70008 80020=
0001044800
424
SNSW23 LSSW 112200
AAXX 11224
06686 23/// /2201 10047 20031 39660 40264 53026
  333 55300 20000 60005 91104 91202=
06623 23/// /2206 10044 20044 39396 48528 51020
  333 55300 20029 60005 91109 91206=
06624 23/// /3601 10045 20042 39748 40261 51019
  333 55300 20000 60005 91103 91202=
06602 23/// /0101 10057 20052 39724 40258 51018
  333 55300 20007 60005 91103 91203=
06693 23/// /3501 10041 20041 39516 48533 51029
  333 55300 20040 60005 91102 91201=
06682 23/// /1001 10038 20018 39135 48541 52022
  333 55300 20000 60005 91105 91202=
06675 23/// /0601 10035 20024 39188 48539 51025
  333 55300 20000 60005 91103 91202=
06637 23/// /0901 10022 20017 39552 40270 52018
  333 55300 20011 60005 91104 91203=
06627 23/// /0701 10019 21001 39048 48532 52011
  333 55300 20000 60005 91104 91202=
06625 23/// /1501 10026 20020 39475 48517 53016
  333 55300 20007 60005 91103 91202=
06608 23/// /3403 10035 20018 38928 48534 51014
  333 55300 20000 60005 91116 91204=
06638 23/// /1001 10031 20031 39373 48532 51020
  333 55300 20000 60005 91103 91202=
06635 23/// /1701 10026 20016 39670 40264 51019
  333 55300 20000 60005 91103 91202=
06728 23/// ///// 10013 21033 38426 48535 52005
  333 55300 20000 60005=
06725 23/// /0901 10007 21007 38497 48536 52006
  333 55300 20004 60005 91105 91202=
06758 23/// /0103 10034 20034 39845 40245 52005
  333 55300 20007 60005 91105 91204=
06796 23/// /1301 10008 20001 38648 48523 52006
  333 55300 20007 60005 91105 91202=
06784 23/// /0000 10002 21012 38436 48535 52012
  333 55300 20000 60005 91103 91202=
06786 23/// /3302 10042 20027 39593 40268 52017
  333 55300 20000 60005 91105 91203=
06794 23/// /1602 10015 21007 38982 48522 55001
  333 55300 20000 60005 91106 91205=
06792 23/// /1701 11034 21040 38315 48535 51010
  333 55300 20000 60005 91103 91202=
06798 23/// /2601 10003 21012 38739 48527 52011
  333 55300 20000 60005 91103 91202=
06702 23/// /3509 10021 21028 38354 48531 52006
  333 55300 20000 60005 91111 91209=
06610 23/// /0000 10037 20026 39659 40256 53015
  333 55300 20000 60005 91105 91202=
06730 43/// /3108 11101 21101 36572 47086 52008
  333 55300 20000 91119 91213=
06643 23/// /0301 10021 20021 39747 40269 51021
  333 55300 20000 60005 91104 91202=
06680 23/// /2809 11041 21041 37536 47073 52015
  333 55300 20000 60005 91123 91212=
06990 23/// /0701 10044 20034 39708 40267 53028
  333 55300 20000 60005 91104 91202=
06712 23/// /1503 10049 20031 39783 40250 51015
  333 55300 20011 60005 91106 91205=
06609 23/// /3103 10016 21057 38046 48531 52008
  333 55300 20000 60005 91107 91205=
06616 23/// /0000 10060 20055 39539 40255 52014
  333 55300 20007 60005 91103 91202=
06724 23/// /0604 10020 20003 38615 48533 52004
  333 55300 20007 60005 91108 91205=
06748 23/// /2101 10005 21033 38393 48538 52009
  333 55300 20011 60005 91103 91202=
06605 23/// /3414 10003 21002 38435 48534 51012
  333 55300 20000 60005 91119 91216=
06659 23/// /2303 11012 21033 37922 48538 51013
  333 55300 20000 60005 91112 91207=
06672 23/// /1404 10056 20042 39726 40260 51026
  333 55300 20000 60005 91105 91204=
06745 23/// /0601 11020 21024 38704 48536 51007
  333 55300 20007 60005 91102 91201=
06753 23/// /0601 10003 21011 39081 48518 55001
  333 55300 20000 60005 91104 91202=
06770 23/// /0202 10066 20041 39869 40236 52003
  333 55300 20000 60005 91104 91203=
06639 23/// /0202 10020 20017 38642 48539 51018
  333 55300 20000 60005 91107 91204=
06720 23/// /0000 10044 20027 39668 40255 53007
  333 55300 20000 60005 91105 91203=
06762 23/// /2301 10024 20022 39988 40243 52005
  333 55300 20000 60005 91103 91202=
06604 23/// /0504 10058 20045 39665 40252 51017
  333 55300 20000 60005 91108 91204=
06771 23/// /2101 10030 20025 39806 40240 52002
  333 55300 20000 60005 91102 91201=
06734 23/// /0903 10030 20022 39562 40264 52018
  333 55300 20014 60005 91105 91204=
06782 NIL=
06681 23/// /2206 10064 20039 39334 48538 51026
  333 55300 20000 60005 91112 91206=
06685 23/// /1304 10069 20039 39636 40259 52028
  333 55300 20000 60005 91123 91210=
06700 23/// /0103 10047 20035 39744 40247 52008
  333 55300 20000 60005 91106 91204=
06670 23/// /1506 10052 20043 39736 40256 52019
  333 55300 20000 60005 91110 91207=
06750 23/// /3509 11030 21042 37742 48542 52007
  333 55300 20000 60005 91120 91210=
06711 23/// /0205 10071 20041 39694 40244 53010
  333 55300 20014 60005 91110 91205=
06717 23/// /0702 11012 21073 37551 47088 51004
  333 55300 20000 60005 91109 91205=
06735 23/// /2502 10020 20006 38728 48540 52015
  333 55300 20011 60005 91106 91203=
06727 23/// /1003 10029 20011 39484 48519 50003
  333 55300 20000 60005 91106 91203=
06612 23/// /3501 10045 20030 39060 48535 52012
  333 55300 20000 60005 91102 91201=
06645 23/// /3003 10063 20049 39521 48533 52018
  333 55300 20004 60005 91105 91203=
06633 23/// /1502 10045 20039 39786 40261 51020
  333 55300 20000 60005 91104 91201=
06650 23/// /1902 10057 20046 39712 40265 53026
  333 55300 20000 60005 91105 91203=
06655 23/// /1001 10025 20015 39047 48539 52026
  333 55300 20000 60005 91105 91203=
06620 23/// /2907 10053 20043 39723 40258 53020
  333 55300 20000 60005 91110 91208=
06660 23/// /1903 10064 20051 39587 40256 51024
  333 55300 20000 60005 91105 91203=
06783 23/// /3107 10010 21026 38381 48526 52004
  333 55300 20000 60005 91119 91210=
06780 23/// /3311 11048 21051 37373 47081 52009
  333 55300 20000 60005 91120 91214=
06791 23/// /3610 11081 21093 36804 47081 52006
  333 55300 20000 60005 91117 91210=
06601 23/// /2303 10080 20059 39867 40252 52016
  333 55300 20000 60005 91106 91204=
06705 23/// /3504 10059 20031 39688 40244 51010
  333 55300 20000 60005 91108 91206=
06619 23/// /3605 10024 20016 38850 48532 53010
  333 55300 20011 60005 91114 91205=
06631 23/// /1401 10025 20020 39589 40264 51017
  333 55300 20000 60005 91102 91201=
06621 23/// /2103 10055 20051 39720 40256 51022
  333 55300 20004 60005 91110 91206=
06626 23/// /1101 10032 20031 39794 40264 51020
  333 55300 20011 60005 91104 91203=
06673 23/// /0000 10058 20047 39673 40262 51028
  333 55300 20000 60005 91104 91202=
06679 23/// /2403 10076 20050 39604 40249 51022
  333 55300 20004 60005 91109 91203=
06664 23/// /1602 10056 20047 39716 40256 52020
  333 55300 20000 60005 91103 91202=
06760 23/// /3001 10063 20028 39785 40240 52003
  333 55300 20000 60005 91103 91202=
06646 23/// /0403 10058 20054 39855 40255 51018
  333 55300 20000 60005 91104 91203=
06636 23/// /0901 10028 20025 39673 40262 51017
  333 55300 20004 60005 91105 91203=
06759 23/// /3505 10045 21044 38354 48521 52002
  333 55300 20000 60005 91109 91205=
06722 23/// /0402 10033 21055 38196 48532 52004
  333 55300 20000 60005 91106 91204=
06666 23/// /0302 10052 20052 39838 40257 51019
  333 55300 20000 60005 91103 91202=
06744 23/// /3002 11006 21031 38067 48541 53005
  333 55300 20000 60005 91114 91209=
06756 23/// /3003 10030 20006 39548 40247 50001
  333 55300 20011 60005 91106 91204=
06669 43/// /30// 10046 20046 39253 48532 52017
  333 55300 20007 91120 91215=
06689 23/// /2910 10034 20034 38935 48537 52025
  333 55300 20000 60005 91118 91210=
06628 23/// /1506 10030 20005 39032 48533 51016
  333 55300 20004 60005 91108 91206=
06751 23/// /3410 10042 21060 38120 48522 52005
  333 55300 20000 60005 91126 91211=
06747 43/// /1103 11051 21106 37181 47087 52006
  333 55300 20014 91108 91206=
06709 43/// /1407 10062 20040 39792 40249 51013
  333 91109 91207=
06740 43/// /2912 11076 21076 36989 47082 52006
  333 55300 20000 91120 91214=
06641 23/// /1501 10061 20060 39838 40260 51018
  333 55300 20000 60005 91103 91202=
06618 23/// /3504 10008 20008 39724 40265 52016
  333 55300 20011 60005 91105 91204=
06706 43/// /3606 1//// 2//// 3//// 5////
  333 91107 91206=
06787 23/// /0101 10008 21008 39096 48530 52016
  333 55300 20000 60005 91103 91202=
06754 43/// /3215 10017 21063 37829 48521 52005
  333 553// 20000 91117 91215=
06683 43/// /0501 1//// 2//// 39769 52///
  333 91102 91201=
06778 23/// /1402 11037 21049 38044 48531 51008
  333 55300 20007 60005 91106 91202=
06733 23/// /2401 10000 20000 39286 48524 52014
  333 55300 20000 60005 91103 91202=
06731 23/// /2401 10017 20017 39573 40270 51024
  333 55300 20000 60005 91103 91202=
06632 23/// /0804 10003 20003 39737 40272 51///
  333 55300 20025 60005 91105 91204=
06644 23/// /1803 10043 20043 39712 40265 51026
  333 55300 20000 60005 91106 91204=
06752 23/// /0203 10039 20015 39731 40247 53002
  333 55300 20004 60005 91105 91203=
06606 23/// /0502 10037 20034 39731 40260 51017
  333 55300 20000 60005 91105 91203=
06688 43/// /2708 11028 21064 37551 47078 52010
  333 55300 20007 91126 91213=
06777 23/// /3604 10034 21018 38417 48522 52001
  333 55300 20000 60005 91109 91204=
06704 23/// /3101 10017 20013 39430 48514 52011
  333 55300 20004 60005 91103 91203=
06708 23/// /0606 10057 20054 39268 48531 52011
  333 55300 20000 60005 91107 91206=
06617 23/// /0802 10036 20027 39023 48533 52012
  333 553// 20047 60005 91105 91203=
06648 23/// /1001 10039 20039 39630 40265 51024
  333 55300 20011 60005 91103 91202=
06671 43/// /2402 1//// 2//// 39772 5////
  333 91110 91207=
06656 23/// /1003 1//// 2//// 39576 53019
  333 60005 91104 91203=
06651 23/// /2001 10038 20025 39373 48531 52020
  333 55300 20000 60005 91103 91201=
06687 43/// /0102 1//// 2//// 39747 53///
  333 91106 91202=
06793 23/// /3606 10007 21006 38466 48538 52011
  333 55300 20000 60005 91110 91206=
06795 23/// /3507 11054 21067 37376 47081 51008
  333 55300 20000 60005 91111 91207=
06799 43/// /2306 11007 21076 37646 47102 52011
  333 55300 20000 91124 91212=
06723 43/// /0402 11027 21066 37317 47084 52003
  333 55300 20000 91104 91202=
06749 43/// /0107 11060 21107 36964 47090 52006
  333 55300 20000 91113 91208=
06739 43/// /3405 11048 21089 37173 47086 52007
  333 55300 20000 91112 91208=
06657 23/// /2502 10024 2//// 39694 40273 52///
  333 553// 20000 60005 91103 91202=
06788 23/// /0602 10002 21002 38970 48519 52006
  333 55300 20032 60005 91104 91202=

0000078300
425
SNEO41 EEMH 112200
AAXX 11221
26134 27057 83500 11006 21006 39914 49980 58006 71011 88///
 333  11002 21011 60007 88/01
 555  1/000 21011 3/100 51005 52101=
26144 27/26 /0801 11011 21012 39895 49983 56010 77176
 333  11010 21022 69947
 555  21022 51011 52104=
26214 27484 80404 10011 21014 39976 49984 56005 70000 88///
 333  10016 20003 60007 88/18
 555  1/001 20003 3/000 50015=
26218 27259 80403 10006 20001 39976 49978 57006 76766 88///
 333  10047 20005 69987 88/05
 555  1/001 20005 3/000 50023=
26226 27166 70202 10010 20005 39974 49977 57004 71085 87///
 333  10042 20010 69917 87/02
 555  1/002 20010 3/000 50022=
26227 27261 70202 10018 20011 39973 49975 57007 76266 87///
 333  10042 20015 60027 87/07
 555  1/002 20015 3/002 50025=
0000009400
426
SNNO21 ENMI 112200 RRA
AAXX 11221
01300 46/// /0106 10031 21002 39941 40040=
0000014500
427
SNNO22 ENMI 112200 RRB
AAXX 11221
01400 46/// /3013 10054 20012 30078 40139=
01447 46/// /0000 11044 21060 39348 40031 50015=
0000011000
428
UANT99 KDDL 112211
ARP TAY011 5154N04107W 2211 F350 MS55 300/67 KT
OOTSC QXT AME 112211 F17A
0000036200
429
SXXX32 EUMS 112206
12FFB3C8
:PRS 1 /1 M 3106 3108 3119 3123 3137 3139 3143 3139 3142 3142 3139 3137 3144 3151 3158 3163 3169 3166 3175 3165 3165 3162 3153 3151 3153 3156 3164 3157 3160 :RAD 1 /3 6066 6081 6085 6090 6101 6106 6101 6096 6098 6095 :ENC 1 /5 -144 -144 -144 -144 -144 -144 :SW1 6 /60 0 :SW2 36 /60 14 :BAT 14 /15 13.8 :NAME 12FFB3C8
0000070100
430
SXXX32 EUMS 112206 RRA
22E7E6D2
OT12 ID:ID-ROTE-11 DT:2014 01 11 22 04
:PRS /1 -10718 -10165 -10677 -10716 -10692 -10693 -10693 -10693 -10717 -10720 -10722 -10717 -10716 -10714 -10721 -10719 -10154 -10677 -10713 -10690 -10692 -10693 -10692 -10716 -10715 -10716 -10716 -10714 -10718 -10718
:PR2 /1 03657 03670 03641 03649 03710 03661 03679 03696 03698 03685 03701 03687 03708 03717 03721 03703 03721 03708 03750 03728 03719 03770 03718 03719 03745 03769 03788 03740 03785 03779
:RAD /1 05245 05248 05251 05247 05260 05276 05272 05263 05285 05287 05273 05281 05293 05284 05287 05286 05298 05301 05306 05299 05307 05317 05321 05327 05328 05340 05332 05322 05334 05342
:BAT 12.0V
0000066700
431
SXXX32 EUMS 112207
32CC9580
OT12 ID:ID-ENGG-07 DT:2014 01 11 22 06
:PRS /1 01441 01477 01435 01463 01438 01444 01453 01462 01442 01471 01431 01436 01423 01447 01474 01430 01455 01434 01428 01432 01446 01415 01469 01415 01418 01446 01438 01443 01434 01452
:PR2 /1 04894 04945 04911 04917 04925 04917 04923 04913 04903 04942 04890 04943 04899 04912 04926 04927 04907 04920 04929 04909 04944 04908 04934 04886 04932 04905 04914 04918 04882 04937
:RAD /1 05769 05760 05779 05775 05766 05771 05775 05784 05737 05794 05752 05768 05759 05753 05778 05763 05776 05747 05770 05757 05769 05747 05778 05747 05760 05765 05752 05769 05752 05778
:BAT 12.2V
0000044600
432
SXXX32 EUMS 112209
224AD678
:PRS 2 /1 2072 2069 2064 2063 2061 2061 2059 2056 2048 2046 2044 2044 2042 2037 2035 2031 2029 2029 2027 2027 2026 2023 2017 2007 2003 2005 2005 2004 2002 1997 :RAD 4 /3 4885 4878 4868 4862 4855 4845 4836 4828 4822 4814 4805 4796 4788 4782 4773 4764 4757 4749 4745 4737 :ENC 4 /5 8407 8395 8386 8372 8356 8347 8333 8318 8310 8294 8284 8274 :SW1 9 /60 60 :SW2 39 /60 60 :BAT 14 /15 12.1 :NAME 224AD678
0000013800
433
SNVF51 EGRR 112200
BBXX
62081 11224 99521 70105 46/// /1527 10090 20065 40097 57032 22200
10904 70019 333 90710 91138=
0000249700
434
SNVZ11 SBBR 112200 RRB
BBXX
SHIP 11221 99/// 1//// 16/// /3502 10194 20177 39332 40210 52/// 6004/
  333 10200 20194 553// 00001 91110=
SHIP 11221 99/// 1//// 36/// /0805 10289 20205 30100 40111 52///
  333 10300 20289 553// 00084 91112=
SHIP 11221 99/// 1//// 36/// /2301 10204 20184 39246 40158
  333 10205 20203 553// 00051 91103=
SHIP 11221 99/// 1//// 36/// /1102 10253 20181 39266 40145
  333 10258 20253 553// 00056 91106=
SHIP 11221 99/// 1//// 36/// /1102 10249 20166 39121 40126
  333 10266 20249 553// 00036 91106=
SHIP 11221 99/// 1//// 36/// /0200 10264 20184 39271 40070
  333 10274 20262 553// 00114 91104=
SHIP 11221 99/// 1//// 36/// /0102 10265 20220 30161 40171
  333 10273 20264 553// 00016 91108=
SHIP 11221 99/// 1//// 36/// /2802 10228 20183 38961 40058
  333 10248 20226 553// 00029 91103=
SHIP 11221 99/// 1//// 36/// /2302 10257 20168 39474 40113
  333 10268 20252 91108=
SHIP 11221 99/// 1//// 36/// /0901 10265 20194 39468 40156
  333 10285 20265 553// 00011 91103=
SHIP 11221 99/// 1//// 36/// /2901 10242 20196 39304 40126
  333 10255 20241 553// 00074 91102=
SHIP 11221 99/// 1//// 36/// /1104 10247 20208 39914 40153
  333 10264 20247 553// 10002 91110=
SHIP 11221 99/// 1//// 36/// /1204 10258 20198 39887 40151 52///
  333 10269 20258 553// 10003 91108=
SHIP 11221 99/// 1//// 36/// /0604 10259 20176 39320 40121
  333 10282 20259 553// 00150 91110=
SHIP 11221 99/// 1//// 36/// /1000 10301 20107 39851 40096
  333 10327 20301 553// 10004 91105=
SHIP 11221 99/// 1//// 36/// /0103 10294 20210 39993 40066 57///
  333 10332 20294 553// 10002 91110=
SHIP 11221 99/// 1//// 16/// /2302 10232 20217 39923 40099 6998/
  333 10235 20228 553// 10001 91104=
SHIP 11221 99/// 1//// 16/// /0402 10207 20196 39411 40167 6992/
  333 10211 20206 553// 00067 91106=
SHIP 11221 99/// 1//// 16/// /1604 10166 20160 38631 49711 6994/
  333 10169 20166 553// 00041 91107=
SHIP 11221 99/// 1//// 36/// /0302 10258 20217 39840 40110 52///
  333 10298 20258 553// 00127 91103=
SHIP 11221 99/// 1//// 36/// /2602 10236 20209 39436 40111 52///
  333 10264 20236 553// 00067 91104=
SHIP 11221 99/// 1//// 36/// /2902 10263 20234 39970 40091 52///
  333 10283 20260 553// 00034 91103=
SHIP 11221 99/// 1//// 36/// /1202 10239 20209 30057 40131
  333 10244 20225 553// 10001 91108=
SHIP 11221 99/// 1//// 36/// /3002 10208 20171 39007 40355
  333 10214 20208 553// 00022 91104=
0000011300
435
SIOM20 OOMS 112100 RRI
AAXX 11214
41301 36/// /0704 10132 20102 30032 40178
333 0E019 58008 =
0000009200
436
SAFC21 OEJD 112200 RRA
METAR
OEWD 112200Z 11006KT CAVOK 16/12 Q1020 NOSIG=
0000009000
437
SASD20 OEJD 112200 RRA
METAR OEWD 112200Z 11006KT CAVOK 16/12 Q1020 NOSIG=
0000024100
438
SOAT10 KWAL 112213
FA8005BC 011221337 OT12 ID:KN-BASS-01 DT:2014 01 11 22 11
:RD -3276 -3253 -3289 -3297 -3262 -3285 -3288 -3288 -3268 -3279
:PR 0371 0430 0430 0362 0387 0381 0416 0387 0362 0385
:B 13.7V
 46+0NN 219E
0000024900
439
SNHK22 VHHH 112200
AAXX 11221
45032 36/// /0000 10107 20104 30216 40233 54000=
45035 36/// /0801 10132 20119 30195 40238 52002=
45039 36/// /9901 10118 20118 30220 40236 52001=
45044 36/// /0303 10147 20121 30137 40233 52002=
0000013000
440
SIRA27 RUHB 112100 RRA
AAXX 11211
25648 12598 20102 11204 21245 30060 40118 52008 60002 82500 333 21206
43046=
0000012800
441
SNVF51 EGRR 112200
BBXX
62305 11224 99504 70000 46/// /1504 10083 20026 40249 51009 22200
00107 10801 70005=
00000000