0000006300
502
NCNC01 EGRR 112100
03134 444 00062 10006 20016=
0000006300
503
NCNC01 EGRR 112100
03313 444 00064 10021 20000=
0000006300
504
NCNC01 EGRR 112100
03770 444 00092 10030 20000=
0000006300
505
NCNC01 EGRR 112100
03823 444 00105 10029 20000=
0000006300
506
NCNC01 EGRR 112100
03017 444 00044 10019 20018=
0000006300
507
NCNC01 EGRR 112100
03522 444 00075 11019 20000=
0000006300
508
NCNC01 EGRR 112100
03377 444 00059 10024 20000=
0000006300
509
NCNC01 EGRR 112100
03153 444 00049 10018 20000=
0000006300
510
NCNC01 EGRR 112100
03026 444 00050 10005 20006=
0000006300
511
NCNC01 EGRR 112100
03075 444 00049 10006 20012=
0000006300
512
NCNC01 EGRR 112100
03316 444 00073 10032 20010=
0000006300
513
NCNC01 EGRR 112100
03693 444 00087 10025 20000=
0000006300
514
NCNC01 EGRR 112100
03037 444 00061 10008 20002=
0000380600
515
WWUS75 KTFX 112213
NPWTFX
URGENT - WEATHER MESSAGE
NATIONAL WEATHER SERVICE GREAT FALLS MT
313 PM MST SAT JAN 11 2014
MTZ009>014-044>054-121200-
/O.CON.KTFX.HW.W.0002.000000T0000Z-140114T0600Z/
NORTHERN ROCKY MOUNTAIN FRONT-EASTERN GLACIER-HILL-CASCADE-
CHOUTEAU-CENTRAL AND SOUTHERN LEWIS AND CLARK-TOOLE-LIBERTY-
EASTERN PONDERA-BLAINE-SOUTHERN ROCKY MOUNTAIN FRONT-
EASTERN TETON-JUDITH BASIN-FERGUS-JEFFERSON-BROADWATER-MEAGHER-
INCLUDING THE FOLLOWING LOCATIONS...BROWNING...MARIAS PASS...
CUT BANK...HAVRE...GREAT FALLS...KINGS HILL PASS...BIG SANDY...
FORT BENTON...FLESHER PASS...HELENA...LINCOLN...MACDONALD PASS...
ROGERS PASS...SHELBY...CHESTER...CONRAD...CHINOOK...CHOTEAU...
FAIRFIELD...STANFORD...LEWISTOWN...LEWISTOWN DIVIDE...BOULDER...
BOULDER HILL...ELK PARK PASS...HOMESTAKE PASS...WHITEHALL...
TOWNSEND...WHITE SULPHUR SPRINGS
313 PM MST SAT JAN 11 2014
...HIGH WIND WARNING REMAINS IN EFFECT UNTIL 11 PM MST MONDAY...
A HIGH WIND WARNING REMAINS IN EFFECT UNTIL 11 PM MST MONDAY.
* TIMING AND MAIN IMPACT: WINDS WILL BE STRONG AT TIMES ACROSS THE
  ENTIRE REGION THROUGH MONDAY. THE PERIOD FOR THE STRONGEST WINDS
  WILL LIKELY BE TODAY...THEN AGAIN SUNDAY NIGHT INTO MONDAY.
  TRAVEL OVER MOUNTAIN PASSES AND ON NORTH TO SOUTH ORIENTED ROADS
  WILL BE VERY DIFFICULT...ESPECIALLY FOR HIGH PROFILE VEHICLES.
* WINDS: AT LOWER ELEVATIONS...SOUTHWEST TO WEST WINDS WILL MOSTLY
  BE 35 TO 45 MPH...WITH GUSTS TO 65 MPH...BUT ISOLATED GUSTS OVER
  70 MPH ARE POSSIBLE. AT HIGHER ELEVATIONS...WINDS WILL BE 40 TO
  50 MPH WITH GUSTS TO 80 MPH...BUT GUSTS IN EXCESS OF 95 MPH ARE
  POSSIBLE.
* OTHER IMPACTS: POWER OUTAGES AND MINOR STRUCTURAL DAMAGE ARE
  POSSIBLE. VISIBILITIES COULD SUDDENLY BECOME POOR IN BLOWING
  DUST AT LOWER ELEVATIONS...AND POSSIBLY IN BLOWING SNOW AT
  HIGHER ELEVATIONS.
* LOCATIONS AFFECTED INCLUDE: ALL OF NORTH CENTRAL AND SOUTHWEST
  MONTANA.
* TO SEE A GRAPHICAL REPRESENTATION OF THIS HAZARD PLEASE VISIT
  WWW.WRH.NOAA.GOV/WRH/WHV/?WFO=TFX.
PRECAUTIONARY/PREPAREDNESS ACTIONS...
A HIGH WIND WARNING MEANS A HAZARDOUS HIGH WIND EVENT IS EXPECTED
OR OCCURRING. SUSTAINED WIND SPEEDS OF AT LEAST 40 MPH OR GUSTS
OF 58 MPH OR MORE CAN LEAD TO PROPERTY DAMAGE.
&&
$$
MTZ008-015-055-121200-
/O.CON.KTFX.HW.W.0002.000000T0000Z-140114T0600Z/
BEAVERHEAD-MADISON-GALLATIN-
INCLUDING THE FOLLOWING LOCATIONS...BIG HOLE PASS...
CHIEF JOSEPH PASS...DILLON...MONIDA PASS...ENNIS...NORRIS HILL...
RAYNOLDS PASS...TWIN BRIDGES...BATTLE RIDGE PASS...BOZEMAN...
BOZEMAN PASS...TARGHEE PASS...WEST YELLOWSTONE
313 PM MST SAT JAN 11 2014
...HIGH WIND WARNING REMAINS IN EFFECT UNTIL 11 PM MST MONDAY...
A HIGH WIND WARNING REMAINS IN EFFECT UNTIL 11 PM MST MONDAY.
* TIMING AND MAIN IMPACT: STRONG WINDS WILL AFFECT SOUTHWEST
  MONTANA THROUGH MONDAY EVENING.
* WINDS: AT LOWER ELEVATIONS...SOUTHWEST TO WEST WINDS WILL MOSTLY
  BE 30 TO 40 MPH...WITH GUSTS NEAR 60 MPH. IN THE
  MOUNTAINS...EXPECT WEST WINDS OF 35 TO 45 MPH...WITH GUSTS TO
  70 MPH. ISOLATED GUSTS NEAR 90 MPH WILL BE POSSIBLE AT RIDGE
  TOPS ABOVE 8000 FEET.
* OTHER IMPACTS: POWER OUTAGES AND MINOR STRUCTURAL DAMAGE ARE
  POSSIBLE. VISIBILITIES COULD SUDDENLY BECOME POOR IN BLOWING
  DUST AT LOWER ELEVATIONS...AND POSSIBLY IN BLOWING SNOW AT
  HIGHER ELEVATIONS.
* LOCATIONS AFFECTED INCLUDE: ALL OF SOUTHWEST MONTANA.
* TO SEE A GRAPHICAL REPRESENTATION OF THIS HAZARD PLEASE VISIT
  WWW.WRH.NOAA.GOV/WRH/WHV/?WFO=TFX
PRECAUTIONARY/PREPAREDNESS ACTIONS...
A HIGH WIND WARNING MEANS A HAZARDOUS HIGH WIND EVENT IS EXPECTED
OR OCCURRING. SUSTAINED WIND SPEEDS OF AT LEAST 40 MPH OR GUSTS
OF 58 MPH OR MORE CAN LEAD TO PROPERTY DAMAGE.
&&
$$
0000027400
516
WSBZ24 SBCW 112212
SBCW SIGMET 10 VALID 112225/120025 SBCW - SBCW
CURITIBA FIR EMBD TS F
CST
 WI S2725 W05427- S2652 W05341 - S2536 W05342- S2536 W05429 -
S2405 W
05418
 - S2330 W04656 - S2918 W04821 - S2725 W05427 TOP FL400 MOV ENE
08KT
WKN=
0000029600
517
WABZ24 SBCW 112209
SBCW AIRMET 6 VALID 112220/120020 SBCW - SBCW
CURITIBA FIR ISOL TS FC
ST
 WI S2405 W05418- S2330 W04656- S2205 W04841- S2041 W05036 - S1934
W0
5133
 - S1643 W05306 - S1730 W05413 - S1750 W05743 - S2358 W05524 -
S2405
W05418
 ABV FL030 STNR NC=
0000019700
518
WSPR31 SPIM 112210
SPIM SIGMET 8 VALID 112210/120110 SPIM-
SPIM LIMA FIR EMBD TS FCST NE OF LINE S0954 W07219 -
S1028 W07153 - S1048 W07048 - S1015 W07048
TOP FL450 MOV NW NC=
0000119000
519
FTSA85 EGRR 112209 RRB
TAF SBFZ 112200Z 1200/1224 08010KT 9999 SCT020 TN26/1208Z TX31/1214Z
     BECMG 1209/1211 10017KT
     BECMG 1216/1217 08013KT CAVOK
     RMK PEI=
TAF SBMO 112200Z 1200/1224 09004KT 7000 SCT020 TN21/1208Z TX30/1214Z
     TEMPO 1200/1203 3000 RA SCT010 BKN020
     BECMG 1205/1206 32003KT
     BECMG 1211/1 213 11011KT BKN020
     BECMG 1214/1215 13012KT SCT020
     RMK PEI=
TAF SBNT 112200Z 1200/1224 13008KT 7000 BKN020 TN24/1208Z TX30/1214Z
     BECMG 1204/1205 SCT020
     BECMG 1209/1211 11014KT BKN025
     BECMG 1216/1217 1101 1KT SCT025
     RMK PEI=
TAF SBPL 112200Z 1200/1224 13005KT 9999 SCT020 TN23/1208Z TX34/1216Z
     BECMG 1208/1210 11010KT
     BECMG 1219/1220 13004KT
     RMK PEI=
TAF SBRF 112200Z 1200/1224 12008KT 7000 SCT023 TN23/1208Z TX29/1215Z
     TEMPO 1200/1203 4500 RA BKN017
     BECMG 1207/1209 21007KT BKN023
     BECMG 1212/1 213 13009KT SCT023
     RMK PEI=
TAF SBSV 112200Z 1200/1224 10010KT 7000 SCT017 FEW020TCU TN25/1208Z T
     X30/1214Z
     BECMG 1201/1202 SCT017
     BECMG 1205/1206 SCT017 FEW020TCU
     BECMG 1209/1 210 07012KT SCT017
     RMK PEI=
0000146800
520
SASA85 EGRR 112200 RRE
METAR SAAR 112200Z 14010KT CAVOK 27/07 Q1019=
METAR SANT 112200Z 18004KT 9999 FEW035 BKN100 25/20 Q1019=
METAR SAOC 112200Z 05008KT CAVOK 25/10 Q1020=
METAR SARC 112200Z 20005KT 9999 SCT008 SCT018 BKN200 22/20 Q1015=
METAR SARE 112200Z 20002KT 9999 SCT006 SCT100 OVC200 23/21 Q1015=
METAR SARL 112200Z 20014KT 9999 SCT015 BKN100 OVC200 24/20 Q1015=
METAR SARP 112200Z 14002KT 9999 FEW020 OVC100 24/18 Q1016=
METAR SASA 112200Z 25004KT 9000 FEW004 BKN018 18/16 Q1024=
METAR SASJ 112200Z 32005KT 9999 SCT035 BKN100 20/17 Q1020=
METAR SAWH 112200Z 23010KT 9999 BKN045 BKN100 15/08 Q0999=
METAR SAZM 112200Z 18013KT CAVOK 17/07 Q1024=
METAR SAZN 112200Z 09004KT CAVOK 32/M02 Q1014=
METAR SBCF 112200Z 08007KT CAVOK 27/14 Q1018=
METAR SBLO 112200Z 09003KT 9999 FEW030 29/20 Q1014=
METAR SKMD 112200Z 18010KT 9999 -TSRA SCT030 CB BKN080 18/16 A3004
      RMK CB/E/S=
METAR SKPE 112200Z 08007KT 9999 TS SCT017CB SCT090 21/16 A3001 RMK
      CB/SE/S/SW=
METAR SKSM 112200Z 01010KT 9999 FEW020 32/20 A2974=
METAR SLCO 112200Z 02004KT 9999 FEW023CB BKN080 BKN200 26/24 Q1009=
METAR SLET 112200Z 32010G23KT 9999 SCT020 FEW025TCU 29/22 Q1008=
METAR SLPS 112200Z 06005KT 9999 SCT020 32/24 Q1006=
METAR SLSU 112200Z 06007KT 9999 FEW023 FEW033CB 21/09 Q1027=
METAR SLTJ 112200Z 17008KT 9999 TS BKN027 FEW033CB BKN070 BKN200 18/16
      Q1022=
METAR SLTR 112200Z 01008KT 9999 FEW020 30/24 Q1009=
0000175800
521
SASA85 EGRR 112200 RRF
METAR SAWE 112200Z 29016KT 9999 SCT019 13/12 Q1003=
METAR SBAF 112200Z 13008KT 9999 FEW030 33/21 Q1011=
METAR SBBE 112200Z 36006KT 330V030 9999 VCTS BKN020 FEW025CB BKN100
      26/24 Q1009 RETS=
METAR SBBH 112200Z 08008KT CAVOK 27/16 Q1017=
METAR SBBI 112200Z 33003KT 9999 FEW018 BKN100 23/18 Q1019=
METAR SBBQ 112200Z 04005KT CAVOK 24/16 Q1021=
METAR SBBU 112200Z 22003KT CAVOK 29/22 Q1014=
METAR SBCO 112200Z 03003KT 9999 -RA SCT010 SCT040 OVC100 24/// Q1014=
METAR SBDN 112200Z 04009KT 9999 SCT040 SCT100 29/18 Q1012=
METAR SBGW 112200Z 00000KT 9999 FEW025 SCT083 26/17 Q1015 RETS=
METAR SBHT 112200Z 20001KT 9999 FEW020 25/25 Q1010=
METAR SBIH 112200Z 09002KT 9999 FEW017 29/25 Q1009=
METAR SBIL 112200Z 30008KT 9999 SCT020 FEW030TCU SCT080 26/23 Q1016=
METAR SBIZ 112200Z 00000KT 9999 FEW027TCU SCT050 28/24 Q1009=
METAR SBJR 112200Z 22002KT 9999 FEW025 30/24 Q1011=
METAR SBME 112200Z 06013KT CAVOK 28/22 Q1013=
METAR SBMK 112200Z 00000KT CAVOK 25/18 Q1017=
METAR SBMS 112200Z 04014KT 9999 FEW030 29/23 Q1011=
METAR SBMT 112200Z 13007KT 9999 BKN033 26/19 Q1018=
METAR SBRB 112200Z 13006KT 9999 -RA SCT020 FEW025TCU BKN100 ///// Q1009=
METAR SBSC 112200Z 25004KT 9999 FEW025TCU 30/20 Q1010=
METAR SBSM 112200Z 00000KT 9999 FEW008 BKN090 24/22 Q1015=
METAR SBST 112200Z 28006KT 9999 SCT022 SCT050 27/22 Q1012=
METAR SBTF 112200Z 02006KT 6000 -RA FEW020 SCT025TCU BKN100 27/24 Q1009=
METAR SBTK 112200Z 28006KT 9999 SCT030 30/24 Q1009=
METAR SBUL 112200Z 02006KT 9999 FEW045 25/16 Q1017=
METAR SBUR 112200Z 18005KT 9999 FEW045 SCT070 26/19 Q1016=
METAR SBVH 112200Z 10003KT 9999 SCT018 BKN090 22/20 Q1012=
METAR SBYS 112200Z 31002KT 9999 FEW045 26/20 Q1015=
00000000