0000046000
602
SSVF50 LFPW 112110 RRA
ZZYY 62074 11014 2110/ 747285 003285 22219 00101 11203 20120
21016=
ZZYY 62079 11014 2110/ 743403 001674 22219 00125 11403 20140
21017=
ZZYY 61289 11014 2110/ 143208 005230 22219 00130 10401 20040
21003=
ZZYY 62069 11014 2110/ 748290 004968 22219 00108 11204 20120
21018=
ZZYY 61191 11014 2110/ 142917 003125 22219 00126 10401 20040
21004=
ZZYY 62059 11014 2110/ 749695 001620 22219 10501 20050 21003=
0000010800
603
SSVF50 LFPW 112135 RRA
ZZYY 61188 11014 2135/ 142490 003168 22219 00126 10401 20040
21003=
0000010800
604
SSVF50 LFPW 112205 RRA
ZZYY 61188 11014 2205/ 142490 003168 22219 00126 10400 20040
21002=
0000023900
605
SNVD01 KWBC 111900 RRW
BBXX
42047 11191 99279 70936 46/// /3108 1//// 40171 91900 22200 00216
 333 91209 555 11090 22098=
42047 11191 99279 70936 46/// /3309 1//// 40171 91930 22200 00216
 333 91209 555 11097 22106=
0000063700
606
SNVD01 KWBC 112000 RRT
BBXX
42047 11201 99279 70936 46/// /3308 1//// 40171 92000 22200 00216
 333 91209 555 11091 22098=
42047 11201 99279 70936 46/// /3408 1//// 40170 92030 22200 00216
 333 91210 555 11096 22104=
42046 11201 99279 70940 46/// /3608 10176 40175 92030 22200 00216
 333 91209 555 11088 22096=
42046 11201 99279 70940 46/// /3408 10174 40173 57013 92000 22200
 00215 333 91209 555 11087 22095=
42044 11201 99262 70971 46/// /3504 1//// 40173 92030 22200 00141
 333 91205 555 11045 22048=
42044 11201 99262 70971 46/// /3603 1//// 40171 92000 22200 00141
 333 91204 555 11036 22039=
0000079100
607
SMER10 OMAM 111800
AAXX 11184
41200
17660 40206 10177 20149 30168 40205 52017 69933 761//
333 10158 20232=
41202
35/// /0606 10155 20128 30209 40220 52010 7////
333 10154 20208=
41203
15/// /0303 10181 20140 30201 40205 52010 69913 7////
333 10167 20206=
41206
15/// /3302 10168 20154 30154 40218 52004 69933 7////
333 10143 20231=
41207
35/// /0502 10176 20127 30217 40211 52006 7////
333 10165 20188=
41208 NIL=
41209
35/// /0604 10189 20118 39969 40208 52006 7////
333 10132 20234=
41210
37960 70205 10163 20151 30062 40209 52013 761//
333 10128 20231=
41211
15/// /0001 10172 20134 39965 40220 54000 69913 7////
333 10164 20209=
41216 41460 83606 10181 20154 30211 40215 76066 8251/ 333 10228
      58011 82615 87459=
0000011200
608
UANT99 KDDL 111855
ARP CFC4022 5154N01923W 1855 F280 MS45 186/97 KT
77702A QXT AOE 111855 F12A
0000011100
609
UANT99 KDDL 111856
ARP UAL111 5259N03038W 1856 F350 MS53 209/19 KT
N33103 DDL IG1 111856 F45A
0000016900
610
BMRR01 DEMS 111857
VTBB
AHD SMNP01 VNKT 111800=
AHD SMNP20 VNKT 111800=
AHD SMPK01 OPKC 111800=
AHD SMPK20 OPKC 111800=
AHD SMPK40 OPKC 111800=
0000008600
611
SAIN90 VOMD 111900
METAR VOMD 111900Z 05004KT 4000 HZ NSC 24/19 Q1015=
0000011400
612
SMIN51 DEMS 111800 RRB
AAXX 11184
42807 31995 40604 10180 20130 40176 70500 83031
  333 58015=
0000012800
613
SPSA85 EGRR 111847 RRD
SPECI SPQT 111842Z 33009KT 300V010 4000 SHRA SCT008 FEW030TCU BKN100
      26/23 Q1010=
0000034100
614
SASA85 EGRR 111900
METAR SBAR 111900Z 18010KT 9999 SCT015 28/21 Q1013=
METAR SBCY 111900Z 16003KT 9999 SCT020 FEW025TCU 23/21 Q1013=
METAR SBRF 111900Z 12004KT 9999 FEW007 SCT015 BKN070 25/23 Q1012=
METAR SUMU 111900Z 18015G25KT 9999 FEW040 20/09 Q1019 NOSIG=
METAR SVMG 111900Z /////KT 9999 FEW010 30/21 Q1013 NOSIG=
0000009300
615
SACY42 EGRR 111850
METAR LCRA 111850Z 30005KT 9999 FEW028 SCT045 15/09 Q1023=
0000059600
616
SAUK39 EGRR 111850
METAR EGQL 111850Z 26006KT CAVOK 00/M01 Q1017 BLU NOSIG=
METAR EGQM 111850Z AUTO 24010KT 9999 NCD 03/M00 Q1018=
METAR EGQS 111850Z 27013KT CAVOK 03/M00 Q1015 BLU=
METAR EGVN 111850Z 20001KT CAVOK 01/M00 Q1022 BLU NOSIG=
METAR EGVO 111850Z 26002KT CAVOK 01/M01 Q1023 BLU=
METAR EGWU 111850Z 25002KT CAVOK 01/M00 Q1023 BLU NOSIG=
METAR EGXC 111850Z 25008KT CAVOK 01/M00 Q1021 BLU=
METAR EGXT 111850Z AUTO 27005KT 9999 FEW240/// 01/M01 Q1022=
METAR EGXV 111850Z AUTO 28007KT 9999 NCD 04/01 Q1020=
METAR EGXW 111850Z 25008KT CAVOK 04/01 Q1021 BLU=
0000009000
617
SMSE01 LFVW 111800
AAXX 1118/
94997 46/// ///// 10023 39980 49995 5////=
0000010000
618
SNVC25 LFPW 111900
BBXX
BAREU08 11194 99330 50716 46/// ///// 40138 52000
22241=
0000009400
619
SNVD25 LFPW 111900
BBXX
BAREU13 11194 99508 70415 46/// ///// 4////
22264=
0000010000
620
SMAU04 AMMC 111800 RRC
AAXX 11184
94997 46/// ///// 10023 39980 49995 5////=


0000003900
621
SMVX10 RUMS 111800
NIL=
00000000