0000029200
342
SAUS71 KWBC 110900 RRG
METAR
KLCK 110935Z AUTO 16008KT 5SM RA SCT046 SCT050 OVC080 10/08
     A2961=
KMMU 110935Z AUTO 00000KT 1/2SM -RA OVC003 03/02 A3003=
KMYR 110935Z AUTO 19012KT 2 1/2SM OVC002 18/17 A3001=
KPQI 110935Z AUTO 13006KT 10SM FEW028 M11/M14 A3015=

0000009800
343
SAUS72 KWBC 110900 RRE
METAR
KLRU 110935Z AUTO 07004KT 10SM CLR 02/M08 A3016=

0000042500
344
SAUS73 KWBC 110900 RRF
METAR
KBJC 110935Z AUTO 29023G29KT 10SM CLR 05/M08 A2988=
KCIU 110935Z AUTO 12007KT 1SM OVC002 01/01 A2935=
KEGE 110935Z AUTO 27015G22KT 10SM OVC060 M01/M04 A3018=
KELO 110933Z AUTO 00000KT 7SM OVC006 M04/M05 A2937=
KGYY 110935Z AUTO 20007KT 4SM RA OVC005 06/05 A2945=
KJAC 110935Z AUTO 19009KT 9SM OVC025 01/M03 A3003=
KLBL 110935Z AUTO 27010KT 10SM CLR M02/M09 A2994=

0000014800
345
SAUS74 KWBC 110900 RRD
METAR
KIWA 110935Z AUTO 12007KT 10SM CLR 05/M01 A3017=
KOTH 110935Z 21020G35KT 3SM OVC012 12/12 A2988=

0000032400
346
SAUS75 KWBC 110900 RRC
METAR
PADK 110936Z AUTO 24027G44KT 3SM BKN015 BKN022 OVC027 03/01
     A2867=
PAGS 110936Z AUTO 00000KT 7SM OVC048 M01/M01 A2916=
PAUN 110936Z AUTO 09018KT 10SM CLR M16/M23 A2952=
PAVD 110936Z 10SM OVC100 M07/M09 A2923=
PHTO 110934Z AUTO 19004KT 10SM OVC030 19/19 A2998=

0000009000
347
SALY31 HLMC 110900 RRA
METAR HLLM 110850Z 19007KT 8000 NSC 19/08 Q1024=

0000025000
348
FTFR37 LFPW 110500 AAD
TAF AMD LFPB 110938Z 1109/1206 26003KT 4000 BR BKN035 PROB40 TEMPO
1109/1113 2500 BR BKN003 BECMG 1113/1115 7000 NSW BKN012 BECMG
1115/1117 BKN017 BECMG 1117/1119 01005KT PROB40 TEMPO 1200/1206 4000
BR=

0000024500
349
SAAO32 GOOY 110930
METAR GABS 110930Z 08007KT CAVOK 28/04 Q1016 NOSIG=
METAR GAGO 110930Z NIL=
METAR GAKY 110930Z NIL=
METAR GAKL 110930Z NIL=
METAR GAMB 110930Z NIL=
METAR GANR 110930Z NIL=
METAR GATB 110930Z NIL=

0000239700
350
FXCI03 BABJ 112100
112100UTC JAN 2014
IN ENGLISH
GUANGZHOU OBSY WEATHER REPORT =
NO WARNING IN RESPONSIBLE AREA =
MARINE WEATHER FORECAST FOR 24 HOURS FROM 120100Z =
TAIWAN STRAITS  = CLOUDY WITH SCATTER LIGHT RAIN WIND NE 17 TO 27 KTS GUSTS 28 TO 33 KTS SEAS MODE
RATE TO ROUGH  BUT WIND NE 28 TO 40 KTS GUSTS 41 TO 47 KTS SEA VERY ROUGH TO HIGH SEAS FROM BEFORE
 MIDNIGHT VIS 8 TO 16 KMS =
EAST GUANGDONG  = OVERCAST WITH SCATTER LIGHT RAIN WIND NE 17 TO 27 KTS GUSTS 28 TO 33 KTS SEAS MO
DERATE TO ROUGH  BUT WIND NE 28 TO 33 KTS GUSTS 34 TO 40 KTS SEA VERY ROUGH FROM TOMORROW MORNING
VIS 5 TO 15 KMS =
WEST GUANGDONG  = CLOUDY WITH LIGHT RAIN WINDS ELY 17 TO 21 KTS GUSTS 22 TO 27 KTS SEA MODERATE  B
UT WIND NE 22 TO 27 KTS GUSTS 28 TO 33 KTS SEA ROUGH FROM AFTER MIDNIGHT VIS 5 TO 15 KMS =
QIONGZHOU STRAITS  = CLOUDY WITH LIGHT RAIN WINDS ELY 17 TO 21 KTS GUSTS 22 TO 27 KTS SEA MODERATE
 VIS 5 TO 15 KMS =
BEIBU WAN GULF  = OVERCAST WITH SCATTER LIGHT RAIN WINDS ELY 17 TO 27 KTS GUSTS 28 TO 33 KTS SEAS
MODERATE TO ROUGH  BUT WINDS NLY 22 TO 33 KTS GUSTS 34 TO 40 KTS SEAS ROUGH TO VERY ROUGH FROM BEF
ORE MIDNIGHT VIS 5 TO 15 KMS =
SOUTHWEST HAINAN ISLAND  = OVERCAST WITH LIGHT RAIN WINDS NE TO E 17 TO 27 KTS GUSTS 28 TO 33 KTS
SEAS MODERATE TO ROUGH VIS 15 TO 30 KMS =
XISHA  = OVERCAST WITH LIGHT RAIN WIND NE 22 TO 33 KTS GUSTS 34 TO 40 KTS SEAS ROUGH TO VERY ROUGH
 VIS 15 TO 25 KMS =
DONGSHA  = CLOUDY TO OVERCAST WITH LIGHT RAIN WIND NE 28 TO 40 KTS GUSTS 41 TO 47 KTS SEA VERY ROU
GH TO HIGH SEAS VIS 10 TO 20 KMS =
BASHI  = CLOUDY WITH SCATTER SHOWERS WINDS ELY 22 TO 33 KTS GUSTS 34 TO 40 KTS SEAS ROUGH TO VERY
ROUGH VIS 10 TO 20 KMS =
ZHONGSHA  = CLOUDY WITH LIGHT RAIN WIND NE 28 TO 33 KTS GUSTS 34 TO 40 KTS SEA VERY ROUGH VIS 10 T
O 20 KMS =
NANSHA  = CLOUDY WITH LIGHT RAIN WIND NE 22 TO 27 KTS GUSTS 28 TO 33 KTS SEA ROUGH VIS 10 TO 20 KM
S =
VABELLA  = CLOUDY TO OVERCAST WITH LIGHT RAIN WIND NE 22 TO 33 KTS GUSTS 34 TO 40 KTS SEAS ROUGH T
O VERY ROUGH VIS 10 TO 20 KMS =
ST.JACQUES  = CLOUDY  WIND NE 17 TO 27 KTS GUSTS 28 TO 33 KTS SEAS MODERATE TO ROUGH  BUT WIND NE
28 TO 33 KTS GUSTS 34 TO 40 KTS SEA VERY ROUGH FROM THE EVENING VIS 10 TO 20 KMS =
ZENGMU ANSHA REEF  = OVERCAST WITH LIGHT RAIN WIND NE 17 TO 27 KTS GUSTS 28 TO 33 KTS SEAS MODERAT
E TO ROUGH VIS 8 TO 16 KMS =
0000217100
351
SZNZ01 NZKL 112142
CREX++
T000103 A001 D01021 D06025++
-3683144 17478654 AUCT  2014 01 11 21 34 //// 11 07 00 01
04297 3246 04292 3244 04288 3243 04283 3240 04278 3239 04275 3238+
-4402404 -17636748 CHIT  2014 01 11 21 34 //// 11 07 00 01
04447 1929 04443 1922 04460 1936 04464 1937 04437 1907 04410 1877+
-4089929 17623168 CPIT  2014 01 11 21 34 //// 11 07 00 01
03375 2307 03377 2307 03376 2303 03383 2307 03394 2315 03402 2319+
-3618905 17548887 GBIT  2014 01 11 21 34 //// 11 07 00 01
05169 -0012 05158 -0023 05152 -0027 05151 -0027 05163 -0014 05164 -0012+
-3867541 17802288 GIST  2014 01 11 21 34 //// 11 07 00 01
03456 2745 03457 2745 03463 2749 03454 2738 03472 2755 03465 2745+
-4241288 17370277 KAIT  2014 01 11 21 34 //// 11 07 00 01
02917 2265 02929 2273 02924 2265 02939 2277 02935 2268 02948 2278+
-3755040 17815904 LOTT  2014 01 11 21 34 //// 11 07 00 01
02884 0180 02883 0179 02883 0179 02878 0174 02877 0173 02880 0175+
-3704657 17451175 MNKT  2014 01 11 21 34 //// 11 07 00 01
03055 -0051 03031 -0068 03000 -0092 03036 -0050 03019 -0061 03002 -0070+
-3947566 17692007 NAPT  2014 01 11 21 34 //// 11 07 00 01
02514 2117 02490 2090 02497 2095 02485 2081 02504 2097 02492 2082+
-3441483 17304870 NCPT  2014 01 11 21 34 //// 11 07 00 01
-03757 -7664 -03759 -7663 -03787 -7688 -03933 -7830 -03982 -7876 -04153 -8045+
-4581435 17062939 OTAT  2014 01 11 21 34 //// 11 07 00 01
04437 3475 04442 3475 04449 3476 04453 3473 04461 3475 04465 3474+
-2928002 -17789440 RBCT  2014 01 11 21 34 //// 11 07 00 01
05602 2005 05611 2014 05616 2019 05631 2035 05623 2027 05604 2008+
-2925114 -17790384 RFRT  2014 01 11 21 34 //// 11 07 00 01
02508 0141 02486 0119 02500 0134 02517 0151 02515 0149 02494 0129+
-4357010 17277383 SUMT  2014 01 11 21 34 //// 11 07 00 01
01525 1855 01521 1846 01547 1867 01541 1855 01535 1843 01550 1854+
-3764109 17618118 TAUT  2014 01 11 21 34 //// 11 07 00 01
04472 3977 04470 3977 04469 3976 04469 3978 04469 3979 04468 3979+
-4128448 17477985 WLGT  2014 01 11 21 34 //// 11 07 00 01
02803 2051 02815 2059 02821 2063 02832 2070 02832 2067 02831 2062++
7777
0000010000
352
UAUS31 KWBC 112139
ARP UAL369 3244N 11530W 2132 F220 TB NOT REPORTED RM B752 OV IPL=
0000032000
353
UAPA01 KWBC 112139
ARP ASA875 30N 153W 2127 F360 MS59 228/051KT TB CONS LGT=
ARP ASA860 3500N 14515W 2129 F330 MS53 055/010KT TB SMTH=
ARP N48GL 25N 170E 2128 F410 MS55 295/061KT=
ARP ASA805 2842N 13926W 2127 F360 MS47 260/078KT TB OCNL LGT CHOP=
ARP UAL297 2600N 14610W 2129 F280 MS36 260/020KT=
0000193800
354
SSVX02 KARS 112136
ZZYY 14926 11014 2000/ 336277 033982 6111/
11119 40186 52010
22219 00228
444 2011/ 11014 1944/ 50101 80115 80016 9/015=
ZZYY 14923 11014 2000/ 334882 031541 6112/
11119 40189 52007
22219 00214
444 2012/ 11014 1945/ 50101 80116 80018 9/015=
ZZYY 14931 11014 2000/ 328828 033229 6112/
11119 40187 52019
22219 00266
444 2012/ 11014 1946/ 50101 80116 80019 9/015=
ZZYY 14922 11014 2000/ 338277 034841 6112/
11119 40177 52008
22219 00222
444 2012/ 11014 1944/ 50101 80119 80021 9/015=
ZZYY 17668 11014 2000/ 342106 006149 6112/
11119 40215 52006
22219 00115
444 20120 11014 2127/ 50101 80114 80009 9/015=
ZZYY 17667 11014 2000/ 548846 001259 6113/
11119 40180 52028
22219 00055
444 20130 11014 1828/ 50101 80113 80010 9/015=
ZZYY 15634 11014 1900/ 324855 002665 6112/
11119 40217 52012
22219 00215
444 20120 11014 1821/ 50101 80109 80007 9/015=
ZZYY 15634 11014 2000/ 324837 002664 6111/
11119 40221 52013
22219 00215
444 20110 11014 2038/ 50101 80109 80007 9/015=
ZZYY 17673 11014 2000/ 344254 008584 6112/
11119 40145 52042
22219 00095
444 20120 11014 2041/ 50101 80112 80014 9/015=
ZZYY 17670 11014 2030/ 342712 000045 6111/
11119 40261 52032
22219 00122
444 20110 11014 2027/ 50101 80112 80009 9/015=
ZZYY 17669 11014 2000/ 342526 010772 6112/
11119 40137 52027
22219 00107
444 20120 11014 2047/ 50101 80114 80009 9/015=
ZZYY 14924 11014 2000/ 337311 024044 6112/
11119 40165 52004
22219 00201
444 2012/ 11014 1945/ 50101 80116 80015 9/015=
ZZYY 14933 11014 2000/ 328107 037084 6113/
11119 40181 52015
444 2013/ 11014 1946/ 50101 80115 80017 9/015=
ZZYY 14927 11014 2000/ 338489 023971 6112/
11119 40143 52003
22219 00221
444 2012/ 11014 1944/ 50101 80116 80024 9/015=
ZZYY 14932 11014 2000/ 330529 032082 6111/
11119 40188 52015
22219 00259
444 2011/ 11014 1946/ 50101 80116 80021 9/015=
0000010900
355
UANT01 CWAO 112139
ARP DAL3 5231N04156W 2139 F360 MS56 288/67 KT
N827MH QXT AOW 112139 F46A
0000011500
356
SICN06 CWAO 112100 RRB
AAXX 11214
71841 25/// /3008 11051 21081 39544 49939 53013
333 60007=

0000046900
357
SIRA40 RUHB 112100
AAXX 11211
31152 12998 82001 11354 21398 39893 40354 58002 69902 84037 333 21354
47067=
31163 NIL=
31285 12999 82001 11323 21353 30165 40254 52006 69902 80007 333 21328
47085=
31561 12998 00000 11370 21408 30174 40203 52005 60002 333 21373
48038=
31683 12999 00000 11338 21362 30085 40169 54000 60002 333 21338
47022=
32069 11595 71004 11259 21284 30131 40137 58003 60022 78682 87900 333
21259 48020 91006 91108=
0000013900
358
SSVX02 CWAO 112100
ZZYY 64739 11014 2100/ 765967 013001 6112/ 22219 
00041 444 20130 11014 2100/ 50101 80148 80015 9/015=
0000013900
359
SSVX02 CWAO 112100
ZZYY 64736 11014 2100/ 168517 005544 6113/ 22219 
00066 444 20130 11014 2100/ 50101 80142 80002 9////=
0000012700
360
SSVX02 CWAO 112130
ZZYY 47573 11014 2130/ 770970 100709 6113/ 444 
20130 11014 2130/ 50101 80134 80001 9////=
0000016000
361
SSVX02 CWAO 112100
ZZYY 56950 11014 2100/ 307883 103210 6113/ 11119 
40083 57008 22219 00290 444 20130 11014 2100/ 50101 80146 80015 
9/015=
00000000