0000069200
645
SAIR31 OIII 111430
METAR OIAW 111430Z 20004KT 1000 RA SCT020CB SCT010 OVC070 12/12
Q1016=
METAR OIFM 111430Z VRB02KT 0250 -SN FG SCT035 OVC090 M00/M00 Q1018
      A3008=
METAR OIII 111430Z 30006KT 1200 BR SCT030 OVC090 01/M01 Q1019
 A3010 TEMPO 0500 BR FEW035CB SCT030 BKN100=
METAR OIKB 111430Z 28006KT 6000 FEW025CB SCT030 OVC100 13/11 Q1021
A3016=
METAR OIKK 111430Z NIL=
METAR OIMM 111430Z 17006KT CAVOK 06/M13 Q1017 A3004=
METAR OISS 111430Z 09004KT 1500 BR FEW030CB SCT035 OVC080 04/03
Q1018 A3009=
METAR OITT 111430Z 25004KT 5000 HZ FEW035 SCT180 M05/M11 Q1020
A3014=
METAR OIZH 111430Z 12010KT 9999 FEW035 BKN090 04/M06 Q1020 A3013
NOSIG=
0000039900
646
SAIR32 OIII 111430
METAR OIAA 111430Z 28004KT 9999 SCT040 BKN100
13/09 Q1017=
METAR OIBK 111430Z NIL=
METAR OICC 111430Z 00000KT 5000 BR FEW030CB SCT035 OVC070
00/M01 Q1018 A3008=
METAR OIGG 111430Z 00000KT 3000 BR FEW030 BKN160 07/06
Q1013=
METAR OIIE 111430Z NIL=
METAR OITR 111430Z NIL=
METAR OIYY 111430Z NIL=
METAR OAKN 111430Z NIL=
METAR OAKB 111430Z NIL=
0000038400
647
SAIR33 OIII 111430
METAR OIBB 111430Z 13012KT 5000 RA FEW025 FEW030CB SCT035 OVC070
13/11 Q1016 A3002=
METAR OIBP 111430Z 11004KT 5000 -RA SCT020 FEW025CB
OVC080 14/13 Q1018 A3008=
METAR OICK 111430Z NIL=
METAR OICS 111430Z NIL=
METAR OIHH 111430Z NIL=
METAR OINZ 111430Z NIL=
METAR OISR 111430Z NIL=
METAR OITL 111430Z NIL=
METAR OIZC 111430Z NIL=
0000013600
648
SNVD17 CWVR 111400
BBXX
46132 11141 99497 71279 46/// /1910 10076 49825 57044
22200 00075 10907 70035 333 91213 =

0000010700
649
UANT99 KDDL 111432
ARP AAL211 53N030W 1433 F350 MS56 168/54 KT
N185AN DDL XXN 111432 F41A
0000011000
650
UANT99 KDDL 111432
ARP DLH426 5401N01600W 1432 F360 MS64 232/86 KT
DAIGY QXT AOE 111432 J05A
0000011000
651
UANT99 KDDL 111433
ARP ACA871 5201N01601W 1433 F320 MS56 221/72 KT
CFNNQ DDL BYT 111433 F03A
0000010900
652
UANT99 KDDL 111433
ARP KLM17 5202N01926W 1433 F350 MS62 202/91 KT
PHAOC QXT AOE 111433 J19A
0000011000
653
UANT99 KDDL 111433
ARP MSR985 4430N01611W 1432 F330 MS55 235/75 KT
SUGDL QXT AOE 111433 F21A
0000011000
654
UANT01 CWAO 111432
ARP DAL99 4956N04717W 1432 F320 MS58 283/54 KT
N833MH QXT AOW 111432 F36A
0000024800
655
UAPA01 KWBC 111433
ARP UAL383 3024N 14042W 1425 F360 MS48 258/052KT=
ARP CKS368 2600N 14610W 1426 F320 MS43 250/045KT=
ARP AWE675 2517N 14531W 1427 F370 MS48 240/073KT TB SMTH=
ARP AAR607 2100N 13749E 1428 F330 MS37 266/030KT=
0000011000
656
UANT01 CWAO 111432
ARP DLH410 5100N01940W 1432 F370 MS61 206/79 KT
DAIKQ QXT EUA 111432 J48A
0000136400
657
SSVX08 KARS 111432
ZZYY 41139 10014 12004 720011 037854 6111/
11119 00712 10215 29077 40201
22219 00240
33311 88872 20000 32402 20001 32404 43696 20020 32402 43706
20040 32402 43702 20060 32404 43704 20080 32410 20100 32351
20120 32230 20140 32151 20180 31985 20300 31610 20500 31215
444 20110 10014 1145/ 521// 60401=
ZZYY 41139 11014 12004 720010 037861 6112/
11119 00707 10233 29070 40201
22219 00241
444 20120 11014 1130/ 521// 60401=
ZZYY 23004 10014 12004 100061 090182 6111/
11119 00702 10291 29068
22219 00297
33311 88872 20000 32965 20001 32930 43404 20080 32865 20100 32838
20120 31960 20180 31439 20300 31155 20500 30972
444 20110 10014 1216/ 521// 60401=
ZZYY 23009 10014 12004 114998 089943 6111/
11119 00409 10255 29078 40126
22219 00271
33311 88872 20000 32708 20001 32711 43333 20020 32712 43343
20040 32715 43359 20060 32710 43364 20080 32672 20100 32346
20120 32051 20140 31773 20180 31447 20300 31143 20500 30984
444 20110 10014 1204/ 521// 60401=
ZZYY 23008 10014 12004 112077 088820 6111/
11119 00610 10265 29078
33311 88872 20020 32729 43378 20040 32725 43380 20060 32731 43442
20080 32442 20100 32166 20120 31984 20140 31812 20180 31508
20300 31168 20500 30991
444 20110 10014 1204/ 521// 60401=
ZZYY 23008 11014 14004 112088 088823 6111/
11119 00615 10269 29085=
0000011000
658
UANT01 CWAO 111433
ARP AFR682 4759N04400W 1433 F350 MS61 298/53 KT
FGSPP QXT AOW 111433 F30A
0000011000
659
UANT01 CWAO 111433
ARP BAW43C 5208N02652W 1433 F360 MS54 195/61 KT
GVIIR QXT AOE 111433 F15A
0000011000
660
UANT01 CWAO 111433
ARP DAL81 5216N03802W 1433 F340 MS59 293/48 KT
N172DN QXT AOW 111433 F83A
0000011000
661
UANT01 CWAO 111433
ARP AFR650 4901N01941W 1433 F320 MS53 193/83 KT
FGZNG QXT AOE 111433 F18A
0000011000
662
UANT01 CWAO 111433
ARP SWR26L 4527N04544W 1433 F380 MS62 302/48 KT
HBJHA QXT AOW 111433 J32A
0000011000
663
UANT01 CWAO 111433
ARP KLM723 4956N04404W 1433 F380 MS62 295/51 KT
PHAOA QXT AOW 111433 J42A
0000034100
664
USVX01 RJTD 111200
UUAA JGQH 61121 99305 11370 13107
99027 12661 31010 00230 10660 30511 92871 04446 30012 85553 01342
27016 70088 03761 28526 50569 16370 25570 40736 20388 26101 30945
30382 26630 25072 407// 26632 20221 523// 26640 15401 657// 26125
10643 755// 25575
88999
77203 26640
31313 47908 81131 90190=
00000000