0000011100
695
UANT01 CWAO 111500
ARP AAL113 4647N03304W 1500 F330 MS49 298/44 KT
N393AN DDL XXN 111500 F71A
0000006600
696
UGAH10 OAKN 111200
PPBB 61128 40990
900// 05012=
0000275500
697
SIDL21 EDZW 111500
AAXX 11151
10004 46/59 /2814 10071 20027 30104 40104 53017
222// 00079
  333 55305 91117 91214=
10015 21582 63111 10070 20032 30081 40091 53026 72562 83830
  333 55300 20107 30106 60037 82827 85362 91119 91213 96465=
10020 27987 83110 10059 20029 30036 40068 51020 70065
  333 55300 20026 30026 69947 86/58 88/60 88/63 91114 91212=
10035 21465 83207 10043 20025 30003 40062 53001 76166 875//
  333 55300 20042 30042 41186 60037 83615 87630 91115=
10055 21456 82408 10054 20047 30036 40046 56022 76366 888//
  333 55300 20011 30010 60017 85813 88620=
10147 21359 82506 10056 20044 30056 40074 56016 76066 877//
  333 55300 20023 30021 41231 60027 82707 87709 91113=
10162 27450 82308 10053 20041 39993 40066 56020 76265
  333 55300 20035 30035 69927 88/14=
10184 21562 82205 10060 20033 30057 40065 56027 76062 888//
  333 55300 20031 30031 69917 83821 88633=
10200 27581 82806 10062 20048 30113 40111 53023 72365
  333 55300 20080 30080 69967 85/20 87/62 88/65 91114=
10224 21465 72607 10054 20044 30095 40101 53002 72165 875//
  333 55300 20058 30058 69997 81710 87650 91114=
10270 36660 82104 10064 20014 30046 40101 57020
  222// 06043
  333 55300 84/33 86/60 88/62=
10338 21458 82506 10061 20047 30037 40110 56012 76162 885//
  333 55300 20017 30017 69977 84617 88520=
10361 32786 72204 10071 20025 30008 40112 57021 8357/
  333 55305 20279 30164 83650 87359=
10393 32981 22306 10056 20015 39986 40113 58018 82040
  333 55310 20252 30080 82363=
10400 21462 62607 10069 20049 30117 40167 53015 72162 86500
  333 55300 20069 30068 69977 84612 86640=
10469 32485 32106 10059 20025 39965 40131 58016 81141
  333 55306 81812=
10488 32784 52203 10066 20003 39857 40139 56016 82588
  333 55300 20117 30116 41060 82656 84362 85276=
10506 21373 72706 10069 20037 39584 40167 55002 76122 878//
  333 55301 20155 30137 69907 83808 87625 91113=
10548 31250 41704 10013 20008 39615 40168 56010 71011 83630
  333 55300 20117 30116 83706=
10637 21258 72104 10038 20029 30038 40178 56008 70362 876//
  333 55300 69907 81704 87705=
10685 22770 82407 10021 20001 39474 40158 58008 885//
  333 55300 20138 30138 69907 88656=
10738 21265 70101 10036 20033 39722 40200 53006 72162 878//
  333 55300 69907 81706 83638 86647 96460=
10763 21562 81902 10042 20031 39794 40182 55002 70262 875//
  333 55300 20084 30084 69947 87628=
10788 27435 81102 10023 20021 39754 40195 55000 75765
  333 55300 20024 30024 60027 84/12 88/22=
10852 27650 72201 10058 20053 39620 40193 53006 72365
  333 55300 20075 30075 69957 85/34 87/50 87/56=
10946 27672 72103 10075 20036 39368 40198 51013 76160
  333 55300 20139 30138 69907 86/45 87/57 87/59=
0000256500
698
SIDL22 EDZW 111500
AAXX 11151
10007 46/60 /3012 10072 20025 30097 40097 53026
222// 00071
  333 553// 91121 91215=
10044 46/// /3114 10046 20032 30025 40057 55005
222// 00055
  333 55300 91121 91217=
10046 27476 83009 10048 20034 30030 40064 55004 76166
  333 55300 60037 83/10 87/20 88/35 91115=
10091 21357 82410 10050 20045 39998 40049 56027 76366 877//
  222// 06053
  333 55300 20024 30023 69937 87709 91115 91211=
10113 21575 53111 10067 20038 30090 40109 53029 72522 83930
  333 55300 20128 30128 69937 82920 83360 91118 91215=
10124 46/// ///// 10070 20057 30047 40085 53020
222// 0////
  333 553//=
10131 21281 63006 10055 20031 30072 40087 53010 72162 868//
  333 55300 20043 30042 69997 81706 87650 91116 91211=
10170 21456 82106 10055 20039 30043 40059 56024 76162 885//
  333 55300 20038 30038 69967 88616 91113=
10264 27557 72205 10059 20026 39971 40078 57022 76165
  333 55300 20062 30062 69907 87/24=
10291 32786 62205 10065 20016 30026 40094 56023 81550
  333 55303 20147 30115 81656 85361=
10315 21340 72707 10058 20049 30073 40138 53008 75962 877//
  333 55300 20013 30013 60017 87708=
10379 32981 62205 10057 20018 39989 40111 56018 86050
  333 55304 20205 30112 41006 86362=
10381 NIL=
10382 32982 62105 10069 20007 30062 40107 56018 86051
  333 55303 20140 30065 83663=
10384 NIL=
10427 21150 82509 10019 20017 39123 48426 56011 75842 878//
  333 55300 20029 30029 69907 87803 91116=
10430 27450 82507 10058 20045 39938 40131 55007 76265
  333 55300 20008 30008 69977 83/12 86/18 88/23 91115=
10439 NIL=
10453 41/65 72419 11018 21018 38763 48394 56020 74144 876//
  333 55300 877// 91125 90228 91218 91220=
10496 35987 02304 10068 20014 30041 40126 58017
  333 55306 20231 30118=
10499 32870 62106 10041 20009 39852 40146 58012 85071
  333 55300 20110 30110 83357 85460=
10505 21365 72708 10058 20044 39897 40181 53019 72162 872//
  333 55300 20078 30076 60017 87807 91114 91211=
10513 21461 82907 10069 20054 30045 40167 53012 78022 873//
  333 55300 20021 30021 60017 82915 87622=
10532 37956 01402 10046 20039 39908 40159 56014 71030
  333 55310 20421 30175=
10544 31/02 92509 10007 20007 39065 48439 56009 74142
  333 55300 91115 96441=
10554 32580 52307 10054 20020 39753 40143 56011 81170
  333 55301 20243 30225 81825 85358 98884=
10567 32883 72106 10050 20013 39766 40145 57013 8703/
  333 55302 20189 30135 87358=
10578 41/00 92512 11016 21016 38737 48433 58013 74974
  333 55300 20086 30085 91117 91214=
0000007600
699
UACH01 SCEL 111456
ARP LAN455 ALBAL 1408 F245 MS23 160/11KT=
0000768000
700
SSVX02 KARS 111457
ZZYY 56558 11014 1200/ 328271 109279 6112/
444 2012/ 11014 1343/ 50101 80064 80000 9/015=
ZZYY 56567 11014 1200/ 331696 107695 6111/
11119 40171 52012
444 2011/ 11014 1140/ 50101 80078 80029 9/015=
ZZYY 56568 11014 1200/ 329126 110572 6111/
11119 40120 52005
22219 00218
444 2011/ 11014 1141/ 50101 80113 80001 9/015=
ZZYY 56554 11014 1200/ 326896 102578 6113/
11119 40174 52014
22219 00223
444 2013/ 11014 1139/ 50101 80107 80035 9/015=
ZZYY 56603 11014 1200/ 332948 109190 6112/
11119 40162 57002
444 2012/ 11014 1343/ 50101 80106 80030 9/015=
ZZYY 56608 11014 1353/ 311947 131565 6112/
22219 00314
444 20120 11014 1356/ 50101 80104 80032 9/015=
ZZYY 55947 11014 1352/ 312034 132260 6112/
22219 00315
444 20120 11014 1349/ 50101 80104 80009 9/015=
ZZYY 56610 11014 1353/ 318838 119910 6111/
22219 00299
444 20110 11014 1003/ 50101 80104 80020 9/015=
ZZYY 56565 11014 1200/ 331682 107826 6111/
11119 40169 52009
444 2011/ 11014 1141/ 50101 80100 80030 9/015=
ZZYY 56606 11014 1352/ 313936 126670 6111/
22219 00309
444 20110 11014 1344/ 50101 80104 80005 9/015=
ZZYY 56566 11014 1200/ 330209 103084 6113/
11119 40197 52007
444 2013/ 11014 1142/ 50101 80109 80026 9/015=
ZZYY 56551 11014 1300/ 319174 109854 6111/
11119 40104 52017
22219 00276
444 2011/ 11014 1353/ 50101 80107 80025 9/015=
ZZYY 56551 11014 1200/ 319174 109854 6111/
11119 40098 52017
22219 00277
444 2011/ 11014 1353/ 50101 80107 80034 9/015=
ZZYY 56557 11014 1200/ 332189 106620 6112/
11119 40182 52014
22219 00215
444 2012/ 11014 1141/ 50101 80111 80028 9/015=
ZZYY 56553 11014 1300/ 324642 106420 6111/
11119 40138 52013
444 2011/ 11014 1348/ 50101 80109 80041 9/015=
ZZYY 56553 11014 1200/ 324646 106394 6112/
11119 40132 52008
444 2012/ 11014 1141/ 50101 80109 80031 9/015=
ZZYY 55945 11014 1354/ 311461 139493 6113/
22219 00305
444 20130 11014 1259/ 50101 80104 80019 9/015=
ZZYY 56903 11014 1354/ 318942 119860 6112/
22219 00300
444 20120 11014 1403/ 50101 80104 80006 9/015=
ZZYY 56559 11014 1300/ 320587 104285 6111/
11119 40127 52018
22219 00248
444 2011/ 11014 1137/ 50101 80111 80027 9/015=
ZZYY 56559 11014 1200/ 320587 104285 6111/
11119 40122 52015
22219 00248
444 2011/ 11014 1137/ 50101 80111 80023 9/015=
ZZYY 56560 11014 1300/ 319602 103422 6111/
11119 40126 52025
22219 01023
444 2011/ 11014 1353/ 50101 80112 80027 9/015=
ZZYY 56560 11014 1200/ 319639 103416 6111/
11119 40118 52016
22219 01023
444 2011/ 11014 1139/ 50101 80112 80028 9/015=
ZZYY 56556 11014 1200/ 323739 110956 6113/
11119 40101 52008
444 2013/ 10014 1745/ 50101 80102 80061 9/015=
ZZYY 41566 11014 1330/ 726697 049832 6113/
22219 00243
33311 88872 20000 32432 43746
444 50101 80011 80102 9/015=
ZZYY 41602 11014 1430/ 730677 043220 6113/
22219 00217
33311 88872 20000 32168 43690
444 50101 80017 80102 9/015=
ZZYY 41602 11014 1400/ 730675 043219 6113/
22219 00217
33311 88872 20000 32167 43691
444 50101 80021 80102 9/015=
ZZYY 15647 11014 1453/ 711978 064028 6111/
22219 00248
444 20110 11014 1353/ 50101 80102 80007 9/015=
ZZYY 13581 11014 1453/ 714789 076834 6112/
22219 00277
444 20120 11014 1353/ 50101 80090 80014 9/015=
ZZYY 43525 11014 1400/ 724233 094332 6112/
22219 00229
444 20120 11014 1229/ 50101 80109 80004 9/015=
ZZYY 41683 11014 1430/ 723216 051369 6113/
22219 00245
33311 88872 20000 32446 43730
444 50101 80010 80100 9/015=
ZZYY 41683 11014 1400/ 723217 051369 6113/
22219 00244
33311 88872 20000 32444 43730
444 50101 80007 80100 9/015=
ZZYY 13650 11014 1453/ 717023 077783 6113/
22219 00295
444 20130 11014 1053/ 50101 80102 80011 9/015=
ZZYY 41913 11014 1453/ 727387 077682 6112/
22219 00246
444 20120 11014 1447/ 50101 80102 80009 9/015=
ZZYY 41918 11014 1453/ 736922 067679 6113/
22219 00207
444 20130 11014 1446/ 50101 80100 80015 9/015=
ZZYY 41912 11014 1453/ 735432 062204 6112/
22219 00208
444 20120 11014 1446/ 50101 80102 80030 9/015=
ZZYY 41915 11014 1453/ 725322 071578 6111/
22219 00253
444 20110 11014 1447/ 50101 80102 80027 9/015=
ZZYY 13522 11014 1454/ 720508 056097 6111/
22219 00259
444 20110 11014 1356/ 50101 80102 80007 9/015=
ZZYY 41855 11014 1449/ 740037 061664 6113/
22219 00200
444 20130 11014 1445/ 50101 80102 80009 9/015=
ZZYY 41854 11014 1454/ 732919 073835 6112/
444 20120 11014 1446/ 50101 80102 80005 9/015=
ZZYY 41614 11014 1450/ 727172 071819 6111/
22219 00254
444 20110 11014 1447/ 50101 80070 80009 9/015=
ZZYY 41714 11014 1430/ 726264 056039 6113/
22219 00245
33311 88872 20000 32448 43685
444 50101 80002 80106 9/015=
ZZYY 41714 11014 1400/ 726264 056037 6113/
22219 00245
33311 88872 20000 32448 43686
444 50101 80002 80106 9/015=
ZZYY 41572 11014 1453/ 723151 055739 6112/
22219 00251
444 20120 11014 1354/ 50101 80102 80007 9/015=
ZZYY 41719 11014 1430/ 723026 053991 6113/
22219 00251
33311 88872 20000 32510 43734
444 50101 80005 80104 9/015=
ZZYY 41719 11014 1400/ 723028 053988 6113/
22219 00251
33311 88872 20000 32509 43734
444 50101 80005 80104 9/015=
ZZYY 41509 11014 1451/ 727203 065682 6112/
22219 00248
444 20120 11014 1354/ 50101 80102 80015 9/015=
ZZYY 41565 11014 1452/ 728982 058952 6112/
22219 00233
444 20120 11014 1447/ 50101 80102 80003 9/015=
ZZYY 41505 11014 1453/ 728870 068377 6112/
22219 00239
444 20120 11014 1446/ 50101 80100 80006 9/015=
ZZYY 41592 11014 1452/ 737230 047335 6112/
22219 00192
444 20120 11014 1445/ 50101 80100 80011 9/015=
ZZYY 41503 11014 1453/ 726181 066935 6111/
22219 00250
444 20110 11014 1447/ 50101 80100 80004 9/015=
ZZYY 41504 11014 1454/ 734572 066468 6113/
22219 00211
444 20130 11014 1446/ 50101 80102 80009 9/015=
ZZYY 41702 11014 1431/ 729470 053396 6113/
22219 00228
33311 88872 20000 32282 43688
444 50101 80003 80104 9/015=
ZZYY 41702 11014 1401/ 729471 053397 6113/
22219 00228
33311 88872 20000 32282 43688
444 50101 80003 80104 9/015=
ZZYY 41856 11014 1453/ 738822 049135 6112/
22219 00177
444 20120 11014 1445/ 50101 80100 80034 9/015=
ZZYY 41564 11014 1200/ 726620 075817 6112/
11119 40216
22219 00254
444 2012/ 11014 1051/ 50101 80102 80008 9/015=
ZZYY 41567 11014 1431/ 726459 058716 6113/
22219 00245
33311 88872 20000 32445 43682
444 50101 80003 80100 9/015=
ZZYY 41567 11014 1401/ 726463 058715 6113/
22219 00244
33311 88872 20000 32442 43682
444 50101 80004 80100 9/015=
ZZYY 41982 11014 1449/ 738491 064989 6112/
22219 00163
444 20120 11014 1352/ 50101 80106 80037 9/015=
ZZYY 41991 11014 1447/ 740238 065611 6112/
444 20120 11014 1352/ 50101 80104 9/015=
ZZYY 41983 11014 1454/ 739346 067472 6112/
22219 00155
444 20120 11014 1446/ 50101 80104 80034 9/015=
ZZYY 41580 11014 1430/ 722926 052619 6113/
22219 00249
33311 88872 20000 32486 43737
444 50101 80011 80082 9/015=
ZZYY 41580 11014 1400/ 722927 052617 6113/
22219 00249
33311 88872 20000 32485 43737
444 50101 80011 80084 9/015=
ZZYY 13528 11014 1453/ 724993 054879 6113/
22219 00246
444 20130 11014 1353/ 50101 80100 80007 9/015=
ZZYY 41986 11014 1452/ 728102 050139 6112/
22219 00238
444 20120 11014 1353/ 50101 80094 80003 9/015=
ZZYY 41562 11014 1400/ 730233 072045 6111/
11119 40254
22219 00218
444 2011/ 11014 1446/ 50101 80100 80051 9/015=
ZZYY 41976 11014 1454/ 737314 073782 6111/
22219 00163
444 20110 11014 1352/ 50101 80104 80042 9/015=
ZZYY 41978 11014 1452/ 736909 073161 6111/
22219 00176
444 20110 11014 1306/ 50101 80104 80027 9/015=
0000016000
701
SSVX13 KARS 111457
ZZYY 56930 11014 1200/ 312518 093369 6111/
11119 40101 52011
22219 00279
444 2011/ 11014 1405/ 50101 80109 80000 9/015=
0000011000
702
SAGD31 TGPY 111500
METAR TGPY 111500Z 11016KT 9999 FEW018TCU 28/22 Q1017 NOSIG
TCU-NE,SE,SW=
0000016000
703
SSVX13 LFVW 111500
ZZYY 17572 11014 1500/ 537943 171780 6110/
11119 40148 57008
22219 00208
444 20100 11014 1456/ 50101 80110 80000 9/015=
0000018400
704
SSVX13 LFPW 111500
ZZYY 41736 11014 1500/ 712011 040321 6113/ 11119 40156 57008 22219
 00257 33300 88872 20000 43603 444 20130 11014 1500/ 50101 80112
 80021 9/015=
0000016300
705
SSVX13 LFPW 111500
ZZYY 13591 11014 1500/ 722947 066422 6113/ 22219 00262 33300 88872
 20000 43607 444 20130 11014 1500/ 50101 80106 80013 9/015=
0000015700
706
SSVX13 LFPW 111500
ZZYY 16593 11014 1500/ 338668 079097 6113/ 11119 40212 52010 22219
 00148 444 20130 11014 1500/ 50101 80120 80013 9/015=
0000011100
707
UANT01 CWAO 111500
ARP AWE705 4901N04348W 1500 F360 MS62 295/53 KT
N270AY DDL XXN 111500 J19A
0000010900
708
UANT01 CWAO 111500
ARP VIR21G 5242N03408W 1500 F360 MS57 220/9 KT
GVGBR DDL XXF 111500 J77A
0000010900
709
UANT01 CWAO 111500
ARP DAL2 5401N02004W 1500 F320 MS57 201/69 KT
N842MH QXT AOE 111500 F15A
0000309000
710
SSVX02 KARS 111458
ZZYY 15647 11014 1456/ 711978 064028 6111/
22219 00248
444 20110 11014 1353/ 50101 80102 80007 9/015=
ZZYY 13581 11014 1456/ 714789 076834 6112/
22219 00277
444 20120 11014 1353/ 50101 80090 80014 9/015=
ZZYY 31519 11014 1455/ 723422 070033 6111/
22219 00264
444 20110 11014 1045/ 50101 80074 80035 9/015=
ZZYY 41685 11014 1330/ 726141 055452 6113/
22219 00247
33311 88872 20000 32469 43696
444 50101 80002 80102 9/015=
ZZYY 13650 11014 1456/ 717020 077778 6112/
22219 00295
444 20120 11014 1451/ 50101 80102 80011 9/015=
ZZYY 41913 11014 1456/ 727387 077681 6112/
22219 00246
444 20120 11014 1447/ 50101 80102 80009 9/015=
ZZYY 41918 11014 1456/ 736922 067679 6113/
22219 00207
444 20130 11014 1446/ 50101 80100 80015 9/015=
ZZYY 41912 11014 1457/ 735432 062204 6112/
22219 00208
444 20120 11014 1446/ 50101 80102 80030 9/015=
ZZYY 41911 11014 1457/ 728828 078261 6111/
22219 00235
444 20110 11014 1447/ 50101 80102 80014 9/015=
ZZYY 41854 11014 1455/ 732918 073831 6112/
444 20120 11014 1446/ 50101 80102 9/015=
ZZYY 32732 11014 1457/ 705305 082534 6111/
22219 00277
444 20110 11014 1227/ 50101 80102 80034 9/015=
ZZYY 32733 11014 1457/ 705274 084658 6113/
22219 00284
444 20130 11014 1227/ 50101 80102 80044 9/015=
ZZYY 41614 11014 1456/ 727177 071829 6112/
22219 00254
444 20120 11014 1447/ 50101 80070 80006 9/015=
ZZYY 41553 11014 1457/ 730945 062205 6112/
22219 00225
444 20120 11014 1447/ 50101 80100 80010 9/015=
ZZYY 41572 11014 1456/ 723151 055737 6112/
22219 00251
444 20120 11014 1451/ 50101 80102 80007 9/015=
ZZYY 41509 11014 1457/ 727212 065686 6112/
22219 00248
444 20120 11014 1448/ 50101 80102 80015 9/015=
ZZYY 41565 11014 1454/ 728982 058962 6113/
22219 00233
444 20130 11014 1447/ 50101 80102 80002 9/015=
ZZYY 41505 11014 1456/ 728869 068371 6112/
22219 00239
444 20120 11014 1446/ 50101 80100 80006 9/015=
ZZYY 41504 11014 1457/ 734572 066466 6113/
22219 00211
444 20130 11014 1446/ 50101 80102 80009 9/015=
ZZYY 41718 11014 1430/ 728313 050015 6113/
22219 00237
33311 88872 20000 32367 43665
444 50101 80002 80104 9/015=
ZZYY 41718 11014 1400/ 728314 050016 6113/
22219 00237
33311 88872 20000 32367 43668
444 50101 80002 80104 9/015=
ZZYY 41564 11014 1100/ 726620 075817 6112/
11119 40211
22219 00254
444 2012/ 11014 1051/ 50101 80102 80011 9/015=
ZZYY 32924 11014 1457/ 705026 077658 6113/
22219 00270
444 20130 11014 1354/ 50101 80100 80027 9/015=
ZZYY 32619 11014 1455/ 704271 079664 6112/
444 20120 11014 1355/ 50101 8//// 80016 9/015=
ZZYY 32548 11014 1456/ 706102 081023 6113/
22219 00284
444 20130 11014 1356/ 50101 80102 80002 9/015=
ZZYY 41991 11014 1456/ 740238 065611 6112/
22219 00147
444 20120 11014 1352/ 50101 80104 80038 9/015=
ZZYY 41983 11014 1457/ 739346 067472 6112/
22219 00155
444 20120 11014 1446/ 50101 80104 80034 9/015=
ZZYY 42560 11014 1430/ 709719 080354 6113/
22219 00279=
ZZYY 42560 11014 1130/ 709700 080427 6113/
22219 00277=
0000011100
711
UANT99 KDDL 111459
ARP UAL133 5000N03006W 1459 F310 MS47 224/26 KT
N76064 DDL XXN 111459 F84A
0000008600
712
SAYE20 OYSN 111500
METAR OYSN 111500Z 27010KT 9999 BKN030 19/03 Q1026=
0001269400
713
SFUK45 EGRR 111440
2YR SFUK45_EGRR_111440.DAT }}ˎu\OqN޼	eÈnD1=j( KiYZk|uȏ㟿?O?/?Z˧Oo~Oտe_7/;~wŏ͟_}/_?}o\Oyo}?}?[۟~/jRoeԷFo}ۯ߰5[ٻކ p{fz[]m쀙M{Y}}Jd'^b͡5˻MQްπ{_Ē@~[lVS|/t`oaՒVqfG-Pͅ;Wcsiou׶R	Ječ[uosٻg2l6SqfoA+߷rúo֫6?ϚLY:=A.mw#4[{k2~2J=:kEWn`Vר-P
KqqĉbHc<ϷKWYYK\a6`N0 F{ڨ7_VF\;Xni汯!Jtu`0NΆ]k?rfA>AE C7ܻ[Ot@⛬oZ\	ZU!iEFY HsYt8~kCu(Z(@q"*ju4#:a7(%|A_a&ׄTY [!`-Ln0de9%8>Syu2bi #Nvޠyzq67kA - S:oJHG a}\9߼4|x *H2}QA$0)
q0ّ.0D04ǃJAX[3LgH^T0im%R؄n(	<w϶	ٽ Nŏ:KZԩ+qٽ/HB)CDX	uBApLlɩPE_-
¤0dN%Hڈ}R::4wH}4֑;Q`2BR>"vJYZldt4	G]2̄~98pGB0Aj6YÁdub6]eHE6Kp5[ҠɱQ=!9ݠ,޺n4J|XC~C"D^1TѰϋ2¨GFl`Yq4;NNA	Sچ/hkuJd(h`p5uKnR5WF0a7q_jb1T7ڸ̌J:%HǱ^gX%c$v*31Ih9\sƙp9hn$%H I(&I
O=TQ_PLmOI{mɶu`x_ f`	VW|8>%1o(?%5Wi/?XXy䆰u4LG9Uz0L*(aⰲ1<YUwA`;L]$|cR܄)-	ۼN{X
%Ɛ0?BC
W(́5u5ϑox11{}Z,-.X$q(܄u2m:MzAn^{lK{0#``WK%gJ	]vf԰D8-T4a^*lBk^#UV]J C4Hw9O4#L#A}=..DaQ~yqI@f,,.[ܴJ7g񝫦ڛ8B|ia6 #lmKubAtAr9U|]r}`ړܻ ̥a
-(ikxyKq/ö́МݝZ@Ѥ8JץzѹI#<AmEԡ+aة=fp%ؖ
@t)!q+b
`f[-3`kC82#[I8ȾD1!bCrE!%ifZ0Vx"Cz8!eg4Hy`f3I\M'8\J9x0DT!PmcRJEtM
U	Nv-x0MohueS$.%daH'Gl>ŶF sC%'\[3Xk
 Aٽ ';rd8<Z=pf"Rp3;AsHy^HbD[C9	+g!9l(5WW rY$}zL(nNIhk\EZ72,5 B>YxoԚ6SLf=vznК=*Mv*mł9pcUJHV/O9o~IOuֺ.9 Ddc>y8WWWVlũ2Bm~U᷒G	.GRy=xi2WxtqP4/j>M!M. Pkñ<­m0cDiiFBr)2%4XLV!B
gg"͓q2dgXE)>pg>@|l&T`V͌\RWޞB*`"KN0Yfx*GnD<""R!6web ?h!-xKt&li~,Կ=<z`Ɋ_/
?Q̨0Fڌ[Xa\@9p m]{8G4JKx]iJ_JtgcVCÌՠd1&~eڠl"/v1@N*0#G]jaJ7ϔ=kPap-q&	8xUKleWNi$pXoXҔA
!XRQZp^/t{]=ي#u. RԤVBVGsd_qYH$+0p}\6-sAGD~!2Вc̐\L*\p:Ata&zӥ˻6zE01~c7^qÔLa=9v`%x`@Rs]/4BrC;oUdEQ]SxKKH޽U-JKL
 k G|aEY̀p󺑒cm5Pz+Ok?$A,4>XH4ecNXojv/
p)VWH!47;b{*aŸKb%7t<9h4`VI]Om2<@E nNK;)szIf7;e^ avt_)tN:U\l!W'Rk^alZT>3R谛J3[$Ϝ@DK:*]uj&lzpe|Xo3&2U?g	pvD.>
	UH,J$`{;kY&ah
`u`"0zik˫GgŒˡTDIrz+%;	˒Ba5f$X8\b9YiHGX Pfz(N~A3[1PJRuOcl2nH&3zCRR#U}yH5XtTwQlPobJ\*dlbY]adҡm,I2ד1jE<zL8y%PiQ&r3D:l[G#HA0`>>U)ۑ2/ SV%@._tL%5i'ꁤAlF!ڐ	+kPA;#gи>T(Qz}\%z1`m`1J7i?$3[y<ssB̿KV嵊#`HR^]Yͫv8BW:tX,?L#\BB4a}P#qόMuJGtOmx1W>MZYn(c0yq2*ętZhOUOMOWM؞9d83dsJއe^{f' bIPJD 7<R!b&V*3C\kb_S~K`u(#@oe":h܈>0jlJ21ƛ;6QDb:1L]67u'cH-Y5HZpE02۞-$YJe!Hs:Mui,JJ?}':枊&Blg&V%&cz[\ƪi/*68~a2C6=L5h^fjk4L׿5`yJ33_-}آU{q
=Zh`U}Ĩ{i޾E8C$MR9JઝFFf&Du<g2?3Aܱ.Ix%1Ɛ;W$	8ZIi'G#&MT`p!RH`E}
YCNM}
a?ڀMPbj
5U\(F~'Y449]ŕT/AAUpH0M kQh0;|^xN1*جMFd	mU:V(]%5$%H,j}BI	V}Dkm1bd5FX$tL:l'2խ~3D7X#o|-ROh֦;p y7(?R-*Kdr*"v[j%ZYzcj̨SBKTU%!e\;,%lJi:R<P*hJp{>`aǀ(bCv3JtO,e/FI<⎰SolZQ)|tV.ujC9YV5ՔHT!An1٥aCtόÌDJ%VpD߳#eK^'+6`d]GJ?Rr@y,)RjYnP#ڻff_h_B*@nv^ena'H>sw+Dj퇊\V"sͦ+T .VOO#%\۫0;SQR@Yv`Nieb|n!;(y%
Y;޺GZ	D@<R~)#PVJE1Ǖk}EeH^VC"3O,Oq uDH1ۢBZ\iadVd6GYmY`!qRcΪ\,h<|5"\{J
[1S$mm׶*VTSQ8y*|*UOka|E]t{S6i^zaVY1Ӕт{Ɇ&K=+kLřL\jrS2u8::\U=J,8}m5aw+tfT1KmLn|؈9 5cRE*S.2	xWfUyCF(<,vN,,p$v';FYr?V@@rWԨϺgp*Mn|xN^d$N}&z%0_c&f-7Nm32HW.vgsAtmEHxkyE1Yܱ{*YhfŤƸ 	XIVe} ]"gz4T/3 ,-i5BzժQh44\L:,7X\=jR\87nDxψ֥9YL8kxrHH[dVcQjJ&j43=KpYx6,fZy''- Hڦ1+EQeba~h ;+'2m$zb ;:F|YiҘ@65kg)癑m_JCOuj6{Y Zf45j^~mALEveQޏLjI6͋h",J&"aƁJPlTߐ2q:
8.L'fW1ћEYs>BM浓$0R
ZZ*H{$?*[R,BMig|ON<Aeg'#-#p(h	7YjrȆhyzE2>ݱ	DP8n*SRcf[TXgtG&s/j~˚>Z$Y6FMU:om.a%4N<twd9D]1NJ~ZtLHn~g3.h/Us4x&N aGw+z]c,`*sWNxnYK*wFFNN ؆Z,GPKf33	%UR^!X(uj} `~};IGH*7{oJzsJgJVHÑlKv&L=J Tk-UqK}#*>^gsʐQLE}K0nuhZ2D<UG};#,k٬JX-t=9ZK2g7")-Ϝp;Mx$Jv6j|%5i [؞l,M̛ cћ8w+QtF\Et6s
V40##}ι_^yۑu ݕ$+c
ײӘmΰ歟jԦ 0CU2*!yTH>0k=1҆YD#`1Lhu+f8:7:\Ȓ([2f3:|Q6*Ok0d>,u$Iqs
!eȚZ4}XPXyM	H>ޙogQĜ}_%ng>X4n;S԰qt{24#3D"lhf;l'fsY"/,+Vyhg`a\'D#ŏ*@Ɏ	У+gɴ`0k蚱Z~0RU5kJasCݾ4
1ILBiCvX6|E[zϲ:(8ʭӉmiɻpHZ/,|"Ki72Z}b>:!f8kiG`eZeJ)f[NaWL픣:OC7&BqMг\ᢊn8`2--۫%yqL'CҘ%Fk2aK*n2,0Rtk$l }lBPZgQuGIY{rD;vP:ؒ8ౣGS|g醐sÐ!-
2V<m_Sc8ɩGIȳ3^G4BLӱڈXNEe˫]<^$zhJTyRͮ~s&Ĳ2L*:D4̼0ڍ[xp2;gP1f1p~ WSf۬eGʻE&rFZc$jۏy_Dc9(ɇ-|ZQ'Q0YF]c-:G>KPRfu}8BhI((cDg )0P2%11pgNF[wbZ]$F֨U3:B;};CQ?ogUFS[LF/`ቿ vµeGv>lM-p)ٰ^n#hz=!8,$aSˠF%Ѻl|p{SY1.Ҕ:$z;lIY8ND4ܙ@ ٓpP,hs8Z]x֕d53#EAZa}8;j`v0SY+aGUq	9s^(3ϩf-'7#h")b0d!NU'KmJ8iq2':t?M)2WFk=4&u2Tō;[}ȼȼal܈bjD/l
dU)4iD}]VmpA:gA5:mU$$!3}8q,Y֙[Vt=g$pYDؗ%vD7w+	[_;+g9с8pJ"[XR5Et~HJi]Ss`LM-lvIsma>G&ߓ~'(̯6fj^iqkޘq`$S:>bn|X`c vXpAU1	"+bWƣ c#X2ʁ<I>t]#Ҕ}F6M%+{'W`4ͮXi=D3,fpdڗ?3~͐L8VO/]\5Y+FiX>mG,b%v!cd1cɕW_ψC/y-kԣObzҌ]{L5~n|
a-.X8VJ)'¬pmXoc5%fb<8o:IFlHR<Mf+;rs򀔮A}sh+R&ӼWH:NrA3rB.j 3NtaG
ȭ1(UA)t-I9?ǭdT	J%a,r%O?wc>rRvYVf׬(gX	sKHR;c[,ϔ39
ܝW\٢*m{^	L$|(Lkpfh
f~0VN;=APX a4`p F&ozRguqlĐ0e3;Z^I%8f0GrPնhVܢQEcըэV5L@rh8* 2UÚDQ,!%J-ꅳc):̗_5FEfF hN:/lfKZ|aXSM/1~1'$j~oUL)V-^y)luĉUhRTQf|[Ă#r9Ƽ د('Tk~*aoѫ>W%l!8^jjDhgd2I"v>V氲sH Yd.iŀǹJ VqEG;BP: ܙ"h-㋞>?N1lQF8P!G+^ۺ"L̩ɾ4CZ t>1""*۔yGMM>%<zJIQYA[M{7ˉokqϢ/czUaiy2N@;:lӔE!Xg-ӼN<}j?~>>TL
03RfM?CoDhP"iFU<S{hA	h81Q0>'߀chq˦OބߧW%WA蚩YwLG|ωk+f
:4[E뱺Wճgq _"|9Zz5\m*a3ٺoJD{+3K9t٪DK0颖z`M|jOdrh]cOLU悃h}̨>gp&qx=eBپ*w0dS!MDz:r.,OND"0fZ
ZD97!ǆŊJ1\Q&/|qMxsJ]!vf;+Df]RJHBdߍV[Y&X44yNߖp\kc^"e婷æ.mOdlǌS(+1P5F%s
ceRHCwfj6hrK&6󽘚7#Qtp9-T˛m:#G< 'UG<kc-MSSDo61	=+cC<9bnϳGټ8D49p!gF(2bt>f==˷t02H#MolN+hG>̼eB8P*Kv"3%䡷`$]5;G료M[K`Dr٣۝b<d8=ߋku%(*;F	$-f/h5>8+l?=Wr}tRٛLB5hqFJ1>&xs]]uV_== 2gT
XT;9
{`#ӝ%sUm!>tYŌ{}
Z^cys{#X`qf]ʕժ{ϬJH!vו3}Vr#GA&c]juZy刳훶!sbq.N-FU! L#kd'v~ojy88WjK3\ϥpKʷd mSR%={cbLāLddʼ ?̙;-BݦJ5tV>'#" ?TuC[b%xlece淪K8VPr4JNj̲(n~G|rLJ,!8H8(anќ3t8f#,TԙkD0$ÆŉNc5B	>n"Sx>uuK$}$qY~& "XNnzjo~-qqߥ1<5?}6Ωec؊^;LD\e=FZ2+\׃]>tP7;I`?^v->)Ap<]=PV!,dnͳ#zE=_pa;zŜBqK-Nvhnh@=$!=h&.-\8zcNR1$js! X%HjJ$ރ'"OckPw=e/oF2VHFk#bt'*s@wAVae2gZ{*ǷQ9qo-M?S=Ԛ)vKEBs0|MsXUȸP8;l}1de,B~祹]MlVbv-h 7\RAܚKOMSʑ5iNl7	{Vc*Vޠ[[]1g>O?^zD2UʍYQޡ>>ީG*T,,Af,R97fȌ\}!fOaB'X5}"[gFY5+΍ :;_7b" RhK*ȢK73z0	Xجld1,&H8P2
5dSHkF'ENvAu'r{&7U'6`)Tw=&|2olPLj]	u}P MCвx.+z{ePe+{J8-J"'7,pgBo[0"Sf]|)Ci<ypNy &>a]O^E턩L'
8eD%o<Sy_Lu&`u+`ם.c]6̯5ͅnT{֟~0P^K8cBJI)ۻ&l\iR5Q|!KTf'a#d
Uin.w7_vz4MIRr~/ӧ?ӯWꗟ>?˷?}_?OzƷ~o_+_?CuY5	  
0000046500
714
SFUK43 EGRR 111455
\R SFUK43_EGRR_111455.CSV un0 лDY1ِ4@{*X8v؇8(-"HPZxz:06'1 PM}$L.)6y\o7'FHYy	C˶]/x.(23ע풺=VxjCǾϸ|NUی#SC?$D$Fܘ<蔓XVBTHCEV"J(*˷UfQFf(T-k/=+x*X1ꛊY:geB9I4"cӈB51˔Dl(..:)p2Sa5I ̯(QCpxxaySt୭?}OO޷MCL~l  
00000000