0000010400
775
SIIN90 VAAU 111500
AAXX 11154
43014 32996 03203 10184 20085 39481 40138
  333 58007=
0000192200
776
SZAU01 AMMC 111503
CREX++
T000103 A001 D01021 D06025++
-1927750 14705860 59260 2014 01 11 14 56 3023 11 07 00 01
00755 0187 00754 0187 00748 0182 00751 0186 00746 0182 00751 0188+
-2316110 15079000 59670 2014 01 11 14 56 3000 11 07 00 01
01308 0238 01311 0240 01310 0236 01305 0229 01313 0235 01318 0237+
-3447330 15091170 60420 2014 01 11 14 56 2947 11 07 00 01
00707 -0021 00708 -0024 00710 -0024 00710 -0028 00704 -0037 00706 -0038+
-4105000 14591500 60910 2014 01 11 14 56 2888 11 07 00 01
01080 -0073 01075 -0073 01063 -0080 01059 -0080 01060 -0075 01059 -0072+
-4254640 14793080 61170 2014 01 11 14 56 2903 11 07 00 01
01166 0045 01170 0046 01157 0031 01155 0027 01156 0026 01151 0019+
-3834390 14161360 61410 2014 01 11 14 56 2908 11 07 00 01
00760 0008 00749 -0002 00774 0023 00764 0013 00764 0013 00769 0018+
-3214890 13364170 62000 2014 01 11 14 56 2955 11 07 00 01
01582 0107 01585 0109 01581 0104 01584 0106 01582 0103 01587 0107+
-3387080 12189720 62080 2014 01 11 14 56 2950 11 07 00 01
00970 0002 00969 0002 00961 -0005 00970 0005 00957 -0006 00974 0012+
-3182560 11573860 62237 2014 01 11 14 56 2973 11 07 00 01
00773 0056 00771 0055 00772 0058 00771 0058 00776 0064 00775 0064+
-2422000 11339750 62385 2014 01 11 14 56 //// 11 07 00 01
00965 -0023 00915 -0070 00946 -0037 00943 -0038 00957 -0022 00900 -0077+
-2181670 11419110 62430 2014 01 11 14 56 //// 11 07 00 01
01609 -0068 01587 -0087 01599 -0071 01587 -0080 01590 -0074 01588 -0073+
-1800080 12221830 62650 2014 01 11 14 56 3043 11 07 00 01
05320 0146 05313 0146 05306 0147 05299 0150 05291 0150 05283 0152+
-1247190 13084580 63230 2014 01 11 14 56 3050 11 07 00 01
04873 -0023 04876 -0026 04879 -0027 04881 -0031 04881 -0035 04883 -0039+
-1386000 13641580 63511 2014 01 11 14 56 3043 11 07 00 01
01823 0082 01822 0082 01821 0082 01820 0083 01819 0083 01819 0084++
7777

0000068900
777
UDEU02 EGRR 111505 RRB
AMDAR 1115
ASC EU5529   6018N 00514E 111500 F005 PS003 032/001 TB/ S031=
ASC EU5529   6018N 00514E 111500 F006 PS005 102/001 TB/ S031=
ASC EU5529   6019N 00513E 111500 F009 PS001 046/003 TB/ S031=
ASC EU5529   6019N 00513E 111501 F013 MS005 340/003 TB/ S031=
ASC EU5529   6019N 00513E 111501 F016 MS013 324/005 TB/ S031=
ASC EU5529   6019N 00513E 111501 F019 MS019 324/005 TB/ S031=
ASC EU5529   6020N 00513E 111501 F021 MS023 323/007 TB/ S031=
ASC EU5529   6020N 00513E 111501 F024 MS023 333/013 TB/ S031=
ASC EU5529   6020N 00513E 111501 F027 MS029 338/014 TB/ S031=
ASC EU5529   6020N 00513E 111501 F029 MS033 342/013 TB/ S031=
0000068500
778
UDNT02 EGRR 111505
AMDAR 1113
LVR EU0457   4734N 05525W 111352 F379 MS630 300/084 TB0 S031=
LVW EU0457   4713N 05631W 111359 F380 MS645 310/108 TB0 S031=
LVR EU0457   4652N 05737W 111406 F379 MS645 307/112 TB0 S031=
LVR EU0457   4630N 05841W 111413 F379 MS670 316/117 TB0 S031=
LVR EU0457   4607N 05945W 111420 F390 MS667 312/104 TB0 S031=
LVR EU0457   4544N 06048W 111427 F389 MS662 305/100 TB0 S031=
LVR EU0457   4521N 06150W 111434 F389 MS662 305/101 TB0 S031=
LVR EU0457   4457N 06251W 111441 F390 MS652 298/098 TB0 S031=
LVR EU0457   4432N 06350W 111448 F390 MS655 293/089 TB0 S031=
LVR EU0457   4408N 06447W 111455 F389 MS662 281/106 TB0 S031=
0000079300
779
SIAJ40 UBBB 111500
AAXX 11151
37661 32998 02905 10103 21038 39365 40109 57002=
37675 32995 03202 10021 20008 39483 40149 53053=
37729 32597 31603 10025 20006 38497 57003 83100=
37735 32999 43207 20098 21122 39770 40143 53007 84060
555   50038 53010=
37740 32998 02301 10047 21061 39327 40135 57004=
37749 32998 01401 10060 21019 30023 40140 56006=
37832 42997 03003 10118 21036 40114 57018=
37851 32998 02204 10060 20046 30084 40154 53048
333   91113=
37864 32997 22009 10073 20008 40118 52026 80001=
37905 32997 30000 10071 21038 40142 57014 83030=
37923 32996 02304 10055 21006 40114 56004=
37925 32997 62701 10063 20029 30154 40124 57023 86050=
37985 32996 01801 10056 20035 30149 40135 56002=
37989 32996 51904 10071 20059 40152 57006 85030=
0000011000
780
SIVD17 KWNB 111500 RRD
BBXX
46060 11151 99606 71468 46/// /2905 10010 91450 555 11058 22061=
0000016200
781
SMDL01 EDZW 111200 CCB
AAXX 11121
10763 01662 81802 10032 20020 39796 40186 55000 69901 76061 875//
  333 31/// 55300 20186 30186 69907 87645=
0000009600
782
SIAA21 LFPW 111500
AAXX 11154
89642 40/// /0910 10013 21061 39879 49932 52005=
0000010400
783
SIYE70 OYHD 111500 RRA
AAXX 11154
41431 46/// ///// 1//// 2//// 3//// 4//// 333 5////=
0000010700
784
SAYE20 OYHD 111500 RRA
METAR OYHD 111500Z AUTO /////KT //// ////// /// /// /// ///// Q////=
0000011000
785
UANT99 KDDL 111501
ARP AFR474 4902N01557W 1501 F320 MS54 214/76 KT
FGSPN QXT AOE 111501 F12A
0000013500
786
SIBD20 WBSB 111500
AAXX 11154 
96315 41260 71203 10240 20237 40130 71096 82878 
333 81704 83364 85278=
96323 NIL=
0000011000
787
UANT99 KDDL 111502
ARP AFR688 5002N01557W 1502 F350 MS62 222/84 KT
FGSPT DDL BYT 111502 F04A
0000011000
788
UANT99 KDDL 111502
ARP ACA831 5405N02706W 1502 F360 MS57 191/68 KT
CGFAF DDL XXW 111502 J23A
0000011200
789
SAOM32 OOMS 111500 RRA
METAR OOMS 111450Z 07009KT 9999 FEW030 SCT100 BKN200 20/09 Q1020
NOSIG=
0000013000
790
SIQT20 OTBD 111500
AAXX 11154 41170 41460 89902 10161 20127 30197 40210 76066 8257/ 333
59003 82616 84360 88462=
0000010100
791
SAUK39 EGRR 111450 RRA
METAR EGDR 111450Z 13006KT 9999 FEW028 BKN250 09/03 Q1020 BLU=
0000024100
792
SOAT10 KWAL 111503
FA8005BC 011150337 OT12 ID:KN-BASS-01 DT:2014 01 11 15 01
:RD -3061 -3064 -3049 -3056 -3057 -3035 -3061 -3045 -3063 -3082
:PR 0678 0638 0618 0628 0606 0668 0601 0574 0632 0651
:B 13.7V
 46+1NN 219E
0000015700
793
SSVX13 LFPW 111500
ZZYY 16592 11014 1500/ 346177 066573 6113/ 11119 40140 57007 22219
 00060 444 20130 11014 1458/ 50101 80118 80016 9/015=
0000015700
794
SSVX13 LFPW 111500
ZZYY 41970 11014 1500/ 730896 058794 6113/ 11119 40316 52003 22219
 00216 444 20130 11014 1459/ 50101 80118 80047 9/015=
00000000