0000015700
735
SSVX13 LFPW 111500
ZZYY 64667 11014 1500/ 763112 029191 6113/ 11119 40010 52009 22219
 00064 444 20130 11014 1500/ 50101 80154 80000 9/015=
0000015700
736
SSVX13 LFPW 111500
ZZYY 41969 11014 1500/ 741157 042435 6113/ 11119 40232 57006 22219
 00163 444 20130 11014 1500/ 50101 80118 80011 9/015=
0000216500
737
SZNZ01 NZKL 111503
CREX++
T000103 A001 D01021 D06025++
-3683144 17478654 AUCT  2014 01 11 14 55 //// 11 07 00 01
05840 3195 05844 3195 05849 3195 05853 3194 05856 3193 05860 3192+
-4402404 -17636748 CHIT  2014 01 11 14 55 //// 11 07 00 01
05338 2148 05358 2170 05341 2156 05334 2151 05321 2140 05322 2144+
-4089929 17623168 CPIT  2014 01 11 14 55 //// 11 07 00 01
04412 2251 04429 2270 04425 2268 04430 2275 04417 2264 04418 2267+
-3618905 17548887 GBIT  2014 01 11 14 55 //// 11 07 00 01
06319 0007 06329 0014 06333 0015 06330 0010 06329 0007 06326 0001+
-3867541 17802288 GIST  2014 01 11 14 55 //// 11 07 00 01
04511 2691 04499 2680 04501 2682 04500 2682 04494 2677 04494 2677+
-4241288 17370277 KAIT  2014 01 11 14 55 //// 11 07 00 01
03861 2227 03858 2226 03851 2223 03859 2234 03854 2232 03863 2244+
-3755040 17815904 LOTT  2014 01 11 14 55 //// 11 07 00 01
03993 0195 03984 0185 03996 0196 03978 0177 03996 0194 04001 0198+
-3704657 17451175 MNKT  2014 01 11 14 55 //// 11 07 00 01
02207 -0116 02225 -0104 02216 -0119 02213 -0129 02232 -0116 02243 -0111+
-3947566 17692007 NAPT  2014 01 11 14 55 //// 11 07 00 01
03582 2019 03584 2023 03573 2014 03574 2016 03562 2005 03576 2022+
-3441483 17304870 NCPT  2014 01 11 14 55 //// 11 07 00 01
-03578 -8293 -03527 -8246 -03540 -8263 -03410 -8138 -03550 -8283 -03500 -8237+
-4581435 17062939 OTAT  2014 01 11 14 55 //// 11 07 00 01
04886 3408 04880 3407 04873 3407 04867 3406 04864 3409 04859 3410+
-2928002 -17789440 RBCT  2014 01 11 14 55 //// 11 07 00 01
06272 1957 06266 1950 06258 1941 06277 1957 06278 1958 06286 1964+
-2925114 -17790384 RFRT  2014 01 11 14 55 //// 11 07 00 01
03221 0127 03229 0133 03255 0158 03243 0144 03258 0157 03236 0134+
-4357010 17277383 SUMT  2014 01 11 14 55 //// 11 07 00 01
02549 1792 02543 1790 02535 1787 02538 1794 02514 1775 02526 1792+
-3764109 17618118 TAUT  2014 01 11 14 55 //// 11 07 00 01
05531 3964 05532 3963 05534 3962 05535 3961 05538 3961 05542 3963+
-4128448 17477985 WLGT  2014 01 11 14 55 //// 11 07 00 01
03542 2015 03540 2015 03533 2011 03527 2008 03532 2016 03525 2012++
7777
0000014000
738
SMBY01 UMMN 111200 CCA
AAXX 11121
26666 /1560 72604 10008 21021 39824 40039 52022 70272 87500 333
87629 91113 555 69938=
0000063600
739
UDIO01 AMMC 111500
AMDAR 1115
LVR AU0058 0005S 10538E 111345 F350 MS426 097/027 TB/ S031
  333 F350 VG///=
LVR AU0058 0111S 10707E 111359 F350 MS415 118/022 TB0 S031
  333 F350 VG011=
LVR AU0058 0147S 10749E 111406 F350 MS421 134/016 TB0 S031
  333 F350 VG007=
LVR AU0058 0224S 10831E 111413 F350 MS424 137/015 TB0 S031
  333 F350 VG008=
LVR AU0058 0034S 10625E 111352 F350 MS421 094/028 TB0 S031
  333 F350 VG007=
LVR AU0058 0301S 10914E 111420 F350 MS419 098/015 TB0 S031
  333 F350 VG006=
LVR AU0058 0338S 10956E 111427 F350 MS418 116/018 TB0 S031
  333 F350 VG008=

0000045500
06259
0000011100
740
UANT01 CWAO 111501
ARP UAL100 5144N03352W 1500 F350 MS55 261/15 KT
N14102 DDL IG1 111501 F44A
0000011100
741
UANT01 CWAO 111501
ARP UAL975 5044N03339W 1501 F360 MS53 281/13 KT
N677UA DDL XXN 111501 F36A
0000011100
742
UANT01 CWAO 111501
ARP UAL133 4959N03026W 1501 F310 MS48 228/20 KT
N76064 DDL XXN 111501 F86A
0000011000
743
UANT01 CWAO 111501
ARP BAW67V 5306N02718W 1501 F380 MS55 195/52 KT
GVIIG QXT AOE 111501 F16A
0000074400
744
SSVX08 KARS 111500
ZZYY 15007 10014 1200/ 305994 008000 6111/
33311 88872 20020 31811 43576 20040 31711 43580 20060 31655 43575
20080 31622 20100 31591 20120 31562 20140 31535 20180 31472
20300 31130 20500 30742
444 20110 10014 1141/ 521//=
ZZYY 15007 11014 14004 306008 007991 6111/
11119 01810 10268 29077 40108
444 20110 11014 1311/ 521// 60401=
ZZYY 13010 10014 1200/ 700000 000013 6112/
33311 88872 20001 32811 20020 32797 43447 20040 32284 43606
20060 31816 20080 31727 20100 31603 20120 31543 43564 20140 31505
20180 31441 20300 31039 20500 30713
444 20120 10014 1324/ 521//=
ZZYY 13010 11014 14004 700002 000017 6112/
11119 01612 10271 29082
22219 00281
444 20120 11014 1313/ 521// 60401=
0000052400
745
SIHU21 HABP 111500
AAXX 11151
12772 41780 51601 10065 21016 39995 40195 57011 70122 85502
  333 85650=
12822 46/// /2104 10066 20044 30045 40190 56008=
12843 41460 81701 10071 20035 30022 40194 56011 70322 885//
  333 88616=
12882 41758 71502 10054 20029 30072 40206 56012 70362 83572
  333 83650=
12925 46/// /1601 10067 20056 30020 40193 56012=
12942 41975 62602 10099 20066 39954 40199 56007 70311 81032=
12982 41465 30000 10091 20057 30097 40198 57010 70111 81841
  333 81813 81633=
0000095400
746
FCIN90 VAAH 111500
TAF VAAH 111500Z 1118/1203 02005KT 3000 FU/HZ  BECMG 1201/1203 34003KT 1500 HZ/BR FEW025 SCT080=

TAF VABO 111500Z 1118/1203 02005KT 3000 FU/HZ  BECMG 1201/1203 34003KT 1500 HZ/BR FEW025 SCT080=

TAF VASU 111500Z 1118/1203 02005KT 3000 FU/HZ  BECMG 1201/1203 34003KT 1500 HZ/BR FEW025 SCT080=

TAF VARK 111500Z 1118/1203 02005KT 3000 FU/HZ  BECMG 1201/1203 34003KT 1500 HZ/BR FEW025 SCT080=

TAF VAJM 111500Z 1118/1203 02005KT 3000 FU/HZ  BECMG 1201/1203 34003KT 1500 HZ/BR FEW025 SCT080=

TAF VABV 111500Z 1118/1203 02005KT 3000 FU/HZ  BECMG 1201/1203 34003KT 1500 HZ/BR FEW025 SCT080=

TAF VABJ 111500Z 1118/1203 02005KT 3000 FU/HZ  BECMG 1201/1203 34003KT 1500 HZ/BR FEW025 SCT080=

TAF VADU 111500Z 1118/1203 02005KT 3000 FU/HZ  BECMG 1201/1203 34003KT 1500 HZ/BR FEW025 SCT080=

TAF VAPR 111500Z 1118/1203 02005KT 3000 FU/HZ  BECMG 1201/1203 34003KT 1500 HZ/BR FEW025 SCT080=

 
0000018400
747
SSVX13 LFPW 111500
ZZYY 41734 11014 1500/ 705272 039055 6113/ 11119 40126 57011 22219
 00265 33300 88872 20000 43603 444 20130 11014 1458/ 50101 80118
 80019 9/015=
0000015700
748
SSVX13 LFPW 111500
ZZYY 16591 11014 1500/ 343366 064866 6113/ 11119 40170 57010 22219
 00114 444 20130 11014 1459/ 50101 80118 80015 9/015=
0000010200
749
SIRM20 LUKK 111500
AAXX 11151
33815 42998 83103 10066 21042 39981 40190 53002 82031=
0000011000
750
UANT01 CWAO 111501
ARP DLH422 5310N03905W 1501 F350 MS57 289/41 KT
DAIHE QXT AOW 111501 J97A
0000011100
751
UANT01 CWAO 111502
ARP DAL229 4900N04707W 1501 F330 MS61 290/51 KT
N1201P QXT AOW 111502 F55A
0000011000
752
UANT01 CWAO 111502
ARP KLM641 5301N01620W 1501 F320 MS55 222/76 KT
PHBVB QXT EUA 111502 F08A
0000011000
753
UANT01 CWAO 111502
ARP AFR690 4530N04640W 1502 F300 MS55 310/49 KT
FGZNH QXT AOE 111502 F32A
0000011000
754
UANT01 CWAO 111501
ARP UAL76 5242N04117W 1501 F330 MS60 288/66 KT
N14118 DDL IG1 111501 F79A
00000000