0000013200
915
SIVD02 CWAO 111500
BBXX
SHIP 11154 99468 70712 46/// /0608 11015 21019 40095 58055 7//// 8//// 22200 00018 2//// =
0000013200
916
SIVD02 CWAO 111500
BBXX
SHIP 11154 99534 71293 46/// /0802 10023 20025 49833 53011 7//// 8//// 22200 0//// 2//// =
0000013200
917
SIVD02 CWAO 111500
BBXX
SHIP 11154 99433 70798 46/// /2006 10067 20068 49971 57030 7//// 8//// 22200 0//// 2//// =
0000013200
918
SIVD02 CWAO 111500
BBXX
SHIP 11154 99487 71235 46/// /2221 10080 20049 49934 53002 7//// 8//// 22200 0//// 2//// =
0000013200
919
SIVD02 CWAO 111500
BBXX
SHIP 11154 99121 70689 46/// /0809 10276 20221 40175 53015 7//// 8//// 22200 0//// 2//// =
0000013200
920
SIVD02 CWAO 111500
BBXX
SHIP 11154 99430 70879 46/// /2208 10009 21012 4//// 5//// 7//// 8//// 22200 0//// 2//// =
0000013200
921
SIVD02 CWAO 111500
BBXX
SHIP 11154 99429 70824 46/// /2010 10054 20064 49946 56031 7//// 8//// 22200 0//// 2//// =
0000013200
922
SIVD02 CWAO 111500
BBXX
SHIP 11154 99451 70599 46/// /2009 10011 20007 40256 58008 7//// 8//// 22224 0//// 2//// =
0000028200
923
SIFG20 SOCA 111500
AAXX 11154
81401 26/// /2304 10276 20221 30140 40146
  333 60007 58013
  555 60005=
81408 26/// /2903 10286 20233 30133 40141
  333 60007 58010
  555 60005=
81415 26/// ///// 10278 20225 30028 40148
  333 60007 58019
  555 60005=
0000018700
924
SICD20 FTTJ 111500
AAXX 11154
64700 42960 30412 10295 21005 39785 40120 80002
  333 58004 83075=
64750 42960 70204 10335 20051 39693 40101 80002
  333 58017 87075=
0000056800
925
SIGO20 FOOL 111500
AAXX 11154
64510 42565 5//// 10300 20226 3//// 4//// 85200
  333 5//// 85823 94939 95839=
64512 42470 5//// 10286 20210 3//// 4//// 85200
  333 5//// 85811 94929 95839=
64550 42470 6//// 10326 20238 30/// 40/// 86800
  333 5//// 84815 86626 94939 95839=
64551 42470 71806 10300 20252 3//// 4//// 8393/
  333 5//// 83815 81923 87362 94944 95834=
64556 42460 5//// 10282 20238 3//// 40/// 85500
  333 5//// 85813 94939 95839=
64570 41157 70000 10221 20220 39595 40091 70196 8551/
  333 58019 83703 84613 87462 =
0000010900
926
UANT99 KDDL 111503
ARP BAW9L 5513N03133W 1503 F380 MS58 197/48 KT
GVIIS QXT AOE 111503 F18A
0000011100
927
UANT99 KDDL 111503
ARP UAL127 5306N02243W 1503 F350 MS60 202/66 KT
N17139 DDL IG1 111504 F64A
0000011000
928
UANT99 KDDL 111504
ARP BAW177 5403N01605W 1503 F390 MS57 243/62 KT
GVIIY QXT AOE 111504 F07A
0000011100
929
UANT99 KDDL 111504
ARP SOO275 5733N04733W 1504 F290 MS53 277/43 KT
N775SA DDL XXW 111504 F31A
0000324500
930
SAIR31 OIII 111500
 METAR OIAA 111500Z 28006KT 9999 FEW030CB SCT035 BKN100 13/09
 Q1018=
METAR OIAG NIL=
 METAR OIAH 111500Z 13006KT 6000 -RA FEW035CB FEW040 OVC100 09/07
 Q1016=
METAR OIAI NIL=
 METAR OIAM 111500Z 13006KT 4000 BR SCT010 FEW300CB OVC090 12/11
 Q1017 RERA=
 METAR OIAW 111500Z 21006KT 1000 RA FEW005 SCT020CB OVC070 12/11
 Q1017=
 METAR OIBA 111500Z 30006KT 3000 -RA FEW025CB FEW030 OVC080 17/14
 Q1019=
 METAR OIBB 111450Z 12010KT 6000 FEW030CB SCT035 OVC080 13/12 Q1016
 A3002 RERA=
 METAR OIBK 111500Z 09010KT 8000 -RA SCT020 FEW025CB SCT030 OVC080
 16/15 Q1019=
 METAR OIBL 111500Z 03004KT 4000 BR FEW020CB SCT025 OVC080 14/13
 Q1020=
METAR OIBS 111500Z 15012KT 9999 FEW040 OVC100 18/11 Q1020=
 METAR OICC 111500Z 00000KT 7000 FEW035CB SCT040 BKN080 M00/M01
 Q1018 A3009 NOSIG=
 METAR OICI 111500Z 12004KT 9999 FEW025 FEW030CB SCT040 BKN090
 04/03 Q1017 A3003=
METAR OICJ NIL=
 METAR OICK 111450Z 11004KT 7000 TSRA FEW030CB BKN035 OVC070 04/03
 Q1018=
METAR OICS 111500Z 00000KT 7000 FEW040 BKN080 M02/M04 Q1019=
METAR OIFK NIL=
 METAR OIFM 111500Z 31004KT 0200 FG SCT035 OVC090 M01/M01 Q1019
 A3010 RESN TEMPO 0200 FG=
METAR OIFS NIL=
METAR OIGG 111500Z 00000KT 3000 BR FEW030 BKN160 07/06
Q1013=
METAR OIGK NIL=
 METAR OIHH 111500Z 00000KT 2000 BR FEW030CB BKN035 OVC090 M05/M07
 Q1019=
METAR OIHM NIL=
 METAR OIIE 111500Z 29004KT 9000 FEW025 FEW035CB SCT045 BKN090
 02/M01 Q1020 A3013 NOSIG=
 METAR OIII 111500Z 30006KT 1800 BR SCT030 OVC100 01/M01 Q1019
 A3011 TEMPO 0500 BR FEW035CB SCT030 BKN100 TEMPO 1000 BR FEW035CB SCT030 BKN100=
METAR OIIK 111500Z 00000KT 8000 SCT040 BKN090 M00/M04 Q1019=
 METAR OIIP 111500Z 00000KT 4000 BR FEW020 SCT035 OVC080 M01/M02
 Q1019=
METAR OIIS NIL=
 METAR OIKB 111500Z 27006KT 6000 -RA FEW025CB SCT030 OVC090 13/11
 Q1021 A3017 NOSIG=
METAR OIKK 111500Z 00000KT 9999 SCT035 BKN100 03/M03 Q1020 A3012=
METAR OIKO NIL=
 METAR OIKQ 111500Z 04008KT 7000 -RA FEW025CB SCT030 OVC090 12/08
 Q1021=
METAR OIMB 111500Z 09010KT 9999 FEW040 SCT100 02/M12 Q1019=
METAR OIMC NIL=
METAR OIMD NIL=
METAR OIMM 111500Z 21004KT CAVOK 06/M13 Q1017 A3003=
METAR OINB NIL=
METAR OING 111500Z 00000KT 6000 FEW035 BKN100 08/07 Q1015=
METAR OINK NIL=
METAR OINN 111500Z 18004KT CAVOK 08/07 Q1014=
METAR OINR 111500Z 00000KT 6000 NSC 09/07 Q1013=
METAR OISA NIL=
 METAR OISF 111450Z 00000KT 7000 -SHRA FEW035CB SCT040 OVC090 05/03
 Q1019=
 METAR OISL 111500Z 08004KT 9999 FEW020 FEW030CB OVC080 08/06
 Q1020=
 METAR OISS 111500Z 15004KT 2000 BR FEW030CB SCT035 OVC080 03/03
 Q1018 A3009=
 METAR OISY 111500Z 00000KT 0200 +SN FEW030CB SCT035 OVC080 00/M00
 Q1019=
METAR OITL 111450Z 22019KT CAVOK M01/M04 Q1015=
METAR OITR NIL=
 METAR OITT 111500Z 00000KT 5000 HZ FEW035 SCT180 M07/M12 Q1020
 A3014=
METAR OITU NIL=
METAR OIYY 111500Z 31010KT 6000 FEW035 OVC100 05/M02 Q1020=
METAR OIZB 111500Z 00000KT 9999 FEW040 BKN100 06/M00 Q1022=
METAR OIZC NIL=
 METAR OIZH 111500Z 12012KT 9999 FEW035 BKN090 04/M06 Q1019 A3011
 NOSIG=
METAR OIZI 111500Z 31006KT 9999 FEW020 OVC090 14/M02 Q1022=
METAR OIZJ 111500Z 00000KT 8000 NSC 19/06 Q1020=
0000333800
931
SAIR77 OIII 111500
METAR AZUH NIL=
METAR KHME 111450Z AUTO 35002KT //// // ////// 04/M07 Q0999=
 METAR OIAA 111500Z 28006KT 9999 FEW030CB SCT035 BKN100 13/09
 Q1018=
METAR OIAG NIL=
 METAR OIAH 111500Z 13006KT 6000 -RA FEW035CB FEW040 OVC100 09/07
 Q1016=
METAR OIAI NIL=
 METAR OIAM 111500Z 13006KT 4000 BR SCT010 FEW300CB OVC090 12/11
 Q1017 RERA=
 METAR OIAW 111500Z 21006KT 1000 RA FEW005 SCT020CB OVC070 12/11
 Q1017=
 METAR OIBA 111500Z 30006KT 3000 -RA FEW025CB FEW030 OVC080 17/14
 Q1019=
 METAR OIBB 111450Z 12010KT 6000 FEW030CB SCT035 OVC080 13/12 Q1016
 A3002 RERA=
 METAR OIBK 111500Z 09010KT 8000 -RA SCT020 FEW025CB SCT030 OVC080
 16/15 Q1019=
 METAR OIBL 111500Z 03004KT 4000 BR FEW020CB SCT025 OVC080 14/13
 Q1020=
METAR OIBS 111500Z 15012KT 9999 FEW040 OVC100 18/11 Q1020=
 METAR OICC 111500Z 00000KT 7000 FEW035CB SCT040 BKN080 M00/M01
 Q1018 A3009 NOSIG=
 METAR OICI 111500Z 12004KT 9999 FEW025 FEW030CB SCT040 BKN090
 04/03 Q1017 A3003=
METAR OICJ NIL=
 METAR OICK 111450Z 11004KT 7000 TSRA FEW030CB BKN035 OVC070 04/03
 Q1018=
METAR OICS 111500Z 00000KT 7000 FEW040 BKN080 M02/M04 Q1019=
METAR OIFK NIL=
 METAR OIFM 111500Z 31004KT 0200 FG SCT035 OVC090 M01/M01 Q1019
 A3010 RESN TEMPO 0200 FG=
METAR OIFS NIL=
METAR OIGG 111500Z 00000KT 3000 BR FEW030 BKN160 07/06
Q1013=
METAR OIGK NIL=
METAR OIHM NIL=
 METAR OIIE 111500Z 29004KT 9000 FEW025 FEW035CB SCT045 BKN090
 02/M01 Q1020 A3013 NOSIG=
 METAR OIII 111500Z 30006KT 1800 BR SCT030 OVC100 01/M01 Q1019
 A3011 TEMPO 0500 BR FEW035CB SCT030 BKN100 TEMPO 1000 BR FEW035CB SCT030 BKN100=
METAR OIIK 111500Z 00000KT 8000 SCT040 BKN090 M00/M04 Q1019=
 METAR OIIP 111500Z 00000KT 4000 BR FEW020 SCT035 OVC080 M01/M02
 Q1019=
METAR OIIS NIL=
 METAR OIKB 111500Z 27006KT 6000 -RA FEW025CB SCT030 OVC090 13/11
 Q1021 A3017 NOSIG=
METAR OIKK 111500Z 00000KT 9999 SCT035 BKN100 03/M03 Q1020 A3012=
METAR OIKO NIL=
 METAR OIKQ 111500Z 04008KT 7000 -RA FEW025CB SCT030 OVC090 12/08
 Q1021=
METAR OIMB 111500Z 09010KT 9999 FEW040 SCT100 02/M12 Q1019=
METAR OIMC NIL=
METAR OIMD NIL=
METAR OIMM 111500Z 21004KT CAVOK 06/M13 Q1017 A3003=
METAR OIMN 111500Z 26004KT CAVOK 05/M06 Q1016 A3002=
METAR OINB NIL=
METAR OING 111500Z 00000KT 6000 FEW035 BKN100 08/07 Q1015=
METAR OINK NIL=
METAR OINN 111500Z 18004KT CAVOK 08/07 Q1014=
METAR OINR 111500Z 00000KT 6000 NSC 09/07 Q1013=
METAR OISA NIL=
 METAR OISF 111450Z 00000KT 7000 -SHRA FEW035CB SCT040 OVC090 05/03
 Q1019=
 METAR OISL 111500Z 08004KT 9999 FEW020 FEW030CB OVC080 08/06
 Q1020=
 METAR OISS 111500Z 15004KT 2000 BR FEW030CB SCT035 OVC080 03/03
 Q1018 A3009=
 METAR OISY 111500Z 00000KT 0200 +SN FEW030CB SCT035 OVC080 00/M00
 Q1019=
METAR OITL 111450Z 22019KT CAVOK M01/M04 Q1015=
METAR OITR NIL=
 METAR OITT 111500Z 00000KT 5000 HZ FEW035 SCT180 M07/M12 Q1020
 A3014=
METAR OITU NIL=
METAR OIYY 111500Z 31010KT 6000 FEW035 OVC100 05/M02 Q1020=
METAR OIZB 111500Z 00000KT 9999 FEW040 BKN100 06/M00 Q1022=
METAR OIZC NIL=
 METAR OIZH 111500Z 12012KT 9999 FEW035 BKN090 04/M06 Q1019 A3011
 NOSIG=
METAR OIZI 111500Z 31006KT 9999 FEW020 OVC090 14/M02 Q1022=
METAR OIZJ 111500Z 00000KT 8000 NSC 19/06 Q1020=
METAR SESG NIL=
METAR YAYT NIL=
0000011000
932
SIIN90 VECC 111500
AAXX 11154
42503 31593 83201 10158 20137 40190 74244 8457/
  333 58020=
0000325400
933
SAIR78 OIII 111500
METAR AZUH NIL=
METAR KHME 111450Z AUTO 35002KT //// // ////// 04/M07 Q0999=
 METAR OIAA 111500Z 28006KT 9999 FEW030CB SCT035 BKN100 13/09
 Q1018=
METAR OIAG NIL=
 METAR OIAH 111500Z 13006KT 6000 -RA FEW035CB FEW040 OVC100 09/07
 Q1016=
METAR OIAI NIL=
 METAR OIAM 111500Z 13006KT 4000 BR SCT010 FEW300CB OVC090 12/11
 Q1017 RERA=
 METAR OIAW 111500Z 21006KT 1000 RA FEW005 SCT020CB OVC070 12/11
 Q1017=
 METAR OIBA 111500Z 30006KT 3000 -RA FEW025CB FEW030 OVC080 17/14
 Q1019=
 METAR OIBB 111450Z 12010KT 6000 FEW030CB SCT035 OVC080 13/12 Q1016
 A3002 RERA=
 METAR OIBK 111500Z 09010KT 8000 -RA SCT020 FEW025CB SCT030 OVC080
 16/15 Q1019=
 METAR OIBL 111500Z 03004KT 4000 BR FEW020CB SCT025 OVC080 14/13
 Q1020=
METAR OIBS 111500Z 15012KT 9999 FEW040 OVC100 18/11 Q1020=
 METAR OICC 111500Z 00000KT 7000 FEW035CB SCT040 BKN080 M00/M01
 Q1018 A3009 NOSIG=
 METAR OICI 111500Z 12004KT 9999 FEW025 FEW030CB SCT040 BKN090
 04/03 Q1017 A3003=
METAR OICJ NIL=
 METAR OICK 111450Z 11004KT 7000 TSRA FEW030CB BKN035 OVC070 04/03
 Q1018=
METAR OICS 111500Z 00000KT 7000 FEW040 BKN080 M02/M04 Q1019=
METAR OIFK NIL=
 METAR OIFM 111500Z 31004KT 0200 FG SCT035 OVC090 M01/M01 Q1019
 A3010 RESN TEMPO 0200 FG=
METAR OIFS NIL=
METAR OIGG 111500Z 00000KT 3000 BR FEW030 BKN160 07/06
Q1013=
METAR OIGK NIL=
 METAR OIHH 111500Z 00000KT 2000 BR FEW030CB BKN035 OVC090 M05/M07
 Q1019=
METAR OIHM NIL=
 METAR OIIE 111500Z 29004KT 9000 FEW025 FEW035CB SCT045 BKN090
 02/M01 Q1020 A3013 NOSIG=
 METAR OIII 111500Z 30006KT 1800 BR SCT030 OVC100 01/M01 Q1019
 A3011 TEMPO 0500 BR FEW035CB SCT030 BKN100 TEMPO 1000 BR FEW035CB SCT030 BKN100=
METAR OIIK 111500Z 00000KT 8000 SCT040 BKN090 M00/M04 Q1019=
METAR OIIS NIL=
 METAR OIKB 111500Z 27006KT 6000 -RA FEW025CB SCT030 OVC090 13/11
 Q1021 A3017 NOSIG=
METAR OIKK 111500Z 00000KT 9999 SCT035 BKN100 03/M03 Q1020 A3012=
METAR OIKO NIL=
 METAR OIKQ 111500Z 04008KT 7000 -RA FEW025CB SCT030 OVC090 12/08
 Q1021=
METAR OIMB 111500Z 09010KT 9999 FEW040 SCT100 02/M12 Q1019=
METAR OIMC NIL=
METAR OIMD NIL=
METAR OIMM 111500Z 21004KT CAVOK 06/M13 Q1017 A3003=
METAR OIMN 111500Z 26004KT CAVOK 05/M06 Q1016 A3002=
METAR OINB NIL=
METAR OING 111500Z 00000KT 6000 FEW035 BKN100 08/07 Q1015=
METAR OINN 111500Z 18004KT CAVOK 08/07 Q1014=
METAR OINR 111500Z 00000KT 6000 NSC 09/07 Q1013=
METAR OISA NIL=
 METAR OISF 111450Z 00000KT 7000 -SHRA FEW035CB SCT040 OVC090 05/03
 Q1019=
 METAR OISL 111500Z 08004KT 9999 FEW020 FEW030CB OVC080 08/06
 Q1020=
 METAR OISS 111500Z 15004KT 2000 BR FEW030CB SCT035 OVC080 03/03
 Q1018 A3009=
 METAR OISY 111500Z 00000KT 0200 +SN FEW030CB SCT035 OVC080 00/M00
 Q1019=
METAR OITR NIL=
 METAR OITT 111500Z 00000KT 5000 HZ FEW035 SCT180 M07/M12 Q1020
 A3014=
METAR OITU NIL=
METAR OIYY 111500Z 31010KT 6000 FEW035 OVC100 05/M02 Q1020=
METAR OIZB 111500Z 00000KT 9999 FEW040 BKN100 06/M00 Q1022=
METAR OIZC NIL=
 METAR OIZH 111500Z 12012KT 9999 FEW035 BKN090 04/M06 Q1019 A3011
 NOSIG=
METAR OIZI 111500Z 31006KT 9999 FEW020 OVC090 14/M02 Q1022=
METAR OIZJ 111500Z 00000KT 8000 NSC 19/06 Q1020=
METAR YAYT NIL=
0000035700
934
SABN31 OBBI 111500
METAR OBBI 111500Z 20007KT CAVOK 17/13 Q1019 NOSIG=
METAR OEDF 111500Z 28007KT 5000 HZ FEW040 SCT100 16/11 Q1019 NOSIG=
METAR OEDR 111500Z 17010KT 9999 FEW040 SCT080 16/14 Q1017 NOSIG=
METAR OTBD 111500Z VRB02KT 9999 -RA FEW016 SCT100 OVC120 16/13 Q1021
NOSIG=
METAR OKBK 111500Z 33006KT CAVOK 13/08 Q1019 NOSIG=
00000000