0000015900
975
SOVI10 KWAL 111506
B110070A 011150601 P9751095 B\P~W@@@0ekO1@oD???DoDg>@oE3@`D@AJ4DQ5DX6bd9Hq<BM nTOCL@K@J@M@I@N@I:AMPTEMP 30.80C  46+0NN 219E
0000029300
976
SXHW11 KWAL 111506
B1507246 011150603"
1,140111,14:00:00,12.7,42,16.3,20.2,1015.1,13.07,12.8,
1,140111,14:15:00,9.6,48,12.8,19.9,1015.2,13.07,12.8,
1,140111,14:30:00,9.7,53,12.7,20.0,1015.3,13.07,12.8,
1,140111,14:45:00,12.5,47,16.8,20.1,1015.2,13.07,12.8, 43-0NN 210W
0000009000
977
SIQT20 OTBD 111500
AAXX 11154
41177 46/// /0606 10154 20134 30145 40194=
0000031300
978
SICY20 LCLK 111500
AAXX 11154
17600 42570 53206 10159 20100 30219 40229 55000 82102
  333 82830 84075 92428=
17601 42681 62709 10161 20082 30191 40223 50001 82501
  91450 333 55300 2//// 82645 86075=
17607 NIL=
17609 42780 52305 10167 20081 30215 40219 58001 82802
  333 82650 85075=
0000138900
979
AXIN90 VEAT 111454

FROM:- M.C AGARTALA

TO:-   ACWC(KOLKATA)

RPT:-  ALL CONCERNED



EVENING INFERENCE FOR TRIPURA Dtd. 11-01-2014:-

-----------------------------------------------------------

1]MORNING'S UPPER AIR CYCIR OVER EAST M.P & N/HOOD PERSISTS.

ASSOCIATED CYCIR EXTENDS UPTO 1.5 KM ASL.

2]MAINLY NORTH/NORTHWESTERLY WIND PREVAILS OVER TRIPURA IN 

THE LOWER LEVELS.      

 

WX F/C FOR NEXT 24 HRS VALID TILL THE EVENING OF 12-01-2014:-

 RAIN/THUNDERSHOWER MAY OCCUR AT ISOLATED PLACES OVER TRIPURA(.)



WARNING:-NIL



LOCAL F/C FOR AGT AND N-HOOD ON 12 TH JAN'14 :-

PARTLY CLOUDY SKY,CLEAR SKY LATER,LIGHT RAIN MAY OCCUR.

FOG IN THE MORNING(.) 

MAX & MIN TEMP WILL BE AROUND 22 & 14 DEG CEL RESPECTIVELY(.)  

    

LOCAL F/C FOR AGT AND N-HOOD ON 13 TH JAN'14 :-

MAINLY CLEAR SKY .FOG IN THE MORNING(.) 

MAX & MIN TEMP WILL BE AROUND 24 & 11 DEG CEL RESPECTIVELY(.) 



LOCAL F/C FOR AGT AND N-HOOD ON 14 TH JAN'14 :-

MAINLY CLEAR SKY .FOG IN THE MORNING(.) 

MAX & MIN TEMP WILL BE AROUND 25 & 10 DEG CEL RESPECTIVELY(.)  



LOCAL F/C FOR AGT AND N-HOOD ON 15 TH JAN'14 :-

MAINLY CLEAR SKY .MIST / FOG IN THE MORNING(.) 

MAX & MIN TEMP WILL BE AROUND 25 & 09 DEG CEL RESPECTIVELY(.)   

T.O.O. : 11/2020 EF(.)

0000046700
980
SZPA01 AMMC 111506
CREX++
T000103 A001 D01021 D06025++
0136250 17293000 67590 2014 01 11 14 59 3017 11 07 00 01
02070 0089 02066 0086 02069 0090 02073 0094 02063 0086 02058 0082+
0710610 17137250 67680 2014 01 11 14 59 3013 11 07 00 01
01307 0045 01296 0036 01290 0031 01298 0040 01294 0038 01290 0035+
0698060 15820000 67950 2014 01 11 14 59 3023 11 07 00 01
00762 0074 00762 0074 00765 0078 00768 0081 00774 0087 00775 0088++
7777

0000034100
981
SZIO01 AMMC 111506
CREX++
T000103 A001 D01021 D06025++
-1211670 09689190 46280 2014 01 11 14 59 3020 11 07 00 01
00639 0018 00643 0022 00641 0020 00639 0017 00639 0017 00639 0017+
-1042940 10566940 46290 2014 01 11 14 59 //// 11 07 00 01
00735 0015 00731 0013 00746 0029 00741 0026 00737 0023 00713 0001++
7777

0000179300
982
SZPS01 AMMC 111506
CREX++
T000103 A001 D01021 D06025++
-0204190 14737360 56130 2014 01 11 14 59 3025 11 07 00 01
00520 0099 00523 0100 00531 0107 00530 0104 00535 0108 00540 0111+
-0669280 15640860 56363 2014 01 11 14 59 //// 11 07 00 01
00675 -0052 00680 -0047 00684 -0044 00681 -0047 00688 -0040 00687 -0042+
-0942890 15995560 56670 2014 01 11 14 59 3038 11 07 00 01
00503 -0051 00505 -0050 00506 -0050 00508 -0049 00509 -0049 00508 -0051+
-1072080 16580190 57131 2014 01 11 14 59 //// 11 07 00 01
02454 1630 02317 1492 02713 1887 02873 2046 02398 1570 02964 2136+
-1551560 16718860 57210 2014 01 11 14 59 //// 11 07 00 01
01036 -0140 01033 -0145 01038 -0141 01041 -0140 01044 -0138 01055 -0129+
-1775690 16830030 57320 2014 01 11 14 59 3015 11 07 00 01
01015 -0028 01021 -0024 01023 -0024 01026 -0023 01029 -0023 01026 -0028+
-4397330 16861610 65180 2014 01 11 14 59 2885 11 07 00 01
01304 0457 01305 0456 01281 0429 01271 0417 01262 0406 01253 0394+
-2120470 -15978530 65980 2014 01 11 14 59 3008 11 07 00 01
00790 0020 00812 0041 00832 0061 00779 0007 00794 0022 00799 0026+
-2113810 -17518140 66600 2014 01 11 14 59 //// 11 07 00 01
01488 0080 01495 0085 01490 0079 01495 0083 01499 0086 01513 0098+
-1382670 -17176110 66840 2014 01 11 14 59 3010 11 07 00 01
01136 0060 01133 0058 01137 0062 01136 0061 01133 0059 01138 0064+
-1813250 17842750 67050 2014 01 11 14 59 3030 11 07 00 01
01591 0060 01599 0066 01600 0066 01602 0066 01600 0062 01603 0064+
-1760530 17743810 67070 2014 01 11 14 59 3030 11 07 00 01
01726 0013 01730 0015 01732 0016 01733 0014 01735 0015 ///// ////+
-0850250 17919500 67440 2014 01 11 14 59 3027 11 07 00 01
02416 -0011 02414 -0012 02412 -0014 02418 -0008 02419 -0006 02407 -0018++
7777

0000192400
983
SZAU01 AMMC 111506
CREX++
T000103 A001 D01021 D06025++
-1927750 14705860 59260 2014 01 11 14 59 3023 11 07 00 01
00751 0186 00746 0182 00751 0188 00743 0180 00749 0188 00738 0177+
-2316110 15079000 59670 2014 01 11 14 59 3000 11 07 00 01
01305 0229 01313 0235 01318 0237 01318 0236 01325 0239 01327 0240+
-3447330 15091170 60420 2014 01 11 14 59 2947 11 07 00 01
00710 -0028 00704 -0037 00706 -0038 00702 -0046 00707 -0044 00715 -0040+
-4105000 14591500 60910 2014 01 11 14 59 2888 11 07 00 01
01059 -0080 01060 -0075 01059 -0072 01060 -0065 01055 -0067 01050 -0068+
-4254640 14793080 61170 2014 01 11 14 59 2903 11 07 00 01
01155 0027 01156 0026 01151 0019 01153 0019 01163 0027 01158 0020+
-3834390 14161360 61410 2014 01 11 14 59 2908 11 07 00 01
00764 0013 00764 0013 00769 0018 00742 -0008 00773 0023 00746 -0004+
-3214890 13364170 62000 2014 01 11 14 59 2955 11 07 00 01
01584 0106 01582 0103 01587 0107 01589 0108 01588 0106 01588 0106+
-3387080 12189720 62080 2014 01 11 14 59 2950 11 07 00 01
00970 0005 00957 -0006 00974 0012 00973 0012 00957 -0003 00949 -0009+
-3182560 11573860 62237 2014 01 11 14 59 2973 11 07 00 01
00771 0058 00776 0064 00775 0064 00775 0065 00766 0058 00769 0062+
-2422000 11339750 62385 2014 01 11 14 59 //// 11 07 00 01
00943 -0038 00957 -0022 00900 -0077 00913 -0061 00924 -0048 00913 -0057+
-2181670 11419110 62430 2014 01 11 14 59 //// 11 07 00 01
01587 -0080 01590 -0074 01588 -0073 01582 -0075 01564 -0090 01566 -0086+
-1800080 12221830 62650 2014 01 11 14 59 3043 11 07 00 01
05299 0150 05291 0150 05283 0152 05276 0152 05268 0152 05259 0153+
-1247190 13084580 63230 2014 01 11 14 59 3050 11 07 00 01
04881 -0031 04881 -0035 04883 -0039 04884 -0043 04885 -0046 04885 -0052+
-1386000 13641580 63511 2014 01 11 14 59 3043 11 07 00 01
01820 0083 01819 0083 01819 0084 01816 0083 01814 0082 01811 0080++
7777

0000032800
984
USCH03 SCSC 111200 RRA
TTAA 61121 85799
99011 10213 21005 00181 11433 16510 92830 13670 15517
85543 12866 15520 70153 05664 14506 50583 09964 23514
40751 21966 25009 30956 39164 27016 25078 49561 28516
20220 59960 28517 15397 66964 28531 10645 65973 24526
88148 67564 27530
77999
31313 48008 81133=
0000077000
985
UKCH03 SCSC 111200 RRA
TTBB 61128 85799
00011 10213 11009 12245 22961 08214 33950 10060 44947
09860 55941 10058 66938 10662 77934 12870 88909 14868
99886 15268 11798 10062 22782 09661 33741 09067 44661
02462 55608 00671 66536 06577 77506 09362 88435 16964
99343 31167 11269 45761 22225 55162 33204 59159 44174
65560 55169 62563 66148 67564 77138 63368 88121 62774
99100 65973
21212 00011 21005 11999 16510 22983 17514 33955 16022
44949 15021 55934 16518 66865 15018 77774 16019 88756
17517 99726 16011 11586 19003 22511 23017 33487 24014
44431 23016 55377 24504 66317 27511 77308 26512 88230
29521 99199 28517 11181 29519 22173 28019 33161 32517
44148 27530 55141 23020 66136 25025 77100 24526
31313 48008 81133
41414 55400=
0000020300
986
SOBR10 KWAL 111506
BAB00078 011150611 :BUB 2 #1       M   0.559   0.529   0.589 :RAD 1 #1   0.457   0.477   0.464   0.458 :PRS 1 #1  -0.789  -0.787  -0.783  -0.776 :BL 12.09  35+0NN 219E
0000010600
987
SAAH10 OAKB 111450
METAR OAKB 111450Z 31007KT 4000 HZ NSC M02/M12 Q1026 NOSIG RMK GRN GRN=
0000009300
988
SAPK31 OPMT 111500
METAR OPMT 111455Z 00000KTS 5000 FU NSC 13/06 Q1020 NOSIG=
0000078600
989
SAUR30 UKMS 111500
METAR UKBB 111500Z 27005MPS 9999 BKN048 04/01 Q1011
         88290060 NOSIG=
METAR UKHH 111500Z 28006MPS 9999 BKN030 05/M01 Q1007
         250///65 TEMPO 24008G17MPS=
METAR UKOO 111500Z 27004MPS CAVOK 06/M03 Q1019
         34190058 NOSIG=
METAR UKDE 111500Z 28006MPS 9999 BKN033 06/00 Q1013
         02290565 NOSIG=
METAR UKDD 111500Z 28009MPS CAVOK 05/01 Q1012
         26210370  TEMPO 29013G18MPS=
METAR UKFF 111500Z 24004MPS 9999 FEW033 SCT100 04/01
         Q1020 19010070 NOSIG=
METAR UKLL 111500Z 23003MPS CAVOK 04/M03 Q1016
         31CLRD80  NOSIG=
METAR UKCC 111500Z 25007MPS 9999 BKN030 04/02 Q1010
         26190055 TEMPO 28012G17MPS=
METAR UKDR 111500Z 28008MPS CAVOK 06/M01 Q1014
         1809//65 NOSIG=
0000011600
990
SAAJ31 UBBB 111500
METAR UBBY 111500Z 33005KT 9999 BKN100 06/M04 Q1016
R33/CLRD70 NOSIG RMK MT OP=
0000027000
991
SAGG31 UGTB 111500
METAR UGSB 111500Z 24014KT 9999 -RA SCT018 BKN020 11/08 Q1025
    R13/CLRD70 NOSIG=
METAR UGKO 111500Z 25008KT 9000 SCT020CB OVC045 08/07 Q1022
 R25/29//50 NOSIG=
METAR UGTB 111500Z 29029KT CAVOK 08/M00 Q1017 R31L/CLRD80 NOSIG=
0000008600
992
SAIQ01 ORBI 111500
METAR ORMM 111500Z 28008KT CAVOK 11/09 Q1019 NOSIG=
0000010700
993
SPUR30 UKMS 111456
SPECI UKDE 111453Z 28007G13MPS 9999 BKN033 06/01 Q1013
02290565 NOSIG=
0000010300
994
SAAJ31 UBBB 111500
METAR UBBB 111500Z 26003KT 9999 FEW010 06/03 Q1014 88CLRD70
NOSIG=
00000000