0000042600
477
SSVX08 KARS 111456
ZZYY 56055 10014 1200/ 324741 099973 6111/
11119 10225 29079
22219 00233
33311 88872 20000 32330 20001 32315 43521 20020 32309 43531
20040 32301 43533 20060 32197 43556 20080 32090 20120 31951
20140 31909 20180 31811 20300 31469 20500 31030
444 20110 10014 1208/ 521//=
ZZYY 56055 11014 1300/ 324741 099980 6112/
11119 10227 29080
22219 00235
444 20120 11014 1402/ 521//=
0000011100
478
UANT01 CWAO 111457
ARP SOO275 5709N04916W 1457 F290 MS53 282/60 KT
N775SA DDL XXW 111457 F30A
0000011100
479
UANT01 CWAO 111457
ARP AAL199 4946N04059W 1457 F320 MS57 304/58 KT
N344AN DDL XXN 111457 F90A
0000011000
480
UANT01 CWAO 111457
ARP AFR842 4759N02022W 1457 F320 MS54 200/95 KT
FGSQX QXT AOE 111457 F21A
0000011100
481
UANT01 CWAO 111457
ARP DAL241 4943N04112W 1457 F340 MS62 302/58 KT
N176DN QXT AOW 111457 F79A
0000011100
482
UANT01 CWAO 111457
ARP UAL914 5142N03413W 1457 F310 MS52 284/16 KT
N675UA DDL XXN 111457 F25A
0000011000
483
UANT01 CWAO 111457
ARP SWR22B 5059N03035W 1457 F390 MS52 212/38 KT
HBJHD QXT AOE 111457 J30A
0000011100
484
UANT01 CWAO 111457
ARP BER7346 4604N03517W 1457 F390 MS49 286/49 KT
DABXC QXT AOE 111457 J93A
0000011000
485
UANT01 CWAO 111457
ARP FWI510 4758N03009W 1457 F360 MS49 224/37 KT
FGOTO QXT AOE 111457 J34A
0000011900
486
SIHE20 EGRR 111500
AAXX 11154
61901 469// /1310 10207 20163 39665 40166 57010 333 8//99 555
 7/090=
0000011600
487
SIGI21 EGRR 111500
AAXX 11154
08495 42560 21006 10164 20131 30184 40190 56009 81232
  333 81825=
0000081900
488
SAUK39 EGRR 111450
METAR EGDM 111450Z 31007KT CAVOK 07/02 Q1021 BLU=
METAR EGDX 111450Z 24004KT CAVOK 07/03 Q1020 BLU=
METAR EGQL 111450Z 27013KT 9999 FEW030 05/M01 Q1014 BLU NOSIG=
METAR EGQM 111450Z AUTO 26016KT 9999 NCD 06/M00 Q1015=
METAR EGUB 111450Z 26005KT 9999 FEW025 07/02 Q1021 BLU NOSIG=
METAR EGVN 111450Z 30005KT 9999 FEW025 07/01 Q1021 BLU NOSIG=
METAR EGVO 111450Z 29006KT 9999 FEW040 SCT250 07/00 Q1020 BLU=
METAR EGWU 111450Z 29009KT 9999 FEW026 08/01 Q1020 BLU NOSIG=
METAR EGXC 111450Z 28012KT 9999 FEW022 07/01 Q1019 BLU=
METAR EGXT 111450Z AUTO 28014KT 9999 FEW029/// 06/02 Q1019=
METAR EGXV 111450Z AUTO 27009KT 9999 NCD 06/02 Q1018=
METAR EGXW 111450Z 28009KT 9999 FEW020 06/01 Q1019 BLU NOSIG=
METAR EGYD 111450Z 28011KT 9999 FEW025 06/01 Q1019 BLU NOSIG=
0000050700
489
FTIN90 VOBL 111500
TAF VOBL 111500Z 1118/1224 09005KT 6000 FEW015 BECMG 1122/1123 3000
HZ SCT010 BECMG 1123/1124 1500 BR SCT005 TEMPO 1200/1203 0600 FG
BKN005 BECMG 1203/1204 3000 HZ SCT010 BECMG 1204/1205 6000 FEW015
BECMG 1221/1222 3000 HZ SCT010=
 
TAF VOML 111500Z 1118/1224 34005KT 6000 FEW015 BECMG 1121/1122 3000
HZ SCT010 TEMPO 1200/1203 1500 BR SCT005 BECMG 1203/1204 6000 FEW015
BECMG 1209/1210 29010KT BECMG 1218/1219 34005KT BECMG 1221/1222 3000
HZ SCT010=
 

0000018400
490
FCIN90 VILK 111500
TAF VILK 111500Z 1118/1203 05004KT 0800 MIFG SCT020 BKN100 BECMG
1200/1202 VRB02KT 0200 FG VV/// TEMPO 1118/1203 1000 RA/TSRA
FEW030CB OVC090=

0000008900
491
SAIN90 VOML 111500
METAR VOML 111500Z 33005KT 6000 NSC 26/21 Q1012 NOSIG=
0000022100
492
SASA85 EGRR 111500
METAR SBCG 111500Z 27005KT 9999 FEW045 FEW050TCU 30/19 Q1016=
METAR SBPV 111500Z 30002KT 9999 BKN009 FEW020TCU BKN070 26/23 Q1014=
METAR SBSL 111500Z 06009KT 9999 SCT020 30/20 Q1011=
0000068500
493
UDEU02 EGRR 111500
AMDAR 1114
ASC EU6264   6307N 00755E 111448 F028 MS105 299/008 TB/ S031=
ASC EU6264   6305N 00757E 111449 F045 MS133 267/006 TB/ S031=
ASC EU6264   6303N 00800E 111449 F060 MS155 264/012 TB/ S031=
ASC EU6264   6301N 00803E 111450 F083 MS210 266/013 TB/ S031=
ASC EU6264   6259N 00807E 111450 F103 MS190 288/010 TB/ S031=
ASC EU6264   6256N 00811E 111451 F116 MS216 301/017 TB/ S031=
ASC EU6264   6254N 00815E 111451 F133 MS219 288/030 TB/ S031=
ASC EU6264   6251N 00819E 111452 F152 MS243 283/025 TB/ S031=
ASC EU6264   6248N 00823E 111453 F171 MS278 293/027 TB/ S031=
ASC EU6264   6245N 00828E 111453 F189 MS319 288/027 TB/ S031=
0000190500
494
UDEU02 EGRR 111500 RRA
AMDAR 1114
ASC EU0365   5153N 00022W 111439 F013 PS035 304/017 TB/ S031=
ASC EU0365   5152N 00024W 111439 F020 PS015 298/015 TB/ S031=
ASC EU0365   5152N 00026W 111439 F025 MS002 300/015 TB/ S031=
ASC EU0365   5152N 00027W 111439 F030 MS015 293/014 TB/ S031=
ASC EU0365   5152N 00029W 111439 F037 MS007 318/021 TB/ S031=
ASC EU0365   5151N 00031W 111439 F045 MS010 318/027 TB/ S031=
ASC EU0365   5151N 00033W 111439 F059 MS037 312/027 TB/ S031=
ASC EU0365   5151N 00035W 111439 F073 MS060 312/032 TB/ S031=
ASC EU0365   5150N 00036W 111439 F088 MS067 313/040 TB/ S031=
ASC EU0365   5150N 00039W 111439 F102 MS082 317/054 TB/ S031=
ASC EU0365   5150N 00044W 111440 F112 MS107 308/052 TB/ S031=
ASC EU0365   5147N 00047W 111440 F125 MS142 300/050 TB/ S031=
ASC EU0365   5143N 00049W 111440 F137 MS162 290/051 TB/ S031=
ASC EU0365   5139N 00051W 111441 F153 MS195 295/052 TB/ S031=
ASC EU0365   5135N 00052W 111441 F169 MS232 296/053 TB/ S031=
ASC EU0365   5130N 00053W 111441 F186 MS270 293/053 TB/ S031=
ASC EU0365   5126N 00052W 111442 F203 MS302 292/057 TB/ S031=
ASC EU0365   5122N 00051W 111442 F210 MS325 295/057 TB/ S031=
ASC EU0365   5117N 00051W 111442 F217 MS342 298/056 TB/ S031=
ASC EU0365   5113N 00047W 111443 F238 MS390 296/061 TB/ S031=
ASC EU0365   5110N 00042W 111443 F250 MS425 300/065 TB/ S031=
ASC EU0365   5107N 00036W 111443 F250 MS425 300/065 TB/ S031=
ASC EU0365   5103N 00031W 111444 F250 MS425 298/064 TB/ S031=
ASC EU0365   5100N 00025W 111444 F250 MS425 298/064 TB/ S031=
ASC EU0365   5057N 00020W 111444 F250 MS425 299/063 TB/ S031=
ASC EU0365   5054N 00015W 111445 F250 MS425 298/062 TB/ S031=
ASC EU0365   5051N 00010W 111445 F250 MS425 299/061 TB/ S031=
ASC EU0365   5048N 00004W 111445 F250 MS425 299/061 TB/ S031=
ASC EU0365   5044N 00001E 111446 F250 MS425 299/061 TB/ S031=
0000043300
495
UDEU02 EGRR 111500 RRB
AMDAR 1114
LVR EU0172   4445N 00547E 111419 F370 MS625 251/054 TB/ S031=
LVR EU0172   4401N 00522E 111426 F370 MS620 238/044 TB/ S031=
LVR EU0172   4319N 00453E 111433 F370 MS627 234/037 TB/ S031=
LVR EU0172   4236N 00424E 111440 F370 MS640 228/034 TB/ S031=
LVR EU0172   4150N 00404E 111447 F370 MS632 217/027 TB/ S031=
LVR EU0172   4104N 00344E 111454 F370 MS630 218/026 TB/ S031=
0000022000
496
SITO21 NFTF 111500
AAXX 11154 
91779 41398 73214 10261 20248 40016 56012 70222 8577/ 333 5659/ 83708 84817
87361=
91792 41398 82414 10253 20244 49984 57002 78028 8677/ 333 5659/ 84708 86816
88360=
00000000