0000010400
577
SIVD80 KWBC 111500
BBXX
WDC6055 11154 99416 70871 43/// /2714 10020 49994 2227/ 00038=
0000011600
578
SIVD31 KWBC 111500
BBXX
PHSG 11154 99077 71326 41/// /0824 7//// 8//// 22214 20203 323//
 40306=
0000017500
579
SIVE30 KWBC 111500
BBXX
C6SW3 11154 99444 31723 41597 30123 10140 20123 49990 56010 70100
 8318/ 22214 00140 20404 336// 40303 5//// 6//// 80130 ICE /////=
0000014100
580
SIIN90 VOPB 111500
AAXX 11154 
43333 21495 80708 10262 20239 40149 72162 86431 333  56299  58009 6993/
83616 84818 85358=
0000040100
581
SIVF30 KWBC 111500
BBXX
61002 11154 99421 10047 46/// /0911 10130 20053 40198 57008 22200
 00129 10402 70008=
BAREU65 11154 99304 70151 46/// ///// 40174 57014 22243=
BAREU71 11154 99383 70154 46/// /1726 10161 29088 40139 57037
 22263=
BAREU67 11154 99442 10094 46/// ///// 10139 29072 40207 22233=
BAREU51 11154 99437 10093 46/// ///// 10146 29084 40215 57004
 22286=
0000396500
582
SIMX01 MXBA 111500
AAXX 11151
76040 32960 00701 10057 20038 30197 40211 52009 91450 333   
30/// 58021 98660=
76061 32981 00904 10096 20015 30141 40218 52005 91440 333   
30/// 58021=
76122 32970 00000 10002 21026 38548 40217 5//// 91445 333   
30/// 58052=
76220 31958 00000 11058 2//// 38204 40334 52020 702// 91450 
333   34/// 58/// 96126=
76256 32980 00000 10114 20088 30170 40184 52005 91445 333   
30/// 58017=
76258 32970 00405 10105 20043 3//// 4//// 5//// 91450 333   
30/// 5600 58///=
76305 32970 03401 10145 21025 30171 40180 52006 91445 333   
30/// 58033=
76323 32970 00000 10004 21035 38353 40369 52021 91455 333   
30/// 58054=
76342 32962 01802 10130 20023 39508 40229 52040 91450 333   
30/// 58070=
76382 32980 00000 10088 20063 38953 40240 52028 91448 333   
30/// 58056=
76402 31959 00501 10092 20069 30123 40183 5//// 70544 91445 
333   30/// 58023=
76458 32970 01303 10164 20120 30156 40161 52013 91540 333   
30/// 25016=
76471 32780 60000 10054 20003 37717 40200 52008 86050 91450 
333   30/// 56/1/ 58032 86357=
76491 32560 42301 10150 20148 39814 40207 52032 84500 91445 
333   30/// 56900 58046 84630=
76499 31/08 93401 10155 20155 30156 4178 52037 72844 91450 3
33   30/// 58044=
76548 31865 70201 10190 20187 30174 40184 52029 70544 8703/ 
91440 333   30/// 56050 58014 87358=
76556 21970 71203 10136 20098 39136 40143 52014 72162 8707/ 
91445 333   31/// 5605/ 58022 69937 87360=
76577 32970 60000 10126 20100 38068 40187 52010 86070 91440 
333   30/// 56050 58020 86358=
76581 32970 60101 10156 20111 39093 40221 57016 86030 91450 
333   30/// 56020 58024 86360=
76585 32980 20000 10168 20159 30015 40174 52024 82030 91440 
333   30/// 56/7/ 58015 82358=
SIMX01 MXBA 111500 
AAXX 11151
76593 32470 21804 10242 20205 30165 40167 52018 822// 91450 
333   30/// 564// 59010 82820 91006 91518=
76612 21560 70000 10115 20107 38511 40226 52024 75022 83230 
91450 333   31/// 56110 58026 69907 83630 84358=
76625 32475 32901 10118 20072 38168 40171 52017 82130 91440 
333   30/// 56660 58025 82825=
76634 31570 11402 10126 20075 37884 40220 52023 70500 81100 
91450 333   30/// 560// 58027 81827=
76654 31756 30000 10240 20165 30150 40154 52019 70544 83030 
91455 333   30/// 56090 58010 83359=
76658 31558 30501 10205 20150 39665 40174 52022 70540 81550 
91450 333   31/// 56110 58013 81622 82356 98904=
76680 31560 61901 10110 20065 37790 40150 52021 70400 85410 
91455 333   30/// 56770 58025 83625 82826=
76681 31775 70000 10076 20068 37812 40219 52019 70542 87700 
91440 333   30/// 56000 58029 87697=
76685 31960 00000 10114 20051 37890 40188 52021 70544 91450 
333   30/// 58017=
76726 32970 03201 10190 20121 38422 40185 52023 91445 333   
30/// 58013=
76750 32560 11003 10268 20234 30165 40175 52028 81100 91450 
333   30/// 56300 59002 81820=
76775 31970 00401 10159 20100 38548 40202 52017 70244 91445 
333   30/// 59012=
76805 32070 03302 10250 20196 30148 40151 52021 91450 333   
30/// 58015=
76840 32950 00000 10236 20189 30094 40151 52020 91440 333   
30/// 59014=
76845 31/05 90000 10094 20089 37975 40230 51019 74544 89/// 
91445 333   30/// 58012 89///=
76848 32970 00000 10198 20118 38401 40138 51016 91450 333   
30/// 58006 96722 90728 98908=
76855 32980 03402 10262 20189 30088 40139 52009 91445 333   
30/// 58011 92000=
76903 31981 00801 10274 20253 30019 40162 5//// 70400 91445 
333   30/// 58017=
76160 32962 00401 10094 21012 39938 40194 5//// 91441 333   
30/// 58021=
76253 32982 02302 10152 20019 30095 40185 5//// 91453 333   
30/// 58016 92001=
76412 31966 01801 10094 20083 30132 40179 52011 70544 9142 3
33   30/// 58008=
76539 31563 73602 10077 20049 38184 40224 52020 70544 87500 
91450 333   30/// 56800 59026 87624=
76698 32560 10901 10262 20246 30165 40177 52020 81200 91450 
333   31/// 56200 59002 81820=
0000012600
583
SITH20 VTBB 102100 CCA
AAXX 10214
48456 31958 30502 10233 20185 30122 40136 57010 71000 80001
  333 58015=
0000023100
584
SIKU20 NCRG 111500
AAXX 11153
91802 NIL=
91809 46/// /0205 10265 20244 40065 57006=
91831 46/// ///// 10250 20228 40104 53004=
91843 41498 61003 10245 20232 40095 57006 71528 8423/   333
5629/ 84815 86359=
0000031700
585
SISM20 SMJP 111500
AAXX 11154
81225 41470 52502 10275 20245 40152 70162 83872
  333 56299 58018 81815 83635 85458=
81200 42470 60000 10286 20208 40150 86832
  333 56229 58014 83820 85640=
81202 42570 50408 10278 20229 40160 83202
  333 56209 58017 83820 83080=
81209 NIL=
81251 NIL=

0000034300
586
SZIO01 AMMC 111500
CREX++
T000103 A001 D01021 D06025++
-1211670 09689190 46280 2014 01 11 14 53 3020 11 07 00 01
00644 0024 00641 0021 00640 0020 00638 0017 00636 0015 00639 0018+
-1042940 10566940 46290 2014 01 11 14 53 //// 11 07 00 01
00717 -0012 00781 0054 00715 -0011 00766 0042 ///// //// ///// ////++
7777

0000179400
587
SZPS01 AMMC 111500
CREX++
T000103 A001 D01021 D06025++
-0204190 14737360 56130 2014 01 11 14 53 3025 11 07 00 01
00509 0097 00514 0101 00516 0101 00511 0095 00520 0102 00519 0100+
-0669280 15640860 56363 2014 01 11 14 53 //// 11 07 00 01
00668 -0056 00663 -0062 00670 -0055 00668 -0057 00666 -0060 00674 -0053+
-0942890 15995560 56670 2014 01 11 14 53 3038 11 07 00 01
00495 -0054 00497 -0053 00497 -0054 00498 -0054 00500 -0053 00502 -0051+
-1072080 16580190 57131 2014 01 11 14 53 //// 11 07 00 01
01950 1131 02637 1817 02666 1845 02822 2000 02289 1466 02232 1408+
-1551560 16718860 57210 2014 01 11 14 53 //// 11 07 00 01
01010 -0157 01017 -0152 01018 -0152 01013 -0159 01017 -0156 01023 -0152+
-1775690 16830030 57320 2014 01 11 14 53 3015 11 07 00 01
00971 -0059 00978 -0054 00983 -0051 00993 -0043 01000 -0039 01009 -0032+
-4397330 16861610 65180 2014 01 11 14 53 2885 11 07 00 01
01260 0425 01253 0416 01261 0422 01254 0413 01250 0407 01288 0442+
-2120470 -15978530 65980 2014 01 11 14 53 3008 11 07 00 01
00757 -0009 00788 0021 00807 0040 00818 0050 00794 0025 00776 0007+
-2113810 -17518140 66600 2014 01 11 14 53 //// 11 07 00 01
01488 0088 01487 0085 01485 0082 01485 0081 01483 0077 01488 0081+
-1382670 -17176110 66840 2014 01 11 14 53 3010 11 07 00 01
01138 0062 01134 0058 01139 0063 01148 0072 01137 0061 01140 0064+
-1813250 17842750 67050 2014 01 11 14 53 3030 11 07 00 01
01582 0061 01586 0064 01586 0062 01591 0065 01594 0066 01598 0068+
-1760530 17743810 67070 2014 01 11 14 53 3030 11 07 00 01
01711 0010 01712 0009 01714 0009 01718 0011 01722 0013 ///// ////+
-0850250 17919500 67440 2014 01 11 14 53 3027 11 07 00 01
02410 -0018 02414 -0014 02416 -0011 02421 -0007 02410 -0017 02411 -0016++
7777

0000192400
588
SZAU01 AMMC 111500
CREX++
T000103 A001 D01021 D06025++
-1927750 14705860 59260 2014 01 11 14 53 3023 11 07 00 01
00764 0192 00755 0185 00756 0187 00755 0187 00754 0187 00748 0182+
-2316110 15079000 59670 2014 01 11 14 53 3000 11 07 00 01
01311 0246 01317 0251 01313 0244 01308 0238 01311 0240 01310 0236+
-3447330 15091170 60420 2014 01 11 14 53 2947 11 07 00 01
00683 -0035 00692 -0030 00697 -0028 00707 -0021 00708 -0024 00710 -0024+
-4105000 14591500 60910 2014 01 11 14 53 2888 11 07 00 01
01098 -0069 01092 -0070 01088 -0069 01080 -0073 01075 -0073 01063 -0080+
-4254640 14793080 61170 2014 01 11 14 53 2903 11 07 00 01
01161 0046 01166 0049 01158 0038 01166 0045 01170 0046 01157 0031+
-3834390 14161360 61410 2014 01 11 14 53 2908 11 07 00 01
00764 0012 00768 0016 00772 0020 00760 0008 00749 -0002 00774 0023+
-3214890 13364170 62000 2014 01 11 14 53 2955 11 07 00 01
01584 0113 01584 0112 01584 0110 01582 0107 01585 0109 01581 0104+
-3387080 12189720 62080 2014 01 11 14 53 2950 11 07 00 01
00955 -0017 00961 -0010 00965 -0005 00970 0002 00969 0002 00961 -0005+
-3182560 11573860 62237 2014 01 11 14 53 2973 11 07 00 01
00783 0062 00776 0057 00771 0053 00773 0056 00771 0055 00772 0058+
-2422000 11339750 62385 2014 01 11 14 53 //// 11 07 00 01
00992 -0002 00946 -0046 00971 -0019 00965 -0023 00915 -0070 00946 -0037+
-2181670 11419110 62430 2014 01 11 14 53 //// 11 07 00 01
01602 -0085 01596 -0087 01602 -0078 01609 -0068 01587 -0087 01599 -0071+
-1800080 12221830 62650 2014 01 11 14 53 3043 11 07 00 01
05344 0143 05336 0143 05328 0142 05320 0146 05313 0146 05306 0147+
-1247190 13084580 63230 2014 01 11 14 53 3050 11 07 00 01
04862 -0020 04866 -0020 04869 -0021 04873 -0023 04876 -0026 04879 -0027+
-1386000 13641580 63511 2014 01 11 14 53 3043 11 07 00 01
01826 0081 01826 0083 01823 0081 01823 0082 01822 0082 01821 0082++
7777

0000046700
589
SZPA01 AMMC 111500
CREX++
T000103 A001 D01021 D06025++
0136250 17293000 67590 2014 01 11 14 53 3017 11 07 00 01
02088 0101 02090 0104 02081 0096 02084 0100 02080 0097 02089 0107+
0710610 17137250 67680 2014 01 11 14 53 3013 11 07 00 01
01307 0038 01304 0036 01303 0037 01301 0036 01298 0033 01302 0040+
0698060 15820000 67950 2014 01 11 14 53 3023 11 07 00 01
00755 0066 00757 0068 00759 0070 00761 0072 00761 0073 00760 0072++
7777

0000014400
590
SNVF51 EGRR 111400
BBXX
62170 11144 99514 10020 46/98 /2915 10080 20028 40199 51024 22200
00106 10501 70005 333 90710 91126=
0000012800
591
SIVF51 EGRR 111500
BBXX
62301 11154 99524 70047 46/// /2604 10075 20013 40213 52008 22200
00097 10503 70014=
0000012800
592
SIVF51 EGRR 111500
BBXX
62105 11154 99550 70132 46/// /1717 10088 20023 40133 57020 22200
00108 10907 70033=
0000012800
593
SIVF51 EGRR 111500
BBXX
62163 11154 99475 70084 46/// /1615 10113 20094 40177 56012 22200
00122 10805 70027=
0000012800
594
SIVF51 EGRR 111500
BBXX
62001 11154 99452 70050 46/// /1013 10119 20076 40199 57014 22200
00128 10905 70023=
0000012800
595
SIVF51 EGRR 111500
BBXX
62107 11154 99501 70061 46/// /1312 10093 20036 40209 56003 22200
00106 11005 70024=
0000014400
596
SIVF51 EGRR 111500
BBXX
64045 11154 99591 70117 46/// /2717 10069 20011 40111 52010 22200
00096 10808 70042 333 90710 91126=
00000000