0000066100
855
UDAF01 FAPR 111500
AMDAR 1115
DES AFZA50 2617S 02810E 111457 F078 PS189 237/015 TB0 S031 333 F/// VG016=
DES AFZA50 2616S 02810E 111457 F075 PS200 212/011 TB0 S031 333 F/// VG016=
DES AFZA50 2615S 02811E 111458 F072 PS205 250/002 TB0 S031 333 F/// VG016=
DES AFZA50 2614S 02811E 111458 F068 PS214 274/005 TB0 S031 333 F/// VG016=
DES AFZA50 2613S 02811E 111458 F065 PS217 300/010 TB0 S031 333 F/// VG016=
DES AFZA50 2612S 02812E 111459 F061 PS222 293/008 TB1 S031 333 F/// VG022=
DES AFZA50 2611S 02812E 111459 F058 PS225 289/006 TB1 S031 333 F/// VG022=
DES AFZA50 2610S 02812E 111460 F055 PS237 300/006 TB1 S031 333 F/// VG022=
0000014400
856
SICS01 MROC 111500
AAXX 11154
78762 32670 10909 10242 20148 39146 40132 50014 81500
333   30/// 56200 58006 81635=



0000012600
857
SILC01 TLPL 111500
AAXX 11154
78948 41578 50920 10275 20220 30173 40181 70522 85400
333 05200 58011 85824=
0000013400
858
SICS01 MROC 111500
AAXX 11154
78762 32670 10909 10242 20148 39146 40132 50014 81500
333   30/// 56200 58006 81635=
0000018400
859
SAJD20 OJAI 111500
METAR OJAI 111500Z NIL=
METAR OJAM 111500Z 30010KT 5000 HZ BKN025TCU 10/06 Q1024 NOSIG=
METAR OJAQ 111500Z 35008KT 9999 BKN030 18/08 Q1024 NOSIG=
0000018400
860
SAJD20 OJAM 111500
METAR OJAI 111500Z NIL=
METAR OJAM 111500Z 30010KT 5000 HZ BKN025TCU 10/06 Q1024 NOSIG=
METAR OJAQ 111500Z 35008KT 9999 BKN030 18/08 Q1024 NOSIG=
0000169000
861
SASA85 EGRR 111500 RRA
METAR SBAR 111500Z 14011KT 9999 SCT018 29/20 Q1014=
METAR SBBR 111500Z 07008KT 9999 BKN035 28/15 Q1020=
METAR SBBV 111500Z 03010KT 9999 FEW025 31/16 Q1014=
METAR SBCF 111500Z 05007KT 9999 BKN040 28/16 Q1020=
METAR SBCY 111500Z 32014KT 9999 SCT020 FEW025TCU 30/21 Q1014=
METAR SBFI 111500Z 36009KT CAVOK 32/22 Q1013=
METAR SBFN 111500Z 10013KT 9999 BKN023 30/20 Q1014=
METAR SBFZ 111500Z 09018KT 9999 SCT025 30/18 Q1012=
METAR SBGL 111500Z 04007KT 9999 FEW020 34/20 Q1013=
METAR SBGR 111500Z 27006KT 9999 BKN045 32/18 Q1018=
METAR SBMA 111500Z 01003KT 9999 SCT020 29/23 Q1013=
METAR SBMN 111500Z 06004KT 9999 SCT015 BKN100 26/22 Q1015=
METAR SBMO 111500Z 15008KT 9999 SCT020 31/20 Q1014=
METAR SBMQ 111500Z 08004KT 9999 SCT012 BKN090 27/24 Q1013=
METAR SBPA 111500Z 20004KT 9999 FEW037 FEW040TCU SCT100 29/20 Q1011=
METAR SBRF 111500Z 16009KT 9999 SCT020 27/23 Q1013=
METAR SBSJ 111500Z 05005KT 9999 FEW025 32/14 Q1018=
METAR SBSP 111500Z 32009KT CAVOK 31/15 Q1019=
METAR SBSV 111500Z 13009KT 9999 SCT017 BKN080 29/23 Q1015=
METAR SLCB 111500Z 29003KT 9999 FEW027 SCT200 25/11 Q1025=
METAR SLLP 111500Z 12006KT 9999 SCT015 SCT200 13/04 Q1038=
METAR SLVR 111500Z 35012KT 9999 FEW012 BKN017 30/23 Q1013=
METAR SMJP 111500Z 25002KT 9999 FEW015 SCT035 28/25 Q1015 NOSIG=
METAR SUMU 111500Z 18016KT 9999 BKN026 22/15 Q1017 NOSIG=
METAR SVAC 111500Z 09005KT 9999 FEW020 30/23 Q1018=
METAR SVBM 111500Z 05004KT 9999 SCT016 25/19 Q1020=
METAR SVGU 111500Z 05010KT 9999 FEW020 31/19 Q1016=
METAR SVMG 111500Z /////KT 9999 FEW010 28/25 Q1017 NOSIG=
METAR SVMI 111500Z 07002KT 9999 SCT016 27/21 Q1017 NOSIG=
0000165700
862
SASA85 EGRR 111500 RRB
METAR SABE 111500Z 14013KT CAVOK 24/06 Q1018=
METAR SARI 111500Z 36005KT CAVOK 31/24 Q1014=
METAR SAZS 111500Z 00000KT CAVOK 20/06 Q1021=
METAR SBBE 111500Z 05007KT 9999 BKN025 SCT100 29/23 Q1012=
METAR SBCT 111500Z 33007KT 6000 TS VCSH BKN020 FEW030CB 27/18 Q1019=
METAR SBFL 111500Z 34012KT CAVOK 32/20 Q1011=
METAR SBGO 111500Z 02006KT 9999 FEW035 SCT100 29/15 Q1018=
METAR SBRB 111500Z 03003KT 9999 BKN018 SCT100 ///// Q1014=
METAR SGAS 111500Z VRB05KT 9999 SCT033 BKN200 36/23 Q1011=
METAR SGES 111500Z VRB08KT 9999 SCT030 FEW040TCU BKN200 31/24 Q1012=
METAR SPCL 111500Z 01004KT 9999 FEW017 BKN080 27/23 Q1014 RMK BIRD
      HAZARD RWY 02/20 PP000=
METAR SPHI 111500Z 20006KT 150V240 CAVOK 26/21 Q1012 RMK PP000=
METAR SPIM 111500Z 17007KT 130V210 9999 BKN010 23/20 Q1013 NOSIG RMK
      PP000=
METAR SPJL 111500Z 36003KT CAVOK 14/03 Q1038 RMK PP000=
METAR SPME 111500Z 02004KT 9999 OVC017 26/23 Q1012 RMK BIRD HAZARD
      RWY 32/14 PP000=
METAR SPMS 111500Z /////KT 9999 SCT017 SCT100 28/23 Q1015 RMK BIRD
      HAZARD 09/27 PP000=
METAR SPQT 111500Z 05008KT 9999 FEW015 BKN025 BKN100 28/23 Q1014 NOSIG
      RMK PP000=
METAR SPQU 111500Z 27005KT 220V340 CAVOK 18/09 Q1024 NOSIG RMK PP000=
METAR SPRU 111500Z 16009KT 9999 SCT013 BKN120 22/19 Q1013 RMK PP000=
METAR SPSO 111500Z /////KT 8000 FEW020 BKN100 24/20 Q1012 RMK BIRD
      HAZARD RWY 22/04 PP000=
METAR SPTN 111500Z 22006KT CAVOK 26/16 Q1010 RMK PP000=
METAR SPZO 111500Z 07004KT 350V120 9999 FEW036 SCT080 17/06 Q1032 NOSIG
      RMK PP000=
METAR SVVA 111500Z 07007KT 9999 SCT016 28/21 Q1018=
0000009000
863
SASA85 EGRR 111400 RRK
METAR SKBO 111400Z 34005KT 9999 FEW020 17/08 A3036=
0000170100
864
SASA85 EGRR 111500 RRC
METAR SAEZ 111500Z 17013KT 130V220 CAVOK 23/03 Q1019=
METAR SAWG 111500Z 27008KT 9999 FEW030 SCT100 16/06 Q1009=
METAR SBCR 111500Z 04006KT 9999 FEW020 33/22 Q1013=
METAR SBCZ 111500Z 36003KT 4000 -RA BKN006 OVC090 24/24 Q1014=
METAR SBJP 111500Z 12010KT 9999 SCT030 30/21 Q1013=
METAR SBKP 111500Z 35010KT 9999 BKN045 31/18 Q1017=
METAR SBPB 111500Z 07015KT 9999 FEW020 34/23 Q1011=
METAR SBPL 111500Z 13008KT 9999 SCT030 33/17 Q1015=
METAR SBPP 111500Z 35006KT 9999 SCT025 31/20 Q1016=
METAR SBRJ 111500Z 01005KT 9999 FEW025 34/24 Q1013=
METAR SBTE 111500Z 14002KT 9999 SCT020 31/22 Q1011=
METAR SBTT 111500Z 29001KT 4000 RA BKN012 BKN014 OVC100 24/23 Q1015=
METAR SBVT 111500Z 08012KT 9999 FEW030 33/23 Q1016=
METAR SEGU 111500Z 30002KT 9999 FEW013 BKN030 BKN100 28/20 Q1012 RMK
      A2989 NOSIG=
METAR SEMT 111500Z 30004KT 9999 FEW020 BKN026 26/22 Q1013=
METAR SOCA 111500Z AUTO 06005KT 030V090 9999 SCT009/// SCT022/// BKN058///
      ///TCU 25/22 Q1015=
METAR SPGM 111500Z /////KT 2000 -RA FEW015 SCT030 OVC090 22/20 Q1017
      RMK PP030=
METAR SPHO 111500Z VRB02KT 9000 SCT025 BKN070 15/10 Q1027 RMK BR PP000=
METAR SPHY 111500Z 36006KT 8000 SCT012 BKN050 13/08 Q1034 RMK PP000=
METAR SPJI 111500Z 00000KT 9999 BKN030 28/23 Q1022 RMK PP000=
METAR SPJR 111500Z VRB02KT CAVOK 18/11 Q1028 RMK PP000=
METAR SPLO 111500Z 17007KT CAVOK 25/20 Q1009 RMK PP000=
METAR SPST 111500Z 00000KT 9999 SCT025 BKN100 27/19 Q1013 RMK BIRD
      HAZARD RWY 17/35 PP000=
METAR SPTU 111500Z 35005KT 9999 BKN009 29/26 Q1012 RMK BIRD HAZARD
      RWY 01/19 PP000=
METAR SPYL 111500Z 14016KT CAVOK 28/20 Q1012 RMK PP000=
0000029200
865
SIST21 EGRR 111500
AAXX 11154
61901 469// /1310 10207 20163 39665 40166 57010 333 8//99 555
 7/090=
61902 42584 21514 10275 20194 40130 82800 333 58003 81821=
88878 46/// /2416 10095 20035 40087 52003=
88889 42686 72216 10072 21019 30015 40100 51011 875// 333 87630=
0000014500
866
WSUR31 UKBV 111504
UKBV SIGMET 4 VALID 111600/111800 UKBV-
UKBV KYIV FIR SEV TURB FCST OVER WHOLE KYIV FIR
BLW FL100 STNR NC=
0000338200
867
SIUK21 EGRR 111500
AAXX 11154
03005 45673 /2920 10052 21013 39933 40033 51014
  333 55300 20106 82/36 83/50 90710 91135=
03017 45989 /2712 10039 20014 30055 40087 53017
  333 55300 20081 8//99=
03023 NIL=
03026 47976 /2614 10048 20002 30106 40124 51019 781//
  333 55308 20288 8//99=
03063 45982 /2407 10027 21025 39860 40142 53021
  333 55310 20354 8//99=
03066 45984 /2517 10041 21005 30121 40127 53018
  333 55303 20197 82/64=
03075 47979 /2617 10029 20003 30054 40099 52020 723//
  333 8//99=
03091 45982 /3011 10050 21024 30042 40122 53019
  333 55310 20325 8//99 90710 91125=
03100 45976 /2611 10057 20025 30141 40157 51013
  333 55310 20481 8//99=
03111 46976 /2513 10056 20027 30158 40170 51011
  333 8//99=
03134 45981 /2409 10053 20028 30090 40163 53014
  333 55309 20345 8//99=
03136 45980 /2511 10063 20024 30137 40171 51015
  333 55310 20515 8//99=
03162 42482 22711 10029 20000 39883 40176 52019 82800
  333 41998 55302 20250 81818=
03166 45982 /2514 10049 20017 30086 40157 53018
  333 55309 20345 8//99=
03171 42686 12713 10048 21015 30131 40143 53018 81500
  333 55310 20417 81630=
03204 42482 42607 10063 20032 30171 40191 51012 81102
  333 55309 20568 81818 83075=
03240 45982 /2616 10055 21001 30131 40160 53028
  333 55310 20429 8//99 90710 91125=
03257 45975 /2709 10055 20001 30138 40179 5////
  333 55310 20502 8//99=
03292 469// /2709 10061 20010 30154 40173 53020
  333 8//99=
03302 45969 /2706 10071 20013 30187 40201 50007
  333 55310 20626 8//99=
03354 45581 /2607 10052 20006 30056 40201 50019
  333 55305 20338 81/23=
03377 42584 12809 10057 20007 30109 40195 53023 81500
  333 55310 20521 81620=
03414 45981 /2607 10064 20006 30116 40205 52016
  333 55310 20603 8//99=
03462 45586 /2814 10060 20019 30112 40202 53021
  333 55309 20576 82/29=
03482 45578 /2712 10061 20028 30168 40194 53018
  333 87/27=
03502 45984 /2602 10068 20015 30048 40212 51009
  333 55310 20615 8//99=
03535 45681 /3306 10059 20009 30088 40207 53018
  333 553// 20524 82/30=
03590 45684 /2911 10065 20017 30086 40198 53018
  333 55306 20391 81/37=
03649 42583 13005 10071 20005 30111 40213 53015 81100
  333 55310 2//// 81825=
03680 46/// ///// 10066 20019 30050 40209 53015
  333 553// 20627=
03716 45981 /2404 10066 20026 30150 40211 53005
  333 55310 20676 8//99=
03740 469// /2704 10062 20020 30037 40217 53013
  333 55309 2//// 8//99=
03746 42982 13107 10074 20016 30061 40217 53012 80001
  333 81080=
03772 45582 /2806 10085 20021 30179 40210 53012
  333 55309 20495 82/29=
03796 46/// /3110 10082 20010 30059 40202 52016=
03803 45979 /1413 10096 20049 30171 40209 55002
  333 8//99=
03808 45578 /1508 10088 20034 30102 40209 58003
  333 55308 20638 81/21=
03809 42575 61306 10087 20027 30115 40209 58002 81502
  333 81628 86075=
03827 45981 /1807 10092 20045 30153 40215 50000
  333 8//99=
03840 45982 /3004 10070 20008 39905 40214 53004
  333 8//99=
03853 45981 /3308 10074 20025 30194 40218 53007
  333 55310 20720 8//99=
03874 46/// /3506 10097 20006 30203 40214 53009=
03882 45982 /3106 10086 20009 30144 40208 53012
  333 55310 20645 8//99=
03894 42484 10606 10085 20047 40222 52002 81801
  333 81818=
03917 45979 /2201 10021 20012 30114 40193 53011
  333 55304 20342 81/73=
0000010000
868
SNAA14 EGRR 111300 RRA
AAXX 11134
89013 46/// /0311 11124 21151 37731 49724 52006=
0000015100
869
SNST41 EGRR 111400 RRB
AAXX 11144
88900 45/// /0808 10033 20030 39899 49901 58007=
88903 42/// /1003 10068 20045 39905 49905 57010=
0000032900
870
SICU01 KWBC 111500
AAXX 11151
78224 43660 11804 10256 20221 30126 40200 51020 81500 333 81640=
78229 12559 21204 10251 20204 30136 40212 52020 60004 82202 333
82830=
78255 42459 51006 10247 20194 30066 40215 52020 85201 333 85816=
78264 31560 22702 10288 20172 30125 40201 52020 70200 82200 333
82820=
0000023200
871
SIVD20 KWNB 111500 RRD
BBXX
44013 11151 99423 70707 46/// /1608 10063 20063 40137 56042 91450
22200 00048 10401 20401 70007 333 91210 555 11090 22099 31430
41610 61449 156083 156087 155085 154075 160078 165079=
0000069400
872
SIVD19 KWNB 111500 RRA
BBXX
46126 11151 99540 71666 46/// /2306 10033 49804 91436 22200 00048
1//00 70002 333 91210 555 11068 22074=
46126 11151 99540 71666 46/// /2306 10033 49804 91440 22200 00048
1//00 70002 333 91210 555 11068 22074=
46126 11151 99540 71666 46/// /2308 10033 49804 91442 22200 00048
1//00 70002 333 91213 555 11082 22089=
46126 11151 99540 71666 46/// /2308 10037 49803 91445 22200 00048
1//00 70002 333 91213 555 11082 22089=
46078 11151 99560 71526 46/// /1708 10038 20011 49885 58040 91450
22200 00044 11105 20702 323// 41104 70023 333 91210 555 11086
22091 31434 41710 61449 166083 168082 167082 172085 179078 180077
81709 91441=
0000013000
873
SIMX01 KWBC 111500 RRA
AAXX 11151
76903 31981 00801 10274 20253 30019 40162 5//// 70400 91445 333
30/// 58017=
0000372400
874
SIMX01 KWBC 111500
AAXX 11151
76040 32960 00701 10057 20038 30197 40211 52009 91450 333 30///
58021 98660=
76122 32970 00000 10002 21026 38548 40217 5//// 91445 333 30///
58052=
76160 32962 00401 10094 21012 39938 40194 5//// 91441 333 30///
58021=
76220 31958 00000 11058 2//// 38204 40334 52020 702// 91450 333
34/// 58/// 96126=
76253 32982 02302 10152 20019 30095 40185 5//// 91453 333 30///
58016 92001=
76256 32980 00000 10114 20088 30170 40184 52005 91445 333 30///
58017=
76305 32970 03401 10145 21025 30171 40180 52006 91445 333 30///
58033=
76323 32970 00000 10004 21035 38353 40369 52021 91455 333 30///
58054=
76342 32962 01802 10130 20023 39508 40229 52040 91450 333 30///
58070=
76382 32980 00000 10088 20063 38953 40240 52028 91448 333 30///
58056=
76402 31959 00501 10092 20069 30123 40183 5//// 70544 91445 333
30/// 58023=
76412 31966 01801 10094 20083 3 30132 40179 52011 70544 9142 333
30/// 58008=
76458 32970 01303 10164 20120 30156 40161 52013 91540 333 30///
25016=
76471 32780 60000 10054 20003 37717 40200 52008 86050 91450 333
30/// 56/1/ 58032 86357=
76499 31/08 93401 10155 20155 3 30156 4178 52037 72844 91450 333
30/// 58044=
76539 31563 73602 10077 20049 38184 40224 52020 70544 87500 91450
333 30/// 56800 59026 87624=
76548 31865 70201 10190 20187 30174 40184 52029 70544 8703/ 91440
333 30/// 56050 58014 87358=
76556 21970 71203 10136 20098 39136 40143 52014 72162 8707/ 91445
333 31/// 5605/ 58022 69937 87360=
76577 32970 60000 10126 20100 38068 40187 52010 86070 91440 333
30/// 56050 58020 86358=
76581 32970 60101 10156 20111 39093 40221 57016 86030 91450 333
30/// 56020 58024 86360=
76593 32470 21804 10242 20205 30165 40167 52018 822// 91450 333
30/// 564// 59010 82820 91006 91518=
76612 21560 70000 10115 20107 38511 40226 52024 75022 83230 91450
333 31/// 56110 58026 69907 83630 84358=
76634 31570 11402 10126 20075 37884 40220 52023 70500 81100 91450
333 30/// 560// 58027 81827=
76654 31756 30000 10240 20165 30150 40154 52019 70544 83030 91455
333 30/// 56090 58010 83359=
76658 31558 30501 10205 20150 39665 40174 52022 70540 81550 91450
333 31/// 56110 58013 81622 82356 98904=
76680 31560 61901 10110 20065 37790 40150 52021 70400 85410 91455
333 30/// 56770 58025 83625 82826=
76681 31775 70000 10076 20068 37812 40219 52019 70542 87700 91440
333 30/// 56000 58029 87697=
76698 32560 10901 10262 20246 30165 40177 52020 81200 91450 333
31/// 56200 59002 81820=
76726 32970 03201 10190 20121 38422 40185 52023 91445 333 30///
58013=
76750 32560 11003 10268 20234 30165 40175 52028 81100 91450 333
30/// 56300 59002 81820=
76775 31970 00401 10159 20100 38548 40202 52017 70244 91445 333
30/// 59012=
76805 32070 03302 10250 20196 30148 40151 52021 91450 333 30///
58015=
76840 32950 00000 10236 20189 30094 40151 52020 91440 333 30///
59014=
76845 31/05 90000 10094 20089 37975 40230 51019 74544 89/// 91445
333 30/// 58012 89///=
76848 32970 00000 10198 20118 38401 40138 51016 91450 333 30///
58006 96722 90728 98908=
76855 32980 03402 10262 20189 30088 40139 52009 91445 333 30///
58011 92000=
76061 32981 00904 10096 20015 30141 40218 52005 91440 333 30///
58021=
76258 32970 00405 10105 20043 3//// 4//// 5//// 91450 333 30///
5600 58///=
76491 32560 42301 10150 20148 39814 40207 52032 84500 91445 333
30/// 56900 58046 84630=
76585 32980 20000 10168 20159 30015 40174 52024 82030 91440 333
30/// 56/7/ 58015 82358=
76625 32475 32901 10118 20072 38168 40171 52017 82130 91440 333
30/// 56660 58025 82825=
76685 31960 00000 10114 20051 37890 40188 52021 70544 91450 333
30/// 58017=
00000000