0000009500
597
SAGI32 EGRR 111450
METAR LXGB 111450Z 10006KT 9999 FEW025TCU 16/13 Q1019 NOSIG=
0000077900
598
SAUK63 EGRR 111450
METAR EGDM 111450Z 31007KT CAVOK 07/02 Q1021=
METAR EGDX 111450Z 24004KT CAVOK 07/03 Q1020=
METAR EGQL 111450Z 27013KT 9999 FEW030 05/M01 Q1014 NOSIG=
METAR EGQM 111450Z AUTO 26016KT 9999 NCD 06/M00 Q1015=
METAR EGUB 111450Z 26005KT 9999 FEW025 07/02 Q1021 NOSIG=
METAR EGVN 111450Z 30005KT 9999 FEW025 07/01 Q1021 NOSIG=
METAR EGVO 111450Z 29006KT 9999 FEW040 SCT250 07/00 Q1020=
METAR EGWU 111450Z 29009KT 9999 FEW026 08/01 Q1020 NOSIG=
METAR EGXC 111450Z 28012KT 9999 FEW022 07/01 Q1019=
METAR EGXT 111450Z AUTO 28014KT 9999 FEW029/// 06/02 Q1019=
METAR EGXV 111450Z AUTO 27009KT 9999 NCD 06/02 Q1018=
METAR EGXW 111450Z 28009KT 9999 FEW020 06/01 Q1019 NOSIG=
METAR EGYD 111450Z 28011KT 9999 FEW025 06/01 Q1019 NOSIG=
0000006100
599
AAUK99 EGRR 111500
Socket stay alive message.
0000008000
600
FCUK55 EGRR 111400 RRA
TAF EGDM 111453Z 1115/1118 30005KT CAVOK=
0000012200
601
SIIN90 VOBL 111500
AAXX 11154
43293 32/96 01507 10253 20141 39159 48538
  333 58005 8/0// 8/0// 8/1//=
0000008900
602
SAIN90 VOBL 111500
METAR VOBL 111500Z 15007KT 8000 NSC 25/14 Q1018 NOSIG=
0000008900
603
SAIN90 VOCL 111500
METAR VOCL 111500Z 00000KT 6000 NSC 26/22 Q1012 NOSIG=
0000010700
604
SPIN90 VEGY 111500
SPECI VEGY 111500Z 36002KT 1000 BR  FEW010 SCT018 BKN080 15/15 Q1018=

0000067400
605
FTIN90 VOTV 111500
TAF VOTV 111500Z 1118/1224 00000KT 4000 HZ FEW015 SCT100 TEMPO
1200/1203 2000 BR/HZ FEW025CB BECMG 1204/1205 14005KT 5000 HZ TEMPO
1209/1212 2000 TSRA/RA SCT008 SCT012 FEW025CB OVC090 BECMG 1217/1218
00000KT 4000 HZ=
TAF VOCI 111500Z 1118/1224 00000KT 4000 HZ FEW015 SCT100 TEMPO
1200/1203 2000 BR/HZ FEW025CB BECMG 1204/1205 05005KT 5000 HZ TEMPO
1209/1212 2000 TSRA/RA SCT008 SCT012 FEW025CB OVC090 BECMG 1217/1218
00000KT 4000 HZ=
TAF VOCL 111500Z 1118/1224 00000KT 4000 HZ FEW015 SCT100 TEMPO
1200/1203 2000 BR/HZ FEW025CB BECMG 1204/1205 22005KT 5000 HZ TEMPO
1209/1212 FEW025CB BECMG 1217/1218 00000KT 4000 HZ=

0000017600
606
WASW41 LSSW 111451
LSAS AIRMET 2 VALID 111500/111900 LSZH-
LSAS SWITZERLAND FIR MOD ICE FCST N PART OF SWITZERLAND
                 FL065/FL140 MOV E NC
=
0000012400
607
SMRA13 RUHB 111200 RRC
AAXX 11121
24643 12999 20000 11479 21495 30263 40382 58005 60002 80001 333
11531=
0000010600
608
SMRA13 RUHB 111200 RRD
AAXX 11121
24477 42999 80000 11375 21411 39391 40348 54000 8807/=
0000039800
609
SWIO40 RJTD 111500
:PRS 1 #1 1810 1793 1795 1793 1799 1825 1790 1811 1803 1800 1807 1821
1796 1819 1820 1835 1814 1833 1815 1793 1835 1791 1795 1802 1803 1786
1783 1792 1782 1778 :RAD 1 #3 6185 6188 6187 6192 6197 6189 6180 6174
6170 6167 :ENC 5 #5 5185 5189 5193 5176 5164 5161 5152 5149 5157 5161
5148 5141 :SW1 60 #60 56 :SW2 30 #60 53 :BAT 14 #15 12.7 :NAME 
0650018E=
0000013000
610
SIFG20 SOCA 111500
AAXX 11154
81405 24383 80605 10245 20224 30142 40151 700//
  333 60037 58024
  555 69945=
0000011100
611
UANT01 CWAO 111459
ARP MSR985 4605N02021W 1459 F330 MS56 200/105 KT
SUGDL QXT AOE 111459 F30A
0000011000
612
UANT01 CWAO 111459
ARP KLM757 4603N03954W 1459 F350 MS60 316/52 KT
PHBQM QXT AOW 111459 F33A
0000169400
613
SSVX02 KARS 111456
ZZYY 56558 11014 1300/ 328273 109272 6112/
444 2012/ 11014 1404/ 50101 80113 80000 9/015=
ZZYY 56567 11014 1300/ 331708 107682 6113/
11119 40179 52022
444 2013/ 11014 1403/ 50101 80078 80036 9/015=
ZZYY 56569 11014 1200/ 331616 113892 6111/
11119 40103 57001
22219 00221
444 2011/ 11014 1001/ 50101 80112 80040 9/015=
ZZYY 56569 11014 1100/ 331616 113892 6111/
11119 40099 57014
22219 00221
444 2011/ 11014 1001/ 50101 80112 80062 9/015=
ZZYY 56568 11014 1300/ 329109 110617 6111/
11119 40122 52008
22219 00218
444 2011/ 11014 1353/ 50101 80113 80001 9/015=
ZZYY 56554 11014 1300/ 326903 102545 6113/
11119 40179 52016
22219 00223
444 2013/ 11014 1403/ 50101 80107 80024 9/015=
ZZYY 56603 11014 1300/ 332948 109182 6113/
11119 40171 52010
444 2013/ 11014 1401/ 50101 80106 80040 9/015=
ZZYY 56610 11014 1345/ 318838 119910 6111/
22219 00299
444 20110 11014 1003/ 50101 80104 80020 9/015=
ZZYY 56565 11014 1300/ 331714 107814 6112/
11119 40177 52019
444 2012/ 11014 1402/ 50101 80100 80036 9/015=
ZZYY 56562 11014 1300/ 333820 108525 6113/
11119 40183 52014
22219 00199
444 2013/ 11014 1402/ 50101 80106 80002 9/015=
ZZYY 56562 11014 1200/ 333824 108531 6111/
11119 40180 52011
22219 00199
444 2011/ 11014 1141/ 50101 80106 80002 9/015=
ZZYY 56566 11014 1300/ 330189 103048 6113/
11119 40201 52009
444 2013/ 11014 1403/ 50101 80109 80023 9/015=
ZZYY 56557 11014 1300/ 332195 106592 6113/
11119 40186 52013
22219 00214
444 2013/ 11014 1403/ 50101 80111 80025 9/015=
ZZYY 56903 11014 1344/ 318942 119860 6112/
22219 00301
444 20120 11014 1403/ 50101 80104 80006 9/015=
0000018000
614
SMVD01 PANC 111200 RRN
BBXX
V7ZZ5 11124 99404 70290
41496 /3537 10120 2008/ 40090 54000 71521 8////
22212 0//// 20708 33535 40509 50508 6//// 80100 ICE /////=
0000014000
615
SSVX01 LFVW 111458
ZZYY 41099 11014 1446/ 714174 060932 6112/
22219 00137 10606 20061 21028
444 20120 11014 1354/ 516//=
0000011000
616
UANT01 CWAO 111459
ARP BAW207 4434N04848W 1459 F320 MS57 318/51 KT
GBYGG QXT AOW 111459 F62A
00000000