0000012100
995
SAAJ31 UBBB 111500
METAR UBBQ 111500Z 08004KT 040V110 7000 NSC 03/M04 Q1010
R16/CLRD70 NOSIG RMK MT OP=
0000010700
996
SAAJ31 UBBB 111500
METAR UBBG 111500Z 32015KT 9999 FEW100 10/M09 Q1013
R30/CLRD70 NOSIG =
0000011200
997
SATR31 UTAA 111500
METAR UTAA 111500Z VRB01MPS 9999 SCT100 SCT230 05/M08 Q1016
30CLRD70 NOSIG=
0000047500
998
SAPK31 OPKC 111500
METAR OPGD 111500Z NIL=
METAR OPKC 111455Z 05010KT 7000 FEW200 17/M04 Q1021 NOSIG=
METAR OPLA 111455Z 00000KT 5000 FU NSC 14/05 Q1021/A30.15 NOSIG=
METAR OPNH 111500Z 36003KTS 4000M FU NSC 16/06 Q.1020=
METAR OPPS 111500Z W--04KT 4000 HZ SCT200 11/03 Q1022.2=
METAR OPRN 111500Z 23004KT 5000 HZ FEW100 11/03 Q1022.4/30.19=
METAR OPSK 111500Z 00000KTS 4000 HZ FEW200 14/07 QNH 1021 RH.
CHECK
TEXT
NEW ENDING ADDED VABBYFYX=
0000012200
999
SNVX21 EDZW 111300
BBXX
DBLK 11131 99769 50341 41397 /0106 11048 21062 49938 52006
7//// 22281 05017 =
0000012200
000
SNVX21 EDZW 111400
BBXX
DBLK 11141 99770 50343 41797 /0405 11047 21077 49942 52009
7//// 22261 05018 =
0000011100
001
UANT01 CWAO 111504
ARP DAL117 4949N04428W 1504 F310 MS56 288/53 KT
N175DZ QXT AOW 111504 F26A
0000011000
002
UANT01 CWAO 111505
ARP BAW185 5111N03855W 1505 F380 MS58 281/43 KT
GVIIB QXT AOW 111505 F21A
0000015700
003
SSVX13 LFPW 111504
ZZYY 13659 11014 1504/ 726166 026933 6113/ 11119 40185 57255 22219
 00221 444 20130 11014 1500/ 50101 80142 80005 9/015=
0000015700
004
SSVX13 LFPW 111500
ZZYY 62714 11014 1500/ 734356 021700 6113/ 11119 40124 57017 22219
 00193 444 20130 11014 1457/ 50101 80100 80000 9/015=
0000016300
005
SSVX13 LFPW 111500
ZZYY 13593 11014 1500/ 738162 018538 6113/ 22219 00168 33300 88872
 20000 43618 444 20130 11014 1455/ 50101 80118 80032 9/015=
0000015700
006
SSVX13 LFPW 111500
ZZYY 62508 11014 1500/ 745926 006070 6113/ 11119 40201 57009 22219
 00130 444 20130 11014 1455/ 50101 80104 80031 9/015=
0000015700
007
SSVX13 LFPW 111500
ZZYY 62507 11014 1500/ 747394 011727 6113/ 11119 40127 57033 22219
 00119 444 20130 11014 1457/ 50101 80104 80031 9/015=
0000067800
008
SIAB30 ZATI 111500
AAXX 11154
13600 42960 52706 10145 20087 30181 40233 57014 80002 =
13601 NIL=
13602 NIL=
13610 NIL=
13611 41660 70000 10150 20095 30109 40199 57010 71042 87500 333
     87633=
13619 NIL=
13622 42965 60000 10164 20079 30215 40222 57003 86050 333 86360=
13623 42970 22704 10136 20033 30215 40221 57010 82050 333 82360=
13624 42970 53604 10172 20059 30180 40218 57012 85030 333 85360=
13625 42770 50000 10148 20071 30009 40238 57016 82101 333 82856=
13629 NIL=
13631 NIL=
13632 42664 60000 10150 20073 30097 40261 57005 83530 333 83636
     83360=
13633 42964 70000 10150 20092 30181 40218 52010 87030 333 87360=
0000211500
009
SIIY20 LIIB 111500
AAXX 11154
16008 42560 81903 10016 21015 38550 48508 55001 887// 333 88720
      92865=
16084 41310 83002 10092 20092 30052 40221 57010 75154 885// 333 84708
      85620=
16088 41630 82503 10094 20075 30099 40218 56005 71022 8523/ 333 85645
      83356=
16110 41796 80000 10090 20068 30213 40217 56006 71022 8358/ 333 55300
      83650 86357 555 0000/=
16134 42780 72724 10040 21037 37842 48515 56008 83028 333 55301 83450
      92845 95180 444 68164=
16153 42598 50209 10154 20084 39943 40205 56008 82531 333 55309 82630
      555 0213/=
16158 42670 71103 10128 20093 30210 40218 57004 85509 333 55300
      85640=
16206 42680 52103 10136 20089 30210 40219 56004 82231 333 82640
      83356=
16219 42765 83006 10052 20004 38160 48541 56008 8803/ 333 55300 88356
      95100=
16252 42864 60000 10110 20060 39270 42825 56010 84035 333 55300
      84358=
16280 42497 80104 10122 20092 39990 40213 57010 882// 333 55300 88610
      555 0100/=
16310 42897 70000 10148 20121 39990 40211 56010 83011 333 55310 83458
      555 0100/=
16320 41558 60503 10148 20125 30211 40223 56008 71022 83275 333 55306
      83820 86459 555 0211/=
16325 41996 60000 10142 20121 30203 40217 56007 71022 82038 333 82360
      98058 555 0100/=
16360 42597 70505 10140 20119 30082 40217 56004 81131 333 55300 81820
      84357 555 0000/=
16400 42498 61309 10148 20118 39927 40215 58008 81139 333 55303 81819
      84359 555 0213/=
16420 42298 52206 10152 20098 30143 40208 55007 81532 333 55310 81603
      83358 555 0200/=
16429 42570 61510 10182 20137 30190 40202 56006 82234 333 55310 82825
      84360=
16470 42966 41907 10174 20133 39961 40195 55009 80002 333 55310 22///
      95000=
16480 42598 12303 10190 20164 30150 40211 56010 81100 333 55310 81820
      555 0100/=
16522 42898 73505 10134 20102 39960 40204 56003 83058 333 55303 83358
      555 0200/=
16539 42897 81405 10148 20127 30079 40193 54001 84076 333 84357 555
      0399/=
16550 42598 81503 10146 20119 30033 40212 55012 8622/ 333 55300 83820
      83633 555 0200/=
0000213500
010
SIIY21 LIIB 111500
AAXX 11154
16021 41/01 93104 11020 21033 37977 48499 58002 74542 333 89/01
      92888=
16022 41/00 92319 11014 21025 37862 48504 56004 74942 333 55300 89/00
      92865=
16033 42570 50000 10032 21006 38815 48519 58009 82230 333 82630 84357
      92832=
16040 42665 72810 10070 20027 39281 42805 56004 85270 333 85835
      83358=
16052 42880 50508 11070 21175 36635 47069 57001 85020 333 55301 85457
      444 36244=
16061 41115 80000 10062 20062 39378 42822 56004 71022 885// 333 55300
      84603 84613=
16098 41750 70000 10090 20061 30168 40220 58011 71022 82220 333 82650
      85462=
16138 41525 50000 10090 20076 30209 40221 56007 71022 82132 333
      82820=
16148 41316 80000 10104 20080 30210 40222 56003 71022 87600 333 55300
      87706=
16168 41/00 91903 10088 20071 39466 42822 58010 74541 333 89/00=
16172 41908 82101 10090 20084 39921 40223 55007 74044 82037 333
      82360=
16179 42580 60602 10106 20067 39530 42821 56003 81131 333 81830
      84358=
16224 41657 70201 10086 20059 39894 40217 57011 71022 81532 333 55304
      81640 83356=
16232 42997 51410 10129 20074 30149 40203 56016 83035 333 55307 83359
      555 0113/=
16245 42570 62003 10138 20093 30189 40216 57014 82452 333 82630
      83357=
16253 41840 72502 10130 20114 30205 40217 56005 71011 85031 333 55305
      85358=
16258 41/00 91405 10080 20071 39217 42818 57005 74542 333 89/00=
16263 NIL=
16294 42597 6//00 10130 20102 30028 40221 56003 86500 333 86620 555
      0100/=
16337 42798 41004 10126 20043 39642 40212 58013 84010 333 84450 555
      0100/=
16344 42760 72708 10070 21082 38346 48526 56004 87030 333 55300 87350
      95000 95100=
16434 42470 42104 10112 20064 39022 48528 56001 81101 333 81812 95000
      95100=
16450 42465 60000 10102 20080 39049 48519 54002 84271 333 84810
      83357=
16459 42560 42605 10196 20101 30183 40218 57010 82201 333 82820=
16546 42560 71504 10160 20144 30162 40190 56004 83511 333 83620
      85460=
16564 42497 70612 10148 20127 30054 40195 58001 82271 333 82816 83356
      86460 555 0200/=
0000016000
011
SSVX02 LFVW 111505
ZZYY 41646 11014 1454/ 729275 061166 6113/
22219 00235
33311 88872 20000 32347 43663
444 2013/ 11014 1452/ 50101 9/015=
0000012800
012
SSVX13 LFVW 111505
ZZYY 16551 11014 1500/ 321905 060349 6113/
11119 40175 52017
444 50101 80074 80000 9/015=
0000018400
013
SSVX13 LFPW 111500
ZZYY 62503 11014 1500/ 745952 002458 6113/ 11119 40203 57008 22219
 00134 33300 88872 20000 43543 444 20130 11014 1500/ 50101 80100
 80000 9/015=
0000016900
014
SSVX13 LFPW 111500
ZZYY 41737 11014 1500/ 725759 037036 6113/ 11119 40190 57020 33300
 88872 20000 43753 444 20130 11014 1500/ 50101 80148 80066 9/015=
00000000