0000018400
015
SSVX13 LFPW 111500
ZZYY 41800 11014 1500/ 725925 035872 6110/ 11119 40187 57022 22219
 00232 33300 88872 20000 43749 444 20100 11014 1400/ 50101 80148
 80065 9/015=
0000011100
016
UANT01 CWAO 111505
ARP UAL127 5306N02259W 1505 F350 MS60 202/63 KT
N17139 DDL IG1 111505 F65A
0000011000
017
UANT01 CWAO 111505
ARP FDX10 5342N05124W 1505 F370 MS61 288/71 KT
N886FD QXS YAY 111505 F15A
0000011000
018
UANT01 CWAO 111505
ARP BAW177 5403N01624W 1505 F390 MS58 240/66 KT
GVIIY QXT AOE 111505 F08A
0000514600
019
SSVX02 KARS 111502
ZZYY 23917 11014 1500/ 113498 050346 6113/
11119 40157
22219 00254
444 50101 80110 80009 9/015=
ZZYY 53909 11014 1500/ 303486 082729 6113/
11119 40127
22219 00294
444 50101 80120 80011 9/015=
ZZYY 23910 11014 1500/ 101181 090023 6113/
11119 40127
22219 00290
444 50101 80118 80013 9/015=
ZZYY 14946 11014 1500/ 311126 078231 6113/
11119 40102
22219 00292
444 50101 80120 80010 9/015=
ZZYY 23919 11014 1500/ 113627 049164 6113/
11119 40157
22219 00260
444 50101 80110 80009 9/015=
ZZYY 23920 11014 1500/ 111953 049575 6113/
11119 40154
22219 00260
444 50101 80118 80007 9/015=
ZZYY 23918 11014 1500/ 113194 051046 6113/
11119 40158
22219 00254
444 50101 80118 80009 9/015=
ZZYY 21619 11014 1500/ 147139 157362 6113/
11119 49968
22219 00031
444 50101 80120 80001 9/015=
ZZYY 46605 11014 1500/ 753046 167432 6113/
11119 49816
22219 00051
444 50101 80120 80013 9/015=
ZZYY 46623 11014 1500/ 749944 133722 6113/
11119 49828
22219 00083
444 50101 80118 80009 9/015=
ZZYY 55568 11014 1500/ 357359 163593 6113/
11119 49761
22219 00041
444 50101 80120 80010 9/015=
ZZYY 55594 11014 1500/ 357715 164053 6113/
11119 49747
22219 00040
444 50101 80118 80010 9/015=
ZZYY 55610 11014 1500/ 359035 154950 6113/
11119 49714
22219 00028
444 50101 80118 80023 9/015=
ZZYY 21620 11014 1500/ 136980 142481 6113/
11119 40247
22219 00096
444 50101 80120 80011 9/015=
ZZYY 46589 11014 1500/ 752961 167209 6113/
11119 49817
22219 00052
444 50101 80116 80009 9/015=
ZZYY 46537 11014 1500/ 154092 179871 6113/
11119 49715
22219 00039
444 50101 80116 80008 9/015=
ZZYY 33560 11014 1501/ 550060 047410 6113/
22219 00061
444 50101 80110 80023 9/015=
ZZYY 33570 11014 1501/ 552113 045161 6113/
22219 00061
444 50101 80110 80026 9/015=
ZZYY 33559 11014 1501/ 549248 045497 6113/
22219 00104
444 50101 80112 80021 9/015=
ZZYY 33566 11014 1501/ 551903 048057 6113/
22219 00049
444 50101 80112 80039 9/015=
ZZYY 33576 11014 1501/ 553077 051349 6113/
22219 00054
444 50101 80112 80035 9/015=
ZZYY 33569 11014 1501/ 551801 045899 6113/
22219 00058
444 50101 80112 80029 9/015=
ZZYY 33577 11014 1501/ 548697 051756 6113/
22219 00075
444 50101 80112 80021 9/015=
ZZYY 44884 11014 1501/ 751380 033434 6113/
22219 00063
444 50101 80110 80026 9/015=
ZZYY 44883 11014 1501/ 752744 034582 6113/
22219 00064
444 50101 80110 80032 9/015=
ZZYY 22916 11014 1501/ 118917 115934 6113/
22219 00241
444 50101 80114 80029 9/015=
ZZYY 44881 11014 1501/ 755678 038723 6113/
22219 00051
444 50101 80110 80026 9/015=
ZZYY 44845 11014 1501/ 757632 028807 6113/
22219 00078
444 50101 80110 80031 9/015=
ZZYY 22918 11014 1501/ 116648 110572 6113/
22219 00238
444 50101 80114 80019 9/015=
ZZYY 22921 11014 1501/ 116294 108607 6113/
22219 00223
444 50101 80114 80019 9/015=
ZZYY 44913 11014 1501/ 753606 026058 6113/
22219 00101
444 50101 80112 80031 9/015=
ZZYY 22938 11014 1501/ 121699 116962 6113/
22219 00230
444 50101 80116 80032 9/015=
ZZYY 22940 11014 1501/ 119953 118344 6113/
22219 00217
444 50101 80114 80034 9/015=
ZZYY 22642 11014 1501/ 113675 117279 6113/
22219 00275
444 50101 80120 80035 9/015=
ZZYY 55597 11014 1500/ 355265 162845 6113/
11119 49836
22219 00043
444 50101 80118 80013 9/015=
ZZYY 53592 11014 1500/ 313553 080056 6113/
11119 40085
22219 00285
444 50101 80120 80011 9/015=
ZZYY 23909 11014 1500/ 100786 089800 6113/
11119 40125
22219 00291
444 50101 80120 80015 9/015=
ZZYY 55569 11014 1500/ 357738 164906 6113/
11119 49754
22219 00049
444 50101 80118 80011 9/015=
ZZYY 23965 11014 1501/ 105280 074379 6113/
22219 00281
444 50101 80116 80031 9/015=
ZZYY 23967 11014 1500/ 307010 077565 6113/
11119 40127
22219 00290
444 50101 80120 80009 9/015=
ZZYY 55598 11014 1500/ 356349 162476 6113/
11119 49793
22219 00052
444 50101 80116 80013 9/015=
ZZYY 55561 11014 1500/ 356052 162946 6113/
11119 49811
22219 00061
444 50101 80106 80009 9/015=
ZZYY 53601 11014 1500/ 312877 080609 6113/
11119 40097
22219 00287
444 50101 80120 80012 9/015=
ZZYY 53605 11014 1500/ 303730 082565 6113/
11119 40130
22219 00294
444 50101 80122 80012 9/015=
ZZYY 14947 11014 1500/ 311249 078396 6113/
11119 40102
22219 00293
444 50101 80112 80015 9/015=
ZZYY 55599 11014 1500/ 359333 154903 6113/
11119 49704
22219 00026
444 50101 80120 80011 9/015=
ZZYY 14948 11014 1500/ 307060 077567 6113/
11119 40129
22219 00289
444 50101 80120 80016 9/015=
ZZYY 55592 11014 1500/ 357610 164985 6113/
11119 49757
22219 00047
444 50101 80118 80006 9/015=
ZZYY 55563 11014 1500/ 355976 169808 6113/
11119 49837
22219 00062
444 50101 80118 80019 9/015=
ZZYY 22924 11014 1501/ 114281 112992 6113/
22219 00261
444 50101 80114 80032 9/015=
ZZYY 55565 11014 1500/ 356582 168277 6113/
11119 49811
22219 00057
444 50101 80118 80014 9/015=
ZZYY 22913 11014 1501/ 117530 115126 6113/
22219 00242
444 50101 80114 80026 9/015=
0000203800
020
SIRO21 YRBK 111500
AAXX 11151
15015 22598 83501 10021 21004 39606 42808 57004 885// 333 60007 91002
91102=
15020 22597 73001 10058 21014 39993 40194 54000 82470 333 60007 91001
91101=
15090 22997 82400 10074 21032 30100 40193 57004 85077 333 55300 0////
20123
30118 60007 91002 91103=
15108 NIL=
15120 22697 71001 10041 20019 39716 40221 55005 82570 333 55300 10010
20046
30046 60007 91002 91104=
15150 22997 42901 10073 21035 39982 40196 57002 83031 333 60007 91002
91104=
15170 22598 71903 10034 21028 39413 42804 57010 85308 333 60007 91005
91107=
15200 21597 81001 10069 20058 30062 40208 57010 70282 885// 333 69937
91002
91103=
15230 22598 70901 10081 20023 39923 40218 56010 87400 333 55300 00009
20117
30117 60007 91002 91102=
15260 22599 73301 10075 21005 39674 40211 56009 84570 333 60007 91001
91103
95000=
15280 21093 72718 11093 21105 37471 47012 56004 74144 82546 333 60007
91024=
15292 22998 61901 10122 20023 39917 40209 56010 86070 333 60007 91001
91101
95000=
15310 22997 41602 10065 20022 30121 40209 55004 82031 333 55302 10050
20261
30241 60007 91004 91104=
15335 22997 63401 10080 21002 30200 40206 54001 80006 333 60007 91002
91103=
15346 22997 41601 10099 21021 39918 40207 55009 82071 333 60007 91002
91103
95090=
15350 22997 32404 10093 21030 30090 40210 55001 80005 333 60007 91007
91108=
15360 22597 71704 10055 20055 30191 40206 54001 83506 333 60007 91005
91107
92417=
15410 22997 31101 10136 20028 30117 40212 56009 83030 333 60007 91001
91102=
15420 22997 21902 10088 20003 30098 40210 57006 81041 333 55303 0////
20359
3//// 60007 91003 91104=
15450 22997 41703 10118 20018 39976 40210 57009 83041 333 55304 10008
20396
30102 60007 91004 91107=
15460 22997 32703 10086 20010 30192 40216 55002 80001 333 60007 91006
91106=
15470 22997 02701 10096 20040 30086 40213 56007 333 60007 91004
91104=
15480 22997 32903 10082 20002 30192 40209 57002 80001 333 60007 91006
91106
92427=
0000010600
021
SIBN31 OBBI 111500
AAXX 11153
41150 42962 72007 10170 20126 40197 8707/ 333 59010 87459=
0000066900
022
SIGO20 FOOL 111500
AAXX 11154
64507 41458 70705 10300 20254 3//// 40/// 71799 879//
  333 5//// 84611 81916 87626 94941 95831=
64510 42565 5//// 10300 20226 3//// 4//// 85200
  333 5//// 85823 94939 95839=
64512 42470 5//// 10286 20210 3//// 4//// 85200
  333 5//// 85811 94929 95839=
64550 42470 6//// 10326 20238 30/// 40/// 86800
  333 5//// 84815 86626 94939 95839=
64551 42470 71806 10300 20252 3//// 4//// 8393/
  333 5//// 83815 81923 87362 94944 95834=
64556 42460 5//// 10282 20238 3//// 40/// 85500
  333 5//// 85813 94939 95839=
64570 41157 70000 10221 20220 39595 40091 70196 8551/
  333 58019 83703 84613 87462 =
0000011000
023
UANT99 KDDL 111504
ARP UAL16 5305N02228W 1504 F360 MS61 206/76 KT
N48127 DDL IG1 111504 F35A
0000009700
024
SAUK63 EGRR 111450 RRA
METAR EGDR 111450Z 13006KT 9999 FEW028 BKN250 09/03 Q1020=
0000045200
025
SFUK43 EGRR 111500
]R SFUK43_EGRR_111500.CSV uN@E8VD"
Krunu[6wx`1! mˡOIܮ0*]$WCn^ޭ7Z=fvTqjwxꄫoX/},zE*bӵ/WORrqS):/g=S^2ꩆ	RuPJrf0eK0)#dT2A~@Ԟ *ϐՊrxjDN3TZϥq19țJ\;3Mh<K70fU$ by_Bb}Mj<@vq-H1b3<75nƁvkǦ+*_|n  
0001272900
026
SFUK45 EGRR 111445
^ZR SFUK45_EGRR_111445.DAT }ۮmq;b>}*~,,)iSH	t(!1Fu/
^{꺌?~?O?_>Vkc}?}w?ou|9e}w׷|Q~?/_?|7㷿?|?_۟?s|~?ß׷'o?_ǟJVxSe)ﻯbO1~o1c?ZKp}Nzm<j/}&> ^{oG	`G>c֝lysQ[kՈ[<J~}a0}ٳr_Vem0\xOS;ff}`[9kyԞG7<~Tl@+lvY<5׹)nnoNғ&2`C-WY%Tްñ |L WIf^ynsC6a f9Nc9Iwy$_3ٙZpe6m)}=vr[gOנA>ğr<NkbG!4;:cbIju-BN	)HPNK<Dϲ<%o4}P[i-I7uTxwx&^֖`Xײgg[aǹy+]{-er,Kx_x5˴Ynqounܒ2ܤڡR{hoJzMk|hDo׉] ؕkc7'ݕQ g%rեZzzWIGn5.`Cbanp-YJ9x-mNp0M؆6O[vEm:CCϬD\v}xo& 㓌f8^vZZgnqxP&ҳcdqٱRmp6a̠ZϩKm̤rqӾx;L,f7,SGa<PlS}65Mϣ*{BNxg}]ׯjbKy0-νvpƚ|GЙP; 7	hq4*
鮹h ;,o\Oϑk6RbyH'>cic^UC"Ci
p/'+<XJEsF[EGS=1<8(:nL_[l'ỉ۱{UrB4E: 1cLGT7,:4\w'	;xZ= zN<xM.eJ3XzcHe!$-,}Hr֦b
\xƓkPąp]A5G`d`r+*U}|QcK\GXY8ec +¬ΨIZuBvwd86{MCgJN:ڗVRDi?b=jr"[Mod*j#Rᆓw;Ff7>T*lQL;'hxP'݊|CiW[ZF0ʦc=;;3d¼xyɡn)tܳwDE-_*Z
h-.HJz^DW$s;mUakƊ."
Q#Y ;$6NFq18G	vfIrxx`?"
後#3pǄ><xOT̻+"r#w-0~ҶzteaaЂDҠhxʸxKr_Ynrs72 o,u^vB.dٓY&Ed2h]{itSbj!1w[ U>
eF\_ZT0
3CW<USb),YUHH#8uݝ3fP(h&E==`Ȃ 	qYM0ǥ#;piEQ$>MSoAd5bZ'3-:9r[jb]99BWq$Tg-BPK"'|lǩ;=	O}ƅ
=OkR,ǧߖ:u%DP|08(,dͪbpN[}Mb3"ܗ6һ>$-j%"`֞gA-nfpq Ӄރ/3~|2R]ܡLqkj@< ㍞? BQӃ MIL.¾uc`-mtÎIܓ<4FH2,=D>Z>jorB[HDZ#.D;å0; O:#$oSau".|"Qc#p11|.xłg	p:īr@x{JKِ2}UB|P33(Gc 963(/{"êڀbª~6DWlCq!`?:}s%.nNQYꋵDXxQD5fJ{%g;KrsA!A0 7NNB47G6U9&ēN#-ܒ%W8ĎF0\?Z(l=xVoGHδ.;L|"Ϫ|cO6;	HΪb^+!R8x
qVEPu n)y6Qo?Wo	DmkŃ,rЅb'1p\Ftx][BɶJepo&S< \X܊Z]GZv.pۄfxN4A20+T,%n.]H8JlZ{~++b-Pn8.qG%PEW6f1v*'e20e4Qۀ-ܶ&|zXmg&b!*FMb92RF
=HcW>|=R%ifF8PJѶ֕ݎmJ5D$߽$齥\U`"xUO(ٶirGxSSREm'0pn~Fp0DSMnm`*u1Cpq]S^6Jh]w-1MDz8 ~}I/lɷӦص+҉;%bVxK޴`7hC36e1FPw)oWdzV֎"9&D>b'yMckS5f:D&/ zA_tƁP	1L΂F~{\8lH`ru;jH!巌QHpL[!9!vȖ1<;
䂀z12Y2t5 9"]85^&4FEH;uPEpUБF%S>+zܧ^ug
AWJxQR\iKe̵Z29Ee*8&YjH 7!ݰT
܏pG^:`k0'ܩ[#]*r,W~*݊H҉#2o܀ʩdmH@U|T#]O36^G8q5=
U^LZ*i+VaT8$82U8Gsc#^fbi ,T9nH2rK}If E9?%/EdcPT]$̤pHdLzwO \ՖgZ_~%%5{i`'C
q[X;3uAn1oU0{dTB}?AҚ:25m43VMypQ *=A>4pwtBMfvFP>"/E*yejx-`W%=ÑzT^s_,kZO(^SroLԮ*&uS88mA'$]@+GQ`kcSM|3UcoxOS1\#g8%ʳ6 '3qZVkgrjIp+^tvR*DʰY=U}+[ݚ3Oy|O=-fr)iȘK/9+,_u7c*0jLBy>t.}Dl-ErDCOp#ގj۵ML'1~'/*ID(r
]iYPIYfkc~o؞caæfW9gljrJw;˶(`5i3\ХiQ@q.B',!zxC<c1Ql[ا%2,Ȟ&5WW,=2Y,Ɂ6ǖ%X+0$$	Ń[@9J꜖GE{֟ТY=Ĩ7[Anx!kkX|H)x8yfrduCz͝|9J,_*-GBK:	M3ac?OI\UƐ ci-A|hCdxl	ݟvU]7LE5E`F	G|=ܤZYT`q(qӃу4.0$SEXc< nq%{R:scΘO2QX:<}|˔+&?'ad+r!	Θ+M/v" ft6k-<Aޓ\pk5iEAUHZv $\]CΆyn@O	2"
y*o:*`n$l	ࣲ،>`a۬dV~uq;}$7S"o@a8@E$D׋L&ѵ=/YLBBʕFE2Yb^>AnE]qR~bvjGXeC}KnVhaL*jN}KQ@bnaR0x[<糒PdNZ5)F寻j_:z3dn˲[=;46׏b4p.lӝxR /4$'Te_Kw}ۢe3hܝ[|X_n(& l$%YBjV"Ȅ)LIVG<sz8nV:+#6xNT-r9 m15JUپ?q3qG7yrd)WIM1=XcU^6c@?([fr7aζ ^a#37kT'r+_	~G욫%,M)mKּޱ^+Ƕ6/	+J4^#TXCJ{=\+zU+"}]^;)4E篑[葨;%v!){F̆NQ;zKYv8&!Ѵ$`^utpfbzKx7&jE`Y3\62IH?ER; ȇpqkGdo j]ۡ?ثJaڢWK5	H~؎=mr!O\9;r!AuCʉ/Z.99U󜆊Xv=(=k2xVoգbI&Ls]GA9i2̀+L!fm-% ie^!{Ю(-.N'X8K`}Jzn#qklS~-QZ.
,LӆVB*gcRzA9qk  ަN~%R4o&mwaF,x R´M%	%k#4(|5+e-d{57
,;c:MnΊqRqzMɎ4c-.!٨:sB	HmT3=2SnnykX'egL#U)GS`SF-*<bM!+̍>3`(&!A3md͓TIV
KY`)ly"xu(AGN<`ؙ(8\^	Z)맼 WĎM-u	3`}JebY)jlK"jS֎uz5YLBӵP)d`b"{Qġb;1]LqZBn7>GnKRrBZ$JlkMݭA۞q3T͊HZEcjLTqb\$9gRl"Srf(n?	SO^1;BMLԾ5wEln|?{%#IAd][vŎsX6ƄL"'﹝Zrıc`'<paa$v۫ۖף"GIp#U2O[dm(WVpᳱq3)ㄝ?Z;gw,Od"Rj\N~$Y|!C5D{Mw^qʪ
3䔶ܟiRPk>d@6Ᏹ>bXxzE&C;LHG>Vç'N2u	1IOj*q[1c1?Aج&0
0ʃ7|JKP*Y(SR)3ZK$eM#)vֳ {0biȧV^ۻC*8D8a^hTV	XnҦuQ#CzN]6F[rY,z=kpJ.#°\`	#.wBs5gYtc^m aP8!QYO*ܪ2u{&depQh)r y$t7je$oKD5En3`Ө1EâX~NGRpz5c;k്;w▊<k1;j=m$j-[S-{QZHFn=36D6;l\q/Ľ6E28״@6jt:Dg+ek֙D-N,B5*f"ɳ]ury+_PM.mR;SS=%Z*9lf^8~>Y`(L*G;3f+v#2XtS[A).wrEyikҷ0ʽNl$*hί_jJ4+9ճCٹs׳-qP2)r01Y9Dk:YH͐ўkXs(HLӉTOJԍ_agh!6o+b0t\8c4r*N	h{r14MU(~H,b9wM5cvRKF/Kl~eMBN(X=~?kS̈́4q(xlq%`8{^=nb4WHr#G,Cd@ʲvvW)	wma&3ES15뗣E]`040Or]uX({	ܝ95,jGqKK5r$viܧir5^u1YݨQjhy$Z?k3Hޝ}iIߋ1{I8TխnlYP!٨8MڷSp(c!|ߪ5y.>Ŏ'V
)xÅC[fk0EVDg^ojVdSt|t)
V5<|ABr)ڂ&`CNmۄі|GrOnT4;OǀBk})gDd3xY%>7
8?K
U[J9oHYŲK !	7o,Q"E2%R P~~YΉ =BnټdMNon⤠fOD|_x{mZ]kbP0aW),(\d+1ehk=V4!G}W)'
rj86[hv_II`cx5Mq3'&(?x'1݆%gޱ$<6YƵQǱg s`?ʰOʎ	63qiSfU{iSьVhԹ [LsPǿ2W8g!gZw|_r$Xũ OsȀCsVԡB3	8N1%]ݞcO*r-Z嬶f9{{"`+J{k;SɪZ2rTco'܋{Wb$qåOSy=w
k8]reRIF0k?ZfN4=i>7`#
vh`$*]bZ8*dgslІ_ƼK|b!ܣ؁S;fU|i1h8;Ӛo<g*崀`7![OK-$[AVa+6zWx`4uL5w jBqcrwxN1\=itqj^Pe_J,FKɕ3	SPg"X'˱eXTˎT33H|aD";Zfǉ7w<?`1eZ^mLtF=-
z:Ʃ
2lcL-r:$Iqԅt?9o(K!qTH#CmUQ7lFRpСpş~Ø`G\eoJ󣛊7p]
˅+2BsIR_+3'dPNvO]ٱ@P)Lړ` 	Ta2\c_ocIy]ܪpby9	aɸ3̪Ir82,P'.!3u%ϡ,cWl"Ɔ`O0Ul@ɡvSVg2OD/15!f|I [ Zs2"~BRgx3!5U- ٗil2jŻ4Vfє	gE6oeO';^~{%ZeV(nv̹[s=5NwIZ'Tl֐)U&GWQV59; a FNjd!Tl'NП@'TcZh_]#wdvKʮkY\#8<1:GsR^u6pM{~#I9d	,-'N2NMֱgguJ1)zvummN)AkͶG&xsszFmdGF9䆵iqzidPBwNx`*]ar c&19ǖ3Zs8F|!k4hi<+T?R)C8zRG>QqhSC;'g,x8m]cv2\ۋ[OʊwO6!Avg,"Yj)I٠Dv#?,3ewχ&n
$jKC"PyJ:bq\ݣv>+G}S6cN=qi&xbΥ-.ѝUW=fgхRp@~2P^[^9rgr!a8.~V"k\+=Z%`!Ӕ)kXEV`%-qvXWݮ	Nz=:W0Tt}nmx˾\5mQԣ#
	y_șC7yR)doD҂	lN ;8	Nd+	ꁻ"l֬qӬ֐qOyDo#tflMzg76DfEio4Y:zAsvVF 5268^+t/15dᢱ46OR+[ǜd:KM%h>ń/>6-ЃO vFF=V\Nbgj/)RۂaVmރ1a|dó3h_z\U]vG8`K΋l:ϲo]nkѝ!ޘgv@m$]-uAˎYZ1L&A$u#P#Pɗ8D@X\[]n[-s*^3׼^悝;4N6f9wdXrFP7E^8ؼ].]&W9yO\هkR eygi]9 |/ԧǱgF_U
ZړgaNLN{=;,xܘDgը
;Fc8'C\o,zLtQYʪL[,:2|oɼ@X3g;I<B{] ^\ll@"٢b{:8
6QRm}č_q{wF	bCLeaٍ۽g^)
?&3Sm
*9!fl:R$c:	f|
6%h-`gjZTuEg2z?)ە1c	6l8H{F%8bc~ژ".w\K?Xl#n^"a="y0q06i^Nff&AlI~k/'/9fOjՃO̤dD3Yj
wu,iEHh3BzMg6/~:{C	s56R:QPL:Jt%!;Y%*	IM7IUp?fU0ˎqK=G@({(_Kt\~'Tyx#ahu~
^)x y	x=?&/CkѺ$n97x2URDxVip&a'u	GGoWS6ØSct7hT[yaF:%.h±OvA_l=`3V	Tܥxf=)=fMm6Q09!Qd|dklK_o.+wQ%oŇ#mԙ`FJ"%ZloV뷆WIy*($2߃'oW%4e#UV/t8$bB,=IÿW|8Ӿ(ه-<K[MOu&Rº(8zTk0cنT⶟1k,`LMvgKJۊP<Eet P&b-Cb3P7E2[3G[g[ .zEg~ht&T["b3'S$k^ʿTڧT}q*C>¦͛BCB9y꘰n	S5KFN٦BW㟧[2B0;}S[C)Λaޔ9$'$Uk[0+n!l	n:Qk6VH8DWL?ξL>k3;r[CIIf5jnET8zˢJn@l&I;W%4o%-][7
iWX|B~:3ްZVu[_ޯ2.q?IQw,&l>/ǆvzkh>y3,xL 6$Gtj)?(e5E$TR1v|[kmů]jO_~v#):&*~'$)piA2@O<m0|jU0_DWnڝ<	-9Br\<Ԏ$d͝y1tDNa7(2ނqơ6TtrqK-ީPqW6YEj\/mӶBsבp0/G!Rs	%kމ*m9Sʬk/1ĆJt/:/wt'Ba]r3=, z搻~ޯCPz6i铫:VD]ge#sCdՎxV[]poT;/e<*F99abwo#:}Gf-|ezqJF9)~Ѹ'_|W|󫯿z{71o~߾_˯_?ooߟ?<JL1  
0000079200
027
SIUK87 EGRR 111500
AAXX 11154
03080 45984 /2712 10042 21034 39958 40131 53024
  333 8//99 90710 91125 555 7/090=
03088 45982 /2614 10045 21028 39962 40127 53021
  333 553// 20387 8//99 555 7/090=
03144 45984 /2310 10045 20003 30109 40152 52016
  333 553// 20359 8//99 555 7/090=
03305 45984 /2410 10049 21001 39942 40209 53011
  333 8//99 555 7/090=
03313 46983 /2605 10062 20006 30110 40206 52015
  333 8//99 555 7/090=
03321 45980 /3004 10068 20011 30194 40207 53020
  333 55310 20575 8//99 555 7/090=
03560 45982 /3011 10062 20013 30103 40209 53021
  333 553// 20634 8//99 555 7/090=
03647 46580 /2907 10054 20007 39951 40210 53015
  333 553// 20644 81/23 555 7/091=
03684 45582 /2908 10071 20022 30092 40200 53016
  333 81/26 555 7/093=
0000011100
028
UANT99 KDDL 111504
ARP AWE717 5207N02619W 1504 F370 MS52 195/61 KT
N274AY DDL XXN 111504 J84A
0000022700
029
SIFW20 NWBB 111500
AAXX 11154
91753 24482 73107 10269 20255 30003 40035 56018 700//
  333 4//// 60007 90710 91111
  555 60005=
91754 26/// ///// 10251 20239 39992 40033 56020
  333 60007
  555 60005=
0000078000
030
SINC20 NWBB 111500
AAXX 11154
91573 26/// /0912 10256 20197 39988 40085 56023
  333 59019 60007=
91577 26/// /0201 10249 20174 30064 40086 56020
  333 59021 60007=
91579 26/// /1008 10243 20194 30080 40088 56024
  333 59022 60007=
91582 24570 81505 10218 20188 30058 40095 56021 700//
  333 4//// 60007 90710 91119
  555 60005=
91583 26/// /1604 10248 20183 30074 40089 57025
  333 59026 69927=
91587 24866 /1504 10233 20175 30037 40092 56024 700//
  333 4//// 60007 90710 91113
  555 60005=
91590 24986 /0301 10206 20149 30086 40099 56022 700//
  333 4//// 60007 90710 91107
  555 60005=
91592 26/// /0809 10233 20184 30017 40099 56024
  333 59028 60007=
91596 26/// /1208 10219 20191 39994 40103 56024
  333 59026 69927=
0000010400
031
SIIN90 VICH 111500
AAXX 11153
42071 31995 00000 10126 20107 40213 71011
  333 58028=
0000011000
032
UANT99 KDDL 111504
ARP KLM743 4802N02947W 1504 F320 MS46 215/31 KT
PHBQP QXT AOE 111505 F23A
0000011000
033
UANT99 KDDL 111505
ARP DAL85 5301N01934W 1505 F320 MS57 202/83 KT
N841MH QXT AOE 111505 F10A
0000011100
034
UANT99 KDDL 111505
ARP UAL919 5306N02655W 1505 F360 MS56 191/62 KT
N778UA DDL XXN 111505 F27A
00000000