0000011000
815
UANT01 CWAO 111503
ARP ACA831 5405N02717W 1502 F360 MS57 191/68 KT
CGFAF DDL XXW 111503 J24A
0000008600
816
SAIN90 VAID 111500
METAR VAID 111500Z 00000KT 1500 BR NSC 13/11 Q1020=
0000011000
817
SIIN90 VAID 111500
AAXX 11154
42754 31992 00000 10134 20109 39532 40189 71051
  333 58043=
0000016200
818
FCIN90 VEGT 111500
TAF VEGT 111500Z 1118/1203 00000KT 2000 HZ SCT018 BKN090 BECMG
1200/1202 0700 FG TEMPO 1118/1203 1500 -RA FEW025CB OVC080=

0000011600
819
SIIN90 VEAT 111500
AAXX 11154
42724 31995 40000 10154 20136 40169 71022 84030
  333 58002 84360=
0000012000
820
SPIN90 VIDP 111500
SPECI VIDP 111500Z 26003KT 1200 R28/P2000 R29/P2000 BR NSC 12/09
      Q1020 NOSIG=
0000009300
821
SAIN90 VABP 111500
METAR VABP 111500Z 02006KT 2000 BR NSC 14/12 Q1020 NO SIG=
0000007900
822
SAIN90 VOBG 111500
METAR VOBG 111500Z 09005KT 8000 22/11 Q1018=
0000015600
823
SIDL21 EDZW 111500 CCA
AAXX 11151
10338 21458 82506 10061 20047 30037 40110 56012 76162 885//
  333 55300 20017 30017 69977 84617 88620=
0000020900
824
SIDL22 EDZW 111500 RRA
AAXX 11151
10381 32881 62205 10062 20009 30012 40110 57017 86531
  333 55305 86657=
10439 42570 72005 10053 20027 39919 40141 57019 8387/
  333 81822 83650 87359=
0000011000
825
UANT01 CWAO 111503
ARP EIN125 5901N02256W 1503 F320 MS60 231/89 KT
EIEDY DDL XXN 111503 J70A
0000011100
826
UANT01 CWAO 111503
ARP UAL951 5213N03831W 1503 F370 MS57 285/37 KT
N777UA DDL XXN 111503 F52A
0000011000
827
UANT01 CWAO 111503
ARP AAL39 4900N02008W 1503 F360 MS57 197/82 KT
N778AN DDL XXN 111503 F19A
0000070300
828
SAIR31 OIII 111500
METAR OIAW 111500Z 21006KT 1000 RA FEW005 SCT020CB OVC070 12/11
Q1017=
METAR OIFM 111500Z 31004KT 0200 FG SCT035 OVC090 M01/M01 Q1019
      A3010 RESN=
METAR OIII 111500Z 30006KT 1800 BR SCT030 OVC100 01/M01 Q1019
 A3011 TEMPO 0500 BR FEW035CB SCT030 BKN100=
METAR OIKB 111500Z 27006KT 6000 -RA FEW025CB SCT030 OVC090 13/11
Q1021 A3017 NOSIG=
METAR OIKK 111500Z NIL=
METAR OIMM 111500Z 21004KT CAVOK 06/M13 Q1017 A3003=
METAR OISS 111500Z 15004KT 2000 BR FEW030CB SCT035 OVC080 03/03
Q1018 A3009=
METAR OITT 111500Z 00000KT 5000 HZ FEW035 SCT180 M07/M12 Q1020
A3014=
METAR OIZH 111500Z 12012KT 9999 FEW035 BKN090 04/M06 Q1019 A3011
NOSIG=
0000009000
829
SIQT20 OTBD 111500
AAXX 11154
41174 46/// /1003 10152 20123 30140 40202=
0000057100
830
SAIR32 OIII 111500
METAR OIAA 111500Z 28006KT 9999 FEW030CB SCT035 BKN100
13/09 Q1018=
METAR OIBK 111500Z 09010KT 8000 -RA SCT020 FEW025CB SCT030 OVC080
16/15 Q1019=
METAR OICC 111500Z 00000KT 7000 FEW035CB SCT040 BKN080
M00/M01 Q1018 A3009 NOSIG=
METAR OIGG 111500Z 00000KT 3000 BR FEW030 BKN160 07/06
Q1013=
METAR OIIE 111500Z 29004KT 9000 FEW025 FEW035CB SCT045
BKN090 02/M01 Q1020 A3013 NOSIG=
METAR OITR 111500Z NIL=
METAR OIYY 111500Z 31010KT 6000 FEW035 OVC100 05/M02 Q1020=
METAR OAKN 111500Z NIL=
METAR OAKB 111500Z NIL=
0000042000
831
SAIR33 OIII 111500
METAR OIBB 111500Z 13010KT 6000  FEW030CB SCT035 OVC080 13/12 Q1016
A3002=
METAR OIBP 111500Z 10004KT 5000 -RA SCT020 FEW025CB SCT030
OVC090 14/12 Q1018 A3008=
METAR OICK 111500Z NIL=
METAR OICS 111500Z NIL=
METAR OIHH 111500Z NIL=
METAR OINZ 111500Z 05006KT 5000 BR BKN090 BKN200 08/07 Q1014=
METAR OISR 111500Z NIL=
METAR OITL 111500Z NIL=
METAR OIZC 111500Z NIL=
0000014200
832
SIRE15 FMEE 111500
AAXX 11154
61998 26/// /2316 10057 20018 30040 40077 53005
  333 58038 60007 90710 91126
  555 60005=
0000015200
833
SICS01 MROC 111458
AAXX 11154
78767 31363 82604 10234 20220 30153 40159 5//// 75055 87770
333
      32/// 56000 58006 83707 84635=
0000016200
834
SICS01 MROC 111458
AAXX 11154
78767 31363 82604 10234 20220 30153 40159 5//// 75055 87770
333
      32/// 56000 58006 83707 84635=



00000000