0000063300
835
SAIR34 OIII 111500
METAR OIAG 111500Z NIL=
METAR OIAM 111500Z  13006KT 4000 BR SCT010 FEW300CB OVC090 12/11
 Q1017 RERA=
METAR OICI 111500Z  12004KT 9999 FEW025 FEW030CB SCT040 BKN090
 04/03 Q1017 A3003=
METAR OIKQ 111500Z  04008KT 7000 -RA FEW025CB SCT030 OVC090 12/08
 Q1021=
METAR OINN 111500Z 18004KT CAVOK 08/07 Q1014=
METAR OINR 111500Z 00000KT 6000 NSC 09/07 Q1013=
METAR OISL 111500Z  08004KT 9999 FEW020 FEW030CB OVC080 08/06
 Q1020=
METAR OISY 111500Z  00000KT 0200 +SN FEW030CB SCT035 OVC080 00/M00
 Q1019=
METAR OITZ 111500Z  00000KT 9999 FEW030CB SCT035 BKN080 M02/M05
 Q1016=
0000045800
836
SAIR35 OIII 111500
METAR OIAD 111500Z NIL=
METAR OIBJ 111500Z  09010KT 0800 -RA FEW020 SCT025 OVC070 09/09
 Q1020=
METAR OIBS 111500Z 15012KT 9999 FEW040 OVC100 18/11 Q1020=
METAR OIHR 111500Z NIL=
METAR OIKM 111500Z NIL=
METAR OIKR 111500Z NIL=
METAR OING 111500Z 00000KT 6000 FEW035 BKN100 08/07 Q1015=
METAR OIZB 111500Z 00000KT 9999 FEW040 BKN100 06/M00 Q1022=
METAR OIZI 111500Z 31006KT 9999 FEW020 OVC090 14/M02 Q1022=
0000043000
837
SAIR36 OIII 111500
METAR OIBA 111500Z  30006KT 3000 -RA FEW025CB FEW030 OVC080 17/14
 Q1019=
METAR OIBV 111500Z NIL=
METAR OIFS 111500Z NIL=
METAR OIIP 111500Z  00000KT 4000 BR FEW020 SCT035 OVC080 M01/M02
 Q1019=
METAR OIMB 111500Z 09010KT 9999 FEW040 SCT100 02/M12 Q1019=
METAR OIMN 111500Z NIL=
METAR OIMS 111500Z NIL=
METAR OIMT 111500Z NIL=
METAR OIZJ 111500Z 00000KT 8000 NSC 19/06 Q1020=
0000011000
838
UANT99 KDDL 111502
ARP DAL79 5306N02259W 1502 F370 MS61 191/64 KT
N858NW DDL XXW 111503 J82A
0000011000
839
UANT99 KDDL 111503
ARP AAL81 5652N01926W 1503 F380 MS60 248/53 KT
N776AN DDL XXN 111503 F43A
0000046200
840
SAIR37 OIII 111500
METAR OIBL 111500Z  03004KT 4000 BR FEW020CB SCT025 OVC080 14/13
 Q1020=
METAR OIBQ 111500Z  33012KT 5000 BR FEW020 FEW025CB OVC080 16/15
 Q1016 RETS=
METAR OIIK 111500Z 00000KT 8000 SCT040 BKN090 M00/M04 Q1019=
METAR OIMC 111500Z NIL=
METAR OIMD 111500Z NIL=
METAR OIMQ 111500Z NIL=
METAR OINE 111500Z 00000KT CAVOK 06/04 Q1014=
METAR OITK 111500Z NIL=
METAR OITM 111500Z 00000KT 1300 BR NSC M06/M07 Q1019=
0000011000
841
UANT99 KDDL 111503
ARP DAL41 5902N02212W 1503 F330 MS59 238/84 KT
N840MH QXT AOE 111503 F85A
0000011800
842
SIVS20 VNNN 111500
AAXX 11151
48825 32697 80000 10170 20151 30211 40220 50014 885// 333 58016 88696=
0000021800
843
FTIN90 VARP 111500

TAF VARP 111500Z 1118/1224 VRB02KT 3000 HZ FEW025 SCT100 BECMG 
1200/1202 VRB02KT 1200 BR FEW025 BECMG 1206/1208 34004KT 5000 HZ 
FEW100 BECMG 1213/1215 VRB02KT 3000 HZ FEW100=
0000035300
844
SIIN90 VARP 111500
AAXX 11154
42874 32596 60000 10234 20180 40151 83530
  333 58016 83625 85360=
43041 32996 00000 10210 20162 39538 40161
  333 58008=
42693 21595 73602 10178 20165 39475 40170 70264 85520
  333 58020 6002/ 85618 86458=
42779 21596 83606 10162 20152 39467 40179 70262 8552/
  333 58028 6003/ 85620 88458=
0000013800
845
FCIN90 VARP 111500

TAF VARP 111500Z 1118/1203 VRB02KT 3000 HZ FEW025 SCT100 BECMG 
1200/1202 VRB02KT 1200 BR FEW025 =
0000015700
846
SASD31 OEJD 111500 RRA
METAR OEDR 111500Z 17010KT 9999 FEW040 SCT080 16/14 Q1017 NOSIG=
METAR OYSN 111500Z 27010KT 9999 BKN030 19/03 Q1026=
0000011800
847
SIVS21 VNNN 111500
AAXX 11151
48823 32697 80501 10180 20168 30215 40218 52013 885// 333 58015 88696=
0000078900
848
UDAS02 BABJ 111452
AMDAR 1114
LVR CNFNZK 2926N 11943E 111449 F236 MS226 269/087 TB/ S//1=
LVR CNFNZK 2925N 11943E 111449 F236 MS225 271/088 TB/ S//1=
LVR CNFNZK 2922N 11942E 111449 F236 MS220 272/094 TB/ S//1=
LVR CNFNZK 2919N 11940E 111450 F236 MS224 271/090 TB/ S//1=
DES CNFNXM 2608N 10419E 111449 F238 MS218 250/085 TB/ S//1=
DES CNFNXM 2608N 10418E 111449 F237 MS215 250/085 TB/ S//1=
DES CNFNXM 2606N 10413E 111450 F227 MS195 259/078 TB/ S//1=
DES CNFNXM 2604N 10408E 111451 F217 MS175 265/065 TB/ S//1=
ASC CNFNXQ 3810N 10618E 111449 F093 MS166 316/014 TB/ S//1=
ASC CNFNXQ 3808N 10619E 111450 F107 MS193 324/034 TB/ S//1=
ASC CNFNXQ 3808N 10622E 111450 F121 MS190 302/031 TB/ S//1=
ASC CNFNXQ 3808N 10626E 111451 F134 MS198 299/032 TB/ S//1=
0000054100
849
UDAS02 BABJ 111454
AMDAR 1114
DES CNFPYN 2428N 11756E 111450 F035 PS086 017/006 TB/ S//1=
DES CNFPYN 2427N 11759E 111451 F027 PS100 046/013 TB/ S//1=
DES CNFPYN 2428N 11802E 111452 F018 PS121 054/018 TB/ S//1=
DES CNFPYN 2430N 11804E 111453 F010 PS128 022/010 TB/ S//1=
ASC CNFNXQ 3808N 10630E 111451 F150 MS228 303/040 TB/ S//1=
ASC CNFNXQ 3808N 10632E 111452 F155 MS233 299/044 TB/ S//1=
ASC CNFNXQ 3808N 10635E 111452 F166 MS260 301/045 TB/ S//1=
ASC CNFNXQ 3809N 10639E 111453 F182 MS283 293/048 TB/ S//1=
0000009100
850
SAIR36 OIII 111500 RRA
METAR OIMN 111500Z 26004KT CAVOK 05/M06 Q1016 A3002=
0000066500
851
UDAS02 BABJ 111455
AMDAR 1114
LVR CNFLWT 2729N 10551E 111444 F276 MS324 249/094 TB/ S//1=
LVR CNFLWT 2748N 10541E 111447 F276 MS320 251/085 TB/ S//1=
LVR CNFLWT 2805N 10532E 111450 F276 MS335 252/080 TB/ S//1=
DES CNFLWT 2819N 10519E 111453 F255 MS298 255/068 TB/ S//1=
DES CNFLWT 2820N 10517E 111453 F250 MS286 253/064 TB/ S//1=
DES CNFNXM 2602N 10402E 111452 F207 MS153 271/061 TB/ S//1=
DES CNFNXM 2601N 10401E 111452 F206 MS161 271/057 TB/ S//1=
DES CNFNXM 2559N 10356E 111453 F197 MS160 276/050 TB/ S//1=
DES CNFNXM 2557N 10351E 111454 F187 MS135 267/057 TB/ S//1=
LVR CNFLWR 3621N 11157E 111445 F311 MS525 245/080 TB/ S//1=
0000023100
852
UDAS02 BABJ 111456
AMDAR 1114
LVR CNFLWR 3642N 11215E 111448 F311 MS528 250/088 TB/ S//1=
LVR CNFLWR 3703N 11235E 111451 F311 MS526 248/091 TB/ S//1=
LVR CNFLWR 3719N 11302E 111454 F311 MS530 252/091 TB/ S//1=
0000066100
853
UDAF01 FAPR 111500
AMDAR 1115
ASC AFZA48 2548S 03222E 111434 F095 PS119 209/005 TB0 S031 333 F/// VG012=
ASC AFZA48 2546S 03217E 111435 F114 PS070 162/006 TB0 S031 333 F/// VG011=
ASC AFZA48 2545S 03213E 111436 F133 PS016 207/013 TB0 S031 333 F/// VG010=
ASC AFZA48 2543S 03208E 111436 F156 MS027 324/005 TB0 S031 333 F/// VG010=
LVR AFZA48 2540S 03152E 111439 F214 MS115 314/009 TB0 S031 333 F/// VG010=
LVR AFZA48 2543S 03059E 111446 F330 MS358 282/034 TB0 S031 333 F/// VG009=
LVR AFZA48 2545S 03006E 111453 F360 MS443 294/033 TB0 S031 333 F/// VG010=
LVR AFZA48 2549S 02914E 111460 F251 MS189 288/025 TB0 S031 333 F/// VG009=
0000043000
854
UDAF01 FAPR 111500
AMDAR 1115
DES AFZA50 2610S 02823E 111450 F119 PS057 315/013 TB0 S031 333 F/// VG012=
DES AFZA50 2610S 02823E 111451 F117 PS059 309/008 TB1 S031 333 F/// VG021=
DES AFZA50 2621S 02818E 111454 F099 PS115 327/006 TB0 S031 333 F/// VG013=
DES AFZA50 2622S 02812E 111455 F082 PS169 310/004 TB0 S031 333 F/// VG016=
DES AFZA50 2613S 02811E 111458 F065 PS217 300/010 TB0 S031 333 F/// VG016=
00000000