0000011000
065
UANT01 CWAO 111444
ARP BAW19V 5749N01924W 1444 F360 MS61 244/63 KT
GYMMT QXT AOE 111444 F09A
0000011100
066
UANT01 CWAO 111444
ARP UAL947 5338N03455W 1444 F340 MS57 246/18 KT
N652UA DDL XXN 111444 F65A
0000011000
067
UANT01 CWAO 111444
ARP UAL51 5202N01625W 1444 F310 MS52 217/71 KT
N68061 DDL BYT 111444 F48A
0000011100
068
UANT01 CWAO 111444
ARP DAL185 4902N04701W 1444 F360 MS62 292/55 KT
N801NW DDL XXW 111444 J44A
0000011000
069
UANT01 CWAO 111444
ARP VIR93R 4901N02034W 1444 F340 MS58 198/89 KT
GVLIP DDL XXF 111444 F29A
0000013500
070
SNAA17 LFVW 111400
AAXX 11144
89578 46/// /0804 11309 36970 4//// 5////=
89577 46/// /2204 11273 35904 4//// 5////=
0000038200
071
SSVX02 KARS 111441
ZZYY 41982 11014 1348/ 738491 064989 6112/
22219 00163
444 20120 11014 1352/ 50101 80104 80043 9/015=
ZZYY 41983 11014 1346/ 739337 067453 6111/
22219 00155
444 20110 11014 1304/ 50101 80104 80026 9/015=
ZZYY 44514 11014 1200/ 745085 040366 6111/
11119 30185 40185 52022
22219 00126
444 20110 11014 1111/ 50101 80138 80009 9/015=
0000098800
072
UERA02 RUHB 111200
TTDD 1112/ 24944 11991 46159 22665 41763 33542 43764 44336 39766
55200 42966 66184 40167 77125 40567 21212 11994 24514 22849 26019
33800 25022 44729 26523 55674 25018 66567 22525 77499 24526 88455
23529 99413 24527 11385 23029 22358 23025 33329 23529 44280 22022
55240 21528 66198 22533 77181 22036 88136 21032 99125 22533=
TTDD 1112/ 24959 11398 38775 22312 38376 33257 41776 44175 39377
21212 11950 24013 22650 23522 33450 25529 44354 23025 55312 23024
66175 24533=
TTDD 1112/ 25123 11997 53957 22980 53757 21212 11996 25021 22980
25523=
TTDD 1112/ 25400 11998 50965 22606 42771 33326 40177 44305 41578
21212 11998 22517 22917 24020 33560 26528 44415 26533 55/// /////
66305 25533=
TTDD 11121 25428 NIL=
TTDD 1112/ 25703 11548 40162 22495 42362 33386 39563 44323 41964
55254 38365 66180 41366 77142 39166 21212 11961 23020 22757 24026
33587 25018 44518 25022 55458 26519 66251 25021 77145 26527=
TTDD 11125 25913 NIL=
0000078600
073
SAUZ31 UTTW 111430
METAR UTFN 111430Z 34002MPS 1500 R28/1700D BR NSC M03/M05 Q1026
R28/CLRD70 NOSIG=
METAR UTNN 111430Z 00000MPS CAVOK M01/M03 Q1020 R33/CLRD60 NOSIG=
METAR UTNU 111430Z 09002MPS 3100 BR SCT200 01/M03 Q1020 R31/CLRD60
NOSIG=
METAR UTSA 111430Z 11005MPS 7000 FEW023 01/M05 Q1021 R07/CLRD70
NOSIG=
METAR UTSB 111430Z 15002MPS 120V180 6000 NSC 04/M08 Q1021 R01/CLRD70
NOSIG=
METAR UTSK 111430Z NIL=
METAR UTSS 111430Z 00000MPS 9999 NSC M01/M07 Q1021 R88/CLRD70 NOSIG=
METAR UTST 111430Z 08001MPS 6000 NSC 04/M05 Q1023 R88/CLRD70 NOSIG=
METAR UTFA 111430Z 35001MPS 0250 R04/0200V0500U FZFG OVC005 M06/M07
Q1026 R88/09//70=
METAR UTFF 111430Z NIL=
METAR UTTT 111430Z 07002MPS 040V110 4000 FU NSC 02/M08 Q1022
R08R/CLRD70 NOSIG=
0000018300
074
FTUR31 UKMS 111000 AAB
TAF AMD UKFF 111440Z 1114/1212 23005G10MPS 9999
         SCT003 BKN011  SCT020CB BECMG 1206/1208
         25010G15MPS TX09/1211Z TN00/1202Z=
0000020700
075
SOBR10 KWAL 111446
BAB00078?011144611 :BUB 2 #1       M   0.499   0.579   0.539 :RAD 1 #1   0.x$#8$8h~;w)@G||gauw}oyAkI}M/-8Z[BH@RR{*JN{@[zLwJI4tK
wz#NHNl< 32+0NP 219E
0000011000
076
UANT99 KDDL 111444
ARP DAL79 5302N01921W 1444 F370 MS63 214/73 KT
N858NW DDL XXW 111444 J79A
0000011000
077
UANT99 KDDL 111445
ARP AAL81 5550N01557W 1445 F380 MS57 251/54 KT
N776AN DDL BLY 111445 F37A
0000011000
078
UANT99 KDDL 111445
ARP DAL41 5745N01904W 1445 F330 MS59 235/89 KT
N840MH QXT AOE 111445 F82A
0000037800
079
SXXX32 EUMS 111436 RRX
12FD90D0
:PRS 1 /1 1106 1110 1118 1123 1139 1138 1143 1134 1148 1150 1153 1148 :RAD 1 /3 5677 5687 5692 5695 5688 5687 5689 5698 5711 5724 :ENC 3 /6 5426 5440 5429 5432 5465 5477 5458 5473 544' /430 /RA2 3 /6 4516(4555 4542 4540 4577 4581 4564 4579 4554 4554 :SW1 36 /60 60 :SW2 6 /60 60 :BAT 5 /6 12.6 :WTP 5 /6 28.2 28.5 :NAME 12FD90D0
0000036800
080
SXXX32 EUMS 111436 RRX
12FFB3C8
:PRS 1 /1 M 2980 2978 2978 2973 2968 2963 2966 2965 2972 2967 2971 2969 2965 2977 2971 2979 2987 2993 3003 2985 2993 2987 2989 2992 2977 2993 2977 2981 2991 :RAD 1 /3 5910 5906 5908 5911 5919 5929 5926 5925 5925 5931 :ENC 1 /5 -144 -144 -144 -144 -144 -144 :SW1 36 /60 0 :SW2 6 /60 60 :BAT 14 /15 14.0 :NAME 12FFB3C8 /
0000070200
081
SXXX32 EUMS 111436 RRX
22E7E6D2
OT12 ID:ID-ROTE-11 DT:2014 01 11 14 34
:PRS /1 -10775 -10261 -10764 -10770 -10747 -10748 -10747 -10749 -10771 -10770 -10772 -10774 -10769 -10769 -10768 -10767 -10255 -10765 -10771 -10743 -10742 -10744 -10745 -10768 -10768 -10770 -10767 -10770 -10770 -10773
:PR2 /1 04317 04267 04280 04311 04259 04273 04310 04272 04263 04265 04278 04258 04254 04279 04238 04236 04242 04212 04212 04186 04201 04207 04232 04199 04205 04186 04198 04161 04151 04175
:RAD /1 05893 05903 05873 05885 05846 05848 05842 05871 05881 05841 05849 05877 05813 05845 05821 05829 05785 05821 05797 05813 05777 05757 05785 05797 05793 05769 05781 05773 05753 05769
:BAT 12.3V/
0000070500
082
SXXX32 EUMS 111436 RRX
26F364EA

ST STHELENA
DT 11/01/14 11/01/14
TM 14:30:00 14:15:00
RD 10000 10000 10000 10000 10000 10000 10000 10000 10000 10000 10000 10000 10000 10000 10000 10000 10000 10000 10000 10000 10000 10000 10000 10000 10000 10000 10000 10000 10000 10000
P1 00899 00911 00897 01025 00849 00777 01046 00636 00932 00369 00942 01036 00811 00944 01022 00629 00687 00922 00463 00937 00808 01068 01297 00552 00545 00832 01111 00481 00642 00984
P2 00017 00016 00017 00018 00019 00018 00020 00019 00018 00023 00017 00021 00022 00019 00023 00022 00023 00019 00021 00023 00018 00022 00095 00027 00027 00024 00024 00023 00017 00021
T1 00.0 00.0
T2 22.8 22.8
VB 14.1
0000069800
083
SXXX32 EUMS 111436 RRX
3601E29A
OT12 ID:DJ-BOUT-08 DT:2014 01 11 14 26
:RAD /1 02097 02091 02107 02112 02108 02115 02109 02111 02122 02129 02126 02134 02140 02137 02141 02140 02137 02139 02143 02140 02143 02154 02156 02158 02156 02152 02169 02161 02169 02170
:PR1 /1 02415 02409 02422 02419 02428 02430 02441 02435 02444 02444 02438 02456 02453 02452 02450 02456 02455 02458 02454 02453 02468 02462 02469 02474 02482 02484 02479 02477 02483 02491
:PR2 /1 00651 00655 00660 00658 00655 00667 00666 00661 00687 00680 00679 00685 00682 00683 00688 00696 00689 00696 00696 00690 00709 00700 00700 00712 00723 00708 00692 00717 00715 00710
:TM1 /15 260 260 260 260
:BAT 13.4V
0000067200
084
SXXX32 EUMS 111437 RRX
32CC9580
OT12 ID:ID-ENGG-07 DT:2014 01 11 14 36
:PRS /1 01294 01333 01296 01282 01295 01320 01336 01327 01351 01317 01274 01283 01320 01293 01275 01296 01313 01317 01305 01280 01240 01263 01309 01273 01293 01302 01288 01286 01241 01324
:PR2 /1 04733 04784 04751 04758 04760 04723 04784 04769 04782 04723 04769 04745 04797 04730 04726 04765 04764 04749 04773 04736 04720 04744 04738 04730 04740 04775 04740 04734 04742 04764
:RAD /1 05633 05662 05636 05607 05617 05615 05655 05647 05660 05635 05607 05629 05632 05627 05622 05624 05639 05629 05629 05619 05612 05591 05630 05619 05606 05630 05617 05615 05607 05632
:BAT 12.3V/
00000000