0000024400
875
SIVD17 KWNB 111500 RRF
BBXX
51101 11151 99243 71621 46/// /0510 10229 20198 40135 58007 91450
22200 00237 11108 20805 306// 41107 70042 333 91212 555 11108
22114 31409 40814 61449 053102 057104 055103 072109 057101 056107=
0000024400
876
SIVD15 KWNB 111500 RRD
BBXX
41009 11151 99285 70802 46/// /2009 10241 20212 40191 53008 91450
22200 00239 10803 20702 307// 40802 70014 333 91210 555 11092
22099 31420 42011 61449 200087 197088 198088 198089 195085 193085=
0000056700
877
SIER20 OMAE 111500
AAXX 11154
41184 41660 83304 10177 20159 40215 76362 8352/ 333 59005 83640
      87460=
41194 41760 83606 10182 20138 30209 40214 76162 88020 333 58004
      84456 86362=
41196 41660 82904 10178 20156 30176 40217 76162 8452/ 333 58003
      84630 88459=
41198 42560 72801 10198 20113 40212 84530 333 59012 84620 86360=
41200 41860 80206 10176 20151 30163 40216 76122 8807/ 333 58006
      84358 86460=
41216 NIL=
41217 41660 80407 10184 20157 30162 40192 76162 8253/ 333 58003
      82640 88360=
41218 NIL=
0000013200
878
SIVD02 CWAO 111500
BBXX
SHIP 11154 99468 70618 46/// /1810 11011 21040 40226 56011 7//// 8//// 22243 00029 2//// =
0000011000
879
SIIN90 VAAK 111500
AAXX 11154
42933 32996 23203 10200 20122 40156 80001
  333 58034 82075=
0000046600
880
SIHU42 HABP 111500
AAXX 11151
12815 46/// /2102 10072 20042 30039 40189 55010=
12824 42356 82004 10060 20046 30015 40194 56009 886// 333 88707=
12830 46/// /2304 10050 20035 39857 40204 56010=
12870 41480 71402 10052 20013 39924 40203 57010 70222 85802
  333 82816 85640=
12910 46/// /1901 10053 20040 39807 40191 56010=
12930 46/// /3201 10073 20058 30037 40198 55009=
12970 42458 31302 10064 20039 30060 40201 56011 82509 333 82619=
0000048200
881
SISV01 FDMS 111500
AAXX 11154
68386 46/// /1002 10270 20202 39719 48654 57006
      333 10289 20269 91003 555 91025=
68384 46/// ///// 10267 20179 39774 48591 50000
      333 10301 20267 555 20002 91017=
68394 46/// /1106 10280 20196 38920 4//// 57001
      333 10300 20277 91010 555=
68399 46/// /0000 10284 20197 3//// 4//// 5////
      333 10318 20284 91001 555=
68383 46/// ///// 10270 20176 39867 48545 57020
      333 10297 20270 555 91011=
0000011000
882
UANT01 CWAO 111503
ARP FDX32 5235N05553W 1503 F350 MS62 303/94 KT
N580FE QXT AOW 111503 F28A
0000011000
883
UANT01 CWAO 111503
ARP XLF066 4907N02653W 1503 F360 MS49 193/59 KT
FHXLF DDL XXN 111503 J39A
0000012000
884
SIBR20 TBPB 111500
AAXX 11154
78954 41470 40621 10277 20208 30109 40174 71586 84800
333 58013 84816=
0000015700
885
SSVX13 LFPW 111500
ZZYY 61687 11014 1500/ 144730 029832 6113/ 11119 40217 57001 22219
 00076 444 20131 11014 1457/ 50101 80090 80003 9/015=
0000009200
886
SAIN90 VANP 111510
METAR VANP 111510Z 03006KT 4000 HZ NSC 20/14 Q1016 NOSIG=
0000013600
887
FCIN90 VOHS 111500
TAF VOHS 111500Z 1118/1203 16005KT 4000 HZ SCT015 TEMPO 1200/1203
VRB03KT 1500 BR SCT010 SCT015=

0000269400
888
SSVX02 KARS 111500
ZZYY 14553 11014 1400/ 314970 043006 6113/
11119 40103 57012
22219 00293
444 2013/ 11014 1329/ 50101 80112 80001 9/015=
ZZYY 14923 11014 1400/ 334899 031574 6113/
11119 40173 57001
22219 00216
444 2013/ 11014 1452/ 50101 80116 80016 9/015=
ZZYY 14931 11014 1400/ 328750 033247 6113/
11119 40156 57008
22219 00267
444 2013/ 11014 1452/ 50101 80116 80018 9/015=
ZZYY 15905 11014 1458/ 510589 006571 6112/
22219 00253
444 20120 11014 1304/ 50101 80100 80008 9/015=
ZZYY 14930 11014 1400/ 330608 031501 6112/
11119 30166 40166 57006
22219 00257
444 20120 11014 1445/ 50101 80110 80030 9/015=
ZZYY 14922 11014 1400/ 338377 034568 6112/
11119 40156 52004
22219 00223
444 2012/ 11014 1450/ 50101 80119 80020 9/015=
ZZYY 15501 11014 1400/ 533625 012315 6111/
11119 30235 40235 52003
444 20110 11014 1302/ 50101 80090 80000 9/015=
ZZYY 14934 11014 1450/ 330262 032531 6112/
11119 30165 40165 57003
22219 00262
444 20120 11014 1452/ 50101 80110 80032 9/015=
ZZYY 14934 11014 1340/ 330258 032523 6111/
11119 30165 40165 57004
22219 00264
444 20110 11014 1306/ 50101 80110 80035 9/015=
ZZYY 16581 11014 1420/ 325109 004115 6112/
11119 30214 40214 57005
22219 00213
444 20120 11014 1454/ 50101 80070 80005 9/015=
ZZYY 17676 11014 1320/ 349108 008594 6111/
11119 39954 49954 52010
22219 00047
444 20110 11014 1259/ 50101 80110 80038 9/015=
ZZYY 15634 11014 1400/ 324879 002638 6113/
11119 40211 57006
22219 00215
444 20130 11014 1302/ 50101 80109 80006 9/015=
ZZYY 17673 11014 1400/ 344238 008617 6113/
11119 40085 52011
22219 00096
444 20130 11014 1444/ 50101 80111 80009 9/015=
ZZYY 17670 11014 1455/ 342696 000064 6113/
11119 40211 52027
22219 00122
444 20130 11014 0954/ 50101 80112 80009 9/015=
ZZYY 16580 11014 1410/ 329380 002487 6113/
11119 30238 40238 57010
22219 00214
444 20130 11014 1302/ 50101 80070 80005 9/015=
ZZYY 17669 11014 1400/ 342537 010705 6113/
11119 40093 52010
22219 00108
444 20130 11014 1443/ 50101 80114 80006 9/015=
ZZYY 15621 11014 1457/ 519951 004994 6113/
22219 00228
444 20130 11014 1302/ 50101 80094 80056 9/015=
ZZYY 14933 11014 1400/ 328241 037083 6113/
11119 40154 57004
444 2013/ 11014 1311/ 50101 80115 80022 9/015=
ZZYY 14932 11014 1400/ 330519 032089 6112/
11119 40162 57004
22219 00260
444 2012/ 11014 1453/ 50101 80116 80020 9/015=
ZZYY 17667 11014 1400/ 548824 001273 6111/
11119 40123 52027
22219 00055
444 20110 11014 1450/ 50101 80113 80020 9/015=
ZZYY 17652 11014 1400/ 344940 011161 6112/
11119 40070 57009
22219 00082
444 20120 11014 1300/ 50101 80104 80013 9/015=
0000015200
889
SSVX02 KARS 111501
ZZYY 13600 11014 1500/ 722985 060600 6112/
11119 30252 40252 52005
444 20120 11014 1450/ 50101 80090 80000 9/015=
0000011000
890
UANT01 CWAO 111504
ARP AAL81 5655N01938W 1504 F380 MS60 247/53 KT
N776AN DDL XXN 111504 F44A
0000011000
891
UANT01 CWAO 111504
ARP DAL79 5307N02315W 1504 F370 MS61 190/64 KT
N858NW DDL XXW 111504 J83A
0000060000
892
SIHU43 HABP 111500
AAXX 11151
12756 46/// /0101 10059 20011 30003 40193 56015=
12766 46/// /3201 10033 21007 39818 40201 57009=
12786 46/// /1302 10020 20019 30083 40215 57006=
12805 46/// /1302 10064 20041 30041 40188 55011=
12836 46/// /1301 10084 20026 30035 40187 57011=
12846 46/// /2002 10060 20043 30063 40194 57009=
12847 46/// /1602 10077 20036 30055 40192 56012=
12866 NIL=
12915 46/// /2103 10049 20031 39899 40196 56010=
12922 41362 71603 10067 20056 30046 40195 57011 70122 875//
  333 86709 82656=
12960 46/// /2101 10113 20062 30056 40192 56009=
0000011000
893
UANT01 CWAO 111504
ARP AZA63K 4800N04002W 1504 F310 MS55 317/53 KT
EIISO QXT AOE 111504 F32A
0000011200
894
UANT01 CWAO 111504
ARP UAL153 5357N05247W 1504 F330 MS61 293/109 KT
N17128 QXS YAY 111504 F81A
00000000