0000011100
965
UANT01 CWAO 111442
ARP AAL101 5254N03138W 1442 F320 MS53 153/30 KT
N726AN DDL XXW 111442 F58A
0000011100
966
UANT01 CWAO 111442
ARP AAL113 4659N02953W 1442 F330 MS45 251/35 KT
N393AN DDL XXN 111442 F65A
0000043300
967
UDEU02 EGRR 111444 RRE
AMDAR 1114
LVR EU0057   3014N 01549W 111407 F318 MS460 286/047 TB/ S031=
LVR EU0057   3103N 01558W 111414 F380 MS582 290/082 TB/ S031=
LVR EU0057   3153N 01602W 111421 F380 MS587 289/075 TB/ S031=
LVR EU0057   3244N 01605W 111428 F380 MS587 287/065 TB/ S031=
LVR EU0057   3335N 01608W 111435 F380 MS600 282/062 TB/ S031=
LVR EU0057   3426N 01610W 111442 F380 MS605 276/061 TB/ S031=
0000043300
968
UDEU02 EGRR 111444 RRF
AMDAR 1112
DES EU0207   3025N 00910W 111253 F044 PS079 347/002 TB/ S031=
DES EU0207   3022N 00910W 111254 F033 PS093 257/005 TB/ S031=
DES EU0207   3020N 00912W 111255 F025 PS109 289/003 TB/ S031=
DES EU0207   3020N 00916W 111256 F022 PS108 030/000 TB/ S031=
DES EU0207   3020N 00919W 111257 F013 PS128 017/003 TB/ S031=
DES EU0207   3020N 00922W 111258 F006 PS150 336/003 TB/ S031=
0000062100
969
UDAC02 EGRR 111445
AMDAR 1114
DES EU0226   6914N 01825E 111433 F077 MS190 085/021 TB/ S031=
DES EU0226   6917N 01829E 111433 F068 MS190 128/014 TB/ S031=
DES EU0226   6919N 01833E 111434 F064 MS190 138/016 TB/ S031=
DES EU0226   6922N 01836E 111435 F060 MS180 137/016 TB/ S031=
DES EU0226   6925N 01840E 111435 F055 MS170 139/016 TB/ S031=
DES EU0226   6927N 01844E 111436 F050 MS160 133/018 TB/ S031=
UNS EU0226   6929N 01847E 111437 F048 MS160 138/019 TB/ S031=
DES EU0226   6932N 01849E 111437 F038 MS140 136/016 TB/ S031=
DES EU0226   6934N 01850E 111438 F028 MS110 143/006 TB/ S031=
0000015300
970
SAYE20 OYAA 111500
METAR OYAA 111500Z 14009KT 9999 FEW020 26/19 Q1015 NOSIG=
METAR OYSQ 111500Z 09015KT 9999 FEW018 SCT200 26/20 Q1014=
0000036500
971
UDEU02 EGRR 111445
AMDAR 1114
ASC EU0227   6322N 01033E 111436 F108 MS220 131/014 TB/ S031=
ASC EU0227   6321N 01030E 111437 F118 MS200 215/004 TB/ S031=
ASC EU0227   6320N 01028E 111437 F130 MS200 215/004 TB/ S031=
ASC EU0227   6318N 01025E 111437 F145 MS220 261/008 TB/ S031=
ASC EU0227   6317N 01023E 111438 F158 MS240 278/010 TB/ S031=
0000036200
972
SXXX32 EUMS 111436
12FFB3C8
:PRS 1 /1 M 2980 2978 2978 2973 2968 2963 2966 2965 2972 2967 2971 2969 2965 2977 2971 2979 2987 2993 3003 2985 2993 2987 2989 2992 2977 2993 2977 2981 2991 :RAD 1 /3 5910 5906 5908 5911 5919 5929 5926 5925 5925 5931 :ENC 1 /5 -144 -144 -144 -144 -144 -144 :SW1 36 /60 0 :SW2 6 /60 60 :BAT 14 /15 14.0 :NAME 12FFB3C8
0000070100
973
SXXX32 EUMS 111436 RRA
22E7E6D2
OT12 ID:ID-ROTE-11 DT:2014 01 11 14 34
:PRS /1 -10775 -10261 -10764 -10770 -10747 -10748 -10747 -10749 -10771 -10770 -10772 -10774 -10769 -10769 -10768 -10767 -10255 -10765 -10771 -10743 -10742 -10744 -10745 -10768 -10768 -10770 -10767 -10770 -10770 -10773
:PR2 /1 04317 04267 04280 04311 04259 04273 04310 04272 04263 04265 04278 04258 04254 04279 04238 04236 04242 04212 04212 04186 04201 04207 04232 04199 04205 04186 04198 04161 04151 04175
:RAD /1 05893 05903 05873 05885 05846 05848 05842 05871 05881 05841 05849 05877 05813 05845 05821 05829 05785 05821 05797 05813 05777 05757 05785 05797 05793 05769 05781 05773 05753 05769
:BAT 12.3V
0000066700
974
SXXX32 EUMS 111437
32CC9580
OT12 ID:ID-ENGG-07 DT:2014 01 11 14 36
:PRS /1 01294 01333 01296 01282 01295 01320 01336 01327 01351 01317 01274 01283 01320 01293 01275 01296 01313 01317 01305 01280 01240 01263 01309 01273 01293 01302 01288 01286 01241 01324
:PR2 /1 04733 04784 04751 04758 04760 04723 04784 04769 04782 04723 04769 04745 04797 04730 04726 04765 04764 04749 04773 04736 04720 04744 04738 04730 04740 04775 04740 04734 04742 04764
:RAD /1 05633 05662 05636 05607 05617 05615 05655 05647 05660 05635 05607 05629 05632 05627 05622 05624 05639 05629 05629 05619 05612 05591 05630 05619 05606 05630 05617 05615 05607 05632
:BAT 12.3V
0000044400
975
SXXX32 EUMS 111439
224AD678
:PRS 2 /1 2301 2304 2305 2306 2306 2308 2312 2322 2322 2323 2323 2324 2327 2329 2335 2346 2345 2342 2339 2349 2350 2352 2355 2357 2367 2370 2373 2376 2377 2378 :RAD 4 /3 5139 5144 5153 5160 5171 5180 5187 5197 5206 5215 5226 5235 5246 5256 5263 5269 5272 5276 5284 5290 :ENC 4 /5 8641 8650 8660 8678 8689 8703 8721 8736 8753 8767 8774 8785 :SW1 39 /60 0 :SW2 9 /60 0 :BAT 14 /15 12.3 :NAME 224AD678
0000021800
976
SOAT10 KWAL 111443
14022214 011144311    +6.291   +6.276   +6.283   +6.271   +6.275   +6.269   +6.259   +6.253   +6.264   +6.284       +10      +8.3     +26.0       +66   +1019.5  +655.350  50-0NN  79E
0000021200
977
SAIN31 VOMM 111440
METAR VOMM 111440Z 06005KT 6000 NSC 24/19 Q1014 NOSIG=
METAR VOTR 111440Z 08009KT 5000 HZ NSC 25/19 Q1014 NOSIG=
METAR VOTV 111440Z 00000KT 4000 HZ FEW015 27/23 Q1012 NOSIG=
0000010900
978
SPIN90 VERC 111400
SPECI VERC 111400Z 33003KT 0800 TSRS SCT015 FEW030CB OVC080 14/12
Q1019=
0000011700
979
SPIN90 VERC 111402
SPECI VERC 111400Z 33003KT 0800 TSRA  SCT015 FEW030CB OVC080 14/12
Q1019  NOSIG=
0000008900
980
SAIN90 VAID 111400
METAR VAID 111400Z 08004KT 2000 HZ FEW020 14/11 Q1019=
0000010900
981
SAIN90 VERC 111430
METAR VERC 111430Z 15003KT 0800 TSRS SCT015 FEW030CB OVC080 14/12
Q1019=
0000011100
982
UANT99 KDDL 111441
ARP UAL100 5202N02934W 1439 F350 MS54 188/45 KT
N14102 DDL H07 111441 F36A
0000011000
983
UANT99 KDDL 111441
ARP BAW67V 5307N02311W 1441 F380 MS58 208/72 KT
GVIIG QXT AOE 111441 F12A
0000011000
984
UANT99 KDDL 111442
ARP EIN125 5738N01859W 1442 F320 MS58 233/86 KT
EIEDY DDL XXN 111442 J66A
00000000