0000009000
895
SIQT20 OTBD 111500
AAXX 11154
41160 46/// /2306 10161 20151 30200 40205=
0000009000
896
SIQT20 OTBD 111500
AAXX 11154
41178 46/// /1101 10153 20142 30195 40203=
0000038600
897
SABY31 UMMN 111500
METAR UMBB 111500Z NIL=
METAR UMGG 111500Z 29005G08MPS 9999 BKN032 03/M01 Q1007 R28/290050
NOSIG=
METAR UMII 111500Z NIL=
METAR UMMG 111500Z NIL=
METAR UMMM 111500Z 26005G08MPS 9999 OVC017 03/M00 Q1006 R30/190060
NOSIG RMK QFE735=
METAR UMMS 111500Z 27003MPS 200V310 9999 BKN018 02/M00 Q1006
R31/CLRD// NOSIG=
METAR UMOO 111500Z NIL=
0000014200
898
SIRE15 FMEE 111500
AAXX 11154
61996 26/// /2412 10141 20091 30193 40228 51012
  333 4//// 60007 90710 91120
  555 60005=
0000013300
899
SIMD20 LPMG 111500
AAXX 11151
08521 42460 62109 10186 20145 30100 40170 55019 82131
333 81815 84360=
08524 NIL=
0000028700
900
SXHW11 KWAL 111505
B15017A0 011150503"
1,140111,14:00:00,1.2,179,3.2,11.5,1013.2,6.03,12.8,
1,140111,14:15:00,1.0,179,2.6,11.5,1013.3,6.03,12.8,
1,140111,14:30:00,1.4,176,3.4,11.6,1013.3,6.03,12.8,
1,140111,14:45:00,1.2,170,3.5,11.5,1013.3,6.03,12.8, 42+0NN 210W
0000565500
901
SIMX01 MXBA 111500
AAXX 11151
76040 32960 00701 10057 20038 30197 40211 52009 91450 333   
30/// 58021 98660=
76061 32981 00904 10096 20015 30141 40218 52005 91440 333   
30/// 58021=
76122 32970 00000 10002 21026 38548 40217 5//// 91445 333   
30/// 58052=
76220 31958 00000 11058 2//// 38204 40334 52020 702// 91450 
333   34/// 58/// 96126=
76225 32920 00000 10060 21005 38668 40213 52024 91450 333   
30/// 58062=
76256 32980 00000 10114 20088 30170 40184 52005 91445 333   
30/// 58017=
76258 32970 00405 10105 20043 3//// 4//// 5//// 91450 333   
30/// 5600 58///=
76305 32970 03401 10145 21025 30171 40180 52006 91445 333   
30/// 58033=
76323 32970 00000 10004 21035 38353 40369 52021 91455 333   
30/// 58054=
76342 32962 01802 10130 20023 39508 40229 52040 91450 333   
30/// 58070=
76382 32980 00000 10088 20063 38953 40240 52028 91448 333   
30/// 58056=
76393 31920 22502 10176 20060 39619 40200 52036 70400 80008 
91450 333   30/// 56005 58069 91103 91401=
76402 31959 00501 10092 20069 30123 40183 5//// 70544 91445 
333   30/// 58023=
76405 32870 40502 10184 20126 30158 40180 52014 84030 91450 
333   30/// 56010 58025 84356=
76458 32970 01303 10164 20120 30156 40161 52013 91540 333   
30/// 58016=
76471 32780 60000 10054 20003 37717 40200 52008 86050 91450 
333   30/// 56/1/ 58032 86357=
76491 32560 42301 10150 20148 39814 40207 52032 84500 91445 
333   30/// 56900 58046 84630=
76499 31/08 93401 10155 20155 30156 4178 52037 72844 91450 3
33   30/// 58044=
76519 32560 70000 10058 20025 38388 40258 5//// 87100 91448 
333   30/// 56500 58015 87820=
76548 31865 70201 10190 20187 30174 40184 52029 70544 8703/ 
91440 333   30/// 56050 58014 87358=
SIMX01 MXBA 111500 
AAXX 11151
76556 21970 71203 10136 20098 39136 40143 52014 72162 8707/ 
91445 333   31/// 5605/ 58022 69937 87360=
76577 32970 60000 10126 20100 38068 40187 52010 86070 91440 
333   30/// 56050 58020 86358=
76581 32970 60101 10156 20111 39093 40221 57016 86030 91450 
333   30/// 56020 58024 86360=
76585 32980 20000 10168 20159 30015 40174 52024 82030 91440 
333   30/// 56/7/ 58015 82358=
76593 32470 21804 10242 20205 30165 40167 52018 822// 91450 
333   30/// 564// 59010 82820 91006 91518=
76612 21560 70000 10115 20107 38511 40226 52024 75022 83230 
91450 333   31/// 56110 58026 69907 83630 84358=
76625 32475 32901 10118 20072 38168 40171 52017 82130 91440 
333   30/// 56660 58025 82825=
76634 31570 11402 10126 20075 37884 40220 52023 70500 81100 
91450 333   30/// 560// 58027 81827=
76644 32460 31103 10250 20222 30157 40170 52019 83100 91450 
333   30/// 563// 59005 83420 91005 91511=
76654 31756 30000 10240 20165 30150 40154 52019 70544 83030 
91455 333   30/// 56090 58010 83359=
76656 32875 83601 10134 20101 38538 40202 52021 8802/ 91450 
333   30/// 5605/ 58020 88458=
76658 31558 30501 10205 20150 39665 40174 52022 70540 81550 
91450 333   31/// 56110 58013 81622 82356 98904=
76662 32670 63401 10146 20098 38491 40190 52016 86400 91445 
333   30/// 56/00 58020 86633=
76675 31980 02902 10055 20032 37402 40255 52019 70540 91453 
333   30/// 58024=
76680 31560 61901 10110 20065 37790 40150 52021 70400 85410 
91455 333   30/// 56770 58025 83625 82826=
76681 31775 70000 10076 20068 37812 40219 52019 70542 87700 
91440 333   30/// 56000 58029 87697=
76685 31960 00000 10114 20051 37890 40188 52021 70544 91450 
333   30/// 58017=
76687 32970 02301 10168 20121 38702 40205 52028 91445 333   
30/// 58014=
76692 31920 10000 10210 20202 30147 40167 52024 71044 80001 
91445 333   30/// 56//5 58002=
76695 32156 30902 10236 20228 30160 40166 52022 83500 91450 
333   30/// 56200 59001 83703=
SIMX01 MXBA 111500 
AAXX 11151
76726 32970 03201 10190 20121 38422 40185 52023 91445 333   
30/// 58013=
76737 32980 03601 10163 20114 38790 40187 52024 91445 333   
30/// 58008 91102 91536=
76750 32560 11003 10268 20234 30165 40175 52028 81100 91450 
333   30/// 56300 59002 81820=
76762 32904 03101 10154 20113 38783 40177 52021 91450 333   
30/// 58020=
76773 31966 02301 10126 20092 38444 40174 52015 7054/ 91448 
333   30/// 58000=
76775 31970 00401 10159 20100 38548 40202 52017 70244 91445 
333   30/// 59012=
76805 32070 03302 10250 20196 30148 40151 52021 91450 333   
30/// 58015=
76840 32950 00000 10236 20189 30094 40151 52020 91440 333   
30/// 59014=
76845 31/05 90000 10094 20089 37975 40230 51019 74544 89/// 
91445 333   30/// 58012 89///=
76848 32970 00000 10198 20118 38401 40138 51016 91450 333   
30/// 58006 96722 90728 98908=
76855 32980 03402 10262 20189 30088 40139 52009 91445 333   
30/// 58011 92000=
76903 31981 00801 10274 20253 30019 40162 5//// 70400 91445 
333   30/// 58017=
76160 32962 00401 10094 21012 39938 40194 5//// 91441 333   
30/// 58021=
76253 32982 02302 10152 20019 30095 40185 5//// 91453 333   
30/// 58016 92001=
76412 31966 01801 10094 20083 30132 40179 52011 70544 9142 3
33   30/// 58008=
76525 32780 70503 10081 21033 37500 40198 52022 87050 91455 
333   30/// 56/1/ 58043 87358=
76539 31563 73602 10077 20049 38184 40224 52020 70544 87500 
91450 333   30/// 56800 59026 87624=
76640 31758 43201 10186 20169 30176 40188 52027 71044 84//4 
91440 333   30/// 56//9 58014 84058=
76647 32870 31101 10260 20246 30157 40187 52022 83030 91450 
333   30/// 560/0 59003 83358=
76698 32560 10901 10262 20246 30165 40177 52020 81200 91450 
333   31/// 56200 59002 81820=
76843 32965 01401 10220 2183 39517 40163 52024 91442 333   3
0/// 58005=
0000013800
902
SIVD17 KWNB 111500 RRG
BBXX
52202 11151 99137 11448 46/// ///// 1//// 91500 22200 00282 10805
20805 302// 41101 70026=
0000039100
903
SIVD15 KWNB 111500 RRE
BBXX
41036 11151 99342 70769 46/// /1911 10222 20203 40148 55011 91450
22200 00209 10805 20804 317// 41402 70024 333 91213 555 11119
22129 31409 41915 61449 194109 196112 194117 195118 194121 193119=
41043 11151 99211 70650 46/// ///11 1//// 40223 50014 91450 22200
00264 10906 20705 308// 40904 70031 333 91214 555 11121 22129
8//14 91418=
0000013200
904
SIVD02 CWAO 111500
BBXX
SHIP 11154 99494 70561 46/// /2106 11028 21080 40188 50006 7//// 8//// 22200 00027 2//// =
0000013200
905
SIVD02 CWAO 111500
BBXX
SHIP 11154 99455 70735 46/// /2901 10003 20001 4//// 5//// 7//// 8//// 22200 0//// 2//// =
0000013200
906
SIVD02 CWAO 111500
BBXX
SHIP 11154 99488 70684 46/// /1211 11028 21048 40135 58048 7//// 8//// 22262 01010 2//// =
0000013200
907
SIVD02 CWAO 111500
BBXX
SHIP 11154 99537 10095 46/// /3510 10069 20063 40084 53011 7//// 8//// 22222 00058 2//// =
0000031800
908
WOIN90 VARP 111500

INFERENCE:-    AN UPPER AIR CYCLONIC CIRCULATION LIES OVER E-M.P.
AND NEIGHBORHOOD PERSISTS EXTENDING UP TO 1.5KMS A.S.L.

FORECAST; -.LIGHT TO MODERATE RA/TSH MAY OCCUR AT ISOLATED PLACES
OVER C.G.

WARNING; - NIL

OUTLOOK ;- DECREASE IN RAINFALL ACTIVITY
ENDS=
0000013200
909
SIVD02 CWAO 111500
BBXX
SHIP 11154 99483 70467 46/// /2926 11009 21049 40152 58007 7//// 8//// 22211 0//// 2//// =
0000011000
910
SIIN90 VABP 111500
AAXX 11153
42571 31594 83201 10140 20122 40190 71042 8553/
  333 58045=
0000013200
911
SIVD02 CWAO 111500
BBXX
SHIP 11154 99437 70818 46/// /1407 10040 20039 49961 56023 7//// 8//// 22200 0//// 2//// =
0000013200
912
SIVD02 CWAO 111500
BBXX
SHIP 11154 99463 70725 46/// /0405 11001 21006 40048 56068 7//// 8//// 22200 0//// 2//// =
0000013200
913
SIVD02 CWAO 111500
BBXX
SHIP 11154 99489 71235 46/// /1915 10076 20040 49925 53006 7//// 8//// 22200 0//// 2//// =
0000013200
914
SIVD02 CWAO 111500
BBXX
SHIP 11154 99447 70625 46/// /2008 10021 20020 40248 58009 7//// 8//// 22241 0//// 2//// =
00000000