0000036300
779
SAME31 OEJD 110000
METAR OJAI 110000Z 24004KT 3000 BR SCT200 05/04 Q1021 TEMPO 1000 FG=
METAR OJAM 110000Z 08003KT 4000 HZ NSC 06/04 Q1020 TEMPO 3000 BR=
METAR OJAQ 110000Z 00000KT 9999 FEW030 11/09 Q1021 NOSIG=
METAR OLBA 110000Z 12003KT 7000 BKN026 13/11 Q1022=
METAR OSAP 110000Z NIL=
METAR OSDI 110000Z NIL=
METAR OSLK 110000Z NIL=
0000064700
780
USAA01 NZCM 110000
TTAA 61001 89664
99997 00056 18501 00512 ///// ///// 92601 07158 18518
85255 11341 17017 70716 21114 15006 50514 33959 24513
40666 44759 24520 30855 51765 24023 25975 45585 24514
20124 43786 24513 15318 43586 26009 10592 41586 23504
88320 52361 23026
77999
31313 48008 82219=

0000069700
87361=
0000011200
87368=
0000015000
87382
0000012800
87386
0000045600
87406
0000047700
87410
0000049800
87416=
0000045800
87478=
0000043900
87582
0000052200
87674
0000054300
87785=
0000060600
88845
0000064800
89294
0000066900
89866
0000069000
90781
0000112800
781
SMOM10 OOMS 110000
AAXX 11004
41241 NIL=
41242 NIL=
41244 36/// /1403 10141 20069 39827 48063
333 0E015 58014 =
41246 NIL=
41249 NIL=
41252 NIL=
41253 NIL=
41254 NIL=
41255 NIL=
41256 32960 01203 10145 20109 30202 40212 333 58007=
41257 36/// /0000 10121 20083 39722 40216
333 0E012 58007  =
41258 NIL=
41259 36/// /2906 10083 21112 37126 40003
333 0E/// 58015  =
41262 36/// /0602 10119 20065 39998 40203
333 0E020 58018 =
41263 36/// /0000 10121 20058 39602 40195
333 0E017 58009 =
41265 NIL=
41267 NIL=
41268 NIL=
41270 NIL=
41272 NIL=
41275 NIL=
41276 NIL=
41280 26/// /0201 10136 20110 30085 40230
333 0E013 58009 70000 =
41287 36/// /0611 10154 20061 30154 40195
333 0E017 58011 =
41288 36/// /0619 10191 20114 30176 40199
333 0E019 58012 =
41291 NIL=
41293 NIL=
41295 36/// /0708 10142 20115 30005 40192
333 0E018 58007 =
41304 NIL=
41314 32960 01206 10153 20128 39671 40185
  333 59012 =
41315 36/// /2108 10148 20141 39174 42812
333 0E/// 59005  =
41316 32560 10903 10201 20151 30142 40169 81530
  333 59002 81625 =
0000328800
782
SAWD01 OEJD 110000
METAR DAAG 110000Z 25003KT 190V280 9999 FEW030 SCT080 14/07 Q1017=
METAR DTTA 110000Z NIL=
METAR EBBR 102350Z 21010KT 9999 BKN011 04/02 Q1017 NOSIG=
METAR EDDH 102350Z 24009KT 9999 BKN013 06/04 Q1013 NOSIG=
METAR EFHK 102350Z 33014KT 9999 BKN010 M03/M05 Q0994 NOSIG=
METAR EGLL 102350Z 21007KT 9999 -RA SCT039 SCT043 08/06 Q1013
     TEMPO RA=
METAR EHAM 102355Z 21013KT 9000 SCT009 BKN011 06/04 Q1014 NOSIG=
METAR EIDW 110000Z 25006KT 9999 FEW025 02/01 Q1011 NOSIG=
METAR EKCH 102350Z 25014KT 9999 FEW016 BKN040 06/04 Q1008 NOSIG=
METAR ELLX 102350Z 00000KT CAVOK 02/01 Q1017 NOSIG=
METAR ENFB 102350Z AUTO 10018KT 9999NDV -RA OVC017/// 03/00 Q0998
           W///S5=
METAR EPWA 110000Z 27018KT 9999 BKN026 05/01 Q1010 NOSIG=
METAR ESSA 102350Z 31006KT 9999 BKN008 BKN018 M04/M05 Q1001
R01L/19//71 R08/19//58 R01R/19//68 TEMPO BKN018=
METAR ETBS 110000Z NIL=
METAR GMME 110000Z 18005KT 5000 SCT020 BKN100 14/12 Q1014 NOSIG=
METAR GQNN 110000Z 36005KT 8000 NSC 16/14 Q1015 NOSIG=
METAR HAAS 110000Z NIL=
METAR HCMM 110000Z NIL=
METAR HECA 110000Z 24003KT 2000 BR NSC 13/09 Q1023 NOSIG=
METAR HLLT 102350Z
15006KT CAVOK 10/06 Q1023=
METAR HSSS 110000Z 35010KT CAVOK 16/M01 Q1017 NOSIG=
METAR KBOS 102354Z 21006KT 5SM BR FEW010 BKN015 OVC026 02/01 A3036=
METAR KIAD 102352Z 00000KT 3/4SM R01R/P6000FT -DZ BR OVC005 02/01
     A3029=
METAR KJFH 110000Z NIL=
METAR KWBS 110000Z NIL=
METAR LEMD 110000Z 03002KT CAVOK 07/04 Q1016 NOSIG=
METAR LFPO 110000Z 09003KT 3000 -RA BR OVC003 06/05 Q1017 NOSIG=
METAR LGAV 102350Z VRB01KT CAVOK 08/05 Q1019 NOSIG=
METAR LIRF 102350Z 08006KT 6000 BKN030 09/08 Q1022 NOSIG=
METAR LOWW 102350Z 29003KT 260V330 CAVOK 03/M01 Q1020 NOSIG=
METAR LSGG 102350Z 00000KT CAVOK 02/01 Q1019 NOSIG=
METAR LTAC 102350Z 31006KT 4900 BR OVC007 M04/M04 Q1022 NOSIG=
METAR OAKB 102350Z 29003KT 210V330 8000 NSC M08/M13 Q1024 NOSIG RMK BLU+ BLU+=
METAR OBBI 110000Z 14006KT 7000 -RA SCT020 18/15 Q1018 TEMPO VRB30KT
5000 TSRA SCT040CB=
METAR OJAM 110000Z 08003KT 4000 HZ NSC 06/04 Q1020 TEMPO 3000 BR=
METAR OKBK 110000Z 17010KT 9999 FEW040 BKN080 12/09 Q1017 NOSIG=
METAR OLBA 110000Z 12003KT 7000 BKN026 13/11 Q1022=
METAR OMAA 110000Z 09005KT CAVOK 16/09 Q1018 A3007 NOSIG=
METAR OOMS 102350Z 12003KT CAVOK 15/11 Q1021 NOSIG=
METAR OPKC 102355Z 03006KT 6000 NSC 09/M03 Q1020 NOSIG=
METAR OPRN 110000Z 00000KT 4000 BR SKC 03/00 Q1019.1/30.09=
METAR ORBB 110000Z NIL=
METAR OSDI 110000Z NIL=
METAR OTBD 110000Z 10011KT 9999 -RA SCT100 OVC120 19/16 Q1018 NOSIG=
METAR OYAA 110000Z 12012KT 9999 SCT018 25/19 Q1015 NOSIG=
METAR OYSN 110000Z VRB02KT CAVOK 10/04 Q1025=
METAR RKSS 110000Z 22001KT 4000 BR NSC M06/M08 Q1033 BECMG 6000
           NSW=
METAR UUEE 110000Z 19004MPS 9999 OVC010 03/02 Q0985 75290151 25290151
NOSIG=
METAR VCBI 110010Z 03006KT 8000 SKC 23/21 Q1012 NOSIG=
METAR VGZR 110000Z NIL=
METAR VHHH 110000Z 09008KT 8000 NSC 15/11 Q1025 NOSIG=
METAR VIDP 110000Z 00000KT 0400 R28/1700 R29/0800 FG NSC 06/06 Q1017
      NOSIG=
METAR WIIH 110000Z NIL=
METAR WMKK 110000Z 00000KT 9999 FEW017CB SCT140 BKN280 24/23 Q1012
NOSIG=
METAR WSSS 110000Z 36003KT 270V040 9999 FEW018 BKN300 25/23 Q1012
NOSIG=
0000064700
783
USAA01 NZCM 110000
TTAA 61001 89664
99997 00056 18501 00512 ///// ///// 92601 07158 18518
85255 11341 17017 70716 21114 15006 50514 33959 24513
40666 44759 24520 30855 51765 24023 25975 45585 24514
20124 43786 24513 15318 43586 26009 10592 41586 23504
88320 52361 23026
77999
31313 48008 82219=

0000069700
87361=
0000011200
87368=
0000015000
87382
0000012800
87386
0000045600
87406
0000047700
87410
0000049800
87416
0000051900
87420
0000047800
87441
0000045800
87463=
0000048000
87576
0000060400
87629
0000056300
87683=
0000054400
88296
0000056500
88589=
0000123200
784
SMSD10 OEJD 110000
AAXX 11004
40356 31556 63014 10030 20030 39197 48486 69902 71000 86500 333 58024
86460 555 04410 50199=
40357 32660 73110 10058 20060 39523 40173 87500 333 58027 87640=
40360 12660 62906 10044 20030 39600 40205 69932 82530 333 58040 82640 85360=
40361 32460 72817 10080 20030 39402 40181 87600 333 58054 85710 82640=
40362 32960 02104 10065 20050 39637 40155 333 58029=
40373 32960 01304 10088 20070 39735 40161 333 59020=
40375 32660 21502 10057 20030 39313 40207 82200 333 58060 82840=
40377 NIL=
40394 12960 02710 10080 20020 39038 48513 60022 333 58032 555 04410 50169=
40400 32560 20203 10158 20090 30155 40183 82500 333 58051 82630=
40401 NIL=
40405 32660 43410 10120 20090 39412 40149 84500 333 58014 85640=
40416 11656 81006 10155 20130 30150 40170 60082 76000 8552/ 333 59021 85640 88458=
40417 11656 81708 10151 20130 30169 40184 60072 71062 8452/ 333 59023 84640 88459=
40420 11750 81515 10142 20130 39973 40182 60042 76100 84420 333 59021 84650 85460=
40430 32960 03104 10140 20020 39457 40179 333 58048=
40435 NIL=
40437 12660 71707 10112 20090 39466 40178 60032 83520 333 59006 83640 87458=
40439 32960 03010 10164 20090 30155 40165 333 58044=
0000067200
785
SMSD12 OEJD 110000
AAXX 11004
41024 32660 20305 10172 20100 30143 40163 82500 333 58043 82640=
41030 12960 10000 10180 20120 39879 40154 69902 81030 333 58047 81360=
41036 NIL=
41055 11560 40000 10137 20130 38359 48507 60072 71700 84900 333 58006 81925 83630 555 04410 50143=
41061 NIL=
41084 32960 00000 10132 20100 38856 48509 333 59001 555 04410 50130=
41112 32960 01910 10114 20100 37948 48517 333 58007 555 04410 50161=
41114 32560 22206 10121 20090 37981 48515 82400 333 58006 82620 555 04410 50155=
41128 NIL=
41136 32960 00909 10152 21030 39314 40120 333 59011=
41140 32960 31103 10248 20200 30129 40133 83030 333 58014 83360=
0000185900
786
SMSD20 OEJD 110000
AAXX 11004
40356 31556 63014 10030 20030 39197 48486 69902 71000 86500 333 58024
86460 555 04410 50199=
40357 32660 73110 10058 20060 39523 40173 87500 333 58027 87640=
40360 12660 62906 10044 20030 39600 40205 69932 82530 333 58040 82640 85360=
40361 32460 72817 10080 20030 39402 40181 87600 333 58054 85710 82640=
40362 32960 02104 10065 20050 39637 40155 333 58029=
40373 32960 01304 10088 20070 39735 40161 333 59020=
40375 32660 21502 10057 20030 39313 40207 82200 333 58060 82840=
40377 NIL=
40394 12960 02710 10080 20020 39038 48513 60022 333 58032 555 04410 50169=
40400 32560 20203 10158 20090 30155 40183 82500 333 58051 82630=
40401 NIL=
40405 32660 43410 10120 20090 39412 40149 84500 333 58014 85640=
40416 11656 81006 10155 20130 30150 40170 60082 76000 8552/ 333 59021 85640 88458=
40417 11656 81708 10151 20130 30169 40184 60072 71062 8452/ 333 59023 84640 88459=
40420 11750 81515 10142 20130 39973 40182 60042 76100 84420 333 59021 84650 85460=
40430 32960 03104 10140 20020 39457 40179 333 58048=
40435 NIL=
40437 12660 71707 10112 20090 39466 40178 60032 83520 333 59006 83640 87458=
40439 32960 03010 10164 20090 30155 40165 333 58044=
41024 32660 20305 10172 20100 30143 40163 82500 333 58043 82640=
41030 12960 10000 10180 20120 39879 40154 69902 81030 333 58047 81360=
41036 NIL=
41055 11560 40000 10137 20130 38359 48507 60072 71700 84900 333 58006 81925 83630 555 04410 50143=
41061 NIL=
41084 32960 00000 10132 20100 38856 48509 333 59001 555 04410 50130=
41112 32960 01910 10114 20100 37948 48517 333 58007 555 04410 50161=
41114 32560 22206 10121 20090 37981 48515 82400 333 58006 82620 555 04410 50155=
41128 NIL=
41136 32960 00909 10152 21030 39314 40120 333 59011=
41140 32960 31103 10248 20200 30129 40133 83030 333 58014 83360=
0000064700
787
USAA01 NZCM 110000
TTAA 61001 89664
99997 00056 18501 00512 ///// ///// 92601 07158 18518
85255 11341 17017 70716 21114 15006 50514 33959 24513
40666 44759 24520 30855 51765 24023 25975 45585 24514
20124 43786 24513 15318 43586 26009 10592 41586 23504
88320 52361 23026
77999
31313 48008 82219=

0000069700
87361=
0000011200
87368=
0000015000
87382
0000012800
87386
0000045600
87406
0000047700
87410=
0000049900
87467
0000047900
87475
0000047900
87491
0000056200
87512
0000054200
87550
0000058400
87597=
0000052300
88098=
0000066900
89887
0000056600
90796
0000058500
788
USAA01 NZCM 110000
TTAA 61001 89664
99997 00056 18501 00512 ///// ///// 92601 07158 18518
85255 11341 17017 70716 21114 15006 50514 33959 24513
40666 44759 24520 30855 51765 24023 25975 45585 24514
20124 43786 24513 15318 43586 26009 10592 41586 23504
88320 52361 23026
77999
31313 48008 82219=

0000069700
87361=
0000011200
87368=
0000015000
87382
0000012800
87386
0000045600
87406
0000047700
87410
0000049800
87416=
0000045800
87478
0000043800
87484=
0000050100
87716=
0000052300
88297
0000058600
88576=
0000066800
789
USAA01 NZCM 110000
TTAA 61001 89664
99997 00056 18501 00512 ///// ///// 92601 07158 18518
85255 11341 17017 70716 21114 15006 50514 33959 24513
40666 44759 24520 30855 51765 24023 25975 45585 24514
20124 43786 24513 15318 43586 26009 10592 41586 23504
88320 52361 23026
77999
31313 48008 82219=

0000069700
87361=
0000011200
87368=
0000015000
87382
0000012800
87386
0000045600
87406=
0000047800
87429=
0000005900
87506
0000058300
87508
0000054200
87566
0000056300
87622
0000052200
87672
0000054300
87803=
0000062700
88853
0000058600
89316
0000056600
89860
0000066900
90792
0000058500
790
USAA01 NZCM 110000
TTAA 61001 89664
99997 00056 18501 00512 ///// ///// 92601 07158 18518
85255 11341 17017 70716 21114 15006 50514 33959 24513
40666 44759 24520 30855 51765 24023 25975 45585 24514
20124 43786 24513 15318 43586 26009 10592 41586 23504
88320 52361 23026
77999
31313 48008 82219=

0000069700
87361=
0000011200
87368=
0000015000
87382=
0000030600
87414
0000014800
87423=
0000050000
87499
0000062400
87518
0000056300
87544
0000054200
87611=
0000058500
88081
0000060600
88363
0000066900
88603=
0000058500
791
USAA01 NZCM 110000
TTAA 61001 89664
99997 00056 18501 00512 ///// ///// 92601 07158 18518
85255 11341 17017 70716 21114 15006 50514 33959 24513
40666 44759 24520 30855 51765 24023 25975 45585 24514
20124 43786 24513 15318 43586 26009 10592 41586 23504
88320 52361 23026
77999
31313 48008 82219=

0000069700
87361=
0000011200
87368=
0000015000
87382=
0000030600
87414
0000014800
87423
0000049900
87438=
0000050000
87532=
0000048100
87747=
0000060600
88805
0000075100
89277
0000064800
89852
0000073100
90797
0000062700
792
USAA01 NZCM 110000
TTAA 61001 89664
99997 00056 18501 00512 ///// ///// 92601 07158 18518
85255 11341 17017 70716 21114 15006 50514 33959 24513
40666 44759 24520 30855 51765 24023 25975 45585 24514
20124 43786 24513 15318 43586 26009 10592 41586 23504
88320 52361 23026
77999
31313 48008 82219=

0000069700
87361=
0000011200
87368=
0000015000
87382
0000012800
87386
0000045600
87406=
0000047800
87429
0000015700
87445=
0000050000
87538
0000054200
87552
0000066600
87599=
0000012800
87916
0000062600
88103
0000054400
88371
0000064800
88655=
0000064700
793
USAA01 NZCM 110000
TTAA 61001 89664
99997 00056 18501 00512 ///// ///// 92601 07158 18518
85255 11341 17017 70716 21114 15006 50514 33959 24513
40666 44759 24520 30855 51765 24023 25975 45585 24514
20124 43786 24513 15318 43586 26009 10592 41586 23504
88320 52361 23026
77999
31313 48008 82219=

0000069700
87361=
0000011200
87368=
0000015000
87382
0000012800
87386
0000045600
87406
0000047700
87410
0000049800
87416
0000051900
87420
0000047800
87441=
0000045900
87536
0000052100
87559
0000054200
87603=
0000058500
88077=
0000054500
89883
0000060800
90787
0000056400
794
USAA01 NZCM 110000
TTAA 61001 89664
99997 00056 18501 00512 ///// ///// 92601 07158 18518
85255 11341 17017 70716 21114 15006 50514 33959 24513
40666 44759 24520 30855 51765 24023 25975 45585 24514
20124 43786 24513 15318 43586 26009 10592 41586 23504
88320 52361 23026
77999
31313 48008 82219=

0000069700
87361=
0000011200
87368=
0000015000
87382
0000012800
87386=
0000045700
87427=
0000045900
87505=
0000050100
87719
0000050200
87834
0000064700
88048
0000062600
88330
0000068900
88621=
0000070900
795
USAA01 NZCM 110000
TTAA 61001 89664
99997 00056 18501 00512 ///// ///// 92601 07158 18518
85255 11341 17017 70716 21114 15006 50514 33959 24513
40666 44759 24520 30855 51765 24023 25975 45585 24514
20124 43786 24513 15318 43586 26009 10592 41586 23504
88320 52361 23026
77999
31313 48008 82219=

0000069700
87361=
0000011200
87368=
0000015000
87382
0000012800
87386
0000045600
87406
0000047700
87410
0000049800
87416
0000051900
87420
0000047800
87441
0000045800
87463
0000047900
87474=
0000054200
87591
0000060500
87658
0000058400
87768=
0000064800
88816
0000062700
89289
0000060700
89840
0000066900
90752
0000068800
796
USAA01 NZCM 110000
TTAA 61001 89664
99997 00056 18501 00512 ///// ///// 92601 07158 18518
85255 11341 17017 70716 21114 15006 50514 33959 24513
40666 44759 24520 30855 51765 24023 25975 45585 24514
20124 43786 24513 15318 43586 26009 10592 41586 23504
88320 52361 23026
77999
31313 48008 82219=

0000069700
87361=
0000011200
87368
0000009600
87371
0000035800
87378
0000037300
87381=
0000039500
87413
0000041600
87422
0000043700
87443
0000045800
87466
0000054100
87469
0000050000
87483
0000045900
87525
0000058300
87572
0000060400
87624=
0000054400
88075
0000054400
88362
0000062700
88612=
0000060600
797
USAA01 NZCM 110000
TTAA 61001 89664
99997 00056 18501 00512 ///// ///// 92601 07158 18518
85255 11341 17017 70716 21114 15006 50514 33959 24513
40666 44759 24520 30855 51765 24023 25975 45585 24514
20124 43786 24513 15318 43586 26009 10592 41586 23504
88320 52361 23026
77999
31313 48008 82219=

0000069700
87361=
0000011200
87368=
0000015000
87382=
0000030600
87414=
0000011000
87481
0000054100
87485
0000050000
87516
0000054200
87558=
0000060500
87873=
0000060600
88887
0000058600
89332
0000056600
89899
0000062800
90801
0000075000
798
USAA01 NZCM 110000
TTAA 61001 89664
99997 00056 18501 00512 ///// ///// 92601 07158 18518
85255 11341 17017 70716 21114 15006 50514 33959 24513
40666 44759 24520 30855 51765 24023 25975 45585 24514
20124 43786 24513 15318 43586 26009 10592 41586 23504
88320 52361 23026
77999
31313 48008 82219=

0000069700
87361=
0000011200
87368
0000009600
87371
0000035800
87378
0000037300
87381
0000039400
87385
0000039400
87407
0000041500
87411
0000014600
87417
0000045700
87421
0000049900
87440
0000052000
87462=
0000050100
87574
0000050100
87625
0000054300
87671
0000060500
87795
0000056400
87969
0000062600
88165
0000060600
88462
0000064800
88709=
00000000