0000060500
619
USAA01 NZCM 110000
TTAA 61001 89664
99997 00056 18501 00512 ///// ///// 92601 07158 18518
85255 11341 17017 70716 21114 15006 50514 33959 24513
40666 44759 24520 30855 51765 24023 25975 45585 24514
20124 43786 24513 15318 43586 26009 10592 41586 23504
88320 52361 23026
77999
31313 48008 82219=

0000069700
87361=
0000011200
87368=
0000015000
87382
0000012800
87386
0000045600
87406=
0000047800
87429=
0000005900
87506
0000058300
87508
0000054200
87566
0000056300
87622
0000052200
87672
0000054300
87803
0000062600
87992=
0000070800
620
USAA01 NZCM 110000
TTAA 61001 89664
99997 00056 18501 00512 ///// ///// 92601 07158 18518
85255 11341 17017 70716 21114 15006 50514 33959 24513
40666 44759 24520 30855 51765 24023 25975 45585 24514
20124 43786 24513 15318 43586 26009 10592 41586 23504
88320 52361 23026
77999
31313 48008 82219=

0000069700
87361=
0000011200
87368
0000009600
87371
0000035800
87378
0000037300
87381
0000039400
87385
0000039400
87407
0000041500
87411
0000014600
87417
0000045700
87421
0000049900
87440
0000052000
87462
0000050000
87472
0000005900
87495
0000058300
87519=
0000056400
87727
0000054300
87830
0000060500
88000=
0000062500
621
USAA01 NZCM 110000
TTAA 61001 89664
99997 00056 18501 00512 ///// ///// 92601 07158 18518
85255 11341 17017 70716 21114 15006 50514 33959 24513
40666 44759 24520 30855 51765 24023 25975 45585 24514
20124 43786 24513 15318 43586 26009 10592 41586 23504
88320 52361 23026
77999
31313 48008 82219=

0000069700
87361=
0000011200
87368
0000009600
87371
0000035800
87378
0000037300
87381=
0000039500
87413
0000041600
87422
0000043700
87443
0000045800
87466
0000054100
87469=
0000050100
87581
0000046000
87641
0000058400
87805
0000058500
87979=
0000068700
622
USAA01 NZCM 110000
TTAA 61001 89664
99997 00056 18501 00512 ///// ///// 92601 07158 18518
85255 11341 17017 70716 21114 15006 50514 33959 24513
40666 44759 24520 30855 51765 24023 25975 45585 24514
20124 43786 24513 15318 43586 26009 10592 41586 23504
88320 52361 23026
77999
31313 48008 82219=

0000069700
87361=
0000011200
87368
0000009600
87371
0000035800
87378
0000037300
87381
0000039400
87385=
0000043700
87428
0000047800
87442
0000056100
87461
0000047900
87477
0000056200
87486
0000052100
87514
0000064500
87547
0000052200
87621
0000058400
87677
0000054300
87788
0000056400
87987=
0000051200
623
SAAL40 DAMM 110000
METAR DAAG 110000Z 25003KT 190V280 9999 FEW030 SCT080 14/07 Q1017=
METAR DAAT 110000Z 05009KT CAVOK 14/M02 Q1022=
METAR DABB 110000Z 18003KT CAVOK 09/08 Q1017=
METAR DABC 110000Z 23002KT CAVOK 07/02 Q1020=
METAR DABS 110000Z 00000KT CAVOK 06/02 Q1022=
METAR DAON 110000Z 24006KT 9999 FEW030 BKN100 18/15 Q1015=
METAR DAOO 110000Z 02002KT 9999 FEW026 SCT100 12/07 Q1015=
METAR DAUH 110000Z 04006KT CAVOK 13/07 Q1020=
METAR DAUZ 110000Z 09011KT CAVOK 11/02 Q1021=
0000062600
624
USAA01 NZCM 110000
TTAA 61001 89664
99997 00056 18501 00512 ///// ///// 92601 07158 18518
85255 11341 17017 70716 21114 15006 50514 33959 24513
40666 44759 24520 30855 51765 24023 25975 45585 24514
20124 43786 24513 15318 43586 26009 10592 41586 23504
88320 52361 23026
77999
31313 48008 82219=

0000069700
87361=
0000011200
87368=
0000015000
87382
0000012800
87386
0000045600
87406=
0000047800
87429
0000015700
87445
0000049900
87465
0000054100
87473
0000050000
87488
0000052100
87521
0000054200
87549=
0000056400
87860
0000054400
88008=
0000058400
625
USAA01 NZCM 110000
TTAA 61001 89664
99997 00056 18501 00512 ///// ///// 92601 07158 18518
85255 11341 17017 70716 21114 15006 50514 33959 24513
40666 44759 24520 30855 51765 24023 25975 45585 24514
20124 43786 24513 15318 43586 26009 10592 41586 23504
88320 52361 23026
77999
31313 48008 82219=

0000069700
87361=
0000011200
87368=
0000015000
87382=
0000030600
87414
0000014800
87423=
0000050000
87499
0000062400
87518
0000056300
87544
0000054200
87611
0000056300
87666
0000054300
87797
0000066700
87974=
0000056300
626
USAA01 NZCM 110000
TTAA 61001 89664
99997 00056 18501 00512 ///// ///// 92601 07158 18518
85255 11341 17017 70716 21114 15006 50514 33959 24513
40666 44759 24520 30855 51765 24023 25975 45585 24514
20124 43786 24513 15318 43586 26009 10592 41586 23504
88320 52361 23026
77999
31313 48008 82219=

0000069700
87361=
0000011200
87368
0000009600
87371
0000035800
87378
0000037300
87381
0000039400
87385=
0000043700
87428=
0000047900
87503=
0000056300
87717
0000060500
87837
0000052300
88011=
0000060500
627
USAA01 NZCM 110000
TTAA 61001 89664
99997 00056 18501 00512 ///// ///// 92601 07158 18518
85255 11341 17017 70716 21114 15006 50514 33959 24513
40666 44759 24520 30855 51765 24023 25975 45585 24514
20124 43786 24513 15318 43586 26009 10592 41586 23504
88320 52361 23026
77999
31313 48008 82219=

0000069700
87361=
0000011200
87368=
0000015000
87382=
0000030600
87414
0000014800
87423
0000049900
87438
0000052000
87459
0000058200
87471
0000050000
87489
0000052100
87522=
0000058400
87725
0000058500
87827
0000058500
88015=
0000052200
628
USAA01 NZCM 110000
TTAA 61001 89664
99997 00056 18501 00512 ///// ///// 92601 07158 18518
85255 11341 17017 70716 21114 15006 50514 33959 24513
40666 44759 24520 30855 51765 24023 25975 45585 24514
20124 43786 24513 15318 43586 26009 10592 41586 23504
88320 52361 23026
77999
31313 48008 82219=

0000069700
87361=
0000011200
87368=
0000015000
87382=
0000030600
87414
0000014800
87423=
0000050000
87499=
0000062500
87711
0000054300
87791
0000060500
87985=
0000064600
629
USAA01 NZCM 110000
TTAA 61001 89664
99997 00056 18501 00512 ///// ///// 92601 07158 18518
85255 11341 17017 70716 21114 15006 50514 33959 24513
40666 44759 24520 30855 51765 24023 25975 45585 24514
20124 43786 24513 15318 43586 26009 10592 41586 23504
88320 52361 23026
77999
31313 48008 82219=

0000069700
87361=
0000011200
87368
0000009600
87371
0000035800
87378
0000037300
87381
0000039400
87385
0000039400
87407=
0000012000
87430=
0000054100
87500
0000056200
87510
0000050100
87551
0000056300
87601
0000050100
87643
0000052200
87801
0000056400
87993=
0000054300
630
USAA01 NZCM 110000
TTAA 61001 89664
99997 00056 18501 00512 ///// ///// 92601 07158 18518
85255 11341 17017 70716 21114 15006 50514 33959 24513
40666 44759 24520 30855 51765 24023 25975 45585 24514
20124 43786 24513 15318 43586 26009 10592 41586 23504
88320 52361 23026
77999
31313 48008 82219=

0000069700
87361=
0000011200
87368=
0000015000
87382
0000012800
87386
0000045600
87406=
0000047800
87429=
0000005900
87506=
0000058400
87701
0000056400
87813
0000058500
88012=
0000058400
631
USAA01 NZCM 110000
TTAA 61001 89664
99997 00056 18501 00512 ///// ///// 92601 07158 18518
85255 11341 17017 70716 21114 15006 50514 33959 24513
40666 44759 24520 30855 51765 24023 25975 45585 24514
20124 43786 24513 15318 43586 26009 10592 41586 23504
88320 52361 23026
77999
31313 48008 82219=

0000069700
87361=
0000011200
87368
0000009600
87371
0000035800
87378
0000037300
87381
0000039400
87385=
0000043700
87428
0000047800
87442
0000056100
87461=
0000021900
87579=
0000050200
87870
0000054300
88010=
0000112000
632
SAAL41 DAMM 110000
METAR DAAD 110000Z NIL=
METAR DAAE 110000Z 26008KT CAVOK 15/07 Q1018=
METAR DAAJ 110000Z NIL=
METAR DAAP 110000Z NIL=
METAR DAAS 110000Z 36003KT CAVOK 03/00 Q1021=
METAR DAAV 110000Z 00000KT CAVOK 11/09 Q1016=
METAR DAAY 110000Z NIL=
METAR DABT 110000Z /////KT CAVOK 04/02 Q1022=
METAR DAEF 110000Z NIL=
METAR DAEN 110000Z NIL=
METAR DAFH 110000Z NIL=
METAR DAOB 110000Z NIL=
METAR DAOF 110000Z 36004KT 9999 SCT046 SCT100 14/01 Q1015=
METAR DAOI 110000Z 06010KT CAVOK 14/05 Q1016=
METAR DAOL 110000Z NIL=
METAR DAOR 110000Z 12014KT 9999 SCT033 OVC100 14/07 Q1019=
METAR COR DAOV 110000Z 00000KT CAVOK 15/04 Q1017=
METAR DATG 110000Z NIL=
METAR DATM 110000Z NIL=
METAR DAUA 110000Z 12011KT 8000 NSC 15/M05 Q1017=
METAR DAUB 110000Z NIL=
METAR DAUE 110000Z NIL=
METAR DAUG 110000Z 34004KT CAVOK 09/05 Q1022=
METAR DAUI 110000Z 00000KT CAVOK 11/M01 Q1019=
METAR DAUK 110000Z NIL=
METAR DAUL 110000Z 00000KT 9999 FEW033 SCT080 06/05 Q1021=
METAR DAUO 110000Z NIL=
METAR DAUT 110000Z 11008KT CAVOK 13/03 Q1018=
METAR DAUU 110000Z NIL=
0000056400
633
USAA01 NZCM 110000
TTAA 61001 89664
99997 00056 18501 00512 ///// ///// 92601 07158 18518
85255 11341 17017 70716 21114 15006 50514 33959 24513
40666 44759 24520 30855 51765 24023 25975 45585 24514
20124 43786 24513 15318 43586 26009 10592 41586 23504
88320 52361 23026
77999
31313 48008 82219=

0000069700
87361=
0000011200
87368=
0000015000
87382
0000012800
87386
0000045600
87406=
0000047800
87429
0000015700
87445=
0000050000
87538
0000054200
87552=
0000066700
87865
0000056400
88009=
0000068700
634
USAA01 NZCM 110000
TTAA 61001 89664
99997 00056 18501 00512 ///// ///// 92601 07158 18518
85255 11341 17017 70716 21114 15006 50514 33959 24513
40666 44759 24520 30855 51765 24023 25975 45585 24514
20124 43786 24513 15318 43586 26009 10592 41586 23504
88320 52361 23026
77999
31313 48008 82219=

0000069700
87361=
0000011200
87368
0000009600
87371
0000035800
87378
0000037300
87381
0000039400
87385
0000039400
87407
0000041500
87411
0000014600
87417
0000045700
87421
0000049900
87440
0000052000
87462
0000050000
87472=
0000058400
87593
0000060500
87638
0000060500
87800
0000060500
87975=
0000022600
635
SMAY01 UGEE 110000
AAXX 11001
37682 32997 03601 11148 21161 38153 48553 54000=
37717 325// 30000 11074 21083 38085 48529 57010 83500=
37788 41495 60000 11095 21121 39282 40356 57009 71022 886// 333 86710=
0000121200
636
SMOS01 LOWM 110000
AAXX 11001
11010 36060 /9901 11009 21009 39836 40228 57002 333 55///=
11012 16/// /2302 10003 21008 39742 40225 58002 60001=
11022 16/// /2503 10016 21018 39815 40211 56004 60001=
11035 32975 02302 10022 20004 39956 40215 56002=
11036 32984 12902 10029 21010 39990 40218 55003 333 55058 81075=
11101 16/// /1801 10018 20016 39674 40210 58005 60001=
11120 36307 /2602 10029 20027 39508 40224 54000 333 55000=
11126 16/// /2704 11003 21052 37740 48496 50000 60001=
11130 17/// /2402 10035 20026 39621 40218 56004 69901 7//4/=
11146 NIL=
11150 36065 /3102 10026 20020 39675 40219 57003 333 55///=
11155 16/// /2707 10002 21033 38360 48488 58003 60001 333 91116=
11157 32770 79901 11002 21009 39442 40234 56005 86800 333 81850
86656=
11171 16/// /1201 11037 21044 39191 40243 57006 60001=
11190 12960 02902 10008 21011 39989 40217 58002 60001=
11204 16/// /2901 11042 21046 39437 40264 53003 60001=
11212 NIL=
11231 36512 /2902 10015 20015 39651 40235 57002 333 55010=
11240 36206 /9901 10029 20028 39776 40223 57005 333 55///=
11244 16/// /0000 10045 20037 39886 40219 58004 60001=
11389 16/// /1902 10001 21009 39888 40224 58003 60001=
0000054300
637
USAA01 NZCM 110000
TTAA 61001 89664
99997 00056 18501 00512 ///// ///// 92601 07158 18518
85255 11341 17017 70716 21114 15006 50514 33959 24513
40666 44759 24520 30855 51765 24023 25975 45585 24514
20124 43786 24513 15318 43586 26009 10592 41586 23504
88320 52361 23026
77999
31313 48008 82219=

0000069700
87361=
0000011200
87368=
0000015000
87382=
0000030600
87414
0000014800
87423=
0000050000
87499
0000062400
87518=
0000056400
87723
0000060500
87835
0000058500
88005=
0000070800
638
USAA01 NZCM 110000
TTAA 61001 89664
99997 00056 18501 00512 ///// ///// 92601 07158 18518
85255 11341 17017 70716 21114 15006 50514 33959 24513
40666 44759 24520 30855 51765 24023 25975 45585 24514
20124 43786 24513 15318 43586 26009 10592 41586 23504
88320 52361 23026
77999
31313 48008 82219=

0000069700
87361=
0000011200
87368
0000009600
87371
0000035800
87378
0000037300
87381
0000039400
87385
0000039400
87407
0000041500
87411
0000014600
87417
0000045700
87421
0000049900
87440
0000052000
87462
0000050000
87472
0000005900
87495
0000058300
87519
0000056300
87548=
0000056400
87866
0000052300
88017=
00000000