0000062600
599
USAA01 NZCM 110000
TTAA 61001 89664
99997 00056 18501 00512 ///// ///// 92601 07158 18518
85255 11341 17017 70716 21114 15006 50514 33959 24513
40666 44759 24520 30855 51765 24023 25975 45585 24514
20124 43786 24513 15318 43586 26009 10592 41586 23504
88320 52361 23026
77999
31313 48008 82219=

0000069700
87361=
0000011200
87368=
0000015000
87382=
0000030600
87414
0000014800
87423
0000049900
87438
0000052000
87459
0000058200
87471
0000050000
87489=
0000052200
87715
0000066700
87819
0000056400
88002=
0000068900
89006
0000066900
89563
0000062600
600
USAA01 NZCM 110000
TTAA 61001 89664
99997 00056 18501 00512 ///// ///// 92601 07158 18518
85255 11341 17017 70716 21114 15006 50514 33959 24513
40666 44759 24520 30855 51765 24023 25975 45585 24514
20124 43786 24513 15318 43586 26009 10592 41586 23504
88320 52361 23026
77999
31313 48008 82219=

0000069700
87361=
0000011200
87368
0000009600
87371
0000035800
87378
0000037300
87381=
0000039500
87413
0000041600
87422
0000043700
87443
0000045800
87466
0000054100
87469=
0000050100
87581=
0000046100
87909=
0000052400
88938
0000060700
89565
0000068800
601
USAA01 NZCM 110000
TTAA 61001 89664
99997 00056 18501 00512 ///// ///// 92601 07158 18518
85255 11341 17017 70716 21114 15006 50514 33959 24513
40666 44759 24520 30855 51765 24023 25975 45585 24514
20124 43786 24513 15318 43586 26009 10592 41586 23504
88320 52361 23026
77999
31313 48008 82219=

0000069700
87361=
0000011200
87368
0000009600
87371
0000035800
87378
0000037300
87381=
0000039500
87413
0000041600
87422
0000043700
87443
0000045800
87466=
0000054200
87540
0000048000
87567
0000050100
87610
0000056300
87645
0000060500
87781
0000058500
87966=
0000058600
88987
0000071000
89575
0000062600
602
USAA01 NZCM 110000
TTAA 61001 89664
99997 00056 18501 00512 ///// ///// 92601 07158 18518
85255 11341 17017 70716 21114 15006 50514 33959 24513
40666 44759 24520 30855 51765 24023 25975 45585 24514
20124 43786 24513 15318 43586 26009 10592 41586 23504
88320 52361 23026
77999
31313 48008 82219=

0000069700
87361=
0000011200
87368=
0000015000
87382
0000012800
87386
0000045600
87406
0000047700
87410
0000049800
87416
0000051900
87420=
0000047900
87502
0000013400
87528=
0000048100
87743
0000052300
87946=
0000064800
88967
0000060700
89562
0000072900
603
USAA01 NZCM 110000
TTAA 61001 89664
99997 00056 18501 00512 ///// ///// 92601 07158 18518
85255 11341 17017 70716 21114 15006 50514 33959 24513
40666 44759 24520 30855 51765 24023 25975 45585 24514
20124 43786 24513 15318 43586 26009 10592 41586 23504
88320 52361 23026
77999
31313 48008 82219=

0000069700
87361=
0000011200
87368
0000009600
87371
0000035800
87378
0000037300
87381
0000039400
87385
0000039400
87407
0000041500
87411
0000014600
87417
0000045700
87421=
0000050000
87501
0000056200
87513
0000060400
87556
0000054200
87613
0000052200
87648
0000064600
87794
0000056400
87973=
0000062700
88984
0000060700
89572
0000068800
604
USAA01 NZCM 110000
TTAA 61001 89664
99997 00056 18501 00512 ///// ///// 92601 07158 18518
85255 11341 17017 70716 21114 15006 50514 33959 24513
40666 44759 24520 30855 51765 24023 25975 45585 24514
20124 43786 24513 15318 43586 26009 10592 41586 23504
88320 52361 23026
77999
31313 48008 82219=

0000069700
87361=
0000011200
87368
0000009600
87371
0000035800
87378
0000037300
87381
0000039400
87385
0000039400
87407=
0000012000
87430=
0000054100
87500
0000056200
87510
0000050100
87551=
0000056400
87867
0000056400
88039
0000054400
88308
0000052400
88569
0000058600
89001
0000071000
89560
0000062600
605
USAA01 NZCM 110000
TTAA 61001 89664
99997 00056 18501 00512 ///// ///// 92601 07158 18518
85255 11341 17017 70716 21114 15006 50514 33959 24513
40666 44759 24520 30855 51765 24023 25975 45585 24514
20124 43786 24513 15318 43586 26009 10592 41586 23504
88320 52361 23026
77999
31313 48008 82219=

0000069700
87361=
0000011200
87368=
0000015000
87382
0000012800
87386
0000045600
87406
0000047700
87410=
0000049900
87467
0000047900
87475=
0000048000
87589
0000058400
87664
0000058400
87798
0000060500
87971=
0000064800
89009
0000058600
89573
0000072900
606
USAA01 NZCM 110000
TTAA 61001 89664
99997 00056 18501 00512 ///// ///// 92601 07158 18518
85255 11341 17017 70716 21114 15006 50514 33959 24513
40666 44759 24520 30855 51765 24023 25975 45585 24514
20124 43786 24513 15318 43586 26009 10592 41586 23504
88320 52361 23026
77999
31313 48008 82219=

0000069700
87361=
0000011200
87368
0000009600
87371
0000035800
87378
0000037300
87381
0000039400
87385
0000039400
87407
0000041500
87411
0000014600
87417
0000045700
87421
0000049900
87440
0000052000
87462=
0000050100
87574
0000050100
87625
0000054300
87671
0000060500
87795
0000056400
87969=
0000066800
88996
0000062800
89576
0000066700
607
USAA01 NZCM 110000
TTAA 61001 89664
99997 00056 18501 00512 ///// ///// 92601 07158 18518
85255 11341 17017 70716 21114 15006 50514 33959 24513
40666 44759 24520 30855 51765 24023 25975 45585 24514
20124 43786 24513 15318 43586 26009 10592 41586 23504
88320 52361 23026
77999
31313 48008 82219=

0000069700
87361=
0000011200
87368
0000009600
87371
0000035800
87378
0000037300
87381
0000039400
87385=
0000043700
87428=
0000047900
87503
0000056200
87524
0000048000
87543
0000056300
87596
0000054300
87636=
0000054400
88255
0000056500
88529
0000068900
88983
0000054500
89569
0000066700
608
USAA01 NZCM 110000
TTAA 61001 89664
99997 00056 18501 00512 ///// ///// 92601 07158 18518
85255 11341 17017 70716 21114 15006 50514 33959 24513
40666 44759 24520 30855 51765 24023 25975 45585 24514
20124 43786 24513 15318 43586 26009 10592 41586 23504
88320 52361 23026
77999
31313 48008 82219=

0000069700
87361=
0000011200
87368
0000009600
87371
0000035800
87378
0000037300
87381
0000039400
87385=
0000043700
87428
0000047800
87442=
0000052100
87533
0000058300
87555
0000060400
87612
0000058400
87657
0000064600
87769
0000066700
87957=
0000068900
88973
0000064800
89568
0000064700
609
USAA01 NZCM 110000
TTAA 61001 89664
99997 00056 18501 00512 ///// ///// 92601 07158 18518
85255 11341 17017 70716 21114 15006 50514 33959 24513
40666 44759 24520 30855 51765 24023 25975 45585 24514
20124 43786 24513 15318 43586 26009 10592 41586 23504
88320 52361 23026
77999
31313 48008 82219=

0000069700
87361=
0000011200
87368
0000009600
87371
0000035800
87378
0000037300
87381
0000039400
87385
0000039400
87407=
0000012000
87430=
0000054100
87500
0000056200
87510=
0000050200
87730=
0000056400
88303
0000060600
88577
0000056500
88999
0000077200
89577
0000064700
610
USAA01 NZCM 110000
TTAA 61001 89664
99997 00056 18501 00512 ///// ///// 92601 07158 18518
85255 11341 17017 70716 21114 15006 50514 33959 24513
40666 44759 24520 30855 51765 24023 25975 45585 24514
20124 43786 24513 15318 43586 26009 10592 41586 23504
88320 52361 23026
77999
31313 48008 82219=

0000069700
87361=
0000011200
87368=
0000015000
87382
0000012800
87386
0000045600
87406=
0000047800
87429
0000015700
87445
0000049900
87465
0000054100
87473=
0000050100
87586
0000062500
87637=
0000052300
88281
0000060600
88547
0000071000
89016
0000060700
89579
0000331200
611
SMUK42 EGRR 110000
AAXX 11004
03002 17427 /2620 10037 20017 39957 49976 53003 60051 782//
  333 86/19 90710 91128=
03008 16/// /2621 10056 20022 39926 40000 52006 60021
  333 90710 91131=
03010 46/// /2622 10058 20023 40013 52006
  333 90710 91136=
03014 46/// /2827 49986 51008
  333 90710 91133=
03031 17782 /2717 10025 21021 39723 40052 53010 69941 724//
  333 55/// 20081 83/50=
03034 15669 /2712 10051 20005 30033 40047 53008 69941
  333 81/35 85/50=
03037 17666 /2011 10039 20014 30038 40060 53008 69901 781//
  333 82/42 84/63 91023=
03039 46/// /2524 11022 21027
  333 90710 91128=
03044 15683 /2408 10031 21008 39935 40035 51007 60011
  333 55/// 20113 81/41=
03047 15684 /0303 10000 21023 39767 40076 51005 69901
  333 55/// 20100 81/42=
03062 15682 /2609 10025 21002 30043 40048 53011 60001
  333 55/// 20098 81/42 84/50=
03065 46/// ///// 11056 21064=
03068 12784 12507 11010 21036 30040 40049 53007 60001 81500
  333 81650=
03072 46/// /2921 11033 21059
  333 90710 91134 91031=
03080 15981 /3208 10018 21030 39882 40056 51006 60001
  333 8//99=
03088 15982 /2106 10021 21032 39892 40058 51011 60001
  333 55/// 20094 8//99=
03105 17531 /2810 10041 20018 30069 40087 51007 69961 782//
  333 83/20 84/62=
03132 15872 /2707 10032 20030 30082 40095 52012 60001
  333 83/57 86/59=
03144 15982 /2506 10021 21003 30033 40077 51010 60001
  333 55/// 20087 8//99=
03148 46/// /2613 11011 21015=
03153 15967 /2505 10027 20020 39949 40089 52012 69901
  333 55/// 20043 8//99=
03155 16781 /2205 10007 21007 39783 40087 52008 60001
  333 81/56=
03158 15983 /2305 10018 20000 39937 40076 52012 69941
  333 55/// 20196 81/72=
03210 16970 /2805 10040 20040 39942 40095 52013 69961
  333 85/59=
03212 17/24 /1501 10024 20018 39992 40093 51012 60021 710//=
03214 15983 /3206 10052 20043 30072 40090 51016 60011
  333 88/58=
03220 16968 ///// 10031 20030 30052 40087 53010 60021
  333 8//99=
03224 17/02 /2606 10023 20023 39739 40089 52013 60041 733//=
03225 16980 /0905 10035 20016 39782 40091 52011 60041
  333 55/// 20087 87/58=
03226 15481 /0201 10025 20019 39808 40087 51013 60011
  333 81/16 86/58=
03227 46/// /3214 11012 2////=
03230 16977 /2903 10013 20004 39824 40085 51012 60031
  333 8//99=
03238 17956 /2709 10032 20026 39903 40078 53012 60021 710//
  333 82/74=
03261 16363 /2906 10068 20060 30040 40080 51004 60001
  333 85/08 86/60=
03265 17480 /2906 10071 20050 30049 40079 51003 69901 723//
  333 81/11 84/22 85/60=
03266 16666 /2508 10073 20057 30061 40078 51004 60001
  333 82/31 86/60=
03275 15365 /3013 10057 20046 39882 40075 52012 69901
  333 84/07 85/15=
03281 16/// /2208 10047 20047 60001=
03901 15967 /1003 11001 21011 30014 40104 52007 60001
  333 55/// 20136 83/62=
03904 17679 /2503 10014 20005 30043 40104 51009 69981 723//
  333 83/35 84/59=
03907 15982 /2210 10023 20008 30088 40095 51009 60001
  333 55/// 20125 8//99=
03911 16982 /2605 10016 20004 39824 40103 50005 60011
  333 85/61=
03915 16980 /1804 10022 20006 30017 40097 51010 60001
  333 8//99=
03916 16981 /2203 10019 21002 39902 40096 51007 60001
  333 55/// 20111 84/60=
03923 15982 /3003 10021 20006 39904 40104 51011 69901
  333 8//99=
0000462200
612
SMUK43 EGRR 110000
AAXX 11004
03301 16464 /3104 10057 20049 30032 40106 53013 60001
  333 83/18 85/23 85/31=
03305 15584 /2605 10059 20044 39840 40103 51011 60071
  333 83/22 83/31 86/39=
03313 16456 /3006 10059 20050 30009 40104 52016 60041
  333 84/13 85/27=
03316 17672 /2606 10066 20060 30085 40096 51015 60011 723//
  333 82/36 87/43=
03318 16/// /3104 10053 20044 69961=
03321 17581 /3003 10071 20059 30084 40097 51017 69921 723//
  333 55/// 20146 82/29 86/59=
03330 17258 /2509 10059 20057 39733 40094 56001 69961 751//
  333 88/03=
03344 17472 /2407 10058 20051 39764 40082 52006 69981 761//
  333 81/12 86/42=
03346 16/// /2511 10061 20057 60001
  333 90710 91125=
03351 17368 /2807 10070 20066 30051 40094 53009 69941 722//
  333 55/// 20218 81/06 87/27=
03373 16576 /2214 10075 20061 30019 40089 56005 60001
  333 81/20 86/23 85/27=
03379 16581 /2216 10077 20054 30020 40097 56006 69941
  333 86/29 87/56=
03382 17567 /2210 10074 20060 30070 40078 57002 69921 761//
  333 55/// 20270 82/22 85/26 85/50=
03385 46565 /2017 10069 20058 30080 40090 57006
  333 87/29=
03391 11675 82012 10071 20058 30090 40097 58006 69981 76162 885//
  333 88630=
03392 16659 /2014 10067 20061 30097 40100 58004 69961
  333 86/37 87/50=
03405 164// /2913 10062 20051 30001 40117 53013 69921
  333 55/// 20144 81/11 84/26=
03409 16/// /2305 10065 20059 39901 40101 51011 60011
  333 55/// 2////=
03410 16579 /2407 10049 20042 39665 40102 51010 60021
  333 55/// 20145 85/23 84/42=
03469 17666 /2115 10072 20064 30102 40105 58005 69981 762//
  333 55/// 20328 85/43 87/50=
03488 17684 /2214 10079 20059 30083 40108 58002 69901 723//
  333 82/44 87/50=
03503 17467 /2201 10070 20067 30032 40110 52007 60031 781//
  333 84/11 86/34=
03520 16258 /2506 10071 20066 39986 40108 52002 69941
  333 55/// 20239 84/05 87/19=
03522 17465 /1902 10076 20070 30017 40110 58001 69921 723//
  333 87/18 83/29=
03529 17573 /2010 10082 20061 30072 40114 58003 69921 723//
  333 81/29 84/37 85/50=
03544 17670 /2006 10074 20062 39979 40110 57003 69941 723//
  333 55/// 20283 87/30 83/43=
03560 17672 /2110 10071 20059 30013 40117 58003 69941 761//
  333 55/// 20335 87/41=
03604 16582 /3009 10065 20050 30068 40123 53013 69921
  333 81/29 83/56=
03605 16557 /2607 10079 20074 30110 40118 52009 60021
  333 82/29 84/39 85/45=
03609 16/// /2609 10080 20080 30073 40125 53008 60031=
03628 17673 /2313 10086 20067 30047 40119 58001 69901 723//
  333 55/// 20205 87/34=
03647 16665 /2112 10063 20059 39859 40115 58003 69961
  333 55/// 20276 81/31 86/50=
03658 16666 /1609 10070 20061 30056 40126 58002 60011
  333 85/35 85/42=
03660 17260 /2208 10061 20057 39881 40131 58001 69901 761//
  333 81/04 87/31=
03672 16676 /2207 10076 20058 30092 40133 57002 69961
  333 85/35 84/46 86/58=
03680 16/// ///// 10067 20061 39972 40129 58003 69961
  333 55/// 20379=
03684 17360 /2111 10072 20064 30022 40128 58001 69921 761//
  333 81/06 87/37=
03693 17476 /2210 10082 20066 30136 40138 58001 69921 723//
  333 81/15 83/22 87/50=
03707 17235 /2610 10080 20073 30122 40129 53007 60011 710//
  333 82/04 85/10 87/22=
03710 16104 /2210 10059 20059 39705 40127 51005 60041
  333 55/// 20202 87/02=
03743 16777 /2106 10072 20063 39969 40131 57003 69961
  333 87/50 83/61=
03749 16669 /2007 10074 20065 30023 40133 57003 60021
  333 83/35 87/43=
03761 11465 81707 10069 20062 39990 40135 58002 60011 76166 885//
  333 55/// 20352 82710 85620 88640=
03768 16470 /2206 10071 20062 30057 40137 54000 69961
  333 82/19 86/32=
03769 15368 /2005 10077 20063 30058 40140 58001 60011
  333 55/// 20253 87/09=
03770 16/// ///// 10081 20061 69961=
03781 17563 /2106 10067 20059 39932 40140 58001 60021 757//
  333 55/// 20382 84/25 85/46=
03784 46/// /2108 10077 20066 30132 40135 54000=
03797 15469 /2109 10069 20048 30085 40146 56005 60001
  333 55/// 20461 81/12 87/67=
03823 17140 /3013 10059 20058 39892 40137 53008 60021 751//
  333 55/// 20281 87/02 85/07=
03839 16/// ///// 10088 20066 69941
  333 55/// 20211=
03857 17765 /2316 10099 20087 30074 40138 54000 60031 723//
  333 87/50=
03862 17464 /2209 10094 20082 30124 40136 57003 60051 781//
  333 55/// 20201 81/14 86/47=
03866 16/// /2214 10095 20081 30116 40141 57002 60001=
03872 15464 ///// 10087 20075 30135 40140 58002 69901
  333 55/// 20160 82/10 87/58 91015=
03876 16/// /2610 10082 20069 30143 40145 58003 60001=
03895 41240 82006 10076 20071 40159 52002 71022 886// 333 87703=
0000072900
613
USAA01 NZCM 110000
TTAA 61001 89664
99997 00056 18501 00512 ///// ///// 92601 07158 18518
85255 11341 17017 70716 21114 15006 50514 33959 24513
40666 44759 24520 30855 51765 24023 25975 45585 24514
20124 43786 24513 15318 43586 26009 10592 41586 23504
88320 52361 23026
77999
31313 48008 82219=

0000069700
87361=
0000011200
87368
0000009600
87371
0000035800
87378
0000037300
87381
0000039400
87385
0000039400
87407
0000041500
87411
0000014600
87417
0000045700
87421=
0000050000
87501
0000056200
87513
0000060400
87556=
0000054300
87879
0000058500
88042
0000054400
88328
0000058600
88594
0000064800
89007
0000064800
89581
0000062600
614
USAA01 NZCM 110000
TTAA 61001 89664
99997 00056 18501 00512 ///// ///// 92601 07158 18518
85255 11341 17017 70716 21114 15006 50514 33959 24513
40666 44759 24520 30855 51765 24023 25975 45585 24514
20124 43786 24513 15318 43586 26009 10592 41586 23504
88320 52361 23026
77999
31313 48008 82219=

0000069700
87361=
0000011200
87368=
0000015000
87382
0000012800
87386=
0000045700
87427=
0000045900
87505
0000050000
87526
0000050100
87565
0000062500
87605=
0000062700
88083
0000060600
88349
0000064700
88601
0000062700
89003
0000071000
89580
0000066700
615
USAA01 NZCM 110000
TTAA 61001 89664
99997 00056 18501 00512 ///// ///// 92601 07158 18518
85255 11341 17017 70716 21114 15006 50514 33959 24513
40666 44759 24520 30855 51765 24023 25975 45585 24514
20124 43786 24513 15318 43586 26009 10592 41586 23504
88320 52361 23026
77999
31313 48008 82219=

0000069700
87361=
0000011200
87368
0000009600
87371
0000035800
87378
0000037300
87381=
0000039500
87413=
0000052000
87479
0000056200
87492
0000045900
87517
0000054200
87560
0000060400
87620
0000064600
87679
0000048100
87790
0000050200
87984=
0000051200
88991
0000060700
89582
0000062600
616
USAA01 NZCM 110000
TTAA 61001 89664
99997 00056 18501 00512 ///// ///// 92601 07158 18518
85255 11341 17017 70716 21114 15006 50514 33959 24513
40666 44759 24520 30855 51765 24023 25975 45585 24514
20124 43786 24513 15318 43586 26009 10592 41586 23504
88320 52361 23026
77999
31313 48008 82219=

0000069700
87361=
0000011200
87368=
0000015000
87382
0000012800
87386
0000045600
87406
0000047700
87410
0000049800
87416=
0000045800
87478=
0000043900
87582
0000052200
87674
0000054300
87785
0000060500
87983=
0000058600
89002
0000058600
89583
0000075000
617
USAA01 NZCM 110000
TTAA 61001 89664
99997 00056 18501 00512 ///// ///// 92601 07158 18518
85255 11341 17017 70716 21114 15006 50514 33959 24513
40666 44759 24520 30855 51765 24023 25975 45585 24514
20124 43786 24513 15318 43586 26009 10592 41586 23504
88320 52361 23026
77999
31313 48008 82219=

0000069700
87361=
0000011200
87368=
0000015000
87382
0000012800
87386
0000045600
87406
0000047700
87410
0000049800
87416
0000051900
87420
0000047800
87441
0000045800
87463
0000047900
87474
0000054100
87493
0000052100
87509
0000048000
87557
0000050100
87618
0000052200
87680=
0000056500
88283
0000068900
88558
0000060700
89094
0000064800
89588
0000066700
618
USAA01 NZCM 110000
TTAA 61001 89664
99997 00056 18501 00512 ///// ///// 92601 07158 18518
85255 11341 17017 70716 21114 15006 50514 33959 24513
40666 44759 24520 30855 51765 24023 25975 45585 24514
20124 43786 24513 15318 43586 26009 10592 41586 23504
88320 52361 23026
77999
31313 48008 82219=

0000069700
87361=
0000011200
87368
0000009600
87371
0000035800
87378
0000037300
87381=
0000039500
87413=
0000052000
87479
0000056200
87492
0000045900
87517
0000054200
87560
0000060400
87620=
0000052300
88114
0000050300
88379
0000060600
88616
0000064800
89027
0000066900
89585
00000000