0000062600
519
USAA01 NZCM 110000
TTAA 61001 89664
99997 00056 18501 00512 ///// ///// 92601 07158 18518
85255 11341 17017 70716 21114 15006 50514 33959 24513
40666 44759 24520 30855 51765 24023 25975 45585 24514
20124 43786 24513 15318 43586 26009 10592 41586 23504
88320 52361 23026
77999
31313 48008 82219=

0000069700
87361=
0000011200
87368=
0000015000
87382=
0000030600
87414
0000014800
87423
0000049900
87438
0000052000
87459
0000058200
87471=
0000050100
87587
0000062500
87647=
0000058500
88254
0000060600
88528
0000062700
88972
0000058600
89513
0000056400
520
USAA01 NZCM 110000
TTAA 61001 89664
99997 00056 18501 00512 ///// ///// 92601 07158 18518
85255 11341 17017 70716 21114 15006 50514 33959 24513
40666 44759 24520 30855 51765 24023 25975 45585 24514
20124 43786 24513 15318 43586 26009 10592 41586 23504
88320 52361 23026
77999
31313 48008 82219=

0000069700
87361=
0000011200
87368=
0000015000
87382=
0000030600
87414
0000014800
87423=
0000050000
87499
0000062400
87518
0000056300
87544=
0000054300
87877
0000058500
88044=
0000058600
89445
0000068800
521
USAA01 NZCM 110000
TTAA 61001 89664
99997 00056 18501 00512 ///// ///// 92601 07158 18518
85255 11341 17017 70716 21114 15006 50514 33959 24513
40666 44759 24520 30855 51765 24023 25975 45585 24514
20124 43786 24513 15318 43586 26009 10592 41586 23504
88320 52361 23026
77999
31313 48008 82219=

0000069700
87361=
0000011200
87368=
0000015000
87382
0000012800
87386
0000045600
87406
0000047700
87410
0000049800
87416
0000051900
87420
0000047800
87441
0000045800
87463
0000047900
87474=
0000054200
87591
0000060500
87658
0000058400
87768
0000056400
87954=
0000066900
88950
0000056600
89500
0000066700
522
USAA01 NZCM 110000
TTAA 61001 89664
99997 00056 18501 00512 ///// ///// 92601 07158 18518
85255 11341 17017 70716 21114 15006 50514 33959 24513
40666 44759 24520 30855 51765 24023 25975 45585 24514
20124 43786 24513 15318 43586 26009 10592 41586 23504
88320 52361 23026
77999
31313 48008 82219=

0000069700
87361=
0000011200
87368
0000009600
87371
0000035800
87378
0000037300
87381
0000039400
87385=
0000043700
87428
0000047800
87442
0000056100
87461
0000047900
87477
0000056200
87486
0000052100
87514
0000064500
87547=
0000052300
87887
0000056400
88055=
0000064800
89469
0000062600
523
USAA01 NZCM 110000
TTAA 61001 89664
99997 00056 18501 00512 ///// ///// 92601 07158 18518
85255 11341 17017 70716 21114 15006 50514 33959 24513
40666 44759 24520 30855 51765 24023 25975 45585 24514
20124 43786 24513 15318 43586 26009 10592 41586 23504
88320 52361 23026
77999
31313 48008 82219=

0000069700
87361=
0000011200
87368=
0000015000
87382
0000012800
87386
0000045600
87406
0000047700
87410
0000049800
87416
0000051900
87420
0000047800
87441
0000045800
87463=
0000048000
87576=
0000060500
87895=
0000017500
88927
0000050400
89494
0000086400
524
SMNL50 EHDB 110000
AAXX 11001
06206 46/// /2210 10078 20068 30049 40102 57006
333 91011 91113 91210
555 51112 51210=
06207 47463 72312 10090 20073 30052 40106 58009 70300 8////
333 81/11 84/42 87/48 91014 91114 91212
555 51114 51212=
06239 47365 82410 10078 20069 30017 40078 58009 70200 8////
333 82/07 86/08 87/10 91012 91114 91212
555 51113 51211=
06252 46/// /2211 10093 20073 30065 40111 58004 222// 00097 10504
333 91013 91114 91212
555 51114 51212=
06260 17356 82104 10054 20038 30152 40154 58004 60001 71010 8////
333 86/09 88/10 91007 91109 91206
555 51107 51205=
06270 17356 82207 10066 20055 30126 40126 58002 69911 72381 8////
333 82/08 85/09 88/11 91010 91111 91208
555 51111 51208=
06290 17357 82105 10055 20038 30116 40157 58001 60001 71000 8////
333 88/09 91007 91110 91206
555 51108 51205=
0000200400
525
SMNL51 EHDB 110000
AAXX 11001
06201 47766 82408 10080 20063 30032 40084 58008 70200 8////
333 86/56 88/59 91010 91110 91209
555 51110 51209=
06203 47462 4//13 10089 20071 30073 40124 58003 70100 8////
333 81/10 83/58 91015 91116 91214
555 51116 51213=
06204 47469 42512 10094 20066 30065 40116 58005 70100 8////
333 82/11 83/43 91014 91115 91213
555 51114 51213=
06205 47561 82311 10074 20058 30006 40065 58007 70200 8////
333 83/25 88/29 91012 91113 91211
555 51112 51211=
06208 47245 82108 10073 20062 30072 40121 58005 75881 8////
333 82/06 85/07 87/09 91011 91112 91209
555 51112 51209=
06211 47866 82211 10077 20058 30042 40098 58006 70300 8////
333 86/58 88/61 91013 91113 91211
555 51113 51211=
06212 47261 82212 10085 20071 3//// 4//// 5//// 70200 8////
333 84/05 86/07 88/10 91014 91115 91212
555 51114 51212=
06235 17357 82110 10069 20061 30129 40129 58004 69911 72181 8////
333 85/07 87/08 88/10 91014 91115 91210
555 51114 51210=
06240 17458 82107 10060 20044 30151 40146 58004 60001 71010 8////
333 87/10 88/13 91009 91112 91209
555 51110 51208=
06251 13/56 /2210 10071 20064 30116 40117 58005 69911
333 91013 91114 91211
555 51114 51211=
06258 46/// /2212
333 91014 91114 91212
555 51114 51212=
06269 17356 82107 10057 20042 30152 40146 58002 60001 71010 8////
333 87/08 88/10 91010 91111 91208
555 51111 51208=
06280 17356 82307 10064 20050 30130 40134 58002 60001 71010 8////
333 83/09 88/10 91009 91112 91208
555 51112 51208=
06310 17357 62009 10054 20040 30145 40155 58007 60001 71000 8////
333 84/08 86/09 91011 91112 91209
555 51111 51209=
06344 17450 72006 10056 20040 30157 40150 58006 60001 71010 8////
333 82/11 87/56 91009 91112 91208
555 51112 51207=
06370 17463 72105 10043 20027 30138 40164 58005 60001 70200 8////
333 87/10 91007 91110 91207
555 51108 51206=
06380 17965 02105 10027 20014 30033 40175 58007 60001 70100
333 91006 91107 91206
555 51107 51205=
0000096000
526
SMNL52 EHDB 110000
AAXX 11001
06210 17458 82007 10060 20040 30146 40146 58005 60001 71010 8////
333 81/10 83/25 88/29 91010 91110 91208
555 51110 51207=
06225 46/// /2113
333 91015 91116 91214
555 51115 51213=
06242 47250 82214 10072 20065 30118 40120 58005 78151 8////
333 85/06 87/07 88/14 91016 91116 91214
555 51116 51214=
06257 16/// ///// 10067 20049 60001=
06275 17356 82105 10050 20035 30101 40157 58002 60001 71010 8////
333 88/08 91007 91110 91207
555 51109 51206=
06330 16/// /2009 10056 20040 30135 40149 58005 60001
333 91011 91113 91210
555 51112 51209=
06340 47459 72305 10047 20030 30142 40161 58006 71010 8////
333 87/10 91007 91110 91206
555 51107 51205=
06350 17359 82006 10047 20029 30145 40160 58005 60001 71000 8////
333 88/09 91008 91109 91206
555 51108 51206=
06375 17460 72104 10038 20027 30138 40163 58005 60001 70200 8////
333 87/10 91005 91109 91207
555 51107 51205=
0000134100
527
SMNL53 EHDB 110000
AAXX 11001
06248 46/// /2110
333 91012 91112 91210
555 51112 51210=
06249 17/58 /2107 10061 20048 60001 72380
333 91010 91110 91207
555 51110 51207=
06267 17350 82108 10062 20050 69931 72380 8////
333 82/09 88/11 91010 91111 91208
555 51110 51208=
06273 17/56 /2106 10059 20049 60001 71010
333 91008 91111 91207
555 51111 51207=
06277 16/// /2209 10068 20061 69901
333 91011 91112 91209
555 51112 51209=
06278 16/// /2105 10059 20042 60001
333 91008 91109 91206
555 51109 51205=
06279 17356 82205 10061 20046 30123 40143 58001 60001 71010 8////
333 85/09 88/10 91007 91110 91206
555 51109 51206=
06283 16/// /2203 10052 20036 60001
333 91006 91109 91206
555 51107 51204=
06286 16/// /2207 10064 20049 60001
333 91009 91110 91208
555 51110 51208=
06319 13/58 /1905 10049 20031 30159 40161 58005 60001
333 91007 91110 91207
555 51109 51207=
06348 17/50 /2005 10052 20039 30154 40153 58004 60001 71010
333 91006 91110 91207
555 51108 51205=
06356 163// 82205 10048 20034 30155 40156 58004 60001 8////
333 86/09 87/10 87/59 91008 91109 91206
555 51108 51205=
06377 17961 12003 10020 20011 60001 70100 8////
333 81/79 91004 91108 91205
555 51104 51203=
06391 16/// /2103 10035 20025 60001
333 91004 91108 91205
555 51104 51203=
0000046000
528
SMNL54 EHDB 110000
AAXX 11001
06209 NIL=
06285 NIL=
06308 NIL=
06311 NIL=
06312 NIL=
06313 NIL=
06315 NIL=
06316 NIL=
06320 46/61 /2211 10064 20058 30116 40143 58006 222// 00082 10503
333 91013 91114 91212
555 51113 51211=
06321 46/66 /2212 10081 20059 30120 40144 57005 222// 00086 10504
333 91014 91115 91213
555 51114 51212=
06324 NIL=
06331 NIL=
06343 46/// /1908
333 91010 91112 91208
555 51111 51208=
0000062600
529
USAA01 NZCM 110000
TTAA 61001 89664
99997 00056 18501 00512 ///// ///// 92601 07158 18518
85255 11341 17017 70716 21114 15006 50514 33959 24513
40666 44759 24520 30855 51765 24023 25975 45585 24514
20124 43786 24513 15318 43586 26009 10592 41586 23504
88320 52361 23026
77999
31313 48008 82219=

0000069700
87361=
0000011200
87368=
0000015000
87382=
0000030600
87414=
0000011000
87481
0000054100
87485
0000050000
87516
0000054200
87558
0000060400
87607
0000056300
87649
0000062600
87766
0000064700
87955=
0000058600
88945
0000056600
89518
0000056400
530
USAA01 NZCM 110000
TTAA 61001 89664
99997 00056 18501 00512 ///// ///// 92601 07158 18518
85255 11341 17017 70716 21114 15006 50514 33959 24513
40666 44759 24520 30855 51765 24023 25975 45585 24514
20124 43786 24513 15318 43586 26009 10592 41586 23504
88320 52361 23026
77999
31313 48008 82219=

0000069700
87361=
0000011200
87368=
0000015000
87382=
0000030600
87414
0000014800
87423
0000049900
87438=
0000050000
87532
0000048000
87568
0000056300
87609=
0000052300
88064=
0000058600
89467
0000056400
531
USAA01 NZCM 110000
TTAA 61001 89664
99997 00056 18501 00512 ///// ///// 92601 07158 18518
85255 11341 17017 70716 21114 15006 50514 33959 24513
40666 44759 24520 30855 51765 24023 25975 45585 24514
20124 43786 24513 15318 43586 26009 10592 41586 23504
88320 52361 23026
77999
31313 48008 82219=

0000069700
87361=
0000011200
87368=
0000015000
87382
0000012800
87386=
0000045700
87427
0000045800
87444=
0000048000
87537
0000058300
87569=
0000050200
87892
0000056400
88070=
0000064800
89457
0000066700
532
USAA01 NZCM 110000
TTAA 61001 89664
99997 00056 18501 00512 ///// ///// 92601 07158 18518
85255 11341 17017 70716 21114 15006 50514 33959 24513
40666 44759 24520 30855 51765 24023 25975 45585 24514
20124 43786 24513 15318 43586 26009 10592 41586 23504
88320 52361 23026
77999
31313 48008 82219=

0000069700
87361=
0000011200
87368
0000009600
87371
0000035800
87378
0000037300
87381
0000039400
87385
0000039400
87407
0000041500
87411
0000014600
87417
0000045700
87421
0000049900
87440=
0000052100
87535
0000052100
87570
0000011400
87630=
0000052300
88069=
0000054500
89466
0000056400
533
USAA01 NZCM 110000
TTAA 61001 89664
99997 00056 18501 00512 ///// ///// 92601 07158 18518
85255 11341 17017 70716 21114 15006 50514 33959 24513
40666 44759 24520 30855 51765 24023 25975 45585 24514
20124 43786 24513 15318 43586 26009 10592 41586 23504
88320 52361 23026
77999
31313 48008 82219=

0000069700
87361=
0000011200
87368=
0000015000
87382
0000012800
87386
0000045600
87406
0000047700
87410=
0000049900
87467
0000047900
87475=
0000048000
87589=
0000064700
88088=
0000060700
89483
0000068800
534
USAA01 NZCM 110000
TTAA 61001 89664
99997 00056 18501 00512 ///// ///// 92601 07158 18518
85255 11341 17017 70716 21114 15006 50514 33959 24513
40666 44759 24520 30855 51765 24023 25975 45585 24514
20124 43786 24513 15318 43586 26009 10592 41586 23504
88320 52361 23026
77999
31313 48008 82219=

0000069700
87361=
0000011200
87368=
0000015000
87382
0000012800
87386
0000045600
87406
0000047700
87410
0000049800
87416
0000051900
87420
0000047800
87441
0000045800
87463=
0000048000
87576=
0000060500
87895
0000054400
88078
0000054400
88320
0000012800
88591
0000064800
88993
0000064900
89505
0000056400
535
USAA01 NZCM 110000
TTAA 61001 89664
99997 00056 18501 00512 ///// ///// 92601 07158 18518
85255 11341 17017 70716 21114 15006 50514 33959 24513
40666 44759 24520 30855 51765 24023 25975 45585 24514
20124 43786 24513 15318 43586 26009 10592 41586 23504
88320 52361 23026
77999
31313 48008 82219=

0000069700
87361=
0000011200
87368=
0000015000
87382
0000012800
87386
0000045600
87406
0000047700
87410=
0000049900
87467=
0000048000
87577=
0000054300
87885
0000068800
88062=
0000064800
89479
0000064700
536
USAA01 NZCM 110000
TTAA 61001 89664
99997 00056 18501 00512 ///// ///// 92601 07158 18518
85255 11341 17017 70716 21114 15006 50514 33959 24513
40666 44759 24520 30855 51765 24023 25975 45585 24514
20124 43786 24513 15318 43586 26009 10592 41586 23504
88320 52361 23026
77999
31313 48008 82219=

0000069700
87361=
0000011200
87368
0000009600
87371
0000035800
87378
0000037300
87381=
0000039500
87413
0000041600
87422
0000043700
87443
0000045800
87466=
0000054200
87540
0000048000
87567
0000050100
87610=
0000056400
87913=
0000056600
88940
0000064800
89509
0000062600
537
USAA01 NZCM 110000
TTAA 61001 89664
99997 00056 18501 00512 ///// ///// 92601 07158 18518
85255 11341 17017 70716 21114 15006 50514 33959 24513
40666 44759 24520 30855 51765 24023 25975 45585 24514
20124 43786 24513 15318 43586 26009 10592 41586 23504
88320 52361 23026
77999
31313 48008 82219=

0000069700
87361=
0000011200
87368
0000009600
87371
0000035800
87378
0000037300
87381=
0000039500
87413
0000041600
87422
0000043700
87443
0000045800
87466=
0000054200
87540=
0000048100
87746
0000050200
87938=
0000066900
88946
0000058700
89502
0000060500
538
USAA01 NZCM 110000
TTAA 61001 89664
99997 00056 18501 00512 ///// ///// 92601 07158 18518
85255 11341 17017 70716 21114 15006 50514 33959 24513
40666 44759 24520 30855 51765 24023 25975 45585 24514
20124 43786 24513 15318 43586 26009 10592 41586 23504
88320 52361 23026
77999
31313 48008 82219=

0000069700
87361=
0000011200
87368
0000009600
87371
0000035800
87378
0000037300
87381=
0000039500
87413
0000041600
87422
0000043700
87443=
0000052100
87539=
0000058400
87751
0000060500
87950=
0000058600
88952
0000058600
89514
00000000