0000056400
039
USAA01 NZCM 110000
TTAA 61001 89664
99997 00056 18501 00512 ///// ///// 92601 07158 18518
85255 11341 17017 70716 21114 15006 50514 33959 24513
40666 44759 24520 30855 51765 24023 25975 45585 24514
20124 43786 24513 15318 43586 26009 10592 41586 23504
88320 52361 23026
77999
31313 48008 82219=

0000069700
87361=
0000011200
87368=
0000015000
87382=
0000030600
87414=
0000011000
87481
0000054100
87485
0000050000
87516
0000054200
87558
0000060400
87607=
0000062600
88068
0000060600
88353=
0000066700
040
USAA01 NZCM 110000
TTAA 61001 89664
99997 00056 18501 00512 ///// ///// 92601 07158 18518
85255 11341 17017 70716 21114 15006 50514 33959 24513
40666 44759 24520 30855 51765 24023 25975 45585 24514
20124 43786 24513 15318 43586 26009 10592 41586 23504
88320 52361 23026
77999
31313 48008 82219=

0000069700
87361=
0000011200
87368
0000009600
87371
0000035800
87378
0000037300
87381
0000039400
87385=
0000043700
87428
0000047800
87442=
0000052100
87533
0000058300
87555
0000060400
87612
0000058400
87657
0000064600
87769
0000066700
87957
0000075000
88148
0000070900
88413=
0000070900
041
USAA01 NZCM 110000
TTAA 61001 89664
99997 00056 18501 00512 ///// ///// 92601 07158 18518
85255 11341 17017 70716 21114 15006 50514 33959 24513
40666 44759 24520 30855 51765 24023 25975 45585 24514
20124 43786 24513 15318 43586 26009 10592 41586 23504
88320 52361 23026
77999
31313 48008 82219=

0000069700
87361=
0000011200
87368
0000009600
87371
0000035800
87378
0000037300
87381
0000039400
87385
0000039400
87407=
0000012000
87430
0000054000
87439
0000049900
87460=
0000048000
87541
0000054200
87545
0000052200
87598=
0000064700
88091
0000060600
88382
0000056500
88672
0000068900
89176
0000064800
89727
0000066700
042
USAA01 NZCM 110000
TTAA 61001 89664
99997 00056 18501 00512 ///// ///// 92601 07158 18518
85255 11341 17017 70716 21114 15006 50514 33959 24513
40666 44759 24520 30855 51765 24023 25975 45585 24514
20124 43786 24513 15318 43586 26009 10592 41586 23504
88320 52361 23026
77999
31313 48008 82219=

0000069700
87361=
0000011200
87368
0000009600
87371
0000035800
87378
0000037300
87381
0000039400
87385
0000039400
87407
0000041500
87411
0000014600
87417
0000045700
87421
0000049900
87440=
0000052100
87535
0000052100
87570
0000011400
87630=
0000052300
88069
0000054400
88343=
0000066700
043
USAA01 NZCM 110000
TTAA 61001 89664
99997 00056 18501 00512 ///// ///// 92601 07158 18518
85255 11341 17017 70716 21114 15006 50514 33959 24513
40666 44759 24520 30855 51765 24023 25975 45585 24514
20124 43786 24513 15318 43586 26009 10592 41586 23504
88320 52361 23026
77999
31313 48008 82219=

0000069700
87361=
0000011200
87368
0000009600
87371
0000035800
87378
0000037300
87381
0000039400
87385=
0000043700
87428=
0000047900
87503=
0000056300
87717
0000060500
87837
0000052300
88011
0000058500
88196
0000070900
88442
0000073000
88703
0000064800
89183
0000066900
89728
0000058500
044
USAA01 NZCM 110000
TTAA 61001 89664
99997 00056 18501 00512 ///// ///// 92601 07158 18518
85255 11341 17017 70716 21114 15006 50514 33959 24513
40666 44759 24520 30855 51765 24023 25975 45585 24514
20124 43786 24513 15318 43586 26009 10592 41586 23504
88320 52361 23026
77999
31313 48008 82219=

0000069700
87361=
0000011200
87368=
0000015000
87382
0000012800
87386
0000045600
87406=
0000047800
87429=
0000005900
87506
0000058300
87508
0000054200
87566
0000056300
87622=
0000052300
88108
0000064700
88373=
0000079100
045
USAA01 NZCM 110000
TTAA 61001 89664
99997 00056 18501 00512 ///// ///// 92601 07158 18518
85255 11341 17017 70716 21114 15006 50514 33959 24513
40666 44759 24520 30855 51765 24023 25975 45585 24514
20124 43786 24513 15318 43586 26009 10592 41586 23504
88320 52361 23026
77999
31313 48008 82219=

0000069700
87361=
0000011200
87368
0000009600
87371
0000035800
87378
0000037300
87381
0000039400
87385
0000039400
87407
0000041500
87411
0000014600
87417
0000045700
87421
0000049900
87440
0000052000
87462
0000050000
87472
0000005900
87495=
0000058400
87712
0000050200
87812
0000062600
87997
0000052300
88188
0000066800
88470
0000060600
88749
0000064800
89201
0000071000
89725
0000066700
046
USAA01 NZCM 110000
TTAA 61001 89664
99997 00056 18501 00512 ///// ///// 92601 07158 18518
85255 11341 17017 70716 21114 15006 50514 33959 24513
40666 44759 24520 30855 51765 24023 25975 45585 24514
20124 43786 24513 15318 43586 26009 10592 41586 23504
88320 52361 23026
77999
31313 48008 82219=

0000069700
87361=
0000011200
87368
0000009600
87371
0000035800
87378
0000037300
87381
0000039400
87385
0000039400
87407
0000041500
87411
0000014600
87417
0000045700
87421=
0000050000
87501
0000056200
87513=
0000060500
87736
0000062600
87931
0000062600
88134
0000056500
88400=
0000066700
047
USAA01 NZCM 110000
TTAA 61001 89664
99997 00056 18501 00512 ///// ///// 92601 07158 18518
85255 11341 17017 70716 21114 15006 50514 33959 24513
40666 44759 24520 30855 51765 24023 25975 45585 24514
20124 43786 24513 15318 43586 26009 10592 41586 23504
88320 52361 23026
77999
31313 48008 82219=

0000069700
87361=
0000011200
87368
0000009600
87371
0000035800
87378
0000037300
87381
0000039400
87385
0000039400
87407
0000041500
87411
0000014600
87417
0000045700
87421
0000049900
87440
0000052000
87462=
0000050100
87574
0000050100
87625=
0000058500
88104
0000054400
88386=
0000062600
048
USAA01 NZCM 110000
TTAA 61001 89664
99997 00056 18501 00512 ///// ///// 92601 07158 18518
85255 11341 17017 70716 21114 15006 50514 33959 24513
40666 44759 24520 30855 51765 24023 25975 45585 24514
20124 43786 24513 15318 43586 26009 10592 41586 23504
88320 52361 23026
77999
31313 48008 82219=

0000069700
87361=
0000011200
87368=
0000015000
87382
0000012800
87386=
0000045700
87427
0000045800
87444
0000047900
87464=
0000052100
87578
0000056300
87627=
0000064700
88111
0000060600
88390
0000068900
88636
0000062700
89168
0000064800
89730
0000079100
049
USAA01 NZCM 110000
TTAA 61001 89664
99997 00056 18501 00512 ///// ///// 92601 07158 18518
85255 11341 17017 70716 21114 15006 50514 33959 24513
40666 44759 24520 30855 51765 24023 25975 45585 24514
20124 43786 24513 15318 43586 26009 10592 41586 23504
88320 52361 23026
77999
31313 48008 82219=

0000069700
87361=
0000011200
87368
0000009600
87371
0000035800
87378
0000037300
87381
0000039400
87385
0000039400
87407
0000041500
87411
0000014600
87417
0000045700
87421
0000049900
87440
0000052000
87462
0000050000
87472
0000005900
87495
0000058300
87519
0000056300
87548
0000056300
87600=
0000052300
88063
0000060600
88322
0000062700
88587
0000014700
89153
0000079300
89733
0000062600
050
USAA01 NZCM 110000
TTAA 61001 89664
99997 00056 18501 00512 ///// ///// 92601 07158 18518
85255 11341 17017 70716 21114 15006 50514 33959 24513
40666 44759 24520 30855 51765 24023 25975 45585 24514
20124 43786 24513 15318 43586 26009 10592 41586 23504
88320 52361 23026
77999
31313 48008 82219=

0000069700
87361=
0000011200
87368=
0000015000
87382
0000012800
87386
0000045600
87406
0000047700
87410
0000049800
87416
0000051900
87420
0000047800
87441
0000045800
87463=
0000048000
87576
0000060400
87629=
0000056400
88119
0000054400
88391=
0000169800
051
SMNL21 EHDB 110000
AAXX 11001
06201 47766 82408 10080 20063 30032 40084 58008 70200 8////
333 86/56 88/59 91010 91110 91209=
06203 47462 4//13 10089 20071 30073 40124 58003 70100 8////
333 81/10 83/58 91015 91116 91214=
06204 47469 42512 10094 20066 30065 40116 58005 70100 8////
333 82/11 83/43 91014 91115 91213=
06205 47561 82311 10074 20058 30006 40065 58007 70200 8////
333 83/25 88/29 91012 91113 91211=
06208 47245 82108 10073 20062 30072 40121 58005 75881 8////
333 82/06 85/07 87/09 91011 91112 91209=
06211 47866 82211 10077 20058 30042 40098 58006 70300 8////
333 86/58 88/61 91013 91113 91211=
06212 47261 82212 10085 20071 3//// 4//// 5//// 70200 8////
333 84/05 86/07 88/10 91014 91115 91212=
06235 17357 82110 10069 20061 30129 40129 58004 69911 72181 8////
333 85/07 87/08 88/10 91014 91115 91210=
06240 17458 82107 10060 20044 30151 40146 58004 60001 71010 8////
333 87/10 88/13 91009 91112 91209=
06251 13/56 /2210 10071 20064 30116 40117 58005 69911
333 91013 91114 91211=
06258 46/// /2212
333 91014 91114 91212=
06269 17356 82107 10057 20042 30152 40146 58002 60001 71010 8////
333 87/08 88/10 91010 91111 91208=
06280 17356 82307 10064 20050 30130 40134 58002 60001 71010 8////
333 83/09 88/10 91009 91112 91208=
06310 17357 62009 10054 20040 30145 40155 58007 60001 71000 8////
333 84/08 86/09 91011 91112 91209=
06344 17450 72006 10056 20040 30157 40150 58006 60001 71010 8////
333 82/11 87/56 91009 91112 91208=
06370 17463 72105 10043 20027 30138 40164 58005 60001 70200 8////
333 87/10 91007 91110 91207=
06380 17965 02105 10027 20014 30033 40175 58007 60001 70100
333 91006 91107 91206=
0000013400
052
SMVD02 CWAO 110000
BBXX
SHIP 11004 99476 70527 46/// /2311 11054 21100 40225 56004 7////
8//// 22200 0//// 2//// =
0000124200
053
SMTU10 LTAA 110000
AAXX 11004
17022 12965 42504 10111 20014 30045 40213 53015 60001 80008
 333 84270 91113 92427=
17031 12970 00805 10086 21063 30159 40165 53007 60001
 333 91109=
17038 12970 01703 10061 21011 30115 40167 55000 60001
 333 91115 92428=
17050 11/01 92701 10032 20030 30155 40219 52011 60001 74544
 333 89/00 91106=
17060 11940 02106 10096 20064 30176 40216 52007 60001 71000
 333 91112=
17096 11914 01402 11281 21281 38261 48545 57004 60001 74140=
17124 11356 80702 11011 21029 39318 40273 52003 60001 71022 886//
 333 88709 91111=
17128 11349 83106 11037 21037 39128 40278 53003 60001 71022 886//
 333 88707=
17170 11657 40604 11097 21097 38345 48520 56002 60001 71011 84500
 333 84640=
17195 11129 80000 11036 21041 39017 48523 55001 60001 71041 887//
 333 88702 91107=
17197 12960 00000 11036 21069 39122 40230 58004 60001=
17219 11940 40904 10048 20038 30073 40221 51003 60001 71000 84030 333 84360=
17240 12970 02701 11032 21049 39074 40249 52002 60001
 333 91102=
17244 11228 81601 11022 21025 39036 48519 55000 60001 71022 886//
 333 88704=
17280 12960 02501 11033 21056 39419 40227 57002 60001=
17350 12960 00306 10013 21024 30135 40214 52008 60001=
0000103000
054
SMTU11 LTAA 110000
AAXX 11004
17026 12970 01604 10105 20018 30122 40161 57001 60001
 333 91108 92428=
17034 12970 20603 10090 21033 30117 40163 58003 60001 82030 333 82360 92428=
17070 12965 03601 10002 21050 39344 40221 52006 60001
 333 91105=
17084 11658 82205 11025 21049 39325 40267 55001 60001 71022 8452/
 333 84635 88460 91109=
17090 NIL=
17098 12960 00000 11222 21222 38218 48544 57009 60001
 333 91105=
17150 11908 00000 10001 20001 30104 40233 52010 60001 74400
 333 91108=
17160 11520 82303 11038 21039 39066 48516 55002 60001 71022 886//
 333 88722 91106=
17184 12960 00000 10012 21002 30115 40229 52006 60001
 333 91103=
17190 11/03 90401 11036 21037 39033 48515 53003 60001 74944
 333 89/04 91105=
17210 NIL=
17234 12970 00801 10054 20024 30162 40231 52006 60001
 333 91105=
17260 12960 00000 11022 21053 39391 40226 55000 60001=
17290 3//// /0201 10126 20108 30190 40222 5/001 60001=
17370 12965 01501 10112 21016 30214 40218 52003 60001
 333 92417=
0000106000
055
SMTU12 LTAA 110000
AAXX 11004
17024 12970 02611 10119 20024 30088 40166 53011 60001
 333 91122 92428=
17056 12970 00103 10092 20081 30206 40210 53005 60001
 333 91109 92428=
17067 12970 02504 10090 20022 30188 40210 53004 60001
  333 92428=
17092 12960 00000 11126 21126 38912 48526 55002 60001
 333 91105=
17112 12962 23503 10099 20077 30212 40214 52011 60001 82040 333 82360 92417=
17115 12960 40000 10027 20018 30167 40219 52012 60001 80001 333 84070 91108=
17116 12965 01007 10047 21019 30113 40236 52007 60001
 333 91113=
17188 12970 02702 10015 21049 39154 40225 52005 60001
 333 91105=
17202 12970 02904 11062 21078 39205 40270 58001 60001=
17248 11920 00501 11058 21070 39018 48511 56005 60001 71000=
17292 12970 01601 10009 20006 39464 40227 58001 60001
 333 91103=
17300 12560 53507 10058 20041 30148 40220 52002 60001 83101
 333 83820 84070=
17310 12970 00501 10116 20061 30212 40219 55002 60001
 333 91103 92428=
17330 12970 22903 10107 21027 30201 40219 56001 60001 82030
 333 82360=
0000074900
056
SMGR01 LGAT 110000
AAXX 11004
16622 11457 60000 10050 20038 30211 40212 52010 60001 71022 84635
      333 82710 83625 85068 90730 91106 555 70000 77Y// 7/Y//=
16641 12460 60000 10110 20102 30214 40219 58002 60001 83650 333
      82714 83818 86357 90730 91103 555 40000 47693 44220 50000
      50106=
16682 12560 50000 10120 20092 30214 40224 55004 60001 85100 333
      90730 91106=
16716 NIL=
16734 36/// /2812 10156 20089 30161 40222 57003 333 90730
      91117=
16743 NIL=
16749 12460 20000 10120 20079 30199 40214 54000 60001 82400 333
      90730 91106 555 40000 47683 44220 50000 50100=
16754 12970 01709 10112 20088 30163 40211 54000 60001 333 90730
      91110 555 40000 47653 44190 50000 50100=
0000058500
057
USAA01 NZCM 110000
TTAA 61001 89664
99997 00056 18501 00512 ///// ///// 92601 07158 18518
85255 11341 17017 70716 21114 15006 50514 33959 24513
40666 44759 24520 30855 51765 24023 25975 45585 24514
20124 43786 24513 15318 43586 26009 10592 41586 23504
88320 52361 23026
77999
31313 48008 82219=

0000069700
87361=
0000011200
87368=
0000015000
87382
0000012800
87386
0000045600
87406=
0000047800
87429
0000015700
87445
0000049900
87465=
0000054200
87575
0000062500
87617=
0000058500
88079
0000064800
88351=
0000070900
058
USAA01 NZCM 110000
TTAA 61001 89664
99997 00056 18501 00512 ///// ///// 92601 07158 18518
85255 11341 17017 70716 21114 15006 50514 33959 24513
40666 44759 24520 30855 51765 24023 25975 45585 24514
20124 43786 24513 15318 43586 26009 10592 41586 23504
88320 52361 23026
77999
31313 48008 82219=

0000069700
87361=
0000011200
87368=
0000015000
87382=
0000030600
87414
0000014800
87423
0000049900
87438
0000052000
87459
0000058200
87471
0000050000
87489
0000052100
87522=
0000058400
87725
0000058500
87827
0000058500
88015
0000062600
88202
0000066800
88447
0000068900
88742
0000071000
89195
0000073100
89735
00000000