0000021000
339
SZSR01 WSSS 110014
CREX++
T000103 A001 D01021 D06025++
0126166 10385160 00044 2014 01 10 23 30 //// 11 07 00 06
02532 -0048 02524 -0046 02513 -0047 02500 -0050 02485 -0054 02471 -0049++
7777
0000151100
340
SMCN08 CWAO 110000
AAXX 11004
71893 11256 81311 10064 20056 30066 40097 57045 69921 76162 886//
333 10073 20023 70002 90921=
71894 45/// /0917 10060 30049 40058 56073 6///1
333 10072 20060 7////=
71896 15966 01709 11023 21039 39251 40084 58003 60001
333 11009 21069 70033=
71897 11462 81420 10053 20038 3//// 4//// 57016 60041 761XX 888XX   333
10068 20050 70088 90922=
71898 NIL=
71899 12574 81506 10038 20017 3//// 4//// 57065 60001 8452X 333     10056
20028 70012=
71902 12974 72711 11126 21171 30017 40026 55002 60001 87030
333 11116 21189 70000=
71905 NIL=
71906 11774 12608 11194 21246 30004 40056 51031 69901 70171 81500
333 11138 21195 44022 70022 90927=
71907 NIL=
71909 NIL=
71911 455// 42210 11351 39927 49986 51011 6///1
333 11340 21371 7////=
71912 11658 80706 11208 21243 39852 40041 52011 69981 77177
885// 333 11149 21208 47019 70018 90983 93101=
71915 NIL=
71917 12974 70000 11261 21311 39875 49889 50002 60001 87050
333 11187 21308 79999=
71922 11469 82905 11056 21068 39509 49976 52019 69901 77177 885//
333 11051 21077 48051 70020 90973 93100=
71924 11674 82607 11290 21327 39764 49855 52017 69901 77177
885// 333 11275 21293 48005 79999 90983=
71925 11456 82705 11294 21333 39926 49969 58005 69901 77177
88500 333 11292 21338 42014 79999 90983=
71926 13574 11202 11328 21364 30040 40065 53008 60001 81500
333 11294 21328 79999=
71928 15/// /0701 11041 21056 38892 40075 53028 60001
333 11028 21174 70000=
0000015100
341
SSVX02 CWAO 110000
ZZYY 26535 11014 0000/ 187275 040517 6113/ 11131 
11131 40024 57010 444 20130 11014 0000/ 50101 80134 80001 9////=
0000012700
342
SSVX02 CWAO 110000
ZZYY 47537 11014 0000/ 783287 048106 6113/ 444 
20130 11014 0000/ 50001 80136 80001 9////=
0000013900
343
SSVX02 CWAO 110000
ZZYY 47532 11014 0000/ 171427 001093 6113/ 11119 
10053 444 20130 11014 0000/ 50001 80170 80001 9////=
0000012700
344
SSVX02 CWAO 110000
ZZYY 47573 11014 0000/ 770970 100709 6113/ 444 
20130 11014 0000/ 50101 80134 80001 9////=
0000013900
345
SSVX02 CWAO 110000
ZZYY 47571 11014 0000/ 771334 104399 6113/ 11119 
49938 444 20130 11014 0000/ 50401 80128 80001 9////=
0000156800
346
SMCN05 CWAO 110000
AAXX 11004
71725 15/// /1708 11047 21069 39750 40178 58010 60001
333 11047 21108 70000=
71726 15/// /2105 11068 21083 39651 40208 55005 60001
333 11067 21139 70000=
71727 12574 60000 11108 21129 30016 40224 52001 60001 86500 333
11067 21271 79999=
71728 12682 62105 11067 21109 39979 40208 56006 60001 86500
333 11049 21139 70000=
71730 11/12 /1713 11025 21026 39725 40159 56011 69901 75655
333 11025 21095 43030 79999 90973=
71731 11269 81506 11032 21045 39713 40175 57014 69901 77172 886//
333 11032 21123 48036 79999 90942 93100=
71735 NIL=
71738 11348 82008 11020 21027 39740 40096 57011 69901 77122
885// 333 11020 21066 44040 70002 90941=
71739 41474 81910 11021 21048 39757 40125 55003 6///1 77177 885//
333 11013 21112 90983=
71799 11469 81405 10071 20062 30102 40126 58028 69981 76122 885//
333 10099 20071 70010 90910=
71800 NIL=
71801 13574 12614 11063 21099 30041 40221 58005 60001 81500
333 11062 21128 70000=
71803 13580 72418 11079 21121 39999 40192 58012 60001 81570
333 11054 21160 70000=
71807 NIL=
71808 NIL=
71809 11562 8//// 11062 21091 30165 40193 55007 69901 78577 8757/
333 11054 21150 48085 70026 90983=
71810 15/// /2514 11050 21079 30122 40190 58002 60001
333 11049 21121 70000=
71811 NIL=
71813 17/// /2611 11074 21087 30162 40177 50000 69921 7//4/
333 11073 21195 70002=
71814 15/// /2411 11076 21109 30157 40167 58001 60001
333 11074 21194 70000=
71815 12574 72618 11039 21067 30191 40223 58004 60001 87500
333 11039 21087 70022=
0000152900
347
SMCN09 CWAO 110000
AAXX 11004
71930 12774 72205 11047 21078 39111 40051 53021 60001 83571 
333 11002 21097 70004=
71931 45/// /2512 11075 21125 30152 40164 58017 6///1
333 11058 21153 7////=
71934 11569 70000 11182 21209 39756 40022 53016 69941 77177
85570 333 11176 21213 47025 70004 90973 93101=
71935 11974 62603 11252 21301 39833 40050 53021 69901 70272
81071 333 11199 21254 48026 70006 90963=
71936 11766 72905 11246 21271 39749 40020 53007 69981 77172 85071
333 11224 21247 48032 70032 90927 93101=
71937 NIL=
71938 11562 32717 11269 21326 39960 49990 51008 69901 77677
82530 333 11230 21272 46029 79999 90973=
71940 13982 62619 11019 21089 39231 40039 52014 60001 82031
333 11009 21104 70000=
71943 13974 42413 11049 21109 39185 40035 50010 60001 80001
333 11049 21182 70000=
71945 13774 53203 11152 21184 39553 40035 52015 60001 85500
333 11148 21184 70018=
71946 11974 23202 11232 21248 39846 40069 53016 69901 70271
81071 333 11218 21261 48053 70020 90947=
71948 47917 02923 11332 39867 49984 52015 6///1 771//
333 11247 21332 7////=
71949 15/// /3202 11138 21154 39095 49969 55005 60001
333 11091 21142 70000=
71951 11262 80403 10009 20006 39768 40034 57039 69901 75152 886//
333 10019 21002 41000 70004 90915=
71964 43583 62202 11131 21151 39103 49967 57013 6///1
333 11102 21155=
71966 15/// /0000 11244 21273 39557 40034 57003 60001
333 11197 21254 70000=
71968 47/09 02925 11246 30022 40089 56002 6///1 771//
333 11239 21252 7////=
0000132500
348
SMCN03 CWAO 110000
AAXX 11004
71397 11469 82109 11001 21009 30241 40277 57008 69901 78522 885//
333 11001 21186 44030 79999 90942=
71400 NIL=
71403 NIL=
71411 15/// /2216 10009 20001 30281 40294 56008 60001
333 10010 21131 70000=
71412 15/// /2212 11032 21064 30255 40265 56005 60001
333 11031 21163 70000=
71421 NIL=
71430 15/// /1512 10014 21005 30108 40206 56020 60001
333 10014 21018 70017=
71431 15/// /0907 10019 20006 30094 40191 56021 60001
333 10019 21047 70017=
71432 15/// /1401 10018 20000 30084 40182 58019 60001
333 10031 21063 70020=
71433 NIL=
71435 NIL=
71441 45/// /1903 11027 21048 39661 49970 51008 6///1
333 11026 21116 7////=
71443 15/// /2111 11079 21091 39569 49984 50011 60001
333 11068 21107 70002=
71444 15/// /3003 11070 21076 39221 49985 51019 60001
333 11062 21176 70000=
71447 17/// /3104 11060 21075 39454 40001 51024 69921 7//4/
333 11020 21091 70002=
71467 NIL=
71472 NIL=
71474 15664 40000 11020 21057 38866 40109 58008 60001
333 11009 21052 70000=
71510 15/// /2708 11064 21070 39312 40030 53027 60001
333 11057 21139 70002=
71538 11558 81608 10027 20026 39905 40137 58031 60001 71022
885// 333 10039 21029 70012=
71600 15564 82615 11005 21071 30310 40316 58003 60001
333 11005 21059 70010=
71601 NIL=
0000151800
349
SMCN02 CWAO 110000
AAXX 11004
71114 17/// /2611 10071 20043 30091 40139 56004 60051 7//4/
333 10095 20024 70208=
71120 12874 62708 11064 21076 39351 40016 52024 60001 86031 333
11056 21171 70004=
71122 15/// /2806 11005 21155 38472 40069 53035 60001
333 10004 21048 70000=
71123 11774 63010 11030 21077 39180 40060 52029 69901 70277 81571
333 11010 21174 48040 79999 90960=
71125 13574 72610 11052 21085 39406 49994 53019 60001 87572
333 11040 21118 93100=
71129 13774 52910 11088 21104 39196 40037 53027 60001 81571
333 11077 21142 70000=
71131 15/// /3006 11056 21081 38777 40040 53024 60001
333 11037 21100 70000=
71135 15/// /2812 11048 21078 38940 40026 52023 60001
333 11010 21079 70000=
71137 15/// /2601 11043 21070 39086 40033 52021 60001
333 11025 21079 70000=
71140 11258 83011 11099 21110 39490 40000 52019 60001 71022 8467/
333 11090 21187 70000 93100=
71145 11140 80000 11083 21088 39701 49997 55000 69901 77177
886// 333 11083 21128 48034 70014 90983=
71148 15/// /2905 11068 21074 39400 49983 51016 60001
333 11011 21129 70002=
71185 15911 0//// 11048 21076 30145 40169 58003 60001
333 11043 21136 70000=
71188 13974 52710 11066 21138 30163 40207 55003 60001 80006
333 11055 21159 44036 70000=
71200 17/// /0904 10067 20055 69981 7//4/
333 10081 20067 70026=
71207 17/// /0101 10039 20034 30058 40122 58024 69941 7//4/
333 10044 20009 70071=
71260 13348 81106 11019 21033 39872 40111 58016 60001
333 11017 21085 70002=
0000162700
350
SMCN06 CWAO 110000
AAXX 11004
71816 12974 82620 11113 21193 30044 40107 57007 60001 88030 333
11111 21208 70000=
71818 12674 82210 11127 21142 30070 40089 57015 60001 885//
333 11123 21225 70000=
71821 45/// /1907 11043 21052 39789 40142 58003 6///1
333 11043 21095 7////=
71822 NIL=
71825 11669 82106 11125 21156 39433 40127 51010 69921 77177 885//
333 11121 21233 48089 70018 90983=
71827 11158 82008 11061 21071 39837 40084 52007 69981 76877 886//
333 11060 21105 47016 70060 90983 93101=
71828 NIL=
71831 11466 81713 11020 21037 39815 40098 55009 69901 70272
885// 333 11019 21077 48074 79999 90953=
71832 15/// /1805 11007 21029 39738 40064 55004 60001
333 10003 21066 70000=
71834 11374 81912 11031 21041 39618 40047 57006 69901 73672
886// 333 11028 21061 44033 70004 90951=
71841 NIL=
71842 11348 81706 11067 21079 39531 40006 57013 69901 77177 886//
333 11066 21092 47042 70002 90983 93100=
71844 NIL=
71845 11256 81806 11078 21090 39534 40012 57012 69901 77177 885//
333 11074 21090 44037 90983=
71850 11324 81710 11051 21062 39481 49983 56007 60021 77177 885//
333 11049 21094 48048 70022 90983 93102=
71854 11340 31305 11064 21075 39509 49984 57005 60021 77177 835//
333 11064 21086 48048 90987=
71856 15/// /2207 11071 21097 39940 40198 58015 60001
333 11058 21142 70004=
71858 15/// /0902 11096 21108 39702 49986 50009 60001
333 11091 21110 70002=
71861 15/// /3007 11070 21078 39271 40004 51018 60001
333 11070 21166 70000=
71862 11216 82908 11055 21059 39316 40020 53021 69901 73672
886// 333 11025 21059 48016 79999 90921=
0000013600
351
SMCN05 CWAO 110000 CCA
AAXX 11004
71728 12683 62105 11067 21109 39979 40208 56006 60001
86500 333 11049 21139 70000=
0000180800
352
SMCN01 CWAO 110000
AAXX 11004
71043 11880 73104 11260 21292 39993 40090 51006 69901 77172 85071
333 11238 21292 48015 70004 90917=
71045 15/// /0000 11101 21111 39100 49963 58010 60001
333 11074 21126 70000=
71050 15/// /0507 11032 21054 39001 40091 58021 60001
333 11032 21180 70010=
71051 NIL=
71052 45/// ///// 11268 39711 40058 50006 6///1
333 11257 21277 7////=
71066 17/12 /0201 11164 21188 39603 40035 53015 60001 771//
333 11164 21212 70000=
71068 11774 72108 11126 21141 39332 40038 51011 69901 70277 86570
333 11119 21172 47042 70004 90922=
71069 NIL=
71076 15/// /0000 11215 21244 39619 40024 53005 60001
333 11175 21218 70000=
71077 15/// /3110 11103 21122 39464 40007 51024 60001
333 11060 21103 70005=
71079 11324 90607 11125 21133 39721 40006 51009 60051 77177 
333 11107 21128 47049 70056 90983 93105=
71082 NIL=
71083 11074 03608 11332 21371 30022 40067 51019 69901 77677
333 11303 21332 44035 79999 90983 93100=
71090 15966 /2807 11248 21282 39856 49892 51012 60001
333 11220 21307 70000=
71091 45/// /0904 11270 39700 49913 52025 6///1
333 7////=
71092 45864 41510 11290 39232 49911 51019 6///1
333 11248 21291 7////=
71093 45/// /2522 11229 39389 49889 51017 6///1
333 11194 21238 7////=
71094 45964 02011 11204 38972 49871 51019 6///1
333 11179 21218 7////=
71095 17648 81707 11234 21259 39813 49894 51030 69901 7714/
333 11201 21242 70003=
71101 45/// /1320 10050 20034 39955 49963 56071 6///1
333 10059 20009 7////=
71104 13874 81208 11024 21047 38986 40100 58009 60001 8807/
333 11008 21069 70006=
71108 NIL=
71109 11462 81122 10048 20038 39999 40025 57080 60021 76122 887//
333 10057 20038 70072 90921=
71729 15/// /0302 11102 21119 30174 40254 56009 60001
333 11102 21229 70000=
0000123300
353
SMCN07 CWAO 110000
AAXX 11004
71864 NIL=
71865 15/// /2407 11081 21092 39324 40010 51016 60001
333 11079 21107 70010=
71867 11274 81504 11086 21100 39647 49984 53008 69901 70277
886// 333 11082 21099 47031 70006 90952=
71868 15/// /2105 11082 21085 39541 49987 51012 60001
333 11051 21141 70002=
71869 13874 72402 11082 21096 39468 49997 51016 60001 87071
333 11062 21124 70004=
71871 15966 02712 11066 21083 39210 40022 53019 60001
333 11036 21098 70000=
71877 13586 70503 11043 21086 38797 40077 52038 60001 81171
333 10022 21049 70000=
71878 11774 82310 11040 21049 38988 40076 53028 60001 86501 
333 11038 21168 70000=
71879 15964 02909 11017 21102 39236 40046 53030 60001
333 10002 21131 70000=
71880 13580 72407 10032 21030 38996 40106 53031 60001 82571
333 10053 21093 79999=
71882 15/// /1605 10006 20001 39590 40128 53013 60001
333 10015 21000 70040=
71883 NIL=
71887 11783 81002 10003 21015 39702 40128 58001 69901 70282 8457/
333 10015 21030 47011 79999 90942=
71889 13674 71904 10020 21006 39713 40133 53012 60001 81570
333 10033 20014 70004=
71892 11666 80808 10070 20056 30125 40131 57023 60011 76162 885//
333 10079 20031 4/000 70092 90901 93100=
0000015400
354
SMCN05 CWAO 110000 CCB
AAXX 11004
71738 11348 82008 11020 21027 39740 40096 57011 69901
77122 885// 333 11020 21066 44040 70002 90921=
0000009900
355
SAIQ01 ORBI 110000
METAR ORBM 110000Z 22003KT 8000 SCT050 BKN100 07/05 Q1019 NOSIG=
0000179000
356
SMCO01 SKBO 110000
AAXX 11001
80001 32470 30807 10272 20234 30112 40113 83200  333 10287 56399 59010 83818 =
80002 32470 30704 10272 20228 82101  333 10290 563/0 82818 =
80009 31560 00203 10290 20183 30072 40077 70500 80000  333 10346 56999 58001 =
80022 31966 00303 10274 20218 30083 40085 70500   333 10310 58000   =
80028 31960 00104 10260 20229 30055 40090 70500  333 10318 59003=
80035 32/70 01204 10283 20168 30111 40116  333 10340 59008=
80036 31968 00404 10346 20130 70500  333 10360 =
80063 31565 13204 10286 20240 70511 81400333 10344 567// 81620555 18000 3297/=
80084 NIL=
80091 31460 20000 10286 20222 70500 82800333 10342 569// 82615555 18000 3267/ 4//442=
80094 31464 52602 10217 20185 38788 70500 84131 333 10258 56999 59004 84815 =
80097 32570 42702 10252 20210 3//// 4//// 82841 333 10293 56999 5//// 82823=
80099 32966 00000 10260 20209 39895 40040 80001  333 10335 56//9 59003 81070 =
80110 NIL=
80112 31465 80803 10166 20147 37890 70522 85881 333 10214 56999 58001 85812 83358=
80139 NIL=
80144 31560 40000 10270 20240 70511 84200  333 10310 56009 84820 =
80149 NIL=
80210 31460 50000 10210 20180 38649 70522 82876  333 10250 56699 57894 59010 82817 83070 =
80211 31570 60000 10218 20171 70522 84930333 10264 5688/ 57981 84923 83360555 19010 3193/ 4//32=
80214 31460 70000 10228 20202 70522 83670 333 10264 5677/ 83617 85457=
80222 31562 72903 10134 20095 37508 70522 83875 333 10201 56699 59003 83820 83358=
80234 NIL=
80259 31560 73604 10244 20185 39032 70522 82839 333 10280 56849 59005 82820 84360=
80315 32665 70000 10272 20226 39562 40056 81150 333 10298 5608/ 59008 81840 87362=
80342 NIL=
80370 NIL=
80398 12470 40000 10250 20242 39986 40081 60071 82831  333 10308 56999 59013 82816 83358 =
0000060600
357
USAA01 NZCM 110000
TTAA 61001 89664
99997 00056 18501 00512 ///// ///// 92601 07158 18518
85255 11341 17017 70716 21114 15006 50514 33959 24513
40666 44759 24520 30855 51765 24023 25975 45585 24514
20124 43786 24513 15318 43586 26009 10592 41586 23504
88320 52361 23026
77999
31313 48008 82219=

0000069700
87361=
0000011200
87368=
0000015000
87382
0000012800
87386
0000045600
87406=
0000047800
87429
0000015700
87445
0000049900
87465=
0000054200
87575
0000062500
87617
0000062500
87660=
0000064700
88233=
0000153500
90425
0000064700
358
USAA01 NZCM 110000
TTAA 61001 89664
99997 00056 18501 00512 ///// ///// 92601 07158 18518
85255 11341 17017 70716 21114 15006 50514 33959 24513
40666 44759 24520 30855 51765 24023 25975 45585 24514
20124 43786 24513 15318 43586 26009 10592 41586 23504
88320 52361 23026
77999
31313 48008 82219=

0000069700
87361=
0000011200
87368
0000009600
87371
0000035800
87378
0000037300
87381
0000039400
87385
0000039400
87407=
0000012000
87430
0000054000
87439=
0000056200
87534
0000060400
87553
0000056300
87602
0000052200
87653=
0000060600
88231=
0000153900
90429
00000000