0000070600
279
USAK01 KWBC 110000 CCA
TTAA 61001 70219 99993 10309 03512 00520 ///// ///// 92590 05126
08008 85250 09713 18507 70726 18358 21006 50514 38150 20506 40664
48157 25010 30851 51773 24509 25969 48981 25018 20116 481// 27029
15306 481// 26533 10575 45385 28043 88361 52369 17004 77999 31313
58208 82300 51515 10164 00005 10181 10194 14009 19004=
TTAA 61001 70398 99997 04828 11004 00014 ///// ///// 92644 00511
16014 85314 06307 16014 70803 13777 22515 50529 27937 25023 40687
34535 24574 30883 47550 23620 25001 58150 24132 20139 57161 26091
15321 56982 26567 10580 56182 27561 88217 64357 24634 77220 24635
41375 31313 58208 82302 51515 10164 00010 10181 10194 15013
20014=
0000323300
280
SMKO03 RKSL 110000
AAXX 11004
47090 32970 00902 10003 21117 30279 40302 52008 333 21024 30104
92011=
47095 11958 00000 11082 21096 30139 40341 52015 69902 71100 333
21105 34107=
47097 329// /2901 11068 21089 30241 40344 52013 333 21093 3/103=
47098 329// /0001 11077 21093 30194 40338 52015 333 21090 3/105=
47099 329// /0000 11088 21107 30299 40338 52013 333 21113 3/105=
47100 12970 02710 11076 21124 39357 40324 50016 69902 333 21092
3/108 41///=
47102 12670 61106 11007 21086 30143 40328 52010 69902 86500 333
21012 3/101 42///=
47104 32970 01603 11012 21134 30203 40304 52004 333 21059 30103=
47106 329// /1103 10006 21117 30255 40306 52009 333 21021 3/103=
47112 12966 20204 11027 21094 30244 40332 52013 69902 80001 333
21036 34102 92012=
47114 32660 20502 11063 21084 30148 40342 52012 82500 333 21083
30104=
47119 11920 00000 11047 21055 30295 40340 52015 69902 71000 333
21074 34104=
47121 329// /0000 11088 21104 30033 40348 52012 333 21104 3/107=
47127 329// /0000 11058 21083 30195 40345 52011 333 21090 3/103=
47129 11640 60201 11036 21040 30302 40340 52011 69912 71022 85500
333 21075 3/000 48///=
47130 32968 42307 11009 21105 30252 40316 52011 80001 333 21054
30102 92023=
47131 11658 50000 11026 21049 30265 40339 52013 69902 71021 85500
333 21047 34102=
47135 329// /2503 11025 21079 30025 40338 52012 333 21048 3/102=
47136 31656 12901 11074 21104 30158 40342 52014 71010 81500 333
21093 30106=
47137 329// /0001 11039 21082 30212 40337 52011 333 21052 3/104=
47140 11650 60703 11016 21034 30308 40338 52011 69902 71022 86500
333 21036 34101 92022=
47143 329// /0501 11014 21077 30261 40344 52010 333 21029 3/101=
47145 11650 50000 11039 21051 30304 40331 52014 69902 71022 85500
333 21064 30103=
47146 31659 73601 11001 21057 30271 40340 52011 70522 87500 333
21027 34001=
47150 12661 60202 11011 21044 30313 40333 52009 69902 86500 333
21047 34101=
47152 32965 23203 10008 21092 30282 40326 52011 80001 333 21017
30102=
47154 329// /0000 11032 21071 30276 40340 52011 333 21060 3/103=
47155 32960 00000 10005 21082 30287 40335 52012 333 21023 30000=
47156 11659 42501 11007 21042 30249 40342 52008 69902 70511 84500
333 21024 34000=
47157 12660 40000 11028 21092 30044 40333 52008 69902 84500 333
21052 34102=
47162 32961 03203 11007 21058 30294 40336 52010 333 21026 34101
92021=
47169 12670 30502 10031 21034 30243 40340 52009 69902 83500 333
20026 31000 92031=
47170 32970 02901 10003 21037 30297 40342 52007 333 21017 34000
92021=
47171 NIL=
47172 129// /0000 11007 21033 30264 40333 52008 69902 333 21024
3/000=
47173 329// /0501 11035 21059 30174 40339 52010 333 21053 3/101=
47174 32962 20001 11029 21065 30124 40336 51009 80001 333 21057
30101=
47175 12970 03204 11016 21073 39744 40341 53003 69902 333 21038
3/000 43002 92022=
47185 12965 23611 10041 21029 30238 40332 52011 69902 80001 333
20038 31003 92034=
47188 12670 23605 10035 21024 30309 40331 52013 69902 81500 333
20026 31002 92022=
47189 32670 40201 10045 21017 30260 40322 52012 81530 333 20038
30002 92021=
47192 31950 20000 11045 21071 30301 40341 52011 71000 80001 333
21086 34103=
0000062600
281
USAA01 NZCM 110000
TTAA 61001 89664
99997 00056 18501 00512 ///// ///// 92601 07158 18518
85255 11341 17017 70716 21114 15006 50514 33959 24513
40666 44759 24520 30855 51765 24023 25975 45585 24514
20124 43786 24513 15318 43586 26009 10592 41586 23504
88320 52361 23026
77999
31313 48008 82219=

0000069700
87361=
0000011200
87368=
0000015000
87382
0000012800
87386
0000045600
87406
0000047700
87410=
0000049900
87467
0000047900
87475
0000047900
87491
0000056200
87512
0000054200
87550=
0000058500
87863
0000054300
88027
0000056500
88336=
0000066700
282
USAA01 NZCM 110000
TTAA 61001 89664
99997 00056 18501 00512 ///// ///// 92601 07158 18518
85255 11341 17017 70716 21114 15006 50514 33959 24513
40666 44759 24520 30855 51765 24023 25975 45585 24514
20124 43786 24513 15318 43586 26009 10592 41586 23504
88320 52361 23026
77999
31313 48008 82219=

0000069700
87361=
0000011200
87368
0000009600
87371
0000035800
87378
0000037300
87381
0000039400
87385
0000039400
87407
0000041500
87411
0000014600
87417
0000045700
87421
0000049900
87440
0000052000
87462=
0000050100
87574=
0000050200
87891
0000056400
88057
0000060600
88338=
0000062600
283
USAA01 NZCM 110000
TTAA 61001 89664
99997 00056 18501 00512 ///// ///// 92601 07158 18518
85255 11341 17017 70716 21114 15006 50514 33959 24513
40666 44759 24520 30855 51765 24023 25975 45585 24514
20124 43786 24513 15318 43586 26009 10592 41586 23504
88320 52361 23026
77999
31313 48008 82219=

0000069700
87361=
0000011200
87368=
0000015000
87382
0000012800
87386
0000045600
87406
0000047700
87410
0000049800
87416
0000051900
87420
0000047800
87441=
0000045900
87536
0000052100
87559
0000054200
87603=
0000058500
88077
0000066800
88364=
0000068800
284
USAA01 NZCM 110000
TTAA 61001 89664
99997 00056 18501 00512 ///// ///// 92601 07158 18518
85255 11341 17017 70716 21114 15006 50514 33959 24513
40666 44759 24520 30855 51765 24023 25975 45585 24514
20124 43786 24513 15318 43586 26009 10592 41586 23504
88320 52361 23026
77999
31313 48008 82219=

0000069700
87361=
0000011200
87368
0000009600
87371
0000035800
87378
0000037300
87381
0000039400
87385
0000039400
87407
0000041500
87411
0000014600
87417
0000045700
87421
0000049900
87440
0000052000
87462
0000050000
87472=
0000058400
87593=
0000060600
87906
0000060600
88089
0000060600
88366=
0000060500
285
USAA01 NZCM 110000
TTAA 61001 89664
99997 00056 18501 00512 ///// ///// 92601 07158 18518
85255 11341 17017 70716 21114 15006 50514 33959 24513
40666 44759 24520 30855 51765 24023 25975 45585 24514
20124 43786 24513 15318 43586 26009 10592 41586 23504
88320 52361 23026
77999
31313 48008 82219=

0000069700
87361=
0000011200
87368
0000009600
87371
0000035800
87378
0000037300
87381
0000039400
87385=
0000043700
87428
0000047800
87442=
0000052100
87533
0000058300
87555
0000060400
87612=
0000058500
88071
0000056500
88360=
0000066700
286
USAA01 NZCM 110000
TTAA 61001 89664
99997 00056 18501 00512 ///// ///// 92601 07158 18518
85255 11341 17017 70716 21114 15006 50514 33959 24513
40666 44759 24520 30855 51765 24023 25975 45585 24514
20124 43786 24513 15318 43586 26009 10592 41586 23504
88320 52361 23026
77999
31313 48008 82219=

0000069700
87361=
0000011200
87368
0000009600
87371
0000035800
87378
0000037300
87381=
0000039500
87413
0000041600
87422
0000043700
87443
0000045800
87466
0000054100
87469
0000050000
87483
0000045900
87525
0000058300
87572
0000060400
87624=
0000054400
88075
0000054400
88362=
0000062600
287
USAA01 NZCM 110000
TTAA 61001 89664
99997 00056 18501 00512 ///// ///// 92601 07158 18518
85255 11341 17017 70716 21114 15006 50514 33959 24513
40666 44759 24520 30855 51765 24023 25975 45585 24514
20124 43786 24513 15318 43586 26009 10592 41586 23504
88320 52361 23026
77999
31313 48008 82219=

0000069700
87361=
0000011200
87368=
0000015000
87382
0000012800
87386
0000045600
87406
0000047700
87410=
0000049900
87467
0000047900
87475
0000047900
87491
0000056200
87512
0000054200
87550
0000058400
87597=
0000052300
88098
0000066800
88367=
0000050300
288
SMIL01 BIRK 110000
AAXX 11004
04005 42888 60904 10042 21020 49926 51003 86800 555 3/310=
04018 42680 72715 10018 21032 49925 52013 82530 555 3//16 82638 87356=
04030 41430 82807 10004 21010 49928 52015 77177 8662/ 555 3//10 82710 86717 88525=
04048 NIL=
04063 41575 71805 10018 21030 49965 52001 71582 84720 555 3//10=
04077 NIL=
04082 41556 80723 10028 20018 49928 58003 76366 8762/ 555 3//23 87726 88556=
04097 41570 81216 10024 21026 49999 53005 77072 8372/ 555 3/418=
0000011900
289
SMIL02 BIRK 110000
AAXX 11003
04013 41/10 92702 10005 21003 49908 52006 77372 555 3//24=
04064 NIL=
0000062600
290
USAA01 NZCM 110000
TTAA 61001 89664
99997 00056 18501 00512 ///// ///// 92601 07158 18518
85255 11341 17017 70716 21114 15006 50514 33959 24513
40666 44759 24520 30855 51765 24023 25975 45585 24514
20124 43786 24513 15318 43586 26009 10592 41586 23504
88320 52361 23026
77999
31313 48008 82219=

0000069700
87361=
0000011200
87368
0000009600
87371
0000035800
87378
0000037300
87381=
0000039500
87413
0000041600
87422
0000043700
87443
0000045800
87466
0000054100
87469=
0000050100
87581=
0000046100
87909
0000058500
88097
0000058600
88370=
0000068800
291
USAA01 NZCM 110000
TTAA 61001 89664
99997 00056 18501 00512 ///// ///// 92601 07158 18518
85255 11341 17017 70716 21114 15006 50514 33959 24513
40666 44759 24520 30855 51765 24023 25975 45585 24514
20124 43786 24513 15318 43586 26009 10592 41586 23504
88320 52361 23026
77999
31313 48008 82219=

0000069700
87361=
0000011200
87368=
0000015000
87382
0000012800
87386
0000045600
87406
0000047700
87410
0000049800
87416
0000051900
87420
0000047800
87441
0000045800
87463
0000047900
87474
0000054100
87493
0000052100
87509
0000048000
87557
0000050100
87618=
0000058500
88112
0000062700
88375=
0000060500
292
USAA01 NZCM 110000
TTAA 61001 89664
99997 00056 18501 00512 ///// ///// 92601 07158 18518
85255 11341 17017 70716 21114 15006 50514 33959 24513
40666 44759 24520 30855 51765 24023 25975 45585 24514
20124 43786 24513 15318 43586 26009 10592 41586 23504
88320 52361 23026
77999
31313 48008 82219=

0000069700
87361=
0000011200
87368
0000009600
87371
0000035800
87378
0000037300
87381=
0000039500
87413=
0000052000
87479
0000056200
87492
0000045900
87517
0000054200
87560
0000060400
87620=
0000052300
88114
0000050300
88379=
0000060500
293
USAA01 NZCM 110000
TTAA 61001 89664
99997 00056 18501 00512 ///// ///// 92601 07158 18518
85255 11341 17017 70716 21114 15006 50514 33959 24513
40666 44759 24520 30855 51765 24023 25975 45585 24514
20124 43786 24513 15318 43586 26009 10592 41586 23504
88320 52361 23026
77999
31313 48008 82219=

0000069700
87361=
0000011200
87368
0000009600
87371
0000035800
87378
0000037300
87381=
0000039500
87413=
0000052000
87479
0000056200
87492
0000045900
87517
0000054200
87560=
0000060500
87886
0000060600
88053
0000064700
88357=
0000052300
294
USAA01 NZCM 110000
TTAA 61001 89664
99997 00056 18501 00512 ///// ///// 92601 07158 18518
85255 11341 17017 70716 21114 15006 50514 33959 24513
40666 44759 24520 30855 51765 24023 25975 45585 24514
20124 43786 24513 15318 43586 26009 10592 41586 23504
88320 52361 23026
77999
31313 48008 82219=

0000069700
87361=
0000011200
87368=
0000015000
87382=
0000030600
87414=
0000011000
87481=
0000054200
87583=
0000058500
87910
0000056200
88094
0000058500
88380=
0000062600
295
USAA01 NZCM 110000
TTAA 61001 89664
99997 00056 18501 00512 ///// ///// 92601 07158 18518
85255 11341 17017 70716 21114 15006 50514 33959 24513
40666 44759 24520 30855 51765 24023 25975 45585 24514
20124 43786 24513 15318 43586 26009 10592 41586 23504
88320 52361 23026
77999
31313 48008 82219=

0000069700
87361=
0000011200
87368=
0000015000
87382=
0000030600
87414
0000014800
87423
0000049900
87438
0000052000
87459
0000058200
87471
0000050000
87489
0000052100
87522
0000058300
87546
0000054200
87595=
0000058500
88096
0000060600
88396=
0000062600
296
USAA01 NZCM 110000
TTAA 61001 89664
99997 00056 18501 00512 ///// ///// 92601 07158 18518
85255 11341 17017 70716 21114 15006 50514 33959 24513
40666 44759 24520 30855 51765 24023 25975 45585 24514
20124 43786 24513 15318 43586 26009 10592 41586 23504
88320 52361 23026
77999
31313 48008 82219=

0000069700
87361=
0000011200
87368=
0000015000
87382
0000012800
87386=
0000045700
87427
0000045800
87444
0000047900
87464
0000052000
87476
0000050000
87490
0000045900
87515
0000054200
87561
0000056300
87628=
0000052300
88117
0000012800
88398=
0000054300
297
USAA01 NZCM 110000
TTAA 61001 89664
99997 00056 18501 00512 ///// ///// 92601 07158 18518
85255 11341 17017 70716 21114 15006 50514 33959 24513
40666 44759 24520 30855 51765 24023 25975 45585 24514
20124 43786 24513 15318 43586 26009 10592 41586 23504
88320 52361 23026
77999
31313 48008 82219=

0000069700
87361=
0000011200
87368=
0000015000
87382
0000012800
87386=
0000045700
87427=
0000045900
87505=
0000050100
87719
0000050200
87834
0000064700
88048
0000062600
88330=
0000068800
298
USAA01 NZCM 110000
TTAA 61001 89664
99997 00056 18501 00512 ///// ///// 92601 07158 18518
85255 11341 17017 70716 21114 15006 50514 33959 24513
40666 44759 24520 30855 51765 24023 25975 45585 24514
20124 43786 24513 15318 43586 26009 10592 41586 23504
88320 52361 23026
77999
31313 48008 82219=

0000069700
87361=
0000011200
87368=
0000015000
87382
0000012800
87386
0000045600
87406
0000047700
87410
0000049800
87416
0000051900
87420
0000047800
87441
0000045800
87463
0000047900
87474
0000054100
87493
0000052100
87509
0000048000
87557=
0000050200
87884
0000062600
88049
0000060600
88332=
00000000