0000070900
859
USAA01 NZCM 110000
TTAA 61001 89664
99997 00056 18501 00512 ///// ///// 92601 07158 18518
85255 11341 17017 70716 21114 15006 50514 33959 24513
40666 44759 24520 30855 51765 24023 25975 45585 24514
20124 43786 24513 15318 43586 26009 10592 41586 23504
88320 52361 23026
77999
31313 48008 82219=

0000069700
87361=
0000011200
87368=
0000015000
87382
0000012800
87386
0000045600
87406=
0000047800
87429=
0000005900
87506
0000058300
87508
0000054200
87566
0000056300
87622
0000052200
87672
0000054300
87803
0000062600
87992
0000070900
88180
0000070900
88458
0000064800
88695
0000068900
89165
0000064800
89722
0000062600
860
USAA01 NZCM 110000
TTAA 61001 89664
99997 00056 18501 00512 ///// ///// 92601 07158 18518
85255 11341 17017 70716 21114 15006 50514 33959 24513
40666 44759 24520 30855 51765 24023 25975 45585 24514
20124 43786 24513 15318 43586 26009 10592 41586 23504
88320 52361 23026
77999
31313 48008 82219=

0000069700
87361=
0000011200
87368=
0000015000
87382
0000012800
87386=
0000045700
87427
0000045800
87444
0000047900
87464
0000052000
87476=
0000050100
87588=
0000062600
88115
0000060600
88393
0000060600
88690
0000060700
89163
0000071000
89714
0000062600
861
USAA01 NZCM 110000
TTAA 61001 89664
99997 00056 18501 00512 ///// ///// 92601 07158 18518
85255 11341 17017 70716 21114 15006 50514 33959 24513
40666 44759 24520 30855 51765 24023 25975 45585 24514
20124 43786 24513 15318 43586 26009 10592 41586 23504
88320 52361 23026
77999
31313 48008 82219=

0000069700
87361=
0000011200
87368=
0000015000
87382
0000012800
87386
0000045600
87406
0000047700
87410
0000049800
87416=
0000045800
87478=
0000043900
87582=
0000052300
88109
0000054400
88392
0000064800
88671
0000062700
89110
0000062700
89705
0000062600
862
USAA01 NZCM 110000
TTAA 61001 89664
99997 00056 18501 00512 ///// ///// 92601 07158 18518
85255 11341 17017 70716 21114 15006 50514 33959 24513
40666 44759 24520 30855 51765 24023 25975 45585 24514
20124 43786 24513 15318 43586 26009 10592 41586 23504
88320 52361 23026
77999
31313 48008 82219=

0000069700
87361=
0000011200
87368=
0000015000
87382=
0000030600
87414
0000014800
87423=
0000050000
87499
0000062400
87518
0000056300
87544=
0000054300
87877
0000058500
88044
0000058500
88316
0000073000
88586
0000077200
89138
0000071100
89691
0000068800
863
USAA01 NZCM 110000
TTAA 61001 89664
99997 00056 18501 00512 ///// ///// 92601 07158 18518
85255 11341 17017 70716 21114 15006 50514 33959 24513
40666 44759 24520 30855 51765 24023 25975 45585 24514
20124 43786 24513 15318 43586 26009 10592 41586 23504
88320 52361 23026
77999
31313 48008 82219=

0000069700
87361=
0000011200
87368=
0000015000
87382
0000012800
87386
0000045600
87406
0000047700
87410
0000049800
87416=
0000045800
87478=
0000043900
87582
0000052200
87674
0000054300
87785
0000060500
87983
0000068800
88164
0000060600
88456
0000066800
88716
0000064800
89159
0000071000
89712
0000062600
864
USAA01 NZCM 110000
TTAA 61001 89664
99997 00056 18501 00512 ///// ///// 92601 07158 18518
85255 11341 17017 70716 21114 15006 50514 33959 24513
40666 44759 24520 30855 51765 24023 25975 45585 24514
20124 43786 24513 15318 43586 26009 10592 41586 23504
88320 52361 23026
77999
31313 48008 82219=

0000069700
87361=
0000011200
87368=
0000015000
87382=
0000030600
87414=
0000011000
87481
0000054100
87485
0000050000
87516
0000054200
87558
0000060400
87607=
0000062600
88068
0000060600
88353
0000066800
88662
0000073100
89134
0000066900
89699
0000062600
865
USAA01 NZCM 110000
TTAA 61001 89664
99997 00056 18501 00512 ///// ///// 92601 07158 18518
85255 11341 17017 70716 21114 15006 50514 33959 24513
40666 44759 24520 30855 51765 24023 25975 45585 24514
20124 43786 24513 15318 43586 26009 10592 41586 23504
88320 52361 23026
77999
31313 48008 82219=

0000069700
87361=
0000011200
87368=
0000015000
87382
0000012800
87386
0000045600
87406
0000047700
87410
0000049800
87416
0000051900
87420
0000047800
87441=
0000045900
87536
0000052100
87559
0000054200
87603
0000052200
87665=
0000060600
88225=
0000124900
866
SMTH01 VTBB 110000
AAXX 11004
48300 31/08 90000 10142 20138 39870 40195 52021 74744 
  333 20134 58025=
48327 31540 10000 10177 20167 39819 40185 52014 71000 81501
  333 20175 58023=
48331 31920 00000 10153 20148 39941 40181 52029 71000 
  333 20145 58011=
48353 31920 00000 10150 20137 39879 40180 52010 71000 
  333 20145 58012=
48356 31959 20000 10159 20147 39980 40184 53009 71000 80001
  333 20155 59002=
48375 NIL=
48378 31520 20000 10192 20182 30106 40160 52013 71000 81505
  333 20182 58012=
48381 31957 33502 10177 20158 39951 40175 52011 71011 80005
  333 20173 58003=
48407 31957 40104 10177 20160 30031 40177 52021 71011 80005
  333 20174 58011=
48431 31956 20000 10187 20169 39955 40175 52018 71000 80005
  333 20185 58001=
48456 NIL=
48480 31558 50610 10239 20173 30136 40141 52016 71010 82536
  333 20234 58006=
48500 31940 30205 10243 20188 30136 40142 52016 71011 80005
  333 20210 58015=
48551 31456 60000 10230 20222 30123 40131 52011 71022 82157
  333 20225 58009=
48565 31557 60000 10241 20225 30109 40120 52014 71021 81247
  333 20217 58022=
48569 01459 70507 10257 20205 30094 40135 52012 69984 71062 83876
  333 20243 58016 69907 70008=
48583 NIL=
0000122600
867
SMTH02 VTBB 110000
AAXX 11004
48303 31/01 93602 10170 20165 39724 40178 52012 74544 
  333 20168 58013=
48328 31/02 90000 10161 20159 39897 40185 52019 74740 
  333 20155 58018=
48330 31/01 90000 10177 20174 39980 40172 52011 74744 
  333 20172 58016=
48351 31950 20000 10183 20170 30085 40161 52011 71000 80005
  333 20183 58012=
48354 31940 23402 10165 20151 39972 40183 51016 71000 80001
  333 20163 58004=
48376 31915 20000 10181 20171 30022 40171 52008 71000 80002
  333 20180 58016=
48377 NIL=
48379 32960 30000 10177 20165 30021 40158 52014 80005
  333 20160 58016=
48400 31920 30000 10194 20184 30120 40162 52018 71010 80006
  333 20185 58013=
48432 31956 00803 10181 20166 39996 40170 52015 71000 
  333 20178 58006=
48455 31959 20000 10232 20189 30149 40154 52016 71000 80005
  333 20230 58015=
48462 NIL=
48475 31958 20000 10233 20185 30139 40146 52014 71000 80005
  333 20230 58014=
48477 31950 53304 10213 20176 30118 40143 52014 71010 82046
  333 20204 58009=
48517 11550 40000 10225 20217 30129 40136 52012 60014 71010 81245
  333 20223 58014 70014=
48532 32560 50802 10230 20215 30122 40131 52010 82106
  333 20224 58015=
48567 NIL=
0000068800
868
USAA01 NZCM 110000
TTAA 61001 89664
99997 00056 18501 00512 ///// ///// 92601 07158 18518
85255 11341 17017 70716 21114 15006 50514 33959 24513
40666 44759 24520 30855 51765 24023 25975 45585 24514
20124 43786 24513 15318 43586 26009 10592 41586 23504
88320 52361 23026
77999
31313 48008 82219=

0000069700
87361=
0000011200
87368
0000009600
87371
0000035800
87378
0000037300
87381
0000039400
87385
0000039400
87407=
0000012000
87430
0000054000
87439
0000049900
87460
0000047900
87470
0000052100
87487
0000054200
87520
0000052100
87554
0000050100
87606
0000058400
87669=
0000056500
88229=
0000158100
869
SMTH40 VTBB 110000
AAXX 11004
48310 31/00 90000 10160 20151 39708 40178 52011 74744 
  333 20150 58013=
48325 NIL=
48329 31930 20000 10168 20165 39821 40170 52010 71000 81031
  333 20164 58015=
48352 31940 10000 10173 20158 39977 40185 52016 71000 80001
  333 20164 58009=
48357 32960 40000 10160 20146 30009 40185 52014 80006
  333 20157 58001=
48380 NIL=
48383 31956 00000 10165 20148 30010 40175 52013 71000 
  333 20160 58001=
48403 31956 60000 10194 20160 39958 40174 52022 71011 80006
  333 20193 58005=
48405 31958 20000 10174 20159 30000 40169 52010 71000 80005
  333 20172 58003=
48420 31959 50302 10227 20191 30141 40145 52014 71011 80006
  333 20220 58011=
48421 31950 20000 10170 20161 30046 40164 52016 71000 80005
  333 20168 58017=
48425 NIL=
48426 31958 60707 10230 20166 30144 40157 52016 71021 80006
  333 20229 58011=
48429 32960 43404 10218 20176 30153 40160 52020 80005
  333 20216 58018=
48430 31950 20603 10228 20183 30146 40154 52018 71000 80005
  333 20212 58010=
48450 NIL=
48459 31958 20603 10232 20172 30141 40144 52010 71000 80001
  333 20226 58010=
48465 31958 33305 10218 20186 30145 40150 52016 71000 80005
  333 20208 58014=
48550 31558 70000 10265 20249 30124 40131 52009 71022 82246
  333 20253 58010=
48552 12460 60000 10238 20226 30127 40133 52006 60024 82836
  333 20225 58011 70023=
48566 32560 50910 10260 20216 30123 40131 52013 82145
  333 20255 58020=
48568 11458 81007 10269 20210 30129 40136 52016 69904 71022 8397/
  333 20261 58020 79999=
0000062600
870
USAA01 NZCM 110000
TTAA 61001 89664
99997 00056 18501 00512 ///// ///// 92601 07158 18518
85255 11341 17017 70716 21114 15006 50514 33959 24513
40666 44759 24520 30855 51765 24023 25975 45585 24514
20124 43786 24513 15318 43586 26009 10592 41586 23504
88320 52361 23026
77999
31313 48008 82219=

0000069700
87361=
0000011200
87368=
0000015000
87382=
0000030600
87414
0000014800
87423
0000049900
87438
0000052000
87459
0000058200
87471
0000050000
87489
0000052100
87522
0000058300
87546
0000054200
87595
0000058400
87662=
0000056500
88232=
0000058500
871
USAA01 NZCM 110000
TTAA 61001 89664
99997 00056 18501 00512 ///// ///// 92601 07158 18518
85255 11341 17017 70716 21114 15006 50514 33959 24513
40666 44759 24520 30855 51765 24023 25975 45585 24514
20124 43786 24513 15318 43586 26009 10592 41586 23504
88320 52361 23026
77999
31313 48008 82219=

0000069700
87361=
0000011200
87368=
0000015000
87382
0000012800
87386
0000045600
87406=
0000047800
87429
0000015700
87445
0000049900
87465=
0000054200
87575
0000062500
87617
0000062500
87660=
0000064700
88233=
0000153300
872
SMTH41 VTBB 110000
AAXX 11004
48315 31/01 90000 10158 20154 39902 40181 52003 74744 
  333 20154 58007=
48374 31958 00000 10175 20153 30004 40176 52016 71000 
  333 20170 58011=
48382 31957 03403 10183 20166 39995 40177 51014 71000 
  333 20173 59002=
48385 31956 00000 10136 20125 39632 40170 57001 71000 
  333 20130 58005=
48390 31901 10000 10156 20149 30009 40177 52015 74440 80001
  333 20155 58004=
48402 31957 50000 10197 20186 30142 40162 52015 71011 80005
  333 20195 58013=
48413 31956 20000 10183 20171 30080 40162 52016 71000 80005
  333 20178 58007=
48416 31559 20000 10175 20158 30020 40173 52011 71000 81570
  333 20168 58002=
48418 32960 20310 10205 20172 30108 40169 52021 80001
  333 20163 58008=
48434 31940 50000 10180 20167 39946 40173 52018 71011 80006
  333 20172 59001=
48436 31956 20000 10170 20165 39956 40171 52014 71000 80005
  333 20167 58007=
48439 31950 20000 10193 20178 30140 40154 52011 71000 80001
  333 20190 58006=
48460 NIL=
48461 NIL=
48478 31956 63402 10212 20181 30137 40143 52009 71021 80006
  333 20210 58011=
48501 31956 41304 10240 20191 30129 40134 52010 71010 83051
  333 20225 58010=
48561 32562 30000 10230 20215 30113 40122 52006 81105
  333 20229 58013=
48564 32560 60000 10265 20220 30125 40129 52015 82246
  333 20260 58015=
48570 32560 60000 10261 20209 30113 40119 52017 82246
  333 20250 58012=
48580 11556 80000 10240 20225 30123 40130 52015 60024 71062 84847
  333 20234 58015 70023=
0000058500
873
USAA01 NZCM 110000
TTAA 61001 89664
99997 00056 18501 00512 ///// ///// 92601 07158 18518
85255 11341 17017 70716 21114 15006 50514 33959 24513
40666 44759 24520 30855 51765 24023 25975 45585 24514
20124 43786 24513 15318 43586 26009 10592 41586 23504
88320 52361 23026
77999
31313 48008 82219=

0000069700
87361=
0000011200
87368=
0000015000
87382
0000012800
87386
0000045600
87406=
0000047800
87429
0000015700
87445=
0000050000
87538
0000054200
87552
0000066600
87599
0000058400
87652=
0000060600
88230=
0000154300
874
SMTH42 VTBB 110000
AAXX 11004
48302 31956 21505 10127 20114 38509 40169 5//// 71000 80005
  333 20125 58021=
48304 NIL=
48334 31920 00000 10160 20151 39801 40175 52011 71000 
  333 20155 58014=
48360 NIL=
48372 31520 50000 10196 20190 30102 40161 52009 71011 82536
  333 20184 58013=
48373 31920 20000 10190 20183 30099 40163 52015 71000 80005
  333 20188 58016=
48386 31920 00000 10200 20197 30115 40162 52015 71000 
  333 20194 58016=
48387 31920 31002 10134 20132 39192 40179 52008 71011 80005
  333 20122 58020=
48408 31959 30000 10172 20160 30018 40173 52015 71011 80005
  333 20169 58006=
48415 31956 60711 10222 20166 30138 40149 52012 71022 80005
  333 20186 58008=
48433 NIL=
48437 31958 00000 10170 20153 39961 40178 52020 71000 
  333 20154 58008=
48440 31959 61303 10195 20180 30101 40152 52014 71010 83035
  333 20191 58004=
48451 NIL=
48454 31956 60000 10244 20184 30141 40148 5//// 71022 80006
  333 20241 58009=
48457 31556 60612 10254 20197 30129 40146 5//// 71022 81106
  333 20248 58011=
48463 NIL=
48464 NIL=
48479 31920 30202 10230 20164 30091 40143 52013 71000 80001
  333 20227 58011=
48520 11557 60000 10220 20212 30119 40134 52015 60064 71022 82546
  333 20220 58016 70060=
48554 11430 82304 10244 20238 30129 40133 52013 69954 71022 8487/
  333 20242 58014 70005=
48563 32560 60000 10225 20220 30092 40129 52014 81146
  333 20206 58014=
48571 12560 81104 10265 20187 30120 40131 52012 69984 86836
  333 20238 58016 70008=
0000062600
875
USAA01 NZCM 110000
TTAA 61001 89664
99997 00056 18501 00512 ///// ///// 92601 07158 18518
85255 11341 17017 70716 21114 15006 50514 33959 24513
40666 44759 24520 30855 51765 24023 25975 45585 24514
20124 43786 24513 15318 43586 26009 10592 41586 23504
88320 52361 23026
77999
31313 48008 82219=

0000069700
87361=
0000011200
87368
0000009600
87371
0000035800
87378
0000037300
87381
0000039400
87385
0000039400
87407=
0000012000
87430
0000054000
87439=
0000056200
87534
0000060400
87553
0000056300
87602
0000052200
87653=
0000060600
88231=
0000153700
876
SMTH43 VTBB 110000
AAXX 11004
48307 31956 00000 10142 20140 39791 40186 52006 71000 
  333 20139 58007=
48324 31912 10000 10170 20165 39942 40168 52011 71000 80005
  333 20168 58017=
48333 31940 00000 10150 20145 39871 40185 52012 71000 
  333 20145 58018=
48350 NIL=
48355 NIL=
48358 31920 20000 10133 20127 30003 40187 52014 71000 80001
  333 20130 58000=
48384 31915 20000 10163 20160 39973 40171 51016 71000 80005
  333 20159 58005=
48401 31956 60602 10230 20155 30065 40174 52025 70522 80006
  333 20207 58020=
48404 31958 30503 10169 20153 39987 40171 53018 71010 80005
  333 20163 58003=
48409 31950 20000 10177 20158 30017 40170 52014 71000 80001
  333 20175 58006=
48419 31958 00601 10220 20188 30145 40153 52017 71000 
  333 20213 58010=
48427 NIL=
48435 31957 50000 10185 20158 39720 40169 52015 71010 80006
  333 20183 58008=
48453 31958 60000 10213 20192 30147 40150 52012 71020 80006
  333 20209 58010=
48458 32960 81402 10201 20170 30083 40166 52012 81036
  333 20197 58009=
48474 31958 60000 10196 20180 30025 40152 52012 71021 80006
  333 20195 58011=
48481 NIL=
48555 11550 40000 10226 20217 30113 40157 52014 60034 71022 82545
  333 20201 58018 70034=
48556 NIL=
48557 31558 50000 10215 20207 30098 40134 52014 71011 82106
  333 20215 58018=
48560 01556 80000 10239 20230 30128 40133 52007 60114 71066 84876
  333 20236 58019 60087 70106=
48574 32560 80000 10242 20235 30101 40131 52015 86836
  333 20233 58026=
48581 NIL=
0000066700
877
USAA01 NZCM 110000
TTAA 61001 89664
99997 00056 18501 00512 ///// ///// 92601 07158 18518
85255 11341 17017 70716 21114 15006 50514 33959 24513
40666 44759 24520 30855 51765 24023 25975 45585 24514
20124 43786 24513 15318 43586 26009 10592 41586 23504
88320 52361 23026
77999
31313 48008 82219=

0000069700
87361=
0000011200
87368
0000009600
87371
0000035800
87378
0000037300
87381
0000039400
87385=
0000043700
87428
0000047800
87442
0000056100
87461
0000047900
87477
0000056200
87486
0000052100
87514
0000064500
87547
0000052200
87621
0000058400
87677=
0000054400
88234=
0000062600
878
USAA01 NZCM 110000
TTAA 61001 89664
99997 00056 18501 00512 ///// ///// 92601 07158 18518
85255 11341 17017 70716 21114 15006 50514 33959 24513
40666 44759 24520 30855 51765 24023 25975 45585 24514
20124 43786 24513 15318 43586 26009 10592 41586 23504
88320 52361 23026
77999
31313 48008 82219=

0000069700
87361=
0000011200
87368=
0000015000
87382
0000012800
87386
0000045600
87406
0000047700
87410=
0000049900
87467
0000047900
87475
0000047900
87491
0000056200
87512
0000054200
87550
0000058400
87597
0000062500
87670=
0000054400
88236=
00000000