0000070900
179
USAA01 NZCM 110000
TTAA 61001 89664
99997 00056 18501 00512 ///// ///// 92601 07158 18518
85255 11341 17017 70716 21114 15006 50514 33959 24513
40666 44759 24520 30855 51765 24023 25975 45585 24514
20124 43786 24513 15318 43586 26009 10592 41586 23504
88320 52361 23026
77999
31313 48008 82219=

0000069700
87361=
0000011200
87368
0000009600
87371
0000035800
87378
0000037300
87381=
0000039500
87413
0000041600
87422
0000043700
87443
0000045800
87466=
0000054200
87540
0000048000
87567
0000050100
87610
0000056300
87645=
0000064700
88246
0000066800
88521
0000060600
88791
0000060700
89246
0000073100
89783
0000068800
180
USAA01 NZCM 110000
TTAA 61001 89664
99997 00056 18501 00512 ///// ///// 92601 07158 18518
85255 11341 17017 70716 21114 15006 50514 33959 24513
40666 44759 24520 30855 51765 24023 25975 45585 24514
20124 43786 24513 15318 43586 26009 10592 41586 23504
88320 52361 23026
77999
31313 48008 82219=

0000069700
87361=
0000011200
87368
0000009600
87371
0000035800
87378
0000037300
87381
0000039400
87385=
0000043700
87428
0000047800
87442
0000056100
87461=
0000021900
87579=
0000050200
87870
0000054300
88010
0000064700
88198
0000060600
88477
0000068900
88745
0000062800
89199
0000071100
89775
0000072900
181
USAA01 NZCM 110000
TTAA 61001 89664
99997 00056 18501 00512 ///// ///// 92601 07158 18518
85255 11341 17017 70716 21114 15006 50514 33959 24513
40666 44759 24520 30855 51765 24023 25975 45585 24514
20124 43786 24513 15318 43586 26009 10592 41586 23504
88320 52361 23026
77999
31313 48008 82219=

0000069700
87361=
0000011200
87368
0000009600
87371
0000035800
87378
0000037300
87381=
0000039500
87413
0000041600
87422
0000043700
87443
0000045800
87466
0000054100
87469
0000050000
87483
0000045900
87525=
0000058400
87752
0000050200
87943
0000068800
88132
0000077100
88437
0000056500
88729
0000062700
89217
0000060700
89768
0000075000
182
USAA01 NZCM 110000
TTAA 61001 89664
99997 00056 18501 00512 ///// ///// 92601 07158 18518
85255 11341 17017 70716 21114 15006 50514 33959 24513
40666 44759 24520 30855 51765 24023 25975 45585 24514
20124 43786 24513 15318 43586 26009 10592 41586 23504
88320 52361 23026
77999
31313 48008 82219=

0000069700
87361=
0000011200
87368
0000009600
87371
0000035800
87378
0000037300
87381
0000039400
87385
0000039400
87407=
0000012000
87430
0000054000
87439
0000049900
87460
0000047900
87470
0000052100
87487
0000054200
87520
0000052100
87554=
0000050200
87872
0000054300
88051
0000058600
88334
0000064800
88633
0000064800
89187
0000066900
89736
0000091700
183
SMSP02 LEMM 110000
AAXX 11004
08055 NIL=
08075 NIL=
08084 01105 80703 10039 20039 39751 40195 51006 60001 74544 886//
  333 60007=
08184 06/// /0000 10085 20074 30028 40185 56002 60001
  333 60007=
08202 02765 60000 10000 21004 39238 42784 50003 60001 82046
  333 60007=
08235 NIL=
08238 NIL=
08280 11458 81205 10078 20061 39345 40170 57004 60001 71022 8472/=
08330 12970 53502 10091 20090 39922 40154 52003 60001 82078=
08348 NIL=
08360 01459 20404 10088 20076 30130 40168 58009 60001 71022 81638
  333 60007=
08373 02462 30000 10126 20115 30147 40169 56008 60001 81607
  333 60007=
08410 06/// /0000 10086 20074 30046 40158 53006 60001
  333 60007=
08419 05/63 /0000 10071 20054 39490 40165 51003 60001
  333 60007=
08451 06/// /0402 10104 20104 30117 40150 50007 60001
  333 60007=
08487 06/// /0307 10134 20089 30130 40155 58002 60001
  333 60007=
0000085300
184
USAA01 NZCM 110000
TTAA 61001 89664
99997 00056 18501 00512 ///// ///// 92601 07158 18518
85255 11341 17017 70716 21114 15006 50514 33959 24513
40666 44759 24520 30855 51765 24023 25975 45585 24514
20124 43786 24513 15318 43586 26009 10592 41586 23504
88320 52361 23026
77999
31313 48008 82219=

0000069700
87361=
0000011200
87368
0000009600
87371
0000035800
87378
0000037300
87381
0000039400
87385
0000039400
87407
0000041500
87411
0000014600
87417
0000045700
87421
0000049900
87440
0000052000
87462
0000050000
87472
0000005900
87495
0000058300
87519
0000056300
87548
0000056300
87600
0000062500
87655
0000054300
87765
0000062600
87953
0000058500
88149
0000060600
88438
0000062700
88693
0000068900
89181
0000069000
89739
0000072900
185
USAA01 NZCM 110000
TTAA 61001 89664
99997 00056 18501 00512 ///// ///// 92601 07158 18518
85255 11341 17017 70716 21114 15006 50514 33959 24513
40666 44759 24520 30855 51765 24023 25975 45585 24514
20124 43786 24513 15318 43586 26009 10592 41586 23504
88320 52361 23026
77999
31313 48008 82219=

0000069700
87361=
0000011200
87368
0000009600
87371
0000035800
87378
0000037300
87381=
0000039500
87413
0000041600
87422
0000043700
87443
0000045800
87466
0000054100
87469=
0000050100
87581
0000046000
87641
0000058400
87805
0000058500
87979
0000054400
88203
0000060600
88445
0000056500
88731
0000071000
89197
0000069000
89766
0000066700
186
USAA01 NZCM 110000
TTAA 61001 89664
99997 00056 18501 00512 ///// ///// 92601 07158 18518
85255 11341 17017 70716 21114 15006 50514 33959 24513
40666 44759 24520 30855 51765 24023 25975 45585 24514
20124 43786 24513 15318 43586 26009 10592 41586 23504
88320 52361 23026
77999
31313 48008 82219=

0000069700
87361=
0000011200
87368
0000009600
87371
0000035800
87378
0000037300
87381=
0000039500
87413
0000041600
87422
0000043700
87443=
0000052100
87539=
0000058400
87751
0000060500
87950
0000058500
88129
0000060600
88428
0000064800
88741
0000071000
89235
0000073100
89786
0000081200
187
USAA01 NZCM 110000
TTAA 61001 89664
99997 00056 18501 00512 ///// ///// 92601 07158 18518
85255 11341 17017 70716 21114 15006 50514 33959 24513
40666 44759 24520 30855 51765 24023 25975 45585 24514
20124 43786 24513 15318 43586 26009 10592 41586 23504
88320 52361 23026
77999
31313 48008 82219=

0000069700
87361=
0000011200
87368=
0000015000
87382
0000012800
87386
0000045600
87406
0000047700
87410
0000049800
87416
0000051900
87420
0000047800
87441
0000045800
87463
0000047900
87474
0000054100
87493
0000052100
87509
0000048000
87557
0000050100
87618
0000052200
87680
0000060500
87820
0000068800
87999
0000058500
88171
0000060600
88468
0000068900
88727
0000064800
89207
0000069000
89734
0000062600
188
USAA01 NZCM 110000
TTAA 61001 89664
99997 00056 18501 00512 ///// ///// 92601 07158 18518
85255 11341 17017 70716 21114 15006 50514 33959 24513
40666 44759 24520 30855 51765 24023 25975 45585 24514
20124 43786 24513 15318 43586 26009 10592 41586 23504
88320 52361 23026
77999
31313 48008 82219=

0000069700
87361=
0000011200
87368=
0000015000
87382
0000012800
87386=
0000045700
87427=
0000045900
87505
0000050000
87526=
0000050200
87744
0000056400
87939
0000064700
88138
0000058500
88441
0000062700
88732
0000069000
89215
0000069000
89769
0000072900
189
USAA01 NZCM 110000
TTAA 61001 89664
99997 00056 18501 00512 ///// ///// 92601 07158 18518
85255 11341 17017 70716 21114 15006 50514 33959 24513
40666 44759 24520 30855 51765 24023 25975 45585 24514
20124 43786 24513 15318 43586 26009 10592 41586 23504
88320 52361 23026
77999
31313 48008 82219=

0000069700
87361=
0000011200
87368
0000009600
87371
0000035800
87378
0000037300
87381
0000039400
87385=
0000043700
87428=
0000047900
87503
0000056200
87524
0000048000
87543
0000056300
87596
0000054300
87636
0000052200
87806
0000066700
87986
0000062600
88166
0000060600
88464
0000062700
88711
0000058600
89177
0000071100
89742
0000060500
190
USAA01 NZCM 110000
TTAA 61001 89664
99997 00056 18501 00512 ///// ///// 92601 07158 18518
85255 11341 17017 70716 21114 15006 50514 33959 24513
40666 44759 24520 30855 51765 24023 25975 45585 24514
20124 43786 24513 15318 43586 26009 10592 41586 23504
88320 52361 23026
77999
31313 48008 82219=

0000069700
87361=
0000011200
87368
0000009600
87371
0000035800
87378
0000037300
87381=
0000039500
87413
0000041600
87422=
0000043800
87504
0000052100
87527=
0000052200
87750=
0000060600
88803
0000058600
89259
0000069000
89796
0000364200
191
SMMX01 KWBC 110000
AAXX 11001
76160 32962 02301 10258 20010 39896 40143 57005 92342 333 10265
20070 30/// 50270 58000 70000=
76519 32560 10000 10212 20015 38344 40144 57003 81100 92348 333
10230 21010 30/// 50491 56200 59003 70000 81820=
76640 31458 32201 10220 20192 30117 40129 52001 70200 8123/ 92340
333 10254 20170 30/// 50151 5655/ 59053 79999 81812=
76698 32558 21101 10255 20230 30133 40145 52005 82200 92350 333
10308 20189 30/// 50260 56200 59025 70000 82820=
76750 01560 80802 10241 20210 30131 40141 52005 69901 70152=
76833 32970 01602 10280 2//// 30093 40095 52010 92345 333 10338
20215 30/// 50870 59021 70000 92021=
76843 32965 03401 10281 20196 39447 40080 55003 92345 333 10309
20155 30/// 50451 59051 70000=
76113 32980 02001 10230 20005 39690 40150 57005 92340 333 10235
20020 30/// 50151 58018 70000=
76243 32973 61501 10208 20139 39815 40106 52002 86600 92340 333
10230 20096 30/// 50021 56300 59053 70000 86613=
76256 32980 02702 10252 20149 30137 40151 57006 92340 333 10276
20078 30/// 50200 58013 70000=
76258 32870 12705 10230 20088 3//// 4//// 5//// 81030 92350 333
10276 20086 30/// 50170 56050 58/// 70000=
76323 32970 22401 10170 20058 38258 40163 52011 80008 92350 333
10194 20080 30/// 50251 56005 58024 70000=
76382 32680 73602 10206 20105 38877 40106 52007 87020 92355 333
10244 20098 30/// 50371 58008 70000 87456=
76390 31968 23304 10174 21020 38210 40090 52010 70544 80001 92348
333 10210 20113 30/// 50531 56006 59005 70000=
76405 32880 10104 10210 20130 30127 40148 55004 81030 92350 333
10238 20140 30/// 50300 56050 58016 79999 81357=
76491 32960 00000 10242 20145 39731 40115 52016 92350 333 10272
20095 30/// 50101 59052 70000=
76499 31959 00000 10271 20175 30063 40085 52014 70544 92341 333
10295 20127 30/// 50321 59/// 70000=
76556 32970 13404 10226 20147 39099 40101 53005 81030 92345 333
10266 20100 30/// 50271 56050 59008 70000 81360=
76571 32670 22103 10196 21038 38145 40114 50005 82400 92356 333
10228 20026 30/// 50171 56500 59010 70000 82650=
76577 32570 72303 10191 20134 38020 40120 55000 87600 92345 333
10220 20062 30/// 50241 56500 59011 70000 87626=
76612 32562 62102 10213 20050 38453 40109 53003 82530 92350 333
10248 20050 30/// 50361 56550 59005 70000 82630 84358=
76634 01670 71402 10156 20055 37837 40099 52007 69901 70552=
76662 32670 52605 10216 20101 38437 40095 57001 85400 92345 333
10260 20058 30/// 50380 56500 59007 70000 85633=
76665 31564 62001 10183 20098 38099 40095 52002 70211 82220 92350
333 10230 20065 30/// 50201 56330 57831 59010 70000 82822 84460=
76685 32565 12701 10201 20028 37855 40082 52009 81100 92340 333
10230 20064 30/// 50189 569// 59014 70000 81827=
76692 31856 10903 10238 20194 30091 40110 56003 71044 81040 92345
333 10279 20179 30/// 50330 56/3/ 59061 70000=
76695 32956 00000 10248 20230 30120 40126 54000 92350 333 10322
20210 30/// 5//// 59043 70000=
76726 32470 61901 10247 20108 38379 40066 54000 86500 92350 333
10271 20152 30/// 50200 56500 59011 70000 86623=
76040 32960 00702 10240 20093 30157 40171 57011 92350 333 10248
20042 30/// 50260 58030 70000 98660=
76220 32958 03005 10162 2//// 38129 40125 52004 92339 333 10184
21018 30/// 50181 58004 70000=
76305 32970 00404 10212 20123 30143 40151 57003 92348 333 10230
20140 30/// 50201 58008 70000=
76342 31862 73002 10240 20035 39415 40108 52012 70321 87010 92350
333 10275 20090 30/// 50351 56050 59024 70000 87458=
76393 31910 10234 20116 39532 40097 52012 70540 80008 92345 333
10278 20145 30/// 50191 56008 59039 70000 91106 91403=
0000081200
192
USAA01 NZCM 110000
TTAA 61001 89664
99997 00056 18501 00512 ///// ///// 92601 07158 18518
85255 11341 17017 70716 21114 15006 50514 33959 24513
40666 44759 24520 30855 51765 24023 25975 45585 24514
20124 43786 24513 15318 43586 26009 10592 41586 23504
88320 52361 23026
77999
31313 48008 82219=

0000069700
87361=
0000011200
87368
0000009600
87371
0000035800
87378
0000037300
87381
0000039400
87385
0000039400
87407=
0000012000
87430
0000054000
87439
0000049900
87460
0000047900
87470
0000052100
87487
0000054200
87520
0000052100
87554
0000050100
87606
0000058400
87669
0000060500
87776
0000066700
87962
0000062600
88147
0000070900
88431
0000068900
88725
0000060700
89193
0000066900
89762
0000077100
193
USAA01 NZCM 110000
TTAA 61001 89664
99997 00056 18501 00512 ///// ///// 92601 07158 18518
85255 11341 17017 70716 21114 15006 50514 33959 24513
40666 44759 24520 30855 51765 24023 25975 45585 24514
20124 43786 24513 15318 43586 26009 10592 41586 23504
88320 52361 23026
77999
31313 48008 82219=

0000069700
87361=
0000011200
87368
0000009600
87371
0000035800
87378
0000037300
87381
0000039400
87385
0000039400
87407=
0000012000
87430
0000054000
87439
0000049900
87460
0000047900
87470
0000052100
87487
0000054200
87520
0000052100
87554
0000050100
87606
0000058400
87669=
0000056500
88229
0000062700
88502
0000066900
88766
0000062700
89234
0000054500
89798
0000075000
194
USAA01 NZCM 110000
TTAA 61001 89664
99997 00056 18501 00512 ///// ///// 92601 07158 18518
85255 11341 17017 70716 21114 15006 50514 33959 24513
40666 44759 24520 30855 51765 24023 25975 45585 24514
20124 43786 24513 15318 43586 26009 10592 41586 23504
88320 52361 23026
77999
31313 48008 82219=

0000069700
87361=
0000011200
87368
0000009600
87371
0000035800
87378
0000037300
87381
0000039400
87385
0000039400
87407=
0000012000
87430=
0000054100
87500
0000056200
87510
0000050100
87551
0000056300
87601
0000050100
87643
0000052200
87801
0000056400
87993
0000060600
88199
0000060600
88490
0000068900
88772
0000064800
89232
0000079300
89784
0000070900
195
USAA01 NZCM 110000
TTAA 61001 89664
99997 00056 18501 00512 ///// ///// 92601 07158 18518
85255 11341 17017 70716 21114 15006 50514 33959 24513
40666 44759 24520 30855 51765 24023 25975 45585 24514
20124 43786 24513 15318 43586 26009 10592 41586 23504
88320 52361 23026
77999
31313 48008 82219=

0000069700
87361=
0000011200
87368=
0000015000
87382
0000012800
87386
0000045600
87406=
0000047800
87429
0000015700
87445=
0000050000
87538
0000054200
87552
0000066600
87599
0000058400
87652
0000058400
87779
0000056400
87980
0000062600
88161
0000064700
88444
0000062700
88735
0000069000
89220
0000069000
89764
0000075000
196
USAA01 NZCM 110000
TTAA 61001 89664
99997 00056 18501 00512 ///// ///// 92601 07158 18518
85255 11341 17017 70716 21114 15006 50514 33959 24513
40666 44759 24520 30855 51765 24023 25975 45585 24514
20124 43786 24513 15318 43586 26009 10592 41586 23504
88320 52361 23026
77999
31313 48008 82219=

0000069700
87361=
0000011200
87368
0000009600
87371
0000035800
87378
0000037300
87381
0000039400
87385=
0000043700
87428
0000047800
87442
0000056100
87461
0000047900
87477
0000056200
87486
0000052100
87514
0000064500
87547
0000052200
87621
0000058400
87677=
0000054400
88234
0000062700
88507
0000064800
88768
0000071000
89231
0000066900
89787
0000070900
197
USAA01 NZCM 110000
TTAA 61001 89664
99997 00056 18501 00512 ///// ///// 92601 07158 18518
85255 11341 17017 70716 21114 15006 50514 33959 24513
40666 44759 24520 30855 51765 24023 25975 45585 24514
20124 43786 24513 15318 43586 26009 10592 41586 23504
88320 52361 23026
77999
31313 48008 82219=

0000069700
87361=
0000011200
87368
0000009600
87371
0000035800
87378
0000037300
87381
0000039400
87385
0000039400
87407=
0000012000
87430
0000054000
87439=
0000056200
87534
0000060400
87553
0000056300
87602
0000052200
87653=
0000060600
88231
0000066800
88506
0000058600
88779
0000060700
89240
0000075200
89797
0000070900
198
USAA01 NZCM 110000
TTAA 61001 89664
99997 00056 18501 00512 ///// ///// 92601 07158 18518
85255 11341 17017 70716 21114 15006 50514 33959 24513
40666 44759 24520 30855 51765 24023 25975 45585 24514
20124 43786 24513 15318 43586 26009 10592 41586 23504
88320 52361 23026
77999
31313 48008 82219=

0000069700
87361=
0000011200
87368=
0000015000
87382
0000012800
87386
0000045600
87406=
0000047800
87429
0000015700
87445
0000049900
87465=
0000054200
87575
0000062500
87617
0000062500
87660
0000064600
87787
0000062600
87967
0000058500
88194
0000060600
88482
0000073000
88708
0000075100
89152
0000073100
89753
00000000