0000072900
699
USAA01 NZCM 110000
TTAA 61001 89664
99997 00056 18501 00512 ///// ///// 92601 07158 18518
85255 11341 17017 70716 21114 15006 50514 33959 24513
40666 44759 24520 30855 51765 24023 25975 45585 24514
20124 43786 24513 15318 43586 26009 10592 41586 23504
88320 52361 23026
77999
31313 48008 82219=

0000069700
87361=
0000011200
87368=
0000015000
87382
0000012800
87386
0000045600
87406=
0000047800
87429
0000015700
87445
0000049900
87465
0000054100
87473
0000050000
87488
0000052100
87521
0000054200
87549
0000056300
87594
0000062500
87639
0000070800
87764
0000072900
87952
0000056400
88128
0000064700
88406
0000056500
88679
0000068800
700
USAA01 NZCM 110000
TTAA 61001 89664
99997 00056 18501 00512 ///// ///// 92601 07158 18518
85255 11341 17017 70716 21114 15006 50514 33959 24513
40666 44759 24520 30855 51765 24023 25975 45585 24514
20124 43786 24513 15318 43586 26009 10592 41586 23504
88320 52361 23026
77999
31313 48008 82219=

0000069700
87361=
0000011200
87368=
0000015000
87382
0000012800
87386
0000045600
87406=
0000047800
87429
0000015700
87445
0000049900
87465
0000054100
87473
0000050000
87488
0000052100
87521
0000054200
87549
0000056300
87594=
0000062600
87907
0000056400
88084
0000054400
88352
0000060600
88604
0000066600
701
USAA01 NZCM 110000
TTAA 61001 89664
99997 00056 18501 00512 ///// ///// 92601 07158 18518
85255 11341 17017 70716 21114 15006 50514 33959 24513
40666 44759 24520 30855 51765 24023 25975 45585 24514
20124 43786 24513 15318 43586 26009 10592 41586 23504
88320 52361 23026
77999
31313 48008 82219=

0000069700
87361=
0000011200
87368
0000009600
87371
0000035800
87378
0000037300
87381
0000039400
87385=
0000043700
87428
0000047800
87442
0000056100
87461
0000047900
87477
0000056200
87486=
0000052200
87707
0000060500
87815
0000058500
88046
0000066800
88331
0000066800
88623
0000058400
702
USAA01 NZCM 110000
TTAA 61001 89664
99997 00056 18501 00512 ///// ///// 92601 07158 18518
85255 11341 17017 70716 21114 15006 50514 33959 24513
40666 44759 24520 30855 51765 24023 25975 45585 24514
20124 43786 24513 15318 43586 26009 10592 41586 23504
88320 52361 23026
77999
31313 48008 82219=

0000069700
87361=
0000011200
87368=
0000015000
87382=
0000030600
87414
0000014800
87423=
0000050000
87499
0000062400
87518
0000056300
87544=
0000054300
87877
0000058500
88044
0000058500
88316
0000073000
88586
0000077000
703
USAA01 NZCM 110000
TTAA 61001 89664
99997 00056 18501 00512 ///// ///// 92601 07158 18518
85255 11341 17017 70716 21114 15006 50514 33959 24513
40666 44759 24520 30855 51765 24023 25975 45585 24514
20124 43786 24513 15318 43586 26009 10592 41586 23504
88320 52361 23026
77999
31313 48008 82219=

0000069700
87361=
0000011200
87368
0000009600
87371
0000035800
87378
0000037300
87381
0000039400
87385
0000039400
87407
0000041500
87411
0000014600
87417
0000045700
87421
0000049900
87440
0000052000
87462
0000050000
87472
0000005900
87495
0000058300
87519=
0000056400
87727
0000054300
87830
0000060500
88000
0000058500
88181
0000062700
88481
0000068900
88719
0000060500
704
USAA01 NZCM 110000
TTAA 61001 89664
99997 00056 18501 00512 ///// ///// 92601 07158 18518
85255 11341 17017 70716 21114 15006 50514 33959 24513
40666 44759 24520 30855 51765 24023 25975 45585 24514
20124 43786 24513 15318 43586 26009 10592 41586 23504
88320 52361 23026
77999
31313 48008 82219=

0000069700
87361=
0000011200
87368=
0000015000
87382
0000012800
87386
0000045600
87406=
0000047800
87429
0000015700
87445
0000049900
87465=
0000054200
87575=
0000062600
87883
0000052300
88067
0000064700
88337
0000066800
88595
0000062500
705
USAA01 NZCM 110000
TTAA 61001 89664
99997 00056 18501 00512 ///// ///// 92601 07158 18518
85255 11341 17017 70716 21114 15006 50514 33959 24513
40666 44759 24520 30855 51765 24023 25975 45585 24514
20124 43786 24513 15318 43586 26009 10592 41586 23504
88320 52361 23026
77999
31313 48008 82219=

0000069700
87361=
0000011200
87368
0000009600
87371
0000035800
87378
0000037300
87381
0000039400
87385=
0000043700
87428
0000047800
87442=
0000052100
87533
0000058300
87555
0000060400
87612=
0000058500
88071
0000056500
88360
0000066800
88611
0000060500
706
USAA01 NZCM 110000
TTAA 61001 89664
99997 00056 18501 00512 ///// ///// 92601 07158 18518
85255 11341 17017 70716 21114 15006 50514 33959 24513
40666 44759 24520 30855 51765 24023 25975 45585 24514
20124 43786 24513 15318 43586 26009 10592 41586 23504
88320 52361 23026
77999
31313 48008 82219=

0000069700
87361=
0000011200
87368=
0000015000
87382
0000012800
87386
0000045600
87406=
0000047800
87429=
0000005900
87506
0000058300
87508=
0000054300
87745
0000060500
87947
0000064700
88126
0000066800
88401
0000058500
88628
0000062500
707
USAA01 NZCM 110000
TTAA 61001 89664
99997 00056 18501 00512 ///// ///// 92601 07158 18518
85255 11341 17017 70716 21114 15006 50514 33959 24513
40666 44759 24520 30855 51765 24023 25975 45585 24514
20124 43786 24513 15318 43586 26009 10592 41586 23504
88320 52361 23026
77999
31313 48008 82219=

0000069700
87361=
0000011200
87368
0000009600
87371
0000035800
87378
0000037300
87381=
0000039500
87413=
0000052000
87479
0000056200
87492
0000045900
87517
0000054200
87560=
0000060500
87886
0000060600
88053
0000064700
88357
0000052400
88617
0000068700
708
USAA01 NZCM 110000
TTAA 61001 89664
99997 00056 18501 00512 ///// ///// 92601 07158 18518
85255 11341 17017 70716 21114 15006 50514 33959 24513
40666 44759 24520 30855 51765 24023 25975 45585 24514
20124 43786 24513 15318 43586 26009 10592 41586 23504
88320 52361 23026
77999
31313 48008 82219=

0000069700
87361=
0000011200
87368
0000009600
87371
0000035800
87378
0000037300
87381
0000039400
87385=
0000043700
87428
0000047800
87442
0000056100
87461=
0000021900
87579
0000050100
87604
0000052200
87650
0000054300
87784
0000056400
87976
0000056400
88162
0000060600
88419
0000073000
88657
0000064600
709
USAA01 NZCM 110000
TTAA 61001 89664
99997 00056 18501 00512 ///// ///// 92601 07158 18518
85255 11341 17017 70716 21114 15006 50514 33959 24513
40666 44759 24520 30855 51765 24023 25975 45585 24514
20124 43786 24513 15318 43586 26009 10592 41586 23504
88320 52361 23026
77999
31313 48008 82219=

0000069700
87361=
0000011200
87368=
0000015000
87382=
0000030600
87414
0000014800
87423
0000049900
87438
0000052000
87459
0000058200
87471
0000050000
87489
0000052100
87522
0000058300
87546
0000054200
87595=
0000058500
88096
0000060600
88396
0000062700
88619
0000070800
710
USAA01 NZCM 110000
TTAA 61001 89664
99997 00056 18501 00512 ///// ///// 92601 07158 18518
85255 11341 17017 70716 21114 15006 50514 33959 24513
40666 44759 24520 30855 51765 24023 25975 45585 24514
20124 43786 24513 15318 43586 26009 10592 41586 23504
88320 52361 23026
77999
31313 48008 82219=

0000069700
87361=
0000011200
87368
0000009600
87371
0000035800
87378
0000037300
87381
0000039400
87385
0000039400
87407=
0000012000
87430
0000054000
87439
0000049900
87460
0000047900
87470
0000052100
87487
0000054200
87520
0000052100
87554
0000050100
87606=
0000048200
88093
0000062700
88368
0000066800
88648
0000058400
711
USAA01 NZCM 110000
TTAA 61001 89664
99997 00056 18501 00512 ///// ///// 92601 07158 18518
85255 11341 17017 70716 21114 15006 50514 33959 24513
40666 44759 24520 30855 51765 24023 25975 45585 24514
20124 43786 24513 15318 43586 26009 10592 41586 23504
88320 52361 23026
77999
31313 48008 82219=

0000069700
87361=
0000011200
87368=
0000015000
87382
0000012800
87386
0000045600
87406
0000047700
87410=
0000049900
87467=
0000048000
87577
0000054200
87619=
0000058500
88118
0000060600
88387
0000068900
88632
0000064600
712
USAA01 NZCM 110000
TTAA 61001 89664
99997 00056 18501 00512 ///// ///// 92601 07158 18518
85255 11341 17017 70716 21114 15006 50514 33959 24513
40666 44759 24520 30855 51765 24023 25975 45585 24514
20124 43786 24513 15318 43586 26009 10592 41586 23504
88320 52361 23026
77999
31313 48008 82219=

0000069700
87361=
0000011200
87368=
0000015000
87382=
0000030600
87414=
0000011000
87481
0000054100
87485
0000050000
87516
0000054200
87558
0000060400
87607
0000056300
87649
0000062600
87766
0000064700
87955
0000066800
88123
0000060600
88397
0000068900
88640
0000070800
713
USAA01 NZCM 110000
TTAA 61001 89664
99997 00056 18501 00512 ///// ///// 92601 07158 18518
85255 11341 17017 70716 21114 15006 50514 33959 24513
40666 44759 24520 30855 51765 24023 25975 45585 24514
20124 43786 24513 15318 43586 26009 10592 41586 23504
88320 52361 23026
77999
31313 48008 82219=

0000069700
87361=
0000011200
87368
0000009600
87371
0000035800
87378
0000037300
87381
0000039400
87385
0000039400
87407
0000041500
87411
0000014600
87417=
0000041700
87480
0000060300
87494=
0000052200
87704
0000054300
87832
0000060600
88034
0000062700
88311
0000056500
88571
0000060700
89031
0000071000
89629
0000060500
714
USAA01 NZCM 110000
TTAA 61001 89664
99997 00056 18501 00512 ///// ///// 92601 07158 18518
85255 11341 17017 70716 21114 15006 50514 33959 24513
40666 44759 24520 30855 51765 24023 25975 45585 24514
20124 43786 24513 15318 43586 26009 10592 41586 23504
88320 52361 23026
77999
31313 48008 82219=

0000069700
87361=
0000011200
87368
0000009600
87371
0000035800
87378
0000037300
87381=
0000039500
87413
0000041600
87422=
0000043800
87504=
0000052200
87720=
0000066800
88282
0000060600
88545
0000060700
89072
0000060700
89635
0000066700
715
USAA01 NZCM 110000
TTAA 61001 89664
99997 00056 18501 00512 ///// ///// 92601 07158 18518
85255 11341 17017 70716 21114 15006 50514 33959 24513
40666 44759 24520 30855 51765 24023 25975 45585 24514
20124 43786 24513 15318 43586 26009 10592 41586 23504
88320 52361 23026
77999
31313 48008 82219=

0000069700
87361=
0000011200
87368
0000009600
87371
0000035800
87378
0000037300
87381
0000039400
87385=
0000043700
87428
0000047800
87442
0000056100
87461
0000047900
87477
0000056200
87486=
0000052200
87707=
0000050300
88274
0000054400
88540
0000058600
89044
0000058600
89627
0000068800
716
USAA01 NZCM 110000
TTAA 61001 89664
99997 00056 18501 00512 ///// ///// 92601 07158 18518
85255 11341 17017 70716 21114 15006 50514 33959 24513
40666 44759 24520 30855 51765 24023 25975 45585 24514
20124 43786 24513 15318 43586 26009 10592 41586 23504
88320 52361 23026
77999
31313 48008 82219=

0000069700
87361=
0000011200
87368
0000009600
87371
0000035800
87378
0000037300
87381=
0000039500
87413
0000041600
87422
0000043700
87443
0000045800
87466=
0000054200
87540
0000048000
87567=
0000050200
87876
0000058500
88026
0000060600
88323
0000062700
88588
0000075100
89050
0000060700
89625
0000062600
717
USAA01 NZCM 110000
TTAA 61001 89664
99997 00056 18501 00512 ///// ///// 92601 07158 18518
85255 11341 17017 70716 21114 15006 50514 33959 24513
40666 44759 24520 30855 51765 24023 25975 45585 24514
20124 43786 24513 15318 43586 26009 10592 41586 23504
88320 52361 23026
77999
31313 48008 82219=

0000069700
87361=
0000011200
87368
0000009600
87371
0000035800
87378
0000037300
87381
0000039400
87385=
0000043700
87428=
0000047900
87503
0000056200
87524=
0000048100
87722=
0000058600
88286
0000054500
88555
0000056600
89041
0000064800
89626
0001213300
718
SMMX01 MXBA 110000
AAXX 11001
76040 32960 00702 10240 20093 30157 40171 57011 92350 333   
10248 20042 30/// 50260 58030 70000 98660=
76056 06/// /1103 10189 20027 30147 40171 55004 60001 7//// 
8//// 92350 333   0//// 10236 20068 30/// 4//// 50249 54/// 
56/// 57/// 58033 60007 70000 8//// 8//// 8//// 9//// 9/=
76109 06/// /2503 10166 21096 38866 40118 53001 60001 7//// 
8//// 92350 333   0//// 10184 20057 30/// 4//// 50299 54/// 
56/// 57/// 58002 60007 70000 8//// 8//// 8//// 9//// 9/=
76113 32980 02001 10230 20005 39690 40150 57005 92340 333   
10235 20020 30/// 50151 58018 70000=
76117 06/// /2503 10203 21080 38878 40021 52003 60001 7//// 
8//// 92350 333   0//// 10228 20025 30/// 4//// 50279 54/// 
56/// 57/// 58003 60007 70000 8//// 8//// 8//// 9//// 9/=
76161 06/// /2502 10259 21035 39896 40140 55000 60001 7//// 
8//// 92350 333   0//// 10282 20064 30/// 4//// 50339 54/// 
56/// 57/// 58002 60007 70000 8//// 8//// 8//// 9//// 9/=
76219 06/// /2503 10158 21017 38132 40141 53004 60001 7//// 
8//// 92350 333   0//// 10188 21020 30/// 4//// 50219 54/// 
56/// 57/// 58007 60007 70000 8//// 8//// 8//// 9//// 9/=
76220 32958 03005 10162 2//// 38129 40125 52004 92339 333   
10184 21018 30/// 50181 58004 70000=
76243 32973 61501 10208 20139 39815 40106 52002 86600 92340 
333   10230 20096 30/// 50021 56300 59053 70000 86613=
76255 06/// /2602 10249 20077 30130 40145 55000 60001 7//// 
8//// 92350 333   0//// 10272 20082 30/// 4//// 50329 54/// 
56/// 57/// 58000 60007 70000 8//// 8//// 8//// 9//// 9/=
76256 32980 02702 10252 20149 30137 40151 57006 92340 333   
10276 20078 30/// 50200 58013 70000=
76258 32870 12705 10230 20088 3//// 4//// 5//// 81030 92350 
333   10276 20086 30/// 50170 56050 58/// 70000=
76305 32970 00404 10212 20123 30143 40151 57003 92348 333   
10230 20140 30/// 50201 58008 70000=
76323 32970 22401 10170 20058 38258 40163 52011 80008 92350 
333   10194 20080 30/// 50251 56005 58024 70000=
76342 31862 73002 10240 20035 39415 40108 52012 70321 87010 
92350 333   10275 20090 30/// 50351 56050 59024 70000 87458 
=
76382 32680 73602 10206 20105 38877 40106 52007 87020 92355 
333   10244 20098 30/// 50371 58008 70000 87456=
76390 31968 23304 10174 21020 38210 40090 52010 70544 80001 
92348 333   10210 20113 30/// 50531 56006 59005 70000=
76405 32880 10104 10210 20130 30127 40148 55004 81030 92350 
333   10238 20140 30/// 50300 56050 58016 79999 81357=
76423 32580 62704 10178 21017 38134 40118 52007 81141 92345 
333   10220 21012 30/// 50450 56999 58005 70000 81810 81358 
84070=
76424 06/// /2106 10177 21055 38136 40133 53011 60001 7//// 
8//// 92350 333   0//// 10219 21017 30/// 4//// 50389 54/// 
56/// 57/// 58005 60007 70000 8//// 8//// 8//// 9//// 9/=
SMMX01 MXBA 110000 
AAXX 11001
76458 32870 52604 10241 20144 30119 40123 53003 82056 92342 
333   10271 20152 30/// 50301 56/56 59001 70000 82358 83071 
=
76490 06/// /2401 10224 20161 39717 40099 53018 60001 7//// 
8//// 92350 333   0//// 10279 20092 30/// 4//// 50289 54/// 
56/// 57/// 59057 60007 7//// 8//// 8//// 8//// 9//// 9/=
76491 32960 00000 10242 20145 39731 40115 52016 92350 333   
10272 20095 30/// 50101 59052 70000=
76499 31959 00000 10271 20175 30063 40085 52014 70544 92341 
333   10295 20127 30/// 50321 59/// 70000=
76518 02/// ///// 1//// 2//// 3//// 4//// 5//// 6//// 7//// 
8//// 9//// 333   0//// 1//// 2//// 30/// 4//// 5//// 54/// 
56/// 57/// 5//// 6//// 7//// 8//// 8//// 8//// 9//// 9/=
76519 32560 10000 10212 20015 38344 40144 57003 81100 92348 
333   10230 21010 30/// 50491 56200 59003 70000 81820=
76527 06/// /2113 10128 21054 37451 40172 53005 60001 7//// 
8//// 92350 333   0//// 10132 20065 30/// 4//// 50479 54/// 
56/// 57/// 59005 60007 70000 8//// 8//// 8//// 9//// 9/=
76538 06/// /2402 10192 2//// 38135 40072 53003 60001 7//// 
8//// 92350 333   0//// 10232 20030 30/// 4//// 5///9 54/// 
56/// 57/// 59010 60007 70000 8//// 8//// 8//// 9//// 9/=
76539 32570 22902 10200 20086 38129 40100 54/// 82200 92350 
333   10232 20030 30/// 50040 56700 58001 70000 82825=
76543 31870 21801 10254 20188 30081 40114 53003 70544 81055 
92340 333   10289 20174 30/// 50211 56055 59063 70000=
76548 31768 41303 10230 20185 30102 40112 55006 70500 84030 
92340 333   10282 20168 30/// 50221 56050 59065 70000 84356 
=
76556 32970 13404 10226 20147 39099 40101 53005 81030 92345 
333   10266 20100 30/// 50271 56050 59008 70000 81360=
76571 32670 22103 10196 21038 38145 40114 50005 82400 92356 
333   10228 20026 30/// 50171 56500 59010 70000 82650=
76577 32570 72303 10191 20134 38020 40120 55000 87600 92345 
333   10220 20062 30/// 50241 56500 59011 70000 87626=
76578 06/// /2303 10190 20021 38019 40075 53002 60001 7//// 
8//// 92350 333   0//// 013// 10230 20062 30/// 4//// 50269 
54/// 56/// 57/// 59010 60007 70000 8//// 8//// 8//// 9/=
76581 32965 00602 10271 20189 39018 40104 57034 92350 333   
10280 20108 30/// 50140 59046 70000=
76612 32562 62102 10213 20050 38453 40109 53003 82530 92350 
333   10248 20050 30/// 50361 56550 59005 70000 82630 84358 
=
76625 32570 72401 10196 20046 38113 40071 57001 86870 92350 
333   10228 20078 30/// 50390 56660 59012 70000 83825 83626 
=
76634 01670 71402 10156 20055 37837 40099 52007 69901 70552 
87400 92350 333   10239 20080 30/// 50331 56500 59014 69907 
79999 87634=
76644 32450 71203 10260 20218 30119 40131 52003 84520 92350 
333   10322 20203 30/// 50220 5633/ 58003 70000 84610 83420 
91005 91512=
SMMX01 MXBA 110000 
AAXX 11001
76654 31656 21301 10278 20189 30114 40118 54000 70544 82030 
92350 333   10306 20201 30/// 50521 56969 58004 70000 82356 
=
76657 06/// /1403 10204 20036 38494 40130 53002 60001 7//// 
8//// 92350 333   0//// 10250 20050 30/// 4//// 50249 54/// 
56/// 57/// 59005 60007 70000 8//// 8//// 8//// 9//// 9/=
76658 31560 41803 10274 20215 39621 40119 52001 70541 81230 
92355 333   10312 20150 30/// 50471 56110 58004 70000 81824 
83356 94022 98904=
76659 06/// /1703 10267 20195 3//// 42/// 5//// 60001 7//// 
8//// 92350 333   0//// 10320 20141 30/// 4//// 50359 54/// 
56/// 57/// 5//// 60007 70000 8//// 8//// 8//// 9//// 9/=
76662 32670 52605 10216 20101 38437 40095 57001 85400 92345 
333   10260 20058 30/// 50380 56500 59007 70000 85633=
76665 31564 62001 10183 20098 38099 40095 52002 70211 82220 
92350 333   10230 20065 30/// 50201 56330 57831 59010 70000 
82822 84460=
76674 06/// /2405 10133 20050 37366 40180 53004 60001 7//// 
8//// 92350 333   0//// 10185 20023 30/// 4//// 50239 54/// 
56/// 57/// 59011 60007 70000 8//// 8//// 8//// 9//// 9/=
76675 31575 52504 10141 20045 37364 40094 52001 70542 8433/ 
92348 333   10193 20017 30/// 50220 5659/ 59013 70000 81926 
83826 98475 91106=
76680 31558 72303 10189 20054 37733 40072 52006 70544 86820 
92355 333   10210 20096 30/// 50281 56550 57891 59011 70000 
83625=
76684 06/// /1902 10183 20056 37806 40089 52003 60001 7//// 
8//// 92350 333   0//// 10238 20045 30/// 4//// 50319 54/// 
56/// 57/// 59017 60007 70000 8//// 8//// 8//// 9//// 9/=
76685 32565 12701 10201 20028 37855 40082 52009 81100 92340 
333   10230 20064 30/// 50189 569// 59014 70000 81827=
76686 06/// /2003 10192 20046 37845 40116 55000 60001 7//// 
8//// 92350 333   0//// 10229 20067 30/// 4//// 50349 54/// 
56/// 57/// 59016 60007 70000 8//// 8//// 8//// 9//// 9/=
76687 31568 50301 10194 20170 38655 40118 53001 70200 85230 
92339 333   10242 20090 30/// 50350 5657/ 59037 70000 83826 
81624=
76692 31856 10903 10238 20194 30091 40110 56003 71044 81040 
92345 333   10279 20179 30/// 50330 56/3/ 59061 70000=
76693 06/// /0903 10232 20198 30092 40113 53001 60001 7//// 
8//// 92350 333   0//// 10279 20179 30/// 4//// 50359 54/// 
56/// 57/// 59061 60007 70000 8//// 8//// 8//// 9//// 9/=
76695 32956 00000 10248 20230 30120 40126 54000 92350 333   
10322 20210 30/// 50/// 59043 70000=
76726 32470 61901 10247 20108 38379 40066 54000 86500 92350 
333   10271 20152 30/// 50200 56500 59011 70000 86623=
76727 06/// /2001 10226 20083 38372 40055 55000 60001 7//// 
8//// 92350 333   0//// 10272 20147 30/// 4//// 50209 54/// 
56/// 57/// 59014 60007 70000 8//// 8//// 8//// 9//// 9/=
76737 31480 31102 10204 20149 38744 40103 52001 70300 83400 
92345 333   10242 20091 30/// 50241 56200 59037 70000 83617 
91105 91516=
76741 31360 40505 10224 20204 30083 40103 57010 70300 84700 
92340 333   10277 20188 30/// 50231 561// 59057 79999 84808 
=
SMMX01 MXBA 110000 
AAXX 11001
76743 31957 70802 10235 20206 30114 40121 53003 70222 8705/ 
92350 333   10250 20205 30/// 50110 56/0/ 59050 70001 87358 
=
76750 01560 80802 10241 20210 30131 40141 52005 69901 70152 
86720 92350 333   10310 20166 30/// 50181 56330 59023 69907 
79999 86720=
76762 32504 21406 10223 20158 38739 40091 51000 81230 92340 
333   10278 20155 30/// 50231 56630 59011 70000 81832 81360 
91213=
76763 06/// /1405 10227 20127 38738 40124 53004 60001 7//// 
8//// 92350 333   0//// 10278 20151 30/// 4//// 50309 54/// 
56/// 57/// 59008 60007 70000 8//// 8//// 8//// 9//// 9/=
76773 32570 12702 10252 20083 38391 40065 52005 81100 92346 
333   10298 20066 30/// 50411 56200 59021 70000 81820=
76775 31570 21901 10259 20076 38482 40095 54001 70300 82400 
92345 333   10306 20088 30/// 50431 56800 59023 70000 81827 
81627=
76776 06/// /1901 10246 20107 38467 40046 53001 60001 7//// 
8//// 92350 333   0//// 10314 20090 30/// 4//// 50399 54/// 
56/// 57/// 59022 60007 70000 8//// 8//// 8//// 9//// 9/=
76805 32570 12502 10296 20209 30101 40107 53004 81200 92350 
333   10351 20238 30/// 50521 563// 59007 70000 81830=
76806 06/// /2502 10290 20199 30100 40105 53003 60001 7//// 
8//// 92350 333   0//// 10342 20231 30/// 4//// 50419 54/// 
56/// 57/// 59009 60007 70000 8//// 8//// 8//// 9//// 9/=
76834 06/// /1802 10269 20203 30094 40098 53012 60001 7//// 
8//// 92350 333   0//// 10341 20232 30/// 4//// 50769 54/// 
56/// 57/// 59022 60007 70000 8//// 8//// 8//// 9//// 9/=
76840 32950 00000 10292 20222 30039 40094 52008 92345 333   
10355 20185 30/// 5//// 58/// 70000=
76845 32460 62802 10168 20138 37931 40141 51003 86600 82340 
333   10225 20070 30/// 50151 56300 59018 70000 86712=
76848 32970 00701 10196 20053 38361 40042 51004 92345 333   
10243 20117 20/// 50291 59020 70000=
76855 32980 02403 10300 20222 30048 40096 56008 92345 333   
10330 20206 30/// 50600 59018 70000 92001=
76903 31670 41201 10294 20198 39967 40099 54002 70400 82206 
92340 333   10347 20225 30/// 50281 56109 59012 70000 82833 
82080=
76160 32962 02301 10258 20010 39896 40143 57005 92342 333   
10265 20070 30/// 50270 58000 70000=
76393 31910 11103 10234 20116 39532 40097 52012 70540 80008 
92345 333   10278 20145 30/// 50191 56008 59039 70000 91106 
91403=
76412 31966 42702 10250 20120 30105 40149 57002 70544 84050 
92345 333   10270 20100 30/// 50370 56050 58002 70000 84356 
=
76525 31880 22113 10125 21041 37450 40108 52006 73733 82400 
92340 333   10138 20065 30/// 50691 565// 59006 70000 82657 
91113=
76632 31950 72902 10172 20084 37680 40045 52004 70522 87080 
92340 333   10210 20070 30/// 5//// 56050 59012 70000 87360 
=
76640 31458 32201 10220 20192 30117 40129 52001 70200 8123/ 
92340 333   10254 20170 30/// 50151 5655/ 59053 79999 81812 
=
76647 12365 21201 10257 20241 30120 40150 53002 69901 81230 
92350 333   10307 20209 31/// 50341 563/0 59033 70003 81808 
=
76683 31665 11101 10186 20060 37807 40106 52001 70544 81400 
92350 333   10216 20055 30/// 50271 56500 59016 70000 81640 
=
76698 32558 21101 10255 20230 30133 40145 52005 82200 92350 
333   10308 20189 30/// 50260 56200 59025 70000 82820=
76833 32970 01602 10280 2//// 30093 40095 52010 92345 333   
10338 20215 30/// 50870 59021 70000 92021=
76843 32965 03401 10281 20196 39447 40080 55003 92345 333   
10309 20155 30/// 50451 59051 70000=
00000000