0000064700
759
USAA01 NZCM 110000
TTAA 61001 89664
99997 00056 18501 00512 ///// ///// 92601 07158 18518
85255 11341 17017 70716 21114 15006 50514 33959 24513
40666 44759 24520 30855 51765 24023 25975 45585 24514
20124 43786 24513 15318 43586 26009 10592 41586 23504
88320 52361 23026
77999
31313 48008 82219=

0000069700
87361=
0000011200
87368
0000009600
87371
0000035800
87378
0000037300
87381
0000039400
87385
0000039400
87407=
0000012000
87430=
0000054100
87500
0000056200
87510=
0000050200
87730
0000009800
87843
0000058500
88006=
0000058600
89404
0000071000
90072
0000075000
760
USAA01 NZCM 110000
TTAA 61001 89664
99997 00056 18501 00512 ///// ///// 92601 07158 18518
85255 11341 17017 70716 21114 15006 50514 33959 24513
40666 44759 24520 30855 51765 24023 25975 45585 24514
20124 43786 24513 15318 43586 26009 10592 41586 23504
88320 52361 23026
77999
31313 48008 82219=

0000069700
87361=
0000011200
87368
0000009600
87371
0000035800
87378
0000037300
87381
0000039400
87385
0000039400
87407
0000041500
87411
0000014600
87417
0000045700
87421
0000049900
87440
0000052000
87462
0000050000
87472
0000005900
87495
0000058300
87519
0000056300
87548=
0000056400
87866
0000052300
88017=
0000054500
89423
0000073100
90093
0000068800
761
USAA01 NZCM 110000
TTAA 61001 89664
99997 00056 18501 00512 ///// ///// 92601 07158 18518
85255 11341 17017 70716 21114 15006 50514 33959 24513
40666 44759 24520 30855 51765 24023 25975 45585 24514
20124 43786 24513 15318 43586 26009 10592 41586 23504
88320 52361 23026
77999
31313 48008 82219=

0000069700
87361=
0000011200
87368=
0000015000
87382
0000012800
87386
0000045600
87406
0000047700
87410=
0000049900
87467
0000047900
87475
0000047900
87491
0000056200
87512
0000054200
87550
0000058400
87597
0000062500
87670
0000054300
87796
0000062600
87990=
0000071000
89393
0000071000
90046
0000064700
762
USAA01 NZCM 110000
TTAA 61001 89664
99997 00056 18501 00512 ///// ///// 92601 07158 18518
85255 11341 17017 70716 21114 15006 50514 33959 24513
40666 44759 24520 30855 51765 24023 25975 45585 24514
20124 43786 24513 15318 43586 26009 10592 41586 23504
88320 52361 23026
77999
31313 48008 82219=

0000069700
87361=
0000011200
87368=
0000015000
87382
0000012800
87386
0000045600
87406=
0000047800
87429=
0000005900
87506
0000058300
87508
0000054200
87566
0000056300
87622
0000052200
87672
0000054300
87803
0000062600
87992
0000070900
88180=
0000062800
90050
0000062600
763
USAA01 NZCM 110000
TTAA 61001 89664
99997 00056 18501 00512 ///// ///// 92601 07158 18518
85255 11341 17017 70716 21114 15006 50514 33959 24513
40666 44759 24520 30855 51765 24023 25975 45585 24514
20124 43786 24513 15318 43586 26009 10592 41586 23504
88320 52361 23026
77999
31313 48008 82219=

0000069700
87361=
0000011200
87368
0000009600
87371
0000035800
87378
0000037300
87381
0000039400
87385
0000039400
87407
0000041500
87411
0000014600
87417=
0000041700
87480=
0000060400
87592
0000056300
87635=
0000048200
88216=
0000062800
90071
0000060600
764
USAA01 NZCM 110000
TTAA 61001 89664
99997 00056 18501 00512 ///// ///// 92601 07158 18518
85255 11341 17017 70716 21114 15006 50514 33959 24513
40666 44759 24520 30855 51765 24023 25975 45585 24514
20124 43786 24513 15318 43586 26009 10592 41586 23504
88320 52361 23026
77999
31313 48008 82219=

0000069700
87361=
0000011200
87368=
0000015000
87382
0000012800
87386
0000045600
87406=
0000047800
87429
0000015700
87445=
0000050000
87538
0000054200
87552=
0000066700
87865
0000056400
88009
0000054400
88205=
0000060700
90038
0000066800
765
USAA01 NZCM 110000
TTAA 61001 89664
99997 00056 18501 00512 ///// ///// 92601 07158 18518
85255 11341 17017 70716 21114 15006 50514 33959 24513
40666 44759 24520 30855 51765 24023 25975 45585 24514
20124 43786 24513 15318 43586 26009 10592 41586 23504
88320 52361 23026
77999
31313 48008 82219=

0000069700
87361=
0000011200
87368
0000009600
87371
0000035800
87378
0000037300
87381
0000039400
87385
0000039400
87407=
0000012000
87430
0000054000
87439
0000049900
87460=
0000048000
87541
0000054200
87545=
0000052300
87864
0000056400
88023
0000058500
88212=
0000060700
90043
0000179800
766
SAIR31 OIII 110000
 METAR OIAA 110000Z 12004KT 9999 FEW035CB SCT040 BKN100 14/11
 Q1017=
METAR OIAG NIL=
METAR OIAH 110000Z 12010KT 4000 RA SCT040 OVC090 08/05 Q1019=
METAR OIAI NIL=
 METAR OIAM 110000Z 12010KT 2000 -RA FEW030CB SCT040 OVC070 12/12
 Q1018=
 METAR OIAW 110000Z 11008KT 2000 RA FEW030CB SCT035 OVC080 12/11
 Q1018=
METAR OIBA NIL=
 METAR OIBB 102350Z 12010KT 9999 FEW030CB SCT040 OVC090 16/07 Q1019
 A3009=
METAR OIBK 102350Z 09008KT 9999 FEW030CB FEW035 17/04 Q1020=
METAR OIBL 110000Z 00000KT CAVOK 15/00 Q1021=
METAR OIBS NIL=
 METAR OICC 110000Z 10010KT 4000 -SN FEW035CB SCT040 OVC070 M01/M02
 Q1019 A3011=
 METAR OICI 110000Z 00000KT 8000 SCT025 FEW030CB OVC070 03/03 Q1017
 A3004=
METAR OICJ NIL=
 METAR OICK 102350Z 26006KT 7000 RA FEW035CB SCT040 OVC070 04/03
 Q1019=
METAR OICS 110000Z 36006KT 3000 SN BR SCT035 BKN070 M04/M04 Q1020=
METAR OIFK NIL=
METAR OIFM 110000Z 00000KT 0500 FG NSC M04/M04 Q1021 A3016=
METAR OIFS 110000Z 00000KT 9999 SCT040 M12/M13 Q1021=
METAR OIGG 110000Z 00000KT 3000 BR SKC 03/02 Q1020=
METAR OIGK NIL=
METAR OIHH 110000Z 00000KT 0600 -SN FEW040 OVC100 M11/M12 Q1020=
METAR OIHM NIL=
METAR OIIE 110000Z 32006KT CAVOK M01/M06 Q1022 A3019 NOSIG=
 METAR OIII 110000Z 00000KT 6000 FEW040 BKN100 01/M05 Q1021 A3017
 NOSIG NOSIG=
METAR OIIK 110000Z AUTO 00000KT //// // ////// M02/M07 Q1022=
METAR OIIP NIL=
METAR OIIS NIL=
METAR OIKB 110000Z 01008KT CAVOK 13/04 Q1021 A3016=
METAR OIKK 110000Z 29004KT CAVOK M07/M10 Q1022 A3018=
METAR OIKO NIL=
METAR OIKQ 110000Z 02010KT 8000 FEW030 16/05 Q1020=
METAR OIMB 110000Z 10008KT CAVOK M03/M12 Q1023=
METAR OIMC NIL=
METAR OIMD NIL=
METAR OIMM 110000Z 0000KT CAVOK M02/M10 Q1022 A3018=
METAR OINB NIL=
0000099600
767
SAIR31 OIII 110000 RRA
METAR OING 110000Z 00000KT CAVOK 02/02 Q1021=
METAR OINK NIL=
METAR OINN 110000Z 23004KT CAVOK 05/01 Q1020=
METAR OINR 110000Z 00000KT CAVOK 05/03 Q1019=
METAR OISA NIL=
 METAR OISF 102350Z 00000KT 9999 FEW035CB SCT040 OVC100 06/02
 Q1020=
METAR OISL 102350Z 00000KT 9999 FEW040 BKN100 07/05 Q1021=
 METAR OISS 110000Z 00000KT 7000 FEW035CB SCT040 OVC100 02/M01
 Q1022 A3019=
 METAR OISY 110000Z 00000KT 7000 FEW035CB SCT035 BKN080 M01/M02
 Q1023=
METAR OITL 102350Z 22004KT 9999 FEW090 BKN170 M16/M17 Q1019=
METAR OITR 110000Z 25004KT 4000 BR FEW035 BKN150 M09/M11 Q1022=
METAR OITT 110000Z 07006KT 8000 NSC M11/M14 Q1022 A3021=
METAR OITU NIL=
METAR OIYY 110000Z 23004KT 9999 FEW040 BKN100 01/M02 Q1023=
METAR OIZB 110000Z 27004KT CAVOK M01/M03 Q1025=
METAR OIZC NIL=
METAR OIZH 110000Z 20006KT CAVOK M03/M05 Q1022 A3019=
METAR OIZI 110000Z 04006KT CAVOK 05/01 Q1024=
METAR OIZJ 110000Z 00000KT CAVOK 15/05 Q1021=
0000060600
768
USAA01 NZCM 110000
TTAA 61001 89664
99997 00056 18501 00512 ///// ///// 92601 07158 18518
85255 11341 17017 70716 21114 15006 50514 33959 24513
40666 44759 24520 30855 51765 24023 25975 45585 24514
20124 43786 24513 15318 43586 26009 10592 41586 23504
88320 52361 23026
77999
31313 48008 82219=

0000069700
87361=
0000011200
87368=
0000015000
87382
0000012800
87386
0000045600
87406=
0000047800
87429
0000015700
87445=
0000050000
87538=
0000054300
87731
0000056400
87826
0000052300
88004=
0000064800
89400
0000071000
90056
0000036800
769
SATR31 UTAA 110000
METAR UTAA 110000Z 22003MPS 9999 FEW220 M01/M07 Q1021
12CLRD70 NOSIG=
METAR UTAK 110000Z 18003MPS 9999 BKN023 04/03 Q1020 NOSIG=
METAR UTAV 110000Z 18004MPS 7000 SKC 01/M05 Q1025 NOSIG=
METAR UTAM 110000Z 21004MPS 6000 SKC 00/M05 Q1023 NOSIG  RMK  SC07=
METAR UTAT 110000Z VRB02MPS 4000 SKC  M06/M07  Q1022  99CLRD70 NOSIG=
0000011300
770
SAAH10 OAKB 102350
METAR OAKB 102350Z 29003KT 210V330 8000 NSC M08/M13 Q1024 NOSIG RMK BLU+ BLU+=
0000045400
771
SAUR31 UKMS 110000
METAR UKLR NIL=
METAR UKLI NIL=
METAR UKON NIL=
METAR UKCM NIL=
METAR UKCW 110000Z 22009MPS 9999 -SHRA SCT009
         BKN021CB  05/05 Q1002 2709//70 TEMPO 25012G20MPS
         1000 BR BKN003 BKN015CB=
METAR UKLU NIL=
METAR UKKK 110000Z 27010G16MPS 9999 BKN031 05/01
         Q1003  26290250 TEMPO 27011G16MPS=
METAR UKKM 110000Z 28009MPS 9999 BKN034 05/01 Q1003=
METAR UKKE NIL=
METAR UKLN NIL=
0000062600
772
USAA01 NZCM 110000
TTAA 61001 89664
99997 00056 18501 00512 ///// ///// 92601 07158 18518
85255 11341 17017 70716 21114 15006 50514 33959 24513
40666 44759 24520 30855 51765 24023 25975 45585 24514
20124 43786 24513 15318 43586 26009 10592 41586 23504
88320 52361 23026
77999
31313 48008 82219=

0000069700
87361=
0000011200
87368
0000009600
87371
0000035800
87378
0000037300
87381
0000039400
87385=
0000043700
87428
0000047800
87442=
0000052100
87533
0000058300
87555
0000060400
87612
0000058400
87657=
0000064700
88223=
0000066900
90081
0000058500
773
USAA01 NZCM 110000
TTAA 61001 89664
99997 00056 18501 00512 ///// ///// 92601 07158 18518
85255 11341 17017 70716 21114 15006 50514 33959 24513
40666 44759 24520 30855 51765 24023 25975 45585 24514
20124 43786 24513 15318 43586 26009 10592 41586 23504
88320 52361 23026
77999
31313 48008 82219=

0000069700
87361=
0000011200
87368=
0000015000
87382=
0000030600
87414=
0000011000
87481
0000054100
87485
0000050000
87516
0000054200
87558
0000060400
87607
0000056300
87649=
0000070900
88219=
0000058600
90079
0000058500
774
USAA01 NZCM 110000
TTAA 61001 89664
99997 00056 18501 00512 ///// ///// 92601 07158 18518
85255 11341 17017 70716 21114 15006 50514 33959 24513
40666 44759 24520 30855 51765 24023 25975 45585 24514
20124 43786 24513 15318 43586 26009 10592 41586 23504
88320 52361 23026
77999
31313 48008 82219=

0000069700
87361=
0000011200
87368=
0000015000
87382
0000012800
87386=
0000045700
87427
0000045800
87444
0000047900
87464=
0000052100
87578=
0000056400
87893=
0000056500
88922
0000064800
89378
0000066900
90032
0000010800
775
SAAJ31 UBBB 110000
METAR UBBG 110000Z 25006KT 9999 FEW100 M02/M04 Q1020
R30/CLRD70 NOSIG =
0000019100
776
SAUR30 UKMS 110000 CCA
METAR UKCC 110000Z 25010G15MPS 1300 R26/P2000U -DZ BR
         OVC004 05/05 Q1002 26290055 TEMPO
         23012G17MPS 1000 -SHRA BR BKN003 BKN010CB=
0000018600
777
SAJD31 OJAI 110000
METAR OJAI 110000Z NIL=
METAR OJAM 110000Z 08003KT 4000 HZ NSC 06/04 Q1020 TEMPO 3000 BR=
METAR OJAQ 110000Z 00000KT 9999 FEW030 11/09 Q1021 NOSIG=
0000075000
778
USAA01 NZCM 110000
TTAA 61001 89664
99997 00056 18501 00512 ///// ///// 92601 07158 18518
85255 11341 17017 70716 21114 15006 50514 33959 24513
40666 44759 24520 30855 51765 24023 25975 45585 24514
20124 43786 24513 15318 43586 26009 10592 41586 23504
88320 52361 23026
77999
31313 48008 82219=

0000069700
87361=
0000011200
87368
0000009600
87371
0000035800
87378
0000037300
87381
0000039400
87385
0000039400
87407
0000041500
87411
0000014600
87417
0000045700
87421
0000049900
87440
0000052000
87462
0000050000
87472
0000005900
87495
0000058300
87519=
0000056400
87727
0000054300
87830
0000060500
88000
0000058500
88181=
0000056600
90094
00000000