0000060500
379
USAA01 NZCM 110000
TTAA 61001 89664
99997 00056 18501 00512 ///// ///// 92601 07158 18518
85255 11341 17017 70716 21114 15006 50514 33959 24513
40666 44759 24520 30855 51765 24023 25975 45585 24514
20124 43786 24513 15318 43586 26009 10592 41586 23504
88320 52361 23026
77999
31313 48008 82219=

0000069700
87361=
0000011200
87368
0000009600
87371
0000035800
87378
0000037300
87381
0000039400
87385=
0000043700
87428=
0000047900
87503
0000056200
87524
0000048000
87543=
0000056400
87862
0000058500
88014
0000058500
88207=
0000056400
380
USAA01 NZCM 110000
TTAA 61001 89664
99997 00056 18501 00512 ///// ///// 92601 07158 18518
85255 11341 17017 70716 21114 15006 50514 33959 24513
40666 44759 24520 30855 51765 24023 25975 45585 24514
20124 43786 24513 15318 43586 26009 10592 41586 23504
88320 52361 23026
77999
31313 48008 82219=

0000069700
87361=
0000011200
87368=
0000015000
87382=
0000030600
87414
0000014800
87423=
0000050000
87499
0000062400
87518=
0000056400
87723
0000060500
87835
0000058500
88005=
0000071000
89422
0000056400
381
USAA01 NZCM 110000
TTAA 61001 89664
99997 00056 18501 00512 ///// ///// 92601 07158 18518
85255 11341 17017 70716 21114 15006 50514 33959 24513
40666 44759 24520 30855 51765 24023 25975 45585 24514
20124 43786 24513 15318 43586 26009 10592 41586 23504
88320 52361 23026
77999
31313 48008 82219=

0000069700
87361=
0000011200
87368=
0000015000
87382=
0000030600
87414
0000014800
87423=
0000050000
87499
0000062400
87518=
0000056400
87723
0000060500
87835
0000058500
88005
0000060600
88201=
0000062600
382
USAA01 NZCM 110000
TTAA 61001 89664
99997 00056 18501 00512 ///// ///// 92601 07158 18518
85255 11341 17017 70716 21114 15006 50514 33959 24513
40666 44759 24520 30855 51765 24023 25975 45585 24514
20124 43786 24513 15318 43586 26009 10592 41586 23504
88320 52361 23026
77999
31313 48008 82219=

0000069700
87361=
0000011200
87368
0000009600
87371
0000035800
87378
0000037300
87381
0000039400
87385
0000039400
87407=
0000012000
87430
0000054000
87439=
0000056200
87534=
0000060500
87732
0000056400
87842
0000056400
88013
0000054400
88200=
0000030800
383
SAAO32 GOOY 110000
METAR GABS 110000Z 03002KT CAVOK 22/06 Q1014 NOSIG=
METAR GAGO 110000Z NIL=
METAR GAKY 110000Z 32006KT CAVOK 25/09 Q1013=
METAR GAKL 110000Z NIL=
METAR GAMB 110000Z 04004KT CAVOK 20/07 Q1013=
METAR GANR 110000Z 36002KT CAVOK 25/06 Q////=
METAR GATB 110000Z NIL=
0000028000
384
SAAO31 GOOY 110000
METAR FHAW 102350Z 13010KT 9999 FEW020 24/19 Q1014 BLU=
METAR GGOV 110000Z NIL=
METAR DIAP 110000Z 24004KT 8000 SCT012 FEW020CB BKN100 27/25 Q1011
TEMPO 2000 TSRA BKN009 SCT020CB  BKN100=
METAR DIBK 110000Z NIL=
METAR DIYO 110000Z NIL=
0000070800
385
USAA01 NZCM 110000
TTAA 61001 89664
99997 00056 18501 00512 ///// ///// 92601 07158 18518
85255 11341 17017 70716 21114 15006 50514 33959 24513
40666 44759 24520 30855 51765 24023 25975 45585 24514
20124 43786 24513 15318 43586 26009 10592 41586 23504
88320 52361 23026
77999
31313 48008 82219=

0000069700
87361=
0000011200
87368
0000009600
87371
0000035800
87378
0000037300
87381
0000039400
87385=
0000043700
87428
0000047800
87442
0000056100
87461
0000047900
87477
0000056200
87486
0000052100
87514
0000064500
87547
0000052200
87621
0000058400
87677
0000054300
87788
0000056400
87987
0000062700
88190=
0000056400
386
USAA01 NZCM 110000
TTAA 61001 89664
99997 00056 18501 00512 ///// ///// 92601 07158 18518
85255 11341 17017 70716 21114 15006 50514 33959 24513
40666 44759 24520 30855 51765 24023 25975 45585 24514
20124 43786 24513 15318 43586 26009 10592 41586 23504
88320 52361 23026
77999
31313 48008 82219=

0000069700
87361=
0000011200
87368=
0000015000
87382=
0000030600
87414
0000014800
87423
0000049900
87438=
0000050000
87532
0000048000
87568=
0000056400
87875
0000058500
88018
0000058500
88206=
0000024200
387
SAAO30 GOOY 110000
METAR GOOY 110000Z 36009KT CAVOK 19/14 Q1014 NOSIG=
METAR GOGS 110000Z NIL=
METAR GOOK 110000Z NIL=
METAR GOSS 110000Z NIL=
METAR GOTK 110000Z NIL=
METAR GOTT 110000Z NIL=
METAR GOGG 110000Z NIL=
0000060900
388
SMER10 OMAA 110000
AAXX 11004
41184 42960 41210 10173 20093 40208 80001 333 59002 84070=
41194 12960 50706 10176 20096 30196 40201 60001 85030 333 59006
      70000 85368=
41196 32960 20606 10167 20102 30166 40207 80001 333 59002 82075=
41198 32960 42805 10154 20100 40207 84030 333 58004 84360=
41200 12960 40707 10133 20100 30160 40201 60001 84030 333 59011
      70000 84368=
41216 32960 51003 10170 20104 30180 40185 85030 333 59015 85368=
41217 32960 40905 10158 20091 30155 40185 83031 333 59011 83366=
41218 32960 41009 10157 20078 39882 40195 84030 333 59001 84366=
0000098400
389
UAPS01 NZKL 110000
AIREP
QFA112 3706S 17424E 2304 F122 MS02 214/11=
SIA298 4318S 17200E 2334 F125 MS03 231/22=
ACI142S 2300S 16512E 2318 F321 MS39 246/48=
QFA28 5900S 13318W 2319 F320 MS48 243/42=
SIA8232 3536S 16230E 2309 F340 MS51 274/16=
SIA298 4218S 16854E 2355 F340 MS51 299/14=
ANZ784 3000S 17512W 2317 F350 MS42 315/77=
ANZ832 4224S 16300E 2343 F350 MS54 301/15=
LAN800 3606S 16012E 2359 F350 MS52 212/18=
ANZ56 2400S 17642E 2308 F360 MS42 295/42=
ANZ56 2212S 17654E 2321 F360 MS42 296/29=
QFA112 3630S 17106E 2325 F380 MS56 260/12=
UAE406 3836S 15936E 2312 F390 MS58 208/30=
UAE434 3054S 16006E 2333 F390 MS56 280/39=
UAE406 3836S 16324E 2333 F390 MS58 221/16=
QFA112 3612S 16754E 2347 F400 MS59 266/20=
UAE434 3218S 16312E 2354 F390 MS58 275/38=
UAE406 3824S 16712E 2355 F390 MS59 254/16=
FJI411 3230S 17530E 2304 F410 MS57 283/59=
UAE412 3606S 15954E 2325 F410 MS60 179/20=
UAE412 3636S 16324E 2346 F410 MS60 221/13=
0000227300
390
SMNZ01 NZKL 110000
AAXX 11004
93004 16/// /2114 10196 20135 40201 57001 60004
  333 20148 70000=
93023 16/// /0105 10203 20132 40196 57006 60004
  333 20120 70000=
93069 16/// /2507 10206 20114 40195 54000 60004
  333 20164 70000=
93110 17698 /2211 10203 20124 40193 52003 60004
  333 20146 70000=
93186 17698 /2407 10231 20128 40177 57004 60004
  333 20132 70000=
93196 16/// /0912 10221 20163 40181 52003 60004
  333 20126 70000=
93245 17698 /2307 10177 20101 40180 57008 60004
  333 20062 70000=
93292 17/97 /1509 10211 20120 40178 57007 60004
  333 20096 70000=
93309 17/98 /2619 10188 20148 40184 52002 60004
  333 20147 70000=
93339 16/// /2510 10167 20109 39236 57003 60004
  333 20055 70000=
93373 17/98 /0809 10207 20124 40178 57008 60004
  333 20093 70000=
93404 17698 /3106 10208 20106 40173 57009 60004
  333 20117 70000=
93420 17698 /3510 10202 20120 40174 57003 60004
  333 20106 70000=
93439 17/98 /3211 10204 20107 40171 57007 60004
  333 20124 70000=
93498 16/// /0510 10190 20106 40176 57004 60004
  333 20127 70000=
93515 17597 /2812 10178 20138 40187 57004 60004
  333 20105 70000=
93527 16/// /3407 10210 20141 40177 57001 60004
  333 20131 70000=
93546 17/97 /3612 10218 20154 40170 57008 60004
  333 20156 70000=
93597 16/// /0217 10165 20136 40163 57011 60004
  333 20130 70000=
93615 17698 /3207 10172 20133 40186 57002 60004
  333 20128 70000=
93678 16397 /0709 10171 20138 40167 57004 60004
  333 20123 70000=
93709 16/// /2706 10167 20138 40188 52001 60004
  333 20089 70000=
93773 17498 /0707 10155 20120 40162 57012 60004
  333 20065 70000=
93781 17598 /0710 10171 20118 40167 57005 60004
  333 20080 70000=
93800 NIL=
93805 NIL=
93831 17/98 /2608 10186 20095 40127 57036 60004
  333 20066 70000=
93845 17598 /2207 10162 20115 40139 57020 69944
  333 20113 70004=
93891 17/98 /0802 10195 20112 40139 57021 60004
  333 20108 70000=
93909 16/// /3131 10114 20099 40120 57016 69924
  333 70002=
93929 16/// /3425 10120 20106 40029 57028 69924
  333 70002=
93947 NIL=
93985 17698 /2518 10149 20080 40104 52007 60044
  333 20107 70036=
93994 16/// /2310 10231 20180 40127 57004 69944
  333 20210 70004=
0000019900
391
SMMT01 GQNN 110000
AAXX 11004
61415 32958 52402 10172 20166 30164 40169 85030
  333 0//00 58020 85363=
61442 32960 33604 10168 20168 30159 40163 80002
  333 0//00 58021 83080=
0000003900
392
SASD32 OEJD 110000
NIL=
0000064700
393
USAA01 NZCM 110000
TTAA 61001 89664
99997 00056 18501 00512 ///// ///// 92601 07158 18518
85255 11341 17017 70716 21114 15006 50514 33959 24513
40666 44759 24520 30855 51765 24023 25975 45585 24514
20124 43786 24513 15318 43586 26009 10592 41586 23504
88320 52361 23026
77999
31313 48008 82219=

0000069700
87361=
0000011200
87368=
0000015000
87382
0000012800
87386
0000045600
87406=
0000047800
87429
0000015700
87445
0000049900
87465
0000054100
87473
0000050000
87488
0000052100
87521
0000054200
87549=
0000056400
87860
0000054400
88008
0000064700
88191=
0000005200
394
RRIN23 VIDP 110008
RQRPT 003-044=

0000005200
395
RRIN23 VIDP 110008
RQRPT 163-244=

0000025800
396
SMIN90 VICH 110000
AAXX 11004
42105 21994 30000 10080 20063 40176 71011 80001
  333 58003 6990/=
00010 21594 39901 10073 20073 40179 71061 81530
  333 58011 6992/=
42071 31993 20000 10054 20054 40187 74420 80001
  333 58010 82070=
0000012800
397
SMIN90 VEGK 110000
AAXX 11004
42379 21594 82702 10134 20107 40144 71062 8652/
  333 59010 6998/ 86620 88458=
0000009100
398
UXIN90 VEGK 110000
TTAA 6100/ 42379
NO RS ASCENT DUE TO NO INSTRUMENTS

00000000