0000081200
519
USAA01 NZCM 110000
TTAA 61001 89664
99997 00056 18501 00512 ///// ///// 92601 07158 18518
85255 11341 17017 70716 21114 15006 50514 33959 24513
40666 44759 24520 30855 51765 24023 25975 45585 24514
20124 43786 24513 15318 43586 26009 10592 41586 23504
88320 52361 23026
77999
31313 48008 82219=

0000069700
87361=
0000011200
87368
0000009600
87371
0000035800
87378
0000037300
87381
0000039400
87385
0000039400
87407
0000041500
87411
0000014600
87417
0000045700
87421
0000049900
87440
0000052000
87462
0000050000
87472
0000005900
87495
0000058300
87519
0000056300
87548
0000056300
87600=
0000052300
88063
0000060600
88322
0000062700
88587
0000014700
89153
0000079300
89733
0000062800
90599
0000075100
520
USAA01 NZCM 110000
TTAA 61001 89664
99997 00056 18501 00512 ///// ///// 92601 07158 18518
85255 11341 17017 70716 21114 15006 50514 33959 24513
40666 44759 24520 30855 51765 24023 25975 45585 24514
20124 43786 24513 15318 43586 26009 10592 41586 23504
88320 52361 23026
77999
31313 48008 82219=

0000069700
87361=
0000011200
87368=
0000015000
87382
0000012800
87386
0000045600
87406=
0000047800
87429
0000015700
87445
0000049900
87465
0000054100
87473
0000050000
87488
0000052100
87521
0000054200
87549=
0000056400
87860
0000054400
88008
0000064700
88191
0000062700
88488
0000062700
88756
0000066900
89203
0000062800
89743
0000064900
90606
0000064700
521
USAA01 NZCM 110000
TTAA 61001 89664
99997 00056 18501 00512 ///// ///// 92601 07158 18518
85255 11341 17017 70716 21114 15006 50514 33959 24513
40666 44759 24520 30855 51765 24023 25975 45585 24514
20124 43786 24513 15318 43586 26009 10592 41586 23504
88320 52361 23026
77999
31313 48008 82219=

0000069700
87361=
0000011200
87368=
0000015000
87382
0000012800
87386=
0000045700
87427
0000045800
87444=
0000048000
87537
0000058300
87569=
0000050200
87892
0000056400
88070
0000052300
88329
0000062700
88642
0000081300
89180
0000064800
89772
0000056600
90622
0000105600
522
SMTU61 LTAA 110000
AAXX 11004
17085 12670 33302 11007 21046 39751 40255 53007 60001 83500
 333 83640=
17089 NIL=
17099 11/09 90000 11251 21251 38392 48536 54000 60001 74944
 333 89/02=
17100 NIL=
17110 3//// /1001 10108 20106 30125 40220 52007 60001=
17111 3//// /1106 10115 20088 30177 40212 53003 60001=
17118 11957 02301 11019 21037 39963 40260 51013 60001 71000=
17119 3//// /1505 10081 21008 30210 40215 51006 60001=
17120 3//// /0603 11004 21032 39585 40241 52003 60001=
17127 11356 80203 11030 21030 39257 40282 52003 60001 71022 886//
 333 88708=
17129 11457 83307 11020 21031 39295 40277 52005 60001 71022 886//
 333 88712 91110=
17130 11330 81802 11024 21038 39199 40277 52005 60001 71022 886//
 333 88709 91107=
17131 12360 82102 11018 21040 39279 40274 53003 60001 887//
 333 88708=
17135 12670 82302 11016 21039 39360 40276 53003 60001 8452/
 333 84635 88460 91108=
17143 11656 41602 10072 20038 30200 40216 50002 60001 71000 81130
 333 81835 84360 91107=
17162 NIL=
17165 NIL=
0000073000
523
USAA01 NZCM 110000
TTAA 61001 89664
99997 00056 18501 00512 ///// ///// 92601 07158 18518
85255 11341 17017 70716 21114 15006 50514 33959 24513
40666 44759 24520 30855 51765 24023 25975 45585 24514
20124 43786 24513 15318 43586 26009 10592 41586 23504
88320 52361 23026
77999
31313 48008 82219=

0000069700
87361=
0000011200
87368=
0000015000
87382
0000012800
87386
0000045600
87406
0000047700
87410
0000049800
87416
0000051900
87420
0000047800
87441=
0000045900
87536
0000052100
87559
0000054200
87603
0000052200
87665=
0000060600
88225
0000068900
88501
0000068900
88769
0000064800
89223
0000066900
89770
0000062800
90614
0000058500
524
USAA01 NZCM 110000
TTAA 61001 89664
99997 00056 18501 00512 ///// ///// 92601 07158 18518
85255 11341 17017 70716 21114 15006 50514 33959 24513
40666 44759 24520 30855 51765 24023 25975 45585 24514
20124 43786 24513 15318 43586 26009 10592 41586 23504
88320 52361 23026
77999
31313 48008 82219=

0000069700
87361=
0000011200
87368=
0000015000
87382=
0000030600
87414
0000014800
87423
0000049900
87438=
0000050000
87532=
0000048100
87747
0000060500
87944
0000058500
88151
0000060600
88411=
0000062800
90621
0000114400
525
SMTU62 LTAA 110000
AAXX 11004
17175 12665 51503 10118 20077 30209 40213 53004 60001 83130
 333 83840 84360 91106 92417=
17180 11956 40902 10089 20052 30214 40218 52005 60001 71000 80005
 333 84289 91110 92416=
17186 12970 01701 10028 20020 30143 40231 51007 60001
 333 91103=
17191 3//// /0502 11028 21033 39108 4//// 53000 60001=
17192 12975 00702 11035 21043 39114 40269 55004 60001=
17193 NIL=
17200 12960 02203 11084 21091 39237 40263 55000 60001=
17204 NIL=
17205 NIL=
17218 11658 31208 10101 20057 30209 40215 50003 60001 71000 81101
 333 81840 83070 91114=
17220 11956 01405 10110 20065 30186 40221 50005 60001 71000 333 91114
92426=
17221 3//// /0800 10108 20087 30200 40207 55002 60001=
17232 12970 01104 10117 20064 30179 40209 58003 60001
 333 91111 92418=
17238 11/01 91702 11010 21011 39114 40245 52002 60001 74544
 333 89/03 91104=
17239 11/01 91001 11029 21034 39066 48515 50001 60001 74722  333
89/02=
17241 11/03 90000 11047 21050 39223 40278 52003 60001 74944
 333 89/01=
17242 11/04 90000 11029 21032 38918 48525 56001 60001 74744
 333 89/05=
17246 NIL=
0000070900
526
USAA01 NZCM 110000
TTAA 61001 89664
99997 00056 18501 00512 ///// ///// 92601 07158 18518
85255 11341 17017 70716 21114 15006 50514 33959 24513
40666 44759 24520 30855 51765 24023 25975 45585 24514
20124 43786 24513 15318 43586 26009 10592 41586 23504
88320 52361 23026
77999
31313 48008 82219=

0000069700
87361=
0000011200
87368=
0000015000
87382
0000012800
87386
0000045600
87406
0000047700
87410
0000049800
87416
0000051900
87420
0000047800
87441
0000045800
87463
0000047900
87474=
0000054200
87591
0000060500
87658
0000058400
87768
0000056400
87954
0000066800
88127
0000054400
88402=
0000056600
90561
0000062600
527
USAA01 NZCM 110000
TTAA 61001 89664
99997 00056 18501 00512 ///// ///// 92601 07158 18518
85255 11341 17017 70716 21114 15006 50514 33959 24513
40666 44759 24520 30855 51765 24023 25975 45585 24514
20124 43786 24513 15318 43586 26009 10592 41586 23504
88320 52361 23026
77999
31313 48008 82219=

0000069700
87361=
0000011200
87368
0000009600
87371
0000035800
87378
0000037300
87381=
0000039500
87413=
0000052000
87479
0000056200
87492
0000045900
87517=
0000054300
87740
0000056400
87934
0000052300
88140
0000066800
88409=
0000069000
90587
0000112600
528
SMTU60 LTAA 110000
AAXX 11004
17020 12965 00101 10007 20001 30167 40207 52019 60001
 333 91104=
17030 12970 02110 10094 21065 30161 40166 52013 60001
 333 92438=
17033 NIL=
17040 12970 02001 10038 20010 30153 40164 56004 60001
 333 92428=
17045 12970 03302 10019 21068 39462 40216 56003 60001=
17046 NIL=
17052 12970 00702 10039 20036 39933 40218 52012 60001
 333 91104=
17059 3//// /1407 10091 20078 30164 40210 52013 60001=
17061 12965 01801 10082 20077 30147 40219 52011 60001
 333 91107 92407=
17063 12460 42004 10075 20011 30095 40216 53004 60001 84600 333 84712
91117=
17068 11945 31602 11004 21007 30127 40214 52003 60001 71000 80001
 333 83070 91107=
17069 12965 02211 10072 21025 30179 40216 52007 60001
 333 91021 91125=
17072 11/02 92201 11006 21006 30045 40229 52011 60001 74544
 333 89/02 91104=
17078 11958 32501 11006 21026 39890 40209 52011 60001 71000 83030
 333 83360 91103=
17080 12665 83301 11033 21041 39352 40273 55000 60001 8552/
 333 85635 88460 91104=
17082 12960 40901 11047 21066 39604 40250 53006 60001 84030
 333 84360 91114=
0000064700
529
USAA01 NZCM 110000
TTAA 61001 89664
99997 00056 18501 00512 ///// ///// 92601 07158 18518
85255 11341 17017 70716 21114 15006 50514 33959 24513
40666 44759 24520 30855 51765 24023 25975 45585 24514
20124 43786 24513 15318 43586 26009 10592 41586 23504
88320 52361 23026
77999
31313 48008 82219=

0000069700
87361=
0000011200
87368=
0000015000
87382
0000012800
87386=
0000045700
87427
0000045800
87444
0000047900
87464
0000052000
87476
0000050000
87490
0000045900
87515
0000054200
87561=
0000056400
87894
0000256100
88072
0000054400
88341=
0000073100
90610
0000112400
530
SMTU63 LTAA 110000
AAXX 11004
17015 12970 01503 10043 20010 30195 40207 53008 60001
 333 91108 92418=
17066 3//// /2903 10085 20016 30122 40204 52006 60001=
17094 12970 00000 11086 21111 38841 48529 56003 60001
 333 91105=
17208 NIL=
17255 NIL=
17261 NIL=
17262 NIL=
17265 12980 03401 10040 21052 39428 40219 57003 60001=
17271 NIL=
17275 NIL=
17282 NIL=
17285 NIL=
17287 12675 62601 10042 21107 38664 48513 57013 60001 83230
 333 83840 83360=
17291 11656 51404 10082 20072 30213 40226 52005 60001 71022 81150
 333 81835 85360=
17296 12970 00000 10066 20052 30225 40229 53004 60001
 333 92408=
17297 12670 42801 10106 20105 30189 40223 52002 60001 84200
 333 84840 91105 92408=
17298 3//// /3001 10084 20083 30200 40220 55000 60001=
17302 12970 03604 10099 20036 30170 40227 52002 60001
 333 91106 92418=
17340 12970 03602 10086 21042 30210 40218 53005 60001
 333 92428=
17352 12960 00504 10036 21014 30193 40218 53005 60001=
17355 NIL=
17371 12970 00000 10020 20003 30121 40232 52008 60001=
17380 3//// /0205 10119 20056 30032 40215 55000 60001=
0000064700
531
USAA01 NZCM 110000
TTAA 61001 89664
99997 00056 18501 00512 ///// ///// 92601 07158 18518
85255 11341 17017 70716 21114 15006 50514 33959 24513
40666 44759 24520 30855 51765 24023 25975 45585 24514
20124 43786 24513 15318 43586 26009 10592 41586 23504
88320 52361 23026
77999
31313 48008 82219=

0000069700
87361=
0000011200
87368=
0000015000
87382=
0000030600
87414=
0000011000
87481
0000054100
87485
0000050000
87516
0000054200
87558
0000060400
87607
0000056300
87649
0000062600
87766
0000064700
87955
0000066800
88123
0000060600
88397=
0000069000
90566
0000058500
532
USAA01 NZCM 110000
TTAA 61001 89664
99997 00056 18501 00512 ///// ///// 92601 07158 18518
85255 11341 17017 70716 21114 15006 50514 33959 24513
40666 44759 24520 30855 51765 24023 25975 45585 24514
20124 43786 24513 15318 43586 26009 10592 41586 23504
88320 52361 23026
77999
31313 48008 82219=

0000069700
87361=
0000011200
87368=
0000015000
87382=
0000030600
87414=
0000011000
87481
0000054100
87485
0000050000
87516=
0000054300
87738
0000054300
87933
0000056400
88141
0000012400
88417=
0000066900
90612
0000068800
533
USAA01 NZCM 110000
TTAA 61001 89664
99997 00056 18501 00512 ///// ///// 92601 07158 18518
85255 11341 17017 70716 21114 15006 50514 33959 24513
40666 44759 24520 30855 51765 24023 25975 45585 24514
20124 43786 24513 15318 43586 26009 10592 41586 23504
88320 52361 23026
77999
31313 48008 82219=

0000069700
87361=
0000011200
87368
0000009600
87371
0000035800
87378
0000037300
87381=
0000039500
87413
0000041600
87422
0000043700
87443
0000045800
87466
0000054100
87469
0000050000
87483
0000045900
87525
0000058300
87572=
0000060500
87890
0000058500
88060
0000058500
88345=
0000071100
90613
0000066800
534
USAA01 NZCM 110000
TTAA 61001 89664
99997 00056 18501 00512 ///// ///// 92601 07158 18518
85255 11341 17017 70716 21114 15006 50514 33959 24513
40666 44759 24520 30855 51765 24023 25975 45585 24514
20124 43786 24513 15318 43586 26009 10592 41586 23504
88320 52361 23026
77999
31313 48008 82219=

0000069700
87361=
0000011200
87368
0000009600
87371
0000035800
87378
0000037300
87381=
0000039500
87413
0000041600
87422
0000043700
87443
0000045800
87466=
0000054200
87540
0000048000
87567
0000050100
87610=
0000056400
87913
0000056400
88101
0000060600
88376=
0000066900
90582
0000064700
535
USAA01 NZCM 110000
TTAA 61001 89664
99997 00056 18501 00512 ///// ///// 92601 07158 18518
85255 11341 17017 70716 21114 15006 50514 33959 24513
40666 44759 24520 30855 51765 24023 25975 45585 24514
20124 43786 24513 15318 43586 26009 10592 41586 23504
88320 52361 23026
77999
31313 48008 82219=

0000069700
87361=
0000011200
87368=
0000015000
87382=
0000030600
87414
0000014800
87423
0000049900
87438
0000052000
87459
0000058200
87471
0000050000
87489
0000052100
87522
0000058300
87546
0000054200
87595=
0000058500
88096
0000060600
88396=
0000062800
90546
0000058500
536
USAA01 NZCM 110000
TTAA 61001 89664
99997 00056 18501 00512 ///// ///// 92601 07158 18518
85255 11341 17017 70716 21114 15006 50514 33959 24513
40666 44759 24520 30855 51765 24023 25975 45585 24514
20124 43786 24513 15318 43586 26009 10592 41586 23504
88320 52361 23026
77999
31313 48008 82219=

0000069700
87361=
0000011200
87368=
0000015000
87382
0000012800
87386
0000045600
87406
0000047700
87410
0000049800
87416=
0000045800
87478=
0000043900
87582=
0000052300
88109
0000054400
88392=
0000073200
90604
0000064700
537
USAA01 NZCM 110000
TTAA 61001 89664
99997 00056 18501 00512 ///// ///// 92601 07158 18518
85255 11341 17017 70716 21114 15006 50514 33959 24513
40666 44759 24520 30855 51765 24023 25975 45585 24514
20124 43786 24513 15318 43586 26009 10592 41586 23504
88320 52361 23026
77999
31313 48008 82219=

0000069700
87361=
0000011200
87368=
0000015000
87382
0000012800
87386=
0000045700
87427
0000045800
87444
0000047900
87464=
0000052100
87578
0000056300
87627=
0000064700
88111
0000060600
88390
0000068900
88636
0000062700
89168
0000064800
89730
0000079300
90598
0000058500
538
USAA01 NZCM 110000
TTAA 61001 89664
99997 00056 18501 00512 ///// ///// 92601 07158 18518
85255 11341 17017 70716 21114 15006 50514 33959 24513
40666 44759 24520 30855 51765 24023 25975 45585 24514
20124 43786 24513 15318 43586 26009 10592 41586 23504
88320 52361 23026
77999
31313 48008 82219=

0000069700
87361=
0000011200
87368=
0000015000
87382
0000012800
87386=
0000045700
87427
0000045800
87444
0000047900
87464=
0000052100
87578
0000056300
87627=
0000064700
88111
0000060600
88390=
0000069000
90562
00000000