0000062600
979
USAA01 NZCM 110000
TTAA 61001 89664
99997 00056 18501 00512 ///// ///// 92601 07158 18518
85255 11341 17017 70716 21114 15006 50514 33959 24513
40666 44759 24520 30855 51765 24023 25975 45585 24514
20124 43786 24513 15318 43586 26009 10592 41586 23504
88320 52361 23026
77999
31313 48008 82219=

0000069700
87361=
0000011200
87368=
0000015000
87382
0000012800
87386
0000045600
87406
0000047700
87410
0000049800
87416=
0000045800
87478
0000043800
87484
0000050000
87523
0000054200
87562=
0000060500
87889
0000052300
88043
0000060600
88307=
0000062600
980
USAA01 NZCM 110000
TTAA 61001 89664
99997 00056 18501 00512 ///// ///// 92601 07158 18518
85255 11341 17017 70716 21114 15006 50514 33959 24513
40666 44759 24520 30855 51765 24023 25975 45585 24514
20124 43786 24513 15318 43586 26009 10592 41586 23504
88320 52361 23026
77999
31313 48008 82219=

0000069700
87361=
0000011200
87368
0000009600
87371
0000035800
87378
0000037300
87381
0000039400
87385
0000039400
87407=
0000012000
87430=
0000054100
87500
0000056200
87510
0000050100
87551=
0000056400
87867
0000056400
88039
0000054400
88308=
0000052300
981
USAA01 NZCM 110000
TTAA 61001 89664
99997 00056 18501 00512 ///// ///// 92601 07158 18518
85255 11341 17017 70716 21114 15006 50514 33959 24513
40666 44759 24520 30855 51765 24023 25975 45585 24514
20124 43786 24513 15318 43586 26009 10592 41586 23504
88320 52361 23026
77999
31313 48008 82219=

0000069700
87361=
0000011200
87368=
0000015000
87382=
0000030600
87414
0000014800
87423=
0000050000
87499
0000062400
87518=
0000056400
87723=
0000060600
88294=
0000064600
982
USAA01 NZCM 110000
TTAA 61001 89664
99997 00056 18501 00512 ///// ///// 92601 07158 18518
85255 11341 17017 70716 21114 15006 50514 33959 24513
40666 44759 24520 30855 51765 24023 25975 45585 24514
20124 43786 24513 15318 43586 26009 10592 41586 23504
88320 52361 23026
77999
31313 48008 82219=

0000069700
87361=
0000011200
87368
0000009600
87371
0000035800
87378
0000037300
87381
0000039400
87385
0000039400
87407
0000041500
87411
0000014600
87417=
0000041700
87480
0000060300
87494=
0000052200
87704
0000054300
87832
0000060600
88034
0000062700
88311=
0000056400
983
USAA01 NZCM 110000
TTAA 61001 89664
99997 00056 18501 00512 ///// ///// 92601 07158 18518
85255 11341 17017 70716 21114 15006 50514 33959 24513
40666 44759 24520 30855 51765 24023 25975 45585 24514
20124 43786 24513 15318 43586 26009 10592 41586 23504
88320 52361 23026
77999
31313 48008 82219=

0000069700
87361=
0000011200
87368=
0000015000
87382
0000012800
87386=
0000045700
87427=
0000045900
87505
0000050000
87526
0000050100
87565=
0000062600
87871
0000062600
88032
0000060600
88309=
0000066700
984
USAA01 NZCM 110000
TTAA 61001 89664
99997 00056 18501 00512 ///// ///// 92601 07158 18518
85255 11341 17017 70716 21114 15006 50514 33959 24513
40666 44759 24520 30855 51765 24023 25975 45585 24514
20124 43786 24513 15318 43586 26009 10592 41586 23504
88320 52361 23026
77999
31313 48008 82219=

0000069700
87361=
0000011200
87368
0000009600
87371
0000035800
87378
0000037300
87381
0000039400
87385
0000039400
87407=
0000012000
87430
0000054000
87439
0000049900
87460
0000047900
87470
0000052100
87487=
0000054300
87713
0000048100
87816
0000062600
88041
0000060600
88306=
0000015000
985
SMTH01 VTBB 110000 RRA
AAXX 11004
48583 01450 80806 10254 20226 30125 40131 52012 60084 71062 82246
  333 20237 58019 60057 70078=
0000058500
986
USAA01 NZCM 110000
TTAA 61001 89664
99997 00056 18501 00512 ///// ///// 92601 07158 18518
85255 11341 17017 70716 21114 15006 50514 33959 24513
40666 44759 24520 30855 51765 24023 25975 45585 24514
20124 43786 24513 15318 43586 26009 10592 41586 23504
88320 52361 23026
77999
31313 48008 82219=

0000069700
87361=
0000011200
87368
0000009600
87371
0000035800
87378
0000037300
87381
0000039400
87385
0000039400
87407=
0000012000
87430
0000054000
87439=
0000056200
87534=
0000060500
87732=
0000054400
88301=
0000060500
987
USAA01 NZCM 110000
TTAA 61001 89664
99997 00056 18501 00512 ///// ///// 92601 07158 18518
85255 11341 17017 70716 21114 15006 50514 33959 24513
40666 44759 24520 30855 51765 24023 25975 45585 24514
20124 43786 24513 15318 43586 26009 10592 41586 23504
88320 52361 23026
77999
31313 48008 82219=

0000069700
87361=
0000011200
87368
0000009600
87371
0000035800
87378
0000037300
87381=
0000039500
87413
0000041600
87422
0000043700
87443=
0000052100
87539
0000048000
87564=
0000056400
87880
0000062600
88056
0000064700
88313=
0000056400
988
USAA01 NZCM 110000
TTAA 61001 89664
99997 00056 18501 00512 ///// ///// 92601 07158 18518
85255 11341 17017 70716 21114 15006 50514 33959 24513
40666 44759 24520 30855 51765 24023 25975 45585 24514
20124 43786 24513 15318 43586 26009 10592 41586 23504
88320 52361 23026
77999
31313 48008 82219=

0000069700
87361=
0000011200
87368=
0000015000
87382
0000012800
87386
0000045600
87406
0000047700
87410
0000049800
87416=
0000045800
87478
0000043800
87484=
0000050100
87716=
0000052300
88297=
0000058500
989
USAA01 NZCM 110000
TTAA 61001 89664
99997 00056 18501 00512 ///// ///// 92601 07158 18518
85255 11341 17017 70716 21114 15006 50514 33959 24513
40666 44759 24520 30855 51765 24023 25975 45585 24514
20124 43786 24513 15318 43586 26009 10592 41586 23504
88320 52361 23026
77999
31313 48008 82219=

0000069700
87361=
0000011200
87368
0000009600
87371
0000035800
87378
0000037300
87381
0000039400
87385
0000039400
87407=
0000012000
87430=
0000054100
87500
0000056200
87510=
0000050200
87730=
0000056400
88303=
0000060500
990
USAA01 NZCM 110000
TTAA 61001 89664
99997 00056 18501 00512 ///// ///// 92601 07158 18518
85255 11341 17017 70716 21114 15006 50514 33959 24513
40666 44759 24520 30855 51765 24023 25975 45585 24514
20124 43786 24513 15318 43586 26009 10592 41586 23504
88320 52361 23026
77999
31313 48008 82219=

0000069700
87361=
0000011200
87368
0000009600
87371
0000035800
87378
0000037300
87381=
0000039500
87413
0000041600
87422=
0000043800
87504
0000052100
87527
0000058300
87571=
0000052300
87882
0000062600
88058
0000060600
88317=
0000066700
991
USAA01 NZCM 110000
TTAA 61001 89664
99997 00056 18501 00512 ///// ///// 92601 07158 18518
85255 11341 17017 70716 21114 15006 50514 33959 24513
40666 44759 24520 30855 51765 24023 25975 45585 24514
20124 43786 24513 15318 43586 26009 10592 41586 23504
88320 52361 23026
77999
31313 48008 82219=

0000069700
87361=
0000011200
87368
0000009600
87371
0000035800
87378
0000037300
87381
0000039400
87385
0000039400
87407
0000041500
87411
0000014600
87417=
0000041700
87480
0000060300
87494
0000052100
87511
0000058300
87573=
0000050200
87874
0000060500
88033
0000064700
88305=
0000003800
992
SAUK53 EGRR 110000
NIL
0000157600
993
SAUK63 EGRR 102350 RRB
METAR EGDM 102350Z AUTO 19007KT 9999 -RA FEW044/// BKN050/// 07/07 Q1012=
METAR EGDX 102350Z AUTO 28012KT 6000 -SHRA SCT004/// BKN011/// 08/07 Q1011=
METAR EGDY 102350Z AUTO 22010KT 9999 FEW016/// SCT023/// BKN046/// 10/07 Q1012
RERA=
METAR EGOM 102350Z AUTO 26006KT 0200 FG VV/// 02/02 Q1007=
METAR EGOP 102350Z AUTO 26007KT 7000 // FEW029/// SCT039/// BKN045/// 08/07
Q1011=
METAR EGOS 102350Z AUTO 23008KT 9999 FEW040/// BKN045/// 08/06 Q1009=
METAR EGOV 102350Z AUTO 31006KT 9999 -RADZ BKN023/// SCT038/// 06/05 Q1010=
METAR EGQK 102350Z AUTO 24003KT 9999 FEW050/// 01/M02 Q1005=
METAR EGUB 102350Z AUTO 16009KT 9999 // BKN035/// BKN042/// 07/06 Q1012=
METAR EGUW 102350Z AUTO 21011KT 9999 -RADZ FEW005/// BKN050/// 07/06 Q1012=
METAR EGVP 102350Z AUTO 20007KT 9999 // SCT035/// BKN043/// 07/07 Q1013=
METAR EGWU 102350Z AUTO 22007KT 9999 // BKN035/// SCT046/// BKN080/// 08/06
Q1013=
METAR EGXD 102350Z AUTO 29006KT 9999 // BKN008/// BKN100/// 07/06 Q1007=
METAR EGXE 102350Z AUTO 29005KT 9999 BKN031/// BKN070/// 06/05 Q1007 RERA=
METAR EGXP 102350Z AUTO 22014KT 9999 // FEW020/// BKN023/// BKN027/// 08/06
Q1008=
METAR EGXS 102350Z AUTO 20017KT 9999 // BKN029/// 07/06 Q1009=
METAR EGXU 102350Z AUTO 25008KT 9999 // FEW031/// BKN100/// 07/06 Q1007=
METAR EGXZ 102350Z AUTO 29006KT 9999 FEW011/// SCT022/// BKN100/// 07/05 Q1007
RERA=
METAR EGYD 102350Z AUTO 22016KT 9999 // BKN029/// BKN060/// 08/05 Q1009=
METAR EGYM 102350Z AUTO 20012KT 9999 -SHRA BKN036/// BKN050/// 07/06 Q1011=
0000125000
994
SREW41 EGRR 110000
03002020 03005OTR 03008000 03017000 03026OTR 03031004 03034000
03037OTR 03044000 03047000 03062000 03063000 03066000 03068000
03075000 03080000 03088000 03091000 03100000 03105004 03111000
03132000 03134000 03136000 03144000 03153000 03155000 03158000
03162000 03166000 03171000 03204000 03210000 03212000 03214000
03220000 03224000 03225000 03226000 03230000 03238000 03240000
03257002 03261000 03265OTR 03266000 03275000 03281000 03292000
03301000 03302008 03305000 03313002 03316002 03318000 03321OTR
03330OTR 03344002 03346000 03351OTR 03354000 03373000 03377000
03379000 03382OTR 03391004 03392006 03405000 03409000 03410000
03414000 03462004 03469008 03482OTR 03488OTR 03502000 03503002
03520002 03522002 03529OTR 03535OTR 03544OTR 03560002 03590002
03604000 03605000 03609002 03628OTR 03647000 03649OTR 03658006
03660OTR 03672004 03684OTR 03693OTR 03707000 03710012 03716OTR
03740000 03743000 03746004 03749010 03761004 03768004 03769000
03770002 03772002 03781006 03797000 03803000 03808OTR 03809OTR
03823010 03827004 03839002 03840004 03853OTR 03857OTR 03862OTR
03866000 03872000 03876000 03882000 03901000 03904006 03907000
03911000 03915000 03916000 03917000 03923000=
0000080300
995
SDTH20 VTBB 110000
FFBB 1100/ 48300 NIL=
FFBB 1100/ 48303 00000=
FFBB  1100/ 48327 00000=
FFBB  1100/ 48356 00000=
FFBB  1100/ 48378 00000=
FFBB 1100/ 48381 00000=
FFBB 1100/ 48407 00000=
FFBB 1100/ 48413 0/0/0=
FFBB 1100/ 48417 00000=
FFBB 1100/ 48432 0/0/0=
FFBB 1100/ 48456 00000=
FFBB 1100/ 48475 00000=
FFBB 1100/ 48478 00000=
FFBB 1100/ 48517 645/3 654/3 61616 644 650=
FFBB  1100/ 48551 0/0/0=
FFBB  1100/ 48565 575/3 585/3 /555/ 57562 61616 574=
FFBB 1100/ 48567 NIL=
FFBB  1100/ 48568 264/5 354/3 364/5 374/3 435/3 445/5 455/5 465/5
474/3 484/3 544/3 554/3 565/3 574/3 584/3 654/3 666/5 675/3 674/3
755/3 766/5 777/5 865/5 61616 262 352 36134 3723 4324 4512 452 471
4834 541 554 5634 5724 582 652 6634 672 683 752=
FFBB 1100/ 48583 NIL=
0000013200
996
SMTH01 VTBB 110000 RRB
AAXX 11004
48375 31930 30000 10168 20156 39920 40153 52015 71000 80005
  333 20163 58019=
0000062600
997
USAA01 NZCM 110000
TTAA 61001 89664
99997 00056 18501 00512 ///// ///// 92601 07158 18518
85255 11341 17017 70716 21114 15006 50514 33959 24513
40666 44759 24520 30855 51765 24023 25975 45585 24514
20124 43786 24513 15318 43586 26009 10592 41586 23504
88320 52361 23026
77999
31313 48008 82219=

0000069700
87361=
0000011200
87368
0000009600
87371
0000035800
87378
0000037300
87381
0000039400
87385
0000039400
87407=
0000012000
87430
0000054000
87439=
0000056200
87534
0000060400
87553=
0000056400
87868
0000060500
88036
0000062600
88310=
0000066700
998
USAA01 NZCM 110000
TTAA 61001 89664
99997 00056 18501 00512 ///// ///// 92601 07158 18518
85255 11341 17017 70716 21114 15006 50514 33959 24513
40666 44759 24520 30855 51765 24023 25975 45585 24514
20124 43786 24513 15318 43586 26009 10592 41586 23504
88320 52361 23026
77999
31313 48008 82219=

0000069700
87361=
0000011200
87368=
0000015000
87382
0000012800
87386
0000045600
87406
0000047700
87410
0000049800
87416
0000051900
87420
0000047800
87441
0000045800
87463=
0000048000
87576
0000060400
87629
0000056300
87683
0000052200
87836
0000056400
88030
0000058500
88314=
00000000