0000070900
899
USAA01 NZCM 110000
TTAA 61001 89664
99997 00056 18501 00512 ///// ///// 92601 07158 18518
85255 11341 17017 70716 21114 15006 50514 33959 24513
40666 44759 24520 30855 51765 24023 25975 45585 24514
20124 43786 24513 15318 43586 26009 10592 41586 23504
88320 52361 23026
77999
31313 48008 82219=

0000069700
87361=
0000011200
87368=
0000015000
87382
0000012800
87386
0000045600
87406
0000047700
87410
0000049800
87416
0000051900
87420
0000047800
87441
0000045800
87463
0000047900
87474
0000054100
87493
0000052100
87509
0000048000
87557=
0000050200
87884
0000062600
88049=
0000060700
89460
0000062800
90158
0000058500
900
USAA01 NZCM 110000
TTAA 61001 89664
99997 00056 18501 00512 ///// ///// 92601 07158 18518
85255 11341 17017 70716 21114 15006 50514 33959 24513
40666 44759 24520 30855 51765 24023 25975 45585 24514
20124 43786 24513 15318 43586 26009 10592 41586 23504
88320 52361 23026
77999
31313 48008 82219=

0000069700
87361=
0000011200
87368=
0000015000
87382
0000012800
87386=
0000045700
87427
0000045800
87444
0000047900
87464=
0000052100
87578=
0000056400
87893
0000058500
88065=
0000060700
89488
0000060800
90136
0000068800
901
USAA01 NZCM 110000
TTAA 61001 89664
99997 00056 18501 00512 ///// ///// 92601 07158 18518
85255 11341 17017 70716 21114 15006 50514 33959 24513
40666 44759 24520 30855 51765 24023 25975 45585 24514
20124 43786 24513 15318 43586 26009 10592 41586 23504
88320 52361 23026
77999
31313 48008 82219=

0000069700
87361=
0000011200
87368
0000009600
87371
0000035800
87378
0000037300
87381=
0000039500
87413
0000041600
87422
0000043700
87443
0000045800
87466
0000054100
87469
0000050000
87483
0000045900
87525=
0000058400
87752
0000050200
87943=
0000068900
88955
0000060700
89555
0000069000
90143
0000064700
902
USAA01 NZCM 110000
TTAA 61001 89664
99997 00056 18501 00512 ///// ///// 92601 07158 18518
85255 11341 17017 70716 21114 15006 50514 33959 24513
40666 44759 24520 30855 51765 24023 25975 45585 24514
20124 43786 24513 15318 43586 26009 10592 41586 23504
88320 52361 23026
77999
31313 48008 82219=

0000069700
87361=
0000011200
87368
0000009600
87371
0000035800
87378
0000037300
87381
0000039400
87385=
0000043700
87428
0000047800
87442
0000056100
87461
0000047900
87477=
0000056300
87584=
0000052300
87914=
0000054500
88942
0000054500
89497
0000066900
90138
0000068800
903
USAA01 NZCM 110000
TTAA 61001 89664
99997 00056 18501 00512 ///// ///// 92601 07158 18518
85255 11341 17017 70716 21114 15006 50514 33959 24513
40666 44759 24520 30855 51765 24023 25975 45585 24514
20124 43786 24513 15318 43586 26009 10592 41586 23504
88320 52361 23026
77999
31313 48008 82219=

0000069700
87361=
0000011200
87368
0000009600
87371
0000035800
87378
0000037300
87381
0000039400
87385
0000039400
87407
0000041500
87411
0000014600
87417
0000045700
87421=
0000050000
87501
0000056200
87513
0000060400
87556
0000054200
87613=
0000052300
88087=
0000060700
89480
0000058700
90139
0000068800
904
USAA01 NZCM 110000
TTAA 61001 89664
99997 00056 18501 00512 ///// ///// 92601 07158 18518
85255 11341 17017 70716 21114 15006 50514 33959 24513
40666 44759 24520 30855 51765 24023 25975 45585 24514
20124 43786 24513 15318 43586 26009 10592 41586 23504
88320 52361 23026
77999
31313 48008 82219=

0000069700
87361=
0000011200
87368=
0000015000
87382
0000012800
87386=
0000045700
87427
0000045800
87444
0000047900
87464
0000052000
87476
0000050000
87490
0000045900
87515
0000054200
87561
0000056300
87628
0000058400
87682
0000058400
87821
0000062600
88059=
0000054500
89487
0000062800
90164
0000064700
905
USAA01 NZCM 110000
TTAA 61001 89664
99997 00056 18501 00512 ///// ///// 92601 07158 18518
85255 11341 17017 70716 21114 15006 50514 33959 24513
40666 44759 24520 30855 51765 24023 25975 45585 24514
20124 43786 24513 15318 43586 26009 10592 41586 23504
88320 52361 23026
77999
31313 48008 82219=

0000069700
87361=
0000011200
87368
0000009600
87371
0000035800
87378
0000037300
87381
0000039400
87385
0000039400
87407
0000041500
87411
0000014600
87417=
0000041700
87480=
0000060400
87592=
0000054400
87904
0000052300
88082=
0000054500
89481
0000062800
90159
0000062700
906
USAA01 NZCM 110000
TTAA 61001 89664
99997 00056 18501 00512 ///// ///// 92601 07158 18518
85255 11341 17017 70716 21114 15006 50514 33959 24513
40666 44759 24520 30855 51765 24023 25975 45585 24514
20124 43786 24513 15318 43586 26009 10592 41586 23504
88320 52361 23026
77999
31313 48008 82219=

0000069700
87361=
0000011200
87368=
0000015000
87382
0000012800
87386
0000045600
87406=
0000047800
87429
0000015700
87445=
0000050000
87538
0000054200
87552
0000066600
87599=
0000012800
87916=
0000058600
88941
0000054500
89503
0000062800
90137
0000075000
907
USAA01 NZCM 110000
TTAA 61001 89664
99997 00056 18501 00512 ///// ///// 92601 07158 18518
85255 11341 17017 70716 21114 15006 50514 33959 24513
40666 44759 24520 30855 51765 24023 25975 45585 24514
20124 43786 24513 15318 43586 26009 10592 41586 23504
88320 52361 23026
77999
31313 48008 82219=

0000069700
87361=
0000011200
87368
0000009600
87371
0000035800
87378
0000037300
87381
0000039400
87385
0000039400
87407
0000041500
87411
0000014600
87417
0000045700
87421
0000049900
87440
0000052000
87462
0000050000
87472
0000005900
87495
0000058300
87519
0000056300
87548
0000056300
87600=
0000052300
88063=
0000060700
89449
0000062800
90134
0000064700
908
USAA01 NZCM 110000
TTAA 61001 89664
99997 00056 18501 00512 ///// ///// 92601 07158 18518
85255 11341 17017 70716 21114 15006 50514 33959 24513
40666 44759 24520 30855 51765 24023 25975 45585 24514
20124 43786 24513 15318 43586 26009 10592 41586 23504
88320 52361 23026
77999
31313 48008 82219=

0000069700
87361=
0000011200
87368
0000009600
87371
0000035800
87378
0000037300
87381
0000039400
87385
0000039400
87407
0000041500
87411
0000014600
87417=
0000041700
87480=
0000060400
87592=
0000054400
87904=
0000064800
88933
0000056600
89491
0000064800
90165
0000064700
909
USAA01 NZCM 110000
TTAA 61001 89664
99997 00056 18501 00512 ///// ///// 92601 07158 18518
85255 11341 17017 70716 21114 15006 50514 33959 24513
40666 44759 24520 30855 51765 24023 25975 45585 24514
20124 43786 24513 15318 43586 26009 10592 41586 23504
88320 52361 23026
77999
31313 48008 82219=

0000069700
87361=
0000011200
87368=
0000015000
87382
0000012800
87386
0000045600
87406
0000047700
87410=
0000049900
87467
0000047900
87475
0000047900
87491
0000056200
87512
0000054200
87550=
0000058500
87863
0000054300
88027=
0000060700
89461
0000054500
90183
0000062700
910
USAA01 NZCM 110000
TTAA 61001 89664
99997 00056 18501 00512 ///// ///// 92601 07158 18518
85255 11341 17017 70716 21114 15006 50514 33959 24513
40666 44759 24520 30855 51765 24023 25975 45585 24514
20124 43786 24513 15318 43586 26009 10592 41586 23504
88320 52361 23026
77999
31313 48008 82219=

0000069700
87361=
0000011200
87368=
0000015000
87382
0000012800
87386
0000045600
87406=
0000047800
87429
0000015700
87445
0000049900
87465
0000054100
87473=
0000050100
87586=
0000062600
87905=
0000058600
88932
0000060700
89490
0000056600
90173
0000068800
911
USAA01 NZCM 110000
TTAA 61001 89664
99997 00056 18501 00512 ///// ///// 92601 07158 18518
85255 11341 17017 70716 21114 15006 50514 33959 24513
40666 44759 24520 30855 51765 24023 25975 45585 24514
20124 43786 24513 15318 43586 26009 10592 41586 23504
88320 52361 23026
77999
31313 48008 82219=

0000069700
87361=
0000011200
87368
0000009600
87371
0000035800
87378
0000037300
87381
0000039400
87385
0000039400
87407=
0000012000
87430
0000054000
87439
0000049900
87460
0000047900
87470
0000052100
87487=
0000054300
87713
0000048100
87816
0000062600
88041=
0000056500
89433
0000062800
90126
0000066700
912
USAA01 NZCM 110000
TTAA 61001 89664
99997 00056 18501 00512 ///// ///// 92601 07158 18518
85255 11341 17017 70716 21114 15006 50514 33959 24513
40666 44759 24520 30855 51765 24023 25975 45585 24514
20124 43786 24513 15318 43586 26009 10592 41586 23504
88320 52361 23026
77999
31313 48008 82219=

0000069700
87361=
0000011200
87368
0000009600
87371
0000035800
87378
0000037300
87381
0000039400
87385
0000039400
87407
0000041500
87411
0000014600
87417=
0000041700
87480
0000060300
87494=
0000052200
87704
0000054300
87832
0000060600
88034=
0000064800
89440
0000073100
90133
0000064700
913
USAA01 NZCM 110000
TTAA 61001 89664
99997 00056 18501 00512 ///// ///// 92601 07158 18518
85255 11341 17017 70716 21114 15006 50514 33959 24513
40666 44759 24520 30855 51765 24023 25975 45585 24514
20124 43786 24513 15318 43586 26009 10592 41586 23504
88320 52361 23026
77999
31313 48008 82219=

0000069700
87361=
0000011200
87368=
0000015000
87382
0000012800
87386
0000045600
87406
0000047700
87410
0000049800
87416=
0000045800
87478
0000043800
87484
0000050000
87523=
0000054300
87742
0000054300
87936=
0000054500
88977
0000060700
89512
0000073100
90141
0000062600
914
USAA01 NZCM 110000
TTAA 61001 89664
99997 00056 18501 00512 ///// ///// 92601 07158 18518
85255 11341 17017 70716 21114 15006 50514 33959 24513
40666 44759 24520 30855 51765 24023 25975 45585 24514
20124 43786 24513 15318 43586 26009 10592 41586 23504
88320 52361 23026
77999
31313 48008 82219=

0000069700
87361=
0000011200
87368
0000009600
87371
0000035800
87378
0000037300
87381=
0000039500
87413
0000041600
87422=
0000043800
87504
0000052100
87527
0000058300
87571=
0000052300
87882
0000062600
88058=
0000060700
89446
0000060700
90147
0000101700
915
SMIE01 EIDB 110000
AAXX 11001
03951 16/// /2405 10067 20047 30115 40142 50011 69911=
03953 17582 /1903 10050 20022 30109 40140 52016 60011 7018/ 81///
333 81/29=
03955 12482 62201 10034 20012 39943 40144 52015 69901 8383/
333 81816 83656 85358 92600=
03956 15981 /2803 10029 20013 30053 40132 52020 60001=
03962 11468 72004 10042 20038 30107 40131 53010 60011 78086 85302
333 82918 84628=
03963 17465 /2706 10046 20027 30089 40118 53013 69971 78186 87///
333 81/13 83/25 87/56 91313 90402 91307 91525 90407 91528=
03966 17960 /2004 10014 20007 30031 40126 52010 69901 7034/ 81///
333 81/63=
03967 11572 12204 10018 20013 30004 40120 52011 69931 70161 81500
333 81625=
03969 11582 12504 10018 20013 30012 40118 51011 69911 70161 81500
333 81625=
03973 16/// /2704 10011 20006 39858 40118 52011 69931=
03976 17468 /2603 10041 20021 30096 40108 50016 60041 76186 87///
333 84/16 87/50=
03980 17680 /1905 10029 21000 30063 40089 53003 69961 7038/ 87///
333 87/35=
0000064700
916
USAA01 NZCM 110000
TTAA 61001 89664
99997 00056 18501 00512 ///// ///// 92601 07158 18518
85255 11341 17017 70716 21114 15006 50514 33959 24513
40666 44759 24520 30855 51765 24023 25975 45585 24514
20124 43786 24513 15318 43586 26009 10592 41586 23504
88320 52361 23026
77999
31313 48008 82219=

0000069700
87361=
0000011200
87368
0000009600
87371
0000035800
87378
0000037300
87381=
0000039500
87413
0000041600
87422
0000043700
87443
0000045800
87466=
0000054200
87540
0000048000
87567=
0000050200
87876
0000058500
88026=
0000062800
89450
0000056600
90153
0000208000
917
SMPL40 SOWR 110000
AAXX 11001
12100 11/// /2606 10055 20026 30100 40101 52010 60001 7////
  =
12115 11465 82711 10058 20046 30069 40083 52015 60031 72582 885//
  333 91117 93003=
12125 16/// /2707 10057 20042 30027 40077 52013 60021
  333 93002 =
12135 11475 72905 10055 20046 30063 40066 51017 69931 70381 872//
  333 87813 91010 91114 93093=
12185 11468 82906 10037 20031 39925 40060 51018 69941 78022 889//
  333 91113 93094=
12200 11470 32303 10045 20032 30112 40119 51008 69901 70281 83500
  333 91109 93097=
12215 11/// /2605 10048 20025 39937 40108 52012 60021 7////
  =
12272 11470 82604 10038 20037 39908 40076 52015 60041 72582 885//
  333 88611 91009 91113 93004=
12285 11/// /9904 10050 20035 39966 40082 52019 60001 761//=
12345 12580 72308 10053 20010 39989 40134 52011 60001 875//
  333 91117 93000=
12360 11580 72606 10057 20020 39979 40113 52016 69921 70182 875//
  333 91014 91117 93092=
12385 11565 72606 10051 20024 39907 40097 52017 69901 78082 879//
  333 91014 91116 93097=
12415 12684 32804 10037 21001 30015 40170 51003 60001 82504
  333 91114 93000=
12455 12782 72607 10045 21009 39911 40159 51006 60001 875//
  333 91114 93000=
12497 11570 82709 10053 20010 39880 40100 52013 69941 70282 885//
  333 91014 91115 93094=
12500 12584 72604 10036 21014 39759 40182 53002 60001 875//
  333 91111 93000=
12510 11/90 93219 11064 21069 38309 48436 50002 69921 74943
  333 93092=
12520 12584 72605 10034 21004 39748 40188 53001 60001 875//
  333 81694 87648 91112 93000=
12550 36/98 /2503 10044 21018 39805 40167 52003
  333 93000 =
12575 12670 82604 10061 21018 39914 40171 52005 60001 885//
  333 91010 91111 93000=
12585 12682 82507 10049 21001 39877 40146 51010 60001 885//
  333 91012 91115 93000=
12595 NIL=
12600 12680 72406 10039 21025 39699 40188 51002 60001 875//
  333 91114 93000=
12650 11/08 83007 11093 21101 37947 48467 51002 69911 74173 885//
  333 91120 93091=
12660 12576 72102 10042 21029 39820 40184 52006 60001 875//
  333 93000=
0000109900
918
SMPL50 SOWR 110000
AAXX 11001
12210 36/// /2404 10049 20023 30045 40109 52007
  333 93000 =
12230 12475 82704 10054 20017 30032 40123 52010 60001 875//
  333 91110 93000=
12310 12680 62505 10054 20013 30085 40152 52003 60001 865//
  333 91112 93000=
12399 11564 82707 10053 20025 39916 40084 52018 69941 78082 889//
  333 91012 91114 93094=
12418 12780 72406 10050 20011 30042 40157 51007 60001 875//
  333 93000=
12469 12682 82508 10046 20000 39910 40143 52007 60001 885//
  333 91114 93000=
12488 11583 82706 10059 20000 39968 40123 52015 69901 70282 885//
  333 91011 91113 93097=
12540 12675 22304 10011 21011 39933 40192 50001 60001 81530
  333 93000=
12560 12698 72305 10043 21011 39836 40181 50002 60001 875//
  333 91111 93000=
12625 12584 72703 10007 21055 39175 42792 50005 60001 875//
  333 91110 93000=
12670 12783 72605 10047 21029 39769 40175 52008 60001 875//
  333 91114 93000=
12690 12580 82405 10029 21017 39664 40182 52011 60001 885//
  333 91111 93000=
12695 11/// /2606 10055 21023 39819 40160 52012 60001 700//=
00000000