0000070800
040
SNVD22 KWNB 111900 RRP
BBXX
46229 11191 99438 71246 46/// ///// 1//// 91919 22200 00093 11309
20907 328// 41305 70043=
46213 11191 99403 71247 46/// ///// 1//// 91924 22200 00121 11106
20904 330// 41104 70031=
46231 11191 99327 71174 46/// ///// 1//// 91914 22200 00160 11403
20802 328// 41402 70014=
46218 11191 99345 71208 46/// ///// 1//// 91929 22200 00135 11506
20903 331// 41505 70028=
46224 11191 99332 71175 46/// ///// 1//// 91912 22200 00158 11102
20901 326// 41101 70009=
46214 11191 99379 71235 46/// ///// 1//// 91926 22200 00113 11406
21002 331// 41405 70028=
46221 11191 99339 71186 46/// ///// 1//// 91925 22200 00158 11402
20901 327// 41401 70009=
0000023300
041
SNVE15 KWNB 111900 RRE
BBXX
51204 11191 99213 71581 46/// ///// 1//// 91921 22200 00249 11302
20502 330// 41301 70011=
51201 11191 99217 71581 46/// ///// 1//// 91922 22200 00246 11206
21005 336// 41204 70031=
0000073500
042
SNVD01 PANC 111900 RRD
BBXX
V7JX5 11193 99591 10040
41/// 33524 10050 20028 40210 52020 7//00 83///
22243 04090 21204 32727 41107 5//// 6//// 80040 ICE /////=
WACW 11194 99468 71475
41598 82540 10110 2009/ 40159 52049 7//22 8872/
22243 00120 20705 327// 41212 5//// 6//// 80100 ICE /////=
C6TZ9 11194 99270 50477
41/// /0309 10260 20232 40140 54/// 7//// 8////
222// 0//// 2//// 3//// 4//// 5//// 6//// 80240 ICE /////=
WXY6216 11194 99448 70874
43/// /2911 00/// 11004 21028 49917 55011 7//// 8////
22200 0//// 2//// 3//// 4//// 5//// 6//// 81014 ICE /////=
C6TH9 11193 99089 51400
41899 20317 10280 2022/ 40120 55/// 7//// 82132
22200 00270 2//// 3//// 4//// 5//// 6//// 80240 ICE /////=
0000190500
043
UDEU02 EGRR 111941 RRA
AMDAR 1119
ASC EU0527   3551N 01430E 111920 F008 PS142 201/008 TB/ S031=
ASC EU0527   3551N 01429E 111920 F014 PS137 213/005 TB/ S031=
ASC EU0527   3551N 01428E 111920 F022 PS130 203/011 TB/ S031=
ASC EU0527   3551N 01427E 111920 F030 PS120 215/014 TB/ S031=
ASC EU0527   3551N 01426E 111920 F035 PS102 212/015 TB/ S031=
ASC EU0527   3551N 01425E 111920 F039 PS087 211/016 TB/ S031=
ASC EU0527   3551N 01424E 111920 F042 PS077 203/016 TB/ S031=
ASC EU0527   3551N 01423E 111920 F048 PS082 232/015 TB/ S031=
ASC EU0527   3551N 01422E 111920 F058 PS090 249/014 TB/ S031=
ASC EU0527   3551N 01420E 111920 F079 PS067 259/013 TB/ S031=
ASC EU0527   3553N 01418E 111921 F101 PS020 285/016 TB/ S031=
ASC EU0527   3556N 01416E 111921 F112 MS002 271/014 TB/ S031=
ASC EU0527   3559N 01413E 111921 F128 MS037 291/014 TB/ S031=
ASC EU0527   3602N 01411E 111922 F144 MS085 259/018 TB/ S031=
ASC EU0527   3605N 01408E 111922 F162 MS132 258/019 TB/ S031=
ASC EU0527   3609N 01405E 111922 F177 MS157 261/026 TB/ S031=
ASC EU0527   3612N 01402E 111923 F193 MS192 263/029 TB/ S031=
ASC EU0527   3615N 01359E 111923 F207 MS232 265/027 TB/ S031=
ASC EU0527   3619N 01356E 111923 F220 MS265 259/033 TB/ S031=
ASC EU0527   3622N 01354E 111924 F237 MS302 252/045 TB/ S031=
ASC EU0527   3626N 01351E 111924 F248 MS332 250/043 TB/ S031=
ASC EU0527   3629N 01347E 111924 F259 MS360 250/039 TB/ S031=
ASC EU0527   3633N 01344E 111925 F266 MS382 249/040 TB/ S031=
ASC EU0527   3636N 01341E 111925 F274 MS400 247/038 TB/ S031=
ASC EU0527   3640N 01338E 111925 F283 MS427 247/039 TB/ S031=
ASC EU0527   3644N 01334E 111926 F292 MS455 249/040 TB/ S031=
ASC EU0527   3648N 01331E 111926 F300 MS475 245/040 TB/ S031=
ASC EU0527   3652N 01328E 111926 F307 MS492 243/043 TB/ S031=
ASC EU0527   3656N 01324E 111927 F314 MS507 241/044 TB/ S031=
0000076100
044
SAUR30 UKMS 111930
METAR UKBB 111930Z 26004MPS CAVOK 03/M01 Q1013
         88290060 NOSIG=
METAR UKHH 111930Z 28007MPS 9999 BKN044 04/00 Q1009
         25290050  TEMPO 24008G17MPS=
METAR UKOO 111930Z 00000MPS CAVOK 01/M02 Q1020
         16190058 NOSIG=
METAR UKDE 111930Z 28007MPS 9999 BKN050 05/M01 Q1015
         20220367 NOSIG=
METAR UKDD 111930Z 28006MPS 230V300 9999 FEW033CB
         BKN050 04/01 Q1014 26090070 NOSIG=
METAR UKFF 111930Z 21004MPS CAVOK 04/02 Q1021
         19010070 NOSIG=
METAR UKLL 111930Z 19003MPS CAVOK 01/M03 Q1015
         31CLRD80  NOSIG=
METAR UKCC 111930Z 28007MPS CAVOK 03/02 Q1012
         26190055 NOSIG=
METAR UKDR 111930Z 25004MPS CAVOK 03/M01 Q1016
         1809//65 NOSIG=
0000010000
045
SAAJ31 UBBB 111930
METAR UBBB 111930Z 33020G30KT CAVOK 08/04 Q1016 88CLRD70
NOSIG=
0000010700
046
SAAJ31 UBBB 111930
METAR UBBG 111930Z 30018KT 9999 SCT100 09/M02 Q1015
R30/CLRD70 NOSIG =
0000011900
047
SAAJ31 UBBB 111930 CCA
METAR COR UBBB 111930Z 33020G30KT CAVOK 07/04 Q1016 WBLALL
RWY 88CLRD70 NOSIG=
0000028000
048
SAGG31 UGTB 111930
METAR UGTB 111930Z 30029G43KT 9999 FEW030 07/01 Q1018 R31L/CLRD80
NOSIG=
METAR UGKO 111930Z 27009KT 9999 SCT030CB OVC049 08/06 Q1022
      R25/29//50 NOSIG=
METAR UGSB 111930Z 24013KT 9999 -RA BKN024 10/07 Q1026 R13/CLRD70
      NOSIG=
0000015600
049
SMVA01 KWBC 111800 RRH
BBXX
ZSAF 11184 99493 30150 41297 82728 10045 20020 49908 57012 7//22
 887// 22242 00059 20706 325// 40812 80035=
0000068500
050
UDNA02 EGRR 111941
AMDAR 1119
DES EU2535   2546N 08027W 111931 F026 PS202 165/024 TB/ S031=
DES EU2535   2546N 08026W 111931 F023 PS207 161/024 TB/ S031=
DES EU2535   2546N 08026W 111931 F020 PS212 165/022 TB/ S031=
DES EU2535   2546N 08025W 111931 F017 PS222 164/024 TB/ S031=
DES EU2535   2546N 08024W 111932 F014 PS232 172/024 TB/ S031=
DES EU2535   2546N 08023W 111932 F011 PS242 160/023 TB/ S031=
DES EU2535   2547N 08022W 111932 F009 PS247 165/024 TB/ S031=
DES EU2535   2547N 08021W 111933 F006 PS252 157/025 TB/ S031=
DES EU2535   2547N 08020W 111933 F003 PS260 165/025 TB/ S031=
DES EU2535   2547N 08019W 111934 F000 PS270 160/025 TB/ S031=
0000024100
051
UDEU02 EGRR 111941 RRB
AMDAR 1119
LVR EU0056   5737N 01232E 111922 F400 MS465 284/036 TB/ S031=
LVR EU0056   5817N 01349E 111929 F400 MS465 287/033 TB/ S031=
LVR EU0056   5855N 01508E 111936 F250 MS447 242/050 TB/ S031=
0000068900
052
UDEU02 EGRR 111941 RRC
AMDAR 1118
LVR EU9622   5246N 00121E 111833 F380 MS533 288/054 TB/ S031=
LVR EU9622   5330N 00217E 111840 F380 MS509 280/058 TB/ S031=
LVR EU9622   5418N 00259E 111847 F380 MS479 297/056 TB/ S031=
LVR EU9622   5506N 00341E 111854 F380 MS485 302/049 TB/ S031=
LVR EU9622   5556N 00408E 111901 F380 MS498 290/036 TB/ S031=
LVR EU9622   5648N 00421E 111908 F380 MS478 291/040 TB/ S031=
LVR EU9622   5740N 00434E 111915 F380 MS473 284/026 TB/ S031=
LVR EU9622   5833N 00448E 111922 F380 MS460 269/030 TB/ S031=
LVR EU9622   5926N 00502E 111929 F380 MS455 272/026 TB/ S031=
LVR EU9622   6019N 00518E 111936 F380 MS455 284/021 TB/ S031=
0000008600
053
SAIN90 VEBS 111900
METAR VEBS 111900Z 08003KT 1500 BR NSC 19/17 Q1016=
0000080500
054
SMIY60 LIIB 111800
AAXX 11184
16064 NIL=
16099 11530 70000 10084 20078 30194 40222 56004 60002 71022 83530 333
      10092 83630 85356=
16125 NIL=
16197 11060 81606 10104 20082 39733 40205 53003 60002 70242 8483/ 333
      10110 55300 82801 84615 85357=
16204 NIL=
16214 NIL=
16216 11457 60206 10068 20062 39850 40224 54000 60002 71022 81131 333
      10155 81816=
16234 NIL=
16243 11558 70702 10114 20098 30186 40218 53004 60002 71022 84110 333
      10148 84830 83458=
16244 11930 70502 10082 20058 39995 40221 53003 60002 71022 83015 333
      10116 83459=
16316 12960 52803 10076 21022 39181 42835 51001 60002 80006 333 10108
      95000=
16332 11957 41202 10104 20096 30158 40223 53003 60002 71011 80002 333
      10150=
16541 NIL=
16542 NIL=
0000068400
055
SMGR20 LGAT 111800
AAXX 11184
16643 12560 40000 10108 20086 30238 40238 54000 60002 82205 333
      10156 82825 84068 90730 91105 555 10000 40108=
16648 11558 50000 10076 20065 30143 40233 53006 60002 71022 81105
      333 10134 81825 85068 90730 91106 555 10000 40010 30000
      10090 20090 3//// 40088 50104 60124 70000 77Y// 7/Y//=
16650 12560 59903 10114 20086 30227 40228 52007 60002 83560 333
      10140 83625 85358 90730 91105 555 10000 40106 30000 10100
      20100 30110 40104 50110 60130 70000 77/// 7/Y//=
16684 NIL=
16732 12462 60306 10138 20105 30215 40227 53006 60002 83206 333
      10158 83818 86069 90730 91112 555 10000 40114=
0000101100
056
SMGR21 LGAT 111800
AAXX 11184
16614 36/// /9902 10049 20026 39453 40245 54000 333 10101
      90730 91104 555 10000 41002=
16627 12960 29903 10076 20028 30229 40233 53003 60002 80001 333
      10142 90730 91107 555 10000 40014 30000 10066 20080 30090
      40096 50088 6//// 40000 47703 44225 50000 50056=
16667 12560 40000 10104 20079 30223 40229 53005 60002 81106 333 10160 81820 84068 90730 91104 555 10000 40104 30000 20104 40000 47702 44240 50000 50092=
16675 36/// /2603 10079 20077 30216 40230 52009 333 10156
      90730 91104 555 10000 40064=
16710 12960 40000 10064 20056 39467 40250 52008 60002 80002 333
      10149 90730 91109 555 10000 40010 30000 10074 20076 30076
      40072 50072 60096=
16723 NIL=
16738 36/// /2601 10126 20105 30031 40232 52008 333 10164
      90730 91104 555 10000 40124=
16746 12560 62610 10142 20104 30047 40230 52005 60002 82201 333
      10168 82820 86068 90730 91118 555 10000 40136 40000 47564
      44180 50000 50122=
0000007900
057
UPIN90 VIDD 111800
PPAA 61171 42182 55292 33510 00514 77999=

0000010300
058
UGIN90 VIDD 111800
PPBB 61171 42182 90012 00000 32009 33510 90379 34512 03510 11513=

0000017000
059
SMGR20 LGAT 111800 RRA
AAXX 11184
16684 12460 70000 10128 20095 30203 40213 52005 60002 87600 333
      10142 81712 86625 90730 91108 555 10000 40124=
00000000