0000011000
080
UANT01 CWAO 111939
ARP AFR010 5145N03345W 1939 F370 MS54 286/27 KT
FGZCL QXT AOE 111939 J47A
0000011000
081
UANT01 CWAO 111939
ARP DAL29 5001N04353W 1939 F330 MS59 301/70 KT
N172DZ QXT AOW 111939 F32A
0000010800
082
SPIN90 VILK 111930
SPECI VILK 111930Z VRB02KT 1000 R27/1900  BR BKN020 BKN100 13/12
Q1019=
0000008900
083
SAIN34 VOMM 111930
METAR VOBL 111930Z VRB03KT 6000 NSC 21/18 Q1018 NOSIG=
0000009500
084
SAIN90 VOHS 111940
METAR VOHS 111940Z 12005KT 5000 HZ SCT020 18/14 Q1017 NOSIG=
0000011900
085
SAIN32 VIDP 111930
METAR VIDP 111930Z 24003KT 0500 R28/P2000 R29/1300 FG NSC 09/08
      Q1021 NOSIG=
0000009200
086
SAIN90 VOMM 111940
METAR VOMM 111940Z 00000KT 6000 SCT020 22/19 Q1014 NOSIG=
0000011100
087
UANT01 CWAO 111939
ARP UAL933 5305N02801W 1939 F340 MS50 167/28 KT
N224UA DDL XXN 111939 F41A
0000011000
088
UANT01 CWAO 111939
ARP BAW115 5255N03157W 1939 F360 MS53 240/16 KT
GSTBG QXT AOE 111939 F19A
0000010700
089
UANT01 CWAO 111939
ARP THY5 6440N05709W 1939 F370 MS60 259/8 KT
TCJNB QXT AOW 111939 J50A
0000011100
090
UANT01 CWAO 111939
ARP GEC8165 5826N06107W 1935 F350 MS59 283/86 KT
DALFB QXT AME 111939 F02A
0000011000
091
UANT01 CWAO 111939
ARP BAW189 5026N04549W 1939 F400 MS56 298/70 KT
GZBJC QXT AOW 111939 L30A
0000011100
092
UANT01 CWAO 111939
ARP IBE6253 4639N04506W 1939 F350 MS59 309/64 KT
ECLUB QXT AME 111939 J77A
0000011100
093
UANT01 CWAO 111939
ARP AFR6724 6033N02811W 1939 F320 MS60 214/80 KT
FGIUA DDL KEF 111939 F25A
0000011100
094
UANT01 CWAO 111940
ARP GEC8165 5826N06107W 1935 F350 MS59 283/86 KT
DALFB QXT AME 111940 F02A
0000014400
095
SNVF20 EHDB 111900 RRB
BBXX
A8VD9 11194 99366 70005 41/97 89903 10150 20116 40200 54000 70522
8/7// 22263 04157 20101 80130=
0000013600
096
SNVD17 CWHX 111900
BBXX
44137 11191 99423 70620 46/// /1610 10103 40215 57041
22200 00077 10302 70010 333 91211 =

0000017000
097
SOVI10 KWAL 111941
B110070A 011194101"P9751095 B\P~W@@d0ekS1@pC???EKEH>@o?3@XD@@|4DU5Dn6bJ9Gs<BH2?????@"??? iTSfLAHANALAGAGAG:AMPTEMP 33.80C  45-0NN 219E
0000023100
098
SNVD20 KWNB 111900 RRP
BBXX
44060 11191 99413 70721 46/// /1710 10096 20094 40040 91915 22200
00043 333 91213 555 11118 22134=
44022 11191 99409 70737 46/// /1810 10123 20120 91930 333 91215
555 11124 22139=
0000020300
099
SOBR10 KWAL 111941
BAB00078?011194111":BUB 2 #1       M   0.399   0.379   0.359 :RAD 1 #1   0.304   0.294   0.:64   0.299 :PRS 1 #1  -0.807  -0.804  -0.802  -0.796 :BL 11.61  32-0NN 219E
00000000