0000019700
800
SNVF01 KWBC 111600 RRJ
BBXX
DBFC 11161 99544 10136 46/// /2408 10053 20040 40051 57023 22230
 00054=
DBFX 11161 99539 10087 46/// /2906 10065 20051 40097 52026 22220
 00066=
0000034500
801
SNVD01 KWBC 111700 RRS
BBXX
42887 11171 99282 70885 46/// /2813 10237 20194 91720 22200 10504
 70019 555 11111 22120=
42392 11171 99272 70900 46/// ///// 1//// 91720 22200 10402 70011=
42375 11171 99285 70883 46/// /2212 1//// 91720 22200 10402 70011
 555 11097 22105=
42369 11171 99272 70903 46/// /2301 1//// 91720=
0000011200
802
SNAU03 AMMC 111900 RRE
AAXX 11194
95481 45/// /0805 10247 20082 30079 40122 53007 91930=


0000045900
803
SNVA01 KWBC 111900 RRB
BBXX
DBBH 11191 99173 30115 41/97 /1811 10191 20174 40142 52014 7////
 22241 04187=
V7AB6 11194 99154 30684 41697 51414 10260 2023/ 40190 54000 7//21
 85/// 22273 00270 20403 318// 4//// 5//// 6//// 80240 ICE 0////
 ANIL KUMAR DHAR MASTER M.V.LIBERTY DESIRE CALL SIGN V7AB6=
V7AB6 11194 99154 30684 41697 51414 10260 2023/ 40190 54000 7//21
 85/// 22273 00270 20403 318// 4//// 5//// 6//// 80240 ICE 0////=
0000038200
804
SNVB01 KWBC 111900 RRA
BBXX
JGQH 11194 99299 11370 46/// /3111 10134 20031 40247 57013 8////
 22200 00193 10603 70013=
JPBN 11194 99254 11287 46/// /1111 10185 20085 40233 56016 8////
 22271 00236 10602 70012=
52211 11191 99153 11457 46/// ///// 1//// 91918 22200 00281 10906
 20905 300// 41102 70028=
MINFR09 1119/ 99354 11221 46/// ///// 40302 57002=
0000325300
805
SNVD01 KWBC 111900 RRI
BBXX
VQHO7 11194 99106 70616 41398 70904 10272 20219 40131 56024 78082
 877// 22200 00267 20100 30000 80236=
46204 11191 99514 71288 46/// /0406 10051 49864 52043 22200 0////
 11005 70026 333 91207=
46131 11191 99499 71250 46/// /1613 10074 49853 57018 22200 00079
 10503 70013 333 91216=
46145 11191 99544 71324 46/// /3111 10058 49878 52037 22200 0////
 1//// 70/// 333 912//=
46147 11191 99518 71312 46/// /3108 10070 49884 52067 22200 00074
 10907 70034 333 91210=
51206 11191 99198 71550 46/// ///// 1//// 91903 22200 00247 10905
 20904 310// 41102 70024=
46215 11191 99352 71209 46/// ///// 1//// 91905 22200 00146 11305
 21003 327// 41304 70023=
41029 11191 99328 70796 46/// /2307 1//// 40097 91900 333 91208
 555 11076 22081=
46114 11191 99367 71223 46/// ///// 1//// 91908 22200 00126 11507
 21003 330// 41506 70033=
46219 11191 99332 71199 46/// ///// 1//// 91910 22200 00143 11305
 21003 329// 41304 70026=
44099 11191 99369 70757 46/// ///// 1//// 91918 22200 00073 10903
 20903 312// 41101 70017=
46211 11191 99469 71242 46/// ///// 1//// 91913 22200 00087 11011
 21009 325// 41105 70054=
41113 11191 99284 70805 46/// ///// 1//// 91910 22200 00189 10802
 20802 70011=
41115 11191 99184 70673 46/// ///// 1//// 91911 22200 10802 20802
 336// 41301 70010=
44095 11191 99358 70753 46/// ///// 1//// 91917 22200 00108 10906
 20905 312// 41101 70028=
46216 11191 99343 71198 46/// ///// 1//// 91842 22200 00152 11402
 21002 326// 41402 70012=
46223 11191 99335 71178 46/// ///// 1//// 91848 22200 00158 11302
 21001 328// 41301 70008=
46222 11191 99336 71183 46/// ///// 1//// 91832 22200 00157 11302
 20901 327// 41301 70009=
46225 11191 99329 71174 46/// ///// 1//// 91842 22200 00157 11302
 20701 329// 41302 70010=
46243 11191 99462 71241 46/// ///// 1//// 91916 22200 00088 11010
 21008 324// 41105 70049=
46251 11191 99338 71196 46/// ///// 1//// 91909 22200 00154 11303
 21002 327// 41302 70014=
46217 11191 99342 71194 46/// ///// 1//// 91909 22200 00155 11302
 21002 327// 41302 70011=
41108 11191 99337 70780 46/// ///// 1//// 91859 22200 00118 10704
 20704 70021=
44100 11191 99363 70756 46/// ///// 1//// 91904 22200 00091 10904
 20904 312// 41101 70020=
46207 11191 99509 71299 46/// /3407 10064 49869 52064 22200 00078
 11006 70032 333 91209=
44059 11191 99368 70763 46/// /2107 10215 40027 91910 333 91212
 555 11084 22092=
44058 11191 99376 70763 46/// /1806 10104 40022 91910 333 91207
 555 11072 22078=
46126 11191 99540 71666 46/// /2407 10048 49793 58006 91900 22200
 00048 1//00 70002 333 91211 555 11078 22085=
C6FR5 11193 99171 70626 41898 40722 10230 2//// 40170 54/// 7//22
 8426/ 22200 00270 20302 308// 40402 5//// 6//// 8//// ICE 0/0//=
44063 11191 99390 70764 46/// /1907 10078 49986 91910 333 91209
 555 11086 22093=
44062 11191 99386 70764 46/// /1708 10063 40009 91910 333 91209
 555 11087 22094=
44064 11191 99370 70760 46/// /2009 1//// 40037 91910 333 91212
 555 11099 22108=
44042 11191 99380 70763 46/// /1505 10098 40004 91910 333 91206
 555 11060 22065=
44041 11191 99372 70768 46/// /2006 10169 91910 333 91208 555
 11069 22075=
0000369200
806
SNVF01 KWBC 111900 RRC
BBXX
DBKV 11191 99543 10102 46/// /2806 10047 20021 40099 52026 22210
 00064=
DBFH 11191 99539 10087 46/// /2906 10063 20027 40124 52024 22240
 00057=
DBFR 11191 99535 10052 46/// /3014 10069 20021 40172 52015 22213
 00076=
DBJM 11191 99542 10079 46/// /3014 10042 21133 40126 52024 22250
 00074=
DBEA 11191 99540 10085 46/// /2917 10067 20021 40518 52021 22221
 00065=
DBEB 11191 99538 10082 41/// /2818 10055 20019 40121 52018 22221
 00063=
DBBI 11191 99535 10099 46/// /2705 10053 20035 40111 52036 22260
 00050=
DBBU 11191 99541 10140 46/// /2512 10050 20050 40044 57017 22271
 00058=
DBBT 11191 99439 10308 46/// /2407 10081 20051 40220 52003 22270
 00094=
DBBA 11191 99541 10121 46/// ///// 10048 20021 40082 52025 22220
 00065=
DBBC 11191 99536 10086 46/// /2810 10057 20024 40132 52028 22240
 00063=
9HA2950 11194 99466 70077 41498 41222 10118 20077 40175 57003
 70211 84100 22253 00130 20402 325// 41206 80098=
62170 11194 99514 10020 46/98 /2815 10078 20015 40233 52018 22200
 00104 10501 70005=
62304 11194 99512 10018 46/98 /3314 10076 40235 53018 22200 10501
 70004=
62303 11194 99516 70051 46/// /1510 10079 20025 40223 22200 10803
 70017=
VRKZ9 11194 99330 70192 41597 72124 10185 20151 40174 52015 72566
 8/373 22263 00195 2//// 80165=
62095 11194 99529 70156 46/// ///// 40013 58051 22200 00100 10810
 70049=
62103 11194 99499 70029 46/99 /1007 10091 20034 40233 50008 22200
 00112 11003 70013=
62304 11194 99512 10018 46/98 /3314 10076 40235 52017 22200 10501
 70004=
64046 11194 99605 70042 46/// /2926 10069 20014 40077 333 90710
 91133=
62050 11194 99500 70044 46/// /1413 10097 20051 40227 22200 10502
 70011=
AMOUK09 1119/ 99517 10017 46/// ///// 10066 20065 40234=
62305 11194 99504 70000 46/// /3008 10084 20022 40241 52015 22200
 00109 10701 70006=
AMOUK42 1119/ 99506 70025 46/// ///// 10070 20026 40236=
AMOUK26 1119/ 99504 10005 46/// ///// 10080 20028 40235=
AMOUK33 1119/ 99555 10084 46/// ///// 10061 20022 40081=
AMOUK34 1119/ 99519 10042 46/// ///// 10077 20027 40210=
AMOUK16 1119/ 99523 70063 46/// ///// 10076 20024 40209=
AMOUK29 1119/ 99514 70070 46/// ///// 1//// 2//// 40201=
AMOUK43 1119/ 99546 70059 46/// ///// 10034 20015 40205=
AMOUK31 1119/ 99557 70058 46/// ///// 10065 20042 40179=
AMOUK14 1119/ 99533 70062 46/// ///// 10051 21005 40205=
AMOUK04 1119/ 99535 70030 46/// ///// 10056 20003 40207=
AMOUK32 1119/ 99559 70047 46/// ///// 10051 20026 40184=
AMOUK45 11194 99509 70014 46/// /3002 10042 20017 40231 22200
 402310106=
AMOUK24 1119/ 99570 70061 46/// ///// 10071 20003 40160=
AMOUK23 1119/ 99579 70036 46/// ///// 10042 20004 40146=
AMOUK30 1119/ 99561 70062 46/// ///// 10062 20017 40178=
AMOUK03 1119/ 99537 70003 46/// ///// 10047 20011 40215=
AMOUK44 1119/ 99540 70029 46/// ///// 1//// 2//// 40210=
AMOUK36 1119/ 99581 70030 46/// ///// 10049 20012 40140=
AMOUK02 1119/ 99533 70062 46/// ///// 10046 21003 40213=
AMOUK06 1119/ 99508 10009 46/// ///// 10099 20039 40235=
AMOUK28 1119/ 99578 70066 46/// ///// 1//// 2//// 40149=
AMOUK13 1119/ 99519 10013 46/// ///// 10050 20023 40231=
AMOUK11 1119/ 99533 70062 46/// ///// 10050 21004=
62143 11194 99577 10018 47598 /3113 10064 20009 40123 52021 700//
 22200 10607 70036=
AMOUK05 1119/ 99520 10041 46/// ///// 10074 20033 40205=
62116 11194 99576 10011 47998 /3028 10060 20000 40110 52019 700//
 22200 10707 70036=
62118 11194 99577 10009 47597 /2928 10058 20012 40112 52019 700//
 22200 10707 70036=
62155 11194 99577 10007 47599 /2929 10058 21006 40120 52019 700//
 22200 10607 70036=
0000375600
807
SNVF01 KWBC 111900 RRD
BBXX
62104 11194 99574 10013 47598 /3028 10070 20013 40112 52023 700//
 22200=
62164 11194 99572 10008 47598 /2823 10066 20010 40128 52021 700//
 22200 00083 10607 70035=
62146 11194 99572 10021 47598 /2608 10062 20009 40123 51027 700//
 22200 10707 70035=
62140 11194 99573 10013 46/// ///30 10064 20001 40116 51023 22200=
62122 11194 99573 10016 47598 /3131 10062 20007 40109 51020 700//
 22200 10707 70037=
62153 11194 99573 10020 47598 /2818 40109 51021 700// 22200 10707
 70035=
62133 11194 99571 10009 46/// /3026 40128 52022 22200 10607 70034=
62154 11194 99564 10022 46/// /3124 10062 21009 40129 52026 22200=
62165 11194 99540 10011 47599 /2713 10061 20011 40204 52021 700//
 22200 10604 70022=
62152 11194 99570 10018 47998 /3020 10065 20002 40131 52023 700//
 22200 10608 70038=
62119 11194 99570 10019 47597 /3129 10061 20004 40130 52023 700//
 22200 10708 70038=
62127 11194 99540 10007 47999 ///// 10058 20000 40203 52022 700//
 22200 10504 70018=
62142 11194 99530 10021 47998 /3019 10063 20020 40209 52026 700//
 22200 10503 70016=
62131 11194 99539 10012 46/// /2814 10063 20013 40201 52022 22200=
62132 11194 99564 10020 46/// /3226 10066 21012 40152 52026 22200=
62120 11194 99564 10021 47598 /3126 10060 21000 40134 52027 700//
 22200=
62145 11194 99531 10028 47598 /2919 10062 20004 40214 52020 700//
 22200 10504 70020=
62144 11194 99534 10017 47998 /2818 10062 20010 40215 52019 700//
 22200 10503 70017=
62150 11194 99536 10007 47999 /2717 10059 20010 40220 53020 700//
 22200 10503 70013=
62121 11194 99535 10027 46/// ///// 10064 20017 40194 52021 22200=
62149 11194 99537 10011 47999 /2721 10066 20010 40207 52020 700//
 22200 10504 70018=
62148 11194 99536 10015 46/// ///// 22200=
62123 11194 99563 10022 47698 /3129 10068 21002 40133 52025 700//
 22200 1//07 70037=
62111 11194 99580 70003 46/// /3031 10058 20011 40133 52017 22200
 10607 70035=
63108 11194 99608 10017 47/97 /3129 10056 20021 49999 56006 700//
 22200 10708 70042=
63055 11194 99606 10016 47497 /2833 10057 20027 40013 56003 762//
 22200 10708 70041=
62112 11194 99584 70002 47598 /2914 10062 20015 40105 52022 700//
 22200=
PJAI 11194 99581 70014 47998 /2721 10059 21000 40124 52022 700//
 22200=
63106 11194 99610 10017 46/// /2827 10048 56006 22200=
63107 11194 99611 10017 46/// /2924 10048 49983 56007 22200=
63112 11194 99611 10010 47498 /3031 10053 20026 49980 53001 700//
 22200 10708 70041=
63113 11194 99610 10017 46/// /2826 10056 20026 40005 51011 22200
 10708 70041=
63105 11194 99610 10017 47498 /2927 10086 20012 49981 57007 700//
 22200=
63103 11194 99612 10011 46/// ///// 10057 20031 49983 57001 22200
 10709 70046=
63101 11194 99612 10009 46/// /2824 10058 20026 49982 53001 22200
 10810 70048=
63115 11194 99616 10013 47498 /0413 10066 20021 49998 53014 700//
 22200 10808 70038=
63104 11194 99612 10016 47497 /3209 10046 20022 49984 55002 700//
 22200 10708 70038=
63114 11194 99613 10017 47299 /0714 10026 20026 49987 55000 700//
 22200=
63117 11194 99613 10011 47398 /0412 49989 53007 700// 22200=
64041 11194 99607 70026 47597 /3034 40053 52022 700// 22200 10909
 70047=
62102 11194 99579 10018 46/// /2930 10064 20015 40094 52020 22200
 10707 70036=
62117 11194 99579 10000 47497 /2925 10050 20005 40109 52024 700//
 22200 10607 70033=
MWYG6 11194 99603 70040 47698 /2827 40090 52026 700// 22200=
62134 11194 99580 10014 47596 /3026 10060 20017 40104 52020 700//
 22200 10707 70035=
ZQSD5 11194 99583 10008 47598 ///// 10059 20014 40093 52019 700//
 22200 1//09 70045=
62114 11194 99583 10000 46/// /2926 10054 20013 40102 52022 22200=
0000124400
808
SNVF01 KWBC 111900 RRE
BBXX
62107 11194 99501 70061 46/// /1419 10095 20051 40213 50005 22200
 00106 11004 70022=
62129 11194 99584 10003 46/// /2926 10054 21000 40101 52018 22200=
62113 11194 99584 10002 47998 /3026 10055 20005 40102 50014 700//
 22200=
62128 11194 99587 10014 47998 /2830 10057 20010 40089 52021 700//
 22200 10607 70034=
MQSY9 11194 99593 10015 47598 /2836 10071 21003 51014 700// 22200=
63057 11194 99592 10015 47997 /2727 10063 20004 40056 52017 700//
 22200 10708 70039=
62163 11194 99475 70084 46/// /1518 10112 20078 40173 58003 22200
 00121 10806 70030=
62105 11194 99550 70132 46/// /1525 10094 20043 40101 57024 22200
 00108 10707 70037 333 90710 91134=
63110 11194 99595 10015 47698 /2931 10069 21006 40053 51013 700//
 22200 10607 70035=
62001 11194 99452 70050 46/// /1114 10120 20080 40193 55007 22200
 00128 10906 70029=
63109 11194 99596 10015 46/// /3037 10068 20001 40038 51009 22200=
63056 11194 99597 10016 47698 /2933 10068 21010 40036 51009 700//
 22200 10707 70037=
64045 11194 99591 70117 46/// /2313 10068 20008 40127 52011 22200
 00096 10807 70035=
62301 11194 99524 70047 46/// /1611 10072 20023 40219 52005 22200
 00097 10602 70012=
0000013600
809
SNVD17 CWVR 111900
BBXX
46185 11191 99524 71298 46/// /3204 10068 49873 52047
22200 00073 1//// 70/// 333 91206 =

0000011200
810
SNAU03 AMMC 111900 RRF
AAXX 11194
95666 45/// /1410 10200 20132 30152 40168 53002 91930=


0000011200
811
SNAU03 AMMC 111900 CCA
AAXX 11194
94653 45/// /1410 10164 20145 30159 40177 55000 91930=


0000011200
812
SNAU44 AMMC 111900 CCG
AAXX 11194
94682 45/// /2008 10158 20117 30155 40190 53011 91930=


0000075100
813
SMAA01 KARS 111800 RRA
AAXX 1118/
89869 46/// ///// 11064 39901 4//// 5//// 91830=
89869 46/// ///// 11058 39901 4//// 5//// 91840=
89866 46/// ///// 10006 39860 4//// 5//// 91830=
89866 46/// ///// 10004 39861 4//// 5//// 91840=
89329 46/// ///// 11085 38793 4//// 5//// 91820=
89329 46/// ///// 11085 38793 4//// 5//// 91830=
89799 46/// ///// 11176 4//// 5//// 91830=
89799 46/// ///// 11176 4//// 5//// 91840=
89314 46/// ///// 11133 38268 4//// 5//// 91830=
89314 46/// ///// 11133 38268 4//// 5//// 91840=
89828 46/// ///// 11335 36536 4//// 5//// 91840=
89108 46/// ///// 11193 37011 4//// 5//// 91830=
89879 46/// ///// 10025 39884 4//// 5//// 91830=
89879 46/// ///// 10025 39883 4//// 5//// 91840=
0000178900
814
SZPS01 AMMC 111930
CREX++
T000103 A001 D01021 D06025++
-0204190 14737360 56130 2014 01 11 19 23 3025 11 07 00 01
00949 0117 00955 0122 00951 0117 00954 0120 00960 0125 00958 0122+
-0669280 15640860 56363 2014 01 11 19 23 //// 11 07 00 01
00587 -0028 00587 -0028 00585 -0031 00585 -0031 00580 -0036 00583 -0033+
-0942890 15995560 56670 2014 01 11 19 23 3035 11 07 00 01
00814 -0043 00821 -0037 00817 -0043 00818 -0043 00821 -0041 00822 -0041+
-1072080 16580190 57131 2014 01 11 19 23 //// 11 07 00 01
02603 2053 01812 1264 02144 1597 03103 2557 03257 2712 03350 2807+
-1551560 16718860 57210 2014 01 11 19 23 //// 11 07 00 01
00753 -0109 00757 -0103 00741 -0117 00755 -0101 00735 -0118 00740 -0111+
-1775690 16830030 57320 2014 01 11 19 23 3013 11 07 00 01
00910 -0072 00907 -0073 00909 -0069 00911 -0065 00914 -0060 00917 -0055+
-4397330 16861610 65180 2014 01 11 19 23 2878 11 07 00 01
02538 0494 02565 0519 02791 0742 02580 0528 02496 0441 02780 0723+
-2120470 -15978530 65980 2014 01 11 19 23 3008 11 07 00 01
00574 0001 00553 -0019 00576 0006 00564 -0005 00574 0006 00566 0000+
-2113810 -17518140 66600 2014 01 11 19 23 //// 11 07 00 01
00987 0093 00984 0093 00975 0087 00974 0089 00963 0082 00966 0088+
-1382670 -17176110 66840 2014 01 11 19 23 3007 11 07 00 01
00590 0064 00580 0056 00578 0056 00584 0064 00582 0064 00575 0059+
-1813250 17842750 67050 2014 01 11 19 23 3028 11 07 00 01
01107 0082 01105 0084 01099 0081 01094 0079 01092 0081 01089 0081+
-1760530 17743810 67070 2014 01 11 19 23 3028 11 07 00 01
01161 0035 01158 0036 01156 0038 01151 0037 01147 0037 ///// ////+
-0850250 17919500 67440 2014 01 11 19 23 3027 11 07 00 01
01682 0007 01686 0013 01681 0011 01677 0009 01674 0008 01672 0009++
7777

0000191700
815
SZAU01 AMMC 111930
CREX++
T000103 A001 D01021 D06025++
-1927750 14705860 59260 2014 01 11 19 23 3020 11 07 00 01
02532 0162 02549 0170 02558 0171 02566 0170 02575 0172 02585 0173+
-2316110 15079000 59670 2014 01 11 19 23 2997 11 07 00 01
03835 0135 03838 0128 03848 0129 03855 0127 03863 0126 03878 0132+
-3447330 15091170 60420 2014 01 11 19 23 2945 11 07 00 01
01489 -0038 01491 -0036 01490 -0037 01491 -0036 01496 -0032 01495 -0033+
-4105000 14591500 60910 2014 01 11 19 23 2888 11 07 00 01
02250 -0101 02260 -0101 02252 -0118 02256 -0125 02265 -0124 02279 -0119+
-4254640 14793080 61170 2014 01 11 19 23 2903 11 07 00 01
01547 0017 01550 0020 01547 0018 01551 0022 01555 0026 01558 0030+
-3834390 14161360 61410 2014 01 11 19 23 2908 11 07 00 01
00616 0028 00620 0033 00616 0030 00603 0018 00588 0004 00557 -0026+
-3214890 13364170 62000 2014 01 11 19 23 2953 11 07 00 01
00661 0035 00658 0037 00653 0035 00650 0036 00644 0034 00640 0033+
-3387080 12189720 62080 2014 01 11 19 23 2948 11 07 00 01
00532 -0007 00529 -0009 00537 0000 00534 -0002 00540 0005 00536 0003+
-3182560 11573860 62237 2014 01 11 19 23 2970 11 07 00 01
00454 0030 00446 0023 00440 0018 00443 0021 00448 0027 00460 0039+
-2422000 11339750 62385 2014 01 11 19 23 //// 11 07 00 01
00678 -0105 00638 -0145 00693 -0091 00717 -0068 00688 -0097 00671 -0115+
-2181670 11419110 62430 2014 01 11 19 23 //// 11 07 00 01
01233 -0082 01227 -0088 01232 -0084 01226 -0091 01232 -0086 01232 -0087+
-1800080 12221830 62650 2014 01 11 19 23 3043 11 07 00 01
04499 0036 04507 0037 04514 0035 04523 0038 04531 0041 04538 0036+
-1247190 13084580 63230 2014 01 11 19 23 3048 11 07 00 01
04578 0040 04567 0035 04556 0036 04547 0034 04538 0033 04528 0033+
-1386000 13641580 63511 2014 01 11 19 23 3042 11 07 00 01
01370 0118 01367 0116 01364 0114 01366 0116 01365 0116 01360 0112++
7777

0000034500
816
SZIO01 AMMC 111930
CREX++
T000103 A001 D01021 D06025++
-1211670 09689190 46280 2014 01 11 19 23 3018 11 07 00 01
00835 0006 00837 0008 00835 0005 00834 0004 00832 0002 00828 -0003+
-1042940 10566940 46290 2014 01 11 19 23 //// 11 07 00 01
00745 -0027 00788 0015 00737 -0038 00806 0030 00740 -0038 00790 0010++
7777

0000046700
817
SZPA01 AMMC 111930
CREX++
T000103 A001 D01021 D06025++
0136250 17293000 67590 2014 01 11 19 23 3013 11 07 00 01
01299 0042 01303 0048 01300 0047 01293 0042 01288 0039 01293 0045+
0710610 17137250 67680 2014 01 11 19 23 3013 11 07 00 01
00750 0077 00750 0078 00751 0080 00748 0077 00751 0081 00748 0079+
0698060 15820000 67950 2014 01 11 19 23 3020 11 07 00 01
00638 0077 00635 0074 00636 0075 00637 0076 00639 0078 00637 0076++
7777

0000011000
818
UANT99 KDDL 111928
ARP BAW203 5307N02330W 1928 F380 MS53 188/61 KT
GVIIF QXT AOE 111928 F10A
0000011100
819
UANT99 KDDL 111929
ARP UAL122 5605N02433W 1929 F390 MS58 190/57 KT
N18112 DDL IG1 111929 F80A
00000000