0000009500
840
SAIN90 VIJP 111930
METAR VIJP 111930Z 00000KT 2000 FU FEW100 09/03 Q1021 NOSIG=
0000008900
841
SPIN90 VIAR 111930
SPECI VIAR 111930Z 00000KT 0500 FG NSC 05/05 Q1021=

0000046700
842
SZPA01 AMMC 111933
CREX++
T000103 A001 D01021 D06025++
0136250 17293000 67590 2014 01 11 19 26 3013 11 07 00 01
01293 0042 01288 0039 01293 0045 01294 0048 01286 0042 01283 0040+
0710610 17137250 67680 2014 01 11 19 26 3013 11 07 00 01
00748 0077 00751 0081 00748 0079 00750 0082 00748 0080 00749 0082+
0698060 15820000 67950 2014 01 11 19 26 3020 11 07 00 01
00637 0076 00639 0078 00637 0076 00637 0075 00635 0073 00636 0074++
7777

0000034600
843
SZIO01 AMMC 111933
CREX++
T000103 A001 D01021 D06025++
-1211670 09689190 46280 2014 01 11 19 26 3018 11 07 00 01
00834 0004 00832 0002 00828 -0003 00829 -0002 00831 0000 00832 0001+
-1042940 10566940 46290 2014 01 11 19 26 //// 11 07 00 01
00806 0030 00740 -0038 00790 0010 00751 -0030 00801 0018 00742 -0042++
7777

0000192100
844
SZAU01 AMMC 111933
CREX++
T000103 A001 D01021 D06025++
-1927750 14705860 59260 2014 01 11 19 26 3020 11 07 00 01
02566 0170 02575 0172 02585 0173 02593 0173 02602 0173 02611 0174+
-2316110 15079000 59670 2014 01 11 19 26 2997 11 07 00 01
03855 0127 03863 0126 03878 0132 03887 0132 03902 0137 03910 0137+
-3447330 15091170 60420 2014 01 11 19 26 2945 11 07 00 01
01491 -0036 01496 -0032 01495 -0033 01488 -0040 01480 -0048 01473 -0055+
-4105000 14591500 60910 2014 01 11 19 26 2888 11 07 00 01
02256 -0125 02265 -0124 02279 -0119 02292 -0116 02282 -0135 02293 -0133+
-4254640 14793080 61170 2014 01 11 19 26 2903 11 07 00 01
01551 0022 01555 0026 01558 0030 01559 0032 01560 0033 01565 0038+
-3834390 14161360 61410 2014 01 11 19 26 2908 11 07 00 01
00603 0018 00588 0004 00557 -0026 00577 -0005 00577 -0004 00573 -0008+
-3214890 13364170 62000 2014 01 11 19 26 2953 11 07 00 01
00650 0036 00644 0034 00640 0033 00635 0032 00631 0032 00628 0032+
-3387080 12189720 62080 2014 01 11 19 26 2948 11 07 00 01
00534 -0002 00540 0005 00536 0003 00528 -0004 00520 -0011 00516 -0014+
-3182560 11573860 62237 2014 01 11 19 26 2970 11 07 00 01
00443 0021 00448 0027 00460 0039 00475 0055 00491 0072 00507 0088+
-2422000 11339750 62385 2014 01 11 19 26 //// 11 07 00 01
00717 -0068 00688 -0097 00671 -0115 00726 -0061 00685 -0102 00698 -0090+
-2181670 11419110 62430 2014 01 11 19 26 //// 11 07 00 01
01226 -0091 01232 -0086 01232 -0087 01230 -0090 01235 -0086 01232 -0089+
-1800080 12221830 62650 2014 01 11 19 26 3043 11 07 00 01
04523 0038 04531 0041 04538 0036 04547 0040 04555 0041 04563 0041+
-1247190 13084580 63230 2014 01 11 19 26 3048 11 07 00 01
04547 0034 04538 0033 04528 0033 04518 0032 04510 0031 04499 0030+
-1386000 13641580 63511 2014 01 11 19 26 3040 11 07 00 01
01366 0116 01365 0116 01360 0112 01360 0113 01356 0110 01357 0111++
7777

0000179000
845
SZPS01 AMMC 111933
CREX++
T000103 A001 D01021 D06025++
-0204190 14737360 56130 2014 01 11 19 26 3025 11 07 00 01
00954 0120 00960 0125 00958 0122 00958 0122 00954 0117 00957 0119+
-0669280 15640860 56363 2014 01 11 19 26 //// 11 07 00 01
00585 -0031 00580 -0036 00583 -0033 00583 -0034 00579 -0038 00580 -0037+
-0942890 15995560 56670 2014 01 11 19 26 3035 11 07 00 01
00818 -0043 00821 -0041 00822 -0041 00823 -0041 00826 -0039 00823 -0043+
-1072080 16580190 57131 2014 01 11 19 26 //// 11 07 00 01
03103 2557 03257 2712 03350 2807 03019 2477 03002 2461 03026 2486+
-1551560 16718860 57210 2014 01 11 19 26 //// 11 07 00 01
00755 -0101 00735 -0118 00740 -0111 00740 -0109 00742 -0105 00736 -0109+
-1775690 16830030 57320 2014 01 11 19 26 3013 11 07 00 01
00911 -0065 00914 -0060 00917 -0055 00922 -0048 00927 -0042 00933 -0033+
-4397330 16861610 65180 2014 01 11 19 26 2878 11 07 00 01
02580 0528 02496 0441 02780 0723 02639 0579 02653 0590 02554 0489+
-2120470 -15978530 65980 2014 01 11 19 26 3008 11 07 00 01
00564 -0005 00574 0006 00566 0000 00541 -0024 00555 -0009 00572 0010+
-2113810 -17518140 66600 2014 01 11 19 26 //// 11 07 00 01
00974 0089 00963 0082 00966 0088 00967 0092 00962 0090 00958 0089+
-1382670 -17176110 66840 2014 01 11 19 26 3007 11 07 00 01
00584 0064 00582 0064 00575 0059 00572 0058 00565 0052 00569 0058+
-1813250 17842750 67050 2014 01 11 19 26 3028 11 07 00 01
01094 0079 01092 0081 01089 0081 01089 0084 01084 0083 01080 0082+
-1760530 17743810 67070 2014 01 11 19 26 3028 11 07 00 01
01151 0037 01147 0037 01144 0038 01141 0038 01137 0039 ///// ////+
-0850250 17919500 67440 2014 01 11 19 26 3027 11 07 00 01
01677 0009 01674 0008 01672 0009 01671 0011 01672 0014 01670 0014++
7777

0000011100
846
UANT99 KDDL 111931
ARP AAL90P 5623N03702W 1931 F370 MS56 219/22 KT
N396AN DDL XXW 111931 F42A
0000011100
847
UANT99 KDDL 111931
ARP N803AG 6013N03434W 1931 F410 MS58 205/39 KT
N803AG QXT AOW 111931 A34A
0000011200
848
UANT99 KDDL 111931
ARP CFC4022 5247N02657W 1931 F280 MS44 147/49 KT
77702A QXT AOE 111931 F18A
0000013000
849
SMOS01 LOWM 111800 CCA
AAXX 11181
11146 32785 62808 11065 21100 36948 47056 55001 86071 333 11049 86356
91120=
0000004000
850
SMGL06 EKMI 111800
NIL =
0000024100
851
SOAT10 KWAL 111933
FA8005BC 011193337 OT12 ID:KN-BASS-01 DT:2014 01 11 19 31
:RD -3153 -3170 -3181 -3159 -3158 -3186 -3166 -3179 -3170 -3177
:PR 0502 0490 0473 0483 0532 0509 0474 0485 0485 0513
:B 13.7V
 46+1NN 219E
0000009400
852
UAFI61 EFHK 111927
ARS MED ACFT MOD ICE OBS AT 1920Z EFHK
BTN 3000FT/6000FT=
0000010900
853
UANT01 CWAO 111932
ARP DAL3 5401N01619W 1932 F360 MS64 218/89 KT
N827MH QXT AOE 111932 F22A
0000008400
854
UAPA01 KWBC 111933
ARP ASA851 4530N 12643W 1922 F350 MS47 271/070KT=
0000013600
855
SNVD17 CWVR 111900
BBXX
46206 11191 99488 71260 46/// /2110 10082 49860 54000
22200 00078 11012 70059 333 91213 =

0000013600
856
SNVD17 CWVR 111900
BBXX
46205 11191 99542 71343 46/// /3112 10055 49910 52049
22200 00074 10707 70033 333 91215 =

0000013600
857
SNVD17 CWVR 111900
BBXX
46132 11191 99497 71279 46/// /2302 10085 49838 52026
22200 00076 11009 70044 333 91204 =

0000052100
858
SAIR31 OIII 111930
METAR OIAW 111930Z NIL=
METAR OIFM 111930Z 09004KT 0400 -SN FG SCT035 OVC090 M00/M00
Q1018 A3007=
METAR OIII 111930Z 28008KT 2000 BR SCT035 OVC100 01/M01 Q1019
 A3009 NOSIG=
METAR OIKB 111930Z 27004KT 6000 FEW025CB SCT030 OVC090 14/11 Q1021
A3015=
METAR OIKK 111930Z NIL=
METAR OIMM 111930Z 34004KT 8000 SCT030 OVC080 04/M08 Q1016 A3001=
METAR OISS 111930Z 00000KT 2000-FZ SCT020 FEW030CB OVC080 04/04
Q1018 A3009=
METAR OITT 111930Z NIL=
METAR OIZH 111930Z NIL=
0000036300
859
SAIR32 OIII 111930
METAR OIAA 111930Z NIL=
METAR OIBK 111930Z NIL=
METAR OICC 111930Z NIL=
METAR OIGG 111930Z NIL=
METAR OIIE 111930Z NIL=
METAR OITR 111930Z 26004KT 2500 BR FEW035 M12/M14 Q1020=
METAR OIYY 111930Z 00000KT 3000 -RA BR FEW030CB SCT035 OVC100
           01/01 Q1020=
METAR OAKN 111930Z NIL=
METAR OAKB 111930Z NIL=
00000000