0000011200
442
UANT01 CWAO 111956
ARP QTR8135 5101N01948W 1956 F320 MS54 188/109 KT
A7BFE QXT AOE 111956 F18A
0000011000
443
UANT01 CWAO 111956
ARP UAL959 6200N04944W 1956 F320 MS58 262/8 KT
N651UA QXS UAK 111956 F04A
0000011000
444
UANT01 CWAO 111956
ARP DLH424 5045N04107W 1956 F350 MS57 295/56 KT
DAIGU QXT AOW 111956 J33A
0000033700
445
UAPA01 KWBC 111957
ARP PAL102 38N 170E 1947 F360 MS43 265/120KT=
ARP UAL297 3106N 13208W 1945 F280 MS36 260/035KT=
ARP ASA875 39N 144W 1947 F350 MS59 313/030KT=
ARP DAL1197 2600N 14610W 1946 F340 MS47 241/064KT=
ARP ASA851 4406N 12959W 1946 F350 MS50 291/083KT=
ARP ASA805 3352N 12847W 1953 F350 MS51 268/071KT=
0000016000
446
SSVX13 LFVW 111958
ZZYY 17572 11014 2000/ 537940 171735 6110/
11119 40166 52011
22219 00208
444 20100 11014 1856/ 50101 80110 80000 9/015=
0000009300
447
SACY42 EGRR 111950
METAR LCRA 111950Z 29004KT 9999 FEW025 SCT045 15/09 Q1023=
0000014400
448
SNVF51 EGRR 111900
BBXX
62095 11194 99529 70156 46/// /1532 10104 20063 40013 58046 22200
00100 10810 70049 333 90710 91144=
0000012800
449
SNVF51 EGRR 112000
BBXX
62301 11204 99524 70047 46/// /1813 10071 20030 40223 53004 22200
00097 10602 70011=
0000014400
450
SNVF51 EGRR 112000
BBXX
62105 11204 99550 70132 46/// /1428 10095 20049 40089 58027 22200
00108 10707 70037 333 90710 91137=
0000012800
451
SNVF51 EGRR 112000
BBXX
64045 11204 99591 70117 46/// /2310 10071 20008 40129 51010 22200
00097 10907 70036=
0000014400
452
SNVF51 EGRR 112000
BBXX
62163 11204 99475 70084 46/// /1521 10111 20078 40167 58011 22200
00121 10706 70028 333 90710 91127=
0000012800
453
SNVF51 EGRR 112000
BBXX
62001 11204 99452 70050 46/// /1213 10122 20086 40195 55001 22200
00128 11005 70027=
0000014400
454
SNVF51 EGRR 112000
BBXX
62107 11204 99501 70061 46/// /1520 10097 20060 40211 50001 22200
00105 11004 70021 333 90710 91126=
0000012800
455
SNVF51 EGRR 112000
BBXX
62304 11204 99512 10018 46/98 /3112 10075 20022 40243 52020 22200
00100 10501 70005=
0000012800
456
SNVF51 EGRR 112000
BBXX
62103 11204 99499 70029 46/99 /1210 10092 20032 40239 52011 22200
00112 11102 70012=
0000012800
457
SNVF51 EGRR 112000
BBXX
62305 11204 99504 70000 46/// /3206 10084 20021 40243 52014 22200
00108 10801 70007=
0000006100
458
AAUK99 EGRR 112000
Socket stay alive message.
0000012200
459
FCUK53 EGRR 112000
TAF EGQL 111942Z 1121/1206 25005KT CAVOK PROB30 TEMPO 1203/1206 2000
    MIFG SCT003=
0000013900
460
FCUK54 EGRR 112000
TAF EGXC 111927Z 1121/1206 24004KT CAVOK BECMG 1121/1123 4000 BR
    PROB40 1123/1206 0500 FZFG VV///=
0000003800
461
FCUK55 EGRR 112000
NIL
00000000