0000029100
100
SXXX32 EUMS 111933 RRX
269375AE
OT12 ID:FI-STAN-07 DT:2014 01 11 19 23
:RAD /1 07561 07554 07557 07552 07554 07555 07551 07555 07562 07565 07570 07573 07575 07582 07583 07583 07582 07576 07573 07571 07564 07562 07553 07546 07538(07535 07536 07534 07533 /////
:BAT 13.3V
0000039700
101
SXXX32 EUMS 111933 RRX
16590056
:PRS 1 /1 2712 2717 2719 2721 2730 2730 2729 2732 2732 2732 2727 2731 :RAD 1 /1 6960 6965 6967 6970 6981 6977 6977 6981 6977 6981 6974 6979 6975 6976 6974 6972 6972 6973 :ENC 6 /6 5195 5193 5193 5203 5188 5191 5211 5204 5183 5186 :ENB 6 /6 5194 5191 5192 5200 5186 5190 5206 5200 5181 5185 :SW1 33 /60 0 :SW2 60 /60 0 :BAT 5 /6 12.4 :NAME 16590056
0000045000
102
SXXX32 EUMS 111933 RRX
32D8A2BE
:PRS 1 /1 2157 2159 2154 2162 2159 2160 2162 2165 2163 2161 2171 2161 2168 2165 2163 2172 2170 2168 2167 2168 2169 2172 2175 2173 2172 2177 2175 2175 2178 2169 :RAD 1 /3 7745 7747 7750 7751 7754 7756 7759 7760 7758 7759 7761 7759 7759 7756 7755 7749 7739 7737 7743 7744 :ENC 3 /5 5166 5169 5171 5174 5178 5180 5181 5176 5172 5164 5161 5161 :SW1 33 /60 0 :SW2 3 /60 0 :BAT 14 /15 12.4 :NAME 32D8A2BE /
0000045200
103
SXXX32 EUMS 111933 RRX
22856700
:PRS 1 /1 2904 2904 2905 2906 2898 2895 2897 2898 2896 2893 2893 2891 2887 2886 2886 2886 2884 2885 2883 2882 2884 2880 2880 2876 2873 2873 2871 2867 2868 2871 :RAD 1 /3 6398 6393 6391 6387 6383 6380 6377 6374 6371 6371 6369 6363 6362 6363 6363 6363 6361 6360 6357 6358 :ENC 3 /5 4592 4586 4579 4575 4566 4563 4559 4552 4554 4553 4553 4544 :SW1 33 /60 60 :SW2 3 /60 60 :BAT 14 /15 12.4 :NAME 22856700 /
0000048200
104
SXXX32 EUMS 111934 RRX
262AD2C2
OT12 ID:PK-ORMA-10 DT:2014 01 11 19 33
:PRS /1 07762 07747 07757 07755 07741 07731 07729 07737 07746 07726 07739 07736 07733 07728 07722 07726 07718 07718 07725 07728 07707 07723 07715 07700 07712 07729 07715 07704 07718 07713
:RAD /1 ///// ///// ///// ///// ///// ///// ///// ///// ///// ///// ///// ///// ///// ///// ///// ///// ///// ///// ///// ///// ///// ///// ///// ///// ///// ///// ///// ///// ///// /////
:BAT 12.5V/
0000233600
105
SMPH20 RPMM 111800
AAXX 11181
98132 32465 20905 10215 20167 40238 5/009 82100 333
56299 82818 =
98133 NIL=
98222 31975 10201 10223 20149 40149 58005 70544 80001
333 56999 81080 =
98233 31570 80000 10202 20184 40184 58007 70544 8357/
333 56999 83620 88358 =
98324 31462 60703 10242 20189 40136 58012 70544 81160
333 56999 81816 86358 =
98327 31665 73402 10198 20160 39979 40156 57024 70544
81108 333 56/// 81842 87280 =
98334 NIL=
98425 32560 63602 10235 20183 40143 57017 83870 333
56999 83620 86358 =
98426 31562 10504 10235 20200 40130 58022 70544 81100
333 56999 81830 =
98427 11475 80204 10232 20192 39950 40130 58021 69901
70382 8327/ 333 56199 83818 88357 =
98428 32458 70203 10243 20206 40142 58016 82468 333
56/// 82618 85275 =
98432 31568 40404 10232 20186 40147 58019 70544 82202
333 56199 82820 =
98433 31460 70304 10187 20158 39418 40146 58012 74022
84870 333 56999 84612 87457 =
98434 32465 80603 20240 30212 30151 40159 58025 8487/
333 56199 84817 88358 =
98435 32470 80402 10252 20207 40170 56004 8487/ 333
561// 84618 88458 =
98442 NIL=
98446 32465 80403 10244 20210 30086 40132 56020 84207
333 56199 84818 88270 =
98447 NIL=
98538 31466 73605 10252 20213 30128 40133 58012 71522
83268 333 56119 83811 84357 87272 =
98546 11450 80405 10250 20245 30100 40108 57018 60121
78086 8497/ 333 56999 84915 88458 =
98548 11465 80000 10240 20235 30120 40126 58009 60141
72162 85807 333 56299 85816 88272 =
98553 11464 80000 10250 20242 30099 40103 57012 60271
72582 8497/ 333 56999 81916 83618 88358 =
98558 31456 80613 10266 20251 30032 40100 57015 71622
8457/ 333 56199 84615 88357 =
98642 11456 83202 10243 20236 30079 40088 57025 60141
76066 8552/ 333 56999 85615 88457 =
98644 11460 80202 10235 20228 30060 40089 57018 60071
76166 8452/ 333 56999 84616 88457 =
98648 11454 80000 10232 20230 30020 40102 57010 60151
78084 8492/ 333 56999 84912 88457 =
98746 11458 81702 10233 20211 40078 58028 60061 78086
8592/ 333 56999 85918 88348 =
98751 11460 80000 10196 20187 39391 40066 58010 60071
76166 8491/ 333 56999 84915 88456 =
98752 11450 80000 10227 20223 40084 58025 60201 76166
8452/ 333 56999 84615 88457 =
98851 11468 80000 10220 20206 39912 40062 58018 60031
70262 8227/ 333 56999 82818 88358=
0000065100
106
SXXX32 EUMS 111934 RRX
18D74682
OT12 ID:ZA-GOUG-13 DT:2014 01 11 19 33
:RAD /3 21188 01263 21197 21157 21187 01480 21202 21191 03673 21196 21201 21221 18436 01769 21185 21173 12299 01738 21127 21164 21185 21176 21163 19703 21155 21177 01776 20779 21192 21186 19698 21157 21166 20800 16107 21175 21175 21177 21181 21187 21186 01659 21207 21181 21169 21191 01710 21162 21169 16233 21171 21180 21170 21171 21186 01590 21186 21171 21161 21185 21378 21151 01606 21171 21156 21183 17332 15977 01896 21160 21159 21174 20091 21169 21169 15975 02004 14424 21165 02099 21173 02029 21183 21176 21155 12163 21169 21170 18377 21159
:BAT 14.2V
0000141400
107
SMAR20 OEJD 111800
AAXX 11184
40582 42960 43008 10118 20076 40210 51019 84030
  333 55300 00000 10152 20000 30000 41155 51310 60000 55407 40000
84360 90401 91009 91119 91215 91309=
41150 NIL=
41168 NIL=
41170 41562 69901 10168 20127 30205 40218 70162 81530 333
10191 58012 81620 86362=
41176 NIL=
41184 NIL=
41194 NIL=
41196 NIL=
41198 NIL=
41210
37960 70205 10163 20151 30062 40209 52013 761//
333 10128 20231=
41216 41460 83606 10181 20154 30211 40215 76066 8251/ 333 10228
      58011 82615 87459=
41217 NIL=
41218 NIL=
41226 NIL=
41244 36/// /0204 10181 20103 39810 47995
333 0E019 10219 59008=
41246 36/// /1403 10193 20123 30209 40213
333 0E020 10218 59021=
41254 NIL=
41256 32560 71302 10185 20090 30208 40218 81531 333 10221 59015
81630 84360 85070=
41258 36/// /1107 10204 20107 30207 40211
333 0E/// 10212 59017=
41268 NIL=
41312 NIL=
41314 32660 11305 10192 20125 39693 40201 81500
  333 10258 58001 81630=
41316 32560 51009 10230 20151 30165 40192 85500
  333 10268 58000 85625=
41404 42560 32803 10155 20046 37894 48554 83500 333 10246 58002
83630=
41407 NIL=
41431 42560 41103 10252 20224 30147 40160 81450 333 10294 58019
81630 83356=
41466 41558 32004 10173 20140 38592 48490 71044 81541 333 10268 58003 81620=
41477 NIL=
41480 42560 31307 10252 20185 30174 40177 83500 333 10287 58005
  83620=
0000021000
108
SMME20 OEJD 111800
AAXX 11181
40007 NIL=
40022 32565 21604 10160 20081 40221 51004 82400 222// 20000 333
      10194 82632=
40080 NIL=
40100 NIL=
40270 NIL=
40272 NIL=
40340 NIL=
0000053100
109
SMVB10 RJTD 111800
BBXX
JPBN    11184 99254 11287
41/98 11016 10184 20081 40234 58021 70211 81100
22272 00236 10602 20302 399// 4//02 70010=
JGQH    11184 99299 11370
41/98 23013 10132 20032 40252 56013 70211 82200
22241 00193 10703 20301 399// 4//02 70014=
JGQH    11184 99299 11370
41/98 23013 10132 20032 40252 56013 70211 82200
22241 00193 10703 20301 399// 4//02 70014=
JPBN    11184 99254 11287
41/98 11016 10184 20081 40234 58021 70211 81100
22272 00236 10602 20302 399// 4//02 70010=
0000098500
110
SMRA11 RUHB 111800
AAXX 11181
29998 42999 00000 11264 21276 38705 48550 52003=
30385 42999 20000 11397 21411 39807 40457 58005 80001=
30636 429// 80000 11300 21330 39751 40440 58004 80007=
30650 42984 80000 11339 21362 39182 40460 58006 8805/=
30664 42999 00000 11427 21456 39329 40508 58007=
30781 42999 00000 11410 21438 39895 40454 52015=
30777 42998 02702 11372 21395 39694 40460 52001=
30822 42998 71202 11137 21172 39751 40366 57003 80002=
30844 42999 80000 11279 21297 39351 40443 58007 80007=
30925 429// 50000 11182 21232 39361 40406 54000 80001=
31371 42999 03205 11264 21349 30007 40299 54000=
31388 42984 00000 11410 21432 39969 40277 53002=
31478 41999 60601 11400 21422 39024 40282 54000 77172 86020=
31532 42999 00000 11400 21428 39875 40275 53002=
31594 41997 23602 11369 21391 30074 40273 58001 70271 80001=
31624 NIL=
31655 42998 01704 11294 21331 30142 40195 53006=
31754 42999 00000 11382 21416 39664 40242 54000=
0000011100
111
SMMU01 VMMC 111800
AAXX 11184
45011 47959 /0206 10145 20132 40241 57003 70011
333 59002=

0000105400
112
SZOC40 AMMC 111837
DART 55012P 011183736

D$0 01/11/2014 13:05:41 1547.4670 S 15823.3406 E 041* 46

D$1I 01/11/2014 06:15:00 1534143 3272224 3272217 3272208 3272198  1* 32
D$1I 01/11/2014 07:15:00 1534143 3272185 3272171 3272155 3272138  1* 39
D$1I 01/11/2014 08:15:00 1534143 3272118 3272094 3272071 3272045  1* 34
D$1I 01/11/2014 09:15:00 1534143 3272019 3271994 3271966 3271935  1* 3E
D$1I 01/11/2014 10:15:00 1534143 3271910 3271883 3271856 3271829  2* 3F
D$1I 01/11/2014 11:15:00 1534143 3271807 3271786 3271767 3271752  1* 3E
D$1I 01/11/2014 12:15:00 1534143 3271740 3271729 3271723 3271720  1* 31
D$1I 01/11/2014 13:15:00 1534143 3271719 3271722 3271728 3271740  1* 3A
D$1I 01/11/2014 14:15:00 1534143 3271755 3271773 3271796 3271822  1* 3F
D$1I 01/11/2014 15:15:00 1534143 3271847 3271878 3271911 3271942  1* 30
D$1I 01/11/2014 16:15:00 1534143 3271973 3272008 3272043 3272076  1* 39
D$1I 01/11/2014 17:15:00 1534143 3272112 3272148 3272183 3272215  1* 3B
D$MI
BATT 01/11/2014 13:21:00 24:00:00
15.58 10.04 44.46
0000027500
113
SXHW11 KWAL 111837
15D142A4 011183702 :PRS 1 #1 1282 1294 1283 1284 1290 1292 1293 1290 1297 1293 :RAD 1 #1 6872 6875 6874 6873 6877 6880 6880 6880 6882 6881 :ENC 2 #5 4777 4784 4789 4788 :SW1 37 #60 0 :SW2 7 #60 37 :BAT 4 #5 13.0 :NAME 15D142A4  35+0NN 216W
0000013400
114
SNVD22 KWNB 111900
BBXX
46232 11191 99325 71174 46/// ///// 1//// 91833 22200 00162 11203
20802 328// 41202 70014=
0000012800
115
SMLB01 OLBA 111800 RRA
AAXX 11184
40103 32960 32206 10124 20047 40246 52006 80001 333 10181 83070 555
10183=
0000027500
116
SMRA20 RUHB 111800
AAXX 11181
30679 NIL=
30686 42999 02902 11304 21349 39945 40363 58001=
30961 42999 01502 11334 21363 39562 40466 58004=
30971 42999 02201 11339 21390 39323 40448 58008=
30978 42999 00000 11337 21372 39666 40449 52014=
31513 NIL=
0000143100
117
SMCI34 BABJ 111800
AAXX 11181
56671 33/// 91101 10050 21023 38225 52005 333 00200 10189=
57378 33/// 93601 10043 20015 30253 40337 52003 333 10062=
57426 31/16 91101 10051 20042 40330 57005 70040 333 00500
10073=
57476 33/25 92901 10027 20009 30290 40332 57002 333 10058=
57584 31/58 92001 10043 20031 40335 54000 71000 333 10050=
57598 12/55 92502 10041 20034 40326 52001 60011 333 10047=
57655 32/// 90000 10042 20016 40345 57004 333 10050=
57713 NIL=
57776 41/80 9//// 11035 21040 40337 57003 74964 333 10012=
58321 33/// 90000 10045 20036 40319 57002 333 10054=
58437 12/// 92903 11028 21032 38194 57005 60011 333 11009=
58445 NIL=
58556 11/07 93601 10056 20055 40287 57005 60021 74640 333
10063=
58569 12/30 93606 10062 20059 40268 57015 60011 333 10080=
58646 11/17 90000 10075 20068 40278 57005 60021 71000 333
10101=
58653 NIL=
58660 NIL=
58715 12/// 93402 10052 20043 30205 40308 52006 60041 333
10086=
58730 12/66 92903 10082 20057 40271 52001 69991 333 10117=
58731 11/17 92201 10063 20053 40275 57003 60011 71000 333
10112=
58754 33/// 92901 10107 20078 40262 57009 333 10127=
58911 32/55 92702 10095 20059 40266 52006 333 10198=
58931 33/// 92903 10053 20053 38404 57006 333 10102=
59254 32/// 91401 10118 20092 40262 52003 333 10183=
59632 33/// 93403 10125 20093 40252 52004 333 10205=
59855 32/44 93401 10186 20176 40209 57007 333 10240=
0000011100
118
UANT99 KDDL 111835
ARP UAL122 5524N03647W 1835 F390 MS57 242/26 KT
N18112 DDL IG1 111835 F67A
0000003900
119
ULNO12 ENMI 111800
NIL=
00000000