0000030500
685
SAUK53 EGRR 111400
METAR EGUL 111358Z AUTO 29011KT 9999 BKN034 07/03 A3007 RMK AO2 SLP186
      T00700032=
METAR EGUN 111358Z AUTO 29011KT 9999 BKN032 07/04 A3009 RMK AO2 SLP193
      T00700036=
METAR EGVA 111358Z AUTO 30005KT 9999 CLR 08/05 A3012 RMK AO2 SLP205
      T00770050=
0000195200
686
WTPS11 NFFN 111200 CCA
TROPICAL DISTURBANCE ADVISORY NUMBER A26 ISSUED FROM RSMC NADI
Jan 11/1409 UTC 2014 UTC.

SEVERE TROPICAL CYCLONE IAN 07F CENTRE 935HPA CAT 5 WAS LOCATED NEAR
21.5S 173.6W AT 111200 UTC.  POSITION GOOD BASED ON HR MTSAT EIR
IMAGERY AND PERIPHERAL SURFACE REPORTS.  CYCLONE MOVING SOUTH
SOUTHEAST AT ABOUT 11 KNOTS.  MAXIMUM 10-MINUTE AVERAGE WINDS NEAR
THE CENTRE ESTIMATED AT ABOUT 110 KNOTS.

EXPECT WINDS OVER 63 KNOTS WITHIN 15 NAUTICAL MILES OF CENTRE
EXPECT WINDS OVER 47 KNOTS WITHIN 30 NAUTICAL MILES OF CENTRE
EXPECT WINDS OVER 33 KNOTS WITHIN 100 NAUTICAL MILES OF CENTRE IN THE
EASTERN
             SEMICIRCLE.
             AND WITHIN 80 NAUTICAL MILES IN THE SOUTHWEST QUADRANT.

             AND WITHIN 50 NAUTICAL MILES IN THE NORTHWEST QUADRANT.

EYE WELL DEFINED. CLOUD TOPS COOLING PAST 6 HOURS. IAN LIES IN A LOW
TO MODERATE SHEARED ENVIRONMENT JUST SOUTH OF AN UPPER
NORTHWEST-SOUTHEAST ORIENTED RIDGE. OUTFLOW GOOD TO SOUTH BUT
RESTRICTED ELSEWHERE. SST AROUND 28 DEGREES CELCIUS. SYSTEM IS BEING
STEERED TO THE SOUTH-SOUTHEASTWARDS BY AN EASTWARD MOVING UPPER
TROUGH TO THE WEST. DVORAK ANALYSIS BASED ON EYE PATTERN WITH OW EYE
IN W SURROUNDING YIELDS DT OF 6.5, MET=6.5 AND PT=6.5. FT BASED ON DT
THUS, T6.5/6.5/S0.0/24HRS.

GLOBAL MODELS AGREE ON A SOUTH-SOUTHEASTWARD MOVEMENT WITH GRADUAL
WEAKENING AFTER 12 TO 18 HOURS.

FORECASTS :
AT 12 HRS VALID AT 120000 UTC 23.1S 173.0W MOV SSE AT 06 KT WITH 100
KT CLOSE TO CENTRE
AT 24 HRS VALID AT 121200 UTC 24.8S 172.7W MOV SSE AT 07 KT WITH 85
KT CLOSE TO CENTRE

OUTLOOK :
AT 36 HRS VALID AT 130000 UTC 26.4S 172.3W MOV SSE AT 07 KT WITH 70
KT CLOSE TO CENTRE
AT 48 HRS VALID AT 131200 UTC 28.2S 171.8W MOV SSE AT 08 KT WITH 55
KT CLOSE TO CENTRE


THE NEXT TROPICAL DISTURBANCE ADVISORY ON SEVERE TROPICAL CYCLONE IAN
WILL BE ISSUED AROUND 112000 UTC.
0000065900
687
SNUK41 EGRR 111400 RRA
AAXX 11144
03257 45974 /2710 10061 20001 30131 40172 5/013
  333 55310 20646 8//99=
03302 45969 /2908 10072 20022 30187 40201 52010
  333 55310 20845 8//99=
03414 45979 /2807 10066 20006 30110 40199 53012
  333 55310 20834 8//99=
03482 45579 /2715 10066 20032 30161 40187 53016
  333 85/26=
03502 45981 /2603 10068 20018 30045 40210 53008
  333 55310 20883 8//99=
03590 45583 /3012 10064 20024 30078 40189 52016
  333 55308 20701 81/21 83/25=
03808 45981 /1504 10094 20041 30107 40214 53001
  333 55308 20821 8//99=
03853 45970 /2707 10080 20027 30188 40212 53003
  333 55310 20960 8//99=
0000319400
688
SNUK42 EGRR 111400
AAXX 11144
03002 47571 /2826 10039 20010 39995 40014 53010 781//
  333 81/22 83/26 85/44 90710 91138=
03008 46/// /2825 10059 21005 39976 40049 53012
  333 90710 91137 91037=
03010 46/// /2829 10043 20000 40089 52024
  333 90710 91137=
03014 46/// /3031 40039 53014
  333 90710 91141=
03031 47260 /2815 10005 21003 39801 40136 53023 772//
  333 553// 20103 84/05 90710 91125=
03034 47781 /2609 10050 20012 30114 40128 51020 723//
  333 81/50=
03037 47668 /2305 10055 20020 30117 40140 53013 723//
  333 81/42=
03039 46/// /2826 11014 21019
  333 90710 91135=
03044 47980 /2820 10036 21002 30006 40106 52013 723//
  333 553// 20315 8//99 90710 91129=
03047 47381 /0801 10007 21007 39845 40155 52015 724//
  333 553// 20218 83/07 83/32=
03062 47684 /2111 10051 20011 30113 40118 51017 723//
  333 553// 21037 87/41=
03065 46/// /2625 11058 21067
  333 90710 91149 91038=
03068 42584 32615 10047 21002 30105 40113 51013 83930
  333 81920 83650 90710 91126=
03072 46/// /2927 11029 21067
  333 90710 91147 91041=
03080 45983 /2616 10049 21032 39947 40120 53016
  333 8//99 90710 91128 91026=
03088 45981 /2718 10048 21023 39954 40119 53016
  333 553// 20589 8//99 90710 91125=
03105 47570 /3105 10061 20030 30152 40169 51015 757//
  333 82/20 86/40=
03132 45980 /2611 10052 20031 30170 40183 53014
  333 8//99=
03144 45984 /2309 10041 20014 30104 40148 53016
  333 553// 20491 8//99=
03148 46/// /2818 11003 21022
  333 90710 91125=
03153 45482 /2810 10045 20023 30034 40175 53014
  333 553// 20637 81/10=
03155 46483 /2416 10035 20015 39861 40163 53016
  333 81/15=
03158 45984 /2614 10044 20003 30007 40145 53019
  333 553// 20631 8//99=
03210 46970 /2815 10051 20038 30030 40184 53013
  333 8//99=
03212 45/82 /3004 10050 20019 30086 40187 53018=
03214 45580 /2713 10065 20031 30165 40184 53013
  333 81/20=
03220 46484 ///// 10055 20027 30142 40177 53020
  333 82/13=
03224 45384 /2617 10025 20021 39819 40171 53020
  333 84/07 86/15=
03225 46682 /3005 10044 21006 39874 40184 53020
  333 553// 20723 83/31=
03226 45582 /2811 10046 20003 39897 40177 53019
  333 83/25 85/50=
03227 46/// /2727 11020 2////
  333 90710 91131=
03230 46983 /2607 10038 20004 39904 40164 53021
  333 8//99=
03238 45984 /2714 10037 20009 39983 40159 53024
  333 8//99=
03261 46679 /3305 10064 20007 30135 40176 53015
  333 81/34=
03265 45983 /2905 10064 21007 30143 40174 53014
  333 8//99=
03266 46982 /2906 10062 20003 30155 40173 53014
  333 8//99=
03275 45978 /2617 10051 20015 39965 40160 53016
  333 8//99=
03281 46/// /2711 10043 21001=
03901 45983 /1604 10031 20017 30093 40183 51009
  333 55308 20633 8//99=
03904 45980 /2205 10051 20019 30120 40181 51009
  333 8//99=
03907 45981 /2210 10052 20029 30169 40177 51013
  333 55310 20676 8//99=
03911 46980 /2503 10029 20010 39909 40189 51013
  333 8//99=
03915 46972 /1605 10041 20020 30099 40179 51011
  333 8//99=
03916 46981 /2705 10041 20003 39983 40176 51011
  333 553// 20693 8//99=
03923 45981 /2407 10039 20022 39986 40186 51011
  333 8//99=
0000389600
689
SNUK43 EGRR 111400
AAXX 11144
03301 46976 /2807 10068 20026 30128 40202 53009
  333 8//99=
03305 45983 /2211 10051 21008 39938 40205 53011
  333 8//99=
03313 46982 /2707 10063 20014 30104 40199 53008
  333 8//99=
03316 45968 /2814 10072 20038 30181 40192 53011
  333 8//99=
03318 46/// /3012 10066 20031=
03321 45982 /3007 10069 20017 30183 40196 53010
  333 55310 20817 8//99=
03330 45378 /3008 10036 20025 39828 40196 53016
  333 86/06 84/14=
03344 45983 /2808 10039 20011 39858 40181 53013
  333 8//99=
03346 46/// /2718 10040 20007
  333 90710 91126=
03351 45576 /2808 10072 20037 30152 40195 53015
  333 55307 20670 81/22 84/42=
03373 46588 /2811 10055 20020 30110 40180 53017
  333 82/21=
03379 42582 12912 10059 20010 30106 40184 52015 81100
  333 81825=
03382 45982 /2812 10059 20012 30162 40171 53017
  333 55310 20722 8//99=
03385 46972 /2610 10064 20024 30165 40175 53018
  333 8//99=
03391 42582 12914 10066 20009 30174 40182 52015 81500
  333 81620=
03392 46583 /2816 10057 20023 30177 40181 53017
  333 84/22=
03405 469// /2408 10075 20020 30095 40213 53010
  333 553// 20845 8//99=
03409 46/// /2105 10062 20013 39998 40201 53007
  333 55310 2////=
03410 46980 /2703 10053 21001 39760 40200 53014
  333 553// 20763 8//99=
03469 45584 /2910 10064 20029 30182 40185 53015
  333 553// 20587 81/21 85/25=
03488 45683 /2718 10061 20025 30150 40176 53016
  333 81/46=
03503 45581 /2704 10069 20023 30133 40211 53012
  333 81/22=
03520 46977 /2808 10070 20016 30083 40205 53009
  333 553// 20908 8//99=
03522 45979 /2808 10071 20010 30115 40209 53009
  333 8//99=
03529 45583 /2808 10075 20010 30165 40208 51012
  333 81/28=
03544 45584 /3010 10064 20009 30068 40201 53018
  333 553// 20760 84/26=
03560 45577 /2914 10068 20020 30092 40197 52015
  333 553// 20742 81/23=
03604 46982 /0403 10075 20009 30154 40208 53001
  333 8//99=
03605 46981 /3401 10077 20014 30202 40210 52004
  333 8//99=
03609 46/// /0403 10072 20034 30165 40219 53007=
03628 45976 /2607 10074 20025 30137 40210 53007
  333 55310 20934 8//99=
03647 46580 /2808 10062 20017 39944 40203 52014
  333 553// 20881 83/23=
03658 42582 12708 10076 20011 30136 40206 52011 81100
  333 81825=
03660 45481 /3006 10060 20006 39953 40204 53012
  333 82/19=
03672 42584 22910 10081 20018 30163 40204 52012 82100
  333 82827=
03680 46/// ///// 10063 20028 30045 40203 52014
  333 553// 20635=
03684 45583 /2910 10065 20019 30085 40193 52013
  333 81/24=
03693 45982 /2912 10085 20026 30192 40194 51012
  333 8//99=
03707 45982 /0302 10091 20002 30206 40213 53002
  333 8//99=
03710 46981 /3003 10076 20011 39786 40208 53004
  333 553// 20975 8//99=
03743 46982 /2705 10077 20021 30047 40210 53006
  333 8//99=
03749 46981 /3107 10078 20004 30097 40208 53005
  333 8//99=
03761 42582 12907 10075 20005 30061 40207 53008 81101
  333 55310 20939 81820=
03768 46582 /2807 10080 20023 30126 40206 53009
  333 81/27=
03769 45980 /2903 10087 20021 30122 40204 53011
  333 55309 20537 8//99=
03770 46/// ///// 10080 20014=
03781 45582 /3006 10072 20016 39995 40204 52011
  333 553// 20863 81/25=
03784 46/// /2808 10085 20023 30193 40197 52012=
03797 45981 /2812 10077 20020 30136 40197 51018
  333 55310 20885 8//99=
03823 45583 /2902 10101 20030 39969 40212 53007
  333 553// 21106 82/22=
03839 46/// ///// 10090 20027
  333 553// 20902=
03857 45980 /3306 10096 20029 30148 40212 52005
  333 8//99=
03862 45970 /3207 10087 20031 30197 40210 53003
  333 55310 20979 8//99=
03866 46/// /2907 10088 20016 30182 40207 53003=
03872 45983 ///// 10090 20015 30202 40207 53004
  333 553// 20935 8//99 91011=
03876 46/// /3507 10088 20023 30204 40206 52010=
03895 42484 10307 10095 20053 40216 53002 81501 333 81617=
0000170500
690
SASA85 EGRR 111400 RRC
METAR SABE 111400Z 14017KT CAVOK 22/03 Q1018=
METAR SACO 111400Z 14007KT CAVOK 24/10 Q1023=
METAR SADF 111400Z 16014G22KT CAVOK 23/04 Q1018=
METAR SAEZ 111400Z 16016KT CAVOK 22/04 Q1019=
METAR SAME 111400Z 09005KT CAVOK 27/08 Q1020=
METAR SARF 111400Z 14015KT 9999 -RA SCT007 SCT020 22/20 Q1014=
METAR SARI 111400Z 05011KT CAVOK 31/25 Q1014=
METAR SBCZ 111400Z 00000KT 6000 -RA BKN009 OVC090 25/25 Q1014=
METAR SBGO 111400Z 06009KT 9999 FEW030 SCT100 29/16 Q1018=
METAR SBJP 111400Z 12009KT 9999 BKN025 29/20 Q1014=
METAR SBPB 111400Z 06014KT 9999 FEW020 34/23 Q1011=
METAR SBPL 111400Z 11012KT 9999 SCT025 31/16 Q1016=
METAR SBRF 111400Z 16006KT 9999 BKN020 SCT050 26/24 Q1014=
METAR SBRJ 111400Z 05006KT 9999 FEW025 32/24 Q1013=
METAR SBRP 111400Z 07006KT 9999 SCT035 31/19 Q1017=
METAR SBSJ 111400Z 33003KT 9999 FEW025 32/14 Q1019=
METAR SBTE 111400Z 18002KT 9999 BKN020 31/23 Q1012=
METAR SBUG 111400Z 08008KT 9999 SCT010 BKN015 OVC100 21/20 Q1013 RETS=
METAR SCEL 111400Z 01004KT 310V070 CAVOK 26/07 Q1012 NOSIG=
METAR SCFA 111400Z 20008KT 9999 FEW027 22/15 Q1013 NOSIG=
METAR SCIE 111400Z 20008KT CAVOK 22/09 Q1012=
METAR SEMT 111400Z 22005KT 9999 FEW020 BKN026 26/22 Q1013=
METAR SLCB 111400Z VRB02KT 9999 FEW027 SCT200 23/12 Q1026=
METAR SLLP 111400Z 14005KT 9999 SCT015 SCT200 12/04 Q1038=
METAR SLVR 111400Z 35012KT 9999 SCT010 BKN017 28/23 Q1013=
METAR SOCA 111400Z AUTO 07003KT 020V100 9000 -RA BKN005 BKN018 BKN033
      24/22 Q1015=
METAR COR SPQT 111400Z VRB03KT 9999 SCT010 BKN020 SCT100 28/24 Q1013
      NOSIG RMK PP000=
METAR SPQU 111400Z 23005KT 170V280 CAVOK 17/10 Q1025 NOSIG RMK PP000=
0000167900
691
SASA85 EGRR 111400 RRD
METAR SAVE 111400Z 23008KT CAVOK 16/03 Q1020=
METAR SAWG 111400Z 32008KT 9999 SCT030 14/07 Q1009=
METAR SAZS 111400Z 00000KT CAVOK 17/05 Q1022=
METAR SBLO 111400Z 33004KT 9999 FEW030 30/19 Q1017=
METAR SBPK 111400Z 26003KT 9999 FEW040 25/21 Q1012=
METAR SBPP 111400Z 29004KT 9999 FEW025 30/20 Q1016=
METAR SBTF 111400Z 07010KT 9999 SCT012 28/24 Q1014=
METAR SCAR 111400Z 22008KT CAVOK 24/17 Q1011=
METAR SCBA 111400Z 30015KT CAVOK 14/04 Q1019=
METAR SCCI 111400Z 26026KT 9999 FEW030 BKN150 13/06 Q1005 NOSIG=
METAR SCDA 111400Z 20012KT CAVOK 24/16 Q1012=
METAR SCSE 111400Z 29009KT 9999 FEW012 BKN015 17/13 Q1014=
METAR SCTE 111400Z 14013KT 9999 FEW020 16/08 Q1020 NOSIG=
METAR SELT 111400Z 18013KT 9999 BKN020 BKN100 14/12 Q1031=
METAR SLOR 111400Z 17008KT 9999 FEW015 SCT200 15/04 Q1035=
METAR SLRI 111400Z 03005KT 9999 SCT015 BKN080 28/24 Q1014=
METAR SLTJ 111400Z 00000KT 9999 FEW030 FEW033TCU 27/18 Q1020=
METAR COR SPST 111400Z 30004KT 9999 SCT020 BKN100 25/18 Q1013 RMK BIRD
      HAZARD RWY 17/35 PP000=
METAR SUAA 111400Z 19018KT 9999 SCT025 BKN200 22/13 Q1016=
METAR SUCA 111400Z XXXXXKT 9999 FEW030 22/09 Q1015=
METAR SULS 111400Z 17015KT 9999 SCT026 SCT200 22/14 Q1015=
METAR SUSO 111400Z 15016KT 9999 BKN013 OVC060 24/20 Q1014=
METAR SVJC 111400Z 08012KT 9999 OVC013 28/22 Q1017=
METAR SVLF 111400Z 00000KT CAVOK XX/XX Q1014=
METAR SVMC 111400Z /////KT 9999 FEW013 SCT070 28/20 Q1016=
METAR SVMD 111400Z 36005KT CAVOK 21/14 Q1024=
METAR SVSA 111400Z /////KT 9999 FEW017 25/14 Q1018=
METAR SYCJ 111400Z 01006KT 9000 -SHRA BKN017 BKN300 26/22 Q1015 TEMPO
      8000 SHRA=
0000125000
692
SREW41 EGRR 111400
03002002 03005000 03008000 03017004 03026OTR 03031008 03034OTR
03037OTR 03044OTR 03047004 03062OTR 03063000 03066000 03068000
03075OTR 03080000 03088000 03091000 03100OTR 03105OTR 03111000
03132000 03134000 03136000 03144000 03153000 03155000 03158000
03162000 03166000 03171000 03204000 03210000 03212000 03214000
03220000 03224000 03225000 03226000 03230000 03238000 03240000
03257000 03261000 03265000 03266000 03275000 03281000 03292000
03301000 03302000 03305000 03313000 03316000 03318000 03321000
03330000 03344000 03346000 03351000 03354000 03373000 03377000
03379000 03382000 03391000 03392000 03405000 03409000 03410000
03414000 03462000 03469000 03482000 03488000 03502000 03503000
03520000 03522000 03529000 03535000 03544000 03560000 03590000
03604000 03605000 03609000 03628000 03647000 03649000 03658000
03660000 03672000 03684000 03693000 03707000 03710000 03716000
03740000 03743000 03746000 03749000 03761000 03768000 03769000
03770000 03772000 03781000 03797000 03803000 03808000 03809000
03823000 03827000 03839000 03840000 03853000 03857000 03862000
03866000 03872000 03876000 03882000 03901000 03904000 03907000
03911999 03915000 03916000 03917000 03923000=
0000003800
693
SDTH20 VTBB 111400
NIL
0000056900
694
SNVF21 ENMI 111400
BBXX
LDGJ 11141 99603 10053 43/// /3105 10025 21006 40002 5//// 222/0
      04076 1//// 3//// 4//// 5////=
LF4H 11144 99596 10022 46/// /2923 10065 20021 40016 52013 8////
      91402 22200 06077 10706 70032=
LGWS 11141 99229 30145 43/// /2504 10196 20155 40113 5//// 222/0
      04167 1//// 3//// 4//// 5////=
LJIT 11141 99586 10049 43/// /3115 10059 20021 40013 5//// 222/0
      04063 1//// 3//// 4//// 5////=
LMEL 11141 99603 10053 43/// /3205 10023 20003 49998 5//// 222/0
      04077 1//// 3//// 4//// 5////=
0000027000
695
SXHW11 KWAL 111410
B159741A 011141053 
DY DH PC VB
14/01/11 14:00 25.49
14/01/11 13:45 25.49
14/01/11 13:30 25.48
14/01/11 13:15 25.48
14/01/11 13:00 25.48
14/01/11 12:45 25.48
14/01/11 12:30 25.48
14/01/11 12:15 25.48 12.4 39-0NN  16W
0000029400
696
FCGG31 UGTB 111400
TAF UGSB 111400Z 1115/1124 23016KT 9999 SCT020 BKN040 TEMPO 1115/1120
 16016G26KT TEMPO 1116/1121 SHRA SCT015CB PROB40 TEMPO 1117/1123
 7000 TSRA BKN012CB=
TAF UGKO 111400Z 1115/1124 27008KT 5000 -RA SCT020CB OVC066 TEMPO
 1115/1119 27016KT 2000 SHRA=
0000022100
697
SAJD31 OJAI 111400
METAR OJAI 111400Z 29010KT 6000 HZ SCT030 11/07 Q1024 NOSIG=
METAR OJAM 111400Z 29010KT 5000 HZ BKN025TCU 11/05 Q1024 NOSIG=
METAR OJAQ 111400Z 35006KT 9999 SCT030 19/06 Q1023 NOSIG=
0000039100
698
SATR31 UTAA 111400
METAR UTAA 111400Z 00000MPS 9999 BKN100 BKN200 09/M08 Q1016
12CLRD70 NOSIG=
METAR UTAK 111400Z 15008MPS CAVOK  07/02 Q1014 NOSIG=
METAR UTAV 111400Z 00000MPS 7000 SCT200 06/M02 Q1021 NOSIG=
METAR UTAM 111400Z 08004MPS 6000 SCT066 SCT100 OVC230 10/M03 Q1019
 NOSIG  RMK  SC07=
METAR UTAT 111400Z 09003MPS 4000 FEW100 02/M02 Q1021 99CLRD70 NOSIG=
0000076600
699
SAUR31 UKMS 111400
METAR UKLR 111400Z 27006MPS 9999 SCT026 BKN100 04/00
         Q1014 NOSIG=
METAR UKLI 111400Z 26005MPS CAVOK 06/M04 Q1018
         28090070 NOSIG=
METAR UKON 111400Z 28007MPS CAVOK 07/M04 Q1017 NOSIG=
METAR UKCM 111400Z 25007MPS 9999 BKN033 06/01 Q1013
         19190062 NOSIG=
METAR UKCW 111400Z 25010MPS 9999 SCT030CB BKN040
         05/01  Q1008 2719//65 BECMG 25012G20MPS=
METAR UKLU 111400Z 14003MPS 9999 BKN025 02/00 Q1020
         10090070 NOSIG=
METAR UKKK 111400Z 28007MPS 9999 BKN048 05/02 Q1011
         26290250  NOSIG=
METAR UKKM 111400Z 25006MPS 9999 BKN049 05/01 Q1011
         33210250  NOSIG=
METAR UKKE NIL=
METAR UKLN 111400Z 32003MPS CAVOK 06/M03 Q1018
         3309//70 NOSIG=
0000012600
700
FCAJ31 UBBB 111400
TAF UBBN 111400Z 1115/1124 28008KT 3500 BR OVC012
620120 TEMPO 1115/1120 2500 -SN OVC006=
0000011900
701
SAIR35 OIII 111400 RRA
METAR OIAD 111400Z  00000KT 5000 BR FEW035CB SCT040 OVC080 11/09
 Q1016 A3003=
0000020300
702
SOBR10 KWAL 111411
BAB00078 011141111":BUB 2 #1       M   0.479   0.509   0.469 :RAD 1 #1   0.392   0.397   0.405   0.371 :PRS 1 #1  -0.777  -0.775  -0.772  -0.764 :BL 11.77  32+0NN 219E
0000010900
703
UANT99 KDDL 111409
ARP BAW9L 5400N01953W 1409 F380 MS59 216/76 KT
GVIIS QXT AOE 111409 F07A
0000011000
704
UANT99 KDDL 111409
ARP BAW33K 5308N02312W 1409 F380 MS57 206/66 KT
GVIIJ QXT AOE 111409 F14A
00000000