0000011100
705
UANT99 KDDL 111410
ARP AWE717 5202N01556W 1410 F360 MS64 231/86 KT
N274AY DDL BLY 111410 J64A
0000008900
706
SAIN90 VOMM 111410
METAR VOMM 111410Z 07006KT 6000 NSC 24/19 Q1014 NOSIG=
0000008600
707
SAIN32 VIDP 111400
METAR VIAR 111400Z VRB00KT 3000 BR NSC 13/10 Q1020=
0000009200
708
SAIN90 VOTR 111410
METAR VOTR 111410Z 09005KT 5000 HZ NSC 26/19 Q1013 NOSIG=
0000009200
709
SAIN90 VANP 111410
METAR VANP 111410Z 00000KT 4000 HZ NSC 20/13 Q1015 NOSIG=
0000009200
710
SAIN90 VABB 111410
METAR VABB 111410Z 34007KT 3700 FU NSC 22/06 Q1015 NOSIG=
0000011000
711
UANT99 KDDL 111410
ARP KLM743 4901N01921W 1410 F320 MS55 191/80 KT
PHBQP QXT AOE 111410 F14A
0000256300
712
USCI08 BABJ 111200
TTAA  11111 55299 99582 08158 25004 50567 18357 28512 40729
32134 26014 30925 49350 23526 25042 55356 26537 20184 54359
26542 15369 53361 26537 10624 589// 26530 88260 56750 25533
88114 605// 26535 77206 26043 31313 63203 81115=
TTAA  11111 55591 99649 01265 25002 50567 17120 24006 40730
29556 25025 30928 46160 26031 25047 51563 26041 20191 53363
27047 15376 56764 26546 10629 611// 25532 88223 53363 26546
77132 26549 31313 63203 81115=
TTAA  11112 56137 99676 03872 22503 50567 17557 24509 40730
31522 24017 30927 47942 26029 25045 54345 27043 88999 66227
27048 31313 63103 81115=
TTAA  11111 56691 99780 02905 02504 70094 01132 22512 50572
11976 27027 40740 21977 25540 30946 32983 25559 25072 41581
25065 20220 53977 25065 15400 653// 25554 10642 731// 26527
88999 77247 25065 31313 63203 81115=
TTAA  11111 56985 99872 17460 20503 85521 16058 21509 70141
05268 28515 50580 11179 26032 40751 16988 25535 30961 30584
26042 25088 42581 25542 20234 55177 25042 15414 651// 25533
10651 771// 25523 88102 805// 25526 77345 26043 31313 63303
81115=
TTAA  11111 57447 99975 05625 22501 92889 02430 32001 85566
02317 03002 70085 10318 31506 50566 12972 26524 40731 26571
26531 30933 40167 25549 25056 42767 25573 20204 53366 26077
15386 603// 25566 10635 701// 24537 88999 77226 25581 31313
63203 81115=
TTAA  11111 58203 99027 04856 00000 00247 04858 11003 92876
00060 04001 85551 02371 04003 70069 08348 00501 50565 18131
25017 40728 31331 25525 30927 42165 25549 25048 47765 26059
20194 51564 25571 15379 59164 26074 10628 651// 26039 88131
633// 26058 77157 25575 31313 63203 81115=
TTAA  11111 58725 99999 11449 27002 92860 07218 01002 85554
05412 25008 70126 01318 25012 50575 11975 27033 40744 17574
26048 30953 29771 26056 25080 40969 26054 20228 54167 25555
15408 655// 25546 10647 749// 26033 88124 737// 25043 77295
26057 31313 63203 81115=
TTAA  1112/ 58968 NIL=
TTAA  11111 59134 99007 14640 11503 00200 14640 10005 92858
11418 04005 85563 09632 30005 70151 00344 26006 50582 08979
27030 40753 14179 25533 30964 30775 25034 25091 42371 25534
20238 53769 25038 15417 671// 24536 10653 775// 24523 88111
785// 24528 77166 24541 31313 63203 81115=
TTAA  11111 59265 99009 17250 00503 00189 16850 01504 92849
11812 12502 85557 09210 22507 70142 04875 27011 50582 08179
26026 40753 14778 25534 30963 31173 26539 25090 41771 24536
20237 53569 25035 15416 673// 24536 10653 777// 25022 88109
781// 24526 77293 26539 31313 63203 81115=
0000178100
713
UDAS02 BABJ 111402
AMDAR 1114
LVR CNFPYL 2844N 11718E 111350 F246 MS240 264/099 TB/ S//1=
LVR CNFPYL 2823N 11724E 111353 F246 MS235 266/098 TB/ S//1=
LVR CNFPYL 2803N 11730E 111356 F246 MS210 257/104 TB/ S//1=
LVR CNFPYL 2744N 11735E 111359 F246 MS205 255/099 TB/ S//1=
LVR CNFOZL 3145N 11819E 111351 F246 MS300 260/070 TB/ S//1=
LVR CNFOZL 3154N 11844E 111354 F246 MS310 257/065 TB/ S//1=
LVR CNFOZL 3213N 11847E 111357 F246 MS318 254/057 TB/ S//1=
LVR CNFOZL 3232N 11841E 111400 F246 MS320 251/057 TB/ S//1=
ASC CNFNXN 4010N 11559E 111358 F205 MS336 281/056 TB/ S//1=
ASC CNFNXN 4010N 11555E 111359 F219 MS343 274/067 TB/ S//1=
ASC CNFNXN 4009N 11550E 111359 F235 MS380 269/066 TB/ S//1=
ASC CNFNXN 4008N 11546E 111400 F244 MS408 265/063 TB/ S//1=
DES CNFPQK 3009N 10650E 111357 F118 MS123 306/011 TB/ S//1=
DES CNFPQK 3008N 10650E 111358 F118 MS123 303/013 TB/ S//1=
DES CNFPQK 3004N 10649E 111359 F112 MS118 283/019 TB/ S//1=
DES CNFPQK 3000N 10648E 111400 F099 MS109 328/011 TB/ S//1=
DES CNFPTK 3102N 12202E 111357 F025 PS003 109/015 TB/ S//1=
DES CNFPTK 3100N 12200E 111358 F025 PS000 105/015 TB/ S//1=
DES CNFPTK 3056N 12158E 111359 F017 PS014 067/013 TB/ S//1=
DES CNFPTK 3056N 12154E 111400 F015 PS018 080/018 TB/ S//1=
LVR CNFOZM 2648N 11136E 111351 F276 MS270 257/096 TB/ S//1=
LVR CNFOZM 2634N 11123E 111354 F276 MS273 257/094 TB/ S//1=
LVR CNFOZM 2621N 11110E 111357 F276 MS270 259/095 TB/ S//1=
LVR CNFOZM 2608N 11058E 111400 F276 MS265 259/095 TB/ S//1=
LVR CNFPYN 2926N 11707E 111358 F246 MS250 265/091 TB/ S//1=
LVR CNFPYN 2919N 11708E 111359 F246 MS250 266/091 TB/ S//1=
LVR CNFPYN 2912N 11710E 111400 F246 MS245 266/092 TB/ S//1=
LVR CNFPYN 2905N 11712E 111401 F246 MS245 266/094 TB/ S//1=
0000078900
714
UDAS02 BABJ 111400
AMDAR 1114
LVR CNFNXM 2744N 11027E 111349 F301 MS335 254/115 TB/ S//1=
LVR CNFNXM 2739N 11008E 111352 F301 MS335 255/115 TB/ S//1=
LVR CNFNXM 2734N 10950E 111355 F301 MS338 256/116 TB/ S//1=
LVR CNFNXM 2729N 10932E 111358 F301 MS346 255/112 TB/ S//1=
DES CNFNXQ 3825N 10615E 111356 F118 MS223 285/020 TB/ S//1=
DES CNFNXQ 3828N 10620E 111357 F101 MS190 285/016 TB/ S//1=
DES CNFNXQ 3829N 10623E 111358 F093 MS168 271/017 TB/ S//1=
DES CNFNXQ 3830N 10624E 111358 F091 MS163 264/017 TB/ S//1=
DES CNFPQL 3717N 12105E 111356 F070 MS120 298/024 TB/ S//1=
DES CNFPQL 3718N 12105E 111356 F066 MS111 300/023 TB/ S//1=
DES CNFPQL 3722N 12108E 111357 F052 MS076 293/018 TB/ S//1=
DES CNFPQL 3726N 12110E 111358 F045 MS063 292/017 TB/ S//1=
0000063600
715
SNSP21 LEMM 111400
AAXX 11144
08084 46/// /0000 10085 20054 39772 40208 56012
  555 60005=
08184 46/// /0606 10135 20097 30035 40189 56016
  555 60005=
08202 46/// /2901 10167 20035 39250 42794 56016
  555 60005=
08360 47/// /2806 10138 20107 30147 40185 56017 721//
  555 69935=
08373 46/// /0000 10150 20122 30158 40179 56015
  555 60005=
08410 46/// /0000 10172 20079 30074 40183 58016
  555 60005=
08419 45/67 /0000 10138 20078 39518 40179 56012
  555 60005=
08451 46/// /1804 10200 20133 30149 40181 56016
  555 60005=
08487 46/// /2102 10154 20110 30159 40184 58011
  555 60005=
0000117600
716
SNEO21 EEMH 111400
AAXX 11141
26038 27537 81502 11011 21011 39953 49995 58007 77477 88///
 333  11009 21016 69947 88/26
 555  1/101 21016 3/101 51002 52102=
26045 27360 82303 11021 21036 39997 49999 50001 77786 88///
 333  11006 21022 60007 88/09
 555  21022 51003=
26058 27370 83503 11033 21047 39964 40000 51009 78580 80///
 333  11027 21034 60007 80/10
 555  21034 51017=
26115 27384 73400 10007 20007 39985 49993 57008 72386 87///
 333  10017 20003 69977 87/10
 555  1/001 20003 3/100 50016=
26135 27416 81501 11010 21018 39927 40002 58007 77176 88///
 333  11004 21012 69947 88/13
 555  1/100 21012 3/101 51001 52101=
26141 27463 81300 11027 21034 39851 40001 58002 77788 88///
 333  11020 21029 60007 88/12
 555  1/101 21029 3/102 51017 52103=
26231 27444 82001 10002 20002 39988 40003 58009 77187 88///
 333  10015 20002 69957 88/14
 555  1/001 20002 3/000 50013=
26242 27365 72200 11005 21014 39921 40009 50002 78587 87///
 333  11001 21011 60007 87/08
 555  1/100 21011 3/100 50006 52101=
26247 27/57 /2202 10007 20007 39933 40012 58002 78587
 333  10011 20001 69927
 555  1/001 20001 3/000 50014=
0000010000
717
SNNO23 ENMI 111400 RRA
AAXX 11141
01180 46/// /1503 11065 21125 30114 40174 52002=
0000010000
718
SNNO24 ENMI 111400 RRA
AAXX 11141
01393 46/// /1102 11164 21183 39207 40058 57006=
0000015100
719
SNNO25 ENMI 111400 RRA
AAXX 11141
01265 46/// /2802 11128 21143 39433 40043 55002=
01469 46/// /3504 11044 21059 39829 40005 53004=
0000010000
720
SNNO26 ENMI 111400 RRA
AAXX 11141
01476 46/// /2105 10048 20020 39970 49976 56006=
0000092200
721
SNEO40 EEMH 111400
AAXX 11141
26029 27/42 /1401 11002 21005 39962 49991 58010 76786
 333  10003 21010 69987
 555  21010 50007=
26046 27357 83402 11030 21039 39913 40005 50007 77177 88///
 333  11024 21031 60007 88/08
 555  21031 51016=
26124 27167 71801 11002 21001 39963 49994 58011 72477 87///
 333  10002 21004 60017 87/03
 555  1/001 21004 3/001 50006 52101=
26128 27117 81701 10001 20001 39991 49994 58014 77176 88///
 333  10019 20001 60017 88/03
 555  1/000 20001 3/000 50018=
26145 27462 83401 11019 21035 39967 40007 50007 77787 88///
 333  11013 21020 60007 88/11
 555  1/100 21020 3/101 51007 52102=
26233 27114 82301 11002 21006 39900 40007 58004 77177 88///
 333  10002 21009 69947 88/03
 555  1/000 21009 3/100 50005 52101=
26249 27243 82602 10002 21007 39911 40013 50005 78587 88///
 333  10005 21003 60007 88/06
 555  1/000 21003 3/000 50011 52101=
0000011000
722
UANT01 CWAO 111409
ARP JAI230 5238N04137W 1409 F370 MS60 290/51 KT
VTJWU QXT AOE 111409 J39A
0000011000
723
UANT01 CWAO 111410
ARP AZA63K 4900N03012W 1409 F310 MS47 218/23 KT
EIISO QXT AOE 111410 F27A
0000039800
724
SSVX07 KARS 111409
ZZYY 48731 11014 1400/ 774112 154937 6112/
11119
444 20120 11014 1351/ 504//=
ZZYY 48733 11014 1400/ 772957 152358 6113/
11119 11248 40001
444 20130 11014 1351/ 504//=
ZZYY 48732 11014 1400/ 774451 130932 6113/
11119 11145 49814
444 20130 11014 1351/ 504//=
ZZYY 48536 11014 1400/ 175296 148544 6111/
11119 11299
444 20110 11014 1349/ 504//=
00000000