0000042900
745
UDEU02 EGRR 111413
AMDAR 1114
DES EU5441   5755N 01231E 111402 F039 MS025 274/021 TB/ S031=
DES EU5441   5751N 01227E 111403 F034 MS014 277/021 TB/ S031=
DES EU5441   5748N 01224E 111404 F034 MS013 276/020 TB/ S031=
DES EU5441   5745N 01222E 111405 F024 PS014 279/021 TB/ S031=
DES EU5441   5743N 01220E 111406 F017 PS030 274/017 TB/ S031=
DES EU5441   5741N 01218E 111407 F010 PS048 287/007 TB/ S031=
0000043300
746
UDEU02 EGRR 111413 RRA
AMDAR 1113
LVR EU0218   3640N 00430W 111332 F000 PS150 304/002 TB/ S031=
LVR EU0218   3639N 00432W 111339 F191 MS210 345/016 TB/ S031=
LVR EU0218   3717N 00358W 111346 F329 MS540 086/014 TB/ S031=
LVR EU0218   3808N 00345W 111353 F374 MS520 301/018 TB/ S031=
UNS EU0218   3859N 00333W 111400 F379 MS520 293/017 TB/ S031=
LVR EU0218   3951N 00327W 111407 F379 MS520 313/015 TB/ S031=
0000013900
747
SSVX02 CWAO 111400
ZZYY 55086 11014 1400/ 334162 172143 6113/ 11119 
40176 57018 444 20130 11014 1400/ 50100 80142 80001=
0000190100
748
UDEU02 EGRR 111414
AMDAR 1113
ASC EU0400   5153N 00022W 111354 F013 PS035 295/012 TB/ S031=
ASC EU0400   5152N 00024W 111354 F020 PS012 289/014 TB/ S031=
ASC EU0400   5152N 00026W 111354 F026 MS002 294/016 TB/ S031=
ASC EU0400   5151N 00028W 111354 F032 MS012 284/013 TB/ S031=
ASC EU0400   5150N 00030W 111354 F039 MS022 303/019 TB/ S031=
ASC EU0400   5150N 00032W 111354 F046 MS022 319/028 TB/ S031=
ASC EU0400   5149N 00033W 111354 F059 MS042 312/030 TB/ S031=
ASC EU0400   5149N 00035W 111354 F067 MS052 313/031 TB/ S031=
ASC EU0400   5148N 00037W 111354 F070 MS060 312/031 TB/ S031=
ASC EU0400   5147N 00039W 111354 F070 MS062 307/032 TB/ S031=
ASC EU0400   5146N 00044W 111355 F070 MS067 310/030 TB/ S031=
ASC EU0400   5145N 00048W 111355 F070 MS065 308/029 TB/ S031=
ASC EU0400   5143N 00051W 111355 F090 MS067 312/042 TB/ S031=
ASC EU0400   5141N 00055W 111356 F101 MS077 321/051 TB/ S031=
ASC EU0400   5137N 00056W 111356 F114 MS107 306/049 TB/ S031=
ASC EU0400   5133N 00056W 111356 F123 MS135 304/047 TB/ S031=
ASC EU0400   5129N 00054W 111357 F130 MS150 295/045 TB/ S031=
ASC EU0400   5125N 00052W 111357 F140 MS157 288/049 TB/ S031=
ASC EU0400   5121N 00050W 111357 F150 MS180 290/050 TB/ S031=
ASC EU0400   5118N 00046W 111358 F167 MS225 290/053 TB/ S031=
ASC EU0400   5114N 00042W 111358 F185 MS265 296/051 TB/ S031=
ASC EU0400   5110N 00038W 111358 F200 MS302 296/056 TB/ S031=
ASC EU0400   5106N 00034W 111359 F215 MS340 296/058 TB/ S031=
ASC EU0400   5102N 00030W 111359 F229 MS375 301/061 TB/ S031=
ASC EU0400   5057N 00026W 111359 F246 MS415 301/063 TB/ S031=
ASC EU0400   5053N 00022W 111400 F262 MS457 304/065 TB/ S031=
ASC EU0400   5049N 00018W 111400 F287 MS510 283/054 TB/ S031=
ASC EU0400   5045N 00014W 111400 F306 MS560 274/062 TB/ S031=
ASC EU0400   5041N 00010W 111401 F310 MS570 278/065 TB/ S031=
0000042900
749
UDNT02 EGRR 111414
AMDAR 1113
LVR EU6113   6603N 04944W 111332 F360 MS617 171/024 TB/ S031=
LVR EU6113   6544N 05145W 111339 F360 MS605 159/021 TB/ S031=
LVR EU6113   6523N 05343W 111346 F360 MS597 169/020 TB/ S031=
LVR EU6113   6501N 05536W 111353 F360 MS600 183/011 TB/ S031=
LVR EU6113   6438N 05726W 111400 F360 MS610 239/005 TB/ S031=
LVR EU6113   6413N 05913W 111407 F360 MS597 252/011 TB/ S031=
0000043300
750
UDEU02 EGRR 111414 RRA
AMDAR 1113
LVR EU3080   4311N 00218W 111332 F340 MS580 339/022 TB/ S031=
LVR EU3080   4356N 00144W 111339 F340 MS582 315/018 TB/ S031=
LVR EU3080   4441N 00111W 111346 F340 MS585 268/014 TB/ S031=
LVR EU3080   4528N 00035W 111353 F340 MS587 260/029 TB/ S031=
LVR EU3080   4616N 00003E 111400 F339 MS592 257/031 TB/ S031=
LVR EU3080   4703N 00041E 111407 F340 MS595 251/044 TB/ S031=
0000191800
751
SZAU01 AMMC 111412
CREX++
T000103 A001 D01021 D06025++
-1927750 14705860 59260 2014 01 11 14 05 3023 11 07 00 01
00907 0200 00902 0200 00898 0200 00896 0202 00886 0196 00885 0198+
-2316110 15079000 59670 2014 01 11 14 05 3000 11 07 00 01
01267 0163 01261 0160 01257 0159 01260 0166 01253 0160 01260 0170+
-3447330 15091170 60420 2014 01 11 14 05 2950 11 07 00 01
00552 -0040 00557 -0037 00564 -0033 00576 -0023 00583 -0018 00584 -0019+
-4105000 14591500 60910 2014 01 11 14 05 2888 11 07 00 01
01388 -0049 01375 -0056 01374 -0051 01360 -0058 01356 -0056 01356 -0050+
-4254640 14793080 61170 2014 01 11 14 05 2902 11 07 00 01
01099 0068 01106 0073 01111 0077 01102 0066 01093 0056 01099 0061+
-3834390 14161360 61410 2014 01 11 14 05 2908 11 07 00 01
00750 -0002 00736 -0016 00746 -0006 00760 0007 00709 -0044 00779 0026+
-3214890 13364170 62000 2014 01 11 14 05 2955 11 07 00 01
01461 0076 01468 0080 01467 0077 01473 0081 01477 0082 01485 0089+
-3387080 12189720 62080 2014 01 11 14 05 2950 11 07 00 01
01042 0021 01032 0011 01027 0007 01030 0011 01026 0008 01016 -0001+
-3182560 11573860 62237 2014 01 11 14 05 2973 11 07 00 01
00819 0038 00819 0040 00822 0044 00823 0046 00823 0048 00817 0043+
-2422000 11339750 62385 2014 01 11 14 05 //// 11 07 00 01
01008 -0101 01101 -0005 01001 -0103 01017 -0084 00990 -0109 01054 -0042+
-2181670 11419110 62430 2014 01 11 14 05 //// 11 07 00 01
01801 -0044 01797 -0045 01800 -0039 01786 -0049 01796 -0036 01776 -0052+
-1800080 12221830 62650 2014 01 11 14 05 3043 11 07 00 01
05775 0147 05766 0147 05758 0149 05748 0146 05738 0145 05728 0145+
-1247190 13084580 63230 2014 01 11 14 05 3050 11 07 00 01
04678 0057 04680 0055 04683 0052 04686 0049 04691 0050 04695 0046+
-1386000 13641580 63511 2014 01 11 14 05 3043 11 07 00 01
01826 0034 01823 0032 01821 0031 01820 0031 01820 0031 01820 0032++
7777

0000046700
752
SZPA01 AMMC 111412
CREX++
T000103 A001 D01021 D06025++
0136250 17293000 67590 2014 01 11 14 05 3017 11 07 00 01
02107 0116 02105 0114 02107 0115 02106 0113 02106 0113 02102 0108+
0710610 17137250 67680 2014 01 11 14 05 3013 11 07 00 01
01340 0041 01349 0051 01353 0054 01349 0050 01349 0051 01346 0048+
0698060 15820000 67950 2014 01 11 14 05 3023 11 07 00 01
00725 0036 00723 0033 00722 0032 00726 0036 00724 0034 00722 0031++
7777

0000034400
753
SZIO01 AMMC 111412
CREX++
T000103 A001 D01021 D06025++
-1211670 09689190 46280 2014 01 11 14 05 3020 11 07 00 01
00635 0007 00642 0014 00644 0017 00639 0012 00640 0014 00639 0013+
-1042940 10566940 46290 2014 01 11 14 05 //// 11 07 00 01
00807 -0011 00847 0032 00755 -0058 00896 0085 00738 -0071 00876 0069++
7777

0000179300
754
SZPS01 AMMC 111412
CREX++
T000103 A001 D01021 D06025++
-0204190 14737360 56130 2014 01 11 14 05 3027 11 07 00 01
00515 0166 00517 0167 00522 0171 00519 0167 00521 0167 00521 0167+
-0669280 15640860 56363 2014 01 11 14 05 //// 11 07 00 01
00632 -0057 00630 -0060 00633 -0058 00637 -0054 00636 -0057 00640 -0053+
-0942890 15995560 56670 2014 01 11 14 05 3038 11 07 00 01
00465 -0048 00462 -0052 00462 -0053 00464 -0051 00465 -0051 00463 -0054+
-1072080 16580190 57131 2014 01 11 14 05 //// 11 07 00 01
02748 1993 02062 1305 01399 0641 01732 0972 01821 1059 02002 1239+
-1551560 16718860 57210 2014 01 11 14 05 //// 11 07 00 01
00915 -0146 00906 -0157 00909 -0157 00901 -0168 00918 -0153 00931 -0143+
-1775690 16830030 57320 2014 01 11 14 05 3015 11 07 00 01
00850 -0055 00856 -0052 00861 -0050 00865 -0048 00867 -0049 00868 -0051+
-4397330 16861610 65180 2014 01 11 14 05 2887 11 07 00 01
01215 0422 01226 0434 01230 0437 01205 0412 01204 0411 01237 0445+
-2120470 -15978530 65980 2014 01 11 14 05 3010 11 07 00 01
00764 0045 00729 0009 00769 0047 00736 0013 00794 0070 00741 0016+
-2113810 -17518140 66600 2014 01 11 14 05 //// 11 07 00 01
01405 0105 01407 0104 01405 0100 01407 0099 01410 0099 01417 0104+
-1382670 -17176110 66840 2014 01 11 14 05 3010 11 07 00 01
01095 0046 01103 0053 01099 0048 01114 0062 01109 0055 01105 0050+
-1813250 17842750 67050 2014 01 11 14 05 3030 11 07 00 01
01464 0063 01458 0054 01465 0058 01471 0061 01475 0062 01471 0055+
-1760530 17743810 67070 2014 01 11 14 05 3030 11 07 00 01
01586 0025 01591 0026 01596 0028 01601 0029 01605 0030 ///// ////+
-0850250 17919500 67440 2014 01 11 14 05 3027 11 07 00 01
02379 -0014 02390 -0004 02382 -0014 02392 -0005 02395 -0003 02389 -0011++
7777

0000027500
755
SXHW11 KWAL 111412
15D142A4 011141202":PRS 1 #1 1710 1722 1718 1715 1718 1709 1707 1710 1722 1736 :RAD 1 #1 7303 7307 7305 7300 7299 7298 7296 7300 7309 7316 :ENC 2 #5 5210 5208 5215 5226 :SW1 12 #60 0 :SW2 42 #60 0 :BAT 4 #5 12.9 :NAME 15D142A4  32+0NN 216W
0000014200
756
UANT99 KDDL 111410
ARP AFR422 4847N03056W 1410 F320 4601N04001W 1503 4001N05001W MS48
 200/13 KT
FGLZS QXT AOE 111410 J11A
0000012100
757
SSVX05 CWAO 111400
ZZYY 48524 11014 1400/ 772286 179093 6113/ 444 
20130 11014 1400/ 50400 80140 80001=
0000015100
758
SSVX05 CWAO 111400
ZZYY 48593 11014 1400/ 771638 176477 6113/ 11119 
40143 57018 22291 01095 444 20130 11014 1400/ 50400 80138 80001=
0000011100
759
UANT99 KDDL 111410
ARP UAL919 5302N01600W 1410 F360 MS64 236/85 KT
N778UA DDL BLY 111411 F18A
0000368000
760
SNPL40 SOWR 111400
AAXX 11141
12100 41458 81904 10058 20040 30070 40077 58025 71022 885//=
12105 42465 82104 10055 20033 30039 40081 57022 885//
  333 88615=
12115 41460 82306 10054 20039 30057 40071 58020 72162 885//=
12120 41459 82308 10051 20038 30066 40070 58018 76166 885//=
12125 46/// /2304 10053 20035 30027 40078 57018 =
12135 41468 72404 10057 20039 30074 40077 57014 72522 875//=
12160 42470 72206 10038 20029 39864 40092 57009 8523/=
12185 42579 72405 10047 20026 39956 40091 58008 875//=
12195 42570 82506 10040 20027 39862 40090 58003 885//
  333 91111=
12200 41458 72003 10052 20043 30073 40080 57027 78088 873//=
12205 42781 62206 10075 20032 30083 40091 57027 85502=
12210 46/// /2103 10055 20033 30019 40083 57024=
12215 41/// /2105 10045 20027 39922 40093 57020 7////
  =
12230 42575 82203 10055 20023 30016 40106 57019 875//=
12235 42463 82106 10042 20029 39885 40096 57016 885//
  333 88616=
12250 42464 72203 10051 20026 30027 40116 57013 8217/=
12270 42564 72506 10046 20023 39936 40119 57010 873//=
12272 42465 72304 10043 20022 39934 40102 57009 875//
  333 87615 91109=
12280 42676 72304 10044 20023 39940 40098 58009 875//=
12285 41/// /2404 10048 20019 30004 40120 57004 700//=
12295 42466 82403 10044 20021 39927 40112 58001 885//
  333 91108=
12300 42784 22604 10070 20021 30021 40111 56025 81531=
12310 42980 12206 10070 20013 30052 40118 57021 81031=
12330 41570 52205 10068 20017 30015 40123 57019 71422 81130=
12345 42569 71904 10061 20022 39985 40129 57017 86531
  333 91111=
12360 42565 72205 10050 20024 39993 40127 57009 879//=
12375 42570 72503 10059 20012 30005 40136 56010 878//=
12385 42568 72304 10049 20019 39945 40136 56003 875//=
12399 42561 82402 10052 20011 39967 40136 51002 8437/=
12400 42982 52304 10065 20010 39895 40131 56020 84039
  333 91009 91109=
12415 42684 72705 10074 21008 39988 40141 57019 8353/
  333 91111=
12418 42680 72204 10071 20010 30020 40134 56019 8145/=
12424 42999 52104 10069 20012 39997 40150 56017 83052=
12435 42973 62105 10059 20010 39968 40141 57015 86052=
12455 42976 32304 10062 21001 39903 40149 57016 82031=
12465 42666 72305 10056 20013 39922 40145 56011 872//=
12469 42580 62306 10055 20007 39916 40149 57012 8123/=
12488 42576 72303 10053 20010 39992 40148 56009 875//=
12495 42667 72404 10046 20005 39860 40155 57007 84531=
12497 42570 82506 10048 20009 39927 40148 52001 885//=
12500 42984 72704 10056 21020 39733 40152 57014 8705/=
12510 41/99 72714 11055 21075 38296 48423 58021 73833 8257/
  444 26005=
12520 42582 62203 10054 20002 39730 40166 57015 82558=
12530 42960 52202 10071 20010 39961 40162 56014 81038=
12540 42982 72407 10065 20012 39917 40171 56015 82042=
12550 42670 62402 10054 21013 39797 40158 57015 81136=
12560 42998 72205 10054 21002 39826 40169 56014 8707/=
12566 42982 72406 10061 21013 39873 40169 57014 80006=
12570 42666 72203 10053 20003 39840 40160 56013 82548=
12575 42667 72301 10068 21024 39914 40170 57012 81532=
12580 42780 72004 10053 21008 39914 40176 56007 83531=
12585 42665 72102 10054 20009 39895 40164 57009 82532=
12595 46/70 /2605 10048 20009 39888 40165 57004 =
12600 42670 72303 10055 21014 39689 40174 57011 81508=
12625 42970 71701 10021 21049 39165 42783 56012 8705/=
12650 41/01 72409 11081 21086 37946 48464 58009 74143 8257/
  333 91014 91114=
12660 42984 62103 10061 21030 39817 40179 57009 80006=
12670 42763 71904 10014 21013 39779 40190 55008 81536
  333 91009 91109=
12690 42678 61904 10029 21028 39673 40191 56009 81532=
12695 41/// /9903 10053 21030 39838 40181 57006 700//=
0000375000
761
SSVX11 LFVW 111410
ZZYY 52082 11014 08004 102036 156019 6113/
11119 00308 10279 29080
22219 00296
33311 88872 20000 32963 20002 32963 43441 20025 32961 43444
20050 32975 43478 20075 32989 43522 20100 32948 43530
20125 32857 43536 20150 32444 43517 20200 31470 43466
20250 31164 43477 20300 31122 43479 20500 30877
444 20130 11014 0805/ 522// 60381=
ZZYY 52082 11014 06004 102038 156018 6112/
11119 00310 10275 29078
22219 00297
33311 88872 20000 32970 20002 32970 43441 20025 32961 43442
20050 32973 43469 20075 32979 43501 20100 32956 43531
20125 32866 43538 20150 32511 43520 20200 31582 43471
20250 31157 43478 20300 31111 43477 20500 30864
444 20120 11014 0626/ 522// 60381=
ZZYY 52082 11014 02004 102035 156017 6113/
11119 00309 10295 29072
22219 00298
33311 88872 20000 32981 20002 32981 43439 20025 32967 43447
20050 32985 43483 20075 32976 43524 20100 32920 43537
20125 32647 43518 20150 32205 43502 20200 31304 43459
20250 31145 43481 20300 31092 43476 20500 30883
444 20130 11014 0254/ 522// 60381=
ZZYY 52082 11014 04004 102030 156019 6112/
11119 00611 10286 29075
22219 00298
33311 88872 20000 32983 20002 32983 43439 20025 32965 43445
20050 32978 43475 20075 32987 43516 20100 32938 43531
20125 32795 43526 20150 32407 43512 20200 31467 43460
20250 31147 43479 20300 31090 43475 20500 30856
444 20120 11014 0437/ 522// 60381=
ZZYY 52085 11014 11004 100014 156045 6113/
11119 03306 10277 40072
22219 00299
33311 88872 20000 32992 20002 32992 43399 20025 33033 43438
20050 33026 20075 33021 20100 33007 20125 32618 43539
20150 32280 43539 20200 31731 43521 20250 31336 43490
20300 31186 43485 20500 30812 43460 20750 30580 43453
444 20130 11014 1041/ 522// 60381=
ZZYY 52085 11014 07004 100012 156046 6113/
11119 02906 10278 40055
22219 00300
33311 88872 20000 32995 20002 32995 43388 20025 33032 43434
20050 33027 20075 33021 20100 33009 20125 32656 43540
20150 32337 43544 20200 31844 43529 20250 31355 43492
20300 31171 43483 20500 30811 43461 20750 30600 43453
444 20130 11014 0651/ 522// 60381=
ZZYY 52085 11014 09004 100016 156042 6112/
11119 03106 10282 40066
22219 00300
33311 88872 20000 32999 20002 32999 43393 20025 33033 43438
20050 33027 20075 33021 20100 33011 20125 32654 43542
20150 32324 43545 20200 31759 43523 20250 31343 43494
20300 31191 43485 20500 30808 43460 20750 30579 43451
444 20120 11014 0943/ 522// 60381=
ZZYY 52084 11014 04004 105015 155971 6112/
11119 00613 10284 29078 40059
22219 00297
33311 88872 20000 32970 20002 32970 43431 20025 32963
20050 32962 43434 20075 32975 20100 32919 43455 20125 32718 43469
20150 32308 43492 20200 31409 43458 20250 31033 43460
20300 30936 43463 20500 30776 43457 20750 30589 43454
444 20120 11014 0438/ 522// 60381=
ZZYY 52084 11014 02004 105020 155966 6113/
11119 00413 10281 29079 40079
22219 00297
33311 88872 20000 32969 20002 32969 43433 20025 32963
20050 32963 43434 20075 32974 20100 32934 43456 20125 32775 43464
20150 32305 43492 20200 31409 43458 20250 31071 43459
20300 30949 43461 20500 30801 43459 20750 30605 43453
444 20130 11014 0255/ 522// 60381=
ZZYY 52084 11014 11004 105021 155970 6112/
11119 00515 10290 29073 40078
22219 00296
444 20120 11014 1050/ 522// 60381=
ZZYY 52084 11014 13004 105016 155967 6111/
11119 00515 10290 29069 40073
22219 00296
444 20110 11014 1227/ 522// 60381=
ZZYY 52083 11014 1200/ 107970 156033 6111/
33311 88872 20002 32900 43379 20025 32901 43396 20050 32903 43395
20075 32903 43395 20100 32825 43471 20125 32503 43498
20150 32291 43506 20200 31480 43457 20250 31138 43455
20300 30998 43460 20750 30568 43452
444 20110 11014 1214/ 522//=
0000011000
762
UANT01 CWAO 111410
ARP DLH462 4650N04050W 1410 F340 MS61 315/53 KT
DAIMI QXT EUA 111410 J40A
0000011100
763
UANT01 CWAO 111411
ARP DAL409 5054N04413W 1411 F350 MS62 286/61 KT
N1200K QXT AOW 111411 F37A
0000011000
764
UANT01 CWAO 111411
ARP BAW33K 5308N02329W 1411 F380 MS58 207/71 KT
GVIIJ QXT AOE 111411 F15A
00000000