0000011100
805
UANT01 CWAO 111412
ARP UAL919 5302N01613W 1412 F360 MS64 234/85 KT
N778UA DDL BLY 111412 F19A
0000011000
806
UANT01 CWAO 111412
ARP DAL19 4905N04946W 1412 F330 MS61 302/63 KT
N834MH QXS YYT 111412 F64A
0000011000
807
UANT01 CWAO 111412
ARP VIR75B 5250N03252W 1412 F370 MS52 216/29 KT
GVROS DDL XXF 111412 F82A
0000013800
808
SNVF22 EIDB 111400
BBXX
62023 11143 99514 70079 46/97 /1412 10088 2//// 4//// 5////
22200 10805 70023 555 70036 80012=
0000011000
809
UANT01 CWAO 111412
ARP EIN105 5048N04052W 1412 F370 MS62 297/46 KT
EIDUZ DDL XXN 111412 J09A
0000447400
810
SNCZ64 OKPR 111400
AAXX 11141
11406 21662 72104 10020 20007 39582 40178 55010 72162 82570
  333 69905 82634 87358
  555 391// 50025 60025 70028 80037 90051=
11414 21662 82402 10016 20002 39437 42769 57010 72162 8557/
  333 69905 85636 88358
  555 390// 50022 60019 70025 80034=
11423 21165 82605 10018 20014 39282 42776 55008 76066 885//
  333 69905 81703 87606 91010 91112
  555 397// 50016 60019 70025 80035=
11438 22968 82704 10056 20016 39764 40160 55012 8807/
  333 60005 84360 88462
  555 376// 50027 60028 70032 80048 90054=
11450 21768 72102 10041 20008 39722 40174 56011 76122 875//
  333 69905 87650
  555 12403 379// 50028 60026 70029 80037=
11457 21375 72508 10026 20013 38866 48466 55006 76062 8457/
  333 69905 84607 87358 91016 91115
  555 391// 50004 60011 70012 80024=
11464 42780 72509 10012 21009 39159 42762 57014 8707/
  333 87350 91114
  555 386//=
11487 21575 89901 10037 21007 39546 40176 56011 76122 8652/
  333 69905 82626 86650 88458
  555 373// 50021 60020 70020 80032 90044=
11502 22669 72402 10027 21002 39702 40165 56014 8257/
  333 60005 82646 87357
  555 381// 50022 60024 70029 80040 90053=
11509 22775 79901 10046 20021 39968 40166 55012 83570
  333 60005 83650 87358
  555 384// 50033 60031 70032 80041 90055=
11518 22682 72003 10055 20012 39722 40164 55013 8257/
  333 60005 82643 87356
  555 374//=
11519 22775 71803 10066 21008 39856 40165 56016 8357/
  333 60005 83650 87357
  555 359//=
11520 22782 81803 10060 21007 39795 40164 56018 8357/
  333 60005 83650 85358 88460
  555 362// 50027 60032 70032 80044 90053=
11538 21680 81702 10045 20011 39562 40174 55013 75052 886//
  333 69905 88740
  555 378// 50012 60028 70030 80041=
11546 27669 /1602 10048 20023 39681 40169 56014 78110
  333 69935 81/40 85/56 87/57
  555 384// 50040 60040 70042 80054 90058=
11567 22770 71801 10060 21001 39815 40162 56017 82530
  333 60005 82656 87358
  555 365// 50036=
11603 22465 81303 10032 20007 39676 40165 55011 8357/
  333 60005 83614 87357
  555 383// 50032 60035 70039 80050 90058=
11624 22975 51701 10068 20008 39877 40169 56016 85072
  333 60005 85360 85069
  555 366// 50035=
11628 22870 79901 10049 21003 39533 40172 55011 85072
  333 60005 85357 87070
  555 369// 50024 60026 70028 80040 90048=
11636 22982 79902 10040 21007 39492 42784 55013 85052
  333 60005 85358 87071
  555 372// 50015 60021 70029 80042 90048=
11643 21470 72104 10010 21018 39186 42764 58013 72272 81576
  333 69905 81615 84358 85272
  555 13606 381// 50012 60014 70017=
11652 22970 72101 10073 21002 39889 40169 55015 85031
  333 60005 85360 87073
  555 359// 50045=
11653 26/// /2415 11051 21054 3//// 4//// 5////
  333 6///5 91022 91124
  555 398//=
11659 22972 41704 10045 21013 39527 40172 55015 82082
  333 60005 82359 84073
  555 366// 50009 60025 70025 80035 90044=
11669 22465 72204 10018 20000 39276 42767 57015 83530
  333 60005 83617 87358
  555 388// 50019 60027 70030 80039 90051=
11679 22982 79901 10063 21002 39679 40167 57017 8703/
  333 60005 87359
  555 363// 50038 60038 70037 80047 90060=
11683 22970 52206 10035 21022 39287 42773 57016 84032
  333 60005 84358 84070
  555 1//06 366// 50022 60021 70024 80036=
11692 22980 71604 10041 20010 39597 40176 57018 86038
  333 60005 86361
  555 380// 50023=
11693 22980 71703 10046 20004 39692 40180 56017 86058
  333 60005 86361 86271
  555 11906 374// 50031 60033 70035 80054 90059=
11698 22880 71303 10044 20007 39770 40183 55015 8707/
  333 60005 85357 87359
  555 377// 50039 60039 70045 80056 90065=
11710 22982 52203 10047 21029 39552 40172 57016 82042
  333 60005 82361 85070
  555 358// 50044 60041 70040 80050=
11723 22981 71902 10055 20001 39882 40183 57018 86051
  333 6///5 85362
  555 368// 50033 60032 70038 80052=
11730 21/02 92409 11030 21041 38615 48435 58014 74944
  333 60005 89/01 91015 91116 93622
  555 392//=
11766 22482 62305 10013 21013 39274 42774 57014 81136
  333 60005 81813 85269
  555 383// 50009 60013 70020 80037=
11774 22683 71705 10050 20006 39910 40185 56014 81536
  333 60005 81633 83363 85268
  555 373//=
11782 22980 62207 10060 21003 39869 40177 56014 82032
  333 60005 82363 86073
  555 364//=
11787 22486 52603 11021 21050 38637 48456 57009 81142
  333 60005 81810 85067 91008 93519
  555 381// 50005 60011 70008 80020=
0001044800
811
SNSW23 LSSW 111400
AAXX 11144
06686 23/// /3104 10073 20040 39609 40204 52008
  333 55310 20986 60005 91114 91210=
06623 23/// /2312 10045 20045 39356 48494 53010
  333 55300 20140 69965 91118 91212=
06624 23/// /2401 10038 20034 39709 40222 52008
  333 55300 20328 60005 91103 91202=
06602 23/// /1105 10061 20058 39686 40217 53004
  333 55300 20259 60005 91107 91205=
06693 23/// /3604 10083 20048 39467 48506 52011
  333 55303 20504 60005 91110 91206=
06682 23/// /3504 10056 20024 39092 48507 51013
  333 55305 20439 60005 91106 91203=
06675 23/// /3101 10074 20028 39145 48510 52009
  333 55303 20648 60005 91107 91204=
06637 23/// /3101 10026 20023 39515 40229 52010
  333 55300 20277 60005 91102 91201=
06627 23/// /2005 10091 21003 39016 48516 52006
  333 55308 21177 60005 91114 91207=
06625 23/// /2311 10089 20044 39443 48510 53005
  333 55300 20320 60005 91120 91212=
06608 23/// /2605 10047 20028 38898 48509 52008
  333 55300 20133 60005 91114 91205=
06638 23/// /2401 10076 20059 39335 48512 52006
  333 55300 20284 60005 91106 91204=
06635 23/// /1903 10061 20043 39638 40222 53006
  333 55300 20238 60005 91105 91203=
06728 23/// ///// 10057 21045 38393 48502 55///
  333 55308 20990 60005=
06725 23/// /0102 10073 21043 38463 48503 55005
  333 55310 21087 60005 91106 91203=
06758 23/// /3602 10071 20054 39831 40225 56015
  333 55300 20205 60005 91104 91202=
06796 23/// /0000 10009 20009 38634 48510 55003
  333 55300 20331 60005 91102 91201=
06784 23/// /0109 10050 21008 38400 48499 55002
  333 55300 20641 60005 91113 91209=
06786 23/// /0306 10080 20037 39540 40201 52008
  333 55300 20331 60005 91114 91209=
06794 23/// /0601 10035 20005 38971 48515 58011
  333 55300 20295 60005 91103 91203=
06792 23/// /2206 10000 21021 38291 48510 57005
  333 55300 20461 60005 91110 91207=
06798 23/// /0000 10034 21007 38705 48498 57008
  333 55307 20857 60005 91101 91201=
06702 23/// /3016 10004 20003 38333 48511 52003
  333 55300 20479 60005 91120 91217=
06610 23/// /0703 10075 20055 39629 40216 53002
  333 55300 20252 60005 91108 91203=
06730 43/// /3309 11094 21121 36556 47066 57006
  333 55303 20871 91127 91213=
06643 23/// /2302 10058 20038 39712 40225 53009
  333 55300 20245 60005 91108 91204=
06680 23/// /2625 11031 21076 37511 47049 55003
  333 55301 20598 60005 91134 91224=
06990 23/// /3302 10058 20037 39657 40210 52014
  333 55303 20670 60005 91110 91205=
06712 23/// /3001 10084 20046 39758 40218 55003
  333 55308 21091 60005 91106 91203=
06609 23/// /2414 10009 21055 38026 48512 53003
  333 55304 20900 60005 91131 91224=
06616 23/// /2606 10072 20047 39505 40216 53010
  333 55300 20122 60005 91112 91207=
06724 23/// /2603 10066 21007 38584 48505 55003
  333 55310 21073 60005 91105 91203=
06748 23/// /0000 10046 21039 38360 48504 55003
  333 55304 20626 60005 91104 91202=
06605 23/// /3025 10012 20012 38404 48504 53002
  333 55300 20245 60005 91134 91228=
06659 23/// /2008 11002 21050 37895 48508 53001
  333 55300 20504 60005 91129 91212=
06672 23/// /1704 10060 20046 39688 40219 51012
  333 55300 20558 60005 91105 91204=
06745 23/// /2102 10006 21010 38662 48499 57005
  333 55310 20918 60005 91102 91201=
06753 23/// /3001 10035 20008 39072 48517 57009
  333 55300 20191 60005 91105 91202=
06770 23/// /1701 10084 20066 39857 40221 57016
  333 55300 20263 60005 91104 91203=
06639 23/// /2310 10033 20002 38608 48508 52007
  333 55301 20497 60005 91122 91214=
06720 23/// /2301 10088 20041 39629 40204 55004
  333 55310 20828 60005 91109 91205=
06762 23/// /2501 10085 20049 39972 40221 56016
  333 55300 20216 60005 91102 91201=
06604 23/// /2302 10075 20047 39635 40216 53004
  333 55300 20133 60005 91109 91204=
06771 23/// /0000 10095 20050 39795 40218 56015
  333 55300 20248 60005 91103 91202=
06734 23/// /0401 10052 20041 39524 40218 52005
  333 55301 20378 60005 91107 91204=
06782 NIL=
06681 23/// /2003 10089 20032 39288 48505 52009
  333 55300 20428 60005 91109 91204=
06685 23/// /0000 10074 20044 39591 40209 52010
  333 55300 20454 60005 91104 91203=
06700 23/// /2109 10107 20051 39722 40212 53000
  333 55300 20587 60005 91116 91212=
06670 23/// /2203 10059 20046 39701 40218 52011
  333 55300 20151 69915 91108 91205=
06750 23/// /0105 10014 21055 37720 48506 55002
  333 55310 21102 60005 91115 91209=
06711 23/// /2903 10094 20051 39671 40215 55001
  333 55300 20576 60005 91105 91203=
06717 23/// /0905 11015 21093 37532 47068 55004
  333 55308 20907 60005 91109 91205=
06735 23/// /1103 10053 20006 38693 48510 53007
  333 55309 20958 60005 91109 91204=
06727 23/// /2707 10055 20020 39444 48494 53002
  333 55300 20209 60005 91113 91209=
06612 23/// /2508 10056 20035 39032 48512 53009
  333 55300 20144 60005 91114 91208=
06645 23/// /3001 10062 20039 39486 48503 53011
  333 55300 20223 60005 91110 91206=
06633 23/// /3102 10062 20040 39752 40222 52010
  333 55300 20205 60005 91107 91204=
06650 23/// /0102 10063 20047 39668 40217 52010
  333 55300 20472 60005 91109 91206=
06655 23/// /1203 10048 20020 39005 48505 52012
  333 55303 20698 60005 91110 91205=
06620 23/// /2410 10048 20037 39681 40214 52006
  333 55300 20241 69915 91115 91212=
06660 23/// /2802 10060 20044 39548 40215 52010
  333 55300 20270 60005 91105 91203=
06783 23/// /0501 11001 21013 38370 48516 57011
  333 55300 20133 60005 91103 91202=
06780 23/// /3208 11031 21075 37352 47061 57004
  333 55301 20601 60005 91112 91208=
06791 23/// /2508 11060 21106 36790 47063 57006
  333 55300 20706 60005 91118 91210=
06601 23/// /1502 10077 20044 39828 40212 53006
  333 55300 20295 60005 91105 91203=
06705 23/// /2302 10104 20055 39667 40212 53002
  333 55300 20680 60005 91108 91204=
06619 23/// /1103 10041 20023 38825 48511 52008
  333 55300 20212 60005 91113 91204=
06631 23/// /0306 10059 20043 39557 40221 53005
  333 55300 20292 60005 91109 91207=
06621 23/// /0303 10039 20038 39679 40216 52007
  333 55300 20263 60005 91107 91205=
06626 23/// /2902 10060 20038 39758 40221 52009
  333 55300 20212 60005 91107 91203=
06673 23/// /0801 10041 20037 39629 40219 52008
  333 55300 20328 60005 91106 91203=
06679 23/// /2503 10079 20041 39564 40206 52008
  333 55300 20306 60005 91111 91204=
06664 23/// /1101 10057 20045 39680 40218 52010
  333 55300 20209 60005 91105 91202=
06760 23/// /0000 10089 20043 39772 40221 56015
  333 55300 20245 60005 91103 91202=
06646 23/// /1903 10066 20046 39818 40215 53006
  333 55300 20223 60005 91108 91203=
06636 23/// /2302 10063 20047 39641 40220 53003
  333 55300 20241 60005 91107 91203=
06759 23/// /0506 10002 21008 38343 48512 57011
  333 55300 20331 60005 91109 91206=
06722 23/// /0802 10056 21064 38172 48505 55001
  333 55304 20770 60005 91103 91201=
06666 23/// /2101 10048 20040 39800 40218 53007
  333 55300 20230 60005 91102 91201=
06744 23/// /3303 10013 21043 38040 48511 53001
  333 55303 20529 60005 91107 91205=
06756 23/// /3302 10051 20026 39538 40230 56012
  333 55300 20108 60005 91103 91202=
06669 43/// /23// 10027 20026 39217 48496 52011
  333 55300 20137 91122 91215=
06689 23/// /2710 10051 20017 38896 48504 52010
  333 55300 20432 60005 91117 91211=
06628 23/// /3108 10068 20017 39002 48513 52009
  333 55302 20688 60005 91123 91214=
06751 23/// /3601 11016 21037 38102 48512 57010
  333 55304 20648 60005 91103 91202=
06747 43/// /0703 11013 21153 37160 47067 57005
  333 55300 20551 91108 91206=
06709 43/// /2505 10070 20053 39769 40223 55001
  333 91107 91205=
06740 43/// /2411 11054 21072 36971 47061 56006
  333 55305 20860 91117 91211=
06641 23/// /3001 10070 20056 39799 40218 53004
  333 55300 20230 60005 91104 91203=
06618 23/// /2105 10092 20068 39694 40217 53001
  333 55300 20295 60005 91115 91210=
06706 43/// /2902 1//// 2//// 3//// 5////
  333 91106 91203=
06787 23/// /1704 10068 21004 39047 48498 55004
  333 55302 20378 60005 91108 91204=
06754 43/// /3105 11019 21051 37811 48512 57007
  333 553// 20356 91107 91204=
06683 43/// /2601 1//// 2//// 39721 50///
  333 91104 91203=
06778 23/// /0701 10008 21043 38021 48500 55004
  333 55300 20374 60005 91108 91205=
06733 23/// /0506 10069 20034 39247 48508 53009
  333 55304 20698 60005 91112 91208=
06731 23/// /3201 10084 20047 39533 40210 53004
  333 55303 20601 60005 91105 91203=
06632 23/// /2202 10053 20050 39703 40226 52///
  333 55300 20338 60005 91104 91203=
06644 23/// /1803 10064 20057 39671 40217 53006
  333 55300 20277 60005 91110 91207=
06752 23/// /0105 10073 20029 39716 40224 57014
  333 55300 20126 60005 91108 91205=
06606 23/// /2404 10080 20054 39699 40218 53001
  333 55300 20169 60005 91107 91204=
06688 43/// /2402 11002 21063 37528 47060 57003
  333 55310 20961 91109 91205=
06777 23/// /3207 10012 20012 38406 48512 56012
  333 55300 20313 60005 91109 91206=
06704 23/// /2208 10081 20050 39407 48514 53005
  333 55300 20454 60005 91116 91210=
06708 23/// /2408 10066 20066 39246 48514 52005
  333 55300 20410 60005 91113 91209=
06617 23/// /2609 10053 20024 38996 48512 52009
  333 553// 20259 60005 91120 91213=
06648 23/// /3210 10069 20051 39589 40214 52008
  333 55300 20220 60005 91113 91210=
06671 43/// /2105 1//// 2//// 39731 5////
  333 91108 91205=
06656 23/// /1004 1//// 2//// 39538 52008
  333 60005 91106 91204=
06651 23/// /2606 10102 20020 39331 48513 52008
  333 55301 20461 60005 91111 91206=
06687 43/// /0906 1//// 2//// 39695 50///
  333 91116 91207=
06793 23/// /0308 10048 21005 38433 48506 53002
  333 55300 20652 60005 91115 91209=
06795 23/// /3103 11015 21092 37356 47065 57001
  333 55300 20418 60005 91110 91207=
06799 43/// /2905 10017 21078 37624 47085 55004
  333 55308 21008 91110 91206=
06723 43/// /2405 11021 21078 37299 47066 55003
  333 55308 21008 91110 91205=
06749 43/// /2507 11038 21152 36944 47066 57006
  333 55302 20742 91114 91206=
06739 43/// /2807 11031 21091 37154 47067 57005
  333 55310 21055 91114 91207=
06657 23/// /0000 10063 2//// 39649 40216 52///
  333 553// 20788 60005 91103 91201=
06788 23/// /0000 10031 20010 38958 48513 57012
  333 55300 20292 60005 91103 91202=

0000073900
812
SNBX40 EBBR 111400
AAXX 11141
06407 42575 13007 10078 20023 30187 40194 52022 81501
333 81620 91111 91208=
06428 45582 /3004 10081 20038 30147 40190 53017
 333 81/27 91109 91205=
06447 NIL=
06451 42562 52806 10078 20049 30117 40185 53014 85800
333 84830 91110 91207=
06456 41345 82807 10064 20054 39845 40192 53008 75052 877//
 333 82709 87711 91111 91208=
06476 45382 82504 10058 20038 39516 40182 54002
333 81/09 86/34 88/39 91108 91205=
06479 41460 62605 10065 20052 30097 40172 53008 72122 86800
 333 82711 84618 91110 91206=
06490 47360 82606 10058 2//// 39601 4//// 57003 76154
333 83/09 88/10 91110 91206=
06590 42358 32404 10065 20048 39731 40186 58002 82501
333 81708 91106 91204=
0000075300
813
SNBX41 EBBR 111400
AAXX 11141
06400 42580 23005 10079 20036 30187 40195 53020 81501
 333 81623 91110 91206=
06431 NIL=
06432 45476 /2906 10085 20052 30122 40194 53013
 333 81/16 83/25 87/29 91109 91206=
06449 41460 72705 10069 20047 39961 40191 53013 72122 86602
333 86711 91110 91206=
06450 42465 42907 10084 20045 30163 40179 53015 84800
333 84818 91110 91207=
06458 47462 /2705 10066 20052 30045 40185 53012 70065
 333 84/10 85/26 91109 91206=
06465 45466 /2605 10074 20047 30112 40177 53011
 333 81/14 83/30 91109 91206=
06478 41256 72807 10064 20052 39959 40181 53010 78086 867//
333 82704 86710 91112 91208=
06496 47461 /2706 10050 20036 39495 40170 55005 75265
 333 81/11 85/15 87/21 91111 91206=
0000011100
814
UANT01 CWAO 111412
ARP AAL173 5205N02303W 1412 F320 MS58 186/69 KT
N349AN DDL XXN 111412 F26A
0000011100
815
UANT01 CWAO 111412
ARP UAL949 5744N01913W 1412 F330 MS61 234/83 KT
N663UA DDL XXN 111412 F24A
0000011000
816
UANT01 CWAO 111412
ARP UAL65 4455N04041W 1412 F330 MS59 305/49 KT
N57111 DDL IG1 111412 F18A
0000011000
817
UANT01 CWAO 111413
ARP BAW175 5334N03526W 1412 F370 MS56 224/14 KT
GBNLP QXT AOE 111413 F09A
0000011100
818
UANT01 CWAO 111413
ARP UAL993 5017N03801W 1412 F350 MS59 309/53 KT
N668UA DDL XXW 111413 F17A
0000011200
819
UANT01 CWAO 111413
ARP GTI8089 5244N04107W 1413 F360 MS59 285/55 KT
N640GT DDL IG1 111413 F49A
0000011100
820
UANT01 CWAO 111413
ARP UAL125 5102N04706W 1413 F370 MS62 288/68 KT
N13138 DDL IG1 111413 F77A
0000215800
821
KSAB31 KWBC 111414 RRA
CREX++
T000119 A001 D01021 D06021++
3002717 -09011342 NWCL1 2014 01 11 13 30 00 07 164 10130 266 0031+
2978856 -09042019 BYGL1 2014 01 11 13 30 00 07 192 10122 272 0047+
2966750 -09123761 TESL1 2014 01 11 13 30 00 07 179 10130 268 0046+
2944958 -09133811 AMRL1 2014 01 11 13 30 00 07 126 10134 246 0021+
2955500 -09230500 FRWL1 2014 01 11 13 30 00 07 161 10137 259 0056+
3022364 -09322167 LCLL1 2014 01 11 13 30 00 07 161 10147 /// ////+
2976817 -09334289 CAPL1 2014 01 11 13 30 00 07 117 10153 294 0053+
2986670 -09393000 PORT2 2014 01 11 13 30 00 07 /// 10143 286 0051+
2972840 -09387010 SBPT2 2014 01 11 13 30 00 07 154 10139 288 0028+
2968170 -09498500 MGPT2 2014 01 11 13 30 00 07 152 10148 287 0034+
2972628 -09526581 NCHT2 2014 01 11 13 30 00 07 154 10170 /// ////+
2968928 -09384181 TXPT2 2014 01 11 13 30 00 07 128 10145 262 0028+
2951500 -09451330 RLOT2 2014 01 11 13 30 00 07 157 10147 264 0033+
2948000 -09491830 EPTT2 2014 01 11 13 30 00 07 153 10151 278 0022+
2935733 -09472483 GNJT2 2014 01 11 13 30 00 07 138 10135 279 0051+
2931000 -09479330 GTOT2 2014 01 11 13 30 00 07 142 10163 /// ////+
2894331 -09530250 FCGT2 2014 01 11 13 30 00 07 139 10154 287 0035+
2840830 -09671170 SDRT2 2014 01 11 13 30 00 07 131 10163 311 0022+
2864000 -09659500 VCAT2 2014 01 11 13 30 00 07 129 10159 298 0030+
2845170 -09638830 PCNT2 2014 01 11 13 30 00 07 /// ///// 323 0044+
2811830 -09702170 CPNT2 2014 01 11 13 30 00 07 135 10168 287 0024+
2802170 -09704670 RCPT2 2014 01 11 13 30 00 07 135 10158 311 0019+
2783830 -09707330 RTAT2 2014 01 11 13 30 00 07 131 10160 264 0021+
2782170 -09720330 NGLT2 2014 01 11 13 30 00 07 131 10160 272 0019+
2763330 -09723670 PACT2 2014 01 11 13 30 00 07 143 10160 234 0020+
2758000 -09721670 MQTT2 2014 01 11 13 30 00 07 134 10151 254 0031+
2729500 -09740500 BABT2 2014 01 11 13 30 00 07 131 10160 267 0017+
2682500 -09749170 RSJT2 2014 01 11 13 30 00 07 /// ///// 250 0012+
2607670 -09717670 PCGT2 2014 01 11 13 30 00 07 173 10167 296 0020+
2606000 -09721500 PTIT2 2014 01 11 13 30 00 07 174 10167 /// ////++
7777

0000034200
822
KSAB30 KWBC 111414
CREX++
T000119 A001 D01021 D06025++
4677570 -09209200 DULM5 2014 01 11 13 24 //// 00 07 00 06
00077 //// 00089 //// 00099 //// 00099 //// 00114 //// 00135 ////+
4774783 -09034133 GDMM5 2014 01 11 13 24 //// 00 07 00 06
00083 //// 00071 //// 00058 //// 00072 //// 00077 //// 00080 ////++
7777

0000022800
823
KSAB30 KWBC 111414 RRA
CREX++
T000119 A001 D01021 D06021++
4677570 -09209200 DULM5 2014 01 11 13 30 00 07 -019 09967 256 0022+
4774783 -09034133 GDMM5 2014 01 11 13 30 00 07 -019 09954 /// ////++
7777

0000015800
824
KSAJ30 KWBC 111414 RRA
CREX++
T000119 A001 D01021 D06021++
-1428000 -17069000 NSTP6 2014 01 11 13 30 00 07 279 10048 261 0020++
7777

00000000