0000003800
965
SNVJ21 AMMC 111400
NIL
0000011000
966
UANT01 CWAO 111415
ARP BAW43C 5208N02307W 1415 F360 MS59 199/63 KT
GVIIR QXT AOE 111415 F12A
0000011000
967
UANT01 CWAO 111415
ARP AFR682 4849N04054W 1415 F350 MS62 307/56 KT
FGSPP QXT AOW 111415 F29A
0000009100
968
SXEO40 EEMH 111400
SEA 1114
26058  3/559=
26115  3/531=
86094  3/544=
0000011000
969
UANT01 CWAO 111415
ARP DAL81 5240N03427W 1415 F340 MS54 231/14 KT
N172DN QXT AOE 111415 F82A
0000038500
970
SSVX13 LFPW 111400
ZZYY 61691 11014 1400/ 144517 032895 6113/ 11119 40216 52003 22219
 00095 33300 88870 20000 30952 20011 30960 20013 30948 20016 30956
 20021 30948 20026 30948 20031 30956 20036 30944 20041 30940 20047
 30952 20052 30932 20057 30944 20062 30916 20067 30836 20072 30812
 20077 30796 20082 30788 444 20131 11014 1147/ 50101 80094 80045
 9/015=
0000081400
971
SAUZ31 UTTW 111400
METAR UTFN 111400Z 34002MPS 1400 R28/1400D BR NSC M03/M04 Q1026
R28/CLRD70 NOSIG=
METAR UTNN 111400Z 08002MPS CAVOK M01/M02 Q1020 R33/CLRD60 NOSIG=
METAR UTNU 111400Z 07002MPS 3100 BR SCT200 02/M02 Q1020 R31/CLRD60
NOSIG=
METAR UTSA 111400Z 11005MPS 7000 FEW026 02/M05 Q1021 R25/CLRD70
NOSIG=
METAR UTSB 111400Z 15003MPS 6000 NSC 05/M09 Q1021 R01/CLRD70 NOSIG=
METAR UTSK 111400Z NIL=
METAR UTSS 111400Z 19001MPS 9999 NSC 01/M05 Q1021 R88/CLRD70 NOSIG=
METAR UTST 111400Z 12002MPS 7000 NSC 05/M05 Q1023 R88/CLRD70 NOSIG=
METAR UTFA 111400Z 00000MPS 0700 R04/0700 FZFG NSC M04/M06 Q1026
R88/09//70=
METAR UTFF 111400Z 35001MPS 0200 R18/0200N FZFG NSC M03/M05 Q1025
R18/CLRD70=
METAR UTTT 111400Z VRB01MPS 4000 FU NSC 01/M04 Q1022 R08R/CLRD70
NOSIG=
0000179900
972
SAIR31 OIII 111400
 METAR OIAA 111400Z 29006KT 9999 FEW030CB SCT035 BKN100 13/09
 Q1018=
 METAR OIAG 111400Z 13008KT 9999 -TSSHRA SCT030CB BKN035 13/11
 Q1017 RESH=
 METAR OIAH 111400Z 00000KT 6000 -RA FEW035CB SCT040 OVC070 09/08
 Q1017=
 METAR OIAI 111400Z 18004KT 4000 RA SCT030CB SCT035 OVC070 10/09
 Q1016=
 METAR OIAM 111400Z 10008KT 4000 -DZ SCT010 FEW030CB OVC080 12/12
 Q1017=
 METAR OIAW 111400Z 15004KT 1000 RA SCT020CB SCT030 OVC070 12/12
 Q1016=
 METAR OIBA 111400Z 13006KT 3000 RA FEW025CB FEW030 OVC080 17/15
 Q1019=
 METAR OIBB 111400Z 13012KT 7000 TSRA FEW025 FEW030CB SCT035 OVC070
 13/10 Q1016 A3001=
 METAR OIBK 111400Z 09012KT 9999 SCT020 FEW030CB SCT030 OVC090
 16/14 Q1019=
 METAR OIBL 111400Z 04006KT 4000 BR FEW020CB FEW025 OVC080 15/13
 Q1020=
METAR OIBS 111400Z 15014KT 7000 -RA FEW030CB OVC080 18/11 Q1020=
 METAR OICC 111400Z 00000KT 4000 BR FEW030CB SCT035 OVC070 00/M00
 Q1018 A3008 TEMPO SN=
 METAR OICI 111400Z 14004KT 8000 FEW015 FEW025CB SCT035 BKN090
 05/05 Q1016 A3002=
 METAR OICJ 111350Z 29004KT 2000 -SN FEW030CB SCT035 OVC070 00/M01
 Q1018=
 METAR OICK 111350Z 15004KT 7000 -TSRA FEW010 FEW030CB BKN035
 OVC070 04/03 Q1017=
METAR OICS 111400Z 19004KT 7000 FEW035 BKN080 00/M04 Q1018=
METAR OIFK 111400Z 00000KT 2000 BR BKN020 OVC070 01/00 Q1022=
 METAR OIFM 111400Z 00000KT 0300 -SN FG SCT035 OVC090 M00/M00 Q1018
 A3007=
 METAR OIFS 111400Z 00000KT 1000 -SN BR FEW025CB SCT030 OVC070
 M04/M05 Q1018=
METAR OIGG 111400Z 00000KT 3000 BR FEW030 BKN160 08/06
Q1013=
METAR OIGK 111350Z 00000KT 9999 SCT020 OVC080 M02/M06 Q1016=
 METAR OIHH 111400Z 00000KT 2000 BR FEW030CB BKN035 OVC090 M05/M07
 Q1019=
METAR OIHM 111400Z 30006KT 1000 BR SCT035 OVC090 M01/M02 Q1017=
0000175600
973
SAIR31 OIII 111400 RRA
 METAR OIIE 111400Z 29005KT 8000 SCT025 FEW035CB SCT045 OVC080
 02/M01 Q1019 A3012 NOSIG=
 METAR OIII 111400Z 30008KT 1200 BR SCT030 OVC090 01/M01 Q1019
 A3010 TEMPO 0500 BR FEW035CB SCT030 BKN100 TEMPO 0500 BR FEW035CB
SCT030 BKN100=
METAR OIIK 111400Z 00000KT 8000 SCT040 BKN090 00/M04 Q1019=
 METAR OIIP 111400Z 00000KT 5000 BR FEW020 SCT035 OVC080 M01/M02
 Q1018=
METAR OIIS 111400Z 00000KT 9999 FEW030 BKN100 04/M02 Q1019=
 METAR OIKB 111400Z 20004KT 7000 FEW025CB SCT030 OVC100 14/11 Q1020
 A3013 NOSIG=
METAR OIKK 111350Z 00000KT 9999 SCT035 BKN100 02/M04 Q1019 A3010=
 METAR OIKO 111350Z 00000KT 6000 FEW015 SCT025CB OVC070 16/10
 Q1021=
 METAR OIKQ 111400Z 34004KT 6000 RA FEW025CB SCT030 OVC090 13/08
 Q1020=
METAR OIMB 111400Z 09014KT 9999 SCT040 BKN090 03/M13 Q1019=
METAR OIMC 111400Z 17010KT 9999 SCT040 11/M06 Q1017=
METAR OIMD 111400Z 00000KT 9999 FEW035 BKN100 06/M05 Q1016=
METAR OIMM 111400Z 14006KT CAVOK 06/M12 Q1017 A3004=
METAR OINB 111400Z 00000KT 9999 FEW030 SCT100 BKN190 10/08 Q1013=
METAR OING 111400Z 06004KT 6000 SCT030 BKN090 09/08 Q1015=
METAR OINK 111400Z 00000KT 8000 NSC 10/05 Q1014=
METAR OINN 111400Z 16004KT CAVOK 10/09 Q1014=
METAR OINR 111400Z 00000KT 6000 NSC 10/07 Q1013=
 METAR OISA 111350Z 00000KT 8000 -SHRA FEW035CB SCT040 OVC090 02/00
 Q1017 RESH=
 METAR OISF 111350Z 00000KT 8000 FEW035CB SCT040 OVC100 06/03
 Q1018=
 METAR OISL 111400Z 00000KT 9999 FEW020 FEW030CB OVC080 08/05 Q1020
 RERA=
 METAR OISS 111400Z 09004KT 1500 BR FEW030CB SCT035 OVC080 03/03
 Q1019 A3010 RERA=
 METAR OISY 111400Z 00000KT 0900 +SN FEW030CB SCT035 OVC080 00/ M00
 Q1019=
METAR OITL 111350Z 21023KT CAVOK M01/M05 Q1015=
0000060000
974
SAIR31 OIII 111400 RRB
 METAR OITR 111400Z 10004KT 2000 HZ FEW035 SCT170 M07/M09 Q1019
 NOSIG=
 METAR OITT 111400Z 00000KT 5000 HZ FEW035 SCT190 M04/M10 Q1020
 A3013=
METAR OITU 111350Z 00000KT 6000 SCT035 M13/M15 Q1020=
METAR OIYY 111400Z 33008KT 6000 FEW035 BKN100 06/M03 Q1019=
METAR OIZB 111400Z 23004KT 9999 FEW040 BKN090 08/M01 Q1023=
METAR OIZC NIL=
 METAR OIZH 111400Z 11014KT 9999 FEW035 BKN090 05/M07 Q1019 A3011
 NOSIG=
METAR OIZI 111400Z 26012KT 9999 FEW020 OVC090 14/M02 Q1021=
 METAR OIZJ 111400Z 00000KT 8000 FEW025CB SCT030 BKN090 19/05
 Q1020=
0000021000
975
SOBR10 KWAL 111416
BAB00078?011141611 :BUB 2|>yUD)v
v9de*lp<1S2o"s,t4;[>DM1^qm5d1uxt	L)J(py7&w$Nq73u"(t|9Yu>Vi/B/431be)<L6%b8gh) dC*F;}%	':tp"|Of<@
T f5|4b9R" 32+0NP 219E
0000121200
976
SMIN05 DEMS 111200 RRB
AAXX 11124
43086 32597 10000 10280 20172 39950 40126 81500
  333 10298 58019=
43128 31496 51405 10268 20173 39524 40124 70511 83401
  333 10296 56309 58016 83615 83070=
43150 31596 11403 10262 20191 30063 40138 70500 81500
222// 20000
  333 10282 58004 81620=
43185 32597 41402 10258 20200 30123 40127 82531
  333 10294 58005 82620 83360=
43189 32597 29901 10266 20191 30129 40138 81502
  333 10308 58007=
43198 32996 22506 10278 20118 39282 40090 80001
  333 10304 58006 82075=
43201 32497 32302 10296 20122 39377 40078 83500
  333 10313 58004 83615=
43233 32497 29902 10284 20109 39299 40090 82400
  333 10309 58007=
43237 32997 40902 10302 20136 39717 40102 82032
  333 10326 58005 82360 84075=
43284 32996 03208 10286 20208 39989 40103
  333 10320 58007=
43295 32597 40902 10268 20120 39100 48518 81501
  333 10292 58010 81620 84075=
43314 32997 22903 10314 20246 40107 80001
  333 10340 58007=
43353 31996 02708 10300 20227 40108 70500
  333 10324 58009=
43369 21597 40904 10288 20248 40104 70252 82530
  333 10315 58007 6990/ 82620=
43371 32597 29903 10294 20236 30031 40103 81501
  333 10324 58004 81620=
0000030400
977
SMIN51 DEMS 111200 RRD
AAXX 11124
43128 31496 51405 10268 20173 39524 40124 70511 83401
  333 10296 56309 58016 83615 83070=
43295 32597 40902 10268 20120 39100 48518 81501
  333 10292 58010 81620 84075=
43371 32597 29903 10294 20236 30031 40103 81501
  333 10324 58004 81620=
0000010200
978
SAIN90 VEBS 111400
METAR VEBS 111400Z 14003KT 2500 HZ NSC 23/18 Q1015
BECMG 1500 BR=
0000012000
979
SMMC02 GMMC 111200 RRB
AAXX 11124
60106 32560 50000 10150 20102 40202 51013 83230
  333 83820 83360=
0000011000
980
UANT99 KDDL 111414
ARP BAW295 5642N01638W 1414 F360 MS61 245/72 KT
GVIIX QXT AOE 111414 F05A
0000011000
981
UANT99 KDDL 111415
ARP AFR842 4802N01255W 1415 F310 MS52 240/53 KT
FGSQX DDL BYT 111415 F12A
0000010900
982
UANT99 KDDL 111415
ARP KLM17 5202N01601W 1415 F350 MS63 230/77 KT
PHAOC QXT AOE 111415 J12A
0000011100
983
UANT99 KDDL 111415
ARP UAL988 5306N02658W 1415 F360 MS56 185/64 KT
N776UA DDL XXN 111415 F19A
0000003800
984
SNVA21 AMMC 111400
NIL
00000000