0000013800
065
ULUG01 HUEN 111200
TTCC 61125 63705
70858 68571 16006 50060 68774 25024
88983 83956 05520
77999
31313 41408 81131=
0000036400
066
SXXX32 EUMS 111412
22E595B6
:PRS 1 /1 M 3279 3313 3322 3298 3328 3314 3324 3352 3333 3348 3344 3329 3342 3363 3369 3418 3412 3402 3408 3397 3404 3436 3439 3412 3425 3395 3408 3421 3400 :RAD 1 /3 6505 6519 6537 6552 6583 6595 6600 6601 6598 6599 :ENC 2 /5 4620 4645 4674 4711 4724 4718 :SW1 12 /60 60 :SW2 42 /60 60 :BAT 14 /15 12.6 :NAME 22E595B6
0000044500
067
SXXX32 EUMS 111413
32BD7124
:PRS 1 /1 1863 1866 1877 1881 1885 1888 1890 1890 1889 1887 1885 1885 1882 1880 1877 1873 1871 1869 1868 1871 1871 1875 1877 1877 1879 1877 1878 1879 1882 1885 :RAD 3 /3 7661 7668 7671 7665 7662 7657 7658 7662 7664 7663 7661 7657 7663 7674 7691 7700 7705 7703 7695 7693 :ENC 3 /5 4661 4666 4659 4652 4659 4661 4654 4659 4682 4699 4699 4688 :SW1 14 /60 0 :SW2 44 /60 0 :BAT 14 /15 12.5 :NAME 32BD7124
0000070100
068
SXXX32 EUMS 111413 RRA
223412A2
OT12 ID:IND-SADENG DT:2014 01 11 14 12
:PRS /1 01413 01452 01510 01623 01533 01479 01579 01529 01571 01459 01530 01545 01516 01523 01511 01473 01449 01557 01563 01475 01461 01449 01428 01490 01441 01516 01562 01488 01405 01398
:ENC /1 -13279 -13259 -13246 -13176 -13239 -13266 -13193 -13223 -13243 -13256 -13226 -13229 -13259 -13233 -13259 -13279 -13283 -13219 -13216 -13273 -13293 -13306 -13323 -13273 -13299 -13239 -13196 -13269 -13346 -13349
:RAD /1 11268 11235 11271 11332 11274 11242 11209 11277 11289 11249 11270 11261 11251 11226 11254 11235 11227 11279 11282 11266 11261 11231 11220 11210 11192 11231 11304 11285 11204 11176
:BAT 11.9V
0000040600
069
SXXX32 EUMS 111415
262D700E
:PRS 1 /1 3307 3361 3288 3298 3272 3218 3271 3292 3284 3272 3271 3247 3256 3227 3237 3237 3252 3264 3265 3225 3239 3200 3158 3168 3179 3215 3200 3219 3212 3219 :RAD 1 /3 5712 5709 5704 5695 5691 5676 5650 5639 5639 5623 5604 5591 5581 5575 5542 :ENC 5 /5 5827 5810 5816 5757 5758 5728 5698 5677 5664 5622 5614 5577 :SW1 15 /60 0 :BAT 14 /15 13.1 :NAME 262D700E
0000044900
070
SXXX32 EUMS 111415 RRA
16289262
:PRS 1 /1 2393 2391 2378 2382 2373 2372 2378 2379 2367 2379 2378 2358 2351 2364 2368 2355 2358 2359 2354 2358 2349 2353 2339 2343 2344 2340 2350 2337 2326 2349 :RAD 1 /3 7829 7828 7822 7812 7808 7802 7798 7791 7789 7787 7785 7781 7779 7777 7772 7768 7766 7761 7756 7756 :ENC 5 /5 5198 5191 5182 5169 5168 5154 5149 5149 5138 5135 5130 5131 :SW1 15 /60 0 :SW2 45 /60 0 :BAT 14 /15 12.7 :NAME 16289262
0000044500
071
SXXX32 EUMS 111415 RRB
324DF524
:PRS 1 /1 2195 2183 2172 2160 2148 2137 2125 2114 2102 2091 2079 2068 2057 2046 2035 2024 2014 2004 1993 1983 1974 1964 1955 1947 1940 1932 1925 1918 1912 1906 :RAD 1 /3 2148 2111 2074 2040 2008 1978 1950 1927 1907 1891 1878 1867 1859 1853 1849 1847 1845 1846 1848 1851 :ENC 5 /5 1081 1023 967 915 876 844 822 808 799 796 796 800 :SW1 15 /60 0 0 :SW2 45 /60 60 60 :BAT 14 /15 12.2 :NAME 324DF524
0000041600
072
SXXX32 EUMS 111416
26CB10AC
:PRS 1 /1 -1338 -1338 -1338 -1338 -1338 -1338 -1338 -1338 -1338 -1338 -1338 -1338 -1338 -1339 -1338 -1338 -1338 -1338 -1338 -1338 -1338 -1338 -1338 -1338 -1338 -1338 -1338 -1338 -1339 -1338 :RAD 3 /3 6155 6150 6141 6136 6132 6130 6126 6117 6114 6107 :RA2 3 /3 6141 6140 6126 6123 6116 6114 6113 6099 6101 6091 :SW1 17 /60 0 :SW2 47 /60 26 :BAT 14 /15 12.3 :NAME 26CB10AC
0000044900
073
SXXX32 EUMS 111416 RRA
1227146C
:PRS 1 /1 3754 3755 3757 3758 3760 3763 3766 3772 3777 3777 3780 3788 3788 3789 3795 3800 3804 3807 3810 3815 3815 3815 3819 3820 3819 3822 3826 3834 3835 3836 :RAD 3 /3 3742 3751 3764 3771 3782 3798 3806 3806 3809 3826 3838 3851 3854 3859 3862 3852 3862 3875 3878 3868 :ENC 1 /5 4516 4532 4550 4569 4577 4593 4614 4628 4629 4632 4644 4647 :SW1 17 /60 0 :SW2 47 /60 0 :BAT 14 /15 12.2 :NAME 1227146C
0000010600
074
UANT99 KDDL 111417
ARP AAL49 65N020W 1417 F340 MS55 152/33 KT
N355AA DDL KEF 111417 F37A
0000011000
075
UANT99 KDDL 111417
ARP DLH418 5202N01600W 1417 F340 MS61 224/84 KT
DABYK QXT EUA 111417 F06A
0000011000
076
UANT99 KDDL 111417
ARP EIN121 5305N02246W 1417 F360 MS61 201/66 KT
EIEAV DDL XXN 111418 J01A
0000173700
077
SASA85 EGRR 111400 RRE
METAR SAVC 111400Z 11006KT 070V160 CAVOK 18/08 Q1018=
METAR SAWE 111400Z 34011KT 9999DZ FEW015 SCT050 09/08 Q1004=
METAR SKBG 111400Z 12003KT 9999 FEW015 23/16 A3005=
METAR SKBQ 111400Z 05008KT CAVOK 27/22 A2993=
METAR SKCG 111400Z 09004KT CAVOK 27/23 A2990=
METAR SKRG 111400Z 18004KT 8000 FEW010 BKN070 16/14 A3033 RMK HZ=
METAR SKSM 111400Z 00000KT 9999 FEW020 28/22 A2989=
METAR SKSP 111400Z 09012KT 9999 BKN016TCU 27/24 A2996 RMK/TCU/NE=
METAR SLCA 111400Z 00000KT 9999 FEW033 30/22 Q1015=
METAR SLCO 111400Z 34005KT 9999 SCT012 BKN015 OVC080 27/24 Q1013=
METAR SLCP 111400Z 36008KT 9999 BKN015 BKN070 25/22 Q1017=
METAR SLET 111400Z 32015KT 9999 SCT010 BKN015 28/23 Q1013=
METAR SLJE 111400Z 00000KT 9999 FEW015 31/23 Q1016=
METAR SLJO 111400Z 09004KT 9999 SCT015 FEW020CB BKN080 27/24 Q1013=
METAR SLMG 111400Z 03006KT 9999 FEW015 BKN080 27/23 Q1014=
METAR SLPO 111400Z 06006KT 9999 NSC 13/04 Q1040=
METAR SLPS 111400Z 06008KT 9999 NSC 32/24 Q1012=
METAR SLRB 111400Z 32008KT 9999 FEW020 29/25 Q1015=
METAR SLRQ 111400Z 33004KT 6000 SCT004 BKN006 24/24 Q1012=
METAR SLRY 111400Z 34004KT 9999 BKN015 27/23 Q1013=
METAR SLSA 111400Z 36008KT 9999 BKN017 BKN080 28/25 Q1013=
METAR SLSI 111400Z 33006KT 9999 BKN017 27/23 Q1015=
METAR SLSU 111400Z 13003KT 9999 SCT017 19/12 Q1031=
METAR SLTR 111400Z 35007KT 9999 FEW015 BKN080 29/23 Q1013=
METAR SLVM 111400Z 36006KT 9999 NSC 32/24 Q1009=
METAR SLYA 111400Z 36007KT 9999 NSC 30/23 Q1011=
METAR SVBC 111400Z 00000KT 9999 FEW010 29/22 Q1016=
METAR SVCB 111400Z 07007KT 9999 SCT013 27/// Q1015=
METAR SVPR 111400Z 06009KT 9999 SCT040 ///// Q1017=
METAR SVST 111400Z 00000KT CAVOK ///// Q1016=
0000172900
078
SASA85 EGRR 111400 RRF
METAR SAAR 111400Z 14013KT CAVOK 24/08 Q1018=
METAR SANT 111400Z 18015KT 2500 TSRA BKN004 FEW045CB OVC050 20/19 Q1021=
METAR SAOC 111400Z 05008KT CAVOK 21/10 Q1021=
METAR SARC 111400Z 09006KT 2000 +TSRA FEW008 OVC040 FEW045CB 20/19
      Q1016=
METAR SARE 111400Z 11009KT 2500 TSRA FEW025 OVC040 FEW056CB 20/19 Q1015=
METAR SARL 111400Z 09014KT 8000 -RA SCT008 OVC040 22/21 Q1012 RETS=
METAR SASA 111400Z 18008KT 9999 SCT020TCU 27/19 Q1018=
METAR SASJ 111400Z 14008KT 9999 FEW040TCU SCT200 29/19 Q1014=
METAR SAZM 111400Z 18015KT 9999 SCT025 19/06 Q1020=
METAR SAZN 111400Z 07002KT CAVOK 22/03 Q1020=
METAR SBAT 111400Z 06004KT 9999 -RA SCT006 BKN100 24/23 Q1016=
METAR SBHT 111400Z 20003KT 9999 FEW010 BKN015 BKN100 25/24 Q1014=
METAR SBIL 111400Z 13008KT 9999 SCT025 FEW030TCU BKN100 30/23 Q1016=
METAR SBIZ 111400Z 12005KT 9999 SCT020 31/22 Q1013=
METAR SBKG 111400Z 14013KT 9999 BKN030 28/18 Q1015=
METAR SBMS 111400Z 09008KT 9999 SCT030 34/19 Q1012=
METAR SBTC 111400Z 09003KT 9999 SCT015 BKN060 32/24 Q1016=
METAR SBTK 111400Z 02005KT 9999 OVC015 25/23 Q1015=
METAR SBTT 111400Z 26002KT 4000 1000SW RA BCFG BKN010 SCT014 BKN100
      24/23 Q1015 RERA=
METAR SBTU 111400Z 06005KT 9999 BKN015 BKN070 27/24 Q1016=
METAR SBVH 111400Z 36007KT 9999 SCT020 SCT100 27/21 Q1017=
METAR SKBO 111400Z VRB02KT 9999 FEW017 BKN090 14/09 A3037=
METAR SKCL 111400Z 00000KT 4000 BR BKN005 BKN080 22/21 A3005 RMK AD
      OPER IMC=
METAR SKLT 111400Z 00000KT 3000 -RA BKN006 BKN080 25/24 A2996 RERA
      RMK AD OPR IMC=
METAR SKMD 111400Z 00000KT 9000 SCT025 BKN080 21/17 A3014 RMK HZ=
METAR SKPE 111400Z VRB02KT 9999 SCT017 SCT070 23/18 A3016=
0000164900
079
SASA85 EGRR 111400 RRG
METAR SBAF 111400Z 35008KT CAVOK 34/20 Q1014=
METAR SBAN 111400Z 08006KT 9999 SCT030 26/17 Q1021=
METAR SBBH 111400Z 08008KT 9999 SCT030 27/17 Q1020=
METAR SBBI 111400Z 03004KT 9999 BKN016 28/20 Q1020=
METAR SBBQ 111400Z 34006KT 9999 BKN020 26/16 Q1023=
METAR SBBU 111400Z 32008KT CAVOK 32/22 Q1018=
METAR SBBW 111400Z 30003KT 9999 FEW020 28/21 Q1017=
METAR SBCC 111400Z 01004KT 9999 FEW020 BKN100 23/20 Q1017=
METAR SBCO 111400Z 30007KT 9999 FEW035 FEW040TCU 30/// Q1012=
METAR SBDN 111400Z 34006KT CAVOK 32/16 Q1016=
METAR SBGW 111400Z 04004KT 9999 FEW020 31/20 Q1017=
METAR SBIH 111400Z 12003KT 9999 SCT022 FEW023TCU BKN100 28/24 Q1014=
METAR SBJF 111400Z 06005KT 9999 BKN020 FEW025TCU 26/20 Q1021=
METAR SBJR 111400Z 18004KT 9999 FEW020 34/25 Q1013=
METAR SBME 111400Z 04007KT CAVOK 36/24 Q1014=
METAR SBMK 111400Z 10011KT 9999 SCT030 BKN040 27/16 Q1020=
METAR SBMT 111400Z 04006KT CAVOK 31/17 Q1018=
METAR SBPC 111400Z 04006KT 9999 SCT020 27/20 Q1023=
METAR SBSC 111400Z 02012G22KT CAVOK 34/20 Q1013=
METAR SBSM 111400Z 29008KT 4000 -TSRA SCT007 BKN020 FEW040CB OVC070
      22/21 Q1015=
METAR SBUL 111400Z 03012KT 9999 FEW040 27/17 Q1021=
METAR SBUR 111400Z 03010KT 9999 SCT040 29/16 Q1020=
METAR SBYS 111400Z 36009KT 9999 SCT035 31/19 Q1018=
METAR SKBO 111400Z VRB02KT 9999 FEW017 BKN090 14/09 A3037=
METAR SKCG 111400Z 09004KT COVOK 27/23 A2990=
METAR SKCL 111400Z 00000KT 4000 BR BKN005 BKN080 22/21 A3005 RMK AD
      O PER IMC=
METAR SKSM 111400Z 00000KT 9999 FEW020 28/22 A2989=
METAR SKSP 111400Z 09012KT 9999 BKN016 TCU 27/24 A2996 TCUNE=
0001252800
080
SNIN01 DEMS 111000
OOXX
LUN 11104 99230 10929 09932 08722
26/// /2602 10232 20053 39131 48494 5//// 6//// 7//// 8//// 9////
  333 55/// ///// 58004 6000/
  555 60815 =


MAD 11104 99124 10757 06525 11142
26/// ///// 10245 2//// 38890 48502 5//// 6//// 7//// 8//// 9////
  333 55/// ///// 58005 6000/
  555 60609 =


MAS 11104 99305 10780 13708 18602
26/// ///// 10050 20038 38154 48518 5//// 6//// 7//// 8//// 9////
  333 55/// ///// 58020 6000/
  555 60426 =


MAT 11104 99166 10817 06461 00082
26/// /0002 1//// 29065 30092 4//// 5//// 6//// 7//// 8//// 9////
  333 55/// ///// 58011 6000/
  555 60742 =


MDL 11104 99226 10803 10020 04372
26/// /3207 10168 20166 39626 40128 5//// 6//// 7//// 8//// 9////
  333 55/// ///// 58027 6000/
  555 60250 =


MDR 11104 99240 10751 10145 04642
26/// ///// 10169 20110 39651 40188 5//// 6//// 7//// 8//// 9////
  333 55/// ///// 58/// 6000/
  555 60543 =


MGA 11104 99308 10752 13705 02202
26/// /2906 10164 20079 39930 40189 5//// 6//// 7//// 8//// 9////
  333 55/// ///// 58028 6000/
  555 60032 =


MGI 11104 99267 10931 09963 00762
26/// /0201 10191 20152 30075 40164 5//// 6//// 7//// 8//// 9////
  333 55/// ///// 58010 6000/
  555 60400 =


MGP 11104 99288 10770 10187 02182
26/// /3103 10166 2//// 39939 40195 5//// 6//// 7//// 8//// 9////
  333 55/// ///// 58033 6000/
  555 60045 =


MIR 11104 99259 10841 10154 00662
26/// /0702 10169 201015 30099 40177 5//// 6//// 7//// 8//// 9////
  333 55/// ///// 58005 6003/
  555 60258 =


MIZ 11104 99252 10826 10052 01102
26/// /0402 10183 20181 30029 40158 5//// 6//// 7//// 8//// 9////
  333 55/// ///// 58009 6000/
  555 60345 =


MKK 11104 99263 10945 09964 13592
26/// /3202 10138 20085 38646 48504 5//// 6//// 7//// 8//// 9////
  333 55/// ///// 58008 6000/
  555 60450 =


MKL 11104 99281 10770 10187 02032
26/// /2911 10168 20080 39947 40185 5//// 6//// 7//// 8//// 9////
  333 55/// ///// 58023 6000/
  555 6//// =


MLG 11104 99201 10748 10104 04482
26/// /1003 10234 20012 39616 40121 5//// 6//// 7//// 8//// 9////
  333 55/// ///// 58022 6000/
  555 6//// =


MLP 11104 99248 10850 10045 01102
26/// /1106 1//// 2//// 30016 4//// 5//// 6//// 7//// 8//// 9////
  333 55/// ///// 58008 6002/
  555 6//// =


MLR 11104 99339 10750 13635 16012
26/// /1202 10046 20066 38460 48560 5//// 6//// 7//// 8//// 9////
  333 55/// ///// 58055 6000/
  555 60540 =


MMT 11104 99239 10925 09932 08132
26/// /2709 10226 201019 39198 48497 5//// 6//// 7//// 8//// 9////
  333 55/// ///// 58002 6000/
  555 60504 =


MNS 11104 99301 10754 13705 02222
26/// /3202 10173 20079 39934 40195 5//// 6//// 7//// 8//// 9////
  333 55/// ///// 58028 6000/
  555 60457 =


MOR 11104 99265 10903 09960 00602
26/// /3401 10207 2//// 30066 40136 5//// 6//// 7//// 8//// 9////
  333 55/// ///// 58011 6000/
  555 60543 =


MPR 11104 99272 10790 10179 01592
26/// /3001 10180 20097 39982 40169 5//// 6//// 7//// 8//// 9////
  333 55/// ///// 58028 6000/
  555 60515 =


MPT 11104 99206 10856 10005 01032
26/// /2004 10278 2//// 3//// 4//// 5//// 6//// 7//// 8//// 9////
  333 55/// ///// 58/// 6000/
  555 60729 =


MRG 11104 99271 10835 10073 00912
26/// /2902 10183 2//// 3//// 4//// 5//// 6//// 7//// 8//// 9////
  333 55/// ///// 58/// 6001/
  555 6//// =


MRT 11104 99290 10778 10197 02262
26/// /0302 10183 20018 39912 40175 5//// 6//// 7//// 8//// 9////
  333 55/// ///// 58026 6000/
  555 60617 =


MTS 11104 99304 10745 13704 01972
26/// /3204 10170 20019 39951 40182 5//// 6//// 7//// 8//// 9////
  333 55/// ///// 58/// 6000/
  555 60647 =


MUS 11104 99266 10919 09961 00802
26/// /1900 10198 20151 30058 40152 5//// 6//// 7//// 8//// 9////
  333 55/// ///// 58014 6000/
  555 60520 =


MVM 11104 99131 10802 06530 00072
26/// /0802 10292 20210 30123 40130 5//// 6//// 7//// 8//// 9////
  333 55/// ///// 58007 6000/
  555 60727 =


MWT 11104 99288 10770 10187 01832
26/// /2903 10167 20134 39971 40186 5//// 6//// 7//// 8//// 9////
  333 55/// ///// 58034 6000/
  555 60659 =


NAL 11104 99263 10920 09962 00492
26/// /2001 10186 20102 30097 40155 5//// 6//// 7//// 8//// 9////
  333 55/// ///// 58016 6000/
  555 60506 =


NAU 11104 99309 10770 13707 12412
26/// /2507 10129 20049 38766 48497 5//// 6//// 7//// 8//// 9////
  333 55/// ///// 58025 6000/
  555 60650 =


NAV 11104 99212 10738 10113 01312
26/// /3302 10248 20018 39963 40113 5//// 6//// 7//// 8//// 9////
  333 55/// ///// 58016 6000/
  555 6//// =


NBR 11104 99113 10762 06516 00272
26/// /2202 10337 20220 30047 40077 5//// 6//// 7//// 8//// 9////
  333 55/// ///// 58010 6000/
  555 60642 =


NCM 11104 99286 10774 10187 02022
26/// /2906 10172 20081 39934 40170 5//// 6//// 7//// 8//// 9////
  333 55/// ///// 58031 6000/
  555 60620 =


NDY 11104 99154 10784 06558 02162
26/// /1405 1//// 2//// 39882 4//// 5//// 6//// 7//// 8//// 9////
  333 55/// ///// 58007 6000/
  555 60636 =


NEY 11104 99116 10795 06519 00572
26/// /0904 1//// 2//// 30056 4//// 5//// 6//// 7//// 8//// 9////
  333 55/// ///// 58009 6000/
  555 60553 =


NHN 11104 99303 10772 13707 08682
26/// /2802 10128 20062 39176 48510 5//// 6//// 7//// 8//// 9////
  333 55/// ///// 58027 6000/
  555 60617 =


NJG 11104 99286 10770 10187 02072
26/// /3002 10173 201016 39952 40195 5//// 6//// 7//// 8//// 9////
  333 55/// ///// 58034 6000/
  555 60612 =


NMI 11104 99272 10884 10078 13952
26/// /1001 10100 2//// 30086 48801 5//// 6//// 7//// 8//// 9////
  333 55/// ///// 58013 6000/
  555 60225 =


NMN 11104 99111 10781 06518 01912
26/// /1202 10340 20292 39885 40096 5//// 6//// 7//// 8//// 9////
  333 55/// ///// 58010 6000/
  555 60715 =


NNT 11104 99294 10794 10199 19272
26/// /0802 10039 20038 38071 48504 5//// 6//// 7//// 8//// 9////
  333 55/// ///// 58012 6003/
  555 60530 =


NOG 11104 99255 10912 09951 13512
26/// /3302 10140 20046 38649 48494 5//// 6//// 7//// 8//// 9////
  333 55/// ///// 58009 6000/
  555 60248 =


NRG 11104 99229 10792 10129 03642
26/// /1102 10184 2//// 3//// 4//// 5//// 6//// 7//// 8//// 9////
  333 55/// ///// 58/// 6000/
  555 60252 =


NVL 11104 99140 10756 06545 06142
26/// /2306 10307 20247 39423 40090 5//// 6//// 7//// 8//// 9////
  333 55/// ///// 58005 6000/
  555 60708 =


NVR 11104 99192 10825 06492 06012
26/// /2001 10275 20085 39441 40098 5//// 6//// 7//// 8//// 9////
  333 55/// ///// 58002 6000/
  555 60636 =


NWS 11104 99311 10761 10116 02562
26/// /2803 10186 20094 39885 40183 5//// 6//// 7//// 8//// 9////
  333 55/// ///// 58025 6000/
  555 60540 =


NYG 11104 99201 10851 10005 01192
26/// /1405 1//// 2//// 3//// 4//// 5//// 6//// 7//// 8//// 9////
  333 55/// ///// 58/// 6000/
  555 6//// =


OSD 11104 99181 10760 06586 06742
26/// /2104 10311 20101 39382 40109 5//// 6//// 7//// 8//// 9////
  333 55/// ///// 58004 6000/
  555 60722 =


OTY 11104 99114 10766 06516 21362
26/// /1102 10199 20070 37896 48497 5//// 6//// 7//// 8//// 9////
  333 55/// ///// 58007 6000/
  555 60756 =


PAG 11104 99238 10721 10132 00952
26/// /0104 10225 20068 30052 40163 5//// 6//// 7//// 8//// 9////
  333 55/// ///// 58026 6000/
  555 60640 =


PAT 11104 99250 10860 10056 00562
26/// /0602 10166 20164 30099 40165 5//// 6//// 7//// 8//// 9////
  333 55/// ///// 58009 6002/
  555 60113 =


PAY 11104 99124 10782 06528 04692
26/// /0803 10292 20132 39590 40104 5//// 6//// 7//// 8//// 9////
  333 55/// ///// 58012 6000/
  555 60727 =


PBR 11104 99112 10789 06518 01212
26/// /0406 10291 20164 39979 40115 5//// 6//// 7//// 8//// 9////
  333 55/// ///// 58011 6000/
  555 60759 =


PCR 11104 99084 10773 02987 00792
26/// /2504 10307 20210 30018 40107 5//// 6//// 7//// 8//// 9////
  333 55/// ///// 58007 6000/
  555 60745 =


PGD 11104 99140 10773 06547 06612
26/// /0404 10296 20122 39375 40094 5//// 6//// 7//// 8//// 9////
  333 55/// ///// 58010 6000/
  555 60741 =


PHE 11104 99257 10945 09954 13952
26/// /3002 10167 20051 38601 48493 5//// 6//// 7//// 8//// 9////
  333 55/// ///// 58007 6000/
  555 60642 =


PKL 11104 99101 10776 06507 02902
26/// /1306 10305 20135 39772 40092 5//// 6//// 7//// 8//// 9////
  333 55/// ///// 58008 6000/
  555 60744 =


PKR 11104 99245 10878 10047 00442
26/// /0501 10166 20155 30099 40151 5//// 6//// 7//// 8//// 9////
  333 55/// ///// 58018 6000/
  555 60258 =


PLG 11104 99197 10728 06592 00062
26/// /3307 10253 20066 30116 40123 5//// 6//// 7//// 8//// 9////
  333 55/// ///// 58003 6000/
  555 60711 =


PLP 11104 99320 10763 13726 12612
26/// /0402 10124 2//// 3//// 40/// 5//// 6//// 7//// 8//// 9////
  333 55/// ///// 58/// 6////
  555 60124 =


PLT 11104 99286 10798 10189 01732
26/// /1201 10162 20157 39955 40158 5//// 6//// 7//// 8//// 9////
  333 55/// ///// 58026 6001/
  555 60425 =


PNK 11104 99307 10770 10107 03202
26/// /2605 10172 20076 39812 40185 5//// 6//// 7//// 8//// 9////
  333 55/// ///// 58031 6000/
  555 60700 =


PRT 11104 99248 10940 09944 07812
26/// ///// 10245 20064 39289 40144 5//// 6//// 7//// 8//// 9////
  333 55/// ///// 58003 6000/
  555 60811 =


PRU 11104 99233 10864 10036 02552
26/// ///// 10181 2//// 39853 40149 5//// 6//// 7//// 8//// 9////
  333 55/// ///// 58017 6000/
  555 6//// =


PSH 11104 99185 10738 06583 05772
26/// /2405 10286 20085 39455 40083 5//// 6//// 7//// 8//// 9////
  333 55/// ///// 58001 6000/
  555 60527 =


PTG 11104 99296 10802 10090 15182
26/// /0502 10063 20062 38492 48512 5//// 6//// 7//// 8//// 9////
  333 55/// ///// 58018 6004/
  555 60206 =


PTL 11104 99303 10763 10106 02572
26/// /3402 10179 20096 39886 40186 5//// 6//// 7//// 8//// 9////
  333 55/// ///// 58029 6000/
  555 60652 =


PTM 11104 99287 10771 10187 02302
26/// /20// 1//// 29092 30078 4//// 5//// 6//// 7//// 8//// 9////
  333 55/// ///// 59033 6000/
  555 61031 =


PUN 11104 99185 10738 06583 05572
26/// /2207 10294 2//// 3//// 4//// 5//// 6//// 7//// 8//// 9////
  333 55/// ///// 58/// 6000/
  555 6//// =


PUP 11104 99265 10857 10065 00512
26/// /2402 10181 201015 30114 40174 5//// 6//// 7//// 8//// 9////
  333 55/// ///// 58026 6000/
  555 60439 =


RAS 11104 99233 10778 10137 04282
26/// /3305 10179 20128 39634 40127 5//// 6//// 7//// 8//// 9////
  333 55/// ///// 58037 6000/
  555 60507 =


RCR 11104 99162 10773 06567 03962
26/// ///// 10291 20157 39657 40094 5//// 6//// 7//// 8//// 9////
  333 55/// ///// 58006 6000/
  555 60716 =


RDR 11104 99290 10794 10199 02002
26/// /1403 10172 20089 39937 40171 5//// 6//// 7//// 8//// 9////
  333 55/// ///// 58027 6000/
  555 60538 =


REW 11104 99245 10813 10041 02852
26/// /3107 10149 20147 39818 40152 5//// 6//// 7//// 8//// 9////
  333 55/// ///// 58022 6000/
  555 60012 =


RHK 11104 99289 10766 10186 02252
26/// /3204 10173 20062 39914 40178 5//// 6//// 7//// 8//// 9////
  333 55/// ///// 58031 6000/
  555 60439 =


RNT 11104 99211 10866 10016 00302
26/// /1106 10252 2//// 30102 40137 5//// 6//// 7//// 8//// 9////
  333 55/// ///// 58004 6000/
  555 60745 =


RNV 11104 99214 10698 10219 00352
26/// /0407 10222 20048 30109 40150 5//// 6//// 7//// 8//// 9////
  333 55/// ///// 58013 6000/
  555 60643 =


RPN 11104 99310 10765 13716 02742
26/// /2403 10184 20066 39863 40181 5//// 6//// 7//// 8//// 9////
  333 55/// ///// 58028 6000/
  555 60445 =


RTL 11104 99234 10750 10135 05152
26/// /0406 10154 20129 39580 40176 5//// 6//// 7//// 8//// 9////
  333 55/// ///// 58046 6000/
  555 60355 =


RUN 11104 99303 10763 13706 02202
26/// /3207 10169 20089 39895 40153 5//// 6//// 7//// 8//// 9////
  333 55/// ///// 58029 6000/
  555 60651 =


RUR 11104 99186 10779 06587 03912
26/// /1202 10282 20175 39679 40112 5//// 6//// 7//// 8//// 9////
  333 55/// ///// 58008 6000/
  555 60724 =



0000018000
081
SAWD01 OEJD 111400 RRA
METAR UUEE 111400Z 28009G14MPS 9999 -SN BKN014 M00/M02 Q0990 75290151
25290151 NOSIG=
METAR VHHH 111400Z 10011KT CAVOK 17/12 Q1023 NOSIG=
0000053400
082
UKSD10 OEJD 111200 RRB
TTBB 61138 40430
00947 19072 11777 03460 22765 04069 33690 01487 44571
10191 55522 12994 66385 31774 77323 40969 88295 45568
99275 44779 11187 54578 22133 58979 33131 58779 44100
69773
21212 00947 03004 11723 31510 22709 33514 33694 30515
44657 29014 55612 30518 66568 29517 77533 27537 88489
28539 99396 26052 11302 27060 22272 26092 33257 27094
44239 27589 55217 26608 66175 26597 77161 26614 88135
27588 99121 27088 11108 26568 22100 26069
31313 48008 81232
41414 00900=
0000032800
083
USSD10 OEJD 111200 RRB
TTAA 61131 40430
99947 19072 03004 00166 ///// ///// 92835 16467 26505
85545 09662 32006 70125 01888 32015 50574 15592 28539
40738 29377 26050 30937 44768 27061 25059 47578 27093
20205 52778 27600 15388 56380 27106 10639 69773 26069
88999
77161 26614 42027
31313 48008 81232=
0000032800
084
USSD20 OEJD 111200 RRB
TTAA 61131 40430
99947 19072 03004 00166 ///// ///// 92835 16467 26505
85545 09662 32006 70125 01888 32015 50574 15592 28539
40738 29377 26050 30937 44768 27061 25059 47578 27093
20205 52778 27600 15388 56380 27106 10639 69773 26069
88999
77161 26614 42027
31313 48008 81232=
00000000