0000037700
665
SAIN34 VOMM 111400
METAR VOBL 111400Z 15005KT 8000 NSC 26/12 Q1017 NOSIG=
METAR VOCB 111400Z 07005KT 5000 HZ NSC 27/15 Q1014 NOSIG=
METAR VOCI 111400Z 00000KT 4000 HZ NSC 26/21 Q1011 NOSIG=
METAR VOCL 111400Z 30002KT 6000 NSC 26/22 Q1012 NOSIG=
METAR VOMD 111400Z 14008KT 6000 FEW020 28/18 Q1013=
METAR VOML 111400Z 34006KT 6000 NSC 27/21 Q1011 NOSIG=
0000012000
666
SNAA19 EGRR 110900
OOXX
AAERI 11094 99849 51288 60048 09901 46/// /0916 11134 38718 49853 5//// 90930=
0000012000
667
SNSQ51 LZIB 111400 CCA
AAXX 11141
11993 42564 61802 10028 21006 39987 40208 82201
  333 82823 86070=
0000010900
668
UANT01 CWAO 111408
ARP DAL1 4956N04717W 1408 F340 MS61 284/52 KT
N177DZ QXT AOW 111408 F81A
0000012800
669
UAPA01 KWBC 111409
ARP PAL103 24N 180W 1357 F340 MS40 305/055KT=
ARP PAL105 21N 170E 1400 F360 MS45 270/030KT=
0000011100
670
UANT01 CWAO 111408
ARP UAL951 5306N02707W 1408 F370 MS58 196/59 KT
N777UA DDL XXN 111408 F43A
0000032200
671
SNMK10 LYPG 111400
AAXX 11141
13463 42570 52501 10133 20076 30168 40228 57011 83830=
13459 42670 61602 10108 20088 39465 40225 55010 83230 333 83896 85399
=
13461 42670 62702 10147 20107 30227 40234 55004 83884 333 81840 82656
92312 92428=
13363 42970 22002 10130 20034 39302 48540 57015 80001=
0000009200
672
SSVX02 KARS 111406
ZZYY 23699 11014 0730/ 126042 055273 6113/
22219 00229=
0000065600
673
SNBX43 EBUM 111400
AAXX 11141
06418 46/// /3107 10085 20051 30174 40186 53020 333   91111 91208=
06434 46/// /3005 10086 20047 30172 40192 53017 333   91110 91206=
06439 46/// /2805 10086 20050 30171 40185 53013 333   91108 91205=
06447 42496 62803 10072 20058 30060 40186 53012 84801 333   91107
91205=
06455 46/// /2604 10081 20045 39894 40179 53009 333   91109 91205=
06464 46/// /2804 10075 20075 30140 40168 53010 333   91108 91205=
06472 46/// ///// 10080 20056 39827 40187 53003=
06477 46/// /2506 10073 20054 30127 40177 53012 333   91109 91206=
06484 46/// /2504 10068 20068 39797 40191 56003 333   91106 91204=
0000025200
674
SNBX42 EBUM 111400
AAXX 11141
06414 46/// /3106 10084 20043 30157 40190 53018 333   91111 91208=
06459 46/// /2906 10066 20066 30000 40194 53014 333   91111 91208=
06494 46/// /2606 10041 20037 39367 40170 56003 333   91111 91207=
0000018000
675
SMVD01 PANC 111200 RRK
BBXX
C6SW3 11124 99450 31716
41597 30126 10140 20123 40020 56010 70100 8318/
22214 00140 20404 336// 40303 5//// 6//// 80130 ICE /////=
0000011000
676
UANT01 CWAO 111409
ARP XLF066 4825N01648W 1409 F360 MS64 222/92 KT
FHXLF DDL XXN 111409 J30A
0000011800
677
SNVF25 LFPW 111400
BBXX
BATUK01 11144 99575 70061 43/// /2615 10064 21011 40130 53018
22281 04095=
0000050600
678
SNSP20 LEMM 111400
AAXX 11144
08045 46/// /1904 10139 20088 39864 40170 58016
  555 60005=
08181 45/64 /0609 10140 20119 30186 40193 57013
  555 60005=
08221 42864 63202 10123 20068 39505 40182 56016 82037
  555 60005=
08284 46/// /0000 10137 20075 30113 40188 56017
  555 60005=
08306 46/// /0000 10165 20130 30171 40177 56012
  555 60005=
08314 46/// /1507 10151 2//// 3//// 4//// 5////
  555 60005=
08482 46/// /3002 10155 20117 30180 40188 58013
  555 60005=
0000014500
679
SSVX13 LFPW 111400
ZZYY 64519 11014 1400/ 163048 007398 6113/ 11119 49989 52002 444
 20130 11014 1200/ 50101 80138 80000 9/015=
0000009200
680
SAIR31 OIII 111400 RRA
METAR OIZC 111400Z 16004KT CAVOK 17/00
Q1020 A3014=
0000009200
681
SAIR77 OIII 111400 RRA
METAR OIZC 111400Z 16004KT CAVOK 17/00
Q1020 A3014=
0000009200
682
SAIR78 OIII 111400 RRA
METAR OIZC 111400Z 16004KT CAVOK 17/00
Q1020 A3014=
0000168600
683
SASA85 EGRR 111400 RRA
METAR SBAR 111400Z 14010KT 9999 SCT018 29/20 Q1015=
METAR SBBR 111400Z 06009KT 9999 BKN033 26/15 Q1020=
METAR SBBV 111400Z 04014KT CAVOK 29/17 Q1015=
METAR SBCB 111400Z 08011KT CAVOK 31/24 Q1014=
METAR SBCF 111400Z 06009KT 9999 BKN040 27/15 Q1021=
METAR SBCR 111400Z 36005KT 9999 FEW020 31/23 Q1013=
METAR SBCT 111400Z 07009KT 9999 SCT020 26/20 Q1020=
METAR SBCY 111400Z 32010KT 9999 SCT020 30/21 Q1014=
METAR SBFI 111400Z 01009KT CAVOK 32/21 Q1012=
METAR SBFL 111400Z 35012KT CAVOK 29/20 Q1012=
METAR SBFN 111400Z 09012KT 9999 SCT021 28/20 Q1014=
METAR SBFZ 111400Z 11018KT 9999 SCT025 31/17 Q1012=
METAR SBGL 111400Z 36004KT 9999 FEW020 34/21 Q1014=
METAR SBGR 111400Z 33008KT 9999 SCT045 30/20 Q1018=
METAR SBKP 111400Z 35012KT 9999 SCT042 30/19 Q1018=
METAR SBMA 111400Z 08006KT 9999 SCT015 BKN100 27/24 Q1014=
METAR SBMO 111400Z 13009KT 9999 SCT020 30/19 Q1014=
METAR SBMQ 111400Z 10006KT 9999 SCT010 BKN090 27/24 Q1014=
METAR SBNT 111400Z 13015KT 9999 BKN030 30/20 Q1013=
METAR SBRB 111400Z 03003KT 9999 BKN015 SCT100 ///// Q1014=
METAR SBSN 111400Z 00000KT 9999 SCT017 BKN100 28/23 Q1014=
METAR SGAS 111400Z 32008KT 300V360 9999 FEW040 SCT083 BKN200 35/23
      Q1011=
METAR SGES 111400Z 03010KT 360V090 9999 SCT030 BKN200 31/24 Q1012=
METAR SMJP 111400Z 20005KT 9999 FEW012 SCT035 26/22 Q1015 NOSIG=
METAR SPIM 111400Z 16007KT 9999 BKN010 22/19 Q1013 NOSIG RMK PP000=
METAR SVAC 111400Z 02008KT 9999 FEW023 28/21 Q1018=
METAR SVBM 111400Z 07003KT 9999 SCT016 23/19 Q1020=
METAR SVMI 111400Z 02002KT 9999 SCT016 27/20 Q1016 NOSIG=
METAR SVSP 111400Z 04014KT 9999 BKN035 XX/XX Q1015=
0000158000
684
SASA85 EGRR 111400 RRB
METAR SBVT 111400Z 36010KT 9999 SCT023 33/21 Q1016=
METAR SEGU 111400Z 23004KT 9999 BKN026 BKN100 26/20 Q1012 RMK A2989
      NOSIG=
METAR SPCL 111400Z 01006KT 9999 FEW020 BKN080 26/22 Q1014 RMK BIRD
      HAZARD RWY 02/20 PP000=
METAR SPGM 111400Z /////KT 3000 RA FEW015 SCT030 OVC070 22/20 Q1017
      RMK PP040=
METAR SPHI 111400Z 17008KT CAVOK 24/20 Q1012 RMK PP000=
METAR SPHO 111400Z VRB02KT 8000 SCT020 BKN070 13/10 Q1027 RMK BCFG
      QUADS N/NE PP000=
METAR SPHY 111400Z 33005KT 8000 SCT012 BKN050 11/07 Q1034 RMK PP000=
METAR SPJI 111400Z 00000KT 9999 BKN030 26/23 Q1022 RMK PP000=
METAR SPJL 111400Z 00000KT CAVOK 12/03 Q1038 RMK PP000=
METAR SPJR 111400Z VRB02KT CAVOK 17/11 Q1028 RMK PP000=
METAR SPLO 111400Z 14007KT CAVOK 24/19 Q1010 RMK PP000=
METAR SPME 111400Z 08003KT 9999 OVC015 25/22 Q1012 RMK BIRD HAZARD
      RWY 32/14 PP000=
METAR SPMS 111400Z /////KT 9999 SCT015 SCT100 28/23 Q1015 RMK BIRD
      HAZARD 09/27 PP000=
METAR SPQT 111400Z VRB03KT 9999 BKN020 SCT100 28/24 Q1013 NOSIG RMK
      PP000=
METAR SPRU 111400Z 15008KT 8000 SCT013 OVC100 22/19 Q1013 RMK BR PP000=
METAR SPSO 111400Z /////KT 8000 FEW010 OVC100 23/19 Q1012 RMK BIRD
      HAZARD RWY 22/04 PP000=
METAR SPTN 111400Z 23004KT CAVOK 24/16 Q1010 RMK PP000=
METAR SPTU 111400Z 30005KT 9999 FEW007 SCT033 28/24 Q1012 RMK BIRD
      HAZARD RWY 01/19 PP000=
METAR SPYL 111400Z 14016KT CAVOK 27/20 Q1012 RMK PP000=
METAR SPZO 111400Z VRB02KT 9999 FEW036 SCT070 15/08 Q1032 NOSIG RMK
      PP000=
00000000