0000045000
565
SXXX32 EUMS 111403 RRA
32D8A2BE
:PRS 1 /1 1757 1754 1756 1754 1744 1754 1748 1749 1744 1747 1751 1735 1743 1744 1731 1730 1738 1732 1730 1739 1729 1729 1728 1728 1727 1730 1723 1729 1722 1725 :RAD 1 /3 7332 7328 7322 7314 7311 7309 7305 7303 7300 7299 7298 7293 7288 7284 7283 7281 7276 7274 7270 7270 :ENC 3 /5 4758 4750 4742 4738 4734 4732 4727 4723 4721 4715 4707 4702 :SW1 3 /60 60 :SW2 33 /60 60 :BAT 14 /15 12.4 :NAME 32D8A2BE
0000047700
566
SXXX32 EUMS 111404
262AD2C2
OT12 ID:PK-ORMA-10 DT:2014 01 11 14 03
:PRS /1 07942 07932 07947 07921 07942 07943 07950 07955 07952 07959 07938 07946 07966 07977 07981 07987 07988 07998 07998 07996 08002 08016 08014 08030 08019 08028 08004 08040 08033 08058
:RAD /1 ///// ///// ///// ///// ///// ///// ///// ///// ///// ///// ///// ///// ///// ///// ///// ///// ///// ///// ///// ///// ///// ///// ///// ///// ///// ///// ///// ///// ///// /////
:BAT 12.8V
0000011000
567
UANT99 KDDL 111406
ARP UAL76 5400N03023W 1406 F330 MS58 172/52 KT
N14118 DDL IG1 111406 F69A
0000011000
568
UANT99 KDDL 111406
ARP AZA60U 4904N02921W 1406 F340 MS48 209/35 KT
EIISB QXT AOE 111406 F21A
0000011000
569
UANT99 KDDL 111406
ARP AFR792 4729N02611W 1406 F330 MS47 199/64 KT
FGSQO QXT AOE 111407 F25A
0000011100
570
UANT99 KDDL 111407
ARP UAL947 5406N02649W 1407 F340 MS60 188/63 KT
N652UA DDL XXN 111407 F54A
0000011000
571
UANT99 KDDL 111407
ARP BAW185 5207N02701W 1407 F380 MS53 193/51 KT
GVIIB QXT AOE 111407 F13A
0000169300
572
SAFC21 OEJD 111400
METAR
OEAB 111400Z 21006KT 9999 FEW012 SCT020 14/12 Q1024 NOSIG=
OEAH 111400Z 20007KT 9999 FEW045 SCT100 17/13 Q1018 NOSIG=
OEAO 111400Z 33008KT CAVOK 17/M01 Q1022=
OEBA 111400Z 07004KT 9999 SCT030 17/13 Q1021 NOSIG=
OEBH 111400Z 28005KT 9999 FEW030 20/11 Q1019 NOSIG=
OEDF 111400Z 19007KT 6000 BKN025 OVC090  17/13 Q1018 NOSIG=
OEDM 111400Z 33005KT CAVOK 15/02 Q1019=
OEDR 111400Z 18010KT 9999 FEW040 SCT080 16/13 Q1017 NOSIG=
OEGN 111400Z 26008KT 9999  BKN025 27/22 Q1016 NOSIG=
OEGS 111400Z 32005KT CAVOK 16/07 Q1019=
OEGT 111400Z 30006KT CAVOK 12/M01 Q1022 NOSIG=
OEHL 111400Z 30020KT 9999 BKN040 10/02 Q1021 NOSIG=
OEJN 111400Z 32020KT CAVOK 25/04 Q1016 NOSIG=
OEKJ 111400Z 18004KT 9999  BKN070 17/10 Q1020=
OEKK 111400Z 35012KT 9000 SCT040 13/11 Q1020 NOSIG=
OEKM 111400Z 24010KT 9999 FEW025 15/11 Q1024 NOSIG=
OEMA 111400Z 18004KT CAVOK 20/M02 Q1021 NOSIG=
OEMK 111400Z 33002KT CAVOK 27/09 Q1015=
OENG 111400Z 30006KT 9999 FEW025CB SCT030 BKN090 19/12 Q1019 NOSIG=
OEPA 111400Z 29010KT 9999 SCT035 12/07 Q1019 NOSIG=
OERF 111400Z 36017KT 9999 BKN040 BKN100 09/04 Q1019=
OERK 111400Z 34009KT 7000 SKC 15/08 Q1020 NOSIG=
OERR 111400Z 34016KT 9999 SCT020 SCT030 09/09 Q1021 NOSIG=
OERY NIL=
OESH 111400Z 02004KT 9999 SCT040 SCT090 27/10 Q1015 NOSIG=
OESK 111400Z 35016KT 9999 SCT030 09/01 Q1022=
OETB 111400Z 34012KT 9999 SCT040 15/02 Q1022 NOSIG=
OETF 111400Z 36005KT 9999 FEW030 16/04 Q1021 NOSIG=
OETR 111400Z 33008KT 9999 SCT030 BKN100 07/04 Q1022=
OEWD 111400Z 14006KT CAVOK 24/12 Q1016 NOSIG=
OEWJ 111400Z 29014KT CAVOK 22/10 Q1020 NOSIG=
OEYN 111400Z 24010KT CAVOK 24/07 Q1017 NOSIG=
0000188500
573
SASD20 OEJD 111400
METAR OEAB 111400Z 21006KT 9999 FEW012 SCT020 14/12 Q1024 NOSIG=
METAR OEAH 111400Z 20007KT 9999 FEW045 SCT100 17/13 Q1018 NOSIG=
METAR OEAO 111400Z 33008KT CAVOK 17/M01 Q1022=
METAR OEBA 111400Z 07004KT 9999 SCT030 17/13 Q1021 NOSIG=
METAR OEBH 111400Z 28005KT 9999 FEW030 20/11 Q1019 NOSIG=
METAR OEDF 111400Z 19007KT 6000 BKN025 OVC090  17/13 Q1018 NOSIG=
METAR OEDM 111400Z 33005KT CAVOK 15/02 Q1019=
METAR OEDR 111400Z 18010KT 9999 FEW040 SCT080 16/13 Q1017 NOSIG=
METAR OEGN 111400Z 26008KT 9999  BKN025 27/22 Q1016 NOSIG=
METAR OEGS 111400Z 32005KT CAVOK 16/07 Q1019=
METAR OEGT 111400Z 30006KT CAVOK 12/M01 Q1022 NOSIG=
METAR OEHL 111400Z 30020KT 9999 BKN040 10/02 Q1021 NOSIG=
METAR OEJN 111400Z 32020KT CAVOK 25/04 Q1016 NOSIG=
METAR OEKJ 111400Z 18004KT 9999  BKN070 17/10 Q1020=
METAR OEKK 111400Z 35012KT 9000 SCT040 13/11 Q1020 NOSIG=
METAR OEKM 111400Z 24010KT 9999 FEW025 15/11 Q1024 NOSIG=
METAR OEMA 111400Z 18004KT CAVOK 20/M02 Q1021 NOSIG=
METAR OEMK 111400Z 33002KT CAVOK 27/09 Q1015=
METAR OENG 111400Z 30006KT 9999 FEW025CB SCT030 BKN090 19/12 Q1019 NOSIG=
METAR OEPA 111400Z 29010KT 9999 SCT035 12/07 Q1019 NOSIG=
METAR OERF 111400Z 36017KT 9999 BKN040 BKN100 09/04 Q1019=
METAR OERK 111400Z 34009KT 7000 SKC 15/08 Q1020 NOSIG=
METAR OERR 111400Z 34016KT 9999 SCT020 SCT030 09/09 Q1021 NOSIG=
METAR OERY 111400Z NIL=
METAR OESH 111400Z 02004KT 9999 SCT040 SCT090 27/10 Q1015 NOSIG=
METAR OESK 111400Z 35016KT 9999 SCT030 09/01 Q1022=
METAR OETB 111400Z 34012KT 9999 SCT040 15/02 Q1022 NOSIG=
METAR OETF 111400Z 36005KT 9999 FEW030 16/04 Q1021 NOSIG=
METAR OETR 111400Z 33008KT 9999 SCT030 BKN100 07/04 Q1022=
METAR OEWD 111400Z 14006KT CAVOK 24/12 Q1016 NOSIG=
METAR OEWJ 111400Z 29014KT CAVOK 22/10 Q1020 NOSIG=
METAR OEYN 111400Z 24010KT CAVOK 24/07 Q1017 NOSIG=
0000009200
574
SASD32 OEJD 111400
METAR OETF 111400Z 36005KT 9999 FEW030 16/04 Q1021 NOSIG=
0000103700
575
UDAS02 BABJ 111359
AMDAR 1113
LVR CNFPYN 2953N 11709E 111354 F246 MS260 266/085 TB/ S//1=
LVR CNFPYN 2946N 11708E 111355 F246 MS256 267/091 TB/ S//1=
LVR CNFPYN 2939N 11708E 111356 F246 MS250 265/091 TB/ S//1=
LVR CNFPYN 2932N 11708E 111357 F246 MS254 265/092 TB/ S//1=
DES CNFPQK 3022N 10656E 111354 F133 MS076 271/023 TB/ S//1=
DES CNFPQK 3020N 10655E 111355 F129 MS080 272/018 TB/ S//1=
DES CNFPQK 3016N 10653E 111356 F122 MS095 329/008 TB/ S//1=
DES CNFPQK 3012N 10651E 111357 F118 MS115 322/009 TB/ S//1=
DES CNFPTK 3112N 12210E 111354 F052 MS013 238/022 TB/ S//1=
DES CNFPTK 3110N 12207E 111355 F044 MS010 215/014 TB/ S//1=
DES CNFPTK 3107N 12204E 111356 F034 MS003 169/010 TB/ S//1=
DES CNFPTK 3103N 12202E 111357 F025 PS003 108/015 TB/ S//1=
ASC CNFNXN 4012N 11612E 111356 F162 MS308 287/043 TB/ S//1=
ASC CNFNXN 4011N 11608E 111357 F177 MS319 286/053 TB/ S//1=
ASC CNFNXN 4011N 11604E 111357 F189 MS318 278/053 TB/ S//1=
ASC CNFNXN 4011N 11603E 111357 F191 MS319 276/054 TB/ S//1=
0000128500
576
UDAS02 BABJ 111357
AMDAR 1113
LVR CNFLWR 2915N 10643E 111345 F351 MS438 250/154 TB/ S//1=
LVR CNFLWR 2940N 10643E 111348 F351 MS443 250/148 TB/ S//1=
LVR CNFLWR 3005N 10649E 111351 F351 MS445 249/134 TB/ S//1=
LVR CNFLWR 3028N 10704E 111354 F351 MS453 250/123 TB/ S//1=
DES CNFLWS 2320N 11316E 111354 F007 PS180 093/001 TB/ S//1=
DES CNFLWS 2321N 11316E 111354 F004 PS188 005/003 TB/ S//1=
DES CNFNXQ 3827N 10558E 111353 F148 MS220 304/038 TB/ S//1=
DES CNFNXQ 3825N 10604E 111354 F143 MS231 295/040 TB/ S//1=
DES CNFNXQ 3824N 10609E 111355 F128 MS205 301/028 TB/ S//1=
DES CNFNXQ 3824N 10610E 111355 F128 MS208 311/031 TB/ S//1=
DES CNFPQL 3704N 12057E 111353 F108 MS155 283/032 TB/ S//1=
DES CNFPQL 3705N 12058E 111353 F105 MS156 287/031 TB/ S//1=
DES CNFPQL 3710N 12100E 111354 F093 MS150 287/031 TB/ S//1=
DES CNFPQL 3714N 12103E 111355 F079 MS133 287/023 TB/ S//1=
DES CNFLWL 4001N 11635E 111354 F009 PS005 339/024 TB/ S//1=
DES CNFLWL 4003N 11635E 111355 F002 PS020 335/021 TB/ S//1=
ASC CNFNXN 4013N 11625E 111354 F109 MS208 317/026 TB/ S//1=
ASC CNFNXN 4013N 11624E 111354 F110 MS213 314/027 TB/ S//1=
ASC CNFNXN 4013N 11620E 111355 F123 MS241 316/030 TB/ S//1=
ASC CNFNXN 4012N 11616E 111356 F141 MS274 289/035 TB/ S//1=
0000014000
577
ULCH02 SCSC 111200 RRA
TTCC 61123 85442
70865 753// 13524 50066 68575 07523 30382 56978 09027
88992 785// 19529
77999=
0000024100
578
SOAT10 KWAL 111408
FA8005BC 011140837 OT12 ID:KN-BASS-01 DT:2014 01 11 14 06
:RD -3068 -3049 -3051 -3055 -3042 -3033 -3042 -3045 -3057 -3055
:PR 0564 0605 0694 0638 0613 0576 0685 0575 0595 0581
:B 13.7V
 46+1NN 219E
0000216700
579
SZNZ01 NZKL 111409
CREX++
T000103 A001 D01021 D06025++
-3683144 17478654 AUCT  2014 01 11 14 01 //// 11 07 00 01
05515 3202 05523 3203 05530 3203 05537 3203 05545 3203 05552 3203+
-4402404 -17636748 CHIT  2014 01 11 14 01 //// 11 07 00 01
05380 2099 05407 2128 05420 2141 05403 2125 05445 2168 05426 2150+
-4089929 17623168 CPIT  2014 01 11 14 01 //// 11 07 00 01
04468 2256 04481 2270 04474 2262 04479 2267 04479 2267 04485 2273+
-3618905 17548887 GBIT  2014 01 11 14 01 //// 11 07 00 01
06135 0012 06150 0023 06152 0020 06145 0009 06135 -0005 06135 -0010+
-3867541 17802288 GIST  2014 01 11 14 01 //// 11 07 00 01
04483 2701 04490 2707 04502 2717 04492 2704 04498 2709 04494 2703+
-4241288 17370277 KAIT  2014 01 11 14 01 //// 11 07 00 01
04002 2259 04003 2261 03989 2248 03979 2239 03973 2234 03988 2249+
-3755040 17815904 LOTT  2014 01 11 14 01 //// 11 07 00 01
03878 0208 03869 0195 03870 0193 03878 0198 03882 0198 03897 0210+
-3704657 17451175 MNKT  2014 01 11 14 01 //// 11 07 00 01
01920 -0125 01925 -0124 01925 -0128 01923 -0135 01944 -0118 01942 -0124+
-3947566 17692007 NAPT  2014 01 11 14 01 //// 11 07 00 01
03573 1996 03597 2019 03603 2024 03617 2037 03612 2031 03607 2025+
-3441483 17304870 NCPT  2014 01 11 14 01 //// 11 07 00 01
-03770 -8206 -03650 -8092 -03692 -8140 -03745 -8199 -03943 -8402 -03821 -8285+
-4581435 17062939 OTAT  2014 01 11 14 01 //// 11 07 00 01
05196 3450 05192 3450 05188 3451 05185 3451 05181 3451 05175 3450+
-2928002 -17789440 RBCT  2014 01 11 14 01 //// 11 07 00 01
06140 1943 06154 1954 06159 1955 06162 1956 06159 1951 06165 1954+
-2925114 -17790384 RFRT  2014 01 11 14 01 //// 11 07 00 01
03116 0149 03123 0153 03095 0122 03119 0142 03118 0139 03141 0158+
-4357010 17277383 SUMT  2014 01 11 14 01 //// 11 07 00 01
02746 1818 02751 1825 02761 1836 02754 1831 02734 1814 02757 1838+
-3764109 17618118 TAUT  2014 01 11 14 01 //// 11 07 00 01
05352 3979 05359 3981 05365 3983 05372 3985 05375 3984 05378 3983+
-4128448 17477985 WLGT  2014 01 11 14 01 //// 11 07 00 01
03666 2040 03671 2046 03669 2044 03671 2047 03667 2045 03662 2041++
7777
0000062300
580
SAAE31 VTBB 111400
METAR VTBS 111400Z 33004KT CAVOK 27/17 Q1015 NOSIG=
METAR VTBD 111400Z 32005KT 250V340 CAVOK 27/19 Q1015 NOSIG=
METAR VTCC 111400Z 02005KT CAVOK 22/15 Q1018 A3008 NOSIG=
METAR VTBU 111400Z 00000KT 3000 BR NSC 26/21 Q1014 A2996=
METAR VTSS 111400Z 05006KT 9999 FEW020 SCT120 BKN300 26/22 Q1014
           A2995 NOSIG=
METAR VTSP 111400Z 00000KT 8000 FEW018 SCT120 BKN300 27/21 Q1014
A2995 NOSIG=
METAR VLVT 111400Z NIL=
METAR VYMD 111400Z NIL=
METAR VYYY 111400Z NIL=
METAR VDPP 111400Z 34005KT 9000 FEW017 28/19 Q1013=
METAR VDSR 111400Z VRB02KT 9000 FEW020 26/20 Q1014 NOSIG=
0000130800
581
SNOS40 LOWM 111400
AAXX 11141
11010 32880 79901 10037 20010 39807 40192 57013 333 81657 83359
85361=
11012 36/// /1201 10037 20014 39713 40188 57012 333 55300=
11022 36/// /1701 10055 20007 39789 40178 57016 333 55303=
11035 32772 62003 10076 20029 39927 40180 57019 81508 333 55310 81650
86273=
11036 32670 61403 10070 20038 39963 40187 56016 333 81840 85273=
11101 36/// /3301 10039 20036 39680 40212 50005 333 55300=
11120 32180 69901 10051 20031 39488 40199 55012 333 81603 86362=
11126 36/// /3206 10014 21047 37744 48495 55001 333 55301=
11130 36/// /2402 10067 20029 39603 40192 55005 333 55300=
11146 NIL=
11150 21780 73402 10063 20039 39649 40185 57001 72162 333 69905
81650 86359=
11155 36/// /2804 10040 21036 38358 48484 55004 333 55300=
11157 36/// /1701 10052 20009 39414 40190 56018 333 55304=
11171 36/// /1302 10040 20002 39165 40183 56010 333 55306=
11190 36/// /1003 10070 20047 39958 40180 56018 333 55300=
11204 36/// /1201 10014 20001 39412 40219 56019 333 55301=
11212 NIL=
11231 32260 79901 10026 20017 39636 40218 57015 333 82705 87707=
11240 32459 79901 10051 20031 39753 40196 57014 333 81810 85366=
11244 36/// /0000 10059 20037 39864 40195 58014 333 55300=
11389 32/80 62701 10068 20016 39856 40183 56014 333 55306=
0000139300
582
SNOS43 LOWM 111400
AAXX 11141
11018 36/// /2701 10054 20020 39865 40188 55010 333 55301=
11019 36/// /1803 10050 20002 39453 40178 56015 333 55302=
11034 36/// /1603 10079 20037 39966 40183 56018 333 55309=
11040 36/// /2002 10074 20023 39942 40185 58017 333 55308=
11051 36/// /3401 10032 20009 39718 40192 55002 333 55301=
11055 36/// /0801 10041 20020 39809 40192 55005 333 55301=
11060 36/// /0000 10047 20015 39866 40187 57012 333 55300=
11070 36/// /1001 10058 20009 39936 40186 56015 333 55304=
11075 36/// /1201 10057 20005 39930 40188 56016 333 55306=
11082 36/// /2002 10070 20037 39912 40181 56017 333 55306=
11149 36/// /0702 10037 21030 38236 48486 55008 333 55300=
11152 36/// /0000 10061 20037 39578 40183 55003 333 55300=
11185 36/// /2801 10057 20010 39021 48480 56010 333 55301=
11248 36/// /0501 10065 20046 39927 40191 56018 333 55300=
11252 36/// /2301 10032 21019 38825 48496 56015 333 55306=
11255 36/// /2003 10073 20001 39365 40203 56011 333 55309=
11270 36/// /0000 10007 21003 39462 40224 56017 333 55303=
11275 36/// /2001 10055 20008 39155 40199 56013 333 55309=
11280 36/// /2701 10047 20001 39235 40195 56017 333 55309=
11292 36/// /2202 10049 20022 39556 40192 56013 333 55300=
11343 36/// /2609 11055 21091 36946 47053 55006 333 55309 91115=
11385 36/// /1701 10043 20023 39080 48471 56011 333 55309=
0000099800
583
SNOS41 LOWM 111400
AAXX 11141
11001 36/// /3102 10030 20016 39446 40189 55008 333 55300=
11024 36/// /2705 10047 20001 39055 48474 56011 333 55302=
11030 36/// /2901 10061 20019 39967 40184 56019 333 55310=
11053 36/// /3301 10042 20019 39668 40189 55003 333 55300=
11105 36/// /1101 10044 20036 39680 40209 51011 333 55300=
11110 26/// /2909 10010 21028 37903 48500 55000 333 55300 69905=
11112 36/// /0000 10054 20035 39242 40191 56012 333 55300=
11127 36/// /0603 10037 21031 38048 48493 55007 333 55307=
11136 36/// /0000 10031 20023 39016 48484 56007 333 55300=
11142 NIL=
11147 36/// /2401 10049 20021 39174 40183 55014 333 55304=
11148 36/// /0000 10010 21009 38970 48483 56015 333 55309=
11153 26/// /1402 10047 20035 39608 40189 50005 333 55300 69905=
11165 NIL=
11180 36/// /2903 10039 21037 38419 48480 56006 333 55307=
11229 36/// /0201 10031 20016 39721 40215 56016 333 55300=
11232 36/// /3101 10017 20014 39569 40216 58013 333 55300=
0000126000
584
SNOS42 LOWM 111400
AAXX 11141
11008 26/// /0000 10034 20013 39463 40186 57008 333 55301 69905=
11015 26/// ///// 10046 20011 39524 40182 57013 333 55300 69905=
11020 36/// /0000 10042 20016 39573 40182 56014 333 55301=
11021 26/// /1601 10047 20003 39507 40172 56017 333 55300 69905=
11032 36/// /1602 10069 20020 39933 40185 56019 333 55302=
11078 36/// /2501 10067 20006 39353 40173 55009 333 55309=
11129 36/// /2105 10023 21003 38642 48503 55004 333 55309=
11135 NIL=
11138 26/// /1907 10013 21068 37674 47054 55004 333 55302 69905 91114=
11141 36/// /1502 10060 20019 39534 40189 56019 333 55306=
11144 36/// /0601 10020 20016 3//// 4//// 5//// 333 55300=
11154 36/// /3401 10034 20006 39670 40187 57010 333 55300=
11170 36/// /1001 10015 20008 39455 40195 56011 333 55300=
11174 NIL=
11182 36/// /0802 10069 20044 39841 40181 56015 333 55300=
11192 36/// /2202 10055 20043 39867 40193 56013 333 55300=
11194 36/// /2002 10069 20040 39998 40181 58017 333 55300=
11213 36/// /0502 10034 20013 39611 40212 56015 333 55310=
11225 36/// /1203 10062 20027 39356 40197 56014 333 55309=
11241 36/// /2604 10063 21024 38547 48484 56008 333 55302=
11261 36/// /0000 10048 21006 39244 40201 58017 333 55301=
00000000