0000068400
445
SNNO49 ENMI 111400 RRA
AAXX 11141
01027 26/// ///// 11098 21116 333 60005=
01084 26/// /1801 11198 21221 333 69915=
01117 26/// /1006 11080 21190 333 60005=
01153 26/// ///// 11077 21201 333 60005=
01270 26/// ///// 11097 21160 333 60005=
01272 26/// ///// 11095 21146 333 60005=
01308 26/// ///// 10012 21045 333 60005=
01342 26/// ///// 10030 20020 333 69915=
01371 26/// ///// 11085 21097 333 69915=
01381 26/// ///// 11087 21105 333 60005=
01382 26/// ///// 11078 21108 333 60005=
01387 26/// ///// 11070 21115 333 60005=
01413 26/// ///// 10047 20021 333 69945=
01464 26/// /2104 10059 20003 333 60005=
01485 46/// /3604 11029 21034=
0000011000
446
UANT01 CWAO 111427
ARP XLF066 4901N01958W 1427 F360 MS62 195/87 KT
FHXLF DDL XXN 111427 J33A
0000011000
447
UANT01 CWAO 111427
ARP JAI230 5146N04445W 1427 F370 MS61 295/59 KT
VTJWU QXT AOW 111427 J40A
0000011000
448
UANT01 CWAO 111428
ARP AZA63K 4846N03336W 1428 F310 MS50 314/22 KT
EIISO QXT AOE 111428 F29A
0000042300
449
SNVB20 RJTD 111400
BBXX
JGQH    11144 99302 11370
46/// /3014 10130 20028 40268 58009 8////
22241 00192 1////=
JPBN    11144 99252 11290
46/// /0514 10181 20087 40259 50001 8////
22271 00236 1//03 70014=
JGQH    11144 99302 11370
46/// /3014 10130 20028 40268 58009 8////
22241 00192 1////=
JPBN    11144 99252 11290
46/// /0514 10181 20087 40259 50001 8////
22271 00236 1//03 70014=
0000008900
450
SPIN90 VOMD 111430
SPECI VOMD 111430Z 11004KT 5000 HZ FEW020 27/18 Q1014=
0000010200
451
SAIN90 VEPT 111420
METAR VEPT 111420Z 07002KT 1700 BR SCT015 BKN100 14/12 Q1018 NOSIG=
0000013600
452
SNVD17 CWVR 111400
BBXX
46204 11141 99514 71288 46/// /1607 10077 49818 57020
22200 0//// 11004 70021 333 91209 =

0000034300
453
SMVD15 KWNB 111200 RRV
BBXX
42369 11121 99272 70903 46/// /2003 1//// 91220=
42375 11121 99285 70883 46/// /1813 1//// 91220 22200 10402 70010
555 11104 22113=
42392 11121 99272 70900 46/// ///// 1//// 91220 22200 10402 70009=
42887 11121 99282 70885 46/// /2210 10224 20202 91220 22200 10402
70010 555 11080 22087=
0000010900
454
SNAL51 DAMM 111400 RRD
AAXX 11141
60376 46/// /0000 10184 20107=
60593 46/// /2308 10225=
0000011000
455
UANT99 KDDL 111428
ARP BAW185 5159N03052W 1425 F380 MS52 198/41 KT
GVIIB QXT AOW 111428 F15A
0000011000
456
UANT99 KDDL 111428
ARP BAW33K 5307N02659W 1427 F380 MS55 195/57 KT
GVIIJ QXT AOE 111428 F17A
0000011000
457
UANT99 KDDL 111428
ARP UAL16 5301N01555W 1428 F360 MS64 237/90 KT
N48127 DDL ORK 111428 F21A
0000011000
458
UANT99 KDDL 111428
ARP KLM743 4849N02250W 1428 F320 MS53 190/86 KT
PHBQP QXT AOE 111428 F17A
0000009000
459
SAWD01 OEJD 111400 RRB
METAR VCBI 111410Z 36006KT CAVOK 27/23 Q1011 NOSIG=
0000023900
460
SNAU02 AMMC 111400 RRA
AAXX 11144
94327 45/// /1107 39726 40090 51012 91430=
95111 45/// /1401 10256 20240 30038 40071 50001 91430
  333 10339=
95322 45/// /2204 10260 20101 39684 40055 50003 91430
  333 10424=

0000015200
461
SNVX21 EGRR 111400
BBXX
A8QL5 11144 99364 70382 41597 63335 10190 20175 40240 51010 70322
86444 22223 04200 21011 333// 41310 80180=
0000033400
462
SNVX22 EGRR 111400
BBXX
AMOUK40 1114/ 99642 50650 46/// ///// 11003 21023 49955=
AMOUK20 1114/ 99542 50367 46/// ///// 10060 20031 49910=
AMOUK01 1114/ 99603 50275 46/// ///// 11021 21014 49988=
AMOUK17 1114/ 99134 70914 46/// ///// 10268 20246 40143=
AMOHK01 1114/ 99221 11143 46/// ///// 10172 20140 40234=
0000012800
463
SNVE21 AMMC 111400 RRA
BBXX
VNAH 11144 99383 31416 46/// /2205 10158 20113 30199 40223 57002
22200 85132=

0000012800
464
SNVD20 KWNB 111400 RRL
BBXX
44058 11141 99376 70763 46/// /1707 10083 40108 91420 333 91208
555 11076 22083=
00000000