0000018100
905
SNAU60 AMMC 111400
AAXX 11144
95872 46/// /1710=
95880 NIL=
95913 46/// /2103 10120 20109=
95918 46/// /3601 10140 20119 30116 40190=
95995 46/// /0706=

0000024900
906
SNAU61 AMMC 111400
AAXX 11144
94955 46/// /2811 10143 20085 3//// 4////=
94959 46/// /2510 10104 20069=
94969 46/// /2802 10155 20090=
94987 46/// /2308 10167 20081 30057 40123=
95952 46/// /2220 10065 20064 38900 40163=

0000021600
907
SNAU62 AMMC 111400
AAXX 11144
95979 46/// /2541 10071 20003=
95985 46/// /2721 10163 20134 30114 40132=
95986 46/// /2506 10143 20085 39836 40119=
95988 46/// /2717 10166 20086 30089 40122=

0000013600
908
SMRA11 RUNW 111200 CCA
AAXX 11121
36092 61898 60000 11201 21224 39342 40480 52004 60002 70272 86070 333
11186 95090=
0000008500
909
UAAS11 RJTD 111400
AIREP
DAL288 2500N 14420E 1339 F390 MS52 268/73=
0000009200
910
SAIR33 OIII 111400 RRA
METAR OIZC 111400Z 16004KT CAVOK 17/00
Q1020 A3014=
0000010600
911
SMCN04 KWBC 111200
AAXX 11124
71391 45/// ///// 10002 21004 6///1 333 11046 21059 7////=
0000008900
912
SAIN32 VOMM 111410
METAR VOMM 111410Z 07006KT 6000 NSC 24/19 Q1014 NOSIG=
0000836000
913
SMIN90 VOMM 111200
AAXX 11124
43295 32597 40902 10268 20120 39100 48518 81501
  333 10292 58010 81620 84075=
43201 32497 32302 10296 20122 39377 40078 83500
  333 10313 58004 83615=
43121 32597 19902 10288 20179 39594 40099 81500
  333 10313 58005=
43233 32497 29902 10284 20109 39299 40090 82400
  333 10309 58007=
43198 32996 22506 10278 20118 39282 40090 80001
  333 10304 58006 82075=
43226 32997 03204 10278 20205 30088 40117
  333 10316 58010=
43285 32997 02305 10288 20220 30080 40111
  333 10325 58006=
43225 32997 03203 10284 20212 30118 40123
  333 10312 58012=
43284 32996 03208 10286 20208 39989 40103
  333 10320 58007=
43296 32997 41406 10272 20105 39131 48527 80004
  333 10288 58010 84075=
43371 32597 29903 10294 20236 30031 40103 81501
  333 10324 58004 81620=
43314 32997 22903 10314 20246 40107 80001
  333 10340 58007=
43369 21597 40904 10288 20248 40104 70252 82530
  333 10315 58007 6990/ 82620=
43311 32597 69902 10298 20241 40110 85401
  333 10334 58005 85620 83075=
43081 32597 20000 10282 20178 39684 40105 81801
  333 10313 58008=
43105 32597 21806 10258 20210 30133 40140 81501
  333 10297 58006=
43121 32597 19902 10288 20179 39594 40099 81500
  333 10313 58005=
43147 32997 11402 10260 20188 30116 40138 80001
  333 10303 58005=
43181 31596 31402 10264 20193 30104 40132 70500 83500
  333 10309 58010=
43187 32996 10260 20199 30125 40136
  333 10306 58009=
43220 32597 21402 10260 20199 30119 40126 82500
  333 10289 58007=
43221 32997 31402 10268 20194 30113 40126 80001
  333 10305 58012=
43225 32997 03203 10284 20212 30118 40123
  333 10312 58012=
43226 32997 03204 10278 20205 30088 40117
  333 10316 58010=
43243 32597 31405 10268 20194 30107 40132 81531
  333 10299 58000=
43257 32997 00902 10260 20200 39370 40090
  333 10295 58006=
43266 32596 53615 10284 20231 40115 83460
  333 10304 58012=
43275 32596 30505 10280 20168 30000 40118 81502
  333 10313 58008=
43278 32997 20503 10260 20199 30124 40131 80001
  333 10301 58006=
43285 32997 02305 10288 20220 30080 40111
  333 10325 58006=
43296 32997 41406 10272 20105 39131 48527 80004
  333 10288 58010 84075=
43303 32597 40505 10286 20187 39872 40111 80002
  333 10298 58010=
43311 32597 69902 10298 20241 40110 85401
  333 10334 58005 85620 83075=
43315 32997 22704 10296 20229 40102 80001
  333 10329 58011=
43331 32597 60902 10260 20208 30080 40123 81101
  333 10306 58007=
43325 32597 40503 10310 20168 39790 40097 81501
  333 10330 58008=
43339 32/97 51804 10136 20069 37723 47160 81402
  333 10185 58010=
43346 32597 30509 10262 20214 30109 40116 82501
  333 10288 58003 82620=
43347 32597 30504 10264 20219 30109 40120 82501
  333 10286 58007=
43348 32597 30504 10281 20221 30113 40120 82401
  333 10310 58006=
43352 32597 22705 10292 20249 40098 81101
  333 10320 58007=
43360 31996 10905 10304 20160 39960 40105 70500 80001
  333 10317 58006=
43361 32997 10904 10264 20229 30116 40122 80001
  333 10286 58009=
43363 32597 20211 10268 20224 30107 40120 82800
  333 10282 58008=
43372 31596 31602 10292 20234 40104 70511 81401
  333 10308 58008 81618=
43377 31996 00509 10270 20226 30062 40103 70500
  333 10308 58004=
43197 32997 22706 10248 20145 39282 40104
  333 10287 58003=
43322 32397 39902 10290 20094 39312 40072 81830
  333 10309 56690 58003=
43125 32997 00902 10272 20241 39375 40104 70500
  333 10300 58007=
43160 32997 53601 10294 20202 39522 40094 85100
  333 10320 58007=
43258 32997 01403 10328 20196 39427 4//// 70500 80100
  333 10342 5////=
43257 32997 00902 10260 20200 39370 40090
  333 10295 58006=
43291 32996 00701 10280 20146 39293 40124
  333 10300 59001=
43161 32997 02302 10294 20100 39439 40083
  333 10308 58009=
43169 32997 01402 10300 20150 39664 40103
  333 10305 59001=
43287 32496 50901 10246 20154 38909 48562 85200
  333 10255 56200 58012=
43205 32997 00000 10290 20071 39581 40072
  333 10317 58017=
43200 32997 22902 10282 20120 39372 40117 80001
  333 10302 58007=
43229 32996 23203 10298 20208 30070 40120 80008
  333 10324 58009=
43263 32597 52305 10266 20152 39051 48517 80001
  333 10282 58000=
43278 32997 20503 10260 20199 30124 40131 80001
  333 10301 58006=
43277 32597 40904 10282 20197 30025 40124 83210
  333 10315 58010=
43356 32597 41602 10306 20150 39784 40116 81531
  333 10320 58004=
43318 32896 31101 10192 20148 38276 48533 80001
  333 10212 58007=
43220 32597 21402 10260 20199 30119 40126 82500
  333 10289 58007=
43182 32597 31403 10288 20196 30061 40120 83500
  333 10312 58007=
43177 32996 03602 10288 20217 39982 40102
  333 10297 59002=
43271 32997 00502 10280 20154 39338 40098
  333 10310 58006=
43257 32997 00902 10260 20200 39370 40090
  333 10295 58006=
43291 32996 00701 10280 20146 39293 40124
  333 10300 59001=
43161 32997 02302 10294 20100 39439 40083
  333 10308 58009=
43169 32997 01402 10300 20150 39664 40103
  333 10305 59001=
43287 32496 50901 10246 20154 38909 48562 85200
  333 10255 56200 58012=
43205 32997 00000 10290 20071 39581 40072
  333 10317 58017=
43200 32997 22902 10282 20120 39372 40117 80001
  333 10302 58007=
43229 32996 23203 10298 20208 30070 40120 80008
  333 10324 58009=
43263 32597 52305 10266 20152 39051 48517 80001
  333 10282 58000=
43220 32597 21402 10260 20199 30119 40126 82500
  333 10289 58007=
43182 32597 31403 10288 20196 30061 40120 83500
  333 10312 58007=
43177 32996 03602 10288 20217 39982 40102
  333 10297 59002=
43271 32997 00502 10280 20154 39338 40098
  333 10310 58006=
43339 32/97 51804 10136 20069 37723 47160 81402
  333 10185 58010=
43355 32997 02702 10320 20217 40094
  333 10340 58016=
43266 32596 53615 10284 20231 40115 83460
  333 10304 58012=
43352 32597 22705 10292 20249 40098 81101
  333 10320 58007=
43320 32996 02906 10292 20221 40099
  333 10324 58007=
43315 32997 22704 10296 20229 40102 80001
  333 10329 58011=
43354 32597 20000 10316 20183 40085 82400
  333 10335 59007=
43372 31596 31602 10292 20234 40104 70511 81401
  333 10308 58008 81618=
43336 31996 02706 10312 20200 40101 70500
  333 10335 58009=
43335 32997 40905 10304 20254 4//// 80001
  333 10320 58///=
43357 32997 10000 10316 20172 4//// 80001
  333 10328 58///=
43301 32997 20702 10284 20141 30586 40105 80002
  333 10306 58001=
43341 32495 60000 10231 20190 38958 48496 83334
  333 10285 58004=
43342 32696 30902 10300 20170 39903 40107 83200
  333 10325 58012=
43379 32898 20909 10276 20244 30101 40104 82070
  333 10300 58009=
43220 32597 21402 10260 20199 30119 40126 82500
  333 10289 58007=
43181 31596 31402 10264 20193 30104 40132 70500 83500
  333 10309 58010=
43353 31996 02708 10300 20227 40108 70500
  333 10324 58009=
43128 31496 51405 10268 20173 39524 40124 70511 83401
  333 10296 56309 58016 83615 83070=
43237 32997 40902 10302 20136 39717 40102 82032
  333 10326 58005 82360 84075=
43150 31596 11403 10262 20191 30063 40138 70500 81500
222// 20000
  333 10282 58004 81620=
43279 32597 30902 10266 20195 30116 40134 81501
  333 10297 58011 81620=
43149 31496 21404 10262 20204 30136 40139 70500 84500
  333 10290 56300 58007 82618=
43346 32597 30509 10262 20214 30109 40116 82501
  333 10288 58003 82620=
43189 32597 29901 10266 20191 30129 40138 81502
  333 10308 58007=
43275 32596 30505 10280 20168 30000 40118 81502
  333 10313 58008=
43086 32597 10000 10280 20172 39950 40126 81500
  333 10298 58019=
43081 32597 20000 10282 20178 39684 40105 81801
  333 10313 58008=
43221 32997 31402 10268 20194 30113 40126 80001
  333 10305 58012=
43285 32997 02305 10288 20220 30080 40111
  333 10325 58006=
43348 32597 30504 10281 20221 30113 40120 82401
  333 10310 58006=
43347 32597 30504 10264 20219 30109 40120 82501
  333 10286 58007=
43329 32997 20902 10264 20216 30110 40124 80001
  333 10301 58009=
43344 31496 40908 10286 20183 30019 40118 70511 82501
  333 10307 58010 82616 84075=
43185 32597 41402 10258 20200 30123 40127 82531
  333 10294 58005 82620 83360=
43321 31996 10904 10292 20135 39669 40108 70521 80001
  333 10300 58012 81070=
0000010200
914
SPIN90 VARP 111400
SPECI VARP 111400Z 30002KT 4000 HZ FEW025 SCT100 23/18 Q1015 NOSIG=
0000013800
915
SNDL44 EDZW 111400 CCA
AAXX 11141
10136 41460 73209 10054 20037 30041 40081 55009 72162 875//
  333 83614 87650 91116=
0000011100
916
UANT01 CWAO 111413
ARP DAL231 5259N03042W 1413 F360 MS56 183/40 KT
N817NW DDL XXW 111413 J26A
0000014700
917
UDIO01 AMMC 111400
AMDAR 1114
LVR AU0044 0032S 10924E 111255 F330 MS365 103/023 TB1 S031
  333 F330 VG025=
0000790700
0606=
0000011100
918
UANT01 CWAO 111413
ARP RCH242 4925N03646W 1413 F290 MS52 334/71 KT
77180A DDL XXW 111413 F96A
0000011000
919
UANT01 CWAO 111413
ARP UAL61 4956N04723W 1413 F330 MS59 285/55 KT
N69063 DDL XXN 111413 F66A
0000011100
920
UANT01 CWAO 111414
ARP AAL113 4607N02457W 1413 F330 MS49 206/73 KT
N393AN DDL XXN 111414 F55A
0000011000
921
UANT01 CWAO 111414
ARP UAL28 5227N04215W 1414 F380 MS58 288/44 KT
N78004 DDL XXN 111414 F50A
0000011000
922
UANT01 CWAO 111414
ARP KLM743 4900N02006W 1414 F320 MS54 191/83 KT
PHBQP QXT AOE 111414 F16A
0000010900
923
UANT01 CWAO 111414
ARP DAL67 4904N04653W 1414 F340 MS62 281/55 KT
N1602 QXT AOW 111414 F40A
0000066100
924
UDAF01 FAPR 111412
AMDAR 1114
LVR AFZA50 1724S 03512E 111319 F380 MS501 109/015 TB0 S031 333 F/// VG010=
LVR AFZA50 1812S 03453E 111327 F380 MS505 119/011 TB0 S031 333 F/// VG011=
LVR AFZA50 1900S 03430E 111334 F380 MS504 111/007 TB0 S031 333 F/// VG011=
LVR AFZA50 1946S 03404E 111341 F380 MS499 165/007 TB0 S031 333 F/// VG011=
LVR AFZA50 2031S 03339E 111348 F380 MS499 234/006 TB0 S031 333 F/// VG011=
LVR AFZA50 2117S 03313E 111355 F380 MS502 148/005 TB0 S031 333 F/// VG011=
LVR AFZA50 2202S 03245E 111402 F380 MS500 125/007 TB0 S031 333 F/// VG010=
LVR AFZA50 2243S 03210E 111409 F380 MS505 055/005 TB0 S031 333 F/// VG010=
00000000