0000012600
485
SNAU02 AMMC 111400 RRE
AAXX 11144
94238 45/// /3608 10286 20193 39658 40071 50017 91430
  333 10400=


0000013200
486
SNAU47 AMMC 111400 CCD
AAXX 11144
94139 47/// /1409 10260 20242 30041 40063 58001 721/4 91430
  333 10302=


0000013200
487
SNAU47 AMMC 111400 CCE
AAXX 11144
94234 47/// /0000 10242 20215 39849 40084 56010 721/4 91430
  333 10372=


0000019700
488
SNVF01 KWBC 111100 RRH
BBXX
DBFC 11111 99544 10136 46/// /2408 10057 20041 40092 57005 22270
 00054=
DBFX 11111 99539 10087 46/// /2107 10052 20050 40086 57014 22220
 00071=
0000012600
489
SNAU47 AMMC 111400 CCF
AAXX 11144
94328 45/// /1407 10302 20080 39466 40084 51014 91430
  333 10406=


0000011900
490
SNVD01 KWBC 111300 RRO
BBXX
42022 11131 99275 70837 46/// /1206 10220 40173 91329 555 11073
 22080=
0000019000
491
SNVD80 KWBC 111300 RRC
BBXX
WXY6216 11134 99441 70872 43/// /2813 00/// 10016 20006 49916
 55004 7//// 8//// 22283 0//// 2//// 3//// 4//// 5//// 6//// 80012
 ICE /////=
0000017900
492
SNVF01 KWBC 111300 RRG
BBXX
C6WK7 11134 99379 10236 41698 22002 10150 2008/ 40230 54000 7//11
 82//9 22200 00150 20301 32020 40301 50300 6//// 80110 ICE /////=
0000012600
493
SNVA01 KWBC 111400 RRB
BBXX
DBBH 11141 99173 30117 41/98 /1909 10187 20170 40131 57019 7////
 22282 04178=
0000022700
494
SNVB01 KWBC 111400 RRB
BBXX
JPBN 11144 99252 11290 46/// /0514 10181 20087 40259 50001 8////
 22271 00236 1//03 70014=
JGQH 11144 99302 11370 46/// /3014 10130 20028 40268 58009 8////
 22241 00192 1////=
0000023400
495
SNVC01 KWBC 111400 RRB
BBXX
C6NZ3 11140 99235 51142 41/// 31110 10261 20217 40189 53016 70200
 81165 22273 04247 21103 80230=
PBGH 11144 99044 70800 41/98 23615 10240 40080 50/// 75888 82///
 22244 10503 70015=
0000306900
496
SNVD01 KWBC 111400 RRH
BBXX
46204 11141 99514 71288 46/// /1607 10077 49818 57020 22200 0////
 11004 70021 333 91209=
46131 11141 99499 71250 46/// /1807 10081 49869 54000 22200 00079
 10502 70008 333 91211=
46145 11141 99544 71324 46/// /3508 10030 49817 5//// 22200 00068
 11103 70014 333 91210=
C6FN4 11144 99265 70866 41898 02125 10250 20207 40170 55020 70100
 80/// 22274 00240 20301 3//// 4//// 5//// 6//// 80220 ICE /////=
46147 11141 99518 71312 46/// /1105 10060 49800 57001 22200 00074
 11007 70034 333 91207=
46215 11141 99352 71209 46/// ///// 1//// 91405 22200 00131 11304
 21003 328// 41303 70021=
46219 11141 99332 71199 46/// ///// 1//// 91410 22200 00142 11305
 21003 329// 41304 70025=
46114 11141 99367 71223 46/// ///// 1//// 91408 22200 00125 11507
 21003 331// 41506 70034=
51206 11141 99198 71550 46/// ///// 1//// 91403 22200 00249 11305
 20904 334// 41302 70024=
44099 11141 99369 70757 46/// ///// 1//// 91418 22200 00067 10903
 20903 70016=
41029 11141 99328 70796 46/// /2005 1//// 40159 57004 91400 333
 91206 555 11058 22062=
46211 11141 99469 71242 46/// ///// 1//// 91413 22200 00084 11008
 21006 324// 41105 70038=
44096 11141 99370 70758 46/// ///// 1//// 91417 22200 00068 10803
 20602 314// 40802 70014=
J8PE4 11144 99215 70699 41397 60822 10280 20209 40230 52010 71422
 86242 22234 0//// 21005 30907 41105 50906 6//// 80230 ICE /////=
41115 11141 99184 70673 46/// ///// 1//// 91411 22200 10802 20802
 301// 41101 70011=
41113 11141 99284 70805 46/// ///// 1//// 91410 22200 00180 10802
 20802 70009=
44095 11141 99358 70753 46/// ///// 1//// 91417 22200 00131 10805
 20805 311// 41101 70026=
44100 11141 99363 70756 46/// ///// 1//// 91404 22200 00090 10804
 20804 311// 41101 70020=
46223 11141 99335 71178 46/// ///// 1//// 91348 22200 00156 11302
 21001 328// 41301 70008=
46225 11141 99329 71174 46/// ///// 1//// 91342 22200 00154 11302
 20801 328// 41302 70011=
46222 11141 99336 71183 46/// ///// 1//// 91333 22200 00157 11302
 21001 328// 41302 70011=
46216 11141 99343 71198 46/// ///// 1//// 91342 22200 00150 11302
 21001 327// 41302 70012=
46251 11141 99338 71196 46/// ///// 1//// 91409 22200 00153 11303
 21002 327// 41302 70015=
46217 11141 99342 71194 46/// ///// 1//// 91409 22200 00153 11102
 21001 328// 41101 70008=
46207 11141 99509 71299 46/// /1510 10064 49801 57025 22200 00077
 10907 70034 333 91214=
46126 11141 99540 71666 46/// /2307 10034 49805 55000 91400 22200
 00047 1//00 70001 333 91210 555 11076 22083=
44058 11141 99376 70763 46/// /1806 10077 40110 91410 333 91207
 555 11066 22072=
9HJB9 11144 99222 70714 41598 70924 10260 20202 40230 54000 7//21
 8627/ 22274 00260 20706 309// 40804 5//// 6//// 80220 ICE /////=
44042 11141 99380 70763 46/// /1707 10092 40095 91410 333 91208
 555 11076 22083=
44063 11141 99390 70764 46/// /2003 10034 40081 91410 333 91204
 555 11037 22040=
44041 11141 99372 70768 46/// /1604 10139 91410 333 91206 555
 11042 22045=
0000368400
497
SNVF01 KWBC 111400 RRC
BBXX
DBBA 11141 99541 10121 46/// ///// 10059 20038 40069 57029 22260
 00066=
DBEA 11141 99540 10083 46/// /3413 10063 20026 40075 57003 22220
 00065=
DBKV 11141 99543 10102 46/// /2405 10054 20046 40060 57023 22250
 00062=
DBJM 11141 99542 10079 46/// /3211 10072 21153 40078 52012 22250
 00075=
DBFH 11141 99539 10087 46/// /3309 10058 20053 40077 57011 22260
 00058=
DBFR 11141 99528 10042 46/// /3014 10076 20025 40146 52013 22203
 00081=
DBEB 11141 99539 10079 41/// /3012 10066 20032 40080 55000 22200
 00063=
DBBC 11141 99536 10086 46/// /3008 10059 20042 40082 57012 22260
 00061=
DBBI 11141 99535 10099 46/// /2406 10051 20050 40075 57025 22250
 00049=
DBBU 11141 99543 10140 46/// /2209 10049 40071 57021 22232 00058=
C6WK7 11144 99379 10236 41698 31905 10160 2007/ 40230 54000 7//11
 83//9 22200 00150 20301 31919 40301 50301 6/00/ 80110 ICE /////=
62095 11144 99529 70156 46/// /1624 10097 20047 40095 58032 22200
 00100 10707 70035 333 90710 91133=
62303 11144 99516 70051 46/// /0304 10078 20014 40207 22200 10703
 70014=
64046 11144 99605 70042 46/// /2926 10074 20005 40037 333 90710
 91135=
62050 11144 99500 70044 46/// /1202 10097 20033 40215 22200 10702
 70012=
AMOUK26 1114/ 99500 70016 46/// ///// 10091 20035 40212=
AMOUK33 1114/ 99555 10084 46/// ///// 10065 20031 40056=
AMOUK09 1114/ 99517 10017 46/// ///// 10078 20067 40194=
AMOUK42 1114/ 99506 70025 46/// ///// 10111 20011 40215=
AMOUK16 1114/ 99520 70050 46/// ///// 10091 20031 40209=
AMOUK23 1114/ 99577 70025 46/// ///// 10048 21000 40108=
AMOUK34 1114/ 99518 10028 46/// ///// 10085 20033 40180=
AMOUK44 1114/ 99543 70039 46/// ///// 1//// 2//// 40192=
AMOUK11 1114/ 99533 70046 46/// ///// 10069 20019=
AMOUK03 1114/ 99537 70003 46/// ///// 10076 20017 40171=
AMOUK30 1114/ 99567 70062 46/// ///// 10071 20009 40152=
AMOUK13 1114/ 99513 10017 46/// ///// 10081 20031 40197=
AMOUK36 1114/ 99581 70016 46/// ///// 10054 20007 40091=
AMOUK45 11144 99509 70014 46/// /3308 10088 20004 40203 22200
 402030105=
AMOUK14 1114/ 99533 70062 46/// ///// 10083 21016 40200=
AMOUK02 1114/ 99535 70050 46/// ///// 10071 20019 40199=
AMOUK28 1114/ 99576 70064 46/// ///// 1//// 2//// 40135=
AMOUK31 1114/ 99558 70057 46/// ///// 10063 20025 40165=
AMOUK32 1114/ 99559 70047 46/// ///// 10059 20017 40158=
AMOUK04 1114/ 99535 70040 46/// ///// 10080 20031 40197=
AMOUK29 1114/ 99507 70079 46/// ///// 1//// 2//// 40201=
AMOUK43 1114/ 99546 70048 46/// ///// 10058 20027 40186=
AMOUK24 1114/ 99572 70073 46/// ///// 10068 20008 40143=
62113 11144 99584 10002 47598 /3029 10057 20010 40065 53012 762//
 22200=
62129 11144 99584 10003 46/// /2825 10056 20008 40064 53012 22200=
AMOUK05 1114/ 99519 10041 46/// ///// 10079 20043 40170=
AMOUK06 1114/ 99508 10010 46/// ///// 10095 20057 40209=
62102 11144 99579 10018 46/// /3128 10055 21002 40058 53010 22200
 10706 70031=
62134 11144 99580 10014 47497 /3122 10046 20004 40066 53013 700//
 22200 10606 70032=
62114 11144 99583 10000 46/// /2827 10058 20025 40064 53013 22200=
ZQSD5 11144 99583 10008 47498 ///// 10056 20025 40056 53015 700//
 22200 1//07 70035=
62117 11144 99579 10000 47497 /3018 10056 20010 40070 51017 700//
 22200 10606 70028=
62118 11144 99577 10009 47597 /3025 10060 20013 40074 53013 752//
 22200 10606 70031=
62143 11144 99577 10018 47498 /3114 10058 20012 40082 53011 700//
 22200 10606 70030=
62104 11144 99574 10013 47598 /3025 10072 20018 40073 53009 700//
 22200=
62116 11144 99576 10011 47196 /3025 10056 20009 40070 52010 761//
 22200 10606 70031=
0000375300
498
SNVF01 KWBC 111400 RRD
BBXX
62155 11144 99577 10007 47598 /2929 10059 20020 40083 52012 763//
 22200 10606 70032=
62122 11144 99573 10016 47598 /2926 10055 20009 40078 52010 700//
 22200 10606 70028=
62153 11144 99573 10020 47599 /2816 40072 53008 700// 22200 10606
 70029=
62164 11144 99572 10008 47598 /2822 10063 20018 40088 52011 700//
 22200 00084 10606 70030=
62140 11144 99573 10013 46/// ///28 10059 20009 40077 53008 22200=
62146 11144 99572 10021 47498 /2507 10059 20011 40082 52008 700//
 22200 10605 70027=
62119 11144 99570 10019 47598 /3027 10060 20010 40092 53013 700//
 22200 10606 70029=
62133 11144 99571 10009 46/// /3026 40087 52011 22200 10606 70028=
62120 11144 99564 10021 47598 /3027 10056 20000 40090 53010 700//
 22200=
62154 11144 99564 10022 46/// /3024 10058 21004 40085 53007 22200=
62152 11144 99570 10018 47598 /2920 10056 20007 40093 53013 700//
 22200 10606 70028=
62165 11144 99540 10011 47998 /2820 10062 20011 40163 53014 700//
 22200 10504 70019=
62132 11144 99564 10020 46/// /3224 10062 21001 40107 53012 22200=
62127 11144 99540 10007 47999 ///// 10064 21000 40162 53013 700//
 22200 10503 70017=
62123 11144 99563 10022 47598 /3029 10062 20007 40089 53008 700//
 22200 1//06 70028=
62131 11144 99539 10012 46/// /2916 10065 20013 40159 53014 22200=
62149 11144 99537 10011 47998 /2721 10080 20017 40167 52015 700//
 22200 10503 70016=
62111 11144 99580 70003 46/// /2929 10059 20012 40096 52016 22200
 10606 70030=
PJAI 11144 99581 70014 47598 /2822 10064 20003 40087 52017 700//
 22200=
62112 11144 99584 70002 47497 /3025 10056 20014 40071 51016 761//
 22200=
62148 11144 99536 10015 46/// ///// 22200=
63055 11144 99606 10016 47498 /2906 10050 20018 40002 53006 762//
 22200 10705 70025=
63108 11144 99608 10017 47/98 /2607 10039 20013 40001 53005 762//
 22200 10706 70028=
63106 11144 99610 10017 46/// /1505 10038 55000 22200=
63113 11144 99610 10017 46/// /1705 10047 21002 49999 53001 22200
 10706 70028=
63105 11144 99610 10017 47499 /1306 10028 21014 40000 55000 762//
 22200=
63112 11144 99611 10010 47997 /2507 10047 20025 49992 57003 761//
 22200 10806 70030=
63107 11144 99611 10017 46/// /1405 10038 49998 55000 22200=
63104 11144 99612 10016 47498 /1506 10026 21016 49998 54000 700//
 22200 10806 70028=
63103 11144 99612 10011 46/// ///// 10036 20016 49985 58005 22200
 10806 70028=
62144 11144 99534 10017 47998 /2819 10063 20021 40174 52021 700//
 22200 10503 70017=
63101 11144 99612 10009 46/// /1407 10035 20018 49994 57004 22200
 10806 70032=
63117 11144 99613 10011 47397 /1509 49998 58003 771// 22200=
63115 11144 99616 10013 47498 /1205 10029 21014 49995 58002 762//
 22200 10806 70029=
MWYG6 11144 99603 70040 47698 /2828 40049 53011 700// 22200=
63114 11144 99613 10017 47599 /1304 10031 21021 49997 57001 700//
 22200=
64041 11144 99607 70026 47297 /2833 40017 53003 700// 22200 10908
 70042=
62150 11144 99536 10007 47999 /2719 10060 20017 40180 52014 700//
 22200 10403 70014=
62121 11144 99535 10027 46/// ///// 10066 20013 40151 52018 22200=
62145 11144 99531 10028 47598 /2921 10065 20007 40170 52020 700//
 22200 10404 70018=
62142 11144 99530 10021 47998 /2923 10067 20031 40166 52019 700//
 22200 10503 70017=
63056 11144 99597 10016 47598 /2921 10059 20012 40018 52011 700//
 22200 10707 70034=
63109 11144 99596 10015 46/// /3026 10062 20010 40017 53009 22200=
MQSY9 11144 99593 10015 47998 /2824 10062 20018 53006 700// 22200=
63110 11144 99595 10015 47598 /3021 10061 20016 40028 53006 700//
 22200 10706 70032=
62305 11144 99504 70000 46/// /3010 10083 20033 40215 52012 22200
 00110 10601 70007=
0000136600
499
SNVF01 KWBC 111400 RRE
BBXX
62128 11144 99587 10014 47998 /2827 10056 20017 40049 53007 700//
 22200 10607 70033=
63057 11144 99592 10015 47598 /2819 10056 20004 40029 52011 700//
 22200 10706 70031=
62081 11144 99521 70105 46/// /1516 20048 40169 58014 22200 10806
 70028 333 90710 91126=
62103 11144 99499 70029 46/99 /0705 10090 20030 40217 58004 22200
 00112 10903 70013=
62304 11144 99512 10018 46/98 /3118 10081 20028 40201 51023 22200
 00103 10501 70004 333 90710 91128=
62107 11144 99501 70061 46/// /1308 10095 20033 40209 56006 22200
 00106 11005 70024=
OZDB2 11144 99441 70094 41498 51408 10130 20111 40160 50/// 70211
 83366 22253 00140 20301 333// 41405 80120=
64045 11144 99591 70117 46/// /2518 10065 20005 40111 52018 22200
 00097 10808 70042=
62163 11144 99475 70084 46/// /1615 10113 20095 40179 58012 22200
 00122 10806 70031=
62105 11144 99550 70132 46/// /1815 10086 20015 40143 58011 22200
 00107 10908 70039=
TBWUK68 11144 99338 10237 41/98 /2714 10190 20107 40142 54000
 7//00 8/4// 22224 00172 200// 80145=
62301 11144 99524 70047 46/// /2704 10075 20012 40211 53008 22200
 00096 10503 70014=
62001 11144 99452 70050 46/// /0913 10116 20069 40199 58016 22200
 00128 11005 70025=
LF4B 11144 99606 10037 47/98 /3507 10023 40011 52016 700// 91410
 22200 00030 10704 70022=
0000013600
500
SNVD17 CWVR 111400
BBXX
46185 11141 99524 71298 46/// /2705 10056 49816 52004
22200 00074 1//// 70/// 333 91206 =

0000012600
501
SNAU02 AMMC 111400 RRF
AAXX 11144
94122 46/// /2006 10281 20251 30055 40063 58002 91430
  333 10328=


0000012600
502
SNAU02 AMMC 111400 RRG
AAXX 11144
94248 45/// /1808 10258 20240 30061 40075 58001 91430
  333 10345=


0000012600
503
SNAU02 AMMC 111400 RRH
AAXX 11144
94462 45/// /1408 10304 21011 39563 40102 51009 91430
  333 10414=


0000048200
504
SXXX32 EUMS 111419 RRX
262AD2C2
OT12 ID:PK-ORMA-10 DT:2014 01 11 14 18
:PRS /1 07987 07988 07998 07998 07996 08002 08016 08014 08030 08019 08028 08004 08040 08033 08058 08068 08072 08062 08054 08079 08080 08081 08068 08070 08088 08075 08082 08082 08094 08109
:RAD /1 ///// ///// ///// ///// ///// ///// ///// ///// ///// ///// ///// ///// ///// ///// ///// ///// ///// ///// ///// ///// ///// ///// ///// ///// ///// ///// ///// ///// ///// /////
:BAT 12.8V/
00000000