0000008200
865
SNAL54 EUMS 111400 RRA
AAXX 11144
60621 46/// /1921 10257 21041=
0000008200
866
SNAL51 EUMS 111400 RRB
AAXX 11144
60664 46/// /0000 10177 21028=
0000007800
867
SNAL52 EUMS 111400
AAXX 11144
60667 46/// /0000 10218 21032=
0000012800
868
SNVD41 LFPW 111400
BBXX
41300 11144 99159 70575 46/// /0716 10256 20200 40180 52012
22200 00260 10805 70027=
0000013600
869
SMAL01 DAMM 111200 RRB
AAXX 11124
60670 12980 63304 10185 20044 39123 48560 58014 60001 83032
333 0//00 83360 95900=
0000011100
870
UANT99 KDDL 111412
ARP DAL231 5300N03027W 1412 F360 MS56 176/42 KT
N817NW DDL XXW 111412 J25A
0000011100
871
UANT99 KDDL 111412
ARP AAL113 4604N02444W 1412 F330 MS50 204/78 KT
N393AN DDL XXN 111412 F54A
0000011000
872
UANT99 KDDL 111413
ARP FWI510 4852N02207W 1413 F360 MS58 193/77 KT
FGOTO QXT AOE 111413 J18A
0000010900
873
UANT99 KDDL 111413
ARP BAW5W 5305N02656W 1413 F380 MS57 200/55 KT
GVIIE QXT AOE 111413 F16A
0000325800
874
SAWD01 OEJD 111400
METAR DAAG 111400Z 10003KT 9999 FEW040 BKN093 18/13 Q1019=
METAR DTTA 111400Z 35006KT 9999 FEW023 SCT100 18/09 Q1018 NOSIG=
METAR EBBR 111350Z 28012KT 9999 SCT030 08/05 Q1018 NOSIG=
METAR EDDH 111350Z 23014KT 200V270 4500 RA SCT006 BKN008 05/04 Q1007
TEMPO 25015G30KT 4000=
METAR EFHK 111350Z 06006KT 9000 -SN BKN008 M04/M05 Q0999 NOSIG=
METAR EGLL 111350Z 27013KT 9999 FEW030 09/03 Q1020 NOSIG=
METAR EHAM 111355Z 31017KT 9999 FEW025 08/04 Q1015 NOSIG=
METAR EIDW 111400Z 23009KT CAVOK 07/M00 Q1019 NOSIG=
METAR EKCH 111350Z 23017KT 9000 RA BKN014 06/05 Q1002 NOSIG=
METAR ELLX 111350Z 24008KT 8000 FEW008 07/05 Q1017 NOSIG=
METAR ENFB 111350Z AUTO 14007KT 9999NDV BKN022/// 03/M01 Q1000
           W///S5=
METAR EPWA 111400Z 24008KT 9999 FEW023 BKN040 06/02 Q1013 NOSIG=
METAR ESSA 111350Z 03008KT 2500 SN VV010 M03/M03 Q1001 R01L/620262
R08/620252 R01R/////// TEMPO 4000 -SN=
METAR ETBS 111400Z NIL=
METAR GMME 111400Z VRB03KT 5000 SCT020 BKN080 18/13 Q1017 RERA NOSIG=
METAR GQNN 111400Z 04008KT 010V080 8000 NSC 25/09 Q1014 NOSIG=
METAR HAAS 111400Z NIL=
METAR HCMM 111400Z NIL=
METAR HECA 111400Z 32007KT 9999 SCT025 19/06 Q1025 NOSIG=
METAR HLLT 111350Z
24005KT 210V270 CAVOK 23/05 Q1021=
METAR HSSS 111400Z 33012KT CAVOK 25/M05 Q1017NOSIG=
METAR KBOS 111354Z 17005KT 7SM FEW010 SCT045 BKN080 BKN180 08/07
     A2997=
METAR KIAD 111352Z 15005KT 3/4SM R01R/4500VP6000FT -RA BR OVC009 02/02
     A2979=
METAR KJFH 111400Z NIL=
METAR KWBS 111400Z NIL=
METAR LEMD 111400Z 32001KT CAVOK 12/06 Q1018 NOSIG=
METAR LFPO 111400Z 32010KT 9999 FEW010 BKN017 09/06 Q1021 TEMPO
BKN006=
METAR LGAV 111350Z 08004KT 9999 FEW020 SCT180 14/09 Q1022 NOSIG=
METAR LIRF 111350Z 05004KT 9999 SCT030 14/09 Q1022 NOSIG=
METAR LOWW 111350Z 14005KT 9999 FEW040 BKN230 07/04 Q1018 TEMPO
FM1500 BKN012=
METAR LSGG 111350Z 22009KT 9999 FEW030 BKN170 11/06 Q1021 NOSIG=
METAR LTAC 111350Z 36004KT 6000 BKN009 M01/M02 Q1023 NOSIG=
METAR OAKB 111350Z 31005KT 4000 HZ NSC M02/M11 Q1025 NOSIG RMK GRN GRN=
METAR OBBI 111400Z 19007KT 9999 FEW020 17/13 Q1019 NOSIG=
METAR OJAM 111400Z 29010KT 5000 HZ BKN025TCU 11/05 Q1024 NOSIG=
METAR OKBK 111400Z 32011KT CAVOK 13/08 Q1018 NOSIG=
METAR OLBA 111400Z 24004KT 8000 FEW180 17/05 Q1025 NOSIG=
METAR OMAA 111400Z 34009KT 9999 -RA SCT045 19/16 Q1019 A3011 NOSIG=
METAR OOMS 111350Z 07011KT 9999 FEW030 SCT100 BKN200 21/08 Q1020
NOSIG=
METAR OPKC 111355Z 07007KT 7000 SCT200 18/M05 Q1021 NOSIG=
METAR OPRN 111400Z 18006KT 6000 FEW200 12/01 Q1021.5/30.16=
METAR ORBB 111400Z NIL=
METAR OSDI 111400Z 21004KT CAVOK 13/00 Q1022=
METAR OTBD 111400Z 23011KT 190V250 9999 FEW017 SCT100 OVC120 16/13
Q1020 RERA NOSIG=
METAR OYAA 111400Z 15011KT 9999 FEW020 27/18 Q1014 NOSIG=
METAR OYSN 111400Z 25010KT 9999 SCT030 21/01 Q1025=
METAR RKSS 111400Z 03001KT 9999 FEW030 M03/M12 Q1029 NOSIG=
METAR UUEE 111400Z NIL=
METAR VCBI 111400Z NIL=
METAR VGZR 111400Z NIL=
METAR VHHH 111400Z NIL=
METAR VIDP 111400Z NIL=
METAR WIIH 111400Z NIL=
METAR WMKK 111400Z 04007KT 010V070 9999 FEW030 SCT140 BKN280 27/22
Q1011 NOSIG=
METAR WSSS 111400Z 01005KT 300V060 9999 SCT015 BKN150 26/24 Q1012
NOSIG=
0000103500
875
SAAR20 OEJD 111400
METAR OBBI 111400Z 19007KT 9999 FEW020 17/13 Q1019 NOSIG=
METAR OKBK 111400Z 32011KT CAVOK 13/08 Q1018 NOSIG=
METAR OMAA 111400Z 34009KT 9999 -RA SCT045 19/16 Q1019 A3011 NOSIG=
METAR OMAD 111400Z 35006KT 9999 -RA FEW045 20/16 Q1020 A3012 NOSIG=
METAR OMAL 111400Z 27006KT CAVOK 21/09 Q1021 A3014 NOSIG=
METAR OMDB 111400Z 31008KT 8000 -RA NSC 19/14 Q1021 TEMPO 4000 RA=
METAR OMFJ 111400Z 11003KT 9999 SCT020 BKN100 20/10 Q1020 A3012=
METAR OMRK 111400Z NIL=
METAR OMSJ 111400Z 29008KT 9999 -RA SCT040 19/15 Q1021=
METAR OOBR 111400Z NIL=
METAR OOKB 111400Z NIL=
METAR OOMS 111350Z 07011KT 9999 FEW030 SCT100 BKN200 21/08 Q1020
NOSIG=
METAR OOSA 111350Z 10011KT 9999 BKN025 24/15 Q1017
NOSIG=
METAR OOSH 111400Z NIL=
METAR OOSQ 111400Z NIL=
METAR OOSR 111400Z NIL=
METAR OOTH 111400Z NIL=
METAR OOYB 111400Z NIL=
METAR OTBD 111400Z 23011KT 190V250 9999 FEW017 SCT100 OVC120 16/13
Q1020 RERA NOSIG=
METAR OYAA 111400Z 15011KT 9999 FEW020 27/18 Q1014 NOSIG=
0000009000
876
SAAR20 OEJD 111400 RRA
METAR OYSN 111400Z 25010KT 9999 SCT030 21/01 Q1025=
0000041600
877
SAME31 OEJD 111400
METAR OJAI 111400Z 29010KT 6000 HZ SCT030 11/07 Q1024 NOSIG=
METAR OJAM 111400Z 29010KT 5000 HZ BKN025TCU 11/05 Q1024 NOSIG=
METAR OJAQ 111400Z 35006KT 9999 SCT030 19/06 Q1023 NOSIG=
METAR OLBA 111400Z 24004KT 8000 FEW180 17/05 Q1025 NOSIG=
METAR OSAP 111400Z NIL=
METAR OSDI 111400Z 21004KT CAVOK 13/00 Q1022=
METAR OSLK 111400Z 21008KT 9999 SCT030 BKN100 16/07 Q1022=
0000047100
878
UQMS20 WMKK 111200
PPDD  61128 48601
95689 20004 22019 20526=
PPDD 6112/ 48615 NIL=
PPDD  61128 48650
958// 22021 9627/ 17509 25020 97169 27022 29013 18010
98238 23517 27523 30033 99157 36003 06535 09551 1178/
08071 07560 120// 08576=
PPDD  61128 48657
9569/ 20514 19536 96134 16009 28503 00511 96678 31504
26514 27027 97479 25520 25013 18009 98279 27519 29036
31014 99013 23009 25016 06507 9957/ 04532 09048 105//
08563 113// 11058=
0000026200
879
SNAU02 AMMC 111400
AAXX 11144
94120 NIL=
94122 NIL=
94131 NIL=
94147 NIL=
94150 NIL=
94151 NIL=
94238 NIL=
94248 NIL=
94326 46/// /1013 10324 20075 39500 40100=
94327 NIL=
94462 NIL=
95111 NIL=
95214 NIL=
95322 NIL=

0000026200
880
SNAU03 AMMC 111400
AAXX 11144
94461 NIL=
94651 NIL=
94653 46/// /1611 10181 20155 30171 40189=
94659 NIL=
94672 NIL=
94804 NIL=
94821 NIL=
95458 NIL=
95480 NIL=
95481 NIL=
95666 NIL=
95826 46/// /2205 10157 30220 40222=

0000142200
881
SNAU04 AMMC 111400
AAXX 11144
94170 47/// /1303 10253 20249 30049 40070 50001 7//44
  333 10322=
94255 45/// /3406 10288 20200 39818 40074 50002
  333 10407=
94268 47/// /1407 10247 20235 30069 40081 58009 7//44
  333 10342=
94287 41410 81401 10233 20230 30097 40106 50000
  333 10323=
94290 NIL=
94294 457// 21212 10270 20213 30106 40116 50000
  333 10319=
94296 NIL=
94298 46/// /1117 10271 30097 40103 58010=
94299 47/// /1019 10271 20242 30079 40090 58010 7//44
  333 10298=
94332 45/// /1606 10309 20158 39698 40073 51005
  333 10401=
94341 45/// /0508 10282 20189 39867 40098 51017
  333 10389=
94346 45/// /0908 10260 20187 39897 40112 50004
  333 10371=
94363 45/// /0506 10236 20183 39922 40136 51007
  333 10319=
94367 455// 11309 10257 20198 30083 40124 58011
  333 10296=
94374 45/// /1205 10233 20199 30123 40140 58006
  333 10305=
94388 NIL=
94393 46/// /1019 10251 30099 40111 58011=
94394 46/// /1117 10250 30124 40132 58011=
94510 45/// /1301 10225 20198 39792 40131 50000
  333 10338=
94515 45/// /0000 10212 20146 39787 40127 50000
  333 10313=
94552 45/// /0608 10201 20153 39694 40153 58005
  333 10307=
94578 41580 10605 10215 20180 30150 40161 58009 70100 81100
  333 10286=
94584 45/// /1010 10229 20182 30041 40149 58008
  333 10277=
95482 45/// /1309 10343 20108 30053 40106 51010
  333 10421=

0000045600
882
SNAU05 AMMC 111400
AAXX 11144
94691 NIL=
94693 46/// /1611 10261 20063 30105 40166=
94700 NIL=
94703 NIL=
94710 NIL=
94729 NIL=
94750 NIL=
94767 46/// /0608 10223 20185 30153 40159=
94776 NIL=
94791 NIL=
94842 NIL=
94865 NIL=
94875 NIL=
94893 NIL=
94907 NIL=
94910 46/// /0000 10219 20100 39890 40133=
94926 NIL=
94935 NIL=
94995 NIL=
95485 NIL=
95527 NIL=
95719 NIL=
95762 NIL=
95839 NIL=

0000020300
883
SNAU06 AMMC 111400
AAXX 11144
94850 NIL=
94951 46/// /3010 10161 20086 30111 40126=
94954 NIL=
94956 NIL=
94975 46/// /3018 10166 20064 30095 40127=
94983 NIL=
94998 NIL=

0000004100
884
SNKI01 AMMC 111400
NIL

00000000