0000298200
803
SAIR31 OIII 110300
 METAR OIAA 110300Z 10004KT 5000 BR FEW030CB SCT035 OVC090 13/12
 Q1018=
METAR OIAG NIL=
METAR OIAH 110300Z 11010KT 9999 SCT040 OVC090 10/03 Q1019=
METAR OIAI NIL=
 METAR OIAM 110300Z 09019KT 3000 BR FEW030CB SCT040 OVC090 12/11
 Q1018=
 METAR OIAW 110300Z 11010KT 5000 BR FEW030CB SCT035 BKN090 11/10
 Q1018=
 METAR OIBA 110300Z 06016KT 4000 SA FEW025CB FEW030 BKN100 19/10
 Q1019=
 METAR OIBB 110300Z 09006KT 9999 FEW030CB SCT040 OVC090 15/07 Q1018
 A3007=
 METAR OIBK 110300Z 10010KT 7000 -RA FEW030CB SCT025 OVC090 15/09
 Q1020=
METAR OIBL 110300Z 07010KT CAVOK 16/04 Q1020=
METAR OIBS 110300Z 07030KT CAVOK 20/12 Q1019=
 METAR OICC 110300Z 11012KT 5000 BR FEW035CB SCT040 BKN080 M01/M03
 Q1018 A3008 NOSIG=
 METAR OICI 110300Z 15004KT 8000 SCT025 FEW030CB OVC080 03/03 Q1017
 A3004=
METAR OICJ NIL=
 METAR OICK 110300Z 09004KT 5000 SNRA FEW030CB SCT035 OVC060 01/00
 Q1019=
METAR OICS 110300Z 19002KT 4500 BR SCT035 BKN080 M04/M05 Q1020=
METAR OIFK NIL=
METAR OIFM 110300Z 00000KT 0200 FG NSC M05/M05 Q1020 A3013=
 METAR OIFS 110300Z 00000KT 1000 SN FEW025 SCT030 OVC060 M10/M11
 Q1020=
METAR OIGG 110300Z 00000KT 2000 BR BKN006 02/01 Q1018=
METAR OIGK NIL=
 METAR COR OIHH 110300Z 00000KT 0600 -SN FEW040 OVC100 M09/M10
 Q1020=
METAR OIHM NIL=
METAR OIIE 110300Z 30004KT CAVOK M01/M05 Q1021 A3021 NOSIG=
 METAR OIII 110300Z 00000KT 7000 FEW040 BKN100 02/M05 Q1021 A3015
 NOSIG NOSIG=
METAR OIIK 110300Z AUTO 00000KT //// // ////// M01/M05 Q1020=
METAR OIIP 110300Z 26004KT 6000 FEW040 BKN100 M03/M05 Q1020 A3012=
METAR OIIS NIL=
METAR OIKB 110300Z 09004KT CAVOK 12/07 Q1022 A3018=
METAR OIKK 110300Z 00000KT CAVOK M05/M07 Q1021 A3015=
METAR OIKO NIL=
METAR OIKQ 110300Z 06010KT 8000 FEW030 16/04 Q1021=
METAR OIMB 110300Z 07008KT CAVOK M03/M11 Q1023=
METAR OIMC NIL=
METAR OIMD NIL=
METAR OIMM 110300Z 15004KT 9999 FEW035 BKN180 M03/M10 Q1021 A3017=
METAR OINB NIL=
METAR OING 110300Z 00000KT 7000 SCT025 BKN090 03/02 Q1020=
METAR OINK NIL=
METAR OINN 110300Z 00000KT CAVOK 05/02 Q1019=
METAR OINR 110300Z VRB02KT CAVOK 05/04 Q1018=
METAR OISA NIL=
METAR OISF 110250Z 00000KT 9999 FEW035CB SCT040 OVC100 06/02 Q1020=
 METAR OISL 110300Z 11006KT 9999 FEW035CB SCT040 OVC100 08/04
 Q1019=
 METAR OISS 110250Z 00000KT 4000 -SN FEW030CB FEW035 OVC090 00/M01
 Q1022 A3020=
 METAR OISY 110300Z 00000KT 4000 -SN FEW030CB SCT035 OVC080 M01/M02
 Q1022=
METAR OITL 110250Z 28010KT CAVOK M14/M17 Q1017=
METAR OITR 110300Z 27004KT 2000 BR FEW035 BKN140 M11/M13 Q1021=
METAR OITT 110300Z 06006KT 8000 NSC M10/M14 Q1021 A3015=
METAR OITU NIL=
METAR OIYY 110300Z 00000KT 9999 FEW040 SCT100 01/M01 Q1022=
METAR OIZB 110300Z 00000KT 7000 NSC M04/M06 Q1026=
METAR OIZC NIL=
METAR OIZH 110300Z 14004KT CAVOK M05/M06 Q1022 A3020=
METAR OIZI 110300Z 01006KT CAVOK 04/00 Q1024=
METAR OIZJ 110300Z 00000KT CAVOK 15/07 Q1021=
0000013200
804
SIVD02 CWAO 110300
BBXX
SHIP 11034 99476 70591 46/// /2618 11018 21040 49986 53025 7//// 8//// 22283 0//// 2//// =
0000013200
805
SIVD02 CWAO 110300
BBXX
SHIP 11034 99481 70475 46/// /2719 11035 21073 40162 51003 7//// 8//// 22261 0//// 2//// =
0000013200
806
SIVD02 CWAO 110300
BBXX
SHIP 11034 99489 71235 46/// /1312 10071 20068 40070 56054 7//// 8//// 22231 00082 2//// =
0000013000
807
SIIN90 VABB 110300
AAXX 11034
43111 32997 12004 10144 20013 38644 48522 80001
  333 20116 59001
  555 10000=
0000013200
808
SIVD02 CWAO 110300
BBXX
SHIP 11034 99449 70625 46/// /2407 10007 21003 40280 58012 7//// 8//// 22200 0//// 2//// =
0000307500
809
SAIR77 OIII 110300
METAR AZUH NIL=
METAR KHME 110250Z AUTO 08008KT //// // ////// M01/M09 Q0992=
 METAR OIAA 110300Z 10004KT 5000 BR FEW030CB SCT035 OVC090 13/12
 Q1018=
METAR OIAG NIL=
METAR OIAH 110300Z 11010KT 9999 SCT040 OVC090 10/03 Q1019=
METAR OIAI NIL=
 METAR OIAM 110300Z 09019KT 3000 BR FEW030CB SCT040 OVC090 12/11
 Q1018=
 METAR OIAW 110300Z 11010KT 5000 BR FEW030CB SCT035 BKN090 11/10
 Q1018=
 METAR OIBA 110300Z 06016KT 4000 SA FEW025CB FEW030 BKN100 19/10
 Q1019=
 METAR OIBB 110300Z 09006KT 9999 FEW030CB SCT040 OVC090 15/07 Q1018
 A3007=
 METAR OIBK 110300Z 10010KT 7000 -RA FEW030CB SCT025 OVC090 15/09
 Q1020=
METAR OIBL 110300Z 07010KT CAVOK 16/04 Q1020=
METAR OIBS 110300Z 07030KT CAVOK 20/12 Q1019=
 METAR OICC 110300Z 11012KT 5000 BR FEW035CB SCT040 BKN080 M01/M03
 Q1018 A3008 NOSIG=
 METAR OICI 110300Z 15004KT 8000 SCT025 FEW030CB OVC080 03/03 Q1017
 A3004=
METAR OICJ NIL=
 METAR OICK 110300Z 09004KT 5000 SNRA FEW030CB SCT035 OVC060 01/00
 Q1019=
METAR OICS 110300Z 19002KT 4500 BR SCT035 BKN080 M04/M05 Q1020=
METAR OIFK NIL=
METAR OIFM 110300Z 00000KT 0200 FG NSC M05/M05 Q1020 A3013=
 METAR OIFS 110300Z 00000KT 1000 SN FEW025 SCT030 OVC060 M10/M11
 Q1020=
METAR OIGG 110300Z 00000KT 2000 BR BKN006 02/01 Q1018=
METAR OIGK NIL=
METAR OIHM NIL=
METAR OIIE 110300Z 30004KT CAVOK M01/M05 Q1021 A3021 NOSIG=
 METAR OIII 110300Z 00000KT 7000 FEW040 BKN100 02/M05 Q1021 A3015
 NOSIG NOSIG=
METAR OIIK 110300Z AUTO 00000KT //// // ////// M01/M05 Q1020=
METAR OIIP 110300Z 26004KT 6000 FEW040 BKN100 M03/M05 Q1020 A3012=
METAR OIIS NIL=
METAR OIKB 110300Z 09004KT CAVOK 12/07 Q1022 A3018=
METAR OIKK 110300Z 00000KT CAVOK M05/M07 Q1021 A3015=
METAR OIKO NIL=
METAR OIKQ 110300Z 06010KT 8000 FEW030 16/04 Q1021=
METAR OIMB 110300Z 07008KT CAVOK M03/M11 Q1023=
METAR OIMC NIL=
METAR OIMD NIL=
METAR OIMM 110300Z 15004KT 9999 FEW035 BKN180 M03/M10 Q1021 A3017=
METAR OIMN 110300Z 00000KT CAVOK M05/M08 Q1022=
METAR OINB NIL=
METAR OING 110300Z 00000KT 7000 SCT025 BKN090 03/02 Q1020=
METAR OINK NIL=
METAR OINN 110300Z 00000KT CAVOK 05/02 Q1019=
METAR OINR 110300Z VRB02KT CAVOK 05/04 Q1018=
METAR OISA NIL=
METAR OISF 110250Z 00000KT 9999 FEW035CB SCT040 OVC100 06/02 Q1020=
 METAR OISL 110300Z 11006KT 9999 FEW035CB SCT040 OVC100 08/04
 Q1019=
 METAR OISS 110250Z 00000KT 4000 -SN FEW030CB FEW035 OVC090 00/M01
 Q1022 A3020=
 METAR OISY 110300Z 00000KT 4000 -SN FEW030CB SCT035 OVC080 M01/M02
 Q1022=
METAR OITL 110250Z 28010KT CAVOK M14/M17 Q1017=
METAR OITR 110300Z 27004KT 2000 BR FEW035 BKN140 M11/M13 Q1021=
METAR OITT 110300Z 06006KT 8000 NSC M10/M14 Q1021 A3015=
METAR OITU NIL=
METAR OIYY 110300Z 00000KT 9999 FEW040 SCT100 01/M01 Q1022=
METAR OIZB 110300Z 00000KT 7000 NSC M04/M06 Q1026=
METAR OIZC NIL=
METAR OIZH 110300Z 14004KT CAVOK M05/M06 Q1022 A3020=
METAR OIZI 110300Z 01006KT CAVOK 04/00 Q1024=
METAR OIZJ 110300Z 00000KT CAVOK 15/07 Q1021=
METAR SESG NIL=
METAR YAYT NIL=
0000299500
810
SAIR78 OIII 110300
METAR AZUH NIL=
METAR KHME 110250Z AUTO 08008KT //// // ////// M01/M09 Q0992=
 METAR OIAA 110300Z 10004KT 5000 BR FEW030CB SCT035 OVC090 13/12
 Q1018=
METAR OIAG NIL=
METAR OIAH 110300Z 11010KT 9999 SCT040 OVC090 10/03 Q1019=
METAR OIAI NIL=
 METAR OIAM 110300Z 09019KT 3000 BR FEW030CB SCT040 OVC090 12/11
 Q1018=
 METAR OIAW 110300Z 11010KT 5000 BR FEW030CB SCT035 BKN090 11/10
 Q1018=
 METAR OIBA 110300Z 06016KT 4000 SA FEW025CB FEW030 BKN100 19/10
 Q1019=
 METAR OIBB 110300Z 09006KT 9999 FEW030CB SCT040 OVC090 15/07 Q1018
 A3007=
 METAR OIBK 110300Z 10010KT 7000 -RA FEW030CB SCT025 OVC090 15/09
 Q1020=
METAR OIBL 110300Z 07010KT CAVOK 16/04 Q1020=
METAR OIBS 110300Z 07030KT CAVOK 20/12 Q1019=
 METAR OICC 110300Z 11012KT 5000 BR FEW035CB SCT040 BKN080 M01/M03
 Q1018 A3008 NOSIG=
 METAR OICI 110300Z 15004KT 8000 SCT025 FEW030CB OVC080 03/03 Q1017
 A3004=
METAR OICJ NIL=
 METAR OICK 110300Z 09004KT 5000 SNRA FEW030CB SCT035 OVC060 01/00
 Q1019=
METAR OICS 110300Z 19002KT 4500 BR SCT035 BKN080 M04/M05 Q1020=
METAR OIFK NIL=
METAR OIFM 110300Z 00000KT 0200 FG NSC M05/M05 Q1020 A3013=
 METAR OIFS 110300Z 00000KT 1000 SN FEW025 SCT030 OVC060 M10/M11
 Q1020=
METAR OIGG 110300Z 00000KT 2000 BR BKN006 02/01 Q1018=
METAR OIGK NIL=
 METAR COR OIHH 110300Z 00000KT 0600 -SN FEW040 OVC100 M09/M10
 Q1020=
METAR OIHM NIL=
METAR OIIE 110300Z 30004KT CAVOK M01/M05 Q1021 A3021 NOSIG=
 METAR OIII 110300Z 00000KT 7000 FEW040 BKN100 02/M05 Q1021 A3015
 NOSIG NOSIG=
METAR OIIK 110300Z AUTO 00000KT //// // ////// M01/M05 Q1020=
METAR OIIS NIL=
METAR OIKB 110300Z 09004KT CAVOK 12/07 Q1022 A3018=
METAR OIKK 110300Z 00000KT CAVOK M05/M07 Q1021 A3015=
METAR OIKO NIL=
METAR OIKQ 110300Z 06010KT 8000 FEW030 16/04 Q1021=
METAR OIMB 110300Z 07008KT CAVOK M03/M11 Q1023=
METAR OIMC NIL=
METAR OIMD NIL=
METAR OIMM 110300Z 15004KT 9999 FEW035 BKN180 M03/M10 Q1021 A3017=
METAR OIMN 110300Z 00000KT CAVOK M05/M08 Q1022=
METAR OINB NIL=
METAR OING 110300Z 00000KT 7000 SCT025 BKN090 03/02 Q1020=
METAR OINN 110300Z 00000KT CAVOK 05/02 Q1019=
METAR OINR 110300Z VRB02KT CAVOK 05/04 Q1018=
METAR OISA NIL=
METAR OISF 110250Z 00000KT 9999 FEW035CB SCT040 OVC100 06/02 Q1020=
 METAR OISL 110300Z 11006KT 9999 FEW035CB SCT040 OVC100 08/04
 Q1019=
 METAR OISS 110250Z 00000KT 4000 -SN FEW030CB FEW035 OVC090 00/M01
 Q1022 A3020=
 METAR OISY 110300Z 00000KT 4000 -SN FEW030CB SCT035 OVC080 M01/M02
 Q1022=
METAR OITR 110300Z 27004KT 2000 BR FEW035 BKN140 M11/M13 Q1021=
METAR OITT 110300Z 06006KT 8000 NSC M10/M14 Q1021 A3015=
METAR OITU NIL=
METAR OIYY 110300Z 00000KT 9999 FEW040 SCT100 01/M01 Q1022=
METAR OIZB 110300Z 00000KT 7000 NSC M04/M06 Q1026=
METAR OIZC NIL=
METAR OIZH 110300Z 14004KT CAVOK M05/M06 Q1022 A3020=
METAR OIZI 110300Z 01006KT CAVOK 04/00 Q1024=
METAR OIZJ 110300Z 00000KT CAVOK 15/07 Q1021=
METAR YAYT NIL=
0000013200
811
SIVD02 CWAO 110300
BBXX
SHIP 11034 99497 70552 46/// /0905 11045 21090 40156 56006 7//// 8//// 22261 00015 2//// =
0000013200
812
SIVD02 CWAO 110300
BBXX
SHIP 11034 99369 11409 46/// /3107 10059 21092 40231 58014 7//// 8//// 22200 0//// 2//// =
0000011900
813
SMOM66 OOMS 110000 RRH
AAXX 11004
41242 26/// /1300 10172 20102 30197 40223
333 0E015 58003 70000 =
0000023900
814
SIFW20 NWBB 110300
AAXX 11034
91753 22475 73211 10301 20256 30003 40034 58015 83831
  333 60007 81815 83824 86076 90710 91116
  555 60005=
91754 26/// ///// 10322 20267 39992 40032 56013
  333 60007
  555 60005=
0000078000
815
SINC20 NWBB 110300
AAXX 11034
91573 26/// /1012 10294 20191 30007 40103 58015
  333 59010 60007=
91577 26/// /1815 10292 20195 30077 40098 57015
  333 59008 60007=
91579 26/// /1410 10299 20193 30097 40105 58014
  333 59009 60007=
91582 24969 /1114 10291 20156 30073 40109 58011 700//
  333 4//// 6///7 90710 91121
  555 6///5=
91583 26/// /1110 10272 20193 30093 40108 58016
  333 59009 60007=
91587 24665 /1212 10280 20153 30055 40109 58014 700//
  333 4//// 60007 90710 91122
  555 60005=
91590 24986 /1421 10298 20151 30086 40098 57022 700//
  333 4//// 60007 90710 91131
  555 60005=
91592 26/// /1220 10275 20179 30034 40115 58016
  333 59020 60007=
91596 26/// /1114 10275 20138 30013 40121 58016
  333 59016 60007=
0000011000
816
UANT01 CWAO 110302
ARP EJM312 5406N04537W 0302 F410 MS60 287/39 KT
N312P QXT AME 110302 A25A
0000021400
817
UAPA01 KWBC 110303
ARP ASA854 3500N 14221W 0254 F370 MS52 260/086KT TB SMTH=
ARP ASA832 3024N 14042W 0257 F350 MS43 267/048KT TB CONS LGT CHOP=
ARP DAL1559 2600N 14610W 0257 F340 MS41 255/020KT=
0000010900
818
UANT01 CWAO 110302
ARP BAW52 5804N05848W 0302 F380 MS57 281/64 KT
GVIIG QXS YHO 110302 F15A
0000011000
819
UANT01 CWAO 110302
ARP UAL70 5251N03052W 0302 F360 MS57 216/52 KT
N18119 DDL IG1 110302 F58A
0000008300
820
UANT01 KWBC 110303
ARP BAW34N 2936N 7652W 0255 F330 MS47 261/045KT=
0000022700
821
SIAB30 ZATI 110300
AAXX 11034
13600 NIL=
13601 NIL=
13602 NIL=
13610 NIL=
13611 NIL=
13619 NIL=
13622 NIL=
13623 NIL=
13624 NIL=
13625 NIL=
13629 NIL=
13631 NIL=
13632 NIL=
13633 NIL=
0000156900
822
SIIY20 LIIB 110300
AAXX 11034
16008 42560 70000 10012 20002 38550 48508 53002 87200 333 87625
      92865=
16084 41/02 93301 10078 20074 30051 40220 54000 74544 333 89/01=
16088 NIL=
16110 41495 80000 10092 20080 30211 40215 54001 71022 886// 333 88712
      555 0////=
16134 42980 03111 10042 21033 37846 48518 54000 333 92845 95150 444
      38160=
16153 42598 50107 10104 20065 39948 40215 53002 82530 333 82625 84358
      555 0////=
16158 42760 51103 10078 20067 30211 40219 54001 85400 333 85650=
16206 42965 00605 10052 20034 30211 40220 56001=
16219 42970 02805 10030 21012 38157 48541 54000=
16252 41958 00000 10064 20049 39273 42828 55002 71000=
16280 42597 70202 10120 20104 39990 40213 56002 87500 333 87620 555
      0////=
16310 42998 03503 10108 20089 39989 40213 56001 555 0////=
16320 41958 02502 10064 20049 30209 40221 54001 71000 555 0////=
16325 41996 00000 10086 20086 30200 40214 54000 71011 333 98040 555
      0////=
16360 42997 00207 10110 20096 30080 40216 51001 555 0////=
16400 42498 21309 10128 20096 39930 40221 54002 82100 333 55300 82819
      555 0213/=
16420 42997 22703 10110 20055 30144 40210 53005 80001 555 0////=
16429 42962 01209 10126 20108 30185 40196 57008=
16470 NIL=
16480 42997 03004 10150 20142 30149 40210 58002 555 0////=
16522 42998 20000 10118 20094 39951 40196 54000 80002 555 0////=
16539 42897 31308 10108 20089 30076 40192 57001 83031 333 83357 555
      0////=
16550 42898 83011 10118 20081 30034 40216 54000 8807/ 333 88357 555
      0////=
00000000