0000011000
399
UANT99 KDDL 111144
ARP KLM686 5506N02409W 1144 F370 MS55 221/76 KT
PHBFC QXT AOE 111144 F96A
0000010600
400
UANT99 KDDL 111144
ARP UAL908 GONUT 1144 F320 MS46 252/28 KT
N659UA QXS SYY1 111144 F86A
0000011000
401
UANT99 KDDL 111144
ARP UAL56 5104N02914W 1144 F320 MS50 179/61 KT
N66051 DDL XXN 111144 F25A
0000011000
402
UANT99 KDDL 111144
ARP DAL39 5301N03004W 1144 F310 MS55 175/62 KT
N845MH QXT AOE 111144 F20A
0000011000
403
UANT99 KDDL 111144
ARP SWR26L 4902N01609W 1144 F380 MS60 245/53 KT
HBJHA QXT AOE 111145 J04A
0000006200
404
SDTH20 VTBB 111100 RRA
FFBB 1112/ 48456 00000=
0000076500
405
SAUZ31 UTTW 111130
METAR UTFN 111130Z 00000MPS 0800 R28/0800N FZFG NSC M04/M05 Q1026
R28/CLRD70 NOSIG=
METAR UTNN 111130Z 08002MPS CAVOK 05/M01 Q1020 R33/CLRD60 NOSIG=
METAR UTNU 111130Z 06002MPS CAVOK 07/M02 Q1019 R31/CLRD60 NOSIG=
METAR UTSA 111130Z 15005MPS 9000 NSC 08/M06 Q1021 R25/CLRD70 NOSIG=
METAR UTSB 111130Z 19005MPS CAVOK 11/M07 Q1020 R19/CLRD70 NOSIG=
METAR UTSK 111130Z 19003MPS CAVOK 11/M05 Q1021 R16/CLRD70=
METAR UTSS 111130Z 07002MPS 9999 NSC 07/M06 Q1020 R88/CLRD70 NOSIG=
METAR UTST 111130Z 13003MPS CAVOK 10/M07 Q1023 R88/CLRD70 NOSIG=
METAR UTFA 111130Z NIL=
METAR UTFF 111130Z 30001MPS 0600 R18/0600N FZFG NAC M01/M03 Q1024
R18/CLRD70=
METAR UTTT 111130Z VRB01MPS CAVOK 10/M11 Q1021 R08R/CLRD70 NOSIG=
0000013000
406
SMRO45 YRBK 110000 RRA
AAXX 11001
15047 03/// ///// 10031 20018 39767 40212 5//// 6///1 333 4//// 55000
6///7=
0000010900
407
UANT01 CWAO 111145
ARP SIA26 5335N03517W 1144 F390 MS57 231/30 KT
9VSKS QXT EUA 111145 J98A
0000016900
408
SSVX13 LFPW 110100
ZZYY 41737 11014 0100/ 725769 036992 6113/ 11119 40210 52004 33300
 88872 20000 43752 444 20130 11014 0000/ 50101 80148 80061 9/015=
0000057100
409
UEIY01 LIIB 110000 RRA
TTDD 6100/ 16113
11831 59179 22687 54183 33494 57581 44432 53383 55353
54583 66306 50385 77136 54982 88122 53183 99114 47986
11100 46786 22099 46786
21212 11934 27532 22896 29528 33846 28030 44808 30030
55762 30523 66703 28028 77695 28527 88653 32520 99626
30010 11609 27014 22585 27020 33531 31531 44515 33027
55465 31026 66426 34523 77409 33018 88397 30522 99370
34027 11352 33023 22333 34530 33311 32035 44285 34028
55265 32029 66251 34031 77242 32535 88166 35051 99134
34056 11117 34076 22099 35070
31313 48108 82315=
0000076200
410
UKIY01 LIIB 110000 RRA
TTBB 61008 16113
00976 05816 11967 08440 22834 00100 33826 02437 44824
02657 55809 03860 66789 04461 77684 04159 88614 08368
99588 11365 11568 13756 22521 18962 33495 20567 44452
25946 55392 33158 66380 34947 77327 41761 88289 49539
99277 50935 11249 56141 22237 57764 33202 64559 44166
61370 55162 62370 66152 58975 77140 61375 88135 56778
99100 57579
21212 00976 19504 11813 25510 22746 24012 33698 25515
44595 25518 55561 27521 66534 24518 77458 26031 88397
25030 99332 25054 11289 25557 22261 23559 33227 25065
44198 25559 55190 26043 66179 24539 77167 23049 88157
24564 99148 26056 11129 25532 22117 27525 33113 25029
44100 29028
31313 48108 82315
41414 /////
51515 11864 36006 22800 25511 33600 25518=
0000019300
411
ULIY01 LIIB 110000 RRA
TTCC 61001 16113
70842 54982 28027 50056 56981 33021 30384 50584 33530
20647 52183 33542 10096 46786 35069
88999
77117 34076 42011
31313 48108 82315=
0000035100
412
USIY01 LIIB 110000 RRA
TTAA 61001 16113
99976 05816 19504 00185 ///// ///// 92827 05218 34005
85513 01001 00506 70079 02560 25515 50566 20166 24527
40728 32150 25030 30925 47156 25049 25043 55940 24062
20182 64559 25060 15360 59175 26060 10616 57579 29028
88202 64559 24559
77227 25065 41215 77157 24564 42430
31313 48108 82315=
0000116600
413
SNIY20 LIIB 110100
AAXX 11014
16008 42560 70000 10012 21001 38548 48506 54000 87200 333 87625
      92865=
16088 NIL=
16110 41494 82101 10094 20082 30210 40214 54001 71022 886// 333 88713
      555 0////=
16134 42980 03215 10042 21029 37844 48516 58002 333 92845 95150 444
      38160=
16153 42598 53607 10110 20069 39942 40209 58002 82530 333 82625 83358
      555 0////=
16206 42865 30303 10066 20046 30211 40220 58004 81031 333 81357=
16219 NIL=
16280 42597 50302 10120 20087 39992 40215 54000 85500 333 85625 555
      0////=
16310 42998 03302 10106 20087 39990 40214 58001 555 0////=
16360 42997 10202 10116 20102 30079 40215 51002 81030 333 81360 555
      0////=
16400 42498 21310 10128 20100 39932 40223 51001 81130 333 55300 81819
      555 0213/=
16420 42997 32703 10112 20030 30139 40205 56002 80001 555 0////=
16429 42962 51307 10122 20106 30192 40203 56009 83034 333 83360=
16470 NIL=
16480 42997 33004 10140 20131 30149 40210 54000 80001 555 0////=
16522 42998 01603 10128 20085 39950 40194 55002 555 0////=
16550 42898 73014 10110 20081 30034 40216 54000 87000 333 84357 83462
      555 0////=
0000035100
414
USIY01 LIIB 110000 RRB
TTAA 61001 16429
99020 12020 13009 00168 13623 14028 92824 11459 20015
85530 10476 20014 70118 01670 25015 50574 15766 27014
40738 27916 25521 30939 42958 26028 25059 52932 24539
20199 59762 26561 15376 62769 26072 10627 64178 26044
88161 66565 25556 88118 63177 29031
77147 26075 42444
31313 48008 80003=
0000101800
415
UKIY01 LIIB 110000 RRB
TTBB 61008 16429
00020 12020 11982 13856 22916 11462 33891 12675 44750
05082 55744 05283 66693 01482 77613 06566 88536 11975
99519 13168 11471 19564 22447 23356 33436 24123 44389
29509 55366 32539 66362 32559 77361 32560 88357 32373
99309 41364 11282 46513 22260 50745 33238 55728 44189
61166 55161 66565 66136 57778 77118 63177 88106 61378
99100 64178
21212 00020 13009 11999 14028 22992 14525 33964 18517
44926 20015 55898 19016 66888 19512 77874 21013 88857
20013 99830 21516 11816 20015 22774 21514 33747 24016
44718 23015 55705 25016 66683 26013 77667 23513 88637
23012 99629 23511 11608 25013 22545 23511 33536 23514
44511 28514 55486 27013 66477 28515 77419 27522 88401
25521 99370 25029 11359 26519 22340 25517 33311 26523
44291 24529 55261 25541 66237 25037 77203 26063 88173
27055 99165 26552 11160 25557 22147 26075 33130 29041
44119 29532 55116 28529 66111 25037 77100 26044
31313 48008 80003
41414 10931
51515 11905 19019 22800 21515 33600 24514=
0000112400
416
SNNO21 ENMI 110100
AAXX 11011
01001 46/// /0401 10003 21012 30130 40142 57001=
01008 46/// /2205 11004 21043 30049 40083 52004=
01010 41989 01205 11064 21138 30150 40166 52003 70200=
01026 26/// /1901 11116 21131 30031 40182 52004 333 60005=
01055 46/// /0000 11035 21095 30157 40175 54000=
01062 46/// /2304 11011 21036 30081 40094 52004=
01098 46/// /0304 11024 21114 30136 40154 54000=
01115 26/// /0805 11050 21127 30073 40095 52004 333 60005=
01152 46/// /1008 11071 21158 30104 40120 52006=
01205 46/// /0305 11005 21036 39950 49996 57007=
01212 26/// /1004 11024 21058 39980 49998 57006 333 60005=
01271 47/84 00804 11103 21156 30019 40041 52010 700//=
01288 46/// /0905 11145 21172 39260 40049 50007=
01300 NIL=
01317 26/// /1202 10030 20012 39967 49982 57008 333 69915=
01367 46/// /3102 11059 21066 39538 49990 50003=
01384 46257 /0302 11022 21023 52005=
01403 46/// /2711 10065 20047 39927 49995 56004=
01415 47669 82605 10072 20049 39997 40008 57001 700//=
01482 46/// /2708 10052 20026 39968 49977 55002=
01492 46/// /0302 11005 21014 39858 49977 50004=
0000091600
417
SNNO22 ENMI 110100
AAXX 11011
01003 NIL=
01007 46/// /1303 11022 21056 30068 40078 50005=
01028 41410 82606 11007 21016 30107 40127 52003 78582 888//=
01047 NIL=
01049 26/// /2203 11148 21164 30191 40194 54001 333 60005=
01078 46/// /2503 11052 21072 30155 40165 58003=
01102 46/// ///// 11055 21111 30042 40062 52002=
01160 46/// /0708 11055 21127 30122 40140 50001=
01218 26/// /1502 11011 21071 39974 49996 54000 333 60005=
01238 46/// /2102 11107 21128 38829 49957 52002=
01241 41486 40603 11081 21112 30009 40021 57000 72277 81772=
01281 46/// /0904 11110 21157 39901 40086 50011=
01338 46/// /2905 10031 21039 39909 49975 57007=
01359 46/// /2403 11013 21046 39057 49969 58001=
01397 46/// /3201 11090 21124 39575 40028 52009=
01400 NIL=
01427 26/// /2606 10066 20056 39997 40012 58006 333 60005=
01447 NIL=
01448 46/// /2707 10066 20051 30000 40009 58005=
0000015700
418
SSVX13 LFPW 110100
ZZYY 44865 11014 0100/ 735754 016445 6113/ 11119 40172 57005 22219
 00192 444 20130 11014 0000/ 50101 80072 80002 9/015=
00000000