0000046700
679
SZPA01 AMMC 110109
CREX++
T000103 A001 D01021 D06025++
0136250 17293000 67590 2014 01 11 01 02 3013 11 07 00 01
02189 0047 02188 0044 02177 0031 02191 0044 02193 0045 02188 0038+
0710610 17137250 67680 2014 01 11 01 02 3015 11 07 00 01
01512 0053 01512 0052 01519 0058 01515 0053 01509 0047 01517 0054+
0698060 15820000 67950 2014 01 11 01 02 3020 11 07 00 01
01140 0069 01146 0074 01145 0073 01143 0070 01146 0073 01142 0068++
7777

0000034200
680
SZIO01 AMMC 110109
CREX++
T000103 A001 D01021 D06025++
-1211670 09689190 46280 2014 01 11 01 02 3000 11 07 00 01
00614 0025 00606 0016 00611 0020 00611 0019 00614 0021 00615 0022+
-1042940 10566940 46290 2014 01 11 01 02 //// 11 07 00 01
00791 0044 00734 -0013 00794 0047 00766 0020 00748 0002 00761 0015++
7777

0000005200
681
RRIN23 VECC 110107
RQRPT 239-280=

0000005200
682
RRIN23 VECC 110108
RQRPT 339-380=

0000191700
683
SZAU01 AMMC 110109
CREX++
T000103 A001 D01021 D06025++
-1927750 14705860 59260 2014 01 11 01 02 3015 11 07 00 01
01875 0147 01875 0154 01866 0151 01860 0151 01853 0150 01851 0154+
-2316110 15079000 59670 2014 01 11 01 02 2995 11 07 00 01
02028 0208 02021 0209 02013 0209 02006 0210 02000 0211 01997 0216+
-3447330 15091170 60420 2014 01 11 01 02 2955 11 07 00 01
00499 -0045 00497 -0047 00490 -0053 00482 -0060 00480 -0062 00475 -0066+
-4105000 14591500 60910 2014 01 11 01 02 2888 11 07 00 01
01478 -0037 01466 -0040 01462 -0033 01445 -0041 01437 -0040 01430 -0037+
-4254640 14793080 61170 2014 01 11 01 02 2898 11 07 00 01
00849 0051 00845 0047 00840 0043 00834 0037 00837 0041 00837 0041+
-3834390 14161360 61410 2014 01 11 01 02 2905 11 07 00 01
00205 -0009 00184 -0030 00217 0004 00208 -0005 00206 -0007 00235 0022+
-3214890 13364170 62000 2014 01 11 01 02 2952 11 07 00 01
01022 0201 01019 0199 01015 0197 01011 0194 01011 0196 01008 0195+
-3387080 12189720 62080 2014 01 11 01 02 2943 11 07 00 01
00626 0100 00626 0099 00639 0112 00653 0125 00646 0117 00656 0126+
-3182560 11573860 62237 2014 01 11 01 02 2968 11 07 00 01
00565 0045 00567 0047 00576 0055 00579 0058 00583 0061 00586 0063+
-2422000 11339750 62385 2014 01 11 01 02 //// 11 07 00 01
00843 -0122 00885 -0080 00916 -0049 00805 -0160 00870 -0094 00905 -0059+
-2181670 11419110 62430 2014 01 11 01 02 //// 11 07 00 01
01586 -0043 01584 -0044 01599 -0027 01583 -0042 01588 -0037 01582 -0041+
-1800080 12221830 62650 2014 01 11 01 02 3042 11 07 00 01
05511 0127 05504 0131 05497 0129 05490 0127 05485 0133 05480 0133+
-1247190 13084580 63230 2014 01 11 01 02 3048 11 07 00 01
03195 0094 03204 0093 03212 0093 03221 0093 03229 0089 03237 0088+
-1386000 13641580 63511 2014 01 11 01 02 3043 11 07 00 01
01293 0120 01291 0118 01290 0117 01289 0116 01287 0114 01285 0112++
7777

0000179200
684
SZPS01 AMMC 110109
CREX++
T000103 A001 D01021 D06025++
-0204190 14737360 56130 2014 01 11 01 02 3027 11 07 00 01
01098 0193 01102 0196 01104 0197 01112 0204 01111 0202 01113 0203+
-0669280 15640860 56363 2014 01 11 01 02 //// 11 07 00 01
01114 -0049 01113 -0051 01116 -0048 01117 -0048 01117 -0049 01116 -0051+
-0942890 15995560 56670 2014 01 11 01 02 3037 11 07 00 01
00997 -0057 01003 -0051 00998 -0056 00999 -0055 00994 -0059 00996 -0057+
-1072080 16580190 57131 2014 01 11 01 02 //// 11 07 00 01
00999 -0106 00985 -0122 00983 -0125 00994 -0116 00983 -0129 01826 0713+
-1551560 16718860 57210 2014 01 11 01 02 //// 11 07 00 01
01207 -0115 01204 -0121 01214 -0113 01210 -0120 01201 -0131 01211 -0124+
-1775690 16830030 57320 2014 01 11 01 02 3015 11 07 00 01
01088 -0107 01094 -0103 01101 -0098 01108 -0093 01117 -0087 01122 -0084+
-4397330 16861610 65180 2014 01 11 01 02 2883 11 07 00 01
01164 0365 01160 0363 01157 0362 01149 0356 01156 0365 01169 0380+
-2120470 -15978530 65980 2014 01 11 01 02 3010 11 07 00 01
00829 0052 00783 0004 00787 0007 00810 0028 00827 0043 00815 0030+
-2113810 -17518140 66600 2014 01 11 01 02 //// 11 07 00 01
01431 0066 01435 0067 01429 0057 01435 0059 01435 0056 01438 0056+
-1382670 -17176110 66840 2014 01 11 01 02 3010 11 07 00 01
01170 0064 01169 0061 01164 0054 01171 0059 01178 0064 01175 0059+
-1813250 17842750 67050 2014 01 11 01 02 3032 11 07 00 01
01622 0088 01618 0080 01634 0093 01640 0095 01636 0087 01641 0089+
-1760530 17743810 67070 2014 01 11 01 02 3030 11 07 00 01
01732 0036 01734 0034 01736 0032 01738 0029 01740 0027 ///// ////+
-0850250 17919500 67440 2014 01 11 01 02 3030 11 07 00 01
02540 0024 02539 0020 02543 0022 02544 0021 02542 0016 02557 0029++
7777

0000009700
685
SAMC32 GMMC 110100 RRB
METAR GMMC 110100Z 22005KT 8000 SCT016 SCT026 16/13 Q1013=
0000011000
686
UANT99 KDDL 110107
ARP AIC144 5054N04041W 0107 F330 MS54 262/25 KT
VTALM QXT AOW 110107 F21A
0000023600
687
SAAO32 GOOY 110100
METAR GABS 110100Z 05002KT CAVOK 21/06 Q1013 NOSIG=
METAR GAGO 110100Z NIL=
METAR GAKY 110100Z NIL=
METAR GAKL 110100Z NIL=
METAR GAMB 110100Z NIL=
METAR GANR 110100Z NIL=
METAR GATB 110100Z NIL=
0000024000
688
SAAO31 GOOY 110100
METAR FHAW 110050Z 13009KT 9999 FEW020 24/19 Q1014 BLU=
METAR GGOV 110100Z NIL=
METAR DIAP 110100Z VRB01KT 8000 SCT012 BKN100 27/25 Q1011 TEMPO 
BKN009=
METAR DIBK 110100Z NIL=
METAR DIYO 110100Z NIL=
0000024200
689
SAAO30 GOOY 110100
METAR GOOY 110100Z 36010KT CAVOK 19/15 Q1014 NOSIG=
METAR GOGS 110100Z NIL=
METAR GOOK 110100Z NIL=
METAR GOSS 110100Z NIL=
METAR GOTK 110100Z NIL=
METAR GOTT 110100Z NIL=
METAR GOGG 110100Z NIL=
0000011200
690
SMAR20 OEJD 110000 RRB
AAXX 11003
41258 36/// /1503 10184 20089 30202 40207
333 0E/// 58008=
0000036400
691
SAAO33 GOOY 110100
METAR GQPP 110100Z 27004KT 230V300 7000 NSC 17/15 Q1016 NOSIG=
METAR GQNN 110100Z 36004KT 8000 NSC 15/13 Q1015 NOSIG=
METAR GQPA 110100Z NIL=
METAR GQNI 110100Z NIL=
METAR GQPZ 110100Z NIL=
METAR GUCY 110100Z VRB02KT CAVOK 24/22 Q1011 NOSIG=
METAR GUXN 110100Z NIL=
METAR GULB 110100Z NIL=
METAR GUNZ 110100Z NIL=
0000023800
692
SNVE15 KWNB 110100 RRD
BBXX
51003 11011 99193 71606 46/// /0507 10245 40117 56029 90050 22200
00256 11304 20502 3//// 41303 70019 333 91208 555 11076 22080
30017 40509 60049 052072 053070 047068 046067 043065 044067=
0000103000
693
SNVD15 KWNB 110100 RRG
BBXX
41046 11011 99238 70683 46/// /1010 10258 20185 40228 51014 90050
22200 00261 10905 20604 3//// 40903 70026 333 91211 555 11102
22108 30030 40912 60049 094095 093096 089091 095092 092092 089092
80910 90031=
42060 11011 99163 70632 46/// /0710 10262 40169 53020 90050 22200
00267 10604 20604 308// 41002 70021 333 91212 555 11109 22116
32351 40813 60049 072103 067100 065094 068100 071099 073102 80711
92353=
44064 11011 99370 70760 46/// /1305 10068 40237 58018 90100 22200
00065 10401 70004 333 91206 555 11057 22062=
44062 11011 99386 70764 46/// /0104 10021 40252 58011 90100 22200
00028 1//00 70000 333 91205 555 11047 22051=
44063 11011 99390 70764 46/// /0102 10015 40241 58011 90100 22200
00015 1//00 70000 333 91202 555 11017 22019=
44041 11011 99372 70768 46/// /1303 10049 90100 22200 00042 1//00
70001 333 91204 555 11034 22036=
44042 11011 99380 70763 46/// /0903 10044 40235 58019 90100 22200
00036 1//00 70001 333 91204 555 11038 22041=
0000023800
694
SNVD22 KWNB 110100 RRN
BBXX
46053 11011 99343 71199 46/// /1001 10153 40172 54000 90050 22200
00160 11403 20401 326// 41403 70015 333 91202 555 11010 22010
30004 41003 60049 102010 121015 120018 109020 092022 105018=
0000026100
695
SNVD20 KWNB 110100 RRG
BBXX
44059 11011 99368 70763 46/// /1504 10072 40231 58017 90100 22200
00072 333 91204 555 11040 22044=
44058 11011 99376 70763 46/// /1603 10055 40241 58018 90100 22200
00043 1//00 70001 333 91204 555 11038 22041=
0000025200
696
SNVD17 KWNB 110100 RRG
BBXX
46077 11011 99579 71543 46/// /2704 10022 49962 57012 90050 22200
00048 10902 20401 3//// 40902 70009 333 91205 555 11044 22045
32358 42706 60049 273042 273043 268045 269043 272045 269046 82705
92358=
0000113800
697
SNVD01 PANC 110100 RRC
BBXX
WSQ2674 11014 99327 71172
43/// /3501 10154 2//// 40176 5//// 7//// 8////
222// 04152 2//// 3//// 4//// 5//// 6//// 8//// ICE /////=
9HJD9 11014 99432 50641
41797 41006 10150 20150 40180 52010 7//11 84564
22244 00150 2//// 3//// 4//// 5//// 6//// 80150 ICE /////=
WECB 11014 99327 71172
43/// /2801 10158 20112 40183 5//// 7//// 8////
222// 04149 2//// 3//// 4//// 5//// 6//// 8//// ICE /////=
KAOU 11014 99064 31047
43/// /3004 10276 20238 40116 5//// 7//// 8////
222// 04298 2//// 3//// 4//// 5//// 6//// 8//// ICE /////=
KAQP 11014 99098 71043
43/// /0611 10272 20214 40095 5//// 7//// 8////
222// 04272 2//// 3//// 4//// 5//// 6//// 8//// ICE /////=
9HJC9 11013 99185 70653
41898 50619 10260 20260 40170 54000 7//22 851//
22200 00260 20102 39999 40102 50102 6/00/ 80260 ICE /////=
C6TH9 11013 99099 51391
41/// /0917 10270 2021/ 40130 5/010 7//// 8/992
222// 00270 20701 3//// 40701 50701 6//// 80230 ICE /////=
C6VG7 11014 99206 70868
41797 61420 10280 2//// 40149 51006 70211 8626/
22274 00280 20202 335// 4//02 5//02 6//// 8//// ICE /////=
0000031900
698
SNVD01 PANC 100100 RRJ
BBXX
WYR4481 10014 99458 70871
43/// /1513 10002 40059
2228/ 00003=
WCF3012 10014 99431 70824
43/// /1719 10024 40127
2221/ 00426=
WYQ4356 10014 99460 70839
43/// /1409 11003 40103
2227/ 00001=
WUR8857 10014 99453 70866
43/// /1416 10011 40059
2221/ 00018=
00000000