0000011000
523
UANT99 KDDL 110301
ARP DLH431 5448N04253W 0301 F310 MS57 308/39 KT
DABYH QXT AME 110301 F41A
0000014100
524
SXIN90 VICH 110300
AAXX 11034
42099 31994 03202 10088 20053 40192 74240 333 10170 20080 58012 555
10000 RH 78% L.MIN 5.6=
0000066500
525
FTIN90 VILK 110300
TAF VILK 110300Z 1106/1212 32004KT 2000 HZ SCT020 BKN100 TEMPO 
1106/1112 0800 RA/TSRA FEW030CB OVC090 BECMG 1112/1114 VRB02KT 
1000 MIFG/BR SCT020 SCT100 BECMG 1116/1118 0800 MIFG BECMG 
1121/1123 00000KT 0300 FG VV/// BECMG 1204/1206 VRB02KT 0800 
MIFG/BR FEW020 SCT100 BECMG 1206/1208 11004KT 2000 HZ=
TAF VIBN 110300Z 1106/1212 32004KT 2000 HZ SCT020 BKN100 TEMPO 
1106/1112 0800 RA/TSRA FEW030CB OVC090 BECMG 1112/1114 VRB02KT 
1000 MIFG/BR SCT020 SCT100 BECMG 1116/1118 0800 MIFG BECMG 
1121/1123 00000KT 0300 FG VV/// BECMG 1204/1206 VRB02KT 0800 
MIFG/BR FEW020 SCT100 BECMG 1206/1208 11004KT 2000 HZ=

0000009500
526
SAIN90 VEGT 110300
METAR VEGT 110300Z 00000KT 1800 BR SCT100 14/13 Q1019 NOSIG=
0000013900
527
SIIN90 VAKJ 110300
AAXX 11034
42567 21/92 90502 10146 20143 40168 74544 89/// 333 20125 59004 6013/
555 00132 10025=

0000016700
528
SOVI10 KWAL 110301
B110070A 011030101"P9751095 B\P~W@@v0ekB1@qp???CuCx>@qq3@JD@@V4C{5DD6bW9JM2?????A"??? ?TBzLB?CCB~BwBtB{:AMPTEMP 27.66C  49-0NN 219E
0000020300
529
SOBR10 KWAL 110301
BAB00078 011030111 :BUB 2 #1       M   0.399   0.379   0.389 :RAD 1 #1   0.273   0.272   0.286   0.276 :PRS 1 #1  -0.823  -0.820  -0.818  -0.812 :BL 11.37  34+0NN 219E
0000023800
530
SIVD17 KWNB 110300 RRB
BBXX
46061 11031 99602 71468 46/// /3505 10012 49923 56010 90250 22200
00052 11004 20401 300// 41003 70018 333 91206 555 11050 22051
30245 43606 60249 353048 352044 344043 346040 343037 345038=
0000232900
531
SIDL21 EDZW 110300
AAXX 11031
10004 NIL=
10015 27241 82410 10071 20061 30094 40104 56009 72250
  333 55300 20000 30000 69907 88/06 91114=
10020 25471 82308 10069 20061 30052 40084 56011
  333 55300 20000 30000 69907 85/10 87/17 88/64=
10035 32360 72306 10062 20052 30040 40099 58009 876//
  333 55300 20000 30000 41216 87707=
10055 35472 82406 10059 20045 30094 40104 58004
  333 55300 20000 30000 87/16 88/22=
10147 32475 82206 10056 20042 30108 40127 57006 876//
  333 55300 20000 30000 41231 87711=
10162 37450 82306 10048 20034 30049 40123 58001 71000
  333 55300 20000 30000 85/13 87/27 88/32=
10184 21470 82405 10054 20033 30108 40116 50000 70382 878//
  333 55300 20000 30000 69927 83818 87633=
10200 27350 82205 10061 20049 30122 40120 58007 75165
  333 55300 20000 30000 69907 88/07=
10224 32458 82105 10057 20041 30127 40133 58008 886//
  333 55300 20000 30000 87711=
10270 36460 52302 10039 20021 30093 40149 56002
  222// 06040
  333 55300 82/19 85/28 85/36=
10338 32468 72404 10053 20035 30079 40152 58004 876//
  333 55300 20000 30000 87712=
10361 35677 82102 10040 20018 30054 40159 50000
  333 55300 20000 30000 88/45=
10393 32570 62407 10044 20016 30024 40152 54000 86500
  333 55300 20000 30000 86622=
10400 32980 01505 10021 20008 30118 40169 56008
  333 55300 20000 30000=
10469 32986 62004 10027 20008 30006 40175 58002 83018
  333 55300 83460 86273=
10488 32683 42403 10034 20005 39893 40180 50000 81502
  333 55300 20000 30000 40933 81638 83073=
10506 37156 82203 10021 20018 39585 40178 56010 71000
  333 55300 20000 30000 88/01=
10548 37001 11502 11009 21010 39637 40196 58002 73530
  333 55300 20000 30000 81/00=
10637 31045 30301 11013 21019 30046 40189 58008 74000 81601
  333 55300 81701 83075 96412=
10685 35259 82103 10012 20004 39499 40187 58004
  333 55300 20000 30000 88/03=
10738 31984 40000 11015 21017 39718 40205 58009 71100 80001
  333 55300 84080=
10763 32975 01003 11006 21008 39808 40204 58004
  333 55300 20000 30000=
10788 37903 00701 11015 21015 39770 40219 56004 73530
  333 55300 20000 30000=
10852 37928 51301 11015 21015 39624 40214 58006 72030
  333 55300 20000 30000 85/80=
10946 37022 11401 11010 21010 39358 40214 58005 72030
  333 55300 20000 30000 81/00=
0000233300
532
SIDL22 EDZW 110300
AAXX 11031
10007 NIL=
10044 46/// /2310 10062 20046 30068 40100 57006
222// 00056
  333 55300 91116 91212=
10046 35463 82304 10065 20052 30072 40106 57007
  333 55300 88/12=
10091 35372 82611 10054 20043 30049 40100 50001
  333 55300 20000 30000 81/09 88/37 91114 91212=
10113 27333 72207 10063 20054 30095 40114 57007 75165
  333 55300 20000 30000 69927 87/08 91114=
10124 46/// ///// 10065 20066 30067 40105 56009
222// 0////
  333 553//=
10131 37450 82205 10066 20050 30100 40115 58008 71000
  333 55300 20000 30000 88/11=
10170 21580 82304 10057 20033 30101 40117 55000 70361 875//
  333 55300 20000 30000 69907 87626=
10264 35458 72304 10045 20031 30026 40134 50000
  333 55300 20000 30000 81/15 87/29=
10291 32964 62404 10036 20021 30071 40140 50001 80004
  333 55300 20000 30000 86076=
10315 32463 72205 10049 20029 30091 40156 56007 875//
  333 55300 20000 30000 87610=
10379 NIL=
10381 32681 52405 10042 20006 30052 40151 58001 81504
  333 55300 81640 85075=
10382 32581 62405 10047 20015 30106 40152 54000 82501
  333 55300 20000 30000 82625 85075=
10384 36/// /2203 10042 20014 30089 40150 54000
  333 55300 20000 30000=
10427 31982 12406 11011 21017 39147 48440 57007 70141 80001
  333 55300 20000 30000 81075 96441
  444 17070=
10430 35880 11802 10032 20009 39969 40165 58003
  333 55300 20000 30000 81/57=
10439 NIL=
10453 41/90 92516 11019 21019 38795 48423 58007 74944
  333 55300 91121 90221 91218 90320 91218 96036=
10496 35682 72404 10042 20013 30079 40165 50001
  333 55300 20000 30000 87/49 87/67 87/69=
10499 32982 82405 10032 20000 39883 40178 53001 80007
  333 55300 20000 30000 88280=
10505 32784 22007 10039 20011 39881 40167 57006 82500
  333 55300 20000 30000 82650=
10513 32981 01203 10022 20006 30046 40170 57008
  333 55300 20000 30000=
10532 37957 00000 11009 21012 39931 40188 57004 71000
  333 55300 20000 30000=
10544 31/02 92207 11001 21001 39083 48454 58006 74922
  333 55300 96041=
10554 32984 32405 10023 20001 39781 40177 58007 81031
  333 55300 20000 30000 81363 83080=
10567 35968 82006 10014 21001 39800 40185 58003
  333 55300 20000 30000 88/67 88/72=
10578 41/01 92612 11032 21032 38760 48452 58004 74944
  333 55300 20000 30000 91116 91213=
0000014400
533
SNDL47 EDZW 110200 CCA
AAXX 11021
10557 42282 72506 10000 21006 39170 48455 55004 81236
  333 55300 20000 30000 81804 85271=
0000009600
534
SILY40 EUMS 110300
AAXX 11034
62271 43/// /0503 10084 20032 39772 40299 56005=
0000009500
535
SIAA21 ENMI 110300
AAXX 11031
89504 43/// /0202 11050 21134 38453 49921 51012=
0000048600
536
SIHU21 HABP 110300
AAXX 11031
12772 41981 00000 10031 21051 39998 40201 51007 70200=
12822 46/// /0000 10038 20026 30070 40216 56003=
12843 41875 62101 10013 21002 30044 40220 57002 70311 86500
  333 86656=
12882 46/// /2302 10004 21015 30077 40214 52008=
12925 46/// /1801 10016 20010 30043 40220 54000=
12942 41680 70602 10052 20043 39973 40222 57002 70222 875//
  333 87640=
12982 41756 61703 10011 20002 30123 40228 54000 70142 83582
  333 83650=
0000068500
537
UDEU02 EGRR 110304
AMDAR 1102
ASC EU0204   5523N 03753E 110256 F015 PS020 245/010 TB/ S031=
ASC EU0204   5523N 03753E 110256 F017 PS020 252/014 TB/ S031=
ASC EU0204   5523N 03753E 110256 F020 PS012 240/020 TB/ S031=
ASC EU0204   5522N 03754E 110256 F023 PS010 247/023 TB/ S031=
UNS EU0204   5522N 03754E 110256 F026 PS005 259/026 TB/ S031=
UNS EU0204   5521N 03755E 110256 F029 PS000 260/028 TB/ S031=
UNS EU0204   5521N 03755E 110257 F031 MS005 262/028 TB/ S031=
UNS EU0204   5521N 03755E 110257 F032 MS007 259/029 TB/ S031=
ASC EU0204   5519N 03756E 110257 F035 MS012 261/027 TB/ S031=
ASC EU0204   5518N 03756E 110257 F038 MS017 260/026 TB/ S031=
0000012500
538
SISR20 WSSS 110300
AAXX 11034
48698 21466 70107 10288 20241 30107 40125 70522 82132 
333 60007 82818 87080=
0000012900
539
SIBN31 OBBI 110300
AAXX 11033
41150 41558 81906 10163 20136 40192 76166 8557/ 333 59014 85620
         88459=
0000009000
540
SIQT20 OTBD 110300
AAXX 11034
41173 46/// /1517 10180 20139 30192 40198=
0000009600
541
SIQT20 OTBD 110300
AAXX 11034
41176 46/// /0810 10189 20158 30187 40193 53016=
0000027400
542
SXHW11 KWAL 110302
15D142A4 011030202":PRS 1 #1 1409 1411 1406 1420 1419 1423 1422 1439 1422 1435 :RAD 1 #1 6987 6993 6990 6995 6999 7002 7005 7012 7010 7016 :ENC 2 #5 4900 4915 4918 4921 :SW1 2 #60 0 :SW2 32 #60 0 :BAT 4 #5 13.8 :NAME 15D142A4  34+0NN 216W
00000000