0000128500
092
UDAS02 BABJ 110152
AMDAR 1101
DES CNFPQK 3749N 11317E 110147 F189 MS303 265/030 TB/ S//1=
DES CNFPQK 3750N 11319E 110147 F185 MS298 263/030 TB/ S//1=
DES CNFPQK 3753N 11325E 110148 F173 MS280 276/036 TB/ S//1=
DES CNFPQK 3757N 11332E 110149 F161 MS249 278/039 TB/ S//1=
DES CNFLWQ 3619N 11154E 110141 F291 MS483 276/094 TB/ S//1=
LVR CNFLWQ 3639N 11211E 110144 F291 MS480 272/088 TB/ S//1=
LVR CNFLWQ 3659N 11229E 110147 F291 MS479 273/086 TB/ S//1=
LVR CNFLWQ 3719N 11247E 110150 F291 MS484 269/082 TB/ S//1=
LVR CNFOZL 3706N 12423E 110148 F246 MS368 272/090 TB/ S//1=
DES CNFOZL 3707N 12430E 110148 F243 MS360 273/088 TB/ S//1=
DES CNFOZL 3707N 12433E 110149 F238 MS353 272/086 TB/ S//1=
DES CNFOZL 3708N 12442E 110150 F223 MS328 267/073 TB/ S//1=
LVR CNFOZM 3554N 11723E 110148 F246 MS368 275/074 TB/ S//1=
LVR CNFOZM 3550N 11724E 110149 F246 MS368 276/073 TB/ S//1=
LVR CNFOZM 3546N 11726E 110149 F246 MS368 276/073 TB/ S//1=
LVR CNFOZM 3542N 11727E 110150 F246 MS368 276/071 TB/ S//1=
ASC CNFPYM 2427N 11802E 110148 F036 PS098 332/003 TB/ S//1=
ASC CNFPYM 2425N 11801E 110149 F059 PS071 277/006 TB/ S//1=
ASC CNFPYM 2422N 11800E 110149 F077 PS036 239/013 TB/ S//1=
ASC CNFPYM 2420N 11759E 110150 F093 MS005 255/016 TB/ S//1=
0000029800
093
USIN90 VEPT 110000

TTAA 61001 42492

99009 14208 36000 00130 14013 07512 92791 14427 08007

85502 10035 04007 70084 00500 25509 50571 17159 26058

40735 26721 26051 30938 35557 28131 25062 45158 27631

20209 53558 27145 15389 62757 28125 88999 66186 26649=

 
0000083400
094
UKIN90 VEPT 110000

TTBB 61008 42492

00009 14208 11987 15831 22910 14042 33753 02404 44710

00000 55659 02100 66655 00700 77600 05904 88560 09711

99548 13150 11502 16959 22459 18728 33377 31128 44331

36156 55321 33957 66294 36357 77237 47759 88208 51358

99171 60557 11147 62957 22143 61957 33128 65957 44108

70557

21212 00009 36000 11987 08515 22984 08516 33956 06512

44935 09507 55897 03005 66840 04506 77789 12002 88785

14501 99779 24001 11749 20002 22742 26501 33739 26002

44734 30002 55728 29003 66726 27503 77717 24004 88695

26011 99628 23531 11577 26040 22511 26060 33419 25550

44392 26550 55366 26579 66335 27583 77308 28130 88306

28130 99242 27629 11216 28145 22187 26649 33157 27637

44138 28598 55129 27581 66108 24576 41414 86/9/=

 
0000010000
095
SNVD25 LFPW 110200
BBXX
BAREU00 11024 99496 70458 46/// ///// 40135 52023
22253=
0000011200
096
SNVE25 LFPW 110200
BBXX
BATFR36 11024 99174 51464 46/// /1114 10274 20232 40109 55007
22222=
0000057500
097
SASA85 EGRR 110200
METAR SBAR 110200Z 11011KT 9999 SCT015 26/22 Q1013=
METAR SBBV 110200Z 08009KT CAVOK 27/18 Q1011=
METAR SBCF 110200Z 12009KT CAVOK 23/17 Q1019=
METAR SBCG 110200Z 00000KT CAVOK 22/17 Q1013=
METAR SBEG 110200Z 09010KT 8000 -RA BKN005 BKN070 23/21 Q1013=
METAR SBSL 110200Z 06006KT 9999 SCT017 SCT100 26/21 Q1012=
METAR SBSP 110200Z 04003KT CAVOK 24/18 Q1018=
METAR SKBO 110200Z 00000KT 7000 HZ BKN015 12/11 A3029=
METAR SVBC 110200Z 00000KT 9999 FEW010 26/20 Q1012=
METAR SVMG 110200Z /////KT 9999 SCT010 25/22 Q1014 NOSIG=
0000006100
098
AAUK99 EGRR 110200
Socket stay alive message.
0000007600
099
FCUK53 EGRR 110200
TAF EGQL 110115Z 1103/1112 25010KT CAVOK=
0000020200
100
FCUK54 EGRR 110200
TAF EGXC 110157Z 1103/1112 27008KT 9999 FEW020 BKN035 TEMPO
    1103/1105 -RA BKN018 PROB30 TEMPO 1103/1105 6000 RA SCT007
    PROB30 TEMPO 1105/1108 -SHRA SCT015=
0000003800
101
FCUK55 EGRR 110200
NIL
0000011600
102
SAIN90 VOBL 110200
METAR VOBL 110200Z 16004KT 3000 HZ BKN006 SCT012 21/20 Q1019 BECMG
5000 SCT008=
0000011100
103
UPIN61 VOMM 110000 RRA
PPAA 61003 43105 NIL=
PPAA 61003 43220 NIL=
PPAA 61003 43221 NIL=

0000008700
104
USIN21 VOMM 110000 RRC
TTAA 11001 43185 NIL=
TTAA 11001 43346 NIL=

0000011100
105
USIN61 VOMM 110000 RRA
TTAA 61003 43105 NIL=
TTAA 61003 43220 NIL=
TTAA 61003 43221 NIL=

0000018300
106
UEIN61 VOMM 110000 RRA
TTDD 61003 43105 NIL=
TTDD 61003 43185 NIL=
TTDD 61003 43220 NIL=
TTDD 61003 43221 NIL=
TTDD 61003 43279 NIL=
TTDD 61003 43346 NIL=

0000080300
107
UKIN90 VEPT 110000
TTBB 61008 42492
00009 14208 11987 15831 22910 14042 33753 02404 44710
00000 55659 02100 66655 00700 77600 05904 88560 09711
99548 13150 11502 16959 22459 18728 33377 31128 44331
36156 55321 33957 66294 36357 77237 47759 88208 51358
99171 60557 11147 62957 22143 61957 33128 65957 44108
70557 21212 00009 36000 11987 08515 22984 08516 33956
06512 44935 09507 55897 03005 66840 04506 77789 12002
88785 14501 99779 24001 11749 20002 22742 26501 33739
26002 44734 30002 55728 29003 66726 27503 77717 24004
88695 26011 99628 23531 11577 26040 22511 26060 33419
25550 44392 26550 55366 26579 66335 27583 77308 28130
88306 28130 99242 27629 11216 28145 22187 26649 33157
27637 44138 28598 55129 27581 66108 24576 31313 /////
80000 41414 86/9/=

0000047400
108
FTUK51 EGRR 110200
TAF EGQS 110136Z 1103/1121 24008KT 9999 FEW040 PROB30 TEMPO
    1104/1115 27016G26KT SCT024CB=
TAF EGVN 110146Z 1103/1203 23005KT 9999 BKN030 TEMPO 1103/1105 7000
    -RA BKN012 PROB30 TEMPO 1103/1105 3000 -RADZ SCT006 PROB30 TEMPO
    1106/1109 SCT010 BECMG 1120/1123 6000 BR PROB30 1123/1203 2500
    MIFG=
TAF EGXW 110129Z 1103/1121 29010KT 9999 BKN025 TEMPO 1103/1107 -RA
    BKN018 PROB30 TEMPO 1103/1105 4000 RA SCT007=
0000003800
109
FTUK52 EGRR 110200
NIL
0000008200
110
SNUK42 EGRR 110100 RRA
AAXX 11014
03065 46/// ///// 11057 21065=
0000013200
111
SNUK43 EGRR 110100 RRA
AAXX 11014
03410 46480 /2508 10049 20038 39667 40104 52007
  333 553// 20000 81/19 85/25=
00000000