0000111800
872
ASPS20 NFFN 110000
10001 33388 01100
99955 55987 55538 61974 21608 55253 70750 70856 10000 55253 
70857 71064 10000 55253 71166 71270 10000 55283 70979 61374 
61971 10000 55553 62174 62668 10000 99911 66456 62279 62770 
63563 10000 99900 81222 63136 63136 10000 99922 44022 73559 
73359 73364 73568 44020 73555 73254 72959 73166 73574 44018 
72850 72652 72660 73071 73579 44016 72450 72458 72666 73074 
63576 44014 72150 72260 72670 73079 63372 63568 44012 71850 
72062 72573 63072 63166 62053 61640 61625 61720 44010 71450 
71562 72274 62876 62869 62364 61554 61238 61120 44008 71050 
71567 72277 62675 62669 61763 60850 60540 60420 44006 70059 
70667 71675 72178 62477 62573 62369 61163 60050 44014 63550 
63359 63161 62453 62042 62027 62220 44016 63544 63055 62549 
62236 62620 44018 63540 63049 62749 62542 62530 63220 44020 
63532 63437 63240 62843 62738 62831 63127 63429 63532 44004 
62079 61878 61575 61572 61771 62070 62371 62376 62179 62079 
44990 62072 62272 62274 62176 62077 61876 61873 62072 61785 
61973 62073 44950 62075 61975 61974 62074 62075 19191 =
0000060300
873
UDAS02 BABJ 110203
AMDAR 1102
ASC CNFLWN 4007N 11634E 110200 F010 MS021 291/018 TB/ S//1=
DES CNFPQK 3824N 11424E 110159 F067 MS086 276/014 TB/ S//1=
DES CNFPQK 3825N 11426E 110159 F064 MS088 265/014 TB/ S//1=
DES CNFPQK 3826N 11430E 110200 F054 MS068 240/017 TB/ S//1=
DES CNFPQK 3825N 11435E 110201 F051 MS068 246/015 TB/ S//1=
ASC CNFOZN 4008N 11700E 110159 F116 MS193 274/036 TB/ S//1=
ASC CNFOZN 4006N 11703E 110200 F133 MS228 273/038 TB/ S//1=
ASC CNFOZN 4004N 11707E 110200 F152 MS249 271/044 TB/ S//1=
ASC CNFOZN 4002N 11711E 110201 F170 MS285 272/044 TB/ S//1=
0000011000
874
UANT99 KDDL 110208
ARP DLH411 4825N04330W 0208 F390 MS53 304/45 KT
DAIKN QXT AME 110208 J75A
0000011000
875
UANT99 KDDL 110209
ARP DLH423 5300N02001W 0208 F380 MS52 230/53 KT
DAIHH QXT AOE 110209 J99A
0000034900
876
SAUK53 EGRR 110200
METAR EGUL 110158Z AUTO 20010KT 9999 -RA FEW024 OVC036 07/07 A2984
      RMK AO2 SLP108 P0002 T00740074=
METAR EGUN 110158Z AUTO 21010KT 9999 -RA FEW025 OVC039 07/07 A2985
      RMK AO2 SLP112 P0002 T00740074=
METAR EGVA 110158Z AUTO 23010KT 9999 SCT013 SCT023 08/08 A2985 RMK
      AO2 SLP113 T00810080=
0000086700
877
SNUK41 EGRR 110200 RRA
AAXX 11024
03005 45576 /2819 10053 20012 39881 49981 52001
  333 55300 20000 81/21 90710 91129=
03162 45962 /0000 11010 21016 39805 40100 51010
  333 55300 20000 8//99=
03257 45973 /3101 10047 20031 30048 40089 53010
  333 55300 20000 85/59=
03302 45968 /3105 10041 20029 30100 40114 51014
  333 55300 20000 8//99=
03414 47782 /2408 10068 20052 30014 40102 52006 723//
  333 55300 20000 88/50=
03482 47661 /2013 10071 20064 30081 40107 58009 761//
  333 86/37 85/49=
03502 45482 /3111 10064 20039 39963 40126 51015
  333 55300 20000 82/14 83/20=
03590 47566 /2110 10068 20062 30013 40123 57007 761//
  333 55300 20000 86/26 85/43=
03746 47468 /2109 10077 20069 39974 40128 57006 722//
  333 81/11 86/34=
03853 47484 /2208 10088 20070 30103 40127 58001 723//
  333 55300 20000 81/11 87/24=
0000310800
878
SNUK42 EGRR 110200
AAXX 11024
03002 47680 /2918 10050 20014 39952 49970 50002 723//
  333 81/43 83/50 85/59 90710 91129=
03008 46/// /2522 10054 20022 39925 49998 51002
  333 90710 91129=
03010 46/// /2724 10062 20019 40017 52009
  333 90710 91132=
03014 46/// /2823 49986 51001
  333 90710 91133=
03031 47661 /3012 10008 21008 39728 40059 51010 785//
  333 553// 20000 81/34 85/49=
03034 47580 /2412 10042 20006 30038 40052 52008 781//
  333 82/21 86/50=
03037 47664 /2006 10027 20014 30040 40063 51007 781//
  333 85/41 83/63=
03039 46/// /2621 11019 21024
  333 90710 91127=
03044 45683 /2109 10021 21008 39939 40039 52007
  333 553// 20000 82/36=
03047 45684 /3103 11002 21021 39770 40079 52002
  333 553// 20000 84/47=
03062 45984 /2209 10011 21003 30043 40048 51003
  333 553// 20000 8//99=
03065 46/// ///// 11058 21067=
03068 42784 12405 11008 21022 30042 40051 51005 81500
  333 81650=
03072 46/// /2510 11040 21056=
03080 45983 /3209 10017 21030 39885 40059 53002
  333 8//99=
03088 45983 /2906 10007 21027 39895 40062 51004
  333 553// 20000 8//99=
03105 47969 /2514 10050 20031 30072 40089 50002 723//
  333 82/63 90710 91127=
03132 45975 /2806 10018 20011 30087 40101 52009
  333 81/59=
03144 45782 /2509 10016 21001 30036 40080 51006
  333 553// 20000 81/56=
03148 46/// /2613 11012 21015=
03153 45472 /3102 10025 20021 39954 40095 51008
  333 553// 20000 81/11=
03155 46584 /2510 10013 20002 39790 40093 52010
  333 81/29 83/60=
03158 45981 /2304 10010 21008 39944 40083 51011
  333 553// 20000 8//99=
03210 46469 /3005 10035 20035 39949 40103 53010
  333 81/13 83/59=
03212 45/60 /3301 10019 20014 30001 40103 52012=
03214 45970 /3207 10054 20044 30082 40101 53014
  333 88/59=
03220 46660 ///// 10020 20020 30063 40098 52014
  333 81/36=
03224 47014 /2809 10008 20008 39745 40098 52011 720//
  333 86/01=
03225 46981 /3403 10027 20008 39791 40101 52012
  333 553// 20000 88/59=
03226 45466 /3403 10032 20027 39817 40097 52012
  333 83/15 87/59=
03227 46/// /2917 11008 2////=
03230 46973 /3402 11008 21016 39833 40096 53011
  333 8//99=
03238 47957 /2707 10022 20016 39911 40087 52014 710//
  333 8//99=
03261 46680 /3307 10058 20041 30047 40088 53007
  333 86/30 86/46=
03265 47684 /3207 10061 20031 30058 40088 53008 723//
  333 84/32 86/46=
03266 46682 /3205 10062 20046 30070 40088 53010
  333 87/30=
03275 45671 /3009 10049 20028 39889 40082 51011
  333 85/37 87/59=
03281 46/// /3304 10041 20039=
03901 47457 /2405 10016 20010 30024 40114 53012 782//
  333 55300 20000 85/18 83/50 85/58=
03904 47356 /2704 10013 20006 30053 40115 53009 767//
  333 81/09 86/11=
03907 45884 /2010 10022 20005 30093 40101 52007
  333 55300 20000 85/57 86/61=
03911 46981 /3005 10011 20000 39831 40110 53003
  333 81/60 87/63=
03915 46980 /1504 10013 20000 30023 40103 53007
  333 81/60=
03916 46982 /2204 10016 21008 39908 40102 53005
  333 553// 20000 8//99=
03923 45982 /2605 10018 20009 39908 40108 52006
  333 83/62=
0000420600
879
SNUK43 EGRR 110200
AAXX 11024
03301 46578 /2701 10032 20021 30041 40116 51014
  333 81/20=
03305 47559 /2407 10043 20023 39854 40120 53017 781//
  333 83/22 86/50=
03313 46569 /3003 10051 20044 30020 40115 53018
  333 83/23 87/27=
03316 47437 /3113 10057 20036 30096 40107 53014 780//
  333 85/17 83/50=
03318 46/// /3305 10061 20053=
03321 47657 /3106 10060 20048 30097 40109 53013 782//
  333 55300 20000 83/33 86/43=
03330 47147 /2905 10050 20050 39737 40100 53005 723//
  333 85/02 87/11=
03344 47261 /3005 10045 20040 39775 40094 53010 722//
  333 86/04 84/18=
03346 46/// /3012 10048 20037=
03351 47668 /2707 10062 20054 30060 40103 53014 781//
  333 55300 20000 88/31=
03373 46473 /2314 10072 20061 30018 40088 56003
  333 81/10 84/24 87/57=
03379 46473 /2419 10076 20061 30017 40094 56004
  333 86/19 87/60 90710 91127=
03382 47459 /2506 10073 20063 30070 40079 54000 723//
  333 55300 20000 87/13 86/24=
03385 46668 /2013 10073 20063 30075 40085 57006
  333 82/37 85/50 86/59=
03391 41480 82211 10076 20060 30085 40093 56007 72162 885//
  333 86616 88625=
03392 46567 /2114 10068 20062 30091 40095 56010
  333 87/24=
03405 469// /2812 10057 20034 30009 40126 51014
  333 553// 20000 8//99=
03409 46/// /2605 10056 20042 39912 40113 53013
  333 55300 2////=
03410 46680 /2610 10041 20024 39672 40110 53008
  333 553// 20000 83/44=
03469 47673 /2215 10070 20063 30096 40100 56009 743//
  333 553// 20000 83/30 87/38=
03488 47763 /2115 10072 20060 30075 40101 58009 761//
  333 87/50=
03503 45481 /2906 10064 20053 30044 40121 53014
  333 82/12=
03520 46467 /2704 10063 20061 39994 40115 53009
  333 553// 20000 82/11 85/38=
03522 47560 /2508 10069 20066 30027 40120 53010 781//
  333 83/22 84/35 85/45=
03529 47363 /2310 10079 20071 30072 40115 55002 723//
  333 87/07 85/18=
03544 47444 /2206 10072 20064 39974 40105 57006 752//
  333 553// 20000 86/12 85/19=
03560 45681 /2110 10073 20059 30006 40110 57010
  333 553// 20000 87/44=
03604 46482 /3107 10050 20039 30079 40133 51017
  333 82/18 83/60=
03605 46968 /3014 10066 20051 30121 40130 53014
  333 8//99=
03609 46/// /2808 10072 20068 30082 40135 53012=
03628 47229 /2512 10074 20068 30050 40122 53003 781//
  333 55300 20000 84/03 86/17=
03647 46157 /2212 10068 20066 39855 40110 57007
  333 553// 20000 87/02=
03658 46474 /1608 10075 20067 30052 40122 57008
  333 81/11 86/27 85/50=
03660 47161 /2108 10065 20063 39875 40124 57008 723//
  333 87/02=
03672 46663 /2007 10073 20063 30086 40126 58008
  333 85/40 87/46=
03680 46/// ///// 10064 20059 39966 40123 56009
  333 553// 20000=
03684 47769 /2109 10067 20059 30017 40123 58007 761//
  333 87/50=
03693 47469 /2209 10077 20065 30131 40133 57007 761//
  333 83/17 83/43 86/56=
03707 47582 /3014 10081 20047 30128 40135 51012 723//
  333 81/21 87/56=
03710 46150 /2811 10046 20046 39710 40134 53005
  333 553// 20000 84/02 84/33=
03743 46677 /2309 10080 20064 39965 40126 57005
  333 87/32=
03749 46675 /2210 10083 20070 30019 40129 57006
  333 82/32 84/37 86/43=
03761 41675 82012 10082 20067 39983 40127 58009 72162 885//
  333 55300 20000 83639 88650=
03768 46665 /2007 10079 20070 30048 40128 58009
  333 87/46=
03769 47365 /1906 10076 20065 30050 40132 58009 723//
  333 55300 20000 86/08=
03770 46/// ///// 10079 20068=
03781 47259 /2109 10069 20063 39925 40133 57009 723//
  333 553// 20000 88/03=
03784 46/// /2107 10076 20067 30125 40129 58008=
03797 45969 /2110 10073 20049 30080 40140 58006
  333 55300 20000 88/60=
03823 45574 /3011 10051 20045 39896 40142 51010
  333 553// 20000 81/22 83/50=
03839 46/// ///// 10080 20072
  333 553// 20000=
03857 45672 /2414 10098 20081 30069 40133 58005
  333 81/30 84/35 86/50=
03862 47584 /2211 10091 20072 30120 40133 57004 723//
  333 55300 20000 86/27=
03866 46/// /2415 10098 20086 30111 40135 58006=
03872 47762 ///// 10090 20080 30130 40135 57006 723//
  333 553// 20000 85/50 85/60 91015=
03876 46/// /2510 10085 20074 30137 40140 58007=
03895 42256 72006 10078 20072 40156 58001 876// 333 85704 87709=
0000149800
880
SAUK63 EGRR 110150 RRB
METAR EGDM 110150Z AUTO 21009KT 9999 FEW011/// BKN034/// 08/07 Q1012 REDZ=
METAR EGDX 110150Z AUTO 25009KT 9999 -SHRA FEW002/// BKN028/// 08/07 Q1012=
METAR EGDY 110150Z AUTO 22008KT 9999 FEW011/// BKN024/// 09/07 Q1012 RERA=
METAR EGOM 110150Z AUTO 28009KT 1400 BKN001/// 01/01 Q1008=
METAR EGOP 110150Z AUTO 30014KT 9999 // NCD 07/05 Q1013=
METAR EGOS 110150Z AUTO 24008KT 9999 OVC050/// 07/05 Q1010 RERA=
METAR EGOV 110150Z AUTO 31005KT 9999 NCD 04/03 Q1011=
METAR EGQK 110150Z AUTO 22010KT 9999 NCD 02/M01 Q1005=
METAR EGUB 110150Z AUTO 16008KT 9999 // FEW011/// BKN027/// BKN050/// 08/07
Q1012=
METAR EGUW 110150Z AUTO 21010KT 9999 -RA BKN026/// BKN043/// 07/06 Q1012=
METAR EGVP 110150Z AUTO 22010KT 9999 // FEW032/// SCT037/// BKN043/// 08/07
Q1012=
METAR EGWU 110150Z AUTO 20007KT 9999 // BKN040/// BKN046/// 07/06 Q1012=
METAR EGXD 110150Z AUTO 33007KT 9999 // BKN030/// BKN046/// 06/04 Q1008=
METAR EGXE 110150Z AUTO 31001KT 9999 BKN090/// 05/03 Q1008=
METAR EGXP 110150Z AUTO 23014KT 9999 // FEW010/// SCT024/// BKN070/// 07/06
Q1008=
METAR EGXS 110150Z AUTO 20013KT 9999 // FEW037/// BKN050/// BKN090/// 07/06
Q1008=
METAR EGXU 110150Z AUTO 32005KT 9999 // BKN030/// 06/05 Q1008=
METAR EGXZ 110150Z AUTO 32007KT 9999 SCT032/// BKN046/// 06/03 Q1008 RERA=
METAR EGYD 110150Z AUTO 24019KT 9999 // BKN019/// BKN100/// 08/06 Q1009=
METAR EGYM 110150Z AUTO 20013KT 9999 -RA BKN037/// BKN049/// 07/06 Q1010=
0000004800
881
SREW41 EGRR 110100 RRA
03410000=
0000125000
882
SREW41 EGRR 110200
03002006 03005000 03008000 03017OTR 03026002 03031OTR 03034004
03037002 03044000 03047000 03062000 03063000 03066000 03068000
03075000 03080000 03088000 03091000 03100000 03105006 03111000
03132000 03134000 03136000 03144000 03153000 03155000 03158000
03162000 03166000 03171000 03204000 03210000 03212000 03214000
03220000 03224000 03225000 03226000 03230000 03238000 03240000
03257000 03261000 03265OTR 03266000 03275000 03281002 03292000
03301000 03302000 03305002 03313008 03316006 03318000 03321002
03330002 03344OTR 03346000 03351OTR 03354000 03373000 03377000
03379000 03382OTR 03391OTR 03392004 03405000 03409000 03410000
03414OTR 03462OTR 03469004 03482006 03488002 03502000 03503000
03520002 03522OTR 03529002 03535OTR 03544002 03560000 03590008
03604000 03605000 03609000 03628002 03647002 03649000 03658000
03660OTR 03672004 03684002 03693OTR 03707OTR 03710004 03716002
03740000 03743000 03746OTR 03749000 03761002 03768002 03769OTR
03770004 03772008 03781OTR 03797000 03803000 03808000 03809000
03823000 03827OTR 03839000 03840002 03853OTR 03857000 03862OTR
03866000 03872002 03876000 03882000 03901OTR 03904006 03907002
03911000 03915000 03916000 03917000 03923000=
0000056900
883
SNVF21 ENMI 110200
BBXX
LDGJ 11021 99603 10053 43/// /1403 10037 20013 49978 5//// 222/0
      04079 1//// 3//// 4//// 5////=
LF4H 11024 99596 10022 46/// /2721 10059 20028 49985 57005 8////
      90202 22200 06078 10706 70031=
LGWS 11021 99236 30143 43/// /1903 10173 20162 40107 5//// 222/0
      04174 1//// 3//// 4//// 5////=
LJIT 11021 99585 10037 43/// /2909 10070 21440 40015 5//// 222/0
      04073 1//// 3//// 4//// 5////=
LMEL 11021 99603 10053 43/// /1303 10033 20026 49977 5//// 222/0
      04078 1//// 3//// 4//// 5////=
0000034200
884
USOM10 OOMS 110000
TTAA 11001 41256
99021 14440 12003 00194 17261 11004 92852 12669 06503
85556 08480 07504 70161 08466 30008 50583 10944 28516
40752 19568 26032 30959 33768 25542 25084 44762 25544
20230 54563 25044 15407 69749 27046 10644 78562 26039
88105 77962 25537

77171 27049 41411
31313 47908 80035
=
0000051200
885
SNSP20 LEMM 110200
AAXX 11024
08045 46/// /0101 10070 20064 39857 40171 58003
  555 60005=
08181 47/56 /3508 10098 20074 30175 40182 58010 71011
  555 60005=
08221 42968 70000 10066 20048 39485 40176 53001 85042
  555 60005=
08284 46/// /2802 10103 20081 30101 40177 58007
  555 60005=
08306 46/// /0000 10090 20085 30165 40171 56011
  555 60005=
08314 46/// /1104 10127 2//// 3//// 4//// 5////
  555 60005=
08482 46/// /2904 10123 20100 30159 40167 55000
  555 60005=
0000018500
886
SAIN31 VOMM 110210
METAR VOMM 110210Z 27003KT 0800 R07/1300 R25/1000 MIFG FEW018 21/19
     Q1015 NOSIG=
METAR VOTR 110210Z VRB02KT 2000 HZ SCT016 21/20 Q1015 NOSIG=
0000014100
887
UXIN90 VABP 110000
TTAA 6100X 42361 NO ASCENT DUE NO INSTRUMENTS=
UPIN90 VABP 110000
PPAA 6102X 42361 NO ASCENT DUE FOG= 




0000011000
888
UANT01 CWAO 110210
ARP SWR17P 4436N04728W 0210 F380 MS56 302/66 KT
HBJHJ QXT AOW 110210 J36A
0000084300
889
SNEO41 EEMH 110200
AAXX 11021
26134 27349 83304 11006 21006 39898 49964 53026 77177 88///
 333  10015 21006 60007 88/08 91108
 555  1/000 21006 3/100 50008 52101=
26144 27/73 /3305 11008 21017 39857 49944 53032 78588
 333  10028 21008 60007 91111
 555  21008 50015 52101=
26214 27369 73208 10020 20008 39991 49998 52022 78180 87///
 333  10037 20018 60007 87/07 91012 91115
 555  1/001 20018 3/001 50039=
26218 27484 63108 10019 20003 39997 40000 52023 72288 86///
 333  10036 20018 69947 86/12 91011 91116
 555  1/001 20018 3/001 50039=
26226 27484 83008 10023 20006 39972 49976 53027 72285 88///
 333  10044 20018 60007 88/11 91013 91114
 555  1/002 20018 3/002 50037=
26227 27383 72806 10021 20006 39985 49987 52026 78080 87///
 333  10048 20018 60007 87/09 91011 91113
 555  1/001 20018 3/001 50039=
0000316900
890
SNVZ11 SBBR 110200 RRB
BBXX
SHIP 11021 99/// 1//// 16/// /2701 10199 20183 39325 40201 52/// 6002/
  333 10202 20198 553// 10003 91103=
SHIP 11021 99/// 1//// 36/// /0401 10244 20212 30114 40125 52///
  333 10245 20215 553// 10004 91102=
SHIP 11021 99/// 1//// 36/// /1103 10198 20167 39247 40161
  333 10207 20198 553// 10004 91104=
SHIP 11021 99/// 1//// 36/// /1000 10229 20176 39260 40146
  333 10231 20228 553// 10004 91100=
SHIP 11021 99/// 1//// 36/// /0502 10198 20166 39129 40153
  333 10199 20190 553// 10003 91105=
SHIP 11021 99/// 1//// 36/// /1102 10247 20167 39276 40080
  333 10251 20246 553// 10004 91105=
SHIP 11021 99/// 1//// 36/// /1901 10190 20174 38965 40077
  333 10200 20183 553// 10004 91101=
SHIP 11021 99/// 1//// 36/// /2200 10151 20146 38762 49865
  333 10156 20149 553// 10004 91101=
SHIP 11021 99/// 1//// 36/// /2301 10211 20178 39485 40135
  333 10220 20209 91103=
SHIP 11021 99/// 1//// 36/// /1204 10216 20199 39523 40147 52///
  333 10220 20216 553// 10003 91109=
SHIP 11021 99/// 1//// 36/// /1500 10243 20219 39613 40111 52///
  333 10251 20240 553// 10004 91102=
SHIP 11021 99/// 1//// 36/// /0803 10246 20208 39469 40161 52///
  333 10252 20244 553// 10004 91106=
SHIP 11021 99/// 1//// 36/// /1701 10219 20189 39305 40134
  333 10234 20219 553// 10004 91102=
SHIP 11021 99/// 1//// 36/// /0902 10238 20219 39899 40138 52///
  333 10241 20238 553// 10004 91105=
SHIP 11021 99/// 1//// 36/// /1003 10239 20213 39878 40144 52///
  333 10243 20239 553// 10003 91106=
SHIP 11021 99/// 1//// 36/// /0705 10188 20175 39632 40131 52///
  333 10192 20187 553// 10000 91110=
SHIP 11021 99/// 1//// 36/// /2402 10213 20176 39327 40142 52///
  333 10221 20213 553// 10004 91104=
SHIP 11021 99/// 1//// 36/// /2400 10253 20214 39927 40111 52///
  333 10255 20253 553// 10004 91102=
SHIP 11021 99/// 1//// 36/// /2901 10251 20214 30014 40088 52///
  333 10251 20250 553// 10003 91103=
SHIP 11021 99/// 1//// 36/// /3500 10254 20213 39943 40112 52///
  333 10256 20252 553// 10003 91100=
SHIP 11021 99/// 1//// 36/// /0102 10242 20207 39936 40112 52///
  333 10258 20242 553// 10004 91103=
SHIP 11021 99/// 1//// 36/// /0304 10212 20189 39395 40149
  333 10237 20212 553// 10001 91114=
SHIP 11021 99/// 1//// 36/// /1900 10250 20200 39637 40134 52///
  333 10257 20250 553// 10002 91106=
SHIP 11021 99/// 1//// 16/// /2103 10151 20146 38638 49725 6994/
  333 10151 20147 553// 10001 91105=
SHIP 11021 99/// 1//// 36/// /0700 10269 20201 39731 40110 52///
  333 10273 20266 553// 10003 91100=
SHIP 11021 99/// 1//// 16/// /2406 10217 20206 30101 40162 52/// 6017/
  333 10218 20215 553// 00001 91110=
SHIP 11021 99/// 1//// 36/// /2501 10233 20211 39853 40125 52///
  333 10234 20227 553// 10003 91101=
SHIP 11021 99/// 1//// 36/// /0404 10255 20226 30150 40154 52///
  333 10255 20253 553// 10004 91109=
SHIP 11021 99/// 1//// 36/// /3500 10227 20216 39981 40103 52///
  333 10232 20226 553// 10004 91101=
SHIP 11021 99/// 1//// 36/// /0902 10243 20211 30043 40117 52///
  333 10248 20243 553// 10004 91104=
0000014400
891
SNVF51 EGRR 110200
BBXX
62304 11024 99512 10018 46/97 /2019 10069 20057 40149 57006 22200
00102 10501 70006 333 90710 91129=
00000000