0000073100
086
USAA01 NZCM 110000
TTAA 61001 89664
99997 00056 18501 00512 ///// ///// 92601 07158 18518
85255 11341 17017 70716 21114 15006 50514 33959 24513
40666 44759 24520 30855 51765 24023 25975 45585 24514
20124 43786 24513 15318 43586 26009 10592 41586 23504
88320 52361 23026
77999
31313 48008 82219=

0000069700
87361=
0000011200
87368
0000009600
87371
0000035800
87378
0000037300
87381
0000039400
87385
0000039400
87407=
0000012000
87430
0000054000
87439
0000049900
87460
0000047900
87470
0000052100
87487=
0000054300
87713
0000048100
87816=
0000058600
88881
0000064800
89353
0000060700
89967
0000064900
90833
0000067000
92044=
0000073100
087
USAA01 NZCM 110000
TTAA 61001 89664
99997 00056 18501 00512 ///// ///// 92601 07158 18518
85255 11341 17017 70716 21114 15006 50514 33959 24513
40666 44759 24520 30855 51765 24023 25975 45585 24514
20124 43786 24513 15318 43586 26009 10592 41586 23504
88320 52361 23026
77999
31313 48008 82219=

0000069700
87361=
0000011200
87368
0000009600
87371
0000035800
87378
0000037300
87381
0000039400
87385
0000039400
87407
0000041500
87411
0000014600
87417=
0000041700
87480
0000060300
87494
0000052100
87511
0000058300
87573=
0000050200
87874=
0000052400
88886
0000054500
89319
0000069000
89834=
0000073300
98062
0000079500
01196
0000069000
088
USAA01 NZCM 110000
TTAA 61001 89664
99997 00056 18501 00512 ///// ///// 92601 07158 18518
85255 11341 17017 70716 21114 15006 50514 33959 24513
40666 44759 24520 30855 51765 24023 25975 45585 24514
20124 43786 24513 15318 43586 26009 10592 41586 23504
88320 52361 23026
77999
31313 48008 82219=

0000069700
87361=
0000011200
87368=
0000015000
87382
0000012800
87386
0000045600
87406
0000047700
87410
0000049800
87416
0000051900
87420
0000047800
87441
0000045800
87463
0000047900
87474
0000054100
87493=
0000052200
87702=
0000066800
88228
0000062700
88499
0000060700
88774=
0000064900
92105=
0000062800
089
USAA01 NZCM 110000
TTAA 61001 89664
99997 00056 18501 00512 ///// ///// 92601 07158 18518
85255 11341 17017 70716 21114 15006 50514 33959 24513
40666 44759 24520 30855 51765 24023 25975 45585 24514
20124 43786 24513 15318 43586 26009 10592 41586 23504
88320 52361 23026
77999
31313 48008 82219=

0000069700
87361=
0000011200
87368=
0000015000
87382
0000012800
87386
0000045600
87406=
0000047800
87429=
0000005900
87506
0000058300
87508=
0000054300
87745
0000060500
87947
0000064700
88126=
0000054500
89941
0000073100
90845
0000054600
92051=
0000060700
090
USAA01 NZCM 110000
TTAA 61001 89664
99997 00056 18501 00512 ///// ///// 92601 07158 18518
85255 11341 17017 70716 21114 15006 50514 33959 24513
40666 44759 24520 30855 51765 24023 25975 45585 24514
20124 43786 24513 15318 43586 26009 10592 41586 23504
88320 52361 23026
77999
31313 48008 82219=

0000069700
87361=
0000011200
87368=
0000015000
87382
0000012800
87386
0000045600
87406
0000047700
87410
0000049800
87416
0000051900
87420=
0000047900
87502
0000013400
87528=
0000048100
87743=
0000052400
88807=
0000071100
92112=
0000056600
091
USAA01 NZCM 110000
TTAA 61001 89664
99997 00056 18501 00512 ///// ///// 92601 07158 18518
85255 11341 17017 70716 21114 15006 50514 33959 24513
40666 44759 24520 30855 51765 24023 25975 45585 24514
20124 43786 24513 15318 43586 26009 10592 41586 23504
88320 52361 23026
77999
31313 48008 82219=

0000069700
87361=
0000011200
87368=
0000015000
87382=
0000030600
87414=
0000011000
87481=
0000054200
87583=
0000058500
87910
0000056200
88094=
0000071000
89912
0000058700
90843
0000062800
92099=
0000079400
092
USAA01 NZCM 110000
TTAA 61001 89664
99997 00056 18501 00512 ///// ///// 92601 07158 18518
85255 11341 17017 70716 21114 15006 50514 33959 24513
40666 44759 24520 30855 51765 24023 25975 45585 24514
20124 43786 24513 15318 43586 26009 10592 41586 23504
88320 52361 23026
77999
31313 48008 82219=

0000069700
87361=
0000011200
87368
0000009600
87371
0000035800
87378
0000037300
87381
0000039400
87385
0000039400
87407=
0000012000
87430
0000054000
87439
0000049900
87460=
0000048000
87541
0000054200
87545=
0000052300
87864
0000056400
88023
0000058500
88212
0000060600
88455
0000075100
88718
0000071000
89052
0000062800
89631=
0000079400
95692
0000069100
97997
0000071300
01145
0000058600
093
USAA01 NZCM 110000
TTAA 61001 89664
99997 00056 18501 00512 ///// ///// 92601 07158 18518
85255 11341 17017 70716 21114 15006 50514 33959 24513
40666 44759 24520 30855 51765 24023 25975 45585 24514
20124 43786 24513 15318 43586 26009 10592 41586 23504
88320 52361 23026
77999
31313 48008 82219=

0000069700
87361=
0000011200
87368
0000009600
87371
0000035800
87378
0000037300
87381=
0000039500
87413=
0000052000
87479
0000056200
87492
0000045900
87517=
0000054300
87740=
0000056500
88795=
0000069000
92115=
0000295100
094
SMIN42 VOMM 110000
AAXX 11004
42812 NIL=
43081 NIL=
43086 32596 61806 10222 20191 39943 40122 84501
  333 58003=
43105 31596 30000 10190 20180 30135 40142 70500 82501
  333 58007=
43121 NIL=
43128 31496 51403 10194 20172 39521 40136 70521 83501
  333 56309 58002 83615 83070=
43147 32996 03603 10220 20195 30123 40145
  333 58006=
43150 31596 30000 10214 20198 30067 40143 70511 83500
  333 58002 83620=
43161 NIL=
43169 NIL=
43177 NIL=
43181 31994 20000 10208 20195 30114 40142 71000 82030
  333 58006=
43182 NIL=
43185 31596 31401 10230 20199 30129 40133 70521 82530
  333 58004 82620=
43189 32996 30000 10228 20192 30135 40144 81502
  333 58006=
43201 32996 02302 10196 20161 39390 40116
  333 58004=
43205 NIL=
43213 32996 40901 10202 20173 39807 40129 81032
  333 59001=
43220 32596 30000 10206 20197 30127 40135 83500
  333 58006=
43221 32996 00000 10218 20196 30124 40138
  333 58006=
43225 NIL=
43226 32996 00000 10206 20197 30091 40121
  333 58007=
43233 32596 30000 10164 20147 39311 40137 81530
  333 58005=
43237 32996 00000 10206 20180 39736 40135
  333 58004=
43245 NIL=
43263 NIL=
43271 NIL=
43275 31494 40000 10184 20178 30017 40139 71011 82502
  333 58001=
43278 32596 20000 10212 20193 30130 40137 81501
  333 58009=
43279 32596 30000 10210 20194 30125 40143 82501
  333 58005 82620=
43284 32596 43603 10230 20209 39999 40116 81501
  333 58007 81620 83075=
43287 NIL=
43291 NIL=
43295 31396 60903 10174 20158 39123 48522 70500 85601
  333 56209 58012 84708 83612=
43301 NIL=
43302 NIL=
43303 NIL=
43311 32996 00504 10266 20237 40115
  333 58009=
43314 32996 30000 10254 20239 40116 80001
  333 58004=
43317 NIL=
43318 NIL=
43321 31996 21106 10214 20183 39691 40144 70500 80001
  333 58005 82070=
43325 31996 20000 10210 20191 39814 40133 70500 80001
  333 58006=
43329 31596 20000 10204 20188 30119 40133 70500 82500
  333 58006=
43330 NIL=
43331 31595 13202 10200 20194 30089 40133 70500 81500
  333 58003=
43339 NIL=
43342 NIL=
43344 31495 40203 10210 20194 30038 40139 70522 82531
  333 58008 82616 83358=
43346 32596 50704 10238 20204 30121 40128 82502
  333 58012 82620 84075=
43347 32596 10502 10244 20207 30114 40125 81500
  333 58014=
43348 31895 63402 10200 20197 30126 40133 70522 82036
  333 58006=
43349 NIL=
43352 NIL=
43353 31995 30000 10246 20225 40123 71000 82011
  333 56099 58011 82459=
43354 NIL=
43360 31595 30503 10222 20197 39985 40136 70500 81501
  333 58008=
43361 32596 30000 10216 20197 30127 40133 81501
  333 58008=
43363 32596 29902 10242 20215 30117 40130 81801
  333 58010=
43369 32496 50000 10266 20246 40111 83402
  333 58007 83618 84075=
43371 32596 20000 10232 20220 30044 40117 81501
  333 58010 81620=
43376 NIL=
43377 32996 00208 10238 20207 30079 40121
  333 58009=
43379 NIL=
0000066900
095
USAA01 NZCM 110000
TTAA 61001 89664
99997 00056 18501 00512 ///// ///// 92601 07158 18518
85255 11341 17017 70716 21114 15006 50514 33959 24513
40666 44759 24520 30855 51765 24023 25975 45585 24514
20124 43786 24513 15318 43586 26009 10592 41586 23504
88320 52361 23026
77999
31313 48008 82219=

0000069700
87361=
0000011200
87368=
0000015000
87382
0000012800
87386
0000045600
87406
0000047700
87410
0000049800
87416=
0000045800
87478
0000043800
87484=
0000050100
87716
0000056400
87839
0000050200
88021
0000060600
88208
0000060600
88491
0000056500
88757=
0000071100
92043=
0000060700
096
USAA01 NZCM 110000
TTAA 61001 89664
99997 00056 18501 00512 ///// ///// 92601 07158 18518
85255 11341 17017 70716 21114 15006 50514 33959 24513
40666 44759 24520 30855 51765 24023 25975 45585 24514
20124 43786 24513 15318 43586 26009 10592 41586 23504
88320 52361 23026
77999
31313 48008 82219=

0000069700
87361=
0000011200
87368=
0000015000
87382
0000012800
87386
0000045600
87406
0000047700
87410
0000049800
87416=
0000045800
87478
0000043800
87484
0000050000
87523=
0000054300
87742=
0000056500
88798=
0000069000
92102=
0000081400
097
USAA01 NZCM 110000
TTAA 61001 89664
99997 00056 18501 00512 ///// ///// 92601 07158 18518
85255 11341 17017 70716 21114 15006 50514 33959 24513
40666 44759 24520 30855 51765 24023 25975 45585 24514
20124 43786 24513 15318 43586 26009 10592 41586 23504
88320 52361 23026
77999
31313 48008 82219=

0000069700
87361=
0000011200
87368
0000009600
87371
0000035800
87378
0000037300
87381=
0000039500
87413
0000041600
87422
0000043700
87443
0000045800
87466=
0000054200
87540
0000048000
87567
0000050100
87610
0000056300
87645
0000060500
87781
0000058500
87966
0000068800
88155
0000064800
88454
0000060700
88743
0000058600
89214=
0000060800
93679
0000067100
95776
0000069100
98067
0000075400
01203
0000069000
098
USAA01 NZCM 110000
TTAA 61001 89664
99997 00056 18501 00512 ///// ///// 92601 07158 18518
85255 11341 17017 70716 21114 15006 50514 33959 24513
40666 44759 24520 30855 51765 24023 25975 45585 24514
20124 43786 24513 15318 43586 26009 10592 41586 23504
88320 52361 23026
77999
31313 48008 82219=

0000069700
87361=
0000011200
87368=
0000015000
87382
0000012800
87386
0000045600
87406
0000047700
87410
0000049800
87416
0000051900
87420
0000047800
87441=
0000045900
87536
0000052100
87559
0000054200
87603
0000052200
87665=
0000060600
88225
0000068900
88501
0000068900
88769=
0000064900
92045=
0000060700
099
USAA01 NZCM 110000
TTAA 61001 89664
99997 00056 18501 00512 ///// ///// 92601 07158 18518
85255 11341 17017 70716 21114 15006 50514 33959 24513
40666 44759 24520 30855 51765 24023 25975 45585 24514
20124 43786 24513 15318 43586 26009 10592 41586 23504
88320 52361 23026
77999
31313 48008 82219=

0000069700
87361=
0000011200
87368=
0000015000
87382=
0000030600
87414
0000014800
87423=
0000050000
87499
0000062400
87518
0000056300
87544
0000054200
87611=
0000058500
88081=
0000066900
89884=
0000073300
98096
0000013400
01188
0000064800
100
USAA01 NZCM 110000
TTAA 61001 89664
99997 00056 18501 00512 ///// ///// 92601 07158 18518
85255 11341 17017 70716 21114 15006 50514 33959 24513
40666 44759 24520 30855 51765 24023 25975 45585 24514
20124 43786 24513 15318 43586 26009 10592 41586 23504
88320 52361 23026
77999
31313 48008 82219=

0000069700
87361=
0000011200
87368
0000009600
87371
0000035800
87378
0000037300
87381=
0000039500
87413
0000041600
87422
0000043700
87443=
0000052100
87539=
0000058400
87751
0000060500
87950
0000058500
88129
0000060600
88428
0000064800
88741=
0000067000
92069=
0000066900
101
USAA01 NZCM 110000
TTAA 61001 89664
99997 00056 18501 00512 ///// ///// 92601 07158 18518
85255 11341 17017 70716 21114 15006 50514 33959 24513
40666 44759 24520 30855 51765 24023 25975 45585 24514
20124 43786 24513 15318 43586 26009 10592 41586 23504
88320 52361 23026
77999
31313 48008 82219=

0000069700
87361=
0000011200
87368
0000009600
87371
0000035800
87378
0000037300
87381=
0000039500
87413
0000041600
87422=
0000043800
87504
0000052100
87527
0000058300
87571
0000052200
87616
0000058400
87667=
0000060600
88239
0000056500
88511
0000068900
88764=
0000064900
92047=
0000056600
102
USAA01 NZCM 110000
TTAA 61001 89664
99997 00056 18501 00512 ///// ///// 92601 07158 18518
85255 11341 17017 70716 21114 15006 50514 33959 24513
40666 44759 24520 30855 51765 24023 25975 45585 24514
20124 43786 24513 15318 43586 26009 10592 41586 23504
88320 52361 23026
77999
31313 48008 82219=

0000069700
87361=
0000011200
87368=
0000015000
87382=
0000030600
87414
0000014800
87423=
0000050000
87499=
0000062500
87711=
0000058500
88238
0000062700
88513
0000052400
88762=
0000060800
92050=
0000056600
103
USAA01 NZCM 110000
TTAA 61001 89664
99997 00056 18501 00512 ///// ///// 92601 07158 18518
85255 11341 17017 70716 21114 15006 50514 33959 24513
40666 44759 24520 30855 51765 24023 25975 45585 24514
20124 43786 24513 15318 43586 26009 10592 41586 23504
88320 52361 23026
77999
31313 48008 82219=

0000069700
87361=
0000011200
87368=
0000015000
87382=
0000030600
87414=
0000011000
87481=
0000054200
87583
0000058400
87642=
0000062700
88217
0000064800
88493
0000062700
88763=
0000062800
92052=
0000071100
104
USAA01 NZCM 110000
TTAA 61001 89664
99997 00056 18501 00512 ///// ///// 92601 07158 18518
85255 11341 17017 70716 21114 15006 50514 33959 24513
40666 44759 24520 30855 51765 24023 25975 45585 24514
20124 43786 24513 15318 43586 26009 10592 41586 23504
88320 52361 23026
77999
31313 48008 82219=

0000069700
87361=
0000011200
87368=
0000015000
87382
0000012800
87386
0000045600
87406=
0000047800
87429=
0000005900
87506
0000058300
87508
0000054200
87566=
0000056400
87888
0000058500
88076
0000064700
88361
0000056500
88689
0000066900
89164=
0000073200
93677
0000073200
95774
0000058800
98086
0000058800
01213
0000073100
105
USAA01 NZCM 110000
TTAA 61001 89664
99997 00056 18501 00512 ///// ///// 92601 07158 18518
85255 11341 17017 70716 21114 15006 50514 33959 24513
40666 44759 24520 30855 51765 24023 25975 45585 24514
20124 43786 24513 15318 43586 26009 10592 41586 23504
88320 52361 23026
77999
31313 48008 82219=

0000069700
87361=
0000011200
87368
0000009600
87371
0000035800
87378
0000037300
87381=
0000039500
87413
0000041600
87422
0000043700
87443
0000045800
87466
0000054100
87469
0000050000
87483
0000045900
87525
0000058300
87572=
0000060500
87890=
0000062700
88920
0000064800
89379
0000064800
89996
0000064900
90866
0000064900
92075=
00000000