0000015700
256
SSVX13 LFPW 111200
ZZYY 64665 11014 1200/ 765550 008627 6113/ 11119 40040 52012 22219
 00024 444 20130 11014 1200/ 50101 80148 80021 9/015=
0000015700
257
SSVX13 LFPW 111200
ZZYY 41709 11014 1200/ 717916 056686 6113/ 11119 40194 52025 22219
 00261 444 20130 11014 1200/ 50101 80144 80013 9/015=
0000015700
258
SSVX13 LFPW 111200
ZZYY 64616 11014 1200/ 762523 022253 6113/ 11119 40027 52019 22219
 00083 444 20130 11014 1200/ 50101 80148 80006 9/015=
0000015800
259
SMMN01 TNCM 111200
AAXX 11124
78866 01581 20911 10257 20195 30191 40196 52020 60031 70181
82800   333 10281 20229 58003 60007 70045 82820=
0000051900
260
UDOC01 NZKL 111200
AMDAR 1112
DES NZL023 3702S 17450E 111102 F001 PS174 220/008 TB0 S031
333 F/// VG007=
DES NZL023 3702S 17451E 111101 F004 PS164 231/009 TB0 S031
333 F/// VG009=
DES NZL023 3701S 17452E 111101 F006 PS154 226/009 TB0 S031
333 F/// VG007=
DES NZL023 3701S 17453E 111100 F009 PS147 223/009 TB0 S031
333 F/// VG007=
DES NZL023 3701S 17454E 111100 F012 PS137 220/009 TB0 S031
333 F/// VG009=
DES NZL023 3701S 17455E 111100 F015 PS129 226/010 TB0 S031
333 F/// VG008=
0000026300
261
SMFW01 NWBB 111200
AAXX 11124
91753 04584 63304 10264 20257 30021 40053 58007 6///1 700//
  333 4//// 6///7 90710 91108
  555 60005=
91754 06/// ///// 10253 20237 30012 40053 58006 60001
  333 10331 55000 2//// 58009 60007
  555 60005=
0000087000
262
SMNC01 NWBB 111200
AAXX 11124
91573 06/// /1012 10259 20191 30011 40108 58003 60004
  333 20256 59021 60007=
91577 06/// /0203 10253 20167 30084 40106 50002 60004
  333 20251 59020 60007=
91579 06/// /1012 10246 20192 30104 40112 50004 60004
  333 20250 59021 60007=
91582 04570 71111 10247 20177 30079 40116 50002 6///1 700//
  333 4//// 60007 90710 91121
  555 60005=
91583 06/// /1404 10253 20182 30099 40114 50001 60004
  333 20253 59022 60007=
91587 04566 71107 10239 20174 30061 40116 58001 69901 700//
  333 4//// 69907 90710 91115
  555 60005=
91590 04886 81303 10222 20153 30108 40121 50004 60001 700//
  333 4//// 60007 90710 91107
  555 60005=
91592 06/// /0610 10237 20177 30041 40123 50001 69924
  333 20240 59026 60007=
91596 06/// /1308 10223 20183 30018 40128 58001 60004
  333 20227 59026 60007=
0000013200
263
SMAA41 KPAL 111200
AAXX 11121 
89061 36/66 /0902 10010 21032 39974 49981 57016    
333 10010 21018  91004 91106=
0000014500
264
SSVX05 CWAO 111200
ZZYY 48726 11014 1200/ 775903 126058 6113/ 11119 
11257 49783 57019 444 20130 11014 1200/ 50000 80140 80001=
0000014500
265
SSVX05 CWAO 111200
ZZYY 48529 11014 1200/ 775071 151412 6113/ 11119 
11236 49984 444 20130 11014 1200/ 50101 80114 80001 9////=
0000014500
266
SSVX05 CWAO 111200
ZZYY 48506 11014 1200/ 785690 128074 6113/ 11131 
11197 49961 57001 444 20130 11014 1200/ 50000 80140 80001=
0000014500
267
SSVX05 CWAO 111200
ZZYY 48730 11014 1200/ 780656 140591 6113/ 11119 
11271 49916 52007 444 20130 11014 1200/ 50000 80140 80001=
0000014500
268
SSVX05 CWAO 111200
ZZYY 48505 11014 1200/ 783956 123522 6113/ 11121 
11326 49952 54000 444 20130 11014 1200/ 50000 80136 80001=
0000154400
269
SMNO23 ENMI 111200
AAXX 11121
01015 46/// ///// 11073 21101=
01023 41689 12201 11248 21271 30095 40202 52003 70200 81500 333
      91102=
01033 46/// /1502 11043 21121 30149 40181 52004 333 91106=
01059 41789 71801 11141 21154 30180 40190 55000 70222 875// 333
      91103=
01089 46/// /1404 11181 21198 30068 40184 57002 333 91107=
01167 41989 00804 11050 21145 30158 40163 52002 70200 333 91109=
01180 NIL=
01210 41583 31902 11010 21063 39966 49993 52005 71520 82360 333
      91106=
01228 46/// /1010 11055 21098 30006 40014 52002 333 91115=
01240 46/// /0811 11060 21099 30009 40029 55000 333 91115=
01304 46/// /3604 10008 21054 39956 49988 53009 333 91107=
01311 47382 83505 10033 20023 39925 49987 53015 700// 333 91115=
01340 16/// /3003 11011 21020 39100 49968 52001 60011 333 91107=
01355 16/// ///// 10006 20006 39962 49967 52001 69941=
01360 41460 80000 11100 21100 78588 889//=
01392 11466 80303 11082 21110 39791 40026 50003 60021 71682 888//
      333 91106=
01406 46/// ///// 10061 20029 39964 49982 52003=
01411 NIL=
01425 16/// /0901 10037 20017 39926 40005 58003 60011 333 91105=
01433 46/// /2906 11030 21040 38720 49976 50003 333 91112=
01442 NIL=
01450 16/// /2706 11011 21047 38829 49964 50002 60001 333 4/048
      91111=
01452 16/// /2605 10054 20010 39979 40000 58008 6//// 333 91109=
01473 41310 80000 11020 21025 39779 49990 50003 71044 8672/ 333
      91102=
01494 17278 80204 11005 21010 39923 49989 50003 6//// 700// 333
      91105=
0000179300
270
SMNO24 ENMI 111200
AAXX 11121
01037 16/// /0000 11187 21202 60001 333 91102=
01046 41889 42302 11169 21197 30189 40197 54000 70310 84040 333
      91108=
01058 16/// /0000 11179 21201 39705 40209 53002 6//// 333 91102=
01065 11860 50901 11289 21318 30038 40222 53001 6//// 7031/ 84046
      333 4/016 91103=
01092 46/// /0405 11021 21111 333 91109=
01107 16/// /0814 11035 21112 30109 40113 57000 6//// 333 91120=
01114 41789 10704 11062 21225 30097 40108 52001 70210 81111 333
      91113=
01144 41989 00912 11065 21175 70200 333 91117=
01199 11988 30000 11237 21259 39702 40220 50001 6//// 70210 83030
      333 91102=
01245 11475 70805 11122 21149 39277 40014 58001 60001 70321 87600
      333 91107=
01259 16/// /0908 11086 21145 30022 40045 58000 6//// 333 91112=
01262 46/// /1016 11061 2////=
01278 NIL=
01293 16/// /1504 11118 21172 39841 40060 55004 60001 333 91109=
01329 11380 72107 10041 20023 39912 49973 50005 6//// 72582 87800
      333 91113=
01337 16/// /0501 10004 21007 39906 49973 52003 60021 333 91102=
01344 16/// ///// 11003 21011 69991 333 4/073=
01364 16/// /1107 11080 21096 38842 49982 50003 69971 333 4/046
      91111=
01373 11540 71203 11009 21036 39773 49979 54001 69931 72272 876//
      333 91106=
01380 16/// /1103 11131 21150 6//// 333 91106=
01389 16/// /0502 11097 21126 39718 40042 50000 60011 333 91105=
01393 NIL=
01424 11585 8//// 10037 20023 39987 49990 53003 60041 76062 887//=
01431 16/// /2202 10010 21019 39333 49995 50000 60031 333 91107=
01436 41470 42813 10059 20024 71681 83962 222// 00087 333 91119=
01465 11580 22506 10049 20014 39972 49990 58008 60001 70210 81501
      333 91111=
01471 11384 83201 11037 21041 60001 70322 886// 333 91103=
01483 NIL=
0000096300
271
SMAB11 ZATI 111200
AAXX 11124
13600 12960 80404 10110 20084 30195 40248 54000 60001 8805/ 333
     88360=
13601 12660 70000 10152 20102 30112 40212 54000 60001 84530 333
     84636 83360=
13602 NIL=
13610 12760 70000 10102 20054 39822 40247 54002 60001 87500 333
     87650=
13611 12660 60000 10146 20092 30119 40209 52008 60001 86500 333
     86633=
13619 12660 60000 10068 20050 39478 42856 54002 60001 86500 333
     86640=
13622 12665 61802 10172 20073 30218 40226 57004 60001 86500 333
     86640=
13623 12970 80000 10128 20070 30225 40231 58008 60001 8801/ 333
     88460=
13624 12970 71406 10170 20054 30192 40231 54003 60001 87050 333
     87360=
13625 NIL=
13629 12968 43202 10074 20042 39174 42821 54000 60001 80001 =
13631 NIL=
13632 12665 30000 10160 20061 30102 40265 57007 60001 83200 333
     83840=
13633 12964 83602 10140 20080 30171 40208 57012 60001 8803/ 333
     88360=
0000025600
272
USGL05 EKMI 111200
TTAA 6111/ 04339
99003 07504 16002 00091 07528 92701 05735 85357 11130
70817 18166 50526 30542 40681 40362 30872 53557 25988
61157 20125 67558 15299 65370 10544 69769
88198 67758 /////
77999
31313 48006 81103=
0000042400
273
UKGL05 EKMI 111200
TTBB 61116 04339
00003 07504 11000 07529 22979 09107 33957 04517 44725
20304 55707 17974 66702 18168 77679 19360 88574 27357
99551 28556 11535 29759 22529 30340 33498 30540 44454
34718 55416 39350 66371 42767 77307 52559 88280 55956
99248 61357 11198 67758 22164 63167 33100 69769
21212 00003 16002
31313 48006 81103
41414 872//
51515 11882 ///// 22800 ///// 33600 /////=
0000071600
274
UKGL04 EKMI 111200
TTBB 61118 04320
00005 19141 11996 11960 22995 11960 33993 11360 44966
09964 55949 06569 66948 06369 77910 06769 88901 04975
99870 03778 11865 02188 22848 02590 33840 02992 44757
09386 55640 16777 66629 16990 77604 18563 88562 20960
99490 24371 11459 28375 22302 51356 33300 51756 44259
58159 55186 73326 66185 73528 77156 73957 88139 69961
99136 70763 11127 71560 22124 70361 33111 70960
21212 11005 31008 22003 27012 33001 26512 44942 24021
55926 22520 66906 23517 77872 22015 88840 24014 99817
22018 11753 22015 22749 21515 33708 19520 44647 20525
55535 18029 66466 19045 77460 19047 88299 16556 99204
17570 11136 19043
31313 49908 81105
41414 00900=
0000214700
275
SMFI40 EFKL 111200
AAXX 11121
02720 47/99 /2802 11239 21264 39924 40194 700// 91200 555 780//
0/503=
02721 47450 70611 11105 21120 30051 40059 52007 77170 87/// 91139
555 789// 0/613=
02737 46/// /0505 11140 21166 39948 40060 52004 91200 555 61142 780//
0/606=
02748 47575 80205 11093 21127 39907 40019 785// 88/// 91200 555 776//
80762 0/205=
02751 47356 70503 11043 21046 39998 40004 54001 77176 87/// 91139
555 797// 0/004=
02757 47237 71001 11013 21024 39967 49995 57003 78587 87/// 91139
555 792// 0/503=
02759 47499 80902 11047 21066 39978 40007 52010 70000 88/// 91200
555 61051 787// 0/605=
02777 47261 71002 11040 21049 39846 49998 54001 77174 87/// 91200
555 794// 80150 0/602=
02795 47375 80000 11031 21043 39996 40004 52006 70000 88/// 91139
222// 00028 555 792// 0/403=
02816 47999 03501 11332 21366 39859 40214 52003 70087 91200 555 771//
0/002=
02824 469// 03101 11218 21239 39730 40203 52004 91200 555 783//
0/503=
02834 47478 30304 11159 21177 39790 40064 52007 724// 81/// 91200
555 785// 80300 0/305=
02864 47/99 /0206 11161 21200 30093 40119 700// 91200 555 772//
0/307=
02869 47/99 /0304 11161 21201 39769 40118 700// 91200 555 771//
0/105=
02872 47/99 /0608 11147 21187 30079 40082 52003 70072 91139 555 771//
0/208=
02874 46/// /0506 11140 21185 91200 555 769// 0/207=
02881 47999 00305 11180 21209 39907 40125 52005 700// 91200 555 61182
777// 0/105=
02903 47570 70605 11124 21150 30025 40059 777// 87/// 91200 555 781//
80823 0/506=
02929 47465 73405 11109 21128 39858 40015 771// 87/// 91200 555 786//
80457 0/206=
02942 41411 80303 11065 21080 39856 40010 52004 77372 8802/ 555 61067
788//=
02945 47427 70203 11082 21094 39829 40014 771// 87/// 555 791// 80427
0/504=
02948 47465 73304 11097 21119 39886 40009 771// 87/// 91200 555 784//
80335 0/405=
02966 47465 80202 11068 21082 39878 40004 777// 88/// 91200 555 61070
790// 0/504=
02970 47599 43503 11023 21048 39999 40005 700// 82/// 91200 555 783//
0/205=
02998 47379 71501 11034 21055 39973 40006 52004 70000 87/// 91200
555 785// 0/402=
89014 NIL=
00000000