0000043300
776
UDAS02 EGRR 110320 RRA
AMDAR 1102
LVR EU0048   3116N 07439E 110240 F390 MS550 292/109 TB/ S031=
LVR EU0048   3024N 07520E 110247 F390 MS535 289/109 TB/ S031=
LVR EU0048   2931N 07555E 110254 F390 MS545 285/123 TB/ S031=
LVR EU0048   2842N 07648E 110301 F390 MS545 287/138 TB/ S031=
LVR EU0048   2753N 07739E 110308 F390 MS552 284/137 TB/ S031=
LVR EU0048   2657N 07809E 110315 F390 MS562 285/148 TB/ S031=
0000012000
777
SITH41 VTBB 110300 RRA
AAXX 11034
48402 32961 30203 10260 20185 30160 40180 52019 82045
  333 58007=
0000201100
778
SIBM20 VBRR 110300
AAXX 11034
48001 31910 90000 10085 20085 40200 74344 333 59008=
48004 31460 30401 10120 20102 72844 83800 333 56500=
48008 31957 00000 10136 20124 40184 70044 333 59006=
48010 32540 40000 10154 20154 40178 74044 81431 333 56666 59009=
48018 31940 00000 10140 20124 40173 74244 333 58008=
48019 32960 00401 10168 20117 40192 333 58012=
48020 31108 70000 10145 20130 74244 87600 333 56900=
48025 31110 30000 10163 20144 40196 74044 82740 333 56440 58001=
48035 31959 00000 10121 20081 40204 70544 333 58005=
48037 32958 03601 10178 20147 40176 333 58003=
48042 31950 00000 10190 20159 40178 71000 333 58014=
48045 32963 01802 10128 20086 333=
48048 32957 03601 10180 20147 40188 333 58010=
48053 31930 00000 10180 20265 40175 71000 333 58003=
48057 32958 01402 10182 20086 333=
48060 31/10 90000 10138 20107 40215 74544 333 58003=
48062 32956 00403 10196 20170 40162 333 58004=
48071 31956 00501 10215 20185 40166 71044 333 58015=
48077 32959 00000 10214 20160 40171 333 58011=
48078 NIL=
48080 /2560 31301 10182 20165 40167 81506 333 56909 58011=
48094 32959 10401 10230 20180 40168 80001 333 56009 58009=
48097 32057 00602 10240 20162 40167 333 58012=
48108 31995 50000 10240 20191 40163 70522 80005 333 56009 58013=
48109 32497 20401 10270 20240 40152 82500 333 56900 58011=
48110 31996 31802 10285 20209 40155 70511 80006 333 56009 58007=
48112 22598 60403 10280 20220 40140 82216 333 56199 58003=
48030 32960 02202 10054 21039 333=
48051 /2958 03603 10176 20152 70200 333=
48072 32459 11302 10230 20181 70222 81200 333 56300=
48075 31958 00000 10150 20150 40211 70500 333 58024=
48085 31956 00000 10210 20216 40160 70544 80001 333 56009 58007=
48087 32960 00403 10222 20173 333=
48095 32958 00000 10220 20185 333=
48099 31450 20000 10243 20191 40169 70544 82800 333 56900 58026=
48101 32659 43601 10244 20209 70322 83230 333 56990=
48103 31230 40401 10250 20205 40166 74044 84600 333 56100 58015=

0000405600
779
SIIR22 OIII 110300
AAXX 11031
40701 41940 00000 11182 21190 38627 40369 56010 71000 333 21186
555 11180 29094 66666 01058 11050 21036 31028 50014 90054=
40704 42970 33106 11026 21102 38605 40223 57009 80002 333 21050
83070 555 11047 29056 66666 01040 11040 21030 31018 50006 90070=
40708 42965 01911 11018 21086 38656 40207 57012 333 21030 555
11038 29060 66666 01032 11028 21020 31016 50006 90060=
40710 42662 20000 11160 21179 38328 40344 55007 81501 333 21174
82067 555 11160 29086 66666 01084 11074 21058 31044 51018 90056=
40713 41408 89901 11090 21094 38690 40303 56013 74244 8462/ 333
21110 84710 88459 555 11088 29097 66666 01040 11042 21008 31022
50036 90092=
40719 41220 70000 10018 20013 30201 40190 56015 71000 87600 333
20014 87706 555 10016 29096 66666 00032 10050 20074 30082 50100
90126=
40731 42960 73602 11013 21050 38756 40251 57014 80006 333 21035 87269
555 11025 29076 66666 01008 11004 20012 30022 50036 90072=
40738 41557 60000 10028 20023 30207 40209 57010 71010 83650 333
      20020 83725 85359 555 10026 29096 66666 00034 10050 20064
      30078 50100 90126=
40740 42960 30902 11086 21117 38747 40247 56009 80006 333 21088
83270 555 11091 29078 66666 01045 11022 21007 30005 50026 90063=
40747 41645 71901 11042 21047 38652 40257 55004 71072 84520 333 21046
84635 87458 555 11042 29096 66666 00002 10006 20020 30026 50050
90086=
40757 42660 53301 11004 21046 38932 40256 56009 82506 333 21008
82635 85269 555 11018 29074 66666 01010 10010 20030 30050 50056
90098=
40763 42665 40000 11020 21060 38960 40275 57001 81401 333 21024
81640 83070 555 11032 29074 66666 00004 10032 20050 30058 50072
90116=
40782 41550 80902 10006 20001 38888 40212 52006 76976 8432/ 333
20004 81930 83635 88556 555 10004 29096 66666 00032 10042 20052
30058 50072 90108=
40783 41603 81107 11014 21021 37969 40204 53003 78672 8732/ 333
21022 82935 85640 88557 555 11016 29095 66666 00000 10000 20014
30016 50042 90080=
40789 42960 30000 10024 21026 39239 40238 55011 82035 333 20024
      82360 555 10006 29070 66666 00026 10034 20056 30068 50106
      90146=
40798 41510 80000 11102 21114 37955 40313 57008 77072 8442/ 333
21132 81725 83630 88556 555 11102  29091 66666 01018 11010 20010
30012 50028  90062=
40818 42660 50000 11072 21095 37973 40259 56011 82520 333 21094
82640 85460 555 11076 29084 66666 01008 11012 20008 30012 50038
 90076=
40827 42965 50000 11005 21047 38865 40251 53006 80005 333 21014
      85269 555 11019 29073 66666 00004 10022 20046 30066 50094
      90146=
40836 41540 80000 11012 21019 38214 40261 56006 77072 8532/ 333
21020 81930 84635 88558 555 11014 29095 66666 00002 10008 20020
30024 50044 90074=
40851 42660 71004 10012 21028 38285 40231 51017 83410 333 21012
      83640 87460 555 11004 29074 66666 00016 10020 20036 30050
      50082 90138=
40853 41662 81205 11004 21036 37763 40257 57019 70272 83420 333
      21044 83635 87459 555 11016 29079 66666 00000 11002 20024
      30042 50062 90120=
40854 42660 70000 10038 21014 38987 40224 55006 83570 333 20016
      83640 87459 555 10018 29069 66666 00032 10040 20072 30094
      50136 90182=
40857 42560 80903 10152 20085 30176 40186 55005 8432/ 333 20146
81930 83635 88459 555 10118 29064 66666 00130 10140 20144 30145
50158 90168=
40859 42660 80000 10064 20018 38741 40197 54000 8532/ 333 20042
82935 83640 88460 555 10044 29072 66666 00062 10066 20074 30076
50106 90142=
40878 42962 03202 11012 21053 38900 40294 52010 333 21014 555 11025
29074 66666 00034 10057 20085 30106 50124 90149=
40879 42962 30103 10044 20003 39551 40254 51002 80005 333 20042
83270 555 10028 29075 66666 00084 10100 20134 30156 50174 90220=
40883 42960 20705 10162 20036 30187 40210 56005 80002 333 20132
82070 555 10104 29043 66666 00124 10132 20148 30182 50200 90224=
40898 42965 30305 10138 21052 30210 40220 51007 80002
   222// 00223 10700 333 20136 83069 555 10068 29026 66666 00100
   10110 20160 30168 50220 90250=
0000009600
780
SNVX19 LFVW 110200 RRB
BBXX
MINFR09 1102/ 99339 11258 46/// ///// 40346 52009=
0000011100
781
UANT99 KDDL 110316
ARP DAL228 4610N03922W 0316 F330 MS51 290/37 KT
N1201P QXT AOW 110316 F50A
0000012600
782
SITH43 VTBB 110300 RRE
AAXX 11034
48427 31958 80306 10277 20185 30162 40170 50015 70522 80006
  333 58018=
0000011100
783
UANT99 KDDL 110316
ARP SVA036 4724N04334W 0316 F330 MS57 327/70 KT
HZAK18 QXT AME 110316 F18A
0000013000
784
SIIN90 VAGO 110300
AAXX 11034
43192 31596 40503 10200 20167 40145 70500 81430
  333 20180 58006
  555 10000=
0000013000
785
SIIN90 VIDP 110300
AAXX 11034
42181 31992 02505 10062 20058 40194 74544
  333 10187 20056 58004
  555 10000=
0000013000
786
SIIN90 VISM 110300
AAXX 11034
42066 22595 50000 11040 21051 84830
  333 10024 21044 6004/
  555 00044 10030=
0000193000
787
SIIN90 VIDP 110300
AAXX 11034
42542 31595 80206 10098 20057 39591 40198 70522 8352/
  333 10184 20092 58022 83630 87458
  555 10000=
42139 31994 00000 10078 20065 40181 71000
  333 10173 20068 58004
  555 10000=
42099 31994 03202 10088 20053 40192 74240
  333 10170 20080 58012
  555 10000=
42103 31994 03202 10084 20062 40186 71010
  333 10170 20075 58007
  555 10000=
42071 31994 00000 10018 20018 40202 71000
  333 10174 20004 58010
  555 10000=
42343 31995 20504 10108 20024 40199 70500 80001
  333 10187 20098 58024
  555 10000=
42339 31995 60503 10096 20031 40204 70500 80001
  333 10217 20093 58035 86070
  555 10000=
42079 22896 10000 10044 20039 39192 48505 81030
  333 10156 20032 58007 6005/ 81358
  555 00050 10008=
42083 22997 00000 10010 21019 4////
  333 10108 20001 59006 6001/
  555 00013 10002=
42180 31/91 90000 10072 20063 39857 40187 74044
  333 10185 20058 58007
  555 10000=
42184 31995 03203 10092 20062 40177 71000
  333 10196 20070 58008
  555 10000=
42452 31993 03603 10118 20086 40195 74440
  333 10154 20114 58022
  555 10005=
42379 21594 50902 10148 20106 40173 71021 83530
  333 10195 20098 56690 59001 6998/ 83620 83360
  555 00008 10001=
42101 31994 00000 10070 20061 40189 71000
  333 10186 20063 58011
  555 10000=
42111 21596 73202 10090 20082 39377 40175 70262 87800
  333 10192 20083 58000 6015/ 85625 84830
  555 00145 10015=
42148 21596 50903 10116 20112 39899 71022 81130
  333 10199 20088 59008 6002/ 81830 85360
  555 00024 10007=
42147 21092 80504 11006 21106 37750 77297 887//
  333 10084 21017 59010 6015/ 88700
  555 00150 10018=
42114 21194 70000 10022 20008 38109 74221 84720
  333 10118 21008 59001 6003/ 81701 83605 86446
  555 00030 10006=
42081 22496 20000 10034 20025 38959 48522 82700
  333 10148 20028 56400 58018 6015/ 82715
  555 00150 10025=
0000057300
788
SIIN90 VOTV 110300
AAXX 11034
43355 32997 00000 10240 20193 40173
  333 10342 20223 58000
  555 10000=
43354 32597 30000 10246 20206 40141 83500
  333 10335 20210 58009
  555 10000=
43266 32496 60212 10276 20238 40144 83360
  333 10309 20256 57981 58012
  555 10000=
43336 31996 00000 10248 20208 40147 70500
  333 10337 20220 58010
  555 10000=
43320 31996 10904 10240 20222 40141 70522 80001
  333 10320 20222 58009
  555 10000=
43372 31595 10000 10264 20219 40138 70500 81500
  333 10309 20229 58014 81618
  555 10010=
0000011100
789
UANT99 KDDL 110317
ARP UAL110 5000N03954W 0316 F380 MS54 273/27 KT
N33103 DDL IG1 110317 F49A
0000011100
790
UANT99 KDDL 110317
ARP DAL252 5804N03300W 0317 F370 MS55 217/36 KT
N864DA QXT AOW 110317 F23A
0000024100
791
SOAT10 KWAL 110318
FA8005BC 011031837 OT12 ID:KN-BASS-01 DT:2014 01 11 03 16
:RD -3226 -3252 -3270 -3288 -3259 -3255 -3248 -3254 -3230 -3237
:PR 0486 0396 0382 0376 0390 0399 0407 0424 0431 0493
:B 13.7V
 46+0NP 219E
0000353300
792
SIVZ11 SBBR 110300 RRC
BBXX
SHIP 11031 99/// 1//// 16/// /0902 10201 20185 39321 40196 52/// 6001/
  333 10205 20198 553// 10003 91104=
SHIP 11031 99/// 1//// 36/// /3501 10226 20155 39121 40148
  333 10229 20225 553// 10004 91103=
SHIP 11031 99/// 1//// 16/// /0500 10178 20166 39049 40177 6994/
  333 10184 20178 553// 10003 91101=
SHIP 11031 99/// 1//// 36/// /1003 10197 20166 39244 40158
  333 10198 20196 553// 10004 91104=
SHIP 11031 99/// 1//// 36/// /0700 10227 20180 39258 40145
  333 10229 20227 553// 10004 91100=
SHIP 11031 99/// 1//// 36/// /0400 10239 20183 39613 40134
  333 10243 20238 553// 10004 91105=
SHIP 11031 99/// 1//// 36/// /1001 10240 20171 39270 40076
  333 10247 20240 553// 10004 91103=
SHIP 11031 99/// 1//// 36/// /1200 10245 20180 39495 40138
  333 10246 20241 553// 10004 91103=
SHIP 11031 99/// 1//// 36/// /1700 10181 20169 38966 40082
  333 10190 20179 553// 10003 91101=
SHIP 11031 99/// 1//// 36/// /1900 10147 20141 38762 49866
  333 10154 20146 553// 10004 91101=
SHIP 11031 99/// 1//// 36/// /1401 10206 20181 39484 40135
  333 10211 20204 91101=
SHIP 11031 99/// 1//// 36/// /0404 10246 20209 39468 40160 52///
  333 10249 20241 553// 10004 91106=
SHIP 11031 99/// 1//// 36/// /3100 10218 20187 39303 40132 52///
  333 10222 20216 553// 10004 91102=
SHIP 11031 99/// 1//// 36/// /1002 10233 20212 39872 40138 52///
  333 10239 20233 553// 10004 91105=
SHIP 11031 99/// 1//// 36/// /0600 10185 20173 39631 40131
  333 10189 20185 553// 10004 91108=
SHIP 11031 99/// 1//// 36/// /0904 10186 20151 38681 49759
  333 10186 20183 553// 10004 91105=
SHIP 11031 99/// 1//// 36/// /0604 10251 20203 39864 40113 52///
  333 10254 20251 553// 10004 91109=
SHIP 11031 99/// 1//// 36/// /0804 10226 20195 30015 40111 52///
  333 10227 20225 553// 10004 91107=
SHIP 11031 99/// 1//// 36/// /1202 10257 20201 39589 40147 52///
  333 10265 20251 553// 10002 91104=
SHIP 11031 99/// 1//// 36/// /0604 10262 20188 39970 40142 52///
  333 10266 20261 553// 10004 91107=
SHIP 11031 99/// 1//// 36/// /3301 10248 20215 30007 40081 52///
  333 10252 20248 553// 10003 91103=
SHIP 11031 99/// 1//// 36/// /1200 10200 20183 39573 40135 52///
  333 10201 20199 553// 10004 91100=
SHIP 11031 99/// 1//// 36/// /0802 10186 20153 38816 49911
  333 10194 20186 553// 10004 91103=
SHIP 11031 99/// 1//// 36/// /0202 10245 20206 39936 40112
  333 10248 20242 553// 10003 91104=
SHIP 11031 99/// 1//// 36/// /1700 10243 20180 39469 40112 52///
  333 10247 20239 553// 10004 91100=
SHIP 11031 99/// 1//// 36/// /1901 10223 20201 30055 40123
  333 10237 20219 553// 10002 91104=
SHIP 11031 99/// 1//// 36/// /1803 10172 20156 39120 40201 52///
  333 10201 20172 553// 00000 91109=
SHIP 11031 99/// 1//// 36/// /1402 10248 20195 39634 40131 52///
  333 10250 20246 553// 10003 91105=
SHIP 11031 99/// 1//// 36/// /3300 10255 20199 39654 40109
  333 10257 20255 553// 10003 91102=
SHIP 11031 99/// 1//// 36/// /1400 10261 20199 39729 40109
  333 10272 20261 553// 10003 91100=
SHIP 11031 99/// 1//// 36/// /1301 10225 20211 39853 40126 52///
  333 10235 20224 553// 10003 91101=
SHIP 11031 99/// 1//// 36/// /3201 10225 20214 39978 40157 52///
  333 10227 20223 553// 10001 91101=
SHIP 11031 99/// 1//// 36/// /1002 10213 20171 39000 40345
  333 10214 20188 553// 10003 91105=
SHIP 11031 99/// 1//// 36/// /3501 10258 20186 39806 40131
  333 10272 20258 553// 10004 91103=
0000074000
793
FXPQ20 RJTD 110000
RSMC GUIDANCE FOR FORECAST
NAME TD
PSTN 110000UTC 04.3N 130.9E
PRES 1008HPA
MXWD  30KT
FORECAST BY GLOBAL MODEL                      
TIME    PSTN       PRES    MXWD
                 (CHANGE FROM T=0)
T=06 04.1N 129.9E -003HPA -002KT
T=12 04.5N 129.2E -001HPA -001KT
T=18 04.8N 128.7E -005HPA -001KT
T=24 05.6N 128.5E -002HPA -002KT
T=30 06.2N 128.2E -005HPA -001KT
T=36 06.8N 127.8E -003HPA  000KT
T=42 07.3N 127.6E -006HPA  000KT
T=48 08.0N 127.3E -004HPA -001KT
T=54 08.7N 126.8E -009HPA +004KT
T=60 09.1N 126.4E -006HPA +002KT
T=66 09.5N 125.9E -007HPA -003KT
T=72 09.7N 125.8E -004HPA -002KT
T=78 10.0N 125.9E -007HPA -003KT
T=84 10.3N 126.1E -004HPA -003KT=
0000021300
794
SIVD15 KWNB 110300 RRJ
BBXX
41056 11031 99183 70655 46/// /0607 10259 40184 90250 333 91209
555 11080 22087=
41056 11031 99183 70655 46/// /0608 10260 40184 90240 333 91210
555 11086 22093=
0000021300
795
SIVD20 KWNB 110300 RRK
BBXX
41052 11031 99183 70648 46/// /0709 10258 40181 90250 333 91212
555 11099 22108=
41052 11031 99183 70648 46/// /0708 10262 40180 90240 333 91210
555 11093 22101=
00000000