0000339100
816
SIKZ20 UAAA 110300
AAXX 11031
28676 /15// 81803 11062 21085 30068 40198 57004 78588 889// 333  
47018 55000 555   21067 69922 7995/=
28766 /14// 82005 11070 21091 39986 40181 57008 77173 8802/ 333  
47017 55000 555   21086 69942 7996/=
28867 NIL=
28879 /15// 81804 11082 21096 39925 40222 58005 77177 8652/ 333  
47010 55000 555   21083 69952 7997/=
28952 NIL=
28966 /15// 81707 11068 21092 39910 40201 57004 77173 8802/ 333  
47025 555   21095 60012 7002/=
29802 NIL=
29807 NIL=
34691 32998 82302 10007 21016 30136 40124 57019 8807/ 333   41000
55000 555   21011 7990/=
35067 /15// 81704 11068 21084 39915 40198 57008 77173 8802/ 333  
47011 555   21090 69982 7001/=
35078 /1996 81604 11083 21093 39838 40229 57008 77373 8802/ 333  
47037 55000 555   21095 69942 7001/=
35085 32698 81805 11094 21114 39763 40257 57008 885// 333   47019
555   21125 7002/=
35108 325// 82305 11004 21010 30055 40101 57008 885// 333   43011
555   21005 3/100 7996/=
35188 /1498 81903 11075 21100 39821 40270 57007 73673 887// 333  
47023 88719 555   21126 69902 7001/=
35217 324// 82405 10000 21005 30080 40120 53003 8802/ 333   47029
555   21002 7997/=
35229 /15// 82301 11006 21012 39849 40121 52008 71042 885// 333  
48022 55000 555   21016 69992 7003/=
35302 /15// 82702 11006 21012 30092 40111 57011 70272 885// 333  
44009 555   21006 69902 7002/=
35357 NIL=
35394 NIL=
35406 /15// 82401 10003 21003 30128 40130 58011 70252 886// 333  
46008 55000 555   20001 69902 7002/=
35416 /14// 82403 11007 21023 30019 40139 51006 77172 8802/ 333  
47016 55000 555   21007 69952 7003/=
35426 /15// 82503 11006 21018 39841 40131 54003 71022 886// 333  
48028 555   21006 60022 7006/=
35497 NIL=
35532 /1598 82002 11020 21041 39651 40144 52006 70273 8802/ 333  
48024 555   21031 60032 7007/=
35671 NIL=
35700 32598 82102 10020 21008 30177 40153 57010 885// 333   55000
555   20013 7993/=
35746 /14// 81804 11034 21045 70272 8802/ 333   47006 55000 555  
21072 69952 7995/=
35796 NIL=
35849 32998 82003 11042 21065 30100 40188 57010 8807/ 333   47009
55000 555   21075 7000/=
35925 NIL=
35953 325// 31605 11051 21068 30072 40204 57014 82502 333   47006
555   21085 7000/=
35969 329// 81104 11135 21170 30077 40261 57030 8807/ 333   47018
555   21151 7000/=
36003 NIL=
36152 NIL=
36177 NIL=
36208 NIL=
36397 32999 61616 11130 21193 39778 40373 57005 86040 333   42997
91020 91120 555   21148 7000/=
36428 32599 70000 11223 21240 39898 40450 58001 81641 333   47014
55073 95000 555   21236 7000/=
36535 32999 20000 11216 21247 39759 40455 57003 82030 333   47020
55070 555   21227 7000/=
36639 32999 30000 11222 21246 39731 40397 57012 80001 333   47023
555   21258 7000/=
36821 31996 70000 11203 21214 39813 40348 57012 71011 80002 333  
43002 555   21204 3/119 7000/=
36859 32999 60301 11149 21177 39547 40386 57011 86040 333   46005
55080 555   21166 3/120 7000/=
36864 NIL=
36870 32998 70000 11098 21038 39253 40315 57011 80001 333   47013
55071 555   21105 7000/=
38001 NIL=
38062 32598 61603 11041 21064 30059 40226 57012 86400 333   47010
555   21043 7990/=
38069 32997 51603 11059 21098 80002 333   43003 555   21071 7000/=
38196 NIL=
38198 NIL=
38222 NIL=
38232 NIL=
38328 NIL=
38334 NIL=
38341 NIL=
38343 NIL=
38439 NIL=
0000156800
817
SASA85 EGRR 110300 RRE
METAR SAAR 110300Z 18007KT 9999 FEW035 BKN100 23/22 Q1010 RETS=
METAR SANT 110300Z 36010KT 9999 BKN040 FEW045CB 29/21 Q1007=
METAR SAOC 110300Z 00000KT CAVOK 20/16 Q1014=
METAR SARC 110300Z 09003KT 9999 FEW050CB BKN200 29/23 Q1007=
METAR SARE 110300Z 09003KT 8000 NSC 28/25 Q1007=
METAR SARF 110300Z 02009KT CAVOK 30/22 Q1007=
METAR SASJ 110300Z 27005KT 9999 SCT030 OVC100 26/19 Q1010=
METAR SAWH 110300Z 23015KT 9999 BKN030 OVC100 06/03 Q1007=
METAR SAZM 110300Z 20006KT CAVOK 16/11 Q1014=
METAR SAZN 110300Z 16004KT CAVOK 24/M03 Q1015=
METAR SBAF 110300Z 08004KT CAVOK 27/21 Q1013=
METAR SBAN 110300Z 14004KT 9999 TS SCT030 FEW040CB 20/17 Q1019=
METAR SBAT 110300Z 03004KT 9999 -TSRA FEW015 SCT020 FEW025CB BKN090
      23/22 Q1014=
METAR SBBH 110300Z 11004KT CAVOK 22/18 Q1018=
METAR SBBU 110300Z 03003KT CAVOK 28/22 Q1015=
METAR SBDN 110300Z 08008KT CAVOK 26/18 Q1013=
METAR SBIH 110300Z 03003KT 9999 FEW014 SCT100 24/23 Q1012=
METAR SBIL 110300Z 05004KT 8000 VCSH SCT015 BKN020 BKN070 24/23 Q1014=
METAR SBIZ 110300Z 35003KT 9999 FEW030 BKN080 24/23 Q1011=
METAR SBME 110300Z 03004KT CAVOK 25/23 Q1014=
METAR SBMK 110300Z 06002KT CAVOK 21/17 Q1017=
METAR SBPV 110300Z 35005KT 9999 VCTS SCT015 FEW025CB BKN070 24/23 Q1011=
METAR SBSC 110300Z 25002KT CAVOK 26/23 Q1013=
METAR SBUL 110300Z 07006KT CAVOK 19/16 Q1018=
METAR SBUR 110300Z 03005KT CAVOK 21/17 Q1017=
METAR SBVH 110300Z 36002KT 9999 FEW015 SCT090 21/20 Q1014=
METAR SVBM 110300Z 05004KT 9999 BKN016 21/17 Q1018=
0000085800
818
SAUZ31 UTTW 110300
METAR UTFN 110300Z 00000MPS M0050 R28/M0050N FZFG VV000 M09/M10 Q1029
R28/CLRD70 NOSIG RMK QBB020=
METAR UTNN 110300Z 16002MPS 8000 BKN036 M02/M04 Q1021 R33/CLRD60
NOSIG=
METAR UTNU 110300Z 30001MPS 3200 BR NSC M07/M09 Q1021 R31/CLRD60
NOSIG=
METAR UTSA 110300Z 09002MPS 060V140 9000 NSC M03/M08 Q1022 R07/CLRD70
NOSIG=
METAR UTSB 110300Z 11003MPS 4500 BR OVC20 NSC M03/M06 Q1023
R01/CLRD70 NOSIG=
METAR UTSK 110300Z NIL=
METAR UTSS 110300Z 15005MPS 120V190 9999 BKN200 01/M12 Q1022
R88/CLRD70 NOSIG=
METAR UTST 110300Z 05002MPS 2600 BR NSC M05/M06 Q1027 R88/CLRD70
NOSIG=
METAR UTFA 110300Z 00000MPS M0050 R04/M0050N FZFG VV001 M07/M08 Q1029
R88/09//70=
METAR UTFF 110300Z 00000MPS 2900 BR NSC M09/M10 Q1028 R18/CLRD70=
METAR UTTT 110300Z VRB01MPS CAVOK M03/M09 Q1024 R26R/CLRD70 NOSIG=
0000177500
819
SAIR31 OIII 110300
 METAR OIAA 110300Z 10004KT 5000 BR FEW030CB SCT035 OVC090 13/12
 Q1018=
METAR OIAG NIL=
METAR OIAH 110300Z 11010KT 9999 SCT040 OVC090 10/03 Q1019=
METAR OIAI NIL=
 METAR OIAM 110300Z 09019KT 3000 BR FEW030CB SCT040 OVC090 12/11
 Q1018=
 METAR OIAW 110300Z 11010KT 5000 BR FEW030CB SCT035 BKN090 11/10
 Q1018=
 METAR OIBA 110300Z 06016KT 4000 SA FEW025CB FEW030 BKN100 19/10
 Q1019=
 METAR OIBB 110300Z 09006KT 9999 FEW030CB SCT040 OVC090 15/07 Q1018
 A3007=
 METAR OIBK 110300Z 10010KT 7000 -RA FEW030CB SCT025 OVC090 15/09
 Q1020=
METAR OIBL 110300Z 07010KT CAVOK 16/04 Q1020=
METAR OIBS 110300Z 07030KT CAVOK 20/12 Q1019=
 METAR OICC 110300Z 11012KT 5000 BR FEW035CB SCT040 BKN080 M01/M03
 Q1018 A3008 NOSIG=
 METAR OICI 110300Z 15004KT 8000 SCT025 FEW030CB OVC080 03/03 Q1017
 A3004=
METAR OICJ NIL=
 METAR OICK 110300Z 09004KT 5000 SNRA FEW030CB SCT035 OVC060 01/00
 Q1019=
METAR OICS 110300Z 19002KT 4500 BR SCT035 BKN080 M04/M05 Q1020=
METAR OIFK NIL=
METAR OIFM 110300Z 00000KT 0200 FG NSC M05/M05 Q1020 A3013=
 METAR OIFS 110300Z 00000KT 1000 SN FEW025 SCT030 OVC060 M10/M11
 Q1020=
METAR OIGG 110300Z 00000KT 2000 BR BKN006 02/01 Q1018=
METAR OIGK NIL=
 METAR COR OIHH 110300Z 00000KT 0600 -SN FEW040 OVC100 M09/M10
 Q1020=
METAR OIHM NIL=
METAR OIIE 110300Z 30004KT CAVOK M01/M05 Q1021 A3021 NOSIG=
 METAR OIII 110300Z 00000KT 7000 FEW040 BKN100 02/M05 Q1021 A3015
 NOSIG NOSIG=
METAR OIIK 110300Z AUTO 00000KT //// // ////// M01/M05 Q1020=
METAR OIIP 110300Z 26004KT 6000 FEW040 BKN100 M03/M05 Q1020 A3012=
METAR OIIS NIL=
METAR OIKB 110300Z 09004KT CAVOK 12/07 Q1022 A3018=
METAR OIKK 110300Z 00000KT CAVOK M05/M07 Q1021 A3015=
METAR OIKO NIL=
0000124300
820
SAIR31 OIII 110300 RRA
METAR OIKQ 110300Z 06010KT 8000 FEW030 16/04 Q1021=
METAR OIMB 110300Z 07008KT CAVOK M03/M11 Q1023=
METAR OIMC NIL=
METAR OIMD NIL=
METAR OIMM 110300Z 15004KT 9999 FEW035 BKN180 M03/M10 Q1021 A3017=
METAR OINB NIL=
METAR OING 110300Z 00000KT 7000 SCT025 BKN090 03/02 Q1020=
METAR OINK NIL=
METAR OINN 110300Z 00000KT CAVOK 05/02 Q1019=
METAR OINR 110300Z VRB02KT CAVOK 05/04 Q1018=
METAR OISA NIL=
METAR OISF 110250Z 00000KT 9999 FEW035CB SCT040 OVC100 06/02 Q1020=
 METAR OISL 110300Z 11006KT 9999 FEW035CB SCT040 OVC100 08/04
 Q1019=
 METAR OISS 110250Z 00000KT 4000 -SN FEW030CB FEW035 OVC090 00/M01
 Q1022 A3020=
 METAR OISY 110300Z 00000KT 4000 -SN FEW030CB SCT035 OVC080 M01/M02
 Q1022=
METAR OITL 110250Z 28010KT CAVOK M14/M17 Q1017=
METAR OITR 110300Z 27004KT 2000 BR FEW035 BKN140 M11/M13 Q1021=
METAR OITT 110300Z 06006KT 8000 NSC M10/M14 Q1021 A3015=
METAR OITU NIL=
METAR OIYY 110300Z 00000KT 9999 FEW040 SCT100 01/M01 Q1022=
METAR OIZB 110300Z 00000KT 7000 NSC M04/M06 Q1026=
METAR OIZC NIL=
METAR OIZH 110300Z 14004KT CAVOK M05/M06 Q1022 A3020=
METAR OIZI 110300Z 01006KT CAVOK 04/00 Q1024=
METAR OIZJ 110300Z 00000KT CAVOK 15/07 Q1021=
0000019800
821
FCUZ31 UTTW 110300
TAF UTFA 110300Z NIL=
TAF UTSK 110255Z 1104/1113 16005G10MPS CAVOK=
TAF UTFF 110300Z 1104/1113 34004MPS 2000 BR NSC TEMPO 1104/1108
VRB02MPS 0500 FZFG VV001=
0000011500
822
UXIN90 VICH 111200
TTAA 6112/ 42101
ASCENT SUSPENDED AS PER INSTRUCTIONS FROM DDGM(UI) NEW DELHI=
0000066900
823
SICI23 BABJ 110300
AAXX 11031
50136 NIL=
50745 NIL=
50774 NIL=
50788 NIL=
51133 NIL=
51431 NIL=
51747 NIL=
52203 NIL=
52418 32980 00000 11102 21214 40487 52016=
52681 32980 02704 11074 21209 40442 52016=
53564 NIL=
53614 NIL=
53646 NIL=
53798 NIL=
53845 NIL=
53959 31923 71101 10018 21077 40356 52013 70500 87///=
54094 NIL=
54102 NIL=
54161 NIL=
54292 NIL=
54374 NIL=
54423 NIL=
54618 NIL=
54843 41927 01401 10038 21037 40333 57009 70500=
54909 41932 02004 10048 21025 40338 52003 70500=
56029 41975 80000 11082 21110 36462 52024 77070 88///=
57127 NIL=
57131 32960 02002 10032 21073 40365 52018=
0000021400
824
SAWD01 OEJD 110300 RRA
METAR UUEE 110300Z 20005MPS 5000 -RA OVC007 02/02 Q0984 75290151
25290151 NOSIG=
METAR VIDP 110300Z 25006KT 0050 R28/0300 R29/0250 FG VV/// 07/06
      Q1018 BECMG 0150=
0000017800
825
SIOM20 OOMS 110300 RRE
AAXX 11034
41244 36/// /1107 10153 20077 39860 48370
333 0E015 58064 =
41257 36/// /1904 10113 20081 39729 40223
333 0E011 58003  =
0000009000
826
SNAA01 KARS 110300
AAXX 1103/
89329 46/// ///// 11084 38843 4//// 5////=
0000021900
827
SIAA01 KARS 110300
AAXX 1103/
89869 46/// ///// 11030 39929 4//// 5////=
89866 46/// ///// 11013 39887 4//// 5////=
89799 46/// ///// 11245 4//// 5////=
89314 46/// ///// 11079 38307 4//// 5////=
0000298800
828
SIIR23 OIII 110300
AAXX 11031
40700 42960 02605 11022 21059 30115 40206 57013 333 21050 555
11032 29076 66666 00000 10002 20012 30022 50070 90090=
40723 42960 30000 11052 21080 39002 40278 53004 80001 333 21058
83067 555 11058 29081 66666 01050 11028 20002 30014 50034 90080=
40726 41620 80000 11056 21092 38675 40278 57009 70522 8352/ 333
21082 83635 88458 555 11064 29076 66666 01030 11036 21020 30000
50032 90080=
40727 41520 80000 11065 21076 38494 40280 56008 77372 8342/ 333 21098
83630 88558 555 11066 29092 66666 01030 11023 21007 30011 50023
90074=
40734 42960 60000 10048 20017 30218 40192 56012 80006 333 20042
86268 555 10036 29081 66666 00050 10060 20074 30082 50094 90116=
40737 42960 71503 10042 20022 30178 40196 56011 80006 333 20018
87269 555 10034 29087 66666 00040 10058 20076 30084 50106 90124=
40741 42960 00000 10002 21073 39904 40249 52005 333 21004 555
11021 29057 66666 0009 10025 20049 30063 50079 90111=
40780 41558 81502 10030 20025 38674 40178 56002 71022 8532/ 333
20012 84725 81930 88458 555 10028 29097 66666 00016 10022 20038
30044 50060 90092=
40791 42660 30000 10012 21026 39407 40258 55002 82570 333 20011
      82640 555 11002 29076 66666 00032 10050 20080 30094 50110
      90156=
40792 42670 50603 11010 21074 38749 40251 58006 82530 333 21018
82635 84360 555 11030 29062 66666 01004 10006 20026 30040 50064
90110=
40794 41556 80805 10102 20098 30102 40202 53002 76166
8432/ 333 20100 81930 83635 88557 555 10100 29097 66666 00104
10108 20110 30120 50148 90172=
40812 41650 80101 10086 20086 39809 40190 53010 76466 8632/ 333
 20085 82935 84640 88557 555 10086 29100 66666 00062 10064 20090
30096 50140 90160 77777 00/// 10100 20/// 30/// 50100 70/// 99///=
40829 41957 10000 11038 21060 39685 40289 53006 71000 80002 333
21038 81069 555 11043 29085 66666 00016 10016 20090 30096 50128
90168=
40833 41658 81006 10112 20101 30175 40208 53007 78088 88300 333
20107 83935 85640 555 10106 29093 66666 00110 10114 20122 30132
 50140 90190 77777 00029 10099 20/// 30090 50093 70/// 99///=
40835 42660 81105 10098 20031 39364 40187 57001 8342/ 333 20082
83640 88559 555 10068 29063 66666 00060 10072 20094 30098 50114
 90130=
40845 42560 81507 10160 20116 30185 40190 53002 8492/ 333 20148
81930 83640 88459 555 10136 29075 66666 00138 10140 20146 30146
5//// 90182=
40882 41557 81005 10146 20087 30175 40211 53003 76181 8532/ 333
20146 82930 83725 88559 555 10116 29068 66666 00134 10142 20154
30170 50180 90222=
40889 42960 80715 10198 20123 30196 40201 53010 80007
333 20190 88270 555 10156 29062 66666 00168 10166 20176
30186 50204 90242=
40890 41540 70608 10192 20103 30189 40197 53001 70722 82370 333
20188 82925 82630 87360 555 10144 29056 66666 00176 10172 20178
30190 50208 90236=
40893 42962 40000 10148 20065 30210 40217 53004 84030 333 20140
84360 555 10108 29058 66666 00134 10142 20178 30180 50200 90184=
40897 NIL=
0000036400
829
SXXX32 EUMS 110312
22E595B6
:PRS 1 /1 M 3145 3144 3137 3158 3115 3131 3123 3090 3119 3111 3128 3158 3101 3087 3074 3107 3094 3090 3087 3050 3112 3122 3076 3068 3068 3059 3128 3078 3116 :RAD 1 /3 6303 6295 6287 6283 6260 6263 6266 6263 6273 6283 :ENC 2 /5 4431 4414 4398 4384 4374 4402 :SW1 12 /60 60 :SW2 42 /60 60 :BAT 14 /15 13.1 :NAME 22E595B6
0000044600
830
SXXX32 EUMS 110313
32BD7124
:PRS 1 /1 1860 1859 1860 1862 1863 1864 1866 1865 1865 1865 1865 1865 1865 1864 1864 1864 1864 1865 1867 1869 1869 1868 1866 1866 1866 1868 1868 1866 1864 1863 :RAD 3 /3 7638 7641 7650 7650 7651 7651 7652 7652 7650 7648 7646 7646 7648 7644 7639 7628 7620 7615 7613 7613 :ENC 3 /5 4639 4646 4647 4649 4649 4646 4645 4648 4639 4621 4612 4610 :SW1 14 /60 0 :SW2 44 /60 60 :BAT 14 /15 13.1 :NAME 32BD7124
0000070000
831
SXXX32 EUMS 110313 RRA
223412A2
OT12 ID:IND-SADENG DT:2014 01 11 03 12
:PRS /1 01330 01289 01356 01299 01396 01422 01357 01294 01300 01316 01278 01263 01346 01395 01479 01434 01290 01303 01433 01386 01373 01400 01300 01329 01301 01361 01397 01414 01372 /////
:ENC /1 -13613 -13669 -13626 -13619 -13546 -13539 -13599 -13663 -13649 -13626 -13686 -13656 -13586 -13523 -13473 -13513 -13639 -13653 -13563 -13553 -13549 -13553 -13618 -13599 -13636 -13579 -13556 -13529 -13569 /////
:RAD /1 11104 11025 11020 11086 11130 11154 11146 11073 11049 11082 11066 11045 11072 11179 11211 11212 11083 11059 11038 11106 11094 11098 11067 11074 11043 11085 11085 11113 11106 /////
:BAT 13.0V
0000040600
832
SXXX32 EUMS 110315
262D700E
:PRS 1 /1 3149 3141 3150 3190 3161 3235 3184 3157 3172 3195 3124 3209 3200 3181 3181 3216 3199 3223 3219 3260 3240 3228 3253 3239 3276 3267 3330 3306 3272 3255 :RAD 1 /3 5625 5638 5638 5652 5672 5680 5687 5705 5711 5708 5718 5739 5747 5756 5770 :ENC 5 /5 5751 5741 5785 5790 5838 5808 5844 5854 5893 5863 5911 5899 :SW1 15 /60 0 :BAT 14 /15 12.9 :NAME 262D700E
0000045500
833
SXXX32 EUMS 110315 RRA
324DF524
:PRS 1 /1 2761 2750 2741 2731 2721 2711 2701 2691 2681 2671 2661 2652 2641 2632 2622 2612 2603 2592 2583 2573 2564 2554 2544 2535 2526 2516 2506 2496 2487 2477 :RAD 1 /3 2721 2693 2663 2631 2603 2574 2541 2513 2484 2454 2423 2393 2359 2326 2294 2264 2231 2199 2166 2136 :ENC 5 /5 1662 1611 1561 1511 1464 1416 1366 1313 1259 1204 1153 1101 :SW1 15 /60 0 0 :SW2 45 /60 60 60 :BAT 14 /15 13.4 :NAME 324DF524
0000041500
834
SXXX32 EUMS 110316
26CB10AC
:PRS 1 /1 -1340 -1340 -1340 -1340 -1340 -1341 -1340 -1341 -1341 -1341 -1341 -1341 -1341 -1342 -1340 -1340 -1340 -1340 -1340 -1340 -1341 -1341 -1341 -1341 -1341 -1341 -1341 -1341 -1342 -1341 :RAD 3 /3 6272 6273 6275 6276 6282 6286 6295 6296 6298 6302 :RA2 3 /3 6245 6242 6245 6240 6248 6250 6264 6265 6263 6270 :SW1 17 /60 0 :SW2 47 /60 0 :BAT 14 /15 12.6 :NAME 26CB10AC
0000045000
835
SXXX32 EUMS 110316 RRA
1227146C
:PRS 1 /1 3054 3058 3062 3067 3069 3072 3076 3080 3084 3087 3091 3095 3099 3100 3103 3109 3111 3114 3117 3123 3128 3129 3133 3136 3141 3143 3148 3151 3156 3159 :RAD 3 /3 3052 3038 3078 3074 3036 3110 3099 3092 3106 3146 3144 3181 3187 3168 3194 3196 3213 3219 3238 3223 :ENC 1 /5 3810 3829 3846 3864 3883 3901 3920 3939 3956 3974 3991 4009 :SW1 17 /60 0 :SW2 47 /60 60 :BAT 14 /15 12.8 :NAME 1227146C
00000000