0000172500
372
SNVD15 KWNB 110200 RRC
BBXX
42055 11021 99222 70940 46/// /1406 10235 40131 53009 90150 22200
00229 10802 20501 306// 40802 70011 333 91206 555 11062 22068
30148 41406 60149 142056 138050 139051 136054 135050 134044 81406
90149=
42003 11021 99260 70856 46/// /1304 10250 40172 53008 90150 22200
00246 10702 20401 312// 40702 70009 333 91205 555 11043 22047
30144 41205 60149 123037 101028 117036 118036 101032 087034 81304
90118=
42057 11021 99170 70815 46/// /0809 10275 20232 40150 53017 90150
22200 00275 10804 20804 311// 40902 70021 333 91211 555 11100
22106 30139 40811 60149 076094 076091 077092 078087 076080 075087
80810 90139=
41047 11021 99275 70715 46/// /1109 10243 20231 40246 52006 90150
22200 00255 10804 20703 308// 40803 70022 333 91210 555 11091
22096 30134 41111 60149 112086 110089 112087 113087 108084 109083
81110 90119=
41048 11021 99320 70695 46/// /1209 10202 20138 40290 51003 90150
22200 00213 10803 20603 311// 40802 70017 333 91210 555 11090
22095 30107 41011 60149 119084 117085 117086 114086 109090 109087
81110 90106=
41040 11021 99145 70530 46/// /0610 10246 20206 40159 51012 90150
22200 00262 11006 20804 307// 41004 70030 333 91212 555 11111
22117 30142 40612 60149 057102 068095 070096 069098 074097 075095
80611 90144=
44066 11021 99396 70726 46/// /1706 10120 20109 40263 58011 90150
22200 00109 11002 20401 316// 41001 70008 333 91206 555 11062
22069 60149 168057 170055 170053 170050 168053 167053=
42039 11021 99288 70860 46/// /1404 10213 20213 40176 52006 90150
22200 00212 10501 20401 3//// 40501 70006 333 91205 555 11045
22048 30115 41405 60149 141042 139041 142041 141045 141046 142043
81405 90115=
0000037600
373
SAIR36 OIII 110200
METAR OIBA 110200Z NIL=
METAR OIBV 110200Z NIL=
METAR OIFS 110200Z 00000KT 1000 SN FEW030 OVC060 M10/M12 Q1020=
METAR OIIP 110200Z NIL=
METAR OIMB 110200Z 14004KT CAVOK M05/M11 Q1022=
METAR OIMN 110200Z 00000KT CAVOK M06/M08 Q1021=
METAR OIMS 110200Z NIL=
METAR OIMT 110200Z NIL=
METAR OIZJ 110200Z 00000KT CAVOK 14/06 Q1021=
0000055200
374
SNVF11 BIRK 110200
BBXX
TFBKF 11024 99635 70202 46/// ///// 22200 10705 70025=
TFBLK 11024 99657 70248 46/// ///// 22200 10908 70039=
TFGRS 11024 99663 70182 46/// ///// 22200 10605 70026=
TFGRV 11024 99638 70225 46/// ///// 22200 10806 70032=
TFGSK 11024 99641 70229 46/// ///// 22200 10807 70034=
TFHFN 11024 99642 70152 46/// ///// 22200 10707 70036=
TFKGR 11024 99657 70136 46/// ///// 22200 10708 70042=
TFSRT 11024 99633 70203 46/// ///// 22200 10908 70042=
TFSTD 11024 99664 70234 46/// ///// 22200 10806 70032=
0000019300
375
ULIN90 VAAH 110000
TTDD 61008 42647 11969 76357 22824 78356 33810 74757 44771 
74557 55725 75157 21212 11965 26556 22934 25557 33846 28064 
44804 28049 55777 26541 66725 26043=

0000049400
376
SAIR37 OIII 110200
METAR OIBL 110200Z 07006KT CAVOK 16/02 Q1020=
METAR OIBQ 110200Z  15014KT 9999 FEW030CB FEW040 OVC090 16/12
 Q1018=
METAR OIIK 110200Z 00000KT CAVOK M01/M05 Q1021=
METAR OIMC 110200Z 00000KT CAVOK 00/M07 Q1023=
METAR OIMD 110200Z 26004KT CAVOK M02/M06 Q1020=
METAR OIMQ 110200Z 00000KT CAVOK M02/M07 Q1024=
METAR OINE 110200Z 00000KT CAVOK 00/M02 Q1019=
METAR OITK 110200Z NIL=
METAR OITM 110200Z 06006KT 0700 FG SCT010 OVC090 M11/M11 Q1021=
0000022000
377
SNVX19 LFVW 110100 RRA
BBXX
MINUK05 1101/ 99604 70002 46/// ///// 10065 49973 54000=
MINUK01 1101/ 99589 70026 46/// ///// 10063 40010 52004=
MINFR00 1101/ 99402 70262 46/// ///// 10138 40026 57044=
0000010000
378
SMAA14 EGRR 110000 RRA
AAXX 11004
89013 46/// /0809 11178 21214 37691 49716 52006=
0000015200
379
SAJD20 OJAI 110200
METAR OJAI 110200Z NIL=
METAR OJAM 110200Z 29006KT 4000 BR NSC 08/06 Q1020 TEMPO 3000 BR=
METAR OJAQ 110200Z NIL=
0000015200
380
SAJD20 OJAM 110200
METAR OJAI 110200Z NIL=
METAR OJAM 110200Z 29006KT 4000 BR NSC 08/06 Q1020 TEMPO 3000 BR=
METAR OJAQ 110200Z NIL=
0000024400
381
SNVD15 KWNB 110200 RRD
BBXX
41009 11021 99285 70802 46/// /1704 10242 20213 40209 53013 90150
22200 00242 10904 20401 307// 40904 70020 333 91205 555 11046
22048 30140 41605 60149 171043 166040 163038 164036 162037 160042=
0000010400
382
SAIN90 VARP 110100
METAR VARP 110100Z 13004KT 1500 BR NSC 16/14 Q1014 BECMG 1800M IN HZ=
0000038400
383
UKAK01 KWBC 110100 RRA
TTBB 61018 70350 00996 02857 11991 02258 22899 04750 33801 09957
44791 10360 55724 16357 66711 17358 77698 18170 88664 21172 99648
22764 11570 30564 22551 32758 33532 33763 44491 37756 55350 52550
66341 50760 77290 51369 88273 50971 99234 46581 11112 48983 22101
46385 31313 51108 80034 41414 ///// 51515 10164 00004 10194 28010
27013=
0000011100
384
UANT99 KDDL 110203
ARP DAL130 4433N04239W 0202 F340 MS51 303/55 KT
N171DZ QXT AOW 110203 F20A
0000013600
385
UACN10 CYKA 110149
VR
UA /OV CYYJ 360010 /TM 0148 /FLDURD /TP B737 /TB MDT 043-070 /RM ACFT ON APASS ARRIVAL INTO CYYJ
0000015700
386
SSVX13 LFPW 110200
ZZYY 44762 11014 0200/ 751171 006238 6113/ 11119 40143 52015 22219
 00106 444 20130 11014 0157/ 50101 80096 80000 9/015=
0000015700
387
SSVX13 LFPW 110200
ZZYY 62714 11014 0200/ 734319 021735 6113/ 11119 40155 57014 22219
 00192 444 20130 11014 0157/ 50101 80100 80000 9/015=
0000015700
388
SSVX13 LFPW 110200
ZZYY 62687 11014 0200/ 166051 001509 6113/ 11119 40059 57005 22219
 00076 444 20130 11014 0157/ 50101 80098 80000 9/015=
0000015700
389
SSVX13 LFPW 110200
ZZYY 62713 11014 0200/ 733829 019621 6113/ 11119 40163 57010 22219
 00182 444 20130 11014 0157/ 50101 80098 80000 9/015=
0000015700
390
SSVX13 LFPW 110200
ZZYY 44624 11014 0200/ 746668 020058 6113/ 11119 40115 57029 22219
 00128 444 20130 11014 0157/ 50101 80098 80013 9/015=
0000015700
391
SSVX13 LFPW 110200
ZZYY 44745 11014 0200/ 745773 050368 6113/ 11119 40258 52002 22219
 00015 444 20130 11014 0058/ 50101 80150 80000 9/015=
00000000