0000663400
686
KSAA32 KWBC 110044
CREX++
T000119 A001 D01021 D06025++
4470286 -07549444 OBGN6 2014 01 10 23 54 //// 00 07 00 06
00449 //// 00448 //// 00447 //// 00446 //// 00446 //// 00446 ////+
4433111 -07593453 ALXN6 2014 01 10 23 54 //// 00 07 00 06
00414 //// 00411 //// 00412 //// 00416 //// 00420 //// 00420 ////+
4262100 -08252690 AGCM4 2014 01 10 23 54 //// 00 07 00 06
00323 //// 00324 //// 00326 //// 00332 //// 00334 //// 00336 ////+
4281240 -08248581 SCRM4 2014 01 10 23 54 //// 00 07 00 06
00383 //// 00385 //// 00384 //// 00380 //// 00365 //// 00359 ////+
4294530 -08244350 PHXM4 2014 01 10 23 54 //// 00 07 00 06
00283 //// 00287 //// 00295 //// 00299 //// 00299 //// 00301 ////+
4297380 -08242040 MBRM4 2014 01 10 23 54 //// 00 07 00 06
00199 //// 00207 //// 00212 //// 00212 //// 00214 //// 00213 ////+
4300250 -08242240 DUPM4 2014 01 10 23 54 //// 00 07 00 06
00070 //// 00075 //// 00075 //// 00079 //// 00080 //// 00071 ////+
4300690 -08242250 FTGM4 2014 01 10 23 54 //// 00 07 00 06
-00052 //// -00049 //// -00049 //// -00044 //// -00046 //// -00058 ////+
4247322 -08287925 SCSM4 2014 01 10 23 54 //// 00 07 00 06
00171 //// 00167 //// 00167 //// 00168 //// 00167 //// 00167 ////+
4209090 -08318600 GRTM4 2014 01 10 23 54 //// 00 07 00 06
00531 //// 00531 //// 00531 //// 00529 //// 00527 //// 00525 ////+
4220240 -08314750 WDTM4 2014 01 10 23 54 //// 00 07 00 06
00431 //// 00429 //// 00429 //// 00428 //// 00429 //// 00429 ////+
4229894 -08309258 FWNM4 2014 01 10 23 54 //// 00 07 00 06
00380 //// 00382 //// 00385 //// 00385 //// 00385 //// 00388 ////+
4235778 -08292994 WMPM4 2014 01 10 23 54 //// 00 07 00 06
00199 //// 00197 //// 00200 //// 00200 //// 00200 //// 00201 ////+
4413019 -07633197 CAVN6 2014 01 10 23 54 //// 00 07 00 06
00401 //// 00400 //// 00401 //// 00401 //// 00401 //// 00401 ////+
4346417 -07651183 OSGN6 2014 01 10 23 54 //// 00 07 00 06
00394 //// 00417 //// 00417 //// 00376 //// 00393 //// 00424 ////+
4326903 -07762575 RCRN6 2014 01 10 23 54 //// 00 07 00 06
00430 //// 00428 //// 00422 //// 00432 //// 00414 //// 00435 ////+
4333839 -07872733 OCTN6 2014 01 10 23 54 //// 00 07 00 06
00432 //// 00444 //// 00428 //// 00415 //// 00438 //// 00434 ////+
4309992 -07905992 NGAN6 2014 01 10 23 54 //// 00 07 00 06
96976 //// 96936 //// 96901 //// 96850 //// 96817 //// 96808 ////+
4308106 -07906136 AMFN6 2014 01 10 23 54 //// 00 07 00 06
170274 //// 170274 //// 170274 //// 170277 //// 170275 //// 170280 ////+
4307692 -07901389 NIAN6 2014 01 10 23 54 //// 00 07 00 06
171435 //// 171429 //// 171424 //// 171437 //// 171427 //// 171425 ////+
4287744 -07889047 BUFN6 2014 01 10 23 54 //// 00 07 00 06
00431 //// 00443 //// 00453 //// 00458 //// 00463 //// 00471 ////+
4269131 -07904733 PSTN6 2014 01 10 23 54 //// 00 07 00 06
00421 //// 00434 //// 00450 //// 00453 //// 00440 //// 00428 ////+
4215400 -08009250 EREP1 2014 01 10 23 54 //// 00 07 00 06
00463 //// 00463 //// 00462 //// 00463 //// 00461 //// 00463 ////+
4175975 -08128106 FAIO1 2014 01 10 23 54 //// 00 07 00 06
00516 //// 00524 //// 00525 //// 00513 //// 00522 //// 00512 ////+
4154086 -08163547 CNDO1 2014 01 10 23 54 //// 00 07 00 06
00477 //// 00482 //// 00475 //// 00471 //// 00471 //// 00471 ////+
4154364 -08273139 MRHO1 2014 01 10 23 54 //// 00 07 00 06
00499 //// 00502 //// 00498 //// 00502 //// 00503 //// 00501 ////+
4169356 -08347228 THRO1 2014 01 10 23 54 //// 00 07 00 06
00547 //// 00549 //// 00552 //// 00554 //// 00555 //// 00555 ////+
4196010 -08325690 FPPM4 2014 01 10 23 54 //// 00 07 00 06
00529 //// 00519 //// 00519 //// 00509 //// 00512 //// 00510 ////+
4314039 -08249389 LKPM4 2014 01 10 23 54 //// 00 07 00 06
-00103 //// -00119 //// -00129 //// -00116 //// -00104 //// -00095 ////+
4384619 -08264311 HRBM4 2014 01 10 23 54 //// 00 07 00 06
-00102 //// -00090 //// -00082 //// -00084 //// -00097 //// -00110 ////+
4364040 -08384680 ESVM4 2014 01 10 23 54 //// 00 07 00 06
-00042 //// -00040 //// -00035 //// -00030 //// -00025 //// -00018 ////+
4506300 -08342860 LPNM4 2014 01 10 23 54 //// 00 07 00 06
-00133 //// -00123 //// -00118 //// -00099 //// -00074 //// -00076 ////+
4577789 -08472533 MACM4 2014 01 10 23 54 //// 00 07 00 06
-00075 //// -00079 //// -00071 //// -00081 //// -00080 //// -00094 ////+
4599250 -08389820 DTLM4 2014 01 10 23 54 //// 00 07 00 06
-00075 //// -00079 //// -00086 //// -00078 //// -00073 //// -00084 ////+
4626480 -08419120 RCKM4 2014 01 10 23 54 //// 00 07 00 06
-00042 //// -00043 //// -00042 //// -00041 //// -00040 //// -00039 ////+
4628469 -08420981 WNEM4 2014 01 10 23 54 //// 00 07 00 06
00217 //// 00217 //// 00216 //// 00217 //// 00216 //// 00216 ////+
4648572 -08430183 LTRM4 2014 01 10 23 54 //// 00 07 00 06
00503 //// 00497 //// 00490 //// 00495 //// 00494 //// 00499 ////+
4650100 -08434030 USSM4 2014 01 10 23 54 //// 00 07 00 06
00485 //// 00486 //// 00488 //// 00489 //// 00486 //// 00480 ////+
4650111 -08437261 SWPM4 2014 01 10 23 54 //// 00 07 00 06
-00017 //// 00007 //// 00006 //// 00013 //// 00011 //// 00022 ////+
4394736 -08644161 LDTM4 2014 01 10 23 54 //// 00 07 00 06
-00021 //// -00018 //// 00000 //// 00032 //// 00066 //// 00085 ////+
4276811 -08620119 HLNM4 2014 01 10 23 54 //// 00 07 00 06
-00003 //// 00001 //// -00024 //// -00018 //// -00026 //// -00007 ////+
4172986 -08753839 CMTI2 2014 01 10 23 54 //// 00 07 00 06
-00030 //// -00085 //// -00047 //// -00061 //// -00084 //// -00040 ////+
4300200 -08788760 MLQW3 2014 01 10 23 54 //// 00 07 00 06
00045 //// 00072 //// 00013 //// -00041 //// -00032 //// 00002 ////+
4446397 -08750103 KWNW3 2014 01 10 23 54 //// 00 07 00 06
00025 //// 00000 //// 00006 //// -00001 //// -00023 //// -00005 ////+
4479558 -08731433 SBCW3 2014 01 10 23 54 //// 00 07 00 06
00003 //// 00010 //// 00004 //// -00014 //// -00007 //// -00002 ////+
4454106 -08800719 GBWW3 2014 01 10 23 54 //// 00 07 00 06
-00009 //// -00007 //// -00006 //// -00007 //// -00010 //// -00013 ////+
4509589 -08758994 MNMM4 2014 01 10 23 54 //// 00 07 00 06
-00025 //// -00035 //// -00040 //// -00047 //// -00055 //// -00044 ////+
4596989 -08587150 PNLM4 2014 01 10 23 54 //// 00 07 00 06
-00040 //// -00042 //// -00016 //// -00042 //// -00046 //// -00033 ////+
4648450 -08463089 PTIM4 2014 01 10 23 54 //// 00 07 00 06
00043 //// 00034 //// 00033 //// 00032 //// 00031 //// 00050 ////+
4654558 -08737908 MCGM4 2014 01 10 23 54 //// 00 07 00 06
00112 //// 00141 //// 00126 //// 00099 //// 00095 //// 00112 ////++
7777

0000450500
687
KSAB31 KWBC 110044
CREX++
T000119 A001 D01021 D06025++
3002717 -09011342 NWCL1 2014 01 10 23 54 2830 00 07 00 06
00086 0201 00085 0199 00084 0198 00086 0199 00089 0201 00092 0204+
2911425 -09019925 PTFL1 2014 01 10 23 54 //// 00 07 00 06
///// //// 00483 0202 00483 0203 00482 0202 00486 0207 00478 0200+
2978856 -09042019 BYGL1 2014 01 10 23 54 2826 00 07 00 06
-90418 //// -90416 //// -90415 //// -90412 //// -90415 //// -90415 ////+
2966750 -09123761 TESL1 2014 01 10 23 54 2786 00 07 00 06
00190 0073 00194 0077 00196 0079 00190 0073 00193 0076 00192 0075+
2944958 -09133811 AMRL1 2014 01 10 23 54 2821 00 07 00 06
00427 0071 00432 0075 00437 0080 00440 0082 00436 0077 00442 0083+
2955500 -09230500 FRWL1 2014 01 10 23 54 2812 05 07 00 06
00652 0171 00654 0174 00686 0208 00703 0226 00687 0211 00664 0189+
3022364 -09322167 LCLL1 2014 01 10 23 54 2840 00 07 00 06
00399 0067 00398 0065 00399 0066 00401 0068 00402 0069 00401 0067+
3019031 -09330069 BKTL1 2014 01 10 23 54 2839 00 07 00 06
00391 0048 00392 0048 00392 0046 00394 0047 00393 0045 00396 0047+
2976817 -09334289 CAPL1 2014 01 10 23 54 2825 00 07 00 06
00486 0113 00490 0116 00505 0131 00508 0132 00514 0137 00528 0149+
2986670 -09393000 PORT2 2014 01 10 23 54 2828 00 07 00 06
00255 0149 00225 0119 00271 0166 00283 0178 00280 0176 00260 0156+
2998000 -09388170 RBBT2 2014 01 10 23 54 //// 00 07 00 06
00258 0141 00280 0162 00267 0149 00277 0159 00290 0171 00286 0167+
2972840 -09387010 SBPT2 2014 01 10 23 54 2824 00 07 00 06
00426 0185 00419 0179 00431 0191 00430 0191 00438 0199 00436 0198+
2968170 -09498500 MGPT2 2014 01 10 23 54 2813 00 07 00 06
00269 0098 00315 0142 00324 0148 00343 0165 00336 0155 00331 0148+
2972628 -09526581 NCHT2 2014 01 10 23 54 2874 00 07 00 06
00398 //// 00404 //// 00411 //// 00413 //// 00418 //// ///// ////+
2968928 -09384181 TXPT2 2014 01 10 23 54 2828 00 07 00 06
00523 0235 00530 0242 00535 0248 00528 0241 00526 0239 00515 0228+
2951500 -09451330 RLOT2 2014 01 10 23 54 2855 00 07 00 06
00343 0120 00356 0132 00362 0137 00362 0136 00367 0139 00369 0141+
2948000 -09491830 EPTT2 2014 01 10 23 54 //// 05 07 00 06
00384 0283 00409 0306 00383 0279 00383 0278 00381 0274 00414 0306+
2935733 -09472483 GNJT2 2014 01 10 23 54 2833 00 07 00 06
00457 0188 00461 0193 00465 0198 00473 0206 00479 0212 00474 0207+
2931000 -09479330 GTOT2 2014 01 10 23 54 2836 00 07 00 06
00392 0152 00405 0166 00405 0167 00419 0183 00409 0174 00397 0163+
2894331 -09530250 FCGT2 2014 01 10 23 54 2848 00 07 00 06
00495 0175 00467 0149 00452 0137 00448 0135 00429 0118 00424 0115+
2840830 -09671170 SDRT2 2014 01 10 23 54 2874 00 07 00 06
-00020 0064 -00016 0068 -00020 0064 -00015 0069 -00021 0062 -00018 0065+
2864000 -09659500 VCAT2 2014 01 10 23 54 2856 00 07 00 06
00161 0088 00164 0089 00164 0087 00167 0087 00176 0094 00181 0097+
2845170 -09638830 PCNT2 2014 01 10 23 54 //// 00 07 00 06
00163 //// 00165 //// 00170 //// 00173 //// 00171 //// 00171 ////+
2811830 -09702170 CPNT2 2014 01 10 23 54 2838 00 07 00 06
00025 0094 00026 0095 00027 0095 00026 0093 00026 0092 00027 0093+
2802170 -09704670 RCPT2 2014 01 10 23 54 2866 00 07 00 06
00041 0087 00044 0089 00047 0091 00049 0093 00051 0094 00052 0094+
2783830 -09707330 RTAT2 2014 01 10 23 54 2852 00 07 00 06
00231 //// 00243 //// 00259 //// 00236 //// 00244 //// 00233 ////+
2782170 -09720330 NGLT2 2014 01 10 23 54 2848 00 07 00 06
00048 -0003 00073 0022 -00019 -0071 00049 -0004 00049 -0005 00068 0013+
2763330 -09723670 PACT2 2014 01 10 23 54 2872 00 07 00 06
00048 0088 00049 0088 00051 0090 00052 0090 00055 0092 00060 0097+
2758000 -09721670 MQTT2 2014 01 10 23 54 2863 00 07 00 06
00409 0098 00409 0100 00405 0097 00389 0082 00385 0079 00374 0069+
2748000 -09732170 IRDT2 2014 01 10 23 54 2876 00 07 00 06
-99380 //// -99378 //// -99380 //// -99378 //// -99377 //// -99373 ////+
2729500 -09740500 BABT2 2014 01 10 23 54 2880 00 07 00 06
-95845 //// -95845 //// -95847 //// -95846 //// -95846 //// -95846 ////+
2682500 -09749170 RSJT2 2014 01 10 23 54 //// 00 07 00 06
-98838 //// -98844 //// -98849 //// -98852 //// -98854 //// -98858 ////+
2607670 -09717670 PCGT2 2014 01 10 23 54 2888 00 07 00 06
00380 0005 00379 0005 00379 0005 00381 0008 00372 0000 00372 0000+
2606000 -09721500 PTIT2 2014 01 10 23 54 2875 00 07 00 06
00367 0080 00370 0084 00372 0087 00374 0091 00378 0096 00378 0097++
7777

0000343800
688
KSAA31 KWBC 110044
CREX++
T000119 A001 D01021 D06025++
2664770 -08187120 FMRF1 2014 01 10 23 54 2900 05 07 00 06
00355 0236 00360 0236 00365 0235 00368 0233 00372 0231 00381 0234+
2763870 -08256210 PMAF1 2014 01 10 23 54 2885 00 07 00 06
00732 0247 00735 0244 00736 0240 00740 0239 00745 0239 00752 0241+
2776060 -08262690 SAPF1 2014 01 10 23 54 2901 00 07 00 06
00705 0226 00712 0226 00714 0221 00719 0219 00728 0221 00730 0217+
2785778 -08255269 OPTF1 2014 01 10 23 54 2902 05 07 00 06
00702 0308 00708 0305 00717 0306 00726 0306 00732 0303 00742 0305+
2797830 -08283170 CWBF1 2014 01 10 23 54 2878 00 07 00 06
00890 0200 00904 0213 00901 0210 00916 0226 00913 0223 00911 0223+
2913500 -08303170 CKYF1 2014 01 10 23 54 2853 05 07 00 06
01048 0224 01064 0227 01078 0228 01093 0231 01110 0235 01119 0232+
2972670 -08498170 APCF1 2014 01 10 23 54 2828 00 07 00 06
00466 0196 00471 0198 00473 0196 00468 0187 00474 0189 00477 0188+
3015228 -08566694 PACF1 2014 01 10 23 54 2849 00 07 00 06
00527 0217 00524 0214 00529 0219 00525 0216 00530 0222 00531 0224+
3021330 -08587830 PCBF1 2014 01 10 23 54 2865 05 07 00 06
00518 0242 00520 0244 00525 0250 00541 0267 00532 0258 00519 0247+
3040440 -08721120 PCLF1 2014 01 10 23 54 2819 00 07 00 06
00448 0148 00449 0148 00451 0149 00454 0151 00460 0156 00462 0157+
3041670 -08782500 WBYA1 2014 01 10 23 54 2828 00 07 00 06
00557 0192 00557 0191 00558 0191 00560 0193 00555 0188 00551 0184+
3025000 -08807500 DILA1 2014 01 10 23 54 2853 00 07 00 06
00448 0165 00446 0162 00454 0169 00451 0166 00448 0162 00457 0171+
3056517 -08808800 BYSA1 2014 01 10 23 54 //// 00 07 00 06
00584 0221 00588 0223 00594 0228 00597 0229 00596 0227 00598 0228+
3044369 -08811392 EFRA1 2014 01 10 23 54 //// 00 07 00 06
00552 0229 00546 0221 00550 0224 00560 0232 00560 0231 00561 0231+
3064830 -08805830 MCGA1 2014 01 10 23 54 2822 00 07 00 06
00586 0167 00587 0166 00584 0161 00597 0173 00596 0170 00605 0178+
3070830 -08804330 OBLA1 2014 01 10 23 54 2814 00 07 00 06
00576 0200 00579 0201 00585 0205 00587 0205 00589 0206 00589 0204+
3078189 -08807361 CIKA1 2014 01 10 23 54 //// 00 07 00 06
00635 0152 00641 0155 00647 0158 00652 0160 00658 0164 ///// ////+
3037664 -08815856 WFRA1 2014 01 10 23 54 //// 00 07 00 06
00562 0223 00562 0225 00559 0224 00555 0222 00549 0218 ///// ////+
3040567 -08824769 BLBA1 2014 01 10 23 54 //// 00 07 00 06
00557 0205 00554 0204 00551 0202 00555 0207 00561 0214 ///// ////+
3034770 -08850540 ULAM6 2014 01 10 23 54 2832 00 07 00 06
00562 0287 00558 0284 00556 0284 00554 0284 00558 0289 00556 0289+
3036790 -08856300 PNLM6 2014 01 10 23 54 2838 00 07 00 06
00555 0093 00555 0094 00554 0095 00554 0097 00553 0097 00551 0097+
3032639 -08932578 WYCM6 2014 01 10 23 54 2805 00 07 00 06
00644 0255 00649 0259 00655 0263 00659 0266 00664 0270 00668 0274+
2917830 -08925830 PILL1 2014 01 10 23 54 2794 00 07 00 06
00487 0181 00491 0184 00492 0184 00494 0185 00493 0182 00497 0186+
2893220 -08940750 PSTL1 2014 01 10 23 54 2802 05 07 00 06
00623 0376 00618 0373 00627 0383 00635 0392 00618 0377 00620 0381+
2986811 -08967325 SHBL1 2014 01 10 23 54 2798 00 07 00 06
00442 0102 00445 0101 00449 0102 00451 0100 00457 0102 00461 0102+
2926333 -08995667 GISL1 2014 01 10 23 54 2873 00 07 00 06
00403 0201 00413 0211 00409 0207 00406 0204 00405 0203 00406 0205++
7777

0000022800
689
KSAB30 KWBC 110044 RRA
CREX++
T000119 A001 D01021 D06021++
4677570 -09209200 DULM5 2014 01 11 00 00 00 07 -031 10009 328 0002+
4774783 -09034133 GDMM5 2014 01 11 00 00 00 07 -018 10025 /// ////++
7777

0000216700
690
KSAA32 KWBC 110044 RRA
CREX++
T000119 A001 D01021 D06021++
4470286 -07549444 OBGN6 2014 01 11 00 00 00 07 001 10227 /// ////+
4433111 -07593453 ALXN6 2014 01 11 00 00 00 07 /// 10223 /// ////+
4262100 -08252690 AGCM4 2014 01 11 00 00 00 07 029 10129 /// ////+
4297380 -08242040 MBRM4 2014 01 11 00 00 00 07 025 10123 /// ////+
4300690 -08242250 FTGM4 2014 01 11 00 00 00 07 024 10125 268 0045+
4346417 -07651183 OSGN6 2014 01 11 00 00 00 07 017 10216 155 0047+
4326903 -07762575 RCRN6 2014 01 11 00 00 00 07 043 10205 /// ////+
4307692 -07901389 NIAN6 2014 01 11 00 00 00 07 038 10187 /// ////+
4287744 -07889047 BUFN6 2014 01 11 00 00 00 07 042 10193 206 0019+
4269131 -07904733 PSTN6 2014 01 11 00 00 00 07 045 10187 /// ////+
4175975 -08128106 FAIO1 2014 01 11 00 00 00 07 056 10150 /// ////+
4154086 -08163547 CNDO1 2014 01 11 00 00 00 07 052 10154 152 0026+
4154364 -08273139 MRHO1 2014 01 11 00 00 00 07 034 10146 121 0017+
4169356 -08347228 THRO1 2014 01 11 00 00 00 07 030 10128 160 0045+
4384619 -08264311 HRBM4 2014 01 11 00 00 00 07 010 10119 168 0055+
4506300 -08342860 LPNM4 2014 01 11 00 00 00 07 -004 10106 171 0044+
4577789 -08472533 MACM4 2014 01 11 00 00 00 07 -017 10085 109 0039+
4599250 -08389820 DTLM4 2014 01 11 00 00 00 07 -007 10099 158 0068+
4626480 -08419120 RCKM4 2014 01 11 00 00 00 07 /// 10092 121 0046+
4628469 -08420981 WNEM4 2014 01 11 00 00 00 07 -015 10093 136 0031+
4648572 -08430183 LTRM4 2014 01 11 00 00 00 07 -014 10092 132 0049+
4650111 -08437261 SWPM4 2014 01 11 00 00 00 07 -017 10091 131 0037+
4394736 -08644161 LDTM4 2014 01 11 00 00 00 07 015 10067 116 0047+
4276811 -08620119 HLNM4 2014 01 11 00 00 00 07 044 10067 134 0072+
4172986 -08753839 CMTI2 2014 01 11 00 00 00 07 044 10060 177 0046+
4446500 -08749572 KWNW3 2014 01 11 00 00 00 07 009 10054 147 0088+
4509589 -08758994 MNMM4 2014 01 11 00 00 00 07 005 ///// /// ////+
4596989 -08587150 PNLM4 2014 01 11 00 00 00 07 -010 10075 133 0076+
4648450 -08463089 PTIM4 2014 01 11 00 00 00 07 -021 10085 114 0053+
4654558 -08737908 MCGM4 2014 01 11 00 00 00 07 -023 10048 187 0044++
7777

0000222700
691
KSAB31 KWBC 110044 RRA
CREX++
T000119 A001 D01021 D06021++
3002717 -09011342 NWCL1 2014 01 11 00 00 00 07 129 10145 139 0005+
2978856 -09042019 BYGL1 2014 01 11 00 00 00 07 151 10134 094 0011+
2966750 -09123761 TESL1 2014 01 11 00 00 00 07 184 10133 153 0027+
2944958 -09133811 AMRL1 2014 01 11 00 00 00 07 155 10134 121 0016+
2955500 -09230500 FRWL1 2014 01 11 00 00 00 07 131 10123 121 0044+
3022364 -09322167 LCLL1 2014 01 11 00 00 00 07 178 10117 /// ////+
2976817 -09334289 CAPL1 2014 01 11 00 00 00 07 136 10119 156 0053+
2986670 -09393000 PORT2 2014 01 11 00 00 00 07 /// 10103 166 0035+
2972840 -09387010 SBPT2 2014 01 11 00 00 00 07 171 10100 176 0064+
2968170 -09498500 MGPT2 2014 01 11 00 00 00 07 156 10100 196 0024+
2972628 -09526581 NCHT2 2014 01 11 00 00 00 07 201 10115 /// ////+
2968928 -09384181 TXPT2 2014 01 11 00 00 00 07 149 10105 159 0078+
2951500 -09451330 RLOT2 2014 01 11 00 00 00 07 175 10101 163 0049+
2948000 -09491830 EPTT2 2014 01 11 00 00 00 07 163 10102 187 0060+
2935733 -09472483 GNJT2 2014 01 11 00 00 00 07 151 10091 193 0070+
2931000 -09479330 GTOT2 2014 01 11 00 00 00 07 171 10118 /// ////+
2894331 -09530250 FCGT2 2014 01 11 00 00 00 07 156 10101 199 0037+
2840830 -09671170 SDRT2 2014 01 11 00 00 00 07 149 10101 159 0022+
2864000 -09659500 VCAT2 2014 01 11 00 00 00 07 182 10095 180 0058+
2845170 -09638830 PCNT2 2014 01 11 00 00 00 07 /// ///// 188 0033+
2811830 -09702170 CPNT2 2014 01 11 00 00 00 07 171 10107 176 0019+
2802170 -09704670 RCPT2 2014 01 11 00 00 00 07 165 10096 200 0032+
2783830 -09707330 RTAT2 2014 01 11 00 00 00 07 183 10097 169 0052+
2782170 -09720330 NGLT2 2014 01 11 00 00 00 07 157 10100 176 0047+
2763330 -09723670 PACT2 2014 01 11 00 00 00 07 188 10098 160 0058+
2758000 -09721670 MQTT2 2014 01 11 00 00 00 07 160 10090 165 0069+
2748000 -09732170 IRDT2 2014 01 11 00 00 00 07 176 10102 173 0064+
2729500 -09740500 BABT2 2014 01 11 00 00 00 07 174 10098 161 0057+
2682500 -09749170 RSJT2 2014 01 11 00 00 00 07 /// ///// 178 0043+
2607670 -09717670 PCGT2 2014 01 11 00 00 00 07 215 10112 173 0058+
2606000 -09721500 PTIT2 2014 01 11 00 00 00 07 218 10112 /// ////++
7777

0000167500
692
KSAA31 KWBC 110044 RRA
CREX++
T000119 A001 D01021 D06021++
2664770 -08187120 FMRF1 2014 01 11 00 00 00 07 228 10182 071 0019+
2763870 -08256210 PMAF1 2014 01 11 00 00 00 07 203 10179 /// ////+
2766175 -08259953 MTBF1 2014 01 11 00 00 00 07 205 10185 022 0008+
2776060 -08262690 SAPF1 2014 01 11 00 00 00 07 225 10193 162 0001+
2785778 -08255269 OPTF1 2014 01 11 00 00 00 07 212 10183 273 0002+
2797830 -08283170 CWBF1 2014 01 11 00 00 00 07 230 10182 197 0026+
2913500 -08303170 CKYF1 2014 01 11 00 00 00 07 195 10185 247 0016+
2972670 -08498170 APCF1 2014 01 11 00 00 00 07 148 10174 047 0013+
3015228 -08566694 PACF1 2014 01 11 00 00 00 07 184 10168 127 0028+
3021330 -08587830 PCBF1 2014 01 11 00 00 00 07 170 10169 122 0066+
3040440 -08721120 PCLF1 2014 01 11 00 00 00 07 144 10163 067 0018+
3022830 -08802500 FMOA1 2014 01 11 00 00 00 07 144 10146 107 0098+
3025000 -08807500 DILA1 2014 01 11 00 00 00 07 105 10159 094 0026+
3064830 -08805830 MCGA1 2014 01 11 00 00 00 07 150 10143 119 0007+
3070830 -08804330 OBLA1 2014 01 11 00 00 00 07 152 10150 /// ////+
3021330 -08850000 PTBM6 2014 01 11 00 00 00 07 133 10144 113 0036+
3034330 -08851170 RARM6 2014 01 11 00 00 00 07 157 10144 100 0042+
3035500 -08856670 DKCM6 2014 01 11 00 00 00 07 151 10147 096 0040+
3032639 -08932578 WYCM6 2014 01 11 00 00 00 07 125 10136 135 0010+
2917830 -08925830 PILL1 2014 01 11 00 00 00 07 194 10141 150 0027+
2893220 -08940750 PSTL1 2014 01 11 00 00 00 07 165 10145 158 0060+
2986811 -08967325 SHBL1 2014 01 11 00 00 00 07 134 10140 081 0013+
2926333 -08995667 GISL1 2014 01 11 00 00 00 07 161 10142 135 0016++
7777

0000015400
693
SMAU40 AMMC 110000 RRA
AAXX 11004
94289 46/// /1023 10285 30098 40105 50003 90015=
94379 46/// /1120 10265 30137 40146 51004 90026=

0000028000
694
SMVD15 KWNB 110000 RRO
BBXX
41051 11001 99183 70650 46/// /0707 10259 90030 333 91208 555
11081 22089=
41051 11001 99183 70650 46/// /0707 10259 90020 333 91209 555
11083 22090=
41051 11001 99183 70650 46/// /0708 10259 90010 333 91209 555
11090 22098=
0000121200
695
SMCN04 KWBC 110000
AAXX 11004
71464 45/// /1414 10034 20023 39958 40174 56017 6///1 333 10036
21028 7////=
71923 17/// ///// 11324 21355 39597 40069 50010 69931 7//4/ 333
11312 21343 70003=
71277 15/// /2504 11063 21094 60001 333 11012 21082 70000=
71408 45/// /2632 11033 21086 30136 40217 58007 6///1 333 11029
21088 7////=
71417 15/// /2913 11061 21078 30106 40141 57007 60001 333 11047
21164 70000=
71418 45/// /2529 11025 21055 30203 40236 53012 6///1 333 11025
21086 7////=
71462 45/// /1813 10007 21001 39892 40118 58023 6///1 333 10007
21054 7////=
71466 45/// ///// 10024 39898 40137 56030 6///1 333 10026 21016
7////=
71490 15/// ///// 11287 21314 39722 40061 58001 60001 333 11287
21340 70002=
71504 45/// ///// 11056 21085 6///1 333 10003 21121 7////=
71592 17/// /3504 11263 21292 39865 49878 52021 69921 7//4/ 333
11197 21279 70011=
71692 45/// /2610 11029 21080 30192 40226 57004 6///1 333 11029
21097 7////=
71761 15/// ///// 11072 21078 60001 333 11040 21153 7////=
71841 17/// /1302 11062 21075 39617 40017 58012 69901 7//4/ 333
11061 21087 70005=
71963 15/// /1707 11275 21302 39617 40038 58006 60001 333 11275
21357 70000=
0000049900
696
SMVS01 KWBC 110000
AAXX 11001
48808 11410 80000 10120 20116 39928 40222 52011 69932 76062 888//
333 01013 20115 3/013 59016 8489 4 88696 96010 96160=
48826 31530 73603 10160 20151 30075 40214 53012 71022 878// 333
00016 20158 3/015 59016 84895 8769 7=
48830 11420 83201 10116 20108 39908 40225 53014 69901 71062 888//
333 01012 20113 3/012 59016 8389 4 88697=
48839 32696 60703 10192 20188 30144 40210 53015 83508 222// 00190
2//01 333 00/// 20168 59009 8369 6 86299=
0000014600
697
SNVD20 KWNB 102300 RRW
BBXX
44040 10231 99410 70736 46/// /0503 10011 20010 92319 22200 1//00
70001 333 91203 555 11031 22036=
0000373900
698
SMCI01 KWBC 110000
AAXX 11001
51711 32980 02703 11139 21198 38095 57005 333 00752=
51730 31950 01801 11179 21207 40474 52004 705// 333 00751=
52112 31924 01101 11175 21229 40463 52005 705// 333 00651=
52737 32980 20701 11149 21232 37106 52007 82/// 333 00653=
52787 32980 03407 11188 21247 37033 52007 333 00354=
53352 42956 42202 11155 21243 40382 52002 84/// 333 00104=
53593 32912 02201 11168 21231 40384 52002 333 00201=
53705 32961 02202 11111 21220 40413 52012 333 00554=
53863 41925 73201 11100 21160 40363 52003 705// 87/// 333 00100=
53975 41955 72701 11041 21117 40344 52007 705// 87/// 333 00202=
54273 31917 03401 11209 21245 40321 52005 705// 333 00105 31037
92513=
54324 32965 41802 11154 21235 40323 52001 84/// 333 00101=
54405 42961 01802 11108 21227 40353 52003 333 00102=
54436 31931 00000 11149 21202 40338 52005 705// 333 00102=
54808 41915 71602 11022 21049 40332 52003 710// 87/// 333 00100=
54826 32980 73204 11060 21278 38524 52001 87/// 333 00203=
54836 41913 50000 11060 21074 39960 40353 52006 710// 85/// 333
00101=
54863 31918 80000 11030 21056 40340 52005 710// 88/// 333 00102
31041=
56018 32980 70901 11107 21246 36148 52012 87/// 333 00355=
56021 32780 80000 11145 21246 36051 52007 88/// 333 00453=
57071 31956 73201 11005 21063 40341 52008 705// 87/// 333 00301
31042=
50548 31908 03401 11366 21402 39898 40309 52008 705// 333 00352
92504=
50564 32930 20000 11356 21401 40282 52011 82/// 333 00351 92517=
50658 33/// 90000 11332 21371 40291 52007 333 00351=
50888 32958 00000 11226 21252 40251 57005 333 00252 92531=
50983 32965 63201 11233 21258 40264 57002 86/// 333 00100 92506=
51053 32980 40905 11173 21220 40455 57010 84/// 333 00301 92501=
51334 31921 52002 11247 21279 30025 40484 57008 705// 85/// 333
00352 79999 92504=
51542 32980 02901 11392 21430 37650 57003 333 00453 92504=
51818 32963 60000 11134 21169 40446 57003 86/// 333 00654=
52378 42980 02207 11132 21221 40431 52010 333 00404=
52436 32980 02703 11127 21223 38596 40457 52011 333 00701=
52908 32980 62502 11185 21249 35731 52004 86/// 333 00401=
52996 32980 73607 11145 21230 37603 52012 87/// 333 00553=
53083 42958 60201 11225 21275 40377 52005 86/// 333 00205=
53487 32965 23202 11199 21264 40409 52001 82/// 333 00100=
53502 42980 72204 11147 21240 39117 40422 52013 87/// 333 00303=
53764 32970 03601 11107 21196 39196 40383 52003 333 00201=
53787 42964 73601 11110 21185 40362 52005 87/// 333 00102=
53923 32980 23404 11066 21216 38671 40363 52011 82/// 333 00551=
54049 32970 00000 11158 21245 40287 57004 333 00002 92501=
54096 32970 02702 11197 21233 39518 40271 57004 333 00103 31026
92520=
54115 32961 03402 11197 21269 40333 57001 333 00103=
54157 32914 01601 11150 21221 40303 57003 333 00101 92507=
54186 32962 02204 11144 21228 40292 57001 333 00103 92507=
54226 32603 20000 11197 21248 40325 57002 82/// 333 00102 92501=
54259 32962 01601 11209 21234 40339 52007 333 00102 92504=
54311 32980 00701 11199 21255 40361 52002 333 00104=
54346 31955 01102 11156 21190 30083 40332 52003 705// 333 00102
92506=
54377 42965 03602 11186 21216 40357 52009 333 00103 31037 92511=
54386 32970 03401 11235 21276 40361 52009 333 00204 92511=
54493 31957 00901 11176 21195 40343 52005 710// 333 00102=
54527 31915 71101 11079 21091 40328 52004 710// 87/// 333 00000=
54534 31906 00000 11124 21138 40325 57001 742// 333 00001=
54715 41/00 90000 11065 21068 40332 52002 749// 333 00151=
54929 41912 72001 11034 21048 40346 52007 710// 87/// 333 00101=
54945 42960 72701 11014 21049 30296 40344 52005 87/// 333 00001
31049=
56065 32675 80000 11183 21224 36616 52008 88/// 333 00658=
0000187100
699
SMCI01 KWBC 110000 RRA
AAXX 11001
57193 31955 70701 10011 21039 40331 52005 705// 87/// 333 00201
31026=
57290 31929 82501 10013 21014 40330 52009 710// 88/// 333 00202
31001=
56671 32980 00000 10014 21029 38219 52013 333 00201 31019=
57378 11420 83202 10032 20019 40327 52010 69911 710// 88/// 333
00451 30027 70003=
57426 31714 80201 10047 20040 40300 52017 710// 88/// 333 00551=
57476 11959 83602 10034 20013 30281 40323 52015 69911 710// 88///
333 00351 30031 70030=
57584 11462 80204 10034 20028 40314 52016 60011 760// 88/// 333
00352 30037 70032=
57598 11637 83601 10037 20033 40305 52014 60041 760// 88/// 333
00002 30040 70108=
57655 12960 80202 10038 20008 40320 52014 69941 88/// 333 00300
30036 70062=
57776 11/00 93603 11027 21028 40304 52016 60032 766// 333 00151
31002 70036 93431=
58321 31950 80402 10035 20002 30287 40323 52012 705// 88/// 333
05107 30027=
58437 11/00 92203 11013 21016 38200 52009 60021 770// 333 00001
70069 92507=
58556 11610 82202 10042 20038 40319 52010 60031 760// 88/// 333
05306 30025 70028=
58569 11473 80405 10076 20051 40305 52003 69902 760// 88/// 333
05305 30031 79999=
58646 31656 80000 10081 20041 40297 52009 705// 88/// 333 05408=
58715 31930 83603 10067 20045 40283 52011 710// 88/// 333 05203=
58730 32735 80000 10079 20050 40287 52010 88/// 333 05204=
58731 31655 70401 10074 20038 40285 52007 705// 87/// 333 05306=
58754 32669 80201 10088 20032 40299 52004 88/// 333 05404=
58911 31933 12901 10079 20068 40278 52016 710// 81/// 333 05101=
58931 32970 02209 10058 20054 38409 52009 333 00106 30011=
59254 11657 83601 10142 20114 30191 40244 52014 69951 710// 88///
333 05204 70005=
59632 11756 80401 10154 20138 40229 52015 69921 710// 88/// 333
05104 70002=
59855 32567 70901 10209 20188 40213 52017 87/// 333 05102 70001=
0000066100
700
UDAF01 FAPR 110039
AMDAR 1100
LVR AFZA24 0318N 00935W 102350 F370 MS522 292/040 TB0 S031 333 F/// VG013=
LVR AFZA24 0228N 00904W 102357 F370 MS517 292/045 TB0 S031 333 F/// VG013=
LVR AFZA24 0138N 00833W 110004 F370 MS517 293/037 TB0 S031 333 F/// VG013=
LVR AFZA24 0049N 00802W 110011 F370 MS517 285/039 TB0 S031 333 F/// VG013=
LVR AFZA24 0002N 00727W 110018 F370 MS517 297/038 TB0 S031 333 F/// VG012=
LVR AFZA24 0039S 00648W 110025 F370 MS519 302/027 TB0 S031 333 F/// VG012=
LVR AFZA24 0122S 00609W 110032 F370 MS512 309/023 TB0 S031 333 F/// VG012=
LVR AFZA24 0204S 00530W 110039 F370 MS525 324/018 TB0 S031 333 F/// VG012=
0000066100
701
UDAF01 FAPR 110043
AMDAR 1100
LVR AFZA25 0556S 07528E 102353 F370 MS495 118/022 TB0 S031 333 F/// VG012=
LVR AFZA25 0534S 07617E 110001 F370 MS497 108/027 TB0 S031 333 F/// VG012=
LVR AFZA25 0510S 07703E 110008 F370 MS495 112/022 TB0 S031 333 F/// VG012=
LVR AFZA25 0449S 07752E 110015 F370 MS492 117/025 TB0 S031 333 F/// VG012=
LVR AFZA25 0428S 07840E 110022 F370 MS492 106/025 TB0 S031 333 F/// VG012=
LVR AFZA25 0407S 07929E 110029 F370 MS492 101/020 TB0 S031 333 F/// VG012=
LVR AFZA25 0345S 08017E 110036 F370 MS485 085/017 TB0 S031 333 F/// VG012=
LVR AFZA25 0324S 08106E 110043 F370 MS487 106/018 TB0 S031 333 F/// VG012=
0000066100
702
UDAF01 FAPR 110041
AMDAR 1100
LVR AFZA62 3513N 00633E 102350 F350 MS570 237/044 TB0 S031 333 F/// VG000=
LVR AFZA62 3422N 00641E 102358 F350 MS552 242/060 TB0 S031 333 F/// VG000=
LVR AFZA62 3330N 00653E 110005 F350 MS550 248/065 TB0 S031 333 F/// VG000=
LVR AFZA62 3239N 00705E 110012 F350 MS535 247/078 TB0 S031 333 F/// VG000=
LVR AFZA62 3148N 00716E 110019 F370 MS565 239/092 TB0 S031 333 F/// VG000=
LVR AFZA62 3059N 00727E 110026 F370 MS570 240/095 TB0 S031 333 F/// VG000=
LVR AFZA62 3009N 00737E 110033 F370 MS570 247/092 TB0 S031 333 F/// VG000=
LVR AFZA62 2919N 00748E 110040 F370 MS570 242/088 TB0 S031 333 F/// VG000=
0000066100
703
UDAF01 FAPR 110039
AMDAR 1100
LVR AFZA50 0815S 01330E 102348 F350 MS445 053/009 TB0 S031 333 F/// VG011=
LVR AFZA50 0901S 01357E 102356 F350 MS445 073/013 TB0 S031 333 F/// VG011=
LVR AFZA50 0947S 01424E 110003 F350 MS442 085/016 TB0 S031 333 F/// VG011=
LVR AFZA50 1029S 01456E 110010 F370 MS495 063/019 TB0 S031 333 F/// VG010=
LVR AFZA50 1105S 01533E 110017 F370 MS497 070/023 TB0 S031 333 F/// VG011=
LVR AFZA50 1142S 01611E 110024 F370 MS492 056/018 TB0 S031 333 F/// VG011=
LVR AFZA50 1218S 01649E 110031 F370 MS490 062/028 TB0 S031 333 F/// VG011=
LVR AFZA50 1259S 01723E 110038 F370 MS490 061/024 TB0 S031 333 F/// VG011=
0000017000
704
SOVI10 KWAL 110046
B110070A 011004601 P9751095 B\P~W@@j0ek@1@qg???CzC|>@qd3@OD@@]4C?5DC6bT9HY<BM2?????@"??? nT@kLBnBqBrBmBoBq:AMPTEMP 28.37C  47-0NN 219E
0000020300
705
SOBR10 KWAL 110046
BAB00078 011004611":BUB 2 #1       M   0.189   0.169   0.169 :RAD 1 #1   0.085   0.080   0.055   0.084 :PRS 1 #1  -0.824  -0.822  -0.820  -0.814 :BL 11.53  33+0HN 219E
00000000