0000723500
346
SMXX99 HECA 110000
AAXX 11001
AAXX 11004
06610 02968 12002 10002 20001 39611 40213 57005 60001 80001
  333 55300 20000 60005 81072 91105 91204=
06700 02981 43103 10021 20011 39703 40209 57004 60001 80002
  333 55300 20000 60005 84080 91103 91203=
06762 03/// /3101 10059 20043 39977 40229 50001 60001
  333 55300 20000 60005 91104 91203=
07149 01130 80903 10055 20049 30066 40177 55005 69901 76062 886//
  333 69907 88703 90710 91105 93100=
07481 01450 71405 10067 20055 39891 40183 56005 60001 70241 85501
  333 60007 85613 83070 90710 91110 93100=
07486 04431 80602 10043 20039 39731 40201 53002 69921 710//
  333 4/000 60007 90710 91103=
07650 04567 80801 10120 20077 30161 40200 50002 60001 700//
  333 4//// 60007 90710 91102=
07660 06/// /0505 10124 20079 30180 40205 52003 60001
  333 4//// 60007 90710 91110=
07690 02570 83308 10100 20056 30180 40212 52002 60001 885//
  333 60007 88628 90710 91111 93100=
07761 04968 /0506 10060 20050 30190 40201 56007 60001 700//
  333 4//// 60007 90710 91108=
07780 04586 80708 10124 20085 30178 40206 58006 60001 700//
  333 4//// 60007 90710 91116=
07790 04559 80000 10114 20091 30197 40212 58003 60001 700//
  333 4//// 60007 90710 91101=
AAXX 11001
12910 36/// /3301 10040 20036 39831 40217 58004=
12925 36/// /3401 11013 21019 30043 40222 56002=
12935 31570 71401 10038 20029 30089 40225 58002 70322 875//
  333 87623=
12942 31680 70703 10053 20043 39975 40224 57004 70222 875//
  333 87640=
12970 32956 12102 10002 21008 30084 40228 50002 81030=
12982 31708 62201 11004 21011 30123 40228 52001 74641 83582
  333 83650=
13067 32697 82501 10034 20032 30102 40235 51003 885//=
13130 NIL=
13236 NIL=
13262 31697 70000 10065 20057 30079 40231 50001 87500=
13272 31758 41602 10048 20029 30114 40236 54000 71021 84500 333
84650=
13275 NIL=
13295 32998 00401 10046 20015 30172 40228 53008=
13388 32997 20000 10023 20001 39986 40242 58004 82030=
13426 NIL=
13493 42998 03604 10012 21012 39407 40241 51001=
13583 41/91 90000 11005 21009 39533 40253 52003 74744=
13610 NIL=
13611 NIL=
13615 45657 /1601 10107 20085 30181 40228 52001 8//// 333 85/39
88/50=
13619 NIL=
13622 NIL=
13624 NIL=
13625 NIL=
13626 NIL=
14014 12560 72701 10063 20051 39753 40217 58002 60001 87500
  333 553// 20000 58048 83630 87650 8/6// 8/6// 90705 91102=
14026 46/// /2403 10029 20025 39894 40222 5/004
  333 553// 20000 30000 58089 90705 91104=
14105 46/// /2101 10094 20089 30216 40220 5/001
  333 553// 20000 30000 58031 90705 91101=
14120 46/// /3600 10075 20069 30024 40218 5/000
  333 553// 20000 58066 90705 91101=
14234 NIL=
14240 11640 23601 10028 20026 30057 40216 54000 60001 71010 81530=
14241 11208 60000 10039 20037 30083 40216 50000 60001 74442 86500
  333 81703 83642 84656=
14284 11640 71503 10042 20035 30116 40227 58003 60001 72844 84570=
14307 32665 70702 10102 20091 30140 40217 58002 87500
  333 82640 87656=
14370 11530 80000 10041 20041 30107 40218 54000 60001 71022 886//=
14431 12760 81402 10088 20087 30131 40225 58001 60001 885//
  333 88650=
14444 33565 83302 10114 20096 30201 40230 52001 8572/
  333 81720 84537=
14452 NIL=
14474 12970 10304 10114 20064 30035 40226 58002 60001 80001=
14528 NIL=
14625 NIL=
15080 02997 02005 10010 20002 30044 40217 51005 60001 333 55000 60007
91006
91107=
15111 03/// /3002 10010 21005 39901 40172 51014 6///1 333 4//// 55///
6///7
91002 91103=
15120 02697 62302 10025 21003 39710 40217 51010 60001 84530 333 55300
10092
20000 3//// 55001 10109 20150 30146 60007 91002 91103 92611=
15145 01595 70000 10020 20020 39839 40227 52008 60001 71022 87500 333
55000
60007=
15150 02997 03300 11027 21027 39964 40185 51017 60001 333 55000 60007
91001
91101=
15170 02597 82506 10016 21002 39404 42795 51010 60001 883// 333 43001
55021
60007 91011 91111=
15197 03/// ///// 10013 20007 39967 40184 52014 6///1 333 4//// 55300
0////
20000 3//// 55000 0//// 20125 3//// 6///7=
15200 02997 51701 11007 21010 30083 40234 50005 60001 85030 333 55000
60007
91002 91102 92600=
15209 06/// /2309 10023 20005 39804 40225 52004 6///1 333 55300 0////
20000
3//// 55002 0//// 20171 3//// 6///7=
15230 02597 32902 10023 20010 39937 40239 51006 60001 83500 333 55300
10193
20000 3//// 55000 10037 20159 30158 60007 91004 91104=
15235 03/// /2602 10019 21008 39700 40232 52005 60001 333 4//// 55001
60007
91003 91103=
15247 01/92 90901 11025 21025 30123 40234 50008 60001 74940 333 55300
10140
20000 3//// 55000 10104 20051 30127 60007 91002 91102 92713=
15264 02997 21501 10039 21021 30116 40189 51014 60001 81041 333 55009
60007
91002 91103=
15266 NIL=
15280 01998 02728 11128 21158 37431 47965 55000 60001 70141 333 41998
55039
60007 91034=
15292 01596 61202 10010 20009 39940 40245 50005 60001 71022 86500 333
55002
60007 91003 91103=
15310 01996 21902 10022 20020 30096 40184 52014 60001 71011 80001 333
55300
10212 20000 3//// 55004 10013 20271 30248 60007 91003 91103 92600=
15335 02997 02901 10017 20014 30171 40178 51015 60001 333 55045 60007
91002
91102=
15340 02997 03501 10008 21035 39956 40213 51009 60001 333 55023 60007
91002
91103 92600=
15346 02997 01600 10008 21029 39914 40213 51017 60001 333 55026 60007
91002
91103=
15350 02997 02803 10075 21013 30066 40187 53021 60001 333 55018 60007
91006
91113=
15360 02497 82905 10033 20007 30155 40169 51019 60001 886// 222//
0//// 2////
/005 60007 91006 91107 92427=
15377 02997 00601 10022 21015 39972 40195 51024 60001 333 55036 60007
91001
91105=
15405 01996 00000 10010 20010 30126 40191 52020 60001 71011 333 55000
60007=
15410 02997 02805 10060 20016 30129 40226 52007 60001 333 55019 60007
91006
91107=
15420 02997 03002 10003 21002 30079 40194 52019 60001 333 55300 0////
20000
3//// 55001 0//// 20269 3//// 60007 91002 91104=
15444 NIL=
15450 02997 02203 10028 20003 39974 40216 53014 60001 333 55300 10244
20000
3//// 55023 10027 20428 30315 60007 91004 91107=
15460 01996 02401 10024 20022 30168 40193 51019 60001 71011 333 55002
60007
91002 91104 92600=
15470 02997 02605 10016 20012 30075 40205 51019 60001 333 55011 60007
91006
91108=
15480 01496 62602 10045 20032 30170 40187 51018 60001 71011 86600
222// 0////
2//// 333 55056 60007 91004 91104 92446=
15490 02997 02501 10050 20009 30178 40217 52017 60001 333 55000
60007=
15501 NIL=
15511 NIL=
15514 NIL=
15526 NIL=
15535 NIL=
15550 NIL=
15552 12960 02902 10081 20044 30142 40191 52018 60001 222// 0////
2//01 333 10123 20081=
15614 12965 00000 10030 20020 39524 40244 52005 60001 333 10048
20008=
15615 11988 22910 11064 21083 37127 47063 54000 60001 70200 80001 333
10046 21064=
15627 NIL=
15640 11968 33212 10102 21019 39883 40195 52002 60001 70141 83030 333
10105 20010=
15655 12962 62512 10049 20034 30164 40198 52014 60001 80001 222//
0//// 20000 333 10062 20048=
15712 11/01 93602 10012 20012 39977 40236 52010 60001 74544 333 10031
20012=
15725 NIL=
15730 11940 60000 10036 20010 39813 40218 52014 60001 70422 82036 333
10073 20034=
15741 NIL=
0000079300
347
USAA01 NZCM 110000
TTAA 61001 89664
99997 00056 18501 00512 ///// ///// 92601 07158 18518
85255 11341 17017 70716 21114 15006 50514 33959 24513
40666 44759 24520 30855 51765 24023 25975 45585 24514
20124 43786 24513 15318 43586 26009 10592 41586 23504
88320 52361 23026
77999
31313 48008 82219=

0000069700
87361=
0000011200
87368
0000009600
87371
0000035800
87378
0000037300
87381=
0000039500
87413=
0000052000
87479
0000056200
87492
0000045900
87517
0000054200
87560
0000060400
87620
0000064600
87679
0000048100
87790
0000050200
87984
0000058500
88157
0000060600
88415
0000062700
88650=
0000004000
91340
0000062900
92742
0000069100
94537
0000067100
96697
0000065000
99318
0000069000
348
USAA01 NZCM 110000
TTAA 61001 89664
99997 00056 18501 00512 ///// ///// 92601 07158 18518
85255 11341 17017 70716 21114 15006 50514 33959 24513
40666 44759 24520 30855 51765 24023 25975 45585 24514
20124 43786 24513 15318 43586 26009 10592 41586 23504
88320 52361 23026
77999
31313 48008 82219=

0000069700
87361=
0000011200
87368=
0000015000
87382
0000012800
87386=
0000045700
87427=
0000045900
87505=
0000050100
87719=
0000054400
88291
0000056500
88553
0000062700
89078
0000077200
89648
0000066900
90336
0000062800
91384
0000071100
92761
0000069100
94553
0000081500
96711
0000071200
99311
0000085500
349
USAA01 NZCM 110000
TTAA 61001 89664
99997 00056 18501 00512 ///// ///// 92601 07158 18518
85255 11341 17017 70716 21114 15006 50514 33959 24513
40666 44759 24520 30855 51765 24023 25975 45585 24514
20124 43786 24513 15318 43586 26009 10592 41586 23504
88320 52361 23026
77999
31313 48008 82219=

0000069700
87361=
0000011200
87368=
0000015000
87382
0000012800
87386
0000045600
87406
0000047700
87410
0000049800
87416
0000051900
87420
0000047800
87441
0000045800
87463=
0000048000
87576
0000060400
87629
0000056300
87683
0000052200
87836
0000056400
88030
0000058500
88314
0000062700
88581
0000056500
89066
0000064800
89620
0000064900
90311
0000079400
91281
0000067000
92666
0000079500
94503
0000073300
96674
0000079500
99322
0000075200
350
USAA01 NZCM 110000
TTAA 61001 89664
99997 00056 18501 00512 ///// ///// 92601 07158 18518
85255 11341 17017 70716 21114 15006 50514 33959 24513
40666 44759 24520 30855 51765 24023 25975 45585 24514
20124 43786 24513 15318 43586 26009 10592 41586 23504
88320 52361 23026
77999
31313 48008 82219=

0000069700
87361=
0000011200
87368=
0000015000
87382
0000012800
87386
0000045600
87406
0000047700
87410
0000049800
87416=
0000045800
87478=
0000043900
87582
0000052200
87674
0000054300
87785
0000060500
87983=
0000058600
89002
0000058600
89583
0000075200
90277
0000010200
91294
0000071100
92688
0000069100
94523
0000073300
96685
0000073300
99320
0000075200
351
USAA01 NZCM 110000
TTAA 61001 89664
99997 00056 18501 00512 ///// ///// 92601 07158 18518
85255 11341 17017 70716 21114 15006 50514 33959 24513
40666 44759 24520 30855 51765 24023 25975 45585 24514
20124 43786 24513 15318 43586 26009 10592 41586 23504
88320 52361 23026
77999
31313 48008 82219=

0000069700
87361=
0000011200
87368
0000009600
87371
0000035800
87378
0000037300
87381
0000039400
87385=
0000043700
87428
0000047800
87442
0000056100
87461
0000047900
87477
0000056200
87486
0000052100
87514=
0000064600
87726=
0000060600
88295
0000060600
88563=
0000067000
91355
0000067000
92733
0000062900
94576
0000071200
96714
0000083600
99321
0000066900
352
USAA01 NZCM 110000
TTAA 61001 89664
99997 00056 18501 00512 ///// ///// 92601 07158 18518
85255 11341 17017 70716 21114 15006 50514 33959 24513
40666 44759 24520 30855 51765 24023 25975 45585 24514
20124 43786 24513 15318 43586 26009 10592 41586 23504
88320 52361 23026
77999
31313 48008 82219=

0000069700
87361=
0000011200
87368
0000009600
87371
0000035800
87378
0000037300
87381=
0000039500
87413
0000041600
87422
0000043700
87443=
0000052100
87539
0000048000
87564=
0000056400
87880=
0000062700
88916=
0000075200
92632
0000067000
94493
0000081500
96654
0000073300
99319
0000081400
353
USAA01 NZCM 110000
TTAA 61001 89664
99997 00056 18501 00512 ///// ///// 92601 07158 18518
85255 11341 17017 70716 21114 15006 50514 33959 24513
40666 44759 24520 30855 51765 24023 25975 45585 24514
20124 43786 24513 15318 43586 26009 10592 41586 23504
88320 52361 23026
77999
31313 48008 82219=

0000069700
87361=
0000011200
87368=
0000015000
87382
0000012800
87386=
0000045700
87427
0000045800
87444
0000047900
87464
0000052000
87476
0000050000
87490
0000045900
87515
0000054200
87561
0000056300
87628=
0000052300
88117
0000012800
88398
0000054400
88620
0000058600
89102
0000064900
89595
0000069000
90283
0000081400
91300
0000075300
92703
0000052600
94479
0000077400
96634
0000083700
99323
0000784800
354
SMXX98 HECA 110000
AAXX 11004
16008 12560 70000 10012 21001 38548 48506 51005 60001 87200 333 87625
      92865=
16020 36/// /1201 10049 20044 39946 40237 50005=
16045 NIL=
16059 12660 73202 10079 39862 40213 58006 60001 87500
333 87634=
16066 12670 70101 10075 20060 39971 40229 50000 60001 87500
333 87640=
16080 11250 70602 10079 20071 30099 40226 58000 60001 71022 877//
333 82705 87635=
16090 11410 82802 10078 20061 30142 40226 54000 60001 71022 885// 333
      83710 86645=
16105 11630 72802 10082 20068 30220 40222 55000 60001 71022 87500
333 87640=
16116 NIL=
16120 11575 70403 10126 20108 30212 40216 50001 60001 70252 87800
333 84820 86640 98580=
16134 12980 03116 10042 21045 37846 48518 51001 60001 333 92845 95150
      444 38160=
16146 NIL=
16153 12598 70105 10110 20067 39946 40213 51004 60001 84530 333 84623
      83358=
16158 12760 30702 10082 20065 30210 40218 54000 60001 83100 333
      83856=
16170 12560 82001 10113 20104 30167 40221 58001 60001 888//
333 82820 86635=
16179 12580 72204 10096 20052 39530 42820 54000 60001 83110 333 83824
      85460=
16191 16/// /3403 10099 20090 30207 40222 56014 60001 ////=
16206 12865 30705 10076 20054 30212 40221 58003 60001 81031 333
      81357=
16219 42970 02907 10030 21012 38157 48541 51003 6///1=
16230 11940 02202 10042 20017 30216 40230 50001 60001 71000=
16232 11996 32401 10106 20087 30160 40214 53003 60001 71000 80001=
16242 11556 70805 10085 20079 30221 40226 58001 60001 71022 875//
333 87630=
16244 NIL=
16261 NIL=
16270 NIL=
16280 12597 60302 10120 20087 39992 40215 51002 60001 86500 333
86625=
16289 11956 03403 10085 20061 30139 40224 58002 60001 71011=
16300 NIL=
16310 42898 63105 10108 20089 39990 40214 58001 6///1 86000 333 83357
      83458=
16320 11958 03003 10074 20059 30207 40220 54002 60001 71000=
16325 11996 30000 10098 20098 30200 40214 51001 60001 71011 83010 333
      83460 98050=
16337 NIL=
16350 NIL=
16360 12997 00701 10118 20104 30079 40215 51004 60001=
16405 12965 01803 10100 20076 30211 40224
57014 60001=
16410 NIL=
16420 12997 40205 10112 20030 30139 40205 58005 60001 80005=
16429 12962 41309 10120 20106 30193 40204 58008 60001 81031 333
      81360=
16450 12360 22714 10066 20059 39049 48512 54000 60001 82200 333
      82808=
16460 12960 02711 10107 20067 30202 40216 5//// 60001=
16463 NIL=
16470 NIL=
16480 12997 33105 10140 20132 30151 40212 50000 60001 80001=
16490 NIL=
16597 32965 32406 10148 20128 30114 40224 58007 60001 80001
 
  333 60007 83070 91115 91210=
16610 NIL=
16622 11457 60000 10050 20038 30211 40212 52010 60001 71022 84635
      333 82710 83625 85068 90730 91106=
16625 NIL=
16627 NIL=
16632 NIL=
16641 12460 60000 10110 20102 30214 40219 58002 60001 83650 333
      82714 83818 86357 90730 91103=
16642 NIL=
16643 36/// /0802 10114 20097 30222 40233 57002 333 90730
      91106=
16648 11440 60000 10048 20048 30123 40214 52011 60001 71022 82606
      333 82712 86068 90730 91106=
16650 12460 60104 10104 20088 30186 40186 51006 60001 86500 333
      90730 91108=
16665 NIL=
16667 12460 72004 10122 20090 30210 40215 51007 60001 87600 333
      82715 86620 90730 91106=
16684 36/// /3408 10128 20104 30179 40189 52009 333 90730
      91113=
16685 NIL=
16701 NIL=
16710 36/// /9902 10023 2//// 39458 40252 54000 333 90730
      91104=
16716 NIL=
16723 NIL=
16732 36/// /1206 10141 20118 30184 40196 57001 333 90730
      91115=
16734 36/// /2812 10156 20089 30161 40222 57003 333 90730
      91117=
16738 36/// /2504 10134 20096 39998 40197 57002 333 90730
      91108=
16742 NIL=
16743 NIL=
16744 NIL=
16746 12560 12616 10136 20093 30026 40209 58003 60001 81200 333
      90730 91122=
16749 12460 20000 10120 20079 30199 40214 54000 60001 82400 333
      90730 91106=
16754 12970 01709 10112 20088 30163 40211 54000 60001 333 90730
      91110=
16756 NIL=
16765 NIL=
17022 12965 42504 10111 20014 30045 40213 53015 60001 80008
 333 84270 91113 92427=
17024 12970 02611 10119 20024 30088 40166 53011 60001
 333 91122 92428=
17026 12970 01604 10105 20018 30122 40161 57001 60001
 333 91108 92428=
17030 12970 02110 10094 21065 30161 40166 52013 60001
 333 92438=
17034 12970 20603 10090 21033 30117 40163 58003 60001 82030 333 82360
92428=
17038 12970 01703 10061 21011 30115 40167 55000 60001
 333 91115 92428=
17042 12970 01216 10121 21081 30123 40162 57023 60001
 333 92428=
17045 12970 03302 10019 21068 39462 40216 56003 60001=
17050 11/01 92701 10032 20030 30155 40219 52011 60001 74544
 333 89/00 91106=
17056 12970 00103 10092 20081 30206 40210 53005 60001
 333 91109 92428=
17060 11940 02106 10096 20064 30176 40216 52007 60001 71000
 333 91112=
17067 12970 02504 10090 20022 30188 40210 53004 60001
  333 92428=
17070 12965 03601 10002 21050 39344 40221 52006 60001
 333 91105=
17074 3//// /1302 11062 21068 39267 4//// 55000 60001=
17082 12960 40901 11047 21066 39604 40250 53006 60001 84030
 333 84360 91114=
17090 NIL=
17092 12960 00000 11126 21126 38912 48526 55002 60001
 333 91105=
17096 11914 01402 11281 21281 38261 48545 57004 60001 74140=
17098 12960 00000 11222 21222 38218 48544 57009 60001
 333 91105=
17100 NIL=
17112 12962 23503 10099 20077 30212 40214 52011 60001 82040 333 82360
92417=
17115 12960 40000 10027 20018 30167 40219 52012 60001 80001 333 84070
91108=
17116 12965 01007 10047 21019 30113 40236 52007 60001
 333 91113=
17128 11349 83106 11037 21037 39128 40278 53003 60001 71022 886//
 333 88707=
17130 11330 81802 11024 21038 39199 40277 52005 60001 71022 886//
 333 88709 91107=
17160 11520 82303 11038 21039 39066 48516 55002 60001 71022 886//
 333 88722 91106=
17162 NIL=
17170 11657 40604 11097 21097 38345 48520 56002 60001 71011 84500
 333 84640=
17180 11956 40902 10089 20052 30214 40218 52005 60001 71000 80005
 333 84289 91110 92416=
17184 12960 00000 10012 21002 30115 40229 52006 60001
 333 91103=
17188 12970 02702 10015 21049 39154 40225 52005 60001
 333 91105=
17190 11/03 90401 11036 21037 39033 48515 53003 60001 74944
 333 89/04 91105=
17195 11129 80000 11036 21041 39017 48523 55001 60001 71041 887//
 333 88702 91107=
17200 12960 02203 11084 21091 39237 40263 55000 60001=
17202 12970 02904 11062 21078 39205 40270 58001 60001=
17205 NIL=
17210 NIL=
17218 11658 31208 10101 20057 30209 40215 50003 60001 71000 81101
 333 81840 83070 91114=
17237 12970 02102 10056 21023 39718 40226 52007 60001
 333 91104=
17240 12970 02701 11032 21049 39074 40249 52002 60001
 333 91102=
17244 11228 81601 11022 21025 39036 48519 55000 60001 71022 886//
 333 88704=
17248 11920 00501 11058 21070 39018 48511 56005 60001 71000=
17250 12670 60404 11066 21069 38839 48520 55001 60001 83550
 333 83640 86360=
17260 12960 00000 11022 21053 39391 40226 55000 60001=
17270 12970 03002 10043 21032 39562 40214 57004 60001=
17280 12960 02501 11033 21056 39419 40227 57002 60001=
17290 3//// /0201 10126 20108 30190 40222 5/001 60001=
17292 12970 01601 10009 20006 39464 40227 58001 60001
 333 91103=
17300 12560 53507 10058 20041 30148 40220 52002 60001 83101
 333 83820 84070=
17310 12970 00501 10116 20061 30212 40219 55002 60001
 333 91103 92428=
17319 NIL=
17320 NIL=
17330 12970 22903 10107 21027 30201 40219 56001 60001 82030
 333 82360=
17350 12960 00306 10013 21024 30135 40214 52008 60001=
17370 12965 01501 10112 21016 30214 40218 52003 60001
 333 92417=
17600 12565 10207 10109 20061 30211 40221 56002 60001 81500
  333 81620=
17601 12980 03303 10083 20017 30184 40216 57002 60001 92350=
17607 NIL=
17609 12965 03407 10115 20064 30213 40217 57002 60001=
0000079300
355
USAA01 NZCM 110000
TTAA 61001 89664
99997 00056 18501 00512 ///// ///// 92601 07158 18518
85255 11341 17017 70716 21114 15006 50514 33959 24513
40666 44759 24520 30855 51765 24023 25975 45585 24514
20124 43786 24513 15318 43586 26009 10592 41586 23504
88320 52361 23026
77999
31313 48008 82219=

0000069700
87361=
0000011200
87368
0000009600
87371
0000035800
87378
0000037300
87381=
0000039500
87413
0000041600
87422=
0000043800
87504
0000052100
87527=
0000052200
87750
0000060500
87942
0000070900
88146
0000073000
88430
0000062700
88691
0000058600
89040
0000062800
89593
0000062800
90289
0000069000
91320
0000077300
92689
0000069100
94527
0000073200
96688
0000079500
99338
0000216500
356
SZNZ01 NZKL 110042
CREX++
T000103 A001 D01021 D06025++
-3683144 17478654 AUCT  2014 01 11 00 34 //// 11 07 00 01
05073 3141 05087 3146 05088 3140 05099 3143 05113 3148 05121 3147+
-4402404 -17636748 CHIT  2014 01 11 00 34 //// 11 07 00 01
05364 2094 05367 2096 05356 2084 05366 2093 05366 2091 05351 2076+
-4089929 17623168 CPIT  2014 01 11 00 34 //// 11 07 00 01
04322 2249 04318 2242 04316 2236 04326 2244 04309 2224 04316 2229+
-3618905 17548887 GBIT  2014 01 11 00 34 //// 11 07 00 01
05918 0023 05922 0022 05926 0020 05932 0021 05940 0024 05936 0014+
-3867541 17802288 GIST  2014 01 11 00 34 //// 11 07 00 01
04382 2705 04373 2692 04375 2691 04360 2672 04396 2704 04377 2682+
-4241288 17370277 KAIT  2014 01 11 00 34 //// 11 07 00 01
03807 2162 03797 2151 03814 2166 03817 2168 03824 2173 03824 2171+
-3755040 17815904 LOTT  2014 01 11 00 34 //// 11 07 00 01
03732 0215 03740 0218 03745 0219 03743 0212 03740 0205 03756 0216+
-3704657 17451175 MNKT  2014 01 11 00 34 //// 11 07 00 01
01832 -0202 01830 -0205 01843 -0193 01826 -0211 01835 -0202 01833 -0206+
-3947566 17692007 NAPT  2014 01 11 00 34 //// 11 07 00 01
03447 2008 03470 2028 03485 2039 03489 2039 03474 2021 03490 2034+
-3441483 17304870 NCPT  2014 01 11 00 34 //// 11 07 00 01
-01798 -6046 -01962 -6215 -02141 -6400 -02377 -6640 -02273 -6543 -02558 -6832+
-4581435 17062939 OTAT  2014 01 11 00 34 //// 11 07 00 01
05276 3441 05280 3446 05272 3439 05265 3434 05265 3435 05267 3439+
-2928002 -17789440 RBCT  2014 01 11 00 34 //// 11 07 00 01
06108 1977 06100 1965 06104 1966 06116 1974 06130 1984 06129 1980+
-2925114 -17790384 RFRT  2014 01 11 00 34 //// 11 07 00 01
03062 0161 03059 0154 03084 0176 03093 0180 03075 0159 03081 0161+
-4357010 17277383 SUMT  2014 01 11 00 34 //// 11 07 00 01
02729 1843 02719 1832 02736 1847 02712 1822 02733 1842 02737 1845+
-3764109 17618118 TAUT  2014 01 11 00 34 //// 11 07 00 01
05166 4002 05170 4001 05182 4007 05175 3995 05180 3994 05183 3992+
-4128448 17477985 WLGT  2014 01 11 00 34 //// 11 07 00 01
03633 2085 03640 2091 03645 2094 03646 2093 03643 2089 03646 2090++
7777
0000058700
357
USAA01 NZCM 110000
TTAA 61001 89664
99997 00056 18501 00512 ///// ///// 92601 07158 18518
85255 11341 17017 70716 21114 15006 50514 33959 24513
40666 44759 24520 30855 51765 24023 25975 45585 24514
20124 43786 24513 15318 43586 26009 10592 41586 23504
88320 52361 23026
77999
31313 48008 82219=

0000069700
87361=
0000011200
87368=
0000015000
87382=
0000030600
87414=
0000011000
87481=
0000054200
87583=
0000058500
87910=
0000058600
88937=
0000077300
92653
0000067000
94480
0000075300
96652
0000069200
99329
0000447200
358
SMXX97 HECA 110000
AAXX 11004
AAXX 11001
33815 42997 32705 10045 21021 39945 40154 52013 81530 333   91113=
33837 32984 02703 10050 20009 30095 40147 51017=
33869 NIL=
33902 /1996 02603 10035 20020 30046 40113 52022 71051=
33910 NIL=
33915 NIL=
33924 32997 02908 10064 20041 30128 40140 52032=
33929 NIL=
33934 NIL=
33976 NIL=
33990 NIL=
34824 42597 82403 10070 20050 30085 40090 55012 883// 333 91110=
34838 42997 81503 10027 20001 39997 40093 57026 8801/=
34915 NIL=
34929 NIL=
37054 42997 02601 11047 21053 39748 40146 57023=
37061 41956 41501 11010 21012 39971 40141 56022 71011 80001=
37085 42996 01406 10021 21001 30174 40146 58026=
37171 419// /0704 10037 21019 30148 40162 57008=
37228 42997 01201 11031 21078 39307 40163 56015=
37235 42997 01501 11022 21025 39831 40152 56019=
37260 NIL=
37395 42997 30905 10054 21067 30078 40221 57022 83030=
37472 42998 01205 10037 20006 30160 40137 56031=
37549 NIL=
37575 42998 03602 10013 21055 39664 40270 57004=
37597 NIL=
37618 NIL=
37632 NIL=
37789 NIL=
37815 NIL=
37907 NIL=
37985 42996 02301 11009 21018 30221 40206 57006=
40001 NIL=
40005 NIL=
40007 NIL=
40009 NIL=
40016 NIL=
40022 NIL=
40024 NIL=
40027 NIL=
40039 NIL=
40045 NIL=
40061 NIL=
40066 NIL=
40072 NIL=
40080 NIL=
40085 NIL=
40087 NIL=
AAXX 11004
40100 13/// /2001 10117 20100 30180 40212 51007 69961 900// 333
92416=
40102 NIL=
40165 NIL=
40180 11560 61804 10120 20101 30165 40215 50004 60001 76060 86200=
40191 NIL=
40199 13/// /3302 10105 20083 30195 40222 52003 60001=
40250 32660 83508 10015 20015 39389 40208 54000 85830 333 82830=
40260 32960 73206 10050 20041 39433 40203 54003 87030 333 87360=
40265 31956 60000 10062 20022 39412 40222 54001 70500 86030 333
86360=
40270 31940 40803 10062 20039 39293 40207 52004 70522 83031 333 83360
84070=
40310 32560 83110 10060 20039 38981 48511 52006 88700 83225 85625=
40337 NIL=
40338 NIL=
40356 31556 63014 10030 20030 39197 48486 69902 71000 86500 333 58024
86460=
40357 32660 73110 10058 20060 39523 40173 87500 333 58027 87640=
40360 12660 62906 10044 20030 39600 40205 69932 82530 333 58040 82640
85360=
40362 32960 02104 10065 20050 39637 40155 333 58029=
40364 NIL=
40367 NIL=
40370 NIL=
40371 NIL=
40374 NIL=
40375 32660 21502 10057 20030 39313 40207 82200 333 58060 82840=
40376 NIL=
40380 NIL=
40386 NIL=
40394 12960 02710 10080 20020 39038 48513 60022 333 58032=
40397 NIL=
40398 NIL=
40400 32560 20203 10158 20090 30155 40183 82500 333 58051 82630=
40405 32660 43410 10120 20090 39412 40149 84500 333 58014 85640=
40417 11656 81708 10151 20130 30169 40184 60072 71062 8452/ 333 59023
84640 88459=
40420 11750 81515 10142 20130 39973 40182 60042 76100 84420 333 59021
84650 85460=
40421 NIL=
40430 32960 03104 10140 20020 39457 40179 333 58048=
40432 NIL=
40435 NIL=
40438 NIL=
40439 32960 03010 10164 20090 30155 40165 333 58044=
40450 NIL=
40460 NIL=
40570 NIL=
40582 NIL=
40592 NIL=
AAXX 11001
40604 42560 60000 10074 20025 40218 58010 86800 333 83825 83628=
40608 42560 80000 10070 20037 40209 57010 8251X 333 82630 88460=
40621 41558 80000 10085 20063 40216 58013 76062 888XX 333 84825
85630=
40642 41556 83603 10026 20004 40202 54000 75052 8652X 333 86625
88460=
40650 41545 81403 10104 20096 40155 57012 72162 888// 333 84830
86633=
40658 NIL=
40672 41550 81703 10100 20087 40175 57006 71022 888XX 333 83830
86632=
40676 42560 31003 10110 20094 40177 57005 83500 333 83630=
40689 NIL=
40703 11510 70000 11140 21151 39000 40361 57016 60001 71021 87600
333 87725=
40706 11958 50703 11108 21140 38688 40309 57012 60001 70510 80002
333 85068=
40712 11640 72502 11088 21111 38717 40301 56005 60001 71022 82506
333 82635 87265=
40718 12960 02702 10064 20045 30235 40206 57015 60001=
40727 12960 81502 11064 21089 38502 40282 58008 60001 8802/ 333
88460=
40747 11630 83603 11039 21043 38656 40250 58007 60031 77372 8452/
333 84635 88557=
40766 11640 81005 11008 21017 38705 40215 58001 60021 77076 8532/ 
333 82935 83640 88557=
40767 NIL=
40769 11520 80000 11082 21092 38308 40302 56020 60011 71072 8372/
333 83720 88458=
40795 NIL=
40811 11520 81104 10116 20108 30164 40191 56011 60091 76366 8537/
333 82930 83635 88458=
40812 11650 81302 10093 20090 39799 40178 58008 60011 76022 8632/
 333 82935 84640 88557=
0000081400
359
USAA01 NZCM 110000
TTAA 61001 89664
99997 00056 18501 00512 ///// ///// 92601 07158 18518
85255 11341 17017 70716 21114 15006 50514 33959 24513
40666 44759 24520 30855 51765 24023 25975 45585 24514
20124 43786 24513 15318 43586 26009 10592 41586 23504
88320 52361 23026
77999
31313 48008 82219=

0000069700
87361=
0000011200
87368=
0000015000
87382
0000012800
87386
0000045600
87406
0000047700
87410
0000049800
87416
0000051900
87420
0000047800
87441
0000045800
87463=
0000048000
87576
0000060400
87629
0000056300
87683=
0000054400
88296
0000056500
88589
0000058600
89112
0000066900
89600
0000073100
90307
0000067000
91275
0000073200
92661
0000081500
94518
0000071200
96684
0000083600
99339
0000075200
360
USAA01 NZCM 110000
TTAA 61001 89664
99997 00056 18501 00512 ///// ///// 92601 07158 18518
85255 11341 17017 70716 21114 15006 50514 33959 24513
40666 44759 24520 30855 51765 24023 25975 45585 24514
20124 43786 24513 15318 43586 26009 10592 41586 23504
88320 52361 23026
77999
31313 48008 82219=

0000069700
87361=
0000011200
87368=
0000015000
87382
0000012800
87386
0000045600
87406
0000047700
87410
0000049800
87416
0000051900
87420
0000047800
87441=
0000045900
87536
0000052100
87559
0000054200
87603=
0000058500
88077
0000066800
88364
0000068900
88609=
0000056600
91357
0000069000
92712
0000073200
94509
0000071200
96672
0000073300
99331
0000073100
361
USAA01 NZCM 110000
TTAA 61001 89664
99997 00056 18501 00512 ///// ///// 92601 07158 18518
85255 11341 17017 70716 21114 15006 50514 33959 24513
40666 44759 24520 30855 51765 24023 25975 45585 24514
20124 43786 24513 15318 43586 26009 10592 41586 23504
88320 52361 23026
77999
31313 48008 82219=

0000069700
87361=
0000011200
87368
0000009600
87371
0000035800
87378
0000037300
87381
0000039400
87385=
0000043700
87428
0000047800
87442=
0000052100
87533
0000058300
87555=
0000060500
87878
0000062600
88040
0000064700
88327
0000066800
88593=
0000062800
91385
0000069100
92790
0000067000
94608
0000056700
96735
0000079500
99349
0000324800
362
SMXX96 HECA 110000
AAXX 11004
60351 12965 50000 10105 20091 40168 51001 60001 84032
  333 0//00 84359 95990=
60355 12960 32204 10144 20041 40166 58008 60001 80002
  333 0//00 83073 95990=
60390 12580 52503 10135 20072 40170 56012 60001 81232
  333 81830 84358 95990=
60419 12960 42302 10069 20020 40199 58005 60001 80001
  333 84073 95990=
60445 12965 63603 10026 20004 39043 48520 58002 60001 82032
  333 82360 85073 95990=
60475 12960 50000 10055 20022 39270 48525 54000 60001 80002
  333 0//00 85073 95990=
60525 12960 6//// 10091 20051 40207 58002 60001 83032
  333 0//00 83360 86073 95900=
60559 12960 4//// 10084 20065 40221 58006 60001 83032
  333 0//00 83360=
60581 12960 30406 10125 20074 40207 58007 60001 83030
   333 0//00 83360=
60611 12960 30910 10111 20022 40215 56013 80001
333 0//00 83070=
60640 12960 51006 10110 21013 40193 58009 60001 82032
  333 0//00 82360 83073=
60670 12965 51208 10060 21044 39119 48555 58009 60001 83082
333 0//00 83360 83073 95990=
60680 12970 60509 10140 21016 38661 48536 57019 60001 84032
333 84362 83073 95990=
60710 12558 40504 10098 20078 30111 40192 53004 60003 81282
  333 55072 81820 83360=
60714 NIL=
60715 12557 50000 10095 20084 30180 40187 56010 60003 83202
  333 59020 55075 21121 83826 91000 91100=
60720 NIL=
60725 12958 61902 10071 20068 30023 40198 58005 60003 84082
  333 55037 20793 84360 83070=
60735 069// /2103 10099 20053 30121 40194 56009 60003
  333 59023 55020 60007 91006 91106=
60740 12960 41708 10114 20067 30197 40199 56004 60003 83082
  333 55070 21032 83360 83070=
60745 12960 50000 10096 20044 39845 40222 56005 60003 80002
  333 59022 55049 20866 85070 91002 91111=
60750 12960 31703 10108 20060 30188 40214 56002 60003 80002
  333 55060 21092 83070=
60760 12560 32904 10100 20044 30115 40221 58008 82202
  333 59024 55/// 2//// 60007 82830 91004 91104=
60765 NIL=
60769 12958 41903 10123 20093 30206 40210 56006 60003 83052
  333 55/// 2//// 83360=
60775 NIL=
60780 NIL=
62002 32960 52010 10128 20026 39508 48563 57011 85050
  333 85360=
62007 32960 01306 10144 20068 40232 55002=
62010 32960 41506 10100 20058 40230 57001 84050
  333 84360=
62012 32860 11807 10127 20078 30214 40244 57006 81040
  333 81358=
62016 32958 41303 10094 20082 40264 57011 84030
  333 84360=
62018 32960 00000 10110 20043 30179 52013=
62019 NIL=
62053 32560 70000 10135 20111 40256 56004 84530
  333 84620 87358=
62054 NIL=
62055 NIL=
62062 32960 00000 10136 20106 40241 56007=
62065 NIL=
62120 11004 99564 10021 47298 /2916 10070 20060 40046 58002 700//
22200=
62124 32960 21007 10091 20013 39733 40241 57010 80004
  333 82070=
62161 32960 00000 10120 20079 40239 58010=
62176 NIL=
62200 NIL=
62212 NIL=
62259 NIL=
62271 32960 00106 10108 20038 40295 54000=
62300 NIL=
62417 32960 02402 10073 20032 40256 57004=
62640 32970 00205 10120 20015 39793 40167 333 58033=
62641 32970 03217 10202 20096 30138 40178 333 58047=
62650 32970 03607 10115 20025 39959 40243 333 58019=
62652 NIL=
62660 31968 03616 10140 20030 39884 40196 70700 333 58032=
62671 NIL=
62680 32970 03506 10150 20020 39768 40178 333 58022=
0000072000
363
SMAF95 HECA 110000 RRO
AAXX 11001
23022 42997 02903 11281 21308 30115 40187 52007=
23330 41997 01803 11357 21386 30147 40171 52009 70271=
23552 42997 02001 11367 21397 30158 40198 52012=
23631 42998 00000 11322 21352 30134 40180 57001=
23724 42998 83602 11218 21236 30088 40158 52007 8805/=
23734 42998 80000 11228 21253 30074 40174 58002 8802/=
23849 42796 40803 11267 21297 30115 40197 52005 84500 333 84650=
23933 41596 80201 11211 21239 30110 40171 58003 77172 8657/ 333
86632=
28275 41596 81302 11038 21053 30093 40154 52005 78582 889//=
28493 42497 82003 11056 21078 30116 40210 52007 885// 333 88612=
28698 41596 81902 11069 21089 30078 40238 52005 77172 885// 333
88633=
0000034100
364
SMXX97 HECA 110000 CCA
AAXX 11001
40621 41558 80000 10085 20063 40216 58013 76062 888// 333 84825
85630=
40642 41556 83603 10026 20004 40202 54000 75052 8652/ 333 86625
88460=
40672 41550 81703 10100 20087 40175 57006 71022 888// 333 83830
86632=
40608 42560 80000 10070 20037 40209 57010 8251/ 333 82630 88460=
0000012400
365
SMAF95 HECA 110000 CCC
AAXX 11001
40621 41558 80000 10085 20063 40216 58013 76062 888// 333 84825
85630=
00000000