0000011100
783
UANT99 KDDL 110304
ARP DAL240 4448N03111W 0304 F350 MS47 226/62 KT
N176DN QXT AOE 110304 F08A
0000011000
784
UANT99 KDDL 110304
ARP AAL44 4853N02128W 0304 F360 MS64 221/57 KT
N371AA DDL XXW 110304 F91A
0000041300
785
SABY31 UMMN 110300
METAR UMBB 110300Z 27009G14MPS 9999 OVC023CB 05/03 Q1009 NOSIG=
METAR UMGG 110300Z 28012G16MPS 9999 -SHRA OVC025CB 04/02 Q0998
R28/290250 NOSIG=
METAR UMII 110300Z NIL=
METAR UMMG 110300Z 29009G13MPS 9999 BKN011 OVC066 03/01 Q1005=
METAR UMMM 110300Z NIL=
METAR UMMS 110300Z 29007G11MPS 260V320 9999 BKN016CB 02/00 Q0998
R31/290060 NOSIG=
METAR UMOO 110300Z NIL=
0000013200
786
SIVD02 CWAO 110300
BBXX
SHIP 11034 99474 70619 46/// /2216 11032 21094 40239 58012 7//// 8//// 22200 0//// 2//// =
0000013200
787
SIVD02 CWAO 110300
BBXX
SHIP 11034 99489 70580 46/// /1312 11045 21077 4//// 50055 7//// 8//// 22200 0//// 2//// =
0000013200
788
SIVD02 CWAO 110300
BBXX
SHIP 11034 99461 70602 46/// /2703 11037 21069 40245 58013 7//// 8//// 22200 0//// 2//// =
0000013200
789
SIVD02 CWAO 110300
BBXX
SHIP 11034 99446 70635 46/// /2107 10014 21002 40279 58012 7//// 8//// 22200 0//// 2//// =
0000013200
790
SIVD02 CWAO 110300
BBXX
SHIP 11034 99455 70735 46/// /3505 11057 21071 4//// 5//// 7//// 8//// 22200 0//// 2//// =
0000013200
791
SIVD02 CWAO 110300
BBXX
SHIP 11034 99476 70527 46/// /2714 11044 21084 40208 58021 7//// 8//// 22200 0//// 2//// =
0000013200
792
SIVD02 CWAO 110300
BBXX
SHIP 11034 99468 70712 46/// /0209 11069 21180 40248 52024 7//// 8//// 22253 0//// 2//// =
0000013200
793
SIVD02 CWAO 110300
BBXX
SHIP 11034 99623 70748 46/// /2804 11176 21230 40024 51029 7//// 8//// 22200 0//// 2//// =
0000013200
794
SIVD02 CWAO 110300
BBXX
SHIP 11034 99468 70712 46/// /1902 11068 2//// 40249 58006 7//// 8//// 22200 0//// 2//// =
0000013200
795
SIVD02 CWAO 110300
BBXX
SHIP 11034 99535 10053 46/// /2419 10079 20078 40109 56022 7//// 8//// 22214 00085 2//// =
0000012000
796
SMAA41 KPAL 110300
AAXX 11031 
89061 36/66 /0000 11018 21031 30016 40023 57005    
333  91002 91103=
0000011900
797
SMOM10 OOMS 110000 RRJ
AAXX 11004
41242 26/// /1300 10172 20102 30197 40223
333 0E015 58003 70000 =
0000012200
798
SNVX21 EDZW 110100
BBXX
DBLK 11011 99770 50350 41597 /0505 11036 21055 49915 52010
7//// 22221 05019 =
0000012200
799
SNVX21 EDZW 110200
BBXX
DBLK 11021 99770 50344 41597 /0605 11035 21053 49917 52008
7//// 22222 05019 =
0000013200
800
SIVD02 CWAO 110300
BBXX
SHIP 11034 99478 71224 46/// /1622 10085 20058 40102 58056 7//// 8//// 22281 0//// 2//// =
0000013200
801
SIVD02 CWAO 110300
BBXX
SHIP 11034 99460 70731 46/// /0305 11095 21114 40239 56015 7//// 8//// 22252 00010 2//// =
0000013200
802
SIVD02 CWAO 110300
BBXX
SHIP 11034 99463 70725 46/// /3603 11079 21100 40242 58011 7//// 8//// 22200 0//// 2//// =
00000000