0000011100
332
UANT01 CWAO 110202
ARP AAL242 5049N04109W 0202 F350 MS55 297/29 KT
N347AN DDL XXW 110202 F40A
0000011100
333
UANT01 CWAO 110202
ARP AAL100 4642N05152W 0201 F340 MS62 315/48 KT
N725AN DDL XXW 110202 F15A
0000011000
334
UANT01 CWAO 110202
ARP DLH427 4805N04512W 0202 F360 MS56 323/57 KT
DAIGZ QXT AOW 110202 J75A
0000015700
335
SSVX13 LFPW 110200
ZZYY 44610 11014 0200/ 750411 040835 6113/ 11119 40063 57001 22219
 00100 444 20130 11014 0200/ 50101 80150 80002 9/015=
0000015700
336
SSVX13 LFPW 110200
ZZYY 41972 11014 0200/ 734504 040364 6113/ 11119 40216 52010 22219
 00196 444 20130 11014 0200/ 50101 80120 80060 9/015=
0000011000
337
UANT01 CWAO 110202
ARP DLH411 4812N04439W 0202 F390 MS55 302/51 KT
DAIKN QXT AME 110202 J73A
0000022800
338
SSVX03 LFVW 110203
ZZYY 31053 11014 00001 531581 049875 6113/
11119 00000 10249 21100 40114
22219 00256 10803 20077 21014
33311 66699 20007 21054 20030 02068 20055 21071
444 20130 11014 0011/ 518// 60371=
0000016000
339
SSVX13 LFVW 110203
ZZYY 17572 11014 0200/ 537956 171960 6110/
11119 40145 57002
22219 00206
444 20100 11014 0157/ 50101 80110 80000 9/015=
0000013400
340
SNRE20 FMEE 110200
AAXX 11024
61980 22560 21210 10255 20199 40156 81801
  333 58019 60005 81830 90710 91120 924/7=
0000015700
341
SSVX13 LFPW 110200
ZZYY 44863 11014 0200/ 739041 038251 6113/ 11119 40158 52013 22219
 00161 444 20130 11014 0159/ 50101 80118 80100 9/015=
0000014500
342
UAPA01 KWBC 110203
ARP UAL1195 2425N 14459W 0152 F330 MS37 277/046KT=
ARP ASA870 50N 155W 0153 F360 MS54 300/091KT TB LGT CHOP=
0000017700
343
FTXX31 AYPM 110210
TAF AYPY 110210Z 1106/1206 34006KT 9999 -SHRA SCT016 BKN140
INTER 1106/1112 4000 TSRA BKN008 FEW018CB
T 28 26 25 25 Q 1005 1006 1008 1007=
0000359100
344
SNFR30 LFPW 110200
AAXX 11024
07005 24/50 /1610 10041 20034 30071 40163 56011 700//
  333 60005 90710 91115=
07015 24256 81908 10040 20030 30105 40163 58009 700//
  333 60005 90710 91113=
07020 26/// ///// 10092 20078 30130 40157 58002
  333 60005=
07027 24250 81807 10057 20053 30078 40161 58004 700//
  333 69905 90710 91108=
07037 24/06 91706 10047 20046 39980 40167 55008 745//
  333 60005 90710 91109=
07072 24139 80000 10012 20012 30057 40176 57007 710//
  333 69905 90710 91103=
07110 22350 71807 10071 20067 30041 40157 50000 878//
  333 60005 81806 83625 87656 90710 91109 93100=
07117 26/// /2008 10082 20058 30083 40154 58001
  333 60005 90710 91113=
07130 24228 83603 10071 20070 30107 40160 58003 760//
  333 69945 90710 91104=
07139 24140 80101 10056 20055 39988 40165 50000 710//
  333 69905 90710 91102=
07149 21115 80603 10056 20050 30056 40167 58006 72162 887//
  333 69905 88703 90710 91106 93100=
07168 24950 71701 10025 20025 30024 40171 55010 700//
  333 69925 90710 91104=
07181 24958 80000 10021 20017 39761 40182 56015 700//
  333 60005 90710 91107=
07190 24905 /0000 11003 21004 30005 40195 56008 748//
  333 60005 90710 91103=
07207 26/// /3408 10082 20076 30112 40165 51008
  333 60005 90710 91111=
07222 24720 80502 10076 20070 30123 40155 55002 710//
  333 60005 90710 91105=
07240 24756 80303 10064 20053 30020 40157 56002 760//
  333 69905 90710 91106=
07255 24962 81105 10058 20048 39950 40153 58011 700//
  333 60005 90710 91108=
07280 24950 /0000 10011 21001 39901 40183 56009 700//
  333 60005 90710 91104=
07299 24960 81507 10033 20020 39855 40191 57011 700//
  333 60005 90710 91109=
07314 26/// /2103 10104 20093 30128 40156 51002
  333 60005 90710 91105=
07335 24958 80000 10066 20059 30007 40154 56002 700//
  333 60005 90710 91103=
07434 24970 82105 10078 20054 39682 40164 51009 700//
  333 60005 90710 91112=
07460 24957 73403 10033 20018 39765 40163 56006 700//
  333 60005 90710 91107=
07471 24970 83304 10024 21007 39201 48790 55005 700//
  333 60005 90710 91107=
07481 22562 51607 10090 20064 39891 40181 55001 81530
  333 60005 81620 85365 90710 91121 93100=
07510 214// 72305 10075 20074 30104 40163 53006 71022 875//
  333 60005 87611 90710 91107 93100=
07535 24970 81503 10070 20053 39860 40177 52013 700//
  333 60005 90710 91105=
07558 24/70 /1410 10062 20047 39345 40186 55000 700//
  333 60005 90710 91120=
07577 24/58 /1606 10091 20070 30110 40200 55000 700//
  333 60005 90710 91109=
07591 24/// /0411 10057 21012 39185 4//// 55004 700//
  333 60005 90710 91118=
07607 24457 82905 10091 20088 30102 40174 53013 700//
  333 60005 90710 91109=
07621 24457 82504 10090 20073 39744 40179 51017 700//
  333 60005 90710 91111=
07627 24968 70901 10018 20011 39683 40191 53017 700//
  333 60005 90710 91103=
07630 24463 71707 10092 20066 39993 40175 53012 700//
  333 60005 90710 91116=
07643 24558 80405 10107 20078 30189 40199 55000 700//
  333 60005 90710 91109=
07650 24585 80906 10125 20067 30162 40201 55000 700//
  333 60005 90710 91111=
07661 26/// /0509 10111 20083 30044 40206 53002
  333 60005 90710 91114=
07690 22670 83309 10097 20051 30182 40214 51004 885//
  333 60005 88633 90710 91112 93100=
07747 24957 83506 10089 20073 30128 40182 56004 700//
  333 60005 90710 91110=
07761 24483 60407 10061 20051 30199 40210 53008 700//
  333 60005 90710 91110=
07790 22570 82103 10115 20087 30198 40213 56002 885//
  333 60005 88828 90710 91104 93100=
0000148500
345
SNFR31 LFPW 110200
AAXX 11024
07024 24139 81910 10066 20063 39988 40156 55003 710//
  333 60005 90710 91115=
07031 24556 82006 10056 20050 39991 40167 55003 750//
  333 69925 90710 91110=
07100 26/// /2510 10101 20077 30068 40150 58001
  333 60005 90710 91115=
07103 26/// /2309 10098 20089 30058 40156 58001
  333 60005 90710 91112=
07107 26/// /1907 10081 20069 30132 40154 57002
  333 60005 90710 91111=
07118 24661 81805 10066 20063 30053 40160 50000 700//
  333 60005 90710 91107=
07120 24958 /2204 10059 20053 39994 40160 52002 700//
  333 60005 90710 91106=
07125 24/04 91803 10067 20061 30087 40158 58004 745//
  333 69925 90710 91104=
07134 24619 80304 10061 20061 30035 40158 57007 710//
  333 60005 90710 91105=
07200 26/// /2104 10094 20085 30137 40160 51002
  333 60005 90710 91104=
07201 24/01 90000 10063 20059 30048 40164 52001 745//
  333 60005 90710 91102=
07203 26/// /3403 10073 20069
  333 60005 90710 91106=
07205 24/01 93404 10072 20069 30111 40165 51006 745//
  333 60005 90710 91106=
07217 24350 83005 10083 20077 30152 40156 55000 700//
  333 60005 90710 91112=
07230 24/41 /0603 10067 20066 30097 40156 57004 710//
  333 60005 90710 91105=
07235 24749 70503 10066 20059 30097 40161 58003 710//
  333 69925 90710 91106=
07300 26/// /2908 10098 20087 30115 40154 55000
  333 60005 90710 91114=
07306 24756 80000 10078 20070 30044 40153 58003 700//
  333 60005 90710 91101=
0000114800
346
SNFR32 LFPW 110200
AAXX 11024
07140 24148 80303 10057 20053 30009 40165 55004 750//
  333 69905 90710 91107=
07143 24141 81003 10056 20052 39975 40165 55006 760//
  333 69925 90710 91107=
07145 24/40 /1001 10052 20052 39952 40166 57009 761//
  333 69945 90710 91109=
07146 24134 81104 10053 20052 39966 40164 58011 761//
  333 69925 90710 91107=
07150 24220 80904 10055 20052 30104 40165 58014 752//
  333 69945 90710 91106=
07153 24137 80603 10054 20048 30052 40165 58009 710//
  333 60005 90710 91106=
07156 24/28 /1104 10061 20054 30069 40165 58009 761//
  333 69905 90710 91107=
07157 21015 81005 10050 20043 30030 40168 57012 76065 876//
  333 69965 81701 87702 90710 91106 93100=
07245 24/44 /0205 10057 20056 30007 40161 55002 710//
  333 69905 90710 91108=
07247 24966 73201 10048 20041 30052 40156 55004 700//
  333 60005 90710 91105=
07249 24/09 90407 10051 20048 30008 40162 55003 745//
  333 60005 90710 91109=
07257 24965 81204 10064 20047 39941 40157 56009 700//
  333 60005 90710 91106=
07354 24957 81803 10059 20052 39963 40155 55002 700//
  333 60005 90710 91106=
0000045400
347
SNFR33 LFPW 110200
AAXX 11024
07093 24943 60703 11002 21008 39866 40188 56013 710//
  333 60005 90710 91110=
07180 24/01 90000 11005 21005 39923 40190 56013 749//
  333 60005 90710 91105=
07288 26/// /0000 10029 20023 39802 40183 56010
  333 60005 90710 91102=
07292 24968 70604 10023 20007 39847 40184 56011 700//
  333 60005 90710 91107=
07386 24957 70804 10024 20020 39937 40179 57009 700//
  333 60005 90710 91107=
0000119500
348
SNFR34 LFPW 110200
AAXX 11024
07260 24970 61403 10063 20043 39944 40160 56007 700//
  333 60005 90710 91108=
07266 24843 /1002 10028 20024 39976 40166 56010 710//
  333 60005 90710 91105=
07374 24/34 /0000 10018 20012 39857 40167 58006 710//
  333 60005 90710 91103=
07379 24964 70302 10043 20026 39871 40170 55006 700//
  333 60005 90710 91105=
07385 24/43 /1803 10057 20056 39909 40174 57007 710//
  333 60005 90710 91108=
07475 24945 81610 10056 20044 39687 40172 55005 710//
  333 60005 90710 91114=
07480 24930 80000 10056 20049 39938 40181 58007 710//
  333 60005 90710 91104=
07482 24/62 /1711 10079 20060 39874 40179 58004 700//
  333 60005 90710 91122=
07486 24460 82102 10074 20060 39727 40191 58003 700//
  333 60005 90710 91109=
07487 26/// /0000 10016 20013 39921 40195 58003
  333 60005 90710 91102=
07491 24928 81502 10019 20015 39904 40196 58004 710//
  333 60005 90710 91104=
07497 26/// /3601 10034 20003 39181 48489 58007
  333 60005 90710 91104=
07549 24986 /1305 10068 20019 39418 40174 53007 700//
  333 60005 90710 91110=
07570 24/39 /0602 10068 20067 39877 40218 54001 710//
  333 60005 90710 91104=
0000143200
349
SNFR35 LFPW 110200
AAXX 11024
07316 24946 70000 10085 20073 30132 40154 52001 710//
  333 60005 90710 91101=
07330 24/07 /2201 10067 20058 30082 40157 52004 745//
  333 60005 90710 91103=
07361 24/61 /0802 10039 20035 39722 40166 53004 700//
  333 60005 90710 91104=
07412 24945 71403 10073 20066 30123 40161 53006 710//
  333 60005 90710 91104=
07438 24/50 /0000 10047 20043 30034 40179 51016 700//
  333 60005 90710 91102=
07500 26/// /2907 10114 20098 30132 40166 53010
  333 60005 90710 91113=
07503 264// 83010 10122 20094 30120 40167 52008
  333 60005 90710 91118=
07524 24956 80902 10065 20059 30087 40172 51014 700//
  333 60005 90710 91102=
07530 24931 81003 10035 20032 30106 40171 53009 710//
  333 60005 90710 91105=
07540 24/56 /0000 10056 20047 30046 40178 53013 700//
  333 60005 90710 91100=
07552 24967 81108 10070 20041 39488 40175 53004 700//
  333 60005 90710 91113=
07600 26/// /2507 10112 20088 30129 40181 53007
  333 60005 90710 91110=
07602 24583 82806 10120 20088 30091 40177 53008 700//
  333 60005 90710 91113=
07603 26566 82302 10110 20093 30135 40173 53010
  333 60005 90710 91108=
07610 24442 82404 10091 20082 39957 40178 51013 710//
  333 60005 90710 91106=
07622 24/56 /2004 10064 20058 30019 40176 53013 700//
  333 60005 90710 91105=
07632 24/69 /0703 10085 20056 39963 40171 53002 700//
  333 60005 90710 91105=
0000052300
350
UKIN90 VAAH 110000
TTBB 61008 42647 00009 12056 11002 11056 22984 15060 33944 
14661 44840 05458 55825 07274 66795 05877 77763 10089 88677 
08089 99600 01883 11584 00082 22525 03977 33449 13772 44374 
19369 55261 40365 66182 59966 77131 75156 88125 73556 99105 
76956 11100 78956 21212 00009 31504 11999 36014 22986 01021 
33800 34510 44793 31510 55781 28016 66737 28527 77601 30533 
88546 30055 99484 31549 11462 30547 22389 30086 33253 27572 
44242 27075 55129 25583 66115 28081 77113 28078 41414 00900= 

0000009400
351
SAIN90 VOGO 110200
METAR VOGO 110200Z 02008KT 6000 FEW250 21/17 Q1012 NOSIG =

00000000