0000015700
532
SSVX13 LFPW 110200
ZZYY 44770 11014 0200/ 749205 017885 6113/ 11119 40143 57004 22219
 00115 444 20130 11014 0000/ 50101 80138 80003 9/015=
0000015700
533
SSVX13 LFPW 110200
ZZYY 44767 11014 0200/ 729386 028356 6113/ 11119 40175 57015 22219
 00220 444 20130 11014 0000/ 50101 80104 80002 9/015=
0000014500
534
SSVX13 LFPW 110200
ZZYY 44550 11014 0200/ 752776 014994 6113/ 11119 40131 52014 444
 20130 11014 0000/ 50101 80138 80002 9/015=
0000015700
535
SSVX13 LFPW 110200
ZZYY 62712 11014 0200/ 741735 027293 6113/ 11119 49998 57048 22219
 00142 444 20130 11014 0000/ 50101 80140 80000 9/015=
0000202600
536
SNRO41 YRBK 110200
AAXX 11021
15015 23/// /2404 10016 21001 39589 42793 52004 333 6///5 91006
91106=
15020 22997 02503 10039 21033 39968 40169 52007 333 60005 91004
91107=
15090 22597 52602 10026 20002 30081 40176 53010 85500 333 55300 0////
20000
3//// 60005 91003 91103 92600=
15108 21/91 92728 11070 21070 38006 48433 52012 74944 333 60005 91034
92723=
15120 22997 02303 11003 21013 39713 40226 52005 333 55300 10237 20000
3////
60005 91004 91105 92611=
15150 23/// /3600 11031 21031 39969 40191 52007 333 6///5 91001
91101=
15170 23/// /2406 10015 21009 39410 42800 52009 333 60005 91009
91111=
15200 22997 71301 11003 21009 30087 40237 53002 87070 333 60005 91002
91103
92600=
15230 22597 32801 11011 21013 39943 40248 53006 83500 333 55300 10147
20000
3//// 60005 91002 91102=
15260 22998 02904 10029 21027 39687 40234 52008 333 60005 91007
91107=
15280 22998 02718 11122 21157 37455 47990 52026 333 60005 91024=
15292 21596 70701 10014 20008 39942 40246 55000 71022 87500 333 60005
91001
91101=
15310 21995 01801 10001 20000 30104 40193 52012 71000 333 55300 10215
20000
3//// 60005 91002 91103 92600=
15335 23/// /2801 10021 20014 30182 40189 53012 333 6///5 91002
91103=
15346 22997 03401 10000 21037 39918 40218 52006 333 60005 91004 91104
92600=
15350 22997 01603 10013 21002 30075 40198 53017 333 60005 91005 91108
99706=
15360 22497 82603 10024 20005 30166 40181 53013 886// 333 60005 91004
91104=
15410 23/// /2704 10044 20015 30132 40230 52007 333 6///5 91005
91105=
15420 22997 01602 11010 21013 30091 40208 51020 333 55300 0//// 20000
3////
60005 91003 91105 92600=
15450 22997 02103 10021 20001 39979 40222 51013 333 55300 10221 20000
3////
60005 91004 91105=
15460 23/// /2504 10032 2//// 30176 40201 51015 333 6///5 91007
91107=
15470 23/// /2603 10006 20004 30086 40216 52015 333 60005 91004
91105=
15480 21496 32501 10042 20030 30177 40195 51013 71000 83600 333 60005
91002
91103=
0000015700
537
SSVX13 LFPW 110200
ZZYY 64664 11014 0200/ 767974 016137 6113/ 11119 40044 52004 22219
 00015 444 20130 11014 0000/ 50101 80148 80008 9/015=
0000015700
538
SSVX13 LFPW 110200
ZZYY 16549 11014 0200/ 346119 063843 6113/ 11119 40171 57003 22219
 00066 444 20130 11014 0000/ 50101 80148 80021 9/015=
0000015700
539
SSVX13 LFPW 110200
ZZYY 16540 11014 0200/ 343549 079044 6113/ 11119 40122 52011 22219
 00085 444 20130 11014 0000/ 50101 80144 80013 9/015=
0000014500
540
SSVX13 LFPW 110200
ZZYY 64519 11014 0200/ 163048 007398 6113/ 11119 49991 57007 444
 20130 11014 0000/ 50101 80138 80002 9/015=
0000015700
541
SSVX13 LFPW 110200
ZZYY 16537 11014 0200/ 334959 054673 6113/ 11119 40190 57016 22219
 00193 444 20130 11014 0000/ 50101 80144 80013 9/015=
0000015700
542
SSVX13 LFPW 110200
ZZYY 44605 11014 0200/ 750447 023756 6113/ 11119 40049 57034 22219
 00111 444 20130 11014 0000/ 50101 80142 80013 9/015=
0000015700
543
SSVX13 LFPW 110200
ZZYY 44868 11014 0200/ 734864 040199 6113/ 11119 40217 52012 22219
 00187 444 20130 11014 0000/ 50101 80142 80019 9/015=
0000015700
544
SSVX13 LFPW 110200
ZZYY 16544 11014 0200/ 345319 094102 6113/ 11119 40039 57001 22219
 00097 444 20130 11014 0000/ 50101 80144 80011 9/015=
0000015700
545
SSVX13 LFPW 110200
ZZYY 15548 11014 0200/ 522338 011273 6113/ 11119 40188 57013 22219
 00236 444 20130 11014 0000/ 50101 80144 80011 9/015=
0000015700
546
SSVX13 LFPW 110200
ZZYY 41706 11014 0200/ 715747 052399 6113/ 11119 40171 52011 22219
 00259 444 20130 11014 0000/ 50101 80144 80024 9/015=
0000015700
547
SSVX13 LFPW 110200
ZZYY 41707 11014 0200/ 718209 049246 6113/ 11119 40187 52004 22219
 00256 444 20130 11014 0000/ 50101 80144 80006 9/015=
0000015700
548
SSVX13 LFPW 110200
ZZYY 16541 11014 0200/ 350746 064158 6113/ 11119 40074 52008 22219
 00044 444 20130 11014 0000/ 50101 80144 80023 9/015=
0000015700
549
SSVX13 LFPW 110200
ZZYY 16534 11014 0200/ 335018 055155 6113/ 11119 40197 57013 22219
 00196 444 20130 11014 0000/ 50101 80150 80018 9/015=
0000015700
550
SSVX13 LFPW 110200
ZZYY 13665 11014 0200/ 717289 059043 6113/ 11119 40184 52030 22219
 00266 444 20130 11014 0000/ 50101 80144 80002 9/015=
0000013900
551
SSVX13 LFPW 110200
ZZYY 41597 11014 0200/ 727973 078838 6113/ 22219 00261 444 20130
 11014 0000/ 50101 80122 80002 9/015=
00000000