0000008300
799
SAYE20 OYRN 110200
METAR OYRN 110200Z 33006KT 8000 NSC 20/15 Q1017=
0000015400
800
SMVX01 WSSS 110000 RRA
BBXX
2AKI4 11004 99075 30766 41397 83115 10270 20241 40098 56010
78182 8/77/ 22254 00295 20501 316// 40503 80250=
0000027500
801
SXHW11 KWAL 110152
15D142A4 011015202":PRS 1 #1 1457 1468 1483 1461 1462 1469 1470 1487 1480 1464 :RAD 1 #1 7045 7049 7049 7044 7047 7052 7056 7062 7059 7053 :ENC 2 #5 4953 4961 4976 4977 :SW1 52 #60 0 :SW2 22 #60 0 :BAT 4 #5 13.8 :NAME 15D142A4  34+0NN 216W
0000124500
802
ULCI03 BABJ 110000
TTCC  10232 51076 70805 557// 25029 50019 543// 23533 30351
491// 22043 20617 503// 21046 88904 573// 24524 66199 21046
31313 63203 82315=
TTCC  10232 51431 70811 565// 25031 50023 569// 23532 30349
515// 22544 20612 505// 21053 88999 66203 21053 77688 25031
31313 63103 82315=
TTCC  10231 52681 70834 52567 28018 50049 57167 21508 30379
50369 13007 20646 48170 13516 10110 42973 13021 88999 77999
31313 63203 82315=
TTCC  10232 52866 70836 58162 25512 50049 57762 17506 30377
51364 13009 20642 48165 13015 88999 77999 31313 63203 82315=
TTCC  10232 53915 70839 585// 26511 50050 593// 20003 30379
503// 11512 20645 471// 12018 10108 429// 88999 77999 31313
63203 82315=
TTCC  10231 54374 70831 44180 26013 50052 44780 26509 30393
44980 10506 20665 43780 10512 10135 38782 09521 88999 77999
31313 63303 82316=
TTCC  10232 54662 70835 54366 26519 50051 48767 27009 30386
46170 09009 20657 45373 10516 88999 77999 31313 63203 82316=
TTCC  10232 54857 70840 595// 27522 50053 543// 27006 30383
507// 10011 20651 455// 09517 88999 77999 31313 63203 82315=
TTCC  10233 57178 70843 679// 27022 50051 575// 31504 30377
525// 10509 88888 673// 26033 77999 31313 63203 82315=
0000044300
803
SAIN31 VABB 110140
METAR VABB 110140Z 35004KT 3000 FU NSC 17/05 Q1015 NOSIG=
METAR VOHS 110140Z 12008KT 2000 BR NSC 16/14 Q1017 TEMPO 1500=
METAR VOHY 110140Z 13005KT 2000 BR SCT010 SCT015 19/16 Q1018 NOSIG=
METAR VOMM 110140Z 00000KT 0800 R07/1300 R25/1000 MIFG SCT018 20/19
     Q1015 NOSIG=
METAR VOTR 110140Z 00000KT 2000 HZ SCT016 20/19 Q1015 NOSIG=
METAR VOTV 110140Z 00000KT 2500 HZ FEW018 23/21 Q1012 NOSIG=
0000030100
804
USIN21 VOMM 110000 RRB
TTAA 61001 43371
99004 23616 04506 00092 24225 10002 92775 20436 09503 
85504 17056 11002 70142 09260 09516 50587 03584 05026 
40760 14995 04022 30972 30789 06515 25099 41974 05507 
20247 54961 14009 15426 67360 07009 10662 80561 25008 
88999 77999=

0000100600
805
UKIN90 VOTV 110000
TTBB 61008 43371 
00004 23616 11998 24625 22747 10657 33717 10667 44694 
08659 55627 04476 66614 05888 77600 04284 88565 00078 
99562 00378 11496 03785 22379 18393 33289 32588 44182 
59961 55147 68561 66121 78361 77105 79561 
21212 00004 04506 11002 03000 22003 10500 33003 12501 
44993 10501 55991 12001 66987 22501 77985 24501 88960 
23002 99947 25501 11942 24500 22939 12500 33935 10001 
44911 13004 55891 08505 66876 12003 77864 18001 88856 
10002 99826 17005 11800 12010 22761 12512 33667 06509 
44641 08009 55612 03520 66567 02526 77515 05526 88495 
04528 99441 05524 11412 03524 22385 07016 33345 05517 
44326 08013 55318 06013 66266 05506 77260 07505 88250 
05507 99240 08502 11229 13503 22217 10504 33212 05504 
44207 10004 55203 13506 66192 14012 77172 13027 88164 
12020 99153 09011 11141 02003 22139 36004 33131 36012 
44124 31506 55118 35513 66114 33012 77112 33014 88110 
33511 99104 23506 31313 ///// 80000 41414 24501=

0000012600
806
SAIN34 VOMM 110140 RRA
METAR VOMM 110140Z 00000KT 0800 R07/1300 R25/1000 MIFG SCT018 20/19
     Q1015 NOSIG=
0000129800
807
SOVX02 RJTD 110100 RRB
KKYY  18113 1732/ 134636 138591
88871 74549 20004 31948 43409
20010 31948 43410 20020 31948 43410
20030 31948 43411 20050 31948 43412
20075 31712 43437 20100 31496 43443
20125 31341 43445 20150 31301 43443
20200 31097 43435 20250 30942 43428
20300 30870 43427 20400 30689 43427
20500 30575 43429 20600 30487 43433
20700 30435 43435 20800 30395 43437
20900 30350 43442 21000 30317 43446
21250 30272 43451 21500 30249 43455
21750 30225 43458 66392 20016 27021 JNQN=
KKYY  20113 0201/ 134988 138663
88871 74549 20004 31929 43402
20010 31932 43405 20020 31932 43406
20030 31931 43407 20050 31932 43407
20075 31676 43440 20100 31418 43444
20125 31293 43441 20150 31208 43439
20200 31067 43435 20250 30908 43430
20300 30810 43428 20400 30674 43427
20500 30551 43430 20600 30495 43433
20700 30447 43436 20800 30385 43440
20900 30357 43442 21000 30327 43445
21250 30279 43451 66392 20016 18021 JNQN=
KKYY  21113 1136/ 134581 139028
88871 74149 20004 31789 43430
20010 31789 43433 20020 31789 43434
20030 31788 43434 20050 31784 43435
20075 31670 43434 20100 31542 43436
20125 31517 43436 20150 31322 43443
20200 31081 43433 20250 31000 43429
20300 30822 43424 20400 30698 43423
66392 20016 04031 JNQN=
0000012400
808
UXIN90 VOBG 110000
TTAA 1100/43285 NO ASCENT NO INSTRUMENTS=
PPAA 1100/ 43285 NO ASCENT NO INSTRUMENTS=

0000003900
809
SMVD14 RJTD 110000
NIL=
0000066100
810
UDAF01 FAPR 110151
AMDAR 1101
LVR AFZA50 1340S 01756E 110044 F370 MS489 051/023 TB0 S031 333 F/// VG011=
LVR AFZA50 1422S 01830E 110052 F370 MS485 048/016 TB0 S031 333 F/// VG011=
LVR AFZA50 1504S 01904E 110059 F370 MS485 059/014 TB0 S031 333 F/// VG011=
LVR AFZA50 1544S 01940E 110106 F370 MS485 058/005 TB0 S031 333 F/// VG011=
LVR AFZA50 1625S 02016E 110113 F370 MS487 010/011 TB0 S031 333 F/// VG010=
LVR AFZA50 1706S 02052E 110120 F370 MS485 333/005 TB0 S031 333 F/// VG010=
LVR AFZA50 1747S 02129E 110127 F370 MS480 003/017 TB0 S031 333 F/// VG010=
LVR AFZA50 1830S 02204E 110134 F370 MS480 354/016 TB0 S031 333 F/// VG010=
0000003900
811
SMVE14 RJTD 110000
NIL=
0000003900
812
SMVX14 RJTD 110000
NIL=
0000012500
813
SNKI01 AMMC 110200
AAXX 11024
96995 154// 11802 10273 20212 39822 40117 51017 60004
  333 20224 70000=

0000013600
814
SMRA10 RUHB 110000 CCC
AAXX 11001
30554 119// 00000 11432 21450 39202 40506 52011 60002 74000 333 21432
47007 55045=
0000044600
815
SXXX32 EUMS 110148
22856700
:PRS 1 /1 3135 3141 3144 3148 3157 3158 3158 3160 3169 3169 3158 3154 3158 3168 3164 3160 3158 3162 3162 3155 3158 3164 3163 3162 3162 3163 3168 3167 3164 3166 :RAD 1 /3 6653 6662 6663 6662 6662 6662 6664 6668 6671 6674 6681 6685 6688 6687 6686 6688 6691 6695 6700 6706 :ENC 3 /5 4848 4858 4856 4855 4859 4862 4876 4882 4875 4879 4885 4896 :SW1 48 /60 0 :SW2 18 /60 42 :BAT 14 /15 13.1 :NAME 22856700
0000045100
816
SXXX32 EUMS 110148 RRA
32D8A2BE
:PRS 1 /1 1961 1944 1933 1957 1944 1938 1946 1937 1944 1937 1946 1946 1936 1942 1939 1940 1937 1936 1936 1933 1936 1942 1930 1933 1930 1936 1933 1931 1924 1932 :RAD 1 /3 7523 7517 7517 7511 7508 7509 7496 7494 7498 7502 7502 7506 7501 7506 7510 7514 7510 7507 7504 7504 :ENC 3 /5 4947 4948 4946 4941 4935 4934 4939 4940 4938 4938 4940 4936 :SW1 48 /60 43 :SW2 18 /60 56 :BAT 14 /15 12.4 :NAME 32D8A2BE
0000047700
817
SXXX32 EUMS 110149
262AD2C2
OT12 ID:PK-ORMA-10 DT:2014 01 11 01 48
:PRS /1 08162 08146 08177 08133 08138 08145 08132 08129 08164 08111 08112 08133 08121 08125 08125 08107 08124 08114 08129 08157 08131 08142 08146 08129 08141 08135 08115 08108 08115 /////
:RAD /1 ///// ///// ///// ///// ///// ///// ///// ///// ///// ///// ///// ///// ///// ///// ///// ///// ///// ///// ///// ///// ///// ///// ///// ///// ///// ///// ///// ///// ///// /////
:BAT 12.4V
0000036300
818
SXXX32 EUMS 110151
12FFB3C8
:PRS 1 /1 M 2917 2900 2914 2914 2916 2935 2931 2937 2951 2942 2936 2942 2924 2923 2919 2915 2907 2911 2924 2933 2939 2935 2936 2924 2919 2922 2922 2922 2926 :RAD 1 /3 5858 5869 5875 5866 5858 5859 5869 5863 5860 5860 :ENC 1 /5 -144 -144 -144 -144 -144 -144 :SW1 51 /60 0 :SW2 21 /60 60 :BAT 14 /15 13.7 :NAME 12FFB3C8
00000000