0000016000
979
SSVX02 CWAO 110100
ZZYY 55581 11014 0100/ 338724 153645 6113/ 11119 
40164 57007 22219 00196 444 20130 11014 0100/ 50101 80142 80015 
9/015=
0000016000
980
SSVX02 CWAO 110100
ZZYY 56540 11014 0100/ 554111 177496 6113/ 11119 
49976 52020 22219 00116 444 20130 11014 0100/ 50101 80136 80013 
9/015=
0000013600
981
SNVD17 CWVR 110100
BBXX
46146 11011 99493 71237 46/// /0810 10067 40087 57049
22200 00069 10301 70004 333 91212 =

0000027400
982
SXHW11 KWAL 110137
15D142A4 011013702 :PRS 1 #1 1500 1482 1490 1490 1504 1480 1493 1492 1483 1505 :RAD 1 #1 7072 7071 7075 7073 7078 7072 7077 7073 7072 7075 :ENC 2 #5 4977 4978 4972 4983 :SW1 37 #60 0 :SW2 7 #60 0 :BAT 4 #5 13.9 :NAME 15D142A4  34-0NN 216W
0000078900
983
UDAS02 BABJ 110128
AMDAR 1101
LVR CNFLWQ 3337N 10956E 110117 F371 MS539 262/105 TB/ S//1=
LVR CNFLWQ 3356N 11018E 110120 F371 MS550 263/105 TB/ S//1=
LVR CNFLWQ 3412N 11042E 110123 F371 MS555 264/108 TB/ S//1=
LVR CNFLWQ 3429N 11106E 110126 F371 MS544 262/119 TB/ S//1=
ASC CNFNXQ 2632N 10648E 110126 F033 PS011 158/001 TB/ S//1=
ASC CNFNXQ 2633N 10648E 110126 F034 PS008 187/004 TB/ S//1=
ASC CNFNZK 3613N 12010E 110125 F053 MS068 300/010 TB/ S//1=
ASC CNFNZK 3615N 12008E 110125 F053 MS068 300/010 TB/ S//1=
ASC CNFNZK 3616N 12005E 110126 F053 MS068 297/011 TB/ S//1=
ASC CNFNZK 3617N 12002E 110126 F054 MS068 293/011 TB/ S//1=
ASC CNFNXQ 2634N 10648E 110126 F044 MS015 179/001 TB/ S//1=
ASC CNFNXQ 2634N 10648E 110127 F052 MS028 358/007 TB/ S//1=
0000032800
984
SNVD22 KWNB 110100 RRS
BBXX
46244 11011 99409 71244 46/// ///// 1//// 90121 22200 00108 11307
21004 331// 41306 70037=
46240 11011 99366 71219 46/// ///// 1//// 90121 22200 00127 11102
21001 335// 41102 70011=
46236 11011 99368 71219 46/// ///// 1//// 90122 22200 00126 11304
21002 329// 41303 70020=
0000013400
985
SNVD22 KWNB 110200
BBXX
46237 11021 99378 71226 46/// ///// 1//// 90131 22200 00110 11404
20902 328// 41403 70018=
0000036000
986
UAPA01 KWBC 110133
ARP DAL1299 25N 140W 0124 F380 MS48 293/041KT=
ARP AAL162 2714N 14713W 0125 F370 MS45 241/051KT=
ARP AWE694 2700N 13812W 0126 F370 MS46 291/034KT=
ARP UAL1228 3133N 12124W 0125 F350 MS54 350/012KT=
ARP ASA832 2347N 15322W 0128 F350 MS45 330/073KT=
ARP ASA862 3925N 13458W 0127 F360 MS54 250/096KT TB INTMT LGT CHOP=
0000017300
987
UDEU02 EGRR 110139
AMDAR 1101
LVR EU0026   5843N 01947E 110121 F350 MS532 312/062 TB/ S031=
LVR EU0026   5911N 02114E 110128 F350 MS535 314/055 TB/ S031=
0000034900
988
SNAA01 KARS 110100 RRA
AAXX 1101/
89869 46/// ///// 11035 39935 4//// 5//// 90120=
89866 46/// ///// 11004 39886 4//// 5//// 90120=
89108 46/// ///// 11203 37008 4//// 5//// 90110=
89329 46/// ///// 11088 38850 4//// 5//// 90120=
89799 46/// ///// 11240 4//// 5//// 90120=
89314 46/// ///// 11081 38312 4//// 5//// 90120=
0000063300
989
UQIN90 VECC 110000
PPDD 61008 43333
     95678 13505 11003 00508 959// 06509 96012 08010 10512 16009 96345
     17007 32008 04001 96678 23005 29012 26008 969// 27510 97012 32509
     31013 03003 97345 17008 21009 32503 97678 26507 26509 24505 979//
     19011 98012 14506 06007 12007 98345 13509 12501 10011 98678 10507
     04505 02505 989// 06010 99012 07023 09530 07528 99345 10031 09528
     08536 99678 10026 11519 08519 999// 08018 10012 07032 08034 09533
     10345 11033 11534 10529 10678 10028 11033 11032 109// 08028 1011/
     06529 07035 11234 07047 09055 10057 11567 09554 08551 07547=

0000109300
990
UEIN02 DEMS 110000 RRE
TTDD 61008 43333
11744 77561 22646 69763 33482 63964 44360 57767 55226
51581 66142 47583 77089 41785 88056 36587 21212 11996
26004 22986 20003 33979 15004 44955 11504 55940 06002
66910 11503 77906 10002 88897 01003 99877 36007 11838
06509 22747 10512 33692 20007 44671 17006 55666 19503
66661 29002 77658 32004 88630 33505 99617 31501 11613
35501 22609 06002 33597 10002 44595 13001 55592 21001
66589 23503 77574 22506 88548 30012 99530 26009 11520
29504 22507 27008 33476 32509 44456 31013 55454 31013
66438 36006 77431 04502 88428 08501 99427 12001 11425
14002 22389 22506 33376 32503 44370 27003 55363 25505
66353 28510 77340 26008 88331 28007 99322 19507 11304
17512 22299 16009 33292 08507 44284 06008 55276 11506
66261 13510 77247 12501 88232 09514 99222 11004 11215
04005 22208 02504 33182 09529 44173 07028 55165 10031
66151 08536 77151 08536 88138 11521 99133 10017 11122
07027 22116 07535 33101 11535 44093 10029 55086 11534
66077 06529 77076 06530 88066 09558 99064 10056 11056
07545 31313 ///// 80000=

0000051800
991
SNVD22 KWNB 110100 RRT
BBXX
46229 11011 99438 71246 46/// ///// 1//// 90119 22200 00093 11410
21005 330// 41409 70050=
46213 11011 99403 71247 46/// ///// 1//// 90124 22200 00120 11409
21004 330// 41408 70046=
46231 11011 99327 71174 46/// ///// 1//// 90114 22200 00156 11302
20902 329// 41301 70011=
46218 11011 99345 71208 46/// ///// 1//// 90129 22200 00137 11306
20804 330// 41304 70029=
46224 11011 99332 71175 46/// ///// 1//// 90112 22200 00158 11501
20801 325// 41501 70006=
0000013800
992
SNVD22 KWNB 110100 RRU
BBXX
46242 11011 99332 71174 46/// ///// 1//// 90057 22200 00154 11301
20601 324// 41301 70006=
0000011100
993
UANT01 CWAO 110136
ARP UAL944 5459N03007W 0136 F370 MS55 225/58 KT
N781UA DDL XXW 110136 F37A
0000011100
994
UANT01 CWAO 110136
ARP DAL466 5556N04020W 0136 F330 MS60 283/18 KT
N197DN QXT AOW 110136 F66A
0000087100
995
SAUR30 UKMS 110130
METAR UKBB 110130Z 27007MPS 9999 OVC024 05/01 Q1003
         88290060 TEMPO    27011G16MPS=
METAR UKHH 110130Z 28006MPS 9999 BKN011 OVC030 04/02
         Q1000  25290050 BECMG 25008G14MPS=
METAR UKOO 110130Z 26004MPS CAVOK 03/M01 Q1015
         34290054 NOSIG=
METAR UKDE 110130Z 28007MPS 260V320 9999 SCT010 03/02
          Q1007 02290356 TEMPO 30007G12MPS=
METAR UKDD 110130Z 27006MPS CAVOK 02/01 Q1006
         26220356 NOSIG=
METAR UKFF 110130Z 27005MPS 2700 BR FEW033 OVC100
         04/03 Q1014 19010070 NOSIG=
METAR UKLL 110130Z 26007MPS 9999 BKN043 05/M02 Q1014
         31220365 NOSIG=
METAR UKCC 110130Z 28007MPS 8000 BKN010 BKN040 03/03
         Q1003 26290055 TEMPO 23012G17MPS 1000 -SHRA
         BR BKN003 BKN010CB=
METAR UKDR 110130Z 27007MPS CAVOK 02/00 Q1009
         3619//60 NOSIG=
0000013000
996
SAAJ31 UBBB 110130
METAR UBBN 110130Z 28004KT 2400 BR OVC006 M09/M10 Q1025
R14R/CLRD60 NOSIG RMK MT OBSC QFE693=
0000010800
997
SAAJ31 UBBB 110130
METAR UBBG 110130Z 25006KT 9999 FEW100 M01/M04 Q1019
R30/CLRD70 NOSIG =
0000010300
998
SAAJ31 UBBB 110130
METAR UBBB 110130Z 19014KT 9999 BKN007 05/03 Q1017 88CLRD70
NOSIG=
00000000