0000036600
936
SIRA31 RUHB 110300
AAXX 11031
25378 41998 23609 11138 21220 30147 40177 52001 73630 80001 333 91016
91121=
25538 42999 73603 11240 21265 39740 40184 57004 85031=
31913 83/// /0901 11155 21221 30118 40243 58014=
31939 42999 01601 11123 21239 39905 40244 58025=
32128 41495 80901 11131 21158 30066 40121 58013 78688 883// 333 91002
91105=
0000044500
937
SXXX32 EUMS 110333
22856700
:PRS 1 /1 3172 3176 3175 3175 3172 3168 3171 3168 3173 3181 3182 3167 3163 3164 3160 3154 3150 3157 3155 3157 3159 3158 3152 3150 3153 3155 3150 3150 3152 3151 :RAD 1 /3 6676 6674 6673 6667 6659 6655 6656 6652 6647 6646 6643 6644 6645 6644 6643 6639 6633 6631 6632 6637 :ENC 3 /5 4868 4870 4854 4852 4847 4843 4835 4837 4840 4834 4823 4829 :SW1 33 /60 0 :SW2 3 /60 60 :BAT 14 /15 13.5 :NAME 22856700
0000045000
938
SXXX32 EUMS 110333 RRA
32D8A2BE
:PRS 1 /1 2022 2028 2027 2022 2025 2024 2027 2025 2021 2016 2015 2021 2019 2018 2022 2024 2016 2016 2013 2013 2011 2023 2008 2008 2007 2010 2011 2001 2013 1993 :RAD 1 /3 7604 7602 7604 7597 7595 7576 7573 7571 7568 7571 7572 7563 7552 7551 7550 7549 7540 7538 7546 7545 :ENC 3 /5 5028 5024 5021 5012 5007 5005 4999 4986 4983 4977 4975 4973 :SW1 33 /60 27 :SW2 3 /60 42 :BAT 14 /15 13.0 :NAME 32D8A2BE
0000013500
939
SIVD17 CWHX 110300
BBXX
44258 11031 99445 70634 46/// /2309 10016 40276 57013
22200 00017 10603 70016 333 91211=

0000047700
940
SXXX32 EUMS 110334
262AD2C2
OT12 ID:PK-ORMA-10 DT:2014 01 11 03 33
:PRS /1 07866 07857 07855 07849 07861 07841 07831 07840 07839 07819 07823 07798 07798 07768 07778 07785 07799 07783 07784 07788 07786 07779 07788 07775 07769 07751 07761 07735 07741 07733
:RAD /1 ///// ///// ///// ///// ///// ///// ///// ///// ///// ///// ///// ///// ///// ///// ///// ///// ///// ///// ///// ///// ///// ///// ///// ///// ///// ///// ///// ///// ///// /////
:BAT 13.0V
0000011000
941
UANT99 KDDL 110336
ARP VIR22N 4959N04007W 0336 F390 MS56 271/33 KT
GVUFO DDL XXH 110336 J16A
0000011100
942
UANT99 KDDL 110336
ARP UAL976 4803N03950W 0336 F320 MS53 292/30 KT
N226UA DDL XXW 110336 F36A
0000011000
943
UANT99 KDDL 110336
ARP AAL70 4958N04016W 0336 F380 MS54 282/36 KT
N755AN DDL XXW 110336 F51A
0000011000
944
UANT01 CWAO 110335
ARP SWR23C 4438N04718W 0335 F380 MS58 301/60 KT
HBJHD QXT AOW 110335 J42A
0000118200
945
SIXX40 ETGT 110300 RRD
AAXX 11031
40604 42560 60000 10066 20072 40211 57008 86800 333 83825 83628=
40608 42560 60000 10052 20040 40205 57006 86500 333 86630=
40621 41556 80302 10085 20051 40196 57014 76166 888// 333 84823
85625=
40623 41458 80604 10040 20012 40227 56005 76066 86924 333 82918
86620 88460=
40629 41558 80202 10086 20073 40189 57006 76066 8552/ 333 85630
88460=
40631 42560 83004 10082 20057 40202 58017 885// 333 88630=
40634 41556 83002 10022 20022 40175 56001 76166 886// 333 88725=
40637 41560 70703 10090 20087 40210 52006 72162 87800 333 83825
87630=
40642 41540 80000 10022 20011 40206 53003 75052 8552/ 333 85625
88460=
40650 41530 81504 10100 20092 40153 55002 76166 884// 333 88630=
40656 42560 82404 10090 20079 40144 55001 885// 333 88630=
40658 42560 60000 10020 20021 40210 52010 86200 333 86825=
40665 42660 70902 10105 20101 40172 55001 81520 333 81635 85460=
40670 41550 72404 10085 20067 40168 58004 71022 87500 333 87625=
40672 42560 81804 10088 20059 40178 53003 888// 333 83830 86632=
40674 42960 00000 10068 20059 40175 53001=
40676 42560 42701 10098 20090 40177 54000 84500 333 84630=
0000039200
946
SIXX40 ETGT 110300 RRD
AAXX 11034
40255 42660 70000 10074 20043 39484 40212 54001
87800 333 85830 84635=
40260 42960 00000 10028 20018 39410 40214 52007=
40270 41650 63107 10084 20063 39294 40205 54001 70522 86500 333
86640=
40272 41930 52806 10070 20061 39368 40213 54002 71000 82031 333 83360
84070=
40340 42560 10000 10112 20088 40220 52008 81100 333 81830=
0000036700
947
SIIN90 VIGR 110300
AAXX 11034
42562 32892 80201 10140 20122 40164 74000
  333 10187 20124 58000
  555 10011=
42459 32995 83202 10100 20080 40128
  333 10210 20074 59006
  555 10021=
42456 32994 00501 10100 20096 40174
  333 10174 20074 59031
  555 10002=
42460 32994 02701 10108 20104 40190
  333 10172 20080 59002
  555 10011=
0000013200
948
SNDL23 EDZW 110200 CCA
AAXX 11021
10815 45983 12403 11011 21011 39241 48463 56007
  333 55300 20000 30000 81/78=
0000020900
949
SNDL48 EDZW 110200 CCA
AAXX 11021
10736 45962 20701 11032 21035 39897 40205 58007
  333 55300 82/69=
10747 47957 70000 11032 21032 39602 40211 55006 71000
  333 55300 20000 30000 87/80=
0000014400
950
SNDL49 EDZW 110200 CCA
AAXX 11021
10818 45981 51905 10036 20025 39050 48481 57005
  333 55300 20000 30000 85/76 85/78 85/80=
0000011100
951
UANT01 CWAO 110336
ARP UAL161 4835N05148W 0336 F370 MS68 294/54 KT
N34137 DDL YYT 110336 F35A
0000011000
952
UANT01 CWAO 110336
ARP AAL42 4809N04453W 0336 F370 MS58 316/63 KT
N363AA DDL XXW 110336 F31A
0000011000
953
UANT01 CWAO 110336
ARP JAI229 5446N04311W 0336 F370 MS59 290/33 KT
VTJWS QXT AOW 110336 J25A
0000011000
954
UANT01 CWAO 110336
ARP AFL103 5332N04526W 0336 F330 MS61 310/65 KT
VQBPK QXT AME 110336 J19A
0000010900
955
UANT01 CWAO 110336
ARP AUA72 5603N03111W 0336 F360 MS55 212/48 KT
OELAE QXT AOW 110336 F75A
00000000