0000008800
819
SPIN90 VOBZ 110100
SPECI VOBZ 110100Z 00000KT 0900 FG -NSC- 21/19 Q1014=
0000008600
820
SAIN90 VECC 110100
METAR VEJS 110100Z 00000KT 0800 FG NSC 13/11 Q1016=
0000005200
821
RRIN23 VECC 110110
RQRPT 059-100=

0000009800
822
SAIN90 VEIM 110113
METAR VEIM 110100Z 00000KT 2000 MIFG FEW008  05/05 Q1019 NOSIG=
0000011000
823
UANT01 CWAO 110036
ARP AIC126 5927N03628W 0036 F330 MS54 228/21 KT
VTALJ QXT AOW 110036 F37A
0000010600
824
SNDL49 EDZW 110100 RRB
AAXX 11011
10853 41905 00201 11024 21025 39735 40219 58006 74640=
0000454600
825
SNPL40 SOWR 110100
AAXX 11011
12100 41/// /2707 10056 20028 30104 40105 52010 7////
  =
12105 42479 82506 10053 20031 30066 40108 52015 885//
  333 88615
  555 57014=
12115 42465 82711 10056 20046 30073 40087 53011 885//
  333 91115
  555 57007=
12120 42470 82810 10055 20045 30075 40079 52014 883//
  333 91115
  555 57005=
12125 46/// /2707 10057 20040 30033 40083 52015 =
12135 41470 72905 10054 20048 30070 40073 52018 78082 873//
  333 87913 91110
  555 57005=
12160 41460 72605 10035 20035 39853 40081 52016 72582 873//
  555 57000=
12185 41459 82905 10038 20034 39932 40068 52018 78182 889//
  555 57003=
12195 42464 82907 10019 20013 39824 40053 51023 885//
  333 91112
  555 57006=
12200 42468 32402 10052 20038 30113 40120 51006 83500
  333 91108
  555 57008=
12205 42669 62406 10053 20030 30119 40127 50003 84530
  555 57010=
12210 46/// /2504 10048 20022 30050 40114 52009=
12215 41/// /2705 10046 20023 39941 40113 52012 7////
  =
12230 42475 82703 10054 20013 30034 40125 52010 875//
  555 57021=
12235 41471 82505 10045 20030 39895 40106 52013 72582 889//
  333 88913 91010 91111
  555 57008=
12250 42583 82503 10055 20021 30029 40118 53014 885//
  333 91008 91108
  555 57019=
12270 41580 72608 10046 20033 39917 40100 52017 72522 873//
  555 57009=
12272 41358 82603 10036 20035 39912 40080 52013 78122 889//
  333 86707 91110
  555 57001=
12280 41475 72704 10039 20027 39914 40071 51020 72582 875//
  555 57007=
12285 41/// /2705 10050 20034 39972 40088 52018 761//=
12295 NIL=
12300 42770 82703 10040 20015 30052 40143 51004 885//
  555 57014=
12310 42680 82504 10053 20014 30085 40152 51001 81507
  555 57022=
12330 42670 72506 10053 20008 30035 40144 52007 875//
  555 57025=
12345 41568 72407 10049 20017 39994 40139 52013 78022 879//
  333 91113
  555 57023=
12360 42678 72607 10056 20019 39983 40117 52014 875//
  333 91012 91113
  555 57021=
12375 42680 72607 10054 20009 39989 40120 52016 875//
  333 91012 91115
  555 57025=
12385 41579 72506 10050 20020 39913 40103 52018 72522 879//
  333 91114
  555 57015=
12399 41569 72607 10054 20020 39922 40090 52019 72522 879//
  333 91112
  555 57016=
12400 42584 72405 10037 20014 39920 40159 50003 875//
  555 57016=
12415 42684 72604 10030 21001 30016 40172 52002 875//
  333 91009 91109
  555 57019=
12418 42780 72504 10043 20012 30045 40161 52006 875//
  555 57021=
12424 42699 72304 10038 20010 30020 40175 52004 875//
  555 57014=
12435 42784 72607 10047 20006 39978 40151 52007 875//
  555 57023=
12455 42782 72606 10040 21006 39913 40162 52005 875//
  555 57027=
12465 42773 72606 10050 20000 39921 40144 51011 875//
  333 91011 91112
  555 57028=
12469 42683 82508 10046 21002 39913 40146 52008 885//
  555 57024=
12488 42584 82706 10058 20001 39973 40128 52015 885//
  333 91111
  555 57032=
12495 42584 82608 10046 20002 39838 40132 52015 885//
  333 91114
  555 57022=
12497 42570 82708 10052 20008 39888 40108 52018 885//
  333 91013 91116
  555 57023=
12500 42584 72302 10031 21013 39759 40183 51002 875//
  555 57024=
12510 41/90 93216 11060 21064 38318 48444 52008 74943
  555 57002=
12520 42582 72605 10027 21004 39749 40190 53003 875//
  333 81695 87649
  555 57019=
12530 42770 62402 10045 20003 39977 40180 52003 8453/
  555 57029=
12540 42670 62304 10016 21011 39935 40194 53001 85530
  555 57010=
12550 46/98 /2503 10036 21018 39809 40172 52006=
12560 42698 72305 10032 21016 39840 40186 52004 875//
  555 57027=
12566 42684 72406 10044 21010 39885 40183 53007 875//
  555 57026=
12570 42782 82606 10043 21011 39837 40158 52009 885//
  333 91110
  555 57026=
12575 42672 82703 10059 21017 39919 40176 53008 885//
  555 57040=
12580 42780 82608 10053 21012 39905 40167 53009 885//
  555 57033=
12585 42684 82507 10047 21005 39883 40153 52010 885//
  333 91111
  555 57026=
12595 NIL=
12600 42682 72307 10042 21027 39700 40188 53001 875//
  555 57030=
12625 42684 72703 10007 21055 39177 42794 52003 875//
  555 57024=
12650 41/01 92807 11094 21102 37949 48469 52003 74943
  333 91113
  555 57002=
12660 42582 82202 10043 21028 39823 40187 53006 885//
  555 57033=
12670 42784 72604 10045 21033 39773 40179 52010 875//
  555 57036=
12690 42582 82605 10033 21027 39666 40183 52009 885//
  333 91109
  555 57021=
12695 41/// /2606 10055 21028 39822 40164 52012 700//=
0000010000
826
SNNO23 ENMI 110100 RRA
AAXX 11011
01180 46/// /2201 11082 21137 30104 40164 52003=
0000010000
827
SNNO24 ENMI 110100 RRA
AAXX 11011
01393 46/// /1001 11150 21169 39201 40047 52006=
0000015100
828
SNNO25 ENMI 110100 RRA
AAXX 11011
01265 46/// /2502 11121 21133 39426 40035 52008=
01469 46/// /3601 11028 21038 39811 49985 50004=
0000010000
829
SNNO26 ENMI 110100 RRA
AAXX 11011
01476 46/// /2309 10048 20028 39977 49983 58004=
0000010100
830
SAIQ01 ORBI 110100
METAR ORMM 110100Z 12006KT 5000BR SCT035 BKN100 13/11 Q1017 NOSIG=
0000091300
831
UDAS02 BABJ 110101
AMDAR 1101
DES CNFNXP 3120N 12110E 110057 F064 MS051 210/023 TB/ S//1=
DES CNFNXP 3117N 12113E 110058 F064 MS053 220/024 TB/ S//1=
DES CNFNXP 3114N 12113E 110058 F063 MS055 212/022 TB/ S//1=
DES CNFNXP 3113N 12113E 110059 F062 MS053 208/020 TB/ S//1=
LVR CNFPQK 3212N 10830E 110050 F311 MS453 254/085 TB/ S//1=
LVR CNFPQK 3232N 10847E 110053 F311 MS453 256/085 TB/ S//1=
LVR CNFPQK 3252N 10904E 110056 F311 MS455 257/087 TB/ S//1=
LVR CNFPQK 3312N 10921E 110059 F311 MS453 257/092 TB/ S//1=
ASC CNFPQL 3651N 11713E 110059 F003 PS003 145/003 TB/ S//1=
ASC CNFLWM 2331N 11327E 110058 F066 PS064 285/009 TB/ S//1=
ASC CNFLWM 2331N 11330E 110058 F066 PS063 269/007 TB/ S//1=
ASC CNFLWM 2332N 11333E 110059 F066 PS063 269/007 TB/ S//1=
ASC CNFLWM 2332N 11336E 110059 F066 PS063 269/008 TB/ S//1=
ASC CNFPQL 3650N 11713E 110100 F005 MS001 196/002 TB/ S//1=
0000256700
832
USCI03 BABJ 110000
TTAA  10231 51076 99950 18923 00000 92943 14956 11003 85589
11561 11003 70058 16770 28507 50552 31127 27513 40706 43150
30515 30894 58759 32521 25006 653// 31022 20142 623// 29019
15322 595// 27020 10579 547// 26025 88245 661// 31021 77999
31313 63203 82315=
TTAA  10231 51431 99955 15134 09001 92908 04364 09508 85578
02972 11011 70092 11574 23503 50559 28766 34501 40715 40965
33505 30904 56564 33009 25018 633// 32016 20154 637// 29521
15332 591// 26525 10587 595// 26528 88236 657// 32017 77999
31313 63103 82315=
TTAA  10231 52681 99875 12762 27004 85593 07564 31011 70079
16761 30514 50556 28350 27518 40712 40768 28025 30902 53165
27546 25018 57365 27046 20160 54166 26538 15346 52367 26034
10605 55967 27527 88261 57565 27548 88131 56167 26032 77289
27552 31313 63203 82315=
TTAA  10231 52866 99775 17756 00000 70071 14156 14001 50559
25158 26516 40716 38361 28522 30910 50359 26549 25026 59758
26052 20167 53960 26542 15352 54961 26040 10609 56962 27027
88247 59958 26051 88142 56361 26040 77279 26554 31313 63203
82315=
TTAA  10231 53915 99875 07960 33002 85578 06168 31005 70073
13123 31004 50560 22570 27521 40720 34360 26535 30914 49761
28051 25032 53561 26547 20174 55362 25553 15359 54963 26552
10614 589// 26535 88272 54560 27550 88121 605// 26042 77206
25554 31313 63203 82315=
TTAA  10231 54374 99985 22129 02501 92844 17328 21505 85480
18157 26010 70917 20963 29017 50534 34765 29037 40686 44564
29049 30876 49967 28558 25995 49172 27552 20142 47779 27547
15332 49779 27040 10595 50178 27537 88328 50166 28558 88123
53777 27042 77306 28559 31313 63303 82316=
TTAA  10231 54662 99021 00958 25004 00256 00957 26506 92872
05375 27008 85529 10373 29010 70009 14581 29516 50549 29568
28527 40705 38938 27537 30897 50159 27056 25015 53961 26557
20159 51762 27061 15345 51364 27049 10607 55165 27033 88273
53760 26558 77206 26561 31313 63203 82316=
TTAA  10231 54857 99024 00034 31501 00268 00056 34001 92887
04737 24502 85548 07377 27005 70047 11780 30006 50556 23519
27022 40717 33337 27035 30912 49750 26544 25031 50161 26066
20176 50163 26571 15362 56763 26559 10617 57763 26537 88285
51950 26046 88141 58763 26557 77186 26576 31313 63203 82315=
TTAA  10231 57178 99010 02638 27001 00261 03256 29002 92888
01350 05004 85558 03943 09505 70069 10715 19002 50563 18557
28019 40725 30960 28026 30924 41765 26047 25045 49364 26058
20191 50564 26064 15376 57763 26576 10627 635// 26541 88228
51564 26061 77158 26077 31313 63203 82315=
0000216500
833
SZNZ01 NZKL 110112
CREX++
T000103 A001 D01021 D06025++
-3683144 17478654 AUCT  2014 01 11 01 04 //// 11 07 00 01
05341 3166 05350 3167 05361 3170 05368 3170 05376 3170 05383 3169+
-4402404 -17636748 CHIT  2014 01 11 01 04 //// 11 07 00 01
05425 2134 05450 2159 05429 2138 05437 2145 05435 2144 05457 2165+
-4089929 17623168 CPIT  2014 01 11 01 04 //// 11 07 00 01
04383 2242 04393 2250 04376 2232 04394 2248 04393 2245 04404 2256+
-3618905 17548887 GBIT  2014 01 11 01 04 //// 11 07 00 01
06077 0030 06084 0031 06094 0037 06102 0040 06101 0034 06092 0021+
-3867541 17802288 GIST  2014 01 11 01 04 //// 11 07 00 01
04513 2737 04513 2735 04518 2738 04525 2741 04520 2734 04531 2743+
-4241288 17370277 KAIT  2014 01 11 01 04 //// 11 07 00 01
03834 2154 03838 2156 03833 2152 03832 2150 03840 2158 03831 2148+
-3755040 17815904 LOTT  2014 01 11 01 04 //// 11 07 00 01
03858 0211 03856 0204 03866 0211 03864 0205 03868 0205 03863 0196+
-3704657 17451175 MNKT  2014 01 11 01 04 //// 11 07 00 01
01879 -0202 01884 -0199 01885 -0201 01905 -0183 01898 -0193 01888 -0205+
-3947566 17692007 NAPT  2014 01 11 01 04 //// 11 07 00 01
03497 1970 03475 1946 03502 1971 03493 1960 03503 1968 03514 1977+
-3441483 17304870 NCPT  2014 01 11 01 04 //// 11 07 00 01
-04032 -8442 -04003 -8417 -04004 -8424 -03826 -8251 -03802 -8232 -03880 -8316+
-4581435 17062939 OTAT  2014 01 11 01 04 //// 11 07 00 01
05192 3415 05190 3415 05195 3423 05190 3421 05179 3413 05172 3409+
-2928002 -17789440 RBCT  2014 01 11 01 04 //// 11 07 00 01
06203 1967 06221 1982 06221 1979 06220 1975 06201 1952 06234 1982+
-2925114 -17790384 RFRT  2014 01 11 01 04 //// 11 07 00 01
03185 0179 03177 0168 03173 0160 03202 0186 03184 0165 03174 0151+
-4357010 17277383 SUMT  2014 01 11 01 04 //// 11 07 00 01
02730 1828 02713 1811 02732 1830 02732 1830 02730 1830 02737 1837+
-3764109 17618118 TAUT  2014 01 11 01 04 //// 11 07 00 01
05295 3977 05300 3977 05302 3974 05302 3970 05309 3972 05313 3971+
-4128448 17477985 WLGT  2014 01 11 01 04 //// 11 07 00 01
03649 2071 03647 2069 03648 2069 03652 2073 03646 2067 03651 2072++
7777
0000013300
834
SMCN24 CWAO 110000 RRG
AAXX 11004
71428 15/// /2008 11060 21123 30197 40203 58006 60001
333 11053 21136 70000=

0000012700
835
SSVX02 CWAO 110100
ZZYY 47537 11014 0100/ 783288 048099 6113/ 444 
20130 11014 0100/ 50001 80136 80001 9////=
0000015100
836
SSVX02 CWAO 110100
ZZYY 26535 11014 0100/ 187275 040517 6113/ 11131 
11132 40023 57012 444 20130 11014 0100/ 50101 80134 80001 9////=
0000015100
837
SSVX02 CWAO 101800
ZZYY 72514 10014 1800/ 562199 058961 6113/ 11132 
40234 52052 22231 00118 444 20130 10014 1800/ 50100 80104 80001=
0000013900
838
SSVX02 CWAO 110100
ZZYY 47571 11014 0100/ 771334 104399 6113/ 11119 
49938 444 20130 11014 0100/ 50401 80128 80001 9////=
00000000