0000011000
472
UANT01 CWAO 110204
ARP AAL44 4721N03342W 0204 F350 MS48 212/47 KT
N371AA DDL XXW 110204 F72A
0000015700
473
SSVX13 LFPW 110200
ZZYY 62508 11014 0200/ 745905 006076 6113/ 11119 40175 52002 22219
 00130 444 20130 11014 0155/ 50101 80104 80031 9/015=
0000015700
474
SSVX13 LFPW 110200
ZZYY 62507 11014 0200/ 747321 011800 6113/ 11119 40169 52001 22219
 00119 444 20130 11014 0155/ 50101 80104 80031 9/015=
0000018900
475
FTGD31 TGPY 110200
TAF
TGPY 110200Z 1106/1206 09010KT 9999 SCT020 FM111200Z 11014KT 9999
FEW020 BECMG 1122/1124 08008KT FEW018 PROB30 TEMPO 1200/1206 6000
SHRA SCT017=
0000011000
476
UANT01 CWAO 110204
ARP BAW45B 5044N03647W 0204 F380 MS53 224/31 KT
GBNLK QXT AOW 110204 F19A
0000018400
477
SSVX13 LFPW 110200
ZZYY 62503 11014 0200/ 746014 002474 6113/ 11119 40155 52005 22219
 00134 33300 88872 20000 43545 444 20130 11014 0000/ 50101 80100
 80000 9/015=
0000020100
478
ULIN01 DEMS 110000 RRB
TTDD 61008 42647 11969 76357 22824 78356 33810 74757 44771
74557 55725 75157 21212 11965 26556 22934 25557 33846 28064
44804 28049 55777 26541 66725 26043=

0000006900
479
ULIN90 VAAH 110000 COR
TTCC 6100/ 42647 88999 77999=

0000047100
480
SAIN31 VABB 111140
METAR VAAH 111140Z 06006KT 3500 FU NSC 21/10 Q1015 NOSIG=
METAR VABB 111140Z 32009KT 4500 FU NSC 23/07 Q1013 NOSIG=
METAR VANP 111140Z 00000KT 5000 HZ NSC 26/13 Q1013 TEMPO 4000 HZ=
METAR VOHS 111140Z 18004KT 140V220 5000 HZ SCT020 29/10 Q1015 NOSIG=
METAR VOMM 111140Z 08006KT 8000 NSC 27/19 Q1012 NOSIG=
METAR VOTR 111140Z 10009KT 7000 FEW016 29/19 Q1012 NOSIG=
METAR VOTV 111140Z 13004KT 5000 HZ FEW018 29/23 Q1010 NOSIG=
0000007100
481
ULIN01 DEMS 110000 CCA
TTCC 6100/ 42647 88999 77999=

0000018400
482
SSVX13 LFPW 110200
ZZYY 41800 11014 0200/ 725921 035816 6110/ 11119 40202 57008 22219
 00230 33300 88872 20000 43748 444 20100 11014 0200/ 50101 80148
 80066 9/015=
0000016900
483
SSVX13 LFPW 110200
ZZYY 41737 11014 0200/ 725769 036992 6113/ 11119 40206 57007 33300
 88872 20000 43752 444 20130 11014 0000/ 50101 80148 80063 9/015=
0000099100
484
SNIY20 LIIB 110200
AAXX 11024
16008 42560 70000 10012 20002 38549 48507 53001 87200 333 87625
      92865=
16088 NIL=
16110 41494 83102 10092 20080 30211 40215 54001 71022 886// 333 88712
      555 0////=
16134 42980 03312 10044 21038 37845 48516 58002 333 92845 95150 444
      38160=
16153 42598 53606 10110 20069 39945 40212 55001 82530 333 82625 83358
      555 0////=
16206 42865 20506 10056 20038 30211 40220 56003 81031 333 81357=
16219 42970 02805 10030 21019 38157 48541 51001=
16280 NIL=
16310 NIL=
16360 42997 00206 10114 20098 30080 40216 51001 555 0////=
16400 42498 21210 10128 20096 39931 40222 58000 81130 333 55300 81819
      555 0213/=
16420 42997 22804 10110 20027 30142 40208 53002 80001 555 0////=
16429 42962 51308 10120 20104 30192 40203 56006 83034 333 83360=
16470 NIL=
16480 42997 23004 10140 20132 30150 40211 54000 80001 555 0////=
16522 42998 50000 10122 20103 39950 40195 54000 80004 555 0////=
16550 NIL=
0000023300
485
SNVE15 KWNB 110200 RRB
BBXX
51204 11021 99213 71581 46/// ///// 1//// 90151 22200 00248 11302
21001 332// 41302 70010=
51201 11021 99217 71581 46/// ///// 1//// 90152 22200 00246 11304
20903 332// 41303 70020=
0000017000
486
SOVI10 KWAL 110206
B110070A 011020601 P9751095 B\P~W@@@0ekB1@qp???CvCx>@rB3@JD@@X4C}5DC6bW9IU<BM2?????@"??? nTBCLB{B}B{BwB~B{:AMPTEMP 28.02C  46-0NP 219E
0000013800
487
SNVD17 KWNB 110200 RRG
BBXX
51205 11021 99210 71564 46/// ///// 1//// 90151 22200 00253 11305
21003 332// 41303 70023=
0000029500
488
SXHW11 KWAL 110206
B1507246 011020602"
1,140111,01:00:00,12.1,76,17.9,24.1,1014.4,13.07,13.7,
1,140111,01:15:00,12.6,81,17.9,23.9,1014.5,13.07,13.7,
1,140111,01:30:00,13.0,82,21.4,23.7,1014.4,13.07,13.7,
1,140111,01:45:00,13.9,73,18.6,23.6,1014.6,13.07,13.7, 42-0NN 210W
0000020300
489
SOBR10 KWAL 110206
BAB00078 011020611":BUB 2 #1       M   0.249   0.279   0.259 :RAD 1 #1   0.198   0.193   0.181   0.187 :PRS 1 #1  -0.820  -0.818  -0.815  -0.809 :BL 11.46  34+0NP 219E
0000054100
490
UDAS02 BABJ 110155
AMDAR 1101
DES CNFOZL 3709N 12452E 110151 F208 MS295 271/066 TB/ S//1=
DES CNFOZL 3709N 12458E 110151 F198 MS294 274/055 TB/ S//1=
DES CNFOZL 3709N 12501E 110152 F194 MS293 274/055 TB/ S//1=
DES CNFOZL 3710N 12510E 110153 F179 MS263 276/051 TB/ S//1=
LVR CNFNXM 2818N 11520E 110144 F351 MS425 257/115 TB/ S//1=
LVR CNFNXM 2822N 11551E 110147 F351 MS425 257/115 TB/ S//1=
LVR CNFNXM 2832N 11621E 110150 F351 MS423 258/115 TB/ S//1=
LVR CNFNXM 2843N 11651E 110153 F351 MS425 257/117 TB/ S//1=
0000103700
491
UDAS02 BABJ 110157
AMDAR 1101
LVR CNFOZM 3524N 11729E 110153 F246 MS368 269/059 TB/ S//1=
LVR CNFOZM 3520N 11728E 110153 F246 MS368 268/058 TB/ S//1=
LVR CNFOZM 3517N 11726E 110154 F246 MS365 268/056 TB/ S//1=
LVR CNFOZM 3513N 11725E 110154 F246 MS365 267/054 TB/ S//1=
ASC CNFPYM 2424N 11755E 110153 F153 MS048 258/047 TB/ S//1=
ASC CNFPYM 2428N 11757E 110153 F157 MS055 257/048 TB/ S//1=
LVR CNFPYM 2431N 11759E 110154 F157 MS055 256/049 TB/ S//1=
ASC CNFPYM 2435N 11801E 110155 F169 MS080 255/052 TB/ S//1=
DES CNFPQK 3811N 11354E 110153 F121 MS170 267/024 TB/ S//1=
DES CNFPQK 3811N 11356E 110153 F118 MS165 264/025 TB/ S//1=
DES CNFPQK 3815N 11401E 110154 F109 MS149 260/024 TB/ S//1=
DES CNFPQK 3818N 11407E 110155 F100 MS134 266/019 TB/ S//1=
LVR CNFOZL 3711N 12518E 110154 F170 MS248 280/046 TB/ S//1=
LVR CNFOZL 3712N 12525E 110154 F170 MS245 279/046 TB/ S//1=
LVR CNFOZL 3712N 12527E 110155 F170 MS245 278/046 TB/ S//1=
DES CNFOZL 3711N 12536E 110156 F162 MS235 285/043 TB/ S//1=
00000000