0000010300
139
SAAH10 OAKB 110050
METAR OAKB 110050Z 32004KT 7000 NSC M08/M14 Q1024 NOSIG RMK WHT WHT=
0000100800
140
SAIR31 OIII 110100 RRA
METAR OIMB 110100Z 06006KT CAVOK M04/M11 Q1022=
METAR OIMC NIL=
METAR OIMD NIL=
METAR OIMM 110050Z 18004KT CAVOK M03/M11 Q1021 A3017=
METAR OINB 110100Z 00000KT CAVOK 04/03 Q1019=
METAR OING 110100Z 00000KT CAVOK 02/02 Q1021=
METAR OINK NIL=
METAR OINN 110100Z 21004KT CAVOK 05/02 Q1019=
METAR OINR 110100Z VRB02KT CAVOK 04/03 Q1018=
METAR OISA 110050Z 00000KT 9999 FEW040 M08/M11 Q1019=
METAR  OISF 110050Z 00000KT 9999 FEW035CB SCT040 OVC100 05/02
Q1020=
METAR OISL NIL=
METAR  OISS 110050Z 00000KT 7000 FEW035CB SCT040 OVC100 02/M01
Q1022 A3019=
METAR OISY NIL=
METAR OITL 110050Z 03004KT 9999 FEW090 BKN150 M17/M18 Q1018=
METAR OITR 110050Z 25002KT 3000 BR FEW035 OVC140 M09/M11 Q1021=
METAR OITU 110050Z 00000KT 3000 BR SKC M18/M19 Q1022=
METAR OIYY 110050Z 00000KT 9999 FEW040 BKN100 02/M01 Q1022=
METAR OIZB NIL=
METAR OIZC NIL=
METAR OIZH 110100Z 22004KT CAVOK M04/M05 Q1022 A3019=
METAR OIZI NIL=
METAR OIZJ NIL=
0000011000
141
UANT01 CWAO 110053
ARP AZA60M 4436N04730W 0053 F370 MS55 311/64 KT
EIISB QXT AOW 110053 F23A
0000011000
142
UANT01 CWAO 110053
ARP DLH423 5041N03709W 0053 F380 MS52 228/33 KT
DAIHH QXT AOW 110053 J85A
0000028900
143
UAPA01 KWBC 110054
ARP PAL104 40N 130W 0045 F390 MS60 260/065KT=
ARP UAL1221 2714N 14713W 0046 F330 MS42 265/060KT=
ARP ASA880 3013N 15107W 0042 F350 MS50 247/069KT=
ARP UAL785 2842N 13926W 0046 F340 MS40 265/025KT=
ARP UAL742 2221N 15153W 0047 F350 MS42 240/070KT=
0000272000
144
SSVX08 KARS 110053
ZZYY 53005 09014 1200/ 307999 080444 6111/
33311 88872 20001 32944 43398 20020 32875 43403 20040 32825 43399
20060 32680 43403 20080 32464 20120 32083 20140 31864 20180 31585
20500 30914
444 20110 09014 1056/ 521//=
ZZYY 56053 09014 1200/ 316010 080521 6111/
33311 88872 20001 32822 43484 20020 32819 43486 20040 32755 43486
20060 32715 43484 20080 32577 20100 32327 20120 32219 20140 32130
20180 31911 20300 31462 20500 30995
444 20110 09014 1054/ 521//=
ZZYY 56053 10014 2100/ 316016 080514 6111/
11119 10275 29087
22219 00285
444 20110 10014 2105/ 521//=
ZZYY 23004 09014 1200/ 100065 090184 6111/
33311 88872 20001 32882 43429 20080 32860 20100 32815 20120 31801
20180 31421 20300 31169 20500 30953
444 20110 09014 1235/ 521//=
ZZYY 23004 10014 21004 100073 090185 6112/
11119 01911 10270 29084
22219 00289
444 20120 10014 2101/ 521// 60401=
ZZYY 23009 09014 12004 114997 089943 6111/
11119 00414 10249 29070 40119
22219 00270
33311 88872 20000 32700 20001 32700 43318 20020 32702 43321
20040 32722 43350 20060 32723 43366 20080 32676 20100 32349
20120 32042 20140 31768 20180 31422 20300 31145 20500 30981
444 20110 09014 1231/ 521// 60401=
ZZYY 23009 10014 21004 115000 089941 6112/
11119 00907 10252 29079 40130
22219 00271
444 20120 10014 2057/ 521// 60401=
ZZYY 23001 09014 1200/ 100075 080606 6111/
33311 88872 20001 32884 43527 20060 32744 43538 20080 32445
20100 32009 20120 31776 20140 31620 20180 31383 20300 31116
20500 30990
444 20110 09014 1018/ 521//=
ZZYY 23001 10014 21004 100078 080613 6112/
11119 01308 10280 29079 40099
22219 00286
444 20120 10014 2101/ 521// 60401=
ZZYY 23010 09014 1200/ 304024 080447 6111/
33311 88872 20001 32859 20020 32891 43444 20040 32765 43514
20060 32395 43535 20080 32215 20100 31972 20120 31744 20140 31600
20300 31128 20500 30939
444 20110 09014 1056/ 521//=
ZZYY 23008 09014 1200/ 112074 088826 6112/
33311 88872 20020 32727 43379 20040 32726 43379 20060 32728 43467
20080 32428 20100 32134 20120 31961 20140 31809 20180 31515
20300 31168 20500 30991
444 20120 09014 1234/ 521//=
ZZYY 23008 10014 21004 112074 088824 6112/
11119 00611 10262 29082
444 20120 10014 2058/ 521// 60401=
ZZYY 41139 10014 12004 720011 037854 6111/
11119 00712 10215 29077 40201
22219 00240
33311 88872 20000 32402 20001 32404 43696 20020 32402 43706
20040 32402 43702 20060 32404 43704 20080 32410 20100 32351
20120 32230 20140 32151 20180 31985 20300 31610 20500 31215
444 20110 10014 1145/ 521// 60401=
ZZYY 41139 11014 00004 720014 037806 6111/
11119 00409 10221 29077 40191
22219 00241
444 20110 11014 0044/ 521// 60401=
0000011000
145
UANT01 CWAO 110054
ARP AIC126 5953N03142W 0054 F330 MS52 183/24 KT
VTALJ QXT AOW 110054 F40A
0000012800
146
SSVX07 KARS 110054
ZZYY 48508 10014 2310/ 772739 159236 6112/
11119 11255 40128
444 20120 10014 2322/ 504//=
0000011000
147
UANT01 CWAO 110055
ARP DLH401 5023N03340W 0055 F370 MS54 219/54 KT
DABTL QXT AME 110055 F90A
0000096400
148
SSVX08 KARS 110055
ZZYY 23008 10014 12004 112077 088820 6111/
11119 00610 10265 29078
33311 88870 20020 32729 20040 32725 20060 32731 20080 32442
20100 32166 20120 31984 20140 31812 20180 31508 20300 31168
20500 30991
444 20110 10014 1204/ 521// 60401=
ZZYY 23003 10014 12004 301518 080513 6111/
11119 00312 10271 29085
22219 00290
444 20110 10014 1206/ 521// 60401=
ZZYY 23003 11014 00004 301520 080519 6111/
11119 00109 10278 29079
22219 00287
444 20110 10014 2112/ 521// 60401=
ZZYY 23009 10014 12004 114998 089943 6111/
11119 00409 10255 29078 40126
22219 00271
33311 88872 20000 32708 20001 32711 43333 20020 32712 43343
20040 32715 43359 20060 32710 43364 20080 32672 20100 32346
20120 32051 20140 31773 20180 31447 20300 31143 20500 30984
444 20110 10014 1204/ 521// 60401=
ZZYY 23009 11014 00004 115001 089938 6111/
11119 00704 10253 29079 40136
22219 00271
444 20110 11014 0048/ 521// 60401=
0000013200
149
UAPA01 KWBC 110057
ARP ASA820 3317N 13337W 0050 F370 MS52 276/047KT=
ARP ASA845 48N 130W 0034 F330 MS52 240/070KT=
0000030200
150
USKZ12 UAAA 110000
TTAA  11001 35394 99962 12327 17003 00252 ///// ///// 92850 
09916 21011 85497 12113 23512 70995 11761 24510 50548 28966
23519 40703 41558 24017 30891 56950 24015 25004 66750 23515
20136 71150 25017 15308 67750 26025 10552 66656 25030 88222
71150 23516 79999=
0000166300
151
KSXD40 OKPR 110120
CREX++
T000102 A000 D07061++
 11 406 0 2014 01 11 00 00 5006972 01239306 00483
 00005 029 00010 031 00020 035 00050 040 00100 051+
 11 423 0 2014 01 11 00 00 4966611 01268000 00742
 00005 023 00010 026 00020 030 00050 035 00100 ///+
 11 487 0 2014 01 11 00 00 4946694 01384083 00519
 00005 024 00010 025 00020 025 00050 032 00100 044+
 11 502 0 2014 01 11 00 00 5068250 01404139 00375
 00005 025 00010 029 00020 033 00050 040 00100 053+
 11 509 0 2014 01 11 00 00 5045861 01417056 00158
 00005 032 00010 034 00020 037 00050 041 00100 054+
 11 520 0 2014 01 11 00 00 5000833 01444806 00303
 00005 027 00010 035 00020 037 00050 044 00100 052+
 11 538 0 2014 01 11 00 00 4919667 01434167 00500
 00005 009 00010 031 00020 036 00050 043 00100 ///+
 11 628 0 2014 01 11 00 00 4957333 01507972 00534
 00005 025 00010 030 00020 034 00050 041 00100 048+
 11 636 0 2014 01 11 00 00 4916000 01543917 00569
 00005 013 00010 027 00020 034 00050 043 00100 049+
 11 643 0 2014 01 11 00 00 5069222 01572861 00816
 00005 014 00010 016 00020 019 00050 /// 00100 ///+
 11 659 0 2014 01 11 00 00 4958278 01576250 00533
 00005 014 00010 030 00020 028 00050 035 00100 044+
 11 679 0 2014 01 11 00 00 4998028 01642222 00402
 00005 038 00010 041 00020 039 00050 047 00100 061+
 11 693 0 2014 01 11 00 00 4909583 01613444 00400
 00005 031 00010 039 00020 041 00050 055 00100 059+
 11 698 0 2014 01 11 00 00 4888333 01608333 00334
 00005 039 00010 043 00020 052 00050 058 00100 066+
 11 710 0 2014 01 11 00 00 4965250 01695361 00510
 00005 037 00010 041 00020 046 00050 052 00100 ///++
7777
0000017000
152
SOVI10 KWAL 110121
B110070A 011012101"P9751095 B\P~W@@R0ekA1@qx???CxC|>@qo3@HD@@S4C?5DC6bU9I@<BM2?????@"??? nTARLCDB~B}CEB{B}:AMPTEMP 28.37C  48-0NN 219E
0000295700
153
USCI05 BABJ 110000
TTAA  10231 50557 99994 36522 25001 92764 24963 34010 85373
29962 31512 70734 36544 30023 50503 42960 29030 40651 49960
29528 30839 50361 28525 25959 46962 29029 20108 43163 29521
15300 45764 28021 10573 40965 27516 88399 50160 29528 77999
31313 63203 82315=
TTAA  10231 50953 99010 21731 27002 00192 21323 28504 92775
18165 31510 85402 22159 30012 70805 29519 29022 50515 41936
29036 40664 48362 28540 30851 51963 28539 25971 48164 28529
20119 45766 28530 15309 46566 28033 10580 46967 27524 88365
50762 29042 77369 29042 31313 63203 82315=
TTAA  10231 51709 99875 10934 00000 85615 06556 25501 70110
12557 29001 50560 27965 28006 40718 37168 33013 30910 51165
33521 25025 605// 32522 20163 619// 28521 15343 575// 28028
10597 609// 27030 88232 625// 30524 77999 31313 63203 82315=
TTAA  10231 51777 99934 15756 20501 92958 08358 14502 85617
08160 19002 70112 13770 22502 50560 29921 27007 40715 41358
29015 30904 56958 27027 25018 583// 27522 20159 565// 26522
15343 553// 27025 10602 573// 26023 88269 605// 27025 77999
31313 63203 82315=
TTAA  10231 53068 99912 16959 23503 85504 12562 32503 70971
18758 28012 50540 34924 28527 40692 45736 27537 30879 55758
27035 25996 53560 27538 20140 51362 27532 15327 49764 27033
10592 50165 27526 88298 55958 27035 77274 27038 31313 63203
82316=
TTAA  10231 53513 99907 13161 22501 85541 07566 27508 70030
14570 29015 50550 29764 27025 40705 42360 28031 30894 54565
26536 25010 54968 27037 20153 52778 27035 15340 50578 26532
10601 54977 27527 88277 56366 26536 88111 56177 27027 77288
26537 31313 63303 82315=
TTAA  10231 54102 99907 17958 18003 85491 14561 29010 70940
22124 29518 50535 35744 28533 40687 45756 28045 30874 53960
28042 25991 54361 28042 20135 52564 27537 15323 48166 27036
10589 49767 28529 88283 55561 27543 77384 28046 31313 63203
82315=
TTAA  10231 54161 99998 17556 22501 92820 13762 28512 85457
18757 27016 70891 23959 29021 50528 38161 29038 40678 47362
28546 30866 51378 28550 25984 48979 28545 20132 47379 27541
15322 47979 27537 10591 44180 29014 88354 51369 29048 77323
28551 31313 63303 82315=
TTAA  10231 54292 99994 13960 00000 92807 13764 26010 85442
19158 28018 70868 23760 29523 50525 38162 29538 40675 47761
29545 30864 50961 28545 25983 48962 28548 20130 46363 27543
15320 47564 28049 10590 42366 27024 88380 49161 29549 77375
29550 31313 63203 82315=
TTAA  10231 56029 99643 10562 29000 50563 20123 19504 40725
31136 23012 30922 48547 26026 25040 53358 26036 20183 54760
26050 15367 54962 25546 10621 631// 26539 88271 54550 26028
88102 637// 26540 77206 26050 31313 63203 82315=
TTAA  10231 56080 99716 16135 00000 70078 15125 02502 50561
21565 29018 40722 33962 27029 30917 48743 26040 25034 57542
26544 20177 54958 26048 15361 53960 25550 10617 601// 26034
88256 57541 26543 88110 607// 26537 77162 25550 77367 26531
31313 63203 82315=
0000128500
154
UDAS02 BABJ 110111
AMDAR 1101
ASC CNFLWM 2343N 11423E 110107 F212 MS110 250/067 TB/ S//1=
ASC CNFLWM 2347N 11426E 110108 F222 MS115 249/068 TB/ S//1=
LVR CNFLWM 2350N 11429E 110108 F226 MS110 257/068 TB/ S//1=
LVR CNFLWM 2354N 11432E 110109 F226 MS110 257/069 TB/ S//1=
DES CNFLWR 2308N 11225E 110107 F130 MS001 276/025 TB/ S//1=
DES CNFLWR 2307N 11226E 110107 F128 PS005 275/025 TB/ S//1=
DES CNFLWR 2304N 11232E 110108 F117 PS023 261/025 TB/ S//1=
DES CNFLWR 2304N 11239E 110109 F105 PS038 236/023 TB/ S//1=
DES CNFPYN 2802N 11315E 110108 F018 PS006 020/013 TB/ S//1=
DES CNFPYN 2804N 11314E 110109 F018 PS005 018/013 TB/ S//1=
DES CNFPYN 2805N 11314E 110109 F016 PS010 008/013 TB/ S//1=
DES CNFPYN 2807N 11313E 110110 F011 PS010 346/010 TB/ S//1=
ASC CNFLWT 2656N 10718E 110108 F179 MS109 260/050 TB/ S//1=
ASC CNFLWT 2658N 10722E 110109 F192 MS134 253/054 TB/ S//1=
ASC CNFLWT 2700N 10726E 110109 F205 MS163 253/059 TB/ S//1=
ASC CNFLWT 2703N 10730E 110110 F217 MS190 255/060 TB/ S//1=
ASC CNFPQL 3648N 11626E 110108 F208 MS291 263/059 TB/ S//1=
ASC CNFPQL 3649N 11622E 110109 F220 MS321 260/065 TB/ S//1=
ASC CNFPQL 3650N 11618E 110109 F233 MS358 266/065 TB/ S//1=
LVR CNFPQL 3650N 11614E 110110 F236 MS365 270/070 TB/ S//1=
0000005200
155
RRIN23 VECC 110120
RQRPT 519-540=

0000066800
156
USAA01 NZCM 110000
TTAA 61001 89664
99997 00056 18501 00512 ///// ///// 92601 07158 18518
85255 11341 17017 70716 21114 15006 50514 33959 24513
40666 44759 24520 30855 51765 24023 25975 45585 24514
20124 43786 24513 15318 43586 26009 10592 41586 23504
88320 52361 23026
77999
31313 48008 82219=

0000069700
87361=
0000011200
87368=
0000015000
87382=
0000030600
87414
0000014800
87423
0000049900
87438
0000052000
87459
0000058200
87471
0000050000
87489
0000052100
87522=
0000058400
87725
0000058500
87827
0000058500
88015
0000062600
88202
0000066800
88447
0000068900
88742=
0000070900
157
USAA01 NZCM 110000
TTAA 61001 89664
99997 00056 18501 00512 ///// ///// 92601 07158 18518
85255 11341 17017 70716 21114 15006 50514 33959 24513
40666 44759 24520 30855 51765 24023 25975 45585 24514
20124 43786 24513 15318 43586 26009 10592 41586 23504
88320 52361 23026
77999
31313 48008 82219=

0000069700
87361=
0000011200
87368=
0000015000
87382
0000012800
87386
0000045600
87406
0000047700
87410
0000049800
87416
0000051900
87420
0000047800
87441
0000045800
87463
0000047900
87474
0000054100
87493
0000052100
87509=
0000048100
87737
0000050200
87932
0000058500
88143
0000064700
88436
0000060700
88746=
0000068800
158
USAA01 NZCM 110000
TTAA 61001 89664
99997 00056 18501 00512 ///// ///// 92601 07158 18518
85255 11341 17017 70716 21114 15006 50514 33959 24513
40666 44759 24520 30855 51765 24023 25975 45585 24514
20124 43786 24513 15318 43586 26009 10592 41586 23504
88320 52361 23026
77999
31313 48008 82219=

0000069700
87361=
0000011200
87368
0000009600
87371
0000035800
87378
0000037300
87381=
0000039500
87413
0000041600
87422
0000043700
87443
0000045800
87466
0000054100
87469=
0000050100
87581
0000046000
87641
0000058400
87805
0000058500
87979
0000054400
88203
0000060600
88445
0000056500
88731=
00000000