0000064700
576
USAA01 NZCM 110000
TTAA 61001 89664
99997 00056 18501 00512 ///// ///// 92601 07158 18518
85255 11341 17017 70716 21114 15006 50514 33959 24513
40666 44759 24520 30855 51765 24023 25975 45585 24514
20124 43786 24513 15318 43586 26009 10592 41586 23504
88320 52361 23026
77999
31313 48008 82219=

0000069700
87361=
0000011200
87368
0000009600
87371
0000035800
87378
0000037300
87381
0000039400
87385
0000039400
87407=
0000012000
87430
0000054000
87439
0000049900
87460
0000047900
87470=
0000052200
87585
0000052200
87663
0000064600
87774=
0000060600
88825=
0000066800
577
USAA01 NZCM 110000
TTAA 61001 89664
99997 00056 18501 00512 ///// ///// 92601 07158 18518
85255 11341 17017 70716 21114 15006 50514 33959 24513
40666 44759 24520 30855 51765 24023 25975 45585 24514
20124 43786 24513 15318 43586 26009 10592 41586 23504
88320 52361 23026
77999
31313 48008 82219=

0000069700
87361=
0000011200
87368=
0000015000
87382
0000012800
87386
0000045600
87406
0000047700
87410
0000049800
87416
0000051900
87420
0000047800
87441=
0000045900
87536=
0000052200
87739
0000056400
87935=
0000064800
88953
0000066900
89556
0000062800
90252
0000075200
91259
0000056500
578
USAA01 NZCM 110000
TTAA 61001 89664
99997 00056 18501 00512 ///// ///// 92601 07158 18518
85255 11341 17017 70716 21114 15006 50514 33959 24513
40666 44759 24520 30855 51765 24023 25975 45585 24514
20124 43786 24513 15318 43586 26009 10592 41586 23504
88320 52361 23026
77999
31313 48008 82219=

0000069700
87361=
0000011200
87368=
0000015000
87382
0000012800
87386
0000045600
87406=
0000047800
87429
0000015700
87445=
0000050000
87538=
0000054300
87731
0000056400
87826=
0000052400
88891=
0000060600
579
USAA01 NZCM 110000
TTAA 61001 89664
99997 00056 18501 00512 ///// ///// 92601 07158 18518
85255 11341 17017 70716 21114 15006 50514 33959 24513
40666 44759 24520 30855 51765 24023 25975 45585 24514
20124 43786 24513 15318 43586 26009 10592 41586 23504
88320 52361 23026
77999
31313 48008 82219=

0000069700
87361=
0000011200
87368
0000009600
87371
0000035800
87378
0000037300
87381
0000039400
87385
0000039400
87407=
0000012000
87430=
0000054100
87500
0000056200
87510=
0000050200
87730
0000009800
87843=
0000058600
88893=
0000060600
580
USAA01 NZCM 110000
TTAA 61001 89664
99997 00056 18501 00512 ///// ///// 92601 07158 18518
85255 11341 17017 70716 21114 15006 50514 33959 24513
40666 44759 24520 30855 51765 24023 25975 45585 24514
20124 43786 24513 15318 43586 26009 10592 41586 23504
88320 52361 23026
77999
31313 48008 82219=

0000069700
87361=
0000011200
87368=
0000015000
87382
0000012800
87386
0000045600
87406
0000047700
87410
0000049800
87416=
0000045800
87478
0000043800
87484
0000050000
87523
0000054200
87562=
0000060500
87889=
0000056500
88903=
0000058500
581
USAA01 NZCM 110000
TTAA 61001 89664
99997 00056 18501 00512 ///// ///// 92601 07158 18518
85255 11341 17017 70716 21114 15006 50514 33959 24513
40666 44759 24520 30855 51765 24023 25975 45585 24514
20124 43786 24513 15318 43586 26009 10592 41586 23504
88320 52361 23026
77999
31313 48008 82219=

0000069700
87361=
0000011200
87368
0000009600
87371
0000035800
87378
0000037300
87381=
0000039500
87413=
0000052000
87479
0000056200
87492
0000045900
87517
0000054200
87560=
0000060500
87886=
0000062700
88913=
0000073000
582
USAA01 NZCM 110000
TTAA 61001 89664
99997 00056 18501 00512 ///// ///// 92601 07158 18518
85255 11341 17017 70716 21114 15006 50514 33959 24513
40666 44759 24520 30855 51765 24023 25975 45585 24514
20124 43786 24513 15318 43586 26009 10592 41586 23504
88320 52361 23026
77999
31313 48008 82219=

0000069700
87361=
0000011200
87368=
0000015000
87382=
0000030600
87414
0000014800
87423
0000049900
87438
0000052000
87459
0000058200
87471
0000050000
87489
0000052100
87522
0000058300
87546
0000054200
87595
0000058400
87662
0000064600
87772
0000066700
87960=
0000056500
88962
0000060700
89557
0000062800
90254
0000071100
91262
0000010800
583
SIIN21 DEMS 102100 RRC
AAXX 10214
42706 31994 00000 10142 20124 40153 71000
  333 58001=
0000010200
584
SAIN90 VOCB 110330
METAR VOCB 110330Z 10008KT 3000 HZ FEW015 BKN080 22/18 Q1018 NOSIG=
0000014700
585
SMET01 HAAB 110000
AAXX 11001
63450 NIL=
63451 NIL=
63471 42980
00000 10190 20140 38870 40151 333 58007=
            NNNN
0000293200
586
SIRA27 RUHB 110300
AAXX 11031
24790 42984 00202 11272 21284 39347 40230 54000=
24894 41999 83202 11234 21274 39095 40190 54000 70232 80005=
24898 41699 20204 11227 21284 39423 40185 58004 73630 81530=
24982 42999 63503 11143 21204 39604 40118 52006 82031=
24988 42999 83604 11108 21218 39837 40094 52002 86037=
25034 42999 00000 11349 21353 30235 40269 52008 333 91105=
25378 41998 23609 11138 21220 30147 40177 52001 73630 80001 333 91016
91121=
25503 41999 10000 11324 21348 30103 40246 58006 70270 80001=
25627 42699 60000 11217 21242 39235 40161 57007 70271 82531=
25648 41598 80506 11176 21202 30028 40086 57012 75652 885//=
25705 41998 62201 11258 21270 39866 40226 58003 77172 86070=
25700 42699 50000 11363 21384 39810 40260 58004 81531=
25707 42999 63503 11221 21247 39757 40228 58004 86070=
25715 41999 70102 11251 21276 39512 40186 57008 77172 83036=
25808 41998 80000 11302 21319 39273 40235 58001 77172 85037=
25820 42699 70206 11130 21186 30073 40089 56008 86530 333 91011
91113=
25904 41999 20302 11232 21298 39485 40182 58005 70230 82031=
25916 42699 61006 11103 21176 39976 40061 52006 86500=
25919 42399 20111 11135 21242 30059 40076 52008 82500 333 91013
91120=
25922 41699 60108 11141 21202 30042 40086 58006 73731 82501 333 91011
91116=
25927 41599 13507 11171 21230 30080 40087 58004 73631 81500=
25932 NIL=
25941 41599 70910 11162 21188 30033 40052 58002 73631 87500 333 91014
91114=
31083 42999 20000 11155 21225 39949 40110 52003 80001=
31096 42699 71006 11122 21184 30015 40083 51002 82530 333 91014
91115=
31152 41997 83201 11347 21391 39871 40331 58003 77172 8802/=
31174 41596 83407 11216 21248 30129 40141 58002 77173 885// 333 91012
91114=
31489 42998 00701 11314 21350 30052 40183 57006=
31866 42999 02804 11127 21313 30158 40162 58011 333 91111=
31959 82998 02605 11104 21260 30178 40223 58018 333 91010 91110=
31989 42599 12502 11065 21228 30194 40250 58016 81100=
32027 42999 61802 11205 21246 30096 40105 58009 83032 333 91003
91104=
32076 42998 02802 11180 21239 30086 40097 58015 333 91003 91105=
32099 42598 63408 11156 21198 30108 40116 58008 86900 333 91011
91113=
32121 41598 73206 11140 21201 30091 40115 58019 78583 87900 333 91009
91111=
32213 41497 83517 11029 21051 39850 49913 57009 73632 886// 333 91020
91124=
32222 42599 80502 11125 21160 39973 49997 58019 885//=
32287 41395 80000 11119 21139 39957 49967 58003 78582 889// 333
88707=
32333 42598 80707 11043 21103 39977 49989 54000 885// 333 91111=
32408 41597 60204 11074 21085 39940 49969 57004 72682 85530=
32411 NIL=
32509 41699 80205 11029 21115 39918 49952 58005 70232 82507 333
91115=
32519 41599 63402 11041 21091 39937 49957 57003 70282 84530=
32562 41596 80402 11075 21084 39912 49950 58003 78582 889//=
32594 41495 80210 11053 21063 39903 49939 52008 78583 889// 333 91013
91109 92980=
0000234700
587
SIRA25 RUNW 110300
AAXX 11031
23074 NIL=
23078 41898 51207 11211 21251 30058 40147 52010 73632 85070 333 21214
91010 91114=
23274 41997 22001 11330 21360 30147 40188 52025 70272 80001=
23383 42998 80000 11412 21438 39881 40294 53008 82045 333 21412=
23472 41497 72902 11221 21270 30140 40192 52020 78582 87900=
23578 419// 81801 11144 21164 30143 40184 52011 77172 8807/=
23589 41997 81402 11277 21308 30112 4//// 53002 77172 8807/=
23678 415// 81402 11133 21160 30139 40200 52005 77173 885//=
23788 41896 81702 11189 21215 30159 40245 53005 77172 8802/=
23884 41668 80000 11167 21180 30154 40232 53010 77172 8652/ 333
21179=
23891 41697 70000 11298 21328 39965 57003 77177 86530=
24507 41996 80000 11415 21450 30057 40344 57002 77172 80007=
24817 41996 30000 11485 21506 39995 40431 57007 71000 80001=
24908 41965 80501 11343 21378 39989 40366 57009 77172 86037=
29068 41897 81502 11119 21132 30162 40251 53006 77177 8802/=
29263 41596 81602 11093 21105 30154 40259 52002 78582 8595/=
29274 41956 81101 11095 21111 30160 40278 53005 77177 8802/=
29282 41997 82401 11241 21267 30132 40319 57001 77177 8807/=
29363 43/// /2202 11084 21091 30037 40274 54001=
29379 41797 81703 11110 21123 30077 40300 52006 77172 8802/=
29456 83/// /2203 11074 21114 30025 40292 52012=
29464 41996 82104 11070 21095 39992 40292 52015 77173 8802/=
29477 41996 82204 11069 21088 30086 40301 52009 77172 86025=
29563 41898 82404 11088 21108 39692 40306 52012 77122 8802/=
29570 41598 82601 11068 21102 39947 40304 53010 78582 889//=
29576 41897 82102 11081 21097 39827 40311 52012 77177 85037=
29662 43/// /2102 11058 21090 39904 40317 52009=
29698 41996 80000 11186 21203 39806 40360 53005 77172 86071=
30028 42998 60000 11421 21456 39912 40444 57006 83041=
30157 42998 40801 11433 21469 30177 40521 51001 80001=
30230 41992 40000 11467 21496 30081 40482 57003 74440 80001=
30252 41994 30901 11455 21472 30167 40550 51006 71040 80004=
30309 41998 80000 11204 21216 39797 40361 54000 77172 83027=
30328 42998 30000 11365 21394 39970 40469 52005 80001 333 21395=
30521 41597 80000 11306 21324 39850 40447 52011 78582 82901 333
21331=
30710 41997 30901 11185 21198 39769 40400 52004 70271 80001 333
21198=
30815 42999 22701 11201 21213 38599 48530 52005 80005=
36103 NIL=
0000011000
588
UANT01 CWAO 110331
ARP UAL81 4822N04826W 0331 F370 MS65 313/66 KT
N14102 DDL YYT 110331 F44A
0000011000
589
UANT01 CWAO 110331
ARP JAI227 4829N03756W 0330 F360 MS52 253/26 KT
VTJWT QXT AOW 110331 J72A
0000011000
590
UANT01 CWAO 110331
ARP VIR22N 4949N04108W 0331 F390 MS53 276/32 KT
GVUFO DDL XXH 110331 J15A
0000012400
591
SIRA25 RUNW 110300 RRA
AAXX 11031
36103 41897 80000 11206 21225 39254 40468 53012 77172 8802/ 333
95050=
0000011100
592
UANT01 CWAO 110331
ARP UAL918 4712N04431W 0331 F390 MS56 312/50 KT
N796UA DDL XXW 110331 F29A
0000011100
593
UANT01 CWAO 110331
ARP IBE6405 4521N03401W 0331 F340 MS47 225/56 KT
ECINO QXT EUA 110331 J08A
0000010800
594
UANT01 CWAO 110331
ARP VIR4 5230N03302W 0331 F390 MS53 215/47 KT
GVNAP DDL XXW 110331 J33A
0000011000
595
UANT01 CWAO 110331
ARP AFR681 4722N04345W 0331 F380 MS55 307/54 KT
FGSPP QXT AOW 110331 F11A
00000000