0000015100
696
SSVX02 CWAO 110300
ZZYY 47565 11014 0300/ 767395 028650 6113/ 11119 
49938 57002 22219 01004 444 20130 11014 0300/ 50400 80138 80001=
0000015100
697
SSVX02 CWAO 110300
ZZYY 72514 11014 0300/ 562199 058961 6113/ 11122 
40178 57036 22231 00122 444 20130 11014 0300/ 50100 80106 80001=
0000013900
698
SSVX02 CWAO 110300
ZZYY 64711 11014 0300/ 766758 002861 6113/ 22219 
00043 444 20130 11014 0300/ 50101 80130 80005 9/015=
0000016000
699
SSVX02 CWAO 110300
ZZYY 56950 11014 0300/ 307931 103133 6113/ 11119 
40105 52008 22219 00290 444 20130 11014 0300/ 50101 80146 80016 
9/015=
0000013900
700
SSVX02 CWAO 110300
ZZYY 64731 11014 0300/ 764194 013134 6113/ 22219 
00076 444 20130 11014 0300/ 50101 80138 80002 9////=
0000016000
701
SSVX02 CWAO 110300
ZZYY 55582 11014 0300/ 334234 154584 6112/ 11119 
40180 57022 22219 00224 444 20130 11014 0300/ 50101 80148 80006 
9/015=
0000015100
702
SSVX02 CWAO 110300
ZZYY 55580 11014 0300/ 339668 160725 6113/ 11119 
40198 57015 22219 00180 444 20130 11014 0300/ 50100 80142 80013=
0000016000
703
SSVX02 CWAO 110300
ZZYY 56542 11014 0300/ 324511 073732 6113/ 11119 
40203 52017 22219 00253 444 20130 11014 0300/ 50101 80134 80019 
9/015=
0000058000
704
SIGG20 UGGG 110300
AAXX 11031
37395 32997 30904 10048 21055 30052 40194 57026 82030
  555 20044 50072 7000/=
37409 32998 00916 11046 21133 38750 48469 57027
  333 95000
  555 21050 47106 50015 7000/=
37432 32997 00000 11080 21116 39022 48530 52005
  333 45998
  555 21082 51036 7000/=
37514 32996 00000 11165 21174 39085 40363 58005
  333 55006
  555 21183 47007 7000/=
37545 329// 00000 11036 21043 39684 40220 57032
  555 21040 50030 7000/=
37621 329// 02701 11032 21075 39551 40217 57026
  555 21036 34109 50021 7000/=
37484 NIL=
0000010400
705
SILV20 UMRR 110300 RRA
AAXX 11031
26416 33/// /2704 10000 21003 40028 52021 333 91112=
0000016000
706
SSVX05 CWAO 110300
ZZYY 44690 11014 0300/ 754345 052062 6113/ 11119 
40053 57014 22219 00034 444 20130 11014 0300/ 50101 80142 80001 
9////=
0000024900
707
SIVD15 KWNB 110300 RRI
BBXX
41038 11031 99341 70777 46/// /1604 10149 90300 22200 00142 333
91205 555 11043 22047=
41056 11031 99183 70655 46/// /0608 10260 40184 51009 90300 22200
00266 10703 70014 333 91209 555 11084 22091=
0000015800
708
SIVD20 KWNB 110300 RRJ
BBXX
41052 11031 99183 70648 46/// /0708 10258 40181 51006 90300 22200
00266 11003 70016 333 91210 555 11088 22096=
0000037000
709
SIVD19 KWNB 110300 RRB
BBXX
46126 11031 99540 71666 46/// /2104 10044 49837 90248 22200 00046
1//00 70001 333 91206 555 11048 22052=
46126 11031 99540 71666 46/// /2104 10044 49837 90250 22200 00046
1//00 70001 333 91206 555 11048 22052=
46126 11031 99540 71666 46/// /2205 10044 49837 90254 22200 00046
1//00 70001 333 91206 555 11053 22058=
0000027500
710
SXHW11 KWAL 110317
15D142A4 011031702 :PRS 1 #1 1406 1392 1394 1403 1405 1398 1399 1400 1391 1415 :RAD 1 #1 6978 6973 6975 6980 6979 6978 6978 6981 6983 6994 :ENC 2 #5 4884 4887 4898 4900 :SW1 17 #60 0 :SW2 47 #60 0 :BAT 4 #5 13.8 :NAME 15D142A4  34+0NN 216W
0000003900
711
SIVA21 ESWI 110300
NIL=
0000003900
712
SIVB21 ESWI 110300
NIL=
0000013300
713
SIVF21 ESWI 110300
BBXX
SBHI 11031 99583 10197 41/98 83108 10005 21016 40031 52005
70322 8//// 22282 00063 2////=
0000137500
714
SIIN90 VECC 110300
AAXX 11034
42807 31995 00000 10178 20151 40177 71000
  333 20132 59003
  555 10000=
42603 32595 01801 10168 20113 40187
  333 20108 58002
  555 10000=
42399 31496 80000 10144 20106 40187 70500 8562/
  333 20117 58009
  555 10000=
42706 31995 00000 10130 20123 40168 71000
  333 20118 59008
  555 10002=
42217 31595 70000 10084 20050 38782 48591 70522 87400
  333 20068 58002
  555 10000=
42403 31995 60000 10144 20126 40191 70511 86050
  333 20081 58004
  555 10000=
42299 31495 70000 10062 20032 38231 48544 70522 85630
  333 20052 58017 82710 85618
  555 10000=
42901 31996 03601 10160 20146 40169 70500
  333 20115 59006
  555 10000=
42806 31995 00000 10176 20166 40180 70500
  333 20133 59002
  555 10000=
42811 31994 03401 10150 20143 40179 74044
  333 20122 59006
  555 10000=
42812 31995 00000 10150 20150 40175 71000
  333 20116 59002
  555 10000=
43333 31496 50706 10288 20233 40144 70510 84401
  333 20253 56109 58004 82618 83820
  555 10000=
42711 32594 00000 10140 20136 40195
  333 20102 59001
  555 10000=
42503 21593 83602 10158 20133 40193 74454 8451/
  333 20141 58002 6990/
  555 10000=
42803 31996 03601 10154 20133 40177 70544
  333 20123
  555 10000=
42708 31995 03602 10166 20115 40184 70500
  333 20103 59002
  555 10002=
0000006100
715
UXIN90 VECC 110000
PPAA 6102/ 42299 LOW CLOUD
00000000