0000013000
703
SIIN90 VIHS 110300
AAXX 11034
42131 31995 02701 10054 20045 40202 71000
  333 10200 20030 58017
  555 10000=
0000953000
704
SNIN01 DEMS 110200
OOXX
  ADI 11024 99104 10794 06509 00062 26/// /3505 10208 20208 30144 40151 5//// 6//// 7//// 8//// 9////   333 55/// ///// 58005 6000/   555 6//// =
  AHM 11024 99231 10726 10132 00552 26/// /0202 10/// 29000 3//// 4//// 5//// 6//// 7//// 8//// 9////   333 55/// ///// 58/// 6////   555 6//// =
  AMA 11024 99191 10847 06494 00102 26/// /0001 10190 20190 30150 40162 5//// 6//// 7//// 8//// 9////   333 55/// ///// 58003 6000/   555 6//// =
  BNG 11024 99130 10776 06537 09212 26/// /0602 10174 20174 39125 48523 5//// 6//// 7//// 8//// 9////   333 55/// ///// 58002 6000/   555 6//// =
  BPT 11024 99159 10805 06450 00082 26/// /0901 10213 20213 30149 40158 5//// 6//// 7//// 8//// 9////   333 55/// ///// 59002 6000/   555 6//// =
  BHJ 11024 99232 10697 10239 01202 26/// /1902 10101 20101 30052 40198 5//// 6//// 7//// 8//// 9////   333 55/// ///// 58028 6000/   555 6//// =
  BDL 11024 99274 10958 09975 24842 26/// /0901 10025 20484 37574 47117 5//// 6//// 7//// 8//// 9////   333 55/// ///// 58/// 6000/   555 6//// =
  BRG 11024 99198 10857 06495 00022 26/// /0001 10192 20192 30173 40176 5//// 6//// 7//// 8//// 9////   333 55/// ///// 59004 6////   555 6//// =
  CAN 11024 99222 10887 10028 00042 26/// /0400 10125 20074 30171 40176 5//// 6//// 7//// 8//// 9////   333 55/// ///// 59001 6000/   555 6//// =
  CHP 11024 99214 10870 10017 00062 26/// /3602 10433 20433 39959 49965 5//// 6//// 7//// 8//// 9////   333 55/// ///// 58000 6////   555 6//// =
  CHG 11024 99271 10957 09975 05002 26/// /0100 10/// 29099 39685 4//// 5//// 6//// 7//// 8//// 9////   333 55/// ///// 58003 6000/   555 6//// =
  CHN 11024 99131 10802 06430 00092 26/// /2900 10222 20222 30149 40159 5//// 6//// 7//// 8//// 9////   333 55/// ///// 58004 6000/   555 6//// =
  CDM 11024 99114 10797 06519 00052 26/// /3004 10229 20229 30149 40155 5//// 6//// 7//// 8//// 9////   333 55/// ///// 58005 6000/   555 6//// =
  DPZ 11024 99278 10942 09974 03002 26/// /1701 10116 20113 39910 40269 5//// 6//// 7//// 8//// 9////   333 55/// ///// 58/// 6000/   555 6//// =
  DRS 11024 99158 10796 06559 01262 26/// /0104 10209 20209 30018 40163 5//// 6//// 7//// 8//// 9////   333 55/// ///// 58000 6000/   555 6//// =
  DVD 11024 99164 10734 06563 00442 26/// /1105 10205 20205 30083 40134 5//// 6//// 7//// 8//// 9////   333 55/// ///// 58008 6000/   555 6//// =
  DMR 11024 99268 10947 09964 01602 26/// /2801 10113 20113 39995 40188 5//// 6//// 7//// 8//// 9////   333 55/// ///// 58007 6000/   555 6//// =
  DWK 11024 99224 10691 10229 00112 26/// ///// 10/// 29/// 3//// 4//// 5//// 6//// 7//// 8//// 9////   333 55/// ///// 58/// 6////   555 6//// =
  GTK 11024 99273 10886 10078 13222 26/// /36// 10290 20266 38785 48615 5//// 6//// 7//// 8//// 9////   333 55/// ///// 58/// 6000/   555 6//// =
  GOA 11024 99154 10738 06553 00562 26/// /0602 10197 20166 30074 40140 5//// 6//// 7//// 8//// 9////   333 55/// ///// 58012 6000/   555 6//// =
  GWH 11024 99261 10916 09961 00542 26/// ///// 10/// 29100 3//// 4//// 5//// 6//// 7//// 8//// 9////   333 55/// ///// 58/// 6////   555 6//// =
  GWL 11024 99262 10782 10168 02072 26/// /0000 10102 20102 39940 40189 5//// 6//// 7//// 8//// 9////   333 55/// ///// 58005 6000/   555 6//// =
  HNM 11024 99296 10744 10194 01802 26/// /0001 10040 20040 39985 40208 5//// 6//// 7//// 8//// 9////   333 55/// ///// 58/// 6000/   555 6//// =
  HSM 11024 99267 10894 10069 01092 26/// /16// 10109 20109 30063 40195 5//// 6//// 7//// 8//// 9////   333 55/// ///// 58008 6000/   555 6//// =
  IND 11024 99227 10758 10125 05672 26/// /2700 10096 20096 39520 40186 5//// 6//// 7//// 8//// 9////   333 55/// ///// 58016 6000/   555 6//// =
  JTH 11024 99306 10796 13709 18752 26/// ///02 10054 20/// 3//// 40/// 5//// 6//// 7//// 8//// 9////   333 55/// ///// 58/// 6////   555 6//// =
  KLV 11024 99129 10794 06529 01382 26/// /3102 10194 20194 30002 40162 5//// 6//// 7//// 8//// 9////   333 55/// ///// 58003 6000/   555 6//// =
  KPK 11024 99109 10798 06509 00032 26/// ///// 10216 20214 30149 40152 5//// 6//// 7//// 8//// 9////   333 55/// ///// 58005 6000/   555 6//// =
  KVL 11024 99149 10800 06540 00242 26/// /2702 10210 20210 30132 40160 5//// 6//// 7//// 8//// 9////   333 55/// ///// 59001 6000/   555 6//// =
  KHM 11024 99256 10941 09954 14202 26/// /2301 10117 20033 38613 48528 5//// 6//// 7//// 8//// 9////   333 55/// ///// 58015 6000/   555 6//// =
  KOL 11024 99227 10884 10028 00062 26/// /2601 10138 20138 30165 40172 5//// 6//// 7//// 8//// 9////   333 55/// ///// 58000 6000/   555 6//// =
  KTR 11024 99090 10767 02996 00752 26/// /1203 10240 20195 30059 40145 5//// 6//// 7//// 8//// 9////   333 55/// ///// 58012 6000/   555 6//// =
  LKN 11024 99269 10809 10060 01112 26/// /1405 10134 20134 30039 40172 5//// 6//// 7//// 8//// 9////   333 55/// ///// 58/// 6000/   555 6//// =
  MBL 11024 99180 10737 06583 13842 26/// /2304 10138 20002 38638 48519 5//// 6//// 7//// 8//// 9////   333 55/// ///// 59003 6000/   555 6//// =
  MHV 11024 99211 10718 10111 00092 26/// ///// 10/// 29/// 3//// 4//// 5//// 6//// 7//// 8//// 9////   333 55/// ///// 58/// 6////   555 6//// =
  MLM 11024 99121 10796 06429 00572 26/// /2810 10202 20199 30088 40155 5//// 6//// 7//// 8//// 9////   333 55/// ///// 58003 6000/   555 6//// =
  MNY 11024 99083 10732 02983 00022 26/// /0601 10266 20256 30145 40147 5//// 6//// 7//// 8//// 9////   333 55/// ///// 58009 6000/   555 6//// =
  COL 11024 99189 10728 06582 00112 26/// /2700 10173 20059 30145 40158 5//// 6//// 7//// 8//// 9////   333 55/// ///// 58021 6000/   555 6//// =
  SCZ 11024 99191 10728 06592 00152 26/// /3601 10146 20067 30140 40158 5//// 6//// 7//// 8//// 9////   333 55/// ///// 58022 6000/   555 6//// =
  MRD 11024 99183 10730 06583 00032 26/// /1501 10161 2//// 30146 40150 5//// 6//// 7//// 8//// 9////   333 55/// ///// 58018 6000/   555 6//// =
  NSR 11024 99164 10817 06461 00042 26/// /1800 10213 20369 30158 40163 5//// 6//// 7//// 8//// 9////   333 55/// ///// 58000 6000/   555 6//// =
  NSK 11024 99200 10737 06503 06042 26/// /2203 10070 20060 39469 40184 5//// 6//// 7//// 8//// 9////   333 55/// ///// 58015 6////   555 6//// =
  NWP 11024 99208 10826 10002 03512 26/// /1901 10/// 29100 3//// 4//// 5//// 6//// 7//// 8//// 9////   333 55/// ///// 58/// 6////   555 6//// =
  NLR 11024 99144 10800 06540 00142 26/// /3002 10212 20212 30145 40162 5//// 6//// 7//// 8//// 9////   333 55/// ///// 58002 6000/   555 6//// =
  NYR 11024 99082 10773 02987 00522 26/// /2302 10232 20232 30078 40138 5//// 6//// 7//// 8//// 9////   333 55/// ///// 58010 6001/   555 6//// =
  NPR 11024 99200 10861 10006 00152 26/// ///// 10300 20/// 3//// 4//// 5//// 6//// 7//// 8//// 9////   333 55/// ///// 58/// 6////   555 6//// =
  PSN 11024 99185 10738 06583 05772 26/// /1001 10084 20073 39488 40165 5//// 6//// 7//// 8//// 9////   333 55/// ///// 58002 6////   555 6//// =
  PDR 11024 99171 10822 06472 00422 26/// /3501 10209 20209 30116 40165 5//// 6//// 7//// 8//// 9////   333 55/// ///// 59003 6000/   555 6//// =
  PNE 11024 99185 10738 06583 05592 26/// /0001 10089 20085 39521 40178 5//// 6//// 7//// 8//// 9////   333 55/// ///// 58004 6000/   555 6//// =
  RHR 11024 99194 10746 06594 05192 26/// /1400 10090 20/// 3//// 4//// 5//// 6//// 7//// 8//// 9////   333 55/// ///// 58/// 6000/   555 6//// =
  RPR 11024 99212 10817 10011 02952 26/// /33// 10180 20180 39829 40172 5//// 6//// 7//// 8//// 9////   333 55/// ///// 59007 6000/   555 6//// =
  RGN 11024 99185 10738 06583 05982 26/// /1401 10174 20174 39471 40150 5//// 6//// 7//// 8//// 9////   333 55/// ///// 58004 6000/   555 6//// =
  RJK 11024 99223 10708 10120 01272 26/// /0001 10072 20072 30058 40213 5//// 6//// 7//// 8//// 9////   333 55/// ///// 58/// 6000/   555 6//// =
  SGL 11024 99218 10880 10018 00032 26/// /0502 10156 20156 30187 40191 5//// 6//// 7//// 8//// 9////   333 55/// ///// 58022 6000/   555 6//// =
  SHR 11024 99137 10802 06430 00062 26/// /3001 10211 20211 30158 40165 5//// 6//// 7//// 8//// 9////   333 55/// ///// 58004 6000/   555 6//// =
  TVR 11024 99108 10750 06505 00232 26/// /0803 10181 20134 30105 40132 5//// 6//// 7//// 8//// 9////   333 55/// ///// 58011 6000/   555 6//// =
  TWG 11024 99276 10919 09971 30102 26/// /0701 10026 20055 37195 47227 5//// 6//// 7//// 8//// 9////   333 55/// ///// 58009 6000/   555 6//// =
  TCN 11024 99085 10792 02989 00042 26/// /0001 10227 20220 30145 40150 5//// 6//// 7//// 8//// 9////   333 55/// ///// 58007 6////   555 6//// =
  TRV 11024 99085 10770 06587 00602 26/// /1002 10228 20228 30096 40165 5//// 6//// 7//// 8//// 9////   333 55/// ///// 58011 6000/   555 6//// =
  TRM 11024 99134 10792 06539 08382 26/// /1500 10166 20166 39230 48537 5//// 6//// 7//// 8//// 9////   333 55/// ///// 58001 6000/   555 6//// =
  TPT 11024 99088 10782 02988 00042 26/// /3506 10228 20228 30146 40150 5//// 6//// 7//// 8//// 9////   333 55/// ///// 58008 6000/   555 6//// =
  UKH 11024 99304 10794 13709 12002 26/// ///02 10080 20/// 38894 48574 5//// 6//// 7//// 8//// 9////   333 55/// ///// 58002 6001/   555 6//// =
  VDS 11024 99101 10790 06509 02122 26/// /0500 10202 20202 39914 40158 5//// 6//// 7//// 8//// 9////   333 55/// ///// 58008 6000/   555 6//// =
  VZM 11024 99181 10834 06583 00382 26/// /0001 10197 20197 30099 40144 5//// 6//// 7//// 8//// 9////   333 55/// ///// 58000 6000/   555 6//// =
  ZRO 11024 99274 10938 09973 16002 26/// ///// 10/// 29/// 3//// 40/// 5//// 6//// 7//// 8//// 9////   333 55/// ///// 58/// 6////   555 6//// =

0000010500
705
SAIR36 OIII 110300 RRA
METAR OIIP 110300Z 26004KT 6000 FEW040 BKN100 M03/M05 Q1020 A3012=
0000028200
706
SIFG20 SOCA 110300
AAXX 11034
81401 26/// /0000 10233 20226 30117 40123
  333 69947 59006
  555 60005=
81408 26/// /0000 10231 20228 30115 40123
  333 69967 59007
  555 69965=
81415 26/// ///// 10228 20221 30007 40129
  333 60047 59003
  555 69945=
0000025700
707
SICY20 LCLK 110300
AAXX 11034
17600 42562 30208 10098 20062 30212 40222 52001 83500
  333 83626=
17601 42980 03103 10078 20010 30186 40218 53002 90250
  333 55300 2////=
17607 NIL=
17609 42965 03007 10098 20060 30215 40219 53002=
0000028500
708
SXHW11 KWAL 110305
B150314C 011030523"
1,140111,02:00:00,3.2,79,6.4,25.0,1013.7,0.00,13.6,
1,140111,02:15:00,4.2,79,6.2,24.9,1013.7,0.00,13.6,
1,140111,02:30:00,3.6,117,6.4,25.0,1013.8,0.00,13.6,
1,140111,02:45:00,2.3,154,4.3,24.8,1014.1,0.00,13.6, 47+0NN 210W
0000060300
709
SATH40 VTBB 110300
METAR VTCH 110300Z 27003KT 9999 FEW028 18/15 Q1020 A3012=
METAR VTCP 110300Z 00000KT 2000 BR FEW015 BKN300 22/19 Q1019=
METAR VTPH 110300Z NIL=
METAR VTPN 110300Z NIL=
METAR VTPP 110300Z 02006KT 6000 FEW030 26/17 Q1017 A3006=
METAR  VTSF   110300Z  VRB03KT  9999  FE018  BKN300  28/24  Q1015 
A2998=
METAR VTSM 110300Z 10008KT 9000 FEW020 BKN300 30/23 Q1015 A3000=
METAR VTUK 110300Z 06008KT 030V110 CAVOK 24/18 Q1019 A3011=
METAR VTUL 110300Z 31004KT 2000 BR NSC 22/16 Q1018 A3009 NOSIG=
METAR VTBS 110300Z 08010KT 030V170 CAVOK 27/16 Q1017 NOSIG=
0000009400
710
SATH40 VTBB 110300 RRA
METAR VTPN 110300Z  00000KT 5000 HZ FEW300 27/18 Q1018=
0000028300
711
SXHW11 KWAL 110305
B15047DC 011030533"
1,140111,02:00:00,1.0,2,1.0,20.3,1018.3,45.83,13.6,
1,140111,02:15:00,1.0,2,1.0,20.5,1018.4,45.83,13.4,
1,140111,02:30:00,1.0,2,1.0,20.4,1018.4,45.83,13.3,
1,140111,02:45:00,1.0,2,1.0,19.9,1018.5,45.85,13.2, 43+0NN 210W
0000012600
712
SIGI21 EGRR 110300
AAXX 11034
08495 46458 /0205 10143 20132 30161 40167 52007
  333 84/12 86/59 555 7/098=
0000031800
713
SIST21 EGRR 110300
AAXX 11034
61902 42480 11310 10236 20193 40125 81100 333 59004 81818=
88878 46/// /1926 10051 20023 40030 52022 555 1//36=
88883 46/// /1914 10052 20004 40058 52023=
88889 41466 71928 10027 21003 39945 40031 52027 72582 878//
 333 82818 87638 91035 90710 91325 90710 91140=
0000355600
714
SIUK21 EGRR 110300
AAXX 11034
03005 41472 62618 10050 20016 39883 49983 52003 72582 8683/
  333 55300 20000 81818 85625=
03017 47589 /2518 10038 20022 39990 40022 53005 723//
  333 55300 20000 81/26 90710 91127=
03023 NIL=
03026 45984 /2111 10025 20003 30026 40045 52011
  333 55300 20000 81/60=
03063 45981 /3303 11013 21031 39786 40070 53007
  333 55300 20000 8//99=
03066 45982 /2007 10021 21012 30050 40056 53006
  333 55300 20000 8//99=
03075 45975 /2511 10013 21008 39986 40031 51004
  333 8//99=
03091 45981 /2511 10026 21029 39978 40059 53007
  333 55300 20000 8//99=
03100 47774 /2513 10040 20009 30064 40080 53016 723//
  333 55300 20000 82/50 90710 91128=
03111 46776 /2515 10046 20020 30086 40098 53011
  333 83/50=
03134 45685 /3501 10008 20001 30016 40090 52009
  333 55300 20000 84/49=
03136 45480 /2205 10023 20011 30062 40096 51010
  333 55300 20000 81/17=
03162 45981 /0000 11011 21017 39809 40104 51011
  333 55300 20000 8//99=
03166 47783 /2309 10023 20000 30016 40087 52008 723//
  333 55300 20000 81/50=
03171 42981 22510 10005 21012 30064 40076 51009 82030
  333 55300 20000 82360=
03204 42780 22805 10037 20015 30095 40115 53013 82530
  333 55300 20000 82650=
03240 45980 /2403 10027 21012 30056 40085 52013
  333 55300 20000 8//99=
03257 45972 /3109 10043 20017 30055 40096 52016
  333 55300 20000 87/59=
03292 464// /3006 10065 20059 30062 40081 53005
  333 83/11 87/24=
03302 45965 /3006 10038 20025 30110 40124 53018
  333 55300 20000 8//99=
03354 47340 /2504 10066 20066 39958 40102 53004 723//
  333 55300 20000 83/06 83/28=
03377 41358 82408 10073 20064 30009 40093 56001 76262 886//
  333 55300 20000 88707=
03414 45778 /2907 10049 20037 30023 40112 53011
  333 55300 20000 82/50=
03462 47463 /2211 10073 20062 30011 40100 58006 723//
  333 55300 20000 82/13 85/50=
03482 47667 /2013 10071 20063 30078 40104 56011 761//
  333 85/36 87/45=
03502 45583 /3011 10065 20029 39969 40132 51016
  333 55300 20000 87/22 83/29=
03535 47663 /2706 10067 20060 39989 40107 53003 762//
  333 553// 20000 86/30=
03590 47269 /2111 10066 20061 30009 40119 58008 751//
  333 55300 20000 81/05 84/47 86/58=
03649 41370 72307 10082 20068 30017 40117 55003 72165 8753/
  333 55300 2//// 81708 85712 87620=
03680 46/// ///// 10069 20064 39962 40119 57010
  333 553// 20000=
03716 47782 /3010 10072 20059 30068 40129 53010 723//
  333 55300 20000 84/50=
03740 461// /2511 10071 20066 39951 40128 53003
  333 55300 2//// 87/02=
03746 47427 /2209 10077 20065 39976 40130 55002 782//
  333 81/14 84/21 85/28=
03772 47667 /2008 10080 20071 30095 40126 56008 723//
  333 55300 20000 85/35 87/43=
03796 46/// /2211 10076 20057 39997 40140 56007=
03803 45983 /3210 10075 20032 30124 40163 53014
  333 8//99=
03808 42565 33309 10069 20025 30047 40155 53014 83500
  333 55300 20000 83625=
03809 41680 13306 10045 20024 30061 40155 53015 70260 81500
  333 81645=
03827 45676 /3006 10071 20051 30086 40148 53013
  333 82/30 87/48=
03840 47178 /2807 10053 20051 39832 40140 53005 723//
  333 82/02 87/23=
03853 47350 /2510 10084 20077 30110 40134 53004 751//
  333 55300 20000 81/07 87/15=
03874 46/// /2414 10094 20081 30121 40132 56006=
03882 45460 /2207 10077 20063 30077 40141 56007
  333 55300 20000 87/10=
03894 42370 72110 10090 20077 40154 56002 875//
  333 81706 84642 86650=
03917 47759 /2105 10005 20002 30038 40117 53012 710//
  333 55300 20000 81/56 86/63=
0000010000
715
SNST41 EGRR 110100 RRB
AAXX 11014
88903 45/// /0001 10013 2//// 39939 49939 5////=
0000015100
716
SNST41 EGRR 110200 RRB
AAXX 11024
88900 45/// /0905 10035 20027 39942 49945 55002=
88903 42/// /1601 10020 20007 39943 49943 55001=
0000020400
717
SAUK63 EGRR 110250 RRA
METAR EGDR 110250Z 33006KT 9999 FEW045 05/02 Q1015=
METAR EGQS 110250Z 23010KT CAVOK 02/M02 Q1005=
METAR EGVO 110250Z 21015KT 9999 -RA BKN021 OVC036 08/07 Q1012=
0000010700
718
SAGI32 EGRR 110250
METAR LXGB 110250Z AUTO 02005KT 8000 // SCT012/// BKN090/// 14/13 Q1016=
0000216500
719
SZNZ01 NZKL 110306
CREX++
T000103 A001 D01021 D06025++
-3683144 17478654 AUCT  2014 01 11 02 58 //// 11 07 00 01
06028 3205 06030 3205 06033 3205 06034 3205 06036 3204 06037 3203+
-4402404 -17636748 CHIT  2014 01 11 02 58 //// 11 07 00 01
05221 2112 05197 2092 05198 2095 05209 2110 05210 2114 05203 2111+
-4089929 17623168 CPIT  2014 01 11 02 58 //// 11 07 00 01
04328 2282 04316 2273 04312 2273 04320 2284 04321 2288 04308 2278+
-3618905 17548887 GBIT  2014 01 11 02 58 //// 11 07 00 01
06443 0052 06451 0060 06448 0056 06433 0041 06428 0035 06434 0041+
-3867541 17802288 GIST  2014 01 11 02 58 //// 11 07 00 01
04518 2702 04516 2703 04520 2709 04545 2736 04519 2712 04521 2716+
-4241288 17370277 KAIT  2014 01 11 02 58 //// 11 07 00 01
03635 2171 03629 2169 03623 2168 03611 2160 03633 2185 03630 2187+
-3755040 17815904 LOTT  2014 01 11 02 58 //// 11 07 00 01
04069 0206 04077 0214 04069 0206 04081 0219 04071 0210 04063 0203+
-3704657 17451175 MNKT  2014 01 11 02 58 //// 11 07 00 01
02452 -0174 02465 -0168 02465 -0174 02491 -0154 02483 -0169 02498 -0161+
-3947566 17692007 NAPT  2014 01 11 02 58 //// 11 07 00 01
03504 2008 03516 2023 03515 2024 03506 2019 03512 2027 03499 2017+
-3441483 17304870 NCPT  2014 01 11 02 58 //// 11 07 00 01
-03780 -8698 -03790 -8711 -03795 -8719 -03794 -8721 -03838 -8767 -03834 -8766+
-4581435 17062939 OTAT  2014 01 11 02 58 //// 11 07 00 01
04618 3393 04614 3395 04609 3396 04603 3397 04599 3399 04589 3396+
-2928002 -17789440 RBCT  2014 01 11 02 58 //// 11 07 00 01
06441 1985 06428 1972 06451 1994 06456 2000 06455 1998 06459 2002+
-2925114 -17790384 RFRT  2014 01 11 02 58 //// 11 07 00 01
03438 0215 03409 0186 03408 0185 03423 0200 03422 0198 03435 0212+
-4357010 17277383 SUMT  2014 01 11 02 58 //// 11 07 00 01
02341 1817 02316 1799 02323 1811 02317 1811 02314 1814 02290 1796+
-3764109 17618118 TAUT  2014 01 11 02 58 //// 11 07 00 01
05639 3957 05645 3962 05642 3957 05641 3956 05644 3958 05645 3958+
-4128448 17477985 WLGT  2014 01 11 02 58 //// 11 07 00 01
03430 2029 03428 2030 03421 2027 03428 2037 03432 2045 03426 2042++
7777
0000014700
720
SINC21 NWBB 110300
AAXX 11034
91570 46/// /1014 10319 20205 30088 40092 58017=
91574 46/// /1116 10286 20211 30109 40114 56012=
0000028700
721
SXHW11 KWAL 110305
B15054AA 011030543"
1,140111,02:00:00,4.9,255,7.5,28.5,1011.1,0.00,13.6,
1,140111,02:15:00,4.2,255,6.3,28.4,1011.3,0.00,13.6,
1,140111,02:30:00,4.7,253,7.3,28.4,1011.2,0.00,13.6,
1,140111,02:45:00,5.2,253,8.1,28.2,1011.4,0.00,13.6, 43-0NN 210W
0000011100
722
UANT99 KDDL 110303
ARP BER7447 4639N02124W 0303 F380 MS63 237/79 KT
DABXA QXT AOE 110304 J71A
00000000