0000016800
036
WSRS31 RURD 111156
URRV SIGMET 4 VALID 111205/111400 URRR-
URRV ROSTOV FIR SEV TURB OBS SE OF LINE N4610 E04930 - N4250 E04440
FL340/360 STNR INTSF=
0000034400
037
SZIO01 AMMC 111203
CREX++
T000103 A001 D01021 D06025++
-1211670 09689190 46280 2014 01 11 11 56 3020 11 07 00 01
00832 0029 00828 0027 00825 0026 00827 0030 00819 0024 00815 0022+
-1042940 10566940 46290 2014 01 11 11 56 //// 11 07 00 01
01113 -0035 ///// //// ///// //// 01101 -0039 01159 0021 01093 -0042++
7777

0000178700
038
SZPS01 AMMC 111203
CREX++
T000103 A001 D01021 D06025++
-0204190 14737360 56130 2014 01 11 11 56 3027 11 07 00 01
00417 0087 00416 0087 00415 0087 00411 0083 00413 0086 00411 0085+
-0669280 15640860 56363 2014 01 11 11 56 //// 11 07 00 01
00466 -0048 00463 -0053 00465 -0052 00470 -0048 00471 -0049 00472 -0049+
-0942890 15995560 56670 2014 01 11 11 56 3040 11 07 00 01
00433 -0044 00431 -0045 00428 -0048 00430 -0046 00428 -0048 00425 -0051+
-1072080 16580190 57131 2014 01 11 11 56 //// 11 07 00 01
01529 1080 01404 0952 00977 0523 01747 1290 01019 0560 01128 0667+
-1551560 16718860 57210 2014 01 11 11 56 //// 11 07 00 01
00448 -0199 00479 -0171 00494 -0159 00483 -0173 00499 -0161 00508 -0155+
-1775690 16830030 57320 2014 01 11 11 56 3017 11 07 00 01
00422 -0128 00426 -0126 00429 -0124 00433 -0123 00436 -0122 00439 -0121+
-4397330 16861610 65180 2014 01 11 11 56 2885 11 07 00 01
01499 0334 01522 0362 01542 0387 01558 0408 01569 0424 01557 0417+
-2120470 -15978530 65980 2014 01 11 11 56 3010 11 07 00 01
00551 0021 00548 0016 00543 0010 00542 0007 00539 0003 00553 0016+
-2113810 -17518140 66600 2014 01 11 11 56 //// 11 07 00 01
00934 0095 00945 0103 00942 0095 00948 0098 00949 0095 00954 0096+
-1382670 -17176110 66840 2014 01 11 11 56 3007 11 07 00 01
00778 0018 00777 0015 00791 0026 00787 0019 00782 0011 00785 0011+
-1813250 17842750 67050 2014 01 11 11 56 3032 11 07 00 01
01010 0107 01011 0104 01015 0104 01018 0103 01024 0106 01028 0105+
-1760530 17743810 67070 2014 01 11 11 56 3032 11 07 00 01
01010 0028 01014 0029 01019 0029 01023 0028 01027 0028 ///// ////+
-0850250 17919500 67440 2014 01 11 11 56 3027 11 07 00 01
02033 0022 02038 0024 02036 0017 02048 0026 02050 0024 02048 0018++
7777

0000010300
039
SAOM32 OOMS 111200 RRA
METAR OOMS 111150Z 06015KT 9999 FEW030 BKN200 21/09 Q1019 NOSIG=
0000033200
040
SAUK39 EGRR 111150 RRA
METAR EGDX 111150Z 29007KT 9999 FEW020 07/03 Q1020 BLU=
METAR EGOW 111150Z 28010KT 9999 FEW025 07/03 Q1018 BLU=
METAR EGUY 111150Z 26013KT 9999 FEW015 07/04 Q1018 BLU=
METAR EGVN 111150Z 27007KT 9999 FEW024 07/02 Q1019 BLU NOSIG=
METAR EGWC 111150Z 30014KT 9999 SCT025 06/02 Q1019 BLU=
0000013500
041
SMBA01 MYNN 111158
AAXX 111200
78073 12465 10000 10225 20218 40204 6001 81100 333 10294 20224 590001
79999
81818=
0000031200
042
SMSV01 FDMS 111200
AAXX 11124
68384 16/// ///// 10286 20154 39781 48606 57006 69921
      333 10301 20199 555 20002 91018=
68394 36/// /1204 10289 20188 38922 4//// 54000
      333 10297 20214 91006 555=
68399 36/// /0000 10303 20189 3//// 4//// 5////
      333 10318 20230 91001 555=
0000024100
043
SOAT10 KWAL 111203
FA8005BC 011120337 OT12 ID:KN-BASS-01 DT:2014 01 11 12 01
:RD -3046 -3091 -3082 -3091 -3093 -3069 -3074 -3080 -3103 -3130
:PR 0540 0573 0543 0576 0534 0580 0517 0532 0446 0618
:B 13.7V
 46+1NN 219E
0000034700
044
SMSM01 SMJP 111200
AAXX 11124
81225 11250 71208 10228 20216 40158 60014 76286 83872
  333 56299 58019 82706 83640 87458=
81200 12465 70000 10249 20220 40154 60004 85872
  333 56299 58018 82815 84635 86458=
81202 12470 50508 10260 20222 40155 60004 82832
  333 20254 56299 58013 81815 84080=
81209 NIL=
81251 NIL=

0000084500
045
SAGU31 MGGT 111200
METAR
METAR MGMM 111200Z 00000KT 9999 SCT012 17/17 Q1016 A3000=
METAR MGHT 111200Z 00000KT CAVOK 05/05 QFE816.8=
METAR MGPB 111200Z 00000KT 9999 SCT017 21/21 Q1014 A2994 FEW090=
METAR MGGT 111200Z 00000KT 7000 SKC 13/12 Q1025 A3027 BR  VOL. PACAYA
CON VA A 9000FT CON DIRECCION S-SSW A UNA DISTANCIA DE 6-10KM=
METAR MGSJ 111200Z 00000KT CAVOK 20/19 Q1014 A2994=
METAR MGRT 111200Z 00000KT CAVOK 21/19 Q1015 A2997 VOL. STA. MARIA Y
SANTIAGUITO EN ACTIVIDAD=
METAR MGQZ 111200Z 00000KT 0000 FG VV/// 05/05 QFE767.4 APCH CLSD=
METAR MGCB 111200Z 00000KT CAVOK  09/09 QFE870.7=
METAR MGZA 111200Z 00000KT 9999 SCT018 20/19 QFE990.3 FEW090=
METAR MGES 111200Z 00000KT 9999 BKN016 18/14 QFE911.4=
METAR MGMT 111200Z 00000KT CAVOK 21/19 QFE1007.5 =
METAR MGTU 111200Z 00000KT CAVOK 21/20=
0000011100
046
UANT01 CWAO 111202
ARP SVA021 5042N03431W 1202 F340 MS53 272/13 KT
HZAK20 QXT EUA 111202 F71A
0000018400
047
SSVX13 LFPW 111200
ZZYY 41736 11014 1200/ 711998 040316 6113/ 11119 40170 52011 22219
 00256 33300 88872 20000 43603 444 20130 11014 1158/ 50101 80112
 80045 9/015=
0000015700
048
SSVX13 LFPW 111200
ZZYY 44747 11014 1200/ 758624 045341 6113/ 11119 49944 57012 22219
 00046 444 20130 11014 1200/ 50101 80154 80000 9/015=
0000011000
049
UANT01 CWAO 111202
ARP JAI230 5403N01624W 1202 F370 MS60 242/76 KT
VTJWU QXT AOE 111202 J18A
0000019000
050
UAPA01 KWBC 111203
ARP ASA822 3003N 14905W 1150 F350 MS53 260/047KT=
ARP DAL2116 3017N 13138W 1157 F370 MS49 283/041KT=
ARP WJA1875 3500N 14221W 1159 F370 MS53 257/073KT=
0000012200
051
SSVX07 KARS 111202
ZZYY 48536 11014 1150/ 175254 148454 6112/
11119 11284
444 20120 11014 1109/ 504//=
0000010900
052
UANT01 CWAO 111203
ARP SIA26 5308N03906W 1203 F390 MS57 274/29 KT
9VSKS QXT AME 111203 J99A
0000010000
053
SIRA23 RUNW 110900 RRD
AAXX 11091
23376 42/// /1501 11337 21371 30090 40236 52021=
0000012800
054
SMAA01 LFPW 111200
AAXX 11124
89642 42865 71602 10015 21038 39874 49927 51012 875//
  333 10035 20015 87656=
0000134400
055
SMHO01 MHTG 111200
AAXX 11124
78700 32960 03610 10273 20170 30140 40145
333    10360 20270 30/// 59005 70000=
78703 31560 30102 10234 20207 30144 40146 705// 82130
333    10280 20211 30/// 56000 59007 70000 82820=
78704 31568 41903 10218 20191 30133 40138 705// 82205
333    10270 20206 30/// 56400 59028 70000 82824 83075=
78705 31570 20000 10188 20183 30129 40145 53014 70544 81430
333    10269 20182 30/// 56000 59013 70000 81830=
78706 31570 30000 10199 20190 30136 40141 705// 83100
333    10287 20190 30/// 56100 59010 70000 83826=
78707 NIL=
78708 31560 20000 10204 20204 30117 40147 53007 70544 81530
333    10294 20204 30/// 56000 59012 70000 81626=
78711 11570 20000 10230 20222 30124 40144 60042 705// 81250
333    10295 20230 31/// 56000 59001 70092 81830=
78714 NIL=
78717 31558 70000 10168 20168 38960 40143 710// 87500
333   10240 20160 30/// 56100 58000 70000 87620=
78718 31660 10000 10172 20147 39251 40127 705// 81400
333   10300 20154 30/// 56000 58008 70000 81840=
78719 32970 00000 10069 20067 38357 40158
333   10226 20069 30/// 58004 70000=
78720 31560 52203 10139 20122 39049 40170 53008 70544 85400
333   10256 20139 30/// 56200 58002 79999 85624=
78724 32578 10504 10232 20194 30264 40121 5//// 81500
333   10352 20232 30/// 56100 58007 70000 81630=
00000000