0000015100
559
SSVX13 LFPW 110100
ZZYY 13661 11014 0100/ 722730 037771 6113/ 11119 54000 22219 00237
 444 20130 11014 0000/ 50101 80050 80000 9/015=
0000015700
560
SSVX13 LFPW 110100
ZZYY 41707 11014 0100/ 718209 049246 6113/ 11119 40187 52009 22219
 00256 444 20130 11014 0000/ 50101 80144 80008 9/015=
0000015700
561
SSVX13 LFPW 110100
ZZYY 14515 11014 0100/ 333068 049900 6113/ 11119 40112 57025 22219
 00203 444 20130 11014 0000/ 50101 80148 80011 9/015=
0000015700
562
SSVX13 LFPW 110100
ZZYY 62695 11014 0100/ 743175 019478 6113/ 11119 40132 57029 22219
 00135 444 20130 11014 0000/ 50101 80140 80013 9/015=
0000013900
563
SSVX13 LFPW 110100
ZZYY 63639 11014 0100/ 172035 034900 6113/ 22219 00041 444 20130
 11014 0000/ 50101 80134 80002 9/015=
0000015700
564
SSVX13 LFPW 110100
ZZYY 64622 11014 0100/ 766574 009545 6113/ 11119 40048 57003 22219
 00021 444 20130 11014 0000/ 50101 80142 80011 9/015=
0000013900
565
SSVX13 LFPW 110100
ZZYY 41738 11014 0100/ 726608 077016 6113/ 22219 00233 444 20130
 11014 0000/ 50101 80050 80000 9/015=
0000015700
566
SSVX13 LFPW 110100
ZZYY 14527 11014 0100/ 325407 062954 6113/ 11119 40198 52008 22219
 00258 444 20130 11014 0000/ 50101 80148 80032 9/015=
0000015700
567
SSVX13 LFPW 110100
ZZYY 14526 11014 0100/ 329168 067498 6113/ 11119 40254 52013 22219
 00228 444 20130 11014 0000/ 50101 80148 80023 9/015=
0000015700
568
SSVX13 LFPW 110100
ZZYY 44868 11014 0100/ 734864 040199 6113/ 11119 40216 52017 22219
 00187 444 20130 11014 0000/ 50101 80142 80019 9/015=
0000015700
569
SSVX13 LFPW 110100
ZZYY 33953 11014 0100/ 544248 043465 6113/ 11119 40012 52016 22219
 00123 444 20130 11014 0000/ 50101 80142 80018 9/015=
0000015700
570
SSVX13 LFPW 110100
ZZYY 41705 11014 0100/ 726568 046061 6113/ 11119 40225 52011 22219
 00237 444 20130 11014 0000/ 50101 80142 80016 9/015=
0000015700
571
SSVX13 LFPW 110100
ZZYY 16537 11014 0100/ 334959 054673 6113/ 11119 40196 57015 22219
 00194 444 20130 11014 0000/ 50101 80144 80011 9/015=
0000015700
572
SSVX13 LFPW 110100
ZZYY 63640 11014 0100/ 173576 027728 6113/ 11119 40157 57004 22219
 00052 444 20130 11014 0000/ 50101 80142 80008 9/015=
0000015700
573
SSVX13 LFPW 110100
ZZYY 14530 11014 0100/ 330442 053473 6113/ 11119 40164 57006 22219
 00233 444 20130 11014 0000/ 50101 80150 80021 9/015=
0000049400
574
SAMC32 GMMC 110100
METAR GMFF 110100Z 000//KT 9999 FEW030 BKN100 10/04 Q1016 NOSIG=
METAR GMMZ 110100Z 00000KT 9999 BKN030 07/04 Q1017=
METAR GMTN 110100Z AUTO VRB02KT 1600NDV 13/11 Q1015=
METAR GMAG 110100Z NIL=
METAR GMAT 110100Z NIL=
METAR GMFK 110100Z NIL=
METAR GMFM 110100Z NIL=
METAR GMFO 110100Z NIL=
METAR GMMC 110100Z NIL=
METAR GMMH 110100Z NIL=
METAR GMMI 110100Z NIL=
METAR GMML 110100Z NIL=
METAR GMMW 110100Z NIL=
METAR GMTA 110100Z NIL=
0000005200
575
RRIN23 VECC 110106
RQRPT 759-780=

0000008900
576
SPIN90 VOBG 110000
SPECI VOBG 110000Z 09005KT 4000 HZ SCT008 18/15 Q1017=
0000062600
577
UEIE01 EIDB 110000
TTDD 1100/ 03953
11948 55382 22718 51383 33590 52583 44496 52783 55397
52183 66319 49584 77262 52783 88193 48184 99164 50984
11136 51383 22098 49984 33078 47185 44051 45785
21212 11936 23519 22787 22517 33736 25013 44711 23510
55665 23012 66639 25518 77532 26510 88511 24513 99481
24018 11434 27019 22383 26517 33367 27024 44326 28015
55300 27014 66267 26515 77239 27525 88217 28527 99190
29025 11169 28523 22163 28530 33158 28527 44126 29531
55108 29041 66099 30042 77086 30038 88080 30043 99075
30040 11065 30046 22060 30544 33055 30548 44051 30547
31313 48008 82315=
0000019400
578
ULIE01 EIDB 110000
TTCC 11001 03953
70832 52383 23010 50050 52383 25015 30382 50384 27014
20646 49584 28523 10099 49984 30041
88999
77055 30548 402//
31313 48008 82315=
00000000