0000016300
132
SSVX13 LFPW 110200
ZZYY 13592 11014 0200/ 728839 053558 6113/ 22219 00237 33300 88872
 20000 43654 444 20130 11014 0200/ 50101 80112 80008 9/015=
0000015700
133
SSVX13 LFPW 110200
ZZYY 41971 11014 0200/ 735979 058691 6113/ 11119 40324 52002 22219
 00205 444 20130 11014 0200/ 50101 80120 80006 9/015=
0000015700
134
SSVX13 LFPW 110200
ZZYY 16593 11014 0200/ 338658 079066 6113/ 11119 40199 52015 22219
 00146 444 20130 11014 0200/ 50101 80120 80015 9/015=
0000011200
135
SNVF25 LFPW 110200
BBXX
BATFR66 11024 99430 10084 46/// /0116 10129 20090 40197 58006
22225=
0000011800
136
SNVF25 LFPW 110200
BBXX
BATFR33 11024 99430 10088 46/// /2715 10132 20104 40203 50///
22224 00147=
0000016300
137
SSVX13 LFPW 110200
ZZYY 13591 11014 0200/ 722882 066459 6113/ 22219 00264 33300 88872
 20000 43603 444 20130 11014 0200/ 50101 80106 80010 9/015=
0000015700
138
SSVX13 LFPW 110200
ZZYY 41969 11014 0200/ 741270 042511 6113/ 11119 40198 52015 22219
 00163 444 20130 11014 0200/ 50101 80118 80008 9/015=
0000015700
139
SSVX13 LFPW 110200
ZZYY 44874 11014 0200/ 745725 020743 6113/ 11119 40111 57024 22219
 00130 444 20130 11014 0200/ 50101 80118 80006 9/015=
0000011800
140
SNVF25 LFPW 110200
BBXX
BATFR24 11024 99430 10068 46/// /0506 10132 20084 40210 55007
22264 00135=
0000015700
141
SSVX13 LFPW 110200
ZZYY 44740 11014 0200/ 730727 030643 6113/ 11119 40157 57014 22219
 00203 444 20130 11014 0200/ 50101 80118 80024 9/015=
0000011800
142
SNVF25 LFPW 110200
BBXX
BATFR16 11024 99435 70174 46/// /1420 10112 20049 40136 58016
22214 00135=
0000010000
143
SNVF25 LFPW 110200
BBXX
BATEU10 11024 99488 70045 46/// /1921 40141 53009
22255=
0000003800
144
UGZW20 FVHA 110000
NIL
0000003800
145
UPZW01 FVHA 110000
NIL
0000003900
146
ULZW01 FVHA 110000
NIL=
0000003900
147
UEZW01 FVHA 110000
NIL=
0000483600
148
SMIN55 VIDP 110000
AAXX 11003
38388 42998 00000 11056 21060 30150 40224 58008=
38392 42996 09902 11056 21070 30113 40222 57002=
38507 42596 70000 10046 20026 30115 40219 57006 87500
  333 87622
  555 10003=
38511 42998 71402 11018 21024 30071 40217 57006 87070=
38545 42998 01102 11020 21065 30052 40234 57006=
38647 42997 01901 11020 21036 30169 40213 57001=
38656 42998 00000 11026 21071 30111 40225 57003=
38687 42996 01804 10010 21046 30008 40250 57012=
38763 42997 00000 11024 21040 30125 40234 54000=
38774 42995 00000 10002 21031 30027 40230 58017=
38799 42997 21405 10030 21028 39996 40232 57011 80003=
38806 42997 01603 10004 21043 39986 40255 57014=
38880 42997 22204 11002 21070 39974 40238 58002 80001=
38886 42997 02602 10005 21061 39995 40230 52001=
38895 42996 01802 10002 21009 39930 40229 56009=
38911 42997 01608 10022 21028 39956 40258 57013=
38915 42997 01206 10030 21050 39927 40260 57007=
38974 42998 20000 10031 21027 39905 40247 52013 80002=
38987 42996 02701 11021 21055 39505 40280 57005=
48010 32510 30000 10130 20130 40167 81430
  333 20125 56990 58012=
48035 31/01 90000 10057 20035 40196 74744
  333 20053 58007=
48048 32940 00000 10133 20113 40162
  333 20126 58016=
48060 31920 00000 10098 20079 40217 74044
  333 20096 58004=
48071 31910 00000 10148 20134 40148 74444
  333 20140 58017=
48080 32956 31301 10112 20110 40138 80036
  333 20109 56099 58004=
48097 31456 30902 10190 20175 40147 71000 82504
  333 20178 56909 58018=
48108 31594 50000 10175 20168 40141 71022 82406
  333 20170 56909 58012=
48110 31995 41802 10225 20191 40134 70522 80006
  333 20225 56009 58008=
48112 22597 80403 10250 20219 40132 83876
  333 20222 56199 58015=
48310 31/00 90000 10160 20151 39708 40178 52011 74744
  333 20150 58013=
48325 31/00 90000 10165 20162 39925 40177 52010 74744
  333 20157 58012=
48352 31940 10000 10173 20158 39977 40185 52016 71000 80001
  333 20164 58009=
48380 31930 60000 10192 20182 30070 40166 52014 71000 80001
  333 20192 58014=
48403 31956 60000 10194 20160 39958 40174 52022 71011 80006
  333 20193 58005=
48420 31959 50302 10227 20191 30141 40145 52014 71011 80006
  333 20220 58011=
48430 31950 20603 10228 20183 30146 40154 52018 71000 80005
  333 20212 58010=
48450 31950 00000 10200 20184 30124 40158 52017 71000
  333 20200 58013=
48459 31958 20603 10232 20172 30141 40144 52010 71000 80001
  333 20226 58010=
48465 31958 33305 10218 20186 30145 40150 52016 71000 80005
  333 20208 58014=
51716 32963 01601 11137 21164 39059 40455 52001
  333 00752=
51811 32962 50000 11128 21154 38925 40445 57003 85///
  333 00756=
51818 32963 60000 11134 21169 40446 57003 86///
  333 00654=
55299 32980 03401 11179 21300 35829 52022
  333 00257=
55472 32980 02207 11112 21342 35710 52001
  333 00102 91119 91525=
55578 32980 00000 11085 21223 36354 52001
  333 00002=
55591 42967 00401 11047 21200 36496 52014
  333 00152=
56079 12780 70701 11107 21127 36672 52006 69902 87///
  333 00551 70001 92500=
56106 32880 42901 11108 21275 36181 52016 84///
  333 00256=
56116 32680 23202 11116 21178 36315 52006 82///
  333 00256=
56137 42780 00000 11087 21170 36781 52009
  333 00352=
56144 32769 51801 11069 21144 36847 52012 85///
  333 00300 31042=
56152 32980 71101 11159 21187 36286 52006 87///
  333 00300=
56172 42980 01101 11061 21114 37337 52012
  333 00402=
56247 32967 01601 11016 21141 37428 52015
  333 00200=
56257 32980 02501 11091 21197 36259 52004
  333 00252=
56374 32480 80902 11060 21078 37439 52010 88///
  333 00401 31040=
56462 32980 03203 11056 21137 37138 52010
  333 00200=
56651 32980 02902 10052 21090 37648 52009
  333 00106 31027=
56691 11462 83602 11035 21042 37801 52013 69902 766// 88///
  333 00556 31003 79999 93427=
56739 32980 01401 10016 20013 38340 52007
  333 00100 31018=
56748 32958 00000 10027 21002 38382 52010
  333 00100 31015=
56768 32980 00000 10036 21012 38200 52011
  333 00251 30013=
56951 32980 00000 10049 20034 38542 52012
  333 00200 30012=
56954 31255 20000 10052 20046 40228 52014 710// 82///
  333 00252 30037=
56985 32570 01101 10119 20080 38738 40187 52019
  333 00101=
57832 11459 80201 10020 20008 39545 40315 52015 69921 760// 88///
  333 00400 30025 70020=
57853 11430 83601 10041 20037 40310 52019 60011 760// 88///
  333 00351 30042 70033=
57902 11462 80703 10023 20011 38687 40269 52022 69941 760// 88///
  333 00552 30037 70005=
57916 12562 82701 10073 20051 40277 52019 69972 88///
  333 00500 70007=
57922 11462 83202 10014 20008 40290 52016 69991 760// 88///
  333 00451 30026 70040=
57932 11250 80701 10053 20047 40299 52019 69961 760// 88///
  333 00451 70041=
0000009200
149
SAIN90 VEIM 110200
METAR VEIM 110200Z 00000KT 2000 BR NSC 10/07 Q1015 NOSIG=
0000010100
150
SAIN90 VOCL 110200
METAR VOCL 110200Z 12004KT 6000  FEW015 SCT080  23/20 Q1014 NOSIG=
0000011100
151
UKIN61 VOMM 110000 RRA
TTBB 61003 43105 NIL=
TTBB 61003 43220 NIL=
TTBB 61003 43221 NIL=

00000000