0000040700
066
SXXX32 EUMS 111130
262D700E
:PRS 1 /1 2427 2440 2483 2415 2414 2388 2376 2367 2361 2352 2379 2372 2363 2323 2341 2286 2320 2377 2344 2333 2345 2303 2325 2291 2254 2222 2271 2272 2249 2257 :RAD 1 /3 4828 4805 4792 4777 4761 4753 4736 4711 4699 4684 4667 4657 4647 4630 4610 :ENC 5 /5 4923 4899 4874 4853 4818 4795 4767 4763 4723 4700 4681 4664 :SW1 30 /60 60 :BAT 14 /15 13.5 :NAME 262D700E
0000044900
067
SXXX32 EUMS 111130 RRA
16289262
:PRS 1 /1 2226 2226 2217 2227 2213 2221 2225 2217 2206 2199 2211 2204 2203 2206 2203 2196 2191 2200 2204 2194 2184 2182 2192 2206 2198 2183 2192 2184 2186 2198 :RAD 1 /3 7666 7662 7663 7659 7657 7658 7654 7650 7646 7647 7643 7644 7640 7636 7633 7636 7638 7638 7633 7631 :ENC 5 /5 5037 5026 5020 5020 5016 5016 5009 4999 5003 5004 5001 5008 :SW1 30 /60 0 :SW2 60 /60 0 :BAT 14 /15 12.9 :NAME 16289262
0000079300
068
USAA01 NZCM 110000
TTAA 61001 89664
99997 00056 18501 00512 ///// ///// 92601 07158 18518
85255 11341 17017 70716 21114 15006 50514 33959 24513
40666 44759 24520 30855 51765 24023 25975 45585 24514
20124 43786 24513 15318 43586 26009 10592 41586 23504
88320 52361 23026
77999
31313 48008 82219=

0000069700
87361=
0000011200
87368
0000009600
87371
0000035800
87378
0000037300
87381
0000039400
87385
0000039400
87407
0000041500
87411
0000014600
87417
0000045700
87421
0000049900
87440
0000052000
87462
0000050000
87472=
0000058400
87593
0000060500
87638=
0000056700
88260=
0000054500
90459
0000054600
91559
0000063000
93054
0000065000
94919
0000067100
97081
0000065000
99726
0000066900
069
USAA01 NZCM 110000
TTAA 61001 89664
99997 00056 18501 00512 ///// ///// 92601 07158 18518
85255 11341 17017 70716 21114 15006 50514 33959 24513
40666 44759 24520 30855 51765 24023 25975 45585 24514
20124 43786 24513 15318 43586 26009 10592 41586 23504
88320 52361 23026
77999
31313 48008 82219=

0000069700
87361=
0000011200
87368=
0000015000
87382
0000012800
87386
0000045600
87406=
0000047800
87429
0000015700
87445
0000049900
87465
0000054100
87473
0000050000
87488=
0000052200
87714
0000058400
87814
0000060500
88045
0000060600
88340=
0000062800
90552
0000064900
91691=
0000066900
070
USAA01 NZCM 110000
TTAA 61001 89664
99997 00056 18501 00512 ///// ///// 92601 07158 18518
85255 11341 17017 70716 21114 15006 50514 33959 24513
40666 44759 24520 30855 51765 24023 25975 45585 24514
20124 43786 24513 15318 43586 26009 10592 41586 23504
88320 52361 23026
77999
31313 48008 82219=

0000069700
87361=
0000011200
87368
0000009600
87371
0000035800
87378
0000037300
87381=
0000039500
87413=
0000052000
87479
0000056200
87492=
0000046000
87710=
0000058500
88273=
0000062800
90466
0000060800
91592
0000065000
93118
0000067000
94921
0000065000
97077
0000069100
99754
0000071000
071
USAA01 NZCM 110000
TTAA 61001 89664
99997 00056 18501 00512 ///// ///// 92601 07158 18518
85255 11341 17017 70716 21114 15006 50514 33959 24513
40666 44759 24520 30855 51765 24023 25975 45585 24514
20124 43786 24513 15318 43586 26009 10592 41586 23504
88320 52361 23026
77999
31313 48008 82219=

0000069700
87361=
0000011200
87368
0000009600
87371
0000035800
87378
0000037300
87381
0000039400
87385=
0000043700
87428=
0000047900
87503=
0000056300
87717
0000060500
87837
0000052300
88011
0000058500
88196
0000070900
88442
0000073000
88703
0000064800
89183
0000066900
89728
0000058700
90593
0000064900
91713=
0000073100
072
USAA01 NZCM 110000
TTAA 61001 89664
99997 00056 18501 00512 ///// ///// 92601 07158 18518
85255 11341 17017 70716 21114 15006 50514 33959 24513
40666 44759 24520 30855 51765 24023 25975 45585 24514
20124 43786 24513 15318 43586 26009 10592 41586 23504
88320 52361 23026
77999
31313 48008 82219=

0000069700
87361=
0000011200
87368
0000009600
87371
0000035800
87378
0000037300
87381
0000039400
87385
0000039400
87407
0000041500
87411
0000014600
87417=
0000041700
87480=
0000060400
87592=
0000054400
87904
0000052300
88082
0000064700
88354
0000056500
88630
0000062700
89062
0000069000
89606
0000071100
90293=
0000065000
99786
0000157900
073
SMCI35 BABJ 110000
AAXX 11001
50548 31908 03401 11366 21402 39898 40309 52008 705// 333
00352 92504=
50564 32930 20000 11356 21401 40282 52011 82/// 333 00351
92517=
51334 31921 52002 11247 21279 30025 40484 57008 705// 85///
333 00352 79999 92504=
51818 32963 60000 11134 21169 40446 57003 86/// 333 00654=
52378 42980 02207 11132 21221 40431 52010 333 00404=
53487 32965 23202 11199 21264 40409 52001 82/// 333 00100=
53502 42980 72204 11147 21240 39117 40422 52013 87/// 333
00303=
53923 32980 23404 11066 21216 38671 40363 52011 82/// 333
00551=
54049 32970 00000 11158 21245 40287 57004 333 00002 92501=
54115 32961 03402 11197 21269 40333 57001 333 00103=
54157 32914 01601 11150 21221 40303 57003 333 00101 92507=
54186 32962 02204 11144 21228 40292 57001 333 00103 92507=
54311 32980 00701 11199 21255 40361 52002 333 00104=
54346 31955 01102 11156 21190 30083 40332 52003 705// 333
00102 92506=
54377 42965 03602 11186 21216 40357 52009 333 00103 31037
92511=
54386 32970 03401 11235 21276 40361 52009 333 00204 92511=
54493 31957 00901 11176 21195 40343 52005 710// 333 00102=
54587 NIL=
54715 41/00 90000 11065 21068 40332 52002 749// 333 00151=
54929 41912 72001 11034 21048 40346 52007 710// 87/// 333
00101=
54945 42960 72701 11014 21049 30296 40344 52005 87/// 333
00001 31049=
56065 32675 80000 11183 21224 36616 52008 88/// 333 00658=
57193 31955 70701 10011 21039 40331 52005 705// 87/// 333
00201 31026=
57290 31929 82501 10013 21014 40330 52009 710// 88/// 333
00202 31001=
0000069000
074
USAA01 NZCM 110000
TTAA 61001 89664
99997 00056 18501 00512 ///// ///// 92601 07158 18518
85255 11341 17017 70716 21114 15006 50514 33959 24513
40666 44759 24520 30855 51765 24023 25975 45585 24514
20124 43786 24513 15318 43586 26009 10592 41586 23504
88320 52361 23026
77999
31313 48008 82219=

0000069700
87361=
0000011200
87368=
0000015000
87382=
0000030600
87414=
0000011000
87481
0000054100
87485
0000050000
87516
0000054200
87558=
0000060500
87873
0000058500
88038
0000070900
88321=
0000062800
90517
0000075200
91609
0000060800
93115
0000073200
94949
0000075300
97093
0000075300
99741
0000069000
075
USAA01 NZCM 110000
TTAA 61001 89664
99997 00056 18501 00512 ///// ///// 92601 07158 18518
85255 11341 17017 70716 21114 15006 50514 33959 24513
40666 44759 24520 30855 51765 24023 25975 45585 24514
20124 43786 24513 15318 43586 26009 10592 41586 23504
88320 52361 23026
77999
31313 48008 82219=

0000069700
87361=
0000011200
87368
0000009600
87371
0000035800
87378
0000037300
87381
0000039400
87385
0000039400
87407=
0000012000
87430=
0000054100
87500
0000056200
87510
0000050100
87551
0000056300
87601=
0000050200
87911
0000060600
88090
0000060600
88369=
0000069000
90560
0000064900
91703=
0000066900
076
USAA01 NZCM 110000
TTAA 61001 89664
99997 00056 18501 00512 ///// ///// 92601 07158 18518
85255 11341 17017 70716 21114 15006 50514 33959 24513
40666 44759 24520 30855 51765 24023 25975 45585 24514
20124 43786 24513 15318 43586 26009 10592 41586 23504
88320 52361 23026
77999
31313 48008 82219=

0000069700
87361=
0000011200
87368
0000009600
87371
0000035800
87378
0000037300
87381=
0000039500
87413
0000041600
87422
0000043700
87443
0000045800
87466=
0000054200
87540=
0000048100
87746
0000050200
87938
0000058500
88122
0000064700
88388=
0000071100
90617
0000060800
91714=
0000071100
077
USAA01 NZCM 110000
TTAA 61001 89664
99997 00056 18501 00512 ///// ///// 92601 07158 18518
85255 11341 17017 70716 21114 15006 50514 33959 24513
40666 44759 24520 30855 51765 24023 25975 45585 24514
20124 43786 24513 15318 43586 26009 10592 41586 23504
88320 52361 23026
77999
31313 48008 82219=

0000069700
87361=
0000011200
87368=
0000015000
87382
0000012800
87386
0000045600
87406=
0000047800
87429
0000015700
87445
0000049900
87465=
0000054200
87575=
0000062600
87883
0000052300
88067
0000064700
88337=
0000066900
90521
0000064900
91579
0000073200
93083
0000056700
94917
0000058800
97079
0000071200
99777
0000051700
078
SMBZ02 SBBR 110000 RRA
AAXX 11004
82979 32593 2//// 10257 20205 39650 40095 82020 333 10304 29070 55047 58013=
82986 32995 00910 10284 20191 39830 40111 333 10324 29054 55038 58007=
83179 32594 60903 10273 20197 39642 40085 86500 333 10326 29/// 55096 58004=
83192 32597 60905 10259 20219 39970 40134 86800 333 10338 29062 55062 58010=
83339 32495 618// 10235 20147 39141 40099 86200 333 10286 29062 55095 59001=
83498 32595 40902 10250 20236 30131 40136 82102 333 10297 29085 55/// 58008=
0000066900
079
USAA01 NZCM 110000
TTAA 61001 89664
99997 00056 18501 00512 ///// ///// 92601 07158 18518
85255 11341 17017 70716 21114 15006 50514 33959 24513
40666 44759 24520 30855 51765 24023 25975 45585 24514
20124 43786 24513 15318 43586 26009 10592 41586 23504
88320 52361 23026
77999
31313 48008 82219=

0000069700
87361=
0000011200
87368=
0000015000
87382=
0000030600
87414=
0000011000
87481
0000054100
87485
0000050000
87516
0000054200
87558
0000060400
87607
0000056300
87649
0000062600
87766
0000064700
87955
0000066800
88123
0000060600
88397=
0000069000
90566
0000058700
91678=
0000048600
080
SMBZ05 SBBR 110000 RRA
AAXX 11004
82863 21895 80000 10227 20222 39903 40116 70252 8807/ 333 10282 29094 55009 58019 60011=
83228 21696 80000 10235 20224 39829 40102 70099 333 10343 29076 55083 58021 60011=
83368 32696 50000 10251 20204 39740 40103 85200 333 10346 29065 55071 58001=
83374 21596 63606 10248 20211 39538 40105 70295 86800 333 10356 29/// 55076 58012 69981=
83526 21497 80903 10197 20176 39180 40112 70362 885// 333 10306 29083 55/// 58006 60061=
0000079300
081
USAA01 NZCM 110000
TTAA 61001 89664
99997 00056 18501 00512 ///// ///// 92601 07158 18518
85255 11341 17017 70716 21114 15006 50514 33959 24513
40666 44759 24520 30855 51765 24023 25975 45585 24514
20124 43786 24513 15318 43586 26009 10592 41586 23504
88320 52361 23026
77999
31313 48008 82219=

0000069700
87361=
0000011200
87368
0000009600
87371
0000035800
87378
0000037300
87381
0000039400
87385
0000039400
87407
0000041500
87411
0000014600
87417
0000045700
87421
0000049900
87440
0000052000
87462
0000050000
87472
0000005900
87495=
0000058400
87712=
0000056500
88271=
0000058700
90463
0000054600
91563
0000027100
93064
0000073200
94944
0000071200
97103
0000071200
99796
0000069000
082
USAA01 NZCM 110000
TTAA 61001 89664
99997 00056 18501 00512 ///// ///// 92601 07158 18518
85255 11341 17017 70716 21114 15006 50514 33959 24513
40666 44759 24520 30855 51765 24023 25975 45585 24514
20124 43786 24513 15318 43586 26009 10592 41586 23504
88320 52361 23026
77999
31313 48008 82219=

0000069700
87361=
0000011200
87368=
0000015000
87382
0000012800
87386
0000045600
87406
0000047700
87410=
0000049900
87467
0000047900
87475
0000047900
87491
0000056200
87512=
0000054300
87729
0000054300
87840
0000060600
88007
0000013400
88174
0000064700
88423=
0000056600
90572
0000069000
91643=
0000030600
083
SMBZ06 SBBR 110000 RRB
AAXX 11004
83599 31595 61005 10290 20250 40035 56009 71021 86400 222// 20501 80260 10320=
83650 31/95 /0912 10255 20221 40200 52010 7006/ 8//// 222// 02250 20602 80230 333 10285=
83925 31/97 82318 10230 20222 40123 52031 7132/ 8//// 222// 20501 80224 333 10262=
0000073100
084
USAA01 NZCM 110000
TTAA 61001 89664
99997 00056 18501 00512 ///// ///// 92601 07158 18518
85255 11341 17017 70716 21114 15006 50514 33959 24513
40666 44759 24520 30855 51765 24023 25975 45585 24514
20124 43786 24513 15318 43586 26009 10592 41586 23504
88320 52361 23026
77999
31313 48008 82219=

0000069700
87361=
0000011200
87368=
0000015000
87382
0000012800
87386
0000045600
87406
0000047700
87410
0000049800
87416
0000051900
87420
0000047800
87441
0000045800
87463=
0000048000
87576
0000060400
87629
0000056300
87683=
0000054400
88296
0000056500
88589
0000058600
89112
0000066900
89600
0000073100
90307=
0000077400
99797
0000066900
085
USAA01 NZCM 110000
TTAA 61001 89664
99997 00056 18501 00512 ///// ///// 92601 07158 18518
85255 11341 17017 70716 21114 15006 50514 33959 24513
40666 44759 24520 30855 51765 24023 25975 45585 24514
20124 43786 24513 15318 43586 26009 10592 41586 23504
88320 52361 23026
77999
31313 48008 82219=

0000069700
87361=
0000011200
87368=
0000015000
87382
0000012800
87386
0000045600
87406
0000047700
87410
0000049800
87416=
0000045800
87478
0000043800
87484
0000050000
87523
0000054200
87562
0000060400
87623=
0000056400
88113
0000058500
88394=
0000058700
90637
0000060800
91720=
00000000