0000015700
683
SSVX13 LFPW 110300
ZZYY 61688 11014 0300/ 144048 029466 6113/ 11119 40209 52016 22219
 00087 444 20131 11014 0257/ 50101 80090 80011 9/015=
0000015700
684
SSVX13 LFPW 110300
ZZYY 61687 11014 0300/ 144683 029813 6113/ 11119 40203 52018 22219
 00076 444 20131 11014 0257/ 50101 80090 80013 9/015=
0000015700
685
SSVX13 LFPW 110300
ZZYY 62713 11014 0300/ 733820 019617 6113/ 11119 40162 57011 22219
 00182 444 20130 11014 0257/ 50101 80098 80000 9/015=
0000015700
686
SSVX13 LFPW 110300
ZZYY 62687 11014 0300/ 166052 001501 6113/ 11119 40052 57008 22219
 00076 444 20130 11014 0257/ 50101 80098 80000 9/015=
0000038500
687
SSVX13 LFPW 110300
ZZYY 61690 11014 0300/ 142769 029479 6113/ 11119 40214 52028 22219
 00093 33300 88870 20000 30932 20011 30936 20013 30932 20016 30932
 20021 30930 20025 30936 20030 30936 20034 30932 20039 30928 20044
 30928 20049 30860 20053 30800 20058 30788 20063 30788 20068 30784
 20073 30792 20078 30800 444 20131 11014 0257/ 50101 80102 80026
 9/015=
0000015700
688
SSVX13 LFPW 110300
ZZYY 62714 11014 0300/ 734321 021735 6113/ 11119 40152 57017 22219
 00192 444 20130 11014 0257/ 50101 80100 80000 9/015=
0000015700
689
SSVX13 LFPW 110300
ZZYY 44747 11014 0300/ 758621 045249 6113/ 11119 49961 57002 22219
 00046 444 20130 11014 0159/ 50101 80154 80000 9/015=
0000015700
690
SSVX13 LFPW 110300
ZZYY 44624 11014 0300/ 746675 020063 6113/ 11119 40104 57034 22219
 00128 444 20130 11014 0257/ 50101 80098 80013 9/015=
0000015700
691
SSVX13 LFPW 110300
ZZYY 44745 11014 0300/ 745773 050368 6113/ 11119 40253 57006 22219
 00015 444 20130 11014 0058/ 50101 80150 80000 9/015=
0000009000
692
SIQT20 OTBD 110300
AAXX 11034
41178 46/// /0901 10172 20162 30190 40198=
0000029100
693
SXHW11 KWAL 110305
B15017A0 011030503"
1,140111,02:00:00,13.3,66,20.0,11.2,1013.2,6.03,13.7,
1,140111,02:15:00,13.0,74,18.3,11.2,1013.2,6.03,13.7,
1,140111,02:30:00,13.4,75,18.9,11.2,1013.1,6.03,13.7,
1,140111,02:45:00,12.2,74,17.0,11.2,1013.3,6.03,13.7, 40+0NN 210W
0000464500
694
SIMX01 MXBA 110300
AAXX 11031
76040 32920 01101 10155 20092 30167 40181 52010 90250 333   
30/// 58027 98620=
76113 32970 03601 10150 21031 39686 40140 57004 90240 333   
30/// 58020=
76220 32920 00302 10050 2//// 38154 40143 52025 90240 333   
30/// 58019=
76225 32920 03401 10118 20002 38609 40086 5//// 90240 333   
30/// 58022=
76243 32970 01601 10156 20138 39833 40123 52018 90240 333   
30/// 59037=
76305 32970 00000 10178 20106 30161 40169 52018 90245 333   
30/// 58016=
76323 32950 23601 10072 20044 38291 40204 52012 80002 90240 
333   30/// 56005 58022 82268=
76342 31840 72502 10220 20047 39442 40131 52027 70222 87070 
90250 333   30/// 56050 59004 87458=
76382 32960 42901 10156 20105 38901 40127 52024 80001 90245 
333   30/// 56007 58030 84076=
76390 31950 02703 10069 21012 38228 40117 52018 70544 90248 
333   30/// 58007=
76393 31910 00501 10188 20147 39560 40124 52028 70544 90250 
333   30/// 59018 91105 91401=
76405 32940 00102 10186 20141 30142 40163 52015 90250 333   
30/// 58016=
76423 32965 72701 10123 21007 38157 40123 52023 80009 90250 
333   30/// 56009 58008 87170=
76458 32960 13102 10213 20150 30131 40135 52009 80004 90245 
333   30/// 56//9 58001 81357=
76499 31956 00000 10207 20175 30082 40104 52019 70200 90243 
333   30/// 59///=
76539 32958 03001 10128 20109 38150 40107 52021 90250 333   
30/// 59005=
76548 32860 62901 10198 20186 30129 40139 52027 86030 90245 
333   30/// 56050 59057 86357=
76556 32960 01502 10179 20134 39122 40126 52023 90248 333   
30/// 59001=
76577 32560 62301 10162 20138 38041 40143 52021 86600 90245 
333   30/// 56500 59005 86623=
76581 32960 00301 10184 20153 39042 40127 52024 90250 333   
30/// 59044=
SIMX01 MXBA 110300 
AAXX 11031
76593 32950 01404 10238 20227 30148 40150 52021 90250 333   
30/// 59048=
76612 32860 30000 10137 20071 38474 40120 52021 83030 90250 
333   30/// 56050 59003 83358=
76634 31570 61401 10134 20067 37854 40117 52017 70542 86400 
90250 333   30/// 565// 59009 86634=
76644 32450 60303 10250 20219 30131 40144 52013 83520 90250 
333   30/// 5610/ 59052 83610 83420 91005 91503=
76654 31956 00000 10251 20206 30132 40136 52018 70544 90250 
333   30/// 58003=
76658 31558 22701 10229 20198 39645 40141 52023 70540 81550 
90250 333   30/// 58002 81622 81356 98914=
76662 32660 52101 10186 20087 38465 40111 52023 85400 90245 
333   30/// 56/00 59006 85633=
76665 31458 61801 10154 20106 38119 40104 52020 70322 86200 
90255 333   30/// 56300 57832 59006 86813=
76680 31558 30201 10150 20066 37752 40098 52018 70540 82021 
90255 333   30/// 56055 59008 82458=
76683 32965 00000 10150 20069 37826 40113 51019 90245 333   
30/// 59010=
76687 31560 32201 10150 20142 38667 40124 52012 70211 83400 
90245 333   30/// 563// 59033 81820 82618=
76692 31920 01302 10225 20202 30115 40134 52024 71040 90245 
333   30/// 59054=
76695 32956 00000 10218 20212 30136 40142 52016 90250 333   
30/// 59038=
76726 32968 13201 10214 20111 38388 40067 52009 81400 90240 
333   30/// 56500 59010 81610=
76737 32980 00000 10167 20145 38762 40116 52019 90245 333   
30/// 59030 91101 91534=
76743 31940 00400 10225 20211 30127 40134 52013 70000 90250 
333   30/// 59051=
76750 32558 30902 10235 20220 30143 40153 52012 82130 90245 
333   30/// 56330 59023 82820=
76762 32504 31502 10191 20146 38762 40110 52031 81260 90250 
333   30/// 56630 59007 81817 82360=
76775 32960 02101 10206 20117 38513 40130 52031 90245 333   
30/// 59018=
76833 32958 03601 10246 2//// 30119 40121 52026 90245 333   
30/// 58/// 92000=
SIMX01 MXBA 110300 
AAXX 11031
76840 32810 20000 10258 20224 30067 40122 52028 82030 90245 
333   30/// 56/9/ 58/// 82358=
76845 32930 00000 10134 20128 37949 40162 51018 90245 333   
30/// 59016=
76848 32950 00000 10140 20103 38383 40069 52022 90253 333   
30/// 59013=
76855 32980 03302 10248 20205 30064 40113 52016 90245 333   
30/// 59011 92001=
76160 32958 02702 10196 21003 39916 40163 52020 90240 333   
30/// 58///=
76412 32960 01501 10166 20112 30121 40167 52018 90250 333   
30/// 58009=
76525 32960 02204 10093 21020 37473 40131 52023 90250 333   
30/// 58005=
76632 31847 31401 10140 20082 37697 40091 52006 70311 83080 
90245 333   30/// 56050 59004 83359=
76640 31210 70000 10206 20194 30129 40140 52012 70311 8422/ 
90240 333   30/// 5655/ 59044 84805 83440=
76647 32965 01202 10233 20227 30134 40164 52014 90250 333   
31/// 59040=
76843 32965 02702 10223 20185 39477 40106 52030 90245 333   
30/// 59034=
0000011600
695
SAIR34 OIII 110300 RRA
METAR OISY 110300Z  00000KT 4000 -SN FEW030CB SCT035 OVC080 M01/M02
 Q1022=
0000012400
696
SIIN90 VECC 110300
AAXX 11034
42806 31995 00000 10176 20166 40180 70500
  333 20133 59002
  555 10000=
0000015400
697
SIIN90 VOCB 110300
AAXX 11034
43321 31495 80706 10214 20182 39714 40168 70522 82540
  333 10304 20210 58006 82615 86358
  555 10000=
0000022500
698
AAIN23 VOMM 110305
FROMM
ACWC CHENNAI
TO NHAC NEW DELHI

AAXX 11034
43278 32597 30000 10244 20207 30156 40163 82501 333 10297
20209 58007 555 10000=

MIN TEMP DEP FROMM NOR IS ZERO DEG C AAA

0000010700
699
SAIN90 VOVZ 110300
METAR VOVZ 110300Z VRB01KT 1800 BR FEW018 23/21 Q1017 BECMG 2500 BR =

0000024500
700
FTIN90 VECC 110300
TAF VECC 110300Z 1106/1212 35005KT 2800 HZ NSC
     BECMG 1112/1114 00000KT 1800 BR
     BECMG 1122/1124 1000 MIFG
     BECMG 1200/1202 0500 FG
     BECMG 1204/1206 34005KT 1500 BR
     BECMG 1207/1209 2700 HZ=
0000008700
701
UPIN90 VIJP 110000
PPAA 61021 42435
55392 03517 04011 34518 77999=

0000008900
702
SAIN90 VOTP 110300
METAR VOTP 110300Z 00000KT 1500 BR FEW015 20/18 Q1016=
00000000