0000011000
856
UANT99 KDDL 110317
ARP DAL50 4825N04330W 0317 F360 MS57 318/48 KT
N815NW DDL XXW 110317 J68A
0000011100
857
UANT99 KDDL 110317
ARP BAW176A 4720N04351W 0317 F400 MS53 299/52 KT
GZZZC QXT AOW 110317 F10A
0000011100
858
UANT99 KDDL 110317
ARP BER7413 4432N02830W 0317 F390 MS50 229/55 KT
DALPB QXT AOE 110318 J79A
0000011000
859
UANT99 KDDL 110317
ARP VIR22N 4921N04349W 0318 F390 MS56 302/51 KT
GVUFO DDL XXH 110318 J13A
0000011100
860
UANT99 KDDL 110318
ARP UAL976 4725N04325W 0318 F320 MS57 330/71 KT
N226UA DDL XXW 110318 F31A
0000011000
861
UANT99 KDDL 110318
ARP AAL70 4919N04403W 0318 F380 MS57 315/49 KT
N755AN DDL XXW 110318 F49A
0000010900
862
UANT99 KDDL 110318
ARP KLM32 5505N03729W 0318 F380 MS55 233/38 KT
PHBFN QXT AOW 110318 F71A
0000011100
863
UANT99 KDDL 110318
ARP UAL124 5233N03239W 0318 F380 MS53 213/43 KT
N13138 DDL IG1 110318 F62A
0000009400
864
SIAU40 AMMC 110300 CCB
AAXX 11034
94210 46/// /2312 10303 30095 40101=


0000010000
865
SIAU40 AMMC 110300 CCC
AAXX 11034
94210 46/// /2312 10303 30095 40101 58008=


0000013600
866
SIVD17 CWVR 110300
BBXX
46207 11031 99509 71299 46/// /1714 10090 49835 57096
22200 00078 10811 70054 333 91217 =

0000066100
867
UDAF01 FAPR 110315
AMDAR 1103
LVR AFZA01 1858S 04704E 110226 F373 MS490 108/020 TB0 S031 333 F/// VG000=
LVR AFZA01 1923S 04610E 110233 F380 MS507 109/026 TB0 S031 333 F/// VG000=
LVR AFZA01 1949S 04515E 110240 F380 MS507 107/017 TB0 S031 333 F/// VG000=
LVR AFZA01 2014S 04421E 110247 F380 MS502 082/011 TB0 S031 333 F/// VG000=
LVR AFZA01 2041S 04328E 110254 F380 MS505 032/011 TB0 S031 333 F/// VG000=
LVR AFZA01 2109S 04236E 110301 F380 MS505 003/013 TB0 S031 333 F/// VG000=
LVR AFZA01 2136S 04143E 110308 F380 MS496 006/007 TB0 S031 333 F/// VG000=
LVR AFZA01 2203S 04050E 110315 F380 MS498 082/004 TB0 S031 333 F/// VG000=
0000066100
868
UDAF01 FAPR 110314
AMDAR 1103
LVR AFZA64 2219N 00910E 110224 F400 MS610 224/055 TB0 S031 333 F/// VG000=
LVR AFZA64 2312N 00850E 110232 F400 MS607 226/057 TB0 S031 333 F/// VG000=
LVR AFZA64 2405N 00829E 110239 F400 MS602 225/065 TB0 S031 333 F/// VG000=
LVR AFZA64 2459N 00808E 110246 F400 MS596 226/077 TB0 S031 333 F/// VG000=
LVR AFZA64 2552N 00746E 110253 F400 MS590 229/087 TB0 S031 333 F/// VG000=
LVR AFZA64 2648N 00732E 110260 F400 MS585 230/094 TB0 S031 333 F/// VG000=
LVR AFZA64 2747N 00726E 110307 F400 MS597 230/090 TB0 S031 333 F/// VG000=
LVR AFZA64 2845N 00720E 110314 F400 MS627 237/087 TB0 S031 333 F/// VG000=
0000066100
869
UDAF01 FAPR 110318
AMDAR 1103
LVR AFZA63 0157S 02545E 110224 F390 MS562 094/026 TB0 S031 333 F/// VG000=
UNS AFZA63 0249S 02551E 110231 F390 MS554 090/046 TB0 S031 333 F/// VG000=
LVR AFZA63 0339S 02603E 110238 F390 MS563 092/039 TB0 S031 333 F/// VG000=
LVR AFZA63 0431S 02612E 110245 F390 MS565 105/033 TB0 S031 333 F/// VG000=
LVR AFZA63 0523S 02621E 110252 F390 MS562 112/030 TB0 S031 333 F/// VG000=
LVR AFZA63 0615S 02630E 110259 F390 MS558 108/038 TB0 S031 333 F/// VG000=
LVR AFZA63 0707S 02640E 110306 F390 MS558 111/034 TB0 S031 333 F/// VG000=
LVR AFZA63 0758S 02649E 110313 F402 MS581 114/047 TB0 S031 333 F/// VG000=
0000046200
870
SIVD15 KWNB 110300 RRK
BBXX
44064 11031 99370 70760 46/// /1405 10096 40224 90310 333 91205
555 11054 22059=
44062 11031 99386 70764 46/// /0602 10024 40227 90310 333 91202
555 11023 22025=
44063 11031 99390 70764 46/// /3602 10018 40217 90310 333 91202
555 11021 22023=
44041 11031 99372 70768 46/// /1203 10067 90310 333 91204 555
11035 22038=
44042 11031 99380 70763 46/// /1101 10046 40216 90310 333 91203
555 11016 22018=
0000015200
871
SIVD19 KWNB 110300 RRC
BBXX
46126 11031 99540 71666 46/// /2305 10044 49837 90300 22200 00046
1//00 70001 333 91206 555 11052 22057=
0000079200
872
SIVD01 PANC 110300 RRD
BBXX
WDE3568 11034 99438 70821
43/// /1424 00/// 10033 2//// 40091 5//// 8////
222// 00049 2//// 3//// 4//// 5//// 6//// 8//// ICE /////=
C6TZ9 11034 99305 50499
417// 83111 10230 20216 40120 54/// 7//22 88///
22213 00260 2//// 3//// 4//// 5//// 6//// 80220 ICE /////=
PHET 11031 99134 70605
41598 60518 10255 20222 40160 54000 70322 864//
22232 04271 21510 3//// 4//// 5////=
PHOS 11034 99233 70833
41/98 /1220 10265 20217 40182 70022 8////
22213 00307 2//// 3//// 4//// 5////=
C6TQ6 11033 99302 70151
41898 42412 10180 2//// 40170 54/// 7//00 844//
22234 00200 20605 3//// 40605 5//// 6//// 8//// ICE /////=
PHSG 11034 99044 71342
41394 81218 10247 20238 40100 5/000 75350 8777/
22214 00240 20202 323// 40304 80241=
0000017600
873
SNVD01 PANC 110400
BBXX
C6WK7 11044 99375 10237
41697 63609 10150 2008/ 40190 57010 7//11 868//
22284 00150 20301 33535 40301 50301 6/00/ 80110 ICE /////=
0000021300
874
SIVD20 KWNB 110300 RRL
BBXX
44059 11031 99368 70763 46/// /1704 10120 40216 90310 333 91205
555 11045 22049=
44058 11031 99376 70763 46/// /1903 10063 40223 90310 333 91203
555 11030 22033=
0000122500
875
SICI01 KWBC 110300
AAXX 11031
50953 33/// 92003 11172 21237 40279 52001 333 91141 91520=
52533 32980 12001 11073 21219 40468 52017 81///=
52652 32980 02901 11105 21217 40504 52022=
52866 31924 51101 11112 21193 37775 52018 70500 85///=
53463 42965 61102 11099 21222 40401 52013 86///=
53772 31956 00401 11028 21168 40356 52007 70500=
53915 32980 73203 11020 21203 40388 52017 87///=
54218 32960 01101 11070 21229 40315 57008=
54342 32970 32503 11029 21181 40303 57011 83///=
54823 41957 22002 10043 21057 40334 57002 70500 82///=
56080 32970 71801 11117 21182 37178 52015 87///=
56096 32770 72501 10046 21051 40331 52021 87///=
56187 31957 80202 10070 20011 40318 52018 70540 88///=
56778 32980 02505 10141 20000 38153 52013=
57461 31940 82501 10036 20018 40338 52010 71000 88///=
57516 31417 83401 10073 20056 40314 52015 75086 88///=
57687 41363 83203 10044 20027 40327 52015 76066 88///=
57816 41639 80702 10013 20012 40319 52017 71060 88///=
58150 31955 20904 10049 21009 40333 57009 70500 82///=
58606 41750 80403 10048 20039 40304 52009 76066 88///=
59431 31629 80701 10139 20107 40252 52017 71000 88///=
59644 31558 80905 10186 20149 40239 52012 76060 88///=
00000000