0000044900
806
SXXX32 EUMS 110045 RRA
16289262
:PRS 1 /1 2528 2544 2532 2531 2524 2531 2529 2526 2527 2538 2515 2505 2518 2530 2520 2518 2520 2508 2517 2521 2529 2529 2517 2508 2513 2535 2511 2512 2520 2501 :RAD 1 /3 7975 7975 7975 7971 7971 7972 7974 7974 7975 7973 7971 7967 7966 7968 7965 7962 7959 7962 7963 7964 :ENC 5 /5 5355 5347 5347 5347 5350 5337 5341 5341 5344 5346 5331 5338 :SW1 45 /60 0 :SW2 15 /60 0 :BAT 14 /15 12.5 :NAME 16289262
0000044300
807
SXXX32 EUMS 110045 RRB
324DF524
:PRS 1 /1 1840 1843 1845 1848 1850 1853 1855 1858 1861 1863 1866 1869 1872 1875 1878 1881 1884 1886 1890 1893 1896 1898 1901 1905 1908 1911 1914 1918 1921 1924 :RAD 1 /3 1838 1846 1856 1865 1875 1885 1893 1901 1909 1922 1933 1946 1955 1967 1978 1989 2001 2012 2024 2036 :ENC 5 /5 804 818 832 847 863 880 896 913 932 951 970 989 :SW1 45 /60 0 0 :SW2 15 /60 60 60 :BAT 14 /15 12.1 :NAME 324DF524
0000041500
808
SXXX32 EUMS 110046
26CB10AC
:PRS 1 /1 -1341 -1341 -1341 -1341 -1341 -1341 -1341 -1341 -1341 -1341 -1341 -1341 -1342 -1343 -1341 -1341 -1341 -1341 -1341 -1341 -1341 -1341 -1341 -1341 -1341 -1341 -1341 -1342 -1343 -1341 :RAD 3 /3 6321 6318 6312 6311 6308 6309 6308 6305 6305 6306 :RA2 3 /3 6295 6299 6285 6291 6278 6290 6287 6280 6286 6281 :SW1 47 /60 0 :SW2 17 /60 0 :BAT 14 /15 12.3 :NAME 26CB10AC
0000045000
809
SXXX32 EUMS 110046 RRA
1227146C
:PRS 1 /1 3496 3496 3500 3500 3499 3498 3502 3503 3500 3500 3502 3503 3503 3503 3504 3506 3509 3507 3509 3511 3512 3510 3513 3515 3515 3515 3517 3519 3519 3520 :RAD 3 /3 3457 3483 3480 3475 3481 3487 3483 3454 3491 3500 3550 3516 3497 3499 3499 3522 3519 3508 3530 3525 :ENC 1 /5 4252 4255 4257 4263 4267 4272 4279 4286 4292 4293 4294 4297 :SW1 47 /60 0 :SW2 17 /60 60 :BAT 14 /15 12.0 :NAME 1227146C
0000109600
810
SMKR11 BABJ 110000
AAXX 11001
47003 32980 00000 11150 21177 30272 40276 52007 333 21168=
47005 32980 00000 11199 21225 38609 58013 333 21209=
47022 32975 03403 11153 21213 38869 52011 333 21175=
47028 32467 21802 11131 21151 30218 40320 52001 82600 333
21142=
47031 32970 00000 11245 21270 38973 53009 333 21269=
47037 32970 00000 11132 21145 30195 40326 53020 333 21148=
47039 32960 00000 11169 21188 30152 40362 52002 333 21177=
47046 32969 03201 11105 21141 30275 40299 53007 333 21122=
47050 32965 00000 11112 21147 30279 40315 54000 333 21130=
47052 32965 00000 11144 21157 39982 40351 52029 333 21152=
47060 31940 01403 11066 21082 30263 40325 52006 71000 333
21070=
47061 32980 03202 11007 21117 30250 40296 52009 333 21028=
47065 32970 00000 11079 21101 30266 40333 52011 333 21087=
47067 31960 00000 11115 21143 30226 40356 52044 71020 333
21125=
47068 32960 00901 11074 21087 30292 40329 52006 333 21084=
47070 32570 20000 11074 21080 30248 40341 52012 82500 333
21089=
47075 32970 00000 11111 21124 30013 40475 52015 333 21132=
0000016000
811
SMVE01 EGRR 110000 RRA
BBXX
CEL 11000 99411 31289 41/98 62709 10160 20133 40232 52030 70111
85/// 22273 00147 2//05 3//// 4//07 5//// 80145=
0000029200
812
SMBZ05 SBBR 110000 RRB
AAXX 11004
83270 21895 80000 10226 20207 39648 40130 71395 80010 333 10330 29080 55073 59003 69951=
83309 31992 00000 10250 20231 39796 40117 71341 333 10316 29085 55/// 58000=
83319 32991 00000 10242 20222 39759 40130 333 10345 29078 55062 58003=
0000102000
813
SMBZ04 SBBR 110000 RRA
AAXX 11004
83811 32597 41402 10212 20184 39237 40114 55011 81598 333 10319 29069 55117=
83844 32597 709// 10275 20256 30083 40090 52013 84460 333 10318 29079 55///=
83887 31597 80000 10220 20195 39102 40101 52025 71392 8652/ 333 10283 29077 55082=
83907 21497 80910 10223 20199 39844 40120 5//// 70296 8171/ 333 10342 29074 55071 69921=
83914 21495 81813 10188 20175 39398 40157 52050 79598 889// 333 10315 29075 55094 60101=
83919 21395 81806 10170 20164 38998 40169 52030 76396 887// 333 10288 29082 55077 60191=
83927 21597 80502 10246 20205 39996 40066 52013 70296 883// 333 10345 29074 55038 60041=
83936 21496 80901 10208 20205 39983 40102 56020 71096 8397/ 333 10348 29087 55050 60421=
83948 21595 82306 10221 20217 30131 40137 52027 79596 889// 333 10290 29092 55044 60201=
83964 21596 83202 10184 20176 39618 40098 57010 71096 887// 333 10301 29089 55029 60101=
83995 21497 80000 10202 20180 30076 40079 53010 70262 886// 333 10265 29084 55/// 60031=
0000092400
814
SMBZ03 SBBR 110000 RRA
AAXX 11004
83384 327// 21402 10276 20186 39530 40097 81062 333 10335 29057 55/// 59006=
83386 32795 10000 10221 20192 39573 40098 81041 333 10313 29072 55113 59009=
83388 32996 00503 10238 20171 39436 40097 333 10313 29058 55106 59004=
83393 215// 61404 10218 20194 39419 40138 70352 84430 333 10296 29077 55060 58003 69931=
83442 32595 60000 10248 20209 39783 40121 81272 333 10327 29071 55/// 59017=
83479 31798 81804 10230 20190 39328 40118 70395 8801/ 333 10315 29075 55069 58001=
83483 32596 60904 10265 20183 39547 40101 84724 333 10323 29062 55105 59007=
83531 21597 82302 10192 20172 39086 40110 70196 889// 333 10297 29075 55083 59010 60191=
83538 32995 00000 10197 20146 38725 40106 333 1//// 29070 55082 59003=
83687 32996 01404 10242 20182 39109 40102 53012 333 10302 29054 55105=
83692 32997 00504 10228 20186 39107 40126 53006 333 10290 29073 55077=
0000045800
815
SNVD15 KWNB 110100
BBXX
44064 11011 99370 70760 46/// /1304 10065 40240 90040 333 91205
555 11047 22051=
44062 11011 99386 70764 46/// /3604 10022 40256 90040 333 91205
555 11046 22050=
44063 11011 99390 70764 46/// /3302 10016 40246 90040 333 91203
555 11028 22030=
44041 11011 99372 70768 46/// /1203 10049 90040 333 91204 555
11031 22034=
44042 11011 99380 70763 46/// /0803 10046 40241 90040 333 91204
555 11039 22043=
0000628800
816
KSMI03 SBBR 110000 RRA
CREX++
T000113 A000 D07086++
 83 384 ARINOS               1 2014 01 11 00 00 -1590000 -04605000 ///// ///// 09530 10097 //// // -0006 ///// ///// ///// 2760 1860 057 ///// //// ///// ///// ///// 025 08 01 0175 30 26 12 0000 0000 // // ///// //// ////// / /// /// ////// /// /// /////// // /// // /// /// ////////// /// /// 508 -0006 10 10  -0024 //// -0001 //// /////  -0001 00000 //// ///// ///// -0012 0000 3350 -0012 0000 //// ///// 03 02 -0010 140 0010 //  -0010 /// //// //// /// //// ///// -0024 // ////  -0001 //// //// ///// ///// ///// ///// -0024 //// //// ///// ///// ///// /////+
 83 386 JANUARIA             1 2014 01 11 00 00 -1543000 -04436000 ///// ///// 09573 10098 //// // -0009 ///// ///// ///// 2210 1920 072 ///// 0200 ///// ///// ///// 012 08 01 0175 30 24 11 0000 0000 // // ///// //// ////// / /// /// ////// /// /// /////// // /// // /// /// ////////// /// /// 508 -0006 10 10  -0024 0678 -0001 //// /////  -0001 00000 //// ///// ///// -0012 0000 3130 -0012 0000 //// ///// 03 02 -0010 000 0000 //  -0010 /// //// //// /// //// ///// -0024 // ////  -0001 //// //// ///// ///// ///// ///// -0024 //// //// ///// ///// ///// /////+
 83 388 MONTE AZUL           1 2014 01 11 00 00 -1508000 -04275000 ///// ///// 09436 10097 //// // -0004 ///// ///// ///// 2380 1710 058 ///// 0400 ///// ///// ///// 000 62 // 0000 // // // 0000 0000 // // ///// //// ////// / /// /// ////// /// /// /////// // /// // /// /// ////////// /// /// 508 -0006 10 10  -0024 0636 -0001 //// /////  -0001 00000 //// ///// ///// -0012 0000 3130 -0012 0000 //// ///// 03 02 -0010 050 0015 //  -0010 /// //// //// /// //// ///// -0024 // ////  -0001 //// //// ///// ///// ///// ///// -0024 //// //// ///// ///// ///// /////+
 83 393 PEDRA AZUL           1 2014 01 11 00 00 -1600000 -04128000 ///// ///// 09419 10138 //// // 0003 ///// ///// ///// 2180 1940 077 ///// //// ///// ///// ///// 075 07 04 0080 34 23 10 0000 0000 // // ///// //// ////// / /// /// ////// /// /// /////// // /// // /// /// ////////// /// /// 003 -0006 05 02  -0024 0360 -0001 //// /////  //// ///// -0006 00003 ///// -0012 0000 2960 -0012 0000 //// ///// 03 02 -0010 140 0021 //  -0010 /// //// //// /// //// ///// -0024 // ////  -0001 //// //// ///// ///// ///// ///// -0024 //// //// ///// ///// ///// /////+
 83 442 ARACUAI              1 2014 01 11 00 00 -1686000 -04206000 ///// ///// 09783 10121 //// // -0017 ///// ///// ///// 2480 2090 071 ///// 0200 ///// ///// ///// 075 07 01 0080 32 27 12 0000 0000 // // ///// //// ////// / /// /// ////// /// /// /////// // /// // /// /// ////////// /// /// 508 -0006 10 10  -0024 //// -0001 //// /////  -0001 00000 //// ///// ///// -0012 0000 3270 -0012 0000 //// ///// 03 02 -0010 000 0000 //  -0010 /// //// //// /// //// ///// -0024 // ////  -0001 //// //// ///// ///// ///// ///// -0024 //// //// ///// ///// ///// /////+
 83 479 PARACATU             1 2014 01 11 00 00 -1721000 -04686000 ///// ///// 09328 10118 //// // 0001 ///// ///// ///// 2300 1900 075 ///// 2000 ///// ///// ///// 100 08 08 0175 30 21 60 0000 0000 // // ///// //// ////// / /// /// ////// /// /// /////// // /// // /// /// ////////// /// /// 003 -0006 09 05  -0024 0414 -0001 //// /////  -0001 00000 //// ///// ///// -0012 0000 3150 -0012 0000 //// ///// 03 02 -0010 180 0021 //  -0010 /// //// //// /// //// ///// -0024 // ////  -0001 //// //// ///// ///// ///// ///// -0024 //// //// ///// ///// ///// /////+
 83 483 PIRAPORA             1 2014 01 11 00 00 -1733000 -04495000 ///// ///// 09547 10101 //// // -0007 ///// ///// ///// 2650 1830 062 ///// 0400 ///// ///// ///// 075 07 04 0080 37 22 14 0000 0000 // // ///// //// ////// / /// /// ////// /// /// /////// // /// // /// /// ////////// /// /// 508 -0006 10 10  -0024 0630 -0001 //// /////  -0001 00000 //// ///// ///// -0012 0000 3230 -0012 0000 //// ///// 03 02 -0010 090 0021 //  -0010 /// //// //// /// //// ///// -0024 // ////  -0001 //// //// ///// ///// ///// ///// -0024 //// //// ///// ///// ///// /////+
 83 531 PATOS DE MINAS       1 2014 01 11 00 00 -1860000 -04651000 ///// ///// 09086 10110 //// // -0010 ///// ///// ///// 1920 1720 075 ///// 1000 ///// ///// ///// 100 07 08 0080 39 61 60 0000 0000 // // ///// //// ////// / /// /// ////// /// /// /////// // /// // /// /// ////////// /// /// 001 -0006 09 06  -0024 0498 -0001 //// /////  //// ///// -0006 00190 ///// -0012 0000 2970 -0012 0000 //// ///// 03 02 -0010 230 0010 //  -0010 /// //// //// /// //// ///// -0024 // ////  -0001 //// //// ///// ///// ///// ///// -0024 //// //// ///// ///// ///// /////+
 83 538 DIAMANTINA           1 2014 01 11 00 00 -1823000 -04360000 ///// ///// 08725 10106 //// // -0003 ///// ///// ///// 1970 1460 070 ///// 0200 ///// ///// ///// 000 62 // 0000 // // // 0000 0000 // // ///// //// ////// / /// /// ////// /// /// /////// // /// // /// /// ////////// /// /// 508 -0006 10 10  -0024 0492 -0001 //// /////  -0001 00000 //// ///// ///// -0012 0000 //// -0012 0000 //// ///// 03 02 -0010 000 0000 //  -0010 /// //// //// /// //// ///// -0024 // ////  -0001 //// //// ///// ///// ///// ///// -0024 //// //// ///// ///// ///// /////+
 83 687 LAVRAS               1 2014 01 11 00 00 -2123000 -04500000 ///// ///// 09109 10102 0012 03 //// ///// ///// ///// 2420 1820 054 ///// 0400 ///// ///// ///// 000 62 // 0000 // // // 0000 0000 // // ///// //// ////// / /// /// ////// /// /// /////// // /// // /// /// ////////// /// /// 508 -0006 10 10  -0024 0630 -0001 //// /////  -0001 00000 //// ///// ///// -0012 0000 3020 -0012 0000 //// ///// 03 02 -0010 140 0021 //  -0010 /// //// //// /// //// ///// -0024 // ////  -0001 //// //// ///// ///// ///// ///// -0024 //// //// ///// ///// ///// /////+
 83 692 JUIZ DE FORA         1 2014 01 11 00 00 -2176000 -04335000 ///// ///// 09107 10126 0006 03 //// ///// ///// ///// 2280 1860 073 ///// 1000 ///// ///// ///// 000 62 // 0000 // // // 0000 0000 // // ///// //// ////// / /// /// ////// /// /// /////// // /// // /// /// ////////// /// /// 508 -0006 10 10  -0024 0462 -0001 //// /////  -0001 00000 //// ///// ///// -0012 0000 2900 -0012 0000 //// ///// 03 02 -0010 050 0021 //  -0010 /// //// //// /// //// ///// -0024 // ////  -0001 //// //// ///// ///// ///// ///// -0024 //// //// ///// ///// ///// /////++
7777
0000612300
817
KSMI03 SBBR 110000 RRA
CREX++
T000113 A000 D07080++
 83 384 ARINOS               1 2014 01 11 00 00 -1590000 -04605000 05190 ///// 09530 10097 //// // -0006 ///// ///// ///// 2760 1860 057 ///// //// ///// ///// ///// 025 08 01 0175 30 26 12 0000 0000  07 /// 08 /// 09 /// // ///// ///// // ///// ///// // ///// //// 508 -0006 10 10  -0024 //// -0001 //// /////  -0001 00000 //// ///// ///// -0012 0000 3350 -0012 0000 //// ///// 03 02 -0010 140 0010 //  -0010 /// //// //// /// //// ///// -0024 // ////  -0001 //// //// ///// ///// ///// ///// -0024 //// //// ///// ///// ///// ///// //// 0000 //+
 83 386 JANUARIA             1 2014 01 11 00 00 -1543000 -04436000 04740 ///// 09573 10098 //// // -0009 ///// ///// ///// 2210 1920 072 ///// 0200 ///// ///// ///// 012 08 01 0175 30 24 11 0000 0000  07 /// 08 /// 09 /// // ///// ///// // ///// ///// // ///// //// 508 -0006 10 10  -0024 0678 -0001 //// /////  -0001 00000 //// ///// ///// -0012 0000 3130 -0012 0000 //// ///// 03 02 -0010 000 0000 //  -0010 /// //// //// /// //// ///// -0024 // ////  -0001 //// //// ///// ///// ///// ///// -0024 //// //// ///// ///// ///// ///// //// 0000 //+
 83 388 MONTE AZUL           1 2014 01 11 00 00 -1508000 -04275000 06040 ///// 09436 10097 //// // -0004 ///// ///// ///// 2380 1710 058 ///// 0400 ///// ///// ///// 000 62 // 0000 // // // 0000 0000  07 /// 08 /// 09 /// // ///// ///// // ///// ///// // ///// //// 508 -0006 10 10  -0024 0636 -0001 //// /////  -0001 00000 //// ///// ///// -0012 0000 3130 -0012 0000 //// ///// 03 02 -0010 050 0015 //  -0010 /// //// //// /// //// ///// -0024 // ////  -0001 //// //// ///// ///// ///// ///// -0024 //// //// ///// ///// ///// ///// //// 0000 //+
 83 393 PEDRA AZUL           1 2014 01 11 00 00 -1600000 -04128000 06490 ///// 09419 10138 //// // 0003 ///// ///// ///// 2180 1940 077 ///// //// ///// ///// ///// 075 07 04 0080 34 23 10 0000 0000  07 /// 08 /// 09 /// // ///// ///// // ///// ///// // ///// //// 003 -0006 05 02  -0024 0360 -0001 //// /////  //// ///// -0006 00003 ///// -0012 0000 2960 -0012 0000 //// ///// 03 02 -0010 140 0021 //  -0010 /// //// //// /// //// ///// -0024 // ////  -0001 //// //// ///// ///// ///// ///// -0024 //// //// ///// ///// ///// ///// //// 0000 //+
 83 442 ARACUAI              1 2014 01 11 00 00 -1686000 -04206000 02840 ///// 09783 10121 //// // -0017 ///// ///// ///// 2480 2090 071 ///// 0200 ///// ///// ///// 075 07 01 0080 32 27 12 0000 0000  07 /// 08 /// 09 /// // ///// ///// // ///// ///// // ///// //// 508 -0006 10 10  -0024 //// -0001 //// /////  -0001 00000 //// ///// ///// -0012 0000 3270 -0012 0000 //// ///// 03 02 -0010 000 0000 //  -0010 /// //// //// /// //// ///// -0024 // ////  -0001 //// //// ///// ///// ///// ///// -0024 //// //// ///// ///// ///// ///// //// 0000 //+
 83 479 PARACATU             1 2014 01 11 00 00 -1721000 -04686000 07110 ///// 09328 10118 //// // 0001 ///// ///// ///// 2300 1900 075 ///// 2000 ///// ///// ///// 100 08 08 0175 30 21 60 0000 0000  07 /// 08 /// 09 /// // ///// ///// // ///// ///// // ///// //// 003 -0006 09 05  -0024 0414 -0001 //// /////  -0001 00000 //// ///// ///// -0012 0000 3150 -0012 0000 //// ///// 03 02 -0010 180 0021 //  -0010 /// //// //// /// //// ///// -0024 // ////  -0001 //// //// ///// ///// ///// ///// -0024 //// //// ///// ///// ///// ///// //// 0000 //+
 83 483 PIRAPORA             1 2014 01 11 00 00 -1733000 -04495000 05050 ///// 09547 10101 //// // -0007 ///// ///// ///// 2650 1830 062 ///// 0400 ///// ///// ///// 075 07 04 0080 37 22 14 0000 0000  07 /// 08 /// 09 /// // ///// ///// // ///// ///// // ///// //// 508 -0006 10 10  -0024 0630 -0001 //// /////  -0001 00000 //// ///// ///// -0012 0000 3230 -0012 0000 //// ///// 03 02 -0010 090 0021 //  -0010 /// //// //// /// //// ///// -0024 // ////  -0001 //// //// ///// ///// ///// ///// -0024 //// //// ///// ///// ///// ///// //// 0000 //+
 83 531 PATOS DE MINAS       1 2014 01 11 00 00 -1860000 -04651000 09400 ///// 09086 10110 //// // -0010 ///// ///// ///// 1920 1720 075 ///// 1000 ///// ///// ///// 100 07 08 0080 39 61 60 0000 0000  07 /// 08 /// 09 /// // ///// ///// // ///// ///// // ///// //// 001 -0006 09 06  -0024 0498 -0001 //// /////  //// ///// -0006 00190 ///// -0012 0000 2970 -0012 0000 //// ///// 03 02 -0010 230 0010 //  -0010 /// //// //// /// //// ///// -0024 // ////  -0001 //// //// ///// ///// ///// ///// -0024 //// //// ///// ///// ///// ///// //// 0000 //+
 83 538 DIAMANTINA           1 2014 01 11 00 00 -1823000 -04360000 12960 ///// 08725 10106 //// // -0003 ///// ///// ///// 1970 1460 070 ///// 0200 ///// ///// ///// 000 62 // 0000 // // // 0000 0000  07 /// 08 /// 09 /// // ///// ///// // ///// ///// // ///// //// 508 -0006 10 10  -0024 0492 -0001 //// /////  -0001 00000 //// ///// ///// -0012 0000 //// -0012 0000 //// ///// 03 02 -0010 000 0000 //  -0010 /// //// //// /// //// ///// -0024 // ////  -0001 //// //// ///// ///// ///// ///// -0024 //// //// ///// ///// ///// ///// //// 0000 //+
 83 687 LAVRAS               1 2014 01 11 00 00 -2123000 -04500000 09190 ///// 09109 10102 0012 03 //// ///// ///// ///// 2420 1820 054 ///// 0400 ///// ///// ///// 000 62 // 0000 // // // 0000 0000  07 /// 08 /// 09 /// // ///// ///// // ///// ///// // ///// //// 508 -0006 10 10  -0024 0630 -0001 //// /////  -0001 00000 //// ///// ///// -0012 0000 3020 -0012 0000 //// ///// 03 02 -0010 140 0021 //  -0010 /// //// //// /// //// ///// -0024 // ////  -0001 //// //// ///// ///// ///// ///// -0024 //// //// ///// ///// ///// ///// //// 0000 //+
 83 692 JUIZ DE FORA         1 2014 01 11 00 00 -2176000 -04335000 ///// ///// 09107 10126 0006 03 //// ///// ///// ///// 2280 1860 073 ///// 1000 ///// ///// ///// 000 62 // 0000 // // // 0000 0000  07 /// 08 /// 09 /// // ///// ///// // ///// ///// // ///// //// 508 -0006 10 10  -0024 0462 -0001 //// /////  -0001 00000 //// ///// ///// -0012 0000 2900 -0012 0000 //// ///// 03 02 -0010 050 0021 //  -0010 /// //// //// /// //// ///// -0024 // ////  -0001 //// //// ///// ///// ///// ///// -0024 //// //// ///// ///// ///// ///// //// 0000 //++
7777
0000010300
818
UXIN90 VAAH 110000
PPAA 6100/ 42539 NO ASCENT DUE TO OFFICE BUILDING
UNDER RENOVATION=

0000046800
819
SMBZ34 SBBR 110000 RRA
AAXX 11004
83766 32997 00000 10300 20200 39487 40111 5//// 333 10342 29055 55119=
83836 31497 83201 10218 20192 39150 40106 53017 71322 82967 333 10314 29072 55108=
83881 21496 81412 10248 20201 39826 40102 51028 71396 8494/ 333 10346 29065 55094 60041=
83980 21596 70502 10211 20184 39815 40088 53001 71052 87500 333 10299 29082 55018 60021=
83997 32897 42306 10213 20195 30063 40106 5//// 84030 333 10262 29087 55014=
0000010800
820
SNVD80 KWBC 100100 RRB
BBXX
WDC6055 10014 99416 70871 43/// /1516 10049 40062 2227/ 00032=
0000062000
821
FTXX31 AYPM 102315
TAF AYMS 102315Z 1102/1111 12006KT 9999 -SHRA SCT016 BKN120
                 Q  1007  1005  1006=
TAF AYKI 102317Z 1102/1111 VRB03KT 9999 -SHRA SCT016 SCT040 BKN120
                 INTER 1102/1111 4000 +SHRA BKN008
                 Q  1008  1006  1007=
TAF AYTB 102318Z 1102/1111 VRB03KT 9999 -SHRA SCT016 SCT040 BKN120
                 INTER 1102/1111 4000 +SHRA BKN008
                 Q  1010  1008  1009=
TAF AYMR 102319Z 1102/1111 VRB03KT 9999 -SHRA SCT016 SCT040 BKN120
                 INTER 1102/1111 4000 +SHRA BKN008
                 Q  1012  1010  1011=
0000015500
822
SIVF10 EHDB 102100 RRA
BBXX
PJKV 10213 99460 70213 41198 41821 10105 20050 40138 58009 70111
82141 22224 04130 20404 329// 41207 80080=
0000016000
823
SSVX12 KARS 110020
ZZYY 73634 10014 2330/ 365988 144754 6113/
11119 11010 49868 57001
22219 01019
444 20130 10014 2237/ 501// 80140 80000=
0000043700
824
SMCN04 KWBC 110000
AAXX 11004
71878 12774 82310 11040 21049 38988 40076 53028 60001 86501 333
11038 21168 70000=
71048 15/// /3118 11061 21076 60001 333 11048 21127 70000=
71354 15/// /2807 11046 21072 60001 333 11012 21091 70000=
71981 15/// /3203 11020 21094 60001 333 10025 21054 70000=
71982 15/// /3109 11010 21116 60001 333 10025 21111 7////=
71986 15/// /3209 11059 21070 60001 333 11035 21129 70000=
0000154800
825
SMLA01 KWBC 110000
AAXX 11001
48921 31208 81601 10135 20135 38654 48148 5//// 710// 886// 333
20130 59004=
48924 31/01 90000 10155 20155 39541 40183 5//// 747// 333 20125
58008=
48925 31/01 90000 10130 20126 39434 40190 5//// 747// 333 20104
58011=
48926 31430 30000 10158 20151 39703 40176 5//// 710// 83600 333
20150 58015=
48927 31450 80000 10128 20121 39186 48647 5//// 710// 888// 333
20110 58000=
48928 31310 80000 10117 20111 39115 48594 5//// 710// 888// 333
20115 59009=
48930 31/08 93601 10160 20151 39841 40201 52033 74744 333 20150
58024=
48938 31/02 93201 10149 20149 39840 40186 52010 74544 333 20149
58013=
48940 31920 33601 10168 20154 39968 40169 52007 71044 80001 333
20167 58002=
48944 31/01 90000 10108 20100 39537 40146 5//// 747// 333 20103
58003=
48945 31940 10000 10152 20141 39998 40184 5//// 710// 80001 333
20150 59004=
48946 31550 61801 10164 20162 39996 40167 5//// 710// 81810 333
20164 59002=
48947 31520 20000 10160 20150 30014 40186 54000 71044 82500 333
20160 58013=
48948 31957 20902 10150 20149 39968 40192 52008 71044 80001 333
20150 59001=
48952 31550 20901 10170 20157 39950 40147 52012 71044 82500 333
20170 58010=
48955 31950 43601 10189 20166 30041 40162 52021 71044 80002 333
20181 58009=
48935 31/02 90000 10090 20084 39047 48525 52012 74544 333 20086
58010=
48941 31650 22701 10138 20134 3//// 4//// 5//// 710// 82500 333
20138 5////=
48957 31559 30000 10185 20160 30053 40162 5//// 710// 82101 333
20180 58028=
00000000