0000011100
116
UANT99 KDDL 110322
ARP BAW2154 4623N01907W 0322 F390 MS57 252/69 KT
GVIIT QXT AOE 110322 F48A
0000011100
117
UANT99 KDDL 110322
ARP DAL401 4753N03603W 0322 F360 MS49 225/34 KT
N845MH QXT AOW 110322 F24A
0000215900
118
SZNZ01 NZKL 110324
CREX++
T000103 A001 D01021 D06025++
-3683144 17478654 AUCT  2014 01 11 03 16 //// 11 07 00 01
06054 3197 06056 3197 06056 3196 06056 3196 06057 3195 06059 3197+
-4402404 -17636748 CHIT  2014 01 11 03 16 //// 11 07 00 01
05164 2115 05156 2111 05134 2092 05139 2100 05132 2097 05128 2096+
-4089929 17623168 CPIT  2014 01 11 03 16 //// 11 07 00 01
04232 2249 04252 2273 04228 2252 04245 2273 04226 2258 04211 2247+
-3618905 17548887 GBIT  2014 01 11 03 16 //// 11 07 00 01
06440 0044 06453 0057 06456 0061 06442 0047 06438 0043 06436 0041+
-3867541 17802288 GIST  2014 01 11 03 16 //// 11 07 00 01
04477 2706 04469 2701 04469 2703 04446 2684 04441 2681 04457 2700+
-4241288 17370277 KAIT  2014 01 11 03 16 //// 11 07 00 01
03555 2169 03549 2167 03548 2171 03541 2168 03530 2162 03537 2173+
-3755040 17815904 LOTT  2014 01 11 03 16 //// 11 07 00 01
04062 0215 04058 0213 04072 0228 04057 0214 04067 0225 04049 0209+
-3704657 17451175 MNKT  2014 01 11 03 16 //// 11 07 00 01
02586 -0158 02581 -0170 02606 -0151 02597 -0167 02615 -0156 02606 -0171+
-3947566 17692007 NAPT  2014 01 11 03 16 //// 11 07 00 01
03437 1998 03435 1999 03430 1998 03452 2024 03433 2008 03434 2013+
-3441483 17304870 NCPT  2014 01 11 03 16 //// 11 07 00 01
02377 -2586 02606 -2358 02628 -2339 02734 -2235 02638 -2332 02629 -2343+
-4581435 17062939 OTAT  2014 01 11 03 16 //// 11 07 00 01
04506 3394 04502 3397 04495 3397 04491 3399 04484 3398 04478 3399+
-2928002 -17789440 RBCT  2014 01 11 03 16 //// 11 07 00 01
06468 2012 06475 2019 06457 2002 06460 2005 06462 2008 06459 2005+
-2925114 -17790384 RFRT  2014 01 11 03 16 //// 11 07 00 01
03436 0215 03430 0210 03429 0209 03415 0195 03425 0207 03424 0206+
-4357010 17277383 SUMT  2014 01 11 03 16 //// 11 07 00 01
02239 1824 02237 1829 02227 1826 02212 1817 02220 1831 02191 1809+
-3764109 17618118 TAUT  2014 01 11 03 16 //// 11 07 00 01
05674 3981 05673 3980 05676 3983 05676 3983 05677 3984 05676 3983+
-4128448 17477985 WLGT  2014 01 11 03 16 //// 11 07 00 01
03401 2063 03395 2061 03386 2056 03380 2054 03372 2050 03367 2048++
7777
0000011000
119
UANT01 CWAO 110322
ARP BAW5CA 5016N04420W 0322 F340 MS60 323/72 KT
GVIIY QXT AOW 110322 F07A
0000173500
120
SIDN40 EKMI 110300
AAXX 11034
06032 46/// /2513 10056 20052 39956 40025 57005 =
06041 27360 72517 10062 20055 30008 40014 57005 72184
  333 55300 20000 69907 81/08 83/19 87/58 =
06049 45465 82311 10055 20049 39939 40047 57007
  333 81/14 87/27 88/31 =
06052 27457 82415 10072 20057 30037 40041 57014 71085
  333 69907 81/18 88/21 =
06058 25460 82414 10066 20056 30054 40059 57013
  333 55300 20000 6///7 81/12 87/17 88/20 =
06065 26/// /2312 10063 20057 30000 40041 57010
  333 55300 20000 6///7 =
06072 26/// /2407 10059 20044 39980 40056 57006
  333 55300 20000 6///7 =
06074 25465 82308 10058 20043 39993 40061 57008
  333 6///7 88/13 =
06082 NIL =
06102 26/// /2311 10061 20044 30036 40065 57010
  333 55300 20000 6///7 =
06104 22370 72310 10059 20045 39975 40072 57007 876//
  333 6///7 84709 85618 =
06110 22362 72415 10066 20053 30024 40082 57007 87600
  333 6///7 87707 =
06123 45/61 /2615 10064 20056 30079 40083 57009
  333 55300 20000 =
06126 26/// /2311 10060 20048 30019 40082 57007
  333 55300 20000 6///7 =
06136 26/// /2310 10057 20048
  333 55300 20000 6///7 =
06141 25/66 /2314 10057 20046 30087 40098 57003
  333 55300 20000 6///7 =
06147 25/64 /2518 10056 20041 30087 40092 57004
  333 6///7 =
06151 46/// /2216 10056 20047 30086 40089 57004 =
06154 25/64 /2512 10055 20048 30030 40087 57003
  333 6///7 =
06156 25465 82511 10058 20039 30058 40074 57001
  333 55300 20000 6///7 81/11 88/37 =
06168 46/// /2408 10054 20035 30012 40065 57001
  333 91119 =
06170 264// 72414 10056 20039 30024 40076 57004
  333 6///7 83/12 85/16 87/19 =
06197 26/// /2619 10053 20042 30053 40083 52002
  333 55300 20000 69917 91128 =
0000016700
121
SIRE20 FMEE 110300 RRA
AAXX 11034
61972 46/// /2003 10230 20211 30122 40129
  333 58049=
61976 46/// /1118 10263 20238 30114 40129
  333 58007=
0000012200
122
SSVX07 KARS 110321
ZZYY 48536 11014 0320/ 175245 148567 6111/
11119 11233
444 20110 11014 0206/ 504//=
0000011000
123
UANT01 CWAO 110322
ARP DLH439 5436N05148W 0322 F350 MS65 290/95 KT
DAIKK QXS YAY 110322 J56A
0000011000
124
UANT01 CWAO 110322
ARP DLH471 5422N04715W 0322 F380 MS60 297/49 KT
DAIHB QXT AOW 110322 J44A
0000011100
125
UANT01 CWAO 110322
ARP DAL252 5802N03137W 0322 F370 MS54 224/40 KT
N864DA QXT AOW 110322 F24A
0000011100
126
UANT01 CWAO 110322
ARP DAL402 4523N04821W 0322 F370 MS59 309/61 KT
N173DZ QXT AOW 110322 F60A
0000019600
127
FCIN90 VILK 110300
TAF VEGK 110300Z 1106/1115 32004KT 2000 HZ SCT020 BKN100 TEMPO
1106/1112 0800 RA/TSRA FEW030CB OVC090 BECMG 1112/1114 VRB02KT 1000
MIFG/BR SCT020 SCT100 =

0000020200
128
USIN90 VIJP 110000
TTAA 61027 42348
     99973 09448 00000 00160 ///// ///// 92802 07672 02514 85489 01260
     31517 70020 06958 12503 50563 07345 40729 22743 88999 77999
    =

0000021300
129
FTIN90 VOHS 110300
TAF VOHS 110300Z 1106/1212 14010KT 5000 HZ SCT020 BECMG 1114/1116
12005KT 4000 HZ NSC TEMPO 1200/1203 00000KT 3000 HZ SCT010 SCT015
BECMG 1205/1207 10010KT 5000 HZ FEW020=

0000016300
130
UXIN90 VILK 110000
TTBB 6102/ 42369
00000 13006 11600 00050 22860 00056 33402 00048 21212 00000
00000 41414 56521= 
MISDA DUE TO SIG.DIS.=

0000013600
131
SIIN90 VICH 110300
AAXX 11034
42105 21993 00000 10074 20065 40190 74300
  333 10182 20062 58010 6990/
  555 10000=
0000010900
132
UANT01 CWAO 110323
ARP DAL66 4843N03144W 0323 F360 MS52 213/54 KT
N1602 QXT AOE 110323 F54A
0000010900
133
UANT01 CWAO 110323
ARP KLM48 5601N03905W 0322 F360 MS56 230/23 KT
PHBFK QXT AOW 110323 F49A
0000010600
134
SITA20 UTDD 110300 RRC
AAXX 11031
38951 32997 00905 11078 21185 48640 53016 333   47000=
0000011100
135
UANT01 CWAO 110323
ARP DAL178 5802N04848W 0322 F388 MS59 266/44 KT
N860NW DDL XXW 110323 J42A
00000000