0000018200
036
SNVD01 PANC 110400 RRA
BBXX
WYM9567 11044 99606 71462
41598 62302 10006 2//// 49925 57016 70222 86///
22223 0//// 20201 3//// 40000 50000 6//// 8//// ICE /////=
0000018000
037
SNVD01 PANC 110200 RRF
BBXX
C6RN3 11024 99206 70733
41498 50826 10255 20241 40197 50003 70222 852//
22274 0//// 2//// 308// 40504 5//// 6//// 80245 ICE /////=
0000058900
038
SIVD20 KWNB 110300 RRR
BBXX
44056 11031 99362 70757 46/// ///// 1//// 90323 22200 00088 10602
20602 310// 41101 70008=
44098 11031 99428 70702 46/// ///// 1//// 90321 22200 00059 10502
20502 70009=
44097 11031 99410 70711 46/// ///// 1//// 90325 22200 00068 10402
20401 70008=
41053 11031 99185 70661 46/// /0808 10265 40189 51013 90300 22200
00267 11004 70021 333 91210 555 11090 22098=
44059 11031 99368 70763 46/// /1704 10127 40213 90330 333 91207
555 11047 22051=
44058 11031 99376 70763 46/// /1904 10072 40220 90330 333 91205
555 11045 22049=
0000055200
039
SIVD01 PANC 110300 RRF
BBXX
WDB9918 11034 99521 71354
41195 81037 10039 20025 49763 57019 75155 889//
22273 00078 2//// 3//// 4//// 5//// 6//// 80033 ICE /////=
2GOY3 11034 99206 11323
41797 60524 10220 2017/ 40230 54000 70222 86044
22233 00270 20904 305// 40904 5//// 6//// 80190 ICE /////=
C6RN3 11034 99207 70736
41498 50826 10255 20241 40197 50003 70222 852//
22274 0//// 2//// 308// 40504 5//// 6//// 80245 ICE /////=
PBGH 11034 99078 70796
41/98 63518 10265 20199 40101 53010 70311 86///
22244 04274 2//04=
0000018000
040
SNVD01 PANC 110100 RRI
BBXX
C6RN3 11014 99205 70730
41498 50826 10255 20241 40197 50003 70222 852//
22274 0//// 2//// 308// 40504 5//// 6//// 80245 ICE /////=
0000224500
041
SICI01 KWBC 110300 RRF
AAXX 11031
52112 31956 01101 11140 21226 40476 52014 70500=
52787 32980 03406 11154 21243 37055 52022=
53863 41956 32703 10028 21191 40352 52009 70500 83///=
54826 32980 72204 11042 21218 38526 52002 87///=
54836 41904 00000 11011 21051 40345 57006 72840=
50548 31938 50000 11252 21294 40302 54000 70500 85///=
50564 32958 00000 11286 21331 40278 57001=
51334 31921 72001 11243 21273 40488 52002 77070 87///=
51818 32963 02501 11118 21149 40459 52011=
52378 42980 92708 11085 21212 40452 52029=
53487 32965 52502 11061 21217 40366 52002 85///=
53502 42980 22004 11081 21226 40434 52019 82///=
53923 32980 43203 11040 21206 40380 52019 84///=
54115 32980 92902 11066 21238 40297 57004=
54186 32570 42703 11099 21201 40288 57001 84///=
54346 31956 00902 11087 21170 40315 57015 70500=
54377 42965 01401 11100 21178 40337 57016=
54386 32970 01401 11153 21236 40334 57015=
54493 32966 02001 11056 21141 40325 57011=
54715 41930 82003 11002 21005 40328 57004 71040 88///=
54929 41910 50401 10026 21035 40342 57003 70500 85///=
54945 41957 02902 10031 21044 40340 57004 70500=
56065 32675 72001 11134 21209 36632 52016 87///=
57193 31955 00901 10060 21023 40337 52006 70500=
50658 33/// 93602 11218 21271 40284 52001=
50888 32965 70000 11160 21222 40240 57010 87///=
50983 32970 61802 11164 21224 40247 57015 86///=
51053 32980 00905 11163 21217 40456 52001=
51542 32980 00000 11372 21410 37654 52004=
52436 32979 02705 11078 21216 38613 40467 52017=
52908 32680 72504 11152 21250 35744 52013 87///=
52996 32980 73608 11107 21228 37622 52019 87///=
53083 42967 13403 11125 21228 40363 52011 81///=
53764 32970 00401 11053 21191 40392 52015=
53787 41955 02701 11036 21156 40354 52003 70500=
54049 32970 00000 11119 21207 40277 57009=
54096 32570 32704 11134 21209 40252 57010 83///=
54157 32956 32004 11081 21171 40291 57010 83///=
54226 32660 21101 11041 21203 40302 57007 82///=
54259 32970 02501 11118 21182 40319 57016=
54311 31937 02901 11083 21232 40333 57009 70500=
54527 31917 01802 11019 21051 40328 54000 71000=
54534 31911 02001 11014 21093 40317 57007 72840=
57290 31939 23201 10050 21012 40338 52008 70500 82///=
0000017900
042
SNVD01 KWBC 102200 RRV
BBXX
C6RN3 10224 99203 70721 41/98 /0724 10270 20243 40190 5//// 7////
 8//// 22274 00270 2//// 3//// 4//// 5//// 6//// 80250 ICE /////=
0000017900
043
SNVD01 KWBC 102300 RRV
BBXX
C6RN3 10234 99204 70726 41/98 /0724 10270 20243 40190 5//// 7////
 8//// 22274 00270 2//// 3//// 4//// 5//// 6//// 80250 ICE /////=
0000017900
044
SNVD01 KWBC 110100 RRV
BBXX
C6RN3 11014 99205 70730 41498 50826 10255 20241 40197 50003 70222
 852// 22274 0//// 2//// 308// 40504 5//// 6//// 80245 ICE /////=
0000025900
045
SNVD01 KWBC 110200 RRR
BBXX
C6RN3 11024 99206 70733 41498 50826 10255 20241 40197 50003 70222
 852// 22274 0//// 2//// 308// 40504 5//// 6//// 80245 ICE /////=
41024 11021 99338 70785 46/// /2802 10128 90200 333 91202 555
 11022 22025=
0000025200
046
SIVB30 KWBC 110300 RRD
BBXX
AMOHK01 1103/ 99225 11139 46/// ///// 10188 20094 40254=
SHIP 11034 99316 11325 41598 23414 10100 20038 40300 57012 70200
 8213/ 9//// 22213 00210 1//// 20302 335// 40302 5//// 6//// 80070
 /////////=
0000010200
047
SIVC30 KWBC 110300 RRD
BBXX
AMOUK20 1103/ 99542 50367 46/// ///// 10033 20014 49939=
0000366700
048
SIVD30 KWBC 110300 RRJ
BBXX
SHIP 11034 99623 70748 41696 42004 11183 21235 40028 54029 70100
 85//1 22280 0//// 2//// ICE55095=
VCLM 11034 99623 70748 41696 42004 11183 21235 40028 54029 70100
 85//1 22280 0//// 2//// ICE55095=
C6RN3 11034 99207 70736 41498 50826 10255 20241 40197 50003 70222
 852// 22274 0//// 2//// 308// 40504 5//// 6//// 80245 ICE /////=
J8NX 11033 99265 70792 41198 81124 10250 20236 40190 54000 70222
 88636 22222 0//// 20806 31111 40806 50806 6//// 80240 ICE /////=
46036 11031 99484 71339 46/// /2412 10088 49873 57005 22200 00094
 10908 70041 333 91214=
44258 11031 99445 70634 46/// /2309 10016 40276 57013 22200 00017
 10603 70016 333 91211=
46224 11031 99332 71175 46/// ///// 1//// 90312 22200 00157 11401
 21001 325// 41401 70006=
46218 11031 99345 71208 46/// ///// 1//// 90329 22200 00136 11506
 21004 330// 41504 70029=
46231 11031 99327 71174 46/// ///// 1//// 90314 22200 00156 11402
 21002 328// 41402 70012=
46242 11031 99332 71174 46/// ///// 1//// 90257 22200 00153 11201
 20901 325// 41201 70006=
46229 11031 99438 71246 46/// ///// 1//// 90319 22200 00093 11409
 20706 330// 41407 70047=
46213 11031 99403 71247 46/// ///// 1//// 90324 22200 00119 11509
 21004 330// 41508 70044=
46244 11031 99409 71244 46/// ///// 1//// 90321 22200 00108 11508
 21004 331// 41507 70039=
46236 11031 99368 71219 46/// ///// 1//// 90322 22200 00124 11304
 21002 328// 41303 70019=
46240 11031 99366 71219 46/// ///// 1//// 90321 22200 00128 11203
 21001 335// 41202 70013=
42085 11031 99179 70665 46/// /0607 10257 40180 90240 333 91209
 555 11079 22086=
42085 11031 99179 70665 46/// /0507 10257 40180 90250 333 91208
 555 11078 22085=
46146 11031 99493 71237 46/// /0911 10067 40052 57058 22200 00070
 10401 70007 333 91215=
42085 11031 99179 70665 46/// /0607 10257 40181 51011 90300 22200
 00267 10703 70015 333 91208 555 11074 22080=
46004 11031 99509 71361 46/// /2511 10089 49791 57006 22200 00080
 11007 70037 333 91214=
46184 11031 99539 71389 46/// /0514 10042 4//// 5//// 22200 0////
 1//// 70/// 333 912//=
46183 11031 99536 71311 46/// /1012 10042 49889 57087 22200 00074
 10604 70018 333 91214=
46088 11031 99483 71232 46/// /1311 10083 20057 40044 90320 22200
 00074 10402 20402 311// 41401 70011 333 91213 555 11117 22127
 30318 41413 60319 133107 132099 131103 135098 135099 130107=
44040 11031 99410 70736 46/// /0502 10014 20014 90315 22200 1//00
 70001 333 91203 555 11026 22031=
46087 11031 99485 71247 46/// /1013 10062 20056 40019 90320 22200
 00076 333 91217 555 11138 22147 30304 41017 60319 104129 099127
 098119 098128 093130 088113=
46092 11031 99368 71220 46/// /2906 10116 90311 22200 00124 555
 11057 22062=
44022 11031 99409 70737 46/// /0602 10013 20008 90315 333 91203
 555 11021 22021=
44060 11031 99413 70721 46/// /0602 10036 20033 40271 57017 90300
 22200 00040 333 91203 555 11026 22026=
42365 11031 99282 70891 46/// /2005 10219 20206 90330 555 11045
 22048=
41009 11031 99285 70802 46/// /1704 10242 20215 40208 90320 22200
 00242 333 91204 555 11040 22043 30307 41705 60319 169038 166037
 172036 177039 173039 174039=
46126 11031 99540 71666 46/// /2304 10044 49837 90310 22200 00046
 1//00 70001 333 91206 555 11048 22052=
46126 11031 99540 71666 46/// /2404 10046 49837 90315 22200 00045
 1//00 70001 333 91207 555 11048 22052=
46126 11031 99540 71666 46/// /2404 10044 49837 90312 22200 00046
 1//00 70001 333 91207 555 11048 22052=
46126 11031 99540 71666 46/// /2304 10044 49837 90306 22200 00046
 1//00 70001 333 91206 555 11048 22052=
0000170300
049
SIVD30 KWBC 110300 RRK
BBXX
ZCDT2 11033 99180 70630 41698 20918 10261 20221 40193 50030 702//
 8/200 22264 04262 20801 30000 80234=
A8QL5 11034 99369 70416 41597 63337 10110 20092 40220 54000 70322
 85446 22223 04180 20908 328// 41208 80100=
46205 11031 99542 71343 46/// /0812 10054 49861 57079 22200 00075
 11306 70029 333 91215=
46132 11031 99497 71279 46/// /1515 10080 49909 57078 22200 00075
 10810 70049 333 91220=
46206 11031 99488 71260 46/// /1214 10072 49979 57075 22200 00074
 11507 70035 333 91218=
46185 11031 99524 71298 46/// /1014 10039 49859 57116 22200 00073
 1//// 70/// 333 91218=
C6FR5 11033 99160 70618 41597 6//// 10210 2//// 40160 54010 7//22
 864// 22282 0//// 20303 311// 4//// 5//// 6//// 8//// ICE /////=
44058 11031 99376 70763 46/// /1903 10065 40222 90320 333 91206
 555 11037 22040=
41033 11031 99323 70804 46/// /1002 10128 40196 90300 333 91203
 555 11026 22030=
44059 11031 99368 70763 46/// /1704 10123 40215 90320 333 91205
 555 11043 22046=
44064 11031 99370 70760 46/// /1505 10097 40222 90320 333 91206
 555 11055 22060=
44062 11031 99386 70764 46/// /0502 10025 40225 90320 333 91202
 555 11017 22019=
44041 11031 99372 70768 46/// /1203 10071 90320 333 91203 555
 11032 22035=
44063 11031 99390 70764 46/// /0102 10018 40215 90320 333 91203
 555 11025 22028=
44042 11031 99380 70763 46/// /1101 10048 40215 90320 333 91202
 555 11015 22016=
9HXD9 11034 99261 70785 41597 51521 10260 2//// 40170 54000 70300
 83195 22234 00271 2//// 3//// 4//// 5//// 6//// 8//// ICE /////=
C6FM5 11034 99335 71182 41498 12008 10160 20124 40180 5/000 70000
 81145 22243 04160 20001 30000 80140=
0000010200
050
SIVD31 KWBC 110300 RRB
BBXX
AMOUK17 1103/ 99134 70914 46/// ///// 10268 20223 40120=
0000022000
051
SIVE30 KWBC 110300 RRC
BBXX
SHIP 11033 99049 11429 41597 70926 10280 20253 22 40131 51022 703
 86864 22233 00310 20304 326// 40403 80260=
ZMENA 11034 99425 31741 46/// /0714 10176 20110 40155 222//=
0000016100
052
SIVJ30 KWBC 110300 RRB
BBXX
AMOUK40 1103/ 99648 50651 46/// ///// 11006 21014 40019=
AMOUK01 1103/ 99602 50235 46/// ///// 11028 21034 40076=
0000029700
053
SIVF30 KWBC 110300 RRF
BBXX
MINUK05 1103/ 99603 70007 46/// ///// 10070 49979 52009=
MINUK01 1103/ 99581 70020 46/// ///// 10058 40026 52004=
SDIA 11031 99656 10222 46/// /0108 11144 40107 5//// 222// 00011=
SBPQ 11031 99656 10222 46/// /0206 11144 40104 52012 22201 00007=
0000043300
054
SAIN34 VOMM 110330
METAR VOBL 110330Z VRB05KT 5000 HZ SCT008 23/19 Q1020 BECMG 6000=
METAR VOCB 110330Z 10008KT 3000 HZ FEW015 BKN080 22/18 Q1018 NOSIG=
METAR VOCI 110330Z 00000KT 4000 HZ NSC 25/20 Q1015 NOSIG=
METAR VOCL 110330Z 10004KT 5000 HZ NSC 25/20 Q1015 BECMG 6000=
METAR VOMD 110330Z 04004KT 4000 HZ FEW020 25/20 Q1017=
METAR VOML 110330Z 00000KT 4000 BR FEW020 SCT090 25/22 Q1015 BECMG
    5000=
0000013900
055
USIN02 DEMS 110000 RRK
TTAA 6100/ 42724
NO TEMP MESSAGE RECEIVED DUE TO COMMUNICATION FAILURE WITH
KUMBHIGRAM(VEKU)=

00000000