0000015700
983
SSVX13 LFPW 110300
ZZYY 25652 11014 0300/ 181900 102954 6113/ 11119 40163 57004 22219
 01096 444 20130 11014 0300/ 50101 80138 8//// 9/015=
0000041400
984
SAME31 OLBA 110300
METAR OLBA 110300Z 12004KT 8000 BKN023 12/08 Q1022=
METAR OSDI 110300Z 00000KT 0100 FG FEW030 M01/M02 Q1021=
METAR OSAP NIL=
METAR OSLK 110300Z 06004KT CAVOK 03/M01 Q1021=
METAR OJAI 110300Z 28006KT 3000 BR SCT200 07/06 Q1021 TEMPO 2000 FG=
METAR OJAM 110300Z 31007KT 5000 HZ BKN040 08/06 Q1020 TEMPO 3000 BR=
METAR OJAQ 110300Z 00000KT 9999 FEW030 11/09 Q1022 NOSIG=
0000112800
985
SIMS20 WMKK 110300
AAXX 11034
48601 41559 70209 10270 20231 30127 40131 70522 82232 333 82820 85364 87077=
48615 41340 80511 10251 20235 30139 40145 76166 85547 333 82708 84620 88270=
48620 41465 73602 10263 20237 30120 40129 70522 82946 333 81917 83364 86276=
48647 41565 73001 10295 20233 30103 40128 70522 82142 333 82820 83364 87078=
48650 41460 70501 10276 20235 30111 40130 70522 81142 333 81818 84364 86078=
48657 41470 70105 10260 20229 30121 40139 70522 82538 333 81818 83366 86277=
48665 41568 70308 10283 20243 30125 40135 70522 82142 333 82820 83364 86077=
96413 42575 70405 10276 20242 30101 40127 85231 333 85820 86365=
96421 42480 70305 10283 20228 30091 40126 85131 333 85816 87365=
96441 41375 73003 10267 20250 30105 40132 72162 83531 333 82708 83614 87365=
96449 41462 73504 10242 20229 30116 40136 76222 83561 333 83614 86365=
96465 42478 70403 10289 20248 30096 40129 82838 333 82813 83364 87279=
96471 41465 72702 10302 20249 30123 40126 70522 81848 333 81815 83364 87277=
96481 NIL=
96491 41462 80712 10289 20256 30109 40121 70562 83847 333 83815 83364 88276=
0000013800
986
SNVD22 KWNB 110200 RRV
BBXX
46242 11021 99332 71174 46/// ///// 1//// 90227 22200 00154 11301
20601 324// 41301 70006=
0000013000
987
SMRA13 RUHB 110000 RRA
AAXX 11001
24725 12999 20000 11429 21468 30041 40435 54000 60002 80001 333 21430
47052=
0000091500
988
SIIE21 EIDB 110300
AAXX 11031
03951 46/// /3103 10060 20042 30134 40161 53019=
03953 45682 /2904 10061 20003 30129 40160 52020 81///
333 81/40 83/67=
03955 41482 22904 10026 20012 39957 40159 52014 70281 81830
333 81816 92600=
03956 45981 /2604 10036 20014 30068 40147 53015 81///
333 81/59=
03962 41470 12304 10031 20022 30128 40152 53021 70281 81300
333 81918=
03963 47674 /2710 10060 20017 30113 40142 53024 7018/ 81///
333 81/30=
03966 47962 /2303 10015 20005 30050 40145 53019 7238/=
03967 41470 62105 10031 20021 30018 40134 52014 72581 868//
333 81718 83825 85645=
03969 41570 82506 10032 20019 30026 40132 53014 76061 885//
333 83625 85640 87656=
03973 46/// /2302 11003 2//// 39872 40134 52014=
03976 47578 /2706 10056 20007 30115 40128 53020 72141 81///
333 81/29=
03980 47680 /2309 10042 20013 30079 40104 52016 7038/ 85///
333 82/44 85/56 87/61=
0000011000
989
UANT99 KDDL 110305
ARP UAL74 5232N03242W 0305 F370 MS57 218/53 KT
N17133 DDL IG1 110305 F54A
0000011300
990
SATR31 UTAA 110300
METAR UTAA 110300Z VRB01MPS 9999 FEW100 SCT230 M00/M06 Q1021
12CLRD70 NOSIG=
0000011700
991
SAAJ31 UBBB 110300
METAR UBBQ 110300Z 06005KT 4000 BR NSC M06/M07 Q1017
R16/CLRD70 NOSIG RMK MT OP=
0000013400
992
SAAJ31 UBBB 110300
METAR UBBN 110300Z 00000KT 2300 -SN BR OVC004 M09/M11 Q1025
R14R/CLRD60 NOSIG RMK MT OBSC QFE693=
0000023500
993
SAGG31 UGTB 110300
METAR UGTB 110300Z 33004KT 9000 NSC M03/M05 Q1020 R31L/CLRD80 NOSIG=
METAR UGSB 110300Z 14015KT CAVOK 08/M04 Q1018 R13/CLRD70 NOSIG=
METAR UGKO 110300Z 10004KT CAVOK 03/M05 Q1016 R07/09//70 NOSIG=
0000010800
994
SAAJ31 UBBB 110300
METAR UBBG 110300Z 24005KT 9999 FEW100 M03/M05 Q1018
R30/CLRD70 NOSIG =
0000016000
995
SPUR31 UKMS 110257
SPECI UKCW 110257Z 27009G14MPS 9999 -SHRA BKN010
BKN020CB 04/03 Q1002 2729//60 TEMPO 25012G20MPS 1000 BR
BKN003 BKN015CB=
0000015500
996
SPUR31 UKMS 110258
SPECI UKCW 110258Z 27010MPS 9999 -SHRA BKN009 BKN020CB
04/03 Q1002 2729//60 TEMPO 25012G20MPS 1000 BR BKN003 BKN015CB=
0000012000
997
SAAJ31 UBBB 110300
METAR UBBL 110300Z 00000KT 7000 SCT200 M01/M02 Q1019
R33/CLRD70 NOSIG RMK MT OBSC =
0000010300
998
SAAJ31 UBBB 110300
METAR UBBB 110300Z 18012KT 9999 BKN007 04/03 Q1016 88CLRD70
NOSIG=
0000012200
999
SMIN90 VEMN 111200
AAXX 11124
42314 31595 70000 10194 20135 40153 70522 83530
  333 10248 58003 83620=
0000082800
000
SAUR30 UKMS 110300
METAR UKBB 110300Z 28008MPS 250V310 9999 BKN024 05/01
         Q1004 88290060    TEMPO 27011G16MPS=
METAR UKHH 110300Z 28008MPS 9999 OVC013 04/01 Q1000
         25290050  TEMPO 28008G14MPS=
METAR UKOO 110300Z 25004MPS CAVOK 02/M02 Q1016
         34290054 NOSIG=
METAR UKDE 110300Z 28007MPS CAVOK 03/01 Q1008
         20290356 NOSIG=
METAR UKDD 110300Z 26005MPS CAVOK 01/00 Q1006
         26220356 NOSIG=
METAR UKFF 110300Z 24004MPS 4300 BR SKC 02/01 Q1015
         19010070 NOSIG=
METAR UKLL 110300Z 27006MPS 9999 BKN043 04/M03 Q1014
         31220365 NOSIG=
METAR UKCC 110300Z 29008MPS 9999 OVC010 03/03 Q1004
         26290055 TEMPO 30010G15MPS 1000 -SHRA BR
         BKN003 BKN010CB=
METAR UKDR 110300Z 27008MPS CAVOK 02/00 Q1009
         3619//60 NOSIG=
0000011400
001
SAAJ31 UBBB 110300
METAR UBBY 110300Z 00000KT 9999 NSC M02/M05 Q1021
R33/////// NOSIG RMK MT OP=
0000011000
002
UANT99 KDDL 110306
ARP AFR351 4820N04349W 0306 F370 MS56 313/50 KT
FGSPL QXT AOW 110306 F12A
00000000