0000013800
076
SIKZ31 UAAA 110300 RRF
AAXX 11031
35701 36666 /1904 10010 20010 30175 40141 57014 333   3/001 55000
555   20008 7992/=
0000019600
077
AAIN23 VABP 110300
MET DATA JABALPUR
MAX 25.1(0) DEG CEL
MIN 15.9(+5) DEG CEL
RH  96%
RF 021.1
SEASONAL 021.1 MM
SR/SS 0655 / 1745 IST
MOON R/S 1448 / 0332 IST
 

0000028600
078
USIN90 VABB 110000
 TTAA 61002 43003
 99011 17259 36003 00105 14074 00505 92759 13075 36010 85467
 12885 27506 70077 05281 27518 50576 07178 31541 40746 19174
 30038 30956 32771 27046 25081 45168 29025 20226 561// /////
 88999 77378 30572 41631 31313 59002 80055=




 

0000053800
079
UKIN90 VABB 110000
 TTBB 6100/ 43003
 00011 17259 11616 00881 22600 00382 33603 00081 44466 10776
 55412 17175 66363 20774 77358 22173 88334 25973 99315 29372
 11309 30571 22279 36970 33262 40569 44239 46968 55200 55966
 66181 585// 21212 00011 36003 11969 01009 22906 32006 33886
 28506 44872 25506 55856 28005 66821 26508 77786 27512 88600
 30523 99408 30031 11378 30572 22369 30036 33295 26540 44288
 27042 55257 27523 66246 29060 31313 59002 80055 41414 00900
         51515 11900 30505 22800 26509 33600 30523=




 

0000012500
080
UGIN90 VABB 110000
PPBB 61023 43003
90012 36003 01009 00510 9037/ 33506 27511 9125/ 30020
30528 920// 31043=

0000025800
081
SAIN32 VIDP 110330
METAR VIDP 110330Z 27006KT 0150 R28/0650 R29/0550 FG NSC 07/06
      Q1019 BECMG 0350=
METAR VILK 110330Z 00000KT 0500 R27/0800 FG VV/// 14/13 Q1017 NOSIG=
METAR VIAR 110330Z 00000KT 1000 R34/1700N BR NSC 03/03 Q1019=
0000009500
082
SAIN32 VECC 110330
METAR VEGT 110330Z 00000KT 1800 BR SCT100 16/13 Q1019 NOSIG=
0000184300
083
SIIN90 VAAH 110300
AAXX 11034
42647 31995 22902 10116 20061 40180 70500
  333 20104 58024 82070
  555 10000=
42539 32996 20503 10114 20038 40192 80001
  333 20098 58035 82075
  555 10000=
42748 31995 20202 10128 20040 40171 70410 80001
  333 20108 58023 82070
  555 10000=
42840 31995 30202 10138 20099 40180 70500 80001
  333 20125 58021 83070
  555 10000=
42737 32996 00504 10100 20042 40186
  333 20076 58015
  555 10000=
42838 31996 13406 10120 20040 40181 70400 80001
  333 20112 58019 81070
  555 10000=
42830 32996 00510 10154 20037 40186
  333 20110 58018
  555 10000=
42909 32996 40202 10118 20048 40184 80001
222// 20000
  333 20101 58021 84070
  555 10000=
42731 32996 33604 10156 20061 40190 80001
222// 20000
  333 20130 58021
  555 10000=
42730 32996 40205 10176 20063 40198 80001
222// 20000
  333 20164 58020
  555 10000=
42634 32596 00000 10104 20036 40192
  333 20090 58029
  555 10000=
42631 32997 10000 10072 20034 40206 80001
  333 20054 58024
  555 10000=
42914 32997 50000 10130 20020 40179 80001
  333 20102 58021 85070
  555 10000=
42651 31996 0//// 10130 20058 40181
  333 20121 58027
  555 10000=
42834 32996 03204 10104 20036 40176
  333 20084 58014
  555 10000=
42837 31995 40000 10120 20046 40161
  333 20105 58018
  555 10000=
42740 32996 63203 10116 20041 40192 80001
  333 20109 58015
  555 10000=
42729 32996 03604 10150 20064 4////
  333 20105 5////
  555 10000=
42915 32996 03602 10146 20063 40173
  333 20078 58007
  555 10000=
42639 32996 20206 10134 20077 40205 82030
  333 20117 58028 82360
  555 10000=
42654 32996 00501 10116 20061 40193
  333 20097 58022
  555 10000=
42638 32996 53403 10124 20066 40189 80001
  333 20103 58030 85085
  555 10000=
0000008800
084
SPIN90 VAID 110330
SPECI VAID 110330Z 07006KT 0400 FG VV/// 12/11 Q1018=
0000013800
085
SIKZ31 UAAA 110300 RRG
AAXX 11031
35662 36950 01406 11074 21081 39615 40233 57017 333   3/105 55000
555   21109 7998/=
0000014400
086
SIKZ31 UAAA 110300 RRH
AAXX 11031
35334 /6003 92403 11015 21015 39680 40135 52010 333   3/101 55000
555   21021 69962 7003/=
0000013800
087
SIKZ31 UAAA 110300 RRI
AAXX 11031
35793 36957 03601 11203 21236 39603 40382 57009 333   3/112 55061
555   21218 7003/=
0000014400
088
SIKZ31 UAAA 110300 RRJ
AAXX 11031
35235 /6270 92501 11014 21022 39770 40106 52008 333   3/103 55000
555   21028 69992 7004/=
0000013800
089
SIKZ31 UAAA 110300 RRK
AAXX 11031
35475 36431 91507 11094 21113 39637 40264 57007 333   3/109 55000
555   21140 7000/=
0000014400
090
SIKZ31 UAAA 110300 RRL
AAXX 11031
35615 /6459 /2002 10001 21007 30186 40158 54000 333   3/000 55000
555   20001 69912 7001/=
0000427100
091
SIPH20 RPMM 110300
AAXX 11031
98132 NIL=
98133 NIL=
98134 32465 40704 10228 20177 30033 40225 50003 84200
333 56299 84819=
98222 NIL=
98223 31462 10905 10284 20148 40174 58002 70544 81105
333 56999 81819=
98232 31570 80902 10250 20222 40203 50002 71542 8357/
222// 20100 333 56299 83620 88358=
98233 31570 60000 10248 20219 40200 58002 70544 83570
333 56999 83620 86358=
98324 31462 70904 10300 20264 40152 58010 70544 81101
333 56999 81816 87080=
98325 31462 51803 10282 20193 40167 54000 70544 83208
333 56999 83817 84079=
98327 31668 60405 10260 20194 30006 40186 58004 70544
84208 333 56/// 84248 86080=
98328 31462 71102 10176 20119 38553 40158 50002 70544
81208 333 56999 81814 87279=
98330 31475 70404 10272 20245 30148 40180 50001 70544
82208 333 56/// 82818 87285=
98334 21475 81801 10215 20201 39996 40205 50000 78082
8382/ 333 56999 69927 83817 88357=
98336 21465 83605 10220 20203 30198 40103 50002 78082
8352/ 333 56199 60020 83610 88456=
98425 31562 72502 10274 20179 40168 50003 70544 83850
333 56999 83620 87358=
98426 31570 70809 10279 20181 40157 58005 70544 81108
333 56999 81830 87280=
98427 32472 60205 10260 20204 39980 40160 58006 83270
333 56999 83818 86357=
98428 31460 63602 10281 20213 40153 58004 70544 82471
333 561// 82618 84359=
98429 31559 70506 10282 20167 40168 58005 70544 83831
333 56999 83823 84360=
98430 31558 73604 10280 20181 40166 58003 70544 82801
333 56999 82620 85080=
98431 NIL=
98432 31568 60803 10276 20217 40171 50000 70544 83272
333 56199 83820=
98433 31465 50409 10210 20171 39445 40177 51005 70544
83230 333 56999 83812=
98434 31468 70403 10265 20217 30178 40186 58003 70544
82238 333 56199 82818 84359 86275=
98435 32475 70607 10265 20228 40180 51006 84281 333
561// 84818 83358=
98440 31465 80706 10259 20216 30178 40183 51005 71544
83237 333 56199 83815 85358 88277=
98442 NIL=
98444 21465 80403 10258 20224 30143 40162 50000 78082
84377 333 56899 69907 81918 83820 87459 88270=
98446 32470 80402 10248 20206 30124 40170 58002 84207
333 56199 84818 88270=
98447 NIL=
98526 32575 82101 10/// 20/// 40136 50002 82277 333
56999 82820 85358 88274=
98531 31570 70404 10320 20259 30127 40131 54000 70544
81208 333 56199 81820 87275=
98536 21470 70406 10246 20216 39948 40149 50000 70584
83268 333 56199 69907 83818 84357 85270=
98538 31464 83607 10265 20226 30155 40160 50000 71544
83267 333 56119 83811 84357 88272=
98543 21475 83604 10258 20235 30125 40136 51004 71682
84207 333 56999 69967 84818 88272=
98546 21460 80407 10240 20235 30138 40146 58003 72582
84907 333 56199 60037 84915 88275=
98548 21478 82403 10261 20235 30137 40143 51002 72582
85807 333 56299 69957 85816 88272 98642 21458 83203
10252 20243 30113 40122 58002 76366 8552/ 333 56199
60057 85615 88457=
98550 21457 80404 10243 20236 40148 58004 76366 8422/
333 56999 60117 84818 88457=
98553 21460 80404 10250 20238 30130 40134 55002 78284
8698/ 333 56199 60067 85915 88358=
98558 21460 80616 10258 20253 40137 50001 78084 8452/
222// 20608 333 56199 60017 84615 88457=
98618 32480 40203 10295 20218 40138 51002 82261 333
56999 82819 84075=
98630 NIL=
98637 NIL=
98642 NIL=
98644 31560 80245 30096 40125 58003 76162 8552/ 333
56199 60087 85616 88457=
98646 11557 83608 10250 20236 30097 40125 58007 76166
8382/ 333 56899 60037 83820 88458=
98648 21460 80000 10240 20238 30050 40132 50000 78084
8492/ 333 56199 60097 84912 88457=
98653 21440 80407 10240 20240 30065 40110 50000 76566
8322/ 333 56199 60427 83816 88456=
98741 21462 80402 10256 20240 40117 58001 76086 8392/
333 56199 60187 83917 88457=
98746 NIL=
98747 NIL=
98751 21470 80000 10210 20207 39428 40108 58010 76066
8491/ 333 56999 60017 84915 88456=
98752 21440 82701 10230 20230 40132 50000 76166 8462/
333 56999 60137 84715 88457=
98753 21450 83604 10237 20228 40109 58009 76166 8222/
333 56899 60047 83816 88459=
98755 21458 83602 10242 20232 40114 58008 76166 8452/
333 56199 60187 84616 88458=
98836 21458 80000 10281 20245 40111 57009 70584 8387/
333 56999 69947 83818 88362=
98851 31468 83603 10260 20240 39948 40098 58002 71522
8327/ 333 56999 83818 88358 =
0000014100
092
SIVD02 CWAO 110300
BBXX
SHIP 11034 99623 70748 41696 42004 11183 21235 40028 54029 70100 85//1 22280 0//// 2//// ICE55095 =
0000024700
093
SNAA01 KARS 110200 RRF
AAXX 1102/
89866 46/// ///// 11008 39887 4//// 5//// 90240=
89828 46/// ///// 11255 36556 4//// 5//// 90230=
89799 46/// ///// 11241 4//// 5//// 90230=
89314 46/// ///// 11073 38309 4//// 5//// 90230=
0000011100
094
UANT99 KDDL 110338
ARP DAL230 5630N03300W 0338 F370 MS56 221/37 KT
N819NW DDL XXN 110338 J67A
0000011000
095
UANT99 KDDL 110338
ARP DAL98 5503N04112W 0338 F360 MS59 285/20 KT
N833MH QXT AOW 110338 F54A
00000000