0000014900
996
SPUR31 UKMS 110316
SPECI UKCW 110316Z 27009MPS 9999 BKN009 BKN020CB 04/03
Q1002 2729//60 TEMPO 25012G20MPS 1000 BR BKN003 BKN015CB=
0000017400
997
FCUR31 UKMS 110100 RRA
TAF UKLU 110315Z 1104/1112 VRB02MPS 0500 FG VV002
         TEMPO 1104/1110  11003MPS 1400 BR OVC004
         TX03/1112Z TN00/1106Z=
0000170600
998
SIRA20 RUHB 110300
AAXX 11031
30372 41908 20000 11421 21444 39472 40511 52008 74440 80001 333
21463=
30433 42999 00403 11248 21304 39761 40423 52014=
30554 41/01 90000 11407 21427 39220 40513 52018 74540 333 21442=
30635 42999 01202 11230 21263 39778 40410 52023 333 21258=
30673 42999 80205 11277 21323 39505 40363 52012 82046=
30692 41999 72904 11261 21308 39757 40305 52011 70272 87020=
30758 42999 00402 11261 21300 39507 40424 52028 333 21299=
30823 41999 82901 11153 21166 39704 40384 52018 72272 84015=
30879 42999 02903 11271 21302 39496 40341 52014=
30935 41697 82302 11161 21188 39383 40385 52017 71572 83941=
30949 42699 63101 11147 21190 39184 40341 52025 82230=
30965 41999 00206 11269 21293 39458 40379 52028 73630=
31168 41997 82204 11259 21315 30112 40120 58006 77173 8801/ 333 91011
91113=
31285 42999 72002 11282 21328 30136 40224 58001 80009=
31300 41999 80000 11266 21284 39930 40251 51005 74011 82031=
31329 41998 80000 11353 21383 39498 40260 58005 77071 82037=
31369 41596 82906 11229 21261 30009 40101 58011 78583 8392/ 333 91011
91111=
31416 42/// /0701 11328 21367 30069 40174 57006=
31484 42999 52504 11252 21343 39807 40175 58008 82021=
31512 429// 22704 11246 21303 30083 40266 58002 80001=
31538 42999 00000 11293 21331 39753 40242 58003=
31561 42998 62101 11313 21365 30161 40190 58002 80004=
31683 42999 02101 11230 21287 30068 40149 57017=
31707 42999 22902 11248 21273 30143 40244 58004 80001=
31733 41999 02506 11224 21300 30117 40197 58002 73630 333 91112=
31735 41997 02608 11237 21305 30110 40207 50000 73630 333 91012
91112=
31770 42999 32904 11176 21267 30105 40137 58017 80001 333 91010=
0000011300
999
SIOM20 OOMS 110300 RRF
AAXX 11034
41287 36/// /0407 10140 20058 30167 40208
333 0E015 58007 =
0000325600
000
SIRS26 RUMS 110300
AAXX 11031
34240 11397 82106 10038 20023 39838 49972 56034 60052 78082 889// 333
20016 55019 91110=
34253 11496 81806 10023 20019 39822 49985 56041 60042 76166 8872/ 333
20008 41004 91111=
34254 11596 82005 10041 20037 39858 49977 56040 60052 78088 889// 333
20014 91110=
34262 11596 81904 10029 20024 39859 40002 57038 60022 76162 886// 333
21005 42001=
34267 11495 81906 10029 20024 39877 40003 57039 60012 76162 8872/ 333
20001 42001 91011 91111=
34321 21497 83004 10038 20026 39863 40000 54000 70262 886// 333 20032
55019 60072 88716=
34344 11496 82205 10052 20038 39895 49981 56032 60042 76362 8872/ 333
20026 91010 91112=
34356 11598 71906 10035 20030 39865 40011 56038 60012 70265 87500 333
20008 42002 55003 91010 91111=
34373 12597 81604 10017 20012 30011 40055 56030 60002 885// 333 20002
43005 91110=
34438 11297 82407 10050 20042 39815 40003 56021 60032 78082 883// 333
20030 91011 91112=
34445 11496 82006 10055 20040 39887 49999 57039 60022 71065 8572/ 333
20014 91010 91112=
34476 12598 81707 10027 20008 30069 40077 56023 60002 885// 333 20001
55000 91111=
34535 11497 82407 10058 20038 39948 40019 56026 69992 78182 889// 333
20038 91011 91113=
34555 12498 81909 10036 20014 39959 40049 57031 60002 886// 333 20024
91013 91114=
34560 11597 82008 10031 20022 39883 40048 57031 69952 76186 8652/ 333
21003 42007 86623 91010 91110=
34578 12997 81704 10036 20017 30083 40089 56024 60002 8805/ 333
20006=
34644 11496 82306 10051 20031 39973 40049 57032 60002 71022 885// 333
20024 30204 91013 21113=
34646 11598 82105 10053 20010 39967 40048 57032 69902 78082 889// 333
20047 55005 91111=
34655 12/// /1806 10032 20009 30006 40066 56028 60002 333 20032
91111=
34662 12498 72004 10054 20014 30064 40076 57029 60002 87500 333 20034
32002 87619=
34720 11496 82602 10028 20023 30025 40065 55002 60012 72162 886// 333
20028 55000 91111=
34727 12497 82305 10039 20028 30080 40084 53009 60002 885// 333 20039
91115=
34730 11240 82610 10052 20047 39965 40056 57014 60032 78082 8635/ 333
20052 85706 91015 91117=
34740 12598 82204 10041 20008 39979 40075 56018 60002 885// 333 20020
55015=
34743 12497 81703 10034 20008 3//// 4//// 5//// 60002 885// 333
20030=
34759 11996 81704 10019 20002 39959 40091 56028 60002 71022 86044 333
20019=
34785 12597 81803 10022 21004 30148 40126 56019 60002 885// 333
21006=
34824 11596 82603 10053 20043 30095 40100 53010 60002 78082 883// 333
20053 91110=
34845 12998 80000 10024 20003 39981 40088 57017 60002 8807/ 333 20024
31101=
34858 11996 01804 10034 20000 39985 40093 56024 60002 71000 333
20029=
34861 12997 61807 10013 21010 39858 40100 56022 60002 86030 333 20012
55006 91110=
34866 62998 81705 10020 21001 30118 40109 56024 60002 8007/ 333 20020
91111=
34880 12697 61502 10023 21000 30158 40132 57019 60002 82530 333
20013=
34887 12998 01502 11002 21010 30153 40133 57022 60002 333 21004=
37018 12598 81407 10102 20038 30067 40141 58006 60002 8687/ 333 20083
55082 91014 91115=
37054 12697 32201 11059 21066 39728 40127 56020 60002 83500 333
21060=
37472 12597 81302 10009 21014 30154 40131 55005 60002 8357/ 333 21003
55083=
0000012400
001
SIRS26 RUMS 110300 CCA
AAXX 11031
34655 12597 81806 10032 20009 30006 40066 56028 60002 333 20032
91111=
0000016000
002
USIN90 VILK 110000
TTAA 6102/ 42369
     99000 13006 00000 00120  ///// 92761 030// 85445 00056 70999
     00050 50569 00049 88999 77999=

0000113300
003
SIAL20 DAMM 110300
AAXX 11034
60360 42960 52003 10072 20064 40166 58004 80002 333 85073 95990=
60390 42580 40000 10095 20068 40171 55000 81232 333 81830 83359 95990
=
60402 42960 32612 10150 20068 40180 58005 80002 333 83073 95990=
60419 42960 42408 10049 20010 40201 54000 80001 333 84073 95990=
60475 42960 50000 10048 20020 39270 48515 54000 80002 333 85073 95990
=
60490 41562 71402 10117 20083 40157 53011 76061 8257/ 333 82626 87460
95990=
60525 42960 5//// 10075 20048 40201 57005 83032 333 83360 85073 95900
=
60531 42565 82410 10158 20037 40151 53005 8257/ 333 82630 87460 95990
=
60566 42960 40104 10080 20048 40220 56009 82032 333 82360 83073=
60571 42558 51012 10124 20066 39240 48503 57013 82280 333 82833 83360
95990=
60580 42960 00000 10079 20066 40209 58004=
60590 NIL=
60611 42960 30908 10103 20022 40211 56006 80001 333 83070=
60620 42758 51212 10148 21036 40152 55009 82232 333 82850=
60630 42970 40708 10124 20006 40183 56005 82032 333 82362 83075=
60656 NIL=
60670 42965 33306 10067 21016 39112 48550 56007 81032 333 81360 83073
95990=
60680 NIL=
0000033000
004
SIAL22 DAMM 110300
AAXX 11034
60395 42965 7//// 10120 20084 40162 56004 84072 333 84360 84073 95990
=
60444 42960 00000 10052 20032 39108 48525 58004 333 95990=
60452 42965 52106 10164 20066 40164 53013 80002 222// 20000 333 85073
91816=
60457 42660 62001 10149 20043 40162 53012 86500 333 86626 95990=
0000062500
005
SIAL21 DAMM 110300
AAXX 11034
60351 42960 30000 10100 20064 40163 56005 80002 333 83070 95990=
60355 NIL=
60445 42965 60000 10029 21004 39042 48522 55001 82032 333 82360 85073
95990=
60468 42960 2//// 10008 21011 39260 48527 54000 80002 333 82070 95990
=
60507 42960 61706 10127 20026 40167 53003 80002 333 86073 95990=
60511 NIL=
60536 NIL=
60550 NIL=
60555 42965 00000 10069 20056 40220 56003=
60559 NIL=
60581 42960 00000 10093 20065 40206 58001=
60607 42760 41110 10125 20032 40166 58009 81132 333 81856 83362=
60640 42960 50606 10088 21005 40186 56008 82032 333 82360 83073=
0000011200
006
SITA20 UTDD 110300 RRA
AAXX 11031
38954 32999 00000 11101 21164 38039 48650 52033 333   55040=
0000114800
007
SIAG01 SABM 110300
AAXX 11034
87022 NIL=
87046 42562 82705 10262 20191 39066 48472 52024 8457/ 333
56099 84630 88360=
87047 NIL=
87097 42970 60505 10258 20232 39798 40101 50009 80006 333 56006
86270=
87121 41662 83610 10296 20215 39538 40025 50023 71392 889// 333
56899 57986 87640 82945=
87129 NIL=
87148 42970 20705 10280 20252 39950 40053 51011 81035 333 56075
81360=
87155 41958 70903 10281 20249 30005 40063 52009 70422 80006 333
56006 87270=
87162 42970 00209 10296 20223 30002 40069 51011=
87166 41760 50903 10287 20232 39998 40068 53011 71311 81906 333
56405 57946 81950 85270=
87217 NIL=
87222 41670 82303 10249 20224 39550 40050 52055 71782 889// 333
57990 85640 84950=
87257 41340 80513 10260 20215 39972 40071 52009 79799 8697/ 333
56669 57990 82707 84957 86557 90002 91023 91505 94975 94973 94971
97026=
87289 NIL=
87311 42965 61813 10296 20074 39440 40095 52031 86070 333 56000
86360=
87320 41670 70914 10296 20202 39557 40060 52029 71792 87900 333 56200 57925
86635 81940=
87328 41780 41404 10233 20142 39463 40087 52029 71300 81906 333 56005 57980 81950 95090=
0000028000
008
SIAG01 SABM 110300 RRA
AAXX 11033
87007 42970 00000 10140 21029 36738 47135 52016=
87178 41970 50904 10262 20221 39954 40095 50012 70292 80005 333
56000 85270=
87270 41560 80918 10259 20228 30013 40073 52017 71792 8397/ 333
56669 57900 82630 81950 88360=
0000011000
009
UANT01 CWAO 110320
ARP DAL14 4656N03026W 0319 F340 MS52 215/69 KT
N839MH QXT AOE 110320 F80A
0000010300
010
UACN10 CYQK 110318
WG
UA /OV CYRL /TM 0318 /FLDURD /TP SW4 /RM RWY VIS 5NM FNL RWY 08
0000205700
011
SIXX40 ETGT 110300
AAXX 11034
40550 37/15 /1401 10093 20089 40174 53005 71011
 333 55300 00000 10100 20000 30000 41188 51290 60000 55407 40000
90069 90401 91003 91105 91201 91301=
40551 37/57 /1608 10099 20081 40178 53008 71011
 333 90069 90401 91011 91117 91215 91309=
40552 37/56 /1606 10096 20084 40174 53005 71011
 333 55300 90069 90400 91007 91109 91205 91305=
40553 37/47 /1902 10115 20100 40174 53005 71086
 333 55300 90069 90401 91005 91107 91203 91301=
40568 36/// /1307 10131 20118 40182 53006
 333 90400 91007 91107 91207 91303=
40570 37/30 /2106 10082 20077 40180 53011 71011
 333 55300 90069 90400 91009 91111 91207 91305=
40573 37/25 /2105 10073 20068 40179 53006 71011
 333 90069 90400 91007 91113 91209 91307=
40580 36/// /1605 10120 20104 40176 53003
 333 553// 00000 10167 20000 30000 41137 51303 60000 55407 40000
90400 91009 91113 91205 91303=
40581 46/// /2007 10139 20118 40182 53005
 333 90400 91015 91115 91207 91305=
40582 31940 31709 10111 20100 40174 53004 71000 83030
 333 55300 00000 10149 20000 30000 41137 51285 60000 55407 40000
83360 90401 91009 91113 91209 91307=
40585 36/// /1819 10146 20127 222// 1//// 3//// 4//// 70///
 333 90401 91023 91127 91221 91317=
40586 36/// /2002 10099 20092 40178 53006
 333 90401 91003 91107 91205 91303=
40587 36/// /1203 10106 20095 40175 53005
 333 553// 00000 10105 20000 30000 41179 51282 60000 55407 40000
90400 91005 91113 91209 91303=
40588 37/48 /1710 10139 20125 40175 53005 71011
 333 55300 90069 90400 91013 91113 91209 91305=
40590 37/24 /1711 10092 20086 40176 53004 71011
 333 90069 90400 91015 91119 91215 91311=
40592 37/17 /1808 10115 20111 40178 53005 71011
 333 55300 00000 10054 20000 30000 41253 51306 60000 55407 40000
90069 90400 91013 91113 91207 91307=
40593 36/// /2012 10136 20123
 333 90400 91015 91119 91213 91311=
40594 46/// /1909 10119 20114 40181 53003
 333 90400 91013 91113 91209 91305=
40596 46/// /1821 10169 20143
 333 90401 91027 91131 91225 91323=
0000011000
012
UANT01 CWAO 110320
ARP EJM312 5403N04110W 0320 F410 MS56 260/35 KT
N312P QXT AME 110320 A29A
0000014700
013
SIAA21 EGRR 110300
AAXX 11034
89022 46/// /0106 11040 21051 39881 49919 52004=
89062 46/// /3503 10001 21036 39962 40003 57008=
0000011100
014
UANT99 KDDL 110320
ARP DAL230 5539N03714W 0319 F370 MS55 214/32 KT
N819NW DDL XXN 110320 J64A
0000011000
015
UANT99 KDDL 110320
ARP DAL98 5506N04521W 0320 F360 MS62 306/46 KT
N833MH QXT AOW 110320 F51A
00000000