0000009200
352
SAIN90 VEAT 110200
METAR VEAT 110200Z 00000KT 0050 FG NSC 11/10 Q1016 NOSIG=
0000053500
353
UKIN01 DEMS 110000 RRD
TTBB 61008 42647 00009 12056 11002 11056 22984 15060 33944
14661 44840 05458 55825 07274 66795 05877 77763 10089 88677
08089 99600 01883 11584 00082 22525 03977 33449 13772 44374
19369 55261 40365 66182 59966 77131 75156 88125 73556 99105
76956 11100 78956 21212 00009 31504 11999 36014 22986 01021
33800 34510 44793 31510 55781 28016 66737 28527 77601 30533
88546 30055 99484 31549 11462 30547 22389 30086 33253 27572
44242 27075 55129 25583 66115 28081 77113 28078 41414 00900=

0000030100
354
USIN01 DEMS 110000 RRD
TTAA 61001 42647 99009 12056 31504 00128 10856 35511 92786
13061 01016 85488 06257 01517 70087 08690 29028 50579 06980
30045 40749 16370 30582 30959 32566 28077 25085 42965 27574
20232 54366 27577 15410 69557 26581 10646 78956 27568 88999
77389 30086=

0000190000
355
SNFR36 LFPW 110200
AAXX 11024
07554 24969 80604 10031 20022 39102 4//// 51003 700//
  333 60005 90710 91105=
07560 26/// /1819 10004 20003 38423 4//// 56004
  333 60005 90710 91126=
07563 24562 81603 10091 20069 30149 40208 53003 700//
  333 60005 90710 91104=
07579 24550 80000 10081 20069 30141 40209 53004 700//
  333 60005 90710 91103=
07586 26/// /1203 10096 20065 30078 40207 53002
  333 60005 90710 91107=
07588 24465 80904 10042 20029 39659 40218 50001 700//
  333 60005 90710 91108=
07635 24463 70910 10098 20079 30026 40180 55000 700//
  333 60005 90710 91118=
07638 24568 80407 10111 20083 30173 40192 55001 700//
  333 60005 90710 91110=
07641 26/// /0408 10110 20086 30101 40194 55000
  333 60005 90710 91113=
07646 24559 80704 10101 20061 30073 40201 56003 700//
  333 60005 90710 91105=
07647 24567 80904 10113 20082 30173 40201 55001 700//
  333 60005 90710 91107=
07648 24568 80805 10106 20073 30133 40205 55001 700//
  333 60005 90710 91107=
07666 26/// /1310 10122 20090 30132 40180 55003
  333 60005 90710 91114=
07667 24582 83601 10114 20083 30203 40208 53001 700//
  333 60005 90710 91104=
07675 24/57 /0000 10081 20069 30110 40211 57001 700//
  333 60005 90710 91102=
07684 24567 80202 10105 20079 30205 40210 50001 700//
  333 60005 90710 91106=
07749 26/// /1815 10120 20073 30074 40179 56007
  333 60005 90710 91122=
07754 26986 /1803 10059 20049 30135 40207 53002
  333 69925 90710 91107=
07765 24586 82603 10122 20075 30195 40216 56001 700//
  333 60005 90710 91106=
07770 26/// /0613 10128 20089 30067 40207 52001
  333 60005 90710 91120=
07775 26/// /2407 10124 20085 30123 40213 56003
  333 60005 90710 91109=
07780 24586 80608 10129 20082 30181 40209 56002 700//
  333 60005 90710 91116=
07785 26/// /2505 10115 20076 30070 40207 55000
  333 60005 90710 91107=
0000110000
356
SNFR37 LFPW 110200
AAXX 11024
07002 26/// /1609 10042 20030 30072 40156 56006
  333 60005 90710 91116=
07003 24433 71305 10031 20025 30136 40161 55006 710//
  333 60005 90710 91107=
07010 26/// /1908 10046 20034 30135 40155 56008
  333 60005 90710 91116=
07028 26/// /1207 10060 20053 30032 40160 56005
  333 69925 90710 91112=
07038 24109 81403 10050 20049 39998 40168 55007 744//
  333 60005 90710 91108=
07040 26/// /1711 10052 20043 30106 40156 56008
  333 60005 90710 91120=
07046 24556 81505 10059 20044 30044 40160 56006 760//
  333 69925 90710 91109=
07055 24119 81304 10046 20040 30031 40168 57010 710//
  333 60005 90710 91105=
07057 24/03 90802 10044 20040 30060 40169 56012 745//
  333 60005 90710 91104=
07061 24/08 /1606 10036 20036 30052 40174 56008 745//
  333 60005 90710 91108=
07075 24925 /1405 10044 20035 39995 40178 56009 710//
  333 60005 90710 91108=
07169 24973 80905 10036 20024 30002 40173 56014 700//
  333 60005 90710 91108=
07283 24965 /1204 10037 20031 39614 40179 56009 700//
  333 60005 90710 91108=
0000038500
357
SSVX13 LFPW 110200
ZZYY 61690 11014 0200/ 142766 029489 6113/ 11119 40208 52016 22219
 00093 33300 88870 20000 30932 20011 30938 20013 30936 20016 30932
 20021 30932 20025 30940 20030 30932 20035 30932 20039 30932 20044
 30908 20049 30856 20054 30802 20058 30792 20063 30784 20068 30788
 20073 30796 20078 30804 444 20131 11014 0157/ 50101 80102 80027
 9/015=
0000015700
358
SSVX13 LFPW 110200
ZZYY 61688 11014 0200/ 144049 029471 6113/ 11119 40201 52014 22219
 00087 444 20131 11014 0157/ 50101 80090 80011 9/015=
0000015700
359
SSVX13 LFPW 110200
ZZYY 61687 11014 0200/ 144680 029814 6113/ 11119 40194 52016 22219
 00076 444 20131 11014 0157/ 50101 80090 80011 9/015=
0000013000
360
UPVS01 VNNN 110000 RRB
PPAA 11001 48870 NIL=
PPAA 11001 48877 77999=
PPAA 11001 48887 55285 10503 15006 77999=
0000038500
361
SABN31 OBBI 110200
METAR OBBI 110200Z 19009KT 5000 RA SCT020 17/14 Q1019 TEMPO VRB30KT
TSRA SCT040CB=
METAR OEDF 110200Z 16007KT 7000 SCT040 OVC090  15/12 Q1018 NOSIG=
METAR OEDR 110200Z 00000KT 8000 SCT040 BKN080 15/12 Q1017 NOSIG=
METAR OTBD 110200Z 11008KT 9999 -RA SCT100 OVC120 18/16 Q1019 NOSIG=
METAR OKBK 110200Z 17007KT 6000 BR NSC 11/09 Q1017 NOSIG=
0000012800
362
SNRE15 FMEE 110200
AAXX 11024
61998 26/// /2419 10052 20008 30020 40057 52015
  333 58029 60005 90710 91125=
0000012200
363
SNRE15 FMEE 110200
AAXX 11024
61996 26/// /2416 10152 20087 30184 40219 53018
  333 60005 90710 91124=
0000057900
364
SAIR31 OIII 110200
METAR OIAW 110200Z 12010KT 5000 BR FEW030CB SCT035 OVC080 11/10
Q1018=
METAR OIFM 110200Z 09004KT 0200 FG FEW040 M05/M05 Q1020 A3013=
METAR OIII 110200Z 00000KT 6000 FEW040 BKN100 01/M05 Q1020 A3014
 NOSIG=
METAR OIKB 110200Z 00000KT CAVOK 12/06 Q1022 A3018=
METAR OIKK 110200Z NIL=
METAR OIMM 110200Z 00000KT CAVOK M03/M09 Q1021 A3016=
METAR OISS 110200Z 00000KT 7000 FEW035CB SCT040 OVC100 01/M02 Q1022
A3019=
METAR OITT 110200Z 06008KT 7000 NSC M10/M13 Q1021 A3015=
METAR OIZH 110200Z 17004KT CAVOK M04/M06 Q1022 A3019=
0000030100
365
UGVS01 VNNN 110000 RRB
PPBB 11001 48870 NIL=
PPBB 11001 48877 9012/ 34508 35511 801// 35011 61616 136// 30506
 34508 35511=
PPBB 11001 48887 90123 05005 05507 07008 80124 05006 07508 09002
 808// 12509 61616 13692 04005 05005 05507 07008 07508 8147/ 08503
 08502 11503 15005=
0000045900
366
SAIR32 OIII 110200
METAR OIAA 110200Z 00000KT 8000 FEW030CB SCT035 OVC090 13/11 Q1017=
METAR OIBK 110200Z 09012KT 8000 -SHRA FEW030CB SCT025 BKN100
17/04 Q1018=
METAR OICC 110200Z 13012KT 5000 BR FEW035CB SCT040 BKN080
M01/M02 Q1018 A3008=
METAR OIGG 110200Z NIL=
METAR OIIE 110200Z NIL=
METAR OITR 110200Z 24002KT 2500 BR FEW035 OVC140 M10/M12 Q1021=
METAR OIYY 110200Z NIL=
METAR OAKN 110200Z NIL=
METAR OAKB 110200Z NIL=
0000034000
367
SAIR33 OIII 110200
METAR OIBB 110200Z 09006KT 9999 FEW030CB SCT040 OVC090 14/09 Q1019
A3009=
METAR OIBP 110200Z NIL=
METAR OICK 110200Z NIL=
METAR OICS 110200Z NIL=
METAR OIHH 110200Z NIL=
METAR OINZ 110200Z 21004KT CAVOK 02/01 Q1019=
METAR OISR 110200Z NIL=
METAR OITL 110200Z NIL=
METAR OIZC 110200Z NIL=
0000033200
368
USBD01 WBSB 110000
TTAA 61001 96315
99008 24804 20003 00111 24416 20006 92796 21834 04004
85525 16818 30503 70161 08658 04010 50588 04958 05018
40759 14957 09513 30971 30758 07009 25097 41956 07511
20245 54156 11024 15422 69757 11550 10656 78760 05515
88122 79556 11567 77124 11572 42171 31313 48008 80006=
0000054500
369
SAIR34 OIII 110200
METAR OIAG 110200Z  12008KT 8000 SHRA SCT035CB BKN040 11/09 Q1020
 RESHRA=
METAR OIAM 110200Z  12012KT 2000 -RA FEW030CB SCT040 OVC070 12/11
 Q1018=
METAR OICI 110200Z  16004KT 8000 SCT025 FEW030CB OVC070 03/03 Q1017
 A3004=
METAR OIKQ 110200Z 02014KT 8000 FEW030 15/05 Q1020=
METAR OINN 110200Z VRB02KT CAVOK 05/02 Q1019=
METAR OINR 110200Z VRB02KT CAVOK 04/03 Q1018=
METAR OISL 110200Z  03008KT 9999 FEW035CB FEW040 OVC100 08/05
 Q1020=
METAR OISY 110200Z NIL=
METAR OITZ 110200Z NIL=
0000039700
370
SAIR35 OIII 110200
METAR OIAD 110200Z  00000KT 2000 RA FEW035CB SCT040 OVC080 10/09
 Q1019 A3010=
METAR OIBJ 110200Z NIL=
METAR OIBS 110200Z NIL=
METAR OIHR 110200Z NIL=
METAR OIKM 110200Z NIL=
METAR OIKR 110200Z NIL=
METAR OING 110200Z 00000KT 7000 SCT025 03/03 Q1021=
METAR OIZB 110200Z 00000KT CAVOK M03/M05 Q1025=
METAR OIZI 110200Z 03008KT CAVOK 05/00 Q1024=
0000046700
371
SNVD17 KWNB 110200 RRD
BBXX
46078 11021 99560 71526 46/// /2607 10038 20003 49973 57005 90150
22200 00045 11005 20402 322// 41004 70024 333 91208 555 11070
22074 30051 42509 60149 256065 258066 257060 261066 261064 258071
82608 90051=
46066 11021 99528 71550 46/// /2205 10044 40001 56010 90150 22200
00054 11105 20501 325// 41105 70025 333 91208 555 11057 22059
30146 42208 60149 215054 215055 220051 223053 224054 225053 82206
90146=
00000000