0000011100
483
UANT99 KDDL 110300
ARP AAL242 5311N02838W 0300 F350 MS57 226/68 KT
N347AN DDL XXW 110300 F56A
0000009600
484
SIAA19 LFVW 110300
AAXX 11034
89661 46/// /2309 11039 29090 39345 4//// 5////=
0000011000
485
UANT01 CWAO 110258
ARP UAL19 4620N04837W 0258 F340 MS64 325/67 KT
N76054 DDL YYT 110258 F56A
0000011100
486
UANT01 CWAO 110258
ARP UAL152 5027N03810W 0258 F370 MS53 243/15 KT
N17128 DDL IG1 110258 F71A
0000011000
487
UANT01 CWAO 110258
ARP VIR12E 4744N05149W 0258 F380 MS65 302/63 KT
GVLUV DDL YYT 110258 J19A
0000417800
488
SSVX11 LFVW 110259
ZZYY 52082 10014 22004 102037 156018 6112/
11119 00805 10280 29080
22219 00295
33311 88872 20000 32951 20002 32951 43424 20025 32962 43437
20050 32977 43471 20075 32978 43509 20100 32947 43527
20125 32841 43539 20150 32486 43522 20200 31391 43461
20250 31147 43480 20300 31089 43475 20500 30858
444 20120 10014 2208/ 522// 60381=
ZZYY 52082 10014 20004 102038 156019 6112/
11119 01005 10268 29084
22219 00295
33311 88872 20000 32953 20002 32953 43423 20025 32965 43441
20050 32984 43483 20075 32978 43515 20100 32947 43526
20125 32828 43533 20150 32469 43522 20200 31436 43461
20250 31148 43479 20300 31088 43475 20500 30858
444 20120 10014 1947/ 522// 60381=
ZZYY 52085 10014 16004 100009 156046 6112/
11119 02605 10268 40070
22219 00293
33311 88872 20000 32933 20002 32933 43329 20025 33026 43429
20050 33025 20075 33022 20100 33009 20125 32628 43541
20150 32287 43538 20200 31870 43536 20250 31406 43499
20300 31202 43485 20500 30805 43459 20750 30582 43452
444 20120 10014 1601/ 522// 60381=
ZZYY 52085 10014 23004 100016 156046 6113/
11119 03107 10281 40083
22219 00299
33311 88872 20000 32987 20002 32987 43382 20025 33029 43440
20050 33026 20075 33019 20100 32910 20125 32585 43545
20150 32258 43539 20200 31720 43516 20250 31405 43497
20300 31204 43484 20500 30804 43460 20750 30581 43452
444 20130 10014 2243/ 522// 60381=
ZZYY 52085 11014 01004 100014 156048 6111/
11119 03310 10280 40082
22219 00300
33311 88872 20000 33001 20002 33001 43396 20025 33029 43442
20050 33026 20075 33019 20100 32872 20300 31205 43484
20750 30596 43453
444 20110 11014 0024/ 522// 60381=
ZZYY 52088 11014 0100/ 302020 155958 6112/
33311 88872 20002 33015 43508 20025 33015 43518 20050 33005 43543
20075 32968 20100 32939 43562 20125 32852 43565 20150 32668 43583
20200 31754 43546 20250 31137 43484 20300 31080 43478
20500 30844 43462 20750 30556 43452
444 20120 11014 0025/ 522//=
ZZYY 52088 10014 23004 302017 155958 6113/
11119 02909 10284 29079 40087
22219 00302
33311 88872 20000 33015 20002 33015 43510 20025 33016 43519
20050 33006 43543 20075 32979 20100 32944 43562 20125 32867 43564
20150 32734 43575 20200 31967 43561 20250 31155 43485
20300 31088 43478 20500 30833 43462 20750 30565 43452
444 20130 10014 2244/ 522// 60381=
ZZYY 52088 10014 19004 302020 155956 6112/
11119 03111 10269 29081 40065
22219 00301
33311 88872 20000 33014 20002 33014 43510 20025 33016 43521
20050 33003 43542 20075 32975 20100 32944 43559 20125 32893 43562
20150 32810 43567 20200 31927 43557 20250 31170 43487
20300 31106 43480 20500 30849 43464 20750 30552 43452
444 20120 10014 1936/ 522// 60381=
ZZYY 52088 10014 21004 302018 155954 6111/
11119 02909 10278 29080 40076
22219 00302
33311 88872 20000 33015 20002 33015 43510 20025 33017 43519
20050 33006 43542 20075 32984 20100 32946 43561 20125 32895 43561
20150 32791 43569 20200 32119 43572 20250 31164 43488
20300 31094 43478 20500 30855 43463 20750 30556 43452
444 20110 10014 2115/ 522// 60381=
ZZYY 52086 10014 23004 305031 156019 6113/
11119 02812 10270 40079
22219 00304
33311 88872 20000 33041 20002 33041 43476 20025 33043 43479
20050 33041 20075 32971 43515 20100 32941 20125 32757 43580
20150 32590 43609 20200 32180 43591 20250 31582 43527
20300 31151 43487 20500 30754 43453 20750 30568 43450
444 20130 10014 2244/ 522// 60381=
ZZYY 52086 10014 19004 305035 156020 6113/
11119 03010 10276 40058
22219 00303
33311 88872 20000 33032 20002 33032 43439 20025 33043 43481
20050 33034 20075 32952 43512 20100 32943 20125 32814 43569
20150 32597 43607 20200 32181 43588 20250 31466 43513
20300 31049 43478 20500 30747 43453 20750 30556 43450
444 20130 10014 1934/ 522// 60381=
ZZYY 52086 10014 21004 305042 156032 6111/
11119 03010 10279 40073
22219 00304
33311 88872 20000 33040 20002 33040 43465 20025 33043 43480
20050 33041 20075 32971 43514 20100 32947 20125 32826 43567
20150 32615 43606 20200 32184 43588 20250 31505 43517
20300 31159 43486 20500 30750 43454 20750 30558 43450
444 20110 10014 2114/ 522// 60381=
0000043400
489
SSVX13 LFVW 110259
ZZYY 55585 11014 0100/ 345993 166450 6113/
11119 30154 40154 57014
22219 00139
444 20130 11014 0249/ 50101 80110 80000 9/015=
ZZYY 55585 11014 0000/ 345991 166455 6113/
11119 30163 40163 57011
22219 00137
444 20130 10014 2255/ 50101 80110 80000 9/015=
ZZYY 55585 11014 0200/ 345993 166450 6113/
11119 30141 40141 57024
22219 00138
444 20130 11014 0249/ 50101 80110 80000 9/015=
0000018300
490
SISM20 SMJP 110300
AAXX 11034
81225 42570 72501 10236 20227 40128 83831
  333 56129 59007 82825 83635 86358=
81200 NIL=
81202 NIL=
81209 NIL=
81251 NIL=

0000013400
491
SIIN90 VOMD 110300
AAXX 11034
43360 31996 00203 10246 20196 30004 40154 70500 333 10308 20216
58003 555 10010 =

0000008900
492
SPIN90 VORY 110300
SPECI VORY 110300Z 00000KT 1500 BR NSC 21/19 Q1016=

0000013600
493
SIIN90 VOHY 110300
AAXX 11033
43243 32997 20000 10224 20196 30136 40161 80001
  333 10297 20190 59001
  555 10002=
0000010200
494
SAIN90 VOCB 110300
METAR VOCB 110300Z 07006KT 3000 HZ FEW015 BKN080 21/18 Q1018 NOSIG=
0000077000
495
FCIN90 VILK 110300
TAF VILK 110300Z 1106/1115 32004KT 2000 HZ SCT020 BKN100 TEMPO
1106/1112 0800 RA/TSRA FEW030CB OVC090 BECMG 1112/1114 VRB02KT
1000 MIFG/BR SCT020 SCT100=
TAF VIBN 110300Z 1106/1115 32004KT 2000 HZ SCT020 BKN100 TEMPO
1106/1112 0800 RA/TSRA FEW030CB OVC090 BECMG 1112/1114 VRB02KT
1000 MIFG/BR SCT020 SCT100=
TAF VICX 110300Z 1106/1115 32004KT 2000 HZ SCT020 BKN100 TEMPO
1106/1112 0800 RA/TSRA FEW030CB OVC090 BECMG 1112/1114 VRB02KT
1000 MIFG/BR SCT020 SCT100=
TAF VEGK 110300Z 1106/1115 32004KT 2000 HZ SCT020 BKN100 TEMPO
1106/1112 0800 RA/TSRA FEW030CB OVC090 BECMG 1112/1114 VRB02KT
1000 MIFG/BR SCT020 SCT100=
TAF VIDN 110300Z 1106/1115 11004KT 3000 HZ SCT030 BKN090
BECMG 1112/1114 VRB02KT 1500 BR TEMPO 1106/1115 0800 RA/TSRA=

0000009900
496
SAIN90 VERC 110219
METAR VERC 110230Z 17002KT 1200 BR  FEW 100 12/10  Q1018  NOSIG=
0000028700
497
AAHQ50 VABB 110300

FROM : PBO SANTACRUZ

TO :  NHAC NEW DELHI

RPT : ACWC COLABA

FOLLOWING OBSN RECORDED AT 11/0830 HRS IST

MIN.TEMP     13.6         RPT    13.6   DEG C

*R.*H.                 62 %       RPT     62   %

R./F.                 NIL         RPT     NIL=

0000012400
498
SIIN90 VABB 110300
AAXX 11034
43003 31995 00000 10150 20078 40163 70400
  333 20136 58019
  555 10000=
0000031200
499
SWIN55 VABB 110300

FROM : PBO SANTACRUZ

TO :  NHAC NEW DELHI

RPT : ACWC COLABA

FOLLOWING OBSN RECORDED AT 11/0830 HRS IST

MIN.TEMP     13.6         RPT    13.6   DEG C

*R.*H.                 62 %       RPT     62   %

R./F.                 NIL         RPT     NIL=
0000010000
500
SAIN90 VOCI 110300
METAR VOCI 110300Z 00000KT 3000 HZ NSC 24/20 Q1014 BECMG 4000 HZ=
0000059400
501
AACL50 VOMM 110306
FROM : ACWC CHENNAI
TO   : NAVTEX MUMBAI (FOR INCLUSION IN NAVTEX BROADCAST)

DAILY ONE BULLETIN FOR KARNATAKA COAST FORECAST VALID FOR NEXT
12 HOURS COMMENCING FROM 11/1000 HRS UTC TO 11/2200 HRS UTC AAA

FOR KARNATAKA COAST
=====================

SYNOPTIC SITUATION: NIL.

WIND              : NORTHERLY TO NORTHEASTERLY 15-20 KNOTS GUSTING
                    TO 25 KNOTS OCCASIONALLY.
WEATHER             MANILY FAIR.
VISIBILITY   :      GOOD.
SEA          :      GENERALLY MODERATE.
SIGNALS           : NIL

ENDS AAA

0000083100
502
FTIN90 VOTV 110300
TAF VOTV 110300Z 1106/1212 14005KT 5000 HZ FEW015 SCT100
TEMPO 1109/1112 2000 TSRA/RA SCT008 SCT012 FEW025CB OVC090
BECMG 1117/1118 00000KT 4000 HZ
TEMPO 1200/1203 2000 BR/HZ FEW025CB
BECMG 1204/1205 14005KT 5000 HZ
TEMPO 1209/1212 2000 TSRA/RA SCT008 SCT012 FEW025CB OVC090=
TAF VOCI 110300Z 1106/1212 22005KT 5000 HZ FEW015 SCT100
TEMPO 1109/1112 FEW025CB
BECMG 1117/1118 00000KT 4000 HZ
TEMPO 1200/1203 2000 BR/HZ FEW025CB
BECMG 1204/1205 05005KT 5000 HZ
TEMPO 1209/1212 2000 TSRA/RA SCT008 SCT012 FEW025CB OVC090=
TAF VOCL 110300Z 1106/1212 25005KT 5000 HZ FEW015 SCT100
TEMPO 1109/1112 FEW025CB
BECMG 1117/1118 00000KT 4000 HZ
TEMPO 1200/1203 2000 BR/HZ FEW025CB
BECMG 1204/1205 25005KT 5000 HZ
TEMPO 1209/1212 2000 TSRA/RA SCT008 SCT012 FEW025CB OVC090=

00000000