0000017900
276
SMVD01 PANC 110000 RRL
BBXX
KGTY 11004 99238 71727
41598 40923 10239 20171 40169 57021 7//11 8226/
22264 00228 20806 305// 41209 5//// 6//// 80194 ICE /////=
0000054900
277
SIDN21 EKMI 110300
AAXX 11034
06030 21370 82314 10066 20054 30015 40031 57011 72052 885//
  333 69907 81709 85630 87656 =
06060 22460 82311 10067 20055 39988 40053 57012 885//
  333 6///7 81611 87619 =
06070 25/67 /2306 10062 20035 30032 40062 57006
  333 6///7 =
06120 35465 82211 10062 20058 30054 40080 57006
  333 81/16 88/23 =
06180 22470 72310 10053 20040 30072 40079 58002 87530
  333 6///7 86615 86641 =
06193 27459 72524 10056 20043 30066 40077 52001 71085
  333 55300 20000 69907 81/11 83/42 87/67 =
0000011100
278
UANT01 CWAO 110308
ARP LOT6202 4437N03238W 0307 F400 MS46 357/45 KT
SPLRC DDL XXW 110308 L06A
0000011000
279
UANT01 CWAO 110308
ARP UAL91 5842N01257W 0308 F340 MS44 224/32 KT
N77022 DDL XXN 110308 F40A
0000047000
280
SIBU20 LZSO 110300
AAXX 11031
15502 42970 00000 10012 21005 30187 40228 51001 333 10080 20012 555
589//=
15552 42960 02905 10073 20027 30158 40207 52016 333 10123 20071 555
573// 92024 92427=
15614 42965 00000 10003 21002 39524 40251 54000 333 10048 21005 555
596// 92602=
15615 41988 02910 11044 21130 37127 47064 54000 70100 333 11043 21065
555 551//=
15730 41/00 90000 10016 21009 39820 40229 52007 74742 333 10073 20014
555 584//=
0000025700
281
SAIN32 VIDP 110300
METAR VIDP 110300Z 25006KT 0050 R28/0300 R29/0250 FG VV/// 07/06
      Q1018 BECMG 0150=
METAR VILK 110300Z 00000KT 0500 R27/0800 VV/// 13/13 Q1016 NOSIG=
METAR VIAR 110300Z VRB00KT 1000 R34/1600D BR NSC 02/02 Q1019=
0000016800
282
FCIN90 VEBS 110300
TAF VEBS 110300Z 1106/1115 05005KT 2000 HZ NSC 
BECMG 1108/1110 2500 HZ BECMG 1112/1114 08003KT 2000 HZ=









0000056100
283
SIBU40 LZSO 110300
AAXX 11031
15525 42975 02504 10067 21022 39964 40233 51010 333 10103 20067 555
553//=
15549 42970 02704 10032 20006 39794 40219 52010 333 10078 20025 555
583//=
15600 41980 03416 11009 21034 38315 48517 54000 70200 333 10009 21010
91120 555 583//=
15640 41956 50000 11004 21013 39895 40219 52006 71011 85050 333 10105
21008 555 594//=
15655 42970 02502 10046 20023 30173 40207 52009 333 10062 20046 555
585// 92016 92418=
15712 41/08 90000 10019 20016 39982 40241 51005 74344 333 10031 20012
555 598//=
0000069500
284
SIGR20 LGAT 110300
AAXX 11034
16622 41001 80904 10052 20042 30219 40220 52008 74442 886// 333
      91106 555 70000 77F// 7FY//=
16641 42460 60000 10110 20102 30215 40220 51001 83650 333 82714
      83818 86357 91104 555 40000 47695 44230 50000 50106=
16682 42560 41404 10118 20085 30214 40225 50000 84100 333 91106=
16716 NIL=
16734 46/// /2910 10154 20093 30161 40222 54000 333 91118=
16743 46/// /2813 10143 20095 39998 40195 57008 333 91131=
16749 42460 20000 10112 20070 30195 40210 57004 82400 333 91103
      555 40000 47680 44225 50000 50092=
16754 42565 21706 10108 20088 30162 40210 57001 82100 333 91110
      555 40000 47652 44190 50000 50098=
0000045600
285
SIGR21 LGAT 110300
AAXX 11034
16643 42560 50804 10116 20096 30232 40233 54000 83550 333 83625
      85358 91107=
16648 41301 60000 10032 20032 30127 40218 51004 74442 83606 333
      83708 86068 91105 555 70000 77F// 7FY//=
16650 46/// /3304 10114 20101 30207 40207 52002 333 91107=
16684 42560 53209 10126 20083 30183 40193 52009 81105 333 81820
      85068 91112=
16732 46/// /1105 10131 20105 30186 40197 52001 333 91108=
0000011100
286
UANT01 CWAO 110308
ARP UAL976 4704N04512W 0308 F320 MS58 333/69 KT
N226UA DDL XXW 110308 F30A
0000011100
287
UANT01 CWAO 110308
ARP SVA036 4706N04509W 0308 F330 MS58 329/70 KT
HZAK18 QXT AME 110308 F17A
0000011100
288
UANT01 CWAO 110308
ARP UAL106 5035N03726W 0308 F340 MS54 224/25 KT
N76064 DDL XXW 110308 F57A
0000011000
289
UANT01 CWAO 110308
ARP DAL50 4806N04510W 0308 F360 MS59 323/63 KT
N815NW DDL XXW 110308 J64A
0000003800
290
SAUK53 EGRR 110300
NIL
0000308400
291
SIUK42 EGRR 110300
AAXX 11034
03002 45565 /3011 10051 20028 39956 49974 55002
  333 85/24=
03008 46/// /2722 10054 20023 39929 40002 53003
  333 90710 91131=
03010 46/// /2917 10056 20027 40025 53011
  333 90710 91141=
03014 46/// /2920 49988 53003
  333 90710 91129=
03031 47582 /3105 11002 21011 39730 40063 53007 724//
  333 553// 20000 85/28=
03034 47457 /2510 10036 20009 30046 40060 53013 781//
  333 81/18 86/50 91020=
03037 47465 /2009 10020 20010 30047 40069 53009 781//
  333 85/16=
03039 46/// /2622 11023 21028
  333 90710 91130=
03044 45981 /2206 10027 21006 39943 40043 52008
  333 553// 20000 81/63=
03047 47681 /2407 10024 21017 39775 40081 51008 781//
  333 553// 20000 87/31=
03062 45984 /2208 10008 21006 30047 40052 53004
  333 553// 20000 84/62=
03065 46/// ///// 11058 21066=
03068 42784 22310 10017 21024 30045 40054 52006 82500
  333 82650=
03072 46/// /2619 11037 21054
  333 90710 91133=
03080 45983 /3110 10021 21031 39888 40061 53006
  333 83/63=
03088 45983 /2812 10013 21020 39894 40060 51002
  333 553// 20000 8//99=
03105 47668 /2509 10032 20012 30080 40097 53011 723//
  333 82/44 90710 91130=
03132 45981 /2704 10019 20007 30092 40105 52010
  333 8//99=
03144 45984 /2608 10016 21002 30040 40084 51007
  333 553// 20000 81/62=
03148 46/// /2609 11014 21016=
03153 45972 /2608 10019 20013 39959 40099 52010
  333 553// 20000 8//99=
03155 46982 /2109 10002 21004 39790 40094 51007
  333 81/60=
03158 45980 /0501 11004 21016 39944 40084 51006
  333 553// 20000 82/60=
03210 46467 /2705 10035 20035 39952 40106 51010
  333 81/14=
03212 45/71 /0801 10028 20024 39999 40100 50007=
03214 45971 /3305 10041 20032 30083 40102 51012
  333 83/60=
03220 46967 ///// 10015 20015 30061 40096 51009
  333 8//99=
03224 47/01 /2606 10001 20001 39748 40101 53009 777//=
03225 46679 /3004 10029 20008 39796 40106 51014
  333 553// 20000 84/31 87/59=
03226 47660 /0302 10023 20019 39822 40102 52014 710//
  333 81/35 83/40 87/59=
03227 46/// /2915 11019 2////=
03230 46978 /2502 11009 21014 39836 40099 52012
  333 8//99=
03238 47959 /2608 10021 20015 39914 40091 53012 710//
  333 8//99=
03261 46774 /3504 10053 20023 30054 40095 53015
  333 82/50 87/59=
03265 45983 /3207 10051 20017 30066 40097 53017
  333 87/58=
03266 46681 /3207 10056 20036 30075 40092 52014
  333 81/36 86/49 86/59=
03275 45672 /2910 10046 20021 39895 40089 53013
  333 86/42 85/59=
03281 46/// /3303 10033 20027=
03901 47360 /2605 10011 20007 30032 40122 53018 767//
  333 55300 20000 81/07 87/17=
03904 47481 /3001 10014 20008 30058 40120 53015 761//
  333 82/10 86/44=
03907 45783 /2315 10034 20016 30101 40109 53014
  333 55300 20000 81/50 87/60=
03911 46359 /2907 10010 20001 39842 40122 53017
  333 84/08 83/63=
03915 46781 /1803 10017 20004 30030 40110 53012
  333 87/56=
03916 46887 /2506 10019 21008 39913 40107 52010
  333 553// 20000 86/57=
03923 45982 /2708 10027 20011 39916 40115 53012
  333 87/58=
0000408700
292
SIUK43 EGRR 110300
AAXX 11034
03301 46574 /2505 10030 20024 30052 40127 52020
  333 82/21=
03305 47583 /3602 10040 20011 39859 40125 51019 723//
  333 82/27=
03313 46580 /2103 10047 20041 30023 40119 53014
  333 82/20 84/28 86/56=
03316 47467 /2405 10059 20043 30103 40114 53018 721//
  333 86/15 83/31=
03318 46/// /3303 10062 20049=
03321 47459 /3007 10052 20039 30108 40120 53023 762//
  333 55300 20000 81/11 87/26=
03330 47256 /3211 10041 20038 39743 40107 53010 782//
  333 84/03 83/14=
03344 45876 /3007 10041 20031 39780 40100 52016
  333 87/57=
03346 46/// /2809 10045 20040=
03351 47664 /3206 10059 20046 30068 40111 53017 781//
  333 55300 20000 82/38 87/48=
03373 46459 /2411 10070 20063 30021 40090 53001
  333 81/15 84/32 85/44=
03379 46465 /2413 10074 20065 30019 40096 56001
  333 82/13 86/19=
03382 47560 /2805 10070 20060 30073 40082 53003 781//
  333 55300 20000 81/27 87/50=
03385 46465 /2114 10077 20064 30075 40085 56005
  333 82/13 86/24=
03391 41475 82210 10077 20063 30086 40093 56004 70262 885//
  333 85612 88625=
03392 46475 /2112 10069 20062 30091 40095 56005
  333 85/14 87/21=
03405 469// /2512 10057 20032 30019 40136 53018
  333 553// 20000 8//99=
03409 46/// /1303 10041 20029 39918 40120 53016
  333 55300 2////=
03469 47478 /2213 10071 20064 30094 40098 56007 724//
  333 553// 20000 81/17 84/20 87/26=
03488 47682 /2117 10073 20061 30072 40098 57010 761//
  333 83/38 87/50=
03503 45576 /3003 10057 20045 30049 40127 52017
  333 87/25=
03520 46779 /2805 10052 20042 30001 40123 53015
  333 553// 20000 82/50=
03522 47772 /2304 10060 20057 30033 40126 53016 723//
  333 85/50=
03529 47330 /2505 10073 20069 30080 40123 53008 781//
  333 82/07 87/23=
03544 47250 /2307 10073 20067 39975 40106 55003 781//
  333 553// 20000 86/04 86/12=
03560 45479 /2211 10074 20061 30002 40106 57010
  333 553// 20000 81/12 83/38 86/58=
03604 46481 /3005 10041 20031 30087 40141 52018
  333 81/19 84/59=
03605 46964 /3009 10059 20047 30127 40136 52018
  333 8//99=
03609 46/// /2909 10061 20057 30087 40140 53014=
03628 47274 /2510 10070 20064 30055 40127 53007 723//
  333 55300 20000 84/03 85/33=
03647 46233 /2412 10068 20066 39857 40113 55001
  333 553// 20000 87/03=
03658 46473 /1709 10082 20070 30051 40120 57006
  333 85/15 83/21=
03660 47160 /2208 10068 20067 39873 40121 56008 722//
  333 86/02 86/09=
03672 46663 /2106 10075 20067 30084 40124 57009
  333 87/37=
03680 46/// ///// 10069 20064 39962 40119 57010
  333 553// 20000=
03684 47264 /2010 10069 20061 30013 40120 58009 723//
  333 81/05 87/50=
03693 47461 /2108 10076 20066 30128 40130 57008 751//
  333 84/14 86/40=
03707 45684 /2908 10065 20031 30135 40142 53013
  333 81/32=
03710 46371 /2911 10040 20038 39716 40141 53011
  333 553// 20000 82/08 85/15=
03743 46425 /2309 10076 20069 39967 40128 55002
  333 82/13 85/20=
03749 46578 /2108 10080 20067 30019 40129 56004
  333 86/25 83/56=
03761 41570 82115 10079 20068 39984 40128 56007 76062 885//
  333 55300 20000 85621 88636=
03768 46574 /2210 10085 20072 30047 40127 56010
  333 84/28 86/36=
03769 47365 /2006 10080 20069 30050 40132 56007 781//
  333 55300 20000 87/08 85/50=
03770 46/// ///// 10083 20070=
03781 47259 /2209 10071 20065 39925 40132 56008 781//
  333 553// 20000 88/03=
03784 46/// /2108 10078 20068 30123 40127 57009=
03797 45966 /2110 10072 20049 30079 40139 56007
  333 55300 20000 88/59=
03823 45781 /3010 10043 20030 39901 40148 53009
  333 553// 20000 81/50=
03839 46/// ///// 10069 20054
  333 553// 20000=
03857 47340 /2519 10096 20086 30072 40135 55002 757//
  333 81/08 85/16=
03862 45682 /2105 10088 20073 30121 40133 55002
  333 55300 20000 87/32=
03866 46/// /2414 10099 20084 30111 40136 56005=
03872 47668 ///// 10093 20080 30130 40135 56005 723//
  333 553// 20000 87/43 91013=
03876 46/// /2511 10089 20077 30138 40140 56005=
03895 42358 52007 10078 20072 40157 55002 83672 333 83706=
0000124100
293
SREW41 EGRR 110300
03002000 03005OTR 03008000 03017OTR 03026000 03031OTR 03034002
03037OTR 03044000 03047OTR 03062000 03063000 03066000 03068000
03075000 03080000 03088000 03091000 03100OTR 03105012 03111000
03132000 03134000 03136000 03144000 03153000 03155000 03158000
03162000 03166OTR 03171000 03204000 03210000 03212000 03214000
03220000 03224OTR 03225000 03226000 03230000 03238000 03240000
03257000 03261000 03265000 03266000 03275000 03281000 03292002
03301000 03302002 03305002 03313002 03316012 03318000 03321010
03330004 03344000 03346000 03351004 03354004 03373000 03377OTR
03379000 03382002 03391000 03392000 03405000 03409000 03414000
03462OTR 03469OTR 03482002 03488002 03502000 03503000 03520000
03522002 03529004 03535008 03544004 03560000 03590002 03604000
03605000 03609000 03628008 03647000 03649002 03658000 03660OTR
03672000 03684002 03693002 03707000 03710000 03716OTR 03740000
03743002 03746002 03749000 03761OTR 03768000 03769002 03770002
03772OTR 03781002 03797000 03803000 03808000 03809000 03823000
03827000 03839000 03840002 03853OTR 03857OTR 03862000 03866000
03872OTR 03876000 03882000 03901018 03904006 03907000 03911000
03915000 03916000 03917000 03923000=
0000146500
294
SAUK63 EGRR 110250 RRB
METAR EGDM 110250Z AUTO 22009KT 2700 SHRA FEW014/// SCT021/// BKN028/// 08/07
Q1012=
METAR EGDX 110250Z AUTO 30010KT 9999 SCT050/// 07/06 Q1012 RERA=
METAR EGDY 110250Z AUTO 25010KT 5000 -DZ FEW007/// BKN015/// 08/08 Q1013=
METAR EGOM 110250Z AUTO 26006KT 0150 SG VV/// 00/00 Q1008=
METAR EGOP 110250Z AUTO 30009KT 9999 // NCD 06/05 Q1013=
METAR EGOS 110250Z AUTO 29007KT 9999 FEW050/// 05/04 Q1010=
METAR EGOV 110250Z AUTO 30006KT 9999 NCD 04/03 Q1012=
METAR EGQK 110250Z AUTO 20007KT 9999 NCD 02/M01 Q1005=
METAR EGUB 110250Z AUTO 17009KT 9999 // BKN015/// SCT021/// 08/07 Q1011=
METAR EGUW 110250Z AUTO 21011KT 9999 -DZ FEW005/// SCT047/// BKN080/// 07/06
Q1011=
METAR EGVP 110250Z AUTO 21008KT 9999 // BKN025/// SCT060/// 08/07 Q1012=
METAR EGWU 110250Z AUTO 21006KT 9999 // BKN037/// 08/07 Q1012=
METAR EGXD 110250Z AUTO 35004KT 9999 // FEW050/// BKN090/// 05/02 Q1009=
METAR EGXE 110250Z AUTO 31009KT 9999 BKN090/// 04/02 Q1009=
METAR EGXP 110250Z AUTO 24011KT 9000 // FEW015/// SCT032/// BKN044/// 07/06
Q1008=
METAR EGXS 110250Z AUTO 21014KT 9999 // FEW013/// BKN024/// 08/06 Q1008=
METAR EGXU 110250Z AUTO 32007KT 9999 // FEW036/// BKN049/// BKN090/// 06/04
Q1009=
METAR EGXZ 110250Z AUTO 32007KT 9999 BKN080/// 05/02 Q1009=
METAR EGYD 110250Z AUTO 24013KT 9999 // FEW013/// BKN019/// 07/07 Q1009=
METAR EGYM 110250Z AUTO 20013KT 9999 -RA BKN036/// BKN045/// 07/06 Q1010=
0000012500
295
SMOM66 OOMS 100600 RRI
AAXX 10064
41242 26/// /0809 10200 20100 30233 40259
333 0E010 20103 58020 70000 =
00000000