0000037600
236
SITU14 LTAA 110300
AAXX 11034
17500 NIL=
17501 NIL=
17505 NIL=
17507 NIL=
17510 NIL=
17515 NIL=
17521 42960 02811 10082 20050 30075 40217 56002=
17530 NIL=
17535 NIL=
17540 42560 12406 10100 20048 30212 40237 58002 81100
333 81830 92437=
17547 42560 11107 10120 20072 39969 40214 58002 81100
333 81830 92437=
17550 NIL=
17572 NIL=
0000039500
237
SILY20 HLMC 110300
AAXX 11034
62271 43/// /0503 10084 20032 39772 40299 56005=
62002 NIL=
62007 NIL=
62008 NIL=
62010 NIL=
62012 NIL=
62014 NIL=
62016 NIL=
62018 NIL=
62019 NIL=
62053 NIL=
62055 NIL=
62056 NIL=
62059 NIL=
62062 NIL=
62103 NIL=
62120 NIL=
62124 NIL=
62131 NIL=
62161 NIL=
62176 NIL=
62200 NIL=
62212 NIL=
62259 NIL=
0000085100
238
SILY20 HLMC 110300
AAXX 11034
62002 32960 42210 10120 20029 39501 48557 56007 84050
  333 84360=
62007 32960 01805 10120 20051 40227 55005=
62008 32960 62110 10120 20043 39430 48561 51004 86050
  333 86360=
62010 32960 31704 10094 20050 40225 56005 83050
  333 83360=
62012 NIL=
62014 NIL=
62016 32958 01304 10084 20055 40260 56004=
62018 32960 00000 10090 20018 30179 54000=
62019 NIL=
62053 32560 60000 10112 20090 40254 58003 84530
  333 84120 84358=
62055 NIL=
62056 NIL=
62059 NIL=
62062 32960 00000 10127 20104 40233 56008=
62103 NIL=
62120 NIL=
62124 32960 01208 10058 20029 39730 40240 57003=
62131 32960 00000 10078 20044 39945 40267 55003=
62161 32960 00000 10100 20068 40237 57002=
62176 NIL=
62200 NIL=
62212 NIL=
62259 NIL=
62271 32960 00505 10090 20037 40293 56004=
0000012500
239
SMOM10 OOMS 100600 RRJ
AAXX 10064
41242 26/// /0809 10200 20100 30233 40259
333 0E010 20103 58020 70000 =
0000012400
240
SIVS20 VNNN 110300
AAXX 11031
48845 32498 83601 10191 20162 30212 40219 52013 888// 333 59017 85894 88697=
0000012400
241
SIVS21 VNNN 110300
AAXX 11031
48840 32498 80000 10190 20152 30211 40217 52011 888// 333 59016 83894 88696=
0000020300
242
SIVS20 VNNN 110300
AAXX 11031
48839 32997 70703 10227 20197 30158 40224 51014 80008 333 59007 87299=
48826 31530 80000 10190 20170 30092 40229 52017 71022 888// 333 59013 85895 88697=
0000022700
243
SIVS21 VNNN 110300
AAXX 11031
48808 41420 80000 10128 20124 39951 40245 50023 76066 888// 333 59005 84894 88696 96010 96160=
48830 31420 83602 10126 20110 39926 40245 51018 71022 888// 333 59010 83894 88697=
0000035500
244
SIVS20 VNNN 110300
AAXX 11031
48877 32570 73605 10261 20199 30174 40179 51008 878// 333 59004 82895 85697=
48920 32998 63605 10272 20246 30140 40143 50004 80008 333 58008 86299=
48887 32772 61602 10276 20196 30145 40151 50009 865// 333 58005 86697=
48870 41470 73402 10246 20208 30177 40184 51004 70262 878// 333 59005 83894 87696=
0000011000
245
UANT01 CWAO 110306
ARP DAL98 5503N04831W 0306 F360 MS64 295/63 KT
N833MH QXT AOW 110306 F47A
0000011000
246
UANT01 CWAO 110306
ARP KLM642 5310N02848W 0306 F370 MS54 225/56 KT
PHBQM QXT AOE 110306 F23A
0000011100
247
UANT01 CWAO 110307
ARP N689WM 4606N04547W 0306 F450 MS54 105/65 KT
N689WM DDL XXH 110307 F39A
0000011000
248
UANT01 CWAO 110307
ARP ACA870 4658N05204W 0307 F340 MS62 301/43 KT
CFNNQ DDL YYT 110307 F00A
0000011100
249
UANT01 CWAO 110307
ARP UPS238 6334N05236W 0306 F300 MS59 178/27 KT
N312UP QXT IGW 110307 F45A
0000011000
250
UANT01 CWAO 110307
ARP DLH429 4640N03703W 0305 F370 MS49 244/39 KT
DAIKP QXT EUA 110307 J95A
0000011100
251
UANT01 CWAO 110307
ARP UAL928 5515N05822W 0307 F350 MS64 283/94 KT
N663UA DDL YHO 110307 F37A
0000011000
252
UANT01 CWAO 110307
ARP EIN104 5304N02920W 0307 F380 MS55 216/56 KT
EIDUZ DDL XXW 110307 J42A
0000015700
253
SSVX13 LFPW 110100
ZZYY 41637 11014 0100/ 724033 077533 6113/ 11119 40193 52010 22219
 00253 444 20130 11014 0000/ 50101 80130 80000 9/015=
0000013900
254
SSVX13 LFPW 110301
ZZYY 41738 11014 0301/ 726608 077016 6113/ 22219 00236 444 20130
 11014 0301/ 50101 80050 80000 9/015=
0000022200
255
SSVX03 LFVW 110307
ZZYY 31053 11014 01001 531581 049875 6113/
11119 00000 10247 40115
22219 00256 10803 20080 21014
33311 66699 20007 21056 20030 02063 20055 21064
444 20130 11014 0106/ 518// 60371=
00000000