0000216300
899
SNAU42 AMMC 110100
AAXX 11014
94640 11970 01318 10229 20164 30204 40207 54000 60004 70200
  333 70000=
94641 05/// /0710 10250 20076 39842 40211 51008 60004
  333 20147 70000=
94644 15/// /1012 10222 20153 30229 40233 51006 60004
  333 20191 70000=
94645 11/75 11305 10233 20159 30227 40234 52003 60004 70111 81030
  333 70000=
95204 15/// /2809 10314 60004
  333 20273 70000=
95214 15/// /1705 10328 20256 30088 40093 51006 60004
  333 20279 70000=
95303 15/// /2812 10300 30074 40101 51025 60004
  333 20279 70000=
95304 15/// /2611 10319 20252 30088 40096 51022 60004
  333 20285 70000=
95305 15/// /2905 10323 20243 30091 40103 51016 69944
  333 20273 70004=
95307 15/// /2811 10321 20273 30087 40094 51016 60004
  333 20290 70000=
95317 05/// /1305 10337 20234 39894 40096 51007 60004
  333 20263 70000=
95402 15/// /1909 10325 20159 30042 40081 50003 60004
  333 20213 70000=
95600 11980 01308 10365 20100 30115 40119 57005 60004 70200
  333 70000=
95602 45/// /0812=
95604 03968 00901 10300 20141 60004
  333 70000=
95606 11970 01117 10342 20239 30124 40129 60004 70200
  333 70000=
95607 15/// /1111 10304 20145 30155 40162 58001 60004
  333 20222 70000=
95610 15/// /0909 10271 20123 60004
  333 20191 70000=
95611 15/// /0912 10271 20124 30167 40187 57004 60004
  333 20167 70000=
95612 15/// /0916 10324 20110 30064 40151 58003 60004
  333 20190 70000=
95613 11975 00701 10228 20149 30003 40207 52001 60004 70200
  333 70000=
95615 11980 00906 10284 20133 60004 70200
  333 70000=
95616 11984 01302 10272 20106 60004 70200
  333 70000=
95618 11980 00904 10257 20110 60004 70200
  333 70000=
95621 15/// /1107 10254 20129 60004
  333 20164 70000=
95622 11980 01320 10261 20172 60004 70200
  333 70000=
95623 11975 01304 10260 20153 60004 70200
  333 70000=
95624 11970 00909 10302 20090 60004 70200
  333 70000=
95625 15/// /0915 10304 20109 39923 40170 58003 60004
  333 20202 70000=
95626 11980 00910 10301 20150 60004 70300
  333 70000=
95629 15/// /0519 10350 20079 39776 40142 58001 60004
  333 20226 70000=

0000014500
900
SNVF20 EHDB 110100
BBXX
PDGS 11014 99453 70085 41498 10212 10120 20079 40160 50006 70111
811// 22254 00131 2//// 325// 40402=
0000400600
901
SNCZ64 OKPR 110100
AAXX 11011
11406 27/62 /2103 10005 21002 39604 40205 57004 70011
  333 60005
  555 395// 50028 60030 70034 80040 90051=
11414 22470 52502 10013 21004 39461 42790 58002 85500
  333 60005 85615
  555 388// 50025 60024 70030 80034=
11423 27544 /2704 11006 21006 39302 42793 58007 71011
  333 60005 83/23
  555 300// 50022 60026 70030 80035=
11438 26/// /9902 10012 20000 39792 40196 52001
  333 60005
  555 392// 50034 60037 70039 80049 90055=
11450 25569 /2603 10020 20005 39747 40204 57004
  333 60005 81/33
  555 12706 390// 50029 60031 70036 80039=
11457 25370 /2503 11015 21021 38884 48477 57005
  333 60005 81/07 85/12
  555 396// 50007 60014 70014 80025=
11464 42586 72507 11005 21019 39185 42786 53003 875//
  333 87623
  555 390//=
11487 25670 /9901 10009 21015 39570 40208 55002
  333 60005 83/38
  555 384// 50024 60024 70025 80032 90044=
11502 25/70 /2902 10014 21013 39727 40193 52002
  333 60005
  555 382// 50025 60028 70033 80040 90053=
11509 27770 /2505 10035 20004 39992 40191 53001 70011
  333 60005 85/50
  555 380// 50032 60033 70036 80041 90055=
11518 22780 22405 10021 21004 39748 40197 57002 82500
  333 60005 82650
  555 384//=
11519 25770 /2104 10041 20004 39885 40198 55000
  333 60005 87/50
  555 377//=
11520 25770 /9902 10032 20001 39827 40201 53001
  333 60005 83/50
  555 380// 50026 60034 70036 80044 90051=
11538 25681 /1702 10019 21005 39590 40209 55004
  333 60005 85/40
  555 384// 50008 60031 70036 80044=
11546 25680 /2102 10016 21003 39715 40211 55002
  333 60005 87/43
  555 387// 50034 60040 70046 80056 90058=
11567 22765 62402 10041 20011 39842 40192 55000 86500
  333 60005 86650
  555 381// 50036=
11603 25570 /0401 10026 21005 39694 40185 55001
  333 60005 88/26
  555 379// 50036 60041 70044 80050 90058=
11624 22765 72504 10046 20010 39902 40197 53001 87500
  333 60005 87656
  555 378// 50036=
11628 25670 /2504 10020 21010 39556 40204 55001
  333 60005 87/45
  555 381// 50025 60030 70034 80041 90048=
11636 27670 /9901 10008 21015 39515 42801 55002 70011
  333 60005 87/41
  555 385// 50012 60026 70034 80043 90049=
11643 27470 /2003 10000 21014 39204 42780 52002 78571
  333 69905 83/15 85/19 87/39
  555 13604 390// 50014 60016 70019=
11652 22770 72603 10040 20000 39913 40197 52003 87500
  333 60005 87656
  555 375// 50038=
11653 26/// /2710 11057 21060 3//// 4//// 5////
  333 6///5 91120
  555 398//=
11659 27670 /2504 10024 21011 39549 40200 53001 70011
  333 60005 87/49
  555 378// 50014 60030 70028 80035 90044=
11669 22580 72602 11003 21004 39296 42784 52002 87500
  333 60005 87629
  555 399// 50015 60030 70030 80038 90051=
11679 27770 /2904 10036 21006 39699 40193 53001 70011
  333 60005 87/50
  555 374// 50038 60041 70039 80047 90061=
11683 25/70 /2705 10006 21021 39309 42792 55001
  333 60005
  555 1//05 382// 50024 60022 70029 80038=
11692 22770 62202 10009 21010 39622 40210 55001 86500
  333 60005 86650
  555 387// 50019=
11693 27670 /2303 10012 21010 39718 40213 53001 70011
  333 60005 87/49
  555 12508 386// 50030 60038 70041 80055 90059=
11698 27/70 /2502 10013 21009 39795 40214 55000 70011
  333 60005
  555 385// 50037 60042 70052 80058 90066=
11710 NIL=
11723 22775 51602 10003 21015 39904 40211 53001 85500
  333 6///5 85650
  555 388// 50027 60032 70045 80053=
11730 27028 /2706 11041 21054 38633 48451 50000 78588
  333 69905 81/01 83/09 85/15 87/19 91011 91111
  555 391//=
11766 27670 /2403 11010 21023 39287 42785 55001 70011
  333 60005 81/39
  555 391// 50014 60019 70026 80039=
11774 25770 /1403 10000 21022 39926 40207 55001
  333 60005 81/50
  555 385//=
11782 22770 82403 10013 21012 39889 40203 53001 885//
  333 60005 88656
  555 383//=
11787 27270 /2907 11041 21046 38644 48461 52002 70011
  333 60005 85/06 87/08 91112
  555 397// 50007 60014 70011 80021=
0000009400
902
SNNO21 ENMI 110100 RRA
AAXX 11011
01300 46/// /0806 10019 21001 39885 49984=
0000014500
903
SNNO22 ENMI 110100 RRB
AAXX 11011
01400 46/// /2508 10075 20068 39979 40040=
01447 46/// /0000 11080 21087 39313 40003 58003=
0000011000
904
UANT01 CWAO 110040
ARP AFR345 4851N04050W 0040 F360 MS52 276/28 KT
FGEXB QXT AOW 110040 F95A
0000105800
905
USUR10 UKMS 110000

TTAA  11001 33345 99984 05038 26006 00032 ///// ///// 92667
02028 27521 85345 02119 30025 70858 12123 29521 50534 29533
30022 40689 41735 30023 30878 54143 30028 25996 52350 30031
20139 54156 30035 15322 59157 29531 10574 61958 30538 88305
54742 30528 88146 59757 30032 66100 30538=

TTAA  11000 33393 NIL=

TTAA  11002 33658 99988 06460 22504 00123 ///// ///// 92759
02658 29017 85435 03356 29520 70942 10959 30023 50545 24770
30526 40707 30566 31029 30905 451// 30038 25024 523// 30533
20166 595// 23531 88999 77364 30541 41402=

TTAA  11003 33837 99009 05450 27004 00118 05450 28005 92753
02056 32021 85428 03550 31520 70939 12369 29518 50543 24970
29534 40701 37365 28043 30894 499// 28044 88999 77390 28546=

TTAA  11001 34300 99983 03612 27005 00015 ///// ///// 92644
00413 29016 85315 03509 30014 70820 12736 28518 50530 28159
23529 40686 413// 22035 30877 511// 22541 25993 565// 23040
20134 595// 25029 15312 625// 27030 10561 649// 29028 88241
573// 23539 77276 22543=
0000135800
906
UKUR10 UKMS 110000

TTBB  11003 33345 00984 05038 11971 05433 22759 08314 33620
18528 44522 28731 55466 32738 66321 53942 77225 52956 88101
62158 21212 00984 26006 11901 28527 22875 30025 33599 30522
44542 29522 55492 30521 66340 31024 77184 30030 88174 28529
99139 30533 11106 30036 31313 01603 82331 41414 60830=

TTBB  11000 33393 NIL=

TTBB  11003 33658 00988 06460 11754 10125 22722 09756 33513
24170 44487 24371 55462 24969 66425 27164 77276 493// 88211
585// 99167 577// 21212 00988 22504 11928 28517 22908 31015
33462 30524 44364 30541 55254 30533 66167 17527 31313 01503
82330 41414 00900=

TTBB  11003 33837 00009 05450 11991 05650 22886 00356 33824
05944 44807 05550 55767 06566 66740 08970 77588 22769 88576
22570 99552 24170 11518 22972 22407 37165 33295 507// 21212
00009 27004 11938 31521 22903 32025 33753 29021 44666 29518
55600 29519 66475 29038 77390 28546 88295 28044 31313 01503
82330 41414 00900=

TTBB  11003 34300 00983 03612 11818 05511 22796 05511 33786
06511 44620 19950 55527 26361 66460 31956 77381 437// 88343
453// 99260 563// 11221 575// 22102 649// 21212 00983 27005
11879 29021 22846 30014 33822 29513 44762 27514 55724 29018
66611 28017 77538 25519 88488 22531 99457 22036 11276 22543
22268 23043 33191 25028 44108 29028 31313 51603 82330 41414
8732/=
0000027200
907
ULUR10 UKMS 110000

TTCC  11005 33345 70793 64958 31037 50997 66158 32545 88999
66443 32051=

TTCC  11000 33393 NIL=

TTCC  11008 33658  NIL=

TTCC  11008 33837  NIL=

TTCC  11007 34300 70775 699// 30037 88862 683// 30033 66557
31041=
0000016400
908
SNCZ64 OKPR 110100 RRA
AAXX 11011
11710 27670 /2604 10013 21014 39567 40195 55001 70011
  333 60005 85/46
  555 382// 50036 60040 70045 80052=
0000023700
909
ULFI03 EFKL 110000
TTCC 61001 02963
70774 62777 32573 50978 67574 33592 30284 70973 32621
20526 70174 33128 10938 72376 33686
88575 67774 33586
77081 32692 435// 77223 32653 42820 77320 32635 42815
31313 48108 82330=
0000050600
910
UEFI03 EFKL 110000
TTDD 6100/ 02963
11826 61376 22689 62177 33575 67774 44319 68374 55287
72372 66221 67375 77185 71773 88172 72173 99150 66576
11133 66777 22107 73575 33086 67578 44081 69578 55080
65779 66075 64180
21212 11814 33571 22760 32581 33716 32571 44591 34077
55564 33593 66476 33594 77441 31601 88346 33113 99320
32635 11289 32614 22223 32653 33198 33127 44150 32152
55132 32667 66128 33162 77108 33663 88099 33687 99086
33176 11081 32692 22075 33163
31313 48108 82330=
0000241200
911
SSVX11 LFVW 110113
ZZYY 52080 10014 1900/ 102046 138170 6113/
22219 00296
33311 88872 20000 32960 20002 32960 43399 20025 33039 43481
20050 35300 20075 32618 43470 20100 32554 43521 20125 32369 43519
20150 32008 43483 20200 31572 43468 20250 31083 43450
20300 30997 43471 20500 30863 43462 20750 30607 43453
444 20130 10014 1922/ 522//=
ZZYY 52080 10014 1500/ 102047 138167 6113/
22219 00296
33311 88872 20000 32964 20002 32964 43399 20025 33013 43436
20050 35300 20075 32763 43468 20100 32600 43467 20125 32560 43526
20150 32405 43512 20200 31782 43482 20250 31243 43450
20300 31007 43468 20500 30857 43460 20750 30611 43453
444 20130 10014 1551/ 522//=
ZZYY 52080 10014 1700/ 102047 138170 6113/
22219 00296
33311 88872 20000 32961 20002 32961 43399 20025 33054 43480
20050 35300 20075 32771 43489 20100 32545 43467 20125 32468 43513
20150 32203 43502 20200 31658 43480 20250 31139 43448
20300 30996 43472 20500 30851 43461 20750 30611 43454
444 20130 10014 1733/ 522//=
ZZYY 52087 10014 1700/ 107655 136694 6113/
22219 00292
33311 88872 20000 32920 20002 32920 43387 20025 32923 43400
20050 32923 43436 20075 32779 43467 20100 32418 43505
20125 32044 43490 20150 31742 43472 20200 31292 43454
20250 30975 43448 20300 30912 43451 20500 30747 43451
20750 30597 43452
444 20130 10014 1732/ 522//=
ZZYY 52087 10014 1500/ 107653 136690 6113/
22219 00292
33311 88872 20000 32923 20002 32923 43387 20025 32925 43400
20050 32914 43444 20075 32705 43470 20100 32418 43505
20125 32018 43487 20150 31710 43475 20200 31176 43452
20250 30971 43447 20300 30913 43452 20500 30746 43450
20750 30614 43451
444 20130 10014 1550/ 522//=
ZZYY 52087 10014 1300/ 107652 136695 6113/
22219 00292
33311 88872 20000 32921 20002 32921 43385 20025 32923 43398
20050 32917 43438 20075 32734 43469 20100 32450 43507
20125 32008 43488 20150 31636 43470 20200 31180 43451
20250 31031 43448 20300 30925 43452 20500 30754 43449
20750 30636 43451
444 20130 10014 1239/ 522//=
ZZYY 52073 10014 17004 104945 137314 6113/
11119 00613 10271 29093 40069
22219 00295
33311 88872 20000 32948 20002 32948 43365 20025 32972
20050 32854 43423 20075 32741 43444 20100 32651 43474
20125 32409 43467 20150 32362 43489 20200 31688 43470 20250 31083
20300 30951 43456 20500 30746 43454 20750 30596 43452
444 20130 10014 1732/ 522// 60381=
0000019000
912
UGAH10 OAKN 110000
PPBB 60238 40990
90047 04006 36011 01510 9089/ 36010 01012 91125 00517
34014 30525 919// 31533 92048 30537 30051 29590 9349/
28134 28634 942// 27629=
0000010900
913
UANT01 CWAO 110041
ARP VIR17 5601N04541W 0041 F400 MS60 275/33 KT
GVSXY DDL XXH 110041 J52A
0000015600
914
UAUS31 KWBC 110042
ARP UAL389 4006N 07840W 0034 F300 TB CONT LGT TO OCNL MOD CHOP RM
    B752 OV LEJOY090035 TO IMPROVE WESTBOUND PER ATC=
0000011000
915
UANT01 CWAO 110041
ARP DLH409 4927N04804W 0041 F370 MS59 314/57 KT
DAIGW QXS YYT 110041 J86A
0000011100
916
UANT01 CWAO 110041
ARP DAL466 5337N05143W 0041 F330 MS63 305/87 KT
N197DN QXS YAY 110041 F55A
0000011000
917
UANT01 CWAO 110041
ARP UAL84 4651N03616W 0041 F350 MS48 226/45 KT
N57016 DDL XXW 110041 F60A
0000011100
918
UANT01 CWAO 110042
ARP UAL117 6123N05827W 0041 F330 MS57 259/37 KT
N77006 DDL XXW 110042 F35A
00000000