0000136800
759
UAPS01 NZKL 110100
AIREP
ANZ973 2130S 17512W 0036 F101 PS10 107/22=
ANZ137 3712S 17412E 0001 F114 214/11=
ACI330W 1718S 17742E 0007 F139 PS05 182/03=
SIA286 3706S 17400E 0059 F149 MS05 183/12=
ANZ783 2324S 16654E 0036 F253 MS21 270/25=
ANZ973 2248S 17600W 0049 F250 MS16=
ACI330W 1636S 17912E 0021 F294 MS27 270/15=
ACI330W 1424S 17742W 0048 F309 MS31 254/11=
QFA28 5900S 14342W 0002 F320 MS54 221/36=
QFA28 5912S 14854W 0023 F320 MS55 225/21=
ANZ137 3542S 17124E 0022 F340 MS52 163/02=
ANZ820 3630S 16306E 0022 F340 MS50 263/17=
ACI330W 1612S 17948E 0025 F335 MS38 274/16=
SIA298 3936S 16224E 0038 F340 MS49 249/12=
ANZ846 3836S 16300E 0019 F350 MS52 276/16=
LAN800 3636S 16336E 0020 F350 MS52 267/15=
ACI330W 1530S 17918W 0034 F350 MS41 288/07=
ACI330W 1454S 17824W 0042 F350 MS41 288/13=
ANZ898 4224S 16300E 0042 F350 MS54 302/21=
ANZ783 2454S 16748E 0049 F350 MS43 271/53=
ANZ878 3612S 16300E 0017 F360 MS54 237/13=
ANZ722 3836S 16300E 0010 F370 MS54=
ANZ802 3612S 16300E 0012 F380 MS56=
ANZ119 3630S 17112E 0039 F380 MS56 264/16=
QFA112 3554S 16436E 0008 F400 MS59 234/14=
UAE406 3806S 17054E 0016 F390 MS58 199/12=
QFA143 3606S 16000E 0021 F390 MS56 193/20=
QFA112 3524S 16124E 0029 F400 MS58 200/17=
UAE434 3500S 16936E 0037 F390 MS58 266/20=
QFA143 3636S 16324E 0043 F390 MS58 237/16=
0000017700
760
UAPS01 NZKL 110100 RRA
AIREP
JST2 2018S 16748E 0057 F400 MS53 273/32=
UAE412 3700S 16700E 0008 F410 MS60 255/20=
UAE412 3718S 17036E 0029 F410 MS60 251/21=
0000018500
761
SAKN20 HKNC 110100
METAR HKEL 110100Z  09012KT  CAVOK 12/09 Q1023=
METAR HKJK 110100Z 02004KT CAVOK 16/13 Q1021 NOSIG=
METAR HKKI 110100Z NIL=
METAR HKMO 110100Z NIL=
0000082700
762
SDTH20 VTBB 110100
FFBB 1101/ 48300 NIL=
FFBB 1101/ 48303 00000=
FFBB  1101/ 48327 00000=
FFBB  1101/ 48356 00000=
FFBB  1101/ 48378 00000=
FFBB 1101/ 48381 00000=
FFBB 1101/ 48407 00000=
FFBB 1101/ 48413 NIL=
FFBB 1101/ 48417 00000=
FFBB 1101/ 48432 0/0/0=
FFBB 1101/ 48456 00000=
FFBB 1101/ 48475 NIL=
FFBB 1101/ 48478 00000=
FFBB 1101/ 48517 645/3 744/3 754/3 764/3 61616 644 742 752 761=
FFBB  1101/ 48551 0/0/0=
FFBB  1101/ 48565 264/5 575/3 /555/ 57572 61616 260 5713=
FFBB 1101/ 48567 NIL=
FFBB  1101/ 48568 265/5 274/5 346/5 355/3 365/5 375/5 435/3 445/3
455/5 465/5 555/3 565/3 575/3 585/3 656/5 667/5 675/3 685/3 756/5
767/5 777/5 865/5 61616 261 27134 344 352 3623 371 4324 44124 451
4612 554 5623 5713 581 654 66134 6724 682 7524 7713=
FFBB 1101/ 48583 NIL=
0000011100
763
UANT99 KDDL 110108
ARP N689WM 4537N02459W 0108 F430 MS53 058/72 KT
N689WM DDL XXF 110109 F51A
0000018000
764
SMID20 WIIX 110000 RRB
AAXX 11004
96033 31450 80000 10252 20237 30127 40132 52021 69927 71522 84927
  333 20240 50114 55000 56000 57903 58031 81920 84617 80980=
0000011900
765
SMOM10 OOMS 110000 RRF
AAXX 11004
41268 26/// /0007 10177 20056 30195 48362
333 0E017 58019 70002 =
0000009400
766
SAIQ01 ORBI 110100
METAR ORBI 110100Z 13013KT 2800BR OVC008 10/09 Q1014 NOSIG=
0000011900
767
SMOM66 OOMS 110000 RRF
AAXX 11004
41268 26/// /0007 10177 20056 30195 48362
333 0E017 58019 70002 =
0000036400
768
SAUK53 EGRR 110100
METAR EGUL 110058Z AUTO 21011KT 9999 -RA BKN030 BKN035 OVC048 08/07
      A2985 RMK AO2 RAB0015 SLP112 P0002 T00760074=
METAR EGUN 110058Z AUTO 21010KT 9999 -RA FEW025 BKN038 OVC050 08/07
      A2987 RMK AO2 SLP118 P0002 T00760074=
METAR EGVA 110058Z AUTO 22009KT 9999 FEW032 08/08 A2986 RMK AO2 SLP117
      T00780077=
0000086100
769
SNUK41 EGRR 110100 RRA
AAXX 11014
03162 45973 /1801 11004 21010 39804 40098 53013
  333 55300 20000 8//99=
03257 45674 /2906 10060 20041 30045 40085 53010
  333 55300 20000 87/33=
03302 47571 /0103 10055 20041 30099 40113 52019 723//
  333 55300 20000 83/21 85/56=
03414 47582 /2407 10070 20057 30013 40101 52005 781//
  333 55300 20000 81/25 87/48=
03482 47661 /2012 10072 20064 30085 40111 58005 761//
  333 81/35 87/42=
03502 45480 /2913 10067 20042 39960 40122 53014
  333 55300 20000 82/11=
03590 47560 /2212 10070 20064 30015 40125 58003 761//
  333 55300 20000 86/25=
03746 47365 /1907 10069 20068 39976 40130 57005 723//
  333 81/08 86/39=
03809 41675 33106 10069 20053 30051 40145 52015 72160 83500
  333 83635=
03853 47584 /2108 10090 20063 30105 40129 52001 757//
  333 55300 20000 83/29 87/40=
0000299700
770
SNUK42 EGRR 110100
AAXX 11014
03002 47460 /2411 10040 20026 39956 49974 53003 723//
  333 81/13 86/19 90710 91125=
03008 46/// /2621 10057 20019 39925 49998 52002
  333 90710 91131=
03010 46/// /2618 10060 20024 40015 53006
  333 90710 91130=
03014 46/// /2826 49986 51002
  333 90710 91134=
03031 45982 /2615 10021 21025 39725 40055 53007
  333 553// 20000 8//99=
03034 45579 /2310 10049 20010 30036 40049 52009
  333 84/24=
03037 47772 /2006 10029 20014 30038 40061 50006 723//
  333 86/50=
03039 46/// /2324 11017 21022
  333 90710 91128=
03044 45684 /2308 10032 21006 39938 40038 53007
  333 553// 20000 82/41=
03047 45684 /3001 11004 21024 39771 40081 53006
  333 553// 20000 84/39=
03062 45784 /2109 10013 21003 30043 40048 51007
  333 553// 20000 81/50=
03068 42784 12308 10009 21027 30041 40050 52007 81500
  333 81650=
03072 46/// /2820 11029 21057
  333 90710 91131=
03080 45981 /3107 10013 21030 39884 40057 51003
  333 8//99=
03088 45984 /2404 10015 21032 39894 40060 52005
  333 553// 20000 8//99=
03105 47769 /2512 10051 20028 30070 40088 51007 723//
  333 81/50 85/59=
03132 45876 /2806 10031 20022 30084 40098 51010
  333 86/57=
03144 45981 /2210 10017 21002 30037 40080 53009
  333 553// 20000 8//99=
03148 46/// /2712 11011 21014=
03153 47459 /2605 10022 20020 39954 40094 52011 710//
  333 553// 20000 81/12=
03155 46882 /2007 10006 21004 39787 40090 53008
  333 81/57=
03158 45983 /2403 10008 21007 39940 40079 52009
  333 553// 20000 8//99=
03210 46970 /2806 10039 20039 39946 40099 52013
  333 87/59=
03212 47/59 /1202 10027 20022 39998 40099 53013 720//=
03214 45964 /3305 10053 20046 30077 40095 52012
  333 88/58=
03220 46973 ///// 10023 20023 30058 40093 53012
  333 8//99=
03224 47/05 /2603 10011 20011 39740 40092 51009 732//=
03225 46979 /3001 10030 20014 39788 40098 52014
  333 553// 20000 88/58=
03226 45965 /3603 10031 20027 39814 40093 51014
  333 87/58=
03227 46/// /3015 11015 2////=
03230 46975 /2804 10006 21002 39827 40089 52009
  333 81/71=
03238 47958 /2707 10026 20021 39904 40079 52009 710//
  333 81/74=
03261 46581 /3208 10063 20046 30044 40084 52007
  333 81/20 87/28=
03265 45684 /3106 10065 20041 30055 40085 53007
  333 88/31=
03266 46561 /2905 10069 20060 30065 40083 53007
  333 86/26 83/60=
03275 45267 /2905 10049 20041 39886 40080 53012
  333 81/04 87/59=
03281 46/// /2405 10048 20048=
03901 45980 /1002 10008 20003 30017 40107 52009
  333 55300 20000 87/59=
03904 47483 /2403 10013 20005 30045 40106 50008 723//
  333 81/11 87/59=
03907 45982 /2211 10021 20004 30091 40098 53007
  333 55300 20000 8//99=
03911 46982 /3005 10013 20000 39827 40106 51006
  333 81/61=
03915 46980 /1703 10021 20003 30019 40098 51007
  333 81/62=
03916 46983 /2203 10015 21006 39907 40101 51008
  333 553// 20000 8//99=
03923 45982 /2703 10019 20006 39907 40107 51009
  333 8//99=
0000414700
771
SNUK43 EGRR 110100
AAXX 11014
03301 46422 /3009 10050 20038 30042 40116 53018
  333 82/11 85/23=
03305 47560 /3105 10050 20023 39848 40112 53014 781//
  333 81/25 87/33=
03313 46675 /2802 10044 20036 30011 40106 52012
  333 86/38=
03316 47665 /3109 10063 20046 30088 40099 51012 723//
  333 81/31 87/36=
03318 46/// /3305 10057 20045=
03321 47472 /3108 10067 20051 30091 40104 52013 781//
  333 55300 20000 81/14 86/23=
03330 47050 /3007 10052 20052 39736 40098 53004 761//
  333 87/01 84/19=
03344 47270 /2805 10047 20039 39770 40089 53010 723//
  333 82/04 85/17 85/50=
03346 46/// /2711 10055 20051=
03351 45681 /2805 10062 20055 30054 40097 52013
  333 55300 20000 87/35 85/57=
03373 46478 /2314 10074 20060 30018 40088 58003
  333 81/14 86/24 85/58=
03379 46580 /2317 10078 20058 30018 40095 58005
  333 83/23 87/60=
03382 47445 /2310 10075 20063 30069 40078 57002 723//
  333 55300 20000 88/15=
03385 46664 /1914 10067 20060 30077 40087 57007
  333 81/31 87/50=
03391 41480 82009 10074 20059 30087 40094 57008 76166 885//
  333 84618 86625=
03392 46568 /2017 10069 20061 30091 40095 58010
  333 86/29 86/36=
03405 464// /2817 10063 20036 30008 40125 53018
  333 553// 20000 81/16 86/30=
03409 46/// /2505 10059 20046 39904 40105 52007
  333 55300 2////=
03469 47677 /2118 10070 20064 30097 40100 58009 761//
  333 553// 20000 86/32 87/46=
03488 47677 /2214 10072 20058 30080 40106 58006 781//
  333 81/31 84/41 87/50=
03503 47480 /2704 10069 20064 30037 40115 53009 723//
  333 81/11 87/39=
03520 46562 /2603 10065 20061 39988 40110 53001
  333 553// 20000 81/26 84/32 87/46=
03522 47259 /2404 10072 20071 30021 40114 53001 751//
  333 83/04 84/36=
03529 47474 /2009 10082 20064 30069 40112 58004 723//
  333 87/19=
03544 45667 /2105 10073 20058 39975 40106 58006
  333 553// 20000 86/30=
03560 47684 /2111 10072 20061 30008 40112 58008 723//
  333 553// 20000 87/47=
03604 46584 /3009 10056 20039 30075 40129 53016
  333 81/27=
03605 46665 /2812 10075 20066 30117 40125 53015
  333 82/31 86/50=
03609 46/// /2608 10078 20078 30076 40128 51012=
03628 47456 /2211 10081 20070 30047 40119 56003 704//
  333 55300 20000 81/10 86/31=
03647 46462 /2111 10064 20061 39857 40113 57005
  333 553// 20000 81/13 87/23=
03658 46580 /1610 10071 20063 30055 40125 57006
  333 81/23 87/50=
03660 47264 /2108 10062 20058 39876 40126 58006 761//
  333 82/03 86/50=
03672 46556 /2206 10073 20060 30091 40132 58002
  333 81/22 87/31=
03680 46/// ///// 10065 20058 39969 40126 58005
  333 553// 20000=
03684 47662 /2109 10070 20062 30020 40126 58005 761//
  333 85/35 86/42=
03693 47574 /2212 10082 20064 30133 40135 58004 723//
  333 86/23=
03707 47563 /2511 10077 20065 30124 40131 53008 722//
  333 82/28 87/37=
03710 46149 /2808 10054 20054 39706 40129 51003
  333 553// 20000 88/02=
03743 46469 /2005 10075 20069 39967 40128 58004
  333 82/12 86/37=
03749 46363 /1906 10075 20067 30019 40130 58006
  333 85/08 83/17=
03761 41365 82010 10076 20068 39987 40131 58005 76166 885//
  333 55300 20000 83707 86615=
03768 46458 /2008 10075 20068 30053 40132 58005
  333 81/17 86/32=
03769 47364 /2006 10075 20065 30055 40137 58004 757//
  333 55300 20000 87/08=
03770 46/// ///// 10078 20062=
03781 47258 /2007 10068 20062 39929 40136 58006 758//
  333 553// 20000 87/04=
03784 46/// /2107 10077 20067 30129 40133 58004=
03797 45468 /2110 10071 20049 30082 40142 58006
  333 55300 20000 81/19 85/60 86/69=
03823 47568 /2906 10055 20053 39893 40139 52008 722//
  333 553// 20000 87/26=
03839 46/// ///// 10083 20070
  333 553// 20000=
03857 45664 /2417 10094 20079 30074 40138 54000
  333 85/31 85/44 90710 91125=
03862 47771 /2209 10094 20083 30122 40134 57003 723//
  333 55300 20000 87/50=
03866 46/// /2315 10096 20084 30114 40138 57005=
03872 47463 ///// 10089 20077 30132 40137 58006 723//
  333 553// 20000 81/14 83/50 91018=
03876 46/// /2510 10085 20072 30141 40144 57005=
03895 42256 72106 10080 20075 40157 57001 876// 333 87704=
0000009600
772
SAIN90 VEAT 110100 CCA
METAR VEAT 110100Z 00000KT 0500 FG NSC 08/08 Q1015 NOSIG=
0000105200
773
FVAU01 ADRM 111146
VA ADVISORY
DTG:  20140111/1145Z
VAAC:  DARWIN
VOLCANO:  SINABUNG  261080
PSN:  N0310 E09823
AREA:  INDONESIA
SUMMIT ELEV:  2460M
ADVISORY NR:  2014/46
INFO SOURCE:  WEBCAM, MTSAT-2, WIII
AVIATION COLOUR CODE:  RED
ERUPTION DETAILS:  VA LAST OBS TO FL170 AT 11/0430Z TO THE NE.
OBS VA DTG:  11/1145Z
OBS VA CLD:
SFC/FL170 N0350 E09830 - N0320 E09800 - N0245 E09830 -
N0320 E09855 - N0350 E09830 MOV NE 10KT
FCST VA CLD +6HR:  11/1745Z
SFC/FL170 N0350 E09830 - N0320 E09800 - N0245 E09830 -
N0320 E09855 - N0350 E09830
FCST VA CLD +12HR:  11/2345Z
SFC/FL170 N0350 E09830 - N0320 E09800 - N0245 E09830 -
N0320 E09855 - N0350 E09830
FCST VA CLD +18HR:  12/0545Z
SFC/FL170 N0350 E09830 - N0320 E09800 - N0245 E09830 -
N0320 E09855 - N0350 E09830
RMK:  CONTINUED ERUPTIONS TO FL170 ARE EXPECTED. VA VISIBLE
ON WEBCAM AT TIMES DURING THE DAY. HEIGHT DERIVED FROM MTSAT-2
VIS OBSERVED ASH MOVEMENT AND MEDAN 11/0000Z SOUNDING.
NXT ADVISORY:  NO LATER THAN 20140111/1745Z
0000017000
774
SOVI10 KWAL 111146
B110070A 011114601 P9751095 B\P~W@@j0ekK1@m`???CgCh>@mm3@KC}@[4Cs5C{6bW9J?<BM2?????@"??? nTKkKBiBdBaBZB_Be:AMPTEMP 25.85C  46+0NN 219E
0000015300
775
SAYE20 OYAA 111200
METAR OYAA 111200Z 15012KT 9999 SCT020 27/18 Q1014 NOSIG=
METAR OYSQ 111200Z 08016KT 9999 SCT018 SCT030 29/20 Q1013=
0001364600
776
SFUK45 EGRR 111125
~+R SFUK45_EGRR_111125.DAT }ݮ&Ǒ=b"d\AK\ E)oȪ:]`s&72?_?_SOݏ?~/}O.ӧ?ď˟W_}ݯ_O:o~~۷7ϟ~o=۷*Zo日mzo|>{}F}o=6F,`ywhk27g h׷jmUVk=݇-L>^	t{~qGo[<q'Y*>U%u,[&qڌi3l9_Ltq޴75kS:S=QWĮ`Mk1]bM:{mζyxw#2mwȐm e\WX8V{X6X[ a<1\]{ Z {L%nͺV`zՁB~7|Z\r##;ė8-%;k,IeC3f,,`V	~y/zk}u(k#b=x:5pv+#޲qRX{|\a^[KXK[&,(aܹƝ.:<lbsҳ4_'	U$%{zs&5Y[ClЩz1+Eǯ{7Os-z+XEڶAidrPV4)w-UgaBjEZ&,$'b=8T4SjMg5Lb^ǑQcq6^@aK*eTkMP!)rm>ÂE̡|ө9t?,9|84lq*iЦ5lkaFZG߬
aA  ]t9,D6@p34 [U8*jBsl*ºދ5JѷN
BO	7據?W^@vhMhEo
`{7>d58Ođ]LNEz. 6ka߸UO r%^cm!p'lX6l1:D#{7s_n˗]e!6eQ.`fW<6>-pvo
}Mc PÿxlMZpGR.s ^u*d fuҽBH]l`}iH\j4WK3g<^F>adҼ@WlLv8PWZѣsGq`~`-[5jvTt{y :\Q1KBkU
ゆ]+|],tGzskD#84*pz=#O=m aSTs2K0ی9'hHiH=}.lצי?~ա>яg0-Q7&,d(Q4ًB`hXIjn Eζ.l܍*eH.vMGce(жݒMڽLZ|h4('\uD[kXdh>d~bW/c/wDL>{QFzxH82xhC]o^6k@m@͢x2SHҿ<K^_8T妢s%͡6QDS	Pωuh"Q<XUӒs;#tojGڨ阁S	Y`[_$VHxԩ/L$JC
>XBMͱ)m8]DBʟ8wgfG㶵NDWJ<6GƄܺ"IF03+ĭXC|A3<.q\Y[^ji{ѧ?ђB94O G	{vp0Ig(nQoʴdP:?pdOlTsM}3%)+xx-!>G %{Y abY(c-`Yh=Q=Q=^@{n"\Z6xgïk 4ЧEJ#6z{4)D
@܊zytBwmPxṩC+4F8d8Fcm|/8u3B%zEoLaUv<:( :18DmDE֤4OoiyPi9iq<g<ocL3iHVIOS>M(5vpUR8Ӡĺ^U8hUBX:4FN+*LYKC6a#\{gF2`"q[卪M% ¶6"XuE$?N̖*]'i!pw
68kCc5OK(xC}zɄ훺d^V,5uCpFJdKib{GL O@Ke8ⶐwUL #9eO*U,m!&<jt@xuGZU<moY"5\<DH {_(i%K԰nĘJҘÀ=R6t3jjE@#\(靈 F*LFf&*b.E08{q=gJ,z?0jtUwJ8BU;Ϭ`Q<ڎ*a2  HjƆJ}ei8d1XsvwȓZ=/K*nu#&G.f?p':	S,`@RO ~G K:XD8pߪ(7DGIKw>хEPbUQ,d(JVd'MG#6U.nN_	RUZU[X B!Oj|FR+0vlgez"5F ֢ o0jzX6EWJÓmCUtE؂yphg6_8GTdmGm-m`BYϾ:K+RPTFy"5&ZMPp0oZ30Ci·1ԥ}*x]B)2|6ѻ'\0ڊo%b_X~jSbmn¬2Th8X{+2a~ƚ
bL# FbEu'1j#]glf7$e'ά'=BۤY"oS>iSQٌ7>URQ7Y6x;he0Aa0ZLL]U^.e Ҡw砮&.	P.KJI_w<e'-ϩ:8MFUެ}t K\ITގڥ|X0LSjfSa0Ce/b~-SՖPa<>3~+qShw)-*r(,ʸfGkLɜSQ\vHVHü-蝙DMoåYkx>M7~2TVCQu#H^BH{34̢
ꗲU5@]Xp,lA Kܐ\Uxv=<c^$;gߦjdkх4ǒk~	ZeU@a>KO\>@UH`0 A
:u_ycx0n#K{{g?&t8jMI)YԈA0lP;5<Y@Q+3otLΕd"$Ny@>OD V'NbiAdRFR3swI>J7tkV>͘VJ
B
nHDJ+1Do3֥ur~ԚK;Qc|}#jQ[0grQPڗJN#<QnQ_tyāF%f+VNNւuL{KƒNkDn+	#!gX;뷊ԥ'<gGzabye/X١zOf"!d8()&+pKt#Bl^bUIav0-:G`~3Jh#wL$uLur񰂰qf%>S_9eNHYXvZ|u6)vt6s}򿌕dXuvIö"Z$}e,[)tUz0,t*8v$7+ ͢XKWw25Df[?ݓ#)ǫޢi}Ee/{~4El,@
6WiLGgԺiEHH2 J"y؋]?o;qJ?yr,)25eޞ܃Ur)"\L/7.Vtd؈WV,5 -r~TĿv3rKz+]v8
Nd/7.?uElixjd0F>gMo5=8YzfOWdOUXKHG_1\JP1udJp&`!fvr䣐EBG<\_0Ө$,
bn{\[қɪ;<B<|fn,aQ+zL<6MM$v	VyșB/[4uRSEZ ht✉:s"@j,/%Aڼ^2s-)mCfG-v*^|pVWکs7K/͂F="c.utsaXH|%*CKZ5yQ!j%0ѠIڍ[q%!ynFYLd\$h6C CNĝ/N!ֱ]$}0H\iY4/sPj7y&\zz=pܧtݚA5F@7ÞwaH68x|B^ՐG^JեdZ	IS]4kCPG̃L<jm>ihì5io0\l>D6@_vקG'f]U"Ou!ZN+$ߙ*,
%]M27YdUCɆ2T΅):_y˨!jb I܉i$l5Kn_֦"LHd, J*ȚX$cS%M!B*Us/$@n*~RbM<>[LO]<,Ђauޱ8NJXra\'EX] faNvÉ"JESބ@&<r|L'.9w}0ۭ9g4FЋAӾp~\YLeǔK7DJ=)Jw?$~%Lf|>Oۯ-KF0c]^R̰X^`؈\' q8fObp|~[\G`K86EW%Xibq6Wv{.akRQ*ߖSBѻY	bE$&0¨5yqh,R{XOLGw#ISP<)%~d"O<QCئ;q*7	3Gfp
D#TlÍz:W8h߰G^;X*° "k)yQz|`,6u&aM7}U
_*##q20ix6<NϙgWtVrIE&"5Is󼷦CyhX:|o^-3Iq
HNOTzWը(l<F/(SGBvX%$ O.TM$@v8Vu|X`e-+Zڛ+3YHcGRхmG*Ɓr{c9DgzxZ9)H?3-/P8zb`p(WeyU5-5"Uoj[-9ds|AMQI?e_#yRPZk0Twأ
:~(j:!)4+-26VF ϱFLBE r"]ړ.55-V瀰h+b@#ˁ6T}'PZ]El=gҊ¾ÒVBR÷'lSi&oI
)BqO $hu68ĈZS&Ec^,n#[HHwX<~aΌ:Z&kpB]lrO~B@z߀*4$iٌ#/f;IaÙQB8~:K),BezptY/qy٫]wi,3cfYJmn6Do99-f-U\1T`T4ku)%C7/d9Y_Θ- }dF(5x6H=5s,՘gzv1JiMIvހc:MI6&9ދ'3g'=kxl0#$,a3?qOXoh=Z>V,VG=\k?%yU13Ey2I@y0"Nh|?QxDRm(9ɦ6\(㵒VjvH$Ff>!d^g8R]_-gW-iT8pGIQm4
Mi#
O$4dEP,x8&&_z{TuIKyebjaq2<Ee^ӣo3ZSp NQU5;T;CkJ\_ǸdL&[Y'EG#1sB§g2~+z/1%H?'L[gV'l硡|y.FLsƁo&^{|_wʠ1^=3H^Ywg)P&ܳq_8p3aBg;)9%&MR D"4
XJ
e<X$0ms`J	oad?hYʑOd3GlKCC;i	7/;68Mie|N,"b`݅GI"sI} wlJJD:n^@.BTFQ0zEU(9X^ttKۗHE(J<1r%P3ҪWzȅ3zt,=tj[1i#(-mb!/w3苽̹Z]v@z얟yw]K5.wɵ7fuX NG<7SeTF$3g̨[zٖ|gaɘ˗AK1)SpN̘FlU!pͶyQY6BNEʻ#7(ROLx*TQ&W,b9&#!n@[2>|NN^yB0gi1#`	/,"=f	vCO5pR2ivɑn}w<-/?I}嚿pN
VKUOMԛ3në|'m=rٲָwoW|gb:9WG?,'̾SZ%)}qÿhi:B'mM r1XOnKU7ތXN㑭ܵ*U3QĺRSL\-`łNa摲K\i}
f%ڳޙE!OfABČhz&GBqf-OvpmQ~s#lX\4M:G>h;F=b]ZXyہ<hR)]
88F^]7Agsu%;lI2n[ԟ	(՘3ͭ<$۪=C%8ΰ2MӋһޘ|2asHp誨!r3fssڡFȞ<S1ef?CŜR	&qě^b>y5d;HRΫhz}g
:Yv㜯vϣS!\y15cz86'ZSC)cYLg:-uDUTH`SE'>*zZ'<J4=N6ǚ˺z֦K<MPG5@)6imoAL|qH/x3'+i1"x&n48 M"CzѮ'%i]U2D3zL |9ɼu
3iI-'IxϾet;dmAE?2pAB"%ز9sVw21\8R6P۝߆TL)KPvs0Aݪ=?tv8/p<ӘgS^}@GTF4{ZUigMٜY\W'A@3uGN)ҪFV2_{҉!I>PviPQHpllcAc񃹸ukCSllF4fk{BNͺ\O9TGdXpf/u9S	+sʮ`sl6 RGK-4CGyqAHpS<lϵ` vxjv~엗2N&#PÂ#N퉩UzF;k0fftLI,&=K9Q;2:}ɡg!PsMH5TFy%~o[ace\ԶФ1pxL-}2r35WꈶV7#JgǙKF_6b硒|$~-s!1^VZ`zc99MK]A̠w8^ڊWbMؓu5b3.}*Fmw]edY3Z9
ի 3_jo3l5vpG1
I("t՛f5Fȭq2EQᚫe15wy;q	ǩ1`1t_q~c +_H5Z=gRgmЋGی#{QNMS#8=d066)+3Y*`gC.LFڿp>OeƉI;pw^ّ:Hi:-VQҽ 9U.j^:T R)㉙,E08cIa<xkǸ` Oʙ2$ߤڑ;_@gJs@fpz7\Qk;CD#ps^8e|PSݗ{Hk>elYko+z4<;xcg<<)g,_
|Xuv_.K'rvϳn/um+2G:SW阗+s歩˅叭m&ƭ+-'py?gFz?1M+ҚwW5* -\S*]p71-$v:&`H2w)I˶86/&jUXgQ RevoHّeܼhIo{#B#͎84r8YE(,/}ʶ+VڋqZZGnr*Սᮩty+pyYiMgMHQTۮrwQ׫5IpoGh;Dp̨CSzFܻks.#ȸ2Q}+/lꜾ}Vݣ%FO,"[ƙeo1)bE1TxmF	' 9֮![9wSL.G?rp2H7|BM25mK%bF}u >܈~}dїl!aݵ}ߢ+~%=4|*)M:-)Rα;JXtERlڈ- =g ]=kPG]2#7(/[WEk18'.M]^,81(<R欋r[dHҭXLcxb;Od1:+PGyݡ$$NUk!JuP䣽G8J~ZQ*egcdJtY]ݡ+JTWIM̞e'kVN>nozx\x %[$YL>yaYNkڊ˸0N\A+~E(RbɎާ=hl!	\FR=,ӦT63v x)\AJyatF201Xu6eazѤI5{dU,f/[mCE5[졞q.Lĺ<Xkِ ;fH]f;pT"`/Y	0=gI7%{"aQ5MBH7u{t[Ը$5
<iISe%gS?93Ace,jesz./t$hˇ^#,m[v$l8S}'5<RqFqj#zfB{\#O#9,G_13Tlp8="u.yD5R΅g"̎fHuEPsE4[c";cKV1)%'Eu7goX'MfI$a9CnQ+iIR"Alq2+ⵡ%eN~?S[9ٷ3YU1zhpIBj/++0]zF
8oKs"͢Ib9Aq
&-e(OҲUFt<Wj_ѾnDo#oӗld@sM9_vu4LSU,n.za\,4g"J{+<f<%`㲶X 7.$ފ',"U(}L	Dz%5nڪ'<DQc.Rgǟf5
Tudr,DPK&C}enܰӉ$?$ yOfW/8܄sa|X|qezh B=plXiRqM'O/n$J[F&f>fzmҿ^
	(؉̰L2lN Gx&E/5f!׌YQ/'2N3Xuq5	ZrT)L댙wO:U{%fKS9C^nCو70$*3ɍ0P{>L,n# -0[YcһA
ƋID:BXu7vLŴH/ӫR^l3-$ufHvܥъDb "Kf <xݸ{>wX@cOB!75\^:ٛR0mh7Ks%9oXB^Wv9QOݵ*m]<)#bDI$plENN7תQsSYT,_]9;Na93g&kábmIۑkLD")֘H1c.^z$,ϫ"1ǪI=ZalH+~fD& v6=8'DR9ױW5RPf*+A?ɑbdoʴ6]om5(NH^ȼ,6	4<'Nty'
IK-Qq@nG#~(sG#"V>A:a3t+8iʯP&4&r;yO==	tc٥ {H6^c:dXJ?IJ	B)e7=KaG1+uN<ɳkO&7j%kr*m-Z9~\jwE%2vK/\+mvyUhZ
;eKOgRFL\nxSFu38#!eQԢL>%2qI,3G_X@dó5h٩$`{Hdis=.Gr=:]Cq3c5"L%X&f/M2Tҧrz1L%}АiQlL}-MGe:|CƓlĨo	xPF_[ZRzғxXD=(d7nҝcm?oŁl`k ;:-=1ExO nBD`%2r>mG	G|5dEhgZ̩v#k^j_sfc?Bި>ް;q39e*5m[Wg_exѓO;31]lGeƣx%ZVۅ:FiCe.p&w$M9.WSk&QoGH}s]./Ўt(>^HO1z~qzόօseW{Ҍd2шI,yx[>]8]{43n7Gh/7Bѽ+M=9nBXGBLu)NUĭ(&;15rx=^_Eg%8$:SYgN *>֮>8Hn9^w.\qZ6JИF7*;6c)_&uVuGf Kr
;]ccq+(C}Gnw^I۲iaSVfոLQ>ml֋.Vf?E|ȒulŭrO<c C
QeլDq{'r.
)>/>ۯ>}71_g>?~_~o_'?۟>oۧ~?so|wo~/kj<  
0000037000
777
SFUK43 EGRR 111140
/R SFUK43_EGRR_111140.CSV uj0E1taǄnUpcVjˋ}B)Th{/3#5]xrL~)N3~'*LXD6eOD,Ӆnwܬ<ևG%Yݒr5dzu~Uc76%7}L''^dȥ

c&(%e\b@E#7&P8cz-#TI.!`#3=r( l-RTçt1or&F~ Ԑ  
0000009000
778
SAAE31 VTBB 111130 RRE
METAR VYMD 111130Z 00000KT 7000 HZ NSC 23/16 Q1015=
00000000