0000008300
812
UANT01 KWBC 110209
ARP FWI556 2500N 6000W 0200 F350 MS51 292/050KT=
0000064800
813
SNBX43 EBUM 110200
AAXX 11021
06418 46/// /2207 10046 20027 30142 40154 56007 333   91111 91207=
06434 46/// /2203 10040 20023 30149 40170 56008 333   91106 91204=
06439 46/// /2303 10040 20016 30156 40170 56008 333   91106 91204=
06447 46/// /2204 10040 20022 30040 40167 57009 333   91108 91205=
06455 46/// /1802 10047 20035 39877 40164 56009 333   91105 91203=
06464 46/// /2304 10042 20042 30131 40159 56008 333   91108 91204=
06472 46/// ///// 10027 20027 39815 40181 56013=
06477 46/// /1802 11017 21019 30119 40171 56008 333   91102 91202=
06484 46/// /0801 11007 21007 39785 40191 56012 333   91102 91202=
0000025200
814
SNBX42 EBUM 110200
AAXX 11021
06414 46/// /2004 10045 20021 30123 40156 56009 333   91108 91205=
06459 46/// /1903 10025 20025 39980 40177 56010 333   91106 91204=
06494 46/// /2004 10007 20001 39366 40180 56008 333   91107 91205=
0000083700
815
SDTH20 VTBB 110200
FFBB 1102/ 48300 NIL=
FFBB 1102/ 48303 00000=
FFBB  1102/ 48327 00000=
FFBB  1102/ 48356 00000=
FFBB  1102/ 48378 00000=
FFBB 1102/ 48381 NIL=
FFBB 1102/ 48407 00000=
FFBB 1102/ 48413 NIL=
FFBB 1102/ 48417 00000=
FFBB 1102/ 48432 0/0/0=
FFBB 1102/ 48456 00000=
FFBB 1102/ 48475 NIL=
FFBB 1102/ 48478 00000=
FFBB 1102/ 48517 645/3 654/3 745/3 755/3 61616 644 653 742 7512=
FFBB  1102/ 48551 0/0/0=
FFBB 1102/ 48565 00000=
FFBB 1102/ 48567 NIL=
FFBB  1102/ 48568 256/5 265/5 276/5 345/5 356/5 366/5 375/5 435/3
445/3 455/3 465/5 474/3 555/3 565/3 575/3 585/3 655/5 665/5 675/5
685/3 755/5 765/5 775/5 854/3 865/5 61616 252 2624 2713 341 354 3612
371 4312 44123 452 461 4713 5534 5634 5713 583 65234 66134 67134 681
75124 77134 8524 86123=
FFBB 1102/ 48583 NIL=
0000018200
816
SNVD01 PANC 110100 RRG
BBXX
WCZ7337 11013 99603 71466
41/97 /0000 10006 2//// 49939 5//// 702// 8////
222// 0//// 2//00 3//// 4//// 5//// 6//// 8//// ICE /////=
0000137100
817
SNVD01 PANC 110200 RRA
BBXX
9HJD9 11024 99436 50642
41797 53607 10160 20160 40180 52010 7//11 85277
22244 00160 2//// 3//// 4//// 5//// 6//// 80160 ICE /////=
WECB 11024 99327 71172
43/// /2602 10163 20087 40189 5//// 7//// 8////
222// 04149 2//// 3//// 4//// 5//// 6//// 8//// ICE /////=
WSQ2674 11024 99327 71172
43/// /3201 10155 2//// 40182 5//// 7//// 8////
222// 04152 2//// 3//// 4//// 5//// 6//// 8//// ICE /////=
C6QM8 11024 99252 70800
41598 31213 10250 20232 40195 58015 70200 835//
22244 00260 20403=
KAOU 11024 99064 31050
43/// /3311 10268 20241 40116 5//// 7//// 8////
222// 04298 2//// 3//// 4//// 5//// 6//// 8//// ICE /////=
9HJF9 11024 99088 31153
41897 72704 10270 20270 40130 5//// 7//// 87766
22273 00290 20404 32727 40404 50404 6//// 80270 ICE /////=
KAQP 11024 99098 71043
43/// /0612 10271 20205 40103 5//// 7//// 8////
222// 04272 2//// 3//// 4//// 5//// 6//// 8//// ICE /////=
9HJB9 11024 99197 70678
41598 50824 10250 20207 40210 54000 7//21 844//
22275 00260 20706 3//// 40806 5//// 6//// 80220 ICE /////=
C6VG7 11024 99208 70867
41797 61620 10280 2//// 40159 51006 70211 8626/
22214 00280 20202 335// 4//02 5//02 6//// 8//// ICE /////=
3EUS 11024 99338 70767
41/97 /1135 10220 2017/ 40220 54000 700// 8////
22214 04250 20506 311// 4//// 5//// 6//// 80190 ICE /////=
0000009000
818
SAER41 OMAM 110157 RRF
METAR OMAM 110200Z 12010KT CAVOK 16/07 Q1017 A3005=
0000038800
819
SNVD01 PANC 100200 RRI
BBXX
WYR4481 10024 99458 70871
43/// /1214 10007 40039
2228/ 00003=
WCF3012 10024 99431 70824
43/// /1616 10026 40110
2221/ 00426=
WUR8857 10024 99452 70869
43/// /1318 10009 40039
2221/ 00018=
WYP8657 10024 99460 70839
43/// /1209 11005 40089
2227/ 00001=
WYQ4356 10024 99461 70840
43/// /1310 11001 40086
2227/ 00001=
0000086800
820
SMPA01 KWBC 110000 RRB
AAXX 11004
91165 12966 00315 10256 20194 30105 40140 69981 92353=
91212 12566 40616 10283 20217 31401 40135 50012 69901 92354=
91285 32566 40507 10261 20200 30110 40122 58030 92353=
91317 11473 70915 10283 20269 30105 40109 5//// 69954 70282 82902=
91334 32474 80310 10292 20243 30102 40105 50003 82171=
91348 11474 51009 10297 20239 30056 40108 50005 60044 70281 81101=
91356 11466 80316 10288 20249 30085 40092 5//// 69954 72522 86242=
91369 32474 20918 10311 20271 30075 40078 82100=
91376 32474 60311 10301 20226 30080 40083 58005 84801=
91408 11474 81007 10271 20242 30071 40109 52025 60164 72582 83378=
91413 11469 80812 10286 20251 30095 40120 52025 69954 70282 83371=
91425 12474 80404 10306 20289 30101 40102 5//// 60104 82208=
91434 11474 83604 10289 20259 30088 40089 5//// 60134 70282 882//=
0000010600
821
SMPA20 KWBC 110000 RRB
AAXX 11004
91353 32474 80509 10311 20253 30093 40100 5//// 83208=
0000101800
822
SNVD15 KWNB 110200 RRG
BBXX
41046 11021 99238 70683 46/// /1009 10257 20191 40229 51008 90150
22200 00261 10905 20704 3//// 40902 70025 333 91211 555 11095
22101 30131 41012 60149 097090 098094 091089 094093 090096 095092
80810 90108=
42060 11021 99163 70632 46/// /0710 10261 40172 51018 90150 22200
00267 10605 20604 308// 41002 70023 333 91212 555 11108 22114
30119 40713 60149 068101 069101 067102 068100 070105 070098 80711
90129=
44064 11021 99370 70760 46/// /1404 10076 40234 56018 90200 22200
00062 10301 70003 333 91204 555 11043 22046=
44062 11021 99386 70764 46/// /0403 10024 40242 58019 90200 22200
00028 333 91204 555 11034 22036=
44063 11021 99390 70764 46/// /0402 10016 40230 58018 90200 22200
00015 1//00 70000 333 91203 555 11024 22026=
44041 11021 99372 70768 46/// /1204 10054 90200 22200 00041 1//00
70000 333 91205 555 11044 22048=
44042 11021 99380 70763 46/// /1002 10042 40230 58020 90200 22200
00036 1//00 70001 333 91203 555 11025 22028=
0000043300
823
SNVD22 KWNB 110200 RRK
BBXX
46089 11021 99459 71258 46/// /1810 10102 40077 56046 90150 22200
00091 11508 20605 325// 41507 70042 333 91212 555 11103 22111
30116 41814 60149 178096 183097 184099 183095 183094 182091=
46053 11021 99343 71199 46/// /0802 10152 40176 53006 90150 22200
00159 11303 20401 327// 41303 70016 333 91203 555 11016 22017
30149 40903 60149 083016 085014 108014 097010 083014 082013=
0000046100
824
SNVD17 KWNB 110200 RRH
BBXX
46076 11021 99595 71480 46/// /2905 10028 49923 56012 90150 22200
00061 10904 20401 3//// 40903 70018 333 91207 555 11056 22058
30110 42908 60149 290054 282058 277061 277058 283062 285064 82807
90110=
46077 11021 99579 71543 46/// /2803 10023 49959 56012 90150 22200
00045 10902 20301 3//// 40901 70008 333 91204 555 11032 22033
30122 42505 60149 275031 264033 257039 261040 268038 274038 82604
90112=
0000026100
825
SNVD20 KWNB 110200 RRG
BBXX
44059 11021 99368 70763 46/// /1503 10095 40228 56018 90200 22200
00072 333 91204 555 11032 22035=
44058 11021 99376 70763 46/// /1604 10061 40233 58022 90200 22200
00043 1//00 70002 333 91205 555 11047 22051=
0000015200
826
SNVD20 EHDB 110200
BBXX
MGGF9 11023 99226 70869 41/98 31528 10260 20223 40152 54000 70200
8//// 22233 299// 3//// 4//// 5//// 80235=
0000003800
827
SNVC20 EHDB 110200
NIL
0000016200
828
SMVA01 KWBC 110000 RRJ
BBXX
PFBE 11003 99283 70207 41498 43405 10180 20070 40180 52012 70222
 8344/ 22263 04210 20102 399// 40104 80120 42892=
0000013200
829
SMVB01 KWBC 110000 RRJ
BBXX
AUYI 11004 99128 10745 41697 33513 10270 20229 40135 54000 70022
 8//// 22253 00280=
0000017900
830
SMVC01 KWBC 110000 RRF
BBXX
9VAK8 11003 99031 50801 41397 72709 10250 2019/ 40120 54000 70222
 87651 22200 00250 2//// 39999 4//// 5//// 6//// 80210 ICE /////=
0000034500
831
SMVD01 KWBC 110000 RRU
BBXX
42887 11001 99282 70885 46/// /1605 10220 20212 90000 22200 10502
 70009 555 11038 22041=
42375 11001 99285 70883 46/// /1407 1//// 90000 22200 10501 70007
 555 11056 22060=
42392 11001 99272 70900 46/// ///// 1//// 90000 22200 10502 70009=
42369 11001 99272 70903 46/// /1408 1//// 90000=
00000000