0000010700
296
SAAJ31 UBBB 111200
METAR UBBG 111200Z 30020KT 9999 FEW100 14/M10 Q1012
R30/CLRD70 NOSIG =
0000087100
297
SAUR30 UKMS 111200
METAR UKBB 111200Z 28005MPS 9000 -SHRA FEW018CB
         BKN040 05/02 Q1010    88290060 TEMPO 27011G16MPS=
METAR UKHH 111200Z 29010G16MPS 9999 BKN044 05/M01
         Q1005  250///65 TEMPO 28012G21MPS=
METAR UKOO 111200Z 28007MPS 260V320 CAVOK 10/M02
         Q1019  34190058 NOSIG=
METAR UKDE 111200Z 29009MPS 260V320 9999 BKN033 07/00
          Q1012 02290565 NOSIG=
METAR UKDD 111200Z 29011MPS 9999 BKN030 06/01 Q1011
         26210370 TEMPO 29013G18MPS=
METAR UKFF 111200Z 26011MPS 9999 BKN033 08/01 Q1019
         19010070 NOSIG=
METAR UKLL 111200Z 27007MPS 9999 BKN042 05/M02 Q1016
         31CLRD80 TEMPO 28010G15MPS=
METAR UKCC 111200Z 27010MPS 9999 BKN023 05/02 Q1009
         26090070 TEMPO 28012G17MPS=
METAR UKDR 111200Z 27012MPS 9999 SCT026 07/M01 Q1013
         1819//60 TEMPO 28013G18MPS=
0000013200
298
SPBY31 UMMN 111200
SPECI UMII 111200Z 28007G11MPS 6000 -SHSNRA OVC011CB 01/M01
Q1000 R23/290150 TEMPO 2000 BKN005=
0000009400
299
SAPK31 OPMT 111200
METAR OPMT 111159Z 00000KTS 6000  SCT120 19/01 Q1019 NOSIG=
0000011200
300
SATR31 UTAA 111200
METAR UTAA 111200Z 13005MPS 9999 FEW100 BKN200 13/M08 Q1017
12CLRD70 NOSIG=
0000011300
301
SAAJ31 UBBB 111200
METAR UBBY 111200Z VRB02KT 9999 NSC 10/M05 Q1015
R33/CLRD70 NOSIG RMK MT OP=
0000026800
302
SAGG31 UGTB 111200
METAR UGSB 111200Z 22009KT 9999 SCT030CB BKN060 11/07 Q1024
    R13/CLRD70 NOSIG=
METAR UGKO 111200Z 27009KT 9999 SCT030CB BKN049 11/05 Q1020
 R07/09//70 NOSIG=
METAR UGTB 111200Z 30019KT CAVOK 11/M08 Q1016 R31L/CLRD80 NOSIG=
0000067100
303
SXXX32 EUMS 111158 RRX
16F152DA
OT12 ID:IR-JASK-09 DT:2014 01 11 11 48
:RAD /1 02582 02590 02610 02615 02629 02632 02638 02637 02639 02638 02635 02642 02647 02653 02664 02666 02673 02682 02689 02693 02701 02716 02726 02753 02770 02779 02789 02795 02808 02805
:PR1 /1 -0102 -0103 -0102 -0104 -0103 -0104 -0101 -0093 -0108 -0105 -0102 -0100 -0100 -0094 -0091 -0087 -0079 -0087 -0087 -0073 -0073 -0057 -0040 -0022 -0008 00010 00023 00040 00040 00039
:PR2 /1 01406 01419 01431 01448 01455 01456 01468 01466 01465 01465 01465 01474 01477 01483 01488 01491 01501 01508 01514 01516 01524 01537 01555 01576 01591 01605 01615 01618 01635 01633
:BAT 13.5V
0000070200
304
SXXX32 EUMS 111158 RRX
223412A2
OT12 ID:IND-SADENG DT:2014 01 11 11 57
:PRS /1 01929 01958 02021 02044 02071 02048 01954 01929 01957 02011 01983 01963 02002 01929 01916 02035 01962 01942 01929 01920 01973 01954 01898 01902 01935 01959 01973 01927 01881 01851
:ENC /1 -12826 -12829 -12766 -12743 -12709 -12729 -12806 -12849 -12829 -12776 -12789 -12796 -12773 -12856 -12859 -12739 -12786 -12839 -12833 -12836 -12796 -12833 -12849 -12866 -12883 -12816 -12816 -12829 -12886 -12913
:RAD /1 11681 11646 11710 11725 11814 11770 11714 11709 11642 11692 11710 11739 11692 11663 11614 11720 11750 11661 11642 11697 11720 11671 11681 11643 11589 11666 11694 11667 11661 11626
:BAT 12.0V/
0000013800
305
SMJM01 MKJS 111200
AAXX 11124
78388 11575 11506 10244 20206 30164 40173 60001 70500 81400
333 10310 20245 58009 81824=
0000038700
306
SMVD15 KWNB 111200 RRF
BBXX
41108 11121 99337 70780 46/// ///// 1//// 91159 22200 00116 10803
20803 70014=
42099 11121 99273 70843 46/// ///// 1//// 91152 22200 00220 10401
20401 70007=
41114 11121 99276 70802 46/// ///// 1//// 91155 22200 00230 10803
20803 306// 41101 70013=
41112 11121 99307 70813 46/// ///// 1//// 91152 22200 00114 10902
20902 70012=
0000037500
307
SXXX32 EUMS 111200
12FD90D0
:PRS 1 /1 1356 1383 1383 1386 1405 1403 1404 1392 1402 1390 1392 1381 :RAD 1 /3 5950 5957 5951 5946 5940 /939 5949 5965 5975 5982 :ENC 3 /6 5690 5685 5671 5688 5705 5736 5726 5702 5709 5727 :RA2 3 /6 4852 4843 4829 4851 4867 4897 4884 4862 4872 4886 :SW1 60 /60 44 :SW2 30 /60 60 :BAT 5 /6 13.2 :WTP 5 /6 28.3 28.4 :NAME 12FD90D0
0000041300
308
SXXX32 EUMS 111200 RRA
262D700E
:PRS 1 /1 2618 2611 2548 2591 2531 2548 2613 2581 2537 2587 2541 2486 2503 2491 2524 2498 2509 2490 2484 2485 2536 2494 2453 2465 2384 2417 2402 2363 2445 2443 :RAD 1 /3 4992 4983 4960 4925 4914 4914 4891 4861 4850 4849 4828 4805 4792 4777 4761 :ENC 5 /5 5117 5055 5043 5026 4961 4985 4923 4899 4874 4853 4818 4795 :SW1 60 /60 60 :BAT 14 /15 13.5 :NAME 262D700E /
0000045100
309
SXXX32 EUMS 111200 RRB
16289262
:PRS 1 /1 2264 2255 2240 2248 2244 2252 2239 2244 2241 2249 2235 2248 2247 2239 2235 2247 2241 2230 2247 2237 2227 2238 2227 2231 2222 2231 2210 2219 2221 2222 :RAD 1 /3 7704 7701 7696 7695 7689 7686 7688 7682 7676 7671 7666 7662 7663 7659 7657 7658 7654 7650 7646 7647 :ENC 5 /5 5073 5068 5066 5058 5051 5047 5037 5026 5020 5020 5016 5016 :SW1 60 /60 0 :SW2 30 /60 0 :BAT 14 /15 12.8 :NAME 16289262 /
0000045700
310
SXXX32 EUMS 111200 RRC
324DF524
:PRS 1 /1 2063 2068 2071 2075 2079 2083 2087 2091 2095 2099 2103 2107 2110 2114 2118 2122 2126 2131 2135 2139 2143 2147 2152 2155 2160 2164 2169 2173 2177 2182 :RAD 1 /3 2072 2083 2094 2110 2125 2138 2150 2164 2178 2191 2203 2217 2230 2246 2260 2272 2286 2298 2312 2327 :ENC 5 /5 1037 1057 1077 1097 1120 1142 1164 1186 1208 1232 1255 1279 :SW1 60 /60 0 0 :SW2 30 /60 60 60 :BAT 14 /15 12.2 :NAME 324DF524 /
0000049000
311
SXXX32 EUMS 111200 RRD
22BF90A6
:TRS 1 /1 964 961 960 974 970 969 977 977 9/5 984 989 981 980 972 974 :RAD 1 /3 4559 456/ 417/ 4171 417/ 4181 4188 4188 4187 4187 :SW1 60 /60/43 :SW2 30 /60 60 :WTP 15 /15 29.8 :BAT 13 /15 13.4 :WAV 10 /10 6.2 6.2 6.6 :DAV 10 '10 101 103 /07/:WMX 10 /50 7.5 7.7 8.1 :TPA 15 /15 27.9 :TMN 720 /720 27.1 :TMX 720 /720 28.1 :HUM 15 /15 78.3 :PRE 15 /15 1413.8 :RAC 59 /60 0.0 :RDQ 59 /60 0 :RIN 5/ /60 0.0 :DAC 719 /1440 0.4 :DDR 7/9 /1440 330
0000011100
312
UANT99 KDDL 111205
ARP UAL125 5407N02248W 1204 F370 MS60 211/73 KT
N13138 DDL H03 111205 F52A
0000042200
313
SXXX32 EUMS 111201 RRE
26CB10AC
:PRS 1 /1 -1336 -1336 -1336 -1336 -1336 -1336 -1336 -1337 -1336 -1336 -1336 -1336 -1337 -1338 -1336 -1337 -1336 -1336 -1336 -1336 -1336 -1336 -1336 -1336 -1336 -1337 -1337 -1336 -1337 -1336 :RAD 3 /3 5903 5901 5898 5893 5887 5882 5876 5872 5872 5868 :RA2 3 /3 5881 5880 5879 5873 5870 5867 5865 5850 5856 5849 :SW1 2 /60 60 :SW2 32 /60 60 :BAT 14 /15 12.9 :NAME 26CB10AC /
0000045000
314
SXXX32 EUMS 111201 RRF
1227146C
:PRS 1 /1 3817 3813 3813 3811 3808 3808 3807 3802 3797 3795 3795 3789 3785 3787 3784 3777 3775 3775 3772 3765 3762 3763 3761 3756 3755 3757 3754 3749 3747 3747 :RAD 3 /3 3800 3807 3792 3779 3775 3763 3752 3744 3747 3749 3726 3713 3687 3694 3692 3685 3683 3648 3617 3626 :ENC 1 /5 4569 4558 4543 4528 4516 4506 4491 4474 4465 4448 4429 4412 :SW1 2 /60 0 :SW2 32 /60 3 :BAT 14 /15 12.4 :NAME 1227146C /
0000011000
315
UANT99 KDDL 111205
ARP AAL63 4906N02546W 1205 F320 MS53 183/78 KT
N371AA DDL XXN 111205 F41A
00000000