0000011400
351
SIMZ20 FQMA 110300
AAXX 11033
67295 42480 63604 10228 20216 39350 48529 83201 333 58017
94320=
0000011100
352
UANT01 CWAO 110257
ARP DAL171 5508N04853W 0257 F370 MS61 293/53 KT
N801NW DDL XXW 110257 J96A
0000010800
353
UANT01 CWAO 110258
ARP THT8 5902N04143W 0257 F380 MS58 247/24 KT
FOJGF QXS UAK 110258 J45A
0000010800
354
UANT01 CWAO 110258
ARP LOT7 5617N04912W 0257 F380 MS60 283/49 KT
SPLRB DDL XXW 110258 L81A
0000011000
355
UANT01 CWAO 110258
ARP BAW40F 5019N04403W 0258 F370 MS58 318/40 KT
GBNLP QXT AOW 110258 F39A
0000011100
356
UANT01 CWAO 110258
ARP DAL116 4618N04837W 0258 F350 MS64 328/67 KT
N175DZ QXS YYT 110258 F19A
0000011100
357
UANT01 CWAO 110258
ARP UAL992 4619N04842W 0258 F360 MS65 323/62 KT
N673UA DDL YYT 110258 F27A
0000006100
358
AAUK99 EGRR 110300
Socket stay alive message.
0000050500
359
SAUK63 EGRR 110250
METAR EGQL 110250Z 25010KT CAVOK 01/M01 Q1007=
METAR EGQM 110250Z AUTO 24003KT 9999 NCD 03/M01 Q1008=
METAR EGVN 110250Z 23007KT 9999 FEW008 BKN012 BKN020 08/07 Q1011 TEMPO
3000 -RADZ SCT006=
METAR EGXC 110250Z 22010KT 9999 BKN012 OVC025 08/06 Q1009=
METAR EGXT 110250Z AUTO 22011KT 9999 FEW013/// BKN050/// 07/06 Q1009 RERA=
METAR EGXV 110250Z AUTO 28005KT 9999 -SHRA FEW027/// BKN050/// 07/06 Q1008=
METAR EGXW 110250Z 24008KT 8000 RA OVC007 07/06 Q1009=
0000012800
360
SIVF51 EGRR 110300
BBXX
62301 11034 99524 70047 46/// /3112 10081 20037 40133 52017 22200
00097 10503 70015=
0000012800
361
SIVF51 EGRR 110300
BBXX
62001 11034 99452 70050 46/// /3107 10119 20068 40177 52004 22200
00127 10703 70014=
0000014400
362
SIVF51 EGRR 110300
BBXX
62105 11034 99550 70132 46/// /2620 10067 20010 40107 51015 22200
00108 10808 70041 333 90710 91132=
0000012800
363
SIVF51 EGRR 110300
BBXX
62163 11034 99475 70084 46/// /0110 10103 20065 40167 53008 22200
00121 10704 70022=
0000012800
364
SIVF51 EGRR 110300
BBXX
62107 11034 99501 70061 46/// /3215 10088 20026 40161 53015 22200
00104 10904 70019=
0000014400
365
SIVF51 EGRR 110300
BBXX
64045 11034 99591 70117 46/// /2920 10057 20008 40033 52020 22200
00096 10809 70046 333 90710 91128=
0000012800
366
SIVF51 EGRR 110300
BBXX
62304 11034 99512 10018 46/97 /1918 10071 20059 40149 57006 22200
00101 10501 70005=
0000003900
367
UAPF01 NTAA 110300
NIL=
0000039800
368
SWIO40 RJTD 110300
:PRS 1 #1 1748 1718 1750 1734 1752 1745 1743 1761 1745 1780 1743 1753
1776 1734 1774 1758 1770 1769 1763 1769 1760 1779 1748 1769 1767 1760
1766 1759 1773 1778 :RAD 1 #3 6129 6135 6144 6146 6148 6151 6148 6149
6154 6166 :ENC 5 #5 5124 5131 5139 5135 5140 5155 5160 5163 5162 5158
5150 5142 :SW1 60 #60 59 :SW2 30 #60 59 :BAT 14 #15 13.2 :NAME 
0650018E=
0000011200
369
SAQT31 OTBD 110300
METAR OTBD 110300Z 12014KT 9999 -RA FEW010 SCT100 OVC120 18/13 Q1020
NOSIG=
0000050200
370
SNAA01 KARS 110100 RRC
AAXX 1101/
89828 46/// ///// 11251 36559 4//// 5//// 90130=
89869 46/// ///// 11036 39934 4//// 5//// 90130=
89866 46/// ///// 11001 39886 4//// 5//// 90130=
89329 46/// ///// 11084 38849 4//// 5//// 90130=
89799 46/// ///// 11239 4//// 5//// 90130=
89108 46/// ///// 11203 37009 4//// 5//// 90130=
89879 46/// ///// 10048 39892 4//// 5//// 90130=
89314 46/// ///// 11083 38312 4//// 5//// 90130=
89314 46/// ///// 11083 38312 4//// 5//// 90140=
00000000