0000013500
359
SNVD02 CWAO 110100
BBXX
SHIP 11014 99468 70712 46/// /2005 11070 2//// 40256 56003 7//// 8//// 22200 0//// 2//// =

0000013500
360
SNVD02 CWAO 110100
BBXX
SHIP 11014 99474 70619 46/// /2305 11031 21031 40243 50001 7//// 8//// 22200 0//// 2//// =

0000047500
361
UKRS12 RUMS 110000
TTBB  11003 26702 00003 04233 11897 03315 22850 05121 33766
08927 44700 14341 55670 17530 66658 17926 77579 23556 88546
27958 99448 36961 11433 38560 22386 40761 33349 46360 44324
48360 55321 49959 66300 50959 77293 51559 88278 55359 99250
58559 11246 58759 22145 55159 33101 58560 44100 58560 21212
00003 27502 11991 29008 22935 29519 33653 31020 44601 30521
55441 31032 66362 31554 77113 31534 31313 52903 82330 41414
75500=
0000370100
362
USCI01 BABJ 110000
TTAA  10231 51463 99925 11558 22505 85594 05364 15503 70090
14166 32006 50556 30363 32008 40711 42962 33510 30899 57760
35011 25012 639// 31012 20149 585// 29018 15331 561// 27022
10590 561// 27021 88244 645// 30512 77999 31313 63103 82315=
TTAA  10231 52533 99864 10962 00000 85603 09362 29502 70085
16363 29516 50555 29961 28524 40709 40957 28534 30899 54558
27029 25014 57758 27035 20156 56758 27030 15340 51959 27529
10601 54959 26525 88272 58157 26536 88114 55359 26528 77264
27037 77342 27535 31313 63203 82315=
TTAA  10231 52983 99818 13150 25001 70066 15356 33002 50558
22970 27019 40718 35166 26534 30912 49561 27049 25029 56760
27049 20171 56362 25547 15355 54163 26552 10612 58763 26033
88251 57960 27049 88114 58763 26038 77166 26053 31313 63203
82315=
TTAA  10231 53463 99894 16757 31504 85536 13362 06501 70011
16964 28513 50547 30167 27027 40702 42125 27533 30891 53550
27036 25008 55556 27037 20151 51958 26538 15338 51960 27038
10599 50961 27528 88278 55356 27037 77129 27040 31313 63203
82315=
TTAA  10231 53772 99938 05964 13501 92891 05765 16001 85555
06169 27005 70054 13169 26510 50555 28730 26017 40712 38139
26525 30905 50358 25544 25023 53958 25547 20166 52959 25052
15352 51959 26545 10612 56560 26034 88258 53958 25546 88115
56159 26037 77183 25557 31313 63103 82315=
TTAA  10231 53845 99893 10760 00000 85568 06170 34502 70068
12565 27008 50557 24558 27517 40716 36364 27538 30910 50363
27545 25028 52163 26545 20172 55162 25551 15357 54363 26550
10615 56962 27534 88273 53162 27045 77178 26557 31313 63103
82316=
TTAA  10231 54218 99947 16363 09001 92852 09765 24505 85502
12765 28509 70968 17363 29020 50541 33136 28034 40695 44138
28040 30883 53747 27548 25999 54156 27549 20143 49959 27546
15331 49561 27041 10597 49562 29025 88273 56950 27551 77281
27551 31313 63203 82315=
TTAA  10231 54342 99025 17923 00000 00237 09156 21503 92841
10766 29004 85486 14564 28509 70939 19169 29021 50538 33359
29037 40691 42963 29046 30881 52774 28055 25998 52978 27553
20143 50578 27551 15331 48179 27545 10598 49179 27528 88300
52774 28055 77282 28056 31313 63303 82317=
TTAA  10231 54511 99028 07759 02501 00249 01170 02502 92868
03572 17002 85531 07770 25504 70019 14969 28013 50549 30165
28023 40704 40356 27533 30894 53356 26543 25011 54357 26544
20154 52758 26047 15341 52559 27044 10602 53160 27532 88308
53556 26541 77190 26548 31313 63203 82315=
TTAA  10231 54727 99018 04120 00000 00264 00449 18001 92885
02777 09002 85550 06177 30004 70048 13577 28507 50555 25517
26022 40715 34562 27039 30909 49957 26548 25027 51359 25558
20171 50561 26567 15357 54162 26554 10615 57962 27033 88271
54557 26051 88133 56362 26550 77190 26568 31313 63203 82315=
TTAA  10231 57083 99019 01520 25001 00262 01425 25502 92888
00559 27502 85558 05358 22004 70068 12164 19007 50561 19561
27522 40722 33328 27024 30918 44960 26041 25039 50163 26057
20183 52363 25562 15369 55963 26563 10622 619// 26538 88217
52963 26058 88118 615// 26547 77175 26073 31313 63203 82315=
TTAA  10231 57127 99970 02219 07002 92888 00420 08002 85561
03715 07503 70072 10920 04005 50564 17720 26019 40727 31161
28523 30925 41764 26040 25046 50763 25547 20190 54163 26055
15374 57162 25568 10625 645// 26542 88207 55362 26554 88113
649// 26551 77144 26070 31313 63203 82315=
TTAA  10231 57131 99984 00758 29002 92904 00360 26502 85576
04560 30002 70079 13314 27003 50562 21359 29023 40723 32163
27035 30919 47763 28044 25039 51363 25553 20182 52363 25554
15367 56563 26061 10619 607// 27539 88232 53763 26057 88135
609// 26555 77175 25562 31313 63203 82315=
0000013500
363
SNVD02 CWAO 110100
BBXX
SHIP 11014 99471 70707 46/// /0316 11051 2//// 40228 51011 7//// 8//// 22254 0//// 2//// =

0000013500
364
SNVD02 CWAO 110100
BBXX
SHIP 11014 99463 70725 46/// /3603 11086 21110 40251 56008 7//// 8//// 22200 0//// 2//// =

0000013500
365
SNVD02 CWAO 110100
BBXX
SHIP 11014 99449 70625 46/// /2406 10004 21016 40290 56005 7//// 8//// 22200 0//// 2//// =

0000013500
366
SNVD02 CWAO 110100
BBXX
SHIP 11014 99476 70527 46/// /2507 11059 21092 40226 57006 7//// 8//// 22200 0//// 2//// =

0000013500
367
SNVD02 CWAO 110100
BBXX
SHIP 11014 99489 71235 46/// /1317 10071 20065 40103 58044 7//// 8//// 22281 00083 2//// =

0000013500
368
SNVD02 CWAO 110100
BBXX
SHIP 11014 99462 70728 46/// /0307 11093 21115 40249 58010 7//// 8//// 22251 00009 2//// =

0000013500
369
SNVD02 CWAO 110100
BBXX
SHIP 11014 99474 70619 46/// /2004 11034 21061 40249 50000 7//// 8//// 22200 0//// 2//// =

0000028700
370
SXHW11 KWAL 110105
B15054AA 011010543"
1,140111,00:00:00,5.6,230,8.5,29.2,1011.2,0.00,13.7,
1,140111,00:15:00,5.1,254,7.7,28.8,1011.0,0.00,13.7,
1,140111,00:30:00,5.2,244,8.3,28.8,1010.8,0.00,13.7,
1,140111,00:45:00,5.7,226,8.3,29.0,1010.9,0.00,13.6, 42-0NN 210W
0000014200
371
UQCN06 CWAO 110000
PPDD  61008 71945 970// 30599 982// 30638 99034 32661 33148
33172 996// 33159 10023 33186 34195 33680=

0000014800
372
ULCN02 CWAO 110000
TTCC  61002 71845 70772 68170 28076 50971 72568 29076 30271
72369 28075 20507 76568 27585 88999 77183 28088=

0000009200
373
UECN02 CWAO 110000
TTDD  6100/ 71845 11403 73368 22303 71969 33182 76568=

0000009200
374
UQCN02 CWAO 110000
PPDD  61008 71845 967// 29077 970// 28585 984// 28088=

0000014600
375
SMXX95 HECA 100600 CCX
AAXX 10064
03894 11382 42210 10085 20071 40164 58004 69952 70381
82831
  333 20068 31002 81708 83358=
0000061300
376
SATH40 VTBB 110100
METAR VTCH 110100Z 00000KT 0800 FG VV002 14/13 Q1019 A3009=
METAR VTCP 110100Z 00000KT 0100 FG VV/// 17/17 Q1018=
METAR VTPH 110100Z NIL=
METAR VTPN 110100Z NIL=
METAR VTPP 110100Z 06002KT 3000 BR FEW030 SCT300 20/19 Q1016 A3003=
METAR   VTSF   110100Z  00000KT  9999   FEW018  SCT100  BKN300  25/24
 Q1014  A2996=
METAR VTSM 110100Z 06009KT 9000 FEW020 BKN300 27/23 Q1015 A2998=
METAR VTUK 110100Z 35007KT 8000 NSC 19/17 Q1018 A3008=
METAR VTUL 110100Z 00000KT 2000 BR NSC 16/15 Q1018 A3008 NOSIG=
METAR VTBS 110100Z 06005KT 020V110 CAVOK 24/17 Q1016 NOSIG=
0000066700
377
SAAE31 VTBB 110100
METAR VTBS 110100Z 06005KT 020V110 CAVOK 24/17 Q1016 NOSIG=
METAR VTBD 110100Z 00000KT CAVOK 24/18 Q1016 NOSIG=
METAR VTCC 110100Z 00000KT 3000 BR NSC 18/16 Q1020 A3012 NOSIG=
METAR VTBU 110100Z 01003KT 6000 NSC 24/17 Q1015 A2998=
METAR VTSS 110100Z 06005KT 9000 FEW018 BKN120 BKN300 26/21 Q1014
           A2995 NOSIG=
METAR VTSP 110100Z 05005KT 7000 FEW020 SCT120 BKN300 26/21 Q1013
A2994 NOSIG=
METAR VLVT 110100Z 02002KT 3000 BR NSC 18/15 Q1018 NOSIG=
METAR VYMD 110100Z NIL=
METAR VYYY 110100Z NIL=
METAR VDPP 110100Z 05009KT 8000 FEW015 BKN040 25/17 Q1014=
METAR VDSR 110100Z 07003KT 8000 FEW020 23/19 Q1016 NOSIG=
0000046700
378
SZPA01 AMMC 110106
CREX++
T000103 A001 D01021 D06025++
0136250 17293000 67590 2014 01 11 00 59 3013 11 07 00 01
02176 0039 02178 0039 02178 0037 02189 0047 02188 0044 02177 0031+
0710610 17137250 67680 2014 01 11 00 59 3015 11 07 00 01
01514 0058 01515 0057 01521 0063 01512 0053 01512 0052 01519 0058+
0698060 15820000 67950 2014 01 11 00 59 3020 11 07 00 01
01140 0071 01135 0065 01136 0066 01140 0069 01146 0074 01145 0073++
7777

00000000