0000010000
076
SIAG02 SABM 110300 RRA
AAXX 11033
87453 42965 00000 10200 20165 39650 40129 52025=
0000133200
077
SIAG02 SABM 110300
AAXX 11034
87344 42562 81612 10244 20196 39558 40114 52023 8257/ 333 56559
82628 86360=
87349 42560 61604 10245 20209 39738 40121 52029 86500
333
56300 86620=
87371 42962 71405 10240 20200 30080 40101 51021 84076 333 56066
84360 83270=
87374 42965 71409 10237 20204 30010 40095 50016 80006 333 56004
87270=
87395 41865 51404 10238 20217 30054 40098 52016 70292 85070 333
56050 85358=
87418 42965 01806 10272 20042 39337 40105 52031=
87436 42670 11114 10241 20086 39326 40112 52035 81100 333 56800
81840=
87448 42965 00000 10180 20108 39592 40142 52032=
87467 42970 21405 10220 20192 39986 40117 52024 80006 333 56009
82270=
87480 41662 51807 10233 20220 30072 40101 50013 72996 82584 333
56566 82635 85360 90100 90200 96013=
87497 41965 60000 10215 20210 30081 40108 52017 70292 84076 333
56066 84360 86270=
87506 42670 23603 10180 20055 38614 48540 51036 81130 333 56660
81835 95090=
87509 42970 01802 10198 20075 39312 40148 52037=
87532 NIL=
87534 42960 00000 10194 20093 39973 40131 52027=
87548 42962 01812 10227 20091 30038 40131 52032=
87576 42960 02014 10218 20128 30096 40119 52029=
87582 42960 12909 10255 20185 30106 40113 51028 81070 333 56070
81360=
87585 42960 13608 10252 20190 30085 40114 52029 81070 333 56060
81360=
0000011100
078
UANT01 CWAO 110321
ARP BAW176A 4728N04306W 0321 F400 MS54 299/49 KT
GZZZC QXT AOW 110321 F11A
0000011100
079
UANT01 CWAO 110321
ARP DAL176 4822N04824W 0321 F370 MS64 314/67 KT
N1604R QXS YYT 110321 F22A
0000011100
080
UANT01 CWAO 110321
ARP UAL946 4742N04146W 0321 F360 MS53 307/40 KT
N659UA DDL XXW 110321 F36A
0000047600
081
SSVX08 KARS 110320
ZZYY 52004 10014 0000/ 305008 165171 6111/
33311 88870 20001 33066 20025 33001 20075 33033 20100 32928
20150 32662 20200 32047 20250 31393 20300 31040 20500 30819
444 20110 10014 0128/ 521//=
ZZYY 52007 10014 1200/ 308031 164802 6112/
33311 88872 20001 33060 43420 20025 32988 43453 20050 32895 43493
20075 32764 20100 32729 20125 32589 20150 32479 20200 32075
20250 31633 20300 31285 20500 30764
444 20120 10014 1053/ 521//=
0000011000
082
UANT01 CWAO 110321
ARP UAL60 4902N04519W 0321 F360 MS59 323/63 KT
N69063 DDL XXW 110321 F50A
0000011000
083
UANT01 CWAO 110321
ARP AFR055 4556N05026W 0321 F400 MS60 297/56 KT
FHPJF DDL H03 110321 J20A
0000021500
084
SIIN90 VABB 110300 RRA
AAXX 11033
43109 31996 03602 10196 20133 40159 70544
222// 20000
  333 20176 58017
  555 10000=
42925 32996 00000 10122 20048 40175
  333 20095 58018
  555 10111=
0000031600
085
SAIN31 VABB 110310
METAR VABB 110310Z 00000KT 2500 FU NSC 19/05 Q1016 NOSIG=
METAR VOHS 110310Z 12009KT 2000 BR BKN008 18/15 Q1018 BECMG 3000 HZ=
METAR VOMM 110310Z 30003KT 0800 R07/1700 R25/1200 MIFG FEW018 24/20
     Q1016 NOSIG=
METAR VOTR 110310Z 01008KT 2500 HZ FEW018 23/19 Q1016 NOSIG=
0000010700
086
SAIN34 VOMM 110310 RRA
METAR VOHS 110310Z 12009KT 2000 BR BKN008 18/15 Q1018 BECMG 3000 HZ=
0000011000
087
UANT01 CWAO 110321
ARP DAL78 4848N04111W 0321 F390 MS53 284/35 KT
N855NW DDL XXW 110321 J90A
0000010900
088
UANT01 CWAO 110321
ARP AUA88 5213N03432W 0321 F350 MS57 205/45 KT
OELAX QXT AOW 110321 F39A
0000010900
089
UANT01 CWAO 110321
ARP BAW52 5805N05350W 0320 F380 MS59 269/51 KT
GVIIG QXT AOW 110321 F17A
0000011000
090
UANT01 CWAO 110322
ARP DAL38 4602N04529W 0321 F340 MS59 328/70 KT
N834MH QXT AOW 110322 F28A
0000011000
091
UANT01 CWAO 110322
ARP SAS946 5951N04057W 0321 F370 MS58 238/27 KT
LNRKN DDL XXW 110322 J77A
0000011100
092
UANT01 CWAO 110322
ARP AAL174 4922N04345W 0322 F350 MS58 319/57 KT
N349AN DDL XXW 110322 F07A
0000010900
093
UANT01 CWAO 110322
ARP BAW52 5805N05350W 0320 F380 MS59 269/51 KT
GVIIG QXT AOW 110322 F17A
0000015500
094
SIVE10 EHDB 110300 RRA
BBXX
PHSG 11034 99044 71342 41394 81218 10247 20238 40100 5/000 75350
8777/ 22214 00240 20202 323// 40304 80241=
0000012400
095
SIAG01 SABM 110300 RRB
AAXX 11034
87022 42960 50506 10286 20188 39541 40031 52024 80006 333 56006
85270=
00000000