0000006400
716
UPIN90 VECC 110000
PPAA 61011 42706 55192 01508=
0000024700
717
SMVX02 DEMS 110318
BBXX AUYB 11031 99123 10741 46/// /0106 10276 29069 49119 90258 22272=
BBXX VTJR 11031 99162 10827 46/// /0807 10260 29068 49151 90303 22231=
BBXX VTTK 11031 99177 10833 46/// /1502 10248 29079 49158 90304 222//=
0000003900
718
SIVC21 ESWI 110300
NIL=
0000003900
719
SIVE21 ESWI 110300
NIL=
0000173300
720
SISB20 VCCC 110300
AAXX 11034
43400 NIL=
43404 22470 60503 10246 20228 30139 40151 83106 333 20198 58007 60007
70000 83818 87280=
43410 NIL=
43413 22470 20904 10256 20229 30144 40148 82100 333 20235 58009
60007 70000 82818=
43415 22470 10000 10240 20231 30037 40145 81100 333 20204 58003 60009
70000 81118=
43418 22470 63604 10255 20223 3//// 4//// 84106 333 5//// 60007 84818
86278=
43421 21460 60000 10229 20223 30043 40145 71044 82106 333 20221 58004
60007 70000 82818 86280=
43422 22470 60502 10247 20232 30013 40143 86100 333 20212 58007 60002
70000 86818=
43424 22478 50505 10236 20227 30135 40137 85100 333 20209 58010 60007
85818=
43436 22470 43201 10252 20234 30136 40140 83101 333 20238 58005 60007
70000 83818 83080=
43441 22970 00000 10245 20211 30001 40130 333 20200 58008 60007
70000=
43444 22470 11402 10218 20199 39603 40139 81100 333 20187 58008 60007
70000 81818=
43450 22966 00507 10258 20215 30127 40136 333 20226 58008 60007
70000=
43466 22970 20502 10254 20218 30131 40133 80001 333 20231 58013 60007
79999 82080=
43467 21959 00502 10250 20226 30130 40135 333 20229 58012 60007
70026=
43473 22970 00902 10161 20089 38151 48517 333 20098 58011 60007
70000=
43475 22470 23201 10254 20233 30127 40135 81100 333 20230 58006 60007
70000 81818=
43476 22470 20000 10184 20118 38802 48544 82100 333 20133 58007 60007
70000 82812=
43479 21450 10000 10190 20171 39297 705// 81101 333 20160 58007 60009
70000 81816=
43486 21460 6//02 10245 20231 30036 40131 71042 83230 333 20229 58017
60007 70416 83817 83358=
43495 22970 13605 10242 20233 30119 40135 80001 333 20220 58011 60007
70334 81080=
43497 22970 03602 10262 20223 30115 40132 333 20227 58012 60007
70000=
0000003800
721
SIVC21 ESWI 110300
NIL
0000003800
722
SIVE21 ESWI 110300
NIL
0000013300
723
SIVJ21 ESWI 110300
BBXX
SBHI 11031 99583 10197 41/98 83108 10005 21016 40031 52005
70322 8//// 22282 00063 2////=
0000047900
724
UDAS02 BABJ 110308
AMDAR 1103
LVR CNFOZM 2848N 11551E 110259 F321 MS365 258/126 TB/ S//1=
LVR CNFOZM 2827N 11552E 110302 F321 MS368 258/125 TB/ S//1=
LVR CNFOZM 2809N 11545E 110305 F321 MS360 259/120 TB/ S//1=
DES CNFPTK 4054N 11202E 110303 F064 MS140 292/023 TB/ S//1=
DES CNFPTK 4053N 11200E 110304 F058 MS130 296/016 TB/ S//1=
DES CNFPTK 4053N 11159E 110304 F054 MS128 283/010 TB/ S//1=
DES CNFPTK 4052N 11156E 110305 F046 MS129 223/006 TB/ S//1=
0000010700
725
UDAS02 BABJ 110307
AMDAR 1103
LVR CNFOZM 2902N 11602E 110256 F321 MS373 258/126 TB/ S//1=
0000012000
726
SILY20 HLMC 110300 RRA
AAXX 11034
62012 32860 21810 10137 20054 30201 40231 58013 82040
  333 82358=
0000024300
727
SIOM20 OOMS 110300 RRD
AAXX 11034
41254 36/// /0102 10069 21145 38061 40252
333 0E002 58005  =
41301 36/// /0808 10111 20099 30029 40175
333 0E016 58005 =
41315 36/// /1906 10144 20138 39185 42823
333 0E/// 59006  =
0000186800
728
SIIR21 OIII 110300
AAXX 11031
40703 41510 80000 11118 21128 38988 40351 57012 71022 886// 333
21144 88725 555 11117 29093 66666 01060 11052 21030
30000 50036 90080=
40712 41620 72702 11110 21128 38706 40309 56011 71022 82508 333
21112 82635 87264 555 11111 29087 66666 01034 11036 21030 31016
50004 90054=
40729 42660 50000 11062 21084 38347 40277 58005 81105 333 21102
81835 85269 555 11066 29085 66666 01048 11046 21030 31026 50006
90048=
40736 42960 00000 10042 20022 30215 40189 57014 333 20042 555
10034 29087 66666 00050 10054 20080 30090 50104 90126=
40739 42665 30000 11038 21080 38714 40264 56007 83500 333 21040
83635 555 11049 29073 66666 01022 11008 20010 30030 50044 90083=
40743 42965 50804 11010 21091 39112 40266 58003 80002 333 21024
85070 555 11034 29054 66666 00006 10026 20060 30074 50090 90124=
40762 42962 63102 11055 21094 38588 40282 53003 86030 333 21073
86360 555 11064 29074 66666 01052 11022 21006 30014 50042 90074=
40768 41605 80000 11092 21102 38272 40322 55002 77177 8242/ 333
21174 81640 88560 555 11095 29092 66666 01004 11004 21002 00000
50012 90042=
40769 41520 80000 11074 21083 38304 40298 55004 77177 8372/ 333
21116 83725 88558 555 11074 29093 66666 00000 10002 20012 30020
50038 90082=
40785 42660 80000 11020 21054 39114 40268 56012 8352/ 333 21024
      83635 88460 555 11030 29078 66666 00004 10022 20034 30050
      50076 90116=
40809 42960 20704 11029 21111 38538 40268 55000 81051 333 21055
81360 555 11051 29053 66666 01012 10006 20048 30048 50070 90116=
40821 42660 50000 10010 21015 38818 40245 55003 82536 333 20004
82640 84360 555 10000 29083 66666 00004 10024 20040 30054 50080
90130=
40831 41550 81002 10130 20119 30175 40183 53003 71022 8532/ 333
20110 82930 83635 88459 555 10124 29093 66666 00124 10132 20140
30098 50160 90208=
0000216300
729
SZNZ01 NZKL 110318
CREX++
T000103 A001 D01021 D06025++
-3683144 17478654 AUCT  2014 01 11 03 10 //// 11 07 00 01
06048 3200 06049 3199 06049 3197 06050 3197 06052 3197 06052 3196+
-4402404 -17636748 CHIT  2014 01 11 03 10 //// 11 07 00 01
05211 2142 05200 2134 05182 2120 05192 2133 05171 2115 05169 2116+
-4089929 17623168 CPIT  2014 01 11 03 10 //// 11 07 00 01
04285 2280 04286 2285 04275 2277 04281 2287 04263 2272 04248 2261+
-3618905 17548887 GBIT  2014 01 11 03 10 //// 11 07 00 01
06437 0041 06437 0041 06431 0035 06434 0038 06438 0041 06432 0036+
-3867541 17802288 GIST  2014 01 11 03 10 //// 11 07 00 01
04500 2712 04482 2697 04512 2730 04472 2693 04482 2705 04471 2697+
-4241288 17370277 KAIT  2014 01 11 03 10 //// 11 07 00 01
03572 2159 03566 2157 03583 2179 03553 2153 03541 2145 03554 2163+
-3755040 17815904 LOTT  2014 01 11 03 10 //// 11 07 00 01
04062 0208 04070 0217 04059 0207 04077 0226 04058 0208 04055 0207+
-3704657 17451175 MNKT  2014 01 11 03 10 //// 11 07 00 01
02545 -0160 02548 -0163 02549 -0168 02578 -0146 02573 -0157 02578 -0160+
-3947566 17692007 NAPT  2014 01 11 03 10 //// 11 07 00 01
03498 2039 03477 2020 03462 2009 03451 2001 03464 2018 03449 2006+
-3441483 17304870 NCPT  2014 01 11 03 10 //// 11 07 00 01
-03519 -8469 -03469 -8421 -03106 -8060 -00682 -5638 02054 -2904 02319 -2641+
-4581435 17062939 OTAT  2014 01 11 03 10 //// 11 07 00 01
04539 3390 04535 3392 04531 3395 04522 3392 04517 3393 04514 3396+
-2928002 -17789440 RBCT  2014 01 11 03 10 //// 11 07 00 01
06455 1998 06461 2004 06463 2006 06469 2013 06460 2003 06455 1999+
-2925114 -17790384 RFRT  2014 01 11 03 10 //// 11 07 00 01
03418 0195 03419 0197 03423 0201 03432 0210 03427 0206 03419 0198+
-4357010 17277383 SUMT  2014 01 11 03 10 //// 11 07 00 01
02269 1818 02279 1834 02260 1821 02270 1837 02250 1823 02248 1828+
-3764109 17618118 TAUT  2014 01 11 03 10 //// 11 07 00 01
05661 3970 05665 3974 05665 3974 05668 3976 05670 3977 05673 3981+
-4128448 17477985 WLGT  2014 01 11 03 10 //// 11 07 00 01
03403 2044 03408 2052 03412 2060 03408 2060 03409 2064 03403 2062++
7777
0000029100
730
SXXX32 EUMS 110309 RRU
166AC436
OT12 ID:IC-COMI-10 DT:2014 01 11 03 08
:RAD /1 05352 05362 05336 05359 05374 05360 05371 05366 05364 05350 05360 05383 05341 05373 05309 05321 05303 05322 05278 05311 05276 05291 05302 05244 05297 05260 05204 05322 05234 05252
:BAT 12.9V
0000039600
731
SXXX32 EUMS 110309 RRV
16590056
:PRS 1 /1 2511 2517 2519 2520 2526 2526 2523 2520 2517 2512 2506 2503 :RAD 1 /1 6806 6811 6813 6815 6819 6819 6817 6813 6811 6804 6797 6792 6791 6790 6786 6782 6775 6782 :ENC 6 /6 5028 5004 4988 4983 4996 4972 4952 4944 4950 4942 :ENB 6 /6 5025 5001 4987 4982 4994 4969 4950 4943 4948 4941 :SW1 9 /60 0 :SW2 36 /60 0 :BAT 5 /6 12.5 :NAME 16590056
0000045200
732
SXXX32 EUMS 110309 RRW
224AD678
:PRS 2 /1 2013 2018 2022 2026 2026 2028 2026 2027 2030 2030 2036 2039 2047 2044 2045 2044 2043 2049 2062 2061 2060 2064 2065 2065 2067 2066 2068 2074 2076 2079 :RAD 4 /3 4846 4849 4855 4864 4875 4882 4885 4890 4895 4904 4910 4916 4923 4927 4934 4939 4942 4945 4946 4953 :ENC 4 /5 8366 8372 8383 8400 8406 8416 8428 8435 8445 8456 8459 8464 :SW1 9 /60 60 :SW2 39 /60 38 :BAT 14 /15 13.4 :NAME 224AD678 /
0000069900
733
SXXX32 EUMS 110309 RRX
229C0324
OT12 ID:MZ-NIH2-09 DT:2014 01 11 02 59
:RAD /1 06269 06268 06264 06259 06254(06249 06246 06243 06237 06233 06232 06227 06221 06218 06218 06211 06209 06205 06201 06200(06196 06191 06187 06186 06180 06179 06173 06173 06168 06165/
:PR1 /1 ///// ///// ///// ///// ///// '//// ///// ///// ///// ///// ///// ///// ///// ///// ///// '//// ///// ///// ///// /'/// ///// ////' ///// ///// ///// ///// ///// ///// ///// /////
:PR2 /1 ///// ///// ///// ///// ///// ///// ///// ///// ///// ///// ///// ///// ///// ///// //'// ///// /////(///// ///// ///// ///// /////(///// ///// ///// ///// ///// ////' ///// /////
:TM1 '15 /// /// /// ///
:BAT 13.7/
0000067100
734
SXXX32 EUMS 110310 RRX
366C76AC
OT12 ID:IR-CHAB-07 DT:2014 01 11 03 09
:RAD /1 01975 01924 01930 01902 01905 01895 01884 02719 01868 01864 01856 01850 01857 01854 01850 01827 01824 01820 01792 01794 01791 01814 01790 01803 01798 01795 01801 01785 01791 01788
:PR1 /1 02411 02407 02395 02389 02370 02361 02352 02341 02335 02330 02319 02327 02321 02314 02318 02306 02307 02284 02275 02277 02266 02270 02260 02276 02276 02275 02266 02266 02268 02268
:PR2 /1 01955 01950 01943 01925 01918 01910 01898 01884 01879 01870 01865 01862 01862 01867 01855 01854 01840 01827 01810 01809 01799 01823 01825 01825 01806 01822 01809 01811 01820 01810
:BAT 11.4V
0000037900
735
SXXX32 EUMS 110312 RRX
12FD90D0
:PRS 1 /1 1232 1237 1241 1238 1248 1241 1244 1249 1256 1254 1250 1250 :RAD 1 /3 5798 5801 5812 5818 5823 5824 5820 5814 5814 5823 :ENC 3 /6 5537 5552 5564 5559 5557 5588 5625 5650 5638 5628 :RA2 3 /6 4693 4706 4710 4699 4690 4725 4760 4785 4769 4755 :SW1 12 /60 60 :SW2 42 /60 60 :BAT 5 /6 12.5 :WTP 5 /6 28.2 28.1 :NAME 12FD90D0
00000000