0000069800
239
SXXX32 EUMS 110136 RRX
3601E29A
OT12 ID:DJ-BOUT-08 DT:2014 01 11 01 26
:RAD /1 02488 02486 02482 02470 02476 02475 02471 02474 02475 02478 02476 02471 02473 02470 02473 02477 02468 02468 02473 02465 02465 02458 02457 02458 02451 02452 02453 02451 02452 02448
:PR1 /1 02808 02808 02802 02790 02802 02788 02798 02794 02797 02800 02797 02789 02795 02806 02805 02794 02790 02788 02793 02784 02777 02778 02781 02774 02769 02772 02768 02768 02773 02763
:PR2 /1 01041 01041 01033 01030 01035 01032 01020 01026 01027 01026 01032 01030 01030 01024 01029 01032 01032 01034 01025 01010 01017 01013 01012 01015 01005 01004 01006 00999 01005 01001
:TM1 /15 258 258 258 258
:BAT 13.5V
0000070500
240
SXXX32 EUMS 110136 RRX
26F364EA

ST STHELENA
DT 11/01/14 11/01/14
TM 01:30:00 01:15:00
RD 10000 10000 10000 10000 10000 10000 10000 10000 10000 10000 10000 10000 10000 10000 10000 10000 10000 10000 10000 10000 10000 10000 10000 10000 10000 10000 10000 10000 10000 10000
P1 00385 00473 00653 01046 01266 01088 01147 01144 01184 01246 00620 00947 01000 00611 01451 01218 01380 01250 01242 01237 01352 00827 00729 00966 01061 01131 00929 00728 00720 00406
P2 00024 00015 00008 00012 00013 00008 00010 00012 00017 00012 00019 00018 00014 00014 00268 00037 00144 00018 00017 00142 00155 00018 00017 00017 00013 00018 00019 00014 00018 00020
T1 00.0 00.0
T2 22.4 22.4
VB 12.8
0000070200
241
SXXX32 EUMS 110136 RRX
22E7E6D2
OT12 ID:ID-ROTE-11 DT:2014 01 11 01 35
:PRS /1 -10730 -10726 -10731 -10707 -10710 -10708 -10707 -10727 -10734 -10732 -10724 -10731 -10732 -10733 -10739 -10734 -10724 -10734 -10706 -10708 -10709 -10709 -10731 -10735 -10735 -10733 -10732 -10735 -10735 -10738
:PR2 /1 04064 04038 04055 04050 04044 04048 04028 04050 04059 04048 04053 04041 04042 04041 04050 04039 04013 04017 04031 03992 04021 04014 03987 04015 04021 04021 04014 04003 04009 03972
:RAD /1 05630 05658 05646 05650 05630 05626 05626 05622 05638 05626 05627 05598 05626 05614 05614 05622 05614 05598 05606 05602 05610 05594 05606 05578 05570 05586 05574 05550 05570 05574
:BAT 13.6V/
0000067200
242
SXXX32 EUMS 110137 RRX
32CC9580
OT12 ID:ID-ENGG-07 DT:2014 01 11 01 36
:PRS /1 01275 01265 01294 01291 01319 01322 01290 01237 01241 01298 01305 01295 01262 01301 01267 01299 01285 01330 01294 01236 01265 01261 01305 01285 01333 01316 01278 01305 01306 01248
:PR2 /1 04756 04757 04770 04775 04771 04791 04803 04740 04807 04806 04763 04776 04749 04748 04754 04739 04775 04788 04772 04722 04780 04776 04768 04789 04756 04802 04748 04811 04774 04738
:RAD /1 05597 05624 05613 05596 05632 05624 05622 05602 05592 05630 05623 05611 05590 05615 05618 05612 05613 05646 05623 05580 05619 05617 05616 05636 05628 05647 05623 05623 05649 05605
:BAT 13.4V/
0000011100
243
UANT99 KDDL 110142
ARP UAL944 5502N02830W 0142 F370 MS56 231/54 KT
N781UA DDL XXW 110143 F41A
0000029100
244
SXXX32 EUMS 110139 RRX
166AC436
OT12 ID:IC-COMI-10 DT:2014 01 11 01 38
:RAD /1 05696 05695 05677 05691 05660 05663 05651 05661 05631 05629 05622 05631 05625 05616 05609 05605 05595 05584 05577 05577 05571 05539 05568 05571 05551 05558 05551 05547 05536 05525
:BAT 12.9V
0000291800
245
SMPH01 KWBC 110000
AAXX 11001
98132 11465 20906 10212 20167 40259 5/018 60014 70540 82130 333
20166 56299 58005 70012 82817=
98133 11467 70406 10230 20209 40205 5//// 69944 70544 83270 222//
20703 333 20216 56199 58015 70004 83820 87360=
98222 31575 10901 10225 20153 40161 52010 70544 81101 333 20195
56999 58007 81822=
98233 31570 60000 10202 20184 40202 52013 70544 83570 333 20190
56999 58017 83620 86358=
98324 31462 50404 10260 20233 40162 52020 70544 81201 333 20230
56999 58017 81816 85080=
98327 31668 50103 10213 20172 30010 40190 52020 70544 82101 333
20193 56/// 58017 82842 85080=
98334 12475 81802 10222 20190 39996 40204 52016 60024 8227/ 333
20190 56999 58007 70016 82818 88358=
98425 31560 70402 10245 20192 40165 52008 70544 83850 333 20220
56999 58004 83620 87358=
98426 31570 80600 10238 20180 40162 52018 70544 81407 333 20223
56999 58015 81630 88280=
98427 12472 63602 10242 20196 39985 40166 53022 69904 83270 333
20225 56999 58006 79999 83818 86357=
98428 31459 63601 10258 20202 40157 52018 70542 82461 333 20236
56/// 58003 82618 84080=
98432 31567 70803 10249 20196 40171 52017 70544 84272 333 20210
56199 58009 84820=
98433 31460 70804 10192 20167 39440 40174 53010 60024 71544 85830
333 20170 56999 58010 70023 85612=
98434 11468 60604 10252 20204 30181 40189 52025 69914 70542 82208
333 20230 56199 58012 70001 82818 86275=
98435 31475 70408 10256 20212 40174 52011 70322 82281 333 20235
561// 58014 82818 83358=
98446 31470 80702 10246 20210 30126 40172 53023 71522 84207 333
20240 56199 58006 84818 88270=
98538 31466 83606 10262 20222 30155 40160 53020 71542 83267 333
20250 56119 58007 83811 84357 88272=
98546 21440 80407 10245 20238 30141 40149 52020 60284 78082 8492/
333 20224 56199 58002 70278 84915 88458 555 20248=
98553 11462 80402 10254 20239 30132 40136 52022 60364 71586 8597/
333 20235 56199 59003 70357 84915 88358 555 20146=
98558 11460 80615 10268 20244 30070 40138 52023 60094 72582 8457/
222// 20608 333 20225 56199 59002 70094 83615 88357 555 20002=
98642 11458 82707 10255 20242 30115 40124 52024 60094 76166 8552/
333 20240 56199 59002 70094 85615 88457 555 20052=
98644 11458 80203 10292 20232 30099 40128 53025 60164 76162 8552/
333 20228 56199 59005 70160 85656 88457 555 20088=
98648 11460 80000 10236 20228 30050 40132 52020 60774 71586 84967
333 20225 56199 58000 70766 83912 86358 88270 555 20465=
98746 11458 80000 10263 20222 40102 52025 60154 72586 8597/ 333
20218 56999 59003 70154 85918 88358=
98751 11470 80000 10205 20203 39438 40119 52028 60194 76166 8491/
333 20170 56999 59009 70189 84915 88456=
98752 11440 80901 10231 20230 40132 52019 60534 76062 8497/ 333
20225 56999 59005 70527 84915 88357 555 20015=
98851 11468 83605 10242 20226 39950 40100 53014 60084 71562 8327/
333 20222 56999 59015 70084 83818 88358 555 20074=
0000039600
246
SXXX32 EUMS 110139 RRX
16590056
:PRS 1 /1 2392 2395 2396 2396 2395 2395 2394 2395 2394 2395 2397 2396 :RAD 1 /1 6672 6676 6677 6676 6676 6676 6675 6676 6673 6672 6674 6674 6676 6671 6676 6670 6665 6668 :ENC 6 /6 4892 4887 4876 4872 4873 4874 4863 4856 4852 4832 :ENB 6 /6 4889 4886 4876 4872 4872 4873 4861 4855 4850 4832 :SW1 39 /60 0 :SW2 6 /60 5 :BAT 5 /6 12.3 :NAME 16590056
0000045000
247
SXXX32 EUMS 110139 RRX
224AD678
:PRS 2 /1 2192 2207 2209 2207 2209 2213 2216 2220 2219 2217 2215 2216 2217 2221 2225 2227 2227 2224 2224 2227 2240 2244 2245 2246 2245 2244 2246 2249 2254 2258 :RAD 4 /3 5028 5031 5034 5037 5049 5054 5062 5067 5070 5082 5085 5091 5090 5096 5102 5103 5105 5105 5111 5118 :ENC 4 /5 8543 8553 8552 8567 8579 8583 8596 8605 8608 8614 8618 8623 :SW1 39 /60 0 :SW2 9 /60 0 :BAT 14 /15 12.3 :NAME 224AD678 /
0000069800
248
SXXX32 EUMS 110139 RRX
229C0324
OT12 ID:MZ-NIH2-09 DT:2014 01 11 01 29
:RID /1 06612 06609 06604 06602 06600 06590 06595 06590 06581 06590 06583 06586 06580 06580 06571 06566 06565 06557 06555 06550 06549 06545 06546 06534 86536 06539 065:7 06522 06517 06514
:PR1 /1 ///// ///// ///// ///// ///// ///// ///// ///'/ ///// ///// ///// ///// ///// ///// ///// ///// ///// ///'/ ///// ///// ///// ////' ///// ///// ///// ///// ///// ///// ///// /////
:PR2 /1 ///// ///// ///// ///// ///// ///// '////(///// ///'/ ///// ///// ///// ///// ///'/ ///// ///// /////(///// ///// ///// ///// ///// ////' ///// ///// ///// ///// ///// ///// //'//
:TM1 /15 /// /// /// ///
:BAT 13.7V
0000067100
249
SXXX32 EUMS 110140 RRX
366C76AC
OT12 ID:IR-CHAB-07 DT:2014 01 11 01 39
:RAD /1 02096 02081 02087 02074 02072 02074 02068 02070 02066 02062 02060 02052 02040 02054 02049 02042 02050 02050 02047 02037 02046 02050 02051 02054 02065 02059 02071 02066 02066 02064
:PR1 /1 02544 02540 02540 02536 02527 02483 02504 02508 02503 02518 02491 02500 02492 02477 02476 02476 02478 02479 02469 02475 02476 02490 02494 02487 02479 02490 02500 02498 02505 02504
:PR2 /1 02109 02113 02092 02094 02098 02086 02087 02078 02077 02070 02079 02077 02066 02063 02066 02066 02059 02064 02060 02062 02067 02063 02071 02075 02074 02080 02074 02090 02077 02078
:BAT 11.2V
0000216500
250
SZNZ01 NZKL 110145
CREX++
T000103 A001 D01021 D06025++
-3683144 17478654 AUCT  2014 01 11 01 37 //// 11 07 00 01
05596 3175 05605 3177 05612 3176 05619 3177 05627 3178 05633 3177+
-4402404 -17636748 CHIT  2014 01 11 01 37 //// 11 07 00 01
05394 2115 05376 2098 05385 2108 05371 2095 05372 2097 05364 2090+
-4089929 17623168 CPIT  2014 01 11 01 37 //// 11 07 00 01
04390 2219 04395 2223 04418 2246 04397 2225 04418 2246 04419 2247+
-3618905 17548887 GBIT  2014 01 11 01 37 //// 11 07 00 01
06211 0018 06237 0040 06253 0051 06246 0041 06240 0031 06249 0036+
-3867541 17802288 GIST  2014 01 11 01 37 //// 11 07 00 01
04550 2706 04563 2718 04544 2697 04557 2709 04540 2691 04555 2704+
-4241288 17370277 KAIT  2014 01 11 01 37 //// 11 07 00 01
03814 2140 03817 2144 03828 2155 03817 2146 03828 2157 03816 2147+
-3755040 17815904 LOTT  2014 01 11 01 37 //// 11 07 00 01
03974 0212 03973 0209 03970 0202 03982 0211 03976 0203 03977 0201+
-3704657 17451175 MNKT  2014 01 11 01 37 //// 11 07 00 01
02030 -0156 02035 -0155 02048 -0147 02040 -0159 02051 -0152 02054 -0153+
-3947566 17692007 NAPT  2014 01 11 01 37 //// 11 07 00 01
03557 1978 03545 1966 03534 1954 03556 1974 03545 1963 03541 1959+
-3441483 17304870 NCPT  2014 01 11 01 37 //// 11 07 00 01
-04282 -8866 -04309 -8898 -04294 -8888 -04239 -8838 -04194 -8798 -04179 -8788+
-4581435 17062939 OTAT  2014 01 11 01 37 //// 11 07 00 01
05065 3401 05056 3396 05044 3388 05026 3374 05020 3373 05015 3373+
-2928002 -17789440 RBCT  2014 01 11 01 37 //// 11 07 00 01
06300 1967 06320 1984 06332 1993 06305 1964 06309 1965 06341 1995+
-2925114 -17790384 RFRT  2014 01 11 01 37 //// 11 07 00 01
03286 0181 03282 0175 03287 0178 03320 0207 03285 0170 03296 0178+
-4357010 17277383 SUMT  2014 01 11 01 37 //// 11 07 00 01
02670 1809 02666 1808 02663 1807 02627 1773 02675 1824 02645 1796+
-3764109 17618118 TAUT  2014 01 11 01 37 //// 11 07 00 01
05437 3970 05439 3968 05445 3970 05456 3976 05448 3965 05450 3962+
-4128448 17477985 WLGT  2014 01 11 01 37 //// 11 07 00 01
03602 2029 03594 2022 03589 2018 03591 2021 03580 2011 03583 2014++
7777
0000037800
251
SXXX32 EUMS 110142 RRX
12FD90D0
:PRS 1 /1 1412 1421 1422 1435 1420 1423 1432 1426 1433 1436 1415 1424 :RAD 1 /3 5975 5979 5980 5975 5980 5993 6012 6033 6059 6083 :ENC 3 /6 5720 5717 5718 5750 5805 5848 5865 5863 5886 5922 :RA2 3 /6 4860 4862 4866 4901 4950 4993 5009 5013 5035 5072 :SW1 42 /60 0 :SW2 12 /60 37 :BAT 5 /6 12.4 :WTP 5 /6 28.3 28.3 :NAME 12FD90D0
0000037000
252
SXXX32 EUMS 110142 RRX
22E595B6
:PRS 1 /1 M 3120 3157 3130 3141 3110 3107 3092 3095 3090 3097 3085 3103 3088 3079 3062 3061 3090 3109 3107 3117 3061 3094 3094 3053 3101 3071 3106 3146 3139 :RAD 1 /3 6284 6269 6259 6259 6259 6269 6268 6276 6300 6321 :ENC 2 /5 4420 4388 4376 4395 4381 4440 :SW1 42 /60 60 :SW2 12 /60 60 :BAT 14 /15 12.9 :NAME 22E595B6 /
0000039500
253
SNVD15 KWNB 110100 RRP
BBXX
42360 11011 99267 70905 46/// /1506 10223 40142 53004 90100 22200
00227 10702 70011 333 91208 555 11062 22068=
41051 11011 99183 70650 46/// /0807 10260 90130 333 91209 555
11080 22087=
41051 11011 99183 70650 46/// /0707 10259 90120 333 91209 555
11076 22082=
41051 11011 99183 70650 46/// /0707 10259 90110 333 91208 555
11075 22081=
0000032400
254
USCH02 SCSC 110000
TTAA 61001 85586
99005 16057 28003 00119 14245 36005 92786 20874 22510
85513 17872 14507 70143 08080 03003 50582 11584 24017
40749 24777 23526 30952 39773 25054 25074 46972 25573
20220 53971 26079 15402 58774 25073 10651 67771 24546
88999
77185 25585 41704
31313 48008 82331=
0000015600
255
ULCH02 SCSC 110000
TTCC 61003 85586
70863 70569 23019 50066 60575 19520 30389 54579 13517
88919 70170 25036
77999
31313 48008 82331=
0000071000
256
USAA01 NZCM 110000
TTAA 61001 89664
99997 00056 18501 00512 ///// ///// 92601 07158 18518
85255 11341 17017 70716 21114 15006 50514 33959 24513
40666 44759 24520 30855 51765 24023 25975 45585 24514
20124 43786 24513 15318 43586 26009 10592 41586 23504
88320 52361 23026
77999
31313 48008 82219=

0000069700
87361=
0000011200
87368
0000009600
87371
0000035800
87378
0000037300
87381=
0000039500
87413
0000041600
87422
0000043700
87443
0000045800
87466
0000054100
87469=
0000050100
87581
0000046000
87641
0000058400
87805
0000058500
87979
0000054400
88203=
0000060700
90021=
0000065000
98266
0000067100
01631
0000064800
257
USAA01 NZCM 110000
TTAA 61001 89664
99997 00056 18501 00512 ///// ///// 92601 07158 18518
85255 11341 17017 70716 21114 15006 50514 33959 24513
40666 44759 24520 30855 51765 24023 25975 45585 24514
20124 43786 24513 15318 43586 26009 10592 41586 23504
88320 52361 23026
77999
31313 48008 82219=

0000069700
87361=
0000011200
87368
0000009600
87371
0000035800
87378
0000037300
87381=
0000039500
87413
0000041600
87422
0000043700
87443=
0000052100
87539
0000048000
87564
0000056300
87614=
0000062600
88120=
0000054500
89932=
0000071200
98250
0000065000
01629
0000064900
258
USAA01 NZCM 110000
TTAA 61001 89664
99997 00056 18501 00512 ///// ///// 92601 07158 18518
85255 11341 17017 70716 21114 15006 50514 33959 24513
40666 44759 24520 30855 51765 24023 25975 45585 24514
20124 43786 24513 15318 43586 26009 10592 41586 23504
88320 52361 23026
77999
31313 48008 82219=

0000069700
87361=
0000011200
87368=
0000015000
87382
0000012800
87386
0000045600
87406=
0000047800
87429
0000015700
87445=
0000050000
87538=
0000054300
87731
0000056400
87826
0000052300
88004
0000086000
88168
0000070900
88451=
0000062800
90974=
0000071200
01644
00000000