0000011600
099
SMXX95 HECA 101200 CCK
AAXX 10121
22550 42/// /0804 11179 21199 30038 40049 55003 333 91010 91110=
0000011600
100
SMAF95 HECA 101200 CCG
AAXX 10121
22550 42/// /0804 11179 21199 30038 40049 55003 333 91010 91110=
0000010000
101
SMXX95 HECA 101800 CCH
AAXX 10181
22550 42/// /0704 11170 21191 30025 40036 57005=
0000010000
102
SMAF95 HECA 101800 CCM
AAXX 10181
22550 42/// /0704 11170 21191 30025 40036 57005=
0000011000
103
SMAF95 HECA 110000 CCF
AAXX 11001
22550 42/// /0704 11174 21196 30009 40020 57008 333 91110=
0000009200
104
UECN05 CWAO 110000
TTDD  6100/ 71934 11851 62967 22253 74765 33144 71165=

0000016800
105
UQCN05 CWAO 110000
PPDD  61008 71934 95568 30077 29591 30580 96238 30592 30585
30094 97046 31103 31113 31605 98345 32124 31617 31633 988//
32119=

0000014800
106
ULCN05 CWAO 110000
TTCC  61002 71934 70755 64768 30087 50958 68567 30085 30260
74565 31113 20497 73765 31616 88999 77167 31633=

0000009300
107
SAKW20 OKBK 110100
METAR OKBK 110100Z 16009KT CAVOK 11/09 Q1016
     NOSIG=
0000143200
108
UKNZ02 NZKL 110000 RRA
TTBB 60228 93112
00016 19859 11012 18260 22854 05604 33850 06859 44834 10666 55725
02461 66698 01069 77650 01761 88625 03762 99620 03367 11581 05578
22514 11171 33465 17166 44444 18970 55413 23966 66328 38170 77274
48964 88229 54765 99100 627// 31313 48008 82133 41414 746//=
TTBB 60220 93417
00017 19457 11014 17459 22855 05020 33847 06658 44813 06657 55773
03456 66761 04465 77648 02160 88640 02172 99631 02387 11620 02975
22614 03359 33572 06360 44569 06177 55502 13557 66488 15357 77407
23564 88324 37367 99264 49957 11207 63357 22147 58575 33127 62574
44120 63174 55100 61377 31313 47100 82158 41414 38600=
TTBB 60220 93844
00016 13838 11919 06225 22903 08059 33887 07459 44877 08864 55827
06863 66733 03064 77701 02281 88684 00857 99576 10910 11572 11108
22533 14120 33527 15157 44522 14961 55507 14161 66476 17357 77469
17171 88418 22760 99408 23366 11398 24759 22374 27568 33353 31156
44308 38961 55261 48756 66218 58939 77206 61731 88179 66150 99156
61164 11148 62968 22111 60777 33101 56778 44100 56978 31313 47100
 82206 41414 25431=
TTBB 60228 93997
00009 25059 11003 21858 22924 15227 33894 14664 44800 06831 55780
05450 66770 08678 77765 09899 88755 09699 99707 08899 11601 01699
22544 00099 33512 02783 44385 21558 55314 32165 66289 37760 77285
37373 88191 521// 99138 675// 11109 749// 22101 743// 31313 48008
 82145 41414 31570=
0000042100
109
SXXX32 EUMS 110046 RRX
26CB10AC
:PRS 1 /1 -1341 -1341 -1341 -1341 -1341 -1341 -1341 -1341 -1341 -1341 -1341 -1341 -1342 -1343 -1341 -1341 -1341 -1341 -1341 -1341 -1341 -1341 -1341 -1341 -1341 -1341 -1341 -1342 -1343 -1341 :RAD 3 /3 6321 6318 6312 6311 6308 6309 6308 6305 6305 6306 :RA2 3 /3 6295 6299 6285 6291 6278 6290 6287 6280 6286 6281 :SW1 47 /60 0 :SW2 17 /60 0 :BAT 14 /15 12.3 :NAME 26CB10AC /
0000045200
110
SXXX32 EUMS 110046 RRX
1227146C
:PRS 1 /1 3496 3496 3500 3500 3499 3498 3502 3503 3500 3500 3502 3503 3503 3503 3504 3506 3509 3507 3509 3511 3512 3510 3513 3515 3515 3515 3517 3519 3519 3520 :RAD 3 /3 3457 3483 3480 3475 3481 3487 3483 3454 3491 3500 3550 3516 3497 3499 3499 3522 3519 3508 3530 3525 :ENC 1 /5 4252 4255 4257 4263 4267 4272 4279 4286 4292 4293 4294 4297 :SW1 47 /60 0 :SW2 17 /60 60 :BAT 14 /15 12.0 :NAME 1227146C /
0000011800
111
SNVF25 LFPW 110100
BBXX
BATFR12 11014 99487 70064 46/// /3608 10097 20070 40150 52008
22200 04149=
0000015700
112
SSVX13 LFPW 110100
ZZYY 44745 11014 0100/ 745773 050368 6113/ 11119 40259 52005 22219
 00015 444 20130 11014 0100/ 50101 80150 80000 9/015=
0000015700
113
SSVX13 LFPW 110100
ZZYY 44612 11014 0100/ 745763 045433 6113/ 11119 40219 52012 22219
 00038 444 20130 11014 0100/ 50101 80154 80002 9/015=
0000030100
114
USKZ11 UAAA 110000
TTAA  11001 35700 99019 01222 23003 00123 01422 25004 92751
02720 27009 85421 03150 28509 70953 06173 29515 50550 23347
29019 40709 36337 29520 30902 52350 31020 25017 62756 31526
20150 74750 30529 15320 69156 29525 10562 70756 28527 88202
74750 31029 77999=
0000135500
115
SNSQ51 LZIB 110100
AAXX 11011
11812 46/// /3006 10021 21008 39507 42806=
11813 46/// /2702 10032 21002 39859 40214=
11816 42975 10000 11006 21020 30049 40219 80001
  333 81070=
11819 46/// /9901 10008 21011 39995 40218=
11826 45/76 /0000 10005 21024 30011 40217=
11841 42770 60000 10022 21014 39823 40207 86500
  333 86650=
11855 45/69 /3601 11008 21025 30044 40216=
11856 46/// /3003 10026 21014 39890 40215=
11858 46/// /1603 10001 21016 30065 40222=
11867 45/82 /2403 10009 21004 39887 40212=
11880 46/// /9901 11021 21021 30038 40217=
11900 46/// /2602 10031 21022 39866 40207=
11903 42670 29901 10009 21016 39821 40212 82500
  333 82645=
11916 46/// /3214 11094 21099 37934 48446
  333 91121=
11918 46/// /2405 10014 21040 39362 42791=
11927 46/// /2403 10010 21011 39936 40205=
11930 46/// /3208 11127 21148 37297 47960
  333 91017 91123=
11933 46/// /9901 11050 21067 38646 48460=
11934 42682 12906 10003 21055 39357 42788 81500
  333 81646=
11938 46/// /9901 11024 21055 39111 42784=
11952 46/// /2905 11004 21054 39345 42785=
11958 46/// /2502 11044 21045 3//// 4////=
11968 41002 42901 11017 21017 39914 40205 74444 84600
  333 84701=
11976 46/// /9901 10000 21008 39926 40198=
11978 46/// /2001 10015 20012 30063 40197=
11993 46/// /0000 11008 21012 39979 40203=
0000017900
116
SMIN50 VIDP 110000 RRA
AAXX 11004
42103 31994 23202 10088 20075 40174 71011 82030
  333 58005 82360=
42182 31992 02705 10080 20080 40175 74444
  333 59003=
0000005200
117
RRIN23 VIDP 110101
RQRPT 043-084=

0000011800
118
SNVE25 LFPW 110100
BBXX
BATFR28 11014 99039 11061 46/// /0317 10259 20227 40129 51022
22247 04267=
00000000