0000017400
339
SARE20 FMEE 110100
METAR FMEE 110100Z 12014KT 9999 FEW030 26/21 Q1014 NOSIG=
METAR FMEP 110100Z AUTO 36007KT 9999 NCD 24/20 Q1014=
METAR FMCZ 110100Z NIL=
0000009000
340
SAER41 OMAM 110057 RRF
METAR OMAM 110100Z 11005KT CAVOK 16/08 Q1017 A3004=
0000034000
341
SABY31 UMMN 110100
METAR UMBB 110100Z NIL=
METAR UMGG 110100Z 28012G15MPS 9999 -SHRA OVC015CB 04/02 Q0996
R28/290250 NOSIG=
METAR UMII 110100Z NIL=
METAR UMMG 110100Z NIL=
METAR UMMM 110100Z NIL=
METAR UMMS 110100Z 29007G14MPS 250V310 9999 -SHRA BKN015CB 02/00
Q0996 R31/290060 NOSIG=
METAR UMOO 110100Z NIL=
0000009100
342
UPMS02 WMKK 110000 RRA
PPAA  61008 96413
55385 27508 28513 26525
77999=
0000023900
343
UGMS20 WMKK 110000 RRA
PPBB  61008 48615
90/12 06013 06020 08024 90378 08026 10007 14011 91247
15521 13507 06006 9189/ 10006 12009 92127 09511 10502
10020 9337/ 06013 15514 9406/ 17016 13026 95023 10038
07523 /////=
0000015700
344
UGMS21 WMKK 110000 RRA
PPBB  61008 96413
90/12 17002 01004 01508 90357 35006 27508 26010 91023
30014 26519 28522 91489 27020 26025 27024=
0000014700
345
SNNC22 NWBB 110100
AAXX 11014
91570 46/// /1015 10315 20211 30102 40106 58004=
91574 46/// /1115 10283 20216 30119 40124 58005=
0000216500
346
SZNZ01 NZKL 110106
CREX++
T000103 A001 D01021 D06025++
-3683144 17478654 AUCT  2014 01 11 00 58 //// 11 07 00 01
05288 3161 05299 3164 05307 3164 05314 3162 05325 3166 05334 3167+
-4402404 -17636748 CHIT  2014 01 11 00 58 //// 11 07 00 01
05405 2116 05391 2102 05426 2136 05405 2115 05426 2136 05421 2130+
-4089929 17623168 CPIT  2014 01 11 00 58 //// 11 07 00 01
04364 2233 04360 2228 04363 2229 04364 2229 04370 2232 04373 2233+
-3618905 17548887 GBIT  2014 01 11 00 58 //// 11 07 00 01
06044 0025 06041 0018 06043 0015 06056 0023 06064 0027 06076 0034+
-3867541 17802288 GIST  2014 01 11 00 58 //// 11 07 00 01
04485 2727 04474 2713 04493 2729 04490 2724 04512 2742 04483 2710+
-4241288 17370277 KAIT  2014 01 11 00 58 //// 11 07 00 01
03829 2152 03842 2165 03841 2163 03829 2151 03831 2152 03825 2145+
-3755040 17815904 LOTT  2014 01 11 00 58 //// 11 07 00 01
03835 0211 03839 0212 03843 0211 03851 0215 03845 0205 03851 0208+
-3704657 17451175 MNKT  2014 01 11 00 58 //// 11 07 00 01
01857 -0211 01859 -0211 01860 -0212 01871 -0203 01873 -0203 01878 -0201+
-3947566 17692007 NAPT  2014 01 11 00 58 //// 11 07 00 01
03490 1978 03495 1981 03515 1999 03491 1972 03488 1966 03488 1964+
-3441483 17304870 NCPT  2014 01 11 00 58 //// 11 07 00 01
-04086 -8463 -04075 -8457 -04147 -8535 -04107 -8500 -04106 -8505 -03981 -8385+
-4581435 17062939 OTAT  2014 01 11 00 58 //// 11 07 00 01
05212 3420 05207 3417 05194 3406 05192 3407 05199 3417 05198 3418+
-2928002 -17789440 RBCT  2014 01 11 00 58 //// 11 07 00 01
06193 1978 06187 1968 06188 1965 06209 1983 06214 1985 06207 1974+
-2925114 -17790384 RFRT  2014 01 11 00 58 //// 11 07 00 01
03159 0173 03156 0167 03163 0169 03169 0172 03160 0160 03167 0164+
-4357010 17277383 SUMT  2014 01 11 00 58 //// 11 07 00 01
02744 1841 02726 1822 02710 1806 02739 1836 02720 1817 02720 1817+
-3764109 17618118 TAUT  2014 01 11 00 58 //// 11 07 00 01
05263 3975 05267 3974 05276 3978 05280 3977 05287 3979 05292 3979+
-4128448 17477985 WLGT  2014 01 11 00 58 //// 11 07 00 01
03657 2082 03650 2074 03649 2073 03654 2078 03652 2075 03656 2079++
7777
0000009800
347
SATS40 DTTA 110100
METAR DTTA 110100Z 00000KT 7000 R19/0800VP2000D R11/0800VP2000D
0000028300
348
SXHW11 KWAL 110105
B15047DC 011010533"
1,140111,00:00:00,1.0,2,1.0,21.5,1018.6,45.82,13.8,
1,140111,00:15:00,1.0,2,1.0,21.2,1018.4,45.82,13.6,
1,140111,00:30:00,1.0,2,1.0,21.0,1018.3,45.82,13.6,
1,140111,00:45:00,1.0,2,1.0,21.1,1018.2,45.82,13.7, 43+0NN 210W
0000013500
349
SNVD02 CWAO 110100
BBXX
SHIP 11014 99623 70748 46/// /2608 11174 21223 40004 53036 7//// 8//// 22200 0//// 2//// =

0000013500
350
SNVD02 CWAO 110100
BBXX
SHIP 11014 99505 71278 46/// /0714 10053 20034 49985 56076 7//// 8//// 22221 0//// 2//// =

0000013500
351
SNVD02 CWAO 110100
BBXX
SHIP 11014 99489 70580 46/// /1103 11045 21082 4//// 55370 7//// 8//// 22200 0//// 2//// =

0000013500
352
SNVD02 CWAO 110100
BBXX
SHIP 11014 99465 70559 46/// /2531 11021 21021 40243 51013 7//// 8//// 22263 0//// 2//// =

0000013500
353
SNVD02 CWAO 110100
BBXX
SHIP 11014 99446 70636 46/// /2207 10012 21011 40289 57004 7//// 8//// 22200 0//// 2//// =

0000013500
354
SNVD02 CWAO 110100
BBXX
SHIP 11014 99497 70549 46/// /1005 11049 21096 40160 56019 7//// 8//// 22261 00015 2//// =

0000013500
355
SNVD02 CWAO 110100
BBXX
SHIP 11014 99473 70592 46/// /2519 11022 21065 49967 53042 7//// 8//// 22214 0//// 2//// =

0000013500
356
SNVD02 CWAO 110100
BBXX
SHIP 11014 99121 70689 46/// /0707 10263 20228 40145 51019 7//// 8//// 22200 0//// 2//// =

0000013500
357
SNVD02 CWAO 110100
BBXX
SHIP 11014 99369 11409 46/// /3314 10039 21095 40247 53003 7//// 8//// 22200 0//// 2//// =

0000013500
358
SNVD02 CWAO 110100
BBXX
SHIP 11014 99462 70602 46/// /2511 11026 21015 40261 56008 7//// 8//// 22200 0//// 2//// =

00000000