0000011000
156
UANT99 KDDL 110323
ARP TOM117 4641N02118W 0323 F400 MS54 243/58 KT
GTUIA QXT AOE 110323 L39A
0000011000
157
UANT99 KDDL 110323
ARP AZA60M 4902N01713W 0323 F370 MS60 253/72 KT
EIISB QXT AOW 110323 F46A
0000011100
158
UANT99 KDDL 110323
ARP AAL174 4926N04325W 0323 F350 MS57 321/56 KT
N349AN DDL XXW 110323 F08A
0000066100
159
UDAF01 FAPR 110320
AMDAR 1103
LVR AFZA61 2731S 00009E 110230 F410 MS590 305/034 TB0 S031 333 F/// VG010=
LVR AFZA61 2739S 00113E 110238 F410 MS589 302/029 TB0 S031 333 F/// VG010=
LVR AFZA61 2746S 00217E 110245 F410 MS592 285/023 TB0 S031 333 F/// VG010=
LVR AFZA61 2752S 00320E 110252 F410 MS597 298/024 TB0 S031 333 F/// VG010=
LVR AFZA61 2758S 00423E 110259 F410 MS600 296/024 TB0 S031 333 F/// VG010=
LVR AFZA61 2801S 00527E 110306 F410 MS605 289/024 TB0 S031 333 F/// VG010=
LVR AFZA61 2802S 00630E 110313 F410 MS605 258/016 TB0 S031 333 F/// VG010=
LVR AFZA61 2802S 00733E 110320 F410 MS602 257/020 TB0 S031 333 F/// VG010=
0000066100
160
UDAF01 FAPR 110322
AMDAR 1103
LVR AFZA05 3501S 09232E 110233 F370 MS537 305/110 TB0 S031 333 F/// VG016=
LVR AFZA05 3500S 09351E 110240 F370 MS526 305/117 TB0 S031 333 F/// VG015=
LVR AFZA05 3459S 09510E 110247 F370 MS525 310/126 TB0 S031 333 F/// VG015=
LVR AFZA05 3500S 09630E 110254 F370 MS532 306/124 TB0 S031 333 F/// VG015=
LVR AFZA05 3501S 09750E 110301 F370 MS527 305/121 TB0 S031 333 F/// VG015=
LVR AFZA05 3500S 09909E 110308 F370 MS537 305/107 TB0 S031 333 F/// VG015=
LVR AFZA05 3455S 10026E 110315 F370 MS537 301/095 TB0 S031 333 F/// VG015=
LVR AFZA05 3441S 10140E 110322 F390 MS577 290/088 TB0 S031 333 F/// VG015=
0000066100
161
UDAF01 FAPR 110321
AMDAR 1103
LVR AFZA02 3220N 01326E 110231 F380 MS565 267/092 TB0 S031 333 F/// VG000=
LVR AFZA02 3313N 01322E 110239 F380 MS575 262/101 TB0 S031 333 F/// VG000=
LVR AFZA02 3408N 01318E 110246 F380 MS562 264/084 TB0 S031 333 F/// VG000=
LVR AFZA02 3502N 01317E 110253 F380 MS575 264/079 TB0 S031 333 F/// VG000=
LVR AFZA02 3557N 01316E 110260 F380 MS580 264/071 TB0 S031 333 F/// VG000=
LVR AFZA02 3652N 01314E 110307 F380 MS595 257/057 TB0 S031 333 F/// VG000=
LVR AFZA02 3746N 01309E 110314 F380 MS602 257/051 TB0 S031 333 F/// VG000=
LVR AFZA02 3840N 01258E 110321 F380 MS607 255/043 TB0 S031 333 F/// VG000=
0000066100
162
UDAF01 FAPR 110323
AMDAR 1103
ASC AFZA26 1447N 01727W 110321 F004 PS191 020/013 TB1 S031 333 F/// VG035=
ASC AFZA26 1447N 01727W 110322 F006 PS187 027/014 TB1 S031 333 F/// VG041=
ASC AFZA26 1448N 01727W 110322 F008 PS180 023/011 TB1 S031 333 F/// VG041=
ASC AFZA26 1448N 01727W 110322 F009 PS178 013/010 TB2 S031 333 F/// VG047=
UNS AFZA26 1448N 01727W 110322 F012 PS167 031/011 TB1 S031 333 F/// VG042=
ASC AFZA26 1448N 01728W 110322 F015 PS163 041/019 TB1 S031 333 F/// VG036=
ASC AFZA26 1448N 01728W 110323 F018 PS157 039/020 TB1 S031 333 F/// VG036=
ASC AFZA26 1449N 01730W 110323 F020 PS170 059/016 TB1 S031 333 F/// VG034=
0000039100
163
SIVD20 KWNB 110300 RRM
BBXX
44096 11031 99370 70758 46/// ///// 1//// 90317 22200 00068 10502
20501 312// 40901 70008=
44099 11031 99369 70757 46/// ///// 1//// 90318 22200 00063 10502
20502 70009=
41029 11031 99328 70796 46/// /1805 1//// 40209 90300 333 91206
555 11057 22061=
44039 11031 99411 70727 46/// /1003 10030 20028 90300 333 91204
555 11036 22041=
0000032800
164
SIVD17 KWNB 110300 RRI
BBXX
52211 11031 99153 11457 46/// ///// 1//// 90318 22200 00281 10705
20704 305// 41101 70023=
51206 11031 99198 71550 46/// ///// 1//// 90303 22200 00254 11105
21004 310// 41103 70025=
46114 11031 99367 71223 46/// ///// 1//// 90308 22200 00127 11205
21003 330// 41205 70027=
0000011800
165
SNVD15 KWNB 110200 RRP
BBXX
42022 11021 99275 70837 46/// /1304 10212 40186 90229 555 11050
22055=
0000325400
166
SICI01 KWBC 110300 RRA
AAXX 11031
50774 31656 23201 11273 21310 40273 57003 70070 82/// 333 92528=
50953 42965 72003 11172 21237 40279 52001 87///=
51243 32965 03202 11211 21245 40487 52003=
51431 32980 00702 11155 21176 40385 57012=
51463 32980 01801 11100 21187 40420 57001=
51573 32965 00901 11097 21177 40480 52021=
51573 32965 00901 11097 21177 40480 52021=
51709 32965 42502 11100 21134 40462 52011 84///=
51747 32962 00000 11189 21222 40515 52012=
52203 32980 00702 11117 21203 40491 52018=
52983 32980 70401 11056 21229 38208 52016 87///=
53564 41919 02501 11102 21194 40414 52010 70500=
53614 31934 73401 11061 21164 40389 52014 70500 87///=
53959 31923 71101 10018 21077 40356 52013 70500 87///=
54094 42956 52508 11119 21217 40269 57003 85///=
54161 32970 42204 11096 21201 40283 57011 84///=
54292 32965 02708 11076 21198 40266 57016=
54374 32970 01401 11145 21209 40340 57017=
54471 42962 02202 11016 21097 40304 57012=
54511 31947 61801 10012 21171 40318 57006 70500 86///=
56029 41975 80000 11082 21110 36462 52024 77070 88///=
57083 31/05 92502 10033 21026 40340 52002 70540=
57127 32961 81601 10039 20011 40351 52019 88///=
57131 32960 02002 10032 21073 40365 52018=
57494 41959 83602 10043 20025 40322 52007 71000 88///=
58040 31930 02201 10036 21022 40339 57004 70540=
58251 31955 70903 10049 21009 40331 57003 70500 87///=
58752 31756 82702 10097 20045 40300 57004 70500 88///=
59758 32470 60706 10224 20182 40229 52011 86///=
50136 32970 22902 11298 21332 40351 52009 82///=
50468 32970 03404 11256 21324 40276 57001=
50745 32964 60705 11180 21250 40279 57001 86///=
50788 32970 62903 11216 21251 40243 57005 86///=
51076 32980 03601 11165 21209 40488 52003=
51133 32980 50201 11123 21181 40390 57006 85///=
51288 32980 21102 11136 21214 38434 52005 82///=
52418 32980 00000 11102 21214 40487 52016=
52681 32980 02704 11074 21209 40442 52016=
53513 32980 62505 11055 21211 40392 52023 86///=
53588 32980 02711 11102 21279 37802 52004=
53646 32975 03601 11065 21220 40380 52014=
53798 31911 71602 10013 21088 40320 57007 70500 87///=
53845 32970 00901 11048 21169 40383 52009=
54102 32973 12702 11125 21230 40360 52002 81///=
54161 32970 42204 11096 21201 40283 57011 84///=
54337 42957 72202 11048 21149 40305 57013 87///=
54401 32968 62703 11061 21234 40353 57001 86///=
54423 31957 61801 11088 21215 40335 57011 70500 86///=
54497 42961 00403 11061 21098 40320 57013=
54618 31/00 92001 11029 21032 40330 57003 74944=
54843 41927 01401 10038 21037 40333 57009 70500=
54909 41932 02004 10048 21025 40338 52003 70500=
57265 41958 83203 10034 20021 40346 52009 71000 88///=
58102 32962 00701 10059 21029 40336 52002=
58221 31942 70903 10043 20006 40327 57006 70500 87///=
58238 31529 80904 10044 20019 40327 52003 76060 88///=
58362 41861 80904 10064 20030 40325 57005 76065 88///=
58457 41/09 90701 10055 20046 40317 52002 76084=
58847 32663 72903 10131 20069 40284 57002 87///=
59117 32662 61102 10161 20081 40266 57004 86///=
59134 31959 13602 10165 20094 40263 57008 70500 81///=
59287 31962 70402 10171 20100 40258 52002 70500 87///=
59316 31757 60901 10165 20092 40268 57004 70500 86///=
0000010400
167
SICI01 KWBC 102100 RRM
AAXX 10211
55578 32/// 90000 11082 21235 36353 52004 333 00101=
0000057300
168
SIVZ11 SBBR 110300 RRE
BBXX
SHIP 11031 99/// 1//// 36/// /0800 10188 20182 39997 40124 52///
  333 10195 20187 553// 10003 91102=
SHIP 11031 99/// 1//// 36/// /2100 10218 20194 39963 40107
  333 10220 20213 553// 10002 91111=
SHIP 11031 99/// 1//// 16/// /1200 10208 20198 39550 49943 52/// 6002/
  333 10233 20206 553// 10003 91106=
SHIP 11031 99/// 1//// 36/// /0402 10215 20203 39982 40128 52///
  333 10215 20214 553// 10003 91106=
SHIP 11031 99/// 1//// 36/// /3404 10265 20224 30103 40103 52///
  333 10266 20264 553// 10003 91110=
0000091900
169
SIAJ40 UBBB 110300
AAXX 11031
37905 32997 02301 11023 21029 40214 57014 555 21027 31004  7000/=
37749 32998 00203 10004 21029 30090 40211 57026 555 21002 53006
7000/=
37740 32998 01801 11015 21055 39387 40219 57019 333 44998
555 21019 7000/=
37661 32998 02703 11007 21061 39426 40208 57031 555 21010 7000/=
37675 32995 03602 10001 21083 39473 40144 57030 333 55074
555 21022 34105 53004 7000/=
37851 32598 61406 10035 20025 30114 40186 57031 86500
3233 55029 91116 555 20026 7000/=
37832 32997 03001 10001 21020 40196 57030 555 21023 7000/=
37985 32996 03401 11002 21017 30202 40187 57019 333 4/998
55030 555 50036 7000/=
37923 32996 83204 10016 21006 40207 58035 8807/
555 2000/ 53006 7000/=
37735 32996 03401 10001 21026 39789 40174 53006 333 4/999
55072 555 21008 34106 50046 53001 7000/=
37864 32497 51807 10043 20026 4015857025 85700 333 85710
555 20037 7000/=
0000010600
170
SITA20 UTDD 110300 RRD
AAXX 11031
38856 32998 00000 11052 21085 48620 52013 333   41995=
0000075000
171
SIKZ30 UAAA 110300
AAXX 11031
28978 /1596 81803 11101 21120 39722 40234 57005 77173 885// 333
47019 555   21112 69962 7003/=
28984 /1999 71504 11119 21135 39735 40247 57009 73673 82042 333
48032 55000 555   21121 69942 7998/=
34398 /13// 81804 10006 20001 30081 40094 57021 71052 887// 333
42007 55000 555   20000 3/101 69932 7997/=
34798 32997 81803 10018 21010 30169 40139 58019 8805/ 555   20002
7000/=
35173 /15// 81705 11098 21119 39853 40249 57012 73632 885// 333
47029 555   21131 69902 7002/=
35358 /19// 82002 11064 21109 39995 40170 57014 77177 8802/ 333
47026 555   21092 60012 7001/=
35576 NIL=
35699 NIL=
36686 32998 60903 11152 21179 39901 40364 57045 80004 333   44001
555   21170 7000/=
0000174500
172
SITR20 UTAA 110300
AAXX 11031
38388 32598 60000 11048 21051 30147 40221 57003 86900 333 55071 555
21058 34107 7000/=
38392 32996 02102 11066 21082 30118 40227 53005 333 55024 555 21070
34110 7000/=
38507 32596 51203 10020 21017 30099 40204 57016 85500 333 55013 85621
555 20020 30101 7000/=
38511 32998 71402 11002 21023 30071 40216 54000 87030 333 55044 555
21038 34106 7000/=
38545 32998 01302 11040 21077 30050 40234 57002 333 55076 555 21042
34106 7000/=
38647 32997 00000 11020 21036 30161 40205 57008 555 21025 30107
7000/=
38656 32998 00000 11047 21078 30113 40228 53002 333 55068 555 21048
34108 7000/=
38687 32997 71805 10015 21051 30001 40243 57007 80001 333 55066 555
20000 34103 7000/=
38750 31993 02302 10034 20034 30233 40204 57013 74444 555 20015 30001
7000/=
38763 32997 00000 11034 21041 30111 40221 57014 333 55056 555 21036
34104 7000/=
38774 32998 21501 11003 21015 30027 40230 54000 80001 555 21005 30106
7000/=
38799 32997 61603 10008 21045 39999 40238 53003 80003 555 20007 30102
7000/=
38806 32997 71604 10011 21045 39986 40254 54000 80002 555 21009 34103
7000/=
38880 32997 41702 10003 21067 39966 40229 58008 83031 555 21009 30105
7000/=
38886 32997 32901 10004 21058 39995 40230 54000 80001 555 21004 34106
7000/=
38895 32996 02102 11028 21044 39941 40243 53011 555 21028 34108
7000/=
38911 32998 61508 10013 21032 39953 40256 57003 80001 333 55063 555
20005 30101 7000/=
38915 32997 31308 10020 21054 39924 40256 57003 80001 555 20018 31000
7000/=
38974 32998 50000 10024 21043 39896 40239 58009 80002 333 55084 555
20023 30102 7000/=
38987 32996 40000 11029 21060 39509 40287 53004 82072 333 55088 555
21030 34104 7000/=
0000013600
173
SIIN90 VISM 110300
AAXX 11034
42106 22696 20000 10040 21005 4//// 82500
  333 10150 20026 6004/
  555 00040 10005=
0000023200
174
SSVX08 KARS 110322
ZZYY 51307 10014 1200/ 707996 124994 6111/
33311 88870 20020 32716 20040 32700 20060 32432 20080 31859
20100 31404 20120 31260 20140 31194 20180 31113 20300 31000
444 20110 10014 1057/ 521//=
0000011000
175
UANT01 CWAO 110323
ARP SWR17P 4727N03316W 0323 F380 MS50 219/44 KT
HBJHJ QXT AOW 110323 J52A
00000000