0000011000
459
UANT99 KDDL 110104
ARP XLF054 4525N02656W 0104 F380 MS56 227/56 KT
FGSEU DDL XXN 110104 J11A
0000281700
460
SAIR31 OIII 110100
 METAR OIAA 110100Z 12004KT 5000 RA FEW030CB SCT035 OVC090 13/11
 Q1017=
 METAR OIAG 110053Z 13012KT 8000 SHRA SCT035CB BKN040 11/09 Q1019
 RESHRA=
METAR OIAH 110100Z 10012KT 6000 -RA SCT040 OVC090 10/03 Q1018=
 METAR OIAI 110100Z 16004KT 5000 RA FEW035CB SCT040 OVC070 09/08
 Q1017=
 METAR OIAM 110100Z 10010KT 3500 BR FEW030CB SCT040 OVC080 12/12
 Q1018=
 METAR OIAW 110100Z 09006KT 2000 RA FEW030CB SCT035 OVC080 11/11
 Q1018=
METAR OIBA NIL=
 METAR OIBB 110050Z 09006KT 9999 FEW030CB SCT040 OVC090 15/09 Q1019
 A3009=
METAR OIBK 110050Z 10010KT 9999 FEW030CB FEW035 17/03 Q1019=
METAR OIBL NIL=
METAR OIBS NIL=
 METAR OICC 110050Z 11014KT 5000 BR FEW035CB SCT040 BKN080 M01/M02
 Q1018 A3009 RESN=
 METAR OICI 110100Z 14006KT 8000 SCT025 FEW030CB OVC070 03/03 Q1017
 A3004=
METAR OICJ NIL=
 METAR OICK 110050Z 26004KT 7000 RA FEW035CB SCT040 OVC070 02/01
 Q1019=
METAR OICS 110100Z 00000KT 3000 SN BR SCT035 OVC070 M04/M05 Q1020=
METAR OIFK 110100Z 00000KT 9999 SCT035 OVC100 M01/M05 Q1024=
 METAR OIFM 110050Z 00000KT 0500 FG FEW040 BKN100 M04/M04 Q1020
 A3014=
METAR OIFS 110100Z 00000KT 9999 SCT040 M11/M13 Q1021=
METAR OIGG 110100Z 00000KT 3000 BR SKC 02/02 Q1018=
METAR OIGK NIL=
METAR OIHH NIL=
METAR OIHM 110100Z 32006KT 6000 -SN FEW035 OVC090 M05/M06 Q1017=
METAR OIIE 110100Z 29004KT CAVOK M01/M06 Q1021 A3015 NOSIG=
 METAR OIII 110100Z 00000KT 6000 FEW040 BKN100 01/M06 Q1020 A3014
 NOSIG=
METAR OIIK 110100Z 00000KT CAVOK M02/M06 Q1021=
METAR OIIP NIL=
METAR OIIS 110100Z 34002KT 9999 FEW035 SCT190 M00/M05 Q1022=
METAR OIKB 110050Z 04008KT CAVOK 12/05 Q1020 A3014=
METAR OIKK 110100Z 00000KT CAVOK M05/M08 Q1021 A3016=
METAR OIKO NIL=
METAR OIKQ NIL=
METAR OIMB 110100Z 06006KT CAVOK M04/M11 Q1022=
METAR OIMC NIL=
METAR OIMD NIL=
METAR OIMM 110050Z 18004KT CAVOK M03/M11 Q1021 A3017=
METAR OINB 110100Z 00000KT CAVOK 04/03 Q1019=
METAR OING 110100Z 00000KT CAVOK 02/02 Q1021=
METAR OINK NIL=
METAR OINN 110100Z 21004KT CAVOK 05/02 Q1019=
METAR OINR 110100Z VRB02KT CAVOK 04/03 Q1018=
METAR OISA 110050Z 00000KT 9999 FEW040 M08/M11 Q1019=
 METAR OISF 110050Z 00000KT 9999 FEW035CB SCT040 OVC100 05/02
 Q1020=
METAR OISL NIL=
 METAR OISS 110050Z 00000KT 7000 FEW035CB SCT040 OVC100 02/M01
 Q1022 A3019=
METAR OISY NIL=
METAR OITL 110050Z 03004KT 9999 FEW090 BKN150 M17/M18 Q1018=
METAR OITR 110050Z 25002KT 3000 BR FEW035 OVC140 M09/M11 Q1021=
METAR OITT 110150Z 08004KT 8000 NSC M10/M13 Q1021 A3017=
METAR OITU 110050Z 00000KT 3000 BR SKC M18/M19 Q1022=
METAR OIYY 110050Z 00000KT 9999 FEW040 BKN100 02/M01 Q1022=
METAR OIZB NIL=
METAR OIZC NIL=
METAR OIZH 110100Z 22004KT CAVOK M04/M05 Q1022 A3019=
METAR OIZI NIL=
METAR OIZJ NIL=
0000299400
461
SAIR77 OIII 110100
METAR AZUH 110050Z 00000KT 1000 BR BKN025 M14/M16 Q1026=
METAR KHME 110050Z 09006KT CAVOK M01/M09 Q1023=
 METAR OIAA 110100Z 12004KT 5000 RA FEW030CB SCT035 OVC090 13/11
 Q1017=
 METAR OIAG 110053Z 13012KT 8000 SHRA SCT035CB BKN040 11/09 Q1019
 RESHRA=
METAR OIAH 110100Z 10012KT 6000 -RA SCT040 OVC090 10/03 Q1018=
 METAR OIAI 110100Z 16004KT 5000 RA FEW035CB SCT040 OVC070 09/08
 Q1017=
 METAR OIAM 110100Z 10010KT 3500 BR FEW030CB SCT040 OVC080 12/12
 Q1018=
 METAR OIAW 110100Z 09006KT 2000 RA FEW030CB SCT035 OVC080 11/11
 Q1018=
METAR OIBA NIL=
 METAR OIBB 110050Z 09006KT 9999 FEW030CB SCT040 OVC090 15/09 Q1019
 A3009=
METAR OIBK 110050Z 10010KT 9999 FEW030CB FEW035 17/03 Q1019=
METAR OIBL NIL=
METAR OIBS NIL=
 METAR OICC 110050Z 11014KT 5000 BR FEW035CB SCT040 BKN080 M01/M02
 Q1018 A3009 RESN=
 METAR OICI 110100Z 14006KT 8000 SCT025 FEW030CB OVC070 03/03 Q1017
 A3004=
METAR OICJ NIL=
 METAR OICK 110050Z 26004KT 7000 RA FEW035CB SCT040 OVC070 02/01
 Q1019=
METAR OICS 110100Z 00000KT 3000 SN BR SCT035 OVC070 M04/M05 Q1020=
METAR OIFK 110100Z 00000KT 9999 SCT035 OVC100 M01/M05 Q1024=
 METAR OIFM 110050Z 00000KT 0500 FG FEW040 BKN100 M04/M04 Q1020
 A3014=
METAR OIFS 110100Z 00000KT 9999 SCT040 M11/M13 Q1021=
METAR OIGG 110100Z 00000KT 3000 BR SKC 02/02 Q1018=
METAR OIGK NIL=
METAR OIHM 110100Z 32006KT 6000 -SN FEW035 OVC090 M05/M06 Q1017=
METAR OIIE 110100Z 29004KT CAVOK M01/M06 Q1021 A3015 NOSIG=
 METAR OIII 110100Z 00000KT 6000 FEW040 BKN100 01/M06 Q1020 A3014
 NOSIG=
METAR OIIK 110100Z 00000KT CAVOK M02/M06 Q1021=
METAR OIIP NIL=
METAR OIIS 110100Z 34002KT 9999 FEW035 SCT190 M00/M05 Q1022=
METAR OIKB 110050Z 04008KT CAVOK 12/05 Q1020 A3014=
METAR OIKK 110100Z 00000KT CAVOK M05/M08 Q1021 A3016=
METAR OIKO NIL=
METAR OIKQ NIL=
METAR OIMB 110100Z 06006KT CAVOK M04/M11 Q1022=
METAR OIMC NIL=
METAR OIMD NIL=
METAR OIMM 110050Z 18004KT CAVOK M03/M11 Q1021 A3017=
METAR OIMN 110050Z 00000KT CAVOK M06/M09 Q1022=
METAR OINB 110100Z 00000KT CAVOK 04/03 Q1019=
METAR OING 110100Z 00000KT CAVOK 02/02 Q1021=
METAR OINK NIL=
METAR OINN 110100Z 21004KT CAVOK 05/02 Q1019=
METAR OINR 110100Z VRB02KT CAVOK 04/03 Q1018=
METAR OISA 110050Z 00000KT 9999 FEW040 M08/M11 Q1019=
 METAR OISF 110050Z 00000KT 9999 FEW035CB SCT040 OVC100 05/02
 Q1020=
METAR OISL NIL=
 METAR OISS 110050Z 00000KT 7000 FEW035CB SCT040 OVC100 02/M01
 Q1022 A3019=
METAR OISY NIL=
METAR OITL 110050Z 03004KT 9999 FEW090 BKN150 M17/M18 Q1018=
METAR OITR 110050Z 25002KT 3000 BR FEW035 OVC140 M09/M11 Q1021=
METAR OITT 110150Z 08004KT 8000 NSC M10/M13 Q1021 A3017=
METAR OITU 110050Z 00000KT 3000 BR SKC M18/M19 Q1022=
METAR OIYY 110050Z 00000KT 9999 FEW040 BKN100 02/M01 Q1022=
METAR OIZB NIL=
METAR OIZC NIL=
METAR OIZH 110100Z 22004KT CAVOK M04/M05 Q1022 A3019=
METAR OIZI NIL=
METAR OIZJ NIL=
METAR SESG NIL=
METAR YAYT NIL=
0000289500
462
SAIR78 OIII 110100
METAR AZUH 110050Z 00000KT 1000 BR BKN025 M14/M16 Q1026=
METAR KHME 110050Z 09006KT CAVOK M01/M09 Q1023=
 METAR OIAA 110100Z 12004KT 5000 RA FEW030CB SCT035 OVC090 13/11
 Q1017=
 METAR OIAG 110053Z 13012KT 8000 SHRA SCT035CB BKN040 11/09 Q1019
 RESHRA=
METAR OIAH 110100Z 10012KT 6000 -RA SCT040 OVC090 10/03 Q1018=
 METAR OIAI 110100Z 16004KT 5000 RA FEW035CB SCT040 OVC070 09/08
 Q1017=
 METAR OIAM 110100Z 10010KT 3500 BR FEW030CB SCT040 OVC080 12/12
 Q1018=
 METAR OIAW 110100Z 09006KT 2000 RA FEW030CB SCT035 OVC080 11/11
 Q1018=
METAR OIBA NIL=
 METAR OIBB 110050Z 09006KT 9999 FEW030CB SCT040 OVC090 15/09 Q1019
 A3009=
METAR OIBK 110050Z 10010KT 9999 FEW030CB FEW035 17/03 Q1019=
METAR OIBL NIL=
METAR OIBS NIL=
 METAR OICC 110050Z 11014KT 5000 BR FEW035CB SCT040 BKN080 M01/M02
 Q1018 A3009 RESN=
 METAR OICI 110100Z 14006KT 8000 SCT025 FEW030CB OVC070 03/03 Q1017
 A3004=
METAR OICJ NIL=
 METAR OICK 110050Z 26004KT 7000 RA FEW035CB SCT040 OVC070 02/01
 Q1019=
METAR OICS 110100Z 00000KT 3000 SN BR SCT035 OVC070 M04/M05 Q1020=
METAR OIFK 110100Z 00000KT 9999 SCT035 OVC100 M01/M05 Q1024=
 METAR OIFM 110050Z 00000KT 0500 FG FEW040 BKN100 M04/M04 Q1020
 A3014=
METAR OIFS 110100Z 00000KT 9999 SCT040 M11/M13 Q1021=
METAR OIGG 110100Z 00000KT 3000 BR SKC 02/02 Q1018=
METAR OIGK NIL=
METAR OIHH NIL=
METAR OIHM 110100Z 32006KT 6000 -SN FEW035 OVC090 M05/M06 Q1017=
METAR OIIE 110100Z 29004KT CAVOK M01/M06 Q1021 A3015 NOSIG=
 METAR OIII 110100Z 00000KT 6000 FEW040 BKN100 01/M06 Q1020 A3014
 NOSIG=
METAR OIIK 110100Z 00000KT CAVOK M02/M06 Q1021=
METAR OIIS 110100Z 34002KT 9999 FEW035 SCT190 M00/M05 Q1022=
METAR OIKB 110050Z 04008KT CAVOK 12/05 Q1020 A3014=
METAR OIKK 110100Z 00000KT CAVOK M05/M08 Q1021 A3016=
METAR OIKO NIL=
METAR OIKQ NIL=
METAR OIMB 110100Z 06006KT CAVOK M04/M11 Q1022=
METAR OIMC NIL=
METAR OIMD NIL=
METAR OIMM 110050Z 18004KT CAVOK M03/M11 Q1021 A3017=
METAR OIMN 110050Z 00000KT CAVOK M06/M09 Q1022=
METAR OINB 110100Z 00000KT CAVOK 04/03 Q1019=
METAR OING 110100Z 00000KT CAVOK 02/02 Q1021=
METAR OINN 110100Z 21004KT CAVOK 05/02 Q1019=
METAR OINR 110100Z VRB02KT CAVOK 04/03 Q1018=
METAR OISA 110050Z 00000KT 9999 FEW040 M08/M11 Q1019=
 METAR OISF 110050Z 00000KT 9999 FEW035CB SCT040 OVC100 05/02
 Q1020=
METAR OISL NIL=
 METAR OISS 110050Z 00000KT 7000 FEW035CB SCT040 OVC100 02/M01
 Q1022 A3019=
METAR OISY NIL=
METAR OITR 110050Z 25002KT 3000 BR FEW035 OVC140 M09/M11 Q1021=
METAR OITT 110150Z 08004KT 8000 NSC M10/M13 Q1021 A3017=
METAR OITU 110050Z 00000KT 3000 BR SKC M18/M19 Q1022=
METAR OIYY 110050Z 00000KT 9999 FEW040 BKN100 02/M01 Q1022=
METAR OIZB NIL=
METAR OIZC NIL=
METAR OIZH 110100Z 22004KT CAVOK M04/M05 Q1022 A3019=
METAR OIZI NIL=
METAR OIZJ NIL=
METAR YAYT NIL=
0000011700
463
SAAJ31 UBBB 110100
METAR UBBQ 110100Z 13003KT 3200 BR NSC M07/M09 Q1018
R16/CLRD70 NOSIG RMK MT OP=
0000013000
464
SAAJ31 UBBB 110100
METAR UBBN 110100Z 23004KT 2300 BR OVC006 M09/M11 Q1025
R14R/CLRD60 NOSIG RMK MT OBSC QFE693=
0000011600
465
SATR31 UTAA 110100
METAR UTAA 110100Z 16002G08MPS 120V200 9999 FEW230 00/M06
Q1021 12CLRD70 NOSIG=
0000014100
466
SAUR30 UKMS 110100 CCA
METAR COR UKHH 110100Z 28006MPS 9999 BKN012 OVC026
         04/02  Q1001 25290050 BECMG 25008G14MPS=
0000011400
467
SAAJ31 UBBB 110100
METAR UBBY 110100Z VRB02KT 9999 NSC M02/M05 Q1022
R33/////// NOSIG RMK MT OP=
0000010300
468
SAAJ31 UBBB 110100
METAR UBBB 110100Z 18014KT 9999 SCT009 04/03 Q1017 88CLRD70
NOSIG=
0000010800
469
SAAJ31 UBBB 110100
METAR UBBG 110100Z 25006KT 9999 FEW100 M03/M05 Q1019
R30/CLRD70 NOSIG =
0000024000
470
SAGG31 UGTB 110100
METAR UGTB 110100Z VRB02KT 9000 NSC M03/M06 Q1022 R31L/CLRD80 NOSIG=
METAR UGSB 110100Z AUTO 14020KT CAVOK 07/M03 Q1017 R13/CLRD70 NOSIG=
METAR UGKO 110100Z 09012KT CAVOK 08/M05 Q1015 R07/09//70 NOSIG=
0000015700
471
SSVX13 LFPW 110100
ZZYY 64623 11014 0100/ 170094 010599 6113/ 11119 40153 57009 22219
 00062 444 20130 11014 0000/ 50101 80140 80015 9/015=
0000015700
472
SSVX13 LFPW 110100
ZZYY 64516 11014 0100/ 172822 012331 6113/ 11119 40162 52001 22219
 00061 444 20130 11014 0000/ 50101 80130 80011 9/015=
0000015700
473
SSVX13 LFPW 110100
ZZYY 64621 11014 0100/ 763832 006519 6113/ 11119 49990 57002 22219
 00035 444 20130 11014 0000/ 50101 80140 80019 9/015=
0000015700
474
SSVX13 LFPW 110100
ZZYY 64609 11014 0100/ 768946 004405 6113/ 11119 40117 57006 22219
 00048 444 20130 11014 0000/ 50101 80140 80024 9/015=
0000015700
475
SSVX13 LFPW 110100
ZZYY 15547 11014 0100/ 527079 014496 6113/ 11119 40231 57005 22219
 00248 444 20130 11014 0000/ 50101 80142 80011 9/015=
0000015700
476
SSVX13 LFPW 110100
ZZYY 16540 11014 0100/ 343549 079044 6113/ 11119 40117 52013 22219
 00085 444 20130 11014 0000/ 50101 80144 80016 9/015=
0000015700
477
SSVX13 LFPW 110100
ZZYY 25619 11014 0100/ 185751 091295 6113/ 11119 40047 52014 22219
 01088 444 20130 11014 0000/ 50101 80140 8//// 9/015=
0000015700
478
SSVX13 LFPW 110100
ZZYY 62712 11014 0100/ 741735 027293 6113/ 11119 40012 57046 22219
 00142 444 20130 11014 0000/ 50101 80140 80000 9/015=
00000000