0000014900
336
SMNR01 DRRN 110000 RRB
AAXX 11004
61036 32960 70000 10226 20006 39889 40128 80008
  333 0//00 59004 87280=





NNNN=
0000011100
337
SIVF21 ESWI 110300 RRA
BBXX
SMLQ 11031 99656 10222 46/// /0206 11143 40107 5//// 222// 0////=
0000011000
338
UANT99 KDDL 110327
ARP UAL19 4727N04318W 0326 F340 MS57 319/58 KT
N76054 DDL XXW 110327 F61A
0000011000
339
UANT99 KDDL 110327
ARP AAL64 4809N02900W 0327 F350 MS56 196/50 KT
N388AA DDL XXW 110327 F67A
0000011000
340
UANT99 KDDL 110327
ARP DAL14 4710N02852W 0327 F340 MS54 205/55 KT
N839MH QXT AOE 110327 F85A
0000081900
341
FCIN90 VAAH 110300
TAF VAAH 110300Z 1106/1115 34006KT 5000 FU FEW100 BECMG 1112/1114 32004KT 4000 
FU/HZ=
TAF VABO 110300Z 1106/1115 34006KT 5000 FU FEW100 BECMG 1112/1114 32004KT 4000 
FU/HZ=
TAF VABJ 110300Z 1106/1115 34006KT 5000 FU FEW100 BECMG 1112/1114 32004KT 4000 
FU/HZ=
TAF VARK 110300Z 1106/1115 34006KT 5000 FU FEW100 BECMG 1112/1114 32004KT 4000 
FU/HZ=

TAF VABV 110300Z 1106/1115 34006KT 5000 FU FEW100 BECMG 1112/1114 32004KT 4000 
FU/HZ=
TAF VADU 110300Z 1106/1115 34006KT 5000 FU FEW100 BECMG 1112/1114 32004KT 4000 
FU/HZ=
TAF VAPR 110300Z 1106/1115 34006KT 5000 FU FEW100 BECMG 1112/1114 32004KT 4000 
FU/HZ=
TAF VAJM 110300Z 1106/1115 34006KT 5000 FU FEW100 BECMG 1112/1114 32004KT 4000 
FU/HZ=
TAF VASU 110300Z 1106/1115 34006KT 5000 FU FEW100 BECMG 1112/1114 32004KT 4000 
FU/HZ=

0000011000
342
UANT99 KDDL 110327
ARP SAS926 5643N02353W 0327 F390 MS52 221/53 KT
LNRKG DDL XXN 110327 J06A
0000011100
343
UANT99 KDDL 110327
ARP AWE730 4920N04355W 0327 F370 MS57 322/48 KT
N273AY DDL XXN 110327 J75A
0000011000
344
UANT99 KDDL 110327
ARP SWR17P 4736N03226W 0327 F380 MS51 217/48 KT
HBJHJ QXT AOW 110327 J55A
0000034300
345
SNVD15 KWNB 110100 RRT
BBXX
42369 11011 99272 70903 46/// /1507 1//// 90120=
42375 11011 99285 70883 46/// /1407 1//// 90120 22200 10401 70007
555 11059 22064=
42392 11011 99272 70900 46/// ///// 1//// 90120 22200 10502 70009=
42887 11011 99282 70885 46/// /1506 10219 20213 90120 22200 10502
70009 555 11051 22056=
0000103900
346
SIVB21 RJTD 110300
BBXX
SHIP    11034 99189 11192
41497 20732 10250 20191 40194 53004 70100 821//
22253 00250 2//08 310// 4//08 80210=
SHIP    11034 99115 11424
41597 70723 10286 20243 40103 57021 70322 82136 9////
22242 06285 20504 305// 40704 5//// 6//// 80254=
SHIP    11034 99097 11503
41898 20316 10280 20224 40099 70200 82101
22233 00324 20402 307// 40702 80240=
SHIP    11034 99112 11504
41697 60510 10280 20224 40136 57020 70211 861/2
22282 00320 20105 304// 40105 80240=
ELVL8   11033 99229 11173
41297 80526 10171 20109 40225 55005 70222 85720
22212 00190 20302 30304 40405 50606 80135=
SHIP    11034 99316 11325
41598 23414 10100 20038 40300 57012 70200 8213/ 9////
22213 00210 1//// 20302 335// 40302 5//// 6//// 80070 /////NNNN=
ELVL8   11033 99229 11173
41297 80526 10171 20109 40225 55005 70222 85720
22212 00190 20302 30304 40405 50606 80135=
H9XE    11034 99388 11419
41598 80832 11003 21031 40195 57010 70311 87343
22243 00100 20205 30606 40204 50105 81013=
0000003900
347
SIVD21 RJTD 110300
NIL=
0000011100
348
UANT01 CWAO 110327
ARP UAL110 5031N03749W 0327 F380 MS53 239/22 KT
N33103 DDL IG1 110327 F51A
0000010900
349
UANT01 CWAO 110327
ARP BAW6W 4925N03328W 0327 F380 MS53 215/49 KT
GVIIA QXT AOE 110327 F14A
0000011000
350
UANT01 CWAO 110327
ARP DLH491 5806N05348W 0327 F360 MS59 277/57 KT
DAIKI QXT AME 110327 J03A
0000011000
351
UANT01 CWAO 110327
ARP DLH403 5136N03224W 0327 F380 MS53 219/48 KT
DABTF QXT EUA 110327 F53A
0000113900
352
SINR20 DRRN 110300
AAXX 11034
61017 42960 50000 10046 20013 39780 40199 80002
  333 58012 85080=
61024 NIL=
61036 42960 71204 10215 20023 39888 40124 80008
  333 58006 87280=
61043 41958 71010 10166 21023 39703 40146 7052/ 80008
  333 59005 87280=
61045 41908 70804 10155 21007 39663 40164 7064/ 80008
  333 58011 87280=
61049 41956 70804 10152 20020 39848 40171 7052/ 80008
  333 58022 87280=
61052 41956 51006 10208 20008 39877 40131 70611 80002
  333 58002 85080=
61053 41945 70804 10201 20005 39/// 4//// 7062/ 80008
  333 5//// 87280=
61075 42960 61004 10185 20004 39835 40142 80008
  333 58007 86280=
61080 41956 70804 10159 21033 39730 40153 7062/ 80008
  333 58008 87280=
61085 41915 50812 10160 20017 39824 40247 7062/ 80002
  333 58022 85080=
61090 41940 70404 10175 21032 39639 40153 70522 80008
  333 58011 87280=
61091 42960 50000 10135 20021 39712 40170 80002
  333 58014 85080=
61096 41916 70410 10165 20004 39782 40167 70522 80008
  333 58013 87280=
61099 41956 70408 10220 20038 39888 40113 7062/ 80008
  333 58010 87280=





NNNN
/=
0000021400
353
SIXX40 ETGT 110300 RRC
AAXX 11031
40022 42965 00401 10074 20002 40204 56003=
40025 42960 00602 10034 21005 40212 56004=
40080 41501 20000 11014 21018 39489 40223 53005 74010 83100 333
83830=
0000011800
354
SITA20 UTDD 110300 CCA
AAXX 11031
38847 31992 70000 11078 21084 40357 53001 74641 80004 333   47003=
0000011000
355
UANT01 CWAO 110328
ARP ACA864 4751N05137W 0328 F370 MS67 295/53 KT
CGHLM DDL YYT 110328 J94A
00000000