0000011300
376
UDEU02 EGRR 111206 RRA
AMDAR 1112
LVR EU0030   5806N 00247E 111200 F305 MS465 238/031 TB/ S031=
0000043300
377
UDEU02 EGRR 111206 RRB
AMDAR 1111
LVR EU6113   6518N 00701W 111126 F340 MS532 087/034 TB/ S031=
LVR EU6113   6541N 00910W 111133 F340 MS545 112/037 TB/ S031=
LVR EU6113   6602N 01124W 111140 F340 MS562 128/049 TB/ S031=
LVR EU6113   6621N 01345W 111147 F340 MS570 125/059 TB/ S031=
LVR EU6113   6635N 01612W 111154 F340 MS575 129/061 TB/ S031=
LVR EU6113   6645N 01843W 111201 F340 MS590 127/069 TB/ S031=
0000024800
378
SMGY01 SYCJ 111200
AAXX 11120 
81001 NIL=
81002 11462 40000 10224 20217 40153 60001 70500 83172 333 20190 31018
55105 56299 57862 58012 70003 83816=
81005 NIL=
81006 NIL=
81010 NIL=
81058 NIL=
81080 NIL=
81100 NIL=
0000055900
379
SAIR33 OIII 111200
METAR OIBB 111200Z 13016KT 9999 -RA FEW030CB SCT035 OVC080 13/10
Q1016 A3001=
METAR OIBP 111200Z 32004KT 7000 5000SE SCT020 FEW025CB
OVC090 15/12 Q1018 A3007=
METAR OICK 111200Z 11004KT 8000 -RA FEW010 FEW030CB BKN035 OVC080
04/03 Q1016=
METAR OICS 111200Z 19002KT 7000 SCT035 BKN080 01/M04 Q1018=
METAR OIHH 111200Z NIL=
METAR OINZ 111200Z VRB02KT 8000 BKN080 OVC180 11/07 Q1015=
METAR OISR 111200Z 12004KT 3000 -RA FEW030CB FEW035 OVC080 10/09
Q1020=
METAR OITL 111200Z NIL=
METAR OIZC 111200Z NIL=
0000065300
380
SAIR34 OIII 111200
METAR OIAG 111200Z NIL=
METAR OIAM 111200Z  10016KT 9999 FEW010 SCT030CB SCT035 12/12
 Q1016=
METAR OICI 111200Z  00000KT 8000 FEW015 FEW025CB SCT035 BKN090
 05/05 Q1016 A3000=
METAR OIKQ 111200Z  33010KT 8000 -RA FEW025CB SCT030 BKN090 13/07
 Q1020=
METAR OINN 111200Z 09008KT 9999 FEW020 BKN100 OVC180 11/10 Q1014=
METAR OINR 111200Z 11004KT 7000 FEW045 OVC170 11/07 Q1013=
METAR OISL 111200Z  00000KT 9999 FEW020 FEW035CB OVC090 09/05
 Q1020=
METAR OISY 111200Z  00000KT 0200 -RA FEW030CB SCT040 OVC080 01/00
 Q1019=
METAR OITZ 111200Z  13014KT 9999 FEW030CB SCT035 BKN080 01/M04
 Q1015=
0000046300
381
SAIR35 OIII 111200
METAR OIAD 111200Z NIL=
METAR OIBJ 111200Z  09010KT 2500 BR FEW020 SCT025 OVC080 09/09
 Q1020=
METAR OIBS 111200Z 14010KT 7000 -RA FEW030CB OVC080 19/14 Q1019=
METAR OIHR 111200Z NIL=
METAR OIKM 111200Z NIL=
METAR OIKR 111200Z NIL=
METAR OING 111200Z 32004KT 6000 SCT030 BKN090 12/07 Q1016=
METAR OIZB 111200Z 07004KT 9999 FEW030 BKN090 10/M03 Q1022=
METAR OIZI 111200Z 35004KT 9999 FEW020 OVC090 16/M05 Q1019=
0000048300
382
SAIR36 OIII 111200
METAR OIBA 111200Z  05008KT 3500 -RA FEW025CB FEW030 OVC080 17/14
 Q1018=
METAR OIBV 111200Z NIL=
METAR OIFS 111200Z  00000KT 0800 SN BR FEW025CB SCT030 OVC070
 M03/M04 Q1017=
METAR OIIP 111200Z  00000KT 2000 BR SCT020 SCT035 OVC080 M01/M01
 Q1018=
METAR OIMB 111200Z 10012KT 9999 FEW030 BKN090 06/M14 Q1018=
METAR OIMN 111200Z NIL=
METAR OIMS 111200Z NIL=
METAR OIMT 111200Z NIL=
METAR OIZJ 111200Z 15004KT CAVOK 20/06 Q1019=
0000043300
383
UDEU02 EGRR 111206 RRC
AMDAR 1111
LVR EU0161   5415N 00327E 111123 F410 MS470 246/032 TB/ S031=
LVR EU0161   5501N 00417E 111130 F410 MS470 272/033 TB/ S031=
LVR EU0161   5546N 00507E 111137 F410 MS460 273/031 TB/ S031=
LVR EU0161   5631N 00558E 111144 F410 MS460 260/026 TB/ S031=
LVR EU0161   5716N 00653E 111151 F410 MS460 246/028 TB/ S031=
LVR EU0161   5802N 00747E 111158 F410 MS450 276/030 TB/ S031=
0000048800
384
SAIR37 OIII 111200
METAR OIBL 111200Z  03008KT 3000 BR FEW020CB SCT025 OVC080 14/13
 Q1020=
METAR OIBQ 111200Z  15012KT 4000 -TSRA SCT020 SCT025CB OVC070 15/14
 Q1015=
METAR OIIK 111200Z  12004KT 6000 FEW035CB SCT040 OVC090 02/M03
 Q1019=
METAR OIMC 111200Z NIL=
METAR OIMD 111200Z NIL=
METAR OIMQ 111200Z NIL=
METAR OINE 111200Z 22006KT 3000 HZ NSC 10/07 Q1014=
METAR OITK 111200Z NIL=
METAR OITM 111200Z 31004KT 1100 BR FEW042 BKN110 M04/M06 Q1019=
0000009100
385
SAIR36 OIII 111200 RRA
METAR OIMN 111200Z 18012KT CAVOK 08/M11 Q1016 A3003=
0000036900
386
UDEU02 EGRR 111206 RRD
AMDAR 1111
LVR EU0219   3947N 00022W 111137 F250 MS370 181/040 TB/ S031=
LVR EU0219   3907N 00037W 111144 F180 MS200 191/015 TB/ S031=
LVR EU0219   3832N 00050W 111151 F082 MS010 030/002 TB/ S031=
LVR EU0219   3818N 00040W 111158 F015 PS070 287/005 TB/ S031=
LVR EU0219   3817N 00034W 111200 F000 PS120 283/006 TB/ S031=
0000017700
387
UDEU02 EGRR 111206 RRE
AMDAR 1111
LVR EU0824   5256N 01102E 111147 F360 MS597 252/061 TB/ S031=
LVR EU0824   5349N 01130E 111154 F360 MS585 251/068 TB/ S031=
0000034900
388
SMST01 EGRR 111200
AAXX 11124
61901 169// /1008 10206 20163 39675 40177 58004 60001 333 8//99
 555 7/090=
61902 32584 21315 10270 20190 40142 82100 333 58001 82820=
88878 46/// /1817 10071 20011 40084 52020=
88889 11586 72120 10055 21033 30004 40090 51018 60014 70286 878//
 333 20025 31002 81824 87632 91026 90710 91130=
0000361200
389
SMUK01 EGRR 111200
AAXX 11124
03005 11475 52918 10052 20006 39919 40019 51013 60041 72782 84960
  333 55300 20121 83915 83358 90710 91127=
03017 17676 /3015 10042 20014 30038 40070 52022 60011 782//
  333 55300 20125 84/30=
03023 NIL=
03026 17980 /2712 10033 21003 30087 40106 51023 69961 723//
  333 55303 20295 8//99=
03063 17981 /2105 10009 21013 39839 40123 51025 69901 785//
  333 55300 20138 8//99=
03066 15985 /2415 10038 21001 30103 40109 51026 69901
  333 55308 20459 8//99=
03075 17480 /2614 10028 20011 30034 40079 50014 69941 723//
  333 81/14 85/58=
03091 15981 /2813 10046 21016 30023 40103 51024 60001
  333 55310 20530 8//99 90710 91126=
03100 15978 /2712 10060 20009 30127 40143 51022 69921
  333 55310 20564 8//99=
03111 16479 /2514 10057 20029 30147 40159 51017 60021
  333 82/14=
03134 17982 /2502 10044 20026 30076 40149 51022 60021 723//
  333 55305 20447 8//99=
03136 15680 /2312 10055 20023 30122 40156 51017 60021
  333 55306 20520 84/40=
03162 11482 12915 10029 20001 39863 40155 53016 69961 70281 81800
  333 41998 55310 20601 81815=
03166 15983 /2412 10037 20006 30068 40139 51020 60001
  333 55309 20468 8//99=
03171 12689 12509 10040 20001 30113 40126 52023 60001 81500
  333 55310 20623 81630=
03204 11584 12812 10063 20027 30159 40179 51022 69981 70286 81100
  333 55310 20762 81820=
03240 15984 /2814 10058 21006 30103 40132 50015 60001
  333 55310 20666 8//99=
03257 NIL=
03292 169// /2811 10066 20011 30133 40152 51022 60001
  333 81/66=
03302 15968 /2905 10067 20029 30180 40194 51020 69901
  333 55310 20803 8//99=
03354 15581 /2711 10053 20016 30036 40181 51024 60001
  333 55307 20643 86/20=
03377 12481 12711 10054 20019 30086 40172 51020 60001 81800
  333 55309 20737 81815=
03414 15578 /2809 10060 20008 30100 40189 51023 60001
  333 55309 20866 81/29=
03462 15684 /2712 10063 20038 30090 40181 51021 60001
  333 55310 20849 81/30=
03482 15675 /2812 10069 20039 30149 40175 51025 69921
  333 81/47=
03502 15576 /3106 10059 20014 30039 40203 50014 69901
  333 55305 20733 82/21=
03535 15581 /2808 10061 20025 30069 40188 51025 69921
  333 553// 20781 85/21=
03590 15984 /2912 10065 20025 30069 40180 51028 69961
  333 55310 20924 8//99=
03649 12582 22707 10074 20017 30097 40198 51020 60001 82100
  333 55310 2//// 82824=
03680 16/// ///// 10066 20031 30036 40194 51024 60001
  333 553// 20886=
03716 15981 /2907 10069 20028 30145 40206 51019 69921
  333 55310 20803 8//99=
03740 169// /2510 10063 20034 30025 40204 51018 69921
  333 55310 2//// 8//99=
03746 12480 12810 10078 20036 30049 40204 51019 69921 81101
  333 81815=
03772 15982 /2807 10080 20030 30167 40198 51024 69901
  333 55309 20805 8//99=
03796 46/// /3115 10084 20033 30043 40186 51030=
03803 15683 /1207 10094 20037 30173 40212 51008 60001
  333 87/30=
03808 12581 20406 10089 20035 30104 40211 51011 60001 81801
  333 55308 20818 81822=
03809 12580 41604 10092 20045 30118 40211 50008 60001 84500
  333 82626 83630=
03827 15976 /2003 10095 20053 30152 40215 51016 60001
  333 8//99=
03840 15981 /3406 10063 20030 39902 40211 51017 69921
  333 8//99=
03853 15480 /2805 10075 20048 30188 40212 51019 60001
  333 55309 20938 83/18=
03874 46/// /3108 10090 20047 30193 40204 51022=
03882 15965 /3207 10083 20025 30133 40197 51027 69961
  333 55310 20993 8//99=
03894 11484 13609 10086 20051 40220 51018 69901 70165 81801
  333 81818=
03917 17058 /2206 10011 20011 30102 40182 51017 69921 720//
  333 55300 20249 88/01=
0000015100
390
SMSR01 WSSS 111200
AAXX 11124
48698 01466 70106 10263 20231 30090 40109 60061 70598 81138 
333 10314 50370 55079 69907 81818 84278=
0000037600
391
SAIQ01 ORBI 111200
METAR ORBI 111200Z VRB02KT 2600 BR BKN030 11/08 Q1017 NOSIG=
METAR ORBM 111200Z VRB03KT 7000 SCT040 13/04 Q1019 NOSIG=
METAR ORNI 111200Z 25010KT 2500 DZ OVC025 10/10 Q1016 TEMPO 1500=
METAR ORER 111200Z VRB02KT 9999 FEW030 SCT090 10/07 Q1017 NOSIG=
METAR ORMM 111200Z 29014KT 9999 SCT040 BKN100 14/10 Q1017 NOSIG=
NNNN




0000003800
392
UKIL01 BIRK 111200
NIL
0000065600
393
SMVD17 KWNB 111200 RRB
BBXX
46061 11121 99602 71468 46/// /3304 10015 49884 91150 22200 00050
11003 20401 300// 41003 70015 333 91205 555 11040 22042 31050
43307 61149 330039 329046 322048 319045 328047 324052=
46078 11121 99560 71526 46/// /2007 10037 20012 49925 58021 91150
22200 00044 11204 20502 324// 41204 70022 333 91208 555 11070
22074 31055 42109 61149 202066 206069 209068 208067 211066 210072
82108 91053=
46066 11121 99528 71550 46/// /1710 10053 49884 56061 91150 22200
00053 11107 20705 324// 41105 70036 333 91212 555 11107 22114
31057 41615 61149 166100 166100 162101 162110 162120 155130 81614
91057=
0000027100
394
SMKU01 NCRG 111200
AAXX 11123
91802 NIL=
91809 36/// /0205 10275 20248 40071 57019   333   10300=
91831 36/// ///// 10252 20231 40108 58009   333   1////=
91843 11498 70412 10260 20244 40101 58020 69911 71588 8427/   333
10304 5619/ 84812 87359=
0000068900
395
UDEU02 EGRR 111206 RRF
AMDAR 1110
LVR EU3268   4504N 00338W 111057 F390 MS588 266/027 TB/ S031=
LVR EU3268   4426N 00425W 111104 F390 MS611 274/022 TB/ S031=
LVR EU3268   4342N 00502W 111111 F390 MS608 288/023 TB/ S031=
LVR EU3268   4258N 00540W 111118 F390 MS593 285/018 TB/ S031=
LVR EU3268   4212N 00615W 111125 F390 MS593 306/018 TB/ S031=
LVR EU3268   4127N 00652W 111132 F390 MS588 318/017 TB/ S031=
LVR EU3268   4044N 00733W 111139 F390 MS578 319/017 TB/ S031=
LVR EU3268   4001N 00813W 111146 F390 MS578 319/019 TB/ S031=
LVR EU3268   3917N 00853W 111153 F390 MS586 329/030 TB/ S031=
LVR EU3268   3832N 00931W 111200 F390 MS573 322/049 TB/ S031=
00000000