0000013800
432
SNVD17 KWNB 110200 RRF
BBXX
52202 11021 99137 11448 46/// ///// 1//// 90200 22200 00283 11005
21004 304// 41102 70024=
0000013500
433
SNVD02 CWAO 110200
BBXX
SHIP 11024 99534 10047 46/// /2321 10085 20085 40113 58023 7//// 8//// 22214 00088 2//// =

0000027100
434
SNVD22 KWNB 110200 RRF
BBXX
46041 11021 99473 71247 46/// ///10 1//// 40064 56062 90150 22200
00077 11508 20704 3//// 41508 70042 333 91213 555 11111 22119=
46232 11021 99325 71174 46/// ///// 1//// 90203 22200 00162 11303
20902 328// 41302 70017=
0000028300
435
SXHW11 KWAL 110205
B150314C 011020523"
1,140111,01:00:00,4.0,44,5.9,25.2,1013.4,0.00,13.6,
1,140111,01:15:00,3.7,42,6.1,25.2,1013.5,0.00,13.6,
1,140111,01:30:00,3.9,37,6.0,25.1,1013.6,0.00,13.6,
1,140111,01:45:00,3.9,85,6.8,25.1,1013.7,0.00,13.6, 47+0NN 210W
0000010200
436
SAIN90 VIAR 110200
METAR VIAR 110200Z 00000KT 0800 R34/P2000N MIFG FEW100 04/04 Q1018=
0000013800
437
SNVD22 KWNB 110200 RRH
BBXX
46237 11021 99378 71226 46/// ///// 1//// 90201 22200 00110 11404
21002 328// 41403 70018=
0000023300
438
SNVD22 KWNB 110200 RRG
BBXX
46244 11021 99409 71244 46/// ///// 1//// 90151 22200 00108 11408
20904 330// 41407 70042=
46240 11021 99366 71219 46/// ///// 1//// 90151 22200 00127 11202
21001 335// 41202 70012=
0000010000
439
SNAA14 EGRR 102300 RRA
AAXX 10234
89013 46/// /0909 11172 21208 37689 49709 52006=
0000010000
440
SNST41 EGRR 110100 RRA
AAXX 11014
88900 45/// /0304 10039 20031 39940 49942 55010=
0000029200
441
SNST41 EGRR 110200
AAXX 11024
61901 469// /1208 10183 20173 39656 40161 58015 333 8//99 555
 7/090=
88878 46/// /1928 10049 20027 40022 52027 555 1//36=
88889 41581 72124 10039 21020 39937 40023 51031 72582 878//
 333 81824 86629 87641 91031 90710 91325 90710 91134=
0000269500
442
SNUK41 EGRR 110200
AAXX 11024
03017 47589 /2716 10039 20022 39988 40020 53004 781//
  333 55300 20000 82/23 85/41 90710 91130=
03026 47683 /2411 10026 20002 30022 40040 53009 723//
  333 55300 20000 81/43=
03063 45681 /2104 10005 21023 39783 40065 52006
  333 55300 20000 81/42=
03066 45983 /2210 10024 21013 30045 40051 50004
  333 55300 20000 8//99=
03075 45974 /2412 10016 21008 39986 40031 52005
  333 8//99=
03091 45981 /2004 10011 21035 39976 40057 53004
  333 55300 20000 8//99=
03100 45576 /2714 10044 20008 30055 40071 53005
  333 55300 20000 84/29=
03111 46776 /2516 10047 20022 30079 40092 52007
  333 83/50=
03134 45582 /2205 10013 20008 30012 40086 51008
  333 55300 20000 82/29 83/61=
03136 45981 /0901 10025 20012 30058 40091 51007
  333 55300 20000 8//99=
03166 45980 /2306 10022 20001 30012 40083 51008
  333 55300 20000 8//99=
03171 42980 12606 10007 21011 30061 40073 51007 81030
  333 55300 20000 81360=
03204 42780 12904 10047 20019 30086 40106 51009 81500
  333 55300 20000 81650=
03240 45983 /2606 10037 21008 30053 40082 53011
  333 55300 20000 8//99=
03292 462// /2506 10068 20061 30059 40077 53001
  333 85/03 83/12 85/29=
03354 47260 /2307 10070 20068 39955 40098 56001 710//
  333 55300 20000 88/05=
03377 42475 82311 10075 20060 30008 40092 57002 8662/
  333 55300 20000 86710 88457=
03462 47582 /2110 10071 20059 30013 40102 56007 723//
  333 55300 20000 82/26 85/37=
03535 47326 /2108 10073 20067 39986 40103 55001 751//
  333 553// 20000 82/06 87/17=
03649 42580 72105 10079 20064 30015 40115 57007 875//
  333 55300 2//// 84622 87630=
03680 46/// ///// 10064 20059 39966 40123 56009
  333 553// 20000=
03716 47182 /2509 10075 20071 30062 40122 52006 781//
  333 55300 20000 81/02 86/28=
03740 463// /2211 10075 20067 39944 40121 57005
  333 55300 2//// 87/06=
03772 47366 /1807 10074 20066 30097 40128 58008 761//
  333 55300 20000 81/06 86/41 85/47=
03796 46/// /2211 10075 20053 39998 40141 58007=
03803 45983 /3210 10076 20032 30117 40156 51013
  333 8//99=
03808 42567 13207 10070 20026 30042 40149 53011 81500
  333 55300 20000 81625=
03809 42680 13208 10058 20034 30054 40148 52012 81500
  333 81640=
03827 47582 /3107 10073 20057 30079 40142 53004 723//
  333 87/28 83/42=
03840 47125 /2410 10067 20067 39824 40131 50000 782//
  333 88/02=
03874 46/// /2315 10095 20083 30122 40133 57007=
03882 45461 /2205 10073 20058 30079 40143 57006
  333 55300 20000 87/11 83/63=
03894 42370 62109 10087 20073 40154 56001 8453/
  333 81706 84650=
03917 45960 /1905 10010 20007 30031 40110 53006
  333 55300 20000 86/64=
0000012000
443
SNGI21 EGRR 110200
AAXX 11024
08495 46460 /0606 10149 20133 30160 40166 53005
  333 87/12 555 7/097=
0000009000
444
SAUK63 EGRR 110150 RRA
METAR EGDR 110150Z 32008KT 9999 FEW040 06/03 Q1014=
0000009700
445
SAGI32 EGRR 110150
METAR LXGB 110150Z AUTO 06006KT 9999 // BKN012/// 15/13 Q1016=
0000140500
446
SASA85 EGRR 110200 RRA
METAR SBBR 110200Z 19002KT 9999 VCTS SCT035 FEW040CB 23/16 Q1019=
METAR SBCT 110200Z 02003KT 9999 FEW010 20/17 Q1018 RETS=
METAR SBCY 110200Z 10002KT 9999 FEW020 BKN100 23/20 Q1011=
METAR SBFI 110200Z 06004KT CAVOK 27/22 Q1012=
METAR SBFL 110200Z 02002KT 9999 TS FEW011 SCT030 FEW035CB 27/24 Q1013=
METAR SBFZ 110200Z 08009KT 9999 SCT020 27/21 Q1012=
METAR SBGL 110200Z 14002KT CAVOK 27/21 Q1013=
METAR SBLO 110200Z 18001KT CAVOK 26/20 Q1014=
METAR SBMA 110200Z 20001KT 9999 VCTS FEW020CB BKN080 24/24 Q1011=
METAR SBMN 110200Z 12006KT 4000 -RA BKN005 BKN100 23/22 Q1013 RERA=
METAR SBMO 110200Z 09003KT 9999 SCT020 24/22 Q1014=
METAR SBNT 110200Z 13008KT 9999 SCT023 26/21 Q1013=
METAR SBPA 110200Z 02005KT 9999 FEW040 OVC100 23/21 Q1011=
METAR SBPV 110200Z 31002KT 8000 -RA VCTS SCT015 FEW025CB BKN070 24/23
      Q1010=
METAR SBRB 110200Z 00000KT 9999 FEW017 BKN100 ///// Q1011=
METAR SBRF 110200Z 13008KT 9999 FEW023 26/22 Q1013=
METAR SBRP 110200Z 02002KT CAVOK 21/20 Q1015=
METAR SBSJ 110200Z 15003KT 9999 FEW025 22/16 Q1016=
METAR SBSV 110200Z 10010KT 9999 SCT017 27/23 Q1013=
METAR SMJP 110200Z 11001KT 9999 FEW025 24/23 Q1012 NOSIG=
METAR SPIM 110200Z 15013KT CAVOK 22/19 Q1012 NOSIG RMK SCT170 PP000=
METAR SUMU 110200Z 34002KT CAVOK 23/19 Q1010 NOSIG=
METAR SVMI 110200Z 07001KT 9999 FEW016 24/21 Q1014 NOSIG=
0000045800
447
UEBD01 WBSB 110000
TTDD 6100/ 96315
11931 81161 22731 79362 33672 70765 44628 71568 55558
68772 66496 60381 77376 64580 21212 11970 06513 22860 
23016 33826 22523 44786 24513 55782 25011 66767 32004 
77739 07010 88711 13516 99700 15018 11685 17013 22679 
19010 33587 02510 44562 05010 55544 36003 66505 29006 
77500 27510 88482 27027 99473 27533 11463 28536 22445 
29033 33422 29029 44418 29029 55382 30027 31313 48008 
80006=
0000216500
448
SZNZ01 NZKL 110206
CREX++
T000103 A001 D01021 D06025++
-3683144 17478654 AUCT  2014 01 11 01 58 //// 11 07 00 01
05741 3182 05746 3181 05751 3181 05758 3182 05766 3183 05772 3184+
-4402404 -17636748 CHIT  2014 01 11 01 58 //// 11 07 00 01
05397 2144 05394 2142 05363 2113 05369 2120 05389 2142 05389 2144+
-4089929 17623168 CPIT  2014 01 11 01 58 //// 11 07 00 01
04412 2246 04417 2252 04432 2268 04420 2256 04430 2267 04408 2246+
-3618905 17548887 GBIT  2014 01 11 01 58 //// 11 07 00 01
06311 0042 06307 0034 06304 0028 06307 0028 06312 0030 06320 0035+
-3867541 17802288 GIST  2014 01 11 01 58 //// 11 07 00 01
04573 2708 04589 2724 04587 2722 04580 2715 04572 2705 04580 2713+
-4241288 17370277 KAIT  2014 01 11 01 58 //// 11 07 00 01
03798 2153 03799 2156 03793 2152 03782 2143 03789 2151 03787 2151+
-3755040 17815904 LOTT  2014 01 11 01 58 //// 11 07 00 01
04017 0202 04027 0210 04029 0210 04022 0202 04034 0211 04041 0217+
-3704657 17451175 MNKT  2014 01 11 01 58 //// 11 07 00 01
02120 -0159 02116 -0168 02113 -0176 02136 -0158 02134 -0165 02137 -0168+
-3947566 17692007 NAPT  2014 01 11 01 58 //// 11 07 00 01
03532 1945 03539 1953 03548 1962 03550 1964 03552 1967 03562 1977+
-3441483 17304870 NCPT  2014 01 11 01 58 //// 11 07 00 01
-04100 -8787 -04097 -8789 -04145 -8841 -04120 -8821 -04175 -8881 -04139 -8850+
-4581435 17062939 OTAT  2014 01 11 01 58 //// 11 07 00 01
04945 3377 04937 3373 04928 3370 04924 3370 04919 3370 04910 3367+
-2928002 -17789440 RBCT  2014 01 11 01 58 //// 11 07 00 01
06374 1991 06370 1985 06357 1970 06358 1968 06357 1966 06375 1981+
-2925114 -17790384 RFRT  2014 01 11 01 58 //// 11 07 00 01
03333 0179 03331 0175 03331 0173 03345 0185 03353 0191 03337 0173+
-4357010 17277383 SUMT  2014 01 11 01 58 //// 11 07 00 01
02609 1806 02578 1778 02588 1792 02573 1780 02555 1765 02547 1761+
-3764109 17618118 TAUT  2014 01 11 01 58 //// 11 07 00 01
05514 3967 05515 3965 05519 3966 05521 3964 05526 3965 05531 3968+
-4128448 17477985 WLGT  2014 01 11 01 58 //// 11 07 00 01
03547 1999 03537 1990 03532 1986 03535 1991 03537 1995 03535 1994++
7777
0000014700
449
SNNC22 NWBB 110200
AAXX 11024
91570 46/// /1114 10328 20200 30096 40100 58011=
91574 46/// /1115 10284 20212 30110 40115 58013=
0000028300
450
SXHW11 KWAL 110205
B15047DC 011020533"
1,140111,01:00:00,1.0,2,1.0,21.0,1018.2,45.82,13.6,
1,140111,01:15:00,1.0,2,1.0,20.8,1018.4,45.82,13.4,
1,140111,01:30:00,1.0,2,1.0,20.3,1018.4,45.83,13.5,
1,140111,01:45:00,1.0,2,1.0,20.3,1018.3,45.83,13.6, 43+0NN 210W
0000013500
451
SNVD02 CWAO 110200
BBXX
SHIP 11024 99623 70748 46/// /2506 11178 21227 40013 53033 7//// 8//// 22200 0//// 2//// =

00000000