0000011100
212
UANT01 CWAO 110159
ARP DAL230 5147N05435W 0159 F370 MS68 299/65 KT
N819NW DDL YQX 110159 J49A
0000010900
213
UANT01 CWAO 110159
ARP KLM18 4841N05126W 0159 F400 MS62 294/46 KT
PHAOE QXT AOW 110159 J98A
0000154000
214
SIXX40 ETGT 102100 RRE
AAXX 10211
40604 42560 60000 10082 20024 40226 51003 86800 333 83825 83628=
40631 41556 80000 10080 20050 40220 51004 76166 88588 333 88630=
40650 41545 81407 10100 20087 40167 57007 71022 888// 333 84830 86633=
40658 41950 80000 10030 20042 40200 52011 76566 8802/ 333 88460=
40665 42660 70907 10104 20100 40186 57014 82520 333 82635 85460=
40670 41550 81403 10102 20085 40171 51003 71022 8372/ 333 83728 88460=
40674 41956 01604 10099 20089 40173 58009 71000=
40676 42560 31003 10108 20087 40182 57011 83500 333 83630=
40691 41658 80602 10138 20127 40214 57006 72586 8482/ 333 82835 83640 88460=
40703 41510 50000 11130 21140 39012 40377 51010 85600 333 85725 555 11129 29092
33602=
40729 42660 30703 11090 21117 38362 40292 58004 81101 333 81835 555 11094 29081
30906=
40736 42960 50000 10048 20028 30249 40223 58010 85070 333 85359 555 10028 29087
32703=
40739 42965 52703 11018 21086 38732 40274 56010 80006 333 85270 555 11038 29060
32108=
40743 42965 00000 11022 21087 39127 40279 57007 555 11040 29061 30808 4////=
40762 42960 03203 11067 21086 38597 40278 58008 555 11070 29086 31805=
40785 42660 80000 10020 21012 39134 40279 56005 8352/ 333 83635 88460 555 10008
29079 32603=
40809 42960 01104 11038 21111 38548 40260 58009 555 11057 29057 31104=
40821 42662 50000 10017 21012 38833 40261 57007 82556 333 82640 84360 555 10006
29081 31307 41210=
40831 42660 80000 10138 20123 30187 40195 58008 8232/ 333 82935 88460 555 10130
29091 31105=
0000015700
215
SSVX13 LFPW 110200
ZZYY 44773 11014 0200/ 742213 029117 6113/ 11119 49989 57033 22219
 00146 444 20130 11014 0200/ 50101 80118 80005 9/015=
0000015700
216
SSVX13 LFPW 110200
ZZYY 62684 11014 0200/ 174686 004549 6113/ 11119 40152 57001 22219
 00011 444 20130 11014 0200/ 50101 80076 80005 9/015=
0000037800
217
USIN90 VIDP 110000
TTAA 61001 42182
     99984 06414 00000 00142 ///// ///// 92788 10265 34021 85487 05859
     33519 70038 03979 33521 50563 14994 29553 40728 25786 28575 30932
     37780 29113 25056 44777 28626 20202 54372 28639 15384 61774 27622
     10629 67171 27586 88122 68371 28103 77202 28640 42425 77273 29137
     43724 31313 48008 80003=

0000077400
218
UKIN90 VIDP 110000
TTBB 61008 42182
     00984 06414 11956 10244 22949 10050 33931 10262 44911 09866
     55885 08862 66715 06525 77697 03585 88589 13578 99583 11986
     11563 11196 22544 10597 33409 25384 44368 27589 55263 43974
     66234 45980 77196 55173 88122 68371 99100 67171 21212 00984
     00000 11976 31510 22965 34019 33950 34527 44883 32018 55850
     33519 66786 32517 77765 33012 88750 35510 99724 01008 11715
     36010 22699 33521 33630 32015 44617 29512 55601 30010 66574
     31532 77554 30044 88540 29046 99489 29554 11327 29091 22273
     29137 33236 28617 44202 28640 55172 28123 66153 27626 77139
     28116 88109 26578 99100 27586 31313 48008 80003 41414 00901
     51515 60238 12975 30010 78145 00056 32517=

0000008900
219
SPIN90 VOTP 110200
SPECI VOTP 110200Z 00000KT 1500 BR FEW015 19/18 Q1015=
0000011500
220
SAIN90 VEGT 110200
METAR VEGT 110200Z 00000KT 1000 RVR 1400 MIFG SCT018 BKN100 12/12
Q1017 NOSIG=
0000078900
221
UKIN01 DEMS 110000 RRC
TTBB 61008 42492
00009 14208 11987 15831 22910 14042 33753 02404 44710
00000 55659 02100 66655 00700 77600 05904 88560 09711
99548 13150 11502 16959 22459 18728 33377 31128 44331
36156 55321 33957 66294 36357 77237 47759 88208 51358
99171 60557 11147 62957 22143 61957 33128 65957 44108
70557
21212 00009 36000 11987 08515 22984 08516 33956 06512
44935 09507 55897 03005 66840 04506 77789 12002 88785
14501 99779 24001 11749 20002 22742 26501 33739 26002
44734 30002 55728 29003 66726 27503 77717 24004 88695
26011 99628 23531 11577 26040 22511 26060 33419 25550
44392 26550 55366 26579 66335 27583 77308 28130 88306
28130 99242 27629 11216 28145 22187 26649 33157 27637
44138 28598 55129 27581 66108 24576 41414 86/9/=

0000028300
222
USIN01 DEMS 110000 RRC
TTAA 61001 42492
99009 14208 36000 00130 14013 07512 92791 14427 08007
85502 10035 04007 70084 00500 25509 50571 17159 26058
40735 26721 26051 30938 35557 28131 25062 45158 27631
20209 53558 27145 15389 62757 28125 88999 66186 26649=

0000010000
223
SNVF25 LFPW 110200
BBXX
BAREU66 11024 99366 70020 46/// ///// 40162 57005
22255=
0000011000
224
UANT01 CWAO 110200
ARP BAW66V 4725N04808W 0200 F400 MS57 300/63 KT
GYMMI QXS YYT 110200 F09A
0000011100
225
UANT01 CWAO 110200
ARP UAL956 4623N04820W 0200 F370 MS58 313/54 KT
N667UA DDL YYT 110200 F31A
0000016300
226
SSVX13 LFPW 110200
ZZYY 13595 11014 0200/ 730261 019488 6113/ 22219 00199 33300 88872
 20000 43682 444 20130 11014 0200/ 50101 80108 80031 9/015=
0000015700
227
SSVX13 LFPW 110200
ZZYY 62515 11014 0200/ 751977 007135 6113/ 11119 40137 52017 22219
 00084 444 20130 11014 0000/ 50101 80136 80013 9/015=
0000018400
228
SSVX13 LFPW 110200
ZZYY 41734 11014 0200/ 705344 039205 6113/ 11119 40133 57006 22219
 00264 33300 88872 20000 43602 444 20130 11014 0200/ 50101 80118
 80018 9/015=
0000009400
229
SNVF25 LFPW 110200
BBXX
BAREU72 11024 99410 10287 46/// ///// 40222
22211=
0000011000
230
UANT01 CWAO 110200
ARP AIC144 5309N02859W 0200 F330 MS58 226/93 KT
VTALM QXT AOE 110200 F37A
0000011200
231
SNVF25 LFPW 110200
BBXX
BATFR20 11024 99397 10077 46/// /1403 10140 20110 40191 56001
22234=
00000000