0000014000
079
SNVD19 KWNB 110100 RRC
BBXX
46126 11011 99540 71666 46/// /2902 10043 49855 90100 22200 00048
333 91204 555 11018 22020=
0000012600
080
SMCN04 KWBC 110000
AAXX 11004
71695 15/// /1403 11085 21103 39644 49980 53008 60001 333 11080
21097 70005=
0000146400
081
UKST01 EGRR 110000
TTBB 61008 88889
00992 04458 11980 03257 22944 00447 33897 03512 44882
04702 55863 05900 66843 06701 77817 08701 88811 07507
99803 07508 11789 09129 22788 09341 33784 08963 44779
07957 55773 08361 66760 08358 77753 08136 88744 09142
99739 09966 11734 09961 22716 10969 33694 12168 44692
12160 55688 12336 66664 13722 77647 14133 88637 14356
99621 14957 11612 14758 22588 17158 33559 19758 44528
23157 55501 25959 66479 28759 77461 31158 88430 35359
99403 38164 11377 42361 22360 45157 33323 50756 44312
52156 55304 50562 66300 50763 77297 49963 88290 50765
99281 48172 11275 48772 22218 46183 33198 47779 44164
45780 55149 48380 66138 46581 77131 47179 88128 46380
99120 47780 11117 46181 22109 48181 33104 48781 44100
49181
21212 00992 21026 11980 21538 22973 21540 33934 21038
44905 21039 55878 20039 66849 20034 77814 20536 88790
20043 99763 20544 11691 19548 22640 20052 33610 20043
44585 21043 55567 20547 66515 20543 77494 20045 88441
19540 99440 19540 11428 20038 22414 21031 33400 21528
44395 21527 55351 20524 66335 21527 77332 21529 88316
20034 99314 20035 11307 20542 22287 20049 33264 20556
44254 20555 55237 20055 66220 20043 77207 20537 88187
21037 99180 21039 11177 21033 22171 20536 33160 21032
44142 21530 55137 21530 66133 21534 77128 21029 88124
22024 99119 22023 11114 25013 22111 25015 33106 23021
44102 22517 55100 22518
31313 48008 82350
41414 874//=
0000032400
082
USST01 EGRR 110000
TTAA 61001 88889
99992 04458 21026 00007 ///// ///// 92635 01331 21038
85303 06501 20034 70807 11769 20049 50533 25959 20044
40690 38564 21528 30881 50763 20544 25000 47779 20556
20148 47379 20538 15339 48180 21532 10607 49181 22518
88312 52156 20037
77999
31313 48008 82350=
0000010900
083
UANT01 CWAO 110050
ARP FDX1 5437N04228W 0050 F340 MS57 290/27 KT
N887FD QXT EUA 110050 F55A
0000010900
084
UANT01 CWAO 110050
ARP DAL28 4416N04415W 0050 F340 MS52 304/59 KT
N1603 QXT AOE 110050 F59A
0000011100
085
UANT01 CWAO 110051
ARP DAL470 4707N04502W 0051 F370 MS56 309/56 KT
N817NW DDL XXW 110051 J90A
0000011000
086
UANT01 CWAO 110051
ARP DHK978 5307N04653W 0051 F320 MS59 318/87 KT
GDHLG DDL XXW 110051 F60A
0000017200
087
SSVD50 LFPW 102340 RRA
ZZYY 31217 10014 2340/ 704937 052194 22219 10300 20030 21002=
ZZYY 41097 10014 2340/ 714548 061097 22219 00270 10301 20030
21003=
0000024400
088
SSVD50 LFPW 110010 RRA
ZZYY 31217 11014 0010/ 704937 052194 22219 10300 20030 21002=
ZZYY 41097 11014 0010/ 714548 061097 22219 00270 10401 20040
21003=
ZZYY 44050 11014 0010/ 746700 056183 22219 00002 10705 20070
21023=
0000010800
089
SSVD50 LFPW 110040 RRA
ZZYY 44050 11014 0040/ 746700 056183 22219 00002 10705 20070
21023=
0000051700
090
SXXX32 EUMS 110116 RRX
3246B586
:PRS 1 /1 2871 3112 2590 2256 2369 2352 2465 2539 2730 2787 2230 1701 2579 2500 2699 :RAD 3 /3 7318 7318 7321 7324 7328 7341 7351 7353 7354 7359 :ENC 10 /15 5280 5280 :SW1 17 /60 0 :SW2 47 /60 0 :WTP 1 /15 -0.7 :BAT 13 /15 12.8 :WAV 6 /10 1.7 1.6 1.6 :DAV 6 /10 127 106 115 :WMX 6 /10 2.7 2.1 2.3 :TPA 1 /15 25.9 :TMN 76 /720 25.9 :TMX 76 /720 27.6 :HUM 1 /15 83.8 :PRA 1 /15 1009.0 :RAC 16 /60 0.0 :RDU 16 /60 0 :RIN 16 /60 0.0 :DAC 76 /1440 10.9 :DDR 76 /1440 16460
0000011000
091
UANT99 KDDL 110118
ARP AFR345 5032N03245W 0118 F360 MS56 209/60 KT
FGEXB QXT AOW 110118 F03A
0000011000
092
UANT99 KDDL 110118
ARP JAF502 4557N03008W 0118 F410 MS51 346/57 KT
OOJDL QXT AOE 110119 L34A
0000005200
093
RRIN23 VECC 110119
RQRPT 259-280=

0000149400
094
FCIN90 VEGT 110000
TAF VEGT 110000Z 1103/1112 00000KT 1500 BR NSC BEC 1107/1109 05004KT
3000 HZ FEW018 SCT100 BEC 1110/1112 00000KT 2000 BR SCT100 =
VEBI 110000Z 1103/1112 00000KT 1300 BR FEW008 SCT015 BKN100  BEC
1107/1109 03005KT 2500 HZ FEW018 SCT100 BEC 1110/1112 00000KT 1500
BR BKN100 =
VELR 110000Z 1103/1112 00000KT 1500 BR NSC BEC 1107/1109 04005KT
3000 HZ FEW018 SCT100 BEC 1110/1112 00000KT 2000 BR SCT100 =
VEIM 110000Z 1103/1112 00000KT 1300 BR NSC BEC 1107/1109 07005KT
2500 HZ FEW018 SCT100 BEC 1110/1112 00000KT 2000 BR SCT100 =
VEKU 110000Z 1103/1112 00000KT 1500 BR NSC BEC 1107/1109 05005KT
3500 HZ FEW018 SCT100 BEC 1110/1112 00000KT 2500 HZ SCT100 =
VEMR 110000Z 1103/1112 00000KT 1500 BR NSC BEC 1106/1108 07006KT
3000 HZ FEW018 SCT100 BEC 1110/1112 00000KT 2000 BR SCT100 =
VELP 110000Z 1103/1112 00000KT 05005KT 1500 BR FEW015 SCT100 
BEC 1107/1109 08008KT 3000 HZ FEW018 SCT100 BEC 1110/1112 00000KT
2500 HZ SCT100 =
VEPG 110000Z 1103/1112 00000KT 04006KT 1500 BR SCT015 BKN100 BEC
1106/1108 3000 HZ BEC 1110/1112 00000KT 2500 HZ BKN100 =
VETJ 110000Z 1103/1112 00000KT 05005KT 1500 BR SCT015 BKN100 BEC
1106/1108 2500 HZ BEC 1110/1112 00000KT 2000 BR BKN100 =
VEZO 110000Z 1103/1112 00000KT 04004KT 1500 BR SCT015 BKN100 BEC
1106/1108 2500 HZ BEC 1110/1112 00000KT 2000 BR BKN100 =
VEDZ 110000Z 1103/1112 00000KT 07006KT 1500 BR SCT015 BKN100 BEC
1106/1108 2500 HZ BEC 1110/1112 00000KT 2000 BR BKN100 =

0000005200
095
RRIN23 VECC 110119
RQRPT 339-360=

0000029100
096
SXXX32 EUMS 110118 RRX
269375AE
OT12 ID:FI-STAN-07 DT:2014 41 11 01 08
:RAD /1 0/264 07261 07662 07257 07261 07269 07271/0727/ 07283 07289 07294 07299 07306 07315 07315 0731/ 07318 07318 07324 07320 07321 07326/07323 03327 07323 07326 07322 07325 07327 07331
:BAT 13.1V
0000007800
097
SNAL51 EUMS 110100
AAXX 11014
60664 46/// /0000 10057 21057=
0000007800
098
SNAL56 EUMS 110100
AAXX 11014
60692 46/// ///12 10176 21019=
00000000