0000191500
763
SZAU01 AMMC 111200
CREX++
T000103 A001 D01021 D06025++
-1927750 14705860 59260 2014 01 11 11 53 3022 11 07 00 01
01723 0208 01713 0205 01700 0199 01697 0204 01689 0203 01682 0203+
-2316110 15079000 59670 2014 01 11 11 53 3000 11 07 00 01
02363 0231 02353 0230 02333 0222 02329 0227 02318 0226 02315 0233+
-3447330 15091170 60420 2014 01 11 11 53 2953 11 07 00 01
00535 -0023 00532 -0024 00530 -0025 00521 -0032 00513 -0039 00502 -0048+
-4105000 14591500 60910 2014 01 11 11 53 2888 11 07 00 01
02459 -0012 02465 0004 02452 -0002 02452 0006 02439 0002 02438 0008+
-4254640 14793080 61170 2014 01 11 11 53 2897 11 07 00 01
01075 0104 01073 0103 01064 0094 01065 0095 01061 0092 01055 0087+
-3834390 14161360 61410 2014 01 11 11 53 2908 11 07 00 01
00744 0030 00767 0053 00727 0013 00774 0059 00718 0003 00764 0048+
-3214890 13364170 62000 2014 01 11 11 53 2958 11 07 00 01
01066 -0020 01068 -0019 01069 -0019 01068 -0022 01072 -0019 01076 -0017+
-3387080 12189720 62080 2014 01 11 11 53 2950 11 07 00 01
01081 0068 01068 0054 01082 0068 01071 0056 01078 0062 01075 0058+
-3182560 11573860 62237 2014 01 11 11 53 2972 11 07 00 01
01041 0112 01039 0111 01038 0111 01031 0104 01029 0103 01024 0099+
-2422000 11339750 62385 2014 01 11 11 53 //// 11 07 00 01
01333 -0065 01297 -0099 01257 -0137 01288 -0105 01301 -0090 01282 -0107+
-2181670 11419110 62430 2014 01 11 11 53 //// 11 07 00 01
02108 -0089 02116 -0080 02106 -0088 02117 -0075 02098 -0093 02119 -0070+
-1800080 12221830 62650 2014 01 11 11 53 3043 11 07 00 01
06698 0022 06696 0028 06692 0028 06691 0036 06686 0034 06681 0035+
-1247190 13084580 63230 2014 01 11 11 53 3050 11 07 00 01
04220 0111 04221 0109 04221 0108 04221 0105 04222 0106 04220 0103+
-1386000 13641580 63511 2014 01 11 11 53 3043 11 07 00 01
01915 0129 01910 0123 01908 0121 01906 0118 01905 0117 01903 0114++
7777

0000046700
764
SZPA01 AMMC 111200
CREX++
T000103 A001 D01021 D06025++
0136250 17293000 67590 2014 01 11 11 53 3015 11 07 00 01
01711 0013 01715 0014 01717 0012 01713 0005 01733 0022 01722 0007+
0710610 17137250 67680 2014 01 11 11 53 3013 11 07 00 01
01219 0087 01224 0090 01216 0079 01217 0078 01218 0077 01219 0075+
0698060 15820000 67950 2014 01 11 11 53 3023 11 07 00 01
00645 0030 00646 0030 00647 0030 00653 0036 00651 0033 00655 0036++
7777

0000034800
765
SMTO01 NFTF 111200
AAXX 11124
91772 31498 22705 10260 20246 40070 60001 70200 82100 333 10295 5699/ 82818=
91776 NIL=
91779 31398 72916 10264 20253 40028 5//// 60001 70222 8571/ 333 10272 5659/
84708 85817 87460=
91784 NIL=
91792 11398 82119 10261 20260 49987 50003 60091 78068 8677/ 333 10295 5649/
85708 86815 88360=
0000357300
766
SMMX01 MXBA 111200
AAXX 11121
76040 32920 03101 10079 20052 30188 40202 52003 91150 333   
10248 20042 30/// 58022 70000 98620=
76220 31920 00000 11052 2//// 38184 40279 52010 702// 91150 
333   10184 21052 31080 58/// 70000 96126=
76225 32920 02901 10052 21034 38644 40171 5//// 91145 333   
10215 20052 30000 58055 70000=
76256 32960 00000 10108 20086 30165 40179 5//// 91145 333   
10276 20078 30/// 58021 70000=
76258 32/50 /0205 10100 20074 3//// 4//// 5//// 91150 333   
10276 20094 30056 56000 58/// 70000=
76342 32940 01802 10130 20038 39468 40183 52023 91150 333   
10275 20125 30120 58042 70000=
76382 32960 01101 10094 20072 38925 40198 52010 91145 333   
10244 20081 30068 58050 70000=
76390 31950 01601 10056 21033 38251 40211 52012 70544 91148 
333   10210 20040 30032 58057 70000=
76458 32960 03502 10160 20127 30141 40146 54000 91142 333   
10271 20142 30116 58013 70000=
76539 32958 03601 10065 20055 38163 40200 57005 91150 333   
10233 20063 30035 59006 70000=
76548 32860 51301 10182 20179 30145 40155 53009 85030 91145 
333   10282 20180 30178 56050 59005 70000 85358=
76556 32960 61802 10120 20077 39122 40126 52008 86050 91145 
333   10266 20115 30089 56050 58023 70000 86360=
76577 32560 70000 10110 20100 38058 40163 52006 87500 91140 
333   10220 20111 30102 56500 59022 70000 87620=
76585 32980 00000 10160 20154 39991 40149 52009 91140 333   
10256 20159 30146 55067 59003 70000=
76593 32960 01402 10204 20201 30147 40149 57001 91150 333   
10302 20202 30200 59013 70000=
76654 31956 03601 10224 20189 30131 40135 57005 70544 91150 
333   10306 20222 30208 58015 70000=
76675 32960 02001 10011 21001 37383 40209 54000 91145 333   
10193 21002 31031 58011 70000=
76683 32960 00000 10064 20042 37838 40182 5//// 91150 333   
10216 20062 30035 58011 70000=
76685 32950 00000 10078 20054 37869 40143 55000 91145 333   
10230 20078 30038 58007 70000=
76687 32960 02001 10124 20087 38674 40169 52009 91145 333   
10242 20102 30095 59004 70000=
SMMX01 MXBA 111200 
AAXX 11121
76692 31/08 90000 10193 20190 30124 40143 53008 74744 91145 
333   10279 20191 30183 59012 70000=
76726 2968 03501 10140 20078 38399 40151 52007 91145 333   1
0272 20130 30124 58009 70000=
76737 32980 03401 10124 20094 38766 40154 52009 91145 333   
10242 20124 30083 59007 70000 91102 91534=
76741 31930 01001 10198 20197 30104 40123 53005 71004 91145 
333   10277 20189 30187 59013 79999=
76743 31940 03401 10200 20185 30129 40137 52007 70200 91145 
333   10250 20200 30195 59013 70000=
76750 32558 11201 10226 20215 30137 40147 52007 81100 91145 
333   10310 20168 30165 56300 59009 79999 81820=
76775 32960 00501 10128 20093 38531 40170 52009 91145 333   
10306 20116 30/// 58008 70000=
76805 32960 03201 10222 20197 30127 40130 53004 91145 333   
10351 20212 30205 58009 70000=
76840 32910 00000 10200 20194 30074 40131 52007 91145 333   
10275 20155 30/// 55095 59020 70000=
76855 32980 03403 10238 20181 30079 40130 5//// 91145 333   
10330 20216 30/// 55010 58013 70000 92000=
76412 32960 00000 10110 20082 30121 40108 57013 91150 333   
10270 20100 30/// 58012 70000=
76525 32960 03104 10085 21059 37478 40162 52003 91145 333   
10138 20062 30056 58037 70000=
76632 31930 43401 10070 20052 37716 40171 52009 70500 80007 
91145 333   10210 20068 30/// 56001 58018 70000 84271 96122 
=
76640 31010 60000 10188 20185 30149 40161 52008 71044 8322/ 
91140 333   10254 20174 30172 5655/ 59006 70000 83801 83440 
=
0000016000
767
SSVX13 LFVW 111158
ZZYY 17572 11014 1200/ 537893 171786 6110/
11119 40156 57006
22219 00207
444 20100 11014 1056/ 50101 80110 80000 9/015=
0000013200
768
SIVD02 CWAO 110300
BBXX
SHIP 11034 99462 70602 46/// /2517 11020 21009 40254 58009 7//// 8//// 22200 0//// 2//// =
0000013200
769
SIVD02 CWAO 110300
BBXX
SHIP 11034 99488 70676 46/// /2011 11054 21108 40208 55003 7//// 8//// 22200 0//// 2//// =
0000054100
770
UDAS02 BABJ 110255
AMDAR 1102
ASC CNFOZM 2943N 11702E 110244 F313 MS350 259/130 TB/ S//1=
LVR CNFOZM 2933N 11647E 110247 F321 MS365 257/132 TB/ S//1=
LVR CNFOZM 2923N 11632E 110250 F321 MS368 257/130 TB/ S//1=
LVR CNFOZM 2912N 11617E 110253 F321 MS370 257/128 TB/ S//1=
DES CNFPTK 4031N 11238E 110251 F141 MS228 276/037 TB/ S//1=
DES CNFPTK 4031N 11234E 110252 F135 MS215 276/040 TB/ S//1=
DES CNFPTK 4031N 11231E 110252 F131 MS210 287/038 TB/ S//1=
DES CNFPTK 4035N 11228E 110253 F121 MS183 279/035 TB/ S//1=
0000047900
771
UDAS02 BABJ 110257
AMDAR 1102
LVR CNFNXP 3249N 12028E 110239 F256 MS308 259/086 TB/ S//1=
LVR CNFNXP 3308N 12020E 110242 F256 MS330 261/072 TB/ S//1=
LVR CNFNXP 3326N 12011E 110245 F256 MS358 259/065 TB/ S//1=
LVR CNFNXP 3333N 11950E 110248 F256 MS363 262/057 TB/ S//1=
DES CNFNXL 2316N 11317E 110253 F018 PS103 147/011 TB/ S//1=
DES CNFNXL 2319N 11317E 110254 F010 PS110 183/003 TB/ S//1=
DES CNFNXL 2321N 11318E 110255 F002 PS130 241/001 TB/ S//1=
0000103700
772
UDAS02 BABJ 110259
AMDAR 1102
LVR CNFNXQ 3159N 10820E 110215 F311 MS450 260/079 TB/ S//1=
LVR CNFNXQ 3220N 10837E 110218 F311 MS453 257/081 TB/ S//1=
LVR CNFNXQ 3240N 10854E 110221 F311 MS455 260/082 TB/ S//1=
LVR CNFNXQ 3300N 10911E 110224 F311 MS458 257/083 TB/ S//1=
LVR CNFNXQ 3316N 10934E 110227 F311 MS458 257/089 TB/ S//1=
LVR CNFNXQ 3335N 10954E 110230 F311 MS455 254/092 TB/ S//1=
LVR CNFNXQ 3353N 11015E 110233 F311 MS463 257/091 TB/ S//1=
LVR CNFNXQ 3410N 11038E 110236 F311 MS471 259/085 TB/ S//1=
LVR CNFNXQ 3423N 11104E 110239 F311 MS470 261/085 TB/ S//1=
LVR CNFNXQ 3436N 11130E 110242 F311 MS474 263/087 TB/ S//1=
DES CNFNXQ 3449N 11155E 110245 F268 MS414 291/082 TB/ S//1=
LVR CNFNXQ 3501N 11219E 110248 F266 MS410 292/084 TB/ S//1=
DES CNFPTK 4039N 11225E 110254 F117 MS180 287/036 TB/ S//1=
DES CNFPTK 4042N 11224E 110255 F110 MS175 284/037 TB/ S//1=
DES CNFPTK 4043N 11224E 110255 F107 MS168 280/038 TB/ S//1=
DES CNFPTK 4046N 11222E 110256 F102 MS160 276/036 TB/ S//1=
0000011100
773
SAPK31 OPSK 110253
METAR OPSK 110300Z 00000KTS 3000 HZ FEW100 SCT200 05/03 QNH.1021
RH.84 PC=
0000013200
774
SIVD02 CWAO 110300
BBXX
SHIP 11034 99121 70689 46/// /0807 10261 20231 40150 53012 7//// 8//// 22200 0//// 2//// =
0000013200
775
SIVD02 CWAO 110300
BBXX
SHIP 11034 99430 70879 46/// /2206 10027 20027 4//// 5//// 7//// 8//// 22200 0//// 2//// =
0000013200
776
SIVD02 CWAO 110300
BBXX
SHIP 11034 99490 70587 46/// /2324 11040 21078 40210 58009 7//// 8//// 22213 01002 2//// =
0000013200
777
SIVD02 CWAO 110300
BBXX
SHIP 11034 99487 71235 46/// /1203 10075 20074 40068 56059 7//// 8//// 22200 0//// 2//// =
0000013200
778
SIVD02 CWAO 110300
BBXX
SHIP 11034 99474 70619 46/// /2407 11027 21038 40235 58010 7//// 8//// 22200 0//// 2//// =
0000009600
779
SAMV31 VRMG 110300
METAR VRMG 110300Z 04003KT 9999 SCT018TCU SCT260 29/25 Q1013=
0000013200
780
SIVD02 CWAO 110300
BBXX
SHIP 11034 99513 70569 46/// /2625 11075 21117 40128 56010 7//// 8//// 22271 0//// 2//// =
0000013200
781
SIVD02 CWAO 110300
BBXX
SHIP 11034 99433 70798 46/// /0204 10018 20019 40147 58037 7//// 8//// 22200 0//// 2//// =
0000011100
782
UANT99 KDDL 110304
ARP DAL466 6001N01949W 0304 F330 MS51 212/35 KT
N197DN QXS REK 110304 F85A
00000000