0000131000
456
SIVB30 KWBC 110300 RRC
BBXX
H9XE 11034 99388 11419 41598 80832 11003 21031 40195 57010 70311
 87343 22243 00100 20205 30606 40204 50105 81013=
SHIP 11034 99316 11325 41598 23414 10100 20038 40300 57012 70200
 8213/ 9//// 22213 00210 1//// 20302 335// 40302 5//// 6//// 80070
 /////NNNN=
ELVL8 11033 99229 11173 41297 80526 10171 20109 40225 55005 70222
 85720 22212 00190 20302 30304 40405 50606 80135=
SHIP 11034 99097 11503 41898 20316 10280 20224 40099 70200 82101
 22233 00324 20402 307// 40702 80240=
SHIP 11034 99189 11192 41497 20732 10250 20191 40194 53004 70100
 821// 22253 00250 2//08 310// 4//08 80210=
SHIP 11034 99115 11424 41597 70723 10286 20243 40103 57021 70322
 82136 9//// 22242 06285 20504 305// 40704 5//// 6//// 80254=
SHIP 11034 99112 11504 41697 60510 10280 20224 40136 57020 70211
 861/2 22282 00320 20105 304// 40105 80240=
52211 11031 99153 11457 46/// ///// 1//// 90318 22200 00281 10705
 20704 305// 41101 70023=
JPBN 11034 99248 11297 41/97 70517 10180 20109 40255 58009 70222
 8723/ 22271 00239 1//04 20503 302// 40804 70019=
JGQH 11034 99314 11370 41/97 73420 10109 20068 40263 58017 70282
 85230 22241 00194 1//// 20301 331// 40802 70024=
BATFR10 11034 99225 11225 46/// /1029 10215 20124 40242 58005
 22283 04239=
0000017900
457
SIVC30 KWBC 110300 RRC
BBXX
C6TZ9 11034 99305 50499 417// 83111 10230 20216 40120 54/// 7//22
 88/// 22213 00260 2//// 3//// 4//// 5//// 6//// 80220 ICE /////=
0000010000
458
SAIN90 VOBL 110330
METAR VOBL 110330Z VRB05KT 5000 HZ SCT008 23/19 Q1020 BECMG 6000=
0000327800
459
SIVD30 KWBC 110300 RRI
BBXX
46204 11031 99514 71288 46/// /1321 10055 49858 57116 22200 0////
 10708 70042 333 91227=
46131 11031 99499 71250 46/// /1512 10064 40021 57064 22200 00078
 10502 70012 333 91215=
WHED 11034 99396 70738 41/// /1819 10022 2//// 40260 5//// 75055
 8//// 22243 0//// 2//// 3//// 4//// 5//// 6//// 8//// ICE /////=
46145 11031 99544 71324 46/// /1112 10047 49883 57088 22200 00068
 11205 70025 333 91216=
46147 11031 99518 71312 46/// /1217 10054 49802 57121 22200 00075
 10809 70047 333 91222=
46114 11031 99367 71223 46/// ///// 1//// 90308 22200 00127 11205
 21003 330// 41205 70027=
44099 11031 99369 70757 46/// ///// 1//// 90318 22200 00063 10502
 20502 70009=
41029 11031 99328 70796 46/// /1805 1//// 40209 90300 333 91206
 555 11057 22061=
44096 11031 99370 70758 46/// ///// 1//// 90317 22200 00068 10502
 20501 312// 40901 70008=
46211 11031 99469 71242 46/// ///// 1//// 90313 22200 00080 11409
 21006 329// 41407 70047=
46219 11031 99332 71199 46/// ///// 1//// 90310 22200 00142 11305
 20904 330// 41303 70024=
44039 11031 99411 70727 46/// /1003 10030 20028 90300 333 91204
 555 11036 22041=
46215 11031 99352 71209 46/// ///// 1//// 90305 22200 00139 11304
 21002 327// 41303 70018=
51206 11031 99198 71550 46/// ///// 1//// 90303 22200 00254 11105
 21004 310// 41103 70025=
V7YW3 11034 99234 70509 41798 30819 10230 2022/ 40220 51020 70000
 82130 22273 04180 20301 30909 40806 50806 6//// 80220 ICE /////=
44100 11031 99363 70756 46/// ///// 1//// 90304 22200 00088 10502
 20502 312// 41101 70011=
41113 11031 99284 70805 46/// ///// 1//// 90310 22200 00186 10902
 20902 310// 41101 70011=
44095 11031 99358 70753 46/// ///// 1//// 90317 22200 00096 10603
 20603 312// 41101 70013=
41115 11031 99184 70673 46/// ///// 1//// 90311 22200 11002 21002
 300// 41101 70012=
46216 11031 99343 71198 46/// ///// 1//// 90242 22200 00152 11302
 20802 327// 41302 70012=
46223 11031 99335 71178 46/// ///// 1//// 90248 22200 00158 11301
 20801 327// 41301 70007=
46213 11031 99403 71247 46/// ///// 1//// 90254 22200 00119 11508
 21004 331// 41508 70042=
46225 11031 99329 71174 46/// ///// 1//// 90242 22200 00157 11402
 20802 328// 41401 70011=
46222 11031 99336 71183 46/// ///// 1//// 90233 22200 00158 11302
 20802 327// 41302 70012=
46251 11031 99338 71196 46/// ///// 1//// 90309 22200 00158 11303
 20702 327// 41302 70013=
46243 11031 99462 71241 46/// ///// 1//// 90316 22200 00086 11509
 20707 327// 41506 70045=
44059 11031 99368 70763 46/// /1704 10120 40216 90310 333 91205
 555 11045 22049=
44058 11031 99376 70763 46/// /1903 10063 40223 90310 333 91203
 555 11030 22033=
44064 11031 99370 70760 46/// /1405 10096 40224 90310 333 91205
 555 11054 22059=
46126 11031 99540 71666 46/// /2305 10044 49837 90300 22200 00046
 1//00 70001 333 91206 555 11052 22057=
44042 11031 99380 70763 46/// /1101 10046 40216 90310 333 91203
 555 11016 22018=
44063 11031 99390 70764 46/// /3602 10018 40217 90310 333 91202
 555 11021 22023=
44041 11031 99372 70768 46/// /1203 10067 90310 333 91204 555
 11035 22038=
44062 11031 99386 70764 46/// /0602 10024 40227 90310 333 91202
 555 11023 22025=
0000018400
460
SIVD80 KWBC 110300 RRA
BBXX
WDE3568 11034 99438 70821 43/// /1424 00/// 10033 2//// 40091
 5//// 8//// 222// 00049 2//// 3//// 4//// 5//// 6//// 8//// ICE
 /////=
0000056800
461
SIVE30 KWBC 110300 RRB
BBXX
VNAH 11034 99383 31416 46/// /1911 10185 20115 30193 40217 57001
 22200 04175 85144=
C6FS9 11034 99238 31512 46/// /1018 10263 20180 30127 40163 57015
 22200 04277 85207=
SHIP 11034 99319 31156 41997 01110 10309 20161 40139 52013 70200
 80000 22253 00228 10703 20401 31103 40501 50501=
SHIP 11033 99049 11429 41597 70926 10280 20253 40131 51022 703 22
 86864 22233 00310 20304 326// 40403 80260=
PHSG 11034 99044 71342 41394 81218 10247 20238 40100 5/000 75350
 8777/ 22214 00240 20202 323// 40304 80241=
0000367700
462
SIVF30 KWBC 110300 RRC
BBXX
SMLQ 11031 99656 10222 46/// /0206 11143 40107 5//// 222// 0////=
DBBA 11031 99541 10121 46/// ///// 10054 20034 40120 54000 22220
 00066=
DBFR 11031 99517 10025 46/// /2111 10079 20065 40136 57016 22272
 00102=
DBJM 11031 99540 10085 46/// /2111 10065 40112 57009 22210 00060=
DBKV 11031 99543 10102 46/// /2403 10065 20049 40109 57007 22220
 00065=
DBFH 11031 99539 10087 46/// /2206 10066 20060 40120 57007 22220
 00057=
DBEB 11031 99538 10081 41/// /2210 10067 20054 40118 57008 22200
 00062=
DBEA 11031 99540 10082 46/// /2312 10070 20060 40112 57008 22261
 00068=
DBBU 11031 99546 10135 46/// /2511 10067 20058 40103 52002 22260
 00066=
DBBC 11031 99536 10086 46/// /2104 10063 20050 40121 57006 22260
 00063=
62303 11034 99516 70051 46/// /3111 10083 20046 40141 22200 10604
 70018=
62081 11034 99521 70105 46/// /2713 10087 20020 40153 52020 22200
 10807 70034=
62305 11034 99504 70000 46/// /2117 10090 20065 40151 58003 22200
 00109 10601 70007 333 90710 91125=
62050 11034 99500 70044 46/// /3217 10095 20053 40151 22200 10503
 70013=
62103 11034 99499 70029 46/99 /2417 10103 20082 40145 55003 22200
 00112 10602 70011 333 90710 91127=
64046 11034 99605 70042 46/// /2926 10072 20029 49983 333 90710
 91132=
AMOUK09 1103/ 99517 10018 46/// ///// 10084 20083 40140=
AMOUK26 1103/ 99499 70059 46/// ///// 10088 20039 40159=
AMOUK33 1103/ 99555 10084 46/// ///// 10068 20055 40075=
AMOUK03 1103/ 99531 10015 46/// ///// 10075 20069 40087=
AMOUK44 1103/ 99546 70052 46/// ///// 1//// 2//// 40106=
AMOUK34 1103/ 99502 70008 46/// ///// 10091 20080 40148=
AMOUK11 1103/ 99533 70048 46/// ///// 10069 20029=
AMOUK14 1103/ 99535 70030 46/// ///// 10058 20030 40110=
AMOUK42 1103/ 99506 70025 46/// ///// 10102 20080 40135=
AMOUK11 1103/ 99533 70048 46/// ///// 10071 20033=
AMOUK32 1103/ 99559 70047 46/// ///// 10045 20015 40087=
AMOUK45 11034 99509 70014 46/// /2306 10093 20068 40126 22200
 401260100=
AMOUK43 1103/ 99541 70035 46/// ///// 10070 20044 40119=
AMOUK32 1103/ 99559 70047 46/// ///// 10047 20017 40089=
DIJY2 11034 99476 70068 41/98 83512 10103 20075 40161 51021 70362
 8//// 22254 04115 2////=
AMOUK14 1103/ 99535 70030 46/// ///// 10058 20029 40110=
AMOUK29 1103/ 99513 70064 46/// ///// 1//// 2//// 40148=
AMOUK13 1103/ 99513 10014 46/// ///// 10081 20062 40143=
AMOUK02 1103/ 99535 70034 46/// ///// 10078 20026 40120=
AMOUK04 1103/ 99535 70054 46/// ///// 10064 20031 40110=
AMOUK28 1103/ 99576 70072 46/// ///// 1//// 2//// 40058=
AMOUK43 1103/ 99541 70035 46/// ///// 10071 20050 40118=
AMOUK23 1103/ 99568 70021 46/// ///// 10041 20005 40066=
AMOUK06 1103/ 99517 10017 46/// ///// 10098 2//// 40136=
AMOUK02 1103/ 99535 70034 46/// ///// 10077 20020 40120=
62119 11034 99570 10019 47998 /3117 10062 20009 40049 53003 700//
 22200 10604 70021=
TBWUK65 11034 99365 10001 41398 40912 10169 20090 40154 53012
 70311 84/// 22224 20901 80128=
62027 11034 99491 70022 46/// /2309 1//// 2//// 40155 54000 22200
 0//// 10902 329// 70009=
AMOUK05 1103/ 99528 10019 46/// ///// 10075 2//// 40099=
62164 11034 99572 10008 47598 /2912 10069 20003 40052 53006 700//
 22200 00084 10604 70022=
62133 11034 99571 10009 46/// /3016 40051 53005 22200 10504 70020=
62122 11034 99573 10016 47598 /3016 10066 20005 40043 53005 700//
 22200 10604 70020=
62140 11034 99573 10013 46/// ///19 10065 21004 40045 53004 22200=
62146 11034 99572 10021 47998 /2705 10065 20014 40045 53002 700//
 22200 10604 70021=
62153 11034 99573 10020 47598 /2809 40042 53003 700// 22200 10604
 70022=
0000370800
463
SIVF30 KWBC 110300 RRD
BBXX
62155 11034 99577 10007 47698 /2820 10066 20001 40045 52004 700//
 22200 10604 70022=
62116 11034 99576 10011 47698 /2917 10063 21003 40040 53004 700//
 22200 10604 70021=
62104 11034 99574 10013 47598 /3017 10070 20009 40042 53003 700//
 22200=
62143 11034 99577 10018 47698 /3109 10065 21003 40045 52001 700//
 22200 10504 70020=
62118 11034 99577 10009 47598 /2817 10064 20009 40037 53003 700//
 22200 10604 70022=
62152 11034 99570 10018 47998 /3013 10066 20002 40052 53004 700//
 22200 10505 70024=
62102 11034 99579 10018 47998 /2920 10071 20008 40031 53003 700//
 22200 10605 70023=
62117 11034 99579 10000 47598 /2819 10063 21004 40028 56001 700//
 22200 10604 70021=
62142 11034 99530 10021 47996 /2118 10072 20065 40102 58009 700//
 22200 10503 70014=
62154 11034 99564 10022 46/// /3214 10081 20024 40047 53002 22200=
62144 11034 99534 10017 47497 /2221 10071 20056 40096 57012 700//
 22200 10403 70013=
62121 11034 99535 10027 46/// ///// 10071 20056 40102 57009 22200=
62145 11034 99531 10028 47597 /2220 10079 20049 40107 56007 761//
 22200 10503 70017=
62120 11034 99564 10021 47598 /3216 10070 20019 40052 53006 700//
 22200=
62150 11034 99536 10007 47498 /2317 10073 20073 40095 57005 700//
 22200 10502 70012=
62123 11034 99563 10022 47598 /3316 10076 20026 40049 53003 700//
 22200 1//04 70022=
62132 11034 99564 10020 46/// /3316 10072 20029 40054 53002 22200=
62148 11034 99536 10015 46/// ///// 22200=
62131 11034 99539 10012 46/// /2316 10074 20064 40081 56006 22200=
62149 11034 99537 10011 47498 /2322 10075 20061 40087 57007 700//
 22200 10403 70014=
62165 11034 99540 10011 47297 /2419 10072 20066 40080 55001 700//
 22200 10503 70015=
62127 11034 99540 10007 47296 ///// 10073 20059 40083 55001 700//
 22200 10503 70013=
63055 11034 99606 10016 47498 /2814 10048 20030 49973 53001 700//
 22200 10706 70029=
62112 11034 99584 70002 47598 /2821 10062 20013 40027 50000 700//
 22200=
PJAI 11034 99581 70014 47998 /2717 10064 20001 40035 53002 700//
 22200=
63108 11034 99608 10017 47/98 /2615 10047 20024 49969 55002 762//
 22200 10705 70025=
63106 11034 99610 10017 46/// /0816 10030 57011 22200=
63105 11034 99610 10017 47397 /0915 10073 20008 49969 57009 700//
 22200=
63107 11034 99611 10017 46/// /0915 10043 49968 56009 22200=
63112 11034 99611 10010 47497 /1115 10041 20026 49961 56007 700//
 22200 10706 70030=
63113 11034 99610 10017 46/// /0915 10049 20020 49965 57010 22200
 10706 70028=
63103 11034 99612 10011 46/// ///// 10029 20015 49958 56008 22200
 10806 70029=
63101 11034 99612 10009 46/// /0716 10024 20011 49967 56010 22200
 10705 70026=
63104 11034 99612 10016 47496 /0916 10029 21007 49971 57009 751//
 22200 10706 70029=
63117 11034 99613 10011 47498 /0917 49971 56011 700// 22200=
63115 11034 99616 10013 47497 /0717 10029 21007 49973 57009 762//
 22200 10705 70027=
63114 11034 99613 10017 47398 /0818 10016 20016 49972 57009 762//
 22200=
MWYG6 11034 99603 70040 47598 /2720 49993 53010 700// 22200=
62134 11034 99580 10014 46/// /3018 10064 20015 40034 52003 22200
 10605 70025=
62114 11034 99583 10000 46/// /2826 10062 20005 40024 58001 22200=
64041 11034 99607 70026 47598 /2718 49978 53004 762// 22200 11008
 70038=
ZQSD5 11034 99583 10008 47598 ///// 10064 20003 40021 58001 700//
 22200 1//07 70036=
62113 11034 99584 10002 47598 /2823 10059 21002 40031 50001 700//
 22200=
63057 11034 99592 10015 47998 /2715 10065 20012 40000 54000 700//
 22200 10606 70029=
62128 11034 99587 10014 47598 /2818 10053 20008 40021 53006 700//
 22200 10605 70027=
0000211000
464
SIVF30 KWBC 110300 RRE
BBXX
62129 11034 99584 10003 46/// /2822 10060 21002 40026 57001 22200=
MQSY9 11034 99593 10015 47598 /3018 10060 20023 50004 700// 22200=
63110 11034 99595 10015 47998 /2719 10060 20023 49999 52001 700//
 22200 10606 70030=
63109 11034 99596 10015 46/// /2723 10061 20023 49989 53001 22200=
63056 11034 99597 10016 47598 /2622 10062 20017 49987 55001 700//
 22200 10706 70032=
62304 11034 99512 10018 46/97 /1918 10071 20059 40149 57006 22200
 00101 10501 70005=
62111 11034 99580 70003 46/// /2823 10062 20008 40052 53002 22200
 10605 70025=
64045 11034 99591 70117 46/// /2920 10057 20008 40033 52020 22200
 00096 10809 70046 333 90710 91128=
62107 11034 99501 70061 46/// /3215 10088 20026 40161 53015 22200
 00104 10904 70019=
62163 11034 99475 70084 46/// /0110 10103 20065 40167 53008 22200
 00121 10704 70022=
62105 11034 99550 70132 46/// /2620 10067 20010 40107 51015 22200
 00108 10808 70041 333 90710 91132=
62301 11034 99524 70047 46/// /3112 10081 20037 40133 52017 22200
 00097 10503 70015=
OXVE2 11034 99360 70067 41497 71116 10165 20139 40143 54000 70100
 8784/ 22263 00160 20303 80150=
62001 11034 99452 70050 46/// /3107 10119 20068 40177 52004 22200
 00127 10703 70014=
62170 11034 99514 10020 46/97 /2322 10080 20065 40145 57009 22200
 00104 10502 70008 333 90710 91132=
9HA2950 11034 99497 70036 41298 83232 10105 20062 40137 52005
 70282 887// 22253 20404 327// 40705 80085=
62095 11034 99529 70156 46/// /2516 10084 20029 40131 51008 22200
 00100 10807 70037=
LF5T 11034 99660 10081 41698 80920 11029 21095 40060 57005 70272
 88/// 22200 10605 70026=
LF3F 11034 99643 10078 43/// /0819 11043 21082 40024 57004 22200
 04102 10705 70026=
LF3N 11034 99653 10073 41597 71019 11029 21050 40037 57009 70382
 87/// 22200 00083 10707 70035=
LF4B 11034 99606 10037 47/98 /0809 10030 49971 57017 700// 22200
 00038 10804 70022=
3ERR2 11034 99653 10073 43/// /1122 11027 21079 40034 57008 22200
 10607 70033=
LF4C 11034 99584 10019 43/// ///// 1//// 90310 22200 10705 70023=
0000013200
465
SIVJ30 KWBC 110300 RRA
BBXX
FHZI 11034 99635 31413 46/// /2023 10004 21011 39849 49860 54000
 22243 04007 86002=
0000072500
466
SILY20 HLMC 110300 RRA
AAXX 11034
62002 32960 42210 10120 20029 39501 48557 56007 84050
  333 84360=
62007 32960 01805 10120 20051 40227 55005=
62008 32960 62110 10120 20043 39430 48561 51004 86050
  333 86360=
62010 32960 31704 10094 20050 40225 56005 83050
  333 83360=
62012 32860 21810 10137 20054 30201 40231 58013 82040
  333 82358=
62016 32958 01304 10084 20055 40260 56004=
62018 32960 00000 10090 20018 30179 54000=
62053 32560 60000 10112 20090 40254 58003 84530
  333 84120 84358=
62062 32960 00000 10127 20104 40233 56008=
62124 32960 01208 10058 20029 39730 40240 57003=
62131 32960 00000 10078 20044 39945 40267 55003=
62161 32960 00000 10100 20068 40237 57002=
0000016300
467
SSVX13 LFPW 110330
ZZYY 13593 11014 0330/ 738175 018494 6113/ 22219 00169 33300 88872
 20000 43624 444 20130 11014 0329/ 50101 80118 80029 9/015=
0000215700
468
SIKZ20 UAAA 110300 RRA
AAXX 11031
28867 /1598 81805 11080 21102 39900 40179 57001 73632 885// 333  
47006 555   21096 69922 7992/=
28952 /19// 81610 11075 21105 39965 40161 57002 73673 8802/ 333  
48017 55000 21080 60022 7002/=
29802 /2597 82004 11087 21116 30138 40288 52007 885// 333   47012
55000 555   21089 69902 7995/=
29807 32597 82203 11085 21113 30158 40281 53002 885// 333   47020
555   21086 7993/=
35357 32597 81805 11085 21113 39799 40249 57009 885// 333   47020
55000 555   21163 7000/=
35394 /1698 81604 11124 21158 39606 40320 57005 70272 885// 333  
48021 55000 555   21134 69902 7992/=
35497 32998 71104 11139 21182 39485 40331 57003 84042 333   48034
555   21169 7992/=
35671 /1595 81304 11080 21090 39808 40252 57014 71072 885// 333  
47007 55000 555   21110 69942 7994/=
35796 32997 80506 11182 21204 39892 40364 57009 80009 333   47007
55080 555   21198 7000/=
36003 /2998 81803 11096 21137 30156 40314 52002 8807/ 333   47021
55000 555   21098 69942 7002/=
36152 32598 71303 11105 21134 30142 40340 58001 87500 333   48019
55000 555   21124 7002/=
36177 32997 71303 11101 21145 30107 40366 57001 86031 333   47010
55000 555   21126 7993/=
36208 32999 71101 11085 21147 39363 40382 54000 85035 333   47013
555   21137 7000/=
36864 32898 40000 11180 21207 39386 40356 57014 82031 333   47005
555   21188 7000/=
38196 32798 22902 11001 21140 39269 40261 57005 82500 333   44026
55060 555   21033 7000/=
38198 32997 21003 11104 21124 30004 40278 57006 82070 333   47007
55066 555   21132 7000/=
38222 32997 30000 11170 21189 39717 40323 57011 83040 333   47010
555   21171 7000/=
38328 32599 81302 11016 21113 39521 40266 56004 82533 333   47009
55063 555   21060 7000/=
38334 32998 60902 11028 21135 39290 40276 57004 82041 333   43026
55078 555   21060 7000/=
38341 32999 81802 11060 21123 39474 40289 57005 82047 333   43004
55083 555   21123 7000/=
38343 32998 81801 11092 21126 39413 40298 57012 80001 333   43003
555   21134 7000/=
38439 31996 51408 11030 21054 39912 40261 57010 71011 84071 333  
55000 555   21056 34107 7000/=
0000013800
469
SIKZ30 UAAA 110300 CCC
AAXX 11031
35576 32698 81807 11103 21153 39808 40275 57016 885// 333   47009
555   21123 7000/=
0000075200
470
SSVX08 KARS 110327
ZZYY 51307 10014 1200/ 707996 124994 6111/
33311 88870 20020 32716 20040 32700 20060 32432 20080 31859
20100 31404 20120 31260 20140 31194 20180 31113 20300 31000
444 20110 10014 1057/ 521//=
ZZYY 51307 11014 0300/ 707999 125000 6112/
11119 10272 29086
444 20120 11014 0306/ 521//=
ZZYY 43001 10014 1200/ 708036 110173 6112/
33311 88872 20001 32703 43345 20040 32525 20060 31562 20080 31344
20100 31278 20120 31229 20140 31181 20300 31016 20500 30776
444 20120 10014 1054/ 521//=
ZZYY 43001 11014 0300/ 708027 110168 6111/
11119 10267 29080
22219 00270
444 20110 10014 2205/ 521//=
ZZYY 51015 11014 03004 705083 124960 6111/
11119 01313 10267 29081
444 20110 11014 0307/ 521// 60401=
0000071000
471
SSVX07 KARS 110327
ZZYY 48732 11014 0250/ 774515 131109 6112/
11119 11146 49723
444 20120 11014 0248/ 504//=
ZZYY 48732 11014 0320/ 774514 131094 6112/
11119 11146 49924=
ZZYY 48507 11014 0250/ 773091 135165 6112/
11119 11326 49998=
ZZYY 48507 11014 0320/ 773093 135135 6111/
11119 11318 49994=
ZZYY 48731 11014 0250/ 774147 154956 6112/
11119 11222 40077
444 20120 11014 0248/ 504//=
ZZYY 48731 11014 0320/ 774145 154952 6112/
11119 11223 40076
444 20120 11014 0321/ 504//=
ZZYY 48508 11014 0320/ 772727 159219 6112/
11119 11257 40109
444 20120 11014 0321/ 504//=
ZZYY 48733 11014 0320/ 772966 152378 6112/
11119 11255 40076
444 20120 11014 0321/ 504//=
0000011000
472
UANT01 CWAO 110328
ARP VJT702 5708N04943W 0328 F410 MS62 083/49 KT
9HVJE QXS UAK 110328 M53A
0000011100
473
UANT01 CWAO 110328
ARP UAL101 5137N03714W 0328 F380 MS53 219/31 KT
N14120 DDL IG1 110328 F75A
0000011100
474
UANT01 CWAO 110328
ARP DAL270 4707N04504W 0328 F360 MS59 321/65 KT
N183DN QXT AOW 110328 F80A
0000011100
475
UANT01 CWAO 110328
ARP DAL619 5904N03638W 0328 F370 MS56 227/34 KT
N812NW DDL XXW 110328 J60A
00000000