0000008700
316
SAIN90 VORY 110330
METAR VORY 110330Z 00000KT 1500 BR NSC 22/19 Q1017=

0000022100
317
SIIN90 VICH 110300
AAXX 11034
42177 32996 00000 10060 20046 40207
  333 10170 20043 58017
  555 10000=
00010 21994 29901 10072 20072 40193 71044 82030
  333 20056 58011 6992/
  555 00002 10003=
0000119000
318
SIIN90 VILK 110300
AAXX 11034
42369 21/93 90000 10134 20127 40172 74544 89///
  333 10193 20100 59006
  555 00025 10012=
42479 21694 61404 10154 20152 40169 71062 84330
  333 10202 20146 59014 6021/ 84620 81930 86363
  555 00212 10026=
42189 21695 00000 10110 20104 40178 71062
  333 10170 20084 58000 6991/
  555 00001 10003=
42139 31994 00000 10078 20065 40181 71000
  333 10173 20068 58004
  555 10000=
42372 21/90 90000 10138 20134 40176 74544 89///
  333 10190 20126 58002 6001/
  555 00012 10016=
42377 21594 80000 10146 20146 40169 71062 8452/
  333 10180 20128 58013 6003/ 84625 88460
  555 00026 10011=
42475 21/92 90904 10160 20160 4//// 74344 89///
  333 10203 20150 58/// 6037/
  555 00366 10039=
42463 31/93 93202 10120 20101 40192 74344 89///
  333 10176 20108 58011
  555 10011=
42379 21594 50902 10148 20106 40173 71021 83530
  333 10195 20098 56690 59001 6998/ 83620 83360
  555 00008 10001=
42483 21494 80903 10148 20148 40181 76166 887//
  333 10204 20108 59020 6018/
  555 00176 10024=
42273 21595 51404 10142 20124 40160 70562 85500
  333 10206 20113 59012 6002/ 85625
  555 00020 10006=
0000103400
319
SIIN90 VISR 110300
AAXX 11034
42027 21595 82701 10004 21009 38474 48561 70522 8452/
  333 21003 58056 6996/
  555 00006 10036=
42056 31695 10502 10056 20037 39725 71000 81500
  333 20050 58008
  555 10009=
42045 22696 33603 10020 21034 38413 48546 82130
  333 21004 58034 6003/
  555 00028 10085=
42026 32596 70000 11090 21090 37280 49560 84530
  333 21112 58036
  555 10044=
42044 22494 80000 11012 21026 38334 48518 887//
  333 21030 58048 6008/
  555 00084 10116=
42043 22696 20501 10016 20002 38455 82100
  333 20010 58027 6003/
  555 00030 10109=
42054 22996 00000 10060 20015 39229
  333 20056 58016 6992/
  555 00002 10028=
42048 22996 01401 11012 21026 38415
  333 21025 58035 6996/
  555 00006 10053=
42028 22596 20000 11132 21183 37900 82500
  333 21143 58051 6020/
  555 00202 10137=
42031 32495 80000 11026 21031 38400 8472/
  333 21045 58014
  555 10032=
42046 22595 80000 11030 21040 38150 86520
  333 21040 58048 6011/
  555 00111 10091=
0000021700
320
FTIN90 VAAH 110300
TAF VAAH 110300Z 1106/1212 34006KT 5000 FU FEW100 BECMG 1112/1114 32004KT 4000 
FU/HZ BECMG 1201/1203 VRB02KT 1500 HZ BECMG 1204/1206 30005KT 5000 FU FEW020 BECMG 
32004KT 4000 FU =

0000011100
321
UANT99 KDDL 110326
ARP UAL989 5239N02422W 0326 F370 MS52 219/72 KT
N774UA DDL XXW 110326 F35A
0000013600
322
SIVD17 CWVR 110300
BBXX
46131 11031 99499 71250 46/// /1512 10064 40021 57064
22200 00078 10502 70012 333 91215 =

0000042900
323
UDAS02 EGRR 110330
AMDAR 1102
LVR EU0453   4813N 10444E 110252 F371 MS567 301/038 TB/ S031=
LVR EU0453   4736N 10550E 110259 F371 MS547 298/040 TB/ S031=
LVR EU0453   4658N 10655E 110306 F371 MS540 295/048 TB/ S031=
LVR EU0453   4619N 10759E 110313 F371 MS542 298/049 TB/ S031=
LVR EU0453   4539N 10902E 110320 F371 MS515 291/043 TB/ S031=
LVR EU0453   4459N 11002E 110327 F371 MS535 286/048 TB/ S031=
0000068500
324
UDAF02 EGRR 110330
AMDAR 1101
LVR EU1275   0858N 00857E 110145 F359 MS465 213/037 TB0 S031=
LVR EU1275   0958N 00850E 110152 F359 MS460 222/034 TB0 S031=
LVR EU1275   1057N 00842E 110159 F359 MS455 214/040 TB0 S031=
LVR EU1275   1157N 00831E 110206 F359 MS452 208/035 TB0 S031=
LVR EU1275   1257N 00825E 110213 F359 MS462 206/044 TB0 S031=
LVR EU1275   1358N 00819E 110220 F359 MS482 213/039 TB0 S031=
LVR EU1275   1457N 00814E 110227 F359 MS497 229/028 TB0 S031=
LVR EU1275   1554N 00808E 110234 F360 MS505 226/020 TB0 S031=
LVR EU1275   1651N 00803E 110241 F359 MS507 232/018 TB0 S031=
LVR EU1275   1747N 00758E 110248 F359 MS510 239/021 TB0 S031=
0000151500
325
SICI27 BABJ 110300
AAXX 11031
50434 32972 00000 11349 21383 40365 52002=
50527 32970 53202 11305 21336 40360 52023 85///=
50603 32980 03603 11178 21239 40345 52035=
50632 32980 62903 11207 21252 40287 52004 86///=
50727 41538 62904 11197 21239 40296 52003 77077 86///=
50915 42966 02905 11146 21221 40335 52007=
51716 32959 11101 11133 21154 40480 52012 81///=
51765 32980 03401 11137 21192 40495 52011=
51777 32970 20000 11098 21174 40481 52008 82///=
51811 32958 70000 11126 21147 40468 52011 87///=
51828 32962 70000 11088 21103 40452 52010 87///=
52267 42980 02904 11098 21209 40446 52031=
52323 32980 02707 11133 21201 38344 52019=
52495 42980 02708 11084 21215 40429 52018=
53149 42680 72908 11117 21244 40384 52023 87///=
53192 32967 22502 11135 21248 40380 52006 82///=
53231 42980 02705 11131 21228 38575 52022=
53336 32980 62906 11094 21224 40405 52021 86///=
53391 42967 12706 11104 21220 40357 52003 81///=
53529 42966 52704 11067 21222 40395 52020 85///=
53543 42980 03203 11073 21231 40373 52015=
53723 32969 02504 11052 21222 40392 52014=
54012 42980 02706 11143 21225 40336 52009=
54026 32975 12703 11071 21229 40286 52002 81///=
54027 32975 00202 11086 21204 40291 57004=
54208 42480 72706 11089 21219 40341 57001 87///=
54776 41943 73203 10033 21067 40331 57004 70500 87///=
56004 32980 72904 11156 21253 35812 52015 87///=
56033 32680 72201 11168 21225 36007 52016 87///=
56046 32980 70000 11096 21146 36251 52016 87///=
0000145600
326
SICI32 BABJ 110300
AAXX 11031
56193 NIL=
56196 31956 83601 10065 20031 40325 52017 71000 88///=
56287 31955 72501 10074 20019 40327 52019 72160 87///=
56684 31558 70405 11003 21038 37859 52012 71000 87///=
56751 32780 11404 10139 21017 38055 52022 81///=
56786 32576 02204 10137 20020 38136 52010=
56977 31561 40000 10172 20137 40216 52016 70040 84///=
57259 41461 80000 10021 20021 40353 52009 77070 88///=
57279 31957 83402 10049 20008 40343 52012 70500 88///=
57348 32761 71601 10083 20019 40320 52015 87///=
57399 41957 81602 10041 20029 40315 52004 72160 88///=
57554 31858 82201 10042 20014 40339 52014 71000 88///=
57793 41740 82701 10057 20050 40309 52010 76066 88///=
58345 41421 80703 10047 20032 40321 52004 76066 88///=
58506 41902 00401 10005 20005 40311 52009 76074=
58813 31957 80203 10103 20053 40281 52008 70500 88///=
58834 32960 70902 10127 20058 40286 57001 87///=
58926 32768 71801 10148 20064 40282 57001 87///=
58944 32564 73606 10131 20078 40272 57001 87///=
59096 32865 61602 10142 20077 40262 57008 86///=
59102 32974 01401 10154 20086 40261 57007=
59278 31757 70000 10155 20073 40260 52005 70500 87///=
59456 31857 70201 10166 20117 40246 52015 70500 87///=
59493 31957 00201 10186 20099 40253 54000 70500=
59658 31458 80905 10175 20130 40239 52012 70500 88///=
59673 32566 20405 10169 20122 40246 52002 82///=
59845 32570 51103 10225 20172 40225 52010 85///=
0000010200
327
SNVX19 LFVW 110200 RRC
BBXX
MINUK01 1102/ 99585 70023 46/// ///// 10058 40014 57008=
0000028100
328
SAPK31 OPKC 110330
METAR OPGD 110330Z NIL=
METAR OPKC 110325Z 33004KT 6000 NSC 09/M03 Q1022 NOSIG=
METAR OPLA 110325Z 30003KT 1500 BR NSC 03/01 Q1019/A30.07=
METAR OPNH 110330Z NIL=
METAR OPPS 110330Z NIL=
METAR OPRN 110330Z NIL=
METAR OPSK 110330Z NIL=
0000024100
329
SOAT10 KWAL 110328
FA8005BC 011032837 OT12 ID:KN-BASS-01 DT:2014 01 11 03 26
:RD -3232 -3242 -3224 -3230 -3231 -3232 -3243 -3249 -3227 -3237
:PR 0446 0352 0457 0440 0447 0451 0416 0441 0364 0456
:B 13.7V
 42+0NF 219E
0000013600
330
SIVD17 CWVR 110300
BBXX
46204 11031 99514 71288 46/// /1321 10055 49858 57116
22200 0//// 10708 70042 333 91227 =

0000010900
331
UANT99 KDDL 110326
ARP BAW9E 4856N04017W 0326 F400 MS53 269/32 KT
GVIIB QXT AOW 110326 F12A
0000012600
332
SITH43 VTBB 110300 RRF
AAXX 11034
48481 31958 20000 10278 20188 30126 40154 52012 70510 82041
  333 58007=
0000015300
333
SMNR01 DRRN 110000 RRB
AAXX 11004
61036 32960 70000 10226 20006 39889 40128 80008
  333 0//00 59004 87280=





NNNN
/=
0000012600
334
SMNR01 DRRN 110000 RRB
AAXX 11004
61036 32960 70000 10226 20006 39889 40128 80008
  333 0//00 59004 87280=
0000011100
335
UANT99 KDDL 110326
ARP DAL186 4755N03556W 0326 F350 MS47 223/34 KT
N177DZ QXT AOW 110327 F99A
00000000