0000011000
556
UANT01 CWAO 110314
ARP ACA874 5142N03651W 0313 F340 MS54 225/32 KT
CGHKR DDL XXW 110314 J45A
0000011000
557
UANT01 CWAO 110314
ARP ACA878 4923N03823W 0313 F330 MS54 271/14 KT
CFCAE DDL IG1 110314 F19A
0000011100
558
UANT01 CWAO 110314
ARP DAL186 4723N03822W 0314 F350 MS49 267/30 KT
N177DZ QXT AOW 110314 F98A
0000013100
559
SITU12 LTAA 110300 CCA
AAXX 11034
17024 42670 32726 10105 20062 30115 40193 52027 83500
 333 83635 91141 92438=
0000188300
560
SIUZ20 UTTW 110300
AAXX 11031
38141 32598 82102 10008 21039 30044 40206 57003 885// 555 20002 34101
51021 53018 7000/=
38149 32998 00000 11039 21080 30128 40208 57004 555 21058 34109 51025
53002 7000/=
38178 32998 21805 11050 21108 39926 40224 57007 82070 333 55032 555
21058 3/106 48007 51043 7000/=
38262 32698 70000 11034 21077 30147 40231 57005 87500 333 55055 555
21086 34110 7000/=
38264 31696 61602 11024 21043 30118 40214 52004 71022 86500 333 4/998
555 21053 3/109 7000/=
38396 31995 03001 11074 21087 30093 40226 53003 71000 333 21074 555
51049 7000/=
38403 32997 02401 11027 21091 30087 40212 57006 555 21027 3/109 50002
53008 7000/=
38413 32998 02008 10040 21015 39948 40242 58010 333 55073 555 20017
3/102 50033 7000/=
38457 32999 60802 11028 21093 39660 40271 57008 85041 333 55074 555
21041 3/114 42002 51009 53003 7000/=
38462 32699 60000 11072 21181 38805 48531 57006 82551 333 21080 555
3/115 43015 7000/=
38565 32998 51802 10078 21047 39643 40225 57016 85040 333 21053 555
34109 51015 7000/=
38579 32999 61502 11018 21092 39821 40255 57004 80001 333 55086 555
21024 41998 51004 53004 7000/=
38583 31995 31401 11043 21059 39936 40274 57006 71000 82041 555 21055
34105 51031 53003 7000/=
38611 31/92 90000 11086 21089 39737 40349 57001 74944 333 55046 8009/
555 21092 34107 51051 53001 7000/=
38618 32998 80000 11085 21092 39593 40328 52001 85049 333 55053 555
21090 3/108 41000 53002 7000/=
38683 31996 81103 11030 21069 39962 40251 57009 71011 80001 555 21032
51000 53005 7000/=
38696 32999 61101 10006 21007 39388 40266 57002 84044 333 47004 55075
555 21049 34112 51028 52112 53007 7000/=
38812 31996 53401 11045 21061 39784 40260 57004 71011 80001 555 21045
50014 53004 7000/=
38927 31926 60502 11054 21064 39908 40307 55001 71012 80001 333 55071
555 21057 51002 7000/ =
0000011100
561
UANT99 KDDL 110312
ARP BER7001 4639N02125W 0312 F350 MS62 240/76 KT
DABXB QXT AOE 110312 J61A
0000011000
562
UANT99 KDDL 110313
ARP BAW40F 5053N04048W 0313 F370 MS55 281/26 KT
GBNLP QXT AOW 110313 F41A
0000011000
563
UANT99 KDDL 110313
ARP DLH419 4954N04041W 0313 F360 MS52 283/32 KT
DABYJ QXT AME 110313 F95A
0000010900
564
UANT99 KDDL 110313
ARP BAW6W 4850N03626W 0313 F380 MS51 243/33 KT
GVIIA QXT AOW 110313 F12A
0000068100
565
SIAA01 SAWB 110300
AAXX 11034
88963 42560 30000 11008 21030 39970 40000 57004 81501 333 56505 81620
 92416 92733 94070 95000=
88968 42565 71412 11015 21045 39986 40001 57015 87500 333 56100 87620
 92417 92730 92851 94060=
89034 41310 80000 11025 21037 39604 49915 52011 77277 886// 333 56099
 88709 90078 90091 90097 90562 90973 92730 92801=
89053 42362 82716 11001 21033 30018 40032 57004 8567/ 333 56639 82708
 83630 88358 92427 92851 94076 94479 98562=
89055 42965 70000 11019 21053 39758 40001 57005 83059 333 56056 83360
 84170 95100=
89066 42960 10000 10004 21002 30004 40013 57007 80005 333 56006 81270
 92406 92731 92851 94022 95002=
0000005500
566
SIAA01 SAWB 110300 RRA
AAXX 11033
NIL
0000029800
567
SNVD15 KWNB 110200 RRO
BBXX
41051 11021 99183 70650 46/// /0707 10260 90230 333 91209 555
11080 22087=
41051 11021 99183 70650 46/// /0807 10261 90220 333 91209 555
11083 22090=
41051 11021 99183 70650 46/// /0807 10261 90200 22200 10503 70013
333 91209 555 11083 22090=
0000058300
568
SICH01 SCSC 110300
AAXX 11034
85406 42982 01602 10230 20169 40134 53016=
85418 42970 01909 10222 20173 40130 52018=
85432 42970 02207 10143 20061 37730 48407 52010=
85442 42465 41708 10203 20166 40125 52019 84500
  333 56400 84614=
85467 43460 /2804 10172 20140 40137 51010=
85469 12570 69903 10226 20173 40207 52012 60001 84800
333 10263 56200  82820 84656=
85488 42965 02402 10156 20136 40117 52001=
85500 NIL=
85556 NIL=
85558 NIL=
85564 NIL=
85574 42960 01406 10213 20063 40121 51009=
85577 42960 00000 10210 20071 39533 40127 50005=
0000066100
569
UDAF01 FAPR 110311
AMDAR 1103
LVR AFZA03 2145S 02104E 110221 F390 MS522 310/026 TB0 S031 333 F/// VG015=
LVR AFZA03 2220S 02155E 110229 F390 MS522 310/031 TB0 S031 333 F/// VG014=
LVR AFZA03 2255S 02247E 110236 F390 MS517 304/035 TB0 S031 333 F/// VG014=
LVR AFZA03 2330S 02339E 110243 F390 MS517 302/033 TB0 S031 333 F/// VG014=
LVR AFZA03 2404S 02432E 110250 F390 MS520 294/034 TB0 S031 333 F/// VG014=
LVR AFZA03 2429S 02531E 110257 F390 MS522 306/035 TB0 S031 333 F/// VG014=
LVR AFZA03 2506S 02622E 110304 F378 MS496 305/034 TB0 S031 333 F/// VG014=
LVR AFZA03 2541S 02713E 110311 F224 MS138 296/015 TB0 S031 333 F/// VG012=
0000066100
570
UDAF01 FAPR 110314
AMDAR 1103
LVR AFZA09 0237N 02158E 110225 F370 MS482 185/023 TB0 S031 333 F/// VG000=
LVR AFZA09 0148N 02218E 110232 F370 MS482 178/019 TB0 S031 333 F/// VG000=
LVR AFZA09 0101N 02243E 110239 F370 MS490 191/021 TB0 S031 333 F/// VG000=
LVR AFZA09 0008N 02251E 110246 F370 MS492 166/013 TB0 S031 333 F/// VG000=
LVR AFZA09 0046S 02255E 110253 F370 MS495 134/022 TB0 S031 333 F/// VG000=
LVR AFZA09 0137S 02310E 110300 F370 MS490 123/025 TB0 S031 333 F/// VG000=
LVR AFZA09 0229S 02320E 110307 F370 MS495 129/029 TB0 S031 333 F/// VG000=
LVR AFZA09 0323S 02324E 110314 F370 MS495 131/031 TB0 S031 333 F/// VG000=
0000036700
571
SICH02 SCSC 110300
AAXX 11034
85585 439// 9//// 10174 20108 30168 40204 58001=
85586 NIL=
85629 45980 02105 10203 20102 40125 51010=
85648 NIL=
85672 NIL=
85682 42960 02406 10150 20096 40163 52008=
85703 NIL=
85732 NIL=
85743 42960 00000 10103 20074 40204 52015=
85766 NIL=
85782 NIL=
85799 42960 01604 10098 20072 40245 52009=
0000046300
572
SIMK01 KWBC 110300
AAXX 11031
13457 32770 60801 10085 20079 30219 40226 54001 82530 333 82650
84360=
13462 42660 70000 10081 20068 30189 40229 58002 82570 333 82640
87460=
13363 41/01 90000 11023 21023 39315 48510 50004 74540=
13459 42670 20202 10010 20009 39472 40232 53001 82200 333 82896=
13461 42670 81401 10115 20106 30221 40228 55000 888// 333 84834
86650 92312 92428=
13463 42670 70901 10096 20062 30169 40229 57003 82570=
0000050900
573
SIMX01 KWBC 110300 RRB
AAXX 11031
76685 32950 00000 10158 20038 37857 40086 52002 90245 333 30///
59015=
76751 26/// /0602 10235 20220 30143 40155 52012 7//// 8//// 90250
333 0//// 30/// 4//// 54/// 56/// 57/// 59024 60007 8//// 8////
8//// 9//// 9//// 9//// 444 ///// 555 30256=
76625 21570 63202 10168 20072 38143 40094 52019 76025 85810 90255
333 31/// 56660 58006 69907 83825 82626 81355=
76675 32960 21602 10082 20032 37385 40113 52021 82010 90258 333
30/// 56090 59001=
0000114200
574
SIIN90 VOBG 110300
AAXX 11034
43295 31997 30902 10184 20158 39130 48531 70500 80001
  333 10297 20169 58003 83075
  555 10000=
43225 31596 30000 10214 20198 30148 40153 705// 83500
  333 10326 20194 58015
  555 10000=
43226 32496 30902 10224 20202 30117 40147 84530
  333 10315 20200 58007
  555 10000=
43233 31896 40000 10204 20163 39334 40150 70510 84030
  333 10303 20154 58005
  555 10000=
43198 32496 30000 10166 20135 39312 40155 82530
  333 10306 20126 56290 58002 82618
  555 10000=
43284 31596 50000 10240 20216 30023 40139 71042 82531
  333 10334 20222 58004 82620 83075
  555 10000=
43285 32597 20000 10248 20221 30116 40148 82500
  333 10336 20232 58005 82620
  555 10000=
43201 32997 02302 10196 20171 39415 40144
  333 10310 20164 58004
  555 10000=
43121 31596 09902 10210 20192 39634 40155 70500
  333 10318 20188 59002
  555 10000=
43296 31395 41405 10186 20143 39165 48539 71022 82601
  333 10288 20159 56209 58001 82708 83075
  555 10000=
43293 31396 40903 10180 20157 39161 48/// 70522 83601
  333 10295 20162 56209 59001 83708
  555 10000=
0000023900
575
SIIN90 VANP 110300
AAXX 11034
42867 21994 31102 10190 20174 40156 74441 82032
  333 20160 58004 6990/ 82360 83070
  555 00000 10000=
42933 32997 52903 10165 20073 40162 80008
  333 20151 58015 85270
  555 10000=
00000000