0000011100
932
UANT01 CWAO 110251
ARP DAL401 4641N04158W 0251 F360 MS53 307/50 KT
N845MH QXT AOW 110251 F18A
0000011000
933
UANT01 CWAO 110252
ARP EIN136 5145N03649W 0251 F390 MS54 226/37 KT
EIDUO DDL XXW 110252 J98A
0000011000
934
UANT01 CWAO 110252
ARP BAW11J 4712N04435W 0252 F390 MS55 311/56 KT
GVIIE QXT AOW 110252 F06A
0000011100
935
UANT01 CWAO 110252
ARP DAL270 4546N05131W 0252 F360 MS65 316/47 KT
N183DN DDL YYT 110252 F73A
0000011000
936
UANT01 CWAO 110252
ARP VJT702 5405N05657W 0252 F410 MS64 109/69 KT
9HVJE DDL YHO 110252 M40A
0000010800
937
SNIY20 LIIB 110200 RRB
AAXX 11024
16310 42998 00201 10108 20089 39989 40213 54001 555 0////=
0000011100
938
UANT01 CWAO 110252
ARP DAL619 5759N04538W 0252 F370 MS59 281/33 KT
N812NW DDL XXW 110252 J53A
0000011000
939
UANT01 CWAO 110252
ARP BAW32N 4414N04428W 0252 F370 MS52 304/58 KT
GCIVL QXT AOW 110252 F51A
0000128500
940
UDAS02 BABJ 110243
AMDAR 1102
DES CNFNXL 2339N 11340E 110238 F128 PS010 274/031 TB/ S//1=
DES CNFNXL 2336N 11336E 110239 F128 PS008 276/031 TB/ S//1=
DES CNFNXL 2335N 11335E 110239 F128 PS008 276/031 TB/ S//1=
DES CNFNXL 2333N 11332E 110240 F120 PS020 266/028 TB/ S//1=
DES CNFNXM 3102N 12121E 110238 F023 MS009 120/012 TB/ S//1=
DES CNFNXM 3105N 12120E 110239 F016 PS008 111/014 TB/ S//1=
DES CNFNXM 3107N 12120E 110240 F007 PS028 082/014 TB/ S//1=
ASC CNFPYL 3048N 11414E 110240 F010 PS008 071/006 TB/ S//1=
ASC CNFPYL 3049N 11414E 110240 F012 PS000 082/004 TB/ S//1=
ASC CNFOZM 3059N 11712E 110232 F301 MS368 257/111 TB/ S//1=
LVR CNFOZM 3040N 11711E 110235 F311 MS365 254/125 TB/ S//1=
LVR CNFOZM 3020N 11710E 110238 F311 MS350 256/128 TB/ S//1=
LVR CNFOZM 3000N 11709E 110241 F311 MS348 257/128 TB/ S//1=
LVR CNFPTK 4025N 11404E 110239 F217 MS376 272/061 TB/ S//1=
LVR CNFPTK 4025N 11400E 110240 F217 MS376 269/059 TB/ S//1=
LVR CNFPTK 4025N 11357E 110240 F217 MS378 270/058 TB/ S//1=
LVR CNFPTK 4025N 11350E 110241 F217 MS378 271/057 TB/ S//1=
ASC CNFPYL 3049N 11415E 110240 F014 PS000 093/005 TB/ S//1=
ASC CNFPYL 3051N 11416E 110241 F024 MS013 164/003 TB/ S//1=
ASC CNFPYL 3052N 11418E 110242 F040 MS025 218/005 TB/ S//1=
0000054100
941
UDAS02 BABJ 110245
AMDAR 1102
ASC CNFLWR 2345N 11302E 110240 F125 PS009 264/028 TB/ S//1=
ASC CNFLWR 2347N 11259E 110241 F142 MS033 262/029 TB/ S//1=
ASC CNFLWR 2348N 11255E 110242 F159 MS053 251/043 TB/ S//1=
ASC CNFLWR 2349N 11252E 110242 F176 MS080 258/051 TB/ S//1=
DES CNFNXL 2330N 11328E 110241 F106 PS033 244/026 TB/ S//1=
DES CNFNXL 2326N 11326E 110242 F087 PS003 286/016 TB/ S//1=
DES CNFNXL 2325N 11326E 110242 F085 PS009 289/016 TB/ S//1=
DES CNFNXL 2321N 11325E 110243 F080 PS020 284/013 TB/ S//1=
0000008000
942
SAYE20 OYSN 110300
METAR OYSN 110300Z 20004KT CAVOK 09/04 Q1026=
0000012000
943
SIYE70 OYRN 110300
AAXX 11034
41443 42460 43304 10200 20145 30156 40174 84800 333 59005 81818
84650=
0000009300
944
SAYE20 OYRN 110300
METAR OYRN 110300Z 33004KT 9999 FEW018 SCT050 20/15 Q1017=
0000009200
945
SAFC21 OEJD 110200 RRB
METAR
OEGS 110230Z 33011KT 9999 SCT040 10/08 Q1017=
0000009000
946
SASD20 OEJD 110200 RRB
METAR OEGS 110230Z 33011KT 9999 SCT040 10/08 Q1017=
0000011000
947
UANT99 KDDL 110251
ARP ACA872 5604N03317W 0251 F330 MS57 212/55 KT
CFRAM DDL XXW 110251 F15A
0000011000
948
UANT99 KDDL 110251
ARP AFR023 5001N01622W 0251 F390 MS53 242/45 KT
FGSPV QXT AOE 110252 F49A
0000011000
949
UANT99 KDDL 110251
ARP DLH409 5359N02004W 0251 F370 MS53 241/46 KT
DAIGW QXT AOE 110252 J11A
0000010900
950
UANT99 KDDL 110252
ARP KLM48 5524N04644W 0252 F360 MS61 298/47 KT
PHBFK QXT AOW 110252 F44A
0000011000
951
UANT99 KDDL 110252
ARP EIN104 5232N03238W 0252 F380 MS54 217/49 KT
EIDUZ DDL XXW 110252 J37A
00000000