0000009400
526
SAIN90 VEBS 111100
METAR VEBS 111100Z 15007KT 2500 HZ NSC 27/16 Q1014
NOSIG=
0000114100
527
USIN20 AFHQ 110000
TTAA 61021 00008 99989 03600 32003 00157 ///// ///// 92804 10659 34508 85503 07061 34510 70064 03367 04014 50562 19979 32026 40725 29775 32050 30925 43171 31070 25046 49370 29576 20191 52969 29095 15374 58570 28594  10623 65968 28067 88107 67168 26567 77168 28107 42617 31313 51708 80206=
TTAA 61001 42165 99994 05417 00000 00170 ///// ///// 92817 08659 00515 85509 04262 35017 70072 03172 36013 50570 13378 31549 40736 23178 30579 30943 34969 29623 25067 45364 29123 20212 56563 28644 15391 65762 27121 10635 699// 27073 88144 67162 27119 77199 28644 42125 31313 51708 80006=
TTAA 61001 00107 99004 12000 08004 00138 14013 09506 92800 18061 09005 85517 14061 22006 70117 01460 27019 50575 15762 25038 40742 21366 26556 30951 30972 26601 25078 39171 25596 20227 51965 26103 15409 61365 27091 88999 77263 26108 41115 77340 27097 43908 77350 27096 44209 31313 51708 80003=
TTAA 61001 43279 99013 21017 0000 00113 22631 04503 92790 17423 08511 85516 18068 08006 70150 07260 17511 50588 05969 33522 40761 14575 34515 30973 31574 02506 25100 41569 28505 20248 54964 25508 15427 68763 24514 88999 77999=

0000476200
528
SIIN90 AFHQ 110300
AAXX 11034
00001 21494 79901 11006 21006 48670 71052 85430
  333 21011 58046 6002/
  555 00018 10185=
00002 31796 60000 11121 21161 47509 82531
  333 21156 58056
  555 10010=
00003 21495 89901 11006 21017 48780 75652 84530
  333 21008 58047 6002/
  555 00016 10046=
00004 21994 09901 10013 20007 40222 71000
  333 21003 58013 6990/
  555 00000 10053=
00005 31995 10203 10065 20065 40189 71000 80001
  333 20044 58011
  555 10018=
00006 21994 01803 10056 20056 40192 71000
  333 20040 58007 6990/
  555 00000 10020=
00008 31993 09902 10052 20052 40198 74444
  333 20014 58009
  555 10000=
00009 31993 09902 10052 20052 40200 74440
  333 20034 58012
  555 10000=
00010 21994 29901 10072 20072 40193 71044 82030
  333 20056 58011 6992/
  555 00002 10003=
00011 31993 39902 10076 20067 40191 74441 83030
  333 20056 58012
  555 10006=
00012 31992 09902 10045 20045 40207 74244
  333 20024 58019
  555 10000=
00013 31993 09902 10044 20030 40199 74240
  333 20034 58020
  555 10000=
00014 31994 09902 10038 20038 40209 71044
  333 20012 58025
  555 10000=
00015 21992 29901 10075 20075 40185 74444 82030
  333 20048 58000 6990/
  555 00000 10001=
00016 31995 31803 10046 20015 40227 71011 89001
  333 20018 58036
  555 10000=
00017 31993 02706 10084 20068 40189 74244
  333 20048 58007
  555 10000=
42036 32796 62503 11065 21155 47660 83530
  333 21085 58063
  555 10000=
00151 31996 60504 10087 20023 40217 70500 80001
  333 20068 58033
  555 10000=
00152 31996 40503 10093 20033 40215 70500 81031
  333 20086 58038
  555 10000=
00153 32996 53203 10056 20019 40218 80001
  333 20030 58039
  555 10000=
00154 31996 43603 10085 20014 40205 70500 80001
  333 20074 58028
  555 10000=
00155 32996 39902 10092 20032 40201 80001
  333 20076 58020
  555 10000=
00156 31996 50209 10156 20071 40190 70500 80002
  333 20142 58018
  555 10000=
00157 31996 19902 10157 20103 40174 70500 80001
  333 20098 58005
  555 10000=
23232 31996 50000 10033 21007 40216 71000 80002
  333 20019 58033
  555 10000=
42237 31996 50000 10049 20029 40225 71010 80001
  333 20037 58038
  555 10000=
00051 21593 49901 10112 20110 40174 74464 82430
  333 20093 59003 6990/
  555 00000 10011=
00052 31992 92705 10095 20085 40195 74544 89///
  333 20082 58010
  555 10014=
00053 21991 99902 10135 20135 40180 74564 89///
  333 20115 59003 6016/
  555 00160 10045=
00054 21593 89901 10131 20131 40175 74444 8453/
  333 20111 59005 6998/
  555 00008 10014=
00055 21493 70707 10161 20161 40169 74444 85530
  333 20151 59015 6023/
  555 00230 10029=
00056 21593 51104 10143 20136 40173 74442 83530
  333 20086 59006 6001/
  555 00012 10001=
42260 31993 02703 10082 20082 40193 74244
  333 20068 58007
  555 10000=
42485 31492 70000 10126 20126 40180 74446 83530
  333 20082 58006
  555 10000=
00101 21593 82703 10134 20127 40185 74264 82531
  333 20090 58001 6996/
  555 00006 10000=
00102 31995 69901 10161 20128 40195 71021 80030
  333 20091 58004
  555 10000=
00103 31596 40504 10161 20114 40196 71010 81530
  333 20084 58003
  555 10000=
00104 31594 40000 10151 20125 40200 71040 81530
  333 20103 58006
  555 10004=
00105 31995 30502 10148 20137 40203 7104/ 83030
  333 20053 58006
  555 10002=
00106 32996 22305 10118 20014 48413 82030
  333 20004 58013
  555 10000=
00107 32996 00905 10170 20131 40194
  333 20109 58007
  555 10000=
00108 31994 00000 10154 20126 40190 71040
  333 20090 59004
  555 10000=
00109 31993 09902 10148 20129 40177 74244
  333 20108 59004
  555 10000=
00110 31994 20000 10179 20133 40185 71044 80001
  333 20109 59003
  555 10000=
42398 31595 70000 10128 20120 40201 71022 83431
  333 20087 58012
  555 10000=
42690 31595 79903 10145 20125 40177 71000 84530
  333 20127 58014
  555 10000=
00201 31996 22004 10193 20193 40162 71000 82030
  333 20155 58004
  555 10000=
00202 31394 41408 10191 20191 40169 71000 84700
  333 20170 58000
  555 10000=
00203 31395 61411 10194 20194 40165 71000 86600
  333 20167 58002
  555 10000=
00204 31495 41105 10182 20152 48385 71011 82601
  333 20169 58000
  555 10000=
00205 31595 23404 10224 20206 40165 71000 82500
  333 20194 58005
  555 10000=
00206 32596 79902 10217 20175 40165 83530
  333 20209 58008
  555 10000=
00251 31595 71106 10217 20217 40167 71022 83530
  333 20182 58020
  555 10000=
00252 31595 30205 10233 20192 40170 71000 81501
  333 20202 58007
  555 10001=
43368 21496 71110 10268 20230 40146 76065 84830
  333 20246 58012 6004/
  555 00040 10032=
0000077300
529
USAA01 NZCM 110000
TTAA 61001 89664
99997 00056 18501 00512 ///// ///// 92601 07158 18518
85255 11341 17017 70716 21114 15006 50514 33959 24513
40666 44759 24520 30855 51765 24023 25975 45585 24514
20124 43786 24513 15318 43586 26009 10592 41586 23504
88320 52361 23026
77999
31313 48008 82219=

0000069700
87361=
0000011200
87368=
0000015000
87382
0000012800
87386
0000045600
87406
0000047700
87410
0000049800
87416
0000051900
87420
0000047800
87441
0000045800
87463
0000047900
87474=
0000054200
87591
0000060500
87658=
0000058500
88222
0000060600
88476
0000058600
88706=
0000064900
91365
0000062900
92729
0000071100
94532
0000067100
96763
0000067100
99406
0000060700
530
USAA01 NZCM 110000
TTAA 61001 89664
99997 00056 18501 00512 ///// ///// 92601 07158 18518
85255 11341 17017 70716 21114 15006 50514 33959 24513
40666 44759 24520 30855 51765 24023 25975 45585 24514
20124 43786 24513 15318 43586 26009 10592 41586 23504
88320 52361 23026
77999
31313 48008 82219=

0000069700
87361=
0000011200
87368
0000009600
87371
0000035800
87378
0000037300
87381
0000039400
87385
0000039400
87407=
0000012000
87430=
0000054100
87500=
0000056300
87703=
0000056500
88302=
0000060800
90487
0000069000
91597=
0000064900
531
USAA01 NZCM 110000
TTAA 61001 89664
99997 00056 18501 00512 ///// ///// 92601 07158 18518
85255 11341 17017 70716 21114 15006 50514 33959 24513
40666 44759 24520 30855 51765 24023 25975 45585 24514
20124 43786 24513 15318 43586 26009 10592 41586 23504
88320 52361 23026
77999
31313 48008 82219=

0000069700
87361=
0000011200
87368=
0000015000
87382
0000012800
87386
0000045600
87406=
0000047800
87429
0000015700
87445=
0000050000
87538
0000054200
87552=
0000066700
87865=
0000056500
88896
0000064800
89347=
0000075300
94599
0000065000
96780
0000073300
99398
0000064800
532
USAA01 NZCM 110000
TTAA 61001 89664
99997 00056 18501 00512 ///// ///// 92601 07158 18518
85255 11341 17017 70716 21114 15006 50514 33959 24513
40666 44759 24520 30855 51765 24023 25975 45585 24514
20124 43786 24513 15318 43586 26009 10592 41586 23504
88320 52361 23026
77999
31313 48008 82219=

0000069700
87361=
0000011200
87368
0000009600
87371
0000035800
87378
0000037300
87381
0000039400
87385=
0000043700
87428
0000047800
87442=
0000052100
87533
0000058300
87555
0000060400
87612=
0000058500
88071
0000056500
88360=
0000066900
90538
0000064900
91617=
0000077200
533
USAA01 NZCM 110000
TTAA 61001 89664
99997 00056 18501 00512 ///// ///// 92601 07158 18518
85255 11341 17017 70716 21114 15006 50514 33959 24513
40666 44759 24520 30855 51765 24023 25975 45585 24514
20124 43786 24513 15318 43586 26009 10592 41586 23504
88320 52361 23026
77999
31313 48008 82219=

0000069700
87361=
0000011200
87368
0000009600
87371
0000035800
87378
0000037300
87381=
0000039500
87413=
0000052000
87479=
0000056300
87590
0000058400
87644
0000054300
87807
0000015200
88028
0000064700
88304
0000062700
88566
0000062700
89122
0000068900
89669
0000064900
90347
0000062800
91426
0000064900
92807
0000067000
94628
0000077400
96790
0000073300
99421
0000058600
534
USAA01 NZCM 110000
TTAA 61001 89664
99997 00056 18501 00512 ///// ///// 92601 07158 18518
85255 11341 17017 70716 21114 15006 50514 33959 24513
40666 44759 24520 30855 51765 24023 25975 45585 24514
20124 43786 24513 15318 43586 26009 10592 41586 23504
88320 52361 23026
77999
31313 48008 82219=

0000069700
87361=
0000011200
87368
0000009600
87371
0000035800
87378
0000037300
87381=
0000039500
87413=
0000052000
87479
0000056200
87492=
0000046000
87710=
0000058500
88273=
0000062800
90466
0000060800
91592=
0000005200
535
RRIN23 VIDP 110040
RQRPT 963-004=

0000005200
536
RRIN23 VIDP 110040
RQRPT 063-124=

0000079300
537
USAA01 NZCM 110000
TTAA 61001 89664
99997 00056 18501 00512 ///// ///// 92601 07158 18518
85255 11341 17017 70716 21114 15006 50514 33959 24513
40666 44759 24520 30855 51765 24023 25975 45585 24514
20124 43786 24513 15318 43586 26009 10592 41586 23504
88320 52361 23026
77999
31313 48008 82219=

0000069700
87361=
0000011200
87368
0000009600
87371
0000035800
87378
0000037300
87381=
0000039500
87413
0000041600
87422
0000043700
87443
0000045800
87466
0000054100
87469
0000050000
87483=
0000046000
87718=
0000054400
88279
0000056500
88548
0000060700
89100
0000071000
89645
0000056600
90335
0000071100
91394
0000067000
92771
0000073200
94561
0000071200
96725
0000081600
99403
0000075200
538
USAA01 NZCM 110000
TTAA 61001 89664
99997 00056 18501 00512 ///// ///// 92601 07158 18518
85255 11341 17017 70716 21114 15006 50514 33959 24513
40666 44759 24520 30855 51765 24023 25975 45585 24514
20124 43786 24513 15318 43586 26009 10592 41586 23504
88320 52361 23026
77999
31313 48008 82219=

0000069700
87361=
0000011200
87368
0000009600
87371
0000035800
87378
0000037300
87381=
0000039500
87413
0000041600
87422
0000043700
87443
0000045800
87466=
0000054200
87540
0000048000
87567=
0000050200
87876
0000058500
88026
0000060600
88323
0000062700
88588=
0000069000
91390
0000071100
92769
0000075300
94578
0000058800
96773
0000075400
99405
0000064900
539
USAA01 NZCM 110000
TTAA 61001 89664
99997 00056 18501 00512 ///// ///// 92601 07158 18518
85255 11341 17017 70716 21114 15006 50514 33959 24513
40666 44759 24520 30855 51765 24023 25975 45585 24514
20124 43786 24513 15318 43586 26009 10592 41586 23504
88320 52361 23026
77999
31313 48008 82219=

0000069700
87361=
0000011200
87368=
0000015000
87382
0000012800
87386
0000045600
87406=
0000047800
87429
0000015700
87445
0000049900
87465
0000054100
87473
0000050000
87488
0000052100
87521=
0000054300
87728=
0000066800
88288=
0000098600
90475
0000058700
91603=
0000060700
540
USAA01 NZCM 110000
TTAA 61001 89664
99997 00056 18501 00512 ///// ///// 92601 07158 18518
85255 11341 17017 70716 21114 15006 50514 33959 24513
40666 44759 24520 30855 51765 24023 25975 45585 24514
20124 43786 24513 15318 43586 26009 10592 41586 23504
88320 52361 23026
77999
31313 48008 82219=

0000069700
87361=
0000011200
87368=
0000015000
87382=
0000030600
87414
0000014800
87423
0000049900
87438
0000052000
87459
0000058200
87471
0000050000
87489=
0000052200
87715=
0000058500
88278=
0000054500
90469
0000058700
91604=
0000064900
541
USAA01 NZCM 110000
TTAA 61001 89664
99997 00056 18501 00512 ///// ///// 92601 07158 18518
85255 11341 17017 70716 21114 15006 50514 33959 24513
40666 44759 24520 30855 51765 24023 25975 45585 24514
20124 43786 24513 15318 43586 26009 10592 41586 23504
88320 52361 23026
77999
31313 48008 82219=

0000069700
87361=
0000011200
87368=
0000015000
87382=
0000030600
87414=
0000011000
87481=
0000054200
87583=
0000058500
87910
0000056200
88094
0000058500
88380
0000062700
88618=
0000064900
91432
0000060800
92811
0000069100
94654
0000067000
96788
0000071200
99415
0000066900
542
USAA01 NZCM 110000
TTAA 61001 89664
99997 00056 18501 00512 ///// ///// 92601 07158 18518
85255 11341 17017 70716 21114 15006 50514 33959 24513
40666 44759 24520 30855 51765 24023 25975 45585 24514
20124 43786 24513 15318 43586 26009 10592 41586 23504
88320 52361 23026
77999
31313 48008 82219=

0000069700
87361=
0000011200
87368
0000009600
87371
0000035800
87378
0000037300
87381=
0000039500
87413
0000041600
87422
0000043700
87443
0000045800
87466
0000054100
87469=
0000050100
87581=
0000046100
87909
0000058500
88097
0000058600
88370=
0000069000
90541
0000071100
91618=
0000075200
543
USAA01 NZCM 110000
TTAA 61001 89664
99997 00056 18501 00512 ///// ///// 92601 07158 18518
85255 11341 17017 70716 21114 15006 50514 33959 24513
40666 44759 24520 30855 51765 24023 25975 45585 24514
20124 43786 24513 15318 43586 26009 10592 41586 23504
88320 52361 23026
77999
31313 48008 82219=

0000069700
87361=
0000011200
87368=
0000015000
87382
0000012800
87386=
0000045700
87427
0000045800
87444=
0000048000
87537
0000058300
87569
0000050100
87626
0000052200
87673=
0000056500
88280
0000060700
88549
0000064800
89045
0000066900
89636
0000073100
90333
0000069000
91401
0000077400
92800
0000062900
94650
0000069100
96804
0000083600
99422
0000066900
544
USAA01 NZCM 110000
TTAA 61001 89664
99997 00056 18501 00512 ///// ///// 92601 07158 18518
85255 11341 17017 70716 21114 15006 50514 33959 24513
40666 44759 24520 30855 51765 24023 25975 45585 24514
20124 43786 24513 15318 43586 26009 10592 41586 23504
88320 52361 23026
77999
31313 48008 82219=

0000069700
87361=
0000011200
87368=
0000015000
87382=
0000030600
87414
0000014800
87423
0000049900
87438
0000052000
87459
0000058200
87471
0000050000
87489
0000052100
87522
0000058300
87546=
0000054300
87861
0000058500
88025
0000062700
88318=
0000064900
90509
0000064900
91586=
0000073100
545
USAA01 NZCM 110000
TTAA 61001 89664
99997 00056 18501 00512 ///// ///// 92601 07158 18518
85255 11341 17017 70716 21114 15006 50514 33959 24513
40666 44759 24520 30855 51765 24023 25975 45585 24514
20124 43786 24513 15318 43586 26009 10592 41586 23504
88320 52361 23026
77999
31313 48008 82219=

0000069700
87361=
0000011200
87368
0000009600
87371
0000035800
87378
0000037300
87381
0000039400
87385
0000039400
87407=
0000012000
87430=
0000054100
87500=
0000056300
87703
0000056400
87841
0000052300
88031
0000054400
88315
0000056500
88585=
0000069000
91336
0000069100
92726
0000069100
94575
0000060900
96779
0000079500
99416
00000000