0000013900
056
SSVX02 CWAO 110300
ZZYY 64725 11014 0300/ 170996 025396 6113/ 22231 
00052 444 20130 11014 0300/ 50101 80138 80002 9////=
0000013900
057
SSVX02 CWAO 110300
ZZYY 64712 11014 0300/ 169558 010013 6113/ 22219 
00062 444 20130 11014 0300/ 50101 80134 80003 9/015=
0000013900
058
SSVX02 CWAO 110300
ZZYY 64710 11014 0300/ 774713 000031 6113/ 22219 
00004 444 20130 11014 0300/ 50101 80108 80000 9////=
0000013900
059
SSVX02 CWAO 110300
ZZYY 64727 11014 0300/ 768434 001087 6113/ 22219 
00062 444 20130 11014 0300/ 50101 80138 80005 9/015=
0000013900
060
SSVX02 CWAO 110300
ZZYY 64736 11014 0300/ 168589 005733 6113/ 22219 
00066 444 20130 11014 0300/ 50101 80140 80003 9/015=
0000013900
061
SSVX02 CWAO 110300
ZZYY 64728 11014 0300/ 765137 008577 6113/ 22219 
00024 444 20130 11014 0300/ 50101 80140 80005 9/015=
0000013000
062
SIIN90 VISM 110300
AAXX 11034
42065 22996 20000 10000 21005 38182
  333 10058 21016 6006/
  555 00064 10051=
0000116900
063
SIIN90 VABB 110300
AAXX 11034
43057 31995 10000 10184 20047 40164 70500 80001
  333 20160 58021
  555 10000=
43111 32997 12004 10144 20013 38644 48522 80001
  333 20116 59001
  555 10000=
43062 32996 80000 10135 20115 40153 70000 80000
  333 20171 58004
  555 10000=
43157 31996 00000 10168 20130 39507 40157 74440
  333 20152 58000
  555 10000=
42921 31995 20000 10110 20022 40179 70500 80001
  333 20069 58010 82075
  555 10000=
43117 32997 00702 10196 20121 40152
  333 20161 59002
  555 10000=
43001 31996 40000 10159 20059 40164 70400 80001
  333 20140 58019
  555 10000=
43009 32996 00202 10130 20062 40184
  333 20097 58010
  555 10000=
43017 32997 00000 10176 20087 40167
  333 20137 58014
  555 10000=
43113 32996 20000 10110 20083 39355 40168 80001
  333 20092 58001
  555 10000=
43110 31996 00901 10204 20126 40152 70540
  333 20150 58010
  555 10000=
43193 32996 00000 10198 20154 40159
  333 20170 58002
  555 10000=
43075 32898 01401 10164 20099 39404 40156
  333 20126 58002
  555 10000=
43076 32997 02704 10200 20148 40088
  333 20161 58009
  555 10000=
0000011500
064
UGIN40 DEMS 110000 RRE
PPBB 61023 42348
90023 00000 01006 02016 907// 33012 9125/ 27016 30544=

0000013900
065
SSVX02 CWAO 110300
ZZYY 64726 11014 0300/ 172103 012991 6113/ 22219 
00067 444 20130 11014 0300/ 50101 80138 80002 9////=
0000009000
066
SIQT20 OTBD 110300
AAXX 11034
41160 46/// /2008 10161 20143 30191 40196=
0000012700
067
SSVX05 CWAO 110300
ZZYY 47550 11014 0300/ 770787 069468 6113/ 444 
20130 11014 0300/ 50101 80134 80001 9////=
0000027500
068
SXHW11 KWAL 110322
15D142A4 011032202":PRS 1 #1 1380 1389 1394 1407 1394 1406 1392 1394 1403 1405 :RAD 1 #1 6965 6970 6976 6980 6974 6978 6973 6975 6980 6979 :ENC 2 #5 4882 4884 4887 4898 :SW1 22 #60 0 :SW2 52 #60 0 :BAT 4 #5 13.3 :NAME 15D142A4  35+0NN 216W
0000012100
069
SITH41 VTBB 110300 RRB
AAXX 11034
48382 31958 00305 10242 20156 30007 40186 51013 70500 
  333 58002=
0000102000
070
SICI31 BABJ 110300
AAXX 11031
50844 32962 61103 11146 21212 40264 57006 86///=
50854 32962 00901 11182 21241 40275 57003=
50968 32962 22203 11162 21214 40293 52002 82///=
51379 32980 01603 11176 21233 40467 57001=
51467 32980 00000 11185 21243 38343 52009=
51495 32980 03602 11111 21197 40493 52020=
53480 42964 22203 11090 21238 40367 52003 82///=
53673 41958 01601 11052 21213 40360 52004 70500=
53698 31918 70000 10018 21128 40321 57002 70500 87///=
53898 31922 03601 10027 21078 40324 57004 70500=
54308 31958 01101 11089 21226 40341 57012 70500=
54602 31916 62501 11010 21126 40322 57003 70500 86///=
54725 41907 02202 10018 21020 40331 57003 74244=
54751 31914 72205 10010 21022 40326 57009 70500 87///=
54916 41923 81602 10040 21031 40349 57001 70540 88///=
57014 329// 73601 11005 21074 40382 52024 87///=
57025 42962 23204 10031 21171 40371 52022 82///=
57046 41973 02903 11058 21115 37990 52009 70074=
58208 31939 80902 10046 20004 40325 52002 70500 88///=
0000032600
071
FPBM20 VBRR 110300
FORECAST ISSUED AT 0200UTC ON 11 JANUARY 2014.
YANGON
12.01.2014    34/18 GENERALLY FAIR
13.01.2014    33/17 GENERALLY FAIR
14.01.2014    33/17 GENERALLY FAIR
MANDALAY
12.01.2014    30/14 GENERALLY FAIR
13.01.2014    30/14 GENERALLY FAIR
14.01.2014    30/15 GENERALLY FAIR

0000011000
072
UANT99 KDDL 110320
ARP DLH411 5112N02835W 0320 F390 MS55 209/59 KT
DAIKN QXT EUA 110321 J91A
0000011000
073
UANT99 KDDL 110320
ARP UAL68 5815N02420W 0320 F350 MS53 232/36 KT
N17105 DDL IG1 110321 F74A
0000011100
074
UANT99 KDDL 110321
ARP AAL100 4949N03623W 0321 F340 MS53 207/27 KT
N725AN DDL XXW 110321 F35A
0000011000
075
UANT99 KDDL 110321
ARP JAI227 4803N03946W 0321 F360 MS51 290/23 KT
VTJWT QXT AOW 110321 J71A
00000000