0000342400
659
SSVX11 LFVW 110107 RRA
ZZYY 52077 10014 2200/ 102080 146985 6112/
33311 88872 20025 32999 20050 32997 20075 32967 43523
20100 32848 43522 20300 31048 43473 20750 30624 43453
444 20120 10014 2203/ 522//=
ZZYY 52077 11014 0000/ 102082 146984 6113/
33311 88872 20025 33003 20050 32996 20075 32986 43512
20100 32882 43528 20300 31040 43472 20750 30614 43453
444 20130 10014 2338/ 522//=
ZZYY 52077 10014 2100/ 102082 146982 6112/
33311 88872 20025 33002 20050 32998 20075 32955 43526
20100 32821 43519 20125 32600 43523 20150 32408 43518 20200 31641
20250 31142 20300 31050 43473 20500 30839 43459 20750 30617 43453
444 20120 10014 2115/ 522//=
ZZYY 52077 10014 2300/ 102081 146982 6113/
33311 88872 20025 32999 20050 32996 20075 32975 43519
20100 32898 43531 20125 32657 43521 20150 32457 43523 20200 31678
20250 31151 20300 31039 43473 20500 30830 43460 20750 30626 43452
444 20130 10014 2243/ 522//=
ZZYY 52086 10014 19004 305035 156020 6113/
11119 03010 10276 40058
22219 00303
33311 88872 20000 33032 20002 33032 43439 20025 33043 43481
20050 33034 20075 32952 43512 20100 32943 20125 32814 43569
20150 32597 43607 20200 32181 43588 20250 31466 43513
20300 31049 43478 20500 30747 43453 20750 30556 43450
444 20130 10014 1934/ 522// 60381=
ZZYY 52086 10014 17004 305035 156027 6113/
11119 03109 10258 40060
22219 00303
33311 88872 20000 33031 20002 33031 43414 20025 33041 43480
20050 32999 20075 32948 43516 20100 32919 20125 32812 43570
20150 32628 43604 20200 32172 43589 20250 31489 43516
20300 31094 43481 20500 30723 43452 20750 30564 43450
444 20130 10014 1746/ 522// 60381=
ZZYY 52084 10014 12004 105023 155968 6112/
11119 00614 10291 29071 40091
22219 00296
33311 88872 20000 32962 20002 32962 43429 20025 32965
20050 32965 43433 20075 32973 20100 32967 43446 20125 32786 43458
20150 32490 43489 20200 31465 43459 20250 31061 43458
20300 30943 43462 20500 30779 43457 20750 30597 43453
444 20120 10014 1153/ 522// 60381=
ZZYY 52084 10014 14004 105022 155968 6112/
11119 00609 10289 29071 40091
22219 00296
33311 88872 20000 32960 20002 32960 43430 20025 32963
20050 32968 43444 20075 32974 20100 32924 43451 20125 32762 43462
20150 32391 43494 20200 31401 43460 20250 31040 43459
20300 30938 43462 20500 30780 43457 20750 30598 43453
444 20120 10014 1409/ 522// 60381=
ZZYY 52083 10014 13004 107968 156033 6113/
11119 00310 10282 29075 40098
22219 00290
33311 88872 20000 32902 20002 32902 43379 20025 32903 43396
20050 32904 43395 20075 32904 43395 20100 32778 43474
20125 32548 43495 20150 32101 43504 20200 31472 43457
20250 31128 43453 20300 30983 43459 20750 30584 43453
444 20130 10014 1409/ 522// 60381=
ZZYY 52083 10014 20004 107968 156030 6112/
11119 00610 10275 29082 40087
22219 00290
33311 88872 20000 32901 20002 32901 43380 20025 32902 43396
20050 32903 43396 20075 32899 43405 20100 32662 43476
20125 32234 43501 20150 31761 43480 20200 31304 43453
20250 31046 43455 20300 30967 43460 20750 30586 43453
444 20120 10014 1946/ 522// 60381=
ZZYY 52083 10014 22004 107970 156028 6112/
11119 00716 10290 29071 40099
22219 00290
33311 88872 20000 32901 20002 32901 43380 20025 32902 43396
20050 32903 43396 20075 32902 43398 20100 32699 43478
20125 32406 43498 20150 32006 43498 20200 31330 43455
20250 31031 43457 20300 30965 43460 20750 30000=
0000008900
660
SPIN90 VOBG 110100
SPECI VOBG 110100Z 14005KT 1500 BR SCT006 18/15 Q1018=
0000015700
661
SSVX13 LFPW 101900
ZZYY 44763 10014 1900/ 756243 013372 6113/ 11119 40053 52021 22219
 00103 444 20130 10014 1800/ 50101 80138 80002 9/015=
0000015700
662
SSVX13 LFPW 102000
ZZYY 44763 10014 2000/ 756243 013372 6113/ 11119 40052 52012 22219
 00103 444 20130 10014 1800/ 50101 80138 80002 9/015=
0000106000
663
SNOS40 LOWM 110100
AAXX 11011
11010 36018 /3001 11014 21014 39834 40227 57005=
11012 36/// /2402 10000 21009 39738 40221 58006=
11022 36/// /2503 10011 21019 39814 40211 58002=
11035 36/// /2701 10017 21003 39957 40217 55002=
11036 32982 21803 11021 21038 39991 40223 55002 333 82080=
11101 36/// /1801 10019 20016 39674 40209 58004=
11120 36056 /9901 10026 20023 39507 40224 57002=
11126 36/// /2805 11003 21051 37740 48496 57001=
11130 36/// /2402 10037 20028 39620 40217 57003=
11146 NIL=
11150 36071 /9901 10023 20017 39672 40216 57003=
11155 36/// /2706 10006 21029 38360 48488 55003 333 91114=
11157 36/// /0000 11006 21010 39442 40238 58004=
11171 36/// /1202 11034 21040 39190 40241 58005=
11190 36/// /3302 10017 21009 39988 40216 56002=
11204 36/// /2701 11048 21053 39436 40265 55000=
11212 NIL=
11231 36645 /3002 10013 20012 39652 40236 57002=
11240 36206 /9901 10031 20031 39777 40224 57004=
11244 36/// /3101 10047 20039 39885 40218 57005=
11389 36/// /1802 11006 21014 39888 40225 55003=
0000117700
664
SNOS43 LOWM 110100
AAXX 11011
11018 36/// /2701 11013 21017 39891 40223 58004=
11019 36/// /2702 10001 21021 39479 40219 56006=
11034 36/// /2302 10049 20007 39995 40215 55003=
11040 36/// /2403 10017 21024 39971 40220 57004=
11051 36/// /2501 11014 21018 39735 40218 58006=
11055 36/// /0000 11018 21021 39830 40223 58003=
11060 36/// /0000 11001 21009 39896 40224 55004=
11070 36/// /0000 11021 21031 39967 40226 55002=
11075 36/// /2801 11026 21030 39962 40229 50003=
11082 36/// /0000 11001 21017 39941 40218 55003=
11149 36/// /1203 11019 21043 38242 48497 57002=
11152 36/// /0000 10004 20000 39601 40221 58004=
11185 36/// /3601 11001 21008 39041 48487 58005=
11248 36/// /2401 10045 20043 39953 40220 58002=
11252 36/// /3101 11005 21016 38842 48507 57001=
11255 36/// /0000 11002 21005 39381 40244 58002=
11270 36/// /0501 11030 21032 39484 40259 55000=
11275 36/// /0903 11001 21015 39171 40239 58004=
11280 36/// /0000 11015 21025 39258 40244 55000=
11292 36/// /0000 10027 20022 39578 40221 56006=
11343 36/// /2910 11076 21107 36938 47045 50000 333 91114=
11385 36/// /1901 11004 21017 39107 48485 58003=
0000138600
665
USMX80 KWBC 110000 RRA
TTAA 61001 76225 99859 21674 31002 00034 ///// ///// 85460 19473
13504 70081 04063 32514 50573 13981 34530 40738 27576 33037 30938
43967 28522 25058 51365 24550 20200 58565 24571 15381 583// 24574
10632 657// 25550 88188 60565 24567 77161 24086 42217 31313 41708
82300=
TTAA 61001 76394 99958 24060 12005 00071 ///// ///// 92753 20257
13514 85481 18265 32009 70106 06268 25027 50577 10584 24536 40744
23376 23549 30948 39350 24569 25070 48548 24080 20214 54764 23605
15396 61969 25104 10640 70565 25051 88999 77169 23611 40721 31313
41708 82311=
TTAA 61001 76458 99012 24661 29006 00103 22860 29009 92777 20269
11006 85501 16683 11005 70111 04481 20513 50576 11791 23031 40743
23961 22556 30947 37741 23077 25070 46761 23080 20215 53365 22593
15398 61768 23596 10642 70166 25051 88999 77188 23598 41907 31313
41708 82252=
TTAA 61001 76526 99776 17069 23501 00042 ///// ///// 92/// /////
///// 85/// ///// ///// 70123 07663 22020 50579 09796 24027 40747
22168 23040 30952 36167 24061 25076 45765 23563 20221 52169 23084
15403 60576 24089 10645 73370 25564 88106 74170 24561 77179 23094
40809=
TTAA 61004 76612 99845 22869 27002 00057 ///// ///// 92/// /////
///// 85/// ///// ///// 70138 06658 ///// 50580 09388 24032 40749
20772 22039 30957 34167 ///// 25083 42965 ///// 88999 77999 31313
41708 82250=
0000015700
666
SSVX13 LFPW 110100
ZZYY 41708 11014 0100/ 717433 058721 6113/ 11119 40184 52018 22219
 00264 444 20130 11014 0000/ 50101 80144 80023 9/015=
0000015700
667
SSVX13 LFPW 102100
ZZYY 44763 10014 2100/ 756255 013331 6113/ 11119 40056 52016 22219
 00104 444 20130 10014 2100/ 50101 80138 80002 9/015=
0000011000
668
UANT01 CWAO 110033
ARP DHK978 5406N04335W 0033 F320 MS57 314/42 KT
GDHLG DDL XXW 110033 F58A
0000010700
669
SMJM01 MKJS 100000 RRA
AAXX 10004
78388 11565 
CHECK
TEXT
NEW ENDING ADDED KSLCYTAA
0000015100
670
SNVD03 CWAO 110100
BBXX
CFL24 11014 99438 70606 47599 62715 10002 21050 40308 56004 7//// 86/// 222// 0//// 10603 70016 333 86/25=

0000030400
671
SNVD20 KWNB 110100 RRF
BBXX
44056 11011 99362 70757 46/// ///// 1//// 90053 22200 00088 10502
20502 311// 41101 70008=
44098 11011 99428 70702 46/// ///// 1//// 90051 22200 00060 10502
20502 70011=
44097 11011 99410 70711 46/// ///// 1//// 90055 22200 00068 10402
20402 70009=
0000068400
672
SNNL50 EHDB 110100
AAXX 11011
06206 46/// /2210 10078 20069 30044 40097 58010
333 91012 91112 91210=
06207 45464 22311 10090 20073 30050 40104 58008 8////
333 81/11 91014 91114 91212=
06239 45364 82410 10078 20070 30014 40075 57010 8////
333 82/07 83/09 86/50 91012 91113 91211=
06252 46/// /2111 10091 20073 30062 40108 58006 222// 00097 10604
333 91013 91113 91211=
06260 47356 82005 10052 20036 30148 40150 58008 71011 8////
333 88/08 91008 91108 91205=
06270 47350 82208 10062 20051 30125 40125 58004 71000 8////
333 84/07 88/08 91012 91112 91208=
06290 47357 82104 10053 20036 30111 40152 58007 71010 8////
333 88/09 91006 91108 91205=
0000162600
673
SNNL51 EHDB 110100
AAXX 11011
06201 47460 72309 10078 20062 30030 40082 56008 75885 8////
333 81/16 83/24 85/30 91010 91111 91209=
06203 45363 8//12 10088 20069 30069 40120 58007 8////
333 82/08 84/09 85/11 91015 91115 91212=
06204 45467 72411 10093 20068 30062 40113 58007 8////
333 83/10 83/44 85/50 91013 91114 91212=
06205 47344 82310 10070 20059 30003 40062 56010 75110 8////
333 82/09 85/10 85/14 91011 91113 91211=
06208 47257 82109 10072 20059 30068 40117 58010 75180 8////
333 87/06 88/08 91011 91111 91209=
06211 45661 42211 10076 20061 30040 40096 56007 8////
333 83/37 84/42 91013 91113 91211=
06212 45361 72211 10088 20073 3//// 4//// 5//// 8////
333 81/07 83/08 85/12 91013 91114 91212=
06235 47357 82109 10071 20062 30126 40126 58007 71000 8////
333 88/07 91014 91114 91210=
06240 47357 82107 10056 20042 30146 40141 58009 71010 8////
333 83/09 84/11 88/30 91009 91109 91207=
06251 43/56 /2211 10071 20063 30115 40116 57006
333 91014 91115 91212=
06258 46/// /2110
333 91012 91114 91212=
06269 47457 82107 10055 20040 30148 40142 58007 71011 8////
333 83/10 84/13 87/26 91009 91109 91207=
06280 47345 82207 10062 20050 30128 40132 58003 78180 8////
333 84/09 88/10 91010 91110 91208=
06310 47356 82009 10051 20037 30144 40154 58007 71011 8////
333 88/07 91011 91111 91209=
06344 47356 82007 10052 20038 30153 40146 58009 71010 8////
333 83/08 85/10 88/59 91009 91110 91207=
06370 45465 82004 10044 20025 30135 40161 58008 8////
333 88/10 91007 91107 91204=
06380 45967 02005 10022 20010 30030 40172 58008
333 91006 91107 91205=
0000078600
674
SNNL52 EHDB 110100
AAXX 11011
06210 47357 82005 10058 20040 30143 40143 58008 71011 8////
333 82/09 87/10 87/14 91007 91109 91205=
06225 46/// /2112
333 91014 91115 91213=
06242 47257 82113 10071 20064 30115 40117 57008 72386 8////
333 85/06 87/08 88/11 91016 91116 91213=
06257 46/// ///// 10065 20047=
06275 47356 82104 10047 20034 30098 40154 58005 71000 8////
333 85/08 88/09 91006 91106 91204=
06330 46/// /2109 10054 20039 30131 40145 58008
333 91011 91113 91209=
06340 47359 72305 10045 20029 30139 40158 56009 71010 8////
333 87/08 87/12 91007 91108 91205=
06350 47358 82104 10045 20029 30144 40159 56007 71010 8////
333 88/07 91006 91107 91204=
06375 45361 82005 10046 20030 30135 40160 58005 8////
333 88/08 91007 91107 91205=
0000098100
675
SNNL53 EHDB 110100
AAXX 11011
06248 46/// /2109
333 91011 91112 91210=
06249 47/59 /2107 10062 20047 71000
333 91009 91110 91207=
06267 47350 82107 10062 20049 72350 8////
333 88/09 91010 91111 91208=
06273 47/46 /2106 10057 20047 78181
333 91009 91109 91207=
06277 46/// /2209 10067 20058
333 91012 91112 91209=
06278 46/// /2204 10055 20039
333 91007 91108 91205=
06279 47350 82206 10058 20044 30121 40141 58004 71010 8////
333 86/08 88/10 91008 91109 91206=
06283 46/// /2102 10049 20036
333 91004 91107 91204=
06286 46/// /2206 10061 20048
333 91007 91110 91207=
06319 43/58 /2105 10049 20032 30158 40160 56007
333 91007 91109 91207=
06348 47/49 /2105 10049 20038 30150 40149 58009 71011
333 91007 91107 91205=
06356 463// 82106 10047 20034 30152 40153 58008 8////
333 88/08 91008 91108 91206=
06377 47959 02002 10017 20011 71000
333 91002 91104 91203=
06391 46/// /2103 10035 20024
333 91005 91105 91203=
0000040600
676
SNNL54 EHDB 110100
AAXX 11011
06209 NIL=
06285 NIL=
06308 NIL=
06311 NIL=
06312 NIL=
06313 NIL=
06315 NIL=
06316 NIL=
06320 46/60 /2211 10063 20056 30113 40140 58007 222// 00081 10503
333 91012 91113 91211=
06321 46/63 /2111 10076 20059 30115 40139 58008 222// 00086 10504
333 91013 91113 91212=
06324 NIL=
06331 NIL=
06343 46/// /1908
333 91009 91111 91208=
0000013400
677
SNFP20 LFVP 110100
AAXX 11014
71805 24986 /2524 11031 21090 30243 40252 58002 700//
  333 60005 91034 90710 91134=
0000015600
678
SMID01 WIIX 110000 RRB
AAXX 11004
96195 12457 73207 10252 20237 30077 40116 52014 69914 84521
  333 20232 50351 55039 56000 58011 84613=
00000000