0000017500
056
FCIN90 VABB 110300
TAF VABB 110300Z 1106/1115 10005KT 2500 FU/HZ FEW100
     BECMG 1107/1109 27008KT 3000 FU
     BECMG 1113/1115 33007KT 2500 FU/HZ NSC=
    

0000010300
057
SIPS21 NZKL 110300
AAXX 11034
91723 NIL=
91964 46/// /1208 10236 20211 40205 52005=
0000008000
058
USKO02 RKSL 110000
TTAA 1100/ 47041 NIL=
TTAA 1100/ 47058 NIL=
0000008000
059
UKKO02 RKSL 110000
TTBB 1100/ 47041 NIL=
TTBB 1100/ 47058 NIL=
0000009000
060
SAER41 OMAM 110327 RRF
METAR OMAM 110330Z 15008KT CAVOK 16/08 Q1019 A3009=
0000012800
061
SMET01 HAAB 110000
AAXX 11001
63450 NIL=
63451 NIL=
63471 42980
00000 10190 20140 38870 40151 333 58007=
0000097500
062
UDAS02 BABJ 110332
AMDAR 1103
DES CNFPYM 3537N 11702E 110327 F195 MS245 266/060 TB/ S//1=
DES CNFPYM 3543N 11702E 110327 F187 MS233 263/054 TB/ S//1=
DES CNFPYM 3549N 11702E 110328 F172 MS199 257/054 TB/ S//1=
DES CNFPYM 3556N 11702E 110329 F157 MS220 261/025 TB/ S//1=
DES CNFNXQ 3702N 11712E 110327 F015 MS013 222/017 TB/ S//1=
DES CNFNXQ 3701N 11712E 110327 F015 MS010 217/013 TB/ S//1=
DES CNFNXQ 3658N 11713E 110328 F015 MS013 219/014 TB/ S//1=
DES CNFNXQ 3656N 11713E 110329 F007 PS003 225/008 TB/ S//1=
DES CNFLWR 2615N 10802E 110328 F235 MS214 265/079 TB/ S//1=
DES CNFLWR 2616N 10759E 110328 F227 MS196 268/068 TB/ S//1=
DES CNFLWR 2616N 10756E 110329 F220 MS183 263/059 TB/ S//1=
DES CNFLWR 2618N 10749E 110330 F205 MS161 262/057 TB/ S//1=
DES CNFPYN 2424N 11752E 110321 F056 PS080 258/005 TB/ S//1=
DES CNFPYN 2422N 11753E 110324 F042 PS115 274/009 TB/ S//1=
DES CNFPYN 2427N 11800E 110327 F019 PS100 070/010 TB/ S//1=
0000078900
063
UDAS02 BABJ 110331
AMDAR 1103
DES CNFNXP 3611N 11702E 110326 F093 MS120 283/023 TB/ S//1=
DES CNFNXP 3612N 11702E 110327 F093 MS119 282/022 TB/ S//1=
DES CNFNXP 3615N 11702E 110327 F093 MS118 282/021 TB/ S//1=
DES CNFNXP 3620N 11702E 110328 F093 MS120 283/023 TB/ S//1=
LVR CNFPQK 3720N 11622E 110327 F226 MS355 266/058 TB/ S//1=
LVR CNFPQK 3718N 11626E 110328 F226 MS355 265/062 TB/ S//1=
LVR CNFPQK 3715N 11630E 110329 F226 MS353 263/064 TB/ S//1=
LVR CNFPQK 3715N 11631E 110329 F226 MS353 263/064 TB/ S//1=
LVR CNFOZM 2639N 11506E 110320 F321 MS363 261/101 TB/ S//1=
LVR CNFOZM 2620N 11459E 110323 F321 MS360 263/097 TB/ S//1=
LVR CNFOZM 2601N 11451E 110326 F321 MS363 263/093 TB/ S//1=
LVR CNFOZM 2541N 11445E 110329 F321 MS360 261/088 TB/ S//1=
0000015800
064
SIBY20 UMMN 110300 CCA
AAXX 11031
26850 /1465 82803 10022 21008 39719 40001 52029 70262 885// 333 55000
88716 91112 555 20021 60038 7010/=
0000011000
065
UANT01 CWAO 110337
ARP UAL27 4802N04522W 0337 F360 MS58 329/67 KT
N17122 DDL IG1 110337 F59A
0000310400
066
SIRA23 RUNW 110300
AAXX 11031
20046 41598 72406 11105 21114 30086 40116 57002 70232 8553/=
20069 41864 82102 11222 21242 30161 40181 56003 77172 8802/=
20087 41496 82101 11238 21260 30194 40205 57005 77172 8752/ 333 87611
93535=
20292 42998 20000 11269 21286 30202 40223 57007 80001 333 21268=
20353 46/// /1406 11234 21512 30170 40174 57007=
20471 42998 40202 11335 21372 30160 40178 56002 80001 333 93583=
20476 42998 21002 11361 21397 30154 40170 57006 80001=
20667 31998 03505 11270 21295 30140 40148 52006 70230 333 48018=
20674 41997 80705 11282 21311 30065 40131 53008 77173 8807/=
20744 12998 00000 11262 21317 30191 40211 52003 60002 333 21272
46999=
20871 41998 20909 11293 21317 30103 40111 52006 73731 82030 333 21293
91112 96510=
20891 42998 20801 11298 21315 30115 40162 57005 82040=
20946 12998 03204 11273 21300 30182 40197 52004 60002 333 21277
44017=
20967 11996 83506 11271 21296 30068 40093 53019 69902 77173 8802/ 333
21285 48035 55000=
20978 41898 81606 11316 21345 30073 40114 52019 73673 84037 333
91110=
23022 12997 02803 11295 21323 30124 40196 52009 60002 333 21298 3/132
48030=
23032 NIL=
23058 11997 52408 11280 21306 30058 40063 52013 60002 73632 85030 333
21289 48058 91111=
23174 41999 01805 11332 21362 73673=
23179 NIL=
23256 11996 52309 11324 21361 30097 40136 52009 69962 73873 80001 333
48057 55000 91012 91113=
23330 12997 51803 11369 21397 30157 40181 52010 69902 80006 333 21374
47055 55000=
23345 12997 02507 11349 21377 30159 40169 52005 60002 333 21362 48086
55000=
23376 42/// /0702 11250 21275 30049 40189 53014 333 21252=
23445 12997 01903 11350 21394 30164 40193 52008 60002 333 21373
48087=
23463 NIL=
23527 12984 80000 11288 21312 30141 40182 54000 60002 8807/ 333 21386
47061 55003=
23552 11996 02201 11371 21401 30174 40214 52016 60002 70400 333 21371
47072 55000=
23631 12998 80000 11323 21352 30140 40186 52006 60002 80001 333 21369
48059 55000=
23662 12998 00000 11376 21405 30174 40225 52016 69902 333 21376 48083
55000=
23724 12998 83501 11217 21242 30083 40153 58005 60002 8805/ 333 21222
47050 55000=
23734 11996 80601 11219 21244 30072 40172 57002 69942 77172 8802/ 333
21243 47069 55000=
23774 NIL=
23776 41897 81801 11134 21161 30149 40215 52009 77177 8802/=
23849 41496 80903 11235 21263 30117 40198 52002 72222 8372/ 333 21279
83712=
23867 11999 60000 11125 21131 30128 40203 52016 69982 72272 83071 333
21125 47061 55000=
23933 11596 80402 11214 21243 30106 40167 57004 69902 77172 8657/ 333
21230 47038 55000=
28064 11496 80801 11061 21076 30029 40118 57007 69902 77172 8802/ 333
21094 47031 55000=
28275 11597 81404 11047 21060 30093 40154 54000 69942 73683 889// 333
21047 47019 55000=
28493 12497 81903 11062 21085 30120 40214 52004 69902 885// 333 21063
47025 55000 88612=
28698 11597 81703 11077 21099 30078 40238 54000 69902 70272 8655/ 333
21077 47032 55000 86624=
29059 41856 80000 11103 21123 30100 40235 52003 77172 8802/=
29558 42699 82403 11053 21111 39893 40302 52007 82539=
0000032200
067
UAPA01 KWBC 110339
ARP ASA899 39N 137W 0327 F340 MS52 238/108KT TB CONT LGT CHOP=
ARP UAL1195 2916N 13101W 0331 F330 MS45 283/029KT=
ARP ASA826 2714N 14713W 0331 F360 MS42 249/072KT TB SMTH=
ARP UAL1228 2700N 13812W 0332 F360 MS43 283/031KT=
ARP HAL48 3317N 13337W 0332 F370 MS50 265/042KT TB SMTH=
0000008300
068
UANT01 KWBC 110339
ARP SLM994 0920N 0541W 0331 F310 MS37 330/015KT=
0000010900
069
UANT01 CWAO 110339
ARP BAW52 5801N04859W 0339 F380 MS58 271/41 KT
GVIIG QXS UAK 110339 F19A
0000018000
070
SMVD01 PANC 110000 RRM
BBXX
C6RN3 11004 99205 70727
41/98 /0724 10270 20243 40190 5//// 7//// 8////
22274 00270 2//// 3//// 4//// 5//// 6//// 80250 ICE /////=
0000013800
071
SIKZ31 UAAA 110300 RRA
AAXX 11031
35092 36/// /2005 11089 21116 30041 40277 57012 333   3/106 55000
555   21114 7996/=
0000013800
072
SIKZ31 UAAA 110300 RRB
AAXX 11031
35167 36/// /1607 11064 21079 39887 40198 57010 333   3/106 55000
555   21088 7000/=
0000013800
073
SIKZ31 UAAA 110300 RRC
AAXX 11031
36197 36656 /0802 11096 21170 30028 40384 57002 333   3/112 55038
555   21115 7000/=
0000013800
074
SIKZ31 UAAA 110300 RRD
AAXX 11031
36341 36965 01104 11165 21210 39362 40370 57004 333   3/109 55012
555   21170 7000/=
0000013800
075
SIKZ31 UAAA 110300 RRE
AAXX 11031
36026 36859 /1402 11110 21151 30022 40363 57002 333   3/107 55000
555   21136 7000/=
00000000