0000004100
396
SING21 AMMC 110300
NIL

0000034100
397
SIVE21 AMMC 110300 RRA
BBXX
JPAT 11034 99319 31156 41997 01110 10309 20161 40139 52013 70200
80000 22253 00228 10703 20401 31103 40501 50501=
C6FS9 11034 99238 31512 46/// /1018 10263 20180 30127 40163 57015
22200 04277 85207=
VNAH 11034 99383 31416 46/// /1911 10185 20115 30193 40217 57001
22200 04175 85144=

0000076800
398
SIFJ20 NFFN 110300
AAXX 11034
91650 NIL=
91652 14/// /3005 10265 20252 39970 40042 55009=
91656 46/// /0906 10296 20232 40034 52060=
91659 41599 11413 10310 2022/ 40044 57011 70111 81100
  333 563// 81825=
91660 NIL=
91669 14/// /1402 10299 20228 30027 40040 50012=
91670 14/// /1807 10316 20253 30038 40044 58011=
91676 14/// /2207 10288 20239 39962 40021 58012=
91680 41699 21514 10318 20219 40042 57013 70100 82800
  333 569// 82830=
91682 14/// /1604 10296 20228 30049 40060 50007=
91683 41599 52010 10308 20247 40049 57010 70222 85800
  333 564// 85822=
91691 14/// /2008 10290 20259 30027 40030 58013=
91693 NIL=
91697 14/// /2005 10258 20226 30041 40046 55008=
91699 14/// /1709 10276 20240 30000 40031 58008=
0000013400
399
SIVJ21 AMMC 110300 RRA
BBXX
FHZI 11034 99635 31413 46/// /2023 10004 21011 39849 49860 54000
22243 04007 86002=

0000015700
400
SIVJ21 EGRR 110300
BBXX
AMOUK01 1103/ 99602 50235 46/// ///// 11028 21034 40076=
AMOUK40 1103/ 99648 50651 46/// ///// 11006 21014 40019=
0000015800
401
SIVJ21 AMMC 102100 RRB
BBXX
VHMW 10214 99643 31333 41/94 /0502 10005 21001 49898 52010 71022
8/07/ 22261 05004 299// 331// 41003 80003=

0000009400
402
SICH01 SCSC 110300 RRA
AAXX 11034
85558 42997 00000 10160 20104 40140 54002=
0000215900
403
SZNZ01 NZKL 110330
CREX++
T000103 A001 D01021 D06025++
-3683144 17478654 AUCT  2014 01 11 03 22 //// 11 07 00 01
06060 3197 06061 3196 06060 3195 06060 3194 06059 3193 06059 3192+
-4402404 -17636748 CHIT  2014 01 11 03 22 //// 11 07 00 01
05123 2095 05128 2104 05124 2103 05122 2104 05092 2078 05089 2079+
-4089929 17623168 CPIT  2014 01 11 03 22 //// 11 07 00 01
04223 2263 04205 2249 04211 2260 04199 2251 04186 2242 04184 2244+
-3618905 17548887 GBIT  2014 01 11 03 22 //// 11 07 00 01
06438 0044 06443 0049 06446 0052 06443 0051 06448 0056 06439 0047+
-3867541 17802288 GIST  2014 01 11 03 22 //// 11 07 00 01
04439 2686 04464 2713 04441 2694 04433 2689 04428 2687 04439 2701+
-4241288 17370277 KAIT  2014 01 11 03 22 //// 11 07 00 01
03542 2183 03510 2156 03503 2153 03515 2171 03500 2160 03511 2176+
-3755040 17815904 LOTT  2014 01 11 03 22 //// 11 07 00 01
04049 0211 04053 0217 04058 0223 04040 0207 04052 0221 04048 0219+
-3704657 17451175 MNKT  2014 01 11 03 22 //// 11 07 00 01
02640 -0144 02627 -0164 02650 -0147 02658 -0146 02653 -0158 02664 -0153+
-3947566 17692007 NAPT  2014 01 11 03 22 //// 11 07 00 01
03436 2018 03434 2020 03431 2021 03403 1997 03399 1996 03406 2007+
-3441483 17304870 NCPT  2014 01 11 03 22 //// 11 07 00 01
02597 -2377 02474 -2502 02568 -2409 02462 -2517 02445 -2536 02411 -2572+
-4581435 17062939 OTAT  2014 01 11 03 22 //// 11 07 00 01
04476 3403 04467 3400 04462 3402 04455 3401 04450 3403 04445 3404+
-2928002 -17789440 RBCT  2014 01 11 03 22 //// 11 07 00 01
06462 2009 06460 2008 06472 2020 06470 2018 06471 2021 06461 2011+
-2925114 -17790384 RFRT  2014 01 11 03 22 //// 11 07 00 01
03430 0212 03428 0211 03423 0207 03419 0203 03410 0195 03417 0204+
-4357010 17277383 SUMT  2014 01 11 03 22 //// 11 07 00 01
02200 1824 02198 1828 02188 1825 02170 1814 02198 1849 02178 1835+
-3764109 17618118 TAUT  2014 01 11 03 22 //// 11 07 00 01
05676 3983 05678 3985 05683 3990 05676 3984 05675 3983 05676 3985+
-4128448 17477985 WLGT  2014 01 11 03 22 //// 11 07 00 01
03363 2048 03357 2046 03362 2055 03363 2060 03362 2062 03356 2060++
7777
0000040100
404
SIJD20 OJAM 110300
AAXX 11034
40255 42660 70000 10074 20043 39484 40212 54001
87800 333 85830 84635=
40260 42960 00000 10028 20018 39410 40214 52007=
40270 41650 63107 10084 20063 39294 40205 54001 70522 86500 333
86640=
40272 41930 52806 10070 20061 39368 40213 54002 71000 82031 333 83360
84070=
40310 NIL=
40340 42560 10000 10112 20088 40220 52008 81100 333 81830=
0000011000
405
UANT99 KDDL 110327
ARP DAL78 4900N03954W 0327 F390 MS52 263/36 KT
N855NW DDL XXW 110328 J92A
0000010900
406
UANT99 KDDL 110328
ARP AUA72 5605N03313W 0328 F360 MS54 224/42 KT
OELAE QXT AOW 110328 F73A
0000011000
407
UANT99 KDDL 110328
ARP ACA872 5605N02351W 0328 F330 MS57 245/63 KT
CFRAM DDL XXW 110328 F22A
0000011000
408
UANT99 KDDL 110328
ARP TOM035 4641N02115W 0328 F410 MS52 243/64 KT
GTUIC QXT AOE 110328 L25A
0000010900
409
UANT99 KDDL 110328
ARP KLM48 5603N03740W 0328 F360 MS57 233/36 KT
PHBFK QXT AOW 110328 F50A
0000185900
410
SIUS20 KWBC 110300
AAXX 11034
72327 32966 81715 10122 20089 39852 40101 58036 90253 555 91103=
72208 32566 41406 10172 20156 30187 40201 58005 90256 555 91103=
72259 32966 23409 10117 20039 39881 40083 53034 90253 555 91103=
72270 32966 0//03 10139 21094 38804 40129 53023 90251 555 91103=
72201 35466 21111 10239 20222 30180 40185 51011 90253 555 91103=
72376 32966 03104 10017 21100 38301 40202 53023 90253 555 91103=
72344 12966 02810 10089 20056 39904 40070 53028 60017 90253 555
91103=
72317 11224 80204 10033 20028 39878 40213 58012 60037 751// 90254
333 96010 555 91103=
72312 11120 80305 10078 20072 39852 40194 58010 69987 710// 90253
555 91103=
0 15461 61612 10178 20161 30230 40234 58015 69937 90251 555 91103=
72235 12362 81510 10156 20144 30008 40114 58007 69937 90254 555
91103=
72206 32161 41603 10167 20167 30187 40197 51008 90256 555 91103=
74486 11108 83603 10033 20022 30249 40258 56011 60027 761// 90251
333 96010 555 91103=
72240 11261 81913 10194 20183 30101 40113 55006 69957 761// 90253
333 91026 555 91103=
72217 37104 90000 10106 20106 30058 40187 58001 730// 90253 555
91103=
72334 11216 83313 10122 20111 39972 40075 55003 60057 710// 90254
333 91019 96010 555 91103=
72226 11112 90904 10117 20111 30086 40160 58008 69907 710// 90253
555 91103=
72202 32466 61006 10244 20222 30186 40197 51008 90253 555 91103=
72308 17966 81506 10117 20100 30209 40227 56022 69957 761// 90251
555 91103=
72222 17104 91407 10178 20167 30110 40158 58003 60017 730// 90253
555 91103=
72253 32966 42308 10178 20139 39823 40098 51009 90251 555 91103=
72248 12466 82206 10172 20161 39985 40078 50007 60027 90256 555
91103=
72211 32966 20000 10206 20189 30183 40196 51009 90253 555 91103=
72326 11462 82705 10083 20072 39800 40159 58003 69937 761// 90253
555 91103=
0000011100
411
UANT99 KDDL 110328
ARP DAL171 5553N04138W 0328 F370 MS59 268/21 KT
N801NW DDL UAK 110328 J05A
0000029800
412
SIVD20 KWNB 110300 RRN
BBXX
41033 11031 99323 70804 46/// /1002 10128 40196 90300 333 91203
555 11026 22030=
44059 11031 99368 70763 46/// /1704 10123 40215 90320 333 91205
555 11043 22046=
44058 11031 99376 70763 46/// /1903 10065 40222 90320 333 91206
555 11037 22040=
0000046200
413
SIVD15 KWNB 110300 RRM
BBXX
44064 11031 99370 70760 46/// /1505 10097 40222 90320 333 91206
555 11055 22060=
44062 11031 99386 70764 46/// /0502 10025 40225 90320 333 91202
555 11017 22019=
44063 11031 99390 70764 46/// /0102 10018 40215 90320 333 91203
555 11025 22028=
44041 11031 99372 70768 46/// /1203 10071 90320 333 91203 555
11032 22035=
44042 11031 99380 70763 46/// /1101 10048 40215 90320 333 91202
555 11015 22016=
0000069900
414
SIVD01 PANC 110300 RRE
BBXX
C6FM5 11034 99335 71182
41498 12008 10160 20124 40180 5/000 70000 81145
22243 04160 20001 30000 80140=
V7YW3 11034 99234 70509
41798 30819 10230 2022/ 40220 51020 70000 82130
22273 04180 20301 30909 40806 50806 6//// 80220 ICE /////=
WHED 11034 99396 70738
41/// /1819 10022 2//// 40260 5//// 75055 8////
22243 0//// 2//// 3//// 4//// 5//// 6//// 8//// ICE /////=
9HXD9 11034 99261 70785
41597 51521 10260 2//// 40170 54000 70300 83195
22234 00271 2//// 3//// 4//// 5//// 6//// 8//// ICE /////=
C6FR5 11033 99160 70618
41597 6//// 10210 2//// 40160 54010 7//22 864//
22282 0//// 20303 311// 4//// 5//// 6//// 8//// ICE /////=
0000018000
415
SNVD01 PANC 102300 RRJ
BBXX
C6RN3 10234 99204 70726
41/98 /0724 10270 20243 40190 5//// 7//// 8////
22274 00270 2//// 3//// 4//// 5//// 6//// 80250 ICE /////=
00000000