0000017200
016
SMMN01 TNCM 111200
AAXX 11124
78866 01581 20911 10257 20195 30191 40196 52020 60031 70181
82800   333 10281 20229 58003 60007 70045 82820= 




0000029500
017
SXHW11 KWAL 111206
B1507246 011120602"
1,140111,11:00:00,14.6,47,19.4,20.0,1016.2,13.07,12.9,
1,140111,11:15:00,15.5,45,18.7,19.9,1016.1,13.07,12.9,
1,140111,11:30:00,15.1,43,19.1,19.8,1015.8,13.07,12.9,
1,140111,11:45:00,15.9,45,21.2,19.9,1015.6,13.07,12.9, 42-0NN 210W
0000009200
018
SAIN90 VABB 110340
METAR VABB 110340Z 01002KT 2800 FU NSC 20/03 Q1017 NOSIG=
0000009200
019
SPIN90 VEIM 110300
SPECI VEIM 110330Z 08002KT 2500 HZ NSC 15/09 Q1021 NOSIG=
0000011100
020
UANT01 CWAO 110337
ARP UAL921 5604N03533W 0337 F350 MS58 215/39 KT
N660UA DDL XXW 110337 F02A
0000011000
021
UANT01 CWAO 110337
ARP DLH431 5506N03423W 0337 F310 MS57 215/48 KT
DABYH QXT AME 110337 F47A
0000011000
022
UANT01 CWAO 110337
ARP AFR351 4935N03729W 0337 F370 MS52 256/14 KT
FGSPL QXT AOW 110337 F16A
0000015400
023
SSVX07 KARS 110336
ZZYY 25605 11014 0304/ 182526 135901 6113/
11119 49975 52006
22219 01206
444 20130 11014 0300/ 504// 80100 80000=
0000011000
024
UANT01 CWAO 110337
ARP KLM678 5904N04202W 0337 F410 MS58 254/29 KT
PHAOK QXS UAK 110337 J95A
0000111200
025
SINR20 DRRN 110300
AAXX 11034
61017 42960 50000 10046 20013 39780 40199 80002
  333 58012 85080=
61024 NIL=
61036 42960 71204 10215 20023 39888 40124 80008
  333 58006 87280=
61043 41958 71010 10166 21023 39703 40146 7052/ 80008
  333 59005 87280=
61045 41908 70804 10155 21007 39663 40164 7064/ 80008
  333 58011 87280=
61049 41956 70804 10152 20020 39848 40171 7052/ 80008
  333 58022 87280=
61052 41956 51006 10208 20008 39877 40131 70611 80002
  333 58002 85080=
61053 41945 70804 10201 20005 39/// 4//// 7062/ 80008
  333 5//// 87280=
61075 42960 61004 10185 20004 39835 40142 80008
  333 58007 86280=
61080 41956 70804 10159 21033 39730 40153 7062/ 80008
  333 58008 87280=
61085 41915 50812 10160 20017 39824 40247 7062/ 80002
  333 58022 85080=
61090 41940 70404 10175 21032 39639 40153 70522 80008
  333 58011 87280=
61091 42960 50000 10135 20021 39712 40170 80002
  333 58014 85080=
61096 41916 70410 10165 20004 39782 40167 70522 80008
  333 58013 87280=
61099 41956 70408 10220 20038 39888 40113 7062/ 80008
  333 58010 87280=
0000011000
026
UANT99 KDDL 110337
ARP SAS904 5702N03658W 0337 F390 MS55 252/35 KT
LNRKO DDL XXW 110337 J34A
0000011100
027
UANT99 KDDL 110337
ARP UAL966 5258N02022W 0337 F360 MS60 231/71 KT
N672UA DDL XXN 110337 F57A
0000010900
028
UANT99 KDDL 110337
ARP AUA94 5134N03240W 0337 F350 MS54 210/56 KT
OELAW QXT AOW 110337 F39A
0000011000
029
UANT99 KDDL 110337
ARP KLM678 5904N04201W 0337 F410 MS58 255/28 KT
PHAOK QXS UAK 110337 J96A
0000138500
030
SIMG20 FMMD 110300
AAXX 11034
67002 42580 20805 10250 20226 30093 40128 81800
  333 58012 81820 92408=
67009 32580 70000 10246 20214 39989 40108 52005 8693/
  333 81820 81920 86640 84360 94976/7 958167=
67012 22582 61804 10240 20234 30103 40114 53009 86900
  333 83820 81920 84640 94951 95831=
67019 NIL=
67025 NIL=
67027 32582 52602 10250 20238 30099 40120 53009 81232
  333 81820 85073
  555 81360=
67045 NIL=
67072 NIL=
67073 NIL=
67083 31215 70000 10174 20173 38763 48537 53015 74042 82808
  333 82705 87273=
67085 31565 608// 10190 20175 38720 48529 53009 704// 86800
  333 81817 85633=
67095 22480 50000 10250 20246 30128 40134 53020 83802
  333 69932 83817 555 81633 82073=
67113 NIL=
67117 33580 43206 10233 20/// 30125 40134 53010 83832
  333 82820 555 81640 81360 81073=
67137 31265 50000 10197 20191 38907 48513 53004 71022 82402
  333 81707 83073 555 82617=
67143 32581 50000 10250 20244 30122 40129 53012 85800
  333 83820 83633 92438=
67152 23480 5//// 10185 20177 39221 48522 52011 83270
  333 69952 83817 84360=
67157 32580 5//// 10/// 20/// 30146 40153 51004 85800
  333 82820 85633=
67161 32582 40000 10/// 20/// 30122 40131 53003 82332
  333 81820 81920 94996 95816 555 81640 82360 81073=
67194 NIL=
67197 22480 30000 10246 20234 30128 40138 53015 81202
  333 69952 81816 83073=
0000011000
031
UANT99 KDDL 110337
ARP DLH431 5506N03415W 0337 F310 MS57 217/51 KT
DABYH QXT AME 110338 F48A
0000053900
032
SIMG21 FMMI 110300
AAXX 11034
67017 NIL=

67020 33580 70000 10254 20241 30095 40122 53018 81902
  333 81820 81920 86073  555 81633=
67023 32582 42206 10242 20227 30114 40120 53015 83802
  333 83820
  555 81640 81075=
67037 NIL=

67067 31570 70000 10204 20190 39270 48534 53017 7101/ 82801
  333 81820 85073
  555 82827=
67107 33575 60000 10139 20130 38504 48542 53003 82806
  333 81820 82623 85273=
67131 22582 50000 10/// 20/// 30109 40114 5//// 82802
  333 60212 82820 83073
  555 81640=
0000120400
033
SIMG20 FMMI 110300
AAXX 11034
67002 42580 20805 10250 20226 30093 40128 81800
  333 58012 81820 92408=
67009 32580 70000 10246 20214 39989 40108 52005 8693/
  333 81820 81920 86640 84360 =
67012 22582 61804 10240 20234 30103 40114 53009 86900
  333 83820 81920 84640 94951 95831=
67025 NIL=

67027 32582 52602 10250 20238 30099 40120 53009 81232
  333 81820 85073
  555 81360=
67045 NIL=

67072 NIL=

67073 NIL=

67083 31215 70000 10174 20173 38763 48537 53015 74042 82808
  333 82705 87273=
67095 22480 50000 10250 20246 30128 40134 53020 83802
  333 69932 83817 555 81633 82073=
67113 NIL=

67117 NIL=

67137 31265 50000 10197 20191 38907 48513 53004 71022 82402
  333 81707 83073 555 82617=
67143 32581 50000 10250 20244 30122 40129 53012 85800
  333 83820 83633 92438=
67152 23480 5//// 10185 20177 39221 48522 52011 83270
  333 69952 83817 84360=
67157 32580 5//// 10/// 20/// 30146 40153 51004 85800
  333 82820 85633=
67161 32582 40000 10/// 20/// 30122 40131 53003 82332
  333 81820 81920 94996 95816
  555 81640 82360 81073=
67197 22480 30000 10246 20234 30128 40138 53015 81202
  333 69952 81816 83073=
0000032800
034
SIVD17 KWNB 110300 RRJ
BBXX
52202 11031 99137 11448 46/// ///// 1//// 90330 22200 00283 11004
21004 305// 41101 70021=
51205 11031 99210 71564 46/// ///// 1//// 90321 22200 00251 11305
21004 332// 41303 70024=
46239 11031 99363 71221 46/// ///// 1//// 90329 22200 00131 11405
20903 330// 41404 70027=
0000119600
035
SIVD15 KWNB 110300 RRO
BBXX
41036 11031 99342 70769 46/// /1710 10214 20202 40209 90320 22200
00209 333 91211 555 11102 22110 30245 41613 60319 165095 159103
160106 160110 154099 154093=
42361 11031 99276 70925 46/// /1711 10217 20217 40139 51010 90330
555 11086 22092=
42390 11031 99261 70949 46/// ///// 10233 20222 40139 52024 90330=
42364 11031 99291 70881 46/// /1511 10206 20200 40156 50000 90330=
41108 11031 99337 70780 46/// ///// 1//// 90329 22200 00118 10803
20803 70014=
42099 11031 99273 70843 46/// ///// 1//// 90322 22200 00221 10401
20401 70006=
41114 11031 99276 70802 46/// ///// 1//// 90325 22200 00217 10803
20803 307// 41101 70015=
41112 11031 99307 70813 46/// ///// 1//// 90322 22200 00116 10903
20903 70014=
44064 11031 99370 70760 46/// /1506 10101 40220 90330 333 91206
555 11065 22070=
44062 11031 99386 70764 46/// /0401 10025 40223 90330 333 91202
555 11015 22016=
44063 11031 99390 70764 46/// /0203 10018 40212 90330 333 91203
555 11029 22031=
44041 11031 99372 70768 46/// /1202 10075 90330 333 91203 555
11028 22030=
44042 11031 99380 70763 46/// /1402 10054 40214 90330 333 91203
555 11023 22025=
00000000