0000252000
826
SMPH01 KWBC 110000
AAXX 11001
98134 12465 40706 10210 20145 30030 40223 53020 60014 84200 333
20156 56299 58008 70014 84819=
98223 31458 20901 10208 20169 40176 52023 70540 81105 333 20168
56999 58014 81819=
98232 31570 71401 10235 20216 40201 53016 70542 82270 222// 29100
333 20230 56399 58018 82820 87358=
98328 31463 41804 10130 20113 38551 40170 53015 70544 82208 333
20103 50380 55010 56999 58007 82814 84279=
98330 31475 60404 10248 20230 30147 40179 53021 70544 81206 333
20220 56/// 58016 81818 86077 555 00064=
98429 31558 40202 10249 20189 40173 52022 70544 82801 333 20221
56999 58012 82823 84080=
98430 31558 70000 10229 20202 40169 52018 70544 82801 333 20205
56999 58010 82620 87080=
98431 31469 30902 10256 20241 30114 40161 51016 70544 8327/ 333
20214 56999 58004 83818 88459=
98440 31465 80705 10253 20217 30173 40178 53019 71544 8327/ 333
20240 56199 58008 83815 88358=
98444 11463 80406 10245 20213 30143 40162 53032 69984 78082 84377
333 20240 56899 58004 70008 82918 82820 87459 88270=
98526 32575 83601 10/// 20/// 40138 51017 82277 333 03 20247 56999
58000 82820 83358 88274 98315=
98531 31568 70403 10260 20232 30127 40131 51009 70544 81248 333
20233 56199 58002 81820 87275=
98536 11470 70405 10232 20210 39948 40148 52017 69924 70542 83278
222// 20101 333 20230 56199 58007 70002 83818 84357 86270 0////=
98543 11470 80203 10255 20235 30121 40132 53020 69944 71682 84207
333 20238 56999 59004 70004 84818 88272=
98618 32580 32903 10255 20226 40136 53020 82201 333 20245 56999
58005 82820 83075=
98630 32470 80205 10274 20245 40108 5//// 8422/ 222// 2//03 333
20256 56199 59002 84818 88459=
98646 11560 80208 10254 20235 30104 40132 52024 60024 70262 8387/
333 20230 56199 59005 70022 83820 88459 555 20002=
98653 11456 80406 10245 20238 30065 40110 52025 61034 76366 8322/
333 20222 56199 59013 71032 83817 88456 555 20622=
98741 11465 80401 10250 20242 40118 52020 60254 78082 8292/ 333 12
20240 56199 59003 70248 82917 88457 555 20034=
98753 11458 83602 10231 20223 40118 51024 60464 76166 82227 333
20226 55002 2//// 56999 59014 70462 82816 86459 88279=
98755 11420 80000 10231 20224 40122 50022 61454 76366 8452/ 333
20225 56299 59008 71445 84616 88457 555 20237=
98836 11458 80000 10249 20242 40120 52009 60024 76166 8262/ 333
20242 56999 58004 70030 82718 88462 555 20018=
98336 11465 80405 10210 20202 30200 40205 53017 60284 78086 8252/
333 20190 56199 58000 70278 83610 88456=
0000014700
827
SMVA01 KWBC 110000 RRE
BBXX
TBWUK11 11003 99210 30039 41198 81612 10210 20188 40170 55000
 70322 81797 22263 02220 20803 80195=
0000191700
828
SMVB01 KWBC 110000 RRE
BBXX
UFLC 11001 99464 11447 42596 70108 11080 41013 54000 70222 8572/
 22252 06020 20405=
SHIP 11003 99322 11427 41694 53116 10120 20061 40254 52/// 84243
 22273 00190 20704 311// 40604 80090=
SHIP 11004 99508 11612 41597 82624 11030 21101 49894 51029 70307
 88596 90000 22264 00070 1//// 20706 30304 41008 50907 6//// 81050
 /////NNNN=
H9XE 11004 99394 11421 41697 70232 11005 21077 40205 57005 70222
 86243 22243 00110 20203 30808 40203 50204 81028=
SHIP 11003 99189 11336 41597 80530 10240 40225 51010 703// 84356
 9//// 22283 00280 1//// 20603 303// 40608 5//// 6//// 80210 ICE
 /////=
SHIP 11004 99546 11791 41/96 93606 10050 20028 49732 55111 77233
 89111 22253 00040 20705 31111 40705 50705 80040=
A8ZE4 11004 99311 11238 41298 80112 10090 20049 40310 52010 70322
 87777 22254 04125 20101 80070=
SHIP 11004 99302 11265 41797 80704 10110 20049 40304 52010 702//
 84827 22213 80080=
SHIP 11003 99128 11128 41497 70429 10260 20232 40151 52018 70282
 8586/ 22213 04260 20305 302// 40405 80240=
SHIP 11004 99264 11261 41597 61123 10170 20100 40257 52021 70311
 86190 22283 04231 20404 321// 40404 80130=
SHIP 11004 99427 11477 41598 62922 11030 21030 40150 53032 70172
 84190 92350 22253 00030 1//// 20706 328// 40707 5//// 6//// 82030
 /.=
SHIP 11004 99267 11285 41598 50212 10150 20107 40280 52003 70322
 85435 22253 00200 20202 30130 40805 51004 80125=
SHIP 11004 99306 11248 41697 50000 10090 20049 40315 51017 85816
 22283 00160 20502 80070=
SHIP 11004 99107 11505 41797 30614 10280 20239 40156 52003 70100
 82230 22283 00330 20303 306// 40303 80250=
SHIP 11004 99408 11537 41596 72728 11020 21050 40145 52010 71072
 85912 22254 00070 20606 311// 40507 81030=
UDOD 11000 99530 11586 42597 83206 11010 49949 52002 885// 22200
 06010=
UBZG2 11001 99395 11302 03010 11020 40286 54000 22283 06090 20301=
0000371700
829
SMVD01 KWBC 110000 RRN
BBXX
44033 11001 99441 70690 46/30 /2902 11009 40257 90004 22200 00025
 10601 70007 333 91203 555 11026 22028=
44034 11001 99441 70681 46/28 /2906 10021 40264 90004 22200 00063
 10603 70017 333 91208 555 11069 22075=
42085 11001 99179 70665 46/// /0707 10258 40171 90010 333 91209
 555 11083 22090=
42085 11001 99179 70665 46/// /0708 10259 40172 90020 333 91210
 555 11085 22092=
42085 11001 99179 70665 46/// /0808 10259 40174 90030 333 91209
 555 11087 22095=
41052 11001 99183 70648 46/// /0608 10262 40175 90010 333 91210
 555 11092 22099=
41052 11001 99183 70648 46/// /0609 10264 40175 90020 333 91211
 555 11095 22103=
41052 11001 99183 70648 46/// /0609 10264 40175 90030 333 91210
 555 11096 22104=
41053 11001 99185 70661 46/// /0908 10262 40178 90010 333 91210
 555 11084 22091=
41053 11001 99185 70661 46/// /0808 10264 40181 90030 333 91210
 555 11090 22098=
41053 11001 99185 70661 46/// /0808 10265 40179 90020 333 91210
 555 11092 22099=
44037 11001 99435 70679 46/02 /2107 10045 40274 90004 22200 00050
 10604 70018 333 91208 555 11076 22082=
44030 11001 99432 70704 46/30 /2106 10021 40264 90004 22200 00055
 10501 70007 333 91207 555 11064 22069=
44032 11001 99437 70694 46/30 /2407 10033 40263 90004 22200 00045
 10603 70014 333 91208 555 11076 22082=
44029 11001 99425 70706 46/30 /2207 10037 40272 90004 22200 00048
 10401 70005 333 91209 555 11083 22090=
V7YW3 11004 99228 70508 41698 40824 10230 2020/ 40200 54000 70000
 8413/ 22273 04180 20302 30909 40806 50806 6//// 80210 ICE /////=
41056 11001 99183 70655 46/// /0609 10259 40179 90030 333 91211
 555 11097 22106=
41056 11001 99183 70655 46/// /0609 10260 40177 90020 333 91211
 555 11095 22103=
41056 11001 99183 70655 46/// /0608 10260 40176 90010 333 91210
 555 11084 22091=
41051 11001 99183 70650 46/// /0708 10259 90010 333 91209 555
 11090 22098=
41051 11001 99183 70650 46/// /0707 10259 90020 333 91209 555
 11083 22090=
41051 11001 99183 70650 46/// /0707 10259 90030 333 91208 555
 11081 22089=
VREO9 11004 99205 70613 41297 60520 10260 20231 40230 52010 76222
 85710 22214 06310 20404 307// 40505 80240=
42360 11001 99267 70905 46/// /1407 10223 40136 56006 90000 22200
 00227 10702 70011 333 91209 555 11071 22077=
44141 11001 99430 70580 46/// /2809 10032 40323 57003 22200 00135
 10904 70022 333 91212=
44022 11001 99409 70737 46/// /0402 10010 20004 90030 333 91203
 555 11021 22021=
44060 11001 99413 70721 46/// /0202 10031 20026 40288 90015 22200
 00039 333 91202 555 11015 22021=
44137 11001 99423 70620 46/// /0000 10029 40325 57007 22200 00076
 10802 70012 333 91201=
WDB9918 11004 99517 71345 41195 80937 10050 20037 49862 57082
 75152 889// 22273 00089 20409 328// 40411 5//// 6//// 80044 ICE
 /////=
44064 11001 99370 70760 46/// /1204 10065 40242 90030 333 91204
 555 11042 22045=
42364 11001 99291 70881 46/// /1411 10211 20200 40156 52004 90030=
44058 11001 99376 70763 46/// /1502 10051 40243 90030 333 91203
 555 11023 22025=
44059 11001 99368 70763 46/// /1503 10065 40234 90030 333 91204
 555 11038 22041=
44099 11001 99369 70757 46/// ///// 1//// 90018 22200 00063 10902
 20902 70008=
44097 11001 99410 70711 46/// ///// 1//// 90025 22200 00068 10402
 20402 70009=
44098 11001 99428 70702 46/// ///// 1//// 90021 22200 00060 10502
 20502 70011=
44056 11001 99362 70757 46/// ///// 1//// 90023 22200 00089 10502
 20502 310// 41101 70008=
44096 11001 99370 70758 46/// ///// 1//// 90017 22200 00069 10501
 20501 311// 41001 70007=
44042 11001 99380 70763 46/// /0903 10046 40242 90030 333 91204
 555 11034 22036=
0000145300
830
SMVD01 KWBC 110000 RRO
BBXX
44041 11001 99372 70768 46/// /1203 10048 90030 333 91204 555
 11030 22033=
44062 11001 99386 70764 46/// /3604 10022 40256 90030 333 91204
 555 11040 22044=
44063 11001 99390 70764 46/// /3402 10016 40246 90030 333 91202
 555 11018 22020=
42361 11001 99276 70925 46/// /1812 10217 20217 40129 55000 90030
 555 11095 22101=
42390 11001 99261 70949 46/// ///// 10233 20217 40115 90030=
41112 11001 99307 70813 46/// ///// 1//// 90022 22200 00118 10803
 20803 310// 41101 70016=
46214 11001 99379 71235 46/// ///// 1//// 90026 22200 00114 11306
 21003 329// 41305 70028=
46221 11001 99339 71186 46/// ///// 1//// 90025 22200 00160 11302
 21001 327// 41301 70010=
41036 11001 99342 70769 46/// /1410 10214 20190 40224 90020 22200
 00209 333 91213 555 11104 22112 30017 41413 60019 144096 141095
 143094 144092 147089 148089=
42099 11001 99273 70843 46/// ///// 1//// 90022 22200 00221 10401
 20401 70006=
44095 11001 99358 70753 46/// ///// 1//// 90017 22200 00112 10502
 20502 309// 41501 70012=
41114 11001 99276 70802 46/// ///// 1//// 90025 22200 00199 10903
 20903 306// 41101 70016=
41108 11001 99337 70780 46/// ///// 1//// 90029 22200 00120 10803
 20803 70014=
51205 11001 99210 71564 46/// ///// 1//// 90021 22200 00252 11305
 21004 333// 41303 70025=
46239 11001 99363 71221 46/// ///// 1//// 90029 22200 00131 11305
 20903 329// 41304 70027=
0000017800
831
SMVD11 KWBC 110000 RRC
BBXX
WMLI 11004 99089 71390 41598 70425 10270 20228 40102 5//// 70222
 8526/ 22254 04246 20605 3//// 4//// 5//// 6//// 80240 ICE /////=
0000046600
832
SMVE01 KWBC 110000 RRD
BBXX
CEL 11000 99411 31289 41/98 62709 10160 20133 40232 52030 70111
 85/// 22273 00147 2//05 3//// 4//07 5//// 80145=
SHIP 11004 99042 11118 41596 82716 10230 20216 40136 55/// 72166
 888// 22223 04266 20402 80220=
9V7631 11004 99027 11227 41/98 83405 10280 20253 40099 54/// 70366
 8/627 22241 00300 2//02 399// 4//02 80260=
SHIP 11004 99306 51700 41497 81527 10233 20159 40087 50001 702//
 8783/ 22243 04231=
0000031600
833
SNVD01 PANC 110100 RRA
BBXX
C6WK7 11014 99368 10234
41898 30305 1//// 2//// 40220 54/// 7//22 834//
22214 00160 2//05 3//// 4//05 5//// 6//// 8//// ICE /////=
WNGW 11014 99592 71425
41698 79902 10050 2//// 49935 58007 70371 878//
22223 02044 20101 32123 40604 50401 6//// 8//// ICE /////=
0000011200
834
SNVD01 PANC 100100 RRI
BBXX
WDC6055 10014 99416 70871
43/// /1516 10049 40062
2227/ 00032=
0000020900
835
SNVD20 KWNB 110100
BBXX
44059 11011 99368 70763 46/// /1504 10067 40233 90040 333 91204
555 11043 22046=
44058 11011 99376 70763 46/// /1603 10052 40242 90040 333 91203
555 11029 22031=
0000628400
836
KSMI04 SBBR 110000 RRA
CREX++
T000113 A000 D07086++
 83 811 IVAI                 1 2014 01 11 00 00 -2440000 -05083000 ///// ///// 09237 10114 -0011 05 //// ///// ///// ///// 2120 1840 069 ///// 1000 ///// ///// ///// 050 07 01 0080 35 29 18 0000 0000 // // ///// //// ////// / /// /// ////// /// /// /////// // /// // /// /// ////////// /// /// 508 -0006 10 10  -0024 0702 -0001 //// /////  -0001 00000 //// ///// ///// -0012 0000 3190 -0012 0000 //// ///// 03 02 -0010 140 0010 //  -0010 /// //// //// /// //// ///// -0024 // ////  -0001 //// //// ///// ///// ///// ///// -0024 //// //// ///// ///// ///// /////+
 83 844 PARANAGUA            1 2014 01 11 00 00 -2551000 -04851000 ///// ///// 10083 10090 0013 02 //// ///// ///// ///// 2750 2560 079 ///// 1000 ///// ///// ///// 088 07 04 0080 34 26 10 0000 0000 // // ///// //// ////// / /// /// ////// /// /// /////// // /// // /// /// ////////// /// /// 508 -0006 10 10  -0024 //// -0001 //// /////  -0001 00000 //// ///// ///// -0012 0000 3180 -0012 0000 //// ///// 03 02 -0010 090 //// //  -0010 /// //// //// /// //// ///// -0024 // ////  -0001 //// //// ///// ///// ///// ///// -0024 //// //// ///// ///// ///// /////+
 83 887 CAMPOS NOVOS         1 2014 01 11 00 00 -2740000 -05120000 ///// ///// 09102 10101 0025 02 //// ///// ///// ///// 2200 1950 077 ///// 1000 ///// ///// ///// 100 07 06 0080 35 22 60 0000 0000 // // ///// //// ////// / /// /// ////// /// /// /////// // /// // /// /// ////////// /// /// 013 -0006 09 02  -0024 0492 -0001 //// /////  -0001 00000 //// ///// ///// -0012 0000 2830 -0012 0000 //// ///// 03 02 -0010 000 0000 //  -0010 /// //// //// /// //// ///// -0024 // ////  -0001 //// //// ///// ///// ///// ///// -0024 //// //// ///// ///// ///// /////+
 83 907 SAO LUIZ GONZAGA     1 2014 01 11 00 00 -2840000 -05501000 ///// ///// 09844 10120 //// // //// ///// ///// ///// 2230 1990 074 ///// 1000 ///// ///// ///// 100 07 01 0045 37 21 60 0000 0000 // // ///// //// ////// / /// /// ////// /// /// /////// // /// // /// /// ////////// /// /// 002 -0006 09 06  -0024 0426 -0001 //// /////  //// ///// -0006 00002 ///// -0012 0000 3420 -0012 0000 //// ///// 03 02 -0010 090 0051 //  -0010 /// //// //// /// //// ///// -0024 // ////  -0001 //// //// ///// ///// ///// ///// -0024 //// //// ///// ///// ///// /////+
 83 914 PASSO FUNDO          1 2014 01 11 00 00 -2825000 -05240000 ///// ///// 09398 10157 0050 02 //// ///// ///// ///// 1880 1750 075 ///// 0200 ///// ///// ///// 100 07 08 0045 39 61 60 0000 0000 // // ///// //// ////// / /// /// ////// /// /// /////// // /// // /// /// ////////// /// /// 095 -0006 09 08  -0024 0564 -0001 //// /////  //// ///// -0006 00100 ///// -0012 0000 3150 -0012 0000 //// ///// 03 02 -0010 180 0067 //  -0010 /// //// //// /// //// ///// -0024 // ////  -0001 //// //// ///// ///// ///// ///// -0024 //// //// ///// ///// ///// /////+
 83 919 BOM JESUS            1 2014 01 11 00 00 -2866000 -05043000 ///// ///// 08998 10169 0030 02 //// ///// ///// ///// 1700 1640 082 ///// 0200 ///// ///// ///// 100 07 08 0025 37 61 60 0000 0000 // // ///// //// ////// / /// /// ////// /// /// /////// // /// // /// /// ////////// /// /// 063 -0006 09 06  -0024 0462 -0001 //// /////  //// ///// -0006 00190 ///// -0012 0000 2880 -0012 0000 //// ///// 03 02 -0010 180 0031 //  -0010 /// //// //// /// //// ///// -0024 // ////  -0001 //// //// ///// ///// ///// ///// -0024 //// //// ///// ///// ///// /////+
 83 927 URUGUAIANA           1 2014 01 11 00 00 -2975000 -05708000 ///// ///// 09996 10066 0013 02 //// ///// ///// ///// 2460 2050 074 ///// 1000 ///// ///// ///// 100 07 08 0080 33 61 60 0000 0000 // // ///// //// ////// / /// /// ////// /// /// /////// // /// // /// /// ////////// /// /// 002 -0006 09 06  -0024 0228 -0001 //// /////  //// ///// -0006 00040 ///// -0012 0000 3450 -0012 0000 //// ///// 03 02 -0010 050 0010 //  -0010 /// //// //// /// //// ///// -0024 // ////  -0001 //// //// ///// ///// ///// ///// -0024 //// //// ///// ///// ///// /////+
 83 936 SANTA MARIA          1 2014 01 11 00 00 -2970000 -05370000 ///// ///// 09983 10102 -0020 06 //// ///// ///// ///// 2080 2050 087 ///// 0400 ///// ///// ///// 100 07 03 0045 39 27 60 0000 0000 // // ///// //// ////// / /// /// ////// /// /// /////// // /// // /// /// ////////// /// /// 010 -0006 09 06  -0024 0300 -0001 //// /////  //// ///// -0006 00420 ///// -0012 0000 3480 -0012 0000 //// ///// 03 02 -0010 090 0005 //  -0010 /// //// //// /// //// ///// -0024 // ////  -0001 //// //// ///// ///// ///// ///// -0024 //// //// ///// ///// ///// /////+
 83 948 TORRES               1 2014 01 11 00 00 -2933000 -04973000 ///// ///// 10131 10137 0027 02 //// ///// ///// ///// 2210 2170 092 ///// 0200 ///// ///// ///// 100 07 08 0080 39 61 60 0000 0000 // // ///// //// ////// / /// /// ////// /// /// /////// // /// // /// /// ////////// /// /// 095 -0006 09 06  -0024 0264 -0001 //// /////  //// ///// -0006 00200 ///// -0012 0000 2900 -0012 0000 //// ///// 03 02 -0010 230 0031 //  -0010 /// //// //// /// //// ///// -0024 // ////  -0001 //// //// ///// ///// ///// ///// -0024 //// //// ///// ///// ///// /////+
 83 964 ENCRUZILHADA DO SUL  1 2014 01 11 00 00 -3053000 -05251000 ///// ///// 09618 10098 -0010 07 //// ///// ///// ///// 1840 1760 089 ///// 0400 ///// ///// ///// 100 07 08 0080 37 61 60 0000 0000 // // ///// //// ////// / /// /// ////// /// /// /////// // /// // /// /// ////////// /// /// 010 -0006 09 06  -0024 0174 -0001 //// /////  //// ///// -0006 00100 ///// -0012 0000 3010 -0012 0000 //// ///// 03 02 -0010 320 0010 //  -0010 /// //// //// /// //// ///// -0024 // ////  -0001 //// //// ///// ///// ///// ///// -0024 //// //// ///// ///// ///// /////+
 83 995 RIO GRANDE           1 2014 01 11 00 00 -3201000 -05208000 ///// ///// 10076 10079 0010 03 //// ///// ///// ///// 2020 1800 084 ///// 1000 ///// ///// ///// 100 07 08 0045 36 61 60 0000 0000 // // ///// //// ////// / /// /// ////// /// /// /////// // /// // /// /// ////////// /// /// 002 -0006 06 02  -0024 //// -0001 //// /////  //// ///// -0006 00030 ///// -0012 0000 2650 -0012 0000 //// ///// 03 02 -0010 000 0000 //  -0010 /// //// //// /// //// ///// -0024 // ////  -0001 //// //// ///// ///// ///// ///// -0024 //// //// ///// ///// ///// /////++
7777
0000611900
837
KSMI04 SBBR 110000 RRA
CREX++
T000113 A000 D07080++
 83 811 IVAI                 1 2014 01 11 00 00 -2440000 -05083000 08080 ///// 09237 10114 -0011 05 //// ///// ///// ///// 2120 1840 069 ///// 1000 ///// ///// ///// 050 07 01 0080 35 29 18 0000 0000  07 /// 08 /// 09 /// // ///// ///// // ///// ///// // ///// //// 508 -0006 10 10  -0024 0702 -0001 //// /////  -0001 00000 //// ///// ///// -0012 0000 3190 -0012 0000 //// ///// 03 02 -0010 140 0010 //  -0010 /// //// //// /// //// ///// -0024 // ////  -0001 //// //// ///// ///// ///// ///// -0024 //// //// ///// ///// ///// ///// //// 0000 //+
 83 844 PARANAGUA            1 2014 01 11 00 00 -2551000 -04851000 00050 ///// 10083 10090 0013 02 //// ///// ///// ///// 2750 2560 079 ///// 1000 ///// ///// ///// 088 07 04 0080 34 26 10 0000 0000  07 /// 08 /// 09 /// // ///// ///// // ///// ///// // ///// //// 508 -0006 10 10  -0024 //// -0001 //// /////  -0001 00000 //// ///// ///// -0012 0000 3180 -0012 0000 //// ///// 03 02 -0010 090 //// //  -0010 /// //// //// /// //// ///// -0024 // ////  -0001 //// //// ///// ///// ///// ///// -0024 //// //// ///// ///// ///// ///// //// 0000 //+
 83 887 CAMPOS NOVOS         1 2014 01 11 00 00 -2740000 -05120000 ///// ///// 09102 10101 0025 02 //// ///// ///// ///// 2200 1950 077 ///// 1000 ///// ///// ///// 100 07 06 0080 35 22 60 0000 0000  07 /// 08 /// 09 /// // ///// ///// // ///// ///// // ///// //// 013 -0006 09 02  -0024 0492 -0001 //// /////  -0001 00000 //// ///// ///// -0012 0000 2830 -0012 0000 //// ///// 03 02 -0010 000 0000 //  -0010 /// //// //// /// //// ///// -0024 // ////  -0001 //// //// ///// ///// ///// ///// -0024 //// //// ///// ///// ///// ///// //// 0000 //+
 83 907 SAO LUIZ GONZAGA     1 2014 01 11 00 00 -2840000 -05501000 02450 ///// 09844 10120 //// // //// ///// ///// ///// 2230 1990 074 ///// 1000 ///// ///// ///// 100 07 01 0045 37 21 60 0000 0000  07 /// 08 /// 09 /// // ///// ///// // ///// ///// // ///// //// 002 -0006 09 06  -0024 0426 -0001 //// /////  //// ///// -0006 00002 ///// -0012 0000 3420 -0012 0000 //// ///// 03 02 -0010 090 0051 //  -0010 /// //// //// /// //// ///// -0024 // ////  -0001 //// //// ///// ///// ///// ///// -0024 //// //// ///// ///// ///// ///// //// 0000 //+
 83 914 PASSO FUNDO          1 2014 01 11 00 00 -2825000 -05240000 06840 ///// 09398 10157 0050 02 //// ///// ///// ///// 1880 1750 075 ///// 0200 ///// ///// ///// 100 07 08 0045 39 61 60 0000 0000  07 /// 08 /// 09 /// // ///// ///// // ///// ///// // ///// //// 095 -0006 09 08  -0024 0564 -0001 //// /////  //// ///// -0006 00100 ///// -0012 0000 3150 -0012 0000 //// ///// 03 02 -0010 180 0067 //  -0010 /// //// //// /// //// ///// -0024 // ////  -0001 //// //// ///// ///// ///// ///// -0024 //// //// ///// ///// ///// ///// //// 0000 //+
 83 919 BOM JESUS            1 2014 01 11 00 00 -2866000 -05043000 10480 ///// 08998 10169 0030 02 //// ///// ///// ///// 1700 1640 082 ///// 0200 ///// ///// ///// 100 07 08 0025 37 61 60 0000 0000  07 /// 08 /// 09 /// // ///// ///// // ///// ///// // ///// //// 063 -0006 09 06  -0024 0462 -0001 //// /////  //// ///// -0006 00190 ///// -0012 0000 2880 -0012 0000 //// ///// 03 02 -0010 180 0031 //  -0010 /// //// //// /// //// ///// -0024 // ////  -0001 //// //// ///// ///// ///// ///// -0024 //// //// ///// ///// ///// ///// //// 0000 //+
 83 927 URUGUAIANA           1 2014 01 11 00 00 -2975000 -05708000 00620 ///// 09996 10066 0013 02 //// ///// ///// ///// 2460 2050 074 ///// 1000 ///// ///// ///// 100 07 08 0080 33 61 60 0000 0000  07 /// 08 /// 09 /// // ///// ///// // ///// ///// // ///// //// 002 -0006 09 06  -0024 0228 -0001 //// /////  //// ///// -0006 00040 ///// -0012 0000 3450 -0012 0000 //// ///// 03 02 -0010 050 0010 //  -0010 /// //// //// /// //// ///// -0024 // ////  -0001 //// //// ///// ///// ///// ///// -0024 //// //// ///// ///// ///// ///// //// 0000 //+
 83 936 SANTA MARIA          1 2014 01 11 00 00 -2970000 -05370000 00950 ///// 09983 10102 -0020 06 //// ///// ///// ///// 2080 2050 087 ///// 0400 ///// ///// ///// 100 07 03 0045 39 27 60 0000 0000  07 /// 08 /// 09 /// // ///// ///// // ///// ///// // ///// //// 010 -0006 09 06  -0024 0300 -0001 //// /////  //// ///// -0006 00420 ///// -0012 0000 3480 -0012 0000 //// ///// 03 02 -0010 090 0005 //  -0010 /// //// //// /// //// ///// -0024 // ////  -0001 //// //// ///// ///// ///// ///// -0024 //// //// ///// ///// ///// ///// //// 0000 //+
 83 948 TORRES               1 2014 01 11 00 00 -2933000 -04973000 00310 ///// 10131 10137 0027 02 //// ///// ///// ///// 2210 2170 092 ///// 0200 ///// ///// ///// 100 07 08 0080 39 61 60 0000 0000  07 /// 08 /// 09 /// // ///// ///// // ///// ///// // ///// //// 095 -0006 09 06  -0024 0264 -0001 //// /////  //// ///// -0006 00200 ///// -0012 0000 2900 -0012 0000 //// ///// 03 02 -0010 230 0031 //  -0010 /// //// //// /// //// ///// -0024 // ////  -0001 //// //// ///// ///// ///// ///// -0024 //// //// ///// ///// ///// ///// //// 0000 //+
 83 964 ENCRUZILHADA DO SUL  1 2014 01 11 00 00 -3053000 -05251000 04280 ///// 09618 10098 -0010 07 //// ///// ///// ///// 1840 1760 089 ///// 0400 ///// ///// ///// 100 07 08 0080 37 61 60 0000 0000  07 /// 08 /// 09 /// // ///// ///// // ///// ///// // ///// //// 010 -0006 09 06  -0024 0174 -0001 //// /////  //// ///// -0006 00100 ///// -0012 0000 3010 -0012 0000 //// ///// 03 02 -0010 320 0010 //  -0010 /// //// //// /// //// ///// -0024 // ////  -0001 //// //// ///// ///// ///// ///// -0024 //// //// ///// ///// ///// ///// //// 0000 //+
 83 995 RIO GRANDE           1 2014 01 11 00 00 -3201000 -05208000 00020 ///// 10076 10079 0010 03 //// ///// ///// ///// 2020 1800 084 ///// 1000 ///// ///// ///// 100 07 08 0045 36 61 60 0000 0000  07 /// 08 /// 09 /// // ///// ///// // ///// ///// // ///// //// 002 -0006 06 02  -0024 //// -0001 //// /////  //// ///// -0006 00030 ///// -0012 0000 2650 -0012 0000 //// ///// 03 02 -0010 000 0000 //  -0010 /// //// //// /// //// ///// -0024 // ////  -0001 //// //// ///// ///// ///// ///// -0024 //// //// ///// ///// ///// ///// //// 0000 //++
7777
0000012400
838
SMCI01 BABJ 110000 CCC
AAXX 11001
54823 41956 31602 11028 21070 30118 40338 52002 705// 83///
333 00252=
0000027000
839
SAIN34 VOMM 110040
METAR VOMM 110040Z 28003KT 1200 R07/1100 R25/1300 BR SCT020 20/19
     Q1014 TEMPO 0800 MIFG=
METAR VOTR 110040Z 35003KT 3000 HZ SCT016 SCT080 20/19 Q1014 NOSIG=
METAR VOTV 110040Z 00000KT 3000 HZ FEW015 SCT100 23/21 Q1011 NOSIG=
0000005200
840
RRIN23 VIDP 110048
RQRPT 703-724=

0000005200
841
RRIN23 VIDP 110049
RQRPT 863-904=

0000008600
842
SAIN90 VOBZ 110050
METAR VOBZ 110050Z 00000KT 0700 FG NSC 21/19 Q1014=
0000011100
843
SAIN90 VANP 110040
METAR VANP 110040Z 00000KT 2000 BR NSC 16/14 Q1013 RMK TEMPO 1500 BR
MIFG=
0000070700
844
SAIN33 VIDP 110030
METAR VEBD 110030Z 00000KT 2000 BR FEW100 10/10 Q1017 NOSIG=
METAR VEGK 110030Z 07006KT 0400 FG FEW020 SCT090 13/13 Q1014 NOSIG=
METAR VIAG 110030Z 30006KT 0000 FG VV/// 08/08 Q1017 NOSIG=
METAR VIAL 110030Z 10006KT 0800 FG SKC 15/15 Q1014 NOSIG=
METAR VICG 110030Z VRB02KT 1500 BR FEW030 SCT100 07/07 Q1017 NOSIG=
METAR VIGR 110030Z 29006KT 0000 FG VV/// 10/09 Q1016 NOSIG=
METAR VIJU 110030Z 00000KT 3000 BR FEW100 06/06 Q1017 NOSIG=
METAR VILH 110030Z VRB01KT 6000 FEW070 SCT150 M13/M18 Q1022 NOSIG=
METAR VISR 110030Z VRB02KT 3000 BR SCT020 BKN080 M01/M01 Q1024 TEMPO
     1500=
METAR VITX 110030Z 30005KT 6000 FEW070 SCT100 M07/M16 Q1024 NOSIG=

0000011000
845
SMCI07 BABJ 110000 CCA
AAXX 11001
51716 32963 01601 11137 21164 39059 40455 52001 333 00752=
00000000