0000030400
606
SMBZ33 SBBR 110000 RRB
AAXX 11004
83437 32597 10902 10240 20175 39414 40123 81400 333 10304 29061 55088 59009=
83579 21596 62303 10206 20185 39020 40122 70362 86800 333 10305 29070 55083 58014 60021=
83592 315// 50504 10244 20190 39459 40128 71321 83261 333 10310 29066 55107 59003=
0000021900
607
SMBZ35 SBBR 110000 RRB
AAXX 11004
83264 21793 60000 10239 20215 39676 40143 70096 82538 333 10330 29080 55045 58009 60021=
83358 32593 80000 10232 20209 39684 40082 8379/ 333 10325 29082 55029 59019=
0000014600
608
SMCS01 MROC 110000
AAXX 11004
78762 32570 11113 10223 20126 39115 40103 52012 81500
333   10281 20189 30/// 56300 59025 81630=
0000023300
609
SMVD17 KWNB 110000 RRK
BBXX
51205 11001 99210 71564 46/// ///// 1//// 90021 22200 00252 11305
21004 333// 41303 70025=
46239 11001 99363 71221 46/// ///// 1//// 90029 22200 00131 11305
20903 329// 41304 70027=
0000129700
610
SMVD15 KWNB 110000 RRM
BBXX
41036 11001 99342 70769 46/// /1410 10214 20190 40224 90020 22200
00209 333 91213 555 11104 22112 30017 41413 60019 144096 141095
143094 144092 147089 148089=
41108 11001 99337 70780 46/// ///// 1//// 90029 22200 00120 10803
20803 70014=
44095 11001 99358 70753 46/// ///// 1//// 90017 22200 00112 10502
20502 309// 41501 70012=
42099 11001 99273 70843 46/// ///// 1//// 90022 22200 00221 10401
20401 70006=
41114 11001 99276 70802 46/// ///// 1//// 90025 22200 00199 10903
20903 306// 41101 70016=
41112 11001 99307 70813 46/// ///// 1//// 90022 22200 00118 10803
20803 310// 41101 70016=
42361 11001 99276 70925 46/// /1812 10217 20217 40129 55000 90030
555 11095 22101=
42390 11001 99261 70949 46/// ///// 10233 20217 40115 90030=
42364 11001 99291 70881 46/// /1411 10211 20200 40156 52004 90030=
44064 11001 99370 70760 46/// /1204 10065 40242 90030 333 91204
555 11042 22045=
44062 11001 99386 70764 46/// /3604 10022 40256 90030 333 91204
555 11040 22044=
44063 11001 99390 70764 46/// /3402 10016 40246 90030 333 91202
555 11018 22020=
44041 11001 99372 70768 46/// /1203 10048 90030 333 91204 555
11030 22033=
44042 11001 99380 70763 46/// /0903 10046 40242 90030 333 91204
555 11034 22036=
0000183600
611
SMCN04 KWBC 110000
AAXX 11004
71067 15/// ///// 11031 21067 60001 333 11011 21153 70000=
71221 15/// /2902 11175 21187 60001 333 11105 21196 70000=
71226 15/// /2402 11073 21099 60001 333 11032 21121 70000=
71283 17/// /1903 11128 21142 69961 7//4/ 333 11086 21182 70006=
71331 17/// /0604 11108 21132 39608 49979 52016 69971 7//4/ 333
11085 21108 70041=
71359 15/// /2807 11056 21071 60001 333 11048 21146 70004=
71383 15/// /2407 11102 21127 39546 40171 53006 60001 333 11102
21179 70000=
71400 15/// /2407 11069 21100 30045 40179 58016 60001 333 11053
21154 70000=
71405 15/// ///// 11035 21071 60001 333 11011 21125 70000=
71445 17/// /0302 11083 21098 39698 49981 51007 60021 7//4/ 333
11075 21115 70024=
71461 15/// /2001 11148 21162 60001 333 11103 21187 70000=
71483 15/// /2806 11025 21077 60001 333 10003 21099 70000=
71500 15/// /3010 11021 21073 60001 333 11003 21070 7////=
71520 45/// /1710 11118 21124 39461 40150 51009 6///1 333 11118
21192 7////=
71521 15/// ///// 11104 21130 60001 333 11104 21205 70002=
71523 45/// ///// 11076 21091 39787 40171 58006 6///1 333 11063
21136 7////=
71541 15/// /2008 11122 21142 60001 333 11113 21178 70004=
71545 45/// ///// 11051 21070 6///1 333 11010 21155 7////=
71546 15/// /2205 11085 21117 60001 333 11085 21155 70000=
71547 15/// /2512 11036 21094 60001 333 11034 21133 70000=
71549 15/// ///// 11054 21080 60001 333 11031 21089 70000=
71673 15/// ///// 11055 21068 60001 333 11017 21152 7////=
71690 15/// ///// 11087 21118 60001 333 11051 21105 70000=
71788 15/// /0106 11029 21073 60001 333 10050 21040 70000=
71792 15/// ///// 11067 21076 60001 333 11029 21122 70005=
71888 15/// ///// 11055 21072 60001 333 11024 21139 70000=
71895 17/// ///// 11059 21086 69951 7//4/ 333 10007 21143 7////=
0000108800
612
SMKR01 KWBC 110000
AAXX 11001
47003 32980 00000 11150 21177 30272 40276 52007 333 21168=
47005 32980 00000 11199 21225 38609 58013 333 21209=
47022 32975 03403 11153 21213 38869 52011 333 21175=
47028 32467 21802 11131 21151 30218 40320 52001 82600 333 21142=
47031 32970 00000 11245 21270 38973 53009 333 21269=
47037 32970 00000 11132 21145 30195 40326 53020 333 21148=
47039 32960 00000 11169 21188 30152 40362 52002 333 21177=
47046 32969 03201 11105 21141 30275 40299 53007 333 21122=
47050 32965 00000 11112 21147 30279 40315 54000 333 21130=
47052 32965 00000 11144 21157 39982 40351 52029 333 21152=
47060 31940 01403 11066 21082 30263 40325 52006 71000 333 21070=
47061 32980 03202 11007 21117 30250 40296 52009 333 21028=
47065 32970 00000 11079 21101 30266 40333 52011 333 21087=
47067 31960 00000 11115 21143 30226 40356 52044 71020 333 21125=
47068 32960 00901 11074 21087 30292 40329 52006 333 21084=
47070 32570 20000 11074 21080 30248 40341 52012 82500 333 21089=
47075 32970 00000 11111 21124 30013 40475 52015 333 21132=
0000054700
613
SMVS01 KWBC 110000
AAXX 11001
48806 32460 80000 10138 20127 39431 40223 52016 888// 333 00016
20134 3/010 58005 85894 88696 96122=
48823 32497 73401 10165 20154 30201 40204 52009 878// 333 00017
20162 3/016 59022 83894 87696=
48825 31696 83202 10152 20141 30201 40210 52009 71022 885// 333
00016 20148 3/015 59012 88696=
48840 32498 80000 10168 20150 30200 40206 52010 888// 333 00019
20165 3/018 83894 88696=
48845 31496 80000 10174 20165 30199 40206 52016 71022 888// 333
01017 20173 3/017 59012 85894 8869 6=
0000009400
614
SICI01 KWBC 101500 RRJ
AAXX 10151
59316 32/60 90703 10135 20089 40269 52011=
0000074600
615
SMVA01 KWBC 110000 RRD
BBXX
VRED4 11004 99339 30061 415// 61510 10170 2010/ 40250 54000 7//22
 8613/ 22223 0//// 2//// 3//// 40405 5//// 6//// 80130 ICE /////=
VRDR8 11003 99335 30564 416// 80630 10200 20169 40210 54000 7//22
 887// 22223 0//// 20706 307// 4//// 5//// 6//// 80180 ICE /////=
D5DJ7 11003 99016 30085 41397 61810 10260 20225 40120 54000 70322
 86776 22273 04280 20301 319// 40402 80235=
A8FQ8 11003 99228 30085 41597 71421 10208 20156 40154 58/// 70311
 87858 22233 04216 2////=
LXLW 11003 99136 10502 41/98 30503 10235 20199 40160 54000 70111
 8//// 22264 00262 20402 80210=
MZDL7 11004 99297 30454 41/98 43626 10239 20229 40085 52003 70111
 8//// 22213 00240 2//// 3//// 4//// 5//// 80232=
0000010200
616
SMVC01 KWBC 110000 RRD
BBXX
AMOUK20 1100/ 99542 50367 46/// ///// 10047 20023 49941=
0000364100
617
SMVD01 KWBC 110000 RRL
BBXX
46036 11001 99484 71339 46/// /2315 10101 49878 57028 22200 00094
 10809 70043 333 91224=
J8AZ3 11004 99208 70688 41597 70913 10260 20217 40185 51003 7//11
 87271 22273 00290 20606 309// 40505 5//// 6//// 80230 ICE /////=
C6JT8 11004 99259 70905 41297 71312 10222 20216 40131 70311 8716/
 22233 20403 80218=
44258 11001 99445 70634 46/// /2311 10009 40289 57007 22200 00016
 10503 70015 333 91213=
46146 11001 99493 71237 46/// /0908 10070 40110 57038 22200 00070
 10201 70003 333 91209=
46004 11001 99509 71361 46/// /2414 10090 49797 57068 22200 00080
 10909 70046 333 91220=
46242 11001 99332 71174 46/// ///// 1//// 92357 22200 00156 11501
 20601 324// 41501 70006=
46213 11001 99403 71247 46/// ///// 1//// 90024 22200 00120 11309
 21004 330// 41308 70045=
46224 11001 99332 71175 46/// ///// 1//// 90012 22200 00158 11401
 20901 325// 41401 70006=
46218 11001 99345 71208 46/// ///// 1//// 90029 22200 00137 11205
 20804 330// 41203 70027=
46231 11001 99327 71174 46/// ///// 1//// 90014 22200 00156 11402
 20802 328// 41402 70012=
46229 11001 99438 71246 46/// ///// 1//// 90019 22200 00093 11410
 21005 331// 41409 70051=
46244 11001 99409 71244 46/// ///// 1//// 90021 22200 00108 11308
 21004 330// 41307 70038=
46240 11001 99366 71219 46/// ///// 1//// 90021 22200 00127 11303
 21001 335// 41302 70013=
46236 11001 99368 71219 46/// ///// 1//// 90022 22200 00127 11304
 21002 329// 41303 70020=
46088 11001 99483 71232 46/// /0806 10076 20063 40111 90020 22200
 00074 11102 20501 324// 41102 70008 333 91208 555 11069 22074
 30017 40808 60019 083065 080066 083066 087066 086060 083055=
46092 11001 99368 71220 46/// /2706 10110 90021 22200 00126 555
 11062 22067=
44040 11001 99410 70736 46/// /0503 10011 20010 90015 22200 1//00
 70001 333 91203 555 11031 22036=
44022 11001 99409 70737 46/// /0302 10010 20004 90015 333 91203
 555 11021 22021=
41009 11001 99285 70802 46/// /1604 10239 20212 40200 90020 22200
 00242 333 91205 555 11046 22049 32322 41605 60019 161043 160033
 159029 155035 161034 169042=
42365 11001 99282 70891 46/// /1905 10217 20203 90030 555 11045
 22048=
DGWF2 11003 99527 71402 41595 80747 10065 20033 49820 57/// 78166
 889// 22224 04080 20408 326// 40406 80050=
DDSC2 11004 99255 70623 41598 63624 10240 20180 40250 50000 70111
 8644/ 22255 04248 20602 312// 40906 80200=
DIHE 11004 99450 71251 41/// /1928 10115 20097 40140 57050 7//50
 8//// 22244 00100 21007 330// 41208 80105=
ZCEI3 11004 99221 70699 41498 20916 10250 20207 40206 51011 70200
 81101 22274 04259 20302 309// 41004 80220=
46184 11001 99539 71389 46/// /0611 10047 49898 57063 22200 00073
 11206 70029 333 91214=
A8UL5 11004 99335 71695 41698 21319 10180 20112 40285 56011 70100
 821// 22224 04200 20505 334// 41005 80140=
46181 11001 99538 71288 46/// /0103 1//// 40020 57053 22200 00048
 10300 70000 333 91204=
46132 11001 99497 71279 46/// /1418 10066 49987 57098 22200 00076
 11408 70039 333 91224=
VCXF 11004 99464 70484 41698 63028 11041 2110/ 40225 52005 70122
 86500 22200 03005 20707 326// 40904 81058=
YJQN7 11004 99467 70480 41597 82833 11038 2108/ 40214 50005 78528
 885// 22200 07005 20707 326// 40904 81051=
A8OK 11004 99105 70680 41298 40718 10261 20249 40134 53009 7////
 82135 22200 20502 3//// 4//// 5//// 80252=
46185 11001 99524 71298 46/// /1315 10060 49975 57081 22200 00071
 1//// 70/// 333 91219=
WFLG 11003 99224 71550 41598 50919 10239 20215 40128 56027 72582
 83398 22214 00222 20304 310// 40607 5//// 6//// 80222 ICE /////=
0000108300
618
SMVD01 KWBC 110000 RRM
BBXX
WDC3786 11004 99279 71311 41398 20619 10175 20143 40239 57024
 70210 812/8 22264 0//// 20405 330// 4//// 5//// 6//// 80155 ICE
 /////=
V7HP5 11003 99229 71113 41898 83214 10210 20195 40120 54000 75052
 8875/ 22263 00250 20302 33333 40202 50101 6//// 80200 ICE /////=
44063 11001 99390 70764 46/// /3402 10015 40246 90020 333 91202
 555 11021 22023=
44042 11001 99380 70763 46/// /0903 10044 40243 90020 333 91203
 555 11031 22034=
44041 11001 99372 70768 46/// /1303 10047 90020 333 91204 555
 11031 22034=
44059 11001 99368 70763 46/// /1504 10062 40236 90020 333 91204
 555 11040 22044=
46087 11001 99485 71247 46/// /0809 10068 20060 40089 90020 22200
 00076 333 91213 555 11100 22106 30016 40813 60019 082094 083089
 103074 111067 099065 099059=
44064 11001 99370 70760 46/// /1303 10065 40245 90020 333 91203
 555 11032 22035=
44062 11001 99386 70764 46/// /3603 10022 40257 90020 333 91204
 555 11039 22043=
44058 11001 99376 70763 46/// /1502 10051 40246 90020 333 91202
 555 11018 22020=
0000035800
619
SMVD11 KWBC 110000 RRB
BBXX
AMOUK17 1100/ 99134 70914 46/// ///// 10274 20225 40098=
A8UL4 11003 99157 71500 41497 80815 10260 20210 40122 57003 72586
 887// 22264 00272 20503 319// 40806 5//// 80225=
VRWM2 11004 99173 71402 41798 80921 10230 2020/ 40135 56030 70322
 8835/ 22254 00240 20502 314// 41105 5//// 6//// 80210 ICE /////=
0000065300
620
SMVE01 KWBC 110000 RRC
BBXX
PHSG 11004 99035 71346 41/98 41329 10265 20244 40080 57020 70222
 8444/ 22214 00250 20202 324// 40403 80250=
OXKO2 11001 99091 31320 41298 71806 10290 20248 40077 703// 8/78/
 22224 04290 2//// 80260=
ZCBU2 11004 99402 31508 41798 53028 10200 20184 40129 51015 70111
 85700 22224 04190 20402 333// 40803 5//// 80190=
ZMFR 11004 99438 51745 43/// /2526 10149 20081 40085 52002 22252
 00221=
C6FS9 11004 99238 31512 46/// /1314 10248 20197 30142 40178 52010
 22200 04276 85213=
MCUV3 11004 99077 31153 41298 42008 10260 20246 40114 58004 72561
 83209 22273 20201 300// 4//// 5//// 80250=
0000068900
621
SMVF01 KWBC 110000 RRG
BBXX
DDYL2 11003 99349 10213 41/97 83116 10170 20100 40233 52003 70322
 8//// 22274 00180 2//// 80130=
SHIP 11004 99360 70046 41/97 61207 10170 20100 40146 57005 70322
 86552 9//// 22224 00170 20401 303// 40302 5//// 6//// 80130=
DPGZ 11003 99370 70329 41897 63133 10140 20080 40095 52005 70100
 8544/ 22224 00188 2//// 80110=
SBPQ 11001 99656 10222 46/// /0205 11135 40092 52006 22203 00007=
V7ZZ5 11004 99401 70317 41396 73130 10150 2010/ 40030 57020 71452
 8/7// 22223 0//// 21004 31818 40706 50705 6//// 80120 ICE /////=
DDJH2 11004 99360 10215 41997 62818 10180 20112 40200 51010 70322
 86/1/ 22263 04180 20601 30000 80140=
0000368900
622
SMCI01 KWBC 110000
AAXX 11001
50527 12962 73201 11306 21337 39435 40326 52013 69901 87/// 333
00452 79999 92515=
50727 11529 71101 11216 21247 39010 40299 52003 69931 705// 87///
333 00108 31042 70003 92527=
50915 41957 02703 11221 21266 39246 40348 52003 705// 333 00251
92506=
51828 32961 73601 11098 21111 38767 40435 57003 87/// 333 00751=
52267 42980 02705 11130 21224 39224 40414 52008 333 00405=
52323 32980 02507 11188 21235 38325 52007 333 00602=
52495 42980 72704 11124 21235 38781 40420 52013 87/// 333 00408=
53149 42980 70701 11161 21246 38833 40358 52012 87/// 333 00102=
53192 31957 50000 11205 21266 38941 40386 52002 705// 85/// 333
00205=
53231 42980 21806 11174 21245 38553 52007 82/// 333 00302=
53336 32980 70000 11155 21225 38782 40391 52004 87/// 333 00103=
53391 42957 22703 11156 21246 38543 40370 57003 82/// 333 00104=
53529 42978 20401 11113 21234 38700 40385 52010 82/// 333 00207=
53543 42980 02503 11104 21233 38596 40366 52002 333 00201=
53723 32968 22703 11108 21236 38747 40387 52014 82/// 333 00301=
54012 42980 02705 11167 21247 39052 40331 57002 333 00103 92505=
54026 31932 20201 11174 21241 39935 40289 57005 705// 82/// 333
00051=
54027 32975 01801 11189 21238 39667 40308 52002 333 00004=
54208 42980 00000 11193 21249 38805 40372 57001 333 00202=
54776 41531 72202 10002 21075 30273 40336 52007 705// 87/// 333
00103 31042=
56004 32980 72902 11191 21265 35797 52004 87/// 333 00352=
56033 32680 70000 11191 21244 35991 52004 87/// 333 00455 79999
92503=
56046 12780 71101 11133 21160 36235 52007 69942 87/// 333 00453
70011 92501=
56196 31950 83201 10033 20024 39668 40310 52015 710// 88/// 333
00552 31012 70007=
56287 31840 82001 10049 20016 40310 52011 705// 88/// 333 00500
30042 79999=
56977 31/02 92901 10124 20124 40203 52015 747// 333 00103=
57279 11956 83202 10029 20003 40331 52008 69902 710// 88/// 333
00451 30021 79999=
57554 11857 80901 10030 20018 40325 52016 69912 710// 88/// 333
00351 30032 70018=
57793 11718 83601 10053 20046 40298 52017 60011 760// 88/// 333
00001 70031=
58834 32960 80902 10101 20051 40288 52009 88/// 333 05202=
58926 32968 01601 10113 20072 40284 52007 333 05102=
59102 32565 40000 10062 20061 40272 52012 84/// 333 05151 30048=
52818 32980 72703 11139 21228 37277 52017 87/// 333 00600=
56964 32568 23401 10076 20070 38746 40209 52015 82/// 333 00251=
55299 32980 03401 11179 21300 35829 52022 333 00257=
55591 42967 00401 11047 21200 36496 52014 333 00152=
56739 32980 01401 10016 20013 38340 52007 333 00100 31018=
56951 32980 00000 10049 20034 38542 52012 333 00200 30012=
57328 31849 80702 10056 20017 39874 40300 52017 705// 88/// 333
00500 79999=
57411 31930 81101 10054 20048 39919 40303 52016 710// 88/// 333
00500 30047 79999=
57447 11962 82201 10044 20034 39749 40312 52015 69912 760// 88///
333 00351 30049 70005=
57662 11756 83403 10026 20023 30132 40324 52016 69981 760// 88///
333 00351 30023 70122=
57745 12772 80402 10035 20019 39973 40315 52015 69911 88/// 333
00301 30036 70041=
57972 31758 80701 10063 20036 30065 40296 52021 710// 88/// 333
00101=
58203 31935 70902 10023 21006 30284 40327 52010 710// 87/// 333
00103 30000=
58314 11558 82001 10030 20009 30214 40325 52012 69931 760// 88///
333 00005 70004=
58424 11360 80205 10026 20017 30230 40310 52010 69991 760// 88///
333 05104 30034 70012=
59023 11440 80402 10081 20080 39944 40264 52020 60031 760// 88///
333 00100 70072=
59417 31556 82501 10121 20108 30071 40228 52015 710// 88/// 333
05201 79999=
59985 32963 90406 10237 20208 30183 40189 52017 333 00000 79999=
0000017800
623
SNVD01 PANC 110100
BBXX
WYM9567 11014 99607 71477
41397 83209 10011 2//// 49940 57016 77177 88///
22223 0//// 20202 3//// 40000 50000 6//// 8//// ICE /////=
0000019000
624
SMVD80 KWBC 110000 RRA
BBXX
WXY6216 11004 99417 70874 43/// /1826 00/// 10049 20033 40013
 57035 7//// 8//// 22200 0//// 2//// 3//// 4//// 5//// 6//// 80043
 ICE /////=
0000066100
625
UDAF01 FAPR 110039
AMDAR 1100
LVR AFZA26 0727N 00656W 102350 F380 MS550 297/050 TB0 S031 333 F/// VG000=
LVR AFZA26 0755N 00736W 102357 F400 MS572 267/043 TB0 S031 333 F/// VG000=
LVR AFZA26 0823N 00817W 110004 F400 MS589 284/052 TB0 S031 333 F/// VG000=
LVR AFZA26 0850N 00856W 110011 F400 MS587 286/056 TB0 S031 333 F/// VG000=
LVR AFZA26 0918N 00935W 110018 F400 MS589 288/052 TB0 S031 333 F/// VG000=
LVR AFZA26 0947N 01015W 110025 F400 MS590 287/047 TB0 S031 333 F/// VG000=
LVR AFZA26 1016N 01054W 110032 F400 MS592 291/046 TB0 S031 333 F/// VG000=
LVR AFZA26 1044N 01134W 110039 F400 MS590 295/052 TB0 S031 333 F/// VG000=
00000000