0000011100
356
UANT01 CWAO 110328
ARP DAL401 4806N03459W 0327 F360 MS51 217/39 KT
N845MH QXT AOW 110328 F26A
0000011000
357
UANT01 CWAO 110328
ARP AFR639 4623N04816W 0328 F330 MS60 326/70 KT
FGZND QXS YYT 110328 F10A
0000011000
358
UANT01 CWAO 110328
ARP EIN136 5310N02850W 0328 F390 MS54 223/63 KT
EIDUO DDL XXW 110328 J08A
0000011000
359
UANT01 CWAO 110328
ARP BAW11J 4839N03710W 0328 F390 MS53 250/28 KT
GVIIE QXT AOW 110328 F09A
0000011000
360
UANT01 CWAO 110328
ARP VIR46C 4924N04815W 0327 F390 MS61 311/44 KT
GVWOW DDL XXW 110328 F76A
0000015700
361
SIVE21 RJTD 110300
BBXX
SHIP    11033 99049 11429
41597 70926 10280 20253 40131 51022 703 22 86864
22233 00310 20304 326// 40403 80260=
0000100000
362
SIIN20 DEMS 110300
AAXX 11034
42027 21595 82701 10004 21009 38474 48561 70522 8452/
  333 21003 58056 6996/=
42101 31994 00000 10070 20061 40189 71000
  333 10186 20063 58011=
42111 21596 73202 10090 20082 39377 40175 70262 87800
  333 10192 20083 58000 6015/ 85625 84830=
42131 31995 02701 10054 20045 40202 71000
  333 10200 20030 58017=
42182 31992 02705 10082 20082 40187 74442
  333 10202 20071 58010=
42189 21695 00000 10110 20104 40178 71062
  333 10170 20084 58000 6991/=
42361 31/93 93204 10106 20090 40191 74544 89///
  333 20098 58011=
42369 21/93 90000 10134 20127 40172 74544 89///
  333 10193 20100 59006=
42379 21594 50902 10148 20106 40173 71021 83530
  333 10195 20098 56690 59001 6998/ 83620 83360=
42452 31993 03603 10118 20086 40195 74440
  333 10154 20114 58022=
42475 21/92 90904 10160 20160 4//// 74344 89///
  333 10203 20150 58/// 6037/=
42071 NIL=
42165 NIL=
42260 NIL=
42328 NIL=
42339 NIL=
42348 NIL=
0000019900
363
SIIN20 DEMS 110300
AAXX 11033
42071 31994 00000 10018 20018 40202 71000
  333 10174 20004 58010=
42339 31995 60503 10096 20031 40204 70500 80001
  333 10217 20093 58035 86070=
0000136300
364
SIIN21 DEMS 110300
AAXX 11034
42309 31595 11402 10150 20132 40188 70500 81500
  333 20062 58006=
42314 31994 30000 10154 20117 40195 71044 83030
  333 20073 58006 83360=
42410 31495 30000 10140 20126 40192 71000 81530
  333 20098 58062 81618 83359=
42415 32996 30000 10156 20111 40217 83050
  333 20104 58009 83360=
42492 21494 80506 10142 20135 40178 79596 8492/
  333 20125 58005 6006/ 84618 81930 87458=
42587 21993 80000 10154 20147 40167 75362 85520
  333 20145 58024 6016/ 85615 88456=
42591 21994 80000 10146 20139 40189 76096 8572/
  333 20139 58008 6032/ 81710 85618 88458=
42623 31995 00902 10122 20071 39307 40202 70500
  333 20045 58007=
42701 31994 21804 10150 20122 39427 40173 71000 82030
  333 20101 58001 82360=
42706 31995 00000 10130 20123 40168 71000
  333 20118 59008=
42724 31992 00000 10136 20125 40174 74444
  333 20080 59009=
42798 31993 00000 10164 20132 40171 74244
  333 20117 59005=
42809 31995 00000 10190 20138 40177 70500
  333 20108 58006=
42886 31993 00501 10178 20147 40168 74244
  333 20153 59005=
42895 31995 00000 10178 20124 40171 70500
  333 20130 59010=
42971 31994 00201 10198 20175 40172 72840
  333 20159 59004=
43333 31496 50706 10288 20233 40144 70510 84401
  333 20253 56109 58004 82618 83820=
42398 NIL=
42977 NIL=
43368 NIL=
0000030900
365
SIIN22 DEMS 110300
AAXX 11034
42867 21994 31102 10190 20174 40156 74441 82032
  333 20160 58004 6990/ 82360 83070=
42933 32997 52903 10165 20073 40162 80008
  333 20151 58015 85270=
42559 NIL=
42571 NIL=
42667 NIL=
42675 NIL=
42754 NIL=
42779 NIL=
42874 NIL=
43041 NIL=
0000082900
366
SIIN23 DEMS 110300
AAXX 11034
42634 32596 00000 10104 20036 40192
  333 20090 58029=
42647 31995 22902 10116 20061 40180 70500
  333 20104 58024 82070=
42737 32996 00504 10100 20042 40186
  333 20076 58015=
42840 31995 30202 10138 20099 40180 70500 80001
  333 20125 58021 83070=
42909 32996 40202 10118 20048 40184 80001
222// 20000
  333 20101 58021 84070=
42921 31995 20000 10110 20022 40179 70500 80001
  333 20069 58010 82075=
43003 31995 00000 10150 20078 40163 70400
  333 20136 58019=
43014 31995 20202 10132 20074 39494 40163 70544 80001
  333 20100 58012 82075=
43110 31996 00901 10204 20126 40152 70540
  333 20150 58010=
43117 32997 00702 10196 20121 40152
  333 20161 59002=
43192 31596 40503 10200 20167 40145 70500 81430
  333 20180 58006=
43063 NIL=
0000210500
367
SIIN24 DEMS 110300
AAXX 11034
43086 31596 81804 10226 20192 39976 40156 70522 84502
  333 10300 20198 59002=
43128 31496 71404 10202 20177 39547 40161 70522 84530
  333 10292 20188 56290 58007 84615 85360=
43150 31595 10000 10242 20202 30094 40169 71000 81500
222// 20000
  333 10287 20201 58001 81620=
43185 31596 41403 10250 20204 30156 40160 70521 82530
  333 10292 20210 58000 82620 83360=
43189 32597 39901 10246 20226 30157 40166 82502
  333 10300 20218 58010=
43198 32496 30000 10166 20135 39312 40155 82530
  333 10306 20126 56290 58002 82618=
43201 32997 02302 10196 20171 39415 40144
  333 10310 20164 58004=
43213 31596 69902 10214 20182 39839 40161 70522 83838
  333 10322 20193 56299 58005=
43226 32496 30902 10224 20202 30117 40147 84530
  333 10315 20200 58007=
43233 31896 40000 10204 20163 39334 40150 70510 84030
  333 10303 20154 58005=
43237 31996 41103 10228 20187 39760 40157 70500 82032
  333 10322 20197 58000 82360 84075=
43245 32997 10000 10234 20203 30137 40164 80001
  333 10307 20214 58002=
43279 31597 30000 10234 20197 30153 40171 70500 82501
  333 10306 20197 58004 82620=
43284 31596 50000 10240 20216 30023 40139 71042 82531
  333 10334 20222 58004 82620 83075=
43295 31997 30902 10184 20158 39130 48531 70500 80001
  333 10297 20169 58003 83075=
43311 32597 50505 10276 20238 40135 85400
  333 10334 20264 58007 85620=
43314 32597 51403 10256 20220 40141 83501
  333 10345 20246 58008=
43321 31495 80706 10214 20182 39714 40168 70522 82540
  333 10304 20210 58006 82615 86358=
43329 32597 23402 10220 20198 30145 40159 82500
  333 10300 20193 58007=
43344 31495 20208 10234 20197 30062 40163 70500 81501
  333 10302 20201 58008 81618=
43346 31596 43204 10232 20204 30149 40157 70511 82501
  333 10288 20213 58014 82620 84075=
43353 31995 40703 10256 20207 40147 70100 83071
  333 10330 20216 56099 58007 82458=
43369 32597 33602 10278 20255 40129 82502
  333 10315 20263 58006 82620=
43371 31996 00000 10238 20223 30064 40137 70500
  333 10320 20222 58009=
0000131100
368
SIIN44 DEMS 110300
AAXX 11034
43081 31996 00000 10216 20174 39718 40152 70500
  333 10324 20194 58006=
43105 32597 50000 10220 20195 30160 40167 83501
  333 10278 20185 58004=
43121 31596 09902 10210 20192 39634 40155 70500
  333 10318 20188 59002=
43181 31994 00000 10228 20213 30138 40166 71000
  333 10304 20198 58001=
43221 32996 00000 10230 20205 30145 40158
  333 10305 20201 59002=
43225 31596 30000 10214 20198 30148 40153 705// 83500
  333 10326 20194 58015=
43226 32496 30902 10224 20202 30117 40147 84530
  333 10315 20200 58007=
43303 31596 50000 10210 20194 39914 40161 70522 82530
  333 10306 20194 58001=
43311 32597 50505 10276 20238 40135 85400
  333 10334 20264 58007 85620=
43325 31596 50904 10224 20185 39839 40156 70522 81531
  333 10324 20183 58009=
43347 32597 33602 10234 20216 30143 40154 82501
  333 10289 20216 58007=
43352 32597 40000 10250 20220 40136 81101
  333 10320 20230 58006=
43360 31996 00203 10246 20196 30004 40154 70500
  333 10308 20216 58003=
43363 32597 63608 10254 20230 30141 40154 85601
  333 10289 20235 58012=
43087 NIL=
43125 NIL=
43136 NIL=
43161 NIL=
43169 NIL=
43177 NIL=
43205 NIL=
43241 NIL=
43271 NIL=
43287 NIL=
43291 NIL=
43317 NIL=
43326 NIL=
43376 NIL=
0000067100
369
SIIN52 DEMS 110300
AAXX 11034
42081 22496 20000 10034 20025 38959 48522 82700
  333 10148 20028 56400 58018 6015/ 82715=
42083 22997 00000 10010 21019 4////
  333 10108 20001 59006 6001/=
42101 31994 00000 10070 20061 40189 71000
  333 10186 20063 58011=
42131 31995 02701 10054 20045 40202 71000
  333 10200 20030 58017=
42475 21/92 90904 10160 20160 4//// 74344 89///
  333 10203 20150 58/// 6037/=
42479 21694 61404 10154 20152 40169 71062 84330
  333 10202 20146 59014 6021/ 84620 81930 86363=
42542 31595 80206 10098 20057 39591 40198 70522 8352/
  333 10184 20092 58022 83630 87458=
42071 NIL=
42112 NIL=
42367 NIL=
0000011600
370
SIIN52 DEMS 110300
AAXX 11033
42071 31994 00000 10018 20018 40202 71000
  333 10174 20004 58010=
0000008600
371
FCIN90 VAPO 110300
TAF VAPO  110300Z 1106/1115 28005KT 6000 SCT250  =

0000019600
372
FTIN90 VAPO 110300
TAF VAPO  110300Z 1106/1212 28005KT 6000 SCT250 FM 111500 VRB02KT FM 120100
3000 BR FM120400 4000 BR/HZ FM 120500 28006KT 6000 SCT250 TX 30/1109Z TN
13/1201Z  =

0000105800
373
SIIN90 VIJP 110300
AAXX 11034
42328 32996 30501 10076 20023 40203 83030
  333 10177 20055 58027 83360
  555 10000=
42170 31995 00000 10028 20018 40216 70500
  333 10203 20022 58025
  555 10000=
42343 31995 20504 10108 20024 40199 70500 80001
  333 10187 20098 58024
  555 10000=
42348 31995 30205 10114 20027 40188 70500 80001
  333 10200 20072 58019 83070
  555 10000=
42542 31595 80206 10098 20057 39591 40198 70522 8352/
  333 10184 20092 58022 83630 87458
  555 10000=
42435 32996 40000 10084 20022 40223 80001
  333 10210 20066 58033 84070
  555 10000=
42339 31995 60503 10096 20031 40204 70500 80001
  333 10217 20093 58035 86070
  555 10000=
42452 31993 03603 10118 20086 40195 74440
  333 10154 20114 58022
  555 10005=
42546 31/92 93603 10094 20086 40187 74544
  333 10183 20090 58022
  555 10000=
42540 32695 60903 10074 20019 43826 86650
  333 10160 20020 58023
  555 10000=
42165 31994 20000 10050 20026 40210 70500 80001
  333 10198 20042 58036 82070
  555 10000=
0000009700
374
SAIN90 VOMM 110330
METAR VOTK 110330Z 32004KT 5000 HZ FEW020 SCT025  26/24 Q1016=
0000015700
375
SIVX21 RJTD 110300
BBXX
SHIP    11033 99049 11429
41597 70926 10280 20253 40131 51022 703 22 86864
22233 00310 20304 326// 40403 80260=
00000000