0000039800
899
FCIN90 VOMM 111149
TAF VOMM 111200Z 1115/1124 09005KT 4000 HZ SCT020
     BECMG 1121/1122 00000KT 2000 BR
     TEMPO 1123/1124 0800 MIFG=
TAF VOTR 111200Z 1115/1124 04010KT 4000 HZ SCT020
     BECMG 1120/1121 05005KT 3000 HZ=
TAF VOCB 111200Z 1115/1124 09010KT 4000 HZ SCT 015
     BECMG 1121/1122 09005KT 3000 HZ=
TAF VOMD 111200Z 1115/1124 07010KT 4000 HZ SCT020=

0000099400
900
FCIN90 VANP 110000
TAF VANP 110000Z 1103/1112 00000KT 0800 FG VV///
     BECMG 1104/1106 23004KT 2000 BR FEW020
     BECMG 1107/1109 23005KT 4000 HZ FEW100=
TAF VABP 110000Z 1103/1112 00000KT 0200 FG VV///
     BECMG 1104/1106 36005KT 0500 FG VV///
     BECMG 1107/1109 36006KT 1000 BR VV///=
TAF VAID 110000Z 1103/1112 00000KT 0200 FG VV///
     BECMG 1104/1106 05005KT 0500 FG VV///
     BECMG 1107/1109 05004KT 1000 BR VV///=
TAF VARP 110000Z 1103/1112 00000KT 0800 FG VV///
     BECMG 1104/1106 02004KT 2000 HZ FEW090
     BECMG 1107/1109 20005KT 4000 HZ FEW020=
TAF VAJB 110000Z 1103/1112 00000KT 0200 FG VV///
     BECMG 1104/1106 23004KT 0500 HZ FEW090
     BECMG 1107/1109 23005KT 1000 BR VV///=
TAF VAKJ 110000Z 1103/1112 00000KT 0200 FG VV///
     BECMG 1104/1106 32005KT 0500 HZ FEW090
     BECMG 1107/1109 32004KT 1000 BR VV///=
TAF VIGR 110000Z 1103/1112 00000KT 0200 FG VV///
     BECMG 1104/1106 34005KT 0500 HZ FEW090
     BECMG 1107/1109 36005KT 1000 BR VV///=

0000258900
901
TCIN50 DEMS 110000

*SATELLITE BULLETIN BASED ON INSAT PIC OF 110000 UTC (.) *

*REGION COVERED BETWEEN LAT 50.0N TO 30.0S AND LONG 40.0E TO 125.0E
(.) *

*SALIENT FEATURES:- *
*WESTERN DISTURBANCE*:-

*BKN M/LAYERED CLOUDS OVER E J&K E HP UTRKND TIBET ADJ CHINA IN ASSW
WD
OVER THE AREA (.) *

*FOG*:-

*BKN FOG/LOW CLOUDS OVER NW MP SW PART OF E UP  E BD SE PART OF  SIK
AND
SCT OVER SE UTRKND  REST UP BHR ADJ JHRKND SHWB REST BD NE-STATES(.)*

*NORTH:- *

*SCT LOW/MED CLOUDS WITH EMBD ISOL WK CONVTN OVER EXT EASTERN PART OF
E
UP(.)SCT LOW/MED CLOUDS OVER REST J&K REST HP EXT N HARY REST UP (.)
*

*EAST**:-  *

*SCT LOW/MED CLOUDS WITH EMBDD ISOL WK CONVTN OVER BHR N  JHRKND E
NEPAL
EXT N CHTGH SHWB  ADJ ASSAM EXT NW BD ADJ MEGHA (.) SCT LOW/MED
CLOUDS OVER
SKM BHUTAN ARUPR REST ASSAM NAGA (.)*

*WEST:**-*

*BKN LOW/MED CLOUDS WITH EMBDD ISOL WK CONVTN OVER EXT NE MP(.)SCT
LOW/MED
CLOUDS OVER EXT SE RAJ AND ISOL OVER REST PARTS OF THE REGION(.)   *

*SOUTH:**-*

*SCT LOW/MED CLOUDS WITH EMBDD MOD TO INT CONVTN OVER NICOBAR
IDS(.)ISOL
LOW/MED CLOUDS OVER REST PARTS OF THE REGION(.) *

*BAY OF BENGAL & ANDAMAN SEA **:-*

*BKN LOW/MED CLOUDS WITH EMBDD MOD TO INT CONVTN OVER SE BAY(.)SCT
LOW/MED
CLOUDS WITH EMBDD ISOL WK CONVTN OVER EXT SOUTH ANDAMAN SEA(.)*

*ARABIAN  SEA :-**  SCT LOW/MED CLOUDS WITH EMBDD ISOL WK TO MOD
CONVTN
OVER  SE ARSEA BET LAT 5.0N TO 10.0N LONG 64.0E TO 71.0E AND BET LAT
9.0N
TO 10.0N LONG 74.5E TO 75.5E  (.) *



*OUTSIDE INDIA **:-*

*CLOUD DESCRIPTIONS OUTSIDE INDIA:-*

*VORTEX (COLIN) OVER S INDIAN OCEAN CENTRED NEAR 15.4S/80.9E (.)
INTENSITY
 T2.5 (.) ASSTD BKN LOW/MED CLOUDS WITH EMBDD MOD TO INT CONVEN OVER
S
INDIAN OCEAN BET LAT 10.0S TO 19.0S LONG 76.0E TO 85.0E(.)*

*BKN LOW/MED CLOUDS WITH EMBDD MOD TO INT CONVTN OVER SUMATRA ADJ W
COT STR
OF MALACCA MALAYA PENINSULA S CHINA SEA SOUTH OF LAT 11.5N SULU SEA S
ADJ
CENTRAL PHILIPPINES MINDANAO ADJ W PACIFIC BORNEO CELEBES SEA/IDS
JAVA
SEA/IDS MAKASSARSTR BANDA SEA FLORES SEA MADAGASCAR ADJ INDIAN OCEAN
C
MOZAMBIQUE CHANNEL INDIAN OCEAN BET LAT 5.0N TO 10.0S LONG 48.0E TO
80.0E
AND BET LAT 3.0N TO 2.0S LONG 87.0E TO 95.0E (.) *

*BKN M/LAYERED CLOUDS OVER N IRAQ IRAN CENTRAL SAUDI ARABIA PERSIAN
GULF
AND OVER AREA BET LAT 38.0N TO 45.0N LONG 59.0E TO 72.0E  IN ASSW
ANOTHER
WD OVER THE AREA (.) *

*NO SIG CLOUDS OVER WEST AUSTRALIA (.)*

*TOO: 11/0650EF=                 *=
0000049900
902
SMIN52 VIDP 110000
AAXX  11003
42027 21595 72502 10004 21001 38455 48542 70522 83520
        333 58039 6996/=
42044 22494 80000 11024 21034 38270 48519 887//
        333 58014 6008/=
42045 22696 53603 10024 21038 38394 48527 83130
        333 58025 6003/=
42056 31695 20501 10070 20032 39719 71000 82400
        333 58008=
42071 31993 20000 10054 20054 40187 74420 80001
        333 58010 82070=
42081   NIL=
42083   NIL=
42182 31992 02705 10080 20080 40175 74444
        333 59003=

0000264000
903
SMIN61 VOMM 110000
AAXX 11004
41941 NIL=
41950 NIL=
41953 NIL=
41960 NIL=
41963 NIL=
41964 NIL=
41977 NIL=
41984 NIL=
41989 NIL=
41992 NIL=
41998 NIL=
42803 NIL=
42807 31995 00000 10140 20129 40154 71000
  333 59004=
42809 31994 00000 10120 20105 40152 71000
  333 58003=
42810 NIL=
42811 NIL=
42812 NIL=
42895 31995 00000 10146 20120 40149 70500
  333 58002=
42900 NIL=
42901 31995 03601 10126 20115 40146 70500
  333 58004=
42970 NIL=
42971 31994 00502 10170 20146 40148 71000
  333 58001=
42973 31995 00000 10154 20140 40155 70500
  333 58002=
42976 NIL=
43049 31995 03602 10188 20178 40149 70500
  333 58004=
43053 32996 03603 10188 20165 40150
  333 58007=
43105 31596 30000 10190 20180 30135 40142 70500 82501
  333 58007=
43147 32996 03603 10220 20195 30123 40145
  333 58006=
43149 31494 39902 10194 20191 30138 40141 71000 83530
  333 58001 83018=
43181 31994 20000 10208 20195 30114 40142 71000 82030
  333 58006=
43184 NIL=
43185 31596 31401 10230 20199 30129 40133 70521 82530
  333 58004 82620=
43187 31596 20000 10206 20200 30131 40142 70500 82500
  333 58001=
43189 32996 30000 10228 20192 30135 40144 81502
  333 58006=
43220 32596 30000 10206 20197 30127 40135 83500
  333 58006=
43221 32996 00000 10218 20196 30124 40138
  333 58006=
43243 32596 10000 10214 20192 30116 40141 81500
  333 58001=
43245 NIL=
43279 32596 30000 10210 20194 30125 40143 82501
  333 58005 82620=
43309 NIL=
43310 NIL=
43329 31596 20000 10204 20188 30119 40133 70500 82500
  333 58006=
43331 31595 13202 10200 20194 30089 40133 70500 81500
  333 58003=
43333 31495 70504 10256 20233 40128 70522 84431
  333 56299 58009 82618 83820 85070=
43346 32596 50704 10238 20204 30121 40128 82502
  333 58012 82620 84075=
43347 32596 10502 10244 20207 30114 40125 81500
  333 58014=
43348 31895 63402 10200 20197 30126 40133 70522 82036
  333 58006=
43349 NIL=
43361 32596 30000 10216 20197 30127 40133 81501
  333 58008=
43363 32596 29902 10242 20215 30117 40130 81801
  333 58010=
43367 NIL=
43376 NIL=
43377 32996 00208 10238 20207 30079 40121
  333 58009=
43379 NIL=
43382 NIL=
43385 NIL=
43404 NIL=
43413 NIL=
43418 NIL=
43424 NIL=
43436 NIL=
43466 22970 20000 10234 20222 30096 40108 80001
  333 58009 60007 82080=
43495 NIL=
43497 NIL=
48062 NIL=
48071 NIL=
48080 NIL=
48094 NIL=
48097 NIL=
48103 NIL=
48107 NIL=
48108 NIL=
48110 NIL=
48112 NIL=
48565 31557 60000 10241 20225 30109 40120 52014 71021 81247
  333 20217 58022=
0000042700
904
SAIN33 VECC 110050
METAR VECC 110050Z 00000KT 0400 R19L/0500 RMID/0600 R01R/0700 FG NSC
12/11 Q1015 BECMG 0300 HZ=
METAR VEPT 110050Z 09007KT 0400 -TSRA SCT018 FEW030 OVC080 13/13
Q1016=
METAR VGEG 110050Z 00000KT 0100 FG SCT003 14/13 Q1014 NOSIG=
METAR VGHS 110050Z 00000KT 0400 FG BKN003 14/13 Q1014 TEMPO S/VIS
0200M=
METAR VNKT 110050Z 17004KT 2500 BR FEW015 SCT025 OVC100 06/03 Q1020
NOSIG=
0000011100
905
UANT01 CWAO 110127
ARP DAL470 4832N03746W 0127 F380 MS52 242/40 KT
N817NW DDL XXW 110127 J07A
0000013200
906
SNDL23 EDZW 110100 CCA
AAXX 11011
10815 47972 02101 11010 21011 39243 48464 57007 72030
  333 55300 20000 30000=
0000011000
907
UANT01 CWAO 110128
ARP AAL44 4552N04042W 0128 F350 MS50 292/42 KT
N371AA DDL XXW 110128 F65A
0000011000
908
UANT01 CWAO 110128
ARP UAL74 4834N05152W 0128 F370 MS65 304/56 KT
N17133 DDL YYT 110128 F30A
0000011000
909
UANT01 CWAO 110128
ARP BAW45B 4914N04424W 0128 F380 MS55 309/41 KT
GBNLK QXT AOW 110128 F13A
0000010300
910
SAQT99 OTBD 110130
METAR OTBD 110130Z 09011KT 9999 -RA SCT100 OVC120 19/16 Q1018 NOSIG=
0000011800
911
UPID01 WIIX 110000 RRC
PPAA 61004 96805 55385 24003 06003 10005 55340 02010 03013 36012
55120 04011=
0000216500
912
SZNZ01 NZKL 110136
CREX++
T000103 A001 D01021 D06025++
-3683144 17478654 AUCT  2014 01 11 01 28 //// 11 07 00 01
05527 3169 05537 3172 05542 3170 05550 3171 05556 3170 05565 3172+
-4402404 -17636748 CHIT  2014 01 11 01 28 //// 11 07 00 01
05399 2113 05400 2114 05400 2116 05405 2121 05397 2114 05407 2125+
-4089929 17623168 CPIT  2014 01 11 01 28 //// 11 07 00 01
04401 2233 04402 2234 04394 2225 04398 2228 04381 2211 04387 2217+
-3618905 17548887 GBIT  2014 01 11 01 28 //// 11 07 00 01
06190 0033 06193 0032 06187 0022 06190 0021 06214 0041 06239 0062+
-3867541 17802288 GIST  2014 01 11 01 28 //// 11 07 00 01
04523 2693 04535 2703 04523 2689 04534 2699 04524 2687 04548 2709+
-4241288 17370277 KAIT  2014 01 11 01 28 //// 11 07 00 01
03822 2141 03813 2132 03810 2130 03811 2132 03820 2142 03813 2135+
-3755040 17815904 LOTT  2014 01 11 01 28 //// 11 07 00 01
03939 0205 03943 0206 03958 0217 03962 0218 03960 0214 03968 0218+
-3704657 17451175 MNKT  2014 01 11 01 28 //// 11 07 00 01
01989 -0163 01999 -0157 01987 -0172 02010 -0154 02009 -0158 02023 -0148+
-3947566 17692007 NAPT  2014 01 11 01 28 //// 11 07 00 01
03538 1969 03537 1967 03559 1987 03525 1952 03544 1970 03530 1955+
-3441483 17304870 NCPT  2014 01 11 01 28 //// 11 07 00 01
-04399 -8936 -04416 -8958 -04398 -8945 -04371 -8924 -04335 -8893 -04313 -8876+
-4581435 17062939 OTAT  2014 01 11 01 28 //// 11 07 00 01
05114 3414 05112 3416 05102 3410 05093 3405 05089 3405 05086 3406+
-2928002 -17789440 RBCT  2014 01 11 01 28 //// 11 07 00 01
06274 1964 06277 1965 06293 1979 06303 1985 06285 1964 06293 1970+
-2925114 -17790384 RFRT  2014 01 11 01 28 //// 11 07 00 01
03242 0162 03260 0177 03255 0169 03272 0184 03262 0171 03263 0169+
-4357010 17277383 SUMT  2014 01 11 01 28 //// 11 07 00 01
02715 1836 02709 1832 02718 1843 02702 1829 02692 1821 02691 1822+
-3764109 17618118 TAUT  2014 01 11 01 28 //// 11 07 00 01
05399 3970 05402 3969 05413 3976 05411 3969 05415 3969 05418 3968+
-4128448 17477985 WLGT  2014 01 11 01 28 //// 11 07 00 01
03616 2038 03614 2037 03620 2043 03610 2033 03604 2028 03592 2016++
7777
0000011100
913
UANT99 KDDL 110134
ARP DAL466 5551N04050W 0133 F330 MS61 288/21 KT
N197DN QXT AOW 110134 F65A
0000026800
914
UHBZ02 SBBR 110000
PPCC ///// 82397 NIL=
PPCC ///// 82400 NIL=
PPCC 61008 82599 44270 35019 29504 77999=
PPCC ///// 82678 NIL=
PPCC ///// 82900 NIL=
PPCC ///// 82983 NIL=
PPCC ///// 83229 NIL=
PPCC ///// 83288 NIL=
PPCC ///// 83498 NIL=
0000053000
915
UHBZ01 SBBR 110000
PPCC 61008 82022 44370 26039 26533 28024 77999=
PPCC ///// 82026 NIL=
PPCC 61008 82099 44270 26530 28529 77999=
PPCC ///// 82107 NIL=
PPCC 61008 82193 44370 28014 27526 28023 77999=
PPCC 61008 82244 44270 28514 27531 77999=
PPCC 61008 82281 44270 31017 25520 77999=
PPCC 61008 82332 ///// 77999=
PPCC ///// 82411 NIL=
PPCC 61008 82532 44270 31501 27511 77999=
PPCC 61008 82705 ///// 77999=
PPCC ///// 82765 NIL=
PPCC 61008 82917 44370 05011 30005 07009 44120 11537 77999=
0000028000
916
UHBZ03 SBBR 110000
PPCC 61008 83525 44370 10514 09027 09523 77999=
PPCC ///// 83566 NIL=
PPCC 61008 83649 44370 09017 07026 11029 77999=
PPCC ///// 83650 NIL=
PPCC 61008 83746 44370 05526 05516 11033 77999=
PPCC 61008 83779 44370 08514 08515 10533 77999=
0000013600
917
SNVD17 CWVR 110100
BBXX
46004 11011 99509 71361 46/// /2612 10085 49799 57037
22200 00080 11008 70042 333 91216 =

0000032400
918
USYG01 LYBM 110000
TTAA 11001 13275
99998 06844 11001 00189 ///// ///// 92827 04257 00504
85510 00339 28505 70042 08162 30015 50561 19968 30017
40723 31170 29516 30920 475// 29024 25038 563// 29528
20177 629// 30530 15355 625// 30531 10604 619// 30532
88206 637// 29531
77999
31313 48008 82303=
00000000