0000171100
436
SMVD15 KWNB 111200 RRC
BBXX
42003 11121 99260 70856 46/// /2008 10259 40160 55000 91150 22200
00251 10602 20602 70010 333 91210 555 11087 22094 31137 41910
61149 195082 192080 194072 184051 173060 172059 81909 91136=
42055 11121 99222 70940 46/// /0201 10226 40154 53014 91150 22200
00228 10802 20401 306// 40802 70011 333 91201 555 11009 22010
31131 43502 61149 021009 353013 021009 041001 308002 180001 83502
91131=
41047 11121 99275 70715 46/// /1209 10241 20232 40239 53006 91150
22200 00255 10904 20803 311// 40903 70021 333 91210 555 11092
22097 31133 41110 61149 118087 120076 134076 130079 126079 125079
81209 91142=
42057 11121 99170 70815 46/// /0909 10274 20224 40152 51011 91150
22200 00275 10904 20704 311// 40901 70019 333 91211 555 11097
22104 31131 40811 61149 088092 085093 086089 084073 077078 074085
80910 91137=
42039 11121 99288 70860 46/// /1908 10216 20216 40150 55003 91150
22200 00211 10502 20502 3//// 40701 70009 333 91210 555 11088
22095 31136 41911 61149 188083 185087 181083 176090 175090 171084
81710 91104=
41048 11121 99320 70695 46/// /1410 10206 20163 40265 55000 91150
22200 00213 10904 20603 313// 40902 70018 333 91212 555 11105
22111 31124 41312 61149 136097 137096 138100 135102 133096 133098
81311 91125=
41040 11121 99145 70530 46/// /0608 10249 20206 40174 53026 91150
22200 00262 11405 20703 302// 41404 70027 333 91210 555 11086
22090 31123 40713 61149 064081 066085 072099 073095 069089 072085
80711 91120=
44066 11121 99396 70726 46/// /1711 10137 20135 40166 58033 91150
22200 00111 10402 20402 317// 40901 70011 333 91213 555 11118
22129 61149 168108 170104 167104 164099 168098 167093=
0000013600
437
SMBE01 TXKF 111202
AAXX 11124 78016 32564 40912 10171 20121 30307 40311 52002 
83801 333 10188 20164 70000 =



0000024400
438
SMVD15 KWNB 111200 RRD
BBXX
41009 11121 99285 70802 46/// /1908 10239 20220 40183 55000 91150
22200 00239 10903 20602 308// 40902 70015 333 91209 555 11081
22087 31143 41809 61149 185075 184075 183071 182066 179061 181058=
0000024400
439
SMVD17 KWNB 111200 RRC
BBXX
51101 11121 99243 71621 46/// /0612 10226 20196 40142 57016 91150
22200 00237 11009 20707 306// 41006 70044 333 91215 555 11126
22134 31053 40515 61149 056117 047112 054118 059125 057125 061121=
0000043300
440
UDEU02 EGRR 111206 RRG
AMDAR 1111
LVR EU0230   6134N 00435W 111128 F350 MS452 250/018 TB/ S031=
LVR EU0230   6126N 00234W 111135 F350 MS465 256/016 TB/ S031=
LVR EU0230   6116N 00034W 111142 F350 MS450 267/016 TB/ S031=
LVR EU0230   6042N 00103E 111149 F350 MS457 257/022 TB/ S031=
LVR EU0230   6006N 00235E 111156 F350 MS465 244/021 TB/ S031=
LVR EU0230   5929N 00404E 111203 F350 MS462 256/029 TB/ S031=
0000012500
441
SMBE01 TXKF 111202
AAXX 11124 78016 32564 40912 10171 20121 30307 40311 52002
83801 333 10188 20164 70000 =
0000009600
442
SMAA01 KWBC 111200
AAXX 11121
89504 43/// /0305 11033 21119 38462 49921 50004=
0000066100
443
UDAF01 FAPR 111200
AMDAR 1112
LVR AFZA26 3812N 06913W 111126 F380 MS630 292/095 TB0 S031 333 F/// VG011=
LVR AFZA26 3823N 07005W 111133 F380 MS626 282/087 TB0 S031 333 F/// VG012=
LVR AFZA26 3843N 07054W 111140 F380 MS620 280/084 TB0 S031 333 F/// VG011=
LVR AFZA26 3905N 07143W 111147 F380 MS624 274/086 TB0 S031 333 F/// VG011=
LVR AFZA26 3927N 07232W 111154 F223 MS235 238/073 TB0 S031 333 F/// VG011=
DES AFZA26 3934N 07246W 111156 F181 MS150 236/040 TB0 S031 333 F/// VG011=
DES AFZA26 3938N 07255W 111157 F158 MS105 224/040 TB0 S031 333 F/// VG012=
DES AFZA26 3942N 07304W 111159 F137 MS062 218/044 TB0 S031 333 F/// VG012=
0000035300
444
UDAF01 FAPR 111200
AMDAR 1112
DES AFZA03 3344S 01837E 111154 F033 PS146 094/005 TB0 S031 333 F/// VG000=
ASC AFZA03 3348S 01833E 111156 F029 PS142 178/013 TB0 S031 333 F/// VG000=
DES AFZA03 3354S 01834E 111158 F018 PS153 180/011 TB0 S031 333 F/// VG000=
DES AFZA03 3358S 01835E 111160 F004 PS192 181/013 TB0 S031 333 F/// VG000=
0000026800
445
SMCU01 KWBC 111200
AAXX 11121
78229 12559 21004 10213 20194 30114 40190 54000 60004 82202 333
82830=
78255 12959 00902 10183 20171 30048 40197 52010 60004 333 20175=
78264 12559 23503 10203 20178 30111 40186 52020 60004 82200 333
20201 82820=
0000333600
446
SMMX01 KWBC 111200
AAXX 11121
76040 32920 03101 10079 20052 30188 40202 52003 91150 333 10248
20042 30/// 58022 70000 98620=
76220 31920 00000 11052 2//// 38184 40279 52010 702// 91150 333
10184 21052 31080 58/// 70000 96126=
76225 32920 02901 10052 21034 38644 40171 5//// 91145 333 10215
20052 30000 58055 70000=
76256 32960 00000 10108 20086 30165 40179 5//// 91145 333 10276
20078 30/// 58021 70000=
76258 32/50 /0205 10100 20074 3//// 4//// 5//// 91150 333 10276
20094 30056 56000 58/// 70000=
76342 32940 01802 10130 20038 39468 40183 52023 91150 333 10275
20125 30120 58042 70000=
76382 32960 01101 10094 20072 38925 40198 52010 91145 333 10244
20081 30068 58050 70000=
76390 31950 01601 10056 21033 38251 40211 52012 70544 91148 333
10210 20040 30032 58057 70000=
76412 32960 00000 10110 20082 30121 40108 57013 91150 333 10270
20100 30/// 58012 70000=
76458 32960 03502 10160 20127 30141 40146 54000 91142 333 10271
20142 30116 58013 70000=
76525 32960 03104 10085 21059 37478 40162 52003 91145 333 10138
20062 30056 58037 70000=
76539 32958 03601 10065 20055 38163 40200 57005 91150 333 10233
20063 30035 59006 70000=
76548 32860 51301 10182 20179 30145 40155 53009 85030 91145 333
10282 20180 30178 56050 59005 70000 85358=
76556 32960 61802 10120 20077 39122 40126 52008 86050 91145 333
10266 20115 30089 56050 58023 70000 86360=
76577 32560 70000 10110 20100 38058 40163 52006 87500 91140 333
10220 20111 30102 56500 59022 70000 87620=
76585 32980 00000 10160 20154 39991 40149 52009 91140 333 10256
20159 30146 55067 59003 70000=
76593 32960 01402 10204 20201 30147 40149 57001 91150 333 10302
20202 30200 59013 70000=
76632 31930 43401 10070 20052 37716 40171 52009 70500 80007 91145
333 10210 20068 30/// 56001 58018 70000 84271 96122=
76640 31010 60000 10188 20185 30149 40161 52008 71044 8322/ 91140
333 10254 20174 30172 5655/ 59006 70000 83801 83440=
76654 31956 03601 10224 20189 30131 40135 57005 70544 91150 333
10306 20222 30208 58015 70000=
76675 32960 02001 10011 21001 37383 40209 54000 91145 333 10193
21002 31031 58011 70000=
76683 32960 00000 10064 20042 37838 40182 5//// 91150 333 10216
20062 30035 58011 70000=
76685 32950 00000 10078 20054 37869 40143 55000 91145 333 10230
20078 30038 58007 70000=
76687 32960 02001 10124 20087 38674 40169 52009 91145 333 10242
20102 30095 59004 70000=
76692 31/08 90000 10193 20190 30124 40143 53008 74744 91145 333
10279 20191 30183 59012 70000=
76737 32980 03401 10124 20094 38766 40154 52009 91145 333 10242
20124 30083 59007 70000 91102 91534=
76741 31930 01001 10198 20197 30104 40123 53005 71004 91145 333
10277 20189 30187 59013 79999=
76743 31940 03401 10200 20185 30129 40137 52007 70200 91145 333
10250 20200 30195 59013 70000=
76750 32558 11201 10226 20215 30137 40147 52007 81100 91145 333
10310 20168 30165 56300 59009 79999 81820=
76775 32960 00501 10128 20093 38531 40170 52009 91145 333 10306
20116 30/// 58008 70000=
76805 32960 03201 10222 20197 30127 40130 53004 91145 333 10351
20212 30205 58009 70000=
76840 32910 00000 10200 20194 30074 40131 52007 91145 333 10275
20155 30/// 55095 59020 70000=
76855 32980 03403 10238 20181 30079 40130 5//// 91145 333 10330
20216 30/// 55010 58013 70000 92000=
0000021800
447
SAJD20 OJAI 111200
METAR OJAI 111200Z 29012KT 9999 SCT030 12/06 Q1023 NOSIG=
METAR OJAM 111200Z 33010KT 5000 HZ BKN025TCU 12/04 Q1022 NOSIG=
METAR OJAQ 111200Z 35008KT 9999 SCT030 18/07 Q1023 NOSIG=
0000203700
448
SMSQ01 LZIB 111200
AAXX 11121
11812 36/// /1604 10059 21025 39495 42799 57015=
11813 16/// /9901 10067 21000 39845 40195 57015 60001=
11816 12980 69901 10070 20021 30035 40200 58016 60001 82041
  333 82361 86070=
11819 16/// /0000 10050 20020 39984 40203 57016 69911=
11826 12670 59901 10051 20005 30005 40208 57012 60001 82541
  333 82640 85070=
11841 12582 62604 10066 21004 39816 40194 58019 60001 81102
  333 81828 86071=
11855 12670 50602 10069 20012 30037 40204 58015 60001 82501
  333 82643 85070=
11856 36/// /1102 10061 20007 39885 40206 57013=
11858 12975 49902 10097 20006 30049 40200 58017 60001 80001
  333 84070=
11867 12784 69902 10061 20008 39881 40200 57017 60001 83542
  333 83656 86070=
11880 12775 60000 10067 20018 30032 40205 57015 60001 81542
  333 81650 86070=
11900 16/// /2801 10047 21009 39866 40205 57016 60001=
11903 12682 40000 10045 20003 39817 40202 57018 60001 81102
  333 81845 83070=
11916 11/80 52405 11072 21075 37947 48455 58004 69901 70374 82542
  333 826// 85066 91010 93535
  444 26//8=
11918 12686 62404 10031 21035 39362 42791 58008 60001 83246
  333 83845 85270=
11927 12775 52102 10062 20015 39938 40202 57015 60001 82502
  333 82650 85070=
11930 12589 53207 11074 21339 37310 47980 56004 60001 81041
  333 81326 85060 91015 91122
  444 26205=
11933 12488 52603 11014 21056 38647 48462 58007 60001 81542
  333 81613 85070=
11934 12686 62607 10036 21048 39359 42791 57011 60001 81141
  333 81840 86070=
11938 12582 42306 10023 21036 39114 42785 58011 60001 82842
  333 81830=
11952 16/// /2906 10035 21040 39345 42786 57015 60001=
11958 36/// /2003 10003 20001 3//// 4////=
11968 11480 39901 10050 20015 39921 40205 57012 60001 70141 82601
  333 82713=
11976 11335 81803 10006 21007 39942 40214 58006 60001 71022 886//
  333 88708=
11978 11215 80901 10000 21003 30083 40218 58005 60001 71042 886//
  333 88706=
11993 12463 61903 10029 21000 39992 40213 58010 60001 86201
  333 86815=
0000066100
449
UDAF01 FAPR 111200
AMDAR 1112
DES AFZA03 3353S 01834E 111157 F021 PS155 152/006 TB0 S031 333 F/// VG000=
DES AFZA03 3354S 01834E 111158 F018 PS153 180/011 TB0 S031 333 F/// VG000=
DES AFZA03 3355S 01834E 111158 F015 PS157 181/014 TB0 S031 333 F/// VG000=
DES AFZA03 3356S 01835E 111159 F012 PS167 188/013 TB0 S031 333 F/// VG000=
DES AFZA03 3356S 01835E 111159 F009 PS180 160/007 TB0 S031 333 F/// VG000=
DES AFZA03 3357S 01835E 111159 F006 PS185 178/013 TB0 S031 333 F/// VG000=
DES AFZA03 3358S 01835E 111160 F004 PS192 181/013 TB0 S031 333 F/// VG000=
DES AFZA03 3359S 01836E 111200 F001 PS200 169/012 TB0 S031 333 F/// VG000=
0000046000
450
SMSQ10 LZIB 111200
AAXX 11121
11816 12980 69901 10070 20021 30035 40200 58016 60001 82041
  333 82361 86070=
11826 12670 59901 10051 20005 30005 40208 57012 60001 82541
  333 82640 85070=
11903 12682 40000 10045 20003 39817 40202 57018 60001 81102
  333 81845 83070=
11934 12686 62607 10036 21048 39359 42791 57011 60001 81141
  333 81840 86070=
11968 11480 39901 10050 20015 39921 40205 57012 60001 70141 82601
  333 82713=
0000019900
451
SMCD01 FTTJ 111200
AAXX 11124
64700 32960 50410 10280 20008 39799 40133 80002
  333 0//00 59003 85075=
64750 32965 70604 10320 20016 39714 40122 80002
  333 0//00 58028 87075=
0000031900
452
USGO01 FOOL 111200
TTAA 61111 64500 99012 28442 20008 00116 26227 19007 92792 22407
11505 85523 18405 04504 70158 10249 07526 50588 03731 19011 40760
15942 23015 30972 31958 21018 25098 415// 20523 20238 563// 16028
15417 713// 12034 10655 805// 10026 88111 801// 09033 77999 31313
45708 81044 =
0000054200
453
SMBU01 LZSO 111200
AAXX 11121
15502 12970 11402 10146 20020 30185 40224 58007 60001 81050 333 10146
20010 555 543//=
15552 12970 32906 10118 20013 30169 40218 58020 60001 80001 222//
00088 2//00 333 10125 20048 555 549// 92015 92418=
15614 12662 20000 10076 20014 39525 40233 57011 60001 82101 333 10082
21008 555 565//=
15615 11/86 22706 11045 21076 37134 47075 58004 60001 70300 81501 333
11036 21054 555 579//=
15730 11620 20000 10088 20016 39826 40224 58021 60001 70541 82201 333
10092 20011 555 561//=
0000021800
454
SAJD20 OJAM 111200
METAR OJAI 111200Z 29012KT 9999 SCT030 12/06 Q1023 NOSIG=
METAR OJAM 111200Z 33010KT 5000 HZ BKN025TCU 12/04 Q1022 NOSIG=
METAR OJAQ 111200Z 35008KT 9999 SCT030 18/07 Q1023 NOSIG=
0000016800
455
SMID20 WIIX 110600 RRB
AAXX 11064
96075 01458 70806 10290 20250 30093 40104 57009 69981 72162 85971
  333 56000 57901 69987 82915 83815 80965 80856=
00000000