0000011100
096
UANT99 KDDL 110338
ARP AWE716 4626N04319W 0338 F370 MS54 311/49 KT
N274AY DDL XXN 110338 J10A
0000011000
097
UANT99 KDDL 110338
ARP DLH443 5500N01533W 0338 F380 MS48 236/67 KT
DAIKO QXT EUA 110338 J31A
0000011100
098
UANT99 KDDL 110338
ARP UAL956 5010N02843W 0338 F370 MS54 207/55 KT
N667UA DDL XXW 110338 F51A
0000017000
099
SOVI10 KWAL 110341
B110070A 011034101"P9751095 B\P~W@@d0ekC1@qg???CoCt>@qh3@ED@@O4Ct5DC6bW9KG<BH2?????@"??? iTCfLBmBlBnBmBpBi:AMPTEMP 27.29C  46-0NN 219E
0000013600
100
SIVD17 CWHX 110300
BBXX
44137 11031 99423 70620 46/// /2805 10045 40312 57013
22200 00076 10702 70011 333 91206 =

0000020600
101
SOBR10 KWAL 110341
BAB00078?011034111 :BUB 2 #1       M   0.449   0.429   0.449 :RAD 1 #1   0.330   0.340   0.329   0.311 :PRS 1 #1  -0.817  -`ol$F$uZO{oFD]]RgsEm`wg?3_dNSDhw	% 30+0NP 219E
0000011000
102
UANT99 KDDL 110339
ARP DLH411 5139N02435W 0339 F390 MS54 219/72 KT
DAIKN QXT EUA 110339 J93A
0000010700
103
UANT99 KDDL 110339
ARP UAL966 53N020W 0339 F360 MS60 234/74 KT
N672UA DDL XXN 110339 F59A
0000011100
104
UANT99 KDDL 110339
ARP AAL100 5033N03236W 0339 F340 MS54 200/58 KT
N725AN DDL XXW 110339 F38A
0000013200
105
UXIN90 VECC 110000 RRB
TTAA 6100/ 42724 NO TEMP MESSAGE RECEIVED DUE TO
COMMUNICATION FAILURE WITH KUMBHIGRAM(VEKU)=
0000011000
106
UANT99 KDDL 110339
ARP UAL68 5901N01953W 0339 F350 MS51 217/35 KT
N17105 DDL H07 110339 F78A
0000011000
107
UANT99 KDDL 110339
ARP AFL103 5343N04449W 0339 F330 MS60 313/62 KT
VQBPK QXT AME 110339 J20A
0000036100
108
SIRA40 RUHB 110300
AAXX 11031
31152 41997 83201 11347 21391 39871 40331 58003 77172 8802/=
31163 NIL=
31285 42999 72002 11282 21328 30136 40224 58001 80009=
31561 42998 62101 11313 21365 30161 40190 58002 80004=
31683 42999 02101 11230 21287 30068 40149 57017=
32069 42598 63004 11183 21216 30120 40125 58010 86900 333 91005
91106=
0000014200
109
SIUZ20 UTTW 110300 CCA
AAXX 11031
38812 31996 53401 11045 21061 39784 40260 57004 71011 80001 555 21045
50014 53004 7000/=
0000038600
110
SIKN20 HKNC 110300
AAXX 11034
63688 42980 11010 10096 20080 48574 80001 333 58007 82076=
63740 42980 23603 10142  20123 48519 82030  333 58001 82359=
63820 42480 53305 10245 20222 40129 85200 333 58006 85818=
63612 NIL=
63641 NIL=
63661 NIL=
63671 NIL=
63695 NIL=
63708 NIL=
63714 NIL=
63717 NIL=
63720 NIL=
63723 NIL=
63772 NIL=
63793 NIL=
0000022100
111
SIKN20 HKNC 110300
AAXX 11033
63641 42980 01825 10182 20090 48442 333 58002=
63661 42980  00000 10112 20087 48530  333 58004=
63793 42380 70000 10210 20203 40147 72052 875// 333 58005 83706
 87618=
0000011100
112
UANT01 CWAO 110339
ARP DAL176 4907N04456W 0339 F370 MS60 321/59 KT
N1604R QXT AOW 110339 F23A
0000011000
113
UANT01 CWAO 110339
ARP DLH441 5033N05212W 0339 F380 MS67 305/58 KT
DAIMH QXS YAY 110339 J87A
0000011100
114
UANT01 CWAO 110339
ARP UAL946 4823N03821W 0339 F360 MS51 269/21 KT
N659UA DDL XXW 110339 F40A
0000011100
115
UANT01 CWAO 110339
ARP BAW176A 4809N03921W 0339 F400 MS52 271/42 KT
GZZZC QXT AOW 110339 F14A
00000000