0000044500
179
SXXX32 EUMS 110100 RRC
324DF524
:PRS 1 /1 1806 1809 1810 1812 1815 1816 1818 1821 1824 1826 1827 1830 1832 1835 1837 1840 1843 1845 1848 1850 1853 1855 1858 1861 1863 1866 1869 1872 1875 1878 :RAD 1 /3 1801 1808 1815 1824 1831 1838 1846 1856 1865 1875 1885 1893 1901 1909 1922 1933 1946 1955 1967 1978 :ENC 5 /5 765 777 790 804 818 832 847 863 880 896 913 932 :SW1 60 /60 0 0 :SW2 30 /60 60 60 :BAT 14 /15 12.2 :NAME 324DF524 /
0000005200
180
RRIN23 VIDP 110102
RQRPT 363-384=

0000045100
181
SXXX32 EUMS 110100 RRB
16289262
:PRS 1 /1 2537 2541 2532 2531 2531 2534 2544 2525 2541 2528 2521 2523 2528 2537 2537 2528 2544 2532 2531 2524 2531 2529 2526 2527 2538 2515 2505 2518 2530 2520 :RAD 1 /3 7984 7986 7986 7981 7976 7975 7975 7975 7971 7971 7972 7974 7974 7975 7973 7971 7967 7966 7968 7965 :ENC 5 /5 5368 5361 5367 5355 5347 5347 5347 5350 5337 5341 5341 5344 :SW1 60 /60 0 :SW2 30 /60 0 :BAT 14 /15 12.5 :NAME 16289262 /
0000048500
182
SXXX32 EUMS 110100 RRD
22BF90A6
:PRS 1 /1 9/4 987 988 986 984 987 984 985/982 987 984/984 987/986 983 :RAD 1//3 4170 4167 4569 4570 4166 4566 4166 4164 4159 4159 :SW1 60 /60 0/:SW2 30//60 60 :WTP 15 /15 29.5 :BAT 13 /15 12.7 :WAV 10 /10 4.8 4.9 4.9 :DAV 10 /10 107 109 108 :WMX 10 /10 5.9 6.1 6.0 :TPA 15 /15 2/.1 :TMN 60 /720 27.1 :TMX 64 /720 28.1 :HUM 15 /15 80.5 :TRA 15 /15 1014.8 :RAC 59 /60 0.0 :RDU 59 /60 0 :RIN 59 /60 0.0 :DAC 59 /1440 0.4 :DDR 59 /1440 330
0000024100
183
SOAT10 KWAL 110103
FA8005BC 011010337 OT12 ID:KN-BASS-01 DT:2014 01 11 01 01
:RD -3302 -3268 -3273 -3302 -3259 -3263 -3280 -3277 -3282 -3266
:PR 0412 0293 0362 0372 0350 0335 0396 0362 0332 0433
:B 13.6V
 42+0NP 219E
0000010300
184
SACN45 CWAO 110100
METAR CYFS 110100Z 31002KT 15SM OVC100 M23/M24 A2968 RMK AC6 SLP074=
0000011500
185
SACN31 CWAO 110100
METAR CYQY 110100Z 19005KT 15SM FEW120 SCT210 M06/M10 A3031 RMK
AC2CI1 SLP271=
0000015700
186
SSVX13 LFPW 110100
ZZYY 16593 11014 0100/ 338663 079068 6113/ 11119 40194 52017 22219
 00146 444 20130 11014 0057/ 50101 80120 80016 9/015=
0000038500
187
SSVX13 LFPW 110100
ZZYY 61690 11014 0100/ 142764 029507 6113/ 11119 40206 52020 22219
 00093 33300 88870 20000 30932 20011 30938 20013 30936 20016 30932
 20021 30932 20025 30940 20030 30936 20035 30936 20040 30932 20045
 30900 20049 30844 20054 30800 20059 30788 20064 30788 20069 30792
 20074 30800 20079 30804 444 20131 11014 0057/ 50101 80102 80027
 9/015=
0000016300
188
SSVX13 LFPW 110100
ZZYY 13595 11014 0100/ 730257 019486 6113/ 22219 00199 33300 88872
 20000 43682 444 20130 11014 0057/ 50101 80108 80032 9/015=
0000015700
189
SSVX13 LFPW 110100
ZZYY 61688 11014 0100/ 144050 029477 6113/ 11119 40197 52015 22219
 00087 444 20131 11014 0057/ 50101 80090 80015 9/015=
0000358500
190
SNFR30 LFPW 110100
AAXX 11014
07005 24/60 /1409 10040 20030 30071 40163 58009 700//
  333 60005 90710 91113=
07015 24357 81909 10042 20029 30109 40167 57008 700//
  333 60005 90710 91117=
07020 26/// /2013 10090 20076 30131 40158 58002
  333 60005 90710 91198=
07027 24626 81706 10055 20049 30080 40163 57004 761//
  333 69965 90710 91107=
07037 24/04 91304 10047 20044 39979 40166 58010 745//
  333 60005 90710 91111=
07072 24/01 91102 10009 20009 30059 40178 56012 745//
  333 60005 90710 91104=
07110 22350 71806 10074 20071 30041 40157 50002 878//
  333 60005 81806 87645 90710 91107 93100=
07117 26/// /2108 10077 20057 30084 40155 50000
  333 60005 90710 91112=
07130 24240 80303 10071 20070 30109 40162 50002 758//
  333 69905 90710 91104=
07139 24146 80000 10056 20055 39988 40165 57003 760//
  333 69965 90710 91104=
07149 21115 80603 10056 20050 30059 40170 58006 76066 886//
  333 69945 88702 90710 91106 93100=
07168 24929 81602 10022 20022 30023 40170 58016 710//
  333 60005 90710 91104=
07181 24961 /1406 10019 20015 39764 40186 58010 700//
  333 60005 90710 91108=
07190 24925 /0000 11007 21011 30006 40196 58006 710//
  333 60005 90710 91104=
07207 26/// /3406 10081 20075 30111 40164 53006
  333 60005 90710 91109=
07222 24740 80503 10083 20075 30121 40153 58003 710//
  333 69905 90710 91104=
07240 24957 80104 10064 20053 30021 40158 53001 700//
  333 60005 90710 91108=
07255 24962 80906 10058 20044 39957 40160 57004 700//
  333 60005 90710 91108=
07280 24960 83002 10016 20009 39901 40183 58010 700//
  333 60005 90710 91103=
07299 24964 /1604 10025 20015 39858 40195 58008 700//
  333 60005 90710 91106=
07314 26/// /2203 10103 20091 30127 40155 50002
  333 60005 90710 91104=
07335 24960 80000 10069 20058 30007 40154 55000 700//
  333 60005 90710 91104=
07434 24972 82405 10080 20049 39683 40165 53010 700//
  333 60005 90710 91109=
07460 24961 82502 10043 20030 39766 40163 57008 700//
  333 60005 90710 91106=
07471 24970 82802 10024 21007 39200 48789 58005 700//
  333 60005 90710 91104=
07481 22458 51306 10080 20069 39889 40179 57005 81501
  333 60005 81613 85070 90710 91111 93100=
07510 214// 52304 10077 20074 30100 40159 51005 71011 85502
  333 60005 85612 90710 91107 93100=
07535 24969 81302 10071 20051 39855 40171 53009 700//
  333 60005 90710 91104=
07558 24/69 /1410 10062 20050 39343 40183 58003 700//
  333 60005 90710 91117=
07577 24/57 /1606 10089 20072 30110 40201 51002 700//
  333 60005 90710 91108=
07591 24/// /0214 10062 21012 39184 4//// 58004 700//
  333 60005 90710 91121=
07607 24456 83002 10065 20065 30097 40170 52013 700//
  333 60005 90710 91103=
07621 24357 82407 10085 20066 39740 40176 51022 700//
  333 60005 90710 91115=
07627 24911 /0000 10026 20020 39675 40181 53012 710//
  333 60005 90710 91102=
07630 24460 81510 10097 20071 39983 40164 52004 700//
  333 60005 90710 91117=
07643 24659 80204 10107 20079 30188 40198 55000 700//
  333 60005 90710 91107=
07650 24583 80906 10125 20076 30161 40200 57001 700//
  333 60005 90710 91108=
07661 26/// /0510 10111 20083 30041 40203 50000
  333 60005 90710 91113=
07690 22570 83309 10099 20053 30182 40214 53002 885//
  333 60005 88629 90710 91112 93100=
07747 24956 60204 10087 20068 30128 40182 58004 700//
  333 60005 90710 91105=
07761 24477 /0506 10057 20047 30195 40206 53002 700//
  333 60005 90710 91108=
07790 24556 82202 10113 20092 30198 40213 55004 700//
  333 60005 90710 91103=
0000148500
191
SNFR31 LFPW 110100
AAXX 11014
07024 24127 81911 10066 20063 39987 40154 58003 710//
  333 60005 90710 91116=
07031 24560 82105 10057 20051 39988 40164 58006 760//
  333 69905 90710 91112=
07100 26/// /2410 10099 20075 30070 40153 52003
  333 60005 90710 91115=
07103 26/// /2108 10093 20090 30059 40157 51003
  333 60005 90710 91110=
07107 26/// /1808 10083 20072 30133 40155 50002
  333 60005 90710 91112=
07118 24729 81604 10055 20054 30053 40160 50002 710//
  333 60005 90710 91105=
07120 24944 /2303 10061 20054 39993 40158 54000 710//
  333 60005 90710 91105=
07125 24116 81702 10068 20062 30090 40161 50000 761//
  333 69905 90710 91106=
07134 24110 80204 10062 20061 30038 40161 50001 710//
  333 69905 90710 91104=
07200 26/// /2103 10093 20084 30137 40160 51004
  333 60005 90710 91104=
07201 24/00 90000 10074 20071 30048 40163 51003 745//
  333 60005 90710 91104=
07203 26/// /3402 10081 20077
  333 60005 90710 91105=
07205 24/01 93601 10073 20070 30110 40164 53004 745//
  333 60005 90710 91105=
07217 24530 81105 10076 20072 30148 40152 58004 710//
  333 60005 90710 91107=
07230 24/19 /0202 10066 20063 30099 40158 51001 710//
  333 69925 90710 91104=
07235 24750 83604 10068 20061 30099 40163 50000 761//
  333 69925 90710 91106=
07300 26/// /2405 10103 20091 30113 40152 57002
  333 60005 90710 91107=
07306 24857 80000 10078 20069 30046 40155 50000 700//
  333 69925 90710 91102=
0000113000
192
SNFR32 LFPW 110100
AAXX 11014
07140 24105 80505 10057 20053 30007 40163 58008 744//
  333 60005 90710 91107=
07143 24110 80804 10056 20052 39972 40162 58011 760//
  333 69925 90710 91106=
07145 24/33 /0803 10052 20052 39954 40168 58009 760//
  333 69925 90710 91107=
07146 24119 80603 10052 20051 39971 40169 58007 760//
  333 69925 90710 91108=
07150 24234 80604 10055 20051 30110 40171 58010 710//
  333 69925 90710 91105=
07153 24/14 90204 10055 20049 30055 40168 58010 710//
  333 60005 90710 91107=
07156 24/40 /0000 10060 20053 30077 40173 58003 710//
  333 69905 90710 91107=
07157 21/04 91004 10050 20043 30033 40171 58010 75154
  333 69925 90710 91106 93100=
07245 24/32 /0404 10057 20057 30005 40159 58005 710//
  333 60005 90710 91109=
07247 24965 80503 10044 20035 30050 40154 58007 700//
  333 60005 90710 91104=
07249 24944 80606 10052 20049 30005 40159 58010 710//
  333 60005 90710 91107=
07257 24964 81105 10060 20043 39943 40159 58006 700//
  333 60005 90710 91108=
07354 24956 81006 10060 20053 39958 40150 58009 700//
  333 60005 90710 91109=
0000045400
193
SNFR33 LFPW 110100
AAXX 11014
07093 24950 /1109 10011 20005 39867 40187 58010 700//
  333 60005 90710 91112=
07180 24/01 91802 11008 21008 39924 40191 58009 749//
  333 60005 90710 91106=
07288 26/// /0201 10031 20025 39804 40184 58007
  333 60005 90710 91103=
07292 24965 70604 10019 20004 39849 40187 58010 700//
  333 60005 90710 91107=
07386 24950 /1003 10017 20013 39940 40183 58008 700//
  333 60005 90710 91107=
0000119500
194
SNFR34 LFPW 110100
AAXX 11014
07260 24970 71303 10062 20045 39944 40160 56010 700//
  333 60005 90710 91106=
07266 24950 /0000 10025 20019 39977 40167 56014 700//
  333 60005 90710 91103=
07374 24/41 /0000 10021 20015 39859 40169 58005 710//
  333 60005 90710 91102=
07379 24964 80502 10045 20030 39870 40169 58008 700//
  333 60005 90710 91105=
07385 24/23 /1103 10044 20043 39912 40179 56006 710//
  333 60005 90710 91106=
07475 24950 81510 10054 20044 39686 40171 57008 700//
  333 60005 90710 91114=
07480 24429 80000 10053 20046 39941 40184 58004 710//
  333 60005 90710 91103=
07482 24/45 /0803 10037 20030 39875 40185 56007 710//
  333 60005 90710 91115=
07486 24457 82202 10063 20059 39727 40193 58002 700//
  333 60005 90710 91104=
07487 26/// /0000 10017 20014 39924 40197 55001
  333 60005 90710 91103=
07491 24942 80801 10018 20014 39906 40198 57004 710//
  333 60005 90710 91104=
07497 26/// /0000 10033 20002 39186 48493 56006
  333 60005 90710 91103=
07549 24986 /1305 10070 20009 39412 40168 53001 700//
  333 60005 90710 91108=
07570 24/38 /0000 10067 20066 39878 40219 51002 710//
  333 60005 90710 91102=
0000143200
195
SNFR35 LFPW 110100
AAXX 11014
07316 24956 80000 10087 20073 30131 40153 50002 700//
  333 60005 90710 91102=
07330 24/58 /1901 10075 20064 30080 40155 52003 700//
  333 60005 90710 91103=
07361 24/62 /3503 10041 20031 39721 40165 53002 700//
  333 60005 90710 91108=
07412 24945 /0000 10071 20060 30120 40158 51006 710//
  333 60005 90710 91104=
07438 24/43 /1202 10045 20038 30030 40175 53012 710//
  333 60005 90710 91103=
07500 26/// /2911 10116 20097 30126 40160 51007
  333 60005 90710 91116=
07503 264// 83011 10120 20094 30117 40164 51010
  333 60005 90710 91117=
07524 24961 80000 10071 20067 30082 40167 52012 700//
  333 60005 90710 91107=
07530 24931 80704 10038 20037 30102 40167 51011 710//
  333 60005 90710 91106=
07540 24/57 /0000 10059 20050 30038 40170 53007 700//
  333 60005 90710 91100=
07552 24969 81210 10070 20041 39484 40170 50002 700//
  333 60005 90710 91116=
07600 26/// /2608 10122 20098 30125 40177 51008
  333 60005 90710 91115=
07602 24584 72810 10119 20086 30087 40173 51010 700//
  333 60005 90710 91116=
07603 26567 82604 10115 20094 30130 40168 51009
  333 60005 90710 91115=
07610 24350 82004 10088 20080 39952 40174 51018 700//
  333 60005 90710 91105=
07622 24/57 /0000 10058 20046 30014 40171 51014 700//
  333 60005 90710 91102=
07632 24/70 /1004 10081 20054 39958 40166 50002 700//
  333 60005 90710 91106=
0000190000
196
SNFR36 LFPW 110100
AAXX 11014
07554 24970 /3601 10030 20021 39103 4//// 53002 700//
  333 60005 90710 91103=
07560 26/// /1817 10003 21001 38423 4//// 56007
  333 60005 90710 91129=
07563 24564 81103 10099 20070 30142 40201 50000 700//
  333 60005 90710 91106=
07579 24556 80401 10079 20068 30137 40205 51001 700//
  333 60005 90710 91103=
07586 26/// /1204 10091 20062 30073 40202 50000
  333 60005 90710 91107=
07588 24463 80802 10032 20022 39664 40226 53003 700//
  333 60005 90710 91103=
07635 24560 80913 10100 20079 30023 40177 58001 700//
  333 60005 90710 91119=
07638 24663 80304 10111 20080 30172 40191 58002 700//
  333 60005 90710 91105=
07641 26/// /0407 10115 20087 30100 40193 58001
  333 60005 90710 91111=
07646 24557 80702 10098 20054 30073 40201 51001 700//
  333 60005 90710 91104=
07647 24583 80904 10110 20079 30171 40199 50000 700//
  333 60005 90710 91108=
07648 24559 80902 10103 20075 30130 40202 58001 700//
  333 60005 90710 91106=
07666 26/// /1310 10120 20087 30130 40178 58006
  333 60005 90710 91112=
07667 24581 80103 10114 20084 30201 40206 51002 700//
  333 60005 90710 91104=
07675 24/57 /0000 10081 20069 30110 40211 50003 700//
  333 60005 90710 91102=
07684 24564 80202 10104 20082 30207 40212 53001 700//
  333 60005 90710 91104=
07749 26/// /1818 10117 20074 30074 40179 58006
  333 60005 90710 91124=
07754 26985 /1705 10061 20051 30129 40201 56008
  333 60005 90710 91107=
07765 24586 82703 10124 20073 30195 40216 53001 700//
  333 60005 90710 91106=
07770 26/// /0611 10128 20091 30069 40209 53002
  333 60005 90710 91118=
07775 26/// /2306 10123 20084 30124 40214 55002
  333 60005 90710 91107=
07780 24586 80907 10126 20089 30183 40211 53002 700//
  333 60005 90710 91116=
07785 26/// /1102 10118 20073 30069 40206 56006
  333 60005 90710 91117=
0000110000
197
SNFR37 LFPW 110100
AAXX 11014
07002 26/// /1708 10046 20033 30072 40156 58006
  333 60005 90710 91118=
07003 24241 81306 10034 20028 30135 40160 58007 710//
  333 60005 90710 91109=
07010 26/// /1911 10046 20034 30135 40155 58009
  333 60005 90710 91116=
07028 26/// /1105 10061 20049 30032 40160 58003
  333 60005 90710 91111=
07038 24130 81205 10050 20049 39996 40166 58008 710//
  333 60005 90710 91109=
07040 26/// /1811 10052 20042 30107 40157 58009
  333 60005 90710 91120=
07046 24659 80000 10057 20042 30046 40162 58003 700//
  333 69905 90710 91109=
07055 24228 81503 10048 20039 30033 40170 58011 710//
  333 60005 90710 91107=
07057 24/03 91502 10041 20035 30061 40170 58011 745//
  333 60005 90710 91104=
07061 24/18 /1604 10036 20036 30052 40174 58010 710//
  333 60005 90710 91109=
07075 24450 81403 10054 20040 39997 40179 56012 700//
  333 60005 90710 91105=
07169 24968 80904 10023 20016 30005 40177 57013 700//
  333 60005 90710 91107=
07283 24960 /1005 10032 20026 39615 40181 58010 700//
  333 60005 90710 91109=
0000012100
198
ULKZ11 UAAA 110000
TTCC  11005 35700 70774 70556 27529 50971 72756 27536 88578
74156 27533 77374 27042=
00000000