0000011100
992
UANT99 KDDL 111156
ARP DAL187 5302N02044W 1155 F360 MS63 220/72 KT
N173DZ QXT AOE 111156 F24A
0000011000
993
UANT99 KDDL 111156
ARP AAL51 6031N01050W 1156 F320 MS51 267/40 KT
N717AN DDL FAE 111156 F34A
0000010900
994
UANT99 KDDL 111156
ARP VIR24 5529N04614W 1156 F370 MS59 278/61 KT
GVBUG DDL XXW 111156 J04A
0000011000
995
UANT99 KDDL 111156
ARP KLM735 4906N02616W 1156 F340 MS52 194/69 KT
PHBFN QXT AOE 111156 F28A
0000010900
996
UANT99 KDDL 111156
ARP VIR97 4815N02821W 1156 F360 MS48 188/53 KT
GVGEM DDL XXF 111156 J85A
0000011000
997
UANT99 KDDL 111156
ARP AFR368 4703N01245W 1156 F320 MS55 259/50 KT
FGLZI QXT AOE 111156 J24A
0000011000
998
UANT99 KDDL 111156
ARP TOM024 4759N02543W 1156 F400 MS48 337/57 KT
GTUIC QXT AOE 111156 L06A
0000011500
999
SMLS01 FXMM 111200
AAXX 11123
68452 NIL=
68454 32689 52608 10260 20111 38406 48/// 5//// 85900=
0000009200
000
SAFJ31 NFFN 111200
METAR NFFN 111200Z 08004KT 9999 FEW030 24/22 Q1006 NOSIG=
0000011100
001
UANT01 CWAO 111156
ARP RCH317 5106N02340W 1156 F329 MS58 187/91 KT
88196A DDL XXN 111156 F70A
0000010800
002
UANT01 CWAO 111156
ARP THY3 6320N03730W 1156 F360 MS59 186/25 KT
TCJNM QXS AGM 111156 J41A
0000008400
003
UAPA01 KWBC 111157
ARP CKS368 3304N 12431W 1148 F320 MS46 240/030KT=
0000011000
004
UANT01 CWAO 111157
ARP UAL45 5259N03029W 1157 F360 MS56 192/47 KT
N29124 DDL IG1 111157 F64A
0000010400
005
SMNO24 ENMI 110600 CCB
AAXX 11061
01144 41989 00911 11066 21171 70200 333 21072 91116=
0000084300
006
SAUK39 EGRR 111150
METAR EGDM 111150Z 28010KT 9999 FEW015 08/04 Q1020 BLU=
METAR EGDR 111150Z 16004KT 9999 FEW026 SCT030 09/05 Q1020 BLU NOSIG=
METAR EGQL 111150Z 25009KT 9999 FEW030 04/00 Q1012 BLU NOSIG=
METAR EGQM 111150Z AUTO 28014KT 9999 NCD 06/M01 Q1013=
METAR EGQS 111150Z 24013KT 9999 FEW020CB 03/00 Q1010 BLU=
METAR EGUB 111150Z 24009KT 9999 FEW012 07/03 Q1019 BLU TEMPO SCT015 WHT=
METAR EGVO 111150Z 26007KT 9999 FEW012 07/03 Q1019 BLU=
METAR EGWU 111150Z 28008KT 9999 FEW020 08/03 Q1019 BLU NOSIG=
METAR EGXC 111150Z 28014KT 9999 FEW022 06/02 Q1017 BLU=
METAR EGXT 111150Z AUTO 27012KT 9999 FEW030/// 06/04 Q1017=
METAR EGXV 111150Z AUTO 26010KT 9999 NCD 06/02 Q1015=
METAR EGXW 111150Z 27011KT 9999 FEW015 05/02 Q1016 BLU NOSIG=
METAR EGYD 111150Z 28013KT 9999 FEW022 06/03 Q1017 BLU NOSIG=
0000011100
007
SASA85 EGRR 111100 RRK
METAR SARL 111100Z 07004KT 5000 TSRA FEW006 OVC035 FEW045CB 20/20 Q1013=
0000010100
008
SPSA85 EGRR 111154 RRF
SPECI SBMQ 111147Z 09007KT 3000 -RA BKN010 BKN080 24/23 Q1014=
0000031400
009
SASA85 EGRR 111200
METAR SBCG 111200Z 33009KT CAVOK 27/19 Q1016=
METAR SBPV 111200Z 00000KT 8000 SCT010 FEW020TCU BKN070 23/22 Q1013=
METAR SBSL 111200Z 07015KT 9999 BKN020 29/19 Q1012=
METAR SBSP 111200Z 33005KT CAVOK 28/17 Q1019=
METAR SBSV 111200Z 10011KT 9999 SCT017 SCT080 29/23 Q1016=
0000039100
010
SAPK31 OPKC 111200
METAR OPGD 111200Z NIL=
METAR OPKC 111155Z 09008KT 8000 SCT200 22/M07 Q1019 NOSIG=
METAR OPLA 111155Z 36003KT 5000 HZ NSC 18/06 Q1019 NOSIG=
METAR OPNH 111200Z 36004KTS 4000M FU NSC 21/01 Q.1019=
METAR OPPS 111200Z S--04KT 5000 HZ SCT200 17/03 Q1019.7=
METAR OPRN 111200Z NIL=
METAR OPSK 111200Z 36003KTS 6000 HZ FEW200 20/08 QNH 1019 RH.47 PC=
0000014100
011
SMKA02 PTYA 111200
AAXX 11124
91317 32474 50912 10278 20271 30093 40097 5//// 81203 333 562/9 58003
81818 83080 555 91112
00000000