0000011100
899
UANT01 CWAO 110157
ARP DAL401 4453N05154W 0157 F360 MS63 307/46 KT
N845MH QXT AOW 110157 F05A
0000008600
900
SAGD31 TGPY 110200
METAR TGPY 110200Z 08008KT 9999 FEW018 24/22 Q1014=
0000010000
901
SNVC25 LFPW 110200
BBXX
BAREU08 11024 99291 50728 46/// ///// 40130 52006
22244=
0000008800
902
SAPK31 OPPS 110157
METAR OPPS 110200Z SW-04KT 4000 BR SKC 03/00 Q1019.8=
0000011000
903
UANT99 KDDL 110156
ARP SAS926 5309N04455W 0156 F390 MS57 288/42 KT
LNRKG DDL XXW 110156 J87A
0000037100
904
SAPK31 OPKC 110200
METAR OPGD 110200Z NIL=
METAR OPKC 110200Z NIL=
METAR OPLA 110155Z 00000KT 4000 FU NSC 03/01 Q1018/A30.06 BECMG 2500
BR=
METAR OPNH 110200Z 36004KTS 2000M BR NSC 06/04 Q.1019=
METAR OPPS 110200Z SW-04KT 4000 BR SKC 03/00 Q1019.8=
METAR OPRN 110200Z NIL=
METAR OPSK 110200Z 00000KTS 1500 BR FEW100  04/03 QNH.1019 RH.92 PC=
0000024100
905
SOAT10 KWAL 110158
FA8005BC 011015837 OT12 ID:KN-BASS-01 DT:2014 01 11 01 56
:RD -3279 -3284 -3273 -3266 -3272 -3273 -3263 -3262 -3280 -3263
:PR 0371 0358 0346 0389 0385 0398 0375 0430 0386 0382
:B 13.7V
 47+0NN 219E
0000133200
906
ULCI06 BABJ 110000
TTCC  10232 56739 70850 771// 26023 50051 609// 29005 30371
571// 09511 20629 537// 11014 10083 441// 88999 77999 31313
63203 82315=
TTCC  10232 56964 70852 693// 28015 50057 621// 03001 30379
545// 10014 20641 489// 10516 88999 77999 31313 63303 82315=
TTCC  10232 57957 70847 779// 25021 50047 649// 22505 30366
589// 09012 20625 523// 10518 88999 77999 31313 63203 82317=
TTCC  10231 57993 70866 773// 25021 50064 665// 28009 30383
569// 06506 20643 501// 12012 10099 443// 10034 88999 66084
08553 31313 63303 82315=
TTCC  10232 58027 70843 615// 28520 50053 565// 30504 30381
529// 09012 20647 455// 10519 10110 429// 88973 645// 26538
77999 31313 63203 82315=
TTCC  10232 58424 70848 685// 26016 50052 605// 30506 30376
529// 09012 20639 489// 10521 88999 77999 31313 63203 82315=
TTCC  1100/ 58606 NIL=
TTCC  10231 58633 70850 751// 26521 50053 619// 29004 30375
543// 08512 20636 507// 11021 10096 451// 09526 88858 765//
26029 77999 31313 63203 82315=
TTCC  10231 58665 70850 769// 27520 50053 619// 27503 30375
553// 09016 20638 487// 11520 10098 415// 09032 88874 773//
26028 66103 09032 31313 63203 82315=
TTCC  10232 59211 70851 751// 26018 50049 685// 24006 30366
589// 09010 20623 549// 10513 88984 817// 25023 77999 31313
63203 82315=
0000022300
907
ULTU10 LTAA 110000 RRA
TTCC  61001 17240 70828 64179 30533 50035 61581 31554 30357
58981 31051 20614 55582 32063 10052 59181 32588 88105 61381
33094 77070 31606 417// 77975 31559 41017 31313 48008 82338=
0000048200
908
SXXX32 EUMS 110149 RRX
262AD2C2
OT12 ID:PK-ORMA-10 DT:2014 01 11 01 48
:PRS /1 08162 08146 08177 08133 08138 08145 08132 08129 08164 08111 08112 08133 08121 08125 08125 08107 08124 08114 08129 08157 08131 08142 08146 08129 08141 08135 08115 08108 08115 /////
:RAD /1 ///// ///// ///// ///// ///// ///// ///// ///// ///// ///// ///// ///// ///// ///// ///// ///// ///// ///// ///// ///// ///// ///// ///// ///// ///// ///// ///// ///// ///// /////
:BAT 12.4V/
0000065100
909
SXXX32 EUMS 110149 RRX
18D74682
OT12 ID:ZA-GOUG-13 DT:2014 01 11 01 48
:RAD /3 20881 21230 02050 21457 21132 20999 02110 20830 21218 21216 21216 02211 21174 21502 21551 21212 21297 21203 21473 21213 16169 21188 20136 18521 01976 02760 04009 21426 02221 21377 20616 21228 20999 01706 20923 20835 21138 21202 21210 01898 21194 21202 21207 21204 21204 21209 21414 21210 21199 02313 21213 02257 21209 21208 21210 02003 21208 21204 21208 21185 21195 21205 21204 01969 20813 21153 16101 13607 21108 21007 20953 20970 05767 20940 02122 20940 20215 20933 20932 18229 21172 21167 21194 21208 21198 20912 06644 14238 20928 20955
:BAT 14.2V
0000069800
910
SXXX32 EUMS 110149 RRX
26A63714
NT12 ID:CO,PNTN-06 DT:2014 01 11 01 3)
:RAD /1 0140  01407 01399 01411 01403001511 01408 01409 01398 01378 01395 01406 01388 01392 01389 01393 01391 01394 01394 01402 01376 014 2 01385 01383 01377 01407 013'6 01377/01371 01382
:PR1 /1 ///// ///// ///// //////////. ///// ///// ///// /////////// /////0///// /./// ///// ///// ///./ ///// ///// ///// /?/// ///./ ///// ///// ///// ///// ///// ///// ///// ///// /////
:PR2 /1////// ///// ///// ///// ///// ///// ///// ///// ///// .//// ///// ///// ///// ///// .//// ///// ///// ///// ///// ///// ///// ?//// ///// ///// ///// ///// ///// ///// ///// /////
:TM1 /15 /// /// /// ///
:BAT 12.0V
0000039700
911
SXXX32 EUMS 110151 RRX
16590056
:PRS 1 /1 2429 2431 2424 2417 2407 2405 2398 2398 2397 2393 2395 2391 :RAD 1 /1 6708 6709 6703 6696 6686 6686 6677 6679 6678 6672 6674 6673 6672 6676 6677 6676 6676 6676 :ENC 6 /6 4895 4891 4892 4887 4876 4872 4873 4874 4863 4856 :ENB 6 /6 4891 4889 4889 4886 4876 4872 4872 4873 4861 4855 :SW1 51 /60 0 :SW2 18 /60 5 :BAT 5 /6 12.4 :NAME 16590056
0000036900
912
SXXX32 EUMS 110151 RRX
12FFB3C8
:PRS 1 /1 M 2917 2900 2914 2914 2916 2935 2931 2937 2951 2942 2936 2942 2924 2923 2919 2915 2907 2911 2924 2933 2939 2935 2936 2924 2919 2922 2922 2922 2926 :RAD 1 /3 5858 5869 5875 5866 5858 5859 5869 5863 5860 5860 :ENC 1 /5 -144 -144 -144 -144 -144 -144 :SW1 51 /60 0 :SW2 21 /60 60 :BAT 14 /15 13.7 :NAME 12FFB3C8 /
0000046400
913
SASD31 OEJD 110200
METAR OEDF 110200Z 16007KT 7000 SCT040 OVC090  15/12 Q1018 NOSIG=
METAR OEDR 110200Z 00000KT 8000 SCT040 BKN080 15/12 Q1017 NOSIG=
METAR OEJN 110200Z 04004KT 9999 FEW040 16/09 Q1016 NOSIG=
METAR OEMA 110200Z 35005KT CAVOK 12/03 Q1020 NOSIG=
METAR OERK 110200Z 17008KT 9999 SCT040 BKN080 11/09 Q1018 TEMPO 5000 RA=
METAR OYAA 110200Z 13012KT 9999 SCT018 25/19 Q1015 NOSIG=
METAR OYSN 110200Z VRB01KT CAVOK 09/05 Q1025=
0000070500
914
SXXX32 EUMS 110151 RRX
26F364EA

ST STHELENA
DT 11/01/14 11/01/14
TM 01:45:00 01:30:00
RD 10000 10000 10000 10000 10000 10000 10000 10000 10000 10000 10000 10000 10000 10000 10000 10000 10000 10000 10000 10000 10000 10000 10000 10000 10000 10000 10000 10000 10000 10000
P1 00163 00486 00601 01057 01281 01117 00952 00731 00644 00971 00899 01085 01199 00852 00394 00385 00473 00653 01046 01266 01088 01147 01144 01184 01246 00620 00947 01000 00611 01451
P2 00020 00021 00019 00013 00114 00013 00014 00018 00013 00017 00017 00017 00014 00016 00013 00024 00015 00008 00012 00013 00008 00010 00012 00017 00012 00019 00018 00014 00014 00268
T1 00.0 00.0
T2 22.4 22.4
VB 12.8
0000033700
915
USAU03 AMMC 110000 RRA
TTAA 60231 94578 99018 26861 12007 00163 23660 13006 92837 17037
14005 85553 11822 15007 70160 04642 16520 50584 10950 23514 40752
20379 26031 30958 37557 27044 25081 45569 27066 20227 53971 26587
15407 645// 27066 10652 687// 25534 88135 677// 27060 77208 26592
42313 31313 48003 82316=

0000016700
916
SAOM32 OOMS 110200
METAR OOMS 110150Z VRB02KT CAVOK 15/10 Q1021 NOSIG=
METAR OOSA 110150Z 36003KT 9999 FEW025 SCT090 21/16
Q1017 NOSIG  RMK01 RH73=
0000055300
917
UKAU03 AMMC 110000 RRA
TTBB 60233 94578 00018 26861 11017 26468 22002 23860 33913 15828
44797 08209 55771 09459 66656 01432 77572 02756 88521 08157 99476
13739 11469 12959 22426 17960 33406 19582 44382 22583 55323 32974
66296 38342 77259 45943 88256 46156 99254 45959 11250 45368 22181
58173 33168 59973 44135 677// 55100 687// 21212 00018 12007 11819
14007 22759 15524 33682 16518 44629 20516 55604 25511 66600 26511
77519 23517 88395 26532 99362 25539 11306 27042 22208 26592 33115
27049 44100 25535 31313 48003 82316=

0000014500
918
ULAU03 AMMC 110000 RRA
TTCC 60232 94578 70864 701// 31009 50067 649// 08514 30384 56182
10531 20644 50184 07540 88999 77999=

00000000