0000013800
736
SMVD17 KWNB 111200 RRD
BBXX
52202 11121 99137 11448 46/// ///// 1//// 91200 22200 00282 10805
20805 304// 41101 70024=
0000031800
737
SMFG01 SOCA 111200
AAXX 11124
81401 06/// /2303 10248 20225 30143 40149 60284
  333 20219 60007 58014
  555 60005=
81408 06/// /2803 10240 20230 30135 40143 60094
  333 20227 69927 58009
  555 60005=
81415 06/// ///// 10245 20224 30030 40151 60084
  333 20223 60007 58012
  555 60005=
0000017000
738
SMDO01 TDPD 111200
AAXX 11124
78905 11478 71012 10265 20209 30167 40190 60042 703// 86840
    333 10278 20218 58006 70037 86817 83358 90999=



0000029100
739
SXHW11 KWAL 111205
B150314C 011120523"
1,140111,11:00:00,6.8,128,13.5,23.0,1014.8,0.07,13.7,
1,140111,11:15:00,6.4,136,13.8,23.1,1014.6,0.07,13.6,
1,140111,11:30:00,5.3,135,10.3,23.0,1014.3,0.07,13.7,
1,140111,11:45:00,6.0,130,14.2,23.2,1014.2,0.07,13.7, 47+0NN 210W
0000016000
740
SMDO01 TDPD 111200
AAXX 11124
78905 11478 71012 10265 20209 30167 40190 60042 703// 86840
    333 10278 20218 58006 70037 86817 83358 90999=
0000018700
741
SMJD50 OJAM 111200
AAXX 11124
40260 32560 10000 10140 21109 39425 40215 57012 81100 333 81835=
40265 31558 22404 10130 21036 39432 40237 58016 70511 82100 333
82825=
0000160200
742
SMNO01 ENMI 111200
AAXX 11121
01001 11475 50401 11001 21013 30135 40147 50003 69911 71581 85800
      222// 00001 333 91109=
01008 41460 72508 11001 21035 30063 40097 55000 76872 875// 333
      91113=
01010 41689 11206 11056 21116 30157 40174 52001 70200 81100 333
      91109=
01026 21489 11301 11116 21131 30041 40192 53005 70200 81100 333
      60005 91103=
01055 46/// /2403 11026 21074 30161 40179 50004 333 91108=
01062 11470 82106 11015 21038 30101 40114 52003 60001 70222 885//
      333 91108=
01098 41156 60204 11025 21059 30144 40163 53002 71582 82920 333
      91112=
01115 11889 21109 11043 21149 30082 40104 50000 60001 70300 82070=
01152 11889 11107 11070 21183 30118 40134 53004 60001 70200 81040
      333 91114=
01205 46/// /0602 11007 21053 39945 49991 52005 333 91109=
01212 16/// /0903 11025 21072 39974 49992 52003 60001 333 91106=
01271 17/83 01303 11119 21153 30020 40043 54000 6//// 700// 333
      91106=
01288 41550 81106 11155 21184 39266 40059 58001 77072 887// 333
      91108=
01300 NIL=
01317 11380 63105 10039 20010 39970 49985 53013 60011 70262 86800
      333 91107=
01367 16/// /1101 11068 21085 39552 40006 52003 6//// 333 91106=
01384 11358 80802 11059 21077 50001 60011 77072 885//=
01403 11575 63011 10056 20026 39927 49995 52002 6//// 70282 86900
      333 91120=
01415 17771 62707 10062 20035 39995 40006 58003 6//// 722// 333
      91114=
01482 46/// /0104 10018 20005 39973 49983 50001 333 91113=
01492 41270 80306 11042 21061 39877 49998 50006 70272 8567/ 333
      91109=
0000121800
743
SMNO02 ENMI 111200
AAXX 11121
01003 NIL=
01007 11589 82502 11007 21055 30081 40091 52003 60001 70222 885//
      333 91106=
01028 11470 63002 11011 21017 30125 40145 52005 69971 72682 86360
      222// 01003 333 91108=
01047 41584 63601 11275 21294 39801 40193 55001 70122 86500=
01049 16/// /1901 11136 21152 30194 40197 56004 60001 333 91103=
01078 16/// /2903 11033 21055 30166 40176 50003 6//// 333 91108=
01102 46/// ///// 11058 21114 30053 40073 52004 333 91119=
01160 41989 00709 11049 21133 30133 40151 54000 70200 333 91116=
01218 NIL=
01238 11335 80404 11142 21162 38825 49952 50002 69951 77072 886//
      333 91108=
01241 11488 21108 11069 21127 30006 40018 55003 60001 70321 81770
      333 91115=
01281 16/// /0807 11098 21154 39906 40090 54000 60001 333 91111=
01338 16/// /3003 10008 20002 39904 49971 53004 60011 333 91106=
01359 11582 50702 11049 21071 39050 49973 55000 69961 72682 82230
      333 91109=
01397 16/// /3002 11113 21131 39586 40043 58001 60011 333 91104=
01400 NIL=
01427 11570 63011 10043 20023 39994 40010 58001 60001 78082 84962
      333 91117=
01447 NIL=
01448 46/// /2807 10050 20019 39993 40003 58005 333 91111=
0000010600
744
SAOM32 OOMS 111200 RRB
METAR OOSA 111150Z 13012KT 080V170 9999 BKN025 25/15
Q1016 NOSIG=
0000013900
745
UKVF02 EKMI 111200
UUBB ASDK02 11128 99692 30278 54997
21212
31313 48008 81157 90000
41414 /////
51515 11000 /////=
0000335200
746
SAIR31 OIII 111200
METAR OIAA 111200Z 31012KT 5000 HZ SCT040 BKN100
14/10 Q1017=
METAR OIAG NIL=
 METAR OIAH 111200Z 00000KT 4000 -RA FEW030CB SCT035CB OVC070 08/08
 Q1016=
METAR OIAI NIL=
 METAR OIAM 111200Z 10016KT 9999 FEW010 SCT030CB SCT035 12/12
 Q1016=
 METAR OIAW 111200Z 12008KT 8000 DZ FEW020CB SCT030 OVC070 13/12
 Q1016=
 METAR OIBA 111200Z 05008KT 3500 -RA FEW025CB FEW030 OVC080 17/14
 Q1018=
 METAR OIBB 111200Z 13016KT 9999 -RA FEW030CB SCT035 OVC080 13/10
 Q1016 A3001=
 METAR OIBK 111200Z 08016KT 8000 FEW030CB SCT025 OVC090 16/14 Q1018
 RERA=
 METAR OIBL 111200Z 03008KT 3000 BR FEW020CB SCT025 OVC080 14/13
 Q1020=
METAR OIBS 111200Z 14010KT 7000 -RA FEW030CB OVC080 19/14 Q1019=
 METAR OICC 111200Z 11006KT 1500 R11/1200U SN SCT030CB SCT035
 OVC060 M00/M01 Q1018 A3008 TEMPO SN=
 METAR OICI 111200Z 00000KT 8000 FEW015 FEW025CB SCT035 BKN090
 05/05 Q1016 A3000=
METAR OICJ NIL=
 METAR OICK 111200Z 11004KT 8000 -RA FEW010 FEW030CB BKN035 OVC080
 04/03 Q1016=
METAR OICS 111200Z 19002KT 7000 SCT035 BKN080 01/M04 Q1018=
METAR OIFK NIL=
 METAR OIFM 111200Z 31006KT 2300 HZ SCT040 OVC100 02/M02 Q1017
 A3005=
 METAR OIFS 111200Z 00000KT 0800 SN BR FEW025CB SCT030 OVC070
 M03/M04 Q1017=
METAR OIGG 111200Z 32004KT 3000 BR SCT025 BKN090 10/08
Q1013=
METAR OIGK NIL=
METAR OIHH NIL=
METAR OIHM NIL=
 METAR OIIE 111200Z VRB03KT 6000 SCT025 SCT035CB SCT045 OVC080
 02/M01 Q1019 A3012 NOSIG=
 METAR OIII 111200Z 25008KT 1000 BR SCT030 OVC090 01/M02 Q1019
 A3009 TEMPO 0800 SN FEW035CB SCT030 BKN100 TEMPO 0800 SN FEW035CB SCT030 BKN100=
 METAR OIIK 111200Z 12004KT 6000 FEW035CB SCT040 OVC090 02/M03
 Q1019=
 METAR OIIP 111200Z 00000KT 2000 BR SCT020 SCT035 OVC080 M01/M01
 Q1018=
METAR OIIS NIL=
 METAR OIKB 111200Z 31006KT 8000 -RA FEW025CB SCT030 OVC090 16/08
 Q1020 A3014 NOSIG=
METAR OIKK 111200Z 00000KT 9999 SCT035 OVC100 05/M03 Q1019 A3011=
METAR OIKO NIL=
 METAR OIKQ 111200Z 33010KT 8000 -RA FEW025CB SCT030 BKN090 13/07
 Q1020=
METAR OIMB 111200Z 10012KT 9999 FEW030 BKN090 06/M14 Q1018=
METAR OIMC NIL=
METAR OIMD NIL=
METAR OIMM 111200Z 30006KT CAVOK 11/M12 Q1017 A3005=
METAR OINB NIL=
METAR OING 111200Z 32004KT 6000 SCT030 BKN090 12/07 Q1016=
METAR OINK NIL=
METAR OINN 111200Z 09008KT 9999 FEW020 BKN100 OVC180 11/10 Q1014=
METAR OINR 111200Z 11004KT 7000 FEW045 OVC170 11/07 Q1013=
METAR OISA NIL=
 METAR OISF 111150Z 00000KT 8000 FEW035CB SCT040 OVC100 06/02 Q1018
 RESH=
 METAR OISL 111200Z 00000KT 9999 FEW020 FEW035CB OVC090 09/05
 Q1020=
 METAR OISS 111200Z 00000KT 1500-RA BR FEW030CB SCT035 OVC070 04/02
 Q1019 A3011=
 METAR OISY 111200Z 00000KT 0200 -RA FEW030CB SCT040 OVC080 01/00
 Q1019=
METAR OITL 111150Z 20019KT 9999 SCT090 BKN190 00/M04 Q1015=
 METAR OITR 111200Z 10004KT 2000 HZ SCT035 BKN170 M04/M09 Q1019
 NOSIG=
 METAR OITT 111200Z 27004KT 5000 HZ FEW035 BKN190 M03/M09 Q1019
 A3012=
METAR OITU NIL=
METAR OIYY 111200Z 32006KT 4500 HZ FEW035 SCT100 08/M02 Q1018=
METAR OIZB 111200Z 07004KT 9999 FEW030 BKN090 10/M03 Q1022=
METAR OIZC NIL=
 METAR OIZH 111200Z 12014KT 9999 FEW035 BKN090 06/M07 Q1019 A3010
 TEMPO SHRA=
METAR OIZI 111200Z 35004KT 9999 FEW020 OVC090 16/M05 Q1019=
METAR OIZJ 111200Z 15004KT CAVOK 20/06 Q1019=
0000350600
747
SAIR77 OIII 111200
METAR AZUH NIL=
METAR KHME 111150Z AUTO 25004KT //// // ////// 10/M09 Q1032=
METAR OIAA 111200Z 31012KT 5000 HZ SCT040 BKN100
14/10 Q1017=
METAR OIAG NIL=
 METAR OIAH 111200Z 00000KT 4000 -RA FEW030CB SCT035CB OVC070 08/08
 Q1016=
METAR OIAI NIL=
 METAR OIAM 111200Z 10016KT 9999 FEW010 SCT030CB SCT035 12/12
 Q1016=
 METAR OIAW 111200Z 12008KT 8000 DZ FEW020CB SCT030 OVC070 13/12
 Q1016=
 METAR OIBA 111200Z 05008KT 3500 -RA FEW025CB FEW030 OVC080 17/14
 Q1018=
 METAR OIBB 111200Z 13016KT 9999 -RA FEW030CB SCT035 OVC080 13/10
 Q1016 A3001=
 METAR OIBK 111200Z 08016KT 8000 FEW030CB SCT025 OVC090 16/14 Q1018
 RERA=
 METAR OIBL 111200Z 03008KT 3000 BR FEW020CB SCT025 OVC080 14/13
 Q1020=
METAR OIBS 111200Z 14010KT 7000 -RA FEW030CB OVC080 19/14 Q1019=
 METAR OICC 111200Z 11006KT 1500 R11/1200U SN SCT030CB SCT035
 OVC060 M00/M01 Q1018 A3008 TEMPO SN=
 METAR OICI 111200Z 00000KT 8000 FEW015 FEW025CB SCT035 BKN090
 05/05 Q1016 A3000=
METAR OICJ NIL=
 METAR OICK 111200Z 11004KT 8000 -RA FEW010 FEW030CB BKN035 OVC080
 04/03 Q1016=
METAR OICS 111200Z 19002KT 7000 SCT035 BKN080 01/M04 Q1018=
METAR OIFK NIL=
 METAR OIFM 111200Z 31006KT 2300 HZ SCT040 OVC100 02/M02 Q1017
 A3005=
 METAR OIFS 111200Z 00000KT 0800 SN BR FEW025CB SCT030 OVC070
 M03/M04 Q1017=
METAR OIGG 111200Z 32004KT 3000 BR SCT025 BKN090 10/08
Q1013=
METAR OIGK NIL=
METAR OIHM NIL=
 METAR OIIE 111200Z VRB03KT 6000 SCT025 SCT035CB SCT045 OVC080
 02/M01 Q1019 A3012 NOSIG=
 METAR OIII 111200Z 25008KT 1000 BR SCT030 OVC090 01/M02 Q1019
 A3009 TEMPO 0800 SN FEW035CB SCT030 BKN100 TEMPO 0800 SN FEW035CB SCT030 BKN100=
 METAR OIIK 111200Z 12004KT 6000 FEW035CB SCT040 OVC090 02/M03
 Q1019=
 METAR OIIP 111200Z 00000KT 2000 BR SCT020 SCT035 OVC080 M01/M01
 Q1018=
METAR OIIS NIL=
 METAR OIKB 111200Z 31006KT 8000 -RA FEW025CB SCT030 OVC090 16/08
 Q1020 A3014 NOSIG=
METAR OIKK 111200Z 00000KT 9999 SCT035 OVC100 05/M03 Q1019 A3011=
METAR OIKO NIL=
 METAR OIKQ 111200Z 33010KT 8000 -RA FEW025CB SCT030 BKN090 13/07
 Q1020=
METAR OIMB 111200Z 10012KT 9999 FEW030 BKN090 06/M14 Q1018=
METAR OIMC NIL=
METAR OIMD NIL=
METAR OIMM 111200Z 30006KT CAVOK 11/M12 Q1017 A3005=
METAR OIMN 111200Z 18012KT CAVOK 08/M11 Q1016 A3003=
METAR OINB NIL=
METAR OING 111200Z 32004KT 6000 SCT030 BKN090 12/07 Q1016=
METAR OINK NIL=
METAR OINN 111200Z 09008KT 9999 FEW020 BKN100 OVC180 11/10 Q1014=
METAR OINR 111200Z 11004KT 7000 FEW045 OVC170 11/07 Q1013=
METAR OISA NIL=
 METAR OISF 111150Z 00000KT 8000 FEW035CB SCT040 OVC100 06/02 Q1018
 RESH=
 METAR OISL 111200Z 00000KT 9999 FEW020 FEW035CB OVC090 09/05
 Q1020=
 METAR OISS 111200Z 00000KT 1500-RA BR FEW030CB SCT035 OVC070 04/02
 Q1019 A3011=
 METAR OISY 111200Z 00000KT 0200 -RA FEW030CB SCT040 OVC080 01/00
 Q1019=
METAR OITL 111150Z 20019KT 9999 SCT090 BKN190 00/M04 Q1015=
 METAR OITR 111200Z 10004KT 2000 HZ SCT035 BKN170 M04/M09 Q1019
 NOSIG=
 METAR OITT 111200Z 27004KT 5000 HZ FEW035 BKN190 M03/M09 Q1019
 A3012=
METAR OITU NIL=
METAR OIYY 111200Z 32006KT 4500 HZ FEW035 SCT100 08/M02 Q1018=
METAR OIZB 111200Z 07004KT 9999 FEW030 BKN090 10/M03 Q1022=
METAR OIZC NIL=
 METAR OIZH 111200Z 12014KT 9999 FEW035 BKN090 06/M07 Q1019 A3010
 TEMPO SHRA=
METAR OIZI 111200Z 35004KT 9999 FEW020 OVC090 16/M05 Q1019=
METAR OIZJ 111200Z 15004KT CAVOK 20/06 Q1019=
METAR SESG NIL=
METAR YAYT NIL=
0000334900
748
SAIR78 OIII 111200
METAR AZUH NIL=
METAR KHME 111150Z AUTO 25004KT //// // ////// 10/M09 Q1032=
METAR OIAA 111200Z 31012KT 5000 HZ SCT040 BKN100
14/10 Q1017=
METAR OIAG NIL=
 METAR OIAH 111200Z 00000KT 4000 -RA FEW030CB SCT035CB OVC070 08/08
 Q1016=
METAR OIAI NIL=
 METAR OIAM 111200Z 10016KT 9999 FEW010 SCT030CB SCT035 12/12
 Q1016=
 METAR OIAW 111200Z 12008KT 8000 DZ FEW020CB SCT030 OVC070 13/12
 Q1016=
 METAR OIBA 111200Z 05008KT 3500 -RA FEW025CB FEW030 OVC080 17/14
 Q1018=
 METAR OIBB 111200Z 13016KT 9999 -RA FEW030CB SCT035 OVC080 13/10
 Q1016 A3001=
 METAR OIBK 111200Z 08016KT 8000 FEW030CB SCT025 OVC090 16/14 Q1018
 RERA=
 METAR OIBL 111200Z 03008KT 3000 BR FEW020CB SCT025 OVC080 14/13
 Q1020=
METAR OIBS 111200Z 14010KT 7000 -RA FEW030CB OVC080 19/14 Q1019=
 METAR OICC 111200Z 11006KT 1500 R11/1200U SN SCT030CB SCT035
 OVC060 M00/M01 Q1018 A3008 TEMPO SN=
 METAR OICI 111200Z 00000KT 8000 FEW015 FEW025CB SCT035 BKN090
 05/05 Q1016 A3000=
METAR OICJ NIL=
 METAR OICK 111200Z 11004KT 8000 -RA FEW010 FEW030CB BKN035 OVC080
 04/03 Q1016=
METAR OICS 111200Z 19002KT 7000 SCT035 BKN080 01/M04 Q1018=
METAR OIFK NIL=
 METAR OIFM 111200Z 31006KT 2300 HZ SCT040 OVC100 02/M02 Q1017
 A3005=
 METAR OIFS 111200Z 00000KT 0800 SN BR FEW025CB SCT030 OVC070
 M03/M04 Q1017=
METAR OIGG 111200Z 32004KT 3000 BR SCT025 BKN090 10/08
Q1013=
METAR OIGK NIL=
METAR OIHH NIL=
METAR OIHM NIL=
 METAR OIIE 111200Z VRB03KT 6000 SCT025 SCT035CB SCT045 OVC080
 02/M01 Q1019 A3012 NOSIG=
 METAR OIII 111200Z 25008KT 1000 BR SCT030 OVC090 01/M02 Q1019
 A3009 TEMPO 0800 SN FEW035CB SCT030 BKN100 TEMPO 0800 SN FEW035CB SCT030 BKN100=
 METAR OIIK 111200Z 12004KT 6000 FEW035CB SCT040 OVC090 02/M03
 Q1019=
METAR OIIS NIL=
 METAR OIKB 111200Z 31006KT 8000 -RA FEW025CB SCT030 OVC090 16/08
 Q1020 A3014 NOSIG=
METAR OIKK 111200Z 00000KT 9999 SCT035 OVC100 05/M03 Q1019 A3011=
METAR OIKO NIL=
 METAR OIKQ 111200Z 33010KT 8000 -RA FEW025CB SCT030 BKN090 13/07
 Q1020=
METAR OIMB 111200Z 10012KT 9999 FEW030 BKN090 06/M14 Q1018=
METAR OIMC NIL=
METAR OIMD NIL=
METAR OIMM 111200Z 30006KT CAVOK 11/M12 Q1017 A3005=
METAR OIMN 111200Z 18012KT CAVOK 08/M11 Q1016 A3003=
METAR OINB NIL=
METAR OING 111200Z 32004KT 6000 SCT030 BKN090 12/07 Q1016=
METAR OINN 111200Z 09008KT 9999 FEW020 BKN100 OVC180 11/10 Q1014=
METAR OINR 111200Z 11004KT 7000 FEW045 OVC170 11/07 Q1013=
METAR OISA NIL=
 METAR OISF 111150Z 00000KT 8000 FEW035CB SCT040 OVC100 06/02 Q1018
 RESH=
 METAR OISL 111200Z 00000KT 9999 FEW020 FEW035CB OVC090 09/05
 Q1020=
 METAR OISS 111200Z 00000KT 1500-RA BR FEW030CB SCT035 OVC070 04/02
 Q1019 A3011=
 METAR OISY 111200Z 00000KT 0200 -RA FEW030CB SCT040 OVC080 01/00
 Q1019=
 METAR OITR 111200Z 10004KT 2000 HZ SCT035 BKN170 M04/M09 Q1019
 NOSIG=
 METAR OITT 111200Z 27004KT 5000 HZ FEW035 BKN190 M03/M09 Q1019
 A3012=
METAR OITU NIL=
METAR OIYY 111200Z 32006KT 4500 HZ FEW035 SCT100 08/M02 Q1018=
METAR OIZB 111200Z 07004KT 9999 FEW030 BKN090 10/M03 Q1022=
METAR OIZC NIL=
 METAR OIZH 111200Z 12014KT 9999 FEW035 BKN090 06/M07 Q1019 A3010
 TEMPO SHRA=
METAR OIZI 111200Z 35004KT 9999 FEW020 OVC090 16/M05 Q1019=
METAR OIZJ 111200Z 15004KT CAVOK 20/06 Q1019=
METAR YAYT NIL=
0000059300
749
SATH40 VTBB 111200
METAR VTCH 111200Z 14003KT 090V240 9999 FEW028 23/17 Q1015 A2997=
METAR VTCP 111200Z NIL=
METAR VTPH 111200Z 35003KT 8000 NSC 27/19 Q1013=
METAR VTPN 111200Z  00000KT 5000 HZ 27/20 Q1014=
METAR VTPP 111200Z 00000KT 5000 BR FEW030 24/18 Q1014 A2996=
METAR  VTSF   111200Z   00000KT    9999   SCT018  BKN300   25/24 
Q1013  A2991=
METAR VTSM 111200Z 00000KT 8000 FEW020 SCT120 BKN300 27/24 Q1013
A2994=
METAR VTUK 111200Z 04005KT CAVOK 26/15 Q1015 A2999=
METAR VTUL 111200Z NIL=
METAR VTBS 111200Z 06006KT 020V120 CAVOK 30/15 Q1014 NOSIG=
0000013800
750
SIID21 WIIX 110300 RRA
AAXX 11034
96075 32458 50000 10283 20250 30113 40123 52012 82871
  333 56000 57802 82815 80850=
0000013800
751
SNVD22 KWNB 111100 RRX
BBXX
46242 11111 99332 71174 46/// ///// 1//// 91127 22200 00152 11301
20701 325// 41301 70005=
0000028300
752
SXHW11 KWAL 111205
B15047DC 011120533"
1,140111,11:00:00,1.0,2,1.0,16.9,1018.6,45.88,13.0,
1,140111,11:15:00,1.0,2,1.0,17.7,1018.4,45.88,13.0,
1,140111,11:30:00,1.0,2,1.0,17.6,1018.3,45.88,13.0,
1,140111,11:45:00,1.0,2,1.0,16.2,1018.2,45.88,13.0, 43+0NN 210W
0000216600
753
SZNZ01 NZKL 111206
CREX++
T000103 A001 D01021 D06025++
-3683144 17478654 AUCT  2014 01 11 11 58 //// 11 07 00 01
04532 3221 04540 3222 04547 3221 04555 3221 04562 3221 04571 3222+
-4402404 -17636748 CHIT  2014 01 11 11 58 //// 11 07 00 01
05211 2067 05242 2095 05234 2084 05244 2092 05241 2086 05263 2105+
-4089929 17623168 CPIT  2014 01 11 11 58 //// 11 07 00 01
04168 2292 04177 2295 04182 2297 04190 2300 04190 2295 04197 2297+
-3618905 17548887 GBIT  2014 01 11 11 58 //// 11 07 00 01
05482 0016 05489 0018 05494 0017 05488 0006 05480 -0007 05494 0001+
-3867541 17802288 GIST  2014 01 11 11 58 //// 11 07 00 01
04035 2719 04026 2705 04036 2711 04033 2702 04052 2716 04039 2698+
-4241288 17370277 KAIT  2014 01 11 11 58 //// 11 07 00 01
03773 2258 03779 2259 03780 2256 03786 2257 03790 2257 03797 2260+
-3755040 17815904 LOTT  2014 01 11 11 58 //// 11 07 00 01
03298 0204 03318 0219 03302 0198 03316 0206 03340 0225 03315 0195+
-3704657 17451175 MNKT  2014 01 11 11 58 //// 11 07 00 01
01812 -0172 01805 -0176 01811 -0167 01805 -0170 01815 -0157 01800 -0170+
-3947566 17692007 NAPT  2014 01 11 11 58 //// 11 07 00 01
03220 2053 03218 2046 03225 2048 03234 2052 03249 2062 03255 2062+
-3441483 17304870 NCPT  2014 01 11 11 58 //// 11 07 00 01
-04519 -8302 -04497 -8284 -04500 -8291 -04506 -8302 -04496 -8295 -04526 -8329+
-4581435 17062939 OTAT  2014 01 11 11 58 //// 11 07 00 01
05319 3461 05323 3463 05326 3464 05329 3465 05330 3463 05332 3463+
-2928002 -17789440 RBCT  2014 01 11 11 58 //// 11 07 00 01
05735 1966 05735 1962 05753 1976 05755 1975 05749 1965 05750 1962+
-2925114 -17790384 RFRT  2014 01 11 11 58 //// 11 07 00 01
02690 0178 02692 0176 02666 0147 02704 0180 02684 0157 02714 0183+
-4357010 17277383 SUMT  2014 01 11 11 58 //// 11 07 00 01
02574 1854 02596 1871 02573 1843 02588 1854 02588 1849 02614 1870+
-3764109 17618118 TAUT  2014 01 11 11 58 //// 11 07 00 01
04777 4044 04786 4049 04787 4044 04795 4047 04802 4049 04805 4047+
-4128448 17477985 WLGT  2014 01 11 11 58 //// 11 07 00 01
03496 2036 03496 2033 03503 2037 03495 2026 03504 2031 03504 2028++
7777
0000070500
754
SABN32 OBBI 111200
METAR OMAA 111200Z 25003KT 200V310 CAVOK 23/10 Q1018 A3006 NOSIG=
METAR OMAD 112000Z 29005KT 9999 -RA FEW045 22/12 Q1018 A3008 NOSIG=
METAR OMAL 111200Z 20007KT CAVOK 21/09 Q1019 A3011 BECMG 27008KT=
METAR OMDB 111200Z 25007KT CAVOK 23/10 Q1020 NOSIG=
METAR OMDW 111200Z 23008KT CAVOK 22/10 Q1020 NOSIG=
METAR OMFJ 111200Z 13006KT 100V160 9999 FEW020 SCT100 21/10 Q1018
                   A3008=
METAR OMRK 111200Z 10003KT 9999 FEW040 22/10 Q1019 A3011=
METAR OMSJ 111200Z 25006KT 210V310 9999 -RA SCT040 22/10 Q1020=
METAR OOMS 111150Z 06015KT 9999 FEW030 BKN200 21/09 Q1019 NOSIG=
METAR OOSA 111150Z 13012KT 080V170 9999 BKN025 25/15
Q1016 NOSIG=
0000028400
755
SXHW11 KWAL 111205
B15054AA 011120543"
1,140111,11:00:00,7.0,41,9.1,23.1,1013.5,0.00,13.0,
1,140111,11:15:00,7.2,45,9.1,23.1,1013.4,0.00,13.0,
1,140111,11:30:00,8.1,48,10.3,22.9,1013.2,0.00,13.0,
1,140111,11:45:00,7.5,47,9.6,22.9,1013.2,0.00,13.0, 44-0NN 210W
00000000