0000646400
752
SNIN02 DEMS 110200
OOXX
  SNA 11024 99291 10776 10197 ////2 26/// ///// 10068 2//// 3//// 40/// 5//// 6//// 7//// 8//// 9////   333 55/// ///// 58/// 6000/   555 6//// =
  SND 11024 99270 10805 10070 ////2 26/// ///// 10120 2//// 3//// 40/// 5//// 6//// 7//// 8//// 9////   333 55/// ///// 58/// 6000/   555 6//// =
  SNP 11024 99187 10738 06583 ////2 26/// ///// 10127 2//// 3//// 40/// 5//// 6//// 7//// 8//// 9////   333 55/// ///// 58/// 6000/   555 6//// =
  SOM 11024 99298 10796 10199 ////2 26/// ///// 1//// 2//// 3//// 4//// 5//// 6//// 7//// 8//// 9////   333 55/// ///// 58/// 6000/   555 6//// =
  SPU 11024 99232 10807 10030 ////2 26/// ///// 1//// 2//// 3//// 4//// 5//// 6//// 7//// 8//// 9////   333 55/// ///// 58/// 6007/   555 6//// =
  SUN 11024 99311 10770 13617 ////2 26/// ///// 1//// 2//// 3//// 4//// 5//// 6//// 7//// 8//// 9////   333 55/// ///// 58/// 6002/   555 6//// =
  THE 11024 99090 10770 02997 ////2 26/// ///// 1//// 2//// 3//// 4//// 5//// 6//// 7//// 8//// 9////   333 55/// ///// 58/// 6000/   555 6//// =
  THL 11024 99300 10795 13609 ////2 26/// ///// 1//// 2//// 3//// 4//// 5//// 6//// 7//// 8//// 9////   333 55/// ///// 58/// 6000/   555 6//// =
  TIJ 11024 99279 10768 10176 ////2 26/// ///// 10050 2//// 3//// 40/// 5//// 6//// 7//// 8//// 9////   333 55/// ///// 58/// 6000/   555 6//// =
  TRR 11024 99286 10750 10185 ////2 26/// ///// 1//// 2//// 3//// 4//// 5//// 6//// 7//// 8//// 9////   333 55/// ///// 58/// 6000/   555 6//// =
  TRS 11024 99260 10755 10165 ////2 26/// ///// 1//// 2//// 3//// 4//// 5//// 6//// 7//// 8//// 9////   333 55/// ///// 58/// 6000/   555 6//// =
  UHR 11024 99255 10812 10051 ////2 26/// ///// 1//// 2//// 3//// 4//// 5//// 6//// 7//// 8//// 9////   333 55/// ///// 58/// 6000/   555 6//// =
  UPW 11024 99277 10755 10175 ////2 26/// ///// 1//// 2//// 3//// 4//// 5//// 6//// 7//// 8//// 9////   333 55/// ///// 58/// 6000/   555 6//// =
  VEP 11024 99113 10788 06518 ////2 26/// ///// 1//// 2//// 3//// 4//// 5//// 6//// 7//// 8//// 9////   333 55/// ///// 58/// 6000/   555 6//// =
  VGH 11024 99240 10808 10040 ////2 26/// ///// 1//// 2//// 3//// 4//// 5//// 6//// 7//// 8//// 9////   333 55/// ///// 58/// 6020/   555 6//// =
  VPR 11024 99260 10774 10167 ////2 26/// ///// 1//// 2//// 3//// 4//// 5//// 6//// 7//// 8//// 9////   333 55/// ///// 58/// 6000/   555 6//// =
  YAC 11024 99170 10786 06578 ////2 26/// ///// 1//// 2//// 3//// 4//// 5//// 6//// 7//// 8//// 9////   333 55/// ///// 58/// 6000/   555 6//// =
  YDU 11024 99176 10803 06470 ////2 26/// ///// 1//// 2//// 3//// 4//// 5//// 6//// 7//// 8//// 9////   333 55/// ///// 58/// 6000/   555 6//// =
  YRM 11024 99160 10793 06569 ////2 26/// ///// 1//// 2//// 3//// 4//// 5//// 6//// 7//// 8//// 9////   333 55/// ///// 58/// 6000/   555 6//// =
  AAD 11024 99176 10766 06576 ////2 26/// ///// 1//// 2//// 3//// 4//// 5//// 6//// 7//// 8//// 9////   333 55/// ///// 58/// 6000/   555 6//// =
  ALM 11024 99171 10762 06576 ////2 26/// ///// 1//// 2//// 3//// 4//// 5//// 6//// 7//// 8//// 9////   333 55/// ///// 58/// 6000/   555 6//// =
  ALP 11024 99225 10883 10028 ////2 26/// ///// 10144 2//// 3//// 40/// 5//// 6//// 7//// 8//// 9////   333 55/// ///// 58/// 6000/   555 6//// =
  ANN 11024 99140 10802 06440 ////2 26/// ///// 10208 2//// 3//// 40/// 5//// 6//// 7//// 8//// 9////   333 55/// ///// 58/// 6000/   555 6//// =
  BAM 11024 99232 10837 10033 ////2 26/// ///// 1//// 2//// 3//// 4//// 5//// 6//// 7//// 8//// 9////   333 55/// ///// 58/// 6000/   555 6//// =
  BSA 11024 99229 10848 10024 ////2 26/// ///// 1//// 2//// 3//// 4//// 5//// 6//// 7//// 8//// 9////   333 55/// ///// 58/// 6000/   555 6//// =
  BWN 11024 99193 10771 06597 ////2 26/// ///// 1//// 2//// 3//// 4//// 5//// 6//// 7//// 8//// 9////   333 55/// ///// 58/// 6000/   555 6//// =
  DBH 11024 99205 10864 10006 ////2 26/// ///// 10153 2//// 3//// 40/// 5//// 6//// 7//// 8//// 9////   333 55/// ///// 58/// 6000/   555 6//// =
  DHM 11024 99107 10775 06507 ////2 26/// ///// 1//// 2//// 3//// 4//// 5//// 6//// 7//// 8//// 9////   333 55/// ///// 58/// 6000/   555 6//// =
  IRA 11024 99293 10768 10196 ////2 26/// ///// 10063 2//// 3//// 40/// 5//// 6//// 7//// 8//// 9////   333 55/// ///// 58/// 6000/   555 6//// =
  JYK 11024 99112 10794 06519 ////2 26/// ///// 1//// 2//// 3//// 4//// 5//// 6//// 7//// 8//// 9////   333 55/// ///// 58/// 6000/   555 6//// =
  KGE 11024 99147 10754 06545 ////2 26/// ///// 1//// 2//// 3//// 4//// 5//// 6//// 7//// 8//// 9////   333 55/// ///// 58/// 6000/   555 6//// =
  KGM 11024 99110 10776 06517 ////2 26/// ///// 1//// 2//// 3//// 4//// 5//// 6//// 7//// 8//// 9////   333 55/// ///// 58/// 6000/   555 6//// =
  KRC 11024 99117 10790 06519 ////2 26/// ///// 1//// 2//// 3//// 4//// 5//// 6//// 7//// 8//// 9////   333 55/// ///// 58/// 6000/   555 6//// =
  LMO 11024 99130 10801 06430 ////2 26/// ///// 10194 2//// 3//// 40/// 5//// 6//// 7//// 8//// 9////   333 55/// ///// 58/// 6000/   555 6//// =
  LRJ 11024 99314 10771 13617 ////2 26/// ///// 1//// 2//// 3//// 4//// 5//// 6//// 7//// 8//// 9////   333 55/// ///// 58/// 6015/   555 6//// =
  MBD 11024 99153 10763 06556 ////2 26/// ///// 1//// 2//// 3//// 4//// 5//// 6//// 7//// 8//// 9////   333 55/// ///// 58/// 6000/   555 6//// =
  MEJ 11024 99263 10889 10068 ////2 26/// ///// 1//// 2//// 3//// 4//// 5//// 6//// 7//// 8//// 9////   333 55/// ///// 58/// 6000/   555 6//// =
  MJL 11024 99310 10766 13616 ////2 26/// ///// 10043 2//// 3//// 40/// 5//// 6//// 7//// 8//// 9////   333 55/// ///// 58/// 6000/   555 6//// =
  PIN 11024 99224 10852 10025 ////2 26/// ///// 10150 2//// 3//// 40/// 5//// 6//// 7//// 8//// 9////   333 55/// ///// 58/// 6000/   555 6//// =
  PNP 11024 99112 10769 06516 ////2 26/// ///// 1//// 2//// 3//// 4//// 5//// 6//// 7//// 8//// 9////   333 55/// ///// 58/// 6000/   555 6//// =
  POL 11024 99106 10770 06507 ////2 26/// ///// 1//// 2//// 3//// 4//// 5//// 6//// 7//// 8//// 9////   333 55/// ///// 58/// 6000/   555 6//// =
  RPM 11024 99114 10782 06518 ////2 26/// ///// 1//// 2//// 3//// 4//// 5//// 6//// 7//// 8//// 9////   333 55/// ///// 58/// 6000/   555 6//// =
  TRB 11024 99207 10837 10003 ////2 26/// ///// 1//// 2//// 3//// 4//// 5//// 6//// 7//// 8//// 9////   333 55/// ///// 58/// 6000/   555 6//// =
  UDG 11024 99183 10772 06587 ////2 26/// ///// 1//// 2//// 3//// 4//// 5//// 6//// 7//// 8//// 9////   333 55/// ///// 58/// 6000/   555 6//// =

0000011000
753
UANT01 CWAO 110245
ARP DAL78 4724N04816W 0245 F390 MS59 308/56 KT
N855NW DDL YYT 110245 J83A
0000011000
754
UANT01 CWAO 110245
ARP DAL38 4452N05159W 0245 F340 MS63 307/39 KT
N834MH QXT AOW 110245 F19A
0000011100
755
UANT99 KDDL 110245
ARP AAL100 4821N04342W 0244 F340 MS55 327/54 KT
N725AN DDL XXW 110245 F28A
0000011100
756
UANT99 KDDL 110245
ARP BER7447 4540N02456W 0245 F380 MS58 229/69 KT
DABXA QXT AOE 110245 J69A
0000082700
757
SAUZ31 UTTW 110230
METAR UTFN 110230Z 00000MPS 0050 R28/0050N FZFG VV000 M09/M10 Q1029
R28/CLRD70 NOSIG RMK QBB020=
METAR UTNN 110230Z 00000MPS 8000 BKN036 M02/M04 Q1020 R33/CLRD60
NOSIG=
METAR UTNU 110230Z 24001MPS 6000 NSC M05/M06 Q1020 R31/CLRD60 NOSIG=
METAR UTSA 110230Z 10002MPS 9999 NSC M02/M08 Q1022 R07/CLRD70 NOSIG=
METAR UTSB 110230Z 12003MPS 4500 BR NSC M01/M05 Q1023 R01/CLRD70
NOSIG=
METAR UTSK 110230Z NIL=
METAR UTSS 110230Z VRB02MPS 9999 BKN200 01/M12 Q1022 R88/CLRD70
NOSIG=
METAR UTST 110230Z 02002MPS 2900 BR NSC M05/M05 Q1027 R88/CLRD70
TEMPO 1500 BR=
METAR UTFA 110230Z 00000MPS M0050 R04/M0050N FZFG VV001 M07/M08 =
METAR UTFF 110230Z 00000MPS 2100 BR NSC M09/M10 Q1028 R99/CLRD70=
METAR UTTT 110230Z 06003MPS 020V080 CAVOK M04/M10 Q1024 R26R/CLRD70
NOSIG=
0000011100
758
SAAH10 OAKB 110150
METAR OAKB 110150Z 29005KT 250V320 7000 NSC M08/M13 Q1025 NOSIG RMK WHT WHT=
0000014600
759
SAYE20 OYAA 110300
METAR OYAA 110300Z 13012KT 9999 FEW018 25/19 Q1016 NOSIG=
METAR OYSQ 110300Z 08018KT 9999 BKN018 23/19 Q1015=
0000016000
760
SSVX02 CWAO 110200
ZZYY 56541 11014 0200/ 355169 149816 6113/ 11122 
49910 52009 22219 00040 444 20130 11014 0200/ 50101 80134 80019 
9/015=
0000013900
761
SSVX02 CWAO 110200
ZZYY 64731 11014 0200/ 764175 013059 6113/ 22219 
00077 444 20130 11014 0200/ 50101 80138 80002 9////=
0000013900
762
SSVX02 CWAO 110200
ZZYY 47571 11014 0200/ 771334 104399 6113/ 11119 
49933 444 20130 11014 0200/ 50401 80128 80001 9////=
0000013900
763
SSVX02 CWAO 110200
ZZYY 64726 11014 0200/ 172104 012954 6113/ 22219 
00066 444 20130 11014 0200/ 50101 80138 80002 9////=
0000013900
764
SSVX02 CWAO 110200
ZZYY 64736 11014 0200/ 168598 005764 6113/ 22219 
00066 444 20130 11014 0200/ 50101 80140 80002 9////=
0000142500
765
SFUK43 EGRR 110240
rR SFUK43_EGRR_110240.CSV uWn7+6k%9@-F%$'CƉ -4:S8MzZoj{fpo #e9.w_,wG?8?yjtkܕgv?88}Wv>}{tuyا*^zzLY޼J=]\N7jnO#^`N=ͼ˜>P:KJ:Z)kb)'Q`@mـVuT#Ёٮ +M+ȉjZ+7MRmIyZh 	vA@Ƥ%"
F\F-m
,Yj+;@ɔsCdD J	iIs:5a U!R;Pf5Rb,eԨ1\h	a,]a5nV(ZkèzVc$5	PReTv Z(l&]n @5yDA  fIv'MjZDѨ)P$P:G<ZaQ+7ppi֤r;pjt8W7]_  ϲP/N cՁ]5uTecQcM;UG$ S݌Áh*; q pB9  6oU"03mܬ4i0uc94X7ŁA4LX%vp[ ؤ)ضrజ5 R3Gu\[VP<9J,18voo5%qZDm^$S{qc1u, H&h*Kh~jj4ᶩ.wFMU|;b҄%]}.<_r=5p_ t,k;P6܁
Ihj1-᪵btUȩBֺ^cAU[]y46flmOpZ]mbF*9IlfBj(X7j@1P,s8i:D@R#zs>:jG	sPjӈ8hCUǑLm4qp?[mu,]zEY1GDUU̹9r?䐝is2CCUn @#6f:.0qsst`+phboNÓ_ ǰՁFC؁b3&Gq dT9A:hY}t|xҾxW␋ӡQw\ʞG Ǿ  
0000014500
766
SSVX05 CWAO 110200
ZZYY 48509 11014 0200/ 775648 141187 6113/ 11119 
11239 49988 57024 444 20130 11014 0200/ 50400 80132 80001=
0000027500
767
SXHW11 KWAL 110247
15D142A4 011024702 :PRS 1 #1 1442 1440 1439 1431 1428 1437 1446 1433 1436 1428 :RAD 1 #1 7021 7019 7015 7015 7013 7019 7018 7011 7008 7011 :ENC 2 #5 4921 4920 4921 4928 :SW1 47 #60 0 :SW2 17 #60 0 :BAT 4 #5 13.8 :NAME 15D142A4  34+0NN 216W
0000029800
768
SNVD15 KWNB 110200 RRP
BBXX
41056 11021 99183 70655 46/// /0607 10259 40184 90230 333 91209
555 11083 22090=
41056 11021 99183 70655 46/// /0607 10259 40183 90220 333 91209
555 11080 22087=
41056 11021 99183 70655 46/// /0608 10259 40183 90210 333 91209
555 11087 22095=
0000067200
769
SXXX32 EUMS 110237 RRX
32CC9580
OT12 ID:ID-ENGG-07 DT:2014 01 11 02 36
:PRS /1 01313 01343 01350 01330 01317 01371 01377 01330 01355 01321 01329 01334 01348 01357 01380 01314 01403 01360 01371 01344 01317 01386 01372 01365 01406 01371 01361 01360 01329 01399
:PR2 /1 04800 04790 04808 04756 04783 04822 04825 04823 04838 04817 04786 04808 04807 04802 04842 04793 04851 04839 04837 04831 04778 04848 04821 04801 04850 04834 04870 04841 04822 04829
:RAD /1 05647 05661 05670 05645 05645 05699 05706 05677 05687 05670 05684 05667 05689 05673 05706 05679 05698 05716 05685 05705 05672 05701 05711 05682 05694 05705 05739 05689 05672 05711
:BAT 13.4V/
0000029100
770
SXXX32 EUMS 110239 RRX
166AC436
OT12 ID:IC-COMI-10 DT:2014 01 11 02 38
:RAD /1 05401 05402 05401 05395 05391 05394 05374 05388 05380 05371 05373 05384 05374 05366 05360 05367 05354 05356 05363 05369 05372 05357 05368 05383 05340 05378 05351 05353 05364 05353
:BAT 12.8V
0000039600
771
SXXX32 EUMS 110239 RRX
16590056
:PRS 1 /1 2499 2501 2498 2498 2500 2486 2485 2474 2472 2467 2462 2462 :RAD 1 /1 6782 6782 6778 6779 6780 6767 6765 6755 6751 6744 6739 6740 6734 6735 6734 6732 6729 6729 :ENC 6 /6 4972 4952 4944 4950 4942 4916 4920 4918 4895 4891 :ENB 6 /6 4969 4950 4943 4948 4941 4914 4920 4914 4891 4889 :SW1 39 /60 0 :SW2 6 /60 0 :BAT 5 /6 12.4 :NAME 16590056
00000000