0000271800
759
FCIN32 VABB 110000 RRA
TAF VAAU 110000Z 1103/1112 030/06KT 4000 HZ NSC BECMG 1105/1107
     08006KT 5000 HZ BECMG 1110/1112 250/08KT 4000 HZ =
TAF VABB 110000Z 1103/1112 040/05KT 2000 HZ NSC BECMG 1104/11106
     100/05KT 2500 FU/HZ BECMG 1107/1109 270/08KT 3000 FU=
TAF VABM 110000Z 1103/1112 11010KT 8000 FEW015=
TAF VABP 110000Z 1103/1112 00000KT 0200 FG VV///
    BECMG 1104/1106 36005KT 0500 FG VV///
    BECMG 1107/1109 36006KT 1000 BR VV///=
TAF VAGO 110000Z 1103/1112 05008KT 5000 HZ NSCZ
    TEMPO 1100/1103 3000 HZ 
    BECMG 1104/1105 6000 
    BECMG 1106/1108 23010KT  =
TAF VAID 110000Z 1103/1112 00000KT 0200 FG VV///
    BECMG 1104/1106 05005KT 0500 FG VV///
    BECMG 1107/1109 05004KT 1000 FG VV///=
TAF VAJB 110000Z 1103/1112 00000KT 0200 FG VV///
    BECMG 1104/1106 23004KT 0500 HZ FEW090
    BECMG 1107/1109 23005KT 1000 BR VV///=
TAF VAKJ 110000Z 1103/1112 00000KT 0200 FG VV///
    BECMG 1104/1106 32005KT 0500 HZ FEW090
    BECMG 1107/1109 32004KT 1000 BR VV///=
TAF VANP 110000Z 1103/1112 00000KT 0800 FG VV///
    BECMG 1104 1106 23004KT 2000 BR FEW020
    BECMG 1107 1109 23005KT 4000 HZ FEW100=
TAF VARP 110000Z 1103/1112 00000KT 1000 FG VV///
    BECMG 1104/1106 02004KT 2000 HZ FEW090
    BECMG 1107/1109 20005KT 4000 HZ FEW020=
TAF VEVZ 110000Z 1103/1112 12010KT 1500 BR FEW018 SCT090
    BECMG 1105/1107 3000 HZ =
TAF VIGR 110000Z 1103/1112 00000KT 0200 FG VV///
    BECMG 1104/1106 34005KT 0500 HZ FEW090
    BECMG 1107/1109 36005KT 1000 BR VV///=
TAF VOBG 110000Z 1103/1112 09010KT 3000 HZ SCT010 BECMG 1104/1105
    6000 FEW015=
TAF VOBZ 110000Z 1103/1112 12006KT 4000 HZ FEW020 =
TAF VOCB 110000Z 1103/1112 09005KT 3000 HZ FEW015
     BECMG 1105/1106 04005KT 5000 HZ FEW020 SCT080
     BECMG 1108/1109 10005KT 6000=
TAF VOCI 110000Z 1103/1112 00000KT 4000 HZ FEW015 SCT100
     BECMG 1104.1105 05005KT 5000 HZ
     TEMPO 1109/1112 FEW025CB=
TAF VOCL 110000Z 1103/1112 00000KT 4000 HZ FEW015 SCT100
     BECMG 1104/1105 22005KT 5000 HZ
     TEMPO 1109/1112 FEW025CB=
TAF VOHY 110000Z 1103/1112 14008KT 3000 HZ NSC BECMG 1105/1107
    15010KT 5000 HZ FEW020=
TAF VOMD 110000Z 1103/1112 02005KT 4000 HZ FEW020 SCT100
     TEMPO 1103/1105 3000 HZ=
TAF VOML 110000Z 1103/1112 09005KT 6000 FEW015
     BECMG 1109/1110 29010KT=
TAF VOMM 110000Z 1103/1112 00000KT 3000 HZ FEW020
     BECMG 1105/1106 05010KT 5000 HZ
     TEMPO 1107/1110 05008G18KT=
TAF VOTP 110000Z 1103/1112 09010KT 3000 HZ SCT020 BECMG 1104/1106
    4000 HZ=
TAF VOTR 110000Z 1103/1112 01005KT 3000 HZ FEW015
     BECMG 1105/1106 08010KT 4000 HZ=
TAF VOTV 110000Z 1103/1112 00000KT 4000 HZ FEW015 SCT100
    BECMG 1104/1105 14005KT 5000 HZ 
    TEMPO 1109/1112 2000 TSRA/RA SCT008 SCT012 FEW025CB OVC090=

0000364200
760
FCIN35 VABB 110000 RRA
TAF VAAU 110000Z 1103/1112 030/06KT 4000 HZ NSC BECMG 1105/1107
     08006KT 5000 HZ BECMG 1110/1112 250/08KT 4000 HZ =
TAF VABB 110000Z 1103/1112 040/05KT 2000 HZ NSC BECMG 1104/11106
     100/05KT 2500 FU/HZ BECMG 1107/1109 270/08KT 3000 FU=
TAF VABP 110000Z 1103/1112 00000KT 0200 FG VV///
    BECMG 1104/1106 36005KT 0500 FG VV///
    BECMG 1107/1109 36006KT 1000 BR VV///=
TAF VAGO 110000Z 1103/1112 05008KT 5000 HZ NSCZ
    TEMPO 1100/1103 3000 HZ 
    BECMG 1104/1105 6000 
    BECMG 1106/1108 23010KT  =
TAF VAID 110000Z 1103/1112 00000KT 0200 FG VV///
    BECMG 1104/1106 05005KT 0500 FG VV///
    BECMG 1107/1109 05004KT 1000 FG VV///=
TAF VAJB 110000Z 1103/1112 00000KT 0200 FG VV///
    BECMG 1104/1106 23004KT 0500 HZ FEW090
    BECMG 1107/1109 23005KT 1000 BR VV///=
TAF VAKJ 110000Z 1103/1112 00000KT 0200 FG VV///
    BECMG 1104/1106 32005KT 0500 HZ FEW090
    BECMG 1107/1109 32004KT 1000 BR VV///=
TAF VANP 110000Z 1103/1112 00000KT 0800 FG VV///
    BECMG 1104 1106 23004KT 2000 BR FEW020
    BECMG 1107 1109 23005KT 4000 HZ FEW100=
TAF VARP 110000Z 1103/1112 00000KT 1000 FG VV///
    BECMG 1104/1106 02004KT 2000 HZ FEW090
    BECMG 1107/1109 20005KT 4000 HZ FEW020=
TAF VAUD 110000Z 1103/1112 VRB03KT 3000 HZ SCT035 SCT100 BECMG
     1105/1107 02005KT 5000 HZ=
TAF VEAT 110000Z 1103/1112 33005KT 1200 BR NSC BECMG 1105/1106
    3000 HZ=
TAF VEBI 110000Z 1103/1112 00000KT 1300 BR FEW008 SCT015 BKN100 BEC
      1107/1109 03005KT 2500 HZ FEW018 SCT100 BEC 1110/1112 00000KT
      1500 BR BKN100=
TAF VEBS 110000Z 1103/1112 05004KT 1500 BR FEW020 BECMG
    1106/1108 2000 HZ=
TAF VECC 110000Z 1103/1112 00000KT 0800 FG NSC
     BECMG 1105/1107 1000 MIFG
     BECMG 1110/1112 36005KT 2500 HZ=
TAF VEGT 110000Z 1103/1112 00000KT 1500 BR NSC BEC 1107/1109 05004KT
      3000 HZ FEW018 SCT100 BEC 1110/1112 00000KT 2000 BR SCT100=
TAF VEIM 110000Z 1103/1112 00000KT 1300 BR NSC BEC 1107/1109 07005KT
      2500 HZ FEW018 SCT100 BEC 1110/1112 00000KT 2000 BR SCT100=
TAF VEJS 110000Z 1103/1112 00000KT 0800 FG NSC BECMG 1109/1112 2000
     HZ=
TAF VEKU 110000Z 1103/1112 00000KT 2000 BR NSC BEC 1107/1109 05005KT
      3500 HZ FEW018 SCT100 BEC 1110/1112 00000KT 2500 HZ SCT100=
TAF VELR 110000Z 1103/1112 00000KT 1500 BR NSC BEC 1107/1109 04005KT
      3000 HZ FEW018 SCT100 BEC 1110/1112 00000KT 2000 BR SCT100=
TAF VEMR 110000Z 1103/1112 00000KT 1500 BR NSC BEC 1106/1108 07006KT
      3000 HZ FEW018 SCT100 BEC 1110/1112 00000KT 2000 BR SCT100=
TAF VEPT 110000Z 1103/1112 00000KT 0800 FG NSC BECMG 1109/1112 1200
     BR=
TAF VERC 110000Z 1103/1112 00000KT 0800 FG NSC BECMG 1109/1112 2000
     HZ=
TAF VEVZ 110000Z 1103/1112 12010KT 1500 BR FEW018 SCT090
    BECMG 1105/1107 3000 HZ =
TAF VIBN 110000Z 1103/1112 VRB02KT 0300 FG VV/// BECMG 1104/1106
    0800 MIFG/BR SCT020 BKN100 BECMG 1106/1108 32004KT 2000 HZ TEMPO
    1106/1112 0800 RA/TSRA FEW030CB OVC090=
TAF VIDP 110000Z 1103/1112 27005KT 0400 FG VV///
     BECMG 1105/1107 29005KT 1000 BR NSC
     BECMG 1108/1110 2000 BR/FU=
TAF VIGR 110000Z 1103/1112 00000KT 0200 FG VV///
    BECMG 1104/1106 34005KT 0500 HZ FEW090
    BECMG 1107/1109 36005KT 1000 BR VV///=
TAF VIJO 110000Z 1103/1112 VRB03KT 1500 FU SCT035 SCT100 BECMG
     1105/1107 05005KT 3000 HZ=
TAF VIJP 110000Z 1103/1112 VRB02KT 1000 FU SCT035 SCT100 BECMG
     1105/1107 09004KT 3000 FU/HZ=
TAF VILK 110000Z 1103/1112 VRB02KT 0300 FG VV/// BECMG 1104/1106
    0800 MIFG/BR SCT020 BKN100 BECMG 1106/1108 32004KT 2000 HZ TEMPO
    1106/1112 0800 RA/TSRA FEW030CB OVC090=
TAF VOHY 110000Z 1103/1112 14008KT 3000 HZ NSC BECMG 1105/1107
    15010KT 5000 HZ FEW020=

0000015300
761
SMIN61 VOMM 110000 RRC
AAXX 11004
42810 NIL=
42811 NIL=
42812 NIL=
42900 NIL=
42970 NIL=
42976 NIL=
43310 NIL=
43367 NIL=
0000030500
762
USIN90 VOPB 102300
TTAA 61001 43333
99003 25623 00000 00094 25850 06009 92778 20849 10519
85507 16440 09521 70141 08456 18008 50587 02599 09504
40760 15374 35504 30971 31174 01512 25099 41773 03009
20246 55566 06010 15425 67563 01009 10663 79960 27505
88100 80160 28005 77999=

0000027400
763
USIN90 VOCC 110000
TTAA  61001 43353
99012 24237 00000 00109 24811 10002 92787 21027 16507
85512 16839 07008 70138 08059 12009 50587 04179 04516
40759 15177 04018 30970 30771 05506 25097 42162 14002
20244 54757 13502 15423 67958 29004 88999 77999=

0000086900
764
UKIN90 VOCC 110000
TTBB  61008 43353
00012 24237 11870 18450 22812 13627 33784 12650 44764
13061 55694 07659 66678 05860 77675 06668 88669 08883
99545 00278 11540 00181 22481 05581 33413 14776 44377
17781 55264 38766 66237 45558 77224 48933 88200 54757
99178 61356 11165 62960 22133 74750 33120 79756 44109
81150
21212 00012 00000 11000 10002 22925 16507 33872 12506
44860 07506 55814 05514 66785 11511 77680 12009 88646
04510 99585 00523 11511 05514 22453 02527 33342 08511
44271 01005 55267 00505 66264 35004 77260 34003 88252
15002 99236 12504 11226 20503 22223 29001 33220 01501
44217 34502 55207 35504 66204 03002 77201 13501 88163
14506 99160 11503 11158 00502 22155 33503 33150 29004
44135 28004 55128 11501 66126 00503 77123 36006 88121
34507 99113 32007 11111 34509 22109 00506 31313 51708 
80011 41414 9////=

0000094700
765
UKIN90 VOPB 102300
TTBB 61008 43333
00003 25623 11794 13258 22657 04236 33628 02856 44615
03672 55600 02663 66565 00059 77563 00159 88529 01776
99472 05398 11324 28172 22285 33975 33172 63164 44149
67963 55147 66963 66146 68763 77127 74162 88112 77361
99110 76161 11108 77561 22107 75962 33105 77961 44100
80160
21212 00003 36000 11960 06011 22922 11021 33910 10523
44790 09516 55725 11513 66702 18008 77686 17005 88654
14507 99588 18018 11573 19517 22524 15509 33504 08005
44495 10005 55487 06003 66472 01006 77436 00517 88410
36006 99363 01501 11361 10501 22361 13002 33352 14503
44351 12501 55349 05501 66348 03001 77331 02007 88320
04010 99311 01013 11308 01013 22283 03510 33274 01509
44202 05510 55189 11506 66172 25006 77165 25004 88159
21502 99159 24001 11158 33001 22158 00501 33150 01008
44140 06509 55131 05508 66121 14018 77118 14523 88111
17015 99105 26008 11101 30008 41414 34401=

0000011000
766
UANT01 CWAO 110120
ARP SAS910 5248N05057W 0120 F380 MS64 302/65 KT
LNRKM DDL YAY 110120 J13A
0000016300
767
SSVX13 LFPW 110130
ZZYY 13595 11014 0130/ 730259 019487 6113/ 22219 00199 33300 88872
 20000 43682 444 20130 11014 0128/ 50101 80108 80031 9/015=
0000059800
768
SSVX08 KARS 110119
ZZYY 52007 10014 1200/ 308031 164802 6112/
33311 88872 20001 33060 43420 20025 32988 43453 20050 32895 43493
20075 32764 20100 32729 20125 32589 20150 32479 20200 32075
20250 31633 20300 31285 20500 30764
444 20120 10014 1053/ 521//=
ZZYY 52007 11014 01004 308027 164801 6112/
11119 02306 10296 29077
22219 00308
444 20120 10014 2249/ 521// 60401=
ZZYY 52004 10014 0000/ 305008 165171 6111/
33311 88870 20001 33066 20025 33001 20075 33033 20100 32928
20150 32662 20200 32047 20250 31393 20300 31040 20500 30819
444 20110 10014 0128/ 521//=
0000011100
769
UANT01 CWAO 110120
ARP UAL974 4453N05150W 0120 F370 MS59 308/54 KT
N677UA DDL XXW 110120 F16A
0000011000
770
UANT01 CWAO 110120
ARP DLH443 5415N04805W 0120 F360 MS60 311/60 KT
DAIKO QXT AME 110120 J90A
0000011100
771
UANT01 CWAO 110120
ARP UAL966 4817N04848W 0120 F360 MS62 327/66 KT
N672UA DDL YYT 110120 F24A
0000011100
772
UANT01 CWAO 110121
ARP BER7451 4834N05155W 0121 F370 MS65 303/58 KT
DALPI QXS YYT 110121 J63A
0000012400
773
SNBX40 EBBR 110100 RRC
AAXX 11011
06479 42963 12002 10025 20018 40167 57010 80001 333 81074 91104
91202=
0000011000
774
UANT99 KDDL 110131
ARP DLH443 5432N04535W 0131 F360 MS58 309/48 KT
DAIKO QXT AME 110131 J94A
0000013600
775
SNVD17 CWVR 110100
BBXX
46206 11011 99488 71260 46/// /1214 10070 40035 57074
22200 00074 11507 70037 333 91218 =

0000013600
776
SNVD17 CWVR 110100
BBXX
46205 11011 99542 71343 46/// /1111 10059 49909 57077
22200 00075 11107 70035 333 91214 =

0000024100
777
SOAT10 KWAL 110133
FA8005BC 011013337 OT12 ID:KN-BASS-01 DT:2014 01 11 01 31
:RD -3277 -3296 -3277 -3277 -3270 -3276 -3285 -3271 -3279 -3291
:PR 0389 0386 0361 0425 0364 0366 0440 0418 0365 0437
:B 13.6V
 48+0NN 219E
0000034400
778
UPBZ02 SBBR 110000
PPAA ///// 82397 NIL=
PPAA 6100/ 82400 44/// 77999=
PPAA 61008 82599 44385 12525 16522 09020 44340 25507 27525
25523 44320 26541 27572 11504 77150 27572 43049=
PPAA ///// 82678 NIL=
PPAA ///// 82900 NIL=
PPAA ///// 82983 NIL=
PPAA ///// 83229 NIL=
PPAA ///// 83288 NIL=
PPAA ///// 83498 NIL=
00000000