0000027400
632
SXHW11 KWAL 110207
15D142A4 011020702 :PRS 1 #1 1464 1470 1451 1442 1472 1480 1475 1468 1465 1480 :RAD 1 #1 7045 7044 7037 7040 7053 7056 7051 7048 7047 7056 :ENC 2 #5 4949 4958 4952 4953 :SW1 7 #60 0 :SW2 37 #60 0 :BAT 4 #5 13.9 :NAME 15D142A4  34-0NN 216W
0000112400
633
SNNO21 ENMI 110200
AAXX 11021
01001 46/// /0706 10004 21011 30129 40141 57001=
01008 46/// /2608 11003 21046 30050 40083 52003=
01010 41989 01106 11057 21133 30151 40167 52003 70200=
01026 26/// /1101 11123 21138 30032 40183 52003 333 60005=
01055 46/// /0000 11038 21089 30157 40175 54000=
01062 46/// /3203 11016 21033 30081 40094 52003=
01098 46/// /0305 11021 21101 30137 40155 54000=
01115 26/// /0905 11051 21130 30075 40097 52003 333 60005=
01152 46/// /1110 11072 21158 30107 40123 53006=
01205 46/// /0105 11005 21053 39945 49991 58010=
01212 26/// /1004 11024 21067 39979 49997 55007 333 60005=
01271 47/84 01004 11105 21159 30019 40041 52008 700//=
01288 46/// /1005 11149 21176 39262 40053 52004=
01300 NIL=
01317 26/// /1604 10032 20011 39965 49980 57008 333 60005=
01367 46/// /3502 11061 21071 39539 49992 50003=
01384 46360 /0101 11019 21020 52006=
01403 46/// /2711 10065 20035 39929 49997 53001=
01415 47572 82504 10070 20048 39997 40008 57000 700//=
01482 46/// /2710 10055 20034 39969 49978 55000=
01492 46/// /0802 11002 21012 39859 49978 54000=
0000091600
634
SNNO22 ENMI 110200
AAXX 11021
01003 NIL=
01007 46/// /1202 11025 21062 30068 40077 50002=
01028 41565 33103 11006 21015 30105 40125 50000 70121 83500=
01047 NIL=
01049 26/// /2003 11149 21164 30190 40193 50000 333 60005=
01078 46/// /2804 11043 21062 30156 40166 50000=
01102 46/// ///// 11057 21111 30045 40065 52005=
01160 46/// /0709 11054 21125 30124 40142 50003=
01218 26/// /1603 11016 21073 39973 49995 57003 333 60005=
01238 46/// /0301 11116 21128 38829 49957 54000=
01241 41486 20906 11084 21121 30010 40022 54000 70100 81702=
01281 46/// /1004 11112 21158 39903 40088 51009=
01338 46/// /2904 10029 21041 39909 49975 56005=
01359 46/// /2204 11008 21049 39055 49964 58006=
01397 46/// /3202 11093 21122 39578 40032 52009=
01400 NIL=
01427 26/// /2707 10065 20048 39996 40012 57005 333 60005=
01447 NIL=
01448 46/// /2807 10061 20044 39997 40007 58005=
0000031600
635
SAME31 OLBA 110200
METAR OLBA 110200Z 10004KT 7000 BKN026 12/09 Q1022=
METAR OSDI 110200Z 00000KT 0100 FG FEW030 M01/M02 Q1021=
METAR OSAP NIL=
METAR OSLK 110200Z 05004KT CAVOK 05/M01 Q1021=
METAR OJAI NIL=
METAR OJAM 110200Z 29006KT 4000 BR NSC 08/06 Q1020 TEMPO 3000 BR=
METAR OJAQ NIL=
0000009900
636
SNVX22 EDZW 110200
SATLINK DATA BUFFER EMPTY NSB III 62087 TIME 2014/01/11 02:01:17
0000117900
637
SMPA01 RJTD 110000
AAXX 11004
91165 12966 00315 10256 20194 30105 40140 69981 92353=
91212 12566 40616 10283 20217 31401 40135 50012 69901 92354=
91285 32566 40507 10261 20200 30110 40122 58030 92353=
91317 11473 70915 10283 20269 30105 40109 5//// 69954 70282 82902=
91334 32474 80310 10292 20243 30102 40105 50003 82171=
91348 11474 51009 10297 20239 30056 40108 50005 60044 70281 81101=
91353 32474 80509 10311 20253 30093 40100 5//// 83208=
91356 11466 80316 10288 20249 30085 40092 5//// 69954 72522 86242=
91367 32474 30522 10300 20263 83100=
91369 32474 20918 10311 20271 30075 40078 82100=
91376 32474 60311 10301 20226 30080 40083 58005 84801=
91408 11474 81007 10271 20242 30071 40109 52025 60164 72582 83378=
91413 11469 80812 10286 20251 30095 40120 52025 69954 70282 83371=
91425 12474 80404 10306 20289 30101 40102 5//// 60104 82208=
91434 11474 83604 10289 20259 30088 40089 5//// 60134 70282 882//=
91610 11498 30414 10302 20245 40060 58010 60041 71581 81302=
91155 NIL=
91203 NIL=
91217 NIL=
91232 NIL=
91250 NIL=
91275 NIL=
91324 NIL=
91339 NIL=
91366 NIL=
91371 NIL=
91378 NIL=
91601 NIL=
0000015700
638
SSVX13 LFPW 110200
ZZYY 14515 11014 0200/ 333068 049900 6113/ 11119 40116 57012 22219
 00203 444 20130 11014 0000/ 50101 80148 80019 9/015=
0000015700
639
SSVX13 LFPW 110200
ZZYY 64620 11014 0200/ 757088 031320 6113/ 11119 40000 52011 22219
 00076 444 20130 11014 0000/ 50101 80100 80002 9/015=
0000015700
640
SSVX13 LFPW 110200
ZZYY 44549 11014 0200/ 758997 014167 6113/ 11119 40028 52017 22219
 00096 444 20130 11014 0000/ 50101 80072 80003 9/015=
0000015700
641
SSVX13 LFPW 110200
ZZYY 31868 11014 0200/ 529202 031770 6113/ 11119 40220 57005 22219
 00254 444 20130 11014 0000/ 50101 80142 80015 9/015=
0000015700
642
SSVX13 LFPW 110200
ZZYY 16543 11014 0200/ 345883 078377 6113/ 11119 40062 52005 22219
 00075 444 20130 11014 0000/ 50101 80142 80013 9/015=
0000015700
643
SSVX13 LFPW 110200
ZZYY 44741 11014 0200/ 738832 028271 6113/ 11119 40032 57026 22219
 00159 444 20130 11014 0000/ 50101 80126 80015 9/015=
0000013900
644
SSVX13 LFPW 110200
ZZYY 63639 11014 0200/ 172035 034900 6113/ 22219 00041 444 20130
 11014 0000/ 50101 80134 80002 9/015=
0000015700
645
SSVX13 LFPW 110200
ZZYY 62556 11014 0200/ 723192 045860 6113/ 11119 40217 52007 22219
 00243 444 20130 11014 0000/ 50101 80076 80002 9/015=
0000014500
646
SSVX13 LFPW 110200
ZZYY 26556 11014 0200/ 778926 014038 6113/ 11119 49995 57006 444
 20130 11014 0000/ 50101 80130 80002 9/015=
0000013900
647
SSVX13 LFPW 110200
ZZYY 64527 11014 0200/ 760041 051681 6113/ 22219 00040 444 20130
 11014 0000/ 50101 80078 80008 9/015=
0000015700
648
SSVX13 LFPW 110200
ZZYY 16542 11014 0200/ 346152 069567 6113/ 11119 40139 52007 22219
 00064 444 20130 11014 0000/ 50101 80144 80018 9/015=
0000015700
649
SSVX13 LFPW 110200
ZZYY 16535 11014 0200/ 324965 049779 6113/ 11119 40139 52006 22219
 00278 444 20130 11014 0000/ 50101 80124 80003 9/015=
0000009800
650
SNVX19 LFVW 110200
BBXX
MINUK03 1102/ 99525 10046 46/// ///// 10065 40132 57007=
0000012800
651
SSVX13 LFVW 110206
ZZYY 16551 11014 0200/ 321985 060442 6113/
11119 40178 52014
444 50101 80074 80000 9/015=
00000000