0000148100
846
WWCN15 CWWG 111133
SEVERE WEATHER BULLETIN
ISSUED BY ENVIRONMENT CANADA
AT 4:33 AM MST SATURDAY 11 JANUARY 2014.
---------------------------------------------------------------------
WATCHES/WARNINGS IN EFFECT FOR SOUTHERN ALBERTA...
SNOWFALL WARNING FOR:
      BANFF NATIONAL PARK
      KANANASKIS - CANMORE
      JASPER NATIONAL PARK.
      SNOW AT TIMES HEAVY CONTINUING TODAY.
WIND WARNING FOR:
      OKOTOKS - HIGH RIVER - CLARESHOLM
      LETHBRIDGE - TABER - MILK RIVER
      CARDSTON - FORT MACLEOD - MAGRATH
      CROWSNEST PASS - PINCHER CREEK - WATERTON LAKES NAT. PARK.
      WINDS INCREASING TO 80 KM/H GUSTING 100 THIS MORNING.
---------------------------------------------------------------------
==DISCUSSION==
A LOW PRESSURE SYSTEM OVER BRITISH COLUMBIA WILL MOVE INTO ALBERTA
TODAY.
SNOW AT TIMES HEAVY WILL CONTINUE OVER THE JASPER AND BANFF REGIONS
TODAY. 10 TO 20 CENTIMETRES OF SNOW IS EXPECTED TO FALL BY THIS
AFTERNOON.
OVER THE KANANASKIS REGION, RAIN MIXED WITH SNOW IS FORECAST TO FALL
OVER MOST OF THE REGION WITH HEAVIER SNOW OCCURRING OVER WESTERN
SECTIONS. 10 CENTIMETRES OF SNOW IS EXPECTED TO FALL OVER WESTERN
SECTIONS BY THIS AFTERNOON.
OVER THE SOUTHWESTERN REGIONS OF ALBERTA WESTERLY WINDS WILL
INCREASE TO 80 KM/H GUSTING TO 100 THIS MORNING. WINDS ARE
FORECAST TO DIMINISH LATER THIS AFTERNOON.
PLEASE REFER TO THE LATEST PUBLIC FORECASTS FOR FURTHER DETAILS.
END
0000024300
847
WSBZ21 SBRE 111135
SBAO SIGMET 9 VALID 111155/111555 SBRE-
SBAO
ATLANTIC FIR EMBD TS FCST WI S3133 W04743 - S3232 W04532 - S2939

W04344 - S3351 W04009 -
S3402 W04512 - S3400 W04949 - S3133 W04743 TOP
FL400 STNR NC=
0000026800
848
SAGG31 UGTB 111130
METAR UGTB 111130Z 30017KT CAVOK 11/M08 Q1016 R31L/CLRD80 NOSIG=
METAR UGSB 111130Z 26015KT 9999 SCT033CB BKN060 11/07 Q1024
    R13/CLRD70 NOSIG=
METAR UGKO 111130Z 28012KT 9999 SCT030CB BKN049 12/05 Q1020
 R07/09//70 NOSIG=
0000010600
849
SAAJ31 UBBB 111130
METAR UBBB 111130Z 20022G32KT 8000 SCT200 08/02 Q1009
88CLRD70 NOSIG=
0000010700
850
SAAJ31 UBBB 111130
METAR UBBG 111130Z 29014KT 9999 FEW100 13/M08 Q1012
R30/CLRD70 NOSIG =
0000086000
851
SAUR30 UKMS 111130
METAR UKBB 111130Z 27006MPS 9999 SCT020 BKN040 06/02
         Q1009 88290060    TEMPO 27011G16MPS=
METAR UKHH 111130Z 28009MPS 9999 BKN033 05/00 Q1004
         25190057  TEMPO 28012G21MPS=
METAR UKOO 111130Z 28007MPS CAVOK 10/M01 Q1019
         34190058 NOSIG=
METAR UKDE 111130Z 29009G14MPS 260V320 9999 SCT020
         08/01 Q1011 02290356 NOSIG=
METAR UKDD 111130Z 29012MPS 9999 BKN026 06/01 Q1010
         26210370 TEMPO 29013G18MPS=
METAR UKFF 111130Z 26011MPS 230V300 9999 BKN028 08/01
          Q1019 19010070 NOSIG=
METAR UKLL 111130Z 26006MPS 9999 BKN042 BKN200 05/M03
         Q1017  31CLRD80 TEMPO 28010G15MPS=
METAR UKCC 111130Z 27010MPS 9999 BKN021 05/02 Q1009
         26090070 TEMPO 28012G17MPS=
METAR UKDR 111130Z 27011G17MPS 9999 SCT020 07/M01
         Q1013 1819//60 NOSIG=
0000013400
852
SAAJ31 UBBB 111130
METAR UBBN 111130Z 26007KT 3600 -SN BR OVC014 M09/M11 Q1023
R14R/490050 NOSIG RMK MT OBSC QFE692=
0000012000
853
SNSQ51 LZIB 111100 CCA
AAXX 11111
11858 42975 69901 10084 20013 30060 40212 81046
  333 81359 86270=
0000011100
854
SNVF21 ESWI 111100 RRA
BBXX
SBPQ 11111 99656 10222 46/// /0308 11163 40126 52007 22201 00007=
0000011100
855
SNVF21 ESWI 111100 RRB
BBXX
SDIA 11111 99656 10222 46/// /0207 11163 40126 52005 22201 00011=
0000012800
856
UPMA01 FIMP 111200
PPAA 61111 61974 NIL=
PPAA 61111 61986 NIL=
PPAA 61113 61988 NIL=
PPAA 61113 61995 NIL=
0000016300
857
SSVX13 LFPW 111130
ZZYY 13593 11014 1130/ 738167 018525 6113/ 22219 00169 33300 88872
 20000 43623 444 20130 11014 1126/ 50101 80118 80035 9/015=
0000011000
858
UANT01 CWAO 111135
ARP AAL63 4900N02007W 1134 F310 MS53 195/84 KT
N371AA DDL XXN 111135 F32A
0000011000
859
UANT99 KDDL 111134
ARP UAL45 5307N02559W 1134 F360 MS62 195/67 KT
N29124 DDL IG1 111135 F55A
0000013600
860
SNVD17 CWVR 111100
BBXX
46004 11111 99509 71361 46/// /2910 10075 49784 52017
22200 00080 11008 70042 333 91213 =

0000017000
861
SOVI10 KWAL 111136
B110070A 011113601 P9751095 B\P~W@@^0ekK1@ms???CcCh>@m_3@JC~@T4Cs5C|6bV9Jg<BM2?????@"??? nTKaKBpBuBwBvBvBq:AMPTEMP 25.85C  45+0NN 219E
0000046700
862
SZPA01 AMMC 111136
CREX++
T000103 A001 D01021 D06025++
0136250 17293000 67590 2014 01 11 11 29 3017 11 07 00 01
01661 0044 01659 0038 01642 0018 01659 0031 01655 0024 01672 0037+
0710610 17137250 67680 2014 01 11 11 29 3013 11 07 00 01
01156 0083 01161 0086 01164 0086 01161 0081 01162 0079 01166 0081+
0698060 15820000 67950 2014 01 11 11 29 3023 11 07 00 01
00628 0030 00630 0031 00633 0033 00633 0033 00631 0030 00630 0028++
7777

0000034600
863
SZIO01 AMMC 111136
CREX++
T000103 A001 D01021 D06025++
-1211670 09689190 46280 2014 01 11 11 29 3020 11 07 00 01
00880 0018 00885 0026 00882 0025 00882 0027 00872 0019 00872 0021+
-1042940 10566940 46290 2014 01 11 11 29 //// 11 07 00 01
01192 -0026 01199 -0017 01182 -0031 01209 -0002 01161 -0047 01216 0010++
7777

0000179200
864
SZPS01 AMMC 111136
CREX++
T000103 A001 D01021 D06025++
-0204190 14737360 56130 2014 01 11 11 29 3027 11 07 00 01
00432 0075 00436 0080 00432 0077 00437 0083 00436 0084 00435 0084+
-0669280 15640860 56363 2014 01 11 11 29 //// 11 07 00 01
00439 -0040 00439 -0042 00445 -0037 00445 -0038 00445 -0039 00449 -0036+
-0942890 15995560 56670 2014 01 11 11 29 3043 11 07 00 01
00439 -0046 00436 -0049 00438 -0046 00435 -0049 00435 -0049 00436 -0047+
-1072080 16580190 57131 2014 01 11 11 29 //// 11 07 00 01
00986 0599 00959 0570 00944 0553 00998 0604 00382 -0014 00750 0352+
-1551560 16718860 57210 2014 01 11 11 29 //// 11 07 00 01
00413 -0155 00431 -0140 00444 -0130 00454 -0122 00456 -0123 00439 -0143+
-1775690 16830030 57320 2014 01 11 11 29 3017 11 07 00 01
00380 -0121 00384 -0118 00388 -0115 00391 -0114 00394 -0113 00396 -0112+
-4397330 16861610 65180 2014 01 11 11 29 2887 11 07 00 01
01703 0401 01668 0371 01701 0409 01715 0428 01670 0388 01665 0389+
-2120470 -15978530 65980 2014 01 11 11 29 3010 11 07 00 01
00462 -0033 00492 -0004 00510 0013 00525 0027 00494 -0005 00468 -0033+
-2113810 -17518140 66600 2014 01 11 11 29 //// 11 07 00 01
00827 0085 00828 0083 00832 0083 00828 0076 00839 0084 00846 0087+
-1382670 -17176110 66840 2014 01 11 11 29 3012 11 07 00 01
00712 0029 00720 0035 00723 0035 00722 0031 00725 0031 00729 0032+
-1813250 17842750 67050 2014 01 11 11 29 3032 11 07 00 01
00923 0119 00928 0121 00929 0118 00932 0118 00936 0119 00942 0121+
-1760530 17743810 67070 2014 01 11 11 29 3032 11 07 00 01
00896 0026 00900 0027 00904 0026 00908 0027 00911 0026 ///// ////+
-0850250 17919500 67440 2014 01 11 11 29 3027 11 07 00 01
01925 0018 01930 0019 01930 0015 01936 0017 01939 0016 01939 0013++
7777

0000192700
865
SZAU01 AMMC 111136
CREX++
T000103 A001 D01021 D06025++
-1927750 14705860 59260 2014 01 11 11 29 3023 11 07 00 01
01902 0214 01899 0217 01894 0219 01887 0220 01877 0217 01870 0218+
-2316110 15079000 59670 2014 01 11 11 29 3002 11 07 00 01
02631 0263 02625 0266 02611 0263 02604 0265 02589 0261 02581 0262+
-3447330 15091170 60420 2014 01 11 11 29 2953 11 07 00 01
00562 -0037 00561 -0036 00562 -0033 00561 -0032 00559 -0032 00553 -0036+
-4105000 14591500 60910 2014 01 11 11 29 2888 11 07 00 01
02647 -0007 02632 -0014 02635 -0004 02619 -0014 02629 0005 02621 0004+
-4254640 14793080 61170 2014 01 11 11 29 2895 11 07 00 01
01113 0125 01112 0125 01106 0120 01104 0119 01099 0114 01102 0118+
-3834390 14161360 61410 2014 01 11 11 29 2908 11 07 00 01
00682 -0019 00736 0034 00679 -0023 00710 0007 00691 -0012 00698 -0006+
-3214890 13364170 62000 2014 01 11 11 29 2960 11 07 00 01
01048 -0015 01048 -0015 01050 -0014 01051 -0014 01050 -0016 01051 -0016+
-3387080 12189720 62080 2014 01 11 11 29 2950 11 07 00 01
01041 0049 01037 0044 01034 0040 01040 0045 01039 0043 01040 0043+
-3182560 11573860 62237 2014 01 11 11 29 2972 11 07 00 01
01012 0070 01019 0077 01022 0081 01027 0086 01028 0088 01033 0093+
-2422000 11339750 62385 2014 01 11 11 29 //// 11 07 00 01
01355 -0081 01339 -0096 01291 -0142 01343 -0089 01412 -0018 01378 -0051+
-2181670 11419110 62430 2014 01 11 11 29 //// 11 07 00 01
02178 -0053 02172 -0058 02182 -0047 02177 -0051 02168 -0058 02182 -0043+
-1800080 12221830 62650 2014 01 11 11 29 3043 11 07 00 01
06781 -0008 06776 -0010 06770 -0012 06764 -0013 06761 -0012 06758 -0012+
-1247190 13084580 63230 2014 01 11 11 29 3050 11 07 00 01
04224 0135 04224 0134 04223 0134 04223 0132 04223 0132 04222 0132+
-1386000 13641580 63511 2014 01 11 11 29 3043 11 07 00 01
01929 0159 01932 0161 01934 0162 01935 0163 01935 0162 01936 0162++
7777

00000000