0000009000
112
SPSA85 EGRR 110157 RRC
SPECI SBTC 110123Z 24001KT 9999 FEW015 23/23 Q1015=
0000207300
113
FAUK18 EGRR 110200
AIRMET AREA FORECAST, UK-OUTLOOK-AND-UPDATE,
VALID JAN 11/0300Z TO 11/0900Z.

MET-SITUATION: AT 03Z: AN OCCLUSION LIES FROM THE WASH TO
LYME BAY, MOVING SE AT 15KT TO CLEAR THE DOVER STRAITS BY
09Z. A RIDGE OF HIGH PRESSURE WILL BUILD TO ITS REAR BUT
AN UNSTABLE WNW WILL PREVAIL IN AREAS N OF N5500.


OUTLOOK: UNTIL JAN 12/1800Z:

REMAINDER OF SATURDAY:
NEAR AND AHEAD OF FRONT: OCNL RA OR RADZ AND BKN OR OVC
CUSC AND ACAS LYR, EXTENSIVE ST, ESPECIALLY NEAR FRONT.
MOD OR GOOD VIS. LIGHT TO MOD SW WINDS, VEERING LIGHT W
OR NW ON FRONTAL PASSAGE.

N AND W OF SCOTLAND, AND INITIALLY THE W OF NORTHERN
IRELAND: OCNL SHRA OR SHRAGS, ISOL HVY SHRASN OR TSGS AND
SN MON, THESE BECMG CONFINED TO THE N ISLES BY 00Z. SCT
OR BKN CUSC AND OCNL CB EXCELLENT VIS, FALLING RAPIDALY
TO MOD OR POOR IN SHOWERS. MOD LCA STRONG W WINDS BECMG
LIGHT S OR SE IN THE W DURING THE EVENING.

ELSEWHERE: ISOL BR,FG OR FZFG LAN DURING THE MORNING.
OCNL BR/FG FORMING LAN DURING THE EVENING, ESPECIALLY
ENGLAND AND WALES. ISOL SHRA OR SHRAGS SEA COT N AT
FIRST, BUT GEN WELL-BROKEN CUSC AND GOOD VIS. LIGHT,
MAINLY W WINDS, BECMG LIGHT ISOL MOD S OR SE IN THE W BY
00Z.

SUNDAY UNTIL 1800Z:

A S FLOW WILL BECOME ESTABLISHED OVER THE UK AS THE RIDGE
OF HIGH PRESSURE OVER THE E MOVES AWAY. AN OCCLUSION WILL
MOVE NE TO LIE FM W SCOTLAND TO LYME BAY BY 18Z.

AHEAD OF OCCLUSION: ISOL SHRA OR SHRAGS IN N ISLES DYING
OUT. AREAS BR, FG OR FZFG WILL LIFT INTO EXTENSIVE BKN
LOW ST DURING THE MORNING, BREAKING TO SCT AMOUNTS LEE
MON. MOD OR POOR VIS, BECMG LCA GOOD. LIGHT BECMG MOD S
OR SE WINDS.

OCCLUSION AND 60NM EITHER SIDE: OCNL RA OR RADZ AND HILL
FG. SN MON N FOR A SHORT TIME. BKN OR OVC SC AND ACAS
WITH BKN ST BENEATH. MOD LCA POOR VIS. MOD LCA STRONG S
OR SE WINDS WITH MOD TURB AND MTW, VEERING LIGHT TO MOD
SW ON FRONTAL PASSAGE.

REAR OF OCCLUSION: ISOL SHRA. SCT OR BKN CUSC WITH ISOL
SCT OR BKN UPSLOPES ST. GOOD VIS AND LIGHT TO MOD SW
WINDS.
0000062200
114
SAUK63 EGRR 110150
METAR EGQL 110150Z 26006KT CAVOK 01/M01 Q1007=
METAR EGQM 110150Z AUTO 26006KT 9999 NCD 04/M01 Q1008=
METAR EGQS 110150Z 24005KT CAVOK M01/M02 Q1005=
METAR EGVN 110150Z 21005KT 9999 SCT022 BKN030 08/06 Q1011 TEMPO 3000
-RADZ SCT006=
METAR EGVO 110150Z 20012KT 9999 SCT039 OVC050 08/07 Q1012 RERA=
METAR EGXC 110150Z 22011KT 9999 BKN016 OVC025 08/06 Q1009=
METAR EGXT 110150Z AUTO 21010KT 9999 FEW026/// BKN037/// 07/06 Q1010 RERA=
METAR EGXV 110150Z AUTO 25006KT 9000 BR BKN013/// BKN024/// 07/06 Q1007
RERA=
METAR EGXW 110150Z 23011KT 9999 BKN010 OVC070 08/06 Q1009=
0000008600
115
SACY42 EGRR 110150
METAR LCRA 110150Z 30004KT 9999 FEW035 09/01 Q1021=
0000101600
116
UGIN90 VEPT 110000

PPBB 61008 42492

90/12 36000 08516 07509 90345 06506 03506 04007 90678

07505 12002 21503 909// 29502 91012 25007 26014 24525

91345 24030 24036 25039 91678 25544 25552 26057 919//

26058 92012 25557 25553 25553 92345 25553 26051 26551

92678 26565 27081 27080 929// 27592 93012 28120 28131

28130 93345 27633 27633 27633 93678 27629 27637 27642

939// 27641 94012 27145 27145 26649 94345 27146 27143

27638 94678 28129 28109 28595 949// 27581 95012 27079

25579 25077 90012 36000 08516 07509 90345 06506 03506

04007 90678 07505 12002 21503 9091011 29502 25007 26014

91234 24525 24030 24036 91567 25039 25544 25552 918910

26057 26058 25557 92123 25553 25553 25553 92456 26051

26551 26565 92789 27081 27080 27592 93012 28120 28131

28130 93345 27633 27633 27633 93678 27629 27637 27642

9391011 27641 27145 27145 94234 26649 27146 27143 94567

27638 28129 28109 948910 28595 27581 27079 9512/ 25579

25077=
0000003900
117
UAPF01 NTAA 110200
NIL=
0000010000
118
SNVD25 LFPW 110200
BBXX
BAREU12 11024 99405 70719 46/// ///// 40261 57021
22264=
0000039800
119
SWIO40 RJTD 110200
:PRS 1 #1 1767 1774 1771 1762 1758 1762 1765 1749 1753 1751 1755 1741
1743 1736 1730 1740 1744 1729 1751 1724 1755 1720 1744 1730 1727 1749
1726 1743 1757 1732 :RAD 1 #3 6146 6136 6135 6133 6127 6126 6123 6125
6131 6141 :ENC 5 #5 5131 5117 5112 5109 5116 5132 5149 5163 5165 5162
5167 5166 :SW1 60 #60 59 :SW2 30 #60 60 :BAT 14 #15 12.7 :NAME 
0650018E=
0000011100
120
UANT01 CWAO 110158
ARP UAL950 4438N04717W 0158 F370 MS55 310/68 KT
N771UA DDL XXW 110158 F44A
0000066900
121
UEIY01 LIIB 110000 RRB
TTDD 6100/ 16429
11838 63778 22758 60180 33648 62780 44455 55982 55412
56782 66294 54383 77246 56382 88149 50784 99126 50984
11105 46385 22090 48584 33072 44586
21212 11928 27027 22795 28026 33769 30525 44742 30517
55708 27523 66682 29027 77661 31023 88625 32019 99587
30519 11560 34520 22528 36018 33507 33018 44474 00521
55425 02014 66403 36022 77393 35513 88386 32008 99380
31010 11356 35521 22325 35517 33307 00531 44279 03531
55264 01029 66231 36033 77201 00543 88184 01028 99174
00539 11159 01529 22149 00546 33113 02555 44106 01539
55099 02554 66093 01051 77083 01555 88075 36067 99072
36065
31313 48008 80003=
0000019300
122
ULIY01 LIIB 110000 RRB
TTCC 61001 16429
70847 62380 27524 50057 56982 34021 30382 55182 01031
20641 52783 00543 10093 47585 02552
88999
77075 36067 412//
31313 48008 80003=
0000032400
123
UEAA01 LIIB 110000
89625 NIL=
TTDD 6100/ 89662
11238 36587
21212 11942 26510 22907 29515 33867 27017 44840 23513
55661 00000 66586 28010 77563 22516 88549 18012 99546
17510 11494 00000 22417 30510 33290 00000 44269 14010
55265 10513 66260 09017 77254 06014 88250 03510 99238
14002
31313 48008 82314=
0000060500
124
UKAA01 LIIB 110000
89625 NIL=
TTBB 61008 89662
00989 00458 11987 01359 22969 03136 33842 10760 44735
18550 55724 17562 66497 31968 77446 37759 88443 37565
99377 43764 11324 51760 22295 53962 33270 48776 44213
44783 55100 41585
21212 00989 00504 11826 33510 22802 30511 33498 22010
44455 23011 55444 21013 66413 21018 77382 19020 88316
19520 99288 24023 11266 23517 22261 26018 33247 24520
44235 27022 55213 26025 66203 26021 77195 24519 88188
27019 99170 25516 11162 25015 22154 27015 33149 25515
44138 26014 55135 27512 66109 24510 77100 28506
31313 48008 82314
41414 /////=
0000016600
125
ULAA01 LIIB 110000
89625 NIL=
TTCC 61003 89662
70838 40785 28008 50068 38786 34502 30419 37587 22506
20700 /////
88999
77999
31313 48008 82314=
0000033000
126
USAA01 LIIB 110000
89625 NIL=
TTAA 61001 89662
99989 00458 00504 00506 ///// ///// 92610 05945 02007
85267 10160 33513 70733 18964 31004 50517 31968 22010
40672 41366 20019 30862 53562 22020 25981 47380 24522
20129 44983 25521 15322 43784 26015 10596 41585 28506
88295 53962 22520
77999
31313 48008 82314=
0000010800
127
UANT01 CWAO 110159
ARP FIN6 5615N04918W 0159 F380 MS63 287/56 KT
OHLTM QXT AME 110159 J14A
0000011100
128
UANT01 CWAO 110159
ARP UAL124 4921N04828W 0159 F380 MS62 316/65 KT
N13138 DDL YYT 110159 F43A
0000010000
129
SNVF25 LFPW 110200
BBXX
BAREU65 11024 99331 70141 46/// ///// 40158 52005
22243=
0000011800
130
SNVF25 LFPW 110200
BBXX
BATFR31 11024 99428 10063 46/// /0810 10132 20087 40207 53002
22274 00144=
0000009800
131
SNVF25 LFPW 110200
BBXX
12050 11024 99336 10319 46/// ///// 40224 52001
22271=
00000000