0000091600
279
UEUS07 KWBC 110000 RRA
TTDD 6100/ 72634 11562 71570 22480 69370 33381 70171 44336 67172
55287 69772 66273 69373 31313 45208 82326=
TTDD 6100/ 72768 11955 57382 22859 61381 33766 60581 44692 62580
55626 61581 66518 65579 77410 64980 88334 68579 99265 66979 11244
68379 22193 68379 33153 73977 44126 74577 55108 72977 66097 75777
77079 62380 88077 58981 99075 57982 31313 58208 82304=
TTDD 6100/ 74494 11844 69961 22792 66762 33761 67361 44695 64962
55633 65962 66562 69761 77517 67762 88491 64563 99408 65962 11380
63963 22364 60964 33334 60564 44326 59165 55313 60165 66288 57166
77260 57766 88254 54568 99245 54169 11243 51370 22230 52570 33225
49573 44203 48176 55179 52174 66169 50776 77156 43980 88149 45381
99135 39981 11129 41982 22119 40383 33117 38383 44113 38783 55111
36183 66109 35183 77105 37183 88102 35584 99098 36184 11092 38785
22087 39385 31313 58708 82304=
0000032800
280
ULUS08 KWBC 110000 RRB
TTCC 61003 72248 70839 70164 25537 50041 67565 27023 30350 64766
26026 88734 71563 26541 77999 31313 58208 82310=
TTCC 61001 72249 70839 65172 28547 50042 70370 31520 30350 65174
31020 20602 55582 30525 10050 50584 25076 07282 48984 24604 88889
67571 24564 77999 31313 58208 82302=
0000085400
281
UEUS08 KWBC 110000 RRB
TTDD 6100/ 72248 11876 69364 22808 69764 33789 68365 44734 71563
55689 69164 66649 69564 77622 67565 88575 66965 99535 70763 11514
67365 22454 69164 33446 66965 44430 67965 55414 65766 66371 66965
77345 64567 88324 65765 99317 63767 11283 67564 22256 66965 33232
64166 44222 58968 55204 56368 31313 58208 82310=
TTDD 6100/ 72249 11967 64774 22889 67571 33872 65373 44842 65173
55780 68171 66759 67571 77749 64973 88737 63973 99598 67571 11547
66572 22500 70370 33408 65373 44383 67572 55356 67172 66344 68571
77295 64174 88276 65374 99267 61576 11253 59578 22235 61377 33229
59178 44187 53383 55152 52383 66136 54782 77132 53583 88126 55182
99117 49384 11112 48184 22089 53183 33086 50384 44082 51983 55067
47984 66063 49584 77061 48184 88058 50584 99056 47385 11055 47185
31313 58208 82302=
0000037800
282
USUS09 KWBC 110000 CCA
TTAA 61001 72469 99829 03863 30015 00067 ///// ///// 92713 /////
///// 85404 ///// ///// 70952 07164 32541 50546 28356 32060 40703
37163 33591 30898 48759 34639 25017 49377 33596 20163 483// 32541
15349 553// 29563 10608 533// 30545 88263 51169 34124 77317 35148
43033 31313 58208 82311 51515 10164 00002 10181 10194 31033
32540=
0000013400
283
SNDL21 EDZW 110100 RRA
AAXX 11011
10004 46/59 /2109 10082 20071 30100 40100 58006
222// 00078
  333 55300 99113=
0000021100
284
SNDL22 EDZW 110100 RRA
AAXX 11011
10007 46/57 /2212 10072 20064 30108 40108 58004
222// 00071
  333 553// 91114 91212=
10439 42975 81401 10011 20001 39957 40183 57003 80007
  333 88270=
0000041600
285
SNDL44 EDZW 110100 RRA
AAXX 11011
10033 42468 72308 10067 20053 30056 40097 58004 875//
  333 83710 87620 91013 91115=
10037 46/50 /2407 10056 20043 30077 40108 5/002
  333 91113=
10038 42365 52305 10056 20042 30090 40112 58001 85600
  333 85707=
10126 42359 72206 10065 20052 30112 40128 58004 876//
  333 87709=
10136 42458 72406 10058 20045 30085 40125 58002 876//
  333 87712=
0000029900
286
SNDL45 EDZW 110100 RRA
AAXX 11011
10172 42462 52504 10048 20032 30050 40123 52002 85500
  333 83616 83629=
10246 42460 72505 10045 20034 30041 40150 55001 876//
  333 87710=
10304 46/57 /2204 10059 20035 30096 40147 5/001=
10306 46/// ///// 1//// 2//// 3//// 4//// 5////=
0000027400
287
SNDL46 EDZW 110100 RRA
AAXX 11011
10334 42470 72504 10045 20028 30069 40155 57001 875//
  333 81613 87638=
10335 42462 82405 10050 20028 30064 40157 57004 875//
  333 87613=
10343 42465 72404 10048 20027 30087 40152 57003 875//
  333 83615 87627=
0000005200
288
RRIN23 VECC 110104
RQRPT 339-360=

0000024200
289
SNDL47 EDZW 110100 RRA
AAXX 11011
10476 42680 72304 10047 20016 30043 40168 55003 875//
  333 87645=
10502 42982 51302 10000 21009 30008 40177 58006 80001
  333 84074=
10516 46/// /1602 10025 20015 30066 40188 5/006=
0000022800
290
SNDL48 EDZW 110100 RRA
AAXX 11011
10613 46/50 /2702 10011 20009 39597 40191 5/006=
10618 41904 02402 11023 21026 39732 40203 58005 74844=
10743 42984 11803 11002 21013 39624 40206 58006 80001
  333 81074=
0000042700
291
SNDL49 EDZW 110100 RRA
AAXX 11011
10771 42970 61302 11004 21007 39696 40215 57003 80001
  333 86075=
10837 41957 02701 11011 21014 39541 40217 57006 71200=
10856 41765 31603 11008 21013 39526 40216 58009 71111 82530
  333 82650=
10857 42858 71202 10008 20004 39454 40213 58007 875//
  333 87657=
10860 46/01 /0501 11024 21025 39761 40219 5/006=
10954 46/// /2801 11003 21004 39303 48473 5/006=
0000015000
292
SNFR30 LFPW 110100 CCA
AAXX 11014
07222 21740 70503 10083 20075 30121 40153 58003 72162 8457/
  333 69905 84656 87359 90710 91104=
0000011000
293
ULKZ12 UAAA 110000
TTCC  11005 35671 70776 68536 25033 50977 68538 25043 88999 
77459 24046=
0000011200
294
SAMC31 GMMC 110100 RRA
METAR GMAD 110100Z 10008KT 8000 R28///// -RA SCT020 BKN066 12/10
Q1015=
0000009000
295
SAMC32 GMMC 110100 RRA
METAR GMML 110100Z 01001KT 9999 SCT017 12/11 Q1016=
0000035400
296
USIS01 LLBD 110000
TTAA 60231 40179
99017 12011 20504 00175 13037 22507 92826 08001 30511
85520 03600 30011 70073 05102 33523 50566 19579 34027
40727 33771 34531 30922 48572 35545 25040 56370 33550
20181 59568 31057 15360 60775 29050 10614 60577 28558
88226 58965 33549
77112 28566 42014 77196 31560 42627
31313 48008 82322=
0000071200
297
UKIS01 LLBD 110000
TTBB 60238 40179
00017 12011 11002 13036 22895 06000 33686 06501 44677
05156 55635 06758 66578 11962 77573 11971 88564 12966
99491 20580 11411 32169 22368 38970 33317 45975 44265
54571 55226 58965 66220 57768 77156 60974 88132 57977
99100 60577
21212 00017 20504 11960 29010 22868 31011 33834 30515
44822 29019 55722 31521 66682 00526 77629 01526 88601
35027 99558 34529 11514 33526 22473 35025 33440 33527
44418 34026 55376 35536 66269 35053 77219 33043 88196
31560 99186 32545 11183 32040 22167 29046 33157 30553
44149 28553 55142 29564 66133 30551 77112 28566 88100
28558
31313 48008 82322
41414 776//
51515 11913 31506 22800 30019 33600 35027=
0000012000
298
ULIS01 LLBD 110000
TTCC 60237 40179
70834 64375 29552 50040 /////
88999
77999
31313 48008 82322=
00000000