0000012800
256
SSVX13 LFVW 110307
ZZYY 16551 11014 0300/ 321977 060439 6113/
11119 40181 52015
444 50101 80074 80000 9/015=
0000015700
257
SSVX13 LFPW 110200
ZZYY 41637 11014 0200/ 724033 077533 6113/ 11119 40198 52015 22219
 00252 444 20130 11014 0000/ 50101 80130 80000 9/015=
0000015700
258
SSVX13 LFPW 110200
ZZYY 41632 11014 0200/ 719189 049456 6113/ 11119 40190 52002 22219
 00255 444 20130 11014 0000/ 50101 80146 80011 9/015=
0000015700
259
SSVX13 LFPW 110300
ZZYY 16535 11014 0300/ 325005 049691 6113/ 11119 40148 52015 22219
 00278 444 20130 11014 0300/ 50101 80124 80003 9/015=
0000015700
260
SSVX13 LFPW 110100
ZZYY 41632 11014 0100/ 719189 049456 6113/ 11119 40193 52013 22219
 00255 444 20130 11014 0000/ 50101 80146 80011 9/015=
0000064200
261
SIKY20 UAFF 110300
AAXX 11031
38353 32998 42201 11076 21148 39360 40311 57004 80001 333 55089
555 21106 47007 7000/=
38613 32999 23601 11082 21134 40341 56002 80002 333 47006 555
21097 7000/ 11042=
38616 32599 51802 11062 21097 39257 40327 56006 82501 555 21092
42001 7000/ 11040=
38345 32999 60802 11095 21159 38856 48536 57013 80002 555 21155
34120 7000/=
36911 32999 00000 11137 21164 39280 40321 57020 555 21141 47002
7000/ 11086=
36974 32998 70901 11220 21245 38053 48638 53001 80001 333 47004
555 21235 3/131 7000/ 11167=
36982 32999 00202 11282 21320 36548 47279 53002 555 21293 48017
7000/=
0000165000
262
SINL21 EHDB 110300
AAXX 11031
06201 47258 82310 10074 20063 30019 40071 58013 75286 8////
333 84/06 85/08 85/09 91012 91113 91211=
06203 47260 8//11 10088 20074 30069 40120 55004 75180 8////
333 81/06 84/10 85/13 91013 91115 91213=
06204 47470 72513 10090 20057 30058 40109 56007 75165 8////
333 81/13 83/39 87/50 91015 91116 91213=
06205 47023 82409 10070 20063 39996 40055 57010 75186 8////
333 82/01 86/03 88/04 91010 91113 91211=
06208 47356 82009 10071 20057 30063 40112 58010 71081 8////
333 85/07 88/08 91010 91111 91209=
06211 47561 72111 10072 20063 30033 40089 58009 76180 8////
333 83/31 87/35 87/41 91013 91115 91212=
06212 45364 72410 10090 20071 3//// 4//// 5//// 8////
333 81/09 83/11 85/13 91012 91114 91212=
06235 47246 82109 10069 20063 30122 40122 57007 78151 8////
333 87/05 88/06 91012 91114 91210=
06240 47356 82107 10055 20040 30145 40140 56006 72181 8////
333 88/09 91009 91109 91207=
06251 43/50 /2210 10071 20064 30109 40110 58007
333 91013 91115 91212=
06258 46/// /2112
333 91014 91114 91212=
06269 47349 82006 10050 20039 30145 40139 56007 75110 8////
333 81/07 85/09 88/10 91009 91110 91207=
06280 47350 82207 10060 20047 30123 40127 58007 72280 8////
333 84/08 87/10 88/13 91010 91110 91208=
06310 47350 82207 10047 20035 30142 40152 56003 71011 8////
333 88/07 91009 91111 91209=
06344 47356 82207 10051 20036 30153 40146 56004 71000 8////
333 88/08 91011 91111 91207=
06370 45362 82105 10036 20023 30132 40158 56006 8////
333 88/07 91007 91108 91206=
06380 45977 42005 10015 20003 30025 40167 57008 8////
333 84/61 91006 91107 91205=
0000010900
263
UANT01 CWAO 110307
ARP BAW9E 4816N04413W 0307 F400 MS56 304/54 KT
GVIIB QXT AOW 110307 F09A
0000011100
264
UANT01 CWAO 110307
ARP AWE730 4828N04806W 0306 F370 MS62 316/65 KT
N273AY DDL XXN 110307 J70A
0000011000
265
UANT01 CWAO 110307
ARP SAS904 5507N04322W 0307 F390 MS58 280/31 KT
LNRKO DDL XXW 110307 J30A
0000014500
266
SSVX13 LFPW 110309
ZZYY 44550 11014 0309/ 752818 014936 6113/ 11119 40135 57255 444
 20130 11014 0300/ 50101 80138 80002 9/015=
0000015700
267
SSVX13 LFPW 110300
ZZYY 41632 11014 0300/ 719195 049475 6113/ 11119 40190 57001 22219
 00255 444 20130 11014 0300/ 50101 80146 80010 9/015=
0000094300
268
SIRO45 YRBK 110300
AAXX 11031
15004 23/// /0000 10013 20013 39868 40214 52006 333 6///7 91001 91102
555 6////=
15010 23/// /1902 11006 21009 30057 40215 52004 333 6///7 91004 91104
555 6////=
15014 23/// /3502 10004 2//// 39983 40216 52009 333 6///7 91003 91104
555 6////=
15033 NIL=
15044 26/// /2405 10028 21014 30011 40212 52005 333 55300 0//// 20000
3////
60007 91108 555 60000=
15047 NIL=
15063 23/// /2202 10022 21003 39849 40218 52004 333 6///7 91003 91106
555 6////=
15083 23/// /2500 11014 21016 39924 40220 52007 333 55300 0//// 20000
3////
6///7 91001 91101 555 6////=
15085 23/// ///// 10016 20014 39762 40217 52010 333 6///7 91101 555
6////=
15099 NIL=
15119 21/90 92710 11075 21079 38096 48456 58002 74944 333 60007 91016
92723 555
60000=
15140 NIL=
15143 26/// /1802 11013 21013 39702 40238 52005 333 55300 0//// 20000
3////
60007 91104 555 60000=
15163 NIL=
0000077800
269
SIRO46 YRBK 110300
AAXX 11031
15336 NIL=
15337 23/// /2709 10058 20008 39983 40191 52017 333 6///7 91014 91114
555 6////=
15387 NIL=
15406 23/// ///// 10003 20003 30154 40203 52015 333 6///7 555 6////=
15408 23/// /2402 10009 20009 39929 40205 52014 333 55300 60007 91003
91103 555
60000=
15409 26/// /3005 10024 21007 30146 40197 52016 333 55300 0//// 20000
3////
60007 91106 555 60000=
15428 22997 62902 10031 20023 30197 40201 52018 80006 333 55300 00155
20000
3//// 60007 91004 91106 92437 555 60000=
15445 NIL=
15462 22997 02701 10020 2//// 30113 40197 52008 333 60007 91002 92600
555 60000=
15477 NIL=
15479 NIL=
15499 23/// ///05 10041 20040 30194 40204 52013 333 55300 60007 91006
91107 555
60000=
15444 NIL=
0000122400
270
SIRO47 YRBK 110300
AAXX 11031
15296 NIL=
15297 26/// /3003 11021 21078 38663 48500 52002 333 55300 0//// 20000
3////
60007 91110 555 60000=
15319 26/// /3402 10010 21084 39524 42808 55002 333 55300 0//// 20000
3////
60007 91106 555 60000=
15320 23/// /3603 11038 21081 38447 48500 52005 333 6///7 91009 91109
555 6////=
15340 22997 00000 11019 21041 39968 40227 51011 333 60007 91005 91105
92600 555
60000=
15341 NIL=
15344 23/// /0701 11024 21075 39570 42801 53006 333 55300 0//// 20000
3////
6///7 91003 91103 555 6////=
15369 23/// /3202 10070 21059 39890 40216 52006 333 55300 0//// 20000
3////
6///7 91009 91109 555 6////=
15395 23/// /2602 10041 21061 39871 40219 52008 333 6///7 91003 91103
555 6////=
15412 26/// /2605 10029 21013 39838 40229 52003 333 55300 0//// 20000
3////
60007 91108 555 60000=
15434 22997 03301 10019 21019 30005 40223 53010 333 60007 91003 91105
555 60000=
15465 NIL=
15469 23/// /0701 10016 20001 30088 40224 53011 333 6///7 91006 91107
555 6////=
15482 23/// /2703 10051 20005 30153 40230 51005 333 6///7 91005 91105
555 6////=
15494 22997 00000 10008 21006 30182 40229 53008 333 60007 91001 91102
555 60000=
0000195600
271
SINL51 EHDB 110300
AAXX 11031
06201 47258 82310 10074 20063 30019 40071 58013 75286 8////
333 84/06 85/08 85/09 91012 91113 91211
555 51113 51211=
06203 47260 8//11 10088 20074 30069 40120 55004 75180 8////
333 81/06 84/10 85/13 91013 91115 91213
555 51114 51212=
06204 47470 72513 10090 20057 30058 40109 56007 75165 8////
333 81/13 83/39 87/50 91015 91116 91213
555 51116 51213=
06205 47023 82409 10070 20063 39996 40055 57010 75186 8////
333 82/01 86/03 88/04 91010 91113 91211
555 51111 51209=
06208 47356 82009 10071 20057 30063 40112 58010 71081 8////
333 85/07 88/08 91010 91111 91209
555 51111 51209=
06211 47561 72111 10072 20063 30033 40089 58009 76180 8////
333 83/31 87/35 87/41 91013 91115 91212
555 51113 51211=
06212 45364 72410 10090 20071 3//// 4//// 5//// 8////
333 81/09 83/11 85/13 91012 91114 91212
555 51113 51210=
06235 47246 82109 10069 20063 30122 40122 57007 78151 8////
333 87/05 88/06 91012 91114 91210
555 51113 51210=
06240 47356 82107 10055 20040 30145 40140 56006 72181 8////
333 88/09 91009 91109 91207
555 51109 51207=
06251 43/50 /2210 10071 20064 30109 40110 58007
333 91013 91115 91212
555 51114 51211=
06258 46/// /2112
333 91014 91114 91212
555 51114 51212=
06269 47349 82006 10050 20039 30145 40139 56007 75110 8////
333 81/07 85/09 88/10 91009 91110 91207
555 51109 51206=
06280 47350 82207 10060 20047 30123 40127 58007 72280 8////
333 84/08 87/10 88/13 91010 91110 91208
555 51110 51207=
06310 47350 82207 10047 20035 30142 40152 56003 71011 8////
333 88/07 91009 91111 91209
555 51109 51208=
06344 47356 82207 10051 20036 30153 40146 56004 71000 8////
333 88/08 91011 91111 91207
555 51111 51207=
06370 45362 82105 10036 20023 30132 40158 56006 8////
333 88/07 91007 91108 91206
555 51108 51206=
06380 45977 42005 10015 20003 30025 40167 57008 8////
333 84/61 91006 91107 91205
555 51106 51205=
0000091800
272
SINL52 EHDB 110300
AAXX 11031
06210 47357 82106 10054 20037 30141 40141 56005 71010 8////
333 88/08 91009 91110 91207
555 51110 51206=
06225 46/// /2113
333 91017 91117 91213
555 51117 51213=
06242 47256 72111 10074 20068 30111 40113 56007 75885 8////
333 81/06 84/09 85/12 91013 91116 91214
555 51115 51212=
06257 46/// ///// 10061 20049=
06275 47256 82106 10039 20029 30093 40149 56008 71000 8////
333 88/06 91008 91109 91206
555 51108 51206=
06330 46/// /2109 10051 20036 30131 40145 56004
333 91012 91113 91209
555 51112 51209=
06340 47258 82304 10038 20026 30135 40154 56007 71000 8////
333 87/06 88/08 91007 91108 91205
555 51107 51204=
06350 47359 82104 10039 20024 30138 40153 58007 71010 8////
333 88/07 91006 91108 91206
555 51107 51205=
06375 47259 82206 10036 20025 30131 40156 56007 71000 8////
333 88/06 91008 91108 91206
555 51108 51206=
0000124500
273
SINL53 EHDB 110300
AAXX 11031
06248 46/// /2008
333 91010 91112 91210
555 51111 51209=
06249 47/46 /2006 10056 20047 78110
333 91009 91110 91207
555 51109 51206=
06267 47342 82107 10059 20048 75261 8////
333 84/08 88/10 91009 91111 91208
555 51110 51208=
06273 47/46 /2106 10054 20044 71080
333 91009 91109 91207
555 51109 51207=
06277 46/// /2108 10065 20056
333 91011 91113 91209
555 51111 51208=
06278 46/// /2104 10052 20035
333 91007 91108 91205
555 51108 51205=
06279 47350 82105 10053 20040 30116 40136 57007 72381 8////
333 82/07 86/09 88/10 91007 91109 91206
555 51107 51205=
06283 46/// /2204 10039 20027
333 91007 91109 91206
555 51109 51206=
06286 46/// /2107 10056 20047
333 91008 91110 91207
555 51109 51207=
06319 43/58 /2005 10037 20025 30153 40155 56006
333 91007 91109 91207
555 51109 51207=
06348 47/50 /2105 10047 20036 30148 40147 56006 71010
333 91007 91108 91206
555 51107 51206=
06356 463// 82105 10042 20031 30150 40151 56005 8////
333 88/07 91007 91109 91206
555 51108 51205=
06377 47958 01903 10008 20003 71010
333 91004 91104 91203
555 51104 51203=
06391 46/// /2002 10023 20020
333 91003 91105 91203
555 51104 51203=
0000046000
274
SINL54 EHDB 110300
AAXX 11031
06209 NIL=
06285 NIL=
06308 NIL=
06311 NIL=
06312 NIL=
06313 NIL=
06315 NIL=
06316 NIL=
06320 46/57 /2210 10058 20055 30112 40139 56004 222// 00081 10603
333 91012 91114 91212
555 51113 51211=
06321 46/62 /2111 10074 20058 30112 40136 56008 222// 00086 10604
333 91013 91114 91212
555 51114 51212=
06324 NIL=
06331 NIL=
06343 46/// /2308
333 91011 91111 91208
555 51111 51208=
0000014400
275
SIDL22 EDZW 110300 RRB
AAXX 11031
10379 32582 42305 10038 20013 30031 40154 50001 83550
  333 55300 20000 30000 41060 83630=
00000000