0000066900
146
USAA01 NZCM 110000
TTAA 61001 89664
99997 00056 18501 00512 ///// ///// 92601 07158 18518
85255 11341 17017 70716 21114 15006 50514 33959 24513
40666 44759 24520 30855 51765 24023 25975 45585 24514
20124 43786 24513 15318 43586 26009 10592 41586 23504
88320 52361 23026
77999
31313 48008 82219=

0000069700
87361=
0000011200
87368
0000009600
87371
0000035800
87378
0000037300
87381
0000039400
87385=
0000043700
87428
0000047800
87442
0000056100
87461=
0000021900
87579
0000050100
87604
0000052200
87650=
0000064700
88243
0000066800
88518
0000064800
88777=
0000064900
92086=
0000073100
147
USAA01 NZCM 110000
TTAA 61001 89664
99997 00056 18501 00512 ///// ///// 92601 07158 18518
85255 11341 17017 70716 21114 15006 50514 33959 24513
40666 44759 24520 30855 51765 24023 25975 45585 24514
20124 43786 24513 15318 43586 26009 10592 41586 23504
88320 52361 23026
77999
31313 48008 82219=

0000069700
87361=
0000011200
87368
0000009600
87371
0000035800
87378
0000037300
87381
0000039400
87385=
0000043700
87428
0000047800
87442
0000056100
87461
0000047900
87477
0000056200
87486
0000052100
87514=
0000064600
87726
0000054300
87838=
0000064800
88909
0000062700
89380
0000060700
90001
0000062800
90881
0000064900
92085=
0000073100
148
USAA01 NZCM 110000
TTAA 61001 89664
99997 00056 18501 00512 ///// ///// 92601 07158 18518
85255 11341 17017 70716 21114 15006 50514 33959 24513
40666 44759 24520 30855 51765 24023 25975 45585 24514
20124 43786 24513 15318 43586 26009 10592 41586 23504
88320 52361 23026
77999
31313 48008 82219=

0000069700
87361=
0000011200
87368
0000009600
87371
0000035800
87378
0000037300
87381
0000039400
87385
0000039400
87407
0000041500
87411
0000014600
87417
0000045700
87421
0000049900
87440
0000052000
87462
0000050000
87472=
0000058400
87593=
0000060600
87906
0000060600
88089=
0000060700
89886=
0000071200
98072
0000077400
01210
0000060700
149
USAA01 NZCM 110000
TTAA 61001 89664
99997 00056 18501 00512 ///// ///// 92601 07158 18518
85255 11341 17017 70716 21114 15006 50514 33959 24513
40666 44759 24520 30855 51765 24023 25975 45585 24514
20124 43786 24513 15318 43586 26009 10592 41586 23504
88320 52361 23026
77999
31313 48008 82219=

0000069700
87361=
0000011200
87368=
0000015000
87382
0000012800
87386=
0000045700
87427
0000045800
87444
0000047900
87464
0000052000
87476
0000050000
87490
0000045900
87515=
0000054300
87741=
0000056500
88799=
0000067000
92117=
0000062800
150
USAA01 NZCM 110000
TTAA 61001 89664
99997 00056 18501 00512 ///// ///// 92601 07158 18518
85255 11341 17017 70716 21114 15006 50514 33959 24513
40666 44759 24520 30855 51765 24023 25975 45585 24514
20124 43786 24513 15318 43586 26009 10592 41586 23504
88320 52361 23026
77999
31313 48008 82219=

0000069700
87361=
0000011200
87368=
0000015000
87382=
0000030600
87414
0000014800
87423
0000049900
87438
0000052000
87459
0000058200
87471=
0000050100
87587=
0000054400
87915
0000054400
88107=
0000060700
89900=
0000069100
98087
0000073300
01222
0000075200
151
USAA01 NZCM 110000
TTAA 61001 89664
99997 00056 18501 00512 ///// ///// 92601 07158 18518
85255 11341 17017 70716 21114 15006 50514 33959 24513
40666 44759 24520 30855 51765 24023 25975 45585 24514
20124 43786 24513 15318 43586 26009 10592 41586 23504
88320 52361 23026
77999
31313 48008 82219=

0000069700
87361=
0000011200
87368
0000009600
87371
0000035800
87378
0000037300
87381
0000039400
87385
0000039400
87407=
0000012000
87430
0000054000
87439=
0000056200
87534
0000060400
87553
0000056300
87602=
0000052300
88061
0000060600
88339
0000060700
88644
0000064800
89160=
0000069100
93710
0000071200
95786
0000069100
98101
0000075400
01223
0000066900
152
USAA01 NZCM 110000
TTAA 61001 89664
99997 00056 18501 00512 ///// ///// 92601 07158 18518
85255 11341 17017 70716 21114 15006 50514 33959 24513
40666 44759 24520 30855 51765 24023 25975 45585 24514
20124 43786 24513 15318 43586 26009 10592 41586 23504
88320 52361 23026
77999
31313 48008 82219=

0000069700
87361=
0000011200
87368=
0000015000
87382
0000012800
87386=
0000045700
87427
0000045800
87444=
0000048000
87537
0000058300
87569
0000050100
87626
0000052200
87673
0000054300
87808
0000056400
87995
0000060600
88173=
0000066900
89973
0000064900
90853
0000071100
92048=
0000073100
153
USAA01 NZCM 110000
TTAA 61001 89664
99997 00056 18501 00512 ///// ///// 92601 07158 18518
85255 11341 17017 70716 21114 15006 50514 33959 24513
40666 44759 24520 30855 51765 24023 25975 45585 24514
20124 43786 24513 15318 43586 26009 10592 41586 23504
88320 52361 23026
77999
31313 48008 82219=

0000069700
87361=
0000011200
87368
0000009600
87371
0000035800
87378
0000037300
87381
0000039400
87385=
0000043700
87428
0000047800
87442=
0000052100
87533=
0000058400
87735
0000056400
87937
0000064700
88142
0000060600
88434
0000068900
88750=
0000069000
92057
0000067000
93709
0000012800
95781
0000065000
98099
0000075400
01206
0000054500
154
USAA01 NZCM 110000
TTAA 61001 89664
99997 00056 18501 00512 ///// ///// 92601 07158 18518
85255 11341 17017 70716 21114 15006 50514 33959 24513
40666 44759 24520 30855 51765 24023 25975 45585 24514
20124 43786 24513 15318 43586 26009 10592 41586 23504
88320 52361 23026
77999
31313 48008 82219=

0000069700
87361=
0000011200
87368=
0000015000
87382
0000012800
87386=
0000045700
87427=
0000045900
87505
0000050000
87526=
0000050200
87744=
0000050300
88801=
0000058700
92095=
0000073100
155
USAA01 NZCM 110000
TTAA 61001 89664
99997 00056 18501 00512 ///// ///// 92601 07158 18518
85255 11341 17017 70716 21114 15006 50514 33959 24513
40666 44759 24520 30855 51765 24023 25975 45585 24514
20124 43786 24513 15318 43586 26009 10592 41586 23504
88320 52361 23026
77999
31313 48008 82219=

0000069700
87361=
0000011200
87368
0000009600
87371
0000035800
87378
0000037300
87381
0000039400
87385
0000039400
87407=
0000012000
87430
0000054000
87439
0000049900
87460
0000047900
87470
0000052100
87487
0000054200
87520
0000052100
87554
0000050100
87606=
0000048200
88093=
0000058700
89888=
0000071200
98102
0000071200
01209
0000071000
156
USAA01 NZCM 110000
TTAA 61001 89664
99997 00056 18501 00512 ///// ///// 92601 07158 18518
85255 11341 17017 70716 21114 15006 50514 33959 24513
40666 44759 24520 30855 51765 24023 25975 45585 24514
20124 43786 24513 15318 43586 26009 10592 41586 23504
88320 52361 23026
77999
31313 48008 82219=

0000069700
87361=
0000011200
87368
0000009600
87371
0000035800
87378
0000037300
87381
0000039400
87385
0000039400
87407
0000041500
87411
0000014600
87417=
0000041700
87480
0000060300
87494
0000052100
87511=
0000010400
87753
0000064700
87951
0000052300
88135=
0000064800
89954
0000060700
90828
0000058700
92101=
0000087600
157
USAA01 NZCM 110000
TTAA 61001 89664
99997 00056 18501 00512 ///// ///// 92601 07158 18518
85255 11341 17017 70716 21114 15006 50514 33959 24513
40666 44759 24520 30855 51765 24023 25975 45585 24514
20124 43786 24513 15318 43586 26009 10592 41586 23504
88320 52361 23026
77999
31313 48008 82219=

0000069700
87361=
0000011200
87368=
0000015000
87382
0000012800
87386
0000045600
87406
0000047700
87410
0000049800
87416
0000051900
87420
0000047800
87441
0000045800
87463
0000047900
87474
0000054100
87493
0000052100
87509
0000048000
87557
0000050100
87618
0000052200
87680
0000060500
87820
0000068800
87999
0000058500
88171
0000060600
88468
0000068900
88727=
0000064900
92023
0000071200
93658
0000065000
95773
0000069100
98077
0000083600
01184
0000060700
158
USAA01 NZCM 110000
TTAA 61001 89664
99997 00056 18501 00512 ///// ///// 92601 07158 18518
85255 11341 17017 70716 21114 15006 50514 33959 24513
40666 44759 24520 30855 51765 24023 25975 45585 24514
20124 43786 24513 15318 43586 26009 10592 41586 23504
88320 52361 23026
77999
31313 48008 82219=

0000069700
87361=
0000011200
87368=
0000015000
87382=
0000030600
87414
0000014800
87423=
0000050000
87499=
0000062500
87711
0000054300
87791=
0000066800
88847
0000062800
89342
0000060700
89976
0000062800
90862
0000071100
92083=
0000081400
159
USAA01 NZCM 110000
TTAA 61001 89664
99997 00056 18501 00512 ///// ///// 92601 07158 18518
85255 11341 17017 70716 21114 15006 50514 33959 24513
40666 44759 24520 30855 51765 24023 25975 45585 24514
20124 43786 24513 15318 43586 26009 10592 41586 23504
88320 52361 23026
77999
31313 48008 82219=

0000069700
87361=
0000011200
87368
0000009600
87371
0000035800
87378
0000037300
87381
0000039400
87385
0000039400
87407=
0000012000
87430
0000054000
87439=
0000056200
87534
0000060400
87553
0000056300
87602
0000052200
87653
0000054300
87782
0000056400
87982
0000062600
88176
0000054400
88466
0000062700
88721
0000058600
89167=
0000067000
93697
0000075300
95766
0000069100
98071
0000085700
01183
0000073100
160
USAA01 NZCM 110000
TTAA 61001 89664
99997 00056 18501 00512 ///// ///// 92601 07158 18518
85255 11341 17017 70716 21114 15006 50514 33959 24513
40666 44759 24520 30855 51765 24023 25975 45585 24514
20124 43786 24513 15318 43586 26009 10592 41586 23504
88320 52361 23026
77999
31313 48008 82219=

0000069700
87361=
0000011200
87368=
0000015000
87382
0000012800
87386
0000045600
87406
0000047700
87410
0000049800
87416
0000051900
87420
0000047800
87441
0000045800
87463=
0000048000
87576
0000060400
87629
0000056300
87683
0000052200
87836=
0000060700
88879
0000062800
89363
0000062800
89944
0000064900
90835
0000058700
92073=
0000328200
161
SMID20 WIIX 110000
AAXX 11004
96001 11556 71007 10248 20226 39983 40131 52009 60034 70522 84572
  333 20188 50230 55000 56200 58024 84620=
96015 11450 70303 10233 20229 30113 40120 5//// 60204 71022 84572
  333 20229 50660 55030 56000 58017 84619=
96033 NIL=
96075 12456 60000 10230 20227 30101 40111 52011 60064 82571
  333 20226 50250 55000 56000 58019 82616=
96087 32460 43205 10248 20230 30084 40118 51013 82118
  333 20244 50270 55012 56000 58011 82815 83460=
96171 31440 80000 10242 20233 30086 40110 52016 70522 86522
  333 20220 50150 55015 56000 58007 86615=
96207 12556 70000 10192 20185 39230 40157 52002 69934 82531
  333 20190 55016 56000 59002 82620 83080=
96505 12420 70000 10198 20188 39100 40392 5//// 60054 86631
  333 20192 55028 56000 58005 83710 83512=
96525 12460 72502 10248 20238 30117 40125 52028 60264 83471
  333 20238 50660 55039 56000 58004 83615 86460=
96529 12458 80000 10240 20236 30119 40143 52017 60014 83137
  333 20230 50270 55005 56000 58004 83818 88280=
96535 12460 60000 10230 20226 30108 40129 52012 60074 81231
  333 20228 50340 55020 56000 57804 58010 81814 83361 80864=
96557 11410 80000 10237 20230 30074 40124 60014 70522 8532/
  333 20228 50470 55027 56009 57901 57801 58007 81912 84813 88460
80980 80857=
96559 NIL=
96565 11320 80000 10240 20234 30090 40141 5//// 60074 70522 8772/
  333 20240 50760 55072 56009 58005 87708 86457=
96595 01230 80000 10234 20231 30073 40125 60034 71022 8357/
  333 20234 50090 55028 56009 59006 60038 83606 87459=
96607 11460 82702 10250 20235 30114 40128 5//// 60034 70262 84521
  333 20236 50130 55000 56000 59002 84618 86460=
96615 12459 70210 10258 20237 30110 40125 52023 60024 85831
  333 20238 50370 55063 56800 58011 84812 84362 80856=
96695 02458 70000 10258 20246 30112 40118 5//// 60044 84271
  333 20240 50390 55047 56000 57802 58010 69908 84616 84360 80859=
96737 32460 70000 10256 20241 30062 40092 53017 84271
  333 20230 50310 55033 56000 57802 58012 84818 84460 80860=
96739 NIL=
96741 11556 70000 10263 20237 30105 40109 52021 60074 70122 83571
  333 20250 50500 55054 56000 58010 83620 86360=
96745 11556 60000 10250 20238 30104 10105 52021 60124 70522 83521
  333 20246 50450 55050 56000 58006 83620 86460=
96751 NIL=
96791 12559 30000 10250 20238 30059 40134 52017 60184 81531
  333 20236 50620 55062 56000 58030 81620=
96797 32560 71603 10266 20234 30101 40106 52019 81271
  333 10242 50360 55020 5//// 56000 57804 58008 81820 84080 80860=
96837 31558 61102 10258 20237 30113 40114 52023 70522 84221
  333 20250 50550 55020 56000 58016 84823=
96925 12565 50000 10253 20234 30107 40112 52022 69904 82232
  333 20239 50260 55019 56000 57800 58019 82820 84360 80860=
96933 11459 41504 10260 20245 30116 40120 52026 60054 70262 81571
  333 20250 50151 55014 56600 58023 81617 83460=
96937 12459 51205 10258 20246 30112 40116 52014 60064 82271
  333 20252 50340 55026 56000 57802 58019 81818 83359 80858=
96973 12560 40000 10262 20253 30110 40117 52024 69904 82231
  333 20244 50401 55015 56000 57803 58025 82820 80850=
96987 01457 60000 10258 20240 30066 40121 53022 60084 72162 84971
  333 20246 50061 55069 56000 57903 58029 60067 81918 83620 80980=
0000245100
162
SMID21 WIIX 110000
AAXX 11004
97008 01415 80000 10239 20232 30077 40088 52012 60234 76066 8652/
  333 20238 50330 55000 56009 59010 60187 86618 88458=
97016 11464 72402 10269 20227 30091 40093 51012 69904 72162 82272
  333 20250 50340 55008 56000 57802 59011 82819 84460 80859=
97126 12460 50000 10246 20224 30072 40133 52025 60154 82571
  333 20228 50400 55021 56000 58013 82618 83460=
97142 12560 40000 10276 20242 30088 40103 5//// 60014 81231
  333 20238 50460 55043 56000 57803 58016 81820 83360 80858=
97182 01464 81202 10248 20239 30120 40122 51022 60274 76166 8387/
  333 20244 50120 55042 56009 57800 58016 60027 82819 87460 808//=
97240 11458 30204 10260 20244 30002 40118 52016 60654 70511 82131
  333 20246 50400 55040 56000 58015 82816=
97284 12462 50000 10212 20186 38879 40118 5//// 60144 81101
  333 20160 50250 55065 56000 58008 81814 85075=
97310 32565 60000 10302 20250 30084 40096 51009 82221
  333 20222 50940 55096 56000 57803 58005 82820 83460 80856=
97320 12565 72405 10296 20243 30086 40099 5//// 60114 81176
  333 20238 50630 55098 56000 58000 81820 84080=
97378 32560 60000 10288 20257 39944 40107 51015 82101
  333 20232 50400 55105 56200 58017 82820 84080=
97380 32464 30000 10292 20252 30084 40106 5//// 81131
  333 20253 50680 55117 56000 58011 81818 83080=
97406 01456 82104 10250 20242 30044 40069 52014 60344 76062 8462/
  333 20236 50761 55000 56600 59016 69987 84615 88460=
97570 12460 62906 10290 20247 30074 40081 60124 84831
  333 20258 51080 55000 57862 82811 80859=
97630 12460 42605 10290 20247 39948 40109 52015 60024 82231
  333 20236 50510 55055 56000 57901 59003 82811 80856=
97682 32470 61805 10287 20243 30076 40083 51014 83831
  333 20236 55012 56000 57804 59003 82814 86361 80850=
97698 11459 61003 10286 20251 30080 40088 51016 60114 70562 82832
  333 20246 50100 55001 56000 57802 59002 81814 83360 85079 80862=
97700 12460 72106 10256 20241 30072 40088 52008 60014 82232
  333 20236 50160 55062 56000 57803 59005 82818 84359 80850=
97722 32562 62502 10288 20229 30086 40101 52012 81106
  333 20242 50500 55080 56000 57805 59006 81820 84075 80850=
97780 31457 60000 10212 20132 38240 40183 52011 70242 82132
  333 20144 55040 56000 57804 59004 81812 85360 80850=
97790 11459 62807 10294 20256 30070 40091 51012 60054 70522 85334
  333 20277 50440 55043 56600 57961 57861 59003 82917 83818 80973
80858=
0000073100
163
USAA01 NZCM 110000
TTAA 61001 89664
99997 00056 18501 00512 ///// ///// 92601 07158 18518
85255 11341 17017 70716 21114 15006 50514 33959 24513
40666 44759 24520 30855 51765 24023 25975 45585 24514
20124 43786 24513 15318 43586 26009 10592 41586 23504
88320 52361 23026
77999
31313 48008 82219=

0000069700
87361=
0000011200
87368=
0000015000
87382
0000012800
87386
0000045600
87406
0000047700
87410
0000049800
87416
0000051900
87420
0000047800
87441
0000045800
87463
0000047900
87474
0000054100
87493
0000052100
87509
0000048000
87557
0000050100
87618=
0000058500
88112=
0000060700
89895=
0000069100
98068
0000079500
01182
0000066900
164
USAA01 NZCM 110000
TTAA 61001 89664
99997 00056 18501 00512 ///// ///// 92601 07158 18518
85255 11341 17017 70716 21114 15006 50514 33959 24513
40666 44759 24520 30855 51765 24023 25975 45585 24514
20124 43786 24513 15318 43586 26009 10592 41586 23504
88320 52361 23026
77999
31313 48008 82219=

0000069700
87361=
0000011200
87368=
0000015000
87382
0000012800
87386
0000045600
87406
0000047700
87410
0000049800
87416
0000051900
87420=
0000047900
87502
0000013400
87528=
0000048100
87743
0000052300
87946
0000068800
88144=
0000066900
90002
0000062800
90871
0000067000
92077=
0000075200
165
USAA01 NZCM 110000
TTAA 61001 89664
99997 00056 18501 00512 ///// ///// 92601 07158 18518
85255 11341 17017 70716 21114 15006 50514 33959 24513
40666 44759 24520 30855 51765 24023 25975 45585 24514
20124 43786 24513 15318 43586 26009 10592 41586 23504
88320 52361 23026
77999
31313 48008 82219=

0000069700
87361=
0000011200
87368=
0000015000
87382
0000012800
87386=
0000045700
87427=
0000045900
87505
0000050000
87526
0000050100
87565
0000062500
87605
0000054300
87651
0000058400
87783
0000054300
87977
0000068800
88153=
0000058600
89968
0000066900
90839
0000062800
92068
0000062900
93703
0000073200
95768
0000056700
98073
0000065000
01219
00000000