0000074500
879
UKTU10 LTAA 110000 RRA
TTBB  61008 17240 00908 03117 11904 00017 22865 04858 33848
05462 44791 05279 55779 04870 66763 03666 77733 01474 88637
06161 99632 05766 11612 06573 22424 29758 33407 31960 44396
33939 55373 37528 66315 46157 77251 58744 88238 61157 99234
60159 11223 60765 22197 65362 33131 61576 44100 64176 21212
00908 28002 11802 29010 22789 31512 33776 31013 44765 32514
55724 30512 66706 32516 77694 31514 88645 32019 99629 30519
11595 31016 22580 29520 33531 29016 44520 31018 55509 30017
66498 31018 77327 31534 88314 31534 99255 32055 11221 34546
22176 32047 33161 34038 44147 32040 55140 33043 66116 31052
77100 31049 31313 48008 82338 41414 00900 51515 11803 29010
22800 29510 33600 31015=
0000032300
880
USTU10 LTAA 110000 RRA
TTAA  61001 17240 99908 03117 28002 00187 ///// ///// 92843
///// ///// 85527 05261 36001 70100 01170 32015 50570 19563
31018 40731 33156 32028 30927 48756 31540 25044 58944 32051
20182 64762 33547 15358 63172 32541 10608 64176 31049 88197
65362 33545 77999 31313 48008 82338=
0000012200
881
SNRE15 FMEE 110200
AAXX 11024
61997 26/// /3434 10083 20080 39897 40073 58044
  333 60005 90710 91148=
0000064700
882
SAUK39 EGRR 110150
METAR EGQL 110150Z 26006KT CAVOK 01/M01 Q1007 BLU=
METAR EGQM 110150Z AUTO 26006KT 9999 NCD 04/M01 Q1008=
METAR EGQS 110150Z 24005KT CAVOK M01/M02 Q1005 BLU=
METAR EGVN 110150Z 21005KT 9999 SCT022 BKN030 08/06 Q1011 WHT TEMPO 3000 -RADZ SCT006 YLO1=
METAR EGVO 110150Z 20012KT 9999 SCT039 OVC050 08/07 Q1012 RERA BLU=
METAR EGXC 110150Z 22011KT 9999 BKN016 OVC025 08/06 Q1009 WHT=
METAR EGXT 110150Z AUTO 21010KT 9999 FEW026/// BKN037/// 07/06 Q1010 RERA=
METAR EGXV 110150Z AUTO 25006KT 9000 BR BKN013/// BKN024/// 07/06 Q1007 RERA=
METAR EGXW 110150Z 23011KT 9999 BKN010 OVC070 08/06 Q1009 GRN=
0000011000
883
UANT01 CWAO 110156
ARP DLH403 4744N05126W 0156 F380 MS62 307/58 KT
DABTF QXT AME 110156 F35A
0000011200
884
SNVF25 LFPW 110200
BBXX
BAREU71 11024 99384 70114 46/// /0213 10138 29074 40178 52007
22263=
0000010600
885
SNVF25 LFPW 110200
BBXX
BAREU67 11024 99444 10089 46/// ///// 10125 29081 40212
22232=
0000011000
886
UANT01 CWAO 110156
ARP SAS910 5426N04322W 0156 F380 MS56 275/29 KT
LNRKM DDL XXW 110156 J21A
0000010900
887
UANT01 CWAO 110156
ARP BAW6W 4544N05147W 0156 F380 MS61 294/61 KT
GVIIA QXS YYT 110156 F02A
0000011100
888
UANT01 CWAO 110156
ARP UAL974 4606N04503W 0156 F370 MS53 312/58 KT
N677UA DDL XXW 110156 F23A
0000025100
889
UAPA01 KWBC 110157
ARP ASA899 4530N 12643W 0148 F340 MS53 255/060KT=
ARP UAL351 2347N 15322W 0150 F290 237/032KT=
ARP ASA867 4318N 12641W 0147 F350 MS56 260/069KT TB SMTH=
ARP OAE107 2347N 15322W 0150 F370 MS46 236/086KT TB SMTH=
0000011100
890
UANT01 CWAO 110156
ARP UAL966 4940N04157W 0156 F360 MS55 305/32 KT
N672UA DDL XXN 110156 F31A
0000011000
891
UANT01 CWAO 110157
ARP DLH443 5500N03949W 0156 F360 MS55 224/22 KT
DAIKO QXT AME 110157 J99A
0000011800
892
SAIN90 VEGY 110200
METAR VEGY 110200Z 29006KT 0300  TSRA FEW010 SCT017 FEW030CB  OVC080 15/15 Q1016 =

0000035800
893
USUS50 KWBC 110000 RRH
TTAA 61001 72240 99011 17600 16513 00096 17603 18525 92764 15801
19533 85480 13002 22040 70088 03657 22551 50574 13168 24053 40740
24376 23074 30943 39545 23575 25065 49550 24088 20208 57761 24608
15388 63973 24619 10634 70770 25561 88999 77150 25119 40640 31313
45208 80012 51515 10164 00053 10194 20032 22551=
0000036400
894
USUS50 KWBC 110000 CCF
TTAA 61001 72240 99011 17600 16513 00096 17603 18525 92764 15801
19533 85480 13002 22040 70088 03657 22551 50574 13168 24053 40740
24376 23074 30943 39545 23575 25065 49550 24088 20208 57761 24608
15388 63973 24619 10634 70770 25561 88999 77150 25119 40640 31313
45208 80012 51515 10164 00053 10181 10194 20032 22551=
0000081600
895
UKUS50 KWBC 110000 RRN
TTBB 61008 72240 00011 17600 11978 18001 22836 12402 33812 10413
44760 08001 55745 06224 66730 05033 77723 05021 88719 04056 99688
03258 11659 00657 22625 02160 33618 02758 44616 02759 55610 02365
66606 02566 77564 07164 88544 08167 99464 17168 11448 17784 22390
25573 33363 29762 44358 30562 55346 32356 66341 32961 77330 34557
88327 34761 99324 35362 11318 36357 22314 36962 33310 37564 44299
39741 55284 42927 66279 43922 77264 46350 88252 49137 99249 49756
11238 52359 22225 55533 33220 56736 44213 57557 55202 58161 66199
57162 77194 56965 88188 58166 99186 56968 11184 57169 22178 58970
33173 58771 44163 59773 55149 63972 66144 64372 77143 62973 88139
61974 99125 65574 11122 65773 22116 68772 33107 69571 44105 68771
31313 45208 80012 41414 4652/=
0000082800
896
UKUS50 KWBC 110000 CCF
TTBB 61008 72240 00011 17600 11978 18001 22836 12402 33812 10413
44760 08001 55745 06224 66730 05033 77723 05021 88719 04056 99688
03258 11659 00657 22625 02160 33618 02758 44616 02759 55610 02365
66606 02566 77564 07164 88544 08167 99464 17168 11448 17784 22390
25573 33363 29762 44358 30562 55346 32356 66341 32961 77330 34557
88327 34761 99324 35362 11318 36357 22314 36962 33310 37564 44299
39741 55284 42927 66279 43922 77264 46350 88252 49137 99249 49756
11238 52359 22225 55533 33220 56736 44213 57557 55202 58161 66199
57162 77194 56965 88188 58166 99186 56968 11184 57169 22178 58970
33173 58771 44163 59773 55149 63972 66144 64372 77143 62973 88139
61974 99125 65574 11122 65773 22116 68772 33107 69571 44105 68771
31313 45208 80012 41414 4652/ 51515 10181=
0000021000
897
ULUS50 KWBC 110000 RRG
TTCC 61001 72694 70836 61170 29027 50044 65570 28539 30365 58373
33534 20618 62972 33544 10046 57776 34602 07280 38583 35682 88999
77068 35687 431// 31313 58208 82320=
0000047000
898
UEUS50 KWBC 110000 RRJ
TTDD 6100/ 72694 11929 62968 22921 61569 33845 60969 44806 58370
55713 61369 66657 60570 77634 58771 88543 64971 99496 65769 11455
64170 22431 58371 33406 55571 44375 54371 55338 57170 66242 59173
77179 64772 88164 62373 99148 63572 11132 61774 22125 63173 33121
61374 44118 62573 55115 60575 66102 57576 77093 58375 88090 54777
99088 53978 11084 47180 22081 44580 33075 45180 44070 38784 55066
36385 31313 58208 82320=
00000000