0000040300
316
SAID31 WIII 101530
METAR WIMM 101530Z 00000KT 5000 HZ BKN017 25/24 Q1013= 
METAR WARR 101530Z VRB01KT 6000 -RA FEW020CB 26/23 Q1010= 
METAR WAAA 101530Z 01005KT 8000 FEW019 25/24 Q1011= 
METAR WIII 101530Z 19006KT 5000 HZ SCT020 BKN100 26/23 Q1010 NOSIG= 
METAR WADD 101530Z 36003KT 320V030 9999 SCT017 27/24 Q1010 NOSIG= 
METAR WIHH NIL=
METAR WABB NIL=
METAR WIDD NIL=

0000013200
317
FTSB31 VCBI 101500
TAF VCBI 101540Z 1018/1124 04012KT 9999
SCT016 TX32/1108Z TN24/1100Z
TEMPO 1100/1103 6000=

0000032700
318
SAID32 WIII 101530
METAR WIPT 101530Z 03004KT 6000 R33/M0050V0550N SCT019 26/24 Q1012= 
METAR WADL 101530Z 00000KT 8000 HZ SCT016 25/25 Q1011= 
METAR WIPP 101530Z 00000KT 6000 FEW015 25/24 Q1010= 
METAR WAMM NIL=
METAR WIBB NIL=
METAR WIDN NIL=
METAR WIOO NIL=
METAR WAOO NIL=
METAR WALL NIL=

0000027900
319
FTUS80 KWBC 101539 AAA
TAF AMD
KHSV 101538Z 1016/1112 13007KT 6SM BR SCT007 OVC013
     FM102100 17011KT P6SM OVC020
     FM110600 17015KT 4SM -SHRA BR OVC008
      TEMPO 1107/1110 3SM -TSRA BR BKN005CB OVC010
     FM111000 17014KT 4SM -RA BR OVC006=

0000010400
320
SPUS42 KWBC 101539
SPECI
KTUL 101535Z 17010KT 7SM BKN003 BKN014 OVC019 07/06 A2974=

0000021200
321
SAAK31 KWBC 101500 RRB
METAR
PAVD 101536Z 00000KT 10SM FEW005 SCT030 BKN065 M04/M06 A2937=
PAWG 101536Z 00000KT 10SM FEW005 BKN018 OVC026 02/M01 A2961=
PFYU 101536Z 00000KT 7SM CLR A2966=

0000012400
322
SAAK32 KWBC 101500 RRB
METAR
PADK 101536Z AUTO 14008G15KT 10SM SCT021 BKN028 OVC038 03/00
     A2901=

0000124100
323
SAAU31 YBBN 101530
METAR YPAD 101530Z 16009KT CAVOK 21/06 Q1017
NOSIG=
METAR YBAS 101530Z AUTO 25005KT 9999 // NCD 23/M12 Q1014=
METAR YBBN 101530Z 21005KT 9999 FEW035 20/18 Q1017=
METAR YBCS 101530Z 15007KT 9999 VCSH FEW025 BKN060 25/23 Q1010=
METAR YSCB 101530Z AUTO 06001KT 9999 // NCD 15/12 Q1019=
METAR YPXM 101530Z NIL=
METAR YPCC 101530Z AUTO 17015KT 9999 // SCT019 BKN030 27/23 Q1012=
METAR YCFS 101530Z AUTO 33008KT 5000 +DZ SCT014 BKN035 OVC042 19/18
Q1019=
METAR YPDN 101530Z 07011KT 9999 FEW045 BKN140 24/23 Q1009=
METAR YBCG 101530Z AUTO 26006KT 9999 // SCT030 SCT035 OVC044 20/19
Q1018=
METAR YHID 101530Z AUTO 09007KT //// // ////// 28/25 Q1006=
METAR YPJT 101530Z AUTO 17006KT 9999 // NCD 23/16 Q1015=
METAR YPKU 101530Z AUTO 00000KT 9999 // NCD 27/21 Q1008=
METAR YPLM 101530Z AUTO 01007KT 9999 // NCD 29/21 Q1009=
METAR YMML 101530Z 01004KT CAVOK 20/13 Q1016
NOSIG=
METAR YPPH 101530Z 20009KT CAVOK 22/15 Q1015=
METAR YSSY 101530Z 05005KT CAVOK 21/18 Q1017
NOSIG=
METAR YSTW 101530Z AUTO 16006KT 9999 // OVC115 20/14 Q1018=
METAR YPTN 101530Z AUTO 09002KT 9999 // NCD 27/22 Q1009=
METAR YBTL 101530Z AUTO 15008KT 9999 // SCT040 SCT045 BKN098 26/22
Q1011=

0000009200
324
SPCN46 CWAO 101538
SPECI CYXZ 101538Z 21015G25KT 7SM DRSN OVC005 RMK SC8=

0000120400
325
SAAU32 YBBN 101530
METAR YAMB 101530Z AUTO 00000KT 9999 // NCD 20/18 Q1017=
METAR YMAV 101530Z AUTO 20008KT 9999 // SCT105 18/17 Q1016=
METAR YBRM 101530Z AUTO 30009KT 9999 // BKN017 29/26 Q1008=
METAR YCIN 101530Z NIL=
METAR YSDU 101530Z AUTO 13007KT 9999 // NCD 18/17 Q1018=
METAR YFRT 101530Z AUTO 14008KT //// // ////// 19/18 Q1020=
METAR YGEL 101530Z AUTO 16013KT 9999 // NCD 23/19 Q1012=
METAR YPGV 101530Z AUTO 18002KT 9999 // NCD 25/24 Q1007=
METAR YBHM 101530Z AUTO 11024KT 9999 // ////// 26/23 Q1012=
METAR YMHB 101530Z 16009KT 9999 SCT007 BKN140 17/15 Q1012=
METAR YPKG 101530Z AUTO 10017KT 9999 // NCD 27/11 Q1019=
METAR YMLT 101530Z AUTO 33008KT 9999 // NCD 17/14 Q1013=
METAR YBMA 101530Z AUTO 04005KT 9999 // NCD 27/20 Q1010=
METAR YSNF 101530Z AUTO 11009KT 9999 -SHRA BKN034 BKN042 OVC051 18/12
Q1018=
METAR YPEA 101530Z NIL=
METAR YPPD 101530Z AUTO 32005KT 9999 // NCD 28/27 Q1007=
METAR YSRI 101530Z AUTO 00000KT 9999 // NCD 16/16 Q1017=
METAR YBRK 101530Z AUTO 11006KT 9999 // SCT025 SCT035 BKN045 23/20
Q1015=
METAR YWLM 101530Z AUTO 08005KT 9999 // NCD 21/17 Q1017=
METAR YPWR 101530Z AUTO 16010KT 9999 // NCD 27/07 Q1015=

0000009500
326
SAFR32 LFPW 101530 RRA
METAR LFCK 101530Z AUTO 12021KT 9999 NSC 12/06 Q1016=

0000010600
327
SAFR33 LFPW 101530 RRA
METAR LFKB 101536Z 14004KT 9999 FEW020 BKN031 14/10 Q1019 NOSIG=

0000023400
328
FTSB31 VCRI 101500
TAF VCRI 101540Z 1018/1124 06015G25KT 9999 
FEW018 TX32/1108Z TN23/1100Z 
TEMPO 1022/1102 7000
BECMG 1104/1106 05015G25KT 
TEMPO 1110/1115 SCT016 FEW020CB BKN100
BECMG 1112/1114 06010KT=

0000033500
329
FTCA33 KWBC 101542
TAF
TAF TNCA 101600Z 1018/1118 08018KT 9999 SCT020 PROB40
      TEMPO 1106/1118 7000 SHRA BKN015=
TAF TNCB 101600Z 1018/1118 09016KT 9999 SCT020 PROB40
      TEMPO 1106/1118 7000 SHRA BKN015=
TAF TNCC 101600Z 1018/1118 09014KT 9999 SCT020 PROB40
      TEMPO 1106/1118 7000 SHRA BKN015=

0000013100
330
SARS33 RUMS 101530 RRA
METAR UUMO 101530Z 20004MPS 9999 -RA OVC008 03/03 Q 991 NOSIG RMK
QFE728/0971 26250350=

0000010700
331
SANT31 KWBC 101500 RRC
METAR
GVAC 101530Z NIL=
LPBJ 101530Z NIL=
LPLA 101530Z NIL=

0000040000
332
FTUS71 KWBC 101542 AAA
TAF AMD
KFLO 101539Z 1016/1112 05005KT P6SM VCSH SCT025 OVC050
      TEMPO 1016/1018 BKN025
     FM101800 09006KT 6SM -RA FEW015 BKN025
     FM110200 15007KT 2SM BR VCSH BKN008 OVC015=
KRDG 101538Z 1016/1112 VRB02KT 4SM BR OVC006
     FM101800 VRB02KT 6SM BR BKN020
     FM110000 14002KT 6SM BR BKN012
     FM110600 15005KT 4SM -RA BR OVC006=

0000035100
333
FTUS72 KWBC 101542 AAA
TAF AMD
KMSL 101541Z 1016/1112 14009KT 5SM BR BKN004 OVC070
      TEMPO 1017/1019 BKN006
     FM101900 17009KT P6SM OVC010
     FM110300 16012KT P6SM VCSH OVC009
     FM110500 18015KT 4SM -SHRA BR OVC007
      TEMPO 1106/1109 2SM -TSRA BR BKN005CB OVC010
     FM111000 23016KT 3SM -RA BR OVC007=

0000009800
334
SPUS31 KWBC 101541
SPECI
KIAD 101537Z 24004KT 1 1/2SM BR OVC005 01/M01 A3043=

0000011000
335
SPUS43 KWBC 101541
SPECI
KGFK 101537Z 18016KT 2 1/2SM -SN BR FEW034 OVC048 M06/M08 A2946=

00000000