0000011100
856
UANT01 CWAO 110334
ARP DAL232 5806N04419W 0334 F370 MS61 266/23 KT
N811NW DDL XXW 110334 J64A
0000011100
857
UANT01 CWAO 110334
ARP BAW2232 4536N03133W 0334 F400 MS50 214/51 KT
GVIIV QXT AOE 110334 F35A
0000015800
858
SIVD20 KWNB 110300 RRP
BBXX
42085 11031 99179 70665 46/// /0607 10257 40181 51011 90300 22200
00267 10703 70015 333 91208 555 11074 22080=
0000017000
859
SOVI10 KWAL 110336
B110070A 011033601 P9751095 B\P~W@@^0ekC1@qh???CoCt>@qv3@GD@@S4Ct5DC6bX9KF<BM2?????A"??? nTCaLBiBlBqBpBpBp:AMPTEMP 27.29C  47-0NN 219E
0000052500
860
SIIN90 VABB 110300 RRB
AAXX 11034
42851 32996 00000 10140 20084 40165
  333 20107 58009
  555 10000=
43071 32596 40501 10170 20118 40162 83201
  333 20010 59015
  555 10035=
43158 31996 00000 10166 20128 39533 40161 74244
  333 20145 58002
  555 10000=
43021 32997 00000 10225 20149 40130
  333 20150 59013
  555 10000=
43011 32596 00000 10160 20153 4////
  333 20132 56000 58///
  555 10853=
43058 32996 00502 10150 20078 40144
222// 20000
  333 20144 58021
  555 10000=
0000008900
861
SPIN90 VOBM 110330
SPECI VOBM 110330Z 00000KT 6000 FEW018 20/12 Q1019=

0000009200
862
SAIN90 VOCI 110330
METAR VOCI 110330Z 00000KT 4000 HZ NSC 25/20 Q1015 NOSIG=
0000010500
863
SPIN90 VEAT 110330
SPECI VEAT 110330Z 00000KT 1200 BR FEW018 15/13 Q1017
BECMG 1500 BR=
0000191300
864
SZAU01 AMMC 110336
CREX++
T000103 A001 D01021 D06025++
-1927750 14705860 59260 2014 01 11 03 29 3028 11 07 00 01
01343 0189 01344 0190 01346 0192 01349 0195 01347 0192 01347 0192+
-2316110 15079000 59670 2014 01 11 03 29 2998 11 07 00 01
01677 0175 01680 0175 01694 0186 01695 0181 01710 0193 01727 0205+
-3447330 15091170 60420 2014 01 11 03 29 2958 11 07 00 01
00672 -0027 00667 -0035 00659 -0045 00653 -0053 00644 -0065 00648 -0063+
-4105000 14591500 60910 2014 01 11 03 29 2890 11 07 00 01
00517 -0049 00508 -0057 00506 -0058 00503 -0059 00501 -0059 00491 -0068+
-4254640 14793080 61170 2014 01 11 03 29 2898 11 07 00 01
00973 0058 00977 0061 00981 0063 00981 0061 00983 0062 00985 0062+
-3834390 14161360 61410 2014 01 11 03 29 2905 11 07 00 01
00305 0060 00330 0084 00292 0045 00303 0056 00300 0052 00318 0069+
-3214890 13364170 62000 2014 01 11 03 29 2958 11 07 00 01
00638 0012 00639 0013 00639 0013 00639 0013 00637 0011 00642 0015+
-3387080 12189720 62080 2014 01 11 03 29 2943 11 07 00 01
00726 0091 00721 0085 00702 0066 00741 0104 00738 0100 00725 0087+
-3182560 11573860 62237 2014 01 11 03 29 2970 11 07 00 01
00743 0091 00744 0091 00734 0080 00731 0077 00721 0066 00716 0060+
-2422000 11339750 62385 2014 01 11 03 29 //// 11 07 00 01
00897 -0116 00875 -0139 00961 -0054 00993 -0023 00910 -0107 00908 -0110+
-2181670 11419110 62430 2014 01 11 03 29 //// 11 07 00 01
01535 -0001 01527 -0009 01521 -0015 01529 -0007 01512 -0025 01507 -0030+
-1800080 12221830 62650 2014 01 11 03 29 3043 11 07 00 01
04741 0188 04738 0189 04735 0187 04733 0188 04731 0188 04729 0189+
-1247190 13084580 63230 2014 01 11 03 29 3053 11 07 00 01
04754 0029 04765 0030 04776 0030 04784 0029 04794 0029 04803 0029+
-1386000 13641580 63511 2014 01 11 03 29 3045 11 07 00 01
01249 0012 01249 0011 01250 0011 01253 0013 01255 0014 01256 0014++
7777

0000046700
865
SZPA01 AMMC 110336
CREX++
T000103 A001 D01021 D06025++
0136250 17293000 67590 2014 01 11 03 29 3013 11 07 00 01
02129 0061 02141 0075 02123 0059 02130 0070 02126 0068 02129 0073+
0710610 17137250 67680 2014 01 11 03 29 3013 11 07 00 01
01387 0055 01390 0060 01385 0057 01385 0060 01382 0059 01379 0058+
0698060 15820000 67950 2014 01 11 03 29 3022 11 07 00 01
01084 0064 01081 0062 01083 0065 01084 0067 01080 0064 01078 0064++
7777

0000179200
866
SZPS01 AMMC 110336
CREX++
T000103 A001 D01021 D06025++
-0204190 14737360 56130 2014 01 11 03 29 3027 11 07 00 01
01159 0111 01160 0111 01161 0111 01155 0104 01158 0107 01156 0104+
-0669280 15640860 56363 2014 01 11 03 29 //// 11 07 00 01
01058 -0063 01063 -0056 01060 -0058 01060 -0056 01059 -0055 ///// ////+
-0942890 15995560 56670 2014 01 11 03 29 3040 11 07 00 01
00948 -0043 00951 -0040 00950 -0040 00943 -0046 00946 -0043 00950 -0038+
-1072080 16580190 57131 2014 01 11 03 29 //// 11 07 00 01
03379 2251 03379 2252 03379 2254 03380 2256 03379 2257 03381 2260+
-1551560 16718860 57210 2014 01 11 03 29 //// 11 07 00 01
01344 -0110 01336 -0117 01333 -0118 01339 -0111 01331 -0118 01314 -0134+
-1775690 16830030 57320 2014 01 11 03 29 3015 11 07 00 01
01335 -0040 01334 -0041 01332 -0043 01332 -0043 01333 -0041 01333 -0041+
-4397330 16861610 65180 2014 01 11 03 29 2885 11 07 00 01
01355 0384 01333 0357 01346 0366 01356 0371 01364 0376 01353 0361+
-2120470 -15978530 65980 2014 01 11 03 29 3013 11 07 00 01
00940 0056 00955 0071 00907 0024 00920 0037 00937 0055 00937 0055+
-2113810 -17518140 66600 2014 01 11 03 29 //// 11 07 00 01
01662 0072 01667 0078 01670 0082 01673 0086 01673 0087 01686 0100+
-1382670 -17176110 66840 2014 01 11 03 29 3010 11 07 00 01
01224 0084 01240 0101 01235 0097 01230 0095 01225 0091 01218 0086+
-1813250 17842750 67050 2014 01 11 03 29 3033 11 07 00 01
01905 0103 01903 0102 01908 0107 01908 0108 01902 0103 01905 0107+
-1760530 17743810 67070 2014 01 11 03 29 3033 11 07 00 01
02019 0042 02015 0039 02015 0040 02013 0039 02013 0040 ///// ////+
-0850250 17919500 67440 2014 01 11 03 29 3030 11 07 00 01
02517 -0016 02513 -0018 02518 -0011 02509 -0017 02510 -0014 02503 -0018++
7777

0000034100
867
SZIO01 AMMC 110336
CREX++
T000103 A001 D01021 D06025++
-1211670 09689190 46280 2014 01 11 03 29 3003 11 07 00 01
00897 0054 00899 0054 00898 0050 00902 0052 00900 0048 00907 0052+
-1042940 10566940 46290 2014 01 11 03 29 //// 11 07 00 01
00901 0052 00903 0053 00916 0064 00899 0046 00933 0078 00906 0050++
7777

0000122200
868
SIRA22 RUHB 110300
AAXX 11031
30499 41999 60204 11290 21343 39597 40328 52011 73632 80005 333 91012
91112=
30683 42999 80000 11272 21327 39615 40333 52013 84044=
31253 41999 60000 11329 21351 39747 40263 52007 72842 80001=
31295 42999 43303 11258 21332 39770 40271 52010 80001=
31348 41998 80000 11305 21318 39964 40181 54/// 77172 80007=
31418 42/// /0501 11295 21340 39893 40175 57004=
31439 41597 81801 11289 21321 30085 40134 58010 77172 82575=
31442 42999 23202 11289 21335 39862 40256 52005 80001=
31445 42999 02904 11275 21322 39969 40250 52002=
30695 42998 82904 11270 21325 39933 40305 51008 80004=
31474 42999 33601 11339 21390 39715 40262 58/// 80001=
31521 42980 02902 11300 21330 39932 40258 52003=
31527 42998 02903 11285 21349 39909 40245 58005=
31534 42999 00000 11347 21377 39874 40267 58006=
31587 42997 02902 11281 21305 30110 40272 52005=
31632 42999 00701 11302 21332 39802 40198 58/// 333 21405=
31702 42998 01601 11270 21322 39885 40254 58005=
31713 42999 02001 11216 21319 30107 40218 58008=
31725 42998 02603 11230 21313 30139 40209 58008=
31801 42999 01802 11199 21277 39972 40216 57///=
31832 42999 01501 11174 21257 30142 40233 58015=
0000055800
869
SIRA28 RUHB 110300
AAXX 11031
31825 42799 13003 11169 21322 39947 40167 58018 81100=
31845 42999 02402 11170 21242 30062 40236 58018=
31878 42998 71601 11141 21233 30115 40246 58020 81031=
31915 42599 22702 11090 21207 39957 40241 57016 82200=
31921 42998 22105 11121 21208 30134 40238 57022 80001=
31969 82998 02601 11058 21219 30213 40264 58016=
31981 42999 12602 11141 21235 30004 40254 58030 80001=
31987 42999 01603 11103 21221 39986 40258 58019=
32069 42598 63004 11183 21216 30120 40125 58010 86900 333 91005
91106=
0000261700
870
SIRA23 RUHB 110300
AAXX 11031
30669 42999 01001 11299 21337 39413 40388 52010=
30731 42999 20502 11166 21208 39733 40387 52023 80001=
30745 42999 00601 11314 21336 39152 40454 52021 333 21339=
30764 41906 00000 11364 21382 39531 40454 52016 74244=
30829 42999 72802 11235 21268 39672 40432 52020 86079 333 21248=
30838 41598 50000 11226 21244 39342 40416 52022 70231 83901 333
21245=
30846 41999 30503 11212 21260 39409 40397 53036 70183 82033 333
21215=
30859 42999 02801 11244 21292 39475 40397 52022 333 21270=
30862 42998 23203 11270 21334 39575 40397 52019 80001=
30957 41699 53603 11177 21211 39401 40358 52034 70182 85300=
30975 42899 20402 11295 21320 39634 40359 52019 82030=
24076 41497 80804 11232 21257 39917 40310 58001 77172 885// 333
88618=
24194 42999 80301 11222 21233 30246 40304 53002 8801/=
24219 42999 01201 11466 21490 39980 40341 57005=
24261 41999 80000 11332 21356 39532 40325 58001 77177 86037=
24263 42999 62301 11432 21450 30028 40352 58003 81031=
24322 42998 02001 11323 21340 39627 40331 54000=
24338 42999 22301 11421 21444 39894 40348 53003 80005=
24361 41998 81901 11415 21438 30040 40341 58006 77071 8807/=
24371 42999 10000 11444 21464 39954 40367 50004 81030=
24449 42999 00000 11500 21530 30264 40380 58001 333 21505=
24462 42899 80000 11330 21360 39264 40337 57002 8801/=
24477 42999 80000 11415 21449 39385 40359 58002 85077=
24525 42999 00000 11492 21512 30013 40403 54000=
24538 42999 20000 11501 21535 30169 40388 54000 80001=
24557 42999 00000 11490 21522 30245 40379 54000=
24585 41999 33001 11384 21413 39568 40316 58001 70271 80001=
24588 41999 80000 11344 21362 39468 40296 58008 70271 83070=
24643 42999 60000 11441 21459 30266 40386 52002 80005=
24644 42999 20000 11445 21469 30221 40399 58001 80001=
24668 42999 00000 11467 21490 30233 40374 51003=
24679 41999 70000 11278 21297 38574 48350 57004 77072 87020=
24684 41999 20000 11346 21362 39226 40302 52001 70271 82010=
24691 42999 00000 11428 21444 39190 40337 52004=
24725 42999 20000 11422 21461 30032 40424 58009 80001=
24726 41994 52903 11418 21463 39884 40417 54000 74242 80001=
24737 41994 00000 11507 21530 30207 40428 57003 71000=
24739 42999 31801 11442 21454 39944 40410 52006 80001=
24753 42997 12801 11440 21469 30244 40382 58004 80009=
24758 42999 00000 11426 21455 30050 40401 58004=
24763 42999 02001 11460 21486 30203 40380 52004=
24771 42999 00000 11450 21478 39939 40377 53001=
24826 42998 12402 11419 21450 39916 40446 54000 80001=
24843 42999 20000 11485 21500 30107 40416 58002 80002=
0000013600
871
SIVD17 CWVR 110300
BBXX
46146 11031 99493 71237 46/// /0911 10067 40052 57058
22200 00070 10401 70007 333 91215 =

0000011100
872
SIMU20 VMMC 110300
AAXX 11034
45011 47558 /0206 10175 20128 40256 52004 70010
333 59004=

0000011100
873
SIVF21 ESWI 110300 RRB
BBXX
SDIA 11031 99656 10222 46/// /0108 11144 40107 5//// 222// 00011=
0000011100
874
SIVF21 ESWI 110300 RRC
BBXX
SBPQ 11031 99656 10222 46/// /0206 11144 40104 52012 22201 00007=
0000011500
875
SICN03 CWAO 110300 RRC
AAXX 11034
71400 25/// /2607 11057 21092 30035 40168 58010
333 60007=

00000000