0000095300
896
SIVF30 KWBC 110300 RRB
BBXX
C6TQ6 11033 99302 70151 41898 42412 10180 2//// 40170 54/// 7//00
 844// 22234 00200 20605 3//// 40605 5//// 6//// 8//// ICE /////=
SBHI 11031 99583 10197 41/98 83108 10005 21016 40031 52005 70322
 8//// 22282 00063 2////=
62023 11033 99514 70079 46/97 /2914 10078 2//// 4//// 5//// 22200
 10705 70023 555 70037 80009=
LMEL 11031 99603 10053 43/// /1304 10040 20035 49973 5//// 222/0
 04079 1//// 3//// 4//// 5////=
LF4H 11034 99596 10022 46/// /2822 10056 20023 49986 57003 8////
 22200 06078 10606 70029=
LJIT 11031 99584 10037 43/// /2812 10071 20025 40018 5//// 222/0
 04071 1//// 3//// 4//// 5////=
BATUK01 11034 99582 70061 43/// /2222 10044 20002 40041 53015
 22251 04097=
LDGJ 11031 99603 10053 43/// /1404 10045 20024 49976 5//// 222/0
 04078 1//// 3//// 4//// 5////=
PHAM 11033 99499 70066 41/97 19903 10120 20055 40155 52010 70211
 81100 22283 20300 80087 42893=
0000016500
897
SIPF20 NTAA 110300 RRA
AAXX 11034
91943 46/// /0808 10279 20226 30106 40109 53004
  333 59006=
91945 36/// ///// 10272 20236 30134 40139 53001=
0000130200
898
SITA20 UTDD 110300
AAXX 11031
38598 31598 80909 11031 21048 40318 52001 71022 886// 333   55077=
38599 31395 80707 11031 21071 39764 40302 57004 71011 80002=
38705 32999 80203 11018 21056 39048 48520 58030 83031 333   46002
55081=
38713 32999 61402 11063 21144 39061 48500 58010 80004 333   43004
55089=
38715 32999 02012 11156 21248 47040 57002=
38718 32999 20000 11146 21163 48600 54000 80004 333   47003 55072=
38719 NIL=
38725 32699 70000 11128 21238 48580 53003 82501 333   43001=
38734 32999 20502 11165 21224 47060 57005 80003 333   48010=
38744 32999 20000 11202 21214 38106 48650 53009 80001 333   47019
55057=
38836 NIL=
38838 NIL=
38844 32999 50504 11106 21175 48530 53009 83032 333   48028=
38846 31996 40204 11132 21137 38560 48520 53011 71010 82033 333
47011=
38847 NIL=
38851 32999 61305 11079 21172 48600 56002 80001 333   43007=
38856 NIL=
38869 32999 00000 11205 21254 47150 53010 333   47003=
38875 32999 00000 11267 21267 47/// 5//// 333   55081=
38878 NIL=
38932 NIL=
38933 31995 00000 11044 21060 39776 40319 57005 71000 333   55003=
38944 32998 00000 11060 21064 39701 40269 54000 80001=
38947 32997 30501 11018 21042 40308 57007 80001=
38951 NIL=
38954 NIL=
38957 32998 00000 11163 21169 47910 52023=
0000028300
899
SXHW11 KWAL 110320
B14036D2 011032013"
1,140111,02:15:00,8.1,47,10.7,0.0,1013.6,0.00,13.9,
1,140111,02:30:00,9.1,46,11.2,0.0,1013.6,0.00,13.5,
1,140111,02:45:00,9.2,39,10.7,0.0,1013.7,0.00,13.9,
1,140111,03:00:00,8.2,30,11.1,0.0,1013.8,0.00,13.9, 48-0NN  30W
0000110200
900
SSWB19 RKSL 110300
ZZYY 21229 11014 03001 13746/ 13111/ 
11109 03005 10035 40324 5//// 
22209 00131 10703 20071 21016= 
ZZYY 22101 11014 03001 13724/ 12602/ 
11109 01602 10011 40328 5//// 
22209 00053 10501 20053 21004= 
ZZYY 22102 11014 03001 13479/ 12578/ 
11109 03502 10041 40376 5//// 
22209 00069 10501 20049 21006= 
ZZYY 22103 11014 03001 13400/ 12750/ 
11109 03605 10034 40334 5//// 
22209 00140 10303 20030 21013= 
ZZYY 22104 11014 03001 13477/ 12890/ 
11109 03304 10031 40333 5//// 
22209 00152 10701 20071 21006= 
ZZYY 22105 11014 03001 13754/ 13000/ 
11109 02905 10024 40304 5//// 
22209 00120 10603 20064 21015= 
ZZYY 22106 11014 03001 13635/ 12978/ 
11109 02907 10029 40304 5//// 
22209 00114 10602 20064 21012= 
ZZYY 22107 11014 03001 13308/ 12603/ 
11109 00007 10077 40328 5//// 
22209 00162 10602 20058 21012= 
ZZYY 22108 11014 03001 13625/ 12575/ 
11109 03203 10037 40334 5//// 
22209 00066 10602 20058 21009= 
ZZYY 22183 11014 03001 13473/ 12624/ 
11109 00101 10053 40338 5//// 
22209 00078 10200 20021 21001= 
0000095300
901
USEU24 EDZW 110000
TTAA  61001 17030 99016 09065 22045 00136 09666 23534 92786
09868 30004 85485 07265 30012 70052 03762 27515 50563 20758
27527 40724 34147 29528 30919 50135 30030 25035 59948 29529
20172 67156 32529 15346 65168 32541 10595 63978 30547 88190
68956 32541 77999 31313 48008 82340=
TTAA ///// 17062 NIL=
TTAA  61001 17130 99920 02315 27002 00215 ///// ///// 92844
///// ///// 85510 06703 27512 70070 02362 27521 50566 20161
30025 40727 33756 30032 30922 49736 30031 25039 60344 30536
20176 67156 33045 15351 62772 31546 10600 65379 31529 88195
67556 33052 77999 31313 48008 82331=
TTAA  61001 17220 99019 11047 15006 00179 11450 14518 92828
08843 21006 85525 07468 26013 70105 01468 30515 50571 19359
29529 40733 31557 31032 30930 48337 31549 25047 56949 31565
20186 63764 32058 15362 62371 32551 10611 62974 32059 88183
65766 32549 77253 31566 41618 31313 48008 82332=
TTAA ///// 17280 NIL=
0000017200
902
SSVF50 LFPW 110050 RRA
ZZYY 62078 11014 0050/ 747239 002787 22219 00077 10802 20080
21008=
ZZYY 62067 11014 0050/ 746833 002295 22219 11002 20098 21008=
0000010800
903
SSVF50 LFPW 110110 RRA
ZZYY 62068 11014 0110/ 748717 003961 22219 00110 10700 20070
21001=
0000010800
904
SSVD50 LFPW 110110 RRA
ZZYY 44050 11014 0110/ 746700 056183 22219 00002 10705 20070
21023=
0000024400
905
SSVD50 LFPW 110140 RRA
ZZYY 31217 11014 0140/ 704937 052194 22219 10300 20030 21001=
ZZYY 41097 11014 0140/ 714548 061097 22219 00269 10401 20040
21004=
ZZYY 44050 11014 0140/ 746700 056183 22219 00002 10705 20070
21024=
0000018000
906
SSVD50 LFPW 110210 RRA
ZZYY 41097 11014 0210/ 714548 061097 22219 00270 10301 20030
21004=
ZZYY 44050 11014 0210/ 746700 056183 22219 00002 10705 20070
21025=
0000010800
907
SSVD50 LFPW 110240 RRA
ZZYY 44050 11014 0240/ 746700 056183 22219 00002 10705 20070
21025=
0000011000
908
UANT01 CWAO 110318
ARP UAL50 4737N05201W 0318 F340 MS63 307/44 KT
N68061 DDL YYT 110318 F30A
0000011000
909
UANT01 CWAO 110319
ARP UAL57 4910N03437W 0318 F350 MS53 195/40 KT
N66051 DDL XXW 110319 F47A
0000017200
910
SSVF50 LFPW 110120 RRA
ZZYY 62078 11014 0120/ 747239 002787 22219 00076 10902 20090
21009=
ZZYY 62067 11014 0120/ 746833 002295 22219 10902 20088 21008=
0000017200
911
SSVF50 LFPW 110135 RRA
ZZYY 62066 11014 0135/ 743532 001615 22219 00126 10903 20090
21013=
ZZYY 62064 11014 0135/ 744653 001447 22219 11003 20100 21014=
0000057900
912
SIIN90 VOMM 110300
AAXX 11034
43278 32597 30000 10244 20207 30156 40163 82501
  333 10297 20209 58007
  555 10000=
43341 32996 00000 10141 20129 38980 48503
  333 10275 20095 58006
  555 10000=
43342 32596 60000 10226 20192 39956 40165 83530
  333 10324 20200 58011
  555 10000=
43340 32696 60501 10160 20143 38643 48660 85031
  333 10230 20138 58000
  555 10000=
43318 32996 01101 10166 20123 38295 48534
  333 10170 20104 58007
  555 10003=
43379 32898 20208 10240 20222 30143 40146 82070
  333 10298 20214 58006
  555 10020=
0000053200
913
SSVF50 LFPW 110140 RRA
ZZYY 62074 11014 0140/ 747285 003285 22219 00100 10902 20090
21011=
ZZYY 62079 11014 0140/ 743403 001674 22219 00129 10902 20090
21011=
ZZYY 62069 11014 0140/ 748290 004968 22219 00110 10804 20080
21019=
ZZYY 61431 11014 0140/ 143411 004163 22219 00126 10501 20050
21003=
ZZYY 62068 11014 0140/ 748717 003961 22219 00110 10800 20080
21001=
ZZYY 61191 11014 0140/ 142917 003125 22219 00124 10401 20040
21004=
ZZYY 62059 11014 0140/ 749695 001620 22219 10501 20050 21004=
0000017200
914
SSVF50 LFPW 110205 RRA
ZZYY 62066 11014 0205/ 743532 001615 22219 00126 10802 20080
21012=
ZZYY 62064 11014 0205/ 744653 001447 22219 11002 20100 21012=
0000038800
915
SSVF50 LFPW 110210 RRA
ZZYY 62074 11014 0210/ 747285 003285 22219 00100 10802 20080
21011=
ZZYY 62079 11014 0210/ 743403 001674 22219 00128 10902 20090
21011=
ZZYY 62069 11014 0210/ 748290 004968 22219 00109 10804 20080
21018=
ZZYY 61191 11014 0210/ 142917 003125 22219 00123 10401 20040
21004=
ZZYY 62059 11014 0210/ 749695 001620 22219 10501 20050 21004=
00000000