0000012000
392
SNDL22 EDZW 110200 RRA
AAXX 11021
10439 42975 32103 10013 20001 39957 40183 57001 80001
  333 83071=
0000041400
393
SNDL44 EDZW 110200 RRA
AAXX 11021
10033 42370 62308 10066 20053 30055 40096 58004 84630
  333 83709 83625 86364 91114=
10037 46/50 /2408 10062 20049 30076 40107 5/005=
10038 42365 72406 10061 20045 30089 40111 58003 876//
  333 87708=
10126 41459 82207 10064 20051 30108 40124 57007 76122 877//
  333 87710=
10136 41456 72405 10061 20047 30084 40124 58003 71022 876//
  333 87710=
0000036400
394
SNDL45 EDZW 110200 RRA
AAXX 11021
10172 42562 72504 10046 20030 30051 40124 52002 875//
  333 87622=
10238 42358 82102 10048 20033 30055 40151 57002 876//
  333 87709=
10246 42358 72605 10045 20038 30042 40151 52001 876//
  333 87708=
10304 46/56 /2204 10057 20033 30093 40144 5/004=
10306 46/// ///// 1//// 2//// 3//// 4//// 5////=
0000026200
395
SNDL46 EDZW 110200 RRA
AAXX 11021
10334 42465 72504 10049 20029 30071 40157 52003 875//
  333 87612=
10335 42462 82506 10053 20027 30065 40158 58001 875//
  333 87612=
10343 42465 72603 10054 20030 30088 40153 55001 875//
  333 87611=
0000008900
396
UXIN90 VIJP 110000
PPBB 6100/
42452 90000 04502 NO ASCENT DUE TO FOG

0000024200
397
SNDL47 EDZW 110200 RRA
AAXX 11021
10476 42680 72305 10044 20015 30046 40172 53003 875//
  333 87647=
10502 42982 31502 11002 21009 30006 40175 57006 80001
  333 83074=
10516 46/// /1302 10024 20014 30064 40186 5/006=
0000022800
398
SNDL48 EDZW 110200 RRA
AAXX 11021
10613 46/42 /2702 10011 20010 39592 40185 5/010=
10618 41904 02402 11024 21028 39729 40200 57007 74844=
10743 42984 11802 11003 21012 39623 40206 57005 80001
  333 81074=
0000046400
399
SNDL49 EDZW 110200 RRA
AAXX 11021
10771 46/89 /0902 11008 21010 39695 40214 5/002=
10837 41915 02202 11008 21011 39539 40214 57006 71200=
10853 41904 03501 11028 21029 39737 40222 55005 74440=
10856 41765 22101 11006 21010 39527 40216 55007 71111 81531
  333 81650=
10857 42858 21802 10004 21003 39453 40213 56007 82500
  333 82657=
10860 46/02 /0000 11030 21031 39762 40221 5/005=
10954 46/// /2402 11011 21012 39303 48471 5/004=
0000027700
400
FTXX31 AYPM 110211
TAF AGGH 110211Z 1106/1206 34006KT 9999 -SHRA SCT016 BKN120
T 29 27 26 26 Q 1006 1008 1007 1005=
TAF ANYN 110212Z 1106/1206 07008KT 9999 -SHRA SCT016 SCT030 BKN120
INTER 1106/1206 4000 +SHRA BKN010
T 26 24 24 27 Q 1005 1007 1006 1004=
0000023200
401
SNVD20 KWNB 110200 RRE
BBXX
44013 11021 99423 70707 46/// /1903 10034 20034 40277 58004 90150
22200 00046 10301 20301 70003 333 91204 555 11033 22034 30125
42005 60149 187032 188031 196039 188034 178032 186033=
0000043900
402
SNVD22 KWNB 110200 RRE
BBXX
46069 11021 99337 71202 46/// /3211 10147 40166 57004 90150 22200
00142 11106 20704 3//// 41104 70029 333 91213 555 11122 22130
30123 43213 60149 319111 320108 320108 319110 319110 316107=
46088 11021 99483 71232 46/// /1208 10079 20056 40069 58070 90150
22200 00074 11102 20301 325// 41102 70009 333 91210 555 11088
22095 30129 41210 60149 114082 114083 113082 107075 089060 093056=
0000034100
403
SNVE15 KWNB 110200 RRA
BBXX
51004 11021 99175 71524 46/// /1108 10245 40111 56011 90150 22200
00250 10905 20703 309// 40904 70026 333 91210 555 11087 22093
30058 42811 60149 112082 280084 280084 279083 279083 280084=
51100 11021 99236 71539 46/// /0909 10236 40141 55008 90150 22200
00244 333 91210 555 11090 22096=
0000024400
404
SNVD17 KWNB 110200 RRE
BBXX
51101 11021 99243 71621 46/// /0514 10222 20184 40147 58019 90150
22200 00238 11110 20806 303// 41107 70049 333 91217 555 11147
22156 30134 40618 60149 046136 045136 047137 045133 049136 048123=
0000069400
405
SNVD19 KWNB 110200 RRA
BBXX
46126 11021 99540 71666 46/// /2202 10045 49848 90136 22200 00046
1//00 70002 333 91204 555 11023 22025=
46126 11021 99540 71666 46/// /2202 10045 49848 90140 22200 00046
1//00 70002 333 91204 555 11023 22025=
46126 11021 99540 71666 46/// /2103 10045 49848 90142 22200 00046
1//00 70002 333 91205 555 11030 22033=
46126 11021 99540 71666 46/// /2103 10045 49845 90145 22200 00047
1//00 70002 333 91205 555 11030 22033=
46078 11021 99560 71526 46/// /2607 10038 20003 49973 57005 90150
22200 00045 11005 20402 322// 41004 70024 333 91208 555 11070
22074 30051 42509 60149 256065 258066 257060 261066 261064 258071
82608 90051=
0000066100
406
UDAF01 FAPR 110202
AMDAR 1102
LVR AFZA65 0528S 05137E 110110 F400 MS577 121/032 TB0 S031 333 F/// VG011=
LVR AFZA65 0604S 05054E 110118 F400 MS576 140/012 TB0 S031 333 F/// VG011=
LVR AFZA65 0638S 05012E 110125 F400 MS590 048/010 TB0 S031 333 F/// VG011=
LVR AFZA65 0724S 04943E 110132 F400 MS583 113/007 TB0 S031 333 F/// VG011=
LVR AFZA65 0808S 04910E 110139 F400 MS587 050/014 TB0 S031 333 F/// VG011=
LVR AFZA65 0843S 04825E 110146 F400 MS585 066/026 TB0 S031 333 F/// VG011=
LVR AFZA65 0910S 04735E 110153 F400 MS580 064/023 TB0 S031 333 F/// VG011=
LVR AFZA65 0936S 04644E 110160 F400 MS570 092/033 TB0 S031 333 F/// VG011=
0000029100
407
SXHW11 KWAL 110205
B15017A0 011020503"
1,140111,01:00:00,14.0,62,19.0,11.2,1013.0,6.03,13.7,
1,140111,01:15:00,13.0,67,17.4,11.2,1013.0,6.03,13.7,
1,140111,01:30:00,13.5,65,19.0,11.2,1013.2,6.03,13.7,
1,140111,01:45:00,13.4,66,18.7,11.2,1013.2,6.03,13.7, 40+0NN 210W
0000013400
408
ULBD01 WBSB 110000
TTCC 61005 96315
70859 75363 15018 50060 61381 27510 88931 81161 11513
77999 31313 48008 80006=
0000074500
409
UKBD01 WBSB 110000
TTBB 61008 96315
00008 24804 11990 25035 22868 17619 33795 13814 44721
10037 55704 09260 66623 03050 77616 02618 88558 00932
99550 00757 11534 02162 22438 11539 33417 14138 44359
19960 55236 45350 66226 47358 77214 49957 88184 59145
99135 75956 11122 79556 22115 75357 33100 78760 21212 
00008 20003 11979 14002 22946 00502 33914 04001 44795 
06002 55719 03010 66709 04510 77692 03011 88687 03010 
99616 05008 11600 05011 22561 02510 33558 02510 44543 
05515 55537 06016 66494 05020 77465 03519 88397 10013 
99368 07013 11304 06510 22294 08013 33268 06512 44248 
08010 55228 11514 66170 11037 77124 11572 88109 14010 
99106 09003 11103 04510 22100 05515 31313 48008 80006
41414 39268=
0000017700
410
SNVD21 KHAF 110100
BBXX 9VAK8 11013 99031 50801
41397 72709 10250 2019/
40120 54000 70222 87651
22200 00250 2//// 39999 4////
5//// 6//// 80210 ICE /////
0000013500
411
SNVD02 CWAO 110200
BBXX
SHIP 11024 99429 70824 46/// /1612 10031 20041 40111 58038 7//// 8//// 22200 0//// 2//// =

00000000