0000011000
596
UANT01 CWAO 110331
ARP UAL23 4922N04820W 0331 F370 MS65 313/71 KT
N17126 DDL YQX 110331 F53A
0000011000
597
UANT01 CWAO 110331
ARP UAL58 5505N03412W 0331 F350 MS54 226/39 KT
N79011 DDL XXW 110331 F37A
0000055400
598
SIMG21 FMMI 110300
AAXX 11034
67017 NIL=

67020 33580 70000 10254 20241 30095 40122 53018 81902
  333 81820 81920 86073 94972/3 95832/3 555 81633=
67023 32582 42206 10242 20227 30114 40120 53015 83802
  333 83820
  555 81640 81075=
67037 NIL=

67067 31570 70000 10204 20190 39270 48534 53017 7101/ 82801
  333 81820 85073
  555 82827=
67107 33575 60000 10139 20130 38504 48542 53003 82806
  333 81820 82623 85273=
67131 22582 50000 10/// 20/// 30109 40114 5//// 82802
  333 60212 82820 83073
  555 81640=
0000004500
599
UAIO01 FMMI 110300
AIREP NIL=
0000011100
600
UANT99 KDDL 110330
ARP DAL116 4730N04253W 0330 F350 MS54 323/49 KT
N175DZ QXT AOW 110330 F31A
0000011000
601
UANT99 KDDL 110331
ARP BAW40F 5144N03655W 0331 F370 MS55 221/24 KT
GBNLP QXT AOW 110331 F44A
0000011000
602
UANT99 KDDL 110331
ARP DLH419 5045N03651W 0331 F360 MS52 223/23 KT
DABYJ QXT AME 110331 F98A
0000010900
603
UANT99 KDDL 110331
ARP BAW6W 4935N03235W 0331 F380 MS52 220/49 KT
GVIIA QXT AOE 110331 F15A
0000011100
604
UANT99 KDDL 110331
ARP UAL106 5132N03239W 0331 F340 MS56 204/67 KT
N76064 DDL XXW 110331 F61A
0000362300
605
SIIN50 VIDP 110300
AAXX 11034
00010 21994 29901 10072 20072 40193 71044 82030
  333 20056 58011 6992/
  555 00002 10003=
42027 21595 82701 10004 21009 38474 48561 70522 8452/
  333 21003 58056 6996/
  555 00006 10036=
42044 22494 80000 11012 21026 38334 48518 887//
  333 21030 58048 6008/
  555 00084 10116=
42045 22696 33603 10020 21034 38413 48546 82130
  333 21004 58034 6003/
  555 00028 10085=
42056 31695 10502 10056 20037 39725 71000 81500
  333 20050 58008
  555 10009=
42071 31994 00000 10018 20018 40202 71000
  333 10174 20004 58010
  555 10000=
42079 22896 10000 10044 20039 39192 48505 81030
  333 10156 20032 58007 6005/ 81358
  555 00050 10008=
42081 22496 20000 10034 20025 38959 48522 82700
  333 10148 20028 56400 58018 6015/ 82715
  555 00150 10025=
42083 22997 00000 10010 21019 4////
  333 10108 20001 59006 6001/
  555 00013 10002=
42099 31994 03202 10088 20053 40192 74240
  333 10170 20080 58012
  555 10000=
42101 31994 00000 10070 20061 40189 71000
  333 10186 20063 58011
  555 10000=
42103 31994 03202 10084 20062 40186 71010
  333 10170 20075 58007
  555 10000=
42111 21596 73202 10090 20082 39377 40175 70262 87800
  333 10192 20083 58000 6015/ 85625 84830
  555 00145 10015=
42114 21194 70000 10022 20008 38109 74221 84720
  333 10118 21008 59001 6003/ 81701 83605 86446
  555 00030 10006=
42123 NIL=
42131 31995 02701 10054 20045 40202 71000
  333 10200 20030 58017
  555 10000=
42147 21092 80504 11006 21106 37750 77297 887//
  333 10084 21017 59010 6015/ 88700
  555 00150 10018=
42148 21596 50903 10116 20112 39899 71022 81130
  333 10199 20088 59008 6002/ 81830 85360
  555 00024 10007=
42165 31994 20000 10050 20026 40210 70500 80001
  333 10198 20042 58036 82070
  555 10000=
42170 31995 00000 10028 20018 40216 70500
  333 10203 20022 58025
  555 10000=
42181 31992 02505 10062 20058 40194 74544
  333 10187 20056 58004
  555 10000=
42182 31992 02705 10082 20082 40187 74442
  333 10202 20071 58010
  555 10000=
42189 21695 00000 10110 20104 40178 71062
  333 10170 20084 58000 6991/
  555 00001 10003=
42260 NIL=
42273 21595 51404 10142 20124 40160 70562 85500
  333 10206 20113 59012 6002/ 85625
  555 00020 10006=
42328 32996 30501 10076 20023 40203 83030
  333 10177 20055 58027 83360
  555 10000=
42339 31995 60503 10096 20031 40204 70500 80001
  333 10217 20093 58035 86070
  555 10000=
42343 31995 20504 10108 20024 40199 70500 80001
  333 10187 20098 58024
  555 10000=
42348 31995 30205 10114 20027 40188 70500 80001
  333 10200 20072 58019 83070
  555 10000=
42369 21/93 90000 10134 20127 40172 74544 89///
  333 10193 20100 59006
  555 00025 10012=
42377 21594 80000 10146 20146 40169 71062 8452/
  333 10180 20128 58013 6003/ 84625 88460
  555 00026 10011=
42379 21594 50902 10148 20106 40173 71021 83530
  333 10195 20098 56690 59001 6998/ 83620 83360
  555 00008 10001=
42435 32996 40000 10084 20022 40223 80001
  333 10210 20066 58033 84070
  555 10000=
42452 31993 03603 10118 20086 40195 74440
  333 10154 20114 58022
  555 10005=
42463 31/93 93202 10120 20101 40192 74344 89///
  333 10176 20108 58011
  555 10011=
42475 21/92 90904 10160 20160 4//// 74344 89///
  333 10203 20150 58/// 6037/
  555 00366 10039=
42479 21694 61404 10154 20152 40169 71062 84330
  333 10202 20146 59014 6021/ 84620 81930 86363
  555 00212 10026=
42542 31595 80206 10098 20057 39591 40198 70522 8352/
  333 10184 20092 58022 83630 87458
  555 10000=
0000009200
606
SAIN35 VOMM 110330
METAR VOMD 110330Z 04004KT 4000 HZ FEW020 25/20 Q1017=

0000010300
607
SAIN90 VILK 110330
METAR VILK 110330Z 00000KT 0500 R27/0800 FG VV/// 14/13 Q1017 NOSIG=
0000032700
608
FTIN90 VEGT 110300
TAF VEGT 110300Z 1106/1212 04005KT 3000 HZ FEW018 SCT100 BEC
1112/1114 00000KT 2000 BR SCT100 BEC 1116/1118 1500 BR BEC 1119/1121
1200 BR BEC 1123/1201 0800 FG FEW010 SCT015 BKN100 BEC 1203/1205 1500
BR FEW018 SCT100 BEC 1206/1208 05005KT 3000 HZ BEC 1210 1212 00000KT
2500 HZ SCT100=
0000009200
609
SPIN90 VERC 110334
VERC 110330Z 16005KT 1500 BR  FEW 100 16/12  Q1019 NOSIG=
0000215900
610
SZNZ01 NZKL 110333
CREX++
T000103 A001 D01021 D06025++
-3683144 17478654 AUCT  2014 01 11 03 25 //// 11 07 00 01
06060 3194 06059 3193 06059 3192 06060 3193 06060 3192 06060 3192+
-4402404 -17636748 CHIT  2014 01 11 03 25 //// 11 07 00 01
05122 2104 05092 2078 05089 2079 05068 2061 05056 2054 05063 2064+
-4089929 17623168 CPIT  2014 01 11 03 25 //// 11 07 00 01
04199 2251 04186 2242 04184 2244 04170 2235 04179 2247 04185 2258+
-3618905 17548887 GBIT  2014 01 11 03 25 //// 11 07 00 01
06443 0051 06448 0056 06439 0047 06432 0041 06450 0059 06458 0069+
-3867541 17802288 GIST  2014 01 11 03 25 //// 11 07 00 01
04433 2689 04428 2687 04439 2701 04439 2704 04448 2716 04408 2680+
-4241288 17370277 KAIT  2014 01 11 03 25 //// 11 07 00 01
03515 2171 03500 2160 03511 2176 03521 2191 03506 2181 03478 2157+
-3755040 17815904 LOTT  2014 01 11 03 25 //// 11 07 00 01
04040 0207 04052 0221 04048 0219 04047 0219 04051 0225 04035 0211+
-3704657 17451175 MNKT  2014 01 11 03 25 //// 11 07 00 01
02658 -0146 02653 -0158 02664 -0153 02680 -0143 02668 -0162 02689 -0148+
-3947566 17692007 NAPT  2014 01 11 03 25 //// 11 07 00 01
03403 1997 03399 1996 03406 2007 03390 1996 03414 2023 03416 2029+
-3441483 17304870 NCPT  2014 01 11 03 25 //// 11 07 00 01
02462 -2517 02445 -2536 02411 -2572 02315 -2669 02441 -2545 02310 -2677+
-4581435 17062939 OTAT  2014 01 11 03 25 //// 11 07 00 01
04455 3401 04450 3403 04445 3404 04440 3406 04436 3408 04430 3408+
-2928002 -17789440 RBCT  2014 01 11 03 25 //// 11 07 00 01
06470 2018 06471 2021 06461 2011 06464 2014 06468 2019 06464 2016+
-2925114 -17790384 RFRT  2014 01 11 03 25 //// 11 07 00 01
03419 0203 03410 0195 03417 0204 03424 0211 03426 0214 03402 0191+
-4357010 17277383 SUMT  2014 01 11 03 25 //// 11 07 00 01
02170 1814 02198 1849 02178 1835 02176 1839 02159 1828 02167 1844+
-3764109 17618118 TAUT  2014 01 11 03 25 //// 11 07 00 01
05676 3984 05675 3983 05676 3985 05673 3982 05674 3983 05674 3983+
-4128448 17477985 WLGT  2014 01 11 03 25 //// 11 07 00 01
03363 2060 03362 2062 03356 2060 03358 2067 03355 2067 03350 2066++
7777
0000452200
611
SXPA01 KWNB 110300
ZZYY 51021 11014 03001 701900 154900 6113/ 11119 01009 22219
00265 33311 88872 20001 32655 43507 20025 32644 20050 32642 20075
32625 20100 32550 20125 32484 20150 32102 20200 31241 20250 31190
20300 31118 20500 30935 444 20130 11014 0300/ 34670 40500 521//
60401=
ZZYY 52002 11014 03001 302000 164900 6113/ 11119 10282 29080
22219 00300 33311 88872 20001 33002 43486 20025 33019 20050 33013
20075 32966 20100 32936 20125 32862 20150 32667 20200 31955 20250
31275 20300 31118 20500 30839 444 20130 11014 0300/ 34985 40500
521// 60401=
ZZYY 52316 11014 03001 507900 179800 6113/ 11119 10271 22219
00295 33311 88872 20001 32953 43492 20025 32955 20050 32959 20075
32868 20125 32634 20150 32458 20200 32194 20250 31677 20500 30824
444 20130 11014 0300/ 34971 40500 521// 60401=
ZZYY 52001 11014 03001 101900 165100 6113/ 11119 00208 10290
29078 33311 88872 20025 32906 20050 32904 20075 32879 20100 32845
20125 32774 20150 32475 20200 31611 20250 31205 20300 31128 20500
30890 444 20130 11014 0300/ 34964 40500 521// 60401=
ZZYY 51007 11014 03001 705000 139900 6113/ 11119 00707 444 20130
11014 0300/ 521// 60401=
ZZYY 51306 11014 03001 502100 170000 6113/ 11119 00709 10272
22219 00281 33311 88872 20001 32813 43580 444 20130 11014 0300/
521// 60401=
ZZYY 52312 11014 03001 502000 179800 6113/ 11119 00706 10277 444
20130 11014 0300/ 521// 60401=
ZZYY 51018 11014 03001 505000 124800 6113/ 11119 01407 33311
88872 20020 32550 20060 32503 20080 32474 20100 32422 20120 31891
20140 31547 20180 31319 20300 31209 20500 30902 444 20130 11014
0300/ 34999 40500 521// 60401=
ZZYY 51006 11014 03001 708900 140200 6113/ 11119 00710 33311
88872 20040 31751 20080 31252 20100 31206 20140 31136 20180 31082
20500 30768 444 20130 11014 0300/ 34997 40500 521// 60401=
ZZYY 51301 11014 03001 707900 155000 6113/ 11119 00607 10275
29079 22219 00281 33311 88872 20001 32812 43467 20025 32803 20050
32802 20075 32536 20100 32018 20125 31496 20150 31204 20200 31079
20250 31026 20300 30977 20500 30811 444 20130 11014 0300/ 35008
40500 521// 60401=
ZZYY 51010 11014 03001 500000 170000 6113/ 11119 00809 40054
22219 00273 33311 88872 20001 32729 43560 20005 32727 43289 20010
32728 43569 20025 32718 43570 20125 32476 43557 20150 32074 20200
31412 20250 31263 20300 31101 20500 30835 444 20130 11014 0300/
34974 40500 521// 60401=
ZZYY 51308 11014 03001 507900 124900 6113/ 11119 22219 00264
33311 88872 20001 32636 43468 20020 32618 20040 32616 20060 32615
20080 32603 20100 32585 20140 32265 20300 31046 20500 30795 444
20130 11014 0300/ 35013 40500 521// 60401=
ZZYY 51020 11014 03001 704900 154900 6113/ 11119 00906 10278
22219 00282 33311 88872 20001 32820 43506 20025 32805 20075 32767
20100 32760 20125 32623 20150 32249 20200 31328 20250 31037 20300
30972 20500 30823 444 20130 11014 0300/ 34924 40500 521// 60401=
ZZYY 51310 11014 03001 508000 169900 6113/ 11119 10287 33311
88872 20025 32937 20050 32935 20075 32969 20100 32787 20125 32650
20200 32154 20250 31733 20300 31258 20500 30786 444 20130 11014
0300/ 35012 40500 521// 60401=
ZZYY 51023 11014 03001 700000 154900 6113/ 11119 01007 10255
22219 00255 33311 88872 20001 32545 43521 20025 32536 20050 32526
20075 32509 20100 32467 20125 32361 20150 32085 20200 31490 20250
31330 20300 31235 20500 30815 444 20130 11014 0300/ 34915 40500
521// 60401=
ZZYY 52003 11014 03001 105100 164900 6113/ 11119 00408 10291
29089 22219 00294 33311 88872 20001 32940 43399 20025 32940 20050
32938 20075 32954 20100 32686 20125 32446 20150 32071 20200 31366
20250 31050 20300 30961 20500 30794 444 20130 11014 0300/ 35022
40500 521// 60401=
ZZYY 32316 11014 03001 702000 110000 6113/ 11119 10230 22219
00253 33311 88872 20001 32529 43394 444 20130 11014 0300/ 521//
60401=
ZZYY 52006 11014 03001 108000 165100 6113/ 11119 00408 10283
29089 22219 00290 33311 88872 20001 32899 43409 20025 32897 20050
32896 20075 32893 20100 32771 20125 32540 20150 32224 20200 31392
20250 31076 20300 31008 20500 30812 444 20130 11014 0300/ 35011
40500 521// 60401=
ZZYY 51014 11014 03001 505000 139900 6113/ 11119 10265 444 20130
11014 0300/ 521// 60401=
ZZYY 51019 11014 03001 504900 154900 6113/ 11119 00805 22219
00274 33311 88872 20001 32736 43552 20025 32724 20050 32720 20075
32719 20100 32719 20125 32719 20150 32546 20200 31695 20250 31211
20300 31072 20500 30828 444 20130 11014 0300/ 34952 40500 521//
60401=
0000012200
612
SMPK40 OPKC 110000 RRA
AAXX 11004
41697 02996 00000 10078 20058 30019 40183 60002 333
      58001 60007=
0000135700
613
SIPK40 OPKC 110300
AAXX 11034
41506 22997 03618 10040 21147 48569 333
      21015 58035 60007 70000=
41508 22697 10000 11031 21030 48560 81400 333
      21017 56900 58023 60007 70000 81635=
41523 22997 00000 10040 20003 48524 333
      20015 58012 60007 70000=
41535 22997 00000 11010 21036 48485 333
      21030 58007 60007 70000=
41536 22997 00000 11005 21019 48504 333
      21013 58026 60007 70005=
41573 22997 03610 10025 21077 48508 333
      21020 58026 60007 70025=
41600 21994 00000 10030 20017 39885 40197 71000 333
      20028 58020 60007 70000=
41630 21995 00000 10030 20017 40212 71000 333
      20020 58017 60007 70000=
41678 21994 00000 10040 20028 40216 71000 333
      20035 58024 60007 70000=
41696 22997 00000 11090 21152 38026 48574 333
      21120 58018 60007 70000=
41697 22997 00000 10111 20015 30033 40195 333
      20070 58001 60007 70000=
41700 21993 10000 10035 20022 30057 40194 74240 80001 333
      20033 56009 58020 60007 70000 81070=
41725 22996 00000 10055 20031 30106 40189 333
      20040 58012 60007 70000=
41746 22996 00000 10045 20020 30142 40199 333
      20040 58014 60007 70000=
41759 22996 73602 10125 20006 30200 40206 87030 333
      20090 56090 58010 60007 70000 87360=
41785 22997 40502 10085 20011 30172 40186 80001 333
      20060 56009 58014 60007 70000 84070=
0000090800
614
SIPK21 OPKC 110300
AAXX 11034
41515 22997 00914 10032 21166 48561 333
      21042 58029 60007 70000=
41560 22697 30503 11050 21125 38266 48506 82430 333
      21110 59001 60007 70000=
41571 21994 00000 10025 20013 39628 40246 71000 333
      20015 58023 60007 70000=
41594 31994 00000 10030 21012 39975 40206 70500 333
      20015 58017=
41685 32997 23102 10040 21140 38954 48518 82020 333
      21005 56090 58031 70000 82460=
41710 22997 43602 10005 21097 39449 40275 82302 333 
      21003 56099 58008 60007 70000 82360 82070=
41718 21995 00000 10015 20001 30103 40215 71000 333
      20010 58035 60007 70000=
41739 22997 03608 11005 21069 39104 48524 333
      21015 58011 60007 70000=
41744 22996 00000 10035 21003 38787 48500 333
      20000 58006 60007 70000=
41749 21995 53603 10060 20036 30178 40211 71000 82031 333
      20050 56099 58026 60007 70000 82360 83070=
0000119800
615
SIPK20 OPKC 110300
AAXX 11034
41529 22997 00000 10039 20014 39830 40231 333
      20016 58007 60007 70000=
41598 21995 00000 10035 21006 39912 40199 70400 333
      20018 58013 60007 70000=
41620 32997 01305 11025 21057 38/// 48/// 333
      21035 58/// 70000=
41624 22997 03106 10060 20023 39993 40203 333
      20040 58024 60007 70000=
41640 21995 00000 10075 20040 39937 40198 70500 333
      20040 58004 60007 70000=
41660 21995 31304 11080 21100 38474 48558 71000 81031 333
      21095 56099 58018 69907 79999 81362=
41675 21995 00000 10050 20025 30059 40203 71000 333
      20028 58025 60007 70000=
41712 22997 00502 10000 21028 39278 48535 333
      21010 58007 60007 70000=
41715 21995 20000 10070 20035 30153 40222 70400 80001 333
      20050 56009 58029 60007 70000 82070=
41756 21996 00504 10130 20013 30138 40205 70500 333
      20070 58016 60007 70000=
41764 32996 43608 10090 20018 30154 40208 60001 83030 333
      20070 56090 58031 60007 70000 84360=
41768 22996 40000 10050 20025 30197 40204 80001 333
      20027 56009 58027 60007 70000 84070=
41780 22996 40000 10090 21014 30179 40208 80001 333
      20075 56009 58028 60007 70000 84070=
00000000