0000008900
960
SAIN33 VOMM 111140
METAR VOMM 111140Z 08006KT 8000 NSC 27/19 Q1012 NOSIG=
0000009200
961
SAIN90 VEBS 111130
METAR VEBS 111130Z 15007KT 2500 HZ NSC 27/16 Q1014 NOSIG=
0000051800
962
FCIN90 VAAH 111200
TAF VAAH 111200Z 1115/1124 02006KT 3500 FU/HZ FEW100=
TAF VABO 111200Z 1115/1124 02006KT 4000 FU/HZ FEW100=
TAF VASU 111200Z 1115/1124 03004KT 4000 FU/HZ FEW100=
TAF VARK 111200Z 1115/1124 04006KT 4000 FU/HZ NSC=
TAF VAJM 111200Z 1115/1124 36004KT 4000 FU/HZ NSC=
TAF VABV 111200Z 1115/1124 01006KT 4000 FU/HZ NSC=
TAF VABJ 111200Z 1115/1124 01006KT 4000 FU/HZ FEW100=
TAF VADU 111200Z 1115/1124 34008KT 4000 HZ NSC=
TAF VAPR 111200Z 1115/1124 02010KT 4000 HZ NSC=

0000011500
963
SMCN33 CWAO 110000 RRF
AAXX 11004
71399 15/// ///// 11093 21104 60001
333 11077 21149 70000=

0000005200
964
RRIN23 VECC 110051
RQRPT 899-940=

0000044000
965
SMIN02 DEMS 110000 RRA
AAXX 11004
42492 21492 80907 10130 20126 40161 79596 84920
  333 58011 6001/ 84618 81930 88458=
42587 21993 80000 10150 20143 40140 71000 83530
  333 58000 6994/ 83620 84360=
42591 21494 80506 10150 20150 40144 79599 8592/
  333 59008 6024/ 81710 84617 81930 88458=
42701 31994 00000 10116 20093 39403 40156 71000
  333 58003=
42798 31994 00000 10122 20114 40150 71000
  333 59001=
0000013800
966
SMIN40 DEMS 110000 RRA
AAXX 11004
42498 21494 80000 10154 20136 40149 71061 8432/
  333 58009 6992/ 84618 81930 88458=
0000010800
967
SMIN44 DEMS 110000 RRA
AAXX 11004
42500 31994 00000 10114 20110 40166 71000
  333 58006=
0000013800
968
SMIN51 DEMS 110000 RRA
AAXX 11004
42492 21492 80907 10130 20126 40161 79596 84920
  333 58011 6001/ 84618 81930 88458=
0000011500
969
SMCN28 CWAO 110000 RRC
AAXX 11004
71848 15/// ///// 11044 21096 60001
333 10004 21050 70000=

0000011500
970
SMCN34 CWAO 110000 RRE
AAXX 11004
71495 15/// /3203 11069 21105 60001
333 11009 21073 70000=

0000011500
971
SMCN37 CWAO 110000 RRD
AAXX 11004
71793 15/// ///// 11077 21081 60001
333 11061 21157 70000=

0000024100
972
SMCN35 CWAO 110000 RRC
AAXX 11004
71565 15/// /2604 11034 21046 60001
333 10001 21197 70000=
71566 15/// /2103 11033 21059 60001
333 10010 21089 70010=
71567 15/// /2105 11104 21110 60001
333 11055 21154 70004=

0000027500
973
SXHW11 KWAL 110052
15D142A4 011005202":PRS 1 #1 1497 1515 1502 1497 1508 1491 1514 1523 1503 1515 :RAD 1 #1 7077 7087 7081 7080 7085 7085 7093 7096 7087 7094 :ENC 2 #5 4990 5001 5001 5010 :SW1 52 #60 0 :SW2 22 #60 0 :BAT 4 #5 13.8 :NAME 15D142A4  34+0NN 216W
0000033600
974
USOS01 LOWM 110000
TTAA 11001 11035
99996 02018 22502 00171 ///// ///// 92806 02857 29009
85483 03339 29010 70009 07587 28518 50557 19977 29518
40719 31977 30022 30915 49160 30022 25032 57556 29532
20170 64558 30035 15350 59976 29027 10601 60176 31030
88202 64958 30036
77202 30036 40310
31313 48008 82336=
0000068500
975
UDEU02 EGRR 110053
AMDAR 1100
UNS EU0204   5538N 03750E 110044 F063 MS062 248/028 TB/ S031=
UNS EU0204   5537N 03748E 110044 F060 MS055 248/027 TB/ S031=
DES EU0204   5535N 03747E 110045 F057 MS047 243/028 TB/ S031=
DES EU0204   5534N 03747E 110045 F054 MS042 246/027 TB/ S031=
DES EU0204   5533N 03746E 110045 F050 MS037 248/026 TB/ S031=
DES EU0204   5533N 03746E 110045 F047 MS030 251/026 TB/ S031=
DES EU0204   5532N 03745E 110046 F044 MS027 251/022 TB/ S031=
DES EU0204   5532N 03745E 110046 F041 MS022 253/026 TB/ S031=
UNS EU0204   5531N 03744E 110046 F038 MS020 246/027 TB/ S031=
UNS EU0204   5530N 03745E 110046 F035 MS012 247/025 TB/ S031=
0000003900
976
SMVC13 RUMS 110000
NIL=
0000003900
977
SMVD13 RUMS 110000
NIL=
0000003900
978
SMVE13 RUMS 110000
NIL=
0000030000
979
SMAA01 LIIB 110000
AAXX 11004
89646 46/// /0413 11157 29087 37660 4//// 5////=
89648 46/// /1808 11233 29079 37239 4//// 5////=
89659 46/// /3008 11182 29067 37751 4//// 5////=
89661 46/// /2312 11039 29091 39343 4//// 5////=
89666 46/// /1305 11033 29089 39808 4//// 5////=
00000000