0000115500
776
GHCA50 KWBC 110000
GRID 07003 10101
111 10200 25099 61401 71100 01199
333 11512 23020
0119 000000 581582583584585586587588588589589590590590590589588586583
0219 000010 573574575576578579580582582582582584585585585586586584581
0319 000020 565567566568568568569569569570571570571571573575578579580
0419 000030 561561562561560560558558556554552548547547547550560568573
0519 000040 558556553551550548546542537532527526524524526530538549558
0619 000050 553550544539537533528521517512509509509506505509515523535
0719 000060 547545541537527515506500496498499500504503501504506507511
0819 000070 539538536531521512507503503503501500506508508507506506506
0919 000080 532532530525519513511509509510512513511508505506508510511
1019 000090 522524523521517515515515516518519520518517516517518519519
1119 000100 505512517517517518519520523526528530532532533532531530528
1219 000110 511512514515516517518520522524525527528529529529528526524
1319 000120 512512513514514515515516516516515515514513512513514514514
1419 000130 510509508508508508508508508508508508508508508508508508508
9901 000140 518
555 07003 10101
777
0000011000
777
UANT01 CWAO 110333
ARP AFR347 4847N04116W 0333 F380 MS53 285/37 KT
FGLZS QXT AOW 110333 J34A
0000011000
778
UANT01 CWAO 110333
ARP BAW20R 5505N04243W 0333 F350 MS60 310/28 KT
GVIIJ QXT AOW 110333 F07A
0000003800
779
SIKZ31 UAAA 110300
NIL
0000024100
780
SILY40 EUMS 110300 RRA
AAXX 11034
62140 46/// /0000 10065 20018 3//// 4//// 5////=
62210 NIL=
62176 NIL=
62225 46/// /0703 10083 2//// 39730 40295 58003=
62121 NIL=
62145 46/// /1502 10067 20024 30208 40254 58001=
0000010800
781
UANT99 KDDL 110332
ARP THT8 5821N03250W 0332 F380 MS55 228/34 KT
FOJGF QXT AOW 110333 J51A
0000009000
782
SAIR31 OIII 110330 RRB
METAR OIKB 110330Z 02006KT CAVOK 12/07 Q1022 A3018=
0000011100
783
UANT99 KDDL 110333
ARP UAL946 4807N03928W 0333 F360 MS51 311/19 KT
N659UA DDL XXW 110333 F39A
0000373600
784
SICI01 KWBC 110300 RRD
AAXX 11031
50434 32972 00000 11349 21383 40365 52002=
50527 32970 53202 11305 21336 40360 52023 85///=
50603 32980 03603 11178 21239 40345 52035=
50632 32980 62903 11207 21252 40287 52004 86///=
50727 41538 62904 11197 21239 40296 52003 77077 86///=
50915 42966 02905 11146 21221 40335 52007=
51716 32959 11101 11133 21154 40480 52012 81///=
51765 32980 03401 11137 21192 40495 52011=
51777 32970 20000 11098 21174 40481 52008 82///=
51811 32958 70000 11126 21147 40468 52011 87///=
51828 32962 70000 11088 21103 40452 52010 87///=
52267 42980 02904 11098 21209 40446 52031=
52323 32980 02707 11133 21201 38344 52019=
52495 42980 02708 11084 21215 40429 52018=
53149 42680 72908 11117 21244 40384 52023 87///=
53192 32967 22502 11135 21248 40380 52006 82///=
53231 42980 02705 11131 21228 38575 52022=
53336 32980 62906 11094 21224 40405 52021 86///=
53391 42967 12706 11104 21220 40357 52003 81///=
53529 42966 52704 11067 21222 40395 52020 85///=
53543 42980 03203 11073 21231 40373 52015=
53723 32969 02504 11052 21222 40392 52014=
54012 42980 02706 11143 21225 40336 52009=
54026 32975 12703 11071 21229 40286 52002 81///=
54027 32975 00202 11086 21204 40291 57004=
54208 42480 72706 11089 21219 40341 57001 87///=
54776 41943 73203 10033 21067 40331 57004 70500 87///=
56004 32980 72904 11156 21253 35812 52015 87///=
56033 32680 72201 11168 21225 36007 52016 87///=
56046 32980 70000 11096 21146 36251 52016 87///=
56196 31956 83601 10065 20031 40325 52017 71000 88///=
56287 31955 72501 10074 20019 40327 52019 72160 87///=
56684 31558 70405 11003 21038 37859 52012 71000 87///=
56751 32780 11404 10139 21017 38055 52022 81///=
56786 32576 02204 10137 20020 38136 52010=
56977 31561 40000 10172 20137 40216 52016 70040 84///=
57259 41461 80000 10021 20021 40353 52009 77070 88///=
57279 31957 83402 10049 20008 40343 52012 70500 88///=
57348 32761 71601 10083 20019 40320 52015 87///=
57399 41957 81602 10041 20029 40315 52004 72160 88///=
57554 31858 82201 10042 20014 40339 52014 71000 88///=
57793 41740 82701 10057 20050 40309 52010 76066 88///=
58345 41421 80703 10047 20032 40321 52004 76066 88///=
58506 41902 00401 10005 20005 40311 52009 76074=
58813 31957 80203 10103 20053 40281 52008 70500 88///=
58834 32960 70902 10127 20058 40286 57001 87///=
58926 32768 71801 10148 20064 40282 57001 87///=
58944 32564 73606 10131 20078 40272 57001 87///=
59096 32865 61602 10142 20077 40262 57008 86///=
59102 32974 01401 10154 20086 40261 57007=
59278 31757 70000 10155 20073 40260 52005 70500 87///=
59456 31857 70201 10166 20117 40246 52015 70500 87///=
59493 31957 00201 10186 20099 40253 54000 70500=
59658 31458 80905 10175 20130 40239 52012 70500 88///=
59673 32566 20405 10169 20122 40246 52002 82///=
59845 32570 51103 10225 20172 40225 52010 85///=
55299 32880 72501 11114 21289 35842 52013 87///=
55591 42957 70401 11001 21193 36513 52017 87///=
56739 32980 03401 10076 20036 38360 52020=
56964 32580 12201 10167 20120 40215 52017 81///=
57328 31932 80401 10069 20012 40316 52016 70500 88///=
57411 31950 50201 10077 20052 40319 52017 71000 85///=
57447 31962 80000 10050 20035 40326 52014 76066 88///=
57662 41858 83603 10032 20026 40336 52012 72166 88///=
57745 32761 80702 10042 20024 40334 52019 88///=
57972 31450 83401 10061 20043 40312 52015 76060 88///=
58203 31938 70902 10051 21003 40330 52003 70500 87///=
58314 41958 80000 10056 20010 40329 52004 76066 88///=
59023 41420 83202 10078 20074 40290 52025 76066 88///=
59417 31456 82701 10130 20109 40249 52020 76000 88///=
59985 41576 70405 10252 20213 40200 52011 72580 87///=
0000157200
785
SICU01 KWBC 110300 RRA
AAXX 11031
78310 32501 30401 10233 20228 30166 40176 51014 83200 333 30///
56900 83820 92012=
78315 32964 00000 10216 20211 30107 40172 51013 333 30/// 56000=
78318 32556 10000 10215 20196 30172 40176 51014 81200 333 32///
56900 81820=
78324 32400 40000 10242 20228 30165 40176 52016 84200 333 30///
56200 84817 555 10903=
78325 31930 01201 10239 20229 30124 40182 51013 70400 333 30///
56000=
78328 31460 41704 10246 20235 30180 40/// 53020 71000 84200 333
30/// 56400 84817 555 11803=
78333 32/10 13503 10226 20214 30172 40179 53015 81130 333 30///
56990 818//=
78344 32950 00604 10235 20215 30128 40176 51013 333 30/// 56000=
78345 32565 10201 10222 20200 30180 40183 52017 81502 333 30///
56909 81623=
78348 31456 30906 10247 20219 30129 40181 51015 70500 83800 333
30/// 56300 57844 82819 555 11203=
78349 32950 00901 10229 20200 30082 40191 52018 333 30/// 56///=
78351 32550 10902 10226 20209 30170 40172 52016 81500 333 30///
56900 81626=
78353 32550 10706 10257 20216 30166 40188 51011 81800 333 30///
56900 81820=
78355 32560 10703 10216 20202 30048 40189 51012 81200 333 30///
56900 81820=
78358 32930 01102 10244 20211 30164 40179 52013 333 30///=
78360 32/60 10903 10267 20210 30163 40174 51014 81800 333 30///
56900 818//=
78363 32956 00201 10227 20191 30050 40164 52018 70200 333 30///=
78365 32/50 20909 10264 20212 30179 40183 51009 82200 333 30///
56900 57866 828//=
78369 32464 10709 10264 20212 30168 40177 51008 81200 333 30///
56900 57860 81818=
0000096700
786
SICI01 KWBC 110300 RRE
AAXX 11031
56951 32980 00000 10122 20042 38556 52014=
58424 41355 80404 10028 20021 40317 52007 78065 88///=
51711 32980 02502 11128 21213 38107 52012=
51730 31940 02201 11155 21174 40501 52013 71000=
52737 32976 10702 11108 21224 37122 52016 81///=
53352 42963 72706 11095 21231 40387 52013 87///=
53593 32935 03601 11086 21227 40369 57004=
53705 32958 02904 11038 21205 40416 52013=
53975 41937 01101 11010 21105 40347 52005 70500=
54273 32956 02202 11099 21193 40302 57012=
54324 32965 71603 11072 21215 40308 57015 87///=
54405 41959 02002 11046 21212 40342 57005 70500=
54436 31757 21102 11042 21196 40317 57016 70500 82///=
54808 41920 72003 10032 21032 40330 57001 70500 87///=
54863 31922 62201 10027 21041 40333 57006 70500 86///=
56018 32980 71102 11074 21170 36173 52025 87///=
56021 32980 72901 11107 21249 36065 52014 87///=
57071 31956 72501 10031 21053 40340 52001 70500 87///=
0000145800
787
SIKR01 KWBC 110300
AAXX 11031
47003 42980 00000 11010 21141 30259 40263 58013=
47014 42950 00000 11158 21185 39876 40312 54000=
47016 42960 00000 11155 21197 39408 40327 58021=
47022 42975 03404 11096 21181 38848 58021=
47025 42975 02301 10001 21174 30238 40268 53005=
47028 42968 00000 11059 21091 30217 40317 57001=
47035 42970 00000 11068 21100 30318 40328 57006=
47037 42967 00000 11052 21116 30200 40328 52005=
47046 42969 02302 11020 21115 30260 40283 57015=
47055 42970 02305 10012 21149 30250 40297 58016=
47058 41959 00000 11025 21085 30277 40326 58005 71000=
47060 41950 20902 11016 21072 30266 40327 52002 71010 80001=
47061 42980 03201 10027 21111 30240 40285 57010=
47067 42965 00000 11034 21070 30234 40360 52008=
47070 42970 60000 11011 21054 30245 40336 58003 80002=
47075 42980 02503 11036 21111 30007 40457 57006=
47005 42980 02303 11133 21176 38630 54000=
47008 42970 01401 11006 21110 30208 40264 54000=
47020 42965 00000 11146 21173 39955 40366 53001=
47031 42970 00000 11128 21200 38966 58007=
47039 41956 00000 11100 21128 30143 40348 57009 71000=
47041 42970 00000 11028 21094 30258 40286 57007=
47050 42965 00000 11059 21107 30277 40313 57002=
47052 42965 22702 11040 21128 39950 40303 57048 80002=
47065 42970 00000 11002 21072 30276 40343 52010=
47068 42970 80000 11001 21082 30189 40325 58011 80001=
47069 41956 82301 10000 21090 30238 40341 52007 71021 80002=
0000011100
788
UANT99 KDDL 110333
ARP DAL130 4734N02523W 0333 F340 MS58 221/59 KT
N171DZ QXT AOE 110333 F40A
0000095700
789
SICO01 KWBC 110300
AAXX 11031
80009 31560 00203 10282 20175 30081 40086 70500 80000 333 56///
58000=
80022 31966 00402 10264 20226 30105 40107 70500 333 58006=
80210 31460 51103 10196 20158 38667 70522 82578 333 56339 59009
82616 83358=
80001 32470 10807 10272 20231 30132 40133 81200 333 56399 59013
81818=
80028 31960 00506 10258 20233 30071 40106 70500 333 59001=
80094 31464 40000 10202 20186 38808 70511 82831 333 56999 59005
82815=
80112 21356 80000 10154 20141 37906 74052 83481 333 56000 58003
69927 83608 84358=
80211 31570 50000 10202 20182 70522 84270 333 5688/ 84823 83359=
80222 31457 70101 10116 20105 37520 70522 85805 333 568/9 59011
85815=
80259 31560 70402 10222 20190 39054 70522 82870 333 5614/ 59008
82820 86459=
80315 32665 70000 10252 20234 39585 40083 81150 333 5608/ 59010
81835 87361=
80398 21460 80000 10246 20242 30023 40118 70252 8557/ 333 5699/
59002 69917 85610 86358=
0000011000
790
UANT99 KDDL 110333
ARP BAW45B 5300N01608W 0333 F380 MS54 228/50 KT
GBNLK QXT AOE 110333 F49A
0000010800
791
UANT99 KDDL 110333
ARP VIR4 5235N03235W 0333 F390 MS54 204/45 KT
GVNAP DDL XXW 110333 J34A
0000067100
792
SXXX32 EUMS 110325 RRX
366C76AC
OT12 ID:IR-CHAB-07 DT:2014 01 11 03 24
:RAD /1 01827 01824 01820 01792 01794 01791 01814 01790 01803 01798 01795 01801 01785 01791 01788 01790 01810 01787 01791 01780 01771 01767 01773 01763 01768 01764 01754 01757 01758 01739
:PR1 /1 02306 02307 02284 02275 02277 02266 02270 02260 02276 02276 02275 02266 02266 02268 02268 02280 02272 02266 02262 02248 02246 02251 02248 02253 02246 02251 02237 02226 02229 02221
:PR2 /1 01854 01840 01827 01810 01809 01799 01823 01825 01825 01806 01822 01809 01811 01820 01810 01804 01811 01803 01800 01796 01799 01789 01792 01793 01788 01779 01771 01772 01758 01762
:BAT 13.1V
0000099500
793
SSVX01 DEMS 110335
ZZYY 23492 10014 23491 110873 072210 111// 02604 10269 40110 222// 00282 1////=
ZZYY 23491 11014 02461 111592 092603 111// 00904 10/// 40142 222// 00279 1////=
ZZYY 23098 11014 02491 114291 080206 111// 0//02 10240 40163 222// 00249 11404=
ZZYY 23494 11014 02531 108526 073100 111// 00404 10283 40134 222// 00278 10602=
ZZYY 23453 11014 03001 108274 073313 111// 00104 10282 40136 222// 00/// 106//=
ZZYY 23454 11014 03001 110330 072185 111// 00107 10284 40139 222// 00/// 1////=
ZZYY 23091 11014 03001 118152 089672 111// 01101 10237 40171 222// 00/// 10601=
ZZYY 23092 11014 03001 117846 089679 111// 0//02 10240 40171 222// 00/// 1////=
ZZYY 23093 11014 03001 116500 087992 111// 00803 10/// 40171 222// 00/// 1////=
ZZYY 23094 11014 03001 113492 084019 111// 007// 10/// 40166 222// 00/// 10502=
ZZYY 23095 11014 03001 110518 093983 111// 00707 10276 40146 222// 00/// 1////=
ZZYY 23460 11014 03001 107009 087974 111// 00605 10268 40132 222// 00/// 10604=

0000009500
794
SAIN90 VEGT 110330
METAR VEGT 110330Z 00000KT 1800 BR SCT100 16/13 Q1019 NOSIG=
0000047900
795
SIVD19 KWNB 110300 RRD
BBXX
46126 11031 99540 71666 46/// /2304 10044 49837 90306 22200 00046
1//00 70001 333 91206 555 11048 22052=
46126 11031 99540 71666 46/// /2304 10044 49837 90310 22200 00046
1//00 70001 333 91206 555 11048 22052=
46126 11031 99540 71666 46/// /2404 10044 49837 90312 22200 00046
1//00 70001 333 91207 555 11048 22052=
46126 11031 99540 71666 46/// /2404 10046 49837 90315 22200 00045
1//00 70001 333 91207 555 11048 22052=
00000000