0000163300
292
SNDL47 EDZW 110200
AAXX 11021
10454 45986 72302 10049 20006 39873 40166 56004
  333 55300 83/67 85/69 87/73=
10458 45980 82304 10022 20012 39673 40168 57001
  333 55300 20000 30000 87/66 88/68 88/72=
10460 45973 82205 10031 20013 39973 40178 55001
  333 55300 20000 30000 88/67=
10466 46/61 /1902 10032 20011 30057 40176 53001
  333 55300 20000 30000=
10471 45983 82202 10031 20009 30007 40178 52001
  333 55300 20000 30000 40974 86/67 88/76 88/80=
10474 45580 82402 10035 20015 30039 40170 53004
  333 55300 20000 30000 83/30 88/67 88/69=
10476 NIL=
10480 45980 72405 10030 20010 39987 40174 53002
  333 55300 20000 30000 84/74 85/77 87/80=
10490 45681 82204 10043 20013 30052 40173 53004
  333 55300 20000 30000 88/49=
10495 45783 82405 10042 20010 30028 40172 53003
  333 55300 82/50 86/79 88/80=
10500 NIL=
10502 NIL=
10516 NIL=
10519 45967 01602 10017 20004 39977 40177 57006
  333 55300=
10520 47957 03001 11001 21001 30086 40182 58005 71000
  333 553//=
10526 47256 72003 10008 20006 39519 40184 56006 71000
  333 55300 20000 30000 87/04=
10534 47000 12105 10001 20001 39295 40190 56006 73030
  333 55300 81/00=
10537 47956 71605 10009 20009 39754 40188 56007 71000
  333 55300 87/80 87/80=
10540 45980 82404 10032 20009 39798 40183 55002
  333 55300 20000 30000 88/66=
10542 45962 52101 10016 20004 39851 40186 55004
  333 55300 20000 30000 82/71 85/74=
10552 47041 72405 11007 21007 39070 48455 55003 72030
  333 55300 85/00 86/07 87/66=
10557 42682 72506 10000 21006 39170 48455 55004 81236
  333 55300 20000 30000 81840 85271=
0000194500
293
SNDL48 EDZW 110200
AAXX 11021
10564 45972 82303 10016 20002 39580 40191 55003
  333 55300 87/68 88/70=
10565 45960 72101 10033 20004 39879 40182 55000
  333 55300 87/67 87/69=
10569 45959 62103 10003 21003 39718 40198 58001
  333 55300 20000 30000 82/71 86/73=
10574 45278 72603 11009 21016 39124 48461 58001
  333 55300 84/04 87/71 87/74=
10577 45969 02205 10011 21001 39675 40190 58001
  333 55300 20000 30000=
10579 45/79 /2403 10007 21013 39419 40194 54000
  333 55300=
10582 45480 82603 11005 21013 39136 48455 53002
  333 55300 20000 30000 82/16 88/22=
10591 45583 32003 10031 21007 39797 40189 53006
  333 55300 83/26=
10613 NIL=
10615 45971 02601 10019 20012 39596 40182 58010
  333 55300 20000 30000=
10618 NIL=
10628 45977 03402 10000 21007 30053 40193 58005
  333 55300=
10635 47/01 /2305 10006 20006 39197 48455 57003 73030
  333 55300 20000 30000=
10646 47002 70401 11021 21021 39778 40204 56005 73530
  333 4/001 55300 86/00 87/80=
10648 45982 01802 10016 20007 39639 40195 56005
  333 55300 20000 30000=
10658 47004 32102 11009 21009 39847 40199 56004 73530
  333 55300 83/00=
10671 47456 70601 11005 21009 39775 40204 55001 71000
  333 55300 20000 30000 85/10 86/14 87/69=
10686 47350 72004 10008 20002 39443 40198 56003 71000
  333 55300 85/07 86/68 87/71=
10704 47921 01102 10013 20012 39740 40187 57009 71000
  333 55300 20000 30000=
10706 47942 00702 10012 20012 39715 40191 58008 72030
  333 55300=
10724 45960 11706 10032 20010 39512 40185 58009
  333 55300 20000 30000 81/81=
10733 47/14 /0802 11011 21011 39900 40201 58006 72030
  333 55300 20000 30000=
10736 45962 20701 11032 21035 39897 40205 58007
  333 4/001 55300 82/69=
10739 45960 01502 10007 21001 39808 40202 58007
  333 55300 20000 30000 40883=
10743 NIL=
10747 47957 70000 11032 21032 39602 40211 55006 71000
  333 4/001 55300 20000 30000 87/80=
0000161000
294
SNDL49 EDZW 110200
AAXX 11021
10756 47902 00201 11027 21028 39621 40213 58005 73530
  333 55300 20000 30000=
10761 46960 00000 11023 21029 39689 40217 57005
  333 55300 20000=
10765 46/// /1601 11023 21023 39721 40214 58004=
10771 NIL=
10777 47950 12102 10007 20007 39554 40210 58005 72030
  333 55300 81/82=
10782 47556 80301 10006 20003 39599 40211 55003 71000
  333 55300 20000 30000 88/31=
10796 47003 72401 11016 21016 39466 40221 55002 73530
  333 4/002 55300 83/00 86/14 87/79=
10803 47963 00000 10002 21002 39901 40198 56008 72030
  333 55300 20000 30000=
10818 45981 51905 10036 20025 39050 48481 57005
  333 4/001 55300 20000 30000 85/76 85/78 85/80=
10827 46/// /2302 10009 20005 39098 48476 57004
  333 55300 20000 30000=
10837 NIL=
10838 46960 03401 11006 21011 39513 40212 58006
  333 55300=
10850 47001 61403 11018 21018 39595 40217 58004 73530
  333 55300 85/00 86/70=
10853 NIL=
10856 NIL=
10857 NIL=
10860 NIL=
10863 47950 02901 11020 21022 39627 40221 58007 71000
  333 55300 20000 30000 40919=
10865 45880 40000 10006 21002 39570 40213 56006
  333 55300 84/57=
10872 47943 01601 11026 21027 39781 40222 58006 71000
  333 55300=
10875 47705 30000 11026 21026 39716 40224 56007 73530
  333 55300 20000 30000 82/50 83/80=
10945 47902 51101 11011 21011 39396 40217 56005 73530
  333 55300 81/77 83/80 85/80=
10954 NIL=
10963 47850 72201 11001 21002 39352 40224 55001 71000
  333 4/002 55300 20000 30000 86/58 87/78=
10982 45965 70402 10010 20003 39539 40212 58008
  333 55300 20000 30000 87/58=
0000010800
295
UANT01 CWAO 110200
ARP VIR4 4836N05144W 0200 F390 MS63 320/54 KT
GVNAP DDL YQX 110200 J15A
0000011000
296
UANT01 CWAO 110201
ARP UAL58 5245N05532W 0201 F350 MS64 297/69 KT
N79011 DDL YQX 110201 F20A
0000011000
297
UANT01 CWAO 110201
ARP ACA874 4850N05137W 0201 F340 MS63 309/60 KT
CGHKR DDL YYT 110201 J23A
0000011000
298
UANT01 CWAO 110201
ARP ACA878 4657N05155W 0201 F330 MS61 318/49 KT
CFCAE DDL YYT 110201 F05A
0000011100
299
UANT01 CWAO 110201
ARP GEC8164 5913N04914W 0201 F340 MS60 262/40 KT
DALFB QXS UAK 110201 F26A
0000011800
300
SNVF25 LFPW 110200
BBXX
BATFR52 11024 99497 70005 46/// /2218 10077 20062 40160 58009
22283 04107=
0000011200
301
SNVF25 LFPW 110200
BBXX
BATFR21 11024 99428 10077 46/// /0411 10129 20084 40208 51003
22223=
0000015700
302
SSVX13 LFPW 110200
ZZYY 16592 11014 0200/ 346266 066474 6113/ 11119 40162 52004 22219
 00058 444 20130 11014 0159/ 50101 80118 80018 9/015=
0000011100
303
UANT01 CWAO 110201
ARP DAL186 4454N05137W 0201 F350 MS63 308/44 KT
N177DZ QXT AOW 110201 F81A
0000020800
304
ULIN90 VIDP 110000
TTCC 61001 42182
     70843 70970 27541 50046 64176 25023 30367 54982 25517 20627
     54182 19007 10076 49582 16518 88759 72170 28051 77999 31313
     48008 80003=

0000093300
305
UEIN90 VIDP 110000
TTDD 6100/ 42182
     11972 65372 22759 72170 33732 69971 44669 71570 55598 65173
     66535 67374 77463 59379 88341 57181 99321 59380 11306 54982
     22272 51583 33242 54981 44235 55381 55165 51982 66139 53581
     77101 49982 88091 42985 99080 40386 21212 11967 27569 22897
     27567 33840 26569 44765 28052 55714 28042 66641 24538 77560
     27021 88523 27034 99511 27027 11494 24525 22471 25530 33450
     21523 44408 23015 55394 20510 66384 22507 77375 22510 88360
     21017 99353 21516 11344 26014 22326 27517 33308 27021 44295
     24514 55288 19011 66247 15020 77243 15520 88233 20518 99217
     17514 11209 21013 22190 20004 33184 14010 44173 16510 55165
     12512 66134 14023 77129 12017 88123 16517 99108 19510 11104
     19013 22100 16517 33098 17020 44094 20015 55092 20010 66087
     00000 77084 09510 88081 13015 99080 13020 31313 48008 80003
    =

0000009000
306
UXIN90 VIJP 110000
PPBB 5100/ 42452
90000 04502 NO ASCENT DUE TO FOG=

0000009200
307
SAIN90 VOCI 110200
METAR VOCI 110200Z 00000KT 3000 HZ NSC 21/20 Q1014 NOSIG=
0000031100
308
UGIN90 VIDP 110000
PPBB 61008 42182 90/12 00000 34019 34527 90345 33018 32018 33519
     90789 32517 33012 01008 91023 33521 32020 32015 91456 30010
     31532 30044 9179/ 29046 29554 9209/ 29054 29091 9336/ 29137
     28617 94036 28640 28123 27626 948// 28116 9534/ 26578 27586
    =

0000008600
309
SAIN90 VABO 110200
METAR VABO 110200Z 06002KT 3000 HZ NSC 12/06 Q1012=
0000029200
310
USIN90 VAAH 110000
TTAA 61001 42647 99009 12056 31504 00128 10856 35511 92786 
13061 01016 85488 06257 01517 70087 08690 29028 50579 06980 
30045 40749 16370 30582 30959 32566 28077 25085 42965 27574 
20232 54366 27577 15410 69557 26581 10646 78956 27568 88999 
77389 30086= 

0000010900
311
UANT01 CWAO 110201
ARP AUA94 4745N05118W 0201 F350 MS64 320/60 KT
OELAW QXT AOW 110201 F20A
00000000