0000079300
699
SAEG32 HECA 110100
METAR HEAL 110100Z NIL=
METAR HEAR 110100Z 00000KT 9999 SCT025 10/10 Q1021 NOSIG=
METAR HEAX 110100Z 34005KT CAVOK 15/10 Q1023 NOSIG=
METAR HEMM 110100Z 24006KT 9999 FEW020 11/09 Q1024 NOSIG=
METAR HEPS 110100Z 29006KT 9999 FEW025 13/13 Q1022 NOSIG=
METAR HELX 110100Z 00000KT CAVOK 10/08 Q1022 NOSIG=
METAR HESN 110100Z 05003KT CAVOK 10/03 Q1022 NOSIG=
METAR HEGN 110100Z 30008KT CAVOK 13/08 Q1022 NOSIG=
METAR HESH 110100Z 33007KT CAVOK 15/05 Q1020 NOSIG=
METAR HEBA 110100Z 32004KT CAVOK 11/09 Q1024 NOSIG=
METAR HEMA 110100Z 31012KT CAVOK 15/02 Q1021 NOSIG=
METAR HETB 110100Z NIL=
METAR HESC 110100Z 30012KT 9999 SCT025 04/01 Q1023 NOSIG=
METAR HEBL 110100Z NIL=
METAR HEAT 110100Z 00000KT CAVOK 06/04 Q1024 NOSIG=
METAR HESG 110100Z NIL=
0000064800
700
SNBX43 EBUM 110100
AAXX 11011
06418 46/// /2207 10046 20027 30145 40157 57003 333   91110 91208=
06434 46/// /1904 10044 20025 30150 40171 58008 333   91106 91204=
06439 46/// /2204 10044 20019 30157 40171 58008 333   91107 91205=
06447 46/// /2205 10041 20020 30042 40169 58010 333   91109 91205=
06455 46/// /2102 10041 20029 39879 40167 58009 333   91104 91202=
06464 46/// /2102 10041 20041 30132 40160 58009 333   91106 91204=
06472 46/// ///// 10021 20021 39818 40185 58010=
06477 46/// /1101 11003 21008 30121 40172 58007 333   91102 91201=
06484 46/// /0901 11007 21007 39789 40194 58008 333   91102 91201=
0000015700
701
SSVX13 LFPW 102200
ZZYY 44763 10014 2200/ 756255 013331 6113/ 11119 40060 52007 22219
 00104 444 20130 10014 2100/ 50101 80138 80002 9/015=
0000011000
702
UANT01 CWAO 110033
ARP AAL44 4351N05042W 0033 F350 MS60 316/63 KT
N371AA DDL XXW 110033 F38A
0000011700
703
SAIN90 VOMM 110110
METAR VOMM 110110Z 26003KT 0800 R07/1100 R25/1300 MIFG SCT018 20/19
Q1014 NOSIG=
0000009100
704
SAIN90 VOGO 110100
METAR VOGO 110100Z 02008KT 6000 NSC 20/19 Q1012 NOSIG =

0000021900
705
SAIN34 VOMM 110100
METAR VOBL 110100Z 15007KT 3000 HZ BKN006 SCT012 21/20 Q1018 NOSIG=
METAR VOCL 110100Z 12003KT 6000 FEW018 23/21 Q1013 NOSIG=
METAR VOMD 110100Z 04003KT 3000 HZ FEW020 23/20 Q1015=
0000011200
706
UANT01 CWAO 110034
ARP FDX5279 5349N05103W 0034 F320 MS60 304/89 KT
N882FD QXT AME 110034 F59A
0000019800
707
SSVX08 KARS 110033
ZZYY 48400 10014 12004 750144 144847 6111/
11119 01126 10064 29092
22219 00091
33311 88872 20000 30912 20001 30906 43226
444 20110 10014 1218/ 521// 60401=
0000014600
708
SSVX12 KARS 110033
ZZYY 48520 11014 0030/ 775842 019442 6112/
11119 11274 40034 52006
444 20120 10014 2314/ 501// 80140 80000=
0000009500
709
SAIN90 VOTV 111140
METAR VOTV 111140Z 13004KT 5000 HZ FEW018 29/23 Q1010 NOSIG=
0000009900
710
SAIN31 VOMM 111140 RRB
METAR VOTV 111140Z 13004KT 5000 HZ FEW018 29/23 Q1010 NOSIG=
0000060200
711
SSVX07 KARS 110033
ZZYY 48731 11014 0030/ 774151 154962 6112/
11119 11218 40090
444 20120 11014 0024/ 504//=
ZZYY 48733 11014 0030/ 772972 152382 6113/
11119 11251 40085
444 20130 11014 0024/ 504//=
ZZYY 48508 11014 0030/ 772736 159228 6113/
11119 11255 40124
444 20130 11014 0024/ 504//=
ZZYY 48536 11014 0030/ 175230 148512 6111/
11119 11240
444 20110 11014 0007/ 504//=
ZZYY 48732 11014 0030/ 774530 131152 6112/
11119 11144 49949
444 20120 11014 0023/ 504//=
ZZYY 48507 11014 0030/ 773101 135178 6112/
11119 11351 40014
444 20120 11014 0024/ 504//=
0000104000
712
SNOS42 LOWM 110100
AAXX 11011
11008 36/// /0401 11025 21027 39487 40229 58004=
11015 36/// ///// 11040 21045 39555 40237 55005=
11020 36/// /0000 11033 21037 39602 40231 55002=
11021 36/// /2301 10004 21007 39536 40214 56006=
11032 36/// /0000 11012 21026 39957 40217 55002=
11078 36/// /2402 10016 21013 39380 40219 58002=
11129 36/// /2006 11007 21011 38648 48507 52003=
11135 NIL=
11138 36/// /0602 11009 21077 37674 47048 50000=
11141 36/// /0000 10012 20008 39562 40231 57002=
11144 36/// /2701 10019 20016 3//// 4//// 5////=
11154 36/// /2202 10013 21002 39694 40217 58004=
11170 36/// /3301 11018 21022 39486 40239 55004=
11174 NIL=
11182 36/// /2502 11024 21038 39874 40227 55003=
11192 36/// /3502 10028 20023 39887 40217 58008=
11194 36/// /2602 10024 21007 30025 40211 56004=
11213 36/// /2802 10002 21002 39629 40238 56003=
11225 36/// /2801 11009 21010 39375 40242 55003=
11241 36/// /2503 10016 21027 38557 48493 56006=
11261 36/// /2701 11001 21014 39266 40243 54000=
0000003800
713
SNVD20 EHDB 110100
NIL
0000063300
714
SAAO21 DRRN 110100
METAR DFOO 110100Z NIL=
METAR DGSI 110100Z NIL=
METAR DNAA 110100Z NIL=
METAR DNCA 110100Z NIL=
METAR DNEN 110100Z NIL=
METAR DNIB 110100Z NIL=
METAR DNIL 110100Z NIL=
METAR DNJO 110100Z NIL=
METAR DNKA 110100Z NIL=
METAR DNKT 110100Z NIL=
METAR DNMA 110100Z NIL=
METAR DNPO 110100Z NIL=
METAR DNSO 110100Z NIL=
METAR DNSU 110100Z NIL=
METAR DNYO 110100Z NIL=
METAR DRRM 110100Z NIL=
METAR DRRT 110100Z NIL=
METAR DRZA 110100Z NIL=
METAR DRZR 110100Z NIL=
METAR DXNG 110100Z NIL=
METAR DXSK 110100Z NIL=
METAR FTTA 110100Z NIL=
METAR FTTD 110100Z NIL=
METAR FTTY 110100Z NIL=
0000014600
715
SNVC20 EHDB 110100
BBXX
DDSD2 11014 99287 50728 41298 81829 10185 20140 40115 57005 70322
83770 22214 00187 20606 319// 40707=
0000003800
716
SNVE20 EHDB 110100
NIL
0000003800
717
SNVJ20 EHDB 110100
NIL
0000040200
718
SAAO33 DRRN 110100
METAR DBBB 110100Z 20006KT 6000 FEW012 BKN200 27/26 Q1010 NOSIG=
METAR DFFD 110100Z 10008KT 8000 NSC 24/02 Q1013 NOSIG=
METAR DGAA 110100Z 23006KT CAVOK 27/25 Q1011 NOSIG=
METAR DNKN 110100Z NIL=
METAR DNMM 110100Z NIL=
METAR DRRN 110100Z 09009KT 4000 DU NSC 21/M01 Q1014 NOSIG=
METAR DXXX 110100Z VRB03KT 8000 SCT012 27/26 Q1011 NOSIG=
METAR FTTJ 110100Z NIL=
00000000