0000012500
603
SAIN90 VIDP 110300
METAR VIDP 110300Z 25006KT 0050 R28/0300 R29/0250 FG VV/// 07/06
      Q1018 BECMG 0150=
0000009300
604
SAIN90 VEIM 110303
METAR VEIM 110300Z 08003KT 2500 HZ NSC  12/07 Q1021 NOSIG=
0000006400
605
UXIN90 VEGG 110200
PPAA 6102/ 42299 LOW CLOUD

0000016300
606
SSVX13 LFPW 110300
ZZYY 13593 11014 0300/ 738176 018491 6113/ 22219 00169 33300 88872
 20000 43613 444 20130 11014 0256/ 50101 80118 80026 9/015=
0000011000
607
UANT01 CWAO 110259
ARP JAI229 5340N05131W 0259 F370 MS65 293/75 KT
VTJWS QXS YAY 110259 J17A
0000011000
608
UANT01 CWAO 110259
ARP AAL42 4654N05142W 0259 F370 MS66 310/51 KT
N363AA DDL YYT 110259 F24A
0000013200
609
SIRM20 LUKK 110300
AAXX 11031
33815 42997 22905 10038 21024 39957 40167 52012 82030 333   55005 555   20034 7000/=
0000014000
610
SIDL21 EDZW 110300 RRA
AAXX 11031
10004 46/56 /2211 10080 20072 30095 40095 58007
222// 00079
  333 55300 91115 91212=
0000021100
611
SIDL22 EDZW 110300 RRA
AAXX 11031
10007 46/24 /2312 10069 20061 30103 40103 57009
222// 00071
  333 553// 91116 91213=
10439 42972 11802 10011 20002 39954 40180 57004 80001
  333 81072=
0000043400
612
SIHU42 HABP 110300
AAXX 11031
12815 46/// /1001 10009 21007 30064 40217 57002=
12824 42658 70000 10024 20021 30038 40220 56003 875// 333 87640=
12830 46/// /1601 10051 20007 39879 40227 57004=
12870 46/// /3103 10014 21013 39930 40213 50004=
12910 46/// /3101 10041 20037 39828 40214 57003=
12930 46/// /0000 10043 20037 30054 40217 57002=
12970 42758 62101 10000 21011 30084 40228 55000 86500 333 86656=
0000011400
613
SIMZ20 FQMA 110300
AAXX 11034
67215 42575   40105 10244  20232 40133   82231 333  58013
94320=
0000011000
614
UANT01 CWAO 110300
ARP AAL64 4716N03417W 0300 F350 MS48 217/45 KT
N388AA DDL XXW 110300 F58A
0000012000
615
SIGO20 FOOL 110300
AAXX 11034
64500 42460 81808 10268 20250 30087 40100 885//
333 58009 84610 88630=
0000009000
616
SIQT20 OTBD 110300
AAXX 11034
41174 46/// /1014 10169 20147 30134 40196=
0000009000
617
SIQT20 OTBD 110300
AAXX 11034
41164 46/// /1611 10165 20152 30173 40194=
0000046700
618
SIVD17 KWNB 110300 RRD
BBXX
46066 11031 99528 71550 46/// /2006 10044 40000 57004 90250 22200
00054 11205 20501 325// 41205 70026 333 91208 555 11063 22066
30231 42008 60249 196060 204063 204055 206057 208057 213058 82007
90232=
46078 11031 99560 71526 46/// /2406 10037 20004 49971 57005 90250
22200 00044 11005 20501 323// 41004 70023 333 91208 555 11062
22065 30151 42608 60249 240060 245062 251062 250062 254060 256065
82507 90223=
0000169700
619
SIVD15 KWNB 110300 RRB
BBXX
42003 11031 99260 70856 46/// /1305 10256 40171 51009 90250 22200
00249 10702 20501 312// 40702 70010 333 91207 555 11057 22063
30247 41207 60249 126051 133054 130046 125047 132049 125045 81206
90247=
42055 11031 99222 70940 46/// /1406 10234 40136 53013 90250 22200
00229 10802 20501 307// 40802 70011 333 91206 555 11061 22066
30232 41407 60249 141056 142058 140056 140049 140049 143056 81406
90232=
42057 11031 99170 70815 46/// /0809 10274 20235 40152 51015 90250
22200 00275 10805 20805 70023 333 91211 555 11098 22105 30205
40812 60249 075091 075096 078094 076100 078097 075092 80810 90203=
41047 11031 99275 70715 46/// /1108 10242 20232 40247 51005 90250
22200 00255 10904 20803 308// 40903 70022 333 91210 555 11087
22092 30158 41111 60249 109083 111083 111081 110080 111084 109086
81109 90207=
41040 11031 99145 70530 46/// /0907 10234 20208 40159 51005 90250
22200 00262 11006 20503 307// 41005 70030 333 91208 555 11070
22073 30204 40815 60249 087068 095077 082090 080101 081110 062086
80913 90205=
42039 11031 99288 70860 46/// /1506 10215 20215 40174 51003 90250
22200 00211 10501 20501 70006 333 91208 555 11069 22075 30249
41508 60249 151063 152057 149058 147054 146047 146047 81507 90249=
41048 11031 99320 70695 46/// /1209 10203 20140 40288 54000 90250
22200 00213 10803 20703 311// 40802 70017 333 91211 555 11095
22100 30222 41211 60249 118088 121091 120087 116087 114087 116087
81210 90242=
44066 11031 99396 70726 46/// /1706 10121 20112 40259 57014 90250
22200 00110 10501 20501 314// 40901 70007 333 91207 555 11066
22073 60249 165059 165060 165060 166063 167061 168058=
0000053600
620
SAIR31 OIII 110300
METAR OIAW 110300Z 11010KT 5000 BR FEW030CB SCT035 BKN090 11/10
Q1018=
METAR OIFM 110300Z 00000KT 0200 FG NSC M05/M05 Q1020 A3013=
METAR OIII 110300Z 00000KT 7000 FEW040 BKN100 02/M05 Q1021
 A3015 NOSIG=
METAR OIKB 110300Z 09004KT CAVOK 12/07 Q1022 A3018=
METAR OIKK 110300Z NIL=
METAR OIMM 110300Z 15004KT 9999 FEW035 BKN180 M03/M10 Q1021 A3017=
METAR OISS 110300Z NIL=
METAR OITT 110300Z 06006KT 8000 NSC M10/M14 Q1021 A3015=
METAR OIZH 110300Z 14004KT CAVOK M05/M06 Q1022 A3020=
0000057100
621
SAIR32 OIII 110300
METAR OIAA 110300Z 10004KT 5000 BR FEW030CB SCT035 OVC090 13/12
Q1018=
METAR OIBK 110300Z 10010KT 7000 -RA FEW030CB SCT025 OVC090 15/09
Q1020=
METAR OICC 110300Z 11012KT 5000 BR FEW035CB SCT040 BKN080
M01/M03 Q1018 A3008 NOSIG=
METAR OIGG 110300Z 00000KT 2000 BR BKN006 02/01 Q1018=
METAR OIIE 110300Z 30004KT CAVOK M01/M05 Q1021 A3021 NOSIG=
METAR OITR 110300Z 27004KT 2000 BR FEW035 BKN140 M11/M13 Q1021=
METAR OIYY 110300Z 00000KT 9999 FEW040 SCT100 01/M01 Q1022=
METAR OAKN 110300Z NIL=
METAR OAKB 110300Z NIL=
0000044400
622
SAIR33 OIII 110300
METAR OIBB 110300Z 09006KT 9999 FEW030CB SCT040 OVC090 15/07 Q1018
A3007=
METAR OIBP 110300Z 14004KT 5000 BR FEW020 FEW025 BKN100 14/09
Q1017 A3004=
METAR OICK 110300Z 09004KT 5000 SNRA FEW030CB SCT035 OVC060 01/00
Q1019=
METAR OICS 110300Z NIL=
METAR OIHH 110300Z NIL=
METAR OINZ 110300Z 19006KT CAVOK 03/00 Q1019=
METAR OISR 110300Z NIL=
METAR OITL 110300Z NIL=
METAR OIZC 110300Z NIL=
00000000