0000036000
206
SAIR33 OIII 111130
METAR OIBB 111130Z NIL=
METAR OIBP 111130Z 35004KT 7000 5000SE SCT020 FEW030CB
OVC080 15/13 Q1019 A3010=
METAR OICK 111130Z NIL=
METAR OICS 111130Z NIL=
METAR OIHH 111130Z NIL=
METAR OINZ 111130Z 32004KT 8000 SCT100 OVC180 11/06 Q1015=
METAR OISR 111130Z NIL=
METAR OITL 111130Z NIL=
METAR OIZC 111130Z NIL=
0000013600
207
SNVD17 CWVR 111100
BBXX
46132 11111 99497 71279 46/// /2210 10090 49869 57008
22200 00078 10907 70036 333 91213 =

0000020000
208
FTSD31 OEJD 111100 RRA
TAF OEDF 111015Z 1112/1218 18014KT 8000 NSC BECMG 1117/1119 30010KT
6000 SKC=
TAF OEDR 111015Z 1112/1218 18014KT 8000 NSC BECMG 1117/1119 30010KT
6000 SKC=
0000128500
209
UDAS02 BABJ 111125
AMDAR 1111
ASC CNFLWT 3148N 11839E 111120 F113 MS081 264/031 TB/ S//1=
ASC CNFLWT 3148N 11835E 111121 F126 MS108 263/033 TB/ S//1=
ASC CNFLWT 3148N 11832E 111122 F138 MS119 261/042 TB/ S//1=
ASC CNFLWT 3148N 11828E 111122 F153 MS106 257/039 TB/ S//1=
ASC CNFPXL 3616N 12031E 111121 F135 MS175 290/033 TB/ S//1=
ASC CNFPXL 3619N 12031E 111122 F157 MS225 274/038 TB/ S//1=
ASC CNFPXL 3622N 12032E 111122 F174 MS236 274/047 TB/ S//1=
ASC CNFPXL 3623N 12032E 111122 F179 MS240 275/052 TB/ S//1=
LVR CNFPYN 3521N 10626E 111114 F291 MS473 249/060 TB/ S//1=
LVR CNFPYN 3509N 10651E 111117 F291 MS473 248/056 TB/ S//1=
LVR CNFPYN 3457N 10715E 111120 F291 MS464 249/060 TB/ S//1=
LVR CNFPYN 3445N 10740E 111123 F291 MS460 247/059 TB/ S//1=
DES CNFPQL 3126N 12052E 111121 F097 MS053 266/029 TB/ S//1=
DES CNFPQL 3124N 12057E 111122 F085 MS048 278/026 TB/ S//1=
DES CNFPQL 3123N 12102E 111123 F076 MS048 263/023 TB/ S//1=
DES CNFPQL 3122N 12103E 111123 F073 MS043 261/024 TB/ S//1=
DES CNFPYM 2456N 11800E 111122 F109 MS005 286/013 TB/ S//1=
DES CNFPYM 2452N 11800E 111123 F098 MS001 208/006 TB/ S//1=
DES CNFPYM 2449N 11800E 111123 F095 PS000 225/011 TB/ S//1=
DES CNFPYM 2447N 11800E 111124 F095 PS005 215/009 TB/ S//1=
0000072700
210
UDAS02 BABJ 111123
AMDAR 1111
ASC CNFPXL 3609N 12028E 111119 F080 MS098 290/030 TB/ S//1=
ASC CNFPXL 3611N 12030E 111120 F100 MS126 297/031 TB/ S//1=
ASC CNFPXL 3613N 12030E 111120 F119 MS151 286/032 TB/ S//1=
DES CNFPYM 2513N 11759E 111119 F118 MS023 270/020 TB/ S//1=
DES CNFPYM 2507N 11759E 111120 F118 MS018 271/022 TB/ S//1=
DES CNFPYM 2503N 11759E 111120 F118 MS008 274/026 TB/ S//1=
DES CNFPYM 2502N 11800E 111121 F118 MS003 273/026 TB/ S//1=
LVR CNFOZL 2306N 11338E 111120 F197 MS098 260/057 TB/ S//1=
ASC CNFOZL 2309N 11336E 111121 F203 MS104 255/060 TB/ S//1=
ASC CNFOZL 2312N 11334E 111121 F214 MS118 252/061 TB/ S//1=
ASC CNFOZL 2315N 11333E 111122 F224 MS118 248/056 TB/ S//1=
0000253500
211
UDFR01 LFPW 111134
AMDAR 1111
ASC EU0983 1616N 06131W 111118 F001 PS222 /// 060/010 TB1 S031
333 F001 VG030=
ASC EU0983 1616N 06131W 111118 F012 PS215 /// 063/019 TB0 S031
333 F012 VG003=
ASC EU0983 1616N 06130W 111118 F021 PS190 /// 066/020 TB1 S031
333 F021 VG039=
UNS EU0983 1615N 06129W 111119 F028 PS172 /// 058/020 TB1 S031
333 F028 VG019=
ASC EU0983 1614N 06129W 111119 F032 PS165 /// 062/022 TB0 S031
333 F032 VG011=
ASC EU0983 1613N 06129W 111119 F037 PS152 /// 058/021 TB0 S031
333 F037 VG001=
ASC EU0983 1611N 06129W 111120 F044 PS137 /// 057/018 TB0 S031
333 F044 VG009=
ASC EU0983 1610N 06129W 111120 F054 PS120 /// 059/017 TB0 S031
333 F054 VG006=
ASC EU0983 1608N 06128W 111120 F067 PS095 /// 059/013 TB1 S031
333 F067 VG021=
ASC EU0983 1607N 06128W 111121 F077 PS075 /// 046/018 TB1 S031
333 F077 VG010=
ASC EU0983 1605N 06128W 111121 F089 PS105 /// 072/019 TB0 S031
333 F089 VG000=
ASC EU0983 1604N 06128W 111121 F100 PS082 /// 058/021 TB2 S031
333 F100 VG029=
ASC EU0983 1602N 06128W 111122 F106 PS070 /// 056/019 TB0 S031
333 F106 VG006=
ASC EU0983 1600N 06128W 111122 F110 PS072 /// 043/018 TB0 S031
333 F110 VG001=
ASC EU0983 1558N 06128W 111122 F114 PS067 /// 042/019 TB1 S031
333 F114 VG022=
ASC EU0983 1556N 06127W 111123 F122 PS050 /// 044/020 TB1 S031
333 F122 VG023=
ASC EU0983 1553N 06127W 111123 F133 PS030 /// 026/016 TB0 S031
333 F133 VG003=
ASC EU0983 1552N 06127W 111123 F144 PS002 /// 043/013 TB1 S031
333 F144 VG024=
ASC EU0983 1549N 06127W 111124 F149 MS012 /// 027/013 TB2 S031
333 F149 VG023=
ASC EU0983 1547N 06126W 111124 F150 MS012 /// 027/013 TB0 S031
333 F150 VG005=
ASC EU0983 1545N 06126W 111124 F149 MS012 /// 034/012 TB0 S031
333 F149 VG001=
ASC EU0983 1543N 06126W 111125 F149 MS012 /// 029/011 TB0 S031
333 F149 VG001=
ASC EU0983 1541N 06126W 111125 F149 MS012 /// 030/010 TB0 S031
333 F149 VG001=
ASC EU0983 1538N 06126W 111125 F149 MS012 /// 029/010 TB0 S031
333 F149 VG001=
ASC EU0983 1537N 06125W 111126 F149 MS012 /// 028/010 TB0 S031
333 F149 VG003=
ASC EU0983 1534N 06125W 111126 F149 MS015 /// 035/012 TB0 S031
333 F149 VG000=
ASC EU0983 1532N 06125W 111126 F149 MS017 /// 043/013 TB0 S031
333 F149 VG000=
ASC EU0983 1530N 06125W 111127 F149 MS017 /// 049/015 TB0 S031
333 F149 VG000=
ASC EU0983 1528N 06125W 111127 F149 MS015 /// 040/021 TB0 S031
333 F149 VG000=
ASC EU0983 1526N 06124W 111127 F149 MS017 /// 048/021 TB0 S031
333 F149 VG002=
0000015900
212
SIKN20 HKNC 110900 RRA
AAXX 11094
63772 42580 40812 10308 20215 84230 333 84826=
63793 42580 60612 10274 20204 40137 86200 333 59002 86823=
0000011000
213
UANT01 CWAO 111133
ARP DLH459 5900N05103W 1133 F350 MS55 274/42 KT
DAIHP QXS UAK 111133 J17A
0000011000
214
UANT01 CWAO 111133
ARP UAL37 5407N02643W 1133 F360 MS57 200/78 KT
N21108 DDL IG1 111133 F57A
0000011000
215
UANT01 CWAO 111133
ARP BAW268 5545N04329W 1133 F390 MS56 272/39 KT
GXLEB QXT AME 111133 J36A
0000012800
216
UGMA20 FIMP 111200
PPBB 61111 61974 NIL=
PPBB 61111 61986 NIL=
PPBB 61113 61988 NIL=
PPBB 61113 61995 NIL=
0000031600
217
SSVX08 KARS 111133
ZZYY 56055 10014 1200/ 324741 099973 6111/
11119 10225 29079
22219 00233
33311 88872 20000 32330 20001 32315 43521 20020 32309 43531
20040 32301 43533 20060 32197 43556 20080 32090 20120 31951
20140 31909 20180 31811 20300 31469 20500 31030
444 20110 10014 1208/ 521//=
0000016000
218
SSVX12 KARS 111133
ZZYY 73634 11014 1030/ 365942 144414 6112/
11119 11011 49874 52009
22219 01019
444 20120 11014 0950/ 501// 80140 80000=
0000118800
219
SINR20 DRRN 110900
AAXX 11094
61017 42960 50000 10188 20011 39801 40220 80002
  333 58002 85080=
61024 41932 11027 10203 20026 39625 40200 70700 80002
  333 58008 81080=
61036 41958 71406 10236 20013 39919 40158 70522 80008
  333 58006 87280=
61043 41912 71016 10206 21006 39727 40173 70722 80008
  333 58000 87280=
61045 41907 70806 10190 21015 39683 40187 7064/ 80008
  333 58003 87280=
61049 42960 70804 10200 20220 39862 40186 80008
  333 58004 87280=
61052 41930 50814 10230 21017 39911 40168 70722 80002
  333 58007 85080=
61053 41925 70812 10226 21023 39/// 4//// 7062/ 80008
  333 5//// 87280=
61075 41956 61008 10223 20016 39869 40179 70622 80008
  333 58007 86280=
61080 41908 71006 10195 21018 39762 40190 70642 80008
  333 58008 87280=
61085 41956 50808 10206 20029 39833 40259 70642 80002
  333 59010 85080=
61090 41910 70612 10190 21015 39673 40191 70644 80008
  333 58042 87280=
61091 41920 70810 10194 20028 39740 40204 7062/ 80008
  333 58004 87280=
61096 41945 70608 10204 21004 39802 40189 70522 80008
  333 58000 87280=
61099 41940 70616 10240 20008 39916 40145 70722 80008
  333 58012 87280=
0000011100
220
UANT01 CWAO 111133
ARP BER7210 5002N01646W 1133 F370 MS62 238/72 KT
DALPH QXT AOE 111133 J18A
0000010900
221
UANT01 CWAO 111133
ARP VIR97 4842N02417W 1133 F360 MS55 193/77 KT
GVGEM DDL XXF 111133 J81A
0000010900
222
UANT01 CWAO 111133
ARP BAW6B 5706N03604W 1132 F370 MS56 212/25 KT
GCIVS QXT AOW 111133 F54A
0000011000
223
UANT99 KDDL 111133
ARP UAL71 5402N02933W 1132 F360 MS61 189/65 KT
N18119 DDL IG1 111133 F39A
0000010700
224
UANT99 KDDL 111133
ARP AAL241 66N020W 1134 F340 MS56 126/52 KT
N347AN DDL KEF 111133 F31A
0000011000
225
UANT99 KDDL 111133
ARP UAL26 5407N02607W 1133 F350 MS58 199/77 KT
N17122 DDL IG1 111133 F44A
00000000