0000009500
336
SPIN90 VEIM 111201
SPECI VEIM 111200Z 19003KT 4500 HZ FEW020 17/09 Q1016 NOSIG=
0000032500
337
FCIN90 VOTV 111200
TAF VOTV 111200Z 1115/1124 14005KT 5000 HZ FEW015 SCT100
BECMG 1117/1118 00000KT 4000 HZ= 

TAF VOCI 111200Z 1115/1124 22005KT 4000 HZ FEW015 SCT100
BECMG 1117/1118 00000KT 4000 HZ= 

TAF VOCL 111200Z 1115/1124 22005KT 5000 HZ FEW015 SCT100
BECMG 1117/1118 00000KT 4000 HZ=

0000008900
338
SAIN90 VOCB 111200
METAR VOCB 111200Z 09004KT 6000 NSC 29/14 Q1013 NOSIG=
0000008900
339
SAIN90 VOCL 111200
METAR VOCL 111200Z 27006KT 7000 NSC 29/22 Q1010 NOSIG=
0000011000
340
UANT01 CWAO 110308
ARP VIR46C 4835N05150W 0308 F390 MS64 302/48 KT
GVWOW DDL YYT 110308 F70A
0000010100
341
UAUS31 KWBC 110309
ARP UAL1201 4622N 10557W 0303 F280 MS00 320/150KT TB MOD SK CLEAR=
0000014400
342
UAPA01 KWBC 110309
ARP AAL162 3210N 13250W 0300 F370 MS52 295/036KT=
ARP ASA869 40N 153W 0300 F310B350 MS50 290/072KT TB SMTH=
0000011000
343
UANT01 CWAO 110309
ARP DLH403 5049N03625W 0309 F380 MS54 214/29 KT
DABTF QXT EUA 110309 F50A
0000011100
344
UANT01 CWAO 110309
ARP DAL410 4545N05138W 0309 F350 MS64 304/44 KT
N195DN QXS YYT 110309 F25A
0000013900
345
UACN01 CYEG 110308
EG
UUA /OV CYMM 190050 /TM 0300 /FL290 /TP B737 /TB MDT-SEV 250-290 /RM BETWEEN 50 AND 70 MILES S CYMM
0000011000
346
UANT01 CWAO 110309
ARP DLH491 5804N05847W 0309 F360 MS58 276/71 KT
DAIKI QXS YHO 110309 J99A
0000011100
347
UANT01 CWAO 110309
ARP UAL110 4945N04128W 0309 F380 MS55 302/36 KT
N33103 DDL IG1 110309 F46A
0000010900
348
UANT01 CWAO 110309
ARP BAW6W 4839N03717W 0309 F380 MS51 250/27 KT
GVIIA QXT AOW 110309 F11A
0000011100
349
UANT01 CWAO 110309
ARP UAL974 4852N03047W 0309 F370 MS50 210/50 KT
N677UA DDL XXW 110309 F39A
0000016600
350
SSVX13 LFVW 110309
ZZYY 55583 11014 0300/ 344562 175187 6113/
11119 30140 40140 52006
22219 00136
444 20130 11014 0109/ 50101 80110 80062 9/015=
0000003800
351
SIAA21 EFKL 110300
NIL
0000072900
352
SIPL20 SOWR 110300
AAXX 11031
12120 42570 72810 10055 20043 30081 40085 51011 872//
  333 91116=
12160 41456 72506 10037 20037 39858 40086 52013 78022 873//
  333 91114=
12205 42670 62304 10050 20025 30123 40131 53002 86500=
12250 42681 82503 10051 20019 30032 40121 50010 885//
  333 91008 91110=
12295 41484 82804 10039 20027 39893 40078 51016 72522 885//
  333 88611 91009 91113=
12330 42570 72505 10049 20012 30039 40148 52006 875//=
12375 42680 72607 10050 20011 39993 40125 51011 875//
  333 91115=
12424 42799 72303 10043 20010 30019 40174 50000 875//=
12465 42777 72606 10042 20000 39926 40150 52007 875//
  333 91112=
12566 42682 72406 10040 21012 39885 40184 52005 875//=
0000083700
353
SIPL30 SOWR 110300
AAXX 11031
12105 42480 82505 10050 20032 30066 40108 51006 885//
  333 84615=
12195 42484 83007 10029 20008 39834 40063 51017 886//
  333 91115=
12235 41468 82406 10041 20028 39899 40111 51010 72582 885//
  333 88612 91111=
12270 41581 72607 10045 20028 39924 40107 51013 72582 873//=
12280 41470 72604 10037 20027 39921 40079 51012 70182 875//
  333 91110=
12300 42570 72502 10034 20014 30054 40145 50002 875//=
12400 42984 22504 10033 20013 39923 40162 52003 80008=
12435 42784 72506 10040 20009 39984 40158 53007 875//=
12495 42584 82606 10043 21001 39844 40139 51012 885//
  333 91114=
12530 42770 62402 10039 20006 39979 40183 50005 8353/=
12570 42684 82504 10041 21013 39842 40164 52007 885//
  333 91111=
12580 42780 82608 10053 21018 39908 40170 52009 885//=
0000035900
354
SIVB10 EHDB 110300
BBXX
DGSE 11033 99505 11688 41094 82523 10000 20000 49845 56015 76972
87673 22214 04050 21408 30227 41408 51408 80000=
DGWD2 11034 99225 11202 41997 13406 10208 20132 40239 50000 70200
80005 22200 00230 299// 331// 40703=
A8PC9 11031 99106 11083 41/96 /0511 10245 20209 40150 51/// 70322
8//68 22213 20605 80220=
0000083700
355
SIIN90 VEBS 110300
AAXX 11034
42971 31994 00201 10198 20175 40172 72840
  333 20159 59004
  555 10000=
42891 32996 00000 10176 20132 40180
  333 20112 59006
  555 10000=
42881 31995 00000 10184 20167 40171 70500
  333 20146 58004
  555 10000=
42973 31994 00000 10186 20159 40178 71000
  333 20126 58002
  555 10000=
42886 31993 00501 10178 20147 40168 74244
  333 20153 59005
  555 10000=
42895 31995 00000 10178 20124 40171 70500
  333 20130 59010
  555 10000=
42976 31994 03402 10196 20166 40172 71000
  333 20157 59005
  555 10000=
42883 31995 00000 10192 20165 40156 70500
  333 20135 59009
  555 10000=
43049 31995 03603 10200 20190 40167 70500
  333 20/// 58007
  555 10000=
43053 32996 03602 10226 20167 40169
222// 20701
  333 20180 59006
  555 10000=
00000000