0000011000
463
UANT99 KDDL 111158
ARP KLM751 4901N01557W 1157 F310 MS53 228/66 KT
PHBQA QXT AOE 111158 F11A
0000010900
464
UANT99 KDDL 111158
ARP BAW6B 5659N02942W 1157 F370 MS59 214/53 KT
GCIVS QXT AOW 111158 F66A
0000010900
465
UANT99 KDDL 111158
ARP DAL1 5305N02239W 1158 F340 MS62 199/70 KT
N177DZ QXT AOE 111158 F58A
0000031100
466
FCIN90 VIJP 110300
TAF VIJP 110300Z 1106/1115 05005KT 3000 HZ FEW035 SCT100 BECMG 1112/1114 VRB02KT 1500 FU=
TAF VIJO 110300Z 1106/1115 36005KT 3000 HZ FEW035 SCT100 BECMG 1112/1114 VRB02KT 2000 HZ=
TAF VAUD 110300Z 1106/1115 05005KT 5000 HZ SCT035 SCT100 BECMG 1112/1114 VRB02KT 3000 HZ=

0000013000
467
SIIN90 VICH 110300
AAXX 11034
42137 31992 00000 10064 20064 40186 74444
  333 10164 20046 58006
  555 10000=
0000023400
468
FTIN90 VIJP 110300
TAF VIJP 110300Z 1106/1212 05005KT 3000 HZ FEW035 SCT100 BECMG 1112/1114 VRB02KT 1500 FU BECMG 1121/1123 00000KT 0800 MIFG BECMG 1203/1205 VRB02KT 1500 FU BECMG 1206/1208 05005KT 3000 HZ=
      

0000080500
469
FCIN90 VILK 110300
TAF VILK 110300Z 1106/1115 32004KT 2000 HZ SCT020 BKN100 TEMPO 
1106/1112 0800 RA/TSRA FEW030CB OVC090 BECMG 1112/1114 VRB02KT 
1000 MIFG/BR SCT020 SCT100=
TAF VIBN 110300Z 1106/1115 32004KT 2000 HZ SCT020 BKN100 TEMPO 
1106/1112 0800 RA/TSRA FEW030CB OVC090 BECMG 1112/1114 VRB02KT 
1000 MIFG/BR SCT020 SCT100=
TAF VICX 110300Z 1106/1115 32004KT 2000 HZ SCT020 BKN100 TEMPO 
1106/1112 0800 RA/TSRA FEW030CB OVC090 BECMG 1112/1114 VRB02KT 
1000 MIFG/BR SCT020 SCT100=
TAF VEGK 110300Z 1106/1115 32004KT 2000 HZ SCT020 BKN100 TEMPO 
1106/1112 0800 RA/TSRA FEW030CB OVC090 BECMG 1112/1114 VRB02KT 
1000 MIFG/BR SCT020 SCT100=
TAF VIDN 110300Z 1106/1115 11004KT 3000 HZ SCT030 BKN090
BECMG 1112/1114 VRB02KT 1500 BR TEMPO 1106/1115 0800 RA/TSRA

0000008600
470
SPIN90 VOBZ 110300
SPECI VOBZ 110300Z 00000KT 1500 BR NSC 23/21 Q1016=
0000067100
471
SXXX32 EUMS 110255 RRX
366C76AC
OT12 ID:IR-CHAB-07 DT:2014 01 11 02 54
:RAD /1 01948 01950 01948 01948 01949 01953 01960 01977 01947 01955 01933 01929 01944 01941 01938 01975 01924 01930 01902 01905 01895 01884 02719 01868 01864 01856 01850 01857 01854 01850
:PR1 /1 02406 02414 02424 02421 02426 02438 02429 02426 02410 02400 02416 02410 02404 02410 02419 02411 02407 02395 02389 02370 02361 02352 02341 02335 02330 02319 02327 02321 02314 02318
:PR2 /1 01962 01964 01965 01973 01975 01978 01975 01969 01962 01952 01955 01953 01963 01961 01960 01955 01950 01943 01925 01918 01910 01898 01884 01879 01870 01865 01862 01862 01867 01855
:BAT 11.3V
0000039700
472
SXXX32 EUMS 110257 RRX
16590056
:PRS 1 /1 2502 2500 2497 2494 2491 2496 2490 2491 2484 2481 2477 2481 :RAD 1 /1 6791 6790 6786 6782 6775 6782 6775 6774 6768 6763 6761 6762 6764 6766 6773 6770 6774 6778 :ENC 6 /6 4988 4983 4996 4972 4952 4944 4950 4942 4916 4920 :ENB 6 /6 4987 4982 4994 4969 4950 4943 4948 4941 4914 4920 :SW1 57 /60 0 :SW2 24 /60 0 :BAT 5 /6 12.5 :NAME 16590056
0000037000
473
SXXX32 EUMS 110257 RRX
22E595B6
:PRS 1 /1 M 3107 3094 3090 3087 3050 3112 3122 3076 3068 3068 3059 3128 3078 3116 3084 3111 3119 3103 3119 3098 3111 3093 3114 3123 3126 3132 3115 3128 3109 :RAD 1 /3 6263 6266 6263 6273 6283 6285 6282 6288 6288 6276 :ENC 2 /5 4384 4374 4402 4407 4416 4405 :SW1 57 /60 60 :SW2 27//60 60 :BAT 14 /15 13.9 :NAME 22E595B6 /
0000065100
474
SXXX32 EUMS 110257 RRX
16AF741C
OT12 ID:SA-MAIS-07 DT:2014 01 11 02 47
:RAD /1 09201 09110 09065 09054 09153 09170 09175 08991 09246 09158 09202 09380 09142 09034 09220 09067 09143 09128 09088 09093 09171 08978 09107 09051 09015 09264 09282 09144 09048 09078 09023 09076 09109 09218 09142 09169 09255 09158 08952 09056 08999 09128 09022 09124 09196 09038 09118 09091 08947 09146 09017 09041 08923 09108 09109 09005 09139 09028 09007 09115 08996 09278 09042 09094 09009 09254 08986 09000 08989 09086 09045 09052 09039 08980 09036 08924 08933 08973 09023 09037 08996 09064 09010 08980 09276 09006 09046 08891 09055 08971
:BAT 14.3V
0000045200
475
SXXX32 EUMS 110258 RRX
32BD7124
:PRS 1 /1 1864 1864 1865 1867 1869 1869 1868 1866 1866 1866 1868 1868 1866 1864 1863 1863 1862 1864 1863 1863 1864 1864 1867 1867 1867 1864 1861 1861 1859 1857 :RAD 3 /3 7651 7652 7652 7650 7648 7646 7646 7648 7644 7639 7628 7620 7615 7613 7613 7613 7612 7609 7601 7600 :ENC 3 /5 4649 4649 4646 4645 4648 4639 4621 4612 4610 4609 4605 4597 :SW1 59 /60 0 :SW2 29 /60 60 :BAT 14 /15 13.1 :NAME 32BD7124 /
0000067100
476
SXXX32 EUMS 110258 RRX
16F152DA
OT12 ID:IR-JASK-09 DT:2014 01 11 02 48
:RAD /1 03612 03604 03606 03610 03619 03622 03626 03623 03627 03627 03626 03624 03619 03621 03607 03594 03593 03579 03575 03565 03553 03561 03557 03554 03545 03555 03549 03554 03552 03555
:PR1 /1 00860 00860 00852 00867 00873 00867 00879 00877 00874 00878 00878 00883 00876 00869 00863 00861 00850 00839 00823 00821 00809 00811 00810 00811 00795 00799 00803 00805 00795 00805
:PR2 /1 02454 02465 02462 02455 02460 02468 02470 02476 02478 02478 02476 02482 02467 02467 02460 02457 02440 02432 02426 02424 02414 02403 02400 02400 02405 02404 02399 02407 02407 02410
:BAT 13.5V
0000070200
477
SXXX32 EUMS 110258 RRX
223412A2
OT12 ID:IND-SADENG DT:2014 01 11 02 57
:PRS /1 01348 01337 01380 01430 01369 01335 01363 01388 01390 01298 01388 01408 01314 01383 01402 01330 01289 01356 01299 01396 01422 01357 01294 01300 01316 01278 01263 01346 01395 01479
:ENC /1 -13636 -13646 -13613 -13579 -13613 -13646 -13626 -13583 -13596 -13676 -13603 -13593 -13656 -13586 -13589 -13613 -13669 -13626 -13619 -13546 -13539 -13599 -13663 -13649 -13626 -13686 -13656 -13586 -13523 -13473
:RAD /1 11071 11062 11126 11118 11115 11075 11071 11132 11133 11060 11107 11111 11110 11098 11074 11104 11025 11020 11086 11130 11154 11146 11073 11049 11082 11066 11045 11072 11179 11211
:BAT 12.9V/
0000023800
478
SITO21 NFTF 110300
AAXX 11034
91779 41398 73224 10260 20253 49979 53012 72162 8571/ 333 5659/ 84706
 85816
87460=
91784 NIL=
91792 41397 81518 10246 20237 49984 58022 76122 8577/ 333 5639/ 83706
 85815
88462=
0000010900
479
UANT99 KDDL 110300
ARP KLM32 5453N04153W 0300 F380 MS58 260/20 KT
PHBFN QXT AOW 110300 F68A
0000011100
480
UANT99 KDDL 110300
ARP UAL124 5149N03625W 0300 F380 MS55 210/27 KT
N13138 DDL IG1 110300 F59A
0000010900
481
UANT99 KDDL 110300
ARP DAL66 4752N03610W 0300 F360 MS49 219/28 KT
N1602 QXT AOW 110300 F50A
0000011000
482
UANT99 KDDL 110300
ARP UAL91 5818N01112W 0300 F340 MS46 225/28 KT
N77022 DDL XXN 110300 F39A
00000000