0000010000
103
SPIN90 VEAT 110300
SPECI VEAT 110300Z 00000KT 0300 FG NSC 14/13 Q1017 BECMG 0800 FG=
0000008100
104
SAIN90 VAAU 110300
METAR VAAU 110300Z 02002KT 2500 HZ 13/07 1017=
0000053500
105
UAPS01 NZKL 110300 RRA
AIREP
FJI410 3100S 17542E 0227 F400 MS56 288/68=
ANZ104 3606S 15954E 0232 F390 MS56 204/21=
ANZ136 3054S 16006E 0239 F390 MS56 276/36=
FJI410 2912S 17600E 0241 F400 MS52 290/83=
JST4 2418S 16348E 0245 F400 MS55 271/60=
CSN305 3348S 16924E 0245 F390 MS56 265/35=
FJI410 2818S 17606E 0249 F400 MS53 290/77=
ANZ104 3636S 16324E 0253 F390 MS56 251/17=
FJI410 2730S 17612E 0255 F400 MS54 298/67=
ANZ136 3200S 16230E 0255 F390 MS58 288/35=
JST4 2524S 16230E 0259 F400 MS56 271/77=
0000135800
106
SITH43 VTBB 110300
AAXX 11034
48307 32960 00000 10210 20172 39812 40199 51021 
  333 58005=
48324 32960 20403 10248 20181 39962 40183 52021 80005
  333 58008=
48333 31959 00000 10220 20171 39890 40197 52019 71000 
  333 58011=
48350 NIL=
48355 31962 00000 10240 20157 39974 40196 50019 70500 
  333 58002=
48358 NIL=
48384 31956 10901 10235 20172 39989 40182 52015 71000 80005
  333 58003=
48401 31958 51204 10265 20165 30080 40188 52015 70511 80006
  333 58011=
48404 32960 20406 10250 20169 30003 40182 52016 80005
  333 58004=
48409 32960 00000 10238 20179 30032 40181 52014 
  333 58007=
48419 31959 30000 10272 20209 30162 40171 52018 71011 80005
  333 58006=
48427 NIL=
48435 31959 41007 10240 20167 39734 40176 52015 70511 80006
  333 58000=
48453 32960 60406 10278 20188 30162 40165 52015 80006
  333 58002=
48458 32960 80912 10271 20170 30101 40182 52017 80006
  333 58006=
48474 31958 23610 10271 20180 30043 40166 52017 70500 80005
  333 58008=
48481 NIL=
48555 NIL=
48556 32560 60000 10287 20254 30128 40144 52015 81106
  333 58015=
48557 32560 20000 10276 20229 30109 40144 52011 82105
  333 58012=
48560 31559 82103 10254 20236 30145 40150 52017 71022 83856
  333 58013=
48574 32561 80000 10288 20233 30118 40147 52017 83836
  333 58015=
48581 NIL=
0000147900
107
SINZ20 NZKL 110300
AAXX 11034
93004 46/// /2115 10210 20123 40188 57013=
93023 46/// /3306 10191 20139 40186 57010=
93069 46/// /2409 10206 20123 40184 57011=
93110 47698 /2210 10199 20135 40185 57008=
93186 47698 /3208 10232 20126 40166 57011=
93196 46/// /0407 10213 20157 40173 57008=
93245 47/98 /2207 10202 20102 40159 57021=
93292 47598 /1209 10205 20119 40167 57011=
93309 47/97 /2713 10194 20145 40176 57008=
93339 46/// /2209 10156 20103 39228 57008=
93373 47698 /0811 10212 20128 40169 57009=
93404 47698 /2605 10210 20120 40163 57010=
93420 47/98 /0110 10199 20144 40164 57010=
93439 47/98 /3312 10213 20113 40157 57014=
93498 46/// /0413 10184 20116 40161 57015=
93515 47598 /2414 10182 20129 40177 57010=
93527 46/// /3110 10221 20119 40161 57016=
93546 47/97 /0114 10219 20156 40159 57011=
93597 46/// /0118 10172 20121 40149 57014=
93615 47497 /3107 10176 20129 40175 57011=
93678 46397 /1010 10172 20143 40153 57014=
93709 46/// /2610 10166 20119 40177 57011=
93773 47698 /0910 10180 20116 40132 57030=
93781 47598 /0613 10168 20114 40146 57021=
93800 NIL=
93805 NIL=
93831 47/98 /2511 10247 20017 40092 57035=
93845 47/98 /2411 10168 20121 40111 57028=
93891 47/98 /1411 10177 20115 40116 57023=
93909 46/// /3237 10133 20092 40087 57033=
93929 46/// /3425 10112 20108 49995 57034=
93947 NIL=
93985 47597 /2319 10141 20097 40110 52006=
93994 46/// /1213 10229 20161 40122 57005=
0000110100
108
SIUR20 UKMS 110300
AAXX 11031
33135 42597 82710 10023 20007 39864 40009 53012 885// 333
55000 88624=
33317 42497 62710 10043 20004 39774 40111 52015 86500 333
55000=
33345 42598 72806 10049 20011 39845 40049 52006 86970=
33393 42660 72905 10044 21022 39767 40161 52011 87500 333
55006 87643=
33506 42497 72708 10031 20002 39844 40040 52003 85600=
33587 42966 22803 10028 21011 39845 40111 52010 82030=
33631 NIL=
33663 NIL=
33658 42784 42605 10054 21049 39867 40168 52010 84500 333
55000 84650=
33711 42997 62607 10019 20000 39887 40099 52009 86030=
33791 42997 62608 10020 20001 39948 40101 52011 86030=
33837 42984 02603 10031 21014 30107 40160 51012 333 55000=
33924 42998 02908 10069 20023 30147 40159 52019=
33946 41934 02703 10017 20012 39943 40168 52023 71011 333
55021=
34300 42497 82508 10038 20013 39827 40016 58002 885// 333
55000 88616=
34504 42997 32605 10012 20004 39895 40075 52015 83030 333
55000=
34519 41460 82807 10032 20017 39777 40054 53017 70286 886//
333 88711=
34601 42960 02607 10027 20006 39949 40086 52015=
0000028800
109
SMCN04 KWBC 110000
AAXX 11004
71376 15/// /1001 11056 21063 39934 40245 58013 60001 333 11052
21198 70000=
71386 15/// /1506 11099 21139 30004 40220 58001 60001 333 11065
21223 70000=
71734 15/// /1809 11038 21038 39758 40157 55009 60001 333 11038
21110 70010=
0000030000
110
SIIE22 EIDB 110300
AAXX 11031
03961 45673 /1902 10030 20030 30066 40144 53014 85///
333 81/34 83/40 85/50=
03971 47380 /2402 10011 20006 30007 40133 53013 72383 85///
333 81/08 83/20 85/46=
03979 47237 /2502 10005 20005 30028 40128 52016 77187 87///
333 81/04 83/06 87/08=
0000103000
111
SIVD15 KWNB 110300 RRF
BBXX
41046 11031 99238 70683 46/// /1009 10256 20189 40230 51005 90250
22200 00261 10905 20804 3//// 40903 70026 333 91211 555 11096
22102 30158 40911 60249 098091 094091 099090 096094 101093 099091
80910 90216=
42060 11031 99163 70632 46/// /0709 10261 40174 51012 90250 22200
00267 10604 20604 307// 41002 70022 333 91211 555 11098 22104
30206 40712 60249 071092 066098 070098 070097 069105 068099 80711
90207=
44064 11031 99370 70760 46/// /1404 10093 40227 56019 90300 22200
00062 10301 70003 333 91205 555 11050 22054=
44062 11031 99386 70764 46/// /0502 10024 40231 58027 90300 22200
00027 1//00 70001 333 91202 555 11017 22019=
44063 11031 99390 70764 46/// /3602 10018 40220 58027 90300 22200
00014 1//00 70000 333 91202 555 11022 22024=
44041 11031 99372 70768 46/// /1303 10064 90300 22200 00043 1//00
70000 333 91203 555 11030 22033=
44042 11031 99380 70763 46/// /1203 10045 40217 58028 90300 22200
00037 1//00 70001 333 91204 555 11036 22039=
0000012600
112
SMCN04 KWBC 101800
AAXX 10184
71376 15/// /0000 11071 21094 39950 40262 58024 60001 333 11071
21222 70000=
0000011100
113
UANT99 KDDL 110307
ARP UAL989 5211N02837W 0307 F370 MS53 217/58 KT
N774UA DDL XXW 110308 F33A
0000038800
114
SIVD01 PANC 100300 RRM
BBXX
WYP8657 10034 99459 70840
43/// /1420 10004 40066
2227/ 00002=
WYR4481 10034 99458 70871
43/// /1111 10004 40025
2228/ 00003=
WYQ4356 10034 99461 70840
43/// /1414 10005 40069
2227/ 00001=
WCF3012 10034 99431 70824
43/// /1717 10029 40103
2221/ 00426=
WUR8857 10034 99450 70870
43/// /0313 10006 40008
2221/ 00021=
0000096300
115
SIVD01 PANC 110300 RRC
BBXX
WECB 11034 99327 71172
43/// /0102 10145 20119 40192 5//// 7//// 8////
222// 04149 2//// 3//// 4//// 5//// 6//// 8//// ICE /////=
WSQ2674 11034 99327 71172
43/// /0302 10142 2//// 40184 5//// 7//// 8////
222// 04151 2//// 3//// 4//// 5//// 6//// 8//// ICE /////=
KAOU 11034 99064 31052
43/// /3404 10271 20240 40117 5//// 7//// 8////
222// 04299 2//// 3//// 4//// 5//// 6//// 8//// ICE /////=
KAQP 11034 99098 71043
43/// /0513 10271 20206 40109 5//// 7//// 8////
222// 04271 2//// 3//// 4//// 5//// 6//// 8//// ICE /////=
WDD4207 11033 99254 70865
41498 41318 10244 2023/ 40160 52025 70200 81199
22233 0//// 20402 310// 40803 5//// 6//// 80233 ICE /////=
C6VG7 11034 99211 70865
41797 41525 10280 2//// 40158 53001 70211 8426/
22214 00280 20204 335// 4//04 5//02 6//// 8//// ICE /////=
C6QM8 11034 99249 70802
41598 21324 10255 20237 40190 57020 70200 82500
22254 00256 20404=
0000010800
116
UANT99 KDDL 110307
ARP FIN6 6028N03312W 0307 F380 MS56 221/32 KT
OHLTM QXT EUA 110308 J28A
0000017800
117
SMVD01 KWBC 110000 RRW
BBXX
KGTY 11004 99238 71727 41598 40923 10239 20171 40169 57021 7//11
 8226/ 22264 00228 20806 305// 41209 5//// 6//// 80194 ICE /////=
0000025200
118
SIVD17 KWNB 110300 RRH
BBXX
46077 11031 99579 71543 46/// /2603 10022 49955 58010 90250 22200
00041 11102 20401 3//// 41101 70008 333 91204 555 11034 22035
30159 42407 60249 258033 250034 255030 260026 244033 254045 82406
90200=
0000010900
119
UANT99 KDDL 110308
ARP BAW9E 4818N04403W 0308 F400 MS55 303/56 KT
GVIIB QXT AOW 110308 F10A
0000012600
120
SITH20 VTBB 110300 RRA
AAXX 11034
48480 31558 30705 10294 20182 30148 40152 52012 70511 82535
  333 58005=
0000039700
121
SIMJ20 MJSK 110300
AAXX 11031
13586 31104 83601 10008 20003 39960 40261 51005 74442 886// 333
88702=
13493 42998 03504 10002 21019 39411 40251 53004 333 92000=
13577 NIL=
13578 42997 41401 10018 20012 37002 48512 5//// 80006=
13579 NIL=
13583 41/92 90000 11010 21012 39533 40253 54000 74744=
13591 41595 80502 10022 20020 39842 40246 51003 71044 886//=
13592 NIL=
0000053100
122
SIVS01 KWBC 110300
AAXX 11031
48823 32697 73602 10183 20154 30224 40227 51023 875// 333 59009
87696=
48825 31697 83202 10158 20142 30222 40231 51021 71022 885// 333
59011 88696=
48803 31456 80000 10158 20133 30122 40238 51015 71022 888// 333
59004 84894 88696=
48848 41565 63203 10198 20180 30209 40217 52013 70262 868// 333
59004 83895 86697=
48852 32598 70000 10204 20184 30197 40207 51009 872// 333 58004
87895=
48855 32560 73401 10240 20201 30199 40207 51009 878// 333 59001
84895 86697=
00000000