0000015700
552
SSVX13 LFPW 110200
ZZYY 64606 11014 0200/ 766253 006798 6113/ 11119 40047 57006 22219
 00037 444 20130 11014 0000/ 50101 80134 80026 9/015=
0000015700
553
SSVX13 LFPW 110200
ZZYY 14525 11014 0200/ 333248 071801 6113/ 11119 40272 52014 22219
 00202 444 20130 11014 0000/ 50101 80150 80019 9/015=
0000015700
554
SSVX13 LFPW 110200
ZZYY 64614 11014 0200/ 761949 018247 6113/ 11119 49969 52025 22219
 00088 444 20130 11014 0000/ 50101 80142 80008 9/015=
0000015700
555
SSVX13 LFPW 110200
ZZYY 44869 11014 0200/ 728638 024166 6113/ 11119 40180 57008 22219
 00214 444 20130 11014 0000/ 50101 80106 80013 9/015=
0000015700
556
SSVX13 LFPW 110200
ZZYY 15547 11014 0200/ 527079 014496 6113/ 11119 40226 57013 22219
 00248 444 20130 11014 0000/ 50101 80142 80010 9/015=
0000015700
557
SSVX13 LFPW 110200
ZZYY 41596 11014 0200/ 721501 045008 6113/ 11119 40201 52002 22219
 00246 444 20130 11014 0000/ 50101 80144 80016 9/015=
0000015700
558
SSVX13 LFPW 110200
ZZYY 14516 11014 0200/ 332217 055070 6113/ 11119 40188 57003 22219
 00205 444 20130 11014 0000/ 50101 80146 80016 9/015=
0000015700
559
SSVX13 LFPW 110200
ZZYY 41705 11014 0200/ 726568 046061 6113/ 11119 40223 52007 22219
 00237 444 20130 11014 0000/ 50101 80142 80016 9/015=
0000015700
560
SSVX13 LFPW 110200
ZZYY 64613 11014 0200/ 762357 005459 6113/ 11119 49955 52010 22219
 00080 444 20130 11014 0000/ 50101 80142 80011 9/015=
0000015700
561
SSVX13 LFPW 110200
ZZYY 64518 11014 0200/ 174795 007138 6113/ 11119 40148 57002 22219
 00036 444 20130 11014 0000/ 50101 80132 80018 9/015=
0000015700
562
SSVX13 LFPW 110200
ZZYY 44765 11014 0200/ 746834 035477 6113/ 11119 49974 52005 22219
 00110 444 20130 11014 0000/ 50101 80140 8//// 9/015=
0000015700
563
SSVX13 LFPW 110200
ZZYY 65592 11014 0200/ 760657 053150 6113/ 11119 49923 57023 22219
 00032 444 20130 11014 0000/ 50101 80130 80019 9/015=
0000015700
564
SSVX13 LFPW 110200
ZZYY 64666 11014 0200/ 765067 011172 6113/ 11119 49992 54000 22219
 00040 444 20130 11014 0000/ 50101 80148 80010 9/015=
0000014500
565
SSVX13 LFPW 110200
ZZYY 62686 11014 0200/ 165742 004402 6113/ 11119 40047 57005 444
 20130 11014 0000/ 50101 80094 80008 9/015=
0000155600
566
SASA85 EGRR 110200 RRB
METAR SADF 110200Z 02002KT CAVOK 23/18 Q1011=
METAR SARI 110200Z 05004KT CAVOK 27/24 Q1013=
METAR SBBE 110200Z 08004KT CAVOK 24/22 Q1011=
METAR SBGO 110200Z 26004KT 9999 -TSRA SCT030 FEW035CB OVC080 20/18
      Q1 017=
METAR SBKP 110200Z 13010KT CAVOK 24/18 Q1016=
METAR SBTE 110200Z 02003KT 9999 FEW020 BKN070 26/22 Q1011=
METAR SEGU 110200Z 21011KT 9999 BKN020 BKN090 27/22 Q1010 RMK A2983
      NOSIG=
METAR SELT 110200Z 04004KT 9999 BKN030 11/11 Q1027=
METAR SEMT 110200Z 22008KT 9999 SCT023 25/22 Q1011=
METAR SGAS 110200Z 07004KT CAVOK 28/22 Q1008=
METAR SGES 110200Z 10005KT CAVOK 28/21 Q1010=
METAR SPCL 110200Z 06003KT 030V100 9999 FEW017 SCT100 26/24 Q1010 RMK
      PP000=
METAR SPHI 110200Z 17010KT CAVOK 23/21 Q1011 RMK PP000=
METAR SPJL 110200Z VRB01KT 9999 SCT020 10/07 Q1035 RMK PP000=
METAR SPME 110200Z VRB02KT 9999 FEW012 BKN027 25/24 Q1011 RMK BIRD
      HAZARD RWY 32/14 PP000=
METAR SPQT 110200Z 00000KT 9999 FEW020 SCT100 25/23 Q1010 NOSIG RMK
      PP000=
METAR SPQU 110200Z 11006KT 9999 SCT020 SCT040 13/10 Q1026 RMK PP000=
METAR SPRU 110200Z 15007KT 9000 OVC027 22/20 Q1011 RMK BR PP000=
METAR SPSO 110200Z /////KT 9999 FEW100 21/19 Q1012 RMK PP000=
METAR SPST 110200Z 01006KT 9999 SCT020 25/20 Q1009 RMK BIRD HAZARD
      RWY 17/35 PP000=
METAR SPTN 110200Z VRB02KT CAVOK 20/16 Q1012 RMK PP000=
METAR SPZO 110200Z 10008KT 9999 SCT043 BKN080 12/07 Q1030 RMK RA QUAD
      NE PP000=
METAR SVBM 110200Z 09006KT 9999 FEW016 22/19 Q1017=
0000169100
567
SASA85 EGRR 110200 RRC
METAR SACO 110200Z 14015KT 9999 FEW025 BKN100 25/19 Q1015=
METAR SAEZ 110200Z 23006KT 190V260 CAVOK 23/15 Q1010=
METAR SAME 110200Z 23003KT 9999 VCTS FEW045 FEW050CB 27/06 Q1014=
METAR SARP 110200Z 09004KT CAVOK 27/23 Q1011=
METAR SAWG 110200Z 25005KT 9999 -RA OVC040 08/07 Q1012=
METAR SBGR 110200Z 18002KT CAVOK 20/18 Q1017=
METAR SBJP 110200Z 15003KT 9999 SCT020 24/21 Q1014=
METAR SBMQ 110200Z 02005KT 9999 SCT040 BKN070 26/23 Q1011=
METAR SBPB 110200Z 09013KT 9999 SCT017 28/24 Q1011=
METAR SBPL 110200Z 07001KT 9999 FEW023 24/22 Q1013=
METAR SBVT 110200Z 00000KT 9999 FEW018 25/23 Q1016=
METAR SCAR 110200Z 11002KT CAVOK 23/17 Q1013=
METAR SCBA 110200Z AUTO 30018KT CAVOK 09/03 Q1019=
METAR SCCI 110200Z 25011KT 9999 SCT030 OVC100 08/04 Q1010 NOSIG=
METAR SCEL 110200Z 15007KT CAVOK 22/07 Q1014 NOSIG=
METAR SCFA 110200Z 18008KT 9999 BKN014 21/17 Q1012 NOSIG=
METAR SCIE 110200Z 23008KT CAVOK 16/10 Q1016=
METAR SCSE 110200Z 28005KT CAVOK 16/14 Q1011=
METAR SCTE 110200Z 20005KT CAVOK 11/08 Q1024 NOSIG=
METAR SKBG 110200Z VRB02KT 9999 SCT015 20/18 A2996=
METAR SKBQ 110200Z 03011KT CAVOK 26/23 A2983=
METAR SKCG 110200Z 002010KT CAVOK 26/23 A2983=
METAR SKCL 110200Z 36004KT 9999 FEW020 SCT120 23/19 A2995=
METAR SKPE 110200Z 13005KT 9999 FEW017 SCT080 20/17 A3007=
METAR SKRG 110200Z 07004KT 8000 VCFG SCT010 SCT080 16/15 A3025 REDZ
      RMK VCFG/E/S=
METAR SLCB 110200Z 17004KT 9999 FEW027 20/07 Q1023=
METAR SLLP 110200Z 11004KT 9999 FEW015 SCT200 09/06 Q1035=
METAR SLVR 110200Z 36005KT 9999 FEW070 24/23 Q1010=
METAR SOCA 110200Z AUTO VRB01KT 9999 BKN002 BKN070 BKN086 23/22 Q1012=
0000031300
568
USIN90 VABP 110000

TTAA  61001 42667 99953 12603 05004 00/// ///// ///// 92777
11022 02007 85486 11257 25511 70088 04499 24537 50576 07797
28556 40747 14785 30093 30958 31768 29089 25083 42364 28094
20230 54363 27096 15409 68360 25598 10649 75160 26559 88999
77175 26602 77486 28563=

0000046500
569
UKIN90 VABP 110000


TTBB  61008 42667 00953 12603 11920 10821 22906 13226 33704
04699 44642 00085 55600 02399 66534 045// 77405 13982 88265
387// 99174 60562 11173 59362 22156 67361 33142 70760 44133
71367 55118 70560 66105 737// 77104 72358 21212 00953 05004
11897 36010 22874 33009 33841 24014 44800 23030 55732 23538
66469 29057 77437 30576 88425 30587 99388 29594 11152 25599
22143 26101 33126 28586 44105 27062 41414 ///// =

0000019700
570
UEIN90 VAAH 110000 COR
TTDD 61008 42647 11969 76357 22824 78356 33810 74757 44771 
74557 55725 75157 21212 11965 26556 22934 25557 33846 28064 
44804 28049 55777 26541 66725 26043=

0000020100
571
UEIN01 DEMS 110000 CCA
TTDD 61008 42647 11969 76357 22824 78356 33810 74757 44771
74557 55725 75157 21212 11965 26556 22934 25557 33846 28064
44804 28049 55777 26541 66725 26043=

00000000