0000069000
286
USAA01 NZCM 110000
TTAA 61001 89664
99997 00056 18501 00512 ///// ///// 92601 07158 18518
85255 11341 17017 70716 21114 15006 50514 33959 24513
40666 44759 24520 30855 51765 24023 25975 45585 24514
20124 43786 24513 15318 43586 26009 10592 41586 23504
88320 52361 23026
77999
31313 48008 82219=

0000069700
87361=
0000011200
87368=
0000015000
87382=
0000030600
87414
0000014800
87423
0000049900
87438
0000052000
87459
0000058200
87471=
0000050100
87587
0000062500
87647=
0000058500
88254
0000060600
88528=
0000069000
91319
0000079400
92694
0000075300
94462
0000083600
96638
0000062900
99259
0000071100
287
USAA01 NZCM 110000
TTAA 61001 89664
99997 00056 18501 00512 ///// ///// 92601 07158 18518
85255 11341 17017 70716 21114 15006 50514 33959 24513
40666 44759 24520 30855 51765 24023 25975 45585 24514
20124 43786 24513 15318 43586 26009 10592 41586 23504
88320 52361 23026
77999
31313 48008 82219=

0000069700
87361=
0000011200
87368=
0000015000
87382
0000012800
87386
0000045600
87406=
0000047800
87429
0000015700
87445
0000049900
87465
0000054100
87473
0000050000
87488
0000052100
87521
0000054200
87549
0000056300
87594=
0000062600
87907
0000056400
88084=
0000054500
89477
0000066900
90163=
0000067100
99258
0000064800
288
USAA01 NZCM 110000
TTAA 61001 89664
99997 00056 18501 00512 ///// ///// 92601 07158 18518
85255 11341 17017 70716 21114 15006 50514 33959 24513
40666 44759 24520 30855 51765 24023 25975 45585 24514
20124 43786 24513 15318 43586 26009 10592 41586 23504
88320 52361 23026
77999
31313 48008 82219=

0000069700
87361=
0000011200
87368
0000009600
87371
0000035800
87378
0000037300
87381=
0000039500
87413=
0000052000
87479
0000056200
87492
0000045900
87517
0000054200
87560=
0000060500
87886
0000060600
88053=
0000064800
89486
0000069000
90157=
0000077400
99260
0000071000
289
USAA01 NZCM 110000
TTAA 61001 89664
99997 00056 18501 00512 ///// ///// 92601 07158 18518
85255 11341 17017 70716 21114 15006 50514 33959 24513
40666 44759 24520 30855 51765 24023 25975 45585 24514
20124 43786 24513 15318 43586 26009 10592 41586 23504
88320 52361 23026
77999
31313 48008 82219=

0000069700
87361=
0000011200
87368
0000009600
87371
0000035800
87378
0000037300
87381
0000039400
87385
0000039400
87407
0000041500
87411
0000014600
87417
0000045700
87421
0000049900
87440=
0000052100
87535=
0000052200
87749
0000056400
87945=
0000058600
88944
0000060700
89496
0000058700
90186=
0000065100
99262
0000067000
290
USAA01 NZCM 110000
TTAA 61001 89664
99997 00056 18501 00512 ///// ///// 92601 07158 18518
85255 11341 17017 70716 21114 15006 50514 33959 24513
40666 44759 24520 30855 51765 24023 25975 45585 24514
20124 43786 24513 15318 43586 26009 10592 41586 23504
88320 52361 23026
77999
31313 48008 82219=

0000069700
87361=
0000011200
87368=
0000015000
87382
0000012800
87386
0000045600
87406=
0000047800
87429
0000015700
87445=
0000050000
87538=
0000054300
87731=
0000054400
88285
0000050300
88556=
0000064900
91374
0000062900
92739
0000073200
94570
0000071200
96706
0000067100
99263
0000085500
291
USAA01 NZCM 110000
TTAA 61001 89664
99997 00056 18501 00512 ///// ///// 92601 07158 18518
85255 11341 17017 70716 21114 15006 50514 33959 24513
40666 44759 24520 30855 51765 24023 25975 45585 24514
20124 43786 24513 15318 43586 26009 10592 41586 23504
88320 52361 23026
77999
31313 48008 82219=

0000069700
87361=
0000011200
87368
0000009600
87371
0000035800
87378
0000037300
87381
0000039400
87385
0000039400
87407=
0000012000
87430
0000054000
87439
0000049900
87460
0000047900
87470
0000052100
87487=
0000054300
87713
0000048100
87816
0000062600
88041
0000060600
88306
0000058600
88573
0000052400
89077
0000066900
89590
0000066900
90285
0000081400
91308
0000067000
92690
0000071200
94520
0000077400
96683
0000063000
99266
0000156900
292
SMLA01 VLIV 110000
AAXX 11001
48921 31208 81601 10135 20135 38654 48148 5//// 710// 886//
 333 20130 59004=
48924 31/01 90000 10155 20155 39541 40183 5//// 747//
 333 20125 58008=
48925 31/01 90000 10130 20126 39434 40190 5//// 747//
 333 20104 58011=
48926 31430 30000 10158 20151 39703 40176 5//// 710// 83600
 333 20150 58015=
48927 31450 80000 10128 20121 39186 48647 5//// 710// 888//
 333 20110 58000=
48928 31310 80000 10117 20111 39115 48594 5//// 710// 888//
 333 20115 59009=
48930 31/08 93601 10160 20151 39841 40201 52033 74744
 333 20150 58024=
48935 31/02 90000 10090 20084 39047 48525 52012 74544
 333 20086 58010=
48938 31/02 93201 10149 20149 39840 40186 52010 74544
 333 20149 58013=
48940 31920 33601 10168 20154 39968 40169 52007 71044 80001
 333 20167 58002=
48941 31650 22701 10138 20134 3//// 4//// 5//// 710// 82500
 333 20138 5////=
48944 31/01 90000 10108 20100 39537 40146 5//// 747//
 333 20103 58003=
48945 31940 10000 10152 20141 39998 40184 5//// 710// 80001
 333 20150 59004=
48946 31550 61801 10164 20162 39996 40167 5//// 710// 81810
 333 20164 59002=
48947 31520 20000 10160 20150 30014 40186 54000 71044 82500
 333 20160 58013=
48948 31957 20902 10150 20149 39968 40192 52008 71044 80001
 333 20150 59001=
48952 31550 20901 10170 20157 39950 40147 52012 71044 82500
 333 20170 58010=
48953 31440 20000 10130 20124 39965 40136 52015 71044 82101
 333 20125 58003=
48955 31950 43601 10189 20166 30041 40162 52021 71044 80002
 333 20181 58009=
48957 31559 30000 10185 20160 30053 40162 5//// 710// 82101
 333 20180 58028=
0000248400
293
SMPH01 RPMM 110000
AAXX 11001
98134 12465 40706 10210 20145 30030 40223 53020 60014
84200 333 20156 56299 58008 70014 84819=
98223 31458 20901 10208 20169 40176 52023 70540 81105
333 20168 56999 58014 81819=
98232 31570 71401 10235 20216 40201 53016 70542 82270
222// 29100 333 20230 56399 58018 82820 87358=
98325 NIL=
98328 31463 41804 10130 20113 38551 40170 53015 70544
82208 333 20103 50380 55010 56999 58007 82814 84279=
98330 31475 60404 10248 20230 30147 40179 53021 70544
81206 333 20220 56/// 58016 81818 86077 555 00064=
98336 NIL=
98429 31558 40202 10249 20189 40173 52022 70544 82801
333 20221 56999 58012 82823 84080=
98430 31558 70000 10229 20202 40169 52018 70544 82801
333 20205 56999 58010 82620 87080=
98431 31469 30902 10256 20241 30114 40161 51016 70544
8327/ 333 20214 56999 58004 83818 88459=
98440 31465 80705 10253 20217 30173 40178 53019 71544
8327/ 333 20240 56199 58008 83815 88358=
98444 11463 80406 10245 20213 30143 40162 53032 69984
78082 84377 333 20240 56899 58004 70008 82918 82820
87459 88270=
98526 32575 83601 10/// 20/// 40138 51017 82277 33303
20247 56999 58000 82820 83358 88274 98315=
98531 31568 70403 10260 20232 30127 40131 51009 70544
81248 333 20233 56199 58002 81820 87275=
98536 11470 70405 10232 20210 39948 40148 52017 69924
70542 83278 222// 20101 333 20230 56199 58007 70002
83818 84357 86270 0////=
98543 11470 80203 10255 20235 30121 40132 53020 69944
71682 84207 333 20238 56999 59004 70004 84818 88272=
98550 NIL=
98618 32580 32903 10255 20226 40136 53020 82201 333
20245 56999 58005 82820 83075=
98630 32470 80205 10274 20245 40108 5//// 8422/ 222//
2//03 333 20256 56199 59002 84818 88459=
98637 NIL=
98646 11560 80208 10254 20235 30104 40132 52024 60024
70262 8387/ 333 20230 56199 59005 70022 83820 88459
555 20002=
98653 11456 80406 10245 20238 30065 40110 52025 61034
76366 8322/ 333 20222 56199 59013 71032 83817 88456
555 20622=
98741 11465 80401 10250 20242 40118 52020 60254 78082
8292/ 33312 20240 56199 59003 70248 82917 88457 555
20034=
98747 NIL=
98753 11458 83602 10231 20223 40118 51024 60464 76166
82227 333 20226 55002 2//// 56999 59014 70462 82816
86459 88279=
98755 11420 80000 10231 20224 40122 50022 61454 76366
8452/ 333 20225 56299 59008 71445 84616 88457 555 20237=
98836 11458 80000 10249 20242 40120 52009 60024 76166
8262/ 333 20242 56999 58004 70030 82718 88462 555 20018=
0000064800
294
USAA01 NZCM 110000
TTAA 61001 89664
99997 00056 18501 00512 ///// ///// 92601 07158 18518
85255 11341 17017 70716 21114 15006 50514 33959 24513
40666 44759 24520 30855 51765 24023 25975 45585 24514
20124 43786 24513 15318 43586 26009 10592 41586 23504
88320 52361 23026
77999
31313 48008 82219=

0000069700
87361=
0000011200
87368
0000009600
87371
0000035800
87378
0000037300
87381=
0000039500
87413
0000041600
87422
0000043700
87443=
0000052100
87539
0000048000
87564=
0000056400
87880
0000062600
88056=
0000058600
89443
0000060800
90172=
0000083600
99265
0000069000
295
USAA01 NZCM 110000
TTAA 61001 89664
99997 00056 18501 00512 ///// ///// 92601 07158 18518
85255 11341 17017 70716 21114 15006 50514 33959 24513
40666 44759 24520 30855 51765 24023 25975 45585 24514
20124 43786 24513 15318 43586 26009 10592 41586 23504
88320 52361 23026
77999
31313 48008 82219=

0000069700
87361=
0000011200
87368=
0000015000
87382
0000012800
87386
0000045600
87406=
0000047800
87429
0000015700
87445
0000049900
87465
0000054100
87473
0000050000
87488
0000052100
87521=
0000054300
87728
0000066700
87829
0000062600
88054=
0000058600
89442
0000062800
90170=
0000062900
99264
0000075200
296
USAA01 NZCM 110000
TTAA 61001 89664
99997 00056 18501 00512 ///// ///// 92601 07158 18518
85255 11341 17017 70716 21114 15006 50514 33959 24513
40666 44759 24520 30855 51765 24023 25975 45585 24514
20124 43786 24513 15318 43586 26009 10592 41586 23504
88320 52361 23026
77999
31313 48008 82219=

0000069700
87361=
0000011200
87368
0000009600
87371
0000035800
87378
0000037300
87381=
0000039500
87413
0000041600
87422
0000043700
87443
0000045800
87466
0000054100
87469=
0000050100
87581=
0000046100
87909
0000058500
88097
0000058600
88370
0000068900
88614=
0000064900
91399
0000071200
92781
0000079400
94581
0000065000
96707
0000060800
99269
0000081400
297
USAA01 NZCM 110000
TTAA 61001 89664
99997 00056 18501 00512 ///// ///// 92601 07158 18518
85255 11341 17017 70716 21114 15006 50514 33959 24513
40666 44759 24520 30855 51765 24023 25975 45585 24514
20124 43786 24513 15318 43586 26009 10592 41586 23504
88320 52361 23026
77999
31313 48008 82219=

0000069700
87361=
0000011200
87368=
0000015000
87382
0000012800
87386
0000045600
87406
0000047700
87410
0000049800
87416
0000051900
87420
0000047800
87441
0000045800
87463
0000047900
87474=
0000054200
87591
0000060500
87658
0000058400
87768
0000056400
87954
0000066800
88127
0000054400
88402
0000056500
88635=
0000066900
91362
0000071100
92741
0000062900
94552
0000071200
96713
0000073300
99268
0000062700
298
USAA01 NZCM 110000
TTAA 61001 89664
99997 00056 18501 00512 ///// ///// 92601 07158 18518
85255 11341 17017 70716 21114 15006 50514 33959 24513
40666 44759 24520 30855 51765 24023 25975 45585 24514
20124 43786 24513 15318 43586 26009 10592 41586 23504
88320 52361 23026
77999
31313 48008 82219=

0000069700
87361=
0000011200
87368
0000009600
87371
0000035800
87378
0000037300
87381=
0000039500
87413
0000041600
87422=
0000043800
87504=
0000052200
87720
0000054300
87824
0000056400
88052=
0000060700
89454
0000062800
90182=
0000069200
99270
0000064900
299
USAA01 NZCM 110000
TTAA 61001 89664
99997 00056 18501 00512 ///// ///// 92601 07158 18518
85255 11341 17017 70716 21114 15006 50514 33959 24513
40666 44759 24520 30855 51765 24023 25975 45585 24514
20124 43786 24513 15318 43586 26009 10592 41586 23504
88320 52361 23026
77999
31313 48008 82219=

0000069700
87361=
0000011200
87368=
0000015000
87382
0000012800
87386
0000045600
87406=
0000047800
87429
0000015700
87445
0000049900
87465
0000054100
87473=
0000050100
87586=
0000062600
87905
0000062600
88086=
0000062700
89471
0000056600
90176=
0000079500
99267
0000058600
300
USAA01 NZCM 110000
TTAA 61001 89664
99997 00056 18501 00512 ///// ///// 92601 07158 18518
85255 11341 17017 70716 21114 15006 50514 33959 24513
40666 44759 24520 30855 51765 24023 25975 45585 24514
20124 43786 24513 15318 43586 26009 10592 41586 23504
88320 52361 23026
77999
31313 48008 82219=

0000069700
87361=
0000011200
87368=
0000015000
87382
0000012800
87386=
0000045700
87427=
0000045900
87505=
0000050100
87719
0000050200
87834
0000064700
88048=
0000064800
89465
0000066900
90184=
0000075300
99272
0000060700
301
USAA01 NZCM 110000
TTAA 61001 89664
99997 00056 18501 00512 ///// ///// 92601 07158 18518
85255 11341 17017 70716 21114 15006 50514 33959 24513
40666 44759 24520 30855 51765 24023 25975 45585 24514
20124 43786 24513 15318 43586 26009 10592 41586 23504
88320 52361 23026
77999
31313 48008 82219=

0000069700
87361=
0000011200
87368=
0000015000
87382
0000012800
87386=
0000045700
87427
0000045800
87444=
0000048000
87537=
0000058400
87748
0000054300
87941=
0000062700
88959
0000066900
89504
0000066900
90177=
0000071200
99274
0000071000
302
USAA01 NZCM 110000
TTAA 61001 89664
99997 00056 18501 00512 ///// ///// 92601 07158 18518
85255 11341 17017 70716 21114 15006 50514 33959 24513
40666 44759 24520 30855 51765 24023 25975 45585 24514
20124 43786 24513 15318 43586 26009 10592 41586 23504
88320 52361 23026
77999
31313 48008 82219=

0000069700
87361=
0000011200
87368
0000009600
87371
0000035800
87378
0000037300
87381
0000039400
87385
0000039400
87407
0000041500
87411
0000014600
87417=
0000041700
87480
0000060300
87494
0000052100
87511=
0000010400
87753
0000064700
87951=
0000052400
88958
0000060700
89511
0000069000
90219=
0000077400
99228
0000077200
303
USAA01 NZCM 110000
TTAA 61001 89664
99997 00056 18501 00512 ///// ///// 92601 07158 18518
85255 11341 17017 70716 21114 15006 50514 33959 24513
40666 44759 24520 30855 51765 24023 25975 45585 24514
20124 43786 24513 15318 43586 26009 10592 41586 23504
88320 52361 23026
77999
31313 48008 82219=

0000069700
87361=
0000011200
87368
0000009600
87371
0000035800
87378
0000037300
87381
0000039400
87385
0000039400
87407
0000041500
87411
0000014600
87417=
0000041700
87480
0000060300
87494=
0000052200
87704
0000054300
87832
0000060600
88034
0000062700
88311
0000056500
88571=
0000060800
91363
0000073200
92713
0000069100
94508
0000081500
96677
0000058800
99273
0000073100
304
USAA01 NZCM 110000
TTAA 61001 89664
99997 00056 18501 00512 ///// ///// 92601 07158 18518
85255 11341 17017 70716 21114 15006 50514 33959 24513
40666 44759 24520 30855 51765 24023 25975 45585 24514
20124 43786 24513 15318 43586 26009 10592 41586 23504
88320 52361 23026
77999
31313 48008 82219=

0000069700
87361=
0000011200
87368
0000009600
87371
0000035800
87378
0000037300
87381=
0000039500
87413
0000041600
87422=
0000043800
87504
0000052100
87527=
0000052200
87750
0000060500
87942
0000070900
88146
0000073000
88430
0000062700
88691=
0000058700
91372
0000064900
92721
0000073300
94475
0000083600
96625
0000058800
99275
0000060700
305
USAA01 NZCM 110000
TTAA 61001 89664
99997 00056 18501 00512 ///// ///// 92601 07158 18518
85255 11341 17017 70716 21114 15006 50514 33959 24513
40666 44759 24520 30855 51765 24023 25975 45585 24514
20124 43786 24513 15318 43586 26009 10592 41586 23504
88320 52361 23026
77999
31313 48008 82219=

0000069700
87361=
0000011200
87368=
0000015000
87382=
0000030600
87414
0000014800
87423
0000049900
87438=
0000050000
87532=
0000048100
87747
0000060500
87944=
0000058600
88979
0000060700
89570
0000062800
90179=
0000067100
99276
00000000