0000014900
496
FCUZ31 UTTW 110000
TAF UTFA 110000Z NIL=
TAF UTSK 102353Z 1101/1110 16005MPS CAVOK TEMPO 1101/1103 5000 BR=
TAF UTFF 110000Z NIL=
0000012300
497
SAAJ31 UBBB 110000
METAR UBBL 110000Z 00000KT 4000 BR SCT200 M02/M03 Q1021
R33/CLRD70 NOSIG RMK MT OBSC =
0000010700
498
SAJD31 OJAI 110000 RRA
METAR OJAI 110000Z 24004KT 3000 BR SCT200 05/04 Q1021 TEMPO 1000 FG=
0000013400
499
FCUZ31 UTTW 110000 RRA
TAF UTFA 110000Z 1101/1110 05004MPS 0600 FZFG VV002 TEMPO 1101/1105
VRB02MPS 0050 FZFG VV001=
0000013000
500
FCUZ31 UTTW 110000 RRB
TAF UTFF 110000Z 1101/1110 15004MPS 2000 BR NSC TEMPO 1101/1105
VRB02MPS 0400 FZFG VV001=
0000058500
501
USAA01 NZCM 110000
TTAA 61001 89664
99997 00056 18501 00512 ///// ///// 92601 07158 18518
85255 11341 17017 70716 21114 15006 50514 33959 24513
40666 44759 24520 30855 51765 24023 25975 45585 24514
20124 43786 24513 15318 43586 26009 10592 41586 23504
88320 52361 23026
77999
31313 48008 82219=

0000069700
87361=
0000011200
87368=
0000015000
87382=
0000030600
87414
0000014800
87423
0000049900
87438
0000052000
87459
0000058200
87471
0000050000
87489=
0000052200
87715
0000066700
87819=
0000056500
88889=
0000010400
502
SATR31 UTAA 110000 CCA
UTAA 110000Z 22003MPS 9999 FEW220 M01/M07 Q1021
12CLRD70 NOSIG=
0000091600
503
SAUZ31 UTTW 110000
METAR UTFN 110000Z VRB01MPS M0050 R28/M0050N FZFG VV000 M08/M09 Q1029
R28/CLRD70 NOSIG RMK QBB010=
METAR UTNN 110000Z 00000MPS 8000 BKN036 M05/M06 Q1020 R33/CLRD60
NOSIG=
METAR UTNU 110000Z 20002MPS 170V230 8000 NSC M03/M05 Q1020 R13/CLRD60
NOSIG=
METAR UTSA 110000Z 10005MPS 9000 NSC M01/M07 Q1023 R07/CLRD70 NOSIG=
METAR UTSB 110000Z 15003MPS 6000 NSC M02/M05 Q1023 R01/CLRD70 NOSIG=
METAR UTSK 110000Z 08003MPS 5000 BR NSC M03/M05 Q1023 R16/CLRD70=
METAR UTSS 110000Z 14005MPS 100V160 9999 BKN210 01/M13 Q1022
R88/CLRD70 NOSIG=
METAR UTST 110000Z 03002MPS 2400 BR NSC M04/M04 Q1027 R88/CLRD70
TEMPO 1500 BR=
METAR UTFA 102300Z 00000MPS M0050 R04/M0050N FZFG VV001 M07/M08 Q1030
R88/09//70=
METAR UTFF 102300Z 00000MPS 1700 BR SCT001 SCT100 M08/M08 Q1029 R18/
CLRD70 RMK QBB030=
METAR UTTT 110000Z 06002MPS CAVOK M04/M10 Q1024 R08L/CLRD70 NOSIG=
0000073000
504
USAA01 NZCM 110000
TTAA 61001 89664
99997 00056 18501 00512 ///// ///// 92601 07158 18518
85255 11341 17017 70716 21114 15006 50514 33959 24513
40666 44759 24520 30855 51765 24023 25975 45585 24514
20124 43786 24513 15318 43586 26009 10592 41586 23504
88320 52361 23026
77999
31313 48008 82219=

0000069700
87361=
0000011200
87368
0000009600
87371
0000035800
87378
0000037300
87381
0000039400
87385
0000039400
87407=
0000012000
87430=
0000054100
87500
0000056200
87510
0000050100
87551=
0000056400
87867
0000056400
88039
0000054400
88308
0000052400
88569
0000058600
89001
0000071000
89560
0000062800
90266
0000075200
91238
0000056400
505
USAA01 NZCM 110000
TTAA 61001 89664
99997 00056 18501 00512 ///// ///// 92601 07158 18518
85255 11341 17017 70716 21114 15006 50514 33959 24513
40666 44759 24520 30855 51765 24023 25975 45585 24514
20124 43786 24513 15318 43586 26009 10592 41586 23504
88320 52361 23026
77999
31313 48008 82219=

0000069700
87361=
0000011200
87368
0000009600
87371
0000035800
87378
0000037300
87381=
0000039500
87413
0000041600
87422=
0000043800
87504=
0000052200
87720
0000054300
87824=
0000064800
88911=
0000068900
506
USAA01 NZCM 110000
TTAA 61001 89664
99997 00056 18501 00512 ///// ///// 92601 07158 18518
85255 11341 17017 70716 21114 15006 50514 33959 24513
40666 44759 24520 30855 51765 24023 25975 45585 24514
20124 43786 24513 15318 43586 26009 10592 41586 23504
88320 52361 23026
77999
31313 48008 82219=

0000069700
87361=
0000011200
87368
0000009600
87371
0000035800
87378
0000037300
87381
0000039400
87385
0000039400
87407=
0000012000
87430=
0000054100
87500
0000056200
87510=
0000050200
87730=
0000056400
88303
0000060600
88577
0000056500
88999
0000077200
89577
0000064900
90272
0000075200
91250
0000064700
507
USAA01 NZCM 110000
TTAA 61001 89664
99997 00056 18501 00512 ///// ///// 92601 07158 18518
85255 11341 17017 70716 21114 15006 50514 33959 24513
40666 44759 24520 30855 51765 24023 25975 45585 24514
20124 43786 24513 15318 43586 26009 10592 41586 23504
88320 52361 23026
77999
31313 48008 82219=

0000069700
87361=
0000011200
87368=
0000015000
87382
0000012800
87386
0000045600
87406
0000047700
87410
0000049800
87416
0000051900
87420
0000047800
87441
0000045800
87463=
0000048000
87576
0000060400
87629
0000056300
87683
0000052200
87836=
0000060700
88879=
0000066800
508
USAA01 NZCM 110000
TTAA 61001 89664
99997 00056 18501 00512 ///// ///// 92601 07158 18518
85255 11341 17017 70716 21114 15006 50514 33959 24513
40666 44759 24520 30855 51765 24023 25975 45585 24514
20124 43786 24513 15318 43586 26009 10592 41586 23504
88320 52361 23026
77999
31313 48008 82219=

0000069700
87361=
0000011200
87368
0000009600
87371
0000035800
87378
0000037300
87381=
0000039500
87413
0000041600
87422
0000043700
87443
0000045800
87466
0000054100
87469=
0000050100
87581=
0000046100
87909=
0000052400
88938
0000060700
89565
0000069000
90262
0000006500
91240
0000062700
509
USAA01 NZCM 110000
TTAA 61001 89664
99997 00056 18501 00512 ///// ///// 92601 07158 18518
85255 11341 17017 70716 21114 15006 50514 33959 24513
40666 44759 24520 30855 51765 24023 25975 45585 24514
20124 43786 24513 15318 43586 26009 10592 41586 23504
88320 52361 23026
77999
31313 48008 82219=

0000069700
87361=
0000011200
87368=
0000015000
87382
0000012800
87386
0000045600
87406=
0000047800
87429
0000015700
87445
0000049900
87465
0000054100
87473
0000050000
87488
0000052100
87521=
0000054300
87728
0000066700
87829=
0000056500
88915=
0000054400
510
USAA01 NZCM 110000
TTAA 61001 89664
99997 00056 18501 00512 ///// ///// 92601 07158 18518
85255 11341 17017 70716 21114 15006 50514 33959 24513
40666 44759 24520 30855 51765 24023 25975 45585 24514
20124 43786 24513 15318 43586 26009 10592 41586 23504
88320 52361 23026
77999
31313 48008 82219=

0000069700
87361=
0000011200
87368=
0000015000
87382
0000012800
87386=
0000045700
87427
0000045800
87444=
0000048000
87537
0000058300
87569=
0000050200
87892=
0000058600
88918=
0000320100
511
SAWD01 OEJD 110300
METAR DAAG 110300Z 00000KT 9999 FEW030 SCT090 10/07 Q1017=
METAR DTTA 110300Z 00000KT 4000 BR SCT010 08/07 Q1018 NOSIG=
METAR EBBR 110250Z 20004KT 9999 BKN011 03/02 Q1016 NOSIG=
METAR EDDH 110250Z 22012KT 9999 BKN011 06/04 Q1012 NOSIG=
METAR EFHK 110250Z 33014KT 9999 BKN009 M03/M05 Q0996 BECMG BKN011=
METAR EGLL 110250Z 21007KT 9000 FEW034 BKN040 08/07 Q1012 NOSIG=
METAR EHAM 110255Z 21012KT 8000 SCT008 OVC011 06/04 Q1013 BECMG 7000=
METAR EIDW 110300Z 24012KT 9999 -RA SCT025 BKN040 BKN060 03/02 Q1012
     NOSIG=
METAR EKCH 110250Z 23010KT 9999 BKN015 BKN041 05/04 Q1007 NOSIG=
METAR ELLX 110250Z 08003KT 0800 R24/0400V0550N FG FEW002 01/01
    Q1016 NOSIG=
METAR ENFB 110250Z AUTO 08021KT 9999NDV -SHRA OVC012/// 03/01 Q0997
           W///S5=
METAR EPWA 110300Z 27016KT 9999 FEW040 05/01 Q1012 NOSIG=
METAR ESSA 110250Z 28004KT 3000 -SN VV011 M04/M05 Q1001 R01L/19//71
R08/19//58 R01R/19//68 BECMG 4000=
METAR ETBS 110300Z NIL=
METAR GMME 110300Z 20006KT 170V240 5000 SCT020 BKN100 14/11 Q1015
NOSIG=
METAR GQNN 110300Z 01005KT 8000 NSC 15/14 Q1015 NOSIG=
METAR HAAS 110300Z NIL=
METAR HCMM 110300Z NIL=
METAR HECA 110300Z 00000KT 2000 BR NSC 10/08 Q1023 NOSIG=
METAR HLLT 110250Z
17004KT CAVOK 09/05 Q1022=
METAR HSSS 110300Z 36013KT CAVOK 14/00 Q1017 NOSIG=
METAR KBOS 110254Z 13004KT 2SM BR BKN008 OVC014 01/00 A3032=
METAR KIAD 110252Z 01003KT 1 1/4SM -RA BR OVC009 02/01 A3020=
METAR KJFH 110300Z NIL=
METAR KWBS 110300Z NIL=
METAR LEMD 110300Z 09002KT CAVOK 07/06 Q1016 NOSIG=
METAR LFPO 110300Z VRB02KT 2000 -RA BR OVC003 06/05 Q1016 TEMPO
BKN002=
METAR LGAV 110250Z 24003KT CAVOK 07/05 Q1020 NOSIG=
METAR LIRF 110250Z 06003KT 5000 BR NSC 06/06 Q1022 NOSIG=
METAR LOWW 110250Z 17006KT CAVOK M02/M03 Q1020 NOSIG=
METAR LSGG 110250Z 00000KT CAVOK 01/00 Q1018 NOSIG=
METAR LTAC 110250Z 29004KT 4800 BR OVC007 M04/M05 Q1022 NOSIG=
METAR OAKB 110250Z 32005KT CAVOK M09/M14 Q1025 NOSIG RMK BLU+ BLU+=
METAR OBBI 110300Z 19006KT 8000 -RA SCT020 16/14 Q1019 TEMPO 5000=
METAR OJAM 110300Z 31007KT 5000 HZ BKN040 08/06 Q1020 TEMPO 3000 BR=
METAR OKBK 110300Z 17009KT 4000 BR NSC 11/10 Q1017 NOSIG=
METAR OLBA 110300Z 12004KT 8000 BKN023 12/08 Q1022=
METAR OMAA 110300Z 12008KT CAVOK 16/09 Q1019 A3010 NOSIG=
METAR OOMS 110250Z 00000KT CAVOK 14/10 Q1021 NOSIG=
METAR OPKC 110255Z 33007 6000 NSC 08/M04 Q1021 NOSIG=
METAR OPRN 110300Z 00000KT 1000 BR SKC 03/01 Q1021.0/30.15=
METAR ORBB 110300Z NIL=
METAR OSDI 110300Z 00000KT 0100 FG FEW030 M01/M02 Q1021=
METAR OTBD 110300Z 12014KT 8000 -RA FEW010 SCT100 OVC120 18/13 Q1020
NOSIG=
METAR OYAA 110300Z 13012KT 9999 FEW018 25/19 Q1016 NOSIG=
METAR OYSN 110300Z 20004KT CAVOK 09/04 Q1026=
METAR RKSS 110300Z 03002KT CAVOK 00/M19 Q1033 NOSIG=
METAR UUEE 110300Z NIL=
METAR VCBI 110310Z 05008KT CAVOK 26/21 Q1013 NOSIG=
METAR VGZR 110300Z NIL=
METAR VHHH 110300Z 08013KT CAVOK 20/09 Q1024 NOSIG=
METAR VIDP 110300Z NIL=
METAR WIIH 110300Z NIL=
METAR WMKK 110300Z 05001KT 9999 FEW018 SCT140 BKN280 28/24 Q1013
NOSIG=
METAR WSSS 110300Z 01007KT 310V060 9999 FEW018 BKN300 29/24 Q1012
NOSIG=
0000102200
512
SAAR20 OEJD 110300
METAR OBBI 110300Z 19006KT 8000 -RA SCT020 16/14 Q1019 TEMPO 5000=
METAR OKBK 110300Z 17009KT 4000 BR NSC 11/10 Q1017 NOSIG=
METAR OMAA 110300Z 12008KT CAVOK 16/09 Q1019 A3010 NOSIG=
METAR OMAD 110300Z 11004KT 070V130 CAVOK 17/09 Q1019 A3011 NOSIG=
METAR OMAL 110300Z 14007KT CAVOK 15/09 Q1020 A3014 NOSIG=
METAR OMDB 110300Z 05008KT CAVOK 18/10 Q1020 NOSIG=
METAR OMFJ 110300Z 30005KT 9999 SCT020 SCT100 16/10 Q1021 A3015=
METAR OMRK 110300Z 09007KT CAVOK 16/09 Q1020 A3014=
METAR OMSJ 110300Z 08007KT CAVOK 17/11 Q1020=
METAR OOBR 110300Z NIL=
METAR OOKB 110300Z NIL=
METAR OOMS 110250Z 00000KT CAVOK 14/10 Q1021 NOSIG=
METAR OOSA 110250Z 34001KT 9999 SCT025 21/16 Q1018
NOSIG  RMK01 RH72=
METAR OOSH 110300Z NIL=
METAR OOSQ 110300Z NIL=
METAR OOSR 110300Z NIL=
METAR OOTH 110300Z NIL=
METAR OOYB 110300Z NIL=
METAR OTBD 110300Z 12014KT 8000 -RA FEW010 SCT100 OVC120 18/13 Q1020
NOSIG=
METAR OYAA 110300Z 13012KT 9999 FEW018 25/19 Q1016 NOSIG=
0000008400
513
SAAR20 OEJD 110300 RRA
METAR OYSN 110300Z 20004KT CAVOK 09/04 Q1026=
0000042200
514
SAME31 OEJD 110300
METAR OJAI 110300Z 28006KT 3000 BR SCT200 07/06 Q1021 TEMPO 2000 FG=
METAR OJAM 110300Z 31007KT 5000 HZ BKN040 08/06 Q1020 TEMPO 3000 BR=
METAR OJAQ 110300Z 00000KT 9999 FEW030 11/09 Q1022 NOSIG=
METAR OLBA 110300Z 12004KT 8000 BKN023 12/08 Q1022=
METAR OSAP 110300Z NIL=
METAR OSDI 110300Z 00000KT 0100 FG FEW030 M01/M02 Q1021=
METAR OSLK 110300Z 06004KT CAVOK 03/M01 Q1021=
0000103300
515
SIAU21 AMMC 110300
AAXX 11034
94102 46/// /2513 10318 20279 30085 40094=
94103 46/// /2012 10295 30094 40099=
94120 46/// /2505 10308 20228 30040 40080=
94122 46/// /2206 10318 20252 30074 40082=
94131 46/// /1307 10328 20223 39924 40075=
94132 NIL=
94147 NIL=
94150 46/// /1111 10281 20248 30006 40065=
94151 46/// /0916 10291 20235 30057 4////=
94170 46/// /0313 10267 20250 30052 40074=
94200 NIL=
94203 46/// /3008 10323 20248 30088 40098=
94206 46/// /2606 10385 20178 39954 40082=
94207 46/// /3109 10295 30087 40095 51004=
94211 NIL=
94212 46/// /1705 10380 20136 39612 40075=
94216 46/// /1103 10350 20227 30034 40084=
94236 NIL=
94238 46/// /1409 10366 20120 39667 40081=
94248 46/// /1011 10293 20246 30067 40081=
94255 46/// /1008 10378 20150 39818 40074=
94268 46/// /0707 10312 20238 30072 40084=
94287 46/// /1715 10277 20209 30098 40107=
94290 NIL=
94294 46/// /1015 10302 20214 30106 40116=
94296 NIL=
94298 46/// /1119 10275 30105 40111 58011=

00000000