0000054100
199
UDAS02 BABJ 110053
AMDAR 1100
DES CNFPXL 3144N 11841E 110048 F025 MS003 092/019 TB/ S//1=
DES CNFPXL 3141N 11840E 110049 F016 PS001 085/022 TB/ S//1=
DES CNFPXL 3139N 11841E 110050 F015 PS005 069/013 TB/ S//1=
DES CNFPXL 3139N 11842E 110050 F015 PS008 086/013 TB/ S//1=
DES CNFPYN 2816N 11425E 110050 F217 MS185 262/069 TB/ S//1=
DES CNFPYN 2816N 11419E 110051 F187 MS133 263/057 TB/ S//1=
DES CNFPYN 2816N 11417E 110051 F179 MS158 263/047 TB/ S//1=
DES CNFPYN 2816N 11413E 110052 F161 MS136 263/030 TB/ S//1=
0000097500
200
UDAS02 BABJ 110055
AMDAR 1100
DES CNFNXP 3131N 12034E 110051 F130 MS096 261/041 TB/ S//1=
DES CNFNXP 3129N 12041E 110052 F118 MS073 261/046 TB/ S//1=
DES CNFNXP 3127N 12046E 110052 F108 MS065 258/042 TB/ S//1=
DES CNFNXP 3127N 12047E 110053 F106 MS060 256/041 TB/ S//1=
DES CNFPTK 3916N 11717E 110050 F012 MS004 230/010 TB/ S//1=
DES CNFPTK 3915N 11716E 110051 F012 MS005 241/004 TB/ S//1=
DES CNFPTK 3913N 11717E 110052 F012 MS008 252/011 TB/ S//1=
DES CNFPTK 3911N 11719E 110053 F005 MS010 267/007 TB/ S//1=
LVR CNFNXM 2617N 10517E 110044 F351 MS436 260/118 TB/ S//1=
LVR CNFNXM 2613N 10547E 110047 F351 MS435 257/113 TB/ S//1=
LVR CNFNXM 2619N 10617E 110050 F351 MS438 256/112 TB/ S//1=
LVR CNFNXM 2628N 10646E 110053 F351 MS443 255/112 TB/ S//1=
DES CNFPXL 3141N 11844E 110051 F015 PS010 087/015 TB/ S//1=
DES CNFPXL 3142N 11847E 110052 F010 PS003 090/016 TB/ S//1=
DES CNFPXL 3143N 11849E 110053 F002 PS013 060/013 TB/ S//1=
0000009200
201
SPIN90 VEAT 110100
SPECI VEAT 110100Z 00000KT 0500 FG NSC 08/08 Q1015 NOSIG=
0000037000
202
UGHK20 VHHH 110000
PPBB 11008 45004
21212 00017 12501 11969 06505 22950 08507 33934 12005 44764
17505 55736 27002 66719 26505 77710 27507 88700 25505 99686
28007 11672 26008 22660 27509 33610 27516 44582 25516 55531
26014 66504 27022 77472 26028 88379 25529 99237 24527 11200
25529 22182 24532 33161 23031 44141 25024 55120 22023 66100
23016=
0000050600
203
UQHK20 VHHH 110000
PPDD 11008 45004
21212 11960 23016 22904 27511 33880 28009 44867 26508 55838
24011 66757 26014 77728 28514 88712 29011 99682 26011 11662
26508 22650 24005 33643 22506 44625 21507 55611 23506 66592
21007 77561 22009 88542 27508 99526 27507 11501 31005 22481
00000 33416 22006 44405 25506 55397 31006 66376 03006 77362
02006 88327 07510 99301 09009 11280 10022 22268 11019 33250
09519 44205 12012 55199 10016 66182 10521 77172 10019 88158
12017 99135 10017=
0000048100
204
SATS40 DTTA 110100
METAR DTKA NIL=
METAR DTMB 110100Z 15005KT CAVOK 11/07 Q1019 NOSIG=
METAR DTNH 110100Z 22007KT CAVOK 08/06 Q1019=
METAR DTTA 110100Z 00000KT 7000 R19/0800VP2000D R11/0800VP2000D
 SCT026 08/07 Q1018 NOSIG=
METAR DTTF 110100Z 21002KT CAVOK 09/04 Q1021 NOSIG=
METAR DTTJ 110100Z 18004KT 8000 NSC 12/09 Q1020 NOSIG=
METAR DTTR NIL=
METAR DTTX 110100Z 21004KT CAVOK 11/06 Q1021 NOSIG=
METAR DTTZ 110100Z 28003KT 9999 FEW030 10/04 Q1021 NOSIG=
0000024400
205
SNVD22 KWNB 110100 RRG
BBXX
46029 11011 99462 71245 46/// /1814 10097 20094 40108 58047 90050
22200 00093 11511 20605 327// 41510 70056 333 91219 555 11151
22161 32350 41719 60049 181140 180138 181134 180130 179126 180125=
0000172500
206
SNVD15 KWNB 110100 RRC
BBXX
42003 11011 99260 70856 46/// /0904 10240 40166 53004 90050 22200
00242 10702 20401 311// 40702 70010 333 91205 555 11039 22041
30023 41405 60049 085037 094031 134042 137038 128041 130044 81305
92355=
42055 11011 99222 70940 46/// /1304 10235 40127 53004 90050 22200
00229 10902 20401 306// 40902 70011 333 91205 555 11046 22052
30033 41306 60049 134043 134051 132049 131043 137033 134037 81305
90030=
42057 11011 99170 70815 46/// /0709 10274 20229 40144 53011 90050
22200 00274 10704 20704 311// 40902 70022 333 91212 555 11098
22105 30001 40812 60049 074092 075092 075089 077091 078097 075096
80811 90002=
41047 11011 99275 70715 46/// /1109 10243 20232 40247 53011 90050
22200 00255 10805 20603 307// 40803 70023 333 91210 555 11091
22096 32350 41110 60049 108085 108087 113086 111083 108079 109086
81109 90049=
42039 11011 99288 70860 46/// /1405 10214 20214 40175 53005 90050
22200 00212 10501 20401 3//// 40501 70006 333 91205 555 11048
22052 30024 41406 60049 143045 142048 140049 140048 142047 139046
81405 90032=
41040 11011 99145 70530 46/// /0710 10254 20205 40159 51020 90050
22200 00262 10806 20805 307// 41004 70031 333 91211 555 11105
22111 32353 40713 60049 072097 074095 068096 066088 061093 066101
80711 92353=
44066 11011 99396 70726 46/// /1705 10119 20108 40269 58005 90050
22200 00109 10502 20501 316// 41001 70008 333 91205 555 11052
22059 60049 166047 166049 167050 163042 159041 157039=
41048 11011 99320 70695 46/// /1108 10201 20141 40290 51007 90050
22200 00213 10804 20803 310// 40902 70018 333 91210 555 11089
22094 30024 41010 60049 111084 104083 103086 102082 111080 108081
81009 90024=
0000062600
207
SNVD17 KWNB 110100 RRC
BBXX
46061 11011 99602 71468 46/// /3406 10013 49928 90050 22200 00052
333 91207 555 11057 22059 32350 43307 60049 336056 339053 334054
335047 347041 350040=
46066 11011 99528 71550 46/// /2205 10046 40002 56014 90050 22200
00054 11105 20401 326// 41105 70026 333 91207 555 11054 22056
30047 42307 60049 222051 218049 207043 222047 217042 224043 82206
90035=
46078 11011 99560 71526 46/// /2607 10039 20006 49975 56012 90050
22200 00045 11004 20602 323// 41004 70022 333 91208 555 11069
22073 30007 42709 60049 262066 266069 266068 263066 269069 263068
82708 90001=
0000049500
208
SNVF11 BIRK 110100
BBXX
TFBLK 11014 99657 70248 46/// ///// 22200 10907 70033=
TFGRS 11014 99663 70182 46/// ///// 22200 10605 70024=
TFGRV 11014 99638 70225 46/// ///// 22200 10906 70028=
TFGSK 11014 99641 70229 46/// ///// 22200 10907 70036=
TFHFN 11014 99642 70152 46/// ///// 22200 10707 70035=
TFKGR 11014 99657 70136 46/// ///// 22200 10811 70053=
TFSRT 11014 99633 70203 46/// ///// 22200 10909 70045=
TFSTD 11014 99664 70234 46/// ///// 22200 10707 70033=
0000052900
209
SATS32 DTTA 110100
METAR DTKA NIL=
METAR DTMB 110100Z 15005KT CAVOK 11/07 Q1019 NOSIG=
METAR DTNH 110100Z 22007KT CAVOK 08/06 Q1019=
METAR DTTA 110100Z 00000KT 7000 R19/0800VP2000D R11/0800VP2000D
 SCT026 08/07 Q1018 NOSIG=
METAR DTTF 110100Z 21002KT CAVOK 09/04 Q1021 NOSIG=
METAR DTTG 110100Z 18007KT 8000 NSC 09/05 Q1021 NOSIG=
METAR DTTJ 110100Z 18004KT 8000 NSC 12/09 Q1020 NOSIG=
METAR DTTX 110100Z 21004KT CAVOK 11/06 Q1021 NOSIG=
METAR DTTZ 110100Z 28003KT 9999 FEW030 10/04 Q1021 NOSIG=
0000025000
210
SATS41 DTTA 110100
METAR DTTB NIL=
METAR DTTD NIL=
METAR DTTG 110100Z 18007KT 8000 NSC 09/05 Q1021 NOSIG=
METAR DTTK 110100Z 22003KT 150V260 CAVOK 11/05 Q1019=
METAR DTTL NIL=
METAR DTTN 110100Z 00000KT 8000 NSC 07/07 Q1019=
0000013100
211
SATS40 DTTA 110100 RRA
METAR DTTA 110100Z 00000KT 7000 R19/0800VP2000D R11/0800VP2000D
 SCT026 08/07 Q1018 NOSIG=
0000180800
212
USSP01 LEMM 110000
TTAA 61001 08001 99009 09423 14002 00141 09425 06004 92783 05660
02004 85471 03275 36002 70025 04720 34503 50560 20358 25511 40721
33532 24522 30916 48540 25029 25034 57743 22523 20172 59365 27524
15354 54982 26516 10614 54782 25017 88211 63959 25024 77999 31313
48008 82316=
TTAA 61001 08023 99011 11811 24006 00147 11423 26011 92794 07010
31508 85485 02401 28007 70048 03756 23026 50561 21770 23031 40722
33370 24038 30917 49361 25526 25034 57938 01513 20173 60371 23519
15356 55580 23030 10616 54783 23520 88229 62158 35011 77999 31313
48008 82352=
TTAA 61001 08160 99988 06605 08001 00154 ///// ///// 92795 05600
09006 85499 09460 15506 70078 01159 17514 50567 18950 19525 40729
31732 20525 30925 49549 21032 25042 57356 21056 20181 61171 21546
15363 55181 21033 10624 55583 28509 88208 61966 22057 77227 21567
42725 31313 48108 82315=
TTAA 1100/ 08190 NIL=
TTAA 61001 08221 99943 09850 14004 00138 ///// ///// 92791 08856
15509 85487 06258 02508 70057 02179 04010 50564 20338 20012 40725
32939 19016 30920 50947 18529 25036 61345 19047 20176 58581 18532
15359 56182 19027 10620 553// 24510 88250 61345 19047 77999 31313
48108 82315=
TTAA 61001 08302 99013 10416 33003 00145 13228 03507 92799 10858
17013 85502 08861 18012 70088 01272 20019 50569 19525 20033 40731
31522 22033 30928 46165 22047 25047 56543 21554 20186 61561 22547
15366 58977 21544 10622 57582 22021 88225 61928 22054 77142 22560
42635 31313 48108 82315=
TTAA 61001 08430 99011 11430 04002 00154 11425 07003 92801 06803
07008 85500 09862 21510 70079 02333 19026 50567 19157 20030 40728
33156 20036 30924 47157 20061 25042 56550 20556 20182 61963 21052
15363 58581 21036 10622 56582 25523 88212 62160 20555 77314 20564
41804 31313 48008 82309=
0000021100
213
SATS42 DTTA 110100
METAR DTTB NIL=
METAR DTTD NIL=
METAR DTTK 110100Z 22003KT 150V260 CAVOK 11/05 Q1019=
METAR DTTL NIL=
METAR DTTN 110100Z 00000KT 8000 NSC 07/07 Q1019=
METAR DTTR NIL=
0000011000
214
UANT99 KDDL 110103
ARP DLH409 5019N04355W 0103 F370 MS55 309/46 KT
DAIGW QXT AOW 110103 J91A
0000018300
215
SMST01 EGRR 110000 RRB
AAXX 11004
88900 45/// /0609 10041 20031 39938 49940 58015 333 10055 20014=
88903 42/// /1301 10012 21004 39940 49940 56017 333 10022 20002=
0000014600
216
SMUK01 EGRR 100600 CCB
AAXX 10064
03894 11382 42210 10085 20071 40164 58004 69952 70381
82831
  333 20068 31002 81708 83358=
0000011000
217
UANT99 KDDL 110103
ARP AFR023 4700N03959W 0103 F380 MS49 272/33 KT
FGSPV QXT AOE 110103 F26A
0000094800
218
SMCN04 KWBC 110000
AAXX 11004
71014 45/// /2402 11035 21055 6///1 333 7////=
71065 15/// ///// 11042 21069 60001 333 11030 21180 70000=
71249 15/// /2608 11057 21069 60001 333 11024 21162 70000=
71346 15/// /0103 11008 21058 60001 333 10050 21037 70000=
71360 15/// ///// 11051 21068 60001 333 11047 21146 70000=
71380 15/// /2205 11058 21078 60001 333 10005 21150 70004=
71413 15/// ///// 11072 21081 60001 333 11043 21153 70000=
71440 15/// ///// 11042 21068 60001 333 11014 21073 70000=
71498 15/// /3006 11073 21109 60001 333 11030 21093 70000=
71540 15/// /0302 11029 21038 60001 333 11019 21166 70000=
71544 15/// ///// 11035 21076 60001 333 11004 21081 70000=
71548 15/// ///// 11048 21084 60001 333 11021 21078 70000=
71674 15/// ///// 11031 21055 60001 333 11004 21119 7////=
71857 15/// ///// 11086 21093 60001 333 11059 21154 70000=
71904 15/// ///// 11024 21037 60001 333 11011 21119 70000=
00000000