0000010400
643
SMIN90 VICH 111200
AAXX 11124
42101 32996 00000 10156 20090 40189
  333 10191 58033=
0000023400
644
SAJD20 OJAI 110300
METAR OJAI 110300Z 28006KT 3000 BR SCT200 07/06 Q1021 TEMPO 2000 FG=
METAR OJAM 110300Z 31007KT 5000 HZ BKN040 08/06 Q1020 TEMPO 3000 BR=
METAR OJAQ 110300Z 00000KT 9999 FEW030 11/09 Q1022 NOSIG=
0000011600
645
SAQT31 OTBD 110300 CCA
METAR OTBD 110300Z 12014KT 8000 -RA FEW010 SCT100 OVC120 18/13 Q1020
NOSIG=
0000011600
646
SABN31 OBBI 110300 CCA
METAR OTBD 110300Z 12014KT 8000 -RA FEW010 SCT100 OVC120 18/13 Q1020
NOSIG=
0000023400
647
SAJD20 OJAM 110300
METAR OJAI 110300Z 28006KT 3000 BR SCT200 07/06 Q1021 TEMPO 2000 FG=
METAR OJAM 110300Z 31007KT 5000 HZ BKN040 08/06 Q1020 TEMPO 3000 BR=
METAR OJAQ 110300Z 00000KT 9999 FEW030 11/09 Q1022 NOSIG=
0000019200
648
ULAK01 KWBC 110100 RRA
TTCC 61011 70350 70817 47984 29549 50040 46186 30548 30379 45986
31562 20650 41789 32064 10120 35593 33095 88999 77106 33598 41513
31313 51108 80034=
0000017400
649
UEAK01 KWBC 110100 RRA
TTDD 6101/ 70350 11981 45986 22372 47785 33192 40790 44148 42389
55137 45986 66106 36393 77084 34394 88082 34594 31313 51108
80034=
0000030300
650
SICU01 KWBC 110300
AAXX 11031
78224 41959 01501 10192 20183 30110 40185 51014 70544=
78229 32559 20803 10239 20215 30119 40195 52020 82202 333 82830=
78255 42559 20704 10197 20180 30046 40195 52010 82801 333 81820=
78264 32560 23502 10224 20195 30105 40181 52010 82200 333 82820=
0000370800
651
SIMX01 KWBC 110300
AAXX 11031
76040 32920 01101 10155 20092 30167 40181 52010 90250 333 30///
58027 98620=
76113 32970 03601 10150 21031 39686 40140 57004 90240 333 30///
58020=
76160 32958 02702 10196 21003 39916 40163 52020 90240 333 30///
58///=
76220 32920 00302 10050 2//// 38154 40143 52025 90240 333 30///
58019=
76225 32920 03401 10118 20002 38609 40086 5//// 90240 333 30///
58022=
76323 32950 23601 10072 20044 38291 40204 52012 80002 90240 333
30/// 56005 58022 82268=
76382 32960 42901 10156 20105 38901 40127 52024 80001 90245 333
30/// 56007 58030 84076=
76390 31950 02703 10069 21012 38228 40117 52018 70544 90248 333
30/// 58007=
76393 31910 00501 10188 20147 39560 40124 52028 70544 90250 333
30/// 59018 91105 91401=
76405 32940 00102 10186 20141 30142 40163 52015 90250 333 30///
58016=
76412 32960 01501 10166 20112 30121 40167 52018 90250 333 30///
58009=
76458 32960 13102 10213 20150 30131 40135 52009 80004 90245 333
30/// 56//9 58001 81357=
76499 31956 00000 10207 20175 30082 40104 52019 70200 90243 333
30/// 59///=
76548 32860 62901 10198 20186 30129 40139 52027 86030 90245 333
30/// 56050 59057 86357=
76581 32960 00301 10184 20153 39042 40127 52024 90250 333 30///
59044=
76593 32950 01404 10238 20227 30148 40150 52021 90250 333 30///
59048=
76634 31570 61401 10134 20067 37854 40117 52017 70542 86400 90250
333 30/// 565// 59009 86634=
76640 31210 70000 10206 20194 30129 40140 52012 70311 8422/ 90240
333 30/// 5655/ 59044 84805 83440=
76647 32965 01202 10233 20227 30134 40164 52014 90250 333 31///
59040=
76654 31956 00000 10251 20206 30132 40136 52018 70544 90250 333
30/// 58003=
76658 31558 22701 10229 20198 39645 40141 52023 70540 81550 90250
333 30/// 58002 81622 81356 98914=
76662 32660 52101 10186 20087 38465 40111 52023 85400 90245 333
30/// 56/00 59006 85633=
76680 31558 30201 10150 20066 37752 40098 52018 70540 82021 90255
333 30/// 56055 59008 82458=
76683 32965 00000 10150 20069 37826 40113 51019 90245 333 30///
59010=
76687 31560 32201 10150 20142 38667 40124 52012 70211 83400 90245
333 30/// 563// 59033 81820 82618=
76692 31920 01302 10225 20202 30115 40134 52024 71040 90245 333
30/// 59054=
76695 32956 00000 10218 20212 30136 40142 52016 90250 333 30///
59038=
76726 32968 13201 10214 20111 38388 40067 52009 81400 90240 333
30/// 56500 59010 81610=
76743 31940 00400 10225 20211 30127 40134 52013 70000 90250 333
30/// 59051=
76750 32558 30902 10235 20220 30143 40153 52012 82130 90245 333
30/// 56330 59023 82820=
76775 32960 02101 10206 20117 38513 40130 52031 90245 333 30///
59018=
76833 32958 03601 10246 2//// 30119 40121 52026 90245 333 30///
58/// 92000=
76840 32810 20000 10258 20224 30067 40122 52028 82030 90245 333
30/// 56/9/ 58/// 82358=
76843 32965 02702 10223 20185 39477 40106 52030 90245 333 30///
59034=
76855 32980 03302 10248 20205 30064 40113 52016 90245 333 30///
59011 92001=
76305 32970 00000 10178 20106 30161 40169 52018 90245 333 30///
58016=
76539 32958 03001 10128 20109 38150 40107 52021 90250 333 30///
59005=
76556 32960 01502 10179 20134 39122 40126 52023 90248 333 30///
59001=
76612 32860 30000 10137 20071 38474 40120 52021 83030 90250 333
30/// 56050 59003 83358=
76632 31847 31401 10140 20082 37697 40091 52006 70311 83080 90245
333 30/// 56050 59004 83359=
76644 32450 60303 10250 20219 30131 40144 52013 83520 90250 333
30/// 5610/ 59052 83610 83420 91005 91503=
76737 32980 00000 10167 20145 38762 40116 52019 90245 333 30///
59030 91101 91534=
76845 32930 00000 10134 20128 37949 40162 51018 90245 333 30///
59016=
0000011000
652
SAIN90 VEGY 110300
METAR VEGY 110300Z 00000KT 0400 RA FEW010 BKN018 OVC080 15/14 Q1019 NOSIG=

0000008800
653
SAIN90 VAID 110300
METAR VAID 110300Z 00000KT 0050 FG VV/// 11/11 Q1018=
0000009600
654
SAIN90 VIAR 110300
METAR VIAR 110300Z VRB00KT 1000 R34/1600D BR NSC 02/02 Q1019=
0000013000
655
SIIN90 VAAK 110300
AAXX 11034
42933 32997 52903 10165 20073 40162 80008
  333 20151 58015 85270
  555 10000=
0000057500
656
SIER20 OMAE 110300
AAXX 11034
41184 42960 30907 10164 20085 40205 80001 333 59015 83070=
41194 42960 70508 10179 20101 30203 40208 87020 333 59007 87466=
41196 42960 30807 10169 20106 30169 40210 83030 333 59008 83365=
41198 42560 43005 10155 20103 40213 84530 333 59001 83620 84360=
41200 42960 61305 10142 20103 30160 40212 8603/ 333 59004 86368=
41216 42960 71104 10166 20089 30194 40199 8703/ 333 59006 87368=
41217 42960 61208 10164 20087 30164 40194 86070 333 59007 84366=
41218 42960 51407 10153 20093 39892 40206 8503/ 333 59001 85365=
0000069400
657
SIVD19 KWNB 110300 RRA
BBXX
46126 11031 99540 71666 46/// /1905 10046 49841 90236 22200 00046
1//00 70001 333 91206 555 11055 22060=
46126 11031 99540 71666 46/// /1905 10046 49841 90240 22200 00046
1//00 70001 333 91206 555 11055 22060=
46126 11031 99540 71666 46/// /2005 10046 49841 90242 22200 00046
1//00 70001 333 91206 555 11051 22056=
46126 11031 99540 71666 46/// /2005 10044 49837 90245 22200 00046
1//00 70001 333 91206 555 11051 22056=
46078 11031 99560 71526 46/// /2406 10037 20004 49971 57005 90250
22200 00044 11005 20501 323// 41004 70023 333 91208 555 11062
22065 30151 42608 60249 240060 245062 251062 250062 254060 256065
82507 90223=
0000022600
658
SIVD20 KWNB 110300 RRD
BBXX
44013 11031 99423 70707 46/// /1602 10034 20034 40272 58013 90250
22200 00046 10401 70003 333 91203 555 11025 22025 30213 41804
60249 158024 170026 181029 183034 190036 190033=
0000024400
659
SIVD15 KWNB 110300 RRC
BBXX
41009 11031 99285 70802 46/// /1804 10242 20213 40209 51011 90250
22200 00242 10904 20401 308// 40904 70021 333 91205 555 11041
22044 30150 41805 60249 177039 173039 174039 177038 175038 174041=
0000024400
660
SIVD17 KWNB 110300 RRE
BBXX
51101 11031 99243 71621 46/// /0514 10221 20186 40150 55009 90250
22200 00237 11109 20605 303// 41108 70047 333 91218 555 11152
22162 30242 40518 60249 047142 049129 048133 049137 043131 048136=
0000066100
661
UDAF01 FAPR 110303
AMDAR 1103
LVR AFZA06 0822S 05021E 110213 F330 MS380 095/018 TB0 S031 333 F/// VG000=
LVR AFZA06 0748S 05105E 110221 F330 MS380 124/022 TB0 S031 333 F/// VG000=
LVR AFZA06 0718S 05153E 110228 F330 MS382 141/015 TB0 S031 333 F/// VG000=
LVR AFZA06 0646S 05240E 110235 F330 MS385 133/016 TB0 S031 333 F/// VG000=
LVR AFZA06 0611S 05325E 110243 F330 MS390 138/023 TB0 S031 333 F/// VG000=
LVR AFZA06 0536S 05409E 110250 F330 MS390 131/018 TB0 S031 333 F/// VG000=
LVR AFZA06 0455S 05449E 110257 F330 MS392 124/030 TB0 S031 333 F/// VG000=
LVR AFZA06 0411S 05524E 110304 F330 MS391 113/030 TB0 S031 333 F/// VG000=
0000013300
662
SIBD20 WBSB 110300
AAXX 11034
96315 42470 71102 10294 20240 40135 82968
333 82815 81916 83364 85278=
96323 NIL=
00000000