0000014600
576
SIVD20 KWNB 110300 RRI
BBXX
44040 11031 99410 70736 46/// /0402 10014 20014 90245 22200 1//00
70001 333 91203 555 11031 22036=
0000095400
577
SIVS01 KWBC 110300
AAXX 11031
48806 32460 80000 10158 20138 39444 40230 51013 888// 333 59002
85894 88696=
48808 41420 80000 10128 20124 39951 40245 50023 76066 888// 333
59005 84894 88696 96010 96160=
48826 31530 80000 10190 20170 30092 40229 52017 71022 888// 333
59013 85895 88697=
48830 31420 83602 10126 20110 39926 40245 51018 71022 888// 333
59010 83894 88697=
48839 32997 70703 10227 20197 30158 40224 51014 80008 333 59007
87299=
48840 32498 80000 10190 20152 30211 40217 52011 888// 333 59016
83894 88696=
48845 32498 83601 10191 20162 30212 40219 52013 888// 333 59017
85894 88697=
48870 41470 73402 10246 20208 30177 40184 51004 70262 878// 333
59005 83894 87696=
48877 32570 73605 10261 20199 30174 40179 51008 878// 333 59004
82895 85697=
48887 32772 61602 10276 20196 30145 40151 50009 865// 333 58005
86697=
48920 32998 63605 10272 20246 30140 40143 50004 80008 333 58008
86299=
0000010600
578
SMCI01 KWBC 101800
AAXX 10181
55578 32/// 90000 11056 21221 36349 52015 333 00101 10071=
0000012600
579
SITH40 VTBB 110300 RRA
AAXX 11034
48465 31956 30212 10276 20189 30163 40167 51018 70500 80005
  333 58009=
0000179300
580
SZPS01 AMMC 110315
CREX++
T000103 A001 D01021 D06025++
-0204190 14737360 56130 2014 01 11 03 08 3027 11 07 00 01
01142 0112 01147 0116 01148 0116 01150 0117 01153 0119 01152 0117+
-0669280 15640860 56363 2014 01 11 03 08 //// 11 07 00 01
01083 -0065 01088 -0058 01087 -0059 01087 -0057 01092 -0051 01092 -0050+
-0942890 15995560 56670 2014 01 11 03 08 3040 11 07 00 01
00965 -0038 00967 -0035 00961 -0041 00964 -0037 00962 -0038 00959 -0041+
-1072080 16580190 57131 2014 01 11 03 08 //// 11 07 00 01
03380 2226 03380 2227 03380 2228 03380 2230 03380 2230 03380 2232+
-1551560 16718860 57210 2014 01 11 03 08 //// 11 07 00 01
01356 -0116 01355 -0116 01357 -0114 01379 -0091 01343 -0126 01372 -0097+
-1775690 16830030 57320 2014 01 11 03 08 3015 11 07 00 01
01337 -0038 01334 -0042 01329 -0047 01326 -0050 01323 -0053 01319 -0057+
-4397330 16861610 65180 2014 01 11 03 08 2885 11 07 00 01
01278 0386 01288 0393 01293 0395 01293 0391 01287 0381 01298 0388+
-2120470 -15978530 65980 2014 01 11 03 08 3013 11 07 00 01
00911 0022 00938 0049 00946 0057 00925 0036 00932 0043 00913 0025+
-2113810 -17518140 66600 2014 01 11 03 08 //// 11 07 00 01
01695 0096 01696 0097 01702 0103 01692 0093 01700 0101 01698 0100+
-1382670 -17176110 66840 2014 01 11 03 08 3010 11 07 00 01
01256 0086 01258 0089 01255 0087 01261 0094 01263 0097 01254 0090+
-1813250 17842750 67050 2014 01 11 03 08 3033 11 07 00 01
01925 0116 01922 0113 01919 0110 01929 0120 01921 0112 01909 0100+
-1760530 17743810 67070 2014 01 11 03 08 3033 11 07 00 01
02033 0045 02032 0044 02034 0046 02035 0047 02038 0051 ///// ////+
-0850250 17919500 67440 2014 01 11 03 08 3030 11 07 00 01
02565 -0010 02568 -0005 02562 -0009 02565 -0004 02563 -0005 02557 -0009++
7777

0000034100
581
SZIO01 AMMC 110315
CREX++
T000103 A001 D01021 D06025++
-1211670 09689190 46280 2014 01 11 03 08 3002 11 07 00 01
00848 0054 00850 0054 00851 0053 00855 0054 00861 0058 00858 0053+
-1042940 10566940 46290 2014 01 11 03 08 //// 11 07 00 01
00875 0055 00862 0041 00856 0033 00870 0046 00896 0071 00858 0031++
7777

0000191400
582
SZAU01 AMMC 110315
CREX++
T000103 A001 D01021 D06025++
-1927750 14705860 59260 2014 01 11 03 08 3028 11 07 00 01
01360 0192 01351 0184 01354 0189 01345 0181 01354 0191 01347 0185+
-2316110 15079000 59670 2014 01 11 03 08 2997 11 07 00 01
01639 0200 01645 0204 01647 0202 01662 0216 01661 0213 01669 0218+
-3447330 15091170 60420 2014 01 11 03 08 2958 11 07 00 01
00575 -0076 00580 -0074 00577 -0079 00578 -0081 00580 -0080 00583 -0079+
-4105000 14591500 60910 2014 01 11 03 08 2890 11 07 00 01
00564 -0058 00563 -0056 00560 -0055 00556 -0056 00557 -0052 00559 -0047+
-4254640 14793080 61170 2014 01 11 03 08 2898 11 07 00 01
00911 0031 00913 0031 00916 0032 00920 0035 00918 0031 00920 0032+
-3834390 14161360 61410 2014 01 11 03 08 2905 11 07 00 01
00230 -0003 00256 0023 00257 0023 00244 0010 00258 0023 00254 0018+
-3214890 13364170 62000 2014 01 11 03 08 2957 11 07 00 01
00643 0013 00643 0014 00641 0012 00640 0012 00641 0013 00640 0012+
-3387080 12189720 62080 2014 01 11 03 08 2943 11 07 00 01
00700 0080 00720 0099 00695 0073 00710 0088 00723 0100 00683 0059+
-3182560 11573860 62237 2014 01 11 03 08 2968 11 07 00 01
00720 0084 00728 0091 00715 0077 00716 0077 00715 0075 00710 0070+
-2422000 11339750 62385 2014 01 11 03 08 //// 11 07 00 01
00947 -0048 00965 -0031 00943 -0054 00913 -0085 00927 -0071 00964 -0035+
-2181670 11419110 62430 2014 01 11 03 08 //// 11 07 00 01
01521 -0013 01512 -0022 01522 -0012 01503 -0031 01525 -0009 01528 -0006+
-1800080 12221830 62650 2014 01 11 03 08 3043 11 07 00 01
04777 0160 04775 0162 04773 0162 04771 0164 04769 0166 04767 0166+
-1247190 13084580 63230 2014 01 11 03 08 3052 11 07 00 01
04536 0029 04548 0031 04555 0028 04563 0024 04575 0026 04586 0027+
-1386000 13641580 63511 2014 01 11 03 08 3045 11 07 00 01
01246 0029 01244 0026 01245 0027 01245 0026 01242 0022 01241 0020++
7777

0000046700
583
SZPA01 AMMC 110315
CREX++
T000103 A001 D01021 D06025++
0136250 17293000 67590 2014 01 11 03 08 3013 11 07 00 01
02147 0031 02154 0040 02149 0038 02133 0023 02148 0040 02137 0032+
0710610 17137250 67680 2014 01 11 03 08 3013 11 07 00 01
01419 0040 01415 0038 01413 0039 01420 0047 01413 0042 01411 0043+
0698060 15820000 67950 2014 01 11 03 08 3022 11 07 00 01
01098 0057 01095 0055 01102 0063 01097 0058 01098 0061 01089 0052++
7777

0000039800
584
SWIO40 RJTD 110315
:PRS 1 #1 1764 1752 1770 1745 1767 1748 1735 1744 1739 1732 1722 1724
1726 1741 1718 1748 1718 1750 1734 1752 1745 1743 1761 1745 1780 1743
1753 1776 1734 1774 :RAD 1 #3 6136 6125 6120 6120 6125 6129 6135 6144
6146 6148 :ENC 5 #5 5115 5102 5110 5124 5131 5139 5135 5140 5155 5160
5163 5162 :SW1 15 #60 59 :SW2 45 #60 59 :BAT 14 #15 13.2 :NAME 
0650018E=
0000087400
585
SAAU31 AMMC 110300
METAR YBAS 110300Z 11016KT CAVOK 38/05 Q1014=
METAR YBBN 110300Z 09009KT 9999 SCT035 28/16 Q1016
     NOSIG=
METAR YBCS 110300Z 17015KT 9999 -SHRA SCT024 SCT050 BKN110 28/21 Q1010
     INTER 0300/0600 VRB15G25KT 4000 SHRA BKN020=
METAR YBTL 110300Z 10015KT 9999 FEW025 SCT032 BKN120 30/21 Q1011=
METAR YMML NIL=
METAR YPAD 110300Z 21017KT CAVOK 26/13 Q1018
     NOSIG=
METAR YPCC 110300Z 13011KT 9999 BKN037 29/21 Q1012=
METAR YPDN 110300Z 25005KT 9999 FEW030 BKN350 31/23 Q1008
     NOSIG=
METAR YPKU 110300Z AUTO 11003KT 9999 // NCD 35/23 Q1008=
METAR YPLM 110300Z AUTO 03008KT 9999 // NCD 33/21 Q1009=
METAR YPPH 110300Z 09014KT CAVOK 36/10 Q1014
     NOSIG=
METAR YPTN 110300Z AUTO 13007KT 9999 // SCT045 SCT054 33/22 Q1008=
METAR YPXM NIL=
METAR YSSY 110300Z 06013KT CAVOK 32/15 Q1014
     NOSIG=
0000011200
586
SIVF51 EGRR 110300
BBXX
64046 11034 99605 70042 46/// /2926 10072 20029 49983 333 90710 91132=
0000012200
587
SIVF51 EGRR 110300
BBXX
62081 11034 99521 70105 46/// /2713 10087 20020 40153 52020 22200
10807 70034=
0000014400
588
SIVF51 EGRR 110300
BBXX
62305 11034 99504 70000 46/// /2117 10090 20065 40151 58003 22200
00109 10601 70007 333 90710 91125=
0000040900
589
SAUK53 EGRR 110300 RRA
METAR EGUL 110258Z AUTO 21013KT 9999 -RA OVC042 07/07 A2983 RMK AO2
      SLP105 P0002 60006 T00740073 57014=
METAR EGUN 110258Z AUTO 21011KT 9999 -RA OVC043 07/07 A2984 RMK AO2
      DZB0223E0226 SLP108 P0001 60005 T00740074 57014=
METAR EGVA 110258Z AUTO 25013KT 8000 -RA BR BKN009 BKN017 08/08 A2987
      RMK AO2 RAB0249 SLP120 P0000 60000 T00780078 55000=
0000003800
590
UANT01 EGRR 110300
NIL
0000014400
591
SIVF51 EGRR 110300
BBXX
62103 11034 99499 70029 46/99 /2417 10103 20082 40145 55003 22200
00112 10602 70011 333 90710 91127=
0000017800
592
SIOM20 OOMS 110300 RRC
AAXX 11034
41240 36/// /1306 10176 20090 30204 40218
333 0E/// 59008  =
41276 36/// /0812 10128 20060 30056 40219
333 0E014 58008 =
0000010800
593
SIAA21 EDZW 110300
AAXX 11034
89002 43/// /1610 11075 21096 39854 49908 52005 7//// 8////=
0000028200
594
SIGO20 FOOL 110300
AAXX 11034
64500 42460 81808 10268 20250 30087 40100 885//
  333 58009 84610 88630=
64550 42358 8//// 10232 20218 30/// 40/// 885//
  333 5//// 84606 88616=
64570 41108 80602 10230 20230 39591 40081 74644 8562/
  333 59004 85703 88460=
0000011100
595
UANT99 KDDL 110313
ARP UAL106 5048N03627W 0313 F340 MS54 206/29 KT
N76064 DDL XXW 110313 F58A
00000000