0000008700
083
UXIN90 VOTV 111200
TTAA 1112/ 43371 MISDA NO ASCENT AS PER HQ ORDER=

0000011100
084
UANT01 CWAO 110306
ARP AWE730 4828N04806W 0306 F370 MS62 316/65 KT
N273AY DDL YYT 110306 J70A
0000255800
085
SSVX08 KARS 110305
ZZYY 14040 10014 1200/ 308084 066939 6112/
33311 88872 20001 32964 43475 20020 32889 43501 20040 32489 43508
20060 32002 43511 20080 31796 20100 31609 20120 31503 20140 31414
20180 31285 20300 31081 20500 30904
444 20120 10014 1146/ 521//=
ZZYY 14040 11014 02004 308084 066935 6112/
11119 02306 10264 29086 40104
22219 00295
444 20120 11014 0214/ 521// 60401=
ZZYY 23017 10014 1200/ 304016 067235 6111/
33311 88872 20001 32812 20020 32802 20060 32499 43539 20080 32151
20100 31965 20120 31834 20140 31738 20180 31536 20300 31146
20500 30947
444 20110 10014 1148/ 521//=
ZZYY 23017 11014 02004 304015 067233 6112/
11119 02911 10275 29081
22219 00280
444 20120 11014 0217/ 521// 60401=
ZZYY 23003 10014 12004 301518 080513 6111/
11119 00312 10271 29085
22219 00290
33311 88872 20000 32896 20001 32891 43507 20020 32873 43507
20040 32831 43523 20060 32756 43524 20080 32480 20100 32219
20120 31814 20140 31622 20180 31422 20300 31155 20500 30961
444 20110 10014 1206/ 521// 60401=
ZZYY 14043 10014 1200/ 312203 067249 6111/
33311 88872 20001 32970 43504 20020 32969 20040 32922
20060 32551 43509 20080 32180 20100 31962 20120 31813 20140 31695
20180 31483 20300 31140 20500 30881
444 20110 10014 1144/ 521//=
ZZYY 23010 10014 1200/ 304025 080469 6112/
33311 88872 20001 32895 20020 32896 43440 20040 32840 43499
20060 32447 43536 20080 32201 20100 31989 20120 31800 20140 31604
20300 31126 20500 30929
444 20120 10014 1035/ 521//=
ZZYY 14042 10014 1200/ 312115 054867 6112/
33311 88872 20001 32895 43493 20020 32890 43496 20040 32831 43501
20060 32667 43500 20080 32517 20100 32301 20120 32122 20140 31954
20180 31707 20500 30944
444 20120 10014 1144/ 521//=
ZZYY 14042 11014 02004 312115 054864 6111/
11119 01010 10277 29083 40098
22219 00289
444 20110 11014 0215/ 521// 60401=
ZZYY 23016 10014 1200/ 301618 066811 6112/
33311 88872 20001 32838 20020 32830 43526 20040 32793
20060 32580 43546 20080 32315 20100 32120 20120 31834 20140 31576
20180 31359 20300 31179 20500 30954
444 20120 10014 1148/ 521//=
ZZYY 23016 11014 02004 301623 066814 6112/
11119 03207 10275 29079
22219 00283
444 20120 11014 0216/ 521// 60401=
ZZYY 23002 10014 12004 101541 080591 6112/
11119 03212 10284 29080
22219 00289
33311 88872 20000 32894 20001 32885 20020 32883 43490
20040 32851 43525 20060 32723 43554 20080 32215 20100 31838
20120 31698 20140 31586 20180 31498 20300 31154 20500 31001
444 20120 10014 1206/ 521// 60401=
0000011000
086
UANT01 CWAO 110306
ARP NVR712 4935N05149W 0306 F370 MS66 304/63 KT
EILAX DDL YYT 110306 J88A
0000011100
087
UANT01 CWAO 110306
ARP AAL290 4921N04833W 0306 F380 MS63 318/67 KT
N190AA DDL YYT 110306 F82A
0000024900
088
SNHK22 VHHH 110300
AAXX 11031
45032 36/// /0703 10187 20099 30234 40250 57002=
45035 36/// /0702 10199 20117 30211 40254 57003=
45039 36/// /0702 10182 20114 30242 40257 54000=
45044 36/// /0906 10188 20098 30157 40252 57003=
0000011100
089
UANT01 CWAO 110306
ARP DAH2701 5122N03346W 0306 F390 MS52 227/48 KT
7TVJZ QXT AOE 110306 J01A
0000011100
090
UANT01 CWAO 110306
ARP UAL936 4740N04203W 0306 F370 MS52 308/37 KT
N668UA DDL XXW 110306 F19A
0000011000
091
UANT01 CWAO 110306
ARP SAS926 5608N02901W 0306 F390 MS52 221/45 KT
LNRKG DDL XXN 110306 J02A
0000070200
092
SINL20 EHDB 110300
AAXX 11031
06206 46/// /2310 10077 20070 30041 40094 56008
333 91012 91112 91210=
06207 45461 72310 10089 20073 30047 40101 57005 8////
333 82/10 84/15 86/18 91012 91114 91212=
06239 47464 72512 10078 20069 30006 40067 58011 75880 8////
333 81/15 86/43 87/50 91014 91114 91212=
06252 46/// /2212 10086 20067 30057 40103 56008 222// 00097 10604
333 91014 91115 91213=
06260 47356 82104 10048 20033 30146 40148 56006 71000 8////
333 88/08 91006 91109 91205=
06270 47350 82106 10061 20051 30119 40119 58007 75110 8////
333 87/07 88/08 91009 91112 91208=
06290 47358 82006 10047 20031 30108 40149 56008 71000 8////
333 88/08 91008 91109 91206=
0000108800
093
SIOM20 OOMS 110300
AAXX 11034
41240 NIL=
41241 NIL=
41242 26/// /1400 10146 20109 30202 40229
333 0E014 59006 70000 =
41244 NIL=
41246 36/// /1803 10157 20104 30212 40217
333 0E016 59000 =
41249 NIL=
41250 NIL=
41252 NIL=
41253 NIL=
41254 NIL=
41255 36/// /2802 10118 20055 39670 40243
333 0E016 58002 =
41256 32981 40000 10139 20096 30209 40219 80001 333 59002 84070=
41257 NIL=
41258 36/// /1504 10186 20070 30208 40213
333 0E/// 59001 =
41259 36/// /2708 10076 21136 37133 40012
333 0E/// 58013  =
41262 NIL=
41263 NIL=
41265 36/// /2903 10106 20007 39604 40208
333 0E013 58000 =
41267 36/// /3008 10178 20037 30206 40222
333 0E016 58014  =
41268 NIL=
41270 NIL=
41272 NIL=
41275 NIL=
41276 NIL=
41280 NIL=
41287 NIL=
41288 36/// /0619 10196 20107 30186 40209
333 0E019 58003 =
41290 NIL=
41293 NIL=
41295 NIL=
41301 NIL=
41304 NIL=
41314 32660 10000 10152 20129 39683 40198 81500
  333 59012 81630 =
41315 NIL=
41316 32560 43401 10208 20156 30154 40180 84530
  333 59003 84625 =
0000012800
094
SIMS20 WMKK 110300 RRA
AAXX 11034
96481 41460 70310 10288 20228 30097 40116 70522 83841 333 82817 84364 86080=
0000019900
095
SICD20 FTTJ 110300
AAXX 11034
64700 41930 50208 10157 20017 39804 40140 70622 80002
  333 58009 85075=
64750 42960 70000 10185 20050 39689 40096 80002 90258
  333 58005 87075=
0000123900
096
SITH20 VTBB 110300
AAXX 11034
48300 31560 22402 10177 20160 39876 40198 52007 70140 82105
  333 58008=
48327 31540 10000 10227 20184 39838 40199 52020 71000 81200
  333 58016=
48331 32960 00000 10196 20173 39963 40200 52022 
  333 58018=
48353 31920 03004 10222 20161 39895 40189 52016 71000 
  333 58002=
48356 32960 11003 10240 20155 39996 40195 51017 80001
  333 59001=
48375 31950 00000 10232 20181 39940 40168 52020 71000 
  333 58015=
48378 31557 20206 10248 20176 30127 40180 52021 70500 81505
  333 58009=
48381 32960 30508 10239 20160 39968 40188 52017 80005
  333 58002=
48407 32960 20303 10248 20180 30033 40176 52002 80001
  333 59004=
48431 31956 20803 10230 20172 39974 40191 52019 71000 80005
  333 58003=
48456 32960 30607 10277 20179 30153 40167 52013 80001
  333 58004=
48480 NIL=
48500 31940 30207 10280 20187 30153 40160 52017 70511 80005
  333 58011=
48551 31557 40203 10275 20239 30140 40148 52016 71011 82105
  333 58009=
48565 32560 60905 10285 20215 30125 40135 52015 81146
  333 58020=
48569 32460 70710 10277 20214 30108 40149 52014 84876
  333 58010=
48583 21457 80608 10250 20220 30143 40149 52018 72162 82246
  333 58009 60016=
0000117800
097
SITH21 VTBB 110300
AAXX 11034
48303 31/04 90000 10183 20178 39745 40197 50021 74344 
  333 58011=
48328 31930 00000 10216 20191 39906 40189 52009 71040 
  333 59003=
48330 31420 60000 10219 20187 30002 40192 52022 71042 81606
  333 58014=
48351 31956 10000 10240 20176 30106 40181 52021 71000 80005
  333 58008=
48354 32962 20603 10233 20164 39989 40196 52018 80001
  333 59011=
48376 31930 03003 10248 20188 30042 40189 52021 71000 
  333 58011=
48377 31956 00000 10242 20202 30015 40182 52018 71000 
  333 58024=
48379 32962 00000 10245 20173 30032 40167 52012 
  333 58002=
48400 31950 20000 10267 20177 30141 40182 52021 70500 80005
  333 58008=
48432 31958 00304 10240 20179 30011 40181 52014 71000 
  333 58004=
48455 NIL=
48462 31558 11103 10280 20196 30123 40179 51011 70500 81100
  333 58006=
48475 31958 23508 10290 20195 30156 40163 52017 70500 80005
  333 58007=
48477 NIL=
48517 31557 51006 10285 20228 30144 40151 51015 71011 82246
  333 58011=
48532 32560 40508 10297 20205 30134 40143 52012 82106
  333 58011=
48567 31559 70508 10290 20207 30120 40138 52009 70522 81136
  333 58013=
0000156000
098
SITH40 VTBB 110300
AAXX 11034
48310 31520 10000 10202 20179 39728 40193 52021 71040 81100
  333 58011=
48325 31540 60000 10183 20165 39942 40193 52017 71042 83535
  333 58007=
48329 31957 00000 10222 20184 39839 40183 52018 71000 
  333 58009=
48352 31958 10402 10230 20168 39996 40200 52019 71000 80001
  333 58002=
48357 32962 10703 10267 20154 30021 40190 52012 80001
  333 59005=
48380 31940 00302 10263 20192 30091 40185 50021 71020 
  333 58009=
48383 32960 00205 10255 20166 30024 40184 52014 
  333 59001=
48403 31958 60706 10253 20156 39975 40188 52018 70522 80006
  333 58005=
48405 32960 20503 10253 20167 30017 40181 52017 80005
  333 58001=
48420 31958 40412 10273 20187 30157 40162 52016 70511 80006
  333 58008=
48421 31956 20000 10240 20188 30063 40179 52018 71000 80005
  333 58016=
48425 31950 50304 10266 20195 30165 40176 52015 71011 80006
  333 58003=
48426 32962 30812 10265 20172 30161 40174 51017 80002
  333 59003=
48429 32960 40810 10272 20164 30163 40170 52010 80001
  333 58012=
48430 31956 21106 10273 20191 30163 40170 51017 70500 80005
  333 58007=
48450 NIL=
48459 31958 20607 10284 20184 30158 40160 50017 70500 80005
  333 58008=
48465 NIL=
48550 31558 60708 10290 20246 30141 40148 52017 71022 81146
  333 58009=
48552 32460 60000 10280 20239 30142 40148 52016 82206
  333 58011=
48566 32560 50305 10275 20218 30131 40139 52008 82145
  333 58015=
48568 21459 61008 10281 20212 30142 40150 52014 72122 83936
  333 58023 69905=
0000139400
099
SITH41 VTBB 110300
AAXX 11034
48315 31956 00000 10176 20166 39925 40203 52013 71044 
  333 58006=
48374 32962 03305 10255 20166 30017 40184 52013 
  333 58001=
48382 NIL=
48385 31956 00000 10207 20164 39647 40173 52015 71000 
  333 59001=
48390 31930 10912 10246 20172 30027 40190 52018 70540 80001
  333 58001=
48402 NIL=
48413 31958 20000 10265 20178 30101 40181 52021 70500 80005
  333 58008=
48416 31959 10602 10237 20169 30029 40179 52009 71000 81056
  333 59004=
48418 32960 50907 10254 20174 30123 40182 52015 80001
  333 58003=
48434 31956 30706 10235 20179 39964 40188 52019 71011 80005
  333 58002=
48436 31958 20103 10237 20183 39973 40183 52017 71000 80005
  333 58003=
48439 32960 20000 10250 20178 30158 40172 52018 80001
  333 58006=
48460 32960 20907 10285 20193 30125 40156 52016 80005
  333 58007=
48461 32962 30609 10285 20201 30088 40158 52013 80006
  333 58008=
48478 31958 53202 10285 20201 30152 40158 51015 70511 80006
  333 58010=
48501 31556 60903 10303 20189 30140 40145 50011 70511 82531
  333 58007=
48561 32562 30603 10302 20197 30126 40135 51013 81105
  333 58015=
48564 32560 30000 10290 20216 30142 40146 52017 82145
  333 58021=
48570 32560 63506 10285 20201 30127 40134 52015 82246
  333 58003=
48580 31558 80000 10268 20227 30139 40146 52016 71022 83847
  333 58013=
0000176200
100
SITH42 VTBB 110300
AAXX 11034
48302 31456 21702 10175 20140 38527 40161 52018 71000 81505
  333 58013=
48304 31/00 90000 10186 20181 39724 40196 52017 74744 
  333 58010=
48334 32960 00000 10225 20168 39823 40190 52022 
  333 58010=
48360 32960 03003 10233 20157 39920 40184 52014 
  333 59003=
48372 31540 33605 10246 20191 30128 40186 52025 71011 81535
  333 58015=
48373 31940 20000 10240 20193 30119 40183 52021 71000 80005
  333 58011=
48386 31930 01803 10255 20209 30131 40177 52016 71000 
  333 58009=
48387 31957 01006 10209 20161 39214 40177 52022 71000 
  333 58018=
48408 32960 20000 10250 20178 30027 40178 52009 80005
  333 58011=
48415 31958 20708 10287 20179 30157 40168 52019 70500 80001
  333 58005=
48433 31958 10302 10236 20175 30017 40186 52012 71000 80005
  333 58004=
48437 32960 00000 10234 20165 39973 40186 52012 
  333 58003=
48440 31959 61104 10271 20178 30120 40169 51019 70522 80006
  333 58004=
48451 31958 20000 10261 20198 30159 40170 52014 71000 80006
  333 58003=
48454 31957 60102 10282 20159 30156 40163 52015 70522 80006
  333 58003=
48457 31958 40512 10255 20181 30148 40165 52019 70511 80005
  333 58003=
48463 31950 60715 10317 20179 30074 40166 51016 70500 80006
  333 58011=
48464 31956 23402 10260 20183 30154 40166 52012 70500 80001
  333 58008=
48479 31956 30205 10290 20180 30105 40157 52014 70511 80005
  333 58007=
48520 31559 60000 10285 20221 30135 40151 52016 71022 83546
  333 58013=
48554 31457 62404 10268 20249 30145 40149 52016 71022 82246
  333 58011=
48563 32560 50000 10270 20226 30106 40142 52014 82246
  333 58011=
48571 21460 80000 10245 20223 30136 40147 52016 70262 83876
  333 58013 69946=
0000137400
101
UAPS01 NZKL 110300
AIREP
ACI331W 1324S 17624W 0252 F092 PS13 319/19=
ANZ785 1924S 16954W 0250 F104 PS10 345/33=
THA492 3624S 17312E 0220 F251 MS29 167/11=
QFA107 2654S 16048E 0239 F310 MS36 283/46=
QFA107 2530S 16230E 0253 F310 MS35 271/57=
SIA286 3542S 16342E 0203 F320 MS46 266/19=
ANZ831 4436S 16648E 0208 F322 MS48 298/36=
THA492 3512S 17000E 0242 F320 MS47 034/04=
DAL16 2854S 16030E 0251 F330 MS46 279/52=
UAE418 4006S 16330E 0204 F350 MS51 067/01=
ANZ57 2006S 17706E 0206 F350 MS39 312/21=
ANZ57 2012S 17706E 0207 F350 MS39 307/20=
ANZ57 2030S 17700E 0209 F350 MS40 304/21=
QFA28 5524S 17354W 0210 F350 MS47 205/53=
ANZ57 2206S 17648E 0221 F350 MS40 307/25=
UAE418 4130S 16648E 0225 F350 MS54 323/18=
ANZ10 1000S 17742W 0228 F350 MS40 275/10=
ANZ57 2330S 17642E 0231 F350 MS40 289/33=
ANZ57 2406S 17636E 0235 F350 MS41 290/30=
ANZ57 2624S 17618E 0252 F350 MS42 271/52=
ANZ175 3612S 16736E 0209 F360 MS54 278/16=
ANZ831 4412S 16606E 0214 F360 MS57 306/33=
ANZ175 3548S 16418E 0230 F360 MS53 270/10=
QFA28 5342S 17812W 0231 F360 MS54 212/97=
QFA122 4224S 16300E 0257 F360 MS56 290/30=
JST4 2030S 16736E 0203 F380 MS50 281/26=
JST4 2148S 16624E 0217 F380 MS50 275/33=
JST4 2306S 16506E 0231 F388 MS52 270/41=
CSN305 3036S 16312E 0202 F390 MS58 281/45=
CSN305 3212S 16612E 0224 F390 MS58 272/42=
0000014200
102
SIIN90 VAAU 110300
AAXX 11034
43014 31995 20202 10132 20074 39494 40163 70544 80001
  333 20100 58012 82075
  555 10000=
00000000