0000191300
252
SZAU01 AMMC 110221
CREX++
T000103 A001 D01021 D06025++
-1927750 14705860 59260 2014 01 11 02 14 3025 11 07 00 01
01520 0190 01522 0197 01514 0194 01512 0195 01500 0188 01496 0188+
-2316110 15079000 59670 2014 01 11 02 14 2995 11 07 00 01
01682 0237 01684 0241 01678 0237 01678 0240 01688 0250 01681 0247+
-3447330 15091170 60420 2014 01 11 02 14 2955 11 07 00 01
00539 -0023 00535 -0028 00526 -0038 00512 -0054 00512 -0054 00521 -0047+
-4105000 14591500 60910 2014 01 11 02 14 2888 11 07 00 01
00849 -0063 00842 -0063 00832 -0066 00837 -0055 00823 -0062 00820 -0058+
-4254640 14793080 61170 2014 01 11 02 14 2898 11 07 00 01
00864 0050 00867 0052 00869 0054 00871 0055 00878 0061 00882 0064+
-3834390 14161360 61410 2014 01 11 02 14 2907 11 07 00 01
00232 0020 00249 0037 00264 0051 00277 0064 00270 0057 00267 0054+
-3214890 13364170 62000 2014 01 11 02 14 2953 11 07 00 01
00770 0078 00767 0076 00764 0075 00764 0077 00760 0074 00757 0073+
-3387080 12189720 62080 2014 01 11 02 14 2945 11 07 00 01
00665 0085 00660 0080 00663 0082 00658 0076 00666 0083 00647 0063+
-3182560 11573860 62237 2014 01 11 02 14 2968 11 07 00 01
00647 0064 00639 0054 00648 0062 00643 0056 00645 0057 00645 0056+
-2422000 11339750 62385 2014 01 11 02 14 //// 11 07 00 01
00829 -0140 00917 -0052 00903 -0066 00871 -0099 00839 -0131 00824 -0146+
-2181670 11419110 62430 2014 01 11 02 14 //// 11 07 00 01
01507 -0051 01512 -0045 01521 -0035 01527 -0028 01514 -0041 01510 -0044+
-1800080 12221830 62650 2014 01 11 02 14 3043 11 07 00 01
05030 0148 05024 0148 05018 0146 05011 0146 05004 0145 04997 0145+
-1247190 13084580 63230 2014 01 11 02 14 3050 11 07 00 01
03934 0046 03944 0045 03956 0047 03968 0046 03980 0047 03992 0045+
-1386000 13641580 63511 2014 01 11 02 14 3043 11 07 00 01
01222 0038 01223 0039 01222 0038 01223 0038 01223 0038 01223 0038++
7777

0000034100
253
SZIO01 AMMC 110221
CREX++
T000103 A001 D01021 D06025++
-1211670 09689190 46280 2014 01 11 02 14 3000 11 07 00 01
00734 0050 00734 0049 00742 0055 00741 0052 00745 0054 00751 0059+
-1042940 10566940 46290 2014 01 11 02 14 //// 11 07 00 01
00814 0049 00812 0046 00799 0032 00822 0054 00778 0010 00830 0061++
7777

0000046700
254
SZPA01 AMMC 110221
CREX++
T000103 A001 D01021 D06025++
0136250 17293000 67590 2014 01 11 02 14 3015 11 07 00 01
02200 0017 02203 0020 02205 0023 02190 0008 02205 0025 02202 0022+
0710610 17137250 67680 2014 01 11 02 14 3015 11 07 00 01
01487 0030 01484 0027 01489 0033 01483 0028 01483 0030 01483 0030+
0698060 15820000 67950 2014 01 11 02 14 3023 11 07 00 01
01143 0066 01147 0070 01147 0071 01142 0066 01144 0069 01148 0073++
7777

0000009800
255
SAIR31 OIII 110200 RRB
METAR OIYY 110150Z 00000KT 9999 FEW040 BKN100 01/M02 Q1022=
0000009800
256
SAIR77 OIII 110200 RRB
METAR OIYY 110150Z 00000KT 9999 FEW040 BKN100 01/M02 Q1022=
0000009800
257
SAIR78 OIII 110200 RRB
METAR OIYY 110150Z 00000KT 9999 FEW040 BKN100 01/M02 Q1022=
0000011100
258
UANT99 KDDL 110220
ARP DAL258 5648N03713W 0219 F370 MS56 208/30 KT
N816NW DDL XXW 110220 J30A
0000011000
259
UANT99 KDDL 110220
ARP AIC144 5342N02401W 0220 F330 MS57 251/80 KT
VTALM QXT AOE 110220 F42A
0000010800
260
UANT01 CWAO 110217
ARP FIN6 5732N04526W 0217 F380 MS61 269/37 KT
OHLTM QXS UAK 110217 J15A
0000011100
261
UANT01 CWAO 110217
ARP UAL124 5007N04500W 0217 F380 MS57 325/51 KT
N13138 DDL IG1 110217 F44A
0000018000
262
SSVX03 LFVW 110221
ZZYY 31260 11014 00001 522887 043139 6112/
11119 00501 10284 40127
22219 00396
33311 66699 20030 05///
444 20120 11014 0022/ 518// 60371=
0000016000
263
SSVX02 CWAO 110200
ZZYY 56542 11014 0200/ 324523 073766 6113/ 11119 
40199 52017 22219 00253 444 20130 11014 0200/ 50101 80134 80019 
9/015=
0000016000
264
SSVX02 CWAO 110200
ZZYY 56516 11014 0200/ 355788 116814 6112/ 11122 
49988 52014 22219 00044 444 20130 11014 0200/ 50101 80148 80026 
9/015=
0000016000
265
SSVX02 CWAO 110200
ZZYY 56947 11014 0200/ 331716 105934 6113/ 11119 
40205 52005 22219 00207 444 20130 11014 0200/ 50101 80142 80015 
9/015=
0000012700
266
SSVX02 CWAO 110200
ZZYY 47537 11014 0200/ 783288 048093 6113/ 444 
20130 11014 0200/ 50001 80136 80001 9////=
0000016000
267
SSVX02 CWAO 110200
ZZYY 56948 11014 0200/ 315961 090373 611// 11119 
40144 52017 22219 00273 444 20130 11014 0200/ 50101 80144 80013 
9/015=
0000013900
268
SSVX02 CWAO 110200
ZZYY 64735 11014 0200/ 765574 000596 6113/ 22219 
00057 444 20130 11014 0200/ 50101 80142 80011 9/015=
0000010700
269
SAUZ31 UTTW 110200 RRA
METAR UTNU 110200Z VRB01MPS 6000 NSC M05/M07 Q1020 R31/CLRD60 NOSIG=
0000013900
270
SSVX02 CWAO 110200
ZZYY 64725 11014 0200/ 170996 025396 6113/ 22231 
00049 444 20130 11014 0200/ 50101 80138 80002 9////=
0000016000
271
SSVX02 CWAO 110200
ZZYY 56950 11014 0200/ 307954 103148 6113/ 11119 
40106 52014 22219 00290 444 20130 11014 0200/ 50101 80146 80016 
9/015=
00000000