0000111800
216
FJIN51 VECC 110325

              INDIA METEOROLOGICAL DEPARTMENT
          R/T VOLMET B/C VECC 0325 UTC 11012014

VIDP SIGMET NIL=

VECC SIGMET NIL=

MET/SPECIAL REPORT

VECC 110250Z 000/00KT VIS 1000M R19L/1200 RMID/1200 R01R/1200 MIFG
     NSC T17 DP14 QNH 1017 BECMG VIS 1500M BR = 
SPECI VECC 110250Z 000/00KT VIS 800M R19L/0900 RMID/0900 R01R/0900 FG NSC
           T16 DP13 QNH 1017 NOSIG=

VIDP 110300Z 250/06KT VIS 50M R28/0300 R29/0250 FG NSC T07 DP06 QNH
     1018 BECMG VIS 150M = 
VGHS 110250Z 000/00KT VIS 800M FG BKN400FT/120M T15 DP13 QNH 1016
     BECMG S/VIS 1000M = 
VYYY 110300Z 090/06KT VIS 9KM NSC T23 DP18 QNH 1017 = 
VNKT 110320Z 330/07KT VIS 2000M BR FEW1500FT/450M SCT25000FT/7500M
     T08 DP03 QNH 1021 BECMG 04/20 VIS 3000M HZ = 
FCST VECC 11/06 350/05KT VIS 2800M HZ NSC BECMG 11/12 000/00KT VIS
          1800M BR=

FCST VIDP 11/03 270/05KT VIS 400M FG VV/// BECMG 11/05 290/05KT VIS
          1000M BR NSC BECMG 11/08 VIS 2000M BR/FU=

TAF VVTS NIL=



    DUTY ASSISTANT                    DUTY OFFICER

0000008600
217
SAIN90 VIDP 110300
METAR VIDD 110300Z 27005KT 0400 FG NSC 08/08 Q1018=
0000151200
218
SICI25 BABJ 110300
AAXX 11031
50353 32970 03405 11267 21334 40276 52004=
50557 32968 02501 11283 21324 40293 52002=
50756 32960 53402 11249 21280 40283 52004 85///=
50949 32965 42503 11114 21195 40268 57011 84///=
50963 32962 02707 11193 21223 40274 52008=
50978 32970 02706 11134 21197 40247 57008=
51087 32980 21801 11212 21243 40506 54000 82///=
51156 32980 03401 11151 21202 40451 52002=
51644 32960 03601 11140 21167 40490 52014=
51656 31945 00201 11101 21149 40474 52014 70500=
51886 42980 73401 11134 21256 37164 52017 87///=
52602 42980 70201 11178 21262 37326 52023 87///=
52713 42957 70701 11164 21204 36953 52015 87///=
52754 42977 03202 11128 21200 36808 52012=
52818 32980 72704 11115 21239 37296 52019 87///=
52836 32980 71602 11108 21197 36930 52018 87///=
52955 32980 81402 11113 21222 36998 52014 88///=
53068 42964 73204 11120 21237 40381 52018 87///=
53276 32980 72709 11097 21226 40359 52011 87///=
54135 32980 22703 11070 21224 40284 57008 82///=
54236 42965 02204 11048 21205 40295 57011=
54539 31909 02702 11006 21083 40316 57006 70500=
54662 32960 72201 10024 21075 40317 57009 87///=
54753 31919 62202 10015 21030 40333 57007 70500 86///=
54857 41921 43201 10025 21028 40337 57006 70500 84///=
57067 41940 72002 10017 21022 40352 52010 70570 87///=
57178 31958 71801 10064 21010 40344 52008 70500 87///=
57245 31540 80201 10038 20013 40355 52015 76066 88///=
57297 31729 73602 10045 21015 40329 52006 70500 87///=
0000013500
219
SIVD17 CWVR 110300
BBXX
46147 11031 99518 71312 46/// /1217 10054 49802 57121
22200 00075 10809 70047 333 91222=

0000044600
220
SXXX32 EUMS 110318
22856700
:PRS 1 /1 3154 3150 3157 3155 3157 3159 3158 3152 3150 3153 3155 3150 3150 3152 3151 3146 3137 3137 3140 3139 3141 3145 3147 3142 3137 3138 3144 3148 3142 3137 :RAD 1 /3 6655 6656 6652 6647 6646 6643 6644 6645 6644 6643 6639 6633 6631 6632 6637 6640 6637 6634 6635 6634 :ENC 3 /5 4852 4847 4843 4835 4837 4840 4834 4823 4829 4837 4832 4832 :SW1 18 /60 0 :SW2 48 /60 60 :BAT 14 /15 13.5 :NAME 22856700
0000045100
221
SXXX32 EUMS 110318 RRA
32D8A2BE
:PRS 1 /1 2024 2016 2016 2013 2013 2011 2023 2008 2008 2007 2010 2011 2001 2013 1993 2001 2002 2002 1998 1996 2006 1997 1993 1992 1984 1985 1993 1979 1983 1984 :RAD 1 /3 7576 7573 7571 7568 7571 7572 7563 7552 7551 7550 7549 7540 7538 7546 7545 7540 7539 7535 7538 7536 :ENC 3 /5 5012 5007 5005 4999 4986 4983 4977 4975 4973 4970 4970 4968 :SW1 18 /60 27 :SW2 48 /60 55 :BAT 14 /15 12.9 :NAME 32D8A2BE
0000047700
222
SXXX32 EUMS 110319
262AD2C2
OT12 ID:PK-ORMA-10 DT:2014 01 11 03 18
:PRS /1 07925 07931 07945 07933 07931 07928 07909 07900 07894 07906 07886 07881 07878 07875 07865 07866 07857 07855 07849 07861 07841 07831 07840 07839 07819 07823 07798 07798 07768 07778
:RAD /1 ///// ///// ///// ///// ///// ///// ///// ///// ///// ///// ///// ///// ///// ///// ///// ///// ///// ///// ///// ///// ///// ///// ///// ///// ///// ///// ///// ///// ///// /////
:BAT 12.9V
0000036300
223
SXXX32 EUMS 110321
12FFB3C8
:PRS 1 /1 M 3009 3025 3023 3029 3020 3044 3036 3046 3048 3032 3029 3023 3030 3025 3025 3022 3033 3021 3024 3008 2998 2999 2973 2993 2981 2988 3019 3008 3013 :RAD 1 /3 5966 5971 5970 5962 5957 5949 5935 5930 5939 5937 :ENC 1 /5 -144 -144 -144 -144 -144 -144 :SW1 21 /60 0 :SW2 51 /60 60 :BAT 14 /15 12.7 :NAME 12FFB3C8
0000070100
224
SXXX32 EUMS 110321 RRA
22E7E6D2
OT12 ID:ID-ROTE-11 DT:2014 01 11 03 20
:PRS /1 -10741 -10730 -10745 -10721 -10721 -10720 -10724 -10748 -10748 -10747 -10747 -10747 -10751 -10748 -10749 -10745 -10735 -10750 -10722 -10725 -10726 -10725 -10748 -10747 -10752 -10752 -10752 -10747 -10750 -10750
:PR2 /1 03812 03833 03849 03821 03832 03821 03827 03850 03833 03811 03827 03830 03803 03839 03826 03833 03806 03808 03815 03868 03833 03812 03786 03820 03807 03806 03823 03798 03816 03822
:RAD /1 05441 05449 05417 05397 05417 05421 05425 05393 05429 05433 05433 05401 05413 05421 05425 05415 05413 05401 05384 05412 05417 05408 05425 05364 05396 05409 05385 05396 05389 05384
:BAT 13.3V
0000066700
225
SXXX32 EUMS 110322
32CC9580
OT12 ID:ID-ENGG-07 DT:2014 01 11 03 21
:PRS /1 01369 01455 01397 01381 01368 01439 01486 01399 01428 01347 01440 01403 01444 01417 01410 01425 01407 01437 01438 01419 01436 01410 01458 01425 01426 01457 01430 01448 01473 01437
:PR2 /1 04821 04876 04863 04864 04826 04898 04885 04872 04885 04871 04861 04877 04877 04878 04880 04889 04849 04891 04906 04885 04900 04852 04914 04868 04851 04924 04858 04906 04920 04903
:RAD /1 05693 05719 05727 05737 05686 05736 05784 05737 05758 05689 05732 05745 05755 05755 05741 05746 05741 05758 05773 05747 05774 05729 05773 05765 05736 05797 05738 05775 05800 05769
:BAT 13.4V
0000011000
226
UANT99 KDDL 110323
ARP UAL74 5309N02843W 0323 F370 MS55 219/52 KT
N17133 DDL IG1 110324 F65A
0000011000
227
UANT99 KDDL 110324
ARP AFR351 4858N04008W 0324 F370 MS52 292/24 KT
FGSPL QXT AOW 110324 F14A
0000016100
228
SOVI10 KWAL 110326
B110070A 011032601 P9751095 B\P~W@@R0ekC1@qp???CsCw>@qv3@ND@@k5DC6bY2?????A"??? ?TCWLB~CBCECDCBBy:AMPTEMP 27.66C  47-0NN 219E
0000067400
229
SIYE10 OYSC 110300
AAXX 11034
41372 NIL=
41390 NIL=
41391 NIL=
41396 42962 23402 10166 20091 39435 40169 80001 333 59011 82070=
41398 42560 80914 10242 20171 30114 48542 885// 333 59012 88625=
41399 NIL=
41404 42960 02004 10094 20038 37877 48537 333 58000=
41407 NIL=
41431 42960 00904 10220 20192 30127 40140 333 58015=
41434 NIL=
41437 NIL=
41438 NIL=
41443 42460 43304 10200 20145 30156 40174 84800 333 59005 81818
84650=
41450 NIL=
41452 NIL=
41466 NIL=
41477 NIL=
41480 42460 21312 10245 20188 30157 40160 82500 333 58000 82618=
41481 NIL=
41482 NIL=
41494 42460 60818 10230 20186 40150 86800 333 58003 86818=
0000126600
230
SINP20 VNKT 110300
AAXX 11034
44404 21230 80902 10020 20020 38124 48477 75095 886//
  333 20020 59005 60034=
44406 21104 80000 10088 20076 39542 40186 76062 8622/
  333 20058 58000 69914=
44409 21440 80000 10116 20111 39952 40159 75055 8662/
  333 20088 58007 60034=
44416 21310 72804 10088 20077 39385 40167 74250 85870
  333 20055 59007 69944=
44418 21320 60000 10113 20107 39963 40158 71794 82950
  333 20092 59006 69944=
44424 22662 70000 10000 21018 37675 47052 81263
  333 21067 59012 60004=
44429 21460 41002 10096 20088 39402 40175 70050 83210
  333 20074 58000 69914=
44434 22558 20000 10088 20072 39252 48549 82200
  333 20062 58003 60004=
44438 21510 51103 10120 20106 30047 40176 74044 84440
  333 20104 59005 69904=
44449 21330 63501 10140 20122 30024 40187 71044 83170
  333 20085 58005 60004=
44454 21420 20000 10060 20038 38691 48524 71041 82804
  333 20040 58002 60004=
44462 22358 70901 10073 20052 38277 48502 84630
  333 20050 58007 60004=
44474 22056 80000 10063 20029 38290 48528 888//
  333 20041 58016 60004=
44477 21650 10000 10100 20074 38843 48545 70500 81010
  333 20078 59013 60004=
44478 21413 70902 10133 20114 30099 40181 70544 86570
  333 20107 58008 69914=
0000019300
231
SMVX01 EDZW 110000
BBXX
DBFC  11001 99544 10136 46/// /2608 10056 20035 40105 52010
22200 00054=
DBFX  11001 99539 10087 46/// /2306 10062 20062 40123 52001
22220 00070=
0000095600
232
SIRA21 RUHB 110300
AAXX 11031
30385 42999 60000 11351 21368 39813 40450 52012 80005=
30469 NIL=
30636 42998 00501 11312 21343 39735 40426 52022=
30650 41997 00000 11350 21374 39183 40466 53020 74000=
30664 41996 00000 11398 21422 39320 40482 52015 71040=
30777 41998 02403 11324 21348 39659 40402 52015 74000 333 21413=
30822 42599 73401 11081 21133 39757 40360 52012 83932=
30844 41999 82702 11168 21187 39333 40374 52022 77177 80007=
30925 42899 83601 11199 21232 39368 40421 52017 83075=
31371 42999 33204 11272 21318 39982 40276 52009 82031=
31388 41999 20101 11356 21377 39956 40257 52001 77674 80001=
31478 42999 82701 10346 21368 39015 40244 57005 82037=
31532 42999 00000 11380 21409 39873 40269 58005=
31594 42997 02802 11327 21358 30071 40266 51001=
31624 42999 02903 11238 21324 39933 40211 58///=
31655 42998 01806 11240 21327 30139 40191 54000=
31754 42999 00000 11225 21325 39666 40209 58004=
0000013600
233
SIVD17 CWVR 110300
BBXX
46145 11031 99544 71324 46/// /1112 10047 49883 57088
22200 00068 11205 70025 333 91216 =

0000215900
234
SZNZ01 NZKL 110327
CREX++
T000103 A001 D01021 D06025++
-3683144 17478654 AUCT  2014 01 11 03 19 //// 11 07 00 01
06056 3196 06057 3195 06059 3197 06060 3197 06061 3196 06060 3195+
-4402404 -17636748 CHIT  2014 01 11 03 19 //// 11 07 00 01
05139 2100 05132 2097 05128 2096 05123 2095 05128 2104 05124 2103+
-4089929 17623168 CPIT  2014 01 11 03 19 //// 11 07 00 01
04245 2273 04226 2258 04211 2247 04223 2263 04205 2249 04211 2260+
-3618905 17548887 GBIT  2014 01 11 03 19 //// 11 07 00 01
06442 0047 06438 0043 06436 0041 06438 0044 06443 0049 06446 0052+
-3867541 17802288 GIST  2014 01 11 03 19 //// 11 07 00 01
04446 2684 04441 2681 04457 2700 04439 2686 04464 2713 04441 2694+
-4241288 17370277 KAIT  2014 01 11 03 19 //// 11 07 00 01
03541 2168 03530 2162 03537 2173 03542 2183 03510 2156 03503 2153+
-3755040 17815904 LOTT  2014 01 11 03 19 //// 11 07 00 01
04057 0214 04067 0225 04049 0209 04049 0211 04053 0217 04058 0223+
-3704657 17451175 MNKT  2014 01 11 03 19 //// 11 07 00 01
02597 -0167 02615 -0156 02606 -0171 02640 -0144 02627 -0164 02650 -0147+
-3947566 17692007 NAPT  2014 01 11 03 19 //// 11 07 00 01
03452 2024 03433 2008 03434 2013 03436 2018 03434 2020 03431 2021+
-3441483 17304870 NCPT  2014 01 11 03 19 //// 11 07 00 01
02734 -2235 02638 -2332 02629 -2343 02597 -2377 02474 -2502 02568 -2409+
-4581435 17062939 OTAT  2014 01 11 03 19 //// 11 07 00 01
04491 3399 04484 3398 04478 3399 04476 3403 04467 3400 04462 3402+
-2928002 -17789440 RBCT  2014 01 11 03 19 //// 11 07 00 01
06460 2005 06462 2008 06459 2005 06462 2009 06460 2008 06472 2020+
-2925114 -17790384 RFRT  2014 01 11 03 19 //// 11 07 00 01
03415 0195 03425 0207 03424 0206 03430 0212 03428 0211 03423 0207+
-4357010 17277383 SUMT  2014 01 11 03 19 //// 11 07 00 01
02212 1817 02220 1831 02191 1809 02200 1824 02198 1828 02188 1825+
-3764109 17618118 TAUT  2014 01 11 03 19 //// 11 07 00 01
05676 3983 05677 3984 05676 3983 05676 3983 05678 3985 05683 3990+
-4128448 17477985 WLGT  2014 01 11 03 19 //// 11 07 00 01
03380 2054 03372 2050 03367 2048 03363 2048 03357 2046 03362 2055++
7777
0000025900
235
SISG20 GOOY 110300
AAXX 11034
61600 NIL=
61612 NIL=
61627 NIL=
61630 NIL=
61641 42958 43611 10192 20148 30113 40147 80002
  333 58014 84073=
61666 NIL=
61679 NIL=
61687 NIL=
61695 NIL=
61697 NIL=
61698 NIL=
61699 NIL=
00000000