0000058500
879
USAA01 NZCM 110000
TTAA 61001 89664
99997 00056 18501 00512 ///// ///// 92601 07158 18518
85255 11341 17017 70716 21114 15006 50514 33959 24513
40666 44759 24520 30855 51765 24023 25975 45585 24514
20124 43786 24513 15318 43586 26009 10592 41586 23504
88320 52361 23026
77999
31313 48008 82219=

0000069700
87361=
0000011200
87368=
0000015000
87382
0000012800
87386=
0000045700
87427=
0000045900
87505=
0000050100
87719
0000050200
87834=
0000062700
88908
0000054500
89331
0000064800
89908
0000064900
90821
0000060500
880
USAA01 NZCM 110000
TTAA 61001 89664
99997 00056 18501 00512 ///// ///// 92601 07158 18518
85255 11341 17017 70716 21114 15006 50514 33959 24513
40666 44759 24520 30855 51765 24023 25975 45585 24514
20124 43786 24513 15318 43586 26009 10592 41586 23504
88320 52361 23026
77999
31313 48008 82219=

0000069700
87361=
0000011200
87368
0000009600
87371
0000035800
87378
0000037300
87381=
0000039500
87413
0000041600
87422=
0000043800
87504=
0000052200
87720
0000054300
87824
0000056400
88052
0000064700
88325
0000062700
88629=
0000058500
881
USAA01 NZCM 110000
TTAA 61001 89664
99997 00056 18501 00512 ///// ///// 92601 07158 18518
85255 11341 17017 70716 21114 15006 50514 33959 24513
40666 44759 24520 30855 51765 24023 25975 45585 24514
20124 43786 24513 15318 43586 26009 10592 41586 23504
88320 52361 23026
77999
31313 48008 82219=

0000069700
87361=
0000011200
87368=
0000015000
87382
0000012800
87386=
0000045700
87427
0000045800
87444
0000047900
87464=
0000052100
87578
0000056300
87627=
0000064700
88111=
0000054500
89907
0000066900
90819
0000011400
882
SACN45 CWAO 110100
METAR CYZS 110100Z 32005KT 15SM FEW210 M28/M31 A2953 RMK CI1 WND ESTD
SLP010=
0000316500
883
SAWD01 OEJD 110100
METAR DAAG 110100Z 30004KT 260V320 9999 FEW030 SCT080 12/06 Q1016=
METAR DTTA 110100Z 00000KT 7000 R19/0800VP2000D R11/0800VP2000D
 SCT026 08/07 Q1018 NOSIG=
METAR EBBR 110050Z 21010KT 9999 BKN011 04/02 Q1016 NOSIG=
METAR EDDH 110050Z 23010KT 9999 BKN013 06/04 Q1012 NOSIG=
METAR EFHK 110050Z 33013KT 9999 BKN011 M03/M05 Q0995 NOSIG=
METAR EGLL 110050Z 21007KT 9999 -RA FEW022 BKN038 08/06 Q1013
     NOSIG=
METAR EHAM 110055Z 21013KT 9000 SCT010 BKN035 06/04 Q1014 NOSIG=
METAR EIDW 110100Z 24012KT 9999 FEW025 02/02 Q1011 NOSIG=
METAR EKCH 110050Z 24011KT 9999 FEW020 SCT041 BKN160 05/04 Q1007
NOSIG=
METAR ELLX 110050Z AUTO 09002KT //// 02/01 Q1016=
METAR ENFB 110050Z AUTO 09019KT 9999NDV BKN013/// 03/00 Q0997
           W///S5=
METAR EPWA 110100Z 26017G28KT 9999 BKN033 05/01 Q1011 NOSIG=
METAR ESSA 110050Z 32007KT 9999 BKN008 M04/M05 Q1001 R01L/19//71
R08/19//58 R01R/19//68 TEMPO BKN018=
METAR ETBS 110100Z NIL=
METAR GMME 110100Z VRB02KT 5000 SCT020 BKN100 14/12 Q1014 NOSIG=
METAR GQNN 110100Z 36004KT 8000 NSC 15/13 Q1015 NOSIG=
METAR HAAS 110100Z NIL=
METAR HCMM 110100Z NIL=
METAR HECA 110100Z 00000KT 2000 BR NSC 12/09 Q1023 NOSIG=
METAR HLLT 110050Z
17006KT CAVOK 10/05 Q1023=
METAR HSSS 110100Z 36015KT CAVOK 16/M01 Q1017 NOSIG=
METAR KBOS 110054Z 15003KT 5SM BR FEW011 OVC017 02/01 A3036=
METAR KIAD 110052Z 35003KT 3/4SM R01R/3500VP6000FT -DZ BR OVC003 02/01
     A3026=
METAR KJFH 110100Z NIL=
METAR KWBS 110100Z NIL=
METAR LEMD 110100Z 00000KT CAVOK 07/05 Q1016 NOSIG=
METAR LFPO 110100Z VRB03KT 1500 -RA BR OVC002 06/05 Q1016 NOSIG=
METAR LGAV 110050Z 24002KT CAVOK 08/05 Q1020 NOSIG=
METAR LIRF 110050Z 05004KT 6000 FEW030 07/07 Q1022 NOSIG=
METAR LOWW 110050Z 18005KT CAVOK M02/M04 Q1021 NOSIG=
METAR LSGG 110050Z 00000KT CAVOK 01/00 Q1018 NOSIG=
METAR LTAC 110050Z 29004KT 4900 BR OVC006 M04/M04 Q1022 NOSIG=
METAR OAKB 110100Z NIL=
METAR OBBI 110100Z 16007KT 5000 RA SCT020 17/15 Q1017 TEMPO VRB30KT
TSRA SCT040CB=
METAR OJAM 110100Z 00000KT 4000 HZ NSC 06/04 Q1020 TEMPO 3000 BR=
METAR OKBK 110100Z 16009KT CAVOK 11/09 Q1016
     NOSIG=
METAR OLBA 110100Z 11004KT 7000 BKN026 13/10 Q1022=
METAR OMAA 110100Z 08004KT CAVOK 15/09 Q1018 A3006 NOSIG=
METAR OOMS 110050Z 13003KT CAVOK 14/10 Q1021 NOSIG=
METAR OPKC 110100Z NIL=
METAR OPRN 110100Z NIL=
METAR ORBB 110100Z NIL=
METAR OSDI 110100Z NIL=
METAR OTBD 110100Z 10011KT 9999 -RA SCT100 OVC120 19/16 Q1019 NOSIG=
METAR OYAA 110100Z 13011KT 9999 SCT018 25/19 Q1015 NOSIG=
METAR OYSN 110100Z 00000KT CAVOK 10/05 Q1025=
METAR RKSS 110100Z 06001KT 4000 BR NSC M03/M06 Q1034 NOSIG=
METAR UUEE 110100Z 19004MPS 9999 -RA OVC008 03/02 Q0985 75290151
25290151 NOSIG=
METAR VCBI 110100Z NIL=
METAR VGZR 110100Z NIL=
METAR VHHH 110100Z 08008KT 8000 NSC 17/11 Q1025 NOSIG=
METAR VIDP 110100Z 23003KT 0150 R28/0700 R29/0400 FG VV/// 06/06
      Q1017 NOSIG=
METAR WIIH 110100Z NIL=
METAR WMKK 110100Z 07003KT 9999 FEW017CB SCT140 BKN280 26/23 Q1012
NOSIG=
METAR WSSS 110100Z 35004KT 280V030 9999 FEW020TCU BKN300 27/23 Q1013
NOSIG=
0000254900
884
SNAU01 AMMC 110100
AAXX 11014
94102 15/// /2610 10307 20275 30100 40109 51005 60004
  333 20292 70000=
94103 45/// /2111 10294 30102 40107 51021
  333 20286=
94200 NIL=
94203 11580 52709 10312 20243 30094 40104 51015 60004 70511 83171
  333 20292 70000=
94206 15/// /3008 10350 20194 39970 40099 51010 60004
  333 20277 70000=
94207 46/// /2713 10291 30085 40093 53005=
94211 11/60 72301 10296 20230 39499 40098 60004 70322 80006
  333 70000=
94212 11980 62604 10348 20165 39625 40090 50004 60004 70222 81032
  333 20251 70000=
94216 15/// /0103 10315 20254 30048 40097 50007 60004
  333 20260 70000=
94300 15/// /2106 10278 20218 30086 40091 51013 60004
  333 20239 70000=
94302 15/// /0607 10305 20213 30090 40096 51023 60004
  333 20246 70000=
94312 15/// /2705 10331 20258 30087 40096 51013 60004
  333 20279 70000=
94313 11970 01104 10383 20019 39588 40091 52050 60004 70200
  333 70000=
94317 15/// /3105 10362 21033 39533 40103 51011 60004
  333 20227 70000=
94319 15/// /0913 10365 21014 39777 40098 51011 60004
  333 20223 70000=
94403 11980 10723 10404 20000 30059 40093 58012 60004 70200 81080
  333 20178 70000=
94429 15/// /0719 10365 20047 39671 40123 50001 60004
  333 20295 70000=
94430 15/// /0613 10363 20183 39550 40116 51008 60004
  333 20275 70000=
94449 15/// /0814 10309 20030 39651 40168 51011 60004
  333 20230 70000=
94451 01982 00912 10375 20251 39633 40125 60004 70200
  333 70000=
94601 15/// /1220 10207 20162 30184 40200 50002 60004
  333 20189 70000=
94610 11980 00816 10298 20110 30136 40159 50002 60004 70200
  333 20206 70000=
94637 15/// /0909 10261 20081 39777 40195 50004 60004
  333 20190 70000=
94638 01980 00907 10236 20136 30200 40232 58002 60004 70100
  333 20136 70000=
94642 11970 00907 10226 20141 30052 40226 60004 70011
  333 70000=
94643 NIL=
94647 05/// /1210 10221 20159 30115 40225 51005 60004
  333 20181 70000=
94802 11580 10711 10238 20137 30143 40226 50003 60004 70211 81100
  333 20162 70000=
95205 15/// /2606 10317 20238 30100 40107 52012 60004
  333 20274 70000=
95448 15/// /0713 10339 20027 39591 40138 51008 60004
  333 20269 70000=
95634 15/// /0614 10309 20086 39786 40179 50001 60004
  333 20211 70000=
95637 15/// /0809 10267 20067 39875 40204 50004 60004
  333 20154 70000=
95641 15/// /1310 10245 20143 30099 40194 58007 60004
  333 20158 70000=
95646 15/// /1012 10253 20118 30026 40210 50001 60004
  333 20159 70000=
96995 NIL=

0000029500
885
SNAU03 AMMC 110100
AAXX 11014
94461 NIL=
94477 NIL=
94651 NIL=
94653 46/// /1813 10220 20153 30188 40206=
94659 NIL=
94672 NIL=
94804 NIL=
94821 NIL=
95458 NIL=
95480 NIL=
95481 NIL=
95666 NIL=
95826 45/// /1908 10170 30213 40215 51006
  333 20153=

0000146800
886
SNAU05 AMMC 110100
AAXX 11014
94691 NIL=
94693 45/// /2809 10354 20089 30102 40163 58004
  333 20208=
94700 NIL=
94703 45/// /0607 10315 20142 30042 40165 58012
  333 20191=
94710 45/// /1304 10303 20136 39923 40171 58013
  333 20185=
94729 47/// /1705 10264 20101 39341 40174 58016 7//44
  333 20117=
94750 45/// /0506 10316 20171 30033 40155 57017
  333 20162=
94767 41780 10607 10297 20158 30161 40167 58020 70300 81202
  333 20197=
94776 45/// /1410 10278 20175 30167 40177 58011
  333 20170=
94791 459// 20513 10258 20178 30180 40187 58010
  333 20179=
94842 45/// /2410 10160 20124 30110 40208 51005=
94865 454// 81906 10181 20134 30179 40204 51006
  333 20167=
94875 45/// /3208 10332 20138 30031 40164 58010
  333 20165=
94893 45/// /2722 10172 20121 30061 40176 53007
  333 20149=
94907 45/// /2715 10234 20142 30161 40171 50002
  333 20165=
94910 41880 72706 10308 20112 39928 40172 58014 70311 81108
  333 20159=
94926 43/// /3007 10288 20114 39514 40168 56019
  333 20124=
94935 45/// /2012 10237 20165 30132 40158 51003
  333 20174=
94995 NIL=
95485 45/// /0809 10324 20154 39957 40156 58006
  333 20225=
95527 457// 13408 10286 20140 39924 40172 58015
  333 20221=
95719 457// 32406 10296 20153 39851 40175 58010
  333 20168=
95762 457// 22007 10295 20106 39720 40167 58020
  333 20177=
95839 45/// /2114 10260 20094 30028 40184 50001
  333 20142=

0000105000
887
SAAR20 OEJD 110100
METAR OBBI 110100Z 16007KT 5000 RA SCT020 17/15 Q1017 TEMPO VRB30KT
TSRA SCT040CB=
METAR OKBK 110100Z 16009KT CAVOK 11/09 Q1016
     NOSIG=
METAR OMAA 110100Z 08004KT CAVOK 15/09 Q1018 A3006 NOSIG=
METAR OMAD 110100Z 04003KT 360V110 CAVOK 17/10 Q1018 A3007 NOSIG=
METAR OMAL 110100Z 11006KT 080V140 CAVOK 16/08 Q1020 A3012 NOSIG=
METAR OMDB 110100Z 06007KT 040V100 CAVOK 18/10 Q1020 NOSIG=
METAR OMFJ 110100Z 29005KT CAVOK 15/10 Q1020 A3013=
METAR OMRK 110100Z 07007KT CAVOK 15/09 Q1020 A3013=
METAR OMSJ 110100Z 08007KT CAVOK 17/10 Q1020=
METAR OOBR 110100Z NIL=
METAR OOKB 110100Z NIL=
METAR OOMS 110050Z 13003KT CAVOK 14/10 Q1021 NOSIG=
METAR OOSA 110050Z 32004KT 280V350 9999 FEW025 SCT090
20/16 Q1017 NOSIG  RMK01 RH74=
METAR OOSH 110100Z NIL=
METAR OOSQ 110100Z NIL=
METAR OOSR 110100Z NIL=
METAR OOTH 110100Z NIL=
METAR OOYB 110100Z NIL=
METAR OTBD 110100Z 10011KT 9999 -RA SCT100 OVC120 19/16 Q1019 NOSIG=
METAR OYAA 110100Z 13011KT 9999 SCT018 25/19 Q1015 NOSIG=
0000008400
888
SAAR20 OEJD 110100 RRA
METAR OYSN 110100Z 00000KT CAVOK 10/05 Q1025=
0000028400
889
SAME31 OEJD 110100
METAR OJAI 110100Z NIL=
METAR OJAM 110100Z 00000KT 4000 HZ NSC 06/04 Q1020 TEMPO 3000 BR=
METAR OJAQ 110100Z NIL=
METAR OLBA 110100Z 11004KT 7000 BKN026 13/10 Q1022=
METAR OSAP 110100Z NIL=
METAR OSDI 110100Z NIL=
METAR OSLK 110100Z NIL=
0000011300
890
SMOM10 OOMS 110000 RRG
AAXX 11004
41293 36/// /0003 10096 20065 39842 40205
333 0E017 58007 =
0000023100
891
FTAR20 OEJD 102300 RRE
TAF OTBD 110113Z 1100/1206 36005KT 7000 RA FEW025 OVC100 PROB40 TEMPO
                           1103/1117 VRB25KT 4000 TSRA FEW030CB BECMG

                           1120/1122 33015KT=
0000084900
892
SNVE21 AMMC 110100
BBXX
VRWS4 11004 99296 31535 41598 11702 10265 20213 40202 5/001 7//00
811// 22283 04230 20201 306// 40304 80230=
9V9710 11004 99170 31677 41298 51220 10290 20232 40083 50/// 70211
852// 22233 00297 2//// 312// 40402 80250=
VRAE3 11009 99201 31537 41598 21214 10277 20221 40160 51002 70100
81111 22283 04290 20703 311// 40804 80239=
VRRC 11004 99014 11337 41498 42716 10290 20248 40093 70200 83108
22272 20301 326// 40504 80260=
ZM2619 11003 99440 31796 41/97 22213 10140 20086 40135 54000 70122
22222 29901 322// 40704 80115=
VNSZ 11014 99412 31464 46/// /3514 10219 20102 30110 40136 52001
22200 04180 85150=
VNSZ 11004 99412 31464 46/// /3508 10204 20124 30115 40141 52011
22200 04175 85155=
C6FS9 11004 99238 31512 46/// /1314 10248 20197 30142 40178 52010
22200 04276 85213=

0000011800
893
SMAR20 OEJD 110000 RRC
AAXX 11003
41268 26/// /0007 10177 20056 30195 48362
333 0E017 58019 70002=
0000023100
894
FTXX45 OEJD 102200 RRE
TAF OTBD 110113Z 1100/1206 36005KT 7000 RA FEW025 OVC100 PROB40 TEMPO
                           1103/1117 VRB25KT 4000 TSRA FEW030CB BECMG

                           1120/1122 33015KT=
0000004100
895
SNPS01 AMMC 110100
NIL

0000143600
896
UKUK01 EGRR 110000 RRA
TTBB 60238 03918
00009 02011 11008 02218 22006 02620 33000 03021 44991
04239 55986 04447 66976 03843 77968 04056 88933 01456
99913 00258 11880 02550 22836 06125 33810 08343 44800
08760 55789 09736 66778 10161 77772 10559 88763 10963
99741 12359 11708 14568 22653 19759 33624 20774 44607
22174 55596 21790 66554 23392 77546 24175 88541 24760
99528 25759 11521 26362 22484 30157 33451 32566 44442
33774 55409 37965 66403 38563 77393 40162 88385 40165
99373 41763 11348 44972 22318 49163 33310 48565 44300
48966 55284 51964 66277 51964 77267 54163 88265 53764
99259 53965 11256 52767 22246 52372 33243 50374 44238
51376 55229 50977 66218 47985 77213 48184 88201 50984
99188 50584 11186 49384 22175 50984 33160 49384 44143
51383 55135 49384 66117 52983 77105 51783 88100 52983
21212 00009 23507 11996 25015 22987 26018 33965 28518
44938 28521 55920 28017 66877 26519 77800 26518 88731
26519 99677 26029 11625 25528 22597 23035 33565 23048
44539 23047 55472 21566 66452 21569 77403 22068 88375
22068 99354 22572 11312 22576 22304 23079 33287 23574
44276 24074 55260 23559 66253 23066 77241 22054 88234
23060 99223 24048 11213 23044 22201 23034 33189 23541
44178 23039 55169 23536 66163 23545 77157 24538 88151
25544 99140 24028 11128 22539 22110 26034 33106 23524
44100 23031
31313 48108 82315
41414 /////
51515 11903 27517 22800 26518 33600 23534=
0000125000
897
SNAU40 AMMC 110100
AAXX 11014
94100 15/// /2906 10308 20235 30074 40101 51002 60004
  333 20260 70000=
94202 11/86 42701 10320 20257 30088 40101 52041 60004 70300
  333 70000=
94204 155// 22107 10314 20238 30009 40102 51010 60004
  333 20263 70000=
94213 11/70 20000 10340 20240 39868 40095 60004 70500
  333 70000=
94214 11/82 70000 10334 20269 30077 40094 60004 70211 82000
  333 70000=
94215 11/64 40000 10303 20240 39667 40093 52004 60004 70300
  333 70000=
94217 15/// /2805 10332 20228 39914 40097 50005 60004
  333 20278 70000=
94303 15/// /2407 10312 20271 30097 40103 51017 60004
  333 20269 70000=
94306 05/// /2906 10331 20228 30082 40095 51021 60004
  333 20284 70000=
94308 15/// /2806 10331 20256 30083 40095 51015 60004
  333 20245 70000=
94309 11970 03102 10339 20269 30078 40092 52011 60004 70200
  333 70000=
94316 15/// /0908 10371 20088 39636 40098 51010 60004
  333 20252 70000=
94402 11984 02307 10265 20219 30074 40085 51005 60004 70200
  333 70000=
94415 11/70 10515 10365 20099 60004 70300
  333 70000=
94417 05/// /0618 10376 20021 39815 40119 58003 60004
  333 20267 70000=
94422 11983 00713 10400 21015 39771 40089 60004 70000
  333 70000=

0000169000
898
SNAU41 AMMC 110100
AAXX 11014
94444 11/84 11105 10326 20142 39662 40148 60004 70100 81050
  333 70000=
94448 11970 00902 10304 20101 39735 40157 60004 70200
  333 70000=
94450 15/// /0914 10306 20044 39749 40162 50004 60004
  333 20241 70000=
94457 15/// /0912 10370 21011 39632 40138 50002 60004
  333 20265 70000=
94600 15/// /1019 10247 20145 30053 40181 53001 60004
  333 20173 70000=
94602 15/// /0914 10285 20167 30106 40157 50000 60004
  333 20220 70000=
94603 05/// /0719 10348 20062 60004
  333 20230 70000=
94604 05/// /0913 10279 20138 30177 40184 51001 60004
  333 20183 70000=
94605 05/// /1006 10302 20121 30161 40165 58001 60004
  333 20225 70000=
94607 45/// /0917=
94608 15/// /1107 10307 20130 30128 40157 58003 60004
  333 20226 70000=
94609 15/// /0814 10308 20110 30126 40161 58002 60004
  333 20216 70000=
94612 15/// /0914 10312 20100 30090 40153 50002 60004
  333 20190 70000=
94614 05/// /1015 10309 20118 60004
  333 20224 70000=
94615 45/// /0915 10286 20125
  333 20211=
94617 15/// /0708 10241 20130 39873 40204 58002 60004
  333 20150 70000=
94620 15/// /1010 10259 20116 39875 40184 50002 60004
  333 20181 70000=
94621 11980 01109 10294 20115 60004 70200
  333 70000=
94622 11975 00504 10320 20159 39827 40147 60004 70200
  333 70000=
94625 11970 01305 10275 20131 60004 70200
  333 70000=
94627 11984 00706 10266 20082 60004 70200
  333 70000=
94628 05/// /0810 10267 20056 39837 40206 50006 60004
  333 20140 70000=
94631 15/// /0906 10244 20117 60004
  333 20141 70000=
94632 11/82 10910 10310 20188 39762 40166 60004 70300 81030
  333 70000=

00000000