0000011800
272
SNVD25 LFPW 110200
BBXX
BATEU06 11024 99477 70601 46/// /2525 11025 21061 40224 53010
22234 04019=
0000024000
273
KULI01 EGRR 110200

CREX++
T0002071500 A008002 P00074000 U00 S001 Y20140110 H1121 D07044++
89 022 HALLEY               -7561 -02621 00033 2014 01 10 11 21
08 0309 003 031   // // 00004 04 0305 09 0006 11 202++
7777
0000462800
274
SNVF50 EGRR 110200
BBXX
63057 11024 99592 10015 47998 /2717 10060 20010 40000 53001 700// 22200 10606 70028=
62128 11024 99587 10014 47598 /2723 10059 20011 40017 50002 700// 22200 10606 70028=
62113 11024 99584 10002 47998 /2723 10060 21004 40032 51004 700// 22200=
62112 11024 99584 70002 47598 /2821 10060 20012 40026 50001 700// 22200=
62129 11024 99584 10003 46/// /2722 10061 21004 40027 50003 22200=
62114 11024 99583 10000 46/// /2724 10061 20008 40026 50003 22200=
62148 11024 99536 10015 46/// ///// 22200=
62144 11024 99534 10017 47697 /2120 10076 20057 40098 58010 700// 22200 10403 70013=
62142 11024 99530 10021 47996 /2317 10073 20064 40108 57005 761// 22200 10403 70014=
62145 11024 99531 10028 47698 /2323 10081 20050 40109 57007 700// 22200 10504 70018=
62154 11024 99564 10022 46/// /3214 10078 20047 40044 56001 22200=
62123 11024 99563 10022 47498 /3215 10076 20039 40048 53002 700// 22200 1//05 70024=
62127 11024 99540 10007 47497 ///// 10072 20057 40082 58003 762// 22200 10503 70013=
62165 11024 99540 10011 47397 /2320 10073 20066 40079 56006 762// 22200 10503 70014=
62131 11024 99539 10012 46/// /2218 10074 20062 40082 57009 22200=
62150 11024 99536 10007 47598 /2219 10072 20072 40096 56009 700// 22200 10502 70011=
62121 11024 99535 10027 46/// ///// 10074 20056 40106 57007 22200=
64041 11024 99607 70026 47598 /2718 49975 51006 700// 22200 10908 70038=
MWYG6 11024 99603 70040 47598 /2617 49988 52009 700// 22200=
63115 11024 99616 10013 47396 /0819 10030 21000 49975 58007 762// 22200 10805 70027=
63114 11024 99613 10017 47398 /0818 10026 21003 49973 57009 762// 22200=
63117 11024 99613 10011 47498 /0917 49974 57008 700// 22200=
63101 11024 99612 10009 46/// /0715 10028 20012 49970 57011 22200 10706 70028=
63103 11024 99612 10011 46/// ///// 10029 20009 49959 57012 22200 10706 70028=
63112 11024 99611 10010 47498 /1114 10043 20027 49961 57012 700// 22200 10706 70029=
63104 11024 99612 10016 47497 /0915 10029 21009 49973 57010 761// 22200 10706 70031=
63107 11024 99611 10017 46/// /0915 10042 49970 57010 22200=
63106 11024 99610 10017 46/// /0916 10031 57013 22200=
63105 11024 99610 10017 47498 /1016 10072 20005 49971 57013 700// 22200=
63113 11024 99610 10017 46/// /0915 10048 20020 49968 57014 22200 10805 70027=
63108 11024 99608 10017 47/99 /1402 10050 20029 49967 57009 700// 22200 10705 70027=
63055 11024 99606 10016 47498 /2704 10048 20031 49970 57007 762// 22200 10805 70027=
63056 11024 99597 10016 47498 /2723 10063 20021 49985 56003 700// 22200 10706 70031=
63109 11024 99596 10015 46/// /2728 10060 20023 49987 55002 22200=
63110 11024 99595 10015 47497 /2722 10063 20027 49997 55000 762// 22200 10606 70029=
MQSY9 11024 99593 10015 47498 /2730 10062 20033 55001 700// 22200=
62118 11024 99577 10009 47598 /2917 10065 20014 40035 50004 700// 22200 10604 70022=
ZQSD5 11024 99583 10008 47598 ///// 10064 20012 40023 50005 700// 22200 1//06 70029=
PJAI 11024 99581 70014 47998 /2618 10064 21007 40035 51004 700// 22200=
62111 11024 99580 70003 46/// /2924 10062 20010 40050 51004 22200 10605 70026=
62117 11024 99579 10000 47698 /2820 10062 21004 40027 51006 700// 22200 10504 70020=
62134 11024 99580 10014 46/// /3020 10063 20015 40033 51004 22200 10604 70022=
62102 11024 99579 10018 47598 /2920 10072 20013 40030 52005 700// 22200 10604 70022=
62143 11024 99577 10018 47598 /3009 10066 20003 40044 51003 700// 22200 10604 70022=
62155 11024 99577 10007 47598 /2818 10065 20009 40043 51004 700// 22200 10604 70021=
62116 11024 99576 10011 47598 /2916 10065 20008 40039 51005 700// 22200 10504 70020=
62164 11024 99572 10008 47998 /3015 10073 20007 40048 51007 700// 22200 00084 10604 70022=
62133 11024 99571 10009 46/// /3115 40048 52006 22200 10604 70022=
62104 11024 99574 10013 47598 /3016 10072 20011 40041 51005 700// 22200=
62140 11024 99573 10013 46/// ///18 10066 20006 40043 52005 22200=
62122 11024 99573 10016 47598 /3018 10069 20006 40041 52002 700// 22200 10604 70020=
62153 11024 99573 10020 47598 /3015 40041 52005 700// 22200 10604 70021=
62146 11024 99572 10021 47598 /2908 10069 20023 40043 52002 700// 22200 10604 70021=
62152 11024 99570 10018 47998 /3116 10072 20010 40049 53001 700// 22200 10505 70023=
62119 11024 99570 10019 47898 /3217 10068 20011 40045 55001 700// 22200 10604 70022=
62120 11024 99564 10021 47598 /3315 10073 20028 40050 52005 700// 22200=
62132 11024 99564 10020 46/// /3316 10074 20047 40051 50003 22200=
62149 11024 99537 10011 47496 /2221 10074 20061 40089 57009 762// 22200 10402 70012=
0000009400
275
SAUK39 EGRR 110150 RRA
METAR EGDR 110150Z 32008KT 9999 FEW040 06/03 Q1014 BLU=
0000011500
276
SNVF25 LFPW 110200
BBXX
FVNM 11024 99477 70034 46/// /3203 10075 20069 40153 51005
22200 04094=
0000011800
277
SNVF25 LFPW 110200
BBXX
BATFR34 11024 99473 70060 46/// /2608 10122 20074 40161 52003
22200 04135=
0000011800
278
SNVF25 LFPW 110200
BBXX
BATFR14 11024 99326 70341 46/// /05// 10184 20139 40140 51012
22254 04205=
0000011800
279
SNVF25 LFPW 110200
BBXX
BATFR54 11024 99473 70034 46/// /3106 10099 20074 40174 52001
22232 04107=
0000011800
280
SNVF25 LFPW 110200
BBXX
BATFR09 11024 99411 70101 46/// /0210 10117 20059 40177 53003
22242 04152=
0000015700
281
SSVX13 LFPW 110200
ZZYY 14920 11014 0200/ 328540 067374 6113/ 11119 40253 52016 22219
 00225 444 20130 11014 0159/ 50101 80122 80015 9/015=
0000015700
282
SSVX13 LFPW 110200
ZZYY 41970 11014 0200/ 730908 058816 6113/ 11119 40303 52009 22219
 00216 444 20130 11014 0159/ 50101 80118 80058 9/015=
0000015700
283
SSVX13 LFPW 110200
ZZYY 16591 11014 0200/ 343718 064350 6113/ 11119 40213 57001 22219
 00108 444 20130 11014 0159/ 50101 80118 80018 9/015=
0000015700
284
SSVX13 LFPW 110200
ZZYY 44612 11014 0200/ 745761 045424 6113/ 11119 40224 52014 22219
 00039 444 20130 11014 0200/ 50101 80154 80000 9/015=
0000018400
285
SSVX13 LFPW 110200
ZZYY 41736 11014 0200/ 711944 040281 6113/ 11119 40153 57005 22219
 00256 33300 88872 20000 43602 444 20130 11014 0159/ 50101 80112
 80024 9/015=
0000236500
286
SNDL21 EDZW 110200
AAXX 11021
10004 46/56 /2211 10080 20070 30098 40098 56008
222// 00078
  333 55300 91115 91212=
10015 47246 82410 10071 20062 30097 40107 58006 71000
  333 55300 20000 30000 88/06 91113=
10020 45479 82307 10069 20058 30055 40087 57010
  333 55300 20000 30000 88/11 88/64=
10035 42364 72406 10059 20049 30045 40104 57005 876//
  333 55300 20000 30000 41196 87707=
10055 45475 82307 10059 20045 30098 40108 52002
  333 55300 20000 30000 81/18 86/25 88/31=
10147 42475 72305 10056 20040 30110 40129 58004 876//
  333 55300 20000 30000 41215 87711=
10162 47557 82306 10049 20033 30051 40125 51004 71000
  333 55300 20000 30000 88/25=
10184 41468 72505 10054 20037 30108 40116 50004 72582 878//
  333 55300 20000 30000 85816 87633=
10200 47356 82105 10064 20051 30126 40124 57003 72365
  333 55300 20000 30000 88/09=
10224 42458 82205 10059 20042 30131 40137 58002 886//
  333 55300 20000 30000 87712=
10270 46560 32403 10040 20021 30094 40150 54000
  222// 06041
  333 55300 83/22=
10338 42468 72504 10053 20035 30083 40156 55001 876//
  333 55300 20000 30000 87713=
10361 45980 82303 10045 20016 30057 40162 53002
  333 55300 20000 30000 87/67 88/69=
10393 42770 32405 10037 20013 30025 40154 53001 83500
  333 55300 20000 30000 83650=
10400 42980 11503 10016 20006 30120 40171 58007 80001
  333 55300 20000 30000 81074=
10469 42686 72103 10027 20009 30009 40178 52001 83526
  333 55300 83640 87273=
10488 42783 62405 10038 20007 39896 40182 53004 83506
  333 55300 20000 30000 40920 83656 85273=
10506 45362 71602 10020 20014 39587 40181 58010
  333 55300 20000 30000 87/06=
10548 47002 21602 11008 21009 39639 40198 57002 73530
  333 55300 20000 30000 82/00=
10637 41064 11601 11007 21013 30052 40195 57003 74000 81601
  333 55300 81701 96011=
10685 45360 71902 10012 21001 39503 40191 54000
  333 55300 20000 30000 87/07 87/70=
10738 42986 30000 11015 21018 39722 40209 58006 80001
  333 55300 83080=
10763 42980 01003 11001 21004 39811 40206 58002
  333 55300 20000 30000=
10788 47957 20701 11018 21018 39772 40221 55003 71000
  333 55300 20000 30000 82/75=
10852 47932 01001 11022 21022 39628 40220 56007 71000
  333 55300 20000 30000=
10946 47002 81402 11003 21003 39361 40215 56005 73533
  333 55300 20000 30000 88/00=
0000243300
287
SNDL22 EDZW 110200
AAXX 11021
10007 46/48 /2212 10071 20063 30107 40107 58005
222// 00071
  333 553// 91115 91213=
10044 46/// /2311 10058 20043 30070 40102 58002
222// 00055
  333 55300 91114 91212=
10046 45471 82305 10061 20049 30075 40109 58002
  333 55300 87/12 87/17 88/36=
10091 45371 82610 10052 20043 30051 40102 51006
  333 55300 20000 30000 83/08 83/22 88/44 91114 91212=
10113 47334 72208 10066 20057 30098 40117 56006 72365
  333 55300 20000 30000 87/09 87/40 91113=
10124 NIL=
10131 47456 82206 10066 20051 30104 40119 58003 71000
  333 55300 20000 30000 86/10 87/16 88/21=
10170 42581 32305 10054 20029 30099 40115 58001 81802
  333 55300 20000 30000 81820=
10264 45458 82304 10044 20030 30028 40136 53003
  333 55300 20000 30000 81/15 88/26=
10291 42966 22504 10035 20019 30073 40142 53005 80004
  333 55300 20000 30000 82080=
10315 42459 72204 10051 20032 30092 40157 58007 875//
  333 55300 20000 30000 87610=
10379 42581 52305 10037 20014 30035 40159 53004 85500
  333 55300 20000 30000 40975 81622 85646=
10381 42681 32404 10048 20009 30055 40154 53002 81504
  333 55300 81640 83075=
10382 42581 52405 10046 20016 30106 40152 54000 82501
  333 55300 20000 30000 82625 84075=
10384 46/// /2304 10051 20014 30090 40151 53001
  333 55300 20000 30000=
10427 41981 32406 11008 21009 39150 48443 56006 72811 80002
  333 55300 20000 30000 83075 96241
  444 17070=
10430 45670 81801 10035 20016 39972 40168 56002
  333 55300 20000 30000 81/40 88/63=
10439 NIL=
10453 41/90 92516 11017 21017 38801 48429 55003 74944
  333 55300 91121 91218 96036=
10496 45681 82404 10040 20013 30080 40166 53001
  333 55300 20000 30000 87/46 88/75 88/80=
10499 42982 72405 10036 20001 39883 40178 53002 80006
  333 55300 20000 30000 87276=
10505 42982 01906 10031 20003 39883 40170 56008
  333 55300 20000 30000=
10513 42981 01203 10022 20007 30049 40173 58005
  333 55300 20000 30000=
10532 45959 20901 11007 21012 39932 40189 56007
  333 55300 20000 30000 82/80=
10544 42270 72206 11007 21007 39087 48456 57002 82508
  333 55300 82604 87270=
10554 42984 72306 10027 20006 39786 40181 55003 82036
  333 55300 20000 30000 82363 87280=
10567 45969 82005 10015 20000 39803 40188 55002
  333 55300 20000 30000 86/67 88/69=
10578 41/01 92612 11032 21032 38764 48456 55001 74944
  333 55300 20000 30000 91114 91212=
0000195100
288
SNDL23 EDZW 110200
AAXX 11021
10609 47000 80101 11003 21003 39851 40192 55008 73533
  333 55300 20000 30000 88/00=
10616 41405 11702 11003 21003 39574 40191 58009 74600 81500
  333 55300 81610=
10641 47936 01901 11005 21009 30043 40195 56003 71000
  333 55300=
10655 42970 11702 10008 20003 39859 40197 56002 80002
  333 55300 20000 30000 81080=
10675 47947 81702 11005 21005 39903 40205 56003 71000
  333 55300 20000 30000 82/73 85/80 88/80=
10688 45569 81801 10010 20004 39671 40207 56003
  333 55300 20000 30000 82/22 83/27 88/33=
10708 42980 30702 11001 21003 39796 40194 57008 80001
  333 55300 20000 30000 83077=
10729 45964 01201 11004 21008 30066 40192 58008
  333 55300 20000 30000=
10731 45969 70000 11018 21020 30039 40188 58009
  333 55300 20000 30000 83/80 87/80=
10742 45958 10701 11004 21010 39860 40203 57006
  333 55300 20000 30000 81/79=
10776 47944 01401 11009 21011 39756 40216 57005 71000
  333 55300 20000 30000=
10791 46/// /2409 11034 21036 38530 48474 55003
  333 55300=
10805 47959 03201 10001 20001 39998 40195 56006 72030
  333 55300 20000 30000=
10815 45983 12403 11011 21011 39241 48463 56007
  333 4/001 55300 20000 30000 81/78=
10836 45988 01803 10016 21009 39317 40203 56005
  333 4/001 55300 20000 30000=
10870 41975 12901 11023 21023 39665 40221 58007 71111 80001
  333 55300 81077=
10895 47956 00601 11011 21011 39633 40223 55002 72030
  333 55300 20000 30000=
10908 45960 02514 10044 21002 38486 48482 55001
  333 55300 20000 30000 91120 91216=
10929 47001 82902 10019 20019 39667 40211 55004 73033
  333 55300 20000 30000 88/00=
10948 47014 41601 11005 21005 39250 48478 56003 72030
  333 55300 20000 30000 82/00 83/72=
10961 46/// /2910 11059 21062 37074 47043 52003
  333 55300 20000 40932 91121 91212=
10962 42586 31903 10031 20014 39041 48483 58004 82501
  333 55300 20000 30000 82633 95127
  444 37071=
0000126600
289
SNDL44 EDZW 110200
AAXX 11021
10022 45361 72208 10062 20055 30086 40096 58006
  333 55300 20000 30000 85/06 87/23 87/65=
10028 47350 72308 10066 20059 30095 40109 56004 71000
  333 55300 20000 30000 87/08 87/13=
10033 NIL=
10037 NIL=
10038 NIL=
10042 45472 72307 10062 20047 30099 40103 58003
  333 55300 87/11 87/38=
10067 NIL=
10093 45480 82506 10053 20035 30058 40108 51004
  333 55300 86/11 87/19 88/48=
10097 45661 62410 10050 20038 30094 40108 51004
  222// 06045
  333 55300 84/36 86/50 91113 91212=
10126 NIL=
10129 45460 82207 10062 20052 30116 40129 56004
  333 55300 20000 30000 87/11 88/15=
10130 47348 82309 10063 20053 30113 40119 58005 72250
  333 55300 83/09 85/25 88/40=
10136 NIL=
10139 47450 82306 10058 20047 30120 40134 57004 71000
  333 55300 20000 30000 85/13 87/19 88/24=
10142 46450 82404 10061 20049 30088 40119 57005
  333 55300 88/10=
10146 47457 82204 10059 20044 30112 40129 58003 71000
  333 55300 87/12 88/34=
10150 45483 62405 10058 20045 30084 40118 58002
  333 55300 20000 30000 81/13 86/21=
10152 45466 82405 10061 20043 30116 40118 51003
  333 55300 88/18=
10156 45461 82403 10059 20040 30106 40127 55002
  333 55300 20000 30000 83/17 88/26 88/31=
0000154500
290
SNDL45 EDZW 110200
AAXX 11021
10161 45468 52407 10056 20035 30102 40122 51003
  333 55300 20000 30000 85/18=
10168 47556 72305 10043 20034 30055 40128 51003 71000
  333 55300 87/24=
10172 NIL=
10180 45480 72506 10057 20038 30107 40112 51005
  333 55300 83/15 87/20 87/29=
10193 47570 32405 10050 20029 30121 40124 52004 72365
  333 55300 20000 30000 82/26 83/50=
10210 47350 82205 10061 20046 30130 40139 58001 71000
  333 55300 20000 30000 88/09=
10235 47348 82304 10048 20036 30053 40148 56001 71000
  333 55300 20000 30000 87/06 88/15=
10238 NIL=
10246 NIL=
10249 47457 82304 10052 20033 30080 40137 54000 71000
  333 55300 20000 30000 83/14 88/29=
10253 47457 82505 10053 20033 30125 40147 53001 71000
  333 55300 88/14=
10261 42470 62304 10047 20029 30120 40149 53003 82108
  333 55300 20000 30000 82818 86273=
10267 45460 72305 10039 20023 30096 40146 53001
  333 55300 82/17 87/71 87/75=
10268 46/// /2404 10039 20024 30042 40130 51001
  333 55300=
10281 464// 82506 10047 20029 30018 40132 53005
  333 55300 20000 30000 88/16=
10282 45458 72405 10037 20024 39991 40135 52003
  333 55300 20000 30000 87/12=
10289 45468 72406 10046 20025 30063 40134 51003
  333 55300 87/17 87/80=
10304 NIL=
10305 463// 82204 10056 20035 30116 40148 57006
  333 55300 88/08=
10306 NIL=
10309 47357 82106 10048 20032 30097 40155 58009 71000
  333 55300 20000 30000 87/09 88/64=
10312 47356 82304 10045 20031 30026 40155 58003 71000
  333 55300 20000 30000 88/08=
0000175700
291
SNDL46 EDZW 110200
AAXX 11021
10321 47450 82305 10050 20039 30096 40149 50001 71000
  333 55300 20000 30000 88/10=
10325 45459 82204 10046 20028 39993 40161 56002
  333 55300 88/11=
10334 NIL=
10335 NIL=
10343 NIL=
10348 45679 72403 10042 20016 30048 40156 57004
  333 55300 20000 30000 41096 87/44=
10356 45667 72404 10031 20017 39961 40163 55001
  333 55300 87/41 87/66=
10359 45680 82304 10056 20026 30097 40156 55000
  333 55300 20000 30000 88/43=
10365 45678 72203 10039 20019 30118 40165 53001
  333 55300 20000 30000 85/35 87/76=
10368 45580 82304 10036 20012 39932 40164 53002
  333 55300 20000 30000 87/22 88/36=
10376 45781 72405 10048 20017 30092 40161 53002
  333 55300 87/50=
10385 42581 62305 10034 20010 30094 40157 53001 85501
  333 55300 20000 30000 83623 83640=
10396 45974 02404 10037 20015 30134 40150 53003
  333 55300=
10404 NIL=
10410 45973 02002 10028 20007 39985 40171 56008
  333 55300=
10418 45981 02303 10017 20004 39699 40176 56006
  333 55300 20000 30000=
10424 45979 82202 10028 20007 30061 40169 58004
  333 55300 20000 30000 88/78=
10433 45980 81902 10033 20013 39841 40159 58003
  333 55300 20000 30000 88/62 88/66=
10435 45972 82102 10021 20008 39881 40174 55004
  333 55300 82/62 87/69 88/71=
10441 45973 73201 10021 20012 39788 40179 56005
  333 55300 83/70 87/72=
10442 45983 82104 10051 20016 39984 40163 56005
  333 55300 20000 30000 86/67 88/69=
10444 45878 82102 10029 20013 39963 40172 58005
  333 55300 20000 30000 81/57 87/63 88/69=
10449 45983 82304 10031 20010 39740 40172 57006
  333 55300 20000 30000 82/62 88/68=
10452 45267 72104 10012 20007 39435 40170 55002
  333 55300 20000 30000 87/06 87/10 87/65=
00000000