0000003900
039
SMVX01 RPMM 110000
NIL=
0000014600
040
SNAU47 AMMC 102300 RRD
AAXX 10234
94258 11584 70902 10330 20256 30038 40106 52021 69924 70382 84339
92330
  333 70002=


0000357000
041
UKKR02 DKPY 110000
TTBB  61008 47090 00027 02161 11010 00967 22857 10766 33771
14570 44670 15594 55632 19379 66439 33172 77424 34976 88394
39359 99380 40162 11312 46761 22290 49579 33276 51382 44227
50383 55208 53382 66197 50183 77177 51182 88169 48783 99139
53781 11100 53981 22100 53981 21212 00027 25004 11885 31523
22387 28094 33312 27638 44249 27120 55239 27137 66181 27628
77100 27063 31313 45708 82314
=
TTBB  61008 47102 00012 01159 11994 01559 22870 10510 33842
12120 44818 14113 55800 12568 66737 11796 77718 11996 88561
23775 99493 27772 11455 31557 22425 33556 33375 40160 44277
53760 55262 51382 66199 49983 77100 56781 88100 56781 21212
00012 10007 11928 29510 22845 26023 33767 30530 44532 29546
55334 27619 66210 27134 77177 27112 88132 27103 99100 27566
31313 45708 82332
=
TTBB  61006 47122 00026 08119 11025 07509 22020 05300 33012
04101 44994 03301 55958 05709 66952 06146 77910 07764 88883
09513 99821 13326 11798 12761 22763 13167 33750 11968 44684
13572 55614 18370 66536 21967 77488 26962 88474 28356 99438
29758 11399 34760 22375 35958 33330 43724 44288 50347 55257
47362 66120 55964 77112 52165 88102 55565 21212 00026 04501
11961 34012 22896 30524 33835 29028 44703 31032 55614 30038
66522 28552 77304 27612 88268 27110 99220 26645 11122 26617
31313 52106 82309 61616 11900 30523 22800 30024 33600 30041
=
TTBB  61008 47138 00031 01758 11978 03558 22897 08956 33884
08957 44858 06766 55842 06569 66751 12174 77620 15994 88556
21185 99516 23371 11481 25756 22452 27367 33424 29765 44387
34356 55351 40158 66290 47965 77276 45171 88223 49983 99207
47983 11149 57180 22100 61179 21212 00031 25006 11876 31533
22804 33510 33732 29524 44386 27104 55313 28105 66274 26646
77250 27156 88231 26640 99208 26662 11164 27123 22128 27126
33100 26588 31313 45708 82326
=
TTBB  61008 47158 00032 03300 11004 01158 22980 01958 33915
06523 44825 12320 55816 10966 66806 08573 77615 13795 88574
16789 99552 18761 11533 18558 22505 20937 33459 24764 44424
28756 55344 39966 66314 44761 77290 42574 88258 47383 99229
48583 11220 46184 22175 51782 33138 61179 44101 60779 21212
00032 16501 11967 33010 22927 31514 33894 33021 44840 33522
55818 29523 66783 31022 77699 29524 88426 27078 99318 27092
11294 26627 22262 26631 33247 26650 44230 26638 55200 26665
66176 27148 77159 27154 88136 26623 99119 26628 11109 27093
22101 26595 31313 52108 82306 61616 11900 33020 22800 30021
33600 28542
=
TTBB  61008 47169 00023 03259 11020 02260 22980 00860 33900
02957 44892 04550 55835 08522 66795 10720 77787 09366 88760
09365 99718 07397 11648 10596 22537 12995 33512 14561 44509
16160 55501 16559 66497 18358 77466 19535 88444 20556 99437
22556 11398 26959 22392 32162 33345 40159 44333 42359 55299
40786 66265 47184 77226 46384 88169 53382 99128 63978 11100
61979 22100 61979 21212 00023 36007 11830 32003 22420 27054
33207 26166 44156 27161 55100 27091 31313 45708 82337
=
TTBB  61008 47185 00023 03857 11954 00738 22916 02156 33840
06922 44824 06961 55816 05373 66775 05379 77759 06159 88736
06797 99710 07197 11672 09397 22630 12595 33613 13765 44601
14514 55583 15950 66548 16514 77535 16720 88496 20732 99461
22767 11446 24962 22423 25965 33367 34957 44355 35961 55343
33978 66291 40186 77259 41785 88208 48383 99192 53182 11186
53981 22183 51582 33110 68577 44107 66378 55100 67577 21212
00023 36015 11680 28516 22511 27568 33451 26043 44211 26173
55152 27154 66128 26604 77103 27110 88100 27101 31313 45708
82321
=
0000097400
042
ULKR02 DKPY 110000
TTCC  61002 47090 70835 55581 25541 50050 52982 31016 30386
47183 11023 20654 46384 10530 88999 77999 31313 45708 82314
=
TTCC  61001 47102 70835 55381 26537 50050 54981 22007 30384
47183 07021 20653 44784 11034 10120 41585 11050 88999 77999
31313 45708 82332
=
TTCC  61001 47122 70847 54965 26027 50063 48567 24531 30401
44768 10513 20674 41570 11031 10149 36971 09546 88999 77999
31313 52106 82309
=
TTCC  61001 47138 70838 59580 25048 50050 51982 34505 30382
49783 10521 20650 44784 09537 10114 42785 09552 88999 77999
31313 45708 82326
=
TTCC  61001 47158 70844 62179 27039 50055 51382 27509 30387
49183 10022 20656 43385 11036 10121 41785 10057 88999 77999
31313 52108 82306
=
TTCC  61007 47169 70850 63778 27547 88999 77999 31313 45708
82337
=
TTCC  61001 47185 70846 67577 26047 50054 57180 25005 30382
52382 10028 20648 47983 12539 10111 43785 09056 88999 77999
31313 45708 82321
=
0000025900
043
UAAK04 KAWN 110100 RRA
SCC UA /OV SCC/TM 0121/FLUNKN/TP B737/RM LNDD RY23 BA GOOD=
BRW UA /OV BRW070007/TM 0132/FLUNKN/TP B350/SK SCT020=
SIT UA /OV BKA311010/TM 0134/FL340/TP B738/TB CONT LGT 340/RM
 DECNDG TO FL300. ASA101 AWC-WEB/ASA=
0000297300
044
SMPH20 RPMM 110000
AAXX 11001
98132 11465 20906 10212 20167 40259 5/018 60014 70540
82130 333 20166 56299 58005 70012 82817=
98133 11467 70406 10230 20209 40205 5//// 69944 70544
83270 222// 20703 333 20216 56199 58015 70004 83820
87360=
98222 31575 10901 10225 20153 40161 52010 70544 81101
333 20195 56999 58007 81822=
98233 31570 60000 10202 20184 40202 52013 70544 83570
333 20190 56999 58017 83620 86358=
98324 31462 50404 10260 20233 40162 52020 70544 81201
333 20230 56999 58017 81816 85080=
98327 31668 50103 10213 20172 30010 40190 52020 70544
82101 333 20193 56/// 58017 82842 85080=
98334 12475 81802 10222 20190 39996 40204 52016 60024
8227/ 333 20190 56999 58007 70016 82818 88358=
98425 31560 70402 10245 20192 40165 52008 70544 83850
333 20220 56999 58004 83620 87358=
98426 31570 80600 10238 20180 40162 52018 70544 81407
333 20223 56999 58015 81630 88280=
98427 12472 63602 10242 20196 39985 40166 53022 69904
83270 333 20225 56999 58006 79999 83818 86357=
98428 31459 63601 10258 20202 40157 52018 70542 82461
333 20236 56/// 58003 82618 84080=
98432 31567 70803 10249 20196 40171 52017 70544 84272
333 20210 56199 58009 84820=
98433 31460 70804 10192 20167 39440 40174 53010 60024
71544 85830 333 20170 56999 58010 70023 85612=
98434 11468 60604 10252 20204 30181 40189 52025 69914
70542 82208 333 20230 56199 58012 70001 82818 86275=
98435 31475 70408 10256 20212 40174 52011 70322 82281
333 20235 561// 58014 82818 83358=
98442 NIL=
98446 31470 80702 10246 20210 30126 40172 53023 71522
84207 333 20240 56199 58006 84818 88270=
98447 NIL=
98538 31466 83606 10262 20222 30155 40160 53020 71542
83267 333 20250 56119 58007 83811 84357 88272=
98546 21440 80407 10245 20238 30141 40149 52020 60284
78082 8492/ 333 20224 56199 58002 70278 84915 88458
555 20248=
98548 NIL=
98553 11462 80402 10254 20239 30132 40136 52022 60364
71586 8597/ 333 20235 56199 59003 70357 84915 88358
555 20146=
98558 11460 80615 10268 20244 30070 40138 52023 60094
72582 8457/ 222// 20608 333 20225 56199 59002 70094
83615 88357 555 20002=
98642 11458 82707 10255 20242 30115 40124 52024 60094
76166 8552/ 333 20240 56199 59002 70094 85615 88457
555 20052=
98644 11458 80203 10292 20232 30099 40128 53025 60164
76162 8552/ 333 20228 56199 59005 70160 85656 88457
555 20088=
98648 11460 80000 10236 20228 30050 40132 52020 60774
71586 84967 333 20225 56199 58000 70766 83912 86358
88270 555 20465=
98746 11458 80000 10263 20222 40102 52025 60154 72586
8597/ 333 20218 56999 59003 70154 85918 88358=
98751 11470 80000 10205 20203 39438 40119 52028 60194
76166 8491/ 333 20170 56999 59009 70189 84915 88456=
98752 11440 80901 10231 20230 40132 52019 60534 76062
8497/ 333 20225 56999 59005 70527 84915 88357 555 20015=
98851 11468 83605 10242 20226 39950 40100 53014 60084
71562 8327/ 333 20222 56999 59015 70084 83818 88358
555 20074=
0000016800
045
SAIN32 VECC 110130
METAR VEAT 110130Z 01003KT 0250 FG NSC 10/10 Q1015 BECMG 0350 FG=
METAR VEBS 110130Z 01003KT 0800 FG NSC 17/16 Q1016 BECMG 1200 BR=
0000009500
046
SAIN90 VOCI 110130
METAR VOCI 110130Z 00000KT 3000 HZ SCT100 21/19 Q1013 NOSIG=
0000009900
047
SAIN34 VOMM 110130 RRA
METAR VOCI 110130Z 00000KT 3000 HZ SCT100 21/19 Q1013 NOSIG=
0000009500
048
SAIN90 VOTR 110140
METAR VOTR 110140Z 00000KT 2000 HZ SCT016 20/19 Q1015 NOSIG=
0000027600
049
SAIN32 VIDP 110130
METAR VIDP 110130Z 24004KT 0100 R28/0800 R29/0400 FG VV/// 06/06
      Q1017 NOSIG=
METAR VILK 110130Z 00000KT 0800 R27/1500 MIFG BKN020 OVC090 13/13
    Q1015 NOSIG=
METAR VIAR 110130Z 00000KT 0800 R34/2000N MIFG FEW100 05/05 Q1018=
0000009400
050
SAIN90 VAAH 110140
METAR VAAH 110140Z 36004KT 1800 HZ NSC 09/05
Q1016 NOSIG=
0000009200
051
SAIN90 VABB 110140
METAR VABB 110140Z 35004KT 3000 FU NSC 17/05 Q1015 NOSIG=
0000188200
052
USRA02 RUHB 110000
TTAA 11001 24944 99024 49560 10001 00293 45964 13002 92821 37362
24007 85411 33157 29011 70778 33156 31006 50509 45757 01010 40654
53756 02008 30837 58356 02507 25952 56356 03006 20094 53956 00504
15280 51358 30506 10545 46960 26012 88294 58556 02507 77999=
TTAA 11001 24959 99023 44338 22001 00259 45138 31004 92784 40334
30508 85373 30525 30009 70760 29530 12002 50509 44756 11011 40656
52556 12512 30839 58357 12512 25954 56958 11011 20096 54759 14009
15280 51961 17009 10546 47764 23013 88348 56757 11015 77999=
TTAA 11002 25123 99023 36913 12002 00184 28521 15003 92772 11559
08511 85420 11165 10010 70881 18765 09516 50530 35356 09023 40682
46956 08525 30866 60139 07524 25978 64339 08021 20117 61150 10506
88256 64138 08021 77999=
TTAA 11001 25400 99021 24130 03004 00190 26123 01508 92749 28706
33514 85362 219// 06009 70789 23360 08517 50519 35968 08529 40670
46363 09030 30856 56562 08023 25970 59161 09017 20110 55562 10008
15296 51565 20007 10559 49769 22518 88268 59161 08520 77999=
TTAA 11001 25428 99988 43131 00000 00180 ///// ///// 92710 36915
01508 85313 25510 08508 70743 25907 09016 50510 40310 09023 40659
48509 09526 30844 55313 10020 25961 55314 09013 20106 49515 15005
15294 49529 23508 10560 47959 25022 88271 57115 08516 77999=
TTAA 11005 25562 NIL=
TTAA 11001 25703 99994 23924 36004 00167 ///// ///// 92732 26926
36011 85341 26922 02509 70751 25939 06515 50512 41557 04510 40660
48359 05014 30847 57160 05509 25964 54160 08508 20108 49961 16003
15297 48164 18010 10564 46566 21519 88299 57360 05509 77999=
TTAA 11001 25913 99993 17159 04507 00062 ///// ///// 92648 17959
08018 85276 20747 09022 70715 23764 06508 50510 38350 36008 40660
48545 01505 30845 58356 09510 25961 54356 11510 20106 48960 13506
15296 46163 17508 10568 43366 22016 88292 58956 10010 77999=
0000013600
053
SNVD17 CWHX 110100
BBXX
44137 11011 99423 70620 46/// /2304 10047 40320 57008
22200 00076 10802 70011 333 91205 =

0000017000
054
SOVI10 KWAL 110141
B110070A 011014101"P9751095 B\P~W@@d0ekA1@rE???CwCy>@qz3@CD@@G4C~5DC6bV9I@<BH2?????@"??? iTAfLCLCGCNCICLCI:AMPTEMP 28.02C  47-0NN 219E
0000023100
055
SNVD20 KWNB 110100 RRR
BBXX
44060 11011 99413 70721 46/// /0303 10034 20030 40280 90115 22200
00041 333 91203 555 11026 22026=
44022 11011 99409 70737 46/// /0302 10012 20006 90130 333 91202
555 11015 22021=
0000091300
056
UDAS02 BABJ 110130
AMDAR 1101
ASC CNFNXQ 2635N 10648E 110127 F054 MS030 019/009 TB/ S//1=
ASC CNFNXQ 2638N 10648E 110127 F068 MS045 049/010 TB/ S//1=
DES CNFPYL 3041N 11453E 110125 F118 MS065 245/038 TB/ S//1=
DES CNFPYL 3041N 11451E 110126 F118 MS063 245/038 TB/ S//1=
DES CNFPYL 3044N 11446E 110127 F117 MS064 248/040 TB/ S//1=
DES CNFPYL 3046N 11441E 110128 F108 MS060 253/038 TB/ S//1=
ASC CNFLWT 2749N 10833E 110119 F304 MS329 259/118 TB/ S//1=
LVR CNFLWT 2807N 10856E 110122 F311 MS343 259/128 TB/ S//1=
LVR CNFLWT 2826N 10921E 110125 F311 MS348 259/126 TB/ S//1=
LVR CNFLWT 2840N 10950E 110128 F311 MS348 259/125 TB/ S//1=
LVR CNFPQK 3553N 11133E 110126 F246 MS370 267/084 TB/ S//1=
LVR CNFPQK 3555N 11134E 110126 F246 MS373 268/084 TB/ S//1=
LVR CNFPQK 3602N 11138E 110127 F246 MS371 270/084 TB/ S//1=
LVR CNFPQK 3608N 11142E 110128 F246 MS373 271/085 TB/ S//1=
0000078900
057
UDAS02 BABJ 110132
AMDAR 1101
ASC CNFNZK 3618N 12000E 110127 F067 MS089 303/012 TB/ S//1=
ASC CNFNZK 3619N 11957E 110127 F083 MS104 290/012 TB/ S//1=
ASC CNFNZK 3621N 11954E 110128 F098 MS119 289/009 TB/ S//1=
ASC CNFNZK 3622N 11951E 110129 F111 MS138 297/007 TB/ S//1=
LVR CNFNXM 2746N 11110E 110120 F351 MS425 259/113 TB/ S//1=
LVR CNFNXM 2753N 11141E 110123 F351 MS423 258/113 TB/ S//1=
LVR CNFNXM 2801N 11212E 110126 F351 MS423 257/115 TB/ S//1=
LVR CNFNXM 2759N 11243E 110129 F351 MS425 259/113 TB/ S//1=
ASC CNFNXQ 2640N 10648E 110128 F079 MS035 212/012 TB/ S//1=
ASC CNFNXQ 2643N 10648E 110129 F093 MS020 238/040 TB/ S//1=
ASC CNFNXQ 2646N 10647E 110129 F111 MS020 249/044 TB/ S//1=
ASC CNFNXQ 2649N 10647E 110130 F131 MS026 264/046 TB/ S//1=
0000078900
058
UDAS02 BABJ 110133
AMDAR 1101
DES CNFPYL 3048N 11438E 110128 F102 MS053 258/031 TB/ S//1=
DES CNFPYL 3048N 11436E 110129 F098 MS043 262/027 TB/ S//1=
DES CNFPYL 3051N 11432E 110130 F089 MS038 254/019 TB/ S//1=
DES CNFPYL 3053N 11427E 110131 F083 MS043 244/020 TB/ S//1=
LVR CNFPQK 3613N 11145E 110129 F246 MS373 271/085 TB/ S//1=
LVR CNFPQK 3614N 11146E 110129 F246 MS373 271/085 TB/ S//1=
LVR CNFPQK 3621N 11150E 110130 F246 MS373 268/084 TB/ S//1=
LVR CNFPQK 3627N 11154E 110131 F246 MS378 271/081 TB/ S//1=
ASC CNFNZK 3623N 11948E 110129 F127 MS161 281/009 TB/ S//1=
ASC CNFNZK 3625N 11945E 110130 F146 MS196 272/021 TB/ S//1=
ASC CNFNZK 3626N 11942E 110130 F167 MS231 269/028 TB/ S//1=
ASC CNFNZK 3627N 11938E 110131 F184 MS251 259/046 TB/ S//1=
00000000