0000073100
106
USAA01 NZCM 110000
TTAA 61001 89664
99997 00056 18501 00512 ///// ///// 92601 07158 18518
85255 11341 17017 70716 21114 15006 50514 33959 24513
40666 44759 24520 30855 51765 24023 25975 45585 24514
20124 43786 24513 15318 43586 26009 10592 41586 23504
88320 52361 23026
77999
31313 48008 82219=

0000069700
87361=
0000011200
87368
0000009600
87371
0000035800
87378
0000037300
87381
0000039400
87385
0000039400
87407
0000041500
87411
0000014600
87417
0000045700
87421
0000049900
87440
0000052000
87462=
0000050100
87574=
0000050200
87891=
0000052400
88917
0000062700
89354
0000062800
89978
0000064900
90849
0000054600
92049=
0000079300
107
USAA01 NZCM 110000
TTAA 61001 89664
99997 00056 18501 00512 ///// ///// 92601 07158 18518
85255 11341 17017 70716 21114 15006 50514 33959 24513
40666 44759 24520 30855 51765 24023 25975 45585 24514
20124 43786 24513 15318 43586 26009 10592 41586 23504
88320 52361 23026
77999
31313 48008 82219=

0000069700
87361=
0000011200
87368
0000009600
87371
0000035800
87378
0000037300
87381
0000039400
87385=
0000043700
87428=
0000047900
87503
0000056200
87524
0000048000
87543
0000056300
87596
0000054300
87636
0000052200
87806
0000066700
87986
0000062600
88166
0000060600
88464
0000062700
88711
0000058600
89177=
0000071200
93675
0000073200
95760
0000073300
98059
0000009600
01193
0000289200
108
SMID01 WIIX 110000
AAXX 11004
96009 11457 80000 10234 20227 30085 40120 53012 60094 71792 8597/
  333 20230 50060 55000 56009 57902 58017 81915 84618 85460 80965=
96011 12460 51105 10230 20223 30093 40120 52007 60074 84231
  333 20230 50230 55000 56000 57803 58020 81819 83620=
96035 11430 72203 10239 20234 30110 40119 52011 60024 70562 84976
  333 20230 50130 55000 56000 57902 58015 81916 83617 80957=
96073 11558 70000 10220 20214 30100 40112 52015 70522 83522
  333 20218 50170 55025 56000 58019 83660=
96091 32458 63504 10250 20241 30097 40121 53011 82251
  333 20236 50290 55030 56800 57884 58005 82817 85360 80860=
96109 31240 80000 10236 20234 30067 40107 52013 70522 85571
  333 20235 50470 55035 56000 58008 85605=
96145 11450 50000 10246 20231 30110 40113 53010 69904 70522 84231
  333 20242 50220 55012 56800 58050 84816=
96147 01456 80312 10244 20241 30125 40130 5//// 60084 71522 83571
  333 10218 56000 58011 60027 83612 84460=
96163 01560 70000 10248 20228 30103 40110 52009 60081 70262 84578
  333 20233 50410 55055 56000 60074 58007 84620=
96179 12460 70000 10248 20236 30071 40108 53008 60024 85238
  333 20220 50150 55040 56000 57802 82817 87280 80850=
96195 NIL=
96221 NIL=
96237 32459 80000 10250 20241 30066 40108 53011 83257
  333 20224 50540 55045 56000 58002 83816 85360 88280=
96249 01458 70206 10254 20245 30042 40103 52014 69904 70296 85932
  333 20244 50200 55059 56800 57981 57881 58007 69907 81917 84820
80981 80863=
96253 11556 80000 10243 20231 30075 40096 53009 60024 71622 83872
  333 20237 50214 55045 55508 5//// 56000 57800 59003 82820 84460=
96295 32458 60000 10248 20236 30004 40110 51015 84531
  333 20242 50420 55080 55508 50898 56000 58012 84615=
96509 12459 73204 10260 20242 30119 40131 52022 69954 83571
  333 20248 50680 55045 56000 58008 84616=
96581 12360 70603 10238 20229 30117 40124 52020 60064 86230
  333 20232 50240 55010 56000 57803 58011 86809 86361 80863=
96633 01560 70503 10254 20234 30110 40114 52015 60024 72162 82271
  333 20244 50390 55001 56000 57804 59006 69987 82820 85459 80868=
96645 11430 70000 10238 20234 30086 40118 52019 69904 72842 84572
  333 20230 50320 55055 56000 58014 84612=
96655 12457 70602 10247 20244 30100 40137 52017 60114 85572
  333 20240 50470 56000 58002 85612=
96685 NIL=
96749 31556 61804 10260 20241 30094 40108 51020 70522 82921
  333 20246 50600 55077 55508 52886 56000 57973 58012 81920 81621
84460 80980=
96781 NIL=
96805 01560 40000 10257 20236 30104 40113 51009 60194 70196 81231
  333 20250 50510 55005 56000 57801 58006 69907 81820 83360 80860=
96839 32456 61303 10256 20228 30104 40108 52017 84932
  333 20248 50281 55032 56000 57902 58014 81919 83620 80980=
96935 11960 41503 10259 20239 30111 40118 52018 60024 70196 82031
  333 20252 50640 55027 56000 58019 82360=
0000064800
109
USAA01 NZCM 110000
TTAA 61001 89664
99997 00056 18501 00512 ///// ///// 92601 07158 18518
85255 11341 17017 70716 21114 15006 50514 33959 24513
40666 44759 24520 30855 51765 24023 25975 45585 24514
20124 43786 24513 15318 43586 26009 10592 41586 23504
88320 52361 23026
77999
31313 48008 82219=

0000069700
87361=
0000011200
87368
0000009600
87371
0000035800
87378
0000037300
87381
0000039400
87385
0000039400
87407
0000041500
87411
0000014600
87417=
0000041700
87480=
0000060400
87592
0000056300
87635
0000048100
87762=
0000054400
88810=
0000069000
92100=
0000073100
110
USAA01 NZCM 110000
TTAA 61001 89664
99997 00056 18501 00512 ///// ///// 92601 07158 18518
85255 11341 17017 70716 21114 15006 50514 33959 24513
40666 44759 24520 30855 51765 24023 25975 45585 24514
20124 43786 24513 15318 43586 26009 10592 41586 23504
88320 52361 23026
77999
31313 48008 82219=

0000069700
87361=
0000011200
87368
0000009600
87371
0000035800
87378
0000037300
87381
0000039400
87385
0000039400
87407
0000041500
87411
0000014600
87417
0000045700
87421=
0000050000
87501
0000056200
87513
0000060400
87556
0000054200
87613
0000052200
87648=
0000060600
88245
0000060600
88519
0000058600
88788=
0000052500
92107=
0000069000
111
USAA01 NZCM 110000
TTAA 61001 89664
99997 00056 18501 00512 ///// ///// 92601 07158 18518
85255 11341 17017 70716 21114 15006 50514 33959 24513
40666 44759 24520 30855 51765 24023 25975 45585 24514
20124 43786 24513 15318 43586 26009 10592 41586 23504
88320 52361 23026
77999
31313 48008 82219=

0000069700
87361=
0000011200
87368
0000009600
87371
0000035800
87378
0000037300
87381
0000039400
87385
0000039400
87407=
0000012000
87430=
0000054100
87500
0000056200
87510
0000050100
87551
0000056300
87601=
0000050200
87911
0000060600
88090=
0000054500
89890=
0000075300
98084
0000069100
01217
0000071000
112
USAA01 NZCM 110000
TTAA 61001 89664
99997 00056 18501 00512 ///// ///// 92601 07158 18518
85255 11341 17017 70716 21114 15006 50514 33959 24513
40666 44759 24520 30855 51765 24023 25975 45585 24514
20124 43786 24513 15318 43586 26009 10592 41586 23504
88320 52361 23026
77999
31313 48008 82219=

0000069700
87361=
0000011200
87368
0000009600
87371
0000035800
87378
0000037300
87381=
0000039500
87413=
0000052000
87479
0000056200
87492
0000045900
87517
0000054200
87560
0000060400
87620
0000064600
87679
0000048100
87790
0000050200
87984
0000058500
88157=
0000066900
89966
0000060700
90847
0000062800
92056=
0000081400
113
USAA01 NZCM 110000
TTAA 61001 89664
99997 00056 18501 00512 ///// ///// 92601 07158 18518
85255 11341 17017 70716 21114 15006 50514 33959 24513
40666 44759 24520 30855 51765 24023 25975 45585 24514
20124 43786 24513 15318 43586 26009 10592 41586 23504
88320 52361 23026
77999
31313 48008 82219=

0000069700
87361=
0000011200
87368
0000009600
87371
0000035800
87378
0000037300
87381
0000039400
87385
0000039400
87407=
0000012000
87430
0000054000
87439
0000049900
87460
0000047900
87470=
0000052200
87585
0000052200
87663
0000064600
87774
0000060500
87964
0000060600
88192
0000054400
88440
0000075100
88726
0000064800
89198=
0000071100
93692
0000069100
95767
0000077400
98066
0000062900
01197
0000071000
114
USAA01 NZCM 110000
TTAA 61001 89664
99997 00056 18501 00512 ///// ///// 92601 07158 18518
85255 11341 17017 70716 21114 15006 50514 33959 24513
40666 44759 24520 30855 51765 24023 25975 45585 24514
20124 43786 24513 15318 43586 26009 10592 41586 23504
88320 52361 23026
77999
31313 48008 82219=

0000069700
87361=
0000011200
87368
0000009600
87371
0000035800
87378
0000037300
87381=
0000039500
87413
0000041600
87422
0000043700
87443
0000045800
87466
0000054100
87469
0000050000
87483
0000045900
87525=
0000058400
87752
0000050200
87943
0000068800
88132=
0000064800
90006
0000062800
90889
0000069000
92103=
0000077300
115
USAA01 NZCM 110000
TTAA 61001 89664
99997 00056 18501 00512 ///// ///// 92601 07158 18518
85255 11341 17017 70716 21114 15006 50514 33959 24513
40666 44759 24520 30855 51765 24023 25975 45585 24514
20124 43786 24513 15318 43586 26009 10592 41586 23504
88320 52361 23026
77999
31313 48008 82219=

0000069700
87361=
0000011200
87368=
0000015000
87382
0000012800
87386
0000045600
87406
0000047700
87410=
0000049900
87467
0000047900
87475
0000047900
87491
0000056200
87512=
0000054300
87729
0000054300
87840
0000060600
88007
0000013400
88174=
0000062800
89979
0000062800
90854
0000067000
92109
0000079400
93711
0000081500
95772
0000062900
98075
0000058800
01204
0000102800
116
SMCI08 BABJ 110000
AAXX 11001
55228 32780 20000 11152 21252 35988 52008 82/// 333 00103=
55578 32980 00000 11085 21223 36354 52001 333 00002=
55664 32880 20000 11147 21308 35977 57005 82/// 333 00002=
55773 32970 01402 11134 21289 35993 57001 333 00101=
56116 32680 23202 11116 21178 36315 52006 82/// 333 00256=
56137 42780 00000 11087 21170 36781 52009 333 00352=
56172 42980 01101 11061 21114 37337 52012 333 00402=
56247 32967 01601 11016 21141 37428 52015 333 00200=
56312 42680 71602 11012 21056 37093 52005 87/// 333 00251
31024=
56462 32980 03203 11056 21137 37138 52010 333 00200=
56651 32980 02902 10052 21090 37648 52009 333 00106 31027=
56691 11462 83602 11035 21042 37801 52013 69902 766// 88///
333 00556 31003 79999 93427=
56985 32570 01101 10119 20080 38738 40187 52019 333 00101=
57633 11458 83201 10010 21002 39313 40318 52011 69911 710//
88/// 333 00301 30012 70007=
57902 11462 80703 10023 20011 38687 40269 52022 69941 760//
88/// 333 00552 30037 70005=
0000003800
117
SMCI09 BABJ 110000
NIL
0000115400
118
SMCI38 BABJ 110000
AAXX 11001
55279 32980 02504 11127 21271 35675 52008 333 00253=
55472 32980 02207 11112 21342 35710 52001 333 00102 91119
91525=
55696 32680 00401 11130 21167 36335 52014 333 00100=
56079 12780 70701 11107 21127 36672 52006 69902 87/// 333
00551 70001 92500=
56106 32880 42901 11108 21275 36181 52016 84/// 333 00256=
56257 32980 02501 11091 21197 36259 52004 333 00252=
56374 32480 80902 11060 21078 37439 52010 88/// 333 00401
31040=
56385 41/00 90202 11106 21114 37015 52012 749// 333 00400
31019 70002 92502=
56954 31255 20000 10052 20046 40228 52014 710// 82/// 333
00252 30037=
56966 32665 83201 10136 20115 40206 52021 88/// 333 00200=
57237 12962 83602 10031 21037 39491 40313 52012 69902 88///
333 00500 31008 70011=
57306 11934 82901 10049 20039 40302 52017 69912 710// 88///
333 00500 30024 70010=
57604 11720 82701 10060 20060 39847 40301 52014 69921 710//
88/// 333 00600 70071=
57707 11458 82501 11001 21008 38553 52012 69912 766// 88///
333 00551 30002 70005 93427=
57832 11459 80201 10020 20008 39545 40315 52015 69921 760//
88/// 333 00400 30025 70020=
0000003800
119
SMCI39 BABJ 110000
NIL
0000009400
120
SMAU04 AMMC 110000 RRA
AAXX 11004
95322 46/// /0905 10338 20161 39726 40098=
0000054900
121
UKRS14 RUMS 110000
TTBB  11003 27459 00973 00406 11958 03509 22881 05708 33850
05707 44736 05305 55552 19310 66513 22914 77503 24514 88405
36318 99387 40717 11343 46519 22341 47917 33332 49117 44320
52916 55284 59721 66262 66321 77235 70122 88224 74521 99153
70924 11142 70523 22101 73922 21212 00973 17003 11902 22023
22875 22023 33578 19522 44544 22523 55516 21522 66495 21022
77449 20027 88401 21027 99215 23039 11186 25525 22173 23518
33154 24517 44151 24516 55141 26520 66106 28021 31313 58903
82332 41414 8732/=
0000017900
122
SNVD01 PANC 102300 RRH
BBXX
WLMK 10234 99220 10599
41898 20530 10200 20135 40197 52012 70200 82182
22214 00217 20402 305// 40402 5//// 6//// 80160 ICE /////=
0000390800
123
SMID02 WIIX 110000
AAXX 11004
97014 12560 71101 10270 20241 30007 40106 52016 60064 83571
  333 20218 50420 55005 55508 51312 56000 59021 83621=
97028 NIL=
97048 32450 60000 10246 20246 20248 30076 40100 52046 60024 85271
  333 20236 50060 55015 56000 57801 58040 82817 84617 80860=
97072 11458 70000 10240 20223 30034 40134 53021 60074 71562 83571
  333 20227 50140 55004 56000 59003 83618=
97086 32560 52202 10290 20239 30079 40105 51014 82271
  333 20256 50550 55079 56000 57803 58001 82820 80859=
97096 12460 60000 10252 20237 30098 40119 57006 60444 82831
  333 20232 50129 55005 56000 57804 59012 82816 83360 80857=
97120 11462 40802 10282 20247 30082 40115 52018 69904 70162 82231
  333 20240 50530 55062 56000 57803 58011 82818 83080 80860=
97146 12456 50000 10242 20233 30049 40103 5//// 60214 83831
  333 20232 56000 57802 58016 81813 80858=
97180 01460 71301 10248 20241 30107 40126 52021 60814 76166 82271
  333 20239 55039 51855 56000 58016 60017 82819 85459=
97192 11466 60403 10268 20239 30067 40131 52013 60144 70321 81231
  333 20234 50611 55037 56000 57804 58002 81815 84360 80856=
97230 32460 70305 10269 20231 30107 40112 52019 82232
  333 20251 50290 55043 56000 57802 58015 82815 86080 80860=
97260 32564 70000 10267 20234 30104 40110 52015 81201
  333 20241 50560 55101 56000 57806 58020 81820 87080 80857=
97270 11450 60000 10262 20242 30115 40115 53015 69904 70521 83821
  333 20244 50300 56000 58016 87813 84460=
97300 32558 70000 10754 20253 30081 40118 52013 83231
  333 20242 50350 55065 56000 57801 59029 83820 84360 80858=
97340 32570 72103 10268 20238 30098 40111 52011 81102
  333 20246 50570 55052 56000 58013 81820 87080=
97372 32460 70000 10282 20254 39992 40117 52018 83231
  333 20256 50920 55088 56000 58012 83817 86080=
97430 11460 72704 10266 20242 30071 40110 52013 60494 70222 83232
  333 20242 50530 55000 56700 57860 59013 83818 80860=
97460 11460 62702 10274 20242 30068 40082 52011 60034 70362 83836
  333 20232 50500 55009 56000 57802 59009 82818 80857=
97502 12459 51503 10288 20256 30093 40093 51014 60074 84131
  333 20236 50280 55000 56000 59003 84812=
97530 32460 61506 10300 20246 30079 40083 51007 82232
  333 20248 50290 55000 56000 57803 59002 82814 83360 80833=
97560 12460 83107 10286 20254 30064 40079 50014 60264 84237
  333 20236 51130 55000 56000 57802 59006 84818 86360 88280 80860=
97580 11460 80000 10284 20243 30081 40088 51012 60194 83836
  333 20236 55031 56000 57802 58004 82618 85360=
97600 32560 52404 10294 20251 30088 40094 51008 82271
  333 20252 50520 55078 56000 57803 59004 82820 80860=
97686 12358 81401 10190 20168 38349 40067 52008 60114 85836
  333 20158 50060 55020 56000 57801 58000 85806 87360 80859=
97690 12462 61205 10282 20247 39979 40074 51018 60064 83832
  333 20240 55000 56600 57861 58002 83812 86080 80858=
97724 32560 70702 10287 20239 30077 40098 52016 83236
  333 20246 50810 55088 56700 57872 58002 82820 80860=
97748 01457 62614 10286 20258 30089 40090 52014 60044 70592 84946
  333 20254 50021 55029 56600 57961 57862 59005 60037 81914 83815
80950 80840=
97760 12460 73206 10293 20242 30084 40093 52013 60194 83932
  333 20252 55026 56000 57901 59007 81915 82816 80980=
97796 12460 50000 10274 20239 30045 40094 52007 69901 83131
  333 20236 55005 56000 59012 83816=
97810 01450 73104 10258 20253 30036 40083 52013 60534 76096 85972
  333 20236 50590 55000 56000 57901 57801 58001 60017 81917 84618
80976 80850=
97876 12360 43003 10268 30241 30060 40093 51006 60064 83131
  333 20238 55023 56000 59008 83808=
97900 01560 82703 10276 20259 30060 40090 52014 60284 70296 8397/
  333 20228 50560 55017 56600 57961 59003 60207 82917 81820 87460
80975 80850=
97980 32460 63606 10297 20253 30074 40081 51008 82141
  333 20248 50330 55063 56000 59005 82817 84080=
0000064800
124
USAA01 NZCM 110000
TTAA 61001 89664
99997 00056 18501 00512 ///// ///// 92601 07158 18518
85255 11341 17017 70716 21114 15006 50514 33959 24513
40666 44759 24520 30855 51765 24023 25975 45585 24514
20124 43786 24513 15318 43586 26009 10592 41586 23504
88320 52361 23026
77999
31313 48008 82219=

0000069700
87361=
0000011200
87368
0000009600
87371
0000035800
87378
0000037300
87381=
0000039500
87413
0000041600
87422=
0000043800
87504
0000052100
87527=
0000052200
87750
0000060500
87942
0000070900
88146=
0000073100
89992
0000066900
90868
0000064900
92060=
0000077300
125
USAA01 NZCM 110000
TTAA 61001 89664
99997 00056 18501 00512 ///// ///// 92601 07158 18518
85255 11341 17017 70716 21114 15006 50514 33959 24513
40666 44759 24520 30855 51765 24023 25975 45585 24514
20124 43786 24513 15318 43586 26009 10592 41586 23504
88320 52361 23026
77999
31313 48008 82219=

0000069700
87361=
0000011200
87368=
0000015000
87382
0000012800
87386
0000045600
87406
0000047700
87410=
0000049900
87467
0000047900
87475
0000047900
87491
0000056200
87512=
0000054300
87729
0000054300
87840=
0000060700
88894
0000062700
89382
0000058600
89999
0000069000
90877
0000069100
92039
0000069100
93715
0000069100
95785
0000067000
98097
0000065000
01207
00000000