0000015700
216
SSVX13 LFPW 111200
ZZYY 64520 11014 1200/ 766815 002768 6113/ 11119 40070 57001 22219
 00041 444 20130 11014 1200/ 50101 80140 80019 9/015=
0000010900
217
UANT01 CWAO 111206
ARP VIR24 5543N04348W 1205 F370 MS58 271/50 KT
GVBUG DDL XXW 111206 J06A
0000018700
218
SMMC23 GMMC 111200
AAXX 11124
60285 32960 20608 10159 20102 40193 50007 81032
  333 81358=
60340 32458 83604 10147 20113 40194 56001 82131
  333 82816 83360 85070=
0000011100
219
UANT01 CWAO 111206
ARP UAL125 5407N02302W 1206 F370 MS60 210/73 KT
N13138 DDL IG1 111206 F53A
0000014200
220
UEGL07 EKMI 111200
TTDD 6111/ 04220
11757 73758
21212 11972 16034 22882 19028 33797 16028 44757 17533
31313 49908 81102=
0000008800
221
ULGL07 EKMI 111200
TTCC 6111/ 04220
88999
77999
31313 49908 81102=
0000049200
222
SMAJ01 UBBB 111200
AAXX 11121
37575 42999 32901 10109 21038 39584 40161 57025 83002 555   11009=
37675 42999 00202 10081 20023 39430 40078 57003 555   12010=
37735 42999 32908 10127 21122 39768 40136 57023 83001 555   10017=
37749 42998 00901 10093 21019 30029 40145 57026 555   11010=
37756 42999 02708 10077 21038 39222 40138 58029 333   11005=
37864 32997 21811 10083 20020 40092 57026 80001=
37985 42597 61801 10074 20029 30151 40137 57026 86540 555   11011=
0000015700
223
SSVX13 LFPW 111200
ZZYY 64518 11014 1200/ 174772 007031 6113/ 11119 40161 52004 22219
 00035 444 20130 11014 1200/ 50101 80132 80018 9/015=
0000015700
224
SSVX13 LFPW 111200
ZZYY 44607 11014 1200/ 746996 014452 6113/ 11119 40113 57022 22219
 00126 444 20130 11014 1200/ 50101 80142 80011 9/015=
0000015700
225
SSVX13 LFPW 111200
ZZYY 16620 11014 1200/ 337155 122798 6113/ 11119 40227 54000 22219
 00196 444 20130 11014 1200/ 50101 80110 80006 9/015=
0000015700
226
SSVX13 LFPW 111200
ZZYY 44726 11014 1200/ 750015 003046 6113/ 11119 40209 52017 22219
 00115 444 20130 11014 1200/ 50101 80102 80003 9/015=
0000013900
227
SSVX13 LFPW 111200
ZZYY 41597 11014 1200/ 727949 078839 6113/ 22219 00260 444 20130
 11014 1200/ 50101 80122 80002 9/015=
0000015700
228
SSVX13 LFPW 111200
ZZYY 14530 11014 1200/ 330353 053550 6113/ 11119 40158 57011 22219
 00235 444 20130 11014 1200/ 50101 80150 80019 9/015=
0000015700
229
SSVX13 LFPW 111200
ZZYY 44869 11014 1200/ 728676 024145 6113/ 11119 40201 52016 22219
 00214 444 20130 11014 1200/ 50101 80106 80010 9/015=
0000015100
230
SSVX13 LFPW 111200
ZZYY 13661 11014 1200/ 722726 037822 6113/ 11119 54000 22219 00237
 444 20130 11014 1200/ 50101 80050 80000 9/015=
0000015700
231
SSVX13 LFPW 111200
ZZYY 44778 11014 1200/ 739903 009724 6113/ 11119 40181 52008 22219
 00153 444 20130 11014 1200/ 50101 80082 80003 9/015=
0000014500
232
SSVX13 LFPW 111200
ZZYY 64519 11014 1200/ 163048 007398 6113/ 11119 49987 52002 444
 20130 11014 1200/ 50101 80138 80002 9/015=
0000015700
233
SSVX13 LFPW 111200
ZZYY 62520 11014 1200/ 719731 065745 6113/ 11119 40201 52017 22219
 00268 444 20130 11014 1200/ 50101 80104 80002 9/015=
0000015700
234
SSVX13 LFPW 111200
ZZYY 41632 11014 1200/ 719212 049532 6113/ 11119 40203 52026 22219
 00255 444 20130 11014 1200/ 50101 80146 80013 9/015=
0000015700
235
SSVX13 LFPW 111200
ZZYY 44767 11014 1200/ 729406 028226 6113/ 11119 40184 52015 22219
 00219 444 20130 11014 1200/ 50101 80104 80002 9/015=
00000000