0000029200
936
SICI21 BABJ 110300 RRB
AAXX 11031
50468 32970 03404 11256 21324 40276 57001=
51573 32965 00901 11097 21177 40480 52021=
53513 32980 62505 11055 21211 40392 52023 86///=
53588 32980 02711 11102 21279 37802 52004=
54511 31947 61801 10012 21171 40318 57006 70500 86///=
0000027100
937
SICI22 BABJ 110300 RRB
AAXX 11031
57265 41958 83203 10034 20021 40346 52009 71000 88///=
57494 41959 83602 10043 20025 40322 52007 71000 88///=
58847 32663 72903 10131 20069 40284 57002 87///=
59134 31959 13602 10165 20094 40263 57008 70500 81///=
0000055900
938
SICI23 BABJ 110300 RRB
AAXX 11031
50745 32964 60705 11180 21250 40279 57001 86///=
50774 31656 23201 11273 21310 40273 57003 70070 82/// 333
92528=
50788 32970 62903 11216 21251 40243 57005 86///=
51133 32980 50201 11123 21181 40390 57006 85///=
51747 32962 00000 11189 21222 40515 52012=
53564 41919 02501 11102 21194 40414 52010 70500=
54102 32973 12702 11125 21230 40360 52002 81///=
54161 32970 42204 11096 21201 40283 57011 84///=
54292 32965 02708 11076 21198 40266 57016=
54374 32970 01401 11145 21209 40340 57017=
0000024100
939
SICI21 BABJ 110300 RRC
AAXX 11031
51076 32980 03601 11165 21209 40488 52003=
54337 42957 72202 11048 21149 40305 57013 87///=
54497 42961 00403 11061 21098 40320 57013=
57083 31/05 92502 10033 21026 40340 52002 70540=
0000019600
940
SICI21 BABJ 110300 CCA
AAXX 11031
50953 42965 72003 11172 21237 40279 52001 87///=
51573 32965 00901 11097 21177 40480 52021=
54401 32968 62703 11061 21234 40353 57001 86///=
0000037300
941
SICI22 BABJ 110300 RRC
AAXX 11031
58102 32962 00701 10059 21029 40336 52002=
58221 31942 70903 10043 20006 40327 57006 70500 87///=
58362 41861 80904 10064 20030 40325 57005 76065 88///=
59117 32662 61102 10161 20081 40266 57004 86///=
59287 31962 70402 10171 20100 40258 52002 70500 87///=
59316 31757 60901 10165 20092 40268 57004 70500 86///=
0000021400
942
SICI23 BABJ 110300 RRC
AAXX 11031
53798 31911 71602 10013 21088 40320 57007 70500 87///=
54423 31957 61801 11088 21215 40335 57011 70500 86///=
54618 31/00 92001 11029 21032 40330 57003 74944=
0000010000
943
SICI23 BABJ 110300 CCA
AAXX 11031
54161 32970 42204 11096 21201 40283 57011 84///=
0000029300
944
UDAS02 BABJ 110309
AMDAR 1103
LVR CNFPYN 2614N 11759E 110257 F207 MS125 257/070 TB/ S//1=
DES CNFPYN 2555N 11800E 110300 F174 MS100 265/065 TB/ S//1=
DES CNFPYN 2537N 11800E 110303 F157 MS075 264/053 TB/ S//1=
DES CNFPYN 2519N 11800E 110306 F149 MS058 266/046 TB/ S//1=
0000029300
945
UDAS02 BABJ 110311
AMDAR 1103
ASC CNFPQK 3817N 11441E 110309 F003 MS018 211/003 TB/ S//1=
ASC CNFPQK 3818N 11441E 110309 F009 MS018 177/006 TB/ S//1=
ASC CNFPQK 3818N 11441E 110310 F016 MS015 211/006 TB/ S//1=
ASC CNFPQK 3819N 11440E 110310 F022 MS015 269/008 TB/ S//1=
0000097500
946
UDAS02 BABJ 110313
AMDAR 1103
LVR CNFLWR 2454N 11052E 110301 F276 MS243 259/088 TB/ S//1=
LVR CNFLWR 2507N 11035E 110304 F276 MS248 254/087 TB/ S//1=
LVR CNFLWR 2521N 11017E 110307 F276 MS245 256/090 TB/ S//1=
LVR CNFLWR 2534N 10959E 110310 F276 MS246 261/091 TB/ S//1=
ASC CNFPQK 3819N 11440E 110310 F024 MS015 267/009 TB/ S//1=
ASC CNFPQK 3819N 11438E 110310 F043 MS043 253/007 TB/ S//1=
ASC CNFPQK 3818N 11437E 110311 F048 MS054 243/007 TB/ S//1=
LVR CNFLWN 3656N 11020E 110302 F341 MS554 266/091 TB/ S//1=
LVR CNFLWN 3649N 11000E 110305 F341 MS555 267/093 TB/ S//1=
LVR CNFLWN 3642N 10940E 110308 F341 MS540 266/086 TB/ S//1=
LVR CNFLWN 3624N 10928E 110311 F341 MS530 271/090 TB/ S//1=
LVR CNFNXP 3408N 11810E 110303 F256 MS370 266/068 TB/ S//1=
LVR CNFNXP 3426N 11800E 110306 F256 MS375 266/071 TB/ S//1=
LVR CNFNXP 3443N 11750E 110309 F256 MS373 269/073 TB/ S//1=
LVR CNFNXP 3458N 11737E 110312 F256 MS388 269/064 TB/ S//1=
0000028300
947
SXHW11 KWAL 110320
B1404042 011032023"
1,140111,02:15:00,6.2,61,12.0,0.0,1012.9,2.91,11.9,
1,140111,02:30:00,5.1,52,10.3,0.0,1013.0,2.91,11.9,
1,140111,02:45:00,5.2,57,11.0,0.0,1013.1,2.91,11.9,
1,140111,03:00:00,5.8,65,10.7,0.0,1013.2,2.91,11.9, 44-0NN  30W
0000059000
948
SIVF22 ENMI 110300
BBXX
3ERR2 11034 99653 10073 43/// /1122 11027 21079 40034 57008 22200
      10607 70033=
LF3F 11034 99643 10078 43/// /0819 11043 21082 40024 57004 22200
      04102 10705 70026=
LF3N 11034 99653 10073 41597 71019 11029 21050 40037 57009 70382
      87/// 22200 00083 10707 70035=
LF4B 11034 99606 10037 47/98 /0809 10030 49971 57017 700// 22200
      00038 10804 70022=
LF4C 11034 99584 10019 43/// ///// 1//// 90310 22200 10705 70023=
LF5T 11034 99660 10081 41698 80920 11029 21095 40060 57005 70272
      88/// 22200 10605 70026=
0000012300
949
SIST21 EGRR 110300 RRA
AAXX 11034
61901 469// /1310 10181 20169 39653 40158 56015 333 8//99 555
 7/090=
0000203000
950
SIBM20 VBRR 110300
AAXX 11034
48001 31910 90000 10085 20085 40200 74344 333 59008=
48004 31460 30401 10120 20102 72844 83800 333 56500=
48008 31957 00000 10136 20124 40184 70044 333 59006=
48010 32540 40000 10154 20154 40178 74044 81431 333
56666 59009=
48018 31940 00000 10140 20124 40173 74244 333 58008=
48019 32960 00401 10168 20117 40192 333 58012=
48020 31108 70000 10145 20130 74244 87600 333 56900=
48025 31110 30000 10163 20144 40196 74044 82740 333
56440 58001=
48035 31959 00000 10121 20081 40204 70544 333 58005=
48037 32958 03601 10178 20147 40176 333 58003=
48042 31950 00000 10190 20159 40178 71000 333 58014=
48045 32963 01802 10128 20086 333=
48048 32957 03601 10180 20147 40188 333 58010=
48051 /2958 03603 10176 20152 70200 333=
48053 31930 00000 10180 20265 40175 71000 333 58003=
48060 31/10 90000 10138 20107 40215 74544 333 58003=
48062 32956 00403 10196 20170 40162 333 58004=
48071 31956 00501 10215 20185 40166 71044 333 58015=
48075 31958 00000 10150 20150 40211 70500 333 58024=
48077 32959 00000 10214 20160 40171 333 58011=
48078 NIL=
48080 /2560 31301 10182 20165 40167 81506 333 56909
58011=
48085 31956 00000 10210 20216 40160 70544 80001 333
56009 58007=
48095 32958 00000 10220 20185 333=
48108 31995 50000 10240 20191 40163 70522 80005 333
56009 58013=
48109 32497 20401 10270 20240 40152 82500 333 56900
58011=
48110 31996 31802 10285 20209 40155 70511 80006 333
56009 58007=
48112 22598 60403 10280 20220 40140 82216 333 56199
58003=
48030 32960 02202 10054 21039 333=
48072 32459 11302 10230 20181 70222 81200 333 56300=
48087 32960 00403 10222 20173 333=
48099 31450 20000 10243 20191 40169 70544 82800 333
56900 58026=
48101 32659 43601 10244 20209 70322 83230 333 56990=
48103 31230 40401 10250 20205 40166 74044 84600 333
56100 58015=
48057 32958 01402 10182 20086 333=
48094 32959 10401 10230 20180 40168 80001 333 56009
58009=
48097 32057 00602 10240 20162 40167 333 58012=
0000216000
951
SZNZ01 NZKL 110321
CREX++
T000103 A001 D01021 D06025++
-3683144 17478654 AUCT  2014 01 11 03 13 //// 11 07 00 01
06050 3197 06052 3197 06052 3196 06054 3197 06056 3197 06056 3196+
-4402404 -17636748 CHIT  2014 01 11 03 13 //// 11 07 00 01
05192 2133 05171 2115 05169 2116 05164 2115 05156 2111 05134 2092+
-4089929 17623168 CPIT  2014 01 11 03 13 //// 11 07 00 01
04281 2287 04263 2272 04248 2261 04232 2249 04252 2273 04228 2252+
-3618905 17548887 GBIT  2014 01 11 03 13 //// 11 07 00 01
06434 0038 06438 0041 06432 0036 06440 0044 06453 0057 06456 0061+
-3867541 17802288 GIST  2014 01 11 03 13 //// 11 07 00 01
04472 2693 04482 2705 04471 2697 04477 2706 04469 2701 04469 2703+
-4241288 17370277 KAIT  2014 01 11 03 13 //// 11 07 00 01
03553 2153 03541 2145 03554 2163 03555 2169 03549 2167 03548 2171+
-3755040 17815904 LOTT  2014 01 11 03 13 //// 11 07 00 01
04077 0226 04058 0208 04055 0207 04062 0215 04058 0213 04072 0228+
-3704657 17451175 MNKT  2014 01 11 03 13 //// 11 07 00 01
02578 -0146 02573 -0157 02578 -0160 02586 -0158 02581 -0170 02606 -0151+
-3947566 17692007 NAPT  2014 01 11 03 13 //// 11 07 00 01
03451 2001 03464 2018 03449 2006 03437 1998 03435 1999 03430 1998+
-3441483 17304870 NCPT  2014 01 11 03 13 //// 11 07 00 01
-00682 -5638 02054 -2904 02319 -2641 02377 -2586 02606 -2358 02628 -2339+
-4581435 17062939 OTAT  2014 01 11 03 13 //// 11 07 00 01
04522 3392 04517 3393 04514 3396 04506 3394 04502 3397 04495 3397+
-2928002 -17789440 RBCT  2014 01 11 03 13 //// 11 07 00 01
06469 2013 06460 2003 06455 1999 06468 2012 06475 2019 06457 2002+
-2925114 -17790384 RFRT  2014 01 11 03 13 //// 11 07 00 01
03432 0210 03427 0206 03419 0198 03436 0215 03430 0210 03429 0209+
-4357010 17277383 SUMT  2014 01 11 03 13 //// 11 07 00 01
02270 1837 02250 1823 02248 1828 02239 1824 02237 1829 02227 1826+
-3764109 17618118 TAUT  2014 01 11 03 13 //// 11 07 00 01
05668 3976 05670 3977 05673 3981 05674 3981 05673 3980 05676 3983+
-4128448 17477985 WLGT  2014 01 11 03 13 //// 11 07 00 01
03408 2060 03409 2064 03403 2062 03401 2063 03395 2061 03386 2056++
7777
0000455400
952
SIRS22 RUMS 110300
AAXX 11031
22127 22998 02801 11261 21291 39954 40179 53002 333 55000 60002
91001=
22324 21984 50306 11163 21195 30057 40110 50001 73632 80001 333 21164
55000 69902 91010 91113=
22525 22/// /0706 11087 21102 39993 40006 57002 333 21095 60002 91012
91114=
22621 21480 80303 11124 21159 39843 49983 56001 73632 889// 333 21137
55000 69902 87913=
22831 21396 80303 11103 21116 39826 49887 54000 77172 8872/ 333 21104
55000 60032 88708=
22892 22497 73506 11056 21070 39925 49941 52027 87600 333 21056 60012
87718 91110=
22913 21496 80205 11064 21084 39848 49877 52026 77172 8872/ 333 21064
60042 86710 91111=
22917 21458 80206 11036 21051 39858 49869 52031 77173 8872/ 333 21034
55000 60062 88713 91012 91113 92982 93708=
22925 21362 80204 11043 21059 39723 49861 53022 77172 8872/ 333 21043
60042 86709 91111=
26069 21599 73206 11033 21046 39786 49897 52036 70272 87500 333 21036
60022 55000 87621 91112=
26072 21568 83402 11036 21038 39872 49892 52032 77072 885// 333 21038
60052 88621 91110 93704=
26078 22/// /3404 11027 21037 39826 49875 51035 333 21027 60002
91111=
26080 21445 83405 11017 21022 39824 49856 53027 77172 8802/ 333 21017
60012 88516 91010 91110=
26099 22/// /0000 11000 21000 39614 49827 52005 333 21001 60002=
26179 21295 83308 11006 21018 39827 49859 52017 77175 8872/ 333 21006
60022 55000 88704 91012 91113=
26268 NIL=
26275 21497 83406 10005 21003 39837 49867 52036 77176 8872/ 333 20004
55000 60022 88712 91012 91112=
26285 21396 83104 10012 20007 39766 49844 52015 78382 889// 333 20012
60052 87706=
26291 21497 83101 10025 20022 39721 49828 53003 78082 883// 333 20021
60032 88910=
26378 22/// /2804 10013 20004 39786 49873 53032 333 20013 60002 91010
91111=
26381 21499 82706 10023 20013 39768 49842 52011 72582 883// 333 20023
60022 88913 91111=
26389 21396 82502 10008 20008 39584 49843 53008 71022 886// 333 20005
60012=
26393 21597 82502 10016 20013 39627 49830 54000 78082 889// 333 20011
55000 60022=
26477 21596 82805 10017 20001 39764 49890 52034 78082 889// 333 20016
55000 60012 91114=
26479 21450 83005 10017 20011 39639 49866 53019 76162 8872/ 333 20013
55000 60042 88711 91110=
26499 21497 62103 10012 20008 39619 49844 57003 78082 86900 333 20012
69952=
26578 21458 82507 10014 20008 39691 49892 52020 78082 889// 333 20014
60022 88916 91010 91111=
26585 21496 82804 10011 20008 39596 49865 52005 76162 8872/ 333 20010
60032=
26695 21296 82404 10013 20011 39574 49872 57004 76162 8672/ 333 20013
60012 86706=
26784 21496 82505 10012 20008 39663 49910 52010 78082 8695/ 333 20011
60012 84915 91111=
26795 11458 82303 10013 20010 39604 49892 57003 69982 76162 8872/ 333
20013 88511=
26882 21458 82708 10016 20010 39643 49915 53006 76162 8477/ 333 20015
55000 60012 91012 91113=
27108 NIL=
27164 12996 81602 10000 20000 39695 49879 57026 60012 77172 8802/ 333
20000=
27176 11496 81504 11002 21002 39726 49921 56032 60032 77172 885// 333
21002 47036 91111=
27215 21496 80000 10019 20016 39625 49826 57010 71022 886// 333 20001
55000 60052 88711=
27223 12/// /2102 10009 20009 39691 49836 57008 60002 333 20004
55000=
27316 21440 82002 10022 20020 39667 49835 57013 76162 8872/ 333 20007
60042=
27321 12574 61903 10024 20021 39690 49837 57013 60032 86500 333 20009
41001 55000=
27347 11415 81902 10003 20002 39709 49862 57012 60042 78682 883// 333
20001 43009 86912=
27417 21596 81901 10017 20008 39647 49847 57009 76162 885// 333 20017
60012=
27507 21456 82303 10018 20012 39628 49861 57007 76162 8872/ 333 20018
60012 88711=
27511 22597 82202 10021 20015 39660 49852 57009 883// 333 20021
60012=
27523 22597 81903 10026 20017 39700 49862 57014 885// 333 20010
60032=
27539 11495 81902 10009 20005 39714 49880 57013 60052 77177 8802/ 333
20003 43004=
27606 224// 82204 10023 20010 39640 49878 57008 886// 333 69902
88711=
27611 21497 82203 10020 20015 39635 49864 57008 78082 889// 333 20020
60012=
27627 22497 72303 10021 20012 39616 49882 57015 87900 333 20016
69952=
27703 22597 82303 10026 20011 39643 49885 58013 885// 333 20026 60002
87623=
27745 112// 81703 10000 20000 39767 49908 57018 60062 77272 8872/ 333
20000 43005 86705=
27821 21435 82303 10015 20012 39620 49898 57015 71062 886// 333 20005
60042=
27823 12498 82205 10012 20011 39655 49909 57012 60072 8672/ 333 20001
42001 55000 86711=
27921 22497 82403 10018 20015 39662 49927 56013 886// 333 20005 60052
88710=
0000014800
953
SIRS22 RUMS 110300 CCA
AAXX 11031
27176 11496 81504 11002 21002 39726 49992 56032 60032 77172 885// 333
21002 3/000 47036 91111=
0000013000
954
SIRS22 RUMS 110300 CCB
AAXX 11031
27223 12496 82101 10009 20009 39691 49836 57008 60042 885// 333 20004
55000=
0000023200
955
SIVA20 LFPW 110300
BBXX
BATFR55 11034 99086 30431 46/// /0109 10277 20222 40126 53013
22272 04294=
DGHB 11034 99123 10465 41597 30913 10248 20183 40161 52/// 70311
832/3
22224 20302 309// 40403 5//// 80204=
00000000