0000037800
316
SATR31 UTAA 110300
METAR UTAA 110300Z VRB01MPS 9999 FEW100 SCT230 M00/M06 Q1021
12CLRD70 NOSIG=
METAR UTAK 110300Z 14003MPS 9999 BKN022 02/M01 Q1019 NOSIG=
METAR UTAV 110300Z 18005MPS CAVOK 02/M05 Q1024 NOSIG=
METAR UTAM 110300Z 23004MPS 6000 BKN230 00/M05 Q1023 NOSIG  RMK
 SC07=
METAR UTAT 110300Z 21002MPS 4000 SKC  M07/M08  Q1022  99CLRD70 NOSIG=
0000063900
317
SAUR31 UKMS 110300
METAR UKLR NIL=
METAR UKLI 110300Z 25006MPS 9999 SCT040 BKN100 05/M03
          Q1016 NOSIG=
METAR UKON NIL=
METAR UKCM 110300Z 28008MPS 9999 BKN018 04/03 Q1007
         NOSIG=
METAR UKCW 110300Z 27010MPS 9999 -SHRA BKN012
         BKN020CB  04/03 Q1002 2729//60 TEMPO 25012G20MPS
         1000 BR BKN003 BKN015CB=
METAR UKLU 110300Z 08001MPS 1000 BR OVC006 02/02
         Q1019 NOSIG=
METAR UKKK 110300Z 28011MPS 9999 BKN023 05/02 Q1004
         26290250  TEMPO 27012G18MPS=
METAR UKKM 110300Z 29008G13MPS 9999 OVC026 05/01
         Q1004=
METAR UKKE NIL=
METAR UKLN NIL=
0000023400
318
SAJD31 OJAI 110300
METAR OJAI 110300Z 28006KT 3000 BR SCT200 07/06 Q1021 TEMPO 2000 FG=
METAR OJAM 110300Z 31007KT 5000 HZ BKN040 08/06 Q1020 TEMPO 3000 BR=
METAR OJAQ 110300Z 00000KT 9999 FEW030 11/09 Q1022 NOSIG=
0000012600
319
SITH43 VTBB 110300 RRA
AAXX 11034
48350 31958 13202 10220 20175 39890 40195 52017 71000 80001
  333 58005=
0000051200
320
SIMV20 VRMM 110300 RRA
AAXX 11034
43533 41458 20505 10280 20249 30136 40138 70500 81241 333 20259 58007
81818 555 10001=
43555 41459 30913 10289 20242 30136 40138 70510 82201 333 20270 58007
82818 555 10005=
43577 41460 70507 10265 20243 30134 40136 72582 82972 333 20255 58008
82818 81919 86363 555 10000=
43588 41462 79902 10286 20249 30134 40135 70382 83938 333 10262 58011
82818 87276=
43599 42462 60503 10290 20249 30136 40138 83232 333 20268 58012 83818
84076 555 10033=
0000050600
321
SILV20 UMRR 110300
AAXX 11031
26313 /3/// /3004 10019 21004 40005 52020 333 91010 91113=
26346 41297 83005 11003 21005 49947 52031 70282 886// 333 55000
88706 91112=
26406 41497 82704 10016 21006 40044 52016 78082 889// 333 55000
88916 91111=
26422 41460 /9905 10023 20006 39986 49999 51029 7006/=
26424 /1497 62906 10013 21008 40016 52026 72582 8353/ 333 55000
91011 91113=
26544 /1497 82905 10022 20010 49973 52033 78082 889// 333 55000
85914 91013 91113=
26416 NIL=
0000110500
322
SIBY20 UMMN 110300
AAXX 11031
26554 /1456 83006 10022 20009 39789 49951 52037 76362 8872/ 333
55018 87712 91012 91114 555 20022 60028 7006/=
26666 /1340 82704 10018 20010 39705 49917 52028 76162 8872/ 333
88707 91113 555 20017 60048 7012/=
26850 /1465 82803 10022 21008 39719 40001 52029 70262 885// 333 55000
88716 91112 555 50021 60038 7010/=
26863 /1460 72710 10023 20007 39717 49951 52021 70282 875// 333
87617 91015 91117 555 20019 60018 7003/=
26941 32560 72707 10034 21016 39812 40048 52023 87500 333 87631 91012
91114 555 20031 7995/=
26951 /2675 72909 10035 21006 39828 40027 52025 875// 333 87640 91014
91115 555 20032 60018 7001/=
33008 /1560 72406 10051 20014 39923 40101 52016 70282 87500 333 55004
91010 91112 555 20048 60018 7002/=
33019 /1556 72905 10042 20032 39893 40068 52018 71062 875// 333 55003
87620 91010 91113 555 20040 60028 7003/=
33036 32560 72406 10042 21007 39796 40025 52020 84550 333 91113 555
20040 7002/=
33041 /1559 72505 10041 20007 39837 49991 53021 78082 879// 333
55000 87923 91011 91111 555 20036 60038 7008/=
0000018100
323
SIUR20 UKMS 110300 RRA
AAXX 11031
33631 41210 80801 10022 20019 30055 40202 52005 72822 886//
333 55000 88706=
33663 42997 02903 10052 21023 30043 40139 52009=
0000017000
324
SOVI10 KWAL 110311
B110070A 011031101"P9751095 B\P~W@@F0ekC1@qp???CtCw>@qw3@HD@@Q4C{5DC6bW9JO<BH2?????@"??? iTCHLB|ByByBrBzBy:AMPTEMP 27.66C  48-0NN 219E
0000023100
325
SIVD20 KWNB 110300 RRG
BBXX
44039 11031 99411 70727 46/// /0903 10030 20028 90245 333 91204
555 11036 22041=
44060 11031 99413 70721 46/// /0502 10033 20029 40271 90245 22200
00043 333 91203 555 11021 22021=
0000012800
326
SIVD20 KWNB 110300 RRH
BBXX
44022 11031 99409 70737 46/// /0402 10013 20008 90300 333 91203
555 11021 22021=
0000030400
327
SNAA01 KARS 110200 RRE
AAXX 1102/
89869 46/// ///// 11030 39930 4//// 5//// 90240=
89329 46/// ///// 11085 38844 4//// 5//// 90240=
89828 46/// ///// 11246 36556 4//// 5//// 90240=
89108 46/// ///// 11200 37008 4//// 5//// 90240=
89314 46/// ///// 11081 38309 4//// 5//// 90240=
0000010200
328
SAIQ01 ORBI 110300
METAR ORMM 110300Z 13008KT 4000 BR SCT035 BKN100 12/12 Q1017 NOSIG=
0000013600
329
SMRA15 RUNW 110000 RRB
AAXX 11001
23383 11998 80000 11354 21384 39873 40274 54000 60012 72272 8802/ 333
21402 48063=
0000012600
330
SITH43 VTBB 110300 RRB
AAXX 11034
48358 31960 10908 10265 20180 30014 40191 52012 70500 80001
  333 59002=
0000011300
331
SIOM20 OOMS 110300 RRA
AAXX 11034
41262 36/// /1203 10098 20050 30005 40212
333 0E018 58006 =
0000066800
332
SIAJ21 UBBB 110300
AAXX 11031
                             
37575 32999 03602 11006 21063 39625 40230 57014 333 55082
555 21011 7000/=
37675 32995 03602 10001 21083 39473 40144 57030 333 55074
555 21022 34105 53004 7000/=
37735 32996 03401 10001 21026 39789 40174 53006 333 4/999 55072 555 
21008 34106 50046 53001 7000/=
37749 32998 00203 10004 21029 30090 40211 57026 
555 21002 53006 7000/=
37756 32597 82704 11030 21047 39305 40251 56007 887//
555 21036 7000/=
37864  32497 51807 10043 20026 40158 57025 85700 333 85710 555 20037 
7000/=
37985 32996 03401 11002 21017 30202 40187 57019 333 4/998
55030 555 50036 7000/=
0000196800
333
SIRO48 YRBK 110300
AAXX 11031
15107 23/// /3103 10014 21015 39383 42802 52009 333 6///7 91006 91108
555 6////=
15123 23/// /2104 11001 21010 39736 40236 52006 333 55300 0//// 20000
3////
6///7 91005 91106 555 6////=
15124 23/// /1800 11001 21001 39673 40234 52007 333 6///7 91000 91101
555 6////=
15127 23/// /2905 10009 21030 39309 42802 52008 333 55300 0//// 20000
3////
6///7 91008 91111 555 6////=
15145 21595 72501 10017 20009 39847 40235 52008 71022 87500 333 60007
555 60000=
15148 NIL=
15162 23/// /2301 11006 21015 39484 42811 50005 333 6///7 91003 91105
555 6////=
15165 22697 62408 10005 21007 39582 42806 52007 86500 333 60007 91010
91110 555
60000=
15168 26/// /2602 10019 20001 39587 42812 52012 333 6///7 91005 91105
555 6////=
15184 23/// /2305 11030 21030 38822 48491 50003 333 6///7 91007 91108
555 6////=
15189 23/// /2602 10006 21003 39831 40230 52009 333 6///7 91002 91104
555 6////=
15208 NIL=
15209 26/// /2107 10017 21006 39810 40233 52007 333 55300 0//// 20000
3////
6///7 555 6////=
15215 23/// /2704 10014 21023 39604 42811 52009 333 55300 0//// 20000
3////
6///7 91005 91106 555 6////=
15217 23/// /2404 10009 21026 39531 42809 52012 333 6///7 91006 91106
555 6////=
15231 23/// /2404 10023 21005 39904 40239 52008 333 6///7 91005 91106
555 6////=
15235 23/// /2703 10002 21030 39707 40243 52007 333 55300 60007 91004
91104 555
60000=
15238 23/// /2602 10011 21018 39590 42813 52010 333 6///7 91004 91104
555 6////=
15254 23/// /2502 11029 21096 38545 48496 52009 333 6///7 91007 91110
555 6////=
15262 21/90 92712 11055 21055 38147 48453 53001 74944 333 60007 91018
92713=
15277 26/// /0403 10017 21040 39601 42818 52005 333 55300 60007 91006
91106 555
60000=
15279 22997 00402 11094 21113 37917 48493 52010 333 60007 91008 91111
555 60000=
15300 23/// /3005 10023 21031 39577 42815 52010 333 6///7 91009 91109
555 6////=
0000214800
334
SIRO49 YRBK 110300
AAXX 11031
15042 NIL=
15080 22997 01202 10008 21003 30052 40226 52008 333 60007 91004 91105
555 32000
42000 50000 60000 70000=
15095 23/// /0902 11008 21019 39812 40232 50003 333 55300 0//// 20000
3////
6///7 91003 91103 555 6////=
15117 NIL=
15118 23/// /2301 11020 21030 38920 48491 50003 333 6///7 91003 91103
555 6////=
15136 23/// /1903 10005 2//// 30106 40231 51003 333 55300 6///7 91004
91106 555
6////=
15138 22998 20000 10000 21014 39513 42811 50005 82030 333 60007
92600=
15160 23/// /2004 11008 21012 39880 40232 50003 333 6///7 91005 91106
555 6////=
15179 26/// ///// 10027 21004 39652 40236 52002 333 55300 0//// 20000
3////
6///7 555 6////=
15182 23/// /1800 11021 21021 30014 40241 52004 333 6///7 91001 91103
555 6////=
15199 23/// /1402 10020 2//// 30107 40215 54000 333 55300 60007 91003
91104 555
60000=
15204 26/// /1800 10021 20018 30051 40249 52002 333 55300 0//// 20000
3////
6///7 555 6////=
15206 26/// /2000 11001 21007 39899 40245 50006 333 55300 0//// 20000
3////
6///7 555 6////=
15245 26/// /1103 10024 20023 30130 40233 58002 333 55300 0//// 20000
3////
6///7 555 6////=
15247 23/// /0701 11008 21008 30123 40234 50000 333 55300 10020 20000
30000
60007 91002 91102 555 32000 42000 50010 60000 71010=
15270 23/// /1503 10024 20023 30085 40243 52005 333 55300 60007 91004
91105 555
60000=
15289 23/// /1401 10014 20011 30133 40240 54001 333 55300 0//// 20000
3////
6///7 91002 91103 555 6////=
15314 23/// /2501 10017 20015 39890 40241 52002 333 6///7 91002 91103
555 6////=
15315 23/// /3603 11032 21032 38586 48513 52006 333 60007 91008 91109
555 60000=
15316 NIL=
15317 22298 63216 11091 21119 37775 48514 52012 86500 333 60007 91024
95100=
15338 23/// /0401 10036 20018 39858 40243 52002 333 6///7 91002 91103
555 6////=
15364 23/// /0000 11011 21011 39931 40257 50004 333 6///7 91000 91101
555 6////=
15366 23/// /0203 10039 20013 39987 40225 58004 333 6///7 91008 91108
555 6////=
15388 23/// /1902 10026 20025 30135 40240 54001 333 6///7 91003 91103
555 6////=
0000209700
335
SIRO50 YRBK 110300
AAXX 11031
15261 23/// /2905 10007 21030 39391 42830 52009 333 55300 0//// 20000
3////
6///7 91007 91108 555 6////=
15284 21/93 93113 11060 21063 38330 48475 51009 74544 333 60007 91018
91119 555
60000=
15285 23/// /3506 10007 21060 39178 42788 50004 333 55300 0//// 20000
3////
6///7 91012 91114 555 6////=
15301 22998 00506 11038 21045 38628 48501 52004 333 60007 92600=
15302 23/// /3102 11014 21054 38937 48484 51007 333 55300 0//// 20000
3////
6///7 91004 91107 555 6////=
15307 NIL=
15324 NIL=
15325 22597 43504 11055 21063 38465 48479 52005 84500 333 60007 91007
91108 555
60000=
15328 NIL=
15333 23/// /1303 11009 21009 30182 40202 52016 333 6///7 91004 91104
555 6////=
15345 NIL=
15347 NIL=
15349 23/// /3202 10026 21057 39639 40207 51011 333 55300 0//// 20000
3////
6///7 91006 91107 555 6////=
15373 22997 03304 10051 21063 39807 40196 50004 333 60007 91008 91108
555 60000=
15375 22997 03402 11031 21059 39837 40214 50007 333 60007 91004 91105
92600 555
60000=
15377 23/// /3401 11033 21039 39977 40205 50005 333 60007 91002 91103
555 32000
42000 50000 60000 70000=
15402 23/// /2204 10009 21012 30122 40200 52010 333 55300 0//// 20000
3////
6///7 91005 91105 555 6////=
15405 NIL=
15416 23/// /2001 10000 21029 39955 40220 52011 333 60007 91003 91103
555 60000=
15419 23/// /2702 11009 21037 30016 40220 51011 333 6///7 91003 91105
555 6////=
15421 23/// /24// 10009 21009 30104 40219 51013 333 55300 0//// 20000
3////
6///7 555 6////=
15422 22997 02302 10001 21002 30108 40214 52014 333 55300 60007 91003
91105 555
60000=
15425 21996 02204 11017 21017 30137 40204 52014 71000 333 60007 91005
91105
92600 555 32000 42000 50010 60000 71010=
15444 NIL=
15455 NIL=
15475 NIL=
15489 22997 02103 10021 20012 30121 40217 51010 333 60007 91005 91106
555 60000=
15490 NIL=
15491 23/// /1902 10011 20006 30186 40217 51011 333 60007 91003 91106
555 60000=
15498 23/// /2402 10032 20009 30176 40219 51008 333 60007 91003 91106
555 60000=
00000000