0000012200
892
SNVF51 EGRR 110200
BBXX
62081 11024 99521 70105 46/// /2813 10085 20010 40145 52019 22200
10707 70033=
0000012800
893
SNVF51 EGRR 110200
BBXX
62103 11024 99499 70029 46/99 /2315 10109 20080 40143 58004 22200
00112 10602 70011=
0000014400
894
SNVF51 EGRR 110200
BBXX
62305 11024 99504 70000 46/// /2120 10085 20058 40155 57002 22200
00109 10601 70006 333 90710 91127=
0000011200
895
SNVF51 EGRR 110200
BBXX
64046 11024 99605 70042 46/// /2820 10075 20024 49979 333 90710 91127=
0000011600
896
SNVF51 EGRR 110200
BBXX
62050 11024 99500 70044 46/// /3213 10090 20060 40143 22200 10503
70014=
0000014400
897
SNVF51 EGRR 110200
BBXX
62095 11024 99529 70156 46/// /2514 10074 20025 40131 51015 22200
00100 10908 70042 333 90710 91127=
0000011600
898
SNVF51 EGRR 110200
BBXX
62303 11024 99516 70051 46/// /3113 10085 20054 40135 22200 10604
70019=
0000014400
899
SNVF51 EGRR 110200
BBXX
62170 11024 99514 10020 46/97 /2320 10082 20067 40145 58007 22200
00104 10601 70004 333 90710 91133=
0000013000
900
SNNL51 EHDB 110200 CCA
AAXX 11021
06251 41/57 /2210 10071 20063 30112 40113 56008 7//88
333 91013 91114 91211=
0000140900
901
UDAS02 BABJ 110204
AMDAR 1102
ASC CNFLWN 4007N 11633E 110200 F013 MS018 291/020 TB/ S//1=
ASC CNFLWN 4008N 11633E 110201 F017 MS020 283/017 TB/ S//1=
ASC CNFLWN 4009N 11631E 110201 F032 MS050 252/010 TB/ S//1=
LVR CNFLWQ 3736N 11309E 110153 F291 MS478 271/080 TB/ S//1=
DES CNFLWQ 3748N 11337E 110156 F266 MS456 276/060 TB/ S//1=
LVR CNFLWQ 3800N 11403E 110159 F266 MS465 271/057 TB/ S//1=
LVR CNFLWQ 3813N 11430E 110202 F266 MS465 269/058 TB/ S//1=
DES CNFOZL 3709N 12606E 110200 F096 MS126 304/028 TB/ S//1=
DES CNFOZL 3709N 12610E 110200 F089 MS115 302/026 TB/ S//1=
DES CNFOZL 3709N 12612E 110201 F086 MS113 305/026 TB/ S//1=
DES CNFOZL 3709N 12618E 110202 F072 MS110 307/023 TB/ S//1=
ASC CNFPXL 3145N 11852E 110202 F003 PS020 062/010 TB/ S//1=
ASC CNFPXL 3145N 11853E 110202 F006 PS011 074/012 TB/ S//1=
ASC CNFPTK 3906N 11711E 110200 F071 MS111 262/020 TB/ S//1=
ASC CNFPTK 3906N 11708E 110201 F074 MS113 259/021 TB/ S//1=
ASC CNFPTK 3907N 11705E 110201 F074 MS113 261/020 TB/ S//1=
ASC CNFPTK 3907N 11702E 110202 F074 MS113 266/020 TB/ S//1=
ASC CNFPXL 3146N 11854E 110202 F011 PS005 107/014 TB/ S//1=
ASC CNFOZN 3959N 11714E 110202 F186 MS315 272/052 TB/ S//1=
ASC CNFOZN 3959N 11716E 110202 F191 MS326 274/053 TB/ S//1=
ASC CNFOZN 3957N 11718E 110202 F201 MS349 273/055 TB/ S//1=
ASC CNFOZN 3955N 11722E 110203 F216 MS383 276/056 TB/ S//1=
0000010200
902
SNVX19 LFVW 110200 RRA
BBXX
MINFR00 1102/ 99401 70265 46/// ///// 10140 40021 57021=
0000011000
903
UANT99 KDDL 110211
ARP UAL74 5021N04343W 0211 F370 MS57 315/35 KT
N17133 DDL IG1 110211 F42A
0000011000
904
UANT99 KDDL 110212
ARP UAL84 4901N01640W 0212 F370 MS58 252/73 KT
N57016 DDL XXW 110212 F92A
0000012200
905
SAIN32 VOMM 110210
METAR VOMM 110210Z 27003KT 0800 R07/1300 R25/1000 MIFG FEW018 21/19
     Q1015 NOSIG=
0000024100
906
SOAT10 KWAL 110213
FA8005BC 011021337 OT12 ID:KN-BASS-01 DT:2014 01 11 02 11
:RD -3237 -3260 -3253 -3285 -3258 -3253 -3252 -3267 -3263 -3249
:PR 0444 0361 0356 0340 0338 0382 0399 0468 0388 0394
:B 13.7V
 45+0NP 219E
0001044800
907
SNSW23 LSSW 110200
AAXX 11024
06686 23/// /1305 10045 20019 39611 40212 57003
  333 55300 20000 60005 91108 91205=
06623 23/// /2301 10027 20027 39343 48478 56005
  333 55300 20025 60005 91102 91202=
06624 23/// /0301 11012 21014 39697 40219 56006
  333 55300 20000 60005 91102 91201=
06602 23/// /0000 10005 20005 39664 40205 57007
  333 55300 20007 60005 91102 91201=
06693 23/// /0000 11006 21006 39459 48470 57005
  333 55300 20040 60005 91102 91201=
06682 23/// /1901 10024 20009 39081 48491 57002
  333 55300 20000 60005 91106 91203=
06675 23/// /0000 11001 21001 39132 48482 57003
  333 55300 20000 60005 91101 91201=
06637 23/// /1901 10008 20004 39497 40215 57005
  333 55300 20011 60005 91103 91201=
06627 23/// /2201 10019 21003 39000 48489 56008
  333 55300 20000 60005 91103 91202=
06625 23/// /2202 11008 21008 39422 48462 57006
  333 55300 20004 60005 91103 91202=
06608 23/// /2603 10040 20012 38875 48487 57006
  333 55300 20000 60005 91106 91204=
06638 23/// /0901 10014 20014 39316 48478 56006
  333 55300 20000 60005 91104 91202=
06635 23/// /0000 10001 20001 39618 40215 56005
  333 55300 20000 60005 91101 91200=
06728 23/// ///// 10043 21038 38393 48503 57002
  333 55300 20000 60005=
06725 23/// /2401 10021 21019 38464 48505 57004
  333 55300 20007 60005 91106 91202=
06758 23/// /0501 10042 20041 39834 40232 52001
  333 55300 20007 60005 91102 91201=
06796 23/// /2102 10004 20004 38635 48511 52003
  333 55300 20007 60005 91104 91202=
06784 23/// /0000 11011 21017 38401 48502 58003
  333 55300 20000 60005 91103 91201=
06786 23/// /1905 10032 20015 39548 40222 57004
  333 55300 20000 60005 91107 91205=
06794 23/// /0501 10016 20001 38970 48511 57004
  333 55300 20000 60005 91103 91202=
06792 23/// /2301 11038 21049 38292 48514 50001
  333 55300 20000 60005 91105 91203=
06798 23/// /2802 11011 21023 38715 48504 52002
  333 55300 20000 60005 91103 91201=
06702 23/// /2121 10060 21039 38316 48491 58006
  333 55300 20000 60005 91128 91223=
06610 23/// /0000 10008 20004 39610 40211 57005
  333 55300 20000 60005 91102 91201=
06730 43/// /3410 11083 21109 36561 47070 53003
  333 55300 20000 91128 91215=
06643 23/// /2001 10022 20022 39693 40212 57005
  333 55300 20000 60005 91102 91201=
06680 23/// /2623 11024 21048 37506 47045 52004
  333 55300 20000 60005 91136 91224=
06990 23/// /1404 10061 20022 39653 40205 57004
  333 55300 20000 60005 91109 91205=
06712 23/// /0102 10021 20017 39732 40202 57007
  333 55300 20011 60005 91104 91203=
06609 23/// /2613 10042 21044 38011 48490 57004
  333 55300 20000 60005 91126 91214=
06616 23/// /1104 10025 20018 39469 40190 57010
  333 55300 20004 60005 91105 91204=
06724 23/// /0302 10030 21030 38580 48500 57005
  333 55300 20011 60005 91103 91203=
06748 23/// /2202 10019 21039 38362 48507 55001
  333 55300 20011 60005 91103 91202=
06605 23/// /2514 10048 21031 38392 48491 57004
  333 55300 20000 60005 91121 91216=
06659 23/// /2217 10027 21052 37888 48494 55000
  333 55300 20000 60005 91128 91218=
06672 23/// /1901 10024 20020 39673 40211 57003
  333 55300 20000 60005 91104 91202=
06745 23/// /0701 11013 21020 38668 48503 55000
  333 55300 20007 60005 91103 91202=
06753 23/// /0000 10019 20007 39070 48512 57000
  333 55300 20000 60005 91102 91201=
06770 23/// /0000 10080 20067 39860 40225 55001
  333 55300 20000 60005 91102 91201=
06639 23/// /2910 10056 21016 38591 48493 57002
  333 55300 20000 60005 91120 91212=
06720 23/// /1102 10027 20021 39624 40212 57008
  333 55300 20000 60005 91104 91203=
06762 23/// /0101 10055 20045 39977 40229 55001
  333 55300 20000 60005 91103 91202=
06604 23/// /0101 10027 20017 39617 40208 57005
  333 55300 20000 60005 91103 91202=
06771 23/// /2101 10069 20060 39797 40225 57003
  333 55300 20000 60005 91103 91202=
06734 23/// /2601 10014 20012 39507 40210 56006
  333 55300 20014 60005 91104 91203=
06782 NIL=
06681 23/// /0000 10043 20020 39276 48483 57006
  333 55300 20000 60005 91102 91201=
06685 23/// /3001 10022 20013 39584 40214 57004
  333 55300 20000 60005 91104 91202=
06700 23/// /2701 10021 20008 39697 40202 57008
  333 55300 20004 60005 91102 91202=
06670 23/// /1802 10022 20021 39686 40210 57005
  333 55300 20000 60005 91103 91202=
06750 23/// /1807 10012 21070 37719 48505 53002
  333 55300 20000 60005 91111 91207=
06711 23/// /0501 10048 20030 39645 40197 57008
  333 55300 20014 60005 91104 91202=
06717 23/// /2605 11008 21069 37532 47069 57003
  333 55300 20000 60005 91109 91206=
06735 23/// /2402 10071 21025 38677 48496 57004
  333 55300 20011 60005 91106 91204=
06727 23/// /1002 10014 20007 39442 48479 57006
  333 55300 20000 60005 91103 91202=
06612 23/// /0000 10007 20002 39004 48479 57006
  333 55300 20000 60005 91101 91201=
06645 23/// /0705 10020 20017 39460 48468 58008
  333 55300 20007 60005 91108 91206=
06633 23/// /1802 10027 20024 39734 40210 57006
  333 55300 20000 60005 91104 91203=
06650 23/// /2502 10032 20031 39653 40208 57006
  333 55300 20004 60005 91103 91202=
06655 23/// /0803 10026 20006 38991 48489 57001
  333 55300 20000 60005 91106 91203=
06620 23/// /0302 10002 20002 39673 40215 57005
  333 55300 20000 60005 91103 91202=
06660 23/// /2102 10024 20023 39532 40207 57005
  333 55300 20000 60005 91103 91202=
06783 23/// /0000 11020 21025 38369 48516 50001
  333 55300 20000 60005 91105 91203=
06780 23/// /2509 11015 21082 37352 47063 57001
  333 55300 20000 60005 91121 91211=
06791 23/// /2812 11063 21100 36793 47067 57000
  333 55300 20000 60005 91123 91214=
06601 23/// /1006 10038 20021 39803 40192 57008
  333 55300 20000 60005 91111 91206=
06705 23/// /3202 10023 20015 39641 40202 57007
  333 55300 20000 60005 91103 91202=
06619 23/// /3302 10048 21008 38800 48489 57007
  333 55300 20014 60005 91103 91202=
06631 23/// /0102 11007 21009 39536 40216 57006
  333 55300 20000 60005 91102 91202=
06621 23/// /0000 10020 20020 39671 40211 55004
  333 55300 20007 60005 91102 91201=
06626 23/// /2002 10028 20027 39741 40209 57006
  333 55300 20011 60005 91103 91202=
06673 23/// /0000 10017 20017 39615 40209 57005
  333 55300 20000 60005 91102 91200=
06679 23/// /0000 11006 21008 39553 40215 57005
  333 55300 20007 60005 91102 91201=
06664 23/// /0801 10026 20026 39665 40208 57005
  333 55300 20000 60005 91103 91201=
06760 23/// /0801 10079 20040 39775 40226 55001
  333 55300 20000 60005 91103 91201=
06646 23/// /0302 10020 20018 39807 40211 56006
  333 55300 20000 60005 91103 91202=
06636 23/// /0401 10007 20005 39621 40211 57006
  333 55300 20004 60005 91102 91201=
06759 23/// /1001 11006 21006 38345 48515 55001
  333 55300 20000 60005 91105 91202=
06722 23/// /0603 10046 21062 38168 48503 57004
  333 55300 20000 60005 91106 91204=
06666 23/// /0401 10009 20009 39789 40213 57005
  333 55300 20000 60005 91104 91203=
06744 23/// /1413 10034 21050 38035 48502 53000
  333 55300 20000 60005 91120 91214=
06756 23/// /3203 10045 20021 39539 40233 55002
  333 55300 20011 60005 91105 91204=
06669 43/// /18// 10024 20020 39198 48479 56007
  333 55300 20007 91110 91209=
06689 23/// /2211 10047 20009 38880 48489 57005
  333 55300 20000 60005 91115 91211=
06628 23/// /0902 10041 20012 38977 48486 57006
  333 55300 20004 60005 91104 91203=
06751 23/// /0101 11015 21055 38104 48514 55002
  333 55300 20000 60005 91105 91203=
06747 43/// /1504 11028 21124 37163 47069 57003
  333 55300 20014 91106 91204=
06709 43/// /2601 10050 20043 39744 40200 57007
  333 91103 91203=
06740 43/// /2613 11051 21081 36973 47064 52000
  333 55300 20000 91131 91220=
06641 23/// /1213 10027 20021 39779 40204 57008
  333 55300 20000 60005 91119 91213=
06618 23/// /0202 11002 21002 39675 40216 57006
  333 55300 20007 60005 91103 91202=
06706 43/// /0402 1//// 2//// 3//// 5////
  333 91105 91203=
06787 23/// /0503 10000 21012 39055 48492 57006
  333 55300 20000 60005 91105 91201=
06754 43/// /1105 10012 21050 37813 48506 52000
  333 553// 20000 91109 91208=
06683 43/// /2505 1//// 2//// 39710 57///
  333 91107 91205=
06778 23/// /1302 11074 21083 38022 48516 57002
  333 55300 20007 60005 91105 91202=
06733 23/// /0000 11005 21005 39231 48476 56006
  333 55300 20000 60005 91102 91200=
06731 23/// /1901 11013 21013 39516 40217 56007
  333 55300 20000 60005 91103 91201=
06632 23/// /0802 10019 20019 39685 40214 57///
  333 55300 20029 60005 91104 91203=
06644 23/// /1302 10022 20022 39656 40210 56006
  333 55300 20000 60005 91104 91203=
06752 23/// /0202 10048 20027 39720 40233 55002
  333 55300 20004 60005 91107 91202=
06606 23/// /0000 10006 20006 39683 40216 57005
  333 55300 20000 60005 91102 91201=
06688 43/// /2004 10000 21075 37526 47059 52001
  333 55300 20007 91116 91208=
06777 23/// /3303 10005 20005 38408 48514 57002
  333 55300 20000 60005 91107 91204=
06704 23/// /3503 10013 20011 39381 48471 57008
  333 55300 20004 60005 91105 91203=
06708 23/// /1902 10030 20030 39217 48480 57007
  333 55300 20000 60005 91108 91204=
06617 23/// /2602 11030 21034 38970 48475 57005
  333 553// 20047 60005 91103 91202=
06648 23/// /1701 10004 20002 39574 40214 56005
  333 55300 20011 60005 91103 91202=
06671 43/// /1901 1//// 2//// 39723 5////
  333 91103 91202=
06656 23/// /1103 1//// 2//// 39521 57005
  333 60005 91103 91203=
06651 23/// /2003 10005 20004 39317 48474 57004
  333 55300 20000 60005 91105 91203=
06687 43/// /0901 1//// 2//// 39697 57///
  333 91104 91203=
06793 23/// /1805 11001 21002 38428 48502 57002
  333 55300 20000 60005 91110 91207=
06795 23/// /2709 10001 21096 37357 47069 57001
  333 55300 20000 60005 91116 91210=
06799 43/// /2609 10004 21078 37622 47080 55000
  333 55300 20000 91125 91217=
06723 43/// /2009 11016 21080 37297 47064 57006
  333 55300 20000 91115 91208=
06749 43/// /2302 11039 21120 36948 47071 57003
  333 55300 20000 91106 91203=
06739 43/// /2614 11035 21078 37156 47069 55000
  333 55300 20000 91122 91214=
06657 23/// /2801 11002 2//// 39636 40217 57///
  333 553// 20000 60005 91102 91201=
06788 23/// /0501 10017 20008 38958 48511 57001
  333 55300 20032 60005 91102 91201=

0000067900
908
SNBX40 EBBR 110200
AAXX 11021
06407 42257 72106 10037 20019 30153 40160 57006 876//
333 83704 86706 91109 91206=
06428 45359 /2105 10035 20026 30119 40162 57008
 333 88/06 91108 91206=
06447 NIL=
06451 42462 72105 10034 20017 30098 40166 56009 876//
333 87711 91107 91205=
06456 42375 61904 10040 20033 39825 40175 55006 85601
 333 82706 84708 91107 91205=
06476 47048 81802 10025 20021 39507 40181 56010 71011
333 88/01 91105 91202=
06479 42967 02203 10022 20016 30092 40169 55006
 333 91104 91203=
06490 45965 01605 10014 2//// 39599 4//// 56008
333 91107 91205=
06590 46/40 /1801 10017 20013 39728 40191 55005
333 91101 91201=
0000068100
909
SNBX41 EBBR 110200
AAXX 11021
06400 42358 82105 10040 20033 30152 40160 58006 876//
 333 83706 87708 91108 91206=
06431 NIL=
06432 45366 /2004 10035 20024 30095 40169 57008
 333 87/07 91107 91205=
06449 42260 62003 10035 20025 39939 40171 57010 86600
333 86705 91106 91204=
06450 45360 82203 10039 20018 30146 40162 57010
333 88/08 91110 91207=
06458 45/63 /2302 10020 20014 30027 40169 57010
 333 91104 91204=
06465 45/61 /1902 10024 20013 30102 40167 55008
 333 91105 91203=
06478 42970 11904 10028 20013 39947 40171 56010 80001
333 81070 91106 91204=
06496 45262 /1903 10015 20012 39498 40182 56008
 333 83/04 87/06 91108 91204=
0000412000
910
SNCZ64 OKPR 110200
AAXX 11021
11406 27558 /2103 10003 21004 39604 40205 56004 71011
  333 60005 81/25 83/73
  555 395// 50026 60029 70033 80040 90051=
11414 22470 72402 10010 21003 39463 42791 53001 87500
  333 60005 87616
  555 391// 50024 60023 70030 80034=
11423 27550 /2704 11002 21002 39305 42795 55002 71011
  333 60005 85/22 87/26
  555 300// 50021 60025 70030 80035=
11438 26/// /9902 10012 21001 39793 40197 53001
  333 60005
  555 391// 50032 60036 70038 80049 90055=
11450 25970 /2602 10018 20005 39748 40205 57002
  333 60005 81/73
  555 12705 391// 50027 60030 70035 80039=
11457 25370 /2404 11020 21025 38885 48478 55002
  333 60005 81/09
  555 396// 50007 60014 70014 80025=
11464 42586 52805 11002 21019 39183 42784 50001 82576
  333 82623
  555 388//=
11487 25670 /2002 10015 21007 39571 40208 55000
  333 60005 81/35 85/72
  555 386// 50023 60024 70025 80032 90044=
11502 25670 /9901 10014 21007 39729 40195 50003
  333 60005 88/37
  555 386// 50024 60028 70033 80041 90054=
11509 27970 /2603 10026 20001 39992 40192 50002 70011
  333 60005 81/74
  555 384// 50031 60033 70036 80041 90055=
11518 22780 22406 10019 21002 39750 40199 53001 82500
  333 60005 82650
  555 386//=
11519 25970 /2103 10028 20003 39887 40201 53003
  333 60005 83/73
  555 384//=
11520 25970 /9902 10025 20000 39827 40202 53002
  333 60005 83/74
  555 384// 50025 60033 70037 80045 90052=
11538 25681 /1602 10014 21009 39591 40212 55000
  333 60005 87/38
  555 385// 50007 60030 70035 80043=
11546 25/80 /2001 10002 21010 39714 40213 57001
  333 60005
  555 392// 50033 60038 70045 80056 90058=
11567 22765 12203 10018 20002 39844 40198 52003 81500
  333 60005 81650
  555 389// 50036=
11603 25670 /2501 10020 21008 39696 40188 53003
  333 60005 84/40
  555 381// 50036 60040 70044 80050 90058=
11624 22765 72403 10043 20012 39903 40198 52004 87500
  333 60005 87656
  555 380// 50036=
11628 25670 /2503 10016 21012 39557 40206 52003
  333 60005 87/43
  555 382// 50024 60029 70033 80041 90048=
11636 27670 /9901 1//// 2//// 39515 42800 53001 70011
  333 60005 87/38
  555 5//// 6//// 7//// 8//// 9////=
11643 27470 /2002 10001 21013 39206 42782 52004 78511
  333 69915 83/15 85/19 87/35
  555 13605 390// 50014 60016 70019=
11652 22770 72702 10037 20001 39915 40199 52005 87500
  333 60005 87656
  555 377// 50038=
11653 26/// /2711 11055 21058 3//// 4//// 5////
  333 6///5 91116
  555 398//=
11659 27670 /2603 10011 21014 39549 40203 53002 70011
  333 60005 81/44
  555 383// 50013 60030 70028 80036 90044=
11669 22265 82403 11003 21004 39298 42786 52004 886//
  333 60005 88703
  555 399// 50015 60029 70030 80038 90051=
11679 27770 /2805 10033 21003 39701 40195 53004 70011
  333 60005 87/50
  555 377// 50038 60041 70039 80047 90061=
11683 25/70 /2905 10005 21026 39310 42793 52003
  333 60005
  555 1//04 380// 50023 60021 70029 80038=
11692 22770 32502 10001 21014 39623 40213 52003 83500
  333 60005 83650
  555 390// 50018=
11693 27670 /2501 10000 21017 39717 40214 53003 70011
  333 60005 81/46
  555 12710 2//12 389// 50029 60037 70040 80055 90060=
11698 27670 /2802 10010 21012 39795 40215 52001 70011
  333 60005 81/47
  555 385// 50036 60041 70051 80058 90066=
11710 25670 /2504 10008 21020 39570 40200 53003
  333 60005 85/49
  555 382// 50035 60039 70044 80052=
11723 22775 72001 10015 21007 39904 40210 51002 87500
  333 6///5 87650
  555 385// 50026 60030 70044 80053=
11730 27270 /2806 11044 21059 38635 48453 55000 72488
  333 69905 81/05 83/16 85/19 87/23 91012 91112
  555 390//=
11766 27670 /2203 11011 21020 39291 42789 53004 70011
  333 60005 85/37
  555 394// 50014 60019 70025 80039=
11774 25770 /1302 10018 20005 39928 40207 50003
  333 60005 87/50
  555 391//=
11782 22770 82303 10006 21016 39890 40204 53004 885//
  333 60005 88656
  555 386//=
11787 27003 /3008 11037 21040 38645 48462 53001 73433
  333 60005 89/01 91112
  555 398// 50007 60014 70010 80021=
0000018300
911
FTGD31 TGPY 110200
TGPY 110200Z 1106/1206 09010KT 9999 SCT020 FM111200Z 11014KT 9999
FEW020 BECMG 1122/1124 08008KT FEW018 PROB30 TEMPO 1200/1206 6000
SHRA SCT017=
00000000