0000003800
896
USIL01 BIRK 111200
NIL
0000011000
897
UANT01 CWAO 111204
ARP VJT748 5943N03146W 1204 F410 MS59 037/43 KT
9HVJC QXT EUA 111204 M84A
0000011100
898
UANT01 CWAO 111205
ARP UAL957 5059N03025W 1204 F360 MS51 184/37 KT
N667UA DDL XXW 111205 F37A
0000016300
899
SSVX13 LFPW 111200
ZZYY 13593 11014 1200/ 738171 018529 6113/ 22219 00169 33300 88872
 20000 43623 444 20130 11014 1155/ 50101 80118 80031 9/015=
0000015700
900
SSVX13 LFPW 111200
ZZYY 62507 11014 1200/ 747372 011726 6113/ 11119 40160 57005 22219
 00119 444 20130 11014 1157/ 50101 80104 80031 9/015=
0000015700
901
SSVX13 LFPW 111200
ZZYY 62508 11014 1200/ 745921 006074 6113/ 11119 40210 52003 22219
 00131 444 20130 11014 1156/ 50101 80104 80031 9/015=
0000011000
902
UANT01 CWAO 111205
ARP VIR33C 4904N01739W 1204 F380 MS59 232/62 KT
GVWAG DDL BYT 111205 J11A
0000011000
903
UANT01 CWAO 111205
ARP DAL19 5306N02645W 1205 F330 MS59 186/60 KT
N834MH QXT AOE 111205 F40A
0000018400
904
SSVX13 LFPW 111200
ZZYY 41800 11014 1200/ 725934 035839 6110/ 11119 40209 52020 22219
 00230 33300 88872 20000 43748 444 20100 11014 1200/ 50101 80148
 80069 9/015=
0000018400
905
SSVX13 LFPW 111200
ZZYY 62504 11014 1200/ 756201 018700 6110/ 11119 40100 52001 22219
 00101 33300 88872 20000 43535 444 20100 11014 1200/ 50101 80134
 80000 9/015=
0000018400
906
SSVX13 LFPW 111200
ZZYY 62503 11014 1200/ 745971 002442 6113/ 11119 40211 52008 22219
 00134 33300 88872 20000 43543 444 20130 11014 1200/ 50101 80100
 80000 9/015=
0000049200
907
SMMV01 VRMM 111200
AAXX 11124
43533 11458 30705 10285 20245 30110 40112 60002 70511 81231 333 
10311 58008 81818=
43555 11459 30712 10294 20236 30107 40109 60002 70500 83101 333 
10311 58009 83818=
43577 12462 50505 10291 20239 30104 40106 69922 82232 333 10305 
82818 83363=
43588 12462 70203 10281 20250 30105 40106 69902 8223/ 333 10311 
58014 82818 87363= 
43599 11460 60000 10286 20249 30110 40112 60042 72522 83942 333 
10319 58018 82817 81918 85076=
0000067600
908
SMMC01 GMMC 111200
AAXX 11124
60096 32960 00607 10172 20125 40197 50012=
60101 32460 52007 10187 20118 40194 50008 82280
  333 82816 84360=
60115 32558 82409 10134 20100 40187 50002 60031 8688/
  333 83820 83830 85360=
60135 11550 61803 10145 20122 40195 50009 69961 76162 84570
  333 84620 86358=
60150 32458 7204/ 10131 20065 39543 40197 50012 879//
  333 81813 86820 81923=
60155 32465 62604 10198 20133 40186 50007 86200
  333 86816=
60156 15460 22409 10181 20123 40195 50004 60001 82200
  333 82816=
60230 32558 20204 10168 20080 40183 50002 82200
  333 82826=
60252 32560 20000 10172 20117 40187 51020 82500
  333 82620=
0000087500
909
SMMC02 GMMC 111200
AAXX 11124
60105 11450 61604 10158 20133 40195 50008 69901 70162 86830
  333 83816 83620=
60107 32560 53402 10169 20114 40205 50006 82530
  333 82630 84360 95300=
60127 11560 80000 10125 20077 39606 40203 50003 69901 70262 885//
  333 88630=
60141 32560 72806 10144 20086 39526 40204 52011 8427/
  333 83830 86300=
60185 32970 02206 10192 20125 40201 50011=
60190 32559 33008 10150 20103 40193 58001 82232
  333 82826=
60191 32565 42602 10163 20084 40191 50003 82230
  333 82826=
60195 11560 72804 10046 20025 38514 48528 52001 69981 70282 872//
  333 87830 95550=
60220 32558 23004 10196 20122 40188 58009 82500
  333 82626=
60265 32570 12501 10105 20035 38890 48513 50000 81200
  333 81830=
60318 31530 62103 10186 20135 40191 50007 71041 85230
  333 85820=
60060 NIL=
60106 NIL=
60210 NIL=
0000007500
910
UEVF02 EKMI 111200
UUDD ASDK02 1112/ 99692 30278 54997 NIL=
0000011000
911
SMRE41 EUMS 111200
AAXX 11124
69976 16/// /0617 10268 20246 30100 40115 60191
  333 58004=
0000017000
912
SOVI10 KWAL 111206
B110070A 011120601 P9751095 B\P~W@@@0ekL1@m^???CsCn>@mV3@HC|@O4C?5C?6bZ9I?<BM2?????@"??? nTLCKBJBcBXBcBiBa:AMPTEMP 26.22C  44+0NN 219E
0000023300
913
SMVD17 KWNB 111200 RRE
BBXX
51205 11121 99210 71564 46/// ///// 1//// 91151 22200 00249 10904
20904 333// 41302 70021=
46239 11121 99363 71221 46/// ///// 1//// 91159 22200 00133 11307
21003 330// 41306 70035=
0000011100
914
UANT99 KDDL 111204
ARP UAL121 4445N01356W 1204 F330 MS56 259/64 KT
N14107 QXS VGO 111204 F54A
0000011200
915
UANT99 KDDL 111204
ARP UAL929 5721N01546W 1204 F320 MS59 259/101 KT
N656UA DDL XXN 111204 F19A
00000000