0000134700
876
SILA01 KWBC 110300
AAXX 11031
48924 31350 81801 10172 20165 39556 40194 52015 71044 8465/ 333
58003=
48921 31440 61601 10155 20146 38669 48169 52015 71044 86200 333
58010=
48926 31410 20903 10184 20168 39724 40197 52021 74544 82630 333
58008=
48927 31450 80902 10138 20127 39206 48670 52020 71044 888// 333
58000=
48928 31420 80000 10129 20118 39129 48593 52014 71044 888// 333
58003=
48930 31220 83601 10170 20162 39853 40212 52012 71044 886// 333
58009=
48935 32456 83201 10112 20106 39064 48539 52017 8487/ 333 58005=
48938 31210 82201 10162 20159 39858 40203 52018 71044 886// 333
58031=
48940 31940 01201 10228 20166 39990 40188 52022 71044 333 58001=
48925 31/03 90401 10142 20134 39450 40103 52016 74744 333 58008=
48941 31960 02203 10225 20172 3//// 4//// 5//// 70544 333 5////=
48944 31458 12401 10156 20132 39535 40134 57002 71044 81500 333
58000=
48945 31956 03602 10228 20155 30020 40202 52022 70544 333 58002=
48946 31557 20902 10256 20217 30010 40176 52014 70544 81110 333
59001=
48947 31550 20902 10232 20179 30010 40177 57004 71044 82230 333
58002=
48952 31558 10902 10150 20181 39962 40155 52012 70544 81500 333
58004=
48955 31958 32201 10255 20175 30050 40169 52009 70544 80002 333
58005=
48957 32560 20901 10263 20176 30053 40162 54000 82101 333 58002=
0000028800
877
SIVS01 KWBC 110300
AAXX 11031
48914 32698 70703 10283 20199 30147 40149 52009 82508 333 58007
82696 87299=
48917 32598 70502 10278 20189 30142 40148 51015 82208 333 58002
82895 87299=
48918 32470 70704 10268 20214 30145 40156 52007 83208 333 58007
82894 87299=
0000041900
878
SNVE01 KWBC 110100 RRB
BBXX
9vrj8 11013 99027 31446 41/98 80118 10285 20242 40097 54000 76055
 8//// 22233 00285 20403 302// 40803 80255=
VNAH 11014 99383 31416 46/// /1707 10171 20110 30194 40218 52005
 22200 85135=
C6FS9 11014 99238 31512 46/// /1316 10256 20193 30140 40176 54000
 22200 04276 85213=
VNSZ 11014 99412 31464 46/// /3514 10219 20102 30110 40136 52001
 22200 04180 85150=
0000012600
879
SNVJ01 KWBC 110100 RRB
BBXX
FHZI 11014 99631 31416 46/// /2021 10002 2//// 39853 49864 57009
 22243 04012=
0000013900
880
SNVA01 KWBC 110200 RRF
BBXX
OZDK2 11024 99071 70130 41297 63514 10282 20274 40097 50007 7//92
 85222 22273 20302 80276=
0000009600
881
SNVB01 KWBC 110200 RRE
BBXX
MINFR09 1102/ 99339 11258 46/// ///// 40346 52009=
0000030100
882
SNVD01 KWBC 110200 RRP
BBXX
41051 11021 99183 70650 46/// /0807 10261 90200 22200 10503 70013
 333 91209 555 11083 22090=
41051 11021 99183 70650 46/// /0807 10261 90220 333 91209 555
 11083 22090=
41051 11021 99183 70650 46/// /0707 10260 90230 333 91209 555
 11080 22087=
0000042200
883
SNVE01 KWBC 110200 RRC
BBXX
VNAH 11024 99383 31416 46/// /1909 10191 20116 30194 40218 52001
 22200 04176 85146=
C6FS9 11024 99238 31512 46/// /1221 10257 20186 30135 40171 57005
 22200 04276 85208=
DVRF 11024 99188 31477 46/// /0923 10260 40104=
AGRF 11024 99160 31458 46/// /1113 10268 40091=
HRRF 11024 99197 31492 46/// /1417 10278 40115=
CBGR 11024 99193 31474 46/// /1117 10282 40116=
0000013200
884
SNVJ01 KWBC 110200 RRC
BBXX
FHZI 11024 99633 31414 46/// /2022 11001 21001 39848 49859 57011
 22243 04013 86001=
0000025700
885
SIVA30 KWBC 110300 RRA
BBXX
DGHB 11034 99123 10465 41597 30913 10248 20183 40161 52/// 70311
 832/3 22224 20302 309// 40403 5//// 80204=
LGWS 11031 99234 30143 43/// /1602 10174 20162 40108 5//// 222/0
 04168 1//// 3//// 4//// 5////=
0000055500
886
SIVB30 KWBC 110300 RRB
BBXX
MINFR09 1103/ 99340 11256 46/// ///// 40337 57003=
SHIP 11033 99170 11316 41297 70440 10250 20207 40200 54000 76066
 8416/ 222720 07273 20405 31001 40707 53049 65/// 80220 ICE /////=
DGSE 11033 99505 11688 41094 82523 10000 20000 49845 56015 76972
 87673 22214 04050 21408 30227 41408 51408 80000=
A8PC9 11031 99106 11083 41/96 /0511 10245 20209 40150 51/// 70322
 8//68 22213 20605 80220=
DGWD2 11034 99225 11202 41997 13406 10208 20132 40239 50000 70200
 80005 22200 00230 299// 331// 40703=
0000024900
887
SIVC30 KWBC 110300 RRB
BBXX
TBWUK67 11034 99024 70793 41398 52613 10268 20230 40101 54000
 7//22 85730 22253 00260 20501 80242=
C6NZ3 11030 99245 51121 41598 41209 10241 20196 40190 52006 70200
 81162 22273 04243 21003 80210=
0000070500
888
SIVD30 KWBC 110300 RRH
BBXX
41046 11031 99238 70683 46/// /1009 10256 20189 40230 51005 90250
 22200 00261 10905 20804 3//// 40903 70026 333 91211 555 11096
 22102 30158 40911 60249 098091 094091 099090 096094 101093 099091
 80910 90216=
42060 11031 99163 70632 46/// /0709 10261 40174 51012 90250 22200
 00267 10604 20604 307// 41002 70022 333 91211 555 11098 22104
 30206 40712 60249 071092 066098 070098 070097 069105 068099 80711
 90207=
44062 11031 99386 70764 46/// /0502 10024 40231 58027 90300 22200
 00027 1//00 70001 333 91202 555 11017 22019=
44064 11031 99370 70760 46/// /1404 10093 40227 56019 90300 22200
 00062 10301 70003 333 91205 555 11050 22054=
0000014800
889
SXIN90 VISM 110300
AAXX 11034
42000 AMS KNG 31996 00000 10072 20024 39307 40192 70500 333 10153
20037 58007 555 10006
R/H=72%=
0000059100
890
UKIN90 VIJP 110000
TTBB 6102/ 42348
     00973 09448 11936 07869 22934 08068 33879 03864 44868 02862
     55841 00660 66834 00059 77829 00558 88771 03561 99675 07358
     11633 05156 22607 05956 33600 06350 44566 07547 55559 08744
     66548 11338 77484 13932 88437 16915 99418 21715 11380 25342
     22375 26346 33365 27321 21212 00973 00000 11941 02009 22887
     35520 33872 32519 44766 19005 55775 05002 66736 12003 77679
     02000 88685 24007 99690 26511 11643 28029 22616 31049 33600
     31048 44537 31571 55542 31056 31313 58000 80012 41414 00900=

0000018500
891
SAIN34 VOMM 110310
METAR VOMM 110310Z 30003KT 0800 R07/1700 R25/1200 MIFG FEW018 24/20
     Q1016 NOSIG=
METAR VOTR 110310Z 01008KT 2500 HZ FEW018 23/19 Q1016 NOSIG=
0000008800
892
SAIN90 VOCL 110300
METAR VOCL 110300Z 11004KT 5000  HZ NSC  24/21 Q1014=
0000355800
893
SIVD30 KWBC 110300 RRG
BBXX
46207 11031 99509 71299 46/// /1714 10090 49835 57096 22200 00078
 10811 70054 333 91217=
41056 11031 99183 70655 46/// /0608 10260 40184 90240 333 91210
 555 11086 22093=
41056 11031 99183 70655 46/// /0607 10259 40184 90250 333 91209
 555 11080 22087=
41052 11031 99183 70648 46/// /0709 10258 40181 90250 333 91212
 555 11099 22108=
41052 11031 99183 70648 46/// /0708 10262 40180 90240 333 91210
 555 11093 22101=
41038 11031 99341 70777 46/// /1604 10149 90300 22200 00142 333
 91205 555 11043 22047=
41056 11031 99183 70655 46/// /0608 10260 40184 51009 90300 22200
 00266 10703 70014 333 91209 555 11084 22091=
46126 11031 99540 71666 46/// /2205 10044 49837 90254 22200 00046
 1//00 70001 333 91206 555 11053 22058=
46126 11031 99540 71666 46/// /2104 10044 49837 90248 22200 00046
 1//00 70001 333 91206 555 11048 22052=
46126 11031 99540 71666 46/// /2104 10044 49837 90250 22200 00046
 1//00 70001 333 91206 555 11048 22052=
41052 11031 99183 70648 46/// /0708 10258 40181 51006 90300 22200
 00266 11003 70016 333 91210 555 11088 22096=
44150 11031 99425 70640 46/// /2505 1//// 40307 57015 22200 00056
 10502 70012 333 91206=
44139 11031 99442 70571 46/// /2510 11001 40302 57009 22200 00014
 10805 70023 333 91212=
44040 11031 99410 70736 46/// /0402 10014 20014 90245 22200 1//00
 70001 333 91203 555 11031 22036=
PHOS 11034 99233 70833 41/98 /1220 10265 20217 40182 70022 8////
 22213 00307 2//// 3//// 4//// 5////=
PHET 11031 99134 70605 41598 60518 10255 20222 40160 54000 70322
 864// 22232 04271 21510 3//// 4//// 5////=
41051 11031 99183 70650 46/// /0807 10260 90240 333 91209 555
 11079 22086=
41051 11031 99183 70650 46/// /0707 10260 90300 22200 10502 70012
 333 91208 555 11076 22082=
41051 11031 99183 70650 46/// /0807 10260 90250 333 91209 555
 11079 22086=
44022 11031 99409 70737 46/// /0402 10013 20008 90300 333 91203
 555 11021 22021=
44060 11031 99413 70721 46/// /0502 10033 20029 40271 90245 22200
 00043 333 91203 555 11021 22021=
44039 11031 99411 70727 46/// /0903 10030 20028 90245 333 91204
 555 11036 22041=
46077 11031 99579 71543 46/// /2603 10022 49955 58010 90250 22200
 00041 11102 20401 3//// 41101 70008 333 91204 555 11034 22035
 30159 42407 60249 258033 250034 255030 260026 244033 254045 82406
 90200=
46053 11031 99343 71199 46/// /1002 10150 40178 52007 90250 22200
 00157 11403 20401 326// 41403 70016 333 91203 555 11016 22017
 30214 41003 60249 101016 082018 106016 101016 091020 088017=
44058 11031 99376 70763 46/// /1803 10065 40224 58024 90300 22200
 00043 1//00 70002 333 91204 555 11036 22039=
44059 11031 99368 70763 46/// /1704 10115 40218 58022 90300 22200
 00074 333 91206 555 11046 22050=
C6VG7 11034 99211 70865 41797 41525 10280 2//// 40158 53001 70211
 8426/ 22214 00280 20204 335// 4//04 5//02 6//// 8//// ICE /////=
WSQ2674 11034 99327 71172 43/// /0302 10142 2//// 40184 5////
 7//// 8//// 222// 04151 2//// 3//// 4//// 5//// 6//// 8//// ICE
 /////=
WECB 11034 99327 71172 43/// /0102 10145 20119 40192 5//// 7////
 8//// 222// 04149 2//// 3//// 4//// 5//// 6//// 8//// ICE /////=
44041 11031 99372 70768 46/// /1303 10064 90300 22200 00043 1//00
 70000 333 91203 555 11030 22033=
44042 11031 99380 70763 46/// /1203 10045 40217 58028 90300 22200
 00037 1//00 70001 333 91204 555 11036 22039=
44063 11031 99390 70764 46/// /3602 10018 40220 58027 90300 22200
 00014 1//00 70000 333 91202 555 11022 22024=
0000017800
894
SIVD31 KWBC 110300 RRA
BBXX
KAQP 11034 99098 71043 43/// /0513 10271 20206 40109 5//// 7////
 8//// 222// 04271 2//// 3//// 4//// 5//// 6//// 8//// ICE /////=
0000038000
895
SIVE30 KWBC 110300 RRA
BBXX
VNSZ 11034 99412 31464 46/// /3214 10256 20088 30104 40129 57011
 22200 04187 85158=
ZMGB 11034 99406 31767 41/98 10708 10197 20112 40182 58009 70100
 81400 22253 00180 20301 317// 40704 80150=
KAOU 11034 99064 31052 43/// /3404 10271 20240 40117 5//// 7////
 8//// 222// 04299 2//// 3//// 4//// 5//// 6//// 8//// ICE /////=
00000000