0000010800
043
UGIN90 VOTV 111200
PPBB 61111 43371 90012 18002 25508 29002 90370 01504 13508 91200
07521=
0000012200
044
SMCA01 TNCC 110300
AAXX 11034
78988 22481 31010 10260 20230 40154 52010 83200
  333 59007 60007 83814=
0000011000
045
SIAA21 RJTD 110300
AAXX 11034
89532 41/60 80904 11026 21033 39911 49938 51004
77122 885//=
0000011100
046
UANT99 KDDL 110306
ARP DAL619 5838N04209W 0306 F370 MS58 254/26 KT
N812NW DDL XXW 110307 J55A
0000011000
047
UANT99 KDDL 110306
ARP ACA878 4903N03943W 0306 F330 MS53 290/22 KT
CFCAE DDL IG1 110307 F18A
0000029700
048
SISO21 AMMC 110300
AAXX 11034
91503 31470 71805 10307 20244 40065 57017 71522 82937
  333 56990 81818 81920 86280=
91517 31475 33606 10321 20254 40051 57024 71500 82905
  333 56999 82818 81920=
91520 31480 23605 10305 10241 40050 58033 70500 82208
  333 56000 82820=

0000049400
049
SIVD20 KWNB 110300 RRE
BBXX
44056 11031 99362 70757 46/// ///// 1//// 90253 22200 00088 10502
20502 311// 41101 70008=
44096 11031 99370 70758 46/// ///// 1//// 90247 22200 00070 10502
20501 312// 41001 70008=
44098 11031 99428 70702 46/// ///// 1//// 90251 22200 00058 10502
20502 70009=
44097 11031 99410 70711 46/// ///// 1//// 90255 22200 00068 10402
20402 70008=
44099 11031 99369 70757 46/// ///// 1//// 90248 22200 00064 10502
20502 310// 41301 70009=
0001176400
050
SIMX01 MXBA 110300
AAXX 11031
76040 32920 01101 10155 20092 30167 40181 52010 90250 333   
30/// 58027 98620=
76056 26/// /2602 10147 21029 30155 40179 5//// 7//// 8//// 
90250 333   0//// 30/// 4//// 54/// 56/// 57/// 5//// 60007 
8//// 8//// 8//// 9//// 9//// 9//// 444 ///// 555 30178=
76109 26/// /2803 10137 21087 38885 40154 53019 7//// 8//// 
90250 333   0//// 30/// 4//// 54/// 56/// 57/// 58013 60007 
8//// 8//// 8//// 9//// 9//// 9//// 444 ///// 555 30083=
76113 32970 03601 10150 21031 39686 40140 57004 90240 333   
30/// 58020=
76117 26/// /0101 10109 21057 38893 40078 53015 7//// 8//// 
90250 333   0//// 30/// 4//// 54/// 56/// 57/// 58009 60007 
8//// 8//// 8//// 9//// 9//// 9//// 444 ///// 555 30150=
76161 26/// /2702 10190 21021 39915 40164 53018 7//// 8//// 
90250 333   0//// 30/// 4//// 54/// 56/// 57/// 58021 60007 
8//// 8//// 8//// 9//// 9//// 9//// 444 ///// 555 30221=
76219 26/// /3502 10037 21023 38157 40270 53025 7//// 8//// 
90250 333   0//// 30/// 4//// 54/// 56/// 57/// 58022 60007 
8//// 8//// 8//// 9//// 9//// 9//// 444 ///// 555 30086=
76220 32920 00302 10050 2//// 38154 40143 52025 90240 333   
30/// 58019=
76225 32920 03401 10118 20002 38609 40086 5//// 90240 333   
30/// 58022=
76243 32970 01601 10156 20138 39833 40123 52018 90240 333   
30/// 59037=
76254 22/// ///// 1//// 2//// 3//// 4//// 5//// 7//// 8//// 
9//// 333   0//// 30/// 4//// 54/// 56/// 57/// 5//// 6//// 
8//// 8//// 8//// 9//// 9//// 9//// 444 /////=
76255 26/// /2903 10194 20063 30149 40165 52020 7//// 8//// 
90250 333   0//// 30/// 4//// 54/// 56/// 57/// 58016 60007 
8//// 8//// 8//// 9//// 9//// 9//// 444 ///// 555 30214=
76305 32970 00000 10178 20106 30161 40169 52018 90245 333   
30/// 58016=
76323 32950 23601 10072 20044 38291 40204 52012 80002 90240 
333   30/// 56005 58022 82268=
76342 31840 72502 10220 20047 39442 40131 52027 70222 87070 
90250 333   30/// 56050 59004 87458=
76382 32960 42901 10156 20105 38901 40127 52024 80001 90245 
333   30/// 56007 58030 84076=
76390 31950 02703 10069 21012 38228 40117 52018 70544 90248 
333   30/// 58007=
76392 26/// /0901 10187 20140 39557 40134 52025 7//// 8//// 
90250 333   0//// 30/// 4//// 54/// 56/// 57/// 59018 60007 
8//// 8//// 8//// 9//// 9//// 9//// 444 ///// 555 30163=
76393 31910 00501 10188 20147 39560 40124 52028 70544 90250 
333   30/// 59018 91105 91401=
76405 32940 00102 10186 20141 30142 40163 52015 90250 333   
30/// 58016=
SIMX01 MXBA 110300 
AAXX 11031
76423 32965 72701 10123 21007 38157 40123 52023 80009 90250 
333   30/// 56009 58008 87170=
76424 26/// /1902 10116 21029 38157 40208 53021 7//// 8//// 
90250 333   0//// 30/// 4//// 54/// 56/// 57/// 58009 60007 
8//// 8//// 8//// 9//// 9//// 9//// 444 ///// 555 30133=
76458 32960 13102 10213 20150 30131 40135 52009 80004 90245 
333   30/// 56//9 58001 81357=
76490 26/// /2401 10195 20157 39745 40132 52028 7//// 8//// 
90250 333   0//// 30/// 4//// 54/// 56/// 57/// 59029 60007 
8//// 8//// 8//// 9//// 9//// 9//// 444 ///// 555 30176=
76499 31956 00000 10207 20175 30082 40104 52019 70200 90243 
333   30/// 59///=
76518 22/// ///// 1//// 2//// 3//// 4//// 5//// 7//// 8//// 
9//// 333   0//// 30/// 4//// 54/// 56/// 57/// 5//// 6//// 
8//// 8//// 8//// 9//// 9//// 9//// 444 ///// 555 3////=
76527 26/// /2305 10098 21029 37474 40237 53023 7//// 8//// 
90250 333   0//// 30/// 4//// 54/// 56/// 57/// 58005 60007 
8//// 8//// 8//// 9//// 9//// 9//// 444 ///// 555 30111=
76538 26/// /1901 10115 2//// 38158 40158 53023 7//// 8//// 
90250 333   0//// 30/// 4//// 54/// 56/// 57/// 59004 60007 
8//// 8//// 8//// 9//// 9//// 9//// 444 ///// 555 30143=
76539 32958 03001 10128 20109 38150 40107 52021 90250 333   
30/// 59005=
76548 32860 62901 10198 20186 30129 40139 52027 86030 90245 
333   30/// 56050 59057 86357=
76556 32960 01502 10179 20134 39122 40126 52023 90248 333   
30/// 59001=
76577 32560 62301 10162 20138 38041 40143 52021 86600 90245 
333   30/// 56500 59005 86623=
76578 26/// /1801 10154 20058 38041 40130 52022 7//// 8//// 
90250 333   0//// 013// 30/// 4//// 54/// 56/// 57/// 59004 
60007 8//// 8//// 8//// 9//// 9//// 9//// 444 ///// 555=
76580 26/// /0000 10183 20118 39028 40131 53022 7//// 8//// 
90250 333   0//// 30/// 4//// 54/// 56/// 57/// 59032 60007 
8//// 8//// 8//// 9//// 9//// 9//// 444 ///// 555 30164=
76581 32960 00301 10184 20153 39042 40127 52024 90250 333   
30/// 59044=
76592 26/// /1303 10233 20221 30149 40151 52019 7//// 8//// 
90250 333   0//// 30/// 4//// 54/// 56/// 57/// 59049 60007 
8//// 8//// 8//// 9//// 9//// 9//// 444 ///// 555 30250=
76593 32950 01404 10238 20227 30148 40150 52021 90250 333   
30/// 59048=
76612 32860 30000 10137 20071 38474 40120 52021 83030 90250 
333   30/// 56050 59003 83358=
76625 21570 63202 10168 20072 38143 40094 52019 76025 85810 
90255 333   31/// 56660 58006 69907 83825 82626 81355=
76628 21657 62702 10153 20089 38065 40192 52016 70252 8282/ 
90245 333   31/// 566// 59008 69957 82696 84498=
SIMX01 MXBA 110300 
AAXX 11031
76634 31570 61401 10134 20067 37854 40117 52017 70542 86400 
90250 333   30/// 565// 59009 86634=
76644 32450 60303 10250 20219 30131 40144 52013 83520 90250 
333   30/// 5610/ 59052 83610 83420 91005 91503=
76648 32965 01202 10230 20220 30124 40155 52014 7//// 8//// 
90250 333   0//// 31/// 4//// 54/// 56/// 57/// 59040 60007 
8//// 8//// 8//// 9//// 9//// 9//// 444 ///// 555 31019=
76654 31956 00000 10251 20206 30132 40136 52018 70544 90250 
333   30/// 58003=
76657 26/// /1301 10147 20065 38513 40188 52019 7//// 8//// 
90250 333   0//// 30/// 4//// 54/// 56/// 57/// 59007 60007 
8//// 8//// 8//// 9//// 9//// 9//// 444 ///// 555 30179=
76658 31558 22701 10229 20198 39645 40141 52023 70540 81550 
90250 333   30/// 58002 81622 81356 98914=
76659 26/// /2901 10220 20204 3//// 42/// 5//// 7//// 8//// 
90250 333   0//// 30/// 4//// 54/// 56/// 57/// 5//// 60007 
8//// 8//// 8//// 9//// 9//// 9//// 444 ///// 555 30265=
76662 32660 52101 10186 20087 38465 40111 52023 85400 90245 
333   30/// 56/00 59006 85633=
76663 26/// /2001 10188 20085 38462 40158 53025 7//// 8//// 
90250 333   0//// 30/// 4//// 54/// 56/// 57/// 59002 60007 
8//// 8//// 8//// 9//// 9//// 9//// 444 ///// 555 30216=
76665 31458 61801 10154 20106 38119 40104 52020 70322 86200 
90255 333   30/// 56300 57832 59006 86813=
76674 26/// /2502 10083 20048 37384 40263 52018 7//// 8//// 
90250 333   0//// 30/// 4//// 54/// 56/// 57/// 59007 60007 
8//// 8//// 8//// 9//// 9//// 9//// 444 ///// 555 30117=
76675 32960 21602 10082 20032 37385 40113 52021 82010 90258 
333   30/// 56090 59001=
76680 31558 30201 10150 20066 37752 40098 52018 70540 82021 
90255 333   30/// 56055 59008 82458=
76683 32965 00000 10150 20069 37826 40113 51019 90245 333   
30/// 59010=
76684 26/// /3201 10129 20063 37827 40164 53021 7//// 8//// 
90250 333   0//// 30/// 4//// 54/// 56/// 57/// 59011 60007 
8//// 8//// 8//// 9//// 9//// 9//// 444 ///// 555 30150=
76685 32950 00000 10158 20038 37857 40086 52002 90245 333   
30/// 59015=
76686 26/// /1101 10141 20064 37864 40186 52018 7//// 8//// 
90250 333   0//// 30/// 4//// 54/// 56/// 57/// 59013 60007 
8//// 8//// 8//// 9//// 9//// 9//// 444 ///// 555 30165=
76687 31560 32201 10150 20142 38667 40124 52012 70211 83400 
90245 333   30/// 563// 59033 81820 82618=
76688 26/// /2702 10147 20142 38651 40166 52013 7//// 8//// 
90250 333   0//// 30/// 4//// 56/// 57/// 59035 60007 8//// 
8//// 8//// 9//// 9//// 9//// 444 ///// 555 30179=
76692 31920 01302 10225 20202 30115 40134 52024 71040 90245 
333   30/// 59054=
SIMX01 MXBA 110300 
AAXX 11031
76693 26/// /1202 10224 20203 30116 40137 52024 7//// 8//// 
90250 333   0//// 30/// 4//// 54/// 56/// 57/// 59054 60007 
8//// 8//// 8//// 9//// 9//// 9//// 444 ///// 555 30246=
76695 32956 00000 10218 20212 30136 40142 52016 90250 333   
30/// 59038=
76696 26/// /1501 10213 20207 30133 40141 52020 7//// 8//// 
90250 333   0//// 30/// 4//// 54/// 56/// 57/// 59038 60007 
8//// 8//// 8//// 9//// 9//// 9//// 444 ///// 555 30249=
76726 32968 13201 10214 20111 38388 40067 52009 81400 90240 
333   30/// 56500 59010 81610=
76727 26/// /0000 10175 20090 38389 40107 53017 7//// 8//// 
90250 333   0//// 30/// 4//// 54/// 56/// 57/// 59010 60007 
8//// 8//// 8//// 9//// 9//// 9//// 444 ///// 555 30203=
76729 26/// /2601 10207 20124 39104 40122 53023 7//// 8//// 
90250 333   0//// 30/// 4//// 54/// 56/// 57/// 59011 60007 
8//// 8//// 8//// 9//// 9//// 9//// 444 ///// 555 30241=
76737 32980 00000 10167 20145 38762 40116 52019 90245 333   
30/// 59030 91101 91534=
76738 26/// /3401 10151 20140 38764 40174 52018 7//// 8//// 
90250 333   0//// 30/// 4//// 54/// 56/// 57/// 59032 60007 
8//// 8//// 8//// 9//// 9//// 9//// 444 ///// 555 30181=
76743 31940 00400 10225 20211 30127 40134 52013 70000 90250 
333   30/// 59051=
76744 26/// /0601 10217 20200 30126 40135 52016 7//// 8//// 
90250 333   0//// 30/// 4//// 54/// 56/// 57/// 59051 60007 
8//// 8//// 8//// 9//// 9//// 9//// 444 ///// 555 30230=
76750 32558 30902 10235 20220 30143 40153 52012 82130 90245 
333   30/// 56330 59023 82820=
76751 26/// /0602 10235 20220 30143 40155 52012 7//// 8//// 
90250 333   0//// 30/// 4//// 54/// 56/// 57/// 59024 60007 
8//// 8//// 8//// 9//// 9//// 9//// 444 ///// 555 30256=
76762 32504 31502 10191 20146 38762 40110 52031 81260 90250 
333   30/// 56630 59007 81817 82360=
76763 26/// /1702 10188 20138 38761 40171 53023 7//// 8//// 
90250 333   0//// 30/// 4//// 54/// 56/// 57/// 59005 60007 
8//// 8//// 8//// 9//// 9//// 9//// 444 ///// 555 30204=
76772 26/// /2001 10192 20106 38418 40155 53028 7//// 8//// 
90250 333   0//// 30/// 4//// 54/// 56/// 57/// 59011 60007 
8//// 8//// 8//// 9//// 9//// 9//// 444 ///// 555 30221=
76775 32960 02101 10206 20117 38513 40130 52031 90245 333   
30/// 59018=
76776 26/// /1601 10201 20126 38497 40108 52030 7//// 8//// 
90250 333   0//// 30/// 4//// 54/// 56/// 57/// 59020 60007 
8//// 8//// 8//// 9//// 9//// 9//// 444 ///// 555 30198=
76806 26/// /2901 10242 20217 30122 40127 53022 7//// 8//// 
90250 333   0//// 30/// 4//// 54/// 56/// 57/// 59009 60007 
8//// 8//// 8//// 9//// 9//// 9//// 444 ///// 555 30309=
76833 32958 03601 10246 2//// 30119 40121 52026 90245 333   
30/// 58/// 92000=
76834 26/// /3401 10247 20214 30118 40122 52024 7//// 8//// 
90250 333   0//// 30/// 4//// 54/// 56/// 57/// 59014 60007 
8//// 8//// 8//// 9//// 9//// 9//// 444 ///// 555 30302=
SIMX01 MXBA 110300 
AAXX 11031
76840 32810 20000 10258 20224 30067 40122 52028 82030 90245 
333   30/// 56/9/ 58/// 82358=
76845 32930 00000 10134 20128 37949 40162 51018 90245 333   
30/// 59016=
76848 32950 00000 10140 20103 38383 40069 52022 90253 333   
30/// 59013=
76855 32980 03302 10248 20205 30064 40113 52016 90245 333   
30/// 59011 92001=
76160 32958 02702 10196 21003 39916 40163 52020 90240 333   
30/// 58///=
76412 32960 01501 10166 20112 30121 40167 52018 90250 333   
30/// 58009=
76525 32960 02204 10093 21020 37473 40131 52023 90250 333   
30/// 58005=
76632 31847 31401 10140 20082 37697 40091 52006 70311 83080 
90245 333   30/// 56050 59004 83359=
76640 31210 70000 10206 20194 30129 40140 52012 70311 8422/ 
90240 333   30/// 5655/ 59044 84805 83440=
76647 32965 01202 10233 20227 30134 40164 52014 90250 333   
31/// 59040=
76843 32965 02702 10223 20185 39477 40106 52030 90245 333   
30/// 59034=

0000191200
051
SZAU01 AMMC 110309
CREX++
T000103 A001 D01021 D06025++
-1927750 14705860 59260 2014 01 11 03 02 3027 11 07 00 01
01356 0179 01359 0184 01357 0183 01353 0180 01358 0187 01357 0188+
-2316110 15079000 59670 2014 01 11 03 02 2997 11 07 00 01
01616 0187 01619 0189 01616 0184 01622 0188 01631 0196 01633 0194+
-3447330 15091170 60420 2014 01 11 03 02 2958 11 07 00 01
00607 -0032 00597 -0045 00590 -0053 00584 -0061 00579 -0069 00579 -0071+
-4105000 14591500 60910 2014 01 11 03 02 2890 11 07 00 01
00578 -0067 00573 -0068 00575 -0062 00572 -0061 00566 -0063 00562 -0064+
-4254640 14793080 61170 2014 01 11 03 02 2898 11 07 00 01
00924 0053 00923 0050 00924 0049 00916 0040 00915 0038 00911 0032+
-3834390 14161360 61410 2014 01 11 03 02 2905 11 07 00 01
00286 0056 00257 0027 00277 0046 00272 0041 00286 0054 00289 0057+
-3214890 13364170 62000 2014 01 11 03 02 2957 11 07 00 01
00647 0013 00645 0012 00646 0014 00646 0014 00646 0015 00646 0015+
-3387080 12189720 62080 2014 01 11 03 02 2943 11 07 00 01
00655 0039 00657 0040 00667 0049 00665 0047 00712 0093 00703 0083+
-3182560 11573860 62237 2014 01 11 03 02 2968 11 07 00 01
00701 0070 00696 0064 00694 0061 00708 0074 00714 0079 00716 0081+
-2422000 11339750 62385 2014 01 11 03 02 //// 11 07 00 01
00900 -0091 00937 -0055 00971 -0022 01010 0017 00944 -0050 00912 -0083+
-2181670 11419110 62430 2014 01 11 03 02 //// 11 07 00 01
01517 -0018 01519 -0016 01513 -0021 01512 -0023 01519 -0015 01516 -0018+
-1800080 12221830 62650 2014 01 11 03 02 3043 11 07 00 01
04796 0154 04793 0157 04791 0158 04788 0159 04784 0159 04780 0158+
-1247190 13084580 63230 2014 01 11 03 02 3052 11 07 00 01
04472 0032 04483 0032 04495 0033 04504 0032 04513 0028 04524 0030+
-1386000 13641580 63511 2014 01 11 03 02 3045 11 07 00 01
01249 0037 01248 0036 01247 0034 01246 0032 01245 0030 01246 0030++
7777

0000046700
052
SZPA01 AMMC 110309
CREX++
T000103 A001 D01021 D06025++
0136250 17293000 67590 2014 01 11 03 02 3015 11 07 00 01
02156 0029 02151 0026 02148 0024 02156 0035 02149 0029 02147 0030+
0710610 17137250 67680 2014 01 11 03 02 3013 11 07 00 01
01421 0031 01416 0028 01419 0032 01420 0036 01418 0035 01421 0041+
0698060 15820000 67950 2014 01 11 03 02 3022 11 07 00 01
01109 0062 01109 0063 01104 0059 01107 0063 01108 0065 01102 0060++
7777

0000179200
053
SZPS01 AMMC 110309
CREX++
T000103 A001 D01021 D06025++
-0204190 14737360 56130 2014 01 11 03 02 3027 11 07 00 01
01139 0115 01140 0115 01141 0115 01140 0113 01142 0114 01143 0114+
-0669280 15640860 56363 2014 01 11 03 02 //// 11 07 00 01
01096 -0058 01089 -0064 01086 -0066 01090 -0061 01089 -0061 01082 -0067+
-0942890 15995560 56670 2014 01 11 03 02 3040 11 07 00 01
00965 -0041 00965 -0040 00967 -0038 00963 -0041 00970 -0034 00964 -0039+
-1072080 16580190 57131 2014 01 11 03 02 //// 11 07 00 01
03381 2222 03380 2222 03380 2223 03379 2222 03380 2225 03379 2224+
-1551560 16718860 57210 2014 01 11 03 02 //// 11 07 00 01
01356 -0119 01361 -0113 01350 -0124 01346 -0128 01349 -0124 01360 -0112+
-1775690 16830030 57320 2014 01 11 03 02 3015 11 07 00 01
01343 -0031 01345 -0029 01345 -0029 01347 -0028 01345 -0030 01342 -0033+
-4397330 16861610 65180 2014 01 11 03 02 2883 11 07 00 01
01261 0389 01247 0372 01251 0373 01272 0390 01296 0411 01279 0391+
-2120470 -15978530 65980 2014 01 11 03 02 3013 11 07 00 01
00936 0047 00931 0042 00922 0033 00924 0035 00950 0061 00940 0051+
-2113810 -17518140 66600 2014 01 11 03 02 //// 11 07 00 01
01689 0090 01708 0109 01695 0095 01701 0102 01696 0097 01705 0106+
-1382670 -17176110 66840 2014 01 11 03 02 3010 11 07 00 01
01283 0106 01268 0092 01260 0085 01263 0089 01251 0078 01254 0082+
-1813250 17842750 67050 2014 01 11 03 02 3033 11 07 00 01
01921 0113 01923 0115 01933 0124 01922 0113 01915 0106 01922 0113+
-1760530 17743810 67070 2014 01 11 03 02 3033 11 07 00 01
02035 0047 02035 0047 02036 0048 02036 0048 02036 0048 ///// ////+
-0850250 17919500 67440 2014 01 11 03 02 3030 11 07 00 01
02578 -0006 02584 0001 02578 -0002 02576 -0003 02575 -0003 02568 -0008++
7777

0000034100
054
SZIO01 AMMC 110309
CREX++
T000103 A001 D01021 D06025++
-1211670 09689190 46280 2014 01 11 03 02 3002 11 07 00 01
00836 0056 00841 0058 00840 0055 00842 0055 00847 0057 00846 0054+
-1042940 10566940 46290 2014 01 11 03 02 //// 11 07 00 01
00849 0036 00881 0067 00843 0028 00875 0058 00854 0036 00853 0034++
7777

0000011000
055
UANT99 KDDL 110307
ARP DLH403 5045N03644W 0307 F380 MS53 207/27 KT
DABTF QXT EUA 110307 F49A
0000011100
056
UANT99 KDDL 110307
ARP UAL152 5050N03624W 0307 F370 MS53 204/27 KT
N17128 DDL IG1 110307 F72A
0000011000
057
UANT99 KDDL 110307
ARP KLM642 5312N02833W 0307 F370 MS55 229/51 KT
PHBQM QXT AOE 110307 F24A
0000010400
058
SAIN90 VARP 110300
METAR VARP 110300Z 17004KT 3000 HZ NSC 21/15 Q1016 BECMG 4000M IN HZ=
0000040600
059
SXXX32 EUMS 110300
262D700E
:PRS 1 /1 3216 3199 3223 3219 3260 3240 3228 3253 3239 3276 3267 3330 3306 3272 3255 3286 3198 3229 3241 3279 3305 3281 3316 3316 3324 3310 3277 3299 3318 3326 :RAD 1 /3 5680 5687 5705 5711 5708 5718 5739 5747 5756 5770 5768 5763 5778 5794 5794 :ENC 5 /5 5790 5838 5808 5844 5854 5893 5863 5911 5899 5923 5935 5935 :SW1 60 /60 0 :BAT 14 /15 12.9 :NAME 262D700E
0000044900
060
SXXX32 EUMS 110300 RRA
16289262
:PRS 1 /1 2546 2553 2544 2559 2555 2558 2550 2557 2543 2559 2538 2546 2563 2563 2557 2541 2538 2549 2559 2551 2534 2567 2539 2559 2555 2554 2552 2557 2559 2561 :RAD 1 /3 8009 8007 8003 8003 8006 8004 8005 8010 8009 8013 8011 8007 8006 8003 7998 7996 7992 7991 7995 8002 :ENC 5 /5 5383 5380 5379 5385 5387 5387 5380 5382 5377 5375 5370 5376 :SW1 60 /60 0 :SW2 30 /60 0 :BAT 14 /15 12.9 :NAME 16289262
0000045300
061
SXXX32 EUMS 110300 RRB
324DF524
:PRS 1 /1 2612 2603 2592 2583 2573 2564 2554 2544 2535 2526 2516 2506 2496 2487 2477 2467 2458 2448 2438 2428 2418 2408 2398 2387 2377 2366 2356 2346 2335 2324 :RAD 1 /3 2574 2541 2513 2484 2454 2423 2393 2359 2326 2294 2264 2231 2199 2166 2136 2107 2078 2044 2011 1979 :ENC 5 /5 1511 1464 1416 1366 1313 1259 1204 1153 1101 1051 998 947 :SW1 60 /60 0 0 :SW2 30 /60 60 60 :BAT 14 /15 13.2 :NAME 324DF524
0000041400
062
SXXX32 EUMS 110301
26CB10AC
:PRS 1 /1 -1340 -1340 -1340 -1340 -1340 -1341 -1341 -1341 -1341 -1341 -1341 -1341 -1341 -1342 -1341 -1341 -1341 -1341 -1341 -1341 -1341 -1341 -1341 -1341 -1341 -1341 -1341 -1341 -1342 -1340 :RAD 3 /3 6286 6295 6296 6298 6302 6306 6309 6306 6307 6306 :RA2 3 /3 6250 6264 6265 6263 6270 6271 6282 6282 6279 6275 :SW1 2 /60 0 :SW2 32 /60 0 :BAT 14 /15 12.6 :NAME 26CB10AC
00000000