0000039400
516
SIAA21 AMMC 110300
AAXX 11034
89564 41981 11329 10052 21055 39857 49877 51005 6///0 70200 81030
  333 20013 7////=
89570 NIL=
89571 11980 13005 10051 21042 39847 49876 53012 60004 70100 80002
  333 20033 70000=
89573 NIL=
89610 NIL=
89611 31675 70739 10035 21033 39755 49807 51026 70222 81178
  333 20023=
89614 NIL=
89615 NIL=
89807 NIL=
89809 NIL=

0000004100
517
SIPS01 AMMC 110300
NIL

0000004100
518
SISO23 AMMC 110300
NIL

0000099100
519
SIVE21 AMMC 110300
BBXX
CBGR 11024 99193 31474 46/// /1117 10282 40116=
AGRF 11024 99160 31458 46/// /1113 10268 40091=
HRRF 11024 99197 31492 46/// /1417 10278 40115=
DVRF 11024 99188 31477 46/// /0923 10260 40104=
ZMGB 11034 99406 31767 41/98 10708 10197 20112 40182 58009 70100
81400 22253 00180 20301 317// 40704 80150=
VNSZ 11034 99412 31464 46/// /3214 10256 20088 30104 40129 57011
22200 04187 85158=
C6FS9 11024 99238 31512 46/// /1221 10257 20186 30135 40171 57005
22200 04276 85208=
VNSZ 11014 99412 31464 46/// /3514 10219 20102 30110 40136 52001
22200 04180 85150=
C6FS9 11014 99238 31512 46/// /1316 10256 20193 30140 40176 54000
22200 04276 85213=
VNAH 11014 99383 31416 46/// /1707 10171 20110 30194 40218 52005
22200 85135=
VNAH 11024 99383 31416 46/// /1909 10191 20116 30194 40218 52001
22200 04176 85146=
9vrj8 11013 99027 31446 41/98 80118 10285 20242 40097 54000 76055
8//// 22233 00285 20403 302// 40803 80255=

0000134800
520
SIAU01 AMMC 110300
AAXX 11034
94102 46/// /2513 10318 20279 30085 40094=
94103 46/// /2012 10295 30094 40099=
94200 NIL=
94203 46/// /3008 10323 20248 30088 40098=
94206 46/// /2606 10385 20178 39954 40082=
94207 46/// /3109 10295 30087 40095 51004=
94211 NIL=
94212 46/// /1705 10380 20136 39612 40075=
94216 46/// /1103 10350 20227 30034 40084=
94300 46/// /3608 10307 20222 30075 40085=
94302 46/// /0308 10330 20210 30088 40094=
94312 46/// /3008 10349 20263 30083 40092=
94313 NIL=
94317 46/// /0513 10412 21252 39523 40093=
94319 46/// /0917 10414 21058 39763 40086=
94403 46/// /0414 10435 21006 30043 40083=
94429 46/// /0417 10409 20018 39663 40113=
94430 46/// /0312 10398 20202 39541 40107=
94449 46/// /1011 10351 20026 39642 40159=
94451 NIL=
94601 46/// /1319 10229 20176 30168 40185=
94610 46/// /0914 10358 20099 30117 40140=
94637 46/// /0811 10312 20067 39765 40183=
94638 46/// /1514 10238 20157 30186 40218=
94642 NIL=
94643 NIL=
94647 46/// /1412 10229 20152 30112 40222=
94802 46/// /0912 10262 20139 30129 40210=
95205 46/// /2909 10336 20239 30084 40091=
95448 46/// /0611 10385 20000 39578 40126=
95634 46/// /0612 10361 20063 39770 40162=
95637 46/// /1109 10316 20052 39859 40186=
95641 NIL=
95646 46/// /1213 10298 20099 30014 40199=

0000004100
521
SING22 AMMC 110300
NIL

0000120200
522
SISD20 OEJD 110300
AAXX 11034
40356 41656 43114 10020 20020 39202 48490 71000 84200 333 58042 84840
555 04410 50207=
40357 42660 73112 10059 20060 39533 40185 87500 333 58045 87640=
40360 41560 83304 10062 20050 39614 40219 76000 85530 333 58068 85630 87360=
40361 42460 83113 10071 20020 39410 40195 88600 333 58064 85710 83640=
40362 41957 01804 10063 20050 39647 40170 71040 333 58031=
40373 42660 42903 10082 20070 39740 40167 84500 333 59038 84635=
40375 42960 00000 10042 20020 39325 40224 333 58068=
40377 NIL=
40394 42960 03308 10052 20020 39050 48518 333 58053 555 04410 50195=
40400 42560 20204 10136 20090 30165 40193 82500 333 58052 82630=
40401 NIL=
40405 42660 33210 10100 20090 39429 40185 83500 333 58034 83640=
40416 41658 72304 10150 20130 30162 40182 71000 84520 333 59008 84640 87458=
40417 41658 81608 10148 20110 30177 40192 71000 8452/ 333 59014 84640 88459=
40420 41660 81412 10139 20120 39976 40186 76000 84520 333 59015 84640 85460=
40430 42960 03506 10110 20020 39468 40199 333 58054=
40435 NIL=
40437 42660 61810 10115 20090 39467 40180 83520 333 59005 83640 86458=
40439 42960 03308 10148 20070 30164 40174 333 58047=
0000076600
523
SISD21 OEJD 110300
AAXX 11034
41024 42660 20307 10168 20090 30148 40168 82500 333 58046 82640=
41030 42960 00000 10174 20110 39886 40162 333 58038=
41036 42960 03208 10090 20070 38568 48516 333 58023 555 04410 50153=
41055 42560 43105 10116 20110 38362 48511 84300 333 58009 81925 83630 555 04410 50156=
41061 42960 01606 10160 20100 39444 40147 333 59013=
41084 NIL=
41112 42460 32011 10112 20100 37950 48523 83600 333 58005 83710 555 04410 50180=
41114 42560 12107 10113 20090 37978 48515 81400 333 58001 81620 555 04410 50165=
41128 42960 00000 10115 20000 38815 48518 333 59009 555 04410 50151=
41136 42960 01309 10139 21020 39323 40138 333 59024=
41140 41559 51605 10264 20220 30131 40143 70400 82130 333 58007 82830 84360=
0000215400
524
SIKW20 OKBK 110300
AAXX 11034
40550 37/15 /1401 10093 20089 40174 53005 71011
  333 55300 00000 10100 20000 30000 41188 51290 60000 55407 40000
90069 90401 91003 91105 91201 91301=
40551 37/57 /1608 10099 20081 40178 53008 71011
  333 90069 90401 91011 91117 91215 91309=
40552 37/56 /1606 10096 20084 40174 53005 71011
  333 55300 90069 90400 91007 91109 91205 91305=
40553 37/47 /1902 10115 20100 40174 53005 71086
  333 55300 90069 90401 91005 91107 91203 91301=
40568 36/// /1307 10131 20118 40182 53006
  333 90400 91007 91107 91207 91303=
40569 NIL=
40570 37/30 /2106 10082 20077 40180 53011 71011
  333 55300 90069 90400 91009 91111 91207 91305=
40571 NIL=
40572 NIL=
40573 37/25 /2105 10073 20068 40179 53006 71011
  333 90069 90400 91007 91113 91209 91307=
40580 36/// /1605 10120 20104 40176 53003
  333 553// 00000 10167 20000 30000 41137 51303 60000 55407 40000
90400 91009 91113 91205 91303=
40581 46/// /2007 10139 20118 40182 53005
  333 90400 91015 91115 91207 91305=
40582 31940 31709 10111 20100 40174 53004 71000 83030
  333 55300 00000 10149 20000 30000 41137 51285 60000 55407 40000
83360 90401 91009 91113 91209 91307=
40583 NIL=
40585 36/// /1819 10146 20127 222// 1//// 3//// 4//// 70///
  333 90401 91023 91127 91221 91317=
40586 36/// /2002 10099 20092 40178 53006
  333 90401 91003 91107 91205 91303=
40587 36/// /1203 10106 20095 40175 53005
  333 553// 00000 10105 20000 30000 41179 51282 60000 55407 40000
90400 91005 91113 91209 91303=
40588 37/48 /1710 10139 20125 40175 53005 71011
  333 55300 90069 90400 91013 91113 91209 91305=
40589 NIL=
40590 37/24 /1711 10092 20086 40176 53004 71011
  333 90069 90400 91015 91119 91215 91311=
40591 NIL=
40592 37/17 /1808 10115 20111 40178 53005 71011
  333 55300 00000 10054 20000 30000 41253 51306 60000 55407 40000
90069 90400 91013 91113 91207 91307=
40593 36/// /2012 10136 20123
  333 90400 91015 91119 91213 91311=
40594 46/// /1909 10119 20114 40181 53003
  333 90400 91013 91113 91209 91305=
40596 46/// /1821 10169 20143
  333 90401 91027 91131 91225 91323=
0000114200
525
SIAU22 AMMC 110300
AAXX 11034
94299 46/// /1219 10291 20244 30082 40092=
94300 46/// /3608 10307 20222 30075 40085=
94302 46/// /0308 10330 20210 30088 40094=
94312 46/// /3008 10349 20263 30083 40092=
94313 NIL=
94317 46/// /0513 10412 21252 39523 40093=
94319 46/// /0917 10414 21058 39763 40086=
94324 NIL=
94326 46/// /1116 10384 20047 39501 40101=
94327 46/// /1611 1//// 2//// 39726 40089=
94332 46/// /0711 10386 20138 39697 40073=
94333 NIL=
94341 46/// /0709 10355 20153 39857 40086=
94346 46/// /0609 10336 20171 39898 40113=
94363 46/// /0809 10299 20174 39923 40136=
94366 NIL=
94367 46/// /1310 10280 20212 30090 40131=
94374 46/// /0710 10295 20184 30128 40144=
94388 NIL=
94393 46/// /1220 10266 30109 40121 58012=
94394 46/// /0716 10258 30133 40141 58008=
94403 46/// /0414 10435 21006 30043 40083=
94429 46/// /0417 10409 20018 39663 40113=
94430 46/// /0312 10398 20202 39541 40107=
94449 46/// /1011 10351 20026 39642 40159=
94451 NIL=
94461 46/// /1414 10373 21117 39462 40114=
94462 46/// /0916 10380 21019 39574 40115=
94477 NIL=
94488 NIL=

0000013800
526
SNVX22 EGRR 110200 RRA
BBXX
OZDK2 11024 99071 70130 41297 63514 10282 20274 40097 50007 7//92
85222 22273 20302 80276=
0000147600
527
SIAU23 AMMC 110300
AAXX 11034
94500 NIL=
94510 46/// /2905 10305 20177 39791 40130=
94515 46/// /1513 10227 20200 39812 40154=
94552 46/// /1309 10292 20134 39695 40153=
94578 46/// /0909 10279 20162 30157 40168=
94584 46/// /1318 10265 20176 30051 40160=
94601 46/// /1319 10229 20176 30168 40185=
94610 46/// /0914 10358 20099 30117 40140=
94637 46/// /0811 10312 20067 39765 40183=
94638 46/// /1514 10238 20157 30186 40218=
94642 NIL=
94643 NIL=
94647 46/// /1412 10229 20152 30112 40222=
94651 46/// /1518 10239 20154 30133 40209=
94653 46/// /1817 10230 20149 30180 40198=
94659 46/// /1204 10368 20067 39963 40153=
94672 46/// /2117 10257 20130 30178 40188=
94691 46/// /1610 10363 20065 39833 40153=
94693 46/// /2810 10367 20096 30091 40152=
94700 NIL=
94703 46/// /1207 10343 20120 30023 40145=
94710 46/// /1708 10324 20116 39907 40154=
94729 46/// /2106 10299 20109 39324 40156=
94750 46/// /0710 10307 20155 30023 40145=
94767 46/// /0613 10319 20152 30143 40149=
94776 46/// /1210 10307 20155 30148 40158=
94791 NIL=
94802 46/// /0912 10262 20139 30129 40210=
94804 46/// /1719 10201 20140 30178 40216=
94821 46/// /1813 10228 20102 30130 40212=
94842 46/// /2512 10170 20127 30110 40209=
94847 NIL=
94850 46/// /2413 10168 20135 30154 40199=
94865 46/// /1312 10198 20126 30176 40200=
94866 46/// /1510 10198 20123 30056 40195=
94875 46/// /2910 10348 20106 30016 40147=

0000158100
528
SIAU24 AMMC 110300
AAXX 11034
94893 46/// /2721 10171 20122 30059 40174=
94907 46/// /2719 10264 20145 30154 40164=
94910 46/// /2809 10326 20090 39912 40156=
94926 46/// /2707 10305 20077 39495 40150=
94935 46/// /1911 10215 20165 30135 40161=
94951 46/// /0610 10209 20138 30112 40127=
94954 46/// /2519 10164 20128 30078 40188=
94956 46/// /3010 10163 20148 30151 40177=
94975 46/// /1514 10230 20093 30092 40124=
94983 46/// /0606 10189 20137 30121 40146=
94995 NIL=
94996 46/// /1212 10221 20126 30047 40175=
94997 NIL=
94998 46/// /3039 10064 20039 39841 49851=
95111 46/// /3006 10322 20237 30052 40088=
95205 46/// /2909 10336 20239 30084 40091=
95322 NIL=
95448 46/// /0611 10385 20000 39578 40126=
95458 46/// /1409 10394 20022 39887 40142=
95480 46/// /0510 10393 20106 30083 40140=
95481 46/// /1413 10375 20115 30085 40128=
95482 46/// /1614 10396 20100 30055 40109=
95485 46/// /1313 10359 20102 39943 40141=
95492 46/// /1511 10340 20129 39985 40135=
95527 46/// /2405 10316 20132 39902 40150=
95634 46/// /0612 10361 20063 39770 40162=
95637 46/// /1109 10316 20052 39859 40186=
95646 46/// /1213 10298 20099 30014 40199=
95666 NIL=
95719 46/// /1502 10298 20140 39835 40158=
95762 46/// /2209 10306 20105 39703 40149=
95826 46/// /1911 10176 30212 40214=
95839 46/// /2114 10296 20050 30017 40173=
95864 46/// /1712=
95909 NIL=
95954 NIL=
95966 46/// /3609 10266 20103 39925 40123=
96995 NIL=
96996 31662 71311 10292 20214 30123 40127 51006 70222 87500
  333 20257=

0000074000
529
SIAA80 AMMC 110300
AAXX 11034
61997 26/// /3439 10082 20079 39878 40054 58049
  333 4//// 69927 91050 90710 91150=
61998 21570 72321 10052 21004 30025 40062 51016 703// 8583/
  333 58032 60007 83820 84640 87359 90710 91127=
68994 41597 32322 10085 20083 39894 49922 53035 71688 83260
  333 10118 20065 91039=
89532 41/60 80904 11026 21033 39911 49938 51004 77122 885//=
89564 41981 11329 10052 21055 39857 49877 51005 6///0 70200 81030
  333 20013 7////=
89571 11980 13005 10051 21042 39847 49876 53012 60004 70100 80002
  333 20033 70000=
89611 31675 70739 10035 21033 39755 49807 51026 70222 81178
  333 20023=
89642 41665 81214 10023 21054 39855 49908 56002 70272 875//
  333 87643 91126=

0000036500
530
AAHQ50 VEBS 110315
FROM: SEISMO BHUBANESWAR 
TO  : DGM(SEISMO) NEW DELHI                         

                   (A.F.I.C)  

 **************************************
        EARTHQUAKE REPORT DATED  11 /01/2014 
 **************************************

CSIO CHART RECORDED NO SHOCK DURING 100239 UTC AND 110240 UTC AAA   


TOO:-   11/0300 UTC

0000031000
531
SWIN55 VABB 110300

FROM : PBO SANTACRUZ

TO :  NHAC NEW DELHI

RPT : ACWC COLABA

FOLLOWING OBSN RECORDED AT 11/0830 HRS IST

MIN.TEMP     13.6         RPT    13.6   DEG C

R.H.                 62 %       RPT     62   %

R./F.                 NIL         RPT     NIL=
0000137900
532
SIIN90 VECC 110300 RRA
AAXX 11034
42807 31995 00000 10178 20151 40177 71000
  333 20132 59003
  555 10000=
42603 32595 01801 10168 20113 40187
  333 20108 58002
  555 10000=
42399 31496 80000 10144 20106 40187 70500 8562/
  333 20117 58009
  555 10000=
42706 31995 00000 10130 20123 40168 71000
  333 20118 59008
  555 10002=
42217 31595 70000 10084 20050 38782 48591 70522 87400
  333 20068 58002
  555 10000=
42403 31995 60000 10144 20126 40191 70511 86505
  333 20081 58004
  555 10000=
42299 31495 70000 10062 20032 38231 48544 70522 85630
  333 20052 58017 82710 85618
  555 10000=
42901 31996 03601 10160 20146 40169 70500
  333 20115 59006
  555 10000=
42806 31995 00000 10176 20166 40180 70500
  333 20133 59002
  555 10000=
42811 31994 03401 10150 20143 40179 74044
  333 20122 59006
  555 10000=
42812 31995 00000 10150 20150 40175 71000
  333 20116 59002
  555 10000=
43333 31496 50706 10288 20233 40144 70510 84401
  333 20253 56109 58004 82618 83820
  555 10000=
42711 32594 00000 10140 20136 40195
  333 20102 59001
  555 10000=
42503 21593 83602 10158 20133 40193 74454 8451/
  333 20141 58002 6990/
  555 10000=
42803 31996 03601 10154 20133 40177 70544
  333 20123
  555 10000=
42708 31995 03602 10166 20115 40184 70500
  333 20103 59002
  555 10002=
0000042000
533
SIAU40 AMMC 110300
AAXX 11034
94210 46/// /2312 10303 30095 40101=
94307 46/// /2609 1//// 2//// 30065 40098=
94934 46/// /1722 10227 20183 30131 40154=
94974 46/// /2708 10174 20147 30151 40174=
95283 46/// /0105 10238 20231 30097 40104=
95288 46/// /1020 10273 30070 40085 58013=
95675 46/// /2120=
95756 46/// /0516=
95872 46/// /1513=
95961 46/// /2919 10153 20133 30127 40168=

0000004100
534
SIVA21 AMMC 110300
NIL

0000004100
535
SIVB21 AMMC 110300
NIL

00000000