0000015700
563
SSVX13 LFPW 110300
ZZYY 16591 11014 0300/ 343689 064387 6113/ 11119 40213 54000 22219
 00108 444 20130 11014 0300/ 50101 80118 80016 9/015=
0000016300
564
SSVX13 LFPW 110300
ZZYY 13592 11014 0300/ 728850 053561 6113/ 22219 00236 33300 88872
 20000 43653 444 20130 11014 0300/ 50101 80112 80008 9/015=
0000015700
565
SSVX13 LFPW 110300
ZZYY 16592 11014 0300/ 346257 066480 6113/ 11119 40162 52003 22219
 00058 444 20130 11014 0300/ 50101 80118 80016 9/015=
0000015700
566
SSVX13 LFPW 110300
ZZYY 44863 11014 0300/ 739036 038256 6113/ 11119 40157 52007 22219
 00161 444 20130 11014 0300/ 50101 80118 80100 9/015=
0000015700
567
SSVX13 LFPW 110300
ZZYY 16593 11014 0300/ 338654 079064 6113/ 11119 40201 52013 22219
 00146 444 20130 11014 0300/ 50101 80120 80013 9/015=
0000015700
568
SSVX13 LFPW 110300
ZZYY 44874 11014 0300/ 745731 020749 6113/ 11119 40096 57038 22219
 00129 444 20130 11014 0300/ 50101 80118 80018 9/015=
0000015700
569
SSVX13 LFPW 110300
ZZYY 41969 11014 0300/ 741263 042500 6113/ 11119 40200 52009 22219
 00164 444 20130 11014 0300/ 50101 80118 80008 9/015=
0000016800
570
UPIN90 VAAH 111200
PPAA 61111 42647
55292 05510 06514 77999=
UGIN90 VAAH 111200
PPBB 61111 42647
90012 04512 06011 05510
90350 05510 06514=

0000015500
571
UXIN90 VAAH 111200
TTAA 6112/ 42647
99009 21661 04504 NO ASCENT=
NO 1200Z RS ASCENT OF DATE 11/01/2014 DUE ASCENT SUSPENDED BY H.Q.=

0000015700
572
SSVX13 LFPW 110300
ZZYY 41971 11014 0300/ 735986 058689 6113/ 11119 40322 57002 22219
 00205 444 20130 11014 0300/ 50101 80120 80005 9/015=
0000015700
573
SSVX13 LFPW 110300
ZZYY 44612 11014 0300/ 745758 045416 6113/ 11119 40220 52004 22219
 00038 444 20130 11014 0300/ 50101 80154 80000 9/015=
0000092300
574
SASA85 EGRR 110300 RRA
METAR SADF 110300Z 32004KT CAVOK 22/19 Q1011=
METAR SBAR 110300Z 11011KT 9999 SCT015 26/21 Q1013=
METAR SBBE 110300Z 08004KT CAVOK 24/23 Q1011=
METAR SBCF 110300Z 10005KT CAVOK 22/17 Q1018=
METAR SBCY 110300Z 00000KT 9999 FEW020 SCT100 23/20 Q1012=
METAR SBEG 110300Z 08010KT 8000 -RA SCT007 BKN020 23/21 Q1013=
METAR SBFI 110300Z 08002KT CAVOK 25/23 Q1011=
METAR SBMN 110300Z 10006KT 9999 -RA SCT003 BKN100 22/22 Q1013=
METAR SBNT 110300Z 12006KT 9999 SCT022 26/21 Q1012=
METAR SBPA 110300Z 15004KT CAVOK 22/21 Q1010=
METAR SBPK 110300Z 02004KT CAVOK 21/19 Q1010=
METAR SBPV 110300Z 35005KT 9999 VCTS SCT015 FEW025CB BKN070 24/23 Q10
      11=
METAR SBRF 110300Z 13009KT 9999 SCT023 26/21 Q1012=
METAR SBSJ 110300Z 00000KT CAVOK 22/17 Q1016=
METAR SVBC 110300Z 00000KT 9999 FEW010 25/21 Q1012=
METAR SVMG 110300Z /////KT 9999 SCT010 24/22 Q1014 NOSIG=
0000021600
575
SAUK39 EGRR 110250 RRA
METAR EGDR 110250Z 33006KT 9999 FEW045 05/02 Q1015 BLU=
METAR EGQS 110250Z 23010KT CAVOK 02/M02 Q1005 BLU=
METAR EGVO 110250Z 21015KT 9999 -RA BKN021 OVC036 08/07 Q1012 WHT=
0000012600
576
SNAA19 LFVW 101000 RRD
AAXX 10104
89811 46/// /0838 11084 29097 38212 4//// 5//// 91030
  333 90700 91148=
0000059800
577
FCIN90 VOMM 110300
TAF VOMM 110300Z 1106/1115 04010KT 4000 HZ SCT020 BECMG 1109/1110
04010G20KT 6000 BECMG 1112/1113 04005KT 4000 HZ=

TAF VOTR 110300Z 1106/1115 07010KT 3000 HZ FEW020 SCT080 
BECMG 1109/1110 5000 HZ=

TAF VOMD 110300Z 1106/1115 05010KT 4000 HZ FEW020=

TAF VOCB 110300Z 1106/1115 09005KT 6000 FEW015 SCT080=

TAF VOTK 110300Z 1106/1115 04010KT 4000 HZ FEW020=

TAF VOSM 110300Z 1106/1115 09005KT 6000 FEW015 SCT080=

TAF VOPC 110300Z 1106/1115 04010KT 4000 HZ SCT020 BECMG 1109/1110
04010G20KT 6000 BECMG 1112/1113 04005KT 4000 HZ=

0000039500
578
FCIN90 VOHS 110300
TAF VOHS 110300Z 1106/1115 14010KT 5000 HZ SCT020 BECMG 1113/1115
13005KT 4000 HZ NSC = 
TAF VOHY 110300Z 1106/1115 14010KT 5000 HZ SCT020 BECMG 1113/1115
13005KT 4000 HZ NSC = 
TAF VOTP 110300Z 1106/1115 09010KT 4000 HZ SCT020= 
TAF VOBZ 110300Z 1106/1115 11008KT 3000 HZ FEW020 BECMG 1108/1110
5000 HZ= 
TAF VORY 110300Z 1106/1115 11005KT 5000 HZ SCT020= 
 

0000012400
579
SIIN90 VECC 110300
AAXX 11034
42901 31996 03601 10160 20146 40169 70500
  333 20115 59006
  555 10000=
0000012400
580
SIIN90 VECC 110300
AAXX 11034
42809 31995 00000 10190 20138 40177 70500
  333 20108 58006
  555 10000=
0000012800
581
SIAA21 LFPW 110300
AAXX 11034
89642 41665 81214 10023 21054 39855 49908 56002 70272 875//
  333 87643 91126=
0000011100
582
UANT99 KDDL 110301
ARP DAL230 5448N04119W 0301 F370 MS58 266/31 KT
N819NW DDL XXN 110301 J61A
00000000