0000052800
623
SAIR34 OIII 110300
METAR OIAG 110300Z NIL=
METAR OIAM 110300Z  09019KT 3000 BR FEW030CB SCT040 OVC090 12/11
 Q1018=
METAR OICI 110300Z  15004KT 8000 SCT025 FEW030CB OVC080 03/03 Q1017
 A3004=
METAR OIKQ 110300Z 06010KT 8000 FEW030 16/04 Q1021=
METAR OINN 110300Z 00000KT CAVOK 05/02 Q1019=
METAR OINR 110300Z VRB02KT CAVOK 05/04 Q1018=
METAR OISL 110300Z  11006KT 9999 FEW035CB SCT040 OVC100 08/04
 Q1019=
METAR OISY 110300Z NIL=
METAR OITZ 110300Z 16008KT 9999 FEW035 OVC090 M02/M06 Q1018=
0000040700
624
SAIR35 OIII 110300
METAR OIAD 110300Z NIL=
METAR OIBJ 110300Z 12006KT 9999 SCT035 OVC090 10/08 Q1020=
METAR OIBS 110300Z 07030KT CAVOK 20/12 Q1019=
METAR OIHR 110300Z NIL=
METAR OIKM 110300Z NIL=
METAR OIKR 110300Z NIL=
METAR OING 110300Z 00000KT 7000 SCT025 BKN090 03/02 Q1020=
METAR OIZB 110300Z 00000KT 7000 NSC M04/M06 Q1026=
METAR OIZI 110300Z 01006KT CAVOK 04/00 Q1024=
0000043800
625
SAIR36 OIII 110300
METAR OIBA 110300Z  06016KT 4000 SA FEW025CB FEW030 BKN100 19/10
 Q1019=
METAR OIBV 110300Z NIL=
METAR OIFS 110300Z  00000KT 1000 SN FEW025 SCT030 OVC060 M10/M11
 Q1020=
METAR OIIP 110300Z NIL=
METAR OIMB 110300Z 07008KT CAVOK M03/M11 Q1023=
METAR OIMN 110300Z 00000KT CAVOK M05/M08 Q1022=
METAR OIMS 110300Z NIL=
METAR OIMT 110300Z NIL=
METAR OIZJ 110300Z 00000KT CAVOK 15/07 Q1021=
0000014800
626
SIIN90 VEGG 110300
AAXX 11034
42299 31495 70000 10062 20032 38231 48544 70522 85630
  333 20052 58017 82710 85618
  555 10000=
0000013600
627
SIIN90 VOHY 110300
AAXX 11034
43081 31996 00000 10216 20174 39718 40152 70500
  333 10324 20194 58006
  555 10000=
0000013600
628
SIIN90 VOMM 110300
AAXX 11034
43220 32597 30902 10234 20210 30148 40155 82530
  333 10292 20195 59001
  555 10000=
0000009300
629
SAIN90 VEIM 110300
METAR VEIM 110300Z 08003KT 2500 HZ NSC 12/07 Q1021 NO SIG=
0000013000
630
SIIN90 VECC 110300
AAXX 11034
42399 31496 80000 10144 20106 40187 70500 8562/
  333 20117 58009
  555 10000=
0000010300
631
SASD31 OEJD 110300 RRA
METAR OEDR 110300Z 23004KT 8000 SCT040 BKN080 15/13 Q1018 NOSIG=
0000012400
632
SIVS20 VNNN 110300
AAXX 11031
48825 31697 83202 10158 20142 30222 40231 51021 71022 885// 333 59011 88696=
0000011800
633
SIVS21 VNNN 110300
AAXX 11031
48823 32697 73602 10183 20154 30224 40227 51023 875// 333 59009 87696=
0000043700
634
SAIR37 OIII 110300
METAR OIBL 110300Z 07010KT CAVOK 16/04 Q1020=
METAR OIBQ 110300Z  15014KT 9999 FEW030CB SCT040 OVC090 16/12
 Q1018=
METAR OIIK 110300Z AUTO 00000KT //// // ////// M01/M05 Q1020=
METAR OIMC 110300Z NIL=
METAR OIMD 110300Z NIL=
METAR OIMQ 110300Z NIL=
METAR OINE 110300Z 00000KT CAVOK 00/M01 Q1019=
METAR OITK 110300Z NIL=
METAR OITM 110300Z VRB02KT 0800 FG SCT010 OVC090 M09/M09 Q1021=
0000012200
635
SISC20 FSIA 110300
AAXX 11034
63980 42483 32502 10250 20222 40122 81933
  333 59001 81914 94325 91114=
0000037600
636
SABN31 OBBI 110300
METAR OBBI 110300Z 19006KT 8000 -RA SCT020 16/14 Q1019 TEMPO 5000=
METAR OEDF 110300Z 16008KT 8000 SCT040 OVC090  15/11 Q1019 NOSIG=
METAR OEDR 110300Z 23004KT 8000 SCT040 BKN080 15/13 Q1018 NOSIG=
METAR OTBD 110300Z 12014KT 9999 -RA FEW010 SCT100 OVC120 18/13 Q1020
NOSIG=
METAR OKBK 110300Z 17009KT 4000 BR NSC 11/10 Q1017 NOSIG=
0000011000
637
UANT99 KDDL 110302
ARP UAL68 5720N02837W 0302 F350 MS54 228/44 KT
N17105 DDL IG1 110302 F71A
0000011100
638
UANT99 KDDL 110302
ARP DAL418 4447N03124W 0302 F330 MS50 219/76 KT
N830MH QXT AOE 110302 F47A
0000011000
639
UANT99 KDDL 110302
ARP DLH411 5036N03230W 0302 F390 MS52 221/58 KT
DAIKN QXT EUA 110302 J84A
0000011100
640
UANT99 KDDL 110303
ARP AAL100 4858N04001W 0303 F340 MS53 292/29 KT
N725AN DDL XXW 110303 F31A
0000011000
641
UANT99 KDDL 110303
ARP JAI227 4726N04319W 0303 F360 MS55 317/47 KT
VTJWT QXT AOW 110303 J67A
0000011100
642
UANT99 KDDL 110303
ARP DAL240 4445N03127W 0303 F350 MS45 231/59 KT
N176DN QXT AOE 110303 F04A
00000000