0000011600
756
SAIR34 OIII 110330 RRB
METAR OICI 110330Z  13006KT 9999 FEW030CB SCT035 BKN090 03/03 Q1017
 A3004=
0000010000
757
SAIR35 OIII 110330 RRB
METAR OING 110330Z 00000KT 5000 BR SCT025 BKN090 03/02 Q1020=
0000049700
758
SAIR31 OIII 110330
METAR OIAW 110330Z NIL=
METAR OIFM 110330Z 00000KT 0100 FG NSC M06/M06 Q1020 A3013=
METAR OIII 110330Z 15004KT 8000 FEW040 SCT100 BKN200 02/M05 Q1021
 A3016 NOSIG=
METAR OIKB 110330Z NIL=
METAR OIKK 110330Z NIL=
METAR OIMM 110330Z 00000KT 7000 FEW035 BKN180 M02/M09 Q1021 A3017=
METAR OISS 110330Z 00000KT 2500 BR FEW030CB FEW035 OVC090 01/M00
Q1022 A3020 RESN=
METAR OITT 110330Z 03004KT 8000 NSC M11/M14 Q1021 A3016=
METAR OIZH 110330Z NIL=
0000046400
759
SAIR32 OIII 110330
METAR OIAA 110330Z NIL=
METAR OIBK 110330Z 08016KT 6000 -RA FEW030CB SCT025 OVC080 14/09
Q1020=
METAR OICC 110330Z 13010KT 4000 BR FEW035CB SCT040 BKN080
M01/M03 Q1018 A3009 NOSIG=
METAR OIGG 110330Z VRB02KT 2500 BR FEW015CB BKN020
BKN080 02/01 Q1018=
METAR OIIE 110330Z NIL=
METAR OITR 110330Z NIL=
METAR OIYY 110330Z 00000KT 9999 SCT040 BKN100 02/M01 Q1022=
METAR OAKN 110330Z NIL=
METAR OAKB 110330Z NIL=
0000031200
760
SAIR33 OIII 110330
METAR OIBB 110330Z NIL=
METAR OIBP 110330Z 20004KT 8000 BR SCT020 OVC080 14/09
Q1018 A3009=
METAR OICK 110330Z NIL=
METAR OICS 110330Z NIL=
METAR OIHH 110330Z NIL=
METAR OINZ 110330Z NIL=
METAR OISR 110330Z NIL=
METAR OITL 110330Z NIL=
METAR OIZC 110330Z NIL=
0000009200
761
SAIR31 OIII 110330 RRA
METAR OIZH 110330Z 00000KT CAVOK M03/M05 Q1022 A3020=
0000121300
762
SICI35 BABJ 110300
AAXX 11031
50548 31938 50000 11252 21294 40302 54000 70500 85///=
50564 32958 00000 11286 21331 40278 57001=
51334 31921 72001 11243 21273 40488 52002 77070 87///=
51818 32963 02501 11118 21149 40459 52011=
52378 42980 92708 11085 21212 40452 52029=
53487 32965 52502 11061 21217 40366 52002 85///=
53502 42980 22004 11081 21226 40434 52019 82///=
53923 32980 43203 11040 21206 40380 52019 84///=
54049 32970 00000 11119 21207 40277 57009=
54115 32980 92902 11066 21238 40297 57004=
54157 32956 32004 11081 21171 40291 57010 83///=
54186 32570 42703 11099 21201 40288 57001 84///=
54311 31937 02901 11083 21232 40333 57009 70500=
54346 31956 00902 11087 21170 40315 57015 70500=
54377 42965 01401 11100 21178 40337 57016=
54386 32970 01401 11153 21236 40334 57015=
54493 32966 02001 11056 21141 40325 57011=
54587 NIL=
54715 41930 82003 11002 21005 40328 57004 71040 88///=
54929 41910 50401 10026 21035 40342 57003 70500 85///=
54945 41957 02902 10031 21044 40340 57004 70500=
56065 32675 72001 11134 21209 36632 52016 87///=
57193 31955 00901 10060 21023 40337 52006 70500=
57290 31939 23201 10050 21012 40338 52008 70500 82///=
0000026600
763
SIME20 OEJD 110300 RRA
AAXX 11031
40270 41650 63107 10084 20063 39294 40205 54001 70522 86500 333
86640=
40272 41930 52806 10070 20061 39368 40213 54002 71000 82031 333 83360
84070=
40340 42560 10000 10112 20088 40220 52008 81100 333 81830=
0000009800
764
SIVB21 EGRR 110300
BBXX
AMOHK01 1103/ 99225 11139 46/// ///// 10188 20094 40254=
0000009800
765
SIVC21 EGRR 110300
BBXX
AMOUK20 1103/ 99542 50367 46/// ///// 10033 20014 49939=
0000031800
766
SIVD21 EGRR 110300
BBXX
A8QL5 11034 99369 70416 41597 63337 10110 20092 40220 54000 70322
85446 22223 04180 20908 328// 41208 80100=
ZCDT2 11033 99180 70630 41698 20918 10261 20221 40193 50030 702//
8/200 22264 04262 20801 30000 80234=
AMOUK17 1103/ 99134 70914 46/// ///// 10268 20223 40120=
0000010000
767
SMTA10 UTDD 110000 RRH
AAXX 11001
38869 429// 00000 11197 21246 36872 47140 51003=
0000116700
768
GHAA99 KWBC 110000
GRID 07001 10101
111 10200 20099 61401 71100 01199
333 11512 23020 30100 00100
0119 000000 111113114115116117117116116116116116115115114113112111114
0219 000010 113114116118120121121120119118117117117116114114113112113
0319 000020 112115117121123124124123121119116114115116115114113113116
0419 000030 107114118122125127127126123121116111108111114114112113115
0519 000040 103110115122124126126126125120113107101104111114114113115
0619 000050 103108114118121121123122120116107099095104111114113114113
0719 000060 102104109113115115114113112109103097095103110112113111113
0819 000070 102104105106107106104104104102102101101103105107107107106
0919 000080 105105104104101099096094096095093094095096098099099099098
1019 000090 103101098097096095094094098093088089092093093095099101103
1119 000100 096095094094094090090094098098105110109109106108109110111
1219 000110 089090088089091093094097101109116117115111103106108110111
1319 000120 092092094093093094096101105106108103100099098099100101102
1419 000130 094094094093093093093094094095095095096096096097097098098
9901 000140 099
555 07001 10101
777
0000115500
769
GHAA50 KWBC 110000
GRID 07001 10101
111 10200 25099 61401 71100 01199
333 11512 23020
0119 000000 586587588589589588587586585584584584584584583583583584585
0219 000010 583585587588588588588587585584583581580579578576573575580
0319 000020 578581584585585585584581578576575574574574572568561563572
0419 000030 565573578579578577574570566563560560564567567565562563568
0519 000040 551560567569568562561558554546540542549557561563562562566
0619 000050 540549554556554551549547540529521522536547553556558558561
0719 000060 532537541542540539537534527518515518527536543546550551551
0819 000070 525527526524522520518517514509511512516521525527529536542
0919 000080 514510507505500493491499502503504505508512515518521524527
1019 000090 500498496493492490491495499502504506512516520522524526526
1119 000100 487488490491489488491498506512517519521523527530532533533
1219 000110 480482487491494498502508515519521522524528531534536537538
1319 000120 493495498500504508511515518520522524527529532534536537537
1419 000130 512513514515516517518519520522523524525526527528528529529
9901 000140 518
555 07001 10101
777
0000116700
770
GHDA99 KWBC 110000
GRID 07004 10101
111 10200 20099 61401 71100 01199
333 11512 23020 30100 00100
0119 000000 114116118117120120118115112114114116116114113112111113113
0219 000010 113116118121121121120117115114116116118116116115112113113
0319 000020 116117118121122121120119116114116119120122117115118120116
0419 000030 115118117120120118119118117116120120120125122127124122120
0519 000040 115115117118118117118119120118116117118121123130132134135
0619 000050 113116118118119117114110109111114115115119122125124132133
0719 000060 113115116116115111105102100105109110110115122126128132131
0819 000070 106107108107105100092090092098104106109112116119121123123
0919 000080 098099098100100096090086088094101105109110113114114116118
1019 000090 103103105108107105104101102105110112112113113113113113115
1119 000100 111111112113114114112112113111114114113111108104105108110
1219 000110 111112111110109108109111113113112113113113112112112112112
1319 000120 102103104104106106106107108109109110110110111112113113114
1419 000130 098099099100100101101102102103103103103103103103103103103
9901 000140 099
555 07004 10101
777
0000117300
771
GHAE10 KWBC 110000
GRID 07001 10101
111 10200 21099 61401 71100 81024 09999
333 11512 23020 30000 01000
0119 000000 655656657656656656654651648646646646646647649650651652653
0219 000010 650652654654654652648644640637638639641643645646646644645
0319 000020 638639643646646644640634629626626628631635638639638636635
0419 000030 621623627631635633629623618614613615617622626629630629627
0519 000040 606606610613617618616612605601599600603608613618622623622
0619 000050 590590592596599601600597591587585586589594602609614616617
0719 000060 573572573575577579579576572569567569573581590598605609610
0819 000070 549547547548551552551549548546548552558567577586592596599
0919 000080 523522522523524524524523524526531536544553563571578582585
1019 000090 503503504505506506506507509513519526533541549556563568572
1119 000100 490492493494496498499502505510515521528535542548555560564
1219 000110 485487489491494497500504509513518524529535541546551555558
1319 000120 493494496499501504508512516519522526530534538541544547549
1419 000130 507508509511513515516518520522524526528529531532534535536
9901 000140 522
555 07001 10101
777
0000117300
772
GHCE30 KWBC 110000
GRID 07003 10101
111 10200 23099 61401 71100 81024 09999
333 11512 23020 30000 00700
0119 000000 265264265265267268269270271272273273274273273272272271269
0219 000010 247244246251254258261263264265266267267267267267266265264
0319 000020 225224226228231235240243246247248248248248248249249250251
0419 000030 215213214213213211211212213214214214212212212212214217224
0519 000040 207203199195191187183180177176174176176176174172172176185
0619 000050 200196190184178171162154148145145147148150150148148153159
0719 000060 193187182177170160149142137133131133137141143143142143147
0819 000070 187182175173167155146141138136135137141146147147146145143
0919 000080 174171167163161154147145146146145145147149151150149147145
1019 000090 149149151154155152150150149148148150153156158158157154151
1119 000100 135136138142147150153154155157159162164165165163158153148
1219 000110 143143145147148150152155158160162162162161158154151147144
1319 000120 154152151150150150150150151151151151150150149148146145143
1419 000130 163162161160159158157156155154153153152151150148147146144
9901 000140 159
555 07003 10101
777
0000117300
773
GHCC30 KWBC 110000
GRID 07003 10101
111 10200 23099 61401 71100 81012 09999
333 11512 23020 30000 00700
0119 000000 265265266268269269271271272272273274274274273273272271269
0219 000010 245247250255257260262264265265266266266267267268267266263
0319 000020 225226229233235239241242245246247247247248250251253255255
0419 000030 213214215216216217216214214214214213211210210212219227236
0519 000040 203201199196193191186183182180177177172170168170175188204
0619 000050 199194189183178171162154151150146147147147147148152160173
0719 000060 190185179175168157146138134132132133137140140141144148153
0819 000070 182180176169161150142138135134134136140144146146147146145
0919 000080 170170170166158149143141142144145145145145147149149149148
1019 000090 154157158159156151148149151152150150151153155156157156154
1119 000100 135139145151152152154157160163164165166167167167165162159
1219 000110 142144146148149151153155158161163164164163162159156153150
1319 000120 148147147148148149150150151151152152152151151149148147146
1419 000130 163161160159157156156155154154153153153152152152152151151
9901 000140 161
555 07003 10101
777
0000115500
774
GHBA85 KWBC 110000
GRID 07002 10101
111 10200 28599 61401 71100 01199
333 11512 23020
0119 000000 152152151151150150151152152152152151150150150151150150152
0219 000010 154154154153153153153154155155154153151150150149149150153
0319 000020 154156158159158157157157157157157156154152151148146147151
0419 000030 150154158159159159157156155156157157154152149143141140144
0519 000040 139147152154155152150149146147151154154153146141137133137
0619 000050 127131139142143140138131131133141146148148143136133131132
0719 000060 112118123127129132128113116120126139141138134131127126128
0819 000070 110113117122126128128126125127132134132131127125124125127
0919 000080 121120121123125125124124125124125126125124123124124125126
1019 000090 133131130129128127126125124124125124122120119121122122121
1119 000100 140138136134132130127125123120117113112112112113113112112
1219 000110 135133132130129126124121119116112109108107107107106106107
1319 000120 129128127126125124122120117114111108106106107109111113115
1419 000130 124124123123122122121120119119118117116116116117117118118
9901 000140 122
555 07002 10101
777
0000116700
775
GHAA30 KWBC 110000
GRID 07001 10101
111 10200 23099 61401 71100 01199
333 11512 23020 30000 00700
0119 000000 263266267267267267265263261260260260259257256255255256259
0219 000010 257260263263263263261260259258256255253251249245240242248
0319 000020 249253256256257254252248245244242242242241239232216220235
0419 000030 232241246245242238234228222217215221228231231226215216226
0519 000040 212222229229225214209207200191187192205217221221218218224
0619 000050 194203210210206199194192184169162169185199207211214216216
0719 000060 180187190190189186183179170157153160173184189194198203208
0819 000070 169172172170168165161159154146145147155161167171175185194
0919 000080 151148145141137130128132135138137139143147153158164171177
1019 000090 131129127124121120121126132136140144150156160167172176177
1119 000100 115116118119118120124131139146154158163169175181185187187
1219 000110 112114117120124129135142150156161166172178184188191193193
1319 000120 127129131136139143147152157162168173178182185188190191191
1419 000130 152153155156158161163165167170172174176177179180181181182
9901 000140 165
555 07001 10101
777
00000000