0000007500
496
ULVF02 EKMI 111200
UUCC ASDK02 1112/ 99692 30278 54997 NIL=
0000011800
497
SMFI01 EFKL 111200 RRA
AAXX 11121
02981 47499 73206 11003 21033 39988 49998 54001 724// 87/// 91200=
0000011800
498
SMFI01 EFKL 111200 RRB
AAXX 11121
02741 47599 23503 11022 21055 39988 40004 54001 700// 82/// 91200=
0000011800
499
SMFI01 EFKL 111200 RRC
AAXX 11121
02978 47372 73102 11031 21045 39999 40003 52002 78587 87/// 91200=
0000011800
500
SMFI01 EFKL 111200 RRD
AAXX 11121
02964 47333 73202 11020 21022 39993 49998 52002 785// 87/// 91200=
0000011800
501
SMFI01 EFKL 111200 RRE
AAXX 11121
02926 47334 70402 11038 21043 39990 40002 54000 771// 87/// 91200=
0000011200
502
SMFI01 EFKL 111200 RRF
AAXX 11121
02769 47416 90303 11088 21102 39901 40022 52007 77170 91200=
0000011800
503
SMFI01 EFKL 111200 RRG
AAXX 11121
02935 47443 70304 11098 21129 39848 40028 52006 77187 87/// 91200=
0000011800
504
SMFI01 EFKL 111200 RRH
AAXX 11121
02957 47628 80406 11103 21115 30028 40040 52005 771// 88/// 91200=
0000011800
505
SMFI01 EFKL 111200 RRI
AAXX 11121
02915 47542 80402 11116 21142 39874 40044 52007 77170 88/// 91200=
0000011200
506
SMFI01 EFKL 111200 RRJ
AAXX 11121
02789 47983 00204 11138 21162 39824 40041 52011 72287 91200=
0000011800
507
SMFI01 EFKL 111200 RRK
AAXX 11121
02939 47520 83503 11109 21125 39799 40001 52010 77170 88/// 91200=
0000011800
508
SMFI01 EFKL 111200 RRL
AAXX 11121
02852 47882 80505 11125 21150 30052 40063 52007 778// 88/// 91200=
0000011800
509
SMFI01 EFKL 111200 RRM
AAXX 11121
02755 47899 50405 11153 21177 39967 40069 52004 70072 85/// 91200=
0000011200
510
SMFI01 EFKL 111200 RRN
AAXX 11121
02883 47981 00502 11154 21179 39855 40066 52007 785// 91200=
0000055200
511
SMVF11 BIRK 111200
BBXX
TFBKF 11124 99635 70202 46/// ///// 22200 10704 70019=
TFBLK 11124 99657 70248 46/// ///// 22200 10906 70032=
TFGRS 11124 99663 70182 46/// ///// 22200 10705 70027=
TFGRV 11124 99638 70225 46/// ///// 22200 11005 70026=
TFGSK 11124 99641 70229 46/// ///// 22200 10907 70035=
TFHFN 11124 99642 70152 46/// ///// 22200 10806 70030=
TFKGR 11124 99657 70136 46/// ///// 22200 10809 70047=
TFSRT 11124 99633 70203 46/// ///// 22200 10907 70036=
TFSTD 11124 99664 70234 46/// ///// 22200 10707 70034=
0000011100
512
UANT01 CWAO 111204
ARP DAL409 5303N01932W 1204 F350 MS63 221/77 KT
N1200K QXT AOW 111204 F13A
0000011100
513
UANT01 CWAO 111204
ARP UAL107 5301N01957W 1204 F310 MS55 214/73 KT
N69059 DDL XXN 111204 F12A
0000014800
514
SMMW51 FWCL 111200
AAXX 11121
67586 41659 73306 10265 20192 38780 48506 79592 8697/ 333 58010 81930
85835 87459 555 10274 29062=
0000015900
515
SMBD01 WBSB 111200
AAXX 11124 
96315 11250 71406 10240 20234 40126 60411 79598 85978 
333 10304 55078 81703 83814 81915 86465=
96323 NIL=
00000000