0000007900
416
SAIN90 VARK 111200
METAR VARK 111200Z 05008KT 6000 21/10 Q1016=
0000009800
417
SAIN90 VOVZ 111200
METAR VOVZ 111200Z 13004KT 3500 HZ FEW018 26/20 Q1013 NOSIG=

0000018600
418
FCIN90 VILK 111200
TAF VILK 111200Z 1115/1124 VRB02KT 0800 MIFG/FU SCT020 BKN100 BECMG
1118/1120 0200 FG VV/// TEMPO 1115/1124 1000 RA/TSRA BKN020 FEW030CB
OVC090=

0000018000
419
SNVD01 PANC 102200 RRI
BBXX
C6RN3 10224 99203 70721
41/98 /0724 10270 20243 40190 5//// 7//// 8////
22274 00270 2//// 3//// 4//// 5//// 6//// 80250 ICE /////=
0000189400
420
SIUS21 KWBC 110300
AAXX 11034
72365 32966 03010 10089 21117 38365 40158 51033 90252 333 91028
555 91103=
72506 15664 61506 10033 20022 30254 40275 57014 69907 90253 555
91103=
72518 32666 61706 10000 21028 30139 40251 58012 90251 555 91103=
72363 32966 23109 10089 21128 38862 40090 51024 90253 555 91103=
72513 35361 8//04 10017 21006 39879 40235 56014 90254 555 91103=
72509 31332 81304 10011 20000 30260 40267 58014 710// 90254 555
91103=
72570 35666 82713 11006 21061 38081 40199 53020 90253 555 91103=
72314 31104 93505 10056 20056 39943 40207 58012 710// 90252 555
91103=
72605 35461 80000 11050 21072 30139 40271 58008 90251 555 91103=
72445 35366 81810 10072 20067 39685 40007 50001 90254 555 91103=
72414 32966 61406 10117 20083 39769 40135 56023 90254 555 91103=
72429 11559 81511 10078 20067 39728 40091 58033 69937 761// 90256
333 96010 555 91103=
72405 11358 80405 10033 20017 30208 40231 58029 60027 710// 90252
555 91103=
72451 35966 03111 10000 21033 39169 40093 52023 90252 555 91103=
72565 32966 43211 10006 21094 38273 40102 51019 90253 555 91103=
72376 32966 03104 10017 21100 38301 40202 53023 90253 555 91103=
72425 32666 41103 10078 20072 39817 40121 56030 90251 555 91103=
72302 15266 81506 10200 20189 3//// 40205 58013 69907 90253 555
91103=
72438 11104 /1509 10039 20039 39771 40064 58027 60027 761// 90254
333 96041 555 91103=
72503 11124 80505 10011 20000 30244 40256 56017 69937 751// 90251
333 96010 555 91103=
72410 11232 80206 10028 20022 39865 40224 58017 60027 761// 90254
333 96010 555 91103=
72446 12266 83005 10022 20011 39645 40027 51014 69907 90253 555
91103=
72475 35966 02205 10006 21033 3//// 40230 51015 90252 555 91103=
72353 32966 0//05 10028 21039 39616 40074 51010 90252 555 91103=
72423 32566 81712 10122 20089 39904 40077 58041 90256 333 91020
555 91103=
0000200700
421
SIUS22 KWBC 110300
AAXX 11034
72734 17232 81007 11017 21028 39792 40060 58048 69907 771// 90255
333 91015 96010 555 91103=
72639 17148 81407 10000 20000 39816 40073 56035 60047 710// 90254
555 91103=
72677 32966 22916 10039 21061 38833 40090 53028 90253 555 91103=
72617 32766 81906 10011 21028 30107 40239 56011 90254 555 91103=
72528 32766 81405 10028 20017 39877 40154 58032 90254 555 91103=
72712 35566 81603 11089 21150 39997 40245 56005 90254 555 91103=
72524 12966 81616 10067 20044 39828 40111 58048 69957 90251 333
91023 555 91103=
72537 11112 81205 10028 20028 39863 40102 58032 60037 763// 90253
333 96010 555 91103=
72753 32964 02207 11078 21100 39652 49990 58001 90253 555 91103=
72533 11116 /1406 10028 20022 39774 40074 58029 60077 761// 90254
333 96010 555 91103=
72785 12566 82012 10033 20006 39267 40132 58007 69907 90253 555
91103=
72645 11358 81605 10017 20011 39752 40000 56050 60067 761// 90253
333 96010 555 91103=
72635 11356 81617 10050 20033 39755 40043 58041 60107 763// 90253
333 96010 555 91103=
72654 35966 0//// 11044 21072 39551 40022 58001 90255 555 91103=
72747 17132 82106 11039 21050 39546 49987 56007 69907 710// 90255
555 91103=
72562 35966 03206 11072 21089 39077 40079 51014 90253 555 91103=
72534 11361 81909 10050 20050 39795 40023 56034 60077 761// 90251
555 91103=
72597 32761 60103 10067 20050 39737 40213 56011 90253 555 91103=
72475 35966 02205 10006 21033 3//// 40230 51015 90252 555 91103=
72532 11148 81811 10039 20033 39765 40012 58013 69907 761// 90254
333 96010 555 91103=
72520 32966 80905 10056 20044 39717 40156 56039 90251 555 91103=
72606 32862 82203 11017 21033 30249 40267 58006 90251 555 91103=
72662 32766 82804 10017 21050 38929 40054 50005 90252 555 91103=
72572 32766 81407 10050 21022 38742 40207 53013 90253 555 91103=
0 31104 91803 11028 21028 31230 40008 58012 741// 90253 555 91103=
72519 32766 81006 10017 20000 30047 40203 57019 90254 555 91103=
0000370600
422
SICI01 KWBC 110300 RRB
AAXX 11031
50844 32962 61103 11146 21212 40264 57006 86///=
50854 32962 00901 11182 21241 40275 57003=
50968 32962 22203 11162 21214 40293 52002 82///=
51379 32980 01603 11176 21233 40467 57001=
51467 32980 00000 11185 21243 38343 52009=
51495 32980 03602 11111 21197 40493 52020=
53480 42964 22203 11090 21238 40367 52003 82///=
53673 41958 01601 11052 21213 40360 52004 70500=
53698 31918 70000 10018 21128 40321 57002 70500 87///=
53898 31922 03601 10027 21078 40324 57004 70500=
54308 31958 01101 11089 21226 40341 57012 70500=
54602 31916 62501 11010 21126 40322 57003 70500 86///=
54725 41907 02202 10018 21020 40331 57003 74244=
54751 31914 72205 10010 21022 40326 57009 70500 87///=
54916 41923 81602 10040 21031 40349 57001 70540 88///=
57014 329// 73601 11005 21074 40382 52024 87///=
57025 42962 23204 10031 21171 40371 52022 82///=
57046 41973 02903 11058 21115 37990 52009 70074=
57866 41757 83603 10055 20052 40318 52017 76066 88///=
58208 31939 80902 10046 20004 40325 52002 70500 88///=
50953 42965 72003 11172 21237 40279 52001 87///=
54401 32968 62703 11061 21234 40353 57001 86///=
56146 32780 31601 11019 21164 36719 52012 83///=
56444 32980 00903 10025 21151 36828 52019=
56492 31757 80000 10072 20049 40322 52018 76060 88///=
56571 32980 01601 10097 21039 38422 52019=
57799 31720 83602 10058 20051 40305 52017 76060 88///=
57957 41458 80203 10065 20048 40295 52019 76066 88///=
57993 31955 72501 10128 20073 40277 52009 70500 87///=
58027 31938 01103 10052 21036 40340 52002 70500=
58141 31943 20702 10054 21015 40337 57003 70500 82///=
58265 31557 80702 10062 21008 40328 57008 70560 88///=
58472 31472 80707 10074 20017 40317 57004 70060 88///=
58477 41466 80203 10078 20047 40311 57007 76066 88///=
58527 41231 83601 10056 20050 40301 52005 76066 88///=
58633 41625 80902 10056 20047 40306 52005 76060 88///=
58666 32670 83603 10097 20071 40297 52002 88///=
58725 32765 83602 10123 20048 40284 57001 88///=
58921 32961 31101 10139 20067 40278 57004 83///=
59082 31640 73601 10114 20061 40276 52008 70500 87///=
59211 41820 83601 10122 20116 40257 52022 76066 88///=
59265 31856 70201 10156 20099 40259 52009 70500 87///=
59293 32760 60701 10157 20082 40259 57008 86///=
59501 31657 71103 10162 20082 40260 52004 70500 87///=
59663 31656 70205 10163 20117 40249 52009 70500 87///=
59838 32968 00202 10226 20177 40215 52009=
59948 32480 70708 10202 20180 40218 52008 87///=
59981 42580 50406 10257 20212 40197 52007 85///=
50353 32970 03405 11267 21334 40276 52004=
50557 32968 02501 11283 21324 40293 52002=
50756 32960 53402 11249 21280 40283 52004 85///=
50949 32965 42503 11114 21195 40268 57011 84///=
50963 32962 02707 11193 21223 40274 52008=
50978 32970 02706 11134 21197 40247 57008=
51087 32980 21801 11212 21243 40506 54000 82///=
51156 32980 03401 11151 21202 40451 52002=
51644 32960 03601 11140 21167 40490 52014=
51656 31945 00201 11101 21149 40474 52014 70500=
51886 42980 73401 11134 21256 37164 52017 87///=
52602 42980 70201 11178 21262 37326 52023 87///=
52713 42957 70701 11164 21204 36953 52015 87///=
52754 42977 03202 11128 21200 36808 52012=
52818 32980 72704 11115 21239 37296 52019 87///=
52836 32980 71602 11108 21197 36930 52018 87///=
52955 32980 81402 11113 21222 36998 52014 88///=
53068 42964 73204 11120 21237 40381 52018 87///=
53276 32980 72709 11097 21226 40359 52011 87///=
54135 32980 22703 11070 21224 40284 57008 82///=
54236 42965 02204 11048 21205 40295 57011=
54539 31909 02702 11006 21083 40316 57006 70500=
54662 32960 72201 10024 21075 40317 57009 87///=
0000039100
423
SICI01 KWBC 110300 RRC
AAXX 11031
54753 31919 62202 10015 21030 40333 57007 70500 86///=
54857 41921 43201 10025 21028 40337 57006 70500 84///=
57067 41940 72002 10017 21022 40352 52010 70570 87///=
57178 31958 71801 10064 21010 40344 52008 70500 87///=
57245 31540 80201 10038 20013 40355 52015 76066 88///=
57297 31729 73602 10045 21015 40329 52006 70500 87///=
0000013600
424
SIVD17 CWVR 110300
BBXX
46185 11031 99524 71298 46/// /1014 10039 49859 57116
22200 00073 1//// 70/// 333 91218 =

0000015600
425
SIVJ30 KWBC 102100 RRB
BBXX
VHMW 10214 99643 31333 41/94 /0502 10005 21001 49898 52010 71022
 8/07/ 22261 05004 299// 331// 41003 80003=
0000019700
426
SMVF01 KWBC 110000 RRO
BBXX
DBFX 11001 99539 10087 46/// /2306 10062 20062 40123 52001 22220
 00070=
DBFC 11001 99544 10136 46/// /2608 10056 20035 40105 52010 22200
 00054=
0000066100
427
UDAF01 FAPR 110324
AMDAR 1103
DES AFZA03 2550S 02727E 110313 F183 MS070 246/014 TB0 S031 333 F/// VG014=
DES AFZA03 2553S 02732E 110314 F160 MS052 261/014 TB0 S031 333 F/// VG014=
DES AFZA03 2555S 02736E 110315 F138 MS009 298/013 TB0 S031 333 F/// VG014=
DES AFZA03 2558S 02741E 110315 F118 PS050 294/011 TB0 S031 333 F/// VG015=
DES AFZA03 2604S 02752E 110317 F099 PS105 307/003 TB0 S031 333 F/// VG015=
DES AFZA03 2609S 02801E 110320 F081 PS157 249/001 TB0 S031 333 F/// VG017=
ASC AFZA03 2616S 02809E 110322 F078 PS165 335/003 TB1 S031 333 F/// VG020=
DES AFZA03 2610S 02813E 110324 F064 PS200 122/008 TB1 S031 333 F/// VG027=
0000066100
428
UDAF01 FAPR 110326
AMDAR 1103
ASC AFZA26 1449N 01730W 110322 F020 PS172 060/016 TB1 S031 333 F/// VG040=
ASC AFZA26 1449N 01731W 110323 F023 PS180 061/016 TB1 S031 333 F/// VG029=
ASC AFZA26 1450N 01732W 110324 F026 PS195 054/012 TB1 S031 333 F/// VG027=
ASC AFZA26 1450N 01733W 110324 F029 PS200 024/007 TB1 S031 333 F/// VG025=
ASC AFZA26 1450N 01734W 110324 F032 PS207 334/004 TB1 S031 333 F/// VG023=
ASC AFZA26 1452N 01737W 110325 F047 PS212 255/009 TB1 S031 333 F/// VG022=
ASC AFZA26 1453N 01740W 110326 F064 PS173 241/011 TB1 S031 333 F/// VG021=
ASC AFZA26 1454N 01745W 110327 F081 PS130 218/007 TB1 S031 333 F/// VG021=
0000066100
429
UDAF01 FAPR 110327
AMDAR 1103
LVR AFZA24 1343S 00534E 110238 F390 MS542 016/030 TB0 S031 333 F/// VG012=
LVR AFZA24 1423S 00615E 110245 F390 MS547 005/022 TB0 S031 333 F/// VG012=
LVR AFZA24 1502S 00655E 110252 F390 MS547 009/015 TB0 S031 333 F/// VG012=
LVR AFZA24 1541S 00735E 110259 F390 MS550 227/016 TB0 S031 333 F/// VG012=
LVR AFZA24 1620S 00816E 110306 F390 MS545 011/014 TB0 S031 333 F/// VG012=
LVR AFZA24 1659S 00857E 110313 F390 MS545 005/015 TB0 S031 333 F/// VG012=
LVR AFZA24 1738S 00938E 110320 F390 MS545 260/021 TB0 S031 333 F/// VG012=
LVR AFZA24 1810S 01025E 110327 F390 MS542 004/019 TB0 S031 333 F/// VG012=
0000066100
430
UDAF01 FAPR 110328
AMDAR 1103
LVR AFZA62 1449N 01212E 110238 F370 MS495 237/052 TB0 S031 333 F/// VG000=
LVR AFZA62 1358N 01227E 110246 F370 MS489 233/054 TB0 S031 333 F/// VG000=
LVR AFZA62 1308N 01241E 110253 F370 MS490 229/056 TB0 S031 333 F/// VG000=
LVR AFZA62 1217N 01256E 110260 F370 MS482 225/051 TB0 S031 333 F/// VG000=
LVR AFZA62 1127N 01310E 110307 F370 MS494 204/055 TB0 S031 333 F/// VG000=
LVR AFZA62 1039N 01324E 110314 F370 MS490 202/051 TB0 S031 333 F/// VG000=
LVR AFZA62 0950N 01338E 110321 F390 MS535 205/040 TB0 S031 333 F/// VG000=
LVR AFZA62 0901N 01352E 110328 F390 MS542 191/029 TB0 S031 333 F/// VG000=
0000066100
431
UDAF01 FAPR 110326
AMDAR 1103
DES AFZA03 2612S 02805E 110320 F077 PS170 309/002 TB1 S031 333 F/// VG020=
DES AFZA03 2614S 02812E 110323 F074 PS172 173/004 TB1 S031 333 F/// VG027=
DES AFZA03 2612S 02812E 110324 F071 PS185 179/006 TB1 S031 333 F/// VG027=
DES AFZA03 2611S 02813E 110324 F067 PS195 157/006 TB1 S031 333 F/// VG027=
DES AFZA03 2610S 02813E 110324 F064 PS200 122/008 TB1 S031 333 F/// VG027=
DES AFZA03 2609S 02813E 110325 F061 PS210 099/008 TB1 S031 333 F/// VG030=
DES AFZA03 2608S 02814E 110325 F057 PS213 046/007 TB1 S031 333 F/// VG030=
DES AFZA03 2607S 02814E 110325 F054 PS207 011/006 TB1 S031 333 F/// VG030=
0000010200
432
SNVF01 KWBC 110200 RRF
BBXX
MINUK01 1102/ 99585 70023 46/// ///// 10058 40014 57008=
0000034500
433
SNVD01 KWBC 110100 RRU
BBXX
42369 11011 99272 70903 46/// /1507 1//// 90120=
42887 11011 99282 70885 46/// /1506 10219 20213 90120 22200 10502
 70009 555 11051 22056=
42392 11011 99272 70900 46/// ///// 1//// 90120 22200 10502 70009=
42375 11011 99285 70883 46/// /1407 1//// 90120 22200 10401 70007
 555 11059 22064=
0000011900
434
SNVD01 KWBC 110200 RRQ
BBXX
42022 11021 99275 70837 46/// /1304 10212 40186 90229 555 11050
 22055=
0000012600
435
SIVA30 KWBC 110300 RRB
BBXX
DBBH 11031 99185 30118 41/97 /1409 10184 20170 40126 57015 7////
 22283 04182=
00000000