0000069300
732
FCTR31 UTAA 110200
TAF UTAA 110130Z 1103/1115 10007MPS 5000 SCT030 BKN100 530003 TEMPO
1103/1106 35005MPS BECMG 1110/1112 30007MPS BKN020=
TAF UTAK 110130Z 1103/1115 15006G11MPS 3000 BR BKN010 530001 TEMPO
1103/1105 22006MPS 0500 FG VV001 BECMG 1106/1107 9999 NSW SCT020
 SCT100=
TAF UTAV 110130Z 1103/1115 20006MPS CAVOK 530005 TEMPO 1103/1109
16008G13MPS 3000 DRDU 570005=
TAF UTAM 110230Z 1103/1115 13008MPS 5000 SCT030 SCT100  530003 TEMPO
 1103/1106
21007MPS 2000 BR BKN005 TEMPO 1106/1112 18007G12MPS 2000 BLDU=
TAF UTAT 110130Z 1103/1115 11006MPS 5000  SCT020 BKN100 530001 TEMPO
                                  1103/1107 VRB02MPS 1000 BR OVC005=
0000012800
733
FCAJ31 UBBB 110200
TAF UBBN 110200Z 1103/1112 28008KT 2600 BR OVC014
620140 TEMPO 1103/1108 1300 SN BR OVC006=
0000083300
734
SAUR30 UKMS 110200
METAR UKBB 110200Z 27007MPS 9999 OVC024 05/01 Q1003
         88290060 TEMPO    27011G16MPS=
METAR UKHH 110200Z 28007MPS 9999 SCT011 OVC020 04/02
         Q1001  25290050 TEMPO 28008G14MPS=
METAR UKOO 110200Z 24005MPS CAVOK 03/M01 Q1015
         34290054 NOSIG=
METAR UKDE 110200Z 28007MPS 9999 SCT010 03/01 Q1007
         02290356 NOSIG=
METAR UKDD 110200Z 28007MPS CAVOK 02/01 Q1006
         26220356 NOSIG=
METAR UKFF 110200Z 27004MPS 3300 BR NSC 03/02 Q1014
         19010070 NOSIG=
METAR UKLL 110200Z 26006MPS 9999 BKN043 04/M02 Q1014
         31220365 NOSIG=
METAR UKCC 110200Z 29009MPS 7000 OVC006 03/03 Q1003
         26290055 TEMPO 23012G17MPS 1000 -SHRA BR
         BKN003 BKN010CB=
METAR UKDR 110200Z 27006MPS CAVOK 02/00 Q1009
         3619//60 NOSIG=
0000010300
735
SAAJ31 UBBB 110200
METAR UBBB 110200Z 19014KT 9999 BKN008 05/03 Q1016 88CLRD70
NOSIG=
0000216500
736
SZNZ01 NZKL 110209
CREX++
T000103 A001 D01021 D06025++
-3683144 17478654 AUCT  2014 01 11 02 01 //// 11 07 00 01
05758 3182 05766 3183 05772 3184 05778 3184 05785 3185 05792 3187+
-4402404 -17636748 CHIT  2014 01 11 02 01 //// 11 07 00 01
05369 2120 05389 2142 05389 2144 05399 2156 05388 2146 05401 2162+
-4089929 17623168 CPIT  2014 01 11 02 01 //// 11 07 00 01
04420 2256 04430 2267 04408 2246 04429 2269 04418 2258 04425 2266+
-3618905 17548887 GBIT  2014 01 11 02 01 //// 11 07 00 01
06307 0028 06312 0030 06320 0035 06329 0041 06331 0040 06335 0040+
-3867541 17802288 GIST  2014 01 11 02 01 //// 11 07 00 01
04580 2715 04572 2705 04580 2713 04582 2715 04573 2705 04589 2721+
-4241288 17370277 KAIT  2014 01 11 02 01 //// 11 07 00 01
03782 2143 03789 2151 03787 2151 03789 2156 03779 2148 03765 2136+
-3755040 17815904 LOTT  2014 01 11 02 01 //// 11 07 00 01
04022 0202 04034 0211 04041 0217 04036 0210 04047 0219 04035 0205+
-3704657 17451175 MNKT  2014 01 11 02 01 //// 11 07 00 01
02136 -0158 02134 -0165 02137 -0168 02116 -0193 02146 -0168 02128 -0191+
-3947566 17692007 NAPT  2014 01 11 02 01 //// 11 07 00 01
03550 1964 03552 1967 03562 1977 03561 1976 03593 2008 03558 1974+
-3441483 17304870 NCPT  2014 01 11 02 01 //// 11 07 00 01
-04120 -8821 -04175 -8881 -04139 -8850 -04091 -8807 -04103 -8822 -04124 -8848+
-4581435 17062939 OTAT  2014 01 11 02 01 //// 11 07 00 01
04924 3370 04919 3370 04910 3367 04905 3366 04902 3368 04899 3371+
-2928002 -17789440 RBCT  2014 01 11 02 01 //// 11 07 00 01
06358 1968 06357 1966 06375 1981 06368 1972 06369 1972 06388 1989+
-2925114 -17790384 RFRT  2014 01 11 02 01 //// 11 07 00 01
03345 0185 03353 0191 03337 0173 03359 0194 03334 0166 03350 0180+
-4357010 17277383 SUMT  2014 01 11 02 01 //// 11 07 00 01
02573 1780 02555 1765 02547 1761 02549 1767 02541 1762 02548 1773+
-3764109 17618118 TAUT  2014 01 11 02 01 //// 11 07 00 01
05521 3964 05526 3965 05531 3968 05532 3966 05536 3966 05539 3966+
-4128448 17477985 WLGT  2014 01 11 02 01 //// 11 07 00 01
03535 1991 03537 1995 03535 1994 03534 1995 03533 1996 03527 1992++
7777
0000024100
737
SOAT10 KWAL 110208
FA8005BC 011020837 OT12 ID:KN-BASS-01 DT:2014 01 11 02 06
:RD -3265 -3269 -3262 -3259 -3267 -3237 -3260 -3253 -3285 -3258
:PR 0380 0408 0357 0373 0406 0444 0361 0356 0340 0338
:B 13.7V
 48+0NF 219E
0000014100
738
UANT99 KDDL 110207
ARP DAL28 4708N02907W 0207 F340 4800N02000W 0250 4800N01500W MS55
 214/50 KT
N1603 QXT AOE 110207 F88A
0000213900
739
SNVZ11 SBBR 110200 RRA
BBXX
SHIP 11021 99/// 1//// 36/// /0503 10245 20227 30133 40162 52///
  333 10249 20245 553// 10004 91106=
SHIP 11021 99/// 1//// 36/// /0500 10213 20174 39297 40145
  333 10219 20207 553// 10004 91102=
SHIP 11021 99/// 1//// 36/// /0702 10221 20186 39381 40034 52///
  333 10238 20218 553// 10004 91103=
SHIP 11021 99/// 1//// 36/// /0401 10235 20211 39717 40154 52///
  333 10236 20232 553// 10004 91103=
SHIP 11021 99/// 1//// 36/// /0405 10230 20173 39613 40133
  333 10248 20227 553// 10003 91114=
SHIP 11021 99/// 1//// 36/// /1800 10235 20214 39979 40124 52///
  333 10241 20235 553// 10004 91102=
SHIP 11021 99/// 1//// 36/// /1002 10246 20229 30073 40111 52///
  333 10248 20246 553// 10003 91103=
SHIP 11021 99/// 1//// 36/// /1005 10227 20215 39718 40133 52///
  333 10232 20227 553// 10004 91109=
SHIP 11021 99/// 1//// 36/// /3602 10210 20171 39527 40148
  333 10218 20210 553// 10004 91103=
SHIP 11021 99/// 1//// 36/// /0601 10234 20180 39607 40141 52///
  333 10237 20231 553// 10004 91103=
SHIP 11021 99/// 1//// 36/// /3201 10257 20167 39531 40141 52///
  333 10268 20253 553// 10004 91103=
SHIP 11021 99/// 1//// 36/// /1006 10237 20196 39643 40134 52///
  333 10238 20236 553// 10003 91110=
SHIP 11021 99/// 1//// 36/// /1002 10246 20177 39228 40127
  333 10256 20245 553// 10004 91102=
SHIP 11021 99/// 1//// 16/// /1303 10226 20209 39703 40170 6994/
  333 10227 20225 553// 10003 91107=
SHIP 11021 99/// 1//// 16/// /1001 10225 20222 30076 40144 52/// 6020/
  333 10228 20225 553// 10001 91106=
SHIP 11021 99/// 1//// 36/// /2801 10188 20178 39447 40134 52///
  333 10199 20188 553// 10004 91102=
SHIP 11021 99/// 1//// 36/// /0804 10258 20231 30135 40164 52///
  333 10259 20258 91106=
SHIP 11021 99/// 1//// 16/// /2601 10208 20195 39244 40154 52/// 6992/
  333 10219 20208 553// 10002 91104=
SHIP 11021 99/// 1//// 36/// /0302 10266 20239 30113 40133 52///
  333 10267 20263 553// 10001 91103=
SHIP 11021 99/// 1//// 36/// /2702 10216 20183 30019 40113 52///
  333 10223 20216 553// 10003 91106=
0000016100
740
SMVA10 EHDB 110000 RRE
BBXX
PFBE 11003 99283 70207 41498 43405 10180 20070 40180 52012 70222
8344/ 22263 04210 20102 399// 40104 80120 42892=
0000030400
741
SNVD20 KWNB 110200 RRF
BBXX
44056 11021 99362 70757 46/// ///// 1//// 90153 22200 00089 10502
20502 308// 41501 70008=
44098 11021 99428 70702 46/// ///// 1//// 90151 22200 00059 10502
20502 70010=
44097 11021 99410 70711 46/// ///// 1//// 90155 22200 00068 10402
20402 70009=
0000070800
742
SNNL50 EHDB 110200
AAXX 11021
06206 47/// /2310 10079 20069 30043 40096 57007 7//00
333 91011 91112 91210=
06207 45362 32311 10089 20073 30049 40103 56009 8////
333 81/09 83/19 91012 91113 91211=
06239 47264 82410 10077 20071 30013 40074 56008 78100 8////
333 82/06 87/08 88/09 91012 91112 91210=
06252 46/// /2213 10089 20069 30057 40103 58011 222// 00097 10604
333 91015 91115 91213=
06260 47356 82105 10050 20034 30146 40148 56010 71010 8////
333 88/08 91007 91109 91205=
06270 47356 82207 10062 20050 30122 40122 56008 71010 8////
333 86/07 88/08 91010 91110 91208=
06290 47358 82004 10051 20035 30109 40150 58008 71000 8////
333 85/09 88/10 91006 91107 91204=
0000166800
743
SNNL51 EHDB 110200
AAXX 11021
06201 47258 82310 10076 20065 30025 40077 58010 75286 8////
333 82/05 84/07 86/10 91012 91112 91210=
06203 47363 8//12 10092 20071 30067 40118 56009 75180 8////
333 81/07 84/11 86/13 91014 91114 91212=
06204 47464 82512 10092 20068 30060 40111 56008 75700 8////
333 82/10 85/12 87/16 91014 91115 91213=
06205 47050 82309 10069 20062 39999 40058 58010 78151 8////
333 82/01 85/03 88/04 91011 91111 91210=
06208 47250 82109 10069 20056 30068 40117 58007 72286 8////
333 82/05 88/07 91011 91111 91209=
06211 47259 72210 10073 20063 30038 40094 57006 78180 8////
333 81/06 85/31 87/35 91012 91115 91212=
06212 45366 82311 10091 20070 3//// 4//// 5//// 8////
333 81/08 83/11 86/14 91013 91114 91212=
06235 47357 82110 10070 20061 30125 40125 56007 71000 8////
333 87/07 88/08 91012 91114 91210=
06240 47356 82006 10056 20042 30147 40142 55008 71011 8////
333 83/09 88/10 91008 91109 91206=
06251 41/57 /2210 10071 20063 30112 40113 56008 7//00
333 91013 91114 91211=
06258 46/// /2112
333 91013 91113 91212=
06269 47456 82107 10053 20039 30146 40140 57008 71010 8////
333 85/10 86/12 86/16 91010 91110 91207=
06280 47341 82107 10059 20048 30127 40131 56005 75180 8////
333 82/07 87/09 88/10 91010 91110 91207=
06310 47350 82108 10049 20037 30142 40152 56009 71011 8////
333 88/07 91009 91111 91208=
06344 47356 82005 10050 20037 30153 40146 56009 71000 8////
333 83/09 87/10 88/60 91007 91110 91207=
06370 45361 72003 10034 20023 30134 40160 56008 8////
333 84/08 87/09 91004 91106 91204=
06380 45968 02005 10019 20008 30028 40170 56009
333 91006 91106 91205=
0000078000
744
SNNL52 EHDB 110200
AAXX 11021
06210 47357 82005 10057 20039 30142 40142 56010 71011 8////
333 83/09 88/10 91008 91108 91206=
06225 46/// /2112
333 91014 91114 91212=
06242 47258 72112 10075 20067 30113 40115 57007 71086 8////
333 83/06 85/10 86/13 91014 91116 91213=
06257 46/// ///// 10064 20049=
06275 47356 82105 10043 20032 30095 40151 56010 71000 8////
333 88/07 91008 91109 91206=
06330 46/// /2109 10053 20038 30131 40145 56008
333 91012 91112 91209=
06340 47358 82104 10044 20029 30136 40155 58008 71000 8////
333 87/07 88/09 91006 91107 91204=
06350 47359 82105 10040 20025 30141 40156 56008 71010 8////
333 88/07 91007 91107 91205=
06375 45361 72204 10037 20025 30133 40158 56009 8////
333 84/08 87/10 91006 91108 91206=
0000101100
745
SNNL53 EHDB 110200
AAXX 11021
06248 46/// /2109
333 91010 91111 91209=
06249 47/58 /2106 10061 20047 71010
333 91007 91109 91206=
06267 47456 62107 10062 20048 71065 8////
333 83/10 84/12 86/15 91009 91110 91207=
06273 47/50 /2006 10056 20046 72381
333 91008 91109 91206=
06277 46/// /2108 10065 20056
333 91012 91113 91209=
06278 46/// /2104 10053 20037
333 91006 91106 91204=
06279 47350 82205 10055 20042 30118 40138 58006 78151 8////
333 81/09 85/10 87/13 91007 91109 91206=
06283 46/// /2104 10046 20032
333 91007 91107 91204=
06286 46/// /2106 10059 20048
333 91008 91110 91207=
06319 41/57 /1905 10044 20028 30153 40155 58010 7//00
333 91008 91108 91205=
06348 47/50 /2105 10046 20033 30150 40149 56006 71010
333 91007 91108 91206=
06356 463// 72105 10044 20031 30151 40152 56007 8////
333 87/08 87/59 91007 91109 91206=
06377 47957 01802 10006 21001 71010
333 91003 91103 91202=
06391 46/// /2103 10030 20021
333 91005 91105 91203=
0000040600
746
SNNL54 EHDB 110200
AAXX 11021
06209 NIL=
06285 NIL=
06308 NIL=
06311 NIL=
06312 NIL=
06313 NIL=
06315 NIL=
06316 NIL=
06320 46/58 /2312 10059 20055 30114 40141 55005 222// 00080 10503
333 91014 91114 91212=
06321 46/62 /2111 10074 20058 30114 40138 56008 222// 00086 10503
333 91014 91114 91212=
06324 NIL=
06331 NIL=
06343 46/// /2107
333 91010 91110 91207=
0000012800
747
SNFP20 LFVP 110200
AAXX 11024
71805 24586 /2623 11029 21080 30239 40248 58007 700//
  333 60005 90710 91133=
0000091300
748
UDAS02 BABJ 110159
AMDAR 1101
LVR CNFOZM 3510N 11723E 110155 F246 MS365 264/051 TB/ S//1=
LVR CNFOZM 3507N 11722E 110156 F246 MS364 260/052 TB/ S//1=
LVR CNFOZM 3503N 11720E 110156 F246 MS365 263/053 TB/ S//1=
LVR CNFOZM 3500N 11719E 110157 F246 MS364 263/054 TB/ S//1=
ASC CNFPYM 2438N 11801E 110155 F178 MS100 255/052 TB/ S//1=
ASC CNFPYM 2442N 11801E 110156 F192 MS090 267/064 TB/ S//1=
ASC CNFPYM 2446N 11801E 110156 F206 MS113 261/073 TB/ S//1=
ASC CNFPYM 2450N 11801E 110157 F215 MS133 257/074 TB/ S//1=
ASC CNFOZN 4005N 11637E 110154 F002 MS043 286/001 TB/ S//1=
ASC CNFOZN 4005N 11637E 110155 F004 MS046 199/002 TB/ S//1=
ASC CNFOZN 4006N 11637E 110155 F007 MS045 267/003 TB/ S//1=
ASC CNFPTK 3907N 11721E 110157 F000 MS021 289/005 TB/ S//1=
ASC CNFPTK 3906N 11721E 110157 F004 MS018 277/008 TB/ S//1=
ASC CNFPTK 3906N 11722E 110157 F007 MS011 268/011 TB/ S//1=
0000147100
749
UDAS02 BABJ 110201
AMDAR 1102
ASC CNFOZN 4006N 11637E 110155 F009 MS039 291/014 TB/ S//1=
ASC CNFOZN 4007N 11638E 110155 F013 MS030 290/019 TB/ S//1=
ASC CNFPTK 3906N 11722E 110158 F010 MS008 251/014 TB/ S//1=
ASC CNFPTK 3905N 11722E 110158 F016 MS013 238/018 TB/ S//1=
DES CNFPQK 3819N 11410E 110156 F094 MS123 274/015 TB/ S//1=
DES CNFPQK 3819N 11412E 110156 F092 MS120 264/015 TB/ S//1=
DES CNFPQK 3821N 11417E 110157 F084 MS109 272/016 TB/ S//1=
DES CNFPQK 3823N 11421E 110158 F074 MS093 282/016 TB/ S//1=
ASC CNFOZN 4009N 11639E 110156 F025 MS044 247/015 TB/ S//1=
ASC CNFOZN 4009N 11642E 110156 F044 MS081 264/015 TB/ S//1=
ASC CNFOZN 4010N 11645E 110157 F057 MS113 274/027 TB/ S//1=
DES CNFOZL 3711N 12544E 110157 F141 MS205 297/035 TB/ S//1=
DES CNFOZL 3710N 12550E 110157 F124 MS174 297/032 TB/ S//1=
DES CNFOZL 3710N 12552E 110158 F117 MS161 302/031 TB/ S//1=
DES CNFOZL 3710N 12559E 110159 F102 MS135 302/029 TB/ S//1=
ASC CNFOZN 4011N 11649E 110157 F074 MS135 265/027 TB/ S//1=
ASC CNFOZN 4010N 11652E 110158 F087 MS153 275/029 TB/ S//1=
ASC CNFOZN 4009N 11656E 110159 F103 MS185 272/033 TB/ S//1=
ASC CNFOZN 4009N 11657E 110159 F105 MS185 272/033 TB/ S//1=
ASC CNFPYM 2454N 11801E 110157 F224 MS140 251/077 TB/ S//1=
ASC CNFPYM 2458N 11801E 110158 F232 MS133 259/077 TB/ S//1=
LVR CNFPYM 2502N 11801E 110159 F236 MS139 261/079 TB/ S//1=
ASC CNFPYM 2506N 11801E 110159 F244 MS158 259/082 TB/ S//1=
0000066500
750
UDAS02 BABJ 110202
AMDAR 1102
ASC CNFPTK 3904N 11720E 110158 F026 MS025 220/014 TB/ S//1=
ASC CNFPTK 3905N 11717E 110159 F040 MS056 231/017 TB/ S//1=
ASC CNFPTK 3905N 11715E 110159 F052 MS083 256/019 TB/ S//1=
ASC CNFPTK 3905N 11714E 110200 F055 MS091 257/021 TB/ S//1=
ASC CNFLWN 4006N 11634E 110200 F003 MS036 257/000 TB/ S//1=
LVR CNFNXQ 2909N 10643E 110151 F311 MS388 257/093 TB/ S//1=
LVR CNFNXQ 2932N 10643E 110154 F311 MS395 255/094 TB/ S//1=
LVR CNFNXQ 2955N 10647E 110157 F311 MS410 253/089 TB/ S//1=
LVR CNFNXQ 3018N 10700E 110200 F311 MS423 255/086 TB/ S//1=
ASC CNFLWN 4007N 11634E 110200 F008 MS031 281/013 TB/ S//1=
0000179200
751
SZPS01 AMMC 110209
CREX++
T000103 A001 D01021 D06025++
-0204190 14737360 56130 2014 01 11 02 02 3027 11 07 00 01
01148 0186 01146 0182 01146 0181 01142 0176 01145 0178 01143 0175+
-0669280 15640860 56363 2014 01 11 02 02 //// 11 07 00 01
01131 -0055 01128 -0058 01126 -0060 01124 -0062 01124 -0061 01124 -0062+
-0942890 15995560 56670 2014 01 11 02 02 3038 11 07 00 01
00983 -0051 00981 -0053 00982 -0052 00981 -0052 00980 -0053 00983 -0049+
-1072080 16580190 57131 2014 01 11 02 02 //// 11 07 00 01
03378 2207 03378 2207 03378 2206 03378 2206 03378 2205 03378 2205+
-1551560 16718860 57210 2014 01 11 02 02 //// 11 07 00 01
01340 -0103 01333 -0112 01327 -0119 01347 -0100 01332 -0117 01335 -0115+
-1775690 16830030 57320 2014 01 11 02 02 3015 11 07 00 01
01266 -0048 01267 -0049 01268 -0049 01267 -0052 01270 -0050 01272 -0050+
-4397330 16861610 65180 2014 01 11 02 02 2883 11 07 00 01
01133 0379 01146 0391 01121 0366 01132 0376 01117 0361 01119 0362+
-2120470 -15978530 65980 2014 01 11 02 02 3012 11 07 00 01
00900 0042 00905 0046 00883 0023 00904 0043 00937 0075 00932 0069+
-2113810 -17518140 66600 2014 01 11 02 02 //// 11 07 00 01
01617 0083 01617 0081 01628 0090 01628 0088 01629 0087 01636 0093+
-1382670 -17176110 66840 2014 01 11 02 02 3010 11 07 00 01
01276 0088 01284 0095 01282 0093 01283 0093 01291 0100 01291 0100+
-1813250 17842750 67050 2014 01 11 02 02 3032 11 07 00 01
01821 0096 01818 0091 01826 0097 01829 0097 01832 0098 01826 0090+
-1760530 17743810 67070 2014 01 11 02 02 3032 11 07 00 01
01935 0029 01938 0030 01939 0028 01942 0029 01946 0030 ///// ////+
-0850250 17919500 67440 2014 01 11 02 02 3030 11 07 00 01
02606 -0003 02602 -0007 02602 -0008 02610 -0001 02615 0004 02610 -0001++
7777

00000000