0000044800
059
UEEG01 HECA 110000
TTDD  6100/ 62306 11837 677// 22698 653// 33608 689//
44551 645// 55518 661// 66476 651// 77441 585// 88409
571// 99380 593// 11292 545// 22274 555// 21212 11880
30551 22821 29055 33767 31551 44711 31549 55664 30039
66630 32037 77572 29524 88503 32029 99480 34035 11462
33034 22447 34538 33419 00531 44398 00521 55377 01526
66351 34528 77325 33526 88288 36026 99274 33528 31313
48008 82331=



0000021300
060
SNVD20 KWNB 110100 RRM
BBXX
42085 11011 99179 70665 46/// /0808 10260 40175 90050 333 91209
555 11088 22096=
42085 11011 99179 70665 46/// /0807 10259 40175 90040 333 91209
555 11083 22090=
0000015800
061
SNVD20 KWNB 110100 RRL
BBXX
42085 11011 99179 70665 46/// /0708 10260 40176 52022 90100 22200
00268 10703 70015 333 91209 555 11086 22093=
0000055000
062
UKPM01 MPCZ 110000
78807 TTBB 61008 78807
00006 26640 11952 23844 22936 24257 33871 19026 44819
16035 55760 14268 66747 12456 77731 11436 88642 04856
99636 04032 11614 02620 22558 01350 33555 01360 44551
01368 55547 01959 66543 01391 77517 04570 88513 03985
99506 04397 11490 05171 22477 06398 33474 06938 44469
07320 55465 06398 66459 07196 77457 07565 88450 08760
99437 08996 11418 10197 22402 12775 33302 31771 44250
41374 55/// ///// 66224 47969 77141 727// 88121 763//
99100 797//
31313 48008 82328=



0000036600
063
USPM01 MPCZ 110000
78807 TTAA 61001 78807
99006 26640 36006 00062 26442 34012 92747 23256 05010
85478 17829 05007 70120 09448 11506 50584 04799 14009
40757 13174 12009 30968 32171 30510 25094 41374 29039
20241 54365 31544 15419 693// 36040 10654 797// 06020
88999
77999
31313 48008 82328
51515 10164 00091 10194 01511 06008=



0000011000
064
UANT99 KDDL 110117
ARP UAL84 4810N02845W 0117 F350 MS57 223/51 KT
N57016 DDL XXW 110117 F68A
0000011000
065
UANT99 KDDL 110117
ARP DLH401 5111N02838W 0117 F370 MS58 208/56 KT
DABTL QXT EUA 110118 F98A
0000022200
066
UAAK04 KAWN 110100
DLG UA /OV DLG/TM 0100/FL200/TP B737/SK OVC010-TOP060/TB NEG/IC
 TRACE RIME/RM ZAN DURC=
KTN UA /OV ANN281037/TM 0114/FL340/TP B738/TA M57/WV 225119KT/TB
 NEG/RM ASA101 AWC-WEB/ASA=
0000020600
067
UGVS01 VNNN 110000 RRA
PPBB 11001 48914 90123 08011 06509 05507 80124 07012 05007 09008 808// 09504 810// 09503 61616 13692 07506 08011 06509 05507 05508 81476 08008 09507 10506 10005 09004=
0000011300
068
SIOM20 OOMS 102100 RRJ
AAXX 10214
41276 36/// /0809 10150 20105 30053 40215
333 0E017 58018 =
0000010700
069
SAME31 OEJD 110100 RRA
METAR OJAI 110100Z 00000KT 3000 BR SCT200 05/04 Q1021 TEMPO 2000 FG=
0000021400
070
SAME31 OLBA 110100 RRA
METAR OSDI 110100Z 00000KT 0100 FG FEW030 M01/M02 Q1021=
METAR OSLK 110100Z 06004KT CAVOK 04/00 Q1021=
METAR OJAI 110100Z 00000KT 3000 BR SCT200 05/04 Q1021 TEMPO 2000 FG=
0000016000
071
SPUR31 UKMS 110108
SPECI UKCW 110108Z 22008MPS 2400 -SHRA BR BKN008
BKN020CB 05/04 Q1001 2729//60 TEMPO 25012G20MPS 1000 BR
BKN003 BKN015CB=
0000178400
072
SAIR31 OIII 110100
 METAR OIAA 110100Z 12004KT 5000 RA FEW030CB SCT035 OVC090 13/11
 Q1017=
 METAR OIAG 110053Z 13012KT 8000 SHRA SCT035CB BKN040 11/09 Q1019
 RESHRA=
METAR OIAH 110100Z 10012KT 6000 -RA SCT040 OVC090 10/03 Q1018=
 METAR OIAI 110100Z 16004KT 5000 RA FEW035CB SCT040 OVC070 09/08
 Q1017=
 METAR OIAM 110100Z 10010KT 3500 BR FEW030CB SCT040 OVC080 12/12
 Q1018=
 METAR OIAW 110100Z 09006KT 2000 RA FEW030CB SCT035 OVC080 11/11
 Q1018=
METAR OIBA NIL=
 METAR OIBB 110050Z 09006KT 9999 FEW030CB SCT040 OVC090 15/09 Q1019
 A3009=
METAR OIBK 110050Z 10010KT 9999 FEW030CB FEW035 17/03 Q1019=
METAR OIBL NIL=
METAR OIBS NIL=
 METAR OICC 110050Z 11014KT 5000 BR FEW035CB SCT040 BKN080 M01/M02
 Q1018 A3009 RESN=
 METAR OICI 110100Z 14006KT 8000 SCT025 FEW030CB OVC070 03/03 Q1017
 A3004=
METAR OICJ NIL=
 METAR OICK 110050Z 26004KT 7000 RA FEW035CB SCT040 OVC070 02/01
 Q1019=
METAR OICS 110100Z 00000KT 3000 SN BR SCT035 OVC070 M04/M05 Q1020=
METAR OIFK 110100Z 00000KT 9999 SCT035 OVC100 M01/M05 Q1024=
 METAR OIFM 110050Z 00000KT 0500 FG FEW040 BKN100 M04/M04 Q1020
 A3014=
METAR OIFS 110100Z 00000KT 9999 SCT040 M11/M13 Q1021=
METAR OIGG 110100Z 00000KT 3000 BR SKC 02/02 Q1018=
METAR OIGK NIL=
METAR OIHH NIL=
METAR OIHM 110100Z 32006KT 6000 -SN FEW035 OVC090 M05/M06 Q1017=
METAR OIIE 110100Z 29004KT CAVOK M01/M06 Q1021 A3015 NOSIG=
 METAR OIII 110100Z 00000KT 6000 FEW040 BKN100 01/M06 Q1020 A3014
 NOSIG=
METAR OIIK 110100Z 00000KT CAVOK M02/M06 Q1021=
METAR OIIP NIL=
METAR OIIS 110100Z 34002KT 9999 FEW035 SCT190 M00/M05 Q1022=
METAR OIKB 110050Z 04008KT CAVOK 12/05 Q1020 A3014=
METAR OIKK 110100Z 00000KT CAVOK M05/M08 Q1021 A3016=
METAR OIKO NIL=
METAR OIKQ NIL=
0000077900
073
SAUZ31 UTTW 110100
METAR UTFN 110100Z VRB01MPS M0050 R28/0050N FZFG VV000 M08/M09 Q1029
R28/CLRD70 NOSIG RMK QBB020=
METAR UTNN 110100Z 00000MPS 8000 BKN036 M03/M04 Q1020 R33/CLRD60
NOSIG=
METAR UTNU 110100Z NIL=
METAR UTSA 110100Z 11004MPS 9000 NSC M02/M07 Q1023 R07/CLRD70 NOSIG=
METAR UTSB 110100Z 11002MPS 080V140 4500 BR NSC M02/M05 Q1023
R01/CLRD70 NOSIG=
METAR UTSK 110100Z NIL=
METAR UTSS 110100Z NIL=
METAR UTST 110100Z 05001MPS 2400 BR NSC M05/M05 Q1027 R88/CLRD70
TEMPO 1500 BR=
METAR UTFA 110100Z 00000MPS M0050 R04/M0050N FZFG VV001 M07/M08 Q1029
R88/09//70=
METAR UTFF 110100Z 22001MPS M0050 R18/M0050N FZFG VV001 M09/M10 Q1028
R99/CLRD70 RMK QBB040=
METAR UTTT 110100Z 08003MPS CAVOK M04/M09 Q1024 R08L/CLRD70 NOSIG=
0000023600
074
ULCN06 CWAO 110000 COR
TTCC 61001 71964
70789 55781 29080 50002 56981 30104 30326 57981 31115 20580
62779 32135 10018 39587 32708 07267 33389 33731
88218 62179 31623
77075 33734=








NNNN

0000046200
075
SNVD15 KWNB 110100 RRK
BBXX
44064 11011 99370 70760 46/// /1405 10071 40237 90110 333 91206
555 11057 22062=
44062 11011 99386 70764 46/// /0204 10021 40251 90110 333 91204
555 11045 22049=
44063 11011 99390 70764 46/// /0602 10016 40237 90110 333 91202
555 11022 22024=
44041 11011 99372 70768 46/// /1303 10049 90110 333 91205 555
11039 22043=
44042 11011 99380 70763 46/// /0903 10043 40234 90110 333 91203
555 11031 22034=
0000011200
076
SNVD01 PANC 100100 RRK
BBXX
WYP8657 10014 99461 70840
43/// /1412 11009 40106
2227/ 00000=
0000028800
077
SNVD01 PANC 110100 RRD
BBXX
PBIG 11013 99107 70827
41698 30710 10270 20213 40120 55012 70200 83407
22284 00294 20502 304// 40503=
9HJB9 11014 99195 70675
41598 50824 10250 20207 40210 54000 7//21 844//
22275 00260 20706 3//// 40705 5//// 6//// 80220 ICE /////=
0000021300
078
SNVD20 KWNB 110100 RRN
BBXX
44059 11011 99368 70763 46/// /1503 10076 40231 90110 333 91204
555 11038 22041=
44058 11011 99376 70763 46/// /1603 10057 40240 90110 333 91203
555 11034 22036=
00000000