0000011600
916
SMIN90 VAAK 111200
AAXX 11124
42933 32997 53202 10256 20086 40125 80008
  333 10286 58026 85270=
0000010800
917
SSVF50 LFPW 110235 RRA
ZZYY 61188 11014 0235/ 142490 003168 22219 00128 10501 20050
21003=
0000010800
918
SSVF50 LFPW 110305 RRA
ZZYY 61188 11014 0305/ 142490 003168 22219 00129 10500 20050
21002=
0000014600
919
SIVC10 EHDB 110300 RRA
BBXX
TBWUK67 11034 99024 70793 41398 52613 10268 20230 40101 54000 7//22
85730 22253 00260 20501 80242=
0000011100
920
UANT01 CWAO 110319
ARP UAL132 5011N03444W 0319 F360 MS54 208/47 KT
N69059 DDL XXW 110319 F29A
0000011000
921
UANT01 CWAO 110319
ARP AFL103 5223N04857W 0318 F330 MS62 304/83 KT
VQBPK QXT AME 110319 J15A
0000011100
922
UANT01 CWAO 110319
ARP UAL921 5559N03950W 0319 F350 MS57 240/22 KT
N660UA DDL XXW 110319 F97A
0000011100
923
UANT01 CWAO 110319
ARP AWE754 4743N04132W 0319 F390 MS53 287/39 KT
N288AY DDL XXN 110319 J28A
0000011100
924
UANT01 CWAO 110319
ARP UAL958 5502N03116W 0319 F370 MS54 221/54 KT
N656UA DDL XXW 110319 F61A
0000011000
925
UANT01 CWAO 110319
ARP DLH431 5503N03844W 0319 F310 MS58 263/20 KT
DABYH QXT AME 110319 F44A
0000011000
926
UANT01 CWAO 110319
ARP AFR351 4848N04108W 0319 F370 MS53 307/36 KT
FGSPL QXT AOW 110319 F13A
0000011000
927
UANT01 CWAO 110319
ARP UAL27 4720N04836W 0319 F360 MS64 329/60 KT
N17122 DDL YYT 110319 F58A
0000011000
928
UANT01 CWAO 110319
ARP KLM678 5905N04650W 0319 F410 MS59 250/33 KT
PHAOK QXS UAK 110319 J92A
0000059800
929
SSVX08 KARS 110318
ZZYY 52007 10014 1200/ 308031 164802 6112/
33311 88872 20001 33060 43420 20025 32988 43453 20050 32895 43493
20075 32764 20100 32729 20125 32589 20150 32479 20200 32075
20250 31633 20300 31285 20500 30764
444 20120 10014 1053/ 521//=
ZZYY 52004 10014 0000/ 305008 165171 6111/
33311 88870 20001 33066 20025 33001 20075 33033 20100 32928
20150 32662 20200 32047 20250 31393 20300 31040 20500 30819
444 20110 10014 0128/ 521//=
ZZYY 52004 11014 02004 305009 165173 6112/
11119 02906 10297 29076
22219 00312
444 20120 11014 0256/ 521// 60401=
0000025900
930
SIZW21 FVHA 110300
AAXX 11034
67867 42980 40000 10173 20166 38578 48505 83032 333 58008 83359=
67965 42975 12001 10181 20171 38687 48511 81030 333 58013 81360=
67969 NIL=
67991 42975 21102 10257 20195 39577 48506 82032 333 58021 82360=
0000037900
931
SISY20 OSDI 110300
AAXX 11031
40001 NIL=
40007 NIL=
40009 NIL=
40016 NIL=
40022 42965 00401 10074 20002 40204 56003=
40025 42960 00602 10034 21005 40212 56004=
40030 NIL=
40039 NIL=
40045 NIL=
40061 NIL=
40066 NIL=
40072 NIL=
40080 41501 20000 11014 21018 39489 40223 53005 74010 83100 333
83830=
40083 NIL=
40087 NIL=
40095 NIL=
0000033700
932
SICI21 BABJ 110300 RRA
AAXX 11031
51243 32965 03202 11211 21245 40487 52003=
51288 32980 21102 11136 21214 38434 52005 82///=
51463 32980 01801 11100 21187 40420 57001=
51709 32965 42502 11100 21134 40462 52011 84///=
52983 32980 70401 11056 21229 38208 52016 87///=
54471 42962 02202 11016 21097 40304 57012=
0000037300
933
SICI22 BABJ 110300 RRA
AAXX 11031
58040 31930 02201 10036 21022 40339 57004 70540=
58238 31529 80904 10044 20019 40327 52003 76060 88///=
58251 31955 70903 10049 21009 40331 57003 70500 87///=
58457 41/09 90701 10055 20046 40317 52002 76084=
58752 31756 82702 10097 20045 40300 57004 70500 88///=
59758 32470 60706 10224 20182 40229 52011 86///=
0000043900
934
SICI23 BABJ 110300 RRA
AAXX 11031
50136 32970 22902 11298 21332 40351 52009 82///=
51431 32980 00702 11155 21176 40385 57012=
52203 32980 00702 11117 21203 40491 52018=
53614 31934 73401 11061 21164 40389 52014 70500 87///=
53646 32975 03601 11065 21220 40380 52014=
53845 32970 00901 11048 21169 40383 52009=
54094 42956 52508 11119 21217 40269 57003 85///=
57127 32961 81601 10039 20011 40351 52019 88///=
0000010400
935
SICI28 BABJ 102100 CCD
AAXX 10211
55578 32/// 90000 11082 21235 36353 52004 333 00101=
00000000