0000011000
236
UANT01 CWAO 110325
ARP UAL25 4644N05137W 0325 F390 MS60 304/59 KT
N13113 DDL YYT 110325 F86A
0000011000
237
UANT01 CWAO 110325
ARP DAL98 5506N04416W 0324 F360 MS61 302/42 KT
N833MH QXT AOW 110325 F52A
0000011100
238
UANT01 CWAO 110325
ARP UAL928 5547N05339W 0325 F350 MS61 286/84 KT
N663UA DDL YHO 110325 F43A
0000011000
239
UANT01 CWAO 110325
ARP DLH425 4740N05133W 0325 F380 MS62 308/58 KT
DAIHY QXT AME 110325 J77A
0000011000
240
UANT01 CWAO 110325
ARP ACA870 4722N04829W 0325 F340 MS61 326/68 KT
CFNNQ DDL YYT 110325 F03A
0000027800
241
SIQB21 LQSM 110300
AAXX 11031
14648 42665 82701 10083 20073 30111 40232 51001 8257/ 333 82646 88461
=
14652 41882 42702 11015 21032 37953 48519 54000 70141 84050 333 84356
=
14542 41630 80000 10057 20045 30033 40225 57002 71022 885// 333 88640
95990=
0000011200
242
SIQB20 LQSM 110300
AAXX 11031
14654 42765 61401 10058 20023 39473 40225 50001 86500 333 86650=
0000042000
243
SSVX08 KARS 110324
ZZYY 32322 10014 12004 501979 095188 6112/
11119 01810 10237 29087
22219 00237
33311 88872 20000 32366 20001 32383 43474 20020 32334 20040 32268
20060 32002 20080 31522 20100 31416 20120 31396 20140 31380
20500 30816
444 20120 10014 1253/ 521// 60401=
ZZYY 32322 11014 03004 501978 095195 6112/
11119 01712 10242 29089
22219 00241
444 20120 11014 0128/ 521// 60401=
0000011000
244
UANT01 CWAO 110325
ARP NVR712 5041N04833W 0324 F390 MS62 311/52 KT
EILAX DDL XXN 110325 J94A
0000010900
245
UANT01 CWAO 110325
ARP BAW9E 4855N04027W 0325 F400 MS53 271/30 KT
GVIIB QXT AOW 110325 F11A
0000073700
246
SIIV20 DIAP 110300
AAXX 11034
65528 NIL=
65536 NIL=
65545 42956 00000 10236 20209 39695 40096
  333 59001=
65548 NIL=
65555 NIL=
65557 42456 5//// 10236 20229 39869 40106 85500
  333 58005 85611=
65560 42458 2//// 10235 20228 39787 40092 82500
  333 59001 82613=
65562 42460 4//// 10252 20241 3//// 4//// 84500
  333 5//// 84613=
65563 42958 02204 10238 20222 39867 40106
  333 58001=
65578 42558 70604 10257 20249 30097 40104 87500
  333 59003 87620=
65585 42958 0//// 10244 20229 30065 40103
  333 58000=
65592 42458 1//// 10240 20237 30069 40091 81500
  333 59006 81613=
65594 NIL=
65599 41460 5//// 10245 20241 30020 40094 71799 83930
  333 58004 83913 84360 94943 85833=
0000104000
247
SIMI20 GABS 110300
AAXX 11034
61202 NIL=
61214 NIL=
61223 NIL=
61226 NIL=
61230 42960 73602 10218 20056 3//// 4//// 84042
  333 5//// 84365 84075=
61233 42960 71402 10260 20054 39815 40106 87072
  333 58008 87365=
61235 42960 73604 10240 20056 39997 40109 85042
  333 58015 85365 83075=
61240 NIL=
61250 NIL=
61257 42960 30000 10215 20077 30058 40114 83040
  333 58021 83365=
61265 42960 40404 10199 20050 39807 40110 80002
  333 58006 84075=
61270 42960 20000 10222 20090 39740 40109 82040
  333 58008 82465=
61272 42960 30804 10235 20097 39795 40114 80002
  333 58019 83075=
61277 42960 00000 10208 20104 39798 40116
  333 58009=
61285 42960 60000 10215 20095 39966 40115 85072
  333 58012 85365 83075=
61291 42960 20000 10185 20085 39680 40095 81042
  333 58000 81362=
61293 42960 00000 10200 20100 39699 40089
  333 59001=
61296 42960 60000 10195 20123 39708 40096 80002
  333 58003 86075=
61297 42960 31206 10207 20090 39634 40088 80002
  333 59003 83075=
0000013800
248
SIKZ30 UAAA 110300 RRA
AAXX 11031
35576 32698 81807 11103 21153 39808 40275 57016 885// 333   47009
555   21123 7000/=
0000013800
249
SIKZ30 UAAA 110300 RRB
AAXX 11031
35699 32998 70202 11174 21193 39560 40379 57010 80003 333   47010
555   21195 7000/=
0000011200
250
SITA20 UTDD 110300 RRE
AAXX 11031
38847 31992 70000 11078 21084 40357 53001 80004 333   47003=
0000011000
251
UANT01 CWAO 110326
ARP SAS904 5612N03925W 0325 F390 MS56 257/23 KT
LNRKO DDL XXW 110326 J33A
0000011100
252
UANT01 CWAO 110326
ARP LOT6202 4605N02925W 0325 F400 MS49 337/51 KT
SPLRC DDL XXN 110326 L24A
0000011000
253
UANT01 CWAO 110326
ARP UAL91 5933N01716W 0326 F340 MS45 217/42 KT
N77022 DDL XXN 110326 F42A
0000010900
254
UANT01 CWAO 110326
ARP BAW94 5157N05437W 0326 F360 MS65 294/59 KT
GYMMB QXS YAY 110326 F03A
0000013800
255
SIKZ30 UAAA 110300 CCA
AAXX 11031
35576 32698 81807 11103 21153 39808 40275 57016 885// 333   47009
555   21123 7000/=
00000000