0000011100
176
UANT01 CWAO 110323
ARP DAL116 4715N04413W 0323 F350 MS57 324/61 KT
N175DZ QXT AOW 110323 F27A
0000012100
177
UAUS31 KWBC 110324
ARP UAL452 3915N 10013W 0312 F350 MS46 285/020KT TB NOT REPORTED
    RM B752 OV HLC=
0000037000
178
UAPA01 KWBC 110324
ARP ASA859 4530N 12643W 0315 F350 MS56 250/060KT TB LGT CHOP=
ARP DAL648 2100N 14512E 0313 F370 MS48 277/039KT=
ARP ASA854 47N 140W 0313 F370 MS56 255/090KT TB SMTH=
ARP ASA845 38N 148W 0313 F360 MS61 290/073KT=
ARP HAL46 3024N 14042W 0315 F340 MS42 229/028KT TB LGT=
ARP OAE107 3024N 14042W 0318 F370 MS46 260/055KT TB SMTH=
0000011000
179
UANT01 CWAO 110324
ARP AFR333 4624N04813W 0324 F380 MS60 316/62 KT
FGSPU DDL YYT 110324 F10A
0000011000
180
UANT01 CWAO 110324
ARP DLH429 4723N03329W 0323 F370 MS49 222/36 KT
DAIKP QXT EUA 110324 J98A
0000010900
181
UANT01 CWAO 110324
ARP KLM24 5600N03906W 0323 F330 MS59 242/12 KT
PHBFI QXT AOW 110324 F30A
0000024800
182
SIAG01 SABM 110300 RRC
AAXX 11034
87129 41662 70905 10318 20212 39801 40020 52028 71322 83576 333
56266 83635 84365 87275=
87289 41462 80908 10212 20203 30014 40095 50015 72999 8597/ 333 56309
 57960 85618 81945 88360 96013=
0000563400
183
SIXX40 ETGT 110300 RRA
AAXX 11031
40701 41940 00000 11182 21190 38627 40369 56010 71000 333 21186
555 11180 29094 66666 01058 11050 21036 31028 50014 90054=
40703 41510 80000 11118 21128 38988 40351 57012 71022 886// 333
21144 88725 555 11117 29093 66666 01060 11052 21030
30000 50036 90080=
40704 42970 33106 11026 21102 38605 40223 57009 80002 333 21050
83070 555 11047 29056 66666 01040 11040 21030 31018 50006 90070=
40706 41958 40603 11102 21137 38672 40303 55016 70511 80002 333
21110 84068 555 11107 29076 66666 01084 11066 21036 31026 50006
90054=
40708 42965 01911 11018 21086 38656 40207 57012 333 21030 555
11038 29060 66666 01032 11028 21020 31016 50006 90060=
40710 42662 20000 11160 21179 38328 40344 55007 81501 333 21174
82067 555 11160 29086 66666 01084 11074 21058 31044 51018 90056=
40712 41620 72702 11110 21128 38706 40309 56011 71022 82508 333
21112 82635 87264 555 11111 29087 66666 01034 11036 21030 31016
50004 90054=
40713 41408 89901 11090 21094 38690 40303 56013 74244 8462/ 333
21110 84710 88459 555 11088 29097 66666 01040 11042 21008 31022
50036 90092=
40716 42960 40000 11054 21098 38947 40272 57009 80002 333 21064
84068 555 11064 29071 66666 01018 11004 20010 30016 50050 90096=
40718 42960 02702 10064 20050 30219 40189 57016 333 20064 555
10058 29091 66666 00064 10076 20086 30092 50104 90118=
40719 41220 70000 10018 20013 30201 40190 56015 71000 87600 333
20014 87706 555 10016 29096 66666 00032 10050 20074 30082 50100
90126=
40721 42960 21512 10086 21074 39654 40202 57012 80001 333 20078
82070 555 10032 29032 66666 00058 10060 20064 30070 50085 90118=
40729 42660 50000 11062 21084 38347 40277 58005 81105 333 21102
81835 85269 555 11066 29085 66666 01048 11046 21030 31026 50006
90048=
40731 42960 73602 11013 21050 38756 40251 57014 80006 333 21035 87269
555 11025 29076 66666 01008 11004 20012 30022 50036 90072=
40732 42960 69901 10054 20035 30207 40182 56012 80006 333 20042
86268 555 10046 29087 66666 00050 10058 20072 30082 50096 90112=
40736 42960 00000 10042 20022 30215 40189 57014 333 20042 555
10034 29087 66666 00050 10054 20080 30090 50104 90126=
40738 41557 60000 10028 20023 30207 40209 57010 71010 83650 333
      20020 83725 85359 555 10026 29096 66666 00034 10050 20064
      30078 50100 90126=
40739 42665 30000 11038 21080 38714 40264 56007 83500 333 21040
83635 555 11049 29073 66666 01022 11008 20010 30030 50044 90083=
40740 42960 30902 11086 21117 38747 40247 56009 80006 333 21088
83270 555 11091 29078 66666 01045 11022 21007 30005 50026 90063=
40743 42965 50804 11010 21091 39112 40266 58003 80002 333 21024
85070 555 11034 29054 66666 00006 10026 20060 30074 50090 90124=
40745 42660 61502 11033 21097 39068 40255 55003 82502 333 21039
82635 86068 555 11050 29061 66666 01028 11014 20020 30034 50048
90097=
40747 41645 71901 11042 21047 38652 40257 55004 71072 84520 333 21046
84635 87458 555 11042 29096 66666 00002 10006 20020 30026 50050
90086=
40754 41657 60000 10016 21047 38853 40236 53006 70522 82570
333 20000 82640 85460 555 11007 29063=
40757 42660 53301 11004 21046 38932 40256 56009 82506 333 21008
82635 85269 555 11018 29074 66666 01010 10010 20030 30050 50056
90098=
40762 42962 63102 11055 21094 38588 40282 53003 86030 333 21073
86360 555 11064 29074 66666 01052 11022 21006 30014 50042 90074=
40763 42665 40000 11020 21060 38960 40275 57001 81401 333 21024
81640 83070 555 11032 29074 66666 00004 10032 20050 30058 50072
90116=
40766 41650 71106 11013 21026 38695 40215 56010 71072 84370 333
21015 81935 83640 87458 555 11017 29091 66666 00005 10010 20030
30040 50066 90092=
40768 41605 80000 11092 21102 38272 40322 55002 77177 8242/ 333
21174 81640 88560 555 11095 29092 66666 01004 11004 21002 00000
50012 90042=
40769 41520 80000 11074 21083 38304 40298 55004 77177 8372/ 333
21116 83725 88558 555 11074 29093 66666 00000 10002 20012 30020
50038 90082=
40782 41550 80902 10006 20001 38888 40212 52006 76976 8432/ 333
20004 81930 83635 88556 555 10004 29096 66666 00032 10042 20052
30058 50072 90108=
40783 41603 81107 11014 21021 37969 40204 53003 78672 8732/ 333
21022 82935 85640 88557 555 11016 29095 66666 00000 10000 20014
30016 50042 90080=
40785 42660 80000 11020 21054 39114 40268 56012 8352/ 333 21024
      83635 88460 555 11030 29078 66666 00004 10022 20034 30050
      50076 90116=
40789 42960 30000 10024 21026 39239 40238 55011 82035 333 20024
      82360 555 10006 29070 66666 00026 10034 20056 30068 50106
      90146=
40798 41510 80000 11102 21114 37955 40313 57008 77072 8442/ 333
21132 81725 83630 88556 555 11102  29091 66666 01018 11010 20010
30012 50028  90062=
40800 41930 30000 11050 21073 38469 40262 56008 71021 83030 333
      21052 83360 555 11055 29084 66666 01018 11010 20020 30030
      50066 90118=
40809 42960 20704 11029 21111 38538 40268 55000 81051 333 21055
81360 555 11051 29053 66666 01012 10006 20048 30048 50070 90116=
40811 41550 61105 10112 20100 30164 40191 55000 71062 84370 333
20110 81930 83635 86459 555 10106 29092 555 00114 10122 20128
30138 50150 90190=
40818 42660 50000 11072 21095 37973 40259 56011 82520 333 21094
82640 85460 555 11076 29084 66666 01008 11012 20008 30012 50038
 90076=
40821 42660 50000 10010 21015 38818 40245 55003 82536 333 20004
82640 84360 555 10000 29083 66666 00004 10024 20040 30054 50080
90130=
40827 42965 50000 11005 21047 38865 40251 53006 80005 333 21014
      85269 555 11019 29073 66666 00004 10022 20046 30066 50094
      90146=
0000266100
184
SIXX40 ETGT 110300 RRB
AAXX 11031
40831 41550 81002 10130 20119 30175 40183 53003 71022 8532/ 333
20110 82930 83635 88459 555 10124 29093 66666 00124 10132 20140
30098 50160 90208=
40836 41540 80000 11012 21019 38214 40261 56006 77072 8532/ 333
21020 81930 84635 88558 555 11014 29095 66666 00002 10008 20020
30024 50044 90074=
40841 42960 80000 11046 21071 38260 40278 56007 85077 333 21120
      85360 88269 555 11052 29083 66666 01020 11010 20020 30050
      50094 90156=
40848 41540 80000 10004 21006 38556 40251 53004 77022 8332/ 333
20004 81930 82635 88559 555 10000 29093 66666 00022 10028 20044
30050 50070 90116=
40851 42660 71004 10012 21028 38285 40231 51017 83410 333 21012
      83640 87460 555 11004 29074 66666 00016 10020 20036 30050
      50082 90138=
40853 41662 81205 11004 21036 37763 40257 57019 70272 83420 333
      21044 83635 87459 555 11016 29079 66666 00000 11002 20024
      30042 50062 90120=
40854 42660 70000 10038 21014 38987 40224 55006 83570 333 20016
      83640 87459 555 10018 29069 66666 00032 10040 20072 30094
      50136 90182=
40856 42962 31402 11047 21063 38676 40268 53003 80002 333 21048
83070 555 11050 29089 66666 00000 10038 20090 30072 50052 90134=
40857 42560 80903 10152 20085 30176 40186 55005 8432/ 333 20146
81930 83635 88459 555 10118 29064 66666 00130 10140 20144 30145
50158 90168=
40858 42560 80903 10150 20073 30174 40185 58008 8492/ 333 20148
81930 83640 88459 555 10112 29060 66666 00142 10150 20154 30160
50165 90192=
40859 42660 80000 10064 20018 38741 40197 54000 8532/ 333 20042
82935 83640 88460 555 10044 29072 66666 00062 10066 20074 30076
50106 90142=
40872 42560 71307 10188 20088 30186 40190 55003 83570 333 20120
83630 87359 555 10136 29052 66666 00156 10164 20168 30174 50184
90200=
40875 42960 70902 10116 20065 30211 40223 53007 84036 333 20097
84360 87270 555 10092 29071 66666 00134 10144 20162 30180 50194
90234=
40877 42960 40000 10068 20041 39638 40196 57012 80006 333 20050
84270 555 10056 29083 66666 00076 10082 20104 30122 50170 90208=
40878 42962 03202 11012 21053 38900 40294 52010 333 21014 555 11025
29074 66666 00034 10057 20085 30106 50124 90149=
40879 42962 30103 10044 20003 39551 40254 51002 80005 333 20042
83270 555 10028 29075 66666 00084 10100 20134 30156 50174 90220=
40883 42960 20705 10162 20036 30187 40210 56005 80002 333 20132
82070 555 10104 29043 66666 00124 10132 20148 30182 50200 90224=
40898 42965 30305 10138 21052 30210 40220 51007 80002
   222// 00223 10700 333 20136 83069 555 10068 29026 66666 00100
   10110 20160 30168 50220 90250=
0000123100
185
SIXX40 ETGT 110300 RRA
AAXX 11034
40183 43/// /3107 10079 20066 39272 48525 52007 =
40356 41656 43114 10020 20020 39202 48490 71000 84200 333 58042 84840
555 04410 50207=
40357 42660 73112 10059 20060 39533 40185 87500 333 58045 87640=
40360 41560 83304 10062 20050 39614 40219 76000 85530 333 58068 85630
87360=
40361 42460 83113 10071 20020 39410 40195 88600 333 58064 85710
83640=
40362 41957 01804 10063 20050 39647 40170 71040 333 58031=
40373 42660 42903 10082 20070 39740 40167 84500 333 59038 84635=
40375 42960 00000 10042 20020 39325 40224 333 58068=
40394 42960 03308 10052 20020 39050 48518 333 58053 555 04410 50195=
40400 42560 20204 10136 20090 30165 40193 82500 333 58052 82630=
40405 42660 33210 10100 20090 39429 40185 83500 333 58034 83640=
40416 41658 72304 10150 20130 30162 40182 71000 84520 333 59008 84640
87458=
40417 41658 81608 10148 20110 30177 40192 71000 8452/ 333 59014 84640
88459=
40420 41660 81412 10139 20120 39976 40186 76000 84520 333 59015 84640
85460=
40430 42960 03506 10110 20020 39468 40199 333 58054=
40437 42660 61810 10115 20090 39467 40180 83520 333 59005 83640
86458=
40439 42960 03308 10148 20070 30164 40174 333 58047=
0000011100
186
UANT01 CWAO 110324
ARP DAL228 4629N03800W 0324 F330 MS49 266/21 KT
N1201P QXT AOW 110324 F51A
0000011000
187
UANT01 CWAO 110324
ARP KLM602 5343N05627W 0324 F350 MS64 291/73 KT
PHBFS QXS YHO 110324 F22A
0000011100
188
UANT01 CWAO 110324
ARP AWE730 4913N04433W 0324 F370 MS59 319/56 KT
N273AY DDL XXN 110324 J74A
0000011100
189
UANT01 CWAO 110324
ARP DAH2701 5201N02951W 0324 F390 MS54 215/59 KT
7TVJZ QXT AOE 110324 J07A
0000011100
190
UANT01 CWAO 110324
ARP AAL290 5006N04508W 0324 F380 MS60 314/51 KT
N190AA DDL XXW 110324 F83A
0000011100
191
UANT01 CWAO 110324
ARP UAL936 4822N03832W 0324 F370 MS52 259/30 KT
N668UA DDL XXW 110324 F23A
0000016400
192
SIDL22 EDZW 110300 CCA
AAXX 11031
10427 31982 12406 11011 21017 39147 48440 57007 70141 80001
  333 55300 20000 30000 81076 96441
  444 17070=
0000018400
193
SINZ20 NZKL 110300 RRA
AAXX 11034
93800 46/// /0314 10147 20103 40166 57017=
93805 46/// /3438 10142 20100 40120 57036=
93947 46/// /3316 10103 20097 49971 57036=
0000013300
194
UXIN90 VEAT 110000 RRA

TTAA 6100/ 42724 NO TEMP MESSAGE RECEIVED DUE TO COMMUNICATION FAILURE
WITH KUMBHIGRAM(VEKU)=
0000099100
195
FTIN90 VEGT 110300
TAF VEGT 110300Z 1106/1212 04005KT 3000 HZ FEW018 SCT100 BEC
1112/1114 00000KT
2000 BR SCT100 BEC 1116/1118 1500 BR BEC 1119/1121 1200 BR BEC
1123/1201 0800 FG FEW010 SCT015 BKN100 BEC 1203/1205 1500 BR FEW018
SCT100 BEC 1206/1208 05005KT 3000 HZ BEC 1210/1212 00000KT 2500 HZ
SCT100 =
VEGT 110300Z 1106/1115 04005KT 3000 HZ FEW018 SCT100 BEC
1112/1114 00000KT 2500 BR SCT100=
VEBI 110300Z 1106/1115 03005KT 3000 HZ FEW015 SCT100 BEC
1112/1114 00000KT 1500 BR SCT100=
VELR 110300Z 1106/1115 05005KT 3000 HZ FEW018 SCT100 BEC
1112/1114 00000KT 2500 BR SCT100=
VETZ 110300Z 1106/1115 05005KT 3000 HZ FEW018 SCT100 BEC
1112/1114 00000KT 2500 BR SCT100=
VEKU 110300Z 1106/1115 04005KT 4000 HZ FEW018 SCT100 BEC
1112/1114 00000KT 3000 HZ SCT100=
VEMR 110300Z 1106/1115 07007KT 3500 HZ FEW018 SCT100 BEC
1112/1114 00000KT 2500 HZ SCT100 =
VEIM 110300Z 1106/1115 04006KT 3000 HZ FEW018 SCT100 
BEC 112/1114 2000 BR SCT100=

00000000