0000034600
672
SZIO01 AMMC 111157
CREX++
T000103 A001 D01021 D06025++
-1211670 09689190 46280 2014 01 11 11 50 3020 11 07 00 01
00844 0028 00842 0028 00836 0024 00839 0029 00830 0023 00830 0025+
-1042940 10566940 46290 2014 01 11 11 50 //// 11 07 00 01
01113 -0051 01182 0020 01113 -0046 01150 -0006 01136 -0018 01148 -0003++
7777

0000011500
673
SMAA01 NZSP 111200
AAXX 11124
89009 42361 70411 11235 36918 58001 87600 
333 11222 21241 87708=
0000245200
674
UDFR01 LFPW 111157
AMDAR 1111
DES EU3265 3748N 02229E 111140 F217 MS252 /// 289/030 TB1 S031
333 F217 VG009=
DES EU3265 3747N 02235E 111140 F205 MS225 /// 303/027 TB0 S031
333 F205 VG003=
DES EU3265 3746N 02243E 111141 F189 MS195 /// 305/014 TB0 S031
333 F189 VG002=
DES EU3265 3745N 02245E 111142 F183 MS175 /// 300/016 TB1 S031
333 F183 VG009=
DES EU3265 3744N 02247E 111142 F175 MS162 /// 297/019 TB1 S031
333 F175 VG009=
DES EU3265 3743N 02252E 111143 F156 MS130 /// 288/027 TB1 S031
333 F156 VG012=
DES EU3265 3743N 02255E 111143 F146 MS100 /// 287/025 TB0 S031
333 F146 VG001=
DES EU3265 3742N 02301E 111144 F132 MS065 /// 283/028 TB1 S031
333 F132 VG008=
DES EU3265 3741N 02303E 111144 F124 MS050 /// 284/029 TB0 S031
333 F124 VG006=
DES EU3265 3741N 02305E 111144 F118 MS037 /// 281/027 TB0 S031
333 F118 VG005=
DES EU3265 3740N 02311E 111145 F107 MS015 /// 285/019 TB0 S031
333 F107 VG001=
DES EU3265 3740N 02313E 111145 F104 MS010 /// 282/017 TB0 S031
333 F104 VG002=
DES EU3265 3739N 02317E 111146 F098 PS000 /// 286/017 TB0 S031
333 F098 VG004=
DES EU3265 3738N 02319E 111146 F095 PS005 /// 292/017 TB0 S031
333 F095 VG003=
DES EU3265 3737N 02325E 111147 F086 PS022 /// 290/013 TB0 S031
333 F086 VG002=
DES EU3265 3737N 02327E 111148 F084 PS027 /// 292/012 TB1 S031
333 F084 VG012=
UNS EU3265 3737N 02329E 111148 F080 PS037 /// 304/015 TB1 S031
333 F080 VG020=
DES EU3265 3737N 02331E 111148 F075 PS050 /// 289/014 TB0 S031
333 F075 VG004=
DES EU3265 3737N 02332E 111149 F071 PS052 /// 277/011 TB0 S031
333 F071 VG008=
UNS EU3265 3737N 02334E 111149 F067 PS055 /// 270/012 TB0 S031
333 F067 VG005=
DES EU3265 3739N 02337E 111150 F059 PS062 /// 261/012 TB0 S031
333 F059 VG009=
DES EU3265 3740N 02339E 111150 F055 PS070 /// 277/011 TB0 S031
333 F055 VG005=
UNS EU3265 3740N 02341E 111150 F051 PS077 /// 281/012 TB0 S031
333 F051 VG005=
DES EU3265 3741N 02341E 111151 F046 PS072 /// 267/007 TB0 S031
333 F046 VG009=
DES EU3265 3742N 02343E 111151 F043 PS080 /// 289/008 TB0 S031
333 F043 VG002=
DES EU3265 3743N 02344E 111151 F039 PS087 /// 286/005 TB0 S031
333 F039 VG001=
DES EU3265 3746N 02346E 111152 F031 PS095 /// 334/009 TB0 S031
333 F031 VG003=
DES EU3265 3746N 02346E 111152 F028 PS090 /// 333/010 TB1 S031
333 F028 VG027=
DES EU3265 3747N 02347E 111153 F027 PS085 /// 331/010 TB1 S031
333 F027 VG010=
0000048200
675
SXXX32 EUMS 111149 RRX
262AD2C2
OT12 ID:PK-ORMA-10 DT:2014 01 11 11 48
:PRS /1 07080 07088 07103 07113 07124 07121 07126 07136 07127 07157 07165 07160 07170 07175 07185 07193 07205 07193 07198 07215 07211 07235 07238 07253 07245 07263 07262 07270 07295 07285
:RAD /1 ///// ///// ///// ///// ///// ///// ///// ///// ///// ///// ///// ///// ///// ///// ///// ///// ///// ///// ///// ///// ///// ///// ///// ///// ///// ///// ///// ///// ///// /////
:BAT 13.0V/
0000065100
676
SXXX32 EUMS 111149 RRX
18D74682
OT12 ID:ZA-GOUG-13 DT:2014 01 11 11 48
:RAD /3 21142 28871 21130 21146 21130 21130 28873 21142 28873 21157 21142 21118 28872 28868 28851 21151 21155 21177 02267 21125 28873 21142 19701 21166 28866 28872 28871 28866 21029 21111 21100 21102 21102 21091 21102 21106 21110 21097 21097 21107 21097 21110 21111 21127 21107 21116 02151 21113 21123 21128 21147 21141 21162 21153 21143 21158 21129 01783 21128 21138 21166 21159 21201 21147 21149 21164 21149 21175 21144 21164 21127 21168 21177 20741 21157 21179 21165 19724 21179 21177 21164 21174 21183 21179 21183 21143 21159 21165 21157 21165
:BAT 14.3V
0000069800
677
SXXX32 EUMS 111149 RRX
26A63714
NT12 HD:CO-PNTN-06 DT:2015 01 11 11 39
:RAD /1 01262 00403 01396/01376 01397 01399 01392 01395 01374 01417 01405 01366 01385/01411 01388 01259 01367 01414 01378 01395001398 01421 01401 01406 01412 01424 01392 01/01/01428 01371
:PR1 /1 ///// ///// ///// .////////// ///// //.// ///// ///// ///// ///// ///// /./// ///// ///// ///// ///// ///// /////////// ///// ///// ///// ///// ///// ///// ///// ///// ///// /////
:PR2 /1 ///// ///// ///// ///// /////////// ///// ///// ///// ///// ///// ///// ///// /./// .//// ///// ///// ///// ///// .//// ///// ///// ///// ///// /////////// ///// ///// ///// /////
/TM1 ?15//// /// /./0///
:BAT 12.7V
0000036800
678
SXXX32 EUMS 111151 RRX
12FFB3C8
:PRS 1 /1 M 3183 3197 3180 3191 3198 3197 3203 3200 3225 3221 3238 3239 3243 3253 3244 3274 3244 3253 3253 3251 3257 3244 3257 3244 3263 3265 3276 3283 3275 :RAD 1 /3 6135 6149 6166 6185 6191 6194 6195 6205 6220 6231 :ENC 1 /5 -144 -144 -144 -144 -144 -144 :SW1 51 /60 0 :SW2 21 /60 0 :BAT 14 /15 12.9 :NAME 12FFB3C8 /
0000158900
679
FTSD40 OEJD 111100 RRA
OEAH 111030Z 1112/1218 17015KT 8000 SCT040 BKN100 TEMPO 1112/1122 8000 RA
 BKN030 BECMG 1120/1122 35006KT TEMPO 1120/1206 3500 BR=
OEGS 111030Z 1112/1218 30013KT 9999 FEW040 BECMG 1118/1120 35006KT TEMPO
1118/1206 4000 BR FEW010=
OEGT 111030Z 1112/1218 33015KT 9999 SCT030 SCT100 BECMG 1122/1124 VRB03KT
 TEMPO 1122/1206 4000 BR SCT010=
OEHL 111030Z 1112/1218 33015KT 6000 SCT045=
OEPA 111030Z 1112/1218 29008G18KT 9999 SCT030 SCT100 BECMG 1122/1124
31006KT TEMPO 1120/1206 3500 BR SCT010=
OEKJ 111030Z 1112/1218 30012KT 9999 SCT040 BECMG 1122/1124 36008KT TEMPO
1122/1206 4000 BR SCT015 PROB30 TEMPO 1200/1206 1000 FG=
OEKK 111030Z 1112/1218 29008G18KT 9999 SCT030 SCT100 BECMG 1122/1124
31006KT TEMPO 1120/1206 3500 BR SCT010=
OERF 111030Z 1112/1218 31008G18KT 7000 SCT040 SCT100 BECMG 1200/1202
VRB03KT TEMPO 1200/1206 4000 BR SCT010=
OERR 111030Z 1112/1218 35008G18KT 7000 SCT030 SCT100 BECMG 1200/1202
VRB03KT TEMPO 1120/1122 4000 BR SCT010=
OEDM 111030Z 1112/1218 30012KT 9999 SCT040 BECMG 1122/1124 36008KT TEMPO
1122/1206 4000 BR SCT015 PROB30 TEMPO 1200/1206 1000 FG=
OESK 111030Z 1112/1218 35008G18KT 7000 SCT030 SCT100 BECMG 1200/1202
VRB03KT TEMPO 1120/1122 4000 BR SCT010=
OETB 111030Z 1112/1218 35015KT 9999 FEW040 SCT100 BECMG 1120/1122
VRB03KT=
OETR 111030Z 1112/1218 33015KT 9999 SCT030 SCT100 BECMG 1122/1124 VRB03KT
 TEMPO 1122/1206 4000 BR SCT010=
OEJB 111030Z 1112/1218 17015KT 8000 SCT040 BKN100 TEMPO 1112/1122 8000 RA
 BKN030 BECMG 1120/1122 35006KT TEMPO 1120/1206 3500 BR=
0000039800
680
SXXX32 EUMS 111151 RRX
16590056
:PRS 1 /1 2247 2251 2251 2256 2254 2257 2258 2264 2265 2271 2274 2280 :RAD 1 /1 6531 6531 6533 6536 6533 6539 6538 6545 6545 6551 6553 6560 6558 6557 6555 6555 6549 6555 :ENC 6 /6 4762 4774 4772 4792 4789 4792 4808 4821 4821 4821 :ENB 6 /6 4760 4772 4771 4791 4788 4791 4806 4819 4818 4818 :SW1 51 /60 0 :SW2 18 /60 57 :BAT 5 /6 12.9 :NAME 16590056
0000069800
681
SXXX32 EUMS 111151 RRX
3601E29A
OT12 ID:DJ-BOUT-08 DT:2014 01 11 11 41
:RAD /1 01453 01455 01455 01457 01463 01469 01480 01486 01490 01490 01491 01497 01503 01507 01514 01515 01523 01526 01533 01531 01532 01536 01536 01540 01547 01549 01553 01557 01564 01567
:PR1 /1 01746 01756 01770 01756 01773 01781 /1765 01786 01791 01781 01785 01799 01804 01815 01813 01824 01821 01832 01838 01827 01829 01841 01846 01847 01849 01854 01848 01861 01873 01867
:PR2 /1 00004 00005 00022 00013 00027 00005 00001 00036 00017 00032 00029 00032 00036 00057 00068 00070 00052 00054 00086 00080 00089 00077 00083 00068 00081 00103 00084 00117 00103 00099
:TM1 /15 260 260 260 260
:BAT 13.5V
0000070200
682
SXXX32 EUMS 111151 RRX
22E7E6D2
OT12 ID:ID-ROTE-11 DT:2014 01 11 11 49
:PRS /1 -10799 -10316 -10791 -10799 -10766 -10766 -10767 -10769 -10800 -10799 -10801 -10799 -10800 -10801 -10800 -10802 -10301 -10795 -10794 -10763 -10767 -10767 -10767 -10798 -10802 -10798 -10801 -10797 -10797 -10795
:PR2 /1 04746 04755 04753 04743 04737 04723 04768 04741 04751 04752 04741 04754 04737 04727 04751 04741 04756 04725 04753 04745 04736 04756 04778 04737 04763 04763 04746 04756 04758 04727
:RAD /1 06294 06330 06274 06286 06318 06314 06306 06310 06314 06290 06322 06306 06302 06310 06294 06358 06318 06310 06330 06318 06314 06314 06318 06302 06294 06330 06314 06314 06322 06318
:BAT 12.4V/
0000070500
683
SXXX32 EUMS 111151 RRX
26F364EA

ST STHELENA
DT 11/01/14 11/01/14
TM 11:45:00 11:30:00
RD 10000 10000 10000 10000 10000 10000 10000 10000 10000 10000 10000 10000 10000 10000 10000 10000 10000 10000 10000 10000 10000 10000 10000 10000 10000 10000 10000 10000 10000 10000
P1 00709 00898 01398 01008 00838 00932 01146 00881 01333 00811 00860 01311 00658 00663 01279 00783 01155 01071 00845 00918 01123 00688 01086 01450 00808 00754 01105 01494 00909 00617
P2 00017 00017 00096 00018 00020 00011 00017 00013 00098 00022 00010 00116 00015 00019 00013 00019 00016 00016 00011 00020 00015 00015 00006 00147 00016 00014 00018 00165 00018 00020
T1 00.0 00.0
T2 22.8 22.8
VB 13.4
0000067200
684
SXXX32 EUMS 111152 RRX
32CC9580
OT12 ID:ID-ENGG-07 DT:2014 01 11 11 51
:PRS /1 01677 01645 01648 01675 01697 01639 01654 01657 01668 01639 01659 01627 01637 01645 01641 01639 01617 01628 01618 01629 01618 01591 01642 01603 01658 01613 01603 01580 01618 01589
:PR2 /1 05093 05098 05091 05102 05087 05090 05090 05066 05082 05081 05110 05052 05040 05073 05061 05074 05034 05060 05049 05070 05078 05037 05061 05046 05066 05068 05041 05030 05046 05030
:RAD /1 05992 05981 05976 05983 05986 05962 05981 05976 05992 05964 05978 05939 05957 05962 05953 05951 05960 05945 05946 05923 05960 05909 05937 05920 05941 05931 05906 05919 05919 05902
:BAT 12.3V/
0000070400
685
SXXX32 EUMS 111152 RRX
26BED7DE

ST TRISTAN
DT 11/01/14 11/01/14
TM 11:45:00 11:15:00
RD 00000 00000 00000 00000 00000 00000 00000 00000 00000 00000 00000 00000 00000 00000 00000 00000 00000 00000 00000 00000 00000 00000 00000 00000 00000 00000 00000 00000 00000 00000
P1 00000 00000 00000 00000 00000 00000 00000 00000 00000 00000 00000 00000 00000 00000 00000 00000 00000 00000 00000 00000 00000 00000 00000 00000 00000 00000 00000 00000 00000 00000
P2 00000 00000 00000 00000 00000 00000 00000 00000 00000 00000 00000 00000 00000 00000 00000 00000 00000 00000 00000 00000 00000 00000 00000 00000 00000 00000 00000 00000 00000 00000
T1 00.0 00.0
T2 00.0 00.0
VB 14.3
0000029100
686
SXXX32 EUMS 111154 RRX
166AC436
OT12 ID:IC-COMI-10 DT:2014 01 11 11 53
:RAD /1 06005 06000 06002 06000 05979 05985 05991 05973 05986 05963 05958 05992 05977 05955 05963 05975 05962 05952 05939 05948 05945 05947 05934 05933 05940 05899 05914 05895 05921 05911
:BAT 13.6V
0000037900
687
SXXX32 EUMS 111154 RRX
12FD90D0
:PRS 1 /1 1404 1392 1402 1390 1392 1381 1388 1382 1385 1372 1378 1382 :RAD 1 /3 5951 5946 5940 5939 5949 5965 5975 5982 5994 5999 :ENC 3 /6 5685 5671 5688 5705 5736 5726 5702 5709 5727 5720 :RA2 3 /6 4843 4829 4851 4867 4897 4884 4862 4872 4886 4881 :SW1 54 /60 44 :SW2 24 /60 60 :BAT 5 /6 13.1 :WTP 5 /6 28.4 28.4 :NAME 12FD90D0
0000045100
688
SXXX32 EUMS 111154 RRX
224AD678
:PRS 2 /1 2551 2551 2546 2544 2542 2541 2543 2542 2541 2542 2543 2541 2537 2528 2528 2526 2525 2524 2523 2523 2524 2525 2524 2524 2519 2512 2511 2512 2511 2509 :RAD 4 /3 5372 5368 5362 5356 5352 5346 5341 5339 5333 5326 5319 5315 5312 5303 5296 5284 5284 5276 5270 5265 :ENC 4 /5 8871 8866 8860 8852 8845 8837 8829 8822 8812 8796 8793 8782 :SW1 54 /60 0 :SW2 24 /60 0 :BAT 14 /15 12.3 :NAME 224AD678 /
0000069800
689
SXXX32 EUMS 111154 RRX
229C0324
OT12 ID:MZ-NIH2-09 DT:2014 01 11 11 4/
:RAD /1 0689? 06895 06904 06900 06907 06908 06906 06902 06901 06903 0690/ 06909 06912 06911 06919 0691/ 06903 06914 06918 06919 06912 06914 06919 06919 06917 0691/ 06919 06910 06917 06921
:PR1 /1 /////(///// ///// ///// ///// ///// ///// ///// ///// ///// ///// ///// ///// ///// ///// ///// ///// ///// ///// ///// /////(///// ///// ///// ///// /////(///// ///// ///// /////
:PR2 /1 ///// ///// ///// ///// ///// ///// ///// ///// ///'/ //'// ///// ///// ///// ///// ///// ///// '//// ///// ///// ///// ///// ///// ///// ///// ///// ///// ///// ///// ///// /////
:TM1 /15 /// /// /// ///
:BAT 13.7/
0000067100
690
SXXX32 EUMS 111155 RRX
366C76AC
OT12 ID:IR-CHAB-07 DT:2014 01 11 11 54
:RAD /1 01064 01079 01075 01082 01096 01097 01099 01103 01106 01117 01122 01122 01123 01122 01127 01130 01132 01132 01150 01148 01153 01168 01177 01186 01187 01192 01193 01199 01199 01208
:PR1 /1 01481 01497 01500 01515 01521 01528 01530 01539 01541 01543 01554 01553 01567 01563 01567 01574 01573 01581 01585 01589 01606 01615 01629 01624 01641 01631 01652 01646 01654 01668
:PR2 /1 01058 01071 01086 01086 01090 01094 01095 01100 01101 01114 01119 01115 01121 01126 01122 01135 01142 01142 01151 01163 01165 01175 01183 01196 01196 01201 01199 01199 01212 01219
:BAT 13.6V
0000015100
691
SMGO01 FOOL 111200
AAXX 11124
64500 31460 62008 10290 20248 30102 40116  70196 86900
333 0//00 58004 83810 81920 86640 94942 85832=
00000000