0000440000
616
WWUS75 KMSO 111159
NPWMSO
URGENT - WEATHER MESSAGE
NATIONAL WEATHER SERVICE MISSOULA MT
459 AM MST SAT JAN 11 2014
...DAMAGING WIND THROUGH EARLY SUNDAY...
IDZ005-006-009-010-MTZ002-004-006-043-111300-
/O.CAN.KMSO.HW.A.0001.140111T1200Z-140112T1200Z/
NORTHERN CLEARWATER MOUNTAINS-SOUTHERN CLEARWATER MOUNTAINS-
WESTERN LEMHI COUNTY-EASTERN LEMHI COUNTY-WEST GLACIER REGION-
LOWER CLARK FORK REGION-BITTERROOT/SAPPHIRE MOUNTAINS-
POTOMAC/SEELEY LAKE REGION-
459 AM MST SAT JAN 11 2014 /359 AM PST SAT JAN 11 2014/
...HIGH WIND WATCH IS REPLACED WITH WINTER STORM WARNING...
THE NATIONAL WEATHER SERVICE IN MISSOULA HAS REPLACED THE HIGH
WIND WATCH WITH A WINTER STORM WARNING.
$$
MTZ007-112200-
/O.CON.KMSO.HW.W.0001.140111T1200Z-140112T1200Z/
BUTTE/BLACKFOOT REGION-
459 AM MST SAT JAN 11 2014
...HIGH WIND WARNING REMAINS IN EFFECT UNTIL 5 AM MST SUNDAY...
A HIGH WIND WARNING REMAINS IN EFFECT UNTIL 5 AM MST SUNDAY.
* IMPACTS/TIMING: GUSTY WINDS WILL DEVELOP THIS MORNING... A COLD
  FRONT CROSSING THE NORTHERN ROCKIES THIS AFTERNOON WILL FURTHER
  INTENSIFY WINDS. THESE WINDS WILL LIKELY CREATE POWER OUTAGES
  AND DAMAGE TREES. HIGH PROFILE VEHICLES WILL AT RISK OF BEING
  BLOWN OFF ROADWAYS. RAIN AND SNOW WILL BE PRESENT AT TIMES ALONG
  WITH HIGH WINDS...SUDDENLY LIMITING VISIBILITY.
* WINDS: SUSTAINED SOUTHWEST WINDS AROUND 30 MPH AHEAD OF THE
  FRONT...WINDS 40 TO 50 MPH ALONG AND BEHIND THE FRONT... WITH
  GUSTS APPROACHING 60 MPH...WITH THE COLD FRONT.
* LOCATIONS IMPACTED INCLUDE...BUTTE...GEORGETOWN LAKE...HIGHWAY
  12 GARRISON TO ELLISTON...MACDONALD PASS
PRECAUTIONARY/PREPAREDNESS ACTIONS...
A HIGH WIND WARNING MEANS A HAZARDOUS HIGH WIND EVENT IS EXPECTED
OR OCCURRING. SUSTAINED WIND SPEEDS OF AT LEAST 40 MPH OR GUSTS
OF 50 MPH OR MORE CAN LEAD TO PROPERTY DAMAGE.
&&
$$
IDZ007-008-112200-
/O.CON.KMSO.HW.W.0001.140111T1200Z-140112T1200Z/
OROFINO/GRANGEVILLE REGION-LOWER HELLS CANYON/SALMON RIVER REGION-
359 AM PST SAT JAN 11 2014
...HIGH WIND WARNING REMAINS IN EFFECT UNTIL 4 AM PST SUNDAY FOR
THE CAMAS PRAIRIE...GRANGEVILLE AND HIGHWAY 95...
A HIGH WIND WARNING FOR THE CAMAS PRAIRIE...GRANGEVILLE AND
HIGHWAY 95 REMAINS IN EFFECT UNTIL 4 AM PST SUNDAY.
* IMPACTS/TIMING: STARTING EARLY THIS MORNING... A COLD FRONT WILL
  APPROACH THE REGION WITH VERY GUSTY WINDS. THESE WINDS WILL
  CREATE POWER OUTAGES AND DAMAGE TREES. HIGH WINDS WILL POSE AN ISSUE
  FOR HIGH PROFILE VEHICLES AS WELL.
* WINDS: SUSTAINED SOUTHWEST WINDS 30 TO 50 MPH... WITH GUSTS
  APPROACHING 60 MPH...GRANGEVILLE SHOULD SEE THE HIGHEST
  WINDS... WITH GUSTS REACHING AND EXCEEDING 60 MPH FOR A
  PROLONGED PERIOD.
* LOCATIONS IMPACTED INCLUDE...CAMAS PRAIRIE...GRANGEVILLE AND
  VICINITY...HIGHWAY 95 SLATE CREEK TO RIGGINS...WHITE BIRD GRADE
PRECAUTIONARY/PREPAREDNESS ACTIONS...
A HIGH WIND WARNING MEANS A HAZARDOUS HIGH WIND EVENT IS EXPECTED
OR OCCURRING. SUSTAINED WIND SPEEDS OF AT LEAST 40 MPH OR GUSTS
OF 50 MPH OR MORE CAN LEAD TO PROPERTY DAMAGE.
&&
$$
MTZ001-003-005-112200-
/O.CON.KMSO.HW.A.0001.140111T1200Z-140112T1200Z/
KOOTENAI/CABINET REGION-FLATHEAD/MISSION VALLEYS-
MISSOULA/BITTERROOT VALLEYS-
459 AM MST SAT JAN 11 2014
...HIGH WIND WATCH REMAINS IN EFFECT THROUGH LATE TONIGHT...
A HIGH WIND WATCH REMAINS IN EFFECT THROUGH LATE TONIGHT.
* IMPACTS/TIMING: STARTING THIS MORNING... A COLD FRONT WILL
  APPROACH THE REGION WITH VERY GUSTY WINDS. THESE WINDS WILL HAVE
  THE POTENTIAL TO CREATE WIDESPREAD POWER OUTAGES AND DOWNED
  TREES. HIGH WINDS COULD ALSO PRODUCE DANGEROUS TRAVEL CONDITIONS
  DUE TO REDUCED VISIBILITY FROM BLOWING SNOW/RAIN...AS WELL AS
  FOR HIGH PROFILE VEHICLES.
* WINDS: SUSTAINED SOUTHWEST WINDS 30 TO 50 MPH... WITH GUSTS
  APPROACHING 60 MPH...
* LOCATIONS IMPACTED INCLUDE...HIGHWAY 2 KALISPELL TO LIBBY...
  HIGHWAY 37 EUREKA TO LIBBY...HIGHWAY 56 BULL LAKE ROAD...
  HIGHWAY 93 EUREKA TO WHITEFISH...FLATHEAD LAKE...FLATHEAD
  VALLEY... MISSION VALLEY...POLSON...BITTERROOT VALLEY...
  MISSOULA
PRECAUTIONARY/PREPAREDNESS ACTIONS...
A HIGH WIND WATCH MEANS THERE IS THE POTENTIAL FOR A HAZARDOUS
HIGH WIND EVENT. SUSTAINED WINDS OF AT LEAST 40 MPH...OR GUSTS OF
50 MPH OR STRONGER MAY OCCUR. CONTINUE TO MONITOR THE LATEST
FORECASTS.
&&
$$
0000009800
617
SAER41 OMAM 111157 RRF
METAR OMAM 111200Z 22005KT 190V250 CAVOK 23/10 Q1017 A3005=
0000069400
618
SMVD19 KWNB 111200 RRA
BBXX
46126 11121 99540 71666 46/// /0000 10042 49801 91136 22200 00044
1//00 70001 333 91202 555 11005 22006=
46126 11121 99540 71666 46/// /0000 10042 49801 91140 22200 00044
1//00 70001 333 91202 555 11005 22006=
46126 11121 99540 71666 46/// /2002 10042 49801 91142 22200 00044
1//00 70001 333 91208 555 11025 22027=
46126 11121 99540 71666 46/// /2002 10048 49799 91145 22200 00043
1//00 70001 333 91208 555 11025 22027=
46078 11121 99560 71526 46/// /2007 10037 20012 49925 58021 91150
22200 00044 11204 20502 324// 41204 70022 333 91208 555 11070
22074 31055 42109 61149 202066 206069 209068 208067 211066 210072
82108 91053=
0000058900
619
SMSQ40 LZIB 111200
AAXX 11121
11841 12582 62604 10066 21004 39816 40194 58019 60001 81102
  333 81828 86071=
11858 12975 49902 10097 20006 30049 40200 58017 60001 80001
  333 84070=
11916 11/80 52405 11072 21075 37947 48455 58004 69901 70374 82542
  333 826// 85066 91010 93535
  444 26//8=
11927 12775 52102 10062 20015 39938 40202 57015 60001 82502
  333 82650 85070=
11930 12589 53207 11074 21339 37310 47980 56004 60001 81041
  333 81326 85060 91015 91122
  444 26205=
11993 12463 61903 10029 21000 39992 40213 58010 60001 86201
  333 86815=
0000070300
620
SMSQ50 LZIB 111200
AAXX 11121
11855 12670 50602 10069 20012 30037 40204 58015 60001 82501
  333 82643 85070=
11867 12784 69902 10061 20008 39881 40200 57017 60001 83542
  333 83656 86070=
11880 12775 60000 10067 20018 30032 40205 57015 60001 81542
  333 81650 86070=
11918 12686 62404 10031 21035 39362 42791 58008 60001 83246
  333 83845 85270=
11933 12488 52603 11014 21056 38647 48462 58007 60001 81542
  333 81613 85070=
11938 12582 42306 10023 21036 39114 42785 58011 60001 82842
  333 81830=
11976 11335 81803 10006 21007 39942 40214 58006 60001 71022 886//
  333 88708=
11978 11215 80901 10000 21003 30083 40218 58005 60001 71042 886//
  333 88706=
0000203700
621
SMSQ51 LZIB 111200
AAXX 11121
11812 36/// /1604 10059 21025 39495 42799 57015=
11813 16/// /9901 10067 21000 39845 40195 57015 60001=
11816 12980 69901 10070 20021 30035 40200 58016 60001 82041
  333 82361 86070=
11819 16/// /0000 10050 20020 39984 40203 57016 69911=
11826 12670 59901 10051 20005 30005 40208 57012 60001 82541
  333 82640 85070=
11841 12582 62604 10066 21004 39816 40194 58019 60001 81102
  333 81828 86071=
11855 12670 50602 10069 20012 30037 40204 58015 60001 82501
  333 82643 85070=
11856 36/// /1102 10061 20007 39885 40206 57013=
11858 12975 49902 10097 20006 30049 40200 58017 60001 80001
  333 84070=
11867 12784 69902 10061 20008 39881 40200 57017 60001 83542
  333 83656 86070=
11880 12775 60000 10067 20018 30032 40205 57015 60001 81542
  333 81650 86070=
11900 16/// /2801 10047 21009 39866 40205 57016 60001=
11903 12682 40000 10045 20003 39817 40202 57018 60001 81102
  333 81845 83070=
11916 11/80 52405 11072 21075 37947 48455 58004 69901 70374 82542
  333 826// 85066 91010 93535
  444 26//8=
11918 12686 62404 10031 21035 39362 42791 58008 60001 83246
  333 83845 85270=
11927 12775 52102 10062 20015 39938 40202 57015 60001 82502
  333 82650 85070=
11930 12589 53207 11074 21339 37310 47980 56004 60001 81041
  333 81326 85060 91015 91122
  444 26205=
11933 12488 52603 11014 21056 38647 48462 58007 60001 81542
  333 81613 85070=
11934 12686 62607 10036 21048 39359 42791 57011 60001 81141
  333 81840 86070=
11938 12582 42306 10023 21036 39114 42785 58011 60001 82842
  333 81830=
11952 16/// /2906 10035 21040 39345 42786 57015 60001=
11958 36/// /2003 10003 20001 3//// 4////=
11968 11480 39901 10050 20015 39921 40205 57012 60001 70141 82601
  333 82713=
11976 11335 81803 10006 21007 39942 40214 58006 60001 71022 886//
  333 88708=
11978 11215 80901 10000 21003 30083 40218 58005 60001 71042 886//
  333 88706=
11993 12463 61903 10029 21000 39992 40213 58010 60001 86201
  333 86815=
0000078900
622
UDAS02 BABJ 111153
AMDAR 1111
LVR CNFOZL 2530N 11327E 111142 F266 MS230 259/082 TB/ S//1=
LVR CNFOZL 2551N 11330E 111145 F266 MS235 254/083 TB/ S//1=
LVR CNFOZL 2612N 11332E 111148 F266 MS240 257/085 TB/ S//1=
DES CNFOZL 2634N 11333E 111151 F262 MS231 253/086 TB/ S//1=
LVR CNFOZM 3210N 11427E 111142 F276 MS360 254/078 TB/ S//1=
LVR CNFOZM 3150N 11425E 111145 F276 MS360 257/076 TB/ S//1=
LVR CNFOZM 3131N 11423E 111148 F276 MS355 257/074 TB/ S//1=
LVR CNFOZM 3112N 11418E 111151 F276 MS350 256/075 TB/ S//1=
ASC CNFLWM 2323N 11327E 111150 F205 MS108 263/063 TB/ S//1=
ASC CNFLWM 2327N 11325E 111150 F213 MS115 254/066 TB/ S//1=
ASC CNFLWM 2331N 11324E 111151 F222 MS140 256/069 TB/ S//1=
ASC CNFLWM 2334N 11321E 111151 F226 MS126 250/066 TB/ S//1=
0000109900
623
UDAS02 BABJ 111155
AMDAR 1111
DES CNFNXN 3847N 11543E 111150 F138 MS238 297/034 TB/ S//1=
DES CNFNXN 3850N 11548E 111151 F138 MS235 293/033 TB/ S//1=
DES CNFNXN 3850N 11549E 111151 F138 MS233 291/034 TB/ S//1=
DES CNFNXN 3853N 11555E 111152 F138 MS235 291/032 TB/ S//1=
LVR CNFPYN 3400N 11143E 111150 F207 MS255 234/030 TB/ S//1=
LVR CNFPYN 3400N 11145E 111150 F207 MS255 238/030 TB/ S//1=
LVR CNFPYN 3401N 11153E 111151 F207 MS253 234/030 TB/ S//1=
LVR CNFPYN 3401N 11202E 111152 F207 MS258 230/030 TB/ S//1=
LVR CNFLWM 2337N 11318E 111152 F226 MS128 253/064 TB/ S//1=
ASC CNFLWM 2339N 11315E 111153 F233 MS129 255/064 TB/ S//1=
ASC CNFLWM 2341N 11312E 111153 F243 MS150 252/064 TB/ S//1=
LVR CNFLWQ 2410N 11201E 111144 F256 MS205 250/070 TB/ S//1=
LVR CNFLWQ 2419N 11140E 111147 F256 MS206 250/071 TB/ S//1=
LVR CNFLWQ 2428N 11120E 111150 F256 MS210 252/075 TB/ S//1=
LVR CNFLWQ 2444N 11104E 111153 F256 MS218 254/077 TB/ S//1=
ASC CNFLWM 2343N 11308E 111154 F250 MS169 254/067 TB/ S//1=
LVR CNFLWL 2731N 10638E 111145 F276 MS315 252/085 TB/ S//1=
0000047900
624
UDAS02 BABJ 111156
AMDAR 1111
LVR CNFLWL 2755N 10642E 111148 F276 MS333 244/082 TB/ S//1=
LVR CNFLWL 2818N 10645E 111151 F276 MS345 251/085 TB/ S//1=
ASC CNFLWL 2842N 10644E 111154 F309 MS370 252/117 TB/ S//1=
LVR CNFPYL 2929N 11714E 111151 F236 MS230 265/082 TB/ S//1=
LVR CNFPYL 2936N 11715E 111152 F236 MS233 264/082 TB/ S//1=
LVR CNFPYL 2942N 11715E 111153 F236 MS233 262/081 TB/ S//1=
LVR CNFPYL 2949N 11715E 111154 F236 MS238 259/079 TB/ S//1=
0000522200
625
SMMX01 MXBA 111200
AAXX 11121
76040 32920 03101 10079 20052 30188 40202 52003 91150 333   
10248 20042 30/// 58022 70000 98620=
76220 31920 00000 11052 2//// 38184 40279 52010 702// 91150 
333   10184 21052 31080 58/// 70000 96126=
76225 32920 02901 10052 21034 38644 40171 5//// 91145 333   
10215 20052 30000 58055 70000=
76256 32960 00000 10108 20086 30165 40179 5//// 91145 333   
10276 20078 30/// 58021 70000=
76258 32/50 /0205 10100 20074 3//// 4//// 5//// 91150 333   
10276 20094 30056 56000 58/// 70000=
76342 32940 01802 10130 20038 39468 40183 52023 91150 333   
10275 20125 30120 58042 70000=
76382 32960 01101 10094 20072 38925 40198 52010 91145 333   
10244 20081 30068 58050 70000=
76390 31950 01601 10056 21033 38251 40211 52012 70544 91148 
333   10210 20040 30032 58057 70000=
76405 32940 00502 10176 20130 30144 40166 52002 91150 333   
10238 20162 30158 58025 79999=
76458 32960 03502 10160 20127 30141 40146 54000 91142 333   
10271 20142 30116 58013 70000=
76471 32960 00000 10052 20005 37709 40172 5//// 91155 333   
10180 20038 31012 55096 58038 70000=
76491 32556 32301 10130 20128 39782 40172 5//// 83100 91150 
333   10272 20122 30/// 55091 56900 58027 70000 81830=
76499 31/02 93201 10150 20150 30119 40141 5//// 72844 91150 
333   10295 20148 30144 58015 70000=
76539 32958 03601 10065 20055 38163 40200 57005 91150 333   
10233 20063 30035 59006 70000=
76543 31670 62301 10176 20173 30131 40164 53/// 7054/ 86500 
91145 333   10289 20174 30/// 56300 59004 70000 86650=
76548 32860 51301 10182 20179 30145 40155 53009 85030 91145 
333   10282 20180 30178 56050 59005 70000 85358=
76556 32960 61802 10120 20077 39122 40126 52008 86050 91145 
333   10266 20115 30089 56050 58023 70000 86360=
76577 32560 70000 10110 20100 38058 40163 52006 87500 91140 
333   10220 20111 30102 56500 59022 70000 87620=
76585 32980 00000 10160 20154 39991 40149 52009 91140 333   
10256 20159 30146 55067 59003 70000=
76593 32960 01402 10204 20201 30147 40149 57001 91150 333   
10302 20202 30200 59013 70000=
SMMX01 MXBA 111200 
AAXX 11121
76634 31970 01501 10086 20064 37861 40182 52008 70500 91150 
333   10239 20084 30066 58017 79999=
76654 31956 03601 10224 20189 30131 40135 57005 70544 91150 
333   10306 20222 30208 58015 70000=
76662 32660 51101 10110 20089 38475 40160 52003 85400 91144 
333   10260 20108 30102 56/00 58019 70000 85633=
76675 32960 02001 10011 21001 37383 40209 54000 91145 333   
10193 21002 31031 58011 70000=
76680 31562 03201 10097 20082 37764 40111 52007 70000 91150 
333   10210 20080 30080 58021 70000=
76683 32960 00000 10064 20042 37838 40182 5//// 91150 333   
10216 20062 30035 58011 70000=
76685 32950 00000 10078 20054 37869 40143 55000 91145 333   
10230 20078 30038 58007 70000=
76687 32960 02001 10124 20087 38674 40169 52009 91145 333   
10242 20102 30095 59004 70000=
76692 31/08 90000 10193 20190 30124 40143 53008 74744 91145 
333   10279 20191 30183 59012 70000=
76695 32956 00000 10188 20185 30138 40144 52007 91150 333   
10322 20186 30180 59004 70000=
76726 2968 03501 10140 20078 38399 40151 52007 91145 333   1
0272 20130 30124 58009 70000=
76737 32980 03401 10124 20094 38766 40154 52009 91145 333   
10242 20124 30083 59007 70000 91102 91534=
76741 31930 01001 10198 20197 30104 40123 53005 71004 91145 
333   10277 20189 30187 59013 79999=
76743 31940 03401 10200 20185 30129 40137 52007 70200 91145 
333   10250 20200 30195 59013 70000=
76750 32558 11201 10226 20215 30137 40147 52007 81100 91145 
333   10310 20168 30165 56300 59009 79999 81820=
76762 32504 23401 10130 20109 38767 40151 54003 82200 91150 
333   10278 20125 30096 56300 58012 70000 82810=
76773 32940 00000 10104 20083 38429 40133 52005 91148 333   
10298 20091 30082 50451 55100 59001 70000=
76775 32960 00501 10128 20093 38531 40170 52009 91145 333   
10306 20116 30/// 58008 70000=
76805 32960 03201 10222 20197 30127 40130 53004 91145 333   
10351 20212 30205 58009 70000=
76840 32910 00000 10200 20194 30074 40131 52007 91145 333   
10275 20155 30/// 55095 59020 70000=
SMMX01 MXBA 111200 
AAXX 11121
76845 31/05 90000 10086 20083 37957 40193 51007 74544 89/// 
91150 333   10225 20075 30070 58010 70000 89///=
76855 32980 03403 10238 20181 30079 40130 5//// 91145 333   
10330 20216 30/// 55010 58013 70000 92000=
76412 32960 00000 10110 20082 30121 40108 57013 91150 333   
10270 20100 30/// 58012 70000=
76525 32960 03104 10085 21059 37478 40162 52003 91145 333   
10138 20062 30056 58037 70000=
76632 31930 43401 10070 20052 37716 40171 52009 70500 80007 
91145 333   10210 20068 30/// 56001 58018 70000 84271 96122 
=
76640 31010 60000 10188 20185 30149 40161 52008 71044 8322/ 
91140 333   10254 20174 30172 5655/ 59006 70000 83801 83440 
=
76647 32870 20701 10218 20218 30135 40165 52010 82030 91150 
333   10307 20216 30210 560/0 59004 79999 92358=
76698 32558 20000 10212 20208 30145 40158 5//// 82200 91150 
333   10308 20208 30198 56200 58000 70023 82820=
76843 32965 00000 10181 20159 39493 40136 52014 91145 333   
10309 20175 30163 59001 70000=
0000028700
626
SXHW11 KWAL 111205
B15017A0 011120503"
1,140111,11:00:00,7.5,137,8.6,11.5,1014.7,6.03,12.9,
1,140111,11:15:00,6.4,144,7.3,11.5,1014.6,6.03,12.9,
1,140111,11:30:00,5.8,154,7.3,11.5,1014.4,6.03,12.9,
1,140111,11:45:00,6.8,147,7.9,11.5,1014.3,6.03,12.9, 42+0NN 210W
0000012400
627
SMSV01 FDMS 111200
AAXX 11124
68396 32680 50803 10260 20194 39485 48545 57010 85400
333 10260 555 91019=
0000168500
628
SASA85 EGRR 111200 RRA
METAR SARI 111200Z 05009KT CAVOK 27/20 Q1014=
METAR SBAR 111200Z 10009KT 9999 SCT016 28/20 Q1015=
METAR SBBE 111200Z 06003KT 9999 FEW015 SCT100 26/23 Q1013=
METAR SBBR 111200Z 07008KT 9999 FEW030 SCT100 25/16 Q1020=
METAR SBBV 111200Z 06011KT CAVOK 26/18 Q1014=
METAR SBCB 111200Z 06012KT CAVOK 30/21 Q1014=
METAR SBCF 111200Z 08010KT 9999 BKN030 25/16 Q1021=
METAR SBCR 111200Z 03003KT CAVOK 29/22 Q1013=
METAR SBCT 111200Z 03004KT 9999 BKN009 BKN100 23/20 Q1019=
METAR SBCY 111200Z 34003KT CAVOK 27/21 Q1013=
METAR SBCZ 111200Z 00000KT CAVOK 23/23 Q1012=
METAR SBFI 111200Z 06005KT CAVOK 29/23 Q1013=
METAR SBFL 111200Z 32009KT CAVOK 26/21 Q1013=
METAR SBFN 111200Z 10012KT 9999 FEW019 29/20 Q1014=
METAR SBFZ 111200Z 11016KT 9999 SCT025 30/17 Q1013=
METAR SBGL 111200Z 36002KT CAVOK 31/21 Q1014=
METAR SBKP 111200Z 01009KT CAVOK 27/18 Q1018=
METAR SBMA 111200Z 02003KT 9999 FEW015 BKN070 26/24 Q1013=
METAR SBMN 111200Z 05003KT 9999 SCT010 BKN100 23/22 Q1014=
METAR SBMO 111200Z 19005KT 9999 FEW020 28/19 Q1015=
METAR SBNT 111200Z 12014KT 9999 BKN028 28/20 Q1013=
METAR SBPA 111200Z 32003KT CAVOK 25/22 Q1012=
METAR SBRB 111200Z 06003KT 9999 SCT005 SCT100 ///// Q1013=
METAR SBRF 111200Z 20005KT 9999 FEW013 BKN017 OVC060 26/23 Q1014=
METAR SBTT 111200Z 26003KT 9999 BKN012 OVC100 24/24 Q1013=
METAR SPIM 111200Z 15008KT 9999 BKN006 21/19 Q1012 NOSIG RMK PP000=
METAR SUMU 111200Z 18016KT 9999 BKN023 21/16 Q1015 NOSIG=
METAR SVMG 111200Z /////KT 9999 -DZ BKN010 23/22 Q1015 TEMPO=
METAR SVMI 111200Z 00000KT 9999 SCT016 24/19 Q1015 NOSIG=
METAR SVSR 111200Z /////KT CAVOK 21/XX Q1015=
0000026800
629
FTSA85 EGRR 111200 RRE
TAF AMD SBCT 111150Z 1112/1212 15006KT 9999 SCT025 TX30/1118Z TN19/12Z
     09Z
     PROB40 1112/1114 BKN008
     TEMPO 1118/1122 35015KT 6000 TSRA BKN025 FEW 040CB
     PROB40 1206/1211 6000 BKN006 BKN010
     RMK PCD=
0000155700
630
SASA85 EGRR 111200 RRB
METAR SBGO 111200Z 08003KT 9999 FEW045 25/16 Q1018=
METAR SBGR 111200Z 11003KT CAVOK 27/19 Q1018=
METAR SBVT 111200Z 36009KT 9999 SCT023 30/22 Q1017=
METAR SEGU 111200Z 19005KT 9999 FEW016 BKN023 BKN100 24/20 Q1011 RMK
      A2986 NOSIG=
METAR SEMT 111200Z 25004KT 9999 BKN026 23/22 Q1011=
METAR SPCL 111200Z 02005KT 9999 SCT015 BKN070 24/22 Q1012 RMK BIRD
      HAZARD RWY 02/20 PP000=
METAR SPHI 111200Z 17008KT CAVOK 21/19 Q1011 RMK PP000=
METAR SPHO 111200Z VRB02KT 5000 BR SCT020 BKN070 11/10 Q1026 RMK BCFG
      EN QUADS PP000=
METAR SPHY 111200Z 36004KT 8000 3000NW SCT012 BKN040 07/06 Q1035 RMK
      BCFG QUAD NW PP000=
METAR SPJL 111200Z 27005KT CAVOK 08/04 Q1038 RMK PP000=
METAR SPJR 111200Z 00000KT 9999 FEW033 SCT070 09/09 Q1027 RMK PP000=
METAR SPME 111200Z 07005KT 9999 OVC017 24/23 Q1011 RMK BIRD HAZARD
      RWY 32/14 PP000=
METAR SPQT 111200Z 01003KT 8000 BKN008 OVC100 24/22 Q1011 TEMPO 9999
      RMK BIRD HAZARD RWY 06/24 PP000=
METAR SPQU 111200Z 00000KT CAVOK 15/10 Q1024 NOSIG RMK PP000=
METAR SPSO 111200Z /////KT 9999 SCT100 BKN230 21/19 Q1011 RMK BIRD
      HAZARD RWY 22/04 PP000=
METAR SPST 111200Z 00000KT 9999 SCT020 SCT100 24/20 Q1012 RMK BIRD
      HAZARD RWY 17/35 PP000=
METAR SPTN 111200Z VRB02KT CAVOK 21/16 Q1010 RMK PP000=
METAR SPTU 111200Z 00000KT 9999 FEW006 SCT030 24/23 Q1011 RMK BIRD
      HAZARD RWY 01/19 PP000=
METAR SPZO 111200Z VRB02KT 9999 FEW020 SCT040 BKN070 10/07 Q1032 NOSIG
      RMK BCBR QUAD NE PP000=
0000012200
631
SIUK21 EGRR 110900 CCA
AAXX 11094
03894 41584 13507 10073 20045 40202 52033 70265 81501
  333
81620=
0000016700
632
SNST41 EGRR 110200 CCA
AAXX 11024
88889 41581 72124 10039 21020 39937 40023 51031 72782 878//
 333 81824 86629 87641 91031 90710 91325 90710 91134=
0000010000
633
SNST41 EGRR 111100 RRA
AAXX 11114
88900 45/// /0504 10034 20029 39907 49909 58011=
0000024900
634
SMZM01 NSAP 111200
AAXX 11124
91762 11598 80203 10262 20248 40070 58005 60201 71556 8227/ 333 10294
 56999
82820 84461 88278=
91759 11598 60807 10266 20248 40068 58008 60011 71555 83136 333 10293
 56299
83822 83366 86278=
0000039100
635
SMVD15 KWNB 111200 RRE
BBXX
41043 11121 99211 70650 46/// ///12 1//// 40209 53017 91150 22200
00264 10906 20906 305// 41402 70031 333 91216 555 11132 22141
8//14 91147=
41036 11121 99342 70769 46/// /1909 10220 20203 40159 56013 91150
22200 00209 10704 20704 312// 40902 70021 333 91211 555 11101
22109 31107 41911 61149 194093 195091 194087 193087 192089 192089=
00000000