0000060100
972
KSAG30 KWBC 110214
CREX++
T000119 A001 D01021 D06025++
1343872 14465394 APRP7 2014 01 11 01 24 3014 05 07 00 06
00577 0102 00589 0109 00589 0103 00590 0098 00585 0125 ///// ////+
1342830 14479700 PGBP7 2014 01 11 01 24 //// 00 07 00 06
00541 0140 00530 0124 00554 0143 00555 0139 00555 0134 ///// ////+
0873161 16773622 KWJP8 2014 01 11 01 24 3021 00 07 00 06
01000 0025 01020 0046 01018 0044 01020 0048 01008 0038 ///// ////+
1929000 16661800 WAKP8 2014 01 11 01 24 2984 00 07 00 06
00492 -0045 00493 -0040 00479 -0049 00479 -0044 00466 -0052 ///// ////++
7777

0000161100
973
KSAB33 KWBC 110214 RRA
CREX++
T000119 A001 D01021 D06021++
5533183 -13162619 KECA2 2014 01 11 01 30 00 07 029 09974 085 0015+
5624670 -13464700 PLXA2 2014 01 11 01 30 00 07 026 09960 287 0005+
5705170 -13534200 ITKA2 2014 01 11 01 30 00 07 015 09963 /// ////+
5829830 -13441200 JNEA2 2014 01 11 01 30 00 07 025 09967 076 0020+
5945000 -13532700 SKTA2 2014 01 11 01 30 00 07 031 09932 /// ////+
5819472 -13634694 ELFA2 2014 01 11 01 30 00 07 015 09955 /// ////+
5954850 -13973340 YATA2 2014 01 11 01 30 00 07 /// 09941 /// ////+
6055830 -14575300 CRVA2 2014 01 11 01 30 00 07 005 09924 110 0010+
6068330 -15139800 NKTA2 2014 01 11 01 30 00 07 -027 09955 140 0005+
6123831 -14989000 ANTA2 2014 01 11 01 30 00 07 -038 09951 016 0020+
5773170 -15251200 KDAA2 2014 01 11 01 30 00 07 008 09957 169 0000+
5689830 -15424700 ALIA2 2014 01 11 01 30 00 07 022 09966 090 0008+
5506170 -16232700 KGCA2 2014 01 11 01 30 00 07 037 09927 144 0035+
5186330 -17663200 ADKA2 2014 01 11 01 30 00 07 042 09768 216 0128+
5223170 -17417300 ATKA2 2014 01 11 01 30 00 07 041 09800 /// ////+
5294061 -16887131 OLSA2 2014 01 11 01 30 00 07 050 09845 304 0042+
5388000 -16653700 UNLA2 2014 01 11 01 30 00 07 050 09843 186 0067+
5599000 -16056200 PMOA2 2014 01 11 01 30 00 07 026 09933 /// ////+
5712531 -17028517 VCVA2 2014 01 11 01 30 00 07 014 09859 104 0024+
6450000 -16543000 NMTA2 2014 01 11 01 30 00 07 -123 10039 042 0047+
6757670 -16406500 RDDA2 2014 01 11 01 30 00 07 -143 10090 020 0059+
7040000 -14852700 PRDA2 2014 01 11 01 30 00 07 -310 10100 268 0070++
7777

0000322900
974
KSAB33 KWBC 110214
CREX++
T000119 A001 D01021 D06025++
5533183 -13162619 KECA2 2014 01 11 01 24 2790 00 07 00 06
01127 -0002 01189 0005 01250 0009 01328 0028 01374 0013 ///// ////+
5624670 -13464700 PLXA2 2014 01 11 01 24 2796 00 07 00 06
00619 -0046 00647 -0048 00692 -0034 00709 -0050 00753 -0041 ///// ////+
5705170 -13534200 ITKA2 2014 01 11 01 24 2798 00 07 00 06
00509 -0114 00552 -0099 00584 -0097 00616 -0096 00652 -0093 ///// ////+
5829830 -13441200 JNEA2 2014 01 11 01 24 2762 00 07 00 06
00926 -0059 00977 -0056 01039 -0045 01099 -0038 01157 -0036 ///// ////+
5945000 -13532700 SKTA2 2014 01 11 01 24 2759 00 07 00 06
00909 -0002 00965 0009 01016 0012 01066 0011 01123 0014 ///// ////+
5819472 -13634694 ELFA2 2014 01 11 01 24 2802 00 07 00 06
00559 0014 00591 0018 00630 0027 00661 0026 00695 0027 ///// ////+
5954850 -13973340 YATA2 2014 01 11 01 24 2780 00 07 00 06
00399 -0165 00405 -0181 00419 -0191 00447 -0189 00468 -0196 ///// ////+
6055830 -14575300 CRVA2 2014 01 11 01 24 2788 00 07 00 06
00828 0081 00847 0080 00868 0078 00889 0074 00912 0070 ///// ////+
6012000 -14942667 SWLA2 2014 01 11 01 24 2780 00 07 00 06
00436 -0122 00468 -0108 00486 -0110 00501 -0117 00536 -0106 ///// ////+
5944053 -15171994 OVIA2 2014 01 11 01 24 2786 00 07 00 06
00837 -0043 00834 -0036 00821 -0043 00818 -0044 00818 -0045 ///// ////+
6068330 -15139800 NKTA2 2014 01 11 01 24 2726 00 07 00 06
02619 -0257 02514 -0247 02415 -0231 02319 -0210 02219 -0193 ///// ////+
6123831 -14989000 ANTA2 2014 01 11 01 24 2722 06 07 00 06
06996 -0139 06862 -0152 06723 -0167 06583 -0180 06436 -0199 ///// ////+
5773170 -15251200 KDAA2 2014 01 11 01 24 2765 00 07 00 06
00271 -0119 00272 -0118 00283 -0109 00283 -0112 00285 -0115 ///// ////+
5689830 -15424700 ALIA2 2014 01 11 01 24 2764 00 07 00 06
00466 0034 00468 0043 00473 0052 00482 0062 00488 0066 ///// ////+
5506170 -16232700 KGCA2 2014 01 11 01 24 2775 00 07 00 06
00342 0109 00341 0122 00328 0122 00330 0135 00320 0136 ///// ////+
5186330 -17663200 ADKA2 2014 01 11 01 24 2775 00 07 00 06
00944 0108 00878 0068 00878 0094 00837 0079 00822 0090 ///// ////+
5223170 -17417300 ATKA2 2014 01 11 01 24 2778 00 07 00 06
00889 0122 00872 0128 00830 0110 00775 0078 00800 0127 ///// ////+
5294061 -16887131 OLSA2 2014 01 11 01 24 //// 00 07 00 06
00823 0138 00820 //// 00792 0166 00720 0124 00693 0126 ///// ////+
5388000 -16653700 UNLA2 2014 01 11 01 24 2788 00 07 00 06
00857 0020 00852 0043 00808 0028 00757 0006 00710 -0012 ///// ////+
5599000 -16056200 PMOA2 2014 01 11 01 24 //// 00 07 00 06
03029 0129 03064 0128 03095 0125 03109 0107 03139 0108 ///// ////+
5712531 -17028517 VCVA2 2014 01 11 01 24 2755 00 07 00 06
00916 0150 00880 0136 00874 0153 00829 0130 00839 0163 ///// ////+
6450000 -16543000 NMTA2 2014 01 11 01 24 2722 00 07 00 06
00335 0123 ///// //// 00325 0125 00320 0125 00310 0120 ///// ////+
6757670 -16406500 RDDA2 2014 01 11 01 24 2714 00 07 00 06
00069 0014 00069 0010 00075 0011 00069 0000 00062 -0011 ///// ////+
7040000 -14852700 PRDA2 2014 01 11 01 24 2712 00 07 00 06
00062 0083 00076 0095 00076 0092 00079 0093 00085 0096 ///// ////++
7777

0000509100
975
KSAB32 KWBC 110214
CREX++
T000119 A001 D01021 D06025++
2821170 -17736000 SNDP5 2014 01 11 01 24 2934 00 07 00 06
00257 0057 00254 0061 00244 0058 00238 0060 00230 0059 ///// ////+
3271419 -11717358 SDBC1 2014 01 11 01 24 2888 00 07 00 06
01044 0054 01060 0059 01076 0065 01083 0062 01086 0057 ///// ////+
3286670 -11725800 LJAC1 2014 01 11 01 24 2888 00 07 00 06
00938 0010 00963 0024 00982 0033 00978 0020 00994 0028 ///// ////+
3372000 -11827200 OHBC1 2014 01 11 01 24 2891 00 07 00 06
00963 0026 00962 0013 00964 0004 00959 -0011 00986 0007 ///// ////+
3400830 -11850000 ICAC1 2014 01 11 01 24 2886 00 07 00 06
00936 0031 00946 0028 00977 0047 00974 0034 00966 0016 ///// ////+
3440830 -11968500 NTBC1 2014 01 11 01 24 //// 00 07 00 06
00869 0059 00915 0090 00865 0026 00902 0049 00912 0046 ///// ////+
3446830 -12067300 HRVC1 2014 01 11 01 24 //// 00 07 00 06
00794 -0021 00818 -0013 00828 -0019 00849 -0013 00848 -0028 ///// ////+
3517670 -12076000 PSLC1 2014 01 11 01 24 2868 00 07 00 06
00821 -0028 00830 -0037 00820 -0063 00880 -0019 00896 -0019 ///// ////+
3780669 -12246500 FTPC1 2014 01 11 01 24 2843 00 07 00 06
00627 -0066 00633 -0087 00679 -0068 00688 -0086 00712 -0088 ///// ////+
3750670 -12221000 RTYC1 2014 01 11 01 24 2843 05 07 00 06
00608 -0131 00651 -0131 00692 -0133 00735 -0135 00779 -0136 ///// ////+
3777167 -12229833 AAMC1 2014 01 11 01 24 2843 05 07 00 06
00526 -0158 00575 -0141 00614 -0134 00645 -0135 00666 -0147 ///// ////+
3792830 -12240000 RCMC1 2014 01 11 01 24 2839 05 07 00 06
00534 -0127 00577 -0113 00610 -0108 00635 -0111 00666 -0108 ///// ////+
3799610 -12297670 PRYC1 2014 01 11 01 24 2851 00 07 00 06
00776 -0061 00773 -0088 00799 -0086 00817 -0090 00829 -0101 ///// ////+
3803464 -12212519 MZXC1 2014 01 11 01 24 2830 05 07 00 06
00018 -0298 00034 -0301 00049 -0304 00068 -0305 00089 -0304 ///// ////+
3805600 -12203950 PCOC1 2014 01 11 01 24 2834 05 07 00 06
-00048 -0099 -00044 -0105 -00047 -0120 -00042 -0128 -00040 -0140 ///// ////+
3891330 -12370800 ANVC1 2014 01 11 01 24 2841 05 07 00 06
00756 -0149 00799 -0131 00801 -0153 00847 -0130 00879 -0121 ///// ////+
4076670 -12421700 HBYC1 2014 01 11 01 24 2830 00 07 00 06
00896 -0011 00940 0003 00979 0013 01018 0022 01061 0036 ///// ////+
4174500 -12418300 CECC1 2014 01 11 01 24 2828 05 07 00 06
00839 -0134 00765 -0239 00879 -0155 00982 -0082 00940 -0154 ///// ////+
4273897 -12449828 PORO3 2014 01 11 01 24 2825 00 07 00 06
00871 -0072 00940 -0036 00979 -0029 01012 -0027 01038 -0034 ///// ////+
4334500 -12432200 CHAO3 2014 01 11 01 24 2821 00 07 00 06
00907 -0048 00972 -0017 01008 -0015 01026 -0032 01111 0019 ///// ////+
4462500 -12404300 SBEO3 2014 01 11 01 24 2815 00 07 00 06
01002 0013 01040 0012 01081 0015 01111 0007 01151 0009 ///// ////+
4555453 -12391894 TLBO3 2014 01 11 01 24 2818 00 07 00 06
01039 0260 01078 0265 01129 0282 01125 0243 01182 0265 ///// ////+
4620170 -12394500 HMDO3 2014 01 11 01 24 2796 06 07 00 06
00759 -0044 00800 -0037 00817 -0056 00857 -0052 00896 -0050 ///// ////+
4620731 -12376831 ASTO3 2014 01 11 01 24 2799 00 07 00 06
00630 0003 00667 0007 00700 0006 00743 0013 00784 0018 ///// ////+
4616000 -12340500 WAUO3 2014 01 11 01 24 //// 05 07 00 06
00545 0641 00530 0622 00540 0626 00541 0618 00540 0606 ///// ////+
4586500 -12279700 SHNO3 2014 01 11 01 24 //// 00 07 00 06
01367 0574 01358 0579 01347 0582 01337 0585 01330 0592 ///// ////+
4563170 -12269700 VAPW1 2014 01 11 01 24 //// 00 07 00 06
01443 0493 01435 0493 01428 0493 01421 0494 01413 0494 ///// ////+
4610611 -12295417 LOPW1 2014 01 11 01 24 2792 00 07 00 06
01336 0786 01298 0769 01302 0794 01293 0805 01281 0813 ///// ////+
4626670 -12345200 SKAW1 2014 01 11 01 24 //// 00 07 00 06
00381 0380 00387 0372 00386 0356 00399 0350 00411 0342 ///// ////+
4670747 -12396692 TOKW1 2014 01 11 01 24 2806 00 07 00 06
00975 0154 01002 0145 01050 0155 01093 0159 01139 0165 ///// ////+
4690431 -12410508 WPTW1 2014 01 11 01 24 2810 00 07 00 06
01085 0115 01087 0080 01119 0074 01143 0060 01193 0071 ///// ////+
4791330 -12463700 LAPW1 2014 01 11 01 24 2793 00 07 00 06
01127 0316 01131 0283 01141 0255 01169 0245 01249 0287 ///// ////+
4812500 -12344000 PTAW1 2014 01 11 01 24 2806 00 07 00 06
00192 -0007 00167 -0031 00171 -0029 00199 -0004 00207 0000 ///// ////+
4811170 -12275800 PTWW1 2014 01 11 01 24 2810 00 07 00 06
00194 -0083 00187 -0071 00193 -0047 00182 -0043 00178 -0033 ///// ////+
4726667 -12241333 TCNW1 2014 01 11 01 24 2810 00 07 00 06
00654 -0044 00602 -0040 00554 -0035 00507 -0031 00456 -0034 ///// ////+
4760264 -12233931 EBSW1 2014 01 11 01 24 2818 00 07 00 06
00559 -0139 00512 -0135 00458 -0140 00411 -0141 00367 -0142 ///// ////+
4886330 -12275800 CHYW1 2014 01 11 01 24 2814 00 07 00 06
00551 -0094 00514 -0085 00478 -0076 00435 -0076 00394 -0076 ///// ////+
4854667 -12301000 FRDW1 2014 01 11 01 24 2809 00 07 00 06
00359 -0117 00333 -0110 00310 -0103 00282 -0101 00252 -0104 ///// ////++
7777

0000036000
976
KSAG30 KWBC 110214 RRA
CREX++
T000119 A001 D01021 D06021++
1343872 14465394 APRP7 2014 01 11 01 30 00 07 290 10124 085 0050+
1342830 14479700 PGBP7 2014 01 11 01 30 00 07 /// 10130 065 0043+
0873161 16773622 KWJP8 2014 01 11 01 30 00 07 295 10087 071 0044+
1929000 16661800 WAKP8 2014 01 11 01 30 00 07 261 10141 062 0052++
7777

0000449700
977
KSAB31 KWBC 110214
CREX++
T000119 A001 D01021 D06025++
3002717 -09011342 NWCL1 2014 01 11 01 24 2830 00 07 00 06
00106 0209 00107 0209 00110 0211 00110 0210 00113 0212 ///// ////+
2911425 -09019925 PTFL1 2014 01 11 01 24 //// 00 07 00 06
00479 0215 00484 0222 00484 0224 00477 0220 00469 0214 ///// ////+
2978856 -09042019 BYGL1 2014 01 11 01 24 2828 00 07 00 06
-90402 //// -90402 //// -90399 //// -90398 //// -90398 //// ///// ////+
2966750 -09123761 TESL1 2014 01 11 01 24 2786 00 07 00 06
00195 0076 00197 0078 00198 0079 00197 0078 00194 0075 ///// ////+
2944958 -09133811 AMRL1 2014 01 11 01 24 2815 00 07 00 06
00439 0082 00438 0081 00437 0081 00437 0082 00444 0089 ///// ////+
2955500 -09230500 FRWL1 2014 01 11 01 24 2813 05 07 00 06
00719 0240 00676 0195 00666 0182 00682 0196 00733 0243 ///// ////+
3022364 -09322167 LCLL1 2014 01 11 01 24 2841 00 07 00 06
00405 0073 00403 0071 00405 0074 00402 0071 00402 0071 ///// ////+
3019031 -09330069 BKTL1 2014 01 11 01 24 2838 00 07 00 06
00391 0041 00393 0044 00393 0045 00391 0044 00391 0045 ///// ////+
2976817 -09334289 CAPL1 2014 01 11 01 24 2826 00 07 00 06
00544 0131 00554 0137 00573 0152 00595 0171 00605 0177 ///// ////+
2986670 -09393000 PORT2 2014 01 11 01 24 2828 00 07 00 06
00294 0192 00306 0205 00312 0211 00314 0213 00278 0177 ///// ////+
2998000 -09388170 RBBT2 2014 01 11 01 24 //// 00 07 00 06
00289 0174 00299 0185 00297 0184 00308 0196 00306 0194 ///// ////+
2972840 -09387010 SBPT2 2014 01 11 01 24 2826 05 07 00 06
00443 0202 00460 0218 00470 0227 00472 0228 00482 0237 ///// ////+
2968170 -09498500 MGPT2 2014 01 11 01 24 2814 00 07 00 06
00380 0188 00363 0170 00381 0188 00370 0178 00388 0196 ///// ////+
2972628 -09526581 NCHT2 2014 01 11 01 24 2871 00 07 00 06
00418 //// 00418 //// 00419 //// 00411 //// 00417 //// ///// ////+
2968928 -09384181 TXPT2 2014 01 11 01 24 2829 00 07 00 06
00557 0260 00564 0265 00589 0289 00565 0263 00602 0298 ///// ////+
2951500 -09451330 RLOT2 2014 01 11 01 24 2849 00 07 00 06
00413 0180 00405 0172 00413 0180 00410 0178 00420 0188 ///// ////+
2948000 -09491830 EPTT2 2014 01 11 01 24 //// 05 07 00 06
00430 0314 00427 0310 00434 0316 00433 0315 00447 0328 ///// ////+
2935733 -09472483 GNJT2 2014 01 11 01 24 2833 00 07 00 06
00484 0209 00483 0207 00482 0204 00482 0202 00482 0200 ///// ////+
2931000 -09479330 GTOT2 2014 01 11 01 24 2836 00 07 00 06
00416 0192 00425 0201 00422 0198 00425 0202 00426 0203 ///// ////+
2894331 -09530250 FCGT2 2014 01 11 01 24 2850 00 07 00 06
00400 0102 00391 0093 00392 0094 00394 0096 00403 0105 ///// ////+
2840830 -09671170 SDRT2 2014 01 11 01 24 2874 00 07 00 06
-00015 0067 -00011 0071 -00012 0070 -00013 0069 -00009 0072 ///// ////+
2864000 -09659500 VCAT2 2014 01 11 01 24 2855 00 07 00 06
00203 0105 00205 0106 00208 0108 00212 0111 00215 0113 ///// ////+
2845170 -09638830 PCNT2 2014 01 11 01 24 //// 00 07 00 06
00181 //// 00184 //// 00184 //// 00186 //// 00179 //// ///// ////+
2811830 -09702170 CPNT2 2014 01 11 01 24 2844 00 07 00 06
00041 0100 00044 0102 00047 0104 00048 0105 00050 0106 ///// ////+
2802170 -09704670 RCPT2 2014 01 11 01 24 2866 00 07 00 06
00058 0091 00060 0093 00062 0094 00061 0092 00059 0089 ///// ////+
2783830 -09707330 RTAT2 2014 01 11 01 24 2853 00 07 00 06
00241 //// 00240 //// 00242 //// 00248 //// 00241 //// ///// ////+
2782170 -09720330 NGLT2 2014 01 11 01 24 2856 00 07 00 06
00058 -0003 00062 0000 00064 0002 00060 -0002 00070 0007 ///// ////+
2763330 -09723670 PACT2 2014 01 11 01 24 2872 00 07 00 06
00067 0097 00068 0097 00069 0098 00070 0098 00069 0096 ///// ////+
2758000 -09721670 MQTT2 2014 01 11 01 24 2864 00 07 00 06
00352 0052 00354 0055 00351 0052 00349 0050 00343 0045 ///// ////+
2748000 -09732170 IRDT2 2014 01 11 01 24 2876 00 07 00 06
-99379 //// -99378 //// -99378 //// -99377 //// -99377 //// ///// ////+
2729500 -09740500 BABT2 2014 01 11 01 24 2876 00 07 00 06
-95848 //// -95842 //// -95895 //// -95852 //// -95847 //// ///// ////+
2682500 -09749170 RSJT2 2014 01 11 01 24 //// 00 07 00 06
-98891 //// -98893 //// -98894 //// -98895 //// -98897 //// ///// ////+
2607670 -09717670 PCGT2 2014 01 11 01 24 2872 00 07 00 06
00366 0000 00368 0003 00364 0000 00364 0001 00363 0001 ///// ////+
2606000 -09721500 PTIT2 2014 01 11 01 24 2876 00 07 00 06
00366 0096 00365 0096 00358 0090 00358 0091 00355 0089 ///// ////++
7777

0000166100
978
KSAE30 KWBC 110214
CREX++
T000119 A001 D01021 D06025++
1775000 -06470500 CHSV3 2014 01 11 01 24 3000 00 07 00 06
00013 0031 00015 0033 00012 0030 00009 0027 00012 0030 ///// ////+
1831825 -06472422 LAMV3 2014 01 11 01 24 2990 00 07 00 06
00005 0046 00008 0051 00011 0055 00011 0056 ///// //// ///// ////+
1769472 -06475381 LTBV3 2014 01 11 01 24 2994 00 07 00 06
-00011 0027 -00016 0021 ///// //// -00015 0021 -00014 0021 ///// ////+
1833583 -06492000 CHAV3 2014 01 11 01 24 //// 00 07 00 06
-00001 0057 -00010 0049 -00010 0051 00008 0070 00020 0083 ///// ////+
1815253 -06544381 VQSP4 2014 01 11 01 24 //// 00 07 00 06
00013 0019 00002 0011 -00007 0005 -00007 0008 -00027 -0010 ///// ////+
1833522 -06563111 FRDP4 2014 01 11 01 24 //// 00 07 00 06
00016 0011 00014 0013 00011 0013 00002 0008 -00013 -0004 ///// ////+
1805508 -06583300 YABP4 2014 01 11 01 24 2989 00 07 00 06
00042 0079 00016 0053 00018 0055 00025 0062 00021 0058 ///// ////+
1845894 -06611642 SJNP4 2014 01 11 01 24 2995 00 07 00 06
-00031 -0007 -00030 -0001 -00032 0002 -00031 0007 -00031 0011 ///// ////+
1848053 -06670236 AROP4 2014 01 11 01 24 //// 05 07 00 06
-00020 -0006 -00027 -0010 -00007 0012 -00007 0013 -00009 0012 ///// ////+
1797008 -06704642 MGIP4 2014 01 11 01 24 2993 00 07 00 06
00042 0076 00037 0071 00031 0065 00033 0066 00035 0068 ///// ////+
1822000 -06716000 MGZP4 2014 01 11 01 24 3005 00 07 00 06
00013 0012 00000 0002 -00008 -0002 00007 0016 00019 0030 ///// ////+
1808992 -06793850 MISP4 2014 01 11 01 24 2982 00 07 00 06
00049 0021 00060 0033 00060 0034 00044 0019 00051 0028 ///// ////++
7777

0000098500
979
KSAE30 KWBC 110214 RRA
CREX++
T000119 A001 D01021 D06021++
1775000 -06470500 CHSV3 2014 01 11 01 30 00 07 252 10183 098 0022+
1831825 -06472422 LAMV3 2014 01 11 01 30 00 07 256 10188 /// ////+
1769472 -06475381 LTBV3 2014 01 11 01 30 00 07 252 10181 082 0023+
1833583 -06492000 CHAV3 2014 01 11 01 30 00 07 257 10191 067 0027+
1815253 -06544381 VQSP4 2014 01 11 01 30 00 07 252 ///// 092 0028+
1833522 -06563111 FRDP4 2014 01 11 01 30 00 07 257 10205 070 0068+
1805508 -06583300 YABP4 2014 01 11 01 30 00 07 248 ///// 008 0008+
1845894 -06611642 SJNP4 2014 01 11 01 30 00 07 260 10189 086 0042+
1848053 -06670236 AROP4 2014 01 11 01 30 00 07 232 10246 137 0022+
1797008 -06704642 MGIP4 2014 01 11 01 30 00 07 232 10179 156 0003+
1822000 -06716000 MGZP4 2014 01 11 01 30 00 07 244 10259 065 0022+
1808992 -06793850 MISP4 2014 01 11 01 30 00 07 251 10180 /// ////+
1759069 -06182056 BARA9 2014 01 11 01 30 00 07 244 10182 076 0028++
7777

0000513000
980
KSAA30 KWBC 110214 RRA
CREX++
T000119 A001 D01021 D06021++
4490460 -06698290 PSBM1 2014 01 11 01 30 00 07 -013 10265 217 0018+
4465670 -06721000 CFWM1 2014 01 11 01 30 00 07 -010 10267 318 0023+
4439170 -06820500 ATGM1 2014 01 11 01 30 00 07 -016 10272 358 0025+
4365670 -07024670 CASM1 2014 01 11 01 30 00 07 -008 10266 /// ////+
4332000 -07056331 WELM1 2014 01 11 01 30 00 07 -009 10265 226 0018+
4235480 -07105340 BHBM3 2014 01 11 01 30 00 07 031 10262 /// ////+
4170430 -07116410 FRVM3 2014 01 11 01 30 00 07 009 10268 /// ////+
4170500 -07117330 BLTM3 2014 01 11 01 30 00 07 014 10271 094 0000+
4152330 -07067170 BZBM3 2014 01 11 01 30 00 07 052 10272 /// ////+
4128500 -07009670 NTKM3 2014 01 11 01 30 00 07 046 10278 173 0028+
4150500 -07132670 NWPR1 2014 01 11 01 30 00 07 028 10261 100 0003+
4171670 -07134330 CPTR1 2014 01 11 01 30 00 07 006 10275 107 0012+
4163717 -07133928 PTCR1 2014 01 11 01 30 00 07 009 10265 109 0008+
4180710 -07140120 FOXR1 2014 01 11 01 30 00 07 005 10266 320 0000+
4158680 -07141100 QPTR1 2014 01 11 01 30 00 07 014 10270 093 0010+
4136139 -07208997 NLNC3 2014 01 11 01 30 00 07 004 10262 359 0025+
4128330 -07290830 NWFC3 2014 01 11 01 30 00 07 010 10265 042 0017+
4117330 -07318170 BRHC3 2014 01 11 01 30 00 07 013 10258 037 0008+
4104830 -07196000 MTKN6 2014 01 11 01 30 00 07 040 10259 /// ////+
4081030 -07376490 KPTN6 2014 01 11 01 30 00 07 008 10260 022 0020+
4070060 -07401420 BATN6 2014 01 11 01 30 00 07 015 10261 /// ////+
4065670 -07406500 ROBN4 2014 01 11 01 30 00 07 010 10251 305 0016+
4046690 -07400940 SDHN4 2014 01 11 01 30 00 07 016 ///// /// ////+
3935500 -07441830 ACYN4 2014 01 11 01 30 00 07 074 10245 /// ////+
3896833 -07496000 CMAN4 2014 01 11 01 30 00 07 096 10248 150 0043+
3930500 -07537500 SJSN4 2014 01 11 01 30 00 07 028 10260 019 0014+
4008170 -07486970 BDRN4 2014 01 11 01 30 00 07 010 10258 046 0014+
3981170 -07541000 MRCP1 2014 01 11 01 30 00 07 015 10257 /// ////+
3993333 -07514167 PHBP1 2014 01 11 01 30 00 07 015 10251 /// ////+
4013670 -07475170 NBLP1 2014 01 11 01 30 00 07 014 10265 124 0010+
3958170 -07558830 DELD1 2014 01 11 01 30 00 07 014 10254 348 0016+
3955831 -07557331 RDYD1 2014 01 11 01 30 00 07 019 10250 /// ////+
3878169 -07512000 LWSD1 2014 01 11 01 30 00 07 083 10242 155 0024+
3832833 -07509167 OCIM2 2014 01 11 01 30 00 07 089 10247 164 0041+
3822000 -07603830 BISM2 2014 01 11 01 30 00 07 048 10235 088 0040+
3857330 -07606830 CAMM2 2014 01 11 01 30 00 07 050 10241 317 0009+
3921333 -07624500 TCBM2 2014 01 11 01 30 00 07 015 10249 041 0008+
3952670 -07581000 CHCM2 2014 01 11 01 30 00 07 023 10248 080 0008+
3926667 -07657833 BLTM2 2014 01 11 01 30 00 07 028 10243 092 0027+
3922000 -07652830 FSKM2 2014 01 11 01 30 00 07 020 10247 037 0020+
3898328 -07648156 APAM2 2014 01 11 01 30 00 07 019 10242 /// ////+
3840436 -07638550 COVM2 2014 01 11 01 30 00 07 024 10240 324 0025+
3887333 -07702167 WASD2 2014 01 11 01 30 00 07 029 10242 026 0007+
3760778 -07568583 WAHV2 2014 01 11 01 30 00 07 088 10246 046 0002+
3716519 -07598844 KPTV2 2014 01 11 01 30 00 07 /// ///// 141 0056+
3753830 -07601500 RPLV2 2014 01 11 01 30 00 07 /// 10245 117 0071+
3799611 -07646444 LWTV2 2014 01 11 01 30 00 07 037 10235 101 0024+
3725000 -07633330 YKRV2 2014 01 11 01 30 00 07 060 10235 132 0045+
3722667 -07647833 YKTV2 2014 01 11 01 30 00 07 050 10236 077 0020+
3696232 -07642421 DOMV2 2014 01 11 01 30 00 07 073 10238 088 0012+
3688830 -07633830 CRYV2 2014 01 11 01 30 00 07 /// 10238 163 0026+
3694667 -07633000 SWPV2 2014 01 11 01 30 00 07 /// 10234 /// ////+
3698170 -07632170 WDSV2 2014 01 11 01 30 00 07 075 10229 096 0020+
3696667 -07611333 CBBV2 2014 01 11 01 30 00 07 087 10238 111 0019+
3693000 -07600670 CHYV2 2014 01 11 01 30 00 07 108 10228 148 0051+
3677830 -07630170 MNPV2 2014 01 11 01 30 00 07 091 10236 123 0011+
3618331 -07574669 DUKN7 2014 01 11 01 30 00 07 117 10234 138 0050+
3579500 -07554830 ORIN7 2014 01 11 01 30 00 07 134 10246 111 0029+
3520864 -07570417 HCGN7 2014 01 11 01 30 00 07 171 10243 156 0055+
3472000 -07667000 BFTN7 2014 01 11 01 30 00 07 149 10231 129 0046+
3422670 -07795330 WLON7 2014 01 11 01 30 00 07 188 10210 /// ////+
3421330 -07778670 JMPN7 2014 01 11 01 30 00 07 171 10211 136 0050+
3365500 -07891830 MROS1 2014 01 11 01 30 00 07 142 10208 062 0014+
3278170 -07992500 CHTS1 2014 01 11 01 30 00 07 136 10205 164 0012+
3203330 -08090170 FPKG1 2014 01 11 01 30 00 07 177 10200 111 0032+
3067170 -08146500 FRDF1 2014 01 11 01 30 00 07 178 10193 133 0011+
3039670 -08143000 MYPF1 2014 01 11 01 30 00 07 163 ///// 101 0008+
3019170 -08169170 BKBF1 2014 01 11 01 30 00 07 179 10198 028 0003+
2841580 -08059310 TRDF1 2014 01 11 01 30 00 07 208 10197 125 0014+
2661170 -08003330 LKWF1 2014 01 11 01 30 00 07 250 10189 136 0068+
2573140 -08016180 VAKF1 2014 01 11 01 30 00 07 246 10187 116 0034+
2471170 -08110500 VCAF1 2014 01 11 01 30 00 07 249 10180 114 0024+
2455570 -08180790 KYWF1 2014 01 11 01 30 00 07 246 10175 /// ////++
7777

0000236500
981
KSAB32 KWBC 110214 RRA
CREX++
T000119 A001 D01021 D06021++
3271419 -11717358 SDBC1 2014 01 11 01 30 00 07 /// 10184 /// ////+
3271394 -11717533 IIWC1 2014 01 11 01 30 00 07 160 ///// 335 0003+
3286670 -11725800 LJAC1 2014 01 11 01 30 00 07 150 10180 018 0009+
3372000 -11827200 OHBC1 2014 01 11 01 30 00 07 /// 10171 /// ////+
3400830 -11850000 ICAC1 2014 01 11 01 30 00 07 151 10179 190 0009+
3440830 -11968500 NTBC1 2014 01 11 01 30 00 07 146 10175 049 0012+
3517670 -12076000 PSLC1 2014 01 11 01 30 00 07 /// 10198 /// ////+
3660500 -12188800 MTYC1 2014 01 11 01 30 00 07 107 10223 321 0025+
3780669 -12246500 FTPC1 2014 01 11 01 30 00 07 102 10225 227 0034+
3750670 -12221000 RTYC1 2014 01 11 01 30 00 07 126 10217 292 0016+
3777167 -12229833 AAMC1 2014 01 11 01 30 00 07 125 10218 287 0007+
3792830 -12240000 RCMC1 2014 01 11 01 30 00 07 120 10219 195 0013+
3799610 -12297670 PRYC1 2014 01 11 01 30 00 07 121 10223 322 0042+
3803464 -12212519 MZXC1 2014 01 11 01 30 00 07 124 10216 025 0009+
3805600 -12203950 PCOC1 2014 01 11 01 30 00 07 129 10218 119 0004+
3891330 -12370800 ANVC1 2014 01 11 01 30 00 07 086 10232 058 0015+
4076670 -12421700 HBYC1 2014 01 11 01 30 00 07 095 10227 149 0010+
4174500 -12418300 CECC1 2014 01 11 01 30 00 07 088 10220 181 0036+
4273897 -12449828 PORO3 2014 01 11 01 30 00 07 107 10197 188 0111+
4334500 -12432200 CHAO3 2014 01 11 01 30 00 07 /// 10182 106 0013+
4462500 -12404300 SBEO3 2014 01 11 01 30 00 07 101 10160 192 0050+
4555453 -12391894 TLBO3 2014 01 11 01 30 00 07 103 10146 /// ////+
4620731 -12376831 ASTO3 2014 01 11 01 30 00 07 082 10119 108 0024+
4610611 -12295417 LOPW1 2014 01 11 01 30 00 07 095 10139 127 0053+
4670747 -12396692 TOKW1 2014 01 11 01 30 00 07 092 10103 168 0133+
4690431 -12410508 WPTW1 2014 01 11 01 30 00 07 096 10087 188 0109+
4791330 -12463700 LAPW1 2014 01 11 01 30 00 07 080 10064 147 0067+
4812500 -12344000 PTAW1 2014 01 11 01 30 00 07 070 10080 277 0009+
4811170 -12275800 PTWW1 2014 01 11 01 30 00 07 083 10101 131 0091+
4726667 -12241333 TCNW1 2014 01 11 01 30 00 07 080 10128 /// ////+
4760264 -12233931 EBSW1 2014 01 11 01 30 00 07 088 10129 133 0031+
4886330 -12275800 CHYW1 2014 01 11 01 30 00 07 /// 10096 /// ////+
4854667 -12301000 FRDW1 2014 01 11 01 30 00 07 074 10095 103 0048++
7777

0000024900
982
SNHK22 VHHH 110200
AAXX 11021
45032 36/// /1103 10168 20102 30239 40255 54000=
45035 36/// /0603 10174 20114 30218 40260 54000=
45039 36/// /0003 10163 20103 30247 40262 57001=
45044 36/// /1102 10179 20122 30163 40257 54000=
0000013200
983
SNAU41 AMMC 110100 RRC
AAXX 11014
94439 11975 00915 10380 20172 39549 40115 57004 60004 70000
  333 70000=


0000332500
984
SAWD01 OEJD 110200
METAR DAAG 110200Z VRB02KT 9999 FEW030 SCT080 11/07 Q1016=
METAR DTTA 110200Z 00000KT 3000 R19/0800VP2000U R11/0800VP2000U BR
 SCT026 08/07 Q1018 NOSIG=
METAR EBBR 110150Z 21009KT 9999 BKN011 03/02 Q1016 NOSIG=
METAR EDDH 110150Z 23010KT 9999 BKN011 06/04 Q1012 NOSIG=
METAR EFHK 110150Z 34010KT 9999 BKN010 M03/M04 Q0995 BECMG BKN008=
METAR EGLL 110150Z AUTO 19007KT 9999 -RA SCT004 SCT006 BKN041
    07/07 Q1013 REDZ=
METAR EHAM 110155Z 21012KT 8000 SCT009 OVC012 06/04 Q1014 BECMG 7000=
METAR EIDW 110200Z 24010KT 9999 FEW035 02/01 Q1012 NOSIG=
METAR EKCH 110150Z 24013KT 9999 BKN017 BKN041 05/04 Q1008 NOSIG=
METAR ELLX 110150Z AUTO VRB02KT 2900 NDV 02/01 Q1017=
METAR ENFB 110150Z AUTO 08022KT 9999NDV -DZ OVC012/// 03/01 Q0997
           W///S5=
METAR EPWA 110200Z 26017KT 9999 BKN030 05/01 Q1011 NOSIG=
METAR ESSA 110150Z 32005KT 9999 SG SCT008 BKN022 M04/M06 Q1001
R01L/19//71 R08/19//58 R01R/19//68 NOSIG=
METAR ETBS 110200Z NIL=
METAR GMME 110200Z 17003KT 120V190 5000 SCT020 BKN100 14/12 Q1015
NOSIG=
METAR GQNN 110200Z 01005KT 8000 NSC 15/14 Q1015 NOSIG=
METAR HAAS 110200Z NIL=
METAR HCMM 110200Z NIL=
METAR HECA 110200Z 00000KT 1500 R05C/1500 R23C/1500 BR NSC 11/08
Q1023 NOSIG=
METAR HLLT 110150Z
18006KT CAVOK 10/05 Q1022=
METAR HSSS 110200Z 36011KT CAVOK 14/00 Q1017 NOSIG=
METAR KBOS 110154Z 20003KT 4SM BR FEW010 OVC017 02/01 A3035=
METAR KIAD 110152Z 00000KT 3/4SM -DZ BR OVC003 01/01 A3023=
METAR KJFH 110200Z NIL=
METAR KWBS 110200Z NIL=
METAR LEMD 110200Z 00000KT CAVOK 07/05 Q1016 NOSIG=
METAR LFPO 110200Z 06003KT 020V090 1500 BR OVC003 06/05 Q1016
TEMPO BKN002=
METAR LGAV 110150Z VRB03KT CAVOK 08/06 Q1020 NOSIG=
METAR LIRF 110150Z 05003KT 6000 NSC 06/06 Q1022 NOSIG=
METAR LOWW 110150Z VRB02KT CAVOK M01/M03 Q1021 NOSIG=
METAR LSGG 110150Z 00000KT CAVOK 02/01 Q1018 NOSIG=
METAR LTAC 110150Z 30005KT 4800 BR OVC007 M04/M04 Q1022 NOSIG=
METAR OAKB 110200Z NIL=
METAR OBBI 110200Z 19009KT 5000 RA SCT020 17/14 Q1019 TEMPO VRB30KT
TSRA SCT040CB=
METAR OJAM 110200Z 29006KT 4000 BR NSC 08/06 Q1020 TEMPO 3000 BR=
METAR OKBK 110200Z 17007KT 6000 BR NSC 11/09 Q1017 NOSIG=
METAR OLBA 110200Z 10004KT 7000 BKN026 12/09 Q1022=
METAR OMAA 110200Z 10005KT CAVOK 16/09 Q1018 A3007 NOSIG=
METAR OOMS 110150Z VRB02KT CAVOK 15/10 Q1021 NOSIG=
METAR OPKC 110155Z VRB03KT 6000 NSC 08/M04 Q1020 NOSIG=
METAR OPRN 110200Z 00000KT 4000 BR SKC 02/01 Q1020.1/30.12=
METAR ORBB 110200Z NIL=
METAR OSDI 110200Z 00000KT 0100 FG FEW030 M01/M02 Q1021=
METAR OTBD 110200Z 11008KT 9999 -RA SCT100 OVC120 18/16 Q1019 NOSIG=
METAR OYAA 110200Z 13012KT 9999 SCT018 25/19 Q1015 NOSIG=
METAR OYSN 110200Z VRB01KT CAVOK 09/05 Q1025=
METAR RKSS 110200Z 01002KT 7000 NSC M01/M17 Q1033 NOSIG=
METAR UUEE 110200Z 20005MPS 9999 -RA OVC006 02/02 Q0984 75290151
25290151 NOSIG=
METAR VCBI 110210Z 05010KT 8000 SKC 23/21 Q1013 NOSIG=
METAR VGZR 110200Z NIL=
METAR VHHH 110200Z 06010KT 8000 NSC 19/10 Q1025 NOSIG=
METAR VIDP 110200Z 26005KT 0100 R28/0800 R29/0450 FG VV/// 05/05
      Q1018 NOSIG=
METAR WIIH 110200Z NIL=
METAR WMKK 110200Z 10003KT 9999 FEW017CB SCT140 BKN280 27/24 Q1013
NOSIG=
METAR WSSS 110200Z 34003KT 280V060 9999 FEW020TCU BKN300 28/24 Q1013
NOSIG=
0000102500
985
SAAR20 OEJD 110200
METAR OBBI 110200Z 19009KT 5000 RA SCT020 17/14 Q1019 TEMPO VRB30KT
TSRA SCT040CB=
METAR OKBK 110200Z 17007KT 6000 BR NSC 11/09 Q1017 NOSIG=
METAR OMAA 110200Z 10005KT CAVOK 16/09 Q1018 A3007 NOSIG=
METAR OMAD 110200Z 08003KT 050V110 CAVOK 17/10 Q1018 A3008 NOSIG=
METAR OMAL 110200Z 13007KT CAVOK 16/08 Q1020 A3013 NOSIG=
METAR OMDB 110200Z 05007KT CAVOK 18/10 Q1020 NOSIG=
METAR OMFJ 110200Z 29005KT CAVOK 15/10 Q1020 A3014=
METAR OMRK 110200Z 07004KT CAVOK 15/09 Q1021 A3015=
METAR OMSJ 110200Z 02005KT CAVOK 16/11 Q1020=
METAR OOBR 110200Z NIL=
METAR OOKB 110200Z NIL=
METAR OOMS 110150Z VRB02KT CAVOK 15/10 Q1021 NOSIG=
METAR OOSA 110150Z 36003KT 9999 FEW025 SCT090 21/16
Q1017 NOSIG  RMK01 RH73=
METAR OOSH 110200Z NIL=
METAR OOSQ 110200Z NIL=
METAR OOSR 110200Z NIL=
METAR OOTH 110200Z NIL=
METAR OOYB 110200Z NIL=
METAR OTBD 110200Z 11008KT 9999 -RA SCT100 OVC120 18/16 Q1019 NOSIG=
METAR OYAA 110200Z 13012KT 9999 SCT018 25/19 Q1015 NOSIG=
0000008400
986
SAAR20 OEJD 110200 RRA
METAR OYSN 110200Z VRB01KT CAVOK 09/05 Q1025=
0000030100
987
SNAU02 AMMC 110200
AAXX 11024
94120 NIL=
94122 NIL=
94131 NIL=
94132 NIL=
94147 NIL=
94150 NIL=
94151 NIL=
94236 NIL=
94238 NIL=
94248 NIL=
94324 NIL=
94326 46/// /1415 10369 20044 39510 40110=
94327 NIL=
94462 NIL=
95111 NIL=
95214 NIL=
95322 NIL=

0000027500
988
SNAU03 AMMC 110200
AAXX 11024
94461 NIL=
94477 NIL=
94651 NIL=
94653 46/// /1915 10225 20151 30185 40203=
94659 NIL=
94672 NIL=
94804 NIL=
94821 NIL=
95458 NIL=
95480 NIL=
95481 NIL=
95666 NIL=
95826 46/// /1810 10176 30212 40214=

0000034000
989
SAME31 OEJD 110200
METAR OJAI 110200Z NIL=
METAR OJAM 110200Z 29006KT 4000 BR NSC 08/06 Q1020 TEMPO 3000 BR=
METAR OJAQ 110200Z NIL=
METAR OLBA 110200Z 10004KT 7000 BKN026 12/09 Q1022=
METAR OSAP 110200Z NIL=
METAR OSDI 110200Z 00000KT 0100 FG FEW030 M01/M02 Q1021=
METAR OSLK 110200Z 05004KT CAVOK 05/M01 Q1021=
0000156800
990
SNAU04 AMMC 110200
AAXX 11024
94170 455// 30807 10316 20236 30055 40076 58012
  333 20241=
94255 45/// /1409 10380 20152 39828 40085 58014
  333 20270=
94268 45/// /0809 10299 20226 30081 40093 58006
  333 20243=
94287 41/// /1215 10312 20222 30097 40106 58011
  333 20236=
94290 NIL=
94294 41565 71115 10304 20213 30108 40118 58013 71622 8589/
  333 20247=
94296 NIL=
94298 46/// /1118 10275 30110 40116 58009=
94299 41565 71119 10292 20242 30088 40099 58014 71522 8783/
  333 20274=
94332 45/// /0707 10377 20158 39712 40088 58011
  333 20267=
94333 NIL=
94341 45/// /0808 10355 20158 39865 40096 58011
  333 20258=
94346 41682 40312 10338 20178 39905 40120 58013 70311 83202
  333 20217=
94363 456// 80712 10300 20178 39930 40144 58013
  333 20212=
94366 NIL=
94367 41565 71310 10281 20214 30097 40138 50000 71522 878//
  333 20226=
94374 41882 71010 10284 20178 30134 40151 58009 70222 8523/
  333 20221=
94388 45/// /1315 10285 20179 30157 40162 58005
  333 20237=
94393 46/// /1316 10265 30115 40127 58008=
94394 46/// /0918 10261 30137 40145 58005=
94488 NIL=
94500 NIL=
94510 457// 70306 10291 20184 39804 40143 58013
  333 20211=
94515 457// 81704 10293 20131 39805 40145 58019
  333 20232=
94552 456// 31407 10279 20138 39703 40162 58020
  333 20157=
94578 41570 60909 10272 20171 30164 40175 58014 70322 86800
  333 20197=
94584 45/// /1418 10266 20174 30055 40164 58012
  333 20209=
95482 45/// /1313 10386 20124 30064 40117 58014
  333 20296=

0000045600
991
SNAU05 AMMC 110200
AAXX 11024
94691 NIL=
94693 46/// /2710 10364 20093 30098 40159=
94700 NIL=
94703 NIL=
94710 NIL=
94729 NIL=
94750 NIL=
94767 46/// /0712 10308 20154 30150 40156=
94776 NIL=
94791 NIL=
94842 NIL=
94865 NIL=
94875 NIL=
94893 NIL=
94907 NIL=
94910 46/// /3007 10317 20109 39918 40162=
94926 NIL=
94935 NIL=
94995 NIL=
95485 NIL=
95527 NIL=
95719 NIL=
95762 NIL=
95839 NIL=

00000000