0000009900
596
SAIN35 VIDP 110300
METAR VAUD 110300Z 02006KT 2000 HZ SCT030 BKN080 10/06 Q1019=

0000011000
597
UANT99 KDDL 110313
ARP UAL70 5309N02847W 0312 F360 MS56 224/58 KT
N18119 DDL H07 110313 F64A
0000011100
598
UANT99 KDDL 110314
ARP UAL101 5057N04007W 0314 F380 MS53 263/26 KT
N14120 DDL IG1 110314 F71A
0000011100
599
UANT99 KDDL 110314
ARP DAL258 5532N02413W 0314 F370 MS55 233/68 KT
N816NW DDL XXW 110314 J42A
0000011000
600
UANT99 KDDL 110314
ARP ACA874 5144N03645W 0314 F340 MS54 224/28 KT
CGHKR DDL XXW 110314 J46A
0000011000
601
UANT99 KDDL 110314
ARP BAW32N 4459N04004W 0314 F370 MS48 290/42 KT
GCIVL QXT AOW 110314 F62A
0000011100
602
UANT99 KDDL 110314
ARP BER7211 4601N01948W 0314 F370 MS63 255/80 KT
DALPA QXT AOE 110314 J58A
0000101400
603
FPAE41 OMAE 110310
station,wdir,wspeed,temperature,dewpoint,pressure,time,date
"Al-Ain International Airport", 140,    7,  15,   9,1020.0,03:00,11.01.2014
"Bateen Airport", 110,    4,  17,   9,1019.0,03:00,11.01.2014
"Abu Dhabi International Airport", 120,    8,  16,   9,1019.0,03:00,11.01.2014
"Dubai International Airport",  50,    8,  18,  10,1020.0,03:00,11.01.2014
"Sharjah International Airport",  80,    7,  17,  11,1020.0,03:00,11.01.2014
"Ras al-Khaimah International Airport",  90,    7,  16,   9,1020.0,03:00,11.01.2014
"Fujairah Airport", 300,    5,  16,  10,1021.0,03:00,11.01.2014
"MUSCAT INTERNATIONAL AIRPORT",   0,    0,  14,  10,1021.0,03:00,11.01.2014
"DOHA INTERNATIONAL AIRPORT", 120,   14,  18,  13,1020.0,03:00,11.01.2014
"KUWAIT INTERNATIONAL AIRPORT",   -,    -,   -,   -,     -,03:00,11.01.2014
"BAHRAIN INTERNATIONAL AIRPORT", 190,    6,  16,  14,1019.0,03:00,11.01.2014
"JEDDAH INTERNATIONAL AIRPORT",   -,    -,   -,   -,     -,03:00,11.01.2014
0000062500
604
FPAE44 OMAE 110310
station,wdir,wspeed,temperature,dewpoint,pressure,time,date
"Al-Ain International Airport", 140,    7,  15,   9,1020.0,03:00,11.01.2014
"Bateen Airport", 110,    4,  17,   9,1019.0,03:00,11.01.2014
"Abu Dhabi International Airport", 120,    8,  16,   9,1019.0,03:00,11.01.2014
"Dubai International Airport",  50,    8,  18,  10,1020.0,03:00,11.01.2014
"Sharjah International Airport",  80,    7,  17,  11,1020.0,03:00,11.01.2014
"Ras al-Khaimah International Airport",  90,    7,  16,   9,1020.0,03:00,11.01.2014
"Fujairah Airport", 300,    5,  16,  10,1021.0,03:00,11.01.2014
0000013600
605
SIVD17 CWHX 110300
BBXX
44139 11031 99442 70571 46/// /2510 11001 40302 57009
22200 00014 10805 70023 333 91212 =

0000011000
606
UANT01 CWAO 110314
ARP AAL70 4909N04452W 0314 F380 MS57 312/61 KT
N755AN DDL XXW 110314 F48A
0000010900
607
UANT01 CWAO 110314
ARP KLM32 5503N03827W 0314 F380 MS56 219/27 KT
PHBFN QXT AOW 110314 F70A
0000010900
608
UANT01 CWAO 110314
ARP AUA94 5037N03726W 0314 F350 MS52 220/17 KT
OELAW QXT AOW 110314 F35A
0000011100
609
UANT01 CWAO 110314
ARP AWE716 4529N04758W 0314 F370 MS60 307/63 KT
N274AY DDL XXN 110314 J05A
0000097200
610
SITU61 LTAA 110300
AAXX 11034
17085 42670 53205 11003 21041 39749 40255 55002 83530
 333 83640 85360=
17089 NIL=
17099 41/09 90000 11263 21263 38384 48530 57008 74944
 333 89/02=
17100 NIL=
17110 4//// /0303 10101 20100 30125 40220 55000=
17111 4//// /1305 10109 20079 30177 40215 5/001=
17118 42960 00902 11048 21064 39965 40267 51007=
17119 4//// /1505 10075 21008 30215 40220 51004=
17120 4//// /0102 11011 21034 39585 40245 5/000=
17127 41357 80206 11032 21037 39254 40279 57003 71022 886//
 333 88708=
17129 41457 80204 11020 21031 39288 40269 57006 71022 886//
 333 88712=
17130 41330 82302 11026 21038 39192 40269 57007 71022 886//
 333 88708 91106=
17131 41358 80202 11023 21042 39274 40269 57005 71022 887//
 333 88708=
17135 42670 82902 11017 21041 39357 40273 55003 8452/
 333 84635 88460 91106=
17143 41956 21006 10057 20038 30199 40216 58001 71000 80001
 333 82070 91107=
17162 NIL=
17165 NIL=
0000101700
611
SITU60 LTAA 110300
AAXX 11034
17020 42465 60701 10030 20017 30173 40214 52006 86600
 333 86714 91103=
17030 42970 02312 10082 21058 30181 40186 52020
 333 92438=
17033 NIL=
17040 42970 01801 10037 20001 30159 40170 53006
 333 92428=
17045 NIL=
17046 NIL=
17052 42970 01002 10029 20027 39936 40221 52003
 333 91107=
17059 4//// /1304 10086 20078 30170 40217 52006=
17061 42965 02201 10084 20073 30151 40223 51004
 333 91106 92407=
17063 42460 31701 10056 20004 30100 40222 52005 83600
 333 83713=
17068 41445 61501 10050 20048 30136 40223 52009 71011 82608
 333 82715 86269 91105=
17069 42965 02209 10064 21022 30189 40226 52010
 333 91118=
17072 41/02 92901 11009 21009 30056 40240 52011 74544
 333 89/02 91103=
17078 41958 30201 10003 21025 39896 40216 52006 71000 83030
 333 83360 91105=
17080 41657 80000 11029 21041 39347 40267 56005 71022 8552/
 333 85635 88460 91103=
17082 42960 40000 11042 21048 39605 40254 53001 84040
 333 84360 91107=
0000107300
612
SITU62 LTAA 110300
AAXX 11034
17175 42665 61501 10110 20078 30209 40213 50000 83250
 333 83835 85360 91106 92407=
17180 41957 41304 10094 20044 30212 40216 58002 71011 80004
 333 84070 91109 92426=
17186 42970 03601 10023 20015 30147 40236 52004
 333 91103=
17191 4//// /3002 11037 21040 39110 4//// 52002=
17192 42975 02101 11075 21085 39117 40282 53003=
17193 NIL=
17200 42960 02306 11098 21109 39235 40277 55002=
17204 NIL=
17205 NIL=
17218 41658 31006 10096 20054 30209 40215 50000 71000 81101
 333 81840 83070 91113=
17220 42662 30904 10098 20055 30186 40221 50000 81130
 333 81840 83360 91111 92427=
17221 4//// /2502 10100 20089 30202 40207 51001=
17232 42970 01011 10113 20057 30179 40209 50000
 333 91120 92438=
17238 41/01 91201 11015 21016 39114 40253 55000 74544
 333 89/03 91104=
17239 41/01 91201 11033 21038 39068 48515 51002 74544
 333 89/02=
17241 41/03 90000 11053 21056 39220 40276 57003 74944
 333 89/01=
17242 41/03 90704 11029 21032 38916 48523 57002 74744
 333 89/05=
17246 NIL=
0000011100
613
UANT01 CWAO 110314
ARP AAL106 4724N04823W 0314 F350 MS64 326/65 KT
N717AN DDL YYT 110314 F27A
0000011100
614
UANT01 CWAO 110314
ARP AAL100 4930N03745W 0314 F340 MS52 236/17 KT
N725AN DDL XXW 110314 F34A
0000011000
615
UANT01 CWAO 110314
ARP DLH427 5055N03034W 0314 F360 MS55 213/68 KT
DAIGZ QXT AOE 110314 J90A
00000000