0000013000
846
SMCI06 BABJ 110000 CCA
AAXX 11001
59985 12573 50406 10237 20208 30183 40189 52017 69902 85///
333 00000 79999=
0000014200
847
SMCI38 BABJ 110000 CCA
AAXX 11001
57707 11458 82501 11001 21008 38553 52012 69952 766// 88///
333 00551 30002 70009 93427=
0000289700
848
KSMI34 SBBR 110000 RRA
CREX++
T000113 A000 D07086++
 83 766 LONDRINA             1 2014 01 11 00 00 -2338000 -05118000 ///// ///// 09487 10111 //// // //// ///// ///// ///// 3000 2000 055 ///// 1000 ///// ///// ///// 000 62 // 0000 // // // 0000 0000 // // ///// //// ////// / /// /// ////// /// /// /////// // /// // /// /// ////////// /// /// 508 -0006 10 10  -0024 0714 -0001 //// /////  -0001 00000 //// ///// ///// -0012 0000 3420 -0012 0000 //// ///// 03 02 -0010 000 0000 //  -0010 /// //// //// /// //// ///// -0024 // ////  -0001 //// //// ///// ///// ///// ///// -0024 //// //// ///// ///// ///// /////+
 83 836 IRATI                1 2014 01 11 00 00 -2546000 -05063000 ///// ///// 09150 10106 0017 03 //// ///// ///// ///// 2180 1920 072 ///// 1000 ///// ///// ///// 100 07 02 0045 39 26 17 0000 0000 // // ///// //// ////// / /// /// ////// /// /// /////// // /// // /// /// ////////// /// /// 013 -0006 02 02  -0024 0648 -0001 //// /////  -0001 00000 //// ///// ///// -0012 0000 3140 -0012 0000 //// ///// 03 02 -0010 320 0005 //  -0010 /// //// //// /// //// ///// -0024 // ////  -0001 //// //// ///// ///// ///// ///// -0024 //// //// ///// ///// ///// /////+
 83 881 IRAI                 1 2014 01 11 00 00 -2718000 -05323000 ///// ///// 09826 10102 0028 01 //// ///// ///// ///// 2480 2010 065 ///// 0400 ///// ///// ///// 100 07 04 0045 39 24 60 0000 0000 // // ///// //// ////// / /// /// ////// /// /// /////// // /// // /// /// ////////// /// /// 013 -0006 09 06  -0024 0564 -0001 //// /////  //// ///// -0006 00040 ///// -0012 0000 3460 -0012 0000 //// ///// 03 02 -0010 140 0062 //  -0010 /// //// //// /// //// ///// -0024 // ////  -0001 //// //// ///// ///// ///// ///// -0024 //// //// ///// ///// ///// /////+
 83 980 BAGE                 1 2014 01 11 00 00 -3133000 -05410000 ///// ///// 09815 10088 0001 03 //// ///// ///// ///// 2110 1840 082 ///// 0400 ///// ///// ///// 088 07 07 0080 35 20 10 0000 0000 // // ///// //// ////// / /// /// ////// /// /// /////// // /// // /// /// ////////// /// /// 010 -0006 05 02  -0024 0108 -0001 //// /////  //// ///// -0006 00020 ///// -0012 0000 2990 -0012 0000 //// ///// 03 02 -0010 050 0010 //  -0010 /// //// //// /// //// ///// -0024 // ////  -0001 //// //// ///// ///// ///// ///// -0024 //// //// ///// ///// ///// /////+
 83 997 ST.VITORIA DO PALMAR 1 2014 01 11 00 00 -3351000 -05335000 ///// ///// 10063 10106 //// // //// ///// ///// ///// 2130 1950 087 ///// 1000 ///// ///// ///// 050 08 04 0225 30 23 10 0000 0000 // // ///// //// ////// / /// /// ////// /// /// /////// // /// // /// /// ////////// /// /// 508 -0006 10 10  -0024 0084 -0001 //// /////  -0001 00000 //// ///// ///// -0012 0000 2620 -0012 0000 //// ///// 03 02 -0010 230 0031 //  -0010 /// //// //// /// //// ///// -0024 // ////  -0001 //// //// ///// ///// ///// ///// -0024 //// //// ///// ///// ///// /////++
7777
0000282200
849
KSMI34 SBBR 110000 RRA
CREX++
T000113 A000 D07080++
 83 766 LONDRINA             1 2014 01 11 00 00 -2338000 -05118000 05660 ///// 09487 10111 //// // //// ///// ///// ///// 3000 2000 055 ///// 1000 ///// ///// ///// 000 62 // 0000 // // // 0000 0000  07 /// 08 /// 09 /// // ///// ///// // ///// ///// // ///// //// 508 -0006 10 10  -0024 0714 -0001 //// /////  -0001 00000 //// ///// ///// -0012 0000 3420 -0012 0000 //// ///// 03 02 -0010 000 0000 //  -0010 /// //// //// /// //// ///// -0024 // ////  -0001 //// //// ///// ///// ///// ///// -0024 //// //// ///// ///// ///// ///// //// 0000 //+
 83 836 IRATI                1 2014 01 11 00 00 -2546000 -05063000 08370 ///// 09150 10106 0017 03 //// ///// ///// ///// 2180 1920 072 ///// 1000 ///// ///// ///// 100 07 02 0045 39 26 17 0000 0000  07 /// 08 /// 09 /// // ///// ///// // ///// ///// // ///// //// 013 -0006 02 02  -0024 0648 -0001 //// /////  -0001 00000 //// ///// ///// -0012 0000 3140 -0012 0000 //// ///// 03 02 -0010 320 0005 //  -0010 /// //// //// /// //// ///// -0024 // ////  -0001 //// //// ///// ///// ///// ///// -0024 //// //// ///// ///// ///// ///// //// 0000 //+
 83 881 IRAI                 1 2014 01 11 00 00 -2718000 -05323000 ///// ///// 09826 10102 0028 01 //// ///// ///// ///// 2480 2010 065 ///// 0400 ///// ///// ///// 100 07 04 0045 39 24 60 0000 0000  07 /// 08 /// 09 /// // ///// ///// // ///// ///// // ///// //// 013 -0006 09 06  -0024 0564 -0001 //// /////  //// ///// -0006 00040 ///// -0012 0000 3460 -0012 0000 //// ///// 03 02 -0010 140 0062 //  -0010 /// //// //// /// //// ///// -0024 // ////  -0001 //// //// ///// ///// ///// ///// -0024 //// //// ///// ///// ///// ///// //// 0000 //+
 83 980 BAGE                 1 2014 01 11 00 00 -3133000 -05410000 02420 ///// 09815 10088 0001 03 //// ///// ///// ///// 2110 1840 082 ///// 0400 ///// ///// ///// 088 07 07 0080 35 20 10 0000 0000  07 /// 08 /// 09 /// // ///// ///// // ///// ///// // ///// //// 010 -0006 05 02  -0024 0108 -0001 //// /////  //// ///// -0006 00020 ///// -0012 0000 2990 -0012 0000 //// ///// 03 02 -0010 050 0010 //  -0010 /// //// //// /// //// ///// -0024 // ////  -0001 //// //// ///// ///// ///// ///// -0024 //// //// ///// ///// ///// ///// //// 0000 //+
 83 997 ST.VITORIA DO PALMAR 1 2014 01 11 00 00 -3351000 -05335000 ///// ///// 10063 10106 //// // //// ///// ///// ///// 2130 1950 087 ///// 1000 ///// ///// ///// 050 08 04 0225 30 23 10 0000 0000  07 /// 08 /// 09 /// // ///// ///// // ///// ///// // ///// //// 508 -0006 10 10  -0024 0084 -0001 //// /////  -0001 00000 //// ///// ///// -0012 0000 2620 -0012 0000 //// ///// 03 02 -0010 230 0031 //  -0010 /// //// //// /// //// ///// -0024 // ////  -0001 //// //// ///// ///// ///// ///// -0024 //// //// ///// ///// ///// ///// //// 0000 //++
7777
0000371900
850
SMCI01 KWBC 110000
AAXX 11001
56144 32769 51801 11069 21144 36847 52012 85/// 333 00300 31042=
56152 32980 71101 11159 21187 36286 52006 87/// 333 00300=
56167 32980 03201 11103 21137 37081 52015 333 00300=
56182 12762 81603 11075 21108 37178 52007 69931 88/// 333 00404
70003 92501=
56357 32980 00701 11123 21199 36440 52003 333 00200=
56586 31400 83601 11020 21051 38092 52013 710// 88/// 333 00602
31027=
56748 32958 00000 10027 21002 38382 52010 333 00100 31015=
56763 32980 01602 10081 20017 40165 52013 333 00254=
56768 32980 00000 10036 21012 38200 52011 333 00251 30013=
56838 31/02 92001 10082 20076 40207 52010 745// 333 00100=
56886 31959 03402 10043 20037 38324 52017 710// 333 00255 30003=
56946 32680 00000 10046 20033 40222 52015 333 00100 30026=
56959 31558 82501 10118 20104 40197 52016 710// 88/// 333 00200=
56969 31/02 90201 10143 20143 40197 52016 747// 333 00103=
57731 12464 80201 10045 20027 40306 52009 69911 88/// 333 00301
30045 70023=
57766 11458 83602 10038 20035 40308 52020 60031 760// 88/// 333
00200 30046 70044=
57845 11758 80201 10037 20024 40301 52017 60021 760// 88/// 333
00352 30043 70078=
57853 11430 83601 10041 20037 40310 52019 60011 760// 88/// 333
00351 30042 70033=
57916 12562 82701 10073 20051 40277 52019 69972 88/// 333 00500
70007=
57922 11462 83202 10014 20008 40290 52016 69991 760// 88/// 333
00451 30026 70040=
57932 11250 80701 10053 20047 40299 52019 69961 760// 88/// 333
00451 70041=
58338 11456 80701 10041 20025 40311 52008 69961 760// 88/// 333
05104 30038 70006=
59007 32463 80000 10075 20071 40226 52019 88/// 333 00201 30045=
59046 11457 83402 10092 20076 30139 40260 52021 69981 760// 88///
333 00000 70008=
59058 11827 83404 10101 20068 40255 52016 69901 760// 88/// 333
05102 79999=
59072 31950 80000 10097 20086 30100 40262 52012 710// 88/// 333
05203 79999=
59087 31757 73202 10100 20076 40263 52008 710// 87/// 333 05100=
59209 31355 82501 10105 20097 40231 52019 760// 88/// 333 00103
79999=
55279 32980 02504 11127 21271 35675 52008 333 00253=
55696 32680 00401 11130 21167 36335 52014 333 00100=
56374 32480 80902 11060 21078 37439 52010 88/// 333 00401 31040=
56385 41/00 90202 11106 21114 37015 52012 749// 333 00400 31019
70002 92502=
57306 11934 82901 10049 20039 40302 52017 69912 710// 88/// 333
00500 30024 70010=
55472 32980 02207 11112 21342 35710 52001 333 00102 91119 91525=
56079 12780 70701 11107 21127 36672 52006 69902 87/// 333 00551
70001 92500=
56966 32665 83201 10136 20115 40206 52021 88/// 333 00200=
57237 12962 83602 10031 21037 39491 40313 52012 69902 88/// 333
00500 31008 70011=
57604 11720 82701 10060 20060 39847 40301 52014 69921 710// 88///
333 00600 70071=
55228 32780 20000 11152 21252 35988 52008 82/// 333 00103=
55664 32880 20000 11147 21308 35977 57005 82/// 333 00002=
56106 32880 42901 11108 21275 36181 52016 84/// 333 00256=
56172 42980 01101 11061 21114 37337 52012 333 00402=
56247 32967 01601 11016 21141 37428 52015 333 00200=
56257 32980 02501 11091 21197 36259 52004 333 00252=
56462 32980 03203 11056 21137 37138 52010 333 00200=
56651 32980 02902 10052 21090 37648 52009 333 00106 31027=
56954 31255 20000 10052 20046 40228 52014 710// 82/// 333 00252
30037=
57633 11458 83201 10010 21002 39313 40318 52011 69911 710// 88///
333 00301 30012 70007=
57707 11458 82501 11001 21008 38553 52012 69912 766// 88/// 333
00551 30002 70005 93427=
57832 11459 80201 10020 20008 39545 40315 52015 69921 760// 88///
333 00400 30025 70020=
55578 32980 00000 11085 21223 36354 52001 333 00002=
55773 32970 01402 11134 21289 35993 57001 333 00101=
0000047900
851
SMCI01 KWBC 110000 RRA
AAXX 11001
56116 32680 23202 11116 21178 36315 52006 82/// 333 00256=
56137 42780 00000 11087 21170 36781 52009 333 00352=
56312 42680 71602 11012 21056 37093 52005 87/// 333 00251 31024=
56691 11462 83602 11035 21042 37801 52013 69902 766// 88/// 333
00556 31003 79999 93427=
56985 32570 01101 10119 20080 38738 40187 52019 333 00101=
57902 11462 80703 10023 20011 38687 40269 52022 69941 760// 88///
333 00552 30037 70005=
0000017800
852
SNVA01 KWBC 102300 RRF
BBXX
WLMK 10234 99220 10599 41898 20530 10200 20135 40197 52012 70200
 82182 22214 00217 20402 305// 40402 5//// 6//// 80160 ICE /////=
0000028300
853
SNVD01 KWBC 102200 RRU
BBXX
41051 10221 99183 70650 46/// /0707 10261 92220 333 91209 555
 11081 22089=
41051 10221 99183 70650 46/// /0708 10260 92210 333 91209 555
 11087 22095=
41051 10221 99183 70650 46/// /0707 10261 92230 333 91209 555
 11080 22087=
0000070700
854
SNVD01 KWBC 102300 RRR
BBXX
42392 10231 99272 70900 46/// ///// 1//// 92240 22200 10502 70010=
42369 10231 99272 70903 46/// /1409 1//// 92240=
42887 10231 99282 70885 46/// /1505 10221 20219 92240 22200 10502
 70012 555 11041 22045=
42375 10231 99285 70883 46/// /1506 1//// 92240 22200 10502 70008
 555 11045 22049=
44040 10231 99410 70736 46/// /0503 10011 20010 92319 22200 1//00
 70001 333 91203 555 11031 22036=
41051 10231 99183 70650 46/// /0708 10261 92240 333 91209 555
 11086 22093=
41051 10231 99183 70650 46/// /0708 10260 92300 22200 10503 70013
 333 91210 555 11089 22097=
41051 10231 99183 70650 46/// /0708 10261 92250 333 91210 555
 11087 22095=
0000025600
855
UHNZ02 NZKL 110000
PPCC  60228 93112
55370 30012 07503 11024 55120 08031 77999=
PPCC  60223 93417
55370 28506 12008 10518 77999=
PPCC  60223 93844
55370 21510 10505 10512 77999=
PPCC  60228 93997
55370 28013 01513 09031 77999=
0000011000
856
UANT99 KDDL 110048
ARP EJM346 5427N01532W 0048 F410 MS49 033/34 KT
N346L DDL XXF 110048 M94A
0000050700
857
UDAF01 FAPR 110047
AMDAR 1100
LVR AFZA03 0431S 00632E 102333 F390 MS545 239/018 TB0 S031 333 F/// VG016=
LVR AFZA03 0519S 00657E 102341 F390 MS545 061/018 TB0 S031 333 F/// VG016=
LVR AFZA03 0604S 00728E 102348 F390 MS550 065/016 TB0 S031 333 F/// VG016=
LVR AFZA03 0650S 00800E 102355 F390 MS541 055/025 TB0 S031 333 F/// VG016=
LVR AFZA03 0736S 00831E 110002 F390 MS542 057/026 TB0 S031 333 F/// VG016=
LVR AFZA03 0821S 00903E 110009 F390 MS545 068/015 TB0 S031 333 F/// VG016=
0000011100
858
UANT99 KDDL 110048
ARP UAL944 5353N04138W 0048 F370 MS56 259/18 KT
N781UA DDL XXW 110048 F28A
0000029300
859
UDAS02 BABJ 110042
AMDAR 1100
LVR CNFPYN 2810N 11618E 110030 F256 MS226 256/103 TB/ S//1=
LVR CNFPYN 2823N 11604E 110033 F256 MS233 259/103 TB/ S//1=
LVR CNFPYN 2828N 11547E 110036 F256 MS238 262/101 TB/ S//1=
LVR CNFPYN 2825N 11530E 110039 F256 MS243 263/097 TB/ S//1=
0000097500
860
UDAS02 BABJ 110040
AMDAR 1100
DES CNFPTK 3840N 11821E 110035 F157 MS235 276/030 TB/ S//1=
DES CNFPTK 3840N 11819E 110036 F153 MS230 274/029 TB/ S//1=
DES CNFPTK 3843N 11813E 110037 F134 MS200 270/026 TB/ S//1=
DES CNFPTK 3846N 11807E 110038 F115 MS170 272/025 TB/ S//1=
DES CNFPXL 3236N 11835E 110036 F145 MS140 271/027 TB/ S//1=
DES CNFPXL 3230N 11835E 110037 F130 MS110 270/028 TB/ S//1=
DES CNFPXL 3225N 11836E 110038 F116 MS085 262/027 TB/ S//1=
ASC CNFLZP 2416N 11741E 110037 F205 MS108 259/067 TB/ S//1=
ASC CNFLZP 2419N 11745E 110037 F214 MS115 252/071 TB/ S//1=
ASC CNFLZP 2423N 11749E 110038 F223 MS110 256/070 TB/ S//1=
ASC CNFLZP 2426N 11752E 110039 F226 MS115 259/071 TB/ S//1=
DES CNFOZN 3920N 11652E 110037 F137 MS223 269/028 TB/ S//1=
DES CNFOZN 3925N 11652E 110038 F121 MS198 270/031 TB/ S//1=
DES CNFOZN 3926N 11652E 110038 F116 MS186 277/025 TB/ S//1=
DES CNFOZN 3930N 11648E 110039 F099 MS158 276/026 TB/ S//1=
0000014400
861
SMJP01 RJTD 110000 CCA
AAXX 11004
47582 11/30 73512 11023 21038 30210 40238 52005 60032 79398 873//
  333 21039 4/017 70040=
0000023300
862
SMJP02 RJTD 110000 CCA
AAXX 11004
47407 11/56 72307 11082 21113 39992 40174 52007 60082 78582 872//
  333 21096 4/068 70135=
47418 11/82 12906 11124 21171 30124 40177 51008 60002 74100 81200
  333 21163 70000=
0000022800
863
FOUK70 EGRR 110100
  FOQNH

  00203 01996 02999 03998 04002 05003

  07006 08004 09003 10010 11008 12006

  13009 14004 15008 16993 17996 18993

  19995 20001 21993 22993 23002 24003

  25004=
0000216500
864
SZNZ01 NZKL 110051
CREX++
T000103 A001 D01021 D06025++
-3683144 17478654 AUCT  2014 01 11 00 43 //// 11 07 00 01
05156 3150 05162 3148 05171 3149 05182 3152 05190 3152 05194 3148+
-4402404 -17636748 CHIT  2014 01 11 00 43 //// 11 07 00 01
05361 2082 05369 2089 05362 2081 05379 2097 05378 2096 05394 2111+
-4089929 17623168 CPIT  2014 01 11 00 43 //// 11 07 00 01
04340 2242 04349 2249 04366 2264 04341 2236 04364 2257 04367 2257+
-3618905 17548887 GBIT  2014 01 11 00 43 //// 11 07 00 01
05971 0029 05965 0018 05961 0008 05966 0008 05979 0016 05986 0018+
-3867541 17802288 GIST  2014 01 11 00 43 //// 11 07 00 01
04409 2699 04432 2718 04420 2703 04432 2712 04435 2712 04436 2709+
-4241288 17370277 KAIT  2014 01 11 00 43 //// 11 07 00 01
03821 2161 03821 2160 03841 2179 03853 2190 03846 2181 03835 2169+
-3755040 17815904 LOTT  2014 01 11 00 43 //// 11 07 00 01
03746 0187 03768 0205 03767 0200 03769 0197 03784 0208 03776 0195+
-3704657 17451175 MNKT  2014 01 11 00 43 //// 11 07 00 01
01842 -0201 01835 -0209 01834 -0212 01847 -0200 01833 -0216 01837 -0213+
-3947566 17692007 NAPT  2014 01 11 00 43 //// 11 07 00 01
03505 2036 03499 2027 03514 2039 03521 2043 03502 2021 03515 2030+
-3441483 17304870 NCPT  2014 01 11 00 43 //// 11 07 00 01
-02927 -7222 -03030 -7331 -03282 -7588 -03359 -7671 -03534 -7851 -03703 -8026+
-4581435 17062939 OTAT  2014 01 11 00 43 //// 11 07 00 01
05254 3431 05254 3433 05253 3433 05245 3427 05245 3430 05251 3438+
-2928002 -17789440 RBCT  2014 01 11 00 43 //// 11 07 00 01
06135 1971 06133 1965 06136 1965 06154 1979 06151 1973 06158 1976+
-2925114 -17790384 RFRT  2014 01 11 00 43 //// 11 07 00 01
03108 0174 03107 0169 03091 0150 03103 0158 03117 0169 03128 0176+
-4357010 17277383 SUMT  2014 01 11 00 43 //// 11 07 00 01
02731 1834 02734 1837 02734 1836 02750 1851 02756 1857 02746 1846+
-3764109 17618118 TAUT  2014 01 11 00 43 //// 11 07 00 01
05197 3985 05208 3991 05205 3983 05208 3981 05212 3979 05217 3980+
-4128448 17477985 WLGT  2014 01 11 00 43 //// 11 07 00 01
03651 2091 03656 2094 03663 2100 03651 2087 03667 2102 03648 2082++
7777
0000058400
865
SMIN90 VEPT 110000
AAXX 11004
42492 21492 80907 10130 20126 40161 79596 84920
  333 58011 6001/ 84618 81930 88458=
42591 21494 80506 10150 20150 40144 79599 8592/
  333 59008 6024/ 81710 84617 81930 88458=
42498 21494 80000 10154 20136 40149 71061 8432/
  333 58009 6992/ 84618 81930 88458=
42500 31994 00000 10114 20110 40166 71000
  333 58006=
42701 31994 00000 10116 20093 39403 40156 71000
  333 58003=
42798 31994 00000 10122 20114 40150 71000
  333 59001=
42587 21993 80000 10150 20143 40140 71000 83530
  333 58000 6994/ 83620 84360=
00000000