0000011000
639
UANT99 KDDL 110107
ARP AIC126 6003N02819W 0107 F330 MS50 186/26 KT
VTALJ QXT AOE 110107 F45A
0000011300
640
SMOM10 OOMS 110000 RRE
AAXX 11004
41258 36/// /1503 10184 20089 30202 40207
333 0E/// 58008 =
0000152700
641
SAFC21 OEJD 110100
METAR
OEAB 110100Z 17006KT CAVOK 11/10 Q1023 NOSIG=
OEAH 110100Z 12008KT 8000 SCT050 BKN100 14/13 Q1018 NOSIG=
OEAO NIL=
OEBA 110100Z 00000KT 9999 FEW025CB SCT030 13/13 Q1019 RETS  NOSIG=
OEBH 110100Z 00000KT CAVOK 12/08 Q1017 NOSIG=
OEDF 110100Z 14008KT 6000 SCT040 OVC090  15/13 Q1017 NOSIG=
OEDM NIL=
OEDR 110100Z 00000KT 8000 SCT040 BKN080 16/12 Q1016 NOSIG=
OEGN 110100Z 12003KT CAVOK 25/20 Q1014 NOSIG=
OEGS 110100Z 33013KT 9999 SCT040 11/08 Q1016=
OEGT 110100Z 33006KT 9999 FEW040 BKN100 04/03 Q1019 NOSIG=
OEHL 110100Z 27006KT CAVOK 07/01 Q1018=
OEJN 110100Z 02005KT 9999 FEW040 17/10 Q1016 NOSIG=
OEKJ 110100Z 00000KT 7000 RA SCT040 OVC080 12/10 Q1019=
OEKK NIL=
OEKM 110100Z 22006KT 9999 FEW020 12/09 Q1023 NOSIG=
OEMA 110100Z 33004KT CAVOK 13/02 Q1020 NOSIG=
OEMK 110100Z 00000KT CAVOK 18/11 Q1016=
OENG 110100Z 00000KT CAVOK 13/01 Q1018 NOSIG=
OEPA 110100Z 14003KT CAVOK 08/07 Q1015 NOSIG=
OERF 110100Z 27006KT CAVOK 07/05 Q1016=
OERK 110100Z 17007KT 9999 SCT040 BKN080 11/09 Q1018 TEMPO 5000 RA=
OERR 110100Z 32014KT 9999 BKN040 06/06 Q1016 NOSIG=
OERY NIL=
OESH 110100Z 09009KT CAVOK 15/M02 Q1015 NOSIG=
OESK 110100Z 28015KT 9999 SCT010 SCT040 08/03 Q1018 NOSIG=
OETB 110100Z 00000KT 9999 FEW040 05/02 Q1020 NOSIG=
OETF 110100Z 22005KT CAVOK 12/09 Q1019 NOSIG=
OETR 110100Z 30018KT 9000 BKN040 03/03 Q1018=
OEWD NIL=
OEWJ 110100Z 04003KT 9999 FEW030 15/09 Q1018 NOSIG=
OEYN 110100Z 35010KT CAVOK 16/07 Q1016 NOSIG=
0000175100
642
SASD20 OEJD 110100
METAR OEAB 110100Z 17006KT CAVOK 11/10 Q1023 NOSIG=
METAR OEAH 110100Z 12008KT 8000 SCT050 BKN100 14/13 Q1018 NOSIG=
METAR OEAO 110100Z NIL=
METAR OEBA 110100Z 00000KT 9999 FEW025CB SCT030 13/13 Q1019 RETS  NOSIG=
METAR OEBH 110100Z 00000KT CAVOK 12/08 Q1017 NOSIG=
METAR OEDF 110100Z 14008KT 6000 SCT040 OVC090  15/13 Q1017 NOSIG=
METAR OEDM 110100Z NIL=
METAR OEDR 110100Z 00000KT 8000 SCT040 BKN080 16/12 Q1016 NOSIG=
METAR OEGN 110100Z 12003KT CAVOK 25/20 Q1014 NOSIG=
METAR OEGS 110100Z 33013KT 9999 SCT040 11/08 Q1016=
METAR OEGT 110100Z 33006KT 9999 FEW040 BKN100 04/03 Q1019 NOSIG=
METAR OEHL 110100Z 27006KT CAVOK 07/01 Q1018=
METAR OEJN 110100Z 02005KT 9999 FEW040 17/10 Q1016 NOSIG=
METAR OEKJ 110100Z 00000KT 7000 RA SCT040 OVC080 12/10 Q1019=
METAR OEKK 110100Z NIL=
METAR OEKM 110100Z 22006KT 9999 FEW020 12/09 Q1023 NOSIG=
METAR OEMA 110100Z 33004KT CAVOK 13/02 Q1020 NOSIG=
METAR OEMK 110100Z 00000KT CAVOK 18/11 Q1016=
METAR OENG 110100Z 00000KT CAVOK 13/01 Q1018 NOSIG=
METAR OEPA 110100Z 14003KT CAVOK 08/07 Q1015 NOSIG=
METAR OERF 110100Z 27006KT CAVOK 07/05 Q1016=
METAR OERK 110100Z 17007KT 9999 SCT040 BKN080 11/09 Q1018 TEMPO 5000 RA=
METAR OERR 110100Z 32014KT 9999 BKN040 06/06 Q1016 NOSIG=
METAR OERY 110100Z NIL=
METAR OESH 110100Z 09009KT CAVOK 15/M02 Q1015 NOSIG=
METAR OESK 110100Z 28015KT 9999 SCT010 SCT040 08/03 Q1018 NOSIG=
METAR OETB 110100Z 00000KT 9999 FEW040 05/02 Q1020 NOSIG=
METAR OETF 110100Z 22005KT CAVOK 12/09 Q1019 NOSIG=
METAR OETR 110100Z 30018KT 9000 BKN040 03/03 Q1018=
METAR OEWD 110100Z NIL=
METAR OEWJ 110100Z 04003KT 9999 FEW030 15/09 Q1018 NOSIG=
METAR OEYN 110100Z 35010KT CAVOK 16/07 Q1016 NOSIG=
0000008600
643
SASD32 OEJD 110100
METAR OETF 110100Z 22005KT CAVOK 12/09 Q1019 NOSIG=
0000011300
644
SMOM66 OOMS 110000 RRE
AAXX 11004
41258 36/// /1503 10184 20089 30202 40207
333 0E/// 58008 =
0000009400
645
UAAK04 KAWN 110000 RRC
PBV UA /OV PBV/TM 0031/FLUNKN/TP SF34/SK SCT030/RM ZAN=
0000022400
646
USPK01 OPKC 110000
TTAA 6100/ 41529 NIL= 
TTAA 6100/ 41594 NIL= 
TTAA 6100/ 41640 NIL= 
TTAA 6100/ 41661 NIL= 
TTAA 6100/ 41675 NIL= 
TTAA 6100/ 41739 NIL= 
TTAA 6100/ 41756 NIL= 
TTAA 6100/ 41780 NIL=
0000024100
647
SOAT10 KWAL 110108
FA8005BC 011010837 OT12 ID:KN-BASS-01 DT:2014 01 11 01 06
:RD -3263 -3280 -3277 -3282 -3266 -3287 -3291 -3271 -3287 -3269
:PR 0335 0396 0362 0332 0433 0442 0414 0391 0372 0421
:B 13.6V
 45+0NP 219E
0000036000
648
UECN01 CWAO 110000
TTDD  6100/ 71802 11903 57781 22785 59380 33522 56182 44465
48184 55428 47984 66415 49384 77396 44985 88336 47984 99292
46385 11258 50184 22247 49184 33240 44785 44231 46185 55218
42986 66195 47984 77166 42186 88155 42586 99145 37988 11126
42186 22124 42386 33101 35188 44093 38987 55085 38188 51515
10190 07326=

0000026600
649
UQCN01 CWAO 110000
PPDD  61008 71802 9534/ 27063 26565 96147 25572 25093 25586
968// 24078 97013 24095 23582 24593 9759/ 23599 22583 9816/
21594 22610 99012 22597 23090 22098 99578 22087 23096 22598
10013 22589 22085 22093 1045/ 23081 21579=

0000018000
650
ULCN01 CWAO 110000
TTCC  61001 71802 70790 58181 26571 50004 53783 25590 30341
46385 23091 20610 46985 22606 10081 35588 22086 88258 50184
22086 77194 22610=

0000232700
651
SNVZ11 SBBR 110100 RRA
BBXX
SHIP 11011 99/// 1//// 36/// /1105 10220 20200 39523 40146 52///
  333 10222 20220 553// 10003 91108=
SHIP 11011 99/// 1//// 36/// /1003 10276 20174 39926 40119 52///
  333 10286 20276 553// 10004 91107=
SHIP 11011 99/// 1//// 36/// /3500 10214 20179 39299 40146 52///
  333 10233 20213 553// 10004 91102=
SHIP 11011 99/// 1//// 36/// /1301 10249 20222 39615 40112 52///
  333 10249 20245 553// 10004 91103=
SHIP 11011 99/// 1//// 36/// /0400 10223 20215 39818 40118 52///
  333 10225 20222 553// 10003 91102=
SHIP 11011 99/// 1//// 36/// /0505 10260 20184 39870 40118 52///
  333 10268 20260 553// 10004 91109=
SHIP 11011 99/// 1//// 36/// /0901 10236 20211 39712 40148 52///
  333 10240 20236 553// 10004 91103=
SHIP 11011 99/// 1//// 36/// /0208 10248 20178 39612 40129 52///
  333 10253 20236 553// 10003 91114=
SHIP 11011 99/// 1//// 36/// /1801 10240 20217 39978 40123
  333 10248 20240 553// 10003 91103=
SHIP 11011 99/// 1//// 36/// /3200 10254 20213 39943 40112 57///
  333 10261 20254 553// 10002 91100=
SHIP 11011 99/// 1//// 36/// /1003 10231 20218 39721 40135 57///
  333 10232 20230 553// 10004 91110=
SHIP 11011 99/// 1//// 36/// /3600 10216 20178 39524 40144
  333 10231 20216 553// 10004 91104=
SHIP 11011 99/// 1//// 36/// /0601 10264 20161 39527 40135 52///
  333 10270 20246 553// 10004 91106=
SHIP 11011 99/// 1//// 36/// /1101 10250 20177 39229 40127
  333 10257 20249 553// 10004 91101=
SHIP 11011 99/// 1//// 36/// /1603 10227 20207 39706 40173
  333 10230 20226 553// 10003 91107=
SHIP 11011 99/// 1//// 36/// /0401 10199 20185 39450 40135
  333 10203 20194 553// 10004 91102=
SHIP 11011 99/// 1//// 36/// /0904 10258 20231 30135 40164 57///
  333 10259 20257 91106=
SHIP 11011 99/// 1//// 16/// /3201 10234 20221 39892 40134 6002/
  333 10235 20224 553// 10002 91104=
SHIP 11011 99/// 1//// 36/// /1500 10214 20197 39238 40146 52///
  333 10223 20211 553// 10003 91102=
SHIP 11011 99/// 1//// 36/// /0402 10264 20237 30110 40130 52///
  333 10267 20264 553// 10002 91104=
SHIP 11011 99/// 1//// 36/// /3602 10221 20180 30033 40127 52///
  333 10221 20211 553// 10002 91108=
SHIP 11011 99/// 1//// 36/// /1107 10199 20166 38826 40168
  333 10207 20199 553// 10004 91110=
0000216500
652
SZNZ01 NZKL 110109
CREX++
T000103 A001 D01021 D06025++
-3683144 17478654 AUCT  2014 01 11 01 01 //// 11 07 00 01
05314 3162 05325 3166 05334 3167 05341 3166 05350 3167 05361 3170+
-4402404 -17636748 CHIT  2014 01 11 01 01 //// 11 07 00 01
05405 2115 05426 2136 05421 2130 05425 2134 05450 2159 05429 2138+
-4089929 17623168 CPIT  2014 01 11 01 01 //// 11 07 00 01
04364 2229 04370 2232 04373 2233 04383 2242 04393 2250 04376 2232+
-3618905 17548887 GBIT  2014 01 11 01 01 //// 11 07 00 01
06056 0023 06064 0027 06076 0034 06077 0030 06084 0031 06094 0037+
-3867541 17802288 GIST  2014 01 11 01 01 //// 11 07 00 01
04490 2724 04512 2742 04483 2710 04513 2737 04513 2735 04518 2738+
-4241288 17370277 KAIT  2014 01 11 01 01 //// 11 07 00 01
03829 2151 03831 2152 03825 2145 03834 2154 03838 2156 03833 2152+
-3755040 17815904 LOTT  2014 01 11 01 01 //// 11 07 00 01
03851 0215 03845 0205 03851 0208 03858 0211 03856 0204 03866 0211+
-3704657 17451175 MNKT  2014 01 11 01 01 //// 11 07 00 01
01871 -0203 01873 -0203 01878 -0201 01879 -0202 01884 -0199 01885 -0201+
-3947566 17692007 NAPT  2014 01 11 01 01 //// 11 07 00 01
03491 1972 03488 1966 03488 1964 03497 1970 03475 1946 03502 1971+
-3441483 17304870 NCPT  2014 01 11 01 01 //// 11 07 00 01
-04107 -8500 -04106 -8505 -03981 -8385 -04032 -8442 -04003 -8417 -04004 -8424+
-4581435 17062939 OTAT  2014 01 11 01 01 //// 11 07 00 01
05192 3407 05199 3417 05198 3418 05192 3415 05190 3415 05195 3423+
-2928002 -17789440 RBCT  2014 01 11 01 01 //// 11 07 00 01
06209 1983 06214 1985 06207 1974 06203 1967 06221 1982 06221 1979+
-2925114 -17790384 RFRT  2014 01 11 01 01 //// 11 07 00 01
03169 0172 03160 0160 03167 0164 03185 0179 03177 0168 03173 0160+
-4357010 17277383 SUMT  2014 01 11 01 01 //// 11 07 00 01
02739 1836 02720 1817 02720 1817 02730 1828 02713 1811 02732 1830+
-3764109 17618118 TAUT  2014 01 11 01 01 //// 11 07 00 01
05280 3977 05287 3979 05292 3979 05295 3977 05300 3977 05302 3974+
-4128448 17477985 WLGT  2014 01 11 01 01 //// 11 07 00 01
03654 2078 03652 2075 03656 2079 03649 2071 03647 2069 03648 2069++
7777
0000014900
653
SMVA10 EHDB 110000 RRD
BBXX
PBOF 11003 99131 70233 41498 31202 10198 20162 40149 50005 7//00
831// 22253 00250 20701 80175 42890=
0000013600
654
SMRA15 RUNW 110000 CCB
AAXX 11001
30230 11/// 90000 11490 21524 30084 40489 58004 60002 74542 333 21494
48034 55043=
0000022400
655
UKPK01 OPKC 110000
TTBB 6100/ 41529 NIL= 
TTBB 6100/ 41594 NIL= 
TTBB 6100/ 41640 NIL= 
TTBB 6100/ 41661 NIL= 
TTBB 6100/ 41675 NIL= 
TTBB 6100/ 41739 NIL= 
TTBB 6100/ 41756 NIL= 
TTBB 6100/ 41780 NIL=
0000010300
656
SMAF95 HECA 110000 CCG
AAXX 11004
63714 32980 00000 10122  20095  48517    333 58002=
0000013500
657
SNAA17 LFVW 110100
AAXX 11014
89578 46/// /0505 11310 36964 4//// 5////=
89577 46/// /2003 11334 35904 4//// 5////=
0001482200
658
SSVX11 LFVW 110107
ZZYY 52080 10014 1300/ 102043 138169 6113/
22219 00297
33311 88872 20000 32967 20002 32967 43399 20025 32984 43413
20050 35300 20075 32786 43467 20100 32593 43468 20125 32542 43525
20150 32349 43518 20200 31803 43482 20250 31173 43453
20300 30994 43470 20500 30850 43461 20750 30619 43453
444 20130 10014 1239/ 522//=
ZZYY 52080 11014 0000/ 102046 138172 6113/
33311 88872 20002 32962 43403 20025 32974 43410 20050 35300
20075 32787 43479 20100 32659 43472 20125 32553 43494
20150 32455 43514 20200 31767 43486 20250 31108 43446
20300 30996 43471 20500 30846 43460 20750 30609 43454
444 20130 10014 2339/ 522//=
ZZYY 52080 10014 2200/ 102045 138173 6111/
33311 88872 20002 32960 43401 20025 33037 43458 20050 35300
20075 32777 43503 20100 32536 43463 20125 32494 43517
20150 32261 43508 20200 31668 43482 20250 31101 43448
20300 30997 43471 20500 30850 43461 20750 30608 43453
444 20110 10014 2130/ 522//=
ZZYY 52080 10014 1800/ 102042 138169 6112/
22219 00296
33311 88872 20000 32960 20002 32960 43399 20025 33050 43482
20050 35300 20075 32673 43479 20100 32549 43498 20125 32436 43514
20150 32099 43497 20200 31614 43475 20250 31106 43448
20300 30996 43471 20500 30865 43462 20750 30614 43454
444 20120 10014 1812/ 522//=
ZZYY 52080 10014 2000/ 102046 138166 6112/
22219 00296
33311 88872 20000 32960 20002 32960 43400 20025 33053 43482
20050 35300 20075 32652 43477 20100 32552 43514 20125 32373 43517
20150 32085 43490 20200 31580 43473 20250 31080 43451
20300 30997 43471 20500 30850 43462 20750 30605 43453
444 20120 10014 1946/ 522//=
ZZYY 52080 10014 1700/ 102047 138170 6113/
22219 00296
33311 88872 20000 32961 20002 32961 43399 20025 33054 43480
20050 35300 20075 32771 43489 20100 32545 43467 20125 32468 43513
20150 32203 43502 20200 31658 43480 20250 31139 43448
20300 30996 43472 20500 30851 43461 20750 30611 43454
444 20130 10014 1733/ 522//=
ZZYY 52082 10014 14004 102040 156019 6113/
11119 00707 10291 29071
22219 00296
33311 88872 20000 32963 20002 32963 43435 20025 32967 43440
20050 32986 43485 20075 32981 43521 20100 32940 43526
20125 32857 43544 20150 32522 43520 20200 31257 43457
20250 31142 43481 20300 31085 43475 20500 30892
444 20130 10014 1409/ 522// 60381=
ZZYY 52082 10014 17004 102035 156018 6113/
11119 00704 10267 29081
22219 00296
33311 88872 20000 32960 20002 32960 43425 20025 32966 43441
20050 32986 43483 20075 32971 43498 20100 32956 43528
20125 32898 43545 20150 32647 43513 20200 31359 43458
20250 31142 43481 20300 31080 43477 20500 30855
444 20130 10014 1743/ 522// 60381=
ZZYY 52082 10014 16004 102036 156020 6112/
11119 00304 10288 29072
22219 00296
33311 88872 20000 32963 20002 32963 43437 20025 32966 43440
20050 32983 43480 20075 32975 43500 20100 32949 43526
20125 32894 43544 20150 32629 43510 20200 31277 43456
20250 31141 43481 20300 31080 43476 20500 30852=
ZZYY 52082 10014 12004 102036 156020 6113/
11119 00808 10293 29070
22219 00296
33311 88872 20000 32963 20002 32963 43433 20025 32965 43438
20050 32987 43485 20075 32973 43496 20100 32926 43536
20125 32846 43540 20150 32478 43520 20200 31176 43462
20250 31141 43481 20300 31083 43476 20500 30879
444 20130 10014 1144/ 522// 60381=
ZZYY 52082 10014 14004 102040 156019 6113/
11119 00707 10291 29071
22219 00296
33311 88872 20000 32963 20002 32963 43435 20025 32967 43440
20050 32986 43485 20075 32981 43521 20100 32940 43526
20125 32857 43544 20150 32522 43520 20200 31257 43457
20250 31142 43481 20300 31085 43475 20500 30892
444 20130 10014 1409/ 522// 60381=
ZZYY 52079 10014 14004 100060 147023 6111/
11119 03507 10278 40083
22219 00298
33311 88872 20000 32980 20002 32980 43391 20025 32982 43399
20050 32965 43431 20075 32960 20100 32765 43552 20125 32498 43524
20150 32331 43542 20200 31901 43541 20250 31453 43508
20300 31126 43481 20500 30829 43460 20750 30598 43452
444 20110 10014 1418/ 522// 60381=
ZZYY 52079 10014 16004 100062 147023 6111/
11119 02919 10270 40072
22219 00298
33311 88872 20000 32979 20002 32979 43393 20025 32981 43400
20050 32977 43421 20075 32953 20100 32779 43549 20125 32488 43518
20150 32301 43543 20200 31866 43534 20250 31442 43505
20300 31120 43479 20500 30828 43460 20750 30592 43452
444 20110 10014 1551/ 522// 60381=
ZZYY 52079 10014 23004 100062 147022 6111/
11119 02714 10276 40091
22219 00297
33311 88872 20000 32973 20125 32518 43517 20150 32268 43540
20200 31907 43540 20250 31489 43511 20500 30862 43462
444 20110 10014 2243/ 522// 60381=
ZZYY 52079 10014 21004 100057 147020 6113/
11119 02710 10259 40081
22219 00297
33311 88872 20000 32969 20002 32969 43386 20025 32980 43402
20050 32977 43412 20075 32956 20100 32861 43535 20300 31143 43482
20750 30612 43453
444 20130 10014 2116/ 522// 60381=
ZZYY 52079 10014 20004 100057 147020 6113/
11119 03008 10252 40079
22219 00297
33311 88872 20000 32967 20002 32967 43382 20025 32979 43401
20050 32979 43408 20075 32951 20100 32946 43507 20125 32600 43522
20150 32329 43542 20200 31913 43541 20250 31479 43509
20300 31139 43482 20500 30829 43460 20750 30599 43451
444 20130 10014 1947/ 522// 60381=
ZZYY 52079 10014 16004 100062 147023 6111/
11119 02919 10270 40072
22219 00298
33311 88872 20000 32979 20002 32979 43393 20025 32981 43400
20050 32977 43421 20075 32953 20100 32779 43549 20125 32488 43518
20150 32301 43543 20200 31866 43534 20250 31442 43505
20300 31120 43479 20500 30828 43460 20750 30592 43452
444 20110 10014 1551/ 522// 60381=
ZZYY 52079 10014 18004 100058 147020 6113/
11119 03312 10252 40069
22219 00297
33311 88872 20000 32973 20002 32973 43384 20025 32979 43400
20050 32981 43408 20075 32953 20100 32944 43517 20125 32627 43526
20150 32347 43538 20200 31908 43541 20250 31461 43506
20300 31125 43480 20500 30825 43461 20750 30603 43453
444 20130 10014 1807/ 522// 60381=
ZZYY 52085 10014 19004 100010 156032 6112/
11119 03007 10273 40064
22219 00297
33311 88872 20000 32965 20002 32965 43370 20025 33030 43436
20050 33026 20075 33021 20100 33008 20125 32613 43545
20150 32253 43537 20200 31736 43519 20250 31361 43494
20300 31190 43486 20500 30799 43460 20750 30580 43453
444 20120 10014 1936/ 522// 60381=
ZZYY 52085 10014 21004 100025 156048 6111/
11119 03006 10279 40076
22219 00298
33311 88872 20000 32979 20002 32979 43386 20025 33029 43432
20050 33026 20075 33021 20100 33000 20125 32587 43544
20150 32261 43539 20200 31685 43517 20250 31344 43490
20300 31197 43485 20500 30810 43460 20750 30588 43452
444 20110 10014 2116/ 522// 60381=
ZZYY 52085 10014 23004 100016 156046 6113/
11119 03107 10281 40083
22219 00299
33311 88872 20000 32987 20002 32987 43382 20025 33029 43440
20050 33026 20075 33019 20100 32910 20125 32585 43545
20150 32258 43539 20200 31720 43516 20250 31405 43497
20300 31204 43484 20500 30804 43460 20750 30581 43452
444 20130 10014 2243/ 522// 60381=
ZZYY 52073 10014 13004 104945 137312 6113/
11119 00717 10277 29088 40085
22219 00297
33311 88872 20000 32969 20002 32969 43401 20025 32970
20050 32888 43414 20075 32758 43444 20100 32667 43474
20125 32442 43460 20150 32331 43493 20200 31663 43465 20250 31179
20300 30954 43455 20500 30765 43456 20750 30594 43451
444 20130 10014 1239/ 522// 60381=
ZZYY 52073 11014 0000/ 104949 137308 6113/
33311 88872 20002 32949 43360 20025 32966 20050 32868 43420
20075 32751 43441 20100 32606 43472 20125 32454 43488
20150 32332 43491 20200 31467 43455 20250 31072 20300 30944 43456
20500 30764 43454 20750 30623 43452
444 20130 10014 2338/ 522//=
ZZYY 52073 10014 2200/ 104947 137314 6111/
33311 88872 20002 32954 43367 20025 32970 20050 32849 43427
20075 32741 43444 20100 32526 43463 20125 32429 43488
20150 32326 43497 20200 31423 43455 20250 31018 20300 30920 43458
20500 30761 43455 20750 30626 43452
444 20110 10014 2130/ 522//=
ZZYY 52073 10014 18004 104944 137313 6111/
11119 00713 10273 29090 40062
22219 00294
33311 88872 20000 32943 20002 32943 43354 20025 32964
20050 32807 43434 20075 32710 43446 20100 32572 43470
20125 32398 43480 20150 32353 43492 20200 31558 43463 20250 31060
20300 30956 43457 20500 30761 43455 20750 30603 43451
444 20110 10014 1809/ 522// 60381=
ZZYY 52073 10014 20004 104947 137309 6112/
11119 01015 10284 29082 40068
22219 00294
33311 88872 20000 32944 20002 32944 43348 20025 32968
20050 32876 43415 20075 32751 43442 20100 32657 43476
20125 32402 43475 20150 32346 43491 20200 31556 43459 20250 31101
20300 30948 43458 20500 30760 43455 20750 30606 43452
444 20120 10014 1946/ 522// 60381=
ZZYY 52073 10014 19004 104947 137310 6113/
11119 00913 10279 29085 40061
22219 00294
33311 88872 20000 32942 20002 32942 43346 20025 32969
20050 32852 43423 20075 32739 43444 20100 32630 43478
20125 32413 43472 20150 32353 43487 20200 31531 43461 20250 31063
20300 30950 43458 20500 30765 43455 20750 30610 43451
444 20130 10014 1924/ 522// 60381=
ZZYY 52073 10014 17004 104945 137314 6113/
11119 00613 10271 29093 40069
22219 00295
33311 88872 20000 32948 20002 32948 43365 20025 32972
20050 32854 43423 20075 32741 43444 20100 32651 43474
20125 32409 43467 20150 32362 43489 20200 31688 43470 20250 31083
20300 30951 43456 20500 30746 43454 20750 30596 43452
444 20130 10014 1732/ 522// 60381=
ZZYY 52073 10014 13004 104945 137312 6113/
11119 00717 10277 29088 40085
22219 00297
33311 88872 20000 32969 20002 32969 43401 20025 32970
20050 32888 43414 20075 32758 43444 20100 32667 43474
20125 32442 43460 20150 32331 43493 20200 31663 43465 20250 31179
20300 30954 43455 20500 30765 43456 20750 30594 43451
444 20130 10014 1239/ 522// 60381=
ZZYY 52073 10014 15004 104946 137311 6113/
11119 01210 10252 29100 40096
22219 00295
33311 88872 20000 32948 20002 32948 43353 20025 32970
20050 32877 43415 20075 32765 43443 20100 32679 43473
20125 32427 43455 20150 32375 43486 20200 31687 43472 20250 31097
20300 30948 43456 20500 30750 43454 20750 30603 43451
444 20130 10014 1551/ 522// 60381=
ZZYY 52087 10014 1600/ 107653 136690 6113/
22219 00292
33311 88872 20000 32921 20002 32921 43385 20025 32922 43399
20050 32906 43453 20075 32728 43469 20100 32438 43506
20125 31991 43488 20150 31722 43474 20200 31313 43455
20250 30995 43446 20300 30916 43451 20500 30733 43449
20750 30595 43451
444 20130 10014 1550/ 522//=
ZZYY 52087 10014 1400/ 107655 136700 6111/
22219 00292
33311 88872 20000 32922 20002 32922 43386 20025 32924 43398
20050 32891 43458 20075 32697 43475 20100 32436 43507
20125 32016 43489 20150 31641 43471 20200 31145 43452
20250 30992 43448 20300 30922 43453 20500 30752 43450
20750 30630 43451
444 20110 10014 1327/ 522//=
ZZYY 52087 10014 2100/ 107653 136692 6113/
22219 00291
33311 88872 20000 32911 20002 32911 43380 20025 32915 43378
20050 32920 43402 20075 32786 43465 20100 32540 43503
20125 32091 43490 20150 31833 43481 20200 31273 43454
20250 31013 43446 20300 30894 43451 20500 30757 43451
20750 30606 43451
444 20130 10014 2118/ 522//=
ZZYY 52087 10014 1700/ 107655 136694 6113/
22219 00292
33311 88872 20000 32920 20002 32920 43387 20025 32923 43400
20050 32923 43436 20075 32779 43467 20100 32418 43505
20125 32044 43490 20150 31742 43472 20200 31292 43454
20250 30975 43448 20300 30912 43451 20500 30747 43451
20750 30597 43452
444 20130 10014 1732/ 522//=
ZZYY 52087 10014 1900/ 107654 136696 6113/
22219 00292
33311 88872 20000 32919 20002 32919 43387 20025 32921 43399
20050 32918 43432 20075 32776 43467 20100 32559 43499
20125 32112 43492 20150 31830 43480 20200 31169 43454
20250 30958 43450 20300 30894 43452 20500 30762 43450
20750 30598 43451
444 20130 10014 1923/ 522//=
ZZYY 52087 10014 1300/ 107652 136695 6113/
22219 00292
33311 88872 20000 32921 20002 32921 43385 20025 32923 43398
20050 32917 43438 20075 32734 43469 20100 32450 43507
20125 32008 43488 20150 31636 43470 20200 31180 43451
20250 31031 43448 20300 30925 43452 20500 30754 43449
20750 30636 43451
444 20130 10014 1239/ 522//=
ZZYY 52087 10014 1500/ 107653 136690 6113/
22219 00292
33311 88872 20000 32923 20002 32923 43387 20025 32925 43400
20050 32914 43444 20075 32705 43470 20100 32418 43505
20125 32018 43487 20150 31710 43475 20200 31176 43452
20250 30971 43447 20300 30913 43452 20500 30746 43450
20750 30614 43451
444 20130 10014 1550/ 522//=
ZZYY 52087 10014 1800/ 107650 136694 6112/
22219 00292
33311 88872 20000 32919 20002 32919 43387 20025 32921 43399
20050 32921 43432 20075 32795 43465 20100 32463 43505
20125 32066 43488 20150 31746 43475 20200 31189 43452
20250 30960 43449 20300 30914 43452 20500 30760 43451
20750 30594 43451
444 20120 10014 1745/ 522//=
ZZYY 52087 10014 1600/ 107653 136690 6113/
22219 00292
33311 88872 20000 32921 20002 32921 43385 20025 32922 43399
20050 32906 43453 20075 32728 43469 20100 32438 43506
20125 31991 43488 20150 31722 43474 20200 31313 43455
20250 30995 43446 20300 30916 43451 20500 30733 43449
20750 30595 43451
444 20130 10014 1550/ 522//=
ZZYY 52088 10014 15004 302020 155956 6113/
11119 03314 10264 29084 40077
22219 00302
33311 88872 20000 33017 20002 33017 43494 20025 33015 43526
20050 33001 43539 20075 32952 20100 32937 43558 20125 32832 43566
20150 32555 43586 20200 31761 43541 20250 31133 43482
20300 31103 43479 20500 30876 43465 20750 30560 43452
444 20130 10014 1422/ 522// 60381=
ZZYY 52088 10014 18004 302021 155960 6111/
11119 03314 10270 29082 40061
22219 00302
33311 88872 20000 33015 20002 33015 43510 20025 33015 43524
20050 33002 43541 20075 32967 20100 32940 43558 20125 32862 43563
20150 32718 43574 20200 31804 43543 20250 31146 43484
20300 31101 43479 20500 30849 43463 20750 30566 43451
444 20110 10014 1756/ 522// 60381=
ZZYY 52088 10014 2300/ 302017 155958 6113/
33311 88872 20125 32867 43564 20150 32734 43575 20200 31967 43561
20250 31155 43485 20500 30833 43462
444 20130 10014 2244/ 522//=
ZZYY 52088 10014 21004 302018 155954 6111/
11119 02909 10278 29080 40076
22219 00302
33311 88872 20000 33015 20002 33015 43510 20025 33017 43519
20050 33006 43542 20075 32984 20100 32946 43561 20125 32895 43561
20150 32791 43569 20200 32119 43572 20250 31164 43488
20300 31094 43478 20500 30855 43463 20750 30556 43452
444 20110 10014 2115/ 522// 60381=
ZZYY 52077 10014 1700/ 102082 146980 6113/
33311 88872 20025 33007 20050 32999 20075 32932 43529
20100 32783 43520 20125 32608 43524 20150 32436 43520 20200 31661
20250 31141 20300 31037 43473 20500 30805 43458 20750 30595 43453
444 20130 10014 1744/ 522//=
00000000