0000014700
836
SMNC02 NWBB 111200
AAXX 11124
91570 46/// /1013 10265 20217 30096 40101 50001=
91574 46/// /1113 10257 20205 30112 40117 50002=
0000220800
837
SMIY01 LIIB 111200
AAXX 11124
16008 12560 71905 10022 21018 38551 48509 50001 60001 87700 333 87720
      92865=
16084 11215 83004 10086 20083 30063 40232 58000 60001 71042 885// 333
      55300 84705 85620=
16088 11630 82804 10092 20073 30104 40223 58002 60001 71022 8523/ 333
      85645 83357=
16110 11496 80000 10092 20073 30219 40223 58002 60001 71042 8268/ 333
      55300 82710 88356 555 0000/=
16134 12584 62720 10044 21031 37850 48522 58002 60001 86070 333 55300
      84430 92845 95150 444 38160=
16153 12598 60207 10134 20083 39951 40215 54000 60001 84530 333 55300
      84630 555 0213/=
16158 12570 61108 10130 20085 30214 40222 58009 60001 81175 333 55307
      81820 83357=
16206 NIL=
16219 42765 63006 10048 20004 38168 48550 51008 6///1 86030 333 55304
      86356 95140=
16252 12864 50000 10112 20049 39280 42834 56005 60001 81031 333 55310
      81358=
16280 12597 80102 10122 20106 30000 40222 54000 60001 885// 333 55300
      88630 555 0100/=
16310 42897 70103 10140 20119 30000 40222 50000 6///1 85071 333 55307
      82357 83458 555 0100/=
16320 11558 70102 10140 20132 30219 40231 57007 60001 71022 83275 333
      55307 83820 84357 85460 555 0211/=
16325 11996 60000 10138 20122 30210 40224 58009 60001 71022 83035 333
      83359 98057 555 0100/=
16360 12597 60805 10148 20116 30086 40221 57007 60001 83231 333 55309
      83820 84357 555 0100/=
16400 12498 51310 10148 20114 39934 40223 50000 60001 81135 333 55307
      81819 83359 555 0213/=
16420 12698 52208 10152 20091 30150 40215 58008 60001 82502 333 55310
      82633 555 0215/=
16429 12572 41615 10190 20136 30197 40208 58004 60001 83234 333 55310
      82625=
16470 12975 02017 10182 20147 39971 40204 58003 60001 333 55310 22///
      95000=
16480 12498 42304 10196 20161 30160 40221 58008 60001 82102 333 55310
      82817 555 0100/=
16522 12898 53603 10154 20095 39963 40205 50001 60001 82038 333 55306
      82358 555 0200/=
16539 12897 71409 10152 20125 30080 40194 58008 60001 83035 333 83357
      555 0399/=
16550 12598 81403 10148 20106 30045 40224 58004 60001 8522/ 333 55300
      85820 85458 555 0200/=
0000227300
838
SMIY02 LIIB 111200
AAXX 11124
16021 11882 43303 11012 21051 37978 48499 52002 60001 70242 84010 333
      84458 92888=
16022 11/01 92117 11008 21017 37865 48506 58004 60001 74941 333 55300
      89/00 92865=
16033 12870 50000 10030 21006 38824 48527 51001 60001 83038 333 83357
      92832=
16040 12665 62812 10078 20033 39284 42808 58007 60001 84260 333 84835
      83357=
16052 12680 52210 11064 21146 36636 47069 58001 60001 82031 333 55310
      82340 444 26202=
16061 11230 80000 10064 20064 39382 42826 50002 60001 71022 888// 333
      55300 83805 88620=
16098 11750 80000 10090 20059 30179 40231 51002 60001 71022 85220 333
      85650 85462=
16138 11312 80000 10080 20061 30216 40228 58001 60001 71042 887// 333
      83808 85710=
16148 11725 70403 10101 20077 30213 40225 58001 60001 71022 87500 333
      55300 87650=
16168 12770 41903 10100 20074 39476 42831 51005 60001 82031 333
      82356=
16172 11415 60000 10096 20077 39928 40229 58004 60001 74041 81230 333
      81814 86359=
16179 12880 60000 10108 20062 39534 42824 58004 60001 85039 333
      85358=
16224 11230 70502 10072 20048 39905 40229 50003 60001 71042 81630 333
      55300 81705 87356=
16232 11996 60902 10138 20078 30165 40219 58007 60001 71022 83015 333
      55308 83459 555 0111/=
16245 12870 62303 10142 20088 30210 40236 51005 60001 82032 333
      82357=
16253 11950 30703 10126 20101 30210 40222 58009 60001 71011 80001 333
      55310=
16258 12260 71703 10072 21300 39222 42823 50000 60001 84000 333 84706
      83358=
16263 12780 52205 10106 21024 38960 48529 50001 60001 81038 333 81356
      444 36014=
16294 12597 5//00 10130 20104 30031 40224 51004 60001 85500 333 85620
      555 0100/=
16337 42798 62703 10114 20081 39655 40228 52004 6///1 86010 333 86450
      555 0100/=
16344 42870 52512 10090 21064 38350 48529 51006 6///1 85030 333 55310
      85356 95000 95100=
16434 12470 22109 10112 20067 39023 48529 58007 60001 82200 333 82815
      95000 95100=
16450 11365 62805 10094 20078 39051 48520 57004 60001 72842 83271 333
      83807 84357=
16459 NIL=
16546 NIL=
16564 12497 70615 10174 20131 30055 40195 58008 60001 82271 333 82815
      85460 555 0300/=
0000023200
839
SMAY01 UGEE 111200
AAXX 11121
37682 32997 40000 11045 21092 38118 48514 57003 80004=
37717 32599 41602 11030 21127 38059 48489 57005 82531=
37788 41495 80000 11082 21119 39257 40323 57013 77172 8652/ 333 86616=
0000012200
840
SNVX21 EDZW 111000
BBXX
DBLK 11101 99770 50341 41697 /0102 11034 21061 49932 52007
7//// 22220 05019 =
0000012200
841
SNVX21 EDZW 111100
BBXX
DBLK 11111 99770 50341 41597 /0102 11036 21059 49933 52006
7//// 22220 05019 =
0000013700
842
SMVX01 EDZW 111200
BBXX
DBLK 11121 99769 50341 41496 80403 11039 21054 49935 52005
77372 888// 22200 05018 ICE 38894=
0000067000
843
SMCZ10 OKPR 111200
AAXX 11121
11423 02483 72704 10019 20001 39285 42778 58010 60001 81150
  333 60005 81815 87358=
11487 01986 79901 10034 21001 39549 40180 58016 60001 71422
      86072
  333 60005 85359 84465=
11518 02982 72005 10055 20003 39727 40169 57015 60001 85052
  333 60005 85359 85070=
11603 02462 51203 10030 20006 39683 40173 58008 60001 83571
  333 60005 83611 83362=
11659 02975 51803 10052 21013 39536 40179 57015 60001 80002
  333 60005 85073=
11723 02980 62002 10053 21001 39892 40193 58016 60001 80001
  333 6///5 86072=
11782 02980 62207 10058 21001 39878 40186 57015 60001 84032
  333 60005 84366 86073=
0000011800
844
SMFI01 EFKL 111200 RRO
AAXX 11121
02851 47699 10403 11150 21186 30078 40095 53004 700// 81/// 91200=
0000011200
845
SMFI01 EFKL 111200 RRP
AAXX 11121
02866 47999 00404 11161 21198 39944 40104 52007 70000 91200=
0000011200
846
SMFI01 EFKL 111200 RRQ
AAXX 11121
02889 47980 00404 11166 21180 39788 40087 52007 77170 91200=
0000011200
847
SMFI01 EFKL 111200 RRR
AAXX 11121
02880 47999 00404 11164 21196 30112 40124 52004 700// 91200=
0000011200
848
SMFI01 EFKL 111200 RRS
AAXX 11121
02844 47999 03304 11218 21239 30044 40162 52003 70000 91200=
0000011200
849
SMFI01 EFKL 111200 RRT
AAXX 11121
02836 47968 03202 11281 21310 39936 40188 52007 78587 91200=
0000011200
850
SMFI01 EFKL 111200 RRU
AAXX 11121
02814 47999 00303 11184 21213 39872 40152 52005 70000 91200=
0000011200
851
SMFI01 EFKL 111200 RRV
AAXX 11121
02801 42582 30101 11221 21245 39582 40232 52003 70200 83440=
0000011800
852
SMFI01 EFKL 111200 RRW
AAXX 11121
02805 47781 51201 11236 21260 30057 40204 54001 77887 85/// 91200=
0000011800
853
SMFI01 EFKL 111200 RRX
AAXX 11121
02835 47260 71002 11258 21287 30035 40208 54001 785// 87/// 91200=
0000165700
854
SMFI02 EFKL 111200
AAXX 11121
02790 47499 83307 11010 21033 39968 49996 54000 72272 88/// 91139=
02807 47260 82301 11288 21319 30005 40213 771// 88/// 91200=
02823 47950 03401 11332 21362 39878 40218 52005 710//=
02862 47959 00410 11157 21204 30109 40113 52005 71010 91139=
02863 46/// /0512 11130 21176 30080 40102 52005 91139=
02873 47981 10707 11139 21181 30085 40095 52002 70072 81/// 91200=
02897 47/99 /0406 11152 21176 39877 40071 700// 91200=
02907 46/// /0612 11111 21126 30070 40077 52010 91200=
02910 NIL=
02913 47460 70405 11103 21128 39984 40039 771// 87///=
02917 47/80 /0304 11123 21146 39909 40038 771// 91200=
02920 46/// /0708 11113 21138 30030 40055 52010 91139=
02944 47260 80603 11058 21065 39856 40007 700// 88/// 91200=
02947 47456 83602 11077 21095 40015
52006 77177 88/// 91151=
02958 47465 83604 11064 21091 39864 49999 700// 88/// 91200=
02963 47358 80703 11044 21055 39867 49998 54000 77187 88///=
02965 47481 80301 11052 21067 39902 40002 52005 70000 88/// 91139=
02967 47481 83604 11046 21065 39991 49998 52016 70072 88/// 91139=
02974 42380 80000 11039 21053 39938 40006 52004 70222 886//=
02976 46/// /3503 11049 21063 39986 40003 52015 91139=
02979 46/// /3508 11001 21034 39981 40001 57003 91139=
02980 47999 43607 11013 21013 39993 40006 54002 70087 84/// 91139=
02982 46/// /0801 11005 21017 39988 49996 57004 91139=
02984 NIL=
02987 46/// /0602 11032 21104 39975 40004 52010 91139=
02991 46/// /3602 11042 21052 39971 40005 52010 91139=
02992 46/// /0204 11045 21063 30000 40005 52012 91200=
02993 46/// /0109 11014 21051 39985 40004 57003 91139=
0000013700
855
SMCG20 FCBB 111200
AAXX 11124 
64450 31557 72204 10285 20218 39756 40107 70522 8283/
    333 0//00 58006 81820 87365=
00000000