0000033600
176
USGL04 EKMI 111200
TTAA 61111 04320
99004 19141 31008 00040 15557 26512 92643 05970 22519
85309 02788 23515 70818 12590 20021 50532 24169 18538
40691 36365 18048 30884 51756 16556 25000 59956 17065
20136 70137 18070 15305 72560 18550 10544 74358 20548
88168 74547 18057
77204 17570 40911
31313 49908 81105=
0000015700
177
SSVX13 LFPW 111200
ZZYY 16535 11014 1200/ 325136 049501 6113/ 11119 40145 57008 22219
 00281 444 20130 11014 1200/ 50101 80124 80005 9/015=
0000016900
178
SSVX13 LFPW 111200
ZZYY 41737 11014 1200/ 725754 037029 6113/ 11119 40210 52016 33300
 88872 20000 43753 444 20130 11014 1200/ 50101 80148 80063 9/015=
0000015700
179
SSVX13 LFPW 111205
ZZYY 13665 11014 1205/ 717277 059203 6113/ 11119 40200 52028 22219
 00265 444 20130 11014 1200/ 50101 80142 80002 9/015=
0000034000
180
SMQB50 LQSM 111200
AAXX 11121
14543 NIL=
14549 16/// /1401 10163 2//// 39798 40201 58028 60001 70000=
14554 11850 21102 10156 20068 39940 40212 56010 60001 71044 81041 333
81357=
14650 12660 52703 10092 20045 39124 48560 58007 60001 84206 333 84840
85282=
14657 16/// /1200 10120 21008 30213 40213 57013 60001=
0000044600
181
SMQB40 LQSM 111200
AAXX 11121
14528 12670 51603 10148 20051 39913 40205 56010 60001 82540 333 82640
83360=
14537 11670 30000 10166 20071 30017 40204 58020 60001 70241 81441 333
81643=
14544 12670 23601 10147 20070 39553 40205 58023 60001 81501 333 81643
=
14557 12965 12201 10150 20041 39856 40216 58017 60001 80001 333 81070
=
14640 11365 72001 10096 20077 39393 48553 58013 60001 70242 87800 333
84806 83620=
0000028300
182
SMQB15 LQSM 111200
AAXX 11121
14648 12665 70000 10120 20086 30115 40235 58010 60001 82570 333 82646
87461=
14652 11/01 92309 11007 21011 37965 48530 51003 60001 74541 333 89///
=
14542 12670 21802 10178 20042 30021 40206 57023 60001 81206 333 81840
95900=
0000012600
183
SMQB10 LQSM 111200
AAXX 11121
14654 12770 42701 10125 20035 39468 40201 57018 60001 81101 333 81850
83072=
0000226800
184
SMRO01 YRBK 111200
AAXX 11121
15015 02598 72404 10032 21012 39610 42812 58005 60001 87800 333 60007
91006 91109=
15020 02597 83202 10090 21034 39993 40191 57009 60001 82207 333 60007
91004 91106=
15090 02997 82802 10097 21018 30104 40197 56011 60001 80007 333 55309
0//// 21124 30266 60007 91004 91106=
15108 01/91 92720 11074 21074 38051 48476 52007 60001 74944 333 41004
60007 91028 92723=
15120 02698 60301 10048 20004 39721 40225 58008 60001 81271 333 55305
00398 20758 30574 60007 91003 91103=
15150 02997 30201 10090 21004 39984 40197 56012 60001 81031 333 60007
91002 91104=
15170 02598 72305 10033 21020 39424 42813 57011 60001 86370 333 42998
60007 91008 91109=
15200 02697 81202 10066 20050 30073 40220 58020 60001 885// 333 60007
91002 91103=
15230 02598 52001 10085 20022 39933 40228 57021 60001 83442 333 55306
00403 21006 30405 60007 91002 91103=
15260 02599 32501 10097 21028 39684 40217 58016 60001 81201 333 60007
91002 91104 95000=
15280 01093 72714 11103 21113 37475 47014 50001 60001 74141 85501 333
41998 60007 91020=
15292 02598 40301 10101 20017 39927 40222 57019 60001 82102 333 60007
91003 91103 95000=
15310 02997 31802 10082 20029 30126 40212 57014 60001 81031 333 55310
00728 21309 31231 60007 91004 91105=
15335 02597 33301 10121 20007 30201 40207 57015 60001 83500 333 60007
91004 91105=
15346 02997 21803 10101 21023 39926 40216 58020 60001 80001 333 60007
91004 91104 95090=
15350 02997 22905 10121 21036 30088 40207 57018 60001 80001 333 60007
91008 91111=
15360 02997 32805 10093 20080 30193 40207 57011 60001 80005 222//
06077 20301 333 60007 91006 91108 92427=
15410 02997 21501 10125 20033 30126 40221 58019 60001 82030 333 60007
91002 91102=
15420 02997 12303 10094 21013 30104 40216 57018 60001 80001 333 55310
0//// 21352 3//// 60007 91005 91105=
15450 02997 22103 10118 20016 39985 40219 58017 60001 81041 333 55310
00710 21452 30175 60007 91006 91106=
15460 02997 22504 10098 21008 30194 40219 58014 60001 80001 333 60007
91009 91109=
15470 02997 02902 10102 20040 30094 40220 58016 60001 333 60007 91004
91107=
15480 02997 33101 10096 20010 30194 40211 57018 60001 80001 222//
06078 2//// 333 60007 91004 91105 92427=
0000015700
185
SSVX13 LFPW 111200
ZZYY 25618 11014 1200/ 180157 112944 6113/ 11119 40211 57005 22219
 01130 444 20130 11014 1200/ 50101 80138 8//// 9/015=
0000015700
186
SSVX13 LFPW 111200
ZZYY 31866 11014 1200/ 528233 030876 6113/ 11119 40228 52006 22219
 00257 444 20130 11014 1200/ 50101 80144 80019 9/015=
0000015700
187
SSVX13 LFPW 111200
ZZYY 31734 11014 1200/ 525080 030181 6113/ 11119 40218 52006 22219
 00265 444 20130 11014 1200/ 50101 80142 80021 9/015=
0000015700
188
SSVX13 LFPW 111200
ZZYY 62553 11014 1200/ 761213 021318 6113/ 11119 40036 52016 22219
 00087 444 20130 11014 1200/ 50101 80140 80003 9/015=
0000015700
189
SSVX13 LFPW 111200
ZZYY 31718 11014 1200/ 540694 037457 6113/ 11119 40061 57007 22219
 00164 444 20130 11014 1200/ 50101 80142 80003 9/015=
0000015700
190
SSVX13 LFPW 111200
ZZYY 16643 11014 1200/ 341733 061474 6113/ 11119 40175 57023 22219
 00151 444 20130 11014 1200/ 50101 80152 80023 9/015=
0000015700
191
SSVX13 LFPW 111200
ZZYY 14516 11014 1200/ 332234 055023 6113/ 11119 40163 57016 22219
 00207 444 20130 11014 1200/ 50101 80146 80024 9/015=
0000015700
192
SSVX13 LFPW 111200
ZZYY 64622 11014 1200/ 766557 009535 6113/ 11119 40058 52007 22219
 00021 444 20130 11014 1200/ 50101 80142 80011 9/015=
0000015700
193
SSVX13 LFPW 111200
ZZYY 44765 11014 1200/ 746730 035488 6113/ 11119 40054 52031 22219
 00110 444 20130 11014 1200/ 50101 80138 8//// 9/015=
0000015700
194
SSVX13 LFPW 111200
ZZYY 32703 11014 1200/ 526084 157176 6113/ 11119 40130 57018 22219
 00246 444 20130 11014 1200/ 50101 80122 80000 9/015=
0000015700
195
SSVX13 LFPW 111200
ZZYY 64662 11014 1200/ 766870 021632 6113/ 11119 49983 52015 22219
 00034 444 20130 11014 1200/ 50101 80150 80026 9/015=
00000000