0000078900
296
UDAS02 BABJ 110318
AMDAR 1103
LVR CNFPYL 3238N 11258E 110307 F301 MS433 255/089 TB/ S//1=
LVR CNFPYL 3251N 11242E 110310 F301 MS433 255/091 TB/ S//1=
LVR CNFPYL 3302N 11224E 110313 F301 MS435 254/088 TB/ S//1=
LVR CNFPYL 3309N 11204E 110316 F301 MS435 255/090 TB/ S//1=
DES CNFNXP 3512N 11724E 110314 F237 MS341 262/060 TB/ S//1=
DES CNFNXP 3513N 11723E 110315 F235 MS335 264/061 TB/ S//1=
DES CNFNXP 3517N 11720E 110315 F225 MS309 273/065 TB/ S//1=
DES CNFNXP 3521N 11716E 110316 F213 MS288 274/056 TB/ S//1=
ASC CNFPQK 3806N 11458E 110315 F167 MS263 279/046 TB/ S//1=
LVR CNFPQK 3804N 11502E 110316 F167 MS263 280/048 TB/ S//1=
LVR CNFPQK 3802N 11506E 110316 F167 MS261 280/047 TB/ S//1=
LVR CNFPQK 3801N 11508E 110317 F167 MS260 278/046 TB/ S//1=
0000222000
297
SIRA25 RUHB 110300
AAXX 11031
21432 41998 02505 11295 21319 30254 40275 52008 70230 333 21300=
21824 42998 82003 11350 21379 30329 40339 52010 83031=
21921 42999 00000 11455 21471 30315 40368 58004 333 21464=
21931 41997 80000 11282 21300 30284 40319 58002 77172 80007=
21946 11498 80304 11225 21237 30230 40315 51001 77872 885// 333
88618=
21978 42998 00000 11312 21342 30252 40260 57007 333 91101=
21982 42998 20901 11251 21282 30192 40222 57018 81031 333 91104=
25042 42981 02201 11322 21352 30240 40260 58006 333 91102=
25044 42999 00000 11347 21384 30250 40257 57005 333 91101=
25051 42999 00000 11325 21362 30260 40268 57004 333 91102=
25062 NIL=
25123 42998 11502 11382 21397 30231 40268 50001 81010=
25129 42999 50000 11415 21443 30254 40267 58002 81031 333 91100=
25138 42599 21701 11390 21427 30126 40268 58013 82530 333 91102=
25147 42999 00402 11270 21301 39871 40261 58002 333 91105=
25151 42999 00000 11381 21397 30260 40267 58006 333 91104=
25173 NIL=
25248 42998 00000 11446 21469 39790 40321 58002 333 21446 91100=
25282 NIL=
25325 NIL=
25335 42998 19901 11427 21449 39853 40280 57005 81030 333 91102=
25356 NIL=
25399 41498 70107 11206 21246 30124 40134 58007 73631 87500 333
91111=
25428 41957 30000 11430 21455 39872 40260 57004 71000 81031 333
91101=
25469 41999 00504 11234 21274 30143 40169 58004 70230 333 91010
91110=
25551 42999 63603 11192 21241 30138 40171 58001 83041 333 91108=
25563 41950 20414 11182 21208 30050 40133 53002 73830 82040 333 91019
91126=
25594 NIL=
25677 NIL=
25767 NIL=
31087 41597 82912 11198 21231 30091 40099 52/// 77173 885// 333 91014
91114=
21535 41998 82704 11243 21268 30268 40289 52009 70273 8805/=
21608 41998 01206 11380 21397 30233 40253 58013 73630 333 21382=
21636 42999 52801 11297 21309 30279 40315 52004 85030=
21711 41998 21506 11384 21413 30288 40310 58001 73630 80001 333 21386
91111=
21721 41997 21707 11354 21383 30293 40322 54000 73831 80001 333 21354
91114=
21813 42998 00000 11449 21483 30325 40366 58002=
21821 42998 02104 11331 21367 30304 40324 58002 333 21331=
21937 41496 80000 11345 21367 30196 40332 58002 77172 885// 333
88617=
0000222300
298
SIRA26 RUHB 110300
AAXX 11031
25703 42999 70104 11234 21259 39935 40224 58004 83031=
25745 41597 80408 11168 21194 30056 40110 52003 73732 885// 333 91014
91117=
25913 41699 10505 11164 21269 39937 40092 52009 70131 81500 333
91113=
25956 42598 70606 11121 21183 30003 40009 58010 87500=
31088 42599 83602 11150 21177 30084 40091 51002 8657/=
31873 42998 62303 11174 21244 30105 40249 58017 80005=
31909 42999 02806 11121 21279 30124 40206 58016 333 91011 91111=
31960 82998 02003 11083 21207 30010 40256 58017=
31961 42997 61702 11107 21198 30208 40256 57019 80001=
32053 42999 12305 11195 21253 30037 40089 58009 80002 333 91010
91112=
32061 41597 72803 11196 21237 30082 40124 57011 78582 87900 333 91005
91105=
32098 42598 10303 11200 21249 30107 40118 58018 81900 333 91006
91106=
32150 41598 73401 11131 21158 30090 40121 58020 72682 86902 333 91004
91104=
32165 41598 52806 11059 21163 30075 40138 58014 70282 85900 333 91010
91112=
32215 41593 83309 11032 21046 39903 49932 52007 78683 889// 333 91016
91125=
32389 42699 72904 11089 21106 39947 49984 58001 81531=
32477 42599 80000 11086 21105 39925 49957 57001 885//=
32583 42598 83404 11037 21071 39917 49947 51002 8655/ 333 91110=
32618 41598 60511 11028 21072 39888 49911 57007 70282 86500 333 91014
91114=
24856 42998 32402 11428 21449 30215 40399 58002 80001=
24871 42998 71802 11448 21484 30171 40387 52005 80001=
24928 42999 20000 11484 21512 30015 40478 57004 80001=
24933 42999 80000 11456 21486 30008 40390 53004 80005=
25017 42999 20202 11345 21356 30251 40275 58006 82030=
25121 42998 21902 11400 21421 30251 40269 52002 82010=
30173 42999 50000 11488 21516 30182 40495 58001 80002=
30198 42999 00000 11462 21481 39875 40511 51002=
31005 41993 00000 11492 21522 30042 40484 54000 74840 333 21512=
31011 42999 00000 11482 21512 30030 40462 52002=
31016 42999 30000 11481 21500 30108 40467 52003 80005=
31026 41998 62603 11371 21405 30127 40421 58001 70232 83072=
31041 41998 82702 11381 21403 30121 40389 54000 77172 86037=
31062 41696 82504 11386 21420 39752 40307 52004 77171 8802/ 333
91111=
31102 42999 80000 11409 21438 38783 48430 52007 80005=
0000103700
299
UDAS02 BABJ 110320
AMDAR 1103
ASC CNFLZP 3116N 12114E 110315 F043 MS038 167/017 TB/ S//1=
ASC CNFLZP 3115N 12111E 110316 F044 MS040 158/010 TB/ S//1=
ASC CNFLZP 3114N 12109E 110317 F044 MS040 153/010 TB/ S//1=
ASC CNFLZP 3112N 12107E 110317 F046 MS043 135/013 TB/ S//1=
DES CNFNXQ 3645N 11602E 110315 F180 MS270 275/036 TB/ S//1=
DES CNFNXQ 3646N 11605E 110315 F172 MS254 268/037 TB/ S//1=
DES CNFNXQ 3648N 11612E 110316 F155 MS220 275/027 TB/ S//1=
DES CNFNXQ 3650N 11619E 110317 F134 MS188 272/021 TB/ S//1=
DES CNFPYM 3420N 11716E 110315 F246 MS348 272/073 TB/ S//1=
LVR CNFPYM 3425N 11716E 110315 F236 MS328 270/063 TB/ S//1=
LVR CNFPYM 3432N 11716E 110316 F236 MS333 269/060 TB/ S//1=
LVR CNFPYM 3438N 11715E 110317 F236 MS335 266/059 TB/ S//1=
DES CNFPYN 2502N 11800E 110309 F119 MS014 274/029 TB/ S//1=
DES CNFPYN 2448N 11801E 110312 F095 MS008 250/019 TB/ S//1=
DES CNFPYN 2439N 11801E 110315 F075 PS033 254/016 TB/ S//1=
DES CNFPYN 2431N 11758E 110318 F055 PS083 281/006 TB/ S//1=
0000021000
300
SZSR01 WSSS 110328
CREX++
T000103 A001 D01021 D06025++
0126166 10385160 00044 2014 01 11 02 48 //// 11 07 00 06
01669 -0041 01642 -0038 01607 -0033 01572 -0028 01548 -0022 01512 -0028++
7777
0000011000
301
SIAL21 DAMM 110300 RRA
AAXX 11034
60559 42960 2//// 10061 20047 40211 58010 81032 333 81360=
0000011100
302
UANT01 CWAO 110326
ARP UAL976 4744N04145W 0326 F320 MS54 322/49 KT
N226UA DDL XXW 110326 F33A
0000011100
303
UANT01 CWAO 110326
ARP SVA036 4745N04135W 0326 F330 MS53 311/50 KT
HZAK18 QXT AME 110326 F19A
0000011100
304
UANT01 CWAO 110326
ARP UAL106 5121N03341W 0326 F340 MS56 198/62 KT
N76064 DDL XXW 110326 F60A
0000008300
305
UANT01 KWBC 110327
ARP TCV691 4107N 6700W 0319 F340 MS58 305/107KT=
0000013100
306
UAPA01 KWBC 110327
ARP UAL351 3024N 14042W 0319 F290 228/050KT=
ARP ASA886 2133N 15128W 0323 F350 MS42 243/073KT=
0000011000
307
UANT01 CWAO 110326
ARP DAL50 4844N04139W 0326 F360 MS54 308/37 KT
N815NW DDL XXW 110326 J70A
0000008200
308
SIAL54 EUMS 110300 RRA
AAXX 11034
60677 36/// /0000 10090 21034=
0000008600
309
UAJP71 RJFF 110326
PIREP
HGE F240 270/85KT MS32 SMTH AT 0326 BY B735
0000011100
310
UANT01 CWAO 110327
ARP DAL410 4623N04823W 0327 F350 MS64 329/63 KT
N195DN QXS YYT 110327 F32A
0000011000
311
UANT99 KDDL 110325
ARP DLH403 5132N03245W 0325 F380 MS53 217/44 KT
DABTF QXT EUA 110325 F52A
0000011100
312
UANT99 KDDL 110325
ARP UAL152 5134N03240W 0325 F370 MS53 215/54 KT
N17128 DDL IG1 110325 F75A
0000011000
313
UANT99 KDDL 110325
ARP KLM642 5341N02411W 0325 F370 MS55 225/69 KT
PHBQM QXT AOE 110326 F26A
0000029100
314
SXHW11 KWAL 110327
15DEF7B8 011032753"
1,140111,02:15:02,11.4,121,15.9,22.0,964.0,0.00,14.3,
1,140111,02:30:02,11.4,114,16.5,21.7,964.2,0.00,14.3,
1,140111,02:45:02,11.6,110,17.0,21.7,964.4,0.00,14.3,
1,140111,03:00:02,12.6,102,18.6,21.7,964.3,0.00,14.3, 42-0NN  30W
0000010900
315
SAIN90 VERC 110239
METAR VERC 110300Z 18004KT 1200 BR FEW 100 15/12 Q1019
     BECMG1500BR=
00000000