0000005600
786
ULAA01 LFPW 110000
TTCC 6023/ 89642 NIL=
0000025000
787
USAA01 LFPW 110000
TTAA 60232 89642 99986 01656 08007 00574 ///// ///// 92549 02738
09519 85212 08512 11520 70699 15107 09508 50517 30356 35011 40672
39558 35025 30863 513// 35546 25983 479// 35027 88999 77999 31313
47708 82321=
0000005600
788
UEAA01 LFPW 110000
TTDD 6023/ 89642 NIL=
0000036000
789
UKAA01 LFPW 110000
TTBB 60238 89642 00986 01656 11843 09109 22827 09504 33740 11906
44643 19708 55602 22557 66529 27944 77459 33959 88396 39958 99311
519// 11233 465// 21212 00986 08007 11884 10527 22776 13504 33644
06011 44579 00000 55529 30510 66502 35511 77448 32015 88400 35025
99308 35549 11235 35021 31313 47708 82321 41414 856//=
0000011700
790
BMRR01 DEMS 110049
VTBB
AHD SMNP01 VNKT 110000=
AHD SMNP20 VNKT 110000=
AHD SMBW01 VGDC 110000=
0000014800
791
SMPH01 RPMM 110000 RRB
AAXX 11001
98325 31462 31803 10225 20192 40167 53020 70544 81101
20501 333 20200 56999 58020 81817 98328=
0000013600
792
SIRA27 RUHB 102100 RRE
AAXX 10211
25927 11599 53607 11164 21215 30077 40084 52005 60002 73631 85900 333
21170 48097=
0000057400
793
SAUZ31 UTTW 110030
METAR UTFN 110030Z NIL=
METAR UTNN 110030Z 19001MPS 8000 BKN036 M04/M05 Q1020 R33/CLRD60
NOSIG=
METAR UTNU 110030Z NIL=
METAR UTSA 110030Z 09004MPS 9000 NSC M01/M07 Q1023 R07/CLRD70 NOSIG=
METAR UTSB 110030Z 13003MPS 4500 BR NSC M02/M05 Q1023 R19/CLRD70
NOSIG=
METAR UTSK 110030Z NIL=
METAR UTSS 110030Z NIL=
METAR UTST 110030Z 03002MPS 2600 BR NSC M05/M05 Q1027 R88/CLRD70
TEMPO 1500 BR=
METAR UTFA 110030Z NIL=
METAR UTFF 110030Z NIL=
METAR UTTT 110030Z 08002MPS 040V100 CAVOK M04/M10 Q1024 R08L/CLRD70
NOSIG=
0000005200
794
RRIN23 VIDP 110047
RQRPT 283-324=

0000005200
795
RRIN23 VIDP 110048
RQRPT 443-464=

0000005200
796
RRIN23 VIDP 110048
RQRPT 603-624=

0000014600
797
SMVA01 DEMS 110000 RRA
BBXX
LXLW 11003 99136 10502 41/98 30503 10235 20199 40160 54000 70111
8//// 22264 00262 20402 80210=

0000034300
798
SNVD15 KWNB 102300 RRT
BBXX
42369 10231 99272 70903 46/// /1409 1//// 92240=
42375 10231 99285 70883 46/// /1506 1//// 92240 22200 10502 70008
555 11045 22049=
42392 10231 99272 70900 46/// ///// 1//// 92240 22200 10502 70010=
42887 10231 99282 70885 46/// /1505 10221 20219 92240 22200 10502
70012 555 11041 22045=
0000014600
799
SAYE20 OYAA 110100
METAR OYAA 110100Z 13011KT 9999 SCT018 25/19 Q1015 NOSIG=
METAR OYSQ 110100Z 09014KT 9999 BKN018 22/18 Q1013=
0000036400
800
SXXX32 EUMS 110042
22E595B6
:PRS 1 /1 M 3172 3170 3179 3168 3180 3192 3179 3197 3194 3227 3212 3209 3226 3190 3222 3215 3229 3190 3183 3182 3198 3229 3162 3142 3155 3129 3222 3170 3126 :RAD 1 /3 6362 6371 6382 6381 6373 6364 6358 6342 6353 6360 :ENC 2 /5 4475 4503 4511 4494 4465 4467 :SW1 42 /60 60 :SW2 12 /60 60 :BAT 14 /15 12.9 :NAME 22E595B6
0000013300
801
SMXX97 HECA 110000 CCB
AAXX 11001
40650 41545  81403  10104  20096  40155  57012  72162  888//  333
84830  86633=
0000013300
802
SMAF95 HECA 110000 CCE
AAXX 11001
40650 41545  81403  10104  20096  40155  57012  72162  888//  333
84830  86633=
0000044600
803
SXXX32 EUMS 110043
32BD7124
:PRS 1 /1 1798 1798 1799 1800 1802 1803 1805 1808 1809 1811 1815 1817 1819 0824 1825 1827 1830 1830 1829 1826 1825 1826 1828 1828 1827 1826 1821 1820 1818 1818 :RAD 3 /3 7584 7590 7596 7602 7608 7612 7610 7608 7604 7604 7603 7604 7607 7607 7610 7609 7610 7612 7614 7613 :ENC 3 /5 4581 4591 4602 4607 4604 4600 4599 4602 4605 4605 4609 4610 :SW1 44 /60 0 :SW2 14 /60 60 :BAT 14 /15 12.7 :NAME 32BD7124
0000070100
804
SXXX32 EUMS 110043 RRA
223412A2
OT12 ID:IND-SADENG DT:2014 01 11 00 42
:PRS /1 01429 01383 01325 01385 01412 01454 01451 01413 01358 01404 01417 01390 01504 01517 01439 01406 01413 01419 01459 01462 01383 01329 01324 01381 01327 01394 01443 01508 01401 01303
:ENC /1 -13606 -13643 -13656 -13626 -13639 -13559 -13559 -13603 -13653 -13619 -13603 -13609 -13526 -13523 -13593 -13616 -13583 -13593 -13539 -13526 -13583 -13659 -13663 -13606 -13629 -13559 -13519 -13489 -13566 -13649
:RAD /1 11165 11115 11114 14584 13395 11154 11220 11176 11143 11122 11156 11188 11242 11259 11142 11137 11150 11145 11183 11216 11204 11130 11086 11068 11114 11175 11212 11220 11178 11094
:BAT 12.4V
0000040600
805
SXXX32 EUMS 110045
262D700E
:PRS 1 /1 3440 3472 3414 3436 3427 3425 3380 3371 3392 3418 3393 3439 3448 3454 3417 3342 3384 3361 3354 3350 3407 3389 3453 3391 3365 3397 3394 3404 3439 3419 :RAD 1 /3 5863 5860 5862 5864 5857 5856 5854 5847 5845 5843 5840 5842 5844 5837 5834 :ENC 5 /5 5977 5984 5973 5983 5969 5961 5961 5961 5964 5949 5930 5925 :SW1 45 /60 0 :BAT 14 /15 12.9 :NAME 262D700E
00000000