0000009300
159
SPUS41 KWBC 102054
SPECI
KHVN 102050Z 13003KT 4SM BR OVC029 01/00 A3036=

0000012900
160
FCSN33 ESWI 102000 AAA
TAF AMD ESNZ 102053Z 1021/1023 03005KT 9999 -SN BKN025 TEMPO
1021/1023 2000 SN VV012=

0000014700
161
FCSN34 ESWI 102000 AAA
TAF AMD ESPA 102053Z 1021/1024 03010KT 1000 SN VV020 TEMPO 1021/1024
5000 -SN VV008 RMK ISSUED BY ESSA=

0000009800
162
SACS31 MROC 102100
METAR 
MRPV 102100Z 06014KT 9999 FEW040 25/13 A2994 NOSIG=

0000039100
163
SABX31 EBBR 102050
METAR EBAW 102050Z 21009KT 190V250 9000 OVC009 05/03 Q1017 NOSIG=
METAR EBBR 102050Z 21006KT 9999 BKN011 05/02 Q1017 NOSIG=
METAR EBCI 102050Z 20010KT 9999 BKN010 05/03 Q1017 NOSIG=
METAR EBLG 102050Z 20010KT CAVOK 04/02 Q1017 NOSIG=
METAR EBOS 102050Z 19011KT 9999 SCT012 05/03 Q1016 NOSIG=
METAR ELLX 102050Z 23003KT CAVOK 02/02 Q1018 NOSIG=

0000045200
164
SAFI33 EFHK 102050
EFJO 102050Z AUTO 02013KT 350V050 9999 -SN FEW013 OVC070 M09/M10
Q0993=
EFLP 102050Z 01012KT 340V040 5000 -SN FEW009 BKN022 M05/M07 Q0989=
EFMI 102050Z AUTO VRB06KT 9999 -SG OVC011 M06/M07 Q0992=
EFSA 102050Z AUTO 35010KT 290V040 9999 -SG FEW015 BKN018 OVC044
M08/M10 Q0992=
EFUT 102050Z AUTO 35013KT 320V020 9999 OVC011 M05/M06 Q0990=
EFVR 102050Z AUTO 01010KT 330V070 1600 +SN OVC014 M07/M09 Q0994=

0000049100
165
SAOS31 LOWM 102050
METAR LOWW 102050Z 26006KT CAVOK 05/M00 Q1021 NOSIG=
METAR LOWL 102050Z VRB01KT 9999 FEW050 01/M01 Q1021 NOSIG=
METAR LOWS 102050Z 16003KT 100V190 9999 SCT035 BKN080 02/02 Q1020
NOSIG=
METAR LOWI 102050Z VRB01KT 6000 SCT003 BKN008 03/02 Q1020 R08/29//75
NOSIG=
METAR LOWG 102050Z 19002KT 6000 FEW004 BKN006 03/03 Q1021 R17/29//95
BECMG BKN004=
METAR LOWK 102050Z VRB01KT 0600 R10/0800N R28/0800N FG VV002 02/02
Q1021 R10L/19//95 NOSIG=

0000011200
166
SAOS32 LOWM 102050
METAR LOXZ 102050Z 06002KT 20KM FEW050SC BKN080SC M00/M01 Q1020 RMK
BKN=

0000082200
167
SAIY31 LIIB 102050
METAR LIEA 102050Z VRB01KT 2500 0600W R20/1000VP1500/ PRFG NSC
07/07 Q1020=
METAR LIEE 102050Z 14006KT CAVOK 11/11 Q1019=
METAR LIEO 102050Z VRB01KT 7000 NSC 05/04 Q1021=
METAR LIMC 102050Z 32002KT 9999 BKN040 08/06 Q1022 NOSIG=
METAR LIME 102050Z 11002KT 2000 BR BKN005 08/07 Q1022=
METAR LIMF 102050Z 06003KT 9999 BKN030 08/05 Q1021=
METAR LIMJ 102050Z VRB01KT 9999 SCT020 BKN040 13/10 Q1021=
METAR LIML 102050Z 10005KT 5000 BR SCT005 BKN035 09/08 Q1022 NOSIG=
METAR LIRA 102045Z 00000KT 8000 SCT030 BKN070 11/09 Q1022=
METAR LIRF 102050Z VRB03KT 9999 BKN030 11/09 Q1022 NOSIG=
METAR LIRN 102050Z 34004KT 5000 BR BKN030 12/07 Q1022=
METAR LIRP 102045Z 10001KT 9999 FEW030 BKN050 10/08 Q1021 NOSIG=
METAR LIRQ 102050Z VRB01KT 9999 FEW020 BKN035 12/11 Q1022=

0000010300
168
SAUK31 EGGY 102050 CCB
METAR COR EGLL 102050Z 20007KT 9999 FEW011 08/06 Q1013 NOSIG=

0000011500
169
FCQB31 LQSM 101700 AAA
TAF AMD LQSA 102100Z 1021/1103 CNL=
TAF AMD LQMO 102100Z 1021/1103 CNL=

0000009500
170
SAQB31 LQSM 102100
METAR LQSA 102100Z VRB01KT 9999 BKN060 06/04 Q1022 NOSIG=

0000008900
171
SABZ21 SBNT 102100
METAR SBNT 102100Z 13012KT 9999 SCT022 27/21 Q1011=

0000016000
172
SAAF18 LFPW 102000 RRB
METAR FMMT 102000Z 32006KT 9999 FEW017 BKN033 28/25 1013=
METAR FMNM 102000Z 28004KT 9999 FEW020 BKN230 26/24 Q1012=

0000012500
173
SAMX51 MMMX 102100
METAR MMPA 102042Z 00000KT 6SM FEW120 26/16 A2988
RMK SLP064 57045 996 8/030 HZY RTS=

0000013400
174
SABZ24 SBPA 102100 CCA
METAR COR SBPA 102100Z 20008KT 9999 -TSRA
SCT016 BKN040 FEW048CB OVC0
80
 24/20 Q1011=

0000010000
175
SAUK33 EGGY 102050 RRA
METAR EGNS 102050Z VRB03KT 9999 FEW022 SCT045 07/05 Q1008=

0000009300
176
SAEA20 HKNC 102000 RRB
METAR HKML 102000Z 09010KT 9999 SCT021 26/23 Q1012=

0000097900
177
SAMX42 MMGL 102056
METAR MMAS 102042Z 23010KT 10SM  SCT040 21/M03 A3013 RMK 8/100=
METAR MMEP 102047Z 24005KT 12SM  SKC 27/02 A3007 
      RMK SLP158 57027 957 AC DSNT 3 QUAD=
METAR MMGL 102048Z 32010KT 10SM  SCT030TCU BKN080 23/02 A3008 
      RMK SLP117 57026 964 8/230=
METAR MMIA 102050Z 24006KT 8SM  SCT030TCU SCT150 BKN230 26/05 A2997 
      RMK 8/239 RTS=
METAR MMLO 102049Z 23006KT 10SM  SCT030 SCT220 22/02 A3012 
      RMK SLP098 57040 964 8/502=
METAR MMMM 102047Z 14008KT 8SM  BKN030TCU BKN230 21/07 A3012 
      RMK SLP093 57032 975 8/208 ISOL AC=
METAR MMPN 102048Z 19010KT 12SM  SCT040CB BKN110 BKN230 22/14 A3012 
      RMK 8/363 HZY ACSL=
METAR MMPR 102046Z 20007KT 15SM  FEW120 25/17 A2990 
      RMK SLP118 57025 952 8/080=
METAR MMSP 102044Z 24017G27KT 15SM  SCT035 23/M05 A3010 
      RMK SLP091 57029 970 8/100=
METAR MMZC 102040Z 22025G35KT 10SM  FEW040 19/M02 A3014 RMK 8/100=
METAR MMZO 102045Z NIL=

0000011000
178
SAMX31 KWBC 102105
METAR MNMG 102100Z 11016KT 9999 FEW025 33/18 Q1008 A2977 1AC070
NOSIG=

00000000