0000040400
199
SAPL32 EPWA 102100
METAR EPBY 102100Z 26018KT 9999 BKN027 06/03 Q1009 =
METAR EPKT 102100Z 24014KT 9999 SCT045 05/M01 Q1015 =
METAR EPLB 102100Z NIL=
METAR EPMO 102100Z 26020G30KT 9999 BKN027 05/03 Q1008 =
METAR EPSC 102100Z 25010KT 9999 BKN017 05/03 Q1011 =
METAR EPWR 102100Z 26009KT 230V290 9999 FEW045 06/M01
    Q1016 =
METAR EPZG 102100Z 24010KT CAVOK 06/01 Q1014 =

0000013300
200
SACN62 CYPW 102100
METAR CYPW 102100Z 11005KT 25SM FEW020 BKN035 OVC080 06/04 A2996 RMK
 SC1SC7AS1 SC TR SLP148=

0000010600
201
SACN61 CYQA 102100
METAR CYQA 102100Z AUTO 15007KT 7SM OVC007 M02/M02 A3007 RMK SLP199=

0000011300
202
SACN61 CYPY 102100
METAR CYPY 102100Z AUTO 27004KT 9SM -SN OVC070 M17/M20 A2948 RMK
 SLP008=

0000025500
203
SAIE31 EIDB 102100
METAR EIDW 102100Z 26009KT 9999 FEW025 BKN200 04/03 Q1010 NOSIG=
METAR EINN 102100Z 20006KT 9999 FEW010 SCT040 03/03 Q1012 NOSIG=
METAR EICK 102100Z 31008KT 9999 FEW016 04/03 Q1012 NOSIG=
METAR EIKN 102100Z NIL=

0000008300
204
SABZ24 SBPP 102100
METAR SBPP 102100Z 00000KT CAVOK 28/19 Q1011=

0000008300
205
SAAG41 SAME 102100
METAR SAME 102100Z 09008KT CAVOK 30/05 Q1009=

0000008400
206
SAAG41 SAZS 102100
METAR SAZS 102100Z  29018KT CAVOK 19/01 Q1017=

0000009400
207
SAAG41 SAZM 102100
METAR SAZM 102100Z  07010KT 9999  FEW025  22/12
Q1008=

0000010700
208
SACN62 CYRT 102100
METAR CYRT 102100Z 34010KT 15SM IC DRSN SKC M32/M36 A2965 RMK SLP047=

0000010900
209
SAAE33 VTBB 102030 RRA
METAR VVDN 102030Z 34004KT 4000 BR SCT013 BKN060 21/19 Q1019 NOSIG=

0000012800
210
SAGQ21 FGSL 102100
METAR FGBT 102100Z NIL=
METAR FGSL 102100Z 23005KT 6000 FEW012 BKN130 26/23 Q1012 NOSIG=

0000012700
211
SACN62 CYYJ 102100
METAR CYYJ 102100Z 00000KT 30SM FEW044 BKN080 OVC120 09/04 A2998 RMK
 SC2AC4AC2 SLP153=

0000010600
212
SACN62 CYYT 102100
METAR CYYT 102100Z 27011KT 15SM FEW025 M08/M12 A3016 RMK SC2 SLP225=

0000011500
213
SABZ24 SBUG 102100
METAR SBUG 102100Z 10009KT 9999 VCTS SCT020
FEW035CB SCT080 25/20 Q10
07=

0000009500
214
SAPA31 KWBC 102000 RRF
METAR
PLCH 102000Z 12016KT 9999 FEW020 29/22 Q1009=

0000010600
215
SACN62 CYCY 102100
METAR CYCY 102100Z 28005KT 15SM SCT160 M26/M29 A2916 RMK AS3 SLP878=

0000012300
216
SACN62 CYBD 102100
METAR CYBD 102100Z 29007KT 12SM SCT065 OVC090 05/02 A2982 RMK SC3AS5
 TR SF SLP100=

0000011600
217
SACN61 CYDN 102100
METAR CYDN 102100Z AUTO 25006KT 9SM FEW010 OVC019 M08/M10 A2939 RMK
 SLP977=

0000041100
218
SAHU41 LHBM 102100
METAR LHKE 102045Z 25003MPS 220V280 CAVOK 04/M00 Q1021 NOSIG RMK BLU=
METAR LHPA 102045Z 00000MPS 4000 BR FEW200 M02/M02 Q1021 NOSIG RMK
     GRN=
METAR LHPP 102045Z 09004KT CAVOK 05/04 Q1022=
METAR LHPR 102045Z 25008KT CAVOK 03/M01 Q1021=
METAR LHSN 102045Z 25004MPS 230V290 CAVOK 04/M01 Q1021 NOSIG RMK BLU=
METAR LHUD 102045Z 16004KT 6000 FEW200 01/00 Q1022=

00000000