0000021300
499
WSCN02 CWAO 110509
CZEG SIGMET H2 VALID 110505/110905 CWEG-
CZEG EDMONTON FIR SEV TURB OBS WTN 30 NM OF LINE N5837 W11319 - N5609
W10911 -
N5232 W10549 - N4911 W10420 FL180/290 MOV E 30KT NC=
0000021300
500
WSCN03 CWAO 110509
CZWG SIGMET A2 VALID 110505/110905 CWEG-
CZWG WINNIPEG FIR SEV TURB OBS WTN 30 NM OF LINE N5837 W11319 - N5609
W10911 -
N5232 W10549 - N4911 W10420 FL180/290 MOV E 30KT NC=
0000030500
501
WSCN22 CWAO 110509
CZEG SIGMET H2 VALID 110505/110905 CWEG-
CZEG EDMONTON FIR SEV TURB OBS WTN 30 NM OF LINE /N5837 W11319/20 E
CFU4 -
/N5609 W10911/30 NW CYVT - /N5232 W10549/45 NE CYXE - /N4911
W10420/60 W CYEN
FL180/290 MOV E 30KT NC
RMK GFACN32/CZWG WINNIPEG FIR SIGMET A2=
0000030500
502
WSCN23 CWAO 110509
CZWG SIGMET A2 VALID 110505/110905 CWEG-
CZWG WINNIPEG FIR SEV TURB OBS WTN 30 NM OF LINE /N5837 W11319/20 E
CFU4 -
/N5609 W10911/30 NW CYVT - /N5232 W10549/45 NE CYXE - /N4911
W10420/60 W CYEN
FL180/290 MOV E 30KT NC
RMK GFACN32/CZEG EDMONTON FIR SIGMET H2=
0000016000
503
WSID20 WIII 110500
WIIF SIGMET 02 VALID 110500/110900 WIII-
WIIF JAKARTA FIR AREA OF ISOL EMBD CB/TS OBS NW OF S04 E110 S0630
E105 STNR WKN=
0000019000
504
SMRO44 YRBK 110000 CCB
AAXX 11001
15265 03/// /2905 10046 21005 30101 40177 51012 6///1 333 55300 0////
20000
3//// 55000 0//// 20152 3//// 6///7 91007 91108 555 6////=
0000011000
505
SNOS41 LOWM 110500 RRA
AAXX 11051
11030 36/// /0000 11018 21023 39996 40220 56003 333 55300=
0000011000
506
SNOS42 LOWM 110500 RRA
AAXX 11051
11182 36/// /2202 11023 21037 39868 40221 58005 333 55300=
0000011000
507
UANT01 CWAO 110515
ARP DLH455 5703N05055W 0514 F370 MS60 278/59 KT
DABVM QXT AME 110515 F10A
0000010900
508
UANT01 CWAO 110515
ARP BAW94 5501N02915W 0515 F360 MS58 224/60 KT
GYMMB QXT AOE 110515 F22A
0000011000
509
UANT01 CWAO 110515
ARP UAL91 5822N04343W 0515 F340 MS59 271/29 KT
N77022 DDL XXN 110515 F61A
0000011100
510
UANT01 CWAO 110515
ARP DAL248 5752N05040W 0515 F380 MS60 274/54 KT
N810NW DDL XXW 110515 J28A
0000038500
511
SSVX13 LFPW 110500
ZZYY 61691 11014 0500/ 144463 033018 6113/ 11119 40195 52032 22219
 00095 33300 88870 20000 30952 20011 30960 20013 30948 20016 30956
 20021 30944 20026 30952 20031 30952 20036 30944 20041 30940 20046
 30948 20051 30932 20056 30936 20061 30900 20066 30826 20071 30800
 20076 30780 20081 30796 444 20131 10014 2050/ 50101 80094 80048
 9/015=
0000009100
512
SXEO40 EEMH 110500
SEA 1105
26058  3/546=
26115  3/530=
86094  3/536=
0000011000
513
SNOS40 LOWM 110500 RRA
AAXX 11051
11157 36/// /0801 11003 21007 39435 40229 57005 333 55300=
0000011000
514
SNOS43 LOWM 110500 RRA
AAXX 11051
11019 36/// /2402 11013 21025 39477 40221 56004 333 55300=
0000011000
515
UANT01 CWAO 110515
ARP BAW17V 4929N04758W 0515 F340 MS62 311/65 KT
GYMMT QXS YYT 110515 F03A
0000011000
516
UANT01 CWAO 110516
ARP UAL17 4819N04839W 0516 F360 MS65 313/60 KT
N48127 DDL YYT 110516 F43A
0000011000
517
UANT01 CWAO 110516
ARP UAL36 5217N03409W 0515 F370 MS56 217/39 KT
N21108 DDL IG1 110516 F77A
0000086500
518
SAUZ31 UTTW 110500
METAR UTFN 110500Z 00000MPS 0100 R28/0100N FZFG VV000 M08/M09 Q1029
R28/CLRD70 NOSIG RMK QBB020=
METAR UTNN 110500Z 17002MPS 8000 BKN032 M01/M04 Q1022 R33/CLRD60
NOSIG=
METAR UTNU 110500Z VRB01MPS 6000 NSC M02/M04 Q1021 R13/CLRD60 NOSIG=
METAR UTSA 110500Z 13001MPS 5000 FU NSC 01/M08 Q1023 R07/CLRD70
NOSIG=
METAR UTSB 110500Z 14005MPS 2500 BR NSC 01/M05 Q1024 R01/CLRD70
NOSIG=
METAR UTSK 110500Z VRB01MPS 7000 NSC 01/M02 Q1024 R16/CLRD70=
METAR UTSS 110500Z 15004MPS 120V180 9999 BKN200 03/M11 Q1022
R88/CLRD70 NOSIG=
METAR UTST 110500Z 02002MPS 6000 NSC 00/M02 Q1028 R88/CLRD70 NOSIG=
METAR UTFA 110500Z 00000MPS 0200 R04/M0300N FZFG VV001 M06/M07 Q1029
R88/09//70=
METAR UTFF 110500Z 00000MPS 9000 NSC M04/M05 Q1028 R18/CLRD70=
METAR UTTT 110500Z 10002MPS CAVOK 01/M07 Q1024 R08R/CLRD70 NOSIG=
00000000