0000023400
219
NOUK32 EGGY 102111
SADIS GATEWAY MONITOR
INTERNAL ALARM MESSAGE
AERODROME NOT RECEIVED

SKBO FT LAST RECEIVED AT 101000Z
VABB FT LAST RECEIVED AT 100300Z
ZSPD FT LAST RECEIVED AT 101526Z
END OF MESSAGE

0000056900
220
FTUS80 KWBC 102124 AAA
TAF AMD
KMIA 102123Z 1021/1118 12013KT P6SM SCT020 BKN060 BKN250
     FM110000 12007KT P6SM SCT020 BKN150
     FM111500 15015G22KT P6SM SCT025 BKN050=
KTEX 102123Z 1021/1118 32008KT 4SM -SN BKN012 OVC025
      TEMPO 1021/1023 2SM -SN BR OVC012
     FM110300 16005KT P6SM VCSH SCT015 BKN025
     FM111000 VRB03KT P6SM SCT025 BKN060=
PAEN 102123Z 1021/1118 VRB03KT 2SM BR BKN006 OVC015
      TEMPO 1021/1024 1/4SM FZFG BKN002
     FM110000 02004KT 6SM BR SCT008 BKN025
     FM110900 36003KT 3/4SM BR BKN005=

0000090600
221
SPUS70 KWBC 102124
SPECI
KHQM 102120Z AUTO 17005KT 3SM BR SCT015 BKN049 OVC060 A3003 RMK
     AO2 RAE03UPB03E20 P0000 TSNO $=
KMFI 102120Z AUTO 10007KT 1 1/4SM BR OVC003 M02/M03 A2964 RMK AO2
     FZRAB2055E14 P0000 I1002 T10171033=
KPNS 102120Z 09003KT 3/4SM R17/2800V4500FT BR OVC002 16/14 A3001
     RMK AO2 T01610144=
PAOH 102120Z AUTO 00000KT 10SM SCT033 BKN040 01/01 A2953 RMK AO2
     TSNO UPE14 P0000 $=
KBPT 102121Z 18010G17KT 2SM -RA BR FEW023 BKN033 OVC044 19/17
     A2986 RMK AO2 RAB2056 P0000=
KCFV 102122Z AUTO 24014KT 10SM FEW021 SCT025 SCT032 12/07 A2957
     RMK AO2 T01220067=
KDEQ 102121Z AUTO 22003KT 6SM -RA BR SCT008 BKN019 OVC031 14/14
     A2970 RMK AO2 P0000 T01440144=
KTKI 102121Z 21012KT 10SM SCT019 BKN045 BKN055 18/16 A2968 RMK
     AO2=
KUGN 102121Z 15008KT 3/4SM RA BR OVC002 01/01 A2975 RMK AO2
     UPE11RAB11 P0000=

0000011100
222
SPUS42 KWBC 102124
SPECI
KPNS 102120Z 09003KT 3/4SM R17/2800V4500FT BR OVC002 16/14 A3001=

0000010600
223
SPUS44 KWBC 102124
SPECI
KHQM 102120Z AUTO 17005KT 3SM BR SCT015 BKN049 OVC060 A3003=

0000044000
224
SAGR33 LGAT 102120
METAR LGBL 102120Z NIL=
METAR LGHI 102120Z NIL=
METAR LGKC 102120Z NIL=
METAR LGKF 102120Z AUTO VRB02KT //// // ////// 13/09 Q1022
     RE//=
METAR LGKP 102120Z NIL=
METAR LGKZ 102120Z AUTO VRB02KT //// // ////// 09/M02 Q1020
     RE//=
METAR LGMK 102120Z NIL=
METAR LGNX 102120Z NIL=
METAR LGPA 102120Z AUTO 17004KT //// // ////// 15/14 Q1020
     RE//=
METAR LGSO 102120Z NIL=

0000009200
225
SAEG31 HECA 102130
METAR HECA 102130Z 00000KT 6000 NSC 14/10 Q1023 NOSIG=

0000010400
226
SPUS41 KWBC 102125
SPECI
KBDR 102121Z 00000KT 1 1/4SM BR BKN003 OVC007 01/01 A3037=

0000011600
227
SPUS42 KWBC 102125
SPECI
KBPT 102121Z 18010G17KT 2SM -RA BR FEW023 BKN033 OVC044 19/17
A2986=

0000108200
228
SPUS70 KWBC 102126
SPECI
KCDW 102122Z 00000KT 1SM BR BKN007 BKN011 OVC018 00/M02 A3035 RMK
     AO2=
KCUB 102122Z AUTO 01005KT 1/2SM +RA FG OVC035 09/09 A3015 RMK AO2
     P0026 T00940089 TSNO=
KDWH 102122Z 17009G15KT 10SM SCT021 BKN029 OVC070 21/18 A2980 RMK
     AO2=
KRKS 102122Z AUTO 29022G37KT 10SM BKN026 BKN032 M01/M06 A2983 RMK
     AO2 PK WND 28037/2117 T10061061=
KSET 102122Z AUTO 22009KT 1 3/4SM +RA BR OVC009 06/05 A2971 RMK
     AO2 P0007 T00560050 TSNO=
KTMB 102122Z 11010KT 10SM BKN024 BKN028 BKN034 27/22 A3007 RMK
     AO2=
KTOP 102122Z 22004KT 8SM OVC010 05/03 A2954 RMK AO2 CIG 007V014
     T00500033=
PANW 102119Z AUTO 36004KT 1 1/4SM BR OVC001 M07/M07 A2950 RMK AO2
     TSNO CIG 001V005 $=
KNSE 102123Z 11004KT 1/4SM DZ OVC002 16/14 A3002 RMK AO2 P0000
     T01560144 $=
PABA 102119Z AUTO 27021KT 1 1/2SM BR M26/M28 A2986 RMK AO2
     FZRANO=
KCRS 102123Z AUTO 19015G22KT 10SM FEW016 FEW022 SCT030 18/17 A2973
     RMK AO2 T01830167=
KELM 102123Z 00000KT 9SM FEW020 OVC050 04/M01 A3021 RMK AO2=

0000010300
229
SPUS41 KWBC 102126
SPECI
KCEF 102120Z AUTO 23003KT 9SM BKN020 OVC090 00/M01 A3035=

0000010500
230
SPUS42 KWBC 102126
SPECI
KTMB 102122Z 11010KT 10SM BKN024 BKN028 BKN034 27/22 A3007=

0000009700
231
SPUS43 KWBC 102126
SPECI
KGRR 102122Z 16007KT 2 1/2SM BR OVC006 02/01 A2987=

0000019100
232
FTUS31 KWBC 102127 AAA
TAF AMD
KFLL 102124Z 1021/1118 14013KT P6SM SCT020 BKN250
     FM110000 13008KT P6SM SCT020 BKN150
     FM111500 17015G22KT P6SM SCT025 BKN050=

0000029700
233
FTUS42 KWBC 102127 AAA
TAF AMD
KSSI 102124Z 1021/1118 13010KT P6SM VCSH SCT005 OVC050
      TEMPO 1021/1024 6SM -RA BR BKN005 OVC050
     FM110200 14005KT 3SM BR BKN005 OVC010
     FM110600 15005KT 1SM BR BKN003 OVC006
     FM111400 19010G15KT P6SM VCSH BKN010 OVC020=

0000034300
234
FTUS75 KWBC 102127 AAA
TAF AMD
PAGK 102125Z 1021/1118 00000KT 4SM BR OVC035
      TEMPO 1021/1024 1SM -SN BR BKN015
     FM110000 00000KT P6SM BKN025
     FM110900 00000KT P6SM BKN012 BKN040=
PAHO 102124Z 1021/1118 24002KT P6SM VCSH BKN070
      TEMPO 1021/1024 BKN010
     FM110200 VRB03KT P6SM SCT025 BKN200=

0000074000
235
FTUS72 KWBC 102127 AAA
TAF AMD
KFLL 102124Z 1021/1118 14013KT P6SM SCT020 BKN250
     FM110000 13008KT P6SM SCT020 BKN150
     FM111500 17015G22KT P6SM SCT025 BKN050=
KMKL 102125Z 1021/1118 17010G16KT P6SM SCT020 BKN100
      TEMPO 1021/1022 BKN020
     FM110000 16012G20KT P6SM VCSH BKN025
     FM110300 18014G22KT 4SM -RA BR VCTS OVC007CB
     FM111000 22014KT P6SM BKN012 OVC080
     FM111200 26012KT P6SM SCT020
     FM111500 27012G18KT P6SM SCT025=
KSSI 102124Z 1021/1118 13010KT P6SM VCSH SCT005 OVC050
      TEMPO 1021/1024 6SM -RA BR BKN005 OVC050
     FM110200 14005KT 3SM BR BKN005 OVC010
     FM110600 15005KT 1SM BR BKN003 OVC006
     FM111400 19010G15KT P6SM VCSH BKN010 OVC020=

0000033200
236
SANL31 EHDB 102125
METAR EHAM 102125Z 21016KT 9999 FEW010 BKN012 07/05 Q1015 NOSIG=
METAR EHBK 102125Z AUTO 21010KT 9999 NCD 04/02 Q1017 NOSIG=
METAR EHGG 102125Z AUTO 21011KT 8000 BKN009 BKN011 OVC013 06/05 Q1013
BECMG 7000=
METAR EHRD 102125Z AUTO 21014KT 180V240 9000 BKN009 OVC010 06/04
Q1015 NOSIG=

0000010300
237
SAMJ41 LWSK 102130
METAR LWSK 102130Z 00000KT 1700 BR OVC002 02/01 Q1024 TEMPO 1200=

0000008800
238
SPBZ18 SBGR 102124
SPECI SBGR 102124Z 13006KT CAVOK 23/17 Q1015 RETS=

00000000