0000191300
339
SZAU01 AMMC 110515
CREX++
T000103 A001 D01021 D06025++
-1927750 14705860 59260 2014 01 11 05 08 3030 11 07 00 01
01667 0208 01678 0214 01677 0208 01678 0203 01694 0214 01691 0205+
-2316110 15079000 59670 2014 01 11 05 08 3000 11 07 00 01
02274 0125 02281 0124 02283 0116 02297 0122 02306 0121 02316 0123+
-3447330 15091170 60420 2014 01 11 05 08 2960 11 07 00 01
00920 -0030 00919 -0033 00917 -0037 00919 -0038 00922 -0037 00927 -0034+
-4105000 14591500 60910 2014 01 11 05 08 2893 11 07 00 01
00831 -0031 00834 -0037 00837 -0041 00846 -0039 00858 -0036 00862 -0039+
-4254640 14793080 61170 2014 01 11 05 08 2895 11 07 00 01
01153 0057 01156 0058 01154 0054 01162 0061 01162 0059 01160 0055+
-3834390 14161360 61410 2014 01 11 05 08 2905 11 07 00 01
00420 0092 00354 0025 00379 0049 00366 0035 00355 0023 00384 0051+
-3214890 13364170 62000 2014 01 11 05 08 2963 11 07 00 01
00891 0114 00895 0116 00900 0118 00900 0116 00906 0119 00910 0121+
-3387080 12189720 62080 2014 01 11 05 08 2948 11 07 00 01
00777 0101 00783 0107 00792 0116 00801 0124 00798 0121 00782 0105+
-3182560 11573860 62237 2014 01 11 05 08 2970 11 07 00 01
00809 0086 00800 0076 00806 0081 00798 0073 00811 0085 00797 0070+
-2422000 11339750 62385 2014 01 11 05 08 //// 11 07 00 01
01057 -0075 01008 -0125 01017 -0118 01084 -0052 01024 -0113 01024 -0115+
-2181670 11419110 62430 2014 01 11 05 08 //// 11 07 00 01
01627 -0002 01602 -0029 01617 -0016 01612 -0022 01614 -0022 01620 -0018+
-1800080 12221830 62650 2014 01 11 05 08 3043 11 07 00 01
04878 0231 04884 0231 04888 0232 04891 0228 04895 0229 04899 0228+
-1247190 13084580 63230 2014 01 11 05 08 3050 11 07 00 01
05422 0033 05425 0032 05431 0036 05435 0038 05440 0040 05442 0039+
-1386000 13641580 63511 2014 01 11 05 08 3045 11 07 00 01
01438 0067 01437 0065 01438 0065 01440 0065 01443 0067 01445 0067++
7777

0000034100
340
SZIO01 AMMC 110515
CREX++
T000103 A001 D01021 D06025++
-1211670 09689190 46280 2014 01 11 05 08 3008 11 07 00 01
01115 0037 01124 0044 01133 0051 01133 0049 01131 0045 01135 0046+
-1042940 10566940 46290 2014 01 11 05 08 //// 11 07 00 01
01076 0030 01109 0061 01077 0026 01111 0058 01125 0069 01072 0014++
7777

0000039500
341
SAUK53 EGRR 110500 RRA
METAR EGUL 110458Z AUTO 23011KT 9000 -RA BR SCT007 BKN012 OVC018 08/08
      A2983 RMK AO2 RAB0444DZB0432E0444 SLP105 P0000 T00780078=
METAR EGUN 110458Z AUTO 23011KT 9999 -RA BKN009 OVC016 08/08 A2984
      RMK AO2 RAB0444 SLP108 P0000 T00780078=
METAR EGVA 110458Z AUTO 27006KT 9999 CLR 04/04 A2991 RMK AO2 RAE0411
      SLP135 P0000 T00430041=
0000011400
342
SNUK42 EGRR 110500 RRA
AAXX 11054
03010 46/// /2717 10058 20015 40025 51008
  333 90710 91126=
0000003800
343
UANT01 EGRR 110500
NIL
0000011000
344
UANT01 CWAO 110513
ARP ACA888 4848N05150W 0513 F360 MS65 288/46 KT
CGLCA DDL YYT 110513 F19A
0000011100
345
UANT01 CWAO 110513
ARP AWE796 4500N05006W 0513 F370 MS60 305/52 KT
N281AY DDL XXN 110513 J19A
0000039000
346
UDIO01 AMMC 110500
AMDAR 1105
LVR AU0078 3857S 10956E 110413 F320 MS408 302/042 TB0 S031
  333 F320 VG007=
LVR AU0078 3902S 10847E 110420 F320 MS394 304/052 TB0 S031
  333 F320 VG006=
LVR AU0078 3917S 10740E 110427 F320 MS397 306/072 TB0 S031
  333 F320 VG004=
LVR AU0078 3930S 10634E 110434 F320 MS397 308/076 TB0 S031
  333 F320 VG009=
0000806900
0341=
0000011000
347
UANT01 CWAO 110514
ARP DLH425 5201N02936W 0514 F380 MS51 215/54 KT
DAIHY QXT EUA 110514 J02A
0000011000
348
UANT01 CWAO 110514
ARP UAL25 5054N03033W 0513 F390 MS52 207/53 KT
N13113 DDL IG1 110514 F18A
0000010900
349
UANT01 CWAO 110514
ARP VIR2C 4928N04806W 0513 F380 MS62 307/57 KT
GVROC DDL XXW 110514 F87A
0000003800
350
SNVF21 AMMC 110500
NIL
0000005200
351
RRIN23 VECC 110514
RQRPT 200-221=

0000093600
352
UPIN52 VECC 110000
PPAA 11001 42182 NIL=
PPAA 11001 42314 NIL=
PPAA 11001 42339 NIL=
PPAA 11001 42348 NIL=
PPAA 11001 42361 NIL=
PPAA 11001 42369 NIL=
PPAA 11001 42379 NIL=
PPAA 11001 42397 NIL=
PPAA 11001 42410 NIL=
PPAA 11001 42475 NIL=
PPAA 11001 42492 NIL=
PPAA 11001 42498 NIL=
PPAA 11001 42591 NIL=
PPAA 11001 42623 NIL=
PPAA 11001 42647 NIL=
PPAA 11001 42667 NIL=
PPAA 11001 42675 NIL=
PPAA 61011 42706 55192 01508=
PPAA 11001 42724 NIL=
PPAA 11001 42798 NIL=
PPAA 11001 42809 NIL=
PPAA 11001 42867 NIL=
PPAA 11001 42875 NIL=
PPAA 11001 42909 NIL=
PPAA 11001 42971 NIL=
PPAA 11001 43003 NIL=
PPAA 11001 43014 NIL=
PPAA 11001 43014 NIL=
PPAA 61011 43049
55392 20002 16009 25823 77999=
PPAA 60231 43110
     55392 33006 23011 24513 77999=
PPAA 11001 43128 NIL=
PPAA 11001 43150 NIL=
PPAA 11001 43185 NIL=
PPAA 11001 43237 NIL=
PPAA 11001 43279 NIL=
PPAA 11001 43295 NIL=
PPAA 11001 43353 NIL=
PPAA 11001 43371 NIL=

0000020400
353
SAIN35 VIDP 110500
METAR VIDN 110500Z 33003KT 6000 SCT040 SCT080 13/10 Q1018=
METAR VIGG 110500Z 24001KT 5000 HZ NSC 13/03 Q1020=
METAR VISM 110500Z 00000KT 6000 FEW030 07/03 Q1020=

0000013200
354
SMTH42 VTBB 110000 RRD
AAXX 11004
48433 31958 30000 10170 20161 30005 40177 52019 71011 80005
  333 20168 58011=
0000003900
355
USTR10 UTAA 110000
NIL=
0000070900
356
USAA01 NZCM 110000
TTAA 61001 89664
99997 00056 18501 00512 ///// ///// 92601 07158 18518
85255 11341 17017 70716 21114 15006 50514 33959 24513
40666 44759 24520 30855 51765 24023 25975 45585 24514
20124 43786 24513 15318 43586 26009 10592 41586 23504
88320 52361 23026
77999
31313 48008 82219=

0000069700
87361=
0000011200
87368
0000009600
87371
0000035800
87378
0000037300
87381
0000039400
87385
0000039400
87407
0000041500
87411
0000014600
87417
0000045700
87421
0000049900
87440
0000052000
87462
0000050000
87472=
0000058400
87593
0000060500
87638=
0000056700
88260
0000054400
88534
0000075100
88974=
0000064700
357
USAA01 NZCM 110000
TTAA 61001 89664
99997 00056 18501 00512 ///// ///// 92601 07158 18518
85255 11341 17017 70716 21114 15006 50514 33959 24513
40666 44759 24520 30855 51765 24023 25975 45585 24514
20124 43786 24513 15318 43586 26009 10592 41586 23504
88320 52361 23026
77999
31313 48008 82219=

0000069700
87361=
0000011200
87368
0000009600
87371
0000035800
87378
0000037300
87381=
0000039500
87413
0000041600
87422=
0000043800
87504
0000052100
87527
0000058300
87571
0000052200
87616
0000058400
87667
0000056400
87778
0000062600
87965=
0000060700
88985=
0000070900
358
USAA01 NZCM 110000
TTAA 61001 89664
99997 00056 18501 00512 ///// ///// 92601 07158 18518
85255 11341 17017 70716 21114 15006 50514 33959 24513
40666 44759 24520 30855 51765 24023 25975 45585 24514
20124 43786 24513 15318 43586 26009 10592 41586 23504
88320 52361 23026
77999
31313 48008 82219=

0000069700
87361=
0000011200
87368
0000009600
87371
0000035800
87378
0000037300
87381
0000039400
87385
0000039400
87407
0000041500
87411
0000014600
87417=
0000041700
87480
0000060300
87494
0000052100
87511
0000058300
87573
0000050100
87608
0000056300
87640
0000066700
87775
0000062600
87963=
0000068900
88995=
00000000