0000011300
179
SACN61 CYMO 102100
METAR CYMO 102100Z AUTO 19007KT 9SM -SN OVC013 M02/M04 A2979 RMK
 SLP090=

0000012000
180
SACN61 CYNA 102100
METAR CYNA 102100Z AUTO 28009KT 9SM -SN SCT016 OVC025 M08/M10 A3007
 RMK SLP182=

0000011300
181
SACN61 CYNE 102100
METAR CYNE 102100Z AUTO 11004KT 9SM -SN OVC006 M09/M10 A2943 RMK
 SLP983=

0000012400
182
SACN62 CYMA 102100
METAR CYMA 102100Z 33004KT 10SM VCSH BKN030 BKN070 M17/M20 A2940 RMK
 SC5AC2 SLP007=

0000015600
183
FTUK35 EGGY 101700 AAA
TAF AMD EGAA 102101Z 1021/1118 25006KT 7000 FEW035 PROB40 1021/1103
    3000 BR PROB30 1103/1111 0500 FG BKN000=

0000016300
184
SACY31 LCLK 102100
METAR LCLK 102100Z 31005KT CAVOK 09/02 Q1021 NOSIG=
METAR LCPH 102100Z 02007KT CAVOK 10/04 Q1022=
METAR LCNC 102100Z NIL=

0000025400
185
SACZ31 LKPW 102100
METAR LKKV 102100Z 26006KT 9999 BKN047 02/M01 Q1017=
METAR LKMT 102100Z 22010KT CAVOK 03/M02 Q1018 NOSIG=
METAR LKPR 102100Z 23013KT CAVOK 04/00 Q1018 NOSIG=
METAR LKTB 102100Z 26006KT CAVOK 02/M01 Q1019 NOSIG=

0000010600
186
SACN61 CYNM 102100
METAR CYNM 102100Z AUTO 18010KT 9SM OVC015 M05/M07 A2989 RMK SLP142=

0000011900
187
SACN62 CYOW 102100
METAR CYOW 102100Z 06005KT 10SM BKN007 OVC015 M06/M08 A3022 RMK
 SC7SC1 SLP242=

0000052900
188
SAYG31 LYBM 102100
METAR LYBE 102100Z 15004KT 8000 NSC 06/05 Q1023 NOSIG=
METAR LYBT 102100Z 16002KT 2000 BR NSC 05/05 Q1023 TEMPO 1000=
METAR LYKV 102100Z VRB01KT 9999 SCT040 05/01 Q1023 NOSIG=
METAR LYNI 102100Z 07003KT 050V120 CAVOK 05/02 Q1023 NOSIG=
METAR LYPG 102100Z 35005KT 6000 FEW100 06/06 Q1022 BECMG 3000 BR=
METAR LYPR 102100Z NIL=
METAR LYTV 102100Z VRB02KT CAVOK 07/06 Q1022=
METAR LYUZ 102100Z VRB02KT 8000 BKN020 04/03 Q1021=
METAR LYVR 102100Z 18002KT CAVOK 06/01 Q1023 NOSIG=

0000088900
189
FTUS31 KWBC 102103 AAA
TAF AMD
KPHL 102101Z 1021/1124 10003KT 2SM BR BKN004 BKN015
      TEMPO 1021/1024 1SM BR
     FM110200 14005KT 1SM BR BKN005 OVC015
     FM110600 16005KT 2SM -RA BR BKN004 OVC010 WS020/20050KT
     FM111500 19013KT 1SM RA BR BKN003 OVC010 WS020/21050KT=
KSEA 102101Z 1021/1124 19012KT P6SM BKN014 BKN020 OVC100
     FM102300 17012KT 3SM RA BR OVC012
      TEMPO 1100/1104 2SM +RA BR OVC012
     FM110600 19018G30KT 5SM -RA BR OVC015
     FM110800 20025G40KT 5SM -RA BR OVC015
     FM111400 20018G32KT P6SM -RA OVC025
     FM111900 20024G38KT P6SM -SHRA BKN035 BKN060=
KSFO 102102Z 1021/1124 33005KT P6SM FEW006 SCT200
     FM110300 29006KT P6SM FEW012 BKN250
      TEMPO 1103/1105 BKN012
     FM110500 27004KT P6SM OVC010
     FM111700 23012KT P6SM BKN100
     FM111900 26008KT P6SM OVC060 PROB30 1119/1124 -RA=

0000032300
190
FTUS41 KWBC 102103 AAA
TAF AMD
KILG 102102Z 1021/1118 09003KT 1 1/2SM BR BKN004 BKN015
      TEMPO 1021/1024 3SM BR BKN008 BKN015
     FM110200 14005KT 1SM BR BKN005 OVC015
     FM110600 16005KT 2SM -RA BR BKN004 OVC010 WS020/20050KT
     FM111500 19013KT 1SM RA BR BKN003 OVC010 WS020/21050KT=

0000022700
191
FTUS44 KWBC 102103 AAA
TAF AMD
KMSO 102100Z 1021/1118 03003KT P6SM VCSH BKN050 OVC090
     FM102300 29012KT P6SM VCSH BKN050 OVC090
     FM110100 VRB05KT P6SM OVC090
     FM111000 12009KT P6SM BKN060=

0000013400
192
FTUS43 KWBC 102103 AAA
TAF AMD
KBTM 102101Z 1021/1118 30015G25KT P6SM BKN090
     FM110200 30005KT P6SM BKN090=

0000059900
193
FTUS71 KWBC 102103
TAF
TAF AMD KLCK 102059Z 1021/1118 17009KT P6SM SCT010 BKN035
      TEMPO 1100/1103 BKN015
     FM110300 17010KT 5SM BR VCSH OVC015
     FM110700 17012KT 4SM -RA BR OVC008
     FM111400 23014G23KT P6SM VCSH OVC012=
TAF KNKT 1021/1121 14010KT 9999 SCT030 BKN040 BKN100 QNH3015INS
      BECMG 1023/1101 14008KT 9999 VCSH BKN025 QNH3013INS
     FM110400 16008KT 8000 -SHRA BKN010 OVC025 QNH3008INS
     FM111100 17010KT 4800 -SHRA SCT004 BKN007 QNH2995INS
     FM111500 18015G25KT 3200 SHRA SCT007 BKN025 QNH2971INS
      T15/1105Z T22/1119Z=

0000120400
194
FTUS71 KWBC 102103 AAA
TAF AMD
KILG 102102Z 1021/1118 09003KT 1 1/2SM BR BKN004 BKN015
      TEMPO 1021/1024 3SM BR BKN008 BKN015
     FM110200 14005KT 1SM BR BKN005 OVC015
     FM110600 16005KT 2SM -RA BR BKN004 OVC010 WS020/20050KT
     FM111500 19013KT 1SM RA BR BKN003 OVC010 WS020/21050KT=
KMRB 102059Z 1021/1118 02005KT 2SM BR OVC009
     FM110200 VRB03KT 3SM -RA BR OVC008
     FM110500 14004KT 2SM -RA BR OVC008
     FM110800 16005KT 3SM BR OVC008 WS020/20035KT
     FM111300 17007KT 3SM BR OVC003 WS020/20040KT
     FM111500 17010KT 2SM -SHRA BR OVC003 WS020/20040KT
     FM111700 18011KT 1SM SHRA BR OVC003 WS020/20045KT=
KPHL 102101Z 1021/1124 10003KT 2SM BR BKN004 BKN015
      TEMPO 1021/1024 1SM BR
     FM110200 14005KT 1SM BR BKN005 OVC015
     FM110600 16005KT 2SM -RA BR BKN004 OVC010 WS020/20050KT
     FM111500 19013KT 1SM RA BR BKN003 OVC010 WS020/21050KT=
KTTN 102101Z 1021/1118 07003KT 1 1/2SM BR BKN004 BKN015
      TEMPO 1021/1024 3SM BR BKN008 BKN015
     FM110200 14005KT 1SM BR BKN005 OVC015
     FM110600 16005KT 2SM -RA BR BKN004 OVC010 WS020/20050KT
     FM111500 19013KT 1SM RA BR BKN003 OVC010 WS020/21050KT=

0000035300
195
SAIL31 BICC 102100
METAR BIAR 102100Z 15006KT 110V180 9999 -SN BKN030 OVC039 02/M02
    Q0996=
METAR BIEG 102100Z 10035G45KT 4000 -SNRA SCT012 OVC018 01/M00 Q0995
RMK
R04/790193 RWY SANDED=
METAR BIKF 102100Z 27015KT 9999 FEW029 SCT042 BKN049 02/M03 Q0991=
METAR BIRK 102100Z 27013KT 6000 -SNRA BKN007 OVC018 01/M01 Q0991=

0000017600
196
FTUS73 KWBC 102103 AAA
TAF AMD
KCOU 102101Z 1021/1118 18015KT P6SM OVC005
     FM110600 25011KT 5SM BR OVC010
     FM111500 26014KT P6SM SCT015 BKN250=

0000089600
197
FTUS74 KWBC 102103 AAA
TAF AMD
KBTM 102101Z 1021/1118 30015G25KT P6SM BKN090
     FM110200 30005KT P6SM BKN090=
KMSO 102100Z 1021/1118 03003KT P6SM VCSH BKN050 OVC090
     FM102300 29012KT P6SM VCSH BKN050 OVC090
     FM110100 VRB05KT P6SM OVC090
     FM111000 12009KT P6SM BKN060=
KSEA 102101Z 1021/1124 19012KT P6SM BKN014 BKN020 OVC100
     FM102300 17012KT 3SM RA BR OVC012
      TEMPO 1100/1104 2SM +RA BR OVC012
     FM110600 19018G30KT 5SM -RA BR OVC015
     FM110800 20025G40KT 5SM -RA BR OVC015
     FM111400 20018G32KT P6SM -RA OVC025
     FM111900 20024G38KT P6SM -SHRA BKN035 BKN060=
KSFO 102102Z 1021/1124 33005KT P6SM FEW006 SCT200
     FM110300 29006KT P6SM FEW012 BKN250
      TEMPO 1103/1105 BKN012
     FM110500 27004KT P6SM OVC010
     FM111700 23012KT P6SM BKN100
     FM111900 26008KT P6SM OVC060 PROB30 1119/1124 -RA=

0000045300
198
SAPL31 EPWA 102100
METAR EPGD 102100Z 28012KT 9999 -SHRA BKN009 SCT021CB
    04/03 Q1005 =
METAR EPKK 102100Z 24013KT 9999 BKN053 05/M01 Q1016 =
METAR EPLL 102100Z 26014G25KT 240V300 9999 BKN033 05/00
    Q1012 =
METAR EPPO 102100Z 26012KT 9999 FEW030 06/00 Q1012
    R10/19//95 =
METAR EPRZ 102100Z 27021KT CAVOK 06/M00 Q1014 =
METAR EPWA 102100Z 26021G32KT 230V290 9999 -SHRA FEW023CB SCT033
    06/02 Q1009 NOSIG=

00000000