0000027500
279
SNAU03 AMMC 110500
AAXX 11054
94461 NIL=
94477 NIL=
94651 NIL=
94653 46/// /1822 10228 20139 30172 40190=
94659 NIL=
94672 NIL=
94804 NIL=
94821 NIL=
95458 NIL=
95480 NIL=
95481 NIL=
95666 NIL=
95826 46/// /1909 10179 30211 40213=

0000151400
280
SNAU04 AMMC 110500
AAXX 11054
94170 11470 70303 10281 20254 30029 40050 58026 60061 71622 85998=
94255 15/// /1220 10362 20153 39803 40059 56025 60001=
94268 15/// /0706 10329 20232 30048 40060 58033 60001=
94287 11258 82111 10245 20224 30085 40094 58012 60011 78088 88800=
94290 NIL=
94294 NIL=
94296 NIL=
94298 46/// /1218 10276 30092 40098 57018=
94299 11565 71120 10289 20240 30065 40076 58023 60001 70522 8583/=
94332 159// 11115 10383 20104 39678 40053 58034 60001=
94333 NIL=
94341 15/// /1113 10372 20145 39831 40061 58034 60001=
94346 11782 60911 10351 20166 39878 40092 58027 60001 71622 86202=
94363 157// 80811 10304 20164 39905 40119 56025 60001=
94366 NIL=
94367 11565 71213 10258 20213 30079 40120 56018 60021 71582 878//=
94374 11682 30812 10289 20183 30113 40130 57021 60001 70211 82409=
94388 15/// /1114 10284 20198 30135 40140 56022 60001=
94393 46/// /1320 10267 30095 40107 58020=
94394 46/// /0916 10260 30119 40127 58018=
94488 11784 31603 10377 20168 39951 40094 57030 60001 71500 83300=
94500 11784 22304 10350 20163 39905 40118 57027 60001 70300 82200=
94510 157// 11309 10327 20149 39772 40110 56032 60001=
94515 179// 10305 10297 20150 39784 40124 58021 60031 7//44=
94552 159// 40913 10292 20126 39677 40135 56026 60001=
94578 11680 20908 10276 20155 30145 40156 56019 60001 70111 82200=
94584 15/// /1419 10258 20172 30040 40148 58015 60001=
95482 11682 21413 10415 20064 30037 40090 57027 60001 70300 82100=

0000045600
281
SNAU05 AMMC 110500
AAXX 11054
94691 NIL=
94693 46/// /2408 10384 20088 30078 40139=
94700 NIL=
94703 NIL=
94710 NIL=
94729 NIL=
94750 NIL=
94767 46/// /0516 10287 20153 30136 40142=
94776 NIL=
94791 NIL=
94842 NIL=
94865 NIL=
94875 NIL=
94893 NIL=
94907 NIL=
94910 46/// /2808 10344 20074 39895 40138=
94926 NIL=
94935 NIL=
94995 NIL=
95485 NIL=
95527 NIL=
95719 NIL=
95762 NIL=
95839 NIL=

0000020300
282
SNAU06 AMMC 110500
AAXX 11054
94850 NIL=
94951 46/// /0417 10199 20140 30111 40126=
94954 NIL=
94956 NIL=
94975 46/// /1512 10223 20095 30089 40121=
94983 NIL=
94998 NIL=

0000004100
283
SNNG21 AMMC 110500
NIL

0000004100
284
SNNG22 AMMC 110500
NIL

0000110900
285
SAAR20 OEJD 110500
METAR OBBI 110500Z 20007KT 9999 SCT020 16/14 Q1020  TEMPO 5000
SCT010=
METAR OKBK 110500Z 23005KT 1500 BR FEW040 BKN080 12/11 Q1019
     NOSIG=
METAR OMAA 110500Z 16005KT 130V240 CAVOK 17/10 Q1021 A3017 NOSIG=
METAR OMAD 110500Z 15004KT 120V190 CAVOK 18/10 Q1022 A3018 NOSIG=
METAR OMAL 110500Z 14009KT CAVOK 17/09 Q1022 A3020 NOSIG=
METAR OMDB 110500Z 10009KT 070V140 CAVOK 19/10 Q1022 NOSIG=
METAR OMFJ 110500Z 29004KT 9999 SCT020 BKN100 17/11 Q1023 A3020=
METAR OMRK 110500Z 11009KT CAVOK 19/10 Q1022 A3020=
METAR OMSJ 110500Z 11006KT 9999 FEW040 18/11 Q1022=
METAR OOBR 110500Z NIL=
METAR OOKB 110500Z NIL=
METAR OOMS 110450Z 00000KT 8000 FEW020 BKN200 18/10 Q1023 NOSIG=
METAR OOSA 110450Z 02004KT 340V070 9999 FEW025 SCT090
23/16 Q1019 NOSIG  RH62 RMK01=
METAR OOSH 110500Z NIL=
METAR OOSQ 110500Z NIL=
METAR OOSR 110500Z NIL=
METAR OOTH 110500Z NIL=
METAR OOYB 110500Z NIL=
METAR OTBD 110500Z 11006KT 090V160 9999 -RA FEW020 SCT100 OVC120
18/15 Q1021 NOSIG=
METAR OYAA 110500Z 13014KT 8000 VCRA SCT018 BKN025 26/19 Q1017=
0000009200
286
SAAR20 OEJD 110500 RRA
METAR OYSN 110500Z 20003KT 160V230 CAVOK 13/09 Q1027=
0000038700
287
SAME31 OEJD 110500
METAR OJAI 110500Z 27006KT 2500 BR SCT200 08/07 Q1022 NOSIG=
METAR OJAM 110500Z VRB02KT 0900 DZ FG BKN012 BKN030 06/05 Q1022
NOSIG=
METAR OJAQ 110500Z NIL=
METAR OLBA 110500Z 11005KT 8000 FEW026 11/06 Q1024 NOSIG=
METAR OSAP 110500Z NIL=
METAR OSDI 110500Z 00000KT 0100 FG FEW030 00/00 Q1023=
METAR OSLK 110500Z 06004KT CAVOK 04/01 Q1022=
0000005200
288
RRIN23 VIDP 110513
RQRPT 760-821=

0000021900
289
SNVE21 AMMC 110500
BBXX
VNSZ 11054 99412 31464 46/// /3019 10257 20076 30099 40124 57008
22200 04194 85153=
C6FS9 11054 99238 31512 46/// /1021 10263 20191 30109 40145 57026
22200 04282 85213=

0000004100
290
SNPS02 AMMC 110500
NIL

0000033900
291
SNAU44 AMMC 110500
AAXX 11054
94658 46/// /2017 10240 20138 30168 40202=
94666 46/// /2120=
94678 46/// /1712 10264 20074 39580 40177=
94681 46/// /1308 10325 20089 39852 40169=
94682 46/// /2311 10345 20044 30125 40160=
94684 46/// /2305 10378 20057 39797 40137=
94690 46/// /2113 10334 20023 30040 40168=

0000048300
292
SNAU45 AMMC 110500
AAXX 11054
94807 46/// /1616 10205 20125=
94808 46/// /1313 10270 20059=
94809 46/// /1718 10216 20138 30191 40199=
94811 46/// /1619 10173 20126 39803 40200=
94813 46/// /1920 10202 20132 30188 40209=
94822 46/// /1716 10183 20138 30149 40215=
95675 46/// /2121=
95678 46/// /1108 10235 20095=
95806 46/// /1710 10238 20142 30152 40204=
95815 46/// /2314 10310 20087 30145 40177=
95816 46/// /1916 10203 20142 30207 40211=

0000035700
293
SNAU47 AMMC 110500
AAXX 11054
94116 46/// /2506 10310 20231 30054 40059=
94119 46/// /2108 10325 20240 30038 40060=
94125 46/// /1104 10335 20213 39941 40058=
94139 46/// /0904 10288 20241 30034 40056=
94234 46/// /0107 10283 20234 39824 40058=
94284 45/// /1215 30078 40088 56018=
94328 46/// /1708 10385 20063 39451 40068=

0000009300
294
SNAU48 AMMC 110500
AAXX 11054
95121 46/// /1106 10326 20224 30043 40060=

0000196800
295
SNAU49 AMMC 110500
AAXX 11054
94171 17/// /0000 10291 20249 30006 40051 58028 60011 7//44=
94174 15/// /2905 10297 20243 30048 40054 56025 60001=
94182 15/// /3006 10312 30047 40051 58024 60001=
94183 11570 80806 10277 20224 39888 40068 56026 60071 75065 8352/=
94188 17/// /1616 10252 20240 30063 40085 56021 60151 7//44=
94257 11482 60506 10322 20248 30062 40067 56028 60001 70122 82370=
94260 15/// /0608 10344 20228 30060 40067 56030 60001=
94261 15/// /1109 10388 20164 39912 40054 56033 60001=
94266 15/// /0109 10335 20216 30042 40063 56033 60001=
94269 11584 70501 10326 20214 39934 40066 57029 60001 71511 872//=
94274 41781 71508 10263 20219 39735 40070 6///1 76122 87300=
94276 17/// /1806 10256 20247 39841 40069 56017 69921 7//44=
94285 11458 81516 10283 20237 30083 40087 56019 60021 71582 85320=
94291 11260 73615 10305 20256 60031 71688 86230=
94292 11470 80000 10256 20247 30091 40100 57019 60101 71585 88200=
94295 15/// /1114 10250 20209 30087 40098 56018 60001=
94334 11765 51304 10405 20227 39971 40074 57032 60004 70211 85200=
94335 15/// /1015 10394 20144 39848 40055 58035 60001=
94336 15/// /1517 10383 39745 40064 56030 60001=
94337 15/// /1011 10393 20137 39922 40059 58035 60001=
94338 15/// /1313 10402 20129 39770 40065 57034 60001=
94340 11882 60513 10375 20165 39824 40061 57034 60001 71622 86200=
94342 15/// /0812 10370 20155 39859 40073 58032 60001=
94343 15/// /1114 10354 20157 39724 40074 58026 60001=
94345 11784 63102 10335 20185 60001 70211 86200=
94355 11/84 71101 10301 20202 39666 40106 57028 60001 70322=
94356 11/75 /0201 10290 20201 39772 40095 57022 6///0=
94360 11684 61305 10309 20190 60001 70222 86500=
94365 11570 61314 10288 20218 30092 40115 58018 69941 70162 8427/=
94372 15/// /1318 10269 20207 39892 40128 58018 60001=
94396 15/// /1311 10323 20140 39871 40118 56028 60001=
94399 15/// /0709 10311 20147 39812 40111 56027 60001=

0000139200
296
SNAU50 AMMC 110500
AAXX 11054
94368 15/// /1219 10286 20223 30046 40113 58019 60001=
94370 175// 81111 10270 20208 30097 40133 58017 69981 7//44=
94373 17/// /1013 10280 20204 30131 40138 58019 69921 7//44=
94376 11882 71108 10306 20138 39901 40120 56027 60001 70322 8400/=
94378 45/// /1119 10262 30110 40133 58023=
94380 15/// /0920 10288 20180 30045 40130 58023 60001=
94381 15/// /0918 10290 20163 30116 40135 58023 60001=
94386 45/// /1313 6///0=
94387 15/// /1015 10298 20155 30104 40140 56020 60001=
94511 11584 80706 10314 20175 39681 40117 57038 60001 70222 86834=
94517 17/// /0106 10308 20131 39904 40128 56031 60151 7//44=
94521 11/84 62502 10298 20170 60071 70362=
94525 11/84 73602 10324 20141 39895 40120 57032 60001 70322=
94530 11784 32502 10334 20149 39883 40129 57035 60001 70100 83200=
94542 15/// /1010 10301 20111 39740 40126 56027 60001=
94549 15/// /1110 10295 20137 39648 40136 56024 60001=
94553 17/// /0701 10204 20187 39182 40144 56015 60041 74144=
94555 15/// /1105 10284 20135 39595 40128 58024 60001=
94557 15/// ///// 10244 20145 60001=
94558 15/// ///09 10281 20161 60001=
94562 17/// /0909 10312 20156 69921 7//44=
94564 11682 31106 10268 20182 30134 40151 58016 60001 70111 82850=
94566 15/// /0907 10287 20169 30071 40145 58018 60001=
94567 15/// /1214 10297 20172 30131 40143 56019 60001=

0000165600
297
SNAU51 AMMC 110500
AAXX 11054
94568 158// 80508 10284 20147 30116 40144 56024 60001=
94569 15/// /1212 10277 20172 30153 40158 57016 60001=
94570 15/// /1209 10267 20180 30148 40156 56015 60001=
94575 157// 40709 10289 20158 30134 40149 56021 60001=
94576 15/// /0906 10288 20157 30142 40152 57020 60001=
94580 15/// /1114 10274 20192 30154 40159 56020 60001=
94581 45/// /0911=
94592 15/// /1010 10266 20171 30157 40162 56019 60001=
94594 46/// /1217 10254 20178 30040 40155 57018 6///0=
95283 17458 80803 10243 20239 30082 40088 58019 60561 7//44=
95286 15/// /1407 10261 20197 39560 40083 56017 60001=
95292 17/// /1407 10255 20240 30075 40096 56018 60011 7//44=
95293 17/// /0304 10251 20222 39481 40095 58024 60141 7//44=
95295 15/// /0714 10300 20191 60001=
95296 15/// /0716 10291 20211 30092 40101 58021 60001=
95351 15/// /0406 10331 20156 39785 40098 57030 60001=
95362 11584 70902 10306 20168 60001 71622 86530=
95367 155// 81120 10275 20213 30119 40125 56018 60001=
95492 15/// /1310 10352 20128 39969 40116 56023 60001=
95529 15/// /1405 10306 20120 39788 40132 56029 60001=
95533 11983 70000 10325 20138 60001 70311 87200=
95543 15/// /0708 10316 20138 30000 40127 56024 60001=
95551 136// 80712 10257 20132 39434 40149 56022 60001=
95565 15/// /1213 10290 20175 30130 40145 57020 60001=
95566 15/// /0905 10287 20159 60001=
95572 15/// /0906 10268 20164 30093 40155 56019 60001=
95573 17/// /1305 69921 7//44=
95575 15/// /0809 10289 20165 30092 40148 56023 60001=
95581 11/70 11106 10280 20149 60001 70100=
95591 15/// /0914 10269 20162 30140 40155 56020 60001=

0000012600
298
SNAU54 AMMC 110500
AAXX 11054
94752 46/// /0803 10337 20127 30033 40127=
94754 46/// /0404 10273 20067=

00000000