0000021400
119
WSPR31 SPIM 110453
SPIM SIGMET A3 VALID 110500/110700 SPIM-
SPIM LIMA FIR EMBD TS OBS AT 0415Z WI S0555 W07427 -
S0627 W07349 - S0620 W07304 - S0549 W07311 - S0513 W07404
TOP FL430 MOV SE WKN=
0000021600
120
WSPR31 SPIM 110454
SPIM SIGMET B3 VALID 110500/110800 SPIM-
SPIM LIMA FIR EMBD TS OBS AT 0415Z WI S0843 W07632 -
S0952 W07547 - S0952 W07424 - S0836 W07456 - S0752 W07549
TOP FL480 MOV SE INTSF=
0000012400
121
WSPR31 SPIM 110458
SPIM SIGMET 4 VALID 110458/110500 SPIM-
SPIM LIMA FIR CNL SIGMET 3 VALID 110230/110500=
0000014500
122
WSAG31 SABE 110500
SAEF SIGMET 3 VALID 110500/110830 SABE-
SAEF EZEIZA FIR FRQ TSGR OBS AT 0440Z N OF S3100 TOP FL380 STNR NC =
0000015700
123
SSVX13 LFPW 110500
ZZYY 44740 11014 0500/ 730714 030632 6113/ 11119 40144 57013 22219
 00203 444 20130 11014 0500/ 50101 80118 80024 9/015=
0000015700
124
SSVX13 LFPW 110500
ZZYY 41970 11014 0500/ 730907 058811 6113/ 11119 40296 57007 22219
 00216 444 20130 11014 0500/ 50101 80118 80055 9/015=
0000016300
125
SSVX13 LFPW 110500
ZZYY 13592 11014 0500/ 728872 053563 6113/ 22219 00236 33300 88872
 20000 43654 444 20130 11014 0500/ 50101 80112 80010 9/015=
0000015700
126
SSVX13 LFPW 110500
ZZYY 41972 11014 0500/ 734529 040365 6113/ 11119 40222 52006 22219
 00196 444 20130 11014 0500/ 50101 80120 80094 9/015=
0000011800
127
SNVF25 LFPW 110500
BBXX
BATFR31 11054 99432 10053 46/// /1117 10134 20095 40198 57009
22274 00147=
0000011200
128
SNVF25 LFPW 110500
BBXX
BATFR66 11054 99428 10095 46/// /1819 10137 20082 40194 58003
22245=
0000011800
129
SNVF25 LFPW 110500
BBXX
BATFR16 11054 99441 70163 46/// /1426 10110 20074 40128 58008
22214 00137=
0000011800
130
SNVF25 LFPW 110500
BBXX
BATFR33 11054 99427 10095 46/// /2404 10135 20077 40208 53005
22252 00150=
0000015700
131
SSVX13 LFPW 110500
ZZYY 44773 11014 0500/ 742186 029062 6113/ 11119 40007 52018 22219
 00146 444 20130 11014 0500/ 50101 80118 80005 9/015=
0000008900
132
SPIN90 VOTP 110500
SPECI VOTP 110500Z 00000KT 3000 HZ FEW015 24/18 Q1016=
0000041800
133
SAIN33 VECC 110450
METAR VECC 110450Z 09005KT 2000 HZ NSC 21/14 Q1017 NOSIG=
METAR VEPT 110450Z 12008KT 0500 FG BKN015 OVC100 15/14
    Q1018 NOSIG=
METAR VGEG 110450Z 09004KT 3500 HZ NSC 21/12 Q1016 NOSIG=
METAR VGHS 110450Z 08004KT 2000 HZ NSC 18/13 Q1016 BECMG S/VIS 2500M=
METAR VNKT 110450Z 10003KT 2500 HZ FEW015 SCT100 12/03 Q1021 BECMG
    FM0520Z 3000 HZ=
METAR VQPR 110450Z NIL=
0000008900
134
SAIN90 VOMD 110500
METAR VOMD 110500Z 04008KT 4000 HZ FEW020 27/19 Q1016=
0000015700
135
SSVX13 LFPW 110500
ZZYY 62684 11014 0500/ 174686 004637 6113/ 11119 40151 57001 22219
 00010 444 20130 11014 0500/ 50101 80076 80003 9/015=
0000011100
136
UANT01 CWAO 110458
ARP DAL400 4546N04117W 0458 F370 MS51 302/49 KT
N808NW DDL XXW 110458 J50A
0000011000
137
UANT01 CWAO 110458
ARP ACA864 5119N03403W 0458 F370 MS55 217/43 KT
CGHLM DDL XXW 110458 J13A
0000011000
138
UANT01 CWAO 110459
ARP AFR639 4958N03003W 0458 F340 MS56 199/58 KT
FGZND QXT AOE 110459 F25A
00000000