0000063800
486
KSMI03 SBBR 111800
CREX++
T000113 A000 D07086++
 83 695 ITAPERUNA            1 2014 01 11 18 00 -2120000 -04188000 ///// ///// 10007 10141 -0020 07 //// ///// ///// ///// 3400 2110 /// ///// 2000 ///// ///// ///// 025 07 02 0125 32 20 10 0000 0000 // // ///// //// ////// / /// /// ////// /// /// /////// // /// // /// /// ////////// /// /// 508 -0006 10 10  -0024 //// -0001 //// /////  -0001 00000 //// ///// ///// -0012 0000 //// -0012 0000 //// ///// 03 02 -0010 180 0021 //  -0010 /// //// //// /// //// ///// -0024 // ////  -0001 //// //// ///// ///// ///// ///// -0024 //// //// ///// ///// ///// /////++
7777
0000062300
487
KSMI03 SBBR 111800
CREX++
T000113 A000 D07080++
 83 695 ITAPERUNA            1 2014 01 11 18 00 -2120000 -04188000 ///// ///// 10007 10141 -0020 07 //// ///// ///// ///// 3400 2110 /// ///// 2000 ///// ///// ///// 025 07 02 0125 32 20 10 0000 0000  07 /// 08 /// 09 /// // ///// ///// // ///// ///// // ///// //// 508 -0006 10 10  -0024 //// -0001 //// /////  -0001 00000 //// ///// ///// -0012 0000 //// -0012 0000 //// ///// 03 02 -0010 180 0021 //  -0010 /// //// //// /// //// ///// -0024 // ////  -0001 //// //// ///// ///// ///// ///// -0024 //// //// ///// ///// ///// ///// //// 0000 //++
7777
0000123200
488
SMUS04 KWBC 111800 RRE
AAXX 11184
72520 12466 82111 10117 20100 39543 49967 56053 60121 91751 333
10122 20056 91020 555 91118=
72525 12266 81909 10100 20089 39523 49945 56033 60081 8/5// 91751
333 10106 20028 555 91118=
72532 32462 82813 10022 21017 39785 40032 50004 91754 333 10039
20006 91021 555 91118=
72606 11108 90000 10006 20006 30046 40065 58070 60041 741// 91751
333 10006 21027 555 91118=
72666 35966 03008 10006 21050 38675 40046 58021 91753 333 10039
21050 555 91118=
72712 17256 81708 11006 21011 39821 40060 56065 60091 710// 91754
333 11006 21106 555 91118=
74740 35964 01106 10178 21022 39600 40195 50006 91751 333 10178
20022 555 91118=
72202 32566 61413 10278 20211 30169 40180 58023 91753 333 10283
20239 91023 555 91118=
72206 32566 62120 10256 20189 30110 40118 58046 91756 333 10267
20189 91027 555 91118=
72219 12466 82408 10150 20133 39716 40086 56018 60381 91752 333
10183 20083 555 91118=
72268 32966 01706 10144 21078 38935 40180 50005 91751 333 10144
21006 555 91118=
72271 35966 00000 10111 21083 38587 40210 50010 91753 333 10111
20022 555 91118=
72324 12566 62509 10161 20089 39822 40067 58012 60051 91753 333
10161 20072 555 91118=
0000289400
489
SMUS03 KWBC 111800 RRA
AAXX 11184
72401 11461 81814 10183 20172 39971 40033 58065 60081 761// 91754
333 10183 20033 91022 555 91118=
72403 11104 82104 10056 20056 39913 40024 56063 60091 761// 91752
333 10067 20011 96041 555 91118=
72407 11259 81816 10139 20133 39998 40040 58066 60021 761// 91754
333 10161 20044 91026 96010 555 91118=
72408 11232 81810 10150 20133 39998 40020 58073 60061 763// 91754
333 10150 20017 96010 555 91118=
72411 11456 80000 10100 20094 39619 40045 56031 60121 763// 91754
333 10100 20022 96010 555 91118=
72412 15666 82012 10189 20083 39134 49985 58044 60111 91751 333
10206 20072 91019 555 91118=
72414 12366 82508 10128 20111 39634 49993 58021 60161 91754 333
10161 20094 555 91118=
72417 17566 81704 10117 20094 39316 40016 58013 60091 761// 91751
333 10156 20078 555 91118=
72421 12466 82621 10072 20039 39691 40005 53004 69931 91752 333
10117 20072 91029 555 91118=
72422 12666 62521 10106 20028 39668 40019 58007 69981 91754 333
10133 20100 91030 555 91118=
72428 12466 82211 10117 20083 39676 49966 58015 60011 91751 333
10117 20050 555 91118=
72432 32566 82713 10056 20011 39928 40068 50013 91754 333 10106
20056 555 91118=
72434 12464 22612 10067 20011 39865 40070 50008 69901 91751 333
10083 20028 555 91118=
72435 32566 82710 10078 20028 39940 40081 50007 91753 333 10111
20039 555 91118=
72438 12366 82518 10011 20000 39732 40020 51014 69901 91754 333
10056 20011 4/005 91024 555 91118=
72440 32966 02509 10078 20017 39647 40107 58007 91752 333 10078
20017 555 91118=
72445 32966 82313 10050 20011 39754 40079 50000 91754 333 10050
20017 555 91118=
72446 32666 23112 10061 21011 39717 40097 50014 91753 333 10061
21017 555 91118=
72450 32966 03217 10100 21011 39664 40149 50019 91753 333 10100
21017 91021 555 91118=
72451 35966 03015 10100 21061 39254 40175 50014 91752 333 10106
21017 555 91118=
72456 32966 02810 10067 20000 39791 40114 50013 91753 333 10067
20000 91017 555 91118=
72458 35966 03015 10072 21011 39596 40130 50016 91755 333 10072
21017 91020 555 91118=
72462 35966 00000 11022 21117 37750 40303 50007 91752 333 11022
21200 555 91118=
72465 35966 02708 10078 21056 38882 40164 50006 91753 333 10078
21033 555 91118=
72475 35966 01917 10039 21022 3//// 40220 58003 91752 333 10039
21039 555 91118=
72476 32966 00704 11022 21061 38599 40273 58001 91753 333 11017
21111 555 91118=
72480 35966 03604 10089 21044 38792 40206 58008 91756 333 10089
21039 555 91118=
72486 35966 02113 10033 21022 38113 40215 58005 91753 333 10033
21039 555 91118=
72488 32766 62616 10117 20011 38665 40170 50001 91755 333 10122
21011 91026 555 91118=
72492 31958 01505 10106 20067 30224 40236 50010 705// 91755 333
10106 20056 555 91118=
72494 32366 61210 10111 20083 30198 40230 58005 91756 333 10111
20078 555 91118=
0000305800
490
SMUS04 KWBC 111800 RRA
AAXX 11184
72503 11104 81816 10111 20100 30017 40029 56053 60021 751// 91751
333 10128 20000 91025 96041 555 91118=
72508 11332 81814 10133 20122 39962 40035 56059 60091 761// 91751
333 10133 21027 91024 96010 555 91118=
72509 12461 82022 10133 20117 30053 40061 58048 69951 91754 333
10139 21005 91031 555 91118=
72514 11461 82413 10083 20067 39803 49998 56053 60041 761// 91754
333 10100 20000 91018 555 91118=
72515 11240 81811 10111 20111 39399 49975 56042 60081 763// 91753
333 10111 21005 96010 555 91118=
72518 11132 81611 10094 20083 39891 4999 58056 60051 761// 91751
333 10100 20000 91019 96010 555 91118=
72519 11659 81805 10100 20094 39819 49968 58040 60021 751// 91754
333 10128 20011 96010 555 91118=
72520 12466 82111 10117 20100 39543 49967 56053 60121 91751 333
10122 20056 91020 555 91118=
72524 11340 82513 10100 20083 39666 49943 56038 60021 761// 91751
333 10106 20039 91020 96010 555 91118=
72526 12566 81814 10111 20089 39662 49924 58047 60041 91751 333
10117 20039 555 91118=
72528 11566 81911 10100 20078 39655 49922 58062 60091 761// 91754
333 10100 20022 4/003 555 91118=
72530 32466 82713 10011 21028 39748 49987 50001 91751 333 10044
20011 4/003 91023 555 91118=
72532 32462 82813 10022 21017 39785 40032 50004 91754 333 10039
20006 91021 555 91118=
72533 12261 82618 10017 20006 39685 49981 50006 60021 91754 333
10044 20017 4/005 91027 555 91118=
72537 12362 82315 10050 20044 39700 49932 58026 60021 91753 333
10056 20017 555 91118=
72546 32466 23214 10011 21039 39713 40067 51016 91754 333 10011
21044 4/003 555 91118=
72547 32361 42818 11011 21033 39621 40013 50003 91753 333 10006
21011 555 91118=
72552 32966 03218 10078 21033 39456 40124 50013 91753 333 10078
21011 555 91118=
72556 35966 03215 10056 21033 39534 40096 50011 91756 333 10056
21022 555 91118=
72557 32466 23214 10006 21044 39686 40098 50027 91752 333 10006
21039 555 91118=
72562 35966 02507 10067 21028 39142 40142 50003 91753 333 10067
21022 555 91118=
72564 32966 02828 10083 21050 38069 40107 58004 91753 333 10083
21006 91043 555 91118=
72565 32866 42210 10100 21044 38305 40122 50005 91753 333 10100
21017 555 91118=
72567 35966 02814 10067 21033 39186 40109 50001 91752 333 10072
21028 555 91118=
72569 32966 02326 10039 21017 38307 40121 58001 91753 333 10039
21050 91035 555 91118=
72570 35966 00905 11006 21056 38134 40241 50001 91753 333 10011
21094 555 91118=
72572 32766 61310 10056 21022 38730 40185 58013 91753 333 10067
20022 555 91118=
72578 11666 61824 10078 21022 38602 40130 56021 69901 761// 91753
333 10078 20017 91038 555 91118=
72583 35866 21713 10089 20006 38678 40154 55003 91756 333 10094
20028 555 91118=
72591 17862 81914 10111 20067 30078 40203 51003 69931 761// 91754
333 10111 20044 91021 555 91118=
72594 15461 82007 10111 20094 30191 40219 53013 60111 91753 333
10117 20094 555 91118=
72597 12466 41804 10100 20033 39688 40157 53027 60061 91753 555
91118=
0000104100
491
SMVA01 KWBC 111800 RRB
BBXX
9V2004 11184 99038 30586 41698 73012 10250 20175 40133 51011 70380
 86362 22244 04270 20301 30405 40802 50702 80200=
DFNB2 11184 99133 10494 41398 70410 10250 20175 40180 52010 70322
 8677/ 22264 00240 2//// 80200=
PFBE 11183 99279 70254 41/98 /2505 10208 20130 40179 55027 70200
 8/12/ 22253 04215 29901 399// 4//02 80160 42917=
9V2003 11183 99239 10589 41598 20910 10190 20114 40211 50002 70000
 81109 22233 00240 20201 80145=
WTEC 11184 99329 50249 41498 13407 10270 20233 40249 58002 70200
 81100 22200 02242 20101 323// 41205 5//// 6//// 80243 ICE /////=
LGWS 11181 99229 30145 43/// /2304 10180 20146 40132 5//// 222/0
 04160 1//// 3//// 4//// 5////=
A8IQ2 11183 99195 30117 41597 71611 10207 20172 40154 52011 70322
 874// 22243 20503 316// 40704 80184=
PBOF 11183 99097 70251 41698 30516 10240 40128 54000 70111 8/5//
 22253 00270 20501 42916=
A8OF6 11184 99350 30082 41599 12314 10195 20120 40210 52005 70200
 814// 22264 04190 20301 323// 40503 80150=
0000104900
492
SMVB01 KWBC 111800 RRB
BBXX
ZCAS2 11183 99138 11306 41598 60617 10270 20238 40107 57030 70122
 85478 22243 00284 20906 304// 41203 80248=
A8SU4 11184 99061 11072 41/97 /0420 10260 20239 40110 54000 76222
 8//// 22213 04240 20203 30400 40305 50000 80245=
C6AB8 11183 99137 10708 43697 499// 1//// 2//// 4//// 5//// 7////
 8//// 222125 0//// 2//// 3//// 4//// 5//// 6//// 8//// ICE /////=
SLKR 11184 99421 11448 43/98 02934 11028 40173 50007 22253 00039
 2//// 4////=
VRGW3 11184 99078 10745 41497 19901 10270 20206 40120 51009 71052
 81100 22225 04290 20101 30000 80225=
A8IP4 11184 99059 10869 41797 40904 10280 20253 40130 54000 70111
 82545 22264 20302 316// 40803 80260 46379 1016870/7 73153
 49770/78 3155949 /152=
UEMM 11181 99729 10736 41498 60208 11250 40170 52015 70221 82504
 22273 ICE55092=
DGHX 11183 99062 10939 41/97 /0722 10270 20239 40112 57008 70398
 8//// 22224 00290 2////=
DGWD2 11184 99225 11202 41997 00209 10186 20151 40216 57009 70400
 80000 22200 00230 20202 399// 40302=
0000026500
493
SMVC01 KWBC 111800 RRA
BBXX
DGOH2 11184 99041 50919 414// 11609 10252 20214 40120 57/// 70200
 81140 22274 00250 2//01 3//// 4//// 5//// 80225=
DDSD2 11184 99329 50716 41297 53309 10200 20148 40128 57002 70211
 8567/ 22244 00143 20601 80167=
0000367300
494
SMVD01 KWBC 111800 RRH
BBXX
41056 11181 99183 70655 46/// /0908 10262 40171 91750 333 91209
 555 11084 22091=
41056 11181 99183 70655 46/// /0908 10262 40172 91740 333 91210
 555 11087 22095=
YJVM9 11184 99260 70920 41297 32312 10230 20216 40150 52020 7//11
 830/8 22200 00219 20502 317// 40502 5//// 6//// 80220 ICE /////=
SHIP 11184 99430 71599 41196 82329 10120 20102 40181 51015 70322
 887// 91800 22224 00135 21008 323// 41008 80110=
VREO9 11184 99240 70568 41597 40718 10260 20182 40245 56025 70300
 82462 22214 06310 20403 308// 41205 80210=
44251 11181 99464 70534 46/// /2707 10002 40226 5//// 22200 00016
 10905 70023 333 91209=
46126 11181 99540 71666 46/// /2102 10036 49798 91754 22200 00049
 10301 70004 333 91205 555 11024 22026=
46126 11181 99540 71666 46/// /1904 10036 49798 91750 22200 00049
 10301 70004 333 91209 555 11042 22046=
46126 11181 99540 71666 46/// /1904 10036 49798 91748 22200 00049
 10301 70004 333 91209 555 11042 22046=
41053 11181 99185 70661 46/// /0808 10265 40173 91750 333 91210
 555 11089 22097=
41053 11181 99185 70661 46/// /0908 10266 40173 91740 333 91210
 555 11088 22096=
PDHW 11183 99467 70568 41498 52519 10010 21016 40203 54000 70122
 8514/ 22274 20503 323// 40704 80000=
2AKI2 11184 99172 70684 41298 30920 10270 20202 40171 57020 70100
 83200 22233 00275 20804 30000 80225=
41053 11181 99185 70661 46/// /0808 10265 40171 56027 91800 22200
 00267 11003 70017 333 91209 555 11085 22092=
44150 11181 99425 70640 46/// /1909 1//// 40194 57052 22200 00041
 10604 70018 333 91211=
SMGW 11181 99462 71252 43/96 52318 10086 49966 58001 22284 00097
 20707 41208=
9V8797 11184 99372 70504 43/98 62810 10120 40315 55016 22223 00184
 2//// 4////=
44139 11181 99442 70571 46/// /2005 10024 40259 57019 22200 00016
 10703 70014 333 91206=
42085 11181 99179 70665 46/// /0907 10259 40169 91750 333 91209
 555 11080 22087=
42085 11181 99179 70665 46/// /0907 10259 40170 91740 333 91209
 555 11083 22090=
41056 11181 99183 70655 46/// /0908 10262 40170 57026 91800 22200
 00266 10603 70015 333 91210 555 11089 22097=
42085 11181 99179 70665 46/// /1007 10259 40167 58024 91800 22200
 00266 10703 70014 333 91209 555 11083 22090=
41051 11181 99183 70650 46/// /1009 10264 91750 333 91210 555
 11099 22108=
41051 11181 99183 70650 46/// /1009 10264 91740 333 91211 555
 11097 22106=
J8AZ2 11183 99201 70677 414// 80924 10240 20211 40200 56015 7//21
 87247 22233 00280 20305 30909 40305 50305 6//// 80220 ICE /////=
J8NX 11183 99256 70765 41597 41219 10270 20243 40195 57010 7//11
 83431 22222 0//// 20403 31209 40504 50605 6//// 80250 ICE /////=
WHED 11184 99365 70745 41697 61934 10167 20129 40100 5//// 78022
 82/43 22243 0//// 2//// 317// 40909 5//// 6//// 80144 ICE /////=
WDD4207 11184 99241 70831 43998 01706 10256 2023/ 40175 57015
 70200 80/// 22233 00272 20201 309// 40501 5//// 6//// 80239 ICE
 /////=
J8PD 11184 99178 70648 437// 30919 10300 20246 40180 5//// 7////
 83488 22243 00290 20204 30909 40204 50204 6//// 80260 ICE /////=
41300 11184 99159 70575 46/// /0715 10257 20208 40152 57022 22200
 00261 10805 70027=
A8YN2 11184 99547 71761 41/98 /0223 10025 20001 49685 56005 70222
 8//// 22264 00036 20504 80015=
41051 11181 99183 70650 46/// /1009 10264 91800 22200 10402 70012
 333 91211 555 11102 22110=
WPAJ 11184 99570 71466 41/98 62315 10022 21079 49910 57005 70311
 8561/ 22233 0//// 2//// 3//// 4//// 5//// 6//// 81011 ICE /////=
WNRD 11184 99225 71554 41597 71430 10220 20220 40071 57004 78122
 8778/ 22215 00240 21006 31014 41208 5//// 6//// 80220 ICE /////=
0000262000
495
SMVD01 KWBC 111800 RRI
BBXX
WDC3786 11184 99264 71371 41498 70713 10195 20147 40256 52006
 7//11 8/47/ 22254 00228 20402 331// 40805 5//// 6//// 80165 ICE
 /////=
WJBJ 11183 99196 70694 41498 31119 10260 2022/ 40169 57021 70210
 8236/ 22263 00267 20504 309// 40405 5//// 6//// 80230 ICE /////=
DILE 11183 99485 70399 41596 82837 10065 20033 40075 54000 70277
 8/8// 22224 00090 20808 329// 40608 80050=
44059 11181 99368 70763 46/// /2107 10209 40048 91800 22200 00083
 333 91211 555 11077 22084=
46077 11181 99579 71543 46/// /0505 10019 49853 56029 91750 22200
 00043 11101 3//// 41101 70006 333 91207 555 11047 22048 31749
 40707 61749 053046 060039 063037 054040 055038 056037 80506
 91749=
44058 11181 99376 70763 46/// /1605 10084 40047 58054 91800 22200
 00046 10301 70004 333 91206 555 11060 22065=
46053 11181 99343 71199 46/// /2003 10129 40224 51017 91750 22200
 00148 11303 20401 328// 41302 70013 333 91204 555 11026 22026
 31726 42404 61749 200025 228023 239031 231027 228022 230022=
C6FR5 11183 99171 70626 41797 40625 10230 2//// 40170 54/// 7//22
 8448/ 22200 00270 20301 307// 40402 5//// 6//// 8//// ICE 0/0//=
WDC6644 11184 99486 71226 413// 71630 10083 20050 49960 5////
 7//// 8/8// 22200 04100 2//// 3//// 4//// 5//// 6//// 80067 ICE
 /////=
WECB 11184 99327 71172 43/// /1202 10164 20108 40225 5//// 7////
 8//// 222// 04149 2//// 3//// 4//// 5//// 6//// 8//// ICE /////=
WXJ63 11184 99611 71464 41/97 70000 11044 21067 49857 56/// 701//
 8//// 222// 00049 2//// 3//// 4//// 5//// 6//// 8//// ICE /////=
WSQ2674 11184 99327 71172 43/// /1402 10158 2//// 40218 5////
 7//// 8//// 222// 04151 2//// 3//// 4//// 5//// 6//// 8//// ICE
 /////=
44042 11181 99380 70763 46/// /1506 10087 40031 91800 22200 00042
 10201 70004 333 91207 555 11067 22073=
44062 11181 99386 70764 46/// /1809 10062 40027 58064 91800 22200
 00029 10201 70005 333 91210 555 11098 22107=
44063 11181 99390 70764 46/// /2007 10076 40008 91800 22200 00016
 10301 70004 333 91208 555 11075 22082=
44064 11181 99370 70760 46/// /2008 10205 40057 58052 91800 22200
 00080 10402 70008 333 91211 555 11091 22099=
42060 11181 99163 70632 46/// /0708 10262 40163 56028 91750 22200
 00268 10604 20603 310// 40902 70018 333 91210 555 11087 22092
 31650 40711 61749 072082 074088 070089 073089 068089 073091 80810
 91736=
41046 11181 99238 70683 46/// /1109 10257 20183 40214 58027 91750
 22200 00260 10806 20704 3//// 40803 70028 333 91210 555 11091
 22096 31705 41011 61749 106085 106084 101090 098088 102087 096092
 81010 91654=
0001304900
496
KSMI06 SBBR 111800
CREX++
T000113 A000 D07086++
 82 022 BOA VISTA            1 2014 01 11 18 00 0283333 -06070000 01400 00015 10016 10112 //// // 0018 ///// ///// 00150 3210 1500 /// ///// 2000 ///// ///// ///// 075 07 04 0125 31 20 11 0000 0000 // // ///// //// ////// / /// /// ////// /// /// /////// // /// // /// /// ////////// /// /// 508 -0006 10 10  -0024 //// -0001 //// /////  -0001 00000 //// ///// 00150 -0012 0000 //// -0012 0000 //// ///// 03 02 -0010 350 0031 //  -0010 /// //// //// /// //// ///// -0024 // ////  -0001 //// //// ///// ///// ///// ///// -0024 //// //// ///// ///// ///// /////+
 82 193 BELEM                1 2014 01 11 18 00 -0145000 -04846667 00100 00015 10076 10096 //// // 0003 ///// ///// 00150 2840 2360 /// ///// 2000 ///// ///// ///// 088 07 05 0080 32 23 10 0000 0000 // // ///// //// ////// / /// /// ////// /// /// /////// // /// // /// /// ////////// /// /// 508 -0006 10 10  -0024 //// -0001 //// /////  -0001 00000 //// ///// 00150 -0012 0000 //// -0012 0000 //// ///// 03 02 -0010 340 0031 //  -0010 /// //// //// /// //// ///// -0024 // ////  -0001 //// //// ///// ///// ///// ///// -0024 //// //// ///// ///// ///// /////+
 82 281 SAO LUIS             1 2014 01 11 18 00 -0253333 -04430000 00510 00015 10032 10094 //// // 0008 ///// ///// 00150 2870 2080 /// ///// 0900 ///// ///// ///// 062 07 04 0080 32 23 10 0000 0000 // // ///// //// ////// / /// /// ////// /// /// /////// // /// // /// /// ////////// /// /// 015 -0006 01 01  -0024 //// -0001 //// /////  -0001 00000 //// ///// 00150 -0012 0000 //// -0012 0000 //// ///// 03 02 -0010 030 0062 //  -0010 /// //// //// /// //// ///// -0024 // ////  -0001 //// //// ///// ///// ///// ///// -0024 //// //// ///// ///// ///// /////+
 82 332 MANAUS               1 2014 01 11 18 00 -0315000 -05998333 00840 00015 10024 10117 //// // 0032 ///// ///// 00150 2900 2200 /// ///// 2000 ///// ///// ///// 075 07 05 0045 32 23 14 0000 0000 // // ///// //// ////// / /// /// ////// /// /// /////// // /// // /// /// ////////// /// /// 508 -0006 10 10  -0024 //// -0001 //// /////  -0001 00000 //// ///// 00150 -0012 0000 //// -0012 0000 //// ///// 03 02 -0010 070 0021 //  -0010 /// //// //// /// //// ///// -0024 // ////  -0001 //// //// ///// ///// ///// ///// -0024 //// //// ///// ///// ///// /////+
 82 398 FORTALEZA (AEROPORTO 1 2014 01 11 18 00 -0378000 -03853000 ///// ///// 10070 10099 //// // 0005 ///// ///// ///// 2900 1920 /// ///// 2000 ///// ///// ///// 000 62 // 0000 // // // 0000 0000 // // ///// //// ////// / /// /// ////// /// /// /////// // /// // /// /// ////////// /// /// 508 -0006 10 10  -0024 //// -0001 //// /////  -0001 00000 //// ///// ///// -0012 0000 //// -0012 0000 //// ///// 03 02 -0010 070 0077 //  -0010 /// //// //// /// //// ///// -0024 // ////  -0001 //// //// ///// ///// ///// ///// -0024 //// //// ///// ///// ///// /////+
 82 400 FERNANDO DE NORONHA  1 2014 01 11 18 00 -0385000 -03241667 00560 00015 10057 10124 //// // 0010 ///// ///// 00150 2730 2030 /// ///// 2000 ///// ///// ///// 050 07 04 0080 31 20 10 0000 0000 // // ///// //// ////// / /// /// ////// /// /// /////// // /// // /// /// ////////// /// /// 508 -0006 10 10  -0024 //// -0001 //// /////  -0001 00000 //// ///// 00150 -0012 0000 //// -0012 0000 //// ///// 03 02 -0010 100 0062 //  -0010 /// //// //// /// //// ///// -0024 // ////  -0001 //// //// ///// ///// ///// ///// -0024 //// //// ///// ///// ///// /////+
 82 579 TERESINA (AEROPORTO) 1 2014 01 11 18 00 -0505000 -04281000 ///// ///// 10003 10079 //// // -0002 ///// ///// ///// 3320 2140 /// ///// 2000 ///// ///// ///// 075 07 02 0125 32 21 10 0000 0000 // // ///// //// ////// / /// /// ////// /// /// /////// // /// // /// /// ////////// /// /// 508 -0006 10 10  -0024 //// -0001 //// /////  -0001 00000 //// ///// ///// -0012 0000 //// -0012 0000 //// ///// 03 02 -0010 000 0000 //  -0010 /// //// //// /// //// ///// -0024 // ////  -0001 //// //// ///// ///// ///// ///// -0024 //// //// ///// ///// ///// /////+
 82 917 RIO BRANCO           1 2014 01 11 18 00 -1000000 -06780000 01430 00015 09883 ///// //// // 0013 ///// ///// 00150 //// //// /// ///// 2000 ///// ///// ///// 075 07 08 0080 32 61 60 0000 0000 // // ///// //// ////// / /// /// ////// /// /// /////// // /// // /// /// ////////// /// /// 015 -0006 02 02  -0024 //// -0001 //// /////  //// ///// //// ///// 00150 -0012 0000 //// -0012 0000 //// ///// 03 02 -0010 020 0021 //  -0010 /// //// //// /// //// ///// -0024 // ////  -0001 //// //// ///// ///// ///// ///// -0024 //// //// ///// ///// ///// /////+
 82 965 ALTA FLORESTA        1 2014 01 11 18 00 -0986667 -05610000 02880 00015 09782 10109 //// // 0021 ///// ///// 00150 3010 2350 /// ///// 2000 ///// ///// ///// 075 07 05 0080 32 20 11 0000 0000 // // ///// //// ////// / /// /// ////// /// /// /////// // /// // /// /// ////////// /// /// 003 -0006 06 02  -0024 //// -0001 //// /////  //// ///// -0006 00007 00150 -0012 0000 //// -0012 0000 //// ///// 03 02 -0010 090 0005 //  -0010 /// //// //// /// //// ///// -0024 // ////  -0001 //// //// ///// ///// ///// ///// -0024 //// //// ///// ///// ///// /////+
 82 993 MACEIO (AEROPORTO)   1 2014 01 11 18 00 -0951000 -03578000 ///// ///// 09995 10132 //// // 0015 ///// ///// ///// 2650 2190 /// ///// 2000 ///// ///// ///// 075 07 06 0080 31 20 10 0000 0000 // // ///// //// ////// / /// /// ////// /// /// /////// // /// // /// /// ////////// /// /// 508 -0006 10 10  -0024 //// -0001 //// /////  -0001 00000 //// ///// ///// -0012 0000 //// -0012 0000 //// ///// 03 02 -0010 130 0062 //  -0010 /// //// //// /// //// ///// -0024 // ////  -0001 //// //// ///// ///// ///// ///// -0024 //// //// ///// ///// ///// /////+
 83 208 VILHENA              1 2014 01 11 18 00 -1270000 -06010000 06120 00015 09432 ///// //// // 0031 08500 01530 00150 2880 2140 /// ///// 0500 ///// ///// ///// 088 07 08 0045 33 61 60 0000 0000 // // ///// //// ////// / /// /// ////// /// /// /////// // /// // /// /// ////////// /// /// 095 -0006 09 06  -0024 //// -0001 //// /////  //// ///// -0006 -00001 00150 -0012 0000 //// -0012 0000 //// ///// 03 02 -0010 020 0051 //  -0010 /// //// //// /// //// ///// -0024 // ////  -0001 //// //// ///// ///// ///// ///// -0024 //// //// ///// ///// ///// /////+
 83 349 ILHEUS (AEROPORTO)   1 2014 01 11 18 00 -1481000 -03903000 ///// ///// 10143 10149 //// // 0014 ///// ///// ///// 2910 2330 /// ///// 2000 ///// ///// ///// 075 07 03 0080 32 20 14 0000 0000 // // ///// //// ////// / /// /// ////// /// /// /////// // /// // /// /// ////////// /// /// 508 -0006 10 10  -0024 //// -0001 //// /////  -0001 00000 //// ///// ///// -0012 0000 //// -0012 0000 //// ///// 03 02 -0010 140 0041 //  -0010 /// //// //// /// //// ///// -0024 // ////  -0001 //// //// ///// ///// ///// ///// -0024 //// //// ///// ///// ///// /////+
 83 362 CUIABA               1 2014 01 11 18 00 -1565000 -05610000 01857 00015 09907 10124 //// // 0027 ///// ///// 00150 2370 1970 /// ///// 0900 ///// ///// ///// 062 63 05 0080 30 20 10 0000 0000 // // ///// //// ////// / /// /// ////// /// /// /////// // /// // /// /// ////////// /// /// 061 -0006 10 10  -0024 //// -0001 //// /////  //// ///// -0006 00001 00150 -0012 0000 //// -0012 0000 //// ///// 03 02 -0010 340 0005 //  -0010 /// //// //// /// //// ///// -0024 // ////  -0001 //// //// ///// ///// ///// ///// -0024 //// //// ///// ///// ///// /////+
 83 378 BRASILIA             1 2014 01 11 18 00 -1586667 -04791667 10600 00015 08954 ///// //// // 0016 08500 01520 00150 2990 1310 /// ///// 2000 ///// ///// ///// 062 07 06 0080 32 20 10 0000 0000 // // ///// //// ////// / /// /// ////// /// /// /////// // /// // /// /// ////////// /// /// 508 -0006 10 10  -0024 //// -0001 //// /////  -0001 00000 //// ///// 00150 -0012 0000 //// -0012 0000 //// ///// 03 02 -0010 110 0046 //  -0010 /// //// //// /// //// ///// -0024 // ////  -0001 //// //// ///// ///// ///// ///// -0024 //// //// ///// ///// ///// /////+
 83 460 //////////////////// 1 2014 01 11 18 00 /////// //////// ///// ///// 10096 10155 //// // 0021 ///// ///// ///// 2700 2230 /// ///// 2000 ///// ///// ///// 062 07 04 0045 32 20 12 0000 0000 // // ///// //// ////// / /// /// ////// /// /// /////// // /// // /// /// ////////// /// /// 508 -0006 10 10  -0024 //// -0001 //// /////  -0001 00000 //// ///// ///// -0012 0000 //// -0012 0000 //// ///// 03 02 -0010 140 0041 //  -0010 /// //// //// /// //// ///// -0024 // ////  -0001 //// //// ///// ///// ///// ///// -0024 //// //// ///// ///// ///// /////+
 83 566 CONFINS              1 2014 01 11 18 00 -1985000 -04395000 07861 00015 09227 ///// //// // 0019 08500 01550 00150 3020 1290 /// ///// 2000 ///// ///// ///// 062 07 05 0125 31 20 10 0000 0000 // // ///// //// ////// / /// /// ////// /// /// /////// // /// // /// /// ////////// /// /// 508 -0006 10 10  -0024 //// -0001 //// /////  -0001 00000 //// ///// 00150 -0012 0000 //// -0012 0000 //// ///// 03 02 -0010 040 0036 //  -0010 /// //// //// /// //// ///// -0024 // ////  -0001 //// //// ///// ///// ///// ///// -0024 //// //// ///// ///// ///// /////+
 83 612 CAMPO GRANDE         1 2014 01 11 18 00 -2046667 -05466667 05670 00015 09502 ///// -0011 06 //// 08500 01530 00150 2130 1940 /// ///// 0350 ///// ///// ///// 088 07 07 0080 39 20 10 0000 0000 // // ///// //// ////// / /// /// ////// /// /// /////// // /// // /// /// ////////// /// /// 095 -0006 09 06  -0024 //// -0001 //// /////  //// ///// -0006 00050 00150 -0012 0000 //// -0012 0000 //// ///// 03 02 -0010 010 0087 //  -0010 /// //// //// /// //// ///// -0024 // ////  -0001 //// //// ///// ///// ///// ///// -0024 //// //// ///// ///// ///// /////+
 83 649 VITORIA (AEROPORTO)  1 2014 01 11 18 00 -2026000 -04028000 ///// ///// 10149 10154 -0011 07 //// ///// ///// ///// 3260 2290 /// ///// 2000 ///// ///// ///// 038 07 01 0080 31 23 10 0000 0000 // // ///// //// ////// / /// /// ////// /// /// /////// // /// // /// /// ////////// /// /// 508 -0006 10 10  -0024 //// -0001 //// /////  -0001 00000 //// ///// ///// -0012 0000 //// -0012 0000 //// ///// 03 02 -0010 080 0077 //  -0010 /// //// //// /// //// ///// -0024 // ////  -0001 //// //// ///// ///// ///// ///// -0024 //// //// ///// ///// ///// /////+
 83 780 SAO PAULO (AEROPORTO 1 2014 01 11 18 00 -2361000 -04665000 ///// ///// 09245 ///// -0012 05 //// 08500 01540 ///// 2450 1850 /// ///// 0500 ///// ///// ///// 088 07 07 0080 39 20 10 0000 0000 // // ///// //// ////// / /// /// ////// /// /// /////// // /// // /// /// ////////// /// /// 097 -0006 09 06  -0024 //// -0001 //// /////  //// ///// -0006 00010 ///// -0012 0000 //// -0012 0000 //// ///// 03 02 -0010 350 0077 //  -0010 /// //// //// /// //// ///// -0024 // ////  -0001 //// //// ///// ///// ///// ///// -0024 //// //// ///// ///// ///// /////+
 83 827 FOZ DO IGUACU        1 2014 01 11 18 00 -2551667 -05458333 01800 00015 09826 10095 -0022 08 //// ///// ///// 00150 3400 2140 /// ///// 2000 ///// ///// ///// 088 07 05 0080 32 23 11 0000 0000 // // ///// //// ////// / /// /// ////// /// /// /////// // /// // /// /// ////////// /// /// 508 -0006 10 10  -0024 //// -0001 //// /////  -0001 00000 //// ///// 00150 -0012 0000 //// -0012 0000 //// ///// 03 02 -0010 340 0036 //  -0010 /// //// //// /// //// ///// -0024 // ////  -0001 //// //// ///// ///// ///// ///// -0024 //// //// ///// ///// ///// /////+
 83 840 CURITIBA             1 2014 01 11 18 00 -2551667 -04916667 09080 00015 09136 ///// -0006 05 //// 08500 01540 00150 2340 1370 /// ///// 2000 ///// ///// ///// 088 07 06 0080 39 20 14 0000 0000 // // ///// //// ////// / /// /// ////// /// /// /////// // /// // /// /// ////////// /// /// 013 -0006 09 06  -0024 //// -0001 //// /////  //// ///// -0006 00020 00150 -0012 0000 //// -0012 0000 //// ///// 03 02 -0010 300 0072 //  -0010 /// //// //// /// //// ///// -0024 // ////  -0001 //// //// ///// ///// ///// ///// -0024 //// //// ///// ///// ///// /////+
 83 899 FLORIANOPOLIS        1 2014 01 11 18 00 -2792167 -04905000 00050 00015 10101 10107 -0010 08 //// ///// ///// 00150 3190 2200 /// ///// 2000 ///// ///// ///// 012 07 01 0175 35 20 10 0000 0000 // // ///// //// ////// / /// /// ////// /// /// /////// // /// // /// /// ////////// /// /// 508 -0006 10 10  -0024 //// -0001 //// /////  -0001 00000 //// ///// 00150 -0012 0000 //// -0012 0000 //// ///// 03 02 -0010 350 0057 //  -0010 /// //// //// /// //// ///// -0024 // ////  -0001 //// //// ///// ///// ///// ///// -0024 //// //// ///// ///// ///// /////+
 83 971 PORTO ALEGRE         1 2014 01 11 18 00 -3001667 -05121667 00470 00015 10137 10141 0027 00 //// ///// ///// 00150 2370 2230 /// ///// 0400 ///// ///// ///// 088 07 06 0045 32 23 14 0000 0000 // // ///// //// ////// / /// /// ////// /// /// /////// // /// // /// /// ////////// /// /// 060 -0006 06 02  -0024 //// -0001 //// /////  //// ///// -0006 00040 00150 -0012 0000 //// -0012 0000 //// ///// 03 02 -0010 260 0051 //  -0010 /// //// //// /// //// ///// -0024 // ////  -0001 //// //// ///// ///// ///// ///// -0024 //// //// ///// ///// ///// /////++
7777
0000281800
497
KSME32 SBBR 111800
CREX++
T000113 A000 D07080++
 83 096 ARACAJU              1 2014 01 11 18 00 -1091000 -03705000 00050 ///// 10135 10142 //// // 0012 ///// ///// ///// 2950 2350 /// ///// 0200 ///// ///// ///// 038 07 03 0125 31 20 10 0000 0000  07 /// 08 /// 09 /// // ///// ///// // ///// ///// // ///// //// 508 -0006 10 10  -0024 //// -0001 //// /////  -0001 00000 //// ///// ///// -0012 0000 //// -0012 0000 //// ///// 03 02 -0010 090 0015 //  -0010 /// //// //// /// //// ///// -0024 // ////  -0001 //// //// ///// ///// ///// ///// -0024 //// //// ///// ///// ///// ///// //// 0000 //+
 83 186 JACOBINA             1 2014 01 11 18 00 -1118000 -04046000 04850 ///// 09576 10099 //// // 0029 ///// ///// ///// 2990 1610 /// ///// 1000 ///// ///// ///// 062 07 04 0080 32 20 10 0000 0000  07 /// 08 /// 09 /// // ///// ///// // ///// ///// // ///// //// 508 -0006 10 10  -0024 //// -0001 //// /////  -0001 00000 //// ///// ///// -0012 0000 //// -0012 0000 //// ///// 03 02 -0010 140 0031 //  -0010 /// //// //// /// //// ///// -0024 // ////  -0001 //// //// ///// ///// ///// ///// -0024 //// //// ///// ///// ///// ///// //// 0000 //+
 83 242 LENCOIS              1 2014 01 11 18 00 -1256000 -04138000 04390 ///// 09628 10115 //// // 0015 ///// ///// ///// 2870 2160 /// ///// 1000 ///// ///// ///// 088 07 07 0045 37 20 10 0000 0000  07 /// 08 /// 09 /// // ///// ///// // ///// ///// // ///// //// 002 -0006 06 02  -0024 //// -0001 //// /////  //// ///// -0006 00010 ///// -0012 0000 //// -0012 0000 //// ///// 03 02 -0010 180 0010 //  -0010 /// //// //// /// //// ///// -0024 // ////  -0001 //// //// ///// ///// ///// ///// -0024 //// //// ///// ///// ///// ///// //// 0000 //+
 83 288 BOM JESUS DA LAPA    1 2014 01 11 18 00 -1326667 -04341667 04410 00015 09613 10095 //// // 0017 ///// ///// 00150 3190 2170 /// ///// 2000 ///// ///// ///// 075 07 04 0080 31 22 15 0000 0000  07 /// 08 /// 09 /// // ///// ///// // ///// ///// // ///// //// 508 -0006 10 10  -0024 //// -0001 //// /////  -0001 00000 //// ///// 00150 -0012 0000 //// -0012 0000 //// ///// 03 02 -0010 230 0010 //  -0010 /// //// //// /// //// ///// -0024 // ////  -0001 //// //// ///// ///// ///// ///// -0024 //// //// ///// ///// ///// ///// //// 0000 //+
 83 344 VITORIA DA CONQUISTA 1 2014 01 11 18 00 -1495000 -04088000 08400 ///// 09177 ///// //// // 0018 ///// ///// ///// 2500 1800 /// ///// 2000 ///// ///// ///// 088 07 07 0080 32 26 10 0000 0000  07 /// 08 /// 09 /// // ///// ///// // ///// ///// // ///// //// 508 -0006 10 10  -0024 //// -0001 //// /////  -0001 00000 //// ///// ///// -0012 0000 //// -0012 0000 //// ///// 03 02 -0010 140 0021 //  -0010 /// //// //// /// //// ///// -0024 // ////  -0001 //// //// ///// ///// ///// ///// -0024 //// //// ///// ///// ///// ///// //// 0000 //++
7777
0000120200
498
KSMI33 SBBR 111800
CREX++
T000113 A000 D07086++
 83 550 SAO MATEUS           1 2014 01 11 18 00 -1870000 -03985000 ///// ///// 10121 10150 //// // 0023 ///// ///// ///// 3080 2350 /// ///// 1000 ///// ///// ///// 075 07 03 0080 32 20 14 0000 0000 // // ///// //// ////// / /// /// ////// /// /// /////// // /// // /// /// ////////// /// /// 002 -0006 01 01  -0024 //// -0001 //// /////  -0001 00000 //// ///// ///// -0012 0000 //// -0012 0000 //// ///// 03 02 -0010 /// //// //  -0010 /// //// //// /// //// ///// -0024 // ////  -0001 //// //// ///// ///// ///// ///// -0024 //// //// ///// ///// ///// /////+
 83 698 CAMPOS               1 2014 01 11 18 00 -2175000 -04133000 ///// ///// 10124 10138 -0008 06 //// ///// ///// ///// 3200 2180 /// ///// 5000 ///// ///// ///// 000 62 // 0000 // // // 0000 0000 // // ///// //// ////// / /// /// ////// /// /// /////// // /// // /// /// ////////// /// /// 508 -0006 10 10  -0024 //// -0001 //// /////  -0001 00000 //// ///// ///// -0012 0000 //// -0012 0000 //// ///// 03 02 -0010 050 0031 //  -0010 /// //// //// /// //// ///// -0024 // ////  -0001 //// //// ///// ///// ///// ///// -0024 //// //// ///// ///// ///// /////++
7777
0000289300
499
KSME32 SBBR 111800
CREX++
T000113 A000 D07086++
 83 096 ARACAJU              1 2014 01 11 18 00 -1091000 -03705000 ///// ///// 10135 10142 //// // 0012 ///// ///// ///// 2950 2350 /// ///// 0200 ///// ///// ///// 038 07 03 0125 31 20 10 0000 0000 // // ///// //// ////// / /// /// ////// /// /// /////// // /// // /// /// ////////// /// /// 508 -0006 10 10  -0024 //// -0001 //// /////  -0001 00000 //// ///// ///// -0012 0000 //// -0012 0000 //// ///// 03 02 -0010 090 0015 //  -0010 /// //// //// /// //// ///// -0024 // ////  -0001 //// //// ///// ///// ///// ///// -0024 //// //// ///// ///// ///// /////+
 83 186 JACOBINA             1 2014 01 11 18 00 -1118000 -04046000 ///// ///// 09576 10099 //// // 0029 ///// ///// ///// 2990 1610 /// ///// 1000 ///// ///// ///// 062 07 04 0080 32 20 10 0000 0000 // // ///// //// ////// / /// /// ////// /// /// /////// // /// // /// /// ////////// /// /// 508 -0006 10 10  -0024 //// -0001 //// /////  -0001 00000 //// ///// ///// -0012 0000 //// -0012 0000 //// ///// 03 02 -0010 140 0031 //  -0010 /// //// //// /// //// ///// -0024 // ////  -0001 //// //// ///// ///// ///// ///// -0024 //// //// ///// ///// ///// /////+
 83 242 LENCOIS              1 2014 01 11 18 00 -1256000 -04138000 ///// ///// 09628 10115 //// // 0015 ///// ///// ///// 2870 2160 /// ///// 1000 ///// ///// ///// 088 07 07 0045 37 20 10 0000 0000 // // ///// //// ////// / /// /// ////// /// /// /////// // /// // /// /// ////////// /// /// 002 -0006 06 02  -0024 //// -0001 //// /////  //// ///// -0006 00010 ///// -0012 0000 //// -0012 0000 //// ///// 03 02 -0010 180 0010 //  -0010 /// //// //// /// //// ///// -0024 // ////  -0001 //// //// ///// ///// ///// ///// -0024 //// //// ///// ///// ///// /////+
 83 288 BOM JESUS DA LAPA    1 2014 01 11 18 00 -1326667 -04341667 04410 00015 09613 10095 //// // 0017 ///// ///// 00150 3190 2170 /// ///// 2000 ///// ///// ///// 075 07 04 0080 31 22 15 0000 0000 // // ///// //// ////// / /// /// ////// /// /// /////// // /// // /// /// ////////// /// /// 508 -0006 10 10  -0024 //// -0001 //// /////  -0001 00000 //// ///// 00150 -0012 0000 //// -0012 0000 //// ///// 03 02 -0010 230 0010 //  -0010 /// //// //// /// //// ///// -0024 // ////  -0001 //// //// ///// ///// ///// ///// -0024 //// //// ///// ///// ///// /////+
 83 344 VITORIA DA CONQUISTA 1 2014 01 11 18 00 -1495000 -04088000 ///// ///// 09177 ///// //// // 0018 ///// ///// ///// 2500 1800 /// ///// 2000 ///// ///// ///// 088 07 07 0080 32 26 10 0000 0000 // // ///// //// ////// / /// /// ////// /// /// /////// // /// // /// /// ////////// /// /// 508 -0006 10 10  -0024 //// -0001 //// /////  -0001 00000 //// ///// ///// -0012 0000 //// -0012 0000 //// ///// 03 02 -0010 140 0021 //  -0010 /// //// //// /// //// ///// -0024 // ////  -0001 //// //// ///// ///// ///// ///// -0024 //// //// ///// ///// ///// /////++
7777
0000117200
500
KSMI33 SBBR 111800
CREX++
T000113 A000 D07080++
 83 550 SAO MATEUS           1 2014 01 11 18 00 -1870000 -03985000 00250 ///// 10121 10150 //// // 0023 ///// ///// ///// 3080 2350 /// ///// 1000 ///// ///// ///// 075 07 03 0080 32 20 14 0000 0000  07 /// 08 /// 09 /// // ///// ///// // ///// ///// // ///// //// 002 -0006 01 01  -0024 //// -0001 //// /////  -0001 00000 //// ///// ///// -0012 0000 //// -0012 0000 //// ///// 03 02 -0010 /// //// //  -0010 /// //// //// /// //// ///// -0024 // ////  -0001 //// //// ///// ///// ///// ///// -0024 //// //// ///// ///// ///// ///// //// 0000 //+
 83 698 CAMPOS               1 2014 01 11 18 00 -2175000 -04133000 ///// ///// 10124 10138 -0008 06 //// ///// ///// ///// 3200 2180 /// ///// 5000 ///// ///// ///// 000 62 // 0000 // // // 0000 0000  07 /// 08 /// 09 /// // ///// ///// // ///// ///// // ///// //// 508 -0006 10 10  -0024 //// -0001 //// /////  -0001 00000 //// ///// ///// -0012 0000 //// -0012 0000 //// ///// 03 02 -0010 050 0031 //  -0010 /// //// //// /// //// ///// -0024 // ////  -0001 //// //// ///// ///// ///// ///// -0024 //// //// ///// ///// ///// ///// //// 0000 //++
7777
0001270400
501
KSMI06 SBBR 111800
CREX++
T000113 A000 D07080++
 82 022 BOA VISTA            1 2014 01 11 18 00 0283333 -06070000 01400 00015 10016 10112 //// // 0018 ///// ///// 00150 3210 1500 /// ///// 2000 ///// ///// ///// 075 07 04 0125 31 20 11 0000 0000  07 /// 08 /// 09 /// // ///// ///// // ///// ///// // ///// //// 508 -0006 10 10  -0024 //// -0001 //// /////  -0001 00000 //// ///// 00150 -0012 0000 //// -0012 0000 //// ///// 03 02 -0010 350 0031 //  -0010 /// //// //// /// //// ///// -0024 // ////  -0001 //// //// ///// ///// ///// ///// -0024 //// //// ///// ///// ///// ///// //// 0000 //+
 82 193 BELEM                1 2014 01 11 18 00 -0145000 -04846667 00100 00015 10076 10096 //// // 0003 ///// ///// 00150 2840 2360 /// ///// 2000 ///// ///// ///// 088 07 05 0080 32 23 10 0000 0000  07 /// 08 /// 09 /// // ///// ///// // ///// ///// // ///// //// 508 -0006 10 10  -0024 //// -0001 //// /////  -0001 00000 //// ///// 00150 -0012 0000 //// -0012 0000 //// ///// 03 02 -0010 340 0031 //  -0010 /// //// //// /// //// ///// -0024 // ////  -0001 //// //// ///// ///// ///// ///// -0024 //// //// ///// ///// ///// ///// //// 0000 //+
 82 281 SAO LUIS             1 2014 01 11 18 00 -0253333 -04430000 00510 00015 10032 10094 //// // 0008 ///// ///// 00150 2870 2080 /// ///// 0900 ///// ///// ///// 062 07 04 0080 32 23 10 0000 0000  07 /// 08 /// 09 /// // ///// ///// // ///// ///// // ///// //// 015 -0006 01 01  -0024 //// -0001 //// /////  -0001 00000 //// ///// 00150 -0012 0000 //// -0012 0000 //// ///// 03 02 -0010 030 0062 //  -0010 /// //// //// /// //// ///// -0024 // ////  -0001 //// //// ///// ///// ///// ///// -0024 //// //// ///// ///// ///// ///// //// 0000 //+
 82 332 MANAUS               1 2014 01 11 18 00 -0315000 -05998333 00840 00015 10024 10117 //// // 0032 ///// ///// 00150 2900 2200 /// ///// 2000 ///// ///// ///// 075 07 05 0045 32 23 14 0000 0000  07 /// 08 /// 09 /// // ///// ///// // ///// ///// // ///// //// 508 -0006 10 10  -0024 //// -0001 //// /////  -0001 00000 //// ///// 00150 -0012 0000 //// -0012 0000 //// ///// 03 02 -0010 070 0021 //  -0010 /// //// //// /// //// ///// -0024 // ////  -0001 //// //// ///// ///// ///// ///// -0024 //// //// ///// ///// ///// ///// //// 0000 //+
 82 398 FORTALEZA (AEROPORTO 1 2014 01 11 18 00 -0378000 -03853000 00250 ///// 10070 10099 //// // 0005 ///// ///// ///// 2900 1920 /// ///// 2000 ///// ///// ///// 000 62 // 0000 // // // 0000 0000  07 /// 08 /// 09 /// // ///// ///// // ///// ///// // ///// //// 508 -0006 10 10  -0024 //// -0001 //// /////  -0001 00000 //// ///// ///// -0012 0000 //// -0012 0000 //// ///// 03 02 -0010 070 0077 //  -0010 /// //// //// /// //// ///// -0024 // ////  -0001 //// //// ///// ///// ///// ///// -0024 //// //// ///// ///// ///// ///// //// 0000 //+
 82 400 FERNANDO DE NORONHA  1 2014 01 11 18 00 -0385000 -03241667 00560 00015 10057 10124 //// // 0010 ///// ///// 00150 2730 2030 /// ///// 2000 ///// ///// ///// 050 07 04 0080 31 20 10 0000 0000  07 /// 08 /// 09 /// // ///// ///// // ///// ///// // ///// //// 508 -0006 10 10  -0024 //// -0001 //// /////  -0001 00000 //// ///// 00150 -0012 0000 //// -0012 0000 //// ///// 03 02 -0010 100 0062 //  -0010 /// //// //// /// //// ///// -0024 // ////  -0001 //// //// ///// ///// ///// ///// -0024 //// //// ///// ///// ///// ///// //// 0000 //+
 82 579 TERESINA (AEROPORTO) 1 2014 01 11 18 00 -0505000 -04281000 00690 ///// 10003 10079 //// // -0002 ///// ///// ///// 3320 2140 /// ///// 2000 ///// ///// ///// 075 07 02 0125 32 21 10 0000 0000  07 /// 08 /// 09 /// // ///// ///// // ///// ///// // ///// //// 508 -0006 10 10  -0024 //// -0001 //// /////  -0001 00000 //// ///// ///// -0012 0000 //// -0012 0000 //// ///// 03 02 -0010 000 0000 //  -0010 /// //// //// /// //// ///// -0024 // ////  -0001 //// //// ///// ///// ///// ///// -0024 //// //// ///// ///// ///// ///// //// 0000 //+
 82 917 RIO BRANCO           1 2014 01 11 18 00 -1000000 -06780000 01430 00015 09883 ///// //// // 0013 ///// ///// 00150 //// //// /// ///// 2000 ///// ///// ///// 075 07 08 0080 32 61 60 0000 0000  07 /// 08 /// 09 /// // ///// ///// // ///// ///// // ///// //// 015 -0006 02 02  -0024 //// -0001 //// /////  //// ///// //// ///// 00150 -0012 0000 //// -0012 0000 //// ///// 03 02 -0010 020 0021 //  -0010 /// //// //// /// //// ///// -0024 // ////  -0001 //// //// ///// ///// ///// ///// -0024 //// //// ///// ///// ///// ///// //// 0000 //+
 82 965 ALTA FLORESTA        1 2014 01 11 18 00 -0986667 -05610000 02880 00015 09782 10109 //// // 0021 ///// ///// 00150 3010 2350 /// ///// 2000 ///// ///// ///// 075 07 05 0080 32 20 11 0000 0000  07 /// 08 /// 09 /// // ///// ///// // ///// ///// // ///// //// 003 -0006 06 02  -0024 //// -0001 //// /////  //// ///// -0006 00007 00150 -0012 0000 //// -0012 0000 //// ///// 03 02 -0010 090 0005 //  -0010 /// //// //// /// //// ///// -0024 // ////  -0001 //// //// ///// ///// ///// ///// -0024 //// //// ///// ///// ///// ///// //// 0000 //+
 82 993 MACEIO (AEROPORTO)   1 2014 01 11 18 00 -0951000 -03578000 01170 ///// 09995 10132 //// // 0015 ///// ///// ///// 2650 2190 /// ///// 2000 ///// ///// ///// 075 07 06 0080 31 20 10 0000 0000  07 /// 08 /// 09 /// // ///// ///// // ///// ///// // ///// //// 508 -0006 10 10  -0024 //// -0001 //// /////  -0001 00000 //// ///// ///// -0012 0000 //// -0012 0000 //// ///// 03 02 -0010 130 0062 //  -0010 /// //// //// /// //// ///// -0024 // ////  -0001 //// //// ///// ///// ///// ///// -0024 //// //// ///// ///// ///// ///// //// 0000 //+
 83 208 VILHENA              1 2014 01 11 18 00 -1270000 -06010000 06120 00015 09432 ///// //// // 0031 08500 01530 00150 2880 2140 /// ///// 0500 ///// ///// ///// 088 07 08 0045 33 61 60 0000 0000  07 /// 08 /// 09 /// // ///// ///// // ///// ///// // ///// //// 095 -0006 09 06  -0024 //// -0001 //// /////  //// ///// -0006 -00001 00150 -0012 0000 //// -0012 0000 //// ///// 03 02 -0010 020 0051 //  -0010 /// //// //// /// //// ///// -0024 // ////  -0001 //// //// ///// ///// ///// ///// -0024 //// //// ///// ///// ///// ///// //// 0000 //+
 83 349 ILHEUS (AEROPORTO)   1 2014 01 11 18 00 -1481000 -03903000 00040 ///// 10143 10149 //// // 0014 ///// ///// ///// 2910 2330 /// ///// 2000 ///// ///// ///// 075 07 03 0080 32 20 14 0000 0000  07 /// 08 /// 09 /// // ///// ///// // ///// ///// // ///// //// 508 -0006 10 10  -0024 //// -0001 //// /////  -0001 00000 //// ///// ///// -0012 0000 //// -0012 0000 //// ///// 03 02 -0010 140 0041 //  -0010 /// //// //// /// //// ///// -0024 // ////  -0001 //// //// ///// ///// ///// ///// -0024 //// //// ///// ///// ///// ///// //// 0000 //+
 83 362 CUIABA               1 2014 01 11 18 00 -1565000 -05610000 01857 00015 09907 10124 //// // 0027 ///// ///// 00150 2370 1970 /// ///// 0900 ///// ///// ///// 062 63 05 0080 30 20 10 0000 0000  07 /// 08 /// 09 /// // ///// ///// // ///// ///// // ///// //// 061 -0006 10 10  -0024 //// -0001 //// /////  //// ///// -0006 00001 00150 -0012 0000 //// -0012 0000 //// ///// 03 02 -0010 340 0005 //  -0010 /// //// //// /// //// ///// -0024 // ////  -0001 //// //// ///// ///// ///// ///// -0024 //// //// ///// ///// ///// ///// //// 0000 //+
 83 378 BRASILIA             1 2014 01 11 18 00 -1586667 -04791667 10600 00015 08954 ///// //// // 0016 08500 01520 00150 2990 1310 /// ///// 2000 ///// ///// ///// 062 07 06 0080 32 20 10 0000 0000  07 /// 08 /// 09 /// // ///// ///// // ///// ///// // ///// //// 508 -0006 10 10  -0024 //// -0001 //// /////  -0001 00000 //// ///// 00150 -0012 0000 //// -0012 0000 //// ///// 03 02 -0010 110 0046 //  -0010 /// //// //// /// //// ///// -0024 // ////  -0001 //// //// ///// ///// ///// ///// -0024 //// //// ///// ///// ///// ///// //// 0000 //+
 83 460 //////////////////// 1 2014 01 11 18 00 /////// //////// ///// ///// 10096 10155 //// // 0021 ///// ///// ///// 2700 2230 /// ///// 2000 ///// ///// ///// 062 07 04 0045 32 20 12 0000 0000  07 /// 08 /// 09 /// // ///// ///// // ///// ///// // ///// //// 508 -0006 10 10  -0024 //// -0001 //// /////  -0001 00000 //// ///// ///// -0012 0000 //// -0012 0000 //// ///// 03 02 -0010 140 0041 //  -0010 /// //// //// /// //// ///// -0024 // ////  -0001 //// //// ///// ///// ///// ///// -0024 //// //// ///// ///// ///// ///// //// 0000 //+
 83 566 CONFINS              1 2014 01 11 18 00 -1985000 -04395000 07861 00015 09227 ///// //// // 0019 08500 01550 00150 3020 1290 /// ///// 2000 ///// ///// ///// 062 07 05 0125 31 20 10 0000 0000  07 /// 08 /// 09 /// // ///// ///// // ///// ///// // ///// //// 508 -0006 10 10  -0024 //// -0001 //// /////  -0001 00000 //// ///// 00150 -0012 0000 //// -0012 0000 //// ///// 03 02 -0010 040 0036 //  -0010 /// //// //// /// //// ///// -0024 // ////  -0001 //// //// ///// ///// ///// ///// -0024 //// //// ///// ///// ///// ///// //// 0000 //+
 83 612 CAMPO GRANDE         1 2014 01 11 18 00 -2046667 -05466667 05670 00015 09502 ///// -0011 06 //// 08500 01530 00150 2130 1940 /// ///// 0350 ///// ///// ///// 088 07 07 0080 39 20 10 0000 0000  07 /// 08 /// 09 /// // ///// ///// // ///// ///// // ///// //// 095 -0006 09 06  -0024 //// -0001 //// /////  //// ///// -0006 00050 00150 -0012 0000 //// -0012 0000 //// ///// 03 02 -0010 010 0087 //  -0010 /// //// //// /// //// ///// -0024 // ////  -0001 //// //// ///// ///// ///// ///// -0024 //// //// ///// ///// ///// ///// //// 0000 //+
 83 649 VITORIA (AEROPORTO)  1 2014 01 11 18 00 -2026000 -04028000 00040 ///// 10149 10154 -0011 07 //// ///// ///// ///// 3260 2290 /// ///// 2000 ///// ///// ///// 038 07 01 0080 31 23 10 0000 0000  07 /// 08 /// 09 /// // ///// ///// // ///// ///// // ///// //// 508 -0006 10 10  -0024 //// -0001 //// /////  -0001 00000 //// ///// ///// -0012 0000 //// -0012 0000 //// ///// 03 02 -0010 080 0077 //  -0010 /// //// //// /// //// ///// -0024 // ////  -0001 //// //// ///// ///// ///// ///// -0024 //// //// ///// ///// ///// ///// //// 0000 //+
 83 780 SAO PAULO (AEROPORTO 1 2014 01 11 18 00 -2361000 -04665000 08030 ///// 09245 ///// -0012 05 //// 08500 01540 ///// 2450 1850 /// ///// 0500 ///// ///// ///// 088 07 07 0080 39 20 10 0000 0000  07 /// 08 /// 09 /// // ///// ///// // ///// ///// // ///// //// 097 -0006 09 06  -0024 //// -0001 //// /////  //// ///// -0006 00010 ///// -0012 0000 //// -0012 0000 //// ///// 03 02 -0010 350 0077 //  -0010 /// //// //// /// //// ///// -0024 // ////  -0001 //// //// ///// ///// ///// ///// -0024 //// //// ///// ///// ///// ///// //// 0000 //+
 83 827 FOZ DO IGUACU        1 2014 01 11 18 00 -2551667 -05458333 01800 00015 09826 10095 -0022 08 //// ///// ///// 00150 3400 2140 /// ///// 2000 ///// ///// ///// 088 07 05 0080 32 23 11 0000 0000  07 /// 08 /// 09 /// // ///// ///// // ///// ///// // ///// //// 508 -0006 10 10  -0024 //// -0001 //// /////  -0001 00000 //// ///// 00150 -0012 0000 //// -0012 0000 //// ///// 03 02 -0010 340 0036 //  -0010 /// //// //// /// //// ///// -0024 // ////  -0001 //// //// ///// ///// ///// ///// -0024 //// //// ///// ///// ///// ///// //// 0000 //+
 83 840 CURITIBA             1 2014 01 11 18 00 -2551667 -04916667 09080 00015 09136 ///// -0006 05 //// 08500 01540 00150 2340 1370 /// ///// 2000 ///// ///// ///// 088 07 06 0080 39 20 14 0000 0000  07 /// 08 /// 09 /// // ///// ///// // ///// ///// // ///// //// 013 -0006 09 06  -0024 //// -0001 //// /////  //// ///// -0006 00020 00150 -0012 0000 //// -0012 0000 //// ///// 03 02 -0010 300 0072 //  -0010 /// //// //// /// //// ///// -0024 // ////  -0001 //// //// ///// ///// ///// ///// -0024 //// //// ///// ///// ///// ///// //// 0000 //+
 83 899 FLORIANOPOLIS        1 2014 01 11 18 00 -2792167 -04905000 00050 00015 10101 10107 -0010 08 //// ///// ///// 00150 3190 2200 /// ///// 2000 ///// ///// ///// 012 07 01 0175 35 20 10 0000 0000  07 /// 08 /// 09 /// // ///// ///// // ///// ///// // ///// //// 508 -0006 10 10  -0024 //// -0001 //// /////  -0001 00000 //// ///// 00150 -0012 0000 //// -0012 0000 //// ///// 03 02 -0010 350 0057 //  -0010 /// //// //// /// //// ///// -0024 // ////  -0001 //// //// ///// ///// ///// ///// -0024 //// //// ///// ///// ///// ///// //// 0000 //+
 83 971 PORTO ALEGRE         1 2014 01 11 18 00 -3001667 -05121667 00470 00015 10137 10141 0027 00 //// ///// ///// 00150 2370 2230 /// ///// 0400 ///// ///// ///// 088 07 06 0045 32 23 14 0000 0000  07 /// 08 /// 09 /// // ///// ///// // ///// ///// // ///// //// 060 -0006 06 02  -0024 //// -0001 //// /////  //// ///// -0006 00040 00150 -0012 0000 //// -0012 0000 //// ///// 03 02 -0010 260 0051 //  -0010 /// //// //// /// //// ///// -0024 // ////  -0001 //// //// ///// ///// ///// ///// -0024 //// //// ///// ///// ///// ///// //// 0000 //++
7777
0000281800
502
KSMI36 SBBR 111800
CREX++
T000113 A000 D07080++
 82 599 NATAL                1 2014 01 11 18 00 -0591667 -03525000 00520 00015 10056 10116 //// // 0010 ///// ///// 00150 2880 2100 /// ///// 2000 ///// ///// ///// 062 07 05 0080 31 20 10 0000 0000  07 /// 08 /// 09 /// // ///// ///// // ///// ///// // ///// //// 508 -0006 10 10  -0024 //// -0001 //// /////  -0001 00000 //// ///// 00150 -0012 0000 //// -0012 0000 //// ///// 03 02 -0010 120 0062 //  -0010 /// //// //// /// //// ///// -0024 // ////  -0001 //// //// ///// ///// ///// ///// -0024 //// //// ///// ///// ///// ///// //// 0000 //+
 82 824 PORTO VELHO          1 2014 01 11 18 00 -0876667 -06391667 01020 00015 10014 10116 //// // 0030 ///// ///// 00150 2670 2160 /// ///// 2000 ///// ///// ///// 075 07 07 0080 34 24 10 0000 0000  07 /// 08 /// 09 /// // ///// ///// // ///// ///// // ///// //// 508 -0006 10 10  -0024 //// -0001 //// /////  -0001 00000 //// ///// 00150 -0012 0000 //// -0012 0000 //// ///// 03 02 -0010 300 0015 //  -0010 /// //// //// /// //// ///// -0024 // ////  -0001 //// //// ///// ///// ///// ///// -0024 //// //// ///// ///// ///// ///// //// 0000 //+
 82 899 RECIFE (AEROPORTO)   1 2014 01 11 18 00 -0806000 -03485000 00190 ///// 10113 10125 //// // 0012 ///// ///// ///// 2440 2360 /// ///// 0400 ///// ///// ///// 088 07 08 0025 32 61 60 0000 0000  07 /// 08 /// 09 /// // ///// ///// // ///// ///// // ///// //// 060 -0006 02 02  -0024 //// -0001 //// /////  //// ///// -0006 00020 ///// -0012 0000 //// -0012 0000 //// ///// 03 02 -0010 100 0062 //  -0010 /// //// //// /// //// ///// -0024 // ////  -0001 //// //// ///// ///// ///// ///// -0024 //// //// ///// ///// ///// ///// //// 0000 //+
 83 248 SALVADOR (AEROPORTO) 1 2014 01 11 18 00 -1290000 -03833000 00060 ///// 10116 10138 //// // 0017 ///// ///// ///// 2960 2300 /// ///// 2000 ///// ///// ///// 075 07 03 0045 32 23 10 0000 0000  07 /// 08 /// 09 /// // ///// ///// // ///// ///// // ///// //// 508 -0006 10 10  -0024 //// -0001 //// /////  -0001 00000 //// ///// ///// -0012 0000 //// -0012 0000 //// ///// 03 02 -0010 160 0046 //  -0010 /// //// //// /// //// ///// -0024 // ////  -0001 //// //// ///// ///// ///// ///// -0024 //// //// ///// ///// ///// ///// //// 0000 //+
 83 746 GALEAO               1 2014 01 11 18 00 -2281667 -04325000 00060 00015 10101 10111 //// // //// ///// ///// 00150 3720 1720 /// ///// 2000 ///// ///// ///// 012 07 01 0080 35 20 10 0000 0000  07 /// 08 /// 09 /// // ///// ///// // ///// ///// // ///// //// 508 -0006 10 10  -0024 //// -0001 //// /////  -0001 00000 //// ///// 00150 -0012 0000 //// -0012 0000 //// ///// 03 02 -0010 080 0021 //  -0010 /// //// //// /// //// ///// -0024 // ////  -0001 //// //// ///// ///// ///// ///// -0024 //// //// ///// ///// ///// ///// //// 0000 //++
7777
0000289300
503
KSMI36 SBBR 111800
CREX++
T000113 A000 D07086++
 82 599 NATAL                1 2014 01 11 18 00 -0591667 -03525000 00520 00015 10056 10116 //// // 0010 ///// ///// 00150 2880 2100 /// ///// 2000 ///// ///// ///// 062 07 05 0080 31 20 10 0000 0000 // // ///// //// ////// / /// /// ////// /// /// /////// // /// // /// /// ////////// /// /// 508 -0006 10 10  -0024 //// -0001 //// /////  -0001 00000 //// ///// 00150 -0012 0000 //// -0012 0000 //// ///// 03 02 -0010 120 0062 //  -0010 /// //// //// /// //// ///// -0024 // ////  -0001 //// //// ///// ///// ///// ///// -0024 //// //// ///// ///// ///// /////+
 82 824 PORTO VELHO          1 2014 01 11 18 00 -0876667 -06391667 01020 00015 10014 10116 //// // 0030 ///// ///// 00150 2670 2160 /// ///// 2000 ///// ///// ///// 075 07 07 0080 34 24 10 0000 0000 // // ///// //// ////// / /// /// ////// /// /// /////// // /// // /// /// ////////// /// /// 508 -0006 10 10  -0024 //// -0001 //// /////  -0001 00000 //// ///// 00150 -0012 0000 //// -0012 0000 //// ///// 03 02 -0010 300 0015 //  -0010 /// //// //// /// //// ///// -0024 // ////  -0001 //// //// ///// ///// ///// ///// -0024 //// //// ///// ///// ///// /////+
 82 899 RECIFE (AEROPORTO)   1 2014 01 11 18 00 -0806000 -03485000 ///// ///// 10113 10125 //// // 0012 ///// ///// ///// 2440 2360 /// ///// 0400 ///// ///// ///// 088 07 08 0025 32 61 60 0000 0000 // // ///// //// ////// / /// /// ////// /// /// /////// // /// // /// /// ////////// /// /// 060 -0006 02 02  -0024 //// -0001 //// /////  //// ///// -0006 00020 ///// -0012 0000 //// -0012 0000 //// ///// 03 02 -0010 100 0062 //  -0010 /// //// //// /// //// ///// -0024 // ////  -0001 //// //// ///// ///// ///// ///// -0024 //// //// ///// ///// ///// /////+
 83 248 SALVADOR (AEROPORTO) 1 2014 01 11 18 00 -1290000 -03833000 ///// ///// 10116 10138 //// // 0017 ///// ///// ///// 2960 2300 /// ///// 2000 ///// ///// ///// 075 07 03 0045 32 23 10 0000 0000 // // ///// //// ////// / /// /// ////// /// /// /////// // /// // /// /// ////////// /// /// 508 -0006 10 10  -0024 //// -0001 //// /////  -0001 00000 //// ///// ///// -0012 0000 //// -0012 0000 //// ///// 03 02 -0010 160 0046 //  -0010 /// //// //// /// //// ///// -0024 // ////  -0001 //// //// ///// ///// ///// ///// -0024 //// //// ///// ///// ///// /////+
 83 746 GALEAO               1 2014 01 11 18 00 -2281667 -04325000 00060 00015 10101 10111 //// // //// ///// ///// 00150 3720 1720 /// ///// 2000 ///// ///// ///// 012 07 01 0080 35 20 10 0000 0000 // // ///// //// ////// / /// /// ////// /// /// /////// // /// // /// /// ////////// /// /// 508 -0006 10 10  -0024 //// -0001 //// /////  -0001 00000 //// ///// 00150 -0012 0000 //// -0012 0000 //// ///// 03 02 -0010 080 0021 //  -0010 /// //// //// /// //// ///// -0024 // ////  -0001 //// //// ///// ///// ///// ///// -0024 //// //// ///// ///// ///// /////++
7777
0000367000
504
SMCN04 KWBC 111800
AAXX 11184
71015 17/// ///// 10059 69951 7//4/ 333 10062 21040 70005=
71020 45/// /3501 11224 21248 39750 40013 52007 6///1 333 11208
21224 7////=
71021 45/// /1009 11222 21262 39646 40008 51009 6///1 333 11194
21224 7////=
71026 15/// /2118 10050 21010 39045 49885 56040 60001 333 10056
21126 70000=
71044 45/// /0502 11457 21510 39710 40059 58013 6///1 333 11408
21462 7////=
71108 11574 8//// 10074 39874 49945 5/004 60041 78062 888// 333
10106 20044 70328 90927=
71768 17/// /1606 10065 20030 39392 49928 53036 60021 7//4/ 333
10065 20006 70022=
71771 45/// /2807 10031 20017 39860 49880 53058 6///1 333 10047
20021 7////=
71951 11216 81303 11012 21012 39585 49847 52023 69901 77142 856//
333 11002 21016 47012 70082 90937=
71970 15/// /1009 11090 21099 39346 49931 58046 60001 333 11063
21154 70000=
71977 45/// /3501 11331 39272 40019 58015 6///1 333 11311 21385
7////=
71978 15/// /2407 11275 21319 39677 40003 56014 60001 333 11270
21315 70000=
71983 45/// /1313 11330 21365 39871 49892 53013 6///1 333 11317
21337 7////=
71018 15/// /1205 11330 21364 39853 49943 53006 60001 333 11315
21346 70002=
71019 45/// /1507 11006 21007 39755 40059 56096 6///1 333 11006
21118 7////=
71056 17/// /0604 11219 21239 39692 49999 58014 60021 7//4/ 333
11178 21285 70025=
71069 17/// ///// 11079 69951 7//4/ 333 11079 21161 70005=
71074 15/// /0000 11342 21375 39824 49904 53013 60001 333 11313
7////=
71087 45/// /0201 11241 21271 39806 40020 56006 6///1 333 11241
21321 7////=
71110 15/// /2414 10005 21026 30137 40198 56022 60001 333 10005
21051 70000=
71151 15/// /3007 11097 21104 39496 40002 50004 60001 333 11040
21097 70010=
71156 15/// /0202 11050 21055 38725 49806 56028 60001 333 11045
21121 70028=
71160 15/// /1203 11307 21343 39808 40032 51009 60001 333 11246
21341 79999=
71162 15/// /0609 11250 21284 39790 40008 56004 60001 333 11247
21270 70007=
71164 45/// /1303 11357 21397 39965 40051 58011 6///1 333 11308
21373 7////=
71288 15/// /2709 11361 21399 39902 49928 53001 60001 333 11266
21362 70005=
71295 15/// /2907 11071 21083 39545 49991 53007 60001 333 11050
21073 70038=
71296 15/// /1507 10037 20034 39600 49899 58060 60001 333 10040
21021 70072=
71381 45/// /1102 11001 21001 6///1 333 11001 21098 7////=
71404 45/// /0609 11232 21263 39705 49977 58015 6///1 333 11175
21249 7////=
71407 15/// /1714 11249 21277 39963 49985 56017 60001 333 11247
21333 70000=
71472 17/// /3519 10052 20025 39866 49883 51063 60021 7//4/ 333
10067 20030 70044=
71476 17/// /3311 10030 20013 39836 49847 53043 60011 7//4/ 333
10043 20018 70074=
71478 17/// /0406 10042 20036 39699 49831 53018 60031 7//4/ 333
10086 20029 70176=
71482 45/// /0512 10022 20016 39816 49847 53013 6///1 333 10032
20007 7////=
71484 17/// /3319 10044 39835 49853 53044 69921 7//4/ 333 10061
20018 70128=
71503 45/// /3208 11350 21389 39762 40048 58006 6///1 333 11261
21386 7////=
71508 17/// ///// 10071 20067 39784 49919 58053 60021 7//4/ 333
10072 20008 70081=
71522 45/// /1106 11034 21038 39501 49987 58075 6///1 333 11034
21113 7////=
71551 15/// /1412 11068 21085 39305 49970 58050 60001 333 11068
21148 70008=
71588 15/// /2306 11020 60001 333 70000=
71622 17/// ///// 10054 20050 39580 49910 58052 60031 7//4/ 333
10059 20007 70164=
71666 17/// /1407 10006 20002 30079 40124 58073 60021 7//4/ 333
10006 21101 70020=
71671 17/// /2003 10057 20047 30078 40138 56071 69931 7//4/ 333
10057 21015 70003=
71680 45/// /3201 11284 21312 39526 40016 51005 6///1 333 11284
21310 7////=
0000288500
505
SMCI01 KWBC 111800
AAXX 11181
50953 33/// 92902 11281 21338 30170 40333 52020 333 11139=
52652 32/// 91103 11175 21265 38660 40454 57011 333 00101 11030=
52866 32/61 90000 11162 21220 37783 57005 333 00400 11040=
53463 42/// 93602 11132 21237 38986 40423 54000 333 00402 11040=
53588 32/78 93202 11166 21244 37809 54000 333 11078=
54218 32/80 93203 11142 21226 39529 40380 52015 333 10001=
54342 33/// 93603 11097 21237 30277 40342 52029 333 10000=
56187 31/56 92901 10061 20016 40335 57002 70500 333 00502 10102=
56778 33/// 92901 10037 20022 38147 54000 333 00251 10179=
57516 31418 92901 10073 20062 30010 40331 57003 70060 333 10085=
57816 11/55 90702 10013 20009 38882 40326 54000 69951 76066 333
00501 10024=
58150 32/23 92701 10000 21008 30311 40315 52003 333 10065=
58606 12/// 90201 10050 20032 30253 40314 52003 69931 333 10052=
59431 11/35 93602 10104 20096 30116 40265 52004 69921 70060 333
10144=
52533 32/// 92203 11135 21253 38639 40424 57010 333 00152 11005=
53772 32/// 92902 11030 21203 39397 40350 52003 333 10044=
53915 32/79 93202 11077 21201 38789 40407 57003 333 00554 10012=
54823 33/// 93602 10017 21059 30107 40322 52014 333 10068=
56080 32/// 93201 11130 21185 37186 57011 333 00301 11036=
56096 32/// 90000 10016 21140 39074 40356 57006 333 00600 10062=
57461 33/14 93202 10027 20015 30010 40333 57006 333 10051=
57687 11/// 92902 10047 20027 30245 40333 57003 69921 721// 333
10054=
58362 11956 90402 10050 20038 30293 40301 57002 60011 76065 333
10065=
59644 32/// 93604 10143 20113 30223 40240 52002 333 10220=
50468 33/// 93204 11267 21332 30061 40296 54000 333 11240=
51243 32/// 93203 11196 21229 39792 40399 57017 333 05903 11139=
51288 32/// 91803 11141 21253 38378 57016 333 05602 11073=
51463 31/59 90701 11185 21210 39178 40378 57009 71000 333 05858
11053=
51573 33/// 90000 11110 21181 30384 40431 57011 333 05100 11044=
51709 32/// 92702 11097 21133 38745 40425 57005 333 05100 11016=
52983 32/// 90202 11141 21224 38207 57013 333 00453 11027=
54337 42/80 93604 11079 21204 30266 40353 52025 333 10011=
54401 32/80 93402 11095 21235 39417 40387 52010 333 10003=
54497 42/58 90701 11087 21102 30276 40295 52010 333 10002=
57265 33/// 93201 10029 20013 30163 40330 57006 333 10069=
58102 33/// 92201 10034 21038 30261 40310 57007 333 10093=
58221 32/27 93201 10023 20008 30279 40314 54000 333 10070=
58457 11213 93402 10049 20042 30240 40294 57005 60021 78065 333
10062=
58752 31/08 92702 10091 20086 40266 57010 70040 333 10112=
58847 32/60 92702 10127 20095 30148 40251 57008 333 10170=
59134 32/57 92202 10130 20111 30076 40245 57008 333 10200=
59287 31910 93602 10119 20112 30155 40241 52001 72840 333 10221=
59316 32/57 90702 10150 20123 30245 40254 57003 333 10195=
59758 32/55 90403 10185 20173 30140 40217 57006 333 10239=
00000000