0000079900
706
SMVF10 EHDB 111800
BBXX
UCFT 11181 99737 10181 41698 73206 10040 40027 52001 70222 8526/
22271 20201=
PDWZ 11183 99370 10034 41/99 60000 10178 20104 40195 54000 70322
867// 22263 20000 30000 80135 42916=
PHAM 11184 99527 70052 41/98 32001 10075 20039 40211 50008 70200
83/// 22283 2//// 80058 42916=
UHOM 11181 99738 10201 41/97 93008 10015 40141 54000 70222 89///
22231 20201=
UBEF5 11181 99568 10011 41498 62814 10050 40139 52036 70222 8621/
22242 00080 20705=
DPGZ 11183 99381 70264 41/98 53128 10132 20063 40133 52005 701//
84270 22214 20708 329// 41406 80096=
UAEV 11181 99736 10188 41497 70000 10010 40016 54000 70272 8655/
22271 2////=
ZDKS6 11183 99327 70291 41298 53620 10172 20108 40180 52030 70300
8425/ 22263 00190 20504 333// 40608 80135=
0000013600
707
SMPA20 KWBC 111800
AAXX 11184
91222 NIL=
91245 NIL=
91323 NIL=
91339 NIL=
91343 NIL=
91353 NIL=
91442 NIL=
0000059100
708
SMUS01 KWBC 111800
AAXX 11184
72201 NIL=
72202 NIL=
72203 NIL=
72205 NIL=
72206 NIL=
72207 NIL=
72208 NIL=
72211 NIL=
72212 NIL=
72214 NIL=
72217 NIL=
72218 NIL=
72219 NIL=
72220 NIL=
72223 NIL=
72226 NIL=
72231 NIL=
72234 NIL=
72235 NIL=
72240 NIL=
72243 NIL=
72248 NIL=
72250 NIL=
72251 NIL=
72253 NIL=
72254 NIL=
72255 NIL=
72256 NIL=
72259 NIL=
72261 NIL=
72263 NIL=
72265 NIL=
72266 NIL=
72267 NIL=
72268 NIL=
72270 NIL=
72271 NIL=
72274 NIL=
72278 NIL=
72280 NIL=
72290 NIL=
72295 NIL=
0000017300
709
SMAA01 KWBC 111800
AAXX 11181
89504 43/// /2302 11043 21107 38469 49936 52003 333 11016=
89061 36/66 /1901 10016 21033 39930 49937 57021 333 91002 91104=
0000043500
710
SMUS02 KWBC 111800
AAXX 11184
72302 NIL=
72304 NIL=
72308 NIL=
72310 NIL=
72311 NIL=
72312 NIL=
72314 NIL=
72317 NIL=
72323 NIL=
72324 NIL=
72326 NIL=
72327 NIL=
72334 NIL=
72340 NIL=
72344 NIL=
72351 NIL=
72353 NIL=
72356 NIL=
72360 NIL=
72363 NIL=
72365 NIL=
72370 NIL=
72371 NIL=
72374 NIL=
72376 NIL=
72384 NIL=
72386 NIL=
72387 NIL=
72389 NIL=
72394 NIL=
0000033000
711
SMHK01 KWBC 111800
AAXX 11181
45007 12962 10703 10168 20114 30227 40236 55002 60001 81030 333
59002 81368=
45035 36/// /0603 10136 20123 30198 40242 52001=
45032 36/// /1001 10138 20127 30220 40237 54000=
45039 36/// /0401 10135 20127 30225 40240 54000=
45044 36/// /0604 10155 20120 30141 40237 52001=
0000161400
712
SMMX01 KWBC 111800
AAXX 11181
76402 31958 02401 10238 20098 30129 40187 52006 70544 91740 333
10240 20088 30/// 58017=
76405 32980 00502 10242 20133 30167 40189 52009 91750 333 10244
20160 30/// 58016=
76632 31658 30402 10170 20090 37725 40191 52006 70311 83500 91745
333 10175 20068 30/// 56100 58005 83642=
76662 32670 30102 10226 20101 38482 40172 57009 83200 91740 333
10240 20102 30/// 56/00 58014 83833=
76695 32356 21204 10298 20277 30150 40156 57010 82700 91750 333
10311 20185 30/// 58006 82707=
76698 32560 31003 10300 20227 30157 40169 57008 83200 91750 333
10314 20208 30/// 56200 58005 83820=
76773 31566 20601 10254 20122 38432 40160 57012 70544 82100 91748
333 10260 20080 30/// 56900 59002 82820=
76519 32560 80000 10125 20041 38408 40275 52020 882// 91753 333
10128 20025 30/// 565// 58036 88820=
76543 31670 53604 10256 20208 30166 40199 50005 70544 81550 91745
333 10258 20168 31/// 56770 58039 81650 94358=
76625 32475 20906 10206 20066 38163 40161 57005 82200 91740 333
10206 20108 30/// 56600 58026 82825=
76647 32570 41704 10306 20235 30141 40172 57016 83230 91750 333
10308 20214 30/// 563/0 58002 83829=
76675 31570 30702 10173 20028 37396 40219 56006 70544 83200 91747
333 10177 21008 30/// 565// 58018 83826 98470=
76750 32560 11004 10296 20237 30151 40161 57014 81100 91750 333
10300 20168 30/// 56300 58001 81820=
76775 31570 11301 10267 20110 38533 40173 57015 70300 81200 91745
333 10270 20112 30/// 56800 58001 81824=
76833 32970 00000 10310 2//// 30130 40132 57014 91740 333 10321
10218 30/// 58007 92000=
0000015700
713
SMVF01 KWBC 111200 RRS
BBXX
VRMD7 11124 99362 70333 41597 43126 10135 20005 40200 52020 70311
 844// 22224 04190 20808 332// 41208 80080=
0000046100
714
SMUS03 KWBC 111800
AAXX 11184
72401 NIL=
72403 NIL=
72407 NIL=
72408 NIL=
72411 NIL=
72412 NIL=
72414 NIL=
72417 NIL=
72421 NIL=
72422 NIL=
72428 NIL=
72432 NIL=
72434 NIL=
72435 NIL=
72438 NIL=
72440 NIL=
72445 NIL=
72446 NIL=
72450 NIL=
72451 NIL=
72456 NIL=
72458 NIL=
72462 NIL=
72464 NIL=
72465 NIL=
72475 NIL=
72476 NIL=
72480 NIL=
72486 NIL=
72488 NIL=
72492 NIL=
72494 NIL=
0000034500
715
SNVD01 KWBC 111600 RRQ
BBXX
42887 11161 99282 70885 46/// /2405 10228 20203 91600 22200 10403
 70015 555 11038 22041=
42392 11161 99272 70900 46/// ///// 1//// 91600 22200 10402 70010=
42375 11161 99285 70883 46/// /2212 1//// 91600 22200 10402 70011
 555 11097 22105=
42369 11161 99272 70903 46/// /2501 1//// 91600=
0000222900
716
SMRO44 YRBK 111800
AAXX 11181
15000 02997 32101 10037 2//// 39872 40194 57003 60002 83070 333 10077
20035
34009 55300 60007 91002 91105 92600 555 60000=
15007 02998 51301 11005 21039 39714 40201 58005 60002 81041 333 10078
21028
34005 60007 91002 91102 555 60000=
15023 02997 22103 10019 21027 39744 40181 54001 60002 80001 333 10074
21010
31010 60007 91004 91105 555 60000=
15025 02997 31502 10015 21028 30053 40193 52002 60002 83070 333 10072
20015
30011 60007 91003 91103 555 60000=
15056 02997 83204 10041 2//// 39836 40194 54000 60002 80007 333 10084
20038
31013 55300 0//// 20000 3//// 60007 91006 91108 555 60000=
15069 02997 72201 11005 21032 39104 42797 57008 60002 87070 333 10004
21015
3/001 42998 60007 91004 91104 555 60000=
15073 02597 31401 10000 21039 39724 40209 57002 60002 81502 333 10085
20000
34004 60007 91001 91102 555 60000=
15088 01098 72914 11058 21088 37948 48379 57007 60002 70342 87500 333
11058
21092 3//// 46004 60007 91020 92727 92843=
15094 02997 20000 10040 21087 39713 40191 55000 60002 82030 333 10080
20026
31011 60007=
15109 02997 32901 10012 21033 39756 40205 54000 60002 81041 333 10090
20010
34012 60007 91002 91102 555 32000 42000 50010 60000 71010=
15111 03/// /2002 10021 21010 39923 40194 52003 6///2 333 10087 21008
3////
4//// 6///7 91003 91103 555 6////=
15113 02997 63201 10000 21024 30043 40209 52006 60002 82048 333 10098
21020
30011 60007=
15154 02997 51001 11005 21031 30052 40201 52005 60002 82048 333 10107
21025
34011 60007 91002 91103 92600 555 60000=
15194 02997 23001 10006 21033 39905 40210 52002 60002 80001 333 10107
20006
31013 60007 91003 91103 555 60000=
15197 02997 32302 10036 21019 39991 40207 52004 60002 80001 333 10091
20000
31010 55300 0//// 20000 3//// 60007 555 60000=
15219 02998 20701 10024 21001 30066 40194 50001 60002 80002 333 10116
20024
31011 553// 60007 91002 91103 555 60000=
15264 02997 22201 10025 21007 30139 40213 50001 60002 82040 333 10121
21018
31013 60007 91002 91102 555 60000=
15265 02997 61602 10037 20017 30129 40206 54001 60002 80006 333 10103
21012
31012 55300 0//// 20000 3//// 60007 91004 91104 555 60000=
0000157500
717
SMRO45 YRBK 111800
AAXX 11181
15004 02597 81001 10024 20012 39869 40213 57012 60002 8457/ 333 10047
20004
31006 60007 91001 91101 555 60000=
15010 02697 51500 10031 20023 30052 40208 55008 60002 85500 333 10046
21029
31004 60007 91001 91103 555 60000=
15014 02697 83501 10040 20016 39978 40208 55009 60002 8457/ 333 10052
20007
31006 60007 91002 91103 555 60000=
15033 02497 81805 11052 21071 38173 48479 57006 60002 885// 333 11050
21082
3//// 42998 60007=
15044 06/// /1303 10042 20005 30007 40207 56009 60002 333 10075 21004
3////
55300 0//// 20000 3//// 60007 91106 555 60000=
15047 02997 80000 10020 20017 39773 40220 57011 60002 8807/ 333 10045
20000
32005 60007=
15063 02597 81402 10055 20010 39841 40204 57011 60002 8357/ 333 10079
20025
31009 60007 91003 91103 555 60000=
15083 02597 83401 10030 20013 39920 40210 56011 60002 8557/ 333 10043
21028
31005 55300 0//// 20000 3//// 60007 91002 91103 555 60000=
15085 02997 81601 10026 20015 39756 40210 57011 60002 8807/ 333 10048
21001
31006 60007 91002 91102 555 60000=
15099 01697 80000 10026 20005 39530 42803 57010 69922 70262 8557/ 333
10072
21012 31003 69927=
15119 01/90 92710 11020 21020 38105 48457 55022 69932 77174 333 11020
21070
3//// 42998 69927 91016 92722 96049 555 6////=
15140 NIL=
15143 06/// /0300 10034 20017 39693 40219 57006 60002 333 10070 21013
3////
55300 0//// 20000 3//// 60007 91101 555 60000=
15163 01396 72702 10016 20002 38642 48484 57006 69932 71082 87300 333
10030
21024 3/004 41998 69917=
0000144800
718
SMRO46 YRBK 111800
AAXX 11181
15336 02997 50000 10008 21003 30192 40198 5//// 60002 85050 333 10124
20007
30014 40/// 60007=
15337 02997 12605 10074 21007 30003 40211 52005 60002 80001 333 10107
20054
31015 60007 91006 91106 555 60000=
15387 02998 50000 10028 20028 30211 40215 53001 60002 80006 333 10098
20025
31011 60007=
15406 02997 02701 10024 20010 30165 40214 50002 60002 333 10094 21005
31014
60007 91001 555 60000=
15408 01996 72502 10028 21005 39943 40219 50005 60002 71011 80006 333
10076
21026 31011 55300 60007 91003 91103 555 60000=
15409 06/// /3004 10025 21019 30161 40212 52004 60002 333 10100 20003
3////
55300 0//// 20000 3//// 60007 91105 555 60000=
15428 02997 32802 10038 20017 30211 40215 52007 60002 80001 222//
06066 20000
333 10090 20024 30011 55300 00136 20000 3//// 60007 91003 91105 92417
555 60000=
15445 02997 00000 10044 20002 30106 40216 53003 60002 333 10097 20017
31013
60007=
15462 02997 62602 10040 2//// 30142 40232 52009 60002 80006 333 10100
20010
31012 60007 91003 555 60000=
15477 NIL=
15479 02997 02702 10048 21005 30070 40264 57007 60002 333 10124 20014
31013
60007 555 60000=
15499 02997 62504 10048 21015 30210 40220 52006 60002 80006 222//
06072 2////
333 10104 20026 30022 55300 60007 91007 91107 92427 555 60000=
15444 02998 72502 10013 21013 30152 40229 5//// 60002 80008 333 10093
21011
34010 60007 92600=
0000149100
719
SMCZ40 OKPR 111800
AAXX 11181
11406 01756 42104 10016 20009 39579 40176 52001 69902 710//
      84500
  333 10024 60005 84650
  555 395// 50026 60027 70030 80037 90051=
11457 01110 82506 10009 20008 38868 48466 52002 69912 76862
      887//
  333 10035 44006 69915 88703 91011 91116
  555 399// 50004 60012 70012 80024=
11464 12782 52510 10004 21003 39145 42750 57010 60002 85070
  333 10026 85350 91115
  555 395//=
11520 01782 72304 10053 20019 39787 40156 55011 69922 70262
      83570
  333 10068 60005 83650 85358
  555 379// 50028 60033 70034 80043 90052=
11546 07678 /2503 10071 20043 39685 40169 53002 6///2 72386
  333 10075 69925 81/36 88/48
  555 382// 50041 60042 70044 80053 90058=
11636 01564 71702 10027 20004 39482 42775 58007 69902 761//
      875//
  333 10042 69905 87628
  555 385// 50018 60026 70031 80042 90049=
11679 01570 79902 10043 21004 39668 40159 55012 60002 701//
      8352/
  333 10081 60005 83633 87459
  555 371// 50039 60040 70037 80047 90061=
11766 02468 62208 10004 21006 39259 42761 58009 60002 81138
  333 10025 60005 81812 83359 85270 91014 91113
  555 393// 50008 60013 70018 80037=
11774 01775 71504 10044 20010 39900 40175 58004 69902 721//
      8257/
  333 10066 69905 82656 87357
  555 378//=
11787 01286 72309 11029 21036 38625 48444 57007 69902 72271
      81572
  333 11016 44009 69905 81603 87350 91016 91115 93518
  555 395// 50005 60012 70009 80021=
0000011000
720
UANT01 CWAO 111808
ARP ACA849 5302N01933W 1808 F360 MS62 197/85 KT
CGHLM DDL XXW 111808 J19A
0000054600
721
SMAJ01 UBBB 111800
AAXX 11181
37575 42996 60502 10066 21043 39584 40171 54000 86050 333   10117=
37675 42995 43205 10061 21032 39518 40178 52035 84001 333   10015 
555   53006=
37735 42697 72908 10090 21067 39776 40150 52007 87209 333   10130=
37749 42998 01402 10014 21031 30044 40163 53011 333   10100 555   
53004=
37756 42997 00702 10007 21039 39260 40162 53038 333   10084=
37864 32697 63308 10073 20031 40153 52035 86500 333   10083 86640=
37985 42996 52001 10029 20005 30161 40146 53012 85040 333   10079=
0000079000
722
SMLT10 EYHM 111800
AAXX 11181
26509 11327 82306 10049 20044 30019 40028 57018 60032 76162 8872/ 333
10055 88507 91011 91112 555 53014=
26518 11360 82506 10035 20027 40034 57012 60032 76186 8872/ 333
10043 88509 91009 91111 555 53011=
26524 11466 82303 10045 20028 39894 40026 57012 69902 78082 883// 333
10046 88712 91007 91109 555 53009=
26531 11497 82303 10039 20037 40020 57011 69952 76176 8872/ 333
10039 86714 91007 91107 555 53012=
26629 11467 82305 10040 20022 39962 40057 57009 60012 76162 8872/ 333
10045 88713 91008 91110 555 53010=
26633 11470 82404 10040 20025 39909 40039 56009 69942 70262 886// 333
10041 88711 91006 91109 555 53009=
26730 11467 82303 10032 20022 39873 40065 57008 69952 75165 8802/ 333
10035 91006 91109 555 53009=
0000009400
723
UPCD01 FTTJ 111800
PPAA 61171 64700 55185 04011 77999=
PPAA 61171 64750 NIL=
0000038500
724
SSVX13 LFPW 111800
ZZYY 61691 11014 1800/ 144528 032861 6113/ 11119 40222 52005 22219
 00095 33300 88870 20000 30952 20011 30960 20013 30946 20016 30956
 20021 30944 20026 30948 20031 30952 20036 30944 20041 30940 20047
 30944 20052 30932 20057 30944 20062 30916 20067 30890 20072 30822
 20077 30784 20082 30788 444 20131 11014 1753/ 50101 80094 80042
 9/015=
0000014600
725
SMVD01 PANC 110000 RRR
BBXX
VRMD7 11004 99362 70379
41/97 43330 10180 20106 40180 52030 70111 83/9/
22224 04190 20407 80140=
00000000