0000086300
146
SMMX01 KWBC 111800
AAXX 11181
76423 32580 10000 10163 21026 38189 40238 58005 81400 91758 333
10183 20008 30/// 56900 58036 81630=
76585 32980 30000 10240 20192 30018 40177 50003 83030 91745 333
10250 20149 30/// 56/7/ 58028 83358=
76656 32875 63602 10200 20104 38533 40186 58005 86020 91750 333
10208 20100 30/// 56050 58020 86458=
76393 31920 20601 10266 20075 39623 40200 52004 70400 82020 91750
333 10278 20130 30/// 54305 56050 58077 91102 91401=
76654 31756 32001 10303 20141 30151 40155 52001 70544 83030 91750
333 10303 20222 30/// 56090 58006 83356=
76665 32964 00601 10202 20094 38133 40171 52003 91750 333 10215
20085 30/// 58021=
76751 06/// /1203 10289 20236 30151 40163 58014 60002 7//// 8////
91750 333 0//// 10291 20208 30/// 4//// 54/// 56/// 57/// 58001
60007 8//// 8//// 8//// 9//// 9//// 9//// 44=
0000031600
147
SMCN04 KWBC 111800 RRL
AAXX 11184
71497 45/// /0414 11214 21246 39739 40013 51009 6///1 333 11193
21214 7////=
71725 17/// /1707 10008 21006 39497 49908 58046 60051 7//4/ 333
10008 21076 70085=
71731 11/04 /1709 10027 20026 39452 49894 58052 60021 76154 333
10027 21049 44027 70188 90983=
0000086100
148
SMDR01 KWBC 111800
AAXX 11181
78458 21566 41207 10282 20225 40183 57026 70262 83230 333 10285
20188 31/// 56200 58001 69956 83820=
78460 21456 61606 10248 20219 40183 57020 76064 86500 333 10278
20186 31/// 56200 58000 69900 86618=
78467 21466 30906 10250 20222 40200 57014 70180 83200 333 10280
20185 31/// 56200 58033 60036 86815=
78479 31566 51305 10273 20216 40186 57024 70280 82206 333 10294
20224 30/// 56200 58005 82822 85080=
78482 32566 21308 10300 20209 40172 57024 82256 333 10300 20205
30/// 56000 58010 82822=
78485 21566 41703 10305 20232 40170 57035 70262 84200 333 10320
20197 31/// 56200 58010 60016 84820=
78486 31564 41502 10286 20224 40166 57035 70544 84901 333 10290
20220 30/// 56000 58001 81927 83828=
78488 32566 30905 10292 20205 40170 57030 83200 333 10290 20164
30/// 56000 58006 83822=
0000050300
149
SMMK01 KWBC 111800
AAXX 11181
13461 32670 60702 10097 20083 30227 40234 53001 83832 333 10166
81840 82656 92312 92428=
13463 32570 40901 10096 20076 30171 40231 52003 83830 333 10151=
13363 32970 12701 10028 20017 39306 48516 55005 81030 333 10135=
13459 32970 11101 10070 20070 39470 40230 52005 81030 333 10122
81399=
13462 32660 60101 10083 20068 30191 40231 53003 82539 333 10143
82640 84359=
13457 32970 50000 10079 20070 30221 40228 56002 85030 333 10166
85360=
0000038700
150
SMVS01 KWBC 111800
AAXX 11181
48848 11597 83201 10184 20177 30194 40202 57009 69901 70262 888//
333 58002 83895 88697=
48855 32597 70000 10210 20199 30188 40196 57011 83838 333 58006
82895 83399 97299=
48803 32497 80000 10162 20148 30111 40227 58003 888// 333 58012
84894 88696=
48852 32998 70000 10198 20194 30183 40193 57012 82038 333 58000
82399 87299=
0000011800
151
SMVS40 VNNN 111800
AAXX 11181
48863 32598 82901 10217 20206 30179 40190 58008 882// 333 58005 88895=
0000066100
152
UDAF01 FAPR 111813
AMDAR 1118
ASC AFZA48 2612S 02804E 111732 F134 PS025 226/021 TB0 S031 333 F/// VG011=
ASC AFZA48 2616S 02759E 111733 F156 MS027 208/011 TB0 S031 333 F/// VG011=
LVR AFZA48 2635S 02737E 111738 F241 MS187 294/030 TB0 S031 333 F/// VG010=
LVR AFZA48 2709S 02656E 111745 F332 MS384 305/056 TB0 S031 333 F/// VG009=
LVR AFZA48 2743S 02614E 111752 F380 MS492 286/060 TB0 S031 333 F/// VG010=
LVR AFZA48 2817S 02534E 111759 F380 MS495 289/053 TB0 S031 333 F/// VG011=
LVR AFZA48 2852S 02454E 111806 F381 MS527 288/023 TB0 S031 333 F/// VG011=
LVR AFZA48 2927S 02413E 111813 F380 MS535 258/028 TB0 S031 333 F/// VG010=
0000066100
153
UDAF01 FAPR 111812
AMDAR 1118
LVR AFZA60 1729S 01556E 111721 F360 MS452 056/017 TB0 S031 333 F/// VG000=
LVR AFZA60 1647S 01517E 111729 F360 MS458 059/021 TB0 S031 333 F/// VG000=
LVR AFZA60 1605S 01438E 111736 F360 MS456 065/021 TB0 S031 333 F/// VG000=
LVR AFZA60 1522S 01400E 111743 F360 MS456 064/019 TB0 S031 333 F/// VG000=
LVR AFZA60 1438S 01324E 111750 F370 MS485 077/023 TB0 S031 333 F/// VG000=
LVR AFZA60 1351S 01251E 111757 F380 MS515 087/023 TB0 S031 333 F/// VG000=
LVR AFZA60 1304S 01219E 111804 F380 MS514 094/033 TB0 S031 333 F/// VG000=
LVR AFZA60 1216S 01146E 111811 F380 MS520 086/034 TB0 S031 333 F/// VG000=
0000066100
154
UDAF01 FAPR 111811
AMDAR 1118
ASC AFZA49 2607S 02828E 111744 F134 PS022 228/019 TB0 S031 333 F/// VG011=
ASC AFZA49 2611S 02832E 111745 F156 MS025 243/011 TB0 S031 333 F/// VG010=
LVR AFZA49 2635S 02857E 111750 F245 MS200 301/030 TB0 S031 333 F/// VG009=
LVR AFZA49 2716S 02938E 111757 F330 MS382 291/054 TB0 S031 333 F/// VG009=
LVR AFZA49 2758S 03017E 111804 F314 MS345 292/060 TB0 S031 333 F/// VG010=
DES AFZA49 2837S 03047E 111810 F184 MS095 282/024 TB0 S031 333 F/// VG009=
DES AFZA49 2841S 03049E 111811 F173 MS065 279/022 TB0 S031 333 F/// VG009=
DES AFZA49 2844S 03051E 111812 F161 MS038 268/021 TB0 S031 333 F/// VG010=
0000013800
155
SMIL01 BIRK 111800 RRA
AAXX 11184
04030 32686 40905 11034 21070 40056 52017 83930 333 10002 21043 555 3//07 81935 83649=
0000014200
156
SMVS02 VNNN 111800
AAXX 11181
48840 11496 80704 10177 20168 30205 40211 58002 69901 75052 887// 333 58009 85794 88696 96150=
0000144800
157
SMIQ01 KWBC 111800
AAXX 11181
40604 12960 00000 10093 21020 40227 52011 60002 333 10175=
40621 11958 00000 10085 20064 40216 52007 60992 72160 333 10120=
40629 12960 02703 10078 20055 40235 52012 60002 333 10138=
40631 12960 00000 10094 20077 40223 51008 69962 333 10125=
40634 12960 02703 10076 20062 40212 52011 60002 333 10129=
40637 12960 00000 10084 20082 40195 52008 60092 333 10153=
40650 11540 72803 10104 20096 40206 52014 60002 71022 87800 333
10114 83830 85633=
40658 12960 00000 10075 20005 40203 52008 60002 333 10115=
40670 11550 63202 10090 20081 40218 52025 60002 71022 86200 333
10104 86825=
40676 12560 82805 10108 20074 40204 52012 60002 8552X 333 10122
85632 88460=
40680 11556 42802 10086 20068 40187 52017 60022 71000 83202 333
10115 83830=
40608 12960 02401 10062 20043 40218 52010 60002 333 10145=
40622 11558 42101 10050 20031 40188 54000 60012 71082 81230 333
10072 82822 83360=
40623 11560 30000 10051 20034 40223 54001 69902 83400 333 10100
83622=
40656 11556 60204 10092 20081 40207 52021 60002 71052 86500 333
10101 86630=
40665 12960 20000 10094 20085 40200 52015 60002 80001 333 10122
820//=
40672 11556 53202 10094 20083 40212 52023 69902 71052 85800 333
10115 82830 84632=
40691 11658 72103 10110 20090 40226 52016 69952 71000 84530 333
10150 84840 83360=
40674 11550 83003 10104 20092 40199 52017 69902 71062 888// 333
10128 84830 84632=
0000019000
158
UAUS31 KWBC 111812
ARP UAL317 4019N 09950W 1801 F340 TB LGT CHOP RM A319 OV HCT090050
    SMOOTH FL320=
ARP UAL1034 3253N 09654W 1809 F260 MS35 323/070KT TB MOD SK CLEAR=
0000008400
159
UAPA01 KWBC 111812
ARP ASA813 3536N 12556W 1805 F330 MS50 248/073KT=
0000011000
160
UANT01 CWAO 111811
ARP AFR010 5202N01608W 1811 F360 MS65 212/92 KT
FGZCL DDL BLY 111811 J19A
0000011100
161
UANT01 CWAO 111811
ARP BER7450 5043N04455W 1810 F390 MS58 292/58 KT
DALPE QXT AOW 111811 J01A
0000014600
162
SMVJ10 RUML 111800
BBXX
UCKZ  11181 99659 30950 41497 70811 11004 21014 49860
52024 72682 85330 22271 01002 2//// ICE   0/2/0=
0000004100
163
SMVD01 AMMC 111800
NIL

0000004100
164
SMVF01 AMMC 111800
NIL

0000032200
165
SMVJ01 AMMC 111800
BBXX
UCKZ 11181 99659 30950 41497 70811 11004 21014 49860 52024 72682
85330 22271 01002 2//// ICE 0/2/0=
FHZI 11174 99654 31400 46/// /1512 11011 21020 39912 49923 52012
22200 05018 86014=
FHZI 11164 99655 31401 46/// /1415 11009 21022 39908 49919 52009
22200 05017 86014=

00000000