0000070200
066
SXXX32 EUMS 111806 RRS
22E7E6D2
OT12 ID:ID-ROTE-11 DT:2014 01 11 18 04
:PRS /1 -10738 -10177 -10725 -10736 -10716 -10715 -10714 -10714 -10739 -10734 -10739 -10733 -10737 -10736 -10739 -10737 -10163 -10723 -10742 -10712 -10712 -10714 -10714 -10738 -126////10734 -10736 -10738 -10736 -10733
:PR2 /1 03314 03315 03329 03299 03300 03307 03300 03295 03311 03293 03290 03276 03289 03274 03266 03267 03272 03284 03283 03292 03270 03289 03277 03302 03265 03293 03272 03269 03254 03252
:RAD /1 04919 04917 04903 04911 04863 04899 04891 04911 04875 04887 04891 04891 04859 04879 04863 04891 04877 04863 04863 04875 04847 04883 04871 04855 04879 04871 04875 04875 04831 04903
:BAT 12.1V/
0000069800
067
SXXX32 EUMS 111806 RRQ
3601E29A
OT12 ID:DJ-BOUT-08 DT:2014 01 11 17 56
:RAD /1 02267 02263 02266 02264 02268 02268 02263 02269 02266 02265 02261 02267 02265 02254 02259 02259 02252 02249 02245 02239 02241 02244 02246 02238 02232 02250 02237 02240 02235 02235
:PR1 /1 02587 02586 02579 02579 02589 02579 02572 02585 02573 02573 02577 02577 02567 02572 02563 02560 02563 02558 02561 02562 02553 02552 02560 02559 02523 02545 02537 02560 02558 02554
:PR2 /1 00817 00831 00816 00807 00814 00808 00819 00824 00811 00820 00821 00811 00808 00813 00805 00791 00793 00793 00793 00792 00794 00795 00800 00781 00837 00797 00794 00791 00808 00796
:TM1 /15 259 259 259 259
:BAT 13.6V
0000070500
068
SXXX32 EUMS 111806 RRR
26F364EA

ST STHELENA
DT 11/01/14 11/01/14
TM 18:00:00 17:45:00
RD 10000 10000 10000 10000 10000 10000 10000 10000 10000 10000 10000 10000 10000 10000 10000 10000 10000 10000 10000 10000 10000 10000 10000 10000 10000 10000 10000 10000 10000 10000
P1 00595 00153 00844 00450 00587 00812 00510 00756 00593 00036 00664 00556 00330 00281 00451 00909 00709 00437 00388 00509 00035 00560 00591 00817 00835 00533 00487 00438 00951 00122
P2 00020 00020 00020 00019 00018 00020 00017 00018 00019 00020 00019 00019 00020 00017 00019 00020 00019 00020 00018 00021 00020 00017 00018 00017 00020 00019 00017 00017 00018 00015
T1 00.0 00.0
T2 22.6 22.6
VB 13.2
0000067200
069
SXXX32 EUMS 111807 RRT
32CC9580
OT12 ID:ID-ENGG-07 DT:2014 01 11 18 06
:PRS /1 01312 01307 01330 01315 01281 01306 01332 01323 01304 01312 01300 01303 01297 01304 01343 01312 01319 01333 01307 01341 01309 01312 01350 01322 01318 01322 01318 01329 01331 01327
:PR2 /1 04765 04766 04763 04733 04766 04775 04787 04769 04761 04769 04772 04797 04775 04787 04778 04779 04776 04800 04789 04799 04802 04787 04790 04761 04787 04800 04784 04789 04796 04803
:RAD /1 05629 05636 05637 05619 05617 05634 05626 05647 05635 05639 05637 05641 05628 05620 05661 05625 05638 05652 05645 05650 05634 05637 05653 05648 05642 05655 05644 05647 05639 05669
:BAT 12.3V/
0000029100
070
SXXX32 EUMS 111809 RRU
166AC436
OT12 ID:IC-COMI-10 DT:2014 01 11 18 08
:RAD /1 05331 05346 05331 05333 05348 05322 05316 05305 05341 05338 05346 05351 05332 05353 05340 05353 05343 05355 05339 05361 05341 05350 05370 05390 05352 05388 05374 05377 05378 05382
:BAT 13.0V
0000039600
071
SXXX32 EUMS 111809 RRV
16590056
:PRS 1 /1 2700 2703 2707 2710 2708 2707 2714 2709 2703 2701 2693 2686 :RAD 1 /1 6944 6947 6954 6954 6951 6951 6957 6955 6947 6944 6934 6931 6917 6908 6901 6895 6894 6890 :ENC 6 /6 5166 5126 5110 5117 5110 5092 5091 5097 5061 5031 :ENB 6 /6 5164 5123 5109 5116 5109 5091 5089 5094 5058 5030 :SW1 9 /60 0 :SW2 36 /60 0 :BAT 5 /6 12.4 :NAME 16590056
0000045200
072
SXXX32 EUMS 111809 RRW
224AD678
:PRS 2 /1 1789 1787 1785 1785 1784 1788 1796 1801 1804 1804 1801 1798 1800 1800 1805 1807 1806 1809 1808 1812 1817 1820 1822 1822 1822 1822 1823 1826 1826 1830 :RAD 4 /3 4610 4616 4623 4623 4630 4637 4642 4647 4649 4655 4659 4662 4667 4673 4680 4682 4689 4698 4705 4712 :ENC 4 /5 8138 8149 8150 8161 8170 8175 8188 8192 8203 8213 8218 8231 :SW1 9 /60 60 :SW2 39 /60 60 :BAT 14 /15 12.3 :NAME 224AD678 /
0000067200
073
SXXX32 EUMS 111810 RRX
366C76AC
OT12 ID:IR-CHAB-07 DT:2014 01 11 18 09
:RAD /1(///// ///// ///// /'/// ///// ///// ///// ///// ///// ///// ////' ///'/ ///// ///// ///// ///// ///'/ ///// /'/// '////(////' ///// ///// ///// ///// //+/' ///// ///// /'/// //////
:PR1 -1 02403 0240: 02496 02409 02403 82406(0239= 02375 02373 02381 82378(02381 02385 02/89 0:402 82394 02389 02306 02390 02376 02365 02371 023?2 02/75 02379 02378 02379 02387 02371 02375
:PR2(/1 01984 01988 01983 01912 01986 01976 01967 01954 019/6 01938 01935 81934 01938 01926 01935 01930 01943(01918 01923 01126 01917 81915 01929 01934 01925 01926 01932 01921 01992 01910
:BAT 11.4V
0000013800
074
UGHV20 DFFD 111800
PPBB 61171 65503 9023/ 05009 05008 61616 06006=
PPBB 61171 65510 90237 03011 03012 04010 61616 04006=
0000038200
075
SMYG21 LYBM 111800
AAXX 11181
13067 31996 22301 10048 20044 30070 40201 56004 71000 82030 333
10107=
13183 32970 21606 10110 20028 30102 40206 57002 80001 333 10130=
13279 32998 23601 10090 20030 30066 40213 51001 80001 333 10153=
13295 32998 00000 10047 20023 30151 40206 54000 333 10159=
13367 32998 32302 10048 20009 39021 48513 56001 80002 333 10105=
0000057800
076
SMYG22 LYBM 111800
AAXX 11181
13168 32998 32001 10074 20053 30098 40206 56002 82031 333 10166=
13174 32997 32003 10092 20056 30099 40200 55001 81032 333 10131=
13269 32997 02901 10070 20038 39989 40206 53007 333 10163=
13274 32998 01502 10098 20053 30047 40208 56002 333 10151=
13278 32997 02002 10059 20025 39991 40218 51002 333 10155=
13378 32998 02203 10005 21006 38299 48522 56001 333 10034 4/002=
13397 32998 00000 10011 21019 39691 40246 51003 333 10090=
13457 32970 50000 10079 20070 30221 40228 56002 85030 333 10166
85360=
13481 NIL=
0000132000
077
SMLJ21 LJLM 111800
AAXX 11181
14121 12770 72301 10105 20044 39923 40188 58001 60002 81538
  333 10140 553// 20000 30000 59010 81650 82363 87276 8/6// 90705 91102=
14015 11670 82702 10106 20049 39847 40204 52002 60002 70222 885//
  333 10111 31/// 553// 20000 30000 59003 88640 8/6// 90705 91104=
14106 11640 81200 10080 20078 30150 40219 53004 60002 71022 885//
  333 10086 553// 20001 30001 58012 88633 8/6// 90705 91100=
14105 11740 82201 10092 20086 30215 40219 53000 60002 71022 885//
  333 10099 553// 20000 30000 58008 88650 8/6// 90705 91103=
14026 11958 63304 10044 20032 39865 40190 53001 60002 71022 86070
  333 10066 553// 20000 30000 59018 90705 91105=
14023 12682 72904 10100 20043 39897 40190 53002 60002 81570
  333 10124 553// 20000 59013 81640 8/6// 90705 91109=
14031 11520 70401 10048 20048 39962 40192 55001 60002 710// 8327/
  333 10066 553// 20000 30000 59018 90705 91102=
14122 12975 72903 10093 20050 39996 40192 57004 60002 80007
  333 10126 59014 90705 91105=
14008 11589 73014 11001 21079 37486 47049 50002 60002 70222 83078
  333 10008 49200 553// 20000 30000 58003 90705 91123
  444 46196=
14112 46/// /2403 10076 20052 48///
  333 10096 90705 91106=
14024 46/// /2409 10055 20032 39095 48495 5/001
  333 10064 59008 90705 91116=
0000058300
078
SMLJ50 LJLM 111800
AAXX 11181
14118 12/70 71401 10094 29049 48/// 60002
  333 10121 31///=
14007 12670 43601 10016 20004 39211 48508 52006 60002 84500
  333 10061 30/// 55002 553// 20000 58003 90705 91101=
14120 12/// 83601 10132 20052 30007 40196 5/002 60002
  333 10146 553// 20000 59010 90705 91105=
14006 46/// ///// 48///=
14010 46/// /3201 10058 20038 39596 40207 5/003
  333 10097 553// 20000 59006 90705 91102=
14009 46/// ///// 48///=
14012 46/// ///// 48///=
14021 46/// /3101 10020 20011 48///
  333 10043 553// 20000 90705 91101=
0000011600
079
SMRE41 EUMS 111800
AAXX 11184
61976 16//////012 10274 20247 30133 40148 60192
 /333 10311 58008=
0000011400
080
SMRE41 EUMS 111800 RRA
AAXX 11184
61972 36/// /1606 10267 20217 30138 40145
  333 10317 58034=
0000324000
081
SAWD01 OEJD 111800
METAR DAAG 111800Z VRB02KT 8000 FEW026 BKN086 15/13 Q1020=
METAR DTTA 111800Z 00000KT 9999 FEW023 SCT100 14/09 Q1019 NOSIG=
METAR EBBR 111750Z 26005KT CAVOK 04/01 Q1022 NOSIG=
METAR EDDH 111750Z 26008KT 9999 FEW019 04/03 Q1010 TEMPO 29015G30KT=
METAR EFHK 111750Z 04008KT 9999 -SN FEW008 BKN022 M05/M06 Q0999
NOSIG=
METAR EGLL 111750Z 30003KT CAVOK 06/01 Q1023 NOSIG=
METAR EHAM 111755Z 30010KT 270V330 9999 FEW025 06/02 Q1019 NOSIG=
METAR EIDW 111800Z VRB03KT CAVOK M00/M01 Q1020 NOSIG=
METAR EKCH 111750Z 28010KT 9999 FEW011 BKN078 05/04 Q1003 NOSIG=
METAR ELLX 111750Z VRB04G16KT 9999 SCT012 06/05 Q1020 NOSIG=
METAR ENFB 111750Z AUTO 29019KT 8000NDV -SHRA BKN017/// BKN044///
           04/03 Q0998 W///S5=
METAR EPWA 111800Z 23010KT 9999 BKN043 05/01 Q1010 NOSIG=
METAR ESSA 111750Z 02009KT CAVOK M04/M05 Q1001 R01L/610267
R08/610262 R01R/////// NOSIG=
METAR ETBS 111800Z NIL=
METAR GMME 111800Z 03002KT 6000 SCT020 15/12 Q1019 NOSIG=
METAR GQNN 111800Z 33010KT 8000 NSC 21/14 Q1013 NOSIG=
METAR HAAS 111800Z NIL=
METAR HCMM 111800Z NIL=
METAR HECA 111800Z 00000KT 6000 NSC 16/07 Q1026 NOSIG=
METAR HLLT 111750Z
09006KT CAVOK 16/09 Q1022=
METAR HSSS 111800Z 36011KT CAVOK 21/M02 Q1019 NOSIG=
METAR KBOS 111754Z 20022G31KT 7SM OVC013 13/12 A2971=
METAR KIAD 111752Z 21004KT 1/4SM R01R/5500VP6000FT -RA FG OVC002 06/06
     A2960=
METAR KJFH 111800Z NIL=
METAR KWBS 111800Z NIL=
METAR LEMD 111800Z 22003KT CAVOK 11/05 Q1019 NOSIG=
METAR LFPO 111800Z 28002KT 9999 MIFG NSC 04/03 Q1023 NOSIG=
METAR LGAV 111750Z VRB01KT 9999 FEW020 BKN180 10/08 Q1023 NOSIG=
METAR LIRF 111750Z 09002KT CAVOK 11/09 Q1022 NOSIG=
METAR LOWW 111750Z 14002KT 4000 BR FEW050 SCT080 03/03 Q1017 TEMPO
2000 BCFG=
METAR LSGG 111750Z 00000KT CAVOK 07/05 Q1022 NOSIG=
METAR LTAC 111750Z 22003KT 4800 BR BKN009 M01/M02 Q1024 NOSIG=
METAR OAKB 111750Z 35002KT 3000 HZ NSC M02/M10 Q1027 NOSIG RMK YLO YLO=
METAR OBBI 111800Z 26007KT CAVOK 17/13 Q1021 NOSIG=
METAR OJAM 111800Z 28006KT 5000 HZ SCT025 08/05 Q1025 NOSIG=
METAR OKBK 111800Z 30008KT CAVOK 12/08 Q1021 NOSIG=
METAR OLBA 111800Z 11005KT 8000 FEW080 14/02 Q1026 NOSIG=
METAR OMAA 111800Z 36007KT 9000 NSC 18/16 Q1021 A3015 NOSIG=
METAR OOMS 111750Z VRB02KT 9999 FEW030 SCT100 BKN200 19/09 Q1021
NOSIG=
METAR OPKC 111755Z 35003KT 7000 NSC 12/M03 Q1022 NOSIG=
METAR OPRN 111800Z 00000KT 4000 HZ FEW100 07/02 Q1023.2/30.21=
METAR ORBB 111800Z NIL=
METAR OSDI 111800Z 24008KT CAVOK 07/02 Q1023=
METAR OTBD 111800Z VRB01KT 9999 FEW020 BKN120 17/13 Q1021 NOSIG=
METAR OYAA 111800Z 13007KT 9999 SCT020 25/19 Q1017 NOSIG=
METAR OYSN 111800Z 28003KT 9999 SCT030 16/05 Q1028=
METAR RKSS 111800Z 16003KT 9999 SCT040 M02/M09 Q1028 NOSIG=
METAR UUEE 111800Z NIL=
METAR VCBI 111810Z 04010KT 9999 SCT016 BKN030 26/21 Q1013 NOSIG=
METAR VGZR 111800Z NIL=
METAR VHHH 111800Z 07005KT CAVOK 17/11 Q1023 NOSIG=
METAR VIDP 111800Z 23006KT 0800 R28/P2000 R29/P2000 MIFG NSC 10/09
      Q1021 NOSIG=
METAR WIIH 111800Z NIL=
METAR WMKK 111800Z 03007KT 9999 FEW017CB SCT140 BKN280 26/22 Q1010
NOSIG=
METAR WSSS 111800Z 01006KT 310V060 9999 FEW015 BKN300 25/23 Q1011
NOSIG=
0000102700
082
SAAR20 OEJD 111800
METAR OBBI 111800Z 26007KT CAVOK 17/13 Q1021 NOSIG=
METAR OKBK 111800Z 30008KT CAVOK 12/08 Q1021 NOSIG=
METAR OMAA 111800Z 36007KT 9000 NSC 18/16 Q1021 A3015 NOSIG=
METAR OMAD 111800Z 36006KT 9999 -RA FEW015 18/15 Q1021 A3016 NOSIG=
METAR OMAL 111800Z 03005KT CAVOK 18/12 Q1021 A3017 NOSIG=
METAR OMDB 111800Z 03004KT 350V090 CAVOK 18/14 Q1021 NOSIG=
METAR OMFJ 111800Z 28002KT 9999 -RA BKN020 19/14 Q1020 A3014=
METAR OMRK 111800Z 09006KT 8000 - RA SCT040 Q1021 A3018=
METAR OMSJ 111800Z 34002KT 9999 -RA FEW030 17/16 Q1021=
METAR OOBR 111800Z NIL=
METAR OOKB 111800Z NIL=
METAR OOMS 111750Z VRB02KT 9999 FEW030 SCT100 BKN200 19/09 Q1021
NOSIG=
METAR OOSA 111750Z 10009KT 9999 BKN025 23/15 Q1019
NOSIG  03=
METAR OOSH 111800Z NIL=
METAR OOSQ 111800Z NIL=
METAR OOSR 111800Z NIL=
METAR OOTH 111800Z NIL=
METAR OOYB 111800Z NIL=
METAR OTBD 111800Z VRB01KT 9999 FEW020 BKN120 17/13 Q1021 NOSIG=
METAR OYAA 111800Z 13007KT 9999 SCT020 25/19 Q1017 NOSIG=
0000009000
083
SAAR20 OEJD 111800 RRA
METAR OYSN 111800Z 28003KT 9999 SCT030 16/05 Q1028=
0000040600
084
SAME31 OEJD 111800
METAR OJAI 111800Z 00000KT 6000 HZ SCT030 07/06 Q1026 NOSIG=
METAR OJAM 111800Z 28006KT 5000 HZ SCT025 08/05 Q1025 NOSIG=
METAR OJAQ 111800Z 35004KT 9999 BKN030 16/09 Q1024 NOSIG=
METAR OLBA 111800Z 11005KT 8000 FEW080 14/02 Q1026 NOSIG=
METAR OSAP 111800Z NIL=
METAR OSDI 111800Z 24008KT CAVOK 07/02 Q1023=
METAR OSLK 111800Z 12002KT 9999 SCT030 11/07 Q1023=
0000159800
085
SMOM10 OOMS 111800
AAXX 11184
41241 06/// /3510 10177 20148 30181 40219 69961
333 0E020 10220 59010 70006 =
41242 NIL=
41244 36/// /0204 10181 20103 39810 47995
333 0E019 10219 59008 =
41246 36/// /1403 10193 20123 30209 40213
333 0E020 10218 59021 =
41249 36/// /1601 10174 20082 39470 40158
333 0E016 10210 59010 =
41252 NIL=
41253 NIL=
41254 NIL=
41255 36/// /1402 10171 20062 39672 40235
333 0E018 10229 59003 =
41256 32560 71302 10185 20090 30208 40218 81531 333 10221 59015
81630 84360 85070=
41257 36/// /1004 10169 20091 39731 40225
333 0E017 10216 59012  =
41258 36/// /1107 10204 20107 30207 40211
333 0E/// 10212 59017 =
41259 NIL=
41262 NIL=
41263 36/// /2405 10188 20077 39609 40189
333 0E020 10231 59009 =
41265 36/// /0803 10160 20051 39614 40208
333 0E015 10235 59001 =
41267 36/// /0304 10196 20076 30205 40221
333 0E019 10218 59010  =
41268 NIL=
41270 NIL=
41272 NIL=
41275 NIL=
41276 36/// /1009 10164 20094 30056 40217
333 0E018 10249 59000 =
41280 26/// /0000 10172 20103 30089 40232
333 0E015 10224 59014 70000 =
41287 36/// /0706 10167 20093 30169 40209
333 0E019 10247 59001 =
41288 36/// /0714 10203 20127 30192 40215
333 0E021 10244 59002 =
41291 NIL=
41293 NIL=
41295 36/// /0706 10164 20111 30025 40211
333 0E019 10241 58003 =
41304 NIL=
41314 32660 11305 10192 20125 39693 40201 81500
  333 10258 58001 81630 =
41315 36/// /1806 10147 20130 39198 42835
333 0E/// 10216 59001  =
41316 32560 51009 10230 20151 30165 40192 85500
  333 10268 58000 85625 =
00000000