0000011200
806
SIRS22 RUMS 111500 CCA
AAXX 11151
27823 41999 82603 10006 21016 39707 49963 52021 70272 86071=
0000144800
807
SMIQ01 ORBI 111800
AAXX 11181
40650 11540 72803 10104 20096 40206 52014 60002 71022 87800 333 10114
83830 85633=
40604 12960 00000 10093 21020 40227 52011 60002 333 10175=
40608 12960 02401 10062 20043 40218 52010 60002 333 10145=
40621 11958 00000 10085 20064 40216 52007 60992 72160 333 10120=
40622 11558 42101 10050 20031 40188 54000 60012 71082 81230 333 10072
82822 83360=
40623 11560 30000 10051 20034 40223 54001 69902 83400 333 10100
83622=
40629 12960 02703 10078 20055 40235 52012 60002 333 10138=
40631 12960 00000 10094 20077 40223 51008 69962 333 10125=
40634 12960 02703 10076 20062 40212 52011 60002 333 10129=
40637 12960 00000 10084 20082 40195 52008 60092 333 10153=
40656 11556 60204 10092 20081 40207 52021 60002 71052 86500 333 10101
86630=
40658 12960 00000 10075 20005 40203 52008 60002 333 10115=
40665 12960 20000 10094 20085 40200 52015 60002 80001 333 10122
820//=
40670 11550 63202 10090 20081 40218 52025 60002 71022 86200 333 10104
86825=
40672 11556 53202 10094 20083 40212 52023 69902 71052 85800 333 10115
82830 84632=
40674 11550 83003 10104 20092 40199 52017 69902 71062 888// 333 10128
84830 84632=
40676 12560 82805 10108 20074 40204 52012 60002 8552X 333 10122 85632
88460=
40680 11556 42802 10086 20068 40187 52017 60022 71000 83202 333 10115
83830=
40691 11658 72103 10110 20090 40226 52016 69952 71000 84530 333 10150
84840 83360=
0000250300
808
SMKO03 RKSL 111800
AAXX 11184
47090 32568 43401 10009 21088 30240 40263 50003 83501 333 92011=
47095 31562 62302 11038 21096 30089 40287 55008 77072 86500=
47097 329// /0000 11053 21116 30193 40294 55003=
47098 329// /1602 11056 21102 30144 40286 55005=
47099 329// /0000 11069 21102 30250 40289 55004=
47100 32461 22708 11062 21106 39318 40276 57005 82500=
47102 31659 22911 10019 21077 30102 40284 57005 70511 82500=
47104 32663 31806 11015 21113 30168 40269 50001 83500=
47106 329// /2703 10002 21115 30221 40272 53001=
47112 32660 62305 11004 21048 30196 40283 56008 86500 333 92012=
47114 32660 50001 11058 21093 30101 40294 56002 85500=
47119 32660 51401 11041 21099 30248 40292 55004 85500=
47121 329// /0000 11070 21117 39987 40298 54000=
47127 329// /1103 11039 21099 30148 40297 55001=
47129 31650 60000 11022 21027 30258 40295 57005 71022 86500=
47130 32962 22704 10003 21105 30208 40272 50002 80001 333 92022=
47131 31657 62302 11001 21061 30221 40294 55003 70522 85500=
47135 329// /2906 11006 21078 39981 40290 57006=
47136 31657 40000 11043 21093 30109 40290 55002 70511 81501=
47137 329// /2504 10002 21077 30167 40289 55005=
47140 31657 60000 11017 21035 30266 40296 58002 71022 86500 333
92021=
47143 329// /3202 11012 21077 30215 40297 55002=
47145 32662 60001 11018 21071 30258 40285 57002 86500=
47146 31658 61601 11020 21067 30231 40300 56002 70522 86500=
47150 31650 60202 11004 21039 30271 40291 57005 71022 86500=
47152 31957 02902 11007 21068 30237 40281 55002 70500=
47154 329// /0501 11032 21070 30227 40290 57006=
47155 32960 03202 10004 21080 30239 40286 55002=
47156 32670 42302 11008 21048 30207 40300 57006 84500=
47157 31950 22501 11079 21107 30005 40299 54000 71000 80001=
47162 32960 00000 11003 21062 30245 40287 54000 333 92020=
47169 32665 63209 10048 21030 30200 40296 56004 86500 333 92033=
47170 32965 22704 10006 21060 30252 40297 56003 80001 333 92022=
47171 329// /1101 11007 21068 30239 40296 57006=
47172 329// /0001 11008 21039 30221 40290 57008=
47173 329// /0203 11044 21070 30131 40296 57002=
47174 32662 23203 11019 21068 30081 40292 56007 82500=
47175 32565 43209 11010 21041 39704 40298 56005 84500 333 92023=
47185 32665 23212 10050 21021 30197 40290 57009 82500 333 92024=
47188 32970 02906 10025 21024 30264 40286 57008 333 92022=
47189 32970 03603 10032 21017 30220 40282 57006 333 92021=
47192 31956 00000 11070 21082 30255 40295 51001 71000=
0000013000
809
SMNO02 ENMI 111800 RRB
AAXX 11181
01218 16/// /1702 11046 21129 39997 40019 52008 60002 333 11032
      91107=
0000011000
810
UANT99 KDDL 111808
ARP VIR18Z 5500N01600W 1808 F370 MS64 230/72 KT
GVSXY DDL XXF 111808 J56A
0000022100
811
SMVS01 VNNN 111800
AAXX 11181
48855 32597 70000 10210 20199 30188 40196 57011 83838 333 58006 82895 83399 97299=
48848 11597 83201 10184 20177 30194 40202 57009 69901 70262 888// 333 58002 83895 88697=
0000030600
812
SMRH10 LDZM 111800
AAXX 11181
14240 11915 50000 10058 20056 30036 40193 57006 60002 71022 82031
  333 10091=
14258 12970 51401 10077 20069 30011 40200 56/// 60002 85030
  333 10150=
14445 12670 61202 10132 20098 30073 40227 52004 60002 83532
  333 10150 83696 82399 81099 92311=
0000037100
813
SMTG01 DXXX 111800
AAXX 11184
65352 31908 70404 10325 20050 3//// 4//// 70544 80002
  333 10352 5//// 87076=
65361 32958 70000 10300 20104 3//// 4//// 80002
  333 10350 5//// 87076=
65376 32958 71004 10320 20184 39640 40096 82032
  333 10343 58009 87363 87076=
65387 32460 71808 10184 20256 30061 40079 81502
  333 10/// 59002 81613 87073=
0000003800
814
SAUK53 EGRR 111800
NIL
0000125000
815
SREW41 EGRR 111800
03002000 03005000 03008002 03017OTR 03026002 03031000 03034000
03037000 03044004 03047000 03062000 03063OTR 03066000 03068000
03075002 03080000 03088000 03091000 03100000 03105000 03111000
03132000 03134000 03136000 03144000 03153000 03155000 03158000
03162000 03166000 03171000 03204000 03210000 03212000 03214000
03220000 03224000 03225000 03226000 03230000 03238000 03240000
03257000 03261000 03265000 03266000 03275000 03281000 03292000
03301000 03302000 03305000 03313000 03316000 03318000 03321000
03330000 03344000 03346000 03351000 03354000 03373000 03377000
03379000 03382000 03391000 03392000 03405000 03409000 03410000
03414000 03462000 03469000 03482000 03488000 03502OTR 03503000
03520000 03522000 03529000 03535000 03544000 03560000 03590000
03604000 03605000 03609000 03628000 03647000 03649000 03658000
03660000 03672000 03684000 03693000 03707000 03710000 03716000
03740000 03743000 03746000 03749000 03761000 03768000 03769000
03770000 03772000 03781000 03797000 03803000 03808000 03809000
03823000 03827000 03839000 03840000 03853000 03857000 03862000
03866000 03872000 03876000 03882000 03901000 03904000 03907000
03911999 03915000 03916000 03917000 03923000=
0000114100
816
SAUK63 EGRR 111750 RRB
METAR EGDM 111750Z AUTO 29003KT 9999 NCD 03/01 Q1022=
METAR EGDX 111750Z AUTO 07003KT 9999 NCD 02/01 Q1022=
METAR EGDY 111750Z AUTO 17002KT 9999 NCD 01/00 Q1023=
METAR EGOM 111750Z AUTO 24004KT 0350 FG BKN001/// 01/01 Q1018=
METAR EGOP 111750Z AUTO 15006KT 9999 // NCD 03/02 Q1022=
METAR EGOS 111750Z AUTO 23003KT 9999 NCD 03/00 Q1021=
METAR EGOV 111750Z AUTO 22006KT 9999 NCD 05/01 Q1021=
METAR EGQK 111750Z AUTO 23012KT 9999 NCD 03/M00 Q1014=
METAR EGUB 111750Z AUTO 10003KT 9999 // NCD M00/M01 Q1023=
METAR EGUW 111750Z AUTO 27007KT 9999 NCD 02/00 Q1021=
METAR EGVP 111750Z AUTO 33003KT 9999 // NCD 05/01 Q1022=
METAR EGXD 111750Z AUTO 26009KT 9999 // NCD 04/00 Q1020=
METAR EGXE 111750Z AUTO 25010KT 9999 NCD 03/M01 Q1019=
METAR EGXP 111750Z AUTO 25008KT 9999 // NCD 01/M01 Q1021=
METAR EGXS 111750Z AUTO 24009KT 9999 // NCD 03/01 Q1020=
METAR EGXU 111750Z AUTO 22003KT 9999 // NCD 03/M01 Q1020=
METAR EGXZ 111750Z AUTO 26001KT 9999 NCD 03/M02 Q1020=
METAR EGYD 111750Z AUTO 26006KT 9999 // NCD 02/M00 Q1021=
METAR EGYM 111750Z AUTO 26007KT 9999 NCD 01/00 Q1021=
0000012000
817
SMTH02 VTBB 111800 RRA
AAXX 11184
48455 32960 30000 10242 20194 30143 40148 57005 80005
  333 58002=
0000048600
818
SMBO04 SLLP 111800
AAXX 11184
85223 31570 20000 10270 20065 37495 47149 57005 70410 82201
333 56000 58011 82827=
85283 32584 30107 10222 20100 37205 47140 57010 83100
333 56100 58031 83823=
85345 32584 23606 10370 20238 39599 40001 57017 82101
333 56000 58020 82823 82070=
85364 32570 61810 10256 20161 38140 48233 57004 82308
333 56400 58034 81830 81933 87270=
85365 32584 61805 10237 20236 39346 40088 57012 84306
333 56000 58032 84823 81927 86070=
0000011600
819
SMIN90 VECC 111800
AAXX 11184
42503 31593 60000 10154 20136 40179 74244 83530
  333 56690 58008=
0000028300
820
WSBZ22 SBBS 111810
SBBS SIGMET 11 VALID 111815/112215 SBBS - SBBS
BRASILIA FIR EMBD TS F
CST
 WI S1044 W05138 - S1623 W05111 - S2000 W05113 - S1924 W05138 -
S1631
 W05307 - S1424 W05340 - S1252 W05333 - S1208 W05305 - S1044
W05138 T
OP FL400 STNR INTSF=
0000016200
821
SMLC01 TLPC 111806
AAXX 11184
78947 11578 60816 10275 20215 30159 40162 60021 70581 86401
333 05209 10284 20222 58016 70050 82824 85838 90964=
0000010800
822
SMMC01 GMMC 111800 RRA
AAXX 11184
60155 32960 03202 10166 20137 40184 53007
  333 10198=
0000014600
823
SMSC01 FSIA 111800
AAXX 11184
63980 11475 70000 10244 20229 40143 60792 70298 8293/
  333 10291 58010 81914 86358 943// 91116=
0000027000
824
SXHW11 KWAL 111810
B159741A 011181053 
DY DH PC VB
14/01/11 18:00 25.52
14/01/11 17:45 25.52
14/01/11 17:30 25.52
14/01/11 17:15 25.52
14/01/11 17:00 25.52
14/01/11 16:45 25.52
14/01/11 16:30 25.52
14/01/11 16:15 25.52 12.3 40+0NN  16W
0000027800
825
SMNO23 ENMI 111800 RRA
AAXX 11181
01180 16/// /1504 11060 21128 30114 40174 54001 60002 333 11059
      91108=
01411 16/// ///// 10035 20014 30011 40039 53034 6//// 333 10065=
01442 16/// /3001 10013 21012 39749 40007 53012 60002 333 10054
      91106=
00000000