0000020900
526
SMFA40 EKMI 111800
AAXX 11184
06005 NIL =
06009 47/79 /2714 10046 20003 39960 40086 52030 70064
  333 10055 20026 91141 =
06012 46/// ///// 10030 30002 40071 52043
  333 10055 20017 =
0000022000
527
SMVB01 LFPW 111800
BBXX
CQIV 11184 99242 11184 415// 60318 10160 20078 40250 54000 70211
86/1/
22200 04140 20503 80115=
BATFR10 11184 99256 11246 46/// /1818 10207 20132 40228 58009
22213 04240=
0000179000
528
SMVF01 LFPW 111800
BBXX
BAREU71 11184 99382 70163 46/// /2023 10159 29096 40121 57018
22263=
BAREU51 11184 99444 10089 46/// ///// 10136 29084 40226 52011
22271=
61002 11184 99421 10047 46/// /1107 10130 20058 40206 52008
22200 00130 10402 70008=
BAREU14 11184 99521 70057 46/// ///// 40213 52002
22244=
BATFR23 11184 99407 10071 46/// /1208 10145 20117 40207 53005
22234 00142=
BATFR16 11184 99464 70115 46/// /1826 10124 20077 40122 50006
22214 00130=
12050 11184 99336 10319 46/// ///// 40240 52004
22200=
BATFR12 11184 99486 70064 46/// /1315 10112 20082 40200 53002
22251 04149=
BATFR62 11184 99498 70008 46/// /1502 10084 20020 40231 52007
22252 04125=
BATFR44 11184 99477 70034 46/// /0903 10084 20070 40228 52015
22200 04082=
BATFR34 11184 99473 70060 46/// /1412 10114 20085 40200 53005
22251 04134=
BATFR22 11184 99414 10094 46/// /1316 10142 20107 40210 50001
22244 04150=
BATFR03 11184 99499 70005 46/// /2006 10084 20022 40238 51019
22244=
BATFR54 11184 99468 70025 46/// /0311 10092 20079 40224 51012
22242 04107=
BATFR09 11184 99383 70100 46/// /1809 10137 20097 40185 52007
22242 04175=
BATFR52 11184 99501 70006 46/// /2807 10084 20019 40235 51009
22285 04112=
BATFR46 11184 99429 10047 46/// /1006 10139 20104 40214 53002
22253 04147=
BATFR61 11184 99472 70060 46/// /1613 10117 20092 40199 53003
22282 04125=
BATEU08 11184 99639 70244 46/// /1208 29053 40037 51005
22263=
A8UO3 11184 99442 70179 41397 72221 10132 20107 40000 54000 76162
87700
22214 04118 20504 320// 41007 80118=
BATUK01 11184 99577 70062 43/// /2509 10052 20004 40154 53017
22271 04094=
PENR 11184 99358 70286 41598 63030 10140 20038 49121 51/// 70222
84541
22254 20605 332// 41008 5//// 80120=
0000018500
529
SMVJ01 LFPW 111800
BBXX
BATEU00 11184 99694 30275 46/// /1107 11008 21016 49924
22241=
OSCFR05 11184 99611 50549 46/// /2911 10002 21046 49999 56006
22200 04005=
0000103500
530
SMRH50 LDZM 111800
AAXX 11181
14235 12760 8//// 10051 20005 39032 48486 57007 60002 8807/
  333 10055=
14246 11975 72001 10102 20045 39978 40179 56/// 60002 700// 82031
  333 10106=
14314 12965 41902 10117 20108 30154 40218 54/// 60002 82012
  333 10151 92311 92417=
14323 11670 81101 10132 20105 30180 40213 54/// 60002 702// 885//
  333 10138 92311 92418=
14324 11/00 92704 10010 20010 38421 48523 56/// 60002 745//
  333 10022 41998=
14328 12670 73202 10122 20071 39798 40188 52/// 60002 82570
  333 10137=
14330 12660 71802 10096 20071 39548 40215 54/// 60002 87500
  333 10122=
14370 11920 60000 10058 20054 30083 40194 58003 60002 71020 86030
  333 10150=
14438 11680 71001 10127 20096 30127 40218 55/// 60002 701// 84802
  333 10142 923//=
14443 32697 616// 10123 20100 30131 40224 54001 86136
  333 10146 92301=
14447 12982 01002 10124 20087 30188 40219 53/// 60002
  333 10165 92311=
14472 12670 51202 10141 20100 30165 40229 58004 60002 85200
  333 10177 92312=
0000013800
531
SMRH50 LDZM 111800 CCA
AAXX 11181
14438 11680 71001 10127 20096 30127 40218 55/// 60002 701// 84802
  333 10142 923//=
0000011600
532
SMRH75 LDZM 111800
AAXX 11181
14444 33770 63302 10109 20090 30201 40230 52001 83830
  333 10144=
0000011000
533
UANT01 CWAO 111816
ARP BAW173 5115N04301W 1816 F380 MS57 283/51 KT
GZZZC QXT AOW 111816 F28A
0000011000
534
UANT01 CWAO 111817
ARP VIR11B 5338N03453W 1816 F380 MS56 261/30 KT
GVKSS DDL XXF 111817 J36A
0000014000
535
SMZA20 FAPR 111200 CCA
AAXX 11124
68329 36/// /2008 10358 20036 39095 48556 58011
      333 10367 20163 91016 555 91017=
0000011000
536
UANT01 CWAO 111816
ARP VIR23J 5953N02544W 1816 F320 MS60 214/77 KT
GVFIZ DDL KEF 111816 J28A
0000015800
537
SMVD01 PANC 111200 RRP
BBXX
VRMD7 11124 99362 70333
41597 43126 10135 20005 40200 52020 70311 844//
22224 04190 20808 332// 41208 80080=
0000166600
538
SMVD01 PANC 111800 RRC
BBXX
C6WK7 11184 99376 10242
41798 41010 10135 2//// 40230 54/// 7//11 84/9/
22214 00160 20201 305// 40201 5//// 6//// 8//// ICE /////=
WDJK 11184 99377 71586
41498 81915 10130 20112 40294 57013 70311 885//
22283 00140 20201 329// 41006 5//// 6//// 80120 ICE /////=
WDB7815 11183 99565 71427
41398 32717 10044 20040 49919 53005 70211 81262
22233 00056 20201 32730 40804 5//// 6//// 80042 ICE /////=
KGTX 11184 99540 71581
41497 72628 10057 20031 49829 53006 70252 875//
22224 00051 20404 315// 40505 5//// 6//// 80045 ICE /////=
C6DM2 11184 99055 11001
41597 60318 10260 20232 40100 56010 70211 8589/
22200 0//// 2//// 3//// 4//// 5//// 6//// 80240 ICE /////=
VRKF5 11184 99317 10320
41598 70114 10160 20041 40250 51010 7//// 872//
22273 00220 20301 336// 40703 5//// 6//// 80100 ICE /////=
YJVM9 11184 99260 70920
41297 32312 10230 20216 40150 52020 7//11 830/8
22200 00219 20502 317// 40502 5//// 6//// 80220 ICE /////=
3FNX5 11183 99284 70881
41293 82827 10225 20210 40139 52002 70262 886//
22200 00230 20403 399// 40404 80215=
WJBJ 11183 99196 70694
41498 31119 10260 2022/ 40169 57021 70210 8236/
22263 00267 20504 309// 40405 5//// 6//// 80230 ICE /////=
WDD4207 11184 99241 70831
43998 01706 10256 2023/ 40175 57015 70200 80///
22233 00272 20201 309// 40501 5//// 6//// 80239 ICE /////=
WHED 11184 99365 70745
41697 61934 10167 20129 40100 5//// 78022 82/43
22243 0//// 2//// 317// 40909 5//// 6//// 80144 ICE /////=
KEY796 11184 99571 71703
41497 80605 10000 20000 49734 50000 72676 8672/
222// 00023 2//// 3//// 4//// 5//// 6//// 8//// ICE /////=
0000005700
539
UPNZ02 NZKL 111800
PPAA  1118/ 93844 NIL=
0000014200
540
SMRS11 RUMS 111800 CCA
AAXX 11181
22312 11575 80408 11112 21172 30100 40123 54001 60002 73632 885// 333
11111 91015 91116=
0000017100
541
SMPF01 NTAA 111800 RRA
AAXX 11184
91943 36/// /0710 10280 20227 30122 40125 51014
  333 10285 59005=
91945 36/// ///// 10256 20227 30150 40155 50010=
0000028300
542
SXHW11 KWAL 111820
B14036D2 011182013"
1,140111,17:15:00,3.1,229,5.4,0.0,1014.2,0.00,12.9,
1,140111,17:30:00,3.3,225,5.1,0.0,1014.3,0.00,12.9,
1,140111,17:45:00,2.5,242,5.7,0.0,1014.4,0.00,13.0,
1,140111,18:00:00,2.2,238,4.8,0.0,1014.4,0.00,13.0, 47-0NN  30W
0000125900
543
SMNR01 DRRN 111800
AAXX 11184
61017 32960 50000 10180 20048 39779 40119 80002
  333 10255 58002 85080=
61024 32960 11016 10217 21007 39603 40180 80002
  333 10268 58012 81080=
61036 31956 70000 10275 20033 39893 40133 70522 80008
  333 10313 58016 87280=
61043 31928 71012 10255 21037 39701 40150 70522 80008
  333 10290 58017 87280=
61045 31928 70802 10220 21030 39652 40137 7062/ 80008
  333 10270 58007 87280=
61049 32960 70804 10222 20002 39833 40160 80008
  333 10278 58005 87280=
61052 31930 30604 10282 20029 39876 40131 70600 80002
  333 10310 58009 83080=
61053 31920 70000 10283 21005 39/// 4//// 7062/ 80008
  333 10306 5//// 87280=
61075 31957 71202 10259 20035 39836 40145 70622 80008
  333 10300 58017 87280=
61080 31940 70000 10923 21015 39722 40147 70642 80008
  333 10276 58005 87280=
61085 32960 50804 10220 20068 39810 40242 80002
  333 10285 58010 85080=
61090 31948 73604 10237 21030 39639 40152 70622 80008
  333 10270 58008 87280=
61091 32960 70000 10224 20054 39701 40163 80008
  333 10270 58006 87280=
61096 32960 70802 10224 20040 39775 40163 80008
  333 10282 58008 87280=
61099 31935 70208 10295 20064 39881 40110 70622 80008
  333 10330 58009 87280=
?=
0000090200
544
SMIN90 VANP 111800
AAXX 11184
42867 31995 20504 10184 20131 40169 70511 82030
  333 58036 82360=
42933 32996 00000 10170 20127 40167
  333 58033=
42874 32996 00000 10222 20170 40155
  333 58018=
43041 32996 02302 10186 20160 39541 40168
  333 58011=
42693 22595 63602 10160 20150 39480 40180 84520
  333 58020 6002/ 84620 86458=
42779 21595 83605 10150 20133 39467 40184 74464 8552/
  333 58026 6003/ 85620 88458=
42675 31495 50000 10132 20117 40197 71044
  333 58055 85710=
42571 31992 40000 10118 20110 40199 74444 84030
  333 58050=
42361 31994 00000 10096 20084 40211 71044
  333 58045=
42754 31993 00000 10116 20097 39539 40202 71000
  333 58040=
42671 31995 00000 10106 20095 39558 40205 71000
  333 58045=
42559 32996 00000 10106 20095 39558 40205 71000
  333 58045=
42667 31995 00705 10130 20108 39592 40203 71044
  333 58046=
0000012000
545
SMIN90 VECC 111800 CCA
AAXX 11184
42503 31593 60000 10154 20136 40179 74244 83530
  333 56690 58008=
00000000