0000023600
946
SMIL41 BIRK 111800
AAXX 11184
04038 22461 50706 11064 21097 40059 52020 84531 333 11064 21098 69908 555 3/410 699//=
04053 22584 81809 11010 21017 40059 52024 886// 333 10006 21010 69918 555 3//11 88723=
04091 NIL=
0000021100
947
SMIL42 BIRK 111800
AAXX 11183
04073 21/10 92302 11023 21029 40046 52024 78554 333 11006 21025 69928 555 3//13=
04085 22686 81910 10012 21017 40025 52025 886// 333 10025 20008 69928 555 3//14=
0000088500
948
SMBW01 VGDC 111800
AAXX 11184
41859 31430 80000 10144 20120 30120 40160 70522 8562/
333 56699 58007 79999 82710 83618 88458=
41883 31330 83102 10160 20130 30151 40172 70522 8562/
333 5679/ 58012 70000 83709 85615 88458=
41891 31430 80302 10175 20150 30132 40172 70522 8532/
333 56999 58010 70000 85614 81930 88460=
41907 11310 82701 10156 20150 30144 40160 60035 70566
8672/ 333 56699 58006 70030 85710 88458=
41923 11430 60000 10188 20140 30156 40166 69904 76022
83670 333 56990 58003 79999 83615 86458=
41936 31916 00000 10166 20130 30161 40168 70500 333
58007 70000=
41943 31930 00000 10150 20140 30155 40163 70500 333
58005 70000=
41950 31935 00000 10146 20140 30163 40165 70510 333
58010 70000=
41978 31972 00000 10164 20150 30456 40163 70540 333
58012 70000=
41992 31925 00000 10145 20140 30151 40153 71000 333
58012 70000=
0000040000
949
SMCR01 GCLP 111800
AAXX 11184
60020 12575 71403 10184 20128 30145 40190 53006 60002 875//
  333 10208 92408=
60030 02875 11503 10191 20124 30131 40187 51006 60002 81101
  333 10205 60007 92417=
60040 02575 11602 10186 20109 30179 40203 52015 60002 81130
  333 10211 60007 92418=
60338 11359 72803 10146 20124 30134 40199 52015 60002 71022 84716
 333 10162 81708 92426=
0000192800
950
SZAU01 AMMC 111812
CREX++
T000103 A001 D01021 D06025++
-1927750 14705860 59260 2014 01 11 18 05 3022 11 07 00 01
01783 0162 01793 0162 01802 0161 01810 0159 01821 0159 01830 0158+
-2316110 15079000 59670 2014 01 11 18 05 2998 11 07 00 01
02897 0136 02916 0142 02923 0136 02938 0137 02948 0134 02957 0131+
-3447330 15091170 60420 2014 01 11 18 05 2945 11 07 00 01
01356 -0054 01357 -0056 01364 -0052 01365 -0053 01373 -0048 01380 -0043+
-4105000 14591500 60910 2014 01 11 18 05 2888 11 07 00 01
01479 -0093 01483 -0098 01486 -0106 01491 -0110 01511 -0099 01524 -0096+
-4254640 14793080 61170 2014 01 11 18 05 2903 11 07 00 01
01515 0017 01508 0009 01505 0005 01499 -0002 01498 -0004 01497 -0006+
-3834390 14161360 61410 2014 01 11 18 05 2908 11 07 00 01
00633 -0022 00647 -0007 00626 -0028 00660 0007 00640 -0012 00664 0013+
-3214890 13364170 62000 2014 01 11 18 05 2955 11 07 00 01
01063 0046 01059 0047 01053 0046 01049 0048 01043 0047 01037 0047+
-3387080 12189720 62080 2014 01 11 18 05 2948 11 07 00 01
00646 -0005 00652 0003 00653 0005 00654 0008 00648 0004 00630 -0013+
-3182560 11573860 62237 2014 01 11 18 05 2972 11 07 00 01
00526 0042 00528 0045 00543 0061 00531 0049 00527 0046 00514 0034+
-2422000 11339750 62385 2014 01 11 18 05 //// 11 07 00 01
00690 -0072 00656 -0106 00670 -0092 00683 -0079 00687 -0074 00651 -0110+
-2181670 11419110 62430 2014 01 11 18 05 //// 11 07 00 01
01201 -0097 01190 -0107 01185 -0112 01192 -0105 01191 -0105 01182 -0114+
-1800080 12221830 62650 2014 01 11 18 05 3043 11 07 00 01
04274 0117 04272 0116 04271 0111 04271 0113 04270 0108 04270 0109+
-1247190 13084580 63230 2014 01 11 18 05 3048 11 07 00 01
05048 -0021 05045 -0019 05040 -0018 05035 -0019 05031 -0018 05027 -0018+
-1386000 13641580 63511 2014 01 11 18 05 3042 11 07 00 01
01490 0116 01489 0117 01488 0118 01488 0120 01487 0121 01487 0124++
7777

0000034400
951
SZIO01 AMMC 111812
CREX++
T000103 A001 D01021 D06025++
-1211670 09689190 46280 2014 01 11 18 05 3020 11 07 00 01
00792 0016 00789 0012 00787 0009 00789 0010 00788 0008 00790 0009+
-1042940 10566940 46290 2014 01 11 18 05 //// 11 07 00 01
00691 0026 00668 0002 00662 -0005 00668 -0001 00652 -0017 00681 0010++
7777

0000179800
952
SZPS01 AMMC 111812
CREX++
T000103 A001 D01021 D06025++
-0204190 14737360 56130 2014 01 11 18 05 3023 11 07 00 01
00858 0114 00856 0110 00857 0110 00854 0106 00858 0108 00854 0103+
-0669280 15640860 56363 2014 01 11 18 05 //// 11 07 00 01
00591 -0050 00591 -0050 00589 -0051 00588 -0051 00590 -0049 00588 -0050+
-0942890 15995560 56670 2014 01 11 18 05 3037 11 07 00 01
00720 -0048 00724 -0046 00723 -0048 00722 -0050 00729 -0044 00729 -0045+
-1072080 16580190 57131 2014 01 11 18 05 //// 11 07 00 01
02588 1911 02822 2146 02878 2204 01479 0807 02587 1917 01806 1138+
-1551560 16718860 57210 2014 01 11 18 05 //// 11 07 00 01
00901 -0143 00882 -0160 00901 -0138 00892 -0145 00894 -0141 00899 -0133+
-1775690 16830030 57320 2014 01 11 18 05 3015 11 07 00 01
01073 -0042 01069 -0045 01065 -0048 01063 -0048 01064 -0046 01062 -0046+
-4397330 16861610 65180 2014 01 11 18 05 2880 11 07 00 01
02412 0697 02195 0474 02487 0761 02586 0855 02344 0607 02229 0487+
-2120470 -15978530 65980 2014 01 11 18 05 3008 11 07 00 01
00673 -0007 00675 -0003 00670 -0007 00706 0030 00671 -0003 00657 -0016+
-2113810 -17518140 66600 2014 01 11 18 05 //// 11 07 00 01
01263 0096 01258 0095 01250 0090 01254 0098 01246 0093 01248 0098+
-1382670 -17176110 66840 2014 01 11 18 05 3008 11 07 00 01
00799 0083 00795 0082 00788 0077 00788 0080 00780 0075 00782 0080+
-1813250 17842750 67050 2014 01 11 18 05 3030 11 07 00 01
01388 0083 01385 0084 01386 0088 01384 0090 01375 0084 01377 0089+
-1760530 17743810 67070 2014 01 11 18 05 3028 11 07 00 01
01458 0012 01451 0010 01445 0008 01440 0006 01435 0006 ///// ////+
-0850250 17919500 67440 2014 01 11 18 05 3027 11 07 00 01
01933 -0001 01928 -0002 01923 -0004 01920 -0003 01914 -0005 01908 -0008++
7777

0000046700
953
SZPA01 AMMC 111812
CREX++
T000103 A001 D01021 D06025++
0136250 17293000 67590 2014 01 11 18 05 3015 11 07 00 01
01512 0046 01514 0052 01511 0052 01499 0043 01503 0050 01497 0047+
0710610 17137250 67680 2014 01 11 18 05 3013 11 07 00 01
00875 0064 00879 0071 00875 0069 00868 0065 00869 0068 00870 0071+
0698060 15820000 67950 2014 01 11 18 05 3020 11 07 00 01
00669 0083 00669 0083 00671 0086 00666 0082 00666 0082 00661 0078++
7777

0000010800
954
UANT99 KDDL 111810
ARP THY7 5258N03031W 1810 F380 MS54 203/26 KT
TCJNK QXT AOE 111810 J31A
0000011000
955
UANT99 KDDL 111810
ARP UAL44 5547N03248W 1810 F370 MS59 189/34 KT
N19141 DDL IG1 111810 F93A
0000011000
956
UANT99 KDDL 111810
ARP DLH412 5105N02301W 1810 F380 MS50 193/62 KT
DAIHN QXT EUA 111810 J15A
0000012400
957
SMVS02 VNNN 111800
AAXX 11181
48852 32998 70000 10198 20194 30183 40193 57012 82038 333 58000 82399 87299=
0000100900
958
SMBO01 SLLP 111800 RRA
AAXX 11184
85032 12465 60210 10290 20236 39960 40121 57028 60021 84930
333 56110 58022 83817 81920 86358=
85043 31457 63612 10318 20238 39940 40099 57029 71522 86904
333 56800 58008 85817 81920 86070=
85104 31450 73212 10255 20226 39950 40111 57014 71792 85910
333 56770 58022 84615 81920 87458 96015=
85109 11457 81403 10226 20226 39951 40112 57018 60141 79592 8692/
333 56339 58020 85615 81920 88457=
85114 11320 80000 10240 20240 39960 40123 57014 60141 79522 8692/
333 56779 58024 85607 81923 88457=
85116 31458 63206 10273 20233 39932 40110 57023 71522 84904
333 56706 58025 83817 81923 86070=
85123 31558 70410 10286 20253 39939 40104 57021 71522 86903
333 56704 58019 85820 81923 86070=
85139 32465 63508 10324 20250 39870 40061 57025 86900
333 56700 58010 85817 81923=
85153 32465 63610 10304 20240 39930 40113 56012 86200
333 56700 58021 86817=
85154 32470 33209 10308 20238 39932 40109 57020 83200
333 56700 58014 83817=
0000038500
959
SMVS02 VNNN 111800
AAXX 11181
48802 11/91 90000 10062 20061 38437 48522 51002 69921 75154 333 58011 96045 96148 96150=
48803 32497 80000 10162 20148 30111 40227 58003 888// 333 58012 84894 88696=
48810 32497 80901 10156 20145 30016 40226 53007 888// 333 58023 83894 88696=
48831 11496 83202 10164 20157 30178 40217 58001 69901 71052 888// 333 58014 82894 88697=
0000011100
960
UANT99 KDDL 111810
ARP XLF1670 4714N02837W 1810 F380 MS46 232/44 KT
FGRSQ DDL XXN 111811 J71A
0000067800
961
SMBO02 SLLP 111800 RRA
AAXX 11184
85041 11265 70000 10250 20247 39840 40107 57023 60291 71586 82970
333 56770 58013 81606 81923 87358=
85140 32470 63408 10305 20229 39890 40097 57020 86200
333 56700 58010 86817=
85141 32470 43306 10310 20262 39855 40083 58026 84302
333 56707 58008 84817 81920 84070=
85151 NIL=
85152 32584 60000 10302 20236 39865 40093 57026 82204
333 56707 59005 82820 85070=
85201 32470 51014 10163 20026 36302 57009 84302
333 56000 58018 83817 81920 84070=
85230 NIL=
85242 32570 21111 10210 20032 36560 57006 82100
333 56200 58017 82820=
85332 32570 23608 10192 20065 36574 58015 81101
333 56000 58011 81827=
0000045900
962
SMUY01 SUMU 111800
AAXX 11184
86330 12598 81910 10262 20201 40135 54001 69931 8422/=
86360 32597 71816 10282 20168 40154 52008 83506=
86460 32498 61910 10264 20140 40152 51005 82456=
86490 32597 11610 10258 20108 40174 51009 81105=
86530 32598 41713 10258 20145 40155 51006 81176=
86545 32597 51822 10232 20145 40174 52013 84205=
86565 32497 72014 10202 20152 40159 52018 87400=
86580 32697 51615 10208 20082 40191 52023 81470=
0000107100
963
SMBO03 SLLP 111800
AAXX 11184
85175 32470 73405 10307 20236 39823 40117 57024 87900
333 56700 58016 86817 81930=
85195 32570 53410 10290 20236 39510 40110 57020 85200
333 56800 58025 85820=
85196 11480 73610 10265 20242 39559 40123 57014 60031 70262 87900
333 56800 58030 85815 82927=
85207 11558 63605 10254 20248 39645 40113 57019 60021 76022 86200
333 56800 58027 86820=
85210 32480 43610 10355 20210 39930 40136 57040 84100
333 56800 58000 84817=
85244 32570 63615 10315 20223 39663 40080 57030 86200
333 56700 58010 86825=
85245 32570 53214 10316 20232 39610 40076 57025 85200
333 56700 58016 85820=
85247 32480 43404 10330 20222 39799 40118 57021 84900
333 56700 58011 84817 81927=
85264 32580 43610 10239 20152 38035 57013 84900
333 56800 58020 83830 81933=
85268 32570 33508 10330 20235 39801 40124 57019 83200
333 56700 58021 83820=
85289 32580 50608 10330 20235 39925 40075 57032 85200
333 56100 58005 85820=
85315 31550 40905 10337 20224 39191 40051 57016 71710 84900
333 56800 58025 83833 81940=
0000042900
964
UDEU02 EGRR 111814
AMDAR 1117
LVR EU0172   4617N 00737E 111733 F360 MS620 257/059 TB/ S031=
LVR EU0172   4704N 00816E 111740 F360 MS612 269/041 TB/ S031=
LVR EU0172   4753N 00847E 111746 F360 MS627 264/055 TB/ S031=
LVR EU0172   4844N 00907E 111753 F360 MS597 275/067 TB/ S031=
LVR EU0172   4936N 00930E 111801 F360 MS570 259/068 TB/ S031=
LVR EU0172   5029N 00954E 111808 F360 MS520 275/072 TB/ S031=
0000011100
965
UANT01 CWAO 111810
ARP UAL971 6306N04626W 1810 F320 MS60 210/17 KT
N643UA DDL XXW 111810 F16A
00000000