0000225300
506
SMCN04 KWBC 111800 RRA
AAXX 11184
71703 11224 81410 11006 21007 39760 40059 57097 60071 76672 8807/
333 11005 21119 43035 70072 90942=
71747 17/// /3005 11033 21046 39499 49972 50001 69921 7//4/ 333
11033 21069 70002=
71808 12974 62803 11078 21119 30106 40154 56016 60001 81076 333
11075 21137 79999=
71833 45/// /1804 10053 20053 6///1 333 10056 21017 7////=
71837 15/// ///// 10057 60001 333 10073 21009 7////=
71839 15/// ///// 10061 60001 333 10064 21011 70000=
71874 15/// /2613 11316 21377 39968 49975 51003 60001 333 11245
21319 70000=
71885 15/// ///// 10046 60001 333 10062 21031 70000=
71909 15964 03406 11253 21306 30040 40085 53016 60001 333 11219
21288 7////=
71916 45/// ///// 11270 21299 39732 49788 56015 6///1 333 11267
21398 7////=
71980 45/// /0000 11231 21257 6///1 333 11231 21300 7////=
71213 17/// /1203 10007 20007 39588 49883 58042 60031 7//4/ 333
10009 21041 70036=
71216 17/// /3511 10037 20024 39301 49904 55009 60051 7//4/ 333
10040 20001 70172=
71233 15/// /1607 11031 21058 60001 333 11023 21099 70006=
71298 17/// /2511 10040 20037 39704 49931 56023 60021 7//4/ 333
10062 20012 7////=
71332 15/// /2414 11335 21376 39935 49966 50005 60001 333 11302
21339 70000=
71334 17/// /1605 11279 21309 39668 40014 58009 69951 7//4/ 333
11278 21348 70007=
71364 15/// /2205 11273 21303 39860 49998 58025 60001 333 11263
21293 70000=
71387 17/// /2204 10014 20009 39588 49957 58082 60081 7//4/ 333
10015 21072 70078=
71571 17/// /1106 11076 21083 38627 49798 55012 60021 7//4/ 333
11054 21081 70023=
71573 17/// /1906 10073 20067 39629 49904 58052 60021 7//4/ 333
10077 20012 70136=
71575 15/// /2704 11237 21268 30004 40071 53009 60001 333 11228
21246 70000=
71585 15/// /1008 11124 21136 60001 333 11124 21210 70002=
71589 15/// /2508 11021 21093 30042 40177 55015 60001 333 11010
21093 70000=
71748 15/// /2406 11068 21075 39729 40020 50000 60001 333 11068
21119 70000=
71824 45/// /1402 11020 21025 6///1 333 11020 21084 7////=
71846 17/// ///// 11062 21076 39611 49924 58013 69921 7//4/ 333
11062 21085 70027=
71880 11258 81412 10015 20006 38835 49916 56031 60061 76177 885//
333 10019 21047 43013 70068 90973 93103=
0000117700
507
SMVS01 KWBC 111800
AAXX 11181
48845 11497 80501 10188 20184 30197 40204 56008 69931 76162 888//
333 58009 85894 88696 96160=
48823 32697 83401 10182 20167 30211 40214 56004 885// 333 58015
88696=
48825 32697 80000 10170 20154 30212 40221 53001 885// 333 58018
88696=
48840 11496 80704 10177 20168 30205 40211 58002 69901 75052 887//
333 58009 85794 88696 96150=
48808 11495 80000 10136 20132 39949 40241 52004 69911 76062 888//
333 58030 83894 88696 96010 9616 0=
48826 31796 70702 10175 20163 30082 40220 58007 71022 875// 333
58014 87697=
48830 31495 83602 10121 20119 39931 40250 52004 71022 888// 333
58035 83894 88697=
48839 32497 80509 10189 20177 30151 40218 58002 888// 222// 00200
2//// 333 58018 83894 88696=
48870 11497 83203 10224 20207 30168 40175 57010 60061 76086 888//
333 58001 83894 88696 96160=
48877 32798 73404 10245 20192 30158 40163 57010 875// 333 58001
87697=
48887 11798 70902 10246 20214 30128 40134 58012 69901 70262 875//
333 59005 87697=
48892 32598 20705 10265 20222 30125 40130 58013 81201 333 58002
81895=
48920 32598 70207 10258 20243 30123 40126 58013 82100 333 59002
82895=
0000013200
508
SNVJ01 KWBC 111600 RRC
BBXX
FHZI 11164 99655 31401 46/// /1415 11009 21022 39908 49919 52009
 22200 05017 86014=
0000031100
509
SNVE01 KWBC 111600 RRE
BBXX
VNAH 11164 99383 31416 46/// /1907 10157 20109 30191 40215 57010
 22200 04177 85129=
C6FS9 11164 99240 31526 46/// /1314 10248 20192 30105 40141 57016
 22223 04272 85210=
VNSZ 11164 99384 31447 46/// /2608 10159 20123 30171 40197 52017
 22275 04179 85138=
0000086300
510
SNVD01 KWBC 111700 RRO
BBXX
41053 11171 99185 70661 46/// /0908 10265 40174 91720 333 91210
 555 11088 22096=
41053 11171 99185 70661 46/// /0808 10266 40173 91730 333 91210
 555 11090 22098=
3FUB8 11174 99402 70738 41/90 /1932 11070 2//// 40020 5//// 748//
 8//// 22242 0//// 2//// 3//// 4//// 5//// 6//// 8//// /////=
42085 11171 99179 70665 46/// /0910 10261 40173 91720 333 91214
 555 11116 22126=
41053 11171 99185 70661 46/// /0908 10266 40176 91710 333 91210
 555 11090 22098=
42085 11171 99179 70665 46/// /0911 10252 40176 91710 333 91213
 555 11119 22130=
42085 11171 99179 70665 46/// /0909 10261 40172 91730 333 91210
 555 11095 22103=
41053 11171 99185 70661 46/// /0908 10265 40180 91650 333 91210
 555 11092 22099=
41053 11171 99185 70661 46/// /1008 10265 40182 91640 333 91211
 555 11094 22102=
0000030500
511
SNVE01 KWBC 111700 RRC
BBXX
VNAH 11174 99383 31416 46/// /1708 10154 20112 30188 40212 57011
 22200 85129=
VNSZ 11174 99383 31448 46/// /2321 10161 20124 30176 40202 52014
 22223 04188 85139=
C6FS9 11174 99241 31528 46/// /1314 10247 20192 30099 40135 57016
 22233 04271 85210=
0000013200
512
SNVJ01 KWBC 111700 RRC
BBXX
FHZI 11174 99654 31400 46/// /1512 11011 21020 39912 49923 52012
 22200 05018 86014=
0000017300
513
SMVD80 KWBC 111800 RRA
BBXX
WUR8857 11184 99430 70879 43/// /2715 10008 49984 2221/ 00009=
WYP8657 11184 99459 70856 43/// /3214 10006 49923 2227/ 00001=
0000108300
514
SMVE01 KWBC 111800 RRB
BBXX
VQBW2 11183 99003 10888 41498 32011 10280 20244 40143 57/// 70300
 8/1// 22213 04300 20201 80255=
C6YA7 11184 99036 11050 41497 80314 10250 20236 40100 54000 70222
 88640 22253 00280 2//// 3//// 4//// 5//// 6//// 80240 ICE /////=
SJCD 11181 99153 31551 43/98 21311 10273 40067 56020 22284 00283=
9HA3015 11183 99212 31494 41/98 11116 10262 20237 40110 57011
 70200 8//// 22200 2//// 80245=
VRRC 11184 99027 11310 41/98 83210 10260 20246 40071 76300 8/79/
 22272 2//// 80250=
VRRD 11183 99234 31540 41498 51722 10250 20212 40115 55006 70111
 82188 22243 04230 20406 318// 40304 80225=
C6FS9 11184 99242 31531 46/// /1314 10248 20174 30101 40137 57010
 22233 04270 85198=
VNSZ 11184 99380 31449 46/// /1709 10162 20124 30178 40204 52008
 22285 04195 85139=
A8HA7 11184 99087 30805 41698 73422 10270 20241 40097 50000 70322
 83434 22213 00280 20904 321// 40904 5//// 08250=
KAOU 11184 99045 31070 43/// /3409 10268 20234 40111 5//// 7////
 8//// 222// 04299 2//// 3//// 4//// 5//// 6//// 8//// ICE /////=
0000044400
515
SMVD11 KWBC 111800 RRB
BBXX
SHIP 11183 99165 71007 41898 20711 10300 20231 40137 55008 70111
 82200 9//// 22233 00280 20301 303// 40301 5//// 6//// 80250=
KAQP 11184 99098 71043 43/// /0913 10267 20222 40118 5//// 7////
 8//// 222// 04271 2//// 3//// 4//// 5//// 6//// 8//// ICE /////=
WMLI 11184 99051 71419 41497 81213 10250 20236 40120 5/015 78182
 8772/ 22253 0//// 20402 310// 40906 5//// 6//// 80240 ICE /////=
0000234100
516
SMUS05 KWBC 111800 RRA
AAXX 11184
72606 11108 90000 10006 20006 30046 40065 58070 60041 741// 91751
333 10006 21027 555 91118=
72617 11256 81710 10083 20072 39849 49976 56056 60031 763// 91754
333 10089 21016 4/010 96010 555 91118=
72635 11359 82713 10017 20000 39662 49949 58005 60031 773// 91753
333 10056 20011 4/018 96073 96010 555 91118=
72636 11461 82812 10017 21017 39725 49954 50000 69981 771// 91755
333 10044 20006 4/020 555 91118=
72637 12466 82612 10050 20028 39650 49925 58019 60041 91753 333
10067 20017 91017 555 91118=
72638 17259 82813 10011 20006 39494 49913 56016 69931 761// 91753
333 10033 21038 96010 555 91118=
72639 15366 82605 10033 20028 39646 49896 58027 60031 91754 333
10039 21032 555 91118=
72640 32464 82914 10006 21022 39731 49978 50004 91752 333 10033
20000 4/015 91023 555 91118=
72641 12466 8//06 10006 21028 39673 49988 58001 69901 91753 333
10022 21010 4/013 91014 555 91118=
72644 11258 83012 11039 21056 39543 40030 51012 69901 710// 91754
333 11017 21067 555 91118=
72645 32462 82815 11011 21028 39715 49963 58000 91753 333 10011
21017 555 91118=
72651 32366 83015 11033 21050 39566 40098 51019 91756 333 11028
21067 4/008 555 91118=
72654 35966 02104 11017 21061 39620 40095 58002 91755 333 11011
21056 555 91118=
72658 31459 83014 11017 21039 39708 40032 53015 710// 91753 333
11017 21039 4/015 555 91118=
72659 35966 02911 11028 21072 39592 40084 50005 91753 333 11028
21061 555 91118=
72662 32966 01903 10072 21050 38966 40079 58019 91752 333 10072
21044 555 91118=
72666 35966 03008 10006 21050 38675 40046 58021 91753 333 10039
21050 555 91118=
72677 32966 62420 10067 21039 38766 40005 58034 91753 333 10067
21006 4/003 91028 555 91118=
72681 32866 81212 10089 20017 39090 40098 56018 91753 333 10089
20044 555 91118=
72683 35666 81916 10072 20006 38664 40093 53005 91753 333 10072
20006 91023 555 91118=
72688 12766 82523 10072 20033 39506 40038 51045 60031 91753 333
10150 20061 91035 555 91118=
72693 11558 82113 10089 20067 39972 40109 50007 60091 761// 91754
333 10128 20072 96010 555 91118=
72694 12666 81719 10094 20056 30004 40074 50006 60071 91756 333
10133 20083 91029 555 91118=
72698 12466 62017 10094 20061 30052 40060 53004 60081 91753 333
10144 20083 91022 555 91118=
0000187600
517
SMVF01 KWBC 111800 RRB
BBXX
UCSJ 11181 99710 10225 41998 92205 11010 40172 54000 70222 89///
 22201 20301=
UCAB 11181 99570 10040 41498 63219 10070 40094 52030 78772 86300
 22242 00081 20605=
SBLI 11181 99352 70303 43/98 62910 10144 40189 53014 22223 00182
 2//04 4//04=
SBHI 11180 99584 10191 41/// /0510 10009 21012 40001 58008 7////
 8//// 22200 00072 2////=
MINUK03 1118/ 99527 10042 46/// ///// 10070 40180 52021=
MINUK05 1118/ 99605 70006 46/// ///// 10070 40015 57013=
62023 11183 99514 70079 46/97 /1521 10088 2//// 4//// 5//// 22200
 10604 70019 555 70028 81003=
UITJ 11181 99631 10010 41598 60409 10020 40037 52020 70222 85202
 22272 00080 20302=
LMEL 11181 99603 10053 43/// /1403 10013 21028 40013 5//// 222/0
 04077 1//// 3//// 4//// 5////=
LJIT 11181 99589 10057 43/// /0004 10041 20003 40038 5//// 222/0
 04066 1//// 3//// 4//// 5////=
LF4H 11184 99596 10022 46/// /2925 10060 20009 40036 52018 8////
 22200 06076 10707 70033 333 91135=
LDGJ 11181 99603 10053 43/// /1503 10018 21030 40015 5//// 222/0
 04078 1//// 3//// 4//// 5////=
UHOM 11181 99738 10201 41/97 93008 10015 40141 54000 70222 89///
 22231 20201=
UAEV 11181 99736 10188 41497 70000 10010 40016 54000 70272 8655/
 22271 2////=
ZDKS6 11183 99327 70291 41298 53620 10172 20108 40180 52030 70300
 8425/ 22263 00190 20504 333// 40608 80135=
UBEF5 11181 99568 10011 41498 62814 10050 40139 52036 70222 8621/
 22242 00080 20705=
DPGZ 11183 99381 70264 41/98 53128 10132 20063 40133 52005 701//
 84270 22214 20708 329// 41406 80096=
PDWZ 11183 99370 10034 41/99 60000 10178 20104 40195 54000 70322
 867// 22263 20000 30000 80135 42916=
PHAM 11184 99527 70052 41/98 32001 10075 20039 40211 50008 70200
 83/// 22283 2//// 80058 42916=
UCFT 11181 99737 10181 41698 73206 10040 40027 52001 70222 8526/
 22271 20201=
0000135300
518
SMUS06 KWBC 111800 RRA
AAXX 11184
72712 17256 81708 11006 21011 39821 40060 56065 60091 710// 91754
333 11006 21106 555 91118=
72745 11258 83010 11028 21044 39464 49990 50008 69931 710// 91755
333 11022 21056 91017 555 91118=
72747 17256 82910 11061 21078 39559 40000 50002 69901 710// 91755
333 11028 21061 555 91118=
72753 32966 02409 11039 21072 39711 40051 50004 91753 333 11028
21094 555 91118=
72764 32966 02609 11028 21083 39468 40076 58004 91752 333 11028
21083 555 91118=
72767 35966 01704 11050 21083 39346 40047 58034 91752 333 11050
21133 555 91118=
72768 35966 01216 11028 21056 39171 49998 56050 91753 333 11028
21111 555 91118=
72772 32866 81714 10111 21011 38646 49990 56033 91753 333 10111
20000 91024 555 91118=
72773 11666 81207 10056 20028 38894 40011 58030 60011 761// 91753
333 10061 20000 555 91118=
72776 32966 02132 10100 21006 38676 49940 58037 91753 333 10100
20022 91043 555 91118=
72777 35966 02220 10072 21006 39014 49922 56042 91753 333 10072
21050 91025 555 91118=
72781 32966 02509 10111 20000 39620 40005 51034 91753 333 10150
20094 91015 555 91118=
72793 11666 81819 10083 20044 39826 49992 58013 60131 761// 91753
333 10144 20072 91028 555 91118=
72797 17440 82114 10094 20067 39858 49921 55016 60091 761// 91753
333 10111 20083 91024 555 91118=
0000023100
519
SMUS22 KWBC 111800 RRA
AAXX 11184
72241 32966 00114 10217 20044 30170 40175 50011 91753 333 10217
20161 91019 555 91118=
72297 31948 00000 10161 20106 30204 40217 51015 705// 91753 333
10161 20089 555 91118=
0000059500
520
SMUS23 KWBC 111800 RRA
AAXX 11184
72306 12466 82015 10200 20172 39893 40046 58056 69951 91751 333
10200 20061 91023 555 91118=
72315 11466 81804 10100 20100 39283 40051 58027 60211 761// 91754
333 10111 20072 555 91118=
72320 15966 02505 10156 20111 39849 40072 58002 60141 91753 333
10161 20072 555 91118=
72332 32966 02810 10150 20033 39976 40098 58009 91753 333 10161
20094 91016 555 91118=
72375 32966 00000 10089 21061 37919 40224 50006 91757 333 10089
21067 555 91118=
72383 35966 03217 10183 21050 38690 40217 53015 91748 333 10183
20111 555 91118=
0000072800
521
SMUS24 KWBC 111800 RRA
AAXX 11184
72402 17104 92115 10128 20122 30044 40059 58052 60011 730// 91754
333 10156 20050 555 91118=
72405 11112 80000 10094 20083 39998 40020 58059 60131 761// 91752
333 10106 20028 96010 555 91118=
72406 11248 81803 10117 20117 39943 40015 58059 60081 763// 91754
333 10117 20017 96010 555 91118=
72423 12566 82715 10072 20022 39867 40039 51015 69901 91756 333
10122 20072 91022 555 91118=
72425 12566 22209 10139 20100 39695 49992 58029 60101 91751 333
10161 20078 91016 555 91118=
72429 12566 62525 10078 20039 39632 49989 58007 60011 91756 333
10106 20039 91034 555 91118=
72486 35966 02113 10033 21022 38113 40215 58005 91753 333 10033
21039 555 91118=
0000152200
522
SMUS25 KWBC 111800 RRA
AAXX 11184
72502 11232 81714 10144 20139 30015 40024 58074 60021 761// 91751
333 10156 20006 91018 96010 555 91118=
72504 12464 81916 10117 20117 30028 40038 58078 60021 91752 333
10117 20000 91025 555 91118=
72507 11458 81826 10144 20128 30051 40070 58066 69931 761// 91751
333 10144 21010 91037 96010 555 91118=
72513 17864 81913 10144 20117 39639 49981 56050 60071 761// 91754
333 10144 21005 91029 555 91118=
72521 11256 82113 10100 20100 39504 49945 58036 60051 761// 8/8//
91751 333 10106 20033 96010 555 91118=
72529 12866 82008 10106 20083 39720 49935 58066 60061 91754 333
10106 20028 555 91118=
72535 11232 82711 10011 21006 39698 49983 50006 69981 771// 91754
333 10056 20011 96010 555 91118=
72536 11216 82314 10039 20039 39699 49951 56009 60011 710// 91752
333 10067 20022 91021 555 91118=
72539 12266 82616 10022 20017 39624 49938 56015 60021 91753 333
10050 20011 91021 555 91118=
72543 32461 82813 10011 21022 39740 40005 50004 91754 333 10028
20006 4/020 91017 555 91118=
72544 32961 02713 10022 21017 39803 40025 50004 91752 333 10022
20000 555 91118=
72548 32466 83012 11022 21044 39719 40040 51010 91754 333 10000
21044 91019 555 91118=
72551 32966 03117 10056 21017 39673 40112 50013 91754 333 10056
21006 91021 555 91118=
72566 35966 03109 10078 21039 38738 40107 58019 91753 333 10078
21056 555 91118=
72592 11558 82703 10072 20061 30010 40198 50002 69981 761// 91753
333 10083 20033 96010 555 91118=
0000015500
523
SAIN34 VOMM 111810
METAR VOHS 111810Z 12005KT 5000 HZ SCT020 19/14 Q1017 NOSIG=
METAR VOMM 111810Z 07002KT 6000 SCT020 23/19 Q1015 NOSIG=
0000014600
524
SMUS26 KWBC 111800 RRA
AAXX 11184
72605 17104 90000 10000 20000 39925 40053 58078 60031 730// 91751
333 10000 21083 555 91118=
0000045500
525
SMUS27 KWBC 111800 RRA
AAXX 11184
72783 11658 83603 10067 20039 39513 40028 53014 60011 761// 91756
333 10100 20056 555 91118=
72785 12566 62329 10072 20022 39125 49971 53001 60011 91753 333
10083 20028 91040 555 91118=
72791 17561 82029 10106 20061 39996 49998 58021 60031 761// 91755
333 10122 20089 91041 555 91118=
72792 11548 81915 10078 20056 39917 49988 58010 60061 763// 91754
333 10111 20067 91023 96010 555 91118=
00000000