0000137400
846
SMSP02 LEMM 111800
AAXX 11184
08055 12970 30000 10073 20024 39132 48500 53005 60002 80006
  333 10116=
08075 11901 10203 10029 20029 39158 48493 51004 60002 74440 80001
  333 10057=
08084 01350 71002 10073 20053 39780 40218 53007 60002 71044 876//
  333 10090 60007=
08171 11437 82002 10085 20074 39975 40218 52013 60002 71022 886//
  333 10100=
08184 02560 80205 10113 20104 30048 40204 52010 60002 885//
  333 10136 60007=
08202 02962 20302 10062 20047 39266 42808 52014 60002 80001
  333 10173 60007=
08235 NIL=
08238 11530 83604 10108 20074 30139 40200 51003 60002 71022 8452/
  333 10136=
08280 11970 30303 10073 20056 39373 40202 52009 60002 70241 82071
  333 10105=
08330 12965 31103 10137 20109 39961 40190 52009 60002 80001
  333 10175=
08348 11756 60402 10097 20073 39463 40201 53013 60002 71022 81048
  333 10125=
08360 01559 70102 10119 20100 30162 40199 53013 69932 71062 81137
  333 10151 60007=
08373 02462 70000 10127 20104 30173 40195 53012 60002 81776
  333 10182 60007=
08410 06/// /0000 10130 20085 30088 40199 53014 60002
  333 10183 60007=
08419 02770 22101 10083 20066 39533 40208 53013 69912 81631
  333 10142 60007=
08451 02968 02204 10150 20142 30168 40201 51019 60002
  333 10207 60007=
08487 02570 82302 10147 20117 30171 40196 53011 60002 85870
  333 10159 60007=
0000012000
847
SMTH41 VTBB 111800 RRA
AAXX 11184
48564 32560 60000 10274 20227 30125 40129 57009 82246
  333 58001=
0000040900
848
SMLY01 HLMC 111800
AAXX 11184
62271 33/// /0403 10145 20021 39779 40296 51010
  333 10189=
62002 NIL=
62007 NIL=
62008 NIL=
62010 NIL=
62012 NIL=
62014 NIL=
62016 NIL=
62018 NIL=
62019 NIL=
62053 NIL=
62055 NIL=
62056 NIL=
62059 NIL=
62062 NIL=
62103 NIL=
62120 NIL=
62124 NIL=
62131 NIL=
62161 NIL=
62176 NIL=
62200 NIL=
62212 NIL=
62259 NIL=
0000124300
849
SMLY01 HLMC 111800
AAXX 11184
62002 32960 02603 10165 20033 39501 48557 51006
  333 10200=
62007 32960 00910 10185 20101 40201 54000
  333 10245=
62008 32960 02110 10162 20114 39413 84549 54000
  333 10180=
62010 32960 00906 10162 20088 40218 53007
  333 10235=
62012 32960 11706 10170 20077 30195 40225 53006 80005
  333 10237 81070=
62014 NIL=
62016 32960 11205 10156 20114 40251 52004 80002
  333 10215 81070=
62018 32960 00000 10165 20076 30149 53017
  333 10220=
62019 32960 00000 10172 20133 40237 53003
  333 10218=
62053 32560 60000 10128 20089 40261 52005 82550
  333 10176 82625 86358=
62055 NIL=
62056 NIL=
62059 NIL=
62062 32558 82067 10163 20117 40245 52003 84850
  333 10185 84820 87358=
62103 32970 40000 10200 20060 39793 4//// 51005 80002
  333 10245 84070=
62120 32960 01805 10200 20158 39663 57006
  333 10225=
62124 32960 41310 10155 20063 39722 40234 51020 84040
  333 10200 84360=
62131 NIL=
62161 NIL=
62176 32960 40000 10140 20080 40257 51004 84030 10195
  333 84360=
62200 32960 51614 10154 20033 3//// 4//// 5//// 81036
  333 10198 81360 84270=
62212 NIL=
62259 NIL=
62271 32960 00000 10151 20023 40296 51007
  333 10189=
0000107100
850
SMGR01 LGAT 111800
AAXX 11184
16622 12460 39902 10076 20058 30233 40233 52006 60002 81601 333
      10120 81710 83069 90730 91104 555 10000 40034 30000 10082
      20088 30098 40104 50132=
16641 12560 80000 10120 20108 30220 40226 55000 60002 82207 333
      10176 82830 88270 90730 91105 555 10000 40104 40000 47696
      44205 50000 50114=
16682 12560 79903 10118 20093 30219 40230 54000 60002 81135 333
      10180 81825 86068 90730 91105 555 10000 40094 30000 10135
      20135 30136 40128 50124 60185=
16716 NIL=
16734 36/// /2909 10154 20109 30172 40233 52005 333 10177
      90730 91113 555 10000 40120=
16743 36/// /2906 10148 20110 30029 40227 52007 333 10170
      90730 91125 555 10000 40142=
16749 12460 62204 10144 20114 30207 40222 53007 60002 86800 333
      10160 82818 86635 90730 91106 555 10000 40130 40000 47690
      44230 50000 50128=
16754 12565 69903 10148 20115 30182 40230 52011 60002 85801 333
      10180 81820 85625 85068 90730 91119 555 10000 40095 40000
      47667 44190 50000 50130=
0000034800
851
SMMK10 LYPG 111800
AAXX 11181
13463 32570 40901 10096 20076 30171 40231 52003 83830 333 10151=
13459 32970 11101 10070 20070 39470 40230 52005 81030 333 10122 81399
=
13461 32670 60702 10097 20083 30227 40234 53001 83832 333 10166 81840
82656 92312 92428=
13363 32970 12701 10028 20017 39306 48516 55005 81030 333 10135=
0000007600
852
UPSR01 WSSS 111800
PPAA 61187 48698 55285 33512 29019 77999=
0000035800
853
SMET01 HAAB 111800
AAXX 11181
63333 42580 70902 10190 20107 38190 40192 85530 333 10255 58009 85625
85358=
63340 42880 43602 10170 20083 37960 40186 84030 333 10262 58000
84358=
63450 42580 30705 10170 20048 37770 40156 83500 333 10254 58008
83625=
63451 NIL=
63471 42980 00503 10226 20138 38886 40152 333 10294 58012=
NNNN=
0000015600
854
SMMN01 TNCM 111800
AAXX 11184
01460 60814 10266 20202 30175 40180 57026 69901 78011 86800
      333   58010 69907 82814 86635=



0000011000
855
UANT99 KDDL 111809
ARP BAW7TG 5000N03013W 1809 F370 MS49 229/23 KT
GYMMO QXT AOE 111809 F20A
0000011000
856
UANT99 KDDL 111809
ARP DHK973 5702N02139W 1809 F310 MS55 200/65 KT
GDHLG DDL XXN 111809 F83A
0000010900
857
UANT99 KDDL 111809
ARP VIR1Q 5400N01950W 1809 F360 MS62 202/89 KT
GVFAB DDL XXN 111809 F08A
0000011000
858
UANT99 KDDL 111810
ARP AFR010 5202N01557W 1810 F360 MS65 213/93 KT
FGZCL DDL BLY 111810 J14A
0000030700
859
SMSY20 OSDI 111800
AAXX 11181
40009 NIL=
40016 NIL=
40022 32565 21604 10160 20081 40221 51004 82400 222// 20000 333
      10194 82632=
40030 32970 00000 10094 20045 40227 52009 333 10172=
40039 NIL=
40066 32970 00000 10116 20047 40229 52005 333 10174=
40072 NIL=
40083 NIL=
0000112400
860
SMMI01 GABS 111800
AAXX 11184
61202 NIL=
61214 NIL=
61223 NIL=
61226 NIL=
61230 32960 50402 10325 20097 3//// 4//// 80002
  333 10345 5//// 85075=
61233 32960 70000 10335 20081 39818 40112 86072
  333 10365 58022 86365=
61235 32960 53606 10340 20041 39993 40105 80002
  333 10355 58022 85075=
61240 NIL=
61250 NIL=
61257 32960 20404 10336 20105 30042 40097 80002
  333 10353 58012 82075=
61265 31958 60604 10303 20085 39806 40111 70622 85082
  333 10348 58032 85365 82075=
61270 32960 50000 10327 20118 39730 40101 82042
  333 10351 58019 82365 83075=
61272 32960 20804 10330 20102 39790 40112 80002
  333 10370 58025 82075=
61277 32960 10804 10328 20048 39792 40112 80002
  333 10364 58029 81075=
61285 32960 40606 10338 20069 39951 40100 83042
  333 10346 58017 83365 84075=
61291 32960 00604 10345 20071 39681 40088
  333 10370 58020=
61293 32960 08006 10330 20072 39697 40100
  333 10360 58029=
61296 32960 60000 10335 20130 39701 40090 80002
  333 10369 58019 86075=
61297 32960 30406 10328 20057 39641 40097 80002
  333 10345 58019 83075=
0000033100
861
WSBZ22 SBBS 111811
SBBS SIGMET 12 VALID 111815/112215 SBBS -
SBBS
BRASILIA FIR EMBD TS FCST WI
S1037 W04901 - S1310 W04840 - S1432
W05043 - S1640 W05105 - S1655 W04
855
 - S1637 W04725 - S1510 W04618 - S1320 W04537 - S1201 W04652 -
S1019
W04743
 - S1018 W04824 - S1037 W04901 TOP FL430 STNR INTSF=
0000017300
862
UPIN90 VABP 111800
PPAA 61180 42675 NO ASCENT DUE TO NO GAS=
PPAA 61171 42361 55292 34012 00509 77999=
PPAA 6118/ 42667 NO ASCENT DUE TO OTHER REASON=

0000011900
863
SAAJ31 UBBB 111800
METAR UBBL 111800Z VRB02KT 6000  SCT100 01/00 Q1015
R33/CLRD70 NOSIG RMK MT OBSC =
0000071800
864
SAUR31 UKMS 111800
METAR UKLR NIL=
METAR UKLI 111800Z 21002MPS CAVOK 00/M04 Q1017
         28090070 NOSIG=
METAR UKON 111800Z 26005MPS 230V290 CAVOK 04/M04
         Q1018 NOSIG=
METAR UKCM 111800Z 24008MPS CAVOK 06/01 Q1015
         19190062 NOSIG=
METAR UKCW 111800Z 27009MPS 9999 SCT024CB BKN040
         04/01  Q1010 2709//70 BECMG 26009G15MPS 3100
         -SHRA BKN011 BKN020CB=
METAR UKLU 111800Z 10002MPS 9999 BKN030 03/01 Q1019
         10090070 NOSIG=
METAR UKKK 111800Z 27007MPS CAVOK 03/00 Q1012
         26250250  NOSIG=
METAR UKKM 111800Z 25006MPS CAVOK 04/M01 Q1012=
METAR UKKE NIL=
METAR UKLN 111800Z 20001MPS CAVOK 02/M04 Q1017
         3309//70 NOSIG=
0000038100
865
SATR31 UTAA 111800
METAR UTAA 111800Z 33001MPS 9999 SCT230 02/M06 Q1015
12CLRD70 NOSIG=
METAR UTAK 111800Z 08002MPS 040V180 CAVOK  07/00 Q1015 NOSIG=
METAR UTAV 111800Z 11002MPS 7000 BKN200 02/04 Q1021 NOSIG=
METAR UTAM 111800Z 13003MPS 6000 BKN100 06/M04 Q1018 NOSIG  RMK
 SC07=
METAR UTAT 111800Z 09004MPS 4000 FEW100 M02/M04  Q1020 99CLRD70
 NOSIG=
00000000