0000034800
926
WSBZ22 SBBS 111811
SBBS SIGMET 13 VALID 111815/112215 SBBS -
SBBS
BRASILIA FIR EMBD TS FCST WI
S2004 W05104 - S1732 W05020 - S1743
W04750 - S1936 W04706 - S2024 W04
605
 - S2038 W04412 - S2324 W04621 - S2328 W04652 - S2227 W04833 -
S2210
W04832
 - S2153 W04910 - S2105 W05008 - S2004 W05104 TOP FL400 STNR
INTSF=
0000149900
927
SMCN09 CWAO 111800
AAXX 11184
71930 11262 80804 11063 21073 38899 49817 56034 60023 771// 887//
333 11063 21087 47062 70020 90999=
71931 45/// /2811 11026 21095 30142 40154 55011 6///1
333 11025 21079 7////=
71934 12974 70000 11295 21325 39738 40009 56011 60001 84031
333 11242 21310 70004=
71935 11574 80302 11275 21325 39798 40017 58009 69901 70271
885// 333 11268 21332 48026 79999 90951=
71936 11774 80106 11257 21289 39757 40031 58002 60011 77122 885//
333 11257 21307 48030 70018 90962 93101=
71937 NIL=
71938 11874 32514 11335 21393 39944 49975 50005 69901 77677
83070 333 11303 21342 45029 79999 90983=
71940 11462 80702 11047 21052 39024 49817 55009 60031 77177 836//
333 11044 21117 43059 70030 90973 93103=
71943 11432 83513 11079 21091 39012 49838 56006 60031 77177 885//
333 11049 21169 48068 70034 90973 93103=
71945 11424 83008 11192 21224 39485 49967 53006 69941 77122 885//
333 11178 21192 48077 70004 90931=
71946 11/20 93403 11230 21246 39813 40036 51006 60011 77122
333 11228 21261 48053 70012 90952 93101=
71948 47/08 02528 11264 39792 49909 56020 6///1 771//
333 11264 21336 7////=
71949 15/// /2905 11194 21215 39042 49925 56001 60001
333 11163 21194 70000=
71951 NIL=
71964 43548 83305 11141 21164 39052 49912 53006 6///1
333 11117 21172=
71966 15/// /0000 11343 21383 39525 40009 57003 60001
333 11275 21383 70000=
71968 47959 02911 11218 39933 49999 56014 6///1 771//
333 11218 21266 7////=

0000167900
928
SMCN24 CWAO 111800
AAXX 11184
71401 17/// /1703 10052 20037 39259 49928 56018 60031 7//4/
333 10055 70084=
71402 15/// /2618 11027 21073 30047 40163 56014 60001
333 11024 21061 70000=
71404 NIL=
71405 NIL=
71406 45/// /2411 11050 21080 30136 40146 56017 6///1
333 11050 21079 7////=
71407 NIL=
71408 NIL=
71409 NIL=
71410 17666 83302 11098 21107 39714 49996 58003 60001 771//
333 11098 21105 70000=
71413 NIL=
71414 15/// ///// 11106 21116 60001
333 11092 21178 70004=
71415 15/// /1813 10027 20019 30165 40168 56056 60001
333 10037 21037 70000=
71417 NIL=
71418 NIL=
71419 45/// /1913 10026 6///1
333 10028 21035 7////=
71423 NIL=
71424 45/// /0501 6///1
333 7////=
71425 15/// /1106 11015 21048 30057 40094 56062 60001
333 11015 21098 70000=
71426 15/// /0809 11013 21018 60001
333 11013 21053 70000=
71427 45/// /0714 11026 21030 30062 40069 58075 6///1
333 11025 21056 7////=
71428 15/// /0705 11032 21042 30068 40074 58071 60001
333 11031 21082 70000=
71429 15/// /2210 11044 21058 30110 40130 56049 60001
333 11042 21100 70000=
71434 NIL=
71436 17/04 /1903 10050 20050 39699 49929 56054 60031 7614/
333 10050 21038 70116=
71437 45/// /0201 10061 20053 39819 49912 58055 6///1
333 10077 21018 7////=
71438 NIL=
71439 NIL=
71440 NIL=
71442 15/// /2303 11070 21077 39700 40018 58006 60001
333 11070 21109 70000=
71445 NIL=
71446 15/// /1727 11042 21065 38965 49938 58058 60001
333 11042 21101 70000=
71448 15/// /3003 11076 21086 39686 40018 50000 60001
333 11060 21113 70016=
71449 15/// /3005 11090 21102 39619 40025 50004 60001
333 11043 21127 70013=

0000191100
929
SMCN27 CWAO 111800
AAXX 11184
71700 17232 80705 11017 21018 30071 40097 58087 60011 771//
333 11017 21147 70010=
71701 11124 80903 10003 20003 30034 40097 57086 60071 76652 887//
333 10003 21118 40027 70074 90942=
71702 17/// /1612 10016 20008 30128 40143 56063 60021 7//4/
333 10016 21088 70016=
71703 NIL=
71704 17266 82206 10051 20051 39694 49910 58038 60051 70044
333 10054 20017 70268=
71710 15/// /1909 11014 21027 30158 40168 56046 60001
333 11013 21063 70000=
71712 17/// /3201 10029 20028 39897 49957 57057 60061 7//4/
333 10032 21047 70062=
71713 15/// /0603 10000 20000 39959 49997 58093 60001
333 10000 21068 70000=
71716 17/58 /0000 10005 21001 39790 49997 56077 60041 7004/
333 10007 21097 70050=
71717 17966 10505 10027 21022 38584 49862 53039 69931 7004/
333 10039 21036 70003=
71720 17/// ///// 10056 20043 39723 49872 58022 60021 7//4/
333 10078 20023 70292=
71721 17/// /1707 10030 20030 39689 49931 58059 60081 7//4/
333 10030 21066 70100=
71723 17/// /0405 10005 20003 39958 49968 56067 60021 7//4/
333 10005 21115 70018=
71724 45/// /3604 10006 20002 39969 49976 56069 6///1
333 10007 21121 7////=
71732 17/// /1904 10018 20015 60011 7//4/
333 10018 21033 70102=
71733 17/// /2007 10013 20011 39465 49882 58043 60031 7//4/
333 10018 21046 70132=
71734 17/// /1907 10015 39502 49886 58044 60051 7//4/
333 10016 21056 70112=
71736 15/// /2426 10047 20003 38540 49881 55001 60001
333 10050 20005 70000=
71737 NIL=
71741 15/// /3617 10075 21018 39461 49870 53020 60001
333 10098 20001 70003=
71742 15/// /2411 11020 21080 39988 40177 56016 60001
333 11019 21087 70000=
71743 NIL=
71744 17/// /0805 11034 21045 30074 40116 58078 60011 7//4/
333 11034 21126 70010=
71745 NIL=
71746 17/// /2205 10052 20045 39691 49907 58038 60041 7//4/
333 10054 20016 70149=
71747 NIL=
71748 NIL=

0000156900
930
SMCN02 CWAO 111800
AAXX 11184
71114 17/// /2809 10068 20051 39890 49937 50013 60261 7//4/
333 10084 20029 70554=
71120 11774 80911 11090 21108 39251 49907 57056 69901 77122 885//
333 11090 21142 48032 79999 90910=
71122 17/// /2303 11017 21017 38283 49844 58041 60041 7//4/
333 11014 21046 70045=
71123 11974 71417 11045 21065 38970 49826 56053 69931 73672 87022
333 11027 21155 48039 70003 90941=
71125 13574 81009 11096 21111 39348 49935 58045 60001 8757/
333 11070 21143 93100=
71129 11469 81424 11040 21068 39076 49901 58069 60001 73622 885//
333 11040 21147 70000=
71131 15/// /1808 11026 21042 38694 49940 58047 60001
333 11026 21120 70000=
71135 15/// /1817 11054 21073 38906 49991 58051 60001
333 11045 21113 70000=
71137 15/// /1710 11022 21053 39030 49975 56044 60001
333 11020 21170 70012=
71140 11269 82814 11063 21075 39533 40040 50001 69901 77111 886//
333 11060 21116 48032 79999 90921 93100=
71145 11458 83105 11115 21126 39696 49992 53007 69901 77122
885// 333 11093 21118 48036 70016 90962=
71148 15/// /3012 11071 21087 39454 40039 58001 60001
333 11048 21091 70000=
71185 15464 82312 11028 21064 30135 40159 56016 60001
333 11026 21057 70005=
71188 13974 80702 11068 21095 30081 40125 57054 60001 8807/
333 11068 21158 44036 70000=
71200 17/// /1412 10068 20044 60021 7//4/
333 10090 20065 70244=
71207 17/// /1406 10063 20039 39839 49902 50007 60171 7//4/
333 10082 20004 70737=
71260 13256 82913 10002 21002 39668 49900 58016 69961
333 10011 21033 43034 70083=

0000208500
931
SMCN36 CWAO 111800
AAXX 11184
71660 17/// /1508 10014 20006 38842 49907 58031 60061 7//4/
333 10018 21030 70062=
71663 15/// /1209 11092 21105 39136 49915 58061 60001
333 11087 21140 70000=
71664 15866 81513 11025 21052 39010 49819 56051 60001
333 11018 21077 70000=
71665 NIL=
71666 NIL=
71667 15/// /2907 11014 21036 39701 49945 58006 60001
333 11013 21045 70005=
71668 17/// /1404 11012 21013 30052 40096 58087 60031 7//4/
333 11012 21139 70028=
71669 NIL=
71670 15/// ///// 11010 60001
333 70000=
71671 NIL=
71672 45/// /2402 10046 20046 39667 49926 56053 6///1
333 10052 21024 7////=
71673 NIL=
71674 NIL=
71675 17366 63306 11086 21104 39662 49940 58007 60011 7714/
333 11078 21087 70023=
71678 17366 83007 11098 21110 39615 49962 50000 60001 771//
333 11080 21107 70000=
71679 15/// /0505 11071 21078 38840 49839 53022 60001
333 11025 21074 70092=
71680 NIL=
71681 45/// /2015 10069 20009 6///1
333 10069 21033 7////=
71682 NIL=
71683 NIL=
71684 17/02 /1203 10006 20006 39589 49884 58043 60011 7614/
333 10008 21040 70028=
71685 17466 80706 10018 20008 39373 49901 55001 60031 7614/
333 10021 20000 70100=
71686 15966 00606 11185 21198 38919 49875 53008 60001
333 11123 21187 70000=
71687 17/// ///// 10015 20011 39126 49890 50027 60041 7//4/
333 10023 20000 70387=
71688 17/// /1301 10002 21002 38877 49887 50017 60031 7//4/
333 10014 21010 70355=
71689 15366 80909 11125 21138 39464 49925 58036 60001
333 11125 21196 70000=
71690 NIL=
71691 17212 81015 11038 21045 30025 40053 58086 60001 771//
333 11032 21109 70000=
71692 NIL=
71693 17/// /1011 11079 21089 39138 49838 56048 69981 7//4/
333 11079 21160 70008=
71694 17/// /1604 10045 20040 39559 49913 58050 60011 7//4/
333 10045 21028 70227=
71695 NIL=
71696 15/// /2907 11266 21293 39981 40019 56013 60001
333 11251 21285 70000=
71697 17/02 /0903 10048 20045 39749 49917 58057 60021 7614/
333 10052 20005 70076=
71699 17/// /1819 10070 30098 40105 58081 60041 7//4/
333 10071 21047 70038=

0000066400
932
SMCN28 CWAO 111800
AAXX 11184
71812 17766 82119 10056 20030 39625 49892 53035 60101 70044
333 10060 20012 70236=
71819 15966 02412 11066 21103 30104 40146 56017 60001
333 11062 21113 70000=
71820 17/// /1512 10038 20033 39820 49933 58068 60171 7//4/
333 10042 21002 70174=
71823 NIL=
71824 NIL=
71826 NIL=
71829 NIL=
71833 NIL=
71835 17/// /3008 11069 21086 39462 49940 58002 69921 7//4/
333 11069 21090 70017=
71837 NIL=
71839 NIL=
71840 15/// /2914 11054 21070 60001
333 11039 21077 70000=
71846 NIL=
71847 NIL=
71848 NIL=
71849 15/// /2506 11074 21083 39729 40032 58001 60001
333 11071 21129 7////=

0000121500
933
SMCN30 CWAO 111800
AAXX 11184
71051 NIL=
71055 NIL=
71056 NIL=
71057 NIL=
71059 45/// ///// 11272 39819 49912 56015 6///1
333 11262 21328 7////=
71061 15/// /1208 11019 21048 39043 49816 56046 60001
333 11018 21125 70000=
71062 15/// /1805 11040 21065 38739 49800 56042 60001
333 11029 21095 70008=
71064 45/// /2616 11390 39703 49928 56005 6///1
333 11301 21390 7////=
71065 NIL=
71067 NIL=
71070 NIL=
71072 15466 83010 11014 21038 39703 49947 58006 60001
333 11014 21048 70000=
71073 NIL=
71074 NIL=
71075 15/// /2902 11185 21211 39372 49997 58006 60001
333 11185 21280 70000=
71078 NIL=
71084 45/// /2715 11337 39887 49936 53003 6///1
333 11248 21338 7////=
71085 15666 32527 10048 20004 38536 49876 53001 60001
333 10049 20006 70000=
71087 NIL=
71088 45/// /2207 11301 6///1
333 11280 21325 7////=
71089 NIL=
71096 45/// /0503 11228 39259 40007 52015 6///1
333 11212 21231 7////=
71097 459// 00205 11208 39558 40045 53012 6///1
333 11194 21220 7////=
71098 17/// /1907 10045 20043 39383 49895 58054 69921 7//4/
333 10048 21021 70377=
71099 17448 80609 11113 21134 39946 49967 58021 69931 7714/
333 11112 21197 70003=

0000156700
934
SMCN26 CWAO 111800
AAXX 11184
71604 NIL=
71605 17/// /2308 10052 20046 39765 49912 50000 60051 7//4/
333 10076 20024 70909=
71608 17/// /1408 10072 20049 39912 49915 58001 69951 7//4/
333 10095 20056 70471=
71611 17/// /1811 10085 20074 60041 7//4/
333 10085 21072 70040=
71612 17/// /1904 10053 20040 39877 49967 58058 60061 7//4/
333 10056 21055 70062=
71614 17/// /1406 10060 20049 39887 49952 58063 60031 7//4/
333 10070 21034 70028=
71616 17/// /1710 10073 20056 39858 49977 58081 60021 7//4/
333 10074 21081 70030=
71617 17/// /1102 11009 21016 39813 49981 56088 60021 7//4/
333 11005 21113 70019=
71618 15166 13007 11265 21294 39983 40023 56014 60001
333 11251 21284 70000=
71619 15/// /0905 11050 21065 30060 40120 58070 60001
333 11049 21118 70000=
71622 NIL=
71629 NIL=
71632 15/// /2802 11215 21244 39552 40008 58011 60001
333 11215 21299 70032=
71634 15/// /1603 11034 21041 39955 40112 58076 60001
333 11034 21167 70000=
71636 17/// /1203 11021 21048 39045 49813 56042 69951 7//4/
333 11021 21144 70005=
71637 NIL=
71638 17/// /1212 10059 20038 39796 49899 58012 60011 7//4/
333 10089 20046 70319=
71639 11/02 90000 10038 20038 39682 49919 58049 60021 76142
333 10038 20017 42014 70102 90921=
71640 17/// /3402 11009 21010 39412 49896 58017 60021 7//4/
333 11009 21040 70062=
71642 11374 80000 11008 21013 39350 49885 58029 60061 77172
885// 333 11004 21052 48046 70080 90952=
71644 17/// ///// 10045 20031 39382 49920 53020 60031 7//4/
333 10045 21000 70025=

0000263000
935
SMCN34 CWAO 111800
AAXX 11184
71450 15/// /1212 11076 21092 39252 49974 58044 60001
333 11076 21156 70000=
71451 15/// /2502 11159 21180 39568 40004 58010 60001
333 11159 21222 70009=
71452 15/// /1406 11095 21102 39311 40031 58024 60001
333 11073 21174 70000=
71453 15/// /1819 10024 21030 39015 49912 56031 60001
333 10031 21107 70000=
71454 15/// /1707 11085 21098 39283 49974 58022 60001
333 11062 21103 70000=
71455 15/// /1414 11035 21049 39160 49955 58054 60001
333 11035 21129 70000=
71456 15/// /1906 11070 21086 39400 49999 58020 60001
333 11058 21120 70000=
71457 15/// /1913 10016 21021 38986 49864 58035 60001
333 10016 21155 70000=
71458 45/// /1413 11030 21052 39083 49845 56070 6///1
333 11028 21160 7////=
71459 15/// /1723 11002 21031 39087 49883 58068 60001
333 11002 21122 70000=
71460 45/// /0501 10019 20013 39663 49900 56034 6///1
333 10028 21005 7////=
71461 NIL=
71462 NIL=
71463 45/// /2011 10049 20042 39705 49924 58052 6///1
333 10064 20009 7////=
71464 NIL=
71465 45/// /2212 10035 20031 39708 49921 56040 6///1
333 10042 20007 7////=
71466 NIL=
71468 NIL=
71470 NIL=
71471 17556 83404 11080 21089 39051 49830 56005 60021 77144
333 11040 21091 70018=
71473 17/// /1820 10075 20055 39893 49922 55021 60021 7//4/
333 10096 20059 70252=
71475 17/// /0806 10058 20051 39782 49873 55030 60091 7//4/
333 10059 20010 70622=
71476 NIL=
71477 17/// /2912 10036 20017 39852 49860 51044 60011 7//4/
333 10037 20020 70134=
71478 NIL=
71479 NIL=
71480 15/// /0000 11406 21449 39925 40054 58003 60001
333 11255 21408 70002=
71481 15/// /0902 11031 21061 60001
333 11025 21096 70005=
71482 NIL=
71483 NIL=
71484 NIL=
71485 17/// /1320 10054 20040 39816 49833 53012 60051 7//4/
333 10063 20045 70132=
71486 17/// /1703 11028 21031 38637 49810 56020 60041 7//4/
333 11027 21054 70081=
71487 15/// /1408 11048 21086 39120 49988 58049 60001
333 11047 21140 70000=
71488 NIL=
71489 15/// /1219 11066 21074 39123 49914 58062 60001
333 11066 21169 70002=
71490 NIL=
71491 45/// /2006 11341 21378 6///1
333 11296 21349 7////=
71492 NIL=
71493 17/// /1108 10025 20020 30112 40151 56064 60031 7//4/
333 10034 21011 70037=
71494 17/// /2007 10054 20050 39478 49992 58069 60021 7//4/
333 10057 21076 70018=
71495 NIL=
71496 15/// /1409 11094 21103 39357 49975 58041 60001
333 11094 21164 70000=
71497 45/// /0414 11214 21246 39739 40013 51009 6///1
333 11193 21214 7////=
71498 NIL=
71499 15466 81804 11167 21185 39348 49989 58014 60001
333 11165 21177 70000=

0000189700
936
SMCN25 CWAO 111800
AAXX 11184
71500 NIL=
71501 NIL=
71502 NIL=
71503 NIL=
71504 NIL=
71505 45/// /3506 11133 21167 39176 49912 51001 6///1
333 11124 21252 7////=
71506 NIL=
71507 17/// /0114 11162 21178 69941 7//4/
333 11151 21220 70004=
71508 NIL=
71509 NIL=
71511 45/// /1612 11102 21110 39358 40002 58027 6///1
333 11084 21143 7////=
71512 15/// /0604 11068 21087 30114 40128 58042 60001
333 11062 21105 70000=
71513 15466 81103 11061 21088 30132 40148 56034 60001
333 11055 21118 70000=
71514 15/// /1107 11109 21129 39308 40014 58032 60001
333 11072 21185 70000=
71515 15/// /1203 11109 21115 39318 40026 58022 60001
333 11055 21150 70000=
71516 15/// /1412 11058 21080 39097 40000 58041 60001
333 11055 21149 70000=
71517 NIL=
71518 NIL=
71519 15/// /1914 10045 20001 60001
333 10045 21118 70000=
71520 NIL=
71521 NIL=
71522 NIL=
71523 NIL=
71524 17/// /3204 11005 21010 39956 49982 56061 60021 7//4/
333 11005 21117 70020=
71525 15/// /1922 10041 21004 60001
333 10046 21117 70000=
71526 15/// /2213 10030 21012 60001
333 10038 21099 70000=
71527 17356 82909 11065 21069 39480 49987 50005 60001 771//
333 11047 21072 70000=
71528 NIL=
71529 45/// /0902 11279 21315 39788 40026 58001 6///1
333 11252 21348 7////=
71532 17/02 /1509 10037 20036 39571 49908 58051 60151 76144
333 10037 21027 73973=
71534 15116 81409 10038 20038 39635 49901 58057 60001
333 10041 21020 70075=
71535 NIL=
71536 NIL=
71537 NIL=
71539 15/// /1409 11050 21078 39303 40001 58039 60001
333 11050 21133 70000=
71540 NIL=
71541 NIL=
71542 15/// /0816 11201 21223 60001
333 11193 21248 70004=
71543 17/// /0107 11059 21067 60021 7//4/
333 11039 21146 70020=
71544 NIL=
71545 45/// ///// 11033 21050 6///1
333 11033 21115 7////=
71546 NIL=
71547 NIL=
71548 NIL=
71549 NIL=

0000171900
937
SMCN05 CWAO 111800
AAXX 11184
71725 17/// /1707 10008 21006 39497 49908 58046 60051 7//4/
333 10008 21076 70085=
71726 17/// /1705 10013 20007 39404 49937 58054 60051 7//4/
333 10013 21081 70050=
71727 11348 80913 11018 21031 39790 49987 57078 60091 76676 885//
333 11014 21117 49053 70086 90942=
71728 11/24 91205 11015 21021 39744 49964 57075 60061 76672
333 11015 21074 44048 70060 90952 93102=
71730 11116 82107 10015 20015 39471 49888 58042 60031 76166 887//
333 10017 21048 42026 70059 90983=
71731 11/04 /1709 10027 20026 39452 49894 58052 60021 76154
333 10027 21049 44027 70188 90983=
71735 NIL=
71738 11440 82103 11015 21024 39556 49904 58017 60031 77177
885// 333 11013 21028 48047 70071 90973=
71739 41248 82605 10005 21004 39522 49877 56028 6///1 7687/ 887//
333 10006 21033 90983=
71799 11461 81608 10064 20050 39901 49924 58016 60051 76386 885//
333 10102 20061 70446 90927=
71800 15/// /2723 11002 30176 40210 55010 60001
333 10010 21052 70000=
71801 13574 62515 11009 21055 30012 40189 57022 60001 81101
333 11005 21078 70000=
71803 13980 72511 11019 21087 39987 40178 50015 60001 82036
333 11019 21087 70000=
71807 15/// /2516 10000 21031 30183 40202 55015 60001
333 10004 21036 70000=
71808 NIL=
71809 13574 72211 11021 21069 30146 40174 57021 60001 87500
333 11015 21066 79999=
71810 15/// /1211 11035 21063 30050 40117 56047 60001
333 11028 21073 70000=
71811 NIL=
71813 15/// /0803 11060 21088 30128 40143 56034 60001
333 11054 21115 70002=
71814 15/// /2309 11047 21098 30139 40149 56028 60001
333 11044 21085 70000=
71815 12574 82515 11019 21048 30160 40191 55020 60001 88574
333 11014 21052 70000=

0000223400
938
SMCN20 CWAO 111800
AAXX 11184
71001 17966 02904 11198 21214 38947 49933 56003 60001 771//
333 11146 21229 70000=
71002 17528 81705 11086 21101 39549 40099 58023 60001 771//
333 11085 21149 70000=
71003 17524 80907 11051 21064 39602 49982 58048 60001 771//
333 11050 21079 70000=
71005 15/// ///// 11046 21061 60001
333 11046 21152 70000=
71006 NIL=
71007 NIL=
71008 NIL=
71009 15/// /1902 11036 21059 60001
333 11034 21154 70000=
71010 NIL=
71011 NIL=
71012 NIL=
71013 NIL=
71014 NIL=
71015 NIL=
71016 NIL=
71017 NIL=
71018 NIL=
71019 NIL=
71020 NIL=
71021 NIL=
71022 17466 83205 10027 20019 39811 49854 53040 60021 7614/
333 10044 20002 70083=
71023 15864 70605 11116 21125 39144 49914 58048 60001
333 11083 21146 70000=
71024 15/// /0907 11196 21221 60001
333 11191 21225 70000=
71026 NIL=
71027 15/// /2106 10041 21008 30178 40191 56028 60001
333 10041 21050 70000=
71028 17/// /1606 10003 21002 38850 49860 51013 60011 7//4/
333 10004 21075 70090=
71029 15/// /2515 11283 21313 39832 49872 58015 60001
333 11280 21389 70002=
71030 17/// /1917 10074 20069 30015 40111 56076 60071 7//4/
333 10074 21010 70068=
71032 17/// /0701 10022 20019 39115 49925 53028 60041 7//4/
333 10039 21011 70043=
71033 15/// /1804 11167 21187 39348 49990 57013 60001
333 11166 21179 70009=
71035 NIL=
71036 15566 82812 11046 21067 39644 40021 58003 60001
333 11046 21103 70000=
71038 17/// /0604 11021 21027 30044 40099 58087 60031 7//4/
333 11021 21166 70027=
71039 15/// /3106 11183 21208 39270 49942 51002 60001
333 11154 21189 70008=
71040 45/// /0902 11013 21017 39777 49976 56081 6///1
333 11010 21115 7////=
71041 15266 81607 10024 20020 30054 40197 58038 60001
333 10029 21055 70000=
71042 17/// /1404 10070 20060 39919 49923 58001 60031 7//4/
333 10093 20052 70531=
71044 NIL=
71046 45/// /2623 11227 39977 49995 56015 6///1
333 11224 21267 7////=
71047 15/// ///// 11061 21076 60001
333 11060 21130 70000=
71048 NIL=
71049 NIL=
71060 15/// /2607 10015 21040 38316 49807 55012 60001
333 10025 21094 70000=
71063 17/// /0302 11001 21001 39838 49936 58071 60011 7//4/
333 11001 21077 70011=

0000012600
939
SMTH43 VTBB 111800 RRA
AAXX 11184
48419 31958 23402 10236 20182 30140 40149 57004 71000 80005
  333 58000=
0000013100
940
SMVF10 EHDB 111800 RRA
BBXX
UITJ 11181 99631 10010 41598 60409 10020 40037 52020 70222 85202
22272 00080 20302=
0000041600
941
SFUK43 EGRR 111805
>R SFUK43_EGRR_111805.CSV uMj0>`hcK.B-I*;uEo_9PBZ͛y5ǲ+8M;ʣ ]weS_ <jx*ͧ,.cAf[ν,Jts8co7uqs쾱򑺾pX5xsm۴фDpRc(V$Cf|E*LQPY&FE-G!xȸaVh).0d<Ғف%[ƚ0_8(1cFaE6qk4Kb;yc] Md=}I $ﮅ *?3wU9|?tk
#  
0000027500
942
SXHW11 KWAL 111812
15D142A4 011181202":PRS 1 #1 1314 1306 1307 1304 1301 1310 1298 1297 1304 1305 :RAD 1 #1 6895 6894 6894 6892 6892 6893 6889 6889 6894 6894 :ENC 2 #5 4795 4792 4801 4809 :SW1 12 #60 0 :SW2 42 #60 0 :BAT 4 #5 12.8 :NAME 15D142A4  34+0NN 216W
0000145700
943
SMCO01 SKBO 111800
AAXX 11181
80001 11470 10807 10284 20235 30132 40133 69911 70251 81200 333 562// 58003 81818=
80002 32470 30704 10290 20245 82101  333 562/0 82818 =
80009 31560 12702 10300 20240 30095 40100 70500 81101 333 560/0 58012 81820=
80022 NIL=
80028 NIL=
80035 NIL=
80036 NIL=
80063 NIL=
80084 31560 33004 10308 20234 70510 83800 333 564// 83825=
80091 31468 13602 10324 20195 70500 81100333 569// 81815555 18020 3226/ 447//=
80094 31562 12794 19258 20172 38806 70500 81100 333 567// 58008 81820=
80097 32570 40105 10290 20202 3//// 4//// 82801 333 569/9 5//// 82823=
80099 NIL=
80110 31665 20000 10257 20149 38487 70510 82170 333 5600/ 58008 82835=
80112 31570 40706 10209 20129 37902 70552 84871 333 56999 57896 59009 84820=
80139 32970 00906 10335 20184 30037 40072  333 58019 =
80144 31450 60000 10300 20228 70542 85250  333 56009 85820 83358 =
80149 NIL=
80210 31462 62902 10252 20181 38660 70522 83231  333 56990 57891 59002 83817 83359 =
80211 31570 62702 10254 20179 70522 86200333 562// 86820555 18000 3203/ 412//=
80214 31460 71602 10254 20210 70522 83870 333 5677/ 83817 85458=
80222 NIL=
80234 32562 30603 10317 20157 39618 40110 81531  333 56239 58017 81627 =
80259 NIL=
80315 31462 60000 10279 20216 39605 40099 60021 70552 82150  333 5600/ 58023 69907 82815 86362 =
80342 NIL=
80370 31462 70903 10154 20110 37169 71522 87800 333 563// 58010 87818=
80398 NIL=
0000013600
944
SMBJ20 DBBB 111800
AAXX 11184
65338 31950 52204 10325 20207 39908 40093 70522 80002
  333 10355 58017 85076=
DUPE=
0000025300
945
SMGW01 GGOV 111800
AAXX 11184
61766 32960 83403 10295 20121 30059 40103 80001
333 10310 58007 88075=
61769 32960 83604 10292 20192  80001
333 10305 87075=
61781 32960 8//// 10305 20141 30002 40027 80001
333 10323 58005 88075=
00000000