0000157500
426
SMAG01 SABM 111800
AAXX 11184
87022 32660 72310 10338 20219 39572 40063 58003 85908
333 56409 84835 81940=
87046 11557 81818 10188 20169 39154 48542 52052 60021 79592
8592/ 333 56449 57980 83725 87540 82945 90007=
87047 11456 81403 10182 20163 38833 48550 51049 60111 76196 8572/
333 56229 81710 85615 88535 90006 90090 90306 91136 94272 96495 98256=
87097 31770 82710 10322 20240 39794 40097 56019 71792 8597/ 333
56199 57941 85850 81955 86360=
87121 11602 82305 10223 20196 39678 40186 50000 60611 70296 8452/
333 56550 84645 87560=
87129 11360 81805 10238 20211 39953 40183 51012 60101 75095 887//
333 56499 88709=
87148 11456 82004 10205 20196 30064 40171 52013 60411 76096 8562/
333 56259 85710 88545=
87155 11265 80701 10209 20206 30102 40162 53013 60231 72999 8662/
333 56470 86704 88545=
87162 11350 81408 10204 20200 30094 40163 51015 60231 79596 8792/
333 56449 57930 85708 84622 86550 81950=
87166 11260 80509 10208 20196 30082 40155 53004 60161 72196 8362/
333 56279 83706 88540=
87178 NIL=
87217 12770 72308 10274 20170 39680 40161 56003 60031 82280 333
56550 82850 85360=
87222 32670 80505 10263 20182 39649 40161 51004 885// 333 56499
88638=
87257 32570 51115 10300 20182 30069 40170 51008 84266 333 56366
57894 84830 83270=
87289 11362 81802 10263 20191 30070 40152 53007 69901 70296 81577
333 56560 81608 84360 88270=
87311 32970 52704 10316 20095 39478 40137 57019 85070 333 56000
85360=
87320 NIL=
87328 32780 13209 10330 20026 39517 40140 58005 81100 333 56200 81850 95000=
0000505800
427
SMRS12 RUMS 111800
AAXX 11181
22028 11482 61403 11138 21149 30132 40172 55005 60012 72681 82939 333
11101 91003 93513=
22106 12998 70000 11318 21356 30110 40200 56006 60002 87030 333 11316
93503=
22127 12998 10000 11277 21309 39957 40183 54001 60002 81030 333
11260=
22324 11584 80306 11121 21188 30057 40109 56007 60002 73632 885// 333
11121 91010 91115 91115=
22413 11350 80407 11116 21129 39971 40076 52003 60032 77173 8872/ 333
11117 87708 91012 91114=
22525 11596 80706 11088 21100 39999 40012 54001 60022 77173 8802/ 333
11078 91011 91113=
22529 11996 80403 11114 21134 39998 40005 52012 60012 77173 8802/ 333
11111=
22621 11482 81001 11114 21142 39857 40002 53003 69932 70282 889// 333
11119 86919=
22717 11456 80103 11105 21133 39788 49988 52005 69942 77172 8572/ 333
11101 85711=
22727 11964 83603 11120 21155 39938 49988 52006 69962 77173 8807/ 333
11119 91110 92980=
22805 125// 83503 11072 21093 39979 49999 51008 60002 8653/ 333 11062
93700=
22831 11997 80103 11143 21178 39894 49957 52007 60022 70272 8802/ 333
11115=
22892 12597 80201 11069 21111 39989 40005 52006 60002 885// 333 11052
88620=
22912 11984 83503 11103 21131 39965 49981 52019 69922 70272 8804/ 333
11103=
22913 11996 83302 11105 21133 39951 49981 52009 69902 77172 8802/ 333
11088=
22917 11384 83403 11060 21079 39971 49982 52007 69932 70272 886// 333
11063 88709 91111 93709=
22925 11468 83201 11122 21142 39826 49971 51012 60022 77172 887// 333
11043 86710=
26069 11499 83203 11065 21073 39891 40005 52008 69922 70282 889// 333
11053 85914=
26872 NIL=
26078 NIL=
26080 12484 83003 11052 21058 39953 49986 52014 69922 886// 333
88712=
26099 11496 80000 11103 21119 39742 49967 52014 60012 77172 8572/ 333
10000=
26179 12397 83303 11039 21047 39967 40000 52008 69922 886// 333 11026
88708=
26268 11596 82602 11015 21035 39928 40010 52003 69922 77172 8802/ 333
11012=
26275 12498 83202 11019 21037 39970 40001 52008 69982 886// 333 11010
88711=
26285 11498 82803 11047 21063 39915 49995 52014 60022 70287 885// 333
11018 88614=
26291 11397 83003 11046 21055 39862 49974 51011 60042 78583 883// 333
10010 86708 91111=
26378 12598 82302 11010 21026 39923 40012 52011 69942 885// 333 11001
88621=
26381 11396 82902 11029 21036 39923 49999 51011 69972 75685 886// 333
11009 85708 93401=
26389 11496 82904 11025 21028 39728 49994 51015 69962 71022 886// 333
11005 91111=
26393 11597 72805 11042 21048 39763 49974 51022 60012 70282 87500 333
10011 91112=
26477 11597 82603 10007 21019 39891 40019 52008 69922 70282 889// 333
10017 91110=
26479 11456 83003 11008 21023 39782 40014 51013 60022 77172 8872/ 333
10001 88712 91111=
26499 NIL=
26578 11458 82303 10000 21002 39829 40033 52014 69932 78582 889// 333
10016 88918 91111=
26585 12597 73003 11005 21014 39738 40012 52021 69972 87500 333 10004
91112=
26695 11396 82806 11002 21009 39700 40004 52023 69962 77172 8672/ 333
10012 86709 91113=
26784 11498 72705 10003 21022 39796 40047 52017 60012 70282 83931 333
10023 91113=
26795 11565 82604 10007 21009 39730 40022 52022 60012 70272 885// 333
20014 88621 91111=
26882 11584 72808 10002 21021 39774 40051 51020 69962 70282 87800 333
10022 87625 91011 91114=
27108 11496 83105 11073 21088 39773 49959 52023 60012 78583 889// 333
10015 91110=
27164 41997 80000 11000 21000 39680 49864 52002 70272 8802/=
27176 41596 81302 11012 21012 39682 49877 57003 77172 885//=
27215 11498 73106 11053 21071 39727 49936 52031 60022 72682 87900 333
10018 87919 91010 91112=
27223 41497 83004 11040 21050 39756 49905 53033 78586 889// 333
88916=
27316 11457 83004 11036 21051 39761 49934 52033 60022 77176 8872/ 333
10019 91111 93702=
27321 41956 83004 11017 21034 39768 49918 52030 77176 8801/ 333 91112
93702=
27347 41358 82906 10007 20003 39733 49886 52014 76876 8672/ 333
86708=
27417 11496 82704 11035 21043 39752 49959 52027 60032 77172 8872/ 333
10016 91010 91110=
27507 11458 82804 11001 21026 39750 49988 52024 60012 77173 886// 333
10016 88717 91011 91113 92980=
27511 11596 83003 11026 21041 39760 49958 52027 69932 78582 883// 333
10019 91116=
27523 11496 82704 11011 21025 39767 49933 52028 60022 78586 889// 333
10023 91111=
27539 41496 82703 10002 21003 39744 49910 52021 77176 8752/=
27606 113// 82904 11005 21012 39732 49975 52023 69992 77172 8672/ 333
10018 86708 91114=
27611 11597 82905 11010 21030 39731 49965 52025 60022 78582 889// 333
10017 91010 91112=
27627 11497 73004 11008 21025 39685 49956 52023 60022 72682 87400 333
10020 91112=
27703 11497 82804 10002 21007 39738 49982 52022 69972 77176 8872/ 333
10017 86711 91012=
27745 413// 82603 10008 20008 39780 49921 52014 78082 889// 333
87908=
27821 11940 82803 10000 21008 39687 49969 52021 60012 77172 8802/ 333
10015 91111=
27823 41999 82603 10006 21016 39707 49963 52021 70272 86071=
27921 11997 72806 10015 21014 39729 49997 52023 69902 70272 87050 333
10021 91011 91112=
0000021100
428
SMAG01 SABM 111800 RRA
AAXX 11183
87007 32570 60505 10224 21027 36726 47120 57017 82105 333 56808
82820 84270=
87270 32465 73605 10272 20203 30097 40158 50008 83508 333 56506
83615 87270=
0000014200
429
SMRS12 RUMS 111800 RRA
AAXX 11181
26499 11897 82907 11023 21040 39746 49977 52021 60012 70287 8807/ 333
10010 91013 91114=
0000012400
430
SMRS12 RUMS 111800 CCA
AAXX 11181
27223 41497 83004 11040 21050 39756 49903 52033 78586 889// 333
88916=
0000083500
431
SMZW01 FVHA 111800
AAXX 11184
67765 41580 80000 10194 20192 38682 48524 71596 81973 333 10276
      58019 81927 88459=
67775 41680 71103 10192 20172 38531 48536 71391 81973 333 10293
      58024 81925 87458=
67779 NIL=
67853 NIL=
67861 41980 70000 10211 20185 38747 48528 70291 81973 333 10290
      58032 81940 86459=
67867 41680 71902 10221 20187 38593 48522 71792 81973 333 10291
      58019 81930 87459=
67881 42980 70902 10221 20169 38606 48535 85038 333 10300 58031
      85360 87280=
67965 41650 79902 10184 20176 38722 48546 79598 85273 333 10315
      58044 82940 83845 87458=
67975 41665 81503 10234 20206 38944 48511 71396 81907 333 10305
      59034 81935 88280=
67977 NIL=
67983 NIL=
67991 42675 60000 10275 20212 39603 48515 82470 333 10325 58070
      82640 85460=
0000046200
432
SMVD15 KWNB 111800 RRL
BBXX
44064 11181 99370 70760 46/// /2008 1//// 40053 91810 333 91209
555 11089 22097=
44062 11181 99386 70764 46/// /1809 10063 40023 91810 333 91210
555 11102 22110=
44063 11181 99390 70764 46/// /1906 10073 40003 91810 333 91207
555 11070 22077=
44041 11181 99372 70768 46/// /2106 10175 91810 333 91209 555
11072 22078=
44042 11181 99380 70763 46/// /1606 10086 40028 91810 333 91206
555 11065 22070=
0000005500
433
SMBZ06 SBBR 111800 RRA
AAXX 11183
NIL
0000161200
434
SMBZ06 SBBR 111800
AAXX 11184
82022 32670 63506 10321 20150 30016 40112 84101 333 58018=
82193 32570 73406 10284 20236 30076 40096 85230 333 58003=
82281 31559 50312 10287 20208 30032 40094 71511 84230 333 58008=
82332 32470 60704 10290 20220 30024 40117 85234 333 58032=
82398 32970 00715 10290 20192 30070 40099 333 58005=
82400 32570 41012 10273 20203 30057 40124 84100 333 58010=
82579 32670 60000 10332 20214 30003 40079 82210 333 59002=
82917 41570 60204 1//// 2//// 39883 4//// 71522 882// 333 58013=
82965 21570 60901 10301 20235 39782 40109 70362 85201 333 58021
 69971=
82993 32570 61312 10265 20219 39995 40132 86100 333 58015=
83208 21450 70210 10288 20214 39432 48530 79596 883// 333 58031
 69901=
83349 32570 61408 10291 20233 30143 40149 83204 333 58014=
83362 21559 53401 10237 20197 39907 40124 761// 85000 333 58027
 69911=
83378 32570 51109 10299 20131 38954 48520 86200 333 58016=
83460 32470 51408 10270 20223 30096 40155 84202 333 58021=
83497 NIL=
83566 32670 50407 10302 20129 39227 48550 85100 333 58019=
83599 NIL=
83612 21535 70117 10213 20194 39502 48530 56011 79596 87900
 333 60051=
83649 32570 30815 10326 20229 30149 40154 57011 81130=
83650 NIL=
83780 21550 73515 10245 20185 39245 48540 55012 79796 87900
 333 60011=
83827 32570 73407 10340 20214 39826 40095 58022 85231=
83840 21570 73014 10234 20137 39136 48540 55006 71396 86904
 333 60021=
83899 32770 13511 10319 20220 30101 40107 58010 81500=
83925 NIL=
83970 NIL=
83971 21440 72610 10237 20223 30137 40141 50027 76062 86234
 333 60041=
0000140900
435
SMAK01 KWBC 111800 RRA
AAXX 11184
70133 32966 0//06 11228 21267 39997 40003 56021 91753 333 11194
21233 555 91118=
70174 31066 20000 11394 39759 40027 56010 91753 333 11350 21406
4/061 555 91118=
70200 32966 00316 11117 21217 39974 49979 56020 91753 333 11117
21150 555 91118=
70219 32966 00311 11172 21189 39827 49883 57019 91753 333 11139
21172 555 91118=
70231 32966 00000 11322 21356 39827 49964 57016 91753 333 11200
21328 555 91118=
70261 32164 40000 11356 39808 49992 57010 91753 333 11300 21372
555 91118=
70267 31224 82103 11244 21272 39485 49997 58011 710// 91753 333
11189 21250 555 91118=
70271 17632 80000 11150 21172 39305 49908 56004 69901 771// 91753
333 11122 21161 96010 555 91118=
70273 11148 80000 11067 21078 39825 49886 56014 69901 710// 91753
333 11044 21067 555 91118=
70316 11658 80000 10017 20006 39759 49794 53002 60011 710// 91753
333 10044 21016 555 91118=
70326 32966 63604 11115 21122 39835 49850 56025 91754 555 91118=
70340 32966 00110 11117 21122 39817 49879 56024 91753 333 11067
21117 555 91118=
70350 32666 62706 11056 21072 39824 49864 91753 333 11033 21072
555 91118=
70361 12266 80000 11022 21022 39850 49860 55001 69951 91753 333
10000 21022 4/023 555 91118=
70381 32266 60000 11022 21033 39858 49868 53010 91753 333 10011
21022 555 91118=
70414 37428 82704 39768 50000 771// 91756 555 91118=
0000023100
436
SMCA01 KWBC 111800 RRA
AAXX 11184
78526 12566 60617 10289 20206 30159 40181 56027 69951 91756 333
10300 20233 555 91118=
78543 32666 61016 10272 20200 30098 40178 56027 91753 333 10294
20239 91021 555 91118=
0000042800
437
SMPA01 KWBC 111800 RRA
AAXX 11184
91165 32566 62806 10211 20200 30101 40136 53009 91753 555 91118=
91182 32566 23405 10200 20178 30127 40131 53009 91753 333 10233
20189 555 91118=
91190 32966 02405 10190 20170 30114 40134 53007 91754 555 91118=
91212 32566 20608 10256 20217 31375 40109 58009 91754 333 10300
20250 555 91118=
91285 12566 62306 10194 20161 30127 40142 53013 69951 91753 555
91118=
0000013600
438
SMRS12 RUMS 111800 RRB
AAXX 11181
26078 11396 83002 11057 21067 39947 49997 52008 69932 77100 8802/ 333
11039 88509=
0000059300
439
SMCR60 GCLP 111800
AAXX 11184
60001 02575 71705 10193 20141 30150 40193 52008 60002 82804
  333 10212 60007 92428=
60005 02570 11907 10195 20141 30138 40175 53007 60002 81700
  333 10219 60007 92418=
60007 02682 52003 10172 20133 39936 40193 51004 60002 83871
  333 10188 60007=
60010 NIL=
60015 02365 50000 10139 20123 39479 40192 53005 60002 83104
  333 10169 60007=
60025 02580 41803 10193 20141 30103 40193 51007 60002 84800
  333 10210 60007 92418=
60035 02975 10704 10187 20117 30163 40198 52007 60002 80001
  333 10201 60007 92408=
60320 NIL=
0000079800
440
SSVX02 KARS 111815
ZZYY 46586 11014 1800/ 745876 154196 6111/
22219 00100
444 2011/ 11014 1558/ 50101 80088 80022 9/015=
ZZYY 46903 11014 1700/ 749028 135000 6111/
11119 30013 40013 52144
22219 00085
444 20110 11014 1355/ 50101 80138 80011 9/015=
ZZYY 46516 11014 1600/ 748413 133388 6112/
11119 39898 49898 52091
22219 00092
444 20120 11014 1344/ 50101 80138 80020 9/015=
ZZYY 46765 11014 1700/ 744937 131219 6111/
11119 52157
22219 00075
444 20110 11014 1416/ 50101 80160 80020 9/015=
ZZYY 46765 11014 1600/ 744937 131219 6111/
11119 30379 40379 57222
22219 00072
444 20110 11014 1416/ 50101 80160 80023 9/015=
ZZYY 46517 11014 1700/ 748450 137649 6111/
11119 30053 40053 52085
22219 00097
444 20110 11014 1556/ 50101 80138 80021 9/015=
0000032000
441
SSVX08 KARS 111815
ZZYY 48400 10014 12004 750144 144847 6111/
11119 01126 10064 29092
22219 00091
33311 88872 20000 30912 20001 30906 43226
444 20110 10014 1218/ 521// 60401=
ZZYY 48400 11014 18004 750133 144819 6111/
11119 01920 10068 29087
22219 00089
444 20110 11014 1715/ 521// 60401=
0000011000
442
UANT01 CWAO 111815
ARP DHK984 5139N04130W 1815 F340 MS60 282/61 KT
GDHLE DDL XXW 111815 F50A
0000011100
443
UANT01 CWAO 111815
ARP UAL925 5401N01951W 1815 F370 MS61 202/77 KT
N228UA DDL XXN 111815 F20A
0000010800
444
SSVD50 LFPW 111610 RRA
ZZYY 44050 11014 1610/ 746700 056183 22219 00002 10704 20070
21018=
0000025200
445
SSVD50 LFPW 111640 RRA
ZZYY 31217 11014 1640/ 704937 052194 22219 00268 10500 20050
21002=
ZZYY 41097 11014 1640/ 714548 061097 22219 00270 10401 20040
21004=
ZZYY 44050 11014 1640/ 746700 056183 22219 00002 10703 20070
21017=
00000000