0000078600
866
SMHV01 DFFD 111800
AAXX 11184
65501 31956 70000 10280 20018 39813 40128 70622 80002
  333 10318 58017 87076=
65502 31956 70402 10306 20029 39737 40116 70622 80002
  333 10335 58023 87076=
65503 31940 70404 10297 20054 39776 40121 70622 80002
  333 10336 58024 87076=
65505 32960 30806 10320 20048 39771 40107 80002
  333 10354 58022 83076=
65507 31958 70204 10300 20050 39769 40117 70622 80002
  333 10337 58019 87076=
65510 31956 60606 10320 20111 39591 40100 70622 80002
  333 10340 58024 86076=
65516 31956 70404 10316 20040 39804 40109 70622 80002
  333 10347 58026 87076=
65518 31958 73602 10305 20070 39741 40101 70622 80002
  333 10340 58019 87076=
65522 31958 73602 10330 20043 39773 40106 70622 80002
  333 10351 58021 87076=
0000021800
867
SAJD31 OJAI 111800
METAR OJAI 111800Z 00000KT 6000 HZ SCT030 07/06 Q1026 NOSIG=
METAR OJAM 111800Z 28006KT 5000 HZ SCT025 08/05 Q1025 NOSIG=
METAR OJAQ 111800Z 35004KT 9999 BKN030 16/09 Q1024 NOSIG=
0000013400
868
SMMS01 WMKK 111800 RRB
AAXX 11184
48620 11560 70000 10243 20227 30104 40113 60001 70522 82538 333 82632 83365 87276=
0000011500
869
SITH41 VTBB 111500 CCA
AAXX 11154
48382 32960 00706 10217 20173 39990 40170 51022 
  333 58009=
0000014600
870
SMMN01 TNCM 111800
AAXX 11184
01460 60814 10266 20202 30175 40180 57026 69901 78011 86800
      333   58010 69907 82814 86635=
0000216500
871
SZNZ01 NZKL 111812
CREX++
T000103 A001 D01021 D06025++
-3683144 17478654 AUCT  2014 01 11 18 04 //// 11 07 00 01
05581 3160 05574 3159 05566 3157 05558 3156 05552 3157 05546 3158+
-4402404 -17636748 CHIT  2014 01 11 18 04 //// 11 07 00 01
04550 2022 04527 2002 04538 2016 04564 2044 04566 2050 04551 2038+
-4089929 17623168 CPIT  2014 01 11 18 04 //// 11 07 00 01
03679 2341 03671 2337 03654 2325 03655 2331 03616 2297 03622 2308+
-3618905 17548887 GBIT  2014 01 11 18 04 //// 11 07 00 01
06050 0010 06036 0000 06034 0003 06047 0021 06057 0035 06049 0032+
-3867541 17802288 GIST  2014 01 11 18 04 //// 11 07 00 01
03921 2751 03920 2754 03928 2767 03922 2766 03917 2766 03917 2770+
-4241288 17370277 KAIT  2014 01 11 18 04 //// 11 07 00 01
03007 2271 02991 2259 02996 2268 02992 2268 02998 2279 02989 2274+
-3755040 17815904 LOTT  2014 01 11 18 04 //// 11 07 00 01
03577 0196 03579 0202 03564 0192 03569 0202 03578 0216 03562 0204+
-3704657 17451175 MNKT  2014 01 11 18 04 //// 11 07 00 01
03427 -0091 03425 -0097 03450 -0075 03417 -0112 03443 -0089 03444 -0093+
-3947566 17692007 NAPT  2014 01 11 18 04 //// 11 07 00 01
02857 2083 02832 2063 02837 2074 02818 2060 02815 2062 02796 2048+
-3441483 17304870 NCPT  2014 01 11 18 04 //// 11 07 00 01
-04425 -9281 -04461 -9314 -04443 -9293 -04464 -9311 -04417 -9260 -04457 -9296+
-4581435 17062939 OTAT  2014 01 11 18 04 //// 11 07 00 01
03980 3520 03978 3521 03976 3521 03973 3521 03972 3522 03969 3522+
-2928002 -17789440 RBCT  2014 01 11 18 04 //// 11 07 00 01
06134 2025 06144 2038 06138 2035 06128 2028 06136 2039 06141 2047+
-2925114 -17790384 RFRT  2014 01 11 18 04 //// 11 07 00 01
03062 0162 03041 0145 03071 0178 03067 0177 03043 0156 03040 0156+
-4357010 17277383 SUMT  2014 01 11 18 04 //// 11 07 00 01
01424 1812 01428 1822 01411 1809 01426 1829 01418 1826 01420 1833+
-3764109 17618118 TAUT  2014 01 11 18 04 //// 11 07 00 01
05308 3974 05304 3974 05303 3978 05300 3979 05295 3979 05293 3981+
-4128448 17477985 WLGT  2014 01 11 18 04 //// 11 07 00 01
02816 2027 02821 2036 02810 2028 02811 2032 02805 2029 02800 2028++
7777
0000127800
872
SMUR11 UKMS 111800
AAXX 11181
33088 32997 72704 10039 20005 39942 40134 58005 87070 333
10066=
33177 32597 81404 10038 21011 39909 40148 57007 885// 333
10055=
33261 32697 62803 10029 20005 39913 40096 52014 82530 333
10052=
33275 12597 72809 10032 20000 39867 40091 52015 69972 84530
333 10055=
33301 32597 72508 10032 21009 39866 40151 58005 82550 333
10051=
33325 NIL=
33377 12997 22904 10033 20007 39929 40124 51011 69982 82030
333 10055=
33415 32697 52305 10017 21030 39770 40174 58009 82530 333
10053=
33429 32997 52403 10022 21030 39744 40176 58005 85030 333
10049=
33466 32989 22704 10038 21014 39958 40147 52008 81031 333
10065=
33526 32760 31901 10012 21040 39839 40186 57009 333 10074=
33562 32597 62604 10034 21020 39801 40166 58002 83530 333
10063=
33614 11965 32804 10038 20001 30035 40139 52012 69902 70161
83030 333 10061=
33761 32998 73103 10034 21037 39957 40183 53007 80006 333
10069=
33902 32897 62502 10035 21036 30115 40182 53013 83051 333
10092=
33983 32997 52606 10043 21008 30142 40204 52013 82031 333
10096=
34415 NIL=
34523 11997 82404 10051 20013 30026 40102 52014 69902 70382
8805/ 333 10068=
34712 32598 82405 10054 20008 30071 40157 52015 885// 333
10069 88625=
0000003800
873
UETH01 VTBB 111800
NIL
0000003800
874
UKTH01 VTBB 111800
NIL
0000003800
875
ULTH01 VTBB 111800
NIL
0000003800
876
USTH01 VTBB 111800
NIL
0000009400
877
UGSR20 WSSS 111800
PPBB 61187 48698 90/12 01006 02025 03026 9037/ 01023 31018=
0000040400
878
UGTH20 VTBB 111800
PPBB 6118/ 48327 NIL=
PPBB  61181 48354 90/12 00000 10513 10516 90357 09513 06509 03507=
PPBB 6118/ 48378 NIL=
PPBB 6118/ 48407 NIL=
PPBB 6118/ 48431 NIL=
PPBB 6118/ 48453 NIL=
PPBB 6118/ 48477 NIL=
PPBB 6118/ 48480 NIL=
PPBB  61181 48500 90/12 03008 03016 04012 9037/ 04011 05012=
PPBB 6118/ 48551 NIL=
PPBB 6118/ 48565 NIL=
PPBB 6118/ 48568 NIL=
0000003800
879
UHTH01 VTBB 111800
NIL
0000013900
880
SSVX02 CWAO 111800
ZZYY 47532 11014 1800/ 171523 000920 6113/ 11119 
10052 444 20130 11014 1800/ 50001 80170 80001 9////=
0000012700
881
SSVX02 CWAO 111800
ZZYY 47537 11014 1800/ 783291 048057 6113/ 444 
20130 11014 1800/ 50001 80136 80001 9////=
0000009700
882
UGIN90 VABP 111800
PPBB 61171 42361 90012 00000 30506 33014 90350 34510 00509=

0000008600
883
SAIN90 VABP 111800
METAR VAID 111800Z 00000KT 1200 BR NSC 12/10 Q1020=
0000013900
884
SSVX02 CWAO 111800
ZZYY 47571 11014 1800/ 771334 104399 6113/ 11119 
49892 444 20130 11014 1800/ 50401 80129 80001 9////=
0000012700
885
SSVX02 CWAO 111800
ZZYY 47573 11014 1800/ 770970 100709 6113/ 444 
20130 11014 1800/ 50101 80134 80001 9////=
00000000