0000014500
906
SSVX05 CWAO 111800
ZZYY 48509 11014 1800/ 775510 140964 6113/ 11131 
11205 49851 57010 444 20130 11014 1800/ 50400 80134 80001=
0000193900
907
SMCN04 CWAO 111800
AAXX 11184
71603 11/04 /1818 10067 20067 30089 40142 58065 60031 74765
333 10069 20001 70044 90917=
71607 17/// /1504 10065 20065 30054 40087 56086 60061 7//4/
333 10067 21102 70055=
71609 11224 81412 10043 20036 39984 40119 58071 60071 76152 887//
333 10050 21071 44016 70071 90962=
71610 17466 81302 10068 20063 39704 49997 58071 60031 7614/
333 10078 21072 70030=
71621 11162 81610 10075 20067 39820 49924 57069 60021 70286 885//
333 10080 20009 40016 70058 90922=
71623 43140 52010 10050 20049 39580 49910 58052 6///1
333 10057 20008=
71624 11004 81505 10050 20047 39705 49913 58056 69941 75164 886//
333 10051 21007 44007 70076 90917=
71625 17004 91203 10009 20008 39761 49920 58062 60021 7004/
333 10009 21064 70035=
71627 11448 83203 10013 20007 39921 49965 57061 60021 76152 887//
333 10056 21071 43014 70044 90927=
71628 11/08 /0708 10001 21002 39799 49938 57069 60051 76166
333 10001 21071 44024 70052 90973=
71630 NIL=
71631 17/// /2008 10042 20042 39415 49903 56054 60011 7//4/
333 10047 21022 70108=
71633 11232 82008 10039 20038 39632 49897 56049 60011 76165
887// 333 10051 21010 44044 70080 90937=
71705 11256 81512 10025 20018 30041 40130 57071 60031 76122 887//
333 10025 21095 44056 70026 90921=
71706 11348 81511 10014 20008 30102 40164 57059 69921 76122 8577/
333 10015 21058 44054 70002 90910=
71707 12574 72209 10024 20000 30128 40206 58025 60001 87500
333 10028 21076 79999=
71709 13274 81908 11013 21024 30158 40171 57046 60001 8667/
333 11013 21069=
71714 17/// /0602 11002 21007 39920 49995 58081 69951 7//4/
333 11002 21103 70005=
71715 17/// /2602 11020 21024 39836 40018 56085 69951 7//4/
333 10000 21067 70005=
71718 11558 81108 11007 21023 39972 40037 57088 60021 76672 885//
333 11007 21075 43050 70020 90921=
71719 15/// /1606 11048 21067 30126 40132 58061 60001
333 11048 21149 70000=

0000156800
908
SMCN03 CWAO 111800
AAXX 11184
71397 11448 82305 10056 20048 30111 40146 58066 60021 78022 885//
333 10060 21030 44028 70028 90921=
71400 15/// /2605 11018 21075 30038 40170 56013 60001
333 11013 21089 70000=
71403 45/// /1717 10022 30170 40190 56051 6///1
333 10023 21020 7////=
71411 17/// /2408 10043 20041 30156 40169 56061 60031 7//4/
333 10045 20000 70027=
71412 15/// /1811 10009 21002 30164 40174 58048 60001
333 10009 21047 70000=
71421 NIL=
71430 17/// /1717 10036 20029 39838 49933 58064 60121 7//4/
333 10037 20006 70125=
71431 17/// /1405 10038 20034 39827 49921 56059 60021 7//4/
333 10056 20007 70065=
71432 17/// /1806 10080 20073 39816 49911 58056 69921 7//4/
333 10087 20007 70029=
71433 NIL=
71435 15/// /3008 11047 21050 39363 49953 58001 60001
333 11046 21073 70005=
71441 45/// /3008 11077 21096 39718 40030 50004 6///1
333 11066 21137 7////=
71443 15/// /2607 11052 21081 39598 40013 58006 60001
333 11052 21104 70000=
71444 15/// /2906 11068 21073 39255 40017 58006 60001
333 11067 21187 70000=
71447 15/// /2403 11084 21114 39499 40050 58006 60001
333 11073 21135 70002=
71467 NIL=
71472 NIL=
71474 17064 41604 10013 21024 38666 49874 53031 69951 7//4/
333 10013 21034 70015=
71510 15/// /1311 11059 21064 39230 49939 58063 60001
333 11059 21169 70000=
71538 11362 82412 10055 20055 39701 49927 58030 60031 72864
886// 333 10058 20020 42003 70120 90921=
71600 17564 81810 10038 20017 30232 40238 56036 69951 7004/
333 10044 21017 70005=
71601 NIL=

0000118000
909
SMCN07 CWAO 111800
AAXX 11184
71864 NIL=
71865 15/// /1806 11091 21104 39323 40007 58019 60001
333 11069 21116 70000=
71867 11436 83203 11106 21125 39676 40014 55002 69901 77177
885// 333 11057 21110 47031 70006 90983=
71868 15/// /2805 11071 21102 39566 40010 58010 60001
333 11050 21107 70000=
71869 11474 81906 11075 21095 39462 49988 58021 69901 70277 885//
333 11041 21132 47036 79999 90962=
71871 15566 81320 11067 21087 39090 49891 58071 60001
333 11063 21127=
71877 13983 72009 11061 21079 38586 49841 58037 60001 87080
333 11043 21099 70000=
71878 12974 71814 11031 21058 38766 49822 56047 60001 84072 
333 11028 21120 79999=
71879 15864 71515 11028 21088 39029 49819 56057 60001
333 11009 21106 70000=
71880 NIL=
71882 17/// /1103 10013 20005 39374 49900 55002 60031 7//4/
333 10022 20001 70108=
71883 NIL=
71887 13686 33117 10077 21021 39463 49873 53019 60001 81101
333 10094 21003 79999=
71889 11674 41402 10059 20027 39523 49933 53029 60031 72581 83530
333 10079 20010 41000 70040 90977=
71892 11562 81315 10072 20049 39917 49923 58003 60011 76062 8857/
333 10094 20057 4/000 70486 90987 93100=

0000143600
910
SMCN21 CWAO 111800
AAXX 11184
71102 NIL=
71105 NIL=
71107 NIL=
71110 NIL=
71111 17966 63010 10032 20009 39866 49874 52051 60011 7004/
333 10032 20010 70243=
71112 17/// ///// 60021 7//4/
333 70528=
71113 17/// /1003 10069 20055 39913 49936 50003 60101 7//4/
333 10087 20035 70410=
71115 17/// /0703 10025 20019 39333 49902 53011 60021 7//4/
333 10028 21001 70041=
71116 15/// /1505 10019 21028 38851 49933 56034 60001
333 10027 21113 70000=
71118 15/// /1406 11039 21063 39038 49852 58073 60001
333 11035 21130 70000=
71121 15864 41619 11024 21078 39012 49820 56055 60001
333 11011 21092 70000=
71127 17/// /1308 11035 21058 38918 49811 56051 69921 7//4/
333 11028 21084 70002=
71130 17466 82303 11086 21115 39545 40005 58014 60001 771//
333 11043 21154 70000=
71132 15466 61202 11275 21305 39682 40009 58010 60001
333 11232 21309 70003=
71133 15/// /1304 11090 21098 39232 49938 58047 60001
333 11063 21185 70000=
71136 15/// /2912 11063 21075 39532 40044 50000 60001
333 11059 21116 70000=
71139 15/// /1913 11028 21053 38482 49923 57040 60001
333 11026 21095 70000=
71141 NIL=
71142 17740 81726 11045 21067 38976 49940 58061 60001 771//
333 11040 21096 70000=
71144 45/// /1904 11092 21101 6///1
333 11076 21112 7////=
71147 15/// /3108 11043 21072 60001
333 11043 21142 70000=
71149 15/// /3307 11036 21073 60001
333 11034 21138 70000=

0000230300
911
SMCN32 CWAO 111800
AAXX 11184
71250 15/// /2610 11003 21057 30045 40183 56019 60001
333 11002 21071 70000=
71251 15/// /2109 10030 21005 38979 49893 58027 60001
333 10030 21111 70000=
71252 17/// /3502 11046 21053 38315 49870 55014 69991 7//4/
333 11046 21112 70038=
71253 45/// /0306 11222 21241 6///1
333 11186 21238 7////=
71254 17/// /1417 11047 21056 69981 7//4/
333 11035 21097 70008=
71255 17/// ///// 11157 21178 60001 7//4/
333 11144 21169 70006=
71256 45/// /1004 11062 21069 38895 49815 56034 6///1
333 11062 21090 7////=
71257 NIL=
71258 NIL=
71259 NIL=
71261 17/// /2014 10045 20041 39648 49902 56043 60041 7//4/
333 10065 20005 70127=
71263 11/00 /2012 10062 20059 39630 49913 58054 69961 75166
333 10062 20009 42006 70072 90983=
71264 17/// /1608 10030 20027 30150 40182 58057 60021 7//4/
333 10035 21015 70017=
71265 17/02 /0804 10033 20033 39822 49915 58055 60021 7614/
333 10048 20005 70091=
71266 NIL=
71267 15966 02221 10067 21003 38816 49887 56017 60001
333 10068 21068 70000=
71268 17/// /1902 11043 21051 39221 49831 53021 69941 7//4/
333 11020 21071 70059=
71269 NIL=
71270 15/// /1307 10042 20031 39677 49891 58062 60001
333 10070 21013 70033=
71271 NIL=
71272 15966 81606 11279 21314 39641 40012 58007 60001
333 11279 21336 70000=
71273 NIL=
71274 NIL=
71275 NIL=
71276 NIL=
71277 NIL=
71278 NIL=
71279 17/// /0906 11043 21048 30032 40099 56052 69921 7//4/
333 11043 21134 70002=
71281 NIL=
71282 45/// /1611 10039 20037 39640 49904 58049 6///1
333 10051 21016 7////=
71283 NIL=
71284 15/// ///// 11026 21052 60001
333 11020 21117 70007=
71285 NIL=
71286 NIL=
71287 NIL=
71288 NIL=
71289 NIL=
71290 15566 80103 11047 21060 39025 49842 53022 60001
333 11038 21097 70000=
71291 15/// /3206 11025 21046 39647 49933 58010 60001
333 11017 21035 70004=
71292 15366 82307 11071 21085 39416 40028 58005 60001
333 11065 21111 70000=
71293 NIL=
71294 17/// ///// 10044 20044 39523 49917 58060 60041 7//4/
333 10046 21047 70130=
71295 NIL=
71296 NIL=
71297 17/// /2502 10073 20068 39784 49906 58057 69951 7//4/
333 10074 21015 70095=
71298 NIL=
71299 17/// /3007 11009 21023 39611 49877 57026 69941 7//4/
333 11008 21027 70069=

0000265200
912
SMCN31 CWAO 111800
AAXX 11184
71150 45/// /2706 11074 21083 39340 40025 58008 6///1
333 11061 21115 7////=
71151 NIL=
71152 15/// /2711 11007 21035 30186 40199 56023 60001
333 11005 21057 70000=
71153 15/// /2421 10063 20001 60001
333 10075 21000 70000=
71154 17/// /2221 10028 20006 69981 7//4/
333 10048 20012 70008=
71155 15/// ///// 11045 21049 60001
333 11027 21159 70000=
71156 NIL=
71157 45/// ///// 11029 21042 6///1
333 11016 21098 7////=
71158 NIL=
71159 15/// /2508 11019 21057 30112 40185 55020 60001
333 11013 21062 70000=
71160 NIL=
71161 17/// /1808 10077 20074 39787 49932 58066 60081 7//4/
333 10080 21018 70084=
71162 NIL=
71163 45/// /3401 11256 21281 39674 40030 50001 6///1
333 11245 21293 7////=
71164 NIL=
71165 NIL=
71166 NIL=
71167 15966 80204 11050 21057 38729 49810 56028 60001
333 11045 21128 70000=
71168 15/// /3014 11033 21043 39502 40098 50020 60001
333 11030 21072 70000=
71170 15/// /2604 11060 21078 60001
333 11060 21115 70000=
71171 17/// /2006 10084 20068 39808 49902 58059 69941 7//4/
333 10085 20009 70047=
71172 17/// ///// 10041 20036 39673 49885 58049 69981 7//4/
333 10046 21030 70123=
71174 17440 82001 11262 21290 30001 40015 58014 60001 704//
333 11257 21330 70000=
71175 15/// /2208 10016 20009 30169 40204 56033 60001
333 10020 21044 70000=
71176 45/// /2520 11226 39367 40075 51011 6///1
333 11219 21228 7////=
71177 45/// /2707 11195 39034 40073 53002 6///1
333 11190 21244 7////=
71178 15/// /2615 11018 21075 30143 40175 55015 60001
333 11017 21065 70000=
71179 45/// /3004 11178 39249 40097 53014 6///1
333 11141 21216 7////=
71180 15/// /1707 11011 21046 30165 40205 55021 60001
333 11008 21052 70000=
71181 NIL=
71183 17/// /1902 10023 20008 39923 49963 56062 60051 7//4/
333 10059 21071 70049=
71184 45/// /3201 10001 20000 6///1
333 10002 21105 7////=
71186 NIL=
71187 17666 82910 10068 20050 39885 49932 50014 60271 70044
333 10082 20029 70565=
71189 45/// /0812 11017 6///1
333 11017 21171 7////=
71190 NIL=
71191 17/// ///// 10013 60031 7//4/
333 70033=
71192 15366 61503 10002 21004 39207 49853 53027 60001
333 10015 21054 70018=
71193 17/// /2604 10005 20002 39523 49878 58027 69921 7//4/
333 10006 21035 70103=
71195 45/// ///// 11230 21255 38956 49933 56003 6///1
333 11147 21240 7////=
71196 17/// /1104 10006 20005 39721 49917 58062 60041 7//4/
333 10006 21070 70043=
71197 NIL=
71198 45/// /3407 10007 20007 6///1
333 10008 21128 7////=
71199 15/// /1301 11151 21167 39048 49879 53005 60001
333 11079 21233 70000=

0000270500
913
SMCN33 CWAO 111800
AAXX 11184
71350 15/// /1611 10016 20010 30086 40152 56061 60001
333 10017 21076 70000=
71351 NIL=
71352 17/// /1808 10043 20039 39464 49908 58054 60011 7//4/
333 10045 21012 70143=
71353 NIL=
71354 NIL=
71355 15/// /2514 11092 21161 39900 49985 53003 60001
333 11064 21117 70002=
71356 17/// /1414 11252 21280 39909 49978 58023 60021 7//4/
333 11251 21344 70020=
71357 NIL=
71358 NIL=
71359 NIL=
71360 NIL=
71361 17/// /0603 11274 21306 39787 40004 57009 69931 7//4/
333 11266 21330 70003=
71362 15/// /0000 11287 21322 39734 40001 56011 60001
333 11231 21298 70002=
71363 15/// /1907 11267 21296 39874 49930 56013 60001
333 11263 21366 70000=
71364 NIL=
71365 17/// /3405 11232 21256 39810 40031 50005 60011 7//4/
333 11231 21270 70014=
71366 15466 82504 11236 21270 30006 40071 53009 60001
333 11227 21245 70000=
71367 17/// /2208 11030 21074 39966 40174 58018 60041 7//4/
333 11023 21076 70037=
71368 17/02 /1908 10048 20045 39529 49910 58055 60011 7614/
333 10049 21010 70141=
71369 17532 81011 11078 21082 39135 49836 56049 60001 771//
333 11078 21156 70000=
71370 45/// /0403 10002 21001 39840 49976 56069 6///1
333 10002 21131 7////=
71371 17556 81811 10056 20047 39931 49965 56061 60031 7624/
333 10064 21072 70048=
71372 17/// /1912 10040 20026 60011 7//4/
333 10057 21037 70029=
71373 17/// /1404 10074 20072 60021 7//4/
333 10096 21025 70024=
71374 NIL=
71375 45/// /0612 11050 21079 6///1
333 11042 21076 7////=
71376 17/// /1801 10017 20015 39670 49959 58060 60091 7//4/
333 10019 21071 70090=
71377 17/// /3404 10003 20001 39912 49960 56062 60041 7//4/
333 10004 21073 70042=
71378 NIL=
71379 17/// /1409 11011 21015 39776 49945 56080 60061 7//4/
333 11010 21077 70057=
71380 NIL=
71381 NIL=
71382 17/// ///// 10009 20008 39052 49977 56068 60021 7//4/
333 10010 21098 70020=
71383 NIL=
71384 17/// /2502 10001 21003 39999 40006 56081 60061 7//4/
333 10002 21083 70060=
71385 45/// /1204 11009 21011 6///1
333 11009 21060 7////=
71386 15/// /1507 11055 21066 39851 40061 58086 60001
333 11055 21147 70000=
71387 NIL=
71388 45/// /0602 11010 21021 39793 49981 56083 6///1
333 11006 21128 7////=
71389 NIL=
71390 NIL=
71391 45/// ///// 10010 20005 6///1
333 10010 21065 7////=
71392 15/// /0701 11003 21003 60001
333 11003 21088 70000=
71393 15/// ///// 11061 21078 38581 49834 58038 60001
333 11042 21097 70000=
71395 11/06 /1511 10026 20025 39995 40175 50055 69931 75144
333 10028 21024 42003 70003 9092/=
71398 17356 80707 11017 21027 39867 49878 58050 60001 771//
333 11008 21034 70000=
71399 NIL=

0000061800
914
SMCN38 CWAO 111800
AAXX 11184
71851 15/// /2706 11047 21072 39690 40028 50003 60001
333 11047 21094 70000=
71857 NIL=
71860 13983 70809 11068 21079 38461 49840 58039 60001 87072
333 21145=
71872 NIL=
71874 NIL=
71876 15766 81218 11073 21078 39280 49945 58049 60001
333 11073 21171 70000=
71884 17/// /1715 10071 20067 30089 40133 56067 60031 7//4/
333 10071 20001 70040=
71885 NIL=
71886 15/// /2306 11073 21087 39417 40029 58006 60001
333 11066 21113 70000=
71888 NIL=
71890 17/// /1014 11039 21040 30024 40053 58085 60011 7//4/
333 11032 21109 70012=
71895 NIL=

0000258400
915
SMCN35 CWAO 111800
AAXX 11184
71550 15/// /2712 11048 21072 39644 40021 58003 60001
333 11048 21104 70000=
71551 NIL=
71552 45/// /2408 11072 21082 6///1
333 11072 21152 7////=
71553 15/// /2606 11069 21077 39359 40028 58008 60001
333 11068 21142 70000=
71554 17/// /1202 10001 21008 30026 40032 58093 60031 7//4/
333 10001 21093 70034=
71555 15/// /2549 10046 21025 38300 49815 56035 60001
333 10047 21042 70000=
71556 15/// /1707 11110 21119 39393 40003 58032 60001
333 11080 21172 70003=
71557 45/// /2213 10050 21002 6///1
333 10060 20005 7////=
71558 15/// ///// 11064 21103 30101 40139 56016 60001
333 11055 21113 70000=
71559 15/// /2205 11072 21086 39336 40043 58022 60001
333 11071 21142 70000=
71560 15/// /2401 11083 21112 39730 40039 50004 60001
333 11068 21108 70000=
71564 15/// /2909 11047 21073 39662 40034 50006 60001
333 11027 21087 70003=
71565 NIL=
71566 NIL=
71567 NIL=
71568 47/// /1313 10050 20027 39841 49853 55001 6///1 7//4/
333 10051 20007 7////=
71569 15/// /1306 11085 21093 39291 49997 58035 60001
333 11079 21175 70000=
71570 15/// /2604 11074 21088 39705 40019 50000 60001
333 11059 21108 70032=
71571 NIL=
71572 17/// /2901 11205 21232 39769 40007 50006 69921 7//4/
333 11198 21238 70034=
71573 NIL=
71574 11458 81304 11048 21065 30036 40112 58074 60021 76682 885//
333 11047 21208 43040 70016 90921 93100=
71575 NIL=
71576 15/// /1907 11323 21357 39930 40018 53025 60001
333 11237 21329 70002=
71577 45/// ///// 11061 21071 6///1
333 11061 21110 7////=
71578 17/// /0602 60011 7//4/
333 70011=
71579 17/// /2305 11068 21079 39735 40022 58001 69921 7//4/
333 11066 21095 70002=
71580 11561 71512 11268 21310 39917 49955 57014 69901 77177
84530 333 11265 21371 46017 70002 90983=
71581 17/// /0901 10009 20006 39437 49909 58053 60021 7//4/
333 10026 70098=
71582 17366 81501 10032 20029 39809 49861 53021 60051 7614/
333 10066 20030 70343=
71584 15466 80506 11072 21096 30084 40133 58037 60001
333 11070 21115 70000=
71585 NIL=
71586 15/// /1102 11125 21139 39522 49991 58014 60001
333 11089 21151 70003=
71587 17356 83007 11084 21093 39613 49974 58001 60001 771//
333 11080 21097 70000=
71588 NIL=
71589 NIL=
71590 17/// /1603 11023 21034 39858 40053 56095 60051 7//4/
333 11023 21191 70048=
71592 NIL=
71593 NIL=
71597 17616 82116 11266 21294 39870 49934 56012 69901 7714/
333 11262 21366 79999=
71598 17/// /1405 11047 21064 30120 40126 58068 69951 7//4/
333 11047 21166 70012=
71599 NIL=

0000263200
916
SMCN37 CWAO 111800
AAXX 11184
71744 NIL=
71750 17/// /2802 11006 21016 39678 49908 58011 60031 7//4/
333 11000 21015 70053=
71751 45/// /2913 11016 21040 39677 49932 58008 6///1
333 11015 21035 7////=
71752 17/// /2007 10074 20065 39705 49917 58054 60021 7//4/
333 10082 20016 70042=
71753 17/// /1506 10032 20026 30144 40173 56052 60011 7//4/
333 10032 21024 70010=
71754 17/// /1317 11074 21088 39282 49946 58047 60011 7//4/
333 11074 21186 70022=
71756 17/// /0501 10007 21001 38816 49882 50025 60061 7//4/
333 10033 21010 70369=
71758 15/// /2112 10030 20006 30127 40205 56025 60001
333 10033 21077 70000=
71760 NIL=
71761 NIL=
71762 NIL=
71763 NIL=
71765 17/// /2122 10054 20035 39624 49891 53034 60091 7//4/
333 10058 20010 70210=
71766 17/// /1410 10052 20042 39815 49885 58006 60051 7//4/
333 10080 20045 70380=
71767 17/// /2209 10026 20026 39641 49896 56040 60081 7//4/
333 10037 21002 70204=
71768 NIL=
71769 17/// /1219 10076 20043 39870 49885 58010 60041 7//4/
333 10090 20061 70364=
71770 17/// /3203 10030 20028 39177 49934 56032 60101 7//4/
333 10038 20010 70145=
71771 NIL=
71772 17/// /1519 10073 20045 39885 49891 58014 60021 7//4/
333 10100 20063 70316=
71773 17/// /3405 11140 21153 39047 49905 53005 69991 7//4/
333 11109 21148 70009=
71774 17/// ///// 10034 20025 39478 49908 56015 60151 7//4/
333 10081 20034 70674=
71775 17/// /1408 10072 20050 39927 49933 50003 60031 7//4/
333 10100 20037 70579=
71776 17/// /1902 10011 20007 39289 49919 56029 60041 7//4/
333 10013 20002 70090=
71777 17/// ///// 10006 20003 39654 49899 51034 60051 7//4/
333 10017 20001 70329=
71778 45/// /1014 10076 20040 39877 49881 58019 6///1
333 10099 20069 7////=
71779 15/// /1402 10001 21003 39206 49851 53027 60001
333 10014 21058 70016=
71780 17/// /2814 10074 20058 39884 49911 58026 60061 7//4/
333 10122 20056 70490=
71781 45/// /1229 10074 20039 39844 49868 58013 6///1
333 10103 20062 7////=
71782 15/// /1906 10014 20003 38611 49904 58033 60001
333 10017 20002 70000=
71783 17/// /1302 10068 20048 39847 49919 58024 60031 7//4/
333 10092 20067 70278=
71784 17/// /0804 10058 20039 39727 49929 50001 69991 7//4/
333 10084 20046 70556=
71785 17/// /1507 10078 20056 39926 49942 58006 60011 7//4/
333 10105 20058 70380=
71786 15/// /2605 11045 21047 60001
333 11045 21072 70000=
71787 17/// /1610 10017 20017 39639 40131 58063 60031 7//4/
333 10017 21059 70028=
71788 NIL=
71789 NIL=
71791 NIL=
71792 NIL=
71793 NIL=
71794 NIL=
71795 NIL=
71796 NIL=
71797 NIL=

0000015700
917
SMCN07 CWAO 111800 CCA
AAXX 11184
71867 11436 83203 11106 21125 39676 40014 55002 69901
77177 885// 333 11057 21110 47031 79999 90983=

0000232300
918
SMCN23 CWAO 111800
AAXX 11184
71300 17/// /1810 10079 20072 39808 49928 58069 60091 7//4/
333 10080 21025 70087=
71301 17/// ///// 10008 20008 39490 49880 58040 60031 7//4/
333 10008 21048 70073=
71302 17/// /1805 11002 21009 39042 49841 53033 60011 7//4/
333 10002 21049 70074=
71303 45/// ///// 10035 20031 39715 49927 56025 6///1
333 10073 20019 7////=
71304 17/// /2415 10037 21001 38468 49877 57009 69961 7//4/
333 10037 20008 70006=
71305 15466 80705 11218 21240 39686 49985 58014 60001
333 11177 21282 70000=
71306 15966 00709 11252 21279 30015 40049 58030 60001
333 11252 21290 70000=
71307 17/// /2414 10057 20053 39681 49926 56039 60031 7//4/
333 10067 20016 70159=
71308 15/// /1710 10031 20019 30115 40200 58041 60001
333 10036 21046 70000=
71309 17/// /0604 11018 21023 39867 49878 57050 60051 7//4/
333 11008 21034 70055=
71310 15/// /1507 10023 20002 30133 40170 56052 60001
333 10023 21059 70000=
71311 17/// /1714 10039 20028 30113 40138 56068 69931 7//4/
333 10041 21033 70003=
71312 15/// /2603 11085 21115 39541 40001 58013 60001
333 11044 21161 70000=
71314 17/// /1506 10036 39562 49906 58057 69941 7//4/
333 10042 21024 70071=
71315 17/// /0812 11067 21077 30048 40103 58081 60021 7//4/
333 11067 21158 70017=
71316 15/// /1407 11081 21098 39182 49863 58061 60001
333 11081 21147 70000=
71317 17/// /1306 10003 21002 30122 40169 58057 60021 7//4/
333 10005 21047 70019=
71318 NIL=
71319 45/// ///// 10001 20001 39142 49998 56072 6///1
333 10001 21099 7////=
71320 NIL=
71321 17/// /3506 11258 21283 30057 40102 53016 60021 7//4/
333 11219 21289 70027=
71322 NIL=
71323 NIL=
71331 15/// /2603 11157 21189 39626 40002 56012 60001
333 11143 21188 70013=
71332 NIL=
71334 NIL=
71335 NIL=
71336 45/// /2714 11011 21062 30128 40151 55016 6///1
333 11007 21063 7////=
71337 45/// /2709 11024 21072 39910 40151 58014 6///1
333 11016 21081 7////=
71338 15566 80401 11211 21237 30019 40027 51018 60001
333 11194 21253 70000=
71339 15966 02902 11049 21129 30122 40136 55009 60001
333 11045 21136 70000=
71340 NIL=
71341 NIL=
71342 NIL=
71343 NIL=
71344 NIL=
71345 NIL=
71346 NIL=
71347 NIL=
71348 NIL=
71349 15/// ///// 11098 21112 60001
333 11092 21171 70000=

0000183400
919
SMCN01 CWAO 111800
AAXX 11184
71043 11880 11203 11405 21446 39962 40061 58004 69901 77670 81070
333 11251 21413 48015 70004 90927=
71045 15/// /0000 11160 21177 39030 49896 53010 60001
333 11130 21169 70000=
71050 15/// /0403 11055 21060 38806 49862 53024 60001
333 11010 21128 70021=
71051 NIL=
71052 45/// ///// 11250 39622 49967 58027 6///1
333 11250 21294 7////=
71066 17448 81104 11182 21207 39510 49939 57013 60001 771//
333 11181 21230 70000=
71068 11532 80208 11079 21095 39151 49839 56032 69921 77122 885//
333 11069 21173 47042 70002 90942=
71069 NIL=
71076 15/// /0704 11252 21279 39596 40002 58010 60001
333 11215 21310 70004=
71077 15/// /1405 11107 21118 39421 49965 58027 60001
333 11107 21170 70000=
71079 11456 80000 11193 21205 39726 40015 50000 69941 77177 885//
333 11180 21255 48050 70064 90983=
71082 NIL=
71083 11974 71509 11225 21255 39973 40017 56017 69901 77677 84031
333 11216 21334 44035 79999 90983 93100=
71090 15966 /2505 11284 21312 39964 40001 53021 60001
333 11259 21325 70000=
71091 45/// /2809 11295 39815 40032 53017 6///1
333 7////=
71092 45464 81806 11276 39342 40030 51018 6///1
333 11264 21293 7////=
71093 45/// /2323 11229 39498 40006 53018 6///1
333 11225 21240 7////=
71094 45/01 80108 11238 39054 49970 53013 6///1
333 11219 21238 7////=
71095 15966 01809 11324 21362 39934 40018 53025 60001
333 11233 21329 79999=
71101 45/// /3104 10034 20011 39862 49870 52051 6///1
333 10035 20008 7////=
71104 11374 71504 10004 21005 38777 49862 53031 69941 72672 87500
333 10006 21041 44059 70036 90926=
71108 NIL=
71109 11369 81109 10048 20041 39811 49837 53003 60091 78062 8726/
333 10048 20025 70468 90937=
71729 17/// /0203 10000 21002 39901 49977 56068 60011 7//4/
333 10001 21126 70010=

0000150100
920
SMCN08 CWAO 111800
AAXX 11184
71893 11562 81413 10063 20051 39837 49868 57010 60051 78082 885//
333 10079 20047 70454 90936=
71894 45/// /1914 10058 39842 49850 58013 6///1
333 10094 20049 7////=
71896 17966 81806 11002 21009 39032 49844 53033 60011 7004/
333 10002 21048 70063=
71897 11262 83615 10059 20052 3//// 4//// 52013 60021 76162 8882X   333
10074 20040 70068 90921=
71898 NIL=
71899 11485 70219 10046 20027 3//// 4//// 52042 60031 70262 86809   333
10049 20012 70134 90943=
71902 12974 02504 11166 21218 30110 40119 55002 60002 333
11140 21187 70000=
71905 NIL=
71906 12974 20000 11235 21288 30065 40119 58013 60001 82070 
333 11235 21285 79999=
71907 NIL=
71909 NIL=
71911 459// 01715 11259 39894 49952 57014 6///1
333 11259 21371 7////=
71912 11774 12805 11214 21248 39822 40012 55003 69901 77677
81501 333 11208 21229 47023 70030 90983=
71915 12974 83210 11302 21340 39982 40067 58004 60001 88010
333 11301 21333 70000=
71917 12874 42903 11217 21260 39925 49939 51007 60001 84030
333 11110 21308 70000=
71922 11466 80803 11125 21144 39521 49993 58016 69901 77122 885//
333 11089 21172 48051 70004 90962 93100=
71924 NIL=
71925 11459 22712 11363 21403 39891 49934 53001 69901 77677
82530 333 11267 21363 42014 79999 90973=
71926 11732 81510 11249 21278 39955 49980 55022 69941 77172 885//
333 11248 21335 48010 70007 90983=
71928 15/// /0903 11084 21108 38666 49820 56040 60001
333 11050 21158 70000=

0000152800
921
SMCN39 CWAO 111800
AAXX 11184
71950 NIL=
71952 15/// /0000 11086 21094 39002 49842 52028 60001
333 11037 21149 70055=
71954 45/// /2901 11129 21148 39633 40014 56007 6///1
333 11075 21136 7////=
71956 17/// /2404 10016 20014 39658 49885 58036 60101 7//4/
333 10031 21012 70295=
71959 15/// ///// 10037 21001 60001
333 10039 21049 70000=
71960 45/// /2727 11245 39810 49947 57025 6///1
333 11245 21344 7////=
71962 15/// /2811 11061 21073 39579 40002 50004 60001
333 11029 21062 70009=
71963 NIL=
71965 13680 33101 11290 21320 39331 49980 53005 69901
333 11218 21301 47036 70010=
71967 17/// ///// 10054 20035 39874 49979 56065 69931 7//4/
333 10058 21048 70017=
71970 NIL=
71971 17/// /1503 11225 21245 39900 49946 53008 69921 7//4/
333 11206 21248 70048=
71972 45/// /2719 39598 53008 6///1
333 7////=
71973 15/// /2308 11029 21054 39986 40177 56024 60001
333 11018 21077 70000=
71974 NIL=
71975 45/// /2713 11237 39265 40011 53019 6///1
333 11208 21237 7////=
71976 NIL=
71977 NIL=
71978 NIL=
71979 NIL=
71980 NIL=
71981 NIL=
71982 NIL=
71983 NIL=
71984 17/// /2418 11271 21297 39935 49944 58016 69921 7//4/
333 11263 21321 70005=
71985 45/// /2620 11233 21257 39948 49954 56027 6///1
333 11231 21295 7////=
71986 NIL=
71987 15/// /1410 11014 21023 30137 40147 56057 60001
333 11014 21083 70000=
71988 NIL=
71989 NIL=
71990 NIL=
71999 17/// ///// 10018 20014 39607 49895 52044 60121 7//4/
333 10027 20001 70210=

0000238000
922
SMCN22 CWAO 111800
AAXX 11184
71201 17/// ///// 10075 20045 69971 7//4/
333 10098 20060 70497=
71202 15/// ///// 11042 21061 60001
333 11027 21126 70000=
71203 17966 10904 10042 20024 39409 49919 53020 60041 7004/
333 10047 20001 70040=
71204 15/// /1203 11059 21092 38993 49974 58044 60001
333 11057 21131 70000=
71208 17/// /3206 11086 21103 39666 49944 58007 60021 7//4/
333 11077 21086 70045=
71209 45/// /1722 10077 20054 6///1
333 10100 20053 7////=
71211 17/// /1726 10085 20031 39887 49893 58005 69961 7//4/
333 10111 20036 7////=
71212 17/// /3001 10004 20004 39200 40001 56069 60051 7//4/
333 10004 21101 70049=
71213 NIL=
71214 NIL=
71215 17/// /1307 10101 20040 39590 49926 53016 69981 7//4/
333 10101 20006 70032=
71216 NIL=
71217 NIL=
71218 17/// /2405 10035 20018 39467 49885 58006 60021 7//4/
333 10046 20002 70055=
71219 45/// /3212 10037 20013 39842 49852 53040 6///1
333 10054 20016 7////=
71220 45/// /3012 10033 6///1
333 10047 20011 7////=
71221 NIL=
71222 15/// /0603 11186 21203 38919 49891 53008 60001
333 11122 21191 70002=
71223 NIL=
71224 NIL=
71225 NIL=
71226 NIL=
71227 NIL=
71228 NIL=
71229 NIL=
71230 NIL=
71231 15/// /2017 10049 21004 60001
333 10049 21105 70000=
71232 15/// /2606 10030 21028 38368 49815 58024 60001
333 10030 21016 70000=
71233 NIL=
71234 15/// /2535 10083 21015 38669 49822 58044 60001
333 10083 21089 70000=
71235 15/// /2312 10041 21035 60001
333 10043 21083 70000=
71236 45/// /1702 10026 20017 6///1
333 10032 20006 7////=
71237 45/// /2015 10044 21016 39007 49804 56055 6///1
333 10045 21152 7////=
71238 15/// /1417 11031 21055 60001
333 11031 21112 70000=
71239 15/// /2711 11071 21083 39576 40044 51007 60001
333 11050 21098 70000=
71240 15/// /1122 11038 21064 39038 49874 58072 60001
333 11037 21091 70000=
71242 15/// /1605 11052 21071 60001
333 11037 21120 70004=
71243 15/// /2219 10075 20000 38833 49889 56024 60001
333 10075 21056 70000=
71244 15/// /2122 10066 21004 38695 49896 58025 60001
333 10067 21107 70000=
71245 45/// /0000 11051 21055 6///1
333 11048 21101 7////=
71246 NIL=
71247 15966 01918 10056 21009 39053 49894 56038 60001
333 10060 21116 70000=
71248 15/// /3001 11059 21100 38527 49815 56048 60001
333 11034 21170 70000=
71249 NIL=

0000162400
923
SMCN06 CWAO 111800
AAXX 11184
71816 12774 82608 11065 21138 30064 40127 56013 60001 885// 333
11064 21136 70000=
71818 12574 70000 11074 21121 30107 40125 55001 60001 81508
333 11060 21163 79999=
71821 45/// /1906 10006 20006 39548 49889 56048 6///1
333 10006 21065 7////=
71822 NIL=
71825 11440 81305 11096 21117 39393 40075 56035 69961 77177 887//
333 11095 21136 48090 70008 90983 93101=
71827 11448 80811 11042 21055 39689 49931 58052 69941 77177 885//
333 11037 21067 47016 70018 90983=
71828 NIL=
71831 11466 82706 11012 21018 39607 49883 58028 60011 72272
885// 333 11012 21026 48080 70072 90913 93101=
71832 17/// /3004 11012 21022 39568 49888 57025 60021 7//4/
333 11012 21034 70048=
71834 11262 83104 11039 21050 39495 49918 58015 69901 77177
887// 333 11021 21039 44028 70012 90983=
71841 NIL=
71842 11456 83110 11065 21083 39504 49976 50002 69901 77177 886//
333 11049 21075 47042 70004 90983=
71844 NIL=
71845 11548 82908 11069 21089 39473 49947 58002 69941 77177 885//
333 11069 21092 44037 90973=
71850 11256 83008 11097 21110 39505 40009 50004 69901 77172 887//
333 11042 21097 48047 70022 90937 93100=
71854 11256 82809 11077 21094 39520 49995 53006 69921 77172 887//
333 11057 21085 48050 90936=
71856 15/// /2305 11026 21073 39929 40184 58017 60001
333 11020 21073 70000=
71858 17/// /2906 11073 21084 39724 40007 53005 69921 7//4/
333 11060 21098 70002=
71861 15/// /1202 11117 21131 39291 40026 58020 60001
333 11051 21137 70000=
71862 12974 82106 11074 21081 39335 40043 58023 60001 87071
333 11073 21146 79999=

0000096500
924
SMCN29 CWAO 111800
AAXX 11184
71900 NIL=
71903 NIL=
71904 NIL=
71914 17/// /0103 10056 20046 39693 49909 58019 60031 7//4/
333 10082 20040 70309=
71916 NIL=
71918 45/// ///// 11277 39553 49989 58014 6///1
333 11277 21356 7////=
71920 17/// /1818 10059 20055 30150 40156 58064 60021 7//4/
333 10060 20002 70022=
71921 16666 1//// 11093 21118 39427 40074 57020 60001
333 11089 21124 70000=
71923 NIL=
71927 17/// /1705 10066 20060 39857 49913 58015 69941 7//4/
333 10101 20056 70076=
71932 17/// /1806 10048 20048 39540 49925 58050 60011 7//4/
333 10051 21015 70066=
71933 17/// /0000 11044 21048 39030 49841 51037 69941 7//4/
333 11027 21085 70053=
71941 17116 81808 10010 20009 39494 49903 58046 60041 76144
333 10010 21074 70053=
71944 17/// /0202 11049 21058 39018 49838 53022 60041 7//4/
333 11039 21087 70074=
71947 17258 81808 10007 20003 39546 49886 56047 60041 7104/
333 10007 21064 70045=

0000049400
925
SMIN90 VABP 111800
AAXX 11184
42675 31495 50000 10132 20117 40197 71044
  333 58055 85710=
42571 31992 40000 10118 20110 40199 74444 84030
  333 58050=
42361 31994 00000 10096 20084 40211 71044
  333 58045=
42754 31993 00000 10116 20097 39539 40202 71000
  333 58040=
42671 31995 00000 10106 20095 39558 40205 71000
  333 58045=
42559 32996 00000 10106 20095 39558 40205 71000
  333 58045=
42667 31995 00705 10130 20108 39592 40203 71044
  333 58046=
00000000