0000010000
546
SMVC01 LFPW 111800
BBXX
BAREU08 11184 99329 50716 46/// ///// 40138 52003
22241=
0000145800
547
SMAL01 DAMM 111800
AAXX 11184
60360 12660 71502 10132 20116 40194 53011 60002 85532
  333 10201 85640 83073 95990=
60390 12558 79902 10153 20126 40206 53014 60002 81832
  333 10187 81826 85358 95990=
60402 NIL=
60419 12660 60000 10126 20043 40216 53006 60002 81532
  333 10159 81640 85360 95900=
60475 12670 50000 10130 20020 39258 48516 51009 60002 83032
  333 10184 83360 84073 95990=
60490 11665 82202 10132 20119 40196 52013 69942 70362 8553/
  333 10164 85633 84360 95990=
60525 12660 7//// 10164 20065 40130 52010 60002 872//
  333 10190 87840 95900=
60531 11558 83604 10130 20101 40200 52011 69922 76062 8357/
  333 10159 83630 86460 95990=
60566 12660 71207 10143 20054 40217 53003 60002 8523/
  333 10168 85840 83360=
60571 11530 30304 10137 20051 39248 48509 52014 60002 70610 82280
  333 10170 82833 95990=
60580 12660 73605 10146 20071 40210 52006 60002 8423/
333 10181 84840 84360=
60590 NIL=
60611 12960 51208 10161 21015 40196 53006 60002 80002
  333 10220 20061 85070=
60620 11920 02207 10210 21097 40161 52016 60002 70600
  333 10259=
60630 11730 62208 10248 21039 40165 53005 60002 70622 84230
333 10288 84856 83362=
60656 12960 20204 10193 20015 40175 53008 60002
 333 10208=
60670 12970 60000 10162 20032 39117 48553 51014 60002 83082
333 10212 83360 84073 95990=
60680 12775 61807 10168 21050 38678 48554 53011 60002 81232
  333 10207 81856 83362 95990=
0000147600
548
SMAL02 DAMM 111800
AAXX 11184
60351 12960 60000 10151 20108 40193 53009 60002 85032
  333 10212 85359 83070 95990=
60355 12960 70000 10156 20119 40197 53012 60002 80002
  333 10186 84360 84073 95990=
60445 12565 70606 10101 20032 39051 48526 53004 60002 82232
  333 10142 82830 84360 95990=
60468 12560 6//// 10112 20039 39255 48515 53011 60002 81232
  333 10156 81826 83360 95990=
60507 11657 83604 10116 20105 40191 51004 60012 72166 8457/
  333 10146 84633 86460 95990=
60511 11560 71110 10087 20073 39084 48522 53013 60072 72162 8327/
  333 10122 83826 87359 95990=
60535 12558 5//// 10101 20052 38858 48522 53004 60002 83230
  333 10126 83830 95990=
60536 11956 80000 10103 20085 39325 48518 53004 60022 76062 8807/
  333 10127 88460 95990=
60549 11658 62504 10084 20059 38920 48519 55003 60002 70222 8427/
  333 10123 84830 84460 95990=
60550 11560 60000 10084 20032 38675 48515 58005 69902 70252 84530
   333 10120 84630 83360 95990=
60555 12670 60000 10137 20086 40219 53004 60002 82230
  333 10161 82840 84360=
60559 12960 6//// 10140 20085 40213 51010 60002 84232
333 10172 84840 83360=
60581 11660 80000 10172 20058 40218 53012 69902 72162 8427/
333 10210 84840 86460=
60602 12950 01004 10193 21013 40147 53014 60002
 333 10223 95990=
60607 12956 02408 10198 21089 40150 53008 60002
333 10248=
60640 12660 60910 10210 21057 40189 53005 60002 82202
  333 10266 82846 85073=
60690 NIL=
0000128800
549
SMAL03 DAMM 111800
AAXX 11184
60395 12665 7//// 10163 20103 40199 53010 60002 8227/
  333 10190 82840 86360 95990=
60421 12665 50000 10103 20055 39175 48518 55002 60002 82232
  333 10160 82833 84360 95990=
60423 12665 7//// 10115 20028 39224 48497 53009 60002 83232
  333 10175 83840 85073 95990=
60430 12659 70000 10130 20073 40204 51001 60002 8553/
  333 10179 85633 83360 95990=
60437 12570 82402 10096 20072 39001 48508 53008 60002 888//
  333 10134 83820 85640 95990=
60444 12660 50000 10120 20052 39116 48530 53008 60002 85200
  333 10138 85833 95900=
60452 11565 82204 10162 20119 40199 51013 69932 72102 882// 222//
 2////
  333 10186 88823 91826=
60457 11560 80000 10127 20110 40198 52012 69922 70262 8257/
  333 10181 82526 87460 95990=
60514 12960 80000 10102 20060 39300 48532 55000 60002 8807/
  333 10143 88460 95990=
60518 11560 80000 10148 20105 40181 53013 60012 70262 8427/
  222// 20000
  333 10182 84820 86460 91806 95990=
60520 12560 70000 10121 20106 40192 53010 69942 875//
  333 10144 87626 95990=
60540 11560 70207 10096 20077 39018 48487 53003 69952 70266 8457/
  333 10114 84633 85460 95990=
60560 11660 50000 10100 20031 38951 48503 53006 69922 70122 82282
  333 10126 82840 83360  95990=
0000084300
550
SMAL50 DAMM 111800
AAXX 11184
60612 36/// /0000 10171 21044
  333 10216=
60617 NIL=
60619 36/// /1606 10203 21027
  333 10238=
60621 36/// /2112 10223 21042
  333 10260=
60633 36/// /0608 10190 21040
  333 10237=
60650 NIL=
60660 36/// /1604 10227 21054
  333 10260=
60661 NIL=
60662 36/// /0000 10183 21127
  333 10226=
60663 NIL=
60664 36/// /0000 10153 21046
  333 10178=
60667 36/// /0000 10199 21058
  333 10227=
60672 36/// /0000 10198 21108
  333 10239=
60673 NIL=
60674 NIL=
60675 NIL=
60676 NIL=
60677 NIL=
60679 NIL=
60681 NIL=
60682 36/// /0000 10185 21063
  333 10207=
60683 NIL=
60685 NIL=
60688 NIL=
60689 NIL=
60691 NIL=
60692 36/// ///04 10222 21042
  333 10262=
60693 NIL=
60694 NIL=
60695 36/// /1305 10212 21038
  333 10239=
0000040700
551
SMAL51 DAMM 111800
AAXX 11181
60370 36/// /1401 10177 20090
  333 10201=
60371 NIL=
60372 36/// /3202 10156 20082
  333 10178=
60373 NIL=
60374 NIL=
60376 NIL=
60379 NIL=
60380 NIL=
60381 NIL=
60393 NIL=
60394 NIL=
60593 NIL=
60595 NIL=
60605 NIL=
60613 NIL=
60623 NIL=
AAXX 11184
60624 36/// /0000 10190 20025
  333 10210=
60639 NIL=
60645 NIL=
0000209300
552
SMMO02 MNUB 111800
AAXX 11181
44203 329// 60201 11343 21379 38502 40661 57002 83017
333 91202=
44207 329// 21802 11202 21249 38371 40482 54000 82040
333 91204=
44212 329// 30000 11349 21390 39295 40633 57006 80004
333 91200=
44213 32999 20000 11328 21362 38918 40620 57007 80001
333 91202=
44215 32998 00000 11276 21299 38497 40598 57011 333
91202=
44218 329// 01802 11282 21302 38704 40585 58003 333
91202=
44225 419// 80000 11263 21296 38347 40594 57008 77077
8802/=
44230 329// 40304 11229 21269 38873 40504 57003 80008
333 91206=
44232 329// 00000 11267 21293 39210 40484 54000=
44237 32999 50000 11174 21233 38547 40417 57002 82048=
44239 329// 51801 11198 21247 38876 40447 58001 83044=
44241 329// 01802 11280 21307 39280 40481 54000 333
91205=
44256 32999 20000 11309 21319 39464 40440 58004 80009
333 91200=
44265 329// 00000 11176 21217 38927 40445 58008 333
91200=
44272 329// 50000 11219 21276 38275 40517 57007 85080=
44275 328// 63001 11249 21307 37760 40577 58010 83041
333 91202=
44282 32999 50000 11190 21280 38349 40446 57009 80008=
44284 329// 60000 11268 21310 37900 40602 57008 80007
333 91202=
44285 329// 61701 11255 21289 38384 40526 57008 80007
333 91202=
44287 328// 50605 11193 21285 38177 40498 58012 82044
333 91207=
44294 329// 03502 11320 21357 38638 40577 57004 333
91203=
44298 329// 03403 11223 21289 38796 40454 58003 333
91204=
44302 329// 10000 11302 21332 39211 40488 51002 80004
333 91200=
44305 32999 00502 11241 21280 39153 40439 51001 333
91204=
44313 32999 02703 11309 21332 39494 40450 51004 333
91203=
44314 32998 30000 11282 21320 39250 40483 54000 83080
333 91202=
44317 32998 60000 11237 21284 39039 40470 50000 80008
333 91200=
44336 329// 00000 11225 21285 38777 40506 57007 333
91202=
44341 329// 02902 11200 21250 38680 40475 57011 333
91202=
44347 32999 03202 11191 21245 38803 40482 57014 333
91202=
44352 32999 03207 11191 21240 39002 40410 58003 333
91207=
44358 329// 03202 11179 21248 39198 40450 57001=
0000138300
553
SMMO40 MNUB 111800
AAXX 11181
44210 32999 03101 11259 21302 38603 58003 333 91202=
44216 32999 00000 11351 21380 39141 40627 53003 333
91201=
44217 32998 00000 11242 21293 37881 40576 57005 333
91203=
44219 32998 50000 11284 21313 38718 40583 51006 85050=
44221 419// 60000 11305 21323 38707 40608 57004 70272
86070=
44224 32998 20000 11289 21313 38113 40618 57004 80004=
44229 32999 70000 11215 21247 37975 40497 58016 85017=
44242 329// 03201 11287 21312 39441 40471 57002 333
91201=
44243 329// 00000 11322 21358 39536 40498 58003 333
91203=
44254 329// 20000 11235 21256 39122 40450 58001 80004
333 91201=
44257 329// 70000 11252 21282 39061 40450 58004 80008
333 91200=
44263 32998 00000 11242 21297 38118 40551 56003=
44266 329// 03407 11165 21270 37800 40403 57002 333
91208=
44286 329// 01802 11200 21254 38719 40452 57003 333
91205=
44291 319// 02301 11327 21365 38825 40570 58003 70400=
44325 329// 00000 11195 21253 38951 40468 58008 333
91200=
44329 32998 03602 11181 21325 37807 40152 58015 333
91205=
44338 32999 21601 11223 21278 38552 40514 57010 80004
333 91203=
44348 329// 00000 11163 21204 38786 40447 57008=
44374 32999 02003 11135 21268 38333 40453 52012 333
91204=
44385 32999 02703 11119 21228 39026 40428 58012 333
91203=
44386 329// 03203 11184 21265 39159 40464 57007=
0000003900
554
UPTS01 DTTA 111800
NIL=
0000011900
555
SMOM10 OOMS 111800 RRB
AAXX 11184
41262 36/// /0000 10177 20051 30002 40203
333 0E018 10247 59002 =
0000005700
556
UGNZ21 NZKL 111800
PPBB  1118/ 93844 NIL=
0000028300
557
SXHW11 KWAL 111820
B1404042 011182023"
1,140111,17:15:00,0.9,346,1.0,0.0,1013.5,3.00,11.7,
1,140111,17:30:00,0.3,311,1.0,0.0,1013.6,3.00,11.7,
1,140111,17:45:00,0.5,309,4.0,0.0,1013.9,3.00,11.7,
1,140111,18:00:00,0.5,154,3.1,0.0,1014.1,3.00,11.7, 44-0NN  30W
0000175600
558
UKUK80 EGRR 111800
TTBB 61178 03882
00016 05250 11015 06450 22013 07056 33008 07258 44983
05457 55951 02841 66936 01642 77930 01457 88913 02068
99900 02279 11876 00877 22852 00880 33834 00576 44827
00579 55815 00292 66803 00897 77769 01994 88740 03385
99680 09379 11664 10182 22650 10383 33614 14371 44609
14166 55584 16165 66561 18962 77539 21561 88531 22361
99525 22763 11508 24562 22488 26564 33481 27362 44460
29763 55457 29967 66456 30368 77431 34166 88411 37162
99399 39358 11389 40556 22381 41759 33375 42758 44371
42965 55363 43967 66339 48166 77325 50557 88320 51157
99314 51761 11300 54161 22284 56960 33275 58358 44263
60357 55253 61757 66250 60358 77245 59159 88241 57561
99234 58763 11219 59965 22206 57972 33200 54577 44193
53582 55184 55782 66169 53783 77150 51783 88144 51983
99136 53583 11132 51983 22127 51983 33121 53583 44120
52983 55116 53583 66113 52983 77108 54383 88102 55182
99100 54782
21212 00016 00000 11002 30506 22979 31007 33952 31005
44928 33010 55916 34513 66886 33516 77862 32022 88838
32023 99816 30531 11803 30029 22786 30028 33771 32028
44758 32031 55754 32032 66744 31034 77702 30030 88650
27536 99630 27538 11608 30041 22561 29538 33516 29540
44465 29553 55439 29052 66416 29555 77380 30051 88346
30544 99317 32054 11294 31559 22279 30555 33276 30556
44255 30566 55248 31552 66236 28530 77224 26049 88219
26555 99211 28563 11201 30052 22194 28538 33182 26550
44175 27549 55172 26544 66166 26047 77160 27551 88157
27546 99153 26543 11147 29037 22142 27531 33135 28036
44130 29023 55127 27521 66124 26024 77119 26532 88111
27025 99105 27032 11103 27029 22100 27025
31313 48108 81715
41414 /////
51515 11899 34016 22800 30028 33600 30040=
0000035400
559
USUK80 EGRR 111800
TTAA 61171 03882
99016 05250 00000 00188 06657 30507 92821 01460 33511
85501 00679 32022 70042 07381 30030 50558 25363 29545
40715 38959 29553 30906 54161 31558 25021 60358 31056
20161 54777 30049 15346 51783 27538 10607 54782 27025
88253 61757 31064
77255 30566 41441 77211 28563 42823
31313 48108 81715=
0000216500
560
SZNZ01 NZKL 111821
CREX++
T000103 A001 D01021 D06025++
-3683144 17478654 AUCT  2014 01 11 18 13 //// 11 07 00 01
05523 3161 05517 3162 05509 3161 05504 3163 05499 3165 05494 3166+
-4402404 -17636748 CHIT  2014 01 11 18 13 //// 11 07 00 01
04503 2002 04486 1987 04475 1979 04483 1989 04484 1994 04465 1978+
-4089929 17623168 CPIT  2014 01 11 18 13 //// 11 07 00 01
03609 2313 03613 2321 03612 2326 03596 2313 03590 2312 03576 2303+
-3618905 17548887 GBIT  2014 01 11 18 13 //// 11 07 00 01
06012 0014 06025 0032 06028 0040 06012 0028 05984 0005 05982 0008+
-3867541 17802288 GIST  2014 01 11 18 13 //// 11 07 00 01
03881 2754 03888 2766 03879 2761 03891 2778 03878 2770 03875 2772+
-4241288 17370277 KAIT  2014 01 11 18 13 //// 11 07 00 01
02963 2264 02952 2257 02941 2251 02940 2254 02936 2253 02936 2258+
-3755040 17815904 LOTT  2014 01 11 18 13 //// 11 07 00 01
03535 0196 03532 0198 03533 0204 03537 0212 03512 0191 03508 0192+
-3704657 17451175 MNKT  2014 01 11 18 13 //// 11 07 00 01
03430 -0120 03464 -0089 03439 -0117 03471 -0089 03435 -0128 03477 -0089+
-3947566 17692007 NAPT  2014 01 11 18 13 //// 11 07 00 01
02767 2038 02790 2066 02783 2064 02777 2063 02761 2052 02752 2048+
-3441483 17304870 NCPT  2014 01 11 18 13 //// 11 07 00 01
-04427 -9252 -04418 -9240 -04451 -9270 -04435 -9250 -04416 -9228 -04419 -9227+
-4581435 17062939 OTAT  2014 01 11 18 13 //// 11 07 00 01
03957 3520 03954 3518 03950 3516 03947 3516 03945 3516 03943 3516+
-2928002 -17789440 RBCT  2014 01 11 18 13 //// 11 07 00 01
06127 2045 06105 2027 06105 2030 06109 2037 06111 2042 06098 2032+
-2925114 -17790384 RFRT  2014 01 11 18 13 //// 11 07 00 01
03045 0174 03030 0163 03028 0164 03036 0175 03003 0144 03016 0161+
-4357010 17277383 SUMT  2014 01 11 18 13 //// 11 07 00 01
01391 1823 01410 1846 01386 1827 01397 1842 01389 1839 01388 1842+
-3764109 17618118 TAUT  2014 01 11 18 13 //// 11 07 00 01
05276 3983 05269 3980 05264 3980 05247 3967 05249 3974 05240 3969+
-4128448 17477985 WLGT  2014 01 11 18 13 //// 11 07 00 01
02788 2029 02793 2037 02788 2035 02786 2036 02781 2035 02778 2034++
7777
0000326800
561
SMRS14 RUMS 111800
AAXX 11181
22165 42996 01205 11194 21213 30120 40187 54000 333 96110=
22676 41450 80903 11112 21132 39890 49970 57002 77172 8872/=
22837 41496 80104 11132 21159 39878 49952 51013 77172 8872/ 333
86710=
22954 41497 83404 11082 21088 39638 49890 52020 77172 8672/ 333
86712=
23112 42998 01001 11353 21387 30214 40224 54000=
23114 42997 01001 11329 21364 30112 40222 58001=
23503 42998 80303 11238 21277 3//// 4//// 57/// 8801/=
23405 42968 89901 11230 21255 30018 40128 57010 80007=
23412 42999 00202 11285 21315 30054 40164 57005=
23708 41333 80803 11069 21076 39842 49994 57016 77372 8772/ 333
87708=
23803 41597 80405 11050 21060 39824 40005 56013 77173 8802/ 333
88520=
23812 42496 81302 11060 21067 39883 40048 57012 77172 8672/ 333
86711=
27020 41497 83203 11097 21123 39756 49910 52024 77172 885// 333
88617=
27066 41398 81502 11005 21006 39695 49870 57001 70272 888// 333
88708=
27083 41350 81202 11035 21040 39686 49909 53009 77173 8802/ 333 91004
91108=
27106 41998 83104 11079 21098 39789 49948 52025 77172 8007/ 333
91111=
27113 41328 83203 11068 21092 39772 49920 53036 78582 883// 333
86707=
27242 41496 82401 10004 20004 39739 49865 52011 71082 889//=
27277 41294 80000 10000 21003 39708 49874 57002 77172 8872/ 333 88705
91000 91100=
27283 41496 81303 11009 21022 39739 49895 57012 77173 8872/ 333 88712
91006 91107=
27296 41496 81404 11017 21028 39701 49919 57018 77173 8872/ 333 91009
91111=
27329 41450 83106 10003 21006 39778 49901 52027 77372 887// 333
91110=
27355 41/93 91801 10005 20003 39712 49873 52006 74544=
27373 41496 81603 11008 21012 39663 49877 56002 77173 8802/ 333 91004
91107=
27453 42497 82102 10011 20006 39754 49880 52005 8802/ 333 88514 91003
91105=
27485 41395 81802 10000 21008 39741 49888 57004 77372 8872/ 333 91003
91105=
27491 41496 81604 11001 21001 39714 49889 57011 78583 889// 333 91005
91107=
27577 41396 82303 10009 20009 39746 49899 51004 76176 8872/ 333 88709
91005 91106=
27593 41995 81604 11001 21002 39717 49904 57009 77373 8002/ 333
91112=
27643 42497 82204 10014 20009 39733 49872 54000 885// 333 88610 91004
91108=
27653 42496 82102 10006 20003 39750 49901 52004 885// 333 88613 91003
91104=
27665 41996 82002 10002 21004 39642 49907 52004 72842 8802/ 333 91004
91105=
27697 41495 81906 10000 20000 39727 49919 52007 77372 8872/=
27752 41496 82303 10005 21003 39744 49913 53012 77172 8872/ 333 91004
91105=
27756 41497 82503 10003 20000 39687 49917 52003 75154 886// 333 88711
91004 91106=
27760 42396 82006 10008 21000 39681 49931 52012 71072 886// 333 91007
91108=
27835 419// 72703 10011 21006 39800 49956 52023 70262 87050 333
91111=
28009 41496 80902 11030 21047 39759 49969 57014 78583 8691/ 333 91007
91109=
28411 41394 81406 11017 21028 39788 49982 57017 77573 8872/ 333 91009
91110=
28418 41395 81607 11015 21023 39828 49994 57018 77373 8872/ 333 88709
91010 91113 92982=
28502 41596 81507 10004 21002 39822 49924 57018 78583 889// 333 91009
91111 92982=
28517 41395 81608 11001 21006 39831 49968 57017 77173 8872/ 333 88509
91012 91115=
28612 41497 71608 10005 21003 39875 49973 56022 78532 85902 333 91014
91115=
0000267000
562
SMRS16 RUMS 111800
AAXX 11181
34240 41497 72507 10020 20006 39890 40026 53013 78082 86930 333 91011
91114=
34253 41598 82307 10023 20008 39848 40012 52013 70282 884// 333 91010
91111=
34254 41596 82403 10027 20014 39909 40029 53017 78088 889// 333
91110=
34262 41496 82505 10024 20013 39873 40016 52009 76162 8872/ 333 91010
91110=
34267 41598 82405 10031 20010 39903 40029 52010 70282 883// 333 91010
91111=
34321 12997 83005 10038 21008 39932 40070 52016 60032 8805/ 333 10056
91011 91112=
34344 41598 72604 10037 20010 39970 40058 52018 70282 85930 333 91010
91111=
34356 12998 82305 10039 20016 39889 40035 52013 60032 8807/ 333 10043
91111=
34373 42597 82004 10022 20015 39996 40040 52005 883// 333 91010
91111=
34438 41597 62505 10031 20009 39897 40088 52016 70182 86500 333
91115=
34445 42598 82506 10038 20004 39958 40071 52017 8793/ 333 91011
91113=
34476 42998 82207 10037 20017 30060 40067 50001 8803/ 333 91010
91111=
34535 42998 62606 10054 20009 30031 40102 52011 86030 333 91011
91111=
34555 42598 82309 10036 20015 30006 40097 52008 885// 333 91013
91114=
34560 41697 82511 10033 20013 39912 40077 52009 70282 8357/ 333 91014
91115=
34578 42997 82104 10042 20019 30092 40099 52006 8806/=
34644 41497 82704 10035 20003 30048 40124 52010 78082 889// 333
91111=
34646 41598 82506 10036 20014 30036 40118 52009 78082 889// 333 91011
91114=
34655 42597 82408 10044 20011 30056 40116 52006 885// 333 91011
91113=
34662 42998 02507 10042 20008 30089 40101 52006 333 91012=
34720 42597 72502 10031 20010 30105 40145 52009 87500 333 91113=
34727 42997 42205 10044 20014 30157 40161 52006 84030 333 91112=
34730 42497 72508 10045 20017 30047 40139 52011 82530 333 91012
91113=
34740 42998 22506 10033 20006 30054 40151 50008 82030 333 91011
91113=
34743 42497 72405 10034 20009 3//// 4//// 5//// 87500 333 91113=
34759 41996 32406 10034 20011 30017 40149 51014 71011 82031 333 91011
91111=
34785 41997 42302 10014 20001 30157 40134 52010 70361 82031=
34824 42997 02604 10047 20011 30174 40179 52008 333 91111=
34845 32998 02703 10042 20011 30051 40158 52013=
34858 41996 02404 10041 20004 30054 40162 52011 71011 333 91111=
34861 42997 02507 10019 20001 39907 40150 51010 333 91112=
34866 82998 02105 10029 20008 30158 40149 52011=
34880 41696 51902 10028 20016 30171 40145 52012 71022 85500=
34887 42598 52302 10039 20014 30180 40161 53017 85500=
37018 42698 72304 10085 20018 30147 40223 52008 86901 333 91110=
37054 42697 62305 10044 21006 39814 40200 52008 84530 333 91110=
37472 42597 82804 10079 20018 30200 40178 52017 8457/=
0000335600
563
SMRS15 RUMS 111800
AAXX 11181
22282 NIL=
22438 NIL=
22471 41496 80809 11193 21212 30051 40077 53004 73833 885// 333 88618
91012 91115 92990=
22563 41895 80204 11169 21188 39972 40009 57003 77373 8802/=
22641 41396 80403 11152 21172 39971 49987 52005 77373 8272/=
22695 41995 80707 11142 21159 39839 49999 58006 73873 8802/ 333 91011
91112=
22867 41497 83402 11063 21073 39763 49876 52009 77172 8672/ 333
86712=
22939 41496 83104 11112 21128 39767 49935 52021 77073 8872/ 333 84712
91110=
22996 41595 71403 11034 21048 39734 49919 57012 78583 85910=
23324 42980 00404 11361 21397 30098 40189 57002=
27008 41496 82903 11099 21119 39781 49956 52021 77187 8472/=
27051 41396 80000 11001 21002 39691 49854 52004 77172 8652/ 333
85708=
27225 41458 83106 11044 21062 39786 49918 52036 77172 8872/ 333 91012
91113=
27252 41493 81801 11001 21001 39682 49865 52004 74442 886// 333
88711=
27333 41384 83004 10004 21001 39724 49879 52017 77176 887// 333
88708=
27369 41695 82201 10004 20001 39743 49878 52002 71072 8802/ 333 91001
91103=
27393 41495 81304 11006 21010 39743 49908 57016 77373 8872/ 333 91007
91109=
27479 41397 82503 10005 21001 39757 49888 53005 70272 886// 333 88707
91006 91108 93703=
27532 41296 82705 11000 21005 39695 49905 53021 78582 8695/ 333
86704=
27648 41496 82805 10010 20007 39745 49911 52014 78082 889//=
27675 41496 82004 10004 21002 39740 49906 52008 885// 333 91004
91107=
27679 41496 82205 10006 20003 39696 49916 52006 71082 886// 333 91008
91108=
27776 41962 82103 10012 20004 39801 49923 52006 70272 8805/=
27799 41550 82203 10008 20005 39855 49945 53011 77172 8802/ 333
88522=
27858 41297 82605 10000 21002 39624 49942 52011 77177 8872/ 333
91111=
27872 41579 81902 10009 20006 39723 49937 52004 70272 886//=
27894 41484 82207 10012 20004 39777 49953 52017 70282 887// 333 88713
91011 91111=
27955 41364 82605 10005 21002 39702 49954 52013 77177 8872/ 333
88508=
27972 41450 82204 10005 20001 39645 49952 52003 71072 886// 333
88712=
27981 42997 72204 10019 20005 39834 49955 51006 87030=
28214 41495 81206 11020 21029 39754 49965 57019 77373 8872/ 333 91010
91112=
28705 41420 81906 10003 21002 39755 49949 55002 77173 8802/ 333 88513
91011 91116 92982=
28806 41396 82005 10009 21003 39875 49993 56012 77172 8802/ 333 88509
91113=
28908 41484 81710 10010 21010 39906 40014 57017 70273 8804/ 333 91015
91116=
28916 41560 81808 11004 21010 39815 40054 56023 72272 8802/ 333 88522
91016 91116=
34056 41596 82504 10006 20001 39709 49966 52003 72682 889// 333
88920=
34072 41396 82407 10006 21000 39606 49971 51017 77172 8872/ 333 88508
91012 91112=
34083 41458 81905 10018 20009 39867 49948 52011 75175 886// 333
88713=
34098 41450 82405 10019 20002 39952 49997 51011 71076 885// 333 88618
91111=
34199 41997 82206 10011 20003 39902 40031 51014 70272 80020 333
91111=
34273 41595 82105 10018 20006 39953 40014 52005 71022 885// 333 88626
91010 91112=
35001 41997 82006 10012 20001 39921 40001 51018 70276 88010 333 91010
91112=
35007 41397 82207 10013 20005 39929 40019 51019 70273 886// 333 88708
91112=
35127 41496 81906 11000 21004 39931 40113 58010 77172 8802/ 333 88519
91011 91111=
35138 42497 82008 11019 21031 39800 40156 52006 886// 333 88710
91111=
0000127100
564
SMAG02 SABM 111800
AAXX 11184
87344 32962 11106 10278 20102 39622 40181 57003 81060 333 56000
81360=
87349 32670 11106 10278 20133 39806 40192 56001 81100 333 56800
81840=
87371 32962 01409 10291 20105 30156 40177 53005=
87374 32965 11420 10279 20080 30090 40177 52007 80001 333 56000
81070=
87395 32565 81417 10274 20181 30114 40158 51008 85507 333 56304
85625 88270=
87418 32965 20507 10309 20044 39361 40128 57024 82070
333 56070 82365=
87436 32670 10917 10317 20060 39356 40140 58015 81100 333 56800
81840=
87448 32965 00516 10300 20102 39633 40185 57007=
87467 32970 01412 10256 20126 30077 40210 52011=
87480 32965 01411 10269 20103 30161 40190 52005=
87497 32965 11811 10258 20116 30162 40190 51009 80001 333 56006
81070=
87506 32970 03607 10272 20058 38613 48539 58017 333 95000=
87509 32970 10910 10298 20089 39324 40156 57016 81060 333 56060
81360=
87532 32970 00906 10260 20079 30036 40205 57013=
87534 32960 00508 10285 20074 30040 40199 57004=
87548 32965 01611 10251 20059 30110 40206 51004=
87576 32560 11812 10244 20052 30180 40204 52008 81501 333 56406
81630=
87582 32960 11809 10250 20006 30189 40196 52008 80001 333 56000
81070=
87585 32960 01805 10250 20079 30168 40197 51008 =
0000010000
565
SMAG02 SABM 111800 RRA
AAXX 11183
87453 32965 00208 10259 20116 39709 40192 57005=
00000000