0000114600
766
SNCN19 CWAO 111732
OOXX
PGP51 11151 99026 31508 ///// 00401
     26/// /0000 10270 29085 30062 91530 333 60000=
PGP51 11151 99026 31508 ///// 00401
     26/// /0000 10270 29085 30062 91540 333 60000=
PGP51 11151 99026 31508 ///// 00401
     26/// /0000 10270 29085 30061 91550 333 60000=
PGP51 11161 99026 31508 ///// 00401
     26/// /0000 10270 29085 30060 91600 333 60000=
PGP51 11161 99026 31508 ///// 00401
     26/// /0000 10270 29084 30060 91610 333 60000=
PGP51 11161 99026 31508 ///// 00401
     26/// /0000 10270 29084 30059 91620 333 60000=
PGP51 11161 99026 31508 ///// 00401
     26/// /0000 10270 29084 30059 91630 333 60000=
PGP51 11161 99026 31508 ///// 00401
     26/// /0000 10268 29083 30058 91640 333 60000=
PGP51 11161 99026 31508 ///// 00401
     26/// /0000 10268 29086 30058 91650 333 60000=
PGP51 11171 99026 31508 ///// 00401
     26/// /0000 10265 29087 30056 91700 333 60000=
PGP51 11171 99026 31508 ///// 00401
     26/// /0000 10263 29088 30056 91710 333 60000=
PGP51 11171 99026 31508 ///// 00401
     26/// /0000 10263 29089 30056 91720 333 69920=

0000015100
767
SSVB09 RJTD 111800
ZZYY 21709 11014 1800/ 127491 142176
11109 0//// 1//// 2//// 30238 40238 5////
22209 00217 10803 20081 21016=

0000015100
768
SSVB12 RJTD 111800
ZZYY 21708 11014 1800/ 135459 154184
11109 0//// 1//// 2//// 30202 40202 5////
22209 00143 11009 20096 21045=

0000051700
769
SMIL01 BIRK 111800
AAXX 11184
04005 22788 22302 11018 21061 40051 52023 82800 333 10023 21025 69918 555 3/204=
04018 32686 11008 11014 21038 40052 52014 81200 333 10000 21017 555 3//08 81834 81648=
04030 NIL=
04048 NIL=
04063 22680 83400 11001 21007 40051 52026 8691/ 333 10008 21005 60028 555 3//02=
04077 NIL=
04082 22888 23405 10012 21034 40038 52027 82060 333 10020 20008 60028 555 3//05 82356=
04097 21584 70607 10027 20017 40015 53014 71582 87300 333 10028 20017 60018 555 3/415=
0000013500
770
SMIL02 BIRK 111800
AAXX 11183
04013 32689 61602 11026 21072 40057 52024 82230 333 10020 21026 555 3//05=
04064 NIL=
0000136200
771
UAPS01 NZKL 111800
AIREP
LAN801 3700S 17430E 1713 F069 PS09 232/11=
QFA16 0230S 17300W 1708 F340 MS37 176/28=
QFA16 0336S 17430W 1722 F340 MS38 193/16=
VOZ8 1612S 17706W 1721 F350 MS40 253/21=
VOZ8 1636S 17742W 1726 F350 MS40 264/20=
VOZ8 1836S 17912E 1752 F352 MS41 290/22=
ANZ5 3212S 17912W 1711 F360 MS43 304/99=
VOZ2 2118S 17348E 1715 F360 MS43 293/33=
ANZ5 3406S 17830E 1733 F360 MS49 283/52=
LAN801 3630S 17136E 1734 F360 MS52 243/20=
QFA16 0448S 17554W 1736 F360 MS42 208/18=
VOZ2 2348S 17112E 1742 F360 MS45 290/42=
QFA16 0554S 17724W 1750 F360 MS42 208/18=
QFA8 2148S 17718E 1700 F380 MS46 294/34=
UAL863 1806S 17648E 1703 F380 MS47 277/25=
DAL417 2830S 16642E 1704 F380 MS53 292/71=
UAL839 2054S 17312E 1712 F380 MS49 291/33=
QFA12 2054S 18000W 1712 F380 MS49 321/21=
QFA8 2242S 17536E 1714 F380 MS46 296/40=
QFA94 1642S 17248W 1715 F380 MS49 000/09=
DAL417 2930S 16512E 1718 F380 MS54 295/48=
QFA108 1324S 16842W 1719 F380 MS51 175/19=
QFA94 1712S 17330W 1721 F380 MS49 309/05=
QFA12 2200S 17830E 1725 F380 MS48 305/29=
UAL839 2200S 17142E 1726 F380 MS50 272/37=
QFA7628 3954S 16300E 1726 F380 MS55 210/41=
QFA8 2336S 17354E 1728 F380 MS48 295/40=
QFA12 2218S 17800E 1730 F380 MS48 302/35=
UAL863 2030S 17348E 1731 F380 MS47 285/34=
DAL417 3036S 16330E 1732 F380 MS52 281/25=
0000084100
772
UAPS01 NZKL 111800 RRA
AIREP
QFA94 1818S 17506W 1735 F380 MS48 093/04=
QFA12 2306S 17654E 1739 F380 MS49 305/40=
UAL839 2306S 17012E 1740 F380 MS49 276/49=
QFA8 2418S 17212E 1742 F380 MS48 278/49=
UAL863 2136S 17212E 1745 F380 MS48 272/34=
QFA94 1918S 17648W 1749 F380 MS48 005/05=
QFA12 2400S 17536E 1751 F380 MS49 301/41=
QFA94 1930S 17712W 1752 F380 MS48 004/10=
QFA12 2412S 17518E 1753 F380 MS48 307/42=
UAL839 2412S 16836E 1754 F380 MS50 272/63=
QFA94 1954S 17754W 1758 F380 MS48 347/20=
UAL863 2242S 17042E 1758 F380 MS48 271/46=
QFA111 4106S 15936E 1715 F390 MS58 257/34=
QFA111 4018S 16318E 1736 F390 MS57 214/38=
THT77 0518S 15524W 1739 F390 MS55 206/14=
THT77 0648S 15436W 1753 F390 MS55 225/16=
QFA8 2454S 17024E 1755 F390 MS51 279/58=
QFA111 3924S 16654E 1757 F390 MS57 176/42=
0000009200
773
SAIN90 VOTR 111810
METAR VOTR 111810Z 08003KT 4000 HZ NSC 23/20 Q1015 NOSIG=
0000020300
774
SAIN34 VOMM 111800
METAR VOBL 111800Z 11004KT 6000 NSC 22/17 Q1019 NOSIG=
METAR VOCB 111800Z 09005KT 4000 HZ NSC 23/15 Q1017 NOSIG=
METAR VOMD 111800Z 00000KT 4000 HZ NSC 25/19 Q1015=
0000009500
775
SAIN90 VOHS 111810
METAR VOHS 111810Z 12005KT 5000 HZ SCT020 19/14 Q1017 NOSIG=
0000047500
776
FCIN90 VOMM 111800
TAF VOMM 111800Z 1121/1206 VRB03KT 2000 BR FEW020
     TEMPO 1200/1203 1000 MIFG
     BECMG 1203/1204 05010KT 4000 HZ=
TAF VOTR 111800Z 1121/1206 VRB03KT 2500 HZ FEW018
     TEMPO 1200/1203 1500 BR
     BECMG 1203/1204 05010KT 4000 HZ=
TAF VOCB 111800Z 1121/1206 07005KT 2500 HZ FEW015
     TEMPO 1200/1203 2000 BR
     BECMG 1205/1206 4000 HZ=
TAF VOMD 111800Z 1121/1206 05005KT 2500 HZ
     BECMG 1203/1204 4000 HZ=

0000009200
777
SAIN90 VOMM 111810
METAR VOMM 111810Z 07002KT 6000 SCT020 23/19 Q1015 NOSIG=
0000460700
778
WWUS75 KCYS 111807
NPWCYS
URGENT - WEATHER MESSAGE
NATIONAL WEATHER SERVICE CHEYENNE WY
1107 AM MST SAT JAN 11 2014
...VERY STRONG WINDS FOR PORTIONS OF SOUTHEAST WYOMING THIS
WEEKEND...
.STRONG WEST WINDS WILL CONTINUE OVER MOST AREAS IN AND AROUND
THE SOUTHEAST WYOMING MOUNTAINS TODAY. STRONG WINDS ARE EXPECTED
TO SPREAD INTO LOWER ELEVATIONS THIS EVENING AS A STRONG COLD
FRONT PUSHES ACROSS SOUTHEAST WYOMING. STRONG WINDS MAY SPREAD
INTO THE PLAINS BY SUNDAY AFTERNOON.
WYZ118-120100-
/O.EXB.KCYS.HW.W.0004.000000T0000Z-140112T0100Z/
CENTRAL LARAMIE COUNTY-
INCLUDING THE CITY OF...CHEYENNE
1107 AM MST SAT JAN 11 2014
...HIGH WIND WARNING IN EFFECT UNTIL 6 PM MST THIS EVENING...
THE NATIONAL WEATHER SERVICE IN CHEYENNE HAS ISSUED A HIGH WIND
WARNING...WHICH IS IN EFFECT UNTIL 6 PM MST THIS EVENING.
* TIMING...THROUGH THIS EVENING.
* WINDS...WEST WINDS OF 35 TO 45 MPH WITH GUSTS TO 65 MPH.
* IMPACTS...MAINLY TO TRANSPORTATION. STRONG WINDS AND FREQUENT
  GUSTS POSE A SIGNIFICANT BLOW OVER RISK FOR HIGH PROFILE AND
  LIGHT WEIGHT VEHICLES. MOTORIST SHOULD SLOW DOWN AND USE
  EXTREME CAUTION WHEN ENCOUNTERING STRONG WINDS.
PRECAUTIONARY/PREPAREDNESS ACTIONS...
A HIGH WIND WARNING MEANS A HAZARDOUS HIGH WIND EVENT IS EXPECTED
OR OCCURRING. SUSTAINED WIND SPEEDS OF AT LEAST 40 MPH OR GUSTS
OF 58 MPH OR MORE CAN LEAD TO PROPERTY DAMAGE. THE LATEST ROAD
CONDITIONS PROVIDED BY THE WYOMING DEPARTMENT OF TRANSPORTATION
AND NEBRASKA DEPARTMENT OF ROADS ARE AVAILABLE BY CALLING
5 1 1 OR ON THE INTERNET.
&&
$$
WYZ106-110-116-117-120615-
/O.CON.KCYS.HW.W.0004.000000T0000Z-140112T1300Z/
CENTRAL LARAMIE RANGE AND SOUTHWEST PLATTE COUNTY-
NORTH SNOWY RANGE FOOTHILLS-SOUTH LARAMIE RANGE-
SOUTH LARAMIE RANGE FOOTHILLS-
INCLUDING THE CITIES OF...BORDEAUX...ARLINGTON...ELK MOUNTAIN...
VEDAUWOO...BUFORD...PUMPKIN VINE...HORSE CREEK...HARRIMAN...
WHITAKER
1107 AM MST SAT JAN 11 2014
...HIGH WIND WARNING REMAINS IN EFFECT UNTIL 6 AM MST SUNDAY...
A HIGH WIND WARNING REMAINS IN EFFECT UNTIL 6 AM MST SUNDAY.
* TIMING...THROUGH EARLY SUNDAY.
* WINDS...WEST TO SOUTHWEST WINDS OF 35 TO 50 MPH WITH GUSTS TO 65
  MPH NEAR ARLINGTON AND IN THE SOUTHERN LARAMIE RANGE. SUSTAINED
  WINDS OF 45 TO 55 MPH WITH GUSTS UPWARDS OF 75 MPH NEAR
  BORDEAUX. WINDS WILL EASE SLIGHTLY THIS EVENING...AND THEN
  INCREASE ONCE AGAIN LATE TONIGHT.
* IMPACTS...MAINLY TO TRANSPORTATION. STRONG WINDS AND FREQUENT
  GUSTS POSE A SIGNIFICANT BLOW OVER RISK FOR HIGH PROFILE AND
  LIGHT WEIGHT VEHICLES. MOTORIST SHOULD SLOW DOWN AND USE EXTREME
  CAUTION WHEN ENCOUNTERING STRONG WINDS. VISIBILITIES WILL BE
  REDUCED AND ROADS WILL BE SLICK IN AREAS OF BLOWING SNOW NEAR
  ARLINGTON.
PRECAUTIONARY/PREPAREDNESS ACTIONS...
A HIGH WIND WARNING MEANS A HAZARDOUS HIGH WIND EVENT IS EXPECTED
OR OCCURRING. SUSTAINED WIND SPEEDS OF AT LEAST 40 MPH OR GUSTS
OF 58 MPH OR MORE CAN LEAD TO PROPERTY DAMAGE. THE LATEST ROAD
CONDITIONS PROVIDED BY THE WYOMING DEPARTMENT OF TRANSPORTATION
AND NEBRASKA DEPARTMENT OF ROADS ARE AVAILABLE BY CALLING
5 1 1 OR ON THE INTERNET.
&&
$$
WYZ101-104-105-107-109-120615-
/O.CON.KCYS.HW.W.0005.140112T0000Z-140112T1300Z/
CONVERSE COUNTY LOWER ELEVATIONS-FERRIS/SEMINOE/SHIRLEY MOUNTAINS-
SHIRLEY BASIN-EAST PLATTE COUNTY-CENTRAL CARBON COUNTY-
INCLUDING THE CITIES OF...DOUGLAS...GLENROCK...MUDDY GAP...
MEDICINE BOW...GLENDO...WHEATLAND...CHUGWATER...GUERNSEY...
RAWLINS...SINCLAIR...HANNA
1107 AM MST SAT JAN 11 2014
...HIGH WIND WARNING REMAINS IN EFFECT FROM 5 PM THIS AFTERNOON
TO 6 AM MST SUNDAY...
A HIGH WIND WARNING REMAINS IN EFFECT FROM 5 PM THIS AFTERNOON TO
6 AM MST SUNDAY.
* TIMING...STRONG WINDS ARE EXPECTED TO DEVELOP THIS EVENING
  WITH STRONG WINDS CONTINUING INTO LATE TONIGHT.
* WINDS...WESTERLY WINDS OF 35 TO 45 MPH WITH GUSTS TO 60 MPH.
* IMPACTS...MAINLY TO TRANSPORTATION. STRONG WINDS AND FREQUENT
  GUSTS POSE A SIGNIFICANT BLOW OVER RISK FOR HIGH PROFILE AND
  LIGHT WEIGHT VEHICLES. MOTORIST SHOULD SLOW DOWN AND USE
  EXTREME CAUTION WHEN ENCOUNTERING STRONG WINDS.
PRECAUTIONARY/PREPAREDNESS ACTIONS...
A HIGH WIND WARNING MEANS A HAZARDOUS HIGH WIND EVENT IS EXPECTED
OR OCCURRING. SUSTAINED WIND SPEEDS OF AT LEAST 40 MPH OR GUSTS
OF 58 MPH OR MORE CAN LEAD TO PROPERTY DAMAGE. THE LATEST ROAD
CONDITIONS PROVIDED BY THE WYOMING DEPARTMENT OF TRANSPORTATION
AND NEBRASKA DEPARTMENT OF ROADS ARE AVAILABLE BY CALLING
5 1 1 OR ON THE INTERNET.
&&
$$
RJM
0000162700
779
SMNZ01 NZKL 111800
AAXX 11184
93004 NIL=
93023 16/// /2006 10134 20123 40176 52004 60001=
93069 16/// /2406 10170 20127 40170 52003 60001=
93110 17396 /2505 10153 20145 40166 52003 69961=
93186 17698 /2004 10143 20121 40160 52003 60001=
93196 16/// /2807 10171 20140 40149 57004 60001=
93245 17698 /0504 10106 20093 40162 52001 60001=
93292 17/98 /3303 10136 20125 40137 57007 60001=
93309 17698 /2812 10159 20117 40152 57002 60001=
93339 16/// /0804 10094 20084 39204 57005 60001=
93373 17/98 /1801 10137 20128 40125 57008 60001=
93404 17498 /2705 10150 20136 40142 57003 60001=
93420 166// /3512 10162 20109 40133 57005 60001=
93439 17598 /0122 10159 20117 40105 57015 60001=
93498 16/// /3133 10158 20116 40087 57018 60001=
93515 17698 /2205 10139 20113 40142 57004 60001=
93527 16/// /2722 10153 20106 40118 57007 60001=
93546 17/98 /1103 10126 20109 40112 57006 60001=
93597 16/// /3527 10161 20128 40070 57013 60001=
93615 17698 /0603 10131 20106 40132 57011 69981=
93678 16/97 /2301 10152 20143 40049 57008 60001=
93709 16/// /0709 10113 20108 40092 57037 60101=
93773 17998 /3504 10098 20097 49993 57022 60001=
93781 17/98 /0407 10115 20095 40025 57021 60001=
93800 NIL=
93805 NIL=
93831 17898 /2408 10120 20086 40008 57020 60001=
93845 17496 /2710 10118 20111 49985 52013 60031=
93891 17998 /3318 10178 20051 49973 57019 60001=
93909 16/// /2820 10100 20092 49969 52006 60031=
93929 16/// /2917 10071 20044 49919 57003 69961=
93947 NIL=
93985 17/97 /2905 10134 20098 40135 52003 60001=
93994 16/// /1311 10219 20149 40116 52009 60001=
0000062000
780
SMPR01 SPIM 111800
AAXX 11184
84425 31560 8//// 10287 20229 39910 40118 71522 8323/
333   5689/ 58017 83820 85360=
84658 21462 63307 10299 20247 39857 40080 70320 862//
333   567// 58010 60011 86810=
84370 31460 73305 10276 20235 30076 40109 70222 87500
333   56900 58012 82613 85627=
84444 31760 80509 10167 20096 37541 70222 8343/
333   5699/ 58016 83656 87360=
84531 31960 31913 10261 20183 30077 40094 70120 83030
333   56090 58000 83360=
84782 31965 01910 10274 20166 39592 40085 70200
333   59003=
84752 32660 12511 10200 20072 37517 70300 81500
333   56900 58002 81650=
0000011500
781
SITH41 VTBB 111500 RRB
AAXX 11154
48382 32960 00706 10217 20173 39993 40173 51024 
  333 58012=
0000010900
782
UPBJ01 DBBB 111800
PPAA 61171 65306 NIL=
PPAA 61171 65330 NIL=
PPAA 61171 65344 NIL=
/=
0000013400
783
SMVD02 CWAO 111800
BBXX
SHIP 11184 99121 70689 46/// /1311 10281 20220 40147 58028 7////
8//// 22200 0//// 2//// =
0000010400
784
UPBJ01 DBBB 111800
PPAA 61171 65306 NIL=
PPAA 61171 65330 NIL=
PPAA 61171 65344 NIL=
0000174000
785
SMNL21 EHDB 111800
AAXX 11181
06201 47571 43012 10067 20017 30116 40169 51027 70200 8////
333 10079 81/24 84/39 91015 91116 91213=
06203 47580 6//09 10074 20025 30150 40201 51031 70100 8////
333 10089 82/20 83/25 85/33 91011 91114 91211=
06204 47580 72910 10071 20021 30134 40185 51027 70300 8////
333 10087 85/22 87/27 91013 91117 91212=
06205 47573 13113 10062 20010 30071 40131 53029 70185 8////
333 10072 81/28 91016 91117 91214=
06208 47574 22913 10070 20014 30106 40156 51034 70380 8////
333 10077 81/26 91017 91120 91214=
06211 47581 12713 10068 20007 30118 40174 51024 70100 8////
333 10076 81/26 91015 91116 91214=
06212 47578 32912 10072 20022 3//// 4//// 5//// 70200 8////
333 10087 83/22 83/27 91014 91116 91213=
06235 17972 13008 10063 20015 30186 40186 51031 60062 70100 8////
333 10078 81/61 91011 91114 91209=
06240 17572 43005 10055 20024 30204 40199 51033 60022 70300 8////
333 10081 81/26 84/81 91008 91113 91210=
06251 13/71 /2911 10064 20010 30168 40169 51029 60062
333 10076 91015 91116 91211=
06258 46/// /2808
333 91009 91116 91212=
06269 17574 22705 10056 20023 30196 40190 51034 60012 70365 8////
333 10074 82/28 91009 91116 91211=
06280 17570 12705 10048 20017 30160 40164 51033 60032 70386 8////
333 10067 81/29 91007 91111 91207=
06310 17578 52805 10075 20032 30207 40217 52026 69912 70300 8////
333 10089 81/31 85/50 91008 91108 91206=
06344 17671 13003 10044 20015 30213 40206 51030 69912 70200 8////
333 10085 81/41 91004 91114 91209=
06370 17569 22402 10033 20015 30185 40211 51033 69972 70186 8////
333 10077 82/33 91003 91111 91207=
06380 17969 02601 10043 20020 30079 40222 51034 69932 70185
333 10085 91003 91110 91206=
00000000