0000083000
626
SAGU31 MGGT 111800
METAR
METAR MGMM 111800Z 16008KT 9999 BKN018 29/21 Q1016 A3000 =
METAR MGHT 111800Z 00000KT CAVOK 22/09 QFE 817.6 =
METAR MGPB 111800Z 32012KT 9999 FEW018 28/22 Q1015 A2997 =
METAR MGGT 111800Z  36012KT 9999 FEW025 24/10 1026 A3030 VOL. PACAYA
CON VA A 9000FT CON DIRECCION S-SSW A UNA DISTANCIA DE 6-10KM=
METAR MGSJ 111800Z 18008KT 8000 SKC 31/21 Q1013 A2991 =
METAR MGRT 111800Z 21006KT 9999 FEW018 32/18 Q1015 A2997  VOL. STA.
MARIA Y SANTIAGUITO EN ACTIVIDAD=
METAR MGQZ 111800Z 07008KT 9999 FEW022 21/07 QFE 768.0=
METAR MGCB 111800Z 23006KT CAVOK 24/12 QFE 871.3=
METAR MGZA 111800Z 00000KT CAVOK 31/18 QFE 989.4=
METAR MGES 111800Z 03004KT 9999 FEW020 28/13 QFE 912.2=
METAR MGMT 111800Z 18006KT CAVOK 33/21 QFE 1007.9=
METAR MGTU 111800Z 34010KT CAVOK 33/23=
0000013900
627
SSVX13 LFPW 111800
ZZYY 41738 11014 1800/ 726608 077016 6113/ 22219 00263 444 20130
 11014 1800/ 50101 80050 80000 9/015=
0000883000
628
AXNT20 KNHC 111805
TWDAT

TROPICAL WEATHER DISCUSSION
NWS NATIONAL HURRICANE CENTER MIAMI FL
105 PM EST SAT JAN 11 2014

TROPICAL WEATHER DISCUSSION FOR NORTH AMERICA...CENTRAL
AMERICA...GULF OF MEXICO...CARIBBEAN SEA...NORTHERN SECTIONS OF
SOUTH AMERICA...AND ATLANTIC OCEAN TO THE AFRICAN COAST FROM THE
EQUATOR TO 32N. THE FOLLOWING INFORMATION IS BASED ON SATELLITE
IMAGERY...WEATHER OBSERVATIONS...RADAR...AND METEOROLOGICAL
ANALYSIS.

BASED ON 1200 UTC SURFACE ANALYSIS AND SATELLITE IMAGERY THROUGH
1715 UTC.

...SPECIAL FEATURE...

GALE-FORCE WINDS AND SEA HEIGHTS 9 TO 13 FEET ARE IN THE
CARIBBEAN SEA FROM 11N TO 13N BETWEEN 73W AND 78W. PLEASE READ
THE HIGH SEAS FORECAST...MIAHSFAT2/FZNT02 KNHC...AND THE
OFFSHORE FORECAST...MIAOFFNT3/FZNT23 KNHC...FOR MORE DETAILS.
THE GALE-FORCE WIND CONDITIONS AND 9 TO 13 FOOT SEA HEIGHTS WILL
CONTINUE FOR THE NEXT 36 HOURS OR SO.

GALE-FORCE WINDS AND SEA HEIGHTS 12 TO 15 FEET...WITHIN 240 NM N
SEMICIRCLE WITH RESPECT TO A 1010 MB LOW PRESSURE CENTER NEAR
25N40W...ARE FORECAST AT 42 HOURS INTO THE FORECAST PERIOD.
PLEASE READ THE HIGH SEAS FORECAST...MIAHSFAT2/FZNT02 KNHC...FOR
MORE DETAILS.

...THE ITCZ/THE MONSOON TROUGH...

THE MONSOON TROUGH PASSES THROUGH COASTAL LIBERIA NEAR 6N10W TO
3N16W. THE ITCZ CONTINUES FROM 3N16W TO 2N20W 3N33W AND 2N40W.
CONVECTIVE PRECIPITATION...WIDELY SCATTERED TO SCATTERED
MODERATE TO ISOLATED STRONG TO THE SOUTH OF 4N8W 6N11W 6N22W
8N30W 12N36W 11N40W 8N54W.

...DISCUSSION...

...THE GULF OF MEXICO...

A MIDDLE LEVEL TO UPPER LEVEL TROUGH...THAT IS MOVING THROUGH
THE CENTRAL U.S.A....SUPPORTS A COLD FRONT THAT IS MOVING
THROUGH CENTRAL LOUISIANA...INTO EAST TEXAS AND CENTRAL
TEXAS...INTO WEST TEXAS. ONE SURFACE TROUGH IS INLAND...FROM
SOUTHEASTERN LOUISIANA NORTHEASTWARD...WITHIN 120 NM TO 180 NM
TO THE EAST AND SOUTHEAST OF THE COLD FRONT. A SECOND SURFACE
TROUGH IS IN TEXAS TO THE SOUTH OF THE COLD FRONT...FROM CENTRAL
TEXAS TO 28N100W IN TEXAS...ABOUT HALFWAY BETWEEN LAREDO AND
EAGLE PASS. MIDDLE LEVEL TO UPPER LEVEL SOUTHWESTERLY WIND FLOW
SPANS THE GULF OF MEXICO.

A SURFACE RIDGE EXTENDS FROM AN ATLANTIC OCEAN 1031 MB HIGH
PRESSURE CENTER THAT IS NEAR 36N61W...ACROSS BERMUDA...TO
28N72W...ACROSS ANDROS ISLAND IN THE BAHAMAS... INTO THE
NORTHEASTERN PART OF THE YUCATAN PENINSULA. PART OF THE RIDGE
COVERS THE GULF OF MEXICO TO THE SOUTH OF 29N TO THE EAST OF
87W. THE REST OF THE GULF OF MEXICO CONSISTS OF A COMPARATIVELY
WEAK SURFACE PRESSURE FIELD.

FOR THE OFFSHORE OIL PLATFORM SITES THAT ARE TO THE NORTH OF 27N
TO THE WEST OF 87W/88W...

LOW CLOUD CEILINGS ARE BEING REPORTED AT THE FOLLOWING
SITES...KVAF...KGUL...KHQI...KEHC...KCRH...KVBS...KEIR...KSPR...
KMDJ...KATP...KMYT...AND AT KDLP. VISIBILITIES OF 3 MILES OR
LESS WITH FOG ARE BEING REPORTED AT KVBS...KEHC...KVBS...KEIR...
KSPR...KATP...K9F2. ICAO STATION KAXO HAS BEEN REPORTING
VISIBILITIES OF 1 MILE OR LESS WITH FOG FOR THE LAST FEW
OBSERVATIONS. CLEAR SKIES/FAIR SKIES ARE BEING REPORTED
ELSEWHERE AT OR LOWER THAN 12000 FEET.

FOR THE COASTAL PLAINS OF THE U.S.A. FROM TEXAS TO FLORIDA...

A HIGH CLOUD CEILING IS BEING REPORTED AT THE CORPUS CHRISTI
INTERNATIONAL AIRPORT. SCATTERED TO BROKEN LOW CLOUDS ARE BEING
OBSERVED IN THE SOUTHERN COASTAL SECTIONS OF LOUISIANA AND
AROUND LAKE PONTCHARTRAIN. LOW LEVEL CLOUD CEILINGS COVER
COASTAL MISSISSIPPI AND COASTAL ALABAMA. LOW CLOUD CEILINGS AND
RAIN...HEAVY AT TIMES WITH THUNDER...COVER THE FLORIDA PANHANDLE
FROM TALLAHASSEE PANAMA CITY WESTWARD. LOW CLOUD CEILINGS
CONTINUE TO PERRY...AND AT THE ST. PETERSBURG/CLEARWATER
INTERNATIONAL AIRPORT...TO PUNTA GORDA...AND TO NAPLES. CLEAR
SKIES/FAIR SKIES ARE BEING REPORTED ELSEWHERE AT OR LOWER THAN
12000 FEET.

...THE CARIBBEAN SEA...

MIDDLE LEVEL TO UPPER LEVEL ANTICYCLONIC WIND FLOW SPANS THE
CARIBBEAN SEA. THE ANTICYCLONIC CIRCULATION CENTER IS NEAR
16N74W...ABOUT 120 NM TO THE SOUTH OF THE SOUTHWESTERN CORNER OF
HAITI.

A SURFACE TROUGH THAT WAS ALONG 22N84W 18N85W 16N84W AT 10/1200
UTC HAS WEAKENED AND DISSIPATED AND BECOME CAUGHT UP IN THE
SURFACE SOUTHEASTERLY WIND FLOW THAT IS MOVING AROUND THE RIDGE.
BROKEN TO OVERCAST MULTILAYERED CLOUDS AND ISOLATED MODERATE
CONVECTIVE PRECIPITATION ARE FROM 15N TO 19N TO THE WEST OF 83W.
MIDDLE LEVEL SOUTHEASTERLY WIND FLOW IS MOVING UNDER UPPER LEVEL
SOUTHWESTERLY WIND FLOW IN THE AREA OF THE CLOUDS AND
PRECIPITATION.

A SEPARATE AREA OF MIDDLE LEVEL TO UPPER LEVEL NORTHEASTERLY
WIND FLOW IS REACHING THE CARIBBEAN SEA TO THE EAST OF 67W. THIS
WIND FLOW IS ON THE WESTERN SIDE OF THE 17N48W ATLANTIC OCEAN
MIDDLE LEVEL TO UPPER LEVEL CYCLONIC CIRCULATION CENTER.

RAINSHOWERS ARE POSSIBLE ACROSS THE CARIBBEAN SEA...IN LOW LEVEL
AND MIDDLE LEVEL CLOUDS...MOSTLY TO THE SOUTH OF 18N TO THE EAST
OF 80W.

THE MONSOON TROUGH IS ALONG 7N/8N BETWEEN 74W IN COLOMBIA BEYOND
84W IN THE EASTERN PACIFIC OCEAN. CONVECTIVE PRECIPITATION...
ISOLATED MODERATE TO LOCALLY STRONG IN THE EASTERN PACIFIC OCEAN
FROM 4N TO 7N TO THE EAST OF 85W. RAINSHOWERS ARE POSSIBLE IN
THE SOUTHWESTERN CORNER OF THE CARIBBEAN SEA...TO THE SOUTH OF
13N TO THE WEST OF 79W IN BROAD SURFACE-TO-LOW LEVEL CYCLONIC
WIND FLOW...AND POSSIBLY NOT RELATED AT ALL TO THE MONSOON
TROUGH.

PLEASE READ THE HIGH SEAS FORECAST...MIAHSFAT2/FZNT02
KNHC...AND THE OFFSHORE FORECAST...MIAOFFNT3/FZNT23 KNHC...FOR
MORE DETAILS ABOUT THE GALE-FORCE WINDS AND SEA HEIGHTS 9 TO 14
FEET FROM 11N TO 13N BETWEEN 73W AND 76W. EXPECT ALSO EAST WINDS
20 TO 25 KNOTS AND SEA HEIGHTS 8 TO 11 FEET ELSEWHERE FROM 11N
TO 17N BETWEEN 69W AND 81W AND FROM 13N TO 16N BETWEEN 64W AND
69W.

...HISPANIOLA...

MIDDLE LEVEL TO UPPER LEVEL ANTICYCLONIC WIND FLOW SPANS THE
CARIBBEAN SEA. THE ANTICYCLONIC CIRCULATION CENTER IS NEAR
16N74W...ABOUT 120 NM TO THE SOUTH OF THE SOUTHWESTERN CORNER OF
HAITI.

SKY CONDITIONS AND CURRENT WEATHER FOR THE DOMINICAN
REPUBLIC...A LOW LEVEL CLOUD CEILING AND LIGHT RAIN ARE BEING
REPORTED IN SANTIAGO. A LOW CLOUD CEILING COVERS SANTO DOMINIGO.
SCATTERED LOW LEVEL AND MIDDLE LEVEL CLOUDS COVER LA ROMANA.
SCATTERED LOW CLOUDS COVER PUERTO PLATA. FEW LOW CLOUDS AND A
HIGH LEVEL CLOUD CEILING COVER PUNTA CANA. FEW LOW CLOUDS ARE IN
BARAHONA.

THE GFS MODEL FORECAST FOR 250 MB SHOWS THAT NORTHWESTERLY
ANTICYCLONIC WIND FLOW WILL COVER HISPANIOLA WITH A CARIBBEAN
SEA RIDGE. THE GFS MODEL FORECAST FOR 500 MB SHOWS THAT AN
ANTICYCLONIC CIRCULATION CENTER WILL START THE 48 HOUR FORECAST
PERIOD AND IT WILL END THE 48 HOUR FORECAST PERIOD COVERING
SOUTHEASTERN CUBA. THE GFS MODEL FORECAST FOR 700 MB SHOWS THAT
EASTERLY WIND FLOW WILL CROSS THE AREA FOR THE FIRST 12 HOURS OR
SO. AN INVERTED TROUGH WILL DEVELOP ACROSS HAITI. THE INVERTED
TROUGH WILL REMAIN ACROSS HISPANIOLA FOR THE NEXT 24 HOURS OR
SO. THE INVERTED TROUGH WILL SHIFT WESTWARD TO SOUTHEASTERN CUBA
FOR THE END OF THE 48 HOUR FORECAST PERIOD.

...THE ATLANTIC OCEAN...

A MIDDLE LEVEL TO UPPER LEVEL CUT-OFF CYCLONIC CIRCULATION
CENTER IS NEAR 17N48W. CYCLONIC WIND FLOW COVERS THE AREA FROM
6N TO 20N BETWEEN 40W AND 60W. CONVECTIVE PRECIPITATION...BROKEN
TO OVERCAST MULTILAYERED CLOUDS AND POSSIBLE CONVECTIVE
PRECIPITATION COVER THE ATLANTIC OCEAN FROM 10N TO 20N BETWEEN
40W AND 60W.

A SURFACE TROUGH IS ALONG 14N51W 10N54W 6N55W. BROKEN TO
OVERCAST MULTILAYERED CLOUDS AND POSSIBLE CONVECTIVE
PRECIPITATION COVER THE ATLANTIC OCEAN TO THE SOUTH OF 14N
BETWEEN 50W AND 57W.

A MIDDLE LEVEL TO UPPER LEVEL CENTRAL ATLANTIC OCEAN TROUGH
SUPPOORTS A COLD FRONT THAT PASSES THROUGH 32N26W TO 27N34W TO
25N44W. BROKEN TO OVERCAST MULTILAYERED CLOUDS AND POSSIBLE
CONVECTIVE PRECIPITATION COVER THE ATLANTIC OCEAN TO THE NORTH
AND NORTHWEST OF THE LINE THAT PASSES THROUGH 32N21W 24N40W
23N60W BEYOND 32N74W.

A SURFACE RIDGE EXTENDS FROM AN ATLANTIC OCEAN 1031 MB HIGH
PRESSURE CENTER THAT IS NEAR 36N61W...ACROSS BERMUDA...TO
28N72W...ACROSS ANDROS ISLAND IN THE BAHAMAS... INTO THE
NORTHEASTERN PART OF THE YUCATAN PENINSULA.

PLEASE READ THE HIGH SEAS FORECAST...MIAHSFAT2/FZNT02 KNHC...FOR
MORE DETAILS ABOUT...EAST WINDS 20 TO 25 KNOTS AND SEA HEIGHTS 8
TO 10 FEET TO THE SOUTH OF 22N BETWEEN 62W AND 70W. EXPECT ALSO
WINDS 20 KNOTS OR LESS AND SEA HEIGHTS 8 TO 10 FEET TO THE SOUTH
OF 21N BETWEEN 40W AND 62W. THE 06-HOUR FORECAST CONSISTS OF
SOUTH WINDS 20 TO 25 KNOTS AND SEA HEIGHTS TO 9 FEET TO THE
NORTH OF 29N BETWEEN 74W AND 80W.

FOR ADDITIONAL INFORMATION PLEASE VISIT
HTTP://WWW.HURRICANES.GOV/MARINE

$$
MT
0000012400
629
SMAY01 UGEE 111800
AAXX 11181
37717 325// 62002 11056 21127 38055 48494 52001 83531 333 11015 555
11015=
0000024900
630
SNHK22 VHHH 111800
AAXX 11181
45032 36/// /1001 10138 20127 30220 40237 54000=
45035 36/// /0603 10136 20123 30198 40242 52001=
45039 36/// /0401 10135 20127 30225 40240 54000=
45044 36/// /0604 10155 20120 30141 40237 52001=
0000011100
631
UANT01 CWAO 111807
ARP N674RW 6320N03725W 1806 F430 MS59 020/39 KT
N674RW QXT AME 111807 A35A
0000011100
632
UANT01 CWAO 111807
ARP UAL959 5714N02334W 1807 F320 MS59 201/81 KT
N651UA DDL XXN 111807 F85A
0000011000
633
UANT01 CWAO 111807
ARP DLH424 5201N01940W 1807 F350 MS61 197/91 KT
DAIGU QXT AOE 111807 J15A
0000015700
634
SSVX13 LFPW 111800
ZZYY 64668 11014 1800/ 762451 011562 6113/ 11119 40079 52022 22219
 00089 444 20130 11014 1800/ 50101 80152 80008 9/015=
0000011000
635
UANT99 KDDL 111807
ARP ACA849 5302N01922W 1807 F360 MS62 198/86 KT
CGHLM DDL XXW 111807 J18A
0000014400
636
SMNU01 TNCA 111800
AAXX 11184
78982  02575 41011 10278 20229 30138 40143 57025 60001 84231
    333 58014 60007 84820=
NNNN
0000010400
637
SMAA01 RJTD 111800
AAXX 11184
89532 42/60 82903 11010 21023 39917 49944 53003
885//=
0001053400
638
SMMX01 MXBA 111800
AAXX 11181
76040 32960 00902 10162 20059 30208 40222 52011 91747 333   
10248 20050 30/// 58016 98660=
76056 06/// /0501 10209 20012 30185 40209 50005 60002 7//// 
8//// 91750 333   0//// 10213 20084 30/// 4//// 54/// 56/// 
57/// 58020 60007 8//// 8//// 8//// 9//// 9//// 9//// 44=
76061 32981 02702 10174 20019 30154 40229 52013 91740 333   
10178 20090 30/// 58013=
76109 06/// /1101 10148 21074 38958 40231 50009 60002 7//// 
8//// 91750 333   0//// 10150 20029 30/// 4//// 54/// 56/// 
57/// 58061 60007 8//// 8//// 8//// 9//// 9//// 9//// 44=
76122 32970 01601 10146 20059 38546 40209 57002 91745 333   
10148 21020 30/// 58043=
76161 06/// /0703 10220 21021 39943 40191 50004 60002 7//// 
8//// 91750 333   0//// 10220 20080 30/// 4//// 54/// 56/// 
57/// 58015 60007 8//// 8//// 8//// 9//// 9//// 9//// 44=
76220 32956 00000 10074 2//// 38207 40333 50010 91745 333   
10074 21074 30/// 58059=
76225 32960 00901 10169 20009 38671 40211 50003 91745 333   
10169 20034 30/// 58060=
76243 32974 03401 10199 20061 39933 40232 42015 91740 333   
10210 20070 30/// 58082=
76256 32980 02903 10219 20048 30174 40188 52004 91745 333   
10230 20097 30/// 58006=
76258 32975 03605 10225 20040 3//// 4//// 5//// 91750 333   
10226 20090 30/// 56000 58///=
76305 32970 03404 10240 21029 30179 40187 52008 91740 333   
10243 20130 30/// 58015=
76323 32970 00000 10162 21010 38359 40349 52006 91735 333   
10164 21005 30/// 58044=
76342 32962 00602 10230 20049 39517 40228 52009 91750 333   
10234 20105 30/// 58075=
76382 32980 03401 10188 20103 38952 40236 57001 91750 333   
10200 20081 30/// 58047=
76390 32970 41605 10174 21012 38279 40236 52011 80001 91748 
333   10184 20040 30/// 56008 58056=
76392 06/// /1201 10289 20005 39618 40179 50003 60002 7//// 
8//// 91750 333   0//// 10290 20131 30/// 4//// 54/// 56/// 
57/// 58076 60007 8//// 8//// 8//// 9//// 9//// 9//// 44=
76393 31920 20601 10266 20075 39623 40200 52004 70400 82020 
91750 333   10278 20130 30/// 54305 56050 58077 91102 91401 
=
76402 31958 02401 10238 20098 30129 40187 52006 70544 91740 
333   10240 20088 30/// 58017=
76404 06/// /0103 10240 20121 30161 40184 50007 60002 7//// 
8//// 91750 333   0//// 10240 20170 30/// 4//// 54/// 56/// 
57/// 58017 60007 8//// 8//// 8//// 9//// 9//// 9//// 44=
SMMX01 MXBA 111800 
AAXX 11181
76405 32980 00502 10242 20133 30167 40189 52009 91750 333   
10244 20160 30/// 58016=
76423 32580 10000 10163 21026 38189 40238 58005 81400 91758 
333   10183 20008 30/// 56900 58036 81630=
76424 06/// /1401 10177 21032 38191 40202 58005 60002 7//// 
8//// 91750 333   0//// 10179 20004 30/// 4//// 54/// 56/// 
57/// 58039 60007 8//// 8//// 8//// 9//// 9//// 9//// 44=
76458 32870 11402 10248 20145 30161 40166 57008 81030 91740 
333   10258 20142 30/// 56/4/ 58014 81356=
76471 32780 60000 10136 20016 37727 40208 52011 86050 91750 
333   10138 20042 30/// 56/1/ 58032 86357=
76490 06/// /0202 10268 20142 39802 40181 50004 60002 7//// 
8//// 91750 333   0//// 10268 20122 30/// 4//// 54/// 56/// 
57/// 58069 60007 8//// 8//// 8//// 9//// 9//// 9//// 44=
76491 32660 53202 10230 20139 39819 40211 52005 85500 91750 
333   10240 20122 30/// 56400 58066 85640=
76499 31860 30000 10238 20191 30160 40182 52004 70344 83070 
91747 333   10239 20146 30/// 56090 58066 83357=
76518 02/// ///// 1//// 2//// 3//// 4//// 5//// 6//// 7//// 
8//// 9//// 333   0//// 1//// 2//// 30/// 4//// 54/// 56/// 
57/// 5//// 6//// 8//// 8//// 8//// 9//// 9//// 9//// 44=
76519 32560 80000 10125 20041 38408 40275 52020 882// 91753 
333   10128 20025 30/// 565// 58036 88820=
76527 06/// /1002 10088 21036 37505 40292 50005 60002 7//// 
8//// 91750 333   0//// 10092 20077 30/// 4//// 54/// 56/// 
57/// 58045 60007 8//// 8//// 8//// 9//// 9//// 9//// 44=
76539 31565 63602 10150 20083 38194 40238 42009 70544 86400 
91750 333   10233 20063 30/// 56800 59032 86624=
76543 31670 53604 10256 20208 30166 40199 50005 70544 81550 
91745 333   10258 20168 31/// 56770 58039 81650 94358=
76548 31868 53202 10242 20198 30183 40193 50009 70544 85030 
91740 333   10246 20176 30/// 56050 58033 85358=
76556 01970 71303 10210 20135 39139 40146 50003 69961 70162 
87030 91745 333   10214 20115 31/// 56050 58022 69937 87360 
=
76577 32570 80502 10198 20145 38068 40182 50000 83530 91750 
333   10202 20107 30/// 56150 58022 83626 85360=
76578 06/// /0102 10202 20048 38065 40124 58004 60002 7//// 
8//// 91750 333   0//// 012// 10203 20100 30/// 4//// 54/// 
56/// 57/// 58021 60007 8//// 8//// 8//// 9//// 9//// 9/=
76581 32970 62802 10222 20173 39103 40227 52010 88020 91750 
333   10230 20085 30/// 56020 58043=
76585 32980 30000 10240 20192 30018 40177 50003 83030 91745 
333   10250 20149 30/// 56/7/ 58028 83358=
76593 32470 33203 10288 20236 30164 40166 58001 8227/ 91750 
333   10305 20202 30/// 5677/ 58002 82820 81330 91005 91532 
=
SMMX01 MXBA 111800 
AAXX 11181
76612 01562 70000 10135 20111 38513 40219 52002 69901 75022 
82230 91745 333   10136 20095 31/// 56110 58034 69907 82630 
85358=
76625 32475 20906 10206 20066 38163 40161 57005 82200 91740 
333   10206 20108 30/// 56600 58026 82825=
76634 31570 63402 10178 20048 37882 40206 57002 70500 86200 
91745 333   10192 20080 30/// 563// 58034 86827=
76644 32460 21402 10302 20231 30146 40159 57011 82100 91750 
333   30/// 563// 58000 82820=
76654 31756 32001 10303 20141 30151 40155 52001 70544 83030 
91750 333   10303 20222 30/// 56090 58006 83356=
76656 32875 63602 10200 20104 38533 40186 58005 86020 91750 
333   10208 20100 30/// 56050 58020 86458=
76658 31558 42702 10281 20140 39656 40163 57011 70540 81252 
91750 333   10284 20180 31/// 56111 58004 81822 82356 81070 
94022 98904=
76659 06/// /2601 10296 20146 3//// 42/// 5//// 60002 7//// 
8//// 91750 333   0//// 10296 20170 30/// 4//// 54/// 56/// 
57/// 5//// 60007 8//// 8//// 8//// 9//// 9//// 9//// 44=
76662 32670 30102 10226 20101 38482 40172 57009 83200 91740 
333   10240 20102 30/// 56/00 58014 83833=
76665 32964 00601 10202 20094 38133 40171 52003 91750 333   
10215 20085 30/// 58021=
76674 06/// /0502 10169 20033 37398 40184 58009 60002 7//// 
8//// 91750 333   0//// 10172 21001 30/// 4//// 54/// 56/// 
57/// 58018 60007 8//// 8//// 8//// 9//// 9//// 9//// 44=
76675 31570 30702 10173 20028 37396 40219 56006 70544 83200 
91747 333   10177 21008 30/// 565// 58018 83826 98470=
76680 31558 63602 10182 20070 37780 40130 55010 70400 83810 
91755 333   10190 20080 30/// 56770 58030 83826 83458=
76681 31760 63604 10196 20066 37806 40203 58007 70542 86200 
91745 333   10196 20045 30/// 56000 58029 86897=
76683 32670 30601 10205 20088 37847 40195 56013 83200 91745 
333   10207 20058 30/// 56400 58014 83834=
76685 32570 22701 10220 20058 37880 40165 82100 91750 333   
10222 20060 30/// 56900 58010 82827=
76687 31570 10701 10236 20124 38698 40187 58004 70300 81100 
91745 333   10242 20102 30/// 563// 58016 81826=
76692 31556 10403 10255 20198 30153 40172 50005 70544 81100 
91745 333   10259 20186 30/// 564// 58002 81820=
76693 06/// /0402 10256 20196 30151 40171 58001 60002 7//// 
8//// 91750 333   0//// 10259 20187 30/// 4//// 54/// 56/// 
57/// 58022 60007 8//// 8//// 8//// 9//// 9//// 9//// 44=
76695 32356 21204 10298 20277 30150 40156 57010 82700 91750 
333   10311 20185 30/// 58006 82707=
SMMX01 MXBA 111800 
AAXX 11181
76727 06/// /1601 10245 20102 38411 40090 58013 60002 7//// 
8//// 91750 333   0//// 10245 20127 30/// 4//// 54/// 56/// 
57/// 58010 60007 8//// 8//// 8//// 9//// 9//// 9//// 44=
76737 31480 11602 10246 20146 38790 40175 50000 70300 81100 
91745 333   10251 20118 30/// 56900 58014 81810 91106 91516 
=
76742 06/// /3403 10274 20204 30125 40145 58009 60002 7//// 
8//// 91750 333   0//// 10277 20185 30/// 4//// 54/// 56/// 
57/// 58007 60007 8//// 8//// 8//// 9//// 9//// 9//// 44=
76750 32560 11004 10296 20237 30151 40161 57014 81100 91750 
333   10300 20168 30/// 56300 58001 81820=
76762 32904 03303 10270 20184 38773 40156 57012 91750 333   
10271 20124 30/// 54305 58013=
76772 31566 20601 10247 20098 38432 40137 58022 60002 70544 
82100 91750 333   0//// 10248 20084 30/// 4//// 54/// 56/// 
57/// 58013 60007 82820 8//// 8//// 9//// 9//// 9//// 44=
76773 31566 20601 10254 20122 38432 40160 57012 70544 82100 
91748 333   10260 20080 30/// 56900 59002 82820=
76775 31570 11301 10267 20110 38533 40173 57015 70300 81200 
91745 333   10270 20112 30/// 56800 58001 81824=
76776 06/// /2101 10268 20111 38512 40087 58022 60002 7//// 
8//// 91750 333   0//// 10273 20114 30/// 4//// 54/// 56/// 
57/// 58008 60007 8//// 8//// 8//// 9//// 9//// 9//// 44=
76805 32070 02102 10323 20216 30130 40134 57018 91750 333   
10351 20212 30/// 59001=
76840 32550 10000 10330 20226 30075 40131 57019 81200 91745 
333   10344 20155 30/// 569// 59009 81828=
76845 32560 43601 10198 20132 37961 40198 56015 84100 91745 
333   10222 20075 30/// 56200 58013 84828=
76848 32670 20000 10247 20130 38393 40111 56008 82200 91750 
333   10252 20110 30/// 56100 58010 82848 98908=
76855 32980 02505 10310 20193 30082 40133 57006 91745 333   
10330 20218 30/// 58014 92000=
76903 31981 03102 10322 20218 39999 40138 58020 70400 91740 
333   10328 20223 30/// 58007=
76160 32962 00401 10182 20011 39946 40198 52008 91731 333   
10182 20085 30/// 58018=
76253 32982 03602 10224 20069 30112 40202 53008 91750 333   
10230 20090 30/// 58014 92001=
76412 31966 01801 10246 20106 30138 40182 52006 70544 91740 
333   10262 20100 30/// 58007=
76525 32780 80502 10086 21036 37506 40206 52006 88/2/ 91745 
333   10088 20062 30/// 56/1/ 58043 88458=
76632 31658 30402 10170 20090 37725 40191 52006 70311 83500 
91745 333   10175 20068 30/// 56100 58005 83642=
76640 31458 62201 10226 20198 30182 40194 52006 70222 8315/ 
91740 333   10240 20172 30/// 5677/ 58026 83812 83340=
76647 32570 41704 10306 20235 30141 40172 57016 83230 91750 
333   10308 20214 30/// 563/0 58002 83829=
76698 32560 31003 10300 20227 30157 40169 57008 83200 91750 
333   10314 20208 30/// 56200 58005 83820=
76833 32970 00000 10310 2//// 30130 40132 57014 91740 333   
10321 10218 30/// 58007 92000=
76843 32565 12301 10292 20213 39493 40134 57024 81200 91740 
333   10310 20175 30/// 569// 58003 81826=
0000013400
639
SMVD02 CWAO 111800
BBXX
SHIP 11184 99437 70817 46/// /1906 10034 20033 49910 56051 7////
8//// 22200 00003 2//// =
0000013400
640
SMVD02 CWAO 111800
BBXX
SHIP 11184 99449 70613 46/// /1825 10025 20031 40204 56040 7////
8//// 22264 0//// 2//// =
0000013400
641
SMVD02 CWAO 111800
BBXX
SHIP 11184 99493 71231 46/// /1408 10078 20047 49930 50005 7////
8//// 22200 0//// 2//// =
0000013400
642
SMVD02 CWAO 111800
BBXX
SHIP 11184 99479 70697 46/// /2210 11029 21032 40026 56084 7////
8//// 22213 00001 2//// =
0000013400
643
SMVD02 CWAO 111800
BBXX
SHIP 11184 99505 71278 46/// /1404 10054 20045 49841 53007 7////
8//// 22200 0//// 2//// =
0000013400
644
SMVD02 CWAO 111800
BBXX
SHIP 11184 99487 71235 46/// /1609 10070 20053 49925 56009 7////
8//// 22200 0//// 2//// =
0000013400
645
SMVD02 CWAO 111800
BBXX
SHIP 11184 99483 70693 46/// /0705 11016 21018 40039 58096 7////
8//// 22253 00001 2//// =
00000000