0000011000
226
UANT01 CWAO 111813
ARP EIN137 4956N04722W 1812 F380 MS58 303/77 KT
EIDUO DDL XXN 111813 J43A
0000043200
227
SSVX02 KARS 111812
ZZYY 22936 11014 1805/ 118207 114197 6110/
22219 00244
444 2020/ 118207 114197 50101 80112 80027 9/015=
ZZYY 23963 11014 1804/ 106482 074677 6113/
22219 00277
444 50101 80116 80023 9/015=
ZZYY 22902 11014 1804/ 116670 111615 6113/
22219 00240
444 50101 80114 80024 9/015=
ZZYY 33577 11014 1805/ 548653 051696 6110/
22219 00075
444 2020/ 548653 051696 50101 80112 80029 9/015=
0000011900
228
UACN01 CYEG 111813
EG
UUA /OV CYBW 166005 /TM 1810 /FL055 /TP E55P /TB MDT /RM LLWS FL055 WIND 270070
0000020300
229
SOBR10 KWAL 111816
BAB00078 011181611 :BUB 2 #1       M   0.519   0.519   0.509 :RAD 1 #1   0.452   0.461   0.458   0.441 :PRS 1 #1  -0.803  -0.800  -0.798  -0.791 :BL 11.77  32-0NF 219E
0000012600
230
SMTH42 VTBB 111800 RRA
AAXX 11184
48479 31940 20000 10250 20169 30088 40141 54000 70500 80005
  333 58003=
0000098200
231
SAAU31 AMMC 111800
METAR YBAS 111800Z AUTO 12007KT 9999 // NCD 28/06 Q1013=
METAR YBBN 111800Z 19005KT 9999 FEW030 21/18 Q1014
     NOSIG=
METAR YBCS 111800Z 17011KT 9999 -SHRA FEW025 SCT040 25/23 Q1008
     INTER 1800/2100 VRB15G25KT 4000 SHRA FEW008 BKN020=
METAR YBTL 111804Z AUTO 15008KT 9999 // SCT023 SCT033 OVC048 25/22 Q1009=
METAR YMML 111800Z 18008KT 9999 FEW017 SCT020 BKN025 16/11 Q1020
     NOSIG=
METAR YPAD 111800Z 16008KT 9999 FEW014 17/13 Q1018
     FM1800 MOD TURB BLW 3000FT=
METAR YPCC 111800Z AUTO 13007KT 9999 // OVC041 27/23 Q1011=
METAR YPDN 111800Z 13008KT CAVOK 25/23 Q1005=
METAR YPKU 111800Z AUTO 33003KT 9999 // NCD 26/23 Q1006=
METAR YPLM 111800Z AUTO 35005KT 9999 // NCD 25/19 Q1007=
METAR YPPH 111800Z 09020G30KT CAVOK 31/09 Q1007=
METAR YPTN 111800Z AUTO 12006KT 9999 // NCD 23/22 Q1005=
METAR YPXM NIL=
METAR YSSY 111800Z 18009KT 9999 FEW015 SCT110 21/20 Q1016
     FM1900 16008KT 9000 HZ SCT010=
0000106700
232
SMCI01 BABJ 111800
AAXX 11181
50468 NIL=
50953 33/// 92902 11281 21338 30170 40333 52020 333 11139=
51076 NIL=
51243 NIL=
51288 NIL=
51463 NIL=
51573 NIL=
51709 NIL=
52533 32/// 92203 11135 21253 38639 40424 57010 333 00152
11005=
52652 32/// 91103 11175 21265 38660 40454 57011 333 00101
11030=
52866 32/61 90000 11162 21220 37783 57005 333 00400 11040=
52983 NIL=
53463 42/// 93602 11132 21237 38986 40423 54000 333 00402
11040=
53513 NIL=
53588 32/78 93202 11166 21244 37809 54000 333 11078=
53772 32/// 92902 11030 21203 39397 40350 52003 333 10044=
53915 32/79 93202 11077 21201 38789 40407 57003 333 00554
10012=
54218 32/80 93203 11142 21226 39529 40380 52015 333 10001=
54337 NIL=
54342 33/// 93603 11097 21237 30277 40342 52029 333 10000=
54401 NIL=
54471 NIL=
54497 NIL=
54511 NIL=
54823 33/// 93602 10017 21059 30107 40322 52014 333 10068=
56080 32/// 93201 11130 21185 37186 57011 333 00301 11036=
56096 32/// 90000 10016 21140 39074 40356 57006 333 00600
10062=
57083 NIL=
0000099700
233
SMCI02 BABJ 111800
AAXX 11181
56187 31/56 92901 10061 20016 40335 57002 70500 333 00502
10102=
56778 33/// 92901 10037 20022 38147 54000 333 00251 10179=
57265 NIL=
57461 33/14 93202 10027 20015 30010 40333 57006 333 10051=
57494 NIL=
57516 31418 92901 10073 20062 30010 40331 57003 70060 333
10085=
57687 11/// 92902 10047 20027 30245 40333 57003 69921 721//
333 10054=
57816 11/55 90702 10013 20009 38882 40326 54000 69951 76066
333 00501 10024=
58040 NIL=
58102 NIL=
58150 32/23 92701 10000 21008 30311 40315 52003 333 10065=
58221 NIL=
58238 NIL=
58251 NIL=
58362 11956 90402 10050 20038 30293 40301 57002 60011 76065
333 10065=
58457 NIL=
58606 12/// 90201 10050 20032 30253 40314 52003 69931 333
10052=
58752 NIL=
58847 NIL=
59117 NIL=
59134 NIL=
59287 NIL=
59316 NIL=
59431 11/35 93602 10104 20096 30116 40265 52004 69921 70060
333 10144=
59644 32/// 93604 10143 20113 30223 40240 52002 333 10220=
59758 NIL=
0000010700
234
SMVE01 ESWI 111800
BBXX
SJCD 11181 99153 31551 43/98 21311 10273 40067 56020 22284 00283=
0000003800
235
SMVC01 ESWI 111800
NIL
0000047600
236
SMNV01 NVVV 111800
AAXX 11183

91551 11498 81008 10271 20257 40050 53001 60061 70228 8592/

  333 563// 60061 85818 81925 88460=

91553 NIL=

91554 31598 70910 10275 20229 40057 53004 70222 878//

  333 563// 84820 87640=

91555 31598 11504 10261 20230 40062 5//// 701/1 81100

  333 569// 81820=

91557 31598 19901 10204 20198 40075 53002 70512 81101

  333 569/9 81825=

91565 31598 10000 10215 20207 40077 53004 70111 81100

  333 563// 81820=

91568 NIL=


0000025100
237
SMZM01 NSAP 111800
AAXX 11184 <23004>

91762 11497 83313 10257 20250 40068 53018 60051 76065 8787/ 333 5699/ 82818
85636 88460=

91759 11598 80403 10258 20247 40069 53020 60101 76025 8787/ 333 5619/ 83820
84638 88460=


0000011900
238
SMKB01 NGTT 111800
AAXX 11184
91701 11499 20908 10266 2024/ 40066 60001 70300 82200 333 562// 82818 =
0000011200
239
SMKB02 NGTT 111800
AAXX 11184
91490 11599 41214 10275 2024/ 40098 60001 70321 84100 333 562//=


0000011100
240
UANT99 KDDL 111814
ARP UAL925 5401N01939W 1814 F370 MS61 205/76 KT
N228UA DDL XXN 111814 F19A
0000011000
241
UANT99 KDDL 111814
ARP VIR23J 5947N02525W 1815 F320 MS60 215/78 KT
GVFIZ DDL KEF 111815 J27A
0000173800
242
SAIR31 OIII 111800
METAR OIAA 111800Z 28004KT 9999 FEW040 10/07 Q1020=
METAR OIAG NIL=
 METAR OIAH 111800Z 14008KT 4000 RA FEW035CB FEW040 OVC090 07/07
 Q1017=
METAR OIAI NIL=
METAR OIAM 111800Z 27012KT 2000 BR FEW030CB BKN040 12/11 Q1018=
 METAR OIAW 111800Z 24008KT 5000 BR FEW005 SCT020CB SCT040 11/09
 Q1018=
METAR OIBA NIL=
 METAR OIBB 111800Z 31010KT 5000 BR FEW030CB SCT035 OVC080 16/14
 Q1018 A3006=
 METAR OIBK 111800Z 07012KT 8000 -RA SCT015 FEW025CB SCT030 OVC080
 16/16 Q1020=
 METAR OIBL 111800Z 02006KT 4000 BR FEW020CB FEW025 OVC080 14/13
 Q1021=
METAR OIBS NIL=
 METAR OICC 111800Z 18004KT 8000 FEW035CB SCT040 BKN080 M01/M02
 Q1019 A3011=
 METAR OICI 111800Z 10004KT 9999 FEW030CB SCT040 BKN090 02/02 Q1018
 A3007=
METAR OICJ NIL=
 METAR OICK 111750Z 00000KT 8000 -RA FW030CB SCT035 OVC080 03/02
 Q1019=
METAR OICS 111800Z 01004KT 7000 FEW040 SCT080 M04/M05 Q1020=
METAR OIFK NIL=
 METAR OIFM 111800Z 00000KT 0500 FG SCT035 OVC100 M01/M01 Q1018
 A3007=
 METAR OIFS 111800Z 00000KT 2000 BR FEW025CB SCT030 OVC080 M03/M04
 Q1018=
METAR OIGG 111800Z 00000KT 2500 BR FEW030 05/05 Q1014=
METAR OIGK NIL=
METAR OIHH 111800Z 00000KT 3000 BR SCT035 OVC090 M05/M06 Q1020=
METAR OIHM NIL=
 METAR OIIE 111800Z 24005KT 8000 FEW040 SCT180 00/M02 Q1019 A3012
 NOSIG=
 METAR OIII 111800Z 28006KT 2000 BR SCT035 OVC100 01/M01 Q1019
 A3010=
METAR OIIK 111800Z 00000KT 8000 FEW040 BKN090 M01/M03 Q1019=
METAR OIIP 111800Z 00000KT 6000 FEW035 BKN080 M02/M03 Q1018=
METAR OIIS NIL=
 METAR OIKB 111750Z 32004KT 6000 FEW025CB SCT030 BKN100 14/11 Q1021
 A3018=
METAR OIKK 111750Z 15008KT 9999 SCT035 BKN100 00/M03 Q1020 A3012=
METAR OIKO NIL=
0000133100
243
SAIR31 OIII 111800 RRA
METAR OIKQ 111750Z 00000KT 7000 FEW025CB SCT030 BKN090 14/10 Q1021=
METAR OIMB 111800Z 06010KT 9999 FEW040 M01/M09 Q1019=
METAR OIMC NIL=
METAR OIMD NIL=
METAR OIMM 111800Z 16004KT 8000 FEW040 BKN180 04/M07 Q1017 A3003=
METAR OINB NIL=
METAR OING 111800Z 24004KT 7000 NSC 05/04 Q1015=
METAR OINK NIL=
METAR OINN 111800Z VRB02KT CAVOK 06/05 Q1014=
METAR OINR 111800Z 21004KT 8000 NSC 07/05 Q1013=
METAR OISA NIL=
 METAR OISF 111750Z 00000KT 6000 FEW035CB SCT040 OVC100 05/04
 Q1019=
 METAR OISL 111800Z 00000KT 9999 FEW025 FEW030CB OVC080 08/06
 Q1021=
 METAR OISS 111800Z 10006KT 3000 BR FEW020 FEW030CB OVC080 04/04
 Q1019 A3009 RERA=
 METAR OISY 111800Z 00000KT 1000 -SN FEW030CB SCT035 OVC070 00/00
 Q1019=
METAR OITL 111750Z 23016KT 9999 BKN090 BKN190 M02/M04 Q1016=
METAR OITR 111800Z 26004KT 1400 R21/P2000 BR FEW035 M11/M13 Q1020=
 METAR OITT 111800Z 00000KT 3500 BR FEW035 SCT090 M09/M12 Q1021
 A3016=
METAR OITU NIL=
 METAR OIYY 111800Z 30008KT 3000 -RA FEW030CB SCT035 OVC090 02/01
 Q1022=
METAR OIZB 111800Z VRB02KT CAVOK 05/00 Q1022=
METAR OIZC NIL=
METAR OIZH 111800Z 12008KT CAVOK 03/M06 Q1020 A3012=
METAR OIZI 111800Z 00000KT CAVOK 11/00 Q1023=
 METAR OIZJ 111800Z 00000KT 8000 FEW025CB SCT030 BKN190 19/07
 Q1021=
0000030900
244
FCUZ31 UTTW 111800
TAF UTFA 111800Z 1119/1204 VRB02MPS 0100 FZFG VV002 TEMPO 1123/1202
24004MPS 1200 BR NSC=
TAF UTSK 111802Z 1119/1204 15005G10MPS 5000 BR NSC TEMPO 1119/1203
1000 BR BKN005=
TAF UTFF 111800Z 1119/1204 VRB02MPS 0500 FZFG VV002 TEMPO 1119/1124
15003MPS 0800 FZFG NSC=
0000085600
245
SAUZ31 UTTW 111800
METAR UTFN 111800Z 00000MPS M0050 R28/M0050N FZFG VV001 M09/M10 Q1026
R28/CLRD70 NOSIG RMK QBB030=
METAR UTNN 111800Z 07004MPS CAVOK M03/M04 Q1019 R15/CLRD60 NOSIG=
METAR UTNU 111800Z 11002MPS 7000 FEW200 M02/M05 Q1019 R31/CLRD60
NOSIG=
METAR UTSA 111800Z 12004MPS 5000 BR NSC M01/M06 Q1020 R07/CLRD70
NOSIG=
METAR UTSB 111800Z 09003MPS 6000 NSC M00/M05 Q1020 R01/CLRD70 NOSIG=
METAR UTSK 111800Z 05002MPS 6000 NSC 00/M03 Q1020 R16/CLRD70=
METAR UTSS 111800Z VRB01MPS 9999 NSC M02/M10 Q102 R88/CLRD70 NOSIG=
METAR UTST 111800Z 03003MPS 7000 NSC M02/M06 Q1021 R88/CLRD70 NOSIG=
METAR UTFA 111800Z 00000MPS 0150 R04/0050V0300N FZFG VV001 M07/M08
Q1027 R88/09//70=
METAR UTFF 111800Z 15002MPS 2300 BR NSC M06/M07 Q1025 R18/CLRD70=
METAR UTTT 111800Z 06004MPS CAVOK 02/M11 Q1022 R08R/CLRD70 NOSIG=
00000000