0000154000
106
SMOM66 OOMS 111800
AAXX 11184
41240 06/// /3414 10174 20142 30205 40219 69921
333 0E/// 10211 59010 70002 =
41241 06/// /3510 10177 20148 30181 40219 69961
333 0E020 10220 59010 70006 =
41242 NIL=
41244 36/// /0204 10181 20103 39810 47995
333 0E019 10219 59008 =
41246 36/// /1403 10193 20123 30209 40213
333 0E020 10218 59021 =
41250 NIL=
41251 36/// /2301 10073 20014 38061 49962
333 0E009 10122 58003 =
41252 NIL=
41253 NIL=
41254 NIL=
41255 36/// /1402 10171 20062 39672 40235
333 0E018 10229 59003 =
41256 32560 71302 10185 20090 30208 40218 81531 333 10221 59015
81630 84360 85070=
41257 36/// /1004 10169 20091 39731 40225
333 0E017 10216 59012  =
41258 36/// /1107 10204 20107 30207 40211
333 0E/// 10212 59017 =
41259 NIL=
41262 NIL=
41263 36/// /2405 10188 20077 39609 40189
333 0E020 10231 59009 =
41265 36/// /0803 10160 20051 39614 40208
333 0E015 10235 59001 =
41267 36/// /0304 10196 20076 30205 40221
333 0E019 10218 59010  =
41268 NIL=
41270 NIL=
41272 NIL=
41275 NIL=
41280 26/// /0000 10172 20103 30089 40232
333 0E015 10224 59014 70000 =
41287 36/// /0706 10167 20093 30169 40209
333 0E019 10247 59001 =
41288 36/// /0714 10203 20127 30192 40215
333 0E021 10244 59002 =
41291 NIL=
41304 NIL=
41314 32660 11305 10192 20125 39693 40201 81500
  333 10258 58001 81630 =
41315 36/// /1806 10147 20130 39198 42835
333 0E/// 10216 59001  =
41316 32560 51009 10230 20151 30165 40192 85500
  333 10268 58000 85625 =
0000004100
107
SMPS01 AMMC 111800
NIL

0000129000
108
SMUZ10 UTTW 111800
AAXX 11181
38141 32998 60000 11006 21096 30038 40200 53001 83032 333 10072=
38149 42998 00901 11027 21088 30125 40203 54000 333 10082=
38178 429// 01002 11046 21136 39933 40236 58002 333 10017=
38262 329// 00000 11052 21106 30145 40230 52002 333 10078=
38264 42998 00704 11025 21038 30110 40206 57003 333 10054=
38396 41996 21102 11025 30080 40210 58005 71000 80001 333 10071=
38403 429// 00304 11010 21095 30076 40200 58004 333 10062=
38413 429// 01405 10016 21075 39941 40238 58003 333 10100=
38457 32997 00702 10019 21121 39642 40241 57003 333 10108=
38462 429// 00000 11041 21130 38804 48532 52003 333 10054=
38565 329// 00000 10039 21024 39634 40224 58009 333 10105=
38579 329// 22002 11016 21076 39798 40230 58008 80001 333 10104=
38583 32997 01401 11014 21033 39916 40249 58001 333 10064=
38611 41/92 90000 11085 21092 39714 40323 52005 74944 333 11020
8019/=
38618 329// 21201 11056 21063 39568 40293 54000 80001 333 11024=
38683 41996 60903 11002 21054 39937 40221 58005 71022 80001 333
10109=
38696 329// 30000 11040 21086 39367 40260 58009 82044 333 10105=
38812 41996 50502 10003 21027 39754 40220 58014 71021 80001 333
10108=
38927 31957 40303 11014 21020 39846 40237 58013 71010 80001 333
10120=
0000042000
109
SMAU40 AMMC 111800
AAXX 11184
94210 46/// /2715 10287 30060 40066=
94307 46/// /2417 1//// 2//// 30045 40078=
94934 46/// /2807 10174 20098 30144 40167=
94974 46/// /2412 10143 20113 30160 40183=
95283 46/// /1109 10273 20237 30064 40071=
95288 46/// /1225 10268 30051 40066 56010=
95675 46/// /0704=
95756 46/// /2109=
95872 46/// /1612=
95961 46/// /2715 10135 20101 30139 40180=

0000209400
110
SMKW10 OKBK 111800
AAXX 11184
40550 35/67 /3204 10091 20074 40204 51014
  333 55300 00000 10236 20000 30000 41037 51271 60000 55407 40000
90069 90400 91007 91117 91209 91305=
40551 45/69 /2310 10088 20069 40211 51016
  333 90069 90400 91011 91119 91215 91309=
40552 45/70 /2811 10093 20073 40209 51017
  333 55300 90069 90401 91013 91121 91217 91311=
40553 35/68 /3106 10101 20083 40207 51016
  333 55300 90069 90400 91007 91119 91215 91309=
40568 46/// /2908 10114 20087 40210 53017
  333 90401 91011 91121 91217 91309=
40569 NIL=
40570 45/70 /2508 10084 20061 40217 51017
  333 55300 90069 90400 91011 91125 91217 91311=
40571 NIL=
40572 NIL=
40573 45/69 /2609 10083 20060 40218 51016
  333 90069 90401 91011 91125 91217 91311=
40580 46/// /2706 10125 20072 40214 51019
  333 553// 00000 10139 20000 30000 41188 51330 60000 55407 40000
90401 91011 91115 91207 91305=
40581 46/// /3504 10130 20078 40219 52019
  333 90400 91009 91109 91201 91301=
40582 42960 43008 10118 20076 40210 51019 84030
  333 55300 00000 10152 20000 30000 41155 51310 60000 55407 40000
84360 90401 91009 91119 91215 91309=
40583 NIL=
40585 46/// /2814 10133 20071 222// 1//// 3//// 4//// 70///
  333 90400 91021 91121 91213 91309=
40586 46/// /2609 10111 20077 40214 51019
  333 90401 91013 91119 91209 91305=
40587 46/// /2810 10108 20077 40213 51019
  333 553// 00000 10253 20000 30000 41027 51280 60000 55407 40000
90401 91011 91121 91215 91307=
40588 45/70 /3113 10122 20086 40207 52017
  333 55300 90069 90400 91015 91119 91215 91309=
40589 NIL=
40590 45/66 /2810 10096 20076 40217 51019
  333 90069 90401 91013 91121 91219 91309=
40591 NIL=
40592 45/64 /2904 10109 20088 40215 53019
  333 55300 00000 10239 20000 30000 41048 51287 60000 55407 40000
90069 90400 91009 91121 91211 91305=
40593 46/// /3209 10127 20093
  333 90400 91011 91123 91215 91309=
40594 46/// /2806 10105 20087 40216 53019
  333 90400 91007 91119 91209 91305=
40596 46/// /2916 10150 20090
  333 90401 91021 91123 91215 91313=
0000216600
111
SZNZ01 NZKL 111815
CREX++
T000103 A001 D01021 D06025++
-3683144 17478654 AUCT  2014 01 11 18 07 //// 11 07 00 01
05558 3156 05552 3157 05546 3158 05541 3159 05534 3159 05528 3160+
-4402404 -17636748 CHIT  2014 01 11 18 07 //// 11 07 00 01
04564 2044 04566 2050 04551 2038 04539 2028 04536 2029 04525 2020+
-4089929 17623168 CPIT  2014 01 11 18 07 //// 11 07 00 01
03655 2331 03616 2297 03622 2308 03621 2311 03606 2301 03602 2301+
-3618905 17548887 GBIT  2014 01 11 18 07 //// 11 07 00 01
06047 0021 06057 0035 06049 0032 06033 0021 06015 0008 05997 -0006+
-3867541 17802288 GIST  2014 01 11 18 07 //// 11 07 00 01
03922 2766 03917 2766 03917 2770 03909 2767 03910 2773 03904 2772+
-4241288 17370277 KAIT  2014 01 11 18 07 //// 11 07 00 01
02992 2268 02998 2279 02989 2274 02970 2259 02968 2262 02962 2259+
-3755040 17815904 LOTT  2014 01 11 18 07 //// 11 07 00 01
03569 0202 03578 0216 03562 0204 03557 0204 03548 0199 03533 0189+
-3704657 17451175 MNKT  2014 01 11 18 07 //// 11 07 00 01
03417 -0112 03443 -0089 03444 -0093 03441 -0098 03420 -0123 03461 -0085+
-3947566 17692007 NAPT  2014 01 11 18 07 //// 11 07 00 01
02818 2060 02815 2062 02796 2048 02792 2049 02773 2035 02778 2044+
-3441483 17304870 NCPT  2014 01 11 18 07 //// 11 07 00 01
-04464 -9311 -04417 -9260 -04457 -9296 -04475 -9311 -04445 -9277 -04448 -9277+
-4581435 17062939 OTAT  2014 01 11 18 07 //// 11 07 00 01
03973 3521 03972 3522 03969 3522 03966 3521 03963 3521 03960 3520+
-2928002 -17789440 RBCT  2014 01 11 18 07 //// 11 07 00 01
06128 2028 06136 2039 06141 2047 06125 2035 06102 2014 06119 2034+
-2925114 -17790384 RFRT  2014 01 11 18 07 //// 11 07 00 01
03067 0177 03043 0156 03040 0156 03045 0164 03046 0169 03036 0161+
-4357010 17277383 SUMT  2014 01 11 18 07 //// 11 07 00 01
01426 1829 01418 1826 01420 1833 01421 1838 01416 1838 01409 1835+
-3764109 17618118 TAUT  2014 01 11 18 07 //// 11 07 00 01
05300 3979 05295 3979 05293 3981 05289 3982 05284 3981 05279 3981+
-4128448 17477985 WLGT  2014 01 11 18 07 //// 11 07 00 01
02811 2032 02805 2029 02800 2028 02803 2035 02789 2024 02798 2036++
7777
0000046300
112
SMAU11 AMMC 111800
AAXX 11184
94100 NIL=
94201 NIL=
94202 NIL=
94204 NIL=
94208 NIL=
94213 NIL=
94214 NIL=
94215 NIL=
94217 NIL=
94303 NIL=
94305 NIL=
94306 46/// /2502 10279 20265 30065 40078=
94308 NIL=
94309 NIL=
94311 NIL=
94316 NIL=
94318 NIL=
94320 NIL=
94401 NIL=
94402 NIL=
94404 NIL=
94410 NIL=
94411 NIL=
94414 NIL=
94415 NIL=
94417 46/// /3305 10304 20063 39773 40076=
94422 NIL=

0000062800
113
SMAU12 AMMC 111800
AAXX 11184
94439 NIL=
94440 NIL=
94444 NIL=
94448 NIL=
94450 NIL=
94457 NIL=
94600 NIL=
94602 NIL=
94603 46/// /0106 10312 20063=
94604 46/// /0807 10270 20123 30090 40097=
94605 46/// /0909 10314 20102 30079 40083=
94607 46/// /0913=
94608 NIL=
94609 NIL=
94612 NIL=
94614 46/// /0911 10318 20093=
94615 46/// /0925 10294 20110=
94616 NIL=
94617 NIL=
94620 NIL=
94621 NIL=
94622 NIL=
94623 NIL=
94625 NIL=
94627 NIL=
94628 46/// /1104 10171 20132 39766 40132=
94629 NIL=
94630 NIL=
94631 NIL=
94632 NIL=
94633 NIL=
94635 NIL=

0000070500
114
SMAU13 AMMC 111800
AAXX 11184
94636 NIL=
94639 NIL=
94640 NIL=
94641 46/// /1107 10175 20134 39766 40133=
94644 NIL=
94645 NIL=
94801 NIL=
95204 NIL=
95214 NIL=
95215 NIL=
95303 NIL=
95304 NIL=
95305 NIL=
95307 NIL=
95316 NIL=
95317 46/// /1101 10268 20237 39862 40063=
95402 NIL=
95600 NIL=
95601 NIL=
95602 46/// /1308=
95603 NIL=
95604 NIL=
95606 NIL=
95607 NIL=
95608 NIL=
95610 NIL=
95611 NIL=
95612 NIL=
95613 NIL=
95614 NIL=
95615 NIL=
95616 NIL=
95617 NIL=
95618 NIL=
95621 NIL=
95622 NIL=
95623 NIL=
95624 NIL=
95625 NIL=
95626 NIL=
95627 NIL=
95628 NIL=
95629 NIL=
95630 NIL=
95645 NIL=

0000003800
115
SMVA01 AMMC 111800
NIL
0000003800
116
SMVB01 AMMC 111800
NIL
0000008200
117
UPIN90 VECC 111800
PPAA 61171 42809
 55292 28505 27510 77999=

0000009600
118
UGIN90 VECC 111800
PPBB 61171 42809
90012 09004 29503 28504 9036/ 28507 26514=
0000003800
119
SMVC01 AMMC 111800
NIL
0000035200
120
SMAU14 AMMC 111800
AAXX 11184
95101 NIL=
95631 NIL=
95632 46/// /1103 10213 20124 39916 40122=
95635 46/// /0403 10140 20131 30116 40148=
95636 46/// /0908 10161 20161 39792 40144=
95638 NIL=
95639 46/// /0610 10176 20123=
95640 NIL=
95642 NIL=
95643 NIL=
95644 46/// /0512 10182 20145 39890 40144=
95647 NIL=

0000050500
121
SMGG10 UGGG 111800
AAXX 11181
37395 11596 82703 10076 20051 30087 40228 58003 60100 78088 8692/
  333 10126=
37409 31/91 92712 11010 21010 38786 48501 52006 74544
  333 10047 95090=
37432 32697 70000 11020 21065 38929 48462 57008
  333 10053=
37514 32696 60000 10028 21014 39058 40226 53001 86500
  333 11030 95090=
37545 325// 63410 10082 20032 39668 40179 52011 85140
  333 10116=
37621 326// 62702 10102 20004 39531 40162 52012 82530
  333 10114=
37484 NIL=

0000074300
122
SMCH01 SCSC 111800
AAXX 11184
85406 12980 02015 10248 20161 40097 56013 60001=
85418 12980 02018 10245 20152 40102 57020 60001=
85432 12970 02621 10235 20056 37710 48356 57010  60001=
85442 12560 11914 10234 20153 40106 57019 60001 81500
  333 56400 81627=
85467 12560 82810 10206 20146 40143 58011 60001 885//
  333 56699 88621=
85469 42570 21011 10253 20173 40211 52001 82100
  333 56200 82820=
85488 12465 32811 10193 20126 40139 58003 60001 83500
  333 56600 83617=
85500 NIL=
85556 NIL=
85558 12997 03503 10180 20143 40140 52005 60001=
85564 12997 03209 10178 20130 40136 52005 60001=
85574 12960 01910 10349 20030 40069 58012 60001=
85577 12960 02104 10339 20079 39508 40073 57010 60001=
0000066300
123
SMAA01 SAWB 111800
AAXX 11184
88963 32560 42912 10032 21039 39921 49951 57013 81441 333 56666 57369
81625 92426 92731 94064=
88968 32465 81412 10002 21026 39968 49983 53005 886// 333 56199 85710
88625 92417 92731 92851 94070=
89034 11460 73608 11024 21083 39634 49951 52009 69901 70172 85670 333
56080 85712 87360 90127 92801=
89053 32562 73214 10015 21045 39970 49984 57012 81570 333 56690 81620
87358 92427 92851 94060 94469 98562=
89055 32965 30212 10016 21009 39709 49952 57015 80005 333 56005 83270
92739 92880 95100=
89066 32960 81802 10030 20020 39922 49932 56016 8807/ 333 56069 88360
92406 92734 92851 94040 95000=
0000005500
124
SMAA01 SAWB 111800 RRA
AAXX 11183
NIL
0000068700
125
SMCH02 SCSC 111800
AAXX 11184
85585 12575 11810 10201 20117 40196 54002 60001 81100
  333 56400 81830=
85586 12960 02907 10196 20114 40133 52005 60001=
85629 12970 02104 10311 20123 40084 58010 60001=
85648 NIL=
85672 12980 02106 10320 20107 40092 57019 60001
333   =
85682 12965 02409 10251 20115 40114 58008 60001=
85703 12960 01810 10336 20111 40103 57020 60001=
85732 12997 02030 10184 20078 40131 57009 60001
  333 91142 91519=
85743 12960 02408 10297 20106 40125 58028 60001=
85766 12965 01206 10256 20144 40153 57024 60001=
85782 12970 01509 10240 20112 40170 57020 60001=
85799 12960 01412 10185 20096 40190 57013 60001=
85830 NIL=
00000000