0000009200
386
SMAL52 EUMS 111800
AAXX 11184
60667 36/// /0000 10199 21058
  333 10227=
0000024100
387
SOAT10 KWAL 111818
FA8005BC 011181837 OT12 ID:KN-BASS-01 DT:2014 01 11 18 16
:RD -3095 -3098 -3122 -3105 -3133 -3127 -3109 -3132 -3109 -3085
:PR 0597 0643 0516 0539 0572 0512 0502 0479 0542 0546
:B 13.7V
 46+1NN 219E
0000012000
388
SMSB20 VCCC 111800
AAXX 11184
43466 22470 80503 10266 20218 30114 40126 86106 333 59005 60007
86818=
0000021300
389
SMVD15 KWNB 111800 RRK
BBXX
41056 11181 99183 70655 46/// /0908 10262 40171 91750 333 91209
555 11084 22091=
41056 11181 99183 70655 46/// /0908 10262 40172 91740 333 91210
555 11087 22095=
0000011200
390
SMPO01 LPMG 111800 RRA
AAXX 11181
08560 32/// /36// 10106 20053 39429 40183 52008
333 10136=
0000021900
391
SMMD01 LPMG 111800
AAXX 11181
08521 32460 62107 10177 20142 30114 40184 53014 82131
333 10198 82815 84360=
08524 11465 61704 10177 20157 30084 40181 52006 69912 70251
333 10193 84814 91007 91107=
0000021300
392
SNVD20 KWNB 111700 RRX
BBXX
41053 11171 99185 70661 46/// /0808 10266 40173 91730 333 91210
555 11090 22098=
41053 11171 99185 70661 46/// /0908 10265 40174 91720 333 91210
555 11088 22096=
0000407700
393
SMKZ01 UAAA 111800
AAXX 11181
28676 119// 01403 11089 21104 30079 40211 54000 69940 70181 333  
11050=
28766 119// 81704 11044 21071 39997 40190 53003 69930 71022 8802/
333   11049=
28867 12598 81602 11052 21077 39913 40189 52004 69930 885// 333  
11048=
28879 129// 81302 11054 21075 39922 40216 54000 69930 8805/ 333  
11059=
28952 119// 81603 11057 21083 39987 40182 52006 69900 77173 8802/
333   11057=
28966 115// 81604 11038 21071 39910 40197 53005 69980 77173 885//
333   11037=
29802 325// 81602 11084 21116 30123 40272 57008 885// 333   11087=
29807 125// 81901 11063 21087 30140 40262 57003 69900 885// 333  
11064=
34691 11998 32303 10024 20005 30111 40099 58002 69940 70261 83030
333   10042=
35067 115// 81902 11035 21049 39920 40200 52008 69990 77177 8802/
333   11035=
35078 116// 81905 11064 21076 39833 40221 52004 69960 70273 885//
333   11055=
35085 129// 61701 11108 21131 39753 40250 52001 69900 80001 333  
11061=
35108 115// 82505 10012 21002 30002 40047 52018 60040 70276 885//
333   10013=
35188 116// 81704 11076 21127 39803 40251 57001 60010 70373 885//
333   11058 88646=
35217 114// 82209 10012 20007 30044 40084 53008 69980 70266 887//
333   10010 91119=
35229 314// 81504 11014 21028 39875 40149 58001 77072 885// 333  
10000=
35302 115// 72706 10016 21001 30052 40071 52014 69970 70276 87800
333   10017=
35357 115// 81805 11085 21113 39785 40234 52007 70273 69960 8655/
333   11065=
35394 32998 61502 11075 21155 39569 40267 57005 86070 333   11079=
35406 115// 82103 10017 20012 30102 40104 52006 69900 70252 885//
333   10026=
35416 115// 81905 10007 21004 30018 40138 53001 69920 72273 8802/
333   10004 91115=
35426 325// 81804 11018 21032 39876 40169 54000 885// 333   11003=
35497 319// 80904 11091 21156 39443 40270 57004 70232 8801/ 333  
11087=
35532 31598 82303 11026 21056 39688 40184 54000 72842 8802/ 333  
11008=
35671 11596 81603 11083 21093 39796 40240 52008 69920 71072 885//
333   11063=
35700 31596 82203 10019 20003 30165 40141 58004 76062 885// 333  
10036=
35746 315// 82002 11016 21021 71022 885// 333   1/002=
35796 32997 40505 11170 21193 39839 40306 57007 83031 333   11100=
35849 31998 80000 11004 21028 30134 40220 52010 70242 8807/ 333  
10001=
35925 329// 21403 11014 21026 40184 53004 80002 333   10022=
35953 314// 82001 11014 21025 30101 40232 52004 71022 886// 333  
11017=
35969 329// 00000 11099 21135 30084 40266 52016 333   11042=
36003 32998 51601 11142 21177 30124 40285 57005 80006 333   11084=
36152 329// 81103 11153 21170 30100 40301 57005 80007 333   11100=
36177 329// 71502 11080 21154 30062 40318 57008 80005 333   11063=
36208 NIL=
36397 329// 81616 11111 21184 39729 40317 57008 80007 333   11106
91020 91120=
36428 329// 21002 11226 21239 39835 40385 56005 80001 333   11126
95090=
36535 329// 50000 11212 21246 39700 40390 57010 80001 333   11122=
36639 329// 60000 11220 21238 39677 40339 53003 84031 333   11068=
36821 329// 02201 11120 21140 39775 40291 57006 333   11025=
36859 329// 70000 11108 21131 39489 40310 53011 84075 333   11008=
36864 329// 02702 11138 21190 39367 40318 58007 333   11010=
36870 329// 01201 11045 21126 39239 40277 54000 333   10004=
38001 32997 60000 10050 20017 30178 40149 58004 86030 333   10072=
38062 316// 82101 11013 21021 30070 40234 52004 71011 885// 333  
10020=
38069 329// 01402 11056 21103 333   10037=
38196 32998 03402 10010 21123 39254 40240 51003 333   10038=
38198 329// 00602 11037 21100 39988 40255 52002 333   10005=
38222 32997 51601 11108 21152 39700 40289 58005 85040 333   11006=
38232 32998 01101 11009 21015 30061 40161 58002 333   10064=
38328 329// 01302 11012 21116 39509 40253 54000 333   10104=
38334 32998 00802 11019 21130 39277 40259 58001 333   10071=
38341 32997 21602 11055 21101 39458 40271 58003 82040 333   10043=
38343 32997 01801 11016 21113 39406 40264 58004 333   10052=
38439 32998 01205 10007 21043 39894 40238 58002 333   10036=
0000037600
394
SMCI01 BABJ 111800 RRB
AAXX 11181
51076 32/// 93602 11141 21204 39440 40387 57013 333 05809
11065=
53513 31/62 90000 11165 21204 39124 40432 57006 70500 333
00653 11027=
54471 42/80 90207 11073 21189 30338 40344 52034 333 10011=
54511 32980 90203 10001 21202 30302 40343 52022 333 10043=
57083 32/57 92704 10066 21148 30173 40312 52005 333 10087=
0000038400
395
SMCI02 BABJ 111800 RRB
AAXX 11181
57494 31923 92701 10042 20029 30298 40330 52002 71000 333
10052=
58040 31/14 90000 11005 21018 30307 40315 54000 71040 333
10065=
58238 11/11 90401 10045 20033 30267 40313 52003 69911 71040
333 10050=
58251 32/19 93402 10023 20005 30306 40312 52002 333 10059=
59117 33/49 92901 10116 20100 30108 40249 52003 333 10229=
0000011000
396
SMNO47 ENMI 111800 RRA
AAXX 11181
01298 11270 80807 11145 21165 69922 78583 8596/ 333 11124=
0000182900
397
SMCI03 BABJ 111800
AAXX 11181
50136 33/// 92001 11363 21405 39765 40387 57001 333 11251=
50745 33/// 92901 11257 21321 30150 40357 52010 333 11176=
50774 33/// 90701 11338 21366 39943 40306 52010 333 11187=
50788 33/// 92708 11278 21337 30160 40256 52004 333 11191=
51133 32/// 91104 11025 21181 39617 40289 57003 333 06112
10009=
51431 32/// 92501 11101 21134 39468 40306 52019 333 05906
10016=
51747 32/// 90701 11193 21242 39069 40457 57002 333 05151
11018=
52203 32/// 90401 11166 21224 39478 40427 57010 333 05200
11025=
52418 32/// 91601 11158 21233 39021 40446 57012 333 05159
11021=
52681 32/// 92202 11103 21224 38769 40426 57008 333 00300
11010=
53564 42/35 90901 11146 21219 39331 40420 52006 333 00301
10000=
53614 32/62 91602 11076 21208 39048 40405 52001 333 00401
10012=
53646 32/// 93602 11120 21232 38981 40398 57002 333 00354
10012=
53798 32/09 90401 10010 21090 30231 40331 52019 333 10051=
53845 32/// 93604 11059 21223 38964 40388 52003 333 00403
10016=
53959 32/32 92702 10001 21098 39903 40361 52008 333 10066=
54094 42/57 93404 11168 21210 39850 40254 52015 333 11100=
54102 32/67 91102 11254 21285 39134 40430 52006 333 11084=
54161 33/// 93603 11203 21237 30022 40340 52039 333 11073=
54292 33/// 92706 11092 21203 39894 40228 57005 333 11055=
54374 33/// 90000 11163 21195 39796 40292 54000 333 11065=
54423 32/80 93403 11080 21222 39821 40363 52018 333 10006=
54618 31/04 93401 11047 21058 30316 40335 52019 70040 333
10010=
54843 42/27 92701 11029 21065 30282 40311 52006 333 10060=
54909 42/49 92901 10015 21050 40308 52003 333 10087=
56029 33/// 92701 11098 21146 36441 54000 333 00102 11016=
57127 32/// 90701 10022 20012 39731 40360 54000 333 10074=
57131 32/// 92503 10023 21162 40371 52007 333 10072=
0000036400
398
SXXX32 EUMS 111812
22E595B6
:PRS 1 /1 M 2939 2931 2933 2949 2936 2928 2942 2908 2940 2902 2926 2912 2869 2904 2853 2881 2:99 2885 2922 2929 2908 2922 2888 2898 2949 2919 2951 2917 2899 :RAD 1 /3 6107 6100 6086 6075 6074 6086 6094 6096 6098 6084 :ENC 2 /5 4232 4219 4180 4206 4214 4209 :SW1 12 /60 60 :SW2 42 /60 60 :BAT 14 /15 12.5 :NAME 22E595B6
0000044600
399
SXXX32 EUMS 111813
32BD7124
:PRS 1 /1/1870 1867 1865 1864 1864 1863 1/60 1858 1855 1852 1851 1849 1848 1847 1846 1846 1843 1843 1839 1834 1830 1825 1823 1822 1820 1818 1815 1814 1814 1817 :RAD 3 /3 7647 7643 7638 7633 7630 7623 7614 7608 7601 7602 7611 7619 7630 7632 7631 7633 7633 7639 7638 7638 :ENC 3 /5 4642 4634 4628 4617 4604 4597 4609 4626 4627 4628 4635 4636 :SW1 14 /60 0 :SW2 44 /60 60 :BAT 14 /15 12.4 :NAME 32BD7124
0000070100
400
SXXX32 EUMS 111813 RRA
223412A2
OT12 ID:IND-SADENG DT:2014 01 11 18 12
:PRS /1 01051 01064 01092 01176 01173 01117 01040 01056 01114 01115 01130 01205 01083 01113 01111 01053 01094 01080 01129 01157 01089 01109 01168 01106 01161 01124 01109 01173 01274 01153
:ENC /1 -13656 -13633 -13583 -13513 -13519 -13576 -13636 -13626 -13583 -13576 -13559 -13473 -13589 -13589 -13596 -13649 -13596 -13569 -13546 -13543 -13573 -13556 -13549 -13559 -13516 -13549 -13536 -13493 -13459 -13543
:RAD /1 10883 10902 10878 10961 10919 10879 10836 10758 10851 10843 10872 10921 10833 10915 10802 10749 10870 10883 10922 10927 10866 10931 10895 10891 10883 10856 10870 10909 10941 10910
:BAT 11.9V
0000012000
401
UPIN90 VANP 111800
PPAA 61171 43041 55292 34009 27505 77999=
PPAA 61171 42361 55292 34012 00509 77999=


0000040600
402
SXXX32 EUMS 111815
262D700E
:PRS 1 /1 3274 3251 3297 3303 3255 3280 3269 3238 3280 3269 3286 3275 3272 3280 3268 3263 3298 3297 3285 3265 3319 3318 3320 3311 3309 3330 3283 3306 3341 3354 :RAD 1 /3 5722 5723 5725 5730 5737 5747 5763 5771 5775 5783 5790 5790 5795 5803 5801 :ENC 5 /5 5828 5838 5843 5871 5879 5899 5899 5914 5907 5935 5952 5948 :SW1 15 /60 0 :BAT 14 /15 13.1 :NAME 262D700E
0000044900
403
SXXX32 EUMS 111815 RRA
16289262
:PRS 1 /1 2686 2676 2673 2684 2669 2673 2661 2667 2676 2660 2676 2676 2661 2660 2673 2665 2653 2663 2663 2672 2653 2664 2668 2654 2656 2659 2661 2671 2670 2650 :RAD 1 /3 8122 8124 8121 8118 8116 8119 8118 8118 8120 8116 8117 8119 8115 8115 8116 8113 8106 8099 8099 8099 :ENC 5 /5 5502 5497 5491 5488 5485 5488 5488 5489 5490 5481 5481 5469 :SW1 15 /60 0 :SW2 45 /60 0 :BAT 14 /15 12.7 :NAME 16289262
0000045500
404
SXXX32 EUMS 111815 RRB
324DF524
:PRS 1 /1 4487 4484 4481 4478 4475 4472 4469 4466 4463 4459 4455 4452 4448 4444 4441 4437 4433 4429 4425 4420 4416 4412 4407 4403 4397 4392 4387 4382 4376 4371 :RAD 1 /3 4542 4531 4520 4508 4495 4483 4469 4453 4435 4417 4399 4379 4359 4338 4315 4292 4267 4242 4217 4191 :ENC 5 /5 3451 3433 3415 3393 3368 3339 3308 3275 3239 3200 3160 3118 :SW1 15 /60 0 0 :SW2 45 /60 60 60 :BAT 14 /15 12.1 :NAME 324DF524
0000041500
405
SXXX32 EUMS 111816
26CB10AC
:PRS 1 /1 -1340 -1340 -1340 -1340 -1340 -1340 -1340 -1340 -1340 -1340 -1340 -1340 -1340 -1342 -1340 -1340 -1340 -1340 -1340 -1340 -1340 -1340 -1340 -1340 -1340 -1340 -1340 -1340 -1341 -1340 :RAD 3 /3 6368 6368 6371 6375 6381 6382 6383 6380 6383 6383 :RA2 3 /3 6351 6348 6352 6351 6367 6363 6371 6360 6363 6368 :SW1 17 /60 0 :SW2 47 /60 0 :BAT 14 /15 12.3 :NAME 26CB10AC
00000000