0000058500
786
SMMJ20 MJSK 111800
AAXX 11181
13586 31102 80000 10009 20002 39963 40264 57007 74444 886// 333
10016=
13493 42998 03603 10032 20006 39411 40242 54000 333 10116 94073=
13577 42998 00901 10014 21002 38709 48528 53005 333 10076 94062=
13578 41/91 90000 10040 20035 37010 48527 53003 74544 333 10062
94000=
13579 NIL=
13583 41/90 90000 10014 20009 39536 40254 55003 74744 333 10033
94000=
13591 41/91 90000 10027 20028 39847 40250 53004 74544 333 10039
94000 90415=
13592 41493 80000 10033 20025 30096 40255 51003 74644 886// 333
10047 94000 90441=
0000028600
787
SMMJ40 MJSK 111800
AAXX 11181
13492 NIL=
13584 NIL=
13585 41991 00000 10006 20004 39436 40253 51005 74644 333 10070
94052 90440=
13597 42998 00000 10049 20035 30158 40233 52012 333 10145 94076=
13598 42998 01101 10015 21009 39246 48498 52007 333 10128 94069=
0000087600
788
SMNL50 EHDB 111800
AAXX 11181
06206 46/// /2913 10069 20025 30115 40168 51027
333 10080 91017 91117 91214
555 51117 51213=
06207 47576 22914 10070 20014 30109 40163 53027 70100 8////
333 10084 82/24 91017 91119 91216
555 51118 51216=
06239 47576 42914 10067 20019 30072 40134 53027 72185 8////
333 10075 81/22 84/50 91017 91118 91215
555 51117 51215=
06252 46/// /2812 10068 20028 30141 40188 51025 222// 00095 10604
333 10086 91014 91115 91213
555 51114 51212=
06260 17970 12903 10057 20021 30198 40200 51034 69942 70185 8////
333 10078 81/69 91005 91109 91205
555 51105 51203 53000=
06270 17974 02907 10058 20013 30170 40170 51032 60042 70185
333 10073 91011 91114 91208
555 51112 51208 53000=
06290 17566 22504 10035 20024 30143 40184 51036 60022 70386 8////
333 10059 81/27 91005 91114 91209
555 51105 51204 53000=
0000210000
789
SMNL51 EHDB 111800
AAXX 11181
06201 47571 43012 10067 20017 30116 40169 51027 70200 8////
333 10079 81/24 84/39 91015 91116 91213
555 51116 51213=
06203 47580 6//09 10074 20025 30150 40201 51031 70100 8////
333 10089 82/20 83/25 85/33 91011 91114 91211
555 51111 51209=
06204 47580 72910 10071 20021 30134 40185 51027 70300 8////
333 10087 85/22 87/27 91013 91117 91212
555 51116 51211=
06205 47573 13113 10062 20010 30071 40131 53029 70185 8////
333 10072 81/28 91016 91117 91214
555 51117 51214=
06208 47574 22913 10070 20014 30106 40156 51034 70380 8////
333 10077 81/26 91017 91120 91214
555 51117 51214=
06211 47581 12713 10068 20007 30118 40174 51024 70100 8////
333 10076 81/26 91015 91116 91214
555 51116 51213=
06212 47578 32912 10072 20022 3//// 4//// 5//// 70200 8////
333 10087 83/22 83/27 91014 91116 91213
555 51115 51212=
06235 17972 13008 10063 20015 30186 40186 51031 60062 70100 8////
333 10078 81/61 91011 91114 91209
555 51112 51208 53000=
06240 17572 43005 10055 20024 30204 40199 51033 60022 70300 8////
333 10081 81/26 84/81 91008 91113 91210
555 51109 51207 53000=
06251 13/71 /2911 10064 20010 30168 40169 51029 60062
333 10076 91015 91116 91211
555 51115 51211 53000=
06258 46/// /2808
333 91009 91116 91212
555 51110 51209=
06269 17574 22705 10056 20023 30196 40190 51034 60012 70365 8////
333 10074 82/28 91009 91116 91211
555 51109 51206 53000=
06280 17570 12705 10048 20017 30160 40164 51033 60032 70386 8////
333 10067 81/29 91007 91111 91207
555 51108 51205 53000=
06310 17578 52805 10075 20032 30207 40217 52026 69912 70300 8////
333 10089 81/31 85/50 91008 91108 91206
555 51108 51205 53000=
06344 17671 13003 10044 20015 30213 40206 51030 69912 70200 8////
333 10085 81/41 91004 91114 91209
555 51107 51205 53000=
06370 17569 22402 10033 20015 30185 40211 51033 69972 70186 8////
333 10077 82/33 91003 91111 91207
555 51105 51203 53000=
06380 17969 02601 10043 20020 30079 40222 51034 69932 70185
333 10085 91003 91110 91206
555 51105 51203 53000=
0000102600
790
SMNL52 EHDB 111800
AAXX 11181
06210 17579 53006 10068 20025 30204 40204 51031 60012 70300 8////
333 10082 81/28 85/44 91009 91113 91209
555 51110 51207 53000=
06225 46/// /2910
333 91012 91115 91213
555 51112 51211=
06242 47564 32914 10067 20018 30173 40175 51028 70300 8////
333 10078 81/26 83/35 91017 91117 91214
555 51117 51214=
06257 16/// ///// 10068 20024 60022
333 10080
555 53000=
06275 17971 02603 10029 20013 30139 40196 51034 69992 70186
333 10067 91004 91113 91208
555 51106 51204 53000=
06330 16/// /3008 10074 20029 30194 40209 51029 69932
333 10087 91010 91113 91211
555 51110 51209 53000=
06340 47976 82603 10031 20013 30197 40216 52029 70280 8////
333 10087 81/71 88/81 91004 91110 91207
555 51104 51203=
06350 17971 02302 10040 20021 30196 40211 51033 69942 70186
333 10079 91004 91113 91208
555 51104 51202 53000=
06375 17570 22603 10047 20018 30180 40205 51034 69942 70286 8////
333 10074 82/28 91004 91110 91206
555 51106 51204 53000=
0000144900
791
SMNL53 EHDB 111800
AAXX 11181
06248 46/// /2904
333 91007 91117 91211
555 51107 51204=
06249 17/78 /2906 10055 20017 60042 70080
333 10079 91008 91118 91213
555 51110 51207 53000=
06267 17569 22910 10060 20027 60042 70186 8////
333 10072 82/28 91012 91113 91210
555 51113 51210 53000=
06273 17/71 /2805 10055 20026 60032 70000
333 10071 91007 91116 91210
555 51108 51206 53000=
06277 16/// /2914 10066 20025 60032
333 10075 91017 91119 91214
555 51117 51214 53000=
06278 16/// /2704 10046 20023 60022
333 10065 91006 91111 91207
555 51107 51205 53000=
06279 17971 02605 10042 20022 30154 40174 51035 60042 70165
333 10063 91006 91118 91212
555 51106 51205 53000=
06283 16/// /2503 10041 20026 60022
333 10063 91005 91113 91208
555 51105 51204 53000=
06286 16/// /2707 10046 20021 60032
333 10064 91009 91114 91210
555 51114 51209 53000=
06319 13/72 /2403 10045 20022 30218 40220 51027 69922
333 10089 91004 91111 91208
555 51105 51203 53000=
06348 17/80 /2903 10040 20014 30205 40204 51034 69912 70000
333 10078 91005 91113 91209
555 51108 51205 53000=
06356 169// 02703 10019 20004 30204 40205 51034 69922
333 10081 91004 91113 91208
555 51106 51204 53000=
06377 17666 42503 10042 20023 69942 70386 8////
333 10073 84/35 91005 91112 91207
555 51106 51204 53000=
06391 16/// /2502 10038 20027 69952
333 10073 91003 91110 91206
555 51104 51202 53000=
0000047200
792
SMNL54 EHDB 111800
AAXX 11181
06209 NIL=
06285 NIL=
06308 NIL=
06311 NIL=
06312 NIL=
06313 NIL=
06315 NIL=
06316 NIL=
06320 46/80 /2910 10079 20041 30180 40208 51026 222// 00081 10603
333 10089 91011 91114 91212
555 51112 51210=
06321 46/80 /2910 10076 20029 30188 40212 53026 222// 00086 10503
333 10090 91012 91113 91211
555 51112 51210=
06324 NIL=
06331 NIL=
06343 46/// /3105
333 91007 91114 91210
555 51109 51207=
0000067500
793
SMKO01 RKSL 111800
AAXX 11184
47101 32660 61601 11063 21096 30189 40290 56007 85500=
47105 369// /3204 11001 21112 30237 40270 55001=
47108 32660 62702 11019 21117 30177 40287 55007 86500=
47115 32670 23604 10014 21101 39973 40252 55003 82500 333 92034=
47133 31650 60000 11009 21047 30208 40296 56004 70522 86500=
47138 32965 42503 11004 21081 30276 40279 55001 80001 333 92022=
47159 31959 03609 10002 21085 30194 40283 55003 70500 333 92023=
47165 32662 61603 10003 21020 30248 40297 56004 85500 333 92022=
47168 31959 03408 10009 21083 30205 40287 53001 70500 333 92023=
47184 32670 21604 10023 21038 30270 40296 55003 82500 333 92022=
0000080000
794
SDTH20 VTBB 111800
FFBB 1118/ 48300 NIL=
FFBB 1118/ 48303 00000=
FFBB  1118/ 48327 00000=
FFBB  1118/ 48356 00000=
FFBB  1118/ 48378 00000=
FFBB 1118/ 48381 00000=
FFBB 1118/ 48407 00000=
FFBB 1118/ 48413 NIL=
FFBB 1118/ 48417 00000=
FFBB 1118/ 48432 0/0/0=
FFBB 1118/ 48456 NIL=
FFBB 1118/ 48475 00000=
FFBB 1118/ 48478 00000=
FFBB 1118/ 48517 655/3 755/3 844/3 61616 8412=
FFBB  1118/ 48551 0/0/0=
FFBB  1118/ 48565 265/3 275/3 485/3 565/5 /555/ 56161 61616 562=
FFBB 1118/ 48567 NIL=
FFBB 1118/ 48568 134/3 224/3 235/3 324/3 335/3 344/5 354/5 434/3
445/5 455/3 574/3 735/3 745/3 755/3 765/5 776/5 834/3 845/3 855/3
865/5 61616 133 224 231 324 333 34234 3514 4312 44123 451 5724 734
7434 754 7634 8324 8423 85124 8612=
FFBB 1118/ 48583 NIL=
0000012600
795
SMTH40 VTBB 111800 CCA
AAXX 11184
48405 31960 20000 10225 20185 30001 40167 54000 71000 80005
  333 58003=
0000136700
796
SMSP01 LEMM 111800
AAXX 11184
08001 12965 01902 10120 20088 30082 40163 53003 60002
  333 10142 92437=
08015 12570 30603 10095 20084 39774 40179 56005 60002 82610
  333 10114=
08023 12360 41012 10114 20111 30112 40183 57010 60032 82830
  333 10128=
08027 12362 70503 10100 20092 39890 40201 53001 60002 81601
  333 10130 924/7=
08045 01125 70000 10096 20088 39868 40179 53005 60002 71040 876//
  333 10141 60007=
08141 12960 12902 10072 20050 39332 40196 52006 60002 80001
  333 10112=
08160 11325 82701 10076 20065 39904 40217 52007 69902 71022 886//
  333 10084=
08181 02462 70607 10133 20125 30200 40207 53011 60002 878//
  333 10143 60007=
08221 02862 72203 10100 20056 39512 40196 53009 60002 82038
  333 10141 60007=
08231 12669 72502 10092 20066 39101 48509 52012 60002 87070
  333 10115=
08261 12975 11803 10125 20080 39730 40192 52014 60002 80001
  333 10173=
08284 01550 80000 10116 20090 30127 40203 51012 60002 71022 86577
  333 10137 60007=
08306 01259 70508 10148 20130 30176 40182 50000 60002 71052 82658
  333 10168 60007=
08314 01135 70603 10139 20130 30090 40193 5//// 60002 71042 8667/
  333 10159 60007=
08430 11450 73401 10114 20101 30128 40203 53007 60022 71022 84710
  333 10148=
08482 01457 31201 10141 20120 30192 40200 53012 60002 71021 81639
  333 10169 60007=
0000134500
797
SMTU10 LTAA 111800
AAXX 11184
17022 12965 22102 10075 20038 30079 40247 52008 60002 80001
 333 10099 82070 91108 92427=
17031 11556 52103 10042 20033 30240 40247 51006 60002 71022 83130
 333 10129 83830 85360 91112=
17038 11658 73603 10108 20058 30198 40249 52008 69902 78022 85250
 333 10139 85835 87360 91127 92426=
17050 12970 03602 10046 20044 30171 40235 53007 60002
 333 10104 91105=
17060 11958 02402 10086 20056 30198 40239 53004 60002 71000
 333 10114 91110=
17096 11529 22204 11177 21177 38257 48543 52007 60002 71000 82500
 333 11109 82630=
17124 11225 80605 11011 21019 39332 40289 52005 60002 71022 886//
 333 10000 88704 91112=
17128 11348 79903 11015 21023 39144 40295 52008 60002 71022 87600
 333 10001 87709=
17170 11640 20803 11069 21069 38337 48514 50007 60002 71000 82500
 333 10003 82640=
17195 11936 00000 11030 21038 39026 48526 52008 60002 71000
 333 10049 91108=
17197 12960 0//// 10046 21065 39130 40237 51002 60002
 333 10076=
17219 11540 50000 10088 20054 30083 40229 53006 60002 71022 82101 333 10148 82830 85070=
17240 12970 01301 10000 21033 39082 40279 52010 60002
 333 10109 91103=
17244 11/02 90000 11028 21028 39056 48532 52008 60002 74942
 333 10049 89/01=
17280 12970 03004 11007 21048 39410 40229 50007 60002
 333 10109=
17350 NIL=
0000054900
798
SMIN90 VEGT 111800
AAXX 11184
42410 21495 80000 10170 20154 40178 71062 8432/
  333 58000 6990/ 84618 81925 88458=
42314 21495 70504 10166 20126 40185 70596 84330
  333 57970 58011 6990/ 81710 84618 81925 87360=
42415 21596 60000 10162 20130 40190 70152 83530
  333 59005 6990/ 83620 85360=
42623 31496 40000 10128 20098 39286 40180 70500 82530
  333 58001 82618 83360=
42309 21494 70000 10144 20137 40171 70562 84730
  333 59002 6996/=
42724 31995 60000 10158 20140 40172 71022 84031
  333 58006 84360 84070=
0000071200
799
WOAU11 AMMC 111810
40:2:1:04:55S125E30045:11:00
IDY21000
SECURITE
HIGH SEAS WEATHER WARNING FOR METAREA 10
Issued by the Bureau of Meteorology National Meteorological and Oceanographic
Centre
AT 1810UTC 11 JANUARY 2014
GALE WARNING FOR SOUTHEASTERN AREA
 
PLEASE BE AWARE 
Wind gusts can be 40 percent stronger than the averages given here, and maximum
waves may be up to twice the height.
 
Situation
Vigorous southwesterly flow associated with a deep low south of 50S.
 
Area Affected
Bounded by 50S151E 46S160E 50S160E 50S151E.
 
Forecast
SW winds 30/40 knots developing by 120001UTC. Rough to very rough seas. Heavy
swell.
 
WEATHER MELBOURNE
 
0000137700
800
SMTU11 LTAA 111800
AAXX 11184
17026 12465 61503 10091 20090 30202 40241 50003 60002 84640
 333 10106 84710 86360 91110 92427=
17034 12670 60702 10094 20053 30207 40254 52007 60002 83250
 333 10135 83835 86360 92428=
17070 12965 03101 10036 20007 39365 40257 52010 60002
 333 10119 91109=
17084 11650 82602 11014 21042 39348 40294 52009 60002 71022 8552/
 333 10013 85635 88460 91108=
17090 12965 00000 11010 21059 38760 48522 52009 60002
 333 10075=
17098 12660 41202 11139 21143 38203 48532 51002 60002 84500
 333 11095 84635 91105=
17150 11628 22703 10035 20021 30116 40245 52008 60002 71000 82100
 333 10127 82835 91104=
17160 11530 82301 11019 21020 39083 48532 52008 60002 71022 886//
 333 10009 88720 91107=
17184 11656 73401 10081 20049 30126 40240 51006 60002 71022 84270
 333 10126 84840 87360 91103=
17190 11/08 91102 11020 21021 39045 48525 53008 60002 74542
 333 10027 89/04 91105=
17210 11950 00201 10026 21056 39170 40231 52007 60002 70500
 333 10087=
17234 12670 60901 10101 20055 30166 40236 52006 60002 83250
 333 10116 83840 86360 91106=
17260 12960 02605 10061 21013 39388 40230 52008 60002
 333 10145 91121=
17290 12970 50000 10140 20131 30198 40230 52004 60002 82230
 333 10176 85360 91107 92408=
17370 12965 60102 10156 20076 30223 40227 51004 60002 86030
 333 10179 86360 92417=
0000116900
801
SMTU12 LTAA 111800
AAXX 11184
17024 12465 61704 10080 20064 30156 40235 52002 60002 86600
 333 10097 86710 91106 92427=
17056 11900 00401 10049 20048 30231 40236 53002 60002 74444
 333 10086 91103 92411=
17067 11958 00902 10071 20046 30211 40234 52004 60002 71000
 333 10123 91112 92406=
17092 12960 31104 11047 21115 38909 48518 52006 60002 83030 333 10018 83361 91105=
17112 12965 00102 10085 20063 30228 40230 52009 60002
 333 10137 91113 92417=
17115 11902 00000 10041 20041 30182 40235 52008 60002 74422
 333 10137 91110=
17116 12960 00501 10040 20001 30122 40248 52008 60002
 333 10135 91104=
17188 12970 02902 10056 20014 39168 40258 53005 60002
 333 10109 91108=
17202 12970 02405 11036 21056 39196 40274 52010 60002
 333 10050=
17248 12965 01801 11015 21033 39036 48525 52010 60002
 333 10057=
17292 12970 00203 10077 20039 39475 40254 52008 60002
 333 10125 91107=
17300 12960 03507 10080 20072 30152 40225 52007 60002
 333 10162=
17310 12670 53101 10144 20062 30215 40222 50006 60002 81270 333 10178 81838 85360 91109 92438=
17330 12970 02903 10113 20029 30209 40227 52011 60002
 333 10178=
0000110800
802
SMTU13 LTAA 111800
AAXX 11184
17042 11670 70000 10091 20048 30215 40255 52008 69922 70282 84250
 333 10144 84835 87360 92438=
17074 11540 81302 11029 21036 39303 40281 52009 60002 71022 8572/
 333 10022 85726 88458 91105=
17086 12670 52002 10017 21035 39523 40269 52009 60002 83530
 333 10050 83635 85360=
17088 12670 82302 10027 21040 38825 48516 52006 60002 8452/
 333 10059 84640 88460=
17140 11903 00000 11034 21042 38748 48524 53005 60002 74444 333 11005=
17155 12965 01101 11005 21020 39116 40284 52009 60002
 333 10075 91104=
17203 12970 00000 11041 21107 38912 48547 52012 60002
 333 10043=
17237 12970 52201 10090 20028 39727 40241 52006 60002 85050
 333 10144 85360 91103=
17250 12970 00502 11007 21041 38854 48532 52007 60002
 333 10077=
17270 12970 02903 10086 21056 39553 40209 52006 60002
 333 10148=
17295 12960 00603 10095 20086 30226 40233 52006 60002
 333 10166=
17320 12670 33404 10126 20073 30216 40221 52009 60002 83100
 333 10185 83840 92438=
17375 12970 00000 10104 20079 30225 40227 52009 60002
 333 10179 91106 92408=
0000101400
803
SMTU14 LTAA 111800
AAXX 11184
17500 NIL=
17501 12560 50000 10141 20068 30210 40229 52014 60002 82131
  333 10176 81825 83360 85070 92437=
17505 12560 52409 10152 20090 30125 40238 53009 60002 82131
  333 10173 81825 83360 85070=
17507 NIL=
17510 12560 30000 10135 20077 30175 40185 57010 60002 81101
333 10185 81830 83070 92427=
17515 12560 53004 10117 20067 30072 40250 52010 60002 82131
  333 10200 81825 83360 85070=
17521 NIL=
17530 12560 53203 10092 20057 30181 40240 52010 60002 82131
  333 10193 81825 83360 85070=
17535 12560 53207 10122 20069 30181 40218 52005 60002 82131
  333 81825 83360 85070=
17540 12560 12606 10144 20083 30226 40250 52011 60002 81101
333 10193 81830 92427=
17547 12560 11106 10132 20083 39983 40227 52006 60002 81101
333 10156 81830 92427=
17550 12560 51804 10135 20077 30081 40228 51011 60002 82131
  333 81825 83360 85070 92447=
17572 12560 32406 10147 20077 30215 40240 52010 60002 81101
333 10175 81830 83070 92427=
0000012900
804
SMKB03 NGTT 111800
AAXX 11184
91623 11599 69903 10273 20244 40049 60001 70222 81136 333 56999 81820
81360 84280 =
0000097200
805
SMPF01 NTAA 111800
AAXX 11184
91925 01582 50915 10284 20204 30055 40115 50008 60011 70361 83832
  333 56299 60007 82823 90710 91124
  555 60005 11224 59008=
91929 04586 /1010 10285 20234 30116 40119 51016 60032 700//
  333 10285 20245 4//// 60007 90710 91116
  555 60005=
91938 01570 30505 10274 20205 30125 40127 51013 60002 701// 81232
  333 10274 20236 60007 81823 83073 90710 91108
  555 60005 10508 59007=
91944 04564 /1016 1//// 2//// 30144 4//// 51011 6///2 700//
  333 1//// 2//// 4//// 6///7 90710 91123
  555 6///5=
91948 02580 10905 10280 20211 30090 40191 50004 60001 81200
  333 56200 60007 81825 90710 91115
  555 60005 11017 59006=
91954 06/// /0814 10275 20222 30158 40161 50010 60032
  333 10275 20242 4//// 60007 90710 91123
  555 60005 10723 59002=
91958 02481 60714 10247 20226 30211 40213 51008 60001 86800
  333 56200 60007 86813 90710 91119
  555 60005 10819 58005=
91943 NIL=
91945 NIL=
00000000