0000310100
326
SMIR03 OIII 111800
AAXX 11181
40701 11/01 90000 11166 21168 38612 40358 51003 60001 74944 333
55060 89/05 555 11163 29099=
40704 12970 02802 11050 21112 38603 40230 53001 60001 333 55012
21037 555 11065 29062=
40708 12962 71811 11018 21032 38653 40205 53008 60001 80006 333 55000 2//// 87267 555 11022 29090=
40710 12965 40000 11156 21169 38320 40339 53002 60001 82072 333
55013 82359 555 11155 29090=
40713 11912 30000 11088 21091 38682 40290 53003 60001 71021 80001
333 55000 83071 555 11086 29097=
40719 11525 20000 10054 20054 30163 40152 51011 60001 71021 81502
333 55003 81630 555 10054 29100=
40731 11658 60000 11010 21035 38746 40239 51002 60001 71022 82470
333 55000 20294 82640 86359 555 11018 29083=
40738 11957 62402 10046 20036 30152 40154 56008 60001 71022 80006
      333 55032 27202 86268 555 10042 29093=
40740 12660 50000 11028 21110 38712 40194 58006 60001 81406 333
      55067 81640 85267 555 11050 29053=
40747 11657 40102 11037 21048 38650 40258 52010 60001 71022 82520 333 55000 82640 83459 555 11039 29092=
40757 12660 70101 10024 21013 38906 40215 56004 60001 83510 333
55023 21039 83635 87460 555 10010 29077=
40763 12665 61103 10032 21071 38942 40231 53010 60001 82506 333
      55063 82640 86269 555 11004 29047=
40782 11558 80000 10030 20016 38884 40215 52008 60081 76096 8532/
333 55000 81930 84635 88558 555 10024 29090=
40783 11540 81502 11014 21021 37968 40207 53003 69921 77187 8632/
333 55001 82925 84630 88557 555 11016 29095=
40789 11656 80000 10046 20022 39221 40216 53002 60021 76362 8452/
      333 55025 20553 84640 88559 555 10036 29084=
40798 11520 80000 11030 21040 37941 40248 55002 69971 71072 8242/
      333   55002 20207 81925 83630 88458 555 11032 29093=
40818 11550 80000 10004 21001 37963 40199 51008 60051 71087 8532/
333 55053 82930 83635 88458 555 10002 29096=
40827 12962 50000 10006 21026 38843 40225 56003 60001 80008 333
      55000 85269 555 11006 29079=
40836 11510 80000 10000 20000 38186 40216 50000 60121 77176 8532/
333 55000 20000 81930 84635 88557 555 10000 29100=
40851 12660 41206 10050 20028 38275 40193 51003 60031 84400 333
55000 84645 555 10040 29086=
40853 11660 80000 10022 20013 37760 40211 50001 60021 72176 8342/
333 55000 83635 88459 555 10018 29094=
40854 12965 50000 10048 21002 38957 40189 57003 60001 82076 333
      55013 82360 84270 555 10028 29070=
40857 11556 83108 10162 20145 30173 40183 52015 60171 76096 8592/
333 55000 82930 83635 88459 555 10152 29089=
40859 11656 80000 10046 20037 38737 40198 51005 69991 71082 8532/
333 55000 82935 83640 88460 555 10042 29094=
40878 12962 31103 10078 21029 38884 40252 51008 60001 83070 333
55064 83360 555 10036 29047=
40879 12960 70000 10112 20003 39540 40233 51010 60001 83076 333
55032 83360 86270 555 10066 29047=
40883 11540 80203 10142 20127 30193 40217 50008 69951 71062 8332/
      333 55000 81920 82625 88458 555 10134 29091=
40898 12965 40402 10170 21001 30212 40222 51008 60001 84030 222//
00225 1//// 333 55086 84359 555 10097 29031=
0000216600
327
SZNZ01 NZKL 111818
CREX++
T000103 A001 D01021 D06025++
-3683144 17478654 AUCT  2014 01 11 18 10 //// 11 07 00 01
05541 3159 05534 3159 05528 3160 05523 3161 05517 3162 05509 3161+
-4402404 -17636748 CHIT  2014 01 11 18 10 //// 11 07 00 01
04539 2028 04536 2029 04525 2020 04503 2002 04486 1987 04475 1979+
-4089929 17623168 CPIT  2014 01 11 18 10 //// 11 07 00 01
03621 2311 03606 2301 03602 2301 03609 2313 03613 2321 03612 2326+
-3618905 17548887 GBIT  2014 01 11 18 10 //// 11 07 00 01
06033 0021 06015 0008 05997 -0006 06012 0014 06025 0032 06028 0040+
-3867541 17802288 GIST  2014 01 11 18 10 //// 11 07 00 01
03909 2767 03910 2773 03904 2772 03881 2754 03888 2766 03879 2761+
-4241288 17370277 KAIT  2014 01 11 18 10 //// 11 07 00 01
02970 2259 02968 2262 02962 2259 02963 2264 02952 2257 02941 2251+
-3755040 17815904 LOTT  2014 01 11 18 10 //// 11 07 00 01
03557 0204 03548 0199 03533 0189 03535 0196 03532 0198 03533 0204+
-3704657 17451175 MNKT  2014 01 11 18 10 //// 11 07 00 01
03441 -0098 03420 -0123 03461 -0085 03430 -0120 03464 -0089 03439 -0117+
-3947566 17692007 NAPT  2014 01 11 18 10 //// 11 07 00 01
02792 2049 02773 2035 02778 2044 02767 2038 02790 2066 02783 2064+
-3441483 17304870 NCPT  2014 01 11 18 10 //// 11 07 00 01
-04475 -9311 -04445 -9277 -04448 -9277 -04427 -9252 -04418 -9240 -04451 -9270+
-4581435 17062939 OTAT  2014 01 11 18 10 //// 11 07 00 01
03966 3521 03963 3521 03960 3520 03957 3520 03954 3518 03950 3516+
-2928002 -17789440 RBCT  2014 01 11 18 10 //// 11 07 00 01
06125 2035 06102 2014 06119 2034 06127 2045 06105 2027 06105 2030+
-2925114 -17790384 RFRT  2014 01 11 18 10 //// 11 07 00 01
03045 0164 03046 0169 03036 0161 03045 0174 03030 0163 03028 0164+
-4357010 17277383 SUMT  2014 01 11 18 10 //// 11 07 00 01
01421 1838 01416 1838 01409 1835 01391 1823 01410 1846 01386 1827+
-3764109 17618118 TAUT  2014 01 11 18 10 //// 11 07 00 01
05289 3982 05284 3981 05279 3981 05276 3983 05269 3980 05264 3980+
-4128448 17477985 WLGT  2014 01 11 18 10 //// 11 07 00 01
02803 2035 02789 2024 02798 2036 02788 2029 02793 2037 02788 2035++
7777
0000069300
328
UDEU02 EGRR 111819
AMDAR 1117
UNS EU0103   4907N 00219E 111754 F095 MS062 357/014 TB0 S031
333 F095 VG017=
UNS EU0103   4907N 00219E 111754 F097 MS065 353/015 TB0 S031
333 F097 VG012=
ASC EU0103   4909N 00220E 111755 F115 MS112 296/013 TB0 S031
333 F115 VG002=
ASC EU0103   4913N 00222E 111756 F135 MS145 293/024 TB0 S031
333 F135 VG002=
ASC EU0103   4916N 00225E 111756 F157 MS192 299/026 TB0 S031
333 F157 VG001=
LVR EU0103   4945N 00246E 111801 F293 MS535 298/055 TB0 S031
333 F293 VG005=
LVR EU0103   5028N 00314E 111808 F290 MS522 313/062 TB0 S031
333 F290 VG000=
LVR EU0103   5108N 00336E 111815 F228 MS367 305/071 TB0 S031
333 F228 VG000=
0000068900
329
UDEU02 EGRR 111819 RRA
AMDAR 1118
DES EU0164   6306N 02011E 111810 F127 MS240 116/011 TB/ S031=
DES EU0164   6310N 02013E 111810 F114 MS220 113/012 TB/ S031=
DES EU0164   6313N 02016E 111811 F103 MS190 108/012 TB/ S031=
DES EU0164   6316N 02018E 111812 F100 MS190 102/012 TB/ S031=
DES EU0164   6319N 02020E 111812 F090 MS170 107/013 TB/ S031=
DES EU0164   6322N 02022E 111813 F080 MS160 088/017 TB/ S031=
DES EU0164   6325N 02025E 111814 F071 MS150 085/018 TB/ S031=
DES EU0164   6328N 02026E 111814 F062 MS150 087/023 TB/ S031=
UNS EU0164   6330N 02029E 111815 F052 MS140 088/023 TB/ S031=
DES EU0164   6333N 02031E 111816 F048 MS140 067/029 TB/ S031=
0000120100
330
UDEU02 EGRR 111819 RRB
AMDAR 1117
ASC EU0406   4100N 00933E 111757 F141 MS105 234/018 TB/ S031=
ASC EU0406   4059N 00928E 111757 F161 MS152 226/021 TB/ S031=
ASC EU0406   4100N 00924E 111757 F182 MS185 268/019 TB/ S031=
ASC EU0406   4103N 00920E 111758 F199 MS227 261/018 TB/ S031=
ASC EU0406   4106N 00917E 111758 F215 MS265 243/023 TB/ S031=
ASC EU0406   4110N 00914E 111758 F230 MS305 239/023 TB/ S031=
ASC EU0406   4114N 00911E 111759 F246 MS342 242/026 TB/ S031=
ASC EU0406   4117N 00908E 111759 F259 MS377 240/026 TB/ S031=
ASC EU0406   4121N 00905E 111759 F273 MS415 245/031 TB/ S031=
ASC EU0406   4125N 00902E 111800 F284 MS442 235/033 TB/ S031=
ASC EU0406   4129N 00859E 111800 F295 MS475 236/035 TB/ S031=
ASC EU0406   4134N 00855E 111800 F305 MS500 230/039 TB/ S031=
ASC EU0406   4138N 00852E 111801 F316 MS530 232/039 TB/ S031=
ASC EU0406   4142N 00849E 111801 F333 MS572 244/040 TB/ S031=
ASC EU0406   4146N 00845E 111801 F345 MS600 239/036 TB/ S031=
ASC EU0406   4150N 00842E 111802 F355 MS610 237/036 TB/ S031=
ASC EU0406   4154N 00839E 111802 F366 MS617 240/036 TB/ S031=
ASC EU0406   4158N 00835E 111802 F372 MS622 238/034 TB/ S031=
0000103500
331
SMPO01 LPMG 111800
AAXX 11181
08501 11578 32908 10081 21002 30113 40149 52023 60022 72581 83300
333 10099 83822 81923 91014 91114=
08505 11465 52909 10098 20036 30088 40139 53018 60022 71581 85800
333 10124 84818=
08509 11560 53006 10101 20069 30060 40125 52020 60022 72581 85800

  333 10135 84823 91117=
08512 NIL=
08515 12582 43210 10131 20073 30030 40144 52026 60022 84200
333 10162 84830=
08533 42/// /36// 1//// 2//// 3//// 4//// 5////
333 1////=
08541 32/// /2301 10127 20107 30073 40192 52011
333 10168=
08545 NIL=
08548 32/// /2701 10116 20116 39981 40187 52014
333 10151=
08554 32962 20603 10159 20126 30182 40191 52005  80001
333 10178 82075=
08558 32/// /1602 10130 2//// 39894 40187 52006
333 10170=
08560 NIL=
08567 32/// /3501 10073 20069 39524 40194 52005
333 10090=
08570 32/// /0000 10112 20066 39733 40192 52009
333 10144=
08575 32/// /9901 10090 20048 39378 40189 52006
333 10126=
08579 32/// /1501 10114 20091 30062 40188 52009
333 10117=
0000042900
332
UDEU02 EGRR 111820
AMDAR 1117
LVR EU0036   5124N 00917W 111742 F350 MS627 266/063 TB/ S031=
LVR EU0036   5209N 00826W 111749 F350 MS630 276/067 TB/ S031=
LVR EU0036   5253N 00734W 111756 F350 MS645 278/074 TB/ S031=
LVR EU0036   5336N 00639W 111803 F350 MS645 276/074 TB/ S031=
LVR EU0036   5420N 00543W 111810 F350 MS645 283/083 TB/ S031=
LVR EU0036   5502N 00445W 111817 F350 MS637 284/096 TB/ S031=
0000068900
333
UDEU02 EGRR 111820 RRA
AMDAR 1117
ASC EU0201   3446N 03328E 111757 F064 PS057 288/009 TB/ S031=
ASC EU0201   3444N 03325E 111758 F081 PS032 309/010 TB/ S031=
UNS EU0201   3443N 03321E 111758 F098 MS002 301/011 TB/ S031=
ASC EU0201   3444N 03314E 111800 F117 MS037 303/016 TB/ S031=
ASC EU0201   3445N 03304E 111801 F138 MS085 301/020 TB/ S031=
ASC EU0201   3445N 03300E 111802 F149 MS112 302/025 TB/ S031=
ASC EU0201   3445N 03256E 111802 F159 MS137 304/027 TB/ S031=
ASC EU0201   3446N 03247E 111803 F182 MS197 296/027 TB/ S031=
LVR EU0201   3450N 03201E 111809 F278 MS390 318/060 TB0 S031=
LVR EU0201   3455N 03102E 111816 F340 MS537 317/064 TB0 S031=
0000106000
334
SMSB01 VCCC 111800
AAXX 11184
43400 NIL=
43404 NIL=
43410 NIL=
43413 22470 10506 10248 20233 30136 40140 81100 333 58003 60007
81818=
43415 NIL=
43418 22476 50504 10250 20231 3//// 4//// 84102 333 5//// 60007
84818=
43421 22470 60000 10234 20225 30042 40144 86100 333 58005 60007
86818=
43422 NIL=
43424 22478 43603 10236 20227 30135 40137 84101 333 58006 60007
84818=
43436 22470 63604 10264 20237 30132 40134 8517/ 333 59004 60007 85818
86460=
43441 NIL=
43444 22970 00502 10220 20199 39600 40132 333 58000 60007=
43450 22465 70509 10258 20215 30123 40132 8217/ 333 59003 60007 82818
86360=
43467 22470 30304 10258 20225 30119 40124 82101 333 59006 60007
82816=
43473 22470 60901 10137 20125 38148 48517 86100 333 58004 60007
86818=
43475 NIL=
43476 NIL=
43479 NIL=
43486 22460 20000 10246 20237 30031 40125 82100 333 58003 60007
82816=
43495 22960 30000 10262 20245 30105 40131 80001 333 59002 60007
83080=
43497 22476 10204 10254 20221 30106 40123 81100 333 59006 60007
81818=
0000328200
335
UDFR01 LFPW 111817
AMDAR 1118
ASC EU3443 4709N 00136W 111802 F000 PS067 /// 060/008 TB1 S031
333 F000 VG019=
UNS EU3443 4709N 00135W 111802 F008 PS057 /// 092/007 TB1 S031
333 F008 VG053=
ASC EU3443 4709N 00135W 111802 F015 PS055 /// 107/009 TB2 S031
333 F015 VG055=
ASC EU3443 4709N 00133W 111803 F029 PS040 /// 125/010 TB0 S031
333 F029 VG015=
ASC EU3443 4709N 00132W 111803 F031 PS030 /// 129/010 TB0 S031
333 F031 VG002=
ASC EU3443 4708N 00130W 111804 F032 PS027 /// 119/010 TB1 S031
333 F032 VG023=
UNS EU3443 4709N 00128W 111804 F036 PS022 /// 104/005 TB3 S031
333 F036 VG093=
ASC EU3443 4710N 00126W 111804 F049 PS010 /// 092/013 TB1 S031
333 F049 VG024=
ASC EU3443 4711N 00125W 111805 F063 PS017 /// 122/011 TB0 S031
333 F063 VG007=
ASC EU3443 4712N 00123W 111805 F072 PS005 /// 127/008 TB0 S031
333 F072 VG002=
ASC EU3443 4713N 00122W 111805 F083 MS009 /// 140/011 TB0 S031
333 F083 VG001=
ASC EU3443 4714N 00120W 111806 F094 MS024 /// 117/021 TB2 S031
333 F094 VG034=
ASC EU3443 4715N 00119W 111806 F104 MS044 /// 119/019 TB0 S031
333 F104 VG004=
ASC EU3443 4716N 00116W 111806 F107 MS054 /// 114/017 TB0 S031
333 F107 VG004=
ASC EU3443 4717N 00114W 111807 F112 MS062 /// 106/016 TB1 S031
333 F112 VG017=
ASC EU3443 4717N 00111W 111807 F121 MS084 /// 115/015 TB1 S031
333 F121 VG018=
ASC EU3443 4719N 00109W 111807 F129 MS107 /// 117/013 TB0 S031
333 F129 VG005=
ASC EU3443 4720N 00107W 111808 F139 MS132 /// 119/012 TB0 S031
333 F139 VG004=
ASC EU3443 4720N 00104W 111808 F146 MS149 /// 127/006 TB1 S031
333 F146 VG010=
ASC EU3443 4721N 00101W 111808 F154 MS167 /// 176/002 TB0 S031
333 F154 VG001=
UNS EU3443 4722N 00058W 111809 F162 MS187 /// 246/004 TB1 S031
333 F162 VG008=
ASC EU3443 4723N 00056W 111809 F167 MS202 /// 263/004 TB1 S031
333 F167 VG018=
ASC EU3443 4725N 00053W 111809 F175 MS222 /// 281/005 TB0 S031
333 F175 VG005=
ASC EU3443 4726N 00051W 111810 F184 MS247 /// 292/007 TB0 S031
333 F184 VG003=
ASC EU3443 4728N 00048W 111810 F191 MS264 /// 289/012 TB0 S031
333 F191 VG001=
ASC EU3443 4729N 00046W 111810 F199 MS284 /// 295/015 TB0 S031
333 F199 VG004=
ASC EU3443 4731N 00043W 111811 F206 MS297 /// 280/019 TB2 S031
333 F206 VG027=
ASC EU3443 4732N 00040W 111811 F213 MS314 /// 274/021 TB0 S031
333 F213 VG003=
ASC EU3443 4733N 00037W 111811 F220 MS337 /// 271/021 TB0 S031
333 F220 VG003=
ASC EU3443 4735N 00034W 111812 F227 MS354 /// 264/022 TB0 S031
333 F227 VG005=
ASC EU3443 4736N 00031W 111812 F234 MS369 /// 275/025 TB1 S031
333 F234 VG014=
ASC EU3443 4738N 00028W 111812 F238 MS379 /// 276/027 TB0 S031
333 F238 VG004=
ASC EU3443 4739N 00025W 111813 F239 MS382 /// 275/027 TB0 S031
333 F239 VG002=
ASC EU3443 4741N 00022W 111813 F239 MS382 /// 278/027 TB0 S031
333 F239 VG001=
ASC EU3443 4742N 00019W 111813 F239 MS382 /// 276/027 TB0 S031
333 F239 VG001=
ASC EU3443 4744N 00016W 111814 F239 MS382 /// 276/028 TB0 S031
333 F239 VG000=
ASC EU3443 4745N 00013W 111814 F239 MS382 /// 275/028 TB0 S031
333 F239 VG000=
ASC EU3443 4747N 00010W 111814 F239 MS382 /// 276/028 TB0 S031
333 F239 VG001=
ASC EU3443 4748N 00007W 111815 F239 MS382 /// 274/030 TB0 S031
333 F239 VG001=
0000011100
336
UANT99 KDDL 111816
ARP IBE6253 4805N03107W 1816 F350 MS50 270/30 KT
ECLUB QXT EUA 111816 J68A
0000062000
337
SMIN90 VECC 111800
AAXX 11184
42503 31593 60000 10154 20136 40179 74244 83530
  333 56690 58008=
42410 21495 80000 10170 20154 40178 71062 8432/
  333 58000 6990/ 84618 81925 88458=
42314 21495 70504 10166 20126 40185 70596 84330
  333 57970 58011 6990/ 81710 84618 81925 87360=
42415 21596 60000 10162 20130 40190 70152 83530
  333 59005 6990/ 83620 85360=
42623 31496 40000 10128 20098 39286 40180 70500 82530
  333 58001 82618 83360=
42309 21494 70000 10144 20137 40171 70562 84730
  333 59002 6996/=
42724 31995 60000 10158 20140 40172 71022 84031
  333 58006 84360 84070=
0000068900
338
UDEU02 EGRR 111820 RRB
AMDAR 1117
LVR EU0332   5241N 00055W 111712 F279 MS497 300/076 TB0 S031=
LVR EU0332   5321N 00127W 111719 F340 MS620 294/086 TB0 S031=
UNS EU0332   5401N 00201W 111726 F340 MS617 296/086 TB/ S031=
LVR EU0332   5446N 00215W 111733 F339 MS625 296/086 TB0 S031=
LVR EU0332   5532N 00229W 111740 F340 MS607 293/094 TB0 S031=
LVR EU0332   5617N 00245W 111747 F339 MS612 293/093 TB0 S031=
LVR EU0332   5702N 00300W 111754 F340 MS547 303/070 TB0 S031=
LVR EU0332   5749N 00317W 111801 F340 MS570 296/079 TB0 S031=
LVR EU0332   5836N 00335W 111808 F340 MS535 296/064 TB0 S031=
LVR EU0332   5924N 00354W 111815 F340 MS527 296/046 TB0 S031=
0000011100
339
UANT99 KDDL 111816
ARP UAL122 5447N04050W 1816 F370 MS55 274/33 KT
N18112 DDL IG1 111817 F55A
0000011200
340
UANT99 KDDL 111817
ARP FDX5081 5505N02430W 1816 F350 MS63 179/64 KT
N589FE QXT AOE 111817 F33A
0000190500
341
UDEU02 EGRR 111820 RRC
AMDAR 1117
ASC EU0358   5229N 00146W 111758 F010 PS035 253/005 TB/ S031=
ASC EU0358   5229N 00145W 111758 F017 PS015 256/006 TB/ S031=
ASC EU0358   5229N 00144W 111758 F022 PS000 259/008 TB/ S031=
ASC EU0358   5229N 00142W 111758 F027 MS010 300/006 TB/ S031=
ASC EU0358   5229N 00141W 111758 F035 MS030 327/008 TB/ S031=
ASC EU0358   5229N 00140W 111758 F045 MS025 310/014 TB/ S031=
ASC EU0358   5229N 00139W 111758 F054 MS030 300/019 TB/ S031=
ASC EU0358   5229N 00138W 111758 F057 MS015 302/026 TB/ S031=
ASC EU0358   5229N 00136W 111758 F058 MS015 301/027 TB/ S031=
ASC EU0358   5229N 00135W 111758 F062 MS010 302/027 TB/ S031=
ASC EU0358   5227N 00131W 111759 F072 MS032 316/028 TB/ S031=
ASC EU0358   5225N 00127W 111759 F088 MS060 302/027 TB/ S031=
ASC EU0358   5222N 00123W 111759 F100 MS085 281/033 TB/ S031=
ASC EU0358   5219N 00121W 111800 F104 MS097 278/034 TB/ S031=
ASC EU0358   5216N 00121W 111800 F121 MS132 286/035 TB/ S031=
ASC EU0358   5212N 00120W 111800 F142 MS180 296/034 TB/ S031=
ASC EU0358   5208N 00120W 111801 F150 MS192 294/039 TB/ S031=
ASC EU0358   5204N 00119W 111801 F158 MS207 290/038 TB/ S031=
ASC EU0358   5200N 00118W 111801 F180 MS257 285/040 TB/ S031=
ASC EU0358   5156N 00116W 111802 F191 MS275 281/045 TB/ S031=
ASC EU0358   5152N 00114W 111802 F206 MS310 278/050 TB/ S031=
ASC EU0358   5148N 00111W 111802 F222 MS347 275/056 TB/ S031=
ASC EU0358   5143N 00109W 111803 F236 MS385 283/054 TB/ S031=
ASC EU0358   5139N 00105W 111803 F248 MS415 295/056 TB/ S031=
ASC EU0358   5135N 00100W 111803 F262 MS452 299/057 TB/ S031=
ASC EU0358   5131N 00055W 111804 F276 MS485 299/056 TB/ S031=
ASC EU0358   5127N 00050W 111804 F287 MS515 303/057 TB/ S031=
ASC EU0358   5123N 00046W 111804 F297 MS535 308/059 TB/ S031=
ASC EU0358   5118N 00041W 111805 F308 MS557 308/060 TB/ S031=
0000046700
342
SZPA01 AMMC 111818
CREX++
T000103 A001 D01021 D06025++
0136250 17293000 67590 2014 01 11 18 11 3015 11 07 00 01
01496 0050 01496 0053 01490 0050 01486 0049 01477 0044 01486 0056+
0710610 17137250 67680 2014 01 11 18 11 3013 11 07 00 01
00867 0071 00863 0069 00865 0074 00862 0073 00856 0069 00852 0067+
0698060 15820000 67950 2014 01 11 18 11 3020 11 07 00 01
00664 0081 00660 0078 00664 0083 00661 0080 00661 0081 00659 0079++
7777

0000034500
343
SZIO01 AMMC 111818
CREX++
T000103 A001 D01021 D06025++
-1211670 09689190 46280 2014 01 11 18 11 3020 11 07 00 01
00795 0014 00798 0016 00798 0015 00797 0013 00801 0016 00797 0011+
-1042940 10566940 46290 2014 01 11 18 11 //// 11 07 00 01
00657 -0015 00690 0017 00654 -0020 00693 0018 00673 -0003 00673 -0005++
7777

0000193400
344
SZAU01 AMMC 111818
CREX++
T000103 A001 D01021 D06025++
-1927750 14705860 59260 2014 01 11 18 11 3020 11 07 00 01
01839 0158 01853 0161 01859 0158 01871 0160 01881 0159 01889 0157+
-2316110 15079000 59670 2014 01 11 18 11 2998 11 07 00 01
02965 0124 02979 0125 02986 0118 02999 0118 03015 0121 03031 0123+
-3447330 15091170 60420 2014 01 11 18 11 2945 11 07 00 01
01387 -0038 01397 -0031 01397 -0033 01401 -0032 01410 -0025 01410 -0027+
-4105000 14591500 60910 2014 01 11 18 11 2888 11 07 00 01
01530 -0099 01530 -0108 01547 -0102 01554 -0104 01576 -0091 01582 -0096+
-4254640 14793080 61170 2014 01 11 18 11 2905 11 07 00 01
01499 -0005 01499 -0006 01502 -0005 01509 0001 01503 -0005 01510 0000+
-3834390 14161360 61410 2014 01 11 18 11 2908 11 07 00 01
00647 -0003 00598 -0052 00637 -0012 00621 -0027 00674 0027 00624 -0022+
-3214890 13364170 62000 2014 01 11 18 11 2955 11 07 00 01
01030 0045 01025 0046 01017 0043 01012 0044 01005 0042 01000 0043+
-3387080 12189720 62080 2014 01 11 18 11 2948 11 07 00 01
00637 -0004 00626 -0013 00622 -0015 00623 -0013 00628 -0006 00628 -0005+
-3182560 11573860 62237 2014 01 11 18 11 2972 11 07 00 01
00505 0026 00499 0021 00503 0026 00504 0028 00511 0036 00517 0042+
-2422000 11339750 62385 2014 01 11 18 11 //// 11 07 00 01
00673 -0088 00728 -0033 00660 -0101 00690 -0071 00668 -0093 00689 -0072+
-2181670 11419110 62430 2014 01 11 18 11 //// 11 07 00 01
01207 -0089 01203 -0092 01193 -0102 01197 -0097 01201 -0093 01206 -0088+
-1800080 12221830 62650 2014 01 11 18 11 3043 11 07 00 01
04270 0109 04270 0105 04270 0106 04271 0105 04272 0104 04273 0104+
-1247190 13084580 63230 2014 01 11 18 11 3048 11 07 00 01
05024 -0015 05019 -0015 05015 -0014 05011 -0014 05006 -0011 05001 -0013+
-1386000 13641580 63511 2014 01 11 18 11 3042 11 07 00 01
01484 0122 01484 0125 01480 0123 01480 0125 01477 0124 01474 0123++
7777

0000179600
345
SZPS01 AMMC 111818
CREX++
T000103 A001 D01021 D06025++
-0204190 14737360 56130 2014 01 11 18 11 3023 11 07 00 01
00855 0102 00859 0105 00860 0104 00861 0104 00866 0108 00871 0111+
-0669280 15640860 56363 2014 01 11 18 11 //// 11 07 00 01
00588 -0049 00590 -0046 00587 -0049 00590 -0045 00591 -0044 00588 -0046+
-0942890 15995560 56670 2014 01 11 18 11 3037 11 07 00 01
00729 -0047 00730 -0047 00733 -0045 00732 -0047 00729 -0051 00732 -0050+
-1072080 16580190 57131 2014 01 11 18 11 //// 11 07 00 01
02924 2257 01571 0906 02327 1664 01347 0686 02452 1793 02489 1831+
-1551560 16718860 57210 2014 01 11 18 11 //// 11 07 00 01
00898 -0132 00898 -0130 00893 -0133 00906 -0118 00884 -0137 00898 -0121+
-1775690 16830030 57320 2014 01 11 18 11 3015 11 07 00 01
01059 -0048 01060 -0045 01062 -0042 01064 -0039 01065 -0036 01066 -0034+
-4397330 16861610 65180 2014 01 11 18 11 2880 11 07 00 01
02328 0581 02453 0701 02551 0794 02392 0630 02211 0444 02345 0573+
-2120470 -15978530 65980 2014 01 11 18 11 3008 11 07 00 01
00656 -0016 00682 0011 00681 0012 00677 0009 00646 -0021 00641 -0025+
-2113810 -17518140 66600 2014 01 11 18 11 //// 11 07 00 01
01235 0089 01238 0096 01235 0096 01231 0096 01223 0091 01226 0098+
-1382670 -17176110 66840 2014 01 11 18 11 3008 11 07 00 01
00779 0080 00773 0076 00772 0078 00767 0076 00753 0064 00759 0073+
-1813250 17842750 67050 2014 01 11 18 11 3030 11 07 00 01
01380 0096 01368 0088 01365 0088 01361 0088 01356 0086 01359 0093+
-1760530 17743810 67070 2014 01 11 18 11 3028 11 07 00 01
01427 0006 01424 0007 01421 0008 01418 0009 01413 0008 ///// ////+
-0850250 17919500 67440 2014 01 11 18 11 3027 11 07 00 01
01906 -0006 01897 -0011 01897 -0007 01891 -0009 01890 -0007 01888 -0005++
7777

00000000