0000015700
426
SSVX13 LFPW 111800
ZZYY 44741 11014 1800/ 738774 028083 6113/ 11119 40134 52020 22219
 00159 444 20130 11014 1800/ 50101 80126 80018 9/015=
0000015700
427
SSVX13 LFPW 111800
ZZYY 41705 11014 1800/ 726585 046080 6113/ 11119 40222 57016 22219
 00236 444 20130 11014 1800/ 50101 80142 80023 9/015=
0000015700
428
SSVX13 LFPW 111800
ZZYY 44726 11014 1800/ 750033 002971 6113/ 11119 40223 52009 22219
 00115 444 20130 11014 1800/ 50101 80102 80003 9/015=
0000015700
429
SSVX13 LFPW 111800
ZZYY 16622 11014 1800/ 335302 050819 6113/ 11119 40037 57010 22219
 00189 444 20130 11014 1800/ 50101 80152 80029 9/015=
0000015700
430
SSVX13 LFPW 111800
ZZYY 62514 11014 1800/ 762864 012334 6113/ 11119 40064 52018 22219
 00084 444 20130 11014 1800/ 50101 80138 80008 9/015=
0000042300
431
FCIN90 VILK 111800
TAF VILK 111800Z 1121/1206 VRB02KT 0800 MIFG SCT020 SCT100 
BECMG 1123/1201 0150 FG VV/// TEMPO 1121/1200 0600 RA/TSRA 
FEW030CB BKN090 BECMG 1205/1206 07005KT 1000 MIFG/BR FEW020 SCT100=
TAF VIBN 111800Z 1121/1206 VRB02KT 0800 MIFG SCT020 SCT100 
BECMG 1123/1201 0150 FG VV/// TEMPO 1121/1200 0600 RA/TSRA 
FEW030CB BKN090 BECMG 1205/1206 07005KT 1000 MIFG/BR FEW020 SCT100=

0000008700
432
UPIN90 VIJP 111800
PPAA 61171 42339
55392 04519 06508 34507 77999=

0000011900
433
UGIN90 VIJP 111800
PPBB 61171 42339
90012 04502 03510 04517 90378 05015 25505 33508 911//
35008=

0000015700
434
SSVX13 LFPW 111800
ZZYY 16534 11014 1800/ 335052 055146 6113/ 11119 40121 57012 22219
 00196 444 20130 11014 1800/ 50101 80150 80018 9/015=
0000015700
435
SSVX13 LFPW 111800
ZZYY 31868 11014 1800/ 529197 031801 6113/ 11119 40226 57003 22219
 00259 444 20130 11014 1800/ 50101 80142 80011 9/015=
0000013800
436
SMJM01 MKJP 111800
AAXX 11184
78397 11576 31216 10300 20225 30156 40158 60001 70500 83801
333 10309 20235 58010 83822=
0000015600
437
SMBR01 TBPB 111800
AAXX 11184
78954 11476 50719 10272 20217 30086 40151 69901 71586 85200
333   10282 20218 58016 85815 90914=



0000135300
438
SMUR10 UKMS 111800
AAXX 11181
33135 11697 82804 10037 20014 39960 40106 52013 69902 70262
885// 333 10056 88635=
33317 32497 72703 10027 20006 39816 40157 58002 87500 333
10061 87618=
33345 32998 02605 10038 21002 39927 40133 52009 333 10053=
33393 32960 32102 10021 21035 39775 40173 57008 83030 333
10059=
33506 11597 72704 10038 20015 39923 40120 52014 69942 70282
87900 333 10053=
33587 32971 52302 10029 21019 39904 40171 52004 80001 333
10062=
33631 32597 71001 10026 20010 30052 40198 57010 87500 333
10040 87630=
33663 32997 30000 10010 21016 30086 40184 54000 80009 333
10087=
33658 32982 00000 10027 21042 39885 40189 57005 333 10075=
33711 32997 52706 10042 21009 39949 40160 52010 82031 333
10069=
33791 32997 02404 10033 21011 30011 40164 52015 333 10074=
33837 32970 62502 10044 21030 30153 40206 52008 80001 333
10103=
33924 32997 52002 10048 20026 30198 40210 52010 80001 333
10084=
33946 32960 31803 10023 20001 39996 40222 51006 82031 333
10086=
34300 11597 72503 10029 20008 39910 40101 52017 69942 72582
87300 333 10060=
34504 11697 62907 10047 20011 39962 40141 52011 69902 70282
86300 333 10066 84933=
34519 11760 32607 10020 20001 39850 40130 52013 60012 70187
83500 333 10052=
34601 32660 62707 10045 21015 30017 40154 52011 86500 333
10077 86640=
0000026900
439
SMFW01 NWBB 111800
AAXX 11184
91753 01460 82504 10265 20251 30019 40051 53016 6///2 76062 888//
  333 10282 20246 69947 83814 85821 85640 90710 91109
  555 69925=
91754 06/// ///// 10257 20236 30008 40049 53016 60001
  333 60007
  555 60005=
0000087000
440
SMNC01 NWBB 111800
AAXX 11184
91573 06/// /1012 10253 20199 39990 40087 53002 60001
  333 59020 60007=
91577 06/// /0503 10242 20174 30066 40088 53002 60001
  333 59021 60007=
91579 06/// /1010 10242 20188 30082 40090 53002 60001
  333 59020 60007=
91582 04570 61207 10224 20198 30057 40094 55001 6///2 700//
  333 10271 20206 4//// 6///7 90710 91111
  555 6///5=
91583 06/// /2004 10222 20190 30080 40095 53006 69961
  333 59019 69947=
91587 04667 /1204 10215 20175 30040 40096 53003 69902 700//
  333 10260 20215 4//// 60007 90710 91108
  555 60005=
91590 04986 80000 10204 20154 30089 40102 53003 60002 700//
  333 10281 20199 4//// 60007 90710 91105
  555 60005=
91592 06/// /0406 10219 20181 30021 40103 53004 60001
  333 59023 60007=
91596 06/// /1506 10211 20190 39997 40107 53003 69921
  333 59024 60007=
0000172800
441
SMNO23 ENMI 111800
AAXX 11181
01015 46/// ///// 11073 21104=
01023 11689 13301 11264 21287 30095 40203 53002 60002 70200 81500
      333 11228 91102=
01033 46/// /1405 11038 21078 30149 40181 55000 333 11034 91109=
01059 11680 82001 11119 21132 30179 40189 55000 60002 70222 885//
      333 11117 91105=
01089 46/// /1303 11190 21208 30072 40189 52007 333 11165 91107=
01167 41989 00706 11045 21124 30160 40164 52002 70200 333 11042
      91109=
01180 NIL=
01210 41583 43402 11022 21044 39983 40010 53011 71582 82260 333
      11010 91109=
01228 46/// /1108 11054 21090 30019 40027 53012 333 11048 91115=
01240 46/// /1113 11059 21092 30016 40036 52008 333 11056 91118=
01304 46/// /1202 10010 21044 39976 40007 53005 333 10012 91109=
01311 47681 61403 10000 21009 39956 40019 50009 700// 333 10052
      91108=
01340 16/// /2805 11027 21042 39131 40007 53022 60042 333 11008
      91108=
01355 16/// ///// 10020 21041 39992 49997 53022 69952 333 10023=
01360 11570 70000 11123 21123 69972 78588 839/8 333 11092=
01392 16/// /0402 11091 21116 39801 40036 53012 60022 333 11075
      91107=
01406 46/// ///// 10035 21001 30003 40021 51012 333 10065=
01411 NIL=
01425 16/// /2902 10025 20012 39952 40032 53026 60072 333 10055
      91108=
01433 46/// /3006 11051 21063 38745 40015 52019 333 11028 91111=
01442 NIL=
01450 16/// /2906 11045 21072 38847 40000 52016 60002 333 11004
      91109=
01452 16/// /2903 10038 20007 39985 40006 53011 6//// 333 10054
      91109=
01473 11830 80201 11037 21043 39794 40007 52015 69902 71074 8802/
      333 11018 91105=
01494 17231 83604 11020 21024 39940 40006 53014 6//// 771// 333
      10001 91106=
0000203900
442
SMNO24 ENMI 111800
AAXX 11181
01037 16/// /0701 11169 21181 60002 333 11164 91103=
01046 11989 11602 11145 21185 30190 40197 53002 60002 70100 80002
      333 11110 91107=
01058 16/// /1301 11233 21259 39706 40222 52001 6//// 333 11174
      91102=
01065 16/// /0601 11257 21284 30032 40214 55002 6//// 333 11233
      4/016 91102=
01092 46/// /1604 11040 21065 333 11016 91111=
01107 16/// /0814 11038 21122 30120 40124 53003 6//// 333 11031
      91122=
01114 46/// /0605 11073 21240 30110 40121 53009 333 11052 91110=
01144 41989 01011 11068 21172 70200 333 11062 91117=
01199 11984 40000 11269 21293 39707 40231 52003 60002 70210 84030
      333 11191 91101=
01245 11680 33002 11120 21172 39295 40033 52011 60002 70120 83100
      333 11108 91106=
01259 16/// /0906 11085 21140 30036 40060 52013 6//// 333 11082
      91116=
01262 46/// /1015 11066 2//// 333 91122=
01278 41780 41007 11104 21153 39953 40061 53009 70222 82842 333
      11095=
01293 16/// /1503 11115 21165 39846 40065 52003 60002 333 11114
      91111=
01329 11680 82605 10027 21036 39955 40016 51026 6//// 70222 8487/
      333 10045 91112=
01337 16/// /2603 10009 21047 39948 40014 52026 60022 333 10028
      91110=
01344 16/// ///// 11029 21041 60022 333 11002 4/075=
01364 16/// /2807 11053 21076 38858 49988 53013 60012 333 11042
      4/054 91112=
01373 11570 81701 11028 21063 39798 40006 52020 69932 70222 8461/
      333 11008 91107=
01380 16/// /0502 11149 21169 6//// 333 11112 91106=
01389 16/// /3402 11103 21115 39728 40053 53013 60022 333 11086
      91105=
01393 NIL=
01424 11685 8//// 10030 21023 30025 40029 53031 60062 70262 885//
      333 10049=
01431 16/// /3002 11002 21022 39355 40021 53020 60062 333 10019
      91107=
01436 11470 43106 10045 20020 60022 78081 82962 333 10065 91121=
01465 11980 32504 10042 20009 39977 49995 53009 60002 70210 81032
      333 10059 91110=
01471 16/// /1801 11028 21032 60002 333 11026 91102=
01483 NIL=
0000231700
443
SMNO25 ENMI 111800
AAXX 11181
01025 16/64 10000 11128 21147 30180 40192 52002 60002 333 11108
      42/// 91104=
01052 16/// /0201 11053 21082 30081 40183 53004 60002 333 11048
      91103=
01076 16/// /1201 11190 21211 30141 40185 52002 60002 333 11181
      4/066 91103=
01108 11889 21103 11083 21169 30084 40096 52010 60002 70221 81011
      333 11067 91109=
01122 16/// /1506 11106 21202 30027 40122 53005 60002 333 11088
      91118=
01132 16/// /1703 11105 21211 39687 40095 52010 69912 333 11093
      4/048 91117=
01156 16/// /0704 11057 21123 30151 40162 53006 60002 333 11048
      91110=
01169 16/// ///// 11140 21206 30105 40154 53008 60002 333 11103
      4/043=
01203 46/// /0000 11008 21054 39960 40010 52009 333 10005 91106=
01233 16/// /0504 11147 21178 69932 333 11097 91110=
01237 16/// /1008 11064 21106 30005 40021 52008 60002 333 11058
      91111=
01265 NIL=
01273 16/// /1602 11092 21133 39840 40045 53009 69922 333 11087
      91108=
01307 46/// /1405 10015 21021 39983 40011 50005 333 10026 91108=
01321 16/// /1701 11076 21086 39757 40019 52013 60002 333 11035
      91104=
01327 11270 73104 11020 21035 39463 40017 51020 60042 70282 87660
      333 10014 4/003 91113=
01350 16/// /2809 11058 21073 38583 49992 52016 60012 333 11030
      91114=
01361 16/// /3301 11239 21265 38964 40085 52012 69932 333 11117
      4/081 91102=
01375 46/// /0000 11154 21169 333 91103=
01378 16/// /0000 11090 21107 39729 40033 53015 60022 333 11066
      91104=
01385 16/// /0603 11088 21114 39753 40035 53012 6//// 333 91106=
01412 16/// /3015 10056 20026 30005 40034 51021 69972 333 10062
      91120=
01422 16/// /0501 10039 21003 60022 333 10059 91111=
01440 46/// /0000 11047 21051 38731 40025 51025 333 11029 91100=
01441 16/// /2805 11028 21059 39009 49999 53020 60012 333 11004
      91112=
01467 46/// /3502 10035 20005 39989 49995 53012 333 10057 91106=
01469 NIL=
01477 16/// /0801 11045 21056 69922 333 11009 4/003 91104=
01480 16/// /1303 11029 21049 60002 333 91106=
01484 16/// /0202 11054 21070 39856 40017 53011 69992 333 11016
      91105=
01490 16/// /0501 11080 21090 69932 333 11034 91105=
01495 16/// /0306 11007 21019 39984 49997 53013 60002 333 10047
      91108=
0000015700
444
SMRI41 SARI 111800
AAXX 11184
87097 31770 82710 10322 20240 39794 40097 56019 71792 8597/ 333
56199 57941 85850 81955 86360 555 10125=

0000014500
445
SSVX05 CWAO 111800
ZZYY 48726 11014 1800/ 775903 126082 6113/ 11119 
11267 49781 52009 444 20130 11014 1800/ 50000 80140 80001=
00000000