0000013600
886
SMNO01 ENMI 111800 RRA
AAXX 11181
01300 43/// /3003 10037 20012 49987 57018 22200 02056 10805 70025
      333 91107=
0000022900
887
SMNO02 ENMI 111800 RRC
AAXX 11181
01400 41598 43015 10064 20014 40108 52023 71581 848// 22200 06075
      10607 70036 333 91119=
01447 16/// /0000 11063 21067 39327 40013 53018 60002 333 10012
      91103=
0000017100
888
SMFA01 EKMI 111800
AAXX 11184
06011 07668 52716 10041 21007 30007 40076 52035 60122 78186
  333 10053 20022 55300 20000 69927 81/37 85/57 91149 91229 =
0000035000
889
UPTH01 VTBB 111800
PPAA 6118/ 48327 NIL=
PPAA  61181 48354 55185 06509 77999=
PPAA 6118/ 48378 NIL=
PPAA 6118/ 48407 NIL=
PPAA 6118/ 48431 NIL=
PPAA 6118/ 48453 NIL=
PPAA 6118/ 48477 NIL=
PPAA 6118/ 48480 NIL=
PPAA  61181 48500 55185 04016 77999=
PPAA 6118/ 48551 NIL=
PPAA 6118/ 48565 NIL=
PPAA 6118/ 48568 NIL=
0000345700
890
SMRO50 YRBK 111800
AAXX 11181
15261 02997 71602 10002 21031 39384 42823 54001 60002 87070 333 10061
21031
34007 55300 0//// 20000 3//// 60007 91003 91103 555 60000=
15284 02998 03109 11040 21043 38342 48485 53004 60002 333 11040 21066
34///
60007 91012 91113 555 60000=
15285 02598 41803 10029 21065 39198 42805 55001 60002 84500 333 10044
20005
30/// 55300 0//// 20000 3//// 60007 91004 91104 555 60000=
15301 02998 80503 10006 21039 38637 48511 56008 60002 8807/ 333 10036
21035
3//// 41998 60007=
15302 02597 71701 10009 21039 38932 48483 57006 60002 87500 333 10032
21024
3/001 41998 55300 0//// 20000 3//// 60007 91002 91102 555 60000=
15307 02997 42703 10032 21016 30021 40214 54000 60002 84040 333 10120
20002
31016 60007=
15324 02597 70000 10043 21047 39395 42811 52002 60002 87500 333 10097
21020
34007 60007=
15325 02997 02002 11014 21057 38475 48488 57002 60002 333 10024 21054
3////
41998 60007 91003 91103 555 60000=
15328 02997 33602 10045 21056 39840 40188 54000 60002 83070 333 10106
20040
31008 60007=
15333 02997 41802 10017 20007 30192 40212 50004 60002 83041 333 10079
21021
31011 60007 91003 91103 555 60000=
15345 02997 10000 10052 21020 39549 42809 58003 60002 81040 333 10094
21002
31008 60007=
15347 02997 60000 10025 21079 39665 40214 58002 60002 86030 333 10119
20012
31013 60007=
15349 02998 33102 10009 21051 39650 40222 52002 60002 83040 333 10105
21011
34008 55300 0//// 20000 3//// 60007 91004 91105 555 60000=
15373 02997 32603 10079 21009 39814 40200 52003 60002 83040 333 10128
21006
31017 60007 91006 91106 555 60000=
15375 02997 63303 10014 21017 39847 40218 52004 60002 86070 333 10115
21048
34010 60007 91003 91104 555 60000=
15377 02997 00401 10017 21014 39990 40213 51002 60002 333 10110 21046
31014
60007 91002 91102 555 32000 42000 50010 60000 71010=
15402 02997 02102 10050 20005 30137 40213 52003 60002 333 10116 21029
30015
55300 0//// 20000 3//// 60007 91003 91104 555 60000=
15405 02997 02702 10030 20009 30154 40218 52008 60002 333 10104 21016
30014
60007=
15416 02997 01200 10032 20006 39955 40216 54000 60002 333 10115 21023
31014
60007 91001 91102 555 60000=
15419 02997 32301 10015 20005 30023 40225 51003 60002 83040 333 10116
21027
31009 60007 91002 91102 555 60000=
15421 02997 52402 10059 20016 30113 40227 52003 60002 80008 333 10105
21014
31018 55300 0//// 20000 3//// 60007 555 60000=
15422 02997 02202 10041 20022 30115 40220 52004 60002 333 10106 21018
31008
55300 60007 91002 91102 555 60000=
15425 02997 02303 11037 21054 30150 40218 50004 60002 333 10064 21040
31008
60007 91004 91105 555 32000 42000 50000 60000 70000=
15444 02998 72502 10013 21013 30152 40229 5//// 60002 80008 333 10093
21011
34010 60007 92600=
15455 02997 00000 10034 20034 30076 40209 5//// 60002 333 10115 20001
34011
60007 92600=
15475 02997 00000 10014 21027 30183 40203 56009 60002 333 10106 20012
31014
60007=
15489 02997 01702 10040 20019 30122 40218 55001 60002 333 10117 20005
31009
60007 91002 91103 555 60000=
15490 02997 00000 10036 20013 30178 40217 55002 60002 333 10135 21008
31014
60007 92600=
15491 02997 01801 10021 20014 30189 40220 55000 60002 333 10113 20000
31016
60007 91001 91101 555 60000=
15498 01996 02303 10049 20018 30172 40215 54001 60002 71000 333 10129
20014
31012 60007 91003 91103 555 60000=
0000011100
891
UANT01 CWAO 111809
ARP IBE6253 4759N02946W 1809 F350 MS48 245/31 KT
ECLUB QXT EUA 111809 J64A
0000115200
892
SMBY40 UMMN 111800
AAXX 11181
26643 11363 82203 10014 20009 39879 40041 58013 69942 70272 886//
333 10021 88707=
26653 11460 82502 10006 21005 39878 40042 58005 69932 70282 886//
333 10024 88712=
26657 11370 72403 10015 20004 39815 40053 58009 69922 70282 875//
333 10016 86709=
26668 32570 72602 10005 21021 39839 40057 875// 333 10021 87620
91113=
26759 11397 72302 10016 20005 39833 40066 58002 69902 76162 877// 333
10018 87708=
26774 11570 72705 10001 21016 39814 40064 52012 69952 72272 87500 333
10021 87625 91111=
26853 11460 72402 10021 20005 39885 40075 54000 69902 76162 875// 333
10029 87714=
26855 11563 72504 10035 20022 39875 40092 58001 69952 70282 875// 333
10035 87630=
26864 31559 72503 10025 20012 39888 40079 52001 71022 87500 333 10029
87630 91110=
26878 32597 72403 10016 21032 39866 40074 52012 875// 333 10030 87628
91111=
26966 11570 72703 10031 20007 39912 40086 52011 69902 72522 84930
333 10032 84920 91110=
33038 11565 82903 10038 20018 39929 40104 52010 69982 78082 8535/
333 10046=
33124 32560 72303 10034 20011 39969 40113 52008 875// 333 10054
87622=
0000118100
893
SMRO61 YRBK 111800
AAXX 11181
15199 02998 61703 10081 20059 30078 40184 55005 60002 86070 333 10104
20021
30013 55300 60007 91004 91104=
15247 02997 50901 10058 20040 30093 40201 57004 60002 85030 333 10123
20000
31014 55300 10101 20000 3//// 60007 91002 91102=
15270 02597 61302 10051 20027 30054 40209 57005 60002 86500 333 10125
20012
31012 55300 60007 91003 91103=
15289 02997 41502 10042 20019 30106 40211 55002 60002 80005 333 10124
20010
30016 55300 0//// 20000 3//// 60007 91003 91106=
15292 02598 81502 10087 20025 39915 40211 58002 60002 8457/ 333 10132
21007
31015 60007 91003 91103=
15314 02998 02001 10069 20021 39868 40211 58002 60002 333 10127 20001
30018
60007 91002 91103=
15315 02297 82706 10013 20013 38587 48515 54001 60002 885// 333 10032
21019
3//// 44012 60007 91009 91109 92855=
15317 02198 63606 11039 21065 37811 48538 54000 60002 86500 333 11028
21082
3//// 41998 60007 95100=
15338 02997 20502 10078 20025 39837 40215 54000 60002 80001 333 10134
20025
30017 60007 91003 91104=
15388 02997 10800 10069 20031 30110 40213 52002 60002 80001 333 10141
20006
30017 60007 91004 91104=
0000011000
894
UANT01 CWAO 111810
ARP AZA610 4907N02313W 1810 F340 MS47 207/68 KT
EIDBL QXT AOE 111810 F15A
0000036600
895
USUS50 KWBC 111800
TTAA 61181 72208 99010 20812 20514 00100 19607 20530 92771 17828
21555 85491 13841 21054 70100 03618 21053 50575 13750 22556 40742
22192 22559 30946 38569 24579 25069 48768 24080 20211 60562 25088
15391 63762 25613 10635 71560 26072 88108 70760 24586 77187 26114
44003 31313 58708 81706 51515 10164 00051 10194 21548 21550=
0000068800
896
UKUS50 KWBC 111800
TTBB 61180 72208 00010 20812 11999 19405 22965 17800 33952 17801
44937 17824 55904 17435 66856 14022 77846 13847 88838 13223 99829
12418 11794 10223 22757 07209 33724 05225 44685 02411 55663 01260
66655 00859 77642 00543 88634 01107 99629 01304 11595 04104 22562
07520 33545 08913 44522 11127 55515 12346 66482 15345 77479 15750
88472 15748 99466 16567 11459 17393 22411 20793 33370 26771 44363
27565 55342 31368 66313 37166 77285 40971 88211 58163 99199 60762
11197 60962 22195 59362 33192 59162 44189 57163 55186 57163 66139
65761 77129 65561 88120 67761 99118 67161 11114 67961 22108 70760
33105 70160 31313 58708 81706 41414 872//=
0000236000
897
SMPL40 SOWR 111800
AAXX 11181
12100 11460 82104 10056 20036 30040 40047 57021 69972 78086 883//
  333 10060 20049 91009 91109 93001=
12115 11466 82206 10053 20043 30022 40036 57027 69962 76162 885//
  333 10058 20049 91111 93096=
12125 16/// /2205 10054 20036 39992 40042 57027 60012
  333 10056 20050 93093 =
12135 11465 82204 10055 20038 30041 40044 58026 69932 70282 885//
  333 10059 20048 91110 93097=
12185 12567 72406 10040 20020 39935 40070 56018 69902 875//
  333 10049 20034 93000=
12200 11460 72203 10046 20042 30046 40053 56020 69982 78082 873//
  333 10062 20040 91109 93001=
12215 11/// /2205 10043 20021 39891 40062 57024 69922 7////
333 10046 20039  =
12272 12465 72004 10041 20026 39909 40076 57019 60002 875//
  333 10046 20038 87613 91109 93000=
12285 11/// /2305 10047 20022 39980 40096 57018 60002 700//
333 10055 20044=
12345 12963 12005 10043 20010 39964 40109 58016 60002 81030
  333 10066 20036 91111 93000=
12360 12970 42204 10045 20010 39966 40100 56019 60002 84030
  333 10056 20036 93000=
12385 12964 72204 10035 20014 39926 40118 57014 60002 8707/
  333 10054 20035 91110 93000=
12415 12984 72203 10047 21007 39971 40125 57014 60002 8703/
  333 10087 20017 91111 93000=
12455 12970 72304 10048 21004 39885 40132 57016 60002 8703/
  333 10067 20024 93000=
12497 12565 62205 10032 20006 39913 40135 56011 60002 81530
  333 10054 20032 93000=
12500 12784 72204 10054 21007 39718 40136 56011 60002 8357/
  333 10077 21012 93000=
12510 11/90 92615 11047 21047 38292 48418 58002 60002 74943
  333 11046 21060 93000=
12520 12682 72206 10049 21005 39712 40148 57014 60002 8157/
  333 10057 20008 93000=
12550 12965 72204 10045 21003 39776 40137 58019 60002 8703/
  333 10069 20019 93000=
12575 11958 71902 10038 21014 39902 40161 57009 60002 70522 80006
  333 10084 20035 93000=
12585 11959 72103 10022 21001 39877 40149 57012 60002 71022 8707/
  333 10064 20015 93000=
12595 36/70 /2205 10023 21013 39874 40153 57009 60002
  333 10058 20023 93000 =
12600 12980 72105 10052 21015 39671 40156 57015 60002 8707/
  333 10064 20032 93000=
12650 11984 72610 11043 21172 37945 48455 57005 60002 73843 80006
  333 11027 21097 91015 91117 93000=
12660 12970 62002 10025 21032 39805 40171 58007 60002 86050
  333 10079 20024 93000=
0000125400
898
SMPL50 SOWR 111800
AAXX 11181
12210 11596 82104 10049 20026 39990 40059 57022 69932 78022 889//
  333 10056 20034 93093=
12230 12970 32204 10042 20011 39986 40077 58022 60002 83050
  333 10058 20040 93000=
12310 11680 82305 10060 20021 30029 40095 56016 69902 72522 869//
  333 10078 20037 93097=
12399 11559 72303 10045 20012 39951 40121 57014 60002 71022 875//
  333 10059 20045 91110 93000=
12418 12980 12004 10039 20001 39998 40113 58016 60002 81030
  333 10078 20019 93000=
12469 12665 62004 10029 20000 39895 40129 57017 60002 865//
  333 10055 20026 93000=
12488 12962 72104 10034 21004 39972 40129 57017 60002 8705/
  333 10058 20022 93000=
12540 11671 82206 10051 20012 39903 40158 58010 69902 72122 8557/
  333 10073 20028 93097=
12560 12965 82205 10050 21006 39811 40154 56013 60002 8807/
  333 10067 20028 93000=
12625 11940 71401 11008 21049 39153 42773 57010 60002 71022 80008
  333 10030 21010 93000=
12670 11458 62004 11001 21011 39768 40181 57008 60002 71022 86500
  333 10045 21001 91111 93000=
12690 12982 72005 10020 21025 39657 40176 57014 60002 81038
  333 10054 20012 91010 91110 93000=
12695 11/// /2404 10028 21029 39822 40167 57013 60002 700//
333 10064 20049=
0000064500
899
SMYG10 LYBM 111800
AAXX 11181
13160 32997 02001 10068 20066 30091 40201 56003 333 10133=
13262 32997 00000 10076 20049 30058 40208 53002 333 10175=
13272 31950 01402 10091 20043 30085 40205 56002 71000 333 10152=
13285 32998 00702 10017 20004 30110 40216 54000 333 10132=
13289 32998 02805 10052 20015 39010 48512 57004 333 10088=
13376 32997 01301 10054 20033 39954 40220 50004 333 10125=
13388 31996 00000 10033 20015 39978 40233 55000 71000 333 10095=
13462 32660 60101 10083 20068 30191 40231 53003 82539 333 10143 82640
84359=
13473 NIL=
13489 31995 00000 10029 20015 39692 40223 53005 71000 333 10110=
0000003800
900
SMAA01 EFKL 111800
NIL
0000057300
901
SMVF11 ENMI 111800
BBXX
LDGJ 11181 99603 10053 43/// /1503 10018 21030 40015 5//// 222/0
      04078 1//// 3//// 4//// 5////=
LF4H 11184 99596 10022 46/// /2925 10060 20009 40036 52018 8////
      22200 06076 10707 70033 333 91135=
LGWS 11181 99229 30145 43/// /2304 10180 20146 40132 5//// 222/0
      04160 1//// 3//// 4//// 5////=
LJIT 11181 99589 10057 43/// /0004 10041 20003 40038 5//// 222/0
      04066 1//// 3//// 4//// 5////=
LMEL 11181 99603 10053 43/// /1403 10013 21028 40013 5//// 222/0
      04077 1//// 3//// 4//// 5////=
0000420200
902
SMSN01 ESWI 111800
AAXX 11181
02019 07/99 /3302 11148 21180 39525 40175 53003 69902 70087 8/000
  333 11123 21167 60005 90760 91109=
02081 05/99 /2501 11309 21345 39768 40205 50004 69902 8/000
  333 11222 21316 60005 90760 91103=
02095 05/99 /0201 11330 21364 39961 40182 52003 60002 8/000
  333 11290 21339 60005 90760 91102=
02101 45/84 /1403 11136 21222 39535 40109 50001 8//// 333 11120
21143 83/60=
02119 05/81 /3101 11352 21390 39775 40196 52006 60002 8/000
  333 11272 21352 60005 90760 91102=
02124 05/99 /0304 11171 21213 39597 40147 53003 60002 8/000
  333 11162 21206 60005 90760 91108=
02126 05/99 /3502 11195 21221 39775 40130 53007 69922 8/000
  333 11143 21196 60005 90760 91103=
02151 35984 03401 11227 21242 39811 40168 53004 60002 
  333 11177 21255 60005 91002 90710 91103 90710 91202=
02186 35984 00104 11161 21197 30107 40133 52004 60002 
  333 11155 21168 60005 91006 90710 91107 90710 91204=
02197 05/99 /0104 11154 21185 30109 40129 53007 60002 8/000
  333 11148 21163 60005 90760 91108=
02207 059// /0903 11154 21176 39326 40048 52005 60002
  333 11152 21169 60005 88/58 90760 91109=
02219 07/66 /1003 11168 21199 39402 40096 53009 69942 70075 8/000
  333 11143 21169 60005 90760 91105=
02226 47559 /0402 11150 21170 39606 40078 52005 771// 8//// 333
11140 21151 82/22 86/30 88/38=
02243 07/30 /0301 11145 21165 39810 40089 52003 69982 77177 8/000
  333 11129 21145 69925 90760 91105=
02269 07/12 /0106 11108 21121 60032 77177 8/000
  333 11102 21110 69985 90760 91113=
02287 07410 /0613 11059 21066 30049 40059 52004 60022 77177
  333 11055 21066 69905 89/19 90760 91118=
02297 07/34 /0513 11087 21100 30038 40085 52002 69982 78587 8/000
  333 11071 21087 69905 90760 91117=
02308 07226 /1301 11164 21184 39159 40049 52005 60012 77177
  333 11164 21189 69915 87/03 88/05 90760 91102=
02327 07/56 /2501 11141 21154 39610 40061 52003 69922 77187 8/000
  333 11140 21198 69905 90760 91101=
02355 07228 /3308 11084 21096 30031 40044 53001 69912 77177
  333 11068 21095 69905 85/03 87/10 88/23 90760 91111=
02366 47683 /3506 11100 21133 30050 40057 57001 777// 8//// 333
11097 21104 81/36 88/50=
02407 07538 /0603 11120 21133 39659 40039 52003 60032 77177
  333 11102 21120 69945 88/27 90760 91105=
02418 47/84 /0404 11047 21052 39877 40010 53007 754// 8//// 333
11016 21049 81/09 88/11=
02435 47/21 /3502 11098 21116 39846 40039 53002 771// 8//// 333
11079 21098 85/01 88/03=
02440 07581 /2901 11113 21133 69912 70087
  333 11097 21116 60005 85/23 88/56 90760 91103=
02452 07262 /0804 11066 21070 60022 70070
  333 11049 21067 60005 88/04 90760 91109=
02456 07357 /3502 11049 21058 39978 40021 57005 69962 77187
  333 11032 21057 69915 88/09 90760 91105=
02469 07/99 /0203 11035 21052 60022 70087 8/000
  333 11024 21035 60005 90760 91106=
02498 07599 /3606 11013 21057 39987 40003 56004 60012 70087
  333 11003 21017 60005 86/26 88/56 90760 91110=
02518 46/// /2710 10049 20031 8/000
  333 10061 20048 90760 91113=
02520 15262 81001 10017 20009 39924 49992 55000 69902 
  333 10056 20017 60005 82/05 85/11 88/30 91001 90710 91103 90710 
91202=
02550 45/82 /2703 10022 20019 39715 49990 55000 8//// 333 10051
20021 81/16=
02562 07256 80604 11024 21025 39885 40002 53001 60042 77185 
  333 10038 21024 69905 86/06 87/15 88/20 91006 90710 91106 90710 
91205=
02563 07238 /0506 10004 21001 39968 49990 57004 60032 77187
  333 10033 20000 69935 87/05 88/12 90760 91109=
02565 07664 /2602 10035 20028 39865 49984 55006 60032 72386
  333 10062 20035 69935 87/44 90760 91104=
02589 07474 /0406 10006 20000 39967 49988 58008 69972 70087
  333 10040 21001 60005 88/10 90760 91112=
02590 47281 /0504 10033 20032 39917 49978 57010 761// 8//// 333
10054 20011 84/03 86/07 87/15 88/23=
02618 07/62 /2603 10030 20024 39842 40006 53003 60122 70060 8/000
  333 10054 20030 60005 90760 91107=
02664 07359 82303 10047 20040 39923 49994 57019 60052 76185 
  333 10060 20042 69985 84/06 86/11 87/15 91005 90710 91105 90710 
91203=
02679 07232 /2408 10048 20048 39939 49983 58020 60042 76165
  333 10052 20041 60015 88/03 90760 91111=
0000060300
903
SMDN01 EKMI 111800
AAXX 11184
06030 01570 42716 10051 20031 30003 40019 50001 60042 72581 84531
  333 10068 20045 69917 84820 91026 91126 =
06060 NIL =
06070 05/80 /2719 10043 20008 30014 40044 52011 60022
  333 10067 20043 6///7 91029 91129 =
06120 15971 12513 10040 20034 30037 40063 52016 60022
  333 10072 20040 81/68 =
06180 01472 82812 10050 20036 30029 40035 52015 60032 70266 8177/
  333 10068 20048 69977 81711 87357 91127 =
06193 07356 82426 10054 20046 30001 40012 57023 60032 75286
  333 10059 20051 55300 20000 60027 81/08 83/10 85/13 88/21 91133
  =
0000021100
904
SMIN90 VECC 111800
AAXX 11184
43333 21495 80704 10266 20234 40144 70562 86431
  333 56199 58002 6993/ 83616 84818 85358=
42809 31595 20903 10170 20135 40173 70500 82500
  333 58013 82615=
0000015100
905
SSVX05 CWAO 111800
ZZYY 48510 11014 1800/ 778960 129491 6113/ 11119 
11291 49860 52006 444 20130 11014 1800/ 50100 80132 80001 9////=
00000000