0000012800
126
UAAS11 RJTD 111800
AIREP
PAL100 34N 160E 1724 F370 MS46 275/165=
PAL104 3000N 14057E 1732 F340 MS41 270/180=
0000020100
127
SMVD15 KWNB 111800 RRI
BBXX
41051 11181 99183 70650 46/// /1009 10264 91750 333 91210 555
11099 22108=
41051 11181 99183 70650 46/// /1009 10264 91740 333 91211 555
11097 22106=
0000024600
128
SMCA01 TNCC 111800
AAXX 11184
78988 02575 51110 10290 20208 30139 40149 57031 60001 84460
  333 58017 60007 84823=
78873 02572 20514 10300 20220 30133 4//// 57024 69911 82200
  333 58009 60007 82822=
78990 NIL=



0000090800
129
SMCH03 SCSC 111800
AAXX 11184
85834 12997 01816 10132 20075 40235 57005 60001=
85864 12980 03403 10236 20057 40157 57014 60001=
85874 12982 03015 10218 20058 39553 40150 58020 60001 =
85930 11495 80030 10104 20100 40090 57010 60081 75255 887//
  333 56800 88716=
85934 12580 82925 10147 20071 40053 51009 60001 82532
  333 56666 82630 85365=
85972 11496 83028 10072 20065 49982 57016 60131 76166 887//
  333 56799 88716 91146 91530=
89054 32365 83212 10015 21007 49975 56010 8117/
  333 56609 81807 88350=
89056 12565 83316 10008 21031 49978 57013 60003 86408
  333 56606 86620 84270=
89057 12560 83011 10011 21027 49982 57013 60003 8455/
  333 56779 84622 88350=
89058 32480 73216 10024 21029 39962 49983 57014 8784/
  333 21015=
89059 12660 42414 10004 21025 49968 56008 60003 84500
  333 75599 84633=
89251 32468 73420 10007 21026 49950 57020 87500=
0000375000
130
SMCN04 KWBC 111800
AAXX 11184
71112 17/// ///// 60021 7//4/ 333 70528=
71113 17/// /1003 10069 20055 39913 49936 50003 60101 7//4/ 333
10087 20035 70410=
71116 15/// /1505 10019 21028 38851 49933 56034 60001 333 10027
21113 70000=
71130 17466 82303 11086 21115 39545 40005 58014 60001 771// 333
11043 21154 70000=
71132 15466 61202 11275 21305 39682 40009 58010 60001 333 11232
21309 70003=
71133 15/// /1304 11090 21098 39232 49938 58047 60001 333 11063
21185 70000=
71149 15/// /3307 11036 21073 60001 333 11034 21138 70000=
71255 17/// ///// 11157 21178 60001 7//4/ 333 11144 21169 70006=
71263 11/00 /2012 10062 20059 39630 49913 58054 69961 75166 333
10062 20009 42006 70072 90983=
71270 15/// /1307 10042 20031 39677 49891 58062 60001 333 10070
21013 70033=
71279 17/// /0906 11043 21048 30032 40099 56052 69921 7//4/ 333
11043 21134 70002=
71297 17/// /2502 10073 20068 39784 49906 58057 69951 7//4/ 333
10074 21015 70095=
71352 17/// /1808 10043 20039 39464 49908 58054 60011 7//4/ 333
10045 21012 70143=
71412 15/// /1811 10009 21002 30164 40174 58048 60001 333 10009
21047 70000=
71443 15/// /2607 11052 21081 39598 40013 58006 60001 333 11052
21104 70000=
71510 15/// /1311 11059 21064 39230 49939 58063 60001 333 11059
21169 70000=
71609 11224 81412 10043 20036 39984 40119 58071 60071 76152 887//
333 10050 21071 44016 70071 90962=
71625 17004 91203 10009 20008 39761 49920 58062 60021 7004/ 333
10009 21064 70035=
71631 17/// /2008 10042 20042 39415 49903 56054 60011 7//4/ 333
10047 21022 70108=
71633 11232 82008 10039 20038 39632 49897 56049 60011 76165 887//
333 10051 21010 44044 70080 90937=
71718 11558 81108 11007 21023 39972 40037 57088 60021 76672 885//
333 11007 21075 43050 70020 90921=
71719 15/// /1606 11048 21067 30126 40132 58061 60001 333 11048
21149 70000=
71752 17/// /2007 10074 20065 39705 49917 58054 60021 7//4/ 333
10082 20016 70042=
71754 17/// /1317 11074 21088 39282 49946 58047 60011 7//4/ 333
11074 21186 70022=
71767 17/// /2209 10026 20026 39641 49896 56040 60081 7//4/ 333
10037 21002 70204=
71770 17/// /3203 10030 20028 39177 49934 56032 60101 7//4/ 333
10038 20010 70145=
71777 17/// ///// 10006 20003 39654 49899 51034 60051 7//4/ 333
10017 20001 70329=
71781 45/// /1229 10074 20039 39844 49868 58013 6///1 333 10103
20062 7////=
71784 17/// /0804 10058 20039 39727 49929 50001 69991 7//4/ 333
10084 20046 70556=
71851 15/// /2706 11047 21072 39690 40028 50003 60001 333 11047
21094 70000=
71860 13983 70809 11068 21079 38461 49840 58039 60001 87072 333
21145=
71865 15/// /1806 11091 21104 39323 40007 58019 60001 333 11069
21116 70000=
71868 15/// /2805 11071 21102 39566 40010 58010 60001 333 11050
21107 70000=
71879 15864 71515 11028 21088 39029 49819 56057 60001 333 11009
21106 70000=
71886 15/// /2306 11073 21087 39417 40029 58006 60001 333 11066
21113 70000=
71111 17966 63010 10032 20009 39866 49874 52051 60011 7004/ 333
10032 20010 70243=
71115 17/// /0703 10025 20019 39333 49902 53011 60021 7//4/ 333
10028 21001 70041=
71121 15864 41619 11024 21078 39012 49820 56055 60001 333 11011
21092 70000=
71127 17/// /1308 11035 21058 38918 49811 56051 69921 7//4/ 333
11028 21084 70002=
71139 15/// /1913 11028 21053 38482 49923 57040 60001 333 11026
21095 70000=
71144 45/// /1904 11092 21101 6///1 333 11076 21112 7////=
71147 15/// /3108 11043 21072 60001 333 11043 21142 70000=
71251 15/// /2109 10030 21005 38979 49893 58027 60001 333 10030
21111 70000=
71254 17/// /1417 11047 21056 69981 7//4/ 333 11035 21097 70008=
71261 17/// /2014 10045 20041 39648 49902 56043 60041 7//4/ 333
10065 20005 70127=
0000373400
131
SMCN04 KWBC 111800 RRB
AAXX 11184
71193 17/// /2604 10005 20002 39523 49878 58027 69921 7//4/ 333
10006 21035 70103=
71198 45/// /3407 10007 20007 6///1 333 10008 21128 7////=
71199 15/// /1301 11151 21167 39048 49879 53005 60001 333 11079
21233 70000=
71253 45/// /0306 11222 21241 6///1 333 11186 21238 7////=
71292 15366 82307 11071 21085 39416 40028 58005 60001 333 11065
21111 70000=
71299 17/// /3007 11009 21023 39611 49877 57026 69941 7//4/ 333
11008 21027 70069=
71362 15/// /0000 11287 21322 39734 40001 56011 60001 333 11231
21298 70002=
71368 17/02 /1908 10048 20045 39529 49910 58055 60011 7614/ 333
10049 21010 70141=
71371 17556 81811 10056 20047 39931 49965 56061 60031 7624/ 333
10064 21072 70048=
71375 45/// /0612 11050 21079 6///1 333 11042 21076 7////=
71382 17/// ///// 10009 20008 39052 49977 56068 60021 7//4/ 333
10010 21098 70020=
71385 45/// /1204 11009 21011 6///1 333 11009 21060 7////=
71386 15/// /1507 11055 21066 39851 40061 58086 60001 333 11055
21147 70000=
71391 45/// ///// 10010 20005 6///1 333 10010 21065 7////=
71441 45/// /3008 11077 21096 39718 40030 50004 6///1 333 11066
21137 7////=
71538 11362 82412 10055 20055 39701 49927 58030 60031 72864 886//
333 10058 20020 42003 70120 90921=
71751 45/// /2913 11016 21040 39677 49932 58008 6///1 333 11015
21035 7////=
71775 17/// /1408 10072 20050 39927 49933 50003 60031 7//4/ 333
10100 20037 70579=
71892 11562 81315 10072 20049 39917 49923 58003 60011 76062 8857/
333 10094 20057 4/000 70486 90987 93100=
71893 11562 81413 10063 20051 39837 49868 57010 60051 78082 885//
333 10079 20047 70454 90936=
71897 11262 83615 10059 20052 3//// 4//// 52013 60021 76162 8882X
333 10074 20040 70068 90921=
71926 11732 81510 11249 21278 39955 49980 55022 69941 77172 885//
333 11248 21335 48010 70007 90983=
71954 45/// /2901 11129 21148 39633 40014 56007 6///1 333 11075
21136 7////=
71959 15/// ///// 10037 21001 60001 333 10039 21049 70000=
71967 17/// ///// 10054 20035 39874 49979 56065 69931 7//4/ 333
10058 21048 70017=
71975 45/// /2713 11237 39265 40011 53019 6///1 333 11208 21237
7////=
71987 15/// /1410 11014 21023 30137 40147 56057 60001 333 11014
21083 70000=
71150 45/// /2706 11074 21083 39340 40025 58008 6///1 333 11061
21115 7////=
71159 15/// /2508 11019 21057 30112 40185 55020 60001 333 11013
21062 70000=
71167 15966 80204 11050 21057 38729 49810 56028 60001 333 11045
21128 70000=
71172 17/// ///// 10041 20036 39673 49885 58049 69981 7//4/ 333
10046 21030 70123=
71177 45/// /2707 11195 39034 40073 53002 6///1 333 11190 21244
7////=
71180 15/// /1707 11011 21046 30165 40205 55021 60001 333 11008
21052 70000=
71192 15366 61503 10002 21004 39207 49853 53027 60001 333 10015
21054 70018=
71196 17/// /1104 10006 20005 39721 49917 58062 60041 7//4/ 333
10006 21070 70043=
71300 17/// /1810 10079 20072 39808 49928 58069 60091 7//4/ 333
10080 21025 70087=
71302 17/// /1805 11002 21009 39042 49841 53033 60011 7//4/ 333
10002 21049 70074=
71306 15966 00709 11252 21279 30015 40049 58030 60001 333 11252
21290 70000=
71314 17/// /1506 10036 39562 49906 58057 69941 7//4/ 333 10042
21024 70071=
71316 15/// /1407 11081 21098 39182 49863 58061 60001 333 11081
21147 70000=
71361 17/// /0603 11274 21306 39787 40004 57009 69931 7//4/ 333
11266 21330 70003=
71388 45/// /0602 11010 21021 39793 49981 56083 6///1 333 11006
21128 7////=
71393 15/// ///// 11061 21078 38581 49834 58038 60001 333 11042
21097 70000=
71552 45/// /2408 11072 21082 6///1 333 11072 21152 7////=
71554 17/// /1202 10001 21008 30026 40032 58093 60031 7//4/ 333
10001 21093 70034=
0000014200
132
SMNO23 ENMI 111800 CCA
AAXX 11181
01392 11469 80402 11091 21116 39801 40036 53012 60022 70282 888//
      333 11075 91107=
0000029000
133
SMNO24 ENMI 111800 CCA
AAXX 11181
01114 41989 10605 11073 21240 30110 40121 53009 70110 80001 333
      11052 91110=
01293 11X30 91503 11115 21165 39846 40065 52003 60002 77171 333
      11114 91111=
01471 11484 81801 11028 21032 60002 70282 8739/ 333 11026 91102=
0000368700
134
SMCN04 KWBC 111800 RRA
AAXX 11184
71265 17/02 /0804 10033 20033 39822 49915 58055 60021 7614/ 333
10048 20005 70091=
71268 17/// /1902 11043 21051 39221 49831 53021 69941 7//4/ 333
11020 21071 70059=
71272 15966 81606 11279 21314 39641 40012 58007 60001 333 11279
21336 70000=
71282 45/// /1611 10039 20037 39640 49904 58049 6///1 333 10051
21016 7////=
71294 17/// ///// 10044 20044 39523 49917 58060 60041 7//4/ 333
10046 21047 70130=
71356 17/// /1414 11252 21280 39909 49978 58023 60021 7//4/ 333
11251 21344 70020=
71400 15/// /2605 11018 21075 30038 40170 56013 60001 333 11013
21089 70000=
71403 45/// /1717 10022 30170 40190 56051 6///1 333 10023 21020
7////=
71435 15/// /3008 11047 21050 39363 49953 58001 60001 333 11046
21073 70005=
71474 17064 41604 10013 21024 38666 49874 53031 69951 7//4/ 333
10013 21034 70015=
71621 11162 81610 10075 20067 39820 49924 57069 60021 70286 885//
333 10080 20009 40016 70058 90922=
71623 43140 52010 10050 20049 39580 49910 58052 6///1 333 10057
20008=
71706 11348 81511 10014 20008 30102 40164 57059 69921 76122 8577/
333 10015 21058 44054 70002 90910=
71707 12574 72209 10024 20000 30128 40206 58025 60001 87500 333
10028 21076 79999=
71715 17/// /2602 11020 21024 39836 40018 56085 69951 7//4/ 333
10000 21067 70005=
71750 17/// /2802 11006 21016 39678 49908 58011 60031 7//4/ 333
11000 21015 70053=
71753 17/// /1506 10032 20026 30144 40173 56052 60011 7//4/ 333
10032 21024 70010=
71756 17/// /0501 10007 21001 38816 49882 50025 60061 7//4/ 333
10033 21010 70369=
71765 17/// /2122 10054 20035 39624 49891 53034 60091 7//4/ 333
10058 20010 70210=
71772 17/// /1519 10073 20045 39885 49891 58014 60021 7//4/ 333
10100 20063 70316=
71774 17/// ///// 10034 20025 39478 49908 56015 60151 7//4/ 333
10081 20034 70674=
71780 17/// /2814 10074 20058 39884 49911 58026 60061 7//4/ 333
10122 20056 70490=
71785 17/// /1507 10078 20056 39926 49942 58006 60011 7//4/ 333
10105 20058 70380=
71786 15/// /2605 11045 21047 60001 333 11045 21072 70000=
71867 11436 83203 11106 21125 39676 40014 55002 69901 77177 885//
333 11057 21110 47031 70006 90983=
71869 11474 81906 11075 21095 39462 49988 58021 69901 70277 885//
333 11041 21132 47036 79999 90962=
71871 15566 81320 11067 21087 39090 49891 58071 60001 333 11063
21127=
71876 15766 81218 11073 21078 39280 49945 58049 60001 333 11073
21171 70000=
71882 17/// /1103 10013 20005 39374 49900 55002 60031 7//4/ 333
10022 20001 70108=
71887 13686 33117 10077 21021 39463 49873 53019 60001 81101 333
10094 21003 79999=
71118 15/// /1406 11039 21063 39038 49852 58073 60001 333 11035
21130 70000=
71136 15/// /2912 11063 21075 39532 40044 50000 60001 333 11059
21116 70000=
71152 15/// /2711 11007 21035 30186 40199 56023 60001 333 11005
21057 70000=
71154 17/// /2221 10028 20006 69981 7//4/ 333 10048 20012 70008=
71155 15/// ///// 11045 21049 60001 333 11027 21159 70000=
71163 45/// /3401 11256 21281 39674 40030 50001 6///1 333 11245
21293 7////=
71171 17/// /2006 10084 20068 39808 49902 58059 69941 7//4/ 333
10085 20009 70047=
71176 45/// /2520 11226 39367 40075 51011 6///1 333 11219 21228
7////=
71178 15/// /2615 11018 21075 30143 40175 55015 60001 333 11017
21065 70000=
71179 45/// /3004 11178 39249 40097 53014 6///1 333 11141 21216
7////=
71183 17/// /1902 10023 20008 39923 49963 56062 60051 7//4/ 333
10059 21071 70049=
71187 17666 82910 10068 20050 39885 49932 50014 60271 70044 333
10082 20029 70565=
71189 45/// /0812 11017 6///1 333 11017 21171 7////=
71191 17/// ///// 10013 60031 7//4/ 333 70033=
0000374500
135
SMCN04 KWBC 111800 RRC
AAXX 11184
71559 15/// /2205 11072 21086 39336 40043 58022 60001 333 11071
21142 70000=
71560 15/// /2401 11083 21112 39730 40039 50004 60001 333 11068
21108 70000=
71569 15/// /1306 11085 21093 39291 49997 58035 60001 333 11079
21175 70000=
71570 15/// /2604 11074 21088 39705 40019 50000 60001 333 11059
21108 70032=
71576 15/// /1907 11323 21357 39930 40018 53025 60001 333 11237
21329 70002=
71577 45/// ///// 11061 21071 6///1 333 11061 21110 7////=
71582 17366 81501 10032 20029 39809 49861 53021 60051 7614/ 333
10066 20030 70343=
71584 15466 80506 11072 21096 30084 40133 58037 60001 333 11070
21115 70000=
71894 45/// /1914 10058 39842 49850 58013 6///1 333 10094 20049
7////=
71899 11485 70219 10046 20027 3//// 4//// 52042 60031 70262 86809
333 10049 20012 70134 90943=
71906 12974 20000 11235 21288 30065 40119 58013 60001 82070 333
11235 21285 79999=
71911 459// 01715 11259 39894 49952 57014 6///1 333 11259 21371
7////=
71922 11466 80803 11125 21144 39521 49993 58016 69901 77122 885//
333 11089 21172 48051 70004 90962 93100=
71925 11459 22712 11363 21403 39891 49934 53001 69901 77677 82530
333 11267 21363 42014 79999 90973=
71952 15/// /0000 11086 21094 39002 49842 52028 60001 333 11037
21149 70055=
71956 17/// /2404 10016 20014 39658 49885 58036 60101 7//4/ 333
10031 21012 70295=
71962 15/// /2811 11061 21073 39579 40002 50004 60001 333 11029
21062 70009=
71972 45/// /2719 39598 53008 6///1 333 7////=
71973 15/// /2308 11029 21054 39986 40177 56024 60001 333 11018
21077 70000=
71984 17/// /2418 11271 21297 39935 49944 58016 69921 7//4/ 333
11263 21321 70005=
71985 45/// /2620 11233 21257 39948 49954 56027 6///1 333 11231
21295 7////=
71142 17740 81726 11045 21067 38976 49940 58061 60001 771// 333
11040 21096 70000=
71250 15/// /2610 11003 21057 30045 40183 56019 60001 333 11002
21071 70000=
71252 17/// /3502 11046 21053 38315 49870 55014 69991 7//4/ 333
11046 21112 70038=
71256 45/// /1004 11062 21069 38895 49815 56034 6///1 333 11062
21090 7////=
71264 17/// /1608 10030 20027 30150 40182 58057 60021 7//4/ 333
10035 21015 70017=
71267 15966 02221 10067 21003 38816 49887 56017 60001 333 10068
21068 70000=
71284 15/// ///// 11026 21052 60001 333 11020 21117 70007=
71290 15566 80103 11047 21060 39025 49842 53022 60001 333 11038
21097 70000=
71291 15/// /3206 11025 21046 39647 49933 58010 60001 333 11017
21035 70004=
71350 15/// /1611 10016 20010 30086 40152 56061 60001 333 10017
21076 70000=
71355 15/// /2514 11092 21161 39900 49985 53003 60001 333 11064
21117 70002=
71397 11448 82305 10056 20048 30111 40146 58066 60021 78022 885//
333 10060 21030 44028 70028 90921=
71411 17/// /2408 10043 20041 30156 40169 56061 60031 7//4/ 333
10045 20000 70027=
71430 17/// /1717 10036 20029 39838 49933 58064 60121 7//4/ 333
10037 20006 70125=
71431 17/// /1405 10038 20034 39827 49921 56059 60021 7//4/ 333
10056 20007 70065=
71432 17/// /1806 10080 20073 39816 49911 58056 69921 7//4/ 333
10087 20007 70029=
71444 15/// /2906 11068 21073 39255 40017 58006 60001 333 11067
21187 70000=
71447 15/// /2403 11084 21114 39499 40050 58006 60001 333 11073
21135 70002=
71600 17564 81810 10038 20017 30232 40238 56036 69951 7004/ 333
10044 21017 70005=
71603 11/04 /1818 10067 20067 30089 40142 58065 60031 74765 333
10069 20001 70044 90917=
71607 17/// /1504 10065 20065 30054 40087 56086 60061 7//4/ 333
10067 21102 70055=
71610 17466 81302 10068 20063 39704 49997 58071 60031 7614/ 333
10078 21072 70030=
71624 11004 81505 10050 20047 39705 49913 58056 69941 75164 886//
333 10051 21007 44007 70076 90917=
0000368000
136
SMCN04 KWBC 111800 RRG
AAXX 11184
71948 47/08 02528 11264 39792 49909 56020 6///1 771// 333 11264
21336 7////=
71161 17/// /1808 10077 20074 39787 49932 58066 60081 7//4/ 333
10080 21018 70084=
71170 15/// /2604 11060 21078 60001 333 11060 21115 70000=
71202 15/// ///// 11042 21061 60001 333 11027 21126 70000=
71304 17/// /2415 10037 21001 38468 49877 57009 69961 7//4/ 333
10037 20008 70006=
71311 17/// /1714 10039 20028 30113 40138 56068 69931 7//4/ 333
10041 21033 70003=
71321 17/// /3506 11258 21283 30057 40102 53016 60021 7//4/ 333
11219 21289 70027=
71337 45/// /2709 11024 21072 39910 40151 58014 6///1 333 11016
21081 7////=
71550 15/// /2712 11048 21072 39644 40021 58003 60001 333 11048
21104 70000=
71557 45/// /2213 10050 21002 6///1 333 10060 20005 7////=
71574 11458 81304 11048 21065 30036 40112 58074 60021 76682 885//
333 11047 21208 43040 70016 90921 93100=
71579 17/// /2305 11068 21079 39735 40022 58001 69921 7//4/ 333
11066 21095 70002=
71581 17/// /0901 10009 20006 39437 49909 58053 60021 7//4/ 333
10026 70098=
71590 17/// /1603 11023 21034 39858 40053 56095 60051 7//4/ 333
11023 21191 70048=
71701 11124 80903 10003 20003 30034 40097 57086 60071 76652 887//
333 10003 21118 40027 70074 90942=
71702 17/// /1612 10016 20008 30128 40143 56063 60021 7//4/ 333
10016 21088 70016=
71704 17266 82206 10051 20051 39694 49910 58038 60051 70044 333
10054 20017 70268=
71710 15/// /1909 11014 21027 30158 40168 56046 60001 333 11013
21063 70000=
71723 17/// /0405 10005 20003 39958 49968 56067 60021 7//4/ 333
10005 21115 70018=
71896 17966 81806 11002 21009 39032 49844 53033 60011 7004/ 333
10002 21048 70063=
71902 12974 02504 11166 21218 30110 40119 55002 60002 333 11140
21187 70000=
71912 11774 12805 11214 21248 39822 40012 55003 69901 77677 81501
333 11208 21229 47023 70030 90983=
71914 17/// /0103 10056 20046 39693 49909 58019 60031 7//4/ 333
10082 20040 70309=
71915 12974 83210 11302 21340 39982 40067 58004 60001 88010 333
11301 21333 70000=
71918 45/// ///// 11277 39553 49989 58014 6///1 333 11277 21356
7////=
71920 17/// /1818 10059 20055 30150 40156 58064 60021 7//4/ 333
10060 20002 70022=
71927 17/// /1705 10066 20060 39857 49913 58015 69941 7//4/ 333
10101 20056 70076=
71928 15/// /0903 11084 21108 38666 49820 56040 60001 333 11050
21158 70000=
71931 45/// /2811 11026 21095 30142 40154 55011 6///1 333 11025
21079 7////=
71933 17/// /0000 11044 21048 39030 49841 51037 69941 7//4/ 333
11027 21085 70053=
71943 11432 83513 11079 21091 39012 49838 56006 60031 77177 885//
333 11049 21169 48068 70034 90973 93103=
71944 17/// /0202 11049 21058 39018 49838 53022 60041 7//4/ 333
11039 21087 70074=
71945 11424 83008 11192 21224 39485 49967 53006 69941 77122 885//
333 11178 21192 48077 70004 90931=
71949 15/// /2905 11194 21215 39042 49925 56001 60001 333 11163
21194 70000=
71960 45/// /2727 11245 39810 49947 57025 6///1 333 11245 21344
7////=
71964 43548 83305 11141 21164 39052 49912 53006 6///1 333 11117
21172=
71966 15/// /0000 11343 21383 39525 40009 57003 60001 333 11275
21383 70000=
71968 47959 02911 11218 39933 49999 56014 6///1 771// 333 11218
21266 7////=
71971 17/// /1503 11225 21245 39900 49946 53008 69921 7//4/ 333
11206 21248 70048=
71999 17/// ///// 10018 20014 39607 49895 52044 60121 7//4/ 333
10027 20001 70210=
71005 15/// ///// 11046 21061 60001 333 11046 21152 70000=
71023 15864 70605 11116 21125 39144 49914 58048 60001 333 11083
21146 70000=
71032 17/// /0701 10022 20019 39115 49925 53028 60041 7//4/ 333
10039 21011 70043=
0000373300
137
SMCN04 KWBC 111800 RRD
AAXX 11184
71627 11448 83203 10013 20007 39921 49965 57061 60021 76152 887//
333 10056 21071 43014 70044 90927=
71628 11/08 /0708 10001 21002 39799 49938 57069 60051 76166 333
10001 21071 44024 70052 90973=
71705 11256 81512 10025 20018 30041 40130 57071 60031 76122 887//
333 10025 21095 44056 70026 90921=
71709 13274 81908 11013 21024 30158 40171 57046 60001 8667/ 333
11013 21069=
71714 17/// /0602 11002 21007 39920 49995 58081 69951 7//4/ 333
11002 21103 70005=
71758 15/// /2112 10030 20006 30127 40205 56025 60001 333 10033
21077 70000=
71766 17/// /1410 10052 20042 39815 49885 58006 60051 7//4/ 333
10080 20045 70380=
71769 17/// /1219 10076 20043 39870 49885 58010 60041 7//4/ 333
10090 20061 70364=
71773 17/// /3405 11140 21153 39047 49905 53005 69991 7//4/ 333
11109 21148 70009=
71776 17/// /1902 10011 20007 39289 49919 56029 60041 7//4/ 333
10013 20002 70090=
71779 15/// /1402 10001 21003 39206 49851 53027 60001 333 10014
21058 70016=
71782 15/// /1906 10014 20003 38611 49904 58033 60001 333 10017
20002 70000=
71783 17/// /1302 10068 20048 39847 49919 58024 60031 7//4/ 333
10092 20067 70278=
71787 17/// /1610 10017 20017 39639 40131 58063 60031 7//4/ 333
10017 21059 70028=
71877 13983 72009 11061 21079 38586 49841 58037 60001 87080 333
11043 21099 70000=
71878 12974 71814 11031 21058 38766 49822 56047 60001 84072 333
11028 21120 79999=
71889 11674 41402 10059 20027 39523 49933 53029 60031 72581 83530
333 10079 20010 41000 70040 90977=
71153 15/// /2421 10063 20001 60001 333 10075 21000 70000=
71157 45/// ///// 11029 21042 6///1 333 11016 21098 7////=
71168 15/// /3014 11033 21043 39502 40098 50020 60001 333 11030
21072 70000=
71184 45/// /3201 10001 20000 6///1 333 10002 21105 7////=
71301 17/// ///// 10008 20008 39490 49880 58040 60031 7//4/ 333
10008 21048 70073=
71303 45/// ///// 10035 20031 39715 49927 56025 6///1 333 10073
20019 7////=
71305 15466 80705 11218 21240 39686 49985 58014 60001 333 11177
21282 70000=
71307 17/// /2414 10057 20053 39681 49926 56039 60031 7//4/ 333
10067 20016 70159=
71308 15/// /1710 10031 20019 30115 40200 58041 60001 333 10036
21046 70000=
71309 17/// /0604 11018 21023 39867 49878 57050 60051 7//4/ 333
11008 21034 70055=
71310 15/// /1507 10023 20002 30133 40170 56052 60001 333 10023
21059 70000=
71312 15/// /2603 11085 21115 39541 40001 58013 60001 333 11044
21161 70000=
71315 17/// /0812 11067 21077 30048 40103 58081 60021 7//4/ 333
11067 21158 70017=
71317 17/// /1306 10003 21002 30122 40169 58057 60021 7//4/ 333
10005 21047 70019=
71319 45/// ///// 10001 20001 39142 49998 56072 6///1 333 10001
21099 7////=
71363 15/// /1907 11267 21296 39874 49930 56013 60001 333 11263
21366 70000=
71365 17/// /3405 11232 21256 39810 40031 50005 60011 7//4/ 333
11231 21270 70014=
71369 17532 81011 11078 21082 39135 49836 56049 60001 771// 333
11078 21156 70000=
71370 45/// /0403 10002 21001 39840 49976 56069 6///1 333 10002
21131 7////=
71372 17/// /1912 10040 20026 60011 7//4/ 333 10057 21037 70029=
71373 17/// /1404 10074 20072 60021 7//4/ 333 10096 21025 70024=
71376 17/// /1801 10017 20015 39670 49959 58060 60091 7//4/ 333
10019 21071 70090=
71377 17/// /3404 10003 20001 39912 49960 56062 60041 7//4/ 333
10004 21073 70042=
71379 17/// /1409 11011 21015 39776 49945 56080 60061 7//4/ 333
11010 21077 70057=
71384 17/// /2502 10001 21003 39999 40006 56081 60061 7//4/ 333
10002 21083 70060=
71392 15/// /0701 11003 21003 60001 333 11003 21088 70000=
71395 11/06 /1511 10026 20025 39995 40175 50055 69931 75144 333
10028 21024 42003 70003 9092/=
0000023600
138
SMCA01 TNCC 111800
AAXX 11184
78988 02575 51110 10290 20208 30139 40149 57031 60001 84460
  333 58017 60007 84823=
78873 02572 20514 10300 20220 30133 4//// 57024 69911 82200
  333 58009 60007 82822=
78990 NIL=
0000373300
139
SMCN04 KWBC 111800 RRE
AAXX 11184
71398 17356 80707 11017 21027 39867 49878 58050 60001 771// 333
11008 21034 70000=
71553 15/// /2606 11069 21077 39359 40028 58008 60001 333 11068
21142 70000=
71555 15/// /2549 10046 21025 38300 49815 56035 60001 333 10047
21042 70000=
71556 15/// /1707 11110 21119 39393 40003 58032 60001 333 11080
21172 70003=
71558 15/// ///// 11064 21103 30101 40139 56016 60001 333 11055
21113 70000=
71564 15/// /2909 11047 21073 39662 40034 50006 60001 333 11027
21087 70003=
71572 17/// /2901 11205 21232 39769 40007 50006 69921 7//4/ 333
11198 21238 70034=
71578 17/// /0602 60011 7//4/ 333 70011=
71580 11561 71512 11268 21310 39917 49955 57014 69901 77177 84530
333 11265 21371 46017 70002 90983=
71586 15/// /1102 11125 21139 39522 49991 58014 60001 333 11089
21151 70003=
71587 17356 83007 11084 21093 39613 49974 58001 60001 771// 333
11080 21097 70000=
71598 17/// /1405 11047 21064 30120 40126 58068 69951 7//4/ 333
11047 21166 70012=
71917 12874 42903 11217 21260 39925 49939 51007 60001 84030 333
11110 21308 70000=
71043 11880 11203 11405 21446 39962 40061 58004 69901 77670 81070
333 11251 21413 48015 70004 90927=
71045 15/// /0000 11160 21177 39030 49896 53010 60001 333 11130
21169 70000=
71050 15/// /0403 11055 21060 38806 49862 53024 60001 333 11010
21128 70021=
71066 17448 81104 11182 21207 39510 49939 57013 60001 771// 333
11181 21230 70000=
71076 15/// /0704 11252 21279 39596 40002 58010 60001 333 11215
21310 70004=
71077 15/// /1405 11107 21118 39421 49965 58027 60001 333 11107
21170 70000=
71079 11456 80000 11193 21205 39726 40015 50000 69941 77177 885//
333 11180 21255 48050 70064 90983=
71083 11974 71509 11225 21255 39973 40017 56017 69901 77677 84031
333 11216 21334 44035 79999 90983 93100=
71092 45464 81806 11276 39342 40030 51018 6///1 333 11264 21293
7////=
71093 45/// /2323 11229 39498 40006 53018 6///1 333 11225 21240
7////=
71094 45/01 80108 11238 39054 49970 53013 6///1 333 11219 21238
7////=
71095 15966 01809 11324 21362 39934 40018 53025 60001 333 11233
21329 79999=
71104 11374 71504 10004 21005 38777 49862 53031 69941 72672 87500
333 10006 21041 44059 70036 90926=
71244 15/// /2122 10066 21004 38695 49896 58025 60001 333 10067
21107 70000=
71245 45/// /0000 11051 21055 6///1 333 11048 21101 7////=
71247 15966 01918 10056 21009 39053 49894 56038 60001 333 10060
21116 70000=
71605 17/// /2308 10052 20046 39765 49912 50000 60051 7//4/ 333
10076 20024 70909=
71612 17/// /1904 10053 20040 39877 49967 58058 60061 7//4/ 333
10056 21055 70062=
71614 17/// /1406 10060 20049 39887 49952 58063 60031 7//4/ 333
10070 21034 70028=
71617 17/// /1102 11009 21016 39813 49981 56088 60021 7//4/ 333
11005 21113 70019=
71618 15166 13007 11265 21294 39983 40023 56014 60001 333 11251
21284 70000=
71632 15/// /2802 11215 21244 39552 40008 58011 60001 333 11215
21299 70032=
71713 15/// /0603 10000 20000 39959 49997 58093 60001 333 10000
21068 70000=
71720 17/// ///// 10056 20043 39723 49872 58022 60021 7//4/ 333
10078 20023 70292=
71732 17/// /1904 10018 20015 60011 7//4/ 333 10018 21033 70102=
71734 17/// /1907 10015 39502 49886 58044 60051 7//4/ 333 10016
21056 70112=
71736 15/// /2426 10047 20003 38540 49881 55001 60001 333 10050
20005 70000=
71742 15/// /2411 11020 21080 39988 40177 56016 60001 333 11019
21087 70000=
71744 17/// /0805 11034 21045 30074 40116 58078 60011 7//4/ 333
11034 21126 70010=
71818 12574 70000 11074 21121 30107 40125 55001 60001 81508 333
11060 21163 79999=
71820 17/// /1512 10038 20033 39820 49933 58068 60171 7//4/ 333
10042 21002 70174=
0000371300
140
SMCN04 KWBC 111800 RRF
AAXX 11184
71825 11440 81305 11096 21117 39393 40075 56035 69961 77177 887//
333 11095 21136 48090 70008 90983 93101=
71831 11466 82706 11012 21018 39607 49883 58028 60011 72272 885//
333 11012 21026 48080 70072 90913 93101=
71834 11262 83104 11039 21050 39495 49918 58015 69901 77177 887//
333 11021 21039 44028 70012 90983=
71835 17/// /3008 11069 21086 39462 49940 58002 69921 7//4/ 333
11069 21090 70017=
71849 15/// /2506 11074 21083 39729 40032 58001 60001 333 11071
21129 7////=
71854 11256 82809 11077 21094 39520 49995 53006 69921 77172 887//
333 11057 21085 48050 90936=
71201 17/// ///// 10075 20045 69971 7//4/ 333 10098 20060 70497=
71203 17966 10904 10042 20024 39409 49919 53020 60041 7004/ 333
10047 20001 70040=
71209 45/// /1722 10077 20054 6///1 333 10100 20053 7////=
71212 17/// /3001 10004 20004 39200 40001 56069 60051 7//4/ 333
10004 21101 70049=
71215 17/// /1307 10101 20040 39590 49926 53016 69981 7//4/ 333
10101 20006 70032=
71218 17/// /2405 10035 20018 39467 49885 58006 60021 7//4/ 333
10046 20002 70055=
71219 45/// /3212 10037 20013 39842 49852 53040 6///1 333 10054
20016 7////=
71220 45/// /3012 10033 6///1 333 10047 20011 7////=
71222 15/// /0603 11186 21203 38919 49891 53008 60001 333 11122
21191 70002=
71231 15/// /2017 10049 21004 60001 333 10049 21105 70000=
71232 15/// /2606 10030 21028 38368 49815 58024 60001 333 10030
21016 70000=
71234 15/// /2535 10083 21015 38669 49822 58044 60001 333 10083
21089 70000=
71235 15/// /2312 10041 21035 60001 333 10043 21083 70000=
71236 45/// /1702 10026 20017 6///1 333 10032 20006 7////=
71237 45/// /2015 10044 21016 39007 49804 56055 6///1 333 10045
21152 7////=
71238 15/// /1417 11031 21055 60001 333 11031 21112 70000=
71239 15/// /2711 11071 21083 39576 40044 51007 60001 333 11050
21098 70000=
71240 15/// /1122 11038 21064 39038 49874 58072 60001 333 11037
21091 70000=
71242 15/// /1605 11052 21071 60001 333 11037 21120 70004=
71243 15/// /2219 10075 20000 38833 49889 56024 60001 333 10075
21056 70000=
71248 15/// /3001 11059 21100 38527 49815 56048 60001 333 11034
21170 70000=
71331 15/// /2603 11157 21189 39626 40002 56012 60001 333 11143
21188 70013=
71338 15566 80401 11211 21237 30019 40027 51018 60001 333 11194
21253 70000=
71339 15966 02902 11049 21129 30122 40136 55009 60001 333 11045
21136 70000=
71349 15/// ///// 11098 21112 60001 333 11092 21171 70000=
71611 17/// /1811 10085 20074 60041 7//4/ 333 10085 21072 70040=
71700 17232 80705 11017 21018 30071 40097 58087 60011 771// 333
11017 21147 70010=
71716 17/58 /0000 10005 21001 39790 49997 56077 60041 7004/ 333
10007 21097 70050=
71867 11436 83203 11106 21125 39676 40014 55002 69901=
71930 11262 80804 11063 21073 38899 49817 56034 60023 771// 887//
333 11063 21087 47062 70020 90999=
71934 12974 70000 11295 21325 39738 40009 56011 60001 84031 333
11242 21310 70004=
71935 11574 80302 11275 21325 39798 40017 58009 69901 70271 885//
333 11268 21332 48026 79999 90951=
71936 11774 80106 11257 21289 39757 40031 58002 60011 77122 885//
333 11257 21307 48030 70018 90962 93101=
71938 11874 32514 11335 21393 39944 49975 50005 69901 77677 83070
333 11303 21342 45029 79999 90983=
71940 11462 80702 11047 21052 39024 49817 55009 60031 77177 836//
333 11044 21117 43059 70030 90973 93103=
71941 17116 81808 10010 20009 39494 49903 58046 60041 76144 333
10010 21074 70053=
71946 11/20 93403 11230 21246 39813 40036 51006 60011 77122 333
11228 21261 48053 70012 90952 93101=
71947 17258 81808 10007 20003 39546 49886 56047 60041 7104/ 333
10007 21064 70045=
0000133000
141
SMCO01 KWBC 111800
AAXX 11181
80002 32470 30704 10290 20245 82101 333 562/0 82818=
80001 11470 10807 10284 20235 30132 40133 69911 70251 81200 333
562// 58003 81818=
80009 31560 12702 10300 20240 30095 40100 70500 81101 333 560/0
58012 81820=
80084 31560 33004 10308 20234 70510 83800 333 564// 83825=
80091 31468 13602 10324 20195 70500 81100 333 569// 81815 555
18020 3226/ 447//=
80094 31562 12794 19258 20172 38806 70500 81100 333 567// 58008
81820=
80097 32570 40105 10290 20202 3//// 4//// 82801 333 569/9 5////
82823=
80110 31665 20000 10257 20149 38487 70510 82170 333 5600/ 58008
82835=
80112 31570 40706 10209 20129 37902 70552 84871 333 56999 57896
59009 84820=
80139 32970 00906 10335 20184 30037 40072 333 58019=
80144 31450 60000 10300 20228 70542 85250 333 56009 85820 83358=
80210 31462 62902 10252 20181 38660 70522 83231 333 56990 57891
59002 83817 83359=
80211 31570 62702 10254 20179 70522 86200 333 562// 86820 555
18000 3203/ 412//=
80214 31460 71602 10254 20210 70522 83870 333 5677/ 83817 85458=
80234 32562 30603 10317 20157 39618 40110 81531 333 56239 58017
81627=
80315 31462 60000 10279 20216 39605 40099 60021 70552 82150 333
5600/ 58023 69907 82815 86362=
80370 31462 70903 10154 20110 37169 71522 87800 333 563// 58010
87818=
0000369500
142
SMCN04 KWBC 111800 RRK
AAXX 11184
71436 17/04 /1903 10050 20050 39699 49929 56054 60031 7614/ 333
10050 21038 70116=
71437 45/// /0201 10061 20053 39819 49912 58055 6///1 333 10077
21018 7////=
71449 15/// /3005 11090 21102 39619 40025 50004 60001 333 11043
21127 70013=
71511 45/// /1612 11102 21110 39358 40002 58027 6///1 333 11084
21143 7////=
71512 15/// /0604 11068 21087 30114 40128 58042 60001 333 11062
21105 70000=
71513 15466 81103 11061 21088 30132 40148 56034 60001 333 11055
21118 70000=
71514 15/// /1107 11109 21129 39308 40014 58032 60001 333 11072
21185 70000=
71516 15/// /1412 11058 21080 39097 40000 58041 60001 333 11055
21149 70000=
71519 15/// /1914 10045 20001 60001 333 10045 21118 70000=
71524 17/// /3204 11005 21010 39956 49982 56061 60021 7//4/ 333
11005 21117 70020=
71525 15/// /1922 10041 21004 60001 333 10046 21117 70000=
71526 15/// /2213 10030 21012 60001 333 10038 21099 70000=
71638 17/// /1212 10059 20038 39796 49899 58012 60011 7//4/ 333
10089 20046 70319=
71639 11/02 90000 10038 20038 39682 49919 58049 60021 76142 333
10038 20017 42014 70102 90921=
71457 15/// /1913 10016 21021 38986 49864 58035 60001 333 10016
21155 70000=
71477 17/// /2912 10036 20017 39852 49860 51044 60011 7//4/ 333
10037 20020 70134=
71486 17/// /1703 11028 21031 38637 49810 56020 60041 7//4/ 333
11027 21054 70081=
71487 15/// /1408 11048 21086 39120 49988 58049 60001 333 11047
21140 70000=
71489 15/// /1219 11066 21074 39123 49914 58062 60001 333 11066
21169 70002=
71491 45/// /2006 11341 21378 6///1 333 11296 21349 7////=
71493 17/// /1108 10025 20020 30112 40151 56064 60031 7//4/ 333
10034 21011 70037=
71494 17/// /2007 10054 20050 39478 49992 58069 60021 7//4/ 333
10057 21076 70018=
71496 15/// /1409 11094 21103 39357 49975 58041 60001 333 11094
21164 70000=
71499 15466 81804 11167 21185 39348 49989 58014 60001 333 11165
21177 70000=
71527 17356 82909 11065 21069 39480 49987 50005 60001 771// 333
11047 21072 70000=
71542 15/// /0816 11201 21223 60001 333 11193 21248 70004=
71543 17/// /0107 11059 21067 60021 7//4/ 333 11039 21146 70020=
71545 45/// ///// 11033 21050 6///1 333 11033 21115 7////=
71726 17/// /1705 10013 20007 39404 49937 58054 60051 7//4/ 333
10013 21081 70050=
71727 11348 80913 11018 21031 39790 49987 57078 60091 76676 885//
333 11014 21117 49053 70086 90942=
71728 11/24 91205 11015 21021 39744 49964 57075 60061 76672 333
11015 21074 44048 70060 90952 93102=
71730 11116 82107 10015 20015 39471 49888 58042 60031 76166 887//
333 10017 21048 42026 70059 90983=
71738 11440 82103 11015 21024 39556 49904 58017 60031 77177 885//
333 11013 21028 48047 70071 90973=
71739 41248 82605 10005 21004 39522 49877 56028 6///1 7687/ 887//
333 10006 21033 90983=
71799 11461 81608 10064 20050 39901 49924 58016 60051 76386 885//
333 10102 20061 70446 90927=
71800 15/// /2723 11002 30176 40210 55010 60001 333 10010 21052
70000=
71801 13574 62515 11009 21055 30012 40189 57022 60001 81101 333
11005 21078 70000=
71803 13980 72511 11019 21087 39987 40178 50015 60001 82036 333
11019 21087 70000=
71807 15/// /2516 10000 21031 30183 40202 55015 60001 333 10004
21036 70000=
71809 13574 72211 11021 21069 30146 40174 57021 60001 87500 333
11015 21066 79999=
71810 15/// /1211 11035 21063 30050 40117 56047 60001 333 11028
21073 70000=
71813 15/// /0803 11060 21088 30128 40143 56034 60001 333 11054
21115 70002=
71814 15/// /2309 11047 21098 30139 40149 56028 60001 333 11044
21085 70000=
71815 12574 82515 11019 21048 30160 40191 55020 60001 88574 333
11014 21052 70000=
0000368100
143
SMCN04 KWBC 111800 RRI
AAXX 11184
71099 17448 80609 11113 21134 39946 49967 58021 69931 7714/ 333
11112 21197 70003=
71450 15/// /1212 11076 21092 39252 49974 58044 60001 333 11076
21156 70000=
71451 15/// /2502 11159 21180 39568 40004 58010 60001 333 11159
21222 70009=
71453 15/// /1819 10024 21030 39015 49912 56031 60001 333 10031
21107 70000=
71454 15/// /1707 11085 21098 39283 49974 58022 60001 333 11062
21103 70000=
71455 15/// /1414 11035 21049 39160 49955 58054 60001 333 11035
21129 70000=
71456 15/// /1906 11070 21086 39400 49999 58020 60001 333 11058
21120 70000=
71458 45/// /1413 11030 21052 39083 49845 56070 6///1 333 11028
21160 7////=
71460 45/// /0501 10019 20013 39663 49900 56034 6///1 333 10028
21005 7////=
71463 45/// /2011 10049 20042 39705 49924 58052 6///1 333 10064
20009 7////=
71465 45/// /2212 10035 20031 39708 49921 56040 6///1 333 10042
20007 7////=
71471 17556 83404 11080 21089 39051 49830 56005 60021 77144 333
11040 21091 70018=
71475 17/// /0806 10058 20051 39782 49873 55030 60091 7//4/ 333
10059 20010 70622=
71480 15/// /0000 11406 21449 39925 40054 58003 60001 333 11255
21408 70002=
71532 17/02 /1509 10037 20036 39571 49908 58051 60151 76144 333
10037 21027 73973=
71534 15116 81409 10038 20038 39635 49901 58057 60001 333 10041
21020 70075=
71667 15/// /2907 11014 21036 39701 49945 58006 60001 333 11013
21045 70005=
71668 17/// /1404 11012 21013 30052 40096 58087 60031 7//4/ 333
11012 21139 70028=
71672 45/// /2402 10046 20046 39667 49926 56053 6///1 333 10052
21024 7////=
71679 15/// /0505 11071 21078 38840 49839 53022 60001 333 11025
21074 70092=
71681 45/// /2015 10069 20009 6///1 333 10069 21033 7////=
71684 17/02 /1203 10006 20006 39589 49884 58043 60011 7614/ 333
10008 21040 70028=
71686 15966 00606 11185 21198 38919 49875 53008 60001 333 11123
21187 70000=
71687 17/// ///// 10015 20011 39126 49890 50027 60041 7//4/ 333
10023 20000 70387=
71688 17/// /1301 10002 21002 38877 49887 50017 60031 7//4/ 333
10014 21010 70355=
71689 15366 80909 11125 21138 39464 49925 58036 60001 333 11125
21196 70000=
71694 17/// /1604 10045 20040 39559 49913 58050 60011 7//4/ 333
10045 21028 70227=
71697 17/02 /0903 10048 20045 39749 49917 58057 60021 7614/ 333
10052 20005 70076=
71001 17966 02904 11198 21214 38947 49933 56003 60001 771// 333
11146 21229 70000=
71009 15/// /1902 11036 21059 60001 333 11034 21154 70000=
71027 15/// /2106 10041 21008 30178 40191 56028 60001 333 10041
21050 70000=
71028 17/// /1606 10003 21002 38850 49860 51013 60011 7//4/ 333
10004 21075 70090=
71061 15/// /1208 11019 21048 39043 49816 56046 60001 333 11018
21125 70000=
71064 45/// /2616 11390 39703 49928 56005 6///1 333 11301 21390
7////=
71075 15/// /2902 11185 21211 39372 49997 58006 60001 333 11185
21280 70000=
71097 459// 00205 11208 39558 40045 53012 6///1 333 11194 21220
7////=
71125 13574 81009 11096 21111 39348 49935 58045 60001 8757/ 333
11070 21143 93100=
71129 11469 81424 11040 21068 39076 49901 58069 60001 73622 885//
333 11040 21147 70000=
71131 15/// /1808 11026 21042 38694 49940 58047 60001 333 11026
21120 70000=
71145 11458 83105 11115 21126 39696 49992 53007 69901 77122 885//
333 11093 21118 48036 70016 90962=
71148 15/// /3012 11071 21087 39454 40039 58001 60001 333 11048
21091 70000=
71185 15464 82312 11028 21064 30135 40159 56016 60001 333 11026
21057 70005=
71260 13256 82913 10002 21002 39668 49900 58016 69961 333 10011
21033 43034 70083=
71401 17/// /1703 10052 20037 39259 49928 56018 60031 7//4/ 333
10055 70084=
0000369800
144
SMCN04 KWBC 111800 RRH
AAXX 11184
71060 15/// /2607 10015 21040 38316 49807 55012 60001 333 10025
21094 70000=
71063 17/// /0302 11001 21001 39838 49936 58071 60011 7//4/ 333
11001 21077 70011=
71068 11532 80208 11079 21095 39151 49839 56032 69921 77122 885//
333 11069 21173 47042 70002 90942=
71090 15966 /2505 11284 21312 39964 40001 53021 60001 333 11259
21325 70000=
71091 45/// /2809 11295 39815 40032 53017 6///1 333 7////=
71101 45/// /3104 10034 20011 39862 49870 52051 6///1 333 10035
20008 7////=
71109 11369 81109 10048 20041 39811 49837 53003 60091 78062 8726/
333 10048 20025 70468 90937=
71114 17/// /2809 10068 20051 39890 49937 50013 60261 7//4/ 333
10084 20029 70554=
71120 11774 80911 11090 21108 39251 49907 57056 69901 77122 885//
333 11090 21142 48032 79999 90910=
71123 11974 71417 11045 21065 38970 49826 56053 69931 73672 87022
333 11027 21155 48039 70003 90941=
71137 15/// /1710 11022 21053 39030 49975 56044 60001 333 11020
21170 70012=
71188 13974 80702 11068 21095 30081 40125 57054 60001 8807/ 333
11068 21158 44036 70000=
71207 17/// /1406 10063 20039 39839 49902 50007 60171 7//4/ 333
10082 20004 70737=
71448 15/// /3003 11076 21086 39686 40018 50000 60001 333 11060
21113 70016=
71505 45/// /3506 11133 21167 39176 49912 51001 6///1 333 11124
21252 7////=
71507 17/// /0114 11162 21178 69941 7//4/ 333 11151 21220 70004=
71515 15/// /1203 11109 21115 39318 40026 58022 60001 333 11055
21150 70000=
71616 17/// /1710 10073 20056 39858 49977 58081 60021 7//4/ 333
10074 21081 70030=
71619 15/// /0905 11050 21065 30060 40120 58070 60001 333 11049
21118 70000=
71634 15/// /1603 11034 21041 39955 40112 58076 60001 333 11034
21167 70000=
71712 17/// /3201 10029 20028 39897 49957 57057 60061 7//4/ 333
10032 21047 70062=
71721 17/// /1707 10030 20030 39689 49931 58059 60081 7//4/ 333
10030 21066 70100=
71724 45/// /3604 10006 20002 39969 49976 56069 6///1 333 10007
21121 7////=
71741 15/// /3617 10075 21018 39461 49870 53020 60001 333 10098
20001 70003=
71746 17/// /2205 10052 20045 39691 49907 58038 60041 7//4/ 333
10054 20016 70149=
71812 17766 82119 10056 20030 39625 49892 53035 60101 70044 333
10060 20012 70236=
71816 12774 82608 11065 21138 30064 40127 56013 60001 885// 333
11064 21136 70000=
71819 15966 02412 11066 21103 30104 40146 56017 60001 333 11062
21113 70000=
71821 45/// /1906 10006 20006 39548 49889 56048 6///1 333 10006
21065 7////=
71827 11448 80811 11042 21055 39689 49931 58052 69941 77177 885//
333 11037 21067 47016 70018 90983=
71832 17/// /3004 11012 21022 39568 49888 57025 60021 7//4/ 333
11012 21034 70048=
71840 15/// /2914 11054 21070 60001 333 11039 21077 70000=
71842 11456 83110 11065 21083 39504 49976 50002 69901 77177 886//
333 11049 21075 47042 70004 90983=
71845 11548 82908 11069 21089 39473 49947 58002 69941 77177 885//
333 11069 21092 44037 90973=
71850 11256 83008 11097 21110 39505 40009 50004 69901 77172 887//
333 11042 21097 48047 70022 90937 93100=
71059 45/// ///// 11272 39819 49912 56015 6///1 333 11262 21328
7////=
71062 15/// /1805 11040 21065 38739 49800 56042 60001 333 11029
21095 70008=
71072 15466 83010 11014 21038 39703 49947 58006 60001 333 11014
21048 70000=
71084 45/// /2715 11337 39887 49936 53003 6///1 333 11248 21338
7////=
71085 15666 32527 10048 20004 38536 49876 53001 60001 333 10049
20006 70000=
71088 45/// /2207 11301 6///1 333 11280 21325 7////=
71096 45/// /0503 11228 39259 40007 52015 6///1 333 11212 21231
7////=
71098 17/// /1907 10045 20043 39383 49895 58054 69921 7//4/ 333
10048 21021 70377=
0000376000
145
SMCN04 KWBC 111800 RRJ
AAXX 11184
71415 15/// /1813 10027 20019 30165 40168 56056 60001 333 10037
21037 70000=
71427 45/// /0714 11026 21030 30062 40069 58075 6///1 333 11025
21056 7////=
71442 15/// /2303 11070 21077 39700 40018 58006 60001 333 11070
21109 70000=
71446 15/// /1727 11042 21065 38965 49938 58058 60001 333 11042
21101 70000=
71452 15/// /1406 11095 21102 39311 40031 58024 60001 333 11073
21174 70000=
71459 15/// /1723 11002 21031 39087 49883 58068 60001 333 11002
21122 70000=
71473 17/// /1820 10075 20055 39893 49922 55021 60021 7//4/ 333
10096 20059 70252=
71481 15/// /0902 11031 21061 60001 333 11025 21096 70005=
71485 17/// /1320 10054 20040 39816 49833 53012 60051 7//4/ 333
10063 20045 70132=
71529 45/// /0902 11279 21315 39788 40026 58001 6///1 333 11252
21348 7////=
71539 15/// /1409 11050 21078 39303 40001 58039 60001 333 11050
21133 70000=
71642 11374 80000 11008 21013 39350 49885 58029 60061 77172 885//
333 11004 21052 48046 70080 90952=
71670 15/// ///// 11010 60001 333 70000=
71675 17366 63306 11086 21104 39662 49940 58007 60011 7714/ 333
11078 21087 70023=
71685 17466 80706 10018 20008 39373 49901 55001 60031 7614/ 333
10021 20000 70100=
71691 17212 81015 11038 21045 30025 40053 58086 60001 771// 333
11032 21109 70000=
71696 15/// /2907 11266 21293 39981 40019 56013 60001 333 11251
21285 70000=
71858 17/// /2906 11073 21084 39724 40007 53005 69921 7//4/ 333
11060 21098 70002=
71861 15/// /1202 11117 21131 39291 40026 58020 60001 333 11051
21137 70000=
71862 12974 82106 11074 21081 39335 40043 58023 60001 87071 333
11073 21146 79999=
71002 17528 81705 11086 21101 39549 40099 58023 60001 771// 333
11085 21149 70000=
71003 17524 80907 11051 21064 39602 49982 58048 60001 771// 333
11050 21079 70000=
71022 17466 83205 10027 20019 39811 49854 53040 60021 7614/ 333
10044 20002 70083=
71024 15/// /0907 11196 21221 60001 333 11191 21225 70000=
71029 15/// /2515 11283 21313 39832 49872 58015 60001 333 11280
21389 70002=
71030 17/// /1917 10074 20069 30015 40111 56076 60071 7//4/ 333
10074 21010 70068=
71033 15/// /1804 11167 21187 39348 49990 57013 60001 333 11166
21179 70009=
71036 15566 82812 11046 21067 39644 40021 58003 60001 333 11046
21103 70000=
71039 15/// /3106 11183 21208 39270 49942 51002 60001 333 11154
21189 70008=
71040 45/// /0902 11013 21017 39777 49976 56081 6///1 333 11010
21115 7////=
71041 15266 81607 10024 20020 30054 40197 58038 60001 333 10029
21055 70000=
71046 45/// /2623 11227 39977 49995 56015 6///1 333 11224 21267
7////=
71047 15/// ///// 11061 21076 60001 333 11060 21130 70000=
71122 17/// /2303 11017 21017 38283 49844 58041 60041 7//4/ 333
11014 21046 70045=
71135 15/// /1817 11054 21073 38906 49991 58051 60001 333 11045
21113 70000=
71140 11269 82814 11063 21075 39533 40040 50001 69901 77111 886//
333 11060 21116 48032 79999 90921 93100=
71200 17/// /1412 10068 20044 60021 7//4/ 333 10090 20065 70244=
71402 15/// /2618 11027 21073 30047 40163 56014 60001 333 11024
21061 70000=
71406 45/// /2411 11050 21080 30136 40146 56017 6///1 333 11050
21079 7////=
71410 17666 83302 11098 21107 39714 49996 58003 60001 771// 333
11098 21105 70000=
71414 15/// ///// 11106 21116 60001 333 11092 21178 70004=
71419 45/// /1913 10026 6///1 333 10028 21035 7////=
71424 45/// /0501 6///1 333 7////=
71425 15/// /1106 11015 21048 30057 40094 56062 60001 333 11015
21098 70000=
71426 15/// /0809 11013 21018 60001 333 11013 21053 70000=
71428 15/// /0705 11032 21042 30068 40074 58071 60001 333 11031
21082 70000=
71429 15/// /2210 11044 21058 30110 40130 56049 60001 333 11042
21100 70000=
00000000