0000225300
586
SMRS17 RUMS 111800
AAXX 11181
34357 41598 82404 10028 20010 39896 40050 52015 78082 889// 333 91011
91113=
34363 42597 52408 10022 20008 39886 40038 53007 85500 333 91011
91114=
34461 41497 82604 10040 20015 30005 40060 53008 76186 8802/ 333
91111=
34545 41498 82305 10042 20023 39986 40097 52013 78082 889// 333
91114=
34579 42598 72305 10041 21008 30058 40101 52010 87500=
34772 32997 72406 10037 20014 30110 40113 52008 87070 333 91010=
34838 42997 02003 10038 21001 30084 40181 52008=
34868 42998 02405 10027 20008 30021 40162 52009=
34871 41996 02405 10023 20009 30151 40141 52008 71011=
34927 42997 02303 10064 21001 30166 40204 52006=
34949 42998 62609 10026 21009 39637 40188 53013 86030 333 91013
91114=
34954 42998 02304 10046 20002 30007 40181 52018=
34958 42998 02503 10038 21002 39981 40182 52011=
34975 42998 22604 10028 20014 30169 40163 51018 82030=
34984 42997 62304 10027 20016 30192 40164 51014 8003/=
37001 42997 22608 10093 20005 30168 40209 52007 82001 333 91013
91115=
37021 42998 22103 10047 20005 39941 40211 51011 80030=
37031 42997 62204 10037 20003 39998 40195 52013 84032 333 91110=
37036 42998 02404 10036 21023 39776 40195 51010=
37058 42598 72603 10058 21006 39843 40194 52012 87900 333 91111=
37061 41959 12204 10013 21001 30017 40186 51008 71081 81030=
37085 42596 62605 10044 20008 30205 40177 53008 86500=
37107 41504 80000 10014 20008 39551 40243 52009 71022 884//=
37126 41992 90301 11061 21065 37897 48478 52007 74943=
37144 42598 62002 10038 20003 39952 40200 53008 83530=
37163 42597 62604 10062 20013 30188 40182 51010 86530=
37171 119// /0803 10035 20031 30218 40232 52009 60022 333 10094=
37193 41798 82902 10009 21037 38655 48473 51007 70180 82331=
37212 42998 62002 10030 21018 39682 40201 50006 80030=
37218 41997 81401 10030 21005 39409 40207 52008 72162 8001/=
37228 41597 80000 10030 21001 39361 40202 52009 76162 8802/=
37235 42597 82301 10046 21005 39888 40203 51019 885//=
37244 42597 82303 10060 21002 30104 40198 53010 885//=
37463 32997 72701 10002 21113 38551 51032 87030=
37470 42596 63204 10092 20015 30183 40161 52027 83530 333 91114=
37663 42/// /2601 10001 21020 38989 48462 51044 333 91111=
0000011200
587
SMRA11 RUNW 111800 RRA
AAXX 11181
29580 414// 70000 11076 21098 39872 40334 53001 70282 85930=
0000011200
588
SMRA11 RUNW 111800 RRB
AAXX 11181
29771 415// 81903 11083 21089 39348 40359 58003 72682 889//=
0000010000
589
SMRA11 RUNW 111800 RRC
AAXX 11181
29768 43/// /0601 11103 21118 30020 40355 57004=
0000011200
590
SMRA11 RUNW 111800 RRD
AAXX 11181
36073 418// 80000 11142 21151 39481 40408 5//// 70272 86031=
0000012400
591
SMRA11 RUNW 111800 RRE
AAXX 11181
29874 41598 81501 11057 21095 39949 40361 53003 70282 889// 333
88923=
0000026600
592
SMAG04 SABM 111800 RRA
AAXX 11183
87016 31430 80937 10278 20200 39694 40089 53031 70722 56449 333 56449 81817 83620 81940=
87416 32665 12308 10328 20089 39417 40136 57021 81500 333 56000
81635=
87896 32980 02713 10250 20057 30037 40132 5////=
0000060500
593
SMAG04 SABM 111800
AAXX 11184
87078 11570 81405 10224 20199 39993 40143 52021 69901 78098 888// 333 56499 84825 84630=
87244 32570 21608 10280 20179 39793 40183 51005 82202 333
56205 57826 82824=
87393 11550 81408 10250 20191 30098 40161 52020 69951 76096 8382/
333 56409 83620 83822 88535=
87563 32965 00916 10244 20037 30160 40202 54000=
87640 32965 00908 10279 21009 30105 4//// 55004=
87688 32965 01406 10227 20044 30096 40233 5////=
87774 32982 12705 10270 20109 39172 48531 57008 80001
333 56006 81070 555 10200=
87852 32984 02717 10216 20055 39644 40144 57019=
0000127000
594
SMAG03 SABM 111800
AAXX 11184
87593 32560 11613 10230 20010 30178 4//// 53012 81100 333 56400
81820=
87623 32980 00206 10279 20027 39981 40204 57015=
87641 32870 11413 10248 20017 30038 40213 55001 81100
333 56400 81858=
87645 32970 01415 10236 21022 30009 40215 53005=
87648 32560 11408 10240 20011 30196 40206 52004 81100 333 56400
81825=
87692 32560 32017 10187 20076 30201 40226 52016 83400 333 56400
83620=
87715 32970 03606 10296 20008 39857 40168 57019=
87750 32965 01107 10262 20005 30120 40219 58009=
87765 32960 00000 10252 20032 39214 48523 58019=
87784 32980 03612 10272 20008 30180 40204 57008=
87791 32980 03210 10282 20030 30188 40196 57011=
87800 32980 00000 10269 20069 39764 40159 57010=
87803 32980 02305 10244 20023 39257 40160 57016 333 10185=
87828 32980 02304 10268 20003 30121 40172 57009=
87860 32980 10713 10203 20052 30097 40152 57015 80001 333 56005
81070=
87904 32980 62913 10202 20059 39865 40105 55004 83076 333 56066
83360 83270=
87909 32980 00920 10224 20060 30042 40116 57020=
87925 11670 72508 10235 20066 30049 40072 57021 69901 71560 83142
333 56559 57391 83835 83360=
87938 11680 83410 10140 20076 39932 40001 56007 69901 70252 8557/
333 56779 85640 88360 95000=
0000005500
595
SMAG03 SABM 111800 RRA
AAXX 11183
NIL
0000016000
596
SSVX02 CWAO 111800
ZZYY 56950 11014 1800/ 307888 103186 6113/ 11119 
40091 57011 22219 00290 444 20130 11014 1800/ 50101 80146 80015 
9/015=
0000016000
597
SSVX02 CWAO 111800
ZZYY 56948 11014 1800/ 316127 090411 611// 11119 
40137 54000 22219 00274 444 20130 11014 1800/ 50101 80144 80011 
9/015=
0000016000
598
SSVX02 CWAO 111800
ZZYY 56538 11014 1800/ 337497 135037 6113/ 11119 
40223 57011 22219 00176 444 20130 11014 1800/ 50101 80136 80010 
9/015=
0000012700
599
SSVX02 CWAO 111800
ZZYY 48741 11014 1800/ 174196 157368 6113/ 444 
20130 11014 1800/ 50101 80134 80002 9////=
0000016000
600
SSVX02 CWAO 111800
ZZYY 56947 11014 1800/ 331583 105889 6113/ 11119 
40159 57027 22219 00207 444 20130 11014 1800/ 50101 80142 80019 
9/015=
0000013900
601
SSVX02 CWAO 111800
ZZYY 64725 11014 1800/ 170996 025396 6113/ 22231 
00051 444 20130 11014 1800/ 50101 80138 80002 9////=
0000013900
602
SSVX02 CWAO 111800
ZZYY 64736 11014 1800/ 168537 005572 6113/ 22219 
00066 444 20130 11014 1800/ 50101 80142 80003 9/015=
0000013900
603
SSVX02 CWAO 111800
ZZYY 64737 11014 1800/ 763667 006213 6113/ 22219 
00044 444 20130 11014 1800/ 50101 80140 80021 9/015=
0000137200
604
SMAL20 DAMM 111800
AAXX 11184
60353 12570 8//// 10164 20121 40198 52009 60002 85802 333 10206 83820
83633 85070 91818 95990=
60367 11965 3//// 10138 20094 40194 5//// 60002 700// 83500 333 10183
83640=
60369 12960 60000 10195 20143 40195 53011 60002 82082 333 10216 82360
91827=
60401 NIL=
60403 12660 70000 10138 20087 40213 52011 60002 8353/ 333 10192 83640
85360 95990=
60425 11560 70000 10149 20098 40193 55005 69932 70362 84272 333 10174
84833 83460 95990=
60461 12570 81807 10154 20120 40199 52010 69902 8353/ 222// 20000 333
10186 83630 86360 91828 95990=
60467 12960 70000 10122 20078 40215 53007 60002 8707/ 333 10157 87460
95990=
60492 11562 70000 10146 20117 40205 53008 60012 70262 872// 333 10176
87830 95990=
60515 12965 70000 10102 20075 40201 58002 60002 8707/ 333 10128 87460
95990=
60517 12560 80000 10154 20131 40198 52013 69902 8527/ 333 10194 85820
86460 95990=
60522 11558 80000 10125 20100 40194 52008 60022 76062 8427/ 333 10150
84826 85460 95990=
60557 11665 61606 10100 20023 38853 48502 55001 60002 70122 84282 333
10124 84833 95990=
60563 12960 81712 10124 20077 39327 48531 53016 60002 888// 333 10156
88830=
60603 12660 40406 10181 21007 40203 51012 60002 84800 333 10236 84840
=
60638 12960 3//// 10209 21074 40195 53011 60002 80001 333 10255 83073
=
60686 NIL=
0000134900
605
SMSP60 LEMM 111800
AAXX 11184
08008 NIL=
08011 01464 51406 10099 20091 30020 40177 58007 69902 70252 82778
  333 10126 60007=
08014 12565 20803 10120 20102 30164 40172 57010 69932 82100
  333 10132 92437=
08021 01458 10703 10107 20098 30181 40183 58009 69902 71011 81601
  333 10145 60007=
08025 02965 30000 10109 20088 30144 40192 58003 60002 81035
  333 10170 60007=
08029 11356 10000 10116 20105 30187 40197 57002 60002 71000 81601
  333 10152=
08042 02961 12203 10086 20075 39737 40176 53004 69902 816//
  333 10150 60007=
08044 11330 82301 10110 20105 30040 40171 53003 60002 71011 886//
  333 10133=
08048 NIL=
08053 NIL=
08080 01/03 90802 10049 20048 39599 40214 53003 60002 74722
  333 10097 60007=
08085 01008 83102 10049 20049 39672 40220 53007 60002 74642 886//
  333 10056 60007=
08130 NIL=
08140 12970 20000 10064 20046 39208 48498 52007 60002 80001
  333 10110=
08148 NIL=
08175 01450 80601 10127 20116 30113 40205 52011 69922 72022 887//
  333 10150 69927 88721=
08210 NIL=
08213 NIL=
08215 12965 00305 10042 21018 38125 48520 53009 60002
  333 10095 95000=
08224 12862 22702 10094 20059 39472 40198 52008 60002 81038
  333 10128=
08226 NIL=
08232 NIL=
08272 11856 30903 10084 20060 39588 40202 52008 60002 71000 81031
  333 10120=
08286 NIL=
00000000