0000010700
606
SPIN90 VEGY 111700
SPECI VEGY 111700Z 00000KT 0800 BR  FEW010 SCT018 OVC080 14/14 Q1018=

0000015500
607
FCIN90 VABB 111800
TAF VABB 111800Z 1121/1206 00000KT 3000 FU NSC
     TEMPO 1200/1203 1200 BR
     BECMG 1204/1206 04006KT 4000 FU=

0000010700
608
SAIN90 VEGY 111800
METAR VEGY 111800Z 00000KT 1000 BR  FEW010 SCT018 OVC080 14/13 Q1018=

0000011600
609
SMIN90 VEPT 111800
AAXX 11184
42503 31593 60000 10154 20136 40179 74244 83530
  333 56690 58008=
0000011000
610
SMIN90 VABP 111800
AAXX 11184
42667 31995 00705 10130 20108 39592 40203 71044
  333 58046=
0000011000
611
UANT99 KDDL 111806
ARP AZA650 4847N01837W 1806 F380 MS56 205/68 KT
EIEJG QXT AOE 111806 J03A
0000073400
612
SMCG01 FCBB 111800
AAXX 11184
64400 32460 32010 10273 20240 30088 40107 83800
  333 10295 58004 81810 83640 =
AAXX 11183
64401 31560 73608 10258 20218 39742 40114 71792 879//
  333 10298 58014 86620 81930 94948 95838=
AAXX 11184
64450 31958 50000 10284 20224 39745 40096 70522 80002
  333 10302 59005 85080=
AAXX 11183
64453 12559 60000 10230 20208 39/// 40/// 60022 81943
  333 10290 5//// 81926 83362 86073 94945 95815=
64456 31460 61802 10254 20222 39/// 40/// 70399 84930
  333 10/// 5//// 83613 81926 86362 94947 95837=
64458 32960 40000 10267 20211 39703 40090 82033
  333 10320 58013 83080=
64459 32960 30000 10260 20237 39744 40101 83030
   333 10302 58014 83363=
64460 NIL=
0000017800
613
SMFP01 LFVP 111800
AAXX 11184
71805 02482 32310 10012 21006 30197 40206 58024 60002 82501
  333 10013 21016 44030 60007 82613 90710 91118 93100
  555 60005=
0000011100
614
UANT99 KDDL 111806
ARP UAL959 5711N02322W 1806 F320 MS59 202/79 KT
N651UA DDL XXN 111806 F84A
0000068300
615
SMMS31 WMKK 111800
AAXX 11184
48600 11563 70405 10269 20211 30119 40127 60001 70522 82541 333 82626 87078=
48602 11558 70107 10249 20217 30115 40118 69901 70562 82542 333 82625 84364 87077=
48603 11565 70604 10258 20215 30123 40128 60001 70522 81542 333 81630 83364 87078=
48618 12464 80611 10262 20237 30124 40131 69901 8357/ 333 81710 83624 88469=
48625 11562 70408 10249 20215 30070 40117 60001 70522 81572 333 81632 85364 85078=
48632 12264 70705 10163 20151 60001 83532 333 81704 83361 87078=
48674 11257 70211 10264 20243 30066 40116 60001 70522 84548 333 81705 83624 87276=
48679 12564 53604 10243 20224 30065 40109 60001 81541 333 81624 85080=
0000003900
616
UAIN31 VABB 111755
NIL=
0000156900
617
SAFC21 OEJD 111800
METAR
OEAB 111800Z 19004KT 9999 SCT015 12/11 Q1027 NOSIG=
OEAH 111800Z 32008KT 9999 FEW050 BKN100 15/11 Q1021 NOSIG=
OEAO 111800Z 35008KT CAVOK 15/00 Q1024=
OEBA 111800Z 34004KT CAVOK 13/12 Q1023 NOSIG=
OEBH 111800Z 30006KT CAVOK 15/08 Q1022 NOSIG=
OEDF 111800Z 29007KT CAVOK 14/09 Q1021 NOSIG=
OEDM 111800Z 03008KT CAVOK 10/02 Q1022=
OEDR 111800Z 29008KT CAVOK 14/10 Q1019 NOSIG=
OEGN 111800Z 00000KT 9999 FEW030 26/20 Q1017 NOSIG=
OEGS 111800Z 33004KT CAVOK 11/06 Q1022=
OEGT 111800Z 18006KT 9999 SCT040 09/01 Q1023 NOSIG=
OEHL 111800Z 33014KT 9999 SCT040 07/01 Q1023 NOSIG=
OEJN 111800Z 33010KT CAVOK 21/06 Q1018 NOSIG=
OEKJ NIL=
OEKK 111800Z 35009KT CAVOK 09/09 Q1023 NOSIG=
OEKM 111800Z 24005KT CAVOK 12/11 Q1026 NOSIG=
OEMA 111800Z 33004KT CAVOK 17/M02 Q1024 NOSIG=
OEMK 111800Z 22002KT CAVOK 21/09 Q1018=
OENG 111800Z 03006KT 9999 SCT030 SCT090 17/09 Q1022 NOSIG=
OEPA 111800Z 27006KT CAVOK 08/04 Q1021 NOSIG=
OERF 111800Z 25019KT 6000 BKN040 BKN100 08/05 Q1021=
OERK 111800Z 00000KT CAVOK 11/06 Q1023 NOSIG=
OERR 111800Z 31010KT 9999 SCT030 06/06 Q1024 NOSIG=
OERY NIL=
OESH 111800Z 35007KT 9999 SCT040 SCT090 23/07 Q1018 NOSIG=
OESK 111800Z 31003KT 9999 SCT030 07/01 Q1025 NOSIG=
OETB 111800Z 01006KT 9999 SCT040 11/02 Q1024 NOSIG=
OETF 111800Z 05005KT CAVOK 12/03 Q1023 NOSIG=
OETR 111800Z 32004KT 9999 SCT030 04/03 Q1023=
OEWD 111800Z 15010KT CAVOK 17/12 Q1020 NOSIG=
OEWJ 111800Z 35006KT CAVOK 19/10 Q1022 NOSIG=
OEYN 111800Z 27008KT CAVOK 20/08 Q1018 NOSIG=
0000176900
618
SASD20 OEJD 111800
METAR OEAB 111800Z 19004KT 9999 SCT015 12/11 Q1027 NOSIG=
METAR OEAH 111800Z 32008KT 9999 FEW050 BKN100 15/11 Q1021 NOSIG=
METAR OEAO 111800Z 35008KT CAVOK 15/00 Q1024=
METAR OEBA 111800Z 34004KT CAVOK 13/12 Q1023 NOSIG=
METAR OEBH 111800Z 30006KT CAVOK 15/08 Q1022 NOSIG=
METAR OEDF 111800Z 29007KT CAVOK 14/09 Q1021 NOSIG=
METAR OEDM 111800Z 03008KT CAVOK 10/02 Q1022=
METAR OEDR 111800Z 29008KT CAVOK 14/10 Q1019 NOSIG=
METAR OEGN 111800Z 00000KT 9999 FEW030 26/20 Q1017 NOSIG=
METAR OEGS 111800Z 33004KT CAVOK 11/06 Q1022=
METAR OEGT 111800Z 18006KT 9999 SCT040 09/01 Q1023 NOSIG=
METAR OEHL 111800Z 33014KT 9999 SCT040 07/01 Q1023 NOSIG=
METAR OEJN 111800Z 33010KT CAVOK 21/06 Q1018 NOSIG=
METAR OEKJ 111800Z NIL=
METAR OEKK 111800Z 35009KT CAVOK 09/09 Q1023 NOSIG=
METAR OEKM 111800Z 24005KT CAVOK 12/11 Q1026 NOSIG=
METAR OEMA 111800Z 33004KT CAVOK 17/M02 Q1024 NOSIG=
METAR OEMK 111800Z 22002KT CAVOK 21/09 Q1018=
METAR OENG 111800Z 03006KT 9999 SCT030 SCT090 17/09 Q1022 NOSIG=
METAR OEPA 111800Z 27006KT CAVOK 08/04 Q1021 NOSIG=
METAR OERF 111800Z 25019KT 6000 BKN040 BKN100 08/05 Q1021=
METAR OERK 111800Z 00000KT CAVOK 11/06 Q1023 NOSIG=
METAR OERR 111800Z 31010KT 9999 SCT030 06/06 Q1024 NOSIG=
METAR OERY 111800Z NIL=
METAR OESH 111800Z 35007KT 9999 SCT040 SCT090 23/07 Q1018 NOSIG=
METAR OESK 111800Z 31003KT 9999 SCT030 07/01 Q1025 NOSIG=
METAR OETB 111800Z 01006KT 9999 SCT040 11/02 Q1024 NOSIG=
METAR OETF 111800Z 05005KT CAVOK 12/03 Q1023 NOSIG=
METAR OETR 111800Z 32004KT 9999 SCT030 04/03 Q1023=
METAR OEWD 111800Z 15010KT CAVOK 17/12 Q1020 NOSIG=
METAR OEWJ 111800Z 35006KT CAVOK 19/10 Q1022 NOSIG=
METAR OEYN 111800Z 27008KT CAVOK 20/08 Q1018 NOSIG=
0000008600
619
SASD32 OEJD 111800
METAR OETF 111800Z 05005KT CAVOK 12/03 Q1023 NOSIG=
0000031600
620
SMGY01 SYCJ 111800
AAXX 11180 
81001 11564 10905 10284 20219 4//// 60001 70500 81202 333 30/// 56209
57841 5//// 81822=
81002 11563 60404 10290 20203 40126 69901 70581 85272 333 30/// 56299
57851 58017 85822 83360=
81005 NIL=
81006 NIL=
81010 NIL=
81058 NIL=
81080 NIL=
81100 NIL=
0000024100
621
SOAT10 KWAL 111808
FA8005BC 011180837 OT12 ID:KN-BASS-01 DT:2014 01 11 18 06
:RD -3104 -3115 -3170 -3080 -3105 -3116 -3126 -3115 -3111 -3082
:PR 0491 0605 0496 0511 0513 0548 0550 0593 0500 0570
:B 13.7V
 46+1NN 219E
0000216500
622
SZNZ01 NZKL 111809
CREX++
T000103 A001 D01021 D06025++
-3683144 17478654 AUCT  2014 01 11 18 01 //// 11 07 00 01
05605 3165 05597 3163 05588 3161 05581 3160 05574 3159 05566 3157+
-4402404 -17636748 CHIT  2014 01 11 18 01 //// 11 07 00 01
04534 1996 04524 1990 04553 2022 04550 2022 04527 2002 04538 2016+
-4089929 17623168 CPIT  2014 01 11 18 01 //// 11 07 00 01
03646 2294 03654 2306 03671 2328 03679 2341 03671 2337 03654 2325+
-3618905 17548887 GBIT  2014 01 11 18 01 //// 11 07 00 01
06069 0015 06078 0029 06072 0026 06050 0010 06036 0000 06034 0003+
-3867541 17802288 GIST  2014 01 11 18 01 //// 11 07 00 01
03910 2725 03900 2719 03909 2733 03921 2751 03920 2754 03928 2767+
-4241288 17370277 KAIT  2014 01 11 18 01 //// 11 07 00 01
03012 2262 03006 2261 03002 2261 03007 2271 02991 2259 02996 2268+
-3755040 17815904 LOTT  2014 01 11 18 01 //// 11 07 00 01
03591 0196 03587 0196 03577 0191 03577 0196 03579 0202 03564 0192+
-3704657 17451175 MNKT  2014 01 11 18 01 //// 11 07 00 01
03426 -0080 03409 -0102 03435 -0079 03427 -0091 03425 -0097 03450 -0075+
-3947566 17692007 NAPT  2014 01 11 18 01 //// 11 07 00 01
02872 2084 02864 2081 02863 2085 02857 2083 02832 2063 02837 2074+
-3441483 17304870 NCPT  2014 01 11 18 01 //// 11 07 00 01
-04430 -9296 -04476 -9339 -04459 -9318 -04425 -9281 -04461 -9314 -04443 -9293+
-4581435 17062939 OTAT  2014 01 11 18 01 //// 11 07 00 01
03988 3521 03986 3521 03983 3521 03980 3520 03978 3521 03976 3521+
-2928002 -17789440 RBCT  2014 01 11 18 01 //// 11 07 00 01
06155 2037 06148 2032 06131 2019 06134 2025 06144 2038 06138 2035+
-2925114 -17790384 RFRT  2014 01 11 18 01 //// 11 07 00 01
03074 0165 03044 0138 03071 0168 03062 0162 03041 0145 03071 0178+
-4357010 17277383 SUMT  2014 01 11 18 01 //// 11 07 00 01
01438 1811 01418 1796 01423 1807 01424 1812 01428 1822 01411 1809+
-3764109 17618118 TAUT  2014 01 11 18 01 //// 11 07 00 01
05330 3982 05315 3972 05312 3974 05308 3974 05304 3974 05303 3978+
-4128448 17477985 WLGT  2014 01 11 18 01 //// 11 07 00 01
02845 2046 02831 2035 02826 2034 02816 2027 02821 2036 02810 2028++
7777
0000193200
623
SMOS01 LOWM 111800
AAXX 11181
11010 01661 79901 10029 20017 39816 40202 53004 69902 72162 333
10043 69905 82640 86650=
11012 11358 82205 10038 20021 39720 40196 58001 69902 75052 885// 333
10039
21016 55300=
11022 11558 82402 10038 20027 39782 40173 57008 69912 76062 885// 333
10065
20002 55300 88625=
11035 11960 62502 10058 20044 39925 40180 57004 69902 70262 8603/ 333
10079 21001 86360=
11036 11740 41401 10034 20029 39960 40187 58001 69902 71022 333
10077 81650 84358=
11101 17/// /1203 10065 20056 39700 40227 51011 69912 721// 333 10066
20023
55300=
11120 01870 61602 10039 20033 39505 40221 50013 69902 78082 333
10053 69905 83657 85360=
11126 17/// /2603 11004 21033 37752 48509 53007 69902 721// 333 10031
21015
55300=
11130 16/// /2401 10055 20033 39618 40211 52006 69902 333 10071 20028
55300=
11146 32685 62808 11065 21100 36948 47056 55001 86071 333 11049 86356
91120=
11150 01667 89901 10054 20042 39666 40205 52006 69902 76062 333
10092 69905 82645 86650=
11155 11470 62808 10019 21005 38363 48490 52001 69902 77062 85840 333
10058
20018 55300 82810 84640 91119=
11157 32675 79901 10018 20007 39427 40212 53009 81572 333 10060 81648
85358 85078=
11171 16/// /1102 10011 21003 39173 40203 50006 69902 333 10049 21032
55300=
11190 12660 80901 10055 20042 39957 40181 57002 60002 885// 333 10074
20010
55300 88638=
11204 16/// /1501 11012 21016 39423 40239 53008 60002 333 10042 21054
55300=
11212 31/75 72708 10009 21048 37830 48494 53004 70332 82511 333 10015
816//
84462 91118 444 16199 36072=
11231 31035 83303 10014 20013 39637 40221 53004 71022 333 10027
81701 88702=
11240 32957 72101 10034 20029 39749 40194 51001 333 10053 86365=
11244 16/// /0000 10041 20030 39857 40190 57003 60002 333 10062 20038
55300=
11389 12550 62104 10038 20014 39858 40189 53002 69902 865// 333 10068
21018
55300 86630=
0000017500
624
SMCS01 MROC 111759 RRA
AAXX 11184
78767 11565 71906 10277 20215 30129 40135 58024 69921 71522 82470
333
      10288 20212 32/// 56000 58004 82830 854590=
0000007000
625
UPCD01 FTTJ 111800
PPAA 61171 64700 55185 04011 77999=
00000000