0000013200
346
SMMC23 GMMC 111800 RRA
AAXX 11184
60340 32456 70000 10130 20098 40209 52020 81131
  333 10173 81810 83359 85070=
0000003900
347
SMVC01 ESWI 111800
NIL=
0000003900
348
SMVJ01 ESWI 111800
NIL=
0000040000
349
SMCM01 FKKD 111800
AAXX 11184
64860 32957 70000 10265 20022 39851 40124 80002
  333 10323 58013 87080=
64861 NIL=
64870  12960 70000 10209 20036 38924 48515 60002 80002
  333  10288 58011 87080=
64871 NIL=
64892 NIL=
64893 NIL=
64894 NIL=
64910 31458 60000 10286 20252 30084 40093 70522 84502
  333 10336 58001 84616 86080=
64911 NIL=
64950 NIL=
64851 NIL=
0000068500
350
UDAF02 EGRR 111820
AMDAR 1118
DES EU3803   0644N 00318E 111806 F029 PS232 125/008 TB/ S031=
DES EU3803   0643N 00318E 111806 F026 PS237 142/008 TB/ S031=
DES EU3803   0642N 00318E 111807 F023 PS245 151/010 TB/ S031=
DES EU3803   0641N 00318E 111807 F020 PS255 153/008 TB/ S031=
DES EU3803   0640N 00318E 111807 F017 PS260 161/011 TB/ S031=
DES EU3803   0639N 00318E 111808 F014 PS257 168/011 TB/ S031=
DES EU3803   0638N 00318E 111808 F011 PS262 180/011 TB/ S031=
DES EU3803   0637N 00318E 111808 F009 PS270 183/011 TB/ S031=
DES EU3803   0636N 00318E 111809 F006 PS277 188/011 TB/ S031=
DES EU3803   0635N 00318E 111809 F003 PS285 190/010 TB/ S031=
0000011900
351
SMOM10 OOMS 111800 RRA
AAXX 11184
41291 36/70 /0611 10200 20123 30084 40203
333 0E020 10230 58002 =
0000142500
352
SMJP01 RJTD 111800
AAXX 11184
47401 11/70 72909 11087 21165 30141 40156 57002 69951 72688 872//=
47412 11/60 82604 11055 21105 30160 40194 53002 69901 78582 882//=
47420 15/70 /2412 11077 21124 30141 40176 58001 60001=
47426 17/48 /3603 11065 21086 30143 40193 58005 69901 77170=
47582 11/60 70806 11025 21036 30203 40231 58010 60031 78582 873//=
47590 12/65 22203 11025 21060 30181 40237 56009 60001 82300=
47600 17/70 /1906 10010 20000 30229 40238 56013 60021 76760=
47648 12/82 62608 10015 21023 30196 40232 56011 60001 83832=
47662 12/70 33504 10025 21054 30194 40240 58007 60001 82032=
47678 15/70 /2807 10075 20000 30048 40240 56012 60001=
47740 15/63 /0202 10002 21002 30216 40252 56012 60001=
47778 15/70 /0405 10044 21020 30170 40257 57009 60001=
47807 12/65 21302 10021 21022 30259 40278 56008 60001 81130=
47827 12/60 73506 10075 21004 30231 40270 56012 60001 8557/=
47843 15/63 /2202 10035 20011 30243 40277 56011 60001=
47893 12/70 63003 10005 21024 30257 40263 58011 60001 81131=
47909 12/65 81902 10125 20093 30242 40252 58011 60001 882//=
47918 12/70 21211 10199 20134 30208 40225 56011 60001 82200=
47936 12/80 21208 10154 20098 30179 40239 58015 60001 81430=
47945 11/70 70607 10165 20085 30219 40244 58015 69901 72162 878//=
47971 11/65 80203 10160 20080 30227 40237 58009 69901 70282 8327/=
47991 16/// /0616 10214 20159 30166 40176 56005 69901=
0000192900
353
SMJP02 RJTD 111800
AAXX 11184
47407 11/15 72607 11079 21094 30001 40183 53004 60071 78588 873//=
47409 11/58 82404 11103 21123 30115 40172 56002 69951 78582 882//=
47418 12980 02811 11074 21147 30129 40181 58008 60001=
47421 17/61 /3109 11043 21095 30152 40197 56003 60011 77177=
47430 11/56 83306 11047 21081 30148 40205 56011 60021 78588 883//=
47570 17/70 /0802 11023 21046 39977 40248 58009 69901 77170=
47575 11/60 71604 11040 21058 30212 40217 58011 60041 72688 8533/=
47584 12/65 20202 11079 21100 30033 40235 58005 60001 82800=
47604 11/60 81703 11001 21005 30234 40241 58012 60011 72688 882//=
47605 11/65 71706 10025 20003 30200 40243 58014 69951 72682 872//=
47610 12/75 62501 11040 21051 39732 40261 58007 60001 86200=
47624 12/70 63107 10000 21066 30099 40244 57007 60001 83501=
47629 12980 23403 11022 21062 30198 40238 58009 60001 80001=
47636 11/60 70504 10028 20002 30187 40258 58008 69901 70282 875//=
47651 13/// /2906 10027 21030 30237 40260 58011 60001=
47655 15/70 /2814 10027 21022 30182 40241 58008 60001=
47675 15/70 /0406 10049 20016 30135 40229 56009 60001=
47741 12/70 73101 10016 20002 30233 40261 56013 60001 872//=
47746 12/60 11205 10007 21012 30242 40262 58012 60001 81500=
47750 17/61 /2503 10006 21001 30233 40262 58011 69901 70060=
47765 12/70 10109 10004 21025 30207 40276 56009 60001 81100=
47772 12965 01201 10015 21021 30159 40264 58011 60001=
47800 15/62 /3403 10007 21018 30270 40275 56009 60001=
47815 12/65 11704 10010 21016 30262 40279 55010 60001 81130=
47817 12/65 61003 10027 21015 30236 40281 57008 60001 81230=
47830 12965 23003 10041 21009 30248 40267 56010 60001 81032=
47887 12960 01002 10011 21021 30231 40275 56010 60001=
47891 12/65 22403 10004 21030 30249 40267 58014 60001 81101=
47895 12970 02502 10010 21022 30256 40264 58012 60001=
47927 12/70 21305 10170 20117 30183 40233 56013 60001 82100=
0000068900
354
UDEU02 EGRR 111820 RRD
AMDAR 1117
LVR EU0902   5459N 01455W 111708 F359 MS657 232/094 TB0 S031=
LVR EU0902   5530N 01607W 111715 F360 MS655 226/095 TB0 S031=
LVR EU0902   5601N 01723W 111722 F360 MS642 224/086 TB0 S031=
LVR EU0902   5632N 01842W 111729 F360 MS642 222/065 TB0 S031=
LVR EU0902   5702N 02004W 111736 F360 MS640 218/058 TB0 S031=
LVR EU0902   5733N 02129W 111743 F360 MS645 214/066 TB0 S031=
LVR EU0902   5802N 02255W 111750 F359 MS645 209/070 TB0 S031=
LVR EU0902   5830N 02424W 111757 F360 MS652 208/076 TB0 S031=
LVR EU0902   5857N 02556W 111804 F359 MS640 203/081 TB0 S031=
LVR EU0902   5923N 02730W 111811 F360 MS630 211/071 TB0 S031=
0000022100
355
SMVS01 VNNN 111800
AAXX 11181
48839 32497 80509 10189 20177 30151 40218 58002 888// 222// 00200 2//// 333 58018 83894 88696=
48826 31796 70702 10175 20163 30082 40220 58007 71022 875// 333 58014 87697=
0000023600
356
SMVS02 VNNN 111800
AAXX 11181
48830 31495 83602 10121 20119 39931 40250 52004 71022 888// 333 58035 83894 88697=
48808 11495 80000 10136 20132 39949 40241 52004 69911 76062 888// 333 58030 83894 88696 96010 9616
0=
0000037300
357
SMVS01 VNNN 111800
AAXX 11181
48870 11497 83203 10224 20207 30168 40175 57010 60061 76086 888// 333 58001 83894 88696 96160=
48877 32798 73404 10245 20192 30158 40163 57010 875// 333 58001 87697=
48887 11798 70902 10246 20214 30128 40134 58012 69901 70262 875// 333 59005 87697=
48920 32598 70207 10258 20243 30123 40126 58013 82100 333 59002 82895=
0000011800
358
SMVS02 VNNN 111800
AAXX 11181
48892 32598 20705 10265 20222 30125 40130 58013 81201 333 58002 81895=
0000063600
359
SMCI01 BABJ 111800 RRA
AAXX 11181
50468 33/// 93204 11267 21332 30061 40296 54000 333 11240=
51243 32/// 93203 11196 21229 39792 40399 57017 333 05903
11139=
51288 32/// 91803 11141 21253 38378 57016 333 05602 11073=
51463 31/59 90701 11185 21210 39178 40378 57009 71000 333
05858 11053=
51573 33/// 90000 11110 21181 30384 40431 57011 333 05100
11044=
51709 32/// 92702 11097 21133 38745 40425 57005 333 05100
11016=
52983 32/// 90202 11141 21224 38207 57013 333 00453 11027=
54337 42/80 93604 11079 21204 30266 40353 52025 333 10011=
54497 42/58 90701 11087 21102 30276 40295 52010 333 10002=
0000011000
360
SMCI01 BABJ 111800 CCA
AAXX 11181
54401 32/80 93402 11095 21235 39417 40387 52010 333 10003=
0000068100
361
SMCI02 BABJ 111800 RRA
AAXX 11181
57265 33/// 93201 10029 20013 30163 40330 57006 333 10069=
58102 33/// 92201 10034 21038 30261 40310 57007 333 10093=
58221 32/27 93201 10023 20008 30279 40314 54000 333 10070=
58457 11213 93402 10049 20042 30240 40294 57005 60021 78065
333 10062=
58752 31/08 92702 10091 20086 40266 57010 70040 333 10112=
58847 32/60 92702 10127 20095 30148 40251 57008 333 10170=
59134 32/57 92202 10130 20111 30076 40245 57008 333 10200=
59287 31910 93602 10119 20112 30155 40241 52001 72840 333
10221=
59316 32/57 90702 10150 20123 30245 40254 57003 333 10195=
59758 32/55 90403 10185 20173 30140 40217 57006 333 10239=
0000194400
362
SMIR04 OIII 111800
AAXX 11181
40700 12960 03103 10038 21090 30065 40156 52018 60001 333 55071
555 11002 29039=
40723 12660 62903 10022 21089 38948 40204 50000 60001 81476 333
55043 20923 81640 86266 555 11014 29044=
40726 11620 30000 11056 21073 38673 40274 52008 60001 71010 83500
333 55000 83635 555 11059 29088=
40727 11656 61302 11070 21088 38485 40271 50003 60001 71022 82401 333
55050 20574 82640 86070 555 11073 29087=
40734 12960 09901 10056 20047 30170 40145 53002 60001 333 55020
555 10052 29094=
40737 12960 51802 10042 20032 30134 40152 52007 60001 80006 333
55023 21301 85270 555 10038 29093=
40741 12960 41807 10089 21065 39831 40167 57009 60001 80001 333
      55037 84070 555 10036 29033=
40780 12560 51002 10020 20015 38683 40199 52011 60001 85370 333
55/// 20311 82930 83640 85359 555 10018 29097=
40791 12660 70000 10078 21020 39371 40211 56004 60001 83720 333
      55039 83735 87460 555 10040 29050=
40792 12665 60000 10044 21074 38721 40204 58004 60001 82570 333
      55053 82640 84360 555 10004 29042=
40794 11640 83305 10108 20100 30093 40192 53015 60041 76166 8532/
333 55000 82935 83640 88557 555 10104 29095=
40812 11550 80201 10094 20094 39797 40180 52014 60101 76166 8332/
333 55000 20127 83930 83635 88557 555 10094 29100=
40829 12960 79901 10046 20002 39652 40245 53003 60001 87020 333
55034 87459 555 11029 29073=
40833 11657 82302 10120 20117 30166 40198 52014 60021 71098 883//
333 55001 20186 82935 86640 555 10118 29098=
40835 11640 81404 10073 20071 39347 40178 52011 60171 76362 8332/
333 55000 81935 82640 88559 555 10072 29099=
40845 NIL=
40882 11458 80706 10158 20158 30173 40209 51008 69931 76065 8372/
      333 55000 83715 81925 83630 88558 555 10158 29100=
40889 NIL=
40890 NIL=
40893 11558 60000 10192 20068 30209 40215 50003 60001 70521 83306
      333 55058 81925 83630 86269 555 10130 29045=
40897 NIL=
0000011900
363
SMOM66 OOMS 111800 RRA
AAXX 11184
41291 36/70 /0611 10200 20123 30084 40203
333 0E020 10230 58002 =
0000014000
364
SMZA02 FAPR 111200 CCA
AAXX 11124
68322 32982 02605 10378 20052 39139 48548 57008
      333 10379 20151 91012 555 91015=
0000063600
365
SMMO01 MNUB 111800
AAXX 11181
44214 32998 00000 11217 21277 38335 40507 58003=
44231 329// 30000 11199 21271 38786 40453 57002 81044
333 91202=
44259 31997 02102 11263 21314 39437 40455 56003 70240
333 91202=
44277 329// 32904 11227 21303 37835 40544 57009 80003
333 91204=
44288 32899 33602 11149 21243 38219 40444 57010 83070
333 91204=
44292 319// 00602 11248 21278 38797 40520 56003 70400
333 91202=
44304 329// 02702 11261 21292 39089 40482 52001 333
91202=
44354 329// 02804 11145 21214 39217 40431 57003 333
91111 91209=
44373 32999 02301 11191 21249 38616 40459 58013 333
91203=
00000000