0000025200
446
SSVD50 LFPW 111710 RRA
ZZYY 31217 11014 1710/ 704937 052194 22219 00270 10501 20050
21003=
ZZYY 41097 11014 1710/ 714548 061097 22219 00270 10401 20040
21004=
ZZYY 44050 11014 1710/ 746700 056183 22219 00002 10704 20070
21018=
0000010800
447
SSVD50 LFPW 111740 RRA
ZZYY 44050 11014 1740/ 746700 056183 22219 00002 10703 20070
21017=
0000017200
448
SSVF50 LFPW 111550 RRA
ZZYY 62078 11014 1550/ 747239 002787 22219 00069 11102 20110
21009=
ZZYY 62067 11014 1550/ 746833 002295 22219 11102 20105 21010=
0000018000
449
SSVF50 LFPW 111610 RRA
ZZYY 61431 11014 1610/ 143411 004163 22219 00121 10401 20040
21004=
ZZYY 62068 11014 1610/ 748717 003961 22219 00109 10501 20050
21004=
0000017200
450
SSVF50 LFPW 111620 RRA
ZZYY 62078 11014 1620/ 747239 002787 22219 00068 11102 20110
21009=
ZZYY 62067 11014 1620/ 746833 002295 22219 11002 20099 21009=
0000017200
451
SSVF50 LFPW 111635 RRA
ZZYY 62066 11014 1635/ 743532 001615 22219 00129 11002 20100
21008=
ZZYY 62064 11014 1635/ 744653 001447 22219 10902 20090 21012=
0000053200
452
SSVF50 LFPW 111640 RRA
ZZYY 62074 11014 1640/ 747285 003285 22219 00101 11203 20120
21016=
ZZYY 62079 11014 1640/ 743403 001674 22219 00128 11102 20110
21009=
ZZYY 62069 11014 1640/ 748290 004968 22219 00109 11204 20120
21022=
ZZYY 61431 11014 1640/ 143411 004163 22219 00120 10401 20040
21004=
ZZYY 62068 11014 1640/ 748717 003961 22219 00109 10401 20040
21004=
ZZYY 61191 11014 1640/ 142917 003125 22219 00127 10401 20040
21003=
ZZYY 62059 11014 1640/ 749695 001620 22219 10501 20050 21005=
0000017200
453
SSVF50 LFPW 111705 RRA
ZZYY 62066 11014 1705/ 743532 001615 22219 00128 11002 20100
21009=
ZZYY 62064 11014 1705/ 744653 001447 22219 11003 20100 21013=
0000046000
454
SSVF50 LFPW 111710 RRA
ZZYY 62074 11014 1710/ 747285 003285 22219 00101 11203 20120
21016=
ZZYY 62079 11014 1710/ 743403 001674 22219 00128 11102 20110
21010=
ZZYY 62069 11014 1710/ 748290 004968 22219 00109 11304 20130
21021=
ZZYY 62068 11014 1710/ 748717 003961 22219 00109 10401 20040
21004=
ZZYY 61191 11014 1710/ 142917 003125 22219 00127 10401 20040
21003=
ZZYY 62059 11014 1710/ 749695 001620 22219 10501 20050 21005=
0000010800
455
SSVF50 LFPW 111735 RRA
ZZYY 61188 11014 1735/ 142490 003168 22219 00123 10401 20040
21003=
0000010800
456
SSVF50 LFPW 111805 RRA
ZZYY 61188 11014 1805/ 142490 003168 22219 00123 10401 20040
21003=
0000023800
457
SWVD12 LFPW 111800
MMXX 41300 11014 1800/ 71551 05728 00011 15400 20287 30090
11130 0005/ 1024/ 30/// 14054 11174
22227 12507 10001 30813 52931 70024 92822 11415 30608
50504 70610 90404 10203 30203 50202 70101 90001=
0000005100
458
SMBZ35 SBBR 111800
AAXX 11184
NIL
0000033200
459
SMBZ33 SBBR 111800
AAXX 11184
83437 NIL=
83550 31597 6//// 10308 20235 30121 40150 70211 83204 333 58023=
83552 NIL=
83565 NIL=
83579 NIL=
83592 NIL=
83623 NIL=
83630 NIL=
83676 NIL=
83698 32999 00506 10320 20218 30124 40138 56008=
83702 NIL=
83704 NIL=
83716 NIL=
83726 NIL=
83738 NIL=
0000005100
460
SMBZ31 SBBR 111800
AAXX 11184
NIL
0000044000
461
SMBZ32 SBBR 111800
AAXX 11184
82586 NIL=
82678 NIL=
82784 NIL=
82791 NIL=
82983 NIL=
83096 32695 30903 10295 20235 30135 40142 83100 333 58012=
83186 32597 51406 10299 20161 39576 40099 84200 333 58029=
83236 NIL=
83242 21497 71802 10287 20216 39628 40115 70262 87700 333 58015 60011=
83288 32598 62302 10319 20217 39613 40095 84125 333 58017=
83344 32598 71404 10250 20180 39177 4//// 87260 333 58018=
0000038600
462
SMBZ36 SBBR 111800
AAXX 11184
82143 NIL=
82599 32570 51212 10288 20210 30056 40116 85100 333 58010=
82824 32570 63003 10267 20216 30014 40116 87440 333 58030=
82899 21340 71012 10244 20236 30113 40125 76022 882// 333 58012
 60021=
83117 NIL=
83248 32470 61609 10296 20230 30116 40138 83230 333 58017=
83746 32570 10804 10372 20172 30101 40111 5026 81500=
0000005100
463
SMBZ34 SBBR 111800
AAXX 11184
NIL
0000014600
464
SMAK20 KWBC 111800 RRA
AAXX 11184
70251 11258 80000 11089 21100 39753 49890 56008 69901 710// 91753
333 11072 21089 555 91118=
0000062000
465
SMAK31 KWBC 111800 RRA
AAXX 11184
70232 35966 00000 11190 21240 39888 57014 91756 333 11150 21190
555 91118=
70267 31224 82103 11244 21272 39485 49997 58011 710// 91753 333
11189 21250 555 91118=
70271 17632 80000 11150 21172 39305 49908 56004 69901 771// 91753
333 11122 21161 96010 555 91118=
70321 32366 63612 11100 21110 39840 91745 555 91118=
70333 35666 80207 10020 21030 39766 57027 91756 333 10030 21029
555 91118=
70340 32966 00110 11117 21122 39817 49879 56024 91753 333 11067
21117 555 91118=
70343 32558 82504 10010 20000 39844 57010 91756 333 10020 20000
555 91118=
00000000