0000045000
406
SXXX32 EUMS 111816 RRA
1227146C
:PRS 1 /1 2807 2811 2812 2812 2812 2815 2820 2820 2820 2821 2824 2828 2835 2838 2840 2843 2848 2851 2856 2856 2862 2866 2871 2876 2880 2882 2886 2889 2892 2893 :RAD 3 /3 2800 2809 2807 2812 2824 2837 2846 2867 2869 2879 2890 2898 2903 2920 2931 2940 2948 2966 2968 2980 :ENC 1 /5 3556 3565 3581 3598 3619 3636 3649 3665 3685 3703 3720 3738 :SW1 17 /60 0 :SW2 47 /60 60 :BAT 14 /15 12.1 :NAME 1227146C
0000066100
407
SMGB01 GBYD 111800
AAXX 11184
61701 32960 43108 10247 20163 40110 80002
  333 10278 58003 84072=
61705 32960 00000 10290 20176 4//// 80000
  333 10306 5////=
61707 32960 00000 10300 20145 4//// 80000
  333 10320 5////=
61711 32960 40906 10260 20165 4//// 80002
  333 10310 5//// 84074=
61712 32960 23206 10300 20110 4//// 80002
  333 10315 5//// 83071=
61717 32960 03605 10315 20097 4//// 80000
  333 10320 5////=
61721 32960 03602 10315 20050 4//// 80000
  333 10325 5////=
61722 NIL=
61731 32960 00905 10319 20119 4//// 80000
  333 10335 5////=
61733 32960 03602 10325 20101 4//// 80000
  333 10345 5////=
0000011100
408
UANT99 KDDL 111817
ARP AAL121 5401N01608W 1817 F320 MS57 213/75 KT
N191AN DDL BLY 111817 F15A
0000011000
409
UANT99 KDDL 111817
ARP BAW297 5557N01944W 1817 F360 MS63 212/81 KT
GCIVY QXT AOE 111817 F04A
0000012300
410
SAWD01 OEJD 111800 RRA
METAR UUEE 111800Z 28008MPS 3000 -SN OVC013 M02/M04 Q0994 75720145
25720145 NOSIG=
0000009400
411
SMST01 EGRR 111800 RRA
AAXX 11184
88878 46/// /2917 10111 20050 40093 52006=
0000013400
412
SMMS01 WMKK 111800 RRD
AAXX 11184
96481 11459 70202 10231 20221 30080 40099 60041 76166 8487/ 333 82817 84625 86466=
0000164300
413
SMRA10 RUHB 111800
AAXX 11181
30372 41993 20000 11455 21478 39465 40521 57005 74444 80001=
30433 41698 80503 11245 21277 39757 40418 58009 78582 84932=
30554 429// 80000 11377 21399 39213 40489 57005 80002=
30635 428// 81202 11233 21265 39778 40410 57006 86052=
30673 42999 00000 11363 21390 39544 40437 58002=
30692 NIL=
30758 41958 60000 11328 21351 39520 40465 58008 70511 80001=
30802 42799 63302 11152 21203 38766 48539 58002 81531=
30823 42999 63101 11232 21244 39717 40421 58001 80005=
30879 42999 30000 11321 21350 39564 40434 52002 80001=
30935 42999 30000 11228 21240 39398 40429 58003 80001=
30949 42999 20000 11281 21298 39228 40458 58004 82040=
30965 419// 01201 11389 21406 39513 40489 58002 71000=
31168 41996 82504 11237 21285 30146 40157 53014 77173 8802/ 333 91110
91111=
31285 41999 82501 11305 21336 30159 40248 53005 72272 80007=
31300 42984 80201 11245 21321 39953 40273 54000 82032=
31329 42999 20000 11394 21416 39509 40286 54000 80002=
31369 41494 82708 11222 21247 30012 40103 53002 78683 8592/ 333 85919
91013 91113=
31416 41998 80000 11326 21362 30080 40185 52002 77172 85027=
31484 42/// /2503 11280 21340 39831 40204 52005=
31512 429// 02903 11251 21307 30102 40286 54000 333 91110=
31538 42998 82202 11319 21344 39757 40252 53002 80001=
31561 42998 02201 11366 21404 30169 40198 52005=
31683 42999 00000 11330 21360 30085 40169 53004=
31707 42998 02701 11277 21315 30158 40263 58002=
31733 42999 01803 11298 21328 30119 40202 53005=
31735 42997 02406 11290 21347 30107 40207 53002=
31770 31770 42984 02502 11243 21308 30126 40159 53006=
0000003800
414
SMVD12 RUHB 111800
NIL
0000376200
415
SMRS10 RUMS 111800
AAXX 11181
26894 11562 82906 10013 21022 39825 40042 52018 69992 70282 8595/ 333
10028 91010 91112=
26898 11597 72806 10011 21021 39783 40049 52025 60032 70282 87500 333
10021 87631 91112=
26976 12562 72503 10021 21022 39897 40080 52013 60002 87500 333 10037
87632=
26997 12965 62704 10018 21023 39850 40070 52021 60002 86030 333 10047
91115=
27595 41395 81802 10000 21004 39761 49907 57004 77372 8872/ 333
88507=
27612 114// 83002 11019 21030 39759 49955 52027 60022 77187 8671/ 333
10024=
27707 11445 72804 10004 21006 39716 40007 52021 60012 78582 87900 333
10014 85918=
27719 11997 72504 10004 21017 39720 49972 52021 60012 70282 87030 333
10018 91114=
27785 41397 82103 10013 20003 39776 49934 52015 72272 8572/ 333
85708=
27817 11562 82706 10009 21008 39759 40005 52022 69992 70282 883// 333
10021 91010 91110=
27848 41496 82605 10008 21003 39772 49946 52018 76162 8872/ 333 88711
91110=
27857 41496 82704 10009 20004 39781 49942 52007 76162 8802/ 333
88510=
27906 11597 81508 10015 21013 39786 40027 52022 60012 70282 883// 333
10031 91012 91114=
27928 41497 72804 10012 20004 39798 40004 52028 72622 82350 333
91112=
27930 41560 72607 10017 21011 39770 49986 52019 70282 87500 333 91010
91112=
27935 41596 82603 10014 21008 39777 49970 52018 71066 885// 333 88630
91110=
27947 41397 82505 10014 20003 39806 49965 52019 77176 8872/ 333 88709
91010 91111=
27957 41497 82504 10011 20000 39758 49964 52016 70276 886//=
27962 41396 82405 10005 20000 39735 49946 52005 77176 8872/ 333
88508=
27983 41464 81903 10014 20000 39836 49964 52016 70272 886// 333
88712=
27995 41571 82004 10015 20003 39921 49981 52019 70276 885// 333
91110=
28506 41996 81606 10001 21004 39834 49946 57019 77172 8802/ 333 91010
91111=
28704 41498 81908 10004 21006 39845 49940 55001 72376 8802/ 333 88515
91011 91116=
28711 41294 81709 11008 21014 39598 49969 57019 77373 8872/ 333 88504
91014 91116 92982=
34003 12498 82806 10014 21021 39721 40028 52017 69902 886// 333 10026
91011 91115=
34009 11597 82805 10014 21031 39747 40052 52019 69942 70282 885// 333
10028 91011 91114=
34013 11598 72706 10022 21012 39799 40019 52024 60022 70276 87500 333
10030 91012 91112=
34047 41997 82706 10014 21005 39812 49993 52019 70262 8801/ 333
91112=
34109 12597 82603 10022 21015 39834 40070 52019 69962 885// 333 10041
88631 91110=
34110 12597 82607 10017 21027 39780 40057 52020 69942 8535/ 333 10035
91010 91113=
34123 41456 82706 10023 20001 39820 40003 52030 70262 885// 91012
91113=
34139 41496 82507 10018 20010 39787 40024 52020 76162 8872/ 333 88713
91011 91114=
34146 41596 72604 10023 20004 39872 40002 52021 71062 87500 333
91113=
34152 41484 82505 10017 20004 39800 49991 53013 70262 887// 333 85710
91110=
34163 41997 82206 10016 20004 39744 49992 52010 76166 8802/ 333 91010
91112=
34171 41460 62307 10024 20008 39797 49987 52007 72686 86300 333 84712
86926 91010 91111=
34186 41378 82208 10010 20000 39876 40012 52006 70272 8802/ 333 88507
91010 91112=
34202 12597 82906 10023 21020 39804 40081 52015 60012 883// 333 10040
91112=
34231 41598 72104 10033 21002 39892 40034 52020 70282 87900 333 87921
91110=
34238 41497 82606 10016 20005 39825 40016 52019 72165 8471/ 333 91011
91111=
34247 41497 82707 10033 20012 39928 40041 52017 76162 8872/ 333 85710
91011 91112=
34336 41598 82504 10039 20002 39957 40060 52018 70282 8331/ 333
91110=
34391 42997 82207 10017 20003 30018 40045 52004 8802/ 333 91111=
35011 41443 82008 10009 20000 39880 40034 55005 77172 8802/ 333 88510
91013 91114=
35121 41497 81909 10005 21002 39935 40081 57018 77873 885// 333 86712
91013 91114=
0000408500
416
SMRS11 RUMS 111800
AAXX 11181
20107 11297 82803 11000 21048 30020 40115 52008 60002 70282 886// 333
10001 85706 91007 91110=
22003 41499 72102 11066 21078 30166 40180 52002 72683 87900 333
91004=
22004 11984 00000 11206 21233 30071 40197 53004 69932 70281 333 11187
93508=
22100 12/99 20000 11380 21423 30053 40223 5//// 60002 333 11300
21382=
22140 11597 70812 11106 21128 30139 40155 52004 60002 73632 87500 333
11090 91016 91118=
22113 11358 21904 11267 21300 30116 40187 56006 60002 71011 82600 333
11266 91006 93542=
22193 42997 00905 11211 21229 30199 40210 55003=
22212 11464 70000 11189 21217 39998 40176 54001 69902 77172 84770 333
11189 84714 93510=
22213 12584 71801 11238 21261 39974 40158 54000 60002 81501 333 11238
91002 93503=
22217 12984 83001 11158 21181 30113 40147 54001 60002 80008 333 11150
91003=
22235 11982 70704 11153 21179 39933 40142 52003 60002 73632 82031 333
11150 91010 91111=
22249 11999 60605 11157 21181 39933 40134 54001 60002 73632 80030 333
11154 91011 91113=
22312 11507 80408 11112 21172 30100 40123 54001 60002 73632 885// 333
11111 91015 91116=
22334 43/// /0413 11132 21159 30072 40079 55001 333 91019 91119=
22349 11/91 /0517 11129 21140 30060 40072 52005 60052 73933 333 11127
91021 91124=
22361 NIL=
22383 42997 80706 11256 21295 30121 40140 57006 80007=
22408 11484 80204 11135 21170 39917 40075 57005 60002 73631 8433/ 333
11135 91110=
22429 11293 80507 11083 21096 30004 40013 52003 77373 8872/ 333 87703
91014 91117 92982=
22456 41996 80703 11165 21182 39949 40042 54001 77172 8801/=
22481 41496 80605 11203 21239 30025 40077 57006 77173 8872/ 333 85712
91111=
22546 41996 80504 11149 21168 39996 40006 53001 77172 8802/=
22602 11475 70104 11134 21161 39805 40042 52005 69932 73671 87500 333
11120 87616=
22619 11481 80205 11104 21140 39836 40003 52002 69922 73683 885// 333
11101 88617 91010 91114=
22638 41497 70306 11158 21200 39745 49983 5//// 77173 86470 333
11165=
22671 41896 80305 11122 21140 39892 49974 57003 77173 8802/=
22721 11497 23401 11130 21157 39884 49990 54000 69932 78581 82900 333
11127 93604=
22749 41496 80204 11136 21152 39802 49932 52006 77173 8872/ 333
88710=
22802 12984 83303 11095 21125 39981 40005 52007 60002 8805/ 333
11071=
22820 11460 83403 11130 21143 39841 49986 52008 60022 77072 885// 333
11123 88610 93703=
22869 41396 70502 11014 21015 39723 49870 52001 77177 85510 333
84708=
22876 41996 80805 11025 21025 39822 49896 57002 77187 8802/=
22889 41496 80906 11030 21035 39826 49912 57006 77173 8872/ 333 91110
92982=
22951 41258 83402 11103 21111 39612 49900 52014 77172 8672/ 333
88703=
22974 41296 80902 11002 21005 39696 49860 54000 77372 8677/ 333
86706=
22983 41462 71202 11030 21040 39801 49905 57006 77172 86710 333 91004
91107=
26059 11496 80602 11042 21061 39978 40004 58002 69942 78587 889// 333
11027 86915=
26063 11497 82302 11060 21075 39943 40001 51005 69902 77172 885// 333
11048 88610=
26094 11459 83103 11093 21123 39899 49978 51014 60012 8872/ 333 11021
88717 93402=
26157 11495 80000 11022 21028 39954 40004 58003 69962 78582 889// 333
11014=
26167 12463 83002 11029 21043 39889 40003 52006 69932 886// 333
11027=
26258 11598 81502 11008 21012 39955 40010 58004 69972 70282 889// 333
11004=
26298 11496 82904 11049 21057 39744 49978 52018 60022 71072 886// 333
10009 91111=
26359 11561 72102 11001 21007 39883 40018 58006 60012 78582 87900 333
10004=
26456 11595 82001 11004 21005 39906 40029 58003 60012 77372 8872/ 333
10012=
26702 11496 82303 10048 20026 30027 40054 57019 60032 76186 8872/ 333
10053 91007 91110=
26711 11597 72003 10043 20018 30016 40054 57015 60012 70282 87800 333
10055 91006 91108=
26781 11597 62703 10002 21023 39747 40043 52019 69982 70272 86500 333
10016 86621 91112=
27208 11596 73004 11050 21062 39778 49958 51023 60012 78587 87900 333
10020 91010 91112 93704=
27402 11497 82702 11031 21049 39781 49963 52025 60032 73673 886// 333
10015 88714 91111=
0000253700
417
SMRS13 RUMS 111800
AAXX 11181
22271 42998 00805 11250 21276 30163 40170 50001=
22292 42998 01006 11278 21309 30181 40186 57001 333 91110=
22365 NIL=
22446 NIL=
22520 11492 80308 11077 21084 30012 40021 54001 60032 77373 8802/ 333
11062 88511 91015 91119=
22550 41958 80704 11157 21191 39986 49997 56001 77173 8802/ 333
91111=
22551 41998 80509 11150 21173 30002 40007 54000 73673 86026 333 91013
91113=
22559 41244 80605 11149 21175 39969 49987 50001 77173 8672/ 333 86705
91110=
22573 41356 80203 11168 21202 39936 40031 57007 77177 8872/ 333
88707=
22583 41336 80702 11149 21165 39951 40036 57012 77377 8872/ 333
87708=
22648 41496 83603 11141 21155 39913 49962 52006 77173 8272/=
22656 41995 80307 11123 21139 39930 49952 54001 77373 8807/ 333 91010
91110=
22686 41996 80804 11128 21155 39884 49989 57008 77173 8802/=
22762 41395 80402 11108 21118 39886 49926 54000 77373 8572/ 333
85708=
22768 41295 80405 11084 21094 39844 49901 54001 77373 8572/ 333 85704
92980=
22778 41496 80705 11077 21090 39838 49906 57002 77173 8872/ 333 86710
91110=
22798 41311 80604 11066 21072 39834 49948 57007 77573 8872/ 333
91110=
22845 41395 83403 11136 21156 39766 49929 52012 77373 8872/ 333
86708=
22854 41357 80102 11124 21144 39616 49913 52009 77172 8671/ 333
86709=
22887 41322 81004 11023 21042 39828 49897 58002 78588 889// 333
85707=
22981 41396 81203 11026 21029 39769 49892 53001 77172 8872/ 333
86709=
23205 42998 10501 11347 21382 30184 40200 57006 81030=
23219 32998 20504 11335 21365 30083 40205 57008 80001 333 11396=
23226 41913 00203 11327 21357 39968 40213 58002 70540=
23305 42984 70202 11302 21332 30136 40164 58009 80005=
23418 42965 83502 11291 21322 30059 40142 57005 80007 333 93402=
23518 81996 80103 11277 21306 30015 40117 58008 77172 8807/=
23606 41342 80505 11169 21188 39881 40065 57014 77187 8872/ 333
85707=
23701 41459 80605 11135 21147 39870 40006 57013 77173 8802/ 333
88510=
23711 41496 80602 11125 21136 39887 40064 57011 77172 887// 333
86710=
23804 41396 81203 11049 21057 39809 49955 58008 77173 8872/ 333
86708=
27037 41498 83207 11070 21079 39731 49894 52030 73673 8672/ 333 86710
91011 91114=
27199 41495 81303 11018 21023 39710 49905 57015 77373 8672/ 333 91006
91108=
27271 41495 81501 11004 21004 39716 49869 54000 77172 8872/=
27459 42398 82501 10009 20004 39692 49883 52003 886// 333 91003
91105=
27730 41497 72803 11001 21005 39749 49942 52023 72276 8502/ 333
91111=
0000003800
418
SMVE12 RUHB 111800
NIL
0000126400
419
SMTA10 UTDD 111800
AAXX 11181
38598 429// 00912 11011 21017 40287 57002 333   91016=
38599 31995 00606 11015 21064 39741 40276 57002 71000 333   10037=
38705 429// 50000 11020 21059 39038 48510 53008 80004=
38713 32984 01102 11054 21153 39041 48490 54000 333   10055=
38715 NIL=
38718 429// 20000 11098 21139 48580 52002 80004=
38719 NIL=
38725 429// 20000 11068 21225 48570 52011 80002=
38734 429// 00702 11105 21189 47080 51001=
38744 429// 00000 11176 21210 38093 48630 51003=
38836 329// 30000 11028 21058 39287 40263 58014 80003 333   10102=
38838 429// 80000 11010 21016 39584 40280 52006 80002=
38844 429// 00503 11087 21159 48530 51002=
38846 NIL=
38847 NIL=
38851 429// 81209 11060 21134 48590 54000 80001 333   91115=
38856 429// 00000 11023 21082 48600 51003=
38869 NIL=
38875 NIL=
38878 429// 00000 11203 21252 47140 51004=
38932 NIL=
38933 329// 70000 11001 21019 39726 40258 58017 80002 333   10102=
38944 329// 53403 11012 21037 39638 40192 57003 80001 333   10049=
38947 329// 20701 10003 21027 40261 57004 80001 333   10069=
38951 429// 00904 11036 21173 48620 52002=
38954 329// 30000 11095 21178 38044 48650 52002 80004 333   11001=
38957 429// 00000 11126 21164 47890 52007=
0000005100
420
SMBZ01 SBBR 111800
AAXX 11184
NIL
0000005100
421
SMBZ05 SBBR 111800
AAXX 11184
NIL
0000015500
422
UGIN90 VANP 111800
PPBB 61171 43041 90023 22504 30005 34011 90780 27506 28003=
PPBB 61171 42361 90012 00000 30506 33014 90350 34510 00509=

0000048000
423
SMBZ02 SBBR 111800
AAXX 11184
82392 NIL=
82583 NIL=
82594 NIL=
82683 NIL=
82780 NIL=
82789 NIL=
82795 NIL=
82879 NIL=
82893 NIL=
82979 32498 5//// 10315 20185 39646 40088 83230 333 58005=
82986 32698 61806 10349 20138 39805 40085 86060 333 58002=
83179 NIL=
83192 32597 51414 10336 20151 39951 40113 83240 333 58012=
83339 32497 505// 10263 20167 39150 40100 84230 333 58017=
83498 32595 51409 10294 20245 30129 40124 82202 333 58023=
0000029700
424
SMBZ03 SBBR 111800
AAXX 11184
83384 NIL=
83386 NIL=
83388 NIL=
83393 NIL=
83442 NIL=
83479 NIL=
83483 NIL=
83531 NIL=
83538 NIL=
83574 NIL=
83582 NIL=
83595 NIL=
83687 NIL=
83692 NIL=
83695 32698 21804 10340 20211 30007 40141 57020 82200=
83718 NIL=
0000005100
425
SMBZ04 SBBR 111800
AAXX 11184
NIL
00000000