0000104600
086
SMAU01 AMMC 111800
AAXX 11184
94102 46/// /2014 10290 20264 30045 40054=
94103 46/// /2616 10290 30056 40061=
94120 46/// /1308 10252 20233 30008 40048=
94122 46/// /1304 10280 20256 30039 40047=
94131 46/// /1206 10229 20219 39893 40043=
94132 NIL=
94147 NIL=
94150 46/// /1105 10261 20247 39969 40028=
94151 46/// /1207 10282 20240 30012 4////=
94170 46/// /1404 10248 20244 30028 40050=
94200 NIL=
94203 46/// /2510 10294 20251 30055 40065=
94206 46/// /3502 10303 20205 39925 40053=
94207 46/// /3015 10287 30063 40071 56011=
94211 NIL=
94212 46/// /0000 10274 20176 39582 40044=
94216 46/// /3303 10256 20233 30013 40063=
94236 NIL=
94238 46/// /0804 10262 20195 39652 40065=
94248 46/// /1511 10266 20231 30028 40042=
94255 46/// /2205 10264 20203 39804 40060=
94268 46/// /0905 10246 20236 30049 40061=
94287 46/// /1711 10248 20229 30075 40084=
94290 NIL=
94294 46/// /1407 10253 20220 30090 40100=
94296 NIL=
94298 46/// /1117 10263 30081 40087 56010=
95641 NIL=

0000004100
087
SMNG01 AMMC 111800
NIL

0000035000
088
SMAA01 AMMC 111800
AAXX 11184
89564 45/// /2403 10030 21010 39911 49931 52007=
89570 NIL=
89571 45/// /1207 10057 21056 39879 49908 53008=
89573 NIL=
89610 NIL=
89611 45/// /1706 10001 21005 39864 49916 51013=
89614 46/// /0922 11027 29001 39035 4//// 5////
  333 90700 91129=
89615 NIL=
89807 NIL=
89809 NIL=

0000004100
089
SMSO01 AMMC 111800
NIL

0000086000
090
SMAA80 AMMC 111800
AAXX 11184
61997 06/// /2910 10078 20067 39777 49951 53023 60212
  333 10129 20074 4//// 60007 90710 91137=
61998 16/// /1904 10053 20030 30040 40077 50000 60002
  333 10093 58044 90710 91108=
68994 32598 23007 10083 20056 30032 40061 53014 82500 222// 00075
  333 10127 20077 91009=
89009 41361 40310 11228 36918 53002 77611 84600
  333 84708=
89532 42/60 82903 11010 21023 39917 49944 53003 885//=
89542 NIL=
89564 45/// /2403 10030 21010 39911 49931 52007=
89570 NIL=
89571 45/// /1207 10057 21056 39879 49908 53008=
89573 NIL=
89592 NIL=
89606 NIL=
89610 NIL=
89611 45/// /1706 10001 21005 39864 49916 51013=
89614 46/// /0922 11027 29001 39035 4//// 5////
  333 90700 91129=
89642 40/// /1111 10005 21068 39887 49940 51008=
89762 NIL=
89807 NIL=
89809 NIL=
89813 NIL=

0000004100
091
SMSO03 AMMC 111800
NIL

0000104000
092
SMVE01 AMMC 111800
BBXX
VNSZ 11174 99383 31448 46/// /2321 10161 20124 30176 40202 52014
22223 04188 85139=
C6FS9 11174 99241 31528 46/// /1314 10247 20192 30099 40135 57016
22233 04271 85210=
VNAH 11174 99383 31416 46/// /1708 10154 20112 30188 40212 57011
22200 85129=
VNSZ 11164 99384 31447 46/// /2608 10159 20123 30171 40197 52017
22275 04179 85138=
C6FS9 11164 99240 31526 46/// /1314 10248 20192 30105 40141 57016
22223 04272 85210=
VNAH 11164 99383 31416 46/// /1907 10157 20109 30191 40215 57010
22200 04177 85129=
VNSZ 11184 99380 31449 46/// /1709 10162 20124 30178 40204 52008
22285 04195 85139=
C6FS9 11184 99242 31531 46/// /1314 10248 20174 30101 40137 57010
22233 04270 85198=
VRRC 11184 99027 11310 41/98 83210 10260 20246 40071 76300 8/79/
22272 2//// 80250=
VRRD 11183 99234 31540 41498 51722 10250 20212 40115 55006 70111
82188 22243 04230 20406 318// 40304 80225=
9HA3015 11183 99212 31494 41/98 11116 10262 20237 40110 57011 70200
8//// 22200 2//// 80245=

0000143400
093
SMSD10 OEJD 111800
AAXX 11184
40356 42560 43204 10040 20030 39247 48527 84500 333 10080 58055  55005 84630 555 04410 50251=
40357 42560 43110 10064 20060 39593 40251 84600 333 1093 58072 55/// 84730=
40360 42960 01806 10094 20010 39639 40244 83500 333 10150 58041 55092 83640=
40361 42560 33103 10074 20010 39466 40260 83500 333 10112 58068 55/// 83630=
40362 41656 72519 10083 20050 39691 40221 71000 87470 333 10107 58047 55/// 87640 85360=
40373 42960 02706 10084 20040 39786 40216 333 10150 58037 55///=
40375 42660 40106 10110 20020 39349 40250 84200 333 10152 58039 55060 84840=
40377 42960 03509 10093 20090 39729 40213 333 10154 58048 55///=
40394 42660 33314 10072 20010 39083 48544 83500 333 10112 58054 55075 83640 555 04410 50240=
40400 42960 03506 10186 20100 30190 40218 333 10242 58030 55094=
40401 42960 03508 10145 20000 39523 40238 333 10176 58049 55///=
40405 42960 03304 10110 20060 39470 40228 333 10170 58072 55///=
40416 42960 42908 10142 20100 30178 40198 84030 333 10190 58008 55/// 84358=
40417 42960 22907 10137 20090 30197 40212 82030 333 10184 58019 55/// 82360=
40420 42760 63208 10146 20110 30005 40216 81570 333 10177 58004 55/// 81650 86360=
40430 42960 03304 10170 21020 39495 40228 333 10200 58047 55095=
40435 NIL=
40437 42960 00000 10110 20060 39510 40226 333 10170 58022 55070=
40439 42960 02708 10200 20080 30177 40187 333 10246 58026 55097=
0000009500
094
SAIN90 VANP 111810
METAR VANP 111810Z 05012KT 4000 HZ FEW100 18/13 Q1017 NOSIG=
0000009200
095
SAIN32 VOMM 111810
METAR VOMM 111810Z 07002KT 6000 SCT020 23/19 Q1015 NOSIG=
0000131300
096
FCIN90 VAAH 111800
TAF VAAH 111800Z 1121/1206 02005KT 3000 FU/HZ  
 BECMG 1201/1203 34003KT 1500 HZ/BR FEW025 SCT080 
 BECMG 1204/1206 04008KT 4000 FU/HZ=
TAF VABO 111800Z 1121/1206 02005KT 3000 FU/HZ  
 BECMG 1201/1203 34003KT 1500 HZ/BR FEW025 SCT080 
 BECMG 1204/1206 04008KT 4000 FU/HZ=
TAF VASU 111800Z 1121/1206 02005KT 3000 FU/HZ  
 BECMG 1201/1203 34003KT 1500 HZ/BR FEW025 SCT080 
 BECMG 1204/1206 04008KT 4000 FU/HZ=
TAF VARK 111800Z 1121/1206 02005KT 3000 FU/HZ  
 BECMG 1201/1203 34003KT 1500 HZ/BR FEW025 SCT080 
 BECMG 1204/1206 04008KT 4000 FU/HZ=
TAF VAJM 111800Z 1121/1206 02005KT 3000 FU/HZ  
 BECMG 1201/1203 34003KT 1500 HZ/BR FEW025 SCT080 
 BECMG 1204/1206 04008KT 4000 FU/HZ=
TAF VABV 111800Z 1121/1206 02005KT 3000 FU/HZ  
 BECMG 1201/1203 34003KT 1500 HZ/BR FEW025 SCT080 
 BECMG 1204/1206 04008KT 4000 FU/HZ=
TAF VABJ 111800Z 1121/1206 02005KT 3000 FU/HZ  
 BECMG 1201/1203 34003KT 1500 HZ/BR FEW025 SCT080 
 BECMG 1204/1206 04008KT 4000 FU/HZ=
TAF VADU 111800Z 1121/1206 02005KT 3000 FU/HZ  
 BECMG 1201/1203 34003KT 1500 HZ/BR FEW025 SCT080 
 BECMG 1204/1206 04008KT 4000 FU/HZ=
TAF VAPR 111800Z 1121/1206 02005KT 3000 FU/HZ  
 BECMG 1201/1203 34003KT 1500 HZ/BR FEW025 SCT080 
 BECMG 1204/1206 04008KT 4000 FU/HZ=

0000093800
097
SMSD12 OEJD 111800
AAXX 11184
41024 42960 03310 10210 20060 30164 40184 333 10260 58013 55095=
41030 42960 02202 10210 20090 39900 40176 333 10292 58016 55///=
41036 42960 00505 10120 20030 38599 48546 333 10160 58028 55065 555 04410 50201=
41055 42960 03404 10133 20120 38395 48544 333 10179 58021 55030 555 04410 50202=
41061 42960 01510 10170 20120 39474 40182 333 10240 58026 55080=
41084 42960 03006 10153 20080 38895 48544 333 10210 58024 55080 555 04410 50179=
41112 42460 31904 10118 20110 37976 48549 83500 333 10159 58013 55040 83615 555 04410 50205=
41114 42960 02405 10120 20110 38007 48545 333 10155 58011 55035 555 04410 50199=
41128 42560 60306 10170 20090 38840 48545 83570 333 10270 58015 55025 83630 83359 555 04410 50171=
41136 42660 53507 10233 20070 39344 40151 83530 333 10288 58005 55080 83640 83359=
41140 42560 30000 10260 20200 30161 40173 81430 333 10311 58027 55/// 81630=
0000004100
098
SMNG02 AMMC 111800
NIL

0000016300
099
SMSO02 AMMC 111800
AAXX 11183
91502 11470 40000 10259 20256 40046 56011 60051 71582 84903
  333 56709 84814 81915=
91507 NIL=
91541 NIL=

0000014200
100
SMVS01 VNNN 111800
AAXX 11181
48845 11497 80501 10188 20184 30197 40204 56008 69931 76162 888// 333 58009 85894 88696 96160=
0000232700
101
SMSD20 OEJD 111800
AAXX 11184
40356 42560 43204 10040 20030 39247 48527 84500 333 10080 58055  55005 84630 555 04410 50251=
40357 42560 43110 10064 20060 39593 40251 84600 333 1093 58072 55/// 84730=
40360 42960 01806 10094 20010 39639 40244 83500 333 10150 58041 55092 83640=
40361 42560 33103 10074 20010 39466 40260 83500 333 10112 58068 55/// 83630=
40362 41656 72519 10083 20050 39691 40221 71000 87470 333 10107 58047 55/// 87640 85360=
40373 42960 02706 10084 20040 39786 40216 333 10150 58037 55///=
40375 42660 40106 10110 20020 39349 40250 84200 333 10152 58039 55060 84840=
40377 42960 03509 10093 20090 39729 40213 333 10154 58048 55///=
40394 42660 33314 10072 20010 39083 48544 83500 333 10112 58054 55075 83640 555 04410 50240=
40400 42960 03506 10186 20100 30190 40218 333 10242 58030 55094=
40401 42960 03508 10145 20000 39523 40238 333 10176 58049 55///=
40405 42960 03304 10110 20060 39470 40228 333 10170 58072 55///=
40416 42960 42908 10142 20100 30178 40198 84030 333 10190 58008 55/// 84358=
40417 42960 22907 10137 20090 30197 40212 82030 333 10184 58019 55/// 82360=
40420 42760 63208 10146 20110 30005 40216 81570 333 10177 58004 55/// 81650 86360=
40430 42960 03304 10170 21020 39495 40228 333 10200 58047 55095=
40435 NIL=
40437 42960 00000 10110 20060 39510 40226 333 10170 58022 55070=
40439 42960 02708 10200 20080 30177 40187 333 10246 58026 55097=
41024 42960 03310 10210 20060 30164 40184 333 10260 58013 55095=
41030 42960 02202 10210 20090 39900 40176 333 10292 58016 55///=
41036 42960 00505 10120 20030 38599 48546 333 10160 58028 55065 555 04410 50201=
41055 42960 03404 10133 20120 38395 48544 333 10179 58021 55030 555 04410 50202=
41061 42960 01510 10170 20120 39474 40182 333 10240 58026 55080=
41084 42960 03006 10153 20080 38895 48544 333 10210 58024 55080 555 04410 50179=
41112 42460 31904 10118 20110 37976 48549 83500 333 10159 58013 55040 83615 555 04410 50205=
41114 42960 02405 10120 20110 38007 48545 333 10155 58011 55035 555 04410 50199=
41128 42560 60306 10170 20090 38840 48545 83570 333 10270 58015 55025 83630 83359 555 04410 50171=
41136 42660 53507 10233 20070 39344 40151 83530 333 10288 58005 55080 83640 83359=
41140 42560 30000 10260 20200 30161 40173 81430 333 10311 58027 55/// 81630=
0000114200
102
SMAU02 AMMC 111800
AAXX 11184
94299 46/// /1115 10266 20238 30066 40076=
94300 46/// /2106 10267 20232 30059 40069=
94302 46/// /3505 10252 20188 30069 40075=
94312 46/// /2908 10279 20265 30062 40071=
94313 NIL=
94317 46/// /2303 10244 20031 39500 40068=
94319 46/// /1409 10310 21029 39731 40052=
94324 NIL=
94326 46/// /1207 10284 20061 39495 40094=
94327 46/// /1704 1//// 2//// 39719 40082=
94332 46/// /0711 10296 20167 39683 40058=
94333 NIL=
94341 46/// /0905 10249 20179 39848 40077=
94346 46/// /0809 10246 20188 39889 40104=
94363 46/// /1405 10206 20182 39915 40128=
94366 NIL=
94367 46/// /1509 10253 20201 30068 40109=
94374 46/// /1005 10218 20196 30110 40126=
94388 NIL=
94393 46/// /1120 10254 30088 40100 55003=
94394 46/// /1317 10250 30110 40118 55006=
94403 46/// /3307 10241 20197 30038 40078=
94429 46/// /0000 10344 20040 39646 40094=
94430 46/// /0711 10326 20135 39514 40079=
94449 46/// /0814 10280 20050 39613 40128=
94451 NIL=
94461 46/// /1209 10266 21057 39440 40091=
94462 46/// /1206 10318 20068 39559 40098=
94477 NIL=
94488 NIL=

0000150900
103
SMAU03 AMMC 111800
AAXX 11184
94500 NIL=
94510 46/// /1405 10212 20194 39781 40120=
94515 46/// /3601 10209 20138 39790 40131=
94552 46/// /1205 10156 20134 39686 40144=
94578 46/// /1905 10206 20183 30138 40149=
94584 46/// /1010 10225 20181 30028 40137=
94601 46/// /1018 10217 20197 30093 40110=
94610 46/// /0920 10314 20087 30049 40072=
94637 46/// /0812 10264 20096 39720 40136=
94638 46/// /0409 10165 20140 30136 40168=
94642 NIL=
94643 NIL=
94647 46/// /1110 10186 20153 30078 40187=
94651 46/// /1312 10177 20157 30108 40184=
94653 46/// /1408 10165 20142 30158 40176=
94659 46/// /1715 10222 20106 39955 40145=
94672 46/// /1608 10170 20125 30177 40187=
94691 46/// /2108 10230 20067 39834 40154=
94693 46/// /1709 10195 20073 30109 40170=
94700 NIL=
94703 46/// /1803 10222 20151 30008 40130=
94710 46/// /0000 10207 20096 39887 40133=
94729 46/// /1202 10166 20115 39320 40151=
94750 46/// /2303 10204 20160 30042 40164=
94767 46/// /1809 10213 20196 30155 40161=
94776 46/// /0000 10162 20153 30143 40153=
94791 NIL=
94802 46/// /0710 10177 20165 30058 40139=
94804 46/// /1416 10164 20137 30160 40198=
94807 46/// /1413 10147 20127=
94821 46/// /1711 10141 20117 30130 40212=
94842 46/// /2310 10148 20118 30110 40209=
94847 NIL=
94850 46/// /2311 10139 20114 30155 40200=
94865 46/// /1908 10162 20118 30183 40207=
94866 46/// /1808 10155 20114 30064 40203=
94875 46/// /1912 10158 20103 30024 40155=

0000078400
104
SMTS01 DTTA 111800
AAXX 11184
60715 12560 40000 10137 20096 30192 40199 52014 60002 82142
  333 10209 58007 82823 83360 91000 91109=
60723 12965 50000 10120 20094 30024 40214 53015 60002 81082
  333 10192 81336 85070=
60725 12560 61602 10127 20095 30034 40206 53015 60002 81282
  333 10205 81820 84360=
60735 12962 20000 10151 20069 30129 40201 53015 60002 80002
  333 10229 82070=
60745 12960 32204 10128 20040 39830 40202 53005 60002 80002
  333 10178 83070=
60748 12962 21804 10136 20050 39783 40201 53011 60002 80002
  333 10210 82070=
60750 12960 40000 10130 20102 30177 40202 53011 60002 80002
  333 10189 83070=
60760 NIL=
60765 NIL=
60767 NIL=
60769 12960 30001 10151 20103 30194 40198 53005 60002 80002
  333 10207 83070=
0000158700
105
SMAU04 AMMC 111800
AAXX 11184
94893 46/// /2626 10144 20116 30051 40166=
94907 46/// /2812 10146 20110 30183 40193=
94910 46/// /0704 10199 20104 39891 40134=
94926 46/// /0000 10140 20104 39504 40159=
94935 46/// /2803 10142 20122 30147 40173=
94951 46/// /2614 10156 20093 30122 40137=
94954 46/// /2325 10137 20102 30077 40187=
94956 46/// /2206 10126 20110 30162 40189=
94975 46/// /3311 10152 20063 30109 40141=
94983 46/// /0000 10132 20100 30111 40136=
94995 46/// /0000 10182 20142 30164 40172=
94996 46/// /1008 10186 20135 30023 40151=
94997 NIL=
94998 46/// /2621 10029 20008 39853 49863=
95111 46/// /1802 10252 20221 30015 40051=
95205 46/// /2508 10283 20241 30055 40062=
95322 NIL=
95448 46/// /0810 10308 20029 39553 40099=
95458 46/// /1416 10286 20072 39873 40128=
95480 46/// /1307 10277 20104 30071 40128=
95481 46/// /0806 10251 20073 30072 40115=
95482 46/// /1308 10304 20093 30047 40101=
95485 46/// /0404 10270 20107 39924 40122=
95492 46/// /0703 10259 20162 39974 40124=
95527 46/// /0908 10203 20145 39895 40143=
95634 46/// /0510 10289 20057 39724 40114=
95637 46/// /1406 10197 20143 39804 40130=
95646 46/// /1407 10154 20152 39994 40179=
95666 NIL=
95719 46/// /1305 10195 20150 39816 40138=
95762 46/// /1705 10196 20140 39699 40145=
95826 46/// /1908 10157 30211 40213=
95839 46/// /1505 10118 20094 30031 40187=
95864 46/// /1812=
95909 NIL=
95954 NIL=
95966 46/// /3404 10100 20073 39947 40145=
96995 NIL=
96996 456// 81307 10269 20226 30108 40112 58008=

00000000