0000016000
286
SSVX02 CWAO 111800
ZZYY 56951 11014 1800/ 331204 111360 6113/ 11119 
40125 57001 22219 00213 444 20130 11014 1800/ 50101 80144 80034 
9/015=
0000015100
287
SSVX02 CWAO 111800
ZZYY 26535 11014 1800/ 187314 040439 6113/ 11119 
11132 49996 52001 444 20130 11014 1800/ 50101 80134 80001 9////=
0000013900
288
SSVX02 CWAO 111800
ZZYY 64710 11014 1800/ 174760 000165 6113/ 22219 
00004 444 20130 11014 1800/ 50101 80108 80000 9////=
0000013900
289
SSVX02 CWAO 111800
ZZYY 64727 11014 1800/ 768515 001434 6113/ 22219 
00061 444 20130 11014 1800/ 50101 80138 80003 9/015=
0000013900
290
SSVX02 CWAO 111800
ZZYY 55086 11014 1800/ 334163 172143 6113/ 11119 
40175 52003 444 20130 11014 1800/ 50100 80140 80001=
0000022200
291
SMGY01 SYCJ 111816 RTD
AAXX 11180 
81001 NIL=
81002 NIL=
81005 NIL=
81006 NIL=
81010 NIL=
81058 11565 60605 10294 20246 60001 70511 85272 333 30/// 56299 57881
85823=
81080 NIL=
81100 NIL=
0000016000
292
SSVX02 CWAO 111800
ZZYY 56541 11014 1800/ 355416 150192 6113/ 11119 
49918 52006 22219 00045 444 20130 11014 1800/ 50101 80134 80010 
9/015=
0000016000
293
SSVX02 CWAO 111800
ZZYY 56516 11014 1800/ 355783 116951 6112/ 11119 
40054 52014 22219 00045 444 20130 11014 1800/ 50101 80148 80021 
9/015=
0000014500
294
SSVX02 CWAO 111800
ZZYY 63544 11014 1800/ 179968 005581 6113/ 11119 
40062 52007 444 20130 11014 1800/ 50101 80138 80001 9////=
0000015100
295
SSVX02 CWAO 111500
ZZYY 72514 11014 1500/ 562199 058961 6113/ 11122 
40037 57041 22231 00112 444 20130 11014 1500/ 50100 80106 80001=
0000013900
296
SSVX02 CWAO 111800
ZZYY 64728 11014 1800/ 765174 008707 6113/ 22221 
00028 444 20130 11014 1800/ 50101 80140 80003 9/015=
0000013900
297
SSVX02 CWAO 111800
ZZYY 64712 11014 1800/ 169521 009965 6113/ 22219 
00067 444 20130 11014 1800/ 50101 80132 80005 9/015=
0000021300
298
SNVD20 KWNB 111700 RRW
BBXX
41053 11171 99185 70661 46/// /0908 10265 40180 91650 333 91210
555 11092 22099=
41053 11171 99185 70661 46/// /1008 10265 40182 91640 333 91211
555 11094 22102=
0000038300
299
SNVD20 KWNB 111700 RRV
BBXX
42085 11171 99179 70665 46/// /0909 10261 40172 91730 333 91210
555 11095 22103=
42085 11171 99179 70665 46/// /0910 10261 40173 91720 333 91214
555 11116 22126=
42085 11171 99179 70665 46/// /0911 10252 40176 91710 333 91213
555 11119 22130=
41053 11171 99185 70661 46/// /0908 10266 40176 91710 333 91210
555 11090 22098=
0000027500
300
SXHW11 KWAL 111817
15D142A4 011181702 :PRS 1 #1 1296 1302 1302 1304 1309 1314 1306 1307 1304 1301 :RAD 1 #1 6887 6890 6889 6894 6897 6895 6894 6894 6892 6892 :ENC 2 #5 4795 4795 4792 4801 :SW1 17 #60 0 :SW2 47 #60 0 :BAT 4 #5 12.9 :NAME 15D142A4  34+0NN 216W
0000134300
301
SMGL01 EKMI 111800
AAXX 11184
04211 47/24 /3210 11100 21108 39834 49997 52019 77177
  333 11059 21102 =
04220 07137 71610 11094 21113 39936 49989 52017 69922 77170
  333 11085 21114 55300 20004 69927 83/02 85/04 87/18 =
04221 45684 81024 11106 21190 39952 49990 52023
  333 11089 21122 85/33 87/43 88/50 91027 =
04231 12989 60506 11174 21229 39934 40011 52011 6///2 8603/
  333 11165 21186 86359 =
04234 45984 71003 11111 21172 39975 49986 52013
  333 11068 21119 87/60 =
04241 45/81 /0910 11105 21172 39948 49989 52012
  333 11086 21106 =
04250 05/84 00611 11091 21164 39861 49969 52011 6///2
  333 11073 21095 55300 20047 6///7 =
04254 45984 10709 11097 21182 39865 49983 52011
  333 11075 21099 81/70 =
04260 45/84 /1204 11107 21207 39913 49961 52013
  333 11092 21116 =
04270 45983 70618 11084 21216 39920 49959 57006
  333 11082 21138 85/60 87/62 =
04272 05784 70308 11068 21152 39871 49944 57002 6///2
  333 11067 21105 6///7 81/57 85/59 87/60 =
04312 46/// /2506 11223 21252 39959 40001 =
04320 05/84 02909 11158 21210 30041 40057 52007 60142
  333 11113 21210 55300 20007 69927 =
04339 NIL =
04360 NIL =
04361 47/81 02802 11066 21118 39950 40004 52008 77177
  333 11027 21079 =
04390 05/83 00215 11060 21104 39866 49961 52009 60042
  333 11054 21075 69987 =
0000003900
302
SMVA01 ESWI 111800
NIL=
0000016200
303
SMEO10 EEMH 111800 RRA
AAXX 11181
26045 27557 81502 11025 21034 39992 49995 54001 77177 88///
 333  11011 21025 60017 88/32
 555  21025 51010=
0000016200
304
SMEO10 EEMH 111800 RRB
AAXX 11181
26058 27458 80801 11040 21049 39965 40000 57002 77470 80///
 333  11027 21041 69957 80/15
 555  21041 51024=
0000017400
305
SMEO10 EEMH 111800 RRC
AAXX 11181
26115 27460 70001 11003 21003 39982 49991 57003 78588 87///
 333  10013 21003 69927 87/14
 555  1/100 21003 3/100 50012=
00000000