0000122200
686
SMTH02 VTBB 111800
AAXX 11184
48303 31950 00000 10172 20164 39723 40176 50002 71000 
  333 58010=
48328 31957 00000 10177 20165 39894 40180 57007 71000 
  333 58007=
48330 31940 00000 10177 20167 39978 40170 56002 71000 
  333 58002=
48351 31950 00000 10200 20167 30085 40161 54000 71000 
  333 58001=
48354 32962 40000 10187 20156 39967 40177 56001 83035
  333 58003=
48376 31930 00000 10193 20175 30019 40168 56001 71000 
  333 58003=
48377 31956 00000 10197 20184 39997 40167 52004 71000 
  333 58002=
48379 32960 00000 10195 20170 30009 40145 57002 
  333 59012=
48400 31930 20000 10210 20184 30117 40159 57002 71000 80005
  333 59001=
48432 31956 00207 10216 20170 39988 40160 57003 71000 
  333 58000=
48455 NIL=
48462 31957 00000 10235 20172 30098 40155 57004 71000 
  333 58010=
48475 31958 00000 10252 20193 30137 40144 57004 71000 
  333 58004=
48477 31930 43402 10220 20205 30120 40145 57004 71000 81045
  333 58005=
48517 31550 20000 10235 20220 30132 40139 57009 71000 81105
  333 58000=
48532 32960 20202 10249 20213 30128 40137 57005 80005
  333 58001=
48567 31559 70404 10257 20227 30111 40129 57007 71021 81155
  333 58007=
0000169700
687
SMTH40 VTBB 111800
AAXX 11184
48310 31950 00000 10171 20161 39710 40179 51001 71000 
  333 58009=
48325 31940 00000 10164 20157 39922 40173 54000 71000 
  333 58002=
48329 31950 10000 10172 20157 39833 40182 52009 71000 80001
  333 58020=
48352 31956 61004 10210 20162 39975 40180 52002 71010 86030
  333 58004=
48357 32962 10704 10216 20156 30005 40177 57009 80001
  333 58001=
48380 31940 00000 10203 20187 30067 40163 57001 71000 
  333 58000=
48383 32960 00000 10197 20169 30008 40172 57009 
  333 58001=
48403 31957 30000 10212 20153 39950 40165 57005 71011 80005
  333 58004=
48405 31960 20000 10230 20182 30001 40166 54000 71000 80005
  333 58003=
48420 31958 30000 10240 20179 30139 40143 57003 71011 80005
  333 58002=
48421 31940 20000 10190 20174 30047 40164 51002 71000 80005
  333 58006=
48425 31930 20000 10220 20190 30146 40156 57001 71000 80005
  333 58002=
48426 31958 40000 10220 20171 30140 40154 57002 71011 80006
  333 58002=
48429 32960 30307 10274 20138 30144 40151 57007 80001
  333 58005=
48430 31956 20000 10242 20162 30141 40148 57004 70500 80005
  333 58002=
48450 31950 00000 10215 20183 30120 40154 57002 71000 
  333 58002=
48459 31958 00502 10252 20170 30140 40143 57003 70500 
  333 58000=
48465 31958 23304 10240 20201 30139 40143 57011 71000 80005
  333 58000=
48550 31558 60000 10268 20227 30131 40138 57007 71022 82146
  333 58003 70002=
48552 32460 60000 10250 20237 30139 40146 52001 82206
  333 58012 70092=
48566 32560 60000 10266 20228 30112 40120 57024 82145
  333 59004=
48568 31459 50703 10271 20230 30130 40138 57010 71022 82276
  333 58007 79999=
0000109300
688
SMTH41 VTBB 111800
AAXX 11184
48315 31940 00000 10165 20151 39906 40185 52005 71000 
  333 58003=
48374 NIL=
48382 32960 00707 10203 20182 39988 40169 5//// 
  333 58007=
48385 31940 00000 10156 20133 39633 40168 57003 71000 
  333 59014=
48390 31920 10906 10207 20164 30007 40172 57007 71000 80001
  333 59002=
48402 31958 30000 10215 20191 30136 40156 57003 71011 80005
  333 58000=
48413 31956 20000 10196 20170 30076 40159 57002 71000 80002
  333 58004=
48416 NIL=
48418 32960 00000 10190 20174 30098 40159 56001 
  333 58002=
48434 31956 20000 10199 20176 39933 40158 57007 71000 80005
  333 59002=
48436 31958 20000 10192 20172 39950 40163 57001 71000 80005
  333 58004=
48439 NIL=
48460 NIL=
48461 NIL=
48478 31956 20000 10233 20218 30142 40147 56001 71000 80005
  333 58013=
48501 31950 30000 10263 20185 30126 40130 57005 70500 82031
  333 58001=
48561 32560 50000 10262 20230 30121 40130 57001 82246
  333 58000=
48564 NIL=
48570 32560 60705 10269 20190 30117 40124 57006 82246
  333 58005=
48580 NIL=
0000118600
689
SMTH42 VTBB 111800
AAXX 11184
48302 NIL=
48304 NIL=
48334 31958 00000 10170 20134 39798 40171 57006 71000 
  333 58007=
48360 32960 00000 10184 20160 39913 40181 52005 
  333 58010=
48372 NIL=
48373 31920 20000 10200 20189 30095 40159 52003 71000 80001
  333 58005=
48386 31930 00000 10215 20206 30113 40159 54000 71000 
  333 58001=
48387 31940 00000 10130 20121 39198 40187 57004 71000 
  333 58006=
48408 32960 23502 10205 20172 30008 40161 57007 80001
  333 59001=
48415 31950 20000 10227 20170 30134 40145 57010 71000 80001
  333 58003=
48433 31956 20000 10196 20173 39990 40160 57004 71000 80005
  333 58003=
48437 32960 00203 10204 20164 39952 40166 57001 
  333 59001=
48440 31958 00000 10211 20180 30096 40147 57004 71000 
  333 58003=
48451 NIL=
48454 NIL=
48457 NIL=
48463 NIL=
48464 NIL=
48479 NIL=
48520 31556 50000 10235 20224 30122 40138 57008 71022 82506
  333 59004=
48554 31450 80000 10253 20243 30135 40139 57006 71022 83847
  333 58004=
48563 32560 60000 10245 20223 30097 40133 57005 82236
  333 58012=
48571 32560 40000 10257 20238 30124 40136 57007 82201
  333 58008 70004=
0000143700
690
SMTH43 VTBB 111800
AAXX 11184
48307 31940 00000 10151 20147 39793 40188 51003 71000 
  333 58004=
48324 NIL=
48333 31956 00000 10175 20161 39869 40180 52003 71000 
  333 58004=
48350 31658 40000 10151 20147 39865 40177 57003 71011 84500
  333 58007=
48355 32960 00000 10175 20158 39950 40177 57009 
  333 59006=
48358 NIL=
48384 31956 00000 10192 20167 39968 40164 56002 71000 
  333 58003=
48401 31956 00000 10220 20153 30058 40168 57005 71000 
  333 58005=
48404 32960 00000 10208 20161 39985 40167 57004 
  333 58001=
48409 31958 00404 10212 20173 30013 40164 57004 71000 
  333 58004=
48419 NIL=
48427 31956 20000 10186 20176 30142 40149 57003 71000 80005
  333 58001=
48435 31957 10000 10224 20128 39714 40157 57006 70500 80001
  333 58002=
48453 32960 30000 10237 20197 30120 40123 57029 80005
  333 59020=
48458 32960 20000 10208 20170 30072 40154 57014 80001
  333 59006=
48474 31958 30000 10214 20187 30025 40151 57005 71011 80005
  333 58001=
48481 NIL=
48555 31550 50000 10238 20229 30119 40162 55007 71022 82146
  333 58010=
48556 31558 60000 10245 20230 30118 40134 57006 71022 82506
  333 58008=
48557 31556 60000 10244 20231 30099 40134 57005 71022 83206
  333 58006=
48560 31557 60000 10249 20239 30132 40137 57005 71022 82856
  333 58002 70114=
48574 32560 60000 10245 20232 30106 40135 57006 82146
  333 58010=
48581 NIL=
0000091500
691
SMVD15 KWNB 111800 RRG
BBXX
42060 11181 99163 70632 46/// /0708 10262 40163 56028 91750 22200
00268 10604 20603 310// 40902 70018 333 91210 555 11087 22092
31650 40711 61749 072082 074088 070089 073089 068089 073091 80810
91736=
41046 11181 99238 70683 46/// /1109 10257 20183 40214 58027 91750
22200 00260 10806 20704 3//// 40803 70028 333 91210 555 11091
22096 31705 41011 61749 106085 106084 101090 098088 102087 096092
81010 91654=
44064 11181 99370 70760 46/// /2008 10205 40057 58052 91800 22200
00080 10402 70008 333 91211 555 11091 22099=
44062 11181 99386 70764 46/// /1809 10062 40027 58064 91800 22200
00029 10201 70005 333 91210 555 11098 22107=
44063 11181 99390 70764 46/// /2007 10076 40008 91800 22200 00016
10301 70004 333 91208 555 11075 22082=
44042 11181 99380 70763 46/// /1506 10087 40031 91800 22200 00042
10201 70004 333 91207 555 11067 22073=
0000009500
692
SPIN90 VOTV 111810
SPECI VOTV 111810Z 00000KT 3000 HZ FEW015 26/23 Q1012 NOSIG=
0000029200
693
SMAK01 KWBC 111800
AAXX 11184
70026 NIL=
70133 NIL=
70174 NIL=
70200 NIL=
70219 NIL=
70231 NIL=
70261 NIL=
70267 NIL=
70271 NIL=
70273 NIL=
70308 NIL=
70316 NIL=
70326 NIL=
70340 NIL=
70350 NIL=
70361 NIL=
70381 NIL=
70398 NIL=
70414 NIL=
0000007100
694
SMCA01 KWBC 111800
AAXX 11184
78526 NIL=
78543 NIL=
0000027500
695
SMCA02 KWBC 111800
AAXX 11184
78255 12559 31104 10283 20150 30035 40184 57030 60001 83201 333
10289 20175 83820=
78317 NIL=
78318 NIL=
78325 NIL=
78333 NIL=
78338 NIL=
78348 NIL=
78349 NIL=
78353 NIL=
78360 NIL=
78367 NIL=
78369 NIL=
0000014500
696
SMVD01 KWBC 110000 RRX
BBXX
VRMD7 11004 99362 70379 41/97 43330 10180 20106 40180 52030 70111
 83/9/ 22224 04190 20407 80140=
0000074200
697
SMPA01 KWBC 111800
AAXX 11184
91165 NIL=
91182 NIL=
91190 NIL=
91212 NIL=
91217 NIL=
91285 NIL=
91317 NIL=
91334 32474 60410 10277 20241 30068 40071 56007 82171 333 56199
70030 555 91118=
91348 32474 80410 10276 20215 30020 40073 57007 8417/ 333 5619/
555 91118=
91356 NIL=
91366 NIL=
91369 NIL=
91371 NIL=
91376 32474 80807 10272 20220 30064 40068 53008 83808 333 562/9
70023 555 91118=
91408 11474 80908 10267 20243 30036 40074 57022 60031 70282 83108
333 562/9 70107 555 91118=
91413 32469 80609 10274 20232 30064 40090 57017 83271 333 56199
70005 555 91118=
91425 NIL=
91434 NIL=
91765 11469 53307 10281 20239 30061 40064 51024 69901 70282 83172
333 56799 70086 555 91118=
0000024400
698
SMVD17 KWNB 111800 RRG
BBXX
46077 11181 99579 71543 46/// /0505 10019 49853 56029 91750 22200
00043 11101 3//// 41101 70006 333 91207 555 11047 22048 31749
40707 61749 053046 060039 063037 054040 055038 056037 80506 91749=
0000046600
699
SMKY10 UAFF 111800
AAXX 11181
38353 429// 02301 11038 21131 39357 40294 58002 333 10038=
38613 429// 00101 11065 21120 40317 51003 333 10030=
38616 429// 00000 11061 21084 39242 40310 58002 333 11023=
38345 32998 00000 11073 21122 38834 48513 53011 333 10043=
36911 429// 00902 11050 21099 39300 40308 53010 333 10046=
36974 329// 01102 11206 21239 38037 48628 52007 333 11119=
36982 429// 00402 11241 21297 36542 47226 53003 333 11124=
0000063600
700
SMBC01 FBSK 111800
AAXX 11184
68029 41560 72404 10219 20206 39032 48532 52030 71792 85970
      333 10306 32/// 5///1 55062 85620 81930 83356=
68032 41560 40706 10268 20175 39082 48532 52031 70200 82980
      333 10342 30/// 5///1 55121 82630 81935=
68040 42/60 /0910 10254 20176 39058 48545 52033
      333 10336 20336 5///1 55121=
68148 42560 40510 10247 20179 48548 52037 84980 333 10335=
68151 42560 40311 10270 20179 48531 52035 83980 333 10350=
68234 42560 22304 10290 20114 38825 48522 51025 82400
      333 10360 30/// 5///1 82630=
68325 42660 11805 10297 20101 48520 53020 81400 333 10356=
0000014000
701
SMVC10 EHDB 111800
BBXX
DDSD2 11184 99329 50716 41297 53309 10200 20148 40128 57002 70211
8567/ 22244 00143 20601 80167=
0000017700
702
SNVD01 PANC 111900
BBXX
9V9131 11193 99170 31037
41498 71112 10250 2024/ 40140 54000 7//22 861//
22222 00240 20401 323// 40804 5//// 6//// 80240 ICE /////=
0000036300
703
SMVD10 EHDB 111800
BBXX
DILE 11183 99485 70399 41596 82837 10065 20033 40075 54000 70277
8/8// 22224 00090 20808 329// 40608 80050=
CCES 11184 99101 70564 42597 40714 10280 20239 40125 57021 84100
22232 00280 20402 307// 40705=
PHSG 11184 99085 71321 41/97 80722 10260 20260 40130 52020 72362
88/// 22214 00250 20204 325// 40306 80260=
0000008400
704
SMAK20 KWBC 111800
AAXX 11184
70251 NIL=
70264 NIL=
70341 NIL=
0000017500
705
SMAK31 KWBC 111800
AAXX 11184
70179 NIL=
70194 NIL=
70232 NIL=
70264 NIL=
70267 NIL=
70271 NIL=
70321 NIL=
70333 NIL=
70340 NIL=
70343 NIL=
00000000