0000015700
365
SSVX13 LFPW 111400
ZZYY 44726 11014 1400/ 750015 003046 6113/ 11119 40206 57003 22219
 00115 444 20130 11014 1200/ 50101 80102 80003 9/015=
0000015700
366
SSVX13 LFPW 111400
ZZYY 62556 11014 1400/ 723137 045898 6113/ 11119 40232 52017 22219
 00244 444 20130 11014 1200/ 50101 80076 80002 9/015=
0000015700
367
SSVX13 LFPW 111400
ZZYY 62515 11014 1400/ 751949 007114 6113/ 11119 40202 57003 22219
 00082 444 20130 11014 1200/ 50101 80136 80008 9/015=
0000015700
368
SSVX13 LFPW 111400
ZZYY 62678 11014 1400/ 758400 032742 6113/ 11119 40006 57006 22219
 00076 444 20130 11014 1200/ 50101 80082 80002 9/015=
0000015700
369
SSVX13 LFPW 111400
ZZYY 64616 11014 1400/ 762523 022253 6113/ 11119 40034 52013 22219
 00083 444 20130 11014 1200/ 50101 80148 80008 9/015=
0000015700
370
SSVX13 LFPW 111400
ZZYY 64611 11014 1400/ 760989 022919 6113/ 11119 40033 52010 22219
 00085 444 20130 11014 1200/ 50101 80142 80003 9/015=
0000015700
371
SSVX13 LFPW 111400
ZZYY 44764 11014 1400/ 744085 039321 6113/ 11119 40175 52018 22219
 00126 444 20130 11014 1200/ 50101 80140 80002 9/015=
0000015700
372
SSVX13 LFPW 111400
ZZYY 44775 11014 1400/ 752887 012091 6113/ 11119 40151 57014 22219
 00109 444 20130 11014 1200/ 50101 80106 80005 9/015=
0000328200
373
UDFR01 LFPW 111405
AMDAR 1113
ASC EU3443 4709N 00136W 111348 F000 PS092 /// 164/004 TB2 S031
333 F000 VG056=
UNS EU3443 4710N 00135W 111349 F007 PS075 /// 140/004 TB2 S031
333 F007 VG058=
ASC EU3443 4709N 00135W 111349 F015 PS062 /// 052/010 TB0 S031
333 F015 VG000=
ASC EU3443 4709N 00134W 111349 F022 PS062 /// 060/009 TB0 S031
333 F022 VG005=
ASC EU3443 4709N 00132W 111350 F033 PS037 /// 062/006 TB0 S031
333 F033 VG002=
ASC EU3443 4708N 00130W 111350 F037 PS030 /// 073/005 TB0 S031
333 F037 VG001=
UNS EU3443 4708N 00129W 111351 F040 PS020 /// 030/007 TB1 S031
333 F040 VG016=
UNS EU3443 4709N 00128W 111351 F046 PS007 /// 043/007 TB0 S031
333 F046 VG004=
ASC EU3443 4710N 00126W 111351 F054 PS010 /// 022/011 TB1 S031
333 F054 VG011=
ASC EU3443 4711N 00125W 111352 F066 PS000 /// 031/007 TB1 S031
333 F066 VG027=
ASC EU3443 4712N 00123W 111352 F075 MS014 /// 025/004 TB1 S031
333 F075 VG028=
ASC EU3443 4713N 00121W 111352 F087 MS024 /// 312/004 TB1 S031
333 F087 VG011=
ASC EU3443 4714N 00119W 111353 F098 MS049 /// 357/004 TB1 S031
333 F098 VG019=
ASC EU3443 4715N 00118W 111353 F107 MS064 /// 056/013 TB1 S031
333 F107 VG010=
ASC EU3443 4717N 00116W 111353 F111 MS069 /// 049/012 TB0 S031
333 F111 VG000=
ASC EU3443 4717N 00114W 111354 F116 MS079 /// 057/009 TB1 S031
333 F116 VG007=
ASC EU3443 4719N 00112W 111354 F125 MS099 /// 060/011 TB0 S031
333 F125 VG006=
ASC EU3443 4720N 00110W 111354 F136 MS129 /// 057/010 TB1 S031
333 F136 VG015=
ASC EU3443 4722N 00108W 111355 F144 MS152 /// 086/005 TB1 S031
333 F144 VG016=
ASC EU3443 4723N 00105W 111355 F151 MS167 /// 007/003 TB0 S031
333 F151 VG000=
ASC EU3443 4725N 00103W 111355 F159 MS189 /// 342/004 TB1 S031
333 F159 VG009=
ASC EU3443 4726N 00101W 111356 F168 MS207 /// 277/004 TB1 S031
333 F168 VG009=
ASC EU3443 4727N 00058W 111356 F175 MS222 /// 249/007 TB1 S031
333 F175 VG010=
ASC EU3443 4729N 00056W 111356 F183 MS244 /// 239/010 TB1 S031
333 F183 VG011=
ASC EU3443 4730N 00053W 111357 F191 MS264 /// 245/016 TB0 S031
333 F191 VG001=
UNS EU3443 4732N 00051W 111357 F199 MS282 /// 249/019 TB1 S031
333 F199 VG009=
ASC EU3443 4732N 00048W 111357 F207 MS297 /// 251/024 TB1 S031
333 F207 VG014=
ASC EU3443 4734N 00045W 111358 F214 MS312 /// 262/024 TB1 S031
333 F214 VG013=
ASC EU3443 4734N 00041W 111358 F222 MS332 /// 268/028 TB0 S031
333 F222 VG003=
ASC EU3443 4735N 00038W 111358 F229 MS349 /// 266/031 TB1 S031
333 F229 VG009=
ASC EU3443 4735N 00035W 111359 F236 MS362 /// 264/034 TB1 S031
333 F236 VG008=
ASC EU3443 4737N 00031W 111359 F239 MS372 /// 265/036 TB1 S031
333 F239 VG006=
ASC EU3443 4738N 00028W 111359 F239 MS372 /// 264/037 TB0 S031
333 F239 VG001=
UNS EU3443 4738N 00025W 111400 F240 MS372 /// 267/038 TB0 S031
333 F240 VG001=
ASC EU3443 4740N 00022W 111400 F240 MS372 /// 263/036 TB0 S031
333 F240 VG001=
ASC EU3443 4741N 00019W 111400 F240 MS374 /// 263/035 TB0 S031
333 F240 VG000=
ASC EU3443 4743N 00016W 111401 F240 MS374 /// 263/036 TB0 S031
333 F240 VG001=
ASC EU3443 4744N 00013W 111401 F239 MS374 /// 262/035 TB0 S031
333 F239 VG000=
ASC EU3443 4746N 00010W 111401 F240 MS377 /// 262/035 TB0 S031
333 F240 VG000=
0000384900
374
UKKR02 DKPY 111200
TTBB  61128 47090 00024 02070 11874 08967 22869 09366 33866
08168 44862 09766 55852 10565 66850 10166 77848 08169 88843
06973 99815 09373 11810 08572 22646 17194 33627 18993 44581
22764 55552 24773 66536 26362 77492 30330 88394 40126 99363
44756 11318 47383 22284 49983 33245 50183 44238 47384 55152
50183 66116 56981 77100 55181 88100 55181 21212 00024 27004
11858 28034 22769 31032 33581 26053 44467 27056 55223 26634
66205 26623 77150 26628 88129 26594 99114 27100 11100 26076
31313 45708 81119
=
TTBB  61128 47102 00009 01857 11946 02542 22907 05913 33786
13915 44735 13567 55637 18585 66574 22579 77540 25557 88486
29144 99395 40160 11341 46762 22313 46979 33290 46584 44266
49983 55240 50982 66221 47783 77100 55581 21212 00009 27009
11783 29525 22668 27037 33347 27585 44267 27140 55235 27120
66214 27133 77200 27117 88161 26623 99122 26080 11112 26593
22100 27060 31313 45708 81132
=
TTBB  1112/ 47122 NIL=
TTBB  61128 47138 00029 02262 11912 06157 22882 07759 33870
07959 44858 05379 55805 05798 66651 15968 77630 17773 88588
18965 99558 21949 11536 23733 22498 22716 33439 29741 44418
31762 55399 34746 66366 40135 77352 39965 88266 47383 99200
47783 11154 57380 22139 53781 33108 62379 44100 61179 21212
00029 25005 11874 31020 22661 26022 33537 27544 44495 27577
55365 26089 66304 27133 77277 27140 88251 26627 99222 26652
11188 26655 22145 25631 33128 26141 44127 26140 55100 27093
31313 45708 81122
=
TTBB  61128 47158 00029 00950 11015 02061 22906 06358 33885
05978 44775 07591 55664 11996 66585 18956 77524 19739 88497
21763 99454 26568 11400 34758 22390 33574 33280 45984 44234
48783 55192 47583 66149 58980 77140 57180 88103 66178 99101
66378 21212 00029 36002 11920 33010 22878 35012 33810 27516
44759 28519 55684 25520 66624 28033 77586 27535 88517 27073
99399 27585 11366 28602 22318 27123 33254 26621 44222 26646
55177 26165 66154 27148 77142 26613 88110 26627 31313 52108
81105 61616 11900 33514 22800 27517 33600 28035
=
TTBB  61128 47169 00020 03658 11992 01860 22895 06325 33880
07141 44866 04383 55781 08576 66689 09596 77627 15758 88609
14320 99537 18912 11532 17718 22509 20158 33493 21366 44425
30760 55417 29589 66381 33988 77369 35578 21212 00020 32006
11756 27515 22381 28591 33369 28090 31313 45708 81132
=
TTBB  61128 47185 00021 05058 11015 05858 22965 01256 33937
01131 44902 01564 55812 06770 66800 06367 77779 06398 88755
07369 99742 07756 11728 07530 22710 07912 33688 07519 44574
15901 55554 16114 66544 14348 77514 17560 88492 19163 99440
26566 11435 25777 22363 34777 33349 34577 44333 35987 55308
39386 66290 40186 77215 45984 88205 45184 99169 56581 11115
66378 22100 66178 21212 00021 34010 11783 27011 22494 28066
33416 29570 44367 27077 55248 26150 66188 26155 77149 27144
88115 24603 99100 27085 31313 45708 81134
=
//
005
UEKR01 DKPY 112100
TTDD 1112/ 47058 NIL=
//
002
USKR01 DKPY 112100
TTAA 1112/ 47058 NIL=
//
003
UKKR01 DKPY 112100
TTBB 1112/ 47058 NIL=
//
006
USKR02 DKPY 111200
TTAA  61121 47090 99024 02070 27004 00213 00676 25517 92831
04970 29019 85488 09966 29033 70983 13972 28535 50546 29537
27053 40702 39332 27576 30894 48583 27103 25014 49983 27128
20160 48983 26625 15348 50582 26628 10608 55181 26076 88284
49983 26609 88116 56981 27099 77223 26634 41610 31313 45708
81119
=
TTAA  61121 47102 99009 01857 27009 00235 01656 26510 92856
04323 26510 85515 09705 29518 70995 14971 28031 50547 28136
27057 40704 39560 27075 30896 47384 27618 25016 49983 27630
20162 48383 27117 15351 50182 26112 10611 55581 27060 88341
46762 27589 88266 49983 27140 77267 27140 43217 31313 45708
81132
=
TTAA  1112/ 47122 NIL=
TTAA  61121 47138 99029 02262 25005 00227 00862 26512 92846
05158 /=
0000008600
375
SAYE20 OYSN 111400
METAR OYSN 111400Z 25010KT 9999 SCT030 21/01 Q1025=
0000018300
376
UXIN21 AFHQ 111200
PPAA 61111 00109 NO ASCENT DUE TO THE LACK OF CHEMICAL=
PPAA 61121 42379 NO ASCENT DUE TO LOW CLOUDS=
PPAA 61121 00013 NO ASCENT DUE TO LPG U/S=
0000202300
377
SMIN90 VAAH 111200
AAXX 11124
42921 32996 42904 10260 20024 40114 80001
  333 10279 58001 84075=
43111 32997 12308 10188 20090 38630 48510 80001
  333 10238 58003=
43003 31995 03606 10226 20083 40122 70400
  333 10260 59004=
43014 32996 02504 10260 20082 39468 40106
  333 10272 58015=
43117 32997 00000 10302 20126 40097
  333 10326 58008=
43111 32997 12308 10188 20090 38630 48510 80001
  333 10238 58003=
42921 32996 42904 10260 20024 40114 80001
  333 10279 58001 84075=
43157 32997 12301 10266 20110 39478 40104 80001
  333 10302 58008=
43011 32596 00000 10264 20261 4////
  333 10/// 56000 58///=
43113 32996 22902 10266 20106 39329 40093 80001
  333 10300 58///=
43158 32997 01802 10286 20120 39493 40093
  333 10300 58008=
42851 32997 00501 10282 20151 40119
  333 10285 58016=
43193 32996 00000 10266 20177 40142
  333 10304 58010=
43058 32996 03206 10240 20103 40124
222// 20000
  333 10253 58004=
43110 31996 03204 10252 20141 40131 70544
  333 10274 58013=
43075 32898 02302 10280 20083 39369 40087
  333 10293 58003=
43057 32996 03404 10220 20068 40126
  333 10254 58000=
43117 32997 00000 10302 20126 40097
  333 10326 58008=
43063 32997 12703 10272 20096 39486 40099 80001
  333 10300 58001 81072=
00157 32996 12509 10271 20081 39457 40112 80001
  333 10294 58001=
42925 32997 00000 10232 20081 40117
  333 10259 58011=
43109 31996 03404 10236 20179 40132 70544
222// 21201
  333 10245 58009=
43192 31996 62908 10260 20181 40120 70511 80002
  333 10307 58010=
42634 32997 01602 10214 20118 40179
  333 10230 58029=
43001 32997 23402 10220 20074 40133 80001
  333 10231 58006=
43017 32997 00000 10256 20116 40113
  333 10290 58011=
43009 32996 02301 10260 20136 40114
  333 10312 58009=
43076 32997 21102 10280 20158 40054 81085
  333 10292 58005=
43021 32997 00000 10300 20154 40090
  333 10310 58002=
42638 32996 20212 10206 20125 40166 80001
  333 10229 58024 82085=
0000011000
378
UANT99 KDDL 111404
ARP DLH422 5407N02655W 1404 F350 MS61 184/67 KT
DAIHE QXT AOE 111404 J86A
0000011000
379
UANT99 KDDL 111404
ARP VIR21G 5305N02239W 1404 F360 MS61 204/67 KT
GVGBR DDL XXF 111404 J63A
0000011100
380
UANT99 KDDL 111404
ARP AAL101 5306N02322W 1404 F320 MS58 190/82 KT
N726AN DDL XXW 111404 F48A
0000011000
381
UANT99 KDDL 111404
ARP BAW193 6054N01411W 1404 F350 MS56 264/58 KT
GBYGD QXT AOE 111404 F45A
0000010900
382
UANT99 KDDL 111404
ARP AUA93 5256N03110W 1404 F320 MS53 160/38 KT
OELAE QXT AOE 111404 F37A
0000011100
383
UANT99 KDDL 111405
ARP UAL133 5002N01917W 1405 F310 MS52 197/84 KT
N76064 DDL XXN 111405 F69A
0000383900
384
UKKR02 DKPY 111200
TTBB  61128 47090 00024 02070 11874 08967 22869 09366 33866
08168 44862 09766 55852 10565 66850 10166 77848 08169 88843
06973 99815 09373 11810 08572 22646 17194 33627 18993 44581
22764 55552 24773 66536 26362 77492 30330 88394 40126 99363
44756 11318 47383 22284 49983 33245 50183 44238 47384 55152
50183 66116 56981 77100 55181 88100 55181 21212 00024 27004
11858 28034 22769 31032 33581 26053 44467 27056 55223 26634
66205 26623 77150 26628 88129 26594 99114 27100 11100 26076
31313 45708 81119
=
TTBB  61128 47102 00009 01857 11946 02542 22907 05913 33786
13915 44735 13567 55637 18585 66574 22579 77540 25557 88486
29144 99395 40160 11341 46762 22313 46979 33290 46584 44266
49983 55240 50982 66221 47783 77100 55581 21212 00009 27009
11783 29525 22668 27037 33347 27585 44267 27140 55235 27120
66214 27133 77200 27117 88161 26623 99122 26080 11112 26593
22100 27060 31313 45708 81132
=
TTBB  1112/ 47122 NIL=
TTBB  61128 47138 00029 02262 11912 06157 22882 07759 33870
07959 44858 05379 55805 05798 66651 15968 77630 17773 88588
18965 99558 21949 11536 23733 22498 22716 33439 29741 44418
31762 55399 34746 66366 40135 77352 39965 88266 47383 99200
47783 11154 57380 22139 53781 33108 62379 44100 61179 21212
00029 25005 11874 31020 22661 26022 33537 27544 44495 27577
55365 26089 66304 27133 77277 27140 88251 26627 99222 26652
11188 26655 22145 25631 33128 26141 44127 26140 55100 27093
31313 45708 81122
=
TTBB  61128 47158 00029 00950 11015 02061 22906 06358 33885
05978 44775 07591 55664 11996 66585 18956 77524 19739 88497
21763 99454 26568 11400 34758 22390 33574 33280 45984 44234
48783 55192 47583 66149 58980 77140 57180 88103 66178 99101
66378 21212 00029 36002 11920 33010 22878 35012 33810 27516
44759 28519 55684 25520 66624 28033 77586 27535 88517 27073
99399 27585 11366 28602 22318 27123 33254 26621 44222 26646
55177 26165 66154 27148 77142 26613 88110 26627 31313 52108
81105 61616 11900 33514 22800 27517 33600 28035
=
TTBB  61128 47169 00020 03658 11992 01860 22895 06325 33880
07141 44866 04383 55781 08576 66689 09596 77627 15758 88609
14320 99537 18912 11532 17718 22509 20158 33493 21366 44425
30760 55417 29589 66381 33988 77369 35578 21212 00020 32006
11756 27515 22381 28591 33369 28090 31313 45708 81132
=
TTBB  61128 47185 00021 05058 11015 05858 22965 01256 33937
01131 44902 01564 55812 06770 66800 06367 77779 06398 88755
07369 99742 07756 11728 07530 22710 07912 33688 07519 44574
15901 55554 16114 66544 14348 77514 17560 88492 19163 99440
26566 11435 25777 22363 34777 33349 34577 44333 35987 55308
39386 66290 40186 77215 45984 88205 45184 99169 56581 11115
66378 22100 66178 21212 00021 34010 11783 27011 22494 28066
33416 29570 44367 27077 55248 26150 66188 26155 77149 27144
88115 24603 99100 27085 31313 45708 81134
=

005
UEKR01 DKPY 112100
TTDD 1112/ 47058 NIL=

002
USKR01 DKPY 112100
TTAA 1112/ 47058 NIL=

003
UKKR01 DKPY 112100
TTBB 1112/ 47058 NIL=

006
USKR02 DKPY 111200
TTAA  61121 47090 99024 02070 27004 00213 00676 25517 92831
04970 29019 85488 09966 29033 70983 13972 28535 50546 29537
27053 40702 39332 27576 30894 48583 27103 25014 49983 27128
20160 48983 26625 15348 50582 26628 10608 55181 26076 88284
49983 26609 88116 56981 27099 77223 26634 41610 31313 45708
81119
=
TTAA  61121 47102 99009 01857 27009 00235 01656 26510 92856
04323 26510 85515 09705 29518 70995 14971 28031 50547 28136
27057 40704 39560 27075 30896 47384 27618 25016 49983 27630
20162 48383 27117 15351 50182 26112 10611 55581 27060 88341
46762 27589 88266 49983 27140 77267 27140 43217 31313 45708
81132
=
TTAA  1112/ 47122 NIL=
TTAA  61121 47138 99029 02262 25005 00227 00862 26512 92846
05158=
00000000