0000011100
865
UANT99 KDDL 111359
ARP SVA037 5059N03046W 1359 F350 MS51 191/24 KT
HZAK22 QXT EUA 111359 F70A
0000010000
866
SMAA01 KARS 111200 RRG
AAXX 1112/
89108 46/// ///// 11204 37008 4//// 5//// 91240=
0000113900
867
USIR01 OIII 111200
TTAA  61121 40706
99866 02957 28004 00205 ///// ///// 85510 04742 29002
70035 05571 29017 50560 22732 05516 40721 33942 05011
30915 50558 04014 25031 59558 01533 20169 607// 02018
15349 599// 31024 10602 613// 27024
88223 63159 36030
77999
31313 51808 81138=
TTAA  61121 40745 99903 09272 00000 00150 ///// /////
85501 06675 26503 70068 00563 22512 50567 16562 25036
40730 29959 25033 30930 43169 25069 25050 51362 25077
20192 59760 24591 15371 633// 25091 10622 603// 25572
88197 60360 25096
77183 24600 41109
31313 51808 81206=
TTAA 61111 40754
99884 00011 24005 00/// ///// ///// 92/// /////
///// 85502 02308 25005 70034 06527 30515 50560 22149 20028 40720
35359 21041 30912 52957 22058 25028 55363 22576 20170 59374 22050
15348 60791 23559 10600 62390 25054 88282 55557 22058 88183 62378
23050 77252 22578 42324 77331 22069 41913 31313 45708 =
TTAA 11121 40766 NIL=
TTAA 11121 40800 NIL=
TTAA 11121 40809 NIL=
TTAA 11121 40811 NIL=
TTAA 11121 40821 NIL=
TTAA 11121 40841 NIL=
TTAA 11121 40848 NIL=
TTAA 11121 40856 NIL=
TTAA 11121 40875 NIL=
0000003800
868
UPZW01 FVHA 111200
NIL
0000023800
869
SWVF12 LFPW 111400
MMXX 61002 11014 1400/ 14207 00442 00011 12300 20056 30035
11130 0005/ 1024/ 30/// 14054 11174
22225 19322 10000 30000 50000 70000 90104 10508 31229
51843 73638 95449 19100 39438 55453 75332 92417=
0000013000
870
SAGI32 EGRR 111350
METAR LXGB 111350Z 11006KT 9999 FEW013 FEW025TCU SCT100 16/12 Q1019 TEMPO
7000 SHRA FEW020CB=
0000177700
871
FAUK20 EGRR 111400
AIRMET AREA FORECAST, UK-OUTLOOK-AND-UPDATE,
VALID JAN 11/1500Z TO 11/2100Z.

MET-SITUATION: AT 18Z: A RIDGE OF HIGH PRESSURE BUILDS
OVER CENTRAL UK BUT AN UNSTABLE WNW COVERS AREAS N OF
N5500,  BECOMING CONFINED TO THE N ISLES BY THE END OF
SATURDAY.


OUTLOOK: UNTIL JAN 12/2400Z:

REMAINDER OF SATURDAY:

N OF SCOTLAND: OCNL SHRA OR SHRAGS, ISOL HVY SHRASN OR
TSGS AND SN MON, THESE BECMG CONFINED TO THE N ISLES BY
00Z. SCT OR BKN CUSC AND OCNL CB EXCELLENT VIS, FALLING
RAPIDLY TO MOD OR POOR IN SHOWERS. MOD LCA STRONG W WINDS
BECMG LIGHT S OR SE IN THE W DURING THE EVENING.

ELSEWHERE: OCNL BR/FG FORMING LAN DURING THE EVENING,
ESPECIALLY ENGLAND AND WALES. ISOL SHRA OR SHRAGS SEA COT
N AT FIRST, BUT GEN WELL-BROKEN CUSC AND GOOD VIS. LIGHT,
MAINLY W WINDS, BECMG LIGHT ISOL MOD S OR SE IN THE W BY
00Z.


SUNDAY:

A S FLOW WILL BECOME ESTABLISHED OVER THE UK AS THE RIDGE
OF HIGH PRESSURE OVER THE E MOVES AWAY. AN OCCLUSION WILL
MOVE NE TO LIE FM W SCOTLAND TO LYME BAY BY 18Z, AND FM
THE HEBRIDES TO BIRMINGHAM TO CHERBOURG BY 21Z.

AHEAD OF OCCLUSION: ISOL SHRA OR SHRAGS IN N ISLES DYING
OUT. AREAS BR, FG OR FZFG WILL LIFT INTO EXTENSIVE BKN
LOW ST DURING THE MORNING, BREAKING TO SCT AMOUNTS LEE
MON. MOD OR POOR VIS, BECMG LCA GOOD. LIGHT BECMG MOD S
OR SE WINDS.

OCCLUSION AND 60NM EITHER SIDE: OCNL RA OR RADZ AND HILL
FG. SN MON N FOR A SHORT TIME. BKN OR OVC SC AND ACAS
WITH BKN ST BENEATH. MOD LCA POOR VIS. MOD LCA STRONG S
OR SE WINDS WITH MOD TURB AND MTW, VEERING LIGHT TO MOD
SW ON FRONTAL PASSAGE.

REAR OF OCCLUSION: ISOL SHRA W. SCT OR BKN CUSC WITH ISOL
SCT OR BKN UPSLOPES ST. GOOD VIS AND LIGHT TO MOD SW
WINDS.
0000083400
872
SASA85 EGRR 111400
METAR SBBE 111400Z 07008KT 9999 BKN018 BKN100 28/23 Q1013=
METAR COR SBCG 111400Z 30007KT FEW045 29/19 Q1017=
METAR SBCG 111400Z 30007KT 9999 FEW045 29/20 Q1017=
METAR SBEG 111400Z 01005KT 9999 FEW009 BKN020 BKN070 24/22 Q1015=
METAR SBMN 111400Z 05005KT 9999 SCT011 BKN100 26/22 Q1015=
METAR SBPA 111400Z 30006KT 9999 FEW037 28/20 Q1012=
METAR SBPV 111400Z 00000KT 8000 BKN007 FEW020TCU BKN070 24/22 Q1014=
METAR SBSL 111400Z 07015KT 9999 BKN017 30/20 Q1012=
METAR SBSP 111400Z 35006KT CAVOK 30/17 Q1019=
METAR SBSV 111400Z 11007KT 9999 SCT017 SCT080 29/22 Q1016=
METAR SBTT 111400Z 26002KT 4000 1000SW RA BCFG BKN010 SCT014 BKN100
      2 4/23 Q1015 RERA=
METAR SUMU 111400Z 16015KT 9999 BKN033 21/13 Q1016 NOSIG=
METAR SVMG 111400Z /////KT 9999 SCT010 27/25 Q1016 NOSIG=
0000014400
873
SNVF51 EGRR 111300
BBXX
62095 11134 99529 70156 46/// /1725 10097 20051 40107 58018 22200
00111 10807 70035 333 90710 91134=
0000012800
874
SNVF51 EGRR 111400
BBXX
62001 11144 99452 70050 46/// /0913 10116 20069 40199 58016 22200
00128 11005 70025=
0000012800
875
SNVF51 EGRR 111400
BBXX
62301 11144 99524 70047 46/// /2704 10075 20012 40211 53008 22200
00096 10503 70014=
0000012800
876
SNVF51 EGRR 111400
BBXX
62105 11144 99550 70132 46/// /1815 10086 20015 40143 58011 22200
00107 10908 70039=
0000012800
877
SNVF51 EGRR 111400
BBXX
64045 11144 99591 70117 46/// /2518 10065 20005 40111 52018 22200
00097 10808 70042=
0000012800
878
SNVF51 EGRR 111400
BBXX
62163 11144 99475 70084 46/// /1615 10113 20095 40179 58012 22200
00122 10806 70031=
0000012800
879
SNVF51 EGRR 111400
BBXX
62107 11144 99501 70061 46/// /1308 10095 20033 40209 56006 22200
00106 11005 70024=
0000008900
880
SAIN90 VOBL 111400
METAR VOBL 111400Z 15005KT 8000 NSC 26/12 Q1017 NOSIG=
0000008900
881
SAIN90 VOML 111400
METAR VOML 111400Z 34006KT 6000 NSC 27/21 Q1011 NOSIG=
0000013900
882
WAGG31 UGTB 111355
UGTB AIRMET 1 VALID 111400/111600 UGTB-
UGGG TBILISI FIR SFC WSPD 40KT OBS E OF E04450 AND S OF N4210=
0000014400
883
SNVF51 EGRR 111400
BBXX
62304 11144 99512 10018 46/98 /3118 10081 20028 40201 51023 22200
00103 10501 70004 333 90710 91128=
0000012800
884
SNVF51 EGRR 111400
BBXX
62103 11144 99499 70029 46/99 /0705 10090 20030 40217 58004 22200
00112 10903 70013=
00000000