0000015700
405
SSVX13 LFPW 111400
ZZYY 16533 11014 1400/ 314390 112983 6113/ 11119 40105 52020 22219
 00297 444 20130 11014 1200/ 50101 80126 80037 9/015=
0000015700
406
SSVX13 LFPW 111400
ZZYY 16616 11014 1400/ 549905 163242 6113/ 11119 49954 52010 22219
 00122 444 20130 11014 1200/ 50101 80072 80015 9/015=
0000015700
407
SSVX13 LFPW 111400
ZZYY 44724 11014 1400/ 756282 021688 6113/ 11119 40017 57041 22219
 00103 444 20130 11014 1200/ 50101 80130 80021 9/015=
0000015700
408
SSVX13 LFPW 111400
ZZYY 64520 11014 1400/ 766815 002768 6113/ 11119 40075 52006 22219
 00041 444 20130 11014 1200/ 50101 80140 80019 9/015=
0000209000
409
SNRO41 YRBK 111400
AAXX 11141
15015 22598 82501 10031 21017 39607 42810 57006 885// 333 60005 91003
91104=
15020 22597 80401 10075 21023 39994 40193 57003 8227/ 333 60005 91002
91103=
15090 22997 82902 10089 21040 30103 40196 57003 85077 333 55302 0////
20431
30343 60005 91003 91105=
15108 21/91 92720 11070 21070 38052 48476 52003 74944 333 60005 91028
92722=
15120 22698 70402 10046 20018 39715 40218 56013 81271 333 55301 00143
20311
30259 60005 91004 91104=
15150 22997 43002 10092 21036 39983 40196 54001 82031 333 60005 91004
91105=
15170 22598 72304 10038 21025 39415 42806 57011 85308 333 60005 91007
91107=
15200 21597 81201 10074 20074 30066 40212 56016 72582 8537/ 333 6///5
91001
91102=
15230 22598 72400 10089 20017 39923 40217 56016 87400 333 55301 00123
20376
30343 60005 91001 91102=
15260 22599 60301 10083 21012 39676 40212 55013 86500 333 60005 91002
91102
95000=
15280 21093 62918 11096 21103 37471 47011 56007 74144 84502 333 60005
91024=
15292 22998 73600 10114 20017 39920 40212 56014 87070 333 60005 91001
91103
95000=
15310 22997 41502 10084 20021 30121 40208 57009 82031 333 55307 00168
20604
30562 60005 91003 91103=
15335 22997 63202 10097 21002 30200 40206 57005 80006 333 60005 91004
91104=
15346 22997 21802 10110 21038 39918 40207 56016 80001 333 60005 91003
91104
95090=
15350 22997 32305 10103 21029 30087 40207 55004 80001 333 60005 91008
91110=
15360 22997 61603 10077 20077 30191 40206 57005 80006 333 60005 91003
91104=
15410 22997 20401 10138 20039 30118 40212 56016 82030 333 60005 91002
91102=
15420 22997 22302 10097 20008 30103 40214 56008 81031 333 55310 0////
20818
3//// 60005 91004 91106=
15450 22997 31903 10128 20011 39977 40210 56015 83040 333 55310 00279
20884
30143 60005 91005 91106=
15460 22997 22603 10099 20003 30191 40216 56007 80001 333 60005 91006
91107=
15470 22997 02402 10112 20041 30088 40213 56011 333 60005 91003
91104=
15480 22997 32903 10094 21012 30191 40209 56009 80001 333 60005 91005
91107=
0000150800
410
SNIY20 LIIB 111400
AAXX 11144
16008 42560 81804 10016 21015 38549 48507 56003 887// 333 88720
      92865=
16088 41635 82403 10098 20072 30099 40217 57009 71022 8523/ 333 85645
      83357=
16110 41796 80000 10092 20070 30215 40219 56008 71022 8807/ 333 55300
      83356 86357 555 0000/=
16134 42980 72721 10042 21022 37844 48517 57009 80009 333 55300 92845
      95187 444 78164=
16153 42598 60205 10148 20071 39943 40205 57009 83530 333 55304 83630
      83359 555 0213/=
16206 NIL=
16219 42765 73008 10056 20008 38163 48544 56003 87030 333 55300 87356
      95102=
16280 42497 80000 10122 20096 39990 40213 57011 882// 333 55300 88610
      555 0100/=
16310 42897 70000 10156 20129 39990 40210 57012 83071 333 55310 81357
      555 0100/=
16360 42597 61105 10146 20096 30082 40217 57009 82231 333 55305 83820
      555 0000/=
16400 42498 61209 10158 20125 39930 40218 56006 83130 333 55306 83819
      84359 555 0213/=
16420 42698 52206 10158 20101 30142 40207 57014 82502 333 55310 82633
      555 0215/=
16429 42572 61513 10188 20137 30190 40201 56010 83234 333 55310 83825
      83360=
16470 42968 22013 10180 20141 39960 40193 56016 80001 333 55310 22///
      95000=
16480 42598 22403 10194 20161 30150 40211 56017 82100 333 55310 82820
      555 0100/=
16522 42898 50000 10140 20086 39960 40204 57007 82038 333 55304 82358
      555 0200/=
16550 42598 81504 10146 20108 30030 40209 57021 8622/ 333 55300 83820
      83630 555 0200/=
0000015700
411
SSVX13 LFPW 111400
ZZYY 14525 11014 1400/ 333224 071853 6113/ 11119 40259 57002 22219
 00205 444 20130 11014 1200/ 50101 80150 80015 9/015=
0000015700
412
SSVX13 LFPW 111400
ZZYY 44869 11014 1400/ 728676 024145 6113/ 11119 40187 57013 22219
 00215 444 20130 11014 1200/ 50101 80106 80013 9/015=
0000015700
413
SSVX13 LFPW 111400
ZZYY 31718 11014 1400/ 540694 037457 6113/ 11119 40059 52001 22219
 00165 444 20130 11014 1200/ 50101 80142 80005 9/015=
0000014500
414
SSVX13 LFPW 111400
ZZYY 44551 11014 1400/ 744628 016094 6113/ 11119 40064 57032 444
 20130 11014 1200/ 50101 80106 80015 9/015=
0000015000
415
SNFR30 LFPW 111400 CCA
AAXX 11144
07761 22980 62104 10156 20106 30192 40203 55007 84088
  333 60005 83367 86274 90710 91109 93100=
0000014500
416
SSVX13 LFPW 111400
ZZYY 62686 11014 1400/ 165727 004490 6113/ 11119 40050 57001 444
 20130 11014 1200/ 50101 80094 80005 9/015=
0000015700
417
SSVX13 LFPW 111400
ZZYY 44875 11014 1400/ 732097 029354 6113/ 11119 40267 52093 22219
 00204 444 20130 11014 1200/ 50101 80102 80002 9/015=
0000015700
418
SSVX13 LFPW 111400
ZZYY 41707 11014 1400/ 718221 049254 6113/ 11119 40204 52015 22219
 00256 444 20130 11014 1200/ 50101 80144 80006 9/015=
0000010900
419
UANT01 CWAO 111405
ARP AUA93 5255N03124W 1405 F320 MS53 158/40 KT
OELAE QXT AOE 111405 F39A
0000011100
420
UANT01 CWAO 111406
ARP AAL101 5306N02340W 1405 F320 MS58 186/84 KT
N726AN DDL XXW 111406 F49A
0000015700
421
SSVX13 LFPW 111400
ZZYY 16613 11014 1400/ 342447 080273 6113/ 11119 40135 52006 22219
 00125 444 20130 11014 1200/ 50101 80148 80024 9/015=
0000015700
422
SSVX13 LFPW 111400
ZZYY 64526 11014 1400/ 766066 008443 6113/ 11119 40053 52010 22219
 00023 444 20130 11014 1200/ 50101 80142 80006 9/015=
0000015700
423
SSVX13 LFPW 111400
ZZYY 62680 11014 1400/ 759073 017821 6113/ 11119 40086 52009 22219
 00096 444 20130 11014 1200/ 50101 80132 80013 9/015=
0000015700
424
SSVX13 LFPW 111400
ZZYY 16549 11014 1400/ 346075 064057 6113/ 11119 40127 57020 22219
 00070 444 20130 11014 1200/ 50101 80148 80023 9/015=
00000000