0000013500
205
SNVD02 CWAO 111400
BBXX
SHIP 11144 99538 10093 46/// /2713 10057 20057 40069 56011 7//// 8//// 22222 00063 2//// =

0000013500
206
SNVD02 CWAO 111400
BBXX
SHIP 11144 99453 70660 46/// /1206 10001 21003 40207 58031 7//// 8//// 22200 0//// 2//// =

0000011600
207
UGIN90 VABB 111200
PPBB 61111 43110 90012 31506 31511 30507 9037/ 25504 12507 911//
     35004=

0000010000
208
UXIN90 VABB 111200
TTAA 6112/ 43003
99010 22664 36006 MISDA DUE TO STAFF SHORTAGE=
0000015700
209
WSUR34 UKFV 111404
UKFV SIGMET 6 VALID 111500/111800 UKFV-
UKFV SIMFEROPOL FIR SEV TURB FCST OVER WHOLE
SIMFEROPOL FIR BLW FL100 STNR NC=
0000013500
210
SNVD02 CWAO 111400
BBXX
SHIP 11144 99623 70748 46/// /1712 11208 21251 40084 53005 7//// 8//// 22200 0//// 2//// =

0000013500
211
SNVD02 CWAO 111400
BBXX
SHIP 11144 99429 70824 46/// /2012 10054 20063 49954 58026 7//// 8//// 22200 0//// 2//// =

0000046000
212
SABY31 UMMN 111400
METAR UMBB 111400Z NIL=
METAR UMGG 111400Z 29008G12MPS 9999 BKN029 03/M01 Q1007 R28/290050
NOSIG=
METAR UMII 111400Z 29007G11MPS P6000 BKN017CB 01/M01 Q1001 R23/290150
TEMPO 2000 SHSNRA BKN005=
METAR UMMG 111400Z NIL=
METAR UMMM 111400Z 28005G08MPS 9999 OVC019 03/M01 Q1006 R30/190060
NOSIG RMK QFE735=
METAR UMMS 111400Z 28004MPS 240V310 9999 BKN016 02/M01 Q1006
R31/CLRD// NOSIG=
METAR UMOO 111400Z NIL=
0000013500
213
SNVD02 CWAO 111400
BBXX
SHIP 11144 99433 70798 46/// /1806 10067 20069 49982 56032 7//// 8//// 22200 0//// 2//// =

0000013500
214
SNVD02 CWAO 111400
BBXX
SHIP 11144 99513 70569 46/// /2907 11054 21100 40176 53019 7//// 8//// 22200 0//// 2//// =

0000013500
215
SNVD02 CWAO 111400
BBXX
SHIP 11144 99455 70735 46/// /3504 11016 21018 4//// 5//// 7//// 8//// 22200 0//// 2//// =

0000011000
216
UANT99 KDDL 111404
ARP AFR422 4902N02949W 1404 F320 MS48 205/25 KT
FGLZS QXT AOE 111404 J06A
0000009200
217
SAIQ01 ORBI 111400
METAR ORER 111400Z 00000KT 9999 FEW020 10/07 Q1017 NOSIG=
0000012200
218
SNRE15 FMEE 111400
AAXX 11144
61996 26/// /2413 10140 20084 30191 40226 53006
  333 60005 90710 91125=
0000012600
219
SNDL22 EDZW 111400 RRA
AAXX 11141
10439 42570 62104 10058 20030 39928 40150 56016 81131
  333 81822 83360=
0000045800
220
SNDL44 EDZW 111400 RRA
AAXX 11141
10033 41245 83209 10048 20034 30015 40056 55007 75866 877//
  333 87705 91119 91214=
10037 46/31 /3008 10054 20042 30030 40061 5/013
  333 91114=
10038 41350 82407 10055 20043 30037 40059 57020 75866 877//
  333 87707 91113=
10126 41470 72905 10061 20040 30084 40100 53006 72122 8383/
  333 81813 83645 87358=
10136 41459 73208 10054 20037 30041 40081 55009 72162 875//
  333 83614 87650=
0000039400
221
SNDL45 EDZW 111400 RRA
AAXX 11141
10172 41360 82204 10057 20033 30003 40076 56025 76122 875//
  333 83709 87618=
10238 41558 82003 10053 20037 30009 40104 57019 76162 875//
  333 87621=
10246 41540 82407 10055 20037 39992 40100 57019 76362 8252/
  333 82620 88525=
10304 46/41 /2504 10055 20044 30068 40119 5/001=
10306 46/// ///// 1//// 2//// 3//// 4//// 5////=
0000026000
222
SNDL46 EDZW 111400 RRA
AAXX 11141
10334 46/57 /2407 10060 20033 30026 40111 5/019=
10335 41560 72507 10066 20035 30024 40116 57017 76162 875//
  333 87620=
10343 41570 72304 10071 20023 30041 40105 57023 76162 875//
  333 83625 87630=
0000028600
223
SNDL47 EDZW 111400 RRA
AAXX 11141
10476 42780 32306 10071 20016 30010 40134 57013 81530
  333 81650 83361=
10502 41445 82808 10080 20056 39996 40159 55004 76122 8312/
  333 83812 88522=
10516 42675 42103 10075 20038 30049 40169 56012 83131
  333 83840 83358=
0000025400
224
SNDL48 EDZW 111400 RRA
AAXX 11141
10613 46/60 /2304 10044 20034 39588 40173 5/009=
10618 42770 52205 10053 20039 39726 40183 55002 85500
  333 85650=
10743 41470 82404 10031 20018 39612 40186 55003 72166 888//
  333 81815 88630=
00000000