0000008100
125
UANT01 KWBC 111403
ARP BPA1654 42N 050W 1355 F340 MS50 310/055KT=
0000011000
126
UANT01 CWAO 111403
ARP SWR22B 5101N01948W 1402 F390 MS57 218/60 KT
HBJHD QXT AOE 111403 J17A
0000011100
127
UANT01 CWAO 111403
ARP BER7346 4732N02547W 1403 F390 MS48 216/55 KT
DABXC QXT AOE 111403 J81A
0000011100
128
UANT01 CWAO 111403
ARP RCH317 4832N04525W 1403 F340 MS61 284/47 KT
88196A DDL XXN 111403 F98A
0000011000
129
UANT01 CWAO 111403
ARP FWI510 4859N02021W 1403 F360 MS61 198/84 KT
FGOTO QXT AOE 111403 J17A
0000011000
130
UANT01 CWAO 111403
ARP DAL91 5316N03802W 1403 F360 MS59 276/39 KT
N1501P QXT AOE 111403 F44A
0000011000
131
UANT01 CWAO 111403
ARP DLH428 5101N01933W 1403 F370 MS62 207/77 KT
DAIKP QXT EUA 111403 J38A
0000383700
132
SNFR30 LFPW 111400
AAXX 11144
07005 22484 13010 10085 20043 30117 40208 53018 81201
  333 60005 81816 90710 91116 93100=
07015 22580 13115 10088 20024 30139 40197 53018 81100
  333 60005 81823 90710 91120 93100=
07020 26/// /0405 10097 20041 30198 40225 52001
  333 60005=
07027 22583 13507 10094 20044 30137 40219 53008 81100
  333 60005 81822 90710 91112 93100=
07037 22470 22907 10090 20046 30027 40212 53007 82100
  333 60005 82816 90710 91111 93100=
07072 24970 /2608 10107 20068 30083 40198 53003 700//
  333 60005 90710 91113=
07110 22983 11007 10115 20047 30089 40204 58011 80002
  333 60005 81075 90710 91114 93100=
07117 26/// /0608 10097 20051 30141 40212 58007
  333 60005 90710 91114=
07130 24359 80101 10090 20071 30162 40215 55004 700//
  333 60005 90710 91104=
07139 24362 80303 10078 20069 30040 40216 53002 700//
  333 60005 90710 91105=
07149 22466 63210 10090 20061 30102 40212 53006 8650/
  333 60005 82610 85617 90710 91115 93100=
07168 22570 71803 10092 20068 30064 40208 50001 81831
  333 60005 81825 86075 90710 91107 93100=
07181 24363 82105 10069 20060 39791 40206 53011 700//
  333 60005 90710 91108=
07190 24557 71704 10060 20051 30012 40198 55000 700//
  333 60005 90710 91107=
07207 26/// /0905 10083 20077 30161 40214 58007
  333 60005 90710 91110=
07222 22465 40606 10110 20071 30179 40211 58007 81501
  333 60005 81615 84075 90710 91109=
07240 24359 71302 10101 20073 30077 40213 50000 700//
  333 60005 90710 91105=
07255 22350 83302 10089 20072 30015 40217 53003 887//
  333 60005 88707 90710 91108 93100=
07280 24558 81805 10085 20063 39937 40212 51004 700//
  333 60005 90710 91109=
07299 24565 81804 10083 20052 39882 40213 53007 700//
  333 60005 90710 91107=
07314 26/// /0806 10104 20085 30181 40209 58005
  333 60005 90710 91110=
07335 213// 80402 10097 20080 30065 40211 58003 71022 885//
  333 60005 85706 88615 90710 91104 93100=
07434 224// 81805 10089 20063 39728 40210 58002 886//
  333 60005 88710 90710 91107 93100=
07460 22984 40105 10129 20046 39818 40205 53003 82031
  333 60005 82360 83073 90710 91109 93100=
07471 24970 63402 10100 20041 39234 48819 56004 700//
  333 60005 90710 91104=
07481 22980 71702 10117 20068 39925 40213 53001 8707/
  333 60005 87367 90710 91114 93100=
07510 224// 70403 10125 20095 30146 40204 58005 86601
  333 60005 86615 85076 90710 91107 93100=
07535 24464 82802 10094 20070 39898 40213 56004 700//
  333 60005 90710 91105=
07558 24/70 /1703 10085 20070 39366 40201 56009 700//
  333 60005 90710 91106=
07577 21435 80000 10101 20087 30128 40218 58005 72052 878//
  333 69905 84716 87633 90710 91104 93100=
07591 24/// /2004 10074 20027 39198 4//// 56008 700//
  333 60005 90710 91107=
07607 24465 80000 10139 20093 30132 40203 57007 700//
  333 60005 90710 91103=
07621 24569 80105 10111 20076 39769 40202 55007 700//
  333 60005 90710 91107=
07627 22570 53201 10111 20058 39708 40200 56012 81530
  333 60005 81623 85360 90710 91105 93100=
07630 22570 82402 10120 20075 30026 40207 56008 875//
  333 60005 87630 90710 91105 93100=
07643 22560 80206 10125 20093 30203 40213 56008 885//
  333 60005 85621 88640 90710 91108=
07650 22570 72804 10140 20086 30170 40209 55011 878//
  333 60005 81830 87643 90710 91105 93100=
07661 26/// /1006 10132 20093 30047 40208 56012
  333 60005 90710 91111=
07690 22580 50000 10165 20089 30177 40208 56011 81532
  333 60005 81625 83368 85076 90710 91102 93100=
07747 22570 60607 10138 20090 30149 40202 56012 83131
  333 60005 83825 86076 90710 91111=
07761 24986 82104 10156 20106 30192 40203 55007 700//
  333 60005 90710 91109=
07790 22582 71105 10152 20108 30192 40206 55009 82132
  333 60005 82823 83365 87075 90710 91110 93100=
0000153900
133
SNFR31 LFPW 111400
AAXX 11144
07024 24986 /3607 10082 20032 30051 40219 51002 700//
  333 60005 90710 91113=
07031 24986 /3607 10087 20043 30045 40220 53010 700//
  333 60005 90710 91111=
07100 26/// /1213 10111 20054 30119 40202 57011
  333 60005 90710 91117=
07103 26/// /1409 10116 20088 30102 40200 57011
  333 60005 90710 91114=
07107 26/// /0814 10101 20057 30186 40208 57010
  333 60005 90710 91118=
07118 24969 /0606 10098 20042 30107 40213 57007 700//
  333 60005 90710 91111=
07120 24470 /0508 10088 20050 30050 40215 56003 700//
  333 60005 90710 91112=
07125 24586 /0306 10095 20049 30145 40216 52002 700//
  333 60005 90710 91112=
07134 24268 80703 10076 20070 30092 40215 57002 700//
  333 60005 90710 91106=
07200 26/// /1213 10101 20082 30182 40205 58007
  333 60005 90710 91116=
07201 24485 /1504 10107 20079 30091 40205 57010 700//
  333 60005 90710 91109=
07203 26/// /1209 10082 20078
  333 60005 90710 91113=
07205 24463 81507 10101 20084 30157 40211 58008 700//
  333 60005 90710 91110=
07217 24262 /0405 10084 20076 30210 40214 57007 700//
  333 60005 90710 91108=
07230 22256 60202 10092 20070 30156 40215 58002 86101
  333 60005 85806 85076 90710 91104 93100=
07235 22465 40104 10102 20065 30150 40214 55001 81601
  333 60005 81711 83075 90710 91108 93100=
07300 26/// /0205 10110 20067 30169 40208 58010
  333 60005 90710 91109=
07306 22365 50307 10097 20078 30101 40210 58005 85800
  333 60005 83808 84631 90710 91110 93100=
0000117800
134
SNFR32 LFPW 111400
AAXX 11144
07140 24481 /0000 10109 20076 30058 40212 53002 700//
  333 60005 90710 91104=
07143 24570 /0106 10098 20070 30022 40210 53003 700//
  333 60005 90710 91109=
07145 22264 82803 10068 20068 30001 40214 53007 886//
  333 60005 88706 90710 91110 93100=
07146 22259 73107 10068 20059 30017 40215 53008 876//
  333 60005 87704 90710 91114 93100=
07150 24362 82804 10081 20067 30153 40213 53007 700//
  333 60005 90710 91109=
07153 24256 61904 10079 20067 30100 40213 53006 700//
  333 60005 90710 91108=
07156 24/68 /2805 10085 20065 30118 40214 53007 700//
  333 60005 90710 91112=
07157 22363 82807 10078 20069 30075 40212 53006 886//
  333 60005 83707 88708 90710 91110 93100=
07245 24/49 /1504 10074 20071 30060 40213 58001 710//
  333 60005 90710 91106=
07247 24466 73403 10098 20063 30114 40217 53003 700//
  333 60005 90710 91106=
07249 24263 82302 10078 20069 30060 40213 50003 700//
  333 60005 90710 91107=
07257 24357 83102 10092 20073 30001 40216 53004 700//
  333 60005 90710 91108=
07354 22250 82605 10093 20081 30024 40215 53001 886//
  333 60005 88706 90710 91111 93100=
0000048400
135
SNFR33 LFPW 111400
AAXX 11144
07093 24359 /2208 10062 20050 39885 40200 51007 700//
  333 60005 90710 91110=
07180 22460 72503 10078 20063 39945 40204 53008 875//
  333 60005 87610 90710 91113 93100=
07288 22965 72104 10104 20060 39840 40212 52006 8707/
  333 60005 87360 90710 91110 93100=
07292 24446 81304 10081 20062 39880 40211 52004 760//
  333 69925 90710 91105=
07386 24567 82107 10110 20073 39977 40212 53004 700//
  333 60005 90710 91111=
0000124900
136
SNFR34 LFPW 111400
AAXX 11144
07260 24357 83005 10095 20078 30000 40215 52005 700//
  333 60005 90710 91108=
07266 24570 /3202 10099 20062 30027 40213 53006 700//
  333 60005 90710 91107=
07374 24/70 /0109 10118 20063 39912 40213 53005 700//
  333 60005 90710 91112=
07379 24679 80501 10115 20060 39922 40215 53004 700//
  333 60005 90710 91104=
07385 22665 61603 10116 20065 39955 40216 53005 83501
  333 60005 83643 84073 90710 91106 93100=
07475 24984 82203 10121 20055 39729 40205 55002 700//
  333 60005 90710 91105=
07480 24985 82203 10120 20069 39976 40214 53002 700//
  333 60005 90710 91110=
07482 24/70 /1703 10120 20063 39916 40218 53001 700//
  333 60005 90710 91109=
07486 24558 70907 10089 20067 39756 40219 53001 700//
  333 60005 90710 91110=
07487 26/// /1702 10080 20061 39951 40219 57004
  333 60005 90710 91103=
07491 22665 71605 10099 20061 39934 40218 55001 8353/
  333 60005 83640 87365 90710 91106 93100=
07497 26/// /2004 10072 20021 39198 48513 53009
  333 60005 90710 91108=
07549 21470 70902 10088 20050 39455 40208 55005 700// 875//
  333 60005 87617 90710 91105 93100=
07570 24/56 /0602 10087 20086 39892 40231 57010 700//
  333 69905 90710 91102=
0000146800
137
SNFR35 LFPW 111400
AAXX 11144
07316 24465 60606 10122 20088 30185 40207 57006 700//
  333 60005 90710 91111=
07330 24/59 /0906 10107 20085 30134 40208 58006 700//
  333 60005 90710 91109=
07361 24/70 /2003 10107 20052 39774 40209 52003 700//
  333 60005 90710 91107=
07412 24465 80604 10110 20086 30171 40209 57004 700//
  333 60005 90710 91105=
07438 24/62 /1503 10112 20069 30072 40214 56004 700//
  333 60005 90710 91106=
07500 26/// /3508 10129 20092 30169 40203 57007
  333 60005 90710 91112=
07503 265// 83509 10126 20094 30156 40203 56006
  333 60005 90710 91114=
07524 24558 81203 10107 20090 30124 40208 56005 700//
  333 60005 90710 91105=
07530 24561 81103 10110 20086 30146 40209 56003 700//
  333 60005 90710 91105=
07540 24/56 /0902 10108 20089 30081 40211 56006 761//
  333 69905 90710 91103=
07552 24577 81201 10100 20065 39522 40203 56008 700//
  333 60005 90710 91103=
07600 26/// /0404 10147 20105 30149 40201 57009
  333 60005 90710 91107=
07602 22570 50104 10143 20089 30113 40198 57009 85800
  333 60005 81824 85637 90710 91109 93100=
07603 26/70 /0702 10145 20101 30163 40200 57007
  333 60005 90710 91104=
07610 22561 70701 10126 20081 39983 40202 55005 875//
  333 60005 82622 86630 90710 91102 93100=
07622 24/66 /0403 10114 20086 30053 40208 56006 700//
  333 60005 90710 91105=
07632 24/61 /0201 10112 20073 30003 40209 56008 700//
  333 60005 90710 91102=
0000193000
138
SNFR36 LFPW 111400
AAXX 11144
07554 24470 80000 10078 20049 39126 4//// 56009 700//
  333 60005 90710 91104=
07560 26/// /2108 10024 20024 38445 4//// 57005
  333 60005 90710 91110=
07563 24757 80105 10120 20085 30157 40215 55008 700//
  333 60005 90710 91107=
07579 24661 83504 10108 20086 30150 40217 56010 700//
  333 60005 90710 91108=
07586 26/// /2502 10124 20071 30085 40213 56010
  333 60005 90710 91103=
07588 24970 /0702 10106 20051 39665 40211 56015 700//
  333 60005 90710 91104=
07635 24562 80702 10117 20076 30051 40204 57012 700//
  333 60005 90710 91105=
07638 24559 80405 10118 20099 30190 40209 56009 700//
  333 60005 90710 91107=
07641 26/// /0306 10114 20091 30117 40210 56009
  333 60005 90710 91109=
07646 24569 80000 10127 20067 30087 40214 55007 700//
  333 60005 90710 91106=
07647 24681 80000 10139 20083 30182 40210 55009 700//
  333 60005 90710 91105=
07648 24670 80102 10137 20072 30141 40212 55010 700//
  333 60005 90710 91106=
07666 26/// /0206 10130 20109 30152 40200 57010
  333 60005 90710 91110=
07667 24685 81104 10145 20091 30203 40208 56013 700//
  333 60005 90710 91109=
07675 24/69 /0000 10146 20083 30107 40205 57017 700//
  333 60005 90710 91102=
07684 24583 61605 10153 20090 30202 40207 57010 700//
  333 60005 90710 91108=
07749 26/// /0000 10115 20089 30099 40204 56011
  333 69925 90710 91102=
07754 22575 83605 10144 20112 30137 40207 55005 81137
  333 60005 81820 83367 88274 90710 91108 93100=
07765 24686 80000 10144 20106 30188 40208 55012 700//
  333 60005 90710 91105=
07770 26/// /0811 10149 20107 30064 40202 55010
  333 60005 90710 91117=
07775 26/// /2108 10146 20100 30118 40207 56011
  333 60005 90710 91113=
07780 24584 60606 10159 20111 30179 40207 55010 700//
  333 60005 90710 91112=
07785 26/// /0000 10141 20097 30073 40208 55003
  333 60005 90710 91104=
0000111200
139
SNFR37 LFPW 111400
AAXX 11144
07002 26/// /3208 10084 20022 30120 40203 51019
  333 60005 90710 91118=
07003 24969 /3311 10089 20031 30182 40207 53020 700//
  333 60005 90710 91118=
07010 26/// /3009 10086 20034 30179 40199 51023
  333 60005 90710 91120=
07028 26/// /3207 10088 20042 30088 40215 53009
  333 60005 90710 91113=
07038 24477 /3005 10086 20062 30046 40215 53006 700//
  333 60005 90710 91113=
07040 26/// /3310 10091 20047 30162 40211 53014
  333 60005 90710 91120=
07046 24986 /3508 10087 20037 30101 40216 53010 700//
  333 60005 90710 91112=
07055 22470 22908 10092 20057 30073 40208 53007 82101
  333 60005 82816 90710 91114 93100=
07057 24465 82704 10084 20065 30101 40209 53008 700//
  333 60005 90710 91108=
07061 24/69 /2708 10093 20076 30081 40201 53008 700//
  333 60005 90710 91115=
07075 24466 62605 10090 20056 30013 40193 53001 700//
  333 60005 90710 91110=
07169 24981 /2205 10083 20054 30038 40207 51008 700//
  333 60005 90710 91108=
07283 24358 72607 10072 20063 39651 40210 53012 700//
  333 60005 90710 91111=
0000015700
140
SSVX13 LFPW 111400
ZZYY 62713 11014 1400/ 733751 019468 6113/ 11119 40152 57017 22219
 00182 444 20130 11014 1357/ 50101 80098 80000 9/015=
0000008300
141
UPIN90 VAPO 111200
PPAA 61121 43063 55392 23006 21509 24009 77999 =
0000012700
142
UGIN90 VAPO 111200
PPBB 61121 43063 90023 22506 23507 23006 907// 19014 91235 24514
28516 31014 918// 31521 =
0000008900
143
UPIN90 VABB 111200
PPAA 61111 43110
     55392 36003 18511 00506 77999=
0000021700
144
WSMA31 FIMP 111400
FIMM SIGMET 02 VALID 111400/111800 FIMP
FIMM MAURITIUS FIR ISOL EMBD TS OBS AT 1400Z ALONG LINE S1400 E05500
-
S1200 E05700 - S1100 E06000 - S0800 E06300 TOP ABV FL390 STNR NC=
00000000