0000011000
025
UANT99 KDDL 111400
ARP SWR22B 5102N01924W 1400 F390 MS58 220/59 KT
HBJHD QXT AOE 111400 J16A
0000107800
026
ULJP01 RJTD 111200 RRA
TTCC 61121 47778
70846 621// 26041 50055 573// 23013 30383 513// 07520 20647 489//
07537 10106 435// 09060
88999
77101 09562
31313 48108 81131=

TTCC 61121 47807
70845 661// 25533 50054 585// 27516 30381 523// 07516 20646 489//
06533 10104 447// 09552
88999
77999
31313 72208 81130=

TTCC 61121 47909
70854 727// 25031 50056 627// 27016 30377 551// 11023 20637 515//
08043 10091 461// 09076
88999
77116 10564
31313 73008 81130=

TTCC 61123 47918
70856 769// 24025 50056 637// 26514 30372 573// 08014
88999
77999
31313 73008 81130=

TTCC 61121 47945
70859 765// 24535 50059 647// 25512 30378 575// 09022 20637 529//
07530 10090 449// 08064
88999
77999
31313 48108 81131=

TTCC 61122 47971
70859 725// 26539 50060 657// 23017 30377 569// 08519 20637 517//
08035
88909 791// 26049
77999
31313 51108 81130=

TTCC 61121 47991
70864 771// 20519 50061 677// 25010 30375 585// 09519 20633 509//
07039 10083 489// 09041
88999
66083 06080
31313 72208 81130=
0000011000
027
UANT99 KDDL 111401
ARP DLH400 5355N03118W 1401 F340 MS57 173/47 KT
DABTL QXT EUA 111401 F25A
0000028300
028
SXHW11 KWAL 111402
B15997E8 011140233"
1,140111,13:00:02,5.2,52,8.5,22.1,1012.5,0.05,13.1,
1,140111,13:15:02,5.2,51,8.8,22.2,1012.5,0.05,13.1,
1,140111,13:30:02,5.0,47,9.9,22.2,1012.4,0.05,13.1,
1,140111,13:45:02,4.6,49,9.0,22.0,1012.4,0.05,13.1, 46+0NN  30W
0000216500
029
SZNZ01 NZKL 111403
CREX++
T000103 A001 D01021 D06025++
-3683144 17478654 AUCT  2014 01 11 13 55 //// 11 07 00 01
05470 3202 05478 3202 05485 3202 05492 3202 05500 3202 05507 3202+
-4402404 -17636748 CHIT  2014 01 11 13 55 //// 11 07 00 01
05405 2120 05426 2141 05403 2120 05421 2138 05416 2134 05398 2116+
-4089929 17623168 CPIT  2014 01 11 13 55 //// 11 07 00 01
04475 2266 04471 2261 04478 2268 04476 2265 04470 2259 04481 2269+
-3618905 17548887 GBIT  2014 01 11 13 55 //// 11 07 00 01
06109 0014 06114 0014 06119 0015 06114 0005 06124 0010 06121 0003+
-3867541 17802288 GIST  2014 01 11 13 55 //// 11 07 00 01
04467 2697 04475 2702 04482 2707 04484 2707 04478 2700 04473 2693+
-4241288 17370277 KAIT  2014 01 11 13 55 //// 11 07 00 01
04001 2254 04004 2257 04008 2262 04003 2258 04003 2258 04002 2258+
-3755040 17815904 LOTT  2014 01 11 13 55 //// 11 07 00 01
03865 0214 03859 0205 03860 0202 03862 0201 03877 0213 03862 0195+
-3704657 17451175 MNKT  2014 01 11 13 55 //// 11 07 00 01
01901 -0122 01889 -0137 01914 -0116 01905 -0129 01920 -0118 01909 -0132+
-3947566 17692007 NAPT  2014 01 11 13 55 //// 11 07 00 01
03576 2005 03590 2019 03588 2015 03583 2009 03579 2004 03591 2015+
-3441483 17304870 NCPT  2014 01 11 13 55 //// 11 07 00 01
-03670 -8073 -03701 -8109 -03695 -8109 -03689 -8109 -03793 -8218 -03785 -8216+
-4581435 17062939 OTAT  2014 01 11 13 55 //// 11 07 00 01
05222 3453 05218 3453 05211 3450 05208 3450 05206 3452 05201 3451+
-2928002 -17789440 RBCT  2014 01 11 13 55 //// 11 07 00 01
06129 1948 06131 1948 06136 1949 06145 1955 06151 1959 06153 1958+
-2925114 -17790384 RFRT  2014 01 11 13 55 //// 11 07 00 01
03098 0148 03102 0150 03103 0147 03095 0137 03102 0140 03131 0166+
-4357010 17277383 SUMT  2014 01 11 13 55 //// 11 07 00 01
02766 1829 02773 1836 02762 1827 02762 1829 02768 1836 02769 1839+
-3764109 17618118 TAUT  2014 01 11 13 55 //// 11 07 00 01
05325 3978 05327 3976 05333 3978 05337 3977 05342 3978 05354 3985+
-4128448 17477985 WLGT  2014 01 11 13 55 //// 11 07 00 01
03677 2046 03671 2041 03671 2042 03673 2045 03670 2042 03670 2043++
7777
0000462800
030
SNVF50 EGRR 111400
BBXX
63057 11144 99592 10015 47598 /2819 10056 20004 40029 52011 700// 22200 10706 70031=
62128 11144 99587 10014 47998 /2827 10056 20017 40049 53007 700// 22200 10607 70033=
62113 11144 99584 10002 47598 /3029 10057 20010 40065 53012 762// 22200=
62112 11144 99584 70002 47497 /3025 10056 20014 40071 51016 761// 22200=
62129 11144 99584 10003 46/// /2825 10056 20008 40064 53012 22200=
62114 11144 99583 10000 46/// /2827 10058 20025 40064 53013 22200=
62148 11144 99536 10015 46/// ///// 22200=
62144 11144 99534 10017 47998 /2819 10063 20021 40174 52021 700// 22200 10503 70017=
62142 11144 99530 10021 47998 /2923 10067 20031 40166 52019 700// 22200 10503 70017=
62145 11144 99531 10028 47598 /2921 10065 20007 40170 52020 700// 22200 10404 70018=
62154 11144 99564 10022 46/// /3024 10058 21004 40085 53007 22200=
62123 11144 99563 10022 47598 /3029 10062 20007 40089 53008 700// 22200 1//06 70028=
62127 11144 99540 10007 47999 ///// 10064 21000 40162 53013 700// 22200 10503 70017=
62165 11144 99540 10011 47998 /2820 10062 20011 40163 53014 700// 22200 10504 70019=
62131 11144 99539 10012 46/// /2916 10065 20013 40159 53014 22200=
62150 11144 99536 10007 47999 /2719 10060 20017 40180 52014 700// 22200 10403 70014=
62121 11144 99535 10027 46/// ///// 10066 20013 40151 52018 22200=
64041 11144 99607 70026 47297 /2833 40017 53003 700// 22200 10908 70042=
MWYG6 11144 99603 70040 47698 /2828 40049 53011 700// 22200=
63115 11144 99616 10013 47498 /1205 10029 21014 49995 58002 762// 22200 10806 70029=
63114 11144 99613 10017 47599 /1304 10031 21021 49997 57001 700// 22200=
63117 11144 99613 10011 47397 /1509 49998 58003 771// 22200=
63101 11144 99612 10009 46/// /1407 10035 20018 49994 57004 22200 10806 70032=
63103 11144 99612 10011 46/// ///// 10036 20016 49985 58005 22200 10806 70028=
63112 11144 99611 10010 47997 /2507 10047 20025 49992 57003 761// 22200 10806 70030=
63104 11144 99612 10016 47498 /1506 10026 21016 49998 54000 700// 22200 10806 70028=
63107 11144 99611 10017 46/// /1405 10038 49998 55000 22200=
63106 11144 99610 10017 46/// /1505 10038 55000 22200=
63105 11144 99610 10017 47499 /1306 10028 21014 40000 55000 762// 22200=
63113 11144 99610 10017 46/// /1705 10047 21002 49999 53001 22200 10706 70028=
63108 11144 99608 10017 47/98 /2607 10039 20013 40001 53005 762// 22200 10706 70028=
63055 11144 99606 10016 47498 /2906 10050 20018 40002 53006 762// 22200 10705 70025=
63056 11144 99597 10016 47598 /2921 10059 20012 40018 52011 700// 22200 10707 70034=
63109 11144 99596 10015 46/// /3026 10062 20010 40017 53009 22200=
63110 11144 99595 10015 47598 /3021 10061 20016 40028 53006 700// 22200 10706 70032=
MQSY9 11144 99593 10015 47998 /2824 10062 20018 53006 700// 22200=
62118 11144 99577 10009 47597 /3025 10060 20013 40074 53013 752// 22200 10606 70031=
ZQSD5 11144 99583 10008 47498 ///// 10056 20025 40056 53015 700// 22200 1//07 70035=
PJAI 11144 99581 70014 47598 /2822 10064 20003 40087 52017 700// 22200=
62111 11144 99580 70003 46/// /2929 10059 20012 40096 52016 22200 10606 70030=
62117 11144 99579 10000 47497 /3018 10056 20010 40070 51017 700// 22200 10606 70028=
62134 11144 99580 10014 47497 /3122 10046 20004 40066 53013 700// 22200 10606 70032=
62102 11144 99579 10018 46/// /3128 10055 21002 40058 53010 22200 10706 70031=
62143 11144 99577 10018 47498 /3114 10058 20012 40082 53011 700// 22200 10606 70030=
62155 11144 99577 10007 47598 /2929 10059 20020 40083 52012 763// 22200 10606 70032=
62116 11144 99576 10011 47196 /3025 10056 20009 40070 52010 761// 22200 10606 70031=
62164 11144 99572 10008 47598 /2822 10063 20018 40088 52011 700// 22200 00084 10606 70030=
62133 11144 99571 10009 46/// /3026 40087 52011 22200 10606 70028=
62104 11144 99574 10013 47598 /3025 10072 20018 40073 53009 700// 22200=
62140 11144 99573 10013 46/// ///28 10059 20009 40077 53008 22200=
62122 11144 99573 10016 47598 /2926 10055 20009 40078 52010 700// 22200 10606 70028=
62153 11144 99573 10020 47599 /2816 40072 53008 700// 22200 10606 70029=
62146 11144 99572 10021 47498 /2507 10059 20011 40082 52008 700// 22200 10605 70027=
62152 11144 99570 10018 47598 /2920 10056 20007 40093 53013 700// 22200 10606 70028=
62119 11144 99570 10019 47598 /3027 10060 20010 40092 53013 700// 22200 10606 70029=
62120 11144 99564 10021 47598 /3027 10056 20000 40090 53010 700// 22200=
62132 11144 99564 10020 46/// /3224 10062 21001 40107 53012 22200=
62149 11144 99537 10011 47998 /2721 10080 20017 40167 52015 700// 22200 10503 70016=
0000028400
031
SAUK39 EGRR 111350 RRA
METAR EGOW 111350Z 28010KT 9999 FEW025 07/02 Q1019 BLU=
METAR EGQS 111350Z 26015KT 9999 FEW020CB SCT050 05/M00 Q1011 BLU=
METAR EGVN 111350Z 31006KT 9999 SCT025 07/01 Q1020 BLU NOSIG=
METAR EGWC 111350Z 30008KT 9999 SCT025 07/02 Q1020 BLU=
0000009000
032
SNAA01 KARS 111400
AAXX 1114/
89828 46/// ///// 11299 36541 4//// 5////=
0000194300
033
KUSI03 SBBR 111200 RRA
CREX++
T000113 A002 D09052++
 83 566 ///////// 080 // /// 07 18 2014 01 11 12 00 00 -1985000 -04395000 07861 00015 ////// // // // //// // // // // ///// 0028 ///// 000100 00913 ///// /////// //////// //// //// 150 0082 ///// 000020 00876 ///// /////// //////// -7810 -9610 /// //// ///// 000020 00818 ///// /////// //////// -7870 -9570 /// //// ///// 000100 00809 ///// /////// //////// //// //// 105 0093 ///// 000100 00764 ///// /////// //////// //// //// 065 0108 ///// 000100 00724 ///// /////// //////// //// //// 040 0093 ///// 000020 00718 ///// /////// //////// -7150 -9050 /// //// ///// 000020 00691 ///// /////// //////// -7270 -9270 /// //// ///// 000100 00678 ///// /////// //////// //// //// 085 0057 ///// 000100 00663 ///// /////// //////// //// //// 045 0046 ///// 000100 00656 ///// /////// //////// //// //// 030 0057 ///// 000100 00648 ///// /////// //////// //// //// 030 0062 ///// 000100 00624 ///// /////// //////// //// //// 080 0057 ///// 000020 00617 ///// /////// //////// -6910 -9210 /// //// ///// 000100 00573 ///// /////// //////// //// //// 080 0129 ///// 000020 00554 ///// /////// //////// -7410 -9710 /// //// ///// 000100 00547 ///// /////// //////// //// //// 070 0108 ///// 000100 00522 ///// /////// //////// //// //// 110 0087 ///// 000100 00501 ///// /////// //////// //// //// 100 0072 ///// 000020 00496 ///// /////// //////// -7310 -9810 /// //// ///// 000020 00487 ///// /////// //////// -6910 -9610 /// //// ///// 000120 00456 ///// /////// //////// -6530 -9430 105 0170 ///// 000100 00432 ///// /////// //////// //// //// 105 0134 ///// 000100 00370 ///// /////// //////// //// //// 075 0098 ///// 000100 00341 ///// /////// //////// //// //// 085 0129 ///// 000102 00300 ///// /////// //////// //// //// 070 0144 ///// 000100 00286 ///// /////// //////// //// //// 080 0087 ///// 000120 00273 ///// /////// //////// -5570 -8770 105 0149 0000++
7777
0000063200
034
UEBZ05 SBBR 111200 RRA
TTDD 6112/ 82824 11968 80358 22769 76363 33698 71366 44564
70569 55533 67570 66481 68970 77427 64771 88391 65970 99365
61971 11283 60171 22193 57571 21212 11915 13029 22860 11515
33832 13522 44775 10026 55735 05012 66723 07008 77708 12512
88671 10017 99662 09513 11644 23501 22629 25011 33616 22014
44602 22012 55559 16028 66546 14517 77538 15011 88517 20014
99501 21012 11493 19010 22477 09504 33422 06501 44385 12510
55377 11011 66357 10527 77344 09517 88335 11015 99298 10014
11281 03514 22274 03013 33267 06008 44255 09513 55230 09525
66215 03520 77202 07534 88193 05535=
0000043400
035
UEBZ03 SBBR 111200 RRA
TTDD 6112/ 83566 11876 78168 22818 78767 33718 71569 44691
72770 55617 69173 66554 74173 77496 73175 88487 69177 99456
65379 11273 55782 21212 11913 15016 22809 10518 33764 06521
44724 04018 55678 08511 66663 04509 77656 03011 88648 03012
99624 08011 11573 08025 22547 07021 33522 11017 44501 10014
55456 10533 66432 10526 77370 07519 88341 08525 99300 07028
11286 08017 22273 10529=
0000298200
036
KUSE05 SBBR 111200 RRA
CREX++
T000113 A002 D09052++
 82 824 ///////// 080 // /// 07 18 2014 01 11 12 00 00 -0876667 -06391667 01020 00015 ////// // // // //// // // // // ///// 0045 ///// 000020 00968 ///// /////// //////// -8030 -8830 /// //// ///// 000100 00915 ///// /////// //////// //// //// 130 0149 ///// 000100 00860 ///// /////// //////// //// //// 115 0077 ///// 000100 00832 ///// /////// //////// //// //// 135 0113 ///// 000100 00775 ///// /////// //////// //// //// 100 0134 ///// 000020 00769 ///// /////// //////// -7630 -8930 /// //// ///// 000100 00735 ///// /////// //////// //// //// 050 0062 ///// 000100 00723 ///// /////// //////// //// //// 070 0041 ///// 000100 00708 ///// /////// //////// //// //// 125 0062 ///// 000020 00698 ///// /////// //////// -7130 -8730 /// //// ///// 000100 00671 ///// /////// //////// //// //// 100 0087 ///// 000100 00662 ///// /////// //////// //// //// 095 0067 ///// 000100 00644 ///// /////// //////// //// //// 235 0005 ///// 000100 00629 ///// /////// //////// //// //// 250 0057 ///// 000100 00616 ///// /////// //////// //// //// 220 0072 ///// 000100 00602 ///// /////// //////// //// //// 220 0062 ///// 000020 00564 ///// /////// //////// -7050 -8950 /// //// ///// 000100 00559 ///// /////// //////// //// //// 160 0144 ///// 000100 00546 ///// /////// //////// //// //// 145 0087 ///// 000100 00538 ///// /////// //////// //// //// 150 0057 ///// 000020 00533 ///// /////// //////// -6750 -8750 /// //// ///// 000100 00517 ///// /////// //////// //// //// 200 0072 ///// 000100 00501 ///// /////// //////// //// //// 210 0062 ///// 000100 00493 ///// /////// //////// //// //// 190 0051 ///// 000020 00481 ///// /////// //////// -6890 -8890 /// //// ///// 000100 00477 ///// /////// //////// //// //// 095 0021 ///// 000020 00427 ///// /////// //////// -6470 -8570 /// //// ///// 000100 00422 ///// /////// //////// //// //// 065 0005 ///// 000020 00391 ///// /////// //////// -6590 -8590 /// //// ///// 000100 00385 ///// /////// //////// //// //// 125 0051 ///// 000100 00377 ///// /////// //////// //// //// 110 0057 ///// 000020 00365 ///// /////// //////// -6190 -8290 /// //// ///// 000100 00357 ///// /////// //////// //// //// 105 0139 ///// 000100 00344 ///// /////// //////// //// //// 095 0087 ///// 000100 00335 ///// /////// //////// //// //// 110 0077 ///// 000100 00298 ///// /////// //////// //// //// 100 0072 ///// 000020 00283 ///// /////// //////// -6010 -8110 /// //// ///// 000100 00281 ///// /////// //////// //// //// 035 0072 ///// 000100 00274 ///// /////// //////// //// //// 030 0067 ///// 000100 00267 ///// /////// //////// //// //// 060 0041 ///// 000100 00255 ///// /////// //////// //// //// 095 0067 ///// 000100 00230 ///// /////// //////// //// //// 095 0129 ///// 000100 00215 ///// /////// //////// //// //// 035 0103 ///// 000100 00202 ///// /////// //////// //// //// 075 0175 ///// 000120 00193 ///// /////// //////// -5750 -7850 055 0180 0000++
7777
0000028400
037
SXHW11 KWAL 111402
B159A272 011140243"
1,140111,12:59:52,8.3,80,11.7,21.9,1013.4,0.09,13.3,
1,140111,13:14:52,7.2,75,9.5,21.8,1013.4,0.09,13.2,
1,140111,13:29:52,6.7,74,9.1,21.7,1013.4,0.09,13.2,
1,140111,13:44:52,6.8,85,9.3,21.7,1013.3,0.09,13.2, 46+0NN  30W
0000011100
038
SAIQ01 ORBI 111400
METAR ORBI 111400Z 29006KT 2100 BR FEW017 BKN020 BKN031 11/09 Q1018
NOSIG=
0000010600
039
SNVF25 LFPW 111400
BBXX
BATEU08 11144 99642 70224 46/// /2209 29069 40027 50012
22263=
0000011800
040
SNVF25 LFPW 111400
BBXX
BATFR62 11144 99497 70006 46/// /3611 10097 20030 40220 53007
22282 04124=
0000015700
041
SSVX13 LFPW 111400
ZZYY 44612 11014 1400/ 745760 045248 6113/ 11119 40224 52003 22219
 00042 444 20130 11014 1400/ 50101 80154 80000 9/015=
0000016900
042
SSVX13 LFPW 111401
ZZYY 41737 11014 1401/ 725758 037036 6113/ 11119 40197 52001 33300
 88872 20000 43753 444 20130 11014 1200/ 50101 80148 80065 9/015=
0000015700
043
SSVX13 LFPW 111400
ZZYY 14920 11014 1400/ 328509 067378 6113/ 11119 40230 52003 22219
 00227 444 20130 11014 1359/ 50101 80122 80016 9/015=
0000011500
044
SNVF25 LFPW 111400
BBXX
FVNM 11144 99477 70034 46/// /1507 10092 20074 40200 58008
22200 04115=
00000000