0000007500
622
UANT01 KWBC 111357
ARP DAL326 2500N 6906W 1353 F340 TB NEG=
0000011000
623
UANT01 CWAO 111357
ARP BAW43C 5203N01934W 1356 F360 MS61 208/90 KT
GVIIR QXT AOE 111357 F09A
0000011100
624
UANT01 CWAO 111357
ARP DAL415 4638N03502W 1356 F340 MS52 307/37 KT
N177DN QXT AOE 111357 F33A
0000011000
625
UANT01 CWAO 111356
ARP AFR682 4922N03736W 1356 F350 MS55 314/51 KT
FGSPP QXT AOE 111356 F27A
0000011000
626
UANT01 CWAO 111357
ARP DAL81 5258N03038W 1357 F340 MS54 177/48 KT
N172DN QXT AOE 111357 F77A
0000011000
627
UANT01 CWAO 111357
ARP SWR26L 4702N03958W 1357 F380 MS58 318/56 KT
HBJHA QXT AOE 111357 J29A
0000011000
628
UANT01 CWAO 111357
ARP KLM723 5119N03739W 1357 F380 MS55 295/21 KT
PHAOA QXT AOE 111357 J39A
0000025700
629
SAKU31 NCRG 111400
METAR NCRG 111400Z
13001KT 9999 SCT012 BKN090 25/24 Q1009 RESHRA=
METAR NCAI 111400Z AUTO
/////KT //// ////// 25/23 Q1010=
METAR NCMH 111400Z AUTO
/////KT //// ////// 26/25 Q1006=
METAR NCPY 111400Z AUTO
NIL=
0000024100
630
SOAT10 KWAL 111358
FA8005BC 011135837 OT12 ID:KN-BASS-01 DT:2014 01 11 13 56
:RD -3065 -3092 -3088 -3067 -3087 -3063 -3045 -3048 -3062 -3061
:PR 0582 0601 0551 0549 0532 0582 0634 0614 0598 0576
:B 13.7V
 46+1NN 219E
0000009700
631
SAPK31 OPST 111355
METAR OPST 111400Z 13002KT 3500 FU NSC 13/06 Q1020 NOSIG RH61=
0000096000
632
SAYE20 OYSC 111400
METAR OYAA 111400Z 15011KT 9999 FEW020 27/18 Q1014 NOSIG=
METAR OYAM 111400Z NIL=
METAR OYAR 111400Z 30006KT 9999 FEW030 19/07 Q////=
METAR OYAS 111400Z NIL=
METAR OYAT 111400Z NIL=
METAR OYDM 111400Z 18008KT 9999 FEW030 18/02 Q////=
METAR OYGD 111400Z 09015KT 9999 SCT030 24/18 Q1015=
METAR OYHD 111400Z NIL=
METAR OYHJ 111400Z 26012KT 9999 BKN010 SCT100 16/14 Q////=
METAR OYIB 111400Z 30006KT 9999 SCT025 20/13 Q1021=
METAR OYKD 111400Z NIL=
METAR OYMB 111400Z NIL=
METAR OYMK 111400Z 18012KT CAVOK 26/20 Q////=
METAR OYMT 111400Z 15004KT 9999 FEW020 20/10 Q////=
METAR OYRN 111400Z 09010KT 9999 FEW020 26/19 Q1015=
METAR OYSD 111400Z 21004KT 9999 FEW030 19/M01 Q////=
METAR OYSH 111400Z 18012KT 9000 FEW025CB BKN030 18/11 Q////=
METAR OYSN 111400Z NIL=
METAR OYSQ 111400Z 08018KT 9999 FEW018 SCT200 26/18 Q1013=
METAR OYSY 111400Z 02008KT CAVOK 27/09 Q1015=
METAR OYTZ 111400Z NIL=
0000009100
633
SAPK31 OPPS 111358
METAR OPPS 111400Z 00000KT 4000 HZ SCT200 12/03 Q1021.3=
0000009400
634
SNVD25 LFPW 111400
BBXX
BAREU13 11144 99514 70398 46/// ///// 4////
22254=
0000011100
635
UANT99 KDDL 111357
ARP UAL988 5306N02307W 1357 F360 MS60 200/60 KT
N776UA DDL XXN 111357 F16A
0000011100
636
UANT99 KDDL 111357
ARP DAL241 5101N02956W 1357 F330 MS50 170/36 KT
N176DN QXT AOE 111357 F60A
0000011000
637
UANT99 KDDL 111357
ARP AAL57 4908N02607W 1357 F320 MS49 181/74 KT
N724AN DDL XXN 111357 F34A
0000011100
638
UANT99 KDDL 111357
ARP AWE741 4502N01304W 1357 F380 MS65 255/60 KT
N289AY DDL XXN 111358 J13A
0000014300
639
UANT99 KDDL 111357
ARP DAL170 6149N01354W 1357 F370 6402N01958W 1424 6602N02959W MS54
 243/28 KT
N808NW DDL FAE 111358 J27A
0000012200
640
SNRE15 FMEE 111400
AAXX 11144
61997 26/// /2910 10120 20118 39750 49921 57032
  333 60005 90710 91124=
0000137800
641
ULCI06 BABJ 111200
TTCC  11112 56739 70851 771// 24012 50052 613// 24508 30372
565// 10003 20630 535// 10016 88999 77999 31313 63203 81115=
TTCC  11111 56964 70854 773// 27018 50051 663// 25510 30367
595// 09000 20623 561// 07512 10068 503// 10022 88974 813//
24527 77999 31313 63303 81115=
TTCC  11112 57957 70850 741// 25521 50053 627// 23010 30373
563// 09006 20631 551// 08518 88878 807// 26025 77999 31313
63203 81115=
TTCC  11111 57993 70857 761// 25020 50056 651// 23014 30371
567// 10507 20629 561// 08511 10077 475// 09031 88999 66049
09532 31313 63303 81115=
TTCC  11111 58027 70844 635// 26515 50055 559// 21506 30383
529// 10008 20646 471// 08518 10105 453// 09526 88999 77999
31313 63203 81115=
TTCC  11112 58424 70847 669// 25020 50053 589// 19005 30376
539// 10008 20638 521// 09019 88916 739// 25029 77999 31313
63203 81115=
TTCC  1112/ 58606 NIL=
TTCC  11111 58633 70849 685// 24016 50052 613// 24007 30373
551// 09509 20633 519// 08020 10086 471// 09033 88934 767//
26033 66107 09033 31313 63203 81115=
TTCC  11111 58665 70848 681// 24518 50051 627// 25009 30371
565// 10510 20630 527// 08521 10080 497// 09033 88923 781//
25531 66087 09035 31313 63203 81115=
TTCC  11112 59211 70852 755// 25515 50051 649// 24010 30370
591// 09504 20627 553// 09016 10074 457// 88999 77999 31313
63203 81115=
00000000