0000011000
245
UANT01 CWAO 111405
ARP BAW207 4754N04020W 1404 F320 MS58 319/60 KT
GBYGG QXT AOW 111405 F49A
0000071800
246
UKUS50 KWBC 111300 CCA
TTBB 61138 72582 00842 03050 11837 04857 22823 03857 33811 04657
44772 01449 55735 00337 66719 00256 77689 01745 88662 02350 99646
02160 11622 03964 22613 04362 33589 07162 44580 07570 55539 12372
66527 13567 77522 14160 88513 15559 99506 16166 11501 16960 22485
18957 33451 22756 44425 25558 55419 26162 66394 29957 77391 30356
88381 31359 99373 31956 11348 34544 22332 37556 33324 38558 44309
40558 55288 44561 66263 48961 77214 61157 88204 63758 99181 68958
11178 68958 22176 67358 33173 67358 44169 63360 55167 61761 66163
59962 77159 59364 88145 62170 99131 61375 11128 62575 22126 61777
33119 61579 44107 66179 31313 58208 81300 41414 20888 51515
10181=
0000010700
247
SAER41 OMAM 111354 RRF
METAR OMAM 111400Z 34006KT 9999 -RA FEW040 BKN090 20/14 Q1019 A3009=
0000408100
248
SAIR31 OIII 111400
 METAR OIAA 111400Z 29006KT 9999 FEW030CB SCT035 BKN100 13/09
 Q1018=
 METAR OIAG 111400Z 13008KT 9999 -TSSHRA SCT030CB BKN035 13/11
 Q1017 RESH=
 METAR OIAH 111400Z 00000KT 6000 -RA FEW035CB SCT040 OVC070 09/08
 Q1017=
 METAR OIAI 111400Z 18004KT 4000 RA SCT030CB SCT035 OVC070 10/09
 Q1016=
 METAR OIAM 111400Z 10008KT 4000 -DZ SCT010 FEW030CB OVC080 12/12
 Q1017=
 METAR OIAW 111400Z 15004KT 1000 RA SCT020CB SCT030 OVC070 12/12
 Q1016=
 METAR OIBA 111400Z 13006KT 3000 RA FEW025CB FEW030 OVC080 17/15
 Q1019=
 METAR OIBB 111400Z 13012KT 7000 TSRA FEW025 FEW030CB SCT035 OVC070
 13/10 Q1016 A3001=
 METAR OIBK 111400Z 09012KT 9999 SCT020 FEW030CB SCT030 OVC090
 16/14 Q1019=
 METAR OIBL 111400Z 04006KT 4000 BR FEW020CB FEW025 OVC080 15/13
 Q1020=
METAR OIBS 111400Z 15014KT 7000 -RA FEW030CB OVC080 18/11 Q1020=
 METAR OICC 111400Z 00000KT 4000 BR FEW030CB SCT035 OVC070 00/M00
 Q1018 A3008 TEMPO SN=
 METAR OICI 111400Z 14004KT 8000 FEW015 FEW025CB SCT035 BKN090
 05/05 Q1016 A3002=
 METAR OICJ 111350Z 29004KT 2000 -SN FEW030CB SCT035 OVC070 00/M01
 Q1018=
 METAR OICK 111350Z 15004KT 7000 -TSRA FEW010 FEW030CB BKN035
 OVC070 04/03 Q1017=
METAR OICS 111400Z 19004KT 7000 FEW035 BKN080 00/M04 Q1018=
METAR OIFK 111400Z 00000KT 2000 BR BKN020 OVC070 01/00 Q1022=
 METAR OIFM 111400Z 00000KT 0300 -SN FG SCT035 OVC090 M00/M00 Q1018
 A3007=
 METAR OIFS 111400Z 00000KT 1000 -SN BR FEW025CB SCT030 OVC070
 M04/M05 Q1018=
METAR OIGG 111400Z 00000KT 3000 BR FEW030 BKN160 08/06
Q1013=
METAR OIGK 111350Z 00000KT 9999 SCT020 OVC080 M02/M06 Q1016=
 METAR OIHH 111400Z 00000KT 2000 BR FEW030CB BKN035 OVC090 M05/M07
 Q1019=
METAR OIHM 111400Z 30006KT 1000 BR SCT035 OVC090 M01/M02 Q1017=
 METAR OIIE 111400Z 29005KT 8000 SCT025 FEW035CB SCT045 OVC080
 02/M01 Q1019 A3012 NOSIG=
 METAR OIII 111400Z 30008KT 1200 BR SCT030 OVC090 01/M01 Q1019
 A3010 TEMPO 0500 BR FEW035CB SCT030 BKN100 TEMPO 0500 BR FEW035CB SCT030 BKN100=
METAR OIIK 111400Z 00000KT 8000 SCT040 BKN090 00/M04 Q1019=
 METAR OIIP 111400Z 00000KT 5000 BR FEW020 SCT035 OVC080 M01/M02
 Q1018=
METAR OIIS 111400Z 00000KT 9999 FEW030 BKN100 04/M02 Q1019=
 METAR OIKB 111400Z 20004KT 7000 FEW025CB SCT030 OVC100 14/11 Q1020
 A3013 NOSIG=
METAR OIKK 111350Z 00000KT 9999 SCT035 BKN100 02/M04 Q1019 A3010=
 METAR OIKO 111350Z 00000KT 6000 FEW015 SCT025CB OVC070 16/10
 Q1021=
 METAR OIKQ 111400Z 34004KT 6000 RA FEW025CB SCT030 OVC090 13/08
 Q1020=
METAR OIMB 111400Z 09014KT 9999 SCT040 BKN090 03/M13 Q1019=
METAR OIMC 111400Z 17010KT 9999 SCT040 11/M06 Q1017=
METAR OIMD 111400Z 00000KT 9999 FEW035 BKN100 06/M05 Q1016=
METAR OIMM 111400Z 14006KT CAVOK 06/M12 Q1017 A3004=
METAR OINB 111400Z 00000KT 9999 FEW030 SCT100 BKN190 10/08 Q1013=
METAR OING 111400Z 06004KT 6000 SCT030 BKN090 09/08 Q1015=
METAR OINK 111400Z 00000KT 8000 NSC 10/05 Q1014=
METAR OINN 111400Z 16004KT CAVOK 10/09 Q1014=
METAR OINR 111400Z 00000KT 6000 NSC 10/07 Q1013=
 METAR OISA 111350Z 00000KT 8000 -SHRA FEW035CB SCT040 OVC090 02/00
 Q1017 RESH=
 METAR OISF 111350Z 00000KT 8000 FEW035CB SCT040 OVC100 06/03
 Q1018=
 METAR OISL 111400Z 00000KT 9999 FEW020 FEW030CB OVC080 08/05 Q1020
 RERA=
 METAR OISS 111400Z 09004KT 1500 BR FEW030CB SCT035 OVC080 03/03
 Q1019 A3010 RERA=
 METAR OISY 111400Z 00000KT 0900 +SN FEW030CB SCT035 OVC080 00/ M00
 Q1019=
METAR OITL 111350Z 21023KT CAVOK M01/M05 Q1015=
 METAR OITR 111400Z 10004KT 2000 HZ FEW035 SCT170 M07/M09 Q1019
 NOSIG=
 METAR OITT 111400Z 00000KT 5000 HZ FEW035 SCT190 M04/M10 Q1020
 A3013=
METAR OITU 111350Z 00000KT 6000 SCT035 M13/M15 Q1020=
METAR OIYY 111400Z 33008KT 6000 FEW035 BKN100 06/M03 Q1019=
METAR OIZB 111400Z 23004KT 9999 FEW040 BKN090 08/M01 Q1023=
METAR OIZC NIL=
 METAR OIZH 111400Z 11014KT 9999 FEW035 BKN090 05/M07 Q1019 A3011
 NOSIG=
METAR OIZI 111400Z 26012KT 9999 FEW020 OVC090 14/M02 Q1021=
 METAR OIZJ 111400Z 00000KT 8000 FEW025CB SCT030 BKN090 19/05
 Q1020=
0000429700
249
SAIR77 OIII 111400
METAR AZUH 111300Z 09006KT 2500 HZ SCT025 M06/M10 Q1021=
METAR KHME 111350Z 00000KT 9999 FEW035 06/M06 Q1018=
 METAR OIAA 111400Z 29006KT 9999 FEW030CB SCT035 BKN100 13/09
 Q1018=
 METAR OIAG 111400Z 13008KT 9999 -TSSHRA SCT030CB BKN035 13/11
 Q1017 RESH=
 METAR OIAH 111400Z 00000KT 6000 -RA FEW035CB SCT040 OVC070 09/08
 Q1017=
 METAR OIAI 111400Z 18004KT 4000 RA SCT030CB SCT035 OVC070 10/09
 Q1016=
 METAR OIAM 111400Z 10008KT 4000 -DZ SCT010 FEW030CB OVC080 12/12
 Q1017=
 METAR OIAW 111400Z 15004KT 1000 RA SCT020CB SCT030 OVC070 12/12
 Q1016=
 METAR OIBA 111400Z 13006KT 3000 RA FEW025CB FEW030 OVC080 17/15
 Q1019=
 METAR OIBB 111400Z 13012KT 7000 TSRA FEW025 FEW030CB SCT035 OVC070
 13/10 Q1016 A3001=
 METAR OIBK 111400Z 09012KT 9999 SCT020 FEW030CB SCT030 OVC090
 16/14 Q1019=
 METAR OIBL 111400Z 04006KT 4000 BR FEW020CB FEW025 OVC080 15/13
 Q1020=
METAR OIBS 111400Z 15014KT 7000 -RA FEW030CB OVC080 18/11 Q1020=
 METAR OICC 111400Z 00000KT 4000 BR FEW030CB SCT035 OVC070 00/M00
 Q1018 A3008 TEMPO SN=
 METAR OICI 111400Z 14004KT 8000 FEW015 FEW025CB SCT035 BKN090
 05/05 Q1016 A3002=
 METAR OICJ 111350Z 29004KT 2000 -SN FEW030CB SCT035 OVC070 00/M01
 Q1018=
 METAR OICK 111350Z 15004KT 7000 -TSRA FEW010 FEW030CB BKN035
 OVC070 04/03 Q1017=
METAR OICS 111400Z 19004KT 7000 FEW035 BKN080 00/M04 Q1018=
METAR OIFK 111400Z 00000KT 2000 BR BKN020 OVC070 01/00 Q1022=
 METAR OIFM 111400Z 00000KT 0300 -SN FG SCT035 OVC090 M00/M00 Q1018
 A3007=
 METAR OIFS 111400Z 00000KT 1000 -SN BR FEW025CB SCT030 OVC070
 M04/M05 Q1018=
METAR OIGG 111400Z 00000KT 3000 BR FEW030 BKN160 08/06
Q1013=
METAR OIGK 111350Z 00000KT 9999 SCT020 OVC080 M02/M06 Q1016=
METAR OIHM 111400Z 30006KT 1000 BR SCT035 OVC090 M01/M02 Q1017=
 METAR OIIE 111400Z 29005KT 8000 SCT025 FEW035CB SCT045 OVC080
 02/M01 Q1019 A3012 NOSIG=
 METAR OIII 111400Z 30008KT 1200 BR SCT030 OVC090 01/M01 Q1019
 A3010 TEMPO 0500 BR FEW035CB SCT030 BKN100 TEMPO 0500 BR FEW035CB SCT030 BKN100=
METAR OIIK 111400Z 00000KT 8000 SCT040 BKN090 00/M04 Q1019=
 METAR OIIP 111400Z 00000KT 5000 BR FEW020 SCT035 OVC080 M01/M02
 Q1018=
METAR OIIS 111400Z 00000KT 9999 FEW030 BKN100 04/M02 Q1019=
 METAR OIKB 111400Z 20004KT 7000 FEW025CB SCT030 OVC100 14/11 Q1020
 A3013 NOSIG=
METAR OIKK 111350Z 00000KT 9999 SCT035 BKN100 02/M04 Q1019 A3010=
 METAR OIKO 111350Z 00000KT 6000 FEW015 SCT025CB OVC070 16/10
 Q1021=
 METAR OIKQ 111400Z 34004KT 6000 RA FEW025CB SCT030 OVC090 13/08
 Q1020=
METAR OIMB 111400Z 09014KT 9999 SCT040 BKN090 03/M13 Q1019=
METAR OIMC 111400Z 17010KT 9999 SCT040 11/M06 Q1017=
METAR OIMD 111400Z 00000KT 9999 FEW035 BKN100 06/M05 Q1016=
METAR OIMM 111400Z 14006KT CAVOK 06/M12 Q1017 A3004=
METAR OIMN 111400Z 17010KT CAVOK 05/M06 Q1016 A3002=
METAR OINB 111400Z 00000KT 9999 FEW030 SCT100 BKN190 10/08 Q1013=
METAR OING 111400Z 06004KT 6000 SCT030 BKN090 09/08 Q1015=
METAR OINK 111400Z 00000KT 8000 NSC 10/05 Q1014=
METAR OINN 111400Z 16004KT CAVOK 10/09 Q1014=
METAR OINR 111400Z 00000KT 6000 NSC 10/07 Q1013=
 METAR OISA 111350Z 00000KT 8000 -SHRA FEW035CB SCT040 OVC090 02/00
 Q1017 RESH=
 METAR OISF 111350Z 00000KT 8000 FEW035CB SCT040 OVC100 06/03
 Q1018=
 METAR OISL 111400Z 00000KT 9999 FEW020 FEW030CB OVC080 08/05 Q1020
 RERA=
 METAR OISS 111400Z 09004KT 1500 BR FEW030CB SCT035 OVC080 03/03
 Q1019 A3010 RERA=
 METAR OISY 111400Z 00000KT 0900 +SN FEW030CB SCT035 OVC080 00/ M00
 Q1019=
METAR OITL 111350Z 21023KT CAVOK M01/M05 Q1015=
 METAR OITR 111400Z 10004KT 2000 HZ FEW035 SCT170 M07/M09 Q1019
 NOSIG=
 METAR OITT 111400Z 00000KT 5000 HZ FEW035 SCT190 M04/M10 Q1020
 A3013=
METAR OITU 111350Z 00000KT 6000 SCT035 M13/M15 Q1020=
METAR OIYY 111400Z 33008KT 6000 FEW035 BKN100 06/M03 Q1019=
METAR OIZB 111400Z 23004KT 9999 FEW040 BKN090 08/M01 Q1023=
METAR OIZC NIL=
 METAR OIZH 111400Z 11014KT 9999 FEW035 BKN090 05/M07 Q1019 A3011
 NOSIG=
METAR OIZI 111400Z 26012KT 9999 FEW020 OVC090 14/M02 Q1021=
 METAR OIZJ 111400Z 00000KT 8000 FEW025CB SCT030 BKN090 19/05
 Q1020=
METAR SESG 111400Z 24004KT 3000 BR SCT035 BKN090 03/01 Q1021=
METAR YAYT 111350Z 00000KT 9999 SCT035 BKN100 09/M04 Q1020=
0000008500
250
UXIN90 VAAH 111200
TTAA 6112/ 42647
99009 21661 04504 NO ASCENT=

0000029100
251
SXHW11 KWAL 111405
B150314C 011140523"
1,140111,13:00:00,6.6,131,12.9,22.9,1013.5,0.09,13.7,
1,140111,13:15:00,6.1,127,14.7,22.9,1013.3,0.09,13.7,
1,140111,13:30:00,5.8,129,13.0,22.9,1013.0,0.09,13.7,
1,140111,13:45:00,6.3,130,14.4,22.9,1012.9,0.09,13.7, 46+0NN 210W
0000413400
252
SAIR78 OIII 111400
METAR AZUH 111300Z 09006KT 2500 HZ SCT025 M06/M10 Q1021=
METAR KHME 111350Z 00000KT 9999 FEW035 06/M06 Q1018=
 METAR OIAA 111400Z 29006KT 9999 FEW030CB SCT035 BKN100 13/09
 Q1018=
 METAR OIAG 111400Z 13008KT 9999 -TSSHRA SCT030CB BKN035 13/11
 Q1017 RESH=
 METAR OIAH 111400Z 00000KT 6000 -RA FEW035CB SCT040 OVC070 09/08
 Q1017=
 METAR OIAI 111400Z 18004KT 4000 RA SCT030CB SCT035 OVC070 10/09
 Q1016=
 METAR OIAM 111400Z 10008KT 4000 -DZ SCT010 FEW030CB OVC080 12/12
 Q1017=
 METAR OIAW 111400Z 15004KT 1000 RA SCT020CB SCT030 OVC070 12/12
 Q1016=
 METAR OIBA 111400Z 13006KT 3000 RA FEW025CB FEW030 OVC080 17/15
 Q1019=
 METAR OIBB 111400Z 13012KT 7000 TSRA FEW025 FEW030CB SCT035 OVC070
 13/10 Q1016 A3001=
 METAR OIBK 111400Z 09012KT 9999 SCT020 FEW030CB SCT030 OVC090
 16/14 Q1019=
 METAR OIBL 111400Z 04006KT 4000 BR FEW020CB FEW025 OVC080 15/13
 Q1020=
METAR OIBS 111400Z 15014KT 7000 -RA FEW030CB OVC080 18/11 Q1020=
 METAR OICC 111400Z 00000KT 4000 BR FEW030CB SCT035 OVC070 00/M00
 Q1018 A3008 TEMPO SN=
 METAR OICI 111400Z 14004KT 8000 FEW015 FEW025CB SCT035 BKN090
 05/05 Q1016 A3002=
 METAR OICJ 111350Z 29004KT 2000 -SN FEW030CB SCT035 OVC070 00/M01
 Q1018=
 METAR OICK 111350Z 15004KT 7000 -TSRA FEW010 FEW030CB BKN035
 OVC070 04/03 Q1017=
METAR OICS 111400Z 19004KT 7000 FEW035 BKN080 00/M04 Q1018=
METAR OIFK 111400Z 00000KT 2000 BR BKN020 OVC070 01/00 Q1022=
 METAR OIFM 111400Z 00000KT 0300 -SN FG SCT035 OVC090 M00/M00 Q1018
 A3007=
 METAR OIFS 111400Z 00000KT 1000 -SN BR FEW025CB SCT030 OVC070
 M04/M05 Q1018=
METAR OIGG 111400Z 00000KT 3000 BR FEW030 BKN160 08/06
Q1013=
METAR OIGK 111350Z 00000KT 9999 SCT020 OVC080 M02/M06 Q1016=
 METAR OIHH 111400Z 00000KT 2000 BR FEW030CB BKN035 OVC090 M05/M07
 Q1019=
METAR OIHM 111400Z 30006KT 1000 BR SCT035 OVC090 M01/M02 Q1017=
 METAR OIIE 111400Z 29005KT 8000 SCT025 FEW035CB SCT045 OVC080
 02/M01 Q1019 A3012 NOSIG=
 METAR OIII 111400Z 30008KT 1200 BR SCT030 OVC090 01/M01 Q1019
 A3010 TEMPO 0500 BR FEW035CB SCT030 BKN100 TEMPO 0500 BR FEW035CB SCT030 BKN100=
METAR OIIK 111400Z 00000KT 8000 SCT040 BKN090 00/M04 Q1019=
METAR OIIS 111400Z 00000KT 9999 FEW030 BKN100 04/M02 Q1019=
 METAR OIKB 111400Z 20004KT 7000 FEW025CB SCT030 OVC100 14/11 Q1020
 A3013 NOSIG=
METAR OIKK 111350Z 00000KT 9999 SCT035 BKN100 02/M04 Q1019 A3010=
 METAR OIKO 111350Z 00000KT 6000 FEW015 SCT025CB OVC070 16/10
 Q1021=
 METAR OIKQ 111400Z 34004KT 6000 RA FEW025CB SCT030 OVC090 13/08
 Q1020=
METAR OIMB 111400Z 09014KT 9999 SCT040 BKN090 03/M13 Q1019=
METAR OIMC 111400Z 17010KT 9999 SCT040 11/M06 Q1017=
METAR OIMD 111400Z 00000KT 9999 FEW035 BKN100 06/M05 Q1016=
METAR OIMM 111400Z 14006KT CAVOK 06/M12 Q1017 A3004=
METAR OIMN 111400Z 17010KT CAVOK 05/M06 Q1016 A3002=
METAR OINB 111400Z 00000KT 9999 FEW030 SCT100 BKN190 10/08 Q1013=
METAR OING 111400Z 06004KT 6000 SCT030 BKN090 09/08 Q1015=
METAR OINN 111400Z 16004KT CAVOK 10/09 Q1014=
METAR OINR 111400Z 00000KT 6000 NSC 10/07 Q1013=
 METAR OISA 111350Z 00000KT 8000 -SHRA FEW035CB SCT040 OVC090 02/00
 Q1017 RESH=
 METAR OISF 111350Z 00000KT 8000 FEW035CB SCT040 OVC100 06/03
 Q1018=
 METAR OISL 111400Z 00000KT 9999 FEW020 FEW030CB OVC080 08/05 Q1020
 RERA=
 METAR OISS 111400Z 09004KT 1500 BR FEW030CB SCT035 OVC080 03/03
 Q1019 A3010 RERA=
 METAR OISY 111400Z 00000KT 0900 +SN FEW030CB SCT035 OVC080 00/ M00
 Q1019=
 METAR OITR 111400Z 10004KT 2000 HZ FEW035 SCT170 M07/M09 Q1019
 NOSIG=
 METAR OITT 111400Z 00000KT 5000 HZ FEW035 SCT190 M04/M10 Q1020
 A3013=
METAR OITU 111350Z 00000KT 6000 SCT035 M13/M15 Q1020=
METAR OIYY 111400Z 33008KT 6000 FEW035 BKN100 06/M03 Q1019=
METAR OIZB 111400Z 23004KT 9999 FEW040 BKN090 08/M01 Q1023=
METAR OIZC NIL=
 METAR OIZH 111400Z 11014KT 9999 FEW035 BKN090 05/M07 Q1019 A3011
 NOSIG=
METAR OIZI 111400Z 26012KT 9999 FEW020 OVC090 14/M02 Q1021=
 METAR OIZJ 111400Z 00000KT 8000 FEW025CB SCT030 BKN090 19/05
 Q1020=
METAR YAYT 111350Z 00000KT 9999 SCT035 BKN100 09/M04 Q1020=
0000015100
253
SNST41 EGRR 111300 RRA
AAXX 11134
88900 45/// /0905 10026 20022 39904 49906 56009=
88903 42/// /1403 10054 20041 39910 49910 57011=
0000025200
254
SNST41 EGRR 111400
AAXX 11144
61901 469// /1205 10224 20165 39668 40167 56011 333 8//99 555
 7/090=
88878 46/// /2211 10104 20037 40087 52006=
88889 42586 72216 10068 21018 30014 40100 53013 878// 333 81826
 87632 90710 91125=
0000280100
255
SNUK41 EGRR 111400
AAXX 11144
03005 42470 62819 10046 20001 39930 40031 53013 869//
  333 55303 20259 85915 90710 91131=
03017 47989 /2716 10042 20010 30046 40078 51018 723//
  333 55303 20241 81/69 90710 91131=
03026 47981 /2513 10045 20003 30099 40118 51019 723//
  333 55306 20332 8//99=
03063 45981 /2106 10031 21023 39849 40130 52014
  333 55308 20417 8//99=
03066 45983 /2415 10045 21002 30114 40120 52015
  333 55310 20549 81/64=
03075 47565 /2721 10033 20007 30047 40092 53018 781//
  333 84/20 90710 91132 91032=
03091 45982 /2916 10055 21019 30035 40115 53017
  333 55310 20504 8//99=
03100 47876 /2511 10050 20018 30137 40153 51015 723//
  333 55307 20693 83/57 90710 91132=
03111 46679 /2516 10056 20024 30158 40171 52014
  333 81/33=
03134 45981 /2609 10055 20019 30084 40157 52011
  333 55310 20589 8//99=
03136 45780 /2514 10060 20016 30136 40169 53016
  333 55308 20613 81/50=
03162 42482 42815 10037 20003 39878 40170 53021 84800
  333 41998 55310 20700 83818=
03166 45982 /2613 10048 20017 30079 40150 53013
  333 55310 20636 8//99=
03171 42689 12816 10052 21019 30124 40137 53017 81500
  333 55310 20615 81630=
03204 42484 22610 10069 20033 30172 40192 53015 82101
  333 55310 20796 82818=
03240 45984 /2618 10060 21009 30121 40150 53019
  333 55310 20640 8//99 90710 91126=
03292 469// /2813 10068 20008 30144 40163 53015
  333 8//99=
03354 45583 /2709 10050 20006 30048 40193 53018
  333 55306 20578 81/20=
03377 42583 22811 10059 20012 30097 40182 51014 82100
  333 55306 20566 82821=
03462 45587 /2811 10060 20020 30101 40191 52017
  333 55304 20511 82/28=
03535 45580 /2908 10065 20011 30081 40200 52017
  333 553// 20953 85/27=
03649 42583 33106 10073 20010 30105 40206 52015 83100
  333 55310 2//// 83825=
03680 46/// ///// 10063 20028 30045 40203 52014
  333 553// 20635=
03716 45982 /2806 10072 20026 30148 40208 53003
  333 55310 20923 8//99=
03740 469// /2707 10066 20023 30032 40211 52010
  333 55310 2//// 8//99=
03746 42582 13009 10081 20017 30053 40208 53005 81101
  333 81822=
03772 45582 /2613 10089 20026 30173 40204 52011
  333 55309 20992 84/27=
03796 46/// /3010 10089 20015 30053 40196 51018=
03803 45980 /1108 10099 20040 30172 40210 55002
  333 8//99=
03809 42580 61004 10083 20047 30124 40218 53004 868/2
  333 81825 86630=
03827 45980 /2206 10100 20045 30155 40217 53006
  333 8//99=
03840 45981 /3205 10068 20007 39903 40212 53002
  333 8//99=
03874 46/// /3106 10103 20028 30196 40207 53003=
03882 45967 /3206 10090 20012 30138 40202 51012
  333 55310 20927 8//99=
03894 42484 10207 10085 20046 40219 50000 81801
  333 81818=
03917 45276 /2106 10034 20027 30109 40188 51011
  333 55307 20626 81/05=
0000028300
256
SXHW11 KWAL 111405
B15047DC 011140533"
1,140111,13:00:00,1.0,2,1.0,15.6,1017.7,45.88,13.0,
1,140111,13:15:00,1.0,2,1.0,15.2,1017.7,45.88,12.9,
1,140111,13:30:00,1.0,2,1.0,15.2,1017.6,45.88,12.9,
1,140111,13:45:00,1.0,2,1.0,15.1,1017.5,45.88,12.9, 43+0NN 210W
0000013500
257
SNVD02 CWAO 111400
BBXX
SHIP 11144 99494 70561 46/// /0701 11024 21083 40191 53026 7//// 8//// 22251 00029 2//// =

0000013500
258
SNVD02 CWAO 111400
BBXX
SHIP 11144 99356 11409 46/// /3511 10079 21035 40244 58004 7//// 8//// 22242 0//// 2//// =

0000013500
259
SNVD02 CWAO 111400
BBXX
SHIP 11144 99121 70689 46/// /0909 10275 20221 40176 53027 7//// 8//// 22200 0//// 2//// =

0000013500
260
SNVD02 CWAO 111400
BBXX
SHIP 11144 99489 70580 46/// /1807 11037 21072 40211 53010 7//// 8//// 22231 00008 2//// =

0000013500
261
SNVD02 CWAO 111400
BBXX
SHIP 11144 99487 71235 46/// /1920 10088 20066 49924 50004 7//// 8//// 22200 0//// 2//// =

0000013500
262
SNVD02 CWAO 111400
BBXX
SHIP 11144 99492 70589 46/// /2418 11026 21062 4//// 58691 7//// 8//// 22263 0//// 2//// =

0000013500
263
SNVD02 CWAO 111400
BBXX
SHIP 11144 99483 70468 46/// /2626 11010 21048 40155 58001 7//// 8//// 22211 0//// 2//// =

0000013500
264
SNVD02 CWAO 111400
BBXX
SHIP 11144 99493 71231 46/// /2009 10084 20051 49917 55003 7//// 8//// 22282 0//// 2//// =

00000000