0000191600
065
SZAU01 AMMC 111403
CREX++
T000103 A001 D01021 D06025++
-1927750 14705860 59260 2014 01 11 13 56 3023 11 07 00 01
00942 0197 00937 0196 00933 0197 00931 0199 00932 0205 00918 0195+
-2316110 15079000 59670 2014 01 11 13 56 3000 11 07 00 01
01335 0200 01332 0201 01326 0198 01319 0195 01313 0192 01301 0185+
-3447330 15091170 60420 2014 01 11 13 56 2950 11 07 00 01
00548 -0027 00540 -0037 00543 -0035 00542 -0039 00540 -0042 00546 -0038+
-4105000 14591500 60910 2014 01 11 13 56 2888 11 07 00 01
01446 -0051 01434 -0055 01426 -0057 01421 -0056 01415 -0055 01403 -0061+
-4254640 14793080 61170 2014 01 11 13 56 2900 11 07 00 01
01087 0068 01081 0061 01085 0063 01092 0069 01090 0066 01096 0070+
-3834390 14161360 61410 2014 01 11 13 56 2908 11 07 00 01
00751 0000 00709 -0042 00761 0010 00746 -0006 00762 0010 00734 -0018+
-3214890 13364170 62000 2014 01 11 13 56 2955 11 07 00 01
01427 0063 01432 0065 01436 0067 01440 0069 01444 0070 01450 0074+
-3387080 12189720 62080 2014 01 11 13 56 2950 11 07 00 01
01071 0043 01055 0028 01063 0036 01068 0042 01056 0031 01069 0044+
-3182560 11573860 62237 2014 01 11 13 56 2973 11 07 00 01
00834 0042 00826 0035 00820 0030 00819 0031 00814 0027 00822 0036+
-2422000 11339750 62385 2014 01 11 13 56 //// 11 07 00 01
00991 -0140 01019 -0109 01024 -0102 01030 -0093 01040 -0081 01025 -0094+
-2181670 11419110 62430 2014 01 11 13 56 //// 11 07 00 01
01831 -0043 01834 -0037 01814 -0054 01823 -0042 01815 -0046 01819 -0039+
-1800080 12221830 62650 2014 01 11 13 56 3043 11 07 00 01
05862 0154 05853 0154 05844 0152 05834 0152 05824 0151 05814 0148+
-1247190 13084580 63230 2014 01 11 13 56 3050 11 07 00 01
04644 0071 04650 0073 04656 0076 04659 0071 04661 0069 04665 0068+
-1386000 13641580 63511 2014 01 11 13 56 3042 11 07 00 01
01852 0054 01848 0051 01845 0049 01841 0045 01839 0044 01835 0041++
7777

0000179300
066
SZPS01 AMMC 111403
CREX++
T000103 A001 D01021 D06025++
-0204190 14737360 56130 2014 01 11 13 56 3027 11 07 00 01
00487 0147 00490 0149 00491 0149 00497 0154 00498 0154 00503 0158+
-0669280 15640860 56363 2014 01 11 13 56 //// 11 07 00 01
00621 -0059 00621 -0059 00619 -0062 00617 -0065 00621 -0063 00623 -0062+
-0942890 15995560 56670 2014 01 11 13 56 3038 11 07 00 01
00454 -0054 00454 -0055 00458 -0051 00454 -0056 00459 -0051 00461 -0050+
-1072080 16580190 57131 2014 01 11 13 56 //// 11 07 00 01
02080 1342 02741 2001 01696 0954 02359 1615 01133 0387 02449 1702+
-1551560 16718860 57210 2014 01 11 13 56 //// 11 07 00 01
00892 -0143 00890 -0148 00881 -0160 00895 -0149 00896 -0151 00895 -0154+
-1775690 16830030 57320 2014 01 11 13 56 3015 11 07 00 01
00794 -0085 00797 -0085 00800 -0085 00805 -0083 00812 -0079 00818 -0075+
-4397330 16861610 65180 2014 01 11 13 56 2887 11 07 00 01
01192 0395 01167 0371 01163 0367 01192 0397 01179 0384 01177 0382+
-2120470 -15978530 65980 2014 01 11 13 56 3010 11 07 00 01
00765 0057 00741 0032 00708 -0002 00758 0046 00743 0030 00760 0046+
-2113810 -17518140 66600 2014 01 11 13 56 //// 11 07 00 01
01381 0105 01389 0111 01386 0105 01390 0106 01391 0104 01387 0097+
-1382670 -17176110 66840 2014 01 11 13 56 3010 11 07 00 01
01096 0058 01091 0052 01087 0046 01089 0047 01088 0045 01110 0066+
-1813250 17842750 67050 2014 01 11 13 56 3030 11 07 00 01
01433 0061 01440 0065 01442 0063 01443 0061 01446 0061 01455 0067+
-1760530 17743810 67070 2014 01 11 13 56 3030 11 07 00 01
01550 0024 01555 0025 01559 0025 01564 0026 01567 0025 ///// ////+
-0850250 17919500 67440 2014 01 11 13 56 3027 11 07 00 01
02361 -0017 02384 0004 02376 -0006 02374 -0009 02381 -0004 02376 -0010++
7777

0000226000
067
BDDR90 VABB 111330
FROM AMSS MUMBAI
TO NHEC NEW DELHI
MUMBAI REGION DATA FOLLOWS AS PER YOUR REQUEST

111200Z SYNOPS

SMIN90 VAAH 111200
42921 32996 42904 10260 20024 40114 80001 333 10279 58001 84075=
43111 32997 12308 10188 20090 38630 48510 80001
333 10238 58003 =
43003 31995 03606 10226 20083 40122 70400 333 10260 59004  =
43014 32996 02504 10260 20082 39468 40106 333 10272 58015=
43117 32997 00000 10302 20126 40097
          333 10326 58008 =
43111 32997 12308 10188 20090 38630 48510 80001
        333 10238 58003=
42921 32996 42904 10260 20024 40114 80001
        333 10279 58001 84075=
43157 32997 12301 10266 20110 39478 40104 80001
        333 10302 58008=
43011 32596 00000 10264 20261 4////
        333 10/// 56000 58///=
43113 32996 22902 10266 20106 39329 40093 80001
        333 10300 58///=
43158 32997 01802 10286 20120 39493 40093
        333 10300 58008=
42851 32997 00501 10282 20151 40119
        333 10285 58016=
43193 32996 00000 10266 20177 40142
        333 10304 58010=
43058 32996 03206 10240 20103 40124
      222// 20000
        333 10253 58004=
43110 31996 03204 10252 20141 40131 70544
        333 10274 58013=
43075 32898 02302 10280 20083 39369 40087
        333 10293 58003=
43057 32996 03404 10220 20068 40126
        333 10254 58000=
43117 32997 00000 10302 20126 40097
        333 10326 58008=
43063 32997 12703 10272 20096 39486 40099 80001 333 10300 58001
81072 =
00157 32996 12509 10271 20081 39457 40112 80001 333 10294 58001 =
42925 32997 00000 10232 20081 40117
        333 10259 58011=
43109 31996 03404 10236 20179 40132 70544
      222// 21201
        333 10245 58009=
43192 31996 62908 10260 20181 40120 70511 80002 333 10307 58010=
42634 32997 01602 10214 20118 40179 333 10230 58029=
43001 32997 23402 10220 20074 40133 80001
        333 10231 58006=
43017 32997 00000 10256 20116 40113
        333 10290 58011=
43009 32996 02301 10260 20136 40114
        333 10312 58009=
43076 32997 21102 10280 20158 40054 81085
        333 10292 58005=
43021 32997 00000 10300 20154 40090
        333 10310  58002=
42638 32996 20212 10206 20125 40166 80001 333 10229 58024 82085=

0000010800
068
SMIN90 VAAH 111200 COR
AAXX 11124
42834 32997 03606 10218 20083 40146
  333 10229 58012=
0000016700
069
SMIN90 VAAH 111200 COR
AAXX 11124
42634 32996 00210 10198 20057 40170
  333 10215 58015=
42654 32997 01602 10214 20118 40179
  333 10230 58029=
0000008700
070
UXIN90 VABB 111200

PPAA 6112/ 43003 NO ASCENT DUE TO STAFF SHORTAGE=
0000013800
071
UPIN90 VAAH 111200
PPAA 61111 42634 55292 03517 06016 77999=
PPAA 61111 42840 55392 03009 18503 32012 55150 31536 77999=
0000021200
072
UGIN90 VAAH 111200
PPBB 61111 42634 90012 36011 02527 03516 90350 04011 06016=
PPBB 61111 42840 90012 31506 34009 02509 90347 05508 10504 26006
90800 32510 91250 32013 30518 92010 31537 31044=
0000017300
073
UXIN90 VAAH 111200
PPAA 6112/ 42539 NO ASCENT DUE TO  OFFICE BUILDING UNDER RENOVATION=
PPAA 6112/ 42909 NO ASCENT DUE TO   SUSPENSION OF P.B. OBSERVATION=
0000009600
074
SAIN90 VOVZ 111400
METAR VOVZ 111400Z VRB02KT 3000 BR NSC 25/21 Q1015 NOSIG =

0000009200
075
SAIN90 VOCB 111400
METAR VOCB 111400Z 07005KT 5000 HZ NSC 27/15 Q1014 NOSIG=
0000008600
076
SAIN90 VAUD 111400
METAR VAUD 111400Z 00000KT 3000 HZ NSC 15/06 Q1020=
0000034200
077
SZIO01 AMMC 111403
CREX++
T000103 A001 D01021 D06025++
-1211670 09689190 46280 2014 01 11 13 56 3020 11 07 00 01
00646 0013 00640 0007 00640 0008 00642 0011 00636 0005 00637 0007+
-1042940 10566940 46290 2014 01 11 13 56 //// 11 07 00 01
00865 0028 ///// //// ///// //// 00850 0020 00818 -0010 00849 0023++
7777

0000046700
078
SZPA01 AMMC 111403
CREX++
T000103 A001 D01021 D06025++
0136250 17293000 67590 2014 01 11 13 56 3015 11 07 00 01
02105 0121 02103 0118 02103 0117 02115 0128 02096 0108 02114 0126+
0710610 17137250 67680 2014 01 11 13 56 3013 11 07 00 01
01342 0043 01342 0043 01337 0038 01346 0047 01345 0046 01343 0044+
0698060 15820000 67950 2014 01 11 13 56 3023 11 07 00 01
00727 0039 00727 0039 00727 0039 00726 0037 00727 0038 00726 0037++
7777

0000011200
079
SAOM32 OOMS 111400 RRA
METAR OOMS 111350Z 07011KT 9999 FEW030 SCT100 BKN200 21/08 Q1020
NOSIG=
0000011800
080
SNVD25 LFPW 111400
BBXX
BATEU06 11144 99463 70545 46/// /2713 10007 21023 40243 50004
22225 04007=
0000011800
081
SNVE25 LFPW 111400
BBXX
BATFR28 11144 99013 11043 46/// /0317 10270 20234 40118 51013
22263 04280=
0000024100
082
SOAT10 KWAL 111403
FA8005BC 011140337 OT12 ID:KN-BASS-01 DT:2014 01 11 14 01
:RD -3063 -3045 -3048 -3062 -3061 -3068 -3049 -3051 -3055 -3042
:PR 0582 0634 0614 0598 0576 0564 0605 0694 0638 0613
:B 13.7V
 46+1NN 219E
0000009900
083
SAIQ01 ORBI 111400
METAR ORMM 111400Z 27012KT 9999 FEW040 BKN100 13/08 Q1018 NOSIG=
0000011000
084
UANT99 KDDL 111401
ARP KLM757 4901N02955W 1401 F330 MS47 196/29 KT
PHBQM QXT AOE 111401 F22A
00000000