0000191800
305
SZAU01 AMMC 111406
CREX++
T000103 A001 D01021 D06025++
-1927750 14705860 59260 2014 01 11 13 59 3023 11 07 00 01
00931 0199 00932 0205 00918 0195 00921 0202 00914 0199 00911 0201+
-2316110 15079000 59670 2014 01 11 13 59 3000 11 07 00 01
01319 0195 01313 0192 01301 0185 01289 0176 01284 0174 01271 0164+
-3447330 15091170 60420 2014 01 11 13 59 2948 11 07 00 01
00542 -0039 00540 -0042 00546 -0038 00544 -0042 00546 -0042 00547 -0043+
-4105000 14591500 60910 2014 01 11 13 59 2888 11 07 00 01
01421 -0056 01415 -0055 01403 -0061 01401 -0055 01389 -0061 01394 -0050+
-4254640 14793080 61170 2014 01 11 13 59 2900 11 07 00 01
01092 0069 01090 0066 01096 0070 01097 0070 01093 0064 01096 0066+
-3834390 14161360 61410 2014 01 11 13 59 2908 11 07 00 01
00746 -0006 00762 0010 00734 -0018 00737 -0015 00735 -0017 00729 -0023+
-3214890 13364170 62000 2014 01 11 13 59 2955 11 07 00 01
01440 0069 01444 0070 01450 0074 01452 0074 01453 0072 01457 0074+
-3387080 12189720 62080 2014 01 11 13 59 2950 11 07 00 01
01068 0042 01056 0031 01069 0044 01061 0037 01054 0031 01036 0014+
-3182560 11573860 62237 2014 01 11 13 59 2973 11 07 00 01
00819 0031 00814 0027 00822 0036 00815 0031 00819 0036 00819 0037+
-2422000 11339750 62385 2014 01 11 13 59 //// 11 07 00 01
01030 -0093 01040 -0081 01025 -0094 01048 -0068 01048 -0066 00998 -0113+
-2181670 11419110 62430 2014 01 11 13 59 //// 11 07 00 01
01823 -0042 01815 -0046 01819 -0039 01821 -0033 01816 -0035 01814 -0035+
-1800080 12221830 62650 2014 01 11 13 59 3043 11 07 00 01
05834 0152 05824 0151 05814 0148 05803 0149 05794 0147 05785 0150+
-1247190 13084580 63230 2014 01 11 13 59 3050 11 07 00 01
04659 0071 04661 0069 04665 0068 04669 0065 04671 0062 04675 0059+
-1386000 13641580 63511 2014 01 11 13 59 3042 11 07 00 01
01841 0045 01839 0044 01835 0041 01833 0039 01830 0037 01828 0036++
7777

0000016300
306
SSVX13 LFPW 111400
ZZYY 13593 11014 1400/ 738166 018534 6113/ 22219 00168 33300 88872
 20000 43620 444 20130 11014 1355/ 50101 80118 80034 9/015=
0000015700
307
SSVX13 LFPW 111400
ZZYY 62508 11014 1400/ 745923 006071 6113/ 11119 40200 57017 22219
 00131 444 20130 11014 1356/ 50101 80104 80031 9/015=
0000015700
308
SSVX13 LFPW 111400
ZZYY 62507 11014 1400/ 747386 011727 6113/ 11119 40134 57033 22219
 00119 444 20130 11014 1355/ 50101 80104 80031 9/015=
0000024000
309
SNQB50 LQSM 111400
AAXX 11141
14543 NIL=
14549 46/// /1301 10179 2//// 39789 40190 70000=
14554 NIL=
14650 42660 42302 10092 20034 39119 48555 83804 333 82836 83640=
14657 46/// /1300 10125 21002 30209 40209 57010=
0000030800
310
SNQB45 LQSM 111400
AAXX 11141
14528 42670 61803 10150 20063 39908 40199 82541 333 82640=
14537 NIL=
14544 42670 32003 10141 20069 39550 40203 81501 333 81643=
14557 42970 12301 10166 20050 39849 40207 80002 333 81070=
14640 42465 73001 10102 20072 39388 48550 87800 333 84816 83633=
0000031600
311
SNQB40 LQSM 111400
AAXX 11141
14654 42770 22702 10137 20029 39463 40193 81130 333 81850=
14648 42770 62701 10134 20092 30110 40229 82530 333 82650 84361=
14652 41001 32307 11006 21006 37960 48525 74444 83101 333 83800=
14542 42970 52501 10181 20042 30017 40202 56012 81046 333 81359 95900
=
0000082300
312
SAGU31 MGGT 111400
METAR
METAR MGMM 111400Z 00000KT 9999 BKN016 20/19 Q1017 A3003=
METAR MGHT 111400Z 00000KT CAVOK 09/06 QFE 818.4=
METAR MGPB 111400Z 00000KT 9999 FEW018 22/21 Q1016 A3000=
METAR MGGT 111400Z 00000KT CAVOK 14/12 Q1027 A3033  VOL. PACAYA CON
VA A 9000FT CON DIRECCION S-SSW A UNA DISTANCIA DE 6-10KM=
METAR MGSJ 111400Z 00000KT CAVOK 23/19 Q1015 A2997=
METAR MGRT 111400Z 00000KT CAVOK 23/19 Q1017 A3003 VOL. STA. MARIA Y
SANTIAGUITO EN ACTIVIDAD=
METAR MGQZ 111400Z 00000KT 0000 FG VV/// 05/05 QFE 768.6 APCH CLSD=
METAR MGCB 111400Z 00000KT CAVOK 12/11 QFE 871.8=
METAR MGZA 111400Z 00000KT CAVOK 22/17 QFE 991.7=
METAR MGES 111400Z 00000KT 9999 BKN016 18/16 QFE 912.3=
METAR MGMT 111400Z 00000KT CAVOK 24/19 QFE 1009.5=
METAR MGTU 111400Z 05004KT CAVOK 23/21=
0000018400
313
SSVX13 LFPW 111400
ZZYY 41800 11014 1400/ 725925 035872 6110/ 11119 40196 57008 22219
 00231 33300 88872 20000 43749 444 20100 11014 1400/ 50101 80148
 80071 9/015=
0000018400
314
SSVX13 LFPW 111400
ZZYY 62503 11014 1400/ 745971 002442 6113/ 11119 40203 57011 22219
 00134 33300 88872 20000 43543 444 20130 11014 1200/ 50101 80100
 80000 9/015=
0000018400
315
SSVX13 LFPW 111400
ZZYY 62504 11014 1400/ 756230 018639 6110/ 11119 40084 57019 22219
 00101 33300 88872 20000 43535 444 20100 11014 1400/ 50101 80134
 80000 9/015=
0000016000
316
SSVX02 KARS 111402
ZZYY 71675 11014 1330/ 347677 161549 6113/
11119 39993 49993
22219 00115
444 20130 11014 1236/ 50101 80060 80052 9/015=
0000113000
317
SNNO21 ENMI 111400
AAXX 11141
01001 46/// /1005 10002 21008 30138 40150 55001=
01008 46/// /2508 11004 21034 30064 40098 55000=
01010 41689 11703 11072 21121 30157 40174 52001 70200 81100=
01026 26/// /2502 11105 21116 30041 40191 51003 333 60005=
01055 46/// /2403 11015 21087 30160 40178 54000=
01062 46/// /2005 11013 21045 30101 40114 50002=
01098 46/// /1301 11033 21068 30145 40164 52003=
01115 26/// /1209 11045 21166 30083 40105 52002 333 60005=
01152 46/// /0909 11074 21192 30118 40134 52002=
01205 46/// /0000 11009 21051 39952 49998 52009=
01212 26/// /1902 11025 21050 39979 49997 52005 333 69915=
01271 47984 80603 11095 21153 30020 40042 52002 700//=
01288 46/// /1205 11155 21182 39264 40057 56005=
01300 NIL=
01317 26/// /3105 10024 21005 39984 49999 52020 333 60005=
01367 46/// /1102 11072 21095 39553 40008 52001=
01384 46470 /0503 11063 21079 57002=
01403 46/// /3110 10048 20027 39933 40002 53006=
01415 47678 63007 10061 20024 39995 40005 55003 700//=
01482 46/// /0108 10014 20002 39971 49981 54000=
01492 46/// /0305 11046 21062 39877 49998 57001=
0000090400
318
SNNO22 ENMI 111400
AAXX 11141
01003 NIL=
01007 46/// /1601 11007 21056 30083 40093 52004=
01028 41470 23602 11011 21018 30127 40147 50004 70100 82260=
01047 NIL=
01049 26/// /2001 11136 21152 30192 40196 57002 333 60005=
01078 46/// /2503 11047 21073 30164 40175 54001=
01102 46/// ///// 11061 21121 30052 40072 54000=
01160 46/// /0608 11047 21127 30132 40150 57001=
01218 26/// /0501 11058 21090 39984 40006 53006 333 60005=
01238 46/// /0402 11147 21168 38830 49957 52004=
01241 46/// /0907 11065 21119 30007 40019 50003=
01281 46/// /0807 11102 21160 39904 40088 58002=
01338 46/// /2106 10026 21003 39905 49971 53002=
01359 46/// /0602 11056 21067 39054 49979 53002=
01397 46/// /3102 11115 21133 39586 40044 55003=
01400 NIL=
01427 26/// /2811 10048 20027 39992 40007 56005 333 69925=
01447 NIL=
01448 46/// /3005 10050 20015 39990 40000 56009=
0000011100
319
UANT01 CWAO 111405
ARP DAL187 5029N04533W 1405 F360 MS61 281/60 KT
N173DZ QXT AOW 111405 F44A
0000011000
320
UANT01 CWAO 111405
ARP VIR73Q 5204N01727W 1405 F370 MS60 230/83 KT
GVAST DDL XXF 111405 F43A
0000011000
321
UANT01 CWAO 111405
ARP JAI228 5120N03748W 1405 F350 MS57 301/47 KT
VTJWS QXT AOE 111405 J89A
0000011000
322
UANT01 CWAO 111405
ARP FDX38 5333N05200W 1405 F350 MS62 294/75 KT
N887FD DDL YAY 111405 F22A
0000015700
323
SSVX13 LFPW 111400
ZZYY 16531 11014 1400/ 322276 104792 6113/ 11119 40132 52014 22219
 00248 444 20130 11014 1200/ 50101 80108 80003 9/015=
0000015700
324
SSVX13 LFPW 111400
ZZYY 33955 11014 1400/ 542473 041794 6113/ 11119 40073 52010 22219
 00136 444 20130 11014 1200/ 50101 80142 80005 9/015=
00000000