0000046700
122
SZPA01 AMMC 111345
CREX++
T000103 A001 D01021 D06025++
0136250 17293000 67590 2014 01 11 13 38 3015 11 07 00 01
02066 0102 02066 0100 02068 0101 02064 0096 02073 0104 02065 0094+
0710610 17137250 67680 2014 01 11 13 38 3013 11 07 00 01
01339 0046 01345 0052 01341 0047 01346 0051 01345 0050 01342 0046+
0698060 15820000 67950 2014 01 11 13 38 3023 11 07 00 01
00744 0063 00743 0061 00739 0057 00736 0053 00740 0057 00737 0054++
7777

0000039800
123
SWIO40 RJTD 111345
:PRS 1 #1 1757 1764 1754 1782 1742 1760 1772 1746 1777 1757 1766 1745
1746 1745 1757 1711 1761 1719 1740 1742 1748 1743 1731 1737 1744 1744
1747 1754 1726 1736 :RAD 1 #3 6147 6148 6141 6133 6122 6120 6126 6120
6121 6118 :ENC 5 #5 5135 5129 5116 5119 5122 5108 5094 5093 5088 5087
5090 5106 :SW1 45 #60 60 :SW2 15 #60 57 :BAT 14 #15 12.7 :NAME 
0650018E=
0000030800
124
USVS01 VNNN 111200 RRC
TTAA 11121 48855 99019 22221 32001 00167 21629 03004 92839 16412 07008 85554 11835 07007 70163 090
65 28504 50588 05763 25509 40760 14580 29005 30971 30972 17003 25098 415// 18006 20245 539// 23507
 15423 697// 18522 10657 777// 23506 88999 77999 31313 48008 81149=
0000082100
125
UKVS01 VNNN 111200 RRC
TTBB 11128 48855 00019 22221 11889 14643 22836 10823 33783 09030 44727 04804 55721 06858 66718 102
73 77715 10474 88666 05848 99609 02028 11569 00042 22554 01543 33546 01359 44523 03357 55509 04764
 66479 07959 77467 07371 88425 10583 99358 21174 11341 22775 22270 37768 33250 415// 44225 481// 5
5183 583// 66140 733// 77108 803// 88100 777// 21212 00019 32001 11983 06005 22890 07009 33836 070
05 44764 28502 55658 30505 66605 27509 77571 23013 88553 23514 99534 23511 11509 26509 22472 23508
 33463 24506 44351 21505 55293 19002 66257 19505 77249 17506 88238 20005 99232 18506 11219 23007 2
2208 22006 33198 24507 44189 23509 55180 20508 66166 20009 77163 18509 88142 18024 99130 17512 111
21 18510 22116 18008 33108 17016 44100 23506 31313 48008 81149 41414 785//=
0000011000
126
UANT01 CWAO 111344
ARP DAL15 5044N04443W 1343 F320 MS59 286/57 KT
N839MH QXT AOW 111344 F59A
0000010900
127
UANT01 CWAO 111344
ARP VIR3N 5051N04421W 1344 F360 MS64 296/52 KT
GVUFO DDL XXH 111344 J97A
0000011100
128
UANT01 CWAO 111344
ARP BER7402 4815N03620W 1343 F370 MS55 304/40 KT
DABXA QXT AOE 111344 J33A
0000011000
129
UANT01 CWAO 111344
ARP AAL57 4908N02333W 1344 F320 MS53 185/77 KT
N724AN DDL XXN 111344 F32A
0000055800
130
SSVX02 KARS 111341
ZZYY 31908 11014 1300/ 704315 017347 6111/
22219 00277
444 20110 11014 1116/ 50101 80118 80006 9/015=
ZZYY 15905 11014 1305/ 510589 006565 6112/
444 20120 11014 1124/ 50101 80100 80009 9/015=
ZZYY 31910 11014 1300/ 704090 014717 6112/
22219 00284
444 20120 11014 1119/ 50101 80120 80006 9/015=
ZZYY 15618 11014 1319/ 704106 010278 6111/
22219 00287
444 20110 11014 1116/ 50101 80102 80003 9/015=
ZZYY 15913 11014 1317/ 306695 008006 6112/
22219 00278
444 20120 11014 0937/ 50101 80102 80044 9/015=
0000011100
131
UANT01 CWAO 111344
ARP DAL241 5106N02713W 1344 F330 MS54 169/69 KT
N176DN QXT AOE 111344 F57A
0000011000
132
UANT01 CWAO 111344
ARP DLH400 5405N02732W 1344 F340 MS60 189/58 KT
DABTL QXT EUA 111344 F20A
0000011100
133
UANT01 CWAO 111344
ARP AAL199 5106N02643W 1344 F320 MS53 174/69 KT
N344AN DDL XXN 111344 F76A
0000304000
134
UKRA02 RUHB 111200
TTBB 11123 24944 00023 45759 11929 32757 22855 30744 33762 30129
44702 32123 55656 32928 66406 52932 77325 56733 88285 57137 99101
46159 21212 00023 08001 11972 24005 22935 29510 33885 29009 44827
30508 55817 29508 66796 31007 77768 30507 88728 33507 99586 35507
11544 35008 22316 02509 33274 01009 44235 01507 55204 00505 66165
31505 77138 28506 88104 25013 31313 52803 81130 41414 9////=
TTBB 11123 24959 00024 43937 11000 43542 22968 43941 33829 26123
44759 26521 55733 25936 66657 28158 77579 34961 88481 44558 99440
46358 11326 60157 22238 57557 33236 57757 44220 52958 55152 52360
66101 44965 21212 00024 22001 11001 34005 22968 31505 33894 31011
44787 32505 55741 34503 66657 12503 77597 16503 88579 15004 99543
17006 11526 15008 22409 12513 33357 14018 44334 14517 55272 13509
66257 11008 77240 11012 88224 14508 99210 11506 11196 13505 22184
15506 33173 15008 44161 18505 55152 17006 66142 19505 77133 19006
88107 23010 31313 58903 81130 41414 00901=
TTBB 11123 25123 00024 40118 11015 38923 22955 10750 33900 10160
44874 10962 55776 16363 66683 19564 77672 19963 88547 32334 99518
34157 11405 47733 22398 50930 33357 54731 44237 65532 55218 65933
66204 59336 77173 55939 88100 53957 21212 00024 13001 11963 07002
22756 10008 33402 09521 44/// ///// 55315 09524 66251 11510 77197
09503 88168 25505 99101 25021 31313 52703 81140 41414 00900=
TTBB 11123 25400 00022 24730 11909 29115 22880 22708 33867 21907
44813 19945 55766 20361 66742 21361 77639 26757 88510 39556 99374
52544 11366 52943 22294 56150 33222 55957 44181 51959 55101 50965
21212 00022 33004 11970 34515 22942 35014 33915 33514 44875 03009
55855 03008 66836 06008 77757 09014 88700 09012 99656 11013 11643
09515 22629 11014 33415 10525 44399 11526 55385 12024 66313 10523
77295 12022 88263 10519 99184 14507 11161 18506 22143 21008 33105
22517 31313 55803 81132 41414 00907=
TTBB 11121 25428 NIL=
TTBB 11123 25703 00995 24326 11875 31921 22806 24913 33726 24313
44699 25513 55667 26315 66515 44122 77498 44120 88393 52127 99329
54331 11101 45558 21212 00995 36004 11974 01508 22943 36010 33911
36014 44882 00513 55831 05012 66758 07513 77514 09525 88452 09013
99406 10015 11380 09515 22332 12008 33309 10509 44270 11509 55222
15508 66208 14005 77196 15007 88173 20508 99160 19507 11126 21510
22110 22017 31313 52903 81131 41414 50937=
TTBB 11123 25913 00996 18758 11961 20758 22922 19158 33786 26541
44755 24735 55699 26721 66629 31530 77571 32949 88536 37557 99484
41758 11469 42160 22436 43560 33333 53360 44288 56960 55265 55760
66224 49561 77154 48163 88118 43365 21212 00996 11004 11975 06509
22946 04514 33922 08012 44873 09011 55801 01507 66778 00506 77755
03006 88711 03004 99672 35007 11653 00507 22633 35510 33614 34512
44528 32510 55497 34509 66451 33006 77430 30009 88380 30506 99358
33003 11314 10004 22292 09005 33257 13505 44226 13007 55212 11509
66165 15009 77155 18508 88138 20508 99126 18510 31313 52903 81132
41414 00900=
0000080900
135
SAUZ31 UTTW 111330
METAR UTFN 111330Z 32002MPS 0800 R28/1200 FZFG NSC M04/M04 Q1025
R28/CLRD70 NOSIG=
METAR UTNN 111330Z 09003MPS CAVOK M00/M02 Q1020 R33/CLRD60 NOSIG=
METAR UTNU 111330Z 09001MPS 6000 SCT200 02/M03 Q1020 R31/CLRD60
NOSIG=
METAR UTSA 111330Z 12005MPS 8000 FEW026 02/M05 Q1021 R25/CLRD70
NOSIG=
METAR UTSB 111330Z 16004MPS 6000 NSC 06/M08 Q1021 R01/CLRD70 NOSIG=
METAR UTSK 111330Z NIL=
METAR UTSS 111330Z 10001MPS 9999 NSC 02/M05 Q1021 R88/CLRD70 NOSIG=
METAR UTST 111330Z 14002MPS CAVOK 06/M06 Q1023 R88/CLRD70 NOSIG=
METAR UTFA 111330Z 06001MPS 0700 R04/0700 FZFG NSC M04/M06 Q1026
R88/09//70=
METAR UTFF 111330Z 35001MPS 0400 R18/0500N FZFG NSC M03/M05 Q1024
R18/CLRD70=
METAR UTTT 111330Z VRB01MPS 4000 FU NSC 02/M04 Q1022 R08R/CLRD70
NOSIG=
0000013200
136
FCBY31 UMMM 111400
TAF UMMM 111340Z 1115/1124 27009G14MPS 9999 BKN010 BKN015CB
TEMPO 1115/1114 2000 SHSNRA BKN007=
0000083500
137
FCUR30 UKMS 111300
TAF UKHH 111340Z 1115/1124 28008G14MPS 9999 BKN013
         SCT020CB TEMPO  1115/1124 24008G17MPS 2100
         -SHSNRA BKN007 BKN013CB TX04/1115Z
         TN00/1124Z=
TAF UKDE 111331Z 1115/1124 28007G12MPS 9999 BKN010
         BKN020CB TEMPO  1115/1118 30012G17MPS
         TX05/1115Z TN00/1124Z=
TAF UKKK 111332Z 1115/1124 27007G12MPS 9999 BKN010
         OVC030  TEMPO 1115/1124 25012G18MPS 1000
         SHRASN BR BKN003 BKN015CB  TX03/1115Z
         TN00/1124Z=
TAF UKLR 111340Z 1115/1124 26007G12MPS 9999 BKN010
         SCT013CB TEMPO  1115/1124 2100 -SHRA OVC006
         BKN013CB TX03/1115Z TN00/1123Z=
TAF UKCW 111334Z 1115/1124 26009G15MPS 3100 -SHRA BR
         BKN011 BKN020CB  TEMPO 1115/1124 0500 -SHRA
         FG BKN002 BKN015CB TX04/1115Z TN03/1124Z=
0000128000
138
WWUS75 KBOI 111343
NPWBOI
URGENT - WEATHER MESSAGE
NATIONAL WEATHER SERVICE BOISE ID
643 AM MST SAT JAN 11 2014
...STRONG WINDS THROUGH THIS EVENING...
IDZ015-029-ORZ061-063-112230-
/O.CON.KBOI.WI.Y.0001.140111T1500Z-140112T0600Z/
SOUTHWEST HIGHLANDS-OWYHEE MOUNTAINS-HARNEY COUNTY-MALHEUR COUNTY-
643 AM MST SAT JAN 11 2014
...WIND ADVISORY REMAINS IN EFFECT UNTIL 11 PM MST /10 PM PST/
THIS EVENING...
A WIND ADVISORY REMAINS IN EFFECT FOR HARNEY AND MALHEUR COUNTIES
IN SOUTHEAST OREGON AND FOR THE SOUTHWEST HIGHLANDS AND OWYHEE
MOUNTAINS IN SOUTHWEST IDAHO UNTIL 11 PM MST /10 PM PST/ THIS
EVENING.
* WINDS...25 TO 35 MPH...WITH GUSTS TO AROUND 50 MPH. HOWEVER...AT
  ELEVATIONS ABOVE 6000 FEET...GUSTS WILL BE NEAR 70 MPH.
* TIMING...WINDS WILL BE STRONG THROUGH TONIGHT...WITH THE
  STRONGEST WINDS THIS AFTERNOON AND EVENING.
* IMPACTS...WINDS WILL MAKE DRIVING HIGH-PROFILE VEHICLES
  DIFFICULT. THEY MAY ALSO BLOW AWAY SMALLER UNSECURED OBJECTS.
PRECAUTIONARY/PREPAREDNESS ACTIONS...
A WIND ADVISORY MEANS THAT SUSTAINED WINDS OF AT LEAST 30 MPH...
OR GUSTS OF AT LEAST 45 MPH ARE EXPECTED. WINDS THIS STRONG CAN
MAKE DRIVING DIFFICULT...ESPECIALLY FOR HIGH PROFILE VEHICLES.
USE EXTRA CAUTION.
&&
$$
0000010300
139
SAPK31 OPSK 111320
METAR OPSK 111330Z 000000KTS 5000 HZ FEW200 18/09 QNH 1020 RH.58 PC=
0000015000
140
UHBZ02 SBBR 111200 RRA
PPCC  61128 82900 44370 10509 07008 01520 44120 10526 77999=
PPCC  61128 82983 44370 02017 07011 02514 77999=
0000081800
141
UEAG01 SABM 111200 RRP
TTDD 6112/ 87344
11965 74570 22856 66579 33740 71775 44643 70578 55580
63980 66552 65379 77543 62580 88513 63980 99462 58981
11384 61980 22365 58181 33325 55782 44295 57782 55260
51384 66232 49984 77208 51583 88147 47385 99135 44785
11133 40787 22127 38387 33113 42186 44101 42786
21212 11968 24584 22921 23574 33821 22018 44779 23011
55765 21508 66746 20510 77730 22011 88710 19011 99670
18010 11645 15014 22599 14508 33586 15011 44551 12020
55520 06525 66508 04023 77481 02012 88479 02010 99468
07502 11456 14010 22448 14016 33419 13508 44398 09513
55365 07522 66312 09027 77257 07534 88236 08531 99226
11024 11212 09027 22203 11020 33185 11027 44177 09522
55170 10527 66161 08534 77149 09042 88132 08532 99122
06037 11101 09033
31313 48008 81105=
00000000