0000015700
145
SSVX13 LFPW 111400
ZZYY 44762 11014 1400/ 751167 006149 6113/ 11119 40203 57006 22219
 00107 444 20130 11014 1357/ 50101 80096 80000 9/015=
0000015700
146
SSVX13 LFPW 111400
ZZYY 62714 11014 1400/ 734353 021701 6113/ 11119 40125 57018 22219
 00193 444 20130 11014 1357/ 50101 80100 80000 9/015=
0000015700
147
SSVX13 LFPW 111400
ZZYY 62687 11014 1400/ 166121 001373 6113/ 11119 40061 52003 22219
 00075 444 20130 11014 1357/ 50101 80098 80000 9/015=
0000015700
148
SSVX13 LFPW 111400
ZZYY 44624 11014 1400/ 746730 020013 6113/ 11119 49952 57016 22219
 00128 444 20130 11014 1357/ 50101 80098 80018 9/015=
0000009000
149
SAYE20 OYIB 111200 RRA
METAR OYIB 111200Z 27006KT 9999 SCT025 23/12 Q1020=
0000014400
150
SAYE20 OYSC 111400 RRA
METAR OYTZ 111400Z 26008KT 8000 FEW025 24/12 Q1020=
METAR OYTZ 111300Z 24008KT 9999 FEW025 25/10 Q1019=
0000009000
151
SAYE20 OYIB 111300 RRA
METAR OYIB 111300Z 30004KT 9999 SCT025 22/12 Q1020=
0000008400
152
SAYE20 OYMB 111400 RRA
METAR OYMB 111400Z 06005KT CAVOK 28/07 Q1015=
0000012800
153
SNRE15 FMEE 111400
AAXX 11144
61998 26/// /2319 10069 20018 30038 40075 51009
  333 58039 60005 90710 91127=
0000147100
154
UDAS02 BABJ 111352
AMDAR 1113
LVR CNFPYN 3050N 11712E 111346 F246 MS275 264/081 TB/ S//1=
LVR CNFPYN 3043N 11711E 111347 F246 MS276 264/081 TB/ S//1=
LVR CNFPYN 3036N 11711E 111348 F246 MS268 262/082 TB/ S//1=
LVR CNFPYN 3029N 11711E 111349 F246 MS263 262/084 TB/ S//1=
DES CNFNXQ 3843N 10509E 111347 F235 MS410 278/063 TB/ S//1=
DES CNFNXQ 3840N 10518E 111348 F219 MS370 280/063 TB/ S//1=
DES CNFNXQ 3838N 10525E 111349 F208 MS341 281/057 TB/ S//1=
DES CNFNXQ 3837N 10527E 111349 F205 MS335 285/053 TB/ S//1=
LVR CNFNXM 2802N 11141E 111337 F301 MS323 252/123 TB/ S//1=
LVR CNFNXM 2757N 11122E 111340 F301 MS323 252/122 TB/ S//1=
LVR CNFNXM 2753N 11104E 111343 F301 MS328 252/120 TB/ S//1=
LVR CNFNXM 2748N 11046E 111346 F301 MS333 253/119 TB/ S//1=
LVR CNFPQK 3112N 10718E 111345 F197 MS208 293/051 TB/ S//1=
LVR CNFPQK 3109N 10717E 111346 F197 MS208 293/049 TB/ S//1=
LVR CNFPQK 3103N 10715E 111347 F197 MS208 293/048 TB/ S//1=
LVR CNFPQK 3058N 10712E 111348 F197 MS208 291/045 TB/ S//1=
DES CNFPQL 3632N 12039E 111347 F194 MS278 273/064 TB/ S//1=
DES CNFPQL 3634N 12039E 111347 F189 MS265 271/064 TB/ S//1=
DES CNFPQL 3639N 12043E 111348 F172 MS235 280/054 TB/ S//1=
DES CNFPQL 3645N 12046E 111349 F155 MS220 281/044 TB/ S//1=
DES CNFLWL 3946N 11637E 111348 F044 MS078 322/019 TB/ S//1=
DES CNFLWL 3949N 11637E 111349 F044 MS080 322/020 TB/ S//1=
DES CNFLWL 3952N 11636E 111350 F040 MS071 326/019 TB/ S//1=
0000128500
155
UDAS02 BABJ 111354
AMDAR 1113
DES CNFLWS 2310N 11303E 111348 F050 PS103 190/007 TB/ S//1=
DES CNFLWS 2310N 11305E 111348 F047 PS113 213/006 TB/ S//1=
DES CNFLWS 2311N 11308E 111349 F040 PS130 226/006 TB/ S//1=
DES CNFLWS 2312N 11311E 111350 F031 PS125 243/003 TB/ S//1=
LVR CNFPQK 3054N 10710E 111348 F197 MS208 291/043 TB/ S//1=
DES CNFPQK 3052N 10709E 111349 F193 MS195 290/043 TB/ S//1=
DES CNFPQK 3046N 10707E 111350 F183 MS170 293/038 TB/ S//1=
DES CNFPQK 3041N 10704E 111351 F173 MS145 280/034 TB/ S//1=
DES CNFPTK 3129N 12231E 111348 F125 MS083 262/047 TB/ S//1=
DES CNFPTK 3127N 12227E 111349 F115 MS058 264/047 TB/ S//1=
DES CNFPTK 3125N 12224E 111350 F099 MS038 252/035 TB/ S//1=
DES CNFPTK 3121N 12220E 111351 F084 MS043 269/023 TB/ S//1=
DES CNFNXQ 3835N 10535E 111350 F189 MS305 292/050 TB/ S//1=
DES CNFNXQ 3832N 10543E 111351 F167 MS268 301/047 TB/ S//1=
DES CNFNXQ 3830N 10549E 111352 F150 MS230 302/042 TB/ S//1=
DES CNFNXQ 3830N 10551E 111352 F148 MS215 300/043 TB/ S//1=
DES CNFPQL 3649N 12048E 111350 F148 MS208 278/047 TB/ S//1=
DES CNFPQL 3650N 12049E 111350 F148 MS209 279/048 TB/ S//1=
DES CNFPQL 3655N 12052E 111351 F133 MS185 284/043 TB/ S//1=
DES CNFPQL 3700N 12055E 111352 F118 MS160 282/034 TB/ S//1=
0000190500
156
UDAS02 BABJ 111355
AMDAR 1113
LVR CNFPYN 3022N 11710E 111350 F246 MS264 261/087 TB/ S//1=
LVR CNFPYN 3015N 11710E 111351 F246 MS258 264/089 TB/ S//1=
LVR CNFPYN 3007N 11709E 111352 F246 MS260 264/086 TB/ S//1=
LVR CNFPYN 3000N 11709E 111353 F246 MS260 264/085 TB/ S//1=
DES CNFLWL 3954N 11636E 111351 F032 MS053 339/022 TB/ S//1=
DES CNFLWL 3957N 11636E 111352 F023 MS033 341/021 TB/ S//1=
DES CNFLWL 3959N 11635E 111353 F016 MS010 341/025 TB/ S//1=
DES CNFLWS 2312N 11313E 111351 F026 PS135 211/004 TB/ S//1=
DES CNFLWS 2313N 11314E 111351 F022 PS143 182/005 TB/ S//1=
DES CNFLWS 2316N 11315E 111352 F017 PS156 157/006 TB/ S//1=
DES CNFLWS 2319N 11316E 111353 F011 PS170 055/000 TB/ S//1=
ASC CNFNXN 4005N 11636E 111350 F001 PS011 318/010 TB/ S//1=
ASC CNFNXN 4006N 11636E 111350 F011 PS008 323/015 TB/ S//1=
ASC CNFNXN 4006N 11636E 111351 F013 PS000 333/016 TB/ S//1=
ASC CNFNXN 4007N 11636E 111351 F016 MS013 335/017 TB/ S//1=
ASC CNFNXN 4007N 11635E 111351 F018 MS018 337/019 TB/ S//1=
ASC CNFNXN 4008N 11635E 111351 F026 MS035 336/023 TB/ S//1=
ASC CNFNXN 4009N 11635E 111352 F033 MS055 332/023 TB/ S//1=
DES CNFPQK 3037N 10703E 111351 F167 MS128 283/032 TB/ S//1=
DES CNFPQK 3035N 10702E 111352 F163 MS115 281/032 TB/ S//1=
DES CNFPQK 3030N 10659E 111353 F153 MS105 288/023 TB/ S//1=
DES CNFPQK 3025N 10657E 111354 F140 MS079 303/017 TB/ S//1=
DES CNFPTK 3121N 12220E 111351 F082 MS040 264/023 TB/ S//1=
DES CNFPTK 3119N 12217E 111352 F073 MS035 262/020 TB/ S//1=
DES CNFPTK 3116N 12214E 111353 F064 MS030 252/019 TB/ S//1=
DES CNFPTK 3113N 12210E 111354 F054 MS015 239/022 TB/ S//1=
ASC CNFNXN 4011N 11635E 111352 F048 MS090 303/020 TB/ S//1=
ASC CNFNXN 4013N 11634E 111353 F066 MS133 296/019 TB/ S//1=
ASC CNFNXN 4014N 11631E 111353 F085 MS178 307/020 TB/ S//1=
ASC CNFNXN 4014N 11628E 111354 F103 MS211 318/025 TB/ S//1=
0000046400
157
SAIR35 OIII 111400
METAR OIAD 111400Z NIL=
METAR OIBJ 111400Z  08008KT 0800 -RA FEW020 SCT025 OVC070 09/09
 Q1020=
METAR OIBS 111400Z 15014KT 7000 -RA FEW030CB OVC080 18/11 Q1020=
METAR OIHR 111400Z NIL=
METAR OIKM 111400Z NIL=
METAR OIKR 111400Z NIL=
METAR OING 111400Z 06004KT 6000 SCT030 BKN090 09/08 Q1015=
METAR OIZB 111400Z 23004KT 9999 FEW040 BKN090 08/M01 Q1023=
METAR OIZI 111400Z 26012KT 9999 FEW020 OVC090 14/M02 Q1021=
0000057300
158
SAIR36 OIII 111400
METAR OIBA 111400Z  13006KT 3000 RA FEW025CB FEW030 OVC080 17/15
 Q1019=
METAR OIBV 111400Z 04008KT 9999 SCT030 OVC090 15/14 Q1019=
METAR OIFS 111400Z  00000KT 1000 -SN BR FEW025CB SCT030 OVC070
 M04/M05 Q1018=
METAR OIIP 111400Z  00000KT 5000 BR FEW020 SCT035 OVC080 M01/M02
 Q1018=
METAR OIMB 111400Z 09014KT 9999 SCT040 BKN090 03/M13 Q1019=
METAR OIMN 111400Z 17010KT CAVOK 05/M06 Q1016 A3002=
METAR OIMS 111400Z NIL=
METAR OIMT 111400Z NIL=
METAR OIZJ 111400Z  00000KT 8000 FEW025CB SCT030 BKN090 19/05
 Q1020=
0000056500
159
SAIR37 OIII 111400
METAR OIBL 111400Z  04006KT 4000 BR FEW020CB FEW025 OVC080 15/13
 Q1020=
METAR OIBQ 111400Z  27010KT 3000 TSRA SCT020 SCT025CB OVC070 17/15
 Q1016=
METAR OIIK 111400Z 00000KT 8000 SCT040 BKN090 00/M04 Q1019=
METAR OIMC 111400Z 17010KT 9999 SCT040 11/M06 Q1017=
METAR OIMD 111400Z 00000KT 9999 FEW035 BKN100 06/M05 Q1016=
METAR OIMQ 111400Z 00000KT 9999 FEW040 SCT200 06/M06 Q1019=
METAR OINE 111400Z 00000KT 4000 BR NSC 08/06 Q1015=
METAR OITK 111400Z NIL=
METAR OITM 111400Z 02004KT 1200 BR NSC M06/M07 Q1019=
0000009000
160
SASD31 OEJD 111400 RRA
METAR OYSN 111400Z 25010KT 9999 SCT030 21/01 Q1025=
0000009400
161
SAIQ01 ORBI 111400
METAR ORNI 111400Z 31010KT 1500 DZ OVC02 11/11 Q1017 NOSIG=
0000022100
162
SAJD20 OJAI 111400
METAR OJAI 111400Z 29010KT 6000 HZ SCT030 11/07 Q1024 NOSIG=
METAR OJAM 111400Z 29010KT 5000 HZ BKN025TCU 11/05 Q1024 NOSIG=
METAR OJAQ 111400Z 35006KT 9999 SCT030 19/06 Q1023 NOSIG=
0000022100
163
SAJD20 OJAM 111400
METAR OJAI 111400Z 29010KT 6000 HZ SCT030 11/07 Q1024 NOSIG=
METAR OJAM 111400Z 29010KT 5000 HZ BKN025TCU 11/05 Q1024 NOSIG=
METAR OJAQ 111400Z 35006KT 9999 SCT030 19/06 Q1023 NOSIG=
0000023200
164
SNVD20 KWNB 111400 RRD
BBXX
44013 11141 99423 70707 46/// /1707 10059 20059 40151 56042 91350
22200 00047 10301 20301 70005 333 91208 555 11078 22086 31255
41509 61349 167072 159064 157068 159071 156074 150077=
00000000