0000030000
985
SSVX13 LFVW 111400
ZZYY 13577 11014 1120/ 724318 048285 6111/
11119 40224
33311 88872 20000 41500
444 20110 11014 1114/ 50101 80070 80008 9/015=
ZZYY 13577 11014 1350/ 724309 048265 6111/
11119 40234
33311 88872 20000 41500
444 20110 11014 1353/ 50101 80070 80008 9/015=
0000105000
986
SSVX02 LFVW 111400
ZZYY 41644 11014 1353/ 730928 039769 6111/
22219 00217
33311 88872 20000 32165 43642
444 2011/ 11014 1309/ 50101 9/015=
ZZYY 41647 11014 1356/ 724119 048680 6111/
22219 00244
33311 88872 20000 32443 43668
444 2011/ 11014 1353/ 50101 9/015=
ZZYY 41651 11014 1357/ 729248 048619 6111/
22219 00///
33311 88872 20000 43563
444 2011/ 11014 1354/ 50101 9/015=
ZZYY 41646 11014 1355/ 729282 061203 6111/
22219 00234
33311 88872 20000 32339 43662
444 2011/ 11014 1354/ 50101 9/015=
ZZYY 41653 11014 1357/ 722222 048643 6112/
22219 00246
33311 88872 20000 32461 43736
444 2012/ 11014 1354/ 50101 9/015=
ZZYY 41648 11014 1356/ 725631 043591 6112/
22219 00234
33311 88872 20000 32335 43740
444 2012/ 11014 1353/ 50101 9/015=
ZZYY 41649 11014 1351/ 733882 031718 6112/
22219 00199
33311 88872 20000 31993 43634
444 2012/ 11014 1308/ 50101 9/015=
ZZYY 41650 11014 1357/ 723366 049591 6112/
22219 00247
33311 88872 20000 32469 43746
444 2012/ 11014 1354/ 50101 9/015=
0000014000
987
SSVX01 LFVW 111400
ZZYY 41099 11014 1346/ 714173 060931 6112/
22219 00267 10606 20061 21028
444 20120 11014 1310/ 516//=
0000256900
988
SNDL21 EDZW 111400
AAXX 11141
10004 46/06 /3012 10075 20035 30098 40098 52022
222// 00079
  333 55301 91115 91213=
10015 41584 73111 10073 20028 30068 40078 53006 72122 8583/
  333 55300 20172 30171 82832 84656 86360 91119 91213 96263=
10020 47782 73109 10063 20041 30029 40061 53013 72365
  333 55300 20055 30055 84/50 86/56 87/58=
10035 41258 83007 10050 20041 30000 40059 55013 76366 877//
  333 55300 20041 30041 41215 87706 91115=
10055 41456 82308 10055 20049 30043 40053 56026 76166 888//
  333 55300 20077 30077 85813 88623=
10147 41245 82307 10051 20044 30058 40076 56026 76366 877//
  333 55300 20067 30062 41234 83706 87708=
10162 47567 82207 10058 20034 39998 40071 56026 76165
  333 55300 20165 30165 84/21 85/26 88/32=
10184 41456 82104 10058 20042 30064 40072 58028 72162 876//
  333 55300 20094 30094 87713=
10200 47585 82804 10062 20047 30104 40102 53010 72365
  333 55300 20166 30166 84/22 87/56 88/61=
10224 41462 82510 10055 20044 30090 40096 55016 76066 887//
  333 55300 20056 30056 87710 91114=
10270 46960 72104 10069 20016 30052 40107 56025
  222// 06043
  333 55305 87/61=
10338 41565 82406 10067 20034 30039 40112 56020 76162 885//
  333 55300 20119 30119 83630 88638=
10361 42986 62104 10080 20029 30014 40118 58021 86040
  333 55305 20483 30303 86360=
10393 42981 12306 10066 20015 39993 40120 56020 81040
  333 55310 20590 30124 81363=
10400 41459 82607 10070 20055 30107 40157 55002 75866 87526
  333 55300 20092 30092 86513 87625 88540=
10469 42986 32205 10064 20025 39970 40136 58018 82045
  333 55310 82360=
10488 42786 62204 10067 20003 39864 40146 56015 8357/
  333 55300 20141 30141 41141 83656 86359=
10506 42484 72406 10073 20040 39579 40160 58010 85831
  333 55302 20330 30254 83813 83636=
10548 41156 71903 10013 20009 39617 40170 56013 71022 8663/
  333 55300 20300 30295 86703=
10637 42260 82203 10037 20027 30042 40182 55004 875//
  333 55300 81704 86705 87657=
10685 41477 72405 10023 20003 39479 40163 56009 72122 878//
  333 55300 20297 30296 82810 86656=
10738 42261 70901 10033 20030 39718 40196 53002 8657/
  333 55300 81706 86650 85363=
10763 41660 81802 10042 20031 39792 40180 57004 72162 875//
  333 55300 20261 30260 87641=
10788 47645 81102 10021 20018 39753 40195 56003 76166
  333 55300 20048 30048 87/39 88/47=
10852 47658 72001 10057 20047 39615 40188 53002 76265
  333 55300 20155 30155 87/46=
10946 45775 81803 10078 20034 39364 40192 51014
  333 55300 20355 30348 83/50 88/59 88/61=
0000250100
989
SNDL22 EDZW 111400
AAXX 11141
10007 NIL=
10044 46/// /2312 10055 20045 30018 40050 56022
222// 00057
  333 55300 91116 91212=
10046 47347 82306 10054 20048 30022 40056 56022 76266
  333 55300 87/08 87/13 88/17=
10091 41358 82309 10052 20046 30007 40058 57026 75866 877//
  222// 06053
  333 55300 20068 30067 87707 91115=
10113 41570 73114 10064 20035 30079 40098 53013 78022 878//
  333 55301 20238 30228 83822 86656 91118=
10124 46/// ///// 10063 20062 30038 40076 53005
222// 0////
  333 553//=
10131 43481 73110 10058 20038 30057 40072 56013 8////
  333 55300 20112 30110 82/13 87/30 87/47 91116 91211=
10170 41458 82106 10059 20038 30050 40066 56027 76122 885//
  333 55300 20119 30119 88617 91113=
10264 45587 72205 10065 20018 39980 40087 56024
  333 55300 20211 30211 87/25 87/34 87/48=
10291 42984 32305 10073 20022 30033 40101 56025 83050
  333 55309 20490 30164 83361=
10315 41360 72406 10057 20045 30064 40129 55011 76166 877//
  333 55300 20039 30039 87708=
10379 42982 2//// 10066 20010 39993 40115 58021 82051
  333 55310 20597 30119 40918 82363=
10381 42883 12105 10074 20005 30015 40113 57022 81531
  333 55310 81657=
10382 42782 12205 10080 20010 30066 40111 56024 81531
  333 55310 20581 30140 81650=
10384 46/// /2106 10076 20008 30051 40111 56022
  333 55310 20594 30144=
10427 42182 72510 10016 20015 39124 48426 58014 878//
  333 55300 20141 30136 87803 91116=
10430 47559 72405 10074 20028 39935 40127 56019 76260
  333 55300 20166 30157 82/30 83/40 87/50=
10439 NIL=
10453 41/00 92419 11017 21017 38767 48398 58020 74944
  333 55300 91125 91220 96036=
10496 42983 32405 10080 20013 30047 40132 56021 83030
  333 55306 20521 30323 83660=
10499 42970 82005 10046 20011 39858 40151 56014 8707/
  333 55300 20240 30239 87459=
10505 41260 82710 10062 20051 39885 40168 53004 76366 887//
  333 55300 20060 30060 87805 91114 91211=
10513 42569 72605 10096 20047 30028 40149 56013 8683/
  333 55300 20250 30249 82822 86630=
10532 47948 71202 10039 20036 39914 40166 56012 71000
  333 55308 20590 30298 87/70=
10544 41/01 92409 10007 20007 39066 48440 58011 74122
  333 55300 91114=
10554 42581 72406 10057 20021 39756 40146 56016 81152
  333 55300 20354 30353 81824 86358 98886=
10567 42881 72106 10052 20012 39771 40150 56015 8707/
  333 55303 20430 30343 87358=
10578 41/00 92512 11018 21018 38743 48438 56013 74974
  333 55300 20108 30108 91117 91214=
0000013200
990
SNDL23 EDZW 110500 CCC
AAXX 11051
10929 41/01 93501 10018 20018 39656 40200 56011 74754
  333 55300 20000 30000=
0000211100
991
SNDL23 EDZW 111400
AAXX 11141
10609 42465 32204 10065 20049 39853 40185 55005 81801
  333 55308 20623 30312 81812 83076=
10616 42380 42705 10048 20032 39572 40177 56004 82801
  333 55308 81809 83076=
10641 45758 82203 10042 20028 30030 40179 56005
  333 55300 87/50 88/56=
10655 41664 71802 10032 20023 39842 40176 58007 72122 875//
  333 55300 20360 30347 85637 85656=
10675 47557 81702 10031 20021 39885 40182 58004 71000
  333 55300 20196 30196 88/31=
10688 47656 82401 10023 20015 39652 40185 56008 76165
  333 55300 20109 30109 88/37=
10708 41140 82502 10047 20042 39806 40197 53007 71022 886//
  333 55300 20214 30208 87703=
10729 45661 81703 10044 20031 30064 40188 56002
  333 55300 20177 30177 85/49 88/56=
10731 41265 82303 10051 20042 30044 40190 53003 76122 878//
  333 55300 20072 30072 83806 86623=
10742 47431 81701 10036 20027 39854 40191 55000 75765
  333 55300 20081 30081 88/12=
10776 47240 81503 10018 20014 39738 40192 56006 76165
  333 55300 20103 30103 87/05 88/33=
10791 41/01 92414 11001 21001 38513 48458 56007 77174
  333 55300 91118 91215 96049=
10805 41566 71805 10078 20064 30006 40198 53001 75862 86872
  333 55300 20067 30067 81830 83650 85657=
10815 47243 82405 10045 20042 39248 48483 53005 76266
  333 55300 20147 30147 85/04 87/26 88/45=
10836 41335 82805 10044 20041 39311 40186 55002 76166 876//
  333 55300 20239 30238 87707=
10870 41662 82202 10048 20035 39652 40192 55001 76366 8557/
  333 55300 83645 83656 87459=
10895 41670 82202 10029 20015 39612 40192 55005 76022 8557/
  333 55301 20369 30332 85643 87360=
10908 41/90 92310 10010 20009 38503 48499 53006 76044
  333 55300 20450 30450 89/01 91119 91215 96045=
10929 41250 80901 10036 20033 39674 40215 53006 76322 8462/
  333 55300 20202 30196 84705 87550 96010=
10948 45881 80102 10078 20054 39254 48503 53018
  333 55300 20185 30184 88/57=
10961 41/01 93405 11058 21062 37081 47050 56004 77174
  333 55300 20151 41059 96049=
10962 42886 72604 10061 20026 39045 48492 53011 875//
  333 55302 20446 30404 87657=
0000136800
992
SNDL44 EDZW 111400
AAXX 11141
10022 47485 73105 10052 20035 30051 40061 55000 72365
  333 55300 20058 30058 81/11 87/50 87/56=
10028 41458 83213 10047 20032 30057 40071 55003 76166 875//
  333 55300 20080 30080 82615 83623 87633 91120 91216 96263=
10033 NIL=
10037 NIL=
10038 NIL=
10042 47150 72309 10059 20049 30046 40050 56023 76266
  333 55300 81/02 86/15 87/22 91113=
10067 NIL=
10093 47356 72205 10052 20039 30015 40065 57028 72365
  333 55300 87/08=
10097 47456 82208 10052 20040 30055 40069 57028 72365
  222// 06045
  333 55300 85/11 87/17 88/35=
10126 NIL=
10129 47460 73013 10062 20046 30074 40087 55011 72365
  333 55300 20066 30064 87/17 91116 91213=
10130 47266 73212 10054 20042 30064 40070 55014 76160
  333 55300 84/06 87/22 87/32 91118 91213=
10136 NIL=
10139 47458 82509 10056 20048 30070 40084 56023 75165
  333 55300 20010 30010 87/10 88/15 91117=
10142 46350 82406 10054 20047 30033 40064 56025
  333 55300 87/07 88/11=
10146 47347 82305 10052 20047 30059 40076 56026 76266
  333 55300 87/07 88/11=
10150 47157 72307 10052 20044 30031 40065 56025 76265
  333 55300 20051 30051 81/02 86/08 87/19=
10152 47350 82307 10056 20047 30061 40063 56026 76265
  333 55300 87/07 88/12=
10156 47435 82104 10052 20043 30053 40074 56026 76265
  333 55300 20123 30123 87/12 88/18=
0000161700
993
SNDL45 EDZW 111400
AAXX 11141
10161 47150 82108 10053 20040 30047 40067 56028 75765
  333 55300 20164 30163 87/02 88/28 88/33=
10168 47579 82206 10062 20027 30005 40077 56026 72365
  333 55300 83/23 87/33 88/57=
10172 NIL=
10180 47457 82207 10059 20044 30058 40063 57028 76160
  333 55300 85/13 88/19=
10193 47/80 92104 10062 20038 30080 40083 58026 75165
  333 55300 20085 30085=
10210 47459 72606 10057 20048 30098 40107 55004 76166
  333 55300 20122 30122 85/14 87/21 91114=
10235 47157 82205 10050 20039 30006 40101 56020 76265
  333 55300 20106 30106 83/01 87/12 88/18=
10238 NIL=
10246 NIL=
10249 47449 82205 10055 20037 30027 40083 56026 75865
  333 55300 20119 30119 86/16 87/20 88/31=
10253 45686 82306 10071 20025 30072 40094 56026
  333 55301 85/36 88/59 88/61=
10261 42584 82305 10069 20016 30074 40102 56024 8457/
  333 55300 20268 30263 84627 88459=
10267 45988 82206 10072 20021 30051 40100 56025
  333 55303 83/60 88/62 88/65=
10268 46/// /2206 10063 20021 39995 40082 56027
  333 55300=
10281 469// 72205 10066 20028 39972 40085 56028
  333 55301 20261 30236 82/59 86/61 87/68=
10282 45982 42107 10058 20024 39949 40091 56025
  333 55302 20251 30200 84/59=
10289 45/86 /2106 10062 20032 30023 40093 56026
  333 55302=
10304 NIL=
10305 41248 82604 10057 20046 30092 40124 55003 76166 875//
  333 55300 84705 87617 96010=
10306 NIL=
10309 47350 82505 10060 20049 30076 40134 55005 75165
  333 55300 20074 30074 87/09 88/16=
10312 47357 82507 10052 20042 39992 40120 56011 76165
  333 55300 20037 30037 88/08=
0000188300
994
SNDL46 EDZW 111400
AAXX 11141
10321 41358 82507 10056 20047 30059 40112 55011 76066 8652/
  333 55300 20041 30041 81707 86612 87533 91114=
10325 47559 82306 10062 20039 39953 40120 56021 75760
  333 55300 87/22 87/26 88/31=
10334 NIL=
10335 NIL=
10343 NIL=
10348 45784 82505 10064 20019 30006 40113 56024
  333 55303 20446 30273 41104 83/50 86/56 88/59=
10356 45787 72307 10066 20022 39921 40119 56019
  333 55306 81/50 87/59=
10359 45785 82305 10068 20016 30055 40114 56020
  333 55302 20408 30337 81/50 87/59 88/61=
10365 45984 82103 10069 20014 30074 40121 56022
  333 55306 20335 30138 88/62=
10368 42980 32206 10051 20012 39891 40121 57019 83051
  333 55307 20544 30205 83361=
10376 45968 52406 10065 20018 30056 40124 57018
  333 55310 85/65=
10385 42984 32107 10068 20012 30055 40117 58022 82054
  333 55310 20628 30160 82361=
10396 45978 02105 10073 20026 30101 40117 56021
  333 55310=
10404 NIL=
10410 47157 82506 10060 20048 39970 40153 55005 76165
  333 55300 85/02 88/07=
10418 47457 82405 10054 20042 39675 40144 56013 75865
  333 55300 20193 30193 87/13 87/20 88/39=
10424 47061 82507 10070 20051 30034 40140 55011 76265
  333 55300 20172 30171 83/00 86/23 88/28 91113=
10433 47688 82405 10067 20018 39802 40115 56024 72365
  333 55302 20329 30248 81/33 87/49 88/58=
10435 45786 82304 10076 20018 39845 40131 57020
  333 55307 82/50 85/58 88/60=
10441 45466 21702 10046 20026 39759 40145 56019
  333 55306 81/10=
10442 45584 81003 10067 20029 39943 40120 57024
  333 55300 20258 30254 81/26 88/57=
10444 42572 42205 10067 20028 39934 40139 56018 82141
  333 55310 20730 30262 82820 83358=
10449 45470 42204 10055 20027 39713 40140 56017
  333 55309 20699 30323 83/16 84/21=
10452 45268 82205 10023 20016 39401 40130 56020
  333 55300 20167 30160 87/05 87/09 88/17=
0000161500
995
SNDL47 EDZW 111400
AAXX 11141
10454 45885 72205 10074 20012 39833 40123 58019
  333 55309 87/57=
10458 45979 32408 10044 20021 39636 40125 58020
  333 55304 20442 30331 83/59 83/66=
10460 42583 22309 10062 20025 39933 40135 58026 81144
  333 55310 20784 30313 81820 91113=
10466 46/60 /2402 10067 20018 30017 40134 58018
  333 55307 20459 30171=
10471 45985 02102 10057 20017 39970 40139 56019
  333 55303 20245 30149 40948=
10474 45980 22304 10063 20023 39999 40129 58019
  333 55310 20564 30181 82/60=
10476 NIL=
10480 45683 72304 10058 20017 39953 40137 56016
  333 55303 20307 30196 81/43 86/63 87/80=
10490 45972 02306 10072 20017 30016 40136 58015
  333 55308 20468 30220=
10495 45988 72304 10072 20011 39996 40138 56017
  333 55302 86/60 86/74 87/80=
10500 NIL=
10502 NIL=
10516 NIL=
10519 45588 82603 10099 20046 39960 40154 56013
  333 55302 81/29 87/44 88/58=
10520 45675 41401 10073 20043 30068 40161 57017
  333 553// 84/37=
10526 45483 82404 10056 20029 39503 40155 56011
  333 55304 20536 30390 85/16 87/22 88/32=
10534 47990 02305 10005 20005 39278 40170 56008 73033
  333 55300=
10537 47143 61907 10026 20026 39734 40164 56012 71000
  333 55303 82/02 85/69 86/74=
10540 45972 42407 10049 20019 39764 40145 58021
  333 55300 20280 30278 84/58=
10542 45569 51805 10065 20032 39823 40151 56016
  333 55303 20357 30262 82/23 85/57=
10552 47000 82306 11004 21004 39043 48432 58013 73533
  333 55300 88/00=
10557 41/62 72505 10003 21000 39149 48437 56010 72022 878//
  333 55300 20289 30288 827// 84805 86620=
0000213100
996
SNDL48 EDZW 111400
AAXX 11141
10564 45880 82404 10038 20009 39553 40158 56012
  333 55301 88/58 88/75=
10565 45960 82306 10069 20014 39839 40137 58022
  333 55303 88/60=
10569 45667 82104 10045 20013 39687 40158 58014
  333 55300 20169 30169 84/38 86/56 88/58=
10574 47166 82504 10002 21006 39101 48444 56011 72475
  333 55300 83/02 87/06 88/23=
10577 45685 82309 10054 20003 39643 40148 56015
  333 55300 20247 30243 88/44 88/58 91115=
10579 45/88 /2304 10040 21018 39390 40153 56014
  333 55300=
10582 42582 82406 10024 21021 39112 48440 56012 8457/
  333 55300 20219 30217 81630 83643 86356=
10591 45869 81605 10039 20003 39768 40158 56013
  333 55300 88/57=
10613 NIL=
10615 45686 52405 10055 20035 39599 40178 55002
  333 55303 20496 30407 84/42 85/69=
10618 NIL=
10628 47856 71601 10042 20027 30041 40179 57007 71000
  333 55303 81/56 87/72 87/75=
10635 45165 72804 10021 20021 39183 48447 57008
  333 55300 20296 30290 87/02 87/07=
10646 47662 80301 10033 20033 39760 40176 57009 72365
  333 55301 84/47 88/56 88/68=
10648 47579 72305 10048 20034 39627 40176 56005 72365
  333 55300 20311 30311 82/28 87/56 87/64=
10658 47756 82002 10021 20021 39826 40173 58013 71000
  333 55301 84/56 87/57 88/58=
10671 47257 81502 10017 20008 39751 40176 58008 71000
  333 55300 20170 30170 88/06 88/27 88/57=
10686 47250 82103 10008 20003 39422 40175 56006 72476
  333 55300 83/04 86/23 88/29=
10704 47630 82304 10043 20039 39751 40193 51005 71000
  333 55300 20279 30278 88/45=
10706 47229 80000 10034 20033 39723 40195 52004 71000
  333 55300 87/03 88/47=
10724 47001 82608 10039 20038 39511 40182 53002 73030
  333 55300 20143 30143 88/00=
10733 47445 72304 10036 20034 39894 40189 56002 72365
  333 55300 20088 30088 82/11 86/37 87/44=
10736 47538 81601 10042 20036 39894 40193 55002 72365
  333 55300 82/24 87/31 88/37=
10739 47556 71603 10041 20035 39805 40193 55002 71000
  333 55300 20271 30267 41110 84/26 86/50 87/63=
10743 NIL=
10747 47460 81001 10036 20031 39595 40188 53004 72365
  333 55300 20121 30121 88/10=
0000170000
997
SNDL49 EDZW 111400
AAXX 11141
10756 47556 82502 10039 20031 39609 40185 55000 76165
  333 55300 20232 30224 88/25=
10761 45561 82203 10049 20034 39672 40184 55004
  333 55300 20271 86/33 87/56 88/59=
10765 46/// /2102 10039 20034 39704 40185 50000=
10771 NIL=
10777 47019 82001 10016 20015 39537 40190 58002 72365
  333 55300 82/01 88/42 88/50=
10782 45470 72102 10032 20012 39578 40183 56005
  333 55300 20079 30079 87/18=
10796 47519 70901 10011 20010 39445 40190 56009 76165
  333 4/002 55300 86/28 87/39 87/48=
10803 47771 72106 10100 20058 39915 40201 52009 72365
  333 55300 20176 30175 82/50 87/58=
10818 47768 82607 10055 20044 39059 48493 53004 72365
  333 55300 20254 30253 83/50 88/65 88/69=
10827 46/// /2604 10068 20044 39104 48493 53003
  333 55300 20345 30345=
10837 NIL=
10838 46660 72303 10054 20042 39509 40191 53002
  333 55300 81/35 87/56=
10850 47002 71603 10008 20008 39583 40198 55000 73065
  333 55300 86/00 87/11 87/56=
10853 NIL=
10856 NIL=
10857 NIL=
10860 NIL=
10863 47660 71903 10042 20035 39612 40190 55002 76165
  333 55300 20139 30136 41234 81/34 87/50 87/56=
10865 47583 72503 10087 20041 39560 40183 53004 72365
  333 55300 81/30 86/57 87/59=
10872 47625 71202 10025 20021 39765 40196 55002 76265
  333 55300 87/40=
10875 45859 82602 10033 20028 39703 40199 53003
  333 55302 20463 30413 87/57 88/59=
10945 47662 71804 10055 20037 39402 40202 51012 72365
  333 55300 87/45 87/50=
10954 NIL=
10963 45881 81901 10057 20047 39345 40196 53008
  333 4/001 55300 20117 30117 88/57=
10982 45973 72503 10057 20039 39528 40189 53003
  333 55300 20352 30345 85/60 86/64 87/70=
0000015700
998
SSVX13 LFPW 111400
ZZYY 64667 11014 1400/ 763113 029201 6113/ 11119 40008 52011 22219
 00064 444 20130 11014 1400/ 50101 80154 80000 9/015=
0000011200
999
SNVF25 LFPW 111400
BBXX
BATFR21 11144 99434 10078 46/// /1104 10134 20109 40206 56006
22273=
0000011800
000
SNVF25 LFPW 111400
BBXX
BATFR46 11144 99433 10052 46/// /3102 10137 20094 40213 55011
22252 04134=
0000011800
001
SNVF25 LFPW 111400
BBXX
BATFR12 11144 99486 70064 46/// /1211 10110 20054 40198 56013
22200 04149=
0000042900
002
UDAS02 EGRR 111403
AMDAR 1113
LVR EU0453   5707N 06552E 111323 F340 MS665 015/041 TB/ S031=
LVR EU0453   5715N 06414E 111330 F340 MS662 009/034 TB/ S031=
LVR EU0453   5720N 06236E 111337 F340 MS660 344/028 TB/ S031=
LVR EU0453   5729N 06102E 111344 F340 MS652 318/027 TB/ S031=
LVR EU0453   5741N 05929E 111351 F340 MS647 283/022 TB/ S031=
LVR EU0453   5752N 05756E 111358 F340 MS642 241/023 TB/ S031=
0000042900
003
UDEU02 EGRR 111403
AMDAR 1113
LVR EU1801   3404N 00741W 111322 F360 MS537 323/048 TB/ S031=
LVR EU1801   3446N 00709W 111329 F360 MS550 331/047 TB/ S031=
LVR EU1801   3526N 00636W 111336 F360 MS532 331/044 TB/ S031=
LVR EU1801   3606N 00603W 111343 F360 MS537 345/045 TB/ S031=
LVR EU1801   3651N 00548W 111350 F360 MS542 357/043 TB/ S031=
LVR EU1801   3736N 00537W 111357 F360 MS565 348/049 TB/ S031=
0000190500
004
UDEU02 EGRR 111403 RRA
AMDAR 1113
ASC EU7008   5440N 00613W 111342 F011 PS015 260/014 TB/ S031=
ASC EU7008   5439N 00612W 111342 F018 PS012 272/016 TB/ S031=
ASC EU7008   5438N 00610W 111342 F022 PS002 276/015 TB/ S031=
ASC EU7008   5437N 00609W 111342 F027 MS010 272/016 TB/ S031=
ASC EU7008   5436N 00607W 111342 F036 MS030 270/016 TB/ S031=
ASC EU7008   5435N 00606W 111342 F043 MS040 278/019 TB/ S031=
ASC EU7008   5433N 00604W 111342 F052 MS052 276/020 TB/ S031=
ASC EU7008   5432N 00603W 111342 F063 MS067 271/024 TB/ S031=
ASC EU7008   5431N 00601W 111342 F072 MS075 284/031 TB/ S031=
ASC EU7008   5430N 00559W 111342 F090 MS092 298/038 TB/ S031=
ASC EU7008   5428N 00555W 111343 F110 MS130 293/040 TB/ S031=
ASC EU7008   5425N 00550W 111343 F128 MS175 284/043 TB/ S031=
ASC EU7008   5423N 00545W 111343 F146 MS215 284/046 TB/ S031=
ASC EU7008   5421N 00539W 111344 F160 MS235 292/049 TB/ S031=
ASC EU7008   5418N 00534W 111344 F176 MS270 286/056 TB/ S031=
ASC EU7008   5416N 00528W 111344 F191 MS302 290/055 TB/ S031=
ASC EU7008   5413N 00523W 111345 F206 MS337 295/055 TB/ S031=
ASC EU7008   5410N 00517W 111345 F217 MS352 292/065 TB/ S031=
ASC EU7008   5408N 00511W 111345 F230 MS380 293/067 TB/ S031=
ASC EU7008   5405N 00504W 111346 F241 MS407 292/071 TB/ S031=
ASC EU7008   5402N 00458W 111346 F252 MS432 292/077 TB/ S031=
ASC EU7008   5400N 00451W 111346 F262 MS457 291/080 TB/ S031=
ASC EU7008   5357N 00444W 111347 F273 MS485 291/084 TB/ S031=
ASC EU7008   5354N 00437W 111347 F282 MS505 292/085 TB/ S031=
ASC EU7008   5351N 00429W 111347 F291 MS527 293/088 TB/ S031=
ASC EU7008   5348N 00422W 111348 F300 MS552 290/088 TB/ S031=
ASC EU7008   5345N 00416W 111348 F309 MS570 294/087 TB/ S031=
ASC EU7008   5342N 00409W 111348 F322 MS597 290/081 TB/ S031=
ASC EU7008   5338N 00402W 111349 F333 MS615 280/089 TB/ S031=
00000000