0000063700
522
FCUR31 UKMS 111300
TAF UKLI 111331Z 1115/1124 26007G12MPS 9999 BKN020
         TEMPO 1115/1118  24010G15MPS 3000 -RA BKN015
         TX05/1115Z TN01/1124Z=
TAF UKON 111333Z 1115/1124 28008G14MPS 9999 SCT030
         TX07/1115Z  TN02/1124Z=
TAF UKCM 111345Z 1115/1124 27008G15MPS 9999 SCT010
         BKN020CB TEMPO  1115/1124 3100 BR BKN008
         TX05/1115Z TN01/1124Z=
TAF UKLU 111340Z 1115/1124 15004MPS 3200 BR OVC007
         TEMPO 1115/1121  0500 -DZ FG OVC002
         TX03/1115Z TNM00/1124Z=
TAF UKLN 111332Z 1115/1124 33006MPS 9999 BKN030
         TX06/1115Z TN02/1124Z=
TAF UKKE NIL=
0000010600
523
SAAH10 OAKB 111350
METAR OAKB 111350Z 31005KT 4000 HZ NSC M02/M11 Q1025 NOSIG RMK GRN GRN=
0000015000
524
SOVI10 KWAL 111356
B110070A 011135601 P9751095 B\P~W@@p0ekM1@np???D`DR>@n`3@aD@@y5DD6bf ?TMuKCmCgCqCnCtCn:AMPTEMP 29.07C  45-0NN 219E
0000057600
525
SMVX01 EDZW 111200
BBXX
9HA2000 11124 99156 70177 41498 53620 10230 20207 40170 52020
70111 85468 22273 20402 334// 41205 80214=
A8MW8 11124 99346 70606 41498 30215 10155 20112 40330 54000
70200 83160 22263 04250 20501 30000 80130=
A8VB9 11124 99114 50086 41598 41318 10270 20256 40160 54000
70100 83145 22232 04270 20402 331// 40704 80260=
A8VF7 11124 99129 70180 41999 20415 10220 20158 40160 58010
70200 80005 22244 04230 21103 332// 41103 80180=
DDID2 11124 99365 70020 41/97 80508 10180 20125 40195 50000
70222 22213 00140 20503 80147=
0000020600
526
SOBR10 KWAL 111356
BAB00078?011135611 :BUB 2 #1       M   0.469   0.469   0.409 :RAD 1 #1   0.338   0.364   0.365   0.365 :PRS 1 #1  -0.768  -0.765  -0.760  -0.750 :BL 1re6!iS" 31+0HP 219E
0000023300
527
WSAU21 AMMC 111353
YMMM SIGMET B02 VALID 111430/111830 YMMC-
YMMM MELBOURNE FIR SEV TURB FCST WI S4700 E07900 - S3700 E08200 -
S3100 E08200 - S3200 E08500 - S4300 E08600 - S4700 E08200 FL300/370
MOV ENE 40KT NC=
0000214300
528
USKO01 RKSL 111200
TTAA  61121 47090 99024 02070 27004 00213 00676 25517 92831
04970 29019 85488 09966 29033 70983 13972 28535 50546 29537
27053 40702 39332 27576 30894 48583 27103 25014 49983 27128
20160 48983 26625 15348 50582 26628 10608 55181 26076 88284
49983 26609 88116 56981 27099 77223 26634 41610 31313 45708
81119=
TTAA  61121 47102 99009 01857 27009 00235 01656 26510 92856
04323 26510 85515 09705 29518 70995 14971 28031 50547 28136
27057 40704 39560 27075 30896 47384 27618 25016 49983 27630
20162 48383 27117 15351 50182 26112 10611 55581 27060 88341
46762 27589 88266 49983 27140 77267 27140 43217 31313 45708
81132=
TTAA  61121 47122 99023 00265 16001 00234 00561 20506 92851
05736 27015 85508 10705 30018 70001 12570 27526 50549 28315
26550 40707 37958 27081 30901 45363 27113 25021 49163 27122
20168 49765 26623 15354 54964 26619 10611 58364 26591 88285
47363 27120 77179 26634 41114 31313 52106 81110=
TTAA  61121 47138 99029 02262 25005 00227 00862 26512 92846
05158 28517 85507 05180 29518 70013 12775 27520 50552 22917
27575 40711 34548 26089 30908 43985 27633 25029 47583 26629
20176 47783 26650 15361 56980 26140 10616 61179 27093 88266
47383 27137 88154 57380 26646 88108 62379 27099 77188 26655
40314 31313 45708 81122=
TTAA  61121 47158 99029 00950 36002 00244 01061 33008 92864
04758 33009 85525 06576 32514 70032 10996 25520 50556 21561
27072 40716 34758 27585 30914 43380 27121 25036 46784 26624
20183 48183 26650 15369 58780 27139 10620 65378 27096 88234
48783 26139 88103 66178 27110 77177 26165 41830 31313 52108
81105=
TTAA  61124 47169 99020 03658 32006 00246 02461 33007 92868
03945 32011 85532 05189 29011 70039 09796 28024 50558 20565
27067 40719 31989 28584 88999 77381 28591 415// 31313 45708
81132=
TTAA  61121 47185 99021 05058 34010 00249 04058 00013 92876
01159 32018 85547 04967 28519 70062 07711 27030 50562 19157
28064 40725 29775 29077 30925 39786 26609 25049 43185 26148
20198 46184 26151 15383 60179 27145 10631 66178 27085 88115
66378 24603 77188 26155 40307 31313 45708 81134=
TTAA 61121 47261 NIL=
0000018500
529
SASY31 OSDI 111400
OSDI 111400Z 21004KT CAVOK 13/00 Q1022=
OSLK 111400Z 21008KT 9999 SCT030 BKN100 16/07 Q1022=
OSKL 111400Z 30008KT 9999 FEW026 SCT100 17/M06 Q1018=
0000079700
530
SNVX21 EDZW 111300
BBXX
62086 11131 99550 10064 46/// /05// 10072 20016 40077 //0/3
22230 00078=
DBBA  11135 99541 10121 46/// ///// 10058 20042 40079 57024
22210 00067=
DBBC  11131 99536 10086 46/// /2308 10050 20044 40079 57024
22230 00063=
DBBT  11131 99439 10308 46/// /2403 10091 20057 40221 57006
22230 00094=
DBBU  11131 99544 10139 46/// /2310 10049 40079 57016 22231
00063=
DBEA  11131 99540 10083 46/// /2315 10059 20059 40065 57020
22221 00064=
DBFH  11131 99539 10087 46/// /2307 10052 20046 40074 57023
22270 00060=
DBFR  11131 99526 10041 46/// /3014 10079 20031 40141 52011
22203 00079=
DBJM  11131 99542 10079 46/// /3210 10058 40076 52003 22250
00074=
DBKV  11131 99543 10102 46/// /2304 10055 20047 40064 57024
22200 00064=
0000019300
531
SNVX21 EDZW 111000
BBXX
DBFC  11101 99544 10136 46/// /2309 10055 20041 40095 57002
22270 00054=
DBFX  11101 99539 10087 46/// /2107 10053 20052 40095 57005
22220 00071=
0000011100
532
UANT01 CWAO 111354
ARP AAL173 5201N01928W 1354 F320 MS56 201/78 KT
N349AN DDL XXN 111354 F22A
0000011000
533
UANT01 CWAO 111354
ARP UAL65 4505N03751W 1354 F330 MS57 316/71 KT
N57111 DDL IG1 111354 F08A
0000011000
534
UANT01 CWAO 111354
ARP BAW175 5355N03128W 1354 F370 MS56 191/41 KT
GBNLP QXT AOE 111354 F07A
0000070600
535
SSVX02 KARS 111351
ZZYY 56610 11014 1300/ 318838 119910 6111/
22219 00299
444 20110 11014 1003/ 50101 80104 80025 9/015=
ZZYY 71611 11014 1200/ 335610 112434 6112/
22219 00203
444 20120 11014 1143/ 50101 80008 80000 9////=
ZZYY 56903 11014 1300/ 318950 119861 6111/
22219 00301
444 20110 11014 1209/ 50101 80104 80016 9/015=
ZZYY 71667 11014 1250/ 340914 115485 6111/
11119 30186 40186
444 20110 11014 1217/ 50101 80070 80005 9/015=
ZZYY 56561 11014 1240/ 354269 174539 6113/
22219 00078
444 20130 11014 1231/ 50101 8//// 80016 9/015=
ZZYY 73651 11014 1200/ 360446 110378 6111/
11119 49911 52017
22219 00018
444 2011/ 11014 1149/ 50101 80111 80019 9/015=
0000011100
536
UANT01 CWAO 111354
ARP UAL993 5040N03434W 1354 F350 MS54 283/24 KT
N668UA DDL XXW 111354 F16A
0000011200
537
UANT01 CWAO 111355
ARP GTI8089 5318N03746W 1354 F360 MS58 281/45 KT
N640GT DDL IG1 111355 F47A
0000011100
538
UANT01 CWAO 111355
ARP UAL125 5156N04411W 1354 F370 MS59 285/58 KT
N13138 DDL IG1 111355 F73A
0000011100
539
UANT01 CWAO 111355
ARP DAL231 5306N02652W 1355 F360 MS59 183/69 KT
N817NW DDL XXW 111355 J20A
0000011100
540
UANT01 CWAO 111355
ARP RCH242 4945N03337W 1355 F290 MS50 323/16 KT
77180A DDL XXN 111355 F95A
0000011000
541
UANT01 CWAO 111355
ARP AFR368 4510N03315W 1355 F340 MS49 281/30 KT
FGLZI QXT AOE 111355 J72A
00000000