0000013500
265
SNVD02 CWAO 111400
BBXX
SHIP 11144 99463 70725 46/// /0405 11007 21016 40072 56068 7//// 8//// 22200 0//// 2//// =

0000013500
266
SNVD02 CWAO 111400
BBXX
SHIP 11144 99505 71278 46/// /1402 10068 20048 49846 58024 7//// 8//// 22200 0//// 2//// =

0000013500
267
SNVD02 CWAO 111400
BBXX
SHIP 11144 99449 70625 46/// /2103 10025 20025 40255 56007 7//// 8//// 22200 0//// 2//// =

0000013500
268
SNVD02 CWAO 111400
BBXX
SHIP 11144 99474 70619 46/// /2202 11020 21021 40227 58005 7//// 8//// 22200 0//// 2//// =

0000013500
269
SNVD02 CWAO 111400
BBXX
SHIP 11144 99457 70734 46/// /0310 11025 21026 40053 56078 7//// 8//// 22252 0//// 2//// =

0000013500
270
SNVD02 CWAO 111400
BBXX
SHIP 11144 99488 70680 46/// /1309 11048 21068 40163 57032 7//// 8//// 22261 01010 2//// =

0000013500
271
SNVD02 CWAO 111400
BBXX
SHIP 11144 99476 70527 46/// /2714 11011 21052 40214 51003 7//// 8//// 22200 0//// 2//// =

0000013500
272
SNVD02 CWAO 111400
BBXX
SHIP 11144 99468 70712 46/// /0611 11019 21032 40115 56064 7//// 8//// 22200 0//// 2//// =

0000013500
273
SNVD02 CWAO 111400
BBXX
SHIP 11144 99473 70705 46/// /3610 11020 2//// 40122 56052 7//// 8//// 22213 00015 2//// =

0000013500
274
SNVD02 CWAO 111400
BBXX
SHIP 11144 99450 70603 46/// /2410 10015 20010 40262 57006 7//// 8//// 22224 0//// 2//// =

0000013500
275
SNVD02 CWAO 111400
BBXX
SHIP 11144 99430 70879 46/// /2204 10014 21001 4//// 5//// 7//// 8//// 22200 0//// 2//// =

0000013500
276
SNVD02 CWAO 111400
BBXX
SHIP 11144 99489 71235 46/// /2310 10081 20054 49921 53012 7//// 8//// 22200 0//// 2//// =

0000013500
277
SNVD02 CWAO 111400
BBXX
SHIP 11144 99462 70602 46/// /2105 10009 20008 40231 53202 7//// 8//// 22252 0//// 2//// =

0000013500
278
SNVD02 CWAO 111400
BBXX
SHIP 11144 99473 70705 46/// /0112 11030 21050 40125 56045 7//// 8//// 22213 00006 2//// =

0000013500
279
SNVD02 CWAO 111400
BBXX
SHIP 11144 99454 70598 46/// /2218 10013 20017 40250 51008 7//// 8//// 22263 0//// 2//// =

0000013500
280
SNVD02 CWAO 111400
BBXX
SHIP 11144 99462 70602 46/// /2304 10014 20025 40241 50002 7//// 8//// 22200 0//// 2//// =

0000014700
281
SNNC22 NWBB 111400
AAXX 11144
91570 46/// /0915 10263 20213 30077 40082 58023=
91574 46/// /1114 10255 20207 30097 40102 58017=
0000216500
282
SZNZ01 NZKL 111406
CREX++
T000103 A001 D01021 D06025++
-3683144 17478654 AUCT  2014 01 11 13 58 //// 11 07 00 01
05492 3202 05500 3202 05507 3202 05515 3202 05523 3203 05530 3203+
-4402404 -17636748 CHIT  2014 01 11 13 58 //// 11 07 00 01
05421 2138 05416 2134 05398 2116 05380 2099 05407 2128 05420 2141+
-4089929 17623168 CPIT  2014 01 11 13 58 //// 11 07 00 01
04476 2265 04470 2259 04481 2269 04468 2256 04481 2270 04474 2262+
-3618905 17548887 GBIT  2014 01 11 13 58 //// 11 07 00 01
06114 0005 06124 0010 06121 0003 06135 0012 06150 0023 06152 0020+
-3867541 17802288 GIST  2014 01 11 13 58 //// 11 07 00 01
04484 2707 04478 2700 04473 2693 04483 2701 04490 2707 04502 2717+
-4241288 17370277 KAIT  2014 01 11 13 58 //// 11 07 00 01
04003 2258 04003 2258 04002 2258 04002 2259 04003 2261 03989 2248+
-3755040 17815904 LOTT  2014 01 11 13 58 //// 11 07 00 01
03862 0201 03877 0213 03862 0195 03878 0208 03869 0195 03870 0193+
-3704657 17451175 MNKT  2014 01 11 13 58 //// 11 07 00 01
01905 -0129 01920 -0118 01909 -0132 01920 -0125 01925 -0124 01925 -0128+
-3947566 17692007 NAPT  2014 01 11 13 58 //// 11 07 00 01
03583 2009 03579 2004 03591 2015 03573 1996 03597 2019 03603 2024+
-3441483 17304870 NCPT  2014 01 11 13 58 //// 11 07 00 01
-03689 -8109 -03793 -8218 -03785 -8216 -03770 -8206 -03650 -8092 -03692 -8140+
-4581435 17062939 OTAT  2014 01 11 13 58 //// 11 07 00 01
05208 3450 05206 3452 05201 3451 05196 3450 05192 3450 05188 3451+
-2928002 -17789440 RBCT  2014 01 11 13 58 //// 11 07 00 01
06145 1955 06151 1959 06153 1958 06140 1943 06154 1954 06159 1955+
-2925114 -17790384 RFRT  2014 01 11 13 58 //// 11 07 00 01
03095 0137 03102 0140 03131 0166 03116 0149 03123 0153 03095 0122+
-4357010 17277383 SUMT  2014 01 11 13 58 //// 11 07 00 01
02762 1829 02768 1836 02769 1839 02746 1818 02751 1825 02761 1836+
-3764109 17618118 TAUT  2014 01 11 13 58 //// 11 07 00 01
05337 3977 05342 3978 05354 3985 05352 3979 05359 3981 05365 3983+
-4128448 17477985 WLGT  2014 01 11 13 58 //// 11 07 00 01
03673 2045 03670 2042 03670 2043 03666 2040 03671 2046 03669 2044++
7777
0000039800
283
SATH40 VTBB 111400
METAR VTCH 111400Z NIL=
METAR VTCP 111400Z NIL=
METAR VTPH 111400Z NIL=
METAR VTPN 111400Z NIL=
METAR VTPP 111400Z NIL=
METAR VTSF 111400Z NIL=
METAR VTSM 111400Z 00000KT 8000 FEW020 SCT120 BKN300 27/24 Q1015
A2999=
METAR VTUK 111400Z 04006KT CAVOK 24/16 Q1017 A3004=
METAR VTUL 111400Z NIL=
METAR VTBS 111400Z 33004KT CAVOK 27/17 Q1015 NOSIG=
0000009000
284
SAYE20 OYIB 111400 RRA
METAR OYIB 111400Z 30006KT 9999 SCT025 20/13 Q1021=
00000000