0000068900
005
UDEU02 EGRR 111403 RRB
AMDAR 1113
DES EU0034   5219N 00502E 111353 F026 PS000 307/030 TB/ S011=
DES EU0034   5219N 00501E 111354 F023 PS007 308/030 TB/ S011=
UNS EU0034   5219N 00459E 111354 F020 PS015 305/028 TB/ S111=
DES EU0034   5219N 00453E 111355 F017 PS025 301/027 TB/ S011=
DES EU0034   5219N 00452E 111356 F014 PS032 296/025 TB/ S011=
DES EU0034   5219N 00451E 111356 F012 PS042 309/015 TB/ S011=
DES EU0034   5219N 00449E 111357 F009 PS047 305/023 TB/ S011=
DES EU0034   5219N 00448E 111357 F006 PS057 303/025 TB/ S011=
DES EU0034   5218N 00447E 111357 F003 PS065 297/022 TB/ S011=
DES EU0034   5218N 00445E 111358 F000 PS075 307/015 TB/ S011=
0000056100
006
UDAC02 EGRR 111403 RRA
AMDAR 1113
ASC EU5478   6702N 01507E 111308 F391 MS531 027/015 TB/ S031=
LVR EU5478   6613N 01417E 111315 F400 MS521 349/014 TB/ S031=
LVR EU5478   6525N 01332E 111322 F400 MS500 286/008 TB/ S031=
LVR EU5478   6436N 01250E 111329 F400 MS485 283/019 TB/ S031=
LVR EU5478   6348N 01210E 111336 F400 MS494 289/024 TB/ S031=
LVR EU5478   6300N 01132E 111343 F400 MS478 290/025 TB/ S031=
LVR EU5478   6211N 01102E 111350 F400 MS478 283/028 TB/ S031=
DES EU5478   6122N 01040E 111357 F302 MS496 261/031 TB/ S031=
0000040900
007
SNVD20 KWNB 111400 RRC
BBXX
44065 11141 99404 70737 46/// /1908 10090 40122 56028 91350 22200
00059 333 91209 555 11085 22096 31254 41710 61349 187077 189077
181081 178085 177089 172089=
44007 11141 99435 70701 46/// /1905 10063 20062 40149 58048 91350
22200 00045 10501 20401 315// 40501 70007 333 91206 555 11055
22064 31320 41707 61349 192049 191048 179053 173056 173054 167022=
0000027400
008
SXHW11 KWAL 111402
15D142A4 011140202":PRS 1 #1 1722 1714 1721 1736 1724 1723 1744 1732 1732 1728 :RAD 1 #1 7305 7308 7315 7323 7313 7313 7322 7314 7312 7318 :ENC 2 #5 5215 5226 5222 5232 :SW1 2 #60 0 :SW2 32 #60 0 :BAT 4 #5 12.9 :NAME 15D142A4  31+0NN 216W
0000015500
009
SMVD10 EHDB 111200 RRG
BBXX
PHSG 11124 99069 71330 41/98 81124 10250 20235 40090 54000 70392
88/// 22214 00250 20203 323// 40306 80240=
0000068500
010
UDEU02 EGRR 111404
AMDAR 1112
LVR EU0498   3447N 02357E 111243 F349 MS547 288/054 TB0 S011=
LVR EU0498   3349N 02431E 111250 F349 MS545 294/054 TB0 S011=
LVR EU0498   3244N 02514E 111259 F349 MS540 300/058 TB0 S011=
LVR EU0498   3132N 02601E 111308 F349 MS537 303/063 TB0 S011=
LVR EU0498   3029N 02651E 111316 F349 MS530 308/066 TB0 S011=
LVW EU0498   2920N 02744E 111325 F350 MS525 310/076 TB0 S011=
LVR EU0498   2818N 02831E 111333 F350 MS522 315/078 TB0 S011=
LVR EU0498   2722N 02912E 111340 F349 MS517 321/073 TB0 S011=
LVR EU0498   2627N 02951E 111347 F350 MS502 315/065 TB0 S011=
LVR EU0498   2531N 03025E 111354 F349 MS477 310/071 TB0 S011=
0000011300
011
UDEU02 EGRR 111404 RRA
AMDAR 1113
LVR EU3874   5130N 00219W 111355 F224 MS357 291/059 TB0 S031=
0000011200
012
SNVD25 LFPW 111400
BBXX
BATFR18 11144 99134 70463 46/// /0820 10250 40167 50008
22213 04260=
0000011800
013
SNVB25 LFPW 111400
BBXX
BATFR10 11144 99250 11237 46/// /1621 10207 20119 40242 50001
22213 04242=
0000011800
014
SNVD25 LFPW 111400
BBXX
BATFR19 11144 99162 70615 46/// /0814 10259 20192 40196 50014
22242 04274=
0000011800
015
SNVD25 LFPW 111400
BBXX
BATEU01 11144 99469 70575 46/// /2816 10032 21031 40229 51006
22264 04012=
0000011800
016
SNVD25 LFPW 111400
BBXX
BATFR15 11144 99162 70615 46/// /0911 10274 20202 40199 51018
22200 04269=
0000011800
017
SNVD25 LFPW 111400
BBXX
BATFR43 11144 99063 70826 46/// /2103 10275 20242 40130 51026
22264 04287=
0000095100
018
ULCI07 BABJ 111200
TTCC  11111 50527 70820 41981 27012 50048 43380 24009 30393
44980 19003 20666 42581 15509 10136 40981 14512 88999 77999
31313 63303 81115=
TTCC  11112 50774 70819 39565 29010 50048 43965 18003 30392
40965 10507 20666 41965 10512 88635 42965 26508 77999 31313
63203 81115=
TTCC  11112 51644 70816 559// 25030 50030 569// 24526 30356
543// 21537 20620 465// 22036 88999 77275 21538 31313 63103
81115=
TTCC  11112 51828 70829 575// 26524 50039 585// 24524 30363
551// 21528 20626 517// 22025 88999 77999 31313 63203 81115=
TTCC  11112 52418 70828 53364 25016 50044 55364 24514 30376
49965 20014 20642 48965 17514 88999 77999 31313 63203 81115=
TTCC  11115 52818 70835 561// 25515 50047 553// 24010 30376
531// 88574 599// 24012 77999 31313 63203 81115=
TTCC  11112 53614 70835 56166 24517 50051 51567 20006 30382
49567 14006 20647 48767 13011 88960 58366 25523 77999 31313
63203 81115=
0000172300
019
SNSQ51 LZIB 111400
AAXX 11141
11812 46/// /1504 10037 21018 39487 42790=
11813 46/// /9901 10057 20010 39835 40187=
11816 42975 70702 10064 20036 30027 40192 83048
  333 83363 87268=
11819 46/// /3501 10043 20022 39977 40196=
11826 42865 60000 10046 21000 39994 40197 83041
  333 83358 86070=
11841 42584 62403 10063 21011 39809 40187 82402
  333 82633 85071=
11855 42670 60603 10066 20017 30026 40193 83501
  333 83643 85070=
11856 46/// /1202 10069 20007 39876 40196=
11858 42980 79901 10092 21004 30040 40191 84078
  333 84460 87270=
11867 42684 69901 10064 20005 39874 40192 82506
  333 82643 86070=
11880 42980 69901 10083 20000 30023 40195 80002
  333 86070=
11900 46/// /0000 10056 21015 39858 40196=
11903 42681 62402 10052 21004 39811 40195 83502
  333 83642 85070=
11916 42689 73113 11083 21087 37940 48450 86072
  333 86440 91020 91120 93530
  444 16180=
11918 42786 72405 10025 21030 39350 42781 81448
  333 81650 87270=
11927 42680 62002 10062 20011 39930 40194 83542
  333 83646 85070=
11930 42589 73110 11086 21300 37307 47976 87072
  333 87326 91016
  444 26205=
11933 42486 79902 11023 21058 38647 48462 81572
  333 81613 85359 87070=
11934 42686 72403 10028 21042 39355 42788 81542
  333 81640 87070=
11938 42582 62305 10012 21038 39111 42783 81872
  333 81830 85360=
11952 46/// /9902 10023 21042 39345 42786=
11958 46/// /2305 11017 21019 3//// 4////=
11968 42480 41702 10030 20010 39919 40205 82601
  333 82715 84070=
11976 41335 81903 10006 21007 39937 40208 71022 886//
  333 88706=
11978 41330 81202 10002 21001 30079 40214 71022 886//
  333 88707=
11993 46/// /9901 10031 21004 39988 40209=
0000011000
020
UANT99 KDDL 111400
ARP FWI520 4810N02846W 1400 F360 MS48 200/41 KT
FOFDF QXT AOE 111400 J34A
0000011000
021
UANT99 KDDL 111400
ARP AFR077 5500N01557W 1400 F380 MS56 252/58 KT
FGSPF DDL BLY 111400 F49A
0000011000
022
UANT99 KDDL 111400
ARP DLH428 5101N01904W 1400 F370 MS63 214/79 KT
DAIKP QXT EUA 111400 J37A
0000159900
023
ULJP01 RJTD 111200
TTCC 61123 47401
70825 437// 25527 50049 439// 28512 30393 443// 11010
88798 435// 22525
77999
31313 72208 81130=

TTCC 61121 47412
70829 429// 24516 50051 463// 24508 30391 447// 09017 20661 439//
09537 10132 389// 09551
88889 471// 26539 88654 467// 21512
77999
31313 72208 81130=

TTCC 61121 47418
70827 449// 26536 50050 479// 26018 30390 437// 10529 20662 437//
09037 10135 399// 08546
88612 505// 30023
77999
31313 48108 81131=

TTCC 61121 47580
70833 459// 28019 50051 503// 29014 30389 469// 09017 20658 447//
09037 10127 393// 08552
88558 567// 25529
77999
31313 72208 81130=

TTCC 61121 47582
70833 447// 23519 50050 519// 29510 30387 463// 09517 20655 465//
08533 10119 397// 09552
88584 547// 19516
77999
31313 72208 81130=

TTCC 61121 47600
70838 535// 25034 50053 525// 26508 30386 501// 10017 20652 483//
08529 10116 421// 09554
88999
77999
31313 48108 81209=

TTCC 61122 47646
70842 583// 22531 50054 543// 19504 30386 493// 07529 20650 469//
08535
88999
77999
31313 72208 81130=

TTCC 61121 47678
70845 661// 26041 50053 569// 19508 30379 525// 06517 20643 501//
08035 10102 445// 09056
88999
77999
31313 73008 81130=

TTCC 61121 47681
70843 605// 26037 50054 559// 17512 30384 499// 08519 20648 491//
07533 10109 431// 09556
88528 573// 25012
77999
31313 72208 81131=

TTCC 61121 47741
70843 583// 25035 50054 555// 23518 30385 493// 08015 20650 501//
07033 10113 407// 09556
88999
77096 09559
31313 48108 81131=
0000125000
024
SMIN90 VAAH 111200
AAXX 11124
42647 31995 00505 10216 20103 40159 70400
  333 10225 58023=
42539 32996 60503 10200 20060 40170 80001
  333 10222 58032 86075=
42748 31996 00510 10222 20097 40144 70400
  333 10248 58017=
42840 32996 03202 10224 20130 40147
  333 10245 58008=
42737 32996 00508 10210 20099 40160
  333 10228 58015=
42838 31995 00211 10216 20129 40155 70400
  333 10220 58020=
42830 32996 03610 10220 20046 40162
  333 10234 58014=
42909 32996 03608 10230 20050 40149
222// 20000
  333 10239 58007=
42731 32996 03608 10216 20032 40171
222// 20000
  333 10228 58017=
42730 32996 00903 10208 20055 40180
222// 20000
  333 10212 58022=
42634 32996 00210 10198 20057 40170
  333 10215 58015=
42631 32997 00506 10212 21012 40182
  333 10220 58024=
42914 32997 21103 10230 20103 40144 80001
  333 10254 58008 82070=
42651 31996 0//// 10210 20085 40163
  333 10230 58032=
42639 32997 00208 10212 20078 40178
  333 10227 58025=
42740 32997 03603 10218 21024 40160
  333 10245 58006=
42834 32997 03606 10218 20083 40146
  333 10229 58002=
42837 32996 03604 10234 20104 40135
  333 10246 58014=
42729 32997 00508 10194 20033 4////
  333 10219 5////=
00000000