0000011000
602
UANT01 CWAO 111356
ARP UAL28 5312N03848W 1355 F380 MS56 273/33 KT
N78004 DDL XXN 111356 F46A
0000010900
603
UANT01 CWAO 111356
ARP DAL67 4958N04358W 1356 F340 MS62 292/60 KT
N1602 QXT AOW 111356 F38A
0000011000
604
UANT01 CWAO 111356
ARP KLM743 4901N01641W 1356 F320 MS54 219/75 KT
PHBQP QXT AOE 111356 F10A
0000011200
605
SNVF25 LFPW 111400
BBXX
BAREU51 11144 99433 10095 46/// ///// 10151 29083 40213 57016
22275=
0000012800
606
SNVF41 LFPW 111400
BBXX
61002 11144 99421 10047 46/// /0911 10130 20052 40196 57014
22200 00130 10401 70005=
0000010600
607
SNVF25 LFPW 111400
BBXX
BAREU67 11144 99443 10091 46/// ///// 10140 29070 40203
22233=
0000011100
608
UANT99 KDDL 111355
ARP AAL211 5305N02235W 1355 F350 MS61 208/79 KT
N185AN DDL XXN 111355 F32A
0000014200
609
UANT99 KDDL 111355
ARP XLF066 4802N01436W 1355 F360 4801N01500W 1357 4901N02000W MS64
 243/75 KT
FHXLF DDL BYT 111355 J24A
0000021000
610
SZSR01 WSSS 111358
CREX++
T000103 A001 D01021 D06025++
0126166 10385160 00044 2014 01 11 13 18 //// 11 07 00 06
02215 -0075 02214 -0076 02218 -0072 02214 -0076 02202 -0078 02191 -0089++
7777
0000018800
611
SPSA85 EGRR 111345 RRC
SPECI SBCT 111345Z 12003KT 9999 FEW013 SCT100 26/20 Q1020=
SPECI SBSM 111330Z 30008KT 4000 -TSRA BKN005 BKN020 FEW040CB OVC070
      22/21 Q1015=
0000097200
612
WWCN02 CYTR 111355
WEATHER BULLETIN FOR CFB SUFFIELD DRDC/BATUS AAC AND RANGE SUFFIELD
PREPARED BY THE JOINT METEOROLOGICAL CENTRE AT 6:55 AM MST SATURDAY
11 JANUARY 2014.
LOCATION: CFB SUFFIELD DRDC / BATUS ACC AND RANGE (CYSD)
TYPE: FREEZING PRECIPITATION WARNING ENDED
TYPE: WIND WARNING IN EFFECT
DESCRIPTION: SURFACE WIND GUSTS EQUAL TO OR GREATER THAN 30 KNOTS
VALID: 11/1600Z TO 12/1200Z (11/0900 MST TO 12/0500 MST)
COMMENTS: FREEZING RAIN ASSOCIATED WITH A LOW PRESSURE SYSTEM OVER
THE ROCKIES HAS TRACKED OFF TO THE EAST INTO SASKATCHEWAN AND IS NO
LONGER EXPECTED OVER THE SUFFIELD REGION.
A TIGHT PRESSURE GRADIENT WILL FORM OVER THE REGION AS THIS LOW
PRESSURE SYSTEM DEEPENS. SURFACE WIND GUSTS EQUAL TO OR GREATER
THAN 30 KNOTS ARE EXPECTED TO DEVELOP IN THE MORNING AND DISSIPATE
SUNDAY MORNING WHEN THE PRESSURE GRADIENT SLACKENS.
NEXT UPDATE: THIS BULLETIN WILL BE UPDATED BY 11/2000Z (11/1300 MST)
END/JMC
0000018000
613
WSUY31 SUMU 111400
SUEO SIGMET 4 VALID 111400/111800 SUMU-
SUEO MONTEVIDEO FIR EMBD TS OBS/FCST WI S30W057 - S31W055 -S31W054 -
S31W057 CB TOP FL420 MOV ENE NC=
0000082500
614
SAUK39 EGRR 111350
METAR EGDM 111350Z 30009KT 9999 FEW022 08/02 Q1020 BLU=
METAR EGDR 111350Z 10004KT 9999 FEW025 BKN030 08/05 Q1021 BLU=
METAR EGDX 111350Z 28006KT 9999 FEW043 07/03 Q1020 BLU=
METAR EGQL 111350Z 28016KT 9999 FEW030 05/M02 Q1013 BLU NOSIG=
METAR EGQM 111350Z AUTO 26018KT 9999 NCD 06/M01 Q1014=
METAR EGUB 111350Z 27008KT 9999 FEW025 08/01 Q1020 BLU NOSIG=
METAR EGVO 111350Z 29007KT 9999 FEW020 08/01 Q1020 BLU=
METAR EGWU 111350Z 29010KT 9999 FEW027 08/02 Q1020 BLU NOSIG=
METAR EGXC 111350Z 29014KT 9999 FEW020 07/01 Q1018 BLU=
METAR EGXT 111350Z AUTO 28011KT 9999 FEW028/// 06/02 Q1018=
METAR EGXV 111350Z AUTO 28012KT 9999 NCD 06/01 Q1017=
METAR EGXW 111350Z 28011KT 9999 FEW021 06/01 Q1018 BLU NOSIG=
METAR EGYD 111350Z 29012KT 9999 FEW025 06/01 Q1018 BLU NOSIG=
0000030000
615
SNAA19 LFVW 111400
AAXX 11144
89646 46/// /1505 11170 29083 37663 4//// 5////=
89661 46/// ///04 11046 29077 39344 4//// 5////=
89648 46/// /2105 11271 29076 37230 4//// 5////=
89659 46/// /2810 11247 29075 37745 4//// 5////=
89666 46/// /1906 11026 29070 39797 4//// 5////=
0000010000
616
SNVC25 LFPW 111400
BBXX
BAREU08 11144 99325 50718 46/// ///// 40134 52010
22244=
0000011000
617
UANT99 KDDL 111357
ARP AFR842 4801N00941W 1357 F310 MS52 280/45 KT
FGSQX QXS LEQ 111357 F11A
0000011000
618
UANT99 KDDL 111357
ARP VIR73Q 5203N01558W 1357 F370 MS60 240/78 KT
GVAST DDL BLY 111357 F37A
0000032500
619
SAPK31 OPKC 111400
METAR OPGD 111400Z NIL=
METAR OPKC 111355Z 07007KT 7000 SCT200 18/M05 Q1021 NOSIG=
METAR OPLA 111355Z 00000KT 5000 FU NSC 15/06 Q1020 NOSIG/30.12=
METAR OPNH 111400Z NIL=
METAR OPPS 111400Z NIL=
METAR OPRN 111400Z 18006KT 6000 FEW200 12/01 Q1021.5/30.16=
METAR OPSK 111400Z NIL=
0000015100
620
SNAA17 LFVW 111300 RRA
AAXX 11134
89003 46/89 /1514 11043 29042 39098 4//// 5////=
89507 46/89 /3013 11179 29072 36886 4//// 5////=
0000011000
621
UANT01 CWAO 111356
ARP DAL99 5141N04116W 1356 F320 MS59 303/70 KT
N833MH QXT AOW 111356 F31A
00000000