0000014200
695
SPCN31 CWAO 110531
SPECI CYWG 110531Z 28009KT 1SM R31/P6000FT/N R36/P6000FT/N BR OVC006
 M09/M10 A2947 RMK FG4SF4 SLP997=

0000015100
696
FTDL33 EDZO 110500 RRA
TAF EDLW 110522Z 1106/1206 20011KT 9999 SCT030 TEMPO 1113/1118 4000
     RA BKN014 BECMG 1115/1117 26008KT=

0000015100
697
FTDL34 EDZO 110500 RRA
TAF EDLW 110522Z 1106/1206 20011KT 9999 SCT030 TEMPO 1113/1118 4000
     RA BKN014 BECMG 1115/1117 26008KT=

0000023300
698
SALJ31 LJLJ 110530
METAR LJLJ 110530Z 00000KT 9999 FEW030 BKN040 06/05 Q1020
R30/CLRD// NOSIG=
METAR LJMB 110530Z VRB01KT 9999 OVC003 03/02 Q1021=
METAR LJPZ 110530Z VRB02KT 3000 BR FEW004 OVC050 09/09 Q1022=

0000009900
699
SALJ32 LJLJ 110530
METAR LJCE 110530Z 10001KT 0400 FG VV001 03/02 Q1021 RMK RED=

0000023000
700
SAFR21 LFPW 110530
METAR LFOA 110530Z AUTO 21003KT 7000 NSC 06/04 Q1016=
METAR LFPC 110530Z AUTO 00000KT 2400 BR OVC003 05/04 Q1016=
METAR LFPV 110530Z AUTO 36003KT 2700 -RADZ BR FEW002 OVC050 06/05
Q1015=

0000047800
701
SAFR22 LFPW 110530
METAR LFBC 110530Z AUTO 20003KT 5000 BR OVC019 09/09 Q1017=
METAR LFBG 110530Z AUTO VRB02KT 6000 FEW003 OVC007 07/07 Q1017=
METAR LFBM 110530Z AUTO VRB02KT 8000 BKN025 09/08 Q1018=
METAR LFKS 110530Z AUTO 28003KT 260V320 9999 BKN028 OVC034 12/08
Q1021=
METAR LFMO 110530Z AUTO 33003KT 4900 BR BKN027 OVC034 08/07 Q1020=
METAR LFMY 110530Z AUTO 06005KT 9999 OVC032 10/06 Q1020=
METAR LFBY 110530Z NIL=
METAR LFMC 110530Z NIL=

0000009600
702
SANT31 KWBC 110500 RRC
METAR
BIKF 110530Z 24011KT 9999 FEW043 01/M04 Q0996=

0000010800
703
SAFI33 EFHK 110520 CCA
EFJO 110534Z 36009KT 320V050 9999 -SG SCT015 BKN030 M08/M09 Q0997=

0000039100
704
SAFR23 LFPW 110530
METAR LFOC 110530Z AUTO VRB02KT 5000 BR OVC003 06/05 Q1015=
METAR LFOE 110530Z AUTO 16002KT 0300 R22/0900U FG VV/// 05/05 Q1016=
METAR LFOJ 110530Z AUTO 08003KT 3500 BR OVC002 05/05 Q1015=
METAR LFRJ 110530Z AUTO 26004KT 230V320 6000 FEW004 BKN011 BKN017
08/07 Q1016=
METAR LFRL 110530Z AUTO 21004KT 8000 // SCT005 BKN010 BKN017 08/08
Q1017=

0000027200
705
SAFR24 LFPW 110530
METAR LFSI 110530Z AUTO VRB01KT 9999 NSC 05/03 Q1016=
METAR LFSO 110530Z AUTO 12004KT 3100 -RA BR ///TCU 03/02 Q1016=
METAR LFSX 110530Z AUTO 06004KT 9999 NSC 04/02 Q1016=
METAR LFYR 110530Z AUTO 00000KT 0450 FG NSC 03/02 Q1015=

0000036300
706
SARO31 LROM 110530
METAR LRBS 110530Z 29003KT 260V330 CAVOK M01/M02 Q1021 NOSIG=
METAR LRCK 110530Z 26007KT 3000 BR BKN041 02/01 Q1021 NOSIG=
METAR LROP 110530Z 24005KT CAVOK M02/M02 Q1021 8819//95 NOSIG=
METAR LRSB 110530Z 09004KT 030V130 9999 SCT054 M01/M04 Q1022 NOSIG=
METAR LRTR 110530Z 10005KT 5000 BR OVC048 01/00 Q1023 11190095=

0000038300
707
SARO32 LROM 110530
METAR LRAR 110530Z 13004KT 8000 BKN049 02/02 Q1022=
METAR LRBM 110530Z 10002KT 5000 BR BKN025 01/01 Q1022 1019//95=
METAR LRCL 110530Z 00000KT 9999 OVC053 M01/M02 Q1021=
METAR LROD 110530Z 19012KT CAVOK 03/01 Q1022=
METAR LRSM 110530Z 15002KT CAVOK M02/M03 Q1021 0129//95=
METAR LRTM 110530Z VRB02KT 3000 BR NSC M02/M02 Q1022 0719//95=

0000049200
708
SAFR31 LFPW 110530
METAR LFLL 110530Z 18014KT 9999 FEW023 BKN200 10/06 Q1017 NOSIG=
METAR LFMN 110530Z 33009KT 9999 OVC040 10/05 Q1021 NOSIG=
METAR LFPG 110530Z 01003KT 340V040 5000 -RA BR FEW001 BKN040 05/05
Q1016 TEMPO 4000 BR=
METAR LFPO 110530Z 00000KT 4500 BR FEW003 BKN046 06/05 Q1016 NOSIG=
METAR LFQQ 110530Z 20007KT 3000 BR OVC002 04/04 Q1015 NOSIG=
METAR LFRS 110530Z 31002KT 1500 BR FEW002 BKN015 07/07 Q1016 TEMPO
BKN003=
METAR LFRB 110530Z NIL=

0000033600
709
SARO33 LROM 110530
METAR LRBC 110530Z 27010KT CAVOK M00/M06 Q1019 1619//95=
METAR LRCV 110530Z AUTO 24006KT 9999 NCD 02/M01 Q1022=
METAR LRIA 110530Z 28004KT CAVOK 03/M02 Q1018 1519//95=
METAR LRSV 110530Z AUTO 25008KT 9999 BKN055 02/M03 Q1017=
METAR LRTC 110530Z AUTO 19004KT 150V240 3500 BR NCD 01/00 Q1021=

0000008900
710
SPCN31 CWAO 110532
SPECI CYQY 110532Z 25015KT 10SM -SN OVC024 RMK SC8=

0000081700
711
SAFR32 LFPW 110530
METAR LFBD 110530Z AUTO 21003KT 4800 BR OVC014 09/09 Q1017=
METAR LFBH 110530Z AUTO 21003KT 2200 BR FEW006 SCT140 09/08 Q1016=
METAR LFBI 110530Z AUTO 21004KT 0150 R21/0800N FG SCT010 BKN170
BKN190 05/05 Q1016=
METAR LFBL 110530Z AUTO 20009KT 9000 OVC009 08/07 Q1017=
METAR LFBO 110530Z AUTO 21004KT 2400 BR OVC008 09/08 Q1018=
METAR LFBP 110530Z AUTO 20003KT 8000 FEW017 OVC031 09/08 Q1018=
METAR LFBT 110530Z AUTO 21002KT 5000 BR FEW009 BKN025 OVC140 08/07
Q1018=
METAR LFBZ 110530Z 19002KT 9999 BKN023 BKN040 11/09 Q1018 NOSIG=
METAR LFLB 110530Z 00000KT 4000 R18/1200N MIFG FEW001 SCT200 02/01
Q1019=
METAR LFLX 110530Z 24007KT 9999 FEW018 BKN110 08/07 Q1015 NOSIG=
METAR LFML 110530Z 07007KT 9999 BKN031 12/07 Q1019 NOSIG=
METAR LFCK 110530Z NIL=

0000052000
712
SAFR33 LFPW 110530
METAR LFKB 110530Z 23003KT 9999 SCT033 BKN250 09/06 Q1021 NOSIG=
METAR LFKF 110530Z AUTO 07008KT 030V100 9999 BKN028/// 12/09 Q1020=
METAR LFKJ 110530Z 06006KT 9999 FEW016 BKN230 05/04 Q1020 NOSIG=
METAR LFLC 110530Z VRB04KT CAVOK 06/02 Q1016 NOSIG=
METAR LFMP 110530Z AUTO VRB01KT 9999 FEW032 BKN160 OVC180 10/08
Q1018=
METAR LFMV 110530Z AUTO 11006KT 080V140 9999 OVC037 11/07 Q1020=
METAR LFSL 110530Z AUTO 16004KT 9999 OVC022 06/05 Q1017=
METAR LFKC 110530Z NIL=

0000103100
713
SAFR34 LFPW 110530
METAR LFCR 110530Z AUTO 12005KT 9999 NSC 06/04 Q1018=
METAR LFJL 110530Z AUTO VRB01KT 4300 -DZ BR NSC 01/00 Q1016=
METAR LFLP 110530Z AUTO 00000KT 3500 BR NSC 01/01 Q1018=
METAR LFLS 110530Z AUTO 22009KT 190V260 9999 BKN016 OVC190 08/06
Q1018=
METAR LFLY 110530Z AUTO 18009KT 9999 NSC 10/05 Q1017=
METAR LFMT 110530Z 03005KT 9999 BKN028 BKN043 11/08 Q1019=
METAR LFMU 110530Z AUTO 03006KT 9999 SCT019 BKN027 BKN035 11/08
Q1019=
METAR LFOB 110530Z AUTO 12001KT 3700 BR OVC003 05/04 Q1016=
METAR LFOH 110530Z AUTO 19004KT 8000 BKN012 BKN150 BKN170 07/05
Q1015=
METAR LFOK 110530Z AUTO 04004KT 5000 -RA BR ///TCU 02/02 Q1016=
METAR LFOP 110530Z AUTO 16006KT 0200 R22/0900U FG VV/// 05/05 Q1015=
METAR LFPB 110530Z AUTO 03002KT 8000 FEW041 OVC062 06/05 Q1016=
METAR LFQA 110530Z AUTO 31001KT 9000 -RA FEW049/// OVC064///
///TCU 03/03 Q1016=
METAR LFQB 110530Z AUTO 31003KT 4500 BR NSC 03/03 Q1016=
METAR LFSN 110530Z AUTO 19002KT 1500 -RA BR ///TCU 01/01 Q1016=

0000010300
714
SAKO31 RKSI 110530
METAR RKSI 110530Z 20004KT 9999 SCT040 BKN200 01/M13 Q1031 NOSIG=

00000000