0000010700
195
SAUK33 EGGY 110550 RRA
METAR EGHI 110550Z 29005KT 250V330 9000 VCSH SCT035 07/05 Q1014 =

0000063300
196
SANO31 ENMI 110550
METAR ENAN 110550Z 10012KT CAVOK M06/M13 Q1016=
METAR ENBR 110550Z 24006KT 9999 -DZ FEW009 BKN025 05/03 Q0996 TEMPO
           4000 SHRA BKN012CB RMK WIND 1200FT 24013KT=
METAR ENBO 110550Z 10017KT CAVOK M08/M18 Q1011=
METAR ENDU 110550Z VRB02KT CAVOK M24/M27 Q1018=
METAR ENGM 110550Z 04008KT 010V070 2600 -SN BR FEW008 BKN010 M04/M05
           Q0998 TEMPO SN BKN004=
METAR ENOL 110550Z 09017KT 9999 FEW010 M09/M13 Q1002=
METAR ENVA 110550Z 07008KT 9999 FEW045 M11/M17 Q1003 NOSIG RMK WIND
           670FT 11010KT=
METAR ENZV 110550Z 27011KT 9999 FEW022 06/02 Q1000 NOSIG=

0000010100
197
SAFK41 EGYP 110550
METAR EGYP 110550Z 21022KT 9999 FEW024 BKN038 04/M02 Q1004 BLU=

0000074400
198
SANO39 ENMI 110550
METAR ENNE 110550Z NIL=
METAR ENQR 110550Z AUTO VRB10KT 5000NDV -SHRASN OVC024/// 02/M03
           Q0997 W///S/=
METAR ENSE 110550Z AUTO 08020KT 9999NDV -SHRA SCT021/// BKN029///
           01/M03 Q0997 W///S5=
METAR ENQC 110550Z AUTO 06009KT 9999NDV BKN018/// 04/00 Q0996
           W///S4=
METAR ENQA 110550Z AUTO 08006KT 050V110 9999NDV -RA FEW025///
           SCT030/// OVC049/// 03/02 Q0996 W04/S4=
METAR ENHM 110550Z AUTO 26029KT 9999NDV FEW023/// SCT035/// 06/02
           Q0998 W08/S5=
METAR ENVH 110550Z AUTO 30022KT 9999NDV FEW024/// BKN077/// BKN098///
           06/01 Q1004 W///S4=
METAR ENLA 110550Z AUTO 29023KT 9999NDV SCT030/// 06/01 Q1003
           W///S4=

0000059600
199
SANO32 ENMI 110550
METAR ENAL 110550Z 08006KT 9999 BKN030 M02/M07 Q0998=
METAR ENCN 110550Z 22002KT CAVOK 03/02 Q1000=
METAR ENHD 110550Z 27022KT 9999 FEW018 SCT041 BKN061 06/03 Q0999=
METAR ENRO 110550Z AUTO 07007KT 9999NDV FEW024/// OVC062/// M16/M19
           Q0998=
METAR ENRY 110550Z 36003KT CAVOK M00/M01 Q0997=
METAR ENSB 110550Z 25015KT 9999 FEW018 BKN025 M01/M05 Q1008 RMK WIND
           1400FT 21016KT=
METAR ENTC 110550Z 16003KT 090V220 9999 FEW010 M12/M14 Q1018 RMK WIND
           2600FT 09007KT=
METAR ENTO 110550Z 25007KT CAVOK 02/01 Q0997=

0000009200
200
SAMT20 GQPP 110600
METAR GQPP 110600Z 35004KT 7000 NSC 15/14 Q1015 NOSIG=

0000008700
201
SAMC32 GMMC 110500 RRA
METAR GMFM 110500Z 00000KT CAVOK 10/04 Q1016=

0000031100
202
SANO34 ENMI 110550
METAR ENBN 110550Z 09016KT 060V120 CAVOK M06/M13 Q1007=
METAR ENBV 110550Z NIL=
METAR ENFG 110550Z NIL=
METAR ENHF 110550Z VRB01KT CAVOK M09/M12 Q1016 RMK WIND 1254FT
           24005KT=
METAR ENRA 110550Z 09013G23KT CAVOK M10/M21 Q1011=
METAR ENSH 110550Z NIL=

0000009600
203
SACV20 GVNP 110600
METAR GVNP 110600Z /////KT 9999 BKN020  XX/XX Q//// NOSIG=

0000010200
204
SABZ20 SBEG 110555
METAR SBEG 110600Z 10007KT 9999 -RA SCT009 BKN025
22/20 Q1013=

0000033000
205
SAMX43 MMMZ 110600
METAR MMCL 110556Z  NIL=
METAR MMLP 110540Z 00000KT 10SM  SCT140 16/12 A3006 
      RMK SLP227 52001 920 8/030 HZY ISOL CI=
METAR MMMZ 110542Z 36006KT 10SM  SKC 13/08 A2996 RMK SLP146 52010
905=
METAR MMTJ 110541Z 00000KT 6SM  SKC 13/06 A3013 
      RMK SLP207 52026 918 ST W HZY=

0000011000
206
SPUS31 KWBC 110555
SPECI
KBWI 110551Z 00000KT 1/8SM R10/1000V1200FT FG VV001 02/01 A3010=

0000010200
207
SPUS41 KWBC 110555
SPECI
KINT 110551Z AUTO 00000KT 4SM -RA BR OVC002 04/03 A3007=

0000009200
208
SPCN43 CWAO 110553
SPECI CYGX 110553Z 05009KT 1 1/2SM -SN OVC016 RMK SC8=

0000008600
209
SAMX55 MMIO 110600
METAR MMIO 110540Z 18006KT 10SM SKC 11/06 A3020=

0000008300
210
SABZ24 SBPA 110600
METAR SBPA 110600Z 36002KT CAVOK 22/20 Q1009=

0000031000
211
FTBZ31 KWBC 110554 AAA
TAF AMD
TAF AMD SBBR 110545Z 1106/1206 17003KT 9999 TS SCT020 FEW035CB
      TN19/1 108Z TX30/1118Z
      BECMG 1106/1108 06008KT SCT020
      BECMG 1114/1116 SCT030 FEW040TCU PROB30 1118/1121 TS
      FEW030CB
      BECMG 1122/1124 05005KT SCT030 RMK PDC=

0000079800
212
SASN32 ESWI 110550
METAR ESKN 110550Z 04003KT 010V080 9999 BKN005 M00/M00 Q0999
R26/720145=
METAR ESOE 110550Z AUTO 04010KT 1500NDV -SN FEW004/// BKN006///
M03/M03 Q0999=
METAR ESOK 110550Z AUTO 05010KT 9999 -FZDZ OVC002/// M02/M02 Q0998
REFZUP=
METAR ESOW 110550Z AUTO 02004KT 3600NDV -SN NCD M04/M06 Q1001=
METAR ESSA 110550Z 33002KT 1000 SN VV008 M04/M05 Q1000 R01L/510115
R08/510166 R01R/19//68 TEMPO 4000=
METAR ESSB 110550Z AUTO 33003KT 0800NDV R12/P1500N R30/P1500N SN
FEW003/// M03/M04 Q1000=
METAR ESSD 110550Z AUTO 01005KT 1900 -SN SCT001/// OVC010/// M08/M10
Q1001=
METAR ESSP 110550Z 00000KT 7000 -FZDZ BR OVC006 M00/M00 Q0999
R27/790142=
METAR ESSV 110550Z AUTO 19007KT 9999NDV -RA FEW006/// BKN008///
OVC017/// 01/00 Q1001 REUP REDZ=

0000095600
213
FTUS31 KWBC 110554
TAF
KBWI 110553Z 1106/1212 10004KT 1/4SM FG VV001 WS020/18035KT
      TEMPO 1107/1109 2SM -RA BKN004 OVC010
     FM110900 16004KT 1/2SM -RA FG OVC003 WS020/19040KT
     FM111500 17011KT 1SM BR OVC006 WS020/20050KT
     FM111700 17012KT 6SM -SHRA OVC009 WS020/20045KT
     FM111900 18011G21KT 3SM SHRA OVC010 WS020/20040KT
     FM112300 24009KT 6SM -SHRA OVC025
     FM120000 25009KT 6SM -SHRA OVC035
     FM120200 27009KT P6SM BKN070
     FM120800 28010KT P6SM SCT130=
KIAD 110553Z 1106/1212 VRB03KT 1 1/2SM -RA BR SCT004 OVC006
      TEMPO 1106/1110 1/2SM FG OVC002
     FM111000 17005KT 1SM BR OVC003 WS020/19040KT
     FM111300 18008KT 1/2SM FG OVC003 WS020/20045KT
     FM111400 18008KT 3/4SM BR OVC003 WS020/20050KT
     FM111700 18011KT 3SM SHRA OVC007 WS020/20050KT
     FM112200 25008KT 6SM -SHRA OVC035
     FM120200 27008KT P6SM BKN090
     FM120700 29010KT P6SM SCT200=

0000037200
214
FTUS41 KWBC 110554 CCA
TAF COR
KGSP 110553Z 1106/1206 05005KT 3SM SHRA BR OVC003
      TEMPO 1106/1108 1SM TSRA BR OVC002CB
     FM111200 18007KT 1SM SHRA BR OVC002 WS020/21035KT
     FM111600 20012G18KT 2SM SHRA BR OVC003
     FM111800 22013G22KT 4SM SHRA VCTS OVC015CB
     FM112000 24010KT P6SM BKN040
     FM112300 26010KT P6SM SCT050=

00000000