0000009100
915
SAMF20 TFFR 110800
METAR TFFR 110800Z AUTO VRB02KT 9999 NSC 21/20 Q1016=

0000010500
916
SACI44 ZSJN 110800
METAR ZSJN 110800Z 27002MPS 220V300 4000 HZ NSC 06/M06 Q1028 NOSIG=

0000010900
917
SANC01 NWWW 110800
METAR NWWW 110800Z AUTO 14013KT 9999 FEW060/// SCT082/// 25/17
Q1010=

0000009900
918
SACN51 CWAO 110800
METAR CWCA 110800Z 23010KT 15SM SKC M11/M13 A2982 RMK SLP101=

0000010000
919
SACN42 CWAO 110800
METAR CYUA 110800Z AUTO 30016KT 8SM CLR M26/ A2971 RMK SLP069=

0000009200
920
SACN51 CWAO 110800
METAR CWUP 110800Z AUTO 23012KT M23/ A2925 RMK SLP955=

0000011100
921
SACN31 CWAO 110800
METAR CYJT 110800Z 26015G23KT 15SM BKN025 M03/M06 A3016 RMK SC6
SLP215=

0000012600
922
SACN51 CWAO 110800
METAR CWUW 110800Z AUTO 20003KT 9SM OVC021 OVC046 OVC074 OVC084 M27/
A2922 RMK SLP976=

0000011200
923
SACN31 CWAO 110800
METAR CYQG 110800Z 20012KT 5SM -RA BR OVC003 06/06 A2958 RMK SF8
SLP022=

0000010600
924
SACN45 CWAO 110800
METAR CYHY 110800Z 00000KT 15SM FEW230 M27/M33 A2963 RMK CI0 SLP056=

0000014000
925
SACN46 CWAO 110800
METAR CYBN 110800Z AUTO 15011KT 2 1/2SM -RA OVC004 03/03 A2963 RMK
PCPN 2.0MM PAST HR PRESFR SLP042=

0000014100
926
SACN51 CWAO 110800
METAR CWCL 110800Z AUTO 13006KT 5SM OVC004 OVC039 M02/M06 A2925 RMK
PCPN 0.5MM PAST HR PRESFR SLP939=

0000012500
927
SACN46 CWAO 110800
METAR CYGQ 110800Z 17002KT 3/4SM -FZDZ -SN BR OVC005 M02/M02 A2941
RMK SN2ST6 SLP978=

0000009600
928
SACN44 CWAO 110800
METAR CYUS 110800Z AUTO 20012KT CLR M34/ A2951 RMK SLP002=

0000011100
929
SACN43 CWAO 110800
METAR CYGX 110800Z 05010KT 2SM -SN OVC016 M22/M25 A2955 RMK SC8
SLP025=

0000014000
930
SNFP20 LFVP 111700
AAXX 11174
71805 22484 32514 10012 21015 30212 40221 56022 82501
  333 60005 82619 90710 91121 93100=
0000015100
931
SSVB11 RJTD 111700
ZZYY 21706 11014 1700/ 136816 168937
11109 0//// 1//// 2//// 30093 40093 5////
22209 00151 10907 20087 21036=

0000015100
932
SSVB11 RJTD 111600
ZZYY 21706 11014 1600/ 136813 168930
11109 0//// 1//// 2//// 30101 40101 5////
22209 00151 11007 20095 21034=

0000136000
933
UAPS01 NZKL 111700
AIREP
VOZ8 1012S 16854W 1605 F340 MS39 184/14=
VOZ8 1230S 17142W 1632 F340 MS38 254/09=
VOZ8 1342S 17330W 1648 F340 MS38 257/14=
QFA16 0124S 17130W 1654 F340 MS37 191/25=
VOZ8 1436S 17442W 1659 F340 MS37 267/12=
VOZ2 1618S 17906E 1622 F350 MS40 281/20=
VOZ2 1836S 17618E 1649 F350 MS40 283/26=
QFA8 1806S 17600W 1605 F360 MS41 259/11=
ANZ5 2536S 17236W 1607 F360 MS42 347/41=
QFA8 1824S 17642W 1609 F360 MS42 258/11=
QFA94 1200S 16542W 1611 F360 MS46 182/41=
QFA108 0818S 16200W 1615 F360 MS48 188/32=
QFA8 1854S 17742W 1618 F360 MS41 302/14=
ANZ5 2800S 17442W 1629 F360 MS42 317/61=
ANZ1 3230S 17930W 1634 F360 MS46 301/81=
ANZ5 3012S 17654W 1650 F360 MS43 309/69=
ANZ1 3418S 17812E 1655 F360 MS50 281/50=
QFA108 1142S 16624W 1658 F360 MS46 193/34=
ANZ288 2812S 16748E 1602 F370 MS53 292/78=
UAL863 1312S 17712W 1607 F370 MS45 268/13=
DAL417 2400S 17230E 1609 F370 MS46 295/44=
UAL863 1424S 17842W 1621 F370 MS44 265/20=
DAL417 2512S 17106E 1623 F370 MS48 289/51=
DAL417 2600S 17000E 1633 F370 MS49 286/66=
UAL863 1542S 17948E 1635 F370 MS44 269/27=
DAL417 2618S 16936E 1636 F370 MS49 285/73=
UAL863 1654S 17824E 1649 F371 MS44 281/17=
DAL417 2724S 16812E 1650 F370 MS52 294/78=
DAL417 2742S 16748E 1654 F370 MS52 287/83=
UAL839 1454S 17912W 1603 F380 MS48 285/15=
0000075000
934
UAPS01 NZKL 111700 RRA
AIREP
QFA12 1618S 17318W 1614 F380 MS48 333/14=
UAL839 1600S 17924E 1616 F380 MS48 287/23=
QFA12 1624S 17336W 1616 F380 MS49 325/14=
UAL839 1606S 17918E 1617 F380 MS48 290/23=
QFA12 1730S 17512W 1630 F380 MS48 039/04=
UAL839 1718S 17748E 1631 F380 MS48 294/25=
QFA8 1948S 17924W 1632 F380 MS47 296/15=
QFA94 1336S 16800W 1633 F380 MS52 186/23=
QFA12 1754S 17548W 1635 F380 MS48 291/05=
QFA8 2030S 17930E 1641 F380 MS47 310/18=
UAL839 1830S 17618E 1644 F380 MS48 294/27=
QFA12 1836S 17648W 1644 F380 MS48 354/07=
QFA8 2048S 17854E 1646 F380 MS47 295/23=
QFA94 1512S 17024W 1654 F380 MS50 145/16=
QFA12 1948S 17824W 1658 F380 MS48 340/19=
ANZ288 3330S 17130E 1645 F390 MS56 281/38=
00000000