0000058900
355
SAJP41 KWBC 110800
METAR
RJAF NIL=
RJAI NIL=
RJAK NIL=
RJAM NIL=
RJAO NIL=
RJAT NIL=
RJAW NIL=
RJBD 110800Z 33013KT 9999 FEW035 06/M04 Q1026=
RJCA NIL=
RJCB 110800Z 32005KT 250V360 9999 FEW040 M07/M18 Q1015=
RJCJ NIL=
RJCK 110800Z 26008KT 9999 FEW040 M07/M17 Q1015=
RJCM 110800Z VRB01KT 9999 FEW010 BKN030 M11/M13 Q1015=
RJCN 110800Z 26005KT 9999 FEW045 M10/M15 Q1014=
RJCO NIL=
RJCR NIL=
RJCT NIL=
RJCW 110800Z 27021KT 0700 R08/P1800N SHSN BLSN VV008 M10/M18
     Q1014=
RJDB NIL=
RJDC 110800Z 26007KT 9999 FEW040 06/M04 Q1028=

0000064800
356
SAJP42 KWBC 110800
METAR
RJDK NIL=
RJDM NIL=
RJDO NIL=
RJDT 110800Z 31007KT 270V020 9999 FEW035 04/M05 Q1028=
RJEB NIL=
RJEC 110800Z 26009KT 8000 -SHSN FEW010 SCT025 BKN040 M09/M14
     Q1015=
RJEO NIL=
RJER NIL=
RJFA NIL=
RJFC NIL=
RJFE NIL=
RJFG 110800Z VRB02KT 8000 FEW025 SCT050 BKN170 09/03 Q1027=
RJFM 110800Z 18007KT 150V230 9999 FEW030 SCT130 10/M00 Q1027=
RJFN NIL=
RJFO 110800Z 34009KT 9999 FEW035 SCT170 BKN/// 07/M02 Q1028=
RJFR 110800Z 34008KT 9999 FEW045 06/M02 Q1028=
RJFY NIL=
RJFZ NIL=
RJKA 110800Z 05007KT 030V100 9999 FEW040 SCT060 BKN080 14/05
     Q1026=
RJKB NIL=

0000066200
357
SAJP43 KWBC 110800
METAR
RJKI NIL=
RJKN NIL=
RJNF NIL=
RJNG NIL=
RJNH NIL=
RJNO NIL=
RJNT 110800Z 33003KT 6000 -SHRASN FEW008 BKN020 02/M00 Q1026=
RJNY NIL=
RJOA 110800Z 36006KT 9999 FEW040 03/M06 Q1026=
RJOB 110800Z 28003KT 9999 FEW030 SCT040 04/M06 Q1026=
RJOC 110800Z 21003KT 9999 FEW035 04/M01 Q1027=
RJOE NIL=
RJOF NIL=
RJOI 110755Z 30005KT 9999 FEW025 BKN200 07/M04 A3034 RMK SLP276
     T00671039=
RJOK 110800Z 01009KT 9999 FEW050 BKN/// 07/M03 Q1027=
RJOM 110800Z 27004KT 230V300 9999 FEW030 BKN045 07/M04 Q1028=
RJOP NIL=
RJOR 110800Z 25012KT 220V280 9999 -SHRA FEW015 SCT045 05/M01
     Q1027=

0000052900
358
SAJP44 KWBC 110800
METAR
RJOS NIL=
RJOT 110800Z 26004KT 9999 FEW035 SCT170 04/M04 Q1027=
RJOY 110800Z 28006KT 9999 FEW030 SCT050 07/M04 Q1027=
RJOZ NIL=
RJSA 110800Z 26015KT 0900 R24/0550V1100D SHSN BKN002 BKN006
     M06/M07 Q1021=
RJSC 110800Z 18003KT 9999 -SHSN FEW005 BKN020 M02/M03 Q1023=
RJSD NIL=
RJSH NIL=
RJSI 110800Z 19005KT 150V240 9999 VCSH FEW030 M04/M08 Q1022=
RJSO NIL=
RJST NIL=
RJSU NIL=
RJTA NIL=
RJTC NIL=
RJTE NIL=
RJTF 110800Z NIL=
RJTH NIL=
RJTI NIL=

0000020000
359
SAJP45 KWBC 110800
METAR
RJTJ NIL=
RJTK NIL=
RJTL NIL=
RJTO NIL=
RJTQ NIL=
RJTR NIL=
RJTU NIL=
RJTX NIL=
RJTY 110758Z 18005KT 10SM CLR 05/M08 A3026 RMK AO2 SLP254=

0000021000
360
SASA41 KWBC 110800
METAR
SEMT 110800Z NIL=
SEPA NIL=
SKBG NIL=
SKMD NIL=
SKPE NIL=
SKSM NIL=
SKVG NIL=
SMJP 110800Z 06007KT 99999 -SHRA FEW008 SCT030 23/22 Q1012
     NOSIG=

0000025900
361
SASA42 KWBC 110800
METAR
SCAC NIL=
SCHA NIL=
SCSE 110800Z 10002KT 9999 FEW010 15/13 Q1010=
SCTC NIL=
SCTI NIL=
SCVD NIL=
SELT 110800Z 16003KT 3000 BCFG FEW005 BKN020 10/10 Q1027=
SUAG NIL=
SUDU NIL=
SUPU NIL=
SUTB NIL=

0000004200
362
SAVN42 KWBC 110800
NIL=

0000119800
363
SASA32 KWBC 110800
METAR SCAR 110800Z 14003KT CAVOK 22/17 Q1010=
METAR SCAR 110800Z 14003KT CAVOK 22/17 Q1010=
METAR SCBA 110800Z AUTO 29011KT CAVOK 07/03 Q1019=
METAR SCCF 110800Z 09008KT CAVOK 08/05 Q1023=
METAR SCCH NIL=
METAR SCCI 110800Z 30010KT 9999 SCT030 OVC080 09/05 Q1007 NOSIG=
METAR SCDA 110800Z 00000KT CAVOK 21/17 Q1011=
METAR SCEL 110800Z VRB01KT CAVOK 15/06 Q1012 NOSIG=
METAR SCFA 110800Z 20005KT 9999 BKN015 19/16 Q1011 NOSIG=
METAR SCGE NIL=
METAR SCIE 110800Z 20006KT CAVOK 12/10 Q1013=
METAR SCIP 110800Z 10005KT 9999 FEW020 22/18 Q1021 NOSIG=
METAR SCTE 110800Z 19003KT CAVOK 09/07 Q1022 NOSIG=
METAR SGAS 110800Z 00000KT CAVOK 25/23 Q1008=
METAR SGES 110800Z 00000KT CAVOK 24/21 Q1009=
METAR SLCB 110800Z 00000KT 9999 FEW027 13/09 Q1023=
METAR SLCZ NIL=
METAR SLLP 110800Z 10004KT 4000E VCFG FEW002 SCT200 05/04 Q1035=
METAR SLTJ NIL=
METAR SLTR NIL=
METAR SLVR 110800Z 35005KT 9999 NSC 23/22 Q1009=
METAR SUAA NIL=
METAR SUCA NIL=
METAR SULS 110800Z 18016G26KT 9999 SCT013 OVC070 21/19 Q1010=
METAR SUMU 110800Z 18019G29KT 9999 BKN020 21/18 Q1011 NOSIG=
METAR SUPE NIL=
METAR SURV NIL=
METAR SUSO NIL=

0000039600
364
SATH31 VTBB 110800
METAR VTCH 110800Z VRB02KT 9999 FEW028 29/15 Q1014 A2996
INFO:I=
METAR VTCL 110800Z NIL=
METAR VTCN 110800Z VRB03KT CAVOK 31/09 Q1014 A2995=
METAR VTCP 110800Z NIL=
METAR VTCT 110800Z VRB02KT 9999 FEW025 26/16 Q1016 A3000 
RMK/RWY03 INFO I=
METAR VTPH 110800Z NIL=
METAR VTPO 110800Z NIL=
METAR VTPP 110800Z 23008KT 7000 FEW025 30/17 Q1013=

0000008700
365
SABC40 FBSK 110800 RRA
METAR FBMN 110800Z 02005KT CAVOK 29/19 Q1017=

0000024700
366
FTCN37 CWAO 110800 AAA
TAF AMD CYQY 110807Z 1108/1118 24012KT P6SM -SN OVC015
    FM110900 23012KT P6SM SCT008 BKN012 TEMPO 1109/1118 5SM -SN BR
     BKN008 OVC012 PROB30 1109/1114 3SM -FZDZ BR
    RMK NXT FCST BY 111200Z=

0000010600
367
SAAF18 LFPW 110800 RRA
METAR FMEE 110800Z 09023KT 9999 FEW028 SCT260 31/21 Q1014 NOSIG=

0000021900
368
SAAF20 LFPW 110800 RRA
METAR FABL 110800Z 01004KT 280V080 CAVOK 27/11 Q1020 NOSIG=
METAR FAEL 110800Z 19009KT 150V210 CAVOK 22/13 Q1019=
METAR FAGG 110800Z 13007KT 110V180 9999 BKN030 19/13 Q1018=

0000026900
369
SAAF21 LFPW 110800 RRA
METAR FALA 110800Z 01010KT 340V040 CAVOK 25/16 Q1022 NOSIG=
METAR FAMM 110800Z 03005KT CAVOK 32/07 Q1019 NOSIG=
METAR FAPE 110800Z 25013KT 9999 FEW020 22/11 Q1018 NOSIG=
METAR FAUP 110800Z 13004KT CAVOK 26/05 Q1017 NOSIG=

0000031900
370
SAIO31 KWBC 110800 RRA
METAR
FMCZ 110800Z 08004KT 030V200 9999 SCT022 SCT100 BKN300 31/24 Q1013
     NOSIG=
FMEE 110800Z 09023KT 9999 FEW028 SCT260 31/21 Q1014 NOSIG=
FSIA 110800Z 08003KT 9999 FEW009 FEW015CB BKN017 28/25 Q1012 TEMPO
     8000 -SHRA=
VYMD 110800Z NIL=
VYYY 110800Z NIL=

0000006700
371
SANT31 KWBC 110700 RRE
METAR
GVAC 110730Z NIL=

0000106200
372
FALV10 EVRA 110800
EVRR GAMET VALID 110900/111500 EVRA-
EVRR RIGA FIR BLW FL100
SECN I
SIG SFC WSPD:10/15 LCA GUSTS 30KT S
SIG SFC VIS:11/15 LCA 3000M RASN  1 2
SIG CLD:BKN-OVC LYR 700/ABV 10000FT AGL S
11/15 LCA BKN/OVC LYR 700/ABV 10000FT 1 2
11/15 ISOL EMBD CB 1200/ABV 10000FT AGL 1 2
ICE:MOD INC ABV 1500FT AMSL S,
MOD ICE INC ABV 2000FT AMSL 3 AND 09/11 1 2
11/15 MOD ICE INC ABV 1200FT AMSL 1 2
TURB:10/15 MOD SFC/4000FT AGL S AND W OF 1
SIGMET APPLICABLE:NIL
SECN II
PSYS:NO MAJOR WX SYSTEM
SFC WIND:SW-WSW 11-16KT 10/15 GUSTS TO 28KT FOR S AND WEST OF 1
W-SW 07-12KT FOR 2 3 AND EAST OF 1
WIND/T:
1000FT 290/20KT MS01
2000FT 300/25KT MS04
5000FT 310/30KT MS06
10000FT 310/30KT MS16
SFC VIS:8-10KM
CLD:SCT-BKN CU SC 2000/7000FT AGL 3 AND 09/11 1 2
11/15 BKN/OVC LYR 1200/ABV 10000FT AGL 1 2
FZLVL:1500FT AMSL FOR S, 300FT AMSL FOR 1 2 3
MNM QNH:
09/12 999HPA FOR S 1,1000HPA FOR 2 3
12/15 999HPA FOR S 1 2, 1000HPA FOR 3
SEA:T06 HGT 1.0M
OTLK:111500/111800 SAME HAZARDOUS WX=

0000009100
373
SADL35 EDZO 110750 RRA
METAR COR EDTL 110750Z 31002KT CAVOK 03/03 Q1017=

0000080100
374
SAFR37 LFPW 110800
METAR LFAQ 110800Z AUTO 18003KT 1200 R27///// BR FEW003 BKN047
OVC180 04/04 Q1017=
METAR LFAT 110800Z AUTO 23010KT 9000 OVC009 08/06 Q1016=
METAR LFBU 110800Z AUTO 17004KT 1000 R28/2000N BR VV/// 08/07 Q1019=
METAR LFLN 110800Z AUTO 00000KT 4100 BR NSC 03/02 Q1018=
METAR LFPM 110800Z AUTO VRB02KT 3700 BR NSC 05/04 Q1017=
METAR LFPT 110800Z AUTO 29003KT 260V320 0250 R05/1000D FG VV///
05/05 Q1017=
METAR LFRH 110800Z AUTO 06003KT 0100 R25/0500N R07/0400N FG VV///
05/05 Q1019=
METAR LFRQ 110800Z AUTO 01006KT 350V050 9999 OVC006 08/07 Q1019=
METAR LFRT 110800Z AUTO 31007KT 6000 BKN003 OVC009 07/07 Q1019=
METAR LFSD 110800Z AUTO VRB01KT 7000 OVC002 04/03 Q1018=
METAR LFTW 110800Z AUTO 08003KT 9999 FEW018 BKN030 OVC038 10/05
Q1021=

00000000