0000010300
935
SAPA31 KWBC 110700 RRD
METAR
PHJR 110724Z 00000KT 10SM FEW001 19/18 A2995 RMK AO2=

0000026300
936
SANL32 EHDB 110725
METAR EHEH 110725Z AUTO 20006KT 9000 BR OVC007 04/02 Q1014 
GRN 22005KT 8000 OVC007=
METAR EHKD 110725Z AUTO 21020KT 3400 R21/P3000 DZ BKN004 OVC005 07/06
Q1010 
YLO 22018G28KT 6000 -RA -RADZ SCT005 OVC007 TEMPO 4000=

0000012400
937
SADL34 EDZO 110720 RRA
METAR EDNY 110720Z AUTO 09002KT 0600 0500/ R24/1200V1700N FG SCT000
01/00 Q1018=

0000010300
938
SPUS41 KWBC 110729
SPECI
KDAY 110725Z 19011KT 5SM RA BR BKN007 OVC010 10/09 A2965=

0000011300
939
SPUS43 KWBC 110729
SPECI
KCMX 110726Z AUTO 00000KT 3/4SM -SN BR FEW007 OVC012 M03/M04 A2939=

0000010000
940
SADN34 EKCH 110720 CCA
METAR EKGF 110720Z 36015KT 9999 SCT020 SCT028 07/04 Q1005=

0000009600
941
SASG20 GOOY 110730
METAR GOOY 110730Z 02007KT 9999  FEW010 19/14 Q1014 NOSIG=

0000011900
942
SAID31 WIII 110730
METAR WIII 110730Z 33011KT 9999 FEW018CB SCT020 31/24 Q1007 RMK CB TO
S AND SW=

0000009100
943
SAMJ41 LWOH 110730
METAR LWOH 110730Z 34002KT 0200 FG VV001 01/00 Q1024=

0000048000
944
SARH31 LDZM 110730
METAR LDSP 110730Z 33004KT 9999 SCT060 10/08 Q1024 NOSIG =
METAR LDPL 110730Z 00000KT 8000 BKN055 09/09 Q1022 NOSIG =
METAR LDDU 110730Z 09008KT 9999 SCT060 10/06 Q1023 NOSIG =
METAR LDZA 110730Z 00000KT 0100 R05/0400N R23/0800N FG VV002 03/03
Q1021 NOSIG =
METAR LDZD 110730Z 10004KT 9999 FEW023 BKN060 09/09 Q1023 NOSIG =
METAR LDRI 110730Z 14003KT 9999 SCT020 BKN037 10/10 Q1021=
METAR LDOS 110730Z 16003KT CAVOK 04/02 Q1022=

0000084800
945
SATU31 LTAA 110720
METAR LTAC 110720Z 31004KT 270V350 7000 OVC008 M03/M04 Q1024 NOSIG=
METAR LTAF 110720Z 04008KT CAVOK 11/M02 Q1023 NOSIG=
METAR LTAI 110720Z 36006KT 9999 FEW030 BKN200 10/06 Q1024 NOSIG=
METAR LTAJ 110720Z 00000KT CAVOK 07/M02 Q1022 NOSIG=
METAR LTAZ 110720Z NIL=
METAR LTBA 110720Z 25004KT 220V290 8000 NSC 10/07 Q1024 NOSIG=
METAR LTBJ 110720Z 00000KT 4800 HZ FEW030 BKN100 09/03 Q1023 NOSIG=
METAR LTBS 110720Z 04006KT CAVOK 08/05 Q1024 NOSIG=
METAR LTCG 110720Z 24004KT 190V290 9000 FEW035 BKN180 14/M02 Q1022
 NOSIG=
METAR LTCS 110720Z 31006KT 280V340 CAVOK 07/M05 Q1022=
METAR LTFC 110720Z 00000KT 0300 R05/0400U R23/0450U FZFG VV001
 M03/M03 Q1025=
METAR LTFE 110720Z VRB02KT 6000 SCT035 BKN100 11/09 Q1023 NOSIG=
METAR LTFJ 110720Z 23003KT 200V260 7000 NSC 08/02 Q1024 NOSIG=

0000069400
946
SATU32 LTAA 110720
METAR LTAG 110720Z 05005KT CAVOK 12/M01 Q1023 NOSIG=
METAR LTAN 110720Z NIL=
METAR LTAP 110720Z 00000KT 9999 BKN023 M01/M03 Q1025 NOSIG=
METAR LTAT 110720Z VRB02KT CAVOK 00/M05 Q1023 NOSIG=
METAR LTAU 110720Z VRB02KT 1200 R25/1400U R07/1300U BCFG OVC001
 M05/M05 Q1024 BECMG TL0850 4500 BR SCT010 BKN200=
METAR LTBF 110720Z NIL=
METAR LTBU 110720Z 01003KT 1200 R05/1300U R23/1400U BCFG NSC 07/07
 Q1024=
METAR LTCC 110720Z VRB02KT CAVOK 02/M02 Q1021 NOSIG=
METAR LTCE 110720Z VRB01KT 0700 R26L/0900N R08R/0800N R26R/0700U
 R08L/0900N FZFG NSC M22/M24 Q1021 BECMG TL0900 2000 BR=
METAR LTCJ 110720Z VRB01KT 2800 BR NSC M00/M00 Q1022=

0000009500
947
SATU35 LTAA 110720
METAR LCEN 110720Z 29008KT 9999 FEW025 13/07 Q1023 NOSIG=

0000010200
948
SANO33 ENMI 110720 RRA
METAR ENML 110720Z 04005KT 9999 FEW020 BKN035 M04/M07 Q0999=

0000028800
949
FTUS31 KWBC 110730 AAA
TAF AMD
KSEA 110729Z 1107/1212 18010G20KT 6SM -RA BR BKN022 OVC035
     FM110900 20022G32KT 3SM RA BR OVC016
     FM111300 20018G32KT P6SM -RA OVC025
     FM112000 20024G38KT P6SM -SHRA OVC017
     FM120900 20018G28KT P6SM -SHRA OVC022=

0000028800
950
FTUS74 KWBC 110730 AAA
TAF AMD
KSEA 110729Z 1107/1212 18010G20KT 6SM -RA BR BKN022 OVC035
     FM110900 20022G32KT 3SM RA BR OVC016
     FM111300 20018G32KT P6SM -RA OVC025
     FM112000 20024G38KT P6SM -SHRA OVC017
     FM120900 20018G28KT P6SM -SHRA OVC022=

0000010900
951
SARM31 LUKK 110730
METAR LUKK 110730Z 27007KT 9999 FEW049 06/M01 Q1019
R26/CLRD65 NOSIG=

0000009500
952
SACG20 FCBB 110730
METAR FCBB 110730Z 23002KT 8000 FEW010 23/22 Q1015 NOSIG=

0000224300
953
SPUS70 KWBC 110728
SPECI
KDEC 110724Z AUTO 20010KT 3SM BR OVC002 06/06 A2949 RMK AO2=
KEWN 110724Z AUTO 21005KT 10SM FEW009 SCT015 BKN024 19/18 A3008
     RMK AO2=
KGON 110724Z 00000KT 1/2SM R05/1800V2600FT -RA FG VV003 03/03
     A3019 RMK AO2 RAB14 P0000=
KGSP 110724Z AUTO 06004KT 2SM BR OVC004 07/07 A2998 RMK AO2
     TSE0654RAE03 P0001=
KINT 110724Z AUTO 00000KT 1 1/2SM BR OVC002 04/04 A3002 RMK AO2
     RAE03 P0000=
KISW 110724Z AUTO 26006KT 3SM BR OVC003 M01/M01 A2941 RMK AO2
     T10061006=
KLOU 110724Z AUTO 00000KT 2SM RA BR SCT008 BKN046 OVC080 11/10
     A2966 RMK AO2 P0012 TSNO=
KMCB 110724Z AUTO 19010G21KT 9SM OVC004 19/18 A2981 RMK AO2 LTG
     DSNT ALQDS RAE20 TSE18 P0001 T01890183=
KUIN 110724Z AUTO 28013G19KT 1 3/4SM BR OVC002 03/02 A2953 RMK AO2
     T00280017=
PAGK 110724Z AUTO 32004KT 2 1/2SM -SN BR BKN045 OVC075 M12/M14
     A2923 RMK AO2 P0000 T11221144 TSNO=
KAPF 110725Z 12004KT 6SM BR BKN002 BKN009 21/21 A3006 RMK AO2=
KBUY 110725Z AUTO 00000KT 3SM -RA BR OVC003 04/03 A3001 RMK AO2
     P0008 T00440033=
KCMX 110726Z AUTO 00000KT 3/4SM -SN BR FEW007 OVC012 M03/M04 A2939
     RMK AO2 P0001=
KDAY 110725Z 19011KT 5SM RA BR BKN007 OVC010 10/09 A2965 RMK AO2
     P0008=
KDUJ 110725Z AUTO 13011KT 6SM BR SCT004 BKN049 OVC060 05/03 A2982
     RMK AO2=
KENW 110725Z AUTO 22009KT 2SM BR OVC005 04/03 A2944 RMK AO2
     T00390028=
KFLO 110725Z 18005KT 9SM FEW004 BKN022 17/16 A3001 RMK AO2=
KFMY 110725Z AUTO 13003KT 8SM SCT004 21/21 A3006 RMK AO2=
KGNV 110725Z AUTO 14004KT 1/4SM FG VV001 18/17 A3005 RMK AO2
     T01780172=
KGSH 110725Z AUTO 19010KT 1SM BR OVC002 06/04 A2954 RMK AO2=
KHKY 110725Z AUTO 30005KT 1 1/2SM -RA BR BKN004 BKN007 OVC011
     06/05 A3000 RMK AO2 P0006=
KOJC 110725Z AUTO 28006KT 5SM BR OVC004 01/00 A2964 RMK AO2
     RAE25UPB12E14 P0000 T00060000=
KPPF 110725Z AUTO 25004KT 8SM BKN012 OVC038 00/M01 A2973 RMK AO2
     T00001011=
KTCL 110725Z AUTO 18012KT 10SM OVC005 17/16 A2978 RMK AO2=
KUZA 110725Z AUTO 00000KT 3/4SM BR VV002 06/06 A2999 RMK AO2
     RAE0655 P0000 T00610056=
PASO 110725Z AUTO VRB03KT 2 1/2SM -SN BR BKN007 OVC016 M01/M02
     A2933 RMK AO2 P0000 TSNO=

0000011700
954
SPUS31 KWBC 110728
SPECI
KLOU 110724Z AUTO 00000KT 2SM RA BR SCT008 BKN046 OVC080 11/10
A2966=

00000000