0000051800
435
FTCN35 CWAO 110700
TAF CYAM 110738Z 1108/1120 10006KT 1/2SM -SN FZFG VV005 TEMPO
     1108/1109 2SM -SNRA BR OVC006 PROB30 1108/1109 2SM -FZRA -PL BR
    FM110900 14005KT 1/2SM -RA FG VV002 TEMPO 1109/1115 2SM -RA BR
     OVC006
     BECMG 1110/1112 25005KT
    FM111500 30008KT 3SM -SNRA BR OVC006 TEMPO 1115/1117 11/2SM -SN
     BR OVC003
    FM111700 30012G22KT 11/2SM -SN OVC006 TEMPO 1117/1120 3SM -SN
     OVC010
     BECMG 1117/1119 31015G25KT
    RMK NXT FCST BY 111400Z=

0000010100
436
SPSP35 LEMM 110738
SPECI LEBZ 110738Z 00000KT 0400 R31/0700D FG VV001 05/05 Q1017=

0000013500
437
SPSP31 LEMM 110738
SPECI LEVX 110738Z 23003KT 200V270 0800 R20/P2000 R02/1500D FG
VV001 07/06 Q1017 BECMG 3000 BR=

0000034700
438
FTUS31 KWBC 110739 AAA
TAF AMD
KJFK 110738Z 1108/1212 16011KT 3SM -RA BR FEW011 OVC050
      WS020/19055KT
     FM111300 17018KT 5SM -RA BR SCT011 OVC050 WS015/19060KT
     FM111800 18023G32KT 1/2SM +RA FG OVC004 WS015/19060KT
     FM120300 23014G20KT 3SM -SHRA BR SCT015 BKN030
     FM120600 27016G22KT P6SM SCT035=

0000034700
439
FTUS71 KWBC 110739 AAA
TAF AMD
KJFK 110738Z 1108/1212 16011KT 3SM -RA BR FEW011 OVC050
      WS020/19055KT
     FM111300 17018KT 5SM -RA BR SCT011 OVC050 WS015/19060KT
     FM111800 18023G32KT 1/2SM +RA FG OVC004 WS015/19060KT
     FM120300 23014G20KT 3SM -SHRA BR SCT015 BKN030
     FM120600 27016G22KT P6SM SCT035=

0000029300
440
FTUS74 KWBC 110739 AAA
TAF AMD
KLGB 110737Z 1108/1206 VRB03KT 3/4SM BR BKN003
     FM110900 VRB03KT 1/4SM FG VV001
     FM111300 VRB03KT 2SM BR BKN003
     FM111600 VRB04KT 5SM HZ SCT007 SCT250
     FM111900 21005KT P6SM SCT250
     FM120400 VRB03KT P6SM SCT250=

0000029100
441
SAUS71 KWBC 110700 RRG
METAR
KLCK 110735Z AUTO 20006KT 7SM -RA OVC024 10/08 A2970=
KMMU 110735Z AUTO 00000KT 1 1/2SM UP OVC003 02/01 A3012=
KMYR 110735Z AUTO 17008KT 10SM FEW023 BKN031 BKN043 16/16
     A3006=
KPQI 110735Z AUTO 00000KT 10SM BKN020 M12/M14 A3020=

0000021100
442
FTUS54 KWBC 110739 AAA
TAF AMD
KSTS 110736Z 1108/1206 00000KT 3/4SM BR OVC002
     FM111800 19005KT P6SM -RA OVC012
     FM112200 28008KT P6SM BKN050
     FM120400 VRB03KT P6SM SCT050=

0000075300
443
FTUS80 KWBC 110739 AAA
TAF AMD
KJFK 110738Z 1108/1212 16011KT 3SM -RA BR FEW011 OVC050
      WS020/19055KT
     FM111300 17018KT 5SM -RA BR SCT011 OVC050 WS015/19060KT
     FM111800 18023G32KT 1/2SM +RA FG OVC004 WS015/19060KT
     FM120300 23014G20KT 3SM -SHRA BR SCT015 BKN030
     FM120600 27016G22KT P6SM SCT035=
KLGB 110737Z 1108/1206 VRB03KT 3/4SM BR BKN003
     FM110900 VRB03KT 1/4SM FG VV001
     FM111300 VRB03KT 2SM BR BKN003
     FM111600 VRB04KT 5SM HZ SCT007 SCT250
     FM111900 21005KT P6SM SCT250
     FM120400 VRB03KT P6SM SCT250=
KSTS 110736Z 1108/1206 00000KT 3/4SM BR OVC002
     FM111800 19005KT P6SM -RA OVC012
     FM112200 28008KT P6SM BKN050
     FM120400 VRB03KT P6SM SCT050=

0000010400
444
SPUS42 KWBC 110739
SPECI
KCHA 110735Z 17007KT 2SM -RA BR BKN006 OVC012 11/09 A2983=

0000015700
445
SAUS72 KWBC 110700 RRE
METAR
KLRU 110735Z AUTO 29007KT 10SM CLR 03/M08 A3012=
TNCM 110700Z 08008KT 9999 BKN017 24/21 Q1017 A3003 RERA=

0000049500
446
SAUS73 KWBC 110700 RRF
METAR
KBJC 110732Z AUTO 28015G22KT 10SM CLR 03/M10 A2985=
KCIU 110735Z AUTO 13008KT 10SM OVC003 01/00 A2943=
KEGE 110735Z AUTO 26013KT 10SM FEW050 OVC070 M01/M04 A3013=
KELO 110732Z AUTO 27004KT 7SM OVC008 M04/M05 A2937=
KGYY 110735Z AUTO 20009G17KT 4SM RA OVC003 06/05 A2949=
KIKK 110735Z AUTO 18009G14KT 1/2SM -RA OVC002 03/03 A2950=
KJAC 110735Z AUTO 19011KT 10SM OVC031 00/M04 A3001=
KLBL 110735Z AUTO 28012KT 10SM CLR M01/M09 A2990=

0000014500
447
SAUS74 KWBC 110700 RRE
METAR
KIWA 110735Z AUTO 13005KT 10SM CLR 06/00 A3016=
KOTH 110735Z 17005KT 10SM OVC028 13/11 A2992=

0000013500
448
SAAK31 KWBC 110700 RRB
METAR
PAVD 110736Z 10SM OVC100 M07/M09 A2926=
PAWG 110736Z 28005KT 10SM CLR 01/M03 A2912=

0000010900
449
SAAK32 KWBC 110700 RRB
METAR
PADK 110736Z AUTO 23031G46KT 4SM BKN021 OVC028 03/00 A2867=

0000025700
450
SAUS75 KWBC 110700 RRD
METAR
PADK 110736Z AUTO 23031G46KT 4SM BKN021 OVC028 03/00 A2867=
PAGS 110736Z AUTO 00000KT 5SM BKN046 M01/M01 A2923=
PAUN 110736Z AUTO 09013KT 10SM CLR M17/M23 A2954=
PAVD 110736Z 10SM OVC100 M07/M09 A2926=

0000034700
451
FTCN32 CWAO 110700 AAA
TAF AMD CYLL 110739Z 1107/1118 24010KT P6SM SCT020 SCT220 TEMPO
     1107/1110 BKN015
    FM111000 24010KT P6SM FEW150 BKN220
    FM111400 14015KT P6SM -SN BKN100
    FM111600 14015KT 4SM -SN SCT020 OVC060 TEMPO 1116/1118 2SM -SN
     VV012
    RMK FCST BASED ON AUTO OBS. NXT FCST BY 111200Z=

0000025700
452
SAAO32 GOOY 110730
METAR GABS 110730Z 02003KT 6000  NSC 19/10 Q1014 TEMPO 4000 DU=
METAR GAGO 110730Z NIL=
METAR GAKY 110730Z NIL=
METAR GAKL 110730Z NIL=
METAR GAMB 110730Z NIL=
METAR GANR 110730Z NIL=
METAR GATB 110730Z NIL=

0000021600
453
SAAO31 GOOY 110730
METAR FHAW 110730Z NIL=
METAR GGOV 110730Z NIL=
METAR DIAP 110730Z VRB02KT 7000 SCT011  BKN150 25/25 Q1011 TEMPO
BKN011=
METAR DIBK 110730Z NIL=
METAR DIYO 110730Z NIL=

0000011700
454
SPUS44 KWBC 110739
SPECI
KPAE 110735Z AUTO 16015G22KT 2 1/2SM RA BR FEW029 OVC035 09/08
A2957=

00000000