0000008900
895
SASA42 KWBC 110600 RRA
METAR
SCTC 110600Z VRB01KT CAVOK 07/06 Q1018=

0000015600
896
SASA32 KWBC 110600 RRA
METAR
SCFA 110600Z 18008KT 9999 BKN014 20/16 Q1011 NOSIG=
SLLP 110600Z 12004KT 4000E VCFG FEW003 SCT200 06/04=

0000017000
897
SAIN31 EGGY 110600
METAR VOBL 110600Z NIL=
METAR VOCB 110600Z NIL=
METAR VOCI 110600Z 18003KT 5000 HZ NSC 30/20 Q1013 NOSIG=
METAR VOCL 110600Z NIL=
0000013000
898
FCSW31 LSSW 110500 RRA
TAF LSZS 110525Z 1106/1115 VRB03KT 9999 SCT040 TX03/1113Z TEMPO
     1106/1115 BKN040=

0000074100
899
FCEE31 LOWM 110500
TAF UAII 110557Z 1107/1116 16004MPS 7000 NSC
     TEMPO 1112/1116 VRB02MPS 2000 BR FU=
TAF UASP 110600Z 1107/1116 18005MPS 3100 -SN FU BKN011 OVC100
TEMPO 1107/1116 18010MPS 2000 SN BLSN FEW003=
TAF UADD 110545Z 1107/1116 18005G10MPS 9999 BKN100=
TAF UASK 110559Z 1107/1116 14006G11MPS 9999 SCT030 BKN100 TEMPO
1112/1116 3500 SN SCT011=
TAF UACK 110600Z 1107/1116 19008MPS 5000 -SHSN BLSN BKN015CB
TEMPO 1107/1113 19009G14MPS 1000 SHSN BLSN BKN006 BKN010CB
TEMPO 1113/1116 2000 SHSN BLSN BKN005 BKN010CB=
TAF UACP 110559Z 1107/1116 17006MPS 9999 BKN010 BKN020CB TEMPO
1107/1113 3000 -SHSN BKN007=
TAF UAOO 110552Z 1107/1116 20009MPS 3000 BR BKN010 OVC100=
TAF UAKD 110500Z NIL=

0000004100
900
SACZ41 LKPW 110600
NIL

0000013900
901
SAOS33 LOWM 110600
METAR LOAN 110600Z NIL=
METAR LOAV 110600Z NIL=
METAR LOIH 110600Z NIL=
METAR LOWZ 110600Z NIL=

0000077700
902
SAEE31 LOWM 110600
METAR UACK 110600Z 20006MPS 8000 -SHSN BLSN BKN022CB OVC056
M08/M11 Q1019 R20/452042 NOSIG RMK QFE741/0988=
METAR UACP 110600Z 18006MPS 7000 -SN OVC100 M06/M08 Q1018
R23/4/3537 NOSIG RMK QFE751/1002=
METAR UAII 110600Z 16003MPS CAVOK 03/M08 Q1024 R10/0///70
NOSIG RMK QFE732/0977=
METAR UADD 110600Z 19004MPS 9999 NSC 00/M09 Q1022 NOSIG RMK
QFE709/0946=
METAR UASK 110600Z VRB01MPS 9999 SCT073 BKN230 M04/M14 Q1034
R12/820350 NOSIG RMK QFE749/0999=
METAR UASP 110600Z 17005MPS CAVOK M09/M14 Q1029 R21/450155
NOSIG RMK QFE760/1014=
METAR UAOO 110600Z 19005MPS 3300 BR BKN130 M03/M06 Q1021
R24/3///55 NOSIG RMK QFE754/1005=
METAR UAKD 110600Z 12006MPS 70000 OVC100 M08/M12
Q1020 R2289//45 NOSIG RMK QFE732/0976=

0000010700
903
SALC31 TLPL 110600
METAR TLPL 110600Z 08010KT 9999 FEW020 SCT040 24/21 Q1015 TEMPO SHRA=

0000009500
904
SANO35 ENMI 110550 RRA
METAR ENVD 110550Z 20006KT 9999 SCT012 M05/M08 Q1015=

0000029700
905
SAIO31 KWBC 110600 RRB
METAR
WBGG 110600Z 02009KT 350V070 9999 FEW015CB BKN020 BKN150 28/23
     Q1010 NOSIG=
WBKK 110600Z 10003KT 9999 -RA FEW013 FEW017CB SCT035 OVC260 27/22
     Q1010 NOSIG=
WBSB 110600Z 31007KT 9999 FEW016 FEW017CB BKN280 30/25 Q1010
     NOSIG=

0000032900
906
FARH41 LDZM 110600
LDZO GAMET VALID 110700/111300 LDZA-
LDZO ZAGREB FIR BLW FL100
SECN I
SFC VIS:  07/10 1000-5000M BR E
          07/11 0300-5000M FG,BR N
MT OBSC:  ALL MT PASSES C,W
SIG CLD:  LOC OVC 1000/2000FT AMSL W,C
MTW:      MOD C
SIGMET APPLICABLE: CHECK AIRMET AND SIGMET INFORMATION=

0000050900
907
SAID31 WIII 110600
METAR WIII 110600Z 34006KT 9999 FEW018CB SCT020 33/24 Q1008 RMK CB TO
SW=
METAR WIHH 110600Z 05004KT 6000 FEW016CB SCT017 30/23 QNH 1009 NOSIG=
METAR WIMM 110600Z 35009KT 6000 SCT017 29/25 Q1011=
METAR WIDD 110600Z 33007KT 9999 BKN014 30/24 Q1010=
METAR WAAA 110600Z 31006KT 9999 FEW019 31/23 Q1009=
METAR WADD 110600Z VRB04KT 3000 TSRA FEW015CB SCT017 28/25 Q1009=
METAR WARR 110600Z 04007KT 360V080 9999 TS SCT018 FEW020CB 29/24
Q1008=
METAR WABB NIL=

0000044600
908
SXXX32 EUMS 111703
32D8A2BE
:PRS 1 /1 2091 2087 2080 2085 2081 2079 2081 2083 2071 2080 2075 2072 2067 2068 2063 2066 2063 2055 2053 2063 2048 2050 2051 2038 2038 2040 2030 2038 2036 2033 :RAD 1 /3 7660 7659 7655 7649 7646 7633 7627 7618 7607 7608 7595 7593 7589 7585 7585 7579 7578 7573 7566 7553 :ENC 3 /5 5085 5079 5069 5052 5039 5033 5024 5016 5011 5006 4999 4983 :SW1 3 /60 11 :SW2 33 /60 51 :BAT 14 /15 12.4 :NAME 32D8A2BE
0000045000
909
SXXX32 EUMS 111703 RRA
22856700
:PRS 1 /1 2910 2910 2912 2914 2914 2913 2911 2910 2913 2918 2922 2924 2923 2920 2922 2927 2933 2936 2937 2943 2950 2946 2944 2949 2953 2953 2951 2951 2950 2954 :RAD 1 /3 6416 6418 6423 6431 6437 6447 6454 6458 6463 6469 6478 6484 6494 6500 6509 6518 6526 6534 6542 6548 :ENC 3 /5 4605 4608 4616 4634 4644 4650 4660 4674 4684 4703 4716 4730 :SW1 3 /60 42 :SW2 33 /60 60 :BAT 14 /15 12.5 :NAME 22856700
0000016600
910
SATH31 VTBB 110600 RRB
METAR VTCL 110600Z VRB03KT 5000 FEW025 29/19 Q1016 A3001
INFO: G=
METAR VTPH 110600Z 03011KT 8000 NSC 29/20 Q1014 NOSIG=

0000009700
911
SPUS31 KWBC 110609
SPECI
KPHL 110605Z 05004KT 1 1/2SM BR OVC002 03/02 A3013=

0000012900
912
SPUS41 KWBC 110609
SPECI
KEWB 110605Z AUTO 00000KT 1/2SM R05/3000V4500FT -RA FG BKN005
OVC013 04/04 A3024=

0000010600
913
SAUS72 KWBC 110500 CCA
METAR
TNCM 110500Z 08010KT 9999 FEW018 25/21 Q1018 A3007 RERA=

0000038700
914
SAUS73 KWBC 110600 RRD
METAR
KBJC 110612Z AUTO 00000KT 10SM CLR 00/M10 A2985=
KCIU 110615Z AUTO 12009KT 2 1/2SM OVC003 01/01 A2948=
KEGE 110615Z AUTO 24019G23KT 10SM FEW041 OVC060 M01/M05 A3010=
KELO 110613Z AUTO 00000KT 1 3/4SM BR OVC003 M04/M05 A2940=
KJAC 110615Z AUTO 18010KT 10SM OVC039 M01/M04 A2999=
KLBL 110615Z AUTO 29011KT 10SM CLR M01/M09 A2987=

00000000