0000011600
075
SACN62 CYVC 110800
METAR CYVC 110800Z 28009G16KT 10SM -SN OVC015 M10/M12 A2952 RMK SC8
 SLP025=

0000011300
076
SACN62 CYVQ 110800
METAR CYVQ 110800Z 30003KT 20SM -SN SCT080 M28/M31 A2974 RMK AC4
 SLP081=

0000011900
077
SACN62 CYUY 110800
METAR CYUY 110800Z 14008KT 5/8SM -FZDZ -SN VV002 M03/M04 A2967 RMK
 SN8 SLP067=

0000013600
078
SACN62 CYVR 110800
METAR CYVR 110800Z 09015KT 3SM +RA BR SCT008 OVC014 06/06 A2942 RMK
 SF3NS5 /R10/ PRESFR SLP962=

0000010300
079
SPCN47 CWAO 110802
SPECI CYWA 110802Z AUTO 14008KT 2 1/2SM -RA OVC006 M02/M02 A2982=

0000009900
080
SACN44 CWAO 110800
METAR CYSM 110800Z 00000KT 15SM SKC M25/M27 A2959 RMK SLP046=

0000029700
081
SAIE31 EIDB 110800
METAR EIDW 110800Z 26009KT 9999 SCT004 BKN005 01/01 Q1017 BECMG
     SCT010=
METAR EINN 110800Z 12007KT 9999 FEW018 02/01 Q1018 NOSIG=
METAR EICK 110800Z 32005KT 9999 FEW016 03/01 Q1018 NOSIG=
METAR EIKN 110800Z 21004KT 9999 SCT042 00/M01 Q1015 NOSIG=

0000041100
082
SAPL31 EPWA 110800
METAR EPGD 110800Z 26009KT 9999 -SHRA FEW011 FEW013TCU
    BKN015 04/03 Q1009 =
METAR EPKK 110800Z 24007KT 9999 BKN060 04/00 Q1018 =
METAR EPLL 110800Z 26012KT 9999 FEW018 04/01 Q1015 =
METAR EPPO 110800Z 24006KT 9999 BKN023 03/02 Q1014
    R10/19//95 =
METAR EPRZ 110800Z 25011KT CAVOK 04/M01 Q1018 =
METAR EPWA 110800Z 26009KT 9999 FEW023 04/01 Q1014 NOSIG=

0000040900
083
SAPL32 EPWA 110800
METAR EPBY 110800Z 23008KT CAVOK 05/02 Q1012 =
METAR EPKT 110800Z 22008KT 9999 BKN026 03/M00 Q1017 =
METAR EPLB 110800Z 25014KT 9999 BKN048 05/00 Q1013 =
METAR EPMO 110800Z 25012KT 9999 FEW018 04/02 Q1013=
METAR EPSC 110800Z 21006KT 7000 BKN013 04/02 Q1012 =
METAR EPWR 110800Z 23005KT 9999 SCT043 04/M01 Q1017 =
METAR EPZG 110800Z 24008KT CAVOK 04/02 Q1015 =

0000015400
084
SACN61 CYQA 110800
METAR CYQA 110800Z AUTO 13011G20KT 2 1/2SM -RA BR BKN005 BKN014
 OVC034 01/01 A2964 RMK VIS VRB 2-3 PRESFR SLP048=

0000010300
085
SACN61 CYQW 110800
METAR CYQW 110800Z AUTO 32006KT 9SM CLR M10/M11 A2960 RMK SLP061=

0000011700
086
SACN62 CYQI 110800
METAR CYQI 110800Z 23009KT 1 1/2SM -DZ BR OVC006 04/04 A3031 RMK SF8
 SLP264=

0000011200
087
SACN31 CWAO 110800
METAR CYQY 110800Z 25011KT 10SM -SN OVC015 M01/M02 A3024 RMK SC8
SLP244=

0000012500
088
SACN47 CWAO 110800
METAR CYVV 110800Z 16012G18KT 4SM -RA BR BKN008 OVC013 05/04 A2954
RMK SF5NS3 SLP013=

0000010200
089
SACN62 CYRT 110800
METAR CYRT 110800Z VRB02KT 15SM IC SKC M31/M35 A2974 RMK SLP076=

0000013200
090
SACN62 CYQX 110800
METAR CYQX 110800Z 25014G23KT 20SM FEW027 BKN140 OVC260 M06/M09 A3003
 RMK SC1AC6CI1 SLP180=

0000010600
091
SACN43 CWAO 110800
METAR CYQF 110800Z 16006KT 15SM FEW190 M08/M08 A2951 RMK AC1 SLP053=

0000044400
092
FTSR31 WSSS 110500 AAA
TAF AMD WSSS 110800Z 1108/1212 01007KT 9999 FEW018CB SCT020
TEMPO 1108/1110 3000 TSRA SCT015CB BKN018
TEMPO 1206/1209 4000 SHRA=
TAF AMD WSAP 110800Z 1108/1212 01007KT 9999 FEW018CB SCT020
TEMPO 1108/1110 3000 TSRA SCT015CB BKN018
TEMPO 1206/1209 4000 SHRA=
TAF AMD WSSL 110800Z 1108/1212 01007KT 9999 FEW018CB SCT020
TEMPO 1108/1110 3000 TSRA SCT015CB BKN018
TEMPO 1206/1209 4000 SHRA=

0000011000
093
SACN45 CWAO 110800
METAR CYZS 110800Z 31010KT 15SM SKC M31/M35 A2966 RMK WND ESTD
SLP056=

0000011400
094
SAPH41 RPLC 110800
METAR RPLC 110800Z
06007KT 9999 SCT042 BKN300 27/17 Q1015 A2997 RMK NOSIG=

00000000