0000009200
435
SACN51 CWAO 110600
METAR CWLX 110600Z AUTO 36003KT M26/ A2932 RMK SLP955=

0000009500
436
SACN52 CWAO 110600
METAR CWTU 110600Z AUTO 29011G34KT M14/ A2946 RMK SLP039=

0000011800
437
SACN45 CWAO 110600
METAR CYCB 110600Z 20009KT 10SM FEW015 SCT060 M28/M32 A2933 RMK
SC1SC1 SLP940=

0000012900
438
SPUS41 KWBC 110601
SPECI
KEWB 110557Z AUTO 00000KT 1/2SM R05/3000V3500FT -RA FG SCT009
OVC016 04/04 A3024=

0000010400
439
SPUS42 KWBC 110601
SPECI
KLCH 110557Z AUTO 22007KT 3/4SM VCTS BR VV002 17/17 A2985=

0000009500
440
SACN51 CWAO 110600
METAR CWKW 110600Z AUTO 25025G30KT M22/ A2935 RMK SLP002=

0000009200
441
SACN52 CWAO 110600
METAR CWXR 110600Z AUTO 30020KT M31/ A2939 RMK SLP967=

0000011200
442
SACN61 CYGV 110600
METAR CYGV 110600Z AUTO 28010G15KT 9SM BKN085 M08/M11 A3004 RMK
 SLP177=

0000011900
443
SACN61 CYHU 110600
METAR CYHU 110600Z AUTO 03005KT 6SM BR SCT031 OVC055 M06/M08 A3011
 RMK SLP196=

0000008100
444
SACN51 CWAO 110600
METAR CWRX 110600Z AUTO 32012KT M28/ A2939=

0000012200
445
SACN61 CYKL 110600
METAR CYKL 110600Z AUTO /////KT 9SM -SN OVC031 M09/M12 A2968 RMK WND
 MISG SLP093=

0000010600
446
SACN61 CYFC 110600
METAR CYFC 110600Z AUTO 25002KT 9SM FEW095 M14/M15 A3027 RMK SLP252=

0000012900
447
SACN43 CWAO 110600 CCA
METAR CYGX 110600Z CCA 05006KT 1 1/2SM -SN OVC016 M22/M25 A2957 RMK
SC8 /S01/ SLP032=

0000009000
448
SACN44 CWAO 110600
METAR CWRF 110600Z AUTO ///// M34/ A2933 RMK SLP998=

0000012200
449
SASR31 WSSS 110600
METAR WSSS 110600Z 02008KT 330V070 9999 FEW020TCU SCT024 BKN300 31/24
Q1010 NOSIG=

0000009800
450
SABZ19 SBMQ 110600
METAR SBMQ 110600Z 33002KT 9999 FEW013 BKN080 24/23
Q1010=

0000010900
451
SASR31 WSAP 110600
METAR WSAP 110600Z 01010KT 9999 
FEW018 FEW020TCU BKN300 32/24 Q1009=

0000011700
452
SACN61 CYPY 110600
METAR CYPY 110600Z AUTO 32006KT 280V350 9SM OVC029 M18/M20 A2958 RMK
 SLP042=

0000019000
453
SACY31 LCLK 110600
METAR LCLK 110600Z 30004KT 9999 FEW025 10/07 Q1023 NOSIG=
METAR LCPH 110600Z 05004KT 030V090 9999 FEW030 SCT036 11/08 Q1023=
METAR LCNC 110600Z NIL=

0000011500
454
SACN31 CWAO 110600
METAR CYQY 110600Z 25012G18KT 10SM -SN OVC022 M01/M03 A3025 RMK SC8
SLP249=

00000000