0000032500
075
FTUS42 KWBC 110545
TAF
KSSI 110543Z 1106/1206 17005KT 1/2SM FG VV002
      TEMPO 1108/1112 1/4SM FG VV001
     FM111500 20010G18KT P6SM VCSH BKN015 OVC025
     FM111700 22012G20KT 5SM -SHRA OVC015
     FM111900 24012G20KT 4SM SHRA VCTS BKN025CB
     FM120000 24012G18KT 6SM -SHRA SCT025 BKN050=

0000026700
076
FTUS41 KWBC 110545
TAF
KRIC 110542Z 1106/1206 VRB03KT 2SM -DZ BR BKN005
      TEMPO 1106/1110 1SM -RA BR SCT005 BKN020
     FM111100 18010KT 4SM -DZ BR OVC008
     FM111900 19014KT 3SM RA BKN015 BKN040
     FM120000 24012KT 4SM BR BKN050=

0000090100
077
FTUS43 KWBC 110545
TAF
KAZO 110542Z 1106/1206 18010G16KT P6SM -RA OVC004
     FM110700 19013KT 5SM -RA BR OVC004
     FM110800 20011KT 1 1/2SM -RA BR OVC003
     FM111000 20008KT 3/4SM -RA BR OVC004
     FM111200 22007KT 1/2SM -DZ FG OVC004
     FM111600 27012G22KT 4SM -SN BR OVC008
     FM112300 28013KT P6SM OVC025=
KGRR 110542Z 1106/1206 19012G16KT P6SM -RA OVC006
     FM110700 19013KT 5SM -RA BR OVC005
     FM110800 20011KT 1 1/2SM -RA BR OVC003
     FM111000 20008KT 3/4SM -RA BR OVC004
     FM111200 22007KT 1/2SM -DZ FG OVC004
     FM111600 27012G22KT 4SM -SN BR OVC008
     FM112300 28013KT P6SM OVC025=
KPIA 110542Z 1106/1206 20008KT 1/2SM -DZ FG VV002
     FM110900 25009KT 2SM BR OVC003
     FM111400 26012G18KT 6SM BR OVC004
     FM111800 28012G22KT P6SM BKN015
     FM112100 27012KT P6SM SCT250
     FM120000 28008KT P6SM SKC=

0000022800
078
FTUS71 KWBC 110545 RRA
TAF
KSBY 110542Z 1106/1206 16008KT P6SM BKN025 BKN070
      TEMPO 1107/1111 3SM -RA BKN010
     FM111200 18014G20KT 4SM -RA BR OVC010
     FM111900 17022KT 4SM -RA SCT012 BKN040=

0000138800
079
FTUS71 KWBC 110545
TAF
KECG 110542Z 1106/1206 17012KT P6SM SCT040 BKN100
      TEMPO 1106/1110 2SM RA SCT006 BKN015
     FM111100 19015G22KT 4SM -SHRA BR BKN015 BKN040
     FM111700 20015G27KT P6SM SCT025 BKN080
     FM112200 21015G25KT 3SM SHRA BKN015 BKN040
     FM120300 26012KT 5SM BR BKN050=
TAF KLCK 110539Z 1106/1206 16010KT P6SM VCSH OVC025
     FM110800 17012KT 4SM -SHRA BR OVC008
      TEMPO 1108/1110 2SM -TSRA BR BKN008 OVC020CB
     FM111300 20012KT P6SM OVC012
     FM111600 24015G25KT P6SM OVC018
     FM120100 26013KT P6SM OVC009=
KORF 110542Z 1106/1206 17012KT P6SM SCT040 BKN100
      TEMPO 1106/1110 2SM RA SCT006 BKN015
     FM111100 19015G22KT 4SM -SHRA BR BKN015 BKN040
     FM111700 20015G27KT P6SM SCT020 BKN070
     FM112200 21015G25KT 3SM SHRA BKN015 BKN040
     FM120300 26012KT 5SM BR BKN050=
KPHF 110542Z 1106/1206 17012KT P6SM SCT040 BKN100
      TEMPO 1106/1110 2SM RA SCT006 BKN015
     FM111100 18014G22KT 4SM -SHRA BR BKN015 BKN040
     FM111700 19015G27KT P6SM SCT020 BKN070
     FM112100 21015G25KT 3SM SHRA BKN015 BKN040
     FM120200 26012KT 5SM BR BKN050=
KRIC 110542Z 1106/1206 VRB03KT 2SM -DZ BR BKN005
      TEMPO 1106/1110 1SM -RA BR SCT005 BKN020
     FM111100 18010KT 4SM -DZ BR OVC008
     FM111900 19014KT 3SM RA BKN015 BKN040
     FM120000 24012KT 4SM BR BKN050=

0000031900
080
FTUS71 KWBC 110545 CCA
TAF COR
KHKY 110543Z 1106/1206 00000KT 3/4SM -SHRA BR OVC003
     FM111200 18007KT 1/2SM SHRA FG OVC002 WS020/21040KT
     FM111800 22010KT 3SM SHRA OVC007
     FM112100 25009KT P6SM OVC015
     FM112300 27009KT P6SM BKN040
     FM120200 29009KT P6SM SCT040 BKN250=

0000138700
081
FTUS72 KWBC 110545
TAF
KBNA 110543Z 1106/1206 19010G20KT P6SM SCT015 OVC035
     FM110800 19015G25KT 4SM -SHRA BR VCTS OVC008CB
      TEMPO 1108/1112 1SM TSRA OVC005CB
     FM111200 26012G25KT P6SM OVC025
     FM111500 27010G20KT P6SM BKN050
     FM120000 28007KT P6SM SCT150=
KCSV 110543Z 1106/1206 19008G16KT P6SM OVC004
     FM110800 17010G20KT 3SM -SHRA BR OVC002
     FM111000 18012G22KT 2SM SHRA BR OVC002
     FM111500 26010G20KT P6SM OVC015
     FM111800 27010G20KT P6SM BKN050=
KGNV 110543Z 1106/1206 00000KT 1/4SM FG VV002
      TEMPO 1109/1113 1/2SM FG OVC003
     FM111400 20010G18KT P6SM VCSH BKN015 OVC025
     FM111700 24014G23KT 5SM -SHRA OVC015
     FM112000 24016G25KT 4SM SHRA VCTS BKN025CB
     FM120000 25011G16KT 6SM -SHRA SCT025 BKN050=
KJAX 110543Z 1106/1206 16003KT 2SM BR BKN005 OVC010
      TEMPO 1108/1112 1/2SM FG OVC002
     FM111400 20010G18KT P6SM VCSH BKN015 OVC025
     FM111700 24014G23KT 5SM -SHRA OVC015
     FM112000 24016G25KT 4SM SHRA VCTS BKN025CB
     FM120000 25011G16KT 6SM -SHRA SCT025 BKN050=
KSSI 110543Z 1106/1206 17005KT 1/2SM FG VV002
      TEMPO 1108/1112 1/4SM FG VV001
     FM111500 20010G18KT P6SM VCSH BKN015 OVC025
     FM111700 22012G20KT 5SM -SHRA OVC015
     FM111900 24012G20KT 4SM SHRA VCTS BKN025CB
     FM120000 24012G18KT 6SM -SHRA SCT025 BKN050=

0000148000
082
FTUS73 KWBC 110545
TAF
KAZO 110542Z 1106/1206 18010G16KT P6SM -RA OVC004
     FM110700 19013KT 5SM -RA BR OVC004
     FM110800 20011KT 1 1/2SM -RA BR OVC003
     FM111000 20008KT 3/4SM -RA BR OVC004
     FM111200 22007KT 1/2SM -DZ FG OVC004
     FM111600 27012G22KT 4SM -SN BR OVC008
     FM112300 28013KT P6SM OVC025=
KBFF 110544Z 1106/1206 29012KT P6SM BKN100
     FM110800 29014KT P6SM SCT090
     FM111600 29018G30KT P6SM SCT090
     FM112300 27015G25KT P6SM SCT090
     FM120200 21010KT P6SM SCT090=
KBTL 110542Z 1106/1206 17013G22KT P6SM -RA OVC007
     FM110700 19013KT 5SM -RA BR OVC004
     FM110800 20011KT 1 1/2SM -RA BR OVC003
     FM111000 20008KT 3/4SM -RA BR OVC004
     FM111200 22007KT 1/2SM -DZ FG OVC004
     FM111600 27012G22KT 4SM -SN BR OVC008
     FM112300 28013KT P6SM OVC025=
KCMI 110542Z 1106/1206 21007KT 1/4SM -RADZ FG VV002
     FM111300 24012KT 1SM BR OVC003
     FM111600 26012G18KT 6SM BR OVC005
     FM112200 26014G22KT P6SM BKN015
     FM120100 27014KT P6SM SCT250=
KCYS 110544Z 1106/1206 30022G33KT P6SM SCT100
     FM110800 29025G40KT P6SM SCT100
     FM111700 27025G43KT P6SM BKN100
     FM120000 25018G30KT P6SM BKN100=
KDEC 110542Z 1106/1206 20009KT 2SM -RA BR OVC003
     FM110700 21010KT 2SM -DZ BR OVC003
      TEMPO 1107/1111 1/2SM FG OVC002
     FM111400 26012G18KT P6SM OVC005
     FM111900 27013G23KT P6SM BKN015
     FM112200 28012KT P6SM SCT250=

0000138800
083
FTUS73 KWBC 110545 RRA
TAF
KFSD 110542Z 1106/1206 29004KT 6SM BR SKC
      TEMPO 1106/1107 5SM BR
     FM110700 31008KT P6SM SKC
     FM111600 30013G19KT P6SM FEW050
     FM112200 26008KT P6SM FEW050
     FM120200 19012KT P6SM SCT150=
KGRR 110542Z 1106/1206 19012G16KT P6SM -RA OVC006
     FM110700 19013KT 5SM -RA BR OVC005
     FM110800 20011KT 1 1/2SM -RA BR OVC003
     FM111000 20008KT 3/4SM -RA BR OVC004
     FM111200 22007KT 1/2SM -DZ FG OVC004
     FM111600 27012G22KT 4SM -SN BR OVC008
     FM112300 28013KT P6SM OVC025=
KHON 110542Z 1106/1206 29009KT P6SM SKC
     FM112200 24008KT P6SM SKC
     FM120000 18012KT P6SM BKN150=
KJXN 110542Z 1106/1206 17012KT P6SM -RA OVC004
     FM111000 22012KT 1 1/2SM -DZ BR OVC005
     FM111200 22007KT 1/2SM -DZ FG OVC004
     FM111600 27012G22KT 4SM -SN BR OVC008
     FM112300 28013KT P6SM OVC025=
KLAN 110542Z 1106/1206 16012KT P6SM -RA BKN008 OVC012
     FM110700 19013KT 5SM -RA BR OVC005
     FM110800 20011KT 1 1/2SM -RA BR OVC003
     FM111000 20008KT 3/4SM -RA BR OVC004
     FM111200 22007KT 1/2SM -DZ FG OVC004
     FM111800 27012G22KT 4SM -SN BR OVC008
     FM112300 28013KT P6SM OVC025=
KLAR 110544Z 1106/1206 27023G35KT P6SM SCT100
     FM111000 27028G44KT P6SM SCT100
     FM111800 25028G42KT P6SM BKN100
     FM120200 23029G45KT P6SM BKN100=

0000102200
084
FTUS73 KWBC 110545 RRB
TAF
KMKG 110542Z 1106/1206 18012G18KT P6SM -RA OVC007
     FM110800 18011KT 1 1/2SM -RA BR OVC003
     FM111000 20008KT 3/4SM -RA BR OVC004
     FM111200 22007KT 1/2SM -DZ FG OVC004
     FM111600 27009KT 4SM -SN BR OVC008
     FM112300 28013KT P6SM OVC025=
KPIA 110542Z 1106/1206 20008KT 1/2SM -DZ FG VV002
     FM110900 25009KT 2SM BR OVC003
     FM111400 26012G18KT 6SM BR OVC004
     FM111800 28012G22KT P6SM BKN015
     FM112100 27012KT P6SM SCT250
     FM120000 28008KT P6SM SKC=
KSPI 110542Z 1106/1206 19012KT 6SM -DZ BR OVC006
     FM110700 22012KT 3SM -DZ BR OVC005
      TEMPO 1107/1110 3/4SM BR OVC003
     FM111400 26012G18KT P6SM OVC006
     FM111700 27014G22KT P6SM BKN015
     FM112100 27014KT P6SM SCT250=
KSUX 110542Z 1106/1206 29006KT 3SM BR SKC
      TEMPO 1106/1107 1 1/2SM BR
     FM110700 31009KT P6SM SKC
     FM111600 31015G20KT P6SM FEW050
     FM112300 26008KT P6SM FEW050
     FM120300 18011KT P6SM FEW150=

0000023300
085
FTUS74 KWBC 110545
TAF
TAF KRDM 110538Z 1106/1206 19015G25KT P6SM BKN070 BKN100
     FM111500 22022G40KT P6SM VCSH BKN050
     FM111800 23030G45KT P6SM VCSH BKN050
     FM120200 30030G45KT P6SM VCSH BKN050=

0000009700
086
FTUS75 KWBC 110545
TAF
TAF PASC 110539Z 1106/1206 25020KT 1SM -SN BR OVC010=

0000011200
087
SAUS71 KWBC 110500 RRI
METAR
KSWF 110545Z 07005KT 1SM R09/5000FT -RA BR OVC003 00/00 A3017=

0000035400
088
FCFI31 EFHK 110500
TAF EFHA 110540Z NIL=
TAF EFHF 110527Z 1106/1115 34010KT 9999 BKN011 TEMPO 1106/1115
     BKN009 PROB40 TEMPO 1106/1115 BKN015=
TAF EFKA 110540Z NIL=
TAF EFKK 110540Z NIL=
TAF EFMA 110527Z 1106/1115 33003KT 9999 BKN020 TEMPO 1106/1112
     2500 -SN BKN012=
TAF EFPO 110540Z NIL=
TAF EFSI 110540Z NIL=

0000020900
089
FCFI32 EFHK 110500
TAF EFJO 110522Z 1106/1108 02013KT 9999 -SN BKN018=
TAF EFLP 110540Z NIL=
TAF EFMI 110540Z NIL=
TAF EFSA 110540Z NIL=
TAF EFUT 110540Z NIL=
TAF EFVR 110540Z NIL=

0000029400
090
FCFI33 EFHK 110500
TAF EFET 110540Z NIL=
TAF EFIV 110522Z 1106/1112 24005KT 9999 OVC006 TEMPO 1106/1112
     6000 -SG OVC003=
TAF EFKE 110540Z NIL=
TAF EFKI 110522Z 1106/1115 04013KT 9999 -SN BKN020=
TAF EFKS 110540Z NIL=
TAF EFKT 110522Z 1106/1115 36003KT CAVOK=

0000040300
091
SAPO31 LPMG 110530
METAR LPBJ 110530Z NIL=
METAR LPFR 110530Z 03006KT CAVOK 12/08 Q1015=
METAR LPMA 110530Z 34004KT 9999 FEW015 14/10 Q1016 RS33002KT
0534004KT 2335003KT=
METAR LPPR 110530Z VRB01KT 6000 0450N R35/P2000  BCFG FEW003 06/06
Q1016=
METAR LPPS 110530Z 35002KT CAVOK 12/11 Q1016=
METAR LPPT 110530Z 34002KT 0100 R21/0400V0550 PRFG FEW001 BKN002
08/08 Q1016=

0000090000
092
FTFI31 EFHK 110500
TAF EFHK 110527Z 1106/1206 36012KT 9999 BKN011 TEMPO 1106/1206
     BKN009 PROB40 TEMPO 1106/1206 BKN015 PROB40 TEMPO
     1114/1118 4000 -SN=
TAF EFJY 110527Z 1106/1206 02008KT 9999 OVC015 TEMPO 1106/1206
     6000 -SN BKN012=
TAF EFKU 110522Z 1106/1206 36010KT 9999 -SN BKN020=
TAF EFOU 110522Z 1106/1206 04008KT 9999 SCT045 TEMPO 1106/1112
     IC=
TAF EFRO 110522Z 1106/1206 04013KT CAVOK=
TAF EFTP 110527Z 1106/1206 04006KT 9999 BKN009 BECMG 1107/1109
     BKN012 BECMG 1109/1111 BKN015 PROB30 TEMPO 1111/1116
     3000 -SN BKN012=
TAF EFTU 110527Z 1106/1206 VRB03KT 3000 -SN BKN007 BECMG
     1106/1108 9999 BKN012 BECMG 1108/1110 2000 SN
     BKN015 TEMPO 1110/1117 8000 -SN BKN013 BECMG 1117/1120
     9999=
TAF EFVA 110527Z 1106/1206 03009KT 8000 -SN SCT012 BKN020
     TEMPO 1106/1108 5000 BKN012 TEMPO 1108/1118 2000=

0000049300
093
SAID32 WIII 110530
METAR WIPT 110530Z 24004KT 180V300 9999 FEW020 31/23 Q1010= 
METAR WIOO 110530Z 04003KT 9999 BKN011 32/24 Q1009 NOSIG= 
METAR WIPP 110530Z 02004KT 8000 -RA BKN015 FEW020CB 25/24 Q1010= 
METAR WALL 110530Z 17003KT 9000 FEW018CB SCT018 29/25 Q1009 NOSIG RMK
CB TO E= 
METAR WIBB 110530Z 36005KT 9999 SCT015 30/25 Q1009 NOSIG= 
METAR WADL 110530Z 00000KT 6000 TS FEW015CB SCT016 29/25 Q1009= 
METAR WAMM NIL=
METAR WIDN NIL=
METAR WAOO NIL=

0000009900
094
SPCN51 CWAO 110539
SPECI CWCL 110539Z AUTO 15005KT 2 1/2SM OVC002 M03/M07 A2942=

00000000