0000028600
175
SAAE32 VTBB 110600 RRA
METAR VLLB 110600Z 36002KT 9999 FEW019 23/17 Q1014 NOSIG=
METAR VLLN 110600Z 36004KT 8000 SCT020 20/18 Q1018 NOSIG=
METAR VLPS 110600Z 22004KT 9999 FEW020 31/18 Q1015 NOSIG=
METAR VLSK 110600Z 09008KT 9000 SCT020 SCT100 29/18 Q1017 NOSIG=

0000012100
176
SAUK36 EGGY 110550 RRB
METAR EGWU 110550Z AUTO 29012KT 9999 // FEW022/// BKN048/// 08/06
     Q1013=

0000012100
177
SATH32 VTBB 110600 RRB
METAR VTSG 110600Z 07005KT 9999 FEW020 BKN300 30/22 Q1012
A2990 INFO P RWY32=

0000043500
178
FTUS51 KWBC 110615 AAA
TAF AMD
KSLK 110612Z 1106/1206 00000KT 4SM BR BKN020 OVC035
      TEMPO 1106/1108 3/4SM BR SCT015 BKN045
     FM110800 18009KT 4SM BR VCSH BKN015 OVC020 WS020/21045KT
      TEMPO 1108/1110 2SM -FZDZ BR BKN010 OVC015
     FM111000 20012G18KT 3SM -RA BR OVC008 WS020/22050KT
     FM111300 20012G20KT 3SM -RA BR OVC006 WS020/22055KT
     FM111800 21010G18KT 2SM RA BR BKN004 OVC006=

0000026900
179
FTUS53 KWBC 110615 AAA
TAF AMD
KSBN 110612Z 1106/1206 20012G18KT 6SM BR OVC004
      TEMPO 1107/1109 5SM -SHRA
     FM110900 22012KT 4SM -SHRA OVC004
     FM111400 25013G20KT 3SM BR VCSH BKN008 OVC015
     FM120100 27011G17KT 5SM BR OVC015=

0000065500
180
FTUS80 KWBC 110615 AAA
TAF AMD
KSBN 110612Z 1106/1206 20012G18KT 6SM BR OVC004
      TEMPO 1107/1109 5SM -SHRA
     FM110900 22012KT 4SM -SHRA OVC004
     FM111400 25013G20KT 3SM BR VCSH BKN008 OVC015
     FM120100 27011G17KT 5SM BR OVC015=
KSLK 110612Z 1106/1206 00000KT 4SM BR BKN020 OVC035
      TEMPO 1106/1108 3/4SM BR SCT015 BKN045
     FM110800 18009KT 4SM BR VCSH BKN015 OVC020 WS020/21045KT
      TEMPO 1108/1110 2SM -FZDZ BR BKN010 OVC015
     FM111000 20012G18KT 3SM -RA BR OVC008 WS020/22050KT
     FM111300 20012G20KT 3SM -RA BR OVC006 WS020/22055KT
     FM111800 21010G18KT 2SM RA BR BKN004 OVC006=

0000013300
181
SPCN31 CWAO 110612
SPECI CYVR 110612Z 08016G22KT 3SM +RA BR SCT011 OVC016 06/05 A2954
 RMK ST4NS4 PRESFR SLP002=

0000012000
182
SPUS41 KWBC 110615
SPECI
KPVD 110612Z 00000KT 3/4SM R05/1800V3500FT BR BKN003 OVC010 02/02
A3024=

0000012100
183
SPUS42 KWBC 110615
SPECI
KBPT 110612Z AUTO 24013KT 1 3/4SM R12/6000VP6000FT BR OVC002 18/18
A2986=

0000010000
184
SPUS42 KWBC 110615
SPECI
KBTR 110611Z 19017KT 2 1/2SM RA BR OVC011 20/19 A2985=

0000012200
185
SPUS42 KWBC 110615
SPECI
KPNS 110611Z AUTO 19010KT 3/4SM R17/3000VP6000FT -RA BR VV002
19/18 A2996=

0000009600
186
FCNO33 ENMI 110500 RRB
TAF ENML 110500Z 1106/1115 04007KT 9999 SCT020 BKN030=

0000028200
187
FTCN32 CWAO 110600 AAA
TAF AMD CYSF 110615Z 1106/1118 08005KT P6SM -SN SCT020 BKN060 TEMPO
     1106/1114 2SM -SN VV012
    FM111400 VRB03KT P6SM SCT020 SCT150 BKN220 TEMPO 1114/1118 4SM
     -SN BKN020
    RMK FCST BASED ON AUTO OBS. NXT FCST BY 111200Z=

0000082500
188
SAEG32 HECA 110600
METAR HEMM 110600Z 24006KT 9999 SCT020 11/09 Q1025 NOSIG=
METAR HEAX 110600Z 00000KT 9999 SCT020 12/09 Q1025 NOSIG=
METAR HEAL 110600Z NIL=
METAR HELX 110600Z 00000KT CAVOK       09/06 Q1024 NOSIG=
METAR HESN 110600Z 36004KT CAVOK       11/05 Q1024 NOSIG=
METAR HEAR 110600Z NIL=
METAR HEGN 110600Z 29012KT CAVOK       15/09 Q1024 NOSIG=
METAR HEPS 110600Z 36009KT 9999 SCT025 16/14 Q1025 NOSIG=
METAR HETB 110600Z NIL=
METAR HESH 110600Z VRB03KT 9999 FEW020 16/04 Q1023 NOSIG=
METAR HEAT 110600Z 33001KT 8000 NSC    06/04 Q1025 NOSIG=
METAR HEBA 110600Z 24005KT 9999 SCT020 11/10 Q1026 NOSIG=
METAR HEBL 110600Z NIL=
METAR HESC 110600Z 00000KT 9999 SCT020 06/01 Q1025 NOSIG=
METAR HESG 110600Z NIL=
METAR HEMA 110600Z 33005KT CAVOK       15/01 Q1020 NOSIG=

0000014800
189
SAPA31 KWBC 110600 RRC
METAR
AYPY 110600Z 26016KT 9999 FEW018CB BKN020 BKN300 30/24 Q1003 RMKS:
     CB ASSW DIST SH TO NE/E=

0000019000
190
FTUK35 EGGY 110500 AAB
TAF AMD EGAA 110615Z 1106/1206 24005KT 9999 FEW035 PROB30 TEMPO
    1106/1109 6000 SHRA BKN004 BECMG 1118/1121 14012KT TEMPO
    1120/1124 6000=

0000042000
191
SALY31 HLMC 110600
METAR HLLM 110550Z 18008KT 7000 NSC 13/06 Q1023=
METAR HLLT 110550Z 17005KT CAVOK 09/06 Q1023=
METAR HLGD 110600Z NIL=
METAR HLGT 110600Z NIL=
METAR HLJA 110600Z NIL=
METAR HLKF 110600Z NIL=
METAR HLKM 110600Z NIL=
METAR HLLB 110600Z NIL=
METAR HLLS 110600Z NIL=
METAR HLMI 110600Z NIL=
METAR HLNT 110600Z NIL=
METAR HLON 110600Z NIL=
METAR HLTD 110600Z NIL=

0000009600
192
SAAB31 LATI 110620
METAR LATI 110620Z VRB01KT 9999  OVC057 10/08 Q1023 NOSIG=

0000033900
193
SAAF17 LFPW 110600 RRA
METAR HEAX 110600Z 00000KT 9999 SCT020 12/09 Q1025 NOSIG=
METAR HEGN 110600Z 29012KT CAVOK       15/09 Q1024 NOSIG=
METAR HELX 110600Z 00000KT CAVOK       09/06 Q1024 NOSIG=
METAR HEMM 110600Z 24006KT 9999 SCT020 11/09 Q1025 NOSIG=
METAR HESN 110600Z 36004KT CAVOK       11/05 Q1024 NOSIG=

0000009700
194
SPAU32 AMMC 110616
SPECI YSRI 110617Z AUTO 11015KT 9999 // BKN100 32/13 Q1012=

00000000