0000011800
115
SPUS31 KWBC 110808
SPECI
KORF 110804Z AUTO 16011KT 2SM +RA BR SCT007 BKN037 OVC055 17/16
A3004=

0000010300
116
SPUS41 KWBC 110808
SPECI
KAKR 110804Z AUTO 20010KT 10SM BKN021 OVC035 10/07 A2968=

0000010300
117
SPUS42 KWBC 110808
SPECI
KEYW 110804Z AUTO 12008KT 10SM FEW017 FEW022 24/22 A3006=

0000009400
118
SPUS42 KWBC 110808
SPECI
KFPR 110804Z 15003KT 2 1/2SM BR CLR 19/18 A3007=

0000009400
119
SPUS42 KWBC 110808
SPECI
KHOU 110804Z 00000KT 1/2SM FG VV005 17/16 A2986=

0000013100
120
SPUS42 KWBC 110808
SPECI
KHSV 110804Z AUTO 27015G24KT 1 1/2SM R18R/3500VP6000FT -TSRA BR
OVC007 15/14 A2978=

0000015700
121
SPCN31 CWAO 110807
SPECI CYYJ 110807Z 14005KT 140V300 6SM RA BR FEW005 SCT012 BKN023
 OVC052 07/07 A2939 RMK SC2SC2SC3SC1 PRESFR SLP953=

0000010300
122
SPUS42 KWBC 110809
SPECI
KOPF 110805Z AUTO 14006KT 10SM FEW017 SCT030 23/23 A3008=

0000011100
123
SPUS43 KWBC 110809
SPECI
KCMX 110805Z AUTO 00000KT 1SM -SN BR BKN009 OVC015 M03/M04 A2939=

0000009500
124
SABZ43 KWBC 110800 RRA
METAR
SBJP 110800Z 21004KT 9999 FEW020 22/20 Q1012=

0000009500
125
SACA31 KWBC 110800 RRA
METAR
MKJS 110800Z 12007KT 9999 FEW024 25/19 Q1015=

0000013500
126
SABZ42 KWBC 110800 RRA
METAR
SBUG 110800Z 22007KT 1000 +TSRA BR BKN005 BKN012 FEW030CB OVC10 0
     20/19 Q1013=

0000013600
127
SAJP41 KWBC 110800 RRA
METAR
RJAW 110800Z 05014G24KT 9999 FEW030 BKN080 17/08 Q1022 RMK 1CU030
     7AC080 A3019=

0000008900
128
SASA42 KWBC 110800 RRA
METAR
SCTC 110800Z 25003KT CAVOK 07/06 Q1017=

0000010900
129
SAAO31 GOOY 110800 RRA
METAR DIYO 110800Z 28004KT 3000 BR SCT004 BKN008 23/23 Q1013 NOSIG=

0000239100
130
SPUS70 KWBC 110810
SPECI
K1M4 110806Z AUTO 24012G19KT 1 3/4SM +TSRA BR BKN001 BKN008 OVC027
     14/14 A2975 RMK AO2 CIG 001V006 LTG DSNT ALQDS P0010=
KAEX 110806Z 23006KT 10SM BKN021 18/17 A2981 RMK AO2 $=
KAUW 110806Z AUTO 31005KT 2SM -SN BR BKN026 OVC040 M03/M03 A2937
     RMK AO2 P0000 T10281033=
KAZO 110806Z AUTO 18007KT 1SM BR OVC002 04/04 A2950 RMK AO2=
KDDH 110806Z AUTO 00000KT 7SM SCT012 OVC019 03/02 A3005 RMK
     AO2=
KGIF 110806Z AUTO 17004KT 6SM BR BKN005 21/20 A3008 RMK AO2
     T02060200 TSNO=
KIXD 110806Z AUTO 28014KT 4SM BR OVC005 01/00 A2967 RMK AO2 CIG
     004V008 T00110000=
KLSE 110807Z AUTO 00000KT 3SM BR BKN014 BKN050 OVC075 M01/M03
     A2946 RMK AO2 SNB0754SNEMM P0000 T10111028 PWINO FZRANO $=
KMFR 110806Z AUTO 00000KT 3/4SM R14/1800V2000FT BR VV002 04/04
     A3004 RMK AO2 T00440039=
KSBY 110806Z AUTO 17007KT 10SM -RA BKN010 BKN040 OVC095 14/13
     A3005 RMK AO2 P0000=
KTAN 110806Z AUTO 15004KT 1 1/4SM BR BKN043 OVC050 04/02 A3019 RMK
     AO2 T00390017=
KVRB 110806Z 17003KT 3SM BR CLR 19/19 A3008 RMK AO2=
KBKL 110807Z AUTO 17013G18KT 10SM SCT020 OVC120 10/07 A2963 RMK
     AO2 $=
KBOS 110807Z 00000KT 1/4SM R04R/2000V2200FT FG VV003 02/01 A3021
     RMK AO2 TWR VIS 1/2 RAE03 P0000=
KDCU 110807Z AUTO 21014G23KT 2SM +TSRA BR FEW005 OVC034 14/14
     A2974 RMK AO2 LTG DSNT ALQDS P0019=
KGFL 110807Z AUTO 00000KT 2SM -FZRA BR OVC006 M01/M02 A3008 RMK
     AO2 P0001=
KMCB 110807Z AUTO 19011G18KT 5SM -TSRA BR OVC007 19/18 A2980 RMK
     AO2 LTG DSNT ALQDS TSB01 CIG 005V009 P0003 T01940183=
KMPV 110808Z AUTO 20007KT 9SM BKN013 OVC018 M01/M03 A3012 RMK
     AO2=
KSBM 110807Z AUTO 23006KT 4SM BR OVC004 02/02 A2940 RMK AO2
     T00220022=
KSLK 110807Z AUTO 00000KT 1 1/4SM BR BKN002 BKN018 OVC027 M06/M06
     A2990 RMK AO2=
KNFE 110805Z AUTO 16010KT 4SM -RA SCT007 BKN026 OVC038 19/15 A3006
     RMK AO2 P0001 T01890150=
PACV 110807Z 00000KT 10SM R27/6000VP6000FT FEW001 M05/M06 A2922
     RMK AO2 $=
PAIG 110807Z AUTO 00000KT 1 3/4SM BR OVC005 M08/M09 A2938 RMK AO2
     TSNO $=
PAIL 110807Z AUTO 01008KT 6SM BR OVC004 M07/M07 A2937 RMK AO2
     TSNO=
PAMB 110807Z AUTO 04012KT 10SM OVC005 M07/M07 A2932 RMK AO2 TSNO
     CIG 003V009 $=
PASO 110807Z AUTO 00000KT 10SM BKN013 OVC021 M01/M01 A2931 RMK AO2
     SNE0759 P0000 TSNO=

0000022900
131
SAAG41 KWBC 110800
METAR
SAAC NIL=
SAAV NIL=
SAGS NIL=
SANE NIL=
SANT NIL=
SANU NIL=
SAOR NIL=
SARL NIL=
SATM NIL=
SAVC 110800Z 23005KT CAVOK 12/09 Q1017=
SAVT NIL=
SAZB NIL=
SAZN NIL=

0000056500
132
SAAG31 KWBC 110800
METAR
SAAG NIL=
SAAP NIL=
SAAR NIL=
SABE 110800Z 16027G37KT CAVOK 19/08 Q1013=
SACO 110800Z 16007KT 9999 FEW016 BKN100 21/14 Q1017=
SADD NIL=
SAEZ 110800Z 16010KT 120V210 CAVOK 16/08 Q1014=
SAME 110800Z 18009KT CAVOK 23/03 Q1016=
SARC NIL=
SARE NIL=
SARF NIL=
SARI 110800Z 05006KT CAVOK 23/23 Q1012=
SARP 110800Z 09003KT CAVOK 25/21 Q1010=
SASA 110800Z 27004KT CAVOK 23/15 Q1013=
SASJ NIL=
SAWE NIL=
SAWG 110800Z 34007KT CAVOK 09/06 Q1010=
SAZM NIL=
SAZS 110800Z 00000KT CAVOK 08/04 Q1022=

0000008900
133
SABZ42 KWBC 110800 CCA
METAR
SBSP 110800Z 02003KT CAVOK 22/16 Q1017=

0000023200
134
SACA33 KWBC 110800 RRA
METAR
TFFF 110800Z AUTO 01004KT 330V040 9999 SCT048 BKN056 BKN066 23/ 21
     Q1015=
TNCC 110800Z 10012KT 9999 FEW014 26/22 Q1014 NOSIG=
TTPP 110800Z 00000KT 9999 FEW015 22/21 Q1013=

00000000