0000039600
275
SARA33 RUMS 110830
METAR UIAA 110830Z VRB01MPS 9999 SKC M23/M32 Q1030 NOSIG RMK QFE714
29CLRD70=
METAR UIBB 110830Z 14002MPS 6000 -SHSN SCT020CB BKN200 M17/M19 Q1027
NOSIG RMK QFE727/0969 30490434=
METAR UIII 110830Z 00000MPS CAVOK M12/M15 Q1030 NOSIG RMK QFE730/0973
12820350=
METAR UIUU 110830Z 25003MPS 9999 SCT100 M18/M20 Q1032 NOSIG RMK
QFE729/0972 26450545=

0000011400
276
SARA31 RUMS 110830
METAR UEEE 110830Z 00000MPS CAVOK M44/M49 Q1036 NOSIG RMK QFE768
23490145=

0000092800
277
SARA34 RUMS 110830
METAR UNAA 110830Z 21004MPS CAVOK M02/M07 Q1031 NOSIG RMK QFE750
20090040=
METAR UNBB 110830Z 21003MPS 9999 -SN BKN026 OVC100 M06/M09 Q1031
NOSIG RMK QFE751/1001 24452045=
METAR COR UNEE 110830Z 18005MPS 4500 -SHSN OVC011CB M08/M10 Q1030
NOSIG RMK QFE749 23452045=
METAR UNKL 110830Z 24004G07MPS 9999 SCT040CB BKN083 M04/M10 Q1028
NOSIG RMK QFE745 29////55=
METAR UNNT 110830Z 20004MPS 9000 -SN BKN028 OVC083 M07/M09 Q1030
25390140 16390142 NOSIG RMK QFE762/1017=
METAR UNOO 110830Z 18005MPS 4500 BR SCT033CB BKN066 M09/M11 Q1022
25390137 NOSIG RMK QFE758=
METAR UNTT 110830Z 21005MPS 9999 SCT020CB OVC100 M07/M09 Q1028 NOSIG
RMK QFE756 21390130=
METAR USTR 110830Z 18003MPS 9999 OVC020 M06/M08 Q1013 NOSIG RMK
QFE750/1001 21350055 12750029=
METAR USHH 110830Z 03004MPS 6000 -SN BKN005 OVC080 M17/M20 Q1015
TEMPO 0600 +SN OVC002 RMK QBB150 QFE758 06////40=

0000056600
278
SARA32 RUMS 110830
METAR UHBB 110830Z 32002MPS 280V360 CAVOK M26/M32 Q1024 NOSIG RMK
QFE750/1000 36410160=
METAR UHHH 110830Z 24007MPS CAVOK M24/M30 Q1019 NOSIG RMK QFE758/1011
23090060=
METAR UHMA 110830Z NIL=
METAR UHMD 110830Z NIL=
METAR UHMM 110830Z 00000MPS 9999 SKC M25/M31 Q1010 NOSIG RMK QFE743
88820555=
METAR UHPP 110830Z NIL=
METAR UHSS 110830Z 13001MPS 2200 SHSN BKN012CB M18/M20 Q1012 NOSIG
RMK MT OBSC QFE758/1010 01810366=
METAR UHWW 110830Z 00000MPS 9999 SCT050 M09/M22 Q1024 NOSIG RMK
QFE767/1023 25CLRD70=

0000012000
279
SARA35 RUMS 110830
METAR USCM 110830Z VRB02MPS 6000 OVC015 M05/M06 Q1009 NOSIG 19420150
RMK QFE719=

0000112700
280
SARS32 RUMS 110830
METAR URKA 110830Z 27006G09MPS 9999 SCT020 07/02 Q1018 NOSIG RMK
QFE758/1011 SC070=
METAR URKK 110830Z 27009G12MPS 9999 SCT017 07/04 Q1017 NOSIG RMK
QFE759 SC060=
METAR URML 110830Z 18002MPS 130V220 6000 OVC015 06/03 Q1010 NOSIG RMK
QFE757/1010 SC070=
METAR URMM 110830Z 29002MPS 9999 SCT036 BKN120 05/M01 Q1012 30CLRD70
TEMPO 31012G17MPS RMK QFE731/0975=
METAR URMN 110830Z 33006G10MPS 9999 SCT033 OVC100 09/M06 Q1011 TEMPO
32008G13MPS RMK QFE721 SC07=
METAR URMO 110830Z 08002MPS 9999 SCT050 BKN150 01/M00 Q1010 NOSIG RMK
QFE714/0952 SC070=
METAR URMT 110830Z 31013G16MPS 4000 -SHRA SCT007 BKN016 OVC100 05/04
Q1012 NOSIG RMK QFE720 SC0.60=
METAR URRR 110830Z 25009G12MPS 9999 SCT023 BKN100 05/03 Q1010
22290043 TEMPO 26011G16MPS=
METAR URSS 110830Z 12004G08MPS 9000 SCT023 OVC042CB 09/03 Q1019 NOSIG
RMK R06/13006G09MPS MT OBSC QFE762 02190060 06//////=
METAR URWA 110830Z 17009MPS 9999 BKN013 OVC030 06/03 Q1011 NOSIG RMK
QFE760/1014 SC055=
METAR URWI 110830Z NIL=
METAR URWW 110830Z 28012G16MPS 9999 BKN016CB 04/02 Q1003 NOSIG RMK
29290060=

0000067100
281
SARS33 RUMS 110830
METAR ULLI 110830Z 33006MPS 9999 DRSN BKN011 OVC013 M05/M07 Q0995
88510545 NOSIG RMK SEV ICE INC 0330-1000=
METAR UUBW 110830Z 22004MPS 9999 BKN012 03/01 Q0986 NOSIG=
METAR UUDD 110830Z 25004MPS 210V290 8000 -SHRA BKN009CB 03/02 Q0986
32290095 82290095 NOSIG=
METAR UUDL 110830Z 17003MPS 7000 -SNRA BKN004 OVC016 02/01 Q0984
NOSIG RMK QBB140 QFE730 23690532=
METAR UUEE 110830Z 24005MPS 7000 -RA OVC006 02/01 Q0985 75290151
25290151 NOSIG=
METAR UUWW 110830Z 24005MPS 9999 -RA BKN006 OVC016 02/01 Q0986
24290045 NOSIG=
METAR UUMO 110830Z 25004MPS 9999 BKN007 OVC016 02/02 Q0986 NOSIG RMK
QFE725/0966 26250550=

0000059300
282
SARA36 RUMS 110830
METAR UWUU 110830Z 20007G10MPS 150V230 9999 BKN007 OVC014 M02/M03
Q1007 14620342 TEMPO 1000 SN FZRA BKN003 RMK QBB220 QFE745/0993 MOD
ICE INC=
METAR USCC 110830Z 14005MPS 5000 BR FU BKN023 OVC070 M05/M07 Q1011
09490350 TEMPO 1100 BR FU BKN005 RMK QFE737=
METAR USNN 110830Z 06003MPS 1800 SN OVC044 M10/M12 Q1018 NOSIG RMK
QFE760 03491034=
METAR USRR 110830Z 07003MPS 1800 SN OVC032 M17/M19 Q1017 TEMPO 2000
SN BKN007 RMK OBST OBSC QFE758 07////35=
METAR USSS 110830Z 13004MPS 7000 BKN008 OVC033 M04/M07 Q1009 0829//37
NOSIG RMK QFE737=

0000029800
283
SARS31 RUMS 110830
METAR ULWC 110830Z NIL=
METAR UUBP 110830Z NIL=
METAR UUOB 110830Z 27007MPS 9999 -SHRA BKN016CB 03/02 Q1000 29290050
NOSIG=
METAR UUOK 110830Z NIL=
METAR UWGG 110830Z 20003MPS 9000 -SN OVC006 01/01 Q0987 TEMPO 1000
SHSNRA VV004 18691035 RMK QFE733=

0000085900
284
SARS35 RUMS 110830
METAR USPP 110830Z 14004MPS 6000 OVC008 M03/M04 Q1005 21610145 TEMPO
-FZDZ RMK QFE743/0991=
METAR UWKD 110830Z 15011G14MPS 1300 SNRA OVC006 M00/M00 Q0995
R11/7/0240 NOSIG RMK QFE736/0982=
METAR UWKE 110830Z 18009G12MPS 9999 DRSN OVC007 M02/M03 Q1000 NOSIG
RMK  QFE733/0978 21420542=
METAR UWKS 110830Z 16008MPS 1000 R24/1200N SHSN OVC003CB M01/M01
Q0991 TEMPO 0800 +SHSN VV004 RMK QBB150 QFE729 24590532=
METAR UWLW 110830Z NIL=
METAR UWOR 110830Z NIL=
METAR UWOO 110830Z 19004MPS 5000 -SG BR OVC013 M01/M02 Q1011 26830336
TEMPO 1000 BR OVC003 RMK QFE748/0997=
METAR UWSS 110830Z 19006G09MPS 5000 -RASN BR OVC004 01/01 Q0995
12250355 NOSIG RMK  / QFE735=
METAR UWWW 110830Z 17012G15MPS 1400 R23/1400 SNRA OVC006 00/M01 Q0999
23////45 33//99// TEMPO 16016MPS 1200 SNRA OVC004 RMK QFE738/0984=

0000074000
285
SARS36 RUMS 110830
METAR ULAA 110830Z 07007G10MPS 040V110 3600 -SN BLSN OVC008 M16/M19
Q1000 BECMG 2000 SN BLSN OVC005 RMK QFE749/0999 SC050=
METAR ULMM 110830Z 00000MPS 9000 NSC M35/M40 Q1018 NOSIG RMK QFE756
31450239=
METAR ULOO 110830Z 31006MPS P6000 -SHSNRA BKN010CB OVC015 M00/M01
Q0996 NOSIG RMK QFE743=
METAR ULPB 110830Z 35005MPS 3300 -SN BKN010 BKN066 M13/M14 Q0994
NOSIG RMK QBB300 QFE741/0989=
METAR UMKK 110830Z 27007MPS 7000 -SHRA BKN013CB OVC100 05/03 Q1008
R24/29//60 NOSIG RMK QFE755/1006=
METAR UUOO 110830Z 25007G11MPS 9999 -RA OVC009 03/01 Q0994 NOSIG RMK
30290250=
METAR UUYY 110830Z 04004MPS 1900 SHSN BKN009 OVC013CB M10/M11 Q0999
TEMPO 0700 +SHSN 01490535 RMK QFE740/0987=

0000032600
286
FTCN35 CWAO 110800
TAF CYYZ 110838Z 1109/1212 10010KT 1SM -RA BR OVC003 TEMPO 1109/1114
     3SM -RA BR OVC004
    FM111400 20010KT 11/2SM -RA BR OVC003
    FM112200 23015G25KT P6SM -SHRA OVC012
    FM120400 26015G25KT P6SM OVC020
    FM120600 28018G28KT P6SM BKN025
    RMK NXT FCST BY 111200Z=

0000031300
287
FTCN37 CWAO 110800
TAF CYHZ 110838Z 1109/1206 22012KT 1SM -DZ BR OVC002 TEMPO 1109/1113
     4SM BR OVC004
    FM111300 20012KT 3/4SM -DZ BR OVC002
    FM111700 20012G22KT 1SM -RA BR OVC002
     BECMG 1118/1120 20020G30KT
     BECMG 1122/1124 20025G35KT
    RMK NXT FCST BY 111200Z=

0000035200
288
FTCN36 CWAO 110800
TAF CYOW 110838Z 1109/1206 06011KT P6SM OVC020 TEMPO 1109/1110 OVC009
    FM111000 08008KT 3SM -FZRA BR OVC003
    FM111300 10008KT 3/4SM -RA BR OVC002
    FM111800 20012G22KT 2SM -RA BR OVC007
    FM120100 23015G25KT 5SM -SHRA BR OVC020
    FM120500 24015G25KT P6SM BKN025
    RMK NXT FCST BY 111200Z=

0000045400
289
FTCN36 CWAO 110800
TAF CYUL 110838Z 1109/1206 02007KT P6SM FEW020 BKN050 TEMPO 1109/1111
     BKN020 OVC050
    FM111100 10008KT 2SM -FZRA BR BKN003 OVC020 TEMPO 1111/1114 5SM
     -FZDZ BR SCT003 OVC020
    FM111400 12015KT 11/2SM -RA BR OVC005
    FM111600 15018KT 3SM -RA BR SCT009 OVC012
     BECMG 1117/1119 16015KT
    FM120300 20015G25KT P6SM OVC015
     BECMG 1204/1206 23020G35KT
    RMK NXT FCST BY 111200Z=

0000026700
290
FTCN37 CWAO 110800
TAF CWSA 110838Z 1109/1121 23012KT P6SM -RA OVC020 TEMPO 1109/1120
     P6SM NSW OVC030
     BECMG 1113/1115 20015KT
    FM112000 19015G25KT 11/2SM -RA BR BKN003 OVC012
    RMK FCST BASED ON AUTO OBS. NXT FCST BY 111400Z=

0000009700
291
SAKN61 HKJK 110834
METAR HKJK 110830Z 02010KT 340V050 CAVOK 25/12 Q1022 NOSIG=

0000033400
292
FTUS41 KWBC 110839 AAA
TAF AMD
KCAE 110838Z 1109/1206 VRB04KT 1/2SM FG OVC002
      TEMPO 1109/1112 1/4SM -DZ FG VV001
     FM111300 18009G17KT 4SM BR VCSH OVC005
     FM111500 20015G25KT 3SM -SHRA BR BKN005 OVC015
     FM112300 25011G19KT P6SM BKN015 OVC050
     FM120100 26011G17KT P6SM SCT020 BKN120=

0000061600
293
FTUS71 KWBC 110839 AAA
TAF AMD
KAGS 110838Z 1109/1206 VRB04KT 1/2SM FG OVC002
      TEMPO 1109/1112 1/4SM -DZ FG VV001
     FM111200 20008KT 5SM BR VCSH OVC003
     FM111500 22014G25KT 3SM -SHRA BR BKN005 OVC015
     FM112200 25011G22KT P6SM BKN015 OVC050
     FM120000 26011G19KT P6SM SCT020 BKN120=
KCAE 110838Z 1109/1206 VRB04KT 1/2SM FG OVC002
      TEMPO 1109/1112 1/4SM -DZ FG VV001
     FM111300 18009G17KT 4SM BR VCSH OVC005
     FM111500 20015G25KT 3SM -SHRA BR BKN005 OVC015
     FM112300 25011G19KT P6SM BKN015 OVC050
     FM120100 26011G17KT P6SM SCT020 BKN120=

0000023700
294
FTUS73 KWBC 110839 AAA
TAF AMD
KFWA 110837Z 1109/1206 20010KT 3/4SM -SHRA BR OVC004
     FM111100 21012KT 1/2SM FG VCSH OVC003
     FM111500 25014G22KT 3SM BR VCSH OVC008
     FM120100 27011G17KT 5SM BR OVC010=

00000000