0000010000
935
SPUS43 KWBC 110614
SPECI
KSDF 110610Z VRB03KT 3SM RA FEW022 OVC048 11/10 A2969=

0000012300
936
SAAG41 KWBC 110600 RRA
METAR
SARL 110600Z 27009KT 5000 TSRA SCT015 OVC035 FEW045CB 22/21
     Q1009=

0000028900
937
SABZ41 KWBC 110600 RRA
METAR
SBAF 110600Z 09002KT CAVOK 26/22 Q1012=
SBBH 110600Z 10005KT CAVOK 21/17 Q1017=
SBBU 110600Z 34002KT CAVOK 26/20 Q1014=
SBDN 110600Z 07008KT CAVOK 25/18 Q1012=
SBIL 110600Z 09008KT 8000 VCSH SCT015 SCT025 BKN070 26/23
     Q1014=

0000027000
938
SABZ43 KWBC 110600 RRA
METAR
SBAN 110600Z 18006KT 9999 FEW030 FEW040TCU 18/16 Q1018=
SBAT 110600Z 00000KT 8000 -RA BKN010 BKN090 23/22 Q1013=
SBKG 110600Z 10006KT 3000 BR SCT006 BKN010 20/20 Q1014=
SBPJ 110600Z 12003KT 9999 FEW010 22/20 Q1012=

0000033800
939
SABZ42 KWBC 110600 RRA
METAR
SBME 110600Z 03005KT CAVOK 24/23 Q1013=
SBPV 110600Z 06008KT 5000 -RA SCT006 BKN012 FEW025TCU BKN070 23/22
     Q1010 RETS=
SBRB 110600Z 09005KT 9999 FEW020 FEW025TCU SCT100 ///// Q1010
     RETS=
SBSC 110600Z 00000KT CAVOK 25/23 Q1011=
SBUR 110600Z 03004KT CAVOK 20/17 Q1016=

0000008900
940
SASA31 KWBC 110600 RRB
METAR
SKCG 110600Z VRB02KT CAVOK 25/22 A2982=

0000008700
941
SAAL41 DAMM 110600 RRD
METAR DAFH 110600Z 00000KT CAVOK 06/06 Q1021=

0000011700
942
SASA31 KWBC 110600 RRA
METAR SKLT 110600Z 00000KT 9999 BKN009 BKN080 24/24 A2987 RMK AD OPR
IMC=

0000008800
943
SAAL41 DAMM 110500 RRG
METAR DAUI 110500Z 08012KT CAVOK 12/M01 Q1019=

0000010100
944
SAZA31 FAPR 110600 RRA
METAR FAKN 110600Z AUTO /////KT //// // ////// ///// Q////=

0000038800
945
SAAP32 FAPR 110600 RRA
METAR FBSK 110600Z 15007KT 100V180 CAVOK 27/07 Q1017 NOSIG=
METAR FLKK 110600Z 27003KT 9999 BKN009 BKN100 20/19 Q1020=
METAR FVHA 110600Z 08006KT 010V110 9999 SCT010 SCT090 22/19 Q1022
             BECMG BKN015 RMK QFE 854.5=
METAR FWKI 110600Z 32010KT 9999 FEW020 SCT090 23/20 Q1019 NOSIG=
METAR FYWH 110600Z 18007KT CAVOK 22/06 Q1022=

0000043500
946
FTUS71 KWBC 110615 AAA
TAF AMD
KSLK 110612Z 1106/1206 00000KT 4SM BR BKN020 OVC035
      TEMPO 1106/1108 3/4SM BR SCT015 BKN045
     FM110800 18009KT 4SM BR VCSH BKN015 OVC020 WS020/21045KT
      TEMPO 1108/1110 2SM -FZDZ BR BKN010 OVC015
     FM111000 20012G18KT 3SM -RA BR OVC008 WS020/22050KT
     FM111300 20012G20KT 3SM -RA BR OVC006 WS020/22055KT
     FM111800 21010G18KT 2SM RA BR BKN004 OVC006=

0000026900
947
FTUS73 KWBC 110615 AAA
TAF AMD
KSBN 110612Z 1106/1206 20012G18KT 6SM BR OVC004
      TEMPO 1107/1109 5SM -SHRA
     FM110900 22012KT 4SM -SHRA OVC004
     FM111400 25013G20KT 3SM BR VCSH BKN008 OVC015
     FM120100 27011G17KT 5SM BR OVC015=

0000008800
948
SACU31 MUHA 110615 RTD
METAR
MUCL 110605Z AUTO 07004KT 25/22 Q1017=

0000038000
949
FTGO31 FOOL 110600
TAF FOOG 110500Z 1106/1206 18010KT 9999 SCT010 FEW020CB BKN040 PROB30
                 TEMPO 1106/1110 4000 TSRA BKN008 FEW018CB OVC026=
TAF FOOL 110500Z 1106/1212 22008KT 9999 SCT010 FEW020CB BKN033 TEMPO 
                 1106/1110 TS PROB30 TEMPO 1122/1106 3000 TSRA BKN006
                 FEW016CB OVC023=
TAF FOON 110600Z NIL=

0000036000
950
FCBC40 FBSK 110600
FBFT 110900Z 1109/1118 VRB01KT CAVOK BECMG 1112/1114 FEW035CB=
FBMN 110900Z 1109/1118 VRB02KT CAVOK BECMG 1112/1114 FEW035CB=
FBGZ 110900Z 1109/1118 36005KT CAVOK BECMG 1112/1114 FEW035CB=
FBKE 110900Z 1109/1118 06004KT CAVOK BECMG 1112/1114 FEW035CB=
FBSP 110900Z 1109/1118 36004KT CAVOK BECMG 1112/1114 FEW035CB=

0000014900
951
FTUK35 EGGY 110500 AAA
TAF AMD EGPH 110614Z 1106/1206 25008KT 9999 FEW020 SCT030 PROB30
    TEMPO 1106/1108 6000 -SHRASN BKN008=

0000035100
952
SAXX69 EGRR 110600 RRA
METAR KQIR 110558Z 07004KT 9000 -RA BR FEW017 BKN027 OVC041 17/17 A3015
      RMK AO2A CIG 026V041 BKN027 V SCT SLP212 WND DATA ESTMD
      P0007 60031 51027 VISNO RWY16 CHINO RWY16 $=
METAR KQSA 110558Z 15003 9000 HZ CLR 00/M08 A3039 RMK SLP371 WND DATA
      ESTMD ALSTG/SLP ESTMD 11001 21057 51016=

0000045000
953
SAPS31 NFFN 110600
METAR NCRG 110600Z NIL=
METAR NFFN 110600Z 16009KT 9999 FEW030 28/22 Q1004 NOSIG=
METAR NFNA 110600Z 19008KT 9999 BKN022 28/23 Q1005=
METAR NGFU 110600Z NIL=
METAR NGTA 110600Z NIL=
METAR NIUE 110600Z NIL=
METAR NSFA 110600Z NIL=
METAR NSTU 110600Z NIL=
METAR NTAA 110600Z 07003KT 9999 FEW020 26/21 Q1012 NOSIG=
METAR NWWW 110600Z AUTO 14018KT 9999 FEW064 28/15 Q1009=
METAR PLCH 110600Z NIL=

0000023300
954
SAPS32 NFFN 110600
METAR NFTF 110600Z NIL=
METAR NFTL 110600Z NIL=
METAR NFTV 110600Z 31020KT 9999 FEW007 SCT016 BKN100 26/25 Q1006=
METAR NLWW 110600Z NIL=
METAR NVSS 110600Z NIL=
METAR NVVV 110600Z NIL=

00000000