0000023500
535
SAFR21 LFPW 110600
METAR LFOA 110600Z AUTO 19003KT 9999 NSC 07/05 Q1016=
METAR LFPC 110600Z AUTO 00000KT 1700 BR FEW003 OVC044 05/04 Q1016=
METAR LFPV 110600Z AUTO 36001KT 2500 -RA BR FEW002 OVC052 06/05
Q1016=

0000051900
536
SAFR22 LFPW 110600
METAR LFBC 110600Z AUTO 00000KT 6000 OVC019 09/09 Q1017=
METAR LFBG 110600Z AUTO VRB03KT 3900 BR OVC003 08/07 Q1017=
METAR LFBM 110600Z AUTO VRB02KT 7000 OVC026 09/08 Q1018=
METAR LFBY 110600Z AUTO 19002KT 9000 // FEW019/// OVC026/// 10/09
Q1018=
METAR LFKS 110600Z AUTO 28003KT 9999 BKN025 OVC032 12/08 Q1021=
METAR LFMO 110600Z AUTO 34002KT 5000 BR FEW026 OVC038 08/07 Q1020=
METAR LFMY 110600Z AUTO 09003KT 9999 SCT029 OVC036 10/06 Q1020=
METAR LFMC 110600Z NIL=

0000039200
537
SAFR23 LFPW 110600
METAR LFOC 110600Z AUTO VRB02KT 6000 -RA OVC003 06/05 Q1016=
METAR LFOE 110600Z AUTO 00000KT 0200 R22/1100N FG VV/// 05/05 Q1016=
METAR LFOJ 110600Z AUTO VRB01KT 2700 BR OVC002 05/05 Q1016=
METAR LFRJ 110600Z AUTO 36008KT 3700 +DZ BR BKN003 OVC007 08/07
Q1017=
METAR LFRL 110600Z AUTO 29008KT 240V340 6000 // BKN004 BKN008
BKN020 09/08 Q1017=

0000026800
538
SAFR24 LFPW 110600
METAR LFSI 110600Z AUTO VRB01KT 9999 ///TCU 05/03 Q1016=
METAR LFSO 110600Z AUTO 09003KT 6000 ///TCU 03/03 Q1015=
METAR LFSX 110600Z AUTO 07004KT 9999 NSC 04/02 Q1016=
METAR LFYR 110600Z AUTO 00000KT 5000 BR NSC 03/02 Q1016=

0000035200
539
SARO31 LROM 110600
METAR LRBS 110600Z VRB02KT CAVOK M01/M02 Q1022 NOSIG=
METAR LRCK 110600Z 28006KT 1500 BR BKN042 02/01 Q1021 BECMG 3000=
METAR LROP 110600Z 24004KT CAVOK M03/M04 Q1021 8819//95 NOSIG=
METAR LRSB 110600Z VRB02KT 9999 SCT057 M02/M04 Q1022 NOSIG=
METAR LRTR 110600Z 11006KT 4000 BR OVC047 01/00 Q1023 11190095=

0000038600
540
SARO32 LROM 110600
METAR LRAR 110600Z 15002KT 5000 BR BKN045 02/02 Q1023=
METAR LRBM 110600Z 00000KT 5000 BR BKN020 01/01 Q1022 1019//95=
METAR LRCL 110600Z VRB02KT 9999 BKN054 M01/M01 Q1021=
METAR LROD 110600Z 19012KT CAVOK 03/01 Q1022=
METAR LRSM 110600Z 18004KT CAVOK M02/M02 Q1021 0119//95=
METAR LRTM 110600Z VRB02KT 4500 BR NSC M02/M02 Q1022 0719//95=

0000054700
541
SAFR31 LFPW 110600
METAR LFLL 110600Z 18014G25KT 9999 FEW023 BKN200 10/06 Q1017 NOSIG=
METAR LFMN 110600Z 34009KT 9999 BKN040 10/05 Q1021 NOSIG=
METAR LFPG 110600Z 01003KT 4000 -RA BR FEW001 BKN036 BKN066 05/05
Q1016 TEMPO 4000 BR=
METAR LFPO 110600Z 02002KT 4500 BR SCT004 BKN049 06/05 Q1016 NOSIG=
METAR LFQQ 110600Z 21005KT 4000 BR OVC002 04/04 Q1015 TEMPO 1200 DZ=
METAR LFRB 110600Z 35010KT 3000 -RA BKN004 BKN013 08/08 Q1017 NOSIG=
METAR LFRS 110600Z 33002KT 1800 BR FEW002 BKN013 08/07 Q1017 TEMPO
BKN003=

0000033000
542
SARO33 LROM 110600
METAR LRBC 110600Z 27008KT CAVOK M01/M09 Q1020 1619//95=
METAR LRCV 110600Z AUTO 19006KT 9999 NCD 01/M01 Q1022=
METAR LRIA 110600Z 34004KT 300V360 CAVOK 02/M02 Q1019 1519//95=
METAR LRSV 110600Z 26006KT CAVOK 03/M03 Q1017=
METAR LRTC 110600Z 23006KT 4000 BR NSC 00/M01 Q1021 16CLRD//=

0000010600
543
SACN62 CYKY 110600
METAR CYKY 110600Z 29008KT 15SM FEW240 M08/M11 A2964 RMK CI1 SLP080=

0000010600
544
SACN62 CYQR 110600
METAR CYQR 110600Z 28009KT 15SM OVC004 M07/M08 A2959 RMK SF8 SLP059=

0000080400
545
SAFR32 LFPW 110600
METAR LFBD 110600Z AUTO 21002KT 5000 BR OVC016 09/09 Q1017=
METAR LFBH 110600Z AUTO 29006KT 4500 BR FEW005 BKN150 09/08 Q1017=
METAR LFBI 110600Z AUTO 19005KT 3400 BR OVC007 06/06 Q1016=
METAR LFBL 110600Z AUTO 20011KT 8000 OVC007 08/07 Q1017=
METAR LFBO 110600Z AUTO 20004KT 3300 BR BKN010 OVC017 09/08 Q1019=
METAR LFBP 110600Z 13002KT 6000 SCT017 BKN025 09/08 Q1018 NOSIG=
METAR LFBT 110600Z AUTO 16003KT 3900 BR BKN024 BKN140 OVC170 08/06
Q1018=
METAR LFBZ 110600Z 19001KT 9999 BKN023 BKN040 11/09 Q1018 NOSIG=
METAR LFLB 110600Z 28003KT 4000 MIFG FEW001 BKN200 03/02 Q1019
TEMPO 800 BCFG=
METAR LFLX 110600Z 24007KT 9999 FEW018 BKN110 08/06 Q1016 NOSIG=
METAR LFML 110600Z 07006KT 9999 BKN033 12/07 Q1019 NOSIG=
METAR LFCK 110600Z NIL=

0000057500
546
SAFR33 LFPW 110600
METAR LFKB 110600Z 22003KT 9999 BKN033 BKN250 09/06 Q1021 NOSIG=
METAR LFKC 110600Z 19004KT 9999 FEW020 OVC200 07/05 Q1020 NOSIG=
METAR LFKF 110600Z AUTO 06009KT 030V100 9999 BKN024/// BKN032///
12/09 Q1020=
METAR LFKJ 110600Z 05007KT 9999 FEW016 BKN220 05/04 Q1020 NOSIG=
METAR LFLC 110600Z VRB02KT CAVOK 07/02 Q1016 NOSIG=
METAR LFMP 110600Z 26004KT 230V300 9999 SCT030 BKN150 09/07 Q1019
NOSIG=
METAR LFMV 110600Z AUTO 12006KT 9999 OVC038 11/07 Q1020=
METAR LFSL 110600Z AUTO 16004KT 130V190 9999 OVC021 07/05 Q1018=

0000011200
547
SACN62 CYGL 110600
METAR CYGL 110600Z 15006KT 4SM -SN BKN002 M06/M07 A2968 RMK ST5
 SLP067=

0000011100
548
SACN62 CYHZ 110600
METAR CYHZ 110600Z 23009KT 8SM -SN OVC003 00/M00 A3029 RMK ST8
 SLP264=

0000010600
549
SACN62 CYMX 110600
METAR CYMX 110600Z 04006KT 10SM OVC026 M07/M10 A3011 RMK SC8 SLP201=

0000029500
550
FTUS51 KWBC 110648 AAA
TAF AMD
KAND 110645Z 1107/1206 VRB04KT 2SM -SHRA BR OVC004
     FM111100 15006KT 2SM SHRA BR OVC003 WS020/20035KT
     FM111500 20013G21KT 1SM SHRA BR VCTS OVC004CB
     FM111900 24012G18KT P6SM BKN030
     FM112200 25008KT P6SM FEW040 SCT250=

0000029500
551
FTUS80 KWBC 110648 AAA
TAF AMD
KAND 110645Z 1107/1206 VRB04KT 2SM -SHRA BR OVC004
     FM111100 15006KT 2SM SHRA BR OVC003 WS020/20035KT
     FM111500 20013G21KT 1SM SHRA BR VCTS OVC004CB
     FM111900 24012G18KT P6SM BKN030
     FM112200 25008KT P6SM FEW040 SCT250=

0000208200
552
SPUS70 KWBC 110648
SPECI
KBWG 110644Z AUTO 26003KT 3SM RA BR BKN047 OVC065 11/11 A2971 RMK
     AO2 PK WND 31026/0612 WSHFT 0557 LTG DSNT SW RAB07 P0021
     T01110106=
KCSG 110644Z AUTO 09003KT 1/2SM VCTS FG VV002 12/12 A2994 RMK AO2
     LTG DSNT W-NE TSB07RAB0557E40 P0008=
KHKS 110644Z AUTO 20012KT 9SM -RA BKN012 OVC017 19/17 A2974 RMK
     AO2 LTG DSNT S TSE0558RAE14B39 P0001=
KORD 110644Z 21011KT 4SM -DZ BR OVC005 04/03 A2946 RMK AO2
     RAE28DZB41 P0001 T00440028 $=
KSET 110644Z AUTO 22007KT 1 1/4SM BR OVC014 06/05 A2953 RMK AO2
     T00560050 TSNO=
KSTP 110644Z AUTO 27003KT 2 1/2SM BR OVC004 M02/M02 A2948 RMK AO2
     CIG 003V009=
PANW 110641Z AUTO 36003KT 1SM BR OVC001 M09/M09 A2941 RMK AO2 TSNO
     $=
KAND 110645Z AUTO 00000KT 2 1/2SM -RA BR OVC004 08/08 A3000 RMK
     AO2 TSE04RAE13B39 P0001=
KCEC 110645Z AUTO 16016KT 9SM OVC010 11/09 A3012 RMK AO2
     T01110094=
KEQY 110645Z AUTO 34003KT 3/4SM BR VV002 07/06 A3002 RMK AO2
     RAB05E21 P0000=
KGSP 110645Z AUTO 01003KT 1 1/2SM VCTS -RA BR OVC002 08/07 A3000
     RMK AO2 TSB39 P0017=
KGWO 110645Z AUTO 25005KT 2SM +RA BR FEW007 BKN017 OVC038 17/16
     A2970 RMK AO2 P0019 T01670156 TSNO=
KHQM 110645Z AUTO 16029G38KT 1 3/4SM -SN OVC013 A2961 RMK AO2 PK
     WND 17044/0626 P0002 TSNO $=
KHUF 110645Z 18006KT 1/2SM -RA OVC002 06/ A2959 RMK AO2 RAB23
     P0001 $=
KINT 110645Z AUTO 02003KT 3SM -RA BR OVC002 04/03 A3003 RMK AO2
     RAE15B43 P0001=
KMCB 110645Z AUTO 18014G19KT 8SM VCTS -RA OVC004 18/18 A2982 RMK
     AO2 LTG DSNT ALQDS RAE16B33 TSE0554 P0001 T01830178=
KMIW 110645Z AUTO 29009KT 6SM BR BKN006 OVC014 M01/M01 A2950 RMK
     AO2 T10061011 TSNO=
KOVS 110645Z AUTO 21004KT 1SM BR OVC003 01/00 A2945 RMK AO2
     T00060000=
KPHF 110645Z 17003KT 3SM RA BR FEW007 BKN080 OVC095 17/14 A3009
     RMK AO2 P0008 $=
KRST 110645Z AUTO 28006KT 4SM BR BKN006 OVC010 M02/M03 A2946 RMK
     AO2 CIG 003V009 T10171028=
PAMB 110645Z AUTO 06011KT 1 3/4SM BR OVC003 M06/M07 A2934 RMK AO2
     TSNO $=

0000009700
553
SPUS31 KWBC 110648
SPECI
KORD 110644Z 21011KT 4SM -DZ BR OVC005 04/03 A2946=

0000012100
554
SPUS41 KWBC 110648
SPECI
KORH 110644Z AUTO 21006KT 1/2SM R11/2400V2600FT -RA FG VV002 03/03
A3019=

00000000