0000019100
295
SAPS32 NFFN 110800
METAR NFTF 110800Z NIL=
METAR NFTL 110800Z NIL=
METAR NFTV 110800Z NIL=
METAR NLWW 110800Z NIL=
METAR NVSS 110800Z NIL=
METAR NVVV 110800Z NIL=

0000008800
296
SACU31 MUHA 110815 RTD
METAR
MUCL 110805Z AUTO 09007KT 25/23 Q1016=

0000010100
297
SAEA20 HKNC 110700 RRC
METAR HKJK 110700Z 02009KT 350V060 CAVOK 22/12 Q1023 NOSIG=

0000010100
298
SAKN20 HKNC 110700 RRB
METAR HKJK 110700Z 02009KT 350V060 CAVOK 22/12 Q1023 NOSIG=

0000013700
299
SAUS72 KWBC 110800 RRD
METAR
TNCM 110800Z 08013KT 060V120 9999 -SHRA BKN015TCU SCT034 24/20
     Q1017 A3004 RERA=

0000019000
300
FTOS33 LOWM 110500 RRA
TAF LOAV 110800Z 1108/1118 VRB02KT 9999 FEW030 BKN180=
TAF LOAN 110800Z 1108/1118 24004KT 9999 FEW007 SCT050 BKN180
    TEMPO 1111/1116 12007KT=

0000010200
301
SNVF01 KWBC 111600 RRH
BBXX
MINUK03 1116/ 99525 10046 46/// ///// 10070 40172 52032=
0000011900
302
SNVA01 KWBC 111700
BBXX
BATFR08 11174 99425 30525 46/// /2520 10119 20112 40032 53013
 22200 04157=
0000169500
303
SAUS73 KWBC 110800
METAR
KABR 110753Z AUTO 35004KT 10SM CLR M13/M14 A2956=
KALN 110755Z AUTO 25010G16KT 7SM DZ 06/06 A2955=
KALO 110754Z 29005KT 8SM OVC013 M01/M02 A2950=
KAPN 110754Z AUTO 17011KT 10SM FEW007 BKN012 OVC050 03/02
     A2945=
KASE 110753Z 20005KT 2SM -SN BR OVC023 M05/M06 A3014=
KATY 110753Z AUTO 30010KT 10SM CLR M07/M09 A2950=
KAXN 110753Z AUTO 29008KT 10SM CLR M07/M08 A2947=
KAZO 110753Z AUTO 18012KT 2SM BR OVC004 04/03 A2951=
KBDE 110753Z AUTO 31005KT 3SM -SN BR SCT013 BKN026 OVC034 M03/M04
     A2939=
KBFF 110753Z AUTO 29008KT 10SM OVC110 00/M07 A2983=
KBIS 110752Z 32008KT 10SM SCT013 OVC110 M04/M07 A2962=
KBJC 110755Z AUTO 29017G25KT 10SM CLR 03/M09 A2985=
KBKF 110755Z 27013KT 10SM FEW100 SCT220 01/M09 A2987=
KBRL 110753Z AUTO 28008KT 9SM OVC006 09/01 A2952=
KBTL 110753Z 19013KT 4SM BR OVC003 04/04 A2952=
KCGI 110753Z AUTO 22010KT 10SM OVC019 07/07 A2960=
KCID 110752Z AUTO 30012KT 8SM OVC008 00/M01 A2949=
KCIU 110755Z AUTO 13008KT 7SM OVC003 01/00 A2942=
KCMI 110753Z AUTO 18010KT 1/2SM R32R/2000V2200FT FG VV002 04/04
     A2949=
KCMX 110753Z AUTO 00000KT 3/4SM -SN BR BKN009 OVC015 M03/M04
     A2939=
KCOS 110754Z 03010KT 10SM FEW170 M06/M12 A2990=
KCOU 110754Z AUTO 28012KT 3SM -RA BR OVC004 03/02 A2959=
KCPR 110753Z AUTO 23012KT 10SM CLR M05/M11 A2987=
KCYS 110753Z AUTO 31022G30KT 10SM CLR 00/M08 A2984=
KDDC 110752Z AUTO 27013KT 10SM CLR 00/M07 A2984=
KDEC 110754Z AUTO 21010KT 2SM BR OVC002 05/05 A2949=
KDEN 110753Z 16011KT 10SM FEW090 FEW120 M04/M10 A2986=
KDET 110753Z AUTO 19012G18KT 7SM OVC005 07/05 A2958=
KDLH 110755Z 30007KT 3SM -FZDZ BR OVC004 M03/M05 A2939=

0000170300
304
SAUS73 KWBC 110800 RRA
METAR
KDSM 110754Z 30011KT 6SM BR OVC008 01/M02 A2956=
KDTW 110753Z 16008KT 3/4SM -RA BR OVC002 04/04 A2958=
KEAU NIL=
KEGE 110755Z AUTO 28010G19KT 10SM OVC060 M01/M04 A3014=
KELO 110753Z AUTO 28005KT 7SM OVC008 M04/M06 A2937=
KEVV 110754Z AUTO 18009KT 10SM -RA SCT009 BKN013 OVC080 11/09
     A2959=
KFAR 110753Z 31012KT 9SM OVC012 M03/M06 A2950=
KFNT 110753Z AUTO 20009KT 10SM -RA OVC009 06/04 A2954=
KFSD 110756Z AUTO 28006KT 10SM CLR M07/M08 A2954=
KFWA 110754Z 20008KT 1 1/4SM BR OVC006 03/03 A2957=
KGCK 110754Z AUTO 29010KT 10SM CLR M02/M07 A2986=
KGFK NIL=
KGJT 110753Z AUTO 09005KT 10SM OVC065 M04/M07 A3018=
KGRB 110753Z AUTO 20007KT 3SM BR OVC003 01/01 A2940=
KGRI 110753Z AUTO 26009KT 10SM BKN110 M03/M06 A2968=
KGRR 110753Z AUTO 19008KT 1 3/4SM -RA BR OVC004 05/04 A2949=
KGYY 110755Z AUTO 20004KT 3SM -RA OVC003 06/05 A2948=
KHIB NIL=
KHON 110755Z AUTO 29004KT 10SM CLR M09/M11 A2957=
KHUF 110753Z 18010KT 3/4SM -RA OVC002 06/ A2954=
KHUT 110752Z AUTO 30010KT 10SM CLR 01/M01 A2977=
KICT 110753Z 30010KT 10SM SCT250 03/00 A2978=
KIKK 110755Z AUTO 17007KT 1/2SM -RA OVC002 03/03 A2948=
KIND 110754Z 21005KT 1/2SM R05L/2000V3000FT FG OVC004 04/04
     A2956=
KINL 110755Z AUTO 22003KT 1 1/4SM BR OVC003 M03/M04 A2938=
KIRK 110755Z AUTO 28007KT 8SM BKN008 OVC012 01/00 A2957=
KJAC 110755Z AUTO 19009KT 10SM OVC033 00/M04 A3001=
KJLN 110753Z AUTO 24005KT 5SM BR CLR M01/M01 A2972=
KJMS 110756Z AUTO 32018G26KT 10SM OVC008 M03/M04 A2952=
KJXN 110756Z 21012KT 8SM OVC005 05/04 A2954=
KLAN 110753Z 19011KT 5SM -RA BR OVC006 05/04 A2953=
KLAR 110753Z AUTO 28023KT 10SM CLR M04/M09 A2987=

0000168600
305
SAUS73 KWBC 110800 RRB
METAR
KLBF 110753Z AUTO 29003KT 10SM SCT065 BKN095 BKN120 M02/M04
     A2973=
KLBL 110755Z AUTO 28011KT 10SM CLR M01/M09 A2991=
KLEX 110754Z 31009KT 2 1/2SM +RA BR FEW011 SCT020 OVC038 11/10
     A2971=
KLNK 110754Z AUTO 00000KT 9SM CLR M06/M08 A2968=
KLOU 110753Z AUTO 12003KT 3SM +RA BR BKN060 OVC075 11/10 A2964=
KLOZ 110753Z AUTO 17009G17KT 10SM BKN031 BKN120 14/11 A2971=
KLSE 110753Z AUTO 34003KT 3SM BR FEW013 BKN055 OVC075 M02/M03
     A2946=
KMBS 110753Z 20010KT 9SM OVC007 04/04 A2951=
KMCI 110753Z 28009KT 7SM BKN008 OVC014 01/00 A2965=
KMDW 110751Z 22008KT 2SM -DZ BR OVC002 04/04 A2946=
KMHK 110752Z AUTO 27005KT 9SM CLR 01/00 A2972=
KMKC 110754Z AUTO 27007KT 9SM OVC008 02/01 A2965=
KMKE 110752Z 22011KT 4SM BR OVC004 03/02 A2943=
KMKG 110755Z AUTO 19013KT 3SM -RA BR OVC003 04/03 A2947=
KMLI 110752Z AUTO 27008KT 6SM BR OVC004 02/01 A2949=
KMOT NIL=
KMSN 110753Z 00000KT 7SM BKN003 OVC009 02/01 A2941=
KMSP 110753Z 28004KT 3SM BR OVC004 M02/M02 A2948=
KOFF 110758Z 00000KT 6SM BR CLR M09/M09 A2963=
KOMA 110752Z 31008KT 9SM CLR M04/M06 A2964=
KORD 110751Z 22010KT 5SM -DZ BR OVC005 04/02 A2944=
KOSH 110753Z 20007KT 1 1/2SM BR OVC002 02/01 A2940=
KOTM 110753Z AUTO 29008KT 8SM OVC007 01/M01 A2954=
KOWB 110756Z AUTO 18009KT 5SM -RA BR SCT006 BKN048 OVC060 08/08
     A2961=
KPAH 110753Z AUTO 22010KT 10SM OVC008 11/10 A2959=
KPIA 110754Z 26004KT 1/4SM R13/5000FT FG VV003 03/02 A2948=
KPIR 110753Z AUTO 30014KT 10SM CLR M02/M06 A2962=
KPLN 110754Z AUTO 00000KT 5SM BR SCT003 OVC013 01/00 A2942=
KPTK 110753Z AUTO 19008KT 5SM -RA BR OVC002 04/04 A2955=
KPUB NIL=

0000121600
306
SAUS73 KWBC 110800 RRC
METAR
KRAP 110752Z AUTO 32018G23KT 10SM BKN080 03/M04 A2971=
KRFD 110754Z 20007KT 1/8SM R01/1400V1600FT FG VV002 02/02
     A2945=
KRKS 110754Z AUTO 26021G24KT 10SM OVC024 M01/M05 A3005=
KRST 110754Z AUTO 28008KT 4SM BR OVC007 M02/M03 A2946=
KSAW 110757Z AUTO 36003KT 7SM OVC006 M02/M02 A2936=
KSBN 110754Z 20008KT 1 1/4SM -RA BR OVC002 04/04 A2951=
KSDF 110756Z 15003KT 3SM +RA FEW007 BKN070 OVC080 10/10 A2965=
KSDM 110753Z AUTO 00000KT 5SM HZ CLR 11/04 A3010=
KSGF 110752Z 24006KT 9SM OVC032 02/00 A2967=
KSLN 110753Z AUTO 28011KT 10SM CLR 02/M01 A2975=
KSPI 110752Z AUTO 24004KT 1SM BR VV002 05/05 A2950=
KSTC 110753Z AUTO 29007KT 4SM BR OVC008 M03/M04 A2945=
KSTJ 110753Z AUTO 27006KT 8SM OVC021 01/M01 A2966=
KSTL 110751Z 27013KT 9SM BKN011 OVC019 07/05 A2955=
KSTP 110753Z AUTO 29005KT 4SM BR OVC006 M01/M02 A2949=
KSUS 110754Z AUTO 25009KT 10SM BKN024 06/04 A2956=
KSUX 110752Z 00000KT 10SM CLR M07/M08 A2960=
KTVC 110753Z 18005KT 10SM -RA SCT010 OVC014 05/03 A2940=
KUIN 110754Z AUTO 29009KT 7SM OVC005 02/02 A2953=
KWRL 110753Z AUTO 00000KT 10SM FEW110 M09/M12 A2987=
KYIP 110753Z AUTO 20007KT 3SM BR OVC004 06/04 A2957=

0000128000
307
SAAK31 KWBC 110800
METAR
PABR 110753Z 30009KT 10SM OVC008 M24/M27 A2977=
PACD 110753Z AUTO 13024KT 10SM FEW021 BKN028 OVC110 03/01
     A2906=
PAED NIL=
PAEI NIL=
PAEN 110753Z 00000KT 10SM FEW006 OVC013 M04/M04 A2933=
PAFA 110753Z 00000KT 8SM -SN FEW002 SCT090 M32/M35 A2955=
PAFR NIL=
PAFS 110756Z AUTO 00000KT 7SM -SN CLR M24/M28 A2949=
PAFY NIL=
PAJN 110753Z COR 00000KT 4SM R08/1400V3500FT BCFG FEW000 SCT003
     BKN049 00/M01 A2922=
PAJN 110753Z 00000KT 4SM R08/1400V3500FT BCFG FEW000 SCT003 BKN049
     00/M01 A2922=
PAKN 110754Z 32007KT 6SM BR FEW004 SCT025 SCT130 M07/M07 A2933=
PAKT 110753Z AUTO VRB03KT 10SM OVC100 03/M02 A2902=
PANC 110753Z 00000KT 10SM SCT003 BKN013 OVC025 M06/M06 A2932=
PAOM 110753Z 03007KT 10SM FEW032 SCT100 M12/M21 A2960=
PAOR 110753Z 31004KT 4SM -SN OVC032 M17/M19 A2931=
PAOT 110753Z VRB04KT 10SM CLR M20/M26 A2972=
PARY 110756Z AUTO 00000KT 10SM CLR M24/M27 A2954=
PASC 110753Z 24021KT 3/4SM R05/5000VP6000FT -SN BLSN BR FEW008
     BKN014 OVC065 M26/M29 A2978=
PASG NIL=
PASI 110753Z 00000KT 10SM CLR 01/M01 A2916=
PATQ 110756Z AUTO 24007KT 6SM HZ OVC006 M23/M26 A2981=
PAVD 110756Z 10SM OVC100 M07/M08 A2925=
PAWG 110756Z 32005KT 10SM CLR 02/M02 A2910=
PFYU NIL=

0000024800
308
SSVX13 KARS 111716
ZZYY 61659 11014 1700/ 136992 007561 6113/
22219 00138
444 20130 11014 1705/ 50101 80135 80000 9/015=
ZZYY 61659 11014 1600/ 136994 007556 6112/
22219 00141
444 20120 11014 1511/ 50101 80135 80000 9/015=
0000277200
309
SSVX08 KARS 111718
ZZYY 23017 10014 1200/ 304016 067235 6111/
33311 88872 20001 32812 20020 32802 20060 32499 43539 20080 32151
20100 31965 20120 31834 20140 31738 20180 31536 20300 31146
20500 30947
444 20110 10014 1148/ 521//=
ZZYY 23017 11014 16004 304030 067238 6112/
11119 02711 10271 29085
22219 00281
444 20120 11014 1536/ 521// 60401=
ZZYY 14043 10014 1200/ 312203 067249 6111/
33311 88872 20001 32970 43504 20020 32969 20040 32922
20060 32551 43509 20080 32180 20100 31962 20120 31813 20140 31695
20180 31483 20300 31140 20500 30881
444 20110 10014 1144/ 521//=
ZZYY 14043 11014 16004 312208 067249 6112/
11119 01314 10292 29074 40123
22219 00297
444 20120 11014 1533/ 521// 60401=
ZZYY 53005 10014 1200/ 307994 080453 6112/
33311 88872 20001 32922 43401 20020 32914 43409 20040 32846 43404
20060 32696 43404 20080 32486 20120 32049 20140 31916 20180 31626
20500 30920
444 20120 10014 1346/ 521//=
ZZYY 14042 10014 1200/ 312115 054867 6112/
33311 88872 20001 32895 43493 20020 32890 43496 20040 32831 43501
20060 32667 43500 20080 32517 20100 32301 20120 32122 20140 31954
20180 31707 20500 30944
444 20120 10014 1144/ 521//=
ZZYY 14042 11014 16004 312114 054865 6111/
11119 00711 10286 29079 40119
22219 00290
444 20110 11014 1456/ 521// 60401=
ZZYY 23016 10014 1200/ 301618 066811 6112/
33311 88872 20001 32838 20020 32830 43526 20040 32793
20060 32580 43546 20080 32315 20100 32120 20120 31834 20140 31576
20180 31359 20300 31179 20500 30954
444 20120 10014 1148/ 521//=
ZZYY 14040 10014 1200/ 308084 066939 6112/
33311 88872 20001 32964 43475 20020 32889 43501 20040 32489 43508
20060 32002 43511 20080 31796 20100 31609 20120 31503 20140 31414
20180 31285 20300 31081 20500 30904
444 20120 10014 1146/ 521//=
ZZYY 14040 11014 16004 308077 066939 6111/
11119 02607 10281 29078 40125
22219 00296
444 20110 11014 1535/ 521// 60401=
ZZYY 53006 10014 1200/ 311932 080401 6111/
33311 88872 20001 32903 43460 20020 32901 43478 20040 32844 43489
20060 32794 43490 20080 32709 20100 32347 20120 31991 20140 31839
20180 31573 20300 31247 20500 30912
444 20110 10014 1033/ 521//=
ZZYY 23001 10014 1200/ 100066 080606 6111/
33311 88872 20001 32869 43524 20060 32776 43537 20080 32582
20100 32117 20120 31830 20140 31638 20180 31388 20300 31123
20500 31006
444 20110 10014 1035/ 521//=
ZZYY 23001 11014 16004 100078 080603 6112/
11119 01807 10285 29077 40131
22219 00288
444 20120 11014 1538/ 521// 60401=
ZZYY 23010 10014 1200/ 304025 080469 6112/
33311 88872 20001 32895 20020 32896 43440 20040 32840 43499
20060 32447 43536 20080 32201 20100 31989 20120 31800 20140 31604
20300 31126 20500 30929
444 20120 10014 1035/ 521//=
0000012600
310
SNDL22 EDZW 111700 RRB
AAXX 11171
10384 46/// /2205 10060 20024 30035 40095 58016
  333 55300 20000 30000=
0000010400
311
UACN10 CYXL 111718
WG
UA /OV CYXL 360005 /TM 1718 /FLDURC /TP B190 /SK OVC 035 /IC NIL
0000011000
312
UANT01 CWAO 111719
ARP VIR15N 4931N04158W 1719 F340 MS60 284/55 KT
GVGAL DDL XXH 111719 F18A
0000013600
313
SNVD17 CWVR 111700
BBXX
46207 11171 99509 71299 46/// /0406 10057 49822 52021
22200 00078 11006 70031 333 91208 =

0000099500
314
SSWB41 RKSL 111700
ZZYY 21229 11014 17001 13746/ 13111/ 
11109 02906 10062 40253 5//// 
22209 00130 10503 20053 21013= 
ZZYY 22101 11014 17001 13724/ 12602/ 
11109 02705 10035 40287 5//// 
22209 00053 10201 20023 21003= 
ZZYY 22102 11014 17001 13479/ 12578/ 
11109 03304 10052 40297 5//// 
22209 00068 10201 20020 21004= 
ZZYY 22103 11014 17001 13400/ 12750/ 
11109 03306 10043 40291 5//// 
22209 00139 10303 20029 21013= 
ZZYY 22104 11014 17001 13477/ 12890/ 
11109 03405 10050 40278 5//// 
22209 00149 10601 20064 21007= 
ZZYY 22105 11014 17001 13754/ 13000/ 
11109 03009 10041 40257 5//// 
22209 00124 10502 20049 21012= 
ZZYY 22106 11014 17001 13635/ 12978/ 
11109 02911 10033 40265 5//// 
22209 00114 10402 20040 21011= 
ZZYY 22107 11014 17001 13308/ 12603/ 
11109 03404 10082 40295 5//// 
22209 00161 10301 20029 21005= 
ZZYY 22183 11014 17001 13473/ 12624/ 
11109 03304 10040 40299 5//// 
22209 00067 10600 20058 21000= 
00000000