0000136900
535
FTUS80 KWBC 110827 AAA
TAF AMD
KARA 110824Z 1108/1206 20012KT 4SM BR VCTS OVC005CB
      TEMPO 1108/1110 1SM SHRA BR OVC002CB
     FM111000 23010KT 4SM BR OVC003
      TEMPO 1110/1114 1SM BR
     FM111700 33011KT P6SM SKC=
KAVL 110826Z 1108/1206 13005KT 1SM SHRA BR OVC003
     FM111000 17009KT 1SM SHRA BR OVC002
     FM111400 19013G21KT 1SM SHRA BR OVC003
     FM111700 30010KT 2SM SHRA BR OVC004
     FM111900 31012KT 4SM -SHRA OVC035
     FM120000 31014G22KT P6SM SCT040 BKN250=
KCRW 110826Z 1108/1206 17004KT P6SM BKN050 OVC060
     FM111000 17011G17KT 6SM -RA OVC035
     FM111200 17011G17KT 4SM SHRA OVC025
     FM111700 22011G16KT 3SM SHRA OVC008
     FM111900 24011G16KT 5SM SHRA OVC010
     FM112100 24013G17KT 6SM SHRA OVC015=
KGMU 110825Z 1108/1206 VRB04KT 3SM SHRA BR VCTS OVC004CB
     FM111100 18008KT 1SM SHRA BR OVC002 WS020/21035KT
     FM111500 20012G18KT 2SM SHRA BR VCTS OVC004CB
     FM111900 22013G22KT 4SM -SHRA OVC020
     FM112000 24010G17KT P6SM BKN040
     FM112300 26010KT P6SM SCT050=
KGSP 110825Z 1108/1206 05005KT 2SM -SHRA BR VCTS OVC003CB
     FM111100 18007KT 1SM SHRA BR OVC003 WS020/21035KT
     FM111500 20012G19KT 2SM SHRA BR VCTS OVC004CB
     FM111900 22013G22KT 4SM -SHRA BR OVC020
     FM112100 24010KT P6SM BKN040
     FM112300 26010KT P6SM SCT050=

0000027000
536
FTUS80 KWBC 110827
TAF
TAF AMD KLCK 110820Z 1108/1206 16008KT P6SM -SHRA SCT020 OVC035
      TEMPO 1108/1111 2SM -SHRA BR BKN008 OVC020
     FM111300 20012KT P6SM OVC012
     FM111600 24015G25KT P6SM OVC018
     FM120100 26013KT P6SM OVC009=

0000025300
537
FTUS80 KWBC 110827 CCA
TAF COR
KLFT 110825Z 1108/1206 22012G20KT P6SM VCTS OVC006CB
      TEMPO 1108/1110 4SM -SHRA BR OVC003CB
     FM111000 23010KT 4SM BR OVC003
      TEMPO 1110/1114 1SM BR
     FM111700 33011KT P6SM SKC=

0000059500
538
FTUS80 KWBC 110827 AAB
TAF AMD
KIND 110824Z 1108/1212 21007KT 1SM -SHRA BR OVC004
      TEMPO 1108/1111 1/4SM FG VV003
     FM111100 21012KT 1SM BR OVC005
     FM111400 25014G22KT 5SM -DZ BR BKN006 OVC015
     FM111800 25014G24KT P6SM BKN015
     FM120000 27013KT P6SM BKN025
     FM120600 27011KT P6SM SCT050 BKN200=
KLAF 110826Z 1108/1206 22006KT 3SM -SHRA BR OVC003
      TEMPO 1109/1111 1SM BR
     FM111500 27012KT 4SM BR OVC010
     FM111800 27013G23KT P6SM OVC015
     FM120000 28010KT P6SM BKN025 AMD LTD TO CLD VIS AND WIND TIL
      111400=

0000010000
539
SPUS31 KWBC 110827
SPECI
KJAX 110823Z 18006KT 1SM BR SCT000 OVC003 19/19 A3004=

0000011900
540
SPUS41 KWBC 110827
SPECI
KCEF 110824Z AUTO 31003KT 1 1/2SM R23/5000FT -DZ BR OVC002 00/00
A3013=

0000009200
541
SPUS42 KWBC 110827
SPECI
KHRL 110823Z 21012KT 1SM BR VV002 18/18 A2990=

0000009500
542
SPUS42 KWBC 110827
SPECI
KHOU 110823Z 22004KT 3/4SM BR OVC005 16/16 A2986=

0000009600
543
SPUS41 KWBC 110827
SPECI
KWRI 110825Z AUTO 14008KT 10SM OVC029 09/09 A3003=

0000010000
544
SPIY40 LIIB 110824
SPECI LIPY 110824Z 17004KT 0100 R22/0300 FG VV/// 09/09 Q1023=

0000010000
545
SAGR32 LGAT 110820 RRA
METAR LGIO 110820Z VRB01KT 9999 SCT035 BKN080 09/06 Q1024=

0000038000
546
SANT31 KWBC 110800 RRB
METAR
BGBW 110825Z NIL=
BGCO 110825Z NIL=
BGGH 110820Z AUTO 08012KT 9999NDV ///200/// M08/M16 Q0993 RMK
     ///=
BGJN 110820Z AUTO 11005KT 9999NDV FEW110/// SCT140/// M11/M18
     Q0994=
BGKK 110820Z AUTO 09008KT 9999NDV FEW066/// M04/M09 Q0996=
BGSF 110820Z AUTO 05006KT 9999NDV FEW100/// BKN170/// M18/M22
     Q0996=

0000026600
547
SANL32 EHDB 110825
METAR EHEH 110825Z AUTO 22011KT 6000 BR OVC005 04/03 Q1014 
YLO 22005KT 8000 OVC007=
METAR EHKD 110825Z AUTO 21020KT 3600 R21/P3000 -UP OVC005 07/06 Q1010
YLO 22018G28KT 5000 -RADZ SCT005 OVC007 BECMG FEW005 SCT008 OVC012=

0000034400
548
FCTS40 DTTA 110900
TAF DTTB 110900Z 1110/1119 VRB03KT 9999 FEW020=
TAF DTKA 110900Z 1110/1119 VRB05KT 9999 FEW020=
TAF DTTX 110900Z 1110/1119 22005KT CAVOK TEMPO 1011/1016 26015G25KT=
TAF DTTF 110900Z 1110/1119 22009KT 9999 FEW030=
TAF DTTG 110900Z 1110/1119 25007KT CAVOK=
TAF DTTR 110900Z 1110/1119 19006KT CAVOK=

0000018000
549
FCSP31 LEMM 110800
TAF LEBA 110800Z 1109/1118 VRB02KT CAVOK=
TAF LEBG 110800Z 1109/1118 09003KT 0900 FG NSC TEMPO 1109/1111
4000 BR BECMG 1111/1113 9999 NSW=

0000043200
550
FCSP32 LEMM 110800
TAF LEAB 110800Z 1109/1118 VRB03KT 0500 FG BKN003 PROB40
TEMPO 1109/1110 0100 FG OVC001 BECMG 1111/1112 CAVOK=
TAF LELN 110800Z 1109/1118 36004KT CAVOK PROB30 TEMPO 1109/1112
4000 BR BKN004=
TAF LESA 110800Z 1109/1118 VRB02KT CAVOK PROB30 TEMPO 1109/1111
4000 BR NSC PROB30 TEMPO 1109/1110 1000 BCFG NSC=
TAF LEVS 110800Z 1109/1118 VRB03KT 7000 NSC PROB30 TEMPO
1109/1111 3000 BR=

0000049000
551
FTSP37 LEMM 110800
TAF LEDA 110800Z 1109/1209 VRB03KT 3000 BR FEW008 TX08/1115Z
TN02/1207Z BECMG 1109/1112 8000 NSW TEMPO 1202/1209 0500
FG VV002 BECMG 1109/1112 7000 NSW=
TAF LEHC 110800Z 1109/1209 VRB04KT 9999 FEW010 TX13/1113Z
TN03/1206Z TEMPO 1109/1111 4000 BR PROB30 TEMPO 1109/1110
0800 FG VV003 TEMPO 1118/1209 3000 BR NSC=
TAF LELL 110800Z 1109/1209 VRB03KT 8000 BKN016 TX15/1114Z
TN04/1206Z TEMPO 1109/1111 3000 BR BKN006 BECMG 1110/1112
19008KT=

0000035600
552
FTCR32 LEMM 110800
TAF GCFV 110800Z 1109/1209 VRB04KT 9999 FEW020 TX21/1112Z
TN13/1207Z=
TAF GCGM 110800Z 1109/1209 VRB04KT 9999 FEW020 TX20/1114Z
TN15/1207Z=
TAF GCHI 110800Z 1109/1209 15007KT 9999 FEW020 TX21/1114Z
TN17/1207Z=
TAF GCLA 110800Z 1109/1209 31006KT 9999 FEW025 TX22/1113Z
TN16/1207Z PROB40 1111/1117 18010KT=

0000017200
553
FTSP38 LEMM 110800
TAF GEML 110800Z 1109/1209 VRB03KT 9999 SCT020 TX17/1115Z
TN12/1206Z PROB30 TEMPO 1109/1118 5000 RA BKN020 TEMPO 1109/1112
BKN010=

0000047000
554
SAGR32 LGAT 110820
METAR LGAL 110820Z VRB03KT CAVOK 07/05 Q1025=
METAR LGEL 110820Z 00000KT CAVOK 15/09 Q1023=
METAR LGIO 110820Z NIL=
METAR LGKV 110820Z 00000KT 9999 FEW025 08/07 Q1024=
METAR LGMT 110820Z 00000KT 9999 SCT030 14/10 Q1023=
METAR LGPZ 110820Z 06006KT 9999 FEW020 BKN080 13/10 Q1025 NOSIG=
METAR LGRX 110820Z 00000KT 9999 SCT060 14/10 Q1024 NOSIG=
METAR LGSK 110820Z NIL=
METAR LGSR 110820Z NIL=
METAR LGZA 110820Z NIL=

00000000