0000054500
635
FTCA31 KWBC 110536
TAF
TAF COR MUCM 110500Z 1106/1206 08005KT 9000 SCT020
      BECMG 1113/1115 09015KT
      BECMG 1203/1205 08005KT=
TAF COR MUCU 110500Z 1106/1206 36005KT 9000 SCT020
      BECMG 1115/1117 15012KT
      BECMG 1201/1203 36006KT=
TAF COR MUHA 110500Z 1106/1206 VRB02KT 9000 FEW020
      TEMPO 1108/1112 2000 BR
      BECMG 1113/1115 15012KT
      BECMG 1203/1205 VRB02KT=
TAF COR MUVR 110500Z 1106/1206 08003KT 9000 FEW020
      BECMG 1113/1115 07013KT
      BECMG 1203/1205 08003KT=

0000019100
636
FTCA31 KWBC 110536 CCA
TAF COR
MUHA 110500Z 1106/1206 VRB02KT 9000 FEW020
      TEMPO 1108/1112 2000 BR
      BECMG 1113/1115 15012KT
      BECMG 1203/1205 VRB02KT=

0000185300
637
SPUS70 KWBC 110536
SPECI
KVLD 110532Z AUTO 17008KT 1 1/4SM BR OVC002 21/18 A3005 RMK
     AO2=
KBED 110532Z 00000KT 1/4SM R11/2000V2600FT FG VV004 01/01 A3024
     RMK AO2=
KCDW 110532Z 00000KT 1SM -RA BR OVC002 01/M01 A3020 RMK AO2
     P0001=
KEAU 110532Z AUTO 30003KT 2 1/2SM -SN BR OVC035 M03/M03 A2946 RMK
     AO2 P0000 T10281033=
KGRD 110532Z AUTO 07003KT 1 1/4SM BR OVC002 08/07 A3005 RMK AO2
     RAB02E13 P0000=
KLBT 110532Z AUTO 18005KT 10SM OVC006 18/18 A3007 RMK AO2
     T01830178=
KMIE 110532Z AUTO 18014KT 6SM -RA BR FEW007 SCT025 OVC060 07/06
     A2964 RMK AO2 P0002 T00720061 TSNO=
KMTO 110533Z AUTO 20011G16KT 1/4SM HZ VV002 05/M01 A2958 RMK AO2
     T00501006 TSNO $=
KPNS 110532Z AUTO 18009KT 1SM R17/4500VP6000FT BR OVC002 19/18
     A2996 RMK AO2 T01940183=
KNFE 110529Z AUTO 15008KT 10SM FEW017 BKN050 OVC110 17/14 A3012
     RMK AO2 RAE22 P0000 T01670139=
PABA 110530Z AUTO 28026G33KT 1/4SM +SN FZFG FEW004 OVC008 M24/M27
     A2978 RMK AO2 PK WND 28033/0527 CIG 006V010 P0000 FZRANO=
PAIG 110532Z AUTO 02005KT 2SM BR OVC003 M06/M07 A2941 RMK AO2 TSNO
     SNB07E21 P0000 $=
KAVL 110533Z AUTO 12003KT 9SM R34/5000VP6000FT -RA BKN003 BKN016
     OVC035 07/07 A3002 RMK AO2 P0006=
KGRB 110533Z 19004KT 1 1/2SM BR OVC005 01/01 A2943 RMK AO2 RAE0454
     P0000 T00110011=
KGWO 110533Z AUTO 19020G24KT 4SM RA BR BKN016 BKN036 OVC055 17/16
     A2977 RMK AO2 RAB0457 P0011 T01670156 TSNO=
PADU 110533Z AUTO 15003KT 10SM SCT028 SCT036 BKN065 03/01 A2902
     RMK AO2 RAE22 P0001=
PAOH 110533Z AUTO 00000KT 1 1/2SM BR BKN045 M01/M01 A2931 RMK AO2
     TSNO BKN V SCT $=
KPUW 110533Z AUTO 14008KT 6SM -RA BR FEW023 SCT029 OVC040 03/02
     A2994 RMK AO2 P0001=
KRDG 110533Z 00000KT 1 1/2SM RA BR SCT003 OVC008 01/01 A3012 RMK
     AO2 P0006=

0000011000
638
SPUS41 KWBC 110536
SPECI
KBED 110532Z 00000KT 1/4SM R11/2000V2600FT FG VV004 01/01 A3024=

0000009700
639
SAKN61 HKJK 110531
METAR HKJK 110530Z 35005KT 310V030 CAVOK 19/13 Q1023 NOSIG=

0000022300
640
SACA33 KWBC 110500 RRD
METAR
TFFF 110530Z AUTO 06010KT 9999 FEW023/// BKN043/// BKN054///
     ///TCU 23/20 Q1016=
TFFR 110530Z AUTO 05006KT 010V080 9999 -RA SCT025 BKN031 OVC086
     23/21 Q1017=

0000004200
641
SAHA31 KWBC 110530
NIL=

0000040500
642
SAJP31 KWBC 110530
METAR
RJAA 110530Z VRB02KT 9999 FEW030 08/M09 Q1022 BECMG 31005KT RMK
     1CU030 A3019=
RJAH NIL=
RJCC 110530Z 32013KT 9999 FEW015 SCT040 M05/M15 Q1017 RMK 1CU015
     4CU040 A3005=
RJCH NIL=
RJFK NIL=
RJFT NIL=
RJFU NIL=
RJNN NIL=
RJOO NIL=
RJSS NIL=
RJTT 110530Z 11007KT 9999 FEW025 07/M04 Q1022 NOSIG RMK 1CU025
     A3019=
RODN NIL=

0000004200
643
SAJP41 KWBC 110530
NIL=

0000004200
644
SAJP42 KWBC 110530
NIL=

0000004200
645
SAJP43 KWBC 110530
NIL=

0000036700
646
FTDL32 EDZO 110500 RRA
TAF EDDB 110500Z 1106/1206 22008KT 9999 BKN035 BECMG 1116/1118
     28015G25KT TEMPO 1118/1123 RA=
TAF EDDC 110500Z 1106/1206 21006KT 9999 SCT045 BECMG 1119/1121
     27015G30KT PROB40 TEMPO 1120/1124 4000 RA OVC014=
TAF EDDT 110500Z 1106/1206 23008KT 9999 BKN035 BECMG 1116/1118
     28015G25KT TEMPO 1118/1123 RA=

0000014500
647
FTIY31 LIIB 110500 RRA
TAF LIRA 110500Z 1106/1206 VRB03KT 9999 FEW020 BECMG 1118/1120 7000 ?
TEMPO 1202/1206 4000 BR FEW010=

0000022700
648
SANZ31 NZKL 110530
METAR NZAA 110530Z AUTO 23010KT 9999 NCD 19/12 Q1017 NOSIG=
METAR NZWN 110530Z AUTO 34011KT 9999 NCD 21/13 Q1014 NOSIG=
METAR NZCH 110530Z AUTO 07019KT 9999 OVC021/// 16/12 Q1012 NOSIG=

0000011800
649
SAIR32 OIII 110530 RRA
METAR OIYY 110530Z 12006KT 7000 FEW025CB FEW035 OVC100 03/M02
      Q1022=

0000051400
650
SAAE33 VTBB 110530
METAR VVTS 110530Z 36004KT 180V140 4000 HZ FEW017 SCT040 31/20
      Q1012            NOSIG =
METAR VVNB 110530Z 30006KT 260V330 2300 R11R/1900N BR FEW030 BKN060
17/12 Q1021 NOSIG=
METAR VVDN 110530Z 03005KT 8000 FEW015 BKN060 24/20 Q1018 NOSIG=
METAR VVPB 110530Z NIL=
METAR VVCR 110530Z 04015KT 8000 FEW017 BKN060 27/20 Q1016 NOSIG=
METAR VVCT 110530Z 05006KT 350V080 9999 FEW015 29/19 Q1013 NOSIG=
METAR VVPQ 110530Z 36005KT 320V070 CAVOK 30/20 Q1013 NOSIG=

0000119400
651
FTMX51 MMMX 110537
TAF MMAA 110537Z 1106/1212 03005KT P6SM SKC TX31/1120Z TN22/1112Z 
         FM111600 23010KT P6SM SCT300 
         FM120300 02005KT P6SM SCT300=
TAF MMMX 110537Z 1106/1212 00000KT P6SM SCT100 SCT200 TX21/1122Z
TN08/1112Z
         FM111600 06005KT P6SM BKN200 
         FM112100 12010KT P6SM SCT030 BKN200 
         FM120200 03005KT P6SM SCT100 BKN200=
TAF MMTM 110537Z 1106/1206 12005KT 5SM HZ SCT080 BKN200 
         TEMPO 1111/1115 3SM BR BKN010 
         FM111800 36010KT P6SM SCT010 BKN200 
         FM120100 03010KT P6SM BKN010 BKN200=
TAF MMTO 110537Z 1106/1212 00000KT P6SM SCT015 SCT070 TX18/1121Z
TN02/1112Z
         FM111000 00000KT 5SM HZ SCT015 
         TEMPO 1110/1114 2SM BR BKN010 
         FM111500 08005KT P6SM BKN250 
         FM112100 12012KT P6SM SCT020 BKN200 
         FM120200 12005KT P6SM SCT015 BKN200=
TAF MMVR 110537Z 1106/1206 00000KT P6SM SCT015 TX26/1120Z TN18/1112Z 
         TEMPO 1106/1110 BKN010 
         FM111000 00000KT P6SM SCT010 
         FM111500 08010KT P6SM SCT015 BKN200 
         FM112100 03015KT P6SM SCT015 BKN200 
         FM120100 03010KT P6SM BKN015 BKN070=

0000040700
652
SAAO33 DRRN 110525
METAR DBBB 110530Z 35002KT 4000 BR SCT008 BKN200 26/26 Q1010 BECMG
2500 BR=
METAR DFFD 110530Z 06005KT CAVOK 19/03 Q1014 BECMG 4000 DU=
METAR DGAA 110525Z NIL=
METAR DNKN 110525Z NIL=
METAR DNMM 110525Z NIL=
METAR DRRN 110530Z 07008KT 4000 DU NSC 19/M00 Q1015 BECMG 2500=
METAR DXXX 110530Z 04001KT 6000 FEW010 25/25 Q1011 NOSIG=
METAR FTTJ 110525Z NIL=

0000020400
653
FTEO31 EETN 110500
TAF EETN  110530Z 1106/1206 33007KT 9999 SCT007 OVC013 TEMPO
     1106/1111 2000 SHSN BKN005 SCT012CB TEMPO 1111/1206 1000 +SN
     VV004 BECMG 1115/1117 07010KT=

0000011700
654
SPCN47 CWAO 110532
SPECI CYWA 110532Z AUTO 13006KT 1 1/4SM OVC004 M02/M03 A2994 RMK ICG
PAST HR=

00000000