0000028300
315
SXHW11 KWAL 111720
B14036D2 011172013"
1,140111,16:15:00,1.4,239,3.9,0.0,1013.8,0.00,13.0,
1,140111,16:30:00,2.8,217,5.5,0.0,1013.7,0.00,13.0,
1,140111,16:45:00,3.2,233,4.5,0.0,1013.8,0.00,13.0,
1,140111,17:00:00,3.0,236,4.4,0.0,1014.0,0.00,12.9, 47-0NN  30W
0000028100
316
SXHW11 KWAL 111720
B1404042 011172023"
1,140111,16:15:00,0.5,320,2.6,0.0,1013.1,3.00,11.7,
1,140111,16:30:00,0.8,331,1.0,0.0,1013.1,3.00,11.7,
1,140111,16:45:00,0.9,43,1.0,0.0,1013.3,3.00,11.7,
1,140111,17:00:00,1.0,40,1.0,0.0,1013.4,3.00,11.7, 43-0NN  30W
0000216600
317
SZNZ01 NZKL 111721
CREX++
T000103 A001 D01021 D06025++
-3683144 17478654 AUCT  2014 01 11 17 13 //// 11 07 00 01
05829 3136 05826 3137 05823 3138 05820 3140 05817 3141 05814 3142+
-4402404 -17636748 CHIT  2014 01 11 17 13 //// 11 07 00 01
04711 2006 04734 2033 04708 2011 04697 2004 04695 2005 04685 1998+
-4089929 17623168 CPIT  2014 01 11 17 13 //// 11 07 00 01
03856 2261 03850 2261 03848 2263 03854 2275 03862 2288 03862 2293+
-3618905 17548887 GBIT  2014 01 11 17 13 //// 11 07 00 01
06258 0012 06256 0013 06253 0013 06248 0012 06232 -0001 06232 0003+
-3867541 17802288 GIST  2014 01 11 17 13 //// 11 07 00 01
04136 2719 04136 2723 04132 2724 04126 2723 04118 2720 04129 2736+
-4241288 17370277 KAIT  2014 01 11 17 13 //// 11 07 00 01
03237 2253 03233 2254 03232 2258 03211 2242 03213 2249 03210 2252+
-3755040 17815904 LOTT  2014 01 11 17 13 //// 11 07 00 01
03799 0200 03790 0195 03795 0204 03788 0201 03788 0205 03777 0197+
-3704657 17451175 MNKT  2014 01 11 17 13 //// 11 07 00 01
03171 -0095 03166 -0106 03165 -0112 03185 -0099 03191 -0098 03175 -0120+
-3947566 17692007 NAPT  2014 01 11 17 13 //// 11 07 00 01
03050 2011 03044 2010 03052 2023 03052 2028 03068 2050 03060 2047+
-3441483 17304870 NCPT  2014 01 11 17 13 //// 11 07 00 01
-04510 -9479 -04464 -9432 -04526 -9493 -04542 -9508 -04533 -9498 -04511 -9475+
-4581435 17062939 OTAT  2014 01 11 17 13 //// 11 07 00 01
04158 3505 04153 3505 04150 3506 04144 3506 04140 3507 04134 3505+
-2928002 -17789440 RBCT  2014 01 11 17 13 //// 11 07 00 01
06261 2013 06260 2014 06234 1991 06247 2006 06255 2017 06249 2013+
-2925114 -17790384 RFRT  2014 01 11 17 13 //// 11 07 00 01
03210 0171 03178 0141 03197 0162 03173 0141 03187 0158 03182 0155+
-4357010 17277383 SUMT  2014 01 11 17 13 //// 11 07 00 01
01810 1903 01783 1883 01773 1879 01771 1883 01741 1859 01754 1879+
-3764109 17618118 TAUT  2014 01 11 17 13 //// 11 07 00 01
05518 3990 05514 3989 05511 3989 05507 3989 05501 3986 05501 3988+
-4128448 17477985 WLGT  2014 01 11 17 13 //// 11 07 00 01
03014 2028 03009 2028 03018 2041 03009 2036 03010 2041 02998 2033++
7777
0000278400
318
UDFR01 LFPW 111720
AMDAR 1117
DES EU3588 3747N 00310E 111704 F210 MS274 /// 225/025 TB1 S031
333 F210 VG018=
DES EU3588 3746N 00310E 111704 F205 MS259 /// 221/024 TB1 S031
333 F205 VG011=
DES EU3588 3741N 00310E 111705 F191 MS237 /// 218/018 TB0 S031
333 F191 VG006=
DES EU3588 3738N 00310E 111705 F177 MS202 /// 214/017 TB1 S031
333 F177 VG011=
DES EU3588 3734N 00310E 111706 F154 MS147 /// 214/016 TB0 S031
333 F154 VG004=
UNS EU3588 3726N 00311E 111707 F125 MS097 /// 203/018 TB0 S031
333 F125 VG002=
UNS EU3588 3724N 00311E 111708 F122 MS089 /// 197/014 TB0 S031
333 F122 VG007=
DES EU3588 3723N 00313E 111708 F120 MS082 /// 211/019 TB0 S031
333 F120 VG005=
DES EU3588 3722N 00314E 111708 F118 MS077 /// 212/017 TB0 S031
333 F118 VG005=
DES EU3588 3720N 00315E 111709 F115 MS069 /// 208/017 TB0 S031
333 F115 VG005=
DES EU3588 3719N 00317E 111709 F111 MS062 /// 207/016 TB1 S031
333 F111 VG017=
DES EU3588 3718N 00318E 111709 F106 MS052 /// 203/016 TB0 S031
333 F106 VG001=
UNS EU3588 3717N 00319E 111710 F101 MS044 /// 209/013 TB1 S031
333 F101 VG015=
DES EU3588 3716N 00320E 111710 F095 MS032 /// 208/010 TB0 S031
333 F095 VG003=
DES EU3588 3714N 00321E 111710 F091 MS027 /// 205/010 TB0 S031
333 F091 VG001=
DES EU3588 3713N 00322E 111711 F086 MS019 /// 205/008 TB0 S031
333 F086 VG002=
DES EU3588 3711N 00322E 111711 F082 MS009 /// 223/008 TB0 S031
333 F082 VG000=
DES EU3588 3710N 00323E 111711 F078 MS009 /// 249/008 TB0 S031
333 F078 VG002=
DES EU3588 3708N 00324E 111712 F074 PS002 /// 253/009 TB0 S031
333 F074 VG000=
DES EU3588 3707N 00325E 111712 F070 PS010 /// 254/010 TB0 S031
333 F070 VG003=
DES EU3588 3705N 00325E 111712 F066 PS020 /// 250/011 TB0 S031
333 F066 VG002=
DES EU3588 3704N 00326E 111713 F062 PS027 /// 249/015 TB0 S031
333 F062 VG000=
DES EU3588 3702N 00327E 111713 F058 PS035 /// 242/015 TB0 S031
333 F058 VG001=
DES EU3588 3701N 00328E 111713 F055 PS047 /// 252/017 TB0 S031
333 F055 VG001=
DES EU3588 3659N 00328E 111714 F051 PS055 /// 263/018 TB0 S031
333 F051 VG004=
UNS EU3588 3658N 00329E 111714 F046 PS067 /// 266/020 TB0 S031
333 F046 VG007=
DES EU3588 3655N 00329E 111715 F038 PS090 /// 280/018 TB0 S031
333 F038 VG000=
DES EU3588 3654N 00328E 111715 F034 PS097 /// 288/016 TB0 S031
333 F034 VG000=
DES EU3588 3653N 00328E 111715 F030 PS110 /// 287/016 TB0 S031
333 F030 VG002=
DES EU3588 3652N 00328E 111716 F027 PS122 /// 291/017 TB0 S031
333 F027 VG005=
UNS EU3588 3650N 00327E 111716 F024 PS127 /// 300/023 TB1 S031
333 F024 VG031=
DES EU3588 3649N 00325E 111716 F023 PS132 /// 299/017 TB0 S031
333 F023 VG003=
DES EU3588 3649N 00325E 111717 F023 PS135 /// 294/017 TB0 S031
333 F023 VG010=
0000014200
319
UANT99 KDDL 111719
ARP FDX10 5459N01909W 1719 F370 5458N01500W 1735 5458N01401W MS63
 213/72 KT
N886FD QXT EUA 111719 F41A
0000007600
320
SNAL51 DAMM 111700 RRA
AAXX 11174
60595 46/// /0000 11451=
0000011000
321
UANT99 KDDL 111719
ARP DHK984 5258N03058W 1719 F320 MS53 154/24 KT
GDHLE DDL XXN 111720 F35A
0000009500
322
SAAG41 KWBC 110700 RRC
METAR
SANT 110700Z 18006KT 9999 OVC040 23/20 Q1011=

0000168600
323
SAUS74 KWBC 110800
METAR
KACV 110753Z AUTO 09003KT 10SM CLR 07/06 A3012=
KALW 110753Z AUTO 17014KT 10SM -RA SCT060 OVC070 12/05 A2980=
KBFI 110753Z 14004KT 10SM -RA OVC037 09/08 A2955=
KBFL 110754Z AUTO 00000KT 7SM CLR 07/03 A3023=
KBIL 110753Z 31010KT 10SM SCT085 01/M06 A2978=
KBKE 110753Z AUTO 11005KT 10SM FEW041 SCT080 BKN110 00/00
     A2997=
KBLI 110753Z AUTO 15026G42KT 10SM -RA FEW026 SCT047 OVC085 11/07
     A2939=
KBOI 110753Z 12007KT 10SM OVC050 04/01 A3005=
KBTM 110753Z AUTO 00000KT 10SM OVC050 01/M06 A2986=
KBUR 110753Z 00000KT 8SM CLR 13/05 A3011=
KBYI 110753Z AUTO 32003KT 10SM OVC046 03/M01 A3010=
KBZN 110756Z AUTO 25007KT 10SM OVC065 03/M06 A2987=
KCDC 110753Z AUTO 00000KT 10SM CLR M02/M06 A3022=
KCEC 110756Z AUTO 16015G24KT 9SM OVC008 11/09 A3010=
KCLM 110753Z AUTO VRB05KT 6SM -RA BR SCT003 BKN055 OVC070 07/06
     A2936=
KCTB 110756Z AUTO 23009KT 10SM SCT120 01/M06 A2965=
KCXL NIL=
KEKO 110756Z AUTO 27006KT 10SM OVC075 01/M02 A3020=
KEUG 110754Z AUTO 16011KT 10SM BKN050 BKN120 11/04 A2987=
KFAT 110753Z 00000KT 4SM HZ BKN200 07/03 A3023=
KFLG 110757Z AUTO 28003KT 10SM CLR M03/M07 A3024=
KGCN 110754Z AUTO 00000KT 10SM CLR M09/M11 A3026=
KGEG 110753Z 17013KT 10SM -RA SCT037 BKN046 OVC055 03/01 A2974=
KGGW 110753Z AUTO 29007KT 10SM SCT110 M07/M10 A2974=
KGTF 110753Z 21015KT 10SM CLR 02/M04 A2973=
KHLN 110753Z AUTO 21006KT 10SM SCT070 BKN110 05/M06 A2983=
KHQM 110753Z AUTO 17032G41KT 1 1/2SM -SN OVC014 A2955=
KIDA 110753Z AUTO 19017G24KT 10SM OVC018 02/M02 A3006=
KIWA 110755Z AUTO 11007KT 10SM CLR 05/M01 A3016=
KLAS 110756Z 20008KT 10SM FEW160 BKN250 09/M02 A3013=

0000170600
324
SAUS74 KWBC 110800 RRA
METAR
KLAX 110753Z 12004KT 5SM BR FEW250 13/11 A3011=
KLGB 110753Z 00000KT 1/2SM FG SCT002 OVC010 11/09 A3011=
KLMT 110753Z AUTO 00000KT 6SM BR CLR M01/M02 A3007=
KLVM 110753Z AUTO 27023G32KT 10SM FEW050 FEW120 04/M07 A2979=
KMFR 110753Z AUTO 00000KT 1SM R14/3500VP6000FT BR VV002 05/04
     A3004=
KMLS 110753Z AUTO 34004KT 10SM OVC100 M01/M04 A2974=
KMRY 110754Z AUTO 09005KT 10SM CLR 08/06 A3019=
KMSO 110753Z AUTO 10004KT 10SM OVC048 02/M01 A2986=
KMYV 110753Z AUTO 00000KT 8SM CLR 06/03 A3020=
KNTD 110754Z 03003KT CLR 10/08 A3011=
KOAK 110753Z 00000KT 6SM MIFG SCT200 06/05 A3021=
KOGD 110753Z 17007KT 10SM OVC049 03/M03 A3015=
KOLM 110754Z AUTO 19018G30KT 8SM -RA OVC016 10/08 A2959=
KONT 110753Z 01005KT 7SM FEW250 12/04 A3011=
KOTH 110755Z 19008KT 10SM OVC026 13/11 A2991=
KPAE 110753Z AUTO 15014KT 2 1/2SM -RA BR FEW022 OVC029 09/08
     A2955=
KPDX 110753Z 17014G26KT 10SM OVC041 14/04 A2979=
KPHX 110751Z 10003KT 10SM CLR 09/00 A3013=
KPIH 110753Z AUTO 24013KT 10SM OVC033 03/M02 A3011=
KPMD 110753Z 18005KT 10SM CLR 05/M03 A3019=
KPRB 110753Z AUTO 04003KT 10SM CLR 06/01 A3021=
KPRC 110753Z AUTO 20004KT 10SM CLR 01/M06 A3023=
KPSP 110753Z AUTO 33004KT 10SM CLR 12/M03 A3014=
KRBL 110754Z AUTO 00000KT 10SM CLR 06/02 A3018=
KRDD 110753Z AUTO 00000KT 10SM CLR 04/02 A3016=
KRDM 110756Z AUTO 17014G21KT 10SM CLR 09/01 A2989=
KRNO 110755Z 00000KT 10SM SCT200 02/M02 A3022=
KRNT 110753Z AUTO 14004KT 10SM -RA FEW041 OVC050 09/08 A2955=
KSAC 110753Z AUTO 00000KT 7SM CLR 06/04 A3021=
KSAN 110751Z 00000KT 6SM BR CLR 13/08 A3012=
KSBA 110753Z AUTO 00000KT 6SM BR CLR 08/07 A3011=
KSBD NIL=

0000099900
325
SAUS74 KWBC 110800 RRB
METAR
KSBP 110756Z AUTO 36003KT 10SM CLR 15/02 A3016=
KSCK 110755Z AUTO 12003KT 8SM CLR 07/04 A3020=
KSEA 110753Z 18012KT 7SM -RA BKN036 OVC046 13/08 A2955=
KSFF 110753Z AUTO 18009G17KT 10SM -RA OVC040 06/02 A2977=
KSFO 110756Z 30003KT 10SM SCT170 09/06 A3020=
KSHR 110753Z AUTO 33011KT 10SM BKN080 OVC095 02/M05 A2980=
KSJC 110753Z 00000KT 10SM FEW200 09/07 A3020=
KSLC 110753Z 13007KT 10SM OVC060 04/M01 A3017=
KSMF 110753Z 15004KT 10SM CLR 08/04 A3020=
KSMX 110751Z AUTO 32010KT 10SM CLR 12/03 A3014=
KSNA 110753Z AUTO 00000KT 6SM HZ CLR 12/08 A3011=
KSNS 110753Z AUTO 09004KT 1/4SM FG VV001 09/09 A3020=
KTIW 110753Z AUTO 19018G28KT 10SM -RA OVC070 12/08 A2956=
KTUS 110753Z 11003KT 10SM CLR 06/M05 A3018=
KTVL 110753Z AUTO 20003KT 10SM CLR M02/M05 A3026=
KTWF 110753Z AUTO 20009KT 10SM OVC050 06/00 A3010=
KUKI 110756Z AUTO 00000KT 10SM CLR 04/01 A3020=
KYKM 110753Z AUTO VRB05KT 10SM SCT070 05/01 A2969=
KYUM NIL=

0000167400
326
SAUS75 KWBC 110800
METAR
PABA 110801Z AUTO 28028G36KT 1/4SM +SN FZFG M23/M26 A2975=
PABE 110753Z 03012KT 10SM CLR M14/M16 A2936=
PABI 110753Z AUTO 00000KT 9SM OVC003 M21/M22 A2945=
PABR 110753Z 30009KT 10SM OVC008 M24/M27 A2977=
PABT 110753Z 00000KT 10SM BKN150 M35/ A2961=
PACV 110753Z 00000KT 3/4SM R27/3000VP6000FT BR FEW035 M07/M07
     A2923=
PACZ 110755Z AUTO 11007G18KT 060V170 10SM BKN042 M06/M10 A2934=
PADK 110756Z AUTO 23032G44KT 7SM BKN017 BKN023 OVC028 03/01
     A2867=
PADL 110756Z 01009KT 10SM OVC005 M07/M09 A2938=
PADU 110756Z AUTO 18005KT 10SM -RA BKN035 OVC048 04/01 A2898=
PAEH 110755Z AUTO 14025G32KT 3SM -FZDZ BR BKN003 M01/M02 A2922=
PAEI NIL=
PAEN 110753Z 00000KT 10SM FEW006 OVC013 M04/M04 A2933=
PAFA 110753Z 00000KT 8SM -SN FEW002 SCT090 M32/M35 A2955=
PAFB 110756Z AUTO 00000KT 10SM CLR M34/M38 A2956=
PAGA 110758Z AUTO 00000KT 10SM CLR M34/M37 A2964=
PAGK 110753Z AUTO 33003KT 2 1/2SM -SN BR OVC044 M12/M14 A2923=
PAGS 110756Z AUTO 33003KT 10SM BKN044 OVC050 00/M01 A2922=
PAGY 110753Z AUTO 03006KT 10SM SCT017 BKN022 OVC046 01/M02
     A2923=
PAHO 110753Z AUTO 00000KT 10SM SCT018 OVC039 M01/M04 A2932=
PAHO 110751Z AUTO 00000KT 10SM BKN018 OVC039 M01/M04 A2932=
PAIL 110753Z AUTO 01007KT 10SM OVC006 M07/M07 A2937=
PAJN 110753Z COR 00000KT 4SM R08/1400V3500FT BCFG FEW000 SCT003
     BKN049 00/M01 A2922=
PAJN 110753Z 00000KT 4SM R08/1400V3500FT BCFG FEW000 SCT003 BKN049
     00/M01 A2922=
PAKN 110754Z 32007KT 6SM BR FEW004 SCT025 SCT130 M07/M07 A2933=
PAKT 110753Z AUTO VRB03KT 10SM OVC100 03/M02 A2902=
PALU 110755Z AUTO 08005KT 10SM OVC007 M18/M20 A2992=

0000147000
327
SAUS75 KWBC 110800 RRA
METAR
PAMC 110753Z AUTO 27004KT 10SM CLR M23/M26 A2952=
PANC 110753Z 00000KT 10SM SCT003 BKN013 OVC025 M06/M06 A2932=
PANT 110753Z AUTO VRB06KT 4SM -SN BR OVC014 01/00 A2900=
PAOM 110753Z 03007KT 10SM FEW032 SCT100 M12/M21 A2960=
PAOR 110753Z 31004KT 4SM -SN OVC032 M17/M19 A2931=
PAOT 110753Z VRB04KT 10SM CLR M20/M26 A2972=
PAPG NIL=
PASC 110753Z 24021KT 3/4SM R05/5000VP6000FT -SN BLSN BR FEW008
     BKN014 OVC065 M26/M29 A2978=
PASI 110753Z 00000KT 10SM CLR 01/M01 A2916=
PASN 110753Z AUTO 09020G25KT 5SM -SN BR SCT008 OVC012 02/01
     A2895=
PATA 110752Z AUTO 30003KT 10SM CLR M35/ A2962=
PATC 110755Z AUTO 02029KT 1 1/4SM BR BKN002 M17/M19 A2968=
PATK 110753Z AUTO 00000KT 10SM OVC018 M08/M10 A2930=
PAUN 110756Z AUTO 09016KT 10SM CLR M17/M23 A2953=
PAVD 110756Z 10SM OVC100 M07/M08 A2925=
PAYA 110753Z AUTO 00000KT 2 1/2SM -SN BR SCT004 BKN017 OVC023
     00/00 A2923=
PGRO 110750Z 05011KT 7SM SCT030 BKN120 26/23 A2988=
PGUA NIL=
PGUM 110754Z 06010KT 10SM FEW020 SCT040 27/22 A2987=
PHJH NIL=
PHLI 110753Z 04016KT 10SM SCT017 SCT021 BKN048 23/21 A2997=
PHMK 110754Z AUTO 00000KT 10SM CLR 19/18 A2996=
PHNL 110753Z 09005KT 10SM FEW031 23/18 A2995=
PHNY 110756Z AUTO 06004KT 10SM CLR 18/18 A3000=
PHOG 110754Z 18006KT 10SM FEW025 19/17 A2995=
PHTO 110753Z 23007KT 10SM SCT030 SCT055 20/18 A2998=
PMDY 110756Z AUTO 11018G21KT 5SM BR CLR 21/18 A3011=
PWAK NIL=

0000023300
328
SAUS75 KWBC 110700 RRG
METAR
PAHO 110741Z AUTO 04004KT 10SM SCT018 OVC039 M01/M04 A2932=
PAHO 110730Z AUTO 02005KT 10SM BKN018 OVC041 M01/M04 A2932=
PAHO 110711Z AUTO 06004KT 10SM SCT018 OVC041 M01/M04 A2932=

0000047000
329
SATH33 VTBB 110800
METAR VTBO 110800Z 03006KT 9999 FEW030 BKN200 33/22 Q1011=
METAR VTUD 110800Z NIL=
METAR VTUI 110800Z NIL=
METAR VTUK 110800Z 04006KT 310V120 9999 FEW025 30/16 Q1014
A2996 
RWY03 INFO J=
METAR VTUL 110800Z 15005KT 7000 NSC 29/13 Q1012 A2990=
METAR VTUO 110800Z NIL=
METAR VTUQ 110800Z NIL=
METAR VTUU 110800Z NIL=
METAR VTUV 110800Z NIL=
METAR VTUW 110800Z 12006KT 9999 FEW028 29/13 Q1014 A2995
RWY15 INFO H=

0000078700
330
FTUS53 KWBC 110806 AAA
TAF AMD
KCMI 110804Z 1108/1206 20010KT 1/2SM -RADZ FG VV002
     FM111300 24012KT 1SM BR OVC003
     FM111600 26012G18KT 6SM BR OVC005
     FM112200 26014G22KT P6SM BKN015
     FM120100 27014KT P6SM SCT250=
KDEC 110804Z 1108/1206 25010KT 2SM -DZ BR OVC002
     FM111400 26012G18KT P6SM OVC005
     FM111900 27013G23KT P6SM BKN015
     FM112200 28012KT P6SM SCT250=
KRFD 110804Z 1108/1206 18012KT 1/2SM FG VV002
      TEMPO 1108/1109 0SM FG VV001
     FM110900 26010KT P6SM OVC007
     FM111600 27014G22KT P6SM OVC015
     FM112200 27010KT P6SM SCT015=
KSPI 110804Z 1108/1206 25008KT 1SM -DZ BR OVC002
     FM111400 26012G18KT P6SM OVC006
     FM111700 27014G22KT P6SM BKN015
     FM112100 27014KT P6SM SCT250=

0000050400
331
FTUS51 KWBC 110806 AAA
TAF AMD
KBFD 110805Z 1108/1206 16011G17KT 1 1/2SM BR OVC001 WS019/21048KT
     FM111100 17014G27KT 2SM RA BR OVC009 WS012/19049KT
     FM120000 27010G18KT 4SM BR OVC003=
KROA 110803Z 1108/1206 00000KT 1 1/2SM -RA BR OVC003 WS019/20035KT
      TEMPO 1108/1109 1/2SM FG
     FM111200 15006KT 6SM -DZ BR OVC009 WS020/20035KT
     FM111600 16009KT 5SM -SHRA BR OVC012
     FM112200 27011G23KT P6SM -SHRA OVC030
     FM120100 29015G30KT P6SM SCT045=

0000061600
332
FTUS52 KWBC 110806 AAA
TAF AMD
KHUM 110803Z 1108/1206 19010KT P6SM OVC004
      TEMPO 1109/1112 2SM TSRA OVC002CB
     FM111400 26009KT P6SM BKN015
     FM111700 31012KT P6SM SKC
     FM120000 VRB03KT P6SM SKC=
KPBG 110805Z 1108/1206 00000KT P6SM FEW020 SCT035 OVC060
      TEMPO 1108/1110 3SM BR SCT008
     FM111000 15005KT P6SM VCSH SCT010 BKN025 OVC035
      TEMPO 1110/1113 4SM -FZDZ BR BKN015 OVC020
     FM111300 15010KT 3SM -RA BR OVC011 WS020/18050KT
     FM111500 16010G18KT 4SM -RA BR OVC008 WS020/18050KT
     FM111800 18010G16KT 3SM RA BR SCT004 BKN006 OVC008=

0000129200
333
FTUS80 KWBC 110806 AAA
TAF AMD
KASD 110804Z 1108/1206 20010KT P6SM SCT005 OVC015
      TEMPO 1109/1113 2SM TSRA OVC005CB
     FM111400 28009KT P6SM BKN015
     FM111700 32010G18KT P6SM SKC
     FM120000 VRB03KT P6SM SKC=
KBFD 110805Z 1108/1206 16011G17KT 1 1/2SM BR OVC001 WS019/21048KT
     FM111100 17014G27KT 2SM RA BR OVC009 WS012/19049KT
     FM120000 27010G18KT 4SM BR OVC003=
KBMI 110804Z 1108/1206 22011KT 1/2SM FG VCSH OVC001
     FM111200 26012G18KT 3SM BR OVC003
     FM111900 28014G23KT P6SM BKN015
     FM112200 27014KT P6SM SCT250=
KBNA 110803Z 1108/1206 19008KT 6SM -SHRA BR SCT030 BKN050
     FM111200 26012G25KT P6SM OVC025
     FM111500 27010G20KT P6SM BKN050=
KCMI 110804Z 1108/1206 20010KT 1/2SM -RADZ FG VV002
     FM111300 24012KT 1SM BR OVC003
     FM111600 26012G18KT 6SM BR OVC005
     FM112200 26014G22KT P6SM BKN015
     FM120100 27014KT P6SM SCT250=
KDEC 110804Z 1108/1206 25010KT 2SM -DZ BR OVC002
     FM111400 26012G18KT P6SM OVC005
     FM111900 27013G23KT P6SM BKN015
     FM112200 28012KT P6SM SCT250=
KHUM 110803Z 1108/1206 19010KT P6SM OVC004
      TEMPO 1109/1112 2SM TSRA OVC002CB
     FM111400 26009KT P6SM BKN015
     FM111700 31012KT P6SM SKC
     FM120000 VRB03KT P6SM SKC=

0000131600
334
FTUS80 KWBC 110806 AAB
TAF AMD
KPBG 110805Z 1108/1206 00000KT P6SM FEW020 SCT035 OVC060
      TEMPO 1108/1110 3SM BR SCT008
     FM111000 15005KT P6SM VCSH SCT010 BKN025 OVC035
      TEMPO 1110/1113 4SM -FZDZ BR BKN015 OVC020
     FM111300 15010KT 3SM -RA BR OVC011 WS020/18050KT
     FM111500 16010G18KT 4SM -RA BR OVC008 WS020/18050KT
     FM111800 18010G16KT 3SM RA BR SCT004 BKN006 OVC008=
KPIA 110804Z 1108/1206 26005KT 1/4SM -DZ FG VV003
     FM111100 26009KT 2SM BR OVC003
     FM111400 26012G18KT 6SM BR OVC004
     FM111800 28012G22KT P6SM BKN015
     FM112100 27012KT P6SM SCT250
     FM120000 28008KT P6SM SKC=
KRFD 110804Z 1108/1206 18012KT 1/2SM FG VV002
      TEMPO 1108/1109 0SM FG VV001
     FM110900 26010KT P6SM OVC007
     FM111600 27014G22KT P6SM OVC015
     FM112200 27010KT P6SM SCT015=
KROA 110803Z 1108/1206 00000KT 1 1/2SM -RA BR OVC003 WS019/20035KT
      TEMPO 1108/1109 1/2SM FG
     FM111200 15006KT 6SM -DZ BR OVC009 WS020/20035KT
     FM111600 16009KT 5SM -SHRA BR OVC012
     FM112200 27011G23KT P6SM -SHRA OVC030
     FM120100 29015G30KT P6SM SCT045=
KSPI 110804Z 1108/1206 25008KT 1SM -DZ BR OVC002
     FM111400 26012G18KT P6SM OVC006
     FM111700 27014G22KT P6SM BKN015
     FM112100 27014KT P6SM SCT250=

00000000