0000010000
015
SAMC32 GMMC 110700 RRA
METAR GMFM 110700Z 18004KT 9999 SCT020 BKN100 11/06 Q1017=

0000011300
016
SACN62 CYVQ 110700
METAR CYVQ 110700Z 28006KT 20SM -SN BKN080 M26/M30 A2973 RMK AC6
 SLP080=

0000013800
017
SACN62 CYTS 110700
METAR CYTS 110700Z 11008KT 5/8SM R03/4000V5500FT/D -SN VV003 M02/M03
 A2958 RMK SN8 PRESFR SLP034=

0000012500
018
SACN62 CYWG 110700
METAR CYWG 110700Z 30012KT 3SM -SN BR SCT010 OVC020 M10/M11 A2949 RMK
 ST4SC4 SLP004=

0000015400
019
SACN61 CYXS 110700
METAR CYXS 110700Z AUTO 09008KT 3/4SM R15/P6000FT/U -SN VV007 M03/M03
 A2927 RMK PRESFR PCPN 1.2MM PAST HR SLP945=

0000010600
020
SACN62 CYXJ 110700
METAR CYXJ 110700Z 19008KT 15SM BKN160 M06/M10 A2934 RMK AC7 SLP982=

0000011300
021
SACN62 CYWK 110700
METAR CYWK 110700Z 23009KT 15SM -SN OVC044 M11/M14 A2983 RMK SC8
 SLP146=

0000014100
022
SACN62 CYXT 110700
METAR CYXT 110700Z 36018G27KT 3/4SM -SN BLSN VV005 M01/M01 A2910 RMK
 SN8 VIS VRB 1/2-1 /S01/ SLP863=

0000037600
023
SAIY33 LIIB 110700
METAR LIMA 110650Z 00000KT 8000 BKN030 07/06 Q1021=
METAR LIMG 110700Z NIL=
METAR LIMP 110650Z VRB02KT 0200 R20/0300N FG VV/// 08/08 Q1024=
METAR LIMS 110655Z 33001KT 0100 R30/0375 R12/0350 FG VV001 08/07
      Q1022=
METAR LIMW 110650Z AUTO VRB02KT 9000 OVC029 03/02 Q1022=
METAR LIMZ 110650Z 21003KT 9999 BKN035 06/05 Q1021=

0000028000
024
SAIY34 LIIB 110700
METAR LIPC 110655Z /////KT 1200 R11/P1500 BR OVC050 08/05 Q1022=
METAR LIPF 110655Z 00000KT 0600 FG OVC006 06/04 Q1022=
METAR LIPO 110650Z 34001KT 2500 BR FEW020 BKN045 07/07 Q1022=
METAR LIPY 110650Z 20003KT 2000 BR BKN003 09/08 Q1023=

0000046300
025
SAIY35 LIIB 110700
METAR LIQN 110700Z NIL=
METAR LIQW 110700Z NIL=
METAR LIRG 110700Z NIL=
METAR LIRH 110655Z 09003KT 3000 BR SCT010 BKN015 07/04 Q1022=
METAR LIRL 110655Z 33004KT 9999 FEW030 SCT070 06/05 Q1022=
METAR LIRM 110655Z 04004KT 3500 BR SCT080 05/03 Q1022=
METAR LIRS 110655Z /////KT 9999 FEW020 04/02 Q1022=
METAR LIRU 110650Z 36005KT 0100 FG VV/// 03/03 Q1023=
METAR LIRV 110655Z 02007KT 0800 FG BKN002 01/M00 Q1021=

0000034500
026
SAIY36 LIIB 110700
METAR LIBC 110650Z 33004KT 9999 SCT030 09/09 Q1022=
METAR LIBF 110700Z NIL=
METAR LIBG 110650Z 00000KT 9999 SCT028 BKN030 07/07 Q1021=
METAR LIBP 110650Z 20004KT 6000 NSC 03/01 Q1023=
METAR LIRI 110700Z NIL=
METAR LIRJ 110700Z NIL=
METAR LIRZ 110650Z 00000KT 0150 R01/0600U FG VV/// 05/05 Q1023=

0000028700
027
SAIY37 LIIB 110700
METAR LICA 110650Z 05010KT CAVOK 10/07 Q1022=
METAR LICD 110650Z 18011KT 9999 SCT048 16/15 Q1021=
METAR LICG 110655Z /////KT CAVOK 15/13 Q1019=
METAR LICR 110650Z 09005KT 9999 FEW020 09/07 Q1022=
METAR LICT 110655Z 13011KT CAVOK 13/12 Q1020=

0000008400
028
SAAG41 SAWG 110700
METAR SAWG 110700Z  34007KT CAVOK 09/06 Q1011=

0000023300
029
SABC40 FBSK 110700
METAR FBSK 110700Z 07012KT CAVOK 28/13 Q1017 NOSIG=
METAR FBFT 110700Z /////KT CAVOK 29/10 Q1017=
METAR FBMN 110700Z 03009KT CAVOK 27/19 Q1017=
METAR FBKE 110700Z 36003KT CAVOK 23/19 Q1019=

0000022800
030
SARE20 FMEE 110700
METAR FMCZ 110700Z 16003KT 110V250 9999 FEW022 BKN300 31/24 Q1013
NOSIG=
METAR FMEE 110700Z 10020KT 9999 FEW026 31/22 Q1015 NOSIG=
METAR FMEP 110700Z AUTO 26009KT 9999 NCD 29/24 Q1015=

0000010600
031
SACN62 CYYC 110700
METAR CYYC 110700Z 19008KT 15SM BKN100 M05/M07 A2957 RMK AC6 SLP064=

0000010600
032
SACN62 CYYE 110700
METAR CYYE 110700Z 31002KT 15SM BKN080 M18/M21 A2947 RMK AC6 SLP016=

0000012500
033
SACN62 CYYF 110700
METAR CYYF 110700Z 18013KT 15SM SCT045 OVC080 04/M01 A2962 RMK SC3AC5
 PRESFR SLP042=

0000011700
034
SACN62 CYYB 110700
METAR CYYB 110700Z 11011KT 1SM -RA BR OVC002 00/M00 A2969 RMK FG4SF4
 SLP073=

00000000