0000010300
055
SACN43 CWAO 110600
METAR CYXD 110600Z AUTO 20005KT 9SM CLR M08/M13 A2957 RMK SLP052=

0000010600
056
SACN43 CWAO 110600
METAR CWHN 110600Z AUTO 29002KT 9SM OVC004 M10/M10 A2952 RMK SLP037=

0000011500
057
SACN43 CWAO 110600
METAR CYGX 110600Z 05006KT 1 1/2SM -SN OVC016 M22/M25 A2957 RMK SC8
SLP032=

0000012700
058
SACN42 CWAO 110600
METAR CYIV 110600Z 00000KT 6SM -SN FEW012 BKN080 M09/M10 A2941 RMK
SC2AC6 /S02/ SLP980=

0000011800
059
SACN31 CWAO 110600
METAR CYBG 110600Z 12004KT 15SM SCT023 OVC026 M08/M11 A3010 RMK
SC4SC4 SLP206=

0000009500
060
SAVN22 SVMI 110600
METAR SVMI 110600Z 00000KT 9999 FEW016 23/18 Q1014 NOSIG=

0000051600
061
SAHU41 LHBM 110600
METAR LHBC 110545Z 17003KT 8000 BKN083 01/M00 Q1023=
METAR LHDC 110545Z 19007KT 9999 BKN040 M00/M01 Q1021=
METAR LHKE 110545Z 20002MPS 8000 OVC045 02/00 Q1022 NOSIG RMK BLU=
METAR LHPA 110545Z 00000MPS 9999 BKN033 03/03 Q1021 NOSIG RMK BLU=
METAR LHPP 110545Z 07003KT 9999 BKN040 04/03 Q1021=
METAR LHSM 110545Z 19001KT 0900 FG OVC004 04/04 Q1022=
METAR LHSN 110545Z 21002MPS CAVOK 02/M00 Q1022 NOSIG RMK BLU=
METAR LHUD 110545Z 17002KT 3600 BR BKN040 02/02 Q1023=

0000009200
062
SACN51 CWAO 110600
METAR CWKM 110600Z AUTO 26018KT M25/ A2975 RMK SLP082=

0000009000
063
SACN52 CWAO 110600
METAR CWKP 110600Z AUTO ///// M35/ A2918 RMK SLP943=

0000009200
064
SACN52 CWAO 110600
METAR CWYM 110600Z AUTO 26022KT M21/ A2915 RMK SLP944=

0000011200
065
SACN61 CYNM 110600
METAR CYNM 110600Z AUTO 18009KT 5SM BR OVC005 M04/M04 A2977 RMK
 SLP099=

0000011700
066
SACN62 CYMA 110600
METAR CYMA 110600Z 33004KT 240V340 20SM SKC M25/M29 A2936 RMK SOG 36
 SLP999=

0000010600
067
SACN61 CYMO 110600
METAR CYMO 110600Z AUTO 17010KT 9SM OVC047 M01/M03 A2968 RMK SLP050=

0000011600
068
SACN61 CYMM 110600
METAR CYMM 110600Z AUTO 00000KT 9SM SCT043 M17/M19 A2954 RMK PRESFR
 SLP037=

0000011900
069
SACN61 CYNE 110600
METAR CYNE 110600Z AUTO 33004KT 5SM BR SCT008 OVC016 M10/M11 A2944
 RMK SLP989=

0000010600
070
SACN61 CYNA 110600
METAR CYNA 110600Z AUTO 29007KT 9SM OVC021 M06/M08 A3004 RMK SLP174=

0000010600
071
SACN44 CWAO 110600
METAR CYSM 110600Z 31003KT 15SM FEW060 M24/M27 A2959 RMK SC1 SLP048=

0000039800
072
SAMC31 GMMC 110600
METAR GMFF 110600Z 14005KT 9999 FEW030 BKN100 11/05 Q1017 NOSIG=
METAR GMME 110600Z 17003KT 140V200 5000 SCT020 BKN100 12/10 Q1015
NOSIG=
METAR GMMN 110600Z 20008KT 9999 SCT016 BKN100 11/08 Q1017 NOSIG=
METAR GMMX 110600Z 00000KT 8000 BKN02011/10 Q1016 NOSIG=
METAR GMTT 110600Z 10006KT 6000 SCT016 BKN100 13/11 Q1016 NOSIG=
METAR GMAD 110600Z NIL=

0000074300
073
SACH10 SCSC 110600
METAR SCFA 110600Z NIL=
METAR SCAR 110600Z NIL=
METAR SCBA 110600Z AUTO 32013KT CAVOK 07/03 Q1020=
METAR SCCF 110600Z 09006KT CAVOK 09/04 Q1024=
METAR SCIE 110600Z 23006KT CAVOK 12/09 Q1014=
METAR SCAT 110600Z AUTO VRB02KT 9999 // ///011 17/14 Q1013=
METAR SCDA 110600Z 00000KT CAVOK 21/17 Q1011=
METAR SCSE 110600Z 26004KT CAVOK  15/14 Q1010=
METAR SCJO 110600Z NIL=
METAR SCTE 110600Z 18004KT CAVOK  08/06 Q1023 NOSIG=
METAR SCNT 110600Z NIL=
METAR SCCI 110600Z 30015KT 9999 SCT030 OVC080 09/05 Q1008 NOSIG=
METAR SCEL 110600Z 00000KT CAVOK 17/06 Q1012 NOSIG=
METAR SCIP 110600Z 11005KT 9999 FEW020 SCT150 22/19 Q1022 NOSIG=
METAR SCPQ 110600Z AUTO 23006KT CAVOK 08/06 Q1023=

0000065000
074
SAMC32 GMMC 110600
METAR GMAG 110600Z 12008KT CAVOK 07/05 Q1017=
METAR GMFF 110600Z 14005KT 9999 FEW030 BKN100 11/05 Q1017 NOSIG=
METAR GMFM 110600Z 19002KT 8000 SCT020 BKN100 10/06 Q1017=
METAR GMMH 110600Z 05003KT CAVOK 15/13 Q1016=
METAR GMML 110600Z 06001KT CAVOK 10/09 Q1017=
METAR GMMW 110600Z 21003KT 8000 NSC 09/08 Q1017=
METAR GMMZ 110600Z VRB02KT 9999 SCT030 05/04 Q1016=
METAR GMTA 110600Z 16002KT 9999 BKN026 12/10 Q1018=
METAR GMTN 110600Z 23002KT 5000 SCT020 11/10 Q1016=
METAR GMAT 110600Z NIL=
METAR GMFK 110600Z NIL=
METAR GMFO 110600Z NIL=
METAR GMMC 110600Z NIL=
METAR GMMI 110600Z NIL=

00000000