0000048300
995
SAGR32 LGAT 110920
METAR LGAL 110920Z VRB03KT CAVOK 11/07 Q1025=
METAR LGEL 110920Z NIL=
METAR LGIO 110920Z 32001KT 9999 SCT035 BKN080 10/06 Q1024=
METAR LGKV 110920Z 00000KT 9999 BKN030 10/08 Q1023=
METAR LGMT 110920Z VRB02KT 9999 SCT030 15/10 Q1023=
METAR LGPZ 110920Z 06006KT 9999 FEW020 BKN100 14/09 Q1025 NOSIG=
METAR LGRX 110920Z 00000KT 9999 BKN045 15/10 Q1024 NOSIG=
METAR LGSK 110920Z NIL=
METAR LGSR 110920Z NIL=
METAR LGZA 110920Z NIL=

0000053500
996
SAUK31 EGGY 110920
METAR EGBB 110920Z 25006KT 9999 FEW027 04/02 Q1016=
METAR COR EGCC 110920Z 27007KT 240V320 9999 8000NE -SHRA FEW008
     BKN015TCU 04/02 Q1016 NOSIG=
METAR EGKK 110920Z 29007KT 9999 FEW012 06/04 Q1017=
METAR COR EGLL 110920Z 29007KT CAVOK 06/04 Q1017 NOSIG=
METAR EGPF 110920Z 27009KT 240V300 9999 SCT045 03/01 Q1013=
METAR EGPH 110920Z 24010KT 9999 FEW020 02/00 Q1012=
METAR EGPK 110920Z 25007KT 9999 VCSH FEW012 FEW016CB 03/01 Q1014=
METAR EGSS 110920Z 29007KT CAVOK 05/03 Q1016=

0000029000
997
FTCN31 CWAO 110900 AAA
TAF AMD CYQQ 110923Z 1109/1206 15020G30KT 1SM RA BR OVC007 TEMPO
     1109/1112 P6SM NSW SCT007 OVC025
    FM111200 18008KT P6SM SCT030 BKN120
    FM111800 15010G20KT P6SM SCT030 BKN200 TEMPO 1118/1206 P6SM VCSH
    RMK NXT FCST BY 111200Z=

0000068800
998
FASN53 ESWI 110700 AAA
ESAA GAMET AMD VALID 110800/111400 ESSA- 
SWEDEN FIR/E BLW FL125 
SECN I 
SFC WSPD: NIL 
SFC VIS: 08/14 3000-5000 M RA 
SIGWX: NIL 
SIG CLD: 08/14 BKN 500/1000 FT AGL 
ICE: 08/12 MOD 3000FT AGL/ABV FL125 12/14 MOD 2500FT AGL/ABV FL125 
TURB: NIL 
MTW: NIL 
SIGMET APPLICABLE: AT TIME OF ISSUE NIL 
SECN II 
PSYS: SEE SIGNIFICANT WEATHER CHARTS 
WIND/T: 08/11 2000 FT 260/35 KT PS02 FL050 270/35 KT MS02 FL100 
270/35 KT MS10 
11/14 2000 FT 260/30 KT PS01 FL050 270/25 KT MS03 FL100 250/25 KT 
MS11 
CLD: SEE SIGNIFICANT WEATHER CHARTS 
FZLVL: 08/11 3000 FT AGL 11/14 2500 FT AGL 
MNM QNH: 1002 HPA 
VA: NIL

0000048400
999
SAUK32 EGGY 110920
METAR EGAA 110920Z 22006KT 5000 OVC002 01/01 Q1016=
METAR EGAC 110920Z 19008KT 170V240 9999 FEW009 SCT015 02/00
    Q1016=
METAR EGFF 110920Z 30006KT 9999 FEW029 04/03 Q1019=
METAR EGGW 110920Z 28009KT CAVOK 04/03 Q1016=
METAR EGLC 110920Z NIL=
METAR EGNM 110920Z 26008KT 240V310 9999 -SHRA FEW014CB SCT028
    03/01 Q1014=
METAR EGNX 110920Z 26011KT 9999 FEW020 03/02 Q1016=
METAR EGPD 110920Z 27012KT CAVOK 03/M02 Q1008 NOSIG=

0000047600
000
SAUK33 EGGY 110920
METAR EGGD 110920Z 23005KT CAVOK 04/03 Q1018=
METAR EGGP 110920Z 26011KT 9999 -SHRA FEW012CB SCT038 05/03
    Q1016=
METAR EGHI 110920Z 31006KT 280V340 CAVOK 05/03 Q1018 =
METAR EGNS 110920Z 28012KT 9999 FEW013 04/03 Q1016 NOSIG=
METAR EGNT 110920Z 25012KT 9999 FEW015 02/01 Q1012=
METAR EGNV 110920Z 26010KT 9999 FEW035 04/00 Q1013=
METAR COR EGPB 110920Z 27021KT 9000 -SHRA FEW013 FEW018CB SCT030
     05/03 Q1002 NOSIG=

0000039900
001
SAUK34 EGGY 110920
METAR EGHE 110920Z 01004KT 9999 FEW028 08/04 Q1020=
METAR EGHK 110920Z NIL=
METAR EGHQ 110920Z 35003KT 9999 FEW031 06/03 Q1020=
METAR EGJA 110920Z 34008KT 310V030 9999 FEW010 08/05 Q1019=
METAR EGJB 110920Z 34007KT 9999 FEW010 08/05 Q1020=
METAR EGJJ 110920Z 01005KT 9999 FEW018 08/04 Q1020 NOSIG=
METAR EGTE 110920Z 31003KT 9999 FEW025 03/02 Q1019=

0000039500
002
SAUK35 EGGY 110920
METAR EGHH 110920Z 31006KT CAVOK 05/04 Q1019=
METAR EGKA 110920Z NIL=
METAR EGKB 110920Z 29008KT 9999 FEW012 05/04 Q1017 =
METAR EGLF 110920Z 29005KT CAVOK 05/03 Q1018=
METAR EGMC 110920Z NIL=
METAR EGMD 110920Z 30012KT 9999 FEW016 09/07 Q1017=
METAR EGMH 110920Z 28012KT 9999 FEW015 07/05 Q1016 =
METAR EGTC 110920Z 27006KT CAVOK 04/04 Q1016=

0000042200
003
SAUK36 EGGY 110920
METAR EGBE 110920Z 22006KT 9999 FEW020 03/02 Q1016=
METAR EGBJ 110920Z 21004KT 9999 FEW030 04/02 Q1018=
METAR EGCN 110920Z 25003KT 9999 SCT034 04/02 Q1016=
METAR EGSC 110920Z 27007KT 240V300 CAVOK 05/03 Q1016=
METAR COR EGSD 110920Z 29012KT 9999 CAVOK 06/05 Q1014 NOSIG=
METAR EGSH 110920Z 29010KT 9999 FEW022 06/04 Q1015=
METAR EGVN 110920Z NIL=
METAR EGWU 110920Z NIL=

0000053500
004
SAUK37 EGGY 110920
METAR EGAE 110920Z 22009KT 9999 FEW012 03/02 Q1015=
METAR EGNC 110920Z 24006KT 9999 FEW015 00/00 Q1014=
METAR EGNH 110920Z 32010KT 9999 FEW009 SCT013 BKN018 05/03 Q1016=
METAR EGNJ 110920Z 25008KT 9999 FEW036 05/03 Q1014=
METAR EGNO 110920Z NIL=
METAR EGNR 110920Z 26007KT 9999 VCSH FEW018 SCT028 05/03 Q1017=
METAR EGPE 110920Z 21009KT 9999 FEW010 FEW025CB 01/00 Q1009=
METAR EGPI 110920Z 29015KT 9999 SCT038 SCT048 05/02 Q1014=
METAR EGPN 110920Z 30004KT 9999 FEW011 01/00 Q1010=

0000047200
005
SAUK38 EGGY 110920
METAR EGEC 110920Z NIL=
METAR EGEO 110920Z 26006KT 9999 FEW008 FEW015CB 04/01 Q1012=
METAR EGPA 110920Z 26007KT 9999 VCSH FEW010 FEW014CB 03/01 Q1005=
METAR EGPC 110920Z AUTO 29012KT 9999 -RA SCT010/// BKN017///
    01/00 Q1007=
METAR EGPL 110920Z AUTO 29014KT 9999 // FEW043/// 05/01 Q1011=
METAR EGPM 110920Z NIL=
METAR EGPO 110920Z 23004KT 9999 VCSH FEW008 SCT012CB SCT020 02/01
    Q1009=
METAR EGPU 110920Z NIL=

0000011500
006
SAMS34 WMKK 110900 RRA
METAR WBKW 110900Z 05003KT 9999 -RA FEW016CB SCT027 BKN140 25/24
Q1009=

0000045200
007
SASW32 LSSW 110920
METAR LSGC 110920Z VRB03KT CAVOK 03/02 Q1018=
METAR LSGS 110920Z VRB01KT 9999 FEW150 SCT200 02/01 Q1019=
METAR LSZG 110920Z 24005KT 0250 FG VV002 02/02 Q1019 NOSIG=
METAR LSZR 110920Z VRB01KT 0400 R10/0750N FG VV002 03/02 Q1018 NOSIG
    RMK D=
METAR LSZS 110920Z VRB01KT 9999 BKN090 M04/M04 Q1019 R03/39//99=
METAR LSZC 110920Z AUTO 19003KT 130V210 0300 FG VV002 03/03 Q1019=
METAR LSZL 110920Z NIL=

0000088400
008
FTBZ31 KWBC 110924
TAF
TAF SBCG 110930Z 1112/1212 35006KT 9999 FEW040 TX33/1118Z
      TN23/1209Z
      TEMPO 1116/1203 35016KT 8000 TSRA SCT030 FEW040CB
      TEMPO 1203/1211 6000 RA BKN010 BKN030 RMK PCD=
TAF SBFI 110930Z 1112/1212 11006KT 9999 FEW030 TX35/1118Z
      TN24/1209Z
      TEMPO 1120/1203 06015KT 6000 TSRA BKN030 FEW035CB PROB40
      TEMPO 1203/1212 3 000 RA BKN010 BKN020 RMK PCD=
TAF SBPA 110930Z 1112/1212 01006KT 9999 FEW040 TX28/1118Z
      TN21/1209Z
      BECMG 1114/1116 SCT035
      TEMPO 1116/1120 35015KT 8000 TSRA BKN030 FEW040CB T=
TAF SBPA 110930Z 1112/1212 01006KT 9999 FEW040 TX28/1118Z
      TN21/1209Z
      BECMG 1114/1116 SCT035
      TEMPO 1116/1120 35015KT 8000 TSRA BKN030 FEW040CB T EMPO
      1123/1210 20015KT 3000 TSRA BKN010 BKN020 FEW040CB PROB40
      1210/1212 8000 BKN010 RMK PCD=

0000038500
009
FTUS41 KWBC 110924 AAA
TAF AMD
KGSP 110922Z 1109/1206 05005KT 2SM -SHRA BR VCTS OVC005CB
      TEMPO 1109/1111 1SM +TSRA BR OVC004CB
     FM111100 18007KT 1SM SHRA BR OVC003 WS020/21035KT
     FM111500 20012G19KT 2SM SHRA BR VCTS OVC004CB
     FM111900 22013G22KT 4SM -SHRA BR OVC020
     FM112100 24010KT P6SM BKN040
     FM112300 26010KT P6SM SCT050=

0000029300
010
FTUS43 KWBC 110924 AAA
TAF AMD
KOAJ 110921Z 1109/1206 18010KT 5SM BR SCT007 OVC020
     FM111300 19015G25KT P6SM VCSH SCT020 BKN035
     FM112100 20016G25KT 3SM -RA VCTS BKN020CB
     FM120300 24010G15KT 5SM BR VCSH SCT015 BKN035 AMD LTD TO CLD
      VIS AND WIND=

0000010100
011
SAIO31 KWBC 110900 RRE
METAR
VRMM 110900Z 06013KT 9999 FEW018 31/25 Q1010 NOSIG=

0000079400
012
SASN32 ESWI 110920
METAR ESKN 110920Z 03008KT 4500 -SN BKN007 M02/M03 Q1000
R26/720155=
METAR ESOE 110920Z AUTO 06011KT 4000NDV -SN FEW005/// SCT008///
BKN009/// M04/M05 Q1000=
METAR ESOK 110920Z AUTO 06007KT 6000 -FZDZ FEW006/// SCT009///
OVC011/// M04/M04 Q0999=
METAR ESOW 110920Z AUTO 02007KT 9999NDV FZUP FEW011/// OVC028///
M05/M07 Q1002=
METAR COR ESSA 110920Z 36008KT 9999 SCT008 BKN033 M03/M04 Q1001
R01L/520170 R08/520164 R01R/////// NOSIG=
METAR ESSB 110920Z 01005KT 9999 FEW003 SCT006 M03/M04 Q1001
R30/29//72=
METAR ESSD 110920Z AUTO 02005KT 7000 -SN FEW001/// SCT010///
OVC027/// M08/M10 Q1002=
METAR ESSP 110920Z AUTO 04007KT 2600NDV -SN OVC006/// M01/M01
Q1000=
METAR ESSV 110920Z 24014KT 9999 DZ BKN022 05/04 Q1000 R21/29//95=

0000023500
013
FTUS72 KWBC 110924 AAA
TAF AMD
KMLU 110921Z 1109/1206 28007KT P6SM SCT025 BKN090
      TEMPO 1109/1111 BKN025
     FM111100 26005KT P6SM SKC
     FM111800 28014G22KT P6SM SKC
     FM120100 28006KT P6SM SKC=

0000059300
014
FTUS71 KWBC 110924 AAA
TAF AMD
KEWN 110921Z 1109/1206 18010KT 5SM BR SCT008 OVC020
     FM111400 19014G23KT P6SM VCSH SCT025 BKN035
     FM112100 20016G25KT 3SM -RA VCTS BKN020CB
     FM120300 25010G15KT 5SM BR VCSH SCT015 BKN035=
KGSP 110922Z 1109/1206 05005KT 2SM -SHRA BR VCTS OVC005CB
      TEMPO 1109/1111 1SM +TSRA BR OVC004CB
     FM111100 18007KT 1SM SHRA BR OVC003 WS020/21035KT
     FM111500 20012G19KT 2SM SHRA BR VCTS OVC004CB
     FM111900 22013G22KT 4SM -SHRA BR OVC020
     FM112100 24010KT P6SM BKN040
     FM112300 26010KT P6SM SCT050=

00000000