0000012600
055
SACN31 CWAO 110600 CCB
METAR CYQQ 110600Z CCB 15018G24KT 2SM RA BR OVC008 06/06 A2942 RMK
SF8 R20 SLP963=

0000033000
056
SAAO30 GOOY 110600 RRA
METAR GOSS 110600Z 04004KT CAVOK 14/14 Q1014=
METAR GOOK 110600Z 08008KT 8000 NSC 17/13 Q1013=
METAR GOTT 110600Z 04006KT CAVOK 22/10 Q1012=
METAR GOGG 110600Z 02006KT CAVOK 18/09 Q1013=
METAR GOGS 110600Z 36006KT CAVOK 18/14 Q1012=
METAR GOTK 110600Z 16004KT CAVOK 21/10 Q1011=

0000057500
057
SASG21 GOOY 110600
METAR GOSS 110600Z 04004KT CAVOK 14/14 Q1014=
METAR GOSP 110600Z 36004KT CAVOK 15/11 Q1014=
METAR GOOG 110600Z 06002KT 8000 NSC 16/12 Q////=
METAR GOSM 110600Z 34004KT CAVOK 18/09 Q1013=
METAR GOOD 110600Z 36004KT 8000 NSC 16/12 Q1013=
METAR GOOK 110600Z 08008KT 8000 NSC 17/13 Q1013=
METAR GOTT 110600Z 04006KT CAVOK 22/10 Q1012=
METAR GOGG 110600Z 02006KT CAVOK 18/09 Q1013=
METAR GOGS 110600Z 36006KT CAVOK 18/14 Q1012=
METAR GOGK 110600Z VRB02KT 8000 NSC 18/10 Q1011=
METAR GOTK 110600Z 16004KT CAVOK 21/10 Q1011=

0000176400
058
FTIN31 VABB 111500 RRA
TAF VAAH 111500Z 1118/1224 02006KT 3000 FU/HZ
    BECMG 1201/1203 34003KT 1500 HZ/BR FEW025 SCT080 
    BECMG 1204/1206 04008KT 4000 FU/HZ BECMG 1207/1209  
    05010KT 5000 NSC=
TAF VABB 111500Z 1118/1224 02006KT 3000 FU NSC BECMG 1122/1124
    33006KT BECMG 1201/1203 00000KT BECMG 1204/1206 33003KT BECMG
    1216/1218 02006KT BECMG 1219/1221 00000KT BECMG 1222/1224
     33006KT=
TAF VANP 111500Z 1118/1300 02006KT 3500 HZ FEW100
     BECMG 1201 1203 1500 BR
     BECMG 1204 1206 05006KT 3000 HZ
     BECMG 1207 1209 4000 HZ
     BECMG 1212 1214 3000 HZ=
TAF VECC 111500Z 1118/1224 00000KT 1800 HZ NSC
     BECMG 1122/1124 1000 MIFG
     BECMG 1200/1202 0500 FG
     BECMG 1203/1205 36006KT 1800 BR
     BECMG 1206/1208 2500 HZ/FU
     BECMG 1215/1217 1400 BR=
TAF VEPT 111500Z 1118/1224 05003KT 1600 BR /-RA FEW018 SCT100 BECMG
     1200/1202 00000KT 0800 FG FEW020 SCT100 BECMG 1205/1207 30003KT
     1500 BR FEW020 SCT100 BECMG 1208/1210 27005KT 2000 BR SCT020
     SCT100 BECMG 1212/1214 27003KT 1500 BR FEW020 SCT100=
TAF VIAR 111500Z 1118/1224 00000KT 2000 BR NSC
     BECMG 1200/1201 0800 MIFG
     BECMG 1204/1205 VRB02KT 1500 BR
     BECMG 1207/1208 29005KT 3000 HZ FEW030 SCT100
     BECMG 1217/1218 00000KT 20000 BR
     BECMG 1233/1223 0800 MIFG=
TAF VIBN 111500Z 1118/1203 05004KT 0800 MIFG SCT020 BKN100 BECMG
    1200/1202 VRB02KT 0200 FG VV/// TEMPO 1118/1203 1000 RA/TSRA
    FEW030CB OVC090=
TAF VIDP 111500Z 1118/1224 00000KT 0800 MIFG NSC
     BECMG 1200/1201 0300 FG
     BECMG 1204/1205 26004KT 1000 FU
     BECMG 1207/1208 30006KT 2000 HZ FEW030 SCT100
     BECMG 1217/1218 00000KT 0800 MIFG
     BECMG 1222/1223 0300 FG=

0000047700
059
SXXX32 EUMS 111704
262AD2C2
OT12 ID:PK-ORMA-10 DT:2014 01 11 17 03
:PRS /1 08195 08189 08177 08189 08198 08175 08178 08162 08148 08159 08143 08157 08163 08191 08184 08177 08168 08154 08160 08154 08144 08135 08162 08170 08150 08163 08161 08147 08139 08138
:RAD /1 ///// ///// ///// ///// ///// ///// ///// ///// ///// ///// ///// ///// ///// ///// ///// ///// ///// ///// ///// ///// ///// ///// ///// ///// ///// ///// ///// ///// ///// /////
:BAT 12.6V
0000012000
060
SPUS41 KWBC 110623
SPECI
KLUK 110619Z AUTO 16005KT 8SM VCTS -RA SCT021 BKN048 OVC070 09/09
A2972=

0000010000
061
SPUS42 KWBC 110623
SPECI
KPDK 110619Z AUTO 10004KT 3/4SM BR OVC002 09/08 A2996=

0000012200
062
SPUS43 KWBC 110623
SPECI
KDLH 110619Z 26004KT 1/4SM R09/2000V2400FT -FZDZ FZFG VV002
M03/M04 A2941=

0000010000
063
SAUS71 KWBC 110600 RRH
METAR
KLCK 110615Z AUTO 18011KT 10SM OVC020 11/08 A2973=

0000051200
064
SAFI32 EFHK 110620
METAR EFHA 110620Z AUTO 36005KT 9999 -SHSN OVC013 
M07/M08 Q0999=
EFHF 110620Z 34011KT 9999 BKN009 M04/M06 Q0998=
METAR EFKA 110620Z AUTO 04010KT 5000 -SN OVC019 
M09/M11 Q1002=
EFKK 110620Z AUTO 05011KT 010V080 7000 -SN FEW034 BKN050 OVC065
M11/M13 Q1004=
EFMA 110620Z 29002KT 6000 -SN FEW025 OVC060 M02/M02 Q0999=
METAR EFPO 110620Z AUTO 10006KT 9999 OVC007/// M04/M06 Q0999 
R12/29//95=
EFSI 110620Z AUTO 03005KT 350V060 9999 -SN OVC014 M08/M10 Q1000=

0000008900
065
SAMP31 LMMM 110630 RRA
METAR HLLT 110620Z
16005KT CAVOK 09/05 Q1023=

0000009500
066
SAUK32 EGGY 110620 RRA
METAR EGFF 110620Z AUTO 29009KT 9999 NCD 04/03 Q1016=

0000012500
067
SAUK37 EGGY 110620 RRA
METAR EGAE 110620Z 25008KT 230V300 9999 -RA FEW012 SCT015 BKN043
    03/02 Q1013=

0000079900
068
SAEG32 HECA 110500
METAR HEMM 110500Z 24006KT 9999 BKN020 11/09 Q1025 NOSIG=
METAR HEAX 110500Z 00000KT 9999 SCT020 09/07 Q1024 NOSIG=
METAR HEAL 110500Z NIL=
METAR HELX 110500Z 00000KT CAVOK       07/05 Q1024 NOSIG=
METAR HESN 110500Z 02003KT CAVOK       09/04 Q1023 NOSIG=
METAR HEGN 110500Z 31008KT CAVOK       13/08 Q1024 NOSIG=
METAR HEPS 110500Z 36009KT 9999 SCT025 16/14 Q1024 NOSIG=
METAR HETB 110500Z NIL=
METAR HESH 110500Z 33005KT 9999 FEW020 13/02 Q1022 NOSIG=
METAR HEAT 110500Z 28002KT 8000 NSC    05/04 Q1025 NOSIG=
METAR HEBA 110500Z 00000KT 9999 FEW020 10/09 Q1025 NOSIG=
METAR HEBL 110500Z NIL=
METAR HESC 110500Z 30006KT 9999 SCT025 06/02 Q1024 NOSIG=
METAR HESG 110500Z NIL=
METAR HEMA 110500Z 31009KT CAVOK       14/00 Q1020 NOSIG=

0000080300
069
SAEG32 HECA 110500 CCA
METAR HEMM 110500Z 24006KT 9999 BKN020 11/09 Q1025 NOSIG=
METAR HEAX 110500Z 00000KT 9999 SCT020 09/07 Q1024 NOSIG=
METAR HEAL 110500Z NIL=
METAR HELX 110500Z 00000KT CAVOK       07/05 Q1024 NOSIG=
METAR HESN 110500Z 02003KT CAVOK       09/04 Q1023 NOSIG=
METAR HEGN 110500Z 31008KT CAVOK       13/08 Q1024 NOSIG=
METAR HEPS 110500Z 36009KT 9999 SCT025 16/14 Q1024 NOSIG=
METAR HETB 110500Z NIL=
METAR HESH 110500Z 33005KT 9999 FEW020 13/02 Q1022 NOSIG=
METAR HEAT 110500Z 28002KT 8000 NSC    05/04 Q1025 NOSIG=
METAR HEBA 110500Z 00000KT 9999 FEW020 10/09 Q1025 NOSIG=
METAR HEBL 110500Z NIL=
METAR HESC 110500Z 30006KT 9999 SCT025 06/02 Q1024 NOSIG=
METAR HESG 110500Z NIL=
METAR HEMA 110500Z 31009KT CAVOK       14/00 Q1020 NOSIG=

0000009800
070
SARW20 HRYR 110630
METAR
HRYR 110630Z 00000KT 5000 SCT023  20/17 Q1022 NOSIG=

0000008700
071
SAAL41 DAMM 110600 RRH
METAR DAEN 110600Z 00000KT CAVOK 08/03 Q1020=

0000015300
072
FTMC31 GMMC 110400 RRB
TAF GMMX 110400Z 1106/1212 24006KT 8000 SCT026 SCT100 TEMPO 1114/1120
32012KT TEMPO 1204/1210 3000 BR BKN015=

0000019900
073
FCDL34 EDZO 110500 RRA
TAF EDHL 110617Z 1106/1115 22010KT 8000 BKN015 TEMPO 1106/1110 4000
     RA BKN007 BECMG 1109/1112 22015G30KT BKN012 TEMPO 1112/1115 4000
     RA BKN007=

0000043000
074
SABX31 EBBR 110620
METAR EBAW 110620Z 22006KT 9999 BKN007 04/02 Q1015 NOSIG=
METAR EBBR 110620Z 23006KT 9999 BKN007 04/03 Q1015 NOSIG=
METAR EBCI 110620Z 21009KT 9999 FEW005 05/04 Q1015 TEMPO BKN006=
METAR EBLG 110620Z 19010KT CAVOK 05/03 Q1015 NOSIG=
METAR EBOS 110620Z 20010KT 4000 BR FEW005 BKN008 04/02 Q1015 TEMPO
     SCT008=
METAR ELLX 110620Z VRB02KT 4000 RA SCT010 BKN025 02/02 Q1015 NOSIG=

00000000