0000023400
995
NOUK32 EGGY 110741
SADIS GATEWAY MONITOR
INTERNAL ALARM MESSAGE
AERODROME NOT RECEIVED

SKBO FT LAST RECEIVED AT 101000Z
VTSP FT LAST RECEIVED AT 102300Z
ZSPD FT LAST RECEIVED AT 110324Z
END OF MESSAGE

0000008700
996
SAAL40 DAMM 110730 RRA
METAR DABB 110730Z 22007KT CAVOK 08/06 Q1017=

0000008700
997
SAAL31 DAAA 110730 RRB
METAR DABB 110730Z 22007KT CAVOK 08/06 Q1017=

0000030000
998
SAAO33 GOOY 110730
METAR GQPP 110730Z NIL=
METAR GQNN 110730Z 03006KT 6000 NSC 14/13 Q1015 NOSIG=
METAR GQPA 110730Z NIL=
METAR GQNI 110730Z NIL=
METAR GQPZ 110730Z NIL=
METAR GUCY 110730Z NIL=
METAR GUXN 110730Z NIL=
METAR GULB 110730Z NIL=
METAR GUNZ 110730Z NIL=

0000065000
999
SAEE31 LOWM 110730
METAR UACK 110730Z 18005MPS 3600 SHSN DRSN OVC024CB M08/M09
Q1019 R20/452042 NOSIG RMK QFE740/0987=
METAR UACP 110730Z 17005MPS 7000 -SN FEW033 OVC100 M06/M08
Q1018 R23/4/3537 NOSIG RMK QFE751/1002=
METAR UAII 110730Z 15003MPS CAVOK 05/M09 Q1023 R10/0///70
NOSIG RMK QFE731/0975=
METAR UADD 110730Z 20005MPS 9999 NSC 02/M08 Q1022 NOSIG RMK
QFE709/0945=
METAR UASK 110730Z VRB01MPS 9999 SCT098 BKN230 M02/M13 Q1032
R12/820350 NOSIG RMK QFE748/0998=
METAR UASP 110730Z NIL=
METAR UAOO 110730Z 21006MPS 5000 BR BKN330 M01/M05 Q1020
R24/3///55 NOSIG RMK QFE753/1005=
METAR UAKD 110730Z NIL=

0000029300
000
SAIO31 KWBC 110700 RRG
METAR
WBGG 110730Z 34010KT 310V020 9999 FEW015CB SCT020 BKN150 27/23
     Q1009 NOSIG=
WBKK 110730Z 17002KT 9999 FEW014 FEW017CB BKN130 OVC260 28/24
     Q1009 NOSIG=
WBSB 110730Z 30008KT 9999 SCT016 FEW017CB BKN280 29/25 Q1009
     NOSIG=

0000039700
001
SAPO31 LPMG 110730
METAR LPBJ 110730Z NIL=
METAR LPFR 110730Z 08007KT 9999 BKN023 13/10 Q1016=
METAR LPMA 110730Z 28003KT 270V340 9999 FEW015 13/11 Q1017 RS27002KT
0529005KT 2330004KT=
METAR LPPR 110730Z 12005KT 020V160 4000 BR FEW003 SCT004 05/05 Q1016=
METAR LPPS 110730Z VRB01KT 9999 FEW015 12/12 Q1017=
METAR LPPT 110730Z 01003KT 350V090 9999 FEW005 09/08 Q1016=

0000027500
002
SAPO32 LPMG 110730
METAR LPAZ 110730Z 23018KT 9999 BKN008 16/15 Q1006=
METAR LPFL 110730Z NIL=
METAR LPHR 110730Z 31019KT 280V340 9999 FEW020 SCT050 12/07 Q1006=
METAR LPLA 110730Z NIL=
METAR LPPD 110730Z 27015KT 9999 -RA FEW010 SCT035 14/13 Q1004=

0000045900
003
SAID31 WIII 110730
METAR WIII 110730Z 33011KT 9999 FEW018CB SCT020 31/24 Q1007 RMK CB TO
S AND SW= 
METAR WARR 110730Z 07007KT 9000 FEW020CB FEW020 30/22 Q1007BECMG
FM02030 18010KT 9999= 
METAR WIDD 110730Z 04011KT 6000 RA SCT014 28/24 Q1009= 
METAR WADD 110730Z 35004KT 300V020 9999 FEW015CB SCT017 28/23 Q1007
NOSIG= 
METAR WAAA 110730Z 31006KT 9999 FEW019 30/23 Q1008= 
METAR WIHH NIL=
METAR WIMM NIL=
METAR WABB NIL=

0000013300
004
SPCN31 CWAO 110736
SPECI CYXX 110736Z 36006KT 3SM RA FEW015 OVC025 05/ A2947 RMK SF2NS6
 DP 4.0 VIA CYXC SLP980=

0000036000
005
SAID32 WIII 110730
METAR WIOO 110730Z 00000KT 9999 BKN010 32/23 Q1007 = 
METAR WIPT 110730Z 29004KT 240V330 9999 SCT020 30/22 Q1008= 
METAR WIBB 110730Z 35010KT 9999 SCT017 31/24 Q1007 NOSIG= 
METAR WIPP 110730Z 00000KT 9999 SCT008 26/25 Q1009= 
METAR WAMM NIL=
METAR WIDN NIL=
METAR WAOO NIL=
METAR WALL NIL=
METAR WADL NIL=

0000010900
006
SAFR32 LFPW 110730 RRA
METAR LFCK 110730Z AUTO 05005KT 9999 -DZ BKN027 OVC032 08/06 Q1020=

0000267500
007
SPUS70 KWBC 110740
SPECI
KABY 110736Z 19011KT 4SM BR OVC004 19/19 A2999 RMK AO2=
KDCU 110736Z AUTO 18014KT 5SM VCTS -RA BR OVC005 14/14 A2972 RMK
     AO2 LTG DSNT ALQDS TSB30RAE0658B29 CIG 004V010 P0003=
KFAY 110736Z AUTO 15004KT 2 1/2SM BR OVC007 17/16 A3001 RMK AO2
     VIS 2V4=
KFMY 110736Z AUTO 14004KT 8SM BKN004 21/21 A3005 RMK AO2=
KFPR 110736Z 00000KT 1 1/4SM BR CLR 19/18 A3008 RMK AO2=
KHIE 110736Z AUTO 00000KT 9SM SCT023 M04/M06 A3014 RMK AO2
     T10441061=
KHQM 110736Z AUTO 17033G44KT 2SM -SN OVC014 A2957 RMK AO2 PK WND
     17047/0721 UPB0658E00SNE0658B00 P0001 TSNO $=
KIPT 110736Z AUTO 04004KT 3SM -RA BR FEW004 SCT010 OVC023 02/01
     A2999 RMK AO2 UPE0655RAB02 P0005=
KLCH 110736Z AUTO 24007KT 1SM BR VV002 18/18 A2985 RMK AO2 LTG
     DSNT E AND SE T01780178=
KLNR 110736Z AUTO 26007KT 4SM BR OVC004 01/00 A2943 RMK AO2 CIG
     003V008 T00060000=
KOSH 110736Z 21004KT 1 1/2SM BR OVC002 02/01 A2939 RMK AO2
     T00170006=
KSPI 110737Z AUTO 21006KT 3/4SM BR VV002 05/05 A2950 RMK AO2=
KTHV 110736Z AUTO 09003KT 3/4SM -RA BR OVC005 01/01 A3002 RMK AO2
     P0001 T00110011=
KVSF 110736Z AUTO 00000KT 1 3/4SM BR OVC003 M03/M04 A3017 RMK AO2
     T10331039=
PANW 110733Z AUTO 00000KT 1 1/4SM BR OVC001 M09/M09 A2940 RMK AO2
     TSNO $=
KNFE 110735Z AUTO 16010KT 1 3/4SM +RA BR FEW005 SCT012 OVC020
     18/16 A3008 RMK AO2 P0030 T01780156=
KCMI 110737Z AUTO 18011KT 1/2SM R32R/2200V2400FT -RA FG VV002
     04/04 A2949 RMK AO2 P0002=
KECG 110737Z AUTO 16014G22KT 2 1/2SM +RA BR SCT005 BKN015 OVC035
     17/17 A3007 RMK AO2 P0017 T01720167 TSNO=
KENW 110737Z AUTO 22009KT 1 3/4SM -RA BR OVC005 04/03 A2944 RMK
     AO2 RAB33 P0001 T00390028=
KEWB 110737Z AUTO 15004KT 1 1/4SM R05/6000VP6000FT BR BKN003
     OVC046 07/07 A3021 RMK AO2 VIS 1V2 RAB19E29 P0000
     T00720067=
KHKS 110737Z AUTO 25013G25KT 10SM -RA FEW009 BKN014 OVC034 19/18
     A2977 RMK AO2 PK WND 20029/0713 WSHFT 0710 P0014=
KMSL 110737Z AUTO 18008KT 5SM RA BR FEW024 SCT070 OVC090 15/13
     A2971 RMK AO2 LTG DSNT NE-S TSE31 PRESFR P0015=
KOPF 110737Z AUTO 13005KT 10SM -RA SCT017 BKN023 BKN029 23/23
     A3009 RMK AO2 RAB24 P0000 $=
KSET 110737Z AUTO 29011KT 10SM SCT008 SCT014 OVC021 06/05 A2954
     RMK AO2 T00560050 TSNO=
KUZA 110737Z AUTO 00000KT 1/2SM FG VV002 06/06 A2999 RMK AO2
     RAE0655 P0000 T00610056=
KVPC 110737Z AUTO VRB04KT 9SM -RA BKN006 BKN014 OVC085 17/10 A2989
     RMK AO2 LTG DSNT NE AND E P0008=
KVRB 110737Z 00000KT 3/4SM BR VV009 19/19 A3008 RMK AO2=
KZZV 110737Z AUTO 19007KT 10SM BKN025 BKN033 OVC110 10/07 A2972
     RMK AO2=

0000009400
008
SPUS42 KWBC 110740
SPECI
KFPR 110736Z 00000KT 1 1/4SM BR CLR 19/18 A3008=

0000011600
009
SPUS42 KWBC 110740
SPECI
KHSV 110736Z AUTO 15015G21KT 5SM -TSRA BR BKN007 OVC010 14/13
A2971=

0000009700
010
SPUS42 KWBC 110740
SPECI
KLCH 110736Z AUTO 24007KT 1SM BR VV002 18/18 A2985=

0000009600
011
SPUS44 KWBC 110740
SPECI
KHQM 110736Z AUTO 17033G44KT 2SM -SN OVC014 A2957=

0000010600
012
SACA33 KWBC 110700 RRC
METAR
TNCM 110700Z 08008KT 9999 BKN017 24/21 Q1017 A3003 RERA=

0000011800
013
FCMP31 LMMM 110800
TAF LMML 110800Z 1109/1118 18007KT 9999 FEW020 =
TAF HLLT NIL=
TAF HLLB NIL=

0000020800
014
FTCN38 CWAO 110700
TAF CZUM 110740Z 1108/1120 24005KT P6SM OVC030 TEMPO 1108/1120 5SM
     -SN BKN020
     BECMG 1116/1118 11005KT
    RMK FCST BASED ON AUTO OBS. NXT FCST BY 111400Z=

00000000