0000043200
735
SAGR33 LGAT 110520
METAR LGBL 110520Z 26006KT 9999 FEW018 SCT180 05/03 Q1022 NOSIG=
METAR LGHI 110520Z NIL=
METAR LGKC 110520Z NIL=
METAR LGKF 110520Z AUTO VRB03KT //// // ////// 13/09 Q1022
     RE//=
METAR LGKP 110520Z NIL=
METAR LGKZ 110520Z AUTO VRB03KT //// // ////// 05/00 Q1022
     RE//=
METAR LGMK 110520Z NIL=
METAR LGNX 110520Z NIL=
METAR LGPA 110520Z NIL=
METAR LGSO 110520Z NIL=

0000011800
736
SATH41 VTBB 110500 RRA
METAR VTPM 110500Z VRB03KT 6000 FEW035 26/17 Q1017 A3003
RMK/RWY27 INFO F=

0000009300
737
SAGR31 LGAT 110520 RRA
METAR LGLM 110520Z 00000KT 6000 BKN018 12/10 Q1021=

0000034600
738
SANT31 KWBC 110500 RRB
METAR
BGBW 110525Z NIL=
BGCO 110525Z NIL=
BGGH 110520Z AUTO 10004KT 9999NDV SCT039/// M08/M16 Q0993=
BGJN 110520Z AUTO 08002KT 9999NDV BKN150/// M10/M20 Q0994=
BGKK 110520Z AUTO 10009KT 9999NDV BKN052/// M04/M09 Q0994=
BGSF 110520Z AUTO 06006KT 020V080 9999NDV BKN180/// M17/M23
     Q0995=

0000019700
739
SANL32 EHDB 110525
METAR EHEH 110525Z AUTO 22007KT 9999 OVC006 03/02 Q1014 
YLO=
METAR EHKD 110525Z AUTO 23018KT 4900 -RA BKN005 BKN006 OVC009 07/06
Q1011 RERA REDZ 
YLO=

0000011100
740
SADL34 EDZO 110520 RRA
METAR EDNY 110520Z AUTO VRB03KT 0150 R24/0500N FG BKN001 02/01 Q1018=

0000056600
741
FTPA31 KWBC 110527
TAF
PHJH 110525Z 1106/1206 NIL=
PHJR 110525Z 1106/1206 VRB03KT P6SM FEW030 FEW050
     FM112100 14007KT P6SM SCT025 SCT050
     FM120500 VRB04KT P6SM SCT025 BKN050=
PHMK 110525Z 1106/1206 06007KT P6SM FEW025 SCT050
     FM112100 13009KT P6SM VCSH SCT025 SCT050
     FM120500 VRB05KT P6SM SCT030 SCT050=
PMDY 110525Z 1106/1206 12012KT P6SM FEW035
     FM111600 15012KT P6SM FEW035 SCT060
     FM112300 17010KT P6SM SCT025 SCT050
     FM120500 20008KT P6SM VCSH SCT025 BKN050 AMD LTD TO CLD AND
      WIND=

0000011500
742
SAMJ41 LWSK 110530
METAR LWSK 110530Z 00000KT 0500 R34/0650V0750N FG VV001 00/M00 Q1025
NOSIG=

0000045800
743
FTFR31 LFPW 110500 RRA
TAF LFPG 110500Z 1106/1212 VRB03KT 5000 BKN040 TEMPO 1106/1109 4000
BR BKN002 PROB40 TEMPO 1106/1109 2000 BR BKN002 PROB30 TEMPO
1106/1109 0500 FG VV/// BECMG 1107/1109 22005KT PROB40 1109/1113 4000
 BR BKN005 BECMG 1113/1115 8000 PROB30 TEMPO 1113/1118 BKN006 BECMG
1118/1120 05005KT BECMG 1122/1124 4000 BR BKN010 TEMPO 1202/1209 0900
 FG BKN002 PROB30 1209/1212 3000 -DZ BR BKN005 TX08/1113Z TN01/1124Z=

0000009100
744
SAMJ41 LWOH 110530
METAR LWOH 110530Z 33002KT 6000 BKN001 M00/M01 Q1023=

0000107700
745
FTHW31 KWBC 110527
TAF
PHJR 110525Z 1106/1206 VRB03KT P6SM FEW030 FEW050
     FM112100 14007KT P6SM SCT025 SCT050
     FM120500 VRB04KT P6SM SCT025 BKN050=
PHKO 110525Z 1106/1206 13005KT P6SM FEW030 SCT060
     FM112000 26008KT P6SM SCT030 SCT050
     FM120500 VRB05KT P6SM FEW025 SCT050=
PHLI 110525Z 1106/1206 04018G24KT P6SM VCSH FEW010 SCT022 BKN040
      TEMPO 1106/1108 4SM SHRA BKN020
     FM110800 07012KT P6SM VCSH SCT020 BKN050
     FM111800 13010KT P6SM SCT025 BKN050
     FM120200 15007KT P6SM SCT020 BKN050=
PHNL 110525Z 1106/1212 06007KT P6SM FEW030 SCT050
     FM110900 35005KT P6SM FEW030 SCT050
     FM112100 13008KT P6SM SCT025 SCT050
     FM120600 VRB04KT P6SM FEW030 SCT050=
PHOG 110525Z 1106/1206 05011KT P6SM FEW030 SCT050
     FM111000 13005KT P6SM FEW025
     FM112100 05011KT P6SM SCT025 SCT050 AMD LTD TO WX VIS AND
      WIND
      1109/1116=
PHTO 110525Z 1106/1206 24005KT P6SM FEW025 FEW050
     FM112100 13007KT P6SM VCSH SCT030 SCT050
     FM120500 24005KT P6SM VCSH SCT025 BKN050=

0000078600
746
FTMX31 KWBC 110527
TAF
TAF MMCZ 110524Z 1106/1212 12005KT P6SM SCT015
     FM111500 12010KT P6SM SCT015
      TEMPO 1118/1122 BKN015
     FM120000 36010KT P6SM BKN015 PROB40 1202/1206 5SM RA=
TAF MMMD 110524Z 1106/1212 12005KT P6SM SKC TX29/1118Z TN20/1112Z
      TEMPO 1110/1114 1SM BR OVC003
     FM111500 08010KT P6SM BKN020
     FM120000 36012KT P6SM OVC020
      TEMPO 1200/1204 5SM TSRA BKN020CB=
TAF MMTP 110524Z 1106/1212 00000KT P6SM SCT200
     FM111800 24010KT P6SM SCT020
     FM120000 00000KT P6SM SCT030=
TAF MMUN 110524Z 1106/1212 13005KT P6SM SCT015 TX28/1118Z
      TN22/1112Z
     FM111500 12010KT P6SM SCT015
      TEMPO 1118/1122 BKN015
     FM120000 35012KT P6SM BKN015
      TEMPO 1201/1205 5SM TARA BKN015CB=

0000063800
747
FTMX41 KWBC 110527
TAF
TAF MMCV 110524Z 1106/1206 27005KT 6SM HZ SCT030
     FM111600 05010KT P6SM SCT200
     FM120100 06005KT 6SM HZ SCT015 BKN200=
TAF MMMA 110524Z 1106/1206 00000KT 1/16SM FG VV002
     FM111400 00000KT 1SM BR BKN015
     FM111600 34010KT P6SM SCT020 BKN200
     FM120100 03015KT P6SM BKN200=
TAF MMNL 110524Z 1106/1206 00000KT P6SM SCT160 BKN200
      TEMPO 1111/1115 3SM BR BKN010
     FM111900 04010KT P6SM BKN200
     FM120100 13005KT P6SM SCT200=
TAF MMRX 110524Z 1106/1206 00000KT P6SM SKC
     FM111800 35012KT P6SM BKN200
     FM120100 06005KT P6SM SCT100 BKN200=

0000011700
748
FTPA32 KWBC 110527
TAF
NSTU 110525Z 1106/1206 36012G18KT P6SM VCSH SCT014 BKN040
      OVC100=

0000038400
749
FTUS51 KWBC 110527 AAA
TAF AMD
KAND 110525Z 1105/1124 06003KT 3SM -SHRA BR OVC004
      TEMPO 1105/1107 2SM TSRA BR OVC006CB
     FM110900 15003KT 1 1/2SM SHRA BR OVC003
     FM111100 18007KT 1 1/2SM SHRA BR OVC002 WS020/21035KT
     FM111700 23014G24KT 2SM SHRA BR OVC004
     FM112000 25012G21KT 6SM SHRA OVC017
     FM112200 25011G19KT P6SM BKN250=

0000059100
750
FTUS51 KWBC 110527
TAF
KFLO 110526Z 1106/1206 00000KT 1/4SM FG BKN005
     FM111500 20012G18KT P6SM VCSH BKN009
      TEMPO 1117/1121 21018G28KT 2SM +SHRA BKN012CB
     FM112200 24014G23KT P6SM VCSH BKN020
     FM120100 26014G24KT P6SM SCT020=
KMYR 110526Z 1106/1206 16006KT P6SM FEW012 SCT080
     FM110800 18009KT 2SM BR BKN006
     FM111600 19012G20KT P6SM VCSH BKN018
      TEMPO 1120/1124 20020G30KT 2SM +SHRA BKN012CB
     FM120000 21012G19KT P6SM VCSH BKN025
     FM120300 25013G23KT P6SM SCT030 AMD LTD TO CLD VIS AND WIND
      TIL 111100=

0000082400
751
FTUS52 KWBC 110527
TAF
KBBG 110526Z 1106/1206 26007KT P6SM SKC
     FM111000 28009KT P6SM BKN015
     FM111500 27010KT P6SM FEW020
     FM111800 27012G22KT P6SM SKC
     FM112300 26009KT P6SM SKC=
KLBT 110526Z 1106/1206 19007KT P6SM OVC007
     FM110700 17007KT 3SM BR BKN004
     FM111500 20012G18KT P6SM VCSH BKN009
      TEMPO 1118/1122 21018G28KT 2SM +SHRA BKN012CB
     FM112200 23014G23KT P6SM VCSH BKN020
     FM120100 25014G24KT P6SM SCT050=
KTRI 110525Z 1106/1206 VRB03KT P6SM SCT022 OVC050 WS020/18040KT
      TEMPO 1106/1109 4SM -RA BR OVC022
     FM110900 23007KT 4SM BR VCSH SCT012 OVC025 WS020/18040KT
     FM111300 23012G20KT 3SM SHRA BR SCT004 OVC008 WS020/22050KT
     FM112200 26012G20KT P6SM VCSH SCT015 OVC025
     FM120200 26010KT P6SM SCT025 OVC050=

0000148600
752
FTUS53 KWBC 110527
TAF
KBPI 110524Z 1106/1206 36008KT P6SM BKN040
     FM111200 VRB06KT P6SM BKN040
     FM112000 18010KT P6SM VCSH BKN040
     FM120300 25014KT 4SM -SN BKN020=
KCNU 110523Z 1106/1206 24007KT P6SM FEW027 SCT060
     FM111000 28011KT P6SM SCT120
     FM111400 29012KT P6SM SKC
     FM120000 VRB05KT P6SM SKC=
KCOD 110524Z 1106/1206 27011G20KT P6SM SCT100
      TEMPO 1106/1110 VRB06KT
     FM111200 26018G30KT P6SM SCT100 BKN200
     FM120000 26018G30KT P6SM BKN100 AMD LTD TO CLD VIS AND WIND=
KHUT 110523Z 1106/1206 32005KT P6SM SKC
     FM111600 31012G20KT P6SM SKC
     FM112200 28008KT P6SM SKC
     FM120100 VRB05KT P6SM SKC=
KJAC 110524Z 1106/1206 19011G18KT P6SM VCSH SCT025 BKN035
     FM111200 19015KT 3SM -SN SCT010 BKN022
     FM112000 19015G25KT 1 1/2SM -SN BLSN SCT007 OVC014
     FM120000 19015G25KT 1SM -SN BLSN OVC007 AMD LTD TO CLD VIS
      AND
      WIND=
KJLN 110526Z 1106/1206 26005KT P6SM SKC
     FM110700 26009KT P6SM BKN015
     FM111300 26010KT P6SM FEW020
     FM111600 27014G21KT P6SM SKC
     FM112300 26009KT P6SM SKC=
KLND 110524Z 1106/1206 VRB06KT P6SM SCT200
     FM111500 VRB05KT P6SM SCT110 BKN200
     FM112300 24012G20KT P6SM SCT110 BKN200=
KRIW 110524Z 1106/1206 29014KT P6SM SCT200
     FM111000 26007KT P6SM SCT200
     FM111500 VRB05KT P6SM SCT120 BKN200
     FM112000 20008KT P6SM SCT120 BKN200
     FM112300 24012G22KT P6SM SCT120 BKN200=

0000092300
753
FTUS53 KWBC 110527 RRA
TAF
KRKS 110524Z 1106/1206 25020G30KT P6SM SCT026 BKN035
      TEMPO 1107/1111 BKN026
     FM111200 24015KT P6SM SCT030 BKN040
     FM112000 24014G22KT P6SM SCT050
     FM120100 24014KT P6SM SCT040 BKN060=
KRSL 110523Z 1106/1206 30008KT P6SM FEW100
     FM111500 29015G22KT P6SM SKC
     FM112100 28012KT P6SM SKC
     FM120100 VRB05KT P6SM SKC
     FM120400 19012KT P6SM SCT250=
KSLN 110523Z 1106/1206 28007KT P6SM FEW100
     FM111500 29015G22KT P6SM SKC
     FM112200 27012KT P6SM SKC
     FM120100 VRB05KT P6SM SKC=
KVEL 110523Z 1106/1206 29006KT P6SM BKN200
     FM111200 VRB03KT P6SM VCFG SCT020 SCT150
     FM111900 VRB03KT P6SM FEW020 SCT200
     FM120000 35003KT P6SM BKN100=
KWRL 110524Z 1106/1206 16007KT P6SM FEW110
     FM111200 VRB06KT P6SM BKN110
     FM112100 20012KT P6SM SCT110 BKN200
     FM120200 17008KT P6SM BKN140=

0000023500
754
FTUS53 KWBC 110527 CCA
TAF COR
KCNU 110525Z 1106/1206 28007KT P6SM SCT020 BKN050
      TEMPO 1106/1108 BKN020
     FM111000 28011KT P6SM SCT120
     FM111400 29012KT P6SM SKC
     FM120000 VRB05KT P6SM SKC=

00000000