0000009500
755
SPUS31 KWBC 110835
SPECI
KMSP 110831Z 28004KT 3SM BR OVC006 M02/M02 A2947=

0000010200
756
SPUS41 KWBC 110835
SPECI
KCEF 110831Z AUTO 33002KT 1 1/2SM BR OVC002 00/00 A3013=

0000091800
757
SAKZ31 RUMS 110830
METAR UAAA 110830Z VRB01MPS 2700 FU FEW100 BKN200 M03/M12 Q1021
8891//60 NOSIG=
METAR UACC 110830Z 18008MPS 2000 -SN DRSN OVC020 M07/M09 Q1021
R22/4/0340 NOSIG RMK QFE735/0980=
METAR UAKK 110830Z 18007MPS 9999 SCT038 OVC110 M10/M13 Q1023
R23/850555 NOSIG RMK QFE720/0960=
METAR UAOO 110830Z 22005MPS 5000 BR BKN330 M00/M04 Q1020 R24/CLRD70
NOSIG RMK QFE753/1004=
METAR UARR 110830Z 17011MPS 5000 BR OVC002 00/00 Q1007 R22/720156
TEMPO 18018MPS 3000 -SNRA BR OVC002 RMK QBB070 QFE752/1002=
METAR UATE 110830Z 12006MPS 9999 OVC016 04/02 Q1014 R12/0///70 NOSIG
RMK QFE759/1012=
METAR UATG 110830Z 19006MPS 5000 BR OVC033 03/03 Q1014 R14/19//65
NOSIG RMK QFE762/1017=
METAR UATT 110830Z 24004MPS 9999 OVC004 M00/M00 Q1013 R13/39//40
NOSIG RMK QBB120 QFE740/0987=
METAR UAUU 110830Z 18006MPS 9999 OVC023 M07/M09 Q1014 R15/CLRD60
NOSIG RMK QFE744/0992=

0000021600
758
SATA31 RUMS 110830
METAR UTDD 110830Z 09004MPS 9999 BKN190 07/M11 Q1024 09CLRD70 NOSIG
RMK QFE700/0933=
METAR UTDL 110830Z 08011G15MPS 8000 FEW200 03/M10 Q1024 NOSIG RMK
QFE729/0972 8809//70=

0000021400
759
SAAY31 RUMS 110830
METAR UDYZ 110830Z 00000MPS 2000 -SN BR BKN009 OVC016 M09/M12 Q1026
R09/490440 NOSIG=
METAR UDSG 110830Z 00000MPS 1000 R02/1000N BR BKN010 M13/M15 Q1020
R02/CLRD70 NOSIG=

0000017200
760
SAKY31 RUMS 110830
METAR UCFM 110830Z VRB01MPS 6000 NSC 00/M12 Q1021 R08/CLRD70 NOSIG=
METAR UCFO 110830Z 29002MPS CAVOK 02/M10 Q1024 R12/CLRD70 NOSIG=

0000024200
761
SARE20 FMEE 110830
METAR FMCZ 110830Z 07004KT 040V120 9999 SCT022 SCT100 BKN300 31/24
Q1013 NOSIG=
METAR FMEE 110830Z 10024KT 9999 FEW028 SCT260 31/20 Q1014 NOSIG=
METAR FMEP 110830Z AUTO 26007KT 9999 NCD 30/23 Q1014=

0000011900
762
FCUK32 EGGY 110800 RRA
TAF EGNR 110834Z 1109/1116 VRB03KT 9999 FEW025 BECMG 1109/1112
    30010KT=

0000012500
763
SAIO31 KWBC 110800 RRG
METAR
FMMI 110830Z 11005KT 9999 SCTT017CB SCT023 BKN230 27/22 Q1021
     NOSIG=

0000009800
764
SANL33 EHDB 110825 RRA
METAR EHJR 110825Z AUTO 29020G22KT  08/06 Q1010 W10/H20=

0000010200
765
SANL33 EHDB 110825 RRB
METAR EHSC 110825Z AUTO 22027G30KT 6000 06/06 Q1012 W08/H17=

0000046000
766
FTUS31 KWBC 110836 AAA
TAF AMD
KMCI 110833Z 1109/1206 28004KT P6SM OVC007
     FM111030 26012KT P6SM SCT150=
KTEB 110832Z 1109/1206 VRB03KT 3SM -DZ BR OVC003
      TEMPO 1109/1111 SCT003 BKN015 OVC040
     FM111100 19010KT 4SM BR SCT015 OVC040 WS020/19050KT
     FM111400 19009KT 3SM -RA BR SCT010 OVC040 WS015/19050KT
     FM111800 18015G21KT 1SM +RA BR OVC004 WS015/19050KT
     FM120300 23010KT 3SM -SHRA BR SCT007 OVC030=

0000013100
767
FTUS43 KWBC 110836 AAA
TAF AMD
KMKC 110833Z 1109/1206 27005KT P6SM OVC009
     FM111030 26010KT P6SM SCT150=

0000037800
768
FTUS71 KWBC 110836 AAA
TAF AMD
KTEB 110832Z 1109/1206 VRB03KT 3SM -DZ BR OVC003
      TEMPO 1109/1111 SCT003 BKN015 OVC040
     FM111100 19010KT 4SM BR SCT015 OVC040 WS020/19050KT
     FM111400 19009KT 3SM -RA BR SCT010 OVC040 WS015/19050KT
     FM111800 18015G21KT 1SM +RA BR OVC004 WS015/19050KT
     FM120300 23010KT 3SM -SHRA BR SCT007 OVC030=

0000019900
769
FTUS73 KWBC 110836 CCA
TAF COR
KSBN 110835Z 1109/1206 20011KT 1/2SM -SHRA FG OVC002
     FM111400 25013G20KT 3SM BR VCSH BKN008 OVC015
     FM120100 27011G17KT 5SM BR OVC015=

0000035700
770
FTUS73 KWBC 110836 AAA
TAF AMD
KMCI 110833Z 1109/1206 28004KT P6SM OVC007
     FM111030 26012KT P6SM SCT150=
KMKC 110833Z 1109/1206 27005KT P6SM OVC009
     FM111030 26010KT P6SM SCT150=
KSBN 110834Z 1109/1206 20011KT 1/2SM FG OVC002
     FM111400 25013G20KT 3SM BR VCSH BKN008 OVC015
     FM120100 27011G17KT 5SM BR OVC015=

0000035800
771
FTUS74 KWBC 110836 AAA
TAF AMD
KMFR 110833Z 1109/1206 12003KT 3SM BR BKN003 OVC200
      TEMPO 1109/1110 1/2SM FG OVC003
     FM111000 15009KT P6SM VCSH SCT025 BKN080 WS020/20050KT
     FM111400 16008G16KT P6SM -RA BKN025 OVC040
     FM111900 23008G16KT P6SM -RA BKN030 OVC045
     FM120300 28010G20KT P6SM -SHRA BKN025 OVC040=

0000012100
772
SPUS41 KWBC 110835
SPECI
KORH 110831Z AUTO 19006KT 1/2SM R11/2000V2600FT -RA FG VV002 03/03
A3013=

0000010200
773
SANL33 EHDB 110825 RRC
METAR EHSA 110825Z AUTO 22027G31KT 3300 08/07 Q1013 W09/H19=

0000013100
774
SASP31 LEMM 110830 RRA
METAR LEVX 110830Z VRB02KT 0350 R20/0700U R02/0400U FG VV001
07/07 Q1017 BECMG 3000 BR=

00000000