0000058600
595
SANO38 ENMI 110750
METAR ENDR 110750Z AUTO 07023KT M04/M08 Q1001=
METAR ENEK 110750Z 30022KT 9999 FEW025 06/01 Q1005 W08/S4=
METAR ENGC 110737Z 06018KT 9999 VCSH FEW010 BKN016 02/M01 Q0998
           W06/S5=
METAR ENHE 110750Z 10033KT 9999 BKN025 M02/M08 Q1003 W///S5=
METAR ENOA 110750Z NIL=
METAR ENSL 110750Z 28034KT 9999 -SHRA FEW025CB BKN035 06/02 Q1002
           W05/S5=
METAR ENFB 110750Z AUTO 06018KT 9999NDV -SHRA BKN012/// 02/00 Q0998
           W///S5=
METAR ENSF 110750Z AUTO 06018KT 9999NDV BKN010/// 02/00 Q0998
           W///S5=

0000010600
596
SAQB31 LQBK 110800
METAR LQBK 110800Z 16003KT 0600 FG BKN002 03/03 Q1021 BECMG 1500 BR=

0000064500
597
SANO33 ENMI 110750
METAR ENAT 110750Z VRB02KT 8000 FEW003 BKN005 M16/M18 Q1020 RMK WIND
           700FT 13006KT=
METAR ENBL 110750Z VRB02KT 5000 -SN FEW010 BKN030 M03/M03 Q0994=
METAR ENEV 110750Z 13011KT CAVOK M08/M15 Q1016 RMK WIND 1400FT
           10016KT=
METAR ENFL 110750Z NIL=
METAR ENKB 110750Z 09006KT 050V120 9999 FEW008 SCT013 M05/M08 Q0999=
METAR ENKR 110750Z 16009KT 4000 -SN FEW005 SCT020 BKN026 M20/M22
           Q1017 RMK WIND 775FT 24013KT=
METAR ENML 110750Z 05006KT 9999 FEW020 BKN040 M04/M08 Q0999=
METAR ENNA 110750Z VRB02KT CAVOK M18/M19 Q1018 RMK WIND 1800FT
           31005KT=

0000044200
598
SAFI33 EFHK 110750
EFJO 110750Z AUTO 35010KT 310V030 9999 -SN FEW014 BKN023 M09/M11
Q0998=
EFLP 110750Z AUTO 36010KT 340V070 9999 -SG BKN013 M06/M09 Q0997=
EFMI 110750Z AUTO VRB05KT 9999 -SN OVC011 M07/M09 Q0999=
EFSA 110750Z AUTO 33008KT 300V360 8000 -SN FEW014 OVC017 M08/M09
Q0998=
EFUT 110750Z AUTO 36009KT 340V040 9999 OVC011 M06/M08 Q0998=
EFVR 110750Z AUTO 36009KT 330V040 1700 SN OVC015 M08/M11 Q0999=

0000045100
599
SANO35 ENMI 110750
METAR ENMS 110750Z 19013G33KT 070V240 9999 FEW040 M10/M18 Q1010 RMK
           WIND 412FT VRB08G20KT=
METAR ENRM 110750Z NIL=
METAR ENRS 110750Z 07022KT 9999 FEW043 M04/M12 Q1011=
METAR ENSK 110750Z NIL=
METAR ENSO 110750Z NIL=
METAR ENST 110750Z VRB05KT 9999 FEW005 M07/M16 Q1008 RMK WIND 300FT
           VRB17G38KT RMK TURB WRNG - SEE IPPC=
METAR ENVD 110750Z 24006KT 9999 SCT012 M06/M09 Q1016=

0000008900
600
SABZ21 SBAR 110800
METAR SBAR 110800Z 10007KT 9999 SCT015 25/20 Q1013=

0000009100
601
SAMJ41 LWOH 110800
METAR LWOH 110800Z 29001KT 0300 FG VV001 02/01 Q1024=

0000076000
602
SANO39 ENMI 110750
METAR ENNE 110750Z 09023KT 9999 BKN026 M03/M08 Q1006 W02/S/=
METAR ENQR 110750Z AUTO 08008KT 9999NDV -SHRA SCT014/// OVC043///
           02/M02 Q0998 W///S/=
METAR ENSE 110750Z AUTO 07020KT 9999NDV -SHRA FEW008/// SCT017///
           BKN038/// 00/M02 Q0998 W///S5=
METAR ENQC 110750Z AUTO 02009KT 9999NDV OVC016/// 02/M01 Q0996
           W///S4=
METAR ENQA 110750Z AUTO VRB04KT 9999NDV FEW010/// SCT015/// BKN021///
           04/03 Q0997 W04/S4=
METAR ENHM 110750Z 27026KT 9999 -SHRA FEW026 SCT052 06/02 Q0998
           W08/S5=
METAR ENVH 110750Z AUTO 30019KT 9999NDV FEW031/// 06/00 Q1005
           W///S4=
METAR ENLA 110750Z AUTO 29026KT 9999NDV SCT029/// 06/01 Q1004
           W///S4=

0000047400
603
FTCN36 CWAO 110700 AAA
TAF AMD CYHU 110755Z 1107/1206 VRB03KT 6SM BR SCT030 TEMPO 1107/1111
     3SM BR BKN020
    FM111100 10008KT 5SM -FZDZ BR SCT003 OVC020 TEMPO 1111/1113 2SM
     -FZRA BR OVC003
    FM111300 14015KT 11/2SM -RA BR OVC005
    FM111500 18020KT 3SM -RA BR SCT009 OVC012
     BECMG 1117/1119 16015KT
    FM120300 20015G25KT P6SM OVC015
     BECMG 1204/1206 23025G35KT
    RMK FCST BASED ON AUTO OBS. NXT FCST BY 111200Z=

0000083400
604
SAIY31 LIIB 110750
METAR LIEA 110750Z 02005KT CAVOK 08/08 Q1020=
METAR LIEE 110750Z 32003KT CAVOK 08/07 Q1020=
METAR LIEO 110750Z 21002KT 5000 2000E R05/1400VP1500U BR NSC 03/03
Q1022=
METAR LIMC 110750Z 05003KT 2000 BR SCT012 BKN040 07/07 Q1022 NOSIG=
METAR LIME 110750Z VRB02KT 4000 BR BKN010 08/06 Q1022=
METAR LIMF 110750Z 00000KT 4000 BR BKN030 07/05 Q1022=
METAR LIMJ 110750Z 05004KT 9999 FEW015 BKN030 12/09 Q1022=
METAR LIML 110750Z VRB02KT 3000 BR BKN010 BKN050 08/08 Q1022 NOSIG=
METAR LIRA 110745Z 02001KT 8000 FEW010 SCT060 04/04 Q1022=
METAR LIRF 110750Z 08004KT 8000 FEW030 06/06 Q1023 NOSIG=
METAR LIRN 110750Z 01002KT 9999 SCT050 09/06 Q1023=
METAR LIRP 110745Z 13004KT 9999 SCT050 07/06 Q1022 NOSIG=
METAR LIRQ 110750Z 00000KT 5000 2200NE MIFG FEW005 BKN040 11/11
Q1022=

0000030800
605
SANO34 ENMI 110750
METAR ENBN 110750Z 08012KT 040V100 CAVOK M06/M14 Q1007=
METAR ENBV 110750Z NIL=
METAR ENFG 110750Z NIL=
METAR ENHF 110750Z 00000KT CAVOK M10/M12 Q1016 RMK WIND 1254FT
           22007KT=
METAR ENRA 110750Z 08010KT CAVOK M10/M22 Q1012=
METAR ENSH 110750Z NIL=

0000075100
606
SAIY32 LIIB 110750
METAR LIBD 110750Z 22005KT 4000 BR SCT005 07/07 Q1023=
METAR LIBR 110745Z 29003KT 9999 FEW020 09/07 Q1023 NOSIG=
METAR LICC 110750Z NIL=
METAR LICJ 110750Z 02003KT 340V090 CAVOK 13/10 Q1021=
METAR LIPB 110750Z VRB02KT 9999 FEW040 BKN053 05/04 Q1023=
METAR LIPE 110750Z VRB02KT 5000 BR BKN050 07/07 Q1022=
METAR LIPH 110745Z /////KT 2500 BR FEW020 SCT050 BKN060 07/07 Q1022
=
METAR LIPK 110750Z 00000KT 1300 R12/P1500N BR SCT025 BKN040 08/05
Q1022=
METAR LIPQ 110750Z VRB02KT 1500 MIFG SCT010 BKN050 07/05 Q1022=
METAR LIPR 110745Z 00000KT 3000 BR OVC040 09/09 Q1022=
METAR LIPX 110745Z 22001KT 1200 R04/P1500N BR BKN050 08/06 Q1023=
METAR LIPZ 110750Z VRB01KT 3000 BR BKN043 08/07 Q1022=

0000008700
607
SAIY32 LIIB 110750 RRA
METAR LICC 110750Z 23003KT CAVOK 07/04 Q1023=

0000074900
608
SAGR31 LGAT 110750
METAR LGAD 110750Z 00000KT 9999 FEW025 14/09 Q1023=
METAR LGAV 110750Z VRB01KT 9999 FEW010 12/10 Q1023 NOSIG=
METAR LGIR 110750Z 17007KT 9999 FEW025 SCT180 16/11 Q1023 NOSIG=
METAR LGKL 110750Z 00000KT 9999 FEW080 13/09 Q1024=
METAR LGKO 110750Z 19007KT 9999 FEW018 BKN020 14/06 Q1023=
METAR LGKR 110750Z 00000KT 9999 SCT030 BKN070 12/10 Q1023 NOSIG=
METAR LGLM 110750Z VRB02KT 6000 SCT010 BKN020 12/10 Q1023=
METAR LGRP 110750Z VRB02KT 9999 FEW018 BKN040 14/10 Q1022 NOSIG=
METAR LGSA 110750Z 26015KT 9999 FEW020 BKN170 16/10 Q1022=
METAR LGSM 110750Z 26003KT 9999 FEW020 SCT030 BKN080 14/10 Q1021=
METAR LGTS 110750Z VRB02KT 0200 R16/0600 R34/2000 FG BKN002 06/05
      Q1024 BECMG 0600=

0000070100
609
SANO31 ENMI 110750
METAR ENAN 110750Z 11011KT 9999 FEW045 M06/M12 Q1016 NOSIG=
METAR ENBR 110750Z 26007KT 9999 FEW008 SCT018 BKN027 05/03 Q0997
           TEMPO 4000 SHRA BKN012CB RMK WIND 1200FT 26016KT=
METAR ENBO 110750Z 11016KT CAVOK M07/M19 Q1012 NOSIG=
METAR ENDU 110750Z VRB01KT 9999 FEW040 M26/M29 Q1018 NOSIG=
METAR ENGM 110750Z 03006KT 5000 -SN BR FEW009 BKN011 M06/M07 Q0998
           NOSIG=
METAR ENOL 110750Z 10021KT 9999 FEW010 SCT080 M08/M13 Q1001 NOSIG=
METAR ENVA 110750Z 11005KT CAVOK M13/M17 Q1004 NOSIG RMK WIND 670FT
           11008KT=
METAR ENZV 110750Z 27011KT 9999 FEW020 SCT027 BKN040 06/03 Q1000
           TEMPO 4000 SHRA BKN012CB=

0000064900
610
SANO32 ENMI 110750
METAR ENAL 110750Z 10005KT 050V150 9999 SCT029 M02/M07 Q0998=
METAR ENCN 110750Z 27003KT 9999 BCFG FEW048 SCT098 02/01 Q1000=
METAR ENHD 110750Z 26017KT 9999 VCSH FEW012 BKN041 06/04 Q0999=
METAR ENRO 110750Z AUTO 10007KT 060V130 9999NDV FEW010/// OVC062///
           M16/M19 Q0999=
METAR ENRY 110750Z 34004KT 9999 MIFG NSC M01/M02 Q0998=
METAR ENSB 110750Z 23016KT 9999 FEW018 BKN025 M00/M06 Q1008 RMK WIND
           1400FT 22020G40KT=
METAR ENTC 110750Z VRB01KT 9999 FEW011 M13/M15 Q1018 NOSIG RMK WIND
           2600FT 12009KT=
METAR ENTO 110750Z 01007KT 0900 FZFG VV002 M02/M02 Q0997=

0000009400
611
SABZ20 SBEG 110754
METAR SBMN 110800Z 03004KT 9999 FEWBKN100 22/21
Q1010=

0000013700
612
SAUK31 EGGY 110750 CCB
METAR COR EGCC 110750Z 22007KT 9999 7000NW VCSH FEW014 BKN018TCU
     04/03 Q1014 TEMPO SHRA=

0000009800
613
SPUS43 KWBC 110755
SPECI
KGRB 110751Z AUTO 21007KT 3SM BR OVC003 01/01 A2939=

0000008900
614
SABA31 MYNN 110752
METAR MYNN 110800Z 12006KT 9999 FEW018 24/21 A3010=

00000000