0000139200
875
FTUS71 KWBC 110542 RRG
TAF
KORH 110539Z 1106/1206 24005KT 1/4SM -DZ FG OVC003
     FM111300 19009KT 1SM RA BR OVC008 WS020/19045KT
     FM111700 20014G25KT 3SM -RA BR OVC010 WS020/20050KT
     FM112300 20018G33KT 1SM -RA BR OVC008 WS020/20060KT
     FM120100 21016G30KT 2SM RA BR OVC008 WS020/22050KT
     FM120300 24013G22KT 3SM -SHRA BR OVC008=
KPOU 110541Z 1106/1206 00000KT 3/4SM BR OVC003
      TEMPO 1106/1108 1/2SM -DZ FG OVC002
     FM110800 VRB03KT 1SM -RA BR SCT002 OVC005 WS020/19050KT
     FM111400 18008KT 3/4SM -RA BR OVC003 WS020/20055KT
     FM112300 23010G18KT 1 1/2SM -RA BR SCT003 OVC006=
KPVD 110539Z 1106/1206 VRB03KT 1/4SM -RA FG OVC008
     FM111000 17007KT 1/4SM -RA FG OVC003 WS020/21035KT
     FM111400 18011KT 1SM -RA BR OVC008 WS020/19045KT
     FM111700 19016G27KT 3SM -RA BR OVC010 WS020/19055KT
     FM112300 19020G39KT 1SM -RA BR OVC008 WS020/20065KT
     FM120100 20018G40KT 2SM +RA BR OVC008 WS020/20060KT
     FM120400 22009KT P6SM RA OVC008=
KRDU 110539Z 1106/1206 VRB04KT 2SM -RA BR OVC002 WS010/19035KT
      TEMPO 1106/1110 1/2SM FG
     FM111000 14004KT 2SM -RA BR VV002 WS010/19040KT
      TEMPO 1110/1113 1/2SM FG
     FM111500 20015G28KT P6SM BKN008
      TEMPO 1117/1121 28025G40KT 2SM SHRA BR
     FM112100 25015G25KT 6SM -SHRA SCT025 OVC080
     FM120200 28012KT P6SM BKN080=

0000010400
876
SAUS71 KWBC 110500 RRH
METAR
KMTN 110539Z AUTO 00000KT 1/4SM FG OVC001 03/03 A3013=

0000010300
877
SAUS72 KWBC 110500 RRF
METAR
KBQK 110535Z AUTO 19006KT 2 1/2SM OVC003 18/18 A3008=

0000021400
878
SAUS73 KWBC 110500 RRH
METAR
KALN 110535Z AUTO 15007KT 2 1/2SM BR 06/05 A2956=
KIKK 110535Z AUTO 18012G18KT 2SM BR OVC002 04/04 A2955=
KSAW 110536Z AUTO 00000KT 1SM SN OVC006 M01/M02 A2943=

0000027900
879
FTMX54 MMMX 110542 COR
TAF COR MMUN 110542Z 1106/1212 13005KT P6SM SCT015 TX28/1118Z
TN22/1112Z
         FM111500 12010KT P6SM SCT015 
         TEMPO 1118/1122 BKN015 
         FM120000 35012KT P6SM BKN015 
         TEMPO 1201/1205 5SM TSRA BKN015CB=

0000008700
880
SARH31 LDZM 110530 RRA
METAR LDOS 110530Z 15007KT CAVOK 05/04 Q1023=

0000059500
881
FTPA31 KWBC 110542
TAF
TAF PGSN 110538Z 1106/1206 05014G24KT P6SM VCSH SCT020 BKN120
     FM110800 06011KT P6SM VCSH SCT020=
TAF PGUM 110538Z 1106/1212 06014KT P6SM VCSH SCT020
     FM110800 06011KT P6SM FEW020=
TAF PKMJ 110538Z 1106/1206 06012KT P6SM VCSH FEW015 SCT050=
TAF PKWA 110538Z 1106/1206 07013KT P6SM VCSH SCT025=
TAF PTKK 110538Z 1106/1206 04011KT P6SM VCSH SCT014 SCT120=
TAF PTRO 110538Z 1106/1206 07013G23KT P6SM VCSH SCT015CB BKN120
      TEMPO 1106/1110 -SHRA BKN015CB BKN120=
TAF PTYA 110538Z 1106/1206 07012G22KT P6SM VCSH SCT020 BKN120=

0000059500
882
FTPQ31 KWBC 110542
TAF
TAF PGSN 110538Z 1106/1206 05014G24KT P6SM VCSH SCT020 BKN120
     FM110800 06011KT P6SM VCSH SCT020=
TAF PGUM 110538Z 1106/1212 06014KT P6SM VCSH SCT020
     FM110800 06011KT P6SM FEW020=
TAF PKMJ 110538Z 1106/1206 06012KT P6SM VCSH FEW015 SCT050=
TAF PKWA 110538Z 1106/1206 07013KT P6SM VCSH SCT025=
TAF PTKK 110538Z 1106/1206 04011KT P6SM VCSH SCT014 SCT120=
TAF PTRO 110538Z 1106/1206 07013G23KT P6SM VCSH SCT015CB BKN120
      TEMPO 1106/1110 -SHRA BKN015CB BKN120=
TAF PTYA 110538Z 1106/1206 07012G22KT P6SM VCSH SCT020 BKN120=

0000142000
883
FTUS51 KWBC 110542
TAF
KACK 110539Z 1106/1206 19007KT 5SM BR OVC002
     FM110900 17009KT 1SM BR OVC002
     FM111200 17012KT 3SM -RA BR OVC008
     FM111700 18021G30KT 2SM -RA BR OVC008 WS020/19055KT
     FM112100 18026G40KT 1SM BR OVC008 WS020/20065KT
     FM120100 19028G44KT 2SM +RA BR OVC008 WS020/20065KT
     FM120400 20024G35KT 3SM -SHRA BR OVC008 WS020/21055KT=
KAND 110540Z 1106/1206 07004KT 3SM SHRA BR OVC002
      TEMPO 1106/1108 1SM TSRA OVC003CB
     FM111100 15006KT 1SM SHRA BR OVC002 WS020/20035KT
     FM111400 19009KT 1SM SHRA BR OVC003
     FM111800 21014G22KT 3SM SHRA OVC008
     FM111900 22013G21KT 4SM SHRA OVC040
     FM112000 24010KT P6SM BKN080
     FM112300 25008KT P6SM SCT250=
KAOO 110539Z 1106/1206 19005KT 1SM BR VCSH OVC003 WS019/21040KT
     FM111300 17013G27KT 3SM RA BR BKN009 OVC016 WS012/19045KT
     FM112300 26012G21KT 3SM -SHRA BR OVC015=
KAVL 110540Z 1106/1206 13005KT 3SM SHRA BR OVC003
     FM111000 17009KT 1SM SHRA BR OVC002
     FM111400 19013G21KT 1SM SHRA BR OVC003
     FM111700 30010KT 2SM SHRA BR OVC004
     FM111900 31012KT 4SM -SHRA OVC035
     FM120000 31014G22KT P6SM SCT040 BKN250=
KBFD 110539Z 1106/1206 15011G21KT 1SM BR OVC002
     FM110700 16009KT 2SM -RA BR BKN006 OVC009 WS019/21048KT
     FM111100 17014G27KT 2SM RA BR OVC009 WS012/19049KT
     FM120000 27010G18KT 4SM BR OVC003=

0000117500
884
FTUS51 KWBC 110542 RRA
TAF
KDAY 110539Z 1106/1206 17012KT 5SM -SHRA BR SCT007 OVC017
      TEMPO 1107/1109 2SM -SHRA BR BKN007 OVC012CB
     FM111300 20013KT P6SM OVC013
     FM111600 24016G26KT P6SM OVC015
     FM112300 25013KT P6SM OVC009
      TEMPO 1202/1206 5SM BR OVC004=
KFAY 110539Z 1106/1206 20004KT 2SM -RA BR OVC006
      TEMPO 1106/1110 1/2SM FG
     FM111000 20006KT 2SM BR OVC006
     FM111500 20015G28KT P6SM BKN008
      TEMPO 1118/1122 28025G40KT 2SM SHRA BR
     FM112200 25015G25KT 6SM -SHRA SCT025 OVC080
     FM120200 28012KT P6SM BKN080=
KGFL 110541Z 1106/1206 18004KT 6SM BR OVC012
      TEMPO 1107/1109 2SM -FZDZ BR BKN006
     FM110900 VRB03KT 1 1/2SM -FZDZ BR OVC006
     FM111100 17004KT 1SM -RA BR OVC005 WS020/19040KT
     FM111700 19008KT 3/4SM -RA BR OVC004 WS020/20045KT
     FM112300 23010KT 2SM -RA BR SCT004 OVC008=
KGMU 110540Z 1106/1206 03005KT 2SM SHRA BR OVC004
     FM111200 18007KT 1SM SHRA BR OVC002 WS020/21035KT
     FM111600 20012KT 2SM SHRA BR OVC003
     FM111900 22013G22KT 4SM SHRA OVC025
     FM112000 24010KT P6SM OVC045
     FM112300 26010KT P6SM SCT050=

0000144200
885
FTUS51 KWBC 110542 RRB
TAF
KHKY 110540Z 1106/1206 00000KT 3/4SM SHRA BR OVC002
     FM111300 18003KT 1/2SM SHRA FG OVC002 WS020/21040KT
     FM111600 20007KT 3/4SM SHRA BR OVC002 WS020/21040KT
     FM111900 22010KT 3SM SHRA OVC007
     FM112000 25009KT 4SM SHRA OVC012
     FM112100 26009KT P6SM OVC018
     FM112200 26008KT P6SM BKN045
     FM120300 27009KT P6SM SCT250=
KHYA 110539Z 1106/1206 20004KT 1/2SM FG OVC002
     FM111200 18012KT 1SM -RA BR OVC008 WS020/35040KT
     FM111800 19019G32KT 3SM -RA BR OVC010 WS020/19060KT
     FM112100 19024G35KT 2SM -RA BR OVC008 WS020/20070KT
     FM120100 19024G38KT 1SM RA BR OVC008 WS020/20065KT
     FM120400 21019G32KT 3SM -SHRA BR OVC008=
KIPT 110539Z 1106/1206 07005KT 1 1/2SM BR BKN004 OVC009
      WS020/19045KT
     FM111500 17012G24KT 3SM RA BR BKN009 OVC016 WS012/19045KT=
KJST 110539Z 1106/1206 17013KT 3/4SM BR VV002 WS019/21040KT
     FM111100 17016G32KT 2SM RA BR BKN009 OVC016 WS012/19049KT
     FM112200 25012G21KT 1SM -SHRA BR OVC015=
KMHT 110539Z 1106/1206 00000KT 3SM -FZDZ BR OVC015
     FM111100 00000KT 2SM -FZRA BR OVC008 WS020/35030KT
     FM111300 VRB03KT 3SM -RA BR OVC008 WS020/19035KT
     FM111900 18012G21KT 3SM -RA BR OVC008 WS020/20050KT
     FM120000 19012G22KT 1SM +RA BR OVC008 WS020/20050KT
     FM120200 20010KT 2SM -RA BR OVC008 WS020/30040KT
     FM120400 21007KT 6SM -SHRA BR OVC008=

0000131500
886
FTUS51 KWBC 110542 RRC
TAF
KMPV 110539Z 1106/1206 16007KT P6SM BKN028 OVC035
     FM110800 16005KT 4SM -FZRA BR SCT007 BKN015 OVC025
     FM111300 17007KT 3SM -RA BR OVC007 WS020/20050KT
     FM111500 17009G18KT 3SM -RA BR BKN003 OVC009 WS020/20050KT
     FM112000 17008G18KT 2SM RA BR BKN003 OVC008 WS020/20055KT=
KPOU 110541Z 1106/1206 00000KT 3/4SM BR OVC003
      TEMPO 1106/1108 1/2SM -DZ FG OVC002
     FM110800 VRB03KT 1SM -RA BR SCT002 OVC005 WS020/19050KT
     FM111400 18008KT 3/4SM -RA BR OVC003 WS020/20055KT
     FM112300 23010G18KT 1 1/2SM -RA BR SCT003 OVC006=
KRWI 110539Z 1106/1206 16006KT 3SM -RA BR SCT006 OVC010
      WS010/18035KT
      TEMPO 1107/1111 1SM BR OVC006
     FM111100 18006KT 2SM BR OVC006
     FM111500 20015G28KT P6SM BKN008
     FM111900 20015G28KT P6SM BKN012
      TEMPO 1119/1123 28025G40KT 2SM SHRA BR
     FM112300 25015G25KT 6SM -SHRA SCT025 OVC080
     FM120200 28012KT P6SM BKN080=
KSLK 110539Z 1106/1206 23003KT 5SM BR OVC014
     FM110800 18009KT 5SM BR VCSH BKN015 OVC020 WS020/21045KT
      TEMPO 1108/1110 3SM -FZDZ BR BKN010 OVC015
     FM111000 20012G18KT 4SM -RA BR OVC008 WS020/22050KT
     FM111300 20012G20KT 3SM -RA BR OVC006 WS020/22055KT
     FM111800 21010G18KT 2SM RA BR BKN004 OVC006=

0000025600
887
FTUS51 KWBC 110542 RRD
TAF
KUNV 110539Z 1106/1206 31003KT 1 1/2SM BR VCSH OVC006
      WS015/20040KT
     FM110800 16007G15KT 6SM -DZ BR OVC012 WS015/20040KT
     FM111300 17013G27KT 3SM RA BR BKN009 OVC016
      WS012/19045KT=

0000126200
888
FTUS52 KWBC 110542
TAF
KABY 110538Z 1106/1206 11004KT 1/4SM FG OVC002
     FM111400 18010KT 2SM RA BR OVC004
     FM111800 24011KT 2SM TSRA OVC012CB
     FM112100 27015KT P6SM SCT025 BKN050
     FM120000 27008KT P6SM SCT250=
KAGS 110540Z 1106/1206 VRB04KT 1SM BR OVC003
      TEMPO 1106/1110 1/2SM -DZ FG VV001
     FM111200 20008KT 5SM BR VCSH OVC003
     FM111500 22014G25KT 3SM -SHRA BR BKN005 OVC015
     FM112200 25011G22KT P6SM BKN015 OVC050
     FM120000 26011G19KT P6SM SCT020 BKN120=
KCUB 110540Z 1106/1206 VRB04KT 1SM BR OVC003
      TEMPO 1106/1110 1/2SM -DZ FG VV001
     FM111300 18009G17KT 4SM BR VCSH OVC005
     FM111500 20015G25KT 3SM -SHRA BR BKN005 OVC015
     FM112300 25011G19KT P6SM BKN015 OVC050
     FM120100 26011G17KT P6SM SCT020 BKN120=
KCXP 110540Z 1106/1206 VRB04KT P6SM BKN200
     FM111300 20010G20KT P6SM FEW080 BKN140
     FM111800 24024G40KT P6SM FEW050 BKN080
     FM120200 26014G24KT P6SM FEW080 SCT180=
KDAB 110538Z 1106/1206 16004KT P6SM FEW080 SCT250
     FM110800 17004KT 5SM BR OVC005
     FM111400 20010G15KT P6SM SCT015 BKN150
      TEMPO 1114/1116 BKN015
     FM111600 21015G22KT P6SM SCT025 BKN060
     FM120000 23007KT P6SM VCSH SCT025 BKN150=

0000147600
889
FTUS52 KWBC 110542 RRA
TAF
KDNL 110540Z 1106/1206 VRB04KT 1SM BR VCSH OVC004
      TEMPO 1106/1110 1/2SM -DZ FG VV001
     FM111200 20008KT 5SM BR VCSH OVC005
     FM111500 22014G25KT 3SM -SHRA BR BKN005 OVC015
     FM112200 25011G22KT P6SM BKN015 OVC050
     FM120000 26011G19KT P6SM SCT020 BKN120=
KFMH 110539Z 1106/1206 17005KT 1/2SM FG OVC002
     FM110900 17010KT 1/4SM -RA FG VV001
     FM111200 19018KT 2SM -RA BR OVC008 WS020/19040KT
     FM111700 19021G33KT 3SM -RA BR OVC010 WS020/19055KT
     FM120000 19027G42KT 1SM RA BR OVC001 WS020/20070KT
     FM120200 19025G42KT 2SM +RA BR OVC008 WS020/20060KT
     FM120400 21020G32KT 5SM -SHRA BR OVC008=
KLNS 110539Z 1106/1206 08005KT 1 1/2SM RA BR OVC004 WS020/19045KT
      TEMPO 1106/1109 3/4SM -RA BR OVC004
     FM110900 15005KT 2SM -RA BR OVC010 WS016/19045KT
     FM111500 17014G24KT 3SM RA BR BKN009 OVC016 WS012/19047KT=
KMLB 110538Z 1106/1206 14003KT P6SM SCT015
     FM110800 16005KT 5SM BR FEW006 BKN010
     FM111400 19010G15KT P6SM SCT015 BKN150
      TEMPO 1114/1116 BKN015
     FM111600 20017G24KT P6SM SCT025 BKN080
     FM120000 23009KT P6SM SCT025 BKN150=
KOGB 110540Z 1106/1206 VRB04KT 1SM BR OVC003
      TEMPO 1106/1110 1/2SM -DZ FG VV001
     FM111300 18009G17KT 4SM BR VCSH OVC004
     FM111600 21014G25KT 3SM -SHRA BR BKN005 OVC015
     FM120000 24011G19KT P6SM BKN015 OVC050
     FM120200 25011G17KT P6SM SCT020 BKN120=

0000127300
890
FTUS52 KWBC 110542 RRB
TAF
KPBG 110539Z 1106/1206 15002KT P6SM SCT035 OVC050
     FM110800 15007KT P6SM VCSH SCT020 BKN030 OVC035
      TEMPO 1108/1110 4SM -FZDZ BR BKN015 OVC020
     FM111300 15010KT 3SM -RA BR OVC011 WS020/18050KT
     FM111500 16010G18KT 4SM -RA BR OVC008 WS020/18050KT
     FM111800 18010G16KT 3SM RA BR SCT004 BKN006 OVC008=
KPSF 110541Z 1106/1206 20006KT 1/2SM FZFG VV003
      TEMPO 1107/1109 3/4SM -FZDZ BR OVC002
     FM110900 15005KT 3/4SM -RA BR SCT002 OVC006
     FM111200 16008KT 1SM -RA BR OVC005 WS020/19040KT
     FM111700 18012G20KT 1 1/2SM -RA BR OVC004 WS020/19045KT
     FM112300 22012G22KT 1SM -RA BR OVC006=
KRUT 110539Z 1106/1206 15005KT P6SM BKN025 OVC035
     FM110700 13009G18KT 6SM BR VCSH SCT015 BKN020 OVC025
      TEMPO 1107/1109 -FZDZ BR OVC015
     FM111000 14015G25KT 5SM -RA BR BKN008 OVC015
     FM111400 15015G28KT 5SM -RA BR BKN005 OVC008 WS020/20055KT
     FM111900 15013G23KT 3SM RA BR OVC005 WS020/20055KT AMD LTD TO
      CLD VIS AND WIND=
KVRB 110538Z 1106/1206 13004KT P6SM SCT015
     FM110800 16005KT 5SM BR BKN010
     FM111400 18011G15KT P6SM SCT015 BKN150
     FM111600 19017G24KT P6SM SCT025 BKN080
     FM120000 21009KT P6SM SCT025 BKN150=

0000075600
891
FTUS53 KWBC 110542
TAF
KAUW 110539Z 1106/1206 11003KT 4SM -SN BR OVC009
      TEMPO 1106/1110 2SM -SN BR OVC004
     FM111000 29006KT 3SM -SN BR OVC004
     FM111500 28009KT 6SM -SN BR OVC015
     FM111800 29010KT P6SM SCT020 BKN040
     FM112300 26005KT P6SM BKN050=
KCWA 110539Z 1106/1206 11003KT 4SM -SN BR OVC006
      TEMPO 1106/1108 2SM -SN BR OVC004
     FM110800 29006KT 2SM -SN BR OVC004
     FM111500 28009KT 6SM -SN BR OVC015
     FM111800 29010KT P6SM SCT020 BKN040
     FM112300 26005KT P6SM BKN050 AMD LTD TO CLD VIS AND WIND TIL
      111200=
KGRI 110541Z 1106/1206 28008KT P6SM SKC
     FM111200 30014G19KT P6SM FEW100
     FM112200 27011KT P6SM SCT100
     FM120500 23010KT P6SM BKN080=

0000132800
892
FTUS54 KWBC 110542
TAF
KCOE 110540Z 1106/1206 19010KT P6SM -RA BKN028 OVC035
     FM111000 17012KT 6SM -RA BR BKN008 OVC018 WS020/22046KT
     FM111200 20025G35KT P6SM RA BKN010 OVC025 WS020/23054KT
     FM112100 20030G42KT P6SM -RA BKN019 BKN040
     FM120200 22024G35KT P6SM -SHSN SCT010 BKN025 AMD LTD TO CLD
      VIS AND WIND=
KDLS 110538Z 1106/1206 32007KT P6SM BKN050 BKN100
      TEMPO 1106/1110 5SM -RA BKN030 BKN050
     FM111000 VRB06KT P6SM SCT025 BKN050
     FM111500 31015G25KT P6SM BKN060=
KENV 110538Z 1106/1206 VRB04KT P6SM SKC
     FM112200 26010KT P6SM SCT080 BKN120
     FM120300 29015G30KT P6SM BKN100 AMD LTD TO CLD VIS AND WIND=
KLWS 110540Z 1106/1206 18008KT P6SM VCSH OVC060
     FM110700 16009KT P6SM -SHRA SCT035 OVC050
     FM111300 17017G26KT P6SM -SHRA BKN030 OVC050
     FM112100 22020G30KT P6SM VCSH BKN030 BKN050
     FM112300 26020G30KT P6SM SCT050 BKN080=
KOGD 110538Z 1106/1206 19007KT P6SM OVC060
     FM111500 17010KT P6SM SCT060 SCT100
     FM112300 20012G20KT P6SM SCT060 BKN100
     FM120300 22010G16KT P6SM -SHRA BKN050 OVC080=
KPDT 110538Z 1106/1206 20010KT P6SM VCSH BKN060 BKN100
     FM111000 20014G24KT P6SM VCSH SCT050 OVC100
     FM111800 24030G45KT P6SM -RA BKN050
     FM120200 28030G45KT P6SM VCSH BKN050=

0000144500
893
FTUS80 KWBC 110542
TAF
KABY 110538Z 1106/1206 11004KT 1/4SM FG OVC002
     FM111400 18010KT 2SM RA BR OVC004
     FM111800 24011KT 2SM TSRA OVC012CB
     FM112100 27015KT P6SM SCT025 BKN050
     FM120000 27008KT P6SM SCT250=
KACK 110539Z 1106/1206 19007KT 5SM BR OVC002
     FM110900 17009KT 1SM BR OVC002
     FM111200 17012KT 3SM -RA BR OVC008
     FM111700 18021G30KT 2SM -RA BR OVC008 WS020/19055KT
     FM112100 18026G40KT 1SM BR OVC008 WS020/20065KT
     FM120100 19028G44KT 2SM +RA BR OVC008 WS020/20065KT
     FM120400 20024G35KT 3SM -SHRA BR OVC008 WS020/21055KT=
KAGS 110540Z 1106/1206 VRB04KT 1SM BR OVC003
      TEMPO 1106/1110 1/2SM -DZ FG VV001
     FM111200 20008KT 5SM BR VCSH OVC003
     FM111500 22014G25KT 3SM -SHRA BR BKN005 OVC015
     FM112200 25011G22KT P6SM BKN015 OVC050
     FM120000 26011G19KT P6SM SCT020 BKN120=
KALB 110541Z 1106/1206 17004KT P6SM OVC009
      TEMPO 1106/1108 2SM -FZDZ BR OVC008
     FM110800 16006KT 2SM -RA BR OVC008
     FM111100 17010G16KT 1 1/2SM -RA BR OVC007 WS020/19045KT
     FM111500 18012G22KT 1SM -RA BR OVC006 WS020/20050KT
     FM111900 19015G25KT 3/4SM -RA OVC005
     FM120000 22012G22KT 1 1/2SM -RA BR SCT005 OVC009=
KALW 110538Z 1106/1206 18012KT P6SM VCSH BKN060 BKN100
     FM111000 20014G24KT P6SM VCSH SCT050 OVC100
     FM111800 22030G45KT P6SM -RA BKN050
     FM120200 25030G45KT P6SM VCSH BKN050=

0000110300
894
FTUS54 KWBC 110542 RRA
TAF
KPUW 110540Z 1106/1206 16009KT 5SM -RA BR BKN022 OVC030
     FM110800 17016KT 6SM -RA BR SCT008 OVC018
     FM111600 18022G25KT 6SM -RA BR SCT005 OVC030
     FM112100 22030G42KT P6SM VCSH BKN019 BKN040
     FM120300 24028G35KT 6SM -SHSN SCT020 OVC040=
KPVU 110538Z 1106/1206 VRB04KT P6SM OVC070
     FM111200 14004KT P6SM SCT080
     FM120400 22010KT P6SM -SHRA BKN060 AMD LTD TO CLD VIS AND
      WIND=
KRDM 110538Z 1106/1206 19015G25KT P6SM BKN070 BKN100
     FM111500 22022G40KT P6SM VCSH BKN050
     FM111800 23030G45KT P6SM VCSH BKN050
     FM120200 30030G45KT P6SM VCSH BKN050=
KTRK 110540Z 1106/1206 VRB04KT P6SM BKN180
     FM111000 20010G15KT P6SM SCT050 BKN090
     FM111700 21015G24KT P6SM SCT030 BKN060
     FM112000 24019G34KT P6SM VCSH SCT020 OVC040 AMD NOT SKED
      1106/1112=
KTVL 110540Z 1106/1206 18004KT P6SM BKN180
     FM111100 19010G18KT P6SM BKN180
     FM111700 19018G32KT P6SM SCT050 BKN080
     FM112000 20016G28KT 5SM -SHSN SCT025 OVC050
     FM120100 19012G22KT P6SM FEW050 SCT140=

00000000