0000027700
375
FTCN35 CWAO 110800 AAA
TAF AMD CYYU 110804Z 1108/1120 13008KT 3SM -SN BR OVC010 TEMPO
     1108/1115 1SM -SN VV005 PROB40 1108/1115 1/2SM SN
    FM111500 17005KT 3SM -SN BR OVC008 TEMPO 1115/1120 11/2SM -SN BR
     OVC004
    RMK NXT FCST BY 111400Z=

0000011100
376
SACN49 CWAO 110800
METAR CYGW 110800Z 12002KT 8SM -SN OVC016 M09/M10 A2973 RMK SC8
SLP068=

0000009500
377
SAIL41 BIVM 110800
METAR
BIVM 110800Z 26015KT CAVOK 02/M05 Q0999 307915//=

0000012400
378
SACN61 CYZY 110800
METAR CYZY 110800Z AUTO 00000KT 1 1/4SM -SN OVC023 M05/M06 A2923 RMK
 PRESFR SLP935=

0000010700
379
SACN61 CYYL 110800
METAR CYYL 110800Z AUTO 03004KT 9SM -SN CLR M26/M29 A2948 RMK SLP026=

0000013000
380
SACN62 CYYZ 110800
METAR CYYZ 110800Z 10010KT 3SM -RA BR FEW002 OVC003 03/02 A2968 RMK
 SF2NS6 PRESFR SLP058=

0000015100
381
SACN62 CYYJ 110800
METAR CYYJ 110800Z 29005KT 180V290 6SM -RA BR FEW006 SCT012 BKN028
 OVC043 07/07 A2941 RMK SC1SC3SC3SC1 SLP960=

0000012100
382
SACN31 CWAO 110800
METAR CYQQ 110800Z 14028G35KT 1SM RA BR OVC008 06/06 A2926 RMK SF8
PRESFR SLP911=

0000011200
383
SACN46 CWAO 110800
METAR CYKZ 110800Z 11009KT 2SM -RA BR OVC002 02/02 A2970 RMK ST8
SLP067=

0000011900
384
SAAF13 LFPW 110800
METAR GLRB 110800Z 00004KT 9000BKNT013  FEW022 CB  25/23
Q1012 RMK CB-SW, BRVC=

0000014700
385
SAAF17 LFPW 110800
METAR HLLB 110750Z
20005KT 9999 FEW020 BKN080 14/11 Q1027 =
METAR HLLT 110750Z 18006KT CAVOK 14/07 Q1024=

0000014300
386
SAAF18 LFPW 110800
METAR FIMP 110800Z 09010KT 9999 BKN020 30/25 Q1015=
METAR FIMR 110800Z 10017KT 9999 BKN017 30/24 Q1016=

0000011200
387
SAAF27 LFPW 110800
METAR FGSL 110800Z 21003KT 170V240 6000 FEW012 BKN130 28/24 Q1013
NOSIG=

0000010600
388
SACN52 CWAO 110800
METAR CWEU 110800Z 11014KT 15SM OVC100 M18/M23 A2922 RMK AC8 SLP898=

0000010400
389
SACN45 CWAO 110800
METAR CYCO 110800Z 27018KT 10SM DRSN SKC M31/M38 A2948 RMK SLP989=

0000061900
390
SASP31 LEMM 110800
METAR LEMD 110800Z 33003KT CAVOK 05/05 Q1018 NOSIG=
METAR LEBL 110800Z 33008KT 290V350 5000 BR FEW018 BKN025 10/07
Q1019 NOSIG=
METAR LEPA 110800Z 35004KT 9999 3000E FEW003 09/08 Q1018 NOSIG=
METAR LEZL 110800Z VRB01KT 8000 NSC 09/08 Q1017 NOSIG=
METAR LEMG 110800Z 29004KT 7000 FEW025 10/10 Q1018 NOSIG=
METAR LEVC 110800Z 00000KT 6000 BKN025 08/07 Q1019 NOSIG=
METAR LEAL 110800Z 27005KT CAVOK 10/08 Q1018 NOSIG=
METAR LEIB 110800Z 00000KT 9999 FEW010 11/10 Q1018 NOSIG=
METAR LEVX 110800Z 22003KT 0300 R20/0250D R02/0350N FG FEW001
07/06 Q1017 BECMG 3000 BR=

0000080700
391
SASP32 LEMM 110800
METAR LEAS 110800Z VRB01KT 9999 FEW020 BKN029 09/09 Q1018 NOSIG=
METAR LEBB 110800Z VRB01KT 9999 FEW030 BKN037 09/08 Q1019 NOSIG=
METAR COR LECO 110800Z 20003KT 0300 R21/0400N R03/0375N FG VV001
02/02 Q1018=
METAR LEGE 110800Z VRB01KT 7000 BKN018 09/08 Q1020=
METAR LEST 110800Z 00000KT 0150 R17/0600U R35/0350D FG BKN001
BKN005 02/02 Q1017 TEMPO 0700 BCFG=
METAR LEZG 110800Z 27008KT 1500 BR VV004 05/05 Q1020=
METAR LESO 110800Z VRB01KT 9999 FEW024 SCT041 09/07 Q1019=
METAR LEVT 110800Z 00000KT 3000 BR BKN008 02/02 Q1019=
METAR LERS 110800Z 36005KT 9999 BKN021 12/08 Q1019=
METAR LEMH 110800Z 11004KT 4500 BR SCT006 13/13 Q1018=
METAR LEAM 110800Z VRB02KT 9999 FEW020 11/09 Q1018=
METAR LEGR 110800Z VRB02KT 8000 FEW030 SCT080 06/06 Q1018=

0000008800
392
SAJM31 MKJS 110800
METAR MKJS 110800Z 12007KT 999 FEW024 25/19 Q1015=

0000019700
393
SASP33 LEMM 110800
METAR LEVD 110800Z 08006KT 2000 VCFG NSC 00/00 Q1017=
METAR LEVS 110800Z 00000KT 6000 MIFG NSC 05/05 Q1018=
METAR LESA 110800Z 00000KT CAVOK M02/M02 Q1017=

0000008900
394
SAJM31 MKJS 110800
METAR MKJS 110800Z 12007KT 9999 FEW024 25/19 Q1015=

00000000