0000071200
135
SACA35 KWBC 110600
METAR
MGGI NIL=
MGPB 110600Z 00000KT 9999 FEW016 BKN080 23/22 Q1014 A2994=
MGSJ 110600Z 00000KT CAVOK 23/21 Q1013 A2991=
MHLC 110600Z 00000KT 9999 FEW026 SCT080 21/20 Q1014 A2994
     NOSIG=
MHLM 110600Z 00000KT 9999 FEW026 BKN080 23/23 Q1015 A2997
     NOSIG=
MHTG 110600Z 01004KT 9999 FEW024 SCT090 19/15 Q1019 A3009
     NOSIG=
MNPC NIL=
MPBO NIL=
MPCH NIL=
MPDA NIL=
MPMG NIL=
MPSA NIL=
MPTO 110600Z 00000KT 9999 FEW020 24/21 Q1010 NOSIG=
MRLB NIL=
MRLM NIL=
MROC 110600Z 09010KT CAVOK 20/13 A3000 NOSIG=
MRPV NIL=
MSLP 110550Z 36003KT 330V050 CAVOK 21/18 Q1012 A2990=
MSSS 110550Z 00000KT CAVOK 20/17 Q1016 A3002=
MZBZ NIL=

0000052500
136
SACA33 KWBC 110600
METAR
TBPB NIL=
TDPD NIL=
TDPR NIL=
TFFF 110600Z AUTO 07012KT 9999 FEW024/// SCT043/// OVC068///
     ///TCU 24/20 Q1015=
TFFG NIL=
TFFJ NIL=
TFFR 110600Z AUTO 09003KT 9999 FEW032 BKN056 BKN078 23/21
     Q1016=
TGPY 110600Z 06010KT 9999 SCT018 SCT038 25/21 Q1014=
TGPZ NIL=
TLPC NIL=
TLPL NIL=
TNCA 110600Z 09011KT 9999 SCT018 25/23 Q1013 A2993 RERA=
TNCB NIL=
TNCC NIL=
TNCE NIL=
TNCM NIL=
TTCP NIL=
TTPP NIL=
TVSM NIL=
TVSU NIL=
TVSV NIL=

0000051500
137
SACA41 KWBC 110600
METAR
MKBK NIL=
MUBA NIL=
MUBY NIL=
MUCA NIL=
MUCL NIL=
MUCM 110550Z 08007KT 9000 FEW025 20/18 Q1019=
MUCU 110551Z 34005KT 9000 FEW020 21/18 Q1017=
MUGM 110556Z 33006KT 9999 CLR 23/19 A3005 RMK SLP177 T02280189
     10267 20228 58004=
MUGT NIL=
MUHA 110555Z 00000KT 8000 SKC 18/17 Q1018=
MUMO NIL=
MUMZ NIL=
MUNG NIL=
MUVR 110550Z 08005KT 8000 FEW020 23/21 Q1019=
MUVT NIL=
MYEF NIL=
MYSM NIL=
TABS NIL=
TAOA NIL=
TBBI NIL=
TDCF NIL=

0000080100
138
SAZA31 FAPR 110600
METAR FABL 110600Z AUTO 05005KT //// // ////// 21/11 Q1020=
METAR FACT 110600Z 18009KT 150V230 9999 FEW030 19/12 Q1017 NOSIG=
METAR FAEL 110600Z 24014KT CAVOK 21/12 Q1019=
METAR FAGG 110600Z VRB01KT 9999 SCT016 17/13 Q1018=
METAR FALA 110600Z 01004KT 310V100 CAVOK 23/15 Q1022 NOSIG=
METAR FALE 110600Z 22006KT 9999 BKN045 23/18 Q1018 NOSIG=
METAR FALW 110600Z AUTO 20005KT //// // ////// 17/12 Q1017=
METAR FAMM 110600Z 15006KT CAVOK 23/08 Q1019 NOSIG=
METAR FAOR 110600Z 02013KT CAVOK 21/14 Q1024 NOSIG=
METAR FAPE 110600Z 26012KT CAVOK 20/13 Q1018 NOSIG=
METAR FAPN 110600Z AUTO 15002KT //// // ////// 24/12 Q1018=
METAR FAPP 110600Z 15007KT 3000 TSRA SCT040CB 19/17 Q1021 BECMG 5000=
METAR FAUP 110600Z 17005KT CAVOK 21/06 Q1017 NOSIG=

0000011200
139
SACN46 CWAO 110600
METAR CYKZ 110600Z 10004KT 3SM -RA BR OVC036 02/02 A2980 RMK SC8
SLP101=

0000014400
140
SATD31 TTPP 110600
METAR
TTPP 110600Z 00000KT 9999 FEW015 22/21 Q1013=
TTCP 110600Z 00000KT 9999 FEW015 23/19 Q1014 RESH=

0000015400
141
SACN62 CYHM 110600
METAR CYHM 110600Z 05008KT 1SM -SHRA BR BKN019 OVC045 01/01 A2977 RMK
 FG3SC3SC2 VIS VRB 3/4 - 11/4 PRESFR SLP088=

0000009900
142
SACN62 CYQM 110600
METAR CYQM 110600Z 22007KT 15SM SKC M08/M09 A3024 RMK SLP245=

0000009700
143
SASP36 LEMM 110600
METAR GEML 110600Z 24006KT 200V280 9999 FEW014 14/12 Q1016=

0000017800
144
SASP37 LEMM 110600
METAR LEBG 110600Z 02007KT 0200 R22/0350N FG VV001 01/01 Q1017=
METAR LEHC 110600Z NIL=
METAR LEBA 110600Z VRB01KT 8000 NSC 08/07 Q1017=

0000026900
145
SASP40 LEMM 110600
METAR LEGA 110600Z NIL=
METAR LEGT 110600Z 00000KT 7000 NSC 07/06 Q1017=
METAR LEMO 110600Z NIL=
METAR LERI 110600Z VRB01KT 4000 BR OVC030 08/08 Q1017 NOSIG=
METAR LERT 110600Z 09004KT 070V130 9999 BKN080 13/11 Q1015 NOSIG=

0000019600
146
SASP41 LEMM 110600
METAR LEAO 110600Z 00000KT 1800 BR SCT003 04/04 Q1017=
METAR LEBT 110600Z NIL=
METAR LECV 110600Z NIL=
METAR LEEC 110600Z NIL=
METAR LELO 110600Z NIL=

0000040800
147
SAAP32 FAPR 110600
METAR FABL 110600Z AUTO 05005KT //// // ////// 21/11 Q1020=
METAR FACT 110600Z 18009KT 150V230 9999 FEW030 19/12 Q1017 NOSIG=
METAR FALE 110600Z 22006KT 9999 BKN045 23/18 Q1018 NOSIG=
METAR FAOR 110600Z 02013KT CAVOK 21/14 Q1024 NOSIG=
METAR FDMS 110600Z 00000KT 9999 SCT020 BKN030 21/20 Q1020 NOSIG=
METAR FQBR 110600Z 06005KT 020V090 9999 FEW020 29/25 Q1012=

0000016200
148
FTCN33 CWAO 110600 AAA
TAF AMD CYCY 110605Z 1101/1113 FCST CNCLD DUE CLD HGT SENSOR INOP
    RMK FCST BASED ON AUTO OBS. NXT FCST BY 110700Z=

0000011800
149
SACN62 CYXC 110600
METAR CYXC 110600Z 20004KT 20SM FEW030 OVC050 02/M02 A2974 RMK SC2SC6
 SLP105=

0000012500
150
SACN62 CYYF 110600
METAR CYYF 110600Z 13009KT 15SM FEW050 OVC080 02/M01 A2968 RMK SC2AC6
 PRESFR SLP061=

0000009900
151
SACN62 CYXE 110600
METAR CYXE 110600Z 27011KT 15SM SKC M12/M14 A2958 RMK SLP057=

0000014500
152
SACN62 CYSB 110600
METAR CYSB 110600Z 14012G17KT 1SM R22/P6000FT/D -FZRA -PL BR OVC002
 M02/M02 A2967 RMK SF8 PRESFR SLP064=

0000011300
153
SACN62 CYYZ 110600
METAR CYYZ 110600Z 00000KT 3SM -RA BR OVC030 02/01 A2980 RMK SC8
 SLP098=

0000008700
154
SAMC31 GMMC 110600 RRA
METAR GMAD 110600Z 00000KT CAVOK 09/08 Q1016=

00000000