0000017600
635
WSUK33 EGRR 111708
EGPX SIGMET 01 VALID 111710/112100 EGRR-
EGPX SCOTTISH FIR SEV TURB FCST NE OF LINE N6100 W00400
- N6000 E00000 BLW FL060 MOV SE 30KT NC=
0000078000
636
FTSA85 EGRR 111700 RRK
TAF SARE 111700Z 1118/1218 18010KT 5000 TSRA SCT025 OVC040 FEW050CB
     TX28/1119Z TN22/1209Z
     BECMG 1120/1122 8000 DZRA SCT010 FEW050CB SCT100
     BECMG 1200/1202 9999 FEW020 FEW100=
TAF SARF 111700Z 1118/1218 18010KT 5000 TSRA BKN010 BKN040 FEW050CB
     TX29/1119Z TN22/1209Z
     BECMG 1123/1201 8000 DZRA SCT010 FEW050CB SCT100
     BECMG 1204/1206 9999 FEW010 SCT100=
TAF SARP 111700Z 1118/1218 18010KT 5000 TSRA BKN010 BKN040 FEW050CB
     TX29/1119Z TN22/1209Z
     BECMG 1123/1201 8000 DZRA SCT010 FEW050CB SCT100
     BECMG 1204/1206 9999 FEW010 SCT100=
TAF SVVA 111630Z 1118/1218 11009KT 9999 SCT016
     TEMPO 1123/1203 36006KT 9999 FEW016
     TEMPO 1204/1210 00000KT CAVOK TX 33/19Z TN 20/09Z=
0000152100
637
SASA85 EGRR 111700 RRA
METAR SBBR 111700Z 11006KT 9999 BKN040 27/15 Q1019=
METAR SBBV 111700Z 04010KT 320V060 9999 SCT045 31/16 Q1012=
METAR SBCG 111700Z 27007KT 9999 SCT040 FEW045TCU 31/18 Q1015=
METAR SBCY 111700Z 04007KT 9999 SCT020 FEW025TCU 25/20 Q1013=
METAR SBCZ 111700Z 36005KT 9999 BKN008 BKN100 25/25 Q1013=
METAR SBFI 111700Z 34011KT 9999 SCT025 FEW035TCU SCT100 35/22 Q1011=
METAR SBFL 111700Z 36012KT CAVOK 33/20 Q1010=
METAR SBFN 111700Z 09012KT 9999 SCT021 29/20 Q1013=
METAR SBFZ 111700Z 08021KT 9999 FEW030 30/18 Q1010=
METAR SBGL 111700Z 02005KT 9999 FEW020 37/18 Q1012=
METAR SBGR 111700Z 34012G22KT 9999 -TSRA BKN045 SCT050CB 29/19 Q1017=
METAR SBKP 111700Z 31008KT 9999 BKN048 FEW050TCU SCT080 33/17 Q1016=
METAR SBMA 111700Z 01004KT 9999 FEW023 FEW030TCU 31/23 Q1011=
METAR SBMO 111700Z 14015KT 9999 BKN020 28/21 Q1013=
METAR SBNT 111700Z 09012KT 9999 BKN030 28/21 Q1012=
METAR SBPA 111700Z 30014KT 9999 -RA SCT037 FEW040TCU BKN100 26/23 Q10
      14=
METAR SBRB 111700Z 05004KT 9999 BKN020 FEW025TCU SCT100 ///// Q1012=
METAR SBRF 111700Z 14009KT 9999 SCT022 28/23 Q1012=
METAR SBSV 111700Z 12009KT 9999 SCT017 BKN080 30/23 Q1014=
METAR SBTT 111700Z 09006KT 2000 RA BR BKN004 BKN014 BKN100 23/23 Q101
      4=
METAR SGAS 111700Z 19015KT 9999 -TSRA BKN020 FEW040CB OVC070 25/23
      Q1012=
METAR SGES 111700Z 33014KT 300V040 9999 SCT027 FEW040TCU BKN200 33/24
      Q1011=
METAR SUMU 111700Z 18017KT 9999 BKN026 20/12 Q1018 NOSIG=
0000142600
638
FTSA85 EGRR 111700
TAF SPHI 111650Z 1118/1218 17012KT CAVOK TX30/1119Z TN20/1211Z
     TEMPO 1210/1214 9999 BKN020 SCT100=
TAF SPIM 111650Z 1118/1218 18012KT CAVOK TX25/1119Z TN20/1211Z
     BECMG 1203/1204 9999 BKN015 BKN070
     TEMPO 1210/1214 VRB05KT 8000 OVC007=
TAF SPJL 111630Z 1118/1218 12012KT 9999 FEW025 TX18/11120Z TN06/1211Z
     TEMPO 1120/1123 SCT025 SCT080
     BECMG 1200/1202 VRB02KT CAVOK=
TAF SPQT 111700Z 1118/1218 03006KT 9999 BKN020 SCT100 TX33/1119Z
     TN22/1211Z
     TEMPO 1120/1201 02015KT 5000 SHRA BKN010 FEW025TCU BKN100
     BECMG 1203/1205 00000KT BKN010 SCT080
     TEMPO 1209/1212 8000 BKN005 BKN100
     BECMG 1213/1215 03006KT BKN020 SCT100=
TAF SPQU 111630Z 1118/1218 25011KT 9999 FEW080 TX22/1118Z TN09/1210Z
     TEMPO 1121/1200 SCT070 SCT150
     BECMG 1202/1204 CAVOK
     TEMPO 1210/1212 5000 BR=
TAF SPRU 111650Z 1118/1218 14006KT 8000 SCT008 BKN050 TX25/1119Z
     TN20/1210Z
     TEMPO 1118/1123 9999 SCT015 SCT130
     TEMPO 1210/1213 5000 BR OVC010=
TAF SPSO 111650Z 1118/1218 22010KT 7000 SCT020 SCT120 TX28/1119Z
     TN20/1210Z
     TEMPO 1119/1123 CAVOK
     BECMG 1208/1209 6000 SCT012 BKN210=
TAF SPTN 111650Z 1118/1218 21010KT CAVOK TX29/1118Z TN19/1210Z
     TEMPO 1210/1214 VRB03KT 9999 BKN030 SCT080=
TAF SPYL 111630Z 1118/1218 23012KT CAVOK TX31/1119Z TN19/1211Z
     BECMG 1204/1206 15016KT=
0000169400
639
SASA85 EGRR 111700 RRB
METAR SBGO 111700Z 07007KT 9999 SCT035 FEW040TCU 31/13 Q1016=
METAR SBMQ 111700Z 10004KT 9999 SCT018 BKN100 31/24 Q1011=
METAR SBSP 111700Z 26009G19KT 210V320 CAVOK 32/16 Q1017=
METAR SEGU 111700Z 02005KT 9999 SCT023 SCT033 BKN100 28/20 Q1011 RMK
      A2987 NOSIG=
METAR SELT 111700Z 07007KT 9999 SCT030 BKN100 18/11 Q1029=
METAR SLCB 111700Z 25004KT 9999 FEW027 26/09 Q1024=
METAR SLLP 111700Z 10012KT 9999 SCT017 SCT200 17/01 Q1037=
METAR SLVR 111700Z 35012KT 9999 FEW012 BKN020 32/22 Q1012=
METAR SPCL 111700Z 35003KT 9999 FEW020 BKN080 29/23 Q1013 RMK BIRD
      HAZARD RWY 02/20 PP000=
METAR SPGM 111700Z /////KT 4000 RA SCT015 OVC080 22/20 Q1017 RMK PP030=
METAR SPHO 111700Z VRB03KT 9999 SCT033 SCT080 18/13 Q1025 RMK BR PP000=
METAR SPHY 111700Z 35006KT 9000 SCT012 SCT050 15/10 Q1033 RMK PP000=
METAR SPJI 111700Z 00000KT 9999 BKN030 30/23 Q1021 RMK PP000=
METAR SPJL 111700Z 10008KT CAVOK 17/01 Q1037 RMK PP000=
METAR SPJR 111700Z 21004KT 9999 SCT030 21/11 Q1026 RMK PP000=
METAR SPLO 111700Z 16010KT CAVOK 25/20 Q1008 RMK PP000=
METAR SPME 111700Z 32006KT 9999 FEW011 BKN020 28/24 Q1011 RMK BIRD
      HAZARD RWY 32/14 PP000=
METAR SPMS 111700Z /////KT 9999 VCSH SCT020 BKN100 28/23 Q1014 RMK
      BIRD HAZARD 09/27 PP000=
METAR SPQT 111700Z 04006KT 340V110 9999 BKN025 SCT100 31/24 Q1012 NOSIG
      RMK PP000=
METAR SPRU 111700Z 16010KT 9999 FEW010 BKN120 22/19 Q1012 RMK PP000=
METAR SPTN 111700Z 20011KT CAVOK 28/16 Q1009 RMK PP000=
METAR SPTU 111700Z 33005KT 9999 -DZ SCT010 29/27 Q1011 RMK BIRD HAZARD
      RWY 01/19 PP010=
METAR SPYL 111700Z 19012KT CAVOK 32/20 Q1011 RMK PP000=
0000167700
640
SASA85 EGRR 111700 RRC
METAR SACO 111700Z 11006KT CAVOK 28/10 Q1022=
METAR SADF 111700Z 18010KT CAVOK 25/05 Q1019=
METAR SAZS 111700Z 00000KT CAVOK 24/03 Q1019=
METAR SBCT 111700Z 08002KT 9999 SCT040 FEW045TCU 24/20 Q1018 RETS=
METAR SBMN 111700Z 06004KT 9999 SCT020 BKN100 28/22 Q1013=
METAR SBPL 111700Z 10008KT 9999 FEW025 SCT070 34/16 Q1013=
METAR SBPP 111700Z 33004KT 9999 BKN025 FEW030TCU 33/19 Q1015=
METAR SBRJ 111700Z 17008KT 9999 FEW025 33/23 Q1012=
METAR SBTE 111700Z 00000KT 9999 SCT040 33/22 Q1009=
METAR SBTF 111700Z 02006KT 9999 BKN020 30/23 Q1012=
METAR SBUG 111700Z 17004KT 9999 SCT020 BKN100 25/17 Q1015=
METAR SBVT 111700Z 06014KT 9999 FEW025 33/24 Q1015=
METAR SEMT 111700Z 27008KT 9999 SCT020 BKN026 27/23 Q1012=
METAR SKBO 111700Z 26003KT 9999 FEW020 20/04 A3032=
METAR SMJP 111700Z 19004KT 9999 SCT030 30/21 Q1013 NOSIG=
METAR SOCA 111700Z AUTO 05006KT 9999 SCT017 BKN026 BKN031 26/22 Q1012=
METAR SPHI 111700Z 19012KT 9999 FEW030 30/22 Q1011 RMK PP000=
METAR SPQU 111700Z 23010KT 190V280 9999 FEW080 20/07 Q1024 NOSIG RMK
      PP000=
METAR SPSO 111700Z /////KT 9999 FEW020 SCT230 25/20 Q1011 RMK BIRD
      HAZARD RWY 22/04 PP000=
METAR SPST 111700Z 34008KT 9999 SCT025 BKN100 30/19 Q1012 RMK BIRD
      HAZARD RWY 17/35 PP000=
METAR SPZO 111700Z VRB02KT 9999 FEW040 SCT080 19/04 Q1030 NOSIG RMK
      PP000=
METAR SUAA 111700Z 18013G25KT 9999 BKN033 20/11 Q1019=
METAR SUCA 111700Z XXXXXKT 9999 FEW020 22/08 Q1016=
METAR SUDU 111700Z 16013KT 9999 FEW030 BKN200 25/16 Q1015=
METAR SULS 111700Z 17016KT 9999 BKN026 20/13 Q1017=
METAR SUSO 111700Z 15012KT 9999 BKN017 25/19 Q1015=
0000170400
641
SASA85 EGRR 111700 RRD
METAR SAEZ 111700Z 15014G27KT 110V200 9999 FEW030 24/05 Q1020=
METAR SAME 111700Z 09007KT CAVOK 30/05 Q1019=
METAR SARI 111700Z 36007KT CAVOK 34/24 Q1013=
METAR SASA 111700Z 14008G36KT 6000 TSRA FEW012 FEW030CB OVC035 19/15
      Q1023=
METAR SAVC 111700Z 07014KT CAVOK 21/06 Q1017=
METAR SBCF 111700Z 06007KT 9999 BKN040 30/14 Q1019=
METAR SBCR 111700Z 02005KT 9999 SCT025 FEW030TCU 35/21 Q1011=
METAR SBJP 111700Z 13010KT 9999 SCT025 BKN070 28/21 Q1012=
METAR SBLO 111700Z 02011KT 9999 SCT030 FEW040TCU 32/20 Q1015=
METAR SBPB 111700Z 07016KT 9999 FEW020 34/24 Q1009=
METAR SBSJ 111700Z 15005KT 9999 FEW025 FEW030TCU 33/13 Q1016=
METAR SBSN 111700Z 05005KT 9999 SCT017 BKN100 31/20 Q1011=
METAR SCAR 111700Z 20013KT CAVOK 26/16 Q1010=
METAR SCBA 111700Z 29013KT 260V330 CAVOK 20/04 Q1018=
METAR SCCI 111700Z 28021KT 9999 FEW030 SCT130 BKN200 14/07 Q1005 NOSIG=
METAR SCDA 111700Z 20018KT CAVOK 25/15 Q1010=
METAR SCEL 111700Z 14007KT 080V200 CAVOK 32/06 Q1011 NOSIG=
METAR SCFA 111700Z 19013KT 9999 FEW027 23/14 Q1011 NOSIG=
METAR SCIE 111700Z 24009KT CAVOK 23/10 Q1011=
METAR SCNT 111700Z 29024G34KT 260V320 9999 SCT036 BKN100 19/09 Q1007=
METAR SCSE 111700Z 28011KT 9999 SCT016 19/13 Q1014=
METAR SCTE 111700Z 13012KT CAVOK 17/11 Q1019 NOSIG=
METAR SPIM 111700Z 16011KT 130V190 9999 FEW017 24/19 Q1012 NOSIG RMK
      PP000=
METAR SVCR 111700Z 12020KT 9999 BKN016 XX/XX Q1016=
METAR SVMC 111700Z /////KT 9999 FEW016 35/23 Q1014=
METAR SVMI 111700Z 05004KT 9999 SCT016 28/22 Q1016 NOSIG=
METAR SVSA 111700Z /////KT 9999 FEW017 32/14 Q1016=
METAR SYCJ 111700Z 01008KT 9999 BKN020 SCT100 30/21 Q1013 NOSIG=
0000033600
642
FTSA85 EGRR 111706 RRA
TAF SPZO 111605Z 1118/1218 03010KT 9999 SCT040 SCT100 TX21/1118Z
     TN09/1211Z
     TEMPO 1118/1119 36016G26KT VCSH FEW040TCU BKN100
     PROB40 1119/1123 28014KT 9000 -RA SCT040TCU BKN080
     TEMPO 1120/1123 8000 -TSRA SCT036CB BKN070
     BECMG 1123/1202 00000KT 9999 FEW050 SCT100=
0000044900
643
SABX31 EBBR 110650
METAR EBAW 110650Z 23007KT 190V260 9999 BKN007 04/02 Q1015 NOSIG=
METAR EBBR 110650Z 23008KT 8000 BKN007 05/03 Q1015 NOSIG=
METAR EBCI 110650Z 21010KT 9999 -RA FEW005 05/04 Q1015 TEMPO BKN006=
METAR EBLG 110650Z 19010KT CAVOK 05/03 Q1015 NOSIG=
METAR EBOS 110650Z 20010KT 4000 BR FEW005 BKN007 04/02 Q1015 TEMPO
     SCT008=
METAR ELLX 110650Z 00000KT 5000 -RA SCT040 BKN080 02/02 Q1016
    NOSIG=

0000055700
644
SAOS31 LOWM 110650
METAR LOWW 110650Z 17005KT 9999 BKN035 M00/M01 Q1020 NOSIG=
METAR LOWL 110650Z VRB01KT 1000 R26/0550V1400D FZBCFG MIFG FEW053
BKN250 M02/M02 Q1020 BECMG 5000 VCFG=
METAR LOWS 110650Z 32004KT 9999 3500S BCFG FEW002 BKN300 M00/M00
Q1018 NOSIG=
METAR LOWI 110650Z 23003KT 200V270 2500 BR SCT002 BKN004 01/01 Q1020
R08/19//71 NOSIG=
METAR LOWG 110650Z VRB02KT 9999 SCT009 BKN090 02/01 Q1020 R17/19//95
TEMPO BKN009=
METAR LOWK 110650Z 01003KT 340V040 5000 BR FEW002 OVC005 01/01 Q1021
R10L/19//95 NOSIG=

0000006100
645
SAOS32 LOWM 110650
METAR LOXZ 110650Z NIL=

0000043600
646
SANO35 ENMI 110650
METAR ENMS 110650Z 16006G16KT 080V210 CAVOK M10/M17 Q1009 RMK WIND
           412FT VRB05KT=
METAR ENRM 110650Z 10016KT CAVOK M07/M15 Q1006=
METAR ENRS 110650Z NIL=
METAR ENSK 110650Z NIL=
METAR ENSO 110650Z NIL=
METAR ENST 110650Z VRB07G21KT 9999 FEW050 M07/M16 Q1008 RMK WIND
           300FT VRB06KT RMK TURB WRNG - SEE IPPC=
METAR ENVD 110650Z 26008KT 9999 SCT012 M06/M08 Q1015=

0000010000
647
SAMX42 MMGL 110654
METAR MMGL 110653Z 02002KT 10SM  BKN030 12/06 A3020 RMK 8/500=

0000013200
648
SAUK36 EGGY 110650 CCA
METAR COR EGSH 110650Z 26010KT 9999 RA FEW008 BKN032 07/07 Q1011
     BECMG 32007KT NSW=

0000032400
649
SAEO32 EETN 110650
METAR EEKA 110650Z 27004KT 9999 -SHSN SCT009 FEW015CB BKN018 00/M01 
Q0999=
METAR EEKE 110650Z AUTO 29006KT 260V340 9999NDV -SN FEW007 BKN015 
BKN021 00/00 Q1001=
METAR EETU 110650Z 29009KT 9999 BKN008 OVC019 M01/M02 Q0997=
METAR EEPU 110650Z 28009KT 9999 OVC012 01/M00 Q0999=

0000021700
650
SANO37 ENMI 110650
METAR ENNO 110650Z NIL=
METAR ENOV 110650Z NIL=
METAR ENSD 110650Z NIL=
METAR ENSG 110650Z NIL=
METAR ENSN 110650Z NIL=
METAR ENSR 110650Z NIL=
METAR ENSS 110650Z NIL=

0000032300
651
SADL33 EDZO 110650
METAR EDFE 110650Z 31001KT 9000 FEW040 BKN090 M01/M02 Q1017=
METAR EDFH 110650Z 22007KT 9999 FEW030 BKN060 04/01 Q1015=
METAR EDFM 110650Z 26002KT CAVOK M00/M00 Q1017=
METAR EDLV 110650Z 22007KT 200V260 5000 BR BKN004 02/02 Q1015=
METAR EDVK 110650Z 13007KT CAVOK 00/M00 Q1015=

0000037000
652
SANO36 ENMI 110650
METAR ENBS 110650Z VRB03KT 2000 -SHSN VV010 M08/M12 Q1015=
METAR ENHK 110650Z NIL=
METAR ENHV 110650Z NIL=
METAR ENLK 110650Z 07020KT CAVOK M06/M014 Q1013=
METAR ENMH 110650Z 15006KT 9999 FEW011 BKN030 M05/M07 Q1016=
METAR ENNK 110650Z 04013KT 010V080 CAVOK M08/M14 Q1016=
METAR ENNM 110650Z 08012KT CAVOK M10/M16 Q1006=

0000069600
653
SANO33 ENMI 110650
METAR ENAT 110650Z NIL=
METAR ENBL 110650Z VRB02KT 2500 -SHSN VV014 M03/M03 Q0994=
METAR ENEV 110650Z AUTO 13007KT 9999NDV NCD M08/M15 Q1016 RMK WIND
           1400FT 08013KT=
METAR ENFL 110650Z 07005KT 8000 -SN FEW008 SCT016 BKN025 M01/M02
           Q0997=
METAR ENKB 110650Z 10005KT 060V130 9999 -SN SCT007 BKN010 M04/M08
           Q0999=
METAR ENKR 110650Z 17009KT 4500 -SN FEW002 SCT007 OVC020 M20/M22
           Q1017 SEASMOKE NORTH OF THE FIELD RMK WIND 775FT 23012KT=
METAR ENML 110650Z 02006KT 9999 SCT020 BKN040 M04/M07 Q0999=
METAR ENNA 110650Z VRB02KT 9999 FEW005 SCT062 M18/M20 Q1019 RMK WIND
           1800FT 29004KT=

0000032200
654
SAMX41 MMMX 110654
METAR MMMX 110653Z 07003KT 10SM SKC 13/06 A3032 NOSIG RMK HZY AC=
METAR MMAA 110645Z 00000KT 8SM SKC 24/20 A2993=
METAR MMQT 110645Z 00000KT 7SM SCT020 BKN090 OVC250 13/09 A3028 
      RMK 8/538 BINOVC=
METAR MMTO 110642Z 30003KT 5SM  SCT015 BKN070 05/03 A3039 RMK 8/430
HZ=

00000000