0000028500
275
SAIE31 EIDB 110730
METAR EIDW 110730Z 27012KT 9999 FEW004 SCT006 02/01 Q1016 NOSIG=
METAR EINN 110730Z 13004KT 9999 FEW018 SCT060 02/01 Q1017 NOSIG=
METAR EICK 110730Z 32004KT 9999 FEW016 02/00 Q1018 NOSIG=
METAR EIKN 110730Z 23004KT CAVOK M00/M01 Q1015 NOSIG=

0000041900
276
SAPL31 EPWA 110730
METAR EPGD 110730Z 26008KT 230V290 9999 -SHRA FEW011
    FEW013TCU BKN018 04/03 Q1009 =
METAR EPKK 110730Z 25007KT 9999 BKN060 04/00 Q1018 =
METAR EPLL 110730Z 25012KT 9999 FEW019 03/01 Q1015 =
METAR EPPO 110730Z 24008KT 9999 BKN027 03/02 Q1014
    R10/19//95 =
METAR EPRZ 110730Z 26011KT CAVOK 04/M01 Q1017 =
METAR EPWA 110730Z 27012KT 9999 FEW023 04/01 Q1013 NOSIG=

0000041500
277
SAPL32 EPWA 110730
METAR EPBY 110730Z 24008KT 9999 SCT017 05/02 Q1013 =
METAR EPKT 110730Z 22008KT 9999 SCT026 03/M01 Q1017 =
METAR EPLB 110730Z 25013KT 9999 BKN046 05/00 Q1013 =
METAR EPMO 110730Z 25013KT 9999 BKN018 04/02 Q1013=
METAR EPSC 110730Z 21006KT 7000 SCT026 03/02 Q1012 =
METAR EPWR 110730Z 23005KT 9999 SCT043 03/M01 Q1017 =
METAR EPZG 110730Z 23006KT CAVOK 03/02 Q1015 =

0000019800
278
FTUS52 KWBC 110733 AAA
TAF AMD
KCKV 110731Z 1108/1206 19009G15KT 4SM SHRA BR OVC050
     FM111000 25012G22KT 5SM -SHRA BR BKN011 OVC025
     FM111200 27015G25KT P6SM OVC025=

0000038700
279
FTUS80 KWBC 110733 AAA
TAF AMD
KBFI 110732Z 1108/1206 16010KT P6SM -RA BKN025 OVC035
     FM110900 18018G28KT 4SM RA BR OVC019
     FM111300 17018G32KT P6SM -RA OVC025
     FM112000 18022G36KT P6SM -SHRA OVC019=
KCKV 110731Z 1108/1206 19009G15KT 4SM SHRA BR OVC050
     FM111000 25012G22KT 5SM -SHRA BR BKN011 OVC025
     FM111200 27015G25KT P6SM OVC025=

0000012500
280
SPUS31 KWBC 110733
SPECI
KIAD 110729Z 23005KT 3/4SM R01R/3500V5500FT +RA BR BKN004 OVC007
01/01 A3004=

0000011800
281
SPUS31 KWBC 110733
SPECI
KORF 110729Z AUTO 16009KT 3SM +RA BR BKN007 BKN030 OVC070 17/16
A3006=

0000009700
282
SPUS31 KWBC 110733
SPECI
KSTL 110729Z 26013KT 9SM BKN013 OVC026 08/06 A2955=

0000011300
283
SPUS41 KWBC 110733
SPECI
KCEF 110731Z AUTO 02001KT 1 1/4SM R23/4500FT BR OVC004 00/00 A3016=

0000009300
284
SPUS41 KWBC 110733
SPECI
KGSO 110729Z 07005KT 2SM FG OVC002 03/03 A3000=

0000011700
285
SPUS41 KWBC 110733
SPECI
KHVN 110729Z AUTO 00000KT 1/2SM R02/2000V2200FT FG VV002 02/02
A3017=

0000010300
286
SPUS41 KWBC 110733
SPECI
KPSM 110728Z 00000KT 1 1/4SM -FZDZ BR OVC002 00/00 A3022=

0000010000
287
SPUS43 KWBC 110733
SPECI
KINL 110729Z AUTO 22004KT 2SM BR OVC003 M03/M04 A2938=

0000014600
288
SASR31 WSSS 110730
METAR WSSS 110730Z 03009KT 350V070 9999 VCSH FEW017CB SCT020TCU 29/24
Q1009 TEMPO FM0745 TL0830 4000 SHRA=

0000021700
289
FTFR34 LFPW 110500 AAD
TAF AMD LFBH 110730Z 1107/1206 30010KT 3000 BR SCT005 BKN015 BECMG
1107/1109 07008KT PROB40 TEMPO 1107/1109 1000 BR OVC002 BECMG
1109/1111 8000 NSW TEMPO 1107/1206 BKN005=

0000032700
290
FTUS52 KWBC 110736 AAA
TAF AMD
KMSL 110734Z 1108/1206 18010G15KT 5SM -SHRA BR SCT009 OVC025
      WS015/20045KT
      TEMPO 1108/1110 OVC009
     FM111000 24012G20KT 6SM BR VCSH OVC015
     FM111400 27012KT P6SM SCT025 BKN120
     FM111800 30015G25KT P6SM SCT250
     FM120000 VRB04KT P6SM SKC=

0000051600
291
FTUS80 KWBC 110736 AAA
TAF AMD
KCLE 110732Z 1108/1212 19010G20KT 3SM -RA BR SCT007 OVC019
     FM111800 22010G20KT P6SM -RA OVC007
     FM112000 24010G20KT P6SM OVC015
     FM120400 24010G20KT P6SM -RASN OVC015=
KMSL 110734Z 1108/1206 18010G15KT 5SM -SHRA BR SCT009 OVC025
      WS015/20045KT
      TEMPO 1108/1110 OVC009
     FM111000 24012G20KT 6SM BR VCSH OVC015
     FM111400 27012KT P6SM SCT025 BKN120
     FM111800 30015G25KT P6SM SCT250
     FM120000 VRB04KT P6SM SKC=

0000011100
292
SPUS41 KWBC 110736
SPECI
KRIC 110732Z 32003KT 3/4SM R34/4500V5500FT BR OVC002 05/04 A3004=

0000010200
293
SPUS43 KWBC 110736
SPECI
KDET 110732Z AUTO 18011KT 6SM -RA BR OVC005 07/05 A2959=

0000040500
294
SAJP31 KWBC 110730
METAR
RJAA 110730Z 23003KT 9999 FEW030 SCT150 06/M08 Q1023 BECMG 27005KT
     RMK 1CU030 3AC150 A3021=
RJAH NIL=
RJCC 110730Z 30008KT 9999 FEW020 M07/M14 Q1019 RMK 1CU020
     A3009=
RJCH NIL=
RJFK NIL=
RJFT NIL=
RJFU NIL=
RJNN NIL=
RJOO NIL=
RJSS NIL=
RJTT 110730Z 13003KT 9999 FEW025 06/M06 Q1023 NOSIG RMK 1CU025
     A3021=
RODN NIL=

00000000