0000016000
815
SSVX02 CWAO 111700
ZZYY 56945 11014 1700/ 317843 111531 6113/ 11131 
40102 54000 22219 00287 444 20130 11014 1700/ 50101 80144 80023 
9/015=
0000015100
816
SSVX02 CWAO 111700
ZZYY 26535 11014 1700/ 187311 040482 6113/ 11119 
11131 49996 52004 444 20130 11014 1700/ 50101 80134 80001 9////=
0000013900
817
SSVX02 CWAO 111700
ZZYY 64712 11014 1700/ 169557 009929 6113/ 22219 
00063 444 20130 11014 1700/ 50101 80134 80003 9/015=
0000016000
818
SSVX02 CWAO 111700
ZZYY 56512 11014 1700/ 333509 102081 6112/ 11119 
40169 52003 22219 00201 444 20130 11014 1700/ 50101 80148 80011 
9/015=
0000009100
819
SPSP35 LEMM 110711
SPECI LEBZ 110711Z 00000KT 1500 BCFG NSC 05/05 Q1017=

0000011100
820
SPCN51 CWAO 110710
SPECI CWCL 110710Z AUTO 16004KT 5SM FEW003 SCT013 BKN018 M03/M07
A2931=

0000015300
821
SATH32 VTBB 110700 RRA
METAR VTSC 110700Z 07006KT 020V110 5000 -SHRA SCT016 BKN040 OVC100
           25/23 Q1012 A2988 RWY02 INFO G=

0000015200
822
SAUK39 EGGY 110700
METAR EGUN 110658Z AUTO 27011KT 9999 OVC016 07/07 A2990 RMK AO2
     RAE0603DZB0603E0605 SLP129 P0000 T00690069=

0000009600
823
SADJ20 HDAM 110700 RRA
METAR
HDAM 110700Z 080/06KT 9999 FEW020 28/20 Q1018=

0000021100
824
SAIO31 KWBC 110700 RRC
METAR
FJDG 110700Z NIL=
FMCH 110700Z 32005KT 270V020 9999 FEW022 31/24 Q1014 NOSIG=
FMEE 110700Z NIL=
FMMT 110700Z 08004KT 9999 VCSH SCT017TCU 31/26 Q1014 NOSIG=

0000010000
825
SANT31 KWBC 110700 RRA
METAR
LPBJ 110700Z VRB01KT 5000 BCFG FEW001 05/04 Q1016=

0000012100
826
SAGR33 LGAT 110550 RRB
METAR LGSO 110550Z AUTO 34004KT 320V050 //// // //////
     13/11 Q1021 RE//=

0000008700
827
FCRO33 LROM 110500 AAB
TAF AMD LRCV 110700Z 1107/1115 25008KT CAVOK=

0000011300
828
SAGR33 LGAT 110620 RRA
METAR LGSO 110620Z AUTO VRB03KT //// // ////// 14/11 Q1021
     RE//=

0000011300
829
SAGR33 LGAT 110650 RRB
METAR LGSO 110650Z AUTO VRB02KT //// // ////// 14/12 Q1022
     RE//=

0000210400
830
SPUS70 KWBC 110712
SPECI
KANB 110708Z AUTO 05004KT 10SM -RA BKN014 OVC019 12/11 A2987 RMK
     AO2 LTG DSNT E P0001 T01220111=
KAOH 110708Z AUTO 18011KT 5SM -RA BKN011 OVC016 08/ A2961 RMK AO2
     PNO $=
KBEH 110708Z AUTO 19011G20KT 5SM -RA BR OVC004 05/05 A2950 RMK AO2
     P0000=
KGWO 110708Z AUTO 25008KT 3SM -RA BR FEW006 BKN032 OVC060 17/16
     A2972 RMK AO2 P0017 T01670156 TSNO=
KHIB 110708Z AUTO 00000KT 2 1/2SM BR OVC005 M03/M04 A2940 RMK
     AO2=
KHUF 110708Z 18009KT 1/2SM FG OVC002 06/ A2958 RMK AO2 RAE02 P0000
     $=
KPAH 110708Z AUTO 19007KT 10SM FEW007 BKN022 OVC090 11/09 A2960
     RMK AO2 T01060094=
KTHV 110708Z AUTO 11003KT 1/4SM -RA FG VV004 01/01 A3004 RMK AO2
     P0001 T00110006=
KUZA 110708Z AUTO 00000KT 1 1/4SM BR OVC002 06/06 A3000 RMK AO2
     RAE0655 P0000 T00610056=
KARB 110708Z AUTO 21008KT 2SM -RA BR OVC002 04/04 A2958 RMK AO2
     P0001=
KCGI 110709Z AUTO 27004KT 3SM BR OVC020 07/06 A2959 RMK AO2
     T00670061=
PATQ 110708Z AUTO 25009KT 1 1/4SM -SN OVC006 M23/M26 A2982 RMK AO2
     TSNO P0000=
PATQ 110708Z AUTO 25009KT 1 1/4SM -SN OVC006 M23/M26 A2982 RMK AO2
     TSNO P0000=
KASH 110709Z AUTO 00000KT 1 3/4SM UP BR BKN004 00/M01 A3022 RMK
     AO2 UPB07 P0000=
KCQX 110709Z AUTO VRB06KT 2SM BR OVC002 06/06 A3027 RMK AO2
     T00610056=
KCXY 110709Z AUTO 10003KT 1 3/4SM BR OVC003 01/01 A3006 RMK AO2
     RAE00UPB00E03 P0000=
KFFT 110709Z AUTO 28008KT 2SM -RA BR BKN017 OVC024 11/10 A2971 RMK
     AO2 LTG DSNT SW AND W PRESRR P0004 T01060100=
KGON 110709Z 00000KT 1/4SM R05/1800V2400FT FG VV003 04/04 A3020
     RMK AO2=
KHDO 110709Z AUTO 00000KT 1/4SM FG VV005 08/07 A2993 RMK AO2
     T00830072=
KISP 110709Z AUTO 16006KT 2SM -RA BR BKN002 BKN011 OVC024 08/07
     A3015 RMK AO2 P0002=
KLOU 110709Z AUTO 00000KT 1 1/4SM RA BR BKN008 BKN011 OVC041 11/10
     A2967 RMK AO2 PRESFR P0006 TSNO=
KSUX 110709Z 31003KT 2SM BR CLR M06/M07 A2960 RMK AO2
     T10561072=
PAIG 110709Z AUTO 01005KT 1 1/2SM BR OVC003 M08/M08 A2939 RMK AO2
     TSNO $=

0000009800
831
SPUS31 KWBC 110712
SPECI
KCHS 110708Z 20005KT 10SM BKN009 BKN029 19/18 A3004=

0000012100
832
SPUS31 KWBC 110712
SPECI
KLOU 110709Z AUTO 00000KT 1 1/4SM RA BR BKN008 BKN011 OVC041 11/10
A2967=

0000011300
833
SPUS41 KWBC 110712
SPECI
KCEF 110709Z AUTO 02002KT 1 1/4SM R23/4500FT BR OVC002 00/00 A3017=

0000011000
834
SPUS41 KWBC 110712
SPECI
KGON 110709Z 00000KT 1/4SM R05/1800V2400FT FG VV003 04/04 A3020=

00000000