0000013000
195
SAAG41 KWBC 110800 RRA
METAR
SANT 110800Z NIL=
SARL 110800Z NIL=
SAZN 110800Z 11003KT CAVOK 16/M03 Q1017=

0000046500
196
SABZ41 KWBC 110800 RRA
METAR
SBAF 110800Z 05004KT CAVOK 26/22 Q1012=
SBBH 110800Z 10007KT CAVOK 20/17 Q1018=
SBBU 110800Z 02003KT CAVOK 25/21 Q1015=
SBCO 110800Z 00000KT 0100 R30/0700 R12/1300 FG SCT005 21/// Q10
     10=
SBCO 110800Z 00000KT 0100 R30/0700 R12/1300 FG SCT005 21///
     Q1010=
SBDN 110800Z 08003KT CAVOK 23/18 Q1012=
SBGW 110800Z 18002KT CAVOK 19/17 Q1016=
SBIL 110800Z 10011KT 9999 SCT025 SCT090 26/22 Q1014=

0000036000
197
SABZ42 KWBC 110800 RRB
METAR
SBME 110800Z 05005KT CAVOK 24/23 Q1014=
SBMT 110800Z 16002KT CAVOK 20/18 Q1016=
SBSC 110800Z 02008KT CAVOK 26/21 Q1012=
SBSM 110800Z 00000KT 9999 SCT020 SCT070 22/20 Q1010=
SBST 110800Z 00000KT CAVOK 23/22 Q1011=
SBUR 110800Z 05007KT CAVOK 21/15 Q1016=
SBYS 110800Z 00000KT 9999 FEW030 19/18 Q1016=

0000054000
198
SABZ43 KWBC 110800 RRB
METAR
SBAN 110800Z 02004KT 8000 -RA BKN020 FEW035TCU SCT090 16/15 Q10 19
     RETS=
SBAN 110800Z 02004KT 8000 -RA BKN020 FEW035TCU SCT090 16/15 Q1019
     RETS=
SBES 110800Z 05011KT 9999 FEW007 24/22 Q1013=
SBIZ 110800Z 00000KT 6000 FEW007 23/23 Q1010=
SBKG 110800Z 12005KT 9999 SCT015 20/20 Q1014=
SBMK 110800Z 08008KT 9999 BKN025 22/17 Q1017=
SBPJ 110800Z 11003KT 9999 FEW010 22/20 Q1012=
SBQV 110800Z 11004KT 9999 SCT007 19/19 Q1018=
SBUL 110800Z 09008KT CAVOK 19/15 Q1017=

0000010800
199
SACA33 KWBC 110800 RRB
METAR
TNCB 110800Z AUTO 07010KT 030V090 //// ////// 26/22 Q1013=

0000028400
200
FTCN35 CWAO 110800 AAA
TAF AMD CYWA 110812Z 1108/1118 14008KT 4SM -FZRA BR OVC008 TEMPO
     1108/1115 1SM -SN -RA BR OVC003
    FM111500 14008KT 4SM -RA BR OVC008 TEMPO 1115/1118 3/4SM -RA BR
     OVC002
    RMK FCST BASED ON AUTO OBS. NXT FCST BY 111200Z=

0000032100
201
FCUK31 EGGY 110800
TAF EGHH 110758Z 1109/1118 31007KT 9999 FEW040=
TAF EGHI 110758Z 1109/1118 30005KT 9999 FEW040=
TAF EGKA 110800Z NIL=
TAF EGKB 110800Z NIL=
TAF EGLC 110800Z 1109/1113 29012KT 9999 FEW020 SCT030=
TAF EGLF 110800Z NIL=
TAF EGMC 110800Z 1109/1118 30010KT 9999 FEW020 SCT030=

0000037700
202
FCUK32 EGGY 110800
TAF EGNC 110800Z NIL=
TAF EGNH 110801Z 1109/1118 29011KT 9999 FEW025 PROB30 TEMPO
    1109/1110 7000 SHRA BKN014=
TAF EGNJ 110800Z 1109/1118 27012KT 9999 FEW030=
TAF EGNO 110800Z NIL=
TAF EGNR 110800Z NIL=
TAF EGNS 110800Z NIL=
TAF EGNV 110801Z 1109/1118 25009KT 9999 FEW035=
TAF EGSD 110800Z 1109/1118 28013KT 9999 FEW040=

0000047100
203
FCUK33 EGGY 110800
TAF EGHE 110800Z NIL=
TAF EGHQ 110758Z 1109/1118 32008KT 9999 FEW040=
TAF EGJA 110754Z 1109/1118 33010KT 9999 FEW010 BECMG
    1113/1115 03008KT BECMG 1116/1118 10010KT=
TAF EGJB 110754Z 1109/1118 33009KT 9999 FEW010 BECMG
    1113/1115 03008KT BECMG 1116/1118 10011KT=
TAF EGJJ 110754Z 1109/1118 33008KT 9999 FEW010 BECMG
    1113/1115 03008KT BECMG 1116/1118 10011KT=
TAF EGTE 110758Z 1109/1118 30006KT 9999 FEW040=

0000039700
204
FCUK34 EGGY 110800
TAF EGBE 110800Z NIL=
TAF EGBJ 110800Z NIL=
TAF EGCN 110800Z 1109/1118 28009KT 9999 FEW040 PROB30 TEMPO
    1109/1112 8000 SHRA=
TAF EGMD 110800Z NIL=
TAF EGMH 110800Z 1109/1118 29014KT 9999 FEW015 SCT030 PROB30 TEMPO
    1109/1111 6000 RADZ BKN008=
TAF EGSC 110800Z NIL=
TAF EGSH 110800Z 1109/1118 28012KT 9999 FEW040=
TAF EGTC 110800Z NIL=

0000060700
205
FCUK35 EGGY 110800
TAF EGAC 110804Z 1109/1118 23007KT 9999 FEW009 SCT025 PROB30 TEMPO
    1109/1110 9000 -SHRA=
TAF EGAE 110804Z 1109/1118 24010KT 9999 FEW012 SCT025 PROB30 TEMPO
    1109/1113 6000 SHRA BKN012 BECMG 1115/1118 15008KT=
TAF EGEC 110800Z NIL=
TAF EGEO 110800Z NIL=
TAF EGPE 110755Z 1109/1118 22010KT 9999 FEW015 SCT020 PROB30 TEMPO
    1109/1115 22015G25KT 4000 SHRASN BKN006 PROB30 TEMPO 1115/1118
    8000 SHRA BKN014=
TAF EGPI 110805Z 1109/1118 28009KT 9999 FEW030 PROB30 TEMPO
    1109/1115 7000 -SHRA BECMG 1115/1118 22012KT=
TAF EGPN 110800Z NIL=

0000088600
206
FCUK36 EGGY 110800
TAF EGPA 110755Z 1109/1118 28014KT 9999 FEW010 SCT015 PROB30 TEMPO
    1109/1112 4000 SHRASN BKN008 PROB30 TEMPO 1112/1115 6000 SHRA
    BKN010=
TAF EGPB 110755Z 1109/1118 29016KT 9999 FEW010 SCT020 BECMG
    1109/1112 29025G37KT PROB40 TEMPO 1109/1118 6000 SHRA BKN008=
TAF EGPC 110755Z 1109/1118 26014KT 9999 FEW045 PROB30 TEMPO
    1109/1112 4000 SHRASN BKN006 PROB30 TEMPO 1112/1118 6000 SHRA
    BKN012=
TAF EGPL 110805Z 1109/1115 27020KT 9999 FEW030 PROB30 TEMPO
    1109/1110 5000 SHRASN BKN008 PROB30 TEMPO 1110/1115 7000 -SHRA
    BECMG 1112/1115 25008KT=
TAF EGPM 110800Z NIL=
TAF EGPO 110805Z 1109/1118 25014KT 9999 SCT020 PROB30 TEMPO
    1109/1110 5000 SHRASN BKN008 PROB30 TEMPO 1110/1114 7000 -SHRA=
TAF EGPU 110805Z 1109/1112 26014KT 9999 FEW030 PROB40 TEMPO
    1109/1112 26018G28KT 7000 -SHRA BKN012=

0000008700
207
SADL35 EDZO 110750 RRB
METAR EDVE 110750Z 22007KT CAVOK 04/01 Q1014=

0000050300
208
FTUS41 KWBC 110809 AAA
TAF AMD
KMSS 110808Z 1108/1206 06008KT 6SM BR VCSH SCT025 OVC050
      TEMPO 1110/1113 3SM -FZDZ BR OVC020
     FM111300 09009KT 3SM -RA BR BKN009 OVC015 WS020/20040KT
     FM111500 15010G18KT 4SM -RA BR OVC007 WS020/22040KT=
KRIC 110808Z 1108/1206 VRB03KT 2SM -DZ BR OVC002
      TEMPO 1108/1112 1/2SM -RA FG SCT002 BKN010
     FM111200 18010KT 4SM -DZ BR OVC008
     FM111900 19014KT 3SM RA BKN015 BKN040
     FM120000 24012KT 4SM BR BKN050=

0000021800
209
FTUS42 KWBC 110809 AAA
TAF AMD
KNEW 110806Z 1108/1206 21012KT P6SM SCT010 BKN060
      TEMPO 1109/1113 2SM TSRA OVC006CB
     FM111400 27013KT 5SM BR BKN015
     FM111800 31015KT P6SM SCT250=

0000050300
210
FTUS71 KWBC 110809 AAA
TAF AMD
KMSS 110808Z 1108/1206 06008KT 6SM BR VCSH SCT025 OVC050
      TEMPO 1110/1113 3SM -FZDZ BR OVC020
     FM111300 09009KT 3SM -RA BR BKN009 OVC015 WS020/20040KT
     FM111500 15010G18KT 4SM -RA BR OVC007 WS020/22040KT=
KRIC 110808Z 1108/1206 VRB03KT 2SM -DZ BR OVC002
      TEMPO 1108/1112 1/2SM -RA FG SCT002 BKN010
     FM111200 18010KT 4SM -DZ BR OVC008
     FM111900 19014KT 3SM RA BKN015 BKN040
     FM120000 24012KT 4SM BR BKN050=

0000021800
211
FTUS72 KWBC 110809 AAA
TAF AMD
KNEW 110806Z 1108/1206 21012KT P6SM SCT010 BKN060
      TEMPO 1109/1113 2SM TSRA OVC006CB
     FM111400 27013KT 5SM BR BKN015
     FM111800 31015KT P6SM SCT250=

0000024600
212
FTUS73 KWBC 110809
TAF
TAF AMD KRFD 110804Z 1108/1206 18012KT 1/2SM FG VV002
      TEMPO 1108/1109 0SM FG VV001
     FM110900 26010KT P6SM OVC007
     FM111600 27014G22KT P6SM OVC015
     FM112200 27010KT P6SM SCT015=

0000011400
213
SARA31 RUMS 110800
METAR UEEE 110800Z 00000MPS CAVOK M43/M48 Q1035 NOSIG RMK QFE768
23490145=

0000068900
214
SARA32 RUMS 110800
METAR UHBB 110800Z 33003MPS CAVOK M26/M33 Q1024 NOSIG RMK QFE750/1000
36410160=
METAR UHHH 110800Z 24005MPS CAVOK M24/M29 Q1019 NOSIG RMK QFE758/1011
23090060=
METAR UHMA 110800Z 02010G15MPS 9999 DRSN FEW200 M16/M23 Q1012 NOSIG
RMK QFE755/1007=
METAR UHMD 110800Z NIL=
METAR UHMM 110800Z 04003MPS 360V110 9999 SKC M19/M29 Q1010 NOSIG RMK
QFE742 88820555=
METAR UHPP 110800Z 02003MPS 9999 SCT030 BKN100 M06/M14 Q0997 NOSIG
RMK QFE744/0992 SC060=
METAR UHSS 110800Z 12001MPS 4000 SHSN BKN020CB M17/M19 Q1012 NOSIG
RMK QFE758/1011 01810366=
METAR UHWW 110800Z VRB01MPS 9999 BKN050 M07/M21 Q1024 NOSIG RMK
QFE767/1023 25CLRD70=

00000000