0000031900
955
FTUS51 KWBC 110545 CCA
TAF COR
KHKY 110543Z 1106/1206 00000KT 3/4SM -SHRA BR OVC003
     FM111200 18007KT 1/2SM SHRA FG OVC002 WS020/21040KT
     FM111800 22010KT 3SM SHRA OVC007
     FM112100 25009KT P6SM OVC015
     FM112300 27009KT P6SM BKN040
     FM120200 29009KT P6SM SCT040 BKN250=

0000139400
956
FTUS53 KWBC 110545
TAF
KBFF 110544Z 1106/1206 29012KT P6SM BKN100
     FM110800 29014KT P6SM SCT090
     FM111600 29018G30KT P6SM SCT090
     FM112300 27015G25KT P6SM SCT090
     FM120200 21010KT P6SM SCT090=
KCDR 110544Z 1106/1206 29015G27KT P6SM BKN060
     FM110900 29017G28KT P6SM SCT060
     FM111600 28010KT P6SM SCT060
     FM111900 27011G24KT P6SM SCT060
     FM120200 24016G28KT P6SM SCT060=
KCMI 110542Z 1106/1206 21007KT 1/4SM -RADZ FG VV002
     FM111300 24012KT 1SM BR OVC003
     FM111600 26012G18KT 6SM BR OVC005
     FM112200 26014G22KT P6SM BKN015
     FM120100 27014KT P6SM SCT250=
KCYS 110544Z 1106/1206 30022G33KT P6SM SCT100
     FM110800 29025G40KT P6SM SCT100
     FM111700 27025G43KT P6SM BKN100
     FM120000 25018G30KT P6SM BKN100=
KDEC 110542Z 1106/1206 20009KT 2SM -RA BR OVC003
     FM110700 21010KT 2SM -DZ BR OVC003
      TEMPO 1107/1111 1/2SM FG OVC002
     FM111400 26012G18KT P6SM OVC005
     FM111900 27013G23KT P6SM BKN015
     FM112200 28012KT P6SM SCT250=
KFSD 110542Z 1106/1206 29004KT 6SM BR SKC
      TEMPO 1106/1107 5SM BR
     FM110700 31008KT P6SM SKC
     FM111600 30013G19KT P6SM FEW050
     FM112200 26008KT P6SM FEW050
     FM120200 19012KT P6SM SCT150=
KHON 110542Z 1106/1206 29009KT P6SM SKC
     FM112200 24008KT P6SM SKC
     FM120000 18012KT P6SM BKN150=

0000026900
957
FTUS53 KWBC 110545 RRB
TAF
KSUX 110542Z 1106/1206 29006KT 3SM BR SKC
      TEMPO 1106/1107 1 1/2SM BR
     FM110700 31009KT P6SM SKC
     FM111600 31015G20KT P6SM FEW050
     FM112300 26008KT P6SM FEW050
     FM120300 18011KT P6SM FEW150=

0000023300
958
FTUS54 KWBC 110545
TAF
TAF KRDM 110538Z 1106/1206 19015G25KT P6SM BKN070 BKN100
     FM111500 22022G40KT P6SM VCSH BKN050
     FM111800 23030G45KT P6SM VCSH BKN050
     FM120200 30030G45KT P6SM VCSH BKN050=

0000133200
959
FTUS80 KWBC 110545
TAF
KAZO 110542Z 1106/1206 18010G16KT P6SM -RA OVC004
     FM110700 19013KT 5SM -RA BR OVC004
     FM110800 20011KT 1 1/2SM -RA BR OVC003
     FM111000 20008KT 3/4SM -RA BR OVC004
     FM111200 22007KT 1/2SM -DZ FG OVC004
     FM111600 27012G22KT 4SM -SN BR OVC008
     FM112300 28013KT P6SM OVC025=
KBFF 110544Z 1106/1206 29012KT P6SM BKN100
     FM110800 29014KT P6SM SCT090
     FM111600 29018G30KT P6SM SCT090
     FM112300 27015G25KT P6SM SCT090
     FM120200 21010KT P6SM SCT090=
KBMI 110542Z 1106/1206 20011KT 1/4SM FG VCSH OVC001
     FM111000 24012KT 1SM BR OVC002
     FM111200 26012G18KT 3SM BR OVC003
     FM111900 28014G23KT P6SM BKN015
     FM112200 27014KT P6SM SCT250=
KBNA 110543Z 1106/1206 19010G20KT P6SM SCT015 OVC035
     FM110800 19015G25KT 4SM -SHRA BR VCTS OVC008CB
      TEMPO 1108/1112 1SM TSRA OVC005CB
     FM111200 26012G25KT P6SM OVC025
     FM111500 27010G20KT P6SM BKN050
     FM120000 28007KT P6SM SCT150=
KBTL 110542Z 1106/1206 17013G22KT P6SM -RA OVC007
     FM110700 19013KT 5SM -RA BR OVC004
     FM110800 20011KT 1 1/2SM -RA BR OVC003
     FM111000 20008KT 3/4SM -RA BR OVC004
     FM111200 22007KT 1/2SM -DZ FG OVC004
     FM111600 27012G22KT 4SM -SN BR OVC008
     FM112300 28013KT P6SM OVC025=

0000031900
960
FTUS80 KWBC 110545 CCA
TAF COR
KHKY 110543Z 1106/1206 00000KT 3/4SM -SHRA BR OVC003
     FM111200 18007KT 1/2SM SHRA FG OVC002 WS020/21040KT
     FM111800 22010KT 3SM SHRA OVC007
     FM112100 25009KT P6SM OVC015
     FM112300 27009KT P6SM BKN040
     FM120200 29009KT P6SM SCT040 BKN250=

0000125800
961
FTUS80 KWBC 110545 RRB
TAF
KECG 110542Z 1106/1206 17012KT P6SM SCT040 BKN100
      TEMPO 1106/1110 2SM RA SCT006 BKN015
     FM111100 19015G22KT 4SM -SHRA BR BKN015 BKN040
     FM111700 20015G27KT P6SM SCT025 BKN080
     FM112200 21015G25KT 3SM SHRA BKN015 BKN040
     FM120300 26012KT 5SM BR BKN050=
KFSD 110542Z 1106/1206 29004KT 6SM BR SKC
      TEMPO 1106/1107 5SM BR
     FM110700 31008KT P6SM SKC
     FM111600 30013G19KT P6SM FEW050
     FM112200 26008KT P6SM FEW050
     FM120200 19012KT P6SM SCT150=
KGNV 110543Z 1106/1206 00000KT 1/4SM FG VV002
      TEMPO 1109/1113 1/2SM FG OVC003
     FM111400 20010G18KT P6SM VCSH BKN015 OVC025
     FM111700 24014G23KT 5SM -SHRA OVC015
     FM112000 24016G25KT 4SM SHRA VCTS BKN025CB
     FM120000 25011G16KT 6SM -SHRA SCT025 BKN050=
KGRR 110542Z 1106/1206 19012G16KT P6SM -RA OVC006
     FM110700 19013KT 5SM -RA BR OVC005
     FM110800 20011KT 1 1/2SM -RA BR OVC003
     FM111000 20008KT 3/4SM -RA BR OVC004
     FM111200 22007KT 1/2SM -DZ FG OVC004
     FM111600 27012G22KT 4SM -SN BR OVC008
     FM112300 28013KT P6SM OVC025=
KHON 110542Z 1106/1206 29009KT P6SM SKC
     FM112200 24008KT P6SM SKC
     FM120000 18012KT P6SM BKN150=

0000130000
962
FTUS80 KWBC 110545 RRC
TAF
KJAX 110543Z 1106/1206 16003KT 2SM BR BKN005 OVC010
      TEMPO 1108/1112 1/2SM FG OVC002
     FM111400 20010G18KT P6SM VCSH BKN015 OVC025
     FM111700 24014G23KT 5SM -SHRA OVC015
     FM112000 24016G25KT 4SM SHRA VCTS BKN025CB
     FM120000 25011G16KT 6SM -SHRA SCT025 BKN050=
KJXN 110542Z 1106/1206 17012KT P6SM -RA OVC004
     FM111000 22012KT 1 1/2SM -DZ BR OVC005
     FM111200 22007KT 1/2SM -DZ FG OVC004
     FM111600 27012G22KT 4SM -SN BR OVC008
     FM112300 28013KT P6SM OVC025=
KLAN 110542Z 1106/1206 16012KT P6SM -RA BKN008 OVC012
     FM110700 19013KT 5SM -RA BR OVC005
     FM110800 20011KT 1 1/2SM -RA BR OVC003
     FM111000 20008KT 3/4SM -RA BR OVC004
     FM111200 22007KT 1/2SM -DZ FG OVC004
     FM111800 27012G22KT 4SM -SN BR OVC008
     FM112300 28013KT P6SM OVC025=
KLAR 110544Z 1106/1206 27023G35KT P6SM SCT100
     FM111000 27028G44KT P6SM SCT100
     FM111800 25028G42KT P6SM BKN100
     FM120200 23029G45KT P6SM BKN100=
TAF KLCK 110539Z 1106/1206 16010KT P6SM VCSH OVC025
     FM110800 17012KT 4SM -SHRA BR OVC008
      TEMPO 1108/1110 2SM -TSRA BR BKN008 OVC020CB
     FM111300 20012KT P6SM OVC012
     FM111600 24015G25KT P6SM OVC018
     FM120100 26013KT P6SM OVC009=

0000145800
963
FTUS80 KWBC 110545 RRD
TAF
KMKG 110542Z 1106/1206 18012G18KT P6SM -RA OVC007
     FM110800 18011KT 1 1/2SM -RA BR OVC003
     FM111000 20008KT 3/4SM -RA BR OVC004
     FM111200 22007KT 1/2SM -DZ FG OVC004
     FM111600 27009KT 4SM -SN BR OVC008
     FM112300 28013KT P6SM OVC025=
KORF 110542Z 1106/1206 17012KT P6SM SCT040 BKN100
      TEMPO 1106/1110 2SM RA SCT006 BKN015
     FM111100 19015G22KT 4SM -SHRA BR BKN015 BKN040
     FM111700 20015G27KT P6SM SCT020 BKN070
     FM112200 21015G25KT 3SM SHRA BKN015 BKN040
     FM120300 26012KT 5SM BR BKN050=
TAF KPBG 110539Z 1106/1206 15002KT P6SM SCT035 OVC050
     FM110800 15007KT P6SM VCSH SCT020 BKN030 OVC035
      TEMPO 1108/1110 4SM -FZDZ BR BKN015 OVC020
     FM111300 15010KT 3SM -RA BR OVC011 WS020/18050KT
     FM111500 16010G18KT 4SM -RA BR OVC008 WS020/18050KT
     FM111800 18010G16KT 3SM RA BR SCT004 BKN006 OVC008=
KPHF 110542Z 1106/1206 17012KT P6SM SCT040 BKN100
      TEMPO 1106/1110 2SM RA SCT006 BKN015
     FM111100 18014G22KT 4SM -SHRA BR BKN015 BKN040
     FM111700 19015G27KT P6SM SCT020 BKN070
     FM112100 21015G25KT 3SM SHRA BKN015 BKN040
     FM120200 26012KT 5SM BR BKN050=
KPIA 110542Z 1106/1206 20008KT 1/2SM -DZ FG VV002
     FM110900 25009KT 2SM BR OVC003
     FM111400 26012G18KT 6SM BR OVC004
     FM111800 28012G22KT P6SM BKN015
     FM112100 27012KT P6SM SCT250
     FM120000 28008KT P6SM SKC=

0000137000
964
FTUS80 KWBC 110545 RRA
TAF
KCDR 110544Z 1106/1206 29015G27KT P6SM BKN060
     FM110900 29017G28KT P6SM SCT060
     FM111600 28010KT P6SM SCT060
     FM111900 27011G24KT P6SM SCT060
     FM120200 24016G28KT P6SM SCT060=
KCKV 110543Z 1106/1206 19015G25KT 4SM SHRA BR VCTS BKN006CB OVC015
      TEMPO 1106/1110 1SM TSRA OVC005CB
     FM111000 25012G22KT 5SM -SHRA BR BKN011 OVC025
     FM111300 27015G25KT P6SM OVC025
     FM111600 27012G25KT P6SM BKN080
     FM120000 28007KT P6SM SCT150=
KCMI 110542Z 1106/1206 21007KT 1/4SM -RADZ FG VV002
     FM111300 24012KT 1SM BR OVC003
     FM111600 26012G18KT 6SM BR OVC005
     FM112200 26014G22KT P6SM BKN015
     FM120100 27014KT P6SM SCT250=
KCSV 110543Z 1106/1206 19008G16KT P6SM OVC004
     FM110800 17010G20KT 3SM -SHRA BR OVC002
     FM111000 18012G22KT 2SM SHRA BR OVC002
     FM111500 26010G20KT P6SM OVC015
     FM111800 27010G20KT P6SM BKN050=
KCYS 110544Z 1106/1206 30022G33KT P6SM SCT100
     FM110800 29025G40KT P6SM SCT100
     FM111700 27025G43KT P6SM BKN100
     FM120000 25018G30KT P6SM BKN100=
KDEC 110542Z 1106/1206 20009KT 2SM -RA BR OVC003
     FM110700 21010KT 2SM -DZ BR OVC003
      TEMPO 1107/1111 1/2SM FG OVC002
     FM111400 26012G18KT P6SM OVC005
     FM111900 27013G23KT P6SM BKN015
     FM112200 28012KT P6SM SCT250=

0000066600
965
FTUS80 KWBC 110545 RRF
TAF
KSSI 110543Z 1106/1206 17005KT 1/2SM FG VV002
      TEMPO 1108/1112 1/4SM FG VV001
     FM111500 20010G18KT P6SM VCSH BKN015 OVC025
     FM111700 22012G20KT 5SM -SHRA OVC015
     FM111900 24012G20KT 4SM SHRA VCTS BKN025CB
     FM120000 24012G18KT 6SM -SHRA SCT025 BKN050=
KSUX 110542Z 1106/1206 29006KT 3SM BR SKC
      TEMPO 1106/1107 1 1/2SM BR
     FM110700 31009KT P6SM SKC
     FM111600 31015G20KT P6SM FEW050
     FM112300 26008KT P6SM FEW050
     FM120300 18011KT P6SM FEW150=
TAF PAFA 110539Z 1106/1212 00000KT P6SM FEW002 FEW090=
TAF PASC 110539Z 1106/1206 25020KT 1SM -SN BR OVC010=

0000126800
966
FTUS80 KWBC 110545 RRE
TAF
TAF KRDM 110538Z 1106/1206 19015G25KT P6SM BKN070 BKN100
     FM111500 22022G40KT P6SM VCSH BKN050
     FM111800 23030G45KT P6SM VCSH BKN050
     FM120200 30030G45KT P6SM VCSH BKN050=
KRIC 110542Z 1106/1206 VRB03KT 2SM -DZ BR BKN005
      TEMPO 1106/1110 1SM -RA BR SCT005 BKN020
     FM111100 18010KT 4SM -DZ BR OVC008
     FM111900 19014KT 3SM RA BKN015 BKN040
     FM120000 24012KT 4SM BR BKN050=
KRWL 110544Z 1106/1206 25027G42KT P6SM SCT100
     FM111000 24028G45KT 2SM -SN BR OVC025
     FM111500 24029G45KT P6SM BKN100
     FM112100 22026G40KT P6SM BKN100
     FM120200 24035G48KT P6SM BKN045=
KSBY 110542Z 1106/1206 16008KT P6SM BKN025 BKN070
      TEMPO 1107/1111 3SM -RA BKN010
     FM111200 18014G20KT 4SM -RA BR OVC010
     FM111900 17022KT 4SM -RA SCT012 BKN040=
KSNY 110544Z 1106/1206 30016KT P6SM OVC090
     FM110900 30017G30KT P6SM BKN090
     FM111600 29016G30KT P6SM SCT080
     FM120200 24013G22KT P6SM SCT080=
KSPI 110542Z 1106/1206 19012KT 6SM -DZ BR OVC006
     FM110700 22012KT 3SM -DZ BR OVC005
      TEMPO 1107/1110 3/4SM BR OVC003
     FM111400 26012G18KT P6SM OVC006
     FM111700 27014G22KT P6SM BKN015
     FM112100 27014KT P6SM SCT250=

0000012400
967
SPUS31 KWBC 110545
SPECI
KMEM 110541Z 23010G18KT 200V270 2SM +RA BR SCT006 SCT012 OVC025
14/13 A2969=

0000009700
968
SPUS42 KWBC 110545
SPECI
KHRL 110541Z 20009KT 1 3/4SM BR BKN003 18/18 A2990=

0000012000
969
SPUS42 KWBC 110545
SPECI
KPNS 110541Z AUTO 18007KT 1/2SM R17/2600V4500FT RA FG VV002 19/18
A2996=

0000009700
970
SPCN42 CWAO 110545
SPECI CYUA 110545Z AUTO 30020KT 1 3/4SM -SN CLR M25/ A2973=

0000010200
971
SAAB31 LATI 110550
METAR LATI 110550Z 04002KT 9999 BKN055 BKN080 10/08 Q1023 NOSIG=

0000066000
972
SAUK20 EGGY 110550
METAR EGRE 110550Z AUTO 06019KT 1400 -SN BKN014/// 02/M02 Q0997
     W///S5=
METAR EGRK 110550Z AUTO 27030KT 9999 FEW024/// 06/01 Q0998 W///S5=
METAR EGRM 110550Z AUTO 27028KT 9999 NCD 05/01 Q1001 W///S5=
METAR EGRO 110550Z AUTO 29027KT //// // ///////// 06/01 Q1003 W///S5=
METAR EGRP 110550Z AUTO 28013KT 250V320 9999 SCT034/// ///// Q1004
     W///S4=
METAR EGRS 110550Z AUTO 29025KT 9999 FEW030/// 06/M00 Q1004 W///S4=
METAR EGRV 110550Z AUTO 31015KT 9999 -RA SCT011/// SCT019/// 07/05
     Q1009 RERA W///S3=
METAR EGRW 110550Z AUTO 32021KT 9999 FEW008/// BKN015/// 07/06 Q1009
     RERA W///S4=

0000047500
973
SAUK21 EGGY 110550
METAR EGRF 110550Z AUTO 28028KT 9999 FEW035/// 07/M01 Q0998 W///S6=
METAR EGRG 110550Z AUTO 09015KT 9999 FEW026/// 04/02 Q0996 W///S5=
METAR EGRI 110550Z AUTO 25028KT 9999 RA SCT024/// BKN029/// 06/01
     Q1000=
METAR EGRL 110550Z AUTO 27023G36KT 160V000 9999 NCD 06/01 Q0999
     W///S5=
METAR EGRN 110550Z AUTO 30022KT 9999 NCD 06/M00 Q1005=
METAR EGRT 110550Z AUTO /////KT 9999 FEW016/// 07/03 Q1009 RERA
     W///S3=

0000014500
974
SAFA31 EKCH 110550
METAR EKVG 110550Z AUTO 26024KT 9000NDV -SHRA  BKN012/// 03/01
Q0996 RMK BKN009/// WIND 850FT 29034G47KT=

00000000