0000039700
215
FTUS71 KWBC 110724 AAA
TAF AMD
KLGA 110721Z 1107/1206 05007KT 1SM -SHRA BR OVC003 WS020/19040KT
      TEMPO 1107/1109 1/2SM -SHRA FG
     FM110900 15009KT 3SM -RA BR SCT003 OVC050 WS020/19055KT
     FM111400 17016KT 5SM -RA BR SCT015 OVC050 WS015/19060KT
     FM111800 18021G30KT 1/2SM +RA FG OVC004 WS015/19060KT
     FM120300 23014G20KT 3SM -SHRA BR SCT015 BKN030=

0000010900
216
SAHW31 KWBC 110700 RRA
METAR
PHLI 110720Z 05017KT 10SM FEW017 SCT022 BKN047 23/21 A2998=

0000010100
217
SAIO31 KWBC 110700 RRD
METAR
VRMM 110700Z 07014KT 9000 FEW018 31/24 Q1012 NOSIG=

0000079600
218
SASN32 ESWI 110720
METAR ESKN 110720Z 36007KT 9999 BKN004 M02/M02 Q0999 R26/720155=
METAR ESOE 110720Z AUTO 05010KT 7000NDV SG FEW006/// SCT008///
BKN020/// M04/M04 Q1000 RESN=
METAR ESOK 110720Z AUTO 05011KT 1100 R03/P1500N R21/P1500N -SN
BKN005/// BKN008/// M03/M03 Q0999=
METAR ESOW 110720Z AUTO 01006KT 9999NDV FEW010/// SCT022///
OVC034/// M05/M06 Q1001=
METAR ESSA 110720Z 34004KT 4300 -SN OVC040 M04/M05 Q1001 R01L/520250
R08/520255 R01R/////// TEMPO 2000=
METAR ESSB 110720Z 36004KT 1600 -SN BKN007 M04/M04 Q1000
R30/69//51=
METAR ESSD 110720Z AUTO 01004KT 9999 -SN FEW003/// SCT017///
OVC027/// M08/M10 Q1002=
METAR ESSP 110720Z 00000KT 4000 -DZ BR BKN006 00/00 Q0999=
METAR ESSV 110720Z 23014KT 9999 FEW007 BKN022 04/04 Q1000
R21/29//95=

0000068900
219
SASN33 ESWI 110720
METAR ESNG 110720Z AUTO 33003KT 290V020 9999 SG NCD M23/M26 Q1013=
METAR ESNK 110720Z AUTO 34011KT 9999 -SN FEW023/// BKN036/// M10/M14
Q1006=
METAR ESNN 110720Z AUTO 32010KT 3000NDV -SN NCD M10/M12 Q1005
R16/49/79=
METAR ESNO 110720Z AUTO 36013KT 330V030 4900 -SN SCT019/// OVC040///
M12/M15 Q1004=
METAR ESNQ 110720Z AUTO 20001KT 9999NDV SG NCD M22/M23 Q1013 RESN=
METAR ESNS 110720Z 36012KT 1700 SN VV008 M14/M15 Q1007=
METAR ESNU 110720Z 35014KT 4000 -SN OVC034 M12/M14 Q1005 R14/49//50=
METAR ESNZ 110720Z 05003KT 9999 -SN OVC027 M14/M16 Q1004=
METAR ESUT 110720Z AUTO VRB04G16KT 060V320 9999 BKN110/// M13/M21
Q1006 RESN=

0000051900
220
SASN34 ESWI 110720
METAR ESCF 110720Z AUTO 24009KT 9999NDV BKN019/// OVC039/// 03/03 
Q0999=
METAR ESDF 110720Z AUTO 24008KT 9999NDV FEW012/// OVC020/// 05/03 
Q1004=
METAR ESIB 110720Z AUTO 23008KT 9999NDV SCT015/// BKN020/// 
OVC052/// 05/04 Q0999=
METAR ESMV 110720Z NIL=
METAR ESPA 110720Z 01008KT CAVOK M16/M19 Q1011=
METAR ESPE 110720Z AUTO 36007KT 9999NDV NCD M17/M20 Q1011=
METAR ESSL 110720Z AUTO 23008KT 9999NDV FEW017/// SCT024///
BKN038/// 03/02 Q0999 REDZ R29/19//95=

0000040700
221
SASN35 ESWI 110720
METAR ESGR 110720Z NIL=
METAR ESKM 110720Z NIL=
METAR ESNL 110720Z AUTO 35008KT 9999NDV -SN FEW013/// SCT016///
BKN028/// M14/M17 Q1007=
METAR ESNX 110720Z AUTO 01008KT 9999NDV NCD M18/M21 Q1008=
METAR ESNY 110720Z NIL=
METAR ESSF 110720Z NIL=
METAR ESSK 110720Z NIL=
METAR ESUD 110720Z AUTO 02007KT 340V060 6000 -SN BKN018/// OVC024///
M15/M18 Q1008=

0000032000
222
SADL33 EDZO 110720
METAR EDFE 110720Z VRB02KT 9000 FEW040 BKN090 M01/M02 Q1017=
METAR EDFH 110720Z 22008KT 9999 -RA FEW021 BKN040 04/02 Q1015=
METAR EDFM 110720Z VRB01KT CAVOK M00/M01 Q1018=
METAR EDLV 110720Z 23006KT 6000 BKN004 02/02 Q1015=
METAR EDVK 110720Z 14004KT 8000 NSC M00/M01 Q1015=

0000049500
223
SADL34 EDZO 110720
METAR EDGS 110720Z 21008KT 4000 1300S PRFG BR SCT001 SCT084 01/01
Q1014=
METAR EDHL 110720Z 22010KT 4000 BR BKN008 06/04 Q1010=
METAR EDLN 110720Z 10002KT CAVOK M01/M01 Q1015=
METAR EDLP 110720Z 20013KT CAVOK 03/M02 Q1014=
METAR EDLW 110720Z 19011KT CAVOK 03/00 Q1014=
METAR EDMA 110720Z 13003KT 8000 NSC M02/M02 Q1017=
METAR EDQM 110720Z AUTO 19004KT 9999NDV NCD M00/M02 Q1016=
METAR EDSB 110720Z VRB02KT 7000 -RA FEW035 BKN061 01/00 Q1017=

0000029600
224
SADL35 EDZO 110720
METAR EDAH 110720Z 22013KT 9000 OVC015 05/03 Q1011=
METAR EDHK 110720Z 23013KT 5000 -DZ OVC007 06/05 Q1008=
METAR EDJA 110720Z VRB02KT 9000 NSC M01/M01 Q1016=
METAR EDTL 110720Z 01002KT CAVOK 02/02 Q1017=
METAR EDVE 110720Z 23007KT CAVOK 03/01 Q1014=

0000025900
225
SANO36 ENMI 110720
METAR ENBS 110720Z 22005KT 9999 VCSH SCT030 BKN060 M08/M12 Q1015=
METAR ENHK 110720Z NIL=
METAR ENHV 110720Z NIL=
METAR ENLK 110720Z NIL=
METAR ENMH 110720Z NIL=
METAR ENNK 110720Z NIL=
METAR ENNM 110720Z NIL=

0000043900
226
SANO35 ENMI 110720
METAR ENMS 110720Z VRB06KT 9999 FEW040 M10/M18 Q1009 RMK WIND 412FT
           VRB04KT=
METAR ENRM 110720Z 11016KT CAVOK M08/M15 Q1006=
METAR ENRS 110720Z 08024KT 9999 FEW045 M04/M12 Q1011=
METAR ENSK 110720Z NIL=
METAR ENSO 110720Z NIL=
METAR ENST 110720Z 33010KT 280V080 9999 FEW050 M07/M16 Q1008 RMK WIND
           300FT VRB12G22KT RMK TURB WRNG - SEE IPPC=
METAR ENVD 110720Z NIL=

0000057800
227
SANO38 ENMI 110720
METAR ENDR 110720Z AUTO 08022KT M04/M08 Q1001=
METAR ENEK 110720Z NIL=
METAR ENGC 110705Z 07016KT 9999 -SHSN BKN019 02/M01 Q0997 W06/S5=
METAR ENHE 110720Z 10030KT 9999 BKN020 M03/M07 Q1003 W///S5=
METAR ENOA 110720Z 32018KT 9999 BKN026 06/03 Q0996 W///S5=
METAR ENSL 110720Z 29033KT 9999 -SHRA FEW020 SCT029 BKN037 06/02
           Q1001 W06/S5=
METAR ENFB 110720Z AUTO 06018KT 9999NDV -SHRA OVC015/// 02/00 Q0998
           W///S5=
METAR ENSF 110720Z AUTO 06019KT 9999NDV -SHRA BKN012/// 02/00 Q0997
           W///S5=

0000012500
228
SAMO31 ZMUB 110730
METAR ZMUB 110730Z VRB01MPS 4000NW FU NSC M21/M25 Q1028 NOSIG RMK
 QFE662.4 68 NW MO=

0000054400
229
SANO33 ENMI 110720
METAR ENAT 110720Z NIL=
METAR ENBL 110720Z VRB02KT 2500 -SN VV010 M03/M03 Q0994=
METAR ENEV 110720Z 14009KT CAVOK M08/M15 Q1016 RMK WIND 1400FT
           09017KT=
METAR ENFL 110720Z 09005KT 9999 -SN FEW008 SCT016 BKN025 M01/M02
           Q0997=
METAR ENKB 110720Z 11006KT 060V130 8000 -SN SCT009 SCT023 M04/M08
           Q0999=
METAR ENKR 110720Z 16007KT 4000 -SN FEW002 SCT006 BKN010 M20/M22
           Q1017 RMK WIND 775FT 25017KT=
METAR ENML 110720Z NIL=
METAR ENNA 110720Z NIL=

0000042600
230
SAFI33 EFHK 110720
EFJO 110720Z AUTO 36010KT 330V040 9999 -SN SCT014 BKN022 M09/M11
Q0998=
EFLP 110720Z AUTO 36008KT 320V040 9999 OVC013 M06/M09 Q0997=
EFMI 110720Z AUTO VRB04KT 9999 -SN OVC012 M07/M09 Q0999=
EFSA 110720Z AUTO 33007KT 290V360 7000 -SN OVC015 M07/M09 Q0997=
EFUT 110720Z AUTO 36010KT 320V040 9999 OVC011 M06/M08 Q0998=
EFVR 110720Z AUTO 36008KT 1000 SN FZBR OVC015 M08/M11 Q0999=

0000073200
231
SANO39 ENMI 110720
METAR ENNE 110720Z 08024KT 9999 -SHSN BKN025 M03/M09 Q1006 W02/S/=
METAR ENQR 110720Z AUTO 08009KT 050V110 7000NDV -RASN OVC011///
           02/M01 Q0998 W///S/=
METAR ENSE 110720Z AUTO 07022KT 9999NDV -RASN FEW003/// SCT012///
           BKN018/// 00/M02 Q0998 W///S5=
METAR ENQC 110720Z AUTO 03009KT 9999NDV OVC016/// 03/00 Q0996
           W///S4=
METAR ENQA 110720Z AUTO 08006KT 060V120 9999NDV -SHRA FEW012///
           BKN018/// OVC033/// 04/03 Q0997 W04/S4=
METAR ENHM 110720Z 26027KT 9999 FEW026 06/02 Q0998 W08/S5=
METAR ENVH 110720Z AUTO 31020KT 9999NDV NCD 06/01 Q1005 W///S4=
METAR ENLA 110720Z AUTO 29023KT 9999NDV SCT030/// 06/01 Q1004
           W///S4=

0000058400
232
SANO32 ENMI 110720
METAR ENAL 110720Z 08008KT 9999 SCT034 M02/M06 Q0998=
METAR ENCN 110720Z 24002KT 9999 BCFG FEW048 01/01 Q1000=
METAR ENHD 110720Z 28019KT 9999 VCSH FEW012 SCT023 BKN041 05/03
           Q0999=
METAR ENRO 110720Z AUTO 10008KT 070V130 9999NDV -SHSN SCT019///
           OVC062/// M16/M19 Q0998=
METAR ENRY 110720Z 34001KT 9999 MIFG NSC M01/M02 Q0998=
METAR ENSB 110720Z NIL=
METAR ENTC 110720Z VRB02KT 9999 FEW011 M12/M14 Q1018 NOSIG RMK WIND
           2600FT 11009KT=
METAR ENTO 110720Z 02005KT 330V050 9999 NSC M00/M01 Q0997=

0000014700
233
SNAA19 LFVW 111700
AAXX 11174
89661 46/// /0201 11042 29071 39337 4//// 5////=
89648 46/// /2205 11304 29073 37224 4//// 5////=
0000261800
234
UDFR01 LFPW 111717
AMDAR 1117
DES EU0210 3217N 03450E 111701 F242 MS337 /// 316/033 TB0 S031
333 F242 VG006=
DES EU0210 3216N 03452E 111701 F232 MS312 /// 321/031 TB0 S031
333 F232 VG002=
DES EU0210 3214N 03455E 111701 F222 MS290 /// 318/029 TB1 S031
333 F222 VG018=
DES EU0210 3213N 03458E 111702 F211 MS270 /// 323/029 TB2 S031
333 F211 VG037=
DES EU0210 3212N 03501E 111702 F203 MS252 /// 322/028 TB0 S031
333 F203 VG006=
DES EU0210 3211N 03503E 111702 F197 MS230 /// 324/026 TB0 S031
333 F197 VG002=
DES EU0210 3210N 03505E 111703 F192 MS220 /// 326/026 TB0 S031
333 F192 VG002=
DES EU0210 3208N 03508E 111703 F188 MS212 /// 321/026 TB0 S031
333 F188 VG002=
DES EU0210 3208N 03510E 111703 F184 MS202 /// 320/024 TB1 S031
333 F184 VG018=
DES EU0210 3207N 03512E 111704 F177 MS187 /// 322/024 TB0 S031
333 F177 VG004=
DES EU0210 3206N 03514E 111704 F170 MS170 /// 319/022 TB0 S031
333 F170 VG005=
DES EU0210 3205N 03516E 111704 F162 MS147 /// 315/021 TB0 S031
333 F162 VG005=
DES EU0210 3204N 03518E 111705 F154 MS127 /// 314/022 TB0 S031
333 F154 VG004=
DES EU0210 3204N 03520E 111705 F145 MS105 /// 315/021 TB0 S031
333 F145 VG003=
DES EU0210 3202N 03522E 111705 F138 MS085 /// 311/020 TB1 S031
333 F138 VG014=
DES EU0210 3202N 03523E 111706 F130 MS067 /// 316/021 TB1 S031
333 F130 VG012=
DES EU0210 3201N 03525E 111706 F123 MS045 /// 320/018 TB0 S031
333 F123 VG008=
DES EU0210 3200N 03527E 111706 F116 MS032 /// 325/017 TB0 S031
333 F116 VG004=
DES EU0210 3159N 03529E 111707 F110 MS020 /// 329/016 TB1 S031
333 F110 VG021=
DES EU0210 3158N 03531E 111707 F107 MS012 /// 327/016 TB0 S031
333 F107 VG004=
DES EU0210 3158N 03532E 111707 F104 MS007 /// 319/018 TB1 S031
333 F104 VG016=
DES EU0210 3156N 03534E 111708 F099 MS005 /// 331/017 TB0 S031
333 F099 VG005=
UNS EU0210 3156N 03536E 111708 F095 MS002 /// 337/017 TB1 S031
333 F095 VG019=
DES EU0210 3155N 03538E 111708 F090 PS005 /// 334/020 TB0 S031
333 F090 VG010=
DES EU0210 3155N 03540E 111709 F085 PS020 /// 333/018 TB0 S031
333 F085 VG009=
DES EU0210 3155N 03541E 111709 F082 PS022 /// 339/017 TB0 S031
333 F082 VG009=
DES EU0210 3155N 03543E 111709 F079 PS035 /// 336/017 TB1 S031
333 F079 VG010=
DES EU0210 3155N 03545E 111710 F076 PS040 /// 336/017 TB0 S031
333 F076 VG003=
DES EU0210 3155N 03547E 111710 F072 PS040 /// 340/015 TB1 S031
333 F072 VG016=
DES EU0210 3155N 03549E 111710 F069 PS042 /// 340/015 TB0 S031
333 F069 VG001=
DES EU0210 3154N 03550E 111711 F066 PS050 /// 339/000 TB0 S031
333 F066 VG///=
00000000