0000017300
035
SAAK31 KWBC 110600 RRA
METAR
PAVD 110616Z 10SM BKN120 M07/M10 A2927=
PAWG 110616Z 00000KT 10SM CLR 01/M02 A2921=
PFYU 110616Z 00000KT 7SM CLR A2968=

0000033800
036
SASW31 LSSW 110620
METAR LSZH 110620Z VRB02KT 0700 R14/1400U R16/1400D R28/P2000N
    R34/1200D BCFG VV002 02/01 Q1018 NOSIG=
METAR LSGG 110620Z 00000KT CAVOK 02/02 Q1018 NOSIG=
METAR LSZB 110620Z 00000KT 4000 BR FEW003 BKN130 M01/M01 Q1017
    NOSIG=
METAR LSZA 110620Z VRB02KT 9999 BKN044 07/06 Q1021 NOSIG=

0000028700
037
SAIO31 KWBC 110600 RRC
METAR
FMCH 110600Z 33006KT 300V360 9999 SCT022 30/24 Q1014 NOSIG=
FMCZ 110600Z VRB03KT 9999 FEW021 BKN300 30/23 Q1014 NOSIG=
FMMT 110600Z 36004KT 9999 VCSH SCT017TCU 30/26 Q1014 NOSIG=
FMNN 110600Z 22008KT 9999 SCT020 SCT100 29/23 Q1011=

0000213000
038
SPUS70 KWBC 110618
SPECI
KNFE 110614Z AUTO 15011KT 10SM -RA FEW006 BKN050 OVC110 17/14
     A3010 RMK AO2 P0001 T01720144=
KAMW 110614Z AUTO 27006KT 4SM BR OVC009 M01/M01 A2954 RMK AO2 CIG
     006V012 I1000 T10061011 $=
KDPA 110614Z 19008KT 2 1/2SM -RA BR OVC003 03/03 A2947 RMK AO2
     P0000=
KPNE 110614Z AUTO 06004KT 1/2SM FG OVC002 03/03 A3014 RMK AO2
     RAB0556E07 P0000 RVRNO=
PAAQ 110614Z AUTO 00000KT 2SM BR OVC005 M04/M05 A2931 RMK AO2 CIG
     003V007 TSNO=
K1M4 110614Z AUTO 18010KT 1/4SM FG OVC001 12/12 A2979 RMK AO2
     RAE12 P0002=
KAOH 110614Z AUTO 23009G16KT 4SM -RA BKN009 BKN030 OVC070 08/
     A2966 RMK AO2 PNO $=
KBOK 110614Z AUTO 15010KT 2SM BR OVC002 10/09 A3011 RMK AO2 $=
KTAN 110614Z AUTO 00000KT 1 1/4SM -RA BR BKN010 OVC023 03/01 A3023
     RMK AO2 P0001 T00280011=
KTVR 110614Z AUTO 23012G20KT 1 3/4SM +RA BR FEW009 BKN025 OVC044
     18/18 A2978 RMK AO2 P0015 T01830178 TSNO=
KHFD 110614Z AUTO 32003KT 3/4SM BR BKN003 OVC008 02/01 A3021 RMK
     AO2 UPE07 P0000 T00220011=
KLGA 110614Z 06004KT 1/4SM R04/2800V3500FT -RA BR VV002 01/00
     A3018 RMK AO2 SFC VIS 3/4 P0001=
KHKA 110614Z AUTO 24007KT 10SM -RA BKN024 BKN029 OVC035 12/11
     A2967 RMK AO2 P0001=
KMAF 110614Z AUTO 33012KT 10SM CLR 09/M07 A2998 RMK AO2 WSHFT 0554
     T00891067 TSNO=
KNSE 110616Z AUTO 19012KT 3/4SM -RA BR VV002 19/19 A2996 RMK AO2
     P0000 T01940189 $=
KUIN 110616Z AUTO 28006KT 4SM BR OVC002 04/03 A2952 RMK AO2
     T00390033=
KACK 110615Z AUTO 17005KT 1 1/2SM R24/6000VP6000FT BR OVC002 05/04
     A3027 RMK AO2 TSNO=
KANB 110615Z AUTO 06005KT 8SM -RA FEW004 BKN013 OVC019 12/11 A2991
     RMK AO2 LTG DSNT ALQDS TSB0550E05 P0024 T01170106=
KECG 110615Z AUTO 13006KT 2 1/2SM RA BR BKN012 BKN027 OVC065 17/16
     A3010 RMK AO2 RAB0557 P0020 T01670156 TSNO=
KELD 110615Z AUTO 23007KT 10SM FEW012 BKN025 BKN037 17/16 A2976
     RMK AO2 T01670161 TSNO=
KHGR 110615Z AUTO 32003KT 1/2SM FG VV003 01/00 A3005 RMK AO2
     T00060000=
KHIE 110615Z AUTO 00000KT 9SM OVC028 M04/M07 A3016 RMK AO2
     T10441067=

0000011600
039
SPUS31 KWBC 110618
SPECI
KLGA 110614Z 06004KT 1/4SM R04/2800V3500FT -RA BR VV002 01/00
A3018=

0000009400
040
SPUS31 KWBC 110618
SPECI
KTEB 110613Z 00000KT 3SM -DZ OVC005 02/01 A3018=

0000012100
041
SPUS41 KWBC 110618
SPECI
KAVP 110613Z AUTO VRB04KT 2 1/2SM UP BR SCT008 BKN012 OVC047 03/02
A3004=

0000008900
042
SABZ43 KWBC 110600 RRB
METAR
SBUL 110600Z 05004KT CAVOK 19/16 Q1017=

0000035200
043
FTUS51 KWBC 110618 AAA
TAF AMD
KGFL 110616Z 1106/1206 00000KT 5SM BR OVC010
      TEMPO 1106/1109 2SM -FZDZ BR BKN006
     FM110900 VRB03KT 1 1/2SM -FZDZ BR OVC006
     FM111100 17004KT 1SM -RA BR OVC005 WS020/19040KT
     FM111700 19008KT 3/4SM -RA BR OVC004 WS020/20045KT
     FM112300 23010KT 2SM -RA BR SCT004 OVC008=

0000061800
044
FTUS52 KWBC 110618 AAA
TAF AMD
KCKV 110615Z 1106/1206 19009G15KT 4SM SHRA BR OVC050
      TEMPO 1106/1110 BKN015CB
     FM111000 25012G22KT 5SM -SHRA BR BKN011 OVC025
     FM111200 27015G25KT P6SM OVC025
     FM111600 27012G25KT P6SM BKN080
     FM120000 28007KT P6SM SCT150=
KPSF 110615Z 1106/1206 20006KT 1/2SM FZFG VV003
      TEMPO 1106/1109 3/4SM -FZRA BR OVC002
     FM110900 15005KT 3/4SM -RA BR SCT002 OVC006
     FM111200 16008KT 1SM -RA BR OVC005 WS020/19040KT
     FM111700 18012G20KT 1 1/2SM -RA BR OVC004 WS020/19045KT
     FM112300 22012G22KT 1SM -RA BR OVC006=

0000031600
045
FTUS53 KWBC 110618 AAA
TAF AMD
KEGE 110617Z 1106/1206 25011KT P6SM VCSH OVC060
      TEMPO 1106/1108 25015G25KT
     FM111200 VRB03KT P6SM VCFG SCT015 BKN050
     FM111800 23005KT P6SM SCT060 SCT200
     FM120000 VRB03KT P6SM SCT100 BKN200 AMD LTD TO CLD VIS AND
      WIND TIL 111400=

0000035400
046
FTUS54 KWBC 110618 AAA
TAF AMD
KMFR 110616Z 1106/1206 15006KT P6SM SCT006 OVC200
      TEMPO 1106/1110 3SM BR BKN006
     FM111000 15012KT P6SM VCSH SCT025 BKN080 WS020/20050KT
     FM111400 16008G16KT P6SM -RA BKN025 OVC040
     FM111900 23008G16KT P6SM -RA BKN030 OVC045
     FM120300 28010G20KT P6SM -SHRA BKN025 OVC040=

0000149300
047
FTUS80 KWBC 110618 AAA
TAF AMD
KCKV 110615Z 1106/1206 19009G15KT 4SM SHRA BR OVC050
      TEMPO 1106/1110 BKN015CB
     FM111000 25012G22KT 5SM -SHRA BR BKN011 OVC025
     FM111200 27015G25KT P6SM OVC025
     FM111600 27012G25KT P6SM BKN080
     FM120000 28007KT P6SM SCT150=
KEGE 110617Z 1106/1206 25011KT P6SM VCSH OVC060
      TEMPO 1106/1108 25015G25KT
     FM111200 VRB03KT P6SM VCFG SCT015 BKN050
     FM111800 23005KT P6SM SCT060 SCT200
     FM120000 VRB03KT P6SM SCT100 BKN200 AMD LTD TO CLD VIS AND
      WIND TIL 111400=
KGFL 110616Z 1106/1206 00000KT 5SM BR OVC010
      TEMPO 1106/1109 2SM -FZDZ BR BKN006
     FM110900 VRB03KT 1 1/2SM -FZDZ BR OVC006
     FM111100 17004KT 1SM -RA BR OVC005 WS020/19040KT
     FM111700 19008KT 3/4SM -RA BR OVC004 WS020/20045KT
     FM112300 23010KT 2SM -RA BR SCT004 OVC008=
KMFR 110616Z 1106/1206 15006KT P6SM SCT006 OVC200
      TEMPO 1106/1110 3SM BR BKN006
     FM111000 15012KT P6SM VCSH SCT025 BKN080 WS020/20050KT
     FM111400 16008G16KT P6SM -RA BKN025 OVC040
     FM111900 23008G16KT P6SM -RA BKN030 OVC045
     FM120300 28010G20KT P6SM -SHRA BKN025 OVC040=
KPSF 110615Z 1106/1206 20006KT 1/2SM FZFG VV003
      TEMPO 1106/1109 3/4SM -FZRA BR OVC002
     FM110900 15005KT 3/4SM -RA BR SCT002 OVC006
     FM111200 16008KT 1SM -RA BR OVC005 WS020/19040KT
     FM111700 18012G20KT 1 1/2SM -RA BR OVC004 WS020/19045KT
     FM112300 22012G22KT 1SM -RA BR OVC006=

0000009400
048
SPUS42 KWBC 110618
SPECI
KMAF 110614Z AUTO 33012KT 10SM CLR 09/M07 A2998=

0000009500
049
SASA31 KWBC 110600 RRC
METAR
SVBC 110600Z 00000KT 9999 FEW010 23/20 Q1014=

0000010900
050
SAVN42 KWBC 110600 RRA
METAR
SVSO 110600Z NIL=
SVVA 110600Z 02002KT CAVOK 22/19 Q1015=

0000092500
051
SASD20 OEJD 110600
METAR OEAO 110600Z 23006KT 9000 SKC 11/03 Q1023=
METAR OEBA 110600Z 33006KT 5000 BR SCT030 11/10 Q1023 NOSIG=
METAR OEBH 110600Z 28006KT 9999 FEW030 SCT100 13/10 Q1021 NOSIG=
METAR OEDF 110600Z 18013KT 9999 SCT040 BKN090 16/11 Q1021 NOSIG=
METAR OEDM 110600Z 33010KT CAVOK 10/04 Q1021=
METAR OEDR 110600Z 25005KT 9999 SCT040 BKN080 16/12 Q1019 NOSIG=
METAR OEGN 110600Z 19010KT 9999 FEW030 SCT100 28/23 Q1016 NOSIG=
METAR OEGS 110600Z 34012KT CAVOK 11/08 Q1021=
METAR OEGT 110600Z 27004KT 9999 SCT030 07/04 Q1023 NOSIG=
METAR OEHL 110600Z 33016KT 9999 BKN045 07/04 Q1022 NOSIG=
METAR OEJN 110600Z 03010KT 9999 FEW040 21/11 Q1019 NOSIG=
METAR OEKJ 110600Z 18004KT 7000 FEW040 BKN080 13/10 Q1022=
METAR OEKK 110600Z 33014KT CAVOK 11/11 Q1021 NOSIG=
METAR OEKM 110600Z 24012KT 9999 BKN020 13/08 Q1025 NOSIG=
METAR OEMA 110600Z 02006KT 7000 SKC 13/00 Q1024 NOSIG=

0000010000
052
SAAL40 DAMM 110600 RRA
METAR DAON 110600Z 24012KT 9999 FEW030 BKN100 15/04 Q1016=

0000010000
053
SAAL31 DAAA 110600 RRB
METAR DAON 110600Z 24012KT 9999 FEW030 BKN100 15/04 Q1016=

0000010200
054
SADJ20 HDAM 110600 RRA
METAR
HDAM 110600Z 00000KT 9999 FEW020 BKN133 26/21 Q1019=

00000000