0000007800
975
SNAL51 EUMS 111700
AAXX 11174
60612 46/// /0000 10194 21039=
0000008200
976
SNAL54 EUMS 111700 RRA
AAXX 11174
60621 46/// /2016 10246 21043=
0000008200
977
SNAL51 EUMS 111700 RRA
AAXX 11174
60664 46/// /0000 10164 21042=
0000007800
978
SNAL52 EUMS 111700
AAXX 11174
60667 46/// /0000 10220 21065=
0000007800
979
SNAL56 EUMS 111700
AAXX 11174
60692 46/// ///08 10244 21037=
0000008200
980
SNAL53 EUMS 111700 RRA
AAXX 11174
60662 46/// /0000 10200 21158=
0000008200
981
SNAL52 EUMS 111700 RRA
AAXX 11174
60633 46/// /0709 10219 21037=
0000012800
982
SNVD41 LFPW 111700
BBXX
41300 11174 99159 70575 46/// /0713 10254 20214 40158 57022
22200 00262 10805 70025=
0000009200
983
SAIN90 VOCI 111700
METAR VOCI 111700Z 00000KT 4000 HZ NSC 24/21 Q1014 NOSIG=
0000009600
984
SAIN34 VOMM 111700 RRA
METAR VOCI 111700Z 00000KT 4000 HZ NSC 24/21 Q1014 NOSIG=
0000013100
985
SASA32 KWBC 110700 RRA
METAR
SGAS 110700Z 05003KT CAVOK 26/22 Q1007=
SGES 110700Z 08004KT CAVOK 24/21 Q1008=

0000012000
986
SATH41 VTBB 110700 RRA
METAR VTSE 110700Z 05012KT 6000 FEW024 BKN300 30/23
Q1012 A2991 RMK /RWY 06=

0000039200
987
FTCN34 CWAO 110700 AAA
TAF AMD CYWG 110716Z 1107/1206 30012KT P6SM OVC012 TEMPO 1107/1118
     2SM -SN BR OVC008
     BECMG 1107/1109 31008KT
    FM111800 29008KT P6SM SCT012 BKN030 TEMPO 1118/1121 6SM BR BKN012
    FM112100 27006KT P6SM SCT030 TEMPO 1121/1124 BKN030
    FM120000 20006KT P6SM SKC
    FM120300 18012KT P6SM BKN080
    RMK NXT FCST BY 111200Z=

0000013000
988
SPUS70 KWBC 110716 CCA
SPECI
KNSE 110712Z AUTO 17012KT 1/4SM FG VV002 19/18 A2994 RMK AO2
     T01940183 $=

0000186900
989
SPUS70 KWBC 110716
SPECI
KBAF 110713Z 00000KT 1 1/4SM R20/5500VP6000FT BR BKN005 OVC010
     01/M01 A3017 RMK AO2 FZRAE09 P0001 I1001 T00061006=
KFFC 110712Z AUTO 12005KT 10SM -RA SCT003 BKN008 OVC016 11/11
     A2993 RMK AO2 LTG DSNT ALQDS P0001 T01110111=
KFWN 110712Z AUTO 00000KT 2 1/2SM -RA BR OVC006 01/01 A3010 RMK
     AO2 UPE05RAB05 P0002 T00060006=
KGNV 110712Z AUTO 12003KT 1/4SM FG VV002 18/18 A3006 RMK AO2
     T01780178=
KHVN 110712Z AUTO 36003KT 1/2SM R02/2200V2400FT FG VV002 03/02
     A3017 RMK AO2=
KIDA 110712Z AUTO 20018KT 10SM BKN021 OVC100 02/M02 A3007 RMK AO2
     T00171017=
KLBT 110712Z AUTO 16007KT 10SM OVC006 18/17 A3001 RMK AO2
     T01780172=
KSDF 110712Z 17005KT 3SM +RA BKN007 BKN055 OVC070 11/10 A2966 RMK
     AO2 TSE02 TS DSIPTD P0008 $=
KVIH 110712Z AUTO 24013KT 9SM FEW010 BKN015 BKN021 03/02 A2958 RMK
     AO2 T00330017 $=
KY50 110712Z AUTO 24004KT 1SM BR OVC002 00/ A2940 RMK AO2 TSNO
     $=
KNSE 110712Z AUTO 17012KT 1/4SM FG VV002 19/18 A2994 RMK AO2
     T01940183 $=
PANW 110710Z AUTO 36003KT 1SM BR OVC001 M09/M09 A2940 RMK AO2 TSNO
     $=
KPIL 110713Z AUTO 22007KT 1/2SM FG VV001 20/19 A2991 RMK AO2=
KAUW 110713Z AUTO 30005KT 1 3/4SM -SN BR BKN006 OVC017 M03/M03
     A2938 RMK AO2 SNB08 P0000 T10281033=
KBOS 110713Z 08003KT 1/4SM R04R/2200V2600FT -RA FG VV004 02/01
     A3023 RMK AO2 TWR VIS 1/2 RAB10 P0001=
KDFI 110713Z AUTO 19010KT 5SM BR SCT006 BKN030 OVC085 06/05 A2958
     RMK AO2 RAE0656 P0000=
KECG 110713Z AUTO 14013G19KT 7SM -RA BKN005 BKN009 OVC013 17/16
     A3005 RMK AO2 P0007 T01670161 TSNO=
KESF 110713Z AUTO 26010KT 10SM FEW020 19/17 A2980 RMK AO2=
KHYA 110713Z 20008KT 1SM BR VV002 07/06 A3024 RMK AO2
     T00670061=
KMIV 110713Z AUTO 15009G15KT 10SM BKN027 OVC033 11/11 A3009 RMK
     AO2 T01110106=

0000012400
990
SPUS41 KWBC 110716
SPECI
KBAF 110713Z 00000KT 1 1/4SM R20/5500VP6000FT BR BKN005 OVC010
01/M01 A3017=

0000010300
991
SPPR00 SPIM 110715
SPECI SPQT 110715Z 24005KT 8000 FEW004 SCT040 OVC100 24/23 Q1009=

0000021600
992
SATA31 RUMS 110700
METAR UTDD 110700Z 10005MPS 9999 BKN190 05/M09 Q1026 09CLRD70 NOSIG
RMK QFE701/0935=
METAR UTDL 110700Z 08010G14MPS 7000 BKN200 02/M10 Q1026 NOSIG RMK
QFE730/0973 8809//70=

0000012400
993
SACN49 CWAO 110700
METAR CYCX 110700Z 25002KT 15SM BKN110 M10/M12 A3027 RMK AC7
DA-3339FT FROIN SLP254=

0000011700
994
SACN61 CYTL 110700
METAR CYTL 110700Z AUTO 08004KT 1 3/4SM -SN OVC032 M08/M09 A2941 RMK
 SLP978=

00000000