0000060800
915
SAIY32 LIIB 110720
METAR LIBD 110720Z 23004KT 4000 BR NSC 06/06 Q1023=
METAR LIBR 110715Z 28003KT 9999 FEW020 06/05 Q1023 NOSIG=
METAR LICC 110720Z NIL=
METAR LICJ 110720Z 05004KT 030V090 CAVOK 12/10 Q1021=
METAR LIPE 110720Z VRB01KT 2500 BR BKN050 07/07 Q1022=
METAR LIPH 110715Z /////KT 2500 BR FEW020 SCT050 BKN060 07/07 Q1022
=
METAR LIPQ 110720Z VRB02KT 2000 BR SCT015 BKN050 07/05 Q1022=
METAR LIPR 110715Z /////KT 3500 BR OVC040 09/09 Q1022=
METAR LIPX 110715Z 00000KT 1200 R04/P1500U BR BKN050 08/06 Q1023=
METAR LIPZ 110720Z VRB01KT 3000 BR BKN040 08/07 Q1022=

0000009400
916
SAIY33 LIIB 110720
METAR LIMW 110720Z AUTO 14002KT 7000 OVC029 02/01 Q1022=

0000008700
917
SAIY32 LIIB 110720 RRA
METAR LICC 110720Z VRB02KT CAVOK 06/03 Q1023=

0000072100
918
SAGR31 LGAT 110720
METAR LGAD 110720Z NIL=
METAR LGAV 110720Z VRB01KT 9999 FEW012 11/09 Q1023 NOSIG=
METAR LGIR 110720Z 17004KT 9999 FEW025 SCT180 15/11 Q1023 NOSIG=
METAR LGKL 110720Z 00000KT 9999 FEW080 11/09 Q1024=
METAR LGKO 110720Z 19005KT 9999 FEW018 BKN020 14/06 Q1022=
METAR LGKR 110720Z 00000KT 9999 SCT018 SCT030 12/10 Q1022 NOSIG=
METAR LGLM 110720Z 00000KT 6000 SCT010 BKN020 12/10 Q1023=
METAR LGRP 110720Z VRB02KT 9999 FEW018 BKN040 14/10 Q1022 NOSIG=
METAR LGSA 110720Z 26012KT 9999 FEW020 SCT170 14/09 Q1022=
METAR LGSM 110720Z 27003KT 9999 FEW020 SCT030 BKN080 13/09 Q1021=
METAR LGTS 110720Z VRB02KT 0100 R16/0200 R34/0900 FG BKN002 05/04
      Q1024 BECMG 0600=

0000009800
919
SARW20 HRYR 110730
METAR
HRYR 110730Z 00000KT 5000 SCT023  22/18 Q1022 NOSIG=

0000048300
920
SAGR32 LGAT 110720
METAR LGAL 110720Z 07005KT CAVOK 05/02 Q1024=
METAR LGEL 110720Z NIL=
METAR LGIO 110720Z VRB01KT 9999 BKN035 07/06 Q1024=
METAR LGKV 110720Z 00000KT 8000 FEW008 SCT020 05/05 Q1023=
METAR LGMT 110720Z VRB02KT 9999 SCT030 13/09 Q1023=
METAR LGPZ 110720Z 07004KT 9999 FEW025 SCT080 12/10 Q1024 NOSIG=
METAR LGRX 110720Z 00000KT 9999 FEW070 12/09 Q1023 NOSIG=
METAR LGSK 110720Z NIL=
METAR LGSR 110720Z NIL=
METAR LGZA 110720Z NIL=

0000011300
921
SPUS41 KWBC 110725
SPECI
KCEF 110723Z AUTO 02002KT 1 1/4SM R23/4500FT BR OVC003 00/00 A3017=

0000012300
922
SPUS41 KWBC 110725
SPECI
KDOV 110723Z AUTO 10004KT 4SM R01/4500FT HZ SCT025 SCT047 OVC110
06/ A3005=

0000009100
923
SPUS42 KWBC 110725
SPECI
KBTR 110721Z 19014KT 10SM OVC010 20/19 A2983=

0000009300
924
SPUS42 KWBC 110725
SPECI
KCRP 110721Z 23003KT 2SM BR BKN250 14/13 A2990=

0000010000
925
SAMX31 KWBC 110705
METAR MNMG 110700Z 0000KT 9999 FEW025 24/20 Q1012 A2988 NOSIG=

0000010000
926
SAGR31 LGAT 110720 RRA
METAR LGAD 110720Z 00000KT 9999 FEW020 SCT180 12/08 Q1023=

0000086800
927
FTUS53 KWBC 110727 AAA
TAF AMD
KALO 110726Z 1107/1206 30005KT 4SM BR OVC005
      TEMPO 1107/1109 6SM BR SCT006 BKN020 OVC070
     FM110900 28009KT P6SM SCT010 BKN028
     FM111200 30011KT P6SM SCT040
     FM111700 30014G20KT P6SM BKN080
     FM120000 27008KT P6SM SCT100=
KBJC 110724Z 1107/1206 28018G28KT P6SM FEW090 SCT120 BKN200
     FM111200 26025G40KT P6SM FEW090 SCT120 BKN200
      TEMPO 1116/1120 27040G55KT
     FM112000 26035G45KT P6SM FEW090 SCT120 BKN200
      TEMPO 1120/1124 26040G55KT
     FM120200 26020G35KT P6SM FEW120 SCT180=
KRST 110724Z 1107/1206 28007KT 3SM BR OVC006
     FM110830 29008KT 1SM BR OVC005
      TEMPO 1109/1111 1/2SM FG BKN002
     FM111200 30010KT 4SM BR SCT006
     FM111500 30014G18KT 5SM BR BKN012
     FM112100 30016G22KT P6SM SCT030
     FM120100 25011KT P6SM SCT200=

0000126400
928
FTUS80 KWBC 110727 AAA
TAF AMD
KALO 110726Z 1107/1206 30005KT 4SM BR OVC005
      TEMPO 1107/1109 6SM BR SCT006 BKN020 OVC070
     FM110900 28009KT P6SM SCT010 BKN028
     FM111200 30011KT P6SM SCT040
     FM111700 30014G20KT P6SM BKN080
     FM120000 27008KT P6SM SCT100=
KBJC 110724Z 1107/1206 28018G28KT P6SM FEW090 SCT120 BKN200
     FM111200 26025G40KT P6SM FEW090 SCT120 BKN200
      TEMPO 1116/1120 27040G55KT
     FM112000 26035G45KT P6SM FEW090 SCT120 BKN200
      TEMPO 1120/1124 26040G55KT
     FM120200 26020G35KT P6SM FEW120 SCT180=
KEWR 110725Z 1107/1212 03003KT 1 1/2SM -SHRA BR OVC003
      TEMPO 1107/1109 3SM -SHRA BR SCT003 BKN010 OVC050
     FM110900 16008KT 3SM -RA BR SCT015 OVC050 WS020/19050KT
     FM111400 17014KT 4SM -RA BR FEW015 OVC050 WS015/19050KT
     FM111800 18017G23KT 1/2SM +RA FG OVC004 WS015/19050KT
     FM120300 23014G20KT 3SM -SHRA BR SCT015 BKN030
     FM120600 27016G22KT P6SM SCT035=
KRST 110724Z 1107/1206 28007KT 3SM BR OVC006
     FM110830 29008KT 1SM BR OVC005
      TEMPO 1109/1111 1/2SM FG BKN002
     FM111200 30010KT 4SM BR SCT006
     FM111500 30014G18KT 5SM BR BKN012
     FM112100 30016G22KT P6SM SCT030
     FM120100 25011KT P6SM SCT200=

0000031300
929
FTUS80 KWBC 110727 AAB
TAF AMD
PAGS 110724Z 1107/1206 VRB03KT P6SM VCSH SCT020 OVC040
      TEMPO 1107/1110 2SM BR
     FM111000 00000KT P6SM BCFG SCT003 BKN040
     FM111800 33004KT P6SM SCT030 BKN060
     FM120300 VRB04KT P6SM VCSH BKN030 OVC050 AMD LTD TO CLD VIS
      AND WIND=

0000012300
930
SAUK36 EGGY 110720 CCB
METAR COR EGSD 110720Z 27011KT 9000 -RADZ BKN006 08/07 Q1011 BECMG
     SCT040=

0000090100
931
SACA35 KWBC 110700
METAR MGGI NIL=
METAR MGPB 110700Z 00000KT 9999 SCT016 BKN080 23/21 Q1014 A2994=
 METAR
MGGT 110700Z 36012KT 9999 BKN012 15/13 Q1025 A3027=
METAR MGPB 110700Z 00000KT 9999 SCT016 BKN080 23/21 Q1014 A2994=
METAR MGSJ 110700Z 00000KT CAVOK 22/21 Q1013 A2991=
METAR MHLC 110700Z 00000KT 9999 FEW028 SCT080 21/20 Q1013 A2992
NOSIG=
METAR MHLM 110700Z 00000KT 9999 FEW026 BKN080 22/22 Q1014 A2994
NOSIG=
METAR MHTG 110700Z 03003KT 9999 SCT022 18/14 Q1019 A3009 NOSIG=
METAR MNPC NIL=
METAR MPBO NIL=
METAR MPCH NIL=
METAR MPDA NIL=
METAR MPMG NIL=
METAR MPSA NIL=
METAR MPTO 110700Z 00000KT 9999 FEW020 BKN080 24/21 Q1010 NOSIG=
METAR MRLB NIL=
METAR MRLM NIL=
METAR MROC 110700Z 11011KT CAVOK 20/13 A2999 NOSIG=
METAR MRPV NIL=
METAR MSLP 110650Z 03004KT CAVOK 21/17 Q1012 A2989=
METAR MSSS 110650Z NIL=
METAR MZBZ NIL=

0000017100
932
SASA31 KWBC 110700 RRA
METAR SKCG 110700Z VRB02KT CAVOK 25/22 A2981=
 METAR SKBQ 110700Z
     06013KT
CAVOK 26/23 A2982=
METAR SKLT 110700Z NIL=

0000011100
933
SAIO31 KWBC 110700 RRE
METAR
FMMI 110730Z VRB02KT 9000 BKN017TCU SCT230 27/22 Q1022 NOSIG=

0000036500
934
SANT31 KWBC 110700 RRB
METAR
BGBW 110725Z NIL=
BGCO 110725Z NIL=
BGGH 110720Z AUTO 06011KT 9999NDV FEW150/// M09/M16 Q0993=
BGJN 110720Z AUTO 09007KT 9999NDV FEW120/// BKN130/// M09/M19
     Q0994=
BGKK 110720Z AUTO 10011KT 9999NDV BKN060/// M03/M09 Q0995=
BGSF 110720Z AUTO 07006KT 9999NDV BKN140/// BKN200/// M18/M23
     Q0996=

00000000