0000144400
935
FTUS80 KWBC 110527 RRD
TAF
KTRI 110525Z 1106/1206 VRB03KT P6SM SCT022 OVC050 WS020/18040KT
      TEMPO 1106/1109 4SM -RA BR OVC022
     FM110900 23007KT 4SM BR VCSH SCT012 OVC025 WS020/18040KT
     FM111300 23012G20KT 3SM SHRA BR SCT004 OVC008 WS020/22050KT
     FM112200 26012G20KT P6SM VCSH SCT015 OVC025
     FM120200 26010KT P6SM SCT025 OVC050=
KTYS 110525Z 1106/1206 20005KT 4SM BR BKN006 OVC012 WS020/18040KT
      TEMPO 1106/1110 2SM -RA BR OVC003
     FM111000 20010KT 3SM -RA SCT008 OVC012 WS020/18040KT
     FM111200 22014G26KT 3SM SHRA BR SCT004 OVC008 WS020/20050KT
     FM112000 22012G22KT P6SM VCSH SCT025 OVC040
     FM120100 26008KT P6SM SCT040 BKN100=
KVEL 110523Z 1106/1206 29006KT P6SM BKN200
     FM111200 VRB03KT P6SM VCFG SCT020 SCT150
     FM111900 VRB03KT P6SM FEW020 SCT200
     FM120000 35003KT P6SM BKN100=
KVTN 110523Z 1106/1206 28012KT P6SM BKN100
     FM111300 29015KT P6SM SCT100
     FM111700 25012KT P6SM SCT250
     FM120000 19009KT P6SM SCT250=
KWRL 110524Z 1106/1206 16007KT P6SM FEW110
     FM111200 VRB06KT P6SM BKN110
     FM112100 20012KT P6SM SCT110 BKN200
     FM120200 17008KT P6SM BKN140=
NSTU 110525Z 1106/1206 36012G18KT P6SM VCSH SCT014 BKN040
      OVC100=
PHJH 110525Z 1106/1206 NIL=
PHJR 110525Z 1106/1206 VRB03KT P6SM FEW030 FEW050
     FM112100 14007KT P6SM SCT025 SCT050
     FM120500 VRB04KT P6SM SCT025 BKN050=

0000118200
936
FTUS80 KWBC 110527 RRC
TAF
KRIW 110524Z 1106/1206 29014KT P6SM SCT200
     FM111000 26007KT P6SM SCT200
     FM111500 VRB05KT P6SM SCT120 BKN200
     FM112000 20008KT P6SM SCT120 BKN200
     FM112300 24012G22KT P6SM SCT120 BKN200=
KRKS 110524Z 1106/1206 25020G30KT P6SM SCT026 BKN035
      TEMPO 1107/1111 BKN026
     FM111200 24015KT P6SM SCT030 BKN040
     FM112000 24014G22KT P6SM SCT050
     FM120100 24014KT P6SM SCT040 BKN060=
KRSL 110523Z 1106/1206 30008KT P6SM FEW100
     FM111500 29015G22KT P6SM SKC
     FM112100 28012KT P6SM SKC
     FM120100 VRB05KT P6SM SKC
     FM120400 19012KT P6SM SCT250=
KSGF 110526Z 1106/1206 27008KT P6SM SKC
     FM110800 28011KT P6SM BKN015
     FM111500 27011KT P6SM FEW020
     FM111800 27013G21KT P6SM SKC
     FM112300 26009KT P6SM SKC=
KSLN 110523Z 1106/1206 28007KT P6SM FEW100
     FM111500 29015G22KT P6SM SKC
     FM112200 27012KT P6SM SKC
     FM120100 VRB05KT P6SM SKC=
KSUN 110525Z 1106/1206 VRB05KT P6SM VCSH SCT040 BKN100
     FM111800 VRB06KT 1SM -SN BR OVC010
     FM120100 VRB06KT P6SM VCSH SCT010 BKN025 AMD LTD TO CLD VIS
      AND WIND TIL 111400=

0000038400
937
FTUS80 KWBC 110527 AAA
TAF AMD
KAND 110525Z 1105/1124 06003KT 3SM -SHRA BR OVC004
      TEMPO 1105/1107 2SM TSRA BR OVC006CB
     FM110900 15003KT 1 1/2SM SHRA BR OVC003
     FM111100 18007KT 1 1/2SM SHRA BR OVC002 WS020/21035KT
     FM111700 23014G24KT 2SM SHRA BR OVC004
     FM112000 25012G21KT 6SM SHRA OVC017
     FM112200 25011G19KT P6SM BKN250=

0000122900
938
FTUS80 KWBC 110527 RRE
TAF
PHKO 110525Z 1106/1206 13005KT P6SM FEW030 SCT060
     FM112000 26008KT P6SM SCT030 SCT050
     FM120500 VRB05KT P6SM FEW025 SCT050=
PHLI 110525Z 1106/1206 04018G24KT P6SM VCSH FEW010 SCT022 BKN040
      TEMPO 1106/1108 4SM SHRA BKN020
     FM110800 07012KT P6SM VCSH SCT020 BKN050
     FM111800 13010KT P6SM SCT025 BKN050
     FM120200 15007KT P6SM SCT020 BKN050=
PHMK 110525Z 1106/1206 06007KT P6SM FEW025 SCT050
     FM112100 13009KT P6SM VCSH SCT025 SCT050
     FM120500 VRB05KT P6SM SCT030 SCT050=
PHNL 110525Z 1106/1212 06007KT P6SM FEW030 SCT050
     FM110900 35005KT P6SM FEW030 SCT050
     FM112100 13008KT P6SM SCT025 SCT050
     FM120600 VRB04KT P6SM FEW030 SCT050=
PHNY 110525Z 1106/1206 VRB05KT P6SM FEW020
     FM112100 23006KT P6SM VCSH BKN025
     FM120300 VRB05KT P6SM SCT020 BKN035 AMD NOT SKED=
PHOG 110525Z 1106/1206 05011KT P6SM FEW030 SCT050
     FM111000 13005KT P6SM FEW025
     FM112100 05011KT P6SM SCT025 SCT050 AMD LTD TO WX VIS AND
      WIND
      1109/1116=
PHTO 110525Z 1106/1206 24005KT P6SM FEW025 FEW050
     FM112100 13007KT P6SM VCSH SCT030 SCT050
     FM120500 24005KT P6SM VCSH SCT025 BKN050=

0000136000
939
FTUS80 KWBC 110527 RRB
TAF
KJAC 110524Z 1106/1206 19011G18KT P6SM VCSH SCT025 BKN035
     FM111200 19015KT 3SM -SN SCT010 BKN022
     FM112000 19015G25KT 1 1/2SM -SN BLSN SCT007 OVC014
     FM120000 19015G25KT 1SM -SN BLSN OVC007 AMD LTD TO CLD VIS
      AND
      WIND=
KJLN 110526Z 1106/1206 26005KT P6SM SKC
     FM110700 26009KT P6SM BKN015
     FM111300 26010KT P6SM FEW020
     FM111600 27014G21KT P6SM SKC
     FM112300 26009KT P6SM SKC=
KLBT 110526Z 1106/1206 19007KT P6SM OVC007
     FM110700 17007KT 3SM BR BKN004
     FM111500 20012G18KT P6SM VCSH BKN009
      TEMPO 1118/1122 21018G28KT 2SM +SHRA BKN012CB
     FM112200 23014G23KT P6SM VCSH BKN020
     FM120100 25014G24KT P6SM SCT050=
KLND 110524Z 1106/1206 VRB06KT P6SM SCT200
     FM111500 VRB05KT P6SM SCT110 BKN200
     FM112300 24012G20KT P6SM SCT110 BKN200=
KMYR 110526Z 1106/1206 16006KT P6SM FEW012 SCT080
     FM110800 18009KT 2SM BR BKN006
     FM111600 19012G20KT P6SM VCSH BKN018
      TEMPO 1120/1124 20020G30KT 2SM +SHRA BKN012CB
     FM120000 21012G19KT P6SM VCSH BKN025
     FM120300 25013G23KT P6SM SCT030 AMD LTD TO CLD VIS AND WIND
      TIL 111100=
KPIH 110525Z 1106/1206 22014G20KT P6SM FEW010 BKN035
     FM112200 19020G30KT P6SM -RA BKN050 OVC100
     FM120200 20028G38KT P6SM -RA BKN025 OVC050=

0000023500
940
FTUS80 KWBC 110527 CCA
TAF COR
KCNU 110525Z 1106/1206 28007KT P6SM SCT020 BKN050
      TEMPO 1106/1108 BKN020
     FM111000 28011KT P6SM SCT120
     FM111400 29012KT P6SM SKC
     FM120000 VRB05KT P6SM SKC=

0000235000
941
SPUS70 KWBC 110528
SPECI
K1M4 110524Z AUTO 16011KT 1/2SM FG OVC001 12/12 A2983 RMK AO2=
KAMW 110524Z AUTO 27006KT 6SM BR OVC014 M01/M01 A2955 RMK AO2
     T10061011 $=
KBPT 110524Z AUTO 23009KT 1 1/2SM R12/6000VP6000FT BR OVC002 19/18
     A2986 RMK AO2 LTG DSNT SE $=
KBUY 110524Z AUTO 00000KT 1/4SM FG VV002 04/03 A3009 RMK AO2
     T00390028=
KCMX 110525Z AUTO 07004KT 3/4SM -SN BR OVC018 M03/M04 A2946 RMK
     AO2 P0001=
KEAU 110525Z AUTO 00000KT 2 1/2SM -SN BR OVC029 M03/M03 A2946 RMK
     AO2 P0000 T10281033=
KEKQ 110524Z AUTO 18012KT 10SM BKN020 BKN025 BKN055 14/11 A2984
     RMK AO2=
KELD 110524Z AUTO 22012G20KT 10SM FEW009 SCT012 17/16 A2975 RMK
     AO2 T01720161 TSNO=
KFAY 110524Z AUTO 18004KT 1/2SM FG BKN006 OVC017 16/15 A3007 RMK
     AO2 P0001 RVRNO=
KMRB 110524Z AUTO 00000KT 1/2SM FG OVC002 02/01 A3009 RMK AO2
     T00170006 TSNO=
KPAH 110524Z AUTO 17014G24KT 10SM -RA FEW009 BKN075 OVC110 10/09
     A2963 RMK AO2 P0002 T01000089=
KTAN 110524Z AUTO 00000KT 1 1/4SM -RA BR OVC003 03/01 A3025 RMK
     AO2 P0001 T00280006=
KTYR 110524Z 31007KT 10SM FEW008 SCT016 SCT031 16/14 A2984 RMK AO2
     LTG DSNT E RAE08 P0002=
KNFE 110520Z AUTO 15009KT 10SM -RA SCT020 BKN025 OVC110 17/14
     A3012 RMK AO2 PRESFR P0000 T01670139=
KARA 110525Z AUTO 21012G20KT 3SM VCTS RA BR OVC003 19/18 A2987 RMK
     AO2 LTG DSNT NE AND SW TSB19 P0004 $=
KDTN 110525Z AUTO 23009KT 10SM SCT013 BKN019 18/16 A2977 RMK
     AO2=
KFLD 110525Z AUTO 22007KT 3SM BR OVC004 02/01 A2945 RMK AO2
     T00220011=
KGRB 110525Z 19003KT 2SM BR OVC005 01/01 A2943 RMK AO2 RAE0454
     P0000 T00110011=
KGWO 110525Z AUTO 20010KT 2 1/2SM RA BR SCT012 BKN018 OVC035 17/16
     A2975 RMK AO2 RAB0457 P0009 T01670156 TSNO=
KLOU 110525Z AUTO 00000KT 1 3/4SM +RA BR FEW017 SCT028 OVC039
     11/10 A2973 RMK AO2 RAB0458 P0022 TSNO=
KRAC 110525Z AUTO 21011KT 4SM BR BKN008 OVC013 04/03 A2950 RMK AO2
     RAE22 P0000 T00390033=
KSDF 110525Z 20004KT 4SM R35R/4000VP6000FT -TSRA FEW018 BKN040
     OVC050CB 11/10 A2972 RMK AO2 WSHFT 0450 TSB0458 OCNL LTGIC
     OHD-E TS OHD-E MOV E P0018 $=
KSTJ 110525Z AUTO 27005KT 8SM SCT009 OVC022 01/00 A2963 RMK AO2
     T00110000=
KTVC 110525Z 00000KT 7SM -RA SCT008 OVC013 03/02 A2948 RMK AO2
     P0003 T00280017 $=

0000012100
942
SPUS42 KWBC 110528
SPECI
KBPT 110524Z AUTO 23009KT 1 1/2SM R12/6000VP6000FT BR OVC002 19/18
A2986=

0000010600
943
SPUS43 KWBC 110528
SPECI
KCMX 110525Z AUTO 07004KT 3/4SM -SN BR OVC018 M03/M04 A2946=

0000010500
944
SPUS43 KWBC 110528
SPECI
KPIA 110524Z 19010KT 1/4SM R13/5000FT FG VV002 04/03 A2952=

0000009600
945
SPUS43 KWBC 110528
SPECI
KSUS 110524Z AUTO 21006KT 10SM OVC029 08/06 A2956=

0000013100
946
SASA32 KWBC 110500 RRB
METAR
SGAS 110500Z 06005KT CAVOK 27/22 Q1007=
SGES 110500Z 07004KT CAVOK 25/22 Q1009=

0000018300
947
FTSU31 HSSJ 110500
TAF HSSJ 110400Z 1106/1212 VRB03KT CAVOK TEMPO 1109/1115 02005G15KT= 
TAF HSSM 110400Z 1106/1212 02005G15KT CAVOK TEMPO 1108/1114
06008G18KT=

0000009500
948
SAID32 WIII 110530
METAR WIBB 110530Z 36005KT 9999 SCT015 30/25 Q1009 NOSIG=

0000011900
949
SPUR30 UKMS 110528
SPECI UKCC 110528Z 27009MPS 9999 OVC009 03/02 Q1007 26290055
TEMPO 28012G17MPS=

0000009600
950
SASG20 GOOY 110530
METAR GOOY 110530Z 01009KT 9999  FEW010 19/15 Q1013 NOSIG=

0000040000
951
WSZA21 FAOR 110534
FAOR SIGMET A02 VALID 110540/110940 FAOR-
FAJO JOHANNESBURG OCEANIC FIR EMBD TS OBS WI
S2960 E04627 - S2960 E05218 - S3401 E05358 - S3903 E05536 -
S4317 E05359 - S4410 E04915 - S4301 E04550 - S4016 E04402 -
S3939 E04510 - S3900 E04733 - S3800 E04724 - S3800 E04724 -
S3714 E04659 - S3639 E04431 - S3449 E04332 - S3411 E04642 -
S3246 E04656 TOP FL360=

0000029300
952
WSZA21 FAOR 110535
FAOR SIGMET B02 VALID 110540/110940 FAOR-
FAJO JOHANNESBURG OCEANIC FIR SEV TURB FCST WI
S3002 E04628 - S3247 E04655 - S3412 E04654 - S3449 E04329 -
S3643 E04446 - S3541 E04142 - S3541 E04142 - S3334 E04027 -
S3135 E04042 - S3005 E04204 FL180/400=

0000019900
953
NOUK32 EGGY 110541
SADIS GATEWAY MONITOR
INTERNAL ALARM MESSAGE
AERODROME NOT RECEIVED

SKBO FT LAST RECEIVED AT 101000Z
VABB FT LAST RECEIVED AT 100300Z
END OF MESSAGE

0000012200
954
SPUS31 KWBC 110529
SPECI
KLOU 110525Z AUTO 00000KT 1 3/4SM +RA BR FEW017 SCT028 OVC039
11/10 A2973=

00000000