0000076700
575
FTKZ31 RUMS 110500
TAF UAAA 110500Z 1106/1206 02005MPS 2500 BR FU SCT030 BKN100
TXM02/1108Z TNM16/1201Z TEMPO 1106/1108 1000 BECMG 1111/1112
16004MPS 0800 FZFG FU TEMPO 1111/1206 0300=
TAF UACC 110500Z 1106/1206 17008G13MPS 5000 -SN DRSN BKN007 BKN100
TXM06/1109Z TNM14/1201Z TEMPO 1106/1112 1000 SN BLSN BKN005 BECMG
1112/1114 17007MPS 2000 SN BR SCT006 BECMG 1204/1206 9999 NSW
BKN020=
TAF UAKK 110500Z 1106/1206 18009G14MPS 9999 SCT010 BKN020 TXM10/1109Z
TNM14/1123Z TEMPO 1106/1116 16013G18MPS 3000 -SN BLSN TEMPO
1116/1202 2000 SN BLSN BKN007=
TAF UATT 110500Z 1106/1206 22007MPS 3000 -SHSNRA BR BKN010CB
TMM01/1106Z TNM02/1118Z TEMPO 1106/1115 2000 -FZDZ BKN003 BKN006CB
TEMPO 1115/1206 18013MPS 0800 -FZDZ BLSN VV003=

0000113600
576
FTAR20 OEJD 110500 RRB
TAF OMAA 110500Z 1106/1212 17008KT CAVOK BECMG 1110/1112 32010KT
                 BECMG 1117/1119 05006KT BECMG 1202/1204 23006KT
                 BECMG 1206/1208 31014KT=
TAF OMAD 110500Z 1106/1212 17006KT CAVOK BECMG 1110/1112 32008KT
                 BECMG 1117/1119 05006KT BECMG 1202/1204 22006KT
                 BECMG 1206/1208 31014KT=
TAF OMDB 110500Z 1106/1212 08008KT 9999 FEW035 BECMG 1106/1108
                 17010KT BECMG 1109/1111 33010KT PROB30 TEMPO
                 1109/1124 VRB15G30KT 3000 SHRA SCT030TCU BECMG
                 1115/1117 11005KT PROB30 TEMPO 1200/1212
     VRB20G40KT
                  1500 TSRA SCT030CB BECMG 1206/1208 29012KT=
TAF OMRK 110500Z 1106/1212 12008KT 9999 FEW035 PROB30 TEMPO
                 1109/1124 VRB15G30KT 3000 SHRA SCT030TCU PROB30
                 1110/1114 36010KT PROB30 TEMPO 1200/1212
     VRB20G40KT
                  1500 TSRA SCT030CB BECMG 1206/1208 28010KT=
TAF OMSJ 110500Z 1106/1212 14008KT 9999 FEW035 BECMG 1109/1111
                 33010KT PROB30 TEMPO 1109/1124 V
CHECK
TEXT=

0000019700
577
SAAP32 FAPR 110500 RRA
METAR FVHA 110500Z 06003KT 350V120 9999 FEW008 BKN090 20/18 Q1022
             NOSIG RMK QFE 854.0=
METAR FYWH 110500Z 19006KT 9999 FEW100 18/06 Q1022=

0000079200
578
FTME31 OEJD 110400 RRA
TAF OJAI 110450Z 1106/1212 26008KT 6000 SCT030 SCT035 BECMG
1118/1120 VRB03KT 8000 NSC TEMPO 1202/1206 3000 BR SCT025 BECMG
1206/1208 24005KT 7000 NSC=
TAF OJAM 110450Z 1106/1212 26010KT 5000 HZ SCT030 SCT035 BECMG
1116/1118 VRB03KT 7000 FEW030 TEMPO 1203/1206 3000 BR SCT025 BECMG
1206/1208 23008KT 6000 NSC=
TAF OJAQ 110450Z 1106/1212 35010KT 7000 NSC TEMPO 1122/1206 01008KT
CAVOK=
TAF OSDI 110500Z 1106/1212 VRB03KT 3000 BR BECMG
             1108/1110 22010KT 9999 FEW030 BECMG
             1122/1124 VRB03KT 3000 BR TEMPO
             1200/1206 0200 FG BECMG
             1208/1210 22010KT 9999 FEW030=
TAF OSLK 110500Z 1106/1206 33012KT 9999 FEW030 SCT100 BECMG
             1118/1120 08013G23KT 9999 SCT030 BKN100=

0000010600
579
SPCN31 CWAO 110512
SPECI CYQG 110512Z 17009KT 3/4SM -RA BR BKN002 OVC007 RMK FG2SF6SC1=

0000011200
580
SATH31 VTBB 110500 RRA
METAR VTCN 110500Z VRB03KT CAVOK 27/13 Q1018 A3006
RMK/RWY02 INFO B=

0000049800
581
FTPO32 LPMG 110500
TAF LPLA 110510Z 1106/1206 30018G28KT SCT018 SCT030 TEMPO 1106/1115
  30028G45KT 7000 SHRA SCT014 SCT020 TEMPO 1115/1123 31025G40KT
3000 SHRAGS BKN014 FEW020CB TEMPO 1123/1206 29020G35KT 7000
SHRAGS SCT014 FEW020TCU=
TAF LPPD 110500Z 1106/1206 24015KT 9999 SCT008 SCT030 TEMPO 1106/1110
         24020G30KT 3000 RADZ BR SCT004 BKN008 BECMG 1107/1110
         32020KT SCT018 SCT035 TEMPO 1110/1206 32025G37KT 5000 SHRAGS
         BKN015 FEW018TCU=

0000047400
582
FTPO31 LPMG 110500
TAF LPPS 110500Z 1106/1212 VRB05KT 9999 FEW015 BECMG 1107/1109
         19012KT BECMG 1116/1118 24015KT BECMG 1203/1206 32013KT
         SCT012 BKN025 TEMPO 1206/1212 5000 RADZ BR SCT006 BKN012=
TAF LPPT 110500Z 1106/1212 VRB03KT 0600 FG BKN000 TEMPO 1106/1111
         1200 PRFG BKN001 BECMG 1111/1113 13005KT FEW015 BECMG
         1114/1116 18005KT BECMG 1121/1124 BKN008 TEMPO 1200/1212
         3000 DZ BR SCT002 BKN005=

0000036200
583
FTPO34 LPMG 110500
TAF LPAZ 110500Z 1106/1212 22018KT 9999 SCT006 SCT035 TEMPO 1106/1108
         22023G33KT 3000 RADZ BR SCT002 BKN005 BECMG 1108/1110
         27018KT TEMPO 1108/1112 27023G33KT 4000 RADZ BR SCT004
         BKN008 BECMG 1110/1113 32020KT SCT018 SCT035 TEMPO 1113/1212
         32025G38KT 5000 SHRAGS BKN015 FEW018TCU=

0000011700
584
SPCN47 CWAO 110515
SPECI CYWA 110515Z AUTO 13006KT 1 1/4SM OVC003 M02/M03 A2996 RMK ICG
PAST HR=

0000010100
585
SADN32 EKCH 110450 RRA
METAR EKSB 110516Z 23011KT 200V260 9999 BKN010 08/06 Q1007=

0000041600
586
SALY31 HLMC 110500
METAR HLLM 110450Z 19007KT 7000 14/06 Q1022=
METAR HLLT 110450Z 18005KT CAVOK 10/05 Q1022=
METAR HLGD 110500Z NIL=
METAR HLGT 110500Z NIL=
METAR HLJA 110500Z NIL=
METAR HLKF 110500Z NIL=
METAR HLKM 110500Z NIL=
METAR HLLB 110500Z NIL=
METAR HLLS 110500Z NIL=
METAR HLMI 110500Z NIL=
METAR HLNT 110500Z NIL=
METAR HLON 110500Z NIL=
METAR HLTD 110500Z NIL=

0000216000
587
SPUS70 KWBC 110516
SPECI
KDEW 110512Z AUTO 14007KT 10SM BKN018 BKN023 OVC050 02/01 A2986
     RMK AO2 T00220006=
KFDY 110512Z AUTO 16015KT 5SM -RA BR SCT006 BKN022 OVC033 05/04
     A2967 RMK AO2 PRESFR P0001=
KLNR 110512Z AUTO 00000KT 1/4SM FG VV004 00/00 A2946 RMK AO2
     T00000000=
KLOU 110512Z AUTO 32006KT 2 1/2SM +RA BR FEW017 BKN022 OVC041
     11/10 A2973 RMK AO2 RAB0458 P0013 TSNO=
KMEI 110512Z AUTO 17011KT 3SM BR OVC002 16/16 A2985 RMK AO2=
KMIE 110512Z AUTO 19011KT 6SM -RA BR FEW009 BKN026 OVC060 07/06
     A2966 RMK AO2 P0001 T00670056 TSNO=
KOMA 110512Z 00000KT 2 1/2SM R14R/4500VP6000FT BR CLR M03/M04
     A2961 RMK AO2 TWR VIS 6 T10331044=
KSMQ 110512Z AUTO 00000KT 1 1/4SM -RA BR OVC007 01/01 A3018 RMK
     AO2 P0001 T00110006 TSNO=
KSPW 110512Z AUTO 28009KT 3SM BR BKN004 M02/M03 A2953 RMK AO2
     T10171028=
PAOO 110512Z AUTO 06026G33KT 2SM BR FEW027 BKN032 OVC049 M08/M10
     A2930 RMK AO2 TSNO BKN V OVC PK WND 07033/0459 $=
KTDR 110511Z AUTO 15013G20KT 12SM BKN007 17/ A3004 RMK AO2 LTG
     DSNT N CIG 004V007 $=
KAGS 110513Z AUTO 00000KT 3/4SM BR OVC003 10/09 A3005 RMK AO2
     RVRNO=
KAOO 110513Z AUTO 21006KT 2 1/2SM BR OVC003 02/02 A3004 RMK AO2
     T00220022=
KAQW 110513Z AUTO 10009KT 10SM BKN017 BKN028 OVC033 01/M01 A3018
     RMK AO2=
KDWH 110513Z 23006KT 10SM SCT008 SCT032 19/18 A2986 RMK AO2=
KENW 110513Z AUTO 20010KT 2 1/2SM -RA BR OVC008 04/03 A2949 RMK
     AO2 CIG 005V011 P0001 T00440033=
KGEZ 110513Z AUTO 18009KT 1/4SM -RA FG BKN003 OVC009 07/06 A2968
     RMK AO2 P0001 T00720061=
KILG 110513Z AUTO 06006KT 3/4SM R01/P6000FT BR VV002 04/03 A3014
     RMK AO2 RAE01 P0000=
KIND 110513Z 15009KT 3SM -RA BR SCT006 BKN014 OVC070 05/05 A2962
     RMK AO2 P0002 $=
KMCB 110513Z AUTO 18012G21KT 9SM VCTS OVC003 18/18 A2984 RMK AO2
     LTG DSNT SW AND NW T01830178=
KMKC 110513Z 27005KT 10SM OVC015 03/01 A2963 RMK AO2 T00280006=
KRXE 110513Z AUTO 20010KT 10SM BKN017 BKN080 M01/M03 A3006 RMK AO2
     T10111033=
KTDZ 110513Z AUTO 16014KT 4SM -RA BR FEW004 BKN023 OVC070 05/04
     A2968 RMK AO2 P0001 TSNO=

0000012200
588
SPUS31 KWBC 110516
SPECI
KLOU 110512Z AUTO 32006KT 2 1/2SM +RA BR FEW017 BKN022 OVC041
11/10 A2973=

0000006700
589
SASA31 KWBC 110500 RRB
METAR
SVMC 110500Z NIL=

0000023700
590
FTZA43 FABL 110400
TAF FABL 110400Z 1106/1206 02005KT CAVOK
    BECMG 1107/1109 24010KT
    TX30/1113ZTN13/1203Z=
TAF FAUP 110400Z 1106/1206 16005KT CAVOK
    BECMG 1109/1111 22010KT
    TX37/1113ZTN14/1104Z=

0000012800
591
FTAE31 VTBB 110500 RRA
TAF  VTUU  110500Z 1106/1206 04005KT 8000 FEW025
     BECMG 1111/1113 04005KT CAVOK=

0000036300
592
FTOS31 LOWM 110500
TAF LOWW 110515Z 1106/1212 VRB02KT CAVOK TX07/1200Z TNM02/1106Z
    BECMG 1108/1110 15006KT SCT005
    BECMG 1110/1112 6000 BKN005
    TEMPO 1113/1119 3000 BR BKN003
    PROB30 1117/1119 0900 FG -DZ BKN002
    BECMG 1119/1121 28013KT 9999 BKN040
    TEMPO 1121/1208 31015G27KT SCT040
    FM120800 30012KT CAVOK=

0000113100
593
FTOS32 LOWM 110500
TAF LOWL 110515Z 1106/1206 VRB02KT 9999 FEW060 SCT300
    TX07/1121Z TNM01/1106Z
    PROB30 TEMPO 1106/1109 0400 FZBCFG BKN002
    BECMG 1112/1114 27005KT 9999 SCT050 BKN100
    TEMPO 1118/1124 30010KT -RA BKN035
    TEMPO 1200/1206 BKN010=
TAF LOWS 110515Z 1106/1206 15007KT CAVOK TX10/1112Z TN02/1106Z
    TEMPO 1110/1117 02005KT
    BECMG 1119/1121 32010KT 9999 -RA SCT030 BKN040=
TAF LOWI 110515Z 1106/1206 27005KT 2000 SCT003 BKN005
    TX08/1114Z TN01/1206Z
    TEMPO 1106/1109 1000 BCFG
    BECMG 1109/1111 9999 FEW010 SCT120 BKN300
    BECMG 1118/1120 SCT060 BKN080
    TEMPO 1121/1206 -SHRA SCT040 BKN060=
TAF LOWG 110515Z 1106/1206 34004KT 9999 FEW010 BKN100
    TX07/1112Z TNM01/1203Z
    TEMPO 1106/1108 BKN008
    BECMG 1118/1121 1200 BCFG FEW001 SCT120
    PROB30 TEMPO 1122/1206 0300 FG VV002=
TAF LOWK 110515Z 1106/1206 VRB02KT 6000 SCT002 OVC005
    TX06/1112Z TNM01/1203Z
    TEMPO 1106/1108 1200 BCFG OVC003
    TEMPO 1108/1117 32005KT 9999 SCT004 BKN012
    BECMG 1117/1120 2000 BR OVC002
    TEMPO 1120/1206 0400 FG VV002=

0000010000
594
SAAP32 FAPR 110500 RRC
METAR FLKK 110500Z 33002KT 9999 SCT/// BKN100 20/19 Q1020=

00000000