0000025200
455
SAAO30 GOOY 110730
METAR GOOY 110730Z 02007KT 9999  FEW010 19/14 Q1014 NOSIG=
METAR GOGS 110730Z NIL=
METAR GOOK 110730Z NIL=
METAR GOSS 110730Z NIL=
METAR GOTK 110730Z NIL=
METAR GOTT 110730Z NIL=
METAR GOGG 110730Z NIL=

0000024000
456
FTUS44 KWBC 110745 AAA
TAF AMD
KPAE 110743Z 1108/1206 16018G28KT 5SM -RA BR SCT025 OVC035
      TEMPO 1108/1112 2SM RA BR OVC018
     FM111200 20018G32KT P6SM -RA OVC025
     FM112000 20024G38KT P6SM -SHRA OVC017=

0000023700
457
FTUS72 KWBC 110745 AAA
TAF AMD
KRSW 110743Z 1108/1206 14005KT P6SM OVC003
      TEMPO 1110/1114 3SM BR
     FM111500 18011KT P6SM SCT020
     FM111700 21016G22KT P6SM SCT030
     FM120000 23006KT P6SM SCT030=

0000024000
458
FTUS74 KWBC 110745 AAA
TAF AMD
KPAE 110743Z 1108/1206 16018G28KT 5SM -RA BR SCT025 OVC035
      TEMPO 1108/1112 2SM RA BR OVC018
     FM111200 20018G32KT P6SM -RA OVC025
     FM112000 20024G38KT P6SM -SHRA OVC017=

0000010000
459
SPUS41 KWBC 110743
SPECI
KPWM 110739Z AUTO 01003KT 6SM BR OVC013 M01/M02 A3024=

0000011000
460
SPUS41 KWBC 110743
SPECI
KWRI 110740Z AUTO 14007KT 10SM BKN035 BKN046 OVC075 08/08 A3007=

0000011600
461
SPUS43 KWBC 110743
SPECI
KAPN 110740Z AUTO 18011KT 10SM -RA FEW007 BKN012 OVC055 03/02
A2946=

0000014000
462
SAPA31 KWBC 110700 RRF
METAR
PGSN 110740Z 02015KT 2SM +RA BR BKN024 BKN041 25/23 A2987 RMK AO2
     RAE0659B36 P0003=

0000173400
463
SPUS70 KWBC 110746
SPECI
KBEH 110742Z AUTO 19009KT 9SM OVC006 05/05 A2949 RMK AO2 RAE38 CIG
     004V009 P0001=
KBMI 110742Z AUTO 21012KT 3/4SM R29/3000VP6000FT -RA BR OVC001
     03/03 A2948 RMK AO2 P0004=
KECG 110742Z AUTO 16015G24KT 4SM -RA BR SCT005 BKN010 OVC022 17/17
     A3007 RMK AO2 P0018 T01720167 TSNO=
KMKL 110742Z AUTO 24012G19KT 9SM -RA FEW013 BKN050 OVC070 13/12
     A2968 RMK AO2 PK WND 25026/0723 P0017 $=
KMRH 110742Z AUTO 19009KT 6SM BR SCT016 17/16 A3007 RMK AO2
     T01720161 TSNO $=
KMSY 110742Z 19012KT 6SM BR SCT003 OVC006 19/19 A2987 RMK AO2
     T01940189 $=
KOKB 110742Z AUTO 00000KT 1 3/4SM BR FEW009 06/04 A3010 RMK AO2
     TSNO $=
KPSX 110742Z AUTO 23004KT 3SM BR SCT003 13/13 A2989 RMK AO2
     T01330133=
KSHN 110742Z AUTO VRB03KT 3SM RA BR SCT010 BKN013 OVC019 08/08
     A2956 RMK AO2 P0011 T00830078 TSNO=
KSMQ 110742Z AUTO 30004KT 1 1/2SM BR BKN005 OVC040 01/01 A3008 RMK
     AO2 RAE07 P0001 T00110011 TSNO=
KENW 110743Z AUTO 21008KT 2SM -RA BR OVC004 04/03 A2943 RMK AO2
     RAB33 P0001 T00390028=
KFFC 110743Z AUTO 14005KT 2 1/2SM -RA BR OVC003 12/12 A2992 RMK
     AO2 LTG DSNT E-SW P0003 T01170117=
KLSE 110744Z AUTO 00000KT 3SM BR FEW014 OVC050 M02/M03 A2946 RMK
     AO2 SNB02SNEMMB07SNEMMB26SNEMMB33SNEMM P0000 T10171028 $=
KPAE 110743Z AUTO 16016KT 3SM -RA BR FEW024 OVC031 09/08 A2956 RMK
     AO2 P0006=
KPDK 110743Z AUTO 12004KT 3SM -RA BR OVC005 09/08 A2991 RMK AO2
     LTG DSNT ALQDS TSB06E43RAB11 PRESFR P0012=
KSPI 110744Z AUTO 23005KT 1SM BR VV002 05/05 A2950 RMK AO2=
KTTN 110743Z AUTO 06004KT 1SM BR OVC002 03/02 A3008 RMK AO2=
KVLD 110743Z AUTO 19008KT 5SM BR OVC002 21/19 A3002 RMK AO2=

0000010000
464
SPUS31 KWBC 110746
SPECI
KMSY 110742Z 19012KT 6SM BR SCT003 OVC006 19/19 A2987=

0000010800
465
SPUS31 KWBC 110746
SPECI
KORF 110742Z AUTO 16011KT 3SM RA BR SCT007 OVC033 17/16 A3006=

0000010100
466
SACA33 KWBC 110700 RRD
METAR
TNCC 110700Z 10011KT 9999 FEW014 26/22 Q1014 NOSIG=

0000015500
467
SPSR31 WSSL 110745
SPECI WSSL 110745Z 04010KT 340V060 9999 -SHRA FEW013 FEW017TCU
FEW018CB SCT300 29/27 Q1008 RESHRA RMK 0730Z Q1008 =

0000009100
468
SPCN31 CWAO 110746
SPECI CYTR 110746Z 09004KT 2SM -RA BR OVC009 RMK SF8=

0000011300
469
SPUS41 KWBC 110747
SPECI
KCEF 110743Z AUTO 31002KT 1 1/4SM R23/5000FT BR OVC004 00/00 A3016=

0000011300
470
SPUS41 KWBC 110747
SPECI
KPSM 110743Z 00000KT 3/4SM R34/P6000FT -FZDZ BR OVC002 00/00 A3021=

0000010200
471
SPUS42 KWBC 110747
SPECI
KPDK 110743Z AUTO 12004KT 3SM -RA BR OVC005 09/08 A2991=

0000010900
472
SPUS44 KWBC 110747
SPECI
KPAE 110743Z AUTO 16016KT 3SM -RA BR FEW024 OVC031 09/08 A2956=

0000011500
473
SAEO32 EETN 110750
METAR EETU 110750Z 29009KT 5000 -SHSN BKN009 BKN016CB OVC022
M01/M02 Q0998=

0000061400
474
FTUS71 KWBC 110748 AAA
TAF AMD
KISP 110747Z 1108/1206 16011KT P6SM -RA FEW011 OVC040
      WS020/19055KT
     FM111400 17017KT 1/2SM -RA FG OVC004 WS015/19060KT
     FM111800 18023G30KT 1/2SM +RA FG OVC004 WS015/19060KT
     FM120400 23012G18KT 3SM -SHRA BR SCT007 OVC030=
KSLK 110747Z 1108/1206 00000KT 2SM BR VCSH SCT002 BKN025
      WS020/21045KT
      TEMPO 1108/1110 1/4SM FZFG VV002
     FM111000 21006KT 3SM -FZDZ BR SCT006 BKN010 OVC015
      WS020/22050KT
     FM111300 20012G20KT 3SM -RA BR OVC008 WS020/22055KT
     FM111800 21010G18KT 2SM RA BR BKN004 OVC006=

00000000