0000009400
075
SPUS43 KWBC 110719
SPECI
KDSM 110715Z 31013KT 5SM BR OVC008 01/M01 A2955=

0000065000
076
SAUK20 EGGY 110720
METAR EGRE 110720Z AUTO 05014KT 9999 FEW008/// SCT011/// 02/M01 Q0998
     RESN RERASN W///S5=
METAR EGRK 110720Z AUTO 27029KT 9999 FEW024/// 06/01 Q0998 W///S5=
METAR EGRM 110720Z AUTO 29031KT 9999 FEW020/// 04/01 Q1002 RESN RERA
     W///S5=
METAR EGRO 110720Z AUTO 29028KT //// // ///////// 06/01 Q1003 W///S5=
METAR EGRP 110720Z AUTO 27011G24KT 240V340 9999 FEW030/// ///// Q1004
     W///S4=
METAR EGRS 110720Z AUTO 29026KT 9999 FEW033/// 06/M01 Q1005 W///S4=
METAR EGRV 110720Z AUTO 31018KT 9999 NCD 07/02 Q1011 W///S3=
METAR EGRW 110720Z AUTO 31019KT 9999 SCT018/// 07/05 Q1010 W///S3=

0000043400
077
SAUK21 EGGY 110720
METAR EGRF 110720Z AUTO 27028KT 9999 FEW026/// 06/00 Q0999 W///S5=
METAR EGRG 110720Z AUTO 07018KT 9999 SCT020/// 04/02 Q0997 W///S5=
METAR EGRI 110720Z AUTO 28025KT 9999 FEW036/// 07/M00 Q1000=
METAR EGRL 110720Z AUTO 27019G32KT 9999 FEW020/// 06/02 Q1000 W///S5=
METAR EGRN 110720Z AUTO 29022KT 9999 SCT032/// 06/M00 Q1006=
METAR EGRT 110720Z AUTO /////KT 9999 NCD 07/01 Q1011 W///S4=

0000012500
078
SALV31 EVRA 110720
METAR EVRA 110720Z 24004KT 170V320 9999 SCT009 BKN028 01/M00 Q1002 
R36/290158 NOSIG=

0000014800
079
SAFA31 EKCH 110720
METAR EKVG 110720Z AUTO 28016G26KT 5000NDV -SHRA  OVC010///
03/02 Q0997 RMK OVC011/// WIND 850FT 30035G49KT=

0000009500
080
SACA32 KWBC 110700 RRB
METAR
TAPA 110700Z 08011KT 9999 FEW020 25/20 Q1016=

0000011000
081
SALT32 EYVI 110720
METAR EYKA 110720Z 27010KT 9999 BKN012 OVC017 01/M01 Q1005
R08/190095=

0000033700
082
FTXX69 EGRR 110600 RRB
TAF KQSA 1107/1213 28009KT 9999 FEW200 QNH3024INS
     BECMG 1115/1116 VRB06KT 6000 HZ SCT180 QNH3027INS
     BECMG 1117/1118 VRB06KT 9000 HZ SCT150 BKN180 QNH3021INS
     TEMPO 1203/1206 6000 HZ
     BECMG 1207/1208 29009KT 9999 NSW SCT100 BKN150 QNH3023INS
     T07/1210Z TM07/1202Z=

0000070600
083
FTXX69 EGRR 110700
TAF EQBH 110530Z 1106/1206 06006KT 9999 BKN200
     BECMG 1203/1206 08010KT 7000 -RA BKN060=
TAF KQIR 1107/1213 19012KT 9000 -SHRA SCT015 OVC030 QNH3006INS
     BECMG 1110/1111 23012KT 9999 NSW SCT040 BKN080 QNH3010INS
     BECMG 1121/1122 31010G15KT 8000 BR FEW040 QNH3014INS
     BECMG 1205/1206 33010G15KT 9999 NSW SKC QNH3016INS T19/1111Z
     T15/1203Z=
TAF KQSA 1107/1213 28009KT 9999 FEW200 QNH3024INS
     BECMG 1115/1116 VRB06KT 6000 HZ SCT180 QNH3027INS
     BECMG 1117/1118 VRB06KT 9000 HZ SCT150 BKN180 QNH3021INS
     TEMPO 1203/1206 6000 HZ
     BECMG 1207/1208 29009KT 9999 NSW SCT100 BKN150 QNH3023INS
     T07/1210Z TM07/1202Z=

0000011400
084
SATH33 VTBB 110700 RRA
METAR VTUI 110700Z 15004KT 9999 FEW035 30/13 Q1015 A2998 RWY05
INFO C=

0000032000
085
SACG21 FCBB 110700
METAR FCBB 110700Z 24002KT 8000 FEW010 23/22 Q1015 NOSIG=
METAR FCPP 110700Z 10006KT 9000 FEW013 BKN026 FEW030CB 25/24 Q1012
NOSIG=
METAR FCPD 110700Z 00000KT 9999 FEW017 SCT050 BKN130 24/23 Q1014=
METAR FCOU 110700Z 00000KT 8000 BKN010 BKN130 23/22 Q1013=
METAR FCOI NIL=

0000012500
086
SAMP31 LMMM 110730
METAR HLLT NIL=
METAR HLLB NIL=
METAR LMML 110715Z 20006KT CAVOK 15/13 Q1023 NOSIG=

0000013200
087
SAPA31 KWBC 110700 RRC
METAR
PKWA 110720Z AUTO 06016KT 10SM SCT035 OVC050 28/20 A2976 RMK AO2
     T02800197=

0000009900
088
SPSP35 LEMM 110722
SPECI LEBZ 110722Z 00000KT 0800 R31/1300D FG NSC 05/05 Q1017=

0000015400
089
SALV32 EVRA 110720
METAR EVLA 110720Z AUTO 26006KT 9999 OVC017 03/01 Q1004=
METAR EVVA 110720Z AUTO 27008KT 9999 OVC016 02/M00 Q1003=

0000024600
090
FTCN31 CWAO 110700 AAA
TAF AMD CYWL 110722Z 1107/1119 12018G28KT P6SM SCT015 BKN080
     BECMG 1112/1114 14012KT
    FM111500 15007KT P6SM SCT020 BKN060 TEMPO 1115/1119 3SM -SHSN
     BKN020
    RMK NXT FCST BY 111300Z=

0000189200
091
SPUS70 KWBC 110722
SPECI
KAMG 110718Z AUTO 18007KT 7SM OVC003 18/17 A3002 RMK AO2 T01830172
     $=
KASE 110718Z 14005KT 3SM -SN BR BKN021 OVC036 M05/M06 A3013 RMK
     AO2 P0000 T10501061=
KAVL 110718Z AUTO 21003KT 2SM R34/4500VP6000FT -RA BR SCT003
     BKN013 OVC020 07/07 A2998 RMK AO2 P0001=
KCRE 110718Z AUTO 18007KT 10SM SCT002 OVC027 17/16 A3005 RMK
     AO2=
KGWO 110718Z AUTO 24008KT 5SM -RA BR FEW006 BKN028 OVC060 17/16
     A2972 RMK AO2 P0018 T01670161 TSNO=
KHQM 110718Z AUTO 17028G40KT 2SM -SN OVC015 A2958 RMK AO2 PK WND
     17040/0710 UPB0658E00SNE0658B00 P0001 TSNO $=
KJFK 110718Z 14004KT 1 1/2SM R04R/3500VP6000FT -RA BR BKN012
     OVC060 07/06 A3016 RMK AO2 TWR VIS 2 P0001 $=
KRWI 110718Z AUTO 15003KT 2 1/2SM BR OVC003 16/16 A3004 RMK AO2
     P0007 T01610156=
KASH 110718Z AUTO 00000KT 1 1/4SM UP BR BKN002 00/00 A3022 RMK AO2
     UPB07 P0000=
KBNA 110719Z 32008KT 2 1/2SM R02L/6000VP6000FT +RA BR FEW005
     BKN011 OVC019 13/12 A2971 RMK AO2 P0014=
KECP 110719Z AUTO 15011KT 9SM SCT002 OVC010 19/18 A2998 RMK AO2
     $=
KGON 110719Z 00000KT 1/4SM R05/1800V2200FT -RA FG VV003 04/03
     A3020 RMK AO2 RAB14 P0000=
KHAO 110719Z AUTO 00000KT 6SM -RA BR SCT029 SCT048 OVC085 09/09
     A2967 RMK AO2 P0004 T00940094=
KHIB 110719Z AUTO 00000KT 3SM BR OVC005 M03/M04 A2940 RMK AO2=
KORD 110719Z 21011G19KT 3SM -RA BR OVC004 04/03 A2945 RMK AO2
     DZE03RAB03 P0000 T00440028 $=
KPAH 110719Z AUTO 20006KT 10SM BKN009 BKN016 OVC090 11/09 A2959
     RMK AO2 T01060094=
KY50 110719Z AUTO 26004KT 1 1/2SM BR OVC002 00/ A2940 RMK AO2 TSNO
     $=
PAEN 110719Z 02003KT 10SM SCT006 OVC013 M04/M04 A2933 RMK AO2=
KISP 110719Z AUTO 15007KT 7SM FEW002 BKN037 OVC065 08/07 A3015 RMK
     AO2 RAE14 P0002=
KLPR 110719Z AUTO 18014KT 10SM SCT023 BKN034 OVC110 08/06 A2966
     RMK AO2=

0000012800
092
SPUS31 KWBC 110722
SPECI
KJFK 110718Z 14004KT 1 1/2SM R04R/3500VP6000FT -RA BR BKN012
OVC060 07/06 A3016=

0000008800
093
SACA41 KWBC 110700 RRA
METAR
MUCL 110705Z AUTO 08003KT 25/23 Q1017=

0000016400
094
SADN33 EKCH 110720
METAR EKKA 110721Z 23012KT 8000 -RA FEW007 BKN038 07/06 Q1003=
METAR EKSP 110720Z 24014KT 5000 BR SCT007 BKN009 07/06 Q1006=

00000000