0000009300
175
SAMV31 VRMG 111700
METAR VRMG 111700Z 00000KT 9999 FEW018 BKN260 26/25 Q1014=
0000067800
176
SAIY32 LIIB 110550
METAR LIBD 110550Z 23005KT 4000 BR NSC 05/05 Q1023=
METAR LIBR 110545Z 27002KT 9999 FEW020 06/05 Q1022 NOSIG=
METAR LICC 110550Z NIL=
METAR LICJ 110550Z 15005KT CAVOK 10/08 Q1021=
METAR LIPB 110550Z VRB01KT 9999 BKN054 04/04 Q1022=
METAR LIPE 110550Z VRB01KT 3000 BR FEW001 BKN050 07/07 Q1022=
METAR COR LIPH 110545Z /////KT 2000 BR SCT020 BKN060 07/06 Q1022=
METAR LIPK 110550Z NIL=
METAR LIPQ 110550Z 00000KT 2000 BR SCT005 BKN030 06/04 Q1022=
METAR LIPR 110545Z /////KT 6000 BKN050 09/09 Q1022=
METAR LIPX 110545Z 20003KT 1000 R04/P1500D BR BKN050 08/06 Q1022=
METAR LIPZ 110550Z VRB01KT 3000 BR BKN045 08/07 Q1022=

0000021700
177
SANO37 ENMI 110550
METAR ENNO 110550Z NIL=
METAR ENOV 110550Z NIL=
METAR ENSD 110550Z NIL=
METAR ENSG 110550Z NIL=
METAR ENSN 110550Z NIL=
METAR ENSR 110550Z NIL=
METAR ENSS 110550Z NIL=

0000039400
178
SANO35 ENMI 110550
METAR ENMS 110550Z VRB09KT 9999 FEW040 SCT080 M09/M18 Q1009 RMK WIND
           412FT VRB09KT=
METAR ENRM 110550Z NIL=
METAR ENRS 110550Z 08021KT 9999 FEW045 M04/M12 Q1011=
METAR ENSK 110550Z NIL=
METAR ENSO 110550Z NIL=
METAR ENST 110550Z 01010G21KT 300V080 CAVOK M07/M17 Q1007 RMK WIND
           300FT VRB15G34KT=
METAR ENVD 110550Z NIL=

0000033700
179
SANO36 ENMI 110550
METAR ENBS 110550Z NIL=
METAR ENHK 110550Z NIL=
METAR ENHV 110550Z NIL=
METAR ENLK 110550Z 08017KT CAVOK M06/M014 Q1013=
METAR ENMH 110550Z 20005KT 9999 FEW028 BKN040 M05/M07 Q1016 RESHSN=
METAR ENNK 110550Z 03010KT CAVOK M08/M13 Q1015=
METAR ENNM 110550Z 08016G26KT CAVOK M10/M16 Q1006=

0000009900
180
SPSP35 LEMM 110555
SPECI LEBZ 110555Z 00000KT 0400 R31/0600U FG NSC 05/05 Q1016=

0000009300
181
SAIY32 LIIB 110550 RRA
METAR LICC 110550Z 25006KT 9999 FEW100 05/03 Q1022=

0000060600
182
SANO38 ENMI 110550
METAR ENDR 110550Z AUTO 07025KT M04/M08 Q1001=
METAR ENEK 110550Z 31022KT 9999 FEW025 SCT110 06/02 Q1004 W08/S4=
METAR ENGC 110550Z 08017KT 9999 BKN020 03/M02 Q0996 W06/S5=
METAR ENHE 110550Z 10033KT 9999 SCT030 M02/M09 Q1002 W///S5=
METAR ENOA 110550Z 28021KT 9999 BKN031 06/03 Q0995 W///S5=
METAR ENSL 110550Z AUTO 29029KT 9999NDV BKN028/// 07/01 Q1001
           W05/S4=
METAR ENFB 110550Z AUTO 08017KT 9999NDV -SHRA OVC019/// 03/00 Q0997
           W///S5=
METAR ENSF 110550Z AUTO 09018KT 9999NDV -SHRA OVC023/// 03/M01 Q0997
           W///S5=

0000028600
183
FTNO33 ENMI 110500
TAF ENNA 110500Z 1106/1206 20005KT 9999 FEW003 PROB40 TEMPO 1106/1115
         0800 FG BKN001=
TAF ENSB 110500Z 1106/1206 26010KT 9999 -SN FEW010 BKN020 PROB30
         TEMPO 1106/1124 FZDZRA=
TAF ENTC 110500Z 1106/1206 14005KT 9999 FEW020=

0000021700
184
FTNO32 ENMI 110500
TAF ENAN 110500Z 1106/1206 10015KT CAVOK=
TAF ENBO 110500Z 1106/1206 09015KT CAVOK=
TAF ENDU 110500Z 1106/1206 VRB05KT CAVOK=
TAF ENOL 110500Z 1106/1206 08020KT 9999 FEW010=

0000043200
185
SAFI33 EFHK 110550
EFJO 110550Z 35010KT 320V040 9000 -SN FEW012 BKN015 BKN028 M08/M10
Q0997=
EFLP 110550Z AUTO 36012KT 320V020 9999 -SG OVC012 M06/M09 Q0995=
EFMI 110550Z AUTO VRB04KT 9999 OVC013 M07/M08 Q0998=
EFSA 110550Z AUTO 34007KT 300V010 9999 -SN OVC016 M07/M09 Q0996=
EFUT 110550Z AUTO 36011KT 320V040 9999 OVC011 M06/M08 Q0996=
EFVR 110550Z AUTO 36008KT 330V030 1100 -SN OVC017 M08/M11 Q0998=

0000036900
186
SADL34 EDZO 110550
METAR EDHL 110550Z 22009KT 6000 BKN011 06/04 Q1011=
METAR EDLP 110550Z 20009KT CAVOK 03/M02 Q1014=
METAR EDLW 110550Z 19011KT CAVOK 02/M01 Q1014=
METAR EDMA 110550Z 13002KT CAVOK M02/M02 Q1017=
METAR EDQM 110550Z AUTO 22008KT 8000NDV BR NCD 01/M01 Q1016=
METAR EDSB 110550Z VRB02KT 7000 -FZRA FEW040 BKN066 M00/M01 Q1017=

0000025500
187
SADL33 EDZO 110550
METAR EDFE 110550Z NIL=
METAR EDFH 110550Z 19005KT 9999 -RA SCT032 BKN080 02/01 Q1015=
METAR EDFM 110550Z NIL=
METAR EDLV 110550Z 20005KT 6000 BKN006 02/01 Q1014=
METAR EDVK 110550Z 12004KT CAVOK 01/M00 Q1015=

0000013600
188
SADL35 EDZO 110550
METAR EDJA 110550Z VRB01KT 7000 NSC M01/M01 Q1016=
METAR EDTL 110550Z 21002KT CAVOK 01/01 Q1017=

0000054100
189
FTNO38 ENMI 110500
TAF ENGC 110500Z 1106/1206 08017KT 9999 FEW015 BKN025 PROB40 TEMPO
         1106/1121 4000 SHRA BKN012CB BECMG 1112/1115 VRB07KT BECMG
         1118/1121 36020KT BECMG 1121/1124 34030KT TEMPO 1121/1206
         2500 SHSNRA VV009=
TAF ENOA 110500Z 1106/1206 30020KT 9999 -SHRA SCT012 BKN020 TEMPO
         1106/1124 4000 SHRA BKN008 SCT012CB BECMG 1107/1110 06012KT
         BECMG 1116/1119 28015KT BECMG 1121/1124 36035KT TEMPO
         1200/1206 2500 SHSNRA VV009 BECMG 1202/1204 34025KT=

0000009700
190
SPCN42 CWAO 110554
SPECI CYUA 110554Z AUTO 30021KT 1 1/4SM -SN CLR M25/ A2974=

0000070700
191
SANO33 ENMI 110550
METAR ENAT 110550Z 21004KT 9999 -SN OVC003 M16/M18 Q1019 RMK WIND
           700FT 13006KT=
METAR ENBL 110550Z NIL=
METAR ENEV 110550Z AUTO 19002KT 9999NDV NCD M08/M16 Q1015 RMK WIND
           1400FT 10004KT=
METAR ENFL 110550Z 07006KT 8000 -SN FEW006 SCT013 BKN018 M01/M02
           Q0997=
METAR ENKB 110550Z 11004KT 070V150 9999 FEW011 SCT017 OVC027 M05/M07
           Q0999=
METAR ENKR 110550Z 17009KT 7000 -SN OVC008 M21/M23 Q1016 SEASMOKE
           NORTH OF THE FIELD RMK WIND 775FT 24013KT=
METAR ENML 110550Z 04006KT 9999 SCT020 BKN028 M04/M07 Q0999=
METAR ENNA 110550Z 19003KT CAVOK M20/M22 Q1018 RMK WIND 1800FT
           06003KT=

0000009900
192
SAQB31 LQMO 110600
METAR LQMO 110600Z VRB01KT 2000 BR SCT040 BKN070 07/07 Q1023=

0000011000
193
SAUK31 EGGY 110550 CCA
METAR COR EGLL 110550Z 28010KT 9999 FEW011 SCT022 08/07 Q1013 NOSIG=

0000059200
194
FTNO31 ENMI 110500
TAF ENBR 110500Z 1106/1206 26008KT 9999 -RA FEW005 SCT015 BKN025
         TEMPO 1106/1124 32012KT 4000 SHRA BKN008 SCT015CB BECMG
         1200/1203 33015KT TEMPO 1200/1206 1500 SHSNRA VV008=
TAF ENGM 110500Z 1106/1206 04005KT 7000 -SN SCT004 BKN012 TEMPO
         1106/1124 2000 -SN BR BKN004=
TAF ENVA 110500Z 1106/1206 09008KT 9999 FEW002 SCT050=
TAF ENZV 110500Z 1106/1206 26012KT 9999 FEW015 SCT040 TEMPO 1109/1206
         4000 SHRA BKN012CB BECMG 1112/1115 32020KT PROB30 TEMPO
         1115/1203 TS PROB40 TEMPO 1200/1206 33030KT=

00000000