0000040500
395
FTCN31 CWAO 110600
TAF CYZP 110639Z 1107/1119 08020G30KT 6SM -RA BR OVC025 TEMPO
     1107/1109 2SM -RA BR BKN009
     BECMG 1107/1109 27012G22KT
    FM110900 27015G25KT P6SM -SHRA BKN025 TEMPO 1109/1118 4SM -SHRA
     BR BKN008
     BECMG 1116/1118 29020G30KT
    FM111800 29020G30KT P6SM SCT020 TEMPO 1118/1119 BKN020
    RMK FCST BASED ON AUTO OBS. NXT FCST BY 111300Z=

0000030800
396
FTCN31 CWAO 110600
TAF CYZT 110639Z 1107/1119 11020G35KT 6SM -RA OVC015 TEMPO 1107/1112
     3SM -RA BR BKN009
     BECMG 1107/1109 21008KT
    FM111200 21008KT P6SM -SHRA BKN030 TEMPO 1112/1119 4SM -SHRA BR
     BKN015
     BECMG 1114/1116 12010KT
    RMK NXT FCST BY 111300Z=

0000024700
397
FTCN31 CWAO 110600
TAF CYXT 110639Z 1107/1119 01015G25KT 3/4SM -SN VV005 TEMPO 1107/1110
     3SM -SN OVC020
    FM111000 01010KT P6SM SCT015 BKN040 TEMPO 1110/1119 3SM -SN
     FEW005 BKN015
    RMK NXT FCST BY 111300Z=

0000022100
398
FTCN31 CWAO 110600
TAF CYXS 110639Z 1107/1119 02005KT 1SM -SN VV010 TEMPO 1107/1115 3SM
     -SN OVC025
    FM111500 19010KT P6SM SCT020 BKN050
    RMK FCST BASED ON AUTO OBS. NXT FCST BY 111300Z=

0000033200
399
FTCN31 CWAO 110600
TAF CYLW 110639Z 1107/1119 VRB03KT P6SM SCT020 OVC060 TEMPO 1107/1109
     3SM -RASN BR OVC020
    FM110900 15008KT P6SM SCT015 OVC040 TEMPO 1109/1116 4SM -SHRA BR
     OVC015
    FM111600 15008KT P6SM SCT040 TEMPO 1116/1119 BKN040
    RMK FCST BASED ON AUTO OBS. NXT FCST BY 111300Z=

0000029200
400
FTCN31 CWAO 110600
TAF CYXC 110639Z 1107/1119 20006KT P6SM FEW030 OVC050
    FM110900 17008KT P6SM SCT020 BKN050 TEMPO 1109/1114 4SM -RASN BR
     OVC020
    FM111400 17012KT P6SM SCT020 OVC040 TEMPO 1114/1119 4SM -SHRA BR
     BKN020
    RMK NXT FCST BY 111300Z=

0000027300
401
FTCN34 CWAO 110600
TAF CYIV 110639Z 1107/1119 VRB03KT P6SM SCT012 OVC080 TEMPO 1107/1109
     2SM -SN VV012
    FM110900 02005KT P6SM SCT008 OVC012 TEMPO 1109/1119 2SM -SN BR
     BKN008
     BECMG 1110/1112 32006KT
    RMK NXT FCST BY 111300Z=

0000018700
402
FTCN33 CWAO 110600
TAF CYVM 110639Z 1107/1119 VRB03KT P6SM SCT015 BKN040 TEMPO 1107/1119
     4SM -SN IC OVC015
    RMK FCST BASED ON AUTO OBS. NXT FCST BY 111300Z=

0000030300
403
FTCN34 CWAO 110600
TAF CYPA 110639Z 1107/1119 36008KT P6SM -SN OVC020 TEMPO 1107/1112
     P6SM NSW OVC030
     BECMG 1107/1109 27008KT
    FM111200 24006KT P6SM SCT008 OVC012 TEMPO 1112/1119 3SM -SN BR
     BKN008
     BECMG 1113/1115 15005KT
    RMK NXT FCST BY 111300Z=

0000014400
404
FTCN33 CWAO 110600
TAF CYCY 110639Z 1107/1119 FCST NOT AVBL DUE NO OBS
    RMK FCST BASED ON AUTO OBS. NXT FCST BY 111300Z=

0000019500
405
FTCN32 CWAO 110600
TAF CYYE 110639Z 1107/1119 VRB03KT P6SM BKN080
    FM111500 VRB03KT P6SM SCT030 OVC060 TEMPO 1115/1119 3SM -SN
     BKN020
    RMK NXT FCST BY 111300Z=

0000018700
406
FTCN34 CWAO 110600
TAF CYNE 110639Z 1107/1119 33005KT P6SM SCT008 OVC015 TEMPO 1107/1119
     4SM -SN BR BKN008
    RMK FCST BASED ON AUTO OBS. NXT FCST BY 111300Z=

0000011200
407
FTCN33 CWAO 110600
TAF CYZS 110639Z 1107/1119 32005KT P6SM SKC
    RMK NXT FCST BY 111300Z=

0000033700
408
SAUS75 KWBC 110600 RRD
METAR
PADK 110636Z AUTO 22034G42KT 5SM SCT023 BKN030 OVC037 03/M01
     A2868=
PAGS 110636Z AUTO 00000KT 4SM OVC046 M01/M01 A2926=
PAUN 110636Z AUTO 09014KT 10SM CLR M17/M24 A2954=
PAVD 110636Z 10SM BKN120 M07/M09 A2927=
PHLI 110636Z 05017G23KT 10SM BKN018 BKN036 OVC046 23/21 A2997=

0000032200
409
FTCN34 CWAO 110600
TAF CYYL 110639Z 1107/1119 04005KT P6SM SCT030 TEMPO 1107/1112 5SM
     -SN IC BKN030
     BECMG 1107/1109 36006KT
    FM111200 31006KT P6SM SCT020 BKN040 TEMPO 1112/1119 4SM -SN
     BKN020
     BECMG 1113/1115 26005KT
    RMK FCST BASED ON AUTO OBS. NXT FCST BY 111300Z=

0000029100
410
FTCN34 CWAO 110600
TAF CYVC 110639Z 1107/1119 28012G22KT 3SM -SN BR OVC008 TEMPO
     1107/1118 P6SM NSW SCT008 OVC012
     BECMG 1113/1115 VRB03KT
    FM111800 12006KT P6SM SCT012 BKN025 TEMPO 1118/1119 4SM -SN BR
     SCT008 BKN012
    RMK NXT FCST BY 111300Z=

0000024700
411
FTCN33 CWAO 110600
TAF CYTE 110639Z 1107/1119 27012KT P6SM SCT010 TEMPO 1107/1113 5SM IC
     BR BKN010
    FM111300 27010KT P6SM FEW020 TEMPO 1113/1119 5SM IC BR BKN020
    RMK FCST BASED ON AUTO OBS. NXT FCST BY 111300Z=

0000018800
412
FTCN33 CWAO 110600
TAF CYIO 110639Z 1107/1119 18005KT P6SM -SN FEW020 OVC050 TEMPO
     1107/1119 3SM -SN OVC020
    RMK FCST BASED ON AUTO OBS. NXT FCST BY 111300Z=

0000026600
413
FTCN34 CWAO 110600
TAF CYGX 110639Z 1107/1119 05006KT 1SM -SN VV008 TEMPO 1107/1109 4SM
     -SN OVC025
    FM110900 06008KT P6SM SCT015 OVC025 TEMPO 1109/1119 4SM -SN
     BKN015
     BECMG 1116/1118 35005KT
    RMK NXT FCST BY 111300Z=

0000015200
414
FTCN33 CWAO 110600
TAF CYCO 110639Z 1107/1119 26018KT P6SM DRSN SKC TEMPO 1107/1119 5SM
     IC DRSN
    RMK NXT FCST BY 111300Z=

00000000