0000023100
335
SALJ31 LJLJ 110730
METAR LJLJ 110730Z 25001KT 9999 MIFG FEW030 SCT040 05/04 Q1021 NOSIG=
METAR LJMB 110730Z VRB01KT 1400 R32/1800D BR OVC003 03/02 Q1021=
METAR LJPZ 110730Z 00000KT 2000 BR OVC050 09/09 Q1022=

0000009900
336
SALJ32 LJLJ 110730
METAR LJCE 110730Z VRB01KT 0400 FG VV001 03/03 Q1022 RMK RED=

0000025000
337
SAFR21 LFPW 110730
METAR LFOA 110730Z AUTO VRB01KT 9000 OVC018 07/06 Q1017=
METAR LFPC 110730Z AUTO 00000KT 1400 R25///// BR NSC 04/04 Q1016=
METAR LFPV 110730Z AUTO VRB02KT 0150 0100 R27/0600D R09/0450N FG
VV/// 05/04 Q1016=

0000011000
338
SANT31 KWBC 110700 RRC
METAR
BIKF 110730Z 24015KT 9999 FEW039 SCT050 BKN130 01/M01 Q0998=

0000047500
339
SAFR22 LFPW 110730
METAR LFBC 110730Z AUTO 20002KT 9999 OVC018 10/09 Q1018=
METAR LFBG 110730Z AUTO 00000KT 2500 BR OVC003 08/08 Q1018=
METAR LFBM 110730Z AUTO 20001KT 3500 BR FEW018 OVC026 09/08 Q1019=
METAR LFKS 110730Z AUTO VRB03KT 9999 FEW026 OVC036 12/08 Q1021=
METAR LFMO 110730Z AUTO 00000KT 6000 BKN031 OVC043 08/07 Q1021=
METAR LFMY 110730Z AUTO VRB02KT 9999 FEW028 OVC041 10/07 Q1021=
METAR LFBY 110730Z NIL=
METAR LFMC 110730Z NIL=

0000040000
340
SAFR23 LFPW 110730
METAR LFOC 110730Z AUTO 33002KT 5000 BR OVC002 06/05 Q1017=
METAR LFOE 110730Z AUTO 26005KT 0200 R22/0750N FG VV/// 05/05 Q1017=
METAR LFOJ 110730Z AUTO 11001KT 2300 BR FEW001 BKN082 OVC110 05/05
Q1017=
METAR LFRJ 110730Z AUTO 01006KT 9999 FEW019 BKN029 OVC038 07/06
Q1019=
METAR LFRL 110730Z AUTO 06004KT 030V110 9999 // FEW007 OVC021
08/07 Q1019=

0000026900
341
SAFR24 LFPW 110730
METAR LFSI 110730Z AUTO 10005KT 9999 -RA NSC 05/04 Q1016=
METAR LFSO 110730Z AUTO VRB01KT 4500 BR NSC 03/02 Q1016=
METAR LFSX 110730Z AUTO 08003KT 9999 NSC 03/02 Q1017=
METAR LFYR 110730Z AUTO 00000KT 0500 FG NSC 02/01 Q1017=

0000034300
342
SARO31 LROM 110730
METAR LRBS 110730Z VRB01KT CAVOK 02/M01 Q1023 NOSIG=
METAR COR LRCK 110730Z 29008KT 3000 BR FEW048 02/02 Q1022 NOSIG=
METAR LROP 110730Z 23003KT CAVOK 00/M01 Q1022 8819//95 NOSIG=
METAR LRSB 110730Z VRB02KT 9999 SCT058 M00/M02 Q1023=
METAR LRTR 110730Z 10007KT 3000 BR FEW048 02/02 Q1023 11190095=

0000038900
343
SARO32 LROM 110730
METAR LRAR 110730Z 17004KT 6000 BKN045 03/03 Q1023=
METAR LRBM 110730Z 06004KT 8000 SCT030 02/01 Q1022 1019//95=
METAR LRCL 110730Z VRB02KT 9999 FEW050 BKN063 M00/M01 Q1022=
METAR LROD 110730Z 19012KT CAVOK 04/02 Q1023=
METAR LRSM 110730Z 07002KT CAVOK M02/M02 Q1022 0119//95=
METAR LRTM 110730Z 00000KT 4500 MIFG NSC M00/M00 Q1023 0719//95=

0000027600
344
SARO33 LROM 110730
METAR LRBC 110730Z NIL=
METAR LRCV 110730Z 23010KT CAVOK 04/M00 Q1023=
METAR LRIA 110730Z 28004KT 240V320 CAVOK 05/M02 Q1020 1519//95=
METAR LRSV 110730Z 25004KT CAVOK 03/M02 Q1018=
METAR LRTC 110730Z VRB02KT 6000 NSC 04/02 Q1022=

0000057200
345
SAFR31 LFPW 110730
METAR LFLL 110730Z 20010KT 9999 FEW026 BKN200 10/06 Q1019 NOSIG=
METAR LFMN 110730Z 34010KT 9999 SCT043 BKN190 10/04 Q1021 NOSIG=
METAR COR LFPG 110730Z 15002KT 6000 FEW015 SCT036 BKN083 06/05
Q1016 TEMPO 4000 BR BKN002=
METAR LFPO 110730Z 19003KT 4000 BR FEW002 SCT052 BKN230 06/05
Q1017 TEMPO BKN003=
METAR LFQQ 110730Z 21006KT 4000 BR OVC003 05/04 Q1016 TEMPO 1200 DZ=
METAR LFRB 110730Z 01004KT 9999 BKN026 07/07 Q1019 NOSIG=
METAR LFRS 110730Z 32005KT 1200 R03///// R21///// BR OVC003 08/07
Q1018 TEMPO 0800 FG=

0000011600
346
SPSR31 WSAP 110730
SPECI WSAP 110730Z 05018KT 9999 VCSH 
FEW015 FEW016CB SCT018TCU 32/24 Q1008=

0000081600
347
SAFR32 LFPW 110730
METAR LFBD 110730Z AUTO VRB02KT 4400 BR OVC021 09/09 Q1018=
METAR LFBH 110730Z AUTO 33007KT 0900 R27///// FG VV/// 09/08 Q1018=
METAR LFBI 110730Z AUTO 19006KT 3700 BR OVC005 07/07 Q1018=
METAR LFBL 110730Z AUTO 19010KT 8000 OVC008 08/06 Q1018=
METAR LFBO 110730Z AUTO 12003KT 5000 BR OVC021 08/08 Q1019=
METAR LFBP 110730Z 11001KT 9000 MIFG FEW019 BKN035 08/07 Q1019
NOSIG=
METAR LFBT 110730Z AUTO 23002KT 7000 -RA FEW012 BKN027 OVC180
08/06 Q1019=
METAR LFBZ 110730Z 00000KT 9999 FEW016 BKN023 OVC040 11/09 Q1019
NOSIG=
METAR LFLB 110730Z 16002KT 5000 SCT023 BKN180 02/02 Q1020 TEMPO
4000 BR=
METAR LFLX 110730Z 23009KT 9999 OVC015 09/07 Q1017 BECMG OVC010=
METAR LFML 110730Z 10005KT 9999 FEW026 BKN033 12/08 Q1020 NOSIG=
METAR LFCK 110730Z NIL=

0000056000
348
SAFR33 LFPW 110730
METAR LFKB 110730Z 00000KT 9999 BKN033 BKN210 09/06 Q1021 NOSIG=
METAR LFKC 110730Z 19004KT 9999 FEW020 SCT170 BKN210 06/05 Q1020
NOSIG=
METAR LFKF 110730Z AUTO 06009KT 030V090 9999 FEW025/// OVC190///
13/09 Q1021=
METAR LFKJ 110730Z 05008KT CAVOK 06/05 Q1020 NOSIG=
METAR LFLC 110730Z VRB02KT CAVOK 07/03 Q1018 NOSIG=
METAR LFMP 110730Z 26004KT 9999 SCT033 BKN150 09/07 Q1020 NOSIG=
METAR LFMV 110730Z AUTO VRB01KT 9999 OVC046 10/06 Q1021=
METAR LFSL 110730Z AUTO VRB02KT 9999 FEW012 OVC020 07/05 Q1019=

0000104600
349
SAFR34 LFPW 110730
METAR LFCR 110730Z AUTO 12005KT 9999 NSC 04/03 Q1019=
METAR LFJL 110730Z AUTO 09002KT 4700 -DZ BR FEW037 OVC058 02/01
Q1017=
METAR LFLP 110730Z AUTO 00000KT 8000 BKN016 OVC190 01/01 Q1019=
METAR LFLS 110730Z AUTO 27006KT 230V300 9999 SCT021 OVC190 08/05
Q1019=
METAR LFLY 110730Z AUTO 20010KT 9999 NSC 10/05 Q1018=
METAR LFMT 110730Z 02004KT 8000 SCT020 BKN030 10/08 Q1020 NOSIG=
METAR LFMU 110730Z AUTO 02006KT 9999 OVC037 11/08 Q1020=
METAR LFOB 110730Z AUTO 14002KT 0350 0250 R30/1100D R12///// FG
VV/// 04/04 Q1017=
METAR LFOH 110730Z AUTO 23007KT 4300 BR OVC002 07/06 Q1017=
METAR LFOK 110730Z AUTO 11004KT 7000 NSC 03/03 Q1016=
METAR LFOP 110730Z AUTO 24005KT 0250 R22/0800N FG VV/// 05/05 Q1017=
METAR LFPB 110730Z AUTO 00000KT 6000 -RA FEW015 OVC100 05/05 Q1017=
METAR LFQA 110730Z AUTO VRB02KT 9000 -DZ BKN043/// OVC054///
///TCU 04/04 Q1016=
METAR LFQB 110730Z AUTO 00000KT 4300 BR ///TCU 04/03 Q1017=
METAR LFSN 110730Z AUTO 18001KT 4700 -DZ BR NSC 02/02 Q1017=

0000088400
350
SAFR35 LFPW 110730
METAR LFMI 110730Z AUTO 09005KT 9999 BKN027 BKN034 OVC040 11/08
Q1020=
METAR LFMK 110730Z AUTO VRB03KT 9999 OVC033 09/07 Q1020=
METAR LFOV 110730Z AUTO 34002KT 4100 BR OVC013 05/05 Q1018=
METAR LFRD 110730Z AUTO 23005KT 9999 NSC 05/05 Q1018=
METAR LFRI 110730Z AUTO 30007KT 3900 BR FEW003 OVC010 08/07 Q1018=
METAR LFRM 110730Z AUTO VRB02KT 3100 -RA BR FEW004 BKN060 BKN160
06/05 Q1018=
METAR LFRN 110730Z AUTO 30003KT 3400 BR OVC002 06/06 Q1018=
METAR LFRO 110730Z AUTO 34003KT 9999 FEW026 OVC034 08/08 Q1019=
METAR LFRV 110730Z AUTO 02003KT 0100 FG VV/// 05/05 Q1018=
METAR LFRZ 110730Z AUTO 30004KT 280V340 9999 NSC 07/06 Q1019=
METAR LFSB 110730Z 19004KT 160V230 9000 NSC 03/02 Q1017 NOSIG=
METAR LFST 110730Z AUTO 13002KT 4400 BR ///TCU 02/01 Q1017=
METAR LFTH 110730Z AUTO VRB03KT 9999 BKN027 OVC035 12/09 Q1021=

0000078600
351
SAFR36 LFPW 110730
METAR LFBA 110730Z AUTO 09004KT 5000 BR OVC018 08/07 Q1019=
METAR LFBE 110730Z AUTO 12003KT 050V170 5000 BR OVC020 08/07 Q1019=
METAR LFGJ 110730Z AUTO 10003KT 8000 NSC 03/02 Q1018=
METAR LFJR 110730Z AUTO VRB03KT 0200 R26/0800N FG VV/// 05/05 Q1018=
METAR LFMD 110730Z AUTO 02004KT 350V060 9999 BKN042 OVC190 10/07
Q1021=
METAR LFMH 110730Z 17009KT CAVOK 08/03 Q1018 NOSIG=
METAR LFOT 110730Z AUTO 00000KT 2000 BR BKN003 OVC074 06/05 Q1017=
METAR LFPN 110730Z VRB02KT 0500 R25/1100D FG NSC 05/05 Q1017 TEMPO
0300 FG VV///=
METAR LFRC 110730Z AUTO 30007KT 270V330 9999 BKN010 BKN016 OVC029
08/07 Q1017=
METAR LFRG 110730Z AUTO 26006KT 4900 BR OVC003 06/06 Q1017=
METAR LFRK 110730Z AUTO 25006KT 4600 BR OVC004 06/06 Q1018=

0000079900
352
SAFR37 LFPW 110730
METAR LFAQ 110730Z AUTO 20005KT 1400 R27///// BR OVC003 04/04 Q1016=
METAR LFAT 110730Z AUTO 22007KT 180V250 8000 BKN008 BKN054 OVC080
07/06 Q1016=
METAR LFBU 110730Z AUTO 16004KT 0750 R28/1900D FG VV/// 08/07 Q1018=
METAR LFLN 110730Z AUTO 13002KT 3700 BR NSC 03/02 Q1018=
METAR LFPM 110730Z AUTO 00000KT 3700 BR FEW040 05/05 Q1017=
METAR LFPT 110730Z AUTO 00000KT 0300 R05/1400D FG VV/// 05/04 Q1017=
METAR LFRH 110730Z AUTO 06001KT 0150 0100 R25/0550N R07/0500N FG
VV/// 05/05 Q1019=
METAR LFRQ 110730Z AUTO VRB02KT 6000 SCT008 BKN015 BKN022 07/07
Q1018=
METAR LFRT 110730Z AUTO 29009KT 9000 OVC006 07/06 Q1018=
METAR LFSD 110730Z AUTO 00000KT 9999 OVC004 04/03 Q1017=
METAR LFTW 110730Z AUTO 08002KT 9999 FEW018 OVC044 10/05 Q1020=

0000010600
353
SANO32 ENMI 110720 CCA
METAR COR ENTC 110720Z VRB02KT 9999 FEW011 M12/M14 Q1018 NOSIG =

0000059000
354
SASP31 LEMM 110730
METAR LEMD 110730Z VRB02KT CAVOK 06/05 Q1018 NOSIG=
METAR LEBL 110730Z 33008KT 6000 SCT025 10/06 Q1019 NOSIG=
METAR LEPA 110730Z VRB02KT 9999 3000E FEW003 08/08 Q1018 NOSIG=
METAR LEZL 110730Z VRB02KT CAVOK 09/09 Q1017 NOSIG=
METAR LEMG 110730Z 29004KT 7000 FEW025 10/09 Q1017 NOSIG=
METAR LEVC 110730Z VRB02KT 6000 BKN025 07/06 Q1018 NOSIG=
METAR LEAL 110730Z VRB02KT CAVOK 09/08 Q1018 NOSIG=
METAR LEIB 110730Z 00000KT 9999 FEW010 10/10 Q1017 NOSIG=
METAR COR LEVX 110730Z 23003KT 190V250 2500 BR FEW004 07/07 Q1016
TEMPO 0700 BCFG=

00000000