0000127800
875
FTUS80 KWBC 110530 RRJ
TAF
KTVC 110526Z 1106/1206 14006KT 6SM -RA BR SCT008 OVC025
      WS020/20030KT
      TEMPO 1106/1110 3SM -RA BR BKN008
     FM111000 22005KT 3SM -RASN BR OVC008
     FM111500 27008KT 4SM -SN BR OVC015=
KUIN 110527Z 1106/1206 27010KT 5SM BR OVC008
      TEMPO 1106/1108 2SM -RA OVC003
     FM111500 27012G18KT P6SM SCT020 BKN250
     FM120200 27008KT 6SM BR SCT250=
KVCT 110528Z 1106/1206 VRB06KT 2SM BR SCT003 BKN250
      TEMPO 1106/1108 1/4SM FG VV001
     FM110800 VRB05KT 3/4SM BR OVC003
      TEMPO 1108/1112 1/4SM FG VV001
     FM111300 33008KT 5SM BR SCT005
     FM111600 01010KT P6SM FEW250
     FM120100 07005KT P6SM SKC=
KYNG 110529Z 1106/1206 13010KT P6SM OVC060
     FM111000 17011KT P6SM OVC060
      TEMPO 1110/1112 -RA
     FM111200 22011KT 4SM -RA BR OVC003
     FM112100 23015G25KT P6SM OVC007=
KZZV 110527Z 1106/1206 13006KT P6SM BKN025 OVC035 WS020/22045KT
     FM110900 18010KT 4SM -RA OVC009 WS020/22050KT
     FM111700 23012G24KT P6SM BKN015=
TAF NSTU 110525Z 1106/1206 36012G18KT P6SM VCSH SCT014 BKN040
      OVC100=
TAF PHJR 110525Z 1106/1206 VRB03KT P6SM FEW030 FEW050
     FM112100 14007KT P6SM SCT025 SCT050
     FM120500 VRB04KT P6SM SCT025 BKN050=

0000147700
876
FTUS80 KWBC 110530 RRI
TAF
KSDY 110528Z 1106/1206 30010KT P6SM SCT100 BKN200
     FM111700 19008KT P6SM VCSH BKN040
     FM112200 23015KT P6SM BKN040
     FM120300 25015KT P6SM BKN100 AMD LTD TO CLD VIS AND WIND=
KSHR 110527Z 1106/1206 32015KT P6SM SCT080 OVC100
     FM110800 30010KT P6SM BKN100
     FM111200 25006KT P6SM BKN100
     FM111800 25018G30KT P6SM SCT100=
KSSF 110529Z 1106/1206 00000KT P6SM SKC
      TEMPO 1106/1108 3SM BR BKN010
     FM110900 30004KT P6SM SKC
     FM111500 35007KT P6SM SKC
     FM112100 03005KT P6SM SKC
     FM120300 10004KT P6SM SKC=
KSTL 110527Z 1106/1212 20011KT 4SM BR OVC007
     FM110800 26012KT 5SM BR OVC012
     FM111600 27012G20KT P6SM SCT020 BKN250
     FM120600 23007KT 6SM BR SCT250=
KSUS 110527Z 1106/1206 18009KT 4SM BR OVC007
     FM110800 25011KT 5SM BR OVC012
     FM111600 27012G20KT P6SM SCT020 BKN250
     FM120400 23006KT 5SM BR SCT250=
KTMB 110527Z 1106/1206 12003KT P6SM FEW015 SCT200
     FM111500 16013G19KT P6SM SCT025 BKN250
     FM111900 19013G19KT P6SM SCT035 BKN050=
KTOL 110529Z 1106/1206 18009KT P6SM -RA OVC004
     FM111100 23009KT 2SM -RA BR OVC003
     FM111700 24011KT 4SM BR OVC007
     FM111900 24010G20KT 4SM BR OVC007
     FM120000 26012KT P6SM OVC015=
KTOP 110529Z 1106/1206 27007KT 5SM BR BKN008 OVC080
     FM110700 28006KT 5SM BR SCT008 BKN080
     FM111000 29010KT P6SM FEW100
     FM112300 25004KT P6SM SKC=

0000011600
877
SPUS43 KWBC 110530
SPECI
KOMA 110526Z 31003KT 1 3/4SM R14R/5000VP6000FT BR CLR M03/M05
A2961=

0000009500
878
SAPF20 NTAA 110530
METAR NTAA 110530Z VRB02KT 9999 FEW020 27/22 Q1012 NOSIG=

0000083800
879
SAUR30 UKMS 110530
METAR UKBB 110530Z 28007MPS 9999 -SHRA BKN026 BKN040
         05/01 Q1006    88290060 TEMPO 27011G16MPS
         -SHRA SCT015CB=
METAR UKHH 110530Z 27008MPS 9999 OVC018 04/01 Q1002
         25290050  TEMPO 28011G17MPS=
METAR UKOO 110530Z 26004MPS CAVOK 00/M03 Q1018
         34190058 NOSIG=
METAR UKDE 110530Z 28007MPS CAVOK 03/01 Q1009
         20290356 NOSIG=
METAR UKDD 110530Z 28009MPS 260V320 CAVOK 03/01 Q1008
          26220356 TEMPO 29010G17MPS=
METAR UKFF 110530Z 23004MPS CAVOK 01/M00 Q1018
         19010070 NOSIG=
METAR UKLL 110530Z 26006MPS 9999 BKN046 04/M03 Q1015
         31CLRD80 NOSIG=
METAR UKCC 110530Z 27010MPS 9999 OVC009 03/02 Q1007
         26290055 TEMPO 28012G17MPS=
METAR UKDR 110530Z 26008MPS CAVOK 02/M00 Q1011
         1819//60 NOSIG=

0000011000
880
SAAJ31 UBBB 110530
METAR UBBG 110530Z 27005KT 9999 FEW100 01/M05 Q1017
R30/CLRD70 NOSIG =

0000009800
881
SAFG20 SOCA 110530
METAR SOCA 110530Z AUTO VRB02KT 6000 -RA OVC006 22/21 Q1011=

0000157700
882
FTER32 OMAE 110500
TAF OMAA 110500Z 1106/1212 17008KT CAVOK BECMG 1110/1112 32010KT
BECMG 1117/1119 05006KT BECMG 1202/1204 23006KT BECMG 1206/1208
31014KT=
TAF OMAD 110500Z 1106/1212 17006KT CAVOK BECMG 1110/1112 32008KT
BECMG 1117/1119 05006KT BECMG 1202/1204 22006KT BECMG 1206/1208
31014KT=
TAF OMAL 110500Z 1106/1212 17010KT CAVOK BECMG 1111/1113 34006KT
BECMG 1116/1118 09008KT BECMG 1123/1201 16007KT BECMG 1207/1209
29011KT=
TAF OMDB 110500Z 1106/1212 08008KT 9999 FEW035 BECMG 1106/1108
17010KT BECMG 1109/1111 33010KT PROB30 TEMPO 1109/1124 VRB15G30KT
3000 SHRA SCT030TCU BECMG 1115/1117 11005KT PROB30 TEMPO 1200/1212
VRB20G40KT 1500 TSRA SCT030CB BECMG 1206/1208 29012KT=
TAF OMDW 110500Z 1106/1212 06008KT 9999 FEW035 BECMG 1106/1108
18010KT BECMG 1109/1111 36010KT PROB30 TEMPO 1109/1124 VRB15G30KT
3000 SHRA SCT030TCU BECMG 1115/1117 06005KT PROB30 TEMPO 1200/1212
VRB20G40KT 1500 TSRA SCT030CB BECMG 1206/1208 28013KT=
TAF OMFJ 110446Z 1106/1212 11010KT 9999 SCT020 TEMPO 1110/1206 5000
SHRA FEW025TCU BKN030 BECMG 1114/1116 VRB05KT BECMG 1205/1207
12010KT=
TAF OMRK 110500Z 1106/1212 12008KT 9999 FEW035 PROB30 TEMPO
1109/1124 VRB15G30KT 3000 SHRA SCT030TCU PROB30 1110/1114 36010KT
PROB30 TEMPO 1200/1212 VRB20G40KT 1500 TSRA SCT030CB BECMG 1206/1208
28010KT=
TAF OMSJ 110500Z 1106/1212 14008KT 9999 FEW035 BECMG 1109/1111
33010KT PROB30 TEMPO 1109/1124 VRB15G30KT 3000 SHRA SCT030TCU BECMG
1114/1116 12005KT PROB30 TEMPO 1200/1212 VRB20G40KT 1500 TSRA
SCT030CB BECMG 1206/1208 28012KT=

0000024600
883
SAGG31 UGTB 110530
METAR UGTB 110530Z 29013KT CAVOK M00/M05 Q1019 R31L/CLRD80 NOSIG=
METAR UGSB 110530Z 14015KT CAVOK 07/M03 Q1021 R13/CLRD70 NOSIG=
METAR UGKO 110530Z 23004KT 200V260 CAVOK 01/M04 Q1019 R07/09//70
 NOSIG=

0000010000
884
SAPK31 OPKC 110530 RRA
METAR OPKC 110525Z 36005KT 7000 SCT200 18/M05 Q1023 NOSIG=

0000017600
885
SAUR30 UKMS 110530 CCA
METAR COR UKBB 110530Z 28007MPS 9999 -RA BKN026
         BKN040 05/01 Q1006    88290060 TEMPO 27011G16MPS
         -SHRA SCT015CB=

0000009100
886
SPUS42 KWBC 110531
SPECI
KFPR 110527Z 00000KT 10SM SCT015 22/21 A3010=

0000009300
887
SPUS42 KWBC 110531
SPECI
KHRL 110527Z 20008KT 5SM BR SCT003 18/17 A2990=

0000010400
888
SPUS43 KWBC 110531
SPECI
KSTP 110527Z AUTO 00000KT 2 1/2SM BR OVC004 M02/M02 A2950=

0000012000
889
SPCN31 CWAO 110529
SPECI CYYZ 110529Z 08004KT 5SM -RA BR OVC050 02/01 A2982 RMK SC8
 PRESFR SLP104=

0000009100
890
SPCN46 CWAO 110530
SPECI CYKZ 110530Z 09006KT 4SM -RA BR OVC051 RMK SC8=

0000009500
891
SATU32 LTAA 110520 RRA
METAR LTAT 110520Z VRB02KT CAVOK M08/M09 Q1022 NOSIG=

0000045600
892
SAHU41 LHBM 110530
METAR LHDC 110515Z 19007KT CAVOK M00/M02 Q1021=
METAR LHKE 110515Z 25001MPS 8000 OVC045 01/M00 Q1022 NOSIG RMK BLU=
METAR LHPA 110515Z 05002MPS 9999 BKN033 04/03 Q1020 NOSIG RMK BLU=
METAR LHPP 110515Z 10004KT 9999 BKN040 04/03 Q1021=
METAR LHSM 110515Z 00000KT 0900 FG OVC003 04/04 Q1021=
METAR LHSN 110515Z 22003MPS CAVOK 02/M00 Q1021 NOSIG RMK BLU=
METAR LHUD 110515Z 20004KT 4500 BR BKN050 02/01 Q1022=

0000032400
893
SAMC31 GMMC 110530
METAR GMME 110530Z 15003KT 090V190 5000 SCT020 BKN100 12/10 Q1015
NOSIG=
METAR GMMN 110530Z 20005KT 9999 SCT016 BKN100 11/08 Q1017 NOSIG=
METAR GMTT 110530Z 10007KT 6000 SCT016 BKN100 13/11 Q1016 NOSIG=
METAR GMAD 110530Z NIL=
METAR GMFF 110530Z NIL=
METAR GMMX 110530Z NIL=

0000017300
894
FTAE31 VTBB 110500 RRB
TAF VTBU 110500Z 1106/1206 26006KT 8000 FEW025 SCT300
    BECMG 1110/1112 00000KT 5000 BR NSC
    BECMG 1115/1117 03003KT 2000=

00000000