0000004100
875
SNNG21 AMMC 111700
NIL

0000004100
876
SNNG22 AMMC 111700
NIL

0000030100
877
SNVE21 AMMC 111700
BBXX
VNSZ 11174 99383 31448 46/// /2321 10161 20124 30176 40202 52014
22223 04188 85139=
C6FS9 11174 99241 31528 46/// /1314 10247 20192 30099 40135 57016
22233 04271 85210=
VNAH 11174 99383 31416 46/// /1708 10154 20112 30188 40212 57011
22200 85129=

0000004100
878
SNPS02 AMMC 111700
NIL

0000027300
879
SATH41 VTBB 110600
METAR VTPB 110600Z NIL=
METAR VTPM 110600Z VRB03KT 8000 FEW035 29/17 Q1015 A2997
RMK/RWY27 INFO G=
METAR VTSE 110600Z 05014KT 6000 FEW024 BKN300 30/23
Q1013 A2993 RMK /RWY 06=
METAR VTSK 110600Z NIL=
METAR VTUJ 110600Z NIL=

0000015500
880
SAUK37 EGGY 110550 RRA
METAR EGAE 110550Z 21009KT 9999 SCT043 03/01 Q1013=
METAR EGPI 110550Z AUTO 29009KT 9999 FEW045/// 05/01 Q1011=

0000010000
881
SAUK38 EGGY 110550 RRA
METAR EGPU 110550Z AUTO 27010KT 9999 NCD 03/01 Q1009 RERA=

0000053400
882
SAAE33 VTBB 110600
METAR VVTS 110600Z 04004KT 340V100 4000 HZ FEW017 SCT040 31/20
      Q1011            NOSIG =
METAR VVNB 110600Z 28006KT 2600 BR FEW010 BKN050 17/12 Q1021 NOSIG=
METAR VVDN 110600Z 06008KT 8000 FEW015 BKN060 24/19 Q1018 NOSIG=
METAR VVPB 110600Z 01004KT 6000 FEW013 BKN060 24/20 Q1018 NOSIG=
METAR VVCR 110600Z 03014KT 8000 FEW020 BKN100 27/20 Q1015 NOSIG=
METAR VVCT 110600Z 02004KT 340V080 9999 FEW015 30/20 Q1012 NOSIG=
METAR VVPQ 110600Z 04007KT 310V050 CAVOK 30/19 Q1012 NOSIG=

0000026200
883
FTFR38 LFPW 110500 AAB
TAF AMD LFRN 110608Z 1106/1206 VRB03KT 0400 FG VV/// TEMPO 1106/1109
0100 FG VV/// BECMG 1109/1112 5000 BKN005 BECMG 1112/1115 9999 NSW
BKN008 TEMPO 1115/1121 BKN013 BECMG 1119/1121 11010KT TEMPO 1200/1206
 BKN004=

0000010000
884
SAGR33 LGAT 110550 RRA
METAR LGMK 110550Z 05004KT 9999 FEW008 BKN180 12/11 Q1021=

0000009700
885
SPCN51 CWAO 110605
SPECI CZCP 110605Z AUTO 28023KT 2 3/4SM -SN CLR M33/ A2943=

0000028900
886
SAAO32 GOOY 110600
METAR GABS 110600Z 02004KT CAVOK 19/08 Q1013 NOSIG=
METAR GAGO 110600Z NIL=
METAR GAKY 110600Z 28004KT CAVOK 22/09 Q1012=
METAR GAKL 110600Z NIL=
METAR GAMB 110600Z 06006KT CAVOK 18/05 Q1013=
METAR GANR 110600Z NIL=
METAR GATB 110600Z NIL=

0000024700
887
SAAO31 GOOY 110600
METAR FHAW 110550Z 13012KT 9999 FEW018 23/19 Q1012 BLU=
METAR GGOV 110600Z NIL=
METAR DIAP 110600Z 04003KT 9999 SCT013 OVC150 25/25 Q1010 TEMPO
BKN011=
METAR DIBK 110600Z NIL=
METAR DIYO 110600Z NIL=

0000025200
888
SAAO30 GOOY 110600
METAR GOOY 110600Z 02009KT 9999  FEW010 19/15 Q1013 NOSIG=
METAR GOGS 110600Z NIL=
METAR GOOK 110600Z NIL=
METAR GOSS 110600Z NIL=
METAR GOTK 110600Z NIL=
METAR GOTT 110600Z NIL=
METAR GOGG 110600Z NIL=

0000013300
889
FCOS43 LOWM 110500 RRA
TAF LOXZ 110615Z 1106/1115 VRB03KT 9999 SCT080 BKN300
TEMPO 1106/1108 1200 FZBCFG SCT002=

0000009400
890
SPUS31 KWBC 110608
SPECI
KBNA 110604Z 19016G23KT 10SM OVC013 14/12 A2970=

0000011300
891
SPUS31 KWBC 110608
SPECI
KMEM 110604Z 25013G20KT 4SM RA BR SCT006 BKN016 OVC028 14/13 A2969=

0000010600
892
SPUS43 KWBC 110608
SPECI
KPTK 110604Z AUTO 16007KT 1 1/4SM -RA BR OVC002 03/02 A2959=

0000049700
893
SAJP31 KWBC 110600 RRA
METAR
RJAA 110600Z 28004KT 230V010 9999 FEW030 08/M11 Q1022 NOSIG RMK
     1CU030 A3019=
RJCC 110600Z 32012KT 9999 -SHSN FEW015 SCT040 M05/M14 Q1018 RMK
     1CU015 3CU040 A3006=
RJFK 110600Z 35003KT 270V060 9999 FEW030 SCT040 BKN050 09/M03
     Q1026 RMK 1CU030 3CU040 5SC050 A3031=
RJOO 110600Z 28006KT 210V340 9999 FEW030 08/M06 Q1026 RMK 1CU030
     A3032=
RJTT 110600Z 11006KT 9999 FEW025 07/M06 Q1022 NOSIG RMK 1CU025
     A3019=

0000015300
894
SAJP41 KWBC 110600 RRA
METAR
RJAW 110600Z 05013KT 9999 SCT030 SCT080 19/07 Q1021 RMK 3CU030
     4AC080 A3017=
RJCM 110600Z NIL=

00000000