0000070900
015
SASN33 ESWI 110920
METAR ESNG 110920Z AUTO 22003KT 200V360 9999 NCD M25/M27 Q1013=
METAR ESNK 110920Z AUTO 34014KT 5000 IC FEW028/// M10/M13 Q1006
RESG=
METAR ESNN 110920Z AUTO 32009KT 7000NDV -SN FEW021/// SCT028///
M10/M12 Q1005 R16/49/79=
METAR ESNO 110920Z AUTO 35011KT 320V020 2200 -SN ///037 M12/M14
Q1005=
METAR ESNQ 110920Z AUTO 00000KT 1100NDV R03/P1500U R21/P1500D -SN
NCD M25/M27 Q1013 RESG=
METAR ESNS 110920Z 36012KT 1500 SN VV008 M14/M16 Q1008=
METAR ESNU 110920Z 35013KT 1500 -SN BR VV015 M12/M14 Q1005
R14/49//50=
METAR ESNZ 110920Z 03003KT 9999 -SN OVC053 M15/M16 Q1004 RESG=
METAR ESUT 110920Z AUTO VRB05KT 110V320 9999 FEW110/// M12/M22
Q1006=

0000053300
016
SASN34 ESWI 110920
METAR ESCF 110920Z AUTO 01004KT 340V040 4200NDV RA SCT002/// 
BKN006/// OVC009/// 03/02 Q0999=
METAR COR ESDF 110920Z 23008KT 190V260 9999 BKN009 05/04 Q1004=
METAR ESIB 110920Z AUTO 23009KT 9999NDV SCT016/// OVC022/// 05/04 
Q0999=
METAR ESMV 110920Z NIL=
METAR ESPA 110920Z 02008KT CAVOK M16/M20 Q1012=
METAR ESPE 110920Z AUTO 36008KT 330V030 9999NDV NCD M17/M21 Q1012=
METAR ESSL 110920Z AUTO 05003KT 360V090 5000NDV +RA FEW005///
BKN006/// OVC009/// 02/02 Q0999 R29/19//95=

0000039300
017
SASN35 ESWI 110920
METAR ESGR 110920Z NIL=
METAR ESKM 110920Z NIL=
METAR ESNL 110920Z AUTO 35009KT 3200NDV -SN FEW031/// M15/M17
Q1008=
METAR ESNX 110920Z AUTO 01008KT 9999NDV NCD M18/M21 Q1009=
METAR ESNY 110920Z NIL=
METAR ESSF 110920Z NIL=
METAR ESSK 110920Z NIL=
METAR ESUD 110920Z AUTO 36004KT 9999 SG SCT034/// BKN048///
OVC070/// M15/M18 Q1008 RESG=

0000015100
018
FCNO33 ENMI 110800 AAA
TAF AMD ENKR 110923Z 1109/1116 17008KT 9999 -SN FEW002 BKN020 TEMPO
             1109/1116 4000 -SN BKN005=

0000009300
019
SADN34 EKCH 110920 RRA
METAR EKGF 110920Z 36020KT 9999 SCT024 07/01 Q1007=

0000054200
020
SAFI32 EFHK 110920
METAR EFHA 110920Z AUTO 03008KT 9999 -SN FEW012 
OVC031 M08/M09 Q0999=
EFHF 110920Z 33005KT 300V020 9999 BKN009 M04/M05 Q1000=
METAR EFKA 110920Z AUTO 05012KT 9999 -SN OVC022 
M10/M12 Q1003=
EFKK 110920Z AUTO 05010KT 020V090 9999 -SN FEW019 BKN037 M12/M14
Q1005=
EFMA 110920Z AUTO 32004KT 9999 OVC033 M01/M02 Q1000=
METAR EFPO 110920Z AUTO VRB01KT 1200 R12/1600N SN FEW006/// SCT010///
OVC014/// M04/M05 Q1000=
EFSI 110920Z AUTO 05007KT 020V090 9999 -SN FEW019 OVC023 M09/M11
Q1001=

0000010300
021
SAUK36 EGGY 110920 CCA
METAR COR EGSH 110920Z 29010KT 9999 FEW022 06/04 Q1015 NOSIG=

0000083900
022
FTBZ42 KWBC 110924
TAF
TAF SBLO 110930Z 1112/1124 15005KT 9999 FEW035 TN26/1112Z
      TX32/1118Z PROB40
      TEMPO 1118/1123 16015KT 8000 TSRA BKN025 FEW035CB RMK PCD=
TAF SBPK 110930Z 1112/1212 22006KT 9999 FEW030 TX28/1118Z
      TN19/1209Z
      BECMG 1114/1116 SCT025
      TEMPO 1116/1124 35015KT 4000 TSRA BKN020 FEW040CB P ROB40
      1208/1211 3000 BR BKN008 BKN015 RMK PCD=
TAF SBPP 110930Z 1112/1212 35006KT 9999 FEW025 TX32/1118Z
      TN22/1209Z
      TEMPO 1118/1123 6000 TSRA BKN020 FEW040CB PROB40 1206/1211
      3000 BR BKN005 RMK PCD=
TAF SBUG 110930Z 1112/1212 23008KT 9999 BKN015 TX26/1118Z
      TN18/1209Z
      TEMPO 1112/1114 20015KT 3000 TSRA BKN006 BKN012 FEW030CB
      TEMPO 1114/1122 4 000 TSRA BKN010 BKN015 FEW030CB
      BECMG 1122/1124 SCT030 RMK PCD=

0000058900
023
FTUS51 KWBC 110924 AAA
TAF AMD
KEWN 110921Z 1109/1206 18010KT 5SM BR SCT008 OVC020
     FM111400 19014G23KT P6SM VCSH SCT025 BKN035
     FM112100 20016G25KT 3SM -RA VCTS BKN020CB
     FM120300 25010G15KT 5SM BR VCSH SCT015 BKN035=
KGMU 110921Z 1109/1206 VRB04KT 3SM SHRA BR VCTS OVC004CB
      TEMPO 1109/1111 2SM +TSRA OVC006CB
     FM111100 18008KT 1SM SHRA BR OVC002 WS020/21035KT
     FM111500 20012G18KT 2SM SHRA BR VCTS OVC004CB
     FM111900 22013G22KT 4SM -SHRA OVC020
     FM112000 24010G17KT P6SM BKN040
     FM112300 26010KT P6SM SCT050=

0000038600
024
FTUS52 KWBC 110924 AAA
TAF AMD
KLVS 110920Z 1109/1206 30015KT P6SM SKC
     FM111200 27008KT P6SM SKC
     FM111900 20011G21KT P6SM FEW200
     FM120100 24010KT P6SM SCT200=
KMLU 110921Z 1109/1206 28007KT P6SM SCT025 BKN090
      TEMPO 1109/1111 BKN025
     FM111100 26005KT P6SM SKC
     FM111800 28014G22KT P6SM SKC
     FM120100 28006KT P6SM SKC=

0000150600
025
FTUS80 KWBC 110924 AAA
TAF AMD
KEWN 110921Z 1109/1206 18010KT 5SM BR SCT008 OVC020
     FM111400 19014G23KT P6SM VCSH SCT025 BKN035
     FM112100 20016G25KT 3SM -RA VCTS BKN020CB
     FM120300 25010G15KT 5SM BR VCSH SCT015 BKN035=
KGMU 110921Z 1109/1206 VRB04KT 3SM SHRA BR VCTS OVC004CB
      TEMPO 1109/1111 2SM +TSRA OVC006CB
     FM111100 18008KT 1SM SHRA BR OVC002 WS020/21035KT
     FM111500 20012G18KT 2SM SHRA BR VCTS OVC004CB
     FM111900 22013G22KT 4SM -SHRA OVC020
     FM112000 24010G17KT P6SM BKN040
     FM112300 26010KT P6SM SCT050=
KGSP 110922Z 1109/1206 05005KT 2SM -SHRA BR VCTS OVC005CB
      TEMPO 1109/1111 1SM +TSRA BR OVC004CB
     FM111100 18007KT 1SM SHRA BR OVC003 WS020/21035KT
     FM111500 20012G19KT 2SM SHRA BR VCTS OVC004CB
     FM111900 22013G22KT 4SM -SHRA BR OVC020
     FM112100 24010KT P6SM BKN040
     FM112300 26010KT P6SM SCT050=
KLVS 110920Z 1109/1206 30015KT P6SM SKC
     FM111200 27008KT P6SM SKC
     FM111900 20011G21KT P6SM FEW200
     FM120100 24010KT P6SM SCT200=
KMLU 110921Z 1109/1206 28007KT P6SM SCT025 BKN090
      TEMPO 1109/1111 BKN025
     FM111100 26005KT P6SM SKC
     FM111800 28014G22KT P6SM SKC
     FM120100 28006KT P6SM SKC=
KOAJ 110921Z 1109/1206 18010KT 5SM BR SCT007 OVC020
     FM111300 19015G25KT P6SM VCSH SCT020 BKN035
     FM112100 20016G25KT 3SM -RA VCTS BKN020CB
     FM120300 24010G15KT 5SM BR VCSH SCT015 BKN035 AMD LTD TO CLD
      VIS AND WIND=

0000246400
026
SPUS70 KWBC 110924
SPECI
KARA 110920Z AUTO 23008KT 10SM VCTS BKN010 OVC019 19/18 A2987 RMK
     AO2 LTG DSNT NE AND E RAE13 P0010 $=
KAVL 110920Z AUTO 17004KT 1 1/2SM R34/3500VP6000FT +RA BR SCT003
     OVC009 07/07 A2993 RMK AO2 LTG DSNT E AND SE P0004=
KCLM 110920Z AUTO 10004KT 2 1/2SM RA BR FEW003 OVC044 07/06 A2931
     RMK AO2 P0010 T00720061=
KDAN 110920Z AUTO 00000KT 2 1/2SM BR OVC003 04/03 A2996 RMK AO2
     RAB0857E12 P0001=
KDFI 110920Z AUTO 20004KT 1/2SM FG OVC004 04/04 A2954 RMK AO2=
KMCB 110920Z AUTO 25009KT 1 3/4SM VCTS +RA BR BKN007 OVC012 19/19
     A2982 RMK AO2 VIS 1 1/4V2 1/2 LTG DSNT E AND S TSB0854E09
     P0019 T01940189=
KMCW 110920Z AUTO 29012KT 2 1/2SM BR OVC002 M02/M02 A2951 RMK AO2
     T10171022 TSNO=
KMSS 110920Z AUTO 06008KT 2 1/2SM -FZRA BR BKN018 OVC036 M02/M04
     A2986 RMK AO2 PRESFR P0000=
KMTW 110920Z AUTO 26004KT 1SM BR OVC010 02/01 A2937 RMK AO2 VIS
     1/2V2 1/2 FZRANO=
KPHF 110920Z 17006KT 10SM SCT005 BKN012 OVC017 18/16 A3000 RMK AO2
     RAE17 P0000 $=
KSSI 110920Z AUTO 16007KT 1/4SM FG VV002 13/13 A3002 RMK AO2
     T01330133=
KTAN 110920Z AUTO 00000KT 1 1/2SM BR FEW043 OVC050 05/04 A3014 RMK
     AO2 T00500039=
PAGN 110920Z AUTO 00000KT 1 1/4SM BR OVC005 01/01 A2913 RMK AO2
     TSNO $=
PAGN 110920Z AUTO 00000KT 1 1/4SM BR OVC005 01/01 A2913 RMK AO2
     TSNO $=
K1M4 110921Z AUTO 22011KT 2 1/2SM +RA BR SCT001 BKN018 OVC029
     14/14 A2974 RMK AO2 CIG 014V026 LTG DSNT E-S TSE09 P0009=
KASH 110921Z AUTO 00000KT 1 1/4SM -FZRA BR BKN002 00/00 A3014 RMK
     AO2 P0000=
KBFD 110921Z AUTO 16010G17KT 7SM OVC003 04/04 A2974 RMK AO2
     T00440039 TSNO $=
KCRE 110921Z AUTO 20013KT 3SM -RA BR SCT003 BKN016 OVC037 18/17
     A3000 RMK AO2 RAB11 P0000=
KDET 110921Z AUTO 21011KT 2 1/2SM -RA BR OVC005 07/05 A2953 RMK
     AO2 RAB10 P0000=
KECG 110921Z AUTO 19005KT 10SM SCT008 OVC022 18/17 A3003 RMK AO2
     T01780172 TSNO=
KHGR 110921Z AUTO 34005KT 1/4SM FG VV002 01/00 A2993 RMK AO2
     T00060000=
KHZY 110921Z AUTO 18012KT 10SM BKN027 BKN039 OVC110 08/05 A2964
     RMK AO2 TSNO=
KMQY 110921Z AUTO 34004KT 1 3/4SM +RA BR FEW001 SCT008 BKN014
     13/13 A2969 RMK AO2 TSNO BKN V SCT P0009=
KSET 110921Z AUTO 28008KT 6SM BR BKN011 BKN018 OVC027 04/03 A2957
     RMK AO2 T00440033 TSNO=
PATO 110921Z AUTO 27008KT 10SM SCT011 BKN018 OVC023 M03/M04 A2928
     RMK AO2 T10281039 TSNO=

0000010500
027
SPUS31 KWBC 110924
SPECI
KPHF 110920Z 17006KT 10SM SCT005 BKN012 OVC017 18/16 A3000=

0000011900
028
SPUS41 KWBC 110924
SPECI
KMSS 110920Z AUTO 06008KT 2 1/2SM -FZRA BR BKN018 OVC036 M02/M04
A2986=

0000009900
029
SPUS42 KWBC 110924
SPECI
KSSI 110920Z AUTO 16007KT 1/4SM FG VV002 13/13 A3002=

0000011200
030
SPUS44 KWBC 110924
SPECI
KCLM 110920Z AUTO 10004KT 2 1/2SM RA BR FEW003 OVC044 07/06 A2931=

0000009600
031
SAUK38 EGGY 110920 RRA
METAR EGPU 110920Z 28014KT 9999 FEW020CB 05/M00 Q1012=

0000048100
032
SABX31 EBBR 110920
METAR COR EBAW 110920Z 22008KT 6000 BKN007 05/03 Q1016 BECMG SCT007=
METAR EBBR 110920Z 23010KT 9999 BKN008 05/03 Q1016 NOSIG=
METAR EBCI 110920Z 23010KT 9999 SCT010 SCT022 06/04 Q1017 TEMPO
     BKN010=
METAR EBLG 110920Z 21011KT 9999 SCT040 06/04 Q1016 TEMPO BKN012=
METAR COR EBOS 110920Z 21010KT 6000 SCT008 BKN035 05/04 Q1015 TEMPO
     4000 -RA BR BKN008=
METAR ELLX 110920Z VRB03KT 3000 BR SCT046 BKN060 03/02 Q1016 NOSIG=

0000057900
033
SAOS31 LOWM 110920
METAR LOWW 110920Z 21003KT 160V230 9999 FEW035 SCT140 BKN280 03/00
Q1020 NOSIG=
METAR LOWL 110920Z VRB01KT 9999 FEW002 BKN250 01/M00 Q1019 NOSIG=
METAR LOWS 110920Z 15004KT 080V170 9999 SCT100 BKN300 04/02 Q1018
NOSIG=
METAR LOWI 110920Z 25004KT 220V280 1000 R26/1100N R08/0900V1500D BR
SCT002 BKN004 02/02 Q1020 R08/19//71 BECMG SCT003 SCT007=
METAR LOWG 110920Z VRB02KT 9999 4000S SCT008 BKN090 04/02 Q1020
R17/19//95 TEMPO BKN009=
METAR LOWK 110920Z 34003KT 290V020 5000 BR SCT003 OVC005 02/01 Q1022
R10L/19//95 NOSIG=

0000011800
034
SAOS32 LOWM 110920
METAR LOXZ 110920Z VRB01KT 30KM FEW002ST BKN160AC M00/M01 Q1020 NOSIG
RMK BKN=

00000000