0000029500
795
FTUS53 KWBC 110524 RRB
TAF
KSDF 110521Z 1106/1212 20015G27KT 4SM -SHRA BR VCTS BKN021CB
      OVC035
      TEMPO 1106/1110 3SM SHRA BR BKN012 OVC035
     FM111000 21012G22KT 6SM BR VCSH BKN012
     FM111400 26016G27KT P6SM BKN021
     FM112300 27011KT P6SM SCT010=

0000128200
796
FTUS53 KWBC 110524 RRA
TAF
KEVV 110520Z 1106/1206 17010KT 6SM -RA BR OVC060
      TEMPO 1106/1110 4SM -RA BR OVC025
     FM111000 24010KT P6SM BKN020
     FM112100 26010KT P6SM SKC=
KGCK 110520Z 1106/1206 29009KT P6SM SKC
     FM111600 26014G24KT P6SM SCT250=
KGJT 110523Z 1106/1206 00000KT P6SM SCT080 BKN200
     FM111900 VRB03KT P6SM FEW080 SCT200
     FM120000 07006KT P6SM SCT120 BKN200=
KLBF 110523Z 1106/1206 30011KT P6SM BKN090
     FM111300 29011KT P6SM SCT250
     FM120000 18007KT P6SM SKC=
KMSN 110522Z 1106/1206 21005KT 2SM -DZ BR OVC003
      TEMPO 1106/1109 3/4SM -DZ BR OVC002
     FM110900 26006KT 2SM -DZ BR OVC004
     FM111100 28006KT 3SM -SN OVC006
     FM111600 30009G18KT P6SM OVC012
     FM112200 29010G20KT P6SM OVC025
     FM120300 28005KT P6SM SCT030=
KMTJ 110523Z 1106/1206 00000KT P6SM OVC070
     FM111400 VRB03KT P6SM SCT070
     FM111900 VRB03KT P6SM FEW070 SCT200
     FM120000 14004KT P6SM BKN200=
KOFK 110520Z 1106/1206 29008KT P6SM BKN100
     FM111300 30013KT P6SM BKN150
     FM112200 24007KT P6SM BKN150=
KPAH 110520Z 1106/1206 16010KT P6SM -RA OVC070
      TEMPO 1107/1110 3SM -RA BR OVC015
     FM111000 26010KT P6SM SCT020 BKN150
     FM112100 26008KT P6SM SKC=

0000143300
797
FTUS80 KWBC 110524 RRA
TAF
KBWG 110521Z 1106/1206 18015G24KT 5SM -SHRA BR VCTS BKN021CB
      BKN040
      TEMPO 1106/1110 21015G27KT 3SM SHRA BR BKN012CB BKN040
     FM111000 22012G20KT P6SM VCSH BKN007 BKN030
     FM111400 26012G23KT P6SM SCT015 BKN026
     FM112300 28008KT P6SM FEW010 SCT080=
KCGI 110520Z 1106/1206 16012KT P6SM -RA SCT015 OVC060
      TEMPO 1106/1108 3SM RA BR OVC015
     FM110800 23010KT P6SM SCT025 BKN150
     FM111300 27010KT P6SM SCT020 BKN150
     FM112100 26008KT P6SM SKC=
KCLL 110522Z 1106/1206 24006KT P6SM SCT025
     FM111200 33009KT P6SM SKC
     FM120000 VRB02KT P6SM SKC=
KCNY 110523Z 1106/1206 00000KT P6SM FEW080 SCT200
     FM112100 33004KT P6SM FEW070 SCT200
     FM120000 VRB02KT P6SM SCT100 BKN200=
KDDC 110520Z 1106/1206 27007KT P6SM SKC
     FM111600 26014G24KT P6SM SCT250=
KDRO 110523Z 1106/1206 33004KT P6SM BKN200
     FM111300 03005KT P6SM FEW070 SCT200
     FM112100 16004KT P6SM SCT250
     FM120000 02003KT P6SM SCT200=
KEGE 110523Z 1106/1206 24011KT P6SM VCSH OVC060
     FM111200 VRB03KT P6SM VCFG SCT015 BKN050
     FM111800 23005KT P6SM SCT060 SCT200
     FM120000 VRB03KT P6SM SCT100 BKN200 AMD LTD TO CLD VIS AND
      WIND TIL 111400=
KEVV 110520Z 1106/1206 17010KT 6SM -RA BR OVC060
      TEMPO 1106/1110 4SM -RA BR OVC025
     FM111000 24010KT P6SM BKN020
     FM112100 26010KT P6SM SKC=

0000133300
798
FTUS80 KWBC 110524 RRB
TAF
KFAR 110522Z 1106/1206 30012KT P6SM BKN015
     FM111900 25008KT P6SM BKN050=
KGCK 110520Z 1106/1206 29009KT P6SM SKC
     FM111600 26014G24KT P6SM SCT250=
KGFK 110522Z 1106/1206 30012KT P6SM BKN015
     FM111900 26008KT P6SM BKN050=
KGJT 110523Z 1106/1206 00000KT P6SM SCT080 BKN200
     FM111900 VRB03KT P6SM FEW080 SCT200
     FM120000 07006KT P6SM SCT120 BKN200=
KGLS 110522Z 1106/1206 24005KT 1/4SM FG VV002
     FM111000 24007KT 4SM BR SCT002 BKN012
     FM111200 27008KT P6SM SCT008 SCT015
     FM111400 33012KT P6SM SKC
     FM120000 01007KT P6SM SKC=
KHOU 110522Z 1106/1206 24007KT P6SM OVC012
     FM110900 27004KT P6SM SCT010
     FM111200 33010KT P6SM SKC
     FM120000 01005KT P6SM SKC=
KHYS 110520Z 1106/1206 28010KT P6SM SKC
     FM111600 28014G24KT P6SM SCT250=
KIAH 110522Z 1106/1212 24009KT P6SM SCT010 BKN012
     FM110900 27004KT P6SM SCT010
     FM111200 33010KT P6SM SKC
     FM120000 VRB02KT P6SM SKC=
KLBF 110523Z 1106/1206 30011KT P6SM BKN090
     FM111300 29011KT P6SM SCT250
     FM120000 18007KT P6SM SKC=
KLBX 110522Z 1106/1206 22006KT P6SM SCT007 BKN012
      TEMPO 1106/1109 BKN007 OVC012
     FM110900 25004KT P6SM SCT010 SCT250
     FM111200 33010KT P6SM SKC
     FM120000 VRB02KT P6SM SKC=

0000021600
799
FTUS80 KWBC 110524 AAA
TAF AMD
KMLI 110521Z 1105/1124 24006KT 6SM BR OVC006
      TEMPO 1105/1108 3SM BR BKN004
     FM110900 28009KT 6SM BR BKN008 OVC015
     FM111900 29012KT P6SM OVC020=

0000125700
800
FTUS80 KWBC 110524
TAF
KAEX 110523Z 1106/1206 20008KT P6SM VCSH SCT007 OVC012
     FM110800 23008KT 4SM BR OVC007
      TEMPO 1108/1110 1SM BR OVC003
     FM111000 26007KT 1SM BR OVC001
      TEMPO 1110/1114 1/2SM FG
     FM111500 31011KT P6SM SKC=
KAPA 110520Z 1106/1206 30008KT P6SM FEW100 SCT150 BKN200
     FM110800 22008KT P6SM FEW150 BKN200
     FM111500 28014G22KT P6SM FEW090 SCT120 BKN180
     FM111800 29018G30KT P6SM FEW090 SCT120 BKN180
     FM120000 29014KT P6SM SCT120 SCT180
     FM120400 21012KT P6SM FEW140 SCT200=
KARA 110523Z 1106/1206 19011KT P6SM VCSH OVC006
      TEMPO 1106/1110 4SM -SHRA BR OVC003
     FM111000 23010KT 4SM BR OVC003
      TEMPO 1110/1114 1SM BR
     FM111700 33011KT P6SM SKC=
KASE 110523Z 1106/1206 24003KT P6SM VCSH OVC045
      TEMPO 1106/1110 3SM -SN BR SCT010 BKN020
     FM111700 33005KT P6SM SCT060 BKN200
     FM120000 20007KT P6SM SCT080 BKN200=
KBJI 110522Z 1106/1206 28007KT 2SM BR OVC008
      TEMPO 1106/1107 1/4SM FG
     FM111900 27009KT P6SM OVC015=
KBPT 110523Z 1106/1206 21010KT 4SM BR OVC003
      TEMPO 1106/1108 1SM BR
     FM110800 23007KT 1SM BR OVC001
      TEMPO 1110/1114 1/2SM FG
     FM111500 31010KT P6SM SKC=

0000029400
801
FTUS80 KWBC 110524 RRE
TAF
PAPG 110520Z 1106/1206 VRB02KT 5SM BR SCT008 BKN080
     FM110900 00000KT 3SM BR SCT005 SCT070
     FM111600 00000KT 5SM BR FEW005 SCT050
     FM112000 29004KT P6SM SCT035 BKN050
     FM120400 25004KT P6SM VCSH BKN025 OVC050 AMD NOT SKED=

0000147300
802
FTUS80 KWBC 110524 RRD
TAF
KMSN 110522Z 1106/1206 21005KT 2SM -DZ BR OVC003
      TEMPO 1106/1109 3/4SM -DZ BR OVC002
     FM110900 26006KT 2SM -DZ BR OVC004
     FM111100 28006KT 3SM -SN OVC006
     FM111600 30009G18KT P6SM OVC012
     FM112200 29010G20KT P6SM OVC025
     FM120300 28005KT P6SM SCT030=
KMTJ 110523Z 1106/1206 00000KT P6SM OVC070
     FM111400 VRB03KT P6SM SCT070
     FM111900 VRB03KT P6SM FEW070 SCT200
     FM120000 14004KT P6SM BKN200=
KOFK 110520Z 1106/1206 29008KT P6SM BKN100
     FM111300 30013KT P6SM BKN150
     FM112200 24007KT P6SM BKN150=
KPAH 110520Z 1106/1206 16010KT P6SM -RA OVC070
      TEMPO 1107/1110 3SM -RA BR OVC015
     FM111000 26010KT P6SM SCT020 BKN150
     FM112100 26008KT P6SM SKC=
KRIL 110523Z 1106/1206 12006KT P6SM SCT070 BKN200
     FM111900 VRB03KT P6SM SCT060 SCT200
     FM120000 16002KT P6SM SCT100 BKN200=
KSDF 110521Z 1106/1212 20015G27KT 4SM -SHRA BR VCTS BKN021CB
      OVC035
      TEMPO 1106/1110 3SM SHRA BR BKN012 OVC035
     FM111000 21012G22KT 6SM BR VCSH BKN012
     FM111400 26016G27KT P6SM BKN021
     FM112300 27011KT P6SM SCT010=
KSTJ 110522Z 1106/1206 25003KT P6SM OVC007
     FM110800 26010KT P6SM SCT150=
KTEX 110523Z 1106/1206 12004KT P6SM VCSH OVC035
      TEMPO 1106/1108 5SM -SN SCT015 BKN030
     FM111000 VRB03KT P6SM SCT025 BKN060
     FM111900 27006KT P6SM FEW060 SCT250
     FM120000 15004KT P6SM SCT200=

0000124300
803
FTUS80 KWBC 110524 RRC
TAF
KLCH 110523Z 1106/1206 21011KT 4SM BR VCSH OVC003
      TEMPO 1106/1108 2SM -SHRA BR
     FM110800 23010KT 2SM BR OVC003
      TEMPO 1108/1110 1SM BR
     FM111000 24007KT 1SM BR OVC001
      TEMPO 1110/1114 1/2SM FG
     FM111600 32009KT P6SM SKC=
KLEX 110521Z 1106/1206 17015G27KT P6SM VCTS SCT021CB BKN040
     FM110800 21015G27KT 4SM -SHRA BR BKN021 OVC035
      TEMPO 1108/1112 3SM SHRA BR BKN012 OVC035
     FM111200 22012G22KT P6SM BKN009 OVC035
     FM111500 24016G30KT P6SM BKN021
     FM112300 26010KT P6SM SCT010=
KLFT 110523Z 1106/1206 19011KT P6SM VCSH OVC006
      TEMPO 1106/1110 4SM -SHRA BR OVC003
     FM111000 23010KT 4SM BR OVC003
      TEMPO 1110/1114 1SM BR
     FM111700 33011KT P6SM SKC=
KMCI 110522Z 1106/1206 28004KT P6SM OVC007
     FM110900 26012KT P6SM SCT150=
KMKC 110522Z 1106/1206 27005KT P6SM OVC015
     FM110900 26010KT P6SM SCT150=
KMKE 110522Z 1106/1212 21010KT 5SM -RA BR OVC005
     FM110800 22007KT 3SM -DZ BR OVC005
     FM111200 27008KT 4SM -DZ OVC007
     FM111500 28012G19KT 6SM -SN OVC009
     FM111800 27013G22KT P6SM BKN012
     FM120000 27010KT P6SM BKN025
     FM120500 27008KT P6SM SCT030=

0000104400
804
FTMX65 MMMX 110524
TAF MMCV 110524Z 1106/1206 27005KT 6SM HZ SCT030 
         FM111600 05010KT P6SM SCT200 
         FM120100 06005KT 6SM HZ SCT015 BKN200=
TAF MMMA 110524Z 1106/1206 00000KT 1/16SM FG VV002 
         FM111400 00000KT 1SM BR BKN015 
         FM111600 34010KT P6SM SCT020 BKN200 
         FM120100 03015KT P6SM BKN200=
TAF MMNL 110524Z 1106/1206 00000KT P6SM SCT160 BKN200 
         TEMPO 1111/1115 3SM BR BKN010 
         FM111900 04010KT P6SM BKN200 
         FM120100 13005KT P6SM SCT200=
TAF MMRX 110524Z 1106/1206 00000KT P6SM SKC 
         FM111800 35012KT P6SM BKN200 
         FM120100 06005KT P6SM SCT100 BKN200=
TAF MMPA 110524Z 1106/1206 00000KT 4SM HZ SCT120 
         FM111000 00000KT 3SM BR BKN010 
         TEMPO 1110/1114 1/2SM FG VV003 
         FM111600 35010KT 5SM HZ SCT020 SCT2?'0 
         FM120100 05005KT 5SM HZ BKN015=
TAF MMPG 110524Z 1106/1206 00000KT P6SM SCT100 BKN200 
         FM111800 34010KT P6SM SKC 
         BECMG 1201/1202 00000KT=

0000140100
805
SPUS70 KWBC 110524
SPECI
KNFE 110520Z AUTO 15009KT 10SM -RA SCT020 BKN025 OVC110 17/14
     A3012 RMK AO2 PRESFR P0000 T01670139=
KAVL 110520Z AUTO 12004KT 3SM R34/5500VP6000FT -RA BR SCT003
     BKN015 OVC035 07/07 A3003 RMK AO2 P0006=
KBED 110520Z 14003KT 1/2SM R11/3000VP6000FT FG OVC003 01/01 A3025
     RMK AO2=
KBRD 110520Z AUTO 22004KT 1 3/4SM HZ OVC002 09/M03 A2945 RMK
     AO2=
KENW 110520Z AUTO 20011KT 5SM -RA BR OVC008 04/03 A2949 RMK AO2
     CIG 005V011 P0001 T00390028=
KGNV 110520Z AUTO 00000KT 1/4SM FG VV002 18/18 A3008 RMK AO2
     T01830183=
KIMT 110520Z AUTO 00000KT 3/4SM -SN BR VV007 M02/M03 A2941 RMK AO2
     P0002=
KMSP 110520Z 00000KT 1/8SM R30L/P6000FT BR OVC004 M02/M02 A2949
     RMK AO2 SFC VIS 1 $=
KPTW 110520Z AUTO 00000KT 3SM RA BR OVC003 01/01 A3015 RMK AO2 CIG
     003V006 P0003 T00110011=
KVTA 110520Z AUTO 17006KT 10SM BKN028 OVC036 09/06 A2977 RMK AO2
     T00890061=
PAPB 110520Z AUTO 10020KT 8SM UP BKN012 BKN020 OVC026 02/01 A2898
     RMK AO2 P0000 T00170006 TSNO $=
KECP 110521Z AUTO 14009KT 1 1/4SM BR OVC002 19/18 A3001 RMK AO2
     $=
KGMU 110521Z AUTO VRB04KT 2SM BR OVC004 08/07 A3005 RMK AO2
     RAB01E17 P0001=
KIND 110521Z 15009KT 3SM -RA BR BKN006 BKN014 OVC050 05/05 A2962
     RMK AO2 P0002 $=
KPOU 110521Z 00000KT 1/2SM FG OVC003 01/M01 A3020 RMK AO2
     P0001=

0000011000
806
SPUS31 KWBC 110524
SPECI
KMSP 110520Z 00000KT 1/8SM R30L/P6000FT BR OVC004 M02/M02 A2949=

0000011200
807
SPUS41 KWBC 110524
SPECI
KBED 110520Z 14003KT 1/2SM R11/3000VP6000FT FG OVC003 01/01 A3025=

0000009800
808
SPUS42 KWBC 110524
SPECI
KMOB 110520Z AUTO 18015KT 6SM BR OVC002 19/19 A2994=

0000025300
809
SAAF11 LFPW 110500 RRB
METAR FKKD 110500Z 00000KT 5000 BR SCT013 FEW016CB BKN120 25/24 Q1011
      BECMG 2000 BR=
METAR FKKN 110500Z 00000KT CAVOK 12/03 Q1018=
METAR FKYS 110500Z 00000KT 2000 BR SCT003 20/19 Q1016 BECMG 0800 FG=

0000017200
810
SAAF14 LFPW 110500 RRB
METAR FEFF 110500Z VRB02KT  4000  BR FEW004 BKN300 18/17 Q1012 TEMPO
      2000=
METAR FEFT 110500Z 00000KT CAVOK 17/15 Q1011=

0000016400
811
FCDL33 EDZO 110500
TAF EDVK 110500Z 1106/1115 19006KT 9000 FEW020 TEMPO 1106/1109 1200
     BCFG BKN002 TEMPO 1113/1115 24012KT 4000 RA BKN008=

0000013400
812
FCDL34 EDZO 110500
TAF EDQM 110500Z 1106/1115 22008KT 9999 BKN045 BECMG 1111/1113 BKN008
     TEMPO 1113/1115 RA=

0000011900
813
FCDL35 EDZO 110500
TAF EDJA 110500Z 1106/1115 22005KT 9999 SCT045 BECMG 1113/1115
     24015G25KT=

0000029000
814
FCBX31 EBBR 110500
TAF EBAW 110520Z 1106/1115 22009KT 9999 BKN008
    BECMG 1107/1110 SCT012 
    TEMPO 1110/1113 BKN012 =
TAF EBCI 110520Z 1106/1115 21009KT 9999 BKN006
    PROB30 TEMPO 1106/1108 BKN004
    BECMG 1109/1111 BKN012 
    BECMG 1113/1115 SCT015=

00000000