0000012000
355
SACN46 CWAO 110900
METAR CYKZ 110900Z 13005KT 3/4SM -RA BR VV001 02/02 A2964 RMK FG8
PRESFR SLP043=

0000018300
356
SAKY31 RUMS 110900
METAR UCFM 110900Z 28003MPS 6000 NSC M01/M11 Q1022 R08/CLRD70 NOSIG=
METAR UCFO 110900Z 34002MPS 300V360 CAVOK 02/M08 Q1024 R12/CLRD70
NOSIG=

0000021400
357
SAAY31 RUMS 110900
METAR UDYZ 110900Z 00000MPS 2000 -SN BR BKN009 OVC016 M09/M11 Q1025
R09/490260 NOSIG=
METAR UDSG 110900Z 00000MPS 1000 R02/1000N BR BKN010 M13/M15 Q1019
R02/CLRD70 NOSIG=

0000093300
358
SAKZ31 RUMS 110900
METAR UAAA 110900Z VRB01MPS 2800 FU FEW100 BKN200 M02/M13 Q1021
8891//60 NOSIG=
METAR UACC 110900Z 18007MPS 4500 SN DRSN OVC021 M07/M08 Q1022
R22/4/0550 TEMPO 2000 SN BLSN BKN010 RMK QFE735/0980=
METAR UAKK 110900Z 18009MPS 9999 SCT040 OVC100 M10/M14 Q1023
R23/850555 NOSIG RMK QFE720/0960=
METAR UAOO 110900Z 23006MPS 5000 BR BKN330 00/M04 Q1020 R24/CLRD70
NOSIG RMK QFE753/1004=
METAR UARR 110900Z 17010MPS 9000 OVC003 01/00 Q1006 R22/720156 TEMPO
18018MPS 3000 -SNRA BR OVC002 RMK QBB090 QFE751/1002=
METAR UATE 110900Z 12007MPS 9999 OVC010 04/02 Q1013 R12/0///70 NOSIG
RMK QFE758/1011=
METAR UATG 110900Z 18008MPS 5000 BR OVC032 03/02 Q1014 R14/19//65
NOSIG RMK QFE762/1016=
METAR UATT 110900Z 23007MPS 6000 OVC003 M00/M00 Q1012 R13/39//40
NOSIG RMK QBB110 QFE740/0986=
METAR UAUU 110900Z 17006MPS 9999 OVC023 M07/M09 Q1014 R15/CLRD60
NOSIG RMK QFE744/0992=

0000021600
359
SATA31 RUMS 110900
METAR UTDD 110900Z 10005MPS 9999 BKN190 07/M09 Q1024 09CLRD70 NOSIG
RMK QFE699/0933=
METAR UTDL 110900Z 08011G15MPS 7000 FEW200 03/M09 Q1024 NOSIG RMK
QFE728/0971 8809//70=

0000008900
360
SASP36 LEMM 110900
METAR GEML 110900Z 25005KT 9999 FEW006 15/11 Q1018=

0000019000
361
SASP37 LEMM 110900
METAR LEBG 110900Z 00000KT 1200 0900NW R22/1600U VCFG BR BKN001
01/01 Q1018=
METAR LEHC 110900Z NIL=
METAR LEBA 110900Z 00000KT CAVOK 08/07 Q1019=

0000051300
362
FTUS42 KWBC 110903 AAA
TAF AMD
KHOU 110901Z 1109/1206 23009KT 2SM BR OVC003
     FM111100 27004KT P6SM SCT010
     FM111300 33010KT P6SM SKC
     FM120000 01005KT P6SM SKC=
KPIE 110902Z 1109/1206 15008KT P6SM FEW018 BKN130
     FM111000 15008KT 4SM BR BKN007 OVC015
      TEMPO 1111/1114 2SM BR OVC004
     FM111600 18016G24KT P6SM SCT010 BKN020
     FM111800 21022G30KT P6SM SCT025 BKN150
     FM120000 22011KT P6SM SCT030 BKN150
     FM120400 27008KT P6SM BKN025 OVC050=

0000026700
363
SACZ31 LKPW 110900
METAR LKKV 110900Z VRB02KT 7000 3600NE BCFG FEW002 M00/M01 Q1016=
METAR LKMT 110900Z 21010KT CAVOK 04/M00 Q1019 NOSIG=
METAR LKPR 110900Z 18007KT CAVOK 02/00 Q1017 NOSIG=
METAR LKTB 110900Z VRB02KT CAVOK 03/M01 Q1020 NOSIG=

0000034900
364
SAIL31 BICC 110900
METAR BIAR 110900Z 31005KT 9999 -SN BKN031 OVC045 01/M02 Q0998
    01/490195=
METAR BIEG 110900Z 09025G40KT 9999 -SNRA SCT012 BKN030 BKN060 01/M01
Q0995 RMK
R04/790194=
METAR BIKF 110900Z 21007KT 9999 FEW040 M01/M03 Q0999=
METAR BIRK 110900Z 21012KT 9999 FEW032 SCT055 00/M02 Q0999
    R19/790144=

0000054500
365
SAYG31 LYBM 110900
METAR LYBE 110900Z 17005KT 150V220 CAVOK 09/02 Q1022 NOSIG=
METAR LYBT 110900Z 15003KT 090V190 6000 NSC 08/05 Q1023 NOSIG=
METAR LYKV 110900Z VRB02KT 9999 BKN050 06/02 Q1024 NOSIG=
METAR LYNI 110900Z VRB02KT 8000 FEW040 04/02 Q1025 NOSIG=
METAR LYPG 110900Z 13001KT 9999 BKN050 BKN090 09/07 Q1024 NOSIG=
METAR LYPR 110900Z NIL=
METAR LYTV 110900Z VRB01KT 9999 BKN060 12/10 Q1024 NOSIG=
METAR LYUZ 110900Z 24003KT 200V290 CAVOK 06/03 Q1023=
METAR LYVR 110900Z 16011KT CAVOK 09/02 Q1023 NOSIG=

0000010600
366
SACN61 CYFC 110900
METAR CYFC 110900Z AUTO 00000KT 9SM SCT085 M13/M14 A3026 RMK SLP248=

0000013700
367
SACN61 CYGV 110900
METAR CYGV 110900Z AUTO 27006KT 9SM BKN070 M08/M12 A3006 RMK PRESRR
 TS/LTNG TEMPO UNAVBL SLP182=

0000010600
368
SACN62 CYBR 110900
METAR CYBR 110900Z 27010KT 15SM FEW120 M10/M11 A2956 RMK AC2 SLP041=

0000009900
369
SACN62 CYEV 110900
METAR CYEV 110900Z 28005KT 15SM SKC M28/M31 A2968 RMK SLP062=

0000011800
370
SACN61 CYHD 110900
METAR CYHD 110900Z AUTO 23005KT 3/4SM -SN VV003 M05/M05 A2936 RMK ICG
 SLP969=

0000043500
371
FTUS31 KWBC 110903 AAA
TAF AMD
KIAH 110901Z 1109/1212 25005KT 1SM BR BKN003
     FM111100 27004KT P6SM SCT010
     FM111300 33010KT P6SM SKC
     FM120000 VRB02KT P6SM SKC=
KMEM 110900Z 1109/1206 28009KT P6SM BKN100
     FM111500 28012G18KT P6SM SCT250
     FM120200 28006KT P6SM SKC=
KPHX 110902Z 1109/1206 11005KT P6SM FEW250
     FM112300 26004KT P6SM SCT250
     FM120400 09004KT P6SM FEW250=

0000105800
372
FTUS41 KWBC 110903 AAA
TAF AMD
KAGC 110859Z 1109/1206 15006KT P6SM OVC050 WS020/22045KT
     FM111100 18008KT 4SM -RA OVC025 WS020/22050KT
     FM111300 19008KT 3SM -RA OVC008 WS020/22050KT
     FM111800 23012G24KT P6SM OVC015
     FM120000 26013KT P6SM BKN035=
KALB 110901Z 1109/1206 VRB03KT 5SM BR OVC008
      TEMPO 1109/1111 2SM -RA BR OVC004
     FM111100 17010G16KT 1 1/2SM -RA BR OVC007 WS020/19045KT
     FM111500 18012G22KT 1SM -RA BR OVC006 WS020/20050KT
     FM111900 19015G25KT 3/4SM -RA OVC005
     FM120000 22012G22KT 1 1/2SM -RA BR SCT005 OVC009=
KMSS 110900Z 1109/1206 06008KT 6SM BR VCSH BKN035 OVC050
      TEMPO 1109/1113 3SM -FZDZ BR OVC020
     FM111300 09009KT 3SM -RA BR BKN009 OVC015 WS020/20040KT
     FM111500 15010G18KT 4SM -RA BR OVC007 WS020/22040KT=
KPWM 110901Z 1109/1206 VRB04KT 1SM -FZDZ BR OVC004
     FM111200 15007KT 1/2SM -RA FG VV003 WS020/19050KT
     FM111600 16014G25KT 2SM RA BR OVC004 WS020/21060KT
     FM112000 18016G26KT 1/2SM +RA FG OVC001 WS020/21060KT=

0000131500
373
FTUS71 KWBC 110903 AAA
TAF AMD
KAGC 110859Z 1109/1206 15006KT P6SM OVC050 WS020/22045KT
     FM111100 18008KT 4SM -RA OVC025 WS020/22050KT
     FM111300 19008KT 3SM -RA OVC008 WS020/22050KT
     FM111800 23012G24KT P6SM OVC015
     FM120000 26013KT P6SM BKN035=
KALB 110901Z 1109/1206 VRB03KT 5SM BR OVC008
      TEMPO 1109/1111 2SM -RA BR OVC004
     FM111100 17010G16KT 1 1/2SM -RA BR OVC007 WS020/19045KT
     FM111500 18012G22KT 1SM -RA BR OVC006 WS020/20050KT
     FM111900 19015G25KT 3/4SM -RA OVC005
     FM120000 22012G22KT 1 1/2SM -RA BR SCT005 OVC009=
KGFL 110901Z 1109/1206 00000KT 2SM -FZRA BR OVC006
      TEMPO 1109/1111 3/4SM -FZRA BR
     FM111100 17004KT 1SM -RA BR OVC005 WS020/19040KT
     FM111700 19008KT 3/4SM -RA BR OVC004 WS020/20045KT
     FM112300 23010KT 2SM -RA BR SCT004 OVC008=
KLEB 110901Z 1109/1206 00000KT 5SM -FZRA BR OVC003
     FM111000 00000KT 1SM -FZRA BR OVC002 WS020/19045KT
     FM111400 16008G18KT 2SM RA BR OVC005 WS020/19055KT
     FM111700 19010G18KT 1/2SM +RA FG OVC001 WS020/19055KT=
KMSS 110900Z 1109/1206 06008KT 6SM BR VCSH BKN035 OVC050
      TEMPO 1109/1113 3SM -FZDZ BR OVC020
     FM111300 09009KT 3SM -RA BR BKN009 OVC015 WS020/20040KT
     FM111500 15010G18KT 4SM -RA BR OVC007 WS020/22040KT=

0000070400
374
FTUS71 KWBC 110903 AAB
TAF AMD
KPSM 110901Z 1109/1206 VRB04KT 1/2SM -FZRA FG OVC002
     FM111100 16007KT 1/2SM -RA FG VV002 WS020/18050KT
     FM111500 18012G25KT 2SM RA BR OVC005 WS020/21060KT
     FM111900 20015G25KT 1/2SM +RA FG OVC002 WS020/21060KT=
KPWM 110901Z 1109/1206 VRB04KT 1SM -FZDZ BR OVC004
     FM111200 15007KT 1/2SM -RA FG VV003 WS020/19050KT
     FM111600 16014G25KT 2SM RA BR OVC004 WS020/21060KT
     FM112000 18016G26KT 1/2SM +RA FG OVC001 WS020/21060KT=
KZZV 110901Z 1109/1206 18006KT 4SM -SHRA BKN025 WS020/22045KT
     FM111100 18010KT 4SM -RA OVC009 WS020/22050KT
     FM111700 23012G24KT P6SM BKN015
     FM112200 26012KT P6SM BKN035=

00000000