0000009700
215
SPUS31 KWBC 110636
SPECI
KMSY 110629Z COR 18010KT 1SM BR OVC002 19/19 A2989=

0000009700
216
SACA33 KWBC 110600 RRI
METAR
TFFR 110630Z AUTO VRB03KT 9999 NSC 22/21 Q1016=

0000032100
217
FTDL31 EDZO 110500 AAA
TAF AMD EDDF 110633Z 1106/1212 VRB03KT 4000 BR NSC BECMG 1106/1109
     23005KT 9000 BKN030 TEMPO 1109/1118 4000 -RA BR BKN007 PROB40
     TEMPO 1115/1118 RA BECMG 1118/1120 27006KT SCT030 BECMG
     1200/1203 VRB03KT TEMPO 1206/1209 4000 BR BECMG 1210/1212
     06005KT=

0000009300
218
SAFR36 LFPW 110630 RRA
METAR LFMH 110630Z 17012KT CAVOK 08/02 Q1017 NOSIG=

0000050000
219
FTUS51 KWBC 110636 AAA
TAF AMD
KAVL 110632Z 1107/1206 13005KT 5SM SHRA BR SCT003 OVC015
      TEMPO 1107/1110 2SM SHRA BR OVC003
     FM111000 17009KT 1SM SHRA BR OVC002
     FM111400 19013G21KT 1SM SHRA BR OVC003
     FM111700 30010KT 2SM SHRA BR OVC004
     FM111900 31012KT 4SM -SHRA OVC035
     FM120000 31014G22KT P6SM SCT040 BKN250=
KIPT 110635Z 1107/1206 11004KT 1/2SM FG OVC004 WS020/19045KT
     FM111500 17012G24KT 3SM RA BR BKN009 OVC016 WS012/19045KT=

0000068300
220
FTUS80 KWBC 110636 AAA
TAF AMD
KAVL 110632Z 1107/1206 13005KT 5SM SHRA BR SCT003 OVC015
      TEMPO 1107/1110 2SM SHRA BR OVC003
     FM111000 17009KT 1SM SHRA BR OVC002
     FM111400 19013G21KT 1SM SHRA BR OVC003
     FM111700 30010KT 2SM SHRA BR OVC004
     FM111900 31012KT 4SM -SHRA OVC035
     FM120000 31014G22KT P6SM SCT040 BKN250=
KBNA 110634Z 1107/1206 19015G25KT 4SM SHRA BR VCTS BKN015CB
      TEMPO 1107/1111 1SM TSRA BKN005CB
     FM111200 26012G25KT P6SM OVC025
     FM111500 27010G20KT P6SM BKN050=
KIPT 110635Z 1107/1206 11004KT 1/2SM FG OVC004 WS020/19045KT
     FM111500 17012G24KT 3SM RA BR BKN009 OVC016 WS012/19045KT=

0000009000
221
SPUS42 KWBC 110636
SPECI
KFPR 110632Z 00000KT 5SM BR CLR 20/19 A3009=

0000011700
222
SPUS42 KWBC 110636
SPECI
KPNS 110632Z AUTO 18010KT 1/4SM R17/1600V2000FT FG VV002 19/18
A2995=

0000004200
223
SAHA31 KWBC 110630
NIL=

0000042500
224
SAJP31 KWBC 110630
METAR
RJAA 110630Z VRB02KT 9999 FEW030 08/M11 Q1022 BECMG 31005KT RMK
     1CU030 A3019=
RJAH NIL=
RJCC 110630Z 32011KT 9999 -SHSN FEW015 SCT040 BKN070 M06/M13 Q1018
     RMK 1ST015 3CU040 6AC070 A3008=
RJCH NIL=
RJFK NIL=
RJFT NIL=
RJFU NIL=
RJNN NIL=
RJOO NIL=
RJSS NIL=
RJTT 110630Z 09004KT 9999 FEW025 07/M06 Q1022 NOSIG RMK 1CU025
     A3019=
RODN NIL=

0000004200
225
SAJP41 KWBC 110630
NIL=

0000004200
226
SAJP42 KWBC 110630
NIL=

0000004200
227
SAJP43 KWBC 110630
NIL=

0000004200
228
SAJP44 KWBC 110630
NIL=

0000004200
229
SAJP45 KWBC 110630
NIL=

0000041700
230
SAAO33 DRRN 110625
METAR DBBB 110630Z VRB02KT 2800  BR SCT008 BKN200 25/25 Q1010 TEMPO
1500=
METAR DFFD 110630Z 03005KT 6000 NSC 19/03 Q1015 BECMG 4000 DU=
METAR DGAA 110625Z NIL=
METAR DNKN 110625Z NIL=
METAR DNMM 110625Z NIL=
METAR DRRN 110630Z 08012KT 2000 BLDU NSC 19/M01 Q1015 NOSIG=
METAR DXXX 110630Z VRB01KT 1700  BR SCT010 26/25 Q1012 TEMPO 1200 BR=
METAR FTTJ 110625Z NIL=

0000025500
231
SANZ31 NZKL 110630
METAR NZAA 110630Z AUTO 23012KT 9999 BKN045/// 19/13 Q1017 NOSIG=
METAR NZWN 110630Z AUTO 34011KT 9999 NCD 20/14 Q1014 NOSIG=
METAR NZCH 110630Z AUTO 07017KT 9999 BKN014/// OVC019/// 15/12 Q1012
          NOSIG=

0000012600
232
SPSP32 LEMM 110637
SPECI LEZG 110637Z 25004KT 1200 R30R/1700U R12R/P2000 R30L/P2000
BR VV002 06/06 Q1019=

0000015300
233
FTMJ31 LWSK 110630 AAY
TAF LWOH 110630Z 1107/1206 VRB02KT 1500 OVC005 TEMPO 1107/1109
0500 BR OVC001 BECMG 1110/1112 5000 BR BKN020=

0000018800
234
FTCN33 CWAO 110600
TAF CYEV 110639Z 1107/1119 28007KT P6SM SCT080 TEMPO 1107/1113 5SM
     -SN BKN080
    FM111300 29010KT P6SM FEW080
    RMK NXT FCST BY 111300Z=

00000000