0000054000
375
SAFR33 LFPW 110900
METAR LFKB 110900Z 21005KT 9999 FEW033 BKN210 11/07 Q1021 NOSIG=
METAR LFKC 110900Z 22003KT CAVOK 10/08 Q1021 NOSIG=
METAR LFKF 110900Z AUTO 05009KT 020V100 9999 FEW023/// SCT035///
15/11 Q1021=
METAR LFKJ 110900Z 05005KT CAVOK 09/07 Q1021 NOSIG=
METAR LFLC 110900Z VRB02KT CAVOK 07/03 Q1019 NOSIG=
METAR LFMP 110900Z 26003KT 9999 FEW033 SCT150 BKN260 10/08 Q1020
NOSIG=
METAR LFMV 110900Z AUTO 00000KT 9999 OVC030 10/08 Q1022=
METAR LFSL 110900Z AUTO 10004KT 9999 OVC019 08/05 Q1020=

0000105400
376
SAFR34 LFPW 110900
METAR LFCR 110900Z AUTO 14004KT 9999 FEW019 OVC170 05/05 Q1020=
METAR LFJL 110900Z AUTO 14009KT 6000 NSC 03/02 Q1017=
METAR LFLP 110900Z AUTO VRB01KT 9999 OVC021 04/03 Q1021=
METAR LFLS 110900Z AUTO 25006KT 9999 NSC 09/06 Q1020=
METAR LFLY 110900Z AUTO 19005KT 160V220 9999 NSC 10/06 Q1020=
METAR LFMT 110900Z 03006KT 9999 SCT028 OVC040 11/09 Q1021 NOSIG=
METAR LFMU 110900Z AUTO 03005KT 9999 BKN016 BKN022 OVC033 11/09
Q1021=
METAR LFOB 110900Z AUTO VRB02KT 4200 R30/1100U BR BKN003 OVC160
04/04 Q1018=
METAR LFOH 110900Z AUTO 23008KT 3800 DZ BR OVC002 07/06 Q1019=
METAR LFOK 110900Z AUTO 00000KT 5000 BR NSC 03/03 Q1018=
METAR LFOP 110900Z AUTO 25007KT 0550 R22/1500D FG VV/// 06/06 Q1018=
METAR LFPB 110900Z AUTO VRB02KT 6000 2900 FEW005 OVC036 06/06 Q1019=
METAR LFQA 110900Z AUTO 11003KT 6000 BKN042 BKN078 OVC088 04/04
Q1017=
METAR LFQB 110900Z AUTO VRB02KT 4100 -RA BR NSC 04/04 Q1018=
METAR LFSN 110900Z AUTO VRB02KT 8000 FEW006/// SCT060/// OVC072///
///TCU 03/03 Q1017=

0000084300
377
SAFR35 LFPW 110900
METAR LFMI 110900Z AUTO 08006KT 9999 OVC025 11/08 Q1021=
METAR LFMK 110900Z AUTO 00000KT 9999 OVC022 09/07 Q1020=
METAR LFOV 110900Z AUTO 00000KT 4900 BR OVC005 06/06 Q1020=
METAR LFRD 110900Z AUTO 29004KT 7000 BKN007 OVC018 07/06 Q1020=
METAR LFRI 110900Z AUTO 33006KT 3500 BR OVC003 08/07 Q1020=
METAR LFRM 110900Z AUTO 00000KT 4200 BR BKN018 06/06 Q1020=
METAR LFRN 110900Z AUTO 00000KT 0150 R28/0325N FG VV/// 06/06 Q1020=
METAR LFRO 110900Z AUTO 35003KT 9999 BKN047 08/05 Q1020=
METAR LFRV 110900Z AUTO 01002KT 9000 BKN049 05/05 Q1020=
METAR LFRZ 110900Z AUTO VRB03KT 4500 BR BKN004 07/06 Q1020=
METAR LFSB 110900Z 17005KT 140V200 CAVOK 05/03 Q1018 NOSIG=
METAR LFST 110900Z AUTO 34003KT 5000 -DZ BR ///TCU 02/02 Q1018=
METAR LFTH 110900Z AUTO 31003KT 9999 OVC021 12/09 Q1021=

0000080200
378
SAFR36 LFPW 110900
METAR LFBA 110900Z AUTO 09004KT 5000 BR SCT015 OVC022 08/07 Q1020=
METAR LFBE 110900Z AUTO 04003KT 5000 BR OVC022 08/07 Q1020=
METAR LFGJ 110900Z AUTO VRB03KT 5000 BR NSC 05/05 Q1019=
METAR LFJR 110900Z AUTO 33003KT 0150 R26/0550U FG VV/// 06/06 Q1020=
METAR LFMD 110900Z AUTO 00000KT 9999 SCT039 OVC190 11/08 Q1021=
METAR LFMH 110900Z 17006KT CAVOK 09/03 Q1019 NOSIG=
METAR LFOT 110900Z AUTO 00000KT 2000 BR OVC004 06/06 Q1019=
METAR LFPN 110900Z 26003KT 0300 R25/1600U FG FEW035 SCT070 BKN230
05/05 Q1018 NOSIG=
METAR LFRC 110900Z AUTO 32007KT 280V350 9999 NSC 07/04 Q1019=
METAR LFRG 110900Z AUTO 24005KT 210V270 4000 R12/1000U BR VV///
06/06 Q1019=
METAR LFRK 110900Z AUTO 28004KT 260V350 4500 -RA BR SCT014 SCT038
OVC054 06/06 Q1019=

0000082800
379
SAFR37 LFPW 110900
METAR LFAQ 110900Z AUTO 19003KT 0800 R27/1900D FG FEW002 BKN007
BKN056 04/04 Q1017=
METAR LFAT 110900Z AUTO 22009KT 200V260 8000 BKN010 OVC014 09/07
Q1016=
METAR LFBU 110900Z AUTO 14004KT 2800 BR OVC003 08/08 Q1020=
METAR LFLN 110900Z AUTO 00000KT 5000 BR NSC 04/03 Q1019=
METAR LFPM 110900Z AUTO 27002KT 4400 BR FEW032 SCT049 06/05 Q1018=
METAR LFPT 110900Z AUTO 27005KT 0150 R05/0400N FG VV/// 05/04 Q1018=
METAR LFRH 110900Z AUTO 06003KT 0200 0150 R25/0375N R07/0900U FG
VV/// 05/05 Q1020=
METAR LFRQ 110900Z AUTO VRB03KT 9999 BKN026 08/07 Q1020=
METAR LFRT 110900Z AUTO 28003KT 8000 BKN004 BKN016 BKN029 07/07
Q1020=
METAR LFSD 110900Z AUTO VRB02KT 0200 R35/0650N FG VV/// 04/04 Q1018=
METAR LFTW 110900Z AUTO 09004KT 8000 FEW022 SCT030 OVC035 10/07
Q1021=

0000010600
380
SACN49 CWAO 110900
METAR CYGW 110900Z 00000KT 10SM OVC015 M09/M10 A2972 RMK SC6 SLP064=

0000009300
381
SAIE32 EIDB 110830 RRC
METAR EIDL 110830Z 00000KT 9999 FEW042 05/01 Q1016=

0000010700
382
SAAF13 LFPW 110900
METAR GLRB 110900Z 00000KT 9000 BKN013  25/24 Q1012 NOSIG
RMK BRVC=

0000015500
383
SAAF17 LFPW 110900
METAR HLLB 110850Z
22005KT 9999 FEW020 BKN080 16/10 Q1027 =
METAR HLLT 110850Z 19005KT 160V230 CAVOK 17/07 Q1024=

0000015000
384
SAAF18 LFPW 110900
METAR FIMP 110900Z 09010KT 9999 BKN018 29/25 Q1015=
METAR FIMR 110900Z 10018KT 9999 SCT017 BKN050 30/24 Q1015=

0000012100
385
SAAF27 LFPW 110900
METAR FGSL 110900Z 26005KT 230V300 6000 FEW012 FEW020CB BKN130 30/24
Q1013 NOSIG=

0000010600
386
SACN48 CWAO 110900
METAR CYBX 110900Z 27011KT 15SM OVC080 M09/M14 A2999 RMK AC8 SLP160=

0000073000
387
SASP32 LEMM 110900
METAR LEAS 110900Z VRB01KT 9999 FEW020 BKN029 10/09 Q1019 NOSIG=
METAR LEBB 110900Z VRB01KT 9999 FEW030 BKN037 09/08 Q1020 NOSIG=
METAR LECO 110900Z NIL=
METAR LEGE 110900Z 00000KT 9000 SCT018 BKN030 10/08 Q1020=
METAR LEST 110900Z 00000KT 2500 R17/0350D BR BKN005 02/02 Q1018
BECMG 3000 BR=
METAR LEZG 110900Z 29007KT 2000 BR BKN003 06/06 Q1020=
METAR LESO 110900Z VRB01KT 9999 FEW040 09/07 Q1020=
METAR LEVT 110900Z 00000KT 3000 BR BKN007 03/03 Q1020=
METAR LERS 110900Z 04003KT 7000 BKN021 12/09 Q1020=
METAR LEMH 110900Z 12004KT 6000 SCT006 14/13 Q1019=
METAR LEAM 110900Z 33005KT 9999 FEW020 13/09 Q1019=
METAR LEGR 110900Z 00000KT 8000 FEW030 BKN075 08/07 Q1019=

0000037800
388
SACR31 LEMM 110900
METAR GCLP 110900Z 34006KT 9999 FEW025 16/12 Q1019 NOSIG=
METAR GCXO 110900Z VRB01KT 9999 FEW010 13/08 Q1019 NOSIG=
METAR GCTS 110900Z 03006KT 9999 FEW025 17/11 Q1018 NOSIG=
METAR GCRR 110900Z VRB02KT CAVOK 15/12 Q1019=
METAR GCFV 110900Z 29003G14KT 260V350 CAVOK 14/10 Q1019=
METAR GCLA 110900Z 31004KT 270V360 CAVOK 17/06 Q1018=

0000010800
389
SASP39 LEMM 110900
METAR LETL 110900Z AUTO VRB02KT 0100 R36/0200N FG VV001 01/01
Q1019=

0000025000
390
FTCN34 CWAO 110900 AAA
TAF AMD CYIV 110904Z 1109/1119 VRB03KT P6SM SCT012 OVC080 TEMPO
     1109/1112 2SM -SN VV012
    FM111200 32005KT P6SM SCT008 OVC012 TEMPO 1112/1119 2SM -SN BR
     BKN008
    RMK NXT FCST BY 111300Z=

0000019900
391
FTCN34 CWAO 110900 AAA
TAF AMD CYGX 110904Z 1109/1119 04006KT P6SM SCT015 OVC025 TEMPO
     1109/1119 2SM -SN BKN015
     BECMG 1116/1118 35005KT
    RMK NXT FCST BY 111300Z=

0000061800
392
SASP31 LEMM 110900
METAR LEMD 110900Z VRB02KT CAVOK 06/05 Q1019 NOSIG=
METAR LEBL 110900Z 33007G17KT 280V010 6000 FEW007 BKN028 11/07
Q1020 NOSIG=
METAR LEPA 110900Z 36001KT 9999 3000E FEW003 11/10 Q1018 NOSIG=
METAR LEZL 110900Z 01003KT 8000 NSC 09/09 Q1018 NOSIG=
METAR LEMG 110900Z VRB01KT 7000 SCT020 11/10 Q1019 NOSIG=
METAR LEVC 110900Z VRB02KT 6000 BKN025 09/07 Q1020 NOSIG=
METAR LEAL 110900Z VRB02KT CAVOK 12/09 Q1019 NOSIG=
METAR LEIB 110900Z 00000KT 9999 FEW010 13/12 Q1018 NOSIG=
METAR LEVX 110900Z VRB02KT 0250 R20/1300U R02/0275N FG VV001
07/07 Q1017 BECMG 3000 BR=

0000019000
393
SASP33 LEMM 110900
METAR LEVD 110900Z 09002KT 3000 VCFG NSC 00/00 Q1018=
METAR LEVS 110900Z 00000KT 6000 NSC 07/06 Q1019=
METAR LESA 110900Z VRB01KT CAVOK 01/01 Q1018=

0000031200
394
SASP34 LEMM 110900
METAR LEDA 110900Z NIL=
METAR LEJR 110900Z VRB02KT CAVOK 12/11 Q1018=
METAR LELL 110900Z 00000KT 4000 BR OVC020 10/08 Q1020=
METAR LEPP 110900Z 00000KT 0050 R33/0300N R15/0250N FG VV001
03/03 Q1020=
METAR LEXJ 110900Z VRB02KT 7000 FEW006 BKN014 OVC030 11/10 Q1019=

00000000