0000011200
435
FTCN36 CWAO 110500
TAF CYVP 110539Z 1106/1118 22005KT P6SM SKC
    RMK NXT FCST BY 111200Z=

0000010000
436
SPUS31 KWBC 110539
SPECI
KIAD 110534Z 08003KT 2SM BR SCT004 OVC008 02/01 A3011=

0000010400
437
SPUS31 KWBC 110539
SPECI
KIND 110535Z 15008KT 2SM -RA BR BKN004 OVC014 05/05 A2961=

0000011300
438
SPUS31 KWBC 110539
SPECI
KLOU 110535Z AUTO 00000KT 2 1/2SM +RA BR BKN041 OVC050 11/10 A2973=

0000011000
439
SPUS41 KWBC 110539
SPECI
KWRI 110537Z AUTO 02002KT 3/4SM R06/1400FT BR VV002 04/04 A3014=

0000009900
440
SPUS42 KWBC 110539
SPECI
KGLS 110535Z AUTO 22010KT 1/2SM FG VV002 17/17 A2987=

0000011000
441
SPUS42 KWBC 110539
SPECI
KMGM 110534Z AUTO 14008KT 10SM FEW003 BKN012 OVC085 15/14 A2992=

0000011100
442
SPUS43 KWBC 110539
SPECI
KCMX 110535Z AUTO 06005KT 1SM -SN BR BKN020 OVC028 M03/M04 A2945=

0000011600
443
SPUS43 KWBC 110539
SPECI
KFNT 110534Z AUTO 16012KT 10SM -RA BKN011 BKN014 OVC055 04/03
A2959=

0000009600
444
SPUS44 KWBC 110539
SPECI
KHQM 110534Z AUTO 17030G42KT 2SM -SN OVC014 A2967=

0000012400
445
SAAK32 KWBC 110500 RRC
METAR
PADK 110536Z AUTO 22033G42KT 5SM SCT025 BKN039 OVC065 03/M01
     A2871=

0000035900
446
SAIO31 KWBC 110500 RRG
METAR
VYMD 110530Z 32002KT 7000 HZ NSC 26/16 Q1017=
WBGG 110530Z 03010KT 330V060 9999 -SHRA FEW015CB BKN020 BKN150
     27/23 Q1011 NOSIG=
WBKK 110530Z 03008KT 320V080 9999 -RA FEW013 FEW017CB SCT035
     BKN270 28/23 Q1010 NOSIG=
WBSB 110530Z 31008KT 9999 SCT016 FEW017CB BKN280 30/24 Q1011
     NOSIG=

0000047500
447
SAID31 WIII 110530
METAR WIMM 110530Z 32008KT 6000 SCT017 29/24 Q1011= 
METAR WADD 110530Z 20004KT 140V290 9999 TS FEW015CB SCT015 29/25
Q1009 TEMPO TL0800 -TSRA= 
METAR WIII 110530Z 01008KT 9999 FEW018CB SCT020 33/24 Q1008 RMK CB TO
SW= 
METAR WAAA 110530Z 30009KT 9999 FEW019 31/23 Q1010= 
METAR WIDD 110530Z 34006KT 9999 BKN014 31/24 Q1010= 
METAR WARR 110530Z 07011KT 9999 FEW020CB FEW020 30/24 Q1008= 
METAR WIHH NIL=
METAR WABB NIL=

0000023700
448
FTAU31 AMMC 110500 AAB
TAF AMD YBBN 110533Z 1106/1212 10010KT 9999 FEW035
     FM111000 13007KT 9999 FEW030
     FM111400 20004KT 9999 SCT030
     FM120100 11013KT 9999 FEW035
     FM120900 14008KT 9999 FEW030=

0000080200
449
SASP32 LEMM 110530
METAR LEAS 110530Z VRB01KT 9999 FEW015 BKN028 09/09 Q1017 NOSIG=
METAR LEBB 110530Z VRB01KT 9999 FEW025 BKN034 10/08 Q1018 NOSIG=
METAR LECO 110530Z 19003KT 0500 R21/0450N R03/0550N FG VV001
04/04 Q1017=
METAR LEGE 110530Z 00000KT 4000 BR BKN020 08/07 Q1018=
METAR LEST 110530Z 00000KT 1100 R17/0550U R35/1300U BR NSC 00/00
Q1016 TEMPO 0700 BCFG=
METAR COR LEZG 110530Z 29006KT 0750 R30R/1500D R12R/1200D BCFG
VV002 05/05 Q1018=
METAR LESO 110530Z VRB02KT 9999 FEW020 BKN038 10/08 Q1018=
METAR LEVT 110530Z 00000KT 3500 BR FEW001 BKN010 02/02 Q1018=
METAR LERS 110530Z NIL=
METAR LEMH 110530Z 11004KT 9000 SCT006 12/12 Q1017=
METAR LEAM 110530Z 03004KT 9999 FEW020 12/08 Q1016=
METAR LEGR 110530Z 00000KT 9999 FEW030 BKN090 06/06 Q1017=

0000025900
450
SACR31 LEMM 110530
METAR GCLP 110530Z 34007KT 9999 FEW020 15/10 Q1017 NOSIG=
METAR GCXO 110530Z NIL=
METAR GCTS 110530Z 01007KT 9999 BKN030 15/11 Q1016 NOSIG=
METAR GCRR 110530Z NIL=
METAR GCFV 110530Z NIL=
METAR GCLA 110530Z NIL=

0000011000
451
SASP39 LEMM 110530
METAR LETL 110530Z AUTO 10004KT 080V150 0800 FG BKN070/// 03/03
Q1017=

0000053400
452
SASP31 LEMM 110530
METAR LEMD 110530Z 32002KT CAVOK 06/05 Q1017 NOSIG=
METAR LEBL 110530Z 33007KT 5000 BR SCT025 10/06 Q1018 NOSIG=
METAR LEPA 110530Z 06008KT CAVOK 09/09 Q1017 NOSIG=
METAR LEZL 110530Z 31001KT 8000 NSC 09/09 Q1016 NOSIG=
METAR LEMG 110530Z NIL=
METAR LEVC 110530Z VRB01KT 7000 SCT040 08/07 Q1018 NOSIG=
METAR LEAL 110530Z 29004KT 9999 FEW015 10/08 Q1017 NOSIG=
METAR LEIB 110530Z 00000KT 9999 FEW010 10/09 Q1016 NOSIG=
METAR LEVX 110530Z 00000KT 6000 NSC 06/06 Q1016 TEMPO 3000 BR=

0000013700
453
SASP33 LEMM 110530
METAR LEVD 110530Z NIL=
METAR LEVS 110530Z NIL=
METAR LESA 110530Z 00000KT CAVOK M01/M02 Q1016=

0000028700
454
SASP34 LEMM 110530
METAR LEDA 110530Z NIL=
METAR LEJR 110530Z 00000KT CAVOK 12/11 Q1015=
METAR LELL 110530Z NIL=
METAR LEPP 110530Z VRB01KT 0100 R33/0450N R15/0325N FG VV001
03/03 Q1018=
METAR LEXJ 110530Z 00000KT 7000 -DZ FEW006 SCT008 OVC015 11/10
Q1018=

00000000