0000012100
275
SPUS44 KWBC 110814
SPECI
KPAE 110810Z AUTO 15011G19KT 4SM -RA BR FEW006 SCT016 OVC025 09/08
A2954=

0000013700
276
SACA33 KWBC 110800 RRC
METAR
TNCM 110800Z 08013KT 060V120 9999 -SHRA BKN015TCU SCT034 24/20
     Q1017 A3004 RERA=

0000009900
277
SAEA20 HKNC 110700 RRA
METAR HKMO 110700Z 04008KT 9999 BKN021 29/20 Q1014 NOSIG=

0000009900
278
SAKN20 HKNC 110700 RRA
METAR HKMO 110700Z 04008KT 9999 BKN021 29/20 Q1014 NOSIG=

0000010800
279
SAMG20 FMMI 110800
METAR FMMI 110800Z 13004KT 9999  BKN017CB  SCT230 28/22 Q1022
NOSIG=

0000010300
280
SAEA20 HKNC 110700 RRB
METAR HKML 110700Z 06010KT 9999 BKN022TCU BKN080 28/23 Q1014=

0000011200
281
SAAF18 LFPW 110800 RRB
METAR FMMI 110800Z 13004KT 9999  BKN017CB  SCT230 28/22 Q1022
NOSIG=

0000084200
282
SASD20 OEJD 110800
METAR OEAB 110800Z 21008KT 9000  RA BKN012 14/13 Q1025 NOSIG=
METAR OEAH 110800Z 15013KT 9999 RA SCT035 BKN100 15/13 Q1020 NOSIG=
METAR OEAO 110800Z 33010KT CAVOK 14/01 Q1024=
METAR OEBA 110800Z 34007KT 7000 SCT030 12/11 Q1023 NOSIG=
METAR OEBH 110800Z NIL=
METAR OEDF 110800Z 18011KT 9999 SCT030 OVC090  16/11 Q1019 NOSIG=
METAR OEDM 110800Z 33015KT CAVOK 13/04 Q1021=
METAR OEDR 110800Z 19009KT 9999 SCT040 BKN080 17/13 Q1018 NOSIG=
METAR OEGN 110800Z 19009KT 9999 SCT030 SCT100 28/22 Q1017 NOSIG=
METAR OEGS 110800Z 30012KT CAVOK 13/08 Q1021=
METAR OEGT 110800Z 30004KT 9999 FEW030 10/03 Q1024 NOSIG=
METAR OEHL 110800Z 32020KT 9999 SCT045 09/04 Q1022 NOSIG=
METAR OEJN 110800Z 01014KT 9999 FEW040 24/10 Q1018 NOSIG=
METAR OEKJ 110800Z 15007KT 9000 FEW040 OVC070 14/10 Q1022=

0000010300
283
SPCN43 CWAO 110813
SPECI CWHN 110813Z AUTO 25007KT 9SM OVC003 M09/M10 A2949 RMK ICG=

0000014900
284
FCLV32 EVRA 110800
TAF EVLA 110814Z 1109/1118 23010KT 9999 BKN013 OVC015 TEMPO
     1112/1118 23012G25KT 5000 -RA BKN007 OVC010=

0000032300
285
SAXX69 EGRR 110800 RRA
METAR KQIR 110758Z 22009KT 8000 RA BR SCT020 SCT028 OVC041 15/15 A3015
      RMK AO2A SLP212 WND DATA ESTMD P0015 T01540154 VISNO RWY16
      CHINO RWY16 $=
METAR KQTZ 110755Z 13008KT 5000 BR SCT006 BKN008 OVC010 10/07 A3008
      RMK SLP185 WND DATA ESTMD ALSTG/SLP ESTMD=

0000016900
286
SAAP32 FAPR 110800 RRA
METAR FVHA 110800Z 06009KT 030V110 9999 BKN020 25/19 Q1022 NOSIG=
METAR FYWH 110800Z AUTO 15007KT //// // ////// 22/03 Q1023=

0000008800
287
SAAL41 DAMM 110800 RRD
METAR DAAP 110800Z 00000KT CAVOK 11/M01 Q1022=

0000046300
288
SAPS31 NFFN 110800
METAR NCRG 110800Z NIL=
METAR NFFN 110800Z 14005KT 9999 FEW030 26/21 Q1006 NOSIG=
METAR NFNA 110800Z 18007KT 9999 BKN023 27/23 Q1006=
METAR NGFU 110800Z NIL=
METAR NGTA 110800Z NIL=
METAR NIUE 110800Z NIL=
METAR NSFA 110800Z NIL=
METAR NSTU 110800Z NIL=
METAR NTAA 110800Z 00000KT 9999 FEW020 26/21 Q1013 NOSIG=
METAR NWWW 110800Z AUTO 14013KT 9999 FEW060/// SCT082/// 25/17 Q1010=
METAR PLCH 110800Z NIL=

0000015200
289
FCPO32 LPMG 110800
TAF LPHR 110800Z 1109/1118 31018KT 9999 SCT020 TEMPO 1109/1118
         31023G33KT 5000 SHRAGS BKN015 FEW018TCU=

0000030700
290
FTUS42 KWBC 110815 AAA
TAF AMD
KMOB 110812Z 1108/1206 19013KT 5SM -DZ BR OVC003
     FM111100 23011G15KT 5SM -TSRA OVC003CB
      TEMPO 1112/1113 VRB15G25KT 1SM TSRA OVC003CB
     FM111500 27012KT 5SM BR OVC007
     FM111900 30012KT P6SM SCT015
     FM120200 30007KT P6SM SKC=

0000074300
291
FTUS72 KWBC 110815 AAA
TAF AMD
KBFM 110814Z 1108/1206 17007KT 1/2SM -DZ FG VV002
     FM111100 22010G15KT 4SM -TSRA OVC003CB
      TEMPO 1112/1113 VRB15G25KT 1SM TSRA OVC003CB
     FM111500 27012KT 5SM BR OVC007
     FM111900 30012KT P6SM SCT015
     FM120200 30006KT P6SM SKC=
KGWO 110812Z 1108/1206 23009G16KT P6SM SCT018 BKN024 OVC045
     FM110900 25010KT 4SM -DZ BR OVC008
     FM111300 28011KT P6SM SCT035
     FM111600 28012G20KT P6SM SKC=
KMOB 110812Z 1108/1206 19013KT 5SM -DZ BR OVC003
     FM111100 23011G15KT 5SM -TSRA OVC003CB
      TEMPO 1112/1113 VRB15G25KT 1SM TSRA OVC003CB
     FM111500 27012KT 5SM BR OVC007
     FM111900 30012KT P6SM SCT015
     FM120200 30007KT P6SM SKC=

0000021400
292
FTUS74 KWBC 110815 AAA
TAF AMD
KSNA 110812Z 1108/1206 22006KT 5SM HZ VCFG FEW250
     FM111600 VRB05KT 6SM HZ FEW010
     FM112100 22006KT P6SM FEW250
     FM120400 VRB03KT 5SM BR BKN008=

0000010500
293
SANM40 FYWW 110800 CCA
METAR COR FYGB 110800Z AUTO 08008KT //// // ////// 29/06 Q1021=

0000012800
294
SPCN31 CWAO 110814
SPECI CYZX 110814Z 00000KT 3SM -DZ BR FEW004 OVC011 RMK SF1SF7 WNDY
HILL UNAVBL CIG RAG=

00000000