0000009700
315
SPUS42 KWBC 110735
SPECI
KSSI 110731Z AUTO 17005KT 1SM BR VV002 15/15 A3004=

0000011600
316
SPUS43 KWBC 110735
SPECI
KAPN 110733Z AUTO 18009KT 10SM -RA SCT007 BKN016 OVC050 03/02
A2947=

0000023800
317
FTUS31 KWBC 110736 AAA
TAF AMD
KCLE 110732Z 1108/1212 19010G20KT 3SM -RA BR SCT007 OVC019
     FM111800 22010G20KT P6SM -RA OVC007
     FM112000 24010G20KT P6SM OVC015
     FM120400 24010G20KT P6SM -RASN OVC015=

0000032700
318
FTUS72 KWBC 110736 AAA
TAF AMD
KMSL 110734Z 1108/1206 18010G15KT 5SM -SHRA BR SCT009 OVC025
      WS015/20045KT
      TEMPO 1108/1110 OVC009
     FM111000 24012G20KT 6SM BR VCSH OVC015
     FM111400 27012KT P6SM SCT025 BKN120
     FM111800 30015G25KT P6SM SCT250
     FM120000 VRB04KT P6SM SKC=

0000023800
319
FTUS71 KWBC 110736 AAA
TAF AMD
KCLE 110732Z 1108/1212 19010G20KT 3SM -RA BR SCT007 OVC019
     FM111800 22010G20KT P6SM -RA OVC007
     FM112000 24010G20KT P6SM OVC015
     FM120400 24010G20KT P6SM -RASN OVC015=

0000009800
320
SANL33 EHDB 110725 RRA
METAR EHJR 110725Z AUTO 24029G35KT  08/08 Q1009 W10/H22=

0000010200
321
SANL33 EHDB 110725 RRB
METAR EHSC 110725Z AUTO 22025G28KT 6000 06/06 Q1012 W08/H15=

0000010200
322
SANL33 EHDB 110725 RRC
METAR EHSA 110725Z AUTO 22027G31KT 9999 08/06 Q1012 W09/H18=

0000009300
323
SADN31 EKCH 110720 RRA
METAR EKRN 110720Z 25016KT 9999 BKN009 06/06 Q1008=

0000009300
324
SADN31 EKCH 110720 RRB
METAR EKRN 110720Z 25016KT 9999 BKN009 06/06 Q1008=

0000031300
325
SAAL31 DAAA 110730
METAR DAAG 110730Z 26004KT 120V230 9999 FEW030 SCT040 12/08 Q1019=
METAR DAAT 110730Z 09004KT 060V120 CAVOK 13/M02 Q1024=
METAR DABB 110730Z NIL=
METAR DABC 110730Z 22003KT CAVOK 05/01 Q1020=
METAR DAON 110730Z NIL=
METAR DAOO 110730Z NIL=
METAR DAUH 110730Z NIL=

0000024100
326
SAIE32 EIDB 110730
METAR EICM 110730Z NIL=
METAR EIDL 110730Z NIL=
METAR EIKY 110720Z 08002KT 9999 NSC M01/M02 Q1018=
METAR EIME 110730Z NIL=
METAR EISG 110730Z NIL=
METAR EIWF 110730Z VRB03KT CAVOK 00/M01 Q1018=

0000259100
327
SPUS70 KWBC 110736
SPECI
K2DP 110732Z AUTO 18010G29KT 2 1/2SM +SHRA VCTS BKN011 18/17 A3009
     RMK AO2 WSHFT 21 VIS 1 5/8V2 1/2 LTG DSNT N=
KNFE 110728Z AUTO 16006KT 3SM +RA BR FEW005 BKN014 OVC024 18/16
     A3007 RMK AO2 P0016 T01780156=
KMGY 110732Z AUTO 19008KT 7SM -RA BKN007 BKN024 OVC075 09/09 A2965
     RMK AO2 P0010 T00940089=
KORD 110732Z 22012KT 6SM -RA BR OVC005 04/03 A2945 RMK AO2
     DZE03RAB03 P0000 T00440028 $=
KOSU 110732Z AUTO 17009KT 5SM RA BR FEW019 BKN055 OVC075 09/08
     A2969 RMK AO2 RAB05 P0003 T00890083=
KRDG 110732Z 34003KT 2SM -RA BR OVC003 01/00 A3005 RMK AO2 RAB04
     P0001=
KDET 110732Z AUTO 18011KT 6SM -RA BR OVC005 07/05 A2959 RMK AO2
     P0001=
KDHN 110732Z AUTO 18010G19KT 2 1/2SM BR OVC002 18/18 A2998 RMK AO2
     LTG DSNT W=
KGSH 110732Z AUTO 19011KT 1/2SM FG OVC002 06/04 A2954 RMK AO2=
KGVL 110732Z AUTO 10010KT 2SM -RA BR OVC002 08/07 A2993 RMK AO2
     LTG DSNT S-W RAB22 PRESFR P0004=
KHFD 110732Z AUTO 00000KT 1/2SM -RA FG OVC003 02/01 A3018 RMK AO2
     RAE16B20 P0000 T00170011=
KHUF 110732Z 18011KT 1 3/4SM BR OVC002 06/ A2955 RMK AO2 RAE02
     P0000 $=
KIJD 110732Z AUTO 00000KT 3/4SM -RA BR VV004 01/M01 A3019 RMK AO2
     RAB31 P0000 T00061006 $=
KIND 110732Z 22004KT 3/4SM R05L/1800VP6000FT BR OVC004 03/03 A2957
     RMK AO2 FG OVR RWY $=
K1M4 110733Z AUTO 22013G24KT 1SM +TSRA BR BKN001 BKN009 OVC019
     13/13 A2977 RMK AO2 BKN V SCT LTG DSNT ALQDS P0056 PK WND
     26030/0714=
KAHN 110733Z AUTO 09004KT 3/4SM -RA BR VV002 07/07 A2995 RMK AO2
     LTG DSNT W P0002=
KAMG 110733Z AUTO 18006KT 1 3/4SM BR OVC003 18/17 A3002 RMK AO2
     T01830172 $=
KAND 110733Z AUTO 04003KT 1 3/4SM BR OVC004 08/08 A2997 RMK
     AO2=
KASX 110733Z AUTO 00000KT 4SM BR BKN018 OVC029 M04/M05 A2944 RMK
     AO2 SNB05E25 P0000=
KAVL 110733Z AUTO 00000KT 3SM -RA BR SCT003 BKN009 OVC014 07/07
     A2996 RMK AO2 P0002=
KFRG 110733Z AUTO 16011KT 6SM -RA BR FEW002 OVC060 08/08 A3015 RMK
     AO2 P0000=
KTTN 110733Z AUTO 07004KT 3/4SM BR VV002 03/02 A3008 RMK AO2=
KGZH 110733Z AUTO 19012G20KT 8SM OVC006 20/19 A2991 RMK AO2
     RAB04E23 CIG 004V009 P0000 T02000189=
KHYR 110733Z AUTO 00000KT 5SM BR OVC005 M04/M05 A2942 RMK AO2
     SNE02 P0000=
KJFK 110733Z 14005KT 4SM R04R/3500VP6000FT -RA BR SCT006 BKN045
     OVC060 07/07 A3015 RMK AO2 VIS 1 1/2 W P0005 $=
KOKB 110733Z AUTO 00000KT 1SM BR VV009 06/04 A3010 RMK AO2 TSNO
     $=
KOWB 110733Z AUTO 19009KT 6SM -RA BR FEW006 BKN065 08/08 A2961 RMK
     AO2 P0000=

0000011300
328
SPUS31 KWBC 110736
SPECI
KIND 110732Z 22004KT 3/4SM R05L/1800VP6000FT BR OVC004 03/03 A2957=

0000009700
329
SPUS31 KWBC 110736
SPECI
KORD 110732Z 22012KT 6SM -RA BR OVC005 04/03 A2945=

0000004200
330
SAHA31 KWBC 110730
NIL=

0000017400
331
SAAF18 LFPW 110700 RRB
METAR FMMT 110700Z 08004KT 9999 VCSH SCT017TCU 31/26 Q1014 NOSIG=
METAR FMNM 110700Z 20004KT 9999 FEW020 SCT230 31/23 Q1013 NOSIG=

0000020600
332
FTSP31 LEMM 110500 AAA
TAF AMD LEPA 110732Z 1107/1206 06005KT 9999 FEW015 TX17/1112Z
TN07/1107Z PROB40 TEMPO 1107/1108 4000 BR BKN009 PROB30
TEMPO 1107/1111 BKN009 TEMPO 1115/1122 RA=

0000018700
333
FCDL34 EDZO 110500 RRB
TAF EDHK 110729Z 1107/1115 22012KT 6000 BKN012 BECMG 1107/1110
     22015G25KT TEMPO 1107/1115 3000 RADZ BKN007 PROB30 1111/1115
     BKN003=

0000018700
334
FCDL35 EDZO 110500 RRB
TAF EDHK 110729Z 1107/1115 22012KT 6000 BKN012 BECMG 1107/1110
     22015G25KT TEMPO 1107/1115 3000 RADZ BKN007 PROB30 1111/1115
     BKN003=

00000000