0000068000
495
SAJP43 KWBC 110900
METAR
RJKI NIL=
RJKN NIL=
RJNF NIL=
RJNG NIL=
RJNH NIL=
RJNO NIL=
RJNT 110900Z 19004KT 6000 -SHSNRA FEW008 BKN015 BKN040 01/00
     Q1027=
RJNY NIL=
RJOA 110900Z 01006KT 9999 FEW040 SCT/// 02/M04 Q1027=
RJOB 110900Z VRB02KT 9999 FEW040 SCT180 02/M05 Q1027=
RJOC 110900Z 18004KT 9999 FEW035 SCT050 02/M01 Q1028=
RJOE NIL=
RJOF NIL=
RJOI 110855Z 31006KT 9999 FEW030 SCT200 06/M04 A3035 RMK SLP278
     T00561039 53007=
RJOK 110900Z 02007KT 9999 FEW050 SCT160 BKN/// 06/M04 Q1027=
RJOM 110900Z 04003KT 9999 FEW030 SCT160 07/M04 Q1028=
RJOP NIL=
RJOR 110900Z 23005KT 9999 FEW020 SCT030 BKN045 04/M01 Q1027=

0000053300
496
SAJP44 KWBC 110900
METAR
RJOS NIL=
RJOT 110900Z 22003KT 190V260 9999 FEW040 SCT/// 03/M04 Q1027=
RJOY 110900Z 35005KT 320V020 9999 FEW030 BKN050 07/M04 Q1027=
RJOZ NIL=
RJSA 110900Z 25013KT 2500 -SHSN FEW003 BKN007 BKN010 M06/M07
     Q1021=
RJSC 110900Z 00000KT 9999 -SHSN FEW005 BKN030 M01/M03 Q1024=
RJSD NIL=
RJSH NIL=
RJSI 110900Z 26004KT 200V330 9999 FEW030 M04/M08 Q1022=
RJSO NIL=
RJST NIL=
RJSU NIL=
RJTA NIL=
RJTC NIL=
RJTE NIL=
RJTF 110900Z NIL=
RJTH NIL=
RJTI NIL=

0000020000
497
SAJP45 KWBC 110900
METAR
RJTJ NIL=
RJTK NIL=
RJTL NIL=
RJTO NIL=
RJTQ NIL=
RJTR NIL=
RJTU NIL=
RJTX NIL=
RJTY 110858Z 28004KT 10SM CLR 05/M08 A3028 RMK A02 SLP262=

0000010700
498
UANT99 KDDL 111709
ARP UAL971 62N030W 1709 F310 MS60 219/74 KT
N643UA DDL KEF 111709 F87A
0000009900
499
SPUS41 KWBC 110919
SPECI
KLWM 110915Z AUTO 00000KT 3/4SM BR VV003 02/01 A3016=

0000009700
500
SPUS43 KWBC 110919
SPECI
KAZO 110915Z AUTO 18009KT 1SM BR VV002 04/03 A2946=

0000010300
501
SPUS43 KWBC 110919
SPECI
KSUS 110915Z AUTO 25009KT 10SM SCT021 OVC027 06/02 A2958=

0000064200
502
SAUK20 EGGY 110920
METAR EGRE 110920Z AUTO 06013KT 9999 SCT017/// SCT020/// BKN025///
     02/M01 Q0999 W///S5=
METAR EGRK 110920Z AUTO 30035KT 9999 SCT018/// 05/01 Q0999 W///S5=
METAR EGRM 110920Z AUTO 29024KT 9999 RA FEW015/// SCT021/// 05/02
     Q1003 W///S5=
METAR EGRO 110920Z AUTO 30028KT //// // ///////// 06/01 Q1004 W///S5=
METAR EGRP 110920Z AUTO 27012G26KT 9999 FEW026/// ///// Q1005 W///S4=
METAR EGRS 110920Z AUTO 29026KT 9999 FEW030/// 06/M01 Q1005 RERA
     W///S5=
METAR EGRV 110920Z AUTO 28019KT 9999 NCD 07/02 Q1013 W///S4=
METAR EGRW 110920Z AUTO 29019KT 9999 NCD 07/02 Q1013 W///S4=

0000046200
503
SAUK21 EGGY 110920
METAR EGRF 110920Z AUTO 28030KT 9999 FEW023/// SCT029/// 06/00 Q1000
     RERA W///S6=
METAR EGRG 110920Z AUTO 08014KT 9999 SCT011/// 03/01 Q0998 W///S5=
METAR EGRI 110920Z AUTO 28027KT 9999 NCD 06/M00 Q1002=
METAR EGRL 110920Z AUTO 29033KT 240V310 9999 SCT019/// 06/02 Q1000
     W///S5=
METAR EGRN 110920Z AUTO 29024KT 9999 FEW031/// 06/M01 Q1007=
METAR EGRT 110920Z AUTO /////KT 9999 NCD 06/00 Q1013 W///S4=

0000014800
504
SAFA31 EKCH 110920
METAR EKVG 110920Z AUTO 29020G33KT 9999NDV -SHRA  BKN022///
04/01 Q0999 RMK BKN021/// WIND 850FT 31042G57KT=

0000011600
505
SALV31 EVRA 110920
METAR EVRA 110920Z VRB05KT 9999 SCT013 OVC019 01/M00 Q1003 R18/190060
NOSIG=

0000063800
506
FXUK65 EGRR 110919
WAFC LONDON HAS IDENTIFIED A PROBLEM WITH THE FOLLOWING
WAFS SIGWX BULLETIN[S] VALID AT 120000 UTC:

BUFR JUBE99 AND PNG PGAE05, PGSE05 - EGRR ISSUED AT
110000

MISSING CB AREA:

AFFECTING GEOGRAPHICAL AREA: EASTERN SEABOARD OF UNITED
STATES.

AND ICAO CHART AREA(S): SWH H AND B.

USERS ARE ADVISED THAT AN AREA OF ISOL EMBD CB BASE XXX
TOP 400 BOUNDED BY N4000 W07300; N4000 W07000; N03600
W07000; N02500 W08600; N02600 W08800; N4000 W07300 SHOULD
HAVE BEEN INCLUDED.


WAFC LONDON WILL NOT RE-TRANSMIT BUFR OR PNG SIGWX
PRODUCTS.

ISSUED BY WAFC LONDON=

0000010200
507
SACN49 CWAO 110900
METAR CYDP 110900Z 30011G17KT 15SM SKC M17/M23 A2984 RMK SLP107=

0000033000
508
FTXX69 EGRR 110800 AAB
TAF AMD KQIR 1109/1213 20012KT 8000 -SHRA SCT029 BKN050 QNH3006INS
     BECMG 1110/1111 23012KT 9999 NSW SCT040 BKN080 QNH3010INS
     BECMG 1121/1122 31010G15KT 8000 BR FEW040 QNH3014INS
     BECMG 1205/1206 33010G15KT 9999 NSW SKC QNH3016INS T19/1111Z
     T15/1203Z AMD 110910=

0000062000
509
FTXX69 EGRR 110900
TAF AMD KQIR 1108/1213 20012KT 8000 -SHRA BR BKN018 OVC030 QNH3006INS
     BECMG 1110/1111 23012KT 9999 NSW SCT040 BKN080 QNH3010INS
     BECMG 1121/1122 31010G15KT 8000 BR FEW040 QNH3014INS
     BECMG 1205/1206 33010G15KT 9999 NSW SKC QNH3016INS T19/1111Z
     T15/1203Z AMD 110819=
TAF AMD KQIR 1109/1213 20012KT 8000 -SHRA SCT029 BKN050 QNH3006INS
     BECMG 1110/1111 23012KT 9999 NSW SCT040 BKN080 QNH3010INS
     BECMG 1121/1122 31010G15KT 8000 BR FEW040 QNH3014INS
     BECMG 1205/1206 33010G15KT 9999 NSW SKC QNH3016INS T19/1111Z
     T15/1203Z AMD 110910=

0000193400
510
SPUS70 KWBC 110920
SPECI
KPHL 110916Z 32005KT 1SM R09R/4500VP6000FT BR BKN002 OVC015 05/03
     A3000 RMK AO2 RAB0858E15 P0000 $=
KPIL 110917Z AUTO 22008KT 1 1/4SM BR OVC002 19/18 A2992 RMK
     AO2=
KTDZ 110916Z AUTO 18012KT 2 1/2SM BR FEW021 SCT028 OVC038 04/03
     A2955 RMK AO2 RAE05 P0000 TSNO=
KAXN 110916Z AUTO 30011KT 10SM OVC011 M06/M08 A2947 RMK AO2=
KBAZ 110916Z AUTO 29005KT 1SM BR VV002 09/09 A2990 RMK AO2=
KBOK 110916Z AUTO 17011G19KT 4SM BR OVC002 10/10 A3005 RMK AO2 CIG
     001V006 $=
KCEU 110916Z AUTO 06003KT 2SM TSRA BR SCT004 BKN014 OVC050 09/08
     A2993 RMK AO2 LTG DSNT SE AND S P0021=
KDCU 110916Z AUTO 10SM -TSRA FEW030 BKN037 OVC049 14/14 A2968 RMK
     AO2 LTG DSNT ALQDS TSE06B10 P0005 $=
KDEW 110916Z AUTO 16010KT 10SM UP FEW022 OVC034 03/01 A2970 RMK
     AO2 RAE13UPB13 P0001 T00280011=
KDPA 110916Z 21006KT 1/4SM R02L/2800FT FG VV002 03/02 A2943 RMK
     AO2=
KFTY 110916Z 00000KT 1 3/4SM +RA BR FEW008 BKN037 OVC070 12/11
     A2985 RMK AO2 P0014=
KJMS 110916Z AUTO 32015KT 10SM OVC008 M03/M05 A2956 RMK AO2 CIG
     007V010 T10331050=
KNFE 110915Z AUTO VRB05KT 7SM -RA OVC007 18/16 A3003 RMK AO2
     RAE00B15 P0000 T01780156=
KHKY 110917Z AUTO 00000KT 2SM -RA BR OVC004 06/05 A2994 RMK AO2
     P0001=
KIAD 110917Z 00000KT 3/4SM R01R/4000V5500FT -RA BR VV003 02/01
     A2997 RMK AO2 P0000=
KIWI 110916Z AUTO 00000KT 1 3/4SM BR OVC005 M02/M03 A3021 RMK AO2
     T10221033=
KAMG 110917Z AUTO 19007KT 1 1/2SM BR OVC002 19/18 A2998 RMK AO2
     T01890178 $=
KBNA 110917Z 19006KT 3SM +RA BR BKN035 OVC044 12/11 A2968 RMK AO2
     P0017=
KCSV 110917Z AUTO 18009G21KT 140V210 3SM TSRA BR OVC004 12/11
     A2968 RMK AO2 LTG DSNT ALQDS TSE05B11 P0005=
KRWI 110917Z AUTO 13004KT 3/4SM BR VV003 17/16 A2998 RMK AO2
     T01670161=
KVRB 110917Z 17003KT 2 1/2SM BR CLR 21/21 A3007 RMK AO2 VIS 1
     3/4V3=

0000013100
511
SPUS31 KWBC 110920
SPECI
KLAX 110917Z 00000KT 2 1/2SM R25R/0600VP6000FT BR FEW003 SCT010
SCT250 11/09 A3012=

0000012000
512
SPUS31 KWBC 110920
SPECI
KPHL 110916Z 32005KT 1SM R09R/4500VP6000FT BR BKN002 OVC015 05/03
A3000=

0000012100
513
SPUS41 KWBC 110920
SPECI
KAVP 110916Z AUTO 00000KT 1SM R04/3500VP6000FT -RA BR OVC014 04/04
A2993=

0000010200
514
SPUS41 KWBC 110920
SPECI
KCEF 110917Z AUTO 04003KT 2SM -RA BR OVC002 00/00 A3009=

00000000