0000017200
175
FTFR34 LFPW 110500 AAE
TAF AMD LFBI 110809Z 1108/1206 18005KT 1500 BR BKN040 TEMPO 1109/1112
 1200 BR BKN008 BKN030 BECMG 1112/1115 8000 SCT018 BKN040=

0000010900
176
SAFR32 LFPW 110800 RRA
METAR LFCK 110800Z AUTO 09003KT 8000 -RA BKN024 OVC029 08/07 Q1020=

0000010000
177
SAAL41 DAMM 110800 RRB
METAR DAUB 110800Z /////KT 9999 FEW040 BKN100 08/06 Q1021=

0000011700
178
SAAF05 LFPW 110800 RRA
METAR DBBB 110800Z VRB03KT 2500  BR SCT008 BKN200 26/26 Q1012 TEMPO
1400=

0000016500
179
SAAF08 LFPW 110800 RRA
METAR DFFD 110800Z 08006KT 4000 DU NSC 23/02 Q1016 NOSIG=
METAR GABS 110800Z 02006KT 6000  NSC 20/09 Q1015 TEMPO 4000 DU=

0000028500
180
SAAF13 LFPW 110800 RRA
METAR GGOV 110800Z 35004KT CAVOK 17/10 Q1013 NOSIG=
METAR GOGG 110800Z 02004KT CAVOK 18/10 Q1014=
METAR GOGS 110800Z 36008KT CAVOK 17/12 Q1014=
METAR GOSS 110800Z 04006KT CAVOK 14/14 Q1014=
METAR GOTT 110800Z 00000KT CAVOK 20/10 Q1013=

0000015800
181
SAAF14 LFPW 110800 RRA
METAR DRRN 110800Z 07010KT 2500 DU NSC 21/M01 Q1017 NOSIG=
METAR FTTJ 110800Z 06014KT 7000  NSC 20/03 Q1019 NOSIG=

0000033100
182
SAAF17 LFPW 110800 RRA
METAR HEAX 110800Z 18003KT 9999 SCT020 17/11 Q1026 NOSIG=
METAR HEGN 110800Z 33016KT 8000 NSC 18/11 Q1025 NOSIG=
METAR HELX 110800Z 00000KT CAVOK 17/09 Q1025 NOSIG=
METAR HEMM 110800Z 24010KT 9999 SCT020 BKN025 14/11 Q1027 NOSIG=
METAR HESN 110800Z 35010KT CAVOK 15/06 Q1025 NOSIG=

0000028600
183
SAIN34 VOMM 111710
METAR VOHS 111710Z 00000KT 5000 HZ SCT020 19/14 Q1018 NOSIG=
METAR VOMM 111710Z 07004KT 6000 FEW020 23/19 Q1015 NOSIG=
METAR VOTR 111710Z 09005KT 4000 HZ NSC 23/20 Q1015 NOSIG=
METAR VOTV 111710Z 00000KT 4000 HZ FEW015 26/23 Q1013 TEMPO 3000 HZ=
0000015300
184
SAAF27 LFPW 110800 RRA
METAR DGAA 110751Z 26005KT 8000 NSC 26/25 Q1012 NOSIG=
METAR GUCY 110800Z 36004KT 8000 NSC 23/21 Q1012 NOSIG=

0000010100
185
SPCN52 CWAO 110805
SPECI CWSA 110805Z AUTO 23011KT 9SM BKN019 OVC032 02/M00 A3037=

0000018400
186
FTFR38 LFPW 110500 AAC
TAF AMD LFST 110810Z 1108/1206 VRB02KT 9999 BKN020 TEMPO 1108/1115
3000 -RA BKN002 BECMG 1115/1118 30005KT PROB30 TEMPO 1121/1206 3000
BR=

0000042600
187
FTUS52 KWBC 110812
TAF
TAF AMD KPBG 110805Z 1108/1206 00000KT P6SM FEW020 SCT035 OVC060
      TEMPO 1108/1110 3SM BR SCT008
     FM111000 15005KT P6SM VCSH SCT010 BKN025 OVC035
      TEMPO 1110/1113 4SM -FZDZ BR BKN015 OVC020
     FM111300 15010KT 3SM -RA BR OVC011 WS020/18050KT
     FM111500 16010G18KT 4SM -RA BR OVC008 WS020/18050KT
     FM111800 18010G16KT 3SM RA BR SCT004 BKN006 OVC008=

0000024200
188
FTUS53 KWBC 110812
TAF
TAF KRFD 110804Z 1108/1206 18012KT 1/2SM FG VV002
      TEMPO 1108/1109 0SM FG VV001
     FM110900 26010KT P6SM OVC007
     FM111600 27014G22KT P6SM OVC015
     FM112200 27010KT P6SM SCT015=

0000095800
189
FTUS80 KWBC 110812 AAA
TAF AMD
KGSO 110811Z 1108/1206 05004KT 2SM -RA BR OVC002 WS010/19035KT
      TEMPO 1108/1111 3/4SM BR
     FM111100 12004KT 2SM -RA BR OVC002 WS010/19040KT
      TEMPO 1111/1113 3/4SM BR
     FM111500 19013G20KT 5SM -SHRA OVC006
     FM112100 25016G23KT P6SM FEW025 BKN100
     FM120200 28012KT P6SM SCT100=
KRDU 110809Z 1108/1206 14004KT 2SM BR OVC002 WS010/19035KT
      TEMPO 1108/1111 1/2SM FG
     FM111100 16004KT 2SM BR OVC002 WS010/19040KT
      TEMPO 1111/1113 1/2SM FG
     FM111500 20015G28KT P6SM BKN008
      TEMPO 1117/1121 28025G40KT 2SM SHRA BR
     FM112100 25015G25KT 6SM -SHRA SCT025 OVC080
     FM120200 28012KT P6SM BKN080=
PAJN 110810Z 1108/1206 08005KT P6SM VCFG FEW003 BKN050
      TEMPO 1108/1110 00000KT 3SM BR BKN003
     FM111000 VRB02KT 3SM BCFG SCT003 BKN040
     FM111800 00000KT P6SM SCT025 BKN070
     FM120300 VRB04KT P6SM VCSH BKN035 OVC070=

0000062700
190
FTUS80 KWBC 110812
TAF
TAF AMD KPBG 110805Z 1108/1206 00000KT P6SM FEW020 SCT035 OVC060
      TEMPO 1108/1110 3SM BR SCT008
     FM111000 15005KT P6SM VCSH SCT010 BKN025 OVC035
      TEMPO 1110/1113 4SM -FZDZ BR BKN015 OVC020
     FM111300 15010KT 3SM -RA BR OVC011 WS020/18050KT
     FM111500 16010G18KT 4SM -RA BR OVC008 WS020/18050KT
     FM111800 18010G16KT 3SM RA BR SCT004 BKN006 OVC008=
TAF KRFD 110804Z 1108/1206 18012KT 1/2SM FG VV002
      TEMPO 1108/1109 0SM FG VV001
     FM110900 26010KT P6SM OVC007
     FM111600 27014G22KT P6SM OVC015
     FM112200 27010KT P6SM SCT015=

0000235800
191
SPUS70 KWBC 110812
SPECI
PATQ 110808Z AUTO 24007KT 1 3/4SM HZ OVC006 M23/M26 A2980 RMK AO2
     TSNO=
KABY 110808Z 19012G19KT 10SM BKN006 OVC010 19/19 A2998 RMK AO2 CIG
     003V008=
KAHN 110808Z AUTO 11003KT 1/2SM VCTS FG VV002 07/07 A2993 RMK AO2
     LTG DSNT SW AND NW TSB02RAE0759 P0000=
KAMG 110808Z AUTO 17006KT 1/4SM FG VV002 18/17 A3000 RMK AO2
     T01830172 $=
KASD 110808Z AUTO 19010KT 10SM FEW007 OVC014 19/18 A2985 RMK AO2
     T01890178 TSNO=
KFFC 110808Z AUTO VRB05KT 3/4SM +TSRA BR SCT003 BKN013 OVC018
     13/13 A2990 RMK AO2 LTG DSNT ALQDS TSB03 P0030 T01280128=
KGLH 110808Z AUTO 30010KT 10SM FEW011 BKN038 OVC045 17/12 A2975
     RMK AO2=
KHYA 110808Z 20008KT 1SM -RA BR VV002 07/06 A3021 RMK AO2 RAB0759
     P0000 T00670061=
KIZG 110808Z AUTO 00000KT 10SM OVC027 M07/M11 A3022 RMK AO2
     T10671106=
KLBX 110808Z AUTO 24006KT 1 3/4SM BR OVC002 17/17 A2988 RMK AO2
     $=
KLGB 110808Z 00000KT 1 1/2SM BR BKN002 OVC010 12/09 A3011 RMK
     AO2=
KLHQ 110808Z AUTO 21003KT 1 1/2SM +RA BR BKN019 BKN035 OVC045
     11/09 A2971 RMK AO2 VIS 3/4V3 RAB0758 P0013=
KPSF 110808Z AUTO VRB04KT 1/2SM -FZRA FG VV002 00/00 A3007 RMK AO2
     P0000=
KTTN 110808Z AUTO 06004KT 3/4SM BR VV002 03/03 A3006 RMK AO2=
PATQ 110808Z AUTO 24007KT 1 3/4SM HZ OVC006 M23/M26 A2980 RMK AO2
     TSNO=
K1M4 110809Z AUTO 24014G19KT 1SM +TSRA BR BKN001 BKN006 OVC024
     14/14 A2974 RMK AO2 BKN V SCT LTG DSNT ALQDS P0019=
KGEZ 110809Z AUTO 20008KT 1/4SM FG VV002 07/ A2958 RMK AO2 T0067
     $=
KMEI 110809Z AUTO 19015G20KT 9SM -RA BKN010 BKN015 OVC020 19/18
     A2976 RMK AO2 LTG DSNT NE-SE TSE03 CIG 007V012 P0001=
KMGJ 110809Z AUTO 36003KT 1 3/4SM -RA BR OVC003 01/00 A3007 RMK
     AO2 P0000 T00060000 TSNO=
KMNN 110809Z AUTO 18015KT 5SM RA BR FEW010 BKN015 OVC070 08/08
     A2964 RMK AO2 P0003 TSNO=
KORD 110809Z 22008KT 4SM -RA BR OVC004 04/02 A2942 RMK AO2
     DZE09RAB09 P0000 T00390022 $=
PAPB 110809Z AUTO 09025G33KT 3SM -SN BR SCT010 OVC014 01/01 A2888
     RMK AO2 PK WND 10033/0803 P0000 T00110006 TSNO $=
KDWH 110809Z 23004KT 3SM BR BKN004 16/16 A2985 RMK AO2=
KGRB 110809Z AUTO VRB05KT 2 1/2SM BR OVC003 01/01 A2939 RMK AO2
     T00110011=
KSLK 110809Z AUTO 00000KT 3SM BR SCT002 BKN018 OVC025 M06/M06
     A2990 RMK AO2 PRESFR=

0000011900
192
SPUS41 KWBC 110812
SPECI
KCEF 110810Z AUTO 35002KT 1 1/2SM R23/5500FT -DZ BR OVC002 00/00
A3014=

0000009500
193
SPCN51 CWAO 110811
SPECI CWCL 110811Z AUTO 15007KT 3SM OVC005 M02/M06 A2924=

0000034600
194
SAAG31 KWBC 110800 RRA
METAR
SAAR 110800Z 14014KT CAVOK 19/11 Q1013=
SARC 110800Z 00000KT 9999 FEW050CB BKN100 OVC200 27/24 Q1008=
SARE 110800Z 05003KT 9999 FEW056CB OVC100 26/24 Q108=
SARF 110800Z 36004KT CAVOK 27/22 Q1008=
SASJ 110800Z 32002KT 9999 FEW030 SCT100 24/19 Q1010=
SAWE 110800Z NIL=
SAZM 110800Z NIL=

00000000