0000011000
735
SALT33 EYVI 110520
METAR EYPA 110520Z 28005KT 170V340 9999 BKN014 03/00 Q1005
R01/2///95=

0000021200
736
SASB31 VCCC 110510
METAR VCBI 110510Z 04005KT CAVOK  30/20 Q1013 NOSIG=
METAR VRMM 110500Z 07013KT 9000 FEW018 30/24 Q1014 NOSIG=
METAR VCRI 110510Z 04011KT 8000 FEW016   30/21 Q1013 NOSIG=

0000027300
737
FCIY35 LIIB 110500
TAF LIRG 110500Z 1106/1115 NIL=
TAF LIRH 110500Z 1106/1115 NIL=
TAF LIRL 110500Z 1106/1115 NIL=
TAF LIRM 110500Z 1106/1115 NIL=
TAF LIRS 110500Z 1106/1115 NIL=
TAF LIRU 110500Z 1106/1115 NIL=
TAF LIRV 110500Z 1106/1115 NIL=

0000023900
738
FCIY36 LIIB 110500
TAF LIBC 110500Z 1106/1115 VRB05KT 9999 SCT030=
TAF LIBF 110500Z 1106/1115 NIL=
TAF LIBG 110500Z 1106/1115 NIL=
TAF LIRZ 110500Z 1106/1115 VRB04KT 0300 FG OVC002 BECMG 1109/1111
3000 BR SCT030=

0000025300
739
FCIY37 LIIB 110500
TAF LICD 110500Z 1106/1115 20012KT 9999 SCT030=
TAF LICG 110500Z 1106/1115 NIL=
TAF LICR 110500Z 1106/1115 VRB06KT 9999 SCT030=
TAF LICT 110500Z 1106/1115 14013KT 9999 FEW020  TEMPO 1106/1112
14020KT SCT050=

0000015100
740
FCRM31 LUKK 110500
TAF LUKK 110520Z 1106/1115 26012KT CAVOK=
TAF LUBL 110520Z NIL=
TAF LUBM 110520Z NIL=
TAF LUCH 110520Z NIL=

0000037200
741
SAAO34 GOOY 110500
METAR GBYD 110500Z 02006KT CAVOK 17/12 Q1012=
METAR GFLL 110500Z NIL=
METAR GLRB 110500Z NIL=
METAR GVAC 110500Z 05005KT 9999 FEW013 SCT015 BKN200 19/14 Q1015
     NOSIG=
METAR GVBA 110500Z NIL=
METAR GVNP 110500Z /////KT 9999 BKN020  ///// Q////
NOSIG=
METAR GVSV 110500Z 07005KT 9999 FEW023 BKN200 18/16 Q1015 NOSIG=

0000118300
742
FTUS41 KWBC 110521
TAF
KABE 110520Z 1106/1206 VRB02KT 2SM BR OVC004
      TEMPO 1106/1109 3/4SM -SHRA BR OVC002
     FM110900 12005KT 1SM -SHRA BR OVC004 WS020/21050KT
     FM111600 19010KT 1SM SHRA BR OVC004 WS020/21060KT
     FM112100 22010G20KT 1SM SHRA BR OVC005 WS020/22060KT
     FM120100 27008KT 5SM -SHRA BR BKN020 OVC040
     FM120500 28012KT P6SM BKN040=
KART 110520Z 1106/1206 VRB03KT P6SM SKC
     FM110900 15011KT P6SM OVC015 WS020/19040KT
     FM111100 16015KT 3SM -RA BR OVC015 WS020/19045KT
     FM111500 17018G25KT 1SM -RA BR OVC003 WS020/20045KT
     FM111900 21017KT 1SM RA BR OVC008 WS020/20045KT
     FM120200 23020KT 2SM -SN OVC008=
KBUF 110520Z 1106/1206 14008KT P6SM FEW030 SCT060 OVC180
     FM110800 17014G23KT 5SM -RA BR OVC020 WS020/20045KT
     FM111300 19015KT 3SM -RA BR OVC015
     FM112000 21015KT 5SM -RA BR BKN035 OVC050
     FM120000 25014KT 3SM -SN OVC012=
KIAG 110520Z 1106/1206 12003KT P6SM OVC160
     FM110800 16012G20KT 5SM -RA BR OVC015 WS020/20040KT
     FM111300 19014KT 3SM -RA BR OVC007
     FM112000 21015KT 5SM -RA BR BKN035 OVC050
     FM120000 25014KT 3SM -SN OVC012=

0000146200
743
FTUS31 KWBC 110521 RRA
TAF
KLAX 110520Z 1106/1212 VRB03KT P6SM SCT250
     FM111100 VRB03KT 4SM BR BKN007
     FM111600 VRB03KT 5SM HZ SCT250
     FM111900 26010KT P6SM SCT250
     FM120500 VRB03KT P6SM SCT250
     FM121000 VRB03KT 4SM BR SKC=
KMEM 110520Z 1106/1206 19010G15KT 5SM RA BR FEW005 BKN050
     FM110800 24014KT P6SM BKN012 OVC100
     FM111100 26010KT P6SM SCT020
     FM111500 28012G20KT P6SM SCT250
     FM120200 28006KT P6SM SKC=
KOAK 110520Z 1106/1212 30005KT P6SM BKN250
     FM110900 24005KT P6SM OVC008
     FM111500 19005KT P6SM BKN015
     FM112000 VRB03KT P6SM VCSH BKN025 BKN060
     FM120000 22008KT P6SM BKN050
     FM120600 29004KT P6SM SCT050=
KPHL 110520Z 1106/1212 06005KT 2SM BR OVC002 WS020/20050KT
      TEMPO 1106/1110 1SM -SHRA BR OVC004
     FM111000 17010KT 2SM -SHRA BR OVC004 WS020/21055KT
     FM111500 19012KT 1SM SHRA BR BKN004 OVC010 WS020/21055KT
     FM111900 20012G22KT 1SM SHRA BR OVC006 WS020/21055KT
     FM120000 27010KT 6SM -SHRA BR BKN025 OVC040
     FM120400 26012KT P6SM BKN040=
KPHX 110520Z 1106/1206 10004KT P6SM FEW250
     FM112300 26004KT P6SM SCT250
     FM120400 09004KT P6SM FEW250=
KSFO 110520Z 1106/1212 27006KT P6SM SCT010 BKN200
     FM110700 25005KT P6SM OVC008
     FM111500 19006KT P6SM BKN015
     FM112100 24006KT P6SM VCSH BKN025 BKN060
     FM120000 29010KT P6SM BKN060
     FM120600 29006KT P6SM SCT060=

0000098900
744
FTIY31 LIIB 110500
TAF LIEE 110500Z 1106/1206 VRB05KT 9999 SCT030 TEMPO 1200/1206 3000
BR=
TAF LIEO 110500Z 1106/1206 VRB05KT 0700 FG BKN002 BECMG 1106/1109
7000 NSW SCT030=
TAF LIMC 110500Z 1106/1212 VRB05KT 8000 BKN040=
TAF LIME 110500Z 1106/1206 VRB05KT 4000 BR BKN040=
TAF LIMF 110500Z 1106/1206 VRB05KT 7000 BKN030 TEMPO 1200/1206 1500
BCFG=
TAF LIMJ 110500Z 1106/1206 VRB05KT 9999 SCT020 BKN040=
TAF LIML 110500Z 1106/1206 VRB05KT 6000 SCT010 BKN040 TEMPO 1122/1206
1200 BCFG=
TAF LIRA 110500Z NIL=
TAF LIRF 110500Z 1106/1212 VRB05KT 4000 BR BKN030 BECMG 1106/1108
8000 TEMPO 1200/1206 2000 BR=
TAF LIRN 110500Z 1106/1206 VRB05KT 4000 BR SCT025 BECMG 1106/1108
8000 TEMPO 1201/1206 4000 BR=
TAF LIRP 110500Z 1106/1206 11008KT 9999 SCT030 BKN050 TEMPO 1106/1109
5000 BR BECMG 1118/1121 5000 BR SCT005 BKN030 PROB40 TEMPO 1203/1206
0800 FG BKN002=
TAF LIRQ 110500Z 1106/1206 VRB05KT 6000 FEW020 BKN040 TEMPO 1200/1206
3000 BR=

0000133500
745
FTUS31 KWBC 110521
TAF
KABQ 110520Z 1106/1206 35011KT P6SM FEW200
     FM111100 35004KT P6SM FEW200
     FM112000 23006KT P6SM FEW200
     FM120200 14004KT P6SM SCT200=
KBMG 110520Z 1106/1206 19012KT 4SM -SHRA BR SCT007 BKN015
     FM111000 22010KT 3SM -RA BR OVC006
     FM111500 25012KT 4SM -DZ BR OVC009
     FM111800 25012G22KT P6SM OVC015
     FM120000 27008KT P6SM BKN025 AMD LTD TO CLD VIS AND WIND TIL
      111400=
KDEN 110520Z 1106/1212 23007KT P6SM FEW100 SCT140 BKN200
     FM111500 28014G22KT P6SM FEW090 SCT120 BKN180
     FM111800 29018G30KT P6SM FEW090 SCT120 BKN180
     FM120000 29014KT P6SM SCT120 SCT180
     FM120400 21012KT P6SM FEW140 SCT200=
KDFW 110520Z 1106/1212 32004KT P6SM SCT150
     FM111400 30010KT P6SM SKC=
KDTW 110520Z 1106/1212 15007KT 3SM BR OVC004 WS020/19043KT
      TEMPO 1106/1110 1SM RA BR OVC002
     FM111200 18010KT 2SM SHRA BR OVC004
     FM111700 24012G20KT 6SM BR OVC010
     FM120600 25010KT P6SM OVC025=
KIND 110520Z 1106/1212 18010KT 2SM -SHRA BR SCT003 BKN010
     FM111000 21012KT 2SM -RA BR OVC006
     FM111400 25014G22KT 5SM -DZ BR BKN006 OVC015
     FM111800 25014G24KT P6SM BKN015
     FM120000 27013KT P6SM BKN025
     FM120600 27011KT P6SM SCT050 BKN200=
KLAS 110520Z 1106/1206 VRB06KT P6SM SCT250=

0000150700
746
FTUS42 KWBC 110521
TAF
KDAL 110520Z 1106/1206 32004KT P6SM SCT150
     FM111400 30010KT P6SM SKC=
KELP 110520Z 1106/1206 29008KT P6SM SKC
     FM111800 22005KT P6SM SKC=
KFTW 110520Z 1106/1206 32004KT P6SM SCT150
     FM111400 30010KT P6SM SKC=
KHSV 110520Z 1106/1206 15013KT 4SM -SHRA BR BKN007 BKN014 BKN035
      TEMPO 1108/1111 2SM +TSRA BR BKN005CB OVC010
     FM111100 21014G23KT 4SM -RA BR OVC010
     FM111500 27012KT P6SM BKN025
     FM112100 27013G23KT P6SM SKC
     FM120000 28005KT P6SM SKC=
KHSV 110520Z 1106/1206 15013KT 4SM -SHRA BR BKN007 BKN014 BKN035
      WS015/20045KT
      TEMPO 1108/1111 2SM +TSRA BR BKN005CB OVC010
     FM111100 21014G23KT 4SM -RA BR OVC010
     FM111500 27012KT P6SM BKN025
     FM112100 27013G23KT P6SM SKC
     FM120000 28005KT P6SM SKC=
KHSV 110520Z 1106/1206 15013KT 4SM -SHRA BR BKN007 BKN014 BKN035
      TEMPO 1108/1111 2SM +TSRA BR BKN005CB OVC010
     FM111100 21014G23KT 4SM -RA BR OVC010
     FM111700 27012KT P6SM BKN025
     FM112100 27013G23KT P6SM SKC
     FM120000 28005KT P6SM SKC=
KMAF 110520Z 1106/1206 28010KT P6SM SKC
     FM111800 19008KT P6SM SKC=
KSHV 110520Z 1106/1206 25007KT P6SM SCT020 OVC050
      TEMPO 1106/1108 21008KT 3SM SHRA BR OVC015
     FM110900 27007KT P6SM SKC
     FM111700 29012G20KT P6SM SKC
     FM120000 28005KT P6SM SKC=
KTUL 110520Z 1106/1206 28008KT P6SM SCT250
     FM111800 28012G20KT P6SM SKC
     FM120000 30005KT P6SM SKC=

0000101800
747
FTUS41 KWBC 110521 RRA
TAF
KILG 110520Z 1106/1206 07004KT 2SM BR OVC002 WS020/20050KT
      TEMPO 1106/1110 1/2SM -SHRA FG OVC004
     FM111000 17010KT 2SM -SHRA BR OVC004 WS020/21055KT
     FM111500 19012KT 1SM SHRA BR BKN004 OVC010 WS020/21055KT
     FM111900 20012G22KT 1SM SHRA BR OVC006 WS020/21055KT
     FM120000 27010KT 6SM -SHRA BR BKN025 OVC040
     FM120400 26012KT P6SM BKN040=
KPGA 110520Z 1106/1206 VRB04KT P6SM SCT250=
KPWM 110520Z 1106/1206 VRB03KT P6SM OVC045
     FM110900 20005KT 4SM BR OVC015
     FM111000 VRB04KT 1SM -FZDZ BR OVC005
     FM111200 15007KT 1/2SM -RA FG VV003 WS020/19050KT
     FM111600 16014G25KT 2SM RA BR OVC004 WS020/21060KT
     FM112000 18016G26KT 1/2SM +RA FG OVC001 WS020/21060KT=
KROC 110520Z 1106/1206 16009KT P6SM BKN130 WS020/19040KT
     FM110900 16012KT 3SM -RA OVC007 WS020/20045KT
     FM111400 19014G21KT 2SM -RA BR OVC003
     FM111900 22015KT 5SM -RA BR BKN035 OVC050
     FM120000 25014KT 3SM -SN OVC008=

0000092300
748
FTUS43 KWBC 110521
TAF
KBTM 110520Z 1106/1206 30005KT P6SM BKN090
     FM110900 26010KT P6SM BKN070
     FM111500 21018G35KT P6SM BKN070=
KDET 110520Z 1106/1206 16014KT 3SM -RA BR OVC004 WS020/19043KT
      TEMPO 1106/1110 1SM RA BR OVC002
     FM111200 18010KT 2SM SHRA BR OVC004
     FM111700 24012G20KT 6SM BR OVC010=
KFNT 110520Z 1106/1206 16014KT 6SM -RA BR OVC015 WS020/19044KT
      TEMPO 1106/1110 3SM RA BR OVC006
     FM111200 20010KT 2SM SHRA BR OVC004
     FM111700 24012G20KT 5SM BR OVC010=
KMBS 110520Z 1106/1206 16014KT 6SM -RA BR OVC008 WS020/20040KT
      TEMPO 1106/1110 3SM RA BR OVC004
     FM111200 20010KT 2SM SHRA BR OVC004
     FM111700 25012G20KT 5SM BR OVC010=
KOMA 110520Z 1106/1206 29005KT 3SM BR SKC
      TEMPO 1106/1108 1 1/2SM BR
     FM110900 30008KT P6SM SCT100
     FM111600 31012KT P6SM SCT150
     FM112300 VRB06KT P6SM BKN150=

0000096100
749
FTUS44 KWBC 110521
TAF
KDUG 110520Z 1106/1206 VRB04KT P6SM SKC
     FM112200 30007KT P6SM SKC
     FM120300 VRB04KT P6SM FEW220=
KGPI 110520Z 1106/1206 17011KT P6SM VCSH OVC040
     FM110800 17007KT 6SM -SHRASN OVC040
     FM111500 23010G20KT 6SM -SHRASN OVC040=
KIPL 110520Z 1106/1206 VRB04KT P6SM FEW250=
KMSO 110520Z 1106/1206 VRB05KT P6SM OVC090
     FM111000 12009KT P6SM BKN060
     FM111800 24010G20KT P6SM VCSH BKN060=
KOLS 110520Z 1106/1206 VRB02KT P6SM SKC
     FM112000 28006KT P6SM SKC
     FM120200 VRB02KT P6SM SCT250=
KPMD 110520Z 1106/1206 VRB03KT P6SM SCT250
     FM112000 26012KT P6SM SCT250=
KSJC 110520Z 1106/1206 30006KT P6SM BKN200
     FM111000 VRB03KT P6SM BKN008
     FM111500 14006KT P6SM BKN015
     FM111600 15005KT P6SM BKN040=
KTUS 110520Z 1106/1206 15006KT P6SM SKC
     FM111600 VRB03KT P6SM SKC
     FM112100 30006KT P6SM FEW250
     FM120300 VRB03KT P6SM FEW250=

0000131600
750
FTUS71 KWBC 110521 RRA
TAF
KIAG 110520Z 1106/1206 12003KT P6SM OVC160
     FM110800 16012G20KT 5SM -RA BR OVC015 WS020/20040KT
     FM111300 19014KT 3SM -RA BR OVC007
     FM112000 21015KT 5SM -RA BR BKN035 OVC050
     FM120000 25014KT 3SM -SN OVC012=
KILG 110520Z 1106/1206 07004KT 2SM BR OVC002 WS020/20050KT
      TEMPO 1106/1110 1/2SM -SHRA FG OVC004
     FM111000 17010KT 2SM -SHRA BR OVC004 WS020/21055KT
     FM111500 19012KT 1SM SHRA BR BKN004 OVC010 WS020/21055KT
     FM111900 20012G22KT 1SM SHRA BR OVC006 WS020/21055KT
     FM120000 27010KT 6SM -SHRA BR BKN025 OVC040
     FM120400 26012KT P6SM BKN040=
KLEB 110520Z 1106/1206 00000KT 6SM BR OVC005
     FM110800 00000KT 3SM -FZDZ BR OVC015
     FM111000 00000KT 1SM -FZRA BR OVC005 WS020/19045KT
     FM111400 16008G18KT 2SM RA BR OVC005 WS020/19055KT
     FM111700 19010G18KT 1/2SM +RA FG OVC001 WS020/19055KT=
KMIV 110520Z 1106/1206 16010KT P6SM -SHRA SCT012 OVC060
      WS020/20050KT
      TEMPO 1108/1112 2SM -SHRA BR OVC012
     FM111200 18012KT 2SM -SHRA BR OVC010 WS020/20050KT
     FM111600 19012G20KT 1SM SHRA BR OVC005 WS020/21055KT
     FM112100 22010G20KT 1SM SHRA BR OVC004 WS020/21060KT
     FM120100 27006KT 6SM -SHRA BR BKN015 OVC030
     FM120500 27010KT P6SM BKN040=

0000065800
751
FTUS71 KWBC 110521 RRC
TAF
KROC 110520Z 1106/1206 16009KT P6SM BKN130 WS020/19040KT
     FM110900 16012KT 3SM -RA OVC007 WS020/20045KT
     FM111400 19014G21KT 2SM -RA BR OVC003
     FM111900 22015KT 5SM -RA BR BKN035 OVC050
     FM120000 25014KT 3SM -SN OVC008=
KTTN 110520Z 1106/1206 05003KT 2SM BR OVC002 WS020/20050KT
      TEMPO 1106/1109 1/2SM -SHRA FG OVC004
     FM110900 15050KT 1SM -SHRA BR OVC003 WS020/20060KT
     FM111500 18012KT 1SM SHRA BR OVC004 WS020/21055KT
     FM112000 19012G22KT 1SM SHRA BR OVC005 WS020/18060KT
     FM120000 26010KT 6SM -SHRA BKN020 OVC040
     FM120400 27010KT P6SM BKN040=

0000096400
752
FTIY32 LIIB 110500
TAF LIBD 110500Z 1106/1206 VRB06KT 8000 NSC=
TAF LIBP 110500Z 1106/1206 VRB04KT 4000 BR SCT020 BECMG 1106/1109
8000=
TAF LICA 110500Z 1106/1206 VRB05KT 9999 SCT030 BECMG 1107/1109
09012KT BECMG 1117/1119 VRB04KT=
TAF LICC 110500Z 1106/1206 VRB06KT 9999 SCT030=
TAF LICJ 110500Z 1106/1206 VRB06KT 9999 SCT030=
TAF LIEA 110500Z 1106/1206 VRB05KT 9999 BKN030 TEMPO 1121/1206 1500
BR=
TAF LIPE 110500Z 1106/1206 VRB04KT 2000 BR SCT010 BKN040 TEMPO
1106/1109 0500 FG BKN002 BECMG 1118/1120 0800 FG BKN002=
TAF LIPK 110500Z 1106/1206 NIL=
TAF LIPO 110500Z 1106/1206 VRB05KT 4000 BR BKN040 TEMPO 1122/1206
1200 BCFG=
TAF LIPQ 110500Z 1106/1206 VRB04KT 1500 BR BKN012 TEMPO 1106/1110
0200 FG BKN002 BECMG 1118/1120 0400 FG BKN002=
TAF LIPY 110500Z 1106/1206 VRB05KT 8000 BKN040=
TAF LIPZ 110500Z 1106/1212 VRB04KT 2500 BR SCT010 SCT040 TEMPO
1106/1109 0500 FG BKN002 TEMPO 1200/1208 0500 FG BKN002=

0000141800
753
FTUS72 KWBC 110521 RRA
TAF
KHSV 110520Z 1106/1206 15013KT 4SM -SHRA BR BKN007 BKN014 BKN035
      TEMPO 1108/1111 2SM +TSRA BR BKN005CB OVC010
     FM111100 21014G23KT 4SM -RA BR OVC010
     FM111500 27012KT P6SM BKN025
     FM112100 27013G23KT P6SM SKC
     FM120000 28005KT P6SM SKC=
KHSV 110520Z 1106/1206 15013KT 4SM -SHRA BR BKN007 BKN014 BKN035
      WS015/20045KT
      TEMPO 1108/1111 2SM +TSRA BR BKN005CB OVC010
     FM111100 21014G23KT 4SM -RA BR OVC010
     FM111500 27012KT P6SM BKN025
     FM112100 27013G23KT P6SM SKC
     FM120000 28005KT P6SM SKC=
KHSV 110520Z 1106/1206 15013KT 4SM -SHRA BR BKN007 BKN014 BKN035
      TEMPO 1108/1111 2SM +TSRA BR BKN005CB OVC010
     FM111100 21014G23KT 4SM -RA BR OVC010
     FM111700 27012KT P6SM BKN025
     FM112100 27013G23KT P6SM SKC
     FM120000 28005KT P6SM SKC=
KINK 110520Z 1106/1206 28009KT P6SM SKC
     FM112000 16008KT P6SM SKC=
KJAN 110520Z 1106/1206 18016G25KT 3SM -TSRA BR OVC007CB
     FM111000 26009KT 4SM -DZ BR OVC007
     FM111400 29010KT P6SM SCT020
     FM111600 27013G20KT P6SM SKC=
KJBR 110520Z 1106/1206 24010G20KT 5SM -RA BR SCT009 BKN015
     FM110730 24012KT P6SM BKN012 OVC070
     FM111000 25010KT P6SM SCT020
     FM111400 27012G20KT P6SM SCT025
     FM120000 26007KT P6SM SKC=
KMAF 110520Z 1106/1206 28010KT P6SM SKC
     FM111800 19008KT P6SM SKC=

0000145700
754
FTUS72 KWBC 110521 RRC
TAF
KMSL 110520Z 1106/1206 15010KT 5SM -SHRA BR OVC009 WS015/20045KT
      TEMPO 1106/1109 2SM +TSRA BR BKN005CB OVC010
     FM110900 21014G23KT 4SM -RA BR OVC010
     FM111300 27012KT P6SM BKN025
     FM111900 28015G25KT P6SM SKC
     FM120000 29005KT P6SM SKC=
KMSL 110520Z 1106/1206 15010KT 5SM -SHRA BR OVC009
      TEMPO 1106/1109 2SM +TSRA BR BKN005CB OVC010
     FM110900 21014G23KT 4SM -RA BR OVC010
     FM111500 27012KT P6SM BKN025
     FM111900 28015G25KT P6SM SKC
     FM120000 29005KT P6SM SKC=
KROW 110520Z 1106/1206 32009KT P6SM FEW250
     FM111600 17006KT P6SM SKC=
KSHV 110520Z 1106/1206 25007KT P6SM SCT020 OVC050
      TEMPO 1106/1108 21008KT 3SM SHRA BR OVC015
     FM110900 27007KT P6SM SKC
     FM111700 29012G20KT P6SM SKC
     FM120000 28005KT P6SM SKC=
KTCC 110520Z 1106/1206 29009KT P6SM FEW250
     FM112100 22012KT P6SM FEW250
     FM120200 24014G22KT P6SM FEW250=
KTCS 110520Z 1106/1206 31008KT P6SM FEW250
     FM111200 VRB04KT P6SM SKC
     FM112000 16008KT P6SM SKC
     FM120300 28006KT P6SM FEW250=
KTUL 110520Z 1106/1206 28008KT P6SM SCT250
     FM111800 28012G20KT P6SM SKC
     FM120000 30005KT P6SM SKC=
KTUP 110520Z 1106/1206 21014KT 3SM -RA BR VCTS OVC005CB
     FM110900 18010KT 5SM RA BR OVC005
     FM111100 25010KT P6SM BKN012 OVC100
     FM111500 30012G18KT P6SM SCT200
     FM120100 27003KT P6SM SKC=

00000000