0000009200
135
SACN51 CWAO 110900
METAR CWKM 110900Z AUTO 26018KT M25/ A2971 RMK SLP067=

0000009200
136
SACN52 CWAO 110900
METAR CWKP 110900Z AUTO 25039KT M35/ A2917 RMK SLP939=

0000078000
137
SACH10 SCSC 110900
METAR SCFA 110900Z 18004KT 9999 FEW015 19/16 Q1011 NOSIG=
METAR SCAR 110900Z NIL=
METAR SCBA 110900Z AUTO 29008KT CAVOK 07/03 Q1019=
METAR SCCF 110900Z 08010KT CAVOK 07/04 Q1023=
METAR SCIE 110900Z 21005KT CAVOK 11/10 Q1013=
METAR SCAT 110900Z AUTO 24004KT 9999 // ///013 17/14 Q1013=
METAR SCDA 110900Z 00000KT CAVOK 21/15 Q1011=
METAR SCSE 110900Z 06001KT 9999 FEW010 15/13 Q1011=
METAR SCJO 110900Z NIL=
METAR SCTE 110900Z 21002KT 9999 FEW007 09/07 Q1022 NOSIG=
METAR SCNT 110900Z NIL=
METAR SCCI 110900Z 29015KT 9999 SCT020 OVC100 11/06 Q1006 NOSIG=
METAR SCEL 110900Z 33003KT CAVOK 15/06 Q1012 NOSIG=
METAR SCIP 110900Z 10005KT 9999 FEW020 21/18 Q1020 NOSIG=
METAR SCPQ 110900Z AUTO 19005KT CAVOK 07/05 Q1022=

0000038900
138
SAMC31 GMMC 110900
METAR GMFF 110900Z 16002KT 9999 SCT030 BKN100 13/08 Q1019 NOSIG=
METAR GMME 110900Z 20004KT 5000 SCT020 BKN100 14/10 Q1018 NOSIG=
METAR GMMN 110900Z 18007KT 9999 SCT016 BKN100 13/10 Q1019 NOSIG=
METAR GMMX 110900Z 14002KT 8000 SCT023 12/11 Q1019 NOSIG=
METAR GMTT 110900Z 06004KT 8000 SCT016 SCT100 13/11 Q1018 NOSIG=
METAR GMAD 110900Z NIL=

0000008900
139
SAJM31 MKJS 110900
METAR MKJS 110900Z 13005KT 9999 FEW024 25/20 Q1015=

0000009500
140
SAPF20 NTAA 110900
METAR NTAA 110900Z VRB01KT 9999 FEW020 25/21 Q1013 NOSIG=

0000011500
141
SAES20 MSLP 110900
METAR MSLP 110850Z 03004KT CAVOK 21/17 Q1011 A2986=
METAR MSSS 110850Z NIL=

0000011100
142
SACN52 CWAO 110900
METAR CWWU 110900Z 26012G19KT 15SM FEW120 M03/M06 A3014 RMK AC2
SLP209=

0000009900
143
SACN44 CWAO 110900
METAR CYSM 110900Z 30002KT 15SM SKC M26/M27 A2959 RMK SLP046=

0000078200
144
SAMC32 GMMC 110900
METAR GMAG 110900Z 09005KT CAVOK 08/07 Q1019=
METAR GMAT 110900Z 14002KT 9999 FEW016 13/10 Q1018=
METAR GMFF 110900Z 16002KT 9999 SCT030 BKN100 13/08 Q1019 NOSIG=
METAR GMFM 110900Z 00000KT 08000 SCT020 BKN100 11/07 Q1019=
METAR GMFO 110900Z 20010KT 9999 -RA BKN016 BKN026 12/10 Q1019 NOSIG=
METAR GMMH 110900Z 09005KT CAVOK 15/13 Q1018=
METAR GMMI 110900Z 10002KT 8000 NSC 12/07 Q1018=
METAR GMML 110900Z 10001KT 3000 BR NSC 12/11 Q1019=
METAR GMMW 110900Z VRB01KT 6000 FEW016 SCT100 BKN200 10/09 Q1019=
METAR GMMZ 110900Z 00000KT 9999 FEW030 05/04 Q1019=
METAR GMTA 110900Z 20004KT 9999 SCT026 BKN100 13/10 Q1019=
METAR GMTN 110900Z 23003KT 3000 BR SCT020 13/12 Q1018=
METAR GMFK 110900Z NIL=
METAR GMMC 110900Z NIL=

0000012200
145
SACN44 CWAO 110900
METAR CYTH 110900Z 05007KT 10SM -SN SCT020 OVC060 M19/M20 A2951 RMK
SC4SC4 SLP017=

0000010600
146
SACN31 CWAO 110900
METAR CYBG 110900Z 10007KT 15SM OVC025 M09/M12 A3002 RMK SC8 SLP180=

0000012400
147
SACN44 CWAO 110900
METAR CYOD 110900Z 16005KT 15SM FEW018 BKN080 M11/M12 A2954 RMK
SC2AC1 FROIN SLP042=

0000010000
148
SAAG41 SASA 110900
METAR SASA 110900Z  07002KT 9999  FEW025 SCT200
20/17 Q1013=

0000008400
149
SAAG41 SAVC 110900
METAR SAVC 110900Z  00000KT CAVOK 12/08 Q1017=

0000026900
150
FCTA31 RUMS 110800
TAF UTDD 110845Z 1110/1122 VRB03MPS 6000 FEW066 BKN150 530007 TEMPO
1110/1113 10006MPS TEMPO 1113/1122 3000 BR FU=
TAF UTDL 110840Z 1110/1119 07007G12MPS 3000 BR NSC 530009 TEMPO
1110/1113 07010G15MPS TEMPO 1113/1119 1000 BR=

0000053400
151
FCKZ31 RUMS 110800
TAF UAOO 110852Z 1110/1119 23008MPS 5000 BR NSC=
TAF UARR 110855Z 1110/1119 19012G17MPS 3000 -SHSNRA BR BKN006
BKN010CB TEMPO 1110/1116 1000 -FZRA BR OVC002 TEMPO 1116/1119
21008G13MPS 1800 OVC004=
TAF UATE 110850Z 1110/1119 15006G12MPS 9999 OVC009=
TAF UATG 110851Z 1110/1119 19010MPS 3000 BR BKN010 OVC030 TEMPO
1113/1116 -RASN TEMPO 1116/1119 0500 FZDZ FZFG VV002=
TAF UAUU 110900Z 1110/1119 18005MPS 6000 SCT006 BKN010CB TEMPO
1111/1119 17009MPS 2000 -SHSN BR BKN006 BKN010CB=

0000133100
152
SPUS70 KWBC 110902
SPECI
K1M4 110858Z AUTO 22011KT 1 1/4SM +TSRA BR BKN003 OVC009 14/14
     A2974 RMK AO2 CIG 001V007 LTG DSNT E-SW P0001=
KARA 110858Z AUTO 25011G18KT 1SM +TSRA BR FEW002 BKN015 OVC020
     18/17 A2986 RMK AO2 LTG DSNT ALQDS P0009 $=
KGNV 110858Z AUTO 12003KT 1/4SM FG FEW001 OVC015 17/17 A3003 RMK
     AO2 T01720172=
KLGB 110858Z 00000KT 1/4SM FG VV001 12/09 A3011 RMK AO2=
KOXB 110858Z AUTO 21007KT 2 1/2SM -RA BR BKN003 BKN025 OVC075
     12/11 A3007 RMK AO2 P0001 T01170111 TSNO=
PAGN 110858Z AUTO 00000KT 1 3/4SM BR OVC005 01/01 A2914 RMK AO2
     TSNO OVC V BKN $=
KNFE 110854Z AUTO 14007KT 10SM -RA BKN008 BKN014 OVC024 18/16
     A3004 RMK AO2 P0011=
PAGN 110858Z AUTO 00000KT 1 3/4SM BR OVC005 01/01 A2914 RMK AO2
     TSNO OVC V BKN $=
KAHN 110859Z AUTO 00000KT 1/2SM +TSRA FG SCT004 OVC010 08/07 A2992
     RMK AO2 LTG DSNT ALQDS P0015=
KASH 110859Z AUTO 00000KT 3/4SM -FZRA BR BKN002 00/00 A3016 RMK
     AO2 P0000=
KATL 110857Z COR 36005G16KT 1/4SM R09R/4500VP6000FT +TSRA BR
     SCT003 OVC006CB 10/09 A2990 RMK AO2 SFC VIS 3/4 OCNL LTGIC
     OHD-NE-SE TS OHD-NE-SE MOV NE TWRINC P0015=
KDCA 110859Z 20003KT 1SM R01/5500VP6000FT BR OVC009 04/02 A3001
     RMK AO2=
KSSF 110859Z AUTO 00000KT 3/4SM BR VV005 09/09 A2990 RMK AO2 $=

0000009500
153
SACA31 KWBC 110800 RRB
METAR
MKJP 110800Z 35004KT 9999 FEW024 25/20 Q1015=

0000078100
154
SAMC32 GMMC 110900
METAR GMAG 110900Z 09005KT CAVOK 08/07 Q1019=
METAR GMAT 110900Z 14002KT 9999 FEW016 13/10 Q1018=
METAR GMFF 110900Z 16002KT 9999 SCT030 BKN100 13/08 Q1019 NOSIG=
METAR GMFM 110900Z 00000KT 0800 SCT020 BKN100 11/07 Q1019=
METAR GMFO 110900Z 20010KT 9999 -RA BKN016 BKN026 12/10 Q1019 NOSIG=
METAR GMMH 110900Z 09005KT CAVOK 15/13 Q1018=
METAR GMMI 110900Z 10002KT 8000 NSC 12/07 Q1018=
METAR GMML 110900Z 10001KT 3000 BR NSC 12/11 Q1019=
METAR GMMW 110900Z VRB01KT 6000 FEW016 SCT100 BKN200 10/09 Q1019=
METAR GMMZ 110900Z 00000KT 9999 FEW030 05/04 Q1019=
METAR GMTA 110900Z 20004KT 9999 SCT026 BKN100 13/10 Q1019=
METAR GMTN 110900Z 23003KT 3000 BR SCT020 13/12 Q1018=
METAR GMFK 110900Z NIL=
METAR GMMC 110900Z NIL=

00000000