0000034600
355
SAGL31 BGSF 110550
METAR BGSF 110550Z AUTO 06005KT 9999NDV  BKN180/// M18/M23 Q0995=
METAR BGBW 110553Z NIL=
METAR BGGH 110550Z AUTO 05008KT 9999NDV  FEW040/// M09/M16 Q0993=
METAR BGJN 110550Z AUTO 08006KT 9999NDV  SCT130/// BKN150/// 
M11/M19 Q0994=
METAR BGKK 110550Z AUTO 10007KT 9999NDV  OVC053/// M03/M09 Q0994=

0000014100
356
SAVN23 SVBC 110600
METAR SVBC 110600Z 00000KT 9999 FEW010 23/22 Q1014=
METAR SVMT 110600Z NIL=
METAR SVHG 110600Z NIL=

0000009200
357
SAIN90 VABB 111710
METAR VABB 111710Z 01006KT 2500 FU NSC 20/06 Q1016 NOSIG=
0000028600
358
SAIN31 VOMM 111710
METAR VOHS 111710Z 00000KT 5000 HZ SCT020 19/14 Q1018 NOSIG=
METAR VOMM 111710Z 07004KT 6000 FEW020 23/19 Q1015 NOSIG=
METAR VOTR 111710Z 09005KT 4000 HZ NSC 23/20 Q1015 NOSIG=
METAR VOTV 111710Z 00000KT 4000 HZ FEW015 26/23 Q1013 TEMPO 3000 HZ=
0000070100
359
SXXX32 EUMS 111706 RRA
22E7E6D2
OT12 ID:ID-ROTE-11 DT:2014 01 11 17 04
:PRS /1 -10752 -10193 -10737 -10751 -10721 -10720 -10720 -10722 -10750 -10751 -10748 -10746 -10749 -10747 -10743 -10748 -10198 -10738 -10742 -10721 -10720 -10720 -10719 -10749 -10'51 /94741 -10744 -10741 -10750 -10743
:PR2 /1 03544 03504 03529 03491 03505 03486 03515 03476 03504 03452 03482 03487 03461 03436 03460 03465 03477 03458 03462 03455 03456 03444 03437 03409 03420 03425 03400 03434 03398 03421
:RAD /1 05112 05130 05152 05136 05108 05120 05088 05080 05052 05072 05044 05056 05072 05048 05044 05040 05040 04999 05063 05019 05040 05020 04984 04995 05028 05003 05008 05004 05035 04967
:BAT 12.1V
0000066700
360
SXXX32 EUMS 111707
32CC9580
OT12 ID:ID-ENGG-07 DT:2014 01 11 17 06
:PRS /1 01257 01246 01268 01246 01268 01244 01251 01294 01263 01262 01254 01262 01266 01240 01270 01256 01248 01260 01281 01231 01278 01275 01284 01257 01248 01282 01280 01277 01286 01239
:PR2 /1 04732 04704 04747 04722 04724 04724 04741 04708 04733 04714 04735 04743 04732 04701 04721 04730 04717 04715 04737 04716 04726 04731 04734 04715 04724 04733 04726 04744 04731 04742
:RAD /1 05592 05580 05595 05566 05593 05579 05595 05582 05584 05592 05589 05597 05601 05584 05584 05588 05586 05582 05600 05580 05610 05606 05599 05600 05580 05586 05597 05609 05604 05585
:BAT 12.2V
0000044600
361
SXXX32 EUMS 111709
224AD678
:PRS 2 /1 1889 1893 1894 1897 1900 1900 1901 1901 1903 1907 1908 1912 1915 1922 1923 1925 1925 1929 1929 1930 1928 1924 1923 1923 1928 1939 1943 1944 1945 1949 :RAD 4 /3 4716 4717 4725 4736 4742 4746 4748 4751 4762 4770 4776 4780 4793 4803 4814 4822 4831 4841 4851 4863 :ENC 4 /5 8242 8247 8263 8273 8275 8290 8301 8306 8326 8342 8353 8369 :SW1 9 /60 60 :SW2 39 /60 60 :BAT 14 /15 12.3 :NAME 224AD678
0000278400
362
UDFR01 LFPW 111712
AMDAR 1116
ASC EU0959 4326N 00511E 111655 F007 PS115 /// 024/003 TB0 S031
333 F007 VG013=
ASC EU0959 4327N 00511E 111655 F016 PS095 /// 138/001 TB3 S031
333 F016 VG148=
ASC EU0959 4328N 00510E 111656 F019 PS082 /// 144/001 TB0 S031
333 F019 VG003=
ASC EU0959 4328N 00509E 111656 F022 PS075 /// 119/003 TB3 S031
333 F022 VG129=
ASC EU0959 4329N 00508E 111656 F035 PS052 /// 103/004 TB1 S031
333 F035 VG018=
ASC EU0959 4330N 00507E 111657 F046 PS022 /// 089/003 TB0 S031
333 F046 VG002=
UNS EU0959 4331N 00505E 111657 F054 PS052 /// 208/003 TB2 S031
333 F054 VG037=
ASC EU0959 4332N 00505E 111657 F062 PS042 /// 250/009 TB0 S031
333 F062 VG007=
ASC EU0959 4334N 00505E 111658 F071 PS027 /// 145/000 TB2 S031
333 F071 VG033=
ASC EU0959 4335N 00504E 111658 F082 PS015 /// 213/005 TB0 S031
333 F082 VG003=
ASC EU0959 4337N 00503E 111658 F094 MS015 /// 193/009 TB0 S031
333 F094 VG000=
ASC EU0959 4338N 00502E 111659 F106 MS047 /// 206/012 TB1 S031
333 F106 VG023=
UNS EU0959 4340N 00502E 111659 F113 MS065 /// 225/011 TB2 S031
333 F113 VG025=
ASC EU0959 4341N 00501E 111659 F125 MS090 /// 223/008 TB0 S031
333 F125 VG001=
ASC EU0959 4345N 00500E 111700 F148 MS137 /// 254/016 TB1 S031
333 F148 VG015=
ASC EU0959 4349N 00459E 111701 F176 MS202 /// 264/019 TB3 S031
333 F176 VG047=
ASC EU0959 4351N 00459E 111701 F190 MS222 /// 253/026 TB1 S031
333 F190 VG023=
ASC EU0959 4355N 00458E 111702 F204 MS255 /// 251/033 TB0 S031
333 F204 VG002=
ASC EU0959 4359N 00457E 111702 F222 MS300 /// 256/036 TB0 S031
333 F222 VG004=
ASC EU0959 4401N 00456E 111703 F232 MS325 /// 252/036 TB1 S031
333 F232 VG011=
ASC EU0959 4403N 00456E 111703 F239 MS350 /// 252/034 TB1 S031
333 F239 VG007=
ASC EU0959 4405N 00455E 111703 F248 MS372 /// 253/033 TB0 S031
333 F248 VG004=
ASC EU0959 4409N 00455E 111704 F263 MS410 /// 251/037 TB0 S031
333 F263 VG000=
ASC EU0959 4411N 00453E 111704 F273 MS435 /// 252/039 TB0 S031
333 F273 VG003=
ASC EU0959 4414N 00453E 111705 F284 MS457 /// 250/049 TB1 S031
333 F284 VG019=
ASC EU0959 4416N 00453E 111705 F291 MS480 /// 247/048 TB1 S031
333 F291 VG008=
ASC EU0959 4418N 00452E 111705 F299 MS492 /// 242/047 TB0 S031
333 F299 VG005=
ASC EU0959 4420N 00452E 111706 F306 MS505 /// 245/043 TB1 S031
333 F306 VG018=
ASC EU0959 4422N 00452E 111706 F317 MS522 /// 249/053 TB2 S031
333 F317 VG024=
ASC EU0959 4427N 00450E 111707 F331 MS557 /// 244/057 TB0 S031
333 F331 VG000=
ASC EU0959 4429N 00450E 111707 F336 MS572 /// 244/056 TB0 S031
333 F336 VG003=
ASC EU0959 4431N 00449E 111707 F339 MS577 /// 242/056 TB1 S031
333 F339 VG019=
ASC EU0959 4434N 00449E 111708 F339 MS580 /// 243/057 TB0 S031
333 F339 VG003=
0000011000
363
UANT99 KDDL 111711
ARP NVR705 4816N01850W 1711 F360 MS59 205/96 KT
EILAX DDL XXN 111711 J52A
0000011000
364
UANT99 KDDL 111711
ARP AZA610 4741N01241W 1711 F340 MS58 240/63 KT
EIDBL QXT AOE 111711 F07A
0000011000
365
UANT99 KDDL 111712
ARP AZA650 4711N00935W 1712 F380 MS66 266/48 KT
EIEJG QXS LEQ 111712 J92A
0000374500
366
SNVZ11 SBBR 111700 RRB
BBXX
SHIP 11171 99/// 1//// 36/// /0903 10304 20161 39312 40155 57///
  333 10316 20296 553// 02383 91106=
SHIP 11171 99/// 1//// 36/// /1006 10336 20203 30104 40114 57///
  333 10336 20288 553// 03662 91109=
SHIP 11171 99/// 1//// 16/// /0901 10265 20209 39232 40123 6998/
  333 10284 20250 553// 00981 91104=
SHIP 11171 99/// 1//// 36/// /3304 10310 20151 39249 40110
  333 10332 20309 553// 02532 91107=
SHIP 11171 99/// 1//// 36/// /0101 10294 20155 39130 40120
  333 10299 20292 553// 02164 91107=
SHIP 11171 99/// 1//// 36/// /0806 10291 20203 30106 40142 57///
  333 10303 20283 553// 03486 91111=
SHIP 11171 99/// 1//// 36/// /2803 10285 20183 39275 40069
  333 10290 20281 553// 01318 91105=
SHIP 11171 99/// 1//// 36/// /3503 10275 20158 38963 40042
  333 10293 20272 553// 02359 91106=
SHIP 11171 99/// 1//// 36/// /2602 10268 20163 38764 49821
  333 10283 20263 553// 03320 91104=
SHIP 11171 99/// 1//// 36/// /0602 10340 20153 39472 40093
  333 10348 20329 91105=
SHIP 11171 99/// 1//// 36/// /0902 10308 20156 39293 40113
  333 10316 20298 553// 03781 91105=
SHIP 11171 99/// 1//// 36/// /2202 10314 20232 39618 40104 57///
  333 10316 20299 553// 02383 91105=
SHIP 11171 99/// 1//// 36/// /1002 10283 20177 39302 40112 57///
  333 10290 20278 553// 03444 91105=
SHIP 11171 99/// 1//// 36/// /1104 10297 20188 39897 40132 57///
  333 10309 20293 553// 01880 91109=
SHIP 11171 99/// 1//// 36/// /1304 10318 20176 39871 40129
  333 10328 20303 553// 02431 91108=
SHIP 11171 99/// 1//// 16/// /1500 10198 20186 39658 40157 6004/
  333 10198 20191 553// 00347 91106=
SHIP 11171 99/// 1//// 36/// /0302 10302 20150 39330 40120
  333 10316 20296 553// 03613 91107=
SHIP 11171 99/// 1//// 36/// /0603 10243 20126 38689 49747
  333 10261 20237 553// 02324 91107=
SHIP 11171 99/// 1//// 36/// /0103 10322 20148 39323 40116
  333 10330 20308 553// 02489 91107=
SHIP 11171 99/// 1//// 36/// /1205 10344 20101 39850 40091 57///
  333 10350 20336 553// 03431 91110=
SHIP 11171 99/// 1//// 36/// /1004 10310 20124 39433 40095 57///
  333 10318 20304 553// 01851 91110=
SHIP 11171 99/// 1//// 36/// /3604 10295 20180 39612 40121 57///
  333 10325 20295 553// 01637 91109=
SHIP 11171 99/// 1//// 36/// /2404 10362 20136 39900 40077
  333 10367 20345 553// 03720 91108=
SHIP 11171 99/// 1//// 36/// /0902 10364 20168 39985 40056 57///
  333 10364 20339 553// 01864 91106=
SHIP 11171 99/// 1//// 36/// /1202 10300 20235 39939 40106 57///
  333 10300 20280 553// 02229 91105=
SHIP 11171 99/// 1//// 36/// /0602 10311 20207 39919 40090 57///
  333 10313 20296 553// 02574 91104=
SHIP 11171 99/// 1//// 36/// /2506 10301 20185 39384 40114
  333 10310 20298 553// 02861 91111=
SHIP 11171 99/// 1//// 36/// /0803 10301 20151 39371 40115 57///
  333 10306 20290 553// 03714 91106=
SHIP 11171 99/// 1//// 36/// /3203 10239 20153 38622 49673
  333 10248 20237 553// 02822 91108=
SHIP 11171 99/// 1//// 36/// /3205 10303 20190 39525 40126 57///
  333 10321 20283 553// 01230 91108=
SHIP 11171 99/// 1//// 36/// /3403 10331 20194 39727 40098
  333 10349 20315 553// 02583 91109=
SHIP 11171 99/// 1//// 36/// /2702 10310 20204 39850 40115 57///
  333 10314 20300 553// 03442 91104=
SHIP 11171 99/// 1//// 36/// /0703 10276 20219 39901 40140
  333 10294 20276 553// 02231 91106=
SHIP 11171 99/// 1//// 36/// /1002 10286 20226 39980 40100 57///
  333 10295 20284 553// 01849 91104=
SHIP 11171 99/// 1//// 36/// /1204 10263 20210 30042 40116 57///
  333 10288 20258 553// 01553 91109=
SHIP 11171 99/// 1//// 36/// /1203 10280 20131 39002 40315
  333 10308 20279 553// 03094 91108=
0000014000
367
SNVD15 KWNB 111700 RRH
BBXX
41051 11171 99183 70650 46/// /1009 10264 91700 22200 10403 70013
333 91210 555 11097 22106=
0000020100
368
SNVD15 KWNB 111700 RRI
BBXX
41051 11171 99183 70650 46/// /1009 10265 91650 333 91210 555
11098 22107=
41051 11171 99183 70650 46/// /0909 10265 91640 333 91211 555
11100 22109=
0000015100
369
SNVF20 EHDB 111700
BBXX
PJKV 11173 99480 70127 41297 81630 10120 20110 40093 53001 72022
8/61/ 22224 04130 20406 399// 41207 80115=
0000011000
370
UANT01 CWAO 111711
ARP DAL79 4949N04742W 1711 F370 MS60 300/71 KT
N858NW DDL XXW 111711 J04A
0000010900
371
UANT01 CWAO 111711
ARP KLM31 6238N05512W 1711 F380 MS59 281/27 KT
PHBFK QXT AOW 111711 F33A
0000012400
372
UAUS31 KWBC 111712
ARP UAL445 3707N 11857W 1649 F360 TB SMTH RM A319 OV MOD090100 MTN
    WAVE LOSS 25KTS=
0000007200
373
UAPA01 KWBC 111712
ARP ACA004 50N 140W 1703 F360 TB MOD=
0000013800
374
SNVF22 EIDB 111700
BBXX
62023 11173 99514 70079 46/97 /1618 10086 2//// 4//// 5////
22200 10704 70022 555 70041 80002=
00000000