0000011200
055
SACN62 CYYT 110800
METAR CYYT 110800Z 27025G33KT 15SM BKN140 M04/M07 A3006 RMK AC6
 SLP187=

0000010600
056
SACN62 CYYC 110800
METAR CYYC 110800Z 17010KT 15SM BKN078 M04/M07 A2952 RMK AC7 SLP042=

0000011600
057
SACN62 CYXU 110800
METAR CYXU 110800Z 16012KT 2SM -RA BR OVC002 04/04 A2962 RMK FG1SF7
 SLP038=

0000011700
058
SATD31 TTPP 110800
METAR
TTPP 110800Z 00000KT 9999 FEW015 22/21 Q1013=
METAR TTCP 110800Z NIL=

0000011900
059
SACN62 CYYG 110800
METAR CYYG 110800Z 24006KT 15SM FEW015 SCT030 M04/M06 A3026 RMK
 SC2SC2 SLP251=

0000037000
060
SAHW31 KWBC 110800
METAR
PBKH NIL=
PHJR 110753Z VRB03KT 10SM CLR 19/18 A2995=
PHKO 110753Z 12006KT 10SM CLR 23/16 A2993=
PHLI 110753Z 04016KT 10SM SCT017 SCT021 BKN048 23/21 A2997=
PHNL 110753Z 09005KT 10SM FEW031 23/18 A2995=
PHOG 110754Z 18006KT 10SM FEW025 19/17 A2995=
PHTO 110753Z 23007KT 10SM SCT030 SCT055 20/18 A2998=
PNGF NIL=

0000043100
061
SAIO31 KWBC 110800
METAR
FIMP 110800Z 09010KT 9999 BKN020 30/25 Q1015=
FIMR 110800Z 10017KT 9999 BKN017 30/24 Q1016=
FJDG 110755Z 29012G19KT 9999 VCSH FEW020 BKN050 OVC080 27/25 A2985
     RMK VCSH SE SLP105 P0004 T02670247=
FMCH NIL=
FMCV NIL=
FMCZ NIL=
FMEE NIL=
FMMI NIL=
FMMT NIL=
FMNN NIL=
FSIA NIL=
FSSS NIL=
VRMM NIL=
VYMD NIL=
VYYY NIL=
WBGG NIL=
WBKK NIL=
WBSB NIL=

0000011200
062
SACN62 CYYQ 110800
METAR CYYQ 110800Z 33005KT 15SM IC SCT230 M26/M29 A2970 RMK CI3
 SLP063=

0000012500
063
SACN62 CYXL 110800
METAR CYXL 110800Z 18004KT 6SM -SN BR SCT006 OVC030 M06/M07 A2936 RMK
 SF3SC5 SLP968=

0000012600
064
SACN62 CYYF 110800
METAR CYYF 110800Z 19031G38KT 12SM -SHRA BKN035 OVC060 05/01 A2956
 RMK SC6SC2 SLP019=

0000010600
065
SACN62 CYYY 110800
METAR CYYY 110800Z 21010KT 15SM BKN080 M05/M08 A3012 RMK AC6 SLP203=

0000101800
066
SANT31 KWBC 110800
METAR
BGBW 110750Z 07005KT 9999 FEW180 M12/M19 Q0996 RMK 2CS=
BGCO 110750Z AUTO VRB01KT //// FEW017/// BKN045/// BKN068///
     M08/M10 Q1011=
BGGH 110750Z AUTO 08012KT 9999NDV NCD M09/M16 Q0993=
BGJN 110750Z AUTO 10004KT 9999NDV FEW130/// BKN150/// M10/M19
     Q0994=
BGKK 110750Z AUTO 10010KT 9999NDV BKN060/// M03/M07 Q0996=
BGSF 110750Z AUTO 06006KT 9999NDV FEW140/// BKN180/// M17/M22
     Q0996=
BGTL 110758Z AUTO 09015KT 9999 CLR M12/M19 A2932 RMK AO2 SLP917
     T11171185=
BIAR 110800Z VRB04KT 9999 -SN FEW024 BKN038 OVC057 02/M03
     Q0997=
BIEG 110800Z 10025G36KT 5000 -SNRA SCT012 OVC020 01/M00 Q0995 RMK
     R04/790136=
BIKF 110800Z 22018KT 9999 FEW045 SCT055 BKN085 00/M02 Q0998=
BIRK 110800Z 20006KT CAVOK 01/M02 Q0998 R01/790140=
GVAC 110800Z 04005KT 9999 BKN013 BKN015 20/14 Q1016 NOSIG=
GVPR NIL=
LPBJ NIL=
LPLA 110800Z 33024G34KT 9999 FEW013 12/09 Q1004=
TXKF 110755Z 08010KT 9999 FEW026 SCT050 SCT300 17/11 Q1031=

0000010600
067
SACN62 CYZF 110800
METAR CYZF 110800Z 33007KT 15SM OVC068 M29/M32 A2958 RMK AC8 SLP045=

0000151800
068
SAPA31 KWBC 110800
METAR
AGGG NIL=
AGGH 110800Z 14003KT 9999 SCT020 BKN025 28/25 Q1005=
ANAU NIL=
AYPY NIL=
PGNT NIL=
PGRO 110750Z 05011KT 7SM SCT030 BKN120 26/23 A2988=
PGSN 110754Z 02014KT 10SM FEW020 SCT029 OVC047 25/23 A2987 RMK AO2
     RAE0659B36E48 SLP137 P0003 T02500233=
PGUA NIL=
PGUM 110754Z 06010KT 10SM FEW020 SCT040 27/22 A2987 RMK AO2 SLP107
     T02720217=
PGWT 110800Z 07006KT 7SM VCSH FEW010 SCT015 BKN100 25/23 A2987 RMK
     VCSH W WIND DATA ESTIMATED=
PGWT 110750Z 08014KT 3SM RA FEW010 SCT015 BKN100 27/23 A2987 RMK
     WIND DATA ESTIMATED=
PHJH NIL=
PHJR 110753Z VRB03KT 10SM CLR 19/18 A2995 RMK AO2 SLP150
     T01940178=
PHMK 110754Z AUTO 00000KT 10SM CLR 19/18 A2996 RMK AO2 SLP149
     T01890183 TSNO=
PJON NIL=
PKMJ NIL=
PKMR 110754Z 04016KT 15SM FEW015 FEW050 BKN300 28/23 A2973 RMK
     SLP069 T02770230=
PKWA 110800Z AUTO 06016KT 10SM CLR 28/19 A2977 RMK AO2
     T02780194=
PLCH NIL=
PMDY 110756Z AUTO 11018G21KT 5SM BR CLR 21/18 A3011 RMK AO2 TSNO
     T02050183 SLP507 ?=
PTKK 110751Z 10007KT 15SM FEW014 SCT120 OVC280 26/25 A2976 RMK
     SLP078 T02580247=
PTKR 110750Z 07007KT 15SM FEW017CB SCT040 BKN110 OVC280 27/24
     A2977 RMK SHRAE07 CB DSNT ALQDS SLP080 T02670243=
PTPN NIL=
PTRO NIL=
PTSA NIL=
PTTP 110750Z 05008KT 15SM FEW018 OVC300 28/23 A2978 RMK SLP085
     T02810234=
PTYA 110750Z 07010G19KT 12SM SCT016 BKN130 BKN300 29/23 A2980 RMK
     SLP093 T02870234=
PWAK NIL=

0000024600
069
SAIE32 EIDB 110800
METAR EICM 110800Z NIL=
METAR EIDL 110800Z NIL=
METAR EIKY 110750Z 08001KT 9999 NSC M02/M02 Q1018=
METAR EIME 110800Z 23006KT 9999 FEW013 02/01 Q1017=
METAR EISG 110800Z NIL=
METAR EIWF 110800Z NIL=

0000012900
070
SABZ24 SBUG 110800
METAR SBUG 110800Z 22007KT 1000 +TSRA BR BKN005
BKN012 FEW030CB OVC10
0
 20/19 Q1013=

0000011500
071
SACN62 CYZT 110800
METAR CYZT 110800Z 12016G24KT 6SM RA BR OVC009 04/03 A2912 RMK SC8
 SLP860=

0000009900
072
SACN62 CZBF 110800
METAR CZBF 110800Z 26002KT 15SM SKC M20/M23 A3020 RMK SLP233=

0000272400
073
SPUS70 KWBC 110806
SPECI
KBFD 110802Z AUTO 15008KT 2 1/2SM BR OVC002 04/03 A2980 RMK AO2
     T00390028 TSNO $=
KBMG 110802Z AUTO 20004KT 4SM -RA BR OVC008 08/07 A2957 RMK AO2
     P0000 T00830072=
KDMO 110802Z AUTO 28010KT 5SM UP BR OVC007 03/02 A2965 RMK AO2
     UPB02 CIG 003V010 P0000 T00280017=
KHAO 110802Z AUTO 10005KT 3SM +RA BR SCT010 OVC075 08/08 A2965 RMK
     AO2 LTG DSNT S P0004 T00830083=
KHUF 110802Z 19009KT 1 1/4SM -RA OVC002 06/ A2955 RMK AO2 VIS
     3/4V3 P0000 $=
KLAF 110802Z AUTO VRB04KT 3SM BR OVC003 06/06 A2953 RMK AO2
     T00560056=
KPAE 110802Z AUTO 16014G19KT 2 1/2SM -RA BR FEW004 BKN025 OVC030
     09/08 A2955 RMK AO2 P0001=
KSTS 110802Z AUTO 00000KT 1/2SM FG VV002 04/04 A3020 RMK AO2
     T00440044=
PAGY 110802Z AUTO 05006KT 10SM SCT018 BKN055 OVC070 01/M02 A2921
     RMK AO2 PRESFR TSNO $=
PAOO 110802Z AUTO 06024G28KT 1 1/4SM -SN SCT003 BKN012 BKN017
     M08/M11 A2929 RMK AO2 TSNO BKN V SCT P0000 PK WND 06028/0801
     $=
KAVL 110803Z AUTO 00000KT 1SM R34/P6000FT -RA BR OVC003 07/07
     A2995 RMK AO2 P0000=
KBDE 110803Z AUTO 31005KT 3SM -SN BR BKN013 BKN026 OVC034 M03/M04
     A2939 RMK AO2 P0000 T10331044 TSNO=
KCEW 110803Z AUTO 18012G16KT 10SM OVC004 19/18 A2994 RMK AO2 LTG
     DSNT SE T01940183=
KDCA 110803Z 00000KT 3SM -RA BR SCT002 OVC010 04/03 A3005 RMK AO2
     P0002=
KDEC 110803Z AUTO 20014KT 5SM BR BKN002 OVC015 06/06 A2949 RMK
     AO2=
KFFC 110803Z AUTO VRB03KT 1 1/4SM +TSRA BR BKN003 BKN013 OVC024
     13/13 A2991 RMK AO2 LTG DSNT ALQDS TSB03 P0013 T01280128=
KFXE 110803Z 14006KT 10SM FEW018 SCT025 SCT055 24/22 A3008 RMK AO2
     $=
KGVL 110803Z AUTO 13008KT 3SM TSRA BR BKN004 BKN009 OVC013 08/07
     A2994 RMK AO2 LTG DSNT ALQDS P0004=
KHFD 110803Z AUTO 00000KT 3/4SM UP BR OVC004 02/01 A3016 RMK AO2
     RAE03UPB03 P0000 T00170011=
KLGB 110803Z 00000KT 1SM BR SCT002 OVC010 11/09 A3011 RMK AO2=
KSFB 110803Z AUTO 15003KT 1/2SM FG VV011 19/19 A3007 RMK AO2=
KSPI 110803Z AUTO 24007KT 1/2SM FG VV002 04/04 A2951 RMK AO2=
KNFE 110801Z AUTO 15012G17KT 1 3/4SM RA SCT005 BKN019 OVC024 18/15
     A3007 RMK AO2 P0001 T01830150=
KBTL 110803Z 19013KT 1 3/4SM BR OVC003 04/04 A2951 RMK AO2
     T00440039=
KCMI 110803Z AUTO 18010KT 1/4SM R32R/1800V2000FT FG VV002 04/04
     A2949 RMK AO2=
KENW 110803Z AUTO 22007KT 3SM -RA BR OVC004 04/03 A2942 RMK AO2
     P0001 T00390028=
KHVN 110803Z AUTO 00000KT 1/2SM R02/1800V2400FT FG VV002 03/02
     A3014 RMK AO2 P0001=
KLNR 110803Z AUTO 26005KT 3SM BR OVC008 01/00 A2944 RMK AO2 CIG
     003V013 T00060000=
KOSH 110803Z 23004KT 2 1/2SM BR OVC002 02/01 A2939 RMK AO2
     T00170006=

0000170400
074
SAUS71 KWBC 110800
METAR
KABE 110751Z 05004KT 2 1/2SM BR OVC003 02/01 A3005=
KACK 110753Z AUTO 16009KT 3/4SM R24/3000V4000FT BR BKN001 OVC060
     06/05 A3024=
KACY 110754Z 16009KT 10SM OVC032 10/09 A3009=
KAGC 110753Z AUTO 16007KT 10SM CLR 09/06 A2977=
KAGS 110753Z AUTO 00000KT 1/4SM FG VV002 10/10 A2998=
KAKR 110754Z AUTO 19008KT 10SM SCT023 OVC035 09/07 A2968=
KALB 110751Z 00000KT 8SM -RA OVC005 01/M01 A3008=
KAND 110756Z AUTO 06004KT 1 3/4SM BR OVC004 08/08 A2995=
KAOO 110753Z AUTO 00000KT 1/4SM FG VV002 02/02 A2994=
KAPG NIL=
KART 110756Z AUTO VRB03KT 10SM FEW030 SCT036 07/04 A2984=
KAVL 110754Z AUTO 00000KT 1 3/4SM R34/4000VP6000FT -RA BR BKN003
     OVC011 07/07 A2996=
KAVP 110754Z AUTO 35003KT 2SM R04/1800VP6000FT BR OVC014 04/03
     A2997=
KBAF 110753Z 00000KT 1 1/4SM -RA BR OVC004 01/M01 A3016=
KBDL 110751Z 00000KT 3/4SM R06/P6000FT -RA BR SCT003 BKN005 OVC012
     01/00 A3016=
KBDR 110752Z AUTO 04004KT 1/2SM FG VV002 03/03 A3015=
KBED 110756Z AUTO 00000KT 1/4SM R11/2400V4000FT -RA FG VV003 01/01
     A3019=
KBFD 110753Z AUTO 16011G17KT 1 3/4SM BR OVC001 03/03 A2980=
KBGM 110753Z AUTO 15010KT 1/4SM FG VV002 03/03 A2992=
KBGR 110753Z 00000KT 10SM OVC060 M07/M09 A3025=
KBKL 110753Z AUTO 16010G19KT 10SM BKN020 OVC120 09/07 A2964=
KBKW 110751Z AUTO 16011G17KT 10SM FEW050 SCT065 17/08 A2987=
KBOS 110754Z 07003KT 1/4SM R04R/2200V2800FT -RA FG VV004 02/01
     A3021=
KBTV 110754Z 18009KT 10SM OVC020 03/M01 A3005=
KBUF 110754Z 16007KT 10SM FEW048 OVC080 04/03 A2972=
KBVY 110753Z AUTO 00000KT 1/2SM FG VV004 01/01 A3020=
KBWI 110754Z 00000KT 1/4SM R10/1200V1400FT FG VV002 02/02
     A3002=

00000000