0000011900
035
SACN62 CYYG 110700
METAR CYYG 110700Z 25007KT 15SM SCT015 BKN030 M03/M05 A3026 RMK
 NS3NS2 SLP252=

0000025400
036
FTUS43 KWBC 110706 AAA
TAF AMD
KDLH 110703Z 1107/1206 26005KT 2SM -FZDZ BR VV002
      TEMPO 1107/1110 1/2SM FZFG OVC001
     FM111000 26004KT 3SM BR OVC002
     FM111500 29009KT P6SM OVC014
     FM112200 29010KT P6SM BKN250=

0000036000
037
SAHW31 KWBC 110700
METAR
PBKH NIL=
PHJR 110653Z 00000KT 10SM CLR 19/18 A2996=
PHKO 110653Z 11005KT 10SM CLR 23/16 A2993=
PHLI 110653Z 05017KT 10SM FEW015 SCT020 BKN027 23/21 A2998=
PHNL 110653Z 06006KT 10SM FEW030 23/18 A2995=
PHOG 110654Z 16004KT 10SM FEW025 20/17 A2994=
PHTO 110653Z 23005KT 10SM CLR 20/19 A2998=
PNGF NIL=

0000015800
038
SATD31 TTPP 110700
METAR
TTPP 110700Z 00000KT 9999 FEW015 SCT040 22/21 Q1013 NOSIG=
TTCP 110700Z 00000KT 9999 FEW015 23/19 Q1014 NOSIG=

0000054900
039
SAIO31 KWBC 110700
METAR
FIMP 110700Z 08009KT 9999 SCT020 29/25 Q1016=
FIMR 110700Z 09015KT 9999 -SHRA SCT017 30/25 Q1016=
FJDG 110655Z 29012G19KT 9000 -SHRA FEW020 BKN050 OVC080 26/25
     A2987 RMK SLP112 P0006 T02640248=
FMCH NIL=
FMCV NIL=
FMCZ NIL=
FMEE NIL=
FMMI 110700Z 15004KT 9000 SCT017 BKN230 27/23 Q1022 NOSIG=
FMMT NIL=
FMNN NIL=
FSIA 110700Z 30003KT 3000 SHRA FEW009 FEW014CB BKN016 27/24 Q1012
     NOSIG=
FSSS NIL=
VRMM NIL=
VYMD NIL=
VYYY NIL=
WBGG NIL=
WBKK NIL=
WBSB NIL=

0000024600
040
SAIE32 EIDB 110700
METAR EICM 110700Z NIL=
METAR EIDL 110700Z NIL=
METAR EIKY 110650Z 09001KT 9999 NSC M02/M02 Q1018=
METAR EIME 110700Z 23011KT 9999 FEW008 01/01 Q1015=
METAR EISG 110700Z NIL=
METAR EIWF 110700Z NIL=

0000102200
041
SANT31 KWBC 110700
METAR
BGBW 110655Z NIL=
BGCO 110650Z AUTO 31005KT 270V340 //// SCT020/// BKN066/// M09/M10
     Q1011=
BGGH 110650Z AUTO 07012KT 9999NDV NCD M08/M16 Q0993=
BGJN 110650Z AUTO 08006KT 9999NDV BKN120/// BKN130/// M10/M19
     Q0994=
BGKK 110650Z AUTO 10008KT 9999NDV BKN057/// M04/M09 Q0995=
BGSF 110650Z AUTO 05006KT 9999NDV BKN140/// M17/M22 Q0995=
BGTL 110658Z AUTO 11015KT 9999 CLR M13/M18 A2933 RMK AO2 SLP921
     T11341181=
BIAR 110700Z 13008KT 040V200 9999 -SN SCT024 BKN036 OVC045 02/M03
     Q0997=
BIEG 110700Z 04012G23KT 9000 -SNRA SCT012 OVC020 01/M01 Q0996 RMK
     R04/790193=
BIKF 110700Z 30007KT 9999 FEW042 BKN125 00/M04 Q0997=
BIRK 110700Z 17007KT 9999 FEW025 SCT050 BKN100 M00/M03 Q0997
     R13/790193=
GVAC 110700Z 03007KT 9999 BKN015 BKN200 20/14 Q1015 NOSIG=
GVPR NIL=
LPBJ NIL=
LPLA 110700Z 32022G32KT 9000 -RA FEW013 SCT018 BKN034 12/10 Q1003
     RESHRA=
TXKF 110655Z 08011KT 9999 FEW026 SCT050 SCT300 17/11 Q1031=

0000166400
042
SAPA31 KWBC 110700
METAR
AGGG NIL=
AGGH NIL=
ANAU NIL=
AYPY NIL=
PGNT NIL=
PGRO 110650Z 04011KT 7SM SCT030 SCT120 26/23 A2987=
PGSN 110701Z 03009G19KT 10SM FEW019 BKN030 OVC047 25/23 A2987 RMK
     AO2 RAE0659 P0000=
PGSN 110654Z 02011G25KT 5SM -RA BR SCT019 BKN029 OVC050 25/23
     A2987 RMK AO2 RAB29 SLP136 P0000 T02500233=
PGSN 110651Z 02015G25KT 5SM -RA BR FEW015 BKN029 OVC037 26/23
     A2987 RMK AO2 RAB29 P0000=
PGUA NIL=
PGUM 110654Z 05014KT 10SM FEW024 SCT043 BKN070 27/22 A2986 RMK AO2
     RAB06E17 SLP104 P0001 T02670222=
PGWT 110650Z 08015G24KT 6SM -RA FEW015 SCT030 BKN100 26/23 A2987
     RMK WIND DATA ESTIMATED=
PHJH NIL=
PHJR 110653Z 00000KT 10SM CLR 19/18 A2996 RMK AO2 SLP151
     T01940178=
PHMK 110654Z AUTO 03004KT 10SM CLR 22/18 A2995 RMK AO2 SLP145
     T02170178 TSNO=
PJON NIL=
PKMJ NIL=
PKMR 110650Z 04017KT 15SM FEW015 FEW050 OVC300 28/23 A2972 RMK
     SLP064 T02780230=
PKWA 110700Z AUTO 07014KT 10SM SCT033 OVC050 28/20 A2976 RMK AO2
     T02830200=
PLCH NIL=
PMDY 110656Z AUTO 11016KT 4SM HZ CLR 21/18 A3010 RMK AO2 TSNO
     T02110183 SLP504 ?=
PTKK 110652Z 03010KT 15SM FEW014 SCT120 OVC280 27/26 A2974 RMK
     SLP072 T02740261=
PTKR 110651Z 04005KT 15SM SCT016CB OVC280 27/25 A2975 RMK CB ALQDS
     MOV W SLP075 T02720250=
PTPN NIL=
PTRO 110656Z 06006G11KT 13SM BKN015CB BKN100 OVC280 26/25 A2974
     RMK CB VC ALQDS=
PTSA NIL=
PTTP 110655Z 06007KT 15SM SCT018TCU OVC300 28/23 A2977 RMK TCU SW
     SLP081 T02840228=
PTYA 110652Z 07012G20KT 12SM SCT016 BKN130 BKN300 30/24 A2979 RMK
     SLP088 T02950242=
PWAK NIL=

0000019500
043
FTCN34 CWAO 110700 AAA
TAF AMD CYNE 110705Z 1107/1119 33005KT P6SM SCT006 OVC015 TEMPO
     1107/1119 4SM -SN BR BKN006
    RMK FCST BASED ON AUTO OBS. NXT FCST BY 111300Z=

0000014700
044
SACN62 CYHM 110700
METAR CYHM 110700Z 07007KT 1SM -SHRA BR BKN006 OVC019 01/01 A2972 RMK
 FG3SF4SC1 VIS VRB 3/4 - 11/4 SLP072=

0000014500
045
SACN62 CYDF 110700
METAR CYDF 110700Z 23011G//KT 15SM SCT023 BKN041 OVC070 M04/M08 A3009
 RMK SC3SC3AC2 G16 WND ESTD SLP192=

0000013500
046
SACN62 CYKA 110700
METAR CYKA 110700Z 10012KT 30SM FEW015 BKN068 OVC100 01/M01 A2951 RMK
 SF1AC5AC2 PRESFR SLP008=

0000010600
047
SACN62 CYXE 110700
METAR CYXE 110700Z 26009KT 15SM SCT200 M13/M14 A2959 RMK CI4 SLP061=

0000012500
048
SACN62 CYUY 110700
METAR CYUY 110700Z 16009KT 2 1/2SM -FZDZ -SN BR OVC004 M03/M04 A2972
 RMK SF8 SLP082=

0000011600
049
SACN62 CYQT 110700
METAR CYQT 110700Z 00000KT 1 1/2SM -SN OVC020 M04/M04 A2943 RMK SC8
 SLP978=

0000012300
050
SACN62 CYXC 110700
METAR CYXC 110700Z 17011KT 10SM VCSH BKN035 OVC060 02/M01 A2971 RMK
 SC5SC3 SLP091=

0000011600
051
SACN62 CYVC 110700
METAR CYVC 110700Z 27009G15KT 10SM -SN OVC020 M10/M12 A2951 RMK SC8
 SLP021=

0000009300
052
SADN31 EKCH 110650 RRA
METAR EKRN 110650Z 25018KT 9999 BKN013 06/06 Q1008=

0000009300
053
SADN31 EKCH 110650 RRB
METAR EKRN 110650Z 25018KT 9999 BKN013 06/06 Q1008=

0000012300
054
SACN62 CYZT 110700
METAR CYZT 110700Z 11024G32KT 6SM -RA BR OVC009 04/03 A2911 RMK SC8
 PRESFR SLP858=

00000000