0000041400
015
SAIY36 LIIB 110800
METAR LIBC 110750Z 35003KT 9999 SCT030 11/11 Q1023=
METAR LIBF 110750Z 00000KT 1500 BR BKN020 07/07 Q1023=
METAR LIBG 110750Z 00000KT 9999 FEW025 SCT028 BKN030 08/08 Q1022=
METAR LIBP 110750Z VRB03KT 8000 FEW070 05/03 Q1024=
METAR LIRI 110750Z 00000KT 7000 FEW040 07/06 Q1023=
METAR LIRJ 110800Z NIL=
METAR LIRZ 110750Z VRB02KT 0050 R01/0225N FG VV/// 04/04 Q1023=

0000017800
016
SAKY31 RUMS 110800
METAR UCFM 110800Z 06002MPS 5000 FU NSC M00/M12 Q1021 R08/CLRD70
NOSIG=
METAR UCFO 110800Z 28002MPS CAVOK 02/M09 Q1025 R12/CLRD70 NOSIG=

0000092600
017
SAKZ31 RUMS 110800
METAR UAAA 110800Z VRB01MPS 2500 FU FEW100 BKN200 M02/M11 Q1021
8891//60 NOSIG=
METAR UACC 110800Z 19009MPS 6000 -SN DRSN OVC027 M07/M09 Q1022
R22/4/0340 NOSIG RMK QFE735/0980=
METAR UAKK 110800Z 18008MPS 9999 FEW033 OVC110 M11/M15 Q1024
R23/850555 NOSIG RMK QFE720/0961=
METAR UAOO 110800Z 21006MPS 5000 BR BKN330 M01/M05 Q1020 R24/3///55
NOSIG RMK QFE753/1004=
METAR UARR 110800Z 18011MPS 4300 BR OVC002 00/00 Q1007 R22/750245
TEMPO 18018MPS 3000 -SNRA BR OVC002 RMK QBB070 QFE752/1003=
METAR UATE 110800Z 12007MPS 9999 OVC015 03/02 Q1015 R12/0///70 NOSIG
RMK QFE759/1012=
METAR UATG 110800Z 19007MPS 5000 BR OVC032 03/02 Q1014 R14/19//65
NOSIG RMK QFE763/1017=
METAR UATT 110800Z 24004MPS 200V280 9999 OVC004 M00/M00 Q1013
R13/39//40 NOSIG RMK QBB120 QFE740/0987=
METAR UAUU 110800Z 17007MPS 9999 OVC042 M07/M09 Q1014 R15/CLRD60
NOSIG RMK QFE744/0992=

0000028700
018
SAIY37 LIIB 110800
METAR LICA 110750Z 06012KT CAVOK 12/09 Q1023=
METAR LICD 110750Z 18011KT 9999 FEW030 17/15 Q1022=
METAR LICG 110755Z /////KT CAVOK 16/13 Q1020=
METAR LICR 110750Z 08004KT 9999 FEW020 13/10 Q1023=
METAR LICT 110755Z 13009KT CAVOK 14/12 Q1020=

0000012100
019
SAGQ21 FGSL 110800
METAR FGSL 110800Z 21003KT 170V240 6000 FEW012 FEW020CB BKN130 28/24
Q1013 NOSIG=

0000010600
020
SACN62 CYQR 110800
METAR CYQR 110800Z 29012KT 15SM BKN044 M09/M10 A2960 RMK SC5 SLP063=

0000012300
021
SACN61 CYPY 110800
METAR CYPY 110800Z AUTO 29003KT 9SM FEW029 OVC090 M21/M24 A2958 RMK
 PRESFR SLP044=

0000012400
022
SACN62 CYQK 110800
METAR CYQK 110800Z 29005KT 3/8SM -FZDZ -SN FZFG VV002 M04/M05 A2937
 RMK FG8 SLP968=

0000010500
023
SACN62 CYQM 110800
METAR CYQM 110800Z 23007KT 15SM SKC M08/M09 A3024 RMK FROIN SLP246=

0000011900
024
SACN62 CYQB 110800
METAR CYQB 110800Z 04005KT 12SM SCT020 OVC030 M07/M09 A3014 RMK
 SC4SC4 SLP211=

0000011900
025
SACN62 CYSJ 110800
METAR CYSJ 110800Z 00000KT 15SM BKN014 OVC025 M04/M05 A3026 RMK
 SC5SC3 SLP253=

0000011900
026
SACN62 CYQT 110800
METAR CYQT 110800Z 00000KT 2 1/2SM -SN BR OVC046 M05/M05 A2941 RMK
 SC8 SLP972=

0000011600
027
SACN62 CYQU 110800
METAR CYQU 110800Z 10006KT 25SM OVC110 M07/M11 A2934 RMK AC8 PRESFR
 SLP971=

0000013800
028
SACN62 CYSB 110800
METAR CYSB 110800Z 14015KT 1SM R22/P6000FT/N -FZRA BR OVC002 M00/M00
 A2954 RMK SF8 PRESFR SLP021=

0000010600
029
SACN31 CWAO 110800
METAR CYYR 110800Z 25021KT 15SM FEW140 M10/M16 A2990 RMK AC1 SLP129=

0000009700
030
SPUS41 KWBC 110805
SPECI
KGSO 110801Z 02003KT 2SM -RA FG OVC002 04/03 A2999=

0000010500
031
SPUS42 KWBC 110805
SPECI
KBPT 110801Z AUTO 22005KT 5SM BR BKN006 BKN016 18/17 A2985=

0000011600
032
SATU32 LTAA 110750 RRA
METAR LTBF 110750Z 00000KT 2000 R18/P1500U BR SCT035 05/03 Q1025
 NOSIG=

0000011100
033
SAMJ41 LWSK 110800
METAR LWSK 110800Z 12002KT 0200 R34/0450N FG OVC002 00/M00 Q1026
NOSIG=

0000028000
034
SAAO34 GOOY 110730
METAR GBYD 110730Z NIL=
METAR GFLL 110730Z NIL=
METAR GLRB 110730Z 34004KT 8000 SCT013  FEW022CB BKN100 24/23
Q1011 RMK CB-SW, BRVC=
METAR GVAC 110730Z NIL=
METAR GVBA 110730Z NIL=
METAR GVNP 110730Z NIL=
METAR GVSV 110730Z NIL=

00000000