0000083100
495
SASP32 LEMM 110600
METAR COR LEAS 110600Z 00000KT 9999 FEW015 BKN030 09/09 Q1018
NOSIG=
METAR LEBB 110600Z VRB02KT 9999 FEW025 BKN034 10/08 Q1018 NOSIG=
METAR LECO 110600Z VRB01KT 0300 R21/0400N R03/0400N FG VV001
04/04 Q1017=
METAR LEGE 110600Z VRB01KT 7000 BKN020 08/07 Q1019=
METAR LEST 110600Z VRB01KT 3500 BR BKN005 01/01 Q1016 TEMPO 0700
BCFG=
METAR LEZG 110600Z 29006KT 0500 R30R/1200D R12R/1000N R30L/0900N
BCFG VV001 05/05 Q1018=
METAR LESO 110600Z VRB02KT 9999 SCT019 SCT025 BKN040 10/08 Q1018=
METAR LEVT 110600Z 00000KT 3000 BR BKN010 02/01 Q1018=
METAR LERS 110600Z 01003KT 350V050 9999 BKN021 11/08 Q1018=
METAR LEMH 110600Z 10006KT 9000 SCT006 13/12 Q1017=
METAR LEAM 110600Z VRB02KT 9999 FEW020 12/08 Q1016=
METAR LEGR 110600Z VRB01KT 8000 FEW030 BKN090 06/06 Q1017=

0000019700
496
SASP33 LEMM 110600
METAR LEVD 110600Z 10003KT 0500 R23/1700D FG NSC 00/00 Q1016=
METAR LEVS 110600Z 00000KT CAVOK 06/06 Q1017=
METAR LESA 110600Z 00000KT CAVOK M02/M02 Q1016=

0000029700
497
SASP34 LEMM 110600
METAR LEDA 110600Z NIL=
METAR LEJR 110600Z 01004KT 9999 -RA SCT060 11/11 Q1015=
METAR LELL 110600Z NIL=
METAR LEPP 110600Z 00000KT 0150 R33/0650U R15/0300N FG VV001
03/03 Q1018=
METAR LEXJ 110600Z 00000KT 7000 -DZ FEW006 SCT008 OVC015 11/10
Q1018=

0000035100
498
SACR31 LEMM 110600
METAR GCLP 110600Z 33006KT 290V350 9999 FEW020 15/11 Q1017 NOSIG=
METAR GCXO 110600Z 28006KT CAVOK 11/08 Q1018 NOSIG=
METAR GCTS 110600Z 01007KT 9999 SCT030 15/11 Q1016 NOSIG=
METAR GCRR 110600Z 34006KT 9999 FEW025 13/10 Q1017=
METAR GCFV 110600Z 33003KT 9999 FEW020 13/10 Q1017=
METAR GCLA 110600Z NIL=

0000032100
499
SASP35 LEMM 110600
METAR LEAB 110600Z VRB02KT 7000 OVC005 06/05 Q1017 NOSIG=
METAR LEBZ 110600Z 00000KT 0300 R31/0700N FG NSC 05/05 Q1016=
METAR LELC 110600Z 29003KT 9999 FEW019 10/09 Q1017 NOSIG=
METAR LELN 110600Z 36003KT CAVOK 01/01 Q1016=
METAR LETO 110600Z 00000KT CAVOK 06/05 Q1017 NOSIG=

0000009600
500
SASP39 LEMM 110600
METAR LETL 110600Z AUTO 14003KT 0450 FG VV001 02/02 Q1017=

0000010400
501
SASC20 FSIA 110600
METAR FSIA 110600Z 30006KT 9999 FEW014CB BKN016 29/24 Q1012 NOSIG=

0000008900
502
SAJM31 MKJS 110600
METAR MKJS 110600Z 15008KT 9999 FEW024 25/18 Q1015=

0000004200
503
SACR32 LEMM 110600
NIL=

0000011300
504
SACN62 CYVQ 110600
METAR CYVQ 110600Z 28006KT 20SM -SN BKN080 M25/M28 A2974 RMK AC6
 SLP083=

0000010600
505
SACN62 CYXJ 110600
METAR CYXJ 110600Z 19005KT 15SM BKN180 M06/M11 A2936 RMK AC7 SLP992=

0000012500
506
SACN62 CYXL 110600
METAR CYXL 110600Z 16005KT 6SM -SN BR BKN031 OVC040 M06/M07 A2938 RMK
 SC6SC2 SLP975=

0000031300
507
SATS41 DTTA 110600
METAR DTTB 110600Z 25002KT 8000 NSC 06/06 Q1018=
METAR DTTD 110600Z 21008KT 170V250 CAVOK 14/04 Q1021=
METAR DTTG NIL=
METAR DTTK 110600Z VRB02KT CAVOK 09/04 Q1019=
METAR DTTL 110600Z 00000KT 8000 NSC 08/07 Q1019=
METAR DTTN 110600Z 00000KT 3000 BR NSC 04/04 Q1019=

0000012700
508
SACN62 CYYB 110600
METAR CYYB 110600Z 11010KT 1SM -FZRA BR OVC002 M00/M01 A2974 RMK
 FG4SF4 PRESFR SLP091=

0000013500
509
SACN62 CYYJ 110600
METAR CYYJ 110600Z 14012G17KT 6SM RA BR FEW004 BKN009 OVC014 07/07
 A2951 RMK SC2SC4SC2 SLP995=

0000010600
510
SACN62 CYYE 110600
METAR CYYE 110600Z 00000KT 15SM BKN080 M18/M20 A2949 RMK AC6 SLP023=

0000012900
511
SACN62 CYXT 110600
METAR CYXT 110600Z 36015G23KT 1 1/2SM -SN OVC015 M00/M00 A2916 RMK
 SN6SC2 PRESFR SLP884=

0000011900
512
SACN62 CYYG 110600
METAR CYYG 110600Z 24003KT 15SM SCT010 BKN030 M04/M05 A3025 RMK
 SF3SC2 SLP247=

0000011200
513
SACN62 CYYQ 110600
METAR CYYQ 110600Z 33006KT 15SM IC FEW210 M28/M31 A2972 RMK CI2
 SLP068=

0000055400
514
SATS40 DTTA 110600
METAR DTKA 110600Z 04005KT 9999 FEW020 07/05 Q1017 NOSIG=
METAR DTMB 110600Z 17010KT CAVOK 11/06 Q1019 NOSIG=
METAR DTNH 110600Z AUTO 24004KT CAVOK 04/03 Q1019=
METAR DTTA 110600Z 00000KT 4000 BR FEW010 SCT020 08/07 Q1019 NOSIG=
METAR DTTF 110600Z 24004KT 8000 FEW030 08/04 Q1021 NOSIG=
METAR DTTJ 110600Z 18006KT 6000 FEW023 09/07 Q1020 NOSIG=
METAR DTTR 110600Z 14006KT CAVOK 09/05 Q1022=
METAR DTTX 110600Z 22005KT CAVOK 07/05 Q1020 NOSIG=
METAR DTTZ 110600Z 27006KT 9999 FEW030 08/04 Q1021 NOSIG=

00000000