0000011000
675
UANT99 KDDL 111712
ARP UAL85 5355N03133W 1712 F360 MS57 184/30 KT
N57016 DDL XXN 111712 F92A
0000011000
676
UANT99 KDDL 111712
ARP DAL29 5201N01559W 1712 F330 MS59 215/82 KT
N172DZ QXT AOE 111712 F02A
0000026200
677
SAIE31 EIDB 110530
METAR EIDW 110530Z 26018KT 9999 SCT007 BKN009 BKN011 03/02 Q1014
     NOSIG=
METAR EINN 110530Z 29004KT 9999 SCT040 02/01 Q1016 NOSIG=
METAR EICK 110530Z 28005KT 9999 FEW016 03/01 Q1016 NOSIG=
METAR EIKN 110530Z NIL=

0000009600
678
FCMC31 GMMC 110500 RRA
TAF GMMX 110500Z 1107/1116 24006KT 8000 SCT026 SCT100=

0000022500
679
FTAU31 YBBN 110500 AAB
TAF COR YBBN 110533Z 1106/1212
10010KT 9999 FEW035
FM111000 13007KT 9999 FEW030
FM111400 20004KT 9999 SCT030
FM120100 11013KT 9999 FEW035
FM120900 14008KT 9999 FEW030
RMK=

0000149700
680
FTSA32 KWBC 110533
TAF
TAF SCAR 110430Z 1106/1206 08005KT 9999 BKN045 TN20/1106Z
      TX25/1118Z
      BECMG 1109/1111 02005KT CAVOK
      BECMG 1112/1114 20005KT
      BECMG 1116/1118 21015KT
      BECMG 1200/1202 17005KT=
TAF SCBA 110356Z 1106/1206 30015KT CAVOK TN05/1108Z TX14/1120Z
      BECMG 1118/1120 30020KT=
TAF SCCF 110430Z 1106/1206 09010KT CAVOK TN08/1106Z TX25/1118Z
      BECMG 1114/1116 25015KT
      BECMG 1118/1120 26022KT
      BECMG 1204/1206 08010KT=
TAF SCCI 110440Z 1106/1206 29020G30KT 9999 SCT030 OVC070
      TN08/1109Z
      TX16/1118Z
      TEMPO 1106/1112 7000 -SHRA OVC020
      BECMG 1109/1111 28027G40KT BKN040
      TEMPO 1112/1121 29035G45KT 9000
      BECMG 1121/1123 28020KT 9999 BKN030
      BECMG 1203/1205 30011KT SCT030=
TAF SCDA 110430Z 1106/1206 07005KT CAVOK TN20/1106Z TX25/1118Z
      BECMG 1110/1112 20008KT
      BECMG 1118/1120 20018KT
      BECMG 1202/1204 18005KT=
TAF SCEL 110415Z 1106/1206 VRB02KT CAVOK TX33/1119Z TN16/1110Z
      BECMG 1113/1115 17004KT
      BECMG 1116/1118 19013KT
      BECMG 1202/1204 17005KT=
TAF SCFA 110430Z 1106/1206 18005KT 9999 SCT014 TN19/1106Z
      TX26/1118Z
      BECMG 1108/1110 08005KT FEW017
      BECMG 1112/1114 18010KT
      BECMG 1202/120 4 15005KT SCT015=
TAF SCIE 110415Z 1106/1206 24005KT CAVOK TX25/1118Z TN12/1110Z
      BECMG 1108/1110 VRB02KT
      BECMG 1113/1115 21010KT
      BECMG 1202/1204 22005KT=

0000046000
681
FTSA32 KWBC 110533 RRA
TAF
TAF SCIP 110430Z 1106/1206 VRB03KT 9999 SCT020 BKN060 TN20/1110Z
      TX26 /1120Z
      BECMG 1106/1108 10003KT SCT020
      TEMPO 1113/1123 07010KT 7000 - SHRA SCT017 BKN025
      BECMG 1114/1116 11010KT
      BECMG 1203/1205 10003KT=
TAF SCTE 110356Z 1106/1206 VRB02KT CAVOK TN06/1109Z TX23/1120Z
      BECMG 1109/1111 19005KT SCT025
      BECMG 1114/1116 16008KT CAVOK BECM 1201/1203 VRB02KT=

0000038500
682
FTSA42 KWBC 110533
TAF
TAF SCSE 110415Z 1106/1206 VRB02KT CAVOK TX22/1118Z TN14/1110Z
      TEMPO 1108/1112 03004KT 3000 BR OVC008
      BECMG 1114/1116 SCT013
      BECMG 1116/1118 28010KT CAVOK
      BECMG 1202/1204 VRB02KT=
TAF SCTC 110355Z 1106/1206 VRB02KT CAVOK TN07/1109Z TX29/1120Z
      BECMG 1114/1116 23008KT
      BECMG 1201/1203 VRB02KT=

0000140800
683
FTUS52 KWBC 110533
TAF
KCSM 110530Z 1106/1206 28008KT P6SM SCT120
     FM111800 31013KT P6SM SKC
     FM120000 19007KT P6SM SKC=
KGAG 110530Z 1106/1206 27009KT P6SM FEW120
     FM111800 29012KT P6SM SKC
     FM120100 18010KT P6SM SKC=
KHBR 110530Z 1106/1206 28008KT P6SM SCT120
     FM111800 31012KT P6SM SKC
     FM120000 19007KT P6SM SKC=
KHUM 110530Z 1106/1206 17010KT 3SM BR OVC002
     FM110800 19010KT 2SM BR OVC002
     FM111400 26009KT P6SM BKN015
     FM111700 31012KT P6SM SKC
     FM120000 VRB03KT P6SM SKC=
KJKL 110530Z 1106/1206 18008KT P6SM VCSH BKN020 OVC200
      WS010/20050KT
      TEMPO 1106/1110 SCT015 OVC200
     FM111000 18008KT 5SM -SHRA BR BKN015 OVC080 WS010/20050KT
     FM111400 23010KT 4SM -RA BR OVC010
     FM111700 25012G22KT P6SM BKN015
     FM112000 25012G22KT P6SM BKN025
     FM120100 25006KT P6SM OVC015=
KLAW 110530Z 1106/1206 29005KT P6SM SCT120
     FM111700 31011KT P6SM SKC
     FM120000 18006KT P6SM SKC=
KMCB 110530Z 1106/1206 18012KT 5SM -RA BR OVC003
      TEMPO 1106/1109 2SM TSRA OVC003CB
     FM111000 23010KT 5SM BR OVC005
     FM111500 30008KT P6SM SCT250
     FM111800 30012G20KT P6SM SKC
     FM120000 30004KT P6SM SKC=
KPNC 110530Z 1106/1206 27010KT P6SM SCT050 SCT120
     FM111000 27008KT P6SM FEW120
     FM111800 29012KT P6SM SKC
     FM120100 18007KT P6SM SKC=

0000015700
684
FTUS52 KWBC 110533 RRA
TAF
KSPS 110530Z 1106/1206 27008KT P6SM SCT120
     FM111800 31012KT P6SM SKC
     FM120000 18007KT P6SM SKC=

0000059300
685
FTUS53 KWBC 110533
TAF
KCMX 110531Z 1106/1206 14007KT 2SM -SN BR SCT004 BKN015
      TEMPO 1106/1109 BKN004
     FM110900 27008KT 2SM -SN BR BKN004
     FM111400 28012KT 5SM -SN BR BKN008
     FM111900 30014G22KT P6SM BKN015=
KLOZ 110530Z 1106/1206 18008KT P6SM VCSH BKN015 OVC200
      WS010/20050KT
      TEMPO 1106/1110 SCT015 OVC200
     FM111000 18008KT 5SM -SHRA BR BKN009 OVC080 WS010/20050KT
     FM111300 23011KT 4SM -RA BR OVC008
     FM111600 25014G23KT P6SM BKN015
     FM111800 25012G22KT P6SM BKN025
     FM120100 25006KT P6SM BKN015=

0000030800
686
FTUS54 KWBC 110533
TAF
KRBL 110531Z 1106/1206 VRB05KT P6SM BKN200
     FM111600 17013G23KT P6SM VCSH OVC035
      TEMPO 1118/1122 3SM -RA OVC015=
KRDD 110531Z 1106/1206 VRB04KT P6SM BKN200
     FM111500 18012KT P6SM -SHRA OVC035
      TEMPO 1118/1122 18015G25KT 3SM -RA OVC015=

0000144700
687
FTUS80 KWBC 110533
TAF
KASD 110530Z 1106/1206 18008KT 3SM BR OVC002
     FM110800 19010KT 1/2SM FG OVC001
      TEMPO 1108/1112 2SM TSRA OVC006CB
     FM111400 28009KT P6SM BKN015
     FM111700 32010G18KT P6SM SKC
     FM120000 VRB03KT P6SM SKC=
KBTR 110530Z 1106/1206 18010KT 5SM -SHRA BR OVC006
      TEMPO 1106/1109 2SM TSRA OVC003CB
     FM110900 23012KT 2SM BR OVC004
     FM111500 30009KT P6SM SCT250
     FM120000 VRB03KT P6SM SKC=
KCMX 110531Z 1106/1206 14007KT 2SM -SN BR SCT004 BKN015
      TEMPO 1106/1109 BKN004
     FM110900 27008KT 2SM -SN BR BKN004
     FM111400 28012KT 5SM -SN BR BKN008
     FM111900 30014G22KT P6SM BKN015=
KCSM 110530Z 1106/1206 28008KT P6SM SCT120
     FM111800 31013KT P6SM SKC
     FM120000 19007KT P6SM SKC=
KGAG 110530Z 1106/1206 27009KT P6SM FEW120
     FM111800 29012KT P6SM SKC
     FM120100 18010KT P6SM SKC=
KGPT 110530Z 1106/1206 15010KT 1/2SM FG OVC002
      TEMPO 1106/1110 TSRA OVC002CB
     FM111200 19010KT 3SM BR OVC003
     FM111500 28008KT P6SM BKN015
     FM111800 30010G18KT P6SM SKC
     FM120000 31005KT P6SM SKC=
KHBR 110530Z 1106/1206 28008KT P6SM SCT120
     FM111800 31012KT P6SM SKC
     FM120000 19007KT P6SM SKC=
KHUM 110530Z 1106/1206 17010KT 3SM BR OVC002
     FM110800 19010KT 2SM BR OVC002
     FM111400 26009KT P6SM BKN015
     FM111700 31012KT P6SM SKC
     FM120000 VRB03KT P6SM SKC=

0000131300
688
FTUS80 KWBC 110533 RRA
TAF
KJKL 110530Z 1106/1206 18008KT P6SM VCSH BKN020 OVC200
      WS010/20050KT
      TEMPO 1106/1110 SCT015 OVC200
     FM111000 18008KT 5SM -SHRA BR BKN015 OVC080 WS010/20050KT
     FM111400 23010KT 4SM -RA BR OVC010
     FM111700 25012G22KT P6SM BKN015
     FM112000 25012G22KT P6SM BKN025
     FM120100 25006KT P6SM OVC015=
KLAW 110530Z 1106/1206 29005KT P6SM SCT120
     FM111700 31011KT P6SM SKC
     FM120000 18006KT P6SM SKC=
KLOZ 110530Z 1106/1206 18008KT P6SM VCSH BKN015 OVC200
      WS010/20050KT
      TEMPO 1106/1110 SCT015 OVC200
     FM111000 18008KT 5SM -SHRA BR BKN009 OVC080 WS010/20050KT
     FM111300 23011KT 4SM -RA BR OVC008
     FM111600 25014G23KT P6SM BKN015
     FM111800 25012G22KT P6SM BKN025
     FM120100 25006KT P6SM BKN015=
KMCB 110530Z 1106/1206 18012KT 5SM -RA BR OVC003
      TEMPO 1106/1109 2SM TSRA OVC003CB
     FM111000 23010KT 5SM BR OVC005
     FM111500 30008KT P6SM SCT250
     FM111800 30012G20KT P6SM SKC
     FM120000 30004KT P6SM SKC=
KMSY 110530Z 1106/1206 19012KT 2SM BR BKN003 OVC006
      TEMPO 1106/1109 1/2SM FG OVC002
     FM110900 21012KT 3SM -RA OVC004
     FM111400 25012KT 5SM BR OVC015
     FM111800 30012KT P6SM SCT250
     FM120000 31007KT P6SM SKC=

0000130700
689
FTUS80 KWBC 110533 RRB
TAF
KNEW 110530Z 1106/1206 16010KT 1/2SM FG VV003
      TEMPO 1106/1109 2SM TSRA OVC006CB
     FM110900 22015KT 3SM BR OVC002
     FM111400 27013KT 2SM BR OVC003
     FM111800 31015KT P6SM SCT250=
KOKC 110530Z 1106/1206 28008KT P6SM SCT120
     FM111800 30014KT P6SM SKC
     FM120100 20006KT P6SM SKC=
KPNC 110530Z 1106/1206 27010KT P6SM SCT050 SCT120
     FM111000 27008KT P6SM FEW120
     FM111800 29012KT P6SM SKC
     FM120100 18007KT P6SM SKC=
KRBL 110531Z 1106/1206 VRB05KT P6SM BKN200
     FM111600 17013G23KT P6SM VCSH OVC035
      TEMPO 1118/1122 3SM -RA OVC015=
KRDD 110531Z 1106/1206 VRB04KT P6SM BKN200
     FM111500 18012KT P6SM -SHRA OVC035
      TEMPO 1118/1122 18015G25KT 3SM -RA OVC015=
KSAC 110531Z 1106/1206 00000KT P6SM BKN250
     FM111000 VRB03KT 4SM BR BKN200
      TEMPO 1111/1114 2SM BR
     FM111700 17011KT P6SM VCSH BKN050 OVC100=
KSAW 110531Z 1106/1206 14005KT 1 1/2SM -SN BR OVC007
     FM111500 30010KT P6SM OVC015
     FM112100 31012KT P6SM BKN025
     FM120200 30008KT P6SM BKN040 AMD LTD TO CLD VIS AND WIND TIL
      111100=
KSCK 110531Z 1106/1206 VRB04KT P6SM BKN250
     FM111000 VRB03KT 4SM BR BKN250
      TEMPO 1111/1115 2SM BR
     FM111900 15008KT P6SM OVC100=

0000149300
690
FTUS80 KWBC 110533 RRC
TAF
KSME 110530Z 1106/1206 18008KT P6SM VCSH BKN015 OVC200
      WS010/20050KT
      TEMPO 1106/1109 SCT015 OVC200
     FM110900 18008KT 5SM -SHRA BR BKN009 OVC080 WS010/20050KT
     FM111200 23011KT 4SM -RA BR OVC008
     FM111500 25014G23KT P6SM BKN015
     FM111800 25014G23KT P6SM BKN025
     FM120100 25006KT P6SM BKN015=
KSMF 110531Z 1106/1206 VRB02KT P6SM BKN250
     FM111000 VRB04KT 4SM BR BKN200
      TEMPO 1111/1114 1SM BR BKN003
     FM111700 18014KT P6SM VCSH BKN050 OVC100=
KSPS 110530Z 1106/1206 27008KT P6SM SCT120
     FM111800 31012KT P6SM SKC
     FM120000 18007KT P6SM SKC=
TIST 110531Z 1106/1206 08010KT P6SM VCSH FEW030 SCT060
     FM111230 08015G23KT P6SM FEW035
     FM112300 09008KT P6SM FEW025=
TISX 110531Z 1106/1206 06007KT P6SM VCSH FEW030 SCT060
     FM111230 09016G23KT P6SM SCT025
     FM112200 08009KT P6SM FEW025=
TJBQ 110531Z 1106/1206 11008KT P6SM FEW030
     FM111400 08020G27KT P6SM SCT020
     FM112300 10010KT P6SM SCT020 AMD NOT SKED TIL 111100=
TJMZ 110531Z 1106/1206 07007KT P6SM FEW040
     FM111530 08008KT P6SM SCT030
     FM112200 06006KT P6SM SCT025 SCT040 AMD NOT SKED TIL 111600=
TJPS 110531Z 1106/1206 06005KT P6SM FEW030
     FM111500 13010KT P6SM SCT030
     FM112230 09007KT P6SM FEW030 AMD NOT SKED 1112/1203=
TJSJ 110531Z 1106/1206 10007KT P6SM VCSH SCT030
     FM111330 07016G25KT P6SM SCT030
     FM112200 10006KT P6SM FEW030=

0000013200
691
FTUS80 KWBC 110533 RRD
TAF
TNCM 110531Z 1106/1206 07011KT P6SM VCSH FEW019
     FM111300 09015KT P6SM SCT020=

0000011000
692
SPUS31 KWBC 110533
SPECI
KBWI 110529Z 00000KT 1/4SM R10/1200V1400FT FG VV001 02/02 A3012=

0000012200
693
SPUS41 KWBC 110533
SPECI
KBAF 110529Z 00000KT 3/4SM R20/5500VP6000FT -FZRA BR OVC003
M01/M01 A3023=

0000010200
694
SPUS41 KWBC 110533
SPECI
KAVP 110529Z AUTO VRB03KT 2SM -RA BR OVC010 02/02 A3008=

00000000