0000009200
575
SAIN90 VOTR 111710
METAR VOTR 111710Z 09005KT 4000 HZ NSC 23/20 Q1015 NOSIG=
0000017600
576
SAIN32 VIDP 111700
METAR VIDP 111700Z 22004KT 0800 R28/P2000 R29/P2000 MIFG NSC 11/09
      Q1021 NOSIG=
METAR VIAR 111700Z VRB03KT 2500 BR NSC 11/09 Q1022=
0000010300
577
SAIN90 VOTV 111710
METAR VOTV 111710Z 00000KT 4000 HZ FEW015 26/23 Q1013 TEMPO 3000 HZ=
0000033500
578
SAUS75 KWBC 110900 RRB
METAR
PADK 110916Z AUTO 23027G34KT 4SM BKN015 BKN022 OVC050 03/01
     A2866=
PAGS 110916Z AUTO 33004KT 1 1/2SM BKN050 M01/M02 A2917=
PAUN 110916Z AUTO 09014KT 10SM CLR M17/M23 A2952=
PAVD 110916Z 10SM OVC100 M07/M09 A2923=
PHTO 110917Z AUTO 07004KT 10SM BKN027 OVC032 19/19 A2998=

0000012700
579
SACN44 CWAO 110900
METAR CYUB 110900Z 28013G18KT 6SM -SN DRSN BKN060 M25/M31 A2962 RMK
SC3 CALLOUT SLP033=

0000066600
580
FTUS51 KWBC 110921 AAA
TAF AMD
KACK 110918Z 1109/1206 17009KT 1/2SM FG OVC002
     FM111200 17012KT 3SM -RA BR OVC008
     FM111700 18021G30KT 2SM -RA BR OVC008 WS020/19055KT
     FM112100 18026G40KT 1SM BR OVC008 WS020/20065KT
     FM120100 19028G44KT 2SM +RA BR OVC008 WS020/20065KT
     FM120400 20024G35KT 3SM -SHRA BR OVC008 WS020/21055KT=
KMYR 110919Z 1109/1206 19012G15KT P6SM BKN003 BKN017 OVC035
     FM111600 19012G20KT P6SM VCSH BKN018
      TEMPO 1120/1124 20020G30KT 2SM +SHRA BKN012CB
     FM120000 21012G19KT P6SM VCSH BKN025
     FM120300 25013G23KT P6SM SCT030 AMD LTD TO CLD VIS AND WIND
      TIL 111100=

0000025000
581
FTUS54 KWBC 110921 AAA
TAF AMD
KOTH 110919Z 1109/1206 20022G39KT 6SM -RA BR BKN014 OVC025
      WS015/23060KT
     FM111200 20025G42KT 3SM RA BR OVC012 WS015/23060KT
     FM112200 27020G30KT P6SM -SHRA SCT015 BKN050 OVC070=

0000086700
582
FTUS80 KWBC 110921 AAA
TAF AMD
KACK 110918Z 1109/1206 17009KT 1/2SM FG OVC002
     FM111200 17012KT 3SM -RA BR OVC008
     FM111700 18021G30KT 2SM -RA BR OVC008 WS020/19055KT
     FM112100 18026G40KT 1SM BR OVC008 WS020/20065KT
     FM120100 19028G44KT 2SM +RA BR OVC008 WS020/20065KT
     FM120400 20024G35KT 3SM -SHRA BR OVC008 WS020/21055KT=
KMYR 110919Z 1109/1206 19012G15KT P6SM BKN003 BKN017 OVC035
     FM111600 19012G20KT P6SM VCSH BKN018
      TEMPO 1120/1124 20020G30KT 2SM +SHRA BKN012CB
     FM120000 21012G19KT P6SM VCSH BKN025
     FM120300 25013G23KT P6SM SCT030 AMD LTD TO CLD VIS AND WIND
      TIL 111100=
KOTH 110919Z 1109/1206 20022G39KT 6SM -RA BR BKN014 OVC025
      WS015/23060KT
     FM111200 20025G42KT 3SM RA BR OVC012 WS015/23060KT
     FM112200 27020G30KT P6SM -SHRA SCT015 BKN050 OVC070=

0000010400
583
SPUS31 KWBC 110921
SPECI
KBNA 110917Z 19006KT 3SM +RA BR BKN035 OVC044 12/11 A2968=

0000011700
584
SPUS31 KWBC 110921
SPECI
KIAD 110917Z 00000KT 3/4SM R01R/4000V5500FT -RA BR VV003 02/01
A2997=

0000014300
585
SAAK31 KWBC 110900 RRA
METAR
PAVD 110916Z 10SM OVC100 M07/M09 A2923=
PAWG 110916Z AUTO 34014G20KT 10SM CLR 02/M03 A2904=

0000012300
586
SAAK32 KWBC 110900 RRA
METAR
PADK 110916Z AUTO 23027G34KT 4SM BKN015 BKN022 OVC050 03/01
     A2866=

0000013700
587
SALT31 EYVI 110920
METAR EYVI 110920Z 27009KT 230V290 2600 SHSNRA BKN005 OVC010CB 01/00
     Q1005 R20/2/0195 NOSIG=

0000011000
588
UANT99 KDDL 111709
ARP AFR796 4709N02853W 1710 F340 MS45 221/40 KT
FGSQR QXT AOE 111710 F17A
0000050600
589
SNSP20 LEMM 111700
AAXX 11174
08045 46/// /2506 10106 20091 39866 40176 53002
  555 60005=
08181 45/62 /0708 10134 20121 30196 40203 53010
  555 60005=
08221 42862 52002 10115 20062 39508 40188 53003 82038
  555 60005=
08284 46/// /1404 10118 20090 30125 40201 5////
  555 60005=
08306 46/// /0706 10147 20129 30175 40181 50004
  555 60005=
08314 46/// /1002 10145 2//// 3//// 4//// 5////
  555 60005=
08482 46/// /1403 10155 20123 30187 40195 53007
  555 60005=
0000011800
590
SNVF25 LFPW 111700
BBXX
BATUK01 11174 99576 70061 43/// /2715 10059 20002 40146 51016
22271 04094=
0000115800
591
SNEO21 EEMH 111700
AAXX 11171
26038 27148 71802 11005 21005 39946 49987 57008 77787 87///
 333  11005 21016 69917 87/02
 555  1/101 21016 3/101 51006 52102=
26045 27214 81601 11024 21034 39994 49996 55003 77170 88///
 333  11010 21025 69997 88/04
 555  21025 51008=
26058 27423 80401 11039 21050 39965 40000 54000 77170 88///
 333  11027 21039 69917 88/11
 555  21039 51022=
26115 27481 83501 10003 20002 39983 49992 58001 78080 86///
 333  10013 20002 60007 86/19
 555  1/000 20002 3/100 50013=
26135 27233 81800 11005 21011 39919 49994 56008 76777 88///
 333  11005 21012 69937 88/04
 555  1/100 21012 3/101 51003 52101=
26141 27457 81602 11027 21028 39847 49998 55003 77177 88///
 333  11025 21031 69957 88/16
 555  1/102 21031 3/103 51020 52104=
26231 27127 71402 10008 20009 39974 49989 56014 77177 87///
 333  10015 20002 69997 87/02
 555  1/001 20002 3/000 50011=
26242 27359 81701 11003 21005 39912 49999 57010 76776 88///
 333  11003 21011 69957 88/07
 555  1/100 21011 3/101 50001 52102=
26247 27/60 /1802 11001 21001 39919 49999 58013 76777
 333  10011 21001 69967
 555  1/000 21001 3/100 50009=
0000011000
592
UANT01 CWAO 111709
ARP VIR93R 4518N04708W 1709 F350 MS61 302/65 KT
GVLIP DDL XXH 111709 F67A
0000369700
593
SNPL40 SOWR 111700
AAXX 11171
12100 41458 81904 10059 20036 30045 40052 57025 72122 885//
  333 91009 91109=
12105 41564 81904 10049 20040 30013 40055 57026 72122 885//
  333 91108=
12115 41457 82205 10049 20043 30031 40045 57026 76166 885//=
12120 41460 82308 10050 20038 30041 40045 58025 78082 883//=
12125 46/// /2105 10054 20032 30001 40051 57026 =
12135 42465 82303 10054 20039 30052 40055 57022 885//
  333 91008 91109=
12160 41460 82007 10034 20031 39843 40070 56021 76022 885//
  333 91012 91112=
12185 42570 72304 10037 20021 39940 40076 57016 83508=
12195 41463 82405 10034 20024 39851 40080 58011 72522 885//=
12200 41462 72103 10051 20041 30051 40058 57022 78088 873//=
12205 42682 72107 10066 20017 30061 40069 58022 875//=
12210 46/// /2004 10055 20027 39994 40058 57025=
12215 41/// /2106 10043 20024 39902 40073 57020 7////
  =
12230 42675 52203 10048 20016 39996 40086 57020 85500=
12235 41562 82106 10039 20029 39864 40075 57021 76166 885//=
12250 41661 82103 10051 20029 30007 40096 57020 72122 885//=
12270 41559 82305 10042 20029 39916 40099 57020 71022 885//=
12272 42465 82204 10039 20023 39918 40086 57016 885//
  333 88613=
12280 42675 72106 10039 20016 39925 40083 58015 83508=
12285 41/// /2204 10048 20021 39985 40101 57019 700//=
12295 42664 72402 10036 20015 39916 40101 58011 875//
  333 91108=
12300 42982 72503 10042 20012 30006 40096 57015 8705/=
12310 42680 72206 10057 20020 30033 40100 57019 8353/=
12330 42965 02003 10039 20008 39999 40108 57016 =
12345 42660 31904 10044 20012 39970 40115 57015 81530=
12360 42670 72205 10051 20016 39972 40106 56021 8453/=
12375 42770 72103 10045 20010 39988 40120 57017 8255/=
12385 42963 72104 10039 20018 39929 40121 57016 8707/=
12399 41559 72204 10047 20014 39955 40124 57012 71022 875//=
12400 42970 12103 10031 20005 39879 40117 57016 81040=
12415 42684 62303 10045 21011 39976 40130 58012 82532=
12418 42980 02105 10047 20001 30005 40120 57015 =
12424 42982 62305 10061 20012 39984 40137 56013 86070=
12435 42964 42005 10045 20008 39951 40124 57017 81032=
12455 42965 72203 10044 20000 39890 40138 58013 8703/=
12465 42765 62205 10044 20007 39905 40128 57017 8253/=
12469 42670 72004 10029 20000 39902 40137 57014 875//=
12488 42964 32002 10024 21004 39976 40133 58016 83030=
12495 42660 72002 10026 20007 39849 40146 58011 875//=
12497 42565 72206 10035 20007 39915 40137 57012 8253/=
12500 42784 72104 10052 21008 39721 40140 57012 8557/=
12510 41/90 92615 11048 21048 38293 48419 57003 74943 =
12520 42580 71705 10039 20004 39713 40151 57017 8157/=
12530 42960 71602 10048 20009 39946 40148 57015 8703/=
12540 42666 82104 10052 20006 39908 40163 57009 8557/=
12550 42960 72104 10040 21002 39783 40145 58014 8705/=
12560 42965 72206 10050 21006 39814 40157 58012 8707/=
12566 42965 62403 10014 21012 39863 40164 57010 83058=
12570 41957 72103 10027 21002 39830 40153 57010 71022 85058=
12575 41958 61901 10041 21019 39904 40162 58010 70522 80008=
12580 42980 52006 10019 21012 39902 40167 57012 80002=
12585 41959 51902 10022 21001 39880 40152 57015 71022 80002=
12595 46/70 /2204 10024 21005 39878 40157 57010 =
12600 42980 72204 10044 21014 39678 40165 57011 81038=
12625 41956 72501 11006 21043 39158 42778 57007 71022 80008=
12650 41984 52809 11035 21194 37947 48456 52001 73833 81038
  333 91117=
12660 42970 51702 10037 21036 39806 40171 57011 80008=
12670 41958 72005 10002 21012 39769 40182 57010 71022 84036
  333 91109=
12690 42981 81904 10019 21026 39662 40182 57011 83037
  333 91009 91109=
12695 41/// /2504 10029 21026 39826 40172 57012 700//=
0000068500
594
UDEU02 EGRR 111713
AMDAR 1115
DES EU0415   4554N 01047E 111542 F167 MS185 267/027 TB/ S031=
DES EU0415   4546N 01049E 111544 F139 MS125 291/025 TB/ S031=
DES EU0415   4538N 01050E 111545 F113 MS057 274/024 TB/ S031=
DES EU0415   4531N 01049E 111547 F097 MS017 273/021 TB/ S031=
DES EU0415   4527N 01042E 111548 F075 MS027 269/012 TB/ S031=
DES EU0415   4523N 01036E 111550 F057 PS007 264/008 TB/ S031=
DES EU0415   4518N 01035E 111551 F045 PS030 289/009 TB/ S031=
DES EU0415   4516N 01042E 111553 F036 PS042 278/007 TB/ S031=
DES EU0415   4519N 01047E 111554 F021 PS060 240/011 TB/ S031=
DES EU0415   4522N 01051E 111556 F009 PS072 268/005 TB/ S031=
00000000