0000011100
375
UANT01 CWAO 111712
ARP UAL127 5005N04654W 1712 F350 MS59 299/67 KT
N17139 DDL IG1 111712 F89A
0000011000
376
UANT01 CWAO 111712
ARP AFR438 6303N04151W 1712 F340 MS59 192/25 KT
FGITE DDL KUS 111712 F35A
0000011000
377
UANT01 CWAO 111712
ARP BAW177 5221N04243W 1712 F390 MS57 283/50 KT
GVIIY QXT AOE 111712 F26A
0000011000
378
UANT01 CWAO 111712
ARP ACA875 5314N03817W 1712 F360 MS57 282/41 KT
CGHKR DDL XXN 111712 J30A
0000053900
379
SAUK31 EGGY 110550
METAR EGBB 110550Z 31009KT 9999 FEW013 SCT033 04/03 Q1013=
METAR COR EGCC 110550Z 24006KT 9999 BKN017 BKN022 03/02 Q1013 NOSIG=
METAR EGKK 110550Z 22007KT 8000 SCT006 BKN008 08/08 Q1013=
METAR EGLL 110550Z 28010KT 9999 FEW011 SCT022 08/07 Q1013=
METAR EGPF 110550Z 22010KT 9999 -SHRA FEW028 SCT034 02/01 Q1010=
METAR EGPH 110550Z VRB02KT 9999 FEW024 01/00 Q1009=
METAR EGPK 110550Z 24008KT 9999 FEW028 04/02 Q1011=
METAR EGSS 110550Z 24011KT 3500 RA BKN003 OVC006 08/07 Q1012
    REDZ=

0000012700
380
FCSN33 ESWI 110500 RRA
TAF ESNZ 110600Z 1107/1112 04003KT 9999 -SN BKN030 PROB40 1107/1112
4000 -SN VV014=

0000048500
381
SAUK32 EGGY 110550
METAR EGAA 110550Z 24009KT 9999 BKN004 01/01 Q1013=
METAR EGAC 110550Z NIL=
METAR EGFF 110550Z 30007KT CAVOK 04/03 Q1015=
METAR EGGW 110550Z 28012KT 9999 -RA BKN030 06/05 Q1012=
METAR EGLC 110550Z AUTO 26012KT 7000 -SHRA FEW007/// BKN009///
    BKN014/// 09/07 Q1013 RERA=
METAR EGNM 110550Z 29006KT 260V320 CAVOK 02/01 Q1011=
METAR EGNX 110550Z 28010KT 9999 FEW032 04/03 Q1012=
METAR EGPD 110550Z 27007KT CAVOK 02/M03 Q1005 NOSIG=

0000038100
382
SAUK33 EGGY 110550
METAR EGGD 110550Z 27013KT CAVOK 04/04 Q1015=
METAR EGGP 110550Z 24007KT 9999 FEW020 SCT044 05/04 Q1013=
METAR EGHI 110550Z NIL=
METAR EGNS 110550Z NIL=
METAR EGNT 110550Z 27011KT 9999 FEW030 02/02 Q1010=
METAR EGNV 110550Z 25005KT 9999 FEW030 04/01 Q1010=
METAR EGPB 110550Z AUTO 28021G32KT 9999 -SHRA FEW017/// 05/02
    Q1000=

0000009300
383
SAMJ41 LWOH 110600
METAR LWOH 110600Z 02002KT 3500 BR OVC001 00/M01 Q1024=

0000016900
384
SAZS31 NSTU 110555
METAR NSTU 110552Z 04007KT 10SM SCT017TCU SCT045 OVC100 28/25 A2971
RMK TCU ALQDS SLP063 60020 8/87/ T02820247 10282 20257 52015=

0000008900
385
SABZ21 SBFZ 110600
METAR SBFZ 110600Z 09012KT 9999 SCT020 26/20 Q1010=

0000008300
386
SABZ24 SBFI 110600
METAR SBFI 110600Z 00000KT CAVOK 24/22 Q1009=

0000012400
387
SAMX31 KWBC 110600
METAR MNMG 110600Z 10006KT 9999 FEW023 24/20 Q1012 A2989 1AC070
     1CI300
NOSIG=

0000009700
388
SPCN42 CWAO 110558
SPECI CYUA 110558Z AUTO 30021KT 1 1/4SM -SN CLR M25/ A2974=

0000009600
389
SASG20 GOOY 110600
METAR GOOY 110600Z 02009KT 9999  FEW010 19/15 Q1013 NOSIG=

0000012400
390
SACN61 CYPQ 110600
METAR CYPQ 110600Z AUTO 08004KT 6SM BR FEW065 OVC140 01/01 A2985 RMK
 PRESFR SLP115=

0000011600
391
SACN61 CYBC 110600
METAR CYBC 110600Z AUTO 00000KT 9SM SCT010 M09/M12 A3011 RMK PRESFR
 SLP199=

0000017400
392
SACN61 CYZE 110600
METAR CYZE 110600Z AUTO 15016G22KT 3SM -FZRA BR OVC007 02/01 A2958
 RMK ICG MAX WND 15017KT AT 0552Z PRESFR PCPN 3.8MM PAST HR SLP023=

0000011700
393
SPUS31 KWBC 110559
SPECI
KCVG 110555Z 19008KT 2SM +TSRA BR SCT018 BKN023CB OVC036 11/10
A2972=

0000012400
394
SPUS41 KWBC 110559
SPECI
KWRI 110555Z AUTO 10003KT 1/2SM R06/1400FT -RA FG BKN013 OVC065
04/04 A3012=

00000000