0000008000
655
SASU01 HSSS 110830
METAR HSSS 110830Z 02016KT 8000M SA Q1020=

0000011100
656
SAMR20 TFFF 110830
METAR TFFF 110830Z AUTO 04005KT 360V070 9999 BKN060 OVC070 24/20
Q1015=

0000009100
657
SAMJ41 LWOH 110830
METAR LWOH 110830Z 27001KT 0400 FG VV001 02/01 Q1024=

0000025200
658
FTDL33 EDZO 110500 AAB
TAF AMD EDLV 110824Z 1108/1206 19007KT 4000 BR BKN010 TEMPO 1108/1115
     2500 -RA BR BKN003 BECMG 1110/1113 25011KT BECMG 1115/1118 9999
     SCT020 BECMG 1116/1119 24006KT TEMPO 1201/1206 2000 BR BKN003=

0000025200
659
FTDL34 EDZO 110500 AAB
TAF AMD EDLV 110824Z 1108/1206 19007KT 4000 BR BKN010 TEMPO 1108/1115
     2500 -RA BR BKN003 BECMG 1110/1113 25011KT BECMG 1115/1118 9999
     SCT020 BECMG 1116/1119 24006KT TEMPO 1201/1206 2000 BR BKN003=

0000025100
660
SASQ31 LZIB 110830
METAR LZIB 110830Z 14003KT 9999 SCT046 03/01 Q1021 NOSIG=
METAR LZKZ 110830Z 00000KT 0600 R01/1400U FZFG FEW001 SCT009 M02/M02
Q1021 TEMPO 3000 BR=
METAR LZTT 110830Z VRB04KT 9999 FEW036 M01/M04 Q1018 NOSIG=

0000019900
661
SASQ41 LZIB 110830
METAR LZPP 110830Z VRB02KT 9999 FEW045 02/M01 Q1021=
METAR LZSL 110830Z 00000KT 9999 FEW050 01/M01 Q1020=
METAR LZZI 110830Z VRB02KT 9999 FEW020 02/00 Q1020=

0000011100
662
SAQB31 LQBK 110830
METAR LQBK 110830Z 35003KT 4000 2000N BR FEW002 06/05 Q1021 BECMG
5000=

0000019500
663
FCOS43 LOWM 110800
TAF LOXA 110800Z NIL=
TAF LOXE 110800Z NIL=
TAF LOXN 110800Z NIL=
TAF LOXT 110800Z NIL=
TAF LOXZ 110815Z 1109/1118 VRB03KT 9999 FEW080 SCT160 BKN300=

0000057400
664
FTUS51 KWBC 110830 AAA
TAF AMD
KAND 110828Z 1108/1206 VRB04KT 1SM SHRA BR VCTS OVC004CB
     FM111100 15006KT 2SM SHRA BR OVC003 WS020/20035KT
     FM111500 20013G21KT 1SM SHRA BR VCTS OVC004CB
     FM111900 24012G18KT P6SM BKN030
     FM112200 25008KT P6SM FEW040 SCT250=
KHKY 110828Z 1108/1206 00000KT 1SM -SHRA BR SCT003 OVC007
     FM111100 17006KT 1SM SHRA BR OVC003 WS020/21040KT
     FM111800 22010KT 3SM SHRA OVC007
     FM112100 25009KT P6SM OVC015
     FM112300 27009KT P6SM BKN040
     FM120200 29009KT P6SM SCT040 BKN250=

0000029100
665
FTUS53 KWBC 110830 AAA
TAF AMD
KHUF 110827Z 1108/1206 18008KT 2SM -SHRA BR OVC003
      TEMPO 1108/1111 1/2SM FG
     FM111100 22010KT 2SM -RA BR OVC004
     FM111500 25012KT 4SM BR OVC010
     FM111800 25012G22KT P6SM OVC015
     FM120000 27010KT P6SM BKN025=

0000027800
666
FTUS54 KWBC 110830 AAA
TAF AMD
KCEC 110829Z 1108/1206 16018G28KT 6SM BR OVC008
     FM111100 17025G35KT 6SM BR OVC012
     FM111300 18018G28KT 2SM RA BR OVC008
     FM111800 19018G28KT 5SM SHRA BKN012 OVC020
     FM120300 23011KT 4SM BR VCSH OVC035=

0000104500
667
FTUS80 KWBC 110830 AAA
TAF AMD
KAND 110828Z 1108/1206 VRB04KT 1SM SHRA BR VCTS OVC004CB
     FM111100 15006KT 2SM SHRA BR OVC003 WS020/20035KT
     FM111500 20013G21KT 1SM SHRA BR VCTS OVC004CB
     FM111900 24012G18KT P6SM BKN030
     FM112200 25008KT P6SM FEW040 SCT250=
KCEC 110829Z 1108/1206 16018G28KT 6SM BR OVC008
     FM111100 17025G35KT 6SM BR OVC012
     FM111300 18018G28KT 2SM RA BR OVC008
     FM111800 19018G28KT 5SM SHRA BKN012 OVC020
     FM120300 23011KT 4SM BR VCSH OVC035=
KHKY 110828Z 1108/1206 00000KT 1SM -SHRA BR SCT003 OVC007
     FM111100 17006KT 1SM SHRA BR OVC003 WS020/21040KT
     FM111800 22010KT 3SM SHRA OVC007
     FM112100 25009KT P6SM OVC015
     FM112300 27009KT P6SM BKN040
     FM120200 29009KT P6SM SCT040 BKN250=
KHUF 110827Z 1108/1206 18008KT 2SM -SHRA BR OVC003
      TEMPO 1108/1111 1/2SM FG
     FM111100 22010KT 2SM -RA BR OVC004
     FM111500 25012KT 4SM BR OVC010
     FM111800 25012G22KT P6SM OVC015
     FM120000 27010KT P6SM BKN025=

0000012100
668
SPUS41 KWBC 110830
SPECI
KAVP 110826Z AUTO 00000KT 1 1/2SM R04/4500VP6000FT BR OVC012 04/03
A2997=

0000009800
669
SPUS42 KWBC 110830
SPECI
KGLS 110826Z AUTO 24006KT 1SM BR OVC002 17/17 A2988=

0000012000
670
SPUS42 KWBC 110830
SPECI
KHSV 110826Z AUTO 21008KT 2 1/2SM VCTS +RA BR FEW007 OVC031 14/13
A2974=

0000013300
671
SPUS42 KWBC 110830
SPECI
KTYS 110826Z 00000KT 1/2SM R23R/5500VP6000FT -RA BR FEW002 BKN075
OVC090 07/07 A2979=

0000011300
672
SPUS43 KWBC 110830
SPECI
KCMX 110826Z AUTO 00000KT 3/4SM -SN BR SCT009 OVC014 M03/M04 A2938=

0000009700
673
SPUS43 KWBC 110830
SPECI
KMDW 110826Z 20009KT 2SM -DZ BR OVC005 04/04 A2945=

0000010000
674
SPUS44 KWBC 110830
SPECI
KHQM 110826Z AUTO 17030G45KT 2 1/2SM -SN OVC014 A2953=

00000000