0000081000
755
FTUS54 KWBC 110527
TAF
KBYI 110525Z 1106/1206 24010KT P6SM VCSH SCT025 OVC040
     FM111000 22011KT P6SM BKN040
     FM111900 20018G28KT P6SM BKN040
     FM112300 25020G30KT P6SM -RA SCT020 OVC035=
KIDA 110525Z 1106/1206 20013KT P6SM SCT050 OVC200
     FM110800 21012KT 6SM -SN OVC008
     FM111500 21010KT P6SM SCT015 BKN050
     FM112000 21018G28KT P6SM VCSH SCT020 OVC040
     FM112300 22020G30KT 3SM -SN BKN015 OVC030=
KPIH 110525Z 1106/1206 22014G20KT P6SM FEW010 BKN035
     FM112200 19020G30KT P6SM -RA BKN050 OVC100
     FM120200 20028G38KT P6SM -RA BKN025 OVC050=
KSUN 110525Z 1106/1206 VRB05KT P6SM VCSH SCT040 BKN100
     FM111800 VRB06KT 1SM -SN BR OVC010
     FM120100 VRB06KT P6SM VCSH SCT010 BKN025 AMD LTD TO CLD VIS
      AND WIND TIL 111400=

0000011700
756
SPUS31 KWBC 110527
SPECI
KPHL 110523Z 06003KT 3/4SM R09R/4500VP6000FT RA BR VV002 02/01
A3016=

0000009800
757
SPUS41 KWBC 110527
SPECI
KABE 110523Z 07006KT 1/2SM RA BR OVC005 01/00 A3016=

0000011600
758
SPUS41 KWBC 110527
SPECI
KPVD 110523Z 00000KT 1/4SM R05/2400V3500FT -RA FG VV009 02/01
A3026=

0000009800
759
SPUS42 KWBC 110527
SPECI
KSHV 110523Z 22008KT 10SM BKN013 OVC021 18/17 A2977=

0000067800
760
FCSW31 LSSW 110500
TAF LSGC 110525Z 1106/1115 VRB03KT CAVOK BECMG 1108/1110 24008KT
     BECMG 1113/1115 SCT050 BKN080=
TAF LSGS 110525Z 1106/1115 VRB03KT CAVOK BECMG 1112/1114 26007KT=
TAF LSZA 110525Z 1106/1115 VRB03KT 9999 BKN045 TEMPO 1109/1115
     SCT045=
TAF LSZB 110525Z 1106/1115 VRB03KT 4000 BR SCT120 BECMG 1108/1110
     7000=
TAF LSZC 110500Z NIL=
TAF LSZG 110525Z 1106/1115 VRB03KT 0200 FG VV001 BECMG 1107/1110
     1000 BCFG BKN003 BECMG 1110/1113 5000 BR NSC=
TAF LSZL 110500Z NIL=
TAF LSZR 110525Z 1106/1115 VRB03KT 0200 FG VV001 BECMG 1107/1110
     1000 BCFG BKN003 BECMG 1110/1113 7000 NSC=
TAF LSZS 110500Z NIL=

0000040700
761
FCRO32 LROM 110500
TAF LRAR 110500Z 1106/1115 16006KT 9999 SCT045 TEMPO 1106/1108 3000
BR=
TAF LRBM 110500Z 1106/1115 VRB03KT 9999 BKN030 TEMPO 1106/1107 3000
BR=
TAF LRCL 110500Z 1106/1115 VRB04KT 9999 BKN045=
TAF LROD 110500Z 1106/1115 19010KT 9999 BKN045=
TAF LRSM 110500Z 1106/1115 17006KT CAVOK=
TAF LRTM 110500Z 1106/1115 VRB04KT 9999 SCT045 TEMPO 1106/1108 5000
BR=

0000056000
762
FTSW31 LSSW 110500
TAF LSZH 110525Z 1106/1212 VRB03KT 0500 FG VV001 TX08/1114Z
     TN02/1106Z TN04/1206Z BECMG 1107/1110 1200 BCFG SCT120 BECMG
     1110/1113 7000 PROB40 TEMPO 1117/1122 RA=
TAF LSGG 110525Z 1106/1212 VRB03KT 9999 MIFG NSC TX09/1113Z
     TN01/1106Z TN03/1205Z PROB30 1106/1108 5000 BCFG FEW001 BKN180
     PROB40 TEMPO 1110/1115 24007KT BECMG 1112/1115 9999 FEW050
     SCT080 BKN150 TEMPO 1115/1120 9999 BKN080 BECMG 1120/1123
     FEW050 SCT080 BECMG 1200/1203 04008KT BKN030 BECMG 1210/1212
     SCT030=

0000057600
763
FTRO31 LROM 110500
TAF LRBS 110500Z 1106/1206 VRB03KT CAVOK BECMG 1202/1204 26012KT
TEMPO 1202/1206 5000 BR=
TAF LRCK 110500Z 1106/1206 28010KT 3000 BR NSC TEMPO 1106/1107 0800
FG BKN002 BECMG 1107/1109 7000 NSW=
TAF LROP 110500Z 1106/1206 VRB03KT CAVOK BECMG 1202/1204 26012KT
TEMPO 1202/1206 5000 BR=
TAF LRSB 110500Z 1106/1206 VRB04KT 9999 SCT045 TEMPO 1200/1205 5000
BR=
TAF LRTR 110500Z 1106/1206 14006KT 5000 BR BKN045 BECMG 1106/1108
9999 NSW BECMG 1116/1118 3000 BR BKN010 TEMPO 1120/1206 0800 FG
BKN002 PROB30 1200/1206 0350 FG=

0000044300
764
SARH31 LDZM 110530
METAR LDSP 110530Z VRB02KT 9999 FEW043 SCT060 10/09 Q1023 NOSIG =
METAR LDPL 110530Z VRB01KT 9000 FEW039 OVC058 09/09 Q1022 NOSIG =
METAR LDDU 110530Z 06007KT 9999 BKN060 10/05 Q1023 NOSIG =
METAR LDZA 110530Z VRB01KT 0400 R05/0900V1400D R23/0900U FG VV002
03/03 Q1021 NOSIG =
METAR LDZD 110530Z 08004KT 050V120 9999 OVC050 09/09 Q1022 NOSIG =
METAR LDRI 110530Z NIL=
METAR LDOS 110530Z NIL=

0000085900
765
SATU31 LTAA 110520
METAR LTAC 110520Z 30003KT 260V320 6000 OVC008 M04/M04 Q1023 NOSIG=
METAR LTAF 110520Z 04003KT 5000 BR NSC 03/M02 Q1022 NOSIG=
METAR LTAI 110520Z 35006KT 9999 FEW030 BKN200 05/03 Q1022 NOSIG=
METAR LTAJ 110520Z 00000KT CAVOK M03/M06 Q1021 NOSIG=
METAR LTAZ 110520Z VRB03KT 2800 BR OVC006 M04/M04 Q1024=
METAR LTBA 110520Z 29003KT 260V320 7000 NSC 08/06 Q1023 NOSIG=
METAR LTBJ 110520Z 00000KT 4600 BR NSC 05/03 Q1022 NOSIG=
METAR LTBS 110520Z 07006KT CAVOK 05/04 Q1023 NOSIG=
METAR LTCG 110520Z 24007KT CAVOK 13/M05 Q1020 NOSIG=
METAR LTCS 110520Z 32005KT CAVOK 03/M07 Q1021=
METAR LTFC 110520Z 00000KT 0250 R05/0300U R23/0325U FZFG VV001
 M05/M05 Q1024=
METAR LTFE 110520Z 00000KT 6000 FEW030 BKN100 09/08 Q1022 NOSIG=
METAR LTFJ 110520Z VRB02KT 7000 FEW013 05/00 Q1023 TEMPO FM0600 4000
 BR=

0000068500
766
SATU32 LTAA 110520
METAR LTAG 110520Z 34004KT CAVOK 03/M02 Q1022 NOSIG=
METAR LTAN 110520Z NIL=
METAR COR LTAP 110520Z 34006KT 9999 SCT021 BKN100 M03/M04 Q1023 TEMPO
 FM0600 4000 BR=
METAR LTAT 110520Z NIL=
METAR LTAU 110520Z VRB01KT 1300 R25/P1500U R07/P1500U BCFG OVC002
 M05/M05 Q1023 BECMG 2500 BR=
METAR LTBF 110520Z NIL=
METAR LTBU 110520Z VRB03KT 0150 R05/0150D R23/0250N FG NSC 02/02
 Q1022=
METAR LTCC 110520Z 25003KT CAVOK M03/M06 Q1020 NOSIG=
METAR LTCE 110520Z VRB01KT 0200 R26L/0175U R08R/0175U R26R/0275U
 R08L/0200U FZFG NSC M26/M28 Q1021 NOSIG=
METAR LTCJ 110520Z 00000KT 0800 R02/0900N R20/P1500N BCFG NSC M05/M05
 Q1021=

0000009500
767
SATU35 LTAA 110520
METAR LCEN 110520Z 27008KT 9999 FEW025 09/05 Q1022 NOSIG=

0000019500
768
FCRO33 LROM 110500
TAF LRBC 110500Z 1106/1115 28008KT CAVOK=
TAF LRCV 110500Z NIL=
TAF LRIA 110500Z 1106/1115 26005KT CAVOK=
TAF LRSV 110500Z NIL=
TAF LRTC 110500Z NIL=

0000043500
769
FTCN32 CWAO 110500
TAF CYOD 110530Z 1106/1206 VRB03KT P6SM FEW012 SCT120 BKN240 TEMPO
     1106/1109 BKN012 OVC120 PROB30 1110/1115 1/2SM FZFG VV002
    FM111600 11015KT 2SM -SN OVC010 TEMPO 1118/1124 6SM -SN SCT010
     OVC060 PROB40 1118/1122 1/2SM -SHSN BLSN
    FM120000 11012KT P6SM FEW015 SCT060 TEMPO 1200/1203 5SM -SN
     BKN015 BKN060
     BECMG 1201/1203 26010KT
    RMK NXT FCST BY 111200Z=

0000030700
770
FTCN38 CWAO 110500
TAF CYYR 110530Z 1106/1206 25015G25KT P6SM BKN090 OVC140
     BECMG 1110/1112 25010KT
    FM111900 25005KT P6SM SCT030 TEMPO 1119/1124 P6SM -SN BKN030
    FM120000 VRB03KT P6SM -SN SCT012 OVC025 TEMPO 1200/1206 2SM -SN
     OVC012
    RMK NXT FCST BY 111200Z=

0000011300
771
SAID31 WIII 110530
METAR WIII 110530Z 01008KT 9999 FEW018CB SCT020 33/24 Q1008 RMK CB TO
SW=

0000045800
772
FTCN35 CWAO 110500
TAF CYTR 110530Z 1106/1206 15008KT 6SM BR SCT015 OVC140 TEMPO
     1106/1108 5SM -SHRA BR BKN015
    FM110800 16012G22KT 4SM -RA BR SCT004 OVC010 TEMPO 1108/1122 1SM
     -RA BR OVC004 PROB30 1115/1122 1/2SM -RA FG VV002
    FM112200 24012KT P6SM -SHRA SCT008 BKN025 TEMPO 1122/1205 2SM
     -SHRA BR BKN008
     BECMG 1200/1202 24015G25KT
    FM120500 26015G25KT P6SM BKN020
    RMK NXT FCST BY 111200Z=

0000102700
773
FTUS31 KWBC 110530
TAF
KCLE 110529Z 1106/1212 17015KT P6SM -RA OVC035
     FM110900 19010G20KT 3SM -RA BR SCT007 OVC019
     FM111800 22010G20KT P6SM -RA OVC007
     FM112000 24010G20KT P6SM OVC015
     FM120400 24010G20KT P6SM -RASN OVC015=
KFLL 110527Z 1106/1206 13006KT P6SM SCT015 SCT200
     FM111500 16013G19KT P6SM SCT025 BKN250
     FM111900 19013G19KT P6SM SCT035 BKN050=
KMIA 110527Z 1106/1206 12005KT P6SM FEW015 SCT200
     FM111500 16013G19KT P6SM SCT025 BKN250
     FM111900 19013G19KT P6SM SCT035 BKN050=
KPBI 110527Z 1106/1206 14006KT P6SM FEW020 SCT250
     FM111500 16014G21KT P6SM SCT025 BKN250
     FM111900 19013G19KT P6SM SCT035 BKN050=
KPIT 110527Z 1106/1212 13006KT P6SM OVC050 WS020/22045KT
     FM111000 18010KT 4SM -RA OVC009 WS020/22050KT
     FM111800 23012G24KT P6SM BKN015=
KSTL 110527Z 1106/1212 20011KT 4SM BR OVC007
     FM110800 26012KT 5SM BR OVC012
     FM111600 27012G20KT P6SM SCT020 BKN250
     FM120600 23007KT 6SM BR SCT250=

0000051500
774
FTCN36 CWAO 110500
TAF CYBG 110530Z 1106/1206 10005KT P6SM SCT020 OVC030 TEMPO 1106/1111
     P6SM -SHSN BKN020
    FM111100 10005KT P6SM -SN OVC025 TEMPO 1111/1113 3SM -SN OVC020
    FM111300 10008KT 6SM -SN OVC025 TEMPO 1113/1115 2SM -SNPL BR
     OVC010 PROB40 1113/1115 1SM -FZRA BR
    FM111500 09015KT 6SM -FZRA BR OVC015 TEMPO 1115/1118 2SM -SN -PL
     OVC006
    FM111800 09010KT 1SM -FZRA BR OVC004 TEMPO 1118/1206 4SM -FZRA BR
     OVC010
    RMK NXT FCST BY 111200Z=

00000000