0000055800
915
SAMS31 WMKK 110530
METAR WBGG 110530Z 03010KT 330V060 9999 -SHRA FEW015CB BKN020 BKN150
27/23 Q1011 NOSIG=
METAR WBKK 110530Z 03008KT 320V080 9999 -RA FEW013 FEW017CB SCT035
BKN270 28/23 Q1010 NOSIG=
METAR WBSB 110530Z 31008KT 9999 SCT016 FEW017CB BKN280 30/24 Q1011
NOSIG=
METAR WMKK 110530Z 35005KT 9999 FEW018 BKN280 31/24 Q1010 NOSIG=
METAR WMKP 110530Z 03007KT 9999 FEW020 BKN140 BKN270 29/24 Q1011
NOSIG=
METAR WSSL 110530Z NIL=
METAR WSSS 110530Z 01006KT 290V090 9999 FEW020TCU SCT022 BKN300 31/24
Q1010 NOSIG=

0000022000
916
FTSB31 VCBI 110530
TAF COR VCBI 110530Z 1106/1212
04012KT 9999 FEW016 TX32/1108Z TN25/1200Z
BECMG 1107/1108 34010KT PROB30
TEMPO 1112/1117 FEW020CB BECMG 1113/1114
04012KT TEMPO 1200/1203 6000=

0000010600
917
SPCN46 CWAO 110535
SPECI CYGQ 110535Z 00000KT 1 1/2SM -SN BR OVC004 RMK SN2SF6 CIG RAG=

0000009700
918
SPUS43 KWBC 110537
SPECI
KGRB 110533Z 19004KT 1 1/2SM BR OVC005 01/01 A2943=

0000030500
919
SARS31 RUMS 110530
METAR ULWC 110530Z NIL=
METAR UUBP 110530Z NIL=
METAR UUOB 110530Z 25006MPS 9999 -SHRA BKN014CB 03/02 Q0998 29290050
NOSIG=
METAR UUOK 110530Z NIL=
METAR UWGG 110530Z 18004MPS 4200 -SN OVC005 01/00 Q0987 TEMPO 1000
SHSNRA VV004 18691035 RMK QBB160 QFE734=

0000036100
920
SAAL40 DAMM 110530
METAR DAAG 110530Z 30001KT 9999 FEW030 BKN100 11/09 Q1017=
METAR DAAT 110530Z NIL=
METAR DABB 110530Z NIL=
METAR DABC 110530Z NIL=
METAR DABS 110530Z NIL=
METAR DAON 110530Z NIL=
METAR DAOO 110530Z 00000KT 9999 FEW026 BKN100 12/10 Q1016=
METAR DAUH 110530Z 00000KT CAVOK 08/06 Q1020=
METAR DAUZ 110530Z NIL=

0000040300
921
SARA33 RUMS 110530
METAR UIAA 110530Z 00000MPS 9999 SKC M23/M32 Q1030 NOSIG RMK QFE713
29CLRD70=
METAR UIBB 110530Z 14002MPS 6000 -SHSN SCT020CB OVC100 M17/M19 Q1027
NOSIG RMK QFE727/0970 30490240=
METAR UIII 110530Z 00000MPS CAVOK M14/M16 Q1031 NOSIG RMK QFE730/0974
12490340=
METAR UIUU 110530Z 15001MPS 9999 FEW033 SCT100 M16/M18 Q1031 NOSIG
RMK QFE728/0971 26450545=

0000055800
922
SARA36 RUMS 110530
METAR UWUU 110530Z 16003MPS 4000 BR OVC007 M01/M02 Q1007 14620342
TEMPO 1000 SN FZRA BKN003 RMK QBB220 QFE744/0993=
METAR USCC 110530Z 15004MPS 3000 BR FU BKN008 OVC070 M06/M07 Q1010
09490350 TEMPO 1100 BR FU BKN005 RMK QFE737=
METAR USNN 110530Z 06003MPS 6000 -SN OVC058 M14/M16 Q1019 NOSIG RMK
QFE760 03410232=
METAR USRR 110530Z 07003MPS 6000 -SN OVC070 M20/M23 Q1018 TEMPO
BKN007 RMK OBST OBSC QFE758 07////35=
METAR USSS 110530Z 09001MPS 7000 BKN012 OVC067 M06/M08 Q1009 08450137
NOSIG RMK QFE737=

0000011000
923
UANT01 CWAO 111710
ARP EIN125 6141N05410W 1710 F330 MS58 288/29 KT
EIEDY DDL XXN 111710 J05A
0000011000
924
UANT01 CWAO 111710
ARP AFR474 4602N03958W 1710 F320 MS56 307/45 KT
FGSPN QXT AOW 111710 F30A
0000010900
925
UANT01 CWAO 111710
ARP SWR86 5310N03858W 1710 F370 MS57 274/40 KT
HBJHE QXT AOW 111710 J71A
0000011000
926
UANT01 CWAO 111710
ARP AAL39 4653N04312W 1710 F360 MS59 293/57 KT
N778AN DDL XXN 111710 F37A
0000011000
927
UANT01 CWAO 111710
ARP DHK973 5633N03520W 1710 F310 MS56 174/42 KT
GDHLG DDL XXW 111710 F66A
0000063000
928
SNSP21 LEMM 111700
AAXX 11174
08084 46/// /1602 10078 20053 39776 40213 51004
  555 60005=
08184 46/// /0204 10115 20104 30045 40201 53010
  555 60005=
08202 46/// /0402 10095 20062 39262 42805 53012
  555 60005=
08360 46/// /1802 10127 20104 30157 40194 53010
  555 60005=
08373 46/// /0000 10134 20106 30167 40189 53009
  555 60005=
08410 46/// /2702 10165 20104 30081 40190 53007
  555 60005=
08419 45/67 /1601 10123 20080 39526 40191 53008
  555 60005=
08451 46/// /2106 10177 20132 30162 40195 53013
  555 60005=
08487 46/// /2401 10151 20113 30166 40191 53007
  555 60005=
0000011000
929
UANT01 CWAO 111710
ARP AFR688 4849N04050W 1710 F350 MS61 299/55 KT
FGSPT QXT AOE 111710 F23A
0000037400
930
SSVX02 KARS 111706
ZZYY 48694 11014 1700/ 770906 172732 6113/
11119 40105 57014
444 2013/ 11014 1542/ 50101 80105 80001 9/015=
ZZYY 48692 11014 1700/ 768614 174559 6112/
11119 40125 57024
444 2012/ 11014 1544/ 50101 80102 80001 9/015=
ZZYY 48686 11014 1700/ 769912 176916 6112/
11119 40137 57015
444 2012/ 11014 1542/ 50101 80105 80001 9/015=
0000011000
931
UANT01 CWAO 111710
ARP XLF066 4440N04837W 1710 F360 MS59 307/64 KT
FHXLF DDL XXN 111710 J63A
0000011100
932
UANT01 CWAO 111711
ARP RCH269 5105N02700W 1711 F330 MS45 186/48 KT
33125A DDL XXN 111711 F41A
0000011000
933
UANT01 CWAO 111711
ARP AAL81 6302N05028W 1711 F380 MS60 226/17 KT
N776AN DDL XXN 111711 F71A
0000090800
934
SNEO40 EEMH 111700
AAXX 11171
26029 27/70 /2502 10011 20008 39958 49986 57005 72486
 333  10010 21010 69957
 555  21010 50004=
26046 27219 81600 11033 21040 39909 40001 57004 77188 88///
 333  11027 21033 69977 88/06
 555  21033 51021=
26124 27160 82101 10000 21001 39960 49991 58003 72287 88///
 333  10002 21004 69927 88/02
 555  1/001 21004 3/001 50003 52101=
26128 27130 80301 10006 20006 39987 49989 57005 78186 88///
 333  10018 20001 69967 88/02
 555  1/001 20001 3/000 50015=
26145 27229 82600 11022 21028 39962 40002 55005 77187 87///
 333  11016 21026 69927 87/06
 555  1/101 21026 3/102 51011 52104=
26233 27226 82101 11001 21003 39886 49993 57014 78587 88///
 333  10002 21009 69947 88/04
 555  1/000 21009 3/100 50000 52101=
26249 27259 82202 10001 21006 39903 40005 57008 77476 88///
 333  10003 21003 69967 88/04
 555  1/000 21003 3/000 50007 52101=
00000000