0000009200
775
SACN51 CWAO 110800
METAR CWKW 110800Z AUTO 26037KT M22/ A2938 RMK SLP012=

0000012400
776
SACN44 CWAO 110800
METAR CYOD 110800Z 23002KT 12SM BKN016 BKN080 M12/M14 A2955 RMK
SC4AC2 FROIN SLP046=

0000013100
777
SACN46 CWAO 110800
METAR CYRB 110800Z 19013KT 1 1/2SM R35/6000FT -SN BLSN OVC013 M32/M35
A2923 RMK SC6 SLP910=

0000013100
778
SPUS41 KWBC 110801
SPECI
KEWB 110757Z AUTO 18003KT 3SM R05/4500VP6000FT BR FEW003 BKN046
OVC070 07/07 A3020=

0000012100
779
SACN45 CWAO 110800
METAR CYCB 110800Z 25008KT 3SM -SN SCT015 OVC060 M27/M31 A2933 RMK
SC2SC5 SLP937=

0000013800
780
SAGQ21 FGSL 110800
METAR FGBT 110800Z NIL=
METAR FGSL 110800Z 21003KT 170V240 6000 FEW012 BKN130 28/24 Q1013
NOSIG=

0000011600
781
SACN61 CYDQ 110800
METAR CYDQ 110800Z AUTO 13010KT 9SM OVC110 M05/M09 A2928 RMK PRESFR
 SLP948=

0000011600
782
SACN61 CYGV 110800
METAR CYGV 110800Z AUTO 29007KT 9SM FEW055 OVC069 M08/M11 A3006 RMK
 SLP183=

0000009500
783
SAPF20 NTAA 110800
METAR NTAA 110800Z 00000KT 9999 FEW020 26/21 Q1013 NOSIG=

0000012400
784
SACN61 CYHD 110800
METAR CYHD 110800Z AUTO 21004KT 1SM BR OVC003 M05/M05 A2936 RMK ICG
 PAST HR SLP968=

0000013400
785
SACN61 CYDN 110800
METAR CYDN 110800Z AUTO 26016G22KT 9SM CLR M07/M09 A2949 RMK MAX WND
 26020KT AT 0711Z SLP009=

0000016000
786
SACN61 CYHE 110800
METAR CYHE 110800Z AUTO 12008KT 6SM RA BR FEW006 SCT009 BKN026 OVC055
 04/04 A2947 RMK PRESFR PCPN 2.5MM PAST HR SLP979=

0000010300
787
SABZ24 SBCT 110800
METAR SBCT 110800Z 16004KT 9999 TS FEW020 FEW030CB
19/17 Q1018=

0000011200
788
SACN42 CWAO 110800
METAR CYIV 110800Z 01002KT 12SM -SN OVC037 M10/M11 A2941 RMK SC8
SLP980=

0000012000
789
SACN43 CWAO 110800
METAR CWHN 110800Z AUTO 26007KT 220V290 9SM OVC003 M09/M09 A2949 RMK
ICG SLP027=

0000009200
790
SACN52 CWAO 110800
METAR CWXR 110800Z AUTO 29013KT M31/ A2938 RMK SLP965=

0000008100
791
SACN51 CWAO 110800
METAR CWRX 110800Z AUTO 32013KT M29/ A2945=

0000009000
792
SACN44 CWAO 110800
METAR CWRF 110800Z AUTO ///// M34/ A2937 RMK SLP011=

0000009500
793
SACN51 CWAO 110800
METAR CWYK 110800Z AUTO 33018G27KT M24/ A2931 RMK SLP014=

0000009200
794
SACN52 CWAO 110800
METAR CWKP 110800Z AUTO 25039KT M35/ A2917 RMK SLP937=

00000000