0000019900
155
NOUK32 EGGY 110611
SADIS GATEWAY MONITOR
INTERNAL ALARM MESSAGE
AERODROME NOT RECEIVED

SKBO FT LAST RECEIVED AT 101000Z
VABB FT LAST RECEIVED AT 100300Z
END OF MESSAGE

0000012400
156
SPUS41 KWBC 110609
SPECI
KWRI 110607Z AUTO 11004KT 3/4SM R06/1600FT -RA BR SCT018 OVC060
04/04 A3011=

0000009100
157
SPUS42 KWBC 110609
SPECI
KHOU 110605Z 24013KT 10SM OVC007 20/18 A2987=

0000010200
158
SPUS42 KWBC 110609
SPECI
KSSI 110605Z AUTO 21004KT 1 1/4SM BR OVC002 17/16 A3006=

0000012200
159
SPUS43 KWBC 110609
SPECI
KDLH 110605Z 24003KT 1/2SM R09/1800V2200FT -FZDZ FZFG VV002
M03/M04 A2942=

0000022000
160
SATH32 VTBB 110600 RRA
METAR VTSC 110600Z 23005KT 2000 -RA SCT016 BKN040 OVC100 24/23 
           Q1013 A2992 RWY02 INFO F=
METAR VTST 110600Z 05012KT 9999 FEW020 BKN300 31/19 Q1010 RWY08
INFO G=

0000012200
161
SACN31 CWAO 110600 CCA
METAR CYQQ 110600Z CCA 15018G24KT 2SM RA BR OVC008 06/06 A2942 RMK
SF8 SLP963=

0000017900
162
SAUK39 EGGY 110600 RRA
METAR EGUN 110558Z AUTO 27007KT 9999 -RA FEW007 SCT033 OVC044 07/07
      A2987 RMK AO2 SLP118 P0002 60007 T00710071 10079 20071 53008=

0000263500
163
SPUS70 KWBC 110610
SPECI
KANB 110606Z AUTO 01007KT 4SM VCTS RA BR BKN009 OVC015 11/11 A2992
     RMK AO2 LTG DSNT ALQDS TSB0550E05 P0023 T01110106=
KATL 110606Z 12005KT 1/4SM R09R/1800V2000FT -DZ FG VV002 09/08
     A2996 RMK AO2 P0000=
KDEQ 110606Z AUTO 00000KT 1/4SM FG VV002 05/05 A2979 RMK AO2
     T00500050=
KGGG 110606Z AUTO 28008KT 10SM -RA FEW013 SCT034 OVC090 16/14
     A2982 RMK AO2 LTG DSNT E TSE00 P0000=
KMVY 110606Z AUTO 18007KT 3SM BR OVC002 08/07 A3025 RMK AO2 $=
KOKB 110606Z AUTO 00000KT 1 1/4SM BR SCT008 07/07 A3010 RMK AO2
     TSNO $=
KPKD 110606Z AUTO 22003KT 3/4SM BR VV003 M07/M08 A2942 RMK AO2
     T10721083 TSNO=
KPSF 110606Z AUTO 00000KT 1/2SM -FZRA FZFG VV003 M01/M01 A3013 RMK
     AO2 UPE00FZRAB00 P0001=
KTTS 110603Z AUTO 13003KT 10SM SCT019 BKN070 21/18 A3010 RMK AO2
     $=
KASD 110606Z AUTO 19010G22KT 2SM BR OVC002 18/18 A2989 RMK AO2
     T01830178 TSNO=
KBOK 110606Z AUTO 15008KT 1 3/4SM BR OVC002 10/09 A3012 RMK AO2
     $=
KHVN 110606Z AUTO 00000KT 1 1/2SM BR OVC003 02/02 A3020 RMK
     AO2=
KIPT 110606Z AUTO 10005KT 1 1/4SM BR BKN004 BKN009 OVC013 01/00
     A3005 RMK AO2 RAE02UPB02E05 P0000=
KAND 110607Z AUTO 33004KT 7SM -RA BKN004 OVC011 08/08 A3003 RMK
     AO2 LTG DSNT E TSE04 P0000=
KDHN 110607Z AUTO 17007KT 1/2SM FG VV002 17/17 A3002 RMK AO2=
KDPA 110607Z 19009KT 3SM -RA BR OVC003 03/03 A2948 RMK AO2
     P0000=
KEYW 110607Z AUTO 00000KT 10SM BKN017 23/22 A3007 RMK AO2
     T02330222=
KILG 110607Z AUTO 07003KT 3/4SM R01/6000VP6000FT BR VV002 04/03
     A3012 RMK AO2=
KLBT 110607Z AUTO 17003KT 10SM OVC005 18/18 A3005 RMK AO2
     T01830178=
KMCB 110607Z AUTO 18015KT 6SM -RA BR OVC004 18/18 A2983 RMK AO2
     LTG DSNT NE-SE TSE0554 P0000 T01830178=
KMFE 110607Z AUTO 15003KT 1/2SM FG VV003 16/16 A2992 RMK AO2=
KMGJ 110607Z AUTO 00000KT 1SM UP BR BKN004 OVC010 00/M01 A3015 RMK
     AO2 P0000 T00001006 TSNO=
KMIC 110607Z 28006KT 4SM BR OVC006 M02/M03 A2946 RMK AO2=
KSBM 110607Z AUTO 20007KT 1 1/2SM BR OVC005 01/01 A2944 RMK AO2
     RAE0556 P0000 T00110011=
KTOI 110607Z AUTO 17007KT 1 1/4SM BR OVC002 17/16 A2995 RMK AO2
     LTG DSNT W-NE T01720161=
KTTN 110607Z AUTO 04003KT 3/4SM -RA BR VV002 02/02 A3014 RMK AO2
     P0001=
KUIN 110607Z AUTO 27006KT 2 1/2SM BR OVC003 04/03 A2953 RMK AO2
     T00390033=
PACV 110607Z 00000KT 7SM FEW002 SCT080 M04/M05 A2925 RMK AO2 $=
PAGK 110607Z AUTO 34003KT 2 1/2SM -SN BR OVC048 M12/M14 A2925 RMK
     AO2 P0000 T11221144 TSNO=
K2DP 110607Z AUTO 16016G22KT 7SM -RA BKN015 17/16 A3013 RMK
     AO2=

0000011700
164
SPUS31 KWBC 110610
SPECI
KATL 110606Z 12005KT 1/4SM R09R/1800V2000FT -DZ FG VV002 09/08
A2996=

0000010200
165
SPUS41 KWBC 110610
SPECI
KHVN 110606Z AUTO 00000KT 1 1/2SM BR OVC003 02/02 A3020=

0000011800
166
SPUS41 KWBC 110611
SPECI
KILG 110607Z AUTO 07003KT 3/4SM R01/6000VP6000FT BR VV002 04/03
A3012=

0000009600
167
SPUS42 KWBC 110611
SPECI
KEYW 110607Z AUTO 00000KT 10SM BKN017 23/22 A3007=

0000009900
168
SPUS42 KWBC 110611
SPECI
KMFE 110607Z AUTO 15003KT 1/2SM FG VV003 16/16 A2992=

0000070500
169
SAAG31 KWBC 110600
METAR
SAAG NIL=
SAAP NIL=
SAAR 110600Z 14009KT CAVOK 22/16 Q1010=
SABE 110600Z 16021G36KT 140V210 CAVOK 21/12 Q1011=
SACO 110600Z NIL=
SADD NIL=
SAEZ 110600Z 16019G30KT CAVOK 18/09 Q1012=
SAME 110600Z 14004KT CAVOK 25/06 Q1015=
SARC 110600Z 07005KT 9999 FEW050CB BKN200 28/24 Q1005=
SARE 110600Z NIL=
SARF 110600Z 36005KT CAVOK 28/22 Q1006=
SARI 110600Z 05005KT CAVOK 24/23 Q1011=
SARP 110600Z 09004KT CAVOK 25/21 Q1010=
SASA 110600Z 14005KT 9999 FEW025 BKN200 22/17 Q1012=
SASJ 110600Z NIL=
SAWE 110600Z NIL=
SAWG 110600Z 29007KT CAVOK 09/06 Q1011=
SAZM 110600Z 20006KT CAVOK 15/08 Q1014=
SAZS 110600Z 00000KT CAVOK 10/05 Q1021=

0000030400
170
SAAG41 KWBC 110600
METAR
SAAC NIL=
SAAV NIL=
SAGS NIL=
SANE NIL=
SANT 110600Z 18012KT 9999 OVC040 24/20 Q1010=
SANU NIL=
SAOR NIL=
SARL 110600Z NIL=
SATM NIL=
SAVC 110600Z 23006KT CAVOK 15/04 Q1015=
SAVT NIL=
SAZB NIL=
SAZN 110600Z 11008KT CAVOK 18/M03 Q1016=

0000016700
171
SACA33 KWBC 110600 RRB
METAR
TBPB 110600Z 06015KT 9999 SCT016 25/20 Q1014 NOSIG=
TLPL 110600Z 08010KT 9999 FEW020 SCT040 24/21 Q1015 TEMPO SHRA=

0000047600
172
SAPR41 KWBC 110600
METAR
SPCL 110600Z 01003KT 340V050 9999 SCT017 BKN060 25/24 Q1010 RMK
     PP000=
SPEC NIL=
SPEI NIL=
SPEO NIL=
SPGM NIL=
SPHI 110600Z 18009KT CAVOK 22/21 Q1011 RMK PP000=
SPHO NIL=
SPHY NIL=
SPJA NIL=
SPJI NIL=
SPJL 110600Z NIL=
SPJN NIL=
SPJR NIL=
SPME 110600Z NIL=
SPMS NIL=
SPNC NIL=
SPPY NIL=
SPRU 110600Z 13006KT 8000 FEW005 20/19 Q1011 RMK BR PP000=
SPST 110600Z NIL=
SPTU NIL=
SPUR NIL=

0000012700
173
SASA41 KWBC 110600 RRA
METAR
SKBG 110600Z NIL=
SKMD 110600Z NIL=
SKPE 110600Z NIL=
SKSM 110600Z NIL=

0000008800
174
SAAL41 DAMM 110500 RRF
METAR DABT 110500Z /////KT CAVOK 00/M01 Q1022=

00000000