0000154500
595
SPUS70 KWBC 110650
SPECI
KBPT 110646Z AUTO 25008KT 4SM BR OVC002 18/18 A2986 RMK AO2 $=
KCRE 110646Z AUTO 17006KT 2 1/2SM BR BKN002 16/16 A3006 RMK
     AO2=
KFLO 110646Z 17004KT 1/2SM FG VV004 15/14 A3002 RMK AO2=
KNSE 110639Z AUTO 18015KT 1 3/4SM BR OVC002 19/19 A2995 RMK AO2
     RAE27 P0000 T01940189 $=
KBAF 110647Z 02003KT 1 1/4SM R20/5000VP6000FT -FZRA BR SCT002
     OVC010 00/M01 A3018 RMK AO2 P0002 I1003=
KBUY 110646Z AUTO 00000KT 2SM RA BR OVC005 04/03 A3003 RMK AO2
     RAE02B04 P0007 T00390028=
KHPN 110646Z 09003KT 1/4SM R16/1800V2000FT DZ FG VV002 02/01 A3014
     RMK AO2 RAB42E46DZB46 P0000=
KLSE 110646Z AUTO 00000KT 3SM BR FEW012 BKN036 OVC060 M01/M03
     A2946 RMK AO2 T10111028 PWINO FZRANO $=
KTMB 110646Z AUTO 00000KT 1 1/2SM BR CLR 21/21 A3009 RMK AO2=
KEAU 110647Z AUTO 00000KT 3SM -SN BR BKN026 OVC080 M03/M04 A2944
     RMK AO2 SNB17 P0001 T10331039=
KSDF 110647Z 22005KT 3SM TSRA BKN007 BKN010 OVC041CB 11/10 A2968
     RMK AO2 TSE10B31 PRESFR OCNL LTGIC OHD TS OHD MOV E P0013
     $=
KSET 110647Z AUTO 22007KT 3SM BR OVC014 06/05 A2953 RMK AO2
     T00560050 TSNO=
KSTP 110647Z AUTO 27003KT 3SM BR OVC006 M02/M02 A2948 RMK AO2 CIG
     003V009=
KTAN 110647Z AUTO 00000KT 2SM -RA BR FEW006 BKN020 OVC080 03/01
     A3023 RMK AO2 RAE29B47UPB27E28 P0002=
PAMR 110647Z 28003KT 10SM -SN FEW005 OVC014 M05/M08 A2932 RMK AO2
     P0000=
PASO 110647Z AUTO 00000KT 4SM -SN BR FEW007 BKN017 OVC024 M01/M02
     A2933 RMK AO2 SNB45 P0000 TSNO=

0000013000
596
SPUS41 KWBC 110650
SPECI
KBAF 110647Z 02003KT 1 1/4SM R20/5000VP6000FT -FZRA BR SCT002
OVC010 00/M01 A3018=

0000011300
597
SPUS41 KWBC 110650
SPECI
KHPN 110646Z 09003KT 1/4SM R16/1800V2000FT DZ FG VV002 02/01 A3014=

0000009800
598
SPUS42 KWBC 110650
SPECI
KBPT 110646Z AUTO 25008KT 4SM BR OVC002 18/18 A2986=

0000012600
599
SPUS42 KWBC 110650
SPECI
KMGM 110646Z AUTO 20008G14KT 6SM VCTS -RA BR FEW005 BKN013 OVC019
18/17 A2990=

0000009900
600
SPUS42 KWBC 110650
SPECI
KTMB 110646Z AUTO 00000KT 1 1/2SM BR CLR 21/21 A3009=

0000009500
601
SABW31 VGEG 110650
METAR VGEG 110650Z 25006KT 4000 HZ NSC 23/11 Q1014 NOSIG=

0000020300
602
SAMP31 LMMM 110700
METAR HLLT 110650Z
17006KT CAVOK 09/05 Q1023=
METAR HLLB 110645Z
00000KT 9999 SCT020 BKN080 13/10 Q1026 =
METAR LMML 110645Z 20005KT CAVOK 15/13 Q1022 NOSIG=

0000063600
603
FTUS31 KWBC 110651 AAA
TAF AMD
KATL 110649Z 1107/1212 12005KT 1/4SM -RADZ FG OVC002
      TEMPO 1107/1110 1/2SM -TSRA FG OVC003CB
     FM111000 16009KT 3SM -SHRA BR OVC004
     FM111400 21010G18KT 4SM -SHRA BR OVC007
     FM111900 27012G22KT P6SM BKN025
     FM112100 29014G25KT P6SM SCT040
     FM120000 28014KT P6SM SCT250
     FM120600 30007KT P6SM SKC=
KSFO 110650Z 1107/1212 27006KT P6SM SCT010 BKN200
     FM110900 25005KT P6SM OVC008
     FM111500 19006KT P6SM BKN015
     FM112100 24006KT P6SM VCSH BKN025 BKN060
     FM120000 29010KT P6SM BKN060
     FM120600 29006KT P6SM SCT060=

0000035100
604
FTUS42 KWBC 110651 AAA
TAF AMD
KFTY 110650Z 1107/1206 05005KT 3SM -RADZ BR OVC005
      TEMPO 1107/1109 1SM -TSRA BR OVC003CB
     FM111000 16009KT 3SM -SHRA BR OVC004
     FM111400 21009KT 4SM -SHRA BR OVC007
     FM111900 27010G18KT P6SM BKN025
     FM112100 29012G20KT P6SM SCT040
     FM120000 28011KT P6SM SCT250=

0000029400
605
FTUS74 KWBC 110651 AAA
TAF AMD
KSFO 110650Z 1107/1212 27006KT P6SM SCT010 BKN200
     FM110900 25005KT P6SM OVC008
     FM111500 19006KT P6SM BKN015
     FM112100 24006KT P6SM VCSH BKN025 BKN060
     FM120000 29010KT P6SM BKN060
     FM120600 29006KT P6SM SCT060=

0000011700
606
SALT33 EYVI 110650
METAR EYPA 110650Z 27004KT 230V360 9999 FEW017 BKN031 03/01 Q1005
R01/2///95=

0000069300
607
FTUS72 KWBC 110651 AAA
TAF AMD
KATL 110649Z 1107/1212 12005KT 1/4SM -RADZ FG OVC002
      TEMPO 1107/1110 1/2SM -TSRA FG OVC003CB
     FM111000 16009KT 3SM -SHRA BR OVC004
     FM111400 21010G18KT 4SM -SHRA BR OVC007
     FM111900 27012G22KT P6SM BKN025
     FM112100 29014G25KT P6SM SCT040
     FM120000 28014KT P6SM SCT250
     FM120600 30007KT P6SM SKC=
KFTY 110650Z 1107/1206 05005KT 3SM -RADZ BR OVC005
      TEMPO 1107/1109 1SM -TSRA BR OVC003CB
     FM111000 16009KT 3SM -SHRA BR OVC004
     FM111400 21009KT 4SM -SHRA BR OVC007
     FM111900 27010G18KT P6SM BKN025
     FM112100 29012G20KT P6SM SCT040
     FM120000 28011KT P6SM SCT250=

0000024300
608
FTUS73 KWBC 110651 AAA
TAF AMD
KCID 110648Z 1107/1206 28009KT P6SM OVC006
     FM110800 29011KT P6SM BKN006 OVC015
     FM111500 26008KT P6SM SCT010
     FM111800 30013KT P6SM BKN018
     FM112300 26006KT P6SM SKC=

0000011100
609
SAUS71 KWBC 110600 RRK
METAR
KSWF 110645Z 00000KT 1SM R09/5000FT -FZDZ OVC003 00/00 A3014=

0000013600
610
SALT34 EYVI 110650
METAR EYSA 110650Z 26008KT 9999 FEW010 BKN014 BKN018 00/M02 Q1004 
RESN R32R/2///95 R32L/2///95=

0000009600
611
SAUS74 KWBC 110600 RRF
METAR
KIWA 110647Z 13005KT 20SM FEW250 06/M01 A3015=

0000009700
612
SAUS75 KWBC 110600 RRF
METAR
PAPG 110646Z 00000KT 10SM SCT010 M01/M02 A2919=

0000010400
613
SACV20 GVAC 110700
METAR GVAC 110700Z 03007KT 9999 BKN015 BKN200 20/14 Q1015
NOSIG=

0000013600
614
SALT31 EYVI 110650
METAR EYVI 110650Z 28008KT 2600 SN BR BKN005 OVC011 M00/M01 Q1004
     R20/2/0195 TEMPO 1500 SN=

00000000