0000040600
155
FTCN34 CWAO 110800 AAA
TAF AMD CYWG 110808Z 1108/1206 30012KT P6SM SCT015 OVC100 TEMPO
     1108/1118 3SM -SN BR SCT008 BKN015
     BECMG 1110/1112 31008KT
    FM111800 29008KT P6SM SCT012 BKN030 TEMPO 1118/1121 6SM BR BKN012
    FM112100 27006KT P6SM SCT030 TEMPO 1121/1124 BKN030
    FM120000 20006KT P6SM SKC
    FM120300 18012KT P6SM BKN080
    RMK NXT FCST BY 111200Z=

0000012800
156
SAHW31 KWBC 110800 RRA
METAR
PHLI 110805Z AUTO 06015G22KT 10SM -RA FEW011 BKN017 BKN023 22/21
     A2997=

0000009600
157
SATH31 VTBB 110800 RRB
METAR VTPH 110800Z 02010KT 8000 NSC 29/19 Q1012 NOSIG=

0000009700
158
SPUS31 KWBC 110813
SPECI
KORD 110809Z 22008KT 4SM -RA BR OVC004 04/02 A2942=

0000010200
159
SPUS43 KWBC 110813
SPECI
KGRB 110809Z AUTO VRB05KT 2 1/2SM BR OVC003 01/01 A2939=

0000009300
160
SAAL41 DAMM 110800 RRC
METAR DAUU 110800Z 33006KT 7000 FEW046 08/06 Q1022=

0000012400
161
SAMS33 WMKK 110800 CCA
METAR COR WMAU 110800Z 35011G23KT 9999 FEW020 SCT140 BKN270 27/24
Q//// QFF1009=

0000031200
162
FCFR22 LFPW 110800
TAF LFBM 110800Z 1109/1118 24004KT 7000 BKN020 PROB30 TEMPO 1109/1112
 OVC014=
TAF LFMO 110800Z 1109/1118 VRB02KT 6000 BKN030=
TAF LFBC 110800Z NIL=
TAF LFBG 110800Z NIL=
TAF LFBY 110800Z NIL=
TAF LFKS 110800Z NIL=
TAF LFMC 110800Z NIL=
TAF LFMY 110800Z NIL=

0000015500
163
FCFR23 LFPW 110800
TAF LFOC 110800Z NIL=
TAF LFOE 110800Z NIL=
TAF LFOJ 110800Z NIL=
TAF LFRJ 110800Z NIL=
TAF LFRL 110800Z NIL=

0000024300
164
FCFR24 LFPW 110800
TAF LFSO 110800Z 1109/1118 VRB02KT 3000 BR NSC
TEMPO 1109/1112 1000 -DZRA BR BKN002 BKN015
BECMG 1117/1118 24003KT 0800 FG VV///=
TAF LFSI 110800Z NIL=
TAF LFSX 110800Z NIL=
TAF LFYR 110800Z NIL=

0000095900
165
FCFR31 LFPW 110800
TAF LFBA 110800Z 1109/1118 10004KT 8000 OVC013 PROB40 1112/1118
BKN016=
TAF LFBE 110800Z 1109/1118 12005KT 5000 BR BKN020 PROB30 TEMPO
1109/1112 1500 BR OVC010 BECMG 1112/1114 8000 NSW=
TAF LFCK 110800Z 1109/1118 14004KT 9999 BKN025 BECMG 1116/1118 BKN013
=
TAF LFPN 110800Z 1109/1118 25004KT 1500 BR NSC TEMPO 1109/1111 0800
FG BKN002 PROB40 TEMPO 1109/1111 0200 FG VV/// BECMG 1111/1113 5000
BR BKN005 BECMG 1113/1115 9999 NSW BKN010 BECMG 1116/1118 02004KT=
TAF LFRC 110800Z 1109/1118 32010KT 9999 SCT025 BECMG 1112/1115
02007KT BECMG 1115/1118 09006KT=
TAF LFRG 110800Z 1109/1118 23007KT 5000 BKN007 TEMPO 1109/1111 3000
RADZ BKN003 BECMG 1110/1112 28007KT 9999 SCT020 BECMG 1112/1115
35008KT BECMG 1115/1118 08005KT=
TAF LFRK 110800Z 1109/1118 26007KT 4000 BR BKN004 TEMPO 1109/1111
2000 RADZ BKN003 BECMG 1110/1112 28007KT 9999 SCT020 BECMG 1112/1115
35008KT BECMG 1115/1118 08005KT=

0000047300
166
FCFR32 LFPW 110800
TAF LFGJ 110800Z 1109/1118 VRB03KT 8000 NSC BECMG 1109/1112 21008KT
9999 BKN025 PROB30 TEMPO 1109/1110 BKN006 PROB30 TEMPO 1112/1118 -RA=
TAF LFJR 110800Z 1109/1118 36005KT 0200 FG VV/// TEMPO 1109/1112 0800
 BCFG BKN003 BECMG 1112/1114 3000 BR BKN005=
TAF LFMD 110800Z 1109/1118 05010KT 9999 FEW015 SCT040 BECMG 1112/1114
 FEW015 BKN030=
TAF LFOT 110800Z 1109/1118 08004KT 2000 BR BKN003 BECMG 1112/1114
8000 NSW BKN008=

0000043700
167
FCFR33 LFPW 110800
TAF LFAQ 110800Z 1109/1118 22010KT 4000 BR BKN007 OVC030 TEMPO
1109/1112 1200 DZRA OVC002 BECMG 1113/1115 30010KT 9999 NSW SCT020=
TAF LFRH 110800Z 1109/1118 09003KT 0300 FG VV/// TEMPO 1109/1110 0100
 BECMG 1110/1112 9999 NSW SCT015 SCT025=
TAF LFRQ 110800Z 1109/1118 09004KT 9999 SCT012 SCT025=
TAF LFSL 110800Z 1109/1118 18005KT 9999 SCT012 BKN020 TEMPO 1109/1115
 8000 SCT010 BKN018=

0000024000
168
FCFR34 LFPW 110800
TAF LFAT 110800Z 1109/1118 22013KT 4000 RA BKN007 OVC030 TEMPO
1109/1110 2000 RA OVC003 BECMG 1110/1112 32015KT 9999 NSW SCT020=
TAF LFLN 110800Z NIL=
TAF LFPM 110800Z NIL=
TAF LFRT 110800Z NIL=

0000012600
169
SATH41 VTBB 110800 RRA
METAR VTPM 110800Z 03006KT 330V080 9999 FEW035 31/14 Q1013 A2991
RMK/RWY27 INFO I=

0000068500
170
SAEA20 HKNC 110800
METAR HKEL 110800Z NIL=
METAR HKEM 110800Z NIL=
METAR HKGA 110800Z NIL=
METAR HKJK 110800Z NIL=
METAR HKKG 110800Z NIL=
METAR HKKI 110800Z NIL=
METAR HKKR 110800Z NIL=
METAR HKKS 110800Z NIL=
METAR HKKT 110800Z NIL=
METAR HKLO 110800Z NIL=
METAR HKLU 110800Z NIL=
METAR HKMA 110800Z NIL=
METAR HKMB 110800Z NIL=
METAR HKME 110800Z NIL=
METAR HKML 110800Z NIL=
METAR HKMO 110800Z NIL=
METAR HKMU 110800Z NIL=
METAR HKMY 110800Z NIL=
METAR HKNC 110800Z NIL=
METAR HKNI 110800Z NIL=
METAR HKNK 110800Z NIL=
METAR HKNO 110800Z NIL=
METAR HKNW 110800Z NIL=
METAR HKVO 110800Z NIL=
METAR HKWJ 110800Z NIL=

0000013900
171
SAKN20 HKNC 110800
METAR HKEL 110800Z NIL=
METAR HKJK 110800Z NIL=
METAR HKKI 110800Z NIL=
METAR HKMO 110800Z NIL=

0000010200
172
SPUS31 KWBC 110815
SPECI
KLOU 110811Z AUTO 13003KT 3SM +RA BR OVC060 11/10 A2963=

0000010400
173
SAAK31 KWBC 110800 RRA
METAR
PAED 110758Z 23005KT 10SM BKN005 OVC015 M06/M06 A2932=

0000035000
174
FTCN36 CWAO 110800 AAA
TAF AMD CYUY 110815Z 1108/1118 14008KT 1/2SM -SN FZFG VV002 TEMPO
     1108/1110 2SM -SN BR OVC004
    FM111000 14010KT 1/2SM -SN FZFG VV002 TEMPO 1110/1115 2SM -FZRA
     -PL BR OVC004
    FM111500 16010G20KT 1/2SM -RA FG VV002 TEMPO 1115/1118 2SM -RA BR
     OVC004
    RMK NXT FCST BY 111200Z=

00000000