0000012100
255
SAOS32 LOWM 110550
METAR LOXZ 110550Z VRB02KT 8000 FEW002ST SCT080SC BKN300CI M03/M03
Q1020 RMK BKN=

0000043600
256
FTAF34 OEJD 110400 RRA
TAF HTDA 110400Z 1106/1212 36010KT 9999 SCT024
     BECMG 1109/1112 03015KT 9999 BKN026
     BECMG 1115/1118 SCT024 BECMG 1203/1206 36015
     BECMG 1209/1212 03010G20KT BKN026=
TAF HTKJ 110400Z 1106/1206 07005KT 9999 FEW020
     BECMG 1108/1112 12010KT FEW032CB SCT033
     BECMG 1114/1118 10010KT FEW028
     BECMG 1120/1124 09010KT FEW024
     BECMG 1202/1206 09005KT FEW022=

0000008900
257
SAID33 WALR 110600
METAR WALR 110600Z 33007KT 9000 SCT015 30/24 Q1009=

0000008900
258
SABZ21 SBAR 110600
METAR SBAR 110600Z 12009KT 9999 SCT015 26/21 Q1012=

0000084000
259
SAIY31 LIIB 110550
METAR LIEA 110550Z 01004KT 9999 2000NW MIFG NSC 06/06 Q1020=
METAR LIEE 110550Z 32004KT 310V060 CAVOK 06/06 Q1019=
METAR LIEO 110550Z 22002KT 3000 BR NSC 03/03 Q1021=
METAR LIMC 110550Z VRB01KT 7000 BKN030 07/06 Q1022 NOSIG=
METAR LIME 110550Z 16002KT 4000 BR BKN010 08/06 Q1021=
METAR LIMF 110550Z 00000KT 9999 BKN030 07/05 Q1021=
METAR LIMJ 110550Z 02004KT 9999 SCT015 BKN032 12/09 Q1021=
METAR LIML 110550Z 25003KT 220V280 5000 BR SCT007 BKN030 08/07
Q1022 NOSIG=
METAR LIRA 110545Z 05001KT 8000 FEW010 04/04 Q1021=
METAR LIRF 110550Z 06004KT 6000 SCT030 05/05 Q1022 NOSIG=
METAR LIRN 110550Z 35003KT 5000 BR SCT050 07/05 Q1022=
METAR LIRP 110545Z VRB02KT 9999 FEW025 BKN050 08/07 Q1021 NOSIG=
METAR LIRQ 110550Z 00000KT 5000 R05/1100V1700 MIFG FEW010 BKN040
10/10 Q1022=

0000026300
260
SAEO32 EETN 110550
METAR EEKA 110550Z 30007KT 9999 OVC013 01/M01 Q0999=
METAR EEKE 110550Z AUTO 30006KT 260V330 9999NDV FEW009 BKN027 01/01 
Q1000=
METAR EETU 110550Z 30009KT 9999 -SN BKN008 OVC028 M01/M03 Q0996=
METAR EEPU 110550Z NIL=

0000011300
261
SAUS75 KWBC 110500 RRG
METAR
PAOM 110453Z COR 04016KT 10SM DRSN FEW032 SCT100 M12/M20 A2961=

0000074700
262
FTUS51 KWBC 110557 CCA
TAF COR
KMYR 110556Z 1106/1206 00000KT 1SM BR SCT006 SCT080
     FM110800 18007KT 2SM BR BKN006
     FM111600 19012G20KT P6SM VCSH BKN018
      TEMPO 1120/1124 20020G30KT 2SM +SHRA BKN012CB
     FM120000 21012G19KT P6SM VCSH BKN025
     FM120300 25013G23KT P6SM SCT030 AMD LTD TO CLD VIS AND WIND
      TIL 111100=
KSLK 110556Z 1106/1206 00000KT 4SM BR BKN020 OVC035
      TEMPO 1106/1107 SCT015 BKN050
     FM110800 18009KT 4SM BR VCSH BKN015 OVC020 WS020/21045KT
      TEMPO 1108/1110 2SM -FZDZ BR BKN010 OVC015
     FM111000 20012G18KT 3SM -RA BR OVC008 WS020/22050KT
     FM111300 20012G20KT 3SM -RA BR OVC006 WS020/22055KT
     FM111800 21010G18KT 2SM RA BR BKN004 OVC006=

0000075800
263
FTUS54 KWBC 110557
TAF
KLMT 110554Z 1106/1206 21006KT P6SM SCT060 BKN150
     FM111200 20020G30KT P6SM VCSH BKN035
     FM111700 24024G35KT P6SM -RA OVC025
     FM112100 24025G45KT 4SM -SHSN BKN025 BKN040=
KMFR 110554Z 1106/1206 15006KT P6SM SCT035 OVC200
      TEMPO 1106/1109 3SM BR
     FM111000 15012KT P6SM VCSH SCT025 BKN080 WS020/20050KT
     FM111400 16008G16KT P6SM -RA BKN025 OVC040
     FM111900 23008G16KT P6SM -RA BKN030 OVC045
     FM120300 28010G20KT P6SM -SHRA BKN025 OVC040=
KOTH 110554Z 1106/1206 19010KT P6SM -SHRA BKN025 OVC035
     FM110800 20020G32KT 5SM -RA BR BKN015 OVC025
     FM111100 20025G38KT 3SM RA BR OVC012 WS020/25060KT
     FM112200 27020G30KT P6SM -SHRA SCT015 BKN050 OVC070=

0000102100
264
FTUS80 KWBC 110557 CCA
TAF COR
KCRE 110555Z 1106/1206 19003KT 5SM BR FEW011 SCT023
     FM110800 20005KT 3SM BR BKN003
     FM111600 19012G20KT P6SM VCSH BKN018
      TEMPO 1121/1124 20020G30KT 2SM +SHRA BKN012CB
     FM120000 21012G19KT P6SM VCSH BKN025
     FM120300 25013G23KT P6SM SCT030=
KMYR 110556Z 1106/1206 00000KT 1SM BR SCT006 SCT080
     FM110800 18007KT 2SM BR BKN006
     FM111600 19012G20KT P6SM VCSH BKN018
      TEMPO 1120/1124 20020G30KT 2SM +SHRA BKN012CB
     FM120000 21012G19KT P6SM VCSH BKN025
     FM120300 25013G23KT P6SM SCT030 AMD LTD TO CLD VIS AND WIND
      TIL 111100=
KSLK 110556Z 1106/1206 00000KT 4SM BR BKN020 OVC035
      TEMPO 1106/1107 SCT015 BKN050
     FM110800 18009KT 4SM BR VCSH BKN015 OVC020 WS020/21045KT
      TEMPO 1108/1110 2SM -FZDZ BR BKN010 OVC015
     FM111000 20012G18KT 3SM -RA BR OVC008 WS020/22050KT
     FM111300 20012G20KT 3SM -RA BR OVC006 WS020/22055KT
     FM111800 21010G18KT 2SM RA BR BKN004 OVC006=

0000075800
265
FTUS80 KWBC 110557
TAF
KLMT 110554Z 1106/1206 21006KT P6SM SCT060 BKN150
     FM111200 20020G30KT P6SM VCSH BKN035
     FM111700 24024G35KT P6SM -RA OVC025
     FM112100 24025G45KT 4SM -SHSN BKN025 BKN040=
KMFR 110554Z 1106/1206 15006KT P6SM SCT035 OVC200
      TEMPO 1106/1109 3SM BR
     FM111000 15012KT P6SM VCSH SCT025 BKN080 WS020/20050KT
     FM111400 16008G16KT P6SM -RA BKN025 OVC040
     FM111900 23008G16KT P6SM -RA BKN030 OVC045
     FM120300 28010G20KT P6SM -SHRA BKN025 OVC040=
KOTH 110554Z 1106/1206 19010KT P6SM -SHRA BKN025 OVC035
     FM110800 20020G32KT 5SM -RA BR BKN015 OVC025
     FM111100 20025G38KT 3SM RA BR OVC012 WS020/25060KT
     FM112200 27020G30KT P6SM -SHRA SCT015 BKN050 OVC070=

0000053900
266
SAGR33 LGAT 110550
METAR LGBL 110550Z 27006KT 9999 FEW018 SCT180 05/03 Q1023 NOSIG=
METAR LGHI 110550Z 00000KT 9999 FEW016 BKN025 BKN070 13/11 Q1021=
METAR LGKC 110550Z NIL=
METAR LGKF 110550Z 00000KT 9999 FEW015 SCT020 13/09 Q1023=
METAR LGKP 110550Z 04005KT 9999 FEW030 11/08 Q1021=
METAR LGKZ 110550Z 33005KT 9999 FEW070 04/00 Q1022=
METAR LGMK 110550Z NIL=
METAR LGNX 110550Z 10004KT 9999 FEW015 BKN180 11/09 Q1020=
METAR LGPA 110550Z 03003KT 9999 FEW016 SCT060 12/11 Q1021=
METAR LGSO 110550Z NIL=

0000011300
267
SAAK31 KWBC 110500 RRC
METAR
PAOM 110453Z COR 04016KT 10SM DRSN FEW032 SCT100 M12/M20 A2961=

0000014800
268
FCNO33 ENMI 110500 RRA
TAF ENFL 110500Z 1106/1113 04007KT 9999 -SN FEW010 BKN020 PROB40
         TEMPO 1106/1109 4000 SN VV009=

0000012100
269
SANK31 MNMG 110600
METAR  
MNMG 110600Z 10006KT 9999 FEW023 24/20 Q1012 A2989 1AC070 1CI300
NOSIG=

0000040600
270
SAMX45 MMMY 110557
METAR MMMY 110540Z 27004KT 12SM  SKC 14/12 A2997 RMK SLP158 53011
907=
METAR MMAN 110540Z 27006KT 10SM  SKC 14/13 A3001 RMK SLP134 52010
963=
METAR MMIO 110540Z 18006KT 10SM SKC 11/06 A3020=
METAR MMTC 110548Z 00000KT 10SM BKN250 13/02 A3012
      RMK SLP159 52017 940 8/008=
METAR MMCU 110540Z 16004KT 10SM SKC 02/M05 A3014
      RMK SLP178 52020 9//=

0000017300
271
SAGR32 LGAT 110550 RRA
METAR LGRX 110550Z 00000KT 9999 FEW060 SCT150 09/07 Q1023 NOSIG=
METAR LGSR 110550Z 27008KT 9999 FEW020 SCT025 15/11 Q1021 NOSIG=

0000010300
272
SPCN43 CWAO 110556
SPECI CWHN 110556Z AUTO 28004KT 250V320 9SM OVC004 M10/M11 A2952=

0000011500
273
SPCN51 CWAO 110557
SPECI CWUW 110557Z AUTO 19006KT 3SM BKN015 BKN051 BKN063 BKN089 M28/
A2917=

0000037200
274
FTCM21 FKKD 110600
TAF FKKD 110500Z 1106/1212 VRB03KT 8000 SCT016 FEW020CB
         TEMPO 1106/1108 2000 BR BKN013 FEW020CB PROB30 0900 FG
         TEMPO 1109/1116 5000 HZ
         TEMPO 1204/1206 2000 BR=
TAF FKYS 110500Z  1106/1206 VRB04KT 8000 BKN006
TEMPO 1106/1107 1200 BR PROB40 0700 FG
BECMG 1107/1109 BKN016
BECMG 1120/1122 BKN006=

00000000