0000043000
935
FTUS41 KWBC 110845 CCA
TAF COR
KGON 110843Z 1109/1206 VRB02KT 1/2SM -RA FG OVC003
      TEMPO 1109/1111 3SM -RA BR SCT003 BKN018 OVC040
     FM111100 15010KT 4SM BR OVC050 WS020/19050KT
     FM111400 18012KT 4SM -RA BR OVC050 WS015/19050KT
      TEMPO 1116/1119 2SM -RA BR BKN009 OVC025
     FM111900 18020G30KT 1/2SM RA FG OVC004 WS015/19060KT
     FM120500 23012G18KT 3SM -SHRA BR SCT007 OVC030=

0000043000
936
FTUS71 KWBC 110845 CCA
TAF COR
KGON 110843Z 1109/1206 VRB02KT 1/2SM -RA FG OVC003
      TEMPO 1109/1111 3SM -RA BR SCT003 BKN018 OVC040
     FM111100 15010KT 4SM BR OVC050 WS020/19050KT
     FM111400 18012KT 4SM -RA BR OVC050 WS015/19050KT
      TEMPO 1116/1119 2SM -RA BR BKN009 OVC025
     FM111900 18020G30KT 1/2SM RA FG OVC004 WS015/19060KT
     FM120500 23012G18KT 3SM -SHRA BR SCT007 OVC030=

0000037200
937
FTUS74 KWBC 110845 CCA
TAF COR
KMFR 110841Z 1109/1206 12005KT 3/4SM BR BKN002 OVC200
     FM110900 15007KT 3SM BR BKN003 BKN080 OVC200
     FM111000 15009KT P6SM VCSH SCT025 BKN060 WS020/20050KT
     FM111400 16008G16KT P6SM -RA BKN025 OVC040
     FM111900 23008G16KT P6SM -RA BKN030 OVC045
     FM120300 28010G20KT P6SM -SHRA BKN025 OVC040=

0000020300
938
FTUS75 KWBC 110845
TAF
TAF AMD PAEI 1108/1210 VRB03KT 0800 FG OVC003 QNH2952INS
      BECMG 1120/1121 VRB03KT 9999 NSW SCT003 QNH2952INS
      TXM29/1204Z TNM42/1114Z AMD 110836=

0000023000
939
FTUS73 KWBC 110845 AAA
TAF AMD
KBTL 110844Z 1109/1206 20011KT 1/4SM -SHRA FG OVC002
     FM111200 22007KT 1/2SM -DZ FG OVC004
     FM111600 27012G22KT 4SM -SN BR OVC008
     FM112300 28013KT P6SM OVC025=

0000019900
940
FTSP31 LEMM 110500 AAB
TAF AMD LEPA 110849Z 1108/1206 06005KT 9999 FEW015 TX17/1112Z
TN07/1108Z TEMPO 1108/1110 4000 BR BKN009 PROB30 TEMPO 1108/1111
BKN009 TEMPO 1115/1122 RA=

0000188900
941
SPUS70 KWBC 110850
SPECI
K1M4 110846Z AUTO 22009KT 1 1/2SM +TSRA BR OVC003 14/14 A2973 RMK
     AO2 CIG 001V007 LTG DSNT ALQDS P0060=
KAFN 110847Z AUTO 00000KT 3/4SM UP BR VV005 00/M01 A3010 RMK AO2
     UPB16FZRAE16 P0003 I1000=
KBDE 110846Z AUTO 30004KT 7SM SCT009 SCT014 OVC027 M03/M04 A2941
     RMK AO2 SNE33 P0000 T10331044 TSNO=
KBRL 110846Z AUTO 30008KT 9SM SCT010 OVC040 08/01 A2952 RMK AO2
     T00830006=
KCSG 110846Z AUTO 21011G20KT 4SM -RA BR OVC002 17/17 A2990 RMK AO2
     RAB00E15B31 P0002=
KFTY 110846Z 16003KT 1 3/4SM +RA BR OVC005 11/11 A2989 RMK AO2
     RAE0755B15 P0018=
KLHQ 110846Z AUTO 20006KT 2SM RA BR FEW019 SCT024 OVC034 10/09
     A2969 RMK AO2 RAB0758 P0025=
KOGB 110846Z AUTO 18006KT 2SM BR OVC003 17/17 A2998 RMK AO2
     T01720167 TSNO=
KSGJ 110846Z 15005KT 1/2SM FG BKN011 16/16 A3005 RMK AO2 CIG
     004V014=
KSTL 110846Z 27016KT 7SM OVC021 07/04 A2957 RMK AO2=
KNFE 110843Z AUTO 13007KT 8SM -RA SCT013 BKN023 OVC037 18/16 A3004
     RMK AO2 P0011 T01830156=
KAKH 110847Z AUTO 00000KT 1SM BR VV002 06/06 A2996 RMK AO2
     RAB27E47 P0001=
KBPT 110847Z AUTO 23004KT 2SM BR OVC004 18/17 A2986 RMK AO2 $=
KFFC 110847Z AUTO 15006KT 6SM VCTS RA BR SCT011 BKN031 OVC090
     15/15 A2987 RMK AO2 LTG DSNT N AND NE TSB03E28 P0035=
KHOU 110847Z 22008KT 2 1/2SM BR OVC003 17/16 A2986 RMK AO2 CIG
     002V005=
KIND 110847Z 17003KT 1/4SM R05L/2400V4500FT -RA FG OVC004 04/04
     A2954 RMK AO2 RAB47 P0000 $=
KOXB 110847Z AUTO VRB06G18KT 2SM RA BR SCT003 BKN028 OVC090 13/12
     A3006 RMK AO2 P0016 TSNO=
KBED 110847Z AUTO 08003KT 1/4SM R11/2200V2600FT FG VV002 01/01
     A3014 RMK AO2 RAE31 P0000 TSNO=
KCQX 110847Z AUTO VRB04KT 3SM BR SCT002 BKN050 OVC060 06/05 A3022
     RMK AO2=
KMFR 110847Z AUTO 14005KT 3/4SM R14/1400V2600FT BR VV002 05/04
     A3001 RMK AO2=

0000009000
942
SPUS31 KWBC 110850
SPECI
KSTL 110846Z 27016KT 7SM OVC021 07/04 A2957=

0000011300
943
SPUS41 KWBC 110850
SPECI
KCEF 110848Z AUTO 00000KT 1 1/4SM R23/4500FT BR OVC002 00/00 A3011=

0000010800
944
SPUS41 KWBC 110850
SPECI
KDOV 110846Z AUTO 13006KT 10SM BKN009 BKN024 BKN095 10/ A2999=

0000010100
945
SPUS42 KWBC 110850
SPECI
KFTY 110846Z 16003KT 1 3/4SM +RA BR OVC005 11/11 A2989=

0000011100
946
SPUS43 KWBC 110850
SPECI
KBDE 110846Z AUTO 30004KT 7SM SCT009 SCT014 OVC027 M03/M04 A2941=

0000012500
947
SAMP31 LMMM 110900
METAR HLLT NIL=
METAR HLLB NIL=
METAR LMML 110845Z 19009KT CAVOK 17/13 Q1023 NOSIG=

0000011900
948
FCUK33 EGGY 110800 RRA
TAF EGHE 110850Z 1109/1113 34007KT 9999 FEW040 BECMG 1110/1113
    11010KT=

0000012100
949
SALT33 EYVI 110850
METAR EYPA 110850Z 25006KT 200V310 9999 -RA BKN008 BKN022 05/04
Q1005 R19/2///95=

0000013600
950
SATU31 LTAA 110820 CCA
METAR COR LTCG 110820Z 08006KT 040V110 9999 FEW035 BKN180 13/02 Q1022
 BECMG TL1000 28012KT=

0000022700
951
FTUS42 KWBC 110851 AAA
TAF AMD
KMGM 110850Z 1109/1206 16008G20KT P6SM OVC007
      TEMPO 1114/1117 22010KT 2SM -TSRA BR OVC002CB
     FM111700 27012G19KT P6SM BKN100
     FM112300 29010KT P6SM SCT250=

0000046600
952
FTUS71 KWBC 110851
TAF
TAF KNKT 1109/1209 19010G16KT 9999 VCSH BKN015 BKN025 542709
      543605
      QNH2998INS
     FM111400 18014G23KT 9999 BKN040 540009 540901
      QNH2992INS
     FM111600 22016G27KT 4800 SHRA VCTS BKN025CB 540009
      540901
      QNH2982INS
      TEMPO 1118/1200 3200 TSRA BKN020 BKN025CB
      BECMG 1203/1205 22015G25KT 6000 SHRA BKN025 540009
      540901
      QNH2969INS T22/1119Z T11/1208Z=

0000039300
953
FTUS72 KWBC 110851 AAA
TAF AMD
KAPF 110850Z 1109/1206 11004KT P6SM SCT002
      TEMPO 1109/1113 3SM BR BKN002
     FM111500 16014G20KT P6SM SCT025
     FM111900 21013KT P6SM SCT025 BKN250=
KMGM 110850Z 1109/1206 16008G20KT P6SM OVC007
      TEMPO 1114/1117 22010KT 2SM -TSRA BR OVC002CB
     FM111700 27012G19KT P6SM BKN100
     FM112300 29010KT P6SM SCT250=

0000013100
954
SAEU31 BKPR 110900
BKPR 110900Z 00000KT 0200 R17/0200 FG OVC002 00/M01 Q1025 BECMG 0400
 BKN004 RMK 17010095 =

00000000