0000013500
115
SACN44 CWAO 110600 CCA
METAR CYTH 110600Z CCA 05006KT 5SM -SN BKN012 OVC025 M18/M19 A2950
RMK SC6SC2 /S01/ SLP014=

0000164900
116
SAUS73 KWBC 110600 RRB
METAR
KJMS 110556Z AUTO 31018KT 9SM OVC009 M03/M04 A2950=
KJXN 110556Z 18013G19KT 10SM -RA OVC005 05/04 A2958=
KLAN 110553Z 17012KT 10SM -RA OVC006 04/03 A2956=
KLAR 110553Z AUTO 29016KT 10SM CLR M05/M09 A2985=
KLBF 110553Z AUTO 31005KT 10SM BKN100 M08/M10 A2972=
KLBL 110555Z AUTO 29012KT 10SM CLR M01/M10 A2987=
KLEX 110554Z 18016KT 10SM FEW120 12/09 A2971=
KLNK 110554Z AUTO 00000KT 4SM BR CLR M04/M06 A2965=
KLOU 110553Z AUTO 16003KT 3SM RA BR FEW026 OVC044 11/10 A2971=
KLOZ 110553Z AUTO 16006KT 10SM BKN024 13/10 A2982=
KLSE 110553Z AUTO 34004KT 5SM BR BKN015 OVC040 M01/M02 A2947=
KMBS 110553Z 17015G21KT 10SM -RA OVC007 04/03 A2954=
KMCI 110553Z 29005KT 9SM OVC008 02/01 A2963=
KMDW 110551Z 20011G19KT 6SM -DZ BR OVC004 05/05 A2951=
KMHK 110552Z AUTO 24004KT 5SM BR SCT100 01/01 A2968=
KMKC 110554Z 26007KT 10SM OVC018 03/01 A2964=
KMKE 110552Z 21011KT 9SM OVC006 03/03 A2947=
KMKG 110555Z AUTO 19013G22KT 5SM RA BR OVC004 04/03 A2951=
KMLI 110552Z AUTO 23005KT 5SM BR OVC004 02/02 A2948=
KMOT 110554Z AUTO 29014KT 10SM OVC006 M03/M05 A2958=
KMSN 110553Z 20003KT 1SM R36/5000V5500FT BR OVC002 02/02 A2945=
KMSP 110553Z 26004KT 1/8SM R30L/2000V2600FT FZFG VV002 M02/M02
     A2948=
KOFF 110558Z 00000KT 2SM R30/1600FT BR CLR M05/M05 A2961=
KOMA 110552Z 00000KT 4SM R14R/4500VP6000FT BR CLR M03/M04
     A2962=
KORD 110551Z 21010KT 7SM -RA OVC006 04/02 A2949=
KOSH 110553Z 21008KT 3SM BR OVC003 02/01 A2942=
KOTM 110553Z AUTO 29008KT 9SM OVC006 01/M01 A2953=
KOWB 110556Z AUTO 15012KT 2 1/2SM TSRA BR FEW001 SCT019 BKN035
     08/08 A2968=

0000162000
117
SAUS73 KWBC 110600 RRC
METAR
KPAH 110553Z AUTO 17011G19KT 5SM RA BR SCT039 OVC060 11/09
     A2963=
KPIA 110554Z AUTO 21008KT 1/2SM R13/5000FT -RA FG VV002 04/03
     A2951=
KPIR 110553Z AUTO 29011KT 10SM CLR M01/M05 A2959=
KPLN 110554Z AUTO 16004KT 6SM -RA BR SCT005 BKN013 OVC021 01/00
     A2949=
KPTK 110553Z AUTO 15006KT 2 1/2SM -RA BR OVC002 03/02 A2960=
KPUB 110553Z AUTO 00000KT 10SM CLR M02/M12 A2988=
KRAP 110552Z AUTO 31014KT 10SM CLR 02/M03 A2968=
KRFD 110554Z 18006KT 1 1/2SM -DZ BR OVC002 02/02 A2949=
KRKS 110554Z AUTO 26023KT 10SM BKN032 M02/M06 A3004=
KRST 110554Z AUTO 29008KT 4SM BR OVC004 M02/M03 A2947=
KSAW 110557Z AUTO 00000KT 1 1/4SM SN OVC006 M01/M02 A2941=
KSBN 110554Z 20014KT 9SM OVC006 05/04 A2957=
KSDF 110556Z 19004KT 4SM -TSRA FEW018 SCT040 OVC050CB 11/10
     A2971=
KSDM 110553Z AUTO 11006KT 6SM HZ CLR 09/04 A3011=
KSGF 110552Z 24004KT 9SM CLR 02/01 A2965=
KSLN 110553Z AUTO 29010KT 10SM FEW095 02/00 A2972=
KSPI 110552Z AUTO 19011KT 9SM OVC004 05/05 A2952=
KSTC 110553Z AUTO 27004KT 2SM BR OVC006 M02/M03 A2946=
KSTJ 110553Z AUTO 27006KT 7SM OVC020 01/00 A2964=
KSTL 110551Z 22006KT 8SM BKN028 BKN100 OVC200 07/06 A2955=
KSTP 110553Z AUTO 00000KT 1 3/4SM BR OVC004 M02/M02 A2949=
KSUS 110554Z AUTO 22011KT 10SM FEW018 SCT025 SCT033 08/06
     A2954=
KSUX 110552Z 31004KT 4SM BR CLR M05/M06 A2960=
KTVC 110553Z 00000KT 8SM -RA OVC015 03/02 A2946=
KUIN 110554Z AUTO 28008KT 4SM BR OVC003 04/03 A2953=
KWRL 110553Z AUTO 19005KT 10SM CLR M09/M12 A2984=
KYIP 110553Z AUTO 16007KT 3SM BR OVC002 04/03 A2963=

0000008400
118
SAAG41 SAME 110600
METAR SAME 110600Z  14004KT CAVOK 25/06 Q1015=

0000167400
119
SAUS74 KWBC 110600
METAR
KACV 110553Z AUTO 11003KT 3SM BR CLR 07/06 A3016=
KALW 110553Z AUTO 17016G23KT 10SM -RA BKN065 OVC080 11/03
     A2988=
KBFI 110553Z 16006KT 10SM -RA OVC035 09/07 A2966=
KBFL 110554Z 06006KT 8SM CLR 09/03 A3022=
KBIL 110553Z 24007KT 200V280 10SM BKN085 03/M06 A2981=
KBKE 110553Z AUTO 19004KT 10SM OVC015 01/00 A3003=
KBLI 110553Z 14021G29KT 7SM -RA OVC025 09/06 A2953=
KBOI 110553Z 17009KT 10SM OVC050 03/00 A3010=
KBTM 110553Z AUTO 25005KT 10SM OVC047 01/M07 A2990=
KBUR 110553Z 31003KT 8SM CLR 14/06 A3010=
KBYI 110553Z AUTO 22007KT 10SM OVC042 03/M02 A3012=
KBZN 110556Z 11004KT 10SM BKN110 02/M07 A2990=
KCDC 110553Z AUTO 15004KT 10SM CLR 01/M04 A3020=
KCEC 110556Z AUTO 16012KT 6SM BR OVC011 11/09 A3012=
KCLM 110553Z AUTO 00000KT 3SM RA BR BKN005 BKN060 OVC080 07/06
     A2949=
KCTB 110556Z AUTO 26018KT 10SM CLR 01/M05 A2969=
KCXL NIL=
KEKO 110556Z AUTO 00000KT 10SM SCT080 01/M03 A3022=
KEUG 110554Z 17013KT 10SM SCT041 BKN060 11/06 A2994=
KFAT 110553Z 00000KT 4SM HZ SCT200 08/04 A3024=
KFLG 110557Z AUTO 24003KT 10SM CLR 00/M07 A3023=
KGCN 110554Z AUTO 05004KT 10SM CLR M07/M10 A3025=
KGEG 110553Z 18012G19KT 10SM FEW020 OVC070 04/01 A2984=
KGGW 110553Z AUTO 32006KT 10SM CLR M07/M08 A2971=
KGTF 110553Z 23012KT 10SM CLR 02/M05 A2976=
KHLN 110553Z AUTO 24006KT 10SM FEW044 04/M05 A2987=
KHQM 110553Z AUTO 16027G37KT 1 3/4SM -SN OVC014 A2965=
KIDA 110553Z AUTO 20015KT 10SM BKN075 BKN085 OVC120 01/M03
     A3008=
KIWA 110555Z AUTO 14006KT 10SM CLR 06/M01 A3015=
KLAS 110556Z 21007KT 10SM SCT250 10/M02 A3014=
KLAX 110553Z 00000KT 9SM CLR 15/12 A3011=

0000168400
120
SAUS74 KWBC 110600 RRA
METAR
KLGB 110553Z 03003KT 2SM HZ FEW015 13/10 A3010=
KLMT 110553Z 00000KT 10SM FEW060 01/M01 A3011=
KLVM 110553Z AUTO 27018KT 10SM SCT100 BKN120 04/M08 A2983=
KMFR 110553Z AUTO 00000KT 4SM BR FEW006 05/04 A3009=
KMLS 110553Z AUTO 32005KT 10SM SCT120 M03/M06 A2971=
KMRY 110554Z AUTO 00000KT 10SM FEW001 08/07 A3022=
KMSO 110553Z 05003KT 10SM BKN055 OVC070 03/M01 A2992=
KMYV 110553Z AUTO 11004KT 8SM CLR 07/04 A3020=
KNTD 110554Z 01005KT 7SM SCT220 13/11 A3009=
KOAK 110553Z 00000KT 10SM FEW200 09/07 A3022=
KOGD 110553Z 14006KT 10SM OVC055 04/M03 A3017=
KOLM 110554Z AUTO 19016G25KT 10SM -RA BKN016 BKN021 OVC041 10/08
     A2967=
KONT 110553Z 00000KT 5SM HZ FEW250 13/06 A3011=
KOTH 110555Z 20008KT 10SM FEW060 13/11 A2997=
KPAE 110553Z AUTO 16015G24KT 10SM -RA OVC037 09/06 A2964=
KPDX 110553Z 13005KT 10SM OVC030 11/05 A2987=
KPHX 110551Z 00000KT 10SM CLR 11/M01 A3013=
KPIH 110553Z AUTO 23019G26KT 10SM OVC036 03/M02 A3012=
KPMD 110553Z AUTO 00000KT 10SM CLR 08/M03 A3018=
KPRB 110553Z AUTO 12005KT 10SM CLR 07/01 A3020=
KPRC 110553Z AUTO 21003KT 10SM CLR 01/M07 A3022=
KPSP 110553Z AUTO 34007KT 10SM CLR 12/M04 A3015=
KRBL 110554Z AUTO 30004KT 10SM CLR 07/02 A3019=
KRDD 110553Z AUTO 33003KT 10SM CLR 06/02 A3018=
KRDM 110556Z AUTO 18014G21KT 10SM SCT080 SCT095 08/M01 A2994=
KRNO 110555Z 00000KT 10SM BKN200 04/M01 A3025=
KRNT 110553Z AUTO 12005KT 10SM -RA OVC040 09/08 A2966=
KSAC 110553Z AUTO 00000KT 9SM CLR 07/05 A3022=
KSAN 110551Z 00000KT 5SM BR CLR 14/10 A3012=
KSBA 110553Z 00000KT 8SM CLR 11/08 A3009=
KSBD NIL=
KSBP 110556Z AUTO 34006KT 10SM CLR 17/03 A3015=

0000096500
121
SAUS74 KWBC 110600 RRB
METAR
KSCK 110555Z AUTO 12003KT 8SM CLR 07/04 A3021=
KSEA 110553Z 14011KT 10SM -RA SCT031 BKN037 OVC050 09/07 A2967=
KSFF 110553Z AUTO 21007KT 10SM FEW034 OVC046 05/01 A2987=
KSFO 110556Z 29006KT 10SM FEW200 09/07 A3022=
KSHR 110553Z AUTO 32020KT 10SM SCT055 OVC070 03/M05 A2978=
KSJC 110553Z 00000KT 10SM CLR 11/07 A3022=
KSLC 110553Z 13007KT 10SM BKN060 OVC090 05/M02 A3018=
KSMF 110553Z 20004KT 10SM FEW300 07/03 A3021=
KSMX 110551Z AUTO 28005KT 10SM CLR 12/06 A3013=
KSNA 110553Z 00000KT 5SM HZ FEW250 13/08 A3010=
KSNS 110553Z AUTO 18003KT 2 1/2SM BR OVC003 10/09 A3021=
KTIW 110553Z AUTO 18016G21KT 10SM SCT060 OVC075 11/08 A2965=
KTUS 110553Z 18006KT 10SM CLR 07/M05 A3017=
KTVL 110553Z AUTO 00000KT 10SM CLR M01/M04 A3029=
KTWF 110553Z AUTO 20004KT 10SM OVC046 05/M02 A3013=
KUKI 110556Z AUTO 00000KT 10SM CLR 06/02 A3021=
KYKM 110553Z 27005KT 10SM FEW100 03/M01 A2980=
KYUM NIL=

0000010300
122
SAID32 WADL 110600
METAR WADL 110600Z 05013KT 4000 TSRA FEW015CB BKN016 25/23 Q1009=

0000169700
123
SAUS75 KWBC 110600
METAR
PABA 110601Z AUTO 28029G35KT 1/4SM +SN FZFG OVC008 M24/M26
     A2979=
PABE 110553Z 03011KT 10SM CLR M14/M15 A2938=
PABI 110553Z 00000KT 10SM OVC018 M20/M22 A2946=
PABR 110553Z 30011KT 10SM BKN007 OVC014 M23/M27 A2980=
PABT 110553Z 00000KT 10SM CLR M36/ A2963=
PACV 110553Z 00000KT 7SM SCT080 M04/M05 A2925=
PACZ 110555Z AUTO 08020G30KT 10SM FEW042 FEW110 M07/M11 A2934=
PADK NIL=
PADL NIL=
PADU 110556Z AUTO 00000KT 10SM SCT026 SCT034 BKN065 03/01
     A2901=
PAEH 110555Z AUTO 13021G31KT 6SM -FZDZ BKN004 00/M01 A2926=
PAEI 110555Z 00000KT 10SM SCT006 M26/M29 A2955=
PAEN 110553Z 00000KT 10SM OVC008 M04/M04 A2935=
PAFA 110553Z 00000KT 10SM FEW002 SCT090 M31/M34 A2956=
PAFB 110555Z 00000KT 7SM FEW150 M32/M35 A2957=
PAGA 110558Z AUTO 00000KT 10SM CLR M33/M36 A2965=
PAGK 110553Z AUTO 33004KT 3SM -SN BR OVC048 M12/M14 A2925=
PAGS 110556Z AUTO 00000KT 10SM SCT044 01/M01 A2928=
PAGY 110553Z AUTO 19006G16KT 10SM OVC060 03/M01 A2927=
PAHO 110553Z 05004KT 10SM -SN OVC016 M01/M03 A2933=
PAHO 110551Z 06004KT 9SM OVC016 M01/M03 A2933=
PAIL 110553Z 36007KT 10SM BKN006 M07/M07 A2940=
PAJN 110553Z 11004KT 10SM FEW016 BKN042 OVC075 01/00 A2930=
PAKN 110554Z 34004KT 10SM FEW004 SCT025 SCT130 M07/M08 A2936=
PAKT 110553Z 29009KT 10SM OVC100 02/M01 A2913=
PALU 110555Z AUTO 08006KT 10SM -SHSN OVC007 M18/M20 A2995=
PAMC 110553Z AUTO 00000KT 10SM CLR M21/M23 A2953=
PANC 110553Z 34004KT 10SM FEW006 BKN015 OVC025 M05/M07 A2934=
PANT 110553Z AUTO 04009G15KT 10SM OVC075 03/M02 A2910=
PAOM 110553Z 03017KT 10SM BLSN FEW032 SCT100 M12/M21 A2959=
PAOR 110553Z 32007KT 2SM -SN OVC022 M17/M19 A2932=

0000012400
124
FTAG31 KWBC 110606
TAF
TAF SAME 110500Z 1106/1206 14005KT 9999 FEW040TCU TN18/1110Z
      TX32/1120Z=

0000032500
125
FTUS51 KWBC 110606 AAA
TAF AMD
KITH 110602Z 1106/1206 16008KT P6SM OVC012
      TEMPO 1106/1110 2SM -DZ BR OVC005
     FM111000 17008KT 2SM -DZ BR OVC005
     FM111500 18010KT 1 1/2SM RA BR OVC003
     FM112000 21005KT 5SM -SHRA BR OVC008
     FM120000 23010KT P6SM -SHRASN OVC012 AMD NOT SKED=

0000127300
126
SPUS70 KWBC 110606
SPECI
KCEU 110602Z AUTO 00000KT 1 3/4SM -RA BR FEW005 OVC009 09/07 A3003
     RMK AO2 VIS 3/4V4 LTG DSNT SE P0000=
KCLM 110602Z AUTO 14003KT 3SM RA BR SCT005 BKN060 OVC075 06/06
     A2948 RMK AO2 PRESFR P0004 T00610056=
KEYE 110602Z AUTO 17005KT 1/2SM -RA FG VV002 06/06 A2960 RMK AO2
     P0000 T00610056=
KFIG 110602Z AUTO 04004KT 1 3/4SM BR OVC003 01/01 A2996 RMK AO2
     T00060006=
KPQL 110602Z AUTO 18008G17KT 1SM BR VV002 19/19 A2993 RMK AO2
     T01940194 TSNO=
K2DP 110602Z AUTO 16016G23KT 9SM -RA BKN014 BKN060 17/16 A3013 RMK
     AO2 CIG 014V023=
KAEX 110603Z 25009KT 10SM BKN015 BKN021 OVC070 19/18 A2980 RMK AO2
     LTG DSNT SE $=
KBUY 110603Z AUTO 00000KT 1 1/2SM BR OVC003 04/03 A3006 RMK AO2
     RAE02 P0000 T00390033=
KCSG 110603Z AUTO 00000KT 1/4SM -RA FG VV002 12/12 A2997 RMK AO2
     LTG DSNT SW-N RAB0557 P0000=
KECG 110603Z AUTO 15009KT 2 1/2SM +RA BR FEW015 BKN024 OVC065
     17/16 A3011 RMK AO2 RAB0557 P0010 T01670156 TSNO=
KGSH 110603Z AUTO 19014KT 9SM BKN006 OVC013 06/05 A2957 RMK
     AO2=
KNEW 110603Z AUTO 18013KT 3/4SM BR VV002 19/18 A2990 RMK AO2
     T01890183 TSNO=
KSNS 110603Z AUTO 19003KT 1 3/4SM BR OVC003 10/09 A3021 RMK AO2
     TSNO $=

0000117900
127
SAAK31 KWBC 110600
METAR
PABR 110553Z 30011KT 10SM BKN007 OVC014 M23/M27 A2980=
PACD 110553Z AUTO 14023G29KT 10SM -RA FEW016 BKN042 OVC050 03/01
     A2912=
PAED NIL=
PAEI 110555Z 00000KT 10SM SCT006 M26/M29 A2955=
PAEN 110553Z 00000KT 10SM OVC008 M04/M04 A2935=
PAFA 110553Z 00000KT 10SM FEW002 SCT090 M31/M34 A2956=
PAFR NIL=
PAFS 110556Z AUTO 00000KT 6SM HZ CLR M22/M25 A2951=
PAFY NIL=
PAJN 110553Z 11004KT 10SM FEW016 BKN042 OVC075 01/00 A2930=
PAKN 110554Z 34004KT 10SM FEW004 SCT025 SCT130 M07/M08 A2936=
PAKT 110553Z 29009KT 10SM OVC100 02/M01 A2913=
PANC 110553Z 34004KT 10SM FEW006 BKN015 OVC025 M05/M07 A2934=
PAOM 110553Z 03017KT 10SM BLSN FEW032 SCT100 M12/M21 A2959=
PAOR 110553Z 32007KT 2SM -SN OVC022 M17/M19 A2932=
PAOT 110553Z 01003KT 10SM CLR M20/M25 A2974=
PARY 110556Z AUTO 00000KT 10SM CLR M25/M28 A2956=
PASC 110553Z 24020KT 1/2SM R05/4000V5500FT -SN BR OVC010 M27/M30
     A2981=
PASG NIL=
PASI 110553Z 00000KT 10SM CLR 00/M01 A2925=
PATQ 110556Z AUTO 31005KT 1/4SM HZ OVC006 M23/M27 A2984=
PAVD 110556Z 10SM BKN120 M08/M09 A2928=
PAWG 110556Z 00000KT 10SM CLR 01/M02 A2923=
PFYU NIL=

0000004200
128
SABO41 KWBC 110600
NIL=

0000054200
129
SABZ41 KWBC 110600
METAR
SBAA NIL=
SBAF NIL=
SBAR 110600Z 12009KT 9999 SCT015 26/21 Q1012=
SBBG NIL=
SBBH NIL=
SBBI NIL=
SBBU NIL=
SBCJ NIL=
SBCO NIL=
SBCR NIL=
SBCT 110600Z 26006KT 9999 TS FEW010 FEW030CB SCT050 19/18
     Q1017=
SBCV NIL=
SBCY 110600Z 32003KT 9999 FEW020 SCT100 23/21 Q1010=
SBCZ NIL=
SBDN NIL=
SBFL 110600Z 09007KT 9999 -TSRA BKN030 FEW040CB 22/21 Q1012=
SBFN NIL=
SBGO 110600Z 35004KT 9999 FEW045 SCT100 19/18 Q1016=
SBGW NIL=
SBHT NIL=
SBIH NIL=
SBIL NIL=

0000085000
130
SAAK32 KWBC 110600
METAR
PABA 110601Z AUTO 28029G35KT 1/4SM +SN FZFG OVC008 M24/M26
     A2979=
PABI 110553Z 00000KT 10SM OVC018 M20/M22 A2946=
PACZ 110555Z AUTO 08020G30KT 10SM FEW042 FEW110 M07/M11 A2934=
PADK NIL=
PADL NIL=
PADQ 110553Z 25005KT 10SM FEW040 SCT250 M04/M07 A2938=
PAEH 110555Z AUTO 13021G31KT 6SM -FZDZ BKN004 00/M01 A2926=
PAFB 110555Z 00000KT 7SM FEW150 M32/M35 A2957=
PAGA 110558Z AUTO 00000KT 10SM CLR M33/M36 A2965=
PAIM 110555Z AUTO VRB02KT 10SM CLR M23/M26 A2954=
PALU 110555Z AUTO 08006KT 10SM -SHSN OVC007 M18/M20 A2995=
PASV 110555Z AUTO 18001KT 3/4SM BR VV004 M13/M13 A2932=
PASY 110556Z AUTO 34020KT 9SM BKN013 BKN020 OVC027 00/M01
     A2889=
PATC 110555Z AUTO 02029G32KT 3/4SM BR VV002 M18/M19 A2969=
PATL 110555Z AUTO 11005KT 10SM FEW240 M18/M20 A2948=
PBTI NIL=

0000085000
131
SABZ42 KWBC 110600
METAR
SBJR NIL=
SBLO 110600Z 20001KT CAVOK 24/20 Q1014=
SBMA 110600Z 30001KT 9999 -RA NSC 22/22 Q1011=
SBME NIL=
SBMN 110600Z 06005KT 9999 SCT010 SCT100 22/21 Q1011=
SBMO 110600Z 33003KT 9999 FEW020 21/21 Q1013=
SBMQ 110600Z 33002KT 9999 FEW013 BKN080 24/23 Q1010=
SBMT NIL=
SBPC NIL=
SBPK 110600Z 00000KT CAVOK 20/19 Q1008=
SBPP NIL=
SBPV 110600Z 06008KT 5000 -RA SCT006 BKN012 FEW025TCU BKN070 23
     /22 Q1010 RETS=
SBRB 110600Z 09005KT 9999 FEW020 FEW025TCU SCT100 ///// Q1010 R
     ETS=
SBRJ NIL=
SBSC NIL=
SBSJ 110600Z 00000KT CAVOK 21/18 Q1015=
SBSM NIL=
SBSP 110600Z 03003KT CAVOK 23/13 Q1016=
SBST NIL=
SBTE 110600Z 31002KT 9999 SCT030 BKN070 24/23 Q1010=
SBTU NIL=
SBUG NIL=
SBUR NIL=
SBVH NIL=
SBVT 110600Z 31002KT CAVOK 24/22 Q1014=
SBYS NIL=

0000048700
132
SABZ43 KWBC 110600
METAR
SBAN NIL=
SBAT NIL=
SBBA NIL=
SBBQ NIL=
SBBW NIL=
SBCC NIL=
SBER NIL=
SBES NIL=
SBGA NIL=
SBIZ NIL=
SBJF NIL=
SBJP 110600Z 20004KT CAVOK 22/20 Q1012=
SBKG NIL=
SBLB NIL=
SBLP NIL=
SBMK NIL=
SBMS NIL=
SBMZ NIL=
SBPB NIL=
SBPJ NIL=
SBPL 110600Z 12006KT 9999 SCT020 25/20 Q1013=
SBPN NIL=
SBQV NIL=
SBRP 110600Z 20003KT CAVOK 20/19 Q1014=
SBTF NIL=
SBTK NIL=
SBUF NIL=
SBUI NIL=
SBUL NIL=

0000054400
133
SACA31 KWBC 110600
METAR
MBJT NIL=
MBPV NIL=
MBSC NIL=
MKJP 110600Z 36003KT 9999 FEW024 25/21 Q1015=
MKJS 110600Z 15008KT 9999 FEW024 25/18 Q1015=
MUCM 110550Z 08007KT 9000 FEW025 20/18 Q1019=
MUCU 110551Z 34005KT 9000 FEW020 21/18 Q1017=
MUHA 110555Z 00000KT 8000 SKC 18/17 Q1018=
MUVR 110550Z 08005KT 8000 FEW020 23/21 Q1019=
MWCB NIL=
MWCR NIL=
MYAM NIL=
MYAT NIL=
MYBS NIL=
MYEC NIL=
MYEG NIL=
MYEH NIL=
MYEM NIL=
MYGF NIL=
MYGW NIL=
MYNN 110600Z 12005KT 9999 FEW018 24/22 A3013=

0000072300
134
SACA32 KWBC 110600
METAR
MDLR NIL=
MDPC 110600Z 10010KT 9999 FEW018 25/20 Q1018=
MDPP 110600Z 09005KT 9999 FEW016 SCT070 23/22 Q1018=
MDSD 110600Z 02004KT 9999 FEW018 21/19 Q1018=
MDST 110600Z 00000KT 9999 BKN015 21/21 Q1019 RERA=
MTCH NIL=
MTPP NIL=
TAPA NIL=
TIST NIL=
TISX NIL=
TJBQ NIL=
TJMZ NIL=
TJNR 110553Z AUTO 09007G18KT 9SM FEW026 SCT042 BKN055 25/22 A3009
     RMK AO2 RAE05 SLP189 P0000 60000 T02500217 10261 20239 58014
     TSNO=
TJPS 110550Z 06005KT 10SM SKC 21/16 A3007=
TJSJ 110556Z 12003KT 10SM FEW036 SCT070 SCT090 24/21 A3007 RMK AO2
     SLP182 T02440211 10261 20244 58015 $=
TKPK NIL=
TKPN NIL=
TQPF NIL=
TRPM NIL=
TUPJ NIL=
TUPW NIL=

00000000