0000070900
255
SANO31 ENMI 110720
METAR ENAN 110720Z 11013KT 9999 FEW045 M06/M13 Q1016=
METAR ENBR 110720Z 26004KT 210V300 9999 -SHRA FEW008 SCT014 BKN020
           05/04 Q0997 TEMPO 4000 SHRA BKN012CB RMK WIND 1200FT
           26016KT=
METAR ENBO 110720Z 11016KT CAVOK M08/M20 Q1012=
METAR ENDU 110720Z VRB01KT 9999 FEW040 M26/M28 Q1018 NOSIG=
METAR ENGM 110720Z 03008KT 5000 -SN BR FEW008 BKN010 M06/M07 Q0998
           NOSIG=
METAR ENOL 110720Z 10022KT 9999 FEW010 SCT080 M08/M13 Q1002 NOSIG=
METAR ENVA 110720Z 09007KT CAVOK M13/M17 Q1004 NOSIG RMK WIND 670FT
           12008KT=
METAR ENZV 110720Z 26012KT 9999 FEW020 SCT030 06/03 Q1000 TEMPO 4000
           SHRA BKN012CB=

0000025200
256
SABU31 LBSM 110730
METAR LBSF 110730Z 05002MPS 1000 0200W R27/1900D FZFG FEW001 SCT002
    M01/M01 Q1025 TEMPO 0600 FZFG=
METAR LBWN 110730Z VRB01MPS CAVOK 05/01 Q1023 NOSIG=
METAR LBBG 110730Z VRB02MPS CAVOK 03/02 Q1024 NOSIG=

0000010100
257
SANC01 NWWW 110730
METAR NWWW 110730Z AUTO 13016KT 9999 BKN058 BKN082 26/17 Q1010=

0000009900
258
SAMF20 TFFR 110730
METAR TFFR 110730Z AUTO 27004KT 250V310 9999 NSC 21/20 Q1016=

0000009500
259
SAHU31 LHBM 110730
METAR LHBP 110730Z VRB02KT 9999 BKN041 02/02 Q1022 NOSIG=

0000026500
260
FTFR37 LFPW 110500 AAC
TAF AMD LFOB 110731Z 1107/1206 VRB02KT 0800 FG OVC002 TEMPO 1107/1109
 0200 FG VV/// BECMG 1109/1112 24010KT 6000 NSW BKN012 BECMG
1112/1115 32005KT SCT016 BECMG 1116/1119 4000 BR PROB40 TEMPO
1121/1206 0200 FG VV///=

0000194700
261
SPUS70 KWBC 110732
SPECI
KNFE 110728Z AUTO 16006KT 3SM +RA BR FEW005 BKN014 OVC024 18/16
     A3007 RMK AO2 P0016 T01780156=
KAOH 110728Z AUTO 17014KT 7SM -RA SCT009 BKN014 OVC080 08/ A2959
     RMK AO2 PNO $=
KAOO 110728Z AUTO 00000KT 1/2SM FG OVC002 02/02 A2995 RMK AO2
     T00220022=
KARB 110728Z AUTO 21006KT 1/2SM FG VV002 04/04 A2957 RMK AO2 RAE24
     P0001=
KBVY 110728Z AUTO 00000KT 1/4SM UP FG VV005 02/01 A3021 RMK AO2
     RAB03E24UPB24 P0000 T00170011=
KFCM 110728Z AUTO 29005KT 4SM BR OVC006 M01/M02 A2946 RMK AO2=
KFFC 110728Z AUTO 14006KT 6SM VCTS -RA BR BKN003 OVC008 12/12
     A2992 RMK AO2 LTG DSNT ALQDS CIG 002V008 P0001 T01170117=
KFIT 110728Z AUTO 00000KT 1SM -RA BR OVC003 01/00 A3020 RMK AO2
     P0001 T00110000=
KLWV 110728Z AUTO 14004KT 1/4SM FG BKN003 OVC008 06/ A2958 RMK AO2
     RAE26 P0001 T0061 $=
KMFR 110728Z AUTO 00000KT 3SM BR OVC003 04/04 A3005 RMK AO2
     T00440039=
KSFB 110728Z AUTO 15003KT 1 3/4SM BR FEW011 BKN070 19/19 A3007 RMK
     AO2=
KSMQ 110728Z AUTO 30003KT 1/2SM FG BKN005 OVC040 01/01 A3009 RMK
     AO2 RAE07 P0001 T00110006 TSNO=
KAGS 110729Z AUTO 00000KT 1/4SM FG VV002 10/10 A2998 RMK AO2
     RVRNO=
KASE 110729Z 16004KT 2SM -SN BR OVC021 M04/M06 A3014 RMK AO2 P0000
     T10441056=
KHVN 110729Z AUTO 00000KT 1/2SM R02/2000V2200FT FG VV002 02/02
     A3017 RMK AO2=
KIAD 110729Z 23005KT 3/4SM R01R/3500V5500FT +RA BR BKN004 OVC007
     01/01 A3004 RMK AO2 RAB12 P0006=
KMEI 110729Z AUTO 19020G25KT 7SM TSRA BKN008 OVC013 18/17 A2980
     RMK AO2 LTG DSNT S AND SW TSB23RAB08 CIG 004V012 P0001=
KMTW 110729Z AUTO 17006KT 1 1/2SM BR OVC004 02/01 A2941 RMK AO2
     FZRANO=
KSTL 110729Z 26013KT 9SM BKN013 OVC026 08/06 A2955 RMK AO2=
KUIN 110729Z AUTO 28011G19KT 3SM BR OVC002 03/02 A2953 RMK AO2
     T00280017=
KYIP 110729Z AUTO 18009KT 4SM BR OVC002 06/04 A2957 RMK AO2 P0001
     TSNO=

0000010200
262
SPUS41 KWBC 110732
SPECI
KBVY 110728Z AUTO 00000KT 1/4SM UP FG VV005 02/01 A3021=

0000011300
263
SPUS41 KWBC 110732
SPECI
KCEF 110729Z AUTO 02002KT 1 1/4SM R23/5000FT BR OVC003 00/00 A3016=

0000010200
264
SPUS42 KWBC 110732
SPECI
KCRP 110728Z 24004KT 1/2SM FG FEW005 BKN250 14/13 A2990=

0000013800
265
SAJP45 KWBC 110700 RRA
METAR
RJTY 110658Z COR 00000KT 10SM CLR 07/M08 A3023 RMK A02 SLP246
     T00681079 COR 0725=

0000012100
266
SASA31 KWBC 110700 RRB
METAR
SOCA 110730Z AUTO 00000KT 9999 BKN003 BKN025 OVC100 22/21
     Q1011=

0000012900
267
FCLT33 EYVI 110800
TAF EYPA 110800Z 1109/1118 25010KT 9000 BKN015 TEMPO
1109/1114 5000 SHRA SCT010 BKN013CB=

0000009900
268
SAAF08 LFPW 110700 RRB
METAR DFFD 110700Z 05004KT 4000 DU NSC 20/03 Q1016 NOSIG=

0000012900
269
SPLT31 EYVI 110732
SPECI EYVI 110732Z 28009KT 2600 SNRA BR BKN005 OVC010 00/M01 Q1005
     R20/2/0195 NOSIG=

0000027200
270
SACZ31 LKPW 110730
METAR LKKV 110730Z 09003KT 4200 BR BCFG SCT002 BKN005 M02/M03 Q1016=
METAR LKMT 110730Z 23010KT CAVOK 01/M01 Q1019 NOSIG=
METAR LKPR 110730Z 21009KT CAVOK 01/M00 Q1017 NOSIG=
METAR LKTB 110730Z VRB02KT CAVOK M00/M02 Q1020 NOSIG=

0000055800
271
SAYG31 LYBM 110730
METAR LYBE 110730Z 16011KT CAVOK 07/M00 Q1023 NOSIG=
METAR LYBT 110730Z 13007KT 3000 BR NSC 03/03 Q1023 BECMG 6000 NSW=
METAR LYKV 110730Z VRB02KT 9999 BKN060 04/03 Q1024 NOSIG=
METAR LYNI 110730Z 19002KT 8000 SCT040 01/01 Q1025 NOSIG=
METAR LYPG 110730Z 22003KT 190V250 9999 BKN040 BKN090 08/07 Q1024
NOSIG=
METAR LYPR 110730Z NIL=
METAR LYTV 110730Z VRB01KT 9999 BKN060 10/09 Q1023 NOSIG=
METAR LYUZ 110730Z 24004KT 200V290 9999 BKN020 05/03 Q1023=
METAR LYVR 110730Z VRB01KT CAVOK 04/01 Q1023 NOSIG=

0000010400
272
SAIL31 BICC 110730
METAR BIKF 110730Z 24015KT 9999 FEW039 SCT050 BKN130 01/M01 Q0998=

0000023800
273
FTUS44 KWBC 110733 AAA
TAF AMD
KBFI 110732Z 1108/1206 16010KT P6SM -RA BKN025 OVC035
     FM110900 18018G28KT 4SM RA BR OVC019
     FM111300 17018G32KT P6SM -RA OVC025
     FM112000 18022G36KT P6SM -SHRA OVC019=

0000023800
274
FTUS74 KWBC 110733 AAA
TAF AMD
KBFI 110732Z 1108/1206 16010KT P6SM -RA BKN025 OVC035
     FM110900 18018G28KT 4SM RA BR OVC019
     FM111300 17018G32KT P6SM -RA OVC025
     FM112000 18022G36KT P6SM -SHRA OVC019=

00000000