0000024100
935
SABC40 FBSK 110800
METAR FBSK 110800Z 06012KT 030V090 CAVOK 30/14 Q1017 NOSIG=
METAR FBFT 110800Z /////KT CAVOK 28/20 Q1017=
METAR FBKE 110800Z 34004KT CAVOK 24/19 Q1018=
METAR FBSP 110800Z 00000KT CAVOK 29/22 Q1018=

0000034000
936
SACZ43 LKPW 110800
METAR LKCV 110800Z VRB02KT CAVOK 03/01 Q1018 NOSIG=
METAR LKKB 110800Z 21008KT CAVOK 01/00 Q1017 NOSIG=
METAR LKLN 110800Z NIL=
METAR LKNA 110800Z 26005KT 9999 FEW010 BKN230 01/M01 Q1018
           NOSIG=
METAR LKPD 110800Z 10003KT 090V150 9999 FEW030 SCT200 M00/M02
           Q1018 NOSIG=

0000011300
937
SACN62 CYBK 110800
METAR CYBK 110800Z 16010KT 15SM -SN BKN025 M29/M32 A2967 RMK SC5
 SLP051=

0000012200
938
SACN62 CYDF 110800
METAR CYDF 110800Z 22008G16KT 15SM FEW023 OVC045 M04/M08 A3010 RMK
 SC2SC6 SLP195=

0000062600
939
KSMI06 SBBR 111200 RRC
CREX++
T000113 A000 D07080++
 83 612 CAMPO GRANDE         1 2014 01 11 12 00 -2046667 -05466667 05670 00015 09508 ///// 0025 02 //// 08500 01550 00150 2670 1870 /// ///// 2000 ///// ///// ///// 038 08 01 0250 30 23 11 0000 0000  07 /// 08 /// 09 /// // ///// ///// // ///// ///// // ///// //// 508 -0006 10 10  -0024 //// -0001 //// /////  -0001 00000 //// ///// 00150 -0012 0000 //// -0012 0000 2160 ///// 03 02 -0010 330 0046 //  -0010 /// //// //// /// //// ///// -0024 // ////  -0001 //// //// ///// ///// ///// ///// -0024 //// //// ///// ///// ///// ///// //// 0000 //++
7777
0000064100
940
KSMI06 SBBR 111200 RRC
CREX++
T000113 A000 D07086++
 83 612 CAMPO GRANDE         1 2014 01 11 12 00 -2046667 -05466667 05670 00015 09508 ///// 0025 02 //// 08500 01550 00150 2670 1870 /// ///// 2000 ///// ///// ///// 038 08 01 0250 30 23 11 0000 0000 // // ///// //// ////// / /// /// ////// /// /// /////// // /// // /// /// ////////// /// /// 508 -0006 10 10  -0024 //// -0001 //// /////  -0001 00000 //// ///// 00150 -0012 0000 //// -0012 0000 2160 ///// 03 02 -0010 330 0046 //  -0010 /// //// //// /// //// ///// -0024 // ////  -0001 //// //// ///// ///// ///// ///// -0024 //// //// ///// ///// ///// /////++
7777
0000046200
941
SNVD15 KWNB 111700 RRL
BBXX
44064 11171 99370 70760 46/// /2108 1//// 40079 91710 333 91210
555 11089 22097=
44062 11171 99386 70764 46/// /1708 10057 40051 91710 333 91209
555 11087 22094=
44063 11171 99390 70764 46/// /1805 10064 40021 91710 333 91206
555 11058 22063=
44041 11171 99372 70768 46/// /2207 10173 91710 333 91209 555
11076 22083=
44042 11171 99380 70763 46/// /1605 10093 40051 91710 333 91206
555 11055 22060=
0000015800
942
SNVD19 KWNB 111700 RRC
BBXX
46126 11171 99540 71666 46/// /2308 10041 49798 56007 91700 22200
00048 1//00 70002 333 91213 555 11089 22097=
0000018000
943
SNVD01 PANC 111700 RRC
BBXX
9HJB9 11170 99227 70721
41697 51022 10250 20207 40220 54/// 7//11 832//
22274 00262 20905 3//// 40506 50706 6//// 80220 ICE /////=
0000021300
944
SNVD20 KWNB 111700 RRN
BBXX
44059 11171 99368 70763 46/// /2207 10204 40072 91710 333 91210
555 11076 22083=
44058 11171 99376 70763 46/// /1706 10089 40068 91710 333 91206
555 11066 22072=
0000022100
945
SNVD01 KWBC 111600 RRN
BBXX
41051 11161 99183 70650 46/// /0909 10265 91630 333 91211 555
 11100 22109=
41051 11161 99183 70650 46/// /1009 10266 91600 22200 10403 70013
 333 91211 555 11102 22110=
0000014400
946
SNVA01 KWBC 111700 RRA
BBXX
LGWS 11171 99229 30145 43/// /2306 10188 20149 40124 5//// 222/0
 04166 1//// 3//// 4//// 5////=
0000010200
947
SNVF01 KWBC 111600 RRI
BBXX
MINUK05 1116/ 99602 70009 46/// ///// 10065 40032 52010=
0000017900
948
SNVC01 KWBC 111700 RRA
BBXX
C6TZ9 11174 99275 50479 41/// /3519 10270 20228 40140 54/// 7////
 8//// 222// 0//// 2//// 3//// 4//// 5//// 6//// 80240 ICE /////=
0000370900
949
SNVD01 KWBC 111700 RRG
BBXX
42085 11171 99179 70665 46/// /0808 10254 40181 91640 333 91210
 555 11089 22097=
42085 11171 99179 70665 46/// /0808 10256 40179 91650 333 91210
 555 11088 22096=
41056 11171 99183 70655 46/// /0807 10263 40178 91650 333 91209
 555 11077 22084=
41056 11171 99183 70655 46/// /0907 10263 40181 91640 333 91209
 555 11076 22082=
41300 11174 99159 70575 46/// /0713 10254 20214 40158 57022 22200
 00262 10805 70025=
46126 11171 99540 71666 46/// /2306 10041 49799 91650 22200 00048
 1//00 70002 333 91208 555 11061 22066=
41052 11171 99183 70648 46/// /0908 10265 40177 91650 333 91211
 555 11090 22098=
46126 11171 99540 71666 46/// /2505 10041 49799 91654 22200 00048
 1//00 70002 333 91208 555 11058 22063=
42085 11171 99179 70665 46/// /0809 10255 40178 91700 22200 00266
 10603 70014 333 91211 555 11098 22107=
46126 11171 99540 71666 46/// /2306 10041 49799 91648 22200 00048
 1//00 70002 333 91208 555 11061 22066=
41052 11171 99183 70648 46/// /0908 10265 40179 91640 333 91210
 555 11092 22099=
41056 11171 99183 70655 46/// /0807 10262 40177 58022 91700 22200
 00266 10803 70015 333 91209 555 11075 22081=
41052 11171 99183 70648 46/// /0908 10262 40175 58021 91700 22200
 00267 10603 70015 333 91211 555 11087 22095=
44150 11171 99425 70640 46/// /1909 1//// 40214 57047 22200 00040
 10503 70015 333 91210=
44139 11171 99442 70571 46/// /2207 10025 40262 57023 22200 00015
 10803 70015 333 91208=
44040 11171 99410 70736 46/// /1812 10123 20123 91645 22200 10301
 70007 333 91215 555 11139 22160=
41051 11171 99183 70650 46/// /1009 10265 91650 333 91210 555
 11098 22107=
41051 11171 99183 70650 46/// /0909 10265 91640 333 91211 555
 11100 22109=
41051 11171 99183 70650 46/// /1009 10264 91700 22200 10403 70013
 333 91210 555 11097 22106=
9HJB9 11170 99227 70721 41697 51022 10250 20207 40220 54/// 7//11
 832// 22274 00262 20905 3//// 40506 50706 6//// 80220 ICE /////=
44022 11171 99409 70737 46/// /1811 10123 20120 91700 333 91216
 555 11124 22144=
44039 11171 99411 70727 46/// /1912 10107 20104 91645 333 91218
 555 11144 22165=
44060 11171 99413 70721 46/// /1911 10098 20094 40098 91645 22200
 00044 333 91214 555 11129 22144=
46089 11171 99459 71258 46/// /2111 10105 49968 56027 91650 22200
 00091 11111 20607 323// 41109 70057 333 91214 555 11119 22129
 31621 42417 61649 212109 213109 220121 212113 205109 205103=
46053 11171 99343 71199 46/// /2602 10137 40220 53014 91650 22200
 00147 11403 326// 41403 70015 333 91203 555 11015 22016 31550
 42803 61649 255015 270014 282019 289024 288021 283024=
46077 11171 99579 71543 46/// /0503 10014 49858 58033 91650 22200
 00042 11101 3//// 41101 70006 333 91204 555 11034 22035 31637
 40504 61649 050033 045033 049027 050027 051019 058013 80404
 91640=
46076 11171 99595 71480 46/// /2606 10023 49858 57016 91650 22200
 00062 11003 20402 3//// 41003 70016 333 91208 555 11065 22067
 31610 42508 61649 257063 257064 255064 261063 246068 247068 82407
 91553=
44059 11171 99368 70763 46/// /2207 10202 40076 91700 22200 00083
 333 91211 555 11077 22084=
44058 11171 99376 70763 46/// /1706 10091 40071 91700 22200 00045
 10301 70004 333 91207 555 11065 22070=
C6FR5 11173 99171 70626 41797 20924 10230 2//// 40170 54/// 7//11
 8216/ 22200 00270 20301 306// 40402 5//// 6//// 8//// ICE 0/0//=
WSQ2674 11174 99327 71172 43/// /0405 10149 2//// 40214 5////
 7//// 8//// 222// 04150 2//// 3//// 4//// 5//// 6//// 8//// ICE
 /////=
WECB 11174 99327 71172 43/// /0303 10157 20109 40221 5//// 7////
 8//// 222// 04148 2//// 3//// 4//// 5//// 6//// 8//// ICE /////=
0000103500
950
SNVD01 KWBC 111700 RRH
BBXX
44042 11171 99380 70763 46/// /1605 10095 40057 57040 91700 22200
 00041 10301 70004 333 91206 555 11057 22062=
44041 11171 99372 70768 46/// /2208 10177 91700 22200 00047 1//00
 70002 333 91212 555 11088 22095=
42060 11171 99163 70632 46/// /0710 10263 40170 58020 91650 22200
 00267 10604 20603 307// 41001 70018 333 91211 555 11101 22108
 31606 40811 61649 070094 068093 071096 077093 072093 070090 80710
 91622=
41046 11171 99238 70683 46/// /1009 10258 20185 40224 58014 91650
 22200 00260 10906 20705 3//// 40903 70028 333 91211 555 11098
 22105 31612 41012 61649 100092 099094 099095 100101 096091 097096
 81011 91621=
44064 11171 99370 70760 46/// /2108 1//// 40084 58035 91700 22200
 00080 10301 70006 333 91211 555 11087 22094=
44063 11171 99390 70764 46/// /1804 10070 40034 57050 91700 22200
 00015 10301 70005 333 91206 555 11047 22051=
44062 11171 99386 70764 46/// /1707 10058 40053 91700 22200 00030
 10301 70005 333 91208 555 11086 22093=
0000017300
951
SNVD80 KWBC 111700 RRA
BBXX
WYP8657 11174 99459 70854 43/// /3110 10001 49920 2227/ 00001=
WUR8857 11174 99430 70879 43/// /2918 10008 49988 2221/ 00010=
0000017800
952
SNVD11 KWBC 111700 RRA
BBXX
KAQP 11174 99098 71043 43/// /0714 10267 20222 40121 5//// 7////
 8//// 222// 04270 2//// 3//// 4//// 5//// 6//// 8//// ICE /////=
0000017800
953
SNVE01 KWBC 111700 RRA
BBXX
KAOU 11174 99047 31070 43/// /3311 10268 20235 40118 5//// 7////
 8//// 222// 04300 2//// 3//// 4//// 5//// 6//// 8//// ICE /////=
0000078200
954
SNVF01 KWBC 111700 RRB
BBXX
MINUK01 1117/ 99571 70021 46/// ///// 10055 40144 52021=
D5CT8 11170 99318 10315 41/// ///// 10181 20094 40252 52002 7////
 8//// 22263 04200 2////=
62023 11173 99514 70079 46/97 /1618 10086 2//// 4//// 5//// 22200
 10704 70022 555 70041 80002=
BATUK01 11174 99576 70061 43/// /2715 10059 20002 40146 51016
 22271 04094=
LMEL 11171 99603 10053 43/// /3302 10013 21024 40017 5//// 222/0
 04077 1//// 3//// 4//// 5////=
LF4H 11174 99596 10022 46/// /3230 10051 20013 40035 52019 8////
 91702 22200 06077 10607 70036=
LJIT 11171 99590 10055 43/// /3406 10051 20007 40025 5//// 222/0
 04060 1//// 3//// 4//// 5////=
LDGJ 11171 99603 10053 43/// /3102 10018 21030 40018 5//// 222/0
 04075 1//// 3//// 4//// 5////=
00000000