0000008300
635
SABZ24 SBPA 110800
METAR SBPA 110800Z 07002KT CAVOK 20/20 Q1010=

0000052900
636
SAUK31 EGGY 110750
METAR EGBB 110750Z 27006KT CAVOK 03/02 Q1015=
METAR EGCC 110750Z 22007KT 9999 7000NW VCSH FEW014 BKN018TCU
    04/03 Q1014=
METAR EGKK 110750Z 29010KT 9999 FEW013 06/05 Q1015=
METAR EGLL 110750Z 30009KT 9999 SCT018 07/05 Q1016=
METAR EGPF 110750Z 28012KT 9999 -RA FEW029CB SCT041 03/00 Q1012=
METAR EGPH 110750Z 25008KT 9999 FEW010 02/00 Q1011=
METAR EGPK 110750Z 26015KT 240V300 9999 -RA FEW014 FEW016CB 05/02
    Q1013=
METAR EGSS 110750Z 28009KT 9999 SCT013 06/03 Q1014=

0000039500
637
SAGL31 BGSF 110750
METAR BGSF 110750Z AUTO 06006KT 9999NDV  FEW140/// BKN180/// 
M17/M22 Q0996=
METAR BGBW 110750Z 07005KT 9999 FEW180 M12/M19 Q0996 RMK 2CS 
=
METAR BGGH 110750Z AUTO 08012KT 9999NDV  NCD M09/M16 Q0993=
METAR BGJN 110750Z AUTO 10004KT 9999NDV  FEW130/// BKN150/// 
M10/M19 Q0994=
METAR BGKK 110750Z AUTO 10010KT 9999NDV  BKN060/// M03/M07 Q0996=

0000010500
638
SADN32 EKCH 110750 RRA
METAR EKVD 110750Z 25013KT 9000 SHRA SCT007 OVC010 07/06 Q1006=

0000047600
639
SAUK32 EGGY 110750
METAR EGAA 110750Z 25007KT 9999 BKN011 01/01 Q1015=
METAR EGAC 110750Z 24007KT 9999 FEW007 SCT011 02/00 Q1015=
METAR EGFF 110750Z 30008KT 8000 FEW030 03/03 Q1017=
METAR EGGW 110750Z 28012KT 9999 FEW009 SCT012 05/04 Q1014=
METAR EGLC 110750Z 29012KT 9999 SCT022 08/04 Q1015=
METAR EGNM 110750Z 27006KT 9999 FEW020 02/02 Q1012=
METAR EGNX 110750Z 26012KT CAVOK 03/02 Q1014=
METAR EGPD 110750Z 28007KT CAVOK 02/M02 Q1007 NOSIG=

0000038700
640
SAUK33 EGGY 110750
METAR EGGD 110750Z 26007KT 9999 FEW012 03/02 Q1017=
METAR EGGP 110750Z 23009KT 9999 6000NW -SHRA FEW020 05/03 Q1015=
METAR EGHI 110750Z NIL=
METAR EGNS 110750Z NIL=
METAR EGNT 110750Z 26010KT 9999 FEW030 02/02 Q1011=
METAR EGNV 110750Z 25008KT 9999 FEW035 04/00 Q1012=
METAR COR EGPB 110750Z 26022KT 9999 FEW013 SCT020 05/03 Q1001 NOSIG=

0000037000
641
SAUK34 EGGY 110750
METAR EGHE 110750Z NIL=
METAR EGHK 110750Z NIL=
METAR EGHQ 110750Z 33007KT 9999 SCT027 06/03 Q1018=
METAR EGJA 110750Z 33012KT 9999 FEW022 07/04 Q1018=
METAR EGJB 110750Z 33010KT 9999 FEW020 07/04 Q1018=
METAR EGJJ 110750Z 34006KT 9999 FEW018 BKN035 08/07 Q1018 NOSIG=
METAR EGTE 110750Z 03003KT 9999 FEW025 02/02 Q1018=

0000034100
642
SAUK35 EGGY 110750
METAR EGHH 110750Z 30008KT CAVOK 05/03 Q1017=
METAR EGKA 110750Z NIL=
METAR EGKB 110750Z NIL=
METAR EGLF 110750Z NIL=
METAR EGMC 110750Z 28010KT 250V310 9000 FEW015 07/04 Q1014=
METAR EGMD 110750Z NIL=
METAR EGMH 110750Z 24011KT 6000 -RA FEW008 BKN012 08/07 Q1014 =
METAR EGTC 110750Z NIL=

0000031600
643
SAUK36 EGGY 110750
METAR EGBE 110750Z NIL=
METAR EGBJ 110750Z NIL=
METAR EGCN 110750Z 27006KT 9999 FEW042 04/01 Q1014=
METAR EGSC 110750Z NIL=
METAR EGSD 110750Z NIL=
METAR COR EGSH 110750Z 26009KT 9999 BKN008 07/06 Q1012 BECMG BKN014=
METAR EGVN 110750Z NIL=
METAR EGWU 110750Z NIL=

0000046300
644
SAUK37 EGGY 110750
METAR EGAE 110750Z 25004KT 9999 -RA FEW012 SCT018 BKN036 02/01
    Q1014=
METAR EGNC 110750Z NIL=
METAR EGNH 110750Z 29012G23KT 9999 VCSH FEW004 SCT020 05/03
    Q1014=
METAR EGNJ 110750Z 26009KT 9999 FEW032 04/02 Q1013=
METAR EGNO 110750Z NIL=
METAR EGNR 110750Z NIL=
METAR EGPE 110750Z 21010KT 9999 FEW018 FEW025CB 01/00 Q1008=
METAR EGPI 110750Z NIL=
METAR EGPN 110750Z 25014KT 9999 FEW011 02/02 Q1009=

0000038600
645
SAUK38 EGGY 110750
METAR EGEC 110750Z NIL=
METAR EGEO 110750Z 14004KT 9999 FEW015 SCT024 03/00 Q1011=
METAR EGPA 110750Z NIL=
METAR EGPC 110750Z AUTO 25009KT 9999 NCD 01/M00 Q1005=
METAR EGPL 110750Z 27021KT 9999 SHRA FEW025 SCT038 03/02 Q1010=
METAR EGPM 110750Z NIL=
METAR EGPO 110750Z 24006KT 9999 FEW012CB SCT022 02/01 Q1008=
METAR EGPU 110750Z NIL=

0000049500
646
SASW32 LSSW 110750
METAR LSGC 110750Z VRB02KT CAVOK 02/02 Q1017=
METAR LSGS 110750Z VRB02KT 9999 FEW100 SCT150 BKN200 01/01 Q1019=
METAR LSZG 110750Z 22004KT 0200 FG VV002 01/01 Q1019 NOSIG=
METAR LSZR 110750Z 25002KT 0800 R10/1200N FG VV002 03/02 Q1018 NOSIG
    RMK B=
METAR LSZS 110750Z 00000KT 9999 BKN080 M05/M05 Q1019 R03/39//99=
METAR LSZC 110750Z AUTO 20003KT 0200 FG VV002 02/02 Q1018=
METAR LSZL 110750Z AUTO VRB01KT 9999NDV OVC048 06/04 Q1022 RMK WHT=

0000017300
647
SAVN24 SVMG 110800
METAR SVMG 110800Z /////KT 9999 SCT010 24/22 Q1013 NOSIG=
METAR SVCU 110800Z NIL=
METAR SVCP 110800Z NIL=
METAR SVGI 110800Z NIL=

0000014100
648
SAVN23 SVBC 110800
METAR SVBC 110800Z 00000KT 9999 FEW010 22/20 Q1013=
METAR SVMT 110800Z NIL=
METAR SVHG 110800Z NIL=

0000045900
649
FTBZ31 KWBC 110754
TAF
TAF SBCB 110730Z 1112/1212 08017KT 9999 FEW020 TX30/1115Z
      TN24/1207Z
      BECMG 1121/1123 07010KT RMK PGV=
TAF SBGL 110730Z 1112/1218 02005KT CAVOK TX35/1117Z TN24/1208Z
      BECMG 1114/1116 06007KT FEW020
      BECMG 1117/1119 12010KT
      BECMG 1122/1124 10005KT
      BECMG 1206/1208 06005KT
      BECMG 1210/1212 02005KT
      BECMG 1213/1215 06008KT BE CMG 1216/1218 13010KT RMK PGV=

0000031700
650
FTUS41 KWBC 110754 AAA
TAF AMD
KLUK 110751Z 1108/1206 VRB03KT 2SM -SHRA BR OVC035
      TEMPO 1108/1109 3/4SM -RA BR BKN012 OVC028
     FM110900 18006KT 5SM -SHRA BR OVC025
     FM111300 21010G18KT P6SM VCSH OVC015
     FM111600 25012G22KT P6SM OVC025
     FM120000 26011KT P6SM BKN020=

0000027800
651
FTUS43 KWBC 110754 AAA
TAF AMD
KAPN 110751Z 1108/1206 15009KT P6SM -RA OVC006 WS020/20040KT
      TEMPO 1108/1109 BKN012
     FM110900 18009KT 3SM -RA BR OVC005 WS020/20040KT
     FM111800 27009KT 4SM -SN BR OVC012
     FM120000 26007KT P6SM OVC025=

0000030900
652
FTUS31 KWBC 110754 AAA
TAF AMD
KCHS 110750Z 1108/1206 19007KT P6SM BKN007
     FM111000 20008KT 4SM BR BKN004
      TEMPO 1110/1113 2SM BR OVC002
     FM111530 20012G18KT P6SM SCT008 BKN025
     FM112000 21014G24KT 3SM +RA SCT015 OVC030
     FM112300 25010KT P6SM SCT015 BKN060=

0000031300
653
FTUS42 KWBC 110754 AAA
TAF AMD
KSAV 110752Z 1108/1206 18003KT 1/2SM FG VV002
     FM110900 18004KT 1/4SM FG VV001
     FM111300 19009KT 4SM BR OVC004
     FM111500 21012G18KT P6SM SCT005 BKN025
     FM111900 21015G24KT 3SM +RA SCT015 OVC030
     FM112200 26010KT P6SM SCT040 BKN080=

0000084100
654
FTUS71 KWBC 110754 AAA
TAF AMD
KCHS 110750Z 1108/1206 19007KT P6SM BKN007
     FM111000 20008KT 4SM BR BKN004
      TEMPO 1110/1113 2SM BR OVC002
     FM111530 20012G18KT P6SM SCT008 BKN025
     FM112000 21014G24KT 3SM +RA SCT015 OVC030
     FM112300 25010KT P6SM SCT015 BKN060=
KLUK 110751Z 1108/1206 VRB03KT 2SM -SHRA BR OVC035
      TEMPO 1108/1109 3/4SM -RA BR BKN012 OVC028
     FM110900 18006KT 5SM -SHRA BR OVC025
     FM111300 21010G18KT P6SM VCSH OVC015
     FM111600 25012G22KT P6SM OVC025
     FM120000 26011KT P6SM BKN020=
KSAV 110752Z 1108/1206 18003KT 1/2SM FG VV002
     FM110900 18004KT 1/4SM FG VV001
     FM111300 19009KT 4SM BR OVC004
     FM111500 21012G18KT P6SM SCT005 BKN025
     FM111900 21015G24KT 3SM +RA SCT015 OVC030
     FM112200 26010KT P6SM SCT040 BKN080=

00000000