0000035100
135
SASW31 LSSW 110720
METAR LSZH 110720Z VRB01KT 0400 R14/0650N R16/0700N R28/1100D
    R34/0750N PRFG VV002 01/01 Q1018 NOSIG=
METAR COR LSGG 110720Z 00000KT 9000 MIFG NSC 02/02 Q1019 NOSIG=
METAR LSZB 110720Z 14002KT 4000 BCFG FEW003 BKN130 M01/M01 Q1018
    NOSIG=
METAR LSZA 110720Z VRB01KT 9999 BKN042 07/06 Q1022 NOSIG=

0000015100
136
SNVD20 EHDB 111700
BBXX
PHSG 11174 99083 71323 41/97 80632 10260 20260 40110 55010 72362
88/// 22214 00250 20204 326// 40308 80260=
0000003800
137
SNVC20 EHDB 111700
NIL
0000003800
138
SNVE20 EHDB 111700
NIL
0000003800
139
SNVJ20 EHDB 111700
NIL
0000040300
140
SAGR33 LGAT 110720
METAR LGBL 110720Z VRB03KT 9999 FEW018 07/05 Q1023 NOSIG=
METAR LGHI 110720Z NIL=
METAR LGKC 110720Z NIL=
METAR LGKF 110720Z NIL=
METAR LGKP 110720Z NIL=
METAR LGKZ 110720Z NIL=
METAR LGMK 110720Z 02010KT 9999 FEW018 BKN180 13/10 Q1021=
METAR LGNX 110720Z NIL=
METAR LGPA 110720Z NIL=
METAR COR LGSO 110720Z 36004KT 9999 FEW014 SCT180 14/12 Q1022=

0000009100
141
SPCN31 CWAO 110725
SPECI CYTR 110725Z 11005KT 6SM -RA BR OVC009 RMK SF8=

0000035700
142
SAFI34 EFHK 110720
EFET 110720Z AUTO VRB01KT CAVOK M33/M37 Q1014=
EFIV 110720Z AUTO 24003KT 8000 BKN003 OVC007 M28/M31 Q1017=
EFKE 110720Z AUTO 01010KT CAVOK M16/M20 Q1010=
EFKI 110720Z 04009KT 9999 BKN016 M14/M17 Q1003=
EFKS 110720Z AUTO 05006KT 350V130 CAVOK M17/M21 Q1007=
EFKT 110720Z 01003KT CAVOK M20/M22 Q1014 R16/////95=

0000010300
143
SAUK31 EGGY 110720 CCB
METAR COR EGLL 110720Z 28009KT 9999 SCT020 07/05 Q1015 NOSIG=

0000011100
144
SAMJ41 LWSK 110730
METAR LWSK 110730Z 06002KT 0200 R34/0450N FG OVC002 00/M00 Q1026
NOSIG=

0000012100
145
SAUK37 EGGY 110720 RRA
METAR EGAE 110720Z 26005KT 230V290 9999 FEW012 SCT018 BKN043 03/02
    Q1014=

0000206100
146
SPUS70 KWBC 110726
SPECI
KDIJ 110722Z AUTO 16012KT 10SM BKN023 BKN029 OVC060 M02/M05 A3005
     RMK AO2 BKN V SCT=
KDVN 110722Z AUTO 27009KT 2SM BR OVC002 01/01 A2948 RMK AO2=
KFPR 110722Z 00000KT 2SM BR FEW010 19/18 A3008 RMK AO2 VIS 1V5=
KHKS 110722Z AUTO 26014G29KT 1 3/4SM +RA BR BKN012 OVC022 19/18
     A2978 RMK AO2 PK WND 20029/0713 PRESRR P0012=
KIGX 110722Z AUTO 00000KT 1 3/4SM BR OVC003 07/07 A3002 RMK AO2
     RAE03 P0000 T00720067=
KILM 110722Z AUTO 17006KT 10SM SCT011 19/17 A3005 RMK AO2=
KSPI 110722Z AUTO 21007KT 1SM BR OVC002 05/05 A2949 RMK AO2=
KTOI 110722Z AUTO 18013G17KT 9SM -RA OVC004 19/18 A2993 RMK AO2
     LTG DSNT E CIG 003V008 P0003 T01890178=
PANW 110719Z AUTO 00000KT 3/4SM BR OVC001 M09/M09 A2940 RMK AO2
     TSNO $=
KIND 110722Z 21003KT 1SM R05L/3000VP6000FT BR OVC006 03/03 A2957
     RMK AO2 FG OVR RWY $=
KJKL 110722Z AUTO VRB05KT 10SM BKN019 OVC060 13/11 A2974 RMK AO2
     PRESFR T01330106=
KLOU 110722Z AUTO 00000KT 1 1/2SM +RA BR SCT008 BKN011 OVC080
     11/10 A2966 RMK AO2 P0011 TSNO=
KMGY 110722Z AUTO 19009KT 8SM -RA SCT007 BKN024 OVC075 09/09 A2965
     RMK AO2 P0008 T00940089=
KMIE 110722Z AUTO 23008KT 8SM OVC004 07/06 A2959 RMK AO2 RAE0659
     P0000 T00670061 TSNO=
KCEW 110723Z AUTO 18008KT 8SM -RA BKN005 OVC020 19/18 A2996 RMK
     AO2 P0019 T01940183=
KDFI 110723Z AUTO 19009KT 5SM BR FEW006 BKN026 OVC031 06/05 A2958
     RMK AO2 RAE0656 P0000=
KFFT 110723Z AUTO 27008G15KT 2 1/2SM VCTS RA BR SCT015 OVC035
     11/11 A2968 RMK AO2 LTG DSNT W-NE P0019 T01110106=
KLGB 110723Z 00000KT 3/4SM BR BKN003 OVC009 12/09 A3011 RMK
     AO2=
KMFI 110723Z AUTO 30005KT 1SM -SN BR BKN018 OVC036 M02/M03 A2939
     RMK AO2 P0000 T10221033=
KMIW 110723Z AUTO 29011KT 8SM BKN008 OVC012 M01/M02 A2952 RMK AO2
     CIG 006V011 T10061017 TSNO=
KSGH 110723Z AUTO 19009KT 3SM RA BR FEW001 BKN026 OVC075 09/08
     A2967 RMK AO2 P0007=
KVPC 110723Z AUTO 13005KT 3SM -RA OVC004 18/09 A2989 RMK AO2 LTG
     DSNT N-SE P0007=

0000011100
147
SPUS31 KWBC 110726
SPECI
KIND 110722Z 21003KT 1SM R05L/3000VP6000FT BR OVC006 03/03 A2957=

0000012200
148
SPUS31 KWBC 110726
SPECI
KLOU 110722Z AUTO 00000KT 1 1/2SM +RA BR SCT008 BKN011 OVC080
11/10 A2966=

0000009600
149
SPUS41 KWBC 110726
SPECI
KILM 110722Z AUTO 17006KT 10SM SCT011 19/17 A3005=

0000009300
150
SPUS42 KWBC 110726
SPECI
KFPR 110722Z 00000KT 2SM BR FEW010 19/18 A3008=

0000012900
151
FCSN31 ESWI 110500 AAA
TAF AMD ESGP 110724Z 1107/1115 24013KT 9000 BR SCT010 BKN020 PROB40
1107/1112 BKN006=

0000014200
152
FTCI41 ZBBB 110724 AAA
TAF AMD ZHCC 110723Z 1106/1206 21004MPS 4000 HZ NSC TX08/1107Z
TNM04/23Z BECMG 1114/1115 33005MPS=

0000015500
153
SPSR31 WSSL 110726
SPECI WSSL 110726Z 33008KT 290V010 9999 2500SW -SHRA FEW012 SCT016TCU
FEW018CB BKN300 31/27 Q1008 RMK 0630Z Q1009 =

0000009700
154
SAQB31 LQBK 110730
METAR LQBK 110730Z 07002KT 0100 FG VV/// 03/03 Q1021 NOSIG=

00000000