0000013100
295
SACN61 CYTE 110900
METAR CYTE 110900Z AUTO 28013KT 9SM CLR M24/M27 A2962 RMK MAX WND
 28018KT AT 0822Z SLP039=

0000007600
296
SACN52 CWAO 110900
METAR CWRH 110900Z AUTO 27022KT A2948=

0000009000
297
SACN44 CWAO 110900
METAR CWRF 110900Z AUTO ///// M34/ A2938 RMK SLP013=

0000009200
298
SACN52 CWAO 110900
METAR CWXR 110900Z AUTO 30018KT M31/ A2937 RMK SLP960=

0000011300
299
SABZ24 SBCT 110900
METAR SBCT 110900Z 03002KT 9999 VCTS FEW020
FEW030CB 18/17 Q1018 RETS
=

0000009900
300
SACN51 CWAO 110900
METAR CWCA 110900Z 23010KT 15SM SKC M11/M12 A2984 RMK SLP108=

0000011100
301
SACN43 CWAO 110900
METAR CYGX 110900Z 04006KT 2SM -SN OVC016 M21/M25 A2956 RMK SC8
SLP027=

0000008300
302
SABZ18 SBGR 110900
METAR SBGR 110900Z 08004KT CAVOK 19/17 Q1017=

0000012200
303
SAID31 WIII 110900
METAR WIII 110900Z 32010KT 9999 SCT018CB SCT020 30/24 Q1007 RMK CB TO
SE S AND SW=

0000009900
304
SAUK33 EGGY 110850 RRA
METAR EGNS 110850Z 30015KT 9999 FEW014 04/02 Q1015 NOSIG=

0000009600
305
SAUK38 EGGY 110850 RRA
METAR EGPU 110850Z 29012KT 9999 FEW002CB 04/M01 Q1012=

0000011400
306
SAPH41 RPLC 110900
METAR RPLC 110900Z
11010KT 9999 SCT042 BKN300 25/16 Q1016 A2999 RMK NOSIG=

0000015800
307
FTSP34 LEMM 110500 AAB
TAF AMD LEBB 110857Z 1108/1206 10006KT 9999 FEW025 SCT035
TX14/1115Z TN07/1204Z PROB40 TEMPO 1203/1206 19012G22KT=

0000015700
308
FTMS40 WMKK 110500 AAA
TAF AMD WBKL 110855Z 1109/1206 04008G20KT 9999 FEW012 SCT140 BKN290
TEMPO 1109/1113 3000 RA SCT008 SCT030 BKN140=

0000032500
309
SPUS70 KWBC 110858
SPECI
KNFE 110854Z AUTO 14007KT 10SM -RA BKN008 BKN014 OVC024 18/16
     A3004 RMK AO2 P0011=
KSGJ 110853Z 14003KT 1/2SM FG BKN007 BKN012 16/16 A3005 RMK AO2
     CIG 004V010=
KAHN 110855Z AUTO 00000KT 1SM +TSRA BR SCT004 OVC010 08/07 A2994
     RMK AO2 LTG DSNT ALQDS P0008=

0000010000
310
SAGR31 LGAT 110850 RRB
METAR LGAD 110850Z 12004KT 9999 FEW025 BKN080 16/09 Q1024=

0000009700
311
SAFP20 LFVP 110900
METAR LFVP 110900Z 27020KT 9999 BKN023 M01/M05 Q1023 NOSIG=

0000093700
312
SANL33 EHDB 110855
METAR EHAK 110855Z AUTO 33020KT 9999 NSC 07/02 Q1007=
METAR EHDV 110855Z AUTO 31024KT 9999 FEW015/// SCT018/// 07/04 Q1009=
METAR EHFD 110855Z AUTO 03015KT 320V040 9999 FEW022/// SCT033///
07/05 Q1006=
METAR EHFZ 110855Z AUTO 30014KT //// // ///////// 07/06 Q1008 RE//=
METAR EHJA 110855Z AUTO 30028KT 9999 FEW012/// SCT023/// BKN028///
07/04 Q1009=
METAR EHJR 110855Z NIL=
METAR EHKV 110855Z AUTO 32017KT 9999 -RA FEW007/// SCT009///
BKN011/// 08/06 Q1010 RERA REDZ=
METAR EHMA 110855Z AUTO 21022KT 3300 -RA FEW004/// BKN005///
OVC007/// 06/05 Q1009=
METAR EHMG 110855Z AUTO 25026KT 7000 DZRA FEW004/// SCT006///
BKN010/// 08/08 Q1007=
METAR EHPG 110855Z AUTO ///30KT 3800 BR FEW003/// SCT005/// BKN006///
08/07 Q1011 REDZ=
METAR EHQE 110855Z AUTO 26029KT 5000 -DZ FEW003/// SCT004///
BKN006/// 09/08 Q//// REDZ=
METAR EHSA 110855Z NIL=
METAR EHSC 110855Z NIL=

0000011800
313
SAPH41 RPLC 110900 COR
METAR RPLC 110900Z
11010KT 9999 SCT042 BKN100 25/16 Q1016 A2999 RMK NOSIG=

0000008900
314
SABZ21 SBSV 110900
METAR SBSV 110900Z 10011KT 9999 SCT017 27/22 Q1014=

00000000