0000037600
215
FTUS44 KWBC 110554
TAF
KPDX 110552Z 1106/1206 16014KT 6SM -SHRA SCT030 OVC050
     FM110800 19018G30KT 6SM -RA BR BKN025 OVC035
     FM111100 22020G35KT 4SM RA BR BKN015 OVC030 WS015/20055KT
     FM111600 22020G30KT P6SM -SHRA SCT015 BKN025 OVC045
     FM111900 22024G36KT P6SM -SHRA SCT025 BKN050
     FM120300 24018KT P6SM -SHRA SCT030 BKN050=

0000183800
216
FTEA32 HKNA 110500
TAF HKJK 110430Z 1106/1212 06010KT 9999 SCT026 TEMPO 1112/1118
      VRB10KT FEW023CB SCT024 BECMG 1120/1123 03005KT
       FEW020 TEMPO 1200/1206 VRB05KT SCT017 BECMG 1208/1211
       06010KT SCT026=
TAF HKEL 110430Z 1106/1206 07010KT 9999 SCT025 TEMPO 1112/1118
      VRB10KT -TSRA FEW021CB BKN022 BKN080 BECMG 1120/1123
       10005KT FEW018 TEMPO 1200/1206 VRB05KT CAVOK=
TAF HBBA 110300Z 1106/1212 36002KT 9999 FEW024 SCT100 BECMG
     1107/1109
     18012G24KT 9999 SCT026 FEW028CB BKN100 PROB30 TEMPO
     1113/1118
     08012G24KT 6000 TSRA OR SHRA SCT028 FEW030CB BKN090 BECMG
     1202/1204 VRB03KT 9999 FEW024 BKN100 BECMG 1207/1209
     12012G24KT
     9999 FEW026 FEW028CB SCT100=
TAF HUEN 110300Z 1106/1212 VRB10KT 8000 -TS FEW018 FEW020CB BKN120
    BECMG 1107/1113 18010KT 9000 FEW024 FEW026CB BKN200
    FM 111600 22006KT FEW021 FEW023CB SCT150
    BECMG 1121/1124 36005KT FEW020 FEW022CB BKN120
    TEMPO 1201/1206 VRB10KT 8000 -TS SCT018 FEW022CB BKN110
    BECMG 1207/1212 17012KT 9000 FEW024 FEW027CB BKN250=
TAF HTDA 110400Z 1106/1212 36010KT 9999 SCT024
     BECMG 1109/1112 03015KT 9999 BKN026
     BECMG 1115/1118 SCT024 BECMG 1203/1206 36015
     BECMG 1209/1212 03010G20KT BKN026=
TAF HTKJ 110400Z 1106/1206 07005KT 9999 FEW020
     BECMG 1108/1112 12010KT FEW032CB SCT033
     BECMG 1114/1118 10010KT FEW028
     BECMG 1120/1124 09010KT FEW024
     BECMG 1202/1206 09005KT FEW022 =
TAF HRYR 110245Z 1106/1212 0/0KT 8000 FEW026 SCT300 FM110900Z 0/0KT
9/9 SCT025 TEMPO1112/1118 25009KT -TS FEW023CB SCT025 FM112100
16005KT SCT025 BECMG1203/1206 VRB03KT 8000 FEW026 FM120800
0/0KT 9/9 FEW023=
TAF HTZA 110400Z 1106/1206 36010KT 9999 BKN016
     BECMG 1110/1112 06015KT SCT022
     BECMG 1118/1120 06005=

0000127100
217
FTUS71 KWBC 110554
TAF
KBWI 110553Z 1106/1212 10004KT 1/4SM FG VV001 WS020/18035KT
      TEMPO 1107/1109 2SM -RA BKN004 OVC010
     FM110900 16004KT 1/2SM -RA FG OVC003 WS020/19040KT
     FM111500 17011KT 1SM BR OVC006 WS020/20050KT
     FM111700 17012KT 6SM -SHRA OVC009 WS020/20045KT
     FM111900 18011G21KT 3SM SHRA OVC010 WS020/20040KT
     FM112300 24009KT 6SM -SHRA OVC025
     FM120000 25009KT 6SM -SHRA OVC035
     FM120200 27009KT P6SM BKN070
     FM120800 28010KT P6SM SCT130=
KCHO 110553Z 1106/1206 00000KT 1SM -RA BR OVC009
     FM111000 20004KT 1 1/2SM BR OVC003 WS020/19035KT
     FM111600 19008KT 2SM BR OVC008 WS020/20045KT
     FM111700 19009KT 2SM SHRA OVC010 WS020/20045KT
     FM112100 25009KT 6SM -SHRA OVC030
     FM112300 25009KT P6SM BKN035
     FM120400 26008KT P6SM SCT250=
KDCA 110553Z 1106/1206 VRB03KT 2SM -RA BR OVC004 WS020/18035KT
      TEMPO 1107/1111 3/4SM BR OVC002
     FM111100 18006KT 3/4SM -SHRA BR OVC003 WS020/19045KT
     FM111500 18009KT 1 1/2SM BR OVC005 WS020/20045KT
     FM111700 18013KT 6SM -SHRA OVC007 WS020/20045KT
     FM111900 19011G23KT 3SM SHRA SCT007 OVC012 WS020/20040KT
     FM112200 24008KT 6SM -SHRA OVC030
     FM120000 27008KT P6SM BKN080=

0000093700
218
FTUS71 KWBC 110554 RRA
TAF
KIAD 110553Z 1106/1212 VRB03KT 1 1/2SM -RA BR SCT004 OVC006
      TEMPO 1106/1110 1/2SM FG OVC002
     FM111000 17005KT 1SM BR OVC003 WS020/19040KT
     FM111300 18008KT 1/2SM FG OVC003 WS020/20045KT
     FM111400 18008KT 3/4SM BR OVC003 WS020/20050KT
     FM111700 18011KT 3SM SHRA OVC007 WS020/20050KT
     FM112200 25008KT 6SM -SHRA OVC035
     FM120200 27008KT P6SM BKN090
     FM120700 29010KT P6SM SCT200=
KMRB 110553Z 1106/1206 VRB03KT 1/2SM FG OVC003
      TEMPO 1106/1110 1/4SM FG VV001
     FM111100 16006KT 2SM BR SCT009 OVC012 WS020/19040KT
     FM111300 16007KT 3SM BR OVC015 WS020/19045KT
     FM111500 17008KT 5SM -SHRA BR OVC030 WS020/20045KT
     FM111700 18011KT 3SM SHRA BKN012 OVC030 WS020/20045KT
     FM112100 23008KT 6SM -SHRA OVC035
     FM120000 26009KT P6SM OVC035
     FM120400 28014KT P6SM BKN250=
KMTN 110553Z 1106/1206 NIL=

0000068700
219
FTUS71 KWBC 110554 CCA
TAF COR
KAVL 110551Z 1106/1206 13005KT 3SM SHRA BR OVC003
      TEMPO 1106/1108 1SM SHRA BR OVC001
     FM111000 17009KT 1SM SHRA BR OVC002
     FM111400 19013G21KT 1SM SHRA BR OVC003
     FM111700 30010KT 2SM SHRA BR OVC004
     FM111900 31012KT 4SM -SHRA OVC035
     FM120000 31014G22KT P6SM SCT040 BKN250=
KGSP 110553Z 1106/1206 05005KT 3SM SHRA BR OVC003
      TEMPO 1106/1108 1SM TSRA BR OVC002CB
     FM111200 18007KT 1SM SHRA BR OVC002 WS020/21035KT
     FM111600 20012G18KT 2SM SHRA BR OVC003
     FM111800 22013G22KT 4SM SHRA VCTS OVC015CB
     FM112000 24010KT P6SM BKN040
     FM112300 26010KT P6SM SCT050=

0000075300
220
SASN33 ESWI 110550
METAR ESNG 110550Z AUTO 31006KT 9999 NCD M21/M23 Q1012=
METAR ESNK 110550Z AUTO 33011KT 9999 -SN FEW027/// BKN035///
BKN044/// M10/M14 Q1005=
METAR ESNN 110550Z AUTO 32009KT 4200NDV -SN NCD M10/M12 Q1005
R16/49/79=
METAR ESNO 110550Z AUTO 36010KT 330V030 9999 -SN BKN012/// OVC018///
M12/M15 Q1004=
METAR ESNQ 110550Z AUTO VRB02KT 3300NDV IC NCD M23/M25 Q1012 RESN
RESG=
METAR ESNS 110550Z AUTO 35013KT //// VV006 M13/M15 Q1007=
METAR ESNU 110550Z 35014KT 1400 R14/P1500N R32/P1500N -SN VV013
M11/M14 Q1005 R14/49//50=
METAR ESNZ 110550Z AUTO 04003KT 7000NDV -SN VV031 M15/M17 Q1003
RESG=
METAR ESUT 110550Z AUTO VRB09G33KT 360V360 9999 -SN FEW012///
SCT019/// BKN100/// M13/M19 Q1005=

0000054400
221
SASN34 ESWI 110550
METAR ESCF 110550Z AUTO 22009KT 9999NDV FEW012/// BKN015/// 
OVC029/// 02/02 Q0999=
METAR ESDF 110550Z AUTO 24009KT 9999NDV OVC014/// 05/03 Q1005=
METAR ESIB 110550Z AUTO 23008KT 9999NDV FEW014/// SCT020/// 
OVC066/// 05/04 Q0999=
METAR ESMV 110550Z NIL=
METAR ESPA 110550Z 02009KT 350V050 9999 -SN BKN020 M15/M19 Q1011=
METAR ESPE 110550Z AUTO 36009KT 9999NDV NCD M16/M20 Q1011=
METAR ESSL 110550Z AUTO 23008KT 9999NDV FEW016/// SCT023///
OVC032/// 03/02 Q0998 REUP RERA REDZ R29/19//95=

0000039000
222
SASN35 ESWI 110550
METAR ESGR 110550Z NIL=
METAR ESKM 110550Z NIL=
METAR ESNL 110550Z AUTO 36008KT 7000NDV -SN BKN024/// M14/M17
Q1007 RESG=
METAR ESNX 110550Z AUTO 01010KT 9999NDV SCT096/// M17/M20 Q1007=
METAR ESNY 110550Z NIL=
METAR ESSF 110550Z NIL=
METAR ESSK 110550Z NIL=
METAR ESUD 110550Z AUTO 01004KT 7000 -SN FEW038/// OVC072/// M14/M17
Q1007=

0000070200
223
FTUS74 KWBC 110554
TAF
KEUG 110552Z 1106/1206 18012G20KT P6SM -RA SCT025 OVC060
     FM110900 19018G30KT 6SM -RA BR SCT015 OVC025
     FM111300 21020G30KT 4SM RA BR BKN015 OVC025
     FM111700 21017G27KT P6SM -SHRA SCT015 BKN025 OVC045
     FM112000 20025G38KT P6SM -SHRA SCT025 BKN050
     FM120400 21015G25KT P6SM -SHRA SCT025 BKN050=
KPDX 110552Z 1106/1206 16014KT 6SM -SHRA SCT030 OVC050
     FM110800 19018G30KT 6SM -RA BR BKN025 OVC035
     FM111100 22020G35KT 4SM RA BR BKN015 OVC030 WS015/20055KT
     FM111600 22020G30KT P6SM -SHRA SCT015 BKN025 OVC045
     FM111900 22024G36KT P6SM -SHRA SCT025 BKN050
     FM120300 24018KT P6SM -SHRA SCT030 BKN050=

0000015100
224
SAMO31 ZMUB 110600
METAR ZMUB 110600Z 00000MPS 1600NW 2000SE R14/0800N FU BR NSC
 M23/M26
 Q1028 NOSIG RMK QFE662.4 70 NW SE MO=

0000009800
225
SAPM31 MPTO 110600
METAR 
MPTO 110600Z 00000KT 9999 FEW020 24/21 Q1010 NOSIG=

0000050600
226
SAFI32 EFHK 110550
METAR EFHA 110550Z AUTO 36007KT 9999 -SG BKN011 
M07/M08 Q0998=
EFHF 110550Z AUTO 32012KT 9999 OVC009 M04/M06 Q0998=
METAR EFKA 110550Z AUTO 05011KT 8000 -SN OVC018 
M09/M11 Q1001=
EFKK 110550Z AUTO 04009KT 9999 -SN BKN050 OVC070 M11/M12 Q1003=
EFMA 110550Z 30001KT 5000 -SN SCT025 OVC050 M01/M02 Q0999=
METAR EFPO 110550Z AUTO 05003KT 020V080 9999 OVC007/// M04/M06 Q0999 
R12/29//95=
EFSI 110550Z AUTO 05006KT 020V100 9999 -SN OVC014 M08/M09 Q1000=

0000011100
227
SAUS72 KWBC 110500 RRG
METAR
KANB 110548Z AUTO 01007KT 2SM VCTS +RA BR OVC011 11/11 A2992=

0000009600
228
SAUS74 KWBC 110500 RRF
METAR
KIWA 110547Z 14004KT 20SM FEW250 06/M01 A3015=

0000009900
229
SAUS75 KWBC 110500 RRF
METAR
PADL 110545Z 03007KT 3SM BR OVC005 M06/M06 A2941=

0000008900
230
SAMA20 FIMP 110600
METAR FIMP 110600Z 10010KT 9999 SCT018 29/25 Q1017=

0000009500
231
SAQB31 LQSM 110600
METAR LQSA 110600Z VRB01KT 6000 BKN055 04/04 Q1022 NOSIG=

0000043500
232
SAMX42 MMGL 110553
METAR MMGL 110549Z 00000KT 10SM  BKN030 12/06 A3020 
      RMK SLP153 52010 900 8/500=
METAR MMMM 110545Z 00000KT 7SM  BKN030 13/08 A3025 
      RMK SLP120 52024 900 8/500=
METAR MMPR 110545Z 05004KT 10SM  SKC 18/17 A2996 RMK SLP146 52013
904=
METAR MMSP 110543Z 00000KT 10SM  FEW025 12/04 A3022 
      RMK SLP127 52020 905 8/500=
METAR MMZC 110540Z 16003KT 10SM  SKC 06/M03 A3028=

0000040000
233
SAMX41 MMMX 110553
METAR MMMX 110549Z 06004KT 10SM FEW080 14/05 A3032
      NOSIG RMK SLP113 52013 904 8/030 HZY SC=
METAR MMAA 110545Z 00000KT 8SM SKC 25/21 A2992 RMK SLP132 52010 955=
METAR MMQT 110545Z 00000KT 7SM SCT020 BKN090 OVC250 14/09 A3027
      RMK 8/538 BINOVC=
METAR MMTO 110545Z 00000KT 6SM  SCT015 BKN070 07/04 A3040 
      RMK SLP141 57004 900 8/430 HZ=

0000026000
234
SAHO31 MHTG 110600
METAR MHLC 110600Z 00000KT 9999 FEW026 SCT080 21/20 Q1014 A2994
NOSIG=
METAR MHLM 110600Z 00000KT 9999 FEW026 BKN080 23/23 Q1015 A2997
NOSIG=
METAR MHTG 110600Z 01004KT 9999 FEW024 SCT090 19/15 Q1019 A3009
NOSIG=

00000000