0000036900
155
FTUS51 KWBC 110548 CCA
TAF COR
KAND 110546Z 1106/1206 VRB04KT 2SM SHRA BR OVC004
      TEMPO 1106/1108 1SM TSRA OVC003CB
     FM111100 15006KT 1SM SHRA BR OVC002 WS020/20035KT
     FM111400 19009KT 1SM SHRA BR OVC003
     FM111700 21014G22KT 3SM SHRA VCTS OVC008CB
     FM111900 24012G18KT P6SM BKN040
     FM112300 25008KT P6SM SCT250=

0000105500
156
FTUS51 KWBC 110548
TAF
KBGM 110546Z 1106/1206 16008KT 1SM -DZ BR SCT001 OVC005
      TEMPO 1106/1110 1/4SM FG OVC001
     FM111600 18010KT 1 1/2SM RA BR OVC003
     FM112100 21005KT 5SM -SHRA BR OVC008
     FM120100 23010KT P6SM -SHRASN OVC012=
TAF KECG 110542Z 1106/1206 17012KT P6SM SCT040 BKN100
      TEMPO 1106/1110 2SM RA SCT006 BKN015
     FM111100 19015G22KT 4SM -SHRA BR BKN015 BKN040
     FM111700 20015G27KT P6SM SCT025 BKN080
     FM112200 21015G25KT 3SM SHRA BKN015 BKN040
     FM120300 26012KT 5SM BR BKN050=
KELM 110546Z 1106/1206 VRB05KT 4SM BR OVC008
      TEMPO 1106/1110 P6SM NSW SCT008 OVC015
     FM111500 13008KT 2SM RA BR OVC008
     FM112000 21005KT P6SM -SHRA OVC015
     FM120000 24008KT P6SM -SHRASN SCT015 OVC025=
KITH 110546Z 1106/1206 16008KT P6SM OVC012
      TEMPO 1106/1110 2SM -DZ BR OVC005
     FM111000 17008KT 2SM -DZ BR OVC005
     FM111500 18010KT 1 1/2SM RA BR OVC003
     FM112000 21005KT 5SM -SHRA BR OVC008
     FM120000 23010KT P6SM -SHRASN OVC012=

0000059900
157
FTUS54 KWBC 110548
TAF
KACV 110546Z 1106/1206 15005KT 3SM BR OVC050
     FM110900 17011KT 3SM BR OVC035
     FM111200 17015G25KT 3SM BR OVC025
     FM111400 18014G20KT 2SM RA BR OVC020
     FM120300 25008KT 3SM BR VCSH OVC035=
KCEC 110546Z 1106/1206 16012G18KT 5SM BR OVC012
     FM110800 16018G28KT 3SM BR OVC010
     FM111100 17025G35KT 3SM BR OVC010
     FM111300 18018G28KT 2SM RA BR OVC010
     FM120300 25008KT 3SM BR VCSH OVC035=
KUKI 110546Z 1106/1206 00000KT P6SM OVC020
     FM111200 17003KT P6SM OVC025
     FM111500 17005KT 4SM -RA BR OVC025=

0000073900
158
FTUS54 KWBC 110548 CCA
TAF COR
KCOE 110546Z 1106/1206 19010KT P6SM -RA BKN028 OVC035
     FM111000 17012KT 6SM -RA BR BKN008 OVC018 WS020/22046KT
     FM111200 20025G35KT P6SM RA BKN010 OVC025
     FM112100 20030G42KT P6SM -RA BKN019 BKN040
     FM120200 22024G35KT P6SM -SHSN SCT010 BKN025 AMD LTD TO CLD
      VIS AND WIND=
KTRK 110546Z 1106/1206 VRB04KT P6SM BKN180
     FM111000 19010G17KT P6SM BKN180
     FM111700 21018G30KT P6SM SCT050 BKN120
     FM112000 24017G28KT 5SM -SHSN SCT020 OVC040
     FM120100 20013G22KT P6SM FEW050 SCT150 AMD NOT SKED
      1106/1112=
KUKI 110547Z 1106/1206 00000KT P6SM OVC200
     FM111200 17003KT P6SM OVC025
     FM111500 17005KT 4SM -RA BR OVC025=

0000146000
159
FTUS80 KWBC 110548
TAF
KACV 110546Z 1106/1206 15005KT 3SM BR OVC050
     FM110900 17011KT 3SM BR OVC035
     FM111200 17015G25KT 3SM BR OVC025
     FM111400 18014G20KT 2SM RA BR OVC020
     FM120300 25008KT 3SM BR VCSH OVC035=
KAVP 110546Z 1106/1206 VRB05KT 4SM BR SCT008 OVC012
      TEMPO 1106/1110 2SM -DZ BR OVC008
     FM111500 15005KT 2SM RA BR OVC008
     FM112100 21005KT P6SM -SHRA OVC012
     FM120100 24008KT P6SM -SHRASN SCT015 OVC025=
KBFI 110545Z 1106/1206 15012G18KT P6SM -RA SCT019 OVC035
     FM110700 16015G25KT 5SM -RA BR OVC019
     FM110900 18020G33KT 4SM RA BR OVC019
     FM111300 17018G32KT P6SM -RA OVC025
     FM112000 18022G36KT P6SM -SHRA OVC019=
KBGM 110546Z 1106/1206 16008KT 1SM -DZ BR SCT001 OVC005
      TEMPO 1106/1110 1/4SM FG OVC001
     FM111600 18010KT 1 1/2SM RA BR OVC003
     FM112100 21005KT 5SM -SHRA BR OVC008
     FM120100 23010KT P6SM -SHRASN OVC012=
KBLI 110545Z 1106/1206 15020G30KT 5SM -RA SCT018 BKN025 OVC060
      TEMPO 1108/1112 4SM RA BR OVC018
     FM111200 17025G35KT 5SM -RA BR OVC015
     FM111400 19020G30KT P6SM -RA OVC025
     FM112000 18025G38KT P6SM -SHRA OVC017
     FM120500 18020G30KT P6SM -SHRA OVC022=
KCEC 110546Z 1106/1206 16012G18KT 5SM BR OVC012
     FM110800 16018G28KT 3SM BR OVC010
     FM111100 17025G35KT 3SM BR OVC010
     FM111300 18018G28KT 2SM RA BR OVC010
     FM120300 25008KT 3SM BR VCSH OVC035=

0000128600
160
FTUS80 KWBC 110548 RRA
TAF
KCLM 110545Z 1106/1206 12005KT P6SM SCT006 OVC035
      TEMPO 1107/1111 3SM RA BR OVC006
     FM111100 29010KT 5SM -RA OVC012
     FM111600 26006KT P6SM -SHRA OVC025
     FM120100 27015G25KT 5SM -SHRA OVC015=
TAF KECG 110542Z 1106/1206 17012KT P6SM SCT040 BKN100
      TEMPO 1106/1110 2SM RA SCT006 BKN015
     FM111100 19015G22KT 4SM -SHRA BR BKN015 BKN040
     FM111700 20015G27KT P6SM SCT025 BKN080
     FM112200 21015G25KT 3SM SHRA BKN015 BKN040
     FM120300 26012KT 5SM BR BKN050=
KELM 110546Z 1106/1206 VRB05KT 4SM BR OVC008
      TEMPO 1106/1110 P6SM NSW SCT008 OVC015
     FM111500 13008KT 2SM RA BR OVC008
     FM112000 21005KT P6SM -SHRA OVC015
     FM120000 24008KT P6SM -SHRASN SCT015 OVC025=
KHQM 110545Z 1106/1206 16030G45KT 3SM RA BR OVC015
      TEMPO 1108/1112 1SM +RA BR OVC011
     FM111200 20022G35KT 5SM -RA BR BKN018 OVC035
     FM111800 22032G48KT 4SM -SHRA BR OVC015
     FM120300 24025G35KT P6SM -SHRA OVC018=
KITH 110546Z 1106/1206 16008KT P6SM OVC012
      TEMPO 1106/1110 2SM -DZ BR OVC005
     FM111000 17008KT 2SM -DZ BR OVC005
     FM111500 18010KT 1 1/2SM RA BR OVC003
     FM112000 21005KT 5SM -SHRA BR OVC008
     FM120000 23010KT P6SM -SHRASN OVC012=

0000131600
161
FTUS80 KWBC 110548 CCA
TAF COR
KAND 110546Z 1106/1206 VRB04KT 2SM SHRA BR OVC004
      TEMPO 1106/1108 1SM TSRA OVC003CB
     FM111100 15006KT 1SM SHRA BR OVC002 WS020/20035KT
     FM111400 19009KT 1SM SHRA BR OVC003
     FM111700 21014G22KT 3SM SHRA VCTS OVC008CB
     FM111900 24012G18KT P6SM BKN040
     FM112300 25008KT P6SM SCT250=
KCOE 110546Z 1106/1206 19010KT P6SM -RA BKN028 OVC035
     FM111000 17012KT 6SM -RA BR BKN008 OVC018 WS020/22046KT
     FM111200 20025G35KT P6SM RA BKN010 OVC025
     FM112100 20030G42KT P6SM -RA BKN019 BKN040
     FM120200 22024G35KT P6SM -SHSN SCT010 BKN025 AMD LTD TO CLD
      VIS AND WIND=
KGEG 110546Z 1106/1206 20016KT P6SM -RA SCT030 BKN060 OVC070
     FM110700 19016KT 6SM -RA SCT010 OVC025 WS020/21053KT
     FM111200 20020G35KT P6SM RA BKN015 OVC030
     FM111600 21028G45KT P6SM -RA BKN019 BKN040
     FM112000 22028G40KT P6SM VCSH SCT020 BKN060
     FM120100 22022G35KT P6SM SCT010 BKN018 OVC050=
KSFF 110546Z 1106/1206 21006KT P6SM -RA SCT020 OVC060
     FM110700 19011KT 6SM -RA SCT010 BKN022 WS020/21045KT
     FM111200 20020G35KT P6SM RA BKN018 OVC030
     FM111600 21025G43KT P6SM -RA BKN020 BKN040
     FM112000 22025G40KT P6SM VCSH SCT020 BKN060
     FM120100 22020G35KT P6SM BKN020 OVC050=

0000148700
162
FTUS80 KWBC 110548 RRB
TAF
KOLM 110545Z 1106/1206 18025G35KT 6SM -RA BR SCT015 OVC028
      TEMPO 1109/1113 2SM RA BR OVC015
     FM111300 20018G32KT P6SM -RA OVC018
     FM112000 20025G38KT P6SM -SHRA OVC017
     FM120500 22018G28KT P6SM -SHRA OVC022=
KPAE 110545Z 1106/1206 16015G25KT P6SM -RA SCT018 OVC035
     FM110700 19018G30KT 5SM -RA BR OVC015
     FM110900 20023G38KT 4SM RA BR OVC015
     FM111200 20018G32KT P6SM -RA OVC025
     FM112000 20024G38KT P6SM -SHRA OVC017=
KRME 110546Z 1106/1206 12008KT P6SM OVC012
      TEMPO 1106/1110 -SHRA SCT012 OVC025
     FM111000 14012KT 5SM -DZ BR OVC008
     FM111600 14008KT 2SM RA BR OVC005
     FM112100 19005KT 5SM -SHRA BR OVC008
     FM120100 24010KT P6SM -SHRASN OVC012=
KSEA 110545Z 1106/1212 19012G18KT P6SM -RA SCT016 OVC035
     FM110700 19018G30KT 5SM -RA BR OVC016
     FM110900 20023G38KT 3SM RA BR OVC016
     FM111300 20018G32KT P6SM -RA OVC025
     FM112000 20024G38KT P6SM -SHRA OVC017
     FM120900 20018G28KT P6SM -SHRA OVC022=
TAF KSNY 110544Z 1106/1206 30016KT P6SM OVC090
     FM110900 30017G30KT P6SM BKN090
     FM111600 29016G30KT P6SM SCT080
     FM120200 24013G22KT P6SM SCT080=
KSYR 110546Z 1106/1206 10005KT P6SM OVC015
      TEMPO 1106/1110 -SHRA SCT015 OVC025
     FM111000 11008KT P6SM -DZ OVC012
     FM111500 15008KT 2SM RA BR OVC008
     FM112000 21005KT 5SM -SHRA BR OVC012
     FM120000 25012KT P6SM -SHRASN OVC015=

0000016900
163
FTUS80 KWBC 110548 RRC
TAF
KUKI 110546Z 1106/1206 00000KT P6SM OVC020
     FM111200 17003KT P6SM OVC025
     FM111500 17005KT 4SM -RA BR OVC025=

0000043200
164
FTUS80 KWBC 110548 CCB
TAF COR
KTRK 110546Z 1106/1206 VRB04KT P6SM BKN180
     FM111000 19010G17KT P6SM BKN180
     FM111700 21018G30KT P6SM SCT050 BKN120
     FM112000 24017G28KT 5SM -SHSN SCT020 OVC040
     FM120100 20013G22KT P6SM FEW050 SCT150 AMD NOT SKED
      1106/1112=
KUKI 110547Z 1106/1206 00000KT P6SM OVC200
     FM111200 17003KT P6SM OVC025
     FM111500 17005KT 4SM -RA BR OVC025=

0000011700
165
SPUS42 KWBC 110548
SPECI
KMGM 110544Z AUTO 15008KT 10SM VCTS FEW002 BKN011 OVC110 16/15
A2992=

0000009700
166
SPUS43 KWBC 110548
SPECI
KGRB 110544Z 20003KT 1 1/4SM BR OVC004 01/01 A2942=

0000015400
167
FCAL41 DAMM 110400 RRA
TAF DAOY 110500Z 1106/1115 14006KT 9999 SCT030 SCT100 PROB30 TEMPO
                 1106/1110 6000 -RA BKN020=

0000073900
168
FTAL40 DAMM 110500 RRA
TAF DAOO 110500Z 1106/1206 18010KT 9999 FEW023 SCT100 PROB40 TEMPO
                 1106/1112 8000 -TSRA FEW026CB BKN100 BECMG
                 1112/1115 SCT026 BECMG 1115/1118 26012KT TEMPO
                 1118/11124 -RA SCT020 BKN026=
TAF DAON 110500Z 1106/1206 20010KT 9999 FEW030 SCT100 TEMPO
                 1106/1112 26012G22KT 6000 -TSSHRA SCT030CB BECMG
                 1112/1114 26008KT BECMG 1115/1118 SCT026 SCT100
                 1115/1124 6000 -TSRA FEW026CB BKN026=
TAF DAOI 110500Z 1106/1206 16010KT 9999 SCT100 BECMG 1108/1112 9999
                 9999 SCT030 BKN100 BECMG 1112/1114 VRB03KT PROB40
                 TEMPO 1112/1121 6000 TSRA FEW030CB BKN40=

0000011700
169
SPCN47 CWAO 110548
SPECI CYWA 110548Z AUTO 12007KT 1 3/4SM OVC004 M02/M03 A2993 RMK ICG
PAST HR=

0000012300
170
SAES20 MSLP 110600
METAR MSLP 110450Z 36003KT 330V050 CAVOK 21/18 Q1012 A2990=
METAR MSSS 110450Z NIL=

0000008800
171
SAAL40 DAMM 110530 RRB
METAR DABC 110530Z  08006KT CAVOK 05/02 Q1020=

0000008800
172
SAAL31 DAAA 110530 RRB
METAR DABC 110530Z  08006KT CAVOK 05/02 Q1020=

0000049300
173
FTAL32 DAAA 110400 RRA
TAF DAON 110500Z 1106/1206 20010KT 9999 FEW030 SCT100 TEMPO
                 1106/1112 26012G22KT 6000 -TSSHRA SCT030CB BECMG
                 1112/1114 26008KT BECMG 1115/1118 SCT026 SCT100
                 1115/1124 6000 -TSRA FEW026CB BKN026=
TAF DAOI 110500Z 1106/1206 16010KT 9999 SCT100 BECMG 1108/1112 9999
                 9999 SCT030 BKN100 BECMG 1112/1114 VRB03KT PROB40
                 TEMPO 1112/1121 6000 TSRA FEW030CB BKN40=

0000073900
174
FTAL34 DAAA 110400 RRA
TAF DAOO 110500Z 1106/1206 18010KT 9999 FEW023 SCT100 PROB40 TEMPO
                 1106/1112 8000 -TSRA FEW026CB BKN100 BECMG
                 1112/1115 SCT026 BECMG 1115/1118 26012KT TEMPO
                 1118/11124 -RA SCT020 BKN026=
TAF DAON 110500Z 1106/1206 20010KT 9999 FEW030 SCT100 TEMPO
                 1106/1112 26012G22KT 6000 -TSSHRA SCT030CB BECMG
                 1112/1114 26008KT BECMG 1115/1118 SCT026 SCT100
                 1115/1124 6000 -TSRA FEW026CB BKN026=
TAF DAOI 110500Z 1106/1206 16010KT 9999 SCT100 BECMG 1108/1112 9999
                 9999 SCT030 BKN100 BECMG 1112/1114 VRB03KT PROB40
                 TEMPO 1112/1121 6000 TSRA FEW030CB BKN40=

00000000