0000018700
055
FTFR36 LFPW 110500 AAA
TAF AMD LFLS 110542Z 1106/1206 22010KT 9999 OVC014 BECMG 1113/1115
VRB03KT SCT015 BECMG 1118/1120 6000 BKN010 TEMPO 1120/1206 2000 BR
OVC005=

0000027800
056
FTMX31 KWBC 110545 CCA
TAF COR
TAF COR MMUN 110542Z 1106/1212 13005KT P6SM SCT015 TX28/1118Z
      TN22/1112Z
     FM111500 12010KT P6SM SCT015
      TEMPO 1118/1122 BKN015
     FM120000 35012KT P6SM BKN015
      TEMPO 1201/1205 5SM TSRA BKN015CB=

0000051000
057
FTUS51 KWBC 110545
TAF
KECG 110542Z 1106/1206 17012KT P6SM SCT040 BKN100
      TEMPO 1106/1110 2SM RA SCT006 BKN015
     FM111100 19015G22KT 4SM -SHRA BR BKN015 BKN040
     FM111700 20015G27KT P6SM SCT025 BKN080
     FM112200 21015G25KT 3SM SHRA BKN015 BKN040
     FM120300 26012KT 5SM BR BKN050=
KSBY 110542Z 1106/1206 16008KT P6SM BKN025 BKN070
      TEMPO 1107/1111 3SM -RA BKN010
     FM111200 18014G20KT 4SM -RA BR OVC010
     FM111900 17022KT 4SM -RA SCT012 BKN040=

0000116200
058
FTUS52 KWBC 110545
TAF
KCKV 110543Z 1106/1206 19015G25KT 4SM SHRA BR VCTS BKN006CB OVC015
      TEMPO 1106/1110 1SM TSRA OVC005CB
     FM111000 25012G22KT 5SM -SHRA BR BKN011 OVC025
     FM111300 27015G25KT P6SM OVC025
     FM111600 27012G25KT P6SM BKN080
     FM120000 28007KT P6SM SCT150=
KCSV 110543Z 1106/1206 19008G16KT P6SM OVC004
     FM110800 17010G20KT 3SM -SHRA BR OVC002
     FM111000 18012G22KT 2SM SHRA BR OVC002
     FM111500 26010G20KT P6SM OVC015
     FM111800 27010G20KT P6SM BKN050=
KGNV 110543Z 1106/1206 00000KT 1/4SM FG VV002
      TEMPO 1109/1113 1/2SM FG OVC003
     FM111400 20010G18KT P6SM VCSH BKN015 OVC025
     FM111700 24014G23KT 5SM -SHRA OVC015
     FM112000 24016G25KT 4SM SHRA VCTS BKN025CB
     FM120000 25011G16KT 6SM -SHRA SCT025 BKN050=
TAF KPBG 110539Z 1106/1206 15002KT P6SM SCT035 OVC050
     FM110800 15007KT P6SM VCSH SCT020 BKN030 OVC035
      TEMPO 1108/1110 4SM -FZDZ BR BKN015 OVC020
     FM111300 15010KT 3SM -RA BR OVC011 WS020/18050KT
     FM111500 16010G18KT 4SM -RA BR OVC008 WS020/18050KT
     FM111800 18010G16KT 3SM RA BR SCT004 BKN006 OVC008=

0000147000
059
FTUS53 KWBC 110545 RRA
TAF
KJXN 110542Z 1106/1206 17012KT P6SM -RA OVC004
     FM111000 22012KT 1 1/2SM -DZ BR OVC005
     FM111200 22007KT 1/2SM -DZ FG OVC004
     FM111600 27012G22KT 4SM -SN BR OVC008
     FM112300 28013KT P6SM OVC025=
KLAN 110542Z 1106/1206 16012KT P6SM -RA BKN008 OVC012
     FM110700 19013KT 5SM -RA BR OVC005
     FM110800 20011KT 1 1/2SM -RA BR OVC003
     FM111000 20008KT 3/4SM -RA BR OVC004
     FM111200 22007KT 1/2SM -DZ FG OVC004
     FM111800 27012G22KT 4SM -SN BR OVC008
     FM112300 28013KT P6SM OVC025=
KLAR 110544Z 1106/1206 27023G35KT P6SM SCT100
     FM111000 27028G44KT P6SM SCT100
     FM111800 25028G42KT P6SM BKN100
     FM120200 23029G45KT P6SM BKN100=
KMKG 110542Z 1106/1206 18012G18KT P6SM -RA OVC007
     FM110800 18011KT 1 1/2SM -RA BR OVC003
     FM111000 20008KT 3/4SM -RA BR OVC004
     FM111200 22007KT 1/2SM -DZ FG OVC004
     FM111600 27009KT 4SM -SN BR OVC008
     FM112300 28013KT P6SM OVC025=
KRWL 110544Z 1106/1206 25027G42KT P6SM SCT100
     FM111000 24028G45KT 2SM -SN BR OVC025
     FM111500 24029G45KT P6SM BKN100
     FM112100 22026G40KT P6SM BKN100
     FM120200 24035G48KT P6SM BKN045=
KSPI 110542Z 1106/1206 19012KT 6SM -DZ BR OVC006
     FM110700 22012KT 3SM -DZ BR OVC005
      TEMPO 1107/1110 3/4SM BR OVC003
     FM111400 26012G18KT P6SM OVC006
     FM111700 27014G22KT P6SM BKN015
     FM112100 27014KT P6SM SCT250=

0000012500
060
SALV31 EVRA 110550
METAR EVRA 110550Z 27005KT 210V330 9999 SCT010 OVC015 01/M00 Q1001 
R36/290158 NOSIG=

0000011100
061
SALT32 EYVI 110550
METAR EYKA 110550Z 28009KT 240V310 9999 OVC016 01/M02 Q1005
R08/190095=

0000010700
062
SABW31 VGHS 110550
METAR VGHS 110550Z 32003KT 2800 HZ NSC 19/12 Q1016 BECMG S/VIS 3000M=

0000009300
063
SPCN42 CWAO 110549
SPECI CYUA 110549Z AUTO 30020KT 1 1/4SM CLR M25/ A2973=

0000004600
064
SAMX31 KWBC 110545 RRA
NIL=

0000013800
065
SAEO31 EETN 110550
METAR EETN 110550Z 31007KT 290V360 6000 -SN SCT008 OVC012 M01/M02 
Q0998 R08/590295 TEMPO 2000 SN=

0000012200
066
SAEU31 BKPR 110600
BKPR 110600Z 00000KT 0200 R17/0200 FZFG BKN002 M01/M02 Q1024 NOSIG
 RMK 17010095 =

0000017100
067
SAMP31 LMMM 110600
METAR HLLT NIL=
METAR HLLB 110545Z
18005KT 9999 SCT020 BKN080 12/10 Q1026 =
METAR LMML 110545Z 20006KT CAVOK 14/13 Q1022 NOSIG=

0000262400
068
SPUS70 KWBC 110544
SPECI
KARB 110540Z AUTO 16006KT 1 3/4SM -RA BR OVC002 03/03 A2962 RMK
     AO2 P0002=
KCEU 110540Z AUTO 00000KT 2SM -RA BR BKN005 OVC009 09/08 A3005 RMK
     AO2 LTG DSNT SE TSB0459E14 P0024=
KEWB 110540Z AUTO 00000KT 1/2SM R05/2600V3000FT -RA FG FEW002
     SCT011 OVC015 04/04 A3025 RMK AO2 P0002 T00440044=
KFAY 110540Z AUTO 16004KT 1SM BR SCT010 BKN015 OVC040 16/15 A3006
     RMK AO2 P0001 RVRNO=
KGPT 110540Z AUTO 18008G16KT 1/2SM FG VV002 17/16 A2991 RMK AO2
     TSB19E34 T01670161 RVRNO=
KIAH 110540Z 22005KT 10SM SCT012 19/18 A2986 RMK AO2=
KM19 110540Z AUTO 20007KT 1 3/4SM -RA BR BKN080 OVC100 08/08 A2967
     RMK AO2 VIS 1 1/4V4 P0001=
KMGJ 110540Z AUTO 00000KT 1SM BR VV005 00/M01 A3017 RMK AO2
     UPE11B27E34 P0001 T00001006 TSNO=
KOLM 110540Z AUTO 19019G27KT 10SM -RA BKN016 BKN021 OVC050 10/08
     A2968 RMK AO2 PK WND 19030/0457 P0000 T01000078=
KSLK 110540Z AUTO 00000KT 5SM BR SCT012 M03/M04 A3002 RMK AO2=
KVAY 110540Z AUTO 00000KT 1/4SM RA FG VV006 02/02 A3015 RMK AO2
     RAB33 P0002 T00170017=
KNSE 110539Z AUTO 18013G19KT 2SM BR OVC002 20/19 A2996 RMK AO2
     RAE11 P0000 T02000189 $=
KAND 110541Z AUTO 00000KT 1 3/4SM +RA BR OVC004 08/08 A3004 RMK
     AO2 LTG DSNT S TSB0459E14RAB00 P0009=
KAXN 110541Z AUTO 26005KT 2 1/2SM BR BKN001 M07/M08 A2946 RMK
     AO2=
KCPS 110541Z AUTO 22003KT 2 1/2SM BR BKN045 BKN120 06/06 A2956 RMK
     AO2 RAE09 P0000=
KEAU 110541Z AUTO 00000KT 3SM -SN BR BKN039 BKN075 OVC090 M03/M03
     A2946 RMK AO2 P0000 T10281033=
KGSH 110541Z AUTO 18015KT 8SM SCT006 BKN016 BKN023 06/04 A2956 RMK
     AO2 RAE0458 P0000=
KGWO 110541Z AUTO 21012KT 1 3/4SM +RA BR FEW008 SCT016 OVC028
     17/16 A2975 RMK AO2 RAB0457 P0021 T01670161 TSNO=
KHRL 110541Z 20009KT 1 3/4SM BR BKN003 18/18 A2990 RMK AO2=
KMEM 110541Z 23010G18KT 200V270 2SM +RA BR SCT006 SCT012 OVC025
     14/13 A2969 RMK AO2 PRESRR P0015 $=
KMRH 110541Z AUTO 16011KT 2 1/2SM RA BR SCT015 SCT027 OVC034 18/17
     A3010 RMK AO2 RAB15 P0006 T01830172 TSNO=
KPNS 110541Z AUTO 18007KT 1/2SM R17/2600V4500FT RA FG VV002 19/18
     A2996 RMK AO2 RAB40 P0001 T01940183=
KSSF 110541Z AUTO 00000KT 1 3/4SM BR CLR 12/11 A2987 RMK AO2=
KUUU 110541Z AUTO 17004KT 1SM -RA BR SCT002 BKN015 OVC023 07/07
     A3024 RMK AO2 P0000 T00720067=
KVIH 110541Z AUTO 28014KT 9SM BKN006 OVC012 07/06 A2958 RMK AO2
     CIG 004V009 T00670056 $=
PATQ 110541Z AUTO 30004KT 1/2SM HZ OVC006 M24/M27 A2984 RMK AO2
     TSNO=
PATQ 110541Z AUTO 30004KT 1/2SM HZ OVC006 M24/M27 A2984 RMK AO2
     TSNO=

0000009800
069
SPUS31 KWBC 110544
SPECI
KTEB 110540Z 36003KT 2 1/2SM -DZ OVC005 02/00 A3019=

0000013600
070
SPUS41 KWBC 110544
SPECI
KEWB 110540Z AUTO 00000KT 1/2SM R05/2600V3000FT -RA FG FEW002
SCT011 OVC015 04/04 A3025=

0000009100
071
SPUS31 KWBC 110544
SPECI
KIAH 110540Z 22005KT 10SM SCT012 19/18 A2986=

0000010200
072
SPUS42 KWBC 110544
SPECI
KGPT 110540Z AUTO 18008G16KT 1/2SM FG VV002 17/16 A2991=

0000011900
073
SPUS44 KWBC 110544
SPECI
KOLM 110540Z AUTO 19019G27KT 10SM -RA BKN016 BKN021 OVC050 10/08
A2968=

0000117000
074
FTUS31 KWBC 110545
TAF
KBNA 110543Z 1106/1206 19010G20KT P6SM SCT015 OVC035
     FM110800 19015G25KT 4SM -SHRA BR VCTS OVC008CB
      TEMPO 1108/1112 1SM TSRA OVC005CB
     FM111200 26012G25KT P6SM OVC025
     FM111500 27010G20KT P6SM BKN050
     FM120000 28007KT P6SM SCT150=
KJAX 110543Z 1106/1206 16003KT 2SM BR BKN005 OVC010
      TEMPO 1108/1112 1/2SM FG OVC002
     FM111400 20010G18KT P6SM VCSH BKN015 OVC025
     FM111700 24014G23KT 5SM -SHRA OVC015
     FM112000 24016G25KT 4SM SHRA VCTS BKN025CB
     FM120000 25011G16KT 6SM -SHRA SCT025 BKN050=
KORF 110542Z 1106/1206 17012KT P6SM SCT040 BKN100
      TEMPO 1106/1110 2SM RA SCT006 BKN015
     FM111100 19015G22KT 4SM -SHRA BR BKN015 BKN040
     FM111700 20015G27KT P6SM SCT020 BKN070
     FM112200 21015G25KT 3SM SHRA BKN015 BKN040
     FM120300 26012KT 5SM BR BKN050=
KPHF 110542Z 1106/1206 17012KT P6SM SCT040 BKN100
      TEMPO 1106/1110 2SM RA SCT006 BKN015
     FM111100 18014G22KT 4SM -SHRA BR BKN015 BKN040
     FM111700 19015G27KT P6SM SCT020 BKN070
     FM112100 21015G25KT 3SM SHRA BKN015 BKN040
     FM120200 26012KT 5SM BR BKN050=

00000000