0000014500
275
SACN62 CYMX 110900
METAR CYMX 110900Z 05004KT 8SM FEW010 BKN027 BKN050 OVC150 M07/M09
 A2997 RMK SF1SC4SC2AC1 PRESFR SLP156=

0000012500
276
SACN62 CYOW 110900
METAR CYOW 110900Z 07011KT 7SM BKN018 OVC058 M04/M06 A2986 RMK SC5SC3
 PRESFR SLP117=

0000008700
277
SAAG41 SABE 110900
METAR SABE 110900Z  16017G33KT CAVOK 19/06 Q1015=

0000009000
278
SACN51 CWAO 110900
METAR CWVH 110900Z AUTO ///// M29/ A2954 RMK SLP044=

0000009200
279
SACN51 CWAO 110900
METAR CWLI 110900Z AUTO 29018KT M32/ A2952 RMK SLP019=

0000009900
280
SACN45 CWAO 110900
METAR CYHY 110900Z 00000KT 15SM SKC M28/M33 A2962 RMK SLP054=

0000012700
281
SACN46 CWAO 110900
METAR CYYH 110900Z 20013KT 12SM -SN DRSN SCT035 BKN085 M31/M34 A2949
RMK SC4AC1 SLP992=

0000010600
282
SACN47 CWAO 110900
METAR CYRJ 110900Z 07003KT 12SM OVC020 M04/M07 A2996 RMK SC8 SLP159=

0000011900
283
SACN51 CWAO 110900
METAR CWUW 110900Z AUTO 20005KT 6SM OVC019 OVC050 OVC081 M27/ A2925
RMK SLP984=

0000010000
284
SACN52 CWAO 110900
METAR CWFD 110900Z AUTO 20004KT 9SM CLR M22/ A2904 RMK SLP927=

0000011500
285
SACN47 CWAO 110900
METAR CYWA 110900Z AUTO 12008KT 3SM OVC006 M01/M02 A2973 RMK PRESFR
SLP077=

0000009200
286
SACN51 CWAO 110900
METAR CWKW 110900Z AUTO 26038KT M22/ A2941 RMK SLP020=

0000010200
287
SACV20 GVBA 110900
METAR GVBA 110900Z 06004KT 9999 FEW013 BKN015 20/15 Q1016 NOSIG=

0000014700
288
SAGQ21 FGSL 110900
METAR FGBT 110900Z NIL=
METAR FGSL 110900Z 26005KT 230V300 6000 FEW012 FEW020CB BKN130 30/24
Q1013 NOSIG=

0000013300
289
SPUS31 KWBC 110901
SPECI
KATL 110857Z 36005G16KT 1/4SM R09R/4500VP6000FT -TSRA BR SCT003
OVC006CB 10/09 A2990=

0000011600
290
SPUS42 KWBC 110901
SPECI
KFTY 110857Z 14005KT 2 1/2SM RA BR SCT005 BKN010 OVC025 11/10
A2988=

0000012600
291
SACN46 CWAO 110900
METAR CYRB 110900Z 19013KT 8SM -SN DRSN BKN020 BKN070 M33/M36 A2925
RMK SC2AC1 SLP919=

0000009200
292
SASU01 HSSS 110900
METAR HSSS 110900Z 03014KT 8000M SA 21/00 Q1020 NOSIG=

0000013700
293
SACN61 CYPR 110900
METAR CYPR 110900Z AUTO 34002KT 6SM -SN OVC016 01/01 A2888 RMK PRESFR
 PCPN 1.5MM PAST HR SLP780=

0000010600
294
SACN62 CYWG 110900
METAR CYWG 110900Z 29008KT 10SM FEW120 M12/M13 A2952 RMK AC2 SLP013=

00000000