0000008400
195
SAAG41 SADF 110900
METAR SADF 110900Z  16007KT CAVOK 19/08 Q1015=

0000010600
196
SACN45 CWAO 110900
METAR CYFS 110900Z 32004KT 15SM OVC025 M23/M26 A2961 RMK SC8 SLP050=

0000008400
197
SAAG41 SAME 110900
METAR SAME 110900Z  18008KT CAVOK 23/03 Q1017=

0000008400
198
SAAG41 SARI 110900
METAR SARI 110900Z  05005KT CAVOK 23/22 Q1013=

0000013900
199
SASR31 WSSL 110900
METAR WSSL 110900Z 01013KT 9999 VCSH FEW012 SCT017TCU FEW018CB BKN300
29/25 Q1008 RMK 0830Z Q1008 =

0000008900
200
SAJM31 MKJP 110900
METAR MKJP 110900Z 02006KT 9999 FEW024 25/20 Q1015=

0000014700
201
SANO37 ENMI 110850 RRA
METAR ENSD 110850Z 21003KT 140V260 9999 FEW015 BKN040 M01/M05 Q0997
           RMK WIND 1138FT VRBO1KT=

0000010100
202
SANO31 ENMI 110850 RRA
METAR ENOL 110850Z 10019KT 9999 FEW015 M08/M14 Q1002 NOSIG=

0000050600
203
SARH31 LDZM 110900
METAR LDSP 110900Z VRB01KT 9999 FEW060 12/10 Q1024 NOSIG =
METAR LDPL 110900Z 00000KT 8000 BKN055 11/11 Q1022 NOSIG =
METAR LDDU 110900Z 05006KT CAVOK 13/07 Q1024 NOSIG =
METAR LDZA 110900Z 00000KT 0100 R05/0250V0650N R23/0325V0550D FG
VV002 04/04 Q1021 TEMPO 0500 =
METAR LDZD 110900Z 13003KT 100V170 9999 SCT024 BKN060 11/10 Q1023
NOSIG =
METAR LDRI 110900Z VRB01KT 9999 FEW016 SCT033 BKN043 11/10 Q1022=
METAR LDOS 110900Z 18009KT CAVOK 08/05 Q1022=

0000010600
204
SACN61 CYBC 110900
METAR CYBC 110900Z AUTO 29002KT 9SM OVC010 M07/M10 A3009 RMK SLP192=

0000014800
205
SACN61 CYPQ 110900
METAR CYPQ 110900Z AUTO 11003KT 080V140 3SM -RA BR OVC004 02/02 A2968
 RMK PRESFR PCPN 2.0MM PAST HR SLP058=

0000011400
206
SACN61 CYQW 110900
METAR CYQW 110900Z AUTO 33003KT 320V030 9SM CLR M16/M18 A2962 RMK
 SLP072=

0000008400
207
SARM31 LUKK 110900
METAR LUBL 110900Z 26013KT CAVOK 07/M02 Q1018=

0000015300
208
SACN61 CYHE 110900
METAR CYHE 110900Z AUTO 09003KT 4SM RA BR FEW010 BKN028 OVC044 04/03
 A2942 RMK PRESFR PCPN 2.8MM PAST HR SLP963=

0000011600
209
SAMR20 TFFF 110900
METAR TFFF 110900Z AUTO 06012KT 9999 FEW032/// SCT066/// ///TCU
24/20 Q1015=

0000012200
210
SACN61 CYKF 110900
METAR CYKF 110900Z AUTO 15008KT 3/4SM -RA BR VV002 03/02 A2960 RMK
 PRESFR SLP033=

0000009900
211
SACN41 CWAO 110900
METAR CYQH 110900Z 00000KT 10SM SKC M11/M13 A2911 RMK SLP904=

0000012100
212
SACN31 CWAO 110900
METAR CYFB 110900Z 16002KT 15SM BKN038 OVC060 M24/M28 A2962 RMK
SC5SC3 IC SLP034=

0000014400
213
SAZS31 NSTU 110854
METAR NSTU 110852Z 03015KT 10SM SCT017 SCT045 OVC100 28/25 A2974 RMK
SLP073 60001 8/81/ T02800245 53010=

0000014900
214
SACN61 CYZE 110900
METAR CYZE 110900Z AUTO 18012G17KT 4SM -FZRA BR OVC003 03/02 A2944
 RMK ICG PRESFR PCPN 2.8MM PAST HR SLP978=

00000000