0000013600
335
SACN62 CYVR 110900
METAR CYVR 110900Z 08012KT 6SM +RA BR BKN008 OVC012 07/06 A2935 RMK
 SF5NS3 /R20/ PRESFR SLP937=

0000012900
336
SACN62 CYQB 110900
METAR CYQB 110900Z 02004KT 12SM FEW020 BKN035 OVC053 M07/M09 A3009
 RMK SC1SC4SC3 SLP196=

0000011200
337
SACN62 CYVQ 110900
METAR CYVQ 110900Z 30002KT 20SM IC SCT080 M30/M33 A2974 RMK AC3
 SLP082=

0000010600
338
SACN62 CYYY 110900
METAR CYYY 110900Z 17007KT 15SM BKN080 M05/M08 A3010 RMK AC6 SLP196=

0000010600
339
SACN62 CYYG 110900
METAR CYYG 110900Z 24003KT 15SM FEW030 M05/M07 A3026 RMK SC2 SLP250=

0000013400
340
SACN62 CYXX 110900
METAR CYXX 110900Z 36011KT 4SM -RA FEW015 OVC025 04/ A2939 RMK SF1NS7
 DP 3.8 VIA CYXC SLP953=

0000012600
341
SACN62 CYYF 110900
METAR CYYF 110900Z 19026G37KT 15SM -SHRA BKN033 OVC050 05/01 A2947
 RMK SC6SC2 SLP988=

0000034400
342
SASP40 LEMM 110900
METAR LEGA 110900Z 00000KT 8000 FEW005 SCT030 BKN080 10/06
Q1019=
METAR LEGT 110900Z 00000KT 7000 NSC 07/05 Q1019=
METAR LEMO 110900Z 33002KT 8000 NSC 09/09 Q1018
NOSIG=
METAR LERI 110900Z 27001KT 4000 BR -RA OVC030 10/10 Q1019
NOSIG=
METAR LERT 110900Z VRB01KT 7000 FEW015 12/10 Q1018 NOSIG=

0000010600
343
SACN62 CYYC 110900
METAR CYYC 110900Z 16011KT 15SM BKN140 M05/M08 A2946 RMK AC6 SLP024=

0000012800
344
SACN62 CYUY 110900
METAR CYUY 110900Z 13010KT 1 1/4SM -SN VV003 M03/M04 A2959 RMK SN8
 /S03/ PRESFR SLP039=

0000009900
345
SACN62 CYXE 110900
METAR CYXE 110900Z 26009KT 15SM SKC M14/M16 A2961 RMK SLP064=

0000028100
346
SASP41 LEMM 110900
METAR LEAO 110900Z 00000KT 0400 R27/0450N FG BKN001 05/05 Q1019=
METAR LEBT 110900Z NIL=
METAR LECV 110900Z 00000KT CAVOK 06/04 Q1018=
METAR LEEC 110900Z VRB03KT CAVOK 10/08 Q1018=
METAR LELO 110900Z 25003KT 2000 BR OVC006 05/05 Q1020=

0000011200
347
SACN62 CYYQ 110900
METAR CYYQ 110900Z 30005KT 15SM IC SCT080 M26/M28 A2970 RMK AC4
 SLP060=

0000060300
348
SAAP32 FAPR 110900
METAR FABL 110900Z 27003G14KT CAVOK 28/07 Q1020 NOSIG=
METAR FACT 110900Z 18006KT 130V270 CAVOK 22/12 Q1017 NOSIG=
METAR FALE 110900Z 16007KT 9999 SCT030 SCT049 25/18 Q1017 NOSIG=
METAR FAOR 110900Z 01013KT 340V040 CAVOK 25/15 Q1024 NOSIG=
METAR FBSK 110900Z 04010KT 360V070 9999 FEW030 31/13 Q1017 NOSIG=
METAR FDMS 110900Z 00000KT 9999 BKN030 24/11 Q1020 NOSIG=
METAR FQBR 110900Z 14007KT 080V170 9999 FEW020 31/27 Q1012=
METAR FQMA 110900Z 15008KT 9999 BKN025 28/21 Q1016 NOSIG=
METAR FXMM 110900Z 36014KT 9999 SCT040 FEW045TCU 24/12 Q1023 NOSIG=

0000009300
349
SAMC31 GMMC 110900 RRA
METAR GMAD 110900Z 00000KT 9999 SCT020 11/10 Q1018=

0000008700
350
SAMC32 GMMC 110900 RRA
METAR GMMC 110900Z 20004KT CAVOK 13/09 Q1017=

0000029100
351
FTOS32 LOWM 110500 AAC
TAF AMD LOWI 110904Z 1109/1206 27005KT 3000 SCT003 BKN007
    TX08/1114Z TN01/1206Z
    TEMPO 1109/1111 1000 FG BKN004
    BECMG 1112/1114 9999 FEW010 SCT120 BKN300
    BECMG 1118/1120 SCT060 BKN080
    TEMPO 1121/1206 -SHRA SCT040 BKN060=

0000011300
352
SALC31 TLPL 110900
METAR TLPL 110900Z 09020G35KT 9999 -SHRA BKN018 SCT040 22/21 Q1015
NOSIG=

0000010900
353
SPUS41 KWBC 110905
SPECI
KCEF 110902Z AUTO 36003KT 1SM R23/4000FT BR OVC002 00/00 A3010=

0000009800
354
SPUS41 KWBC 110905
SPECI
KGSO 110901Z 36003KT 3/4SM -DZ BR VV002 04/03 A2994=

00000000