0000039100
815
SAAF11 LFPW 110600 RRA
METAR FCPP 110600Z 10004KT 8000 SCT010 BKN023 25/24 Q1011 NOSIG=
METAR FKKD 110600Z 16002KT 1600 BR FEW013 FEW016CB BKN300 25/24 Q1012
      BECMG 0600 FG=
METAR FKKN 110600Z 00000KT CAVOK 12/04 Q1019=
METAR FKKR 110600Z 00000KT CAVOK 16/06 Q1015=
METAR FKYS 110600Z 00000KT 0900 R19/0750V1700U FG FEW003 19/18 Q1017
      BECMG 0500 FG=

0000018500
816
SAAF14 LFPW 110600 RRA
METAR DRRN 110600Z 07011KT 2500 BLDU NSC 20/M01 Q1015 NOSIG=
METAR FEFF 110600Z VRB02KT 4000 BR FEW004 BKN300 19/17 Q1013 TEMPO
      2000=

0000010700
817
SAAF27 LFPW 110600 RRA
METAR DGAA 110600Z 28004KT 230V300 9999 FEW010 26/24 Q1011 NOSIG=

0000010300
818
SPCN43 CWAO 110609
SPECI CWHN 110609Z AUTO 28003KT 230V320 9SM OVC003 M09/M10 A2951=

0000028900
819
SABC40 FBSK 110600
METAR FBSK 110600Z 15007KT 100V180 CAVOK 27/07 Q1017 NOSIG=
METAR FBFT 110600Z /////KT CAVOK 23/18 Q1017=
METAR FBMN 110600Z 03007KT CAVOK 25/19 Q1016=
METAR FBKE 110600Z 05005KT CAVOK 22/19 Q1018=
METAR FBSP 110600Z 00000KT CAVOK 26/21 Q1017=

0000042900
820
SAPO31 LPMG 110600
METAR LPBJ 110600Z VRB02KT 5000 BCFG FEW001 05/04 Q1016=
METAR LPFR 110600Z 03007KT 9999 SCT024 11/08 Q1015=
METAR LPMA 110600Z 34004KT 9999 FEW015 14/12 Q1016 RS33003KT
0535004KT 2335004KT=
METAR LPPR 110600Z 17004KT 130V210 6000 FEW006 07/07 Q1016=
METAR LPPS 110600Z VRB02KT CAVOK 12/11 Q1016=
METAR LPPT 110600Z 32005KT 4500 0500E R21/1000VP2000 PRFG BR FEW001
09/08 Q1016=

0000028400
821
SAPO32 LPMG 110600
METAR LPAZ 110600Z 24017KT 9999 SCT006 BKN032 16/15 Q1006=
METAR LPFL 110600Z NIL=
METAR LPHR 110600Z NIL=
METAR LPLA 110600Z 31017G31KT 9000 -RA SCT016 SCT036 13/12 Q1003=
METAR LPPD 110600Z 24013KT 9999 FEW008 SCT014 BKN035 15/14 Q1004=

0000011600
822
SAAG05 SABM 110600 RRA
METAR SARL 110600Z 27009KT 5000 TSRA SCT015 OVC035 FEW045CB 22/21
Q1009=

0000017000
823
FTCN34 CWAO 110600 AAA
TAF AMD CYGQ 110610Z 1106/1114 VRB03KT 1SM -SN BR OVC006 TEMPO
     1106/1114 3SM -SN BR OVC008
    RMK NXT FCST BY 110800Z=

0000017900
824
FTLY31 HLMC 110600
TAF HLGD 110600Z NIL=
TAF HLKF 110600Z NIL=
TAF HLLB 110600Z NIL=
TAF HLLM 110600Z NIL=
TAF HLLS 110600Z NIL=
TAF HLLT 110600Z NIL=

0000012500
825
SACN62 CYWL 110600
METAR CYWL 110600Z 11018G25KT 10SM BKN015 M03/M04 A2933 RMK SF7 /S04/
 PRESFR SLP972=

0000013500
826
SACN62 CYKA 110600
METAR CYKA 110600Z 10014KT 30SM FEW015 BKN069 OVC100 01/M01 A2958 RMK
 SC1AC5AC2 PRESFR SLP033=

0000095900
827
SARA34 RUMS 110600
METAR UNAA 110600Z 20003MPS 9999 FEW043 BKN076 M03/M08 Q1031 NOSIG
RMK QFE750 20090040=
METAR UNBB 110600Z 23005MPS 9000 -SN BKN033 M08/M10 Q1031 NOSIG RMK
QFE751/1001 24452045=
METAR UNEE 110600Z 19005MPS 3800 -SN OVC011 M08/M10 Q1029 NOSIG RMK
QFE749 23452045=
METAR UNKL 110600Z 25005G08MPS 9999 -SHSN SCT033CB BKN083 M04/M10
Q1027 NOSIG RMK QFE745 29////40=
METAR UNNT 110600Z 21004MPS 5000 -SN BKN026 OVC083 M07/M09 Q1029
25390137 16390142 NOSIG RMK QFE762/1016=
METAR UNOO 110600Z 19005MPS 6000 BKN023CB M08/M10 Q1023 25390137
NOSIG RMK QFE759=
METAR UNTT 110600Z 21006MPS 6000 -SHSN SCT004 BKN016CB OVC066 M07/M09
Q1027 RESHSN NOSIG RMK QBB130 QFE755 21390032=
METAR USTR 110600Z 18004MPS 150V210 9999 BKN021CB M07/M08 Q1013 NOSIG
RMK QFE750/1001 21390050 12750029=
METAR USHH 110600Z 04003MPS 5000 -SN BKN004 OVC080 M19/M21 Q1015
TEMPO 0600 +SN OVC002 RMK QBB120 QFE758 06////40=

0000008700
828
SAAL41 DAMM 110600 RRA
METAR DAAD 110600Z 00000KT CAVOK 06/05 Q1021=

0000113500
829
SARS32 RUMS 110600
METAR URKA 110600Z 29004MPS 9999 SCT018 BKN120 06/03 Q1016 NOSIG RMK
QFE757/1010 SC070=
METAR URKK 110600Z 27008G11MPS 4000 -SHRA FEW011 SCT020CB OVC033
07/06 Q1014 TEMPO 24012G17MPS RMK QFE758 SC065=
METAR URML 110600Z 20002MPS 6000 BKN015 04/02 Q1012 NOSIG RMK
QFE759/1012 SC070=
METAR URMM 110600Z 28007G09MPS 9999 SCT043 BKN220 M02/M03 Q1010
30CLRD70 NOSIG RMK QFE730/0973=
METAR URMN 110600Z 20004MPS 9999 SCT100 OVC260 08/M11 Q1009 NOSIG RMK
QFE720 SC07=
METAR URMO 110600Z 20002MPS 170V230 9999 BKN150 M03/M04 Q1010 NOSIG
RMK QFE714/0952 SC070=
METAR URMT 110600Z 31007G10MPS CAVOK 05/M02 Q1010 NOSIG RMK QFE719
SC0.60=
METAR URRR 110600Z 26006G09MPS 9999 BKN018 BKN100 05/03 Q1008
22290043 NOSIG=
METAR URSS 110600Z 05003MPS 9999 SCT060CB OVC100 06/M02 Q1018 NOSIG
RMK R06/08004MPS QFE762 02000070 06//////=
METAR URWA 110600Z 18004MPS 9999 SCT036 BKN120 03/01 Q1012 NOSIG RMK
QFE761/1015 SC055=
METAR URWI 110600Z 20007G11MPS 9999 BKN048 OVC100 03/00 Q1009 NOSIG=
METAR URWW 110600Z 21011MPS 9999 BKN016CB OVC100 03/02 Q1001 NOSIG
RMK 29290060=

0000071900
830
SARA32 RUMS 110600
METAR UHBB 110600Z 31005MPS 280V350 CAVOK M25/M33 Q1023 NOSIG RMK
QFE749/0999 36410160=
METAR UHHH 110600Z 25007G10MPS 9999 DRSN FEW200 M22/M29 Q1019 NOSIG
RMK QFE758/1010 23090060=
METAR UHMA 110600Z VRB02MPS 9999 FEW200 M14/M21 Q1013 NOSIG RMK
QFE756/1008=
METAR UHMD 110600Z NIL=
METAR UHMM 110600Z 03005MPS 9999 DRSN FEW066 M19/M29 Q1009 NOSIG RMK
QFE742 88820555=
METAR UHPP 110600Z 33002MPS 9999 SCT030 BKN100 M05/M11 Q0995 NOSIG
RMK MT OBSC QFE743/0991 SC05 055 055=
METAR UHSS 110600Z 00000MPS 5000 -SHSN BKN030CB M13/M15 Q1011 NOSIG
RMK QFE757/1010 01810366=
METAR UHWW 110600Z 00000MPS 9999 BKN050 M06/M22 Q1024 NOSIG RMK
QFE767/1022 25CLRD70=

0000036500
831
SARS31 RUMS 110600
METAR ULWC 110600Z NIL=
METAR UUBP 110600Z 26006G09MPS 9000 -RA BKN009 OVC015 02/01 Q0994
16290155 NOSIG=
METAR UUOB 110600Z 25007MPS 9999 -SHRA BKN013CB 03/02 Q0998 29290050
NOSIG=
METAR UUOK 110600Z NIL=
METAR UWGG 110600Z 19005MPS 3400 -SN OVC004 01/00 Q0987 TEMPO 1000
SHSNRA VV004 18691035 RMK QBB140 QFE734=

0000012000
832
SARA35 RUMS 110600
METAR USCM 110600Z VRB02MPS 6000 OVC010 M06/M07 Q1009 NOSIG 19420150
RMK QFE719=

0000012300
833
SARA31 RUMS 110600
METAR UEEE 110600Z 00000MPS 3200 BR OVC200 M43/M47 Q1035 NOSIG RMK
QFE767 23490145=

0000057700
834
SARA36 RUMS 110600
METAR UWUU 110600Z 17003MPS 4000 BR OVC007 M01/M02 Q1007 14620342
TEMPO 1000 SN FZRA BKN003 RMK QBB220 QFE745/0993 MOD ICE INC=
METAR USCC 110600Z 16004MPS 3000 BR FU BKN008 OVC070 M06/M07 Q1010
09490350 TEMPO 1100 BR FU BKN005 RMK QFE737=
METAR USNN 110600Z 05002MPS 6000 -SN OVC038 M13/M15 Q1019 NOSIG RMK
QFE760 03490536=
METAR USRR 110600Z 07002MPS 5000 -SN SCT041 OVC070 M20/M22 Q1018
TEMPO BKN007 RMK OBST OBSC QFE758 07////35=
METAR USSS 110600Z 16002MPS 7000 BKN009 OVC067 M05/M07 Q1009 0829//37
NOSIG RMK QFE737=

00000000