0000065700
807
SILY20 HLMC 111500
AAXX 11154
62002 32960 02410 10200 20010 39495 48557 57011=
62010 32960 02302 10233 20047 40212 56010=
62012 32960 03205 10211 20096 30189 40219 56009=
62120 32970 02110 10225 20159 39669 55004=
62124 32960 21211 10198 20012 39742 40254 52003 83040
  333 83360=
62200 32960 51617 10190 20027 3//// 4//// 5//// 82036
  333 82360 84270=
62271 43/// /0806 10181 20020 39769 40278 55004=
62007 NIL=
62008 NIL=
62014 NIL=
62016 NIL=
62018 NIL=
62019 NIL=
62053 NIL=
62055 NIL=
62056 NIL=
62059 NIL=
62062 NIL=
62103 NIL=
62131 NIL=
62161 NIL=
62176 NIL=
62212 NIL=
62259 NIL=
0000049300
808
SILY20 HLMC 111500 RRB
AAXX 11154
62007 32960 02105 10245 20046 40202 57023=
62008 32960 02410 10180 20127 39413 48552 56010=
62016 32960 01805 10212 20059 40248 57011=
62018 32960 00000 10220 20077 30132 57015=
62053 32560 62605 10165 20090 40254 56003 84550
  333 84625 86358=
62062 32560 62705 10172 20124 40243 56004 82850
  333 82820 84358=
62103 32970 21806 10242 20059 39788 4//// 58020 80001
  333 82070=
62271 32970 00607 10182 20016 40283 58007=
0000044800
809
SILY20 HLMC 111500 RRA
AAXX 11154
62007 32960 02105 10245 20046 40202 57023=
62008 32960 02410 10180 20127 39413 48552 56010=
62016 32960 01805 10212 20059 40248 57011=
62018 32960 00000 10220 20077 30132 57015=
62053 32560 62605 10165 20090 40254 56003 84550
  333 84625 86358=
62062 32560 62705 10172 20124 40243 56004 82850
  333 82820 84358=
62103 32970 21806 10242 20059 39788 4//// 58020 80001
  333 82070=
0000011400
810
SILY20 HLMC 111500 RRB
AAXX 11154
62176 32970 40000 10190 20096 40253 56007 84030
  333 84360=
0000011000
811
UANT01 CWAO 111728
ARP DHK973 5654N03114W 1728 F310 MS57 174/74 KT
GDHLG DDL XXW 111728 F71A
0000011000
812
UANT01 CWAO 111728
ARP AFR474 4438N04238W 1728 F320 MS57 307/46 KT
FGSPN QXT AOW 111728 F34A
0000011000
813
UANT01 CWAO 111728
ARP AFR688 4759N04355W 1728 F350 MS59 295/57 KT
FGSPT QXT AOE 111728 F24A
0000011000
814
UANT01 CWAO 111728
ARP AAL39 4548N04557W 1728 F360 MS58 304/50 KT
N778AN DDL XXN 111728 F38A
0000010900
815
UANT01 CWAO 111728
ARP SWR86 5226N04220W 1728 F370 MS57 285/43 KT
HBJHE QXT AOW 111728 J73A
0000013500
816
SNAA17 LFVW 111700
AAXX 11174
89577 46/// /2005 11314 35904 4//// 5////=
89578 46/// /1003 11309 36970 4//// 5////=
0000016600
817
SSVX13 LFVW 111728
ZZYY 55583 11014 1700/ 344517 175134 6113/
11119 30024 40024 57021
22219 00135
444 20130 11014 1420/ 50101 80110 80056 9/015=
0000011500
818
SNAU02 AMMC 111700 RRA
AAXX 11174
95322 15/// /2005 10278 20072 39667 40037 58017 60003 91730=

0000029300
819
UDAS02 BABJ 111717
AMDAR 1117
DES CNFLWT 2714N 10552E 111714 F226 MS219 262/064 TB/ S//1=
DES CNFLWT 2708N 10555E 111715 F199 MS155 278/051 TB/ S//1=
LVR CNFLWT 2702N 10558E 111716 F187 MS123 284/043 TB/ S//1=
LVR CNFLWT 2702N 10559E 111716 F187 MS123 283/044 TB/ S//1=
0000023100
820
UDAS02 BABJ 111720
AMDAR 1117
DES CNFLWT 2656N 10603E 111717 F168 MS103 283/042 TB/ S//1=
DES CNFLWT 2650N 10608E 111718 F151 MS060 282/040 TB/ S//1=
DES CNFLWT 2646N 10612E 111719 F145 MS066 280/039 TB/ S//1=
0000056200
821
SNVX22 EGRR 111700
BBXX
AMOUK40 1117/ 99643 50654 46/// ///// 11005 21008 49927=
AMOUK01 1117/ 99604 50284 46/// ///// 11013 21011 49959=
AMOUK20 1117/ 99542 50366 46/// ///// 10044 20024 49904=
AMOUK17 1117/ 99134 70914 46/// ///// 10279 20238 40142=
AMOHK01 1117/ 99221 11143 46/// ///// 10159 20136 40232=
TBWUK47 11173 99215 10655 41498 10128 10195 20091 40203 51019 70200
81100 22274 04251 20206 301// 40206 80140=
ZCDG4 11174 99131 70909 41498 10310 10268 20239 40140 52000 70200
81100 22234 00290 20101 330// 40202 80248=
0000029300
822
UDAS02 BABJ 111721
AMDAR 1117
DES CNFNXP 2520N 10319E 111628 F127 MS050 264/029 TB/ S//1=
DES CNFNXP 2518N 10317E 111629 F123 MS039 279/030 TB/ S//1=
DES CNFNXP 2518N 10316E 111629 F123 MS038 279/029 TB/ S//1=
DES CNFNXP 2520N 10314E 111630 F113 MS013 252/031 TB/ S//1=
0000216600
823
SZNZ01 NZKL 111730
CREX++
T000103 A001 D01021 D06025++
-3683144 17478654 AUCT  2014 01 11 17 22 //// 11 07 00 01
05799 3145 05795 3146 05791 3146 05787 3146 05784 3148 05781 3150+
-4402404 -17636748 CHIT  2014 01 11 17 22 //// 11 07 00 01
04674 2002 04678 2010 04679 2015 04662 2002 04647 1991 04658 2005+
-4089929 17623168 CPIT  2014 01 11 17 22 //// 11 07 00 01
03851 2302 03844 2301 03823 2285 03827 2295 03834 2307 03817 2295+
-3618905 17548887 GBIT  2014 01 11 17 22 //// 11 07 00 01
06216 0001 06210 -0002 06212 0004 06219 0015 06220 0019 06212 0015+
-3867541 17802288 GIST  2014 01 11 17 22 //// 11 07 00 01
04118 2744 04103 2733 04106 2741 04094 2734 04091 2735 04086 2736+
-4241288 17370277 KAIT  2014 01 11 17 22 //// 11 07 00 01
03213 2275 03178 2246 03182 2254 03174 2252 03170 2253 03166 2254+
-3755040 17815904 LOTT  2014 01 11 17 22 //// 11 07 00 01
03763 0199 03769 0209 03755 0199 03736 0184 03740 0192 03743 0199+
-3704657 17451175 MNKT  2014 01 11 17 22 //// 11 07 00 01
03197 -0121 03232 -0092 03199 -0130 03215 -0120 03230 -0110 03245 -0101+
-3947566 17692007 NAPT  2014 01 11 17 22 //// 11 07 00 01
03053 2061 03057 2070 03055 2073 03052 2076 03040 2069 03032 2067+
-3441483 17304870 NCPT  2014 01 11 17 22 //// 11 07 00 01
-04406 -9363 -04450 -9406 -04479 -9434 -04486 -9438 -04494 -9445 -04487 -9436+
-4581435 17062939 OTAT  2014 01 11 17 22 //// 11 07 00 01
04115 3504 04110 3504 04106 3504 04101 3504 04099 3505 04095 3506+
-2928002 -17789440 RBCT  2014 01 11 17 22 //// 11 07 00 01
06233 2006 06232 2008 06239 2017 06230 2011 06236 2019 06226 2012+
-2925114 -17790384 RFRT  2014 01 11 17 22 //// 11 07 00 01
03168 0151 03182 0167 03158 0145 03183 0173 03163 0156 03152 0147+
-4357010 17277383 SUMT  2014 01 11 17 23 //// 11 07 00 01
01687 1843 01693 1855 01663 1832 01655 1830 01626 1807 01618 1805+
-3764109 17618118 TAUT  2014 01 11 17 22 //// 11 07 00 01
05495 3995 05491 3996 05487 3995 05482 3993 05480 3994 05472 3990+
-4128448 17477985 WLGT  2014 01 11 17 22 //// 11 07 00 01
02977 2029 02974 2030 02961 2021 02949 2013 02953 2022 02947 2019++
7777
0000011800
824
SNAU02 AMMC 111700 RRB
AAXX 11174
95111 15/// /2306 10256 20223 30025 40058 58013 60023 91730=


0000012400
825
SNAU02 AMMC 111700 RRC
AAXX 11174
94151 17/// /1208 10283 20245 30016 40036 56028 60113 7//44 91730=


0000011800
826
SNAU02 AMMC 111700 RRD
AAXX 11174
94147 15/// /0715 10281 20247 30009 40031 56019 60003 91730=


00000000