0000011900
155
SACN31 CWAO 110900
METAR CYTR 110900Z 14007KT 3SM -RA BR OVC007 03/02 A2975 RMK SF8
PRESFR SLP078=

0000015200
156
SACN31 CWAO 110900
METAR CYZX 110900Z 00000KT 3SM -DZ BR FEW004 OVC010 00/M00 A3029 RMK
SF2SF6 WNDY HILL UNAVBL VIS VRB 2-4 SLP258=

0000011200
157
SACN62 CYBK 110900
METAR CYBK 110900Z 13009KT 3SM -SN BKN025 M29/M32 A2966 RMK SC7
 SLP048=

0000011900
158
SACN62 CYAM 110900
METAR CYAM 110900Z 08003KT 2 1/2SM -RASN BR OVC004 01/00 A2938 RMK
 ST8 SLP959=

0000010600
159
SACN43 CWAO 110900
METAR CYQF 110900Z 16010KT 15SM OVC070 M05/M07 A2946 RMK AC8 SLP024=

0000011500
160
SACN31 CWAO 110900
METAR CYQY 110900Z 26013G19KT 10SM -SN OVC014 M00/M02 A3024 RMK SC8
SLP245=

0000013100
161
SACN46 CWAO 110900
METAR CYGQ 110900Z 20002KT 1 1/2SM -SN BR SCT005 OVC012 M02/M02 A2937
RMK SN1SF3SC4 SLP967=

0000034800
162
FTFR31 LFPW 110500 AAB
TAF AMD LFPG 110832Z 1108/1212 24003KT 4000 BR BKN035 TEMPO 1108/1113
 1500 BR BKN002 PROB40 TEMPO 1108/1112 0600 BCFG BKN001 BECMG
1113/1115 7000 NSW BKN011 BECMG 1115/1117 BKN016 BECMG 1117/1119
01005KT BECMG 1206/1208 3000 BR BKN002 PROB40 TEMPO 1208/1210 0500
BCFG OVC001 TX08/1113Z TN01/1206Z=

0000009100
163
SAMJ41 LWOH 110900
METAR LWOH 110900Z 30001KT 0400 FG VV001 03/02 Q1024=

0000008900
164
SASG20 GOOY 110900
METAR GOOY 110900Z 02008KT CAVOK 20/16 Q1015 NOSIG=

0000010700
165
SALI20 GLRB 110900
METAR GLRB 110900Z 00000KT 9000 BKN013  25/24 Q1012 NOSIG
RMK BRVC=

0000009500
166
SAEG31 HECA 110900
METAR HECA 110900Z 31002KT 3000 HZ NSC 17/07 Q1026 NOSIG=

0000008700
167
SARH32 LDZM 110900
METAR LDLO 110900Z NIL=
METAR LDSB 110900Z NIL=

0000058500
168
SAPR82 SPIM 110900
METAR SPHI 110900Z 18008KT CAVOK 22/20 Q1010 RMK PP000=
METAR SPIM 110900Z 16010KT 9999 OVC006 21/19 Q1010 NOSIG RMK PP000=
METAR SPQT 110900Z 19003KT 8000 SCT008 OVC100 24/23 Q1009
NOSIG RMK PP000=
METAR SPQU 110900Z 36004KT 9999 FEW010 10/09 Q1023 RMK PP000=
METAR SPRU 110900Z 13005KT 8000 BKN004 OVC035 20/18 Q1010 RMK BR
PP000=
METAR SPSO 110900Z /////KT 9999 SCT100 21/18 Q1010 RMK PP000=
METAR SPTN 110900Z 27003KT CAVOK 20/16 Q1009 RMK PP000=
METAR SPZO 110900Z 09004KT 9999 FEW020 SCT040 BKN070 09/07 Q1030 
RMK PP000=

0000025000
169
SAPR76 SPIM 110900
METAR SPCL 110900Z 03003KT 9999 SCT015 BKN060 25/23 Q1010 RMK
PP000=
METAR SPJL 110900Z NIL=
METAR SPJR 110900Z VRB02KT 9999 SCT043 09/09 Q1025 RMK PP000=
METAR SPME 110900Z NIL=
METAR SPST 110900Z NIL=

0000029500
170
SAEQ01 SEQU 110900
METAR SEQM 110900Z 04002KT 9999 VCFG FEW013 BKN020 13/12 Q1024 RMK 
    A3024 NOSIG=
METAR SEGU 110900Z 2200KT 9999 FEW012 BKN026 25/20 Q1009 RMK 
A2980 NOSIG=
METAR SEMT 110900Z NIL=
METAR SELT 110900Z 17004KT 4000 BCFG FEW005 BKN020 11/11 Q1027=

0000012100
171
FCNT31 KWBC 110900
TAF
TAF BGBW 110900Z 1109/1118 07008KT 9999 FEW180
     TEMPO 1116/1118 BKN060=

0000028700
172
SAMX31 KWBC 110845 RRC
METAR
MMGL 110854Z 00000KT 10SM BKN030 12/07 A3019 RMK SLP140 57003 917
     8/500=
MMMY 110840Z 29008KT 8SM SKC 12/11 A2997 RMK SLP158 54001 924
     HZY=
MMPR 110847Z 00000KT 10SM BKN090 18/16 A2996 RMK SLP145 52001 914
     8/030=

0000011300
173
FCEO32 EETN 110500 AAA
TAF AMD EEKA  110900Z 1106/1112 CNL=
TAF EETU  110900Z 1106/1112 CNL=

0000013900
174
FCUK34 EGGY 110800 RRA
TAF EGBE 110859Z 1109/1115 28008KT 9999 FEW040=
TAF EGSC 110859Z 1108/1115 28010KT 9999 FEW040=

00000000