0000009900
335
SPUS41 KWBC 110806
SPECI
KBTV 110802Z 17010KT 10SM SCT009 OVC020 03/M01 A3004=

0000010100
336
SPUS41 KWBC 110806
SPECI
KGSO 110801Z COR 02003KT 2SM -RA BR OVC002 04/03 A2999=

0000012500
337
SPUS44 KWBC 110806
SPECI
KPAE 110802Z AUTO 16014G19KT 2 1/2SM -RA BR FEW004 BKN025 OVC030
09/08 A2955=

0000011900
338
SPUS41 KWBC 110807
SPECI
KCEF 110805Z AUTO 32002KT 1 1/4SM R23/5000FT -RA BR OVC002 00/00
A3014=

0000011700
339
SPUS41 KWBC 110807
SPECI
KHVN 110803Z AUTO 00000KT 1/2SM R02/1800V2400FT FG VV002 03/02
A3014=

0000010500
340
SPUS42 KWBC 110807
SPECI
KFXE 110803Z 14006KT 10SM FEW018 SCT025 SCT055 24/22 A3008=

0000009700
341
SPUS43 KWBC 110807
SPECI
KBTL 110803Z 19013KT 1 3/4SM BR OVC003 04/04 A2951=

0000012000
342
SPUS43 KWBC 110807
SPECI
KBDE 110803Z AUTO 31005KT 3SM -SN BR BKN013 BKN026 OVC034 M03/M04
A2939=

0000004200
343
SABO41 KWBC 110800
NIL=

0000093200
344
SAAK32 KWBC 110800
METAR
PABA 110801Z AUTO 28028G36KT 1/4SM +SN FZFG M23/M26 A2975=
PABI 110753Z AUTO 00000KT 9SM OVC003 M21/M22 A2945=
PACZ 110755Z AUTO 11007G18KT 060V170 10SM BKN042 M06/M10 A2934=
PADK 110756Z AUTO 23032G44KT 7SM BKN017 BKN023 OVC028 03/01
     A2867=
PADL 110756Z 01009KT 10SM OVC005 M07/M09 A2938=
PADQ 110753Z 27006KT 10SM FEW040 SCT250 M06/M08 A2935=
PAEH 110755Z AUTO 14025G32KT 3SM -FZDZ BR BKN003 M01/M02 A2922=
PAFB 110756Z AUTO 00000KT 10SM CLR M34/M38 A2956=
PAGA 110758Z AUTO 00000KT 10SM CLR M34/M37 A2964=
PAIM 110755Z AUTO 21003KT 10SM CLR M21/M26 A2952=
PALU 110755Z AUTO 08005KT 10SM OVC007 M18/M20 A2992=
PASV 110755Z AUTO 05003KT 10SM -SN OVC003 M13/M14 A2929=
PASY 110756Z AUTO 33016KT 10SM FEW018 OVC042 00/M01 A2891=
PATC 110755Z AUTO 02029KT 1 1/4SM BR BKN002 M17/M19 A2968=
PATL 110755Z AUTO 10004KT 10SM FEW250 M19/M21 A2948=
PBTI NIL=

0000057400
345
SABZ41 KWBC 110800
METAR
SBAA NIL=
SBAF NIL=
SBAR 110800Z 10007KT 9999 SCT015 25/20 Q1013=
SBBG NIL=
SBBH NIL=
SBBI NIL=
SBBU NIL=
SBCJ NIL=
SBCO NIL=
SBCR NIL=
SBCT 110800Z 16004KT 9999 TS FEW020 FEW030CB 19/17 Q1018=
SBCV NIL=
SBCY 110800Z 33004KT 9999 FEW020 SCT100 24/21 Q1011=
SBCZ NIL=
SBDN NIL=
SBFL 110800Z 20006KT 9999 BKN040 22/21 Q1012=
SBFN 110800Z 10009KT 9999 SCT021 24/20 Q1012=
SBGO 110800Z 36009KT 9999 -RA VCTS SCT035 FEW040CB BKN080 19/16
     Q1017=
SBGW NIL=
SBHT NIL=
SBIH NIL=
SBIL NIL=

0000045700
346
SABZ43 KWBC 110800
METAR
SBAN NIL=
SBAT NIL=
SBBA NIL=
SBBQ NIL=
SBBW NIL=
SBCC NIL=
SBER NIL=
SBES NIL=
SBGA NIL=
SBIZ NIL=
SBJF NIL=
SBJP NIL=
SBKG NIL=
SBLB NIL=
SBLP NIL=
SBMK NIL=
SBMS NIL=
SBMZ NIL=
SBPB NIL=
SBPJ NIL=
SBPL 110800Z 12008KT 9999 SCT020 24/19 Q1013=
SBPN NIL=
SBQV NIL=
SBRP 110800Z 12004KT CAVOK 20/19 Q1015=
SBTF NIL=
SBTK NIL=
SBUF NIL=
SBUI NIL=
SBUL NIL=

0000081200
347
SABZ42 KWBC 110800
METAR
SBJR NIL=
SBLO 110800Z 04001KT CAVOK 23/20 Q1014=
SBMA 110800Z 29002KT CAVOK 22/22 Q1010=
SBME NIL=
SBMN 110800Z 03004KT 9999 FEWBKN100 22/21 Q1010=
SBMO 110800Z 34003KT 9999 FEW020 21/20 Q1013=
SBMQ 110800Z 03003KT 9999 FEW013 BKN080 24/23 Q1010=
SBMT NIL=
SBPC NIL=
SBPK NIL=
SBPP NIL=
SBPV 110800Z 07005KT 5000 2000S -RA SCT006 BKN012 BKN070 23/22
     Q1010=
SBRB 110800Z 09001KT 9999 FEW020 SCT100 ///// Q1010=
SBRJ 110800Z 02006KT CAVOK 25/22 Q1012=
SBSC NIL=
SBSJ 110800Z 00000KT CAVOK 20/18 Q1015=
SBSM NIL=
SBSP 110800Z 02003KT CAVOK 24/17 Q1017=
SBST NIL=
SBTE 110800Z 32002KT 9999 SCT035 SCT070 24/23 Q1010=
SBTU NIL=
SBUG NIL=
SBUR NIL=
SBVH NIL=
SBVT 110800Z 30001KT 9999 FEW015 23/21 Q1015=
SBYS NIL=

0000046900
348
SACA31 KWBC 110800
METAR
MBJT NIL=
MBPV NIL=
MBSC NIL=
MKJP NIL=
MKJS NIL=
MUCM 110750Z 10006KT 9000 SKC 20/18 Q1018=
MUCU 110751Z 35005KT 9000 FEW020 20/18 Q1016=
MUHA 110755Z 00000KT 7000 SKC 17/16 Q1017=
MUVR 110752Z 09008KT 8000 FEW020 23/21 Q1018=
MWCB NIL=
MWCR NIL=
MYAM NIL=
MYAT NIL=
MYBS NIL=
MYEC NIL=
MYEG NIL=
MYEH NIL=
MYEM NIL=
MYGF NIL=
MYGW NIL=
MYNN 110800Z 12006KT 9999 FEW018 24/21 A3010=

0000084200
349
SACA32 KWBC 110800
METAR
MDLR NIL=
MDPC 110800Z 11008KT 9999 FEW018 25/20 Q1017=
MDPP NIL=
MDSD 110800Z 02005KT 9999 FEW018 20/18 Q1017=
MDST 110800Z 15004KT 9999 SCT015 21/21 Q1018=
MTCH NIL=
MTPP NIL=
TAPA 110800Z 08012KT 9999 FEW018 24/20 Q1016 NOSIG=
TIST 110753Z 09004KT 10SM CLR 23/20 A3004 RMK AO2 SLP173
     T02330200=
TISX 110753Z AUTO 03005KT 10SM BKN080 22/19 A3004 RMK AO2 RAB05E23
     SLP172 P0001 T02220194 TSNO=
TJBQ 110750Z 11007KT 10SM FEW010 SCT040 23/ A3007 RMK RWY08 ATIS
     T=
TJMZ NIL=
TJNR 110753Z AUTO 08007KT 10SM CLR 25/20 A3007 RMK AO2 SLP182
     T02500200 TSNO=
TJPS NIL=
TJSJ 110756Z 14005KT 10SM FEW012 SCT021 SCT043 24/22 A3005 RMK AO2
     RAB07E44 SLP174 P0004 T02390222 $=
TKPK NIL=
TKPN NIL=
TQPF NIL=
TRPM NIL=
TUPJ NIL=
TUPW NIL=

0000052900
350
SACA33 KWBC 110800
METAR
TBPB 110800Z 06020KT 9999 FEW016 24/20 Q1014 NOSIG=
TDPD NIL=
TDPR NIL=
TFFF 110800Z AUTO 01004KT 330V040 9999 SCT048 BKN056 BKN066 23/21
     Q1015=
TFFG NIL=
TFFJ NIL=
TFFR 110800Z AUTO VRB02KT 9999 NSC 21/20 Q1016=
TGPY NIL=
TGPZ NIL=
TLPC NIL=
TLPL 110800Z 08021KT 9999 FEW022 25/21 Q1014 NOSIG=
TNCA 110800Z 09011KT 9999 FEW018 25/22 Q1013 A2993=
TNCB NIL=
TNCC NIL=
TNCE NIL=
TNCM NIL=
TTCP NIL=
TTPP NIL=
TVSM NIL=
TVSU NIL=
TVSV NIL=

0000065500
351
SACA35 KWBC 110800
METAR
MGGI NIL=
MGPB 110800Z 00000KT 9999 FEW016 BKN080 23/22 Q1014 A2994=
MGSJ 110800Z 00000KT CAVOK 22/21 Q1012 A2988=
MHLC 110800Z 00000KT 9999 FEW028 20/19 Q1013 A2991 NOSIG=
MHLM 110800Z 00000KT 9999 FEW026 BKN080 22/22 Q1014 A2994
     NOSIG=
MHTG 110800Z 06003KT 9999 FEW022 17/14 Q1019 A3009 NOSIG=
MNPC NIL=
MPBO NIL=
MPCH NIL=
MPDA NIL=
MPMG NIL=
MPSA NIL=
MPTO 110800Z 00000KT 9999 FEW020 BKN080 24/21 Q1010 NOSIG=
MRLB NIL=
MRLM NIL=
MROC 110800Z 09007KT CAVOK 19/13 A2997 NOSIG=
MRPV NIL=
MSLP 110750Z 04003KT CAVOK 21/18 Q1017 A2987=
MSSS 110750Z NIL=
MZBZ NIL=

0000048700
352
SACA41 KWBC 110800
METAR
MKBK NIL=
MUBA NIL=
MUBY NIL=
MUCA NIL=
MUCL NIL=
MUCM 110750Z 10006KT 9000 SKC 20/18 Q1018=
MUCU 110751Z 35005KT 9000 FEW020 20/18 Q1016=
MUGM 110756Z 34006KT 9999 CLR 22/19 A3002 RMK SLP167 T02170189=
MUGT NIL=
MUHA 110755Z 00000KT 7000 SKC 17/16 Q1017=
MUMO NIL=
MUMZ NIL=
MUNG NIL=
MUVR 110752Z 09008KT 8000 FEW020 23/21 Q1018=
MUVT NIL=
MYEF NIL=
MYSM NIL=
TABS NIL=
TAOA NIL=
TBBI NIL=
TDCF NIL=

0000004200
353
SAHA31 KWBC 110800
NIL=

0000071400
354
SAJP31 KWBC 110800
METAR
RJAA 110800Z 17002KT 9999 FEW030 03/M05 Q1023 NOSIG=
RJAH 110800Z 33005KT 300V360 9999 FEW030 05/M09 Q1022=
RJCC 110800Z 29005KT 9999 FEW020 M07/M16 Q1019=
RJCH 110800Z 31011KT 9999 VCSH FEW005 SCT025 M07/M10 Q1021=
RJFK 110800Z 34007KT 9999 FEW040 BKN050 BKN120 07/M03 Q1027=
RJFT 110800Z VRB02KT 9999 FEW040 SCT060 BKN150 07/M04 Q1027=
RJFU 110800Z VRB01KT 9999 FEW045 BKN060 BKN/// 07/M01 Q1028=
RJNN NIL=
RJOO 110800Z 36007KT 9999 FEW030 SCT060 06/M04 Q1027=
RJSS 110800Z 29008KT 9999 FEW020 01/M06 Q1024=
RJTT 110800Z 12003KT 080V160 9999 FEW025 SCT/// 07/M05 Q1023
     NOSIG=
RODN 110758Z 08010KT 10SM OVC065 18/08 A3027 RMK AO2A SLP253=

00000000