0000009900
975
SPCN51 CWAO 110849
SPECI CWCL 110849Z AUTO 00000KT 2 1/2SM OVC002 M02/M06 A2921=

0000009500
976
SABW31 VGHS 110850
METAR VGHS 110850Z 33008KT 4000 HZ NSC 27/12 Q1013 NOSIG=

0000013500
977
SAEO31 EETN 110850
METAR EETN 110850Z 29005KT 7000 1500E -SN SCT006 BKN011 OVC016 
M01/M02 Q0999 R08/590295 NOSIG=

0000011000
978
SALT32 EYVI 110850
METAR EYKA 110850Z 27010KT 240V300 9999 OVC015 02/00 Q1006
R08/190095=

0000012400
979
SALT34 EYVI 110850
METAR EYSA 110850Z 26008KT 9000 BKN008 OVC015 01/M01 Q1005 
R32R/2///95 R32L/2///95=

0000010300
980
SAMP31 LMMM 110900 RRA
METAR HLLB 110850Z
22005KT 9999 FEW020 BKN080 16/10 Q1027 =

0000034800
981
SASW31 LSSW 110850
METAR LSZH 110850Z 12003KT 080V150 0400 R14/0650D R16/0750D
    R28/0650D R34/0700N FG VV002 02/01 Q1018 NOSIG=
METAR LSGG 110850Z 00000KT 7000 SCT015 BKN190 04/03 Q1020 NOSIG=
METAR LSZB 110850Z 09002KT 3000 BR FEW014 00/00 Q1019 NOSIG=
METAR LSZA 110850Z VRB01KT 9999 SCT039 OVC045 07/06 Q1022 NOSIG=

0000022600
982
SASW39 LSSW 110850
METAR LSMA 110850Z NIL=
METAR LSMD 110850Z NIL=
METAR LSME 110850Z NIL=
METAR LSMM 110850Z NIL=
METAR LSMP 110850Z NIL=
METAR LSMS 110850Z VRB01KT 9999 FEW150 SCT200 01/00 Q1019=

0000009500
983
SAIS32 LLBG 110850
METAR LLBG 110850Z VRB03KT 9999 SCT030 17/11 Q1024 NOSIG=

0000016100
984
SALV32 EVRA 110850
METAR EVLA 110850Z AUTO 21008KT 9999 OVC012 04/03 Q1004=
METAR EVVA 110850Z AUTO 23007KT 200V260 9999 OVC015 03/01 Q1002=

0000253500
985
SPUS70 KWBC 110852
SPECI
KAVL 110848Z AUTO 20004KT 1 3/4SM R34/4000V6000FT -RA BR FEW003
     OVC011 07/07 A2992 RMK AO2 RAE28B47 P0000=
KDAW 110848Z AUTO 01003KT 3/4SM -FZRA BR VV003 M01/M02 A3017 RMK
     AO2 UPB0759E42FZRAB42SNB04E14 P0002 I1002=
KDFI 110848Z AUTO 21005KT 2 1/2SM BR OVC004 06/04 A2955 RMK AO2
     RAE12 P0000=
KFCI 110849Z AUTO 00000KT 1/2SM OVC002 05/00 A3001 RMK AO1
     P0003=
KGVL 110848Z AUTO VRB03KT 5SM BR OVC002 08/07 A2993 RMK AO2 LTG
     DSNT SE AND S TSE07RAE47 P0005=
KHKY 110848Z AUTO 00000KT 1/2SM -RA FG VV005 06/05 A2994 RMK AO2
     RAB0754E17B36 P0001=
KLGA 110848Z 08003KT 3/4SM BR OVC002 02/01 A3007 RMK AO2 SFC VIS 1
     3/4 RAE0757 P0000=
KPGD 110848Z AUTO 14009KT 2SM BR OVC002 22/21 A3006 RMK AO2=
KPWM 110848Z AUTO 00000KT 1 3/4SM UP BR OVC004 M01/M02 A3021 RMK
     AO2 UPB27 P0001=
KSPI 110848Z AUTO 25006KT 3/4SM BR OVC002 03/03 A2950 RMK AO2=
K1M4 110849Z AUTO 25012G15KT 3/4SM +TSRA BR OVC003 14/14 A2974 RMK
     AO2 CIG 001V007 LTG DSNT E-SW P0064=
KAUW 110849Z AUTO 31004KT 2 1/2SM -SN BR BKN034 OVC055 M03/M03
     A2936 RMK AO2 P0000=
KBLF 110849Z AUTO VRB04KT 10SM OVC010 13/10 A2987 RMK AO2 CIG
     008V013=
KBNA 110849Z 17005KT 1 3/4SM +RA BR BKN026 OVC035 12/11 A2968 RMK
     AO2 P0024=
KCEU 110849Z AUTO VRB03KT 5SM RA BR BKN003 OVC010 09/08 A2994 RMK
     AO2 LTG DSNT NE AND S AND NW TSB22E43 P0013=
KCEW 110849Z AUTO 18010KT 1 3/4SM BR OVC002 19/19 A2993 RMK AO2
     RAB04E14 P0000=
KCXY 110849Z AUTO 13003KT 1 1/4SM BR OVC003 01/01 A2999 RMK AO2
     RAE03UPB03E05 P0000=
KFFC 110849Z AUTO 15007KT 5SM VCTS RA BR SCT009 BKN031 OVC080
     15/15 A2987 RMK AO2 LTG DSNT N AND NE TSB03E28 P0035=
KILG 110849Z AUTO 33005KT 1/2SM R01/2600V3500FT -RA FG VV002 04/03
     A3002 RMK AO2 RAB33 P0000=
KLWM 110849Z AUTO 04003KT 1/2SM -RA FG VV004 02/00 A3017 RMK AO2
     P0001=
KMCB 110849Z AUTO 23008KT 3SM RA BR BKN009 BKN013 OVC019 19/19
     A2981 RMK AO2 LTG DSNT ALQDS TSB01E16B17E44 CIG 005V010
     P0014=
KOXB 110849Z AUTO 19007G18KT 140V230 3SM -RA BR SCT003 BKN030
     OVC075 13/12 A3006 RMK AO2 P0016 TSNO=
KSBM 110849Z AUTO 23004KT 1 3/4SM BR OVC004 02/02 A2938 RMK
     AO2=
KSMQ 110849Z AUTO VRB03KT 1 1/4SM -RA BR OVC004 01/01 A3003 RMK
     AO2 RAB22 P0000 TSNO=
KTOI 110849Z AUTO 19009G16KT 10SM OVC007 19/18 A2989 RMK AO2 CIG
     005V011=
KWST 110849Z AUTO 17004KT 5SM BR BKN020 BKN038 OVC070 07/07 A3017
     RMK AO2 RAE43 P0000=

0000009500
986
SPUS31 KWBC 110852
SPECI
KLGA 110848Z 08003KT 3/4SM BR OVC002 02/01 A3007=

0000010900
987
SPUS41 KWBC 110852
SPECI
KCEF 110850Z AUTO 36001KT 1SM R23/4500FT BR OVC002 00/00 A3011=

0000010700
988
SPUS41 KWBC 110852
SPECI
KPWM 110848Z AUTO 00000KT 1 3/4SM UP BR OVC004 M01/M02 A3021=

0000012000
989
SPUS42 KWBC 110852
SPECI
KHSV 110848Z AUTO 21009KT 2SM +TSRA BR FEW024 BKN035 OVC070 14/13
A2971=

0000017600
990
SADN33 EKCH 110850
METAR EKKA 110850Z 22014KT 8000 -DZRA FEW006 BKN010 07/06 Q1002=
METAR EKSP 110850Z 24016KT 6000 -RA FEW007 SCT010 BKN025 07/05
Q1006=

0000071700
991
SASN33 ESWI 110850
METAR ESNG 110850Z AUTO VRB02KT 9999 NCD M25/M28 Q1013=
METAR ESNK 110850Z AUTO 34013KT 4800 IC FEW010/// SCT028/// M10/M13
Q1006=
METAR ESNN 110850Z AUTO 32009KT 3600NDV -SN FEW029/// M10/M12
Q1005 R16/49/79=
METAR ESNO 110850Z AUTO 35011KT 320V040 2100 -SN VV019 M12/M14
Q1005=
METAR ESNQ 110850Z AUTO VRB02KT 1000NDV R03/P1500D R21/P1500D -SN
NCD M23/M26 Q1013=
METAR ESNS 110850Z 35012KT 1500 SN VV008 M14/M16 Q1008=
METAR ESNU 110850Z 35013KT 1000 R14/P1500N R32/P1500N -SN BR VV011
M12/M14 Q1005 R14/49//50=
METAR ESNZ 110850Z 03003KT 360V070 9999 -SN OVC051 M14/M16 Q1004
RESG=
METAR ESUT 110850Z AUTO 17009G22KT 070V240 9999 NCD M12/M22 Q1006=

0000053400
992
SASN34 ESWI 110850
METAR ESCF 110850Z AUTO 21004KT 9000NDV -RA BKN007/// BKN013/// 
OVC017/// 03/03 Q0999 RERA=
METAR ESDF 110850Z 24007KT 200V270 9999 SCT011 BKN017 05/04 Q1004=
METAR ESIB 110850Z AUTO 24010KT 9999NDV SCT017/// OVC022/// 05/04 
Q0999=
METAR ESMV 110850Z NIL=
METAR ESPA 110850Z 01008KT 350V050 CAVOK M16/M20 Q1012=
METAR ESPE 110850Z AUTO 36006KT 9999NDV NCD M17/M21 Q1012=
METAR ESSL 110850Z AUTO 35004KT 270V030 3500NDV +RA FEW004///
SCT006/// BKN013/// 03/02 Q0999 R29/19//95=

0000041900
993
SASN35 ESWI 110850
METAR ESGR 110850Z NIL=
METAR ESKM 110850Z NIL=
METAR ESNL 110850Z AUTO 36009KT 320V040 3100NDV -SN FEW005///
BKN026/// M14/M17 Q1008=
METAR ESNX 110850Z AUTO 02007KT 9999NDV NCD M18/M21 Q1008=
METAR ESNY 110850Z NIL=
METAR ESSF 110850Z NIL=
METAR ESSK 110850Z NIL=
METAR ESUD 110850Z AUTO 01003KT 340V040 9999 SG FEW020/// SCT038///
BKN051/// M15/M18 Q1008 RESG=

0000038600
994
SAMX41 MMMX 110852
METAR MMMX 110850Z 00000KT 10SM SKC 10/05 A3030
      NOSIG RMK SLP122 54000 918 HZY=
METAR MMAA 110845Z 00000KT 8SM SKC 23/21 A2990
      RMK SLP131 57001 908=
METAR MMQT 110843Z 00000KT 6SM SCT020 BKN090 OVC250 12/09 A3027
      RMK 8/538 HZY=
METAR MMTO 110845Z 00000KT 4SM  SCT015 02/00 A3037 
      RMK SLP169 52001 913 8/400 HZ=

00000000