0000011700
135
SPUS41 KWBC 110628
SPECI
KAVP 110624Z AUTO VRB05KT 3SM UP BR FEW008 BKN014 OVC041 03/02
A3003=

0000011000
136
SPUS41 KWBC 110628
SPECI
KHPN 110624Z 10003KT 1/4SM R16/3000V4000FT FG VV002 02/01 A3015=

0000009200
137
SAMJ41 LWOH 110630
METAR LWOH 110630Z 00000KT 0500 FG VV001 00/M01 Q1024=

0000097600
138
SANL33 EHDB 110625
METAR EHAK 110625Z AUTO 34016KT 9999 FEW015/// SCT020/// BKN023///
07/05 Q1005=
METAR EHDV 110625Z AUTO 33021KT 6000 -RA FEW003/// SCT011///
BKN013/// 07/06 Q1007=
METAR EHFD 110625Z AUTO 26020KT 6000 -DZ FEW002/// BKN003///
OVC005/// 07/07 Q1005 REDZ=
METAR EHFZ 110625Z AUTO 23023KT //// // ///////// 08/07 Q1007 RE//=
METAR EHJA 110625Z AUTO 24027KT 3600 -RA FEW002/// BKN003///
BKN005/// 07/07 Q1007=
METAR EHJR 110625Z NIL=
METAR EHKV 110625Z AUTO 25032KT 5000 -SHRA FEW006/// BKN010///
BKN013/// 08/07 Q1009=
METAR EHMA 110625Z AUTO 21022KT 4600 -RA SCT004/// BKN006///
BKN007/// 06/05 Q1009=
METAR EHMG 110625Z AUTO 23024KT 9000 DZ FEW009/// SCT025/// BKN035///
08/07 Q1008=
METAR EHPG 110625Z AUTO ///30KT 8000 -RA SCT006/// SCT007///
BKN009/// 08/07 Q1010=
METAR EHQE 110625Z AUTO 22028KT 9999 DZ FEW009/// SCT024/// BKN027///
08/06 Q////=
METAR EHSA 110625Z NIL=
METAR EHSC 110625Z NIL=

0000025200
139
SADL36 EDZO 110620
METAR ETMN 110620Z 23012KT 4000 -DZRA BR OVC006 06/05 Q1010
      YLO=
METAR ETNL 110620Z 23007KT 6000 BKN010 05/03 Q1011
      GRN=
METAR ETSI 110620Z AUTO 05001KT 1100 // ////// M04/M04 Q1018
      ///=

0000008700
140
SAAF08 LFPW 110600 RRB
METAR GANR 110600Z 36004KT CAVOK 19/04 Q////=

0000012800
141
FCUK35 EGGY 110500 RRA
TAF EGAE 110631Z 1106/1115 24008KT 9999 FEW035 PROB30 TEMPO
    1106/1113 6000 SHRA=

0000028000
142
SACZ31 LKPW 110630
METAR LKKV 110630Z VRB02KT 5000 2000E BR BCFG FEW003 BKN011 M02/M03
Q1016=
METAR LKMT 110630Z 23009KT CAVOK 01/M01 Q1019 NOSIG=
METAR LKPR 110630Z 20007KT CAVOK 01/M01 Q1017 NOSIG=
METAR LKTB 110630Z 15002KT CAVOK M00/M02 Q1020 NOSIG=

0000050100
143
SAYG31 LYBM 110630
METAR LYBE 110630Z 14005KT CAVOK 04/01 Q1023 NOSIG=
METAR LYBT 110630Z 12002KT 5000 BR NSC 01/01 Q1023 TEMPO 3000=
METAR LYKV 110630Z NIL=
METAR LYNI 110630Z 00000KT 8000 SCT040 01/00 Q1024 NOSIG=
METAR LYPG 110630Z 10002KT 9999 BKN040 BKN100 08/07 Q1023 NOSIG=
METAR LYPR 110630Z NIL=
METAR LYTV 110630Z 00000KT 9999 BKN053 09/09 Q1023 NOSIG=
METAR LYUZ 110630Z 29003KT 9999 BKN020 03/03 Q1022=
METAR LYVR 110630Z VRB03KT CAVOK 06/01 Q1023 NOSIG=

0000031600
144
FTUS72 KWBC 110633 AAA
TAF AMD
KMKL 110629Z 1106/1206 27010G22KT 3SM -RA BR OVC005
     FM110700 19010KT 5SM RA BR BKN010 OVC050
     FM111000 22014KT P6SM BKN012 OVC080
     FM111200 26012KT P6SM SCT020
     FM111500 27012G18KT P6SM SCT250
     FM120100 26007KT P6SM SKC AMD NOT SKED=

0000020900
145
FTUS75 KWBC 110633
TAF
TAF AMD PGUA 1106/1208 06012G18KT 9999 SCT020 SCT030 QNH2981INS
      TEMPO 1106/1110 06015G25KT 9000 -SHRA SCT015 BKN025
      TX29/1205Z TN24/1117Z AMD 110630=

0000009700
146
SAIL31 BICC 110630
METAR BIKF 110630Z 27010KT 9999 FEW042 BKN120 01/M03 Q0997=

0000008900
147
FCNO35 ENMI 110500 RRA
TAF ENRM 110500Z 1106/1111 10017KT 9999 FEW020=

0000010600
148
SAGR32 LGAT 110620 RRA
METAR LGRX 110620Z 00000KT 9999 FEW070 SCT170 09/07 Q1023 NOSIG=

0000024800
149
SAIE31 EIDB 110630
METAR EIDW 110630Z 27013KT 9999 SCT007 BKN009 02/01 Q1015 NOSIG=
METAR EINN 110630Z 15005KT 9999 FEW040 02/02 Q1017 NOSIG=
METAR EICK 110630Z 30003KT 9999 FEW016 03/01 Q1017 NOSIG=
METAR EIKN 110630Z NIL=

0000016800
150
FCNO38 ENMI 110500 RRA
TAF ENHM 110500Z 1107/1115 27035KT 9999 FEW015 SCT030 TEMPO 1107/1115
         4000 SHRA BKN012CB PROB30 TEMPO 1112/1115 TS=

0000041900
151
SAPL31 EPWA 110630
METAR EPGD 110630Z 26007KT 230V290 9999 -SHRA FEW013
    FEW015TCU BKN020 04/03 Q1008 =
METAR EPKK 110630Z 24006KT 9999 BKN053 03/00 Q1017 =
METAR EPLL 110630Z 26009KT 9999 SCT019 04/01 Q1015 =
METAR EPPO 110630Z 23008KT 9999 BKN030 03/02 Q1014
    R10/19//95 =
METAR EPRZ 110630Z 27012KT CAVOK 05/M01 Q1017 =
METAR EPWA 110630Z 26013KT 9999 BKN046 05/01 Q1013 NOSIG=

0000040900
152
SAPL32 EPWA 110630
METAR EPBY 110630Z 24009KT 9999 SCT018 05/03 Q1012 =
METAR EPKT 110630Z 21006KT 9999 SCT026 02/M01 Q1017 =
METAR EPLB 110630Z 27014KT CAVOK 05/01 Q1012 =
METAR EPMO 110630Z 25012KT 9999 OVC045 05/02 Q1012=
METAR EPSC 110630Z 22005KT 9999 SCT030 03/02 Q1012 =
METAR EPWR 110630Z 23006KT 9999 FEW045 04/M01 Q1017 =
METAR EPZG 110630Z 23004KT CAVOK 02/01 Q1015 =

0000016300
153
FCNO38 ENMI 110500 RRB
TAF ENSL 110500Z 1107/1115 29032KT 9999 FEW020 SCT040 TEMPO 1107/1115
         SHRA BKN012CB PROB30 TEMPO 1112/1115 TS=

0000020900
154
FTPA31 KWBC 110633
TAF
TAF AMD PGUA 1106/1208 06012G18KT 9999 SCT020 SCT030 QNH2981INS
      TEMPO 1106/1110 06015G25KT 9000 -SHRA SCT015 BKN025
      TX29/1205Z TN24/1117Z AMD 110630=

00000000