0000011200
255
SACN42 CWAO 110900
METAR CYIV 110900Z 00000KT 12SM -SN OVC037 M10/M11 A2941 RMK SC8
SLP978=

0000010400
256
SACN45 CWAO 110900
METAR CYCO 110900Z 26018KT 10SM DRSN SKC M31/M38 A2948 RMK SLP986=

0000010000
257
SACN42 CWAO 110900
METAR CYUA 110900Z AUTO 31017KT 5SM CLR M26/ A2968 RMK SLP061=

0000009200
258
SACN51 CWAO 110900
METAR CWLX 110900Z AUTO 32003KT M26/ A2941 RMK SLP985=

0000034900
259
FTUS51 KWBC 110900 AAA
TAF AMD
KAND 110857Z 1109/1206 VRB04KT 1SM SHRA BR VCTS OVC004CB
      TEMPO 1109/1111 3/4SM +TSRA BR OVC003CB
     FM111100 15006KT 2SM SHRA BR OVC003 WS020/20035KT
     FM111500 20013G21KT 1SM SHRA BR VCTS OVC004CB
     FM111900 24012G18KT P6SM BKN030
     FM112200 25008KT P6SM FEW040 SCT250=

0000014600
260
FTUS52 KWBC 110900 AAA
TAF AMD
KCKV 110859Z 1109/1206 24009KT 4SM -SHRA BR BKN015 OVC070
     FM111000 24009KT P6SM OVC015=

0000041900
261
FTUS53 KWBC 110900 AAA
TAF AMD
KFSD 110858Z 1109/1206 29008KT P6SM SKC
     FM111300 31011KT P6SM OVC015
     FM111700 31013G19KT P6SM SCT015
     FM112200 26008KT P6SM SKC
     FM120200 19012KT P6SM SCT150=
KSBN 110856Z 1109/1206 20011KT 1/2SM -SHRA FG OVC002
      TEMPO 1109/1112 1/4SM FG
     FM111400 25013G20KT 3SM BR VCSH BKN008 OVC015
     FM120100 27011G17KT 5SM BR OVC015=

0000136900
262
FTUS80 KWBC 110900 AAA
TAF AMD
KAND 110857Z 1109/1206 VRB04KT 1SM SHRA BR VCTS OVC004CB
      TEMPO 1109/1111 3/4SM +TSRA BR OVC003CB
     FM111100 15006KT 2SM SHRA BR OVC003 WS020/20035KT
     FM111500 20013G21KT 1SM SHRA BR VCTS OVC004CB
     FM111900 24012G18KT P6SM BKN030
     FM112200 25008KT P6SM FEW040 SCT250=
KCKV 110859Z 1109/1206 24009KT 4SM -SHRA BR BKN015 OVC070
     FM111000 24009KT P6SM OVC015=
KFSD 110858Z 1109/1206 29008KT P6SM SKC
     FM111300 31011KT P6SM OVC015
     FM111700 31013G19KT P6SM SCT015
     FM112200 26008KT P6SM SKC
     FM120200 19012KT P6SM SCT150=
KLAX 110859Z 1109/1212 VRB03KT 4SM BR SCT250
     FM111100 VRB03KT 4SM BR BKN007
     FM111600 VRB03KT 5SM HZ SCT250
     FM111900 26010KT P6SM SCT250
     FM120500 VRB03KT P6SM SCT250
     FM121000 VRB03KT 4SM BR SKC=
KMCO 110859Z 1109/1206 15005KT P6SM FEW005 BKN070
     FM111000 16005KT 5SM BR OVC005
     FM111400 19010G15KT P6SM SCT015 SCT070 BKN150
      TEMPO 1114/1116 BKN015
     FM111600 20018G25KT P6SM SCT025 BKN080
     FM120000 24009KT P6SM SCT025 BKN150=
KPIT 110858Z 1109/1212 15006KT P6SM OVC050 WS020/22045KT
     FM111100 18008KT 4SM -RA OVC025 WS020/22050KT
     FM111300 19008KT 3SM -RA OVC008 WS020/22050KT
     FM111800 23012G24KT P6SM OVC015
     FM120000 26013KT P6SM BKN035=

0000053900
263
FTUS80 KWBC 110900 AAB
TAF AMD
KSBN 110856Z 1109/1206 20011KT 1/2SM -SHRA FG OVC002
      TEMPO 1109/1112 1/4SM FG
     FM111400 25013G20KT 3SM BR VCSH BKN008 OVC015
     FM120100 27011G17KT 5SM BR OVC015=
KTPA 110857Z 1109/1206 VRB04KT P6SM FEW045 BKN130
     FM111000 16005KT 4SM BR BKN007 OVC015
      TEMPO 1111/1114 OVC004
     FM111600 19012G20KT P6SM SCT010 BKN020
     FM111800 22014G22KT P6SM SCT025 BKN150
     FM112200 22010KT P6SM SCT030 BKN150
     FM120400 26008KT P6SM BKN025 OVC050=

0000012100
264
SAGQ20 FGSL 110900
METAR FGSL 110900Z 26005KT 230V300 6000 FEW012 FEW020CB BKN130 30/24
Q1013 NOSIG=

0000009600
265
SACN44 CWAO 110900
METAR CYUS 110900Z AUTO 19011KT CLR M33/ A2951 RMK SLP002=

0000009200
266
SACN51 CWAO 110900
METAR CWUP 110900Z AUTO 24013KT M23/ A2927 RMK SLP962=

0000009200
267
SACN51 CWAO 110900
METAR CWPX 110900Z AUTO 29018KT M32/ A2925 RMK SLP939=

0000011000
268
SAFG20 SOCA 110900
METAR SOCA 110900Z AUTO VRB01KT 9999 BKN002 BKN037 BKN072 22/21
Q1011=

0000011900
269
SACN61 CYNA 110900
METAR CYNA 110900Z AUTO 29010G16KT 9SM BKN020 OVC075 M06/M10 A3005
 RMK SLP176=

0000009100
270
SAAG41 SAEZ 110900
METAR SAEZ 110900Z 15006KT 120V210 CAVOK 15/08 Q1016=

0000010600
271
SACN61 CYMM 110900
METAR CYMM 110900Z AUTO 08005KT 9SM OVC006 M16/M17 A2950 RMK SLP024=

0000012700
272
SACN61 CYLW 110900
METAR CYLW 110900Z AUTO 35006KT 330V030 9SM -RA OVC065 00/M00 A2945
 RMK PRESFR SLP988=

0000010600
273
SACN62 CYMA 110900
METAR CYMA 110900Z 00000KT 20SM OVC030 M23/M26 A2932 RMK SC8 SLP986=

0000008400
274
SAAG41 SACO 110900
METAR SACO 110900Z  16008KT CAVOK 21/13 Q1018=

00000000