0000020300
595
SAAF20 LFPW 110600 RRA
METAR FABL 110600Z AUTO 05005KT //// // ////// 21/11 Q1020=
METAR FAEL 110600Z 24014KT CAVOK 21/12 Q1019=
METAR FAGG 110600Z VRB01KT 9999 SCT016 17/13 Q1018=

0000026300
596
SAAF21 LFPW 110600 RRA
METAR FALA 110600Z 01004KT 310V100 CAVOK 23/15 Q1022 NOSIG=
METAR FAMM 110600Z 15006KT CAVOK 23/08 Q1019 NOSIG=
METAR FAPE 110600Z 26012KT CAVOK 20/13 Q1018 NOSIG=
METAR FAUP 110600Z 17005KT CAVOK 21/06 Q1017 NOSIG=

0000011600
597
SPUS41 KWBC 110607
SPECI
KDOV 110603Z AUTO 10005KT 4SM R01/4500FT HZ FEW070 SCT090 05/
A3009=

0000009700
598
SPUS41 KWBC 110607
SPECI
KRIC 110603Z 02003KT 1 1/4SM BR OVC004 06/04 A3005=

0000012400
599
SPUS41 KWBC 110607
SPECI
KWRI 110604Z AUTO 11004KT 3/4SM R06/1400FT -RA BR BKN019 OVC060
04/04 A3012=

0000009900
600
SPUS42 KWBC 110607
SPECI
KNEW 110603Z AUTO 18013KT 3/4SM BR VV002 19/18 A2990=

0000026500
601
SAIO31 KWBC 110600 RRA
METAR
FMCZ 110604Z VRB03KT 9999 FEW021 BKN300 30/23 Q1014 NOSIG=
FMEE 110600Z 10020KT 9999 FEW026 30/21 Q1015 NOSIG=
FSIA 110600Z 30006KT 9999 FEW014CB BKN016 29/24 Q1012 NOSIG=
VYMD 110600Z NIL=
VYYY 110600Z NIL=

0000013200
602
SACN62 CYVR 110600
METAR CYVR 110600Z 08014G21KT 3SM RA BR BKN011 OVC017 06/05 A2956 RMK
 ST5NS3 PRESFR SLP008=

0000015500
603
SAMC32 GMMC 110600 RRA
METAR GMFK 110600Z 02013KT 9999  SCT026 BKN080 09/05 Q1018=
METAR GMMC 110600Z 20004KT 9999 BKN026 14/09 Q1014=

0000031500
604
SAIY33 LIIB 110600
METAR LIMA 110600Z NIL=
METAR LIMG 110600Z NIL=
METAR LIMP 110550Z VRB01KT 0200 R20/0300N FG VV/// 08/07 Q1023=
METAR LIMS 110555Z 01001KT 0200 R30/0300 R12/0500 FG VV001 08/07
      Q1021=
METAR LIMW 110600Z NIL=
METAR LIMZ 110550Z VRB02KT 9999 BKN035 06/05 Q1021=

0000011300
605
SACN62 CYTS 110600
METAR CYTS 110600Z 15009KT 12SM -SN OVC007 M02/M03 A2964 RMK SC8
 SLP053=

0000026700
606
SAIY34 LIIB 110600
METAR LIPC 110555Z /////KT 1500 BR BKN050 08/06 Q1022=
METAR LIPF 110555Z 00000KT 0800 FG OVC007 05/03 Q1021=
METAR LIPO 110550Z 31005KT 4000 BR BKN040 07/07 Q1022=
METAR LIPY 110550Z 21003KT 6000 FEW005 BKN040 08/08 Q1022=

0000042500
607
SAIY35 LIIB 110600
METAR LIQN 110600Z NIL=
METAR LIQW 110600Z NIL=
METAR LIRG 110600Z NIL=
METAR LIRH 110555Z 10003KT 5000 BR SCT010 BKN015 07/04 Q1022=
METAR LIRL 110555Z 25002KT 9999 SCT030 08/06 Q1022=
METAR LIRM 110555Z 03005KT 3500 BR SCT080 05/04 Q1021=
METAR LIRS 110555Z /////KT 9999 FEW020 05/03 Q1022=
METAR LIRU 110600Z NIL=
METAR LIRV 110555Z 03005KT 0150 FG BKN001 03/02 Q1021=

0000030400
608
SAIY36 LIIB 110600
METAR LIBC 110550Z 33003KT CAVOK 08/08 Q1022=
METAR LIBF 110600Z NIL=
METAR LIBG 110600Z NIL=
METAR LIBP 110550Z 22004KT 8000 NSC 03/00 Q1023=
METAR LIRI 110600Z NIL=
METAR LIRJ 110600Z NIL=
METAR LIRZ 110550Z VRB01KT 0250 R01/0550U FG VV/// 05/05 Q1022=

0000028100
609
SAIY37 LIIB 110600
METAR LICA 110550Z 04010KT CAVOK 09/07 Q1022=
METAR LICD 110550Z 19011KT 9999 BKN030 16/15 Q1021=
METAR LICG 110555Z /////KT CAVOK 15/13 Q1019=
METAR LICR 110550Z 07006KT CAVOK 08/06 Q1022=
METAR LICT 110555Z 13013KT CAVOK 13/11 Q1020=

0000024100
610
SABC40 FBSK 110600
METAR FBFT 110600Z /////KT CAVOK 23/18 Q1017=
METAR FBKE 110600Z 05005KT CAVOK 22/19 Q1018=
METAR FBMN 110600Z 03007KT CAVOK 25/19 Q1016=
METAR FBSK 110600Z 15007KT 100V180 CAVOK 27/07 Q1017 NOSIG=

0000012200
611
SACN31 CWAO 110600
METAR CYTR 110600Z 11006KT 7SM BKN009 OVC140 03/01 A2990 RMK SF6AC2
PRESFR SLP130=

0000009500
612
SAID32 WIII 110600
METAR WIBB 110600Z 36007KT 9999 BKN015 31/23 Q1009 NOSIG=

0000010400
613
SPUS41 KWBC 110605
SPECI
KMSS 110601Z AUTO 05004KT 7SM SCT025 BKN050 M03/M06 A3003=

0000012400
614
SPUS41 KWBC 110605
SPECI
KWRI 110601Z AUTO 11004KT 3/4SM R06/1400FT -RA BR BKN020 OVC060
04/04 A3012=

00000000