0000040400
455
SARA33 RUMS 110900
METAR UIAA 110900Z VRB02MPS 9999 SKC M26/M33 Q1031 NOSIG RMK QFE714
29CLRD70=
METAR UIBB 110900Z 14002MPS 6000 -SHSN SCT020CB BKN200 M17/M19 Q1027
NOSIG RMK QFE727/0969 30490434=
METAR UIII 110900Z 00000MPS CAVOK M13/M15 Q1030 NOSIG RMK QFE730/0973
12820350=
METAR UIUU 110900Z 30002MPS 260V060 9999 SCT100 M20/M23 Q1032 NOSIG
RMK QFE729/0972 26450545=

0000011400
456
SARA31 RUMS 110900
METAR UEEE 110900Z 00000MPS CAVOK M44/M48 Q1036 NOSIG RMK QFE768
23490145=

0000034700
457
SARS31 RUMS 110900
METAR ULWC 110900Z NIL=
METAR UUBP 110900Z 27007G10MPS 9999 OVC020 02/01 Q0997 34290155
NOSIG=
METAR UUOB 110900Z 27007MPS 9999 -SHRA BKN016CB 03/02 Q1000 29290050
NOSIG=
METAR UUOK 110900Z NIL=
METAR UWGG 110900Z 20003MPS 5000 -SN OVC006 01/00 Q0987 TEMPO 1000
SHSNRA VV004 18650537 RMK QFE733=

0000067400
458
SARA32 RUMS 110900
METAR UHBB 110900Z 32003MPS 280V350 CAVOK M26/M33 Q1024 NOSIG RMK
QFE750/1000 36410160=
METAR UHHH 110900Z 23007MPS CAVOK M24/M30 Q1019 NOSIG RMK QFE758/1011
23090060=
METAR UHMA 110900Z 02006G12MPS 9999 DRSN SKC M14/M21 Q1013 NOSIG RMK
QFE756/1008=
METAR UHMD 110900Z NIL=
METAR UHMM 110900Z 14001MPS 9999 SKC M26/M31 Q1010 RMK QFE743=
METAR UHPP 110900Z 01003MPS 9999 SCT030 BKN100 M06/M15 Q0997 NOSIG
RMK QFE744/0992 SC060=
METAR UHSS 110900Z 13002MPS 2200 SHSN VV008 M18/M19 Q1012 NOSIG RMK
MT OBSC QFE758/1011 01810366=
METAR UHWW 110900Z 00000MPS 9999 FEW100 M09/M21 Q1024 NOSIG RMK
QFE767/1023 25CLRD70=

0000116800
459
SARS32 RUMS 110900
METAR URKA 110900Z 26006G09MPS 9999 SCT020 BKN120 07/02 Q1018 NOSIG
RMK QFE758/1011 SC070=
METAR URKK 110900Z 28009G12MPS 9999 SCT021 07/04 Q1016 NOSIG RMK
QFE759 SC060=
METAR URML 110900Z 13002MPS 070V220 6000 BKN016 07/03 Q1009 NOSIG RMK
QFE757/1009 SC070=
METAR URMM 110900Z 31007G09MPS 9999 SCT036 BKN120 05/M00 Q1012
30CLRD70 TEMPO 31012G17MPS RMK QFE731/0975=
METAR URMN 110900Z 32005G08MPS 9999 SCT033 OVC100 10/M06 Q1011 TEMPO
32008G13MPS RMK QFE722 SC07=
METAR URMO 110900Z VRB01MPS 9999 SCT050 BKN150 03/00 Q1010 NOSIG RMK
QFE714/0952 SC070=
METAR URMT 110900Z 31012G15MPS 9999 -SHRA SCT007 BKN016 OVC100 05/03
Q1012 NOSIG RMK QFE720 SC0.50=
METAR URRR 110900Z 25009G13MPS 9999 SCT021 BKN100 05/03 Q1010
22290043 TEMPO 26011G16MPS=
METAR URSS 110900Z 12003G06MPS 6000 -SHRA OVC028CB 09/04 Q1019 NOSIG
RMK R06/13005MPS MT OBSC QFE763 02290055 06//////=
METAR URWA 110900Z 21006G09MPS 9999 OVC019 06/03 Q1011 NOSIG RMK
QFE760/1014 SC055=
METAR URWI 110900Z 26009G13MPS 9999 OVC020CB 05/04 Q1009 NOSIG=
METAR URWW 110900Z 27011G14MPS 9999 BKN026CB 04/02 Q1003 NOSIG RMK
29290060=

0000012000
460
SARA35 RUMS 110900
METAR USCM 110900Z 14003MPS 6000 OVC018 M05/M06 Q1009 NOSIG 19420150
RMK QFE719=

0000102000
461
SARS35 RUMS 110900
METAR USPP 110900Z 15004MPS 7000 OVC009 M03/M03 Q1004 21610145 NOSIG
RMK QFE743/0990=
METAR UWKD 110900Z 15011G14MPS 1600 SNRA OVC005 M00/M00 Q0994
R11/7/0240 NOSIG RMK QFE736/0981=
METAR UWKE 110900Z 18009G12MPS 9999 DRSN OVC007 M02/M03 Q1000 NOSIG
RMK  QFE733/0978 21420542=
METAR COR UWKS 110900Z 16007MPS 1000 R24/1200N SHSN OVC003CB M01/M01
Q0990 TEMPO 0800 +SHSN VV004 RMK QBB110 QFE729 24590532=
METAR UWLW 110900Z 17011G14MPS 5000 -SNRA OVC007 01/00 Q0995 20550345
TEMPO 17015MPS 0500 +SNRA VV002 RMK QFE740=
METAR UWOR 110900Z 25004MPS 9999 OVC010 00/M02 Q1012 25290155 NOSIG
RMK QFE735/0980=
METAR UWOO 110900Z 20005MPS 5000 -SG OVC008 M01/M02 Q1011 26830336
TEMPO 1000 BR OVC003 RMK QFE748/0997=
METAR UWSS 110900Z 19006G09MPS 5000- RASN BR OVC004 01/01 Q0995
12250350 NOSIG RMK QFE735=
METAR UWWW 110900Z 17010G13MPS 1200 R23/1200 SNRA OVC005 00/M01 Q0998
23////45 33//99// TEMPO 16016MPS 0800 +SHSNRA OVC004 SCT010CB RMK
QFE737/0983=

0000059900
462
SARA36 RUMS 110900
METAR UWUU 110900Z 18005G08MPS 140V220 9999 BKN007 OVC014 M01/M03
Q1007 14620342 TEMPO 1000 SN FZRA BKN003 RMK QBB220 QFE745/0993 MOD
ICE INC=
METAR USCC 110900Z 15005MPS 5000 BR FU BKN023 OVC070 M05/M07 Q1011
09490350 TEMPO 1100 BR FU BKN005 RMK QFE737=
METAR USNN 110900Z 06002MPS 1600 SN OVC020 M10/M12 Q1018 NOSIG RMK
QFE760 03491034=
METAR USRR 110900Z 08003MPS 2400 -SN OVC023 M17/M19 Q1017 RESN TEMPO
1500 SN BKN007 RMK OBST OBSC QFE758 07////35=
METAR USSS 110900Z 14004MPS 7000 BKN008 OVC027 M04/M07 Q1009 0829//37
NOSIG RMK QFE737=

0000065200
463
SARS33 RUMS 110900
METAR ULLI 110900Z 31007MPS 9999 DRSN BKN011 OVC013 M05/M07 Q0996
88510545 NOSIG=
METAR UUBW 110900Z 23004MPS 9999 BKN011 03/01 Q0986 NOSIG=
METAR UUDD 110900Z 25004MPS 220V290 8000 -SHRA BKN007 BKN016CB 03/02
Q0986 32290095 82290095 NOSIG=
METAR UUDL 110900Z 18002MPS 7000 -SNRA BKN004 OVC016 02/01 Q0984
NOSIG RMK QBB140 QFE730 23690532=
METAR UUEE 110900Z 24005MPS 9999 -RA OVC006 02/01 Q0985 25290151
75290151 NOSIG=
METAR UUWW 110900Z 25006MPS 9999 -RA BKN006 OVC016 02/01 Q0986
24290045 NOSIG=
METAR UUMO 110900Z 26005MPS 9999 BKN008 OVC016 02/02 Q0986 NOSIG RMK
QFE725/0966 26250550=

0000073100
464
SARS36 RUMS 110900
METAR ULAA 110900Z 07008G11MPS 040V100 4500 -SN BLSN OVC008 M16/M19
Q1000 BECMG 2000 SN BLSN OVC005 RMK QFE749/0998 SC050=
METAR ULMM 110900Z 00000MPS 9000 NSC M35/M39 Q1018 NOSIG RMK QFE756
31450239=
METAR ULOO 110900Z 30006MPS P6000 SCT010CB OVC016 M00/M01 Q0997 NOSIG
RMK QFE743=
METAR ULPB 110900Z 35005MPS 3000 -SN BKN010 BKN066 M13/M14 Q0994
NOSIG RMK QFE741/0989=
METAR UMKK 110900Z 27006MPS 240V300 9999 BKN014CB OVC100 06/03 Q1008
R24/29//60 NOSIG RMK QFE755/1006=
METAR UUOO 110900Z 26007G11MPS 9999 -RA OVC008 03/01 Q0995 NOSIG RMK
30290250=
METAR UUYY 110900Z 04003G06MPS 2200 -SHSN BKN008 OVC013CB M09/M11
Q0999 TEMPO 0700 +SHSN 01490535 RMK QFE740/0987=

0000008900
465
SAIE32 EIDB 110900 RRA
METAR EIWF 110900Z VRB01KT CAVOK M00/M01 Q1019=

0000010000
466
SAIE32 EIDB 110900 RRB
METAR EIDL 110900Z 00000KT 9999 FEW042 BKN057 03/00 Q1016=

0000073100
467
SATH32 VTBB 110900
METAR VTSB 110900Z 03015KT 9999 SCT020 BKN120 OVC300 29/25 Q1011
A2985 INFO J / RWY 04=
METAR VTSC 110900Z 23003KT 3000 -RA SCT016 BKN040 OVC100
           24/23 Q1011 A2988 RWY02 INFO H=
METAR VTSF 110900Z 27004KT 240V320 9999 FEW018 SCT022 BKN300
26/24 Q1011 A2987 INFO J / RWY 19=
METAR VTSG 110900Z 06007KT 9999 FEW020 SCT300 31/19 Q1010
A2984 INFO S RWY32=
METAR VTSH 110900Z NIL=
METAR VTSM 110900Z 12012KT 7000 -RA FEW018TCU SCT120 BKN300 29/23
Q1012 A2990 TCU OVER AD=
METAR VTSM 110900Z 12012KT 7000 -RA FEW018CB SCT120 BKN300 29/23 
Q1012 A2990 TCU OVER AD=
METAR VTSR 110900Z NIL=
METAR VTST 110900Z 06011KT 9999 FEW020 BKN300 31/20 Q1009 RWY08
INFO J=

0000008800
468
SAAL41 DAMM 110900 RRA
METAR DAUI 110900Z 10008KT CAVOK 17/M02 Q1020=

0000010000
469
SAAL40 DAMM 110900 RRA
METAR DAOO 110900Z 20002KT 9999 SCT030 SCT233 15/11 Q1018=

0000010000
470
SAAL31 DAAA 110900 RRA
METAR DAOO 110900Z 20002KT 9999 SCT030 SCT233 15/11 Q1018=

0000016500
471
SATH41 VTBB 110900
METAR VTPB 110900Z NIL=
METAR VTPM 110900Z NIL=
METAR VTSE 110900Z NIL=
METAR VTSK 110900Z NIL=
METAR VTUJ 110900Z NIL=

0000221100
472
SPUS70 KWBC 110908
SPECI
KBIV 110904Z AUTO 21015KT 3SM BR OVC004 06/05 A2944 RMK AO2
     T00610050=
KBNA 110904Z 17005KT 2SM +RA BR BKN026 BKN032 OVC040 12/11 A2967
     RMK AO2 P0009=
KBOK 110904Z AUTO 16011KT 3/4SM BR OVC002 10/10 A3006 RMK AO2
     $=
KBWI 110904Z 00000KT 3/4SM R10/4500VP6000FT BR FEW003 BKN009
     OVC012 02/02 A2999 RMK AO2 RAE0859 P0000=
KCEU 110904Z AUTO 29005KT 1 3/4SM VCTS +RA BR BKN004 OVC010 09/07
     A2996 RMK AO2 LTG DSNT N AND NE AND S P0011=
KECP 110904Z AUTO 14009KT 7SM -RA OVC006 19/18 A2996 RMK AO2 RAB04
     CIG 003V011 P0000 $=
KGRD 110904Z AUTO 00000KT 1/4SM FG VV002 08/07 A2994 RMK AO2=
KHQM 110904Z AUTO 17033G50KT 1 1/2SM -SN OVC015 A2951 RMK AO2 PK
     WND 17050/0902 P0004 TSNO $=
KINT 110904Z AUTO 00000KT 3/4SM BR VV002 04/04 A2996 RMK AO2=
KIXD 110904Z AUTO 29011KT 3SM BR BKN004 OVC010 01/00 A2971 RMK AO2
     T00060000=
KMVY 110904Z AUTO 19007KT 7SM SCT002 BKN060 OVC075 08/07 A3019 RMK
     AO2 $=
KOMK 110904Z AUTO 18011KT 10SM OVC028 05/00 A2958 RMK AO2=
KOSU 110904Z AUTO 16010KT 5SM -RA BR FEW005 BKN075 OVC090 09/08
     A2963 RMK AO2 P0001 T00890083=
KRUE 110904Z AUTO 00000KT 2 1/2SM BR CLR 01/M01 A2976 RMK AO2=
PAGK 110904Z AUTO 33006KT 3SM BR FEW026 BKN080 OVC100 M13/M15
     A2922 RMK AO2 SNE0857 P0000 T11281150 TSNO=
KNFE 110905Z AUTO 14006KT 10SM BKN010 OVC015 18/16 A3004 RMK AO2
     RAE00 P0000 T01830156=
KARA 110905Z AUTO 24008G18KT 3SM -TSRA BR FEW002 OVC019 19/18
     A2986 RMK AO2 LTG DSNT ALQDS P0010 $=
KBAF 110905Z 04003KT 1 3/4SM -RA BR OVC004 01/M01 A3010 RMK AO2
     P0000 T00061006=
KCSV 110905Z AUTO 18010G18KT 10SM -RA OVC004 12/11 A2972 RMK AO2
     LTG DSNT ALQDS TSE05 P0000=
KEKQ 110905Z AUTO 30018G23KT 3/4SM +RA BR FEW001 SCT011 OVC019
     14/13 A2971 RMK AO2 LTG DSNT NE AND SW P0021 WSHFT 0847
     PRESRR=
KHIO 110905Z AUTO 18014G21KT 10SM BKN026 BKN042 OVC050 12/07 A2970
     RMK AO2 T01220072=
KPGD 110905Z AUTO 14011KT 3SM BR OVC002 22/21 A3006 RMK AO2
     T02220211=
KRDG 110905Z 00000KT 3SM -RA BR OVC003 02/01 A2999 RMK AO2
     P0000=
KTYR 110905Z 00000KT 1 3/4SM BR CLR 09/09 A2987 RMK AO2=

0000011100
473
SPUS31 KWBC 110908
SPECI
KBNA 110904Z 17005KT 2SM +RA BR BKN026 BKN032 OVC040 12/11 A2967=

0000012800
474
SPUS31 KWBC 110908
SPECI
KBWI 110904Z 00000KT 3/4SM R10/4500VP6000FT BR FEW003 BKN009
OVC012 02/02 A2999=

00000000