0000216500
235
SZNZ01 NZKL 111718
CREX++
T000103 A001 D01021 D06025++
-3683144 17478654 AUCT  2014 01 11 17 10 //// 11 07 00 01
05838 3133 05835 3134 05832 3135 05829 3136 05826 3137 05823 3138+
-4402404 -17636748 CHIT  2014 01 11 17 10 //// 11 07 00 01
04719 2002 04717 2004 04716 2007 04711 2006 04734 2033 04708 2011+
-4089929 17623168 CPIT  2014 01 11 17 10 //// 11 07 00 01
03896 2286 03897 2292 03887 2287 03856 2261 03850 2261 03848 2263+
-3618905 17548887 GBIT  2014 01 11 17 10 //// 11 07 00 01
06272 0016 06266 0013 06257 0007 06258 0012 06256 0013 06253 0013+
-3867541 17802288 GIST  2014 01 11 17 10 //// 11 07 00 01
04152 2722 04139 2713 04135 2713 04136 2719 04136 2723 04132 2724+
-4241288 17370277 KAIT  2014 01 11 17 10 //// 11 07 00 01
03244 2244 03230 2235 03233 2244 03237 2253 03233 2254 03232 2258+
-3755040 17815904 LOTT  2014 01 11 17 10 //// 11 07 00 01
03813 0203 03802 0196 03809 0206 03799 0200 03790 0195 03795 0204+
-3704657 17451175 MNKT  2014 01 11 17 10 //// 11 07 00 01
03166 -0082 03165 -0088 03171 -0089 03171 -0095 03166 -0106 03165 -0112+
-3947566 17692007 NAPT  2014 01 11 17 10 //// 11 07 00 01
03102 2047 03085 2035 03075 2030 03050 2011 03044 2010 03052 2023+
-3441483 17304870 NCPT  2014 01 11 17 10 //// 11 07 00 01
-04472 -9445 -04536 -9508 -04543 -9514 -04510 -9479 -04464 -9432 -04526 -9493+
-4581435 17062939 OTAT  2014 01 11 17 10 //// 11 07 00 01
04171 3503 04166 3504 04163 3505 04158 3505 04153 3505 04150 3506+
-2928002 -17789440 RBCT  2014 01 11 17 10 //// 11 07 00 01
06252 1997 06254 2002 06254 2004 06261 2013 06260 2014 06234 1991+
-2925114 -17790384 RFRT  2014 01 11 17 10 //// 11 07 00 01
03187 0141 03177 0134 03198 0157 03210 0171 03178 0141 03197 0162+
-4357010 17277383 SUMT  2014 01 11 17 10 //// 11 07 00 01
01845 1918 01833 1913 01826 1912 01810 1903 01783 1883 01773 1879+
-3764109 17618118 TAUT  2014 01 11 17 10 //// 11 07 00 01
05528 3991 05529 3995 05524 3993 05518 3990 05514 3989 05511 3989+
-4128448 17477985 WLGT  2014 01 11 17 10 //// 11 07 00 01
03022 2024 03025 2031 03012 2021 03014 2028 03009 2028 03018 2041++
7777
0000021000
236
SZSR01 WSSS 111718
CREX++
T000103 A001 D01021 D06025++
0126166 10385160 00044 2014 01 11 16 36 //// 11 07 00 06
01818 -0082 01808 -0072 01800 -0070 01795 -0065 01781 -0069 01771 -0069++
7777
0000164800
237
SASA85 EGRR 111700 RRE
METAR SABE 111700Z 14017KT CAVOK 24/03 Q1019=
METAR SARF 111700Z 18012KT 4000 -TSRA BKN008 SCT020 BKN050 FEW050CB
      20/19 Q1016 RERA=
METAR SARP 111700Z 16005KT 9999 SCT020 OVC100 24/19 Q1015=
METAR SBRP 111700Z 03005KT 9999 SCT045 28/20 Q1015=
METAR SKBG 111700Z VRB02KT 9999 FEW020 26/17 A2999=
METAR SKBG 111700Z VRB02KT 9999 FEW020 26/17 A2999=
METAR SKBQ 111700Z 12006KT 9999 FEW020 32/23 A2987=
METAR SKBQ 111700Z 12006KT 9999 FEW020 32/23 A2987=
METAR SKCG 111700Z 31008KT 9999 FEW018 30/23 A2986=
METAR SKCG 111700Z 31008KT 9999 FEW018 30/23 A2986=
METAR SKCL 111700Z 27003KT 7000 SCT015 BKN090 25/21 A3000 RMK HZ=
METAR SKLT 111700Z VRB02KT 3000 -RA BKN007 BKN080 25/24 A2994 RMK AD
      OPR IMC=
METAR SKLT 111700Z VRB02KT 3000 -RA BKN007 BKN080 25/24 A2994 RMK AD
      OPR IMC=
METAR SKPE 111700Z 27003KT 9999 SCT017 TCU SCT090 24/18 A3010 RMK TCUE/S=
METAR SKPE 111700Z 27003KT 9999 SCT017TCU SCT090 24/18 A3010 RMK TCU/E/S=
METAR SKRG 111700Z 09008KT 9999 SCT017 20/13 A3028=
METAR SKSM 111700Z 24004KT 9999 FEW020 30/24 A2986=
METAR SKSP 111700Z 09014KT 9999 FEW020 28/23 A2994=
METAR SLCO 111700Z 36010KT 3000 -RA FEW006 SCT020 FEW023CB OVC080 23/23
      Q1013=
METAR SLET 111700Z 31015KT 9999 BKN017 31/23 Q1011=
METAR SLPS 111700Z 36008KT 9999 BKN020 34/23 Q1009=
METAR SLSU 111700Z 10004KT 9999 SCT023 21/10 Q1030=
METAR SLTJ 111700Z 18012KT 9999 FEW030TCU FEW033CB BKN200 26/16 Q1018=
METAR SLTR 111700Z 34007KT 9999 FEW017 BKN080 30/24 Q1012=
METAR SPIM 111705Z 16011KT 130V190 9999 FEW017 25/19 Q1012 NOSIG RMK
      PP000=
0000167900
238
SASA85 EGRR 111700 RRF
METAR SAAR 111700Z 09008KT CAVOK 27/09 Q1019=
METAR SANT 111700Z 23005KT 9999 RERA SCT045 BKN100 22/20 Q1021=
METAR SARC 111700Z 05008KT 8000 -RA FEW012 OVC040 20/19 Q1015=
METAR SARE 111700Z 09007KT 5000 TSRA FEW004 SCT030 OVC040 FEW056CB
      20/20 Q1015=
METAR SARL 111700Z 16004KT 9999 FEW008 BKN100 OVC200 25/20 Q1014=
METAR SASJ 111700Z 16028G40KT 7000 TS SCT025 BKN035 FEW040CB 22/18
      Q1017=
METAR SAVE 111700Z 23007KT CAVOK 22/03 Q1019=
METAR SAWH 111700Z 34010KT 9999 BKN040 OVC100 10/06 Q1000=
METAR SAZM 111700Z 18015KT 9999 FEW020 19/07 Q1022=
METAR SAZN 111700Z 05002KT CAVOK 28/04 Q1018=
METAR SBAT 111700Z 00000KT 9999 SCT025 29/23 Q1014=
METAR SBCC 111700Z 03006KT 9999 SCT030 29/19 Q1015=
METAR SBCO 111700Z 31014KT 8000 -TSRA BKN035 FEW040CB BKN100 27///
      Q1014=
METAR SBHT 111700Z 08002KT 9999 SCT012 BKN100 27/25 Q1012=
METAR SBIH 111700Z 06003KT 9999 SCT017 BKN100 30/24 Q1012=
METAR SBIL 111700Z 12007KT 9999 SCT030 29/23 Q1015=
METAR SBIZ 111700Z 07003KT 9999 BKN020 32/21 Q1010=
METAR SBKG 111700Z 16009KT 9999 SCT025 BKN080 26/21 Q1014=
METAR SBMS 111700Z 04015KT 9999 SCT030 34/22 Q1009=
METAR SBTC 111700Z 15002KT 9999 FEW015 BKN060 32/23 Q1015=
METAR SBTK 111700Z 33008KT 9999 BKN020 BKN100 27/24 Q1013=
METAR SBTU 111700Z 02002KT 9999 SCT015 BKN020 BKN070 28/24 Q1013=
METAR SBVH 111700Z 01008KT 9999 BKN018 28/21 Q1015=
METAR SKCL 111700Z 27003KT 7000 SCT015 BKN090 25/21 A3000 RMK HZ=
METAR SKRG 111700Z 09008KT 9999 SCT017 20/13 A3028=
METAR SKSM 111700Z 24004KT 9999 FEW020 30/24 A2986=
METAR SKSP 111700Z 09014KT 9999 FEW020 28/23 A2994=
0000128700
239
FTSA85 EGRR 111714 RRB
TAF SAAR 111700Z 1118/1218 11010KT CAVOK TX29/1118Z TN12/1209Z=
TAF SABE 111700Z 1118/1218 14015KT CAVOK TX24/1218Z TN16/1210Z
     BECMG 1206/1208 09010KT=
TAF SACO 111700Z 1118/1218 14010KT CAVOK TX30/1118Z TN14/1210Z
     PROB30 TEMPO 1118/1122 11010KT 9999 SCT030
     BECMG 1210/1212 05010KT=
TAF SANT 111700Z 1118/1218 18010KT 8000 VCTS SCT010 BKN040 FEW045CB
     TX29/1218Z TN21/1210Z
     BECMG 1120/1122 20010KT 9999 BKN030=
TAF SASA 111700Z 1118/1218 18010KT 2000 TSRA BKN010 OVC030 SCT030CB
     TX29/1118Z TN18/1210Z
     BECMG 1206/1208 18010KT 9999 BKN020=
TAF SASJ 111700Z 1118/1218 11010KT 9999 SCT015 BKN030 FEW030CB
     TX32/1118Z TN20/1210Z
     BECMG 1118/1120 18010KT 2000 TSRA BKN010 OVC030 SCT030CB
     BECMG 1206/1208 18010KT 9999 BKN020=
TAF SAZN 111700Z 1118/1218 02015KT CAVOK TX34/1218Z TN20/1209Z
     BECMG 1212/1214 02020G30KT=
TAF SAZS 111700Z 1118/1218 00000KT CAVOK TX30/1218Z TN10/1210Z=
TAF SOCA 111700Z 1118/1218 07010KT 9999 SCT012 BKN050
     TEMPO 1118/1218 3000 RA SCT003 BKN012 OVC035
     PROB40 TEMPO 1202/1210 07015G25KT 1000 +RA SCT010TCU
     BECMG 1121/1124 VRB03KT
     BECMG 1211/1213 09010KT
     PROB30 TEMPO 1215/1218 1000 TSRA FEW010CB BKN015=
0000153300
240
SASA85 EGRR 111700 RRG
METAR SAWE 111700Z 29017KT 9999 SCT029 15/11 Q1003=
METAR SBAF 111700Z 05007KT 9999 FEW025 38/19 Q1012=
METAR COR SBAN 111700Z 36003KT 9999 TS VCSH BKN030 FEW035CB SCT090
      23/17 Q1020=
METAR SBBH 111700Z 03006KT 9999 SCT045 32/16 Q1019=
METAR SBBI 111700Z 15002KT 9999 BKN020 FEW025TCU 28/20 Q1018 RETS=
METAR SBBQ 111700Z 02006KT 9999 SCT040 FEW045TCU 29/15 Q1022=
METAR SBBU 111700Z 31012KT 9999 SCT045 34/21 Q1015=
METAR SBBW 111700Z 09004KT 9999 SCT020 FEW025TCU 32/20 Q1014=
METAR SBDN 111700Z 06006KT 9999 FEW040 FEW050TCU 34/14 Q1013=
METAR SBGW 111700Z 04005KT 9999 BKN025 FEW030TCU 32/17 Q1015=
METAR SBJF 111700Z 03010KT 9999 BKN018 30/20 Q1019=
METAR SBJR 111700Z 16006KT 9999 FEW030 36/23 Q1012=
METAR SBME 111700Z 08013KT CAVOK 31/22 Q1013=
METAR SBMK 111700Z 07009KT 9999 SCT040 BKN050 29/17 Q1018=
METAR SBMT 111700Z 35004KT 9999 BKN040 32/17 Q1016=
METAR SBPA 111700Z 30014KT 9999 -RA SCT037 FEW040TCU BKN100 26/23 Q1014=
METAR SBPC 111700Z 04007KT 9999 TS SCT020 FEW020CB 30/19 Q1021=
METAR SBSC 111700Z 02016KT CAVOK 36/20 Q1011=
METAR SBSM 111700Z 05002KT 9999 SCT020 FEW030TCU BKN100 25/20 Q1013=
METAR SBST 111700Z 19008KT 9999 SCT022 32/24 Q1011=
METAR SBUL 111700Z 36004KT 9999 SCT045 29/16 Q1019=
METAR SBUR 111700Z 01005KT 9999 BKN045 30/16 Q1017=
METAR SBYS 111700Z 35007KT 9999 BKN045 FEW050TCU BKN100 31/18 Q1016=
METAR SVCB 111700Z 07010KT 9999 SCT013 30/// Q1012=
METAR SVST 111700Z 00000KT CAVOK ///// Q1016=
0000010400
241
SASA85 EGRR 111500 RRK
METAR COR SBCG 111500Z 27005KT 9999 FEW045 FEW050TCU 30/19 Q1017=
0000010200
242
SNVX19 LFVW 111600 RRB
BBXX
MINUK05 1116/ 99602 70009 46/// ///// 10065 40032 52010=
0000010200
243
SNVX19 LFVW 111700 RRA
BBXX
MINUK01 1117/ 99571 70021 46/// ///// 10055 40144 52021=
0000010800
244
UANT99 KDDL 111715
ARP THY7 5301N01924W 1716 F380 MS59 212/68 KT
TCJNK QXT AOE 111716 J19A
0000011000
245
UANT99 KDDL 111716
ARP UAL44 5346N04436W 1716 F370 MS57 288/56 KT
N19141 DDL IG1 111716 F82A
0000011000
246
UANT99 KDDL 111716
ARP BAW205 5006N02252W 1716 F380 MS49 190/64 KT
GRAES QXT AOE 111716 F15A
0000011000
247
UANT99 KDDL 111716
ARP FDX32 5604N02421W 1716 F350 MS64 200/69 KT
N580FE QXT AOE 111716 F61A
0000011100
248
UANT99 KDDL 111716
ARP XLF1670 4803N01853W 1716 F380 MS56 203/63 KT
FGRSQ DDL XXN 111716 J62A
0000011000
249
UANT01 CWAO 111716
ARP PIA711 5354N03139W 1716 F350 MS53 190/35 KT
APBGZ QXT AOE 111716 F49A
0000011000
250
UANT01 CWAO 111716
ARP QTR707 5921N05426W 1715 F340 MS57 288/55 KT
A7BAO QXT AOW 111716 F63A
0000011100
251
UANT01 CWAO 111716
ARP BER7450 5239N03455W 1716 F390 MS56 261/28 KT
DALPE QXT AOE 111716 J96A
0000011000
252
UANT01 CWAO 111716
ARP BAW7TG 5002N01935W 1716 F370 MS55 193/76 KT
GYMMO QXT AOE 111716 F10A
0000019100
253
SANO34 ENMI 110720
METAR ENBN 110720Z NIL=
METAR ENBV 110720Z NIL=
METAR ENFG 110720Z NIL=
METAR ENHF 110720Z NIL=
METAR ENRA 110720Z NIL=
METAR ENSH 110720Z NIL=

0000086000
254
SAIY31 LIIB 110720
METAR LIEA 110720Z 01004KT CAVOK 07/07 Q1020=
METAR LIEE 110720Z 32003KT CAVOK 06/06 Q1020=
METAR LIEO 110720Z 25002KT 0800 0500W R05/0900VP1500D FG NSC 03/03
Q1021=
METAR LIMC 110720Z 07003KT 340V100 2000 BR SCT012 BKN040 08/07
Q1022 NOSIG=
METAR LIME 110720Z 15002KT 4000 BR BKN010 08/06 Q1022=
METAR LIMF 110720Z 00000KT 5000 BR BKN030 07/05 Q1022=
METAR LIMJ 110720Z 02004KT 340V060 9999 SCT018 BKN030 12/09 Q1022=
METAR LIML 110720Z 00000KT 3000 BR BKN010 BKN050 08/07 Q1022 NOSIG=
METAR LIRA 110715Z 05001KT 8000 FEW010 SCT060 04/04 Q1022=
METAR LIRF 110720Z 06003KT 8000 SCT030 05/05 Q1023 NOSIG=
METAR LIRN 110720Z 02003KT 350V050 8000 SCT050 08/06 Q1022=
METAR LIRP 110715Z 12006KT 9999 SCT050 07/06 Q1022 NOSIG=
METAR LIRQ 110720Z 00000KT 5000 1100NE BCFG FEW005 BKN040 11/10
Q1022=

00000000