0000013900
855
SSVX02 CWAO 111700
ZZYY 47571 11014 1700/ 771334 104399 6113/ 11119 
49895 444 20130 11014 1700/ 50401 80129 80001 9////=
0000013900
856
SSVX02 CWAO 111700
ZZYY 47532 11014 1700/ 171512 000916 6113/ 11119 
10052 444 20130 11014 1700/ 50001 80170 80001 9////=
0000013900
857
SSVX02 CWAO 111700
ZZYY 55086 11014 1700/ 334163 172143 6113/ 11119 
40172 57004 444 20130 11014 1700/ 50100 80140 80001=
0000015100
858
SSVX02 CWAO 111700
ZZYY 47565 11014 1700/ 767350 029133 6113/ 11119 
40001 52025 22231 01022 444 20130 11014 1700/ 50400 80138 80001=
0000012700
859
SSVX02 CWAO 111700
ZZYY 47573 11014 1700/ 770970 100709 6113/ 444 
20130 11014 1700/ 50101 80134 80001 9////=
0000014500
860
SSVX02 CWAO 111700
ZZYY 63544 11014 1700/ 179925 005294 6113/ 11119 
40059 52006 444 20130 11014 1700/ 50101 80138 80001 9////=
0000148200
861
FTUS74 KWBC 110542
TAF
KALW 110538Z 1106/1206 18012KT P6SM VCSH BKN060 BKN100
     FM111000 20014G24KT P6SM VCSH SCT050 OVC100
     FM111800 22030G45KT P6SM -RA BKN050
     FM120200 25030G45KT P6SM VCSH BKN050=
KGEG 110540Z 1106/1206 20016KT P6SM -RA SCT030 BKN060 OVC070
     FM110700 19016KT 6SM -RA SCT010 OVC025 WS020/21053KT
     FM111200 20020G35KT P6SM RA BKN015 OVC030
     FM111600 21028G45KT P6SM -RA BKN019 BKN040
     FM112000 22028G40KT P6SM VCSH SCT020 BKN060
     FM120100 22022G35KT P6SM SCT010 BKN018 OVC050=
KOGD 110538Z 1106/1206 19007KT P6SM OVC060
     FM111500 17010KT P6SM SCT060 SCT100
     FM112300 20012G20KT P6SM SCT060 BKN100
     FM120300 22010G16KT P6SM -SHRA BKN050 OVC080=
KRDM 110538Z 1106/1206 19015G25KT P6SM BKN070 BKN100
     FM111500 22022G40KT P6SM VCSH BKN050
     FM111800 23030G45KT P6SM VCSH BKN050
     FM120200 30030G45KT P6SM VCSH BKN050=
KRNO 110540Z 1106/1206 VRB04KT P6SM BKN200
     FM111500 18010G20KT P6SM FEW070 BKN150
     FM111900 19025G40KT P6SM FEW050 BKN090
     FM112200 26022G35KT P6SM SCT050 BKN090
     FM120200 28015G25KT P6SM FEW090 SCT180=
KSFF 110540Z 1106/1206 21006KT P6SM -RA SCT020 OVC060
     FM110700 19011KT 6SM -RA SCT010 BKN022 WS020/21045KT
     FM111200 20020G35KT P6SM RA BKN018 OVC030
     FM111600 21025G43KT P6SM -RA BKN020 BKN040
     FM112000 22025G40KT P6SM VCSH SCT020 BKN060
     FM120100 22020G35KT P6SM BKN020 OVC050=

0000085500
862
FTUS75 KWBC 110542
TAF
PABR 110539Z 1106/1206 30012KT 6SM BR OVC008
      TEMPO 1106/1108 1SM BR OVC004
     FM110800 28010KT 5SM BR OVC008=
PABT 110539Z 1106/1206 00000KT P6SM SKC=
PAGA 110539Z 1106/1206 00000KT P6SM SKC=
TAF PAKN 110534Z 1106/1206 34005KT P6SM FEW004 SCT025 BKN120
     FM112100 04011KT 3SM -SN OVC025=
PAMC 110539Z 1106/1206 00000KT P6SM SCT100=
PAOM 110539Z 1106/1206 04015KT P6SM FEW030 SCT100=
PAOR 110539Z 1106/1206 VRB04KT 1 1/2SM -SN OVC020
      TEMPO 1106/1110 4SM -SN BR
     FM111000 00000KT 2SM -SN BR OVC020=
PAOT 110539Z 1106/1206 02005KT P6SM SKC=
PASC 110539Z 1106/1206 25020KT 1SM -SN BR OVC010=
PATA 110539Z 1106/1206 00000KT P6SM SKC=
PAUN 110539Z 1106/1206 09010KT P6SM SKC=
TAF PGUM 110538Z 1106/1212 06014KT P6SM VCSH SCT020
     FM110800 06011KT P6SM FEW020=

0000026400
863
FTUS72 KWBC 110542 RRA
TAF
KVRB 110538Z 1106/1206 13004KT P6SM SCT015
     FM110800 16005KT 5SM BR BKN010
     FM111400 18011G15KT P6SM SCT015 BKN150
     FM111600 19017G24KT P6SM SCT025 BKN080
     FM120000 21009KT P6SM SCT025 BKN150=

0000122400
864
FTUS71 KWBC 110542 RRD
TAF
KFAY 110539Z 1106/1206 20004KT 2SM -RA BR OVC006
      TEMPO 1106/1110 1/2SM FG
     FM111000 20006KT 2SM BR OVC006
     FM111500 20015G28KT P6SM BKN008
      TEMPO 1118/1122 28025G40KT 2SM SHRA BR
     FM112200 25015G25KT 6SM -SHRA SCT025 OVC080
     FM120200 28012KT P6SM BKN080=
KGFL 110541Z 1106/1206 18004KT 6SM BR OVC012
      TEMPO 1107/1109 2SM -FZDZ BR BKN006
     FM110900 VRB03KT 1 1/2SM -FZDZ BR OVC006
     FM111100 17004KT 1SM -RA BR OVC005 WS020/19040KT
     FM111700 19008KT 3/4SM -RA BR OVC004 WS020/20045KT
     FM112300 23010KT 2SM -RA BR SCT004 OVC008=
KGSO 110539Z 1106/1206 05005KT 2SM -RA BR VV002 WS010/19035KT
      TEMPO 1106/1110 1/2SM FG
     FM111000 14004KT 2SM -RA BR VV002 WS010/19040KT
      TEMPO 1110/1113 1/2SM FG
     FM111500 19013G20KT 5SM -SHRA OVC006
     FM112100 25016G23KT P6SM FEW025 BKN100
     FM120200 28012KT P6SM SCT100=
KGSP 110540Z 1106/1206 03005KT 1SM SHRA BR OVC002
     FM111200 18007KT 1SM SHRA BR OVC002 WS020/21035KT
     FM111600 20012KT 2SM SHRA BR OVC003
     FM111900 22013G22KT 4SM SHRA OVC025
     FM112000 24010KT P6SM OVC045
     FM112300 26010KT P6SM SCT050=

0000136300
865
FTUS71 KWBC 110542 RRF
TAF
KLCK 110539Z 1106/1206 16010KT P6SM VCSH OVC025
     FM110800 17012KT 4SM -SHRA BR OVC008
      TEMPO 1108/1110 2SM -TSRA BR BKN008 OVC020CB
     FM111300 20012KT P6SM OVC012
     FM111600 24015G25KT P6SM OVC018
     FM120100 26013KT P6SM OVC009=
KLUK 110539Z 1106/1206 19007KT 5SM -SHRA BR OVC025
      TEMPO 1106/1108 2SM -TSRA BR BKN006 OVC018CB
     FM111300 21010G18KT P6SM VCSH OVC015
     FM111600 25012G22KT P6SM OVC025
     FM120000 26011KT P6SM BKN020=
KMDT 110539Z 1106/1206 00000KT 3/4SM -RA BR OVC003 WS020/19045KT
     FM111500 17014G24KT 3SM RA BR BKN009 OVC016 WS012/19047KT=
KMHT 110539Z 1106/1206 00000KT 3SM -FZDZ BR OVC015
     FM111100 00000KT 2SM -FZRA BR OVC008 WS020/35030KT
     FM111300 VRB03KT 3SM -RA BR OVC008 WS020/19035KT
     FM111900 18012G21KT 3SM -RA BR OVC008 WS020/20050KT
     FM120000 19012G22KT 1SM +RA BR OVC008 WS020/20050KT
     FM120200 20010KT 2SM -RA BR OVC008 WS020/30040KT
     FM120400 21007KT 6SM -SHRA BR OVC008=
KMSS 110539Z 1106/1206 07006KT P6SM BKN025 OVC035
      TEMPO 1106/1108 6SM BR SCT025 OVC035
     FM110800 08008KT 5SM BR VCSH SCT015 OVC025
      TEMPO 1109/1111 3SM -FZDZ BR OVC015
     FM111300 09009KT 3SM -RA BR BKN009 OVC015 WS020/20040KT
     FM111500 15010G18KT 4SM -RA BR OVC007 WS020/22040KT=

0000136800
866
FTUS71 KWBC 110542 RRE
TAF
KHKY 110540Z 1106/1206 00000KT 3/4SM SHRA BR OVC002
     FM111300 18003KT 1/2SM SHRA FG OVC002 WS020/21040KT
     FM111600 20007KT 3/4SM SHRA BR OVC002 WS020/21040KT
     FM111900 22010KT 3SM SHRA OVC007
     FM112000 25009KT 4SM SHRA OVC012
     FM112100 26009KT P6SM OVC018
     FM112200 26008KT P6SM BKN045
     FM120300 27009KT P6SM SCT250=
KHYA 110539Z 1106/1206 20004KT 1/2SM FG OVC002
     FM111200 18012KT 1SM -RA BR OVC008 WS020/35040KT
     FM111800 19019G32KT 3SM -RA BR OVC010 WS020/19060KT
     FM112100 19024G35KT 2SM -RA BR OVC008 WS020/20070KT
     FM120100 19024G38KT 1SM RA BR OVC008 WS020/20065KT
     FM120400 21019G32KT 3SM -SHRA BR OVC008=
KINT 110539Z 1106/1206 05005KT 2SM -RA BR VV002 WS010/19035KT
      TEMPO 1106/1110 1/2SM FG
     FM111000 14004KT 2SM -RA BR VV002 WS010/19040KT
      TEMPO 1110/1113 1/2SM FG
     FM111500 19013G20KT 5SM -SHRA OVC006
     FM112100 25016G23KT P6SM FEW025 BKN100
     FM120200 28012KT P6SM SCT100=
KIPT 110539Z 1106/1206 07005KT 1 1/2SM BR BKN004 OVC009
      WS020/19045KT
     FM111500 17012G24KT 3SM RA BR BKN009 OVC016 WS012/19045KT=
KJST 110539Z 1106/1206 17013KT 3/4SM BR VV002 WS019/21040KT
     FM111100 17016G32KT 2SM RA BR BKN009 OVC016 WS012/19049KT
     FM112200 25012G21KT 1SM -SHRA BR OVC015=

0000151200
867
FTUS71 KWBC 110542 RRA
TAF
KAOO 110539Z 1106/1206 19005KT 1SM BR VCSH OVC003 WS019/21040KT
     FM111300 17013G27KT 3SM RA BR BKN009 OVC016 WS012/19045KT
     FM112300 26012G21KT 3SM -SHRA BR OVC015=
KAVL 110540Z 1106/1206 13005KT 3SM SHRA BR OVC003
     FM111000 17009KT 1SM SHRA BR OVC002
     FM111400 19013G21KT 1SM SHRA BR OVC003
     FM111700 30010KT 2SM SHRA BR OVC004
     FM111900 31012KT 4SM -SHRA OVC035
     FM120000 31014G22KT P6SM SCT040 BKN250=
KBAF 110539Z 1106/1206 00000KT 1SM -FZDZ BR OVC004
     FM111100 10004KT 2SM -FZRA BR OVC008 WS020/19035KT
     FM111700 19010G18KT 3SM -RA BR OVC010 WS020/20050KT
     FM112300 20012G20KT 1SM RA BR OVC008 WS020/21050KT
     FM120000 20010G17KT 1SM +RA BR OVC008 WS020/21050KT
     FM120200 21008KT 3SM -SHRA BR OVC008=
KBDL 110539Z 1106/1212 00000KT 1/2SM -DZ FG BKN003 OVC008
     FM110900 VRB03KT 1SM -RA BR BKN003 OVC008
     FM111200 16006KT 2SM -RA BR OVC003 WS020/19040KT
     FM111800 19014G24KT 3SM RA BR OVC008 WS020/20050KT
     FM120000 20014G25KT 1SM +RA BR OVC008 WS020/21050KT
     FM120300 21007KT 6SM BR OVC008
     FM120600 23008KT 5SM BR OVC100=
KBED 110539Z 1106/1206 00000KT 1SM BR OVC003
     FM111200 17007KT 2SM -RA BR OVC003 WS020/19040KT
     FM111800 19015G27KT 2SM -RA BR OVC010 WS020/20050KT
     FM112100 19016G28KT 3SM -RA BR OVC008 WS020/20055KT
     FM120200 22012G29KT 1SM +RA BR OVC008 WS020/34040KT
     FM120400 22009KT 6SM -SHRA BR BKN008=

0000132900
868
FTUS31 KWBC 110542
TAF
KBGR 110538Z 1106/1206 VRB03KT P6SM OVC060
     FM110800 18006KT P6SM OVC030
     FM111400 18012KT 3SM -FZRAPL BR OVC010
     FM111600 18015G25KT 1SM -RA BR OVC005
     FM112000 18020G35KT 3/4SM RA BR OVC003 WS020/20055KT
     FM120000 18025G40KT 3/4SM RA BR OVC003 WS020/20060KT
     FM120400 21020G30KT 3/4SM RA BR OVC003 WS020/21060KT=
KBOS 110539Z 1106/1212 19004KT 1SM BR BKN002 OVC008
      TEMPO 1106/1110 1/4SM FG
     FM111200 17012KT 1SM -RA BR OVC008 WS020/34035KT
     FM111800 19017G30KT 3SM -RA BR OVC010 WS020/20055KT
     FM112300 19020G38KT 1SM -RA BR OVC008 WS020/20060KT
     FM120200 21015G39KT 3SM +RA BR OVC008 WS020/21045KT
     FM120500 23011G18KT P6SM OVC040=
KCLT 110540Z 1106/1206 02003KT 3SM SHRA BR OVC003
     FM111200 18011KT 1SM SHRA BR OVC002 WS020/28040KT
     FM111700 20015G26KT 2SM SHRA BR OVC003
     FM112000 25013G21KT 4SM SHRA OVC006
     FM112300 24009KT P6SM SCT030 BKN250
     FM120400 28009KT P6SM SCT250=
KCVG 110539Z 1106/1212 19011KT 5SM -SHRA BR OVC020
      TEMPO 1106/1108 2SM -TSRA BR BKN006 OVC018CB
     FM111200 22011G20KT P6SM OVC012
     FM111600 25016G25KT P6SM OVC020
     FM120000 26014KT P6SM BKN020
     FM120800 27010KT 5SM BR OVC010
      TEMPO 1208/1212 2SM BR OVC006=

0000075100
869
FTUS31 KWBC 110542 RRA
TAF
KMCO 110538Z 1106/1206 13004KT P6SM SCT040 BKN150
     FM110800 16005KT 5SM BR OVC005
     FM111400 19010G15KT P6SM SCT015 BKN150
      TEMPO 1114/1116 BKN015
     FM111600 20018G25KT P6SM SCT025 BKN080
     FM120000 24009KT P6SM SCT025 BKN150=
KMTH 110540Z 1106/1206 13006KT P6SM FEW020 SCT150
     FM111800 19006KT P6SM FEW025=
KRDU 110539Z 1106/1206 VRB04KT 2SM -RA BR OVC002 WS010/19035KT
      TEMPO 1106/1110 1/2SM FG
     FM111000 14004KT 2SM -RA BR VV002 WS010/19040KT
      TEMPO 1110/1113 1/2SM FG
     FM111500 20015G28KT P6SM BKN008
      TEMPO 1117/1121 28025G40KT 2SM SHRA BR
     FM112100 25015G25KT 6SM -SHRA SCT025 OVC080
     FM120200 28012KT P6SM BKN080=

0000038500
870
FTUS42 KWBC 110542
TAF
KEYW 110540Z 1106/1206 11009KT P6SM FEW020 FEW150
     FM110800 13010KT P6SM FEW020
     FM111800 19008KT P6SM FEW025=
KFPR 110538Z 1106/1206 16003KT P6SM SCT015
     FM110800 16005KT 5SM BR BKN010
     FM111400 18010G15KT P6SM SCT015 BKN150
     FM111600 19017G24KT P6SM SCT025 BKN080
     FM120000 21009KT P6SM SCT025 BKN150=

0000139000
871
FTUS71 KWBC 110542
TAF
KACK 110539Z 1106/1206 19007KT 5SM BR OVC002
     FM110900 17009KT 1SM BR OVC002
     FM111200 17012KT 3SM -RA BR OVC008
     FM111700 18021G30KT 2SM -RA BR OVC008 WS020/19055KT
     FM112100 18026G40KT 1SM BR OVC008 WS020/20065KT
     FM120100 19028G44KT 2SM +RA BR OVC008 WS020/20065KT
     FM120400 20024G35KT 3SM -SHRA BR OVC008 WS020/21055KT=
KAGS 110540Z 1106/1206 VRB04KT 1SM BR OVC003
      TEMPO 1106/1110 1/2SM -DZ FG VV001
     FM111200 20008KT 5SM BR VCSH OVC003
     FM111500 22014G25KT 3SM -SHRA BR BKN005 OVC015
     FM112200 25011G22KT P6SM BKN015 OVC050
     FM120000 26011G19KT P6SM SCT020 BKN120=
KALB 110541Z 1106/1206 17004KT P6SM OVC009
      TEMPO 1106/1108 2SM -FZDZ BR OVC008
     FM110800 16006KT 2SM -RA BR OVC008
     FM111100 17010G16KT 1 1/2SM -RA BR OVC007 WS020/19045KT
     FM111500 18012G22KT 1SM -RA BR OVC006 WS020/20050KT
     FM111900 19015G25KT 3/4SM -RA OVC005
     FM120000 22012G22KT 1 1/2SM -RA BR SCT005 OVC009=
KAND 110540Z 1106/1206 07004KT 3SM SHRA BR OVC002
      TEMPO 1106/1108 1SM TSRA OVC003CB
     FM111100 15006KT 1SM SHRA BR OVC002 WS020/20035KT
     FM111400 19009KT 1SM SHRA BR OVC003
     FM111800 21014G22KT 3SM SHRA OVC008
     FM111900 22013G21KT 4SM SHRA OVC040
     FM112000 24010KT P6SM BKN080
     FM112300 25008KT P6SM SCT250=

0000027300
872
FTUS74 KWBC 110542 RRA
TAF
KTVL 110540Z 1106/1206 18004KT P6SM BKN180
     FM111100 19010G18KT P6SM BKN180
     FM111700 19018G32KT P6SM SCT050 BKN080
     FM112000 20016G28KT 5SM -SHSN SCT025 OVC050
     FM120100 19012G22KT P6SM FEW050 SCT140=

0000140900
873
FTUS72 KWBC 110542
TAF
KABY 110538Z 1106/1206 11004KT 1/4SM FG OVC002
     FM111400 18010KT 2SM RA BR OVC004
     FM111800 24011KT 2SM TSRA OVC012CB
     FM112100 27015KT P6SM SCT025 BKN050
     FM120000 27008KT P6SM SCT250=
KDAB 110538Z 1106/1206 16004KT P6SM FEW080 SCT250
     FM110800 17004KT 5SM BR OVC005
     FM111400 20010G15KT P6SM SCT015 BKN150
      TEMPO 1114/1116 BKN015
     FM111600 21015G22KT P6SM SCT025 BKN060
     FM120000 23007KT P6SM VCSH SCT025 BKN150=
KEYW 110540Z 1106/1206 11009KT P6SM FEW020 FEW150
     FM110800 13010KT P6SM FEW020
     FM111800 19008KT P6SM FEW025=
KMCO 110538Z 1106/1206 13004KT P6SM SCT040 BKN150
     FM110800 16005KT 5SM BR OVC005
     FM111400 19010G15KT P6SM SCT015 BKN150
      TEMPO 1114/1116 BKN015
     FM111600 20018G25KT P6SM SCT025 BKN080
     FM120000 24009KT P6SM SCT025 BKN150=
KMLB 110538Z 1106/1206 14003KT P6SM SCT015
     FM110800 16005KT 5SM BR FEW006 BKN010
     FM111400 19010G15KT P6SM SCT015 BKN150
      TEMPO 1114/1116 BKN015
     FM111600 20017G24KT P6SM SCT025 BKN080
     FM120000 23009KT P6SM SCT025 BKN150=
KSFB 110538Z 1106/1206 15003KT P6SM BKN070
     FM110800 17005KT 5SM BR OVC005
     FM111400 19010G15KT P6SM SCT015 BKN150
      TEMPO 1114/1116 BKN015
     FM111600 21018G25KT P6SM SCT025 BKN060
     FM120000 24009KT P6SM VCSH SCT025 BKN150=

0000074600
874
FTUS71 KWBC 110542 RRH
TAF
KRWI 110539Z 1106/1206 16006KT 3SM -RA BR SCT006 OVC010
      WS010/18035KT
      TEMPO 1107/1111 1SM BR OVC006
     FM111100 18006KT 2SM BR OVC006
     FM111500 20015G28KT P6SM BKN008
     FM111900 20015G28KT P6SM BKN012
      TEMPO 1119/1123 28025G40KT 2SM SHRA BR
     FM112300 25015G25KT 6SM -SHRA SCT025 OVC080
     FM120200 28012KT P6SM BKN080=
KSLK 110539Z 1106/1206 23003KT 5SM BR OVC014
     FM110800 18009KT 5SM BR VCSH BKN015 OVC020 WS020/21045KT
      TEMPO 1108/1110 3SM -FZDZ BR BKN010 OVC015
     FM111000 20012G18KT 4SM -RA BR OVC008 WS020/22050KT
     FM111300 20012G20KT 3SM -RA BR OVC006 WS020/22055KT
     FM111800 21010G18KT 2SM RA BR BKN004 OVC006=

00000000