0000055900
335
SADN31 EKCH 110920
METAR EKCH 110920Z 23015KT 9000 FEW009 BKN011 07/05 Q1006 BECMG
BKN007=
METAR EKBI 110920Z 23012KT 190V260 9999 -RA BKN010 BKN025 06/05
Q1004=
METAR EKYT 110920Z 25005KT 6000 -RA SCT003 BKN035 06/05 Q1002=
METAR EKRK 110920Z AUTO 23013KT 5000NDV -RA   FEW007/// BKN009///
BKN012/// 06/05 Q1005=
METAR EKAH 110920Z AUTO 23007KT 190V270 9999NDV -DZ  OVC044///
07/04 Q1003=
METAR EKEB 110920Z AUTO 21013KT 9999NDV DZ  BKN007/// BKN028///
07/06 Q1004=
METAR EKRN 110920Z 24019KT 6000 OVC009 06/06 Q1008=

0000016500
336
SADN32 EKCH 110920
METAR EKVJ 110923Z NIL=
METAR EKSB 110923Z NIL=
METAR EKSN 110923Z NIL=
METAR EKVD 110923Z NIL=
METAR EKOD 110923Z NIL=

0000051300
337
SADN34 EKCH 110920
METAR EKHN 110920Z AUTO 27017KT 9999NDV -DZ  SCT007/// BKN029///
///// Q1006=
METAR EKHR 110920Z AUTO 28013KT 9999NDV -SHRA  FEW005/// SCT011///
BKN027/// BKN036/// 07/07 Q1004=
METAR EKHA 110920Z AUTO 31019KT 9999NDV 07/02 Q1007=
METAR EKHD 110920Z AUTO 29027KT 9999NDV 07/00 Q1005=
METAR EKTE 110920Z AUTO 03020KT 9999NDV FEW014 07/02 Q1007=
METAR EKGC 110920Z AUTO 30022KT 9999NDV 07/02 Q1007=
METAR EKAV 110920Z AUTO 22017KT 9999NDV BKN059/// 06/05 Q1003=

0000046700
338
SZPA01 AMMC 111712
CREX++
T000103 A001 D01021 D06025++
0136250 17293000 67590 2014 01 11 17 05 3015 11 07 00 01
01684 0012 01677 0009 01668 0003 01668 0007 01663 0005 01666 0012+
0710610 17137250 67680 2014 01 11 17 05 3013 11 07 00 01
01038 0065 01032 0062 01026 0059 01023 0059 01020 0059 01020 0061+
0698060 15820000 67950 2014 01 11 17 05 3022 11 07 00 01
00705 0079 00704 0078 00708 0083 00711 0087 00708 0084 00707 0084++
7777

0000034800
339
SZIO01 AMMC 111712
CREX++
T000103 A001 D01021 D06025++
-1211670 09689190 46280 2014 01 11 17 05 3018 11 07 00 01
00696 -0018 00699 -0016 00704 -0012 00704 -0013 00705 -0013 00710 -0010+
-1042940 10566940 46290 2014 01 11 17 05 //// 11 07 00 01
00667 0042 00615 -0010 00672 0047 00630 0004 00656 0030 00639 0013++
7777

0000191900
340
SZAU01 AMMC 111712
CREX++
T000103 A001 D01021 D06025++
-1927750 14705860 59260 2014 01 11 17 05 3022 11 07 00 01
01229 0176 01233 0171 01242 0172 01250 0172 01260 0172 01268 0172+
-2316110 15079000 59670 2014 01 11 17 05 2998 11 07 00 01
02158 0153 02167 0152 02184 0158 02194 0155 02208 0158 02221 0160+
-3447330 15091170 60420 2014 01 11 17 05 2945 11 07 00 01
01192 -0026 01197 -0025 01202 -0024 01206 -0023 01207 -0026 01209 -0028+
-4105000 14591500 60910 2014 01 11 17 05 2888 11 07 00 01
01062 -0061 01064 -0064 01059 -0075 01067 -0072 01061 -0083 01052 -0098+
-4254640 14793080 61170 2014 01 11 17 05 2903 11 07 00 01
01420 0018 01416 0012 01418 0013 01418 0010 01428 0019 01425 0014+
-3834390 14161360 61410 2014 01 11 17 05 2908 11 07 00 01
00726 0027 00707 0009 00728 0030 00731 0034 00713 0017 00711 0015+
-3214890 13364170 62000 2014 01 11 17 05 2955 11 07 00 01
01329 0023 01326 0023 01322 0024 01319 0025 01316 0026 01312 0025+
-3387080 12189720 62080 2014 01 11 17 05 2948 11 07 00 01
00790 0028 00798 0037 00806 0048 00798 0042 00790 0035 00779 0026+
-3182560 11573860 62237 2014 01 11 17 05 2972 11 07 00 01
00626 0080 00615 0070 00619 0075 00610 0067 00618 0076 00613 0073+
-2422000 11339750 62385 2014 01 11 17 05 //// 11 07 00 01
00690 -0102 00700 -0091 00685 -0106 00720 -0070 00739 -0050 00739 -0049+
-2181670 11419110 62430 2014 01 11 17 05 //// 11 07 00 01
01245 -0112 01253 -0102 01245 -0109 01231 -0121 01240 -0110 01244 -0105+
-1800080 12221830 62650 2014 01 11 17 05 3043 11 07 00 01
04507 0250 04502 0249 04498 0248 04493 0248 04488 0245 04483 0245+
-1247190 13084580 63230 2014 01 11 17 05 3050 11 07 00 01
05116 -0117 05119 -0114 05120 -0113 05118 -0113 05118 -0112 05118 -0110+
-1386000 13641580 63511 2014 01 11 17 05 3042 11 07 00 01
01609 0100 01606 0099 01602 0097 01600 0098 01597 0097 01595 0097++
7777

0000178900
341
SZPS01 AMMC 111712
CREX++
T000103 A001 D01021 D06025++
-0204190 14737360 56130 2014 01 11 17 05 3023 11 07 00 01
00762 0114 00761 0111 00764 0113 00763 0110 00760 0105 00763 0106+
-0669280 15640860 56363 2014 01 11 17 05 //// 11 07 00 01
00639 -0048 00637 -0049 00633 -0052 00633 -0051 00630 -0054 00631 -0052+
-0942890 15995560 56670 2014 01 11 17 05 3038 11 07 00 01
00636 -0059 00636 -0060 00637 -0061 00637 -0062 00637 -0063 00638 -0063+
-1072080 16580190 57131 2014 01 11 17 05 //// 11 07 00 01
03331 2555 03360 2585 02998 2224 03367 2595 02630 1859 03245 2476+
-1551560 16718860 57210 2014 01 11 17 05 //// 11 07 00 01
01042 -0117 01055 -0103 01035 -0121 01043 -0111 01044 -0109 01032 -0119+
-1775690 16830030 57320 2014 01 11 17 05 3015 11 07 00 01
01137 -0030 01140 -0027 01145 -0021 01147 -0019 01149 -0016 01149 -0016+
-4397330 16861610 65180 2014 01 11 17 05 2880 11 07 00 01
01761 0376 01810 0418 01864 0467 01806 0404 01905 0497 01854 0441+
-2120470 -15978530 65980 2014 01 11 17 05 3008 11 07 00 01
00762 0015 00739 -0006 00774 0029 00792 0048 00804 0061 00727 -0015+
-2113810 -17518140 66600 2014 01 11 17 05 //// 11 07 00 01
01432 0088 01437 0096 01431 0092 01425 0089 01420 0086 01419 0087+
-1382670 -17176110 66840 2014 01 11 17 05 3010 11 07 00 01
00939 0058 00948 0070 00932 0057 00941 0068 00936 0066 00935 0067+
-1813250 17842750 67050 2014 01 11 17 05 3030 11 07 00 01
01564 0081 01561 0081 01565 0087 01562 0087 01556 0083 01552 0081+
-1760530 17743810 67070 2014 01 11 17 05 3028 11 07 00 01
01684 0031 01681 0031 01676 0029 01673 0028 01669 0028 ///// ////+
-0850250 17919500 67440 2014 01 11 17 05 3027 11 07 00 01
02174 0016 02164 0009 02164 0012 02169 0021 02164 0019 02164 0023++
7777

0000036200
342
SXXX32 EUMS 111706
12FFB3C8
:PRS 1 /1 M 2939 2944 2945 2943 2954 2958 2949 2946 2947 2939 2944 2937 2937 2938 2933 2937 2938 2940 2935 2939 2936 2941 2933 2929 2932 2924 2928 2928 2914 :RAD 1 /3 5882 5883 5877 5875 5874 5874 5870 5863 5857 5851 :ENC 1 /5 -144 -144 -144 -144 -144 -144 :SW1 6 /60 0 :SW2 36 /60 60 :BAT 14 /15 14.2 :NAME 12FFB3C8
0000086800
343
SASN31 ESWI 110550
METAR ESGG 110550Z 23015KT 5000 -RA BR OVC003 04/04 Q1000
R21/29//95=
METAR ESGJ 110550Z AUTO 23011KT 8000 -DZ FEW009/// SCT017///
BKN061/// 04/03 Q0999 REUP RESHUP=
METAR ESGP 110550Z 22012KT 9999 BKN007 OVC008 06/05 Q1000
R19/29//95=
METAR ESGT 110550Z NIL=
METAR ESMK 110550Z AUTO 24011KT 9999NDV -RA OVC011/// 06/04 Q1005=
METAR ESMQ 110550Z AUTO 22008KT 9999 FEW020/// BKN026/// 04/03
Q1003=
METAR ESMS 110550Z 25013KT 9999 BKN008 05/04 Q1006 R17/29//95=
METAR ESMT 110550Z AUTO 22018KT 7000 DZ FEW006/// SCT022///
BKN027/// 06/04 Q1004 REDZ=
METAR ESMX 110550Z AUTO 23008KT 8000 DZ FEW007/// SCT009///
OVC010/// 04/03 Q1002=
METAR ESTA 110550Z AUTO 25017KT 9999 DZ FEW010/// OVC024/// 06/04
Q1005 REDZ=
METAR ESTL 110550Z AUTO 25013KT 9999NDV DZ FEW010/// SCT032///
BKN036/// 06/06 Q1005=

0000009800
344
SAAG05 SABM 110500 RRC
METAR SANT 110500Z  18015KT 9999  OVC040  24/21
Q1009=

0000123500
345
FTAM31 FCBB 110500
TAF FCBB 110500Z 1106/1212 26004KT 8000 SCT016 PROB30 1114/1116
         SCT020 FEW030CB=
TAF FEFF 110500Z 1106/1212 VRB03KT 3000 BR BECMG 1108/1110 /////KT
    CAVOK
         BECMG 1115/1117 2000 HZFU BECMG 1120/1122 CAVOK BECMG
          1202/1204 2000 BR=
TAF FKKD 110500Z 1106/1212 VRB03KT 8000 SCT016 FEW020CB
         TEMPO 1106/1108 2000 BR BKN013 FEW020CB PROB30 0900 FG
         TEMPO 1109/1116 5000 HZ
         TEMPO 1204/1206 2000 BR=
TAF FOOL 110500Z 1106/1212 22008KT 9999 SCT010 FEW020CB BKN033 TEMPO
                 1106/1110 TS PROB30 TEMPO 1122/1106 3000 TSRA BKN006
                 FEW016CB OVC023=
TAF FZAA 110500Z 1106/1212 23004KT 9999 BKN016 BECMG 1111/1113
         30008KT SCT022 FEW030CB TEMPO 1115/1121 TS FM120200
         00000KT 8000 BKN016 BECMG 1206/1208 21004KT BKN018 BECMG
         1209/1211 32008KT 9999 SCT023=
TAF FGSL 110500Z 1106/1212 24006KT 6000 SCT013
         TEMPO 1110/1116 BKN013 FEW020CB PROB30 TS
         BECMG 1122/1224 4000 BR BKN012=
TAF FPST 110500Z 1106/1212 21004KT 9999 FEW020CB BKN040
         TEMPO 1107/1109 TS PROB30 TEMPO 1110/1114 4000
         TSRA FEW017CB BKN030 OVC060=
TAF FNLU NIL=

0000062900
346
SAFI31 EFHK 110550
METAR EFHK 110550Z 34011KT 9999 OVC009 M04/M05 Q0998 TEMPO BKN010=
METAR EFJY 110550Z AUTO 02008KT 9999 -SN OVC018 
M09/M11 Q0999=
METAR EFKU 110550Z AUTO 36010KT 9999 -SN OVC023 
M10/M12 Q1000=
METAR EFOU 110550Z AUTO 06009KT 020V090 9999 -SHSN NSC M14/M18 Q1007 
12410587=
METAR EFRO 110550Z AUTO 03014KT CAVOK M18/M21 
Q1010=
METAR EFTP 110550Z AUTO 04006KT 9999 SCT007 OVC009 
M05/M06 Q0999=
METAR EFTU 110550Z AUTO 06004KT 9999 -SG FEW006/// OVC008/// M03/M04 
Q0998 R08/590147=
METAR EFVA 110550Z AUTO 04008KT 010V070 9999 -SN NSC M08/M11 Q1002 
R16/420195=

0000071300
347
SADL31 EDZO 110550
METAR EDDF 110550Z 19003KT 0500 R25L/0650U R25C/0550V0800U
     R25R/P2000N FG BKN001 00/00 Q1017 BECMG 1500 SCT003=
METAR EDDH 110550Z 22012KT 6000 BKN009 06/04 Q1011 TEMPO 4000 BKN007=
METAR EDDK 110550Z 11004KT CAVOK 02/01 Q1015 NOSIG=
METAR EDDL 110550Z 16010KT CAVOK 02/00 Q1015 NOSIG=
METAR EDDM 110550Z VRB01KT 3500 1300NW R26R/1100V1700D R26L/P2000N
     BCFG NSC M04/M04 Q1018 TEMPO 1200=
METAR EDDN 110550Z 11003KT 9999 MIFG NSC M02/M02 Q1017 NOSIG=
METAR EDDS 110550Z 00000KT 9999 MIFG FEW030 SCT085 BKN120 M01/M01
     Q1017 NOSIG=
METAR EDDT 110550Z 24008KT 9999 BKN018 05/02 Q1014 NOSIG=
METAR EDDV 110550Z 22006KT CAVOK 04/02 Q1013 NOSIG=

0000045300
348
SADL32 EDZO 110550
METAR EDDB 110550Z 22008KT 9999 BKN020 SCT046 04/02 Q1014 NOSIG=
METAR EDDC 110550Z 22007KT CAVOK 03/00 Q1016 NOSIG=
METAR EDDE 110550Z 22011KT CAVOK 02/M00 Q1015 NOSIG=
METAR EDDG 110550Z 18005KT 9999 FEW012 03/01 Q1014 TEMPO BKN010=
METAR EDDP 110550Z 19009KT CAVOK 02/01 Q1016 NOSIG=
METAR EDDR 110550Z 27001KT CAVOK 01/00 Q1016 NOSIG=
METAR EDDW 110550Z 22010KT 9000 BKN010 05/04 Q1011 TEMPO BKN008=

0000014000
349
SALT34 EYVI 110550
METAR EYSA 110550Z 26011KT 9999 -SHSN FEW009 SCT013CB OVC021 M00/M00 
Q1003 R14L/2///95 R14R/2///95=

0000012400
350
SPUS41 KWBC 110553
SPECI
KWRI 110549Z AUTO 04001KT 1/2SM R06/1400FT -RA FG BKN001 OVC065
04/04 A3013=

0000009500
351
SABW31 VGEG 110550
METAR VGEG 110550Z 24006KT 4000 HZ NSC 23/12 Q1015 NOSIG=

0000055700
352
SADN31 EKCH 110550
METAR EKCH 110550Z 24013KT 9999 FEW010 BKN013 BKN150 06/05 Q1006
TEMPO SCT013=
METAR EKBI 110550Z 23008KT 200V260 9999 -DZ BKN009 06/05 Q1005=
METAR EKYT 110550Z 23014KT 4500 RA FEW006 BKN008 BKN017 07/06
Q1002=
METAR EKRK 110550Z AUTO 24013KT 9999NDV FEW009/// SCT029///
BKN140/// 06/05 Q1006=
METAR EKAH 110550Z AUTO VRB04KT 9999NDV -SHRA  OVC013/// 07/04
Q1004=
METAR EKEB 110550Z AUTO 22010KT 9999NDV -SHRA  OVC007/// 07/06
Q1006=
METAR EKRN 110550Z AUTO 25020KT 9999NDV OVC032/// 06/06 Q1008=

0000020100
353
SADN32 EKCH 110550
METAR EKVJ 110553Z NIL=
METAR EKSB 110550Z 23010KT 200V260 9999 BKN011 07/06 Q1007=
METAR EKSN 110553Z NIL=
METAR EKVD 110553Z NIL=
METAR EKOD 110553Z NIL=

0000061300
354
SADN34 EKCH 110550
METAR EKGF 110550Z 27017KT 9999 -RA SCT006 BKN036 07/06 Q1005=
METAR EKHN 110550Z AUTO VRB07G19KT 9999NDV -RA  SCT007/// BKN034///
///// Q1007=
METAR EKHR 110550Z AUTO 24020KT 9999NDV -SHRA  FEW008/// BKN033///
08/07 Q1005=
METAR EKHA 110550Z AUTO 27019KT 9999NDV 07/06 Q1005=
METAR EKHD 110550Z AUTO 29017KT 9999NDV 07/04 Q1004=
METAR EKTE 110550Z AUTO 27017KT 9999NDV -SHRA FEW008 BKN036 BKN042 
07/06 Q1005=
METAR EKGC 110550Z AUTO 29017KT 9999NDV 07/06 Q1005=
METAR EKAV 110550Z AUTO 22018KT 9999NDV -SHRA  BKN018/// BKN051///
BKN110/// 06/04 Q1004=

00000000