0000023400
835
NOUK32 EGGY 110711
SADIS GATEWAY MONITOR
INTERNAL ALARM MESSAGE
AERODROME NOT RECEIVED

SKBO FT LAST RECEIVED AT 101000Z
VTSP FT LAST RECEIVED AT 102300Z
ZSPD FT LAST RECEIVED AT 110324Z
END OF MESSAGE

0000008800
836
SAAL41 DAMM 110700 RRA
METAR DAAP 110700Z 00000KT CAVOK 10/M01 Q1021=

0000010400
837
SAAG05 SABM 110700 RRA
METAR SASJ 110700Z  32003KT 9999  FEW030 SCT100
25/19 Q1009=

0000009300
838
SASP31 LEMM 110700 RRA
METAR LEAL 110700Z VRB01KT CAVOK 09/07 Q1018 NOSIG=

0000013000
839
SPUS41 KWBC 110707
SPECI
KBAF 110703Z 01003KT 1 1/4SM R20/5000VP6000FT -FZRA BR BKN004
OVC010 00/M01 A3018=

0000009700
840
SPUS42 KWBC 110707
SPECI
KHOU 110703Z 23007KT 9SM FEW009 SCT250 18/17 A2986=

0000009900
841
SPUS42 KWBC 110707
SPECI
KLCH 110703Z AUTO 25007KT 3/4SM BR VV002 18/18 A2985=

0000009900
842
SPUS42 KWBC 110707
SPECI
KPDK 110702Z AUTO 00000KT 3/4SM BR VV002 08/08 A2994=

0000010700
843
SPUS42 KWBC 110707
SPECI
KTMB 110702Z AUTO 00000KT 3/4SM BR FEW009 SCT020 21/21 A3009=

0000010500
844
SPUS43 KWBC 110707
SPECI
KSDF 110702Z 00000KT 2 1/2SM +RA BKN007 OVC047 11/10 A2967=

0000010600
845
SPUS43 KWBC 110707
SPECI
KSUS 110702Z AUTO 26016G22KT 10SM BKN013 OVC018 07/06 A2954=

0000014000
846
SACN62 CYQX 110700 CCA
METAR CYQX 110700Z CCA 24016G22KT 20SM FEW027 BKN140 OVC260 M06/M10
 A3002 RMK SC1AC6CI1 SLP175=

0000043800
847
SAAL40 DAMM 110700
METAR DAAG 110700Z 26004KT 9999 FEW030 SCT040 11/08 Q1018=
METAR DAAT 110700Z 15006KT CAVOK 11/M02 Q1023=
METAR DABB 110700Z 22007KT CAVOK 08/06 Q1017=
METAR DABC 110700Z 23004KT CAVOK 03/01 Q1021=
METAR DABS 110700Z 16004KT CAVOK 03/M04 Q1020=
METAR DAON 110700Z NIL=
METAR DAOO 110700Z NIL=
METAR DAUH 110700Z 00000KT CAVOK 08/06 Q1021=
METAR DAUZ 110700Z 07006KT CAVOK 07/01 Q1022=

0000140800
848
SAAL41 DAMM 110700
METAR DAAD 110700Z 00000KT CAVOK 06/05 Q1021=
METAR DAAE 110700Z 26012KT CAVOK 14/06 Q1018=
METAR DAAJ 110700Z NIL=
METAR DAAP 110700Z NIL=
METAR DAAS 110700Z 02002KT 9999 FEW030 SCT233 03/00 Q1021=
METAR DAAV 110700Z 20005KT CAVOK 10/07 Q1017=
METAR DAAY 110700Z NIL=
METAR DABT 110700Z /////KT CAVOK M00/M01 Q1022=
METAR DAEF 110700Z /////KT 9999 FEW040 BKN233 09/00 Q1021=
METAR DAEN 110700Z NIL=
METAR DAFH 110700Z 00000KT 9999 SCT030 SCT100 06/06 Q1021=
METAR DAOB 110700Z NIL=
METAR DAOF 110700Z 03008KT CAVOK 08/01 Q1015=
METAR DAOI 110700Z 00000KT 9999 FEW040 SCT100 13/05 Q1019=
METAR DAOL 110700Z NIL=
METAR DAOR 110700Z 06010KT 5000 -RA BKN033 SCT100 11/08 Q1018=
METAR DAOV 110700Z NIL=
METAR DATG 110700Z NIL=
METAR DATM 110700Z 09008KT 9999 SCT046 SCT100 13/00 Q1018=
METAR DAUA 110700Z 13018KT 8000 DRSA NSC 15/M05 Q1016=
METAR DAUB 110700Z /////KT 9999 FEW040 BKN100 07/05 Q1020=
METAR DAUE 110700Z /////KT 9999 FEW030CB SCT040 10/07 Q1020=
METAR DAUG 110700Z 34002KT CAVOK 08/05 Q1022=
METAR DAUI 110700Z 08008KT CAVOK 12/M02 Q1020=
METAR DAUK 110700Z 36005KT 9999 FEW040 SCT100 06/04 Q1022=
METAR DAUL 110700Z 00000KT 9999 SCT030 SCT080 06/06 Q1021=
METAR DAUO 110700Z /////KT 8000 NSC 06/05 Q1022=
METAR DAUT 110700Z 11009KT CAVOK 11/01 Q1017=
METAR DAUU 110700Z 33006KT 7000 FEW046 07/06 Q1021=

0000009700
849
SAAO33 GOOY 110600 CCA
METAR COR GUCY 110600Z 05004KT CAVOK 23/22 Q1010 NOSIG=

0000070000
850
SARA32 RUMS 110700
METAR UHBB 110700Z 32004MPS 300V360 CAVOK M25/M33 Q1023 NOSIG RMK
QFE750/1000 36410160=
METAR UHHH 110700Z 24007MPS CAVOK M23/M29 Q1019 NOSIG RMK QFE758/1010
23090060=
METAR UHMA 110700Z VRB02MPS 9999 FEW200 M15/M22 Q1013 NOSIG RMK
QFE756/1008=
METAR UHMD 110700Z NIL=
METAR UHMM 110700Z 05005MPS 020V140 9999 FEW066 M19/M29 Q1009 NOSIG
RMK QFE742 88820555=
METAR UHPP 110700Z 36002MPS 9999 SCT030 BKN100 M05/M13 Q0996 NOSIG
RMK QFE743/0991 SC05 055 055=
METAR UHSS 110700Z 00000MPS 6000 -SHSN BKN024CB M15/M16 Q1012 NOSIG
RMK QFE758/1010 01810366=
METAR UHWW 110700Z 00000MPS 9999 BKN050 M06/M22 Q1024 NOSIG RMK
QFE767/1022 25CLRD70=

0000012000
851
SARA35 RUMS 110700
METAR USCM 110700Z VRB02MPS 6000 OVC015 M06/M07 Q1009 NOSIG 19420150
RMK QFE719=

0000104600
852
SARS35 RUMS 110700
METAR USPP 110700Z 12005MPS 5000 BR OVC007 M04/M04 Q1005 21310140
TEMPO -FZDZ RMK QFE743/0991 MOD ICE INC 450-900=
METAR UWKD 110700Z 16013G16MPS 5000 -BLSN OVC005 M00/M01 Q0996
R11/7/0240 TEMPO 1500 OVC004 RMK QFE737/0983=
METAR UWKE 110700Z 17010G13MPS 9999 DRSN OVC006 M02/M03 Q1001 NOSIG
RMK  QBB190 QFE734/0978 21420542=
METAR UWKS 110700Z 16009MPS 1400 SHSN OVC005CB M01/M01 Q0991 TEMPO
0700 +SHSN VV003 RMK QBB150 QFE730 24590532=
METAR UWLW 110700Z 16011G15MPS 0700 R20/0700 +SNRA VV004 M01/M01
Q0997 20820550 TEMPO 17015MPS 0500 +SNRA VV002 RMK QFE742=
METAR UWOR 110700Z 26003MPS 9999 OVC007 M00/M01 Q1011 25450245 NOSIG
RMK QFE735/0980=
METAR UWOO 110700Z 21004MPS 5000 -FZDZ BR OVC010 M01/M02 Q1011
26830336 TEMPO 1000 BR OVC003 RMK QFE748/0997=
METAR UWSS 110700Z 19006G09MPS 0300 R12/0550 RASN FG VV002 01/01
Q0996 12290350 NOSIG RMK QVV080 QFE735=
METAR UWWW 110700Z 15007MPS 4800 BR BKN007 OVC100 M00/M02 Q1000
23////45 33//99// TEMPO OVC004 RMK QFE739/0986=

0000011400
853
SARA31 RUMS 110700
METAR UEEE 110700Z 25001MPS CAVOK M43/M47 Q1035 NOSIG RMK QFE768
23490145=

0000040300
854
SARA33 RUMS 110700
METAR UIAA 110700Z 00000MPS 9999 SKC M21/M31 Q1030 NOSIG RMK QFE713
29CLRD70=
METAR UIBB 110700Z 14002MPS 6000 -SHSN SCT017CB OVC200 M17/M18 Q1027
NOSIG RMK QFE727/0969 30490240=
METAR UIII 110700Z 27001MPS CAVOK M12/M15 Q1030 NOSIG RMK QFE730/0973
12490340=
METAR UIUU 110700Z 02002MPS 9999 FEW033 BKN100 M18/M20 Q1031 NOSIG
RMK QFE729/0972 26450545=

00000000