0000046100
655
FTUS73 KWBC 110754 AAA
TAF AMD
KAPN 110751Z 1108/1206 15009KT P6SM -RA OVC006 WS020/20040KT
      TEMPO 1108/1109 BKN012
     FM110900 18009KT 3SM -RA BR OVC005 WS020/20040KT
     FM111800 27009KT 4SM -SN BR OVC012
     FM120000 26007KT P6SM OVC025=
KTVC 110752Z 1108/1206 14006KT 6SM -RA BR OVC025 WS020/20030KT
      TEMPO 1108/1110 BKN015
     FM111000 22005KT 3SM -RASN BR OVC008
     FM111500 27008KT 4SM -SN BR OVC015=

0000079500
656
SASN32 ESWI 110750
METAR ESKN 110750Z 36007KT 9000 BR BKN006 M02/M02 Q0999 R26/720155=
METAR ESOE 110750Z AUTO 04010KT 4700NDV -SN SCT008/// BKN010///
OVC021/// M04/M05 Q1000 RESG=
METAR ESOK 110750Z AUTO 06010KT 2300 -SN FEW004/// SCT005///
BKN007/// M03/M04 Q0999=
METAR ESOW 110750Z AUTO 01007KT 9999NDV FEW011/// OVC031///
M05/M07 Q1001=
METAR COR ESSA 110750Z 35004KT 9999 FEW008 OVC036 M04/M05 Q1001
R01L/520258 R08/520164 R01R/////// TEMPO 2000=
METAR ESSB 110750Z 01005KT 5000 -SN FEW014 BKN030 M04/M04 Q1001
R30/690251=
METAR ESSD 110750Z AUTO 01005KT 9999 -SN FEW010/// OVC016/// M08/M10
Q1002=
METAR ESSP 110750Z AUTO VRB02KT 6000NDV -RA VV005 00/00 Q0999 REDZ=
METAR ESSV 110750Z 23015KT 9999 -RA SCT008 BKN024 04/04 Q1000
R21/29//95=

0000068100
657
SASN33 ESWI 110750
METAR ESNG 110750Z AUTO 31004KT 9999 NCD M24/M27 Q1013 RESG=
METAR ESNK 110750Z AUTO 34012KT 8000 -SN FEW022/// SCT037/// M10/M13
Q1006=
METAR ESNN 110750Z AUTO 33010KT 3000NDV -SN NCD M10/M12 Q1005
R16/49/79=
METAR ESNO 110750Z AUTO 35013G23KT 3000 -SN ///038 M12/M15 Q1004=
METAR ESNQ 110750Z AUTO 21003KT 1100NDV R03/P1500D R21/P1500D SG
NCD M23/M25 Q1013 RESN=
METAR ESNS 110750Z 36013KT 1500 SN VV007 M14/M15 Q1008=
METAR ESNU 110750Z 35014KT 5000 -SN VV026 M12/M14 Q1005 R14/49//50=
METAR ESNZ 110750Z 03003KT 9999 -SN OVC045 M15/M16 Q1004=
METAR ESUT 110750Z AUTO VRB07G22KT 360V360 9999 FEW110/// M13/M21
Q1005=

0000053500
658
SASN34 ESWI 110750
METAR ESCF 110750Z AUTO 23008KT 9000NDV RA BKN020/// OVC029/// 
03/03 Q0999=
METAR ESDF 110750Z AUTO 24007KT 9999NDV SCT010/// OVC020/// 05/04 
Q1004=
METAR ESIB 110750Z AUTO 23007KT 9999NDV SCT015/// BKN021/// 
OVC110/// 05/04 Q0999=
METAR ESMV 110750Z NIL=
METAR ESPA 110750Z 01009KT CAVOK M16/M19 Q1011=
METAR ESPE 110750Z AUTO 36006KT 330V030 9999NDV NCD M17/M21 Q1012=
METAR ESSL 110750Z AUTO 23008KT 9999NDV FEW023/// SCT026///
BKN032/// 04/03 Q0999 REUP RERA R29/19//95=

0000040800
659
SASN35 ESWI 110750
METAR ESGR 110750Z NIL=
METAR ESKM 110750Z NIL=
METAR ESNL 110750Z AUTO 36010KT 9999NDV IC FEW012/// SCT015///
BKN024/// M14/M17 Q1007=
METAR ESNX 110750Z AUTO 02008KT 9999NDV NCD M18/M21 Q1008=
METAR ESNY 110750Z NIL=
METAR ESSF 110750Z NIL=
METAR ESSK 110750Z NIL=
METAR ESUD 110750Z AUTO 02005KT 7000 -SN FEW021/// SCT034///
BKN043/// M15/M18 Q1008=

0000024200
660
SAHO31 MHTG 110800
METAR MHLC 110800Z 00000KT 9999 FEW028 20/19 Q1013 A2991 NOSIG=
METAR MHLM 110800Z 00000KT 9999 FEW026 BKN080 22/22 Q1014 A2994
NOSIG=
METAR MHTG 110800Z 06003KT 9999 FEW022 17/14 Q1019 A3009 NOSIG=

0000009800
661
SABZ22 SBBR 110800
METAR SBBR 110800Z 00000KT 9999 FEW030 SCT070 20/14
Q1018=

0000063800
662
FASN50 ESWI 110700
ESAA GAMET VALID 110800/111400 ESSA- 
SWEDEN FIR/A BLW FL125 
SECN I 
SFC WSPD: NIL 
SFC VIS: 08/14 3000-5000 M RA RA DZ 
SIGWX: NIL 
SIG CLD: 08/14 BKN SFC/500 FT AGL 
ICE: 08/14 MOD 500FT AGL/ABV FL125 
TURB: NIL 
MTW: NIL 
SIGMET APPLICABLE: AT TIME OF ISSUE NIL 
SECN II 
PSYS: SEE SIGNIFICANT WEATHER CHARTS 
WIND/T: 08/11 2000 FT 260/25 KT PS00 FL050 270/25 KT MS04 FL100 
270/35 KT MS15 
11/14 2000 FT 260/20 KT PS00 FL050 280/20 KT MS05 FL100 280/35 KT 
MS14 
CLD: SEE SIGNIFICANT WEATHER CHARTS 
FZLVL: 08/14 SFC-2000 FT AGL 
MNM QNH: 997 HPA 
VA: NIL

0000066000
663
FASN51 ESWI 110700
ESAA GAMET VALID 110800/111400 ESSA- 
SWEDEN FIR/B BLW FL125 
SECN I 
SFC WSPD: NIL 
SFC VIS: 08/14 3000-5000 M RA 1500-3000 M RASN ?1500 M SN 
SIGWX: NIL 
SIG CLD: 08/14 BKN SFC/500 FT AGL 
ICE: 08/14 MOD 500FT AGL/ABV FL125 
TURB: NIL 
MTW: NIL 
SIGMET APPLICABLE: AT TIME OF ISSUE NIL 
SECN II 
PSYS: SEE SIGNIFICANT WEATHER CHARTS 
WIND/T: 08/11 2000 FT 250/30 KT PS00 FL050 280/30 KT MS04 FL100 
280/30 KT MS14 
11/14 2000 FT 290/20 KT PS00 FL050 280/25 KT MS04 FL100 280/35 KT 
MS14 
CLD: SEE SIGNIFICANT WEATHER CHARTS 
FZLVL: 08/14 SFC-2000 FT AGL 
MNM QNH: 997 HPA 
VA: NIL

0000052500
664
SAFI32 EFHK 110750
METAR EFHA 110750Z AUTO 01007KT 7000 -SN OVC012 
M08/M09 Q0999=
EFHF 110750Z 35007KT 320V040 9999 BKN009 M04/M05 Q0999=
METAR EFKA 110750Z AUTO 05011KT 6000 -SN OVC021 
M09/M11 Q1002=
EFKK 110750Z AUTO 05010KT 9999 -SG FEW015 BKN050 BKN070 M11/M13
Q1004=
EFMA 110750Z AUTO 33002KT 9999 -SHSN FEW006 OVC031 M02/M02 Q1000=
METAR EFPO 110750Z AUTO VRB02KT 3400 -SG SCT009/// OVC011/// M04/M05 
Q0999 REUP=
EFSI 110750Z AUTO 06008KT 020V100 9999 -SN OVC017 M09/M11 Q1001=

0000009500
665
SABW31 VGEG 110750
METAR VGEG 110750Z 24006KT 4000 HZ NSC 23/11 Q1014 NOSIG=

0000010300
666
SAUK31 EGGY 110750 CCA
METAR COR EGLL 110750Z 30009KT 9999 SCT018 07/05 Q1016 NOSIG=

0000043300
667
FTBZ42 KWBC 110754
TAF
TAF SBRJ 110730Z 1112/1124 35005KT 9999 FEW020 TX33/1117Z
      TN28/1123Z
      BECMG 1114/1116 16010KT RMK PGV=
TAF SBSJ 110730Z 1112/1212 35005KT 9999 FEW020 TX34/1117Z
      TN19/1208Z
      BECMG 1113/1115 10005KT SCT025
      BECMG 1117/1119 08005KT PROB30 1118/1122 TS SCT020 FEW025CB
      BECMG 1122/1124 14005KT FEW020
      BECMG 1203/1205 00000 KT 7000 RMK PGV=

0000023200
668
FTUS53 KWBC 110754 AAA
TAF AMD
KTVC 110752Z 1108/1206 14006KT 6SM -RA BR OVC025 WS020/20030KT
      TEMPO 1108/1110 BKN015
     FM111000 22005KT 3SM -RASN BR OVC008
     FM111500 27008KT 4SM -SN BR OVC015=

0000164100
669
SPUS70 KWBC 110754
SPECI
KNFE 110750Z AUTO 28006KT 2SM +RA BR SCT006 OVC014 18/16 A3007 RMK
     AO2 VIS 1 1/4V2 1/2 P0050=
KDMO 110750Z AUTO 28011KT 3SM BR BKN004 OVC010 03/02 A2964 RMK AO2
     CIG 003V007=
KECG 110750Z AUTO 18011G22KT 9SM -RA SCT007 BKN017 OVC023 18/17
     A3008 RMK AO2 P0018 TSNO=
KFAY 110750Z AUTO 13004KT 1 1/4SM BR OVC007 17/17 A3001 RMK
     AO2=
KFLD 110750Z AUTO 24007KT 2 1/2SM BR OVC003 02/01 A2939 RMK
     AO2=
KGEZ 110750Z AUTO 19011KT 1 3/4SM BR OVC003 08/ A2958 RMK AO2 VIS
     3/4V5 RAE10 P0001 $=
KPAE 110750Z AUTO 15015KT 2 1/2SM -RA BR FEW024 OVC029 09/08 A2956
     RMK AO2 P0007 400940067=
KSHN 110750Z AUTO 15005KT 3SM RA BR SCT009 BKN017 OVC022 09/08
     A2955 RMK AO2 PRESFR P0012 TSNO=
KVPZ 110750Z AUTO 20007KT 1/4SM FG VV002 04/04 A2949 RMK AO2 RAE22
     P0001 TSNO=
PAGK 110750Z AUTO 33005KT 2 1/2SM -SN BR OVC045 M12/M14 A2923 RMK
     AO2 P0000 TSNO=
KGMU 110751Z AUTO 03005KT 3SM -RA BR OVC004 08/07 A2997 RMK AO2
     RAE0656B16 CIG 003V007 P0001=
KGRB 110751Z AUTO 21007KT 3SM BR OVC003 01/01 A2939 RMK AO2=
KMGY 110751Z AUTO 18009KT 8SM -RA BKN005 BKN011 OVC055 09/09 A2964
     RMK AO2 P0010=
KASX 110751Z AUTO 00000KT 6SM BR BKN014 OVC019 M04/M04 A2943 RMK
     AO2 SNB05E25 P0000=
KCDW 110751Z VRB03KT 1 1/2SM BR BKN004 OVC024 01/00 A3011 RMK AO2
     RAE44 P0006=
KEET 110751Z AUTO 17009G16KT 10SM OVC006 16/16 A2981 RMK AO2 CIG
     005V009 PRESFR=
KSMQ 110751Z AUTO 33004KT 2SM BR OVC006 02/01 A3007 RMK AO2 RAE07
     P0001 TSNO=
KSSF 110751Z AUTO 00000KT 3SM BR CLR 12/11 A2990 RMK AO2 $=

0000010400
670
SACV20 GVAC 110800
METAR GVAC 110800Z 04005KT 9999 BKN013 BKN015 20/14 Q1016
NOSIG=

0000011300
671
SPCN43 CWAO 110753
SPECI CWHN 110753Z AUTO 27008KT 220V280 9SM OVC002 M09/M09 A2949 RMK
ICG=

0000028400
672
SAMX44 MMMD 110754
METAR MMCZ 110740Z 13005KT 7SM  FEW080 21/21 A2997 RMK 8/060 SC=
METAR MMMD 110745Z 10004KT 7SM  SKC 20/20 A2995=
METAR MMTP 110742Z 00000KT 8SM  SCT080 23/21 A2990 RMK 8/030=
METAR MMUN 110745Z 14007KT 7SM  FEW015TCU 25/23 A2998 RMK 8/200=

0000008900
673
SAID33 WALR 110800
METAR WALR 110800Z 33009KT 8000 BKN015 30/24 Q1008=

0000045700
674
SABX31 EBBR 110750
METAR EBAW 110750Z 23008KT 9000 BKN006 04/03 Q1015 NOSIG=
METAR EBBR 110750Z 23010KT 9999 BKN009 05/03 Q1015 BECMG BKN012=
METAR EBCI 110750Z 20008KT 9999 FEW005 BKN040 05/04 Q1015 TEMPO
     BKN005=
METAR EBLG 110750Z 20010KT CAVOK 05/03 Q1015 TEMPO BKN008=
METAR EBOS 110750Z 20009KT 4500 BR FEW007 04/02 Q1015 BECMG 6000=
METAR ELLX 110750Z VRB02KT 3000 R24/0800VP1500U BR BKN037 02/02
    Q1016 NOSIG=

00000000