0000010000
615
SAAL41 DAMM 110900 RRH
METAR DAOV 110900Z 14010KT 9999 BKN033 SCT100 15/08 Q1020=

0000014400
616
FTCI44 ZSJN 110914
TAF ZSJN 110914Z 111212 03003MPS 3500 HZ NSC TX05/06Z TNM09/23Z
BECMG 1618 1700 BR
BECMG 0204 3500 HZ=

0000010500
617
SAAL41 DAMM 110900 RRI
METAR DAOB 110900Z 18004KT 9999 SCT026 BKN093 08/07 Q1021 RERA=

0000009700
618
SPAU32 AMMC 110917
SPECI YSRI 110918Z AUTO 09006KT 9999 // SCT115 27/13 Q1014=

0000011700
619
SPUS31 KWBC 110917
SPECI
KIND 110913Z 16005KT 1/4SM R05L/1600V2200FT -RA FG VV002 03/03
A2951=

0000009900
620
SPUS41 KWBC 110917
SPECI
KBVY 110913Z AUTO 11005KT 1/4SM FG VV003 02/01 A3015=

0000009900
621
SPUS42 KWBC 110917
SPECI
KGLS 110913Z AUTO 21005KT 1/4SM FG VV001 16/16 A2989=

0000012300
622
SPUS42 KWBC 110917
SPECI
KPDK 110913Z AUTO 13006KT 1 1/2SM TSRA BR SCT003 BKN014 OVC022
10/09 A2988=

0000014100
623
WSIR31 OIII 111720
OIIX SIGMET 8 VALID 111730/112030 OIII-
OIIX TEHRAN FIR EMBD TS OBS LOC OVER SW,S OF IRAN
    TOP FL320=
0000024900
624
SNHK22 VHHH 111715
AAXX 11171
45032 36/// /1402 10143 20129 30219 40236 57001=
45035 36/// /0803 10140 20122 30196 40238 54000=
45039 36/// /0201 10137 20127 30225 40240 54000=
45044 36/// /0305 10155 20124 30140 40236 54000=
0000178800
625
SZPS01 AMMC 111724
CREX++
T000103 A001 D01021 D06025++
-0204190 14737360 56130 2014 01 11 17 17 3023 11 07 00 01
00751 0082 00755 0085 00754 0082 00753 0079 00755 0080 00759 0082+
-0669280 15640860 56363 2014 01 11 17 17 //// 11 07 00 01
00617 -0061 00616 -0061 00613 -0063 00613 -0062 00613 -0062 00614 -0060+
-0942890 15995560 56670 2014 01 11 17 17 3038 11 07 00 01
00647 -0063 00649 -0062 00648 -0064 00652 -0062 00650 -0065 00655 -0061+
-1072080 16580190 57131 2014 01 11 17 17 //// 11 07 00 01
02779 2020 03125 2368 03104 2348 02651 1897 03081 2328 02651 1900+
-1551560 16718860 57210 2014 01 11 17 17 //// 11 07 00 01
01032 -0108 01033 -0105 01053 -0083 01028 -0107 01023 -0109 01020 -0111+
-1775690 16830030 57320 2014 01 11 17 17 3015 11 07 00 01
01115 -0047 01112 -0049 01109 -0051 01110 -0050 01111 -0048 01113 -0046+
-4397330 16861610 65180 2014 01 11 17 17 2880 11 07 00 01
01960 0507 01926 0468 01927 0464 01949 0479 01980 0505 01966 0485+
-2120470 -15978530 65980 2014 01 11 17 17 3008 11 07 00 01
00750 0015 00790 0056 00748 0015 00770 0038 00727 -0004 00763 0033+
-2113810 -17518140 66600 2014 01 11 17 17 //// 11 07 00 01
01413 0099 01404 0092 01411 0102 01401 0095 01403 0099 01395 0095+
-1382670 -17176110 66840 2014 01 11 17 17 3010 11 07 00 01
00922 0073 00913 0067 00917 0073 00908 0067 00902 0064 00903 0068+
-1813250 17842750 67050 2014 01 11 17 17 3030 11 07 00 01
01534 0081 01527 0076 01532 0085 01529 0084 01522 0079 01524 0085+
-1760530 17743810 67070 2014 01 11 17 17 3028 11 07 00 01
01644 0026 01640 0025 01635 0023 01633 0024 01629 0023 ///// ////+
-0850250 17919500 67440 2014 01 11 17 17 3027 11 07 00 01
02133 0018 02123 0011 02120 0012 02116 0011 02114 0013 02106 0009++
7777

0000192400
626
SZAU01 AMMC 111724
CREX++
T000103 A001 D01021 D06025++
-1927750 14705860 59260 2014 01 11 17 17 3022 11 07 00 01
01331 0174 01335 0169 01345 0170 01354 0169 01364 0171 01374 0172+
-2316110 15079000 59670 2014 01 11 17 17 2998 11 07 00 01
02314 0170 02323 0168 02333 0165 02342 0162 02350 0159 02359 0155+
-3447330 15091170 60420 2014 01 11 17 17 2945 11 07 00 01
01229 -0033 01228 -0037 01232 -0037 01231 -0041 01240 -0036 01249 -0030+
-4105000 14591500 60910 2014 01 11 17 17 2888 11 07 00 01
01114 -0076 01108 -0090 01119 -0085 01122 -0088 01140 -0077 01149 -0074+
-4254640 14793080 61170 2014 01 11 17 17 2903 11 07 00 01
01433 0009 01431 0005 01440 0012 01444 0014 01443 0011 01451 0017+
-3834390 14161360 61410 2014 01 11 17 17 2908 11 07 00 01
00751 0060 00724 0034 00714 0025 00692 0003 00717 0029 00702 0015+
-3214890 13364170 62000 2014 01 11 17 17 2955 11 07 00 01
01281 0024 01278 0025 01275 0027 01271 0027 01267 0027 01262 0027+
-3387080 12189720 62080 2014 01 11 17 17 2948 11 07 00 01
00744 0005 00735 -0002 00721 -0015 00719 -0015 00701 -0031 00712 -0018+
-3182560 11573860 62237 2014 01 11 17 17 2972 11 07 00 01
00617 0084 00609 0078 00599 0069 00598 0069 00595 0067 00599 0072+
-2422000 11339750 62385 2014 01 11 17 17 //// 11 07 00 01
00566 -0217 00732 -0050 00704 -0077 00689 -0092 00696 -0084 00762 -0017+
-2181670 11419110 62430 2014 01 11 17 17 //// 11 07 00 01
01255 -0085 01237 -0101 01266 -0071 01242 -0094 01238 -0097 01235 -0098+
-1800080 12221830 62650 2014 01 11 17 17 3043 11 07 00 01
04447 0233 04442 0229 04438 0229 04433 0225 04428 0224 04423 0221+
-1247190 13084580 63230 2014 01 11 17 17 3050 11 07 00 01
05116 -0104 05116 -0102 05114 -0102 05113 -0101 05113 -0099 05114 -0097+
-1386000 13641580 63511 2014 01 11 17 17 3042 11 07 00 01
01580 0098 01578 0098 01576 0099 01574 0099 01572 0099 01570 0100++
7777

0000046900
627
SZPA01 AMMC 111724
CREX++
T000103 A001 D01021 D06025++
0136250 17293000 67590 2014 01 11 17 17 3015 11 07 00 01
01629 -0001 01624 -0003 01633 0010 01620 0001 01622 0006 01614 0002+
0710610 17137250 67680 2014 01 11 17 17 3013 11 07 00 01
00987 0048 00978 0042 00976 0043 00975 0045 00973 0045 00967 0042+
0698060 15820000 67950 2014 01 11 17 17 3022 11 07 00 01
00704 0086 00705 0087 00704 0087 00703 0086 00702 0086 00704 0089++
7777

0000034800
628
SZIO01 AMMC 111724
CREX++
T000103 A001 D01021 D06025++
-1211670 09689190 46280 2014 01 11 17 17 3018 11 07 00 01
00718 -0009 00721 -0007 00720 -0009 00722 -0008 00721 -0010 00722 -0010+
-1042940 10566940 46290 2014 01 11 17 17 //// 11 07 00 01
00659 0030 00651 0022 00639 0009 00665 0035 00615 -0016 00679 0048++
7777

0000757900
629
SNVF21 EGRR 111700
BBXX
62105 11174 99550 70132 46/// /1521 10091 20039 40117 57026 22200
00108 10807 70033 333 90710 91128=
62301 11174 99524 70047 46/// /1505 10074 20026 40219 52008 22200
00096 10603 70013=
62001 11174 99452 70050 46/// /1113 10118 20077 40195 57004 22200
00128 10905 70023=
62107 11174 99501 70061 46/// /1218 10094 20046 40209 55000 22200
00106 11205 70025=
62163 11174 99475 70084 46/// /1715 10113 20088 40179 55001 22200
00121 10705 70027=
64045 11174 99591 70117 46/// /2711 10066 20024 40119 53008 22200
00096 10808 70042=
62118 11174 99577 10009 47997 /2923 10057 20015 40097 52024 700// 22200 10607 70033=
62143 11174 99577 10018 47598 /3113 10053 20014 40110 52026 700// 22200 10607 70034=
62117 11174 99579 10000 47597 /2828 10061 20006 40094 53022 700// 22200 10606 70031=
62102 11174 99579 10018 46/// /2926 10055 20006 40083 52025 22200 10707 70034=
62134 11174 99580 10014 47596 /3025 10060 20019 40090 52024 700// 22200 10706 70032=
62114 11174 99583 10000 46/// /2832 10062 20023 40084 52020 22200=
ZQSD5 11174 99583 10008 47598 ///// 10061 20020 40081 52025 700// 22200 1//08 70041=
62113 11174 99584 10002 47698 /2928 10063 21002 40094 51029 700// 22200=
62129 11174 99584 10003 46/// /2927 10064 21000 40087 52023 22200=
62128 11174 99587 10014 47998 /2729 10054 20009 40070 52021 700// 22200 10707 70034=
63057 11174 99592 10015 47997 /2927 10058 21005 40048 53019 700// 22200 10707 70034=
MQSY9 11174 99593 10015 47598 /2828 10066 21002 53017 700// 22200=
63110 11174 99595 10015 47498 /3123 10066 20017 40048 53021 700// 22200 10607 70033=
63109 11174 99596 10015 46/// /3225 10053 20007 40037 53020 22200=
63056 11174 99597 10016 47498 /3027 10044 20008 40036 53019 700// 22200 10607 70033=
63104 11174 99612 10016 47498 /3019 10044 20017 49982 57017 700// 22200 10806 70029=
63103 11174 99612 10011 46/// ///// 10060 20029 49980 56005 22200 10707 70036=
63101 11174 99612 10009 46/// /2827 10061 20018 49977 56017 22200 10708 70039=
63107 11174 99611 10017 46/// /3122 10051 49982 57016 22200=
63112 11174 99611 10010 47998 /2827 10052 20015 49981 56011 700// 22200 10707 70036=
63113 11174 99610 10017 46/// /2921 10057 20030 49994 56005 22200 10706 70030=
63105 11174 99610 10017 47597 /2921 10077 20018 49983 57016 700// 22200=
63106 11174 99610 10017 46/// /2921 10047 57014 22200=
63108 11174 99608 10017 47/97 /2729 10052 20023 40000 55000 761// 22200 10607 70033=
63055 11174 99606 10016 47498 /2724 10048 20012 40014 52012 700// 22200 10607 70033=
62112 11174 99584 70002 47598 /2918 10073 20022 40090 52019 700// 22200=
PJAI 11174 99581 70014 47598 /2722 10063 21006 40110 52023 700// 22200=
62111 11174 99580 70003 46/// /2930 10062 20007 40122 52025 22200 10606 70031=
64041 11174 99607 70026 47697 /2935 40034 52018 700// 22200 10909 70047=
MWYG6 11174 99603 70040 47596 /2828 40075 53025 762// 22200=
63115 11174 99616 10013 47296 /0914 10022 20006 49984 57011 771// 22200 10806 70032=
63114 11174 99613 10017 47296 /1212 10028 20028 49988 57009 762// 22200=
62142 11174 99530 10021 47998 /3021 10061 20030 40194 52028 700// 22200 10403 70016=
62145 11174 99531 10028 47498 /2920 10062 20014 40200 52029 700// 22200 10504 70020=
62144 11174 99534 10017 47998 /2819 10060 20010 40204 52030 700// 22200 10504 70018=
62121 11174 99535 10027 46/// ///// 10065 20010 40181 52030 22200=
62150 11174 99536 10007 47999 /2720 10059 20006 40205 52025 700// 22200 10503 70016=
62148 11174 99536 10015 46/// ///// 22200=
62149 11174 99537 10011 47999 /2720 10064 20012 40194 52027 700// 22200 10503 70017=
62131 11174 99539 10012 46/// /2915 10063 20020 40188 52029 22200=
62127 11174 99540 10007 47999 ///// 10061 20005 40189 52027 700// 22200 10504 70018=
62165 11174 99540 10011 47598 /2718 10062 20023 40191 52027 700// 22200 10504 70018=
63117 11174 99613 10011 47497 /3122 49981 56016 700// 22200=
62123 11174 99563 10022 47598 /3130 10064 20003 40116 52028 700// 22200 1//07 70036=
62132 11174 99564 10020 46/// /3226 10063 21005 40135 52028 22200=
62120 11174 99564 10021 47598 /3128 10057 20003 40118 52028 700// 22200=
62154 11174 99564 10022 46/// /3125 10060 21003 40112 52027 22200=
62152 11174 99570 10018 47598 /3021 10062 20008 40116 52023 700// 22200 10607 70037=
62119 11174 99570 10019 47597 /3030 10058 20014 40115 52023 700// 22200 10607 70035=
62133 11174 99571 10009 46/// /3026 40113 52025 22200 10607 70034=
62164 11174 99572 10008 47597 /2921 10063 20012 40115 52027 700// 22200 10607 70034=
62146 11174 99572 10021 47497 /3227 10041 20020 40106 52023 762// 22200 10606 70032=
62140 11174 99573 10013 46/// ///27 10063 20006 40102 52025 22200=
62122 11174 99573 10016 47598 /3029 10063 20015 40097 53018 700// 22200 10607 70035=
62153 11174 99573 10020 47497 /3126 40099 52026 700// 22200 10707 70034=
62104 11174 99574 10013 47497 /3228 10051 20001 40102 52029 700// 22200=
62116 11174 99576 10011 47998 /3118 10049 20015 40098 52028 700// 22200 10607 70034=
62155 11174 99577 10007 47598 /2930 10063 20017 40108 52025 700// 22200 10607 70033=
AMOUK06 1117/ 99508 10009 46/// ///// 10097 20025 40226=
AMOUK32 1117/ 99559 70047 46/// ///// 10051 20017 40171=
AMOUK36 1117/ 99581 70024 46/// ///// 10054 20014 40126=
AMOUK29 1117/ 99512 70074 46/// ///// 1//// 2//// 40198=
AMOUK24 1117/ 99570 70060 46/// ///// 10067 20012 40160=
AMOUK23 1117/ 99578 70031 46/// ///// 10037 20012 40131=
AMOUK43 1117/ 99546 70059 46/// ///// 10040 20017 40203=
AMOUK02 1117/ 99533 70061 46/// ///// 10074 20001 40211=
AMOUK31 1117/ 99558 70056 46/// ///// 10062 20029 40181=
AMOUK04 1117/ 99535 70030 46/// ///// 10064 20034 40203=
AMOUK28 1117/ 99576 70067 46/// ///// 1//// 2//// 40147=
AMOUK30 1117/ 99564 70055 46/// ///// 10061 20017 40169=
AMOUK11 1117/ 99533 70062 46/// ///// 10067 20005=
AMOUK45 11174 99509 70014 46/// /3502 10072 20006 40217 22200   402170106=
AMOUK14 1117/ 99533 70062 46/// ///// 10066 21009 40203=
AMOUK44 1117/ 99540 70029 46/// ///// 1//// 2//// 40208=
AMOUK13 1117/ 99518 10018 46/// ///// 10083 20025 40216=
AMOUK34 1117/ 99520 10039 46/// ///// 10078 20028 40194=
AMOUK42 1117/ 99506 70025 46/// ///// 10074 20016 40229=
AMOUK03 1117/ 99537 70003 46/// ///// 10065 20019 40193=
AMOUK26 1117/ 99503 70004 46/// ///// 10081 20030 40225=
AMOUK09 1117/ 99517 10017 46/// ///// 10074 20073 40218=
AMOUK33 1117/ 99555 10084 46/// ///// 10054 20013 40067=
AMOUK05 1117/ 99519 10041 46/// ///// 10074 20022 40202=
62023 11173 99514 70079 46/97 /1618 10086 2//// 4//// 5////
22200 10704 70022 555 70041 80002=
62304 11174 99512 10018 46/98 /3118 10082 20022 40221 51020 22200
00101 10501 70003 333 90710 91125=
62103 11174 99499 70029 46/99 /1505 10091 20036 40227 52011 22200
00112 11003 70013=
62304 11174 99512 10018 46/98 /3118 10082 40221 52019 22200 10501
70003=
62050 11174 99500 70044 46/// /1310 10094 20037 40221 22200 10802
70011=
62305 11174 99504 70000 46/// /2707 10085 20033 40231 52015 22200
00110 10701 70005=
62170 11174 99514 10020 46/98 /2720 10082 20019 40223 52024 22200
00105 10401 70005=
62095 11174 99529 70156 46/// /1726 10102 20062 40045 56044 22200
00100 10809 70043 333 90710 91137=
64046 11174 99605 70042 46/// /2932 10073 20015 40057 333 90710 91142=
62081 11174 99521 70105 46/// /1421 10087 20039 40151 57018 22200
10905 70027 333 90710 91131=
62303 11174 99516 70051 46/// /1410 10077 20025 40219 22200 10703
70016=
0000011000
630
UANT01 CWAO 111722
ARP BAW60T 4652N04317W 1722 F380 MS58 304/55 KT
GVIIO QXT AOE 111722 F34A
0000011100
631
UANT01 CWAO 111722
ARP DAH2700 4717N04248W 1722 F330 MS59 285/48 KT
7TVJZ QXT AOE 111722 J39A
0000011100
632
UANT01 CWAO 111723
ARP AFR848 4759N02026W 1723 F320 MS53 189/112 KT
FGSQP QXT AOE 111723 F13A
0000010800
633
UANT01 CWAO 111723
ARP THY1 5207N02347W 1723 F320 MS53 175/70 KT
TCJJN QXT AOE 111723 F26A
0000011100
634
UANT01 CWAO 111723
ARP IBE6253 4544N02158W 1723 F330 MS52 200/88 KT
ECLUB QXT EUA 111723 J45A
00000000