0000035500
615
FTAE33 VTBB 110500
TAF VLLB 110500Z 1106/1200 36002KT 7000 SCT018 SCT060=
TAF VLLN 110500Z 1106/1200 32002KT 7000 SCT017 BKN100=
TAF VLPS 110500Z 1106/1200 22004KT 8000 FEW020 FEW200=
TAF VLSK 110500Z 1106/1200 09006KT 8000 FEW020 FEW100=
TAF VLVT 110500Z 1106/1200 34004KT 7000 FEW020 FEW200 TEMPO 1112/1124
         3000 BR=

0000030700
616
SACZ43 LKPW 110500
METAR LKCV 110500Z 22004KT CAVOK 01/M00 Q1018 NOSIG=
METAR LKKB 110500Z 22007KT CAVOK 01/00 Q1017 NOSIG=
METAR LKLN 110500Z NIL=
METAR LKNA 110500Z 20004KT 9999 FEW040 BKN230 M00/M01 Q1018
           NOSIG=
METAR LKPD 110500Z 00000KT CAVOK 02/M01 Q1018 NOSIG=

0000058700
617
FTAR20 OEJD 110500 RRA
TAF OOMS 110500Z 1106/1212 04012KT CAVOK BECMG 1116/1118 12008KT 9999
FEW030 SCT100
           PROB30 TEMPO 1209/1212 RA SCT020 BKN080=
TAF OTBD 110454Z 1106/1212 11010KT 7000 RA FEW020 BKN100 OVC080
PROB30 TEMPO 1106/1116 VRB25KT 3000 TSRA SCT020 FEW030CB BKN100
OVC080 BECMG 1111/1113 34005KT TEMPO 1121/1212 33012KT 7000 FEW030
SCT120=
TAF OYSN 110400Z 1106/1212 04012KT 8000 SCT030 SCT060 TEMPO 1110/1118
                 22008G18KT 5000 BLDU FEW025CB BKN030
                 BECMG 1120/112 VRB03KT BECMG 1206/1208 04012KT=

0000010600
618
SACN62 CYQB 110500
METAR CYQB 110500Z 00000KT 12SM OVC017 M08/M10 A3020 RMK SC8 SLP234=

0000010600
619
SACN61 CYPY 110500
METAR CYPY 110500Z AUTO 28004KT 9SM OVC037 M18/M20 A2957 RMK SLP038=

0000012500
620
SACN61 CYQA 110500
METAR CYQA 110500Z AUTO 14011KT 1 1/4SM -RA BR OVC003 01/01 A2984 RMK
 PRESFR SLP120=

0000068100
621
FTAE32 VTBB 110500
TAF VDPP 110500Z 1106/1124 03008KT 9999 FEW017
    TEMPO 1108/1112 35006KT=
TAF VDSR 110500Z 1106/1124 05008KT 9999 FEW017
    TEMPO 1108/1111 34006KT=
TAF VYYY 110500Z 1106/1206 04005KT 9000 SKC
         BECMG 1106/1108 31008KT 9000 FEW020 
         BECMG 1109/1111 26010KT 8000 FEW020=
TAF VYMD 110500Z NIL=
TAF VGHS 110500Z 1106/1212 33006KT 2500 HZ SCT015
    BECMG 1108/1110 32008KT 3000 HZ NSC
    BECMG 1114/1116 29004KT 2000 BR SCT020
    BECMG 1118/1120 VRB03KT 1500 BR SCT015
    BECMG 1123/1201 00000KT 0700 FG BKN006
    BECMG 1203/1205 02005KT 1200 BR SCT012
    BECMG 1206/1208 34006KT 2500 HZ SCT090=

0000010100
622
SPCN46 CWAO 110504
SPECI CYBN 110504Z AUTO 14006KT 2 1/4SM -RA OVC005 02/02 A2982=

0000080900
623
SAZA31 FAPR 110500
METAR FABL 110500Z 16005KT CAVOK 18/12 Q1020 NOSIG=
METAR FACT 110500Z 21006KT 180V240 9999 FEW030 17/12 Q1017 NOSIG=
METAR FAEL 110500Z 25012KT CAVOK 19/13 Q1018=
METAR FAGG 110500Z 31002KT 9999 FEW035 15/12 Q1018=
METAR FAKN 110500Z 00000KT 2500 BCFG BKN003 OVC006 19/16 Q1019 NOSIG=
METAR FALE 110500Z 21004KT 9999 FEW025 BKN040 22/19 Q1017 NOSIG=
METAR FALW 110500Z AUTO 20006KT //// // ////// 14/12 Q1017=
METAR FAMM 110500Z 07003KT CAVOK 21/08 Q1019 NOSIG=
METAR FAOR 110500Z 02007KT 340V050 CAVOK 20/12 Q1023 NOSIG=
METAR FAPE 110500Z 25012KT CAVOK 19/13 Q1018 NOSIG=
METAR FAPN 110500Z AUTO 16001KT //// // ////// 24/12 Q1017=
METAR FAPP 110500Z 16003KT 9999 SCT015TCU 20/17 Q1020 NOSIG=
METAR FAUP 110500Z 18002KT CAVOK 20/06 Q1017 NOSIG=

0000067800
624
FCHU41 LHBM 110500
TAF LHDC 110500Z 1106/1115 20005KT CAVOK BECMG 1106/1109 BKN030
    PROB30 TEMPO 1111/1115 6000 -RA OVC020=
TAF LHKE 110445Z 1106/1115 VRB02MPS CAVOK
    TEMPO 1106/1108 5000 BR MIFG NSC=
TAF LHPP 110500Z 1106/1115 VRB03KT 9999 BKN033=
TAF LHPR 110500Z 1106/1115 VRB02KT 9999 SCT030
    TEMPO 1106/1108 5000 BR
    BECMG 1108/1111 18008KT SCT030 BKN060=
TAF LHSM 110500Z 1106/1115 VRB02KT 0350 FG BKN002
    BECMG 1106/1109 14007KT 3000 BR SCT005 SCT030
    BECMG 1109/1112 20009KT 9999 NSW SCT030=
TAF LHSN 110445Z 1106/1115 VRB02MPS CAVOK
    PROB30 TEMPO 1106/1108 5000 BR MIFG NSC
    BECMG 1111/1114 18003MPS=

0000023900
625
SATA31 RUMS 110500
METAR UTDD 110500Z 08002MPS 050V110 1600 BR SCT170 M02/M03 Q1027
09CLRD70 TEMPO 0600 FZFG RMK QFE702/0936=
METAR UTDL 110500Z 06008MPS 3700 BR OVC210 M02/M07 Q1027 NOSIG RMK
QFE731/0975 8809//70=

0000021600
626
SAAY31 RUMS 110500
METAR UDYZ 110500Z VRB01MPS 1700 -SN BR BKN007 OVC016 M10/M11 Q1026
R09/490440 NOSIG=
METAR UDSG 110500Z 00000MPS M0075 R02/0075N FZFG VV001 M18/M20 Q1020
R02/CLRD70 NOSIG=

0000019000
627
SAKY31 RUMS 110500
METAR UCFM 110500Z 09002MPS 3300 FU NSC M09/M14 Q1023 R08/CLRD70
NOSIG=
METAR UCFO 110500Z 18002MPS 5000 BR FU NSC M01/M09 Q1026 R12/CLRD70
NOSIG=

0000096100
628
SAKZ31 RUMS 110500
METAR UAAA 110500Z 23002MPS 200V280 0800 R23R/0800N R23L/0600V1000D
FU FEW100 BKN200 M07/M13 Q1024 8891//60 NOSIG=
METAR UACC 110500Z 18008MPS 9999 -SN DRSN OVC017 M08/M10 Q1023
R22/8/0040 NOSIG RMK QFE736/0981=
METAR UAKK 110500Z 18011MPS 9999 DRSN FEW033 OVC/// M14/M17 Q1025
R23/850555 NOSIG RMK QFE721/0962=
METAR UAOO 110500Z 18006MPS 3300 BR BKN130 M05/M07 Q1022 R24/3///55
NOSIG RMK QFE754/1006=
METAR UARR 110500Z 16006MPS 9999 BKN007 OVC020 M01/M01 Q1009
R22/750245 TEMPO 2000 -SNRA -FZRA BR OVC003 RMK QFE753/1004=
METAR UATE 110500Z 12005MPS 9999 OVC020 01/01 Q1017 R12/3///65 NOSIG
RMK QFE760/1014=
METAR UATG 110500Z 19005MPS 5000 BR OVC033 01/01 Q1015 R14/19//65
NOSIG RMK QFE763/1018=
METAR UATT 110500Z 25003MPS 8000 OVC002 M01/M01 Q1012 R13/390135
NOSIG RMK QBB080 QFE739/0986=
METAR UAUU 110500Z 17007MPS 9999 BKN047 OVC100 M07/M10 Q1014
R15/CLRD60 NOSIG RMK QFE744/0992=

0000044100
629
FTAE31 VTBB 110500
TAF VTBS 110500Z 1106/1212 06010KT CAVOK
    BECMG 1112/1114 03005KT 9000 NSC
    BECMG 1201/1203 06010KT CAVOK=
TAF VTBD 110500Z 1106/1212 06008KT CAVOK
    BECMG 1112/1114 35005KT 9000 NSC
    BECMG 1201/1203 07008KT CAVOK=
TAF VTBU 110500Z NIL=
TAF VTCC 110500Z NIL=
TAF VTSS 110500Z NIL=
TAF VTSP 110500Z NIL=
TAF VTCT 110500Z NIL=
TAF VTSG 110500Z NIL=
TAF VTUU 110500Z NIL=

0000013800
630
SACN62 CYSB 110500
METAR CYSB 110500Z 14013KT 1SM R22/5000VP6000FT/D -SN OVC003 M02/M02
 A2974 RMK SF8 PRESFR SLP091=

0000091800
631
SAAU31 AMMC 111700
METAR YBAS 111700Z AUTO 10006KT 9999 // NCD 29/06 Q1013=
METAR YBBN 111700Z 19005KT 9999 FEW030 20/18 Q1014
     NOSIG=
METAR YBCS 111700Z 18009KT 9999 FEW025 SCT040 25/23 Q1008=
METAR YBTL 111700Z AUTO 15006KT 9999 // NCD 26/21 Q1009=
METAR YMML 111700Z 19009KT 9999 FEW015 BKN017 16/12 Q1020
     NOSIG=
METAR YPAD 111700Z 17010KT 9999 FEW016 17/13 Q1018
     FM1700 MOD TURB BLW 3000FT=
METAR YPCC 111700Z AUTO 12009KT 9999 // OVC041 27/22 Q1012=
METAR YPDN 111700Z 14008KT 9999 -RA FEW078 BKN120 25/23 Q1005=
METAR YPKU 111700Z AUTO 06008KT 9999 // NCD 26/22 Q1007=
METAR YPLM 111700Z AUTO 34003KT 9999 // NCD 25/20 Q1007=
METAR YPPH 111700Z 09021G32KT CAVOK 33/07 Q1008=
METAR YPTN 111700Z AUTO 14004KT 9999 // NCD 23/22 Q1006=
METAR YPXM 111700Z AUTO 00000KT //// // ////// 22/21 Q1012=
METAR YSSY 111700Z 00000KT CAVOK 21/19 Q1015
     NOSIG=
0000013900
632
SSVX05 CWAO 111700
ZZYY 48739 11014 1700/ 771637 171849 6113/ 11119 
11251 40090 444 20130 11014 1700/ 50400 89990 80001=
0000014500
633
SSVX05 CWAO 111700
ZZYY 48730 11014 1700/ 780636 140670 6113/ 11119 
11263 49927 52005 444 20130 11014 1700/ 50000 80140 80001=
0000014500
634
SSVX05 CWAO 111700
ZZYY 48529 11014 1700/ 775039 151355 6113/ 11131 
11216 49933 444 20130 11014 1700/ 50101 89990 80001 9////=
00000000