0000010100
235
SPCN46 CWAO 110626
SPECI CYBN 110626Z AUTO 14005KT 1 3/4SM -RA OVC002 02/02 A2974=

0000013700
236
SAUK33 EGGY 110620 RRA
METAR EGNS 110620Z 29011KT 260V330 3000 RADZ FEW010 SCT020 05/04
     Q1013 TEMPO 6000 -RADZ=

0000013700
237
SAUK36 EGGY 110620 CCA
METAR COR EGSH 110620Z 26013KT 9999 RA BKN006 08/07 Q1011 REDZ BECMG
     31008KT NSW SCT030=

0000035100
238
FTUS42 KWBC 110627 AAA
TAF AMD
KSAV 110623Z 1106/1206 18003KT 1/2SM FG VV002
      TEMPO 1106/1109 2SM BR BKN002
     FM110900 18004KT 1/4SM FG VV001
     FM111300 19009KT 4SM BR OVC004
     FM111500 21012G18KT P6SM SCT005 BKN025
     FM111900 21015G24KT 3SM +RA SCT015 OVC030
     FM112200 26010KT P6SM SCT040 BKN080=

0000040200
239
SANL31 EHDB 110625
METAR EHAM 110625Z 20012KT 170V230 5000 -RADZ FEW007 BKN008 OVC011
05/04 Q1012 TEMPO 4000=
METAR EHBK 110625Z AUTO 20009KT 9999 NSC 03/02 Q1015 NOSIG=
METAR EHGG 110625Z AUTO 21013KT 3300 +DZ FEW006 BKN007 BKN009
BKN015CB 05/04 Q1011 TEMPO 2500 SCT005 OVC006=
METAR EHRD 110625Z AUTO 20011KT 5000 -DZ FEW006 SCT008 BKN009 05/03
Q1013 TEMPO 4500 BKN006=

0000039200
240
FTUS43 KWBC 110627 AAA
TAF AMD
KGRB 110624Z 1106/1206 16005KT 2SM BR OVC004
      TEMPO 1106/1108 1/2SM -DZ FG OVC002
     FM110800 22005KT 1SM -DZSN BR OVC006
      TEMPO 1108/1111 1/2SM FG OVC003
     FM111100 24007KT 2SM -SN BR OVC006
     FM111500 30006KT 6SM -SN BKN007 OVC020
     FM111900 29010KT P6SM BKN020 BKN040
     FM112300 26008KT P6SM BKN050=

0000037900
241
FTUS41 KWBC 110627 AAA
TAF AMD
KBDR 110625Z 1106/1206 03005KT 1SM -SHRA BR OVC003
      TEMPO 1106/1109 1/2SM -SHRA FG VV002
     FM110900 12005KT 1/2SM -RA FG OVC003 WS020/19050KT
     FM111400 17011KT 3/4SM -RA BR OVC004 WS015/19050KT
     FM111800 18020G30KT 1/2SM +RA FG OVC004 WS015/19060KT
     FM120400 23012G18KT 3SM -SHRA BR SCT007 OVC030=

0000068100
242
FTUS71 KWBC 110627 AAA
TAF AMD
KBDR 110625Z 1106/1206 03005KT 1SM -SHRA BR OVC003
      TEMPO 1106/1109 1/2SM -SHRA FG VV002
     FM110900 12005KT 1/2SM -RA FG OVC003 WS020/19050KT
     FM111400 17011KT 3/4SM -RA BR OVC004 WS015/19050KT
     FM111800 18020G30KT 1/2SM +RA FG OVC004 WS015/19060KT
     FM120400 23012G18KT 3SM -SHRA BR SCT007 OVC030=
KSAV 110623Z 1106/1206 18003KT 1/2SM FG VV002
      TEMPO 1106/1109 2SM BR BKN002
     FM110900 18004KT 1/4SM FG VV001
     FM111300 19009KT 4SM BR OVC004
     FM111500 21012G18KT P6SM SCT005 BKN025
     FM111900 21015G24KT 3SM +RA SCT015 OVC030
     FM112200 26010KT P6SM SCT040 BKN080=

0000039200
243
FTUS73 KWBC 110627 AAA
TAF AMD
KGRB 110624Z 1106/1206 16005KT 2SM BR OVC004
      TEMPO 1106/1108 1/2SM -DZ FG OVC002
     FM110800 22005KT 1SM -DZSN BR OVC006
      TEMPO 1108/1111 1/2SM FG OVC003
     FM111100 24007KT 2SM -SN BR OVC006
     FM111500 30006KT 6SM -SN BKN007 OVC020
     FM111900 29010KT P6SM BKN020 BKN040
     FM112300 26008KT P6SM BKN050=

0000211600
244
SPUS70 KWBC 110626
SPECI
KBPT 110622Z AUTO 23010KT 1 1/4SM R12/4500V6000FT BR OVC002 18/18
     A2986 RMK AO2 LTG DSNT SE $=
KCEC 110622Z AUTO 16015KT 7SM OVC009 11/09 A3011 RMK AO2
     T01110094=
KCXO 110622Z AUTO 20003KT 3/4SM BR BKN007 16/16 A2986 RMK AO2=
KECG 110622Z AUTO 12008KT 4SM -RA BR BKN006 OVC015 16/16 A3009 RMK
     AO2 RAB0557 P0021 T01610156 TSNO=
KEWB 110622Z AUTO 00000KT 3/4SM R05/2800V4000FT BR VV003 04/04
     A3023 RMK AO2 RAE11 P0001 T00440039=
KFPR 110622Z 00000KT 2SM BR CLR 21/19 A3010 RMK AO2 VIS 1V4=
KGGG 110622Z AUTO 34009KT 10SM SCT018 BKN023 OVC090 14/07 A2983
     RMK AO2 TSE00RAE14 P0000=
KGRD 110622Z AUTO 08003KT 3/4SM BR VV002 08/07 A3002 RMK AO2
     PRESFR=
KILM 110622Z AUTO 18011KT 10SM OVC008 20/18 A3007 RMK AO2=
KSHN 110622Z AUTO 00000KT 2 1/2SM -RA BR BKN012 OVC018 07/06 A2963
     RMK AO2 P0005 T00670061 TSNO=
KTAN 110622Z AUTO 00000KT 1 1/2SM -RA BR SCT008 OVC017 03/01 A3023
     RMK AO2 P0002 T00330011=
KUZA 110622Z AUTO 00000KT 1 1/2SM BR OVC002 06/06 A3004 RMK AO2
     RAE11 P0001 T00560056=
KBKE 110623Z AUTO 00000KT 10SM -RA SCT016 BKN055 OVC080 01/00
     A3001 RMK AO2 RAB15 P0000 T00060000=
KEWN 110623Z AUTO 20010KT 10SM SCT010 SCT022 BKN030 20/18 A3009
     RMK AO2 RAE0559 P0000=
KFAY 110623Z AUTO 17005KT 1 1/2SM BR OVC007 17/16 A3004 RMK AO2
     CIG 006V012=
KIND 110623Z 23004KT 3/4SM R05L/P6000FT BR OVC004 04/04 A2959 RMK
     AO2 RAE19 P0001 $=
KLNS 110623Z AUTO 00000KT 3/4SM BR OVC002 02/02 A3007 RMK AO2
     RAE05 P0000=
KOXB 110623Z AUTO 00000KT 10SM BKN027 BKN090 09/09 A3012 RMK AO2
     T00940089 TSNO=
KPKD 110623Z AUTO 22003KT 1/2SM FZFG CLR M07/M08 A2941 RMK AO2
     I1000 T10721078 TSNO=
KSDF 110623Z 25005KT 3SM RA BKN007 BKN033 OVC046 11/10 A2971 RMK
     AO2 TSE10 TS DSIPTD P0007 $=
KSMQ 110623Z AUTO 32003KT 2SM -RA BR OVC006 01/01 A3014 RMK AO2
     P0001 T00110006 TSNO=
KVLD 110623Z AUTO 19007KT 2SM BR OVC002 21/19 A3004 RMK AO2=
PAOH 110623Z AUTO 10003KT 3SM BR BKN004 M02/M02 A2928 RMK AO2 TSNO
     CIG 004V007 $=

0000011300
245
SPUS41 KWBC 110626
SPECI
KCEF 110624Z AUTO 00000KT 1SM R23/4000FT -DZ BR OVC002 00/00 A3020=

0000011700
246
SPUS41 KWBC 110626
SPECI
KEWB 110622Z AUTO 00000KT 3/4SM R05/2800V4000FT BR VV003 04/04
A3023=

0000009600
247
SPUS41 KWBC 110626
SPECI
KILM 110622Z AUTO 18011KT 10SM OVC008 20/18 A3007=

0000012000
248
SPUS42 KWBC 110626
SPECI
KBPT 110622Z AUTO 23010KT 1 1/4SM R12/4500V6000FT BR OVC002 18/18
A2986=

0000009000
249
SPUS42 KWBC 110626
SPECI
KFPR 110622Z 00000KT 2SM BR CLR 21/19 A3010=

0000011100
250
SPUS42 KWBC 110626
SPECI
KTYS 110622Z 09005KT 1/4SM R23R/1400V1600FT FG VV002 07/07 A2987=

0000102400
251
FTUS80 KWBC 110627 AAA
TAF AMD
KBDR 110625Z 1106/1206 03005KT 1SM -SHRA BR OVC003
      TEMPO 1106/1109 1/2SM -SHRA FG VV002
     FM110900 12005KT 1/2SM -RA FG OVC003 WS020/19050KT
     FM111400 17011KT 3/4SM -RA BR OVC004 WS015/19050KT
     FM111800 18020G30KT 1/2SM +RA FG OVC004 WS015/19060KT
     FM120400 23012G18KT 3SM -SHRA BR SCT007 OVC030=
KGRB 110624Z 1106/1206 16005KT 2SM BR OVC004
      TEMPO 1106/1108 1/2SM -DZ FG OVC002
     FM110800 22005KT 1SM -DZSN BR OVC006
      TEMPO 1108/1111 1/2SM FG OVC003
     FM111100 24007KT 2SM -SN BR OVC006
     FM111500 30006KT 6SM -SN BKN007 OVC020
     FM111900 29010KT P6SM BKN020 BKN040
     FM112300 26008KT P6SM BKN050=
KSAV 110623Z 1106/1206 18003KT 1/2SM FG VV002
      TEMPO 1106/1109 2SM BR BKN002
     FM110900 18004KT 1/4SM FG VV001
     FM111300 19009KT 4SM BR OVC004
     FM111500 21012G18KT P6SM SCT005 BKN025
     FM111900 21015G24KT 3SM +RA SCT015 OVC030
     FM112200 26010KT P6SM SCT040 BKN080=

0000020700
252
SPIY43 LIIB 110623
SPECI LIBV 110620Z VRB01KT 2000 1200S R32L/P1500 R14R/P1500 BR SCT001
      BKN008 03/02 Q1020 RMK OVC VIS MIN 1200S WIND THR32 /////KT WIND THR14
      00000KT AMB=

0000010800
253
SPUS31 KWBC 110627
SPECI
KIND 110623Z 23004KT 3/4SM R05L/P6000FT BR OVC004 04/04 A2959=

0000009800
254
SPUS42 KWBC 110627
SPECI
KBTR 110623Z 19014G24KT 10SM -RA OVC010 20/19 A2985=

00000000