0000020500
515
SADR31 MDSD 110800
METAR
METAR MDST 110800Z 15004KT 9999 SCT015 21/21 Q1018=
METAR MDPC 110800Z 11008KT 9999 FEW018 25/20 Q1017=
METAR MDSD 110800Z 02005KT 9999 FEW018 20/18 Q1017=

0000014700
516
FTBZ23 SBGL 110751
TAF SBRJ 110730Z 1112/1124 35005KT 9999 FEW020
TX33/1117Z TN28/1123Z 
BECMG
 1114/1116 16010KT RMK PGV=

0000014700
517
FTBZ23 SBGL 110751
TAF SBCB 110730Z 1112/1212 08017KT 9999 FEW020
TX30/1115Z TN24/1207Z 
BECMG
 1121/1123 07010KT RMK PGV=

0000028400
518
FTBZ23 SBGL 110751
TAF SBSJ 110730Z 1112/1212 35005KT 9999 FEW020
TX34/1117Z TN19/1208Z 
BECMG
 1113/1115 10005KT SCT025 BECMG 1117/1119 08005KT PROB30
1118/1122 TS
 SCT020 FEW025CB BECMG 1122/1124 14005KT FEW020 BECMG
1203/1205 00000
KT 7000 RMK PGV=

0000020300
519
FTBZ23 SBGL 110751
TAF SBCP 110730Z 1112/1212 04010KT 9999 FEW020
TX31/1116Z TN25/1209Z 
BECMG
 1114/1116 06018KT BECMG 1122/1124 06010KT BECMG 1208/1210
04007KT RM
K
 PGV=

0000030200
520
FTBZ23 SBGL 110751
TAF SBGL 110730Z 1112/1218 02005KT CAVOK TX35/1117Z
TN24/1208Z BECMG 
1114/1116
 06007KT FEW020 BECMG 1117/1119 12010KT BECMG 1122/1124
10005KT BECMG
 1206/1208 06005KT BECMG 1210/1212 02005KT BECMG
1213/1215 06008KT BE
CMG 1216/1218 13010KT RMK PGV=

0000034500
521
SASW31 LSSW 110750
METAR LSZH 110750Z 00000KT 0400 R14/0650N R16/0550N R28/0800N
    R34/0650N FG VV002 02/01 Q1018 NOSIG=
METAR LSGG 110750Z 28005KT 8000 MIFG NSC 02/02 Q1019 NOSIG=
METAR LSZB 110750Z VRB01KT 4000 VCFG FEW003 BKN130 M01/M01 Q1018
    NOSIG=
METAR LSZA 110750Z VRB01KT 9999 BKN043 07/06 Q1022 NOSIG=

0000032100
522
SASW39 LSSW 110750
METAR LSMA 110750Z NIL=
METAR LSMD 110750Z AUTO 12003KT 0300NDV R11/0450N R29/0400V0550N FG
           VV001 01/01 Q1018 RMK RED=
METAR LSME 110750Z NIL=
METAR LSMM 110750Z NIL=
METAR LSMP 110750Z NIL=
METAR COR LSMS 110750Z VRB02KT 9999 FEW100 SCT150 BKN200 01/01 Q1019=

0000010600
523
SAIS32 LLBG 110750
METAR LLBG 110750Z 19005KT 9999 FEW030 15/11 Q1024 NOSIG RMK SCT060=

0000012500
524
SAMO31 ZMUB 110800
METAR ZMUB 110800Z 00000MPS 4000NW FU NSC M21/M25 Q1028 NOSIG RMK
 QFE662.4 67 NW MO=

0000067200
525
FASN52 ESWI 110700
ESAA GAMET VALID 110800/111400 ESSA- 
SWEDEN FIR/C BLW FL125 
SECN I 
SFC WSPD: NIL 
SFC VIS: 08/14 ?1500 M SN 
SIGWX: NIL 
SIG CLD: 08/10 BKN 500/1000 FT AGL 10/12 BKN SFC/500 FT AGL 12/14 BKN
500/1000 FT AGL 
ICE: 08/14 MOD 1000FT AGL/ABV FL125 
TURB: NIL 
MTW: NIL 
SIGMET APPLICABLE: AT TIME OF ISSUE NIL 
SECN II 
PSYS: SEE SIGNIFICANT WEATHER CHARTS 
WIND/T: 08/11 2000 FT 040/25 KT MS16 FL050 060/15 KT MS18 FL100 
140/10 KT MS21 
11/14 2000 FT 040/20 KT MS17 FL050 040/20 KT MS19 FL100 070/10 KT 
MS21 
CLD: SEE SIGNIFICANT WEATHER CHARTS 
FZLVL: 08/14 SFC 
MNM QNH: 1002 HPA 
VA: NIL

0000071600
526
FADL41 EDZM 110900
EDMM GAMET VALID 110900/111500 EDZM-
MUNCHEN FIR BLW FL150
SECN I
SFC VIS : 09/12 LCA BLW 2000 M BR FG S OF N49
SIG CLD : 09/12 200/2000 FT AGL ALONG DANUBE
ICE     : 09/11 MOD FZRA S OF N40 N OF N48
SIGMET APPLICABLE: AT TIME OF ISSUE NIL
SECN II
PSYS    : 12 WARM FRONT LFST - EDDM MOV NE 5KT NC
          12 COLD FRONT LFST - LFLL MOV E 15KT
WIND/T  : 3000 FT AMSL 280/15KT PS02
          5000 FT AMSL 280/25KT PS01
          FL100        260/45KT MS07
CLD     : SCT/BKN AC/AS FL100/XXX
FZLVL   : FL065
MNM QNH : 09/11 1014 HPA
          11/13 1012 HPA
          13/15 1011 HPA
CHECK GAFOR (VIS AND CLD BASE), AIRMET AND SIGMET-INFORMATION

0000009700
527
SARW20 HRYR 110800
METAR
HRYR 110800Z 00000KT 5000 SCT023 22/19 Q1022 NOSIG=

0000068000
528
FASN53 ESWI 110700
ESAA GAMET VALID 110800/111400 ESSA- 
SWEDEN FIR/E BLW FL125 
SECN I 
SFC WSPD: NIL 
SFC VIS: 08/14 3000-5000 M RA 
SIGWX: NIL 
SIG CLD: 08/14 BKN 500/1000 FT AGL 
ICE: 08/12 MOD 3000FT AGL/ABV FL125 12/14 MOD 2500FT AGL/ABV FL125 
TURB: NIL 
MTW: NIL 
SIGMET APPLICABLE: AT TIME OF ISSUE NIL 
SECN II 
PSYS: SEE SIGNIFICANT WEATHER CHARTS 
WIND/T: 08/11 2000 FT 260/35 KT PS02 FL050 270/35 KT MS02 FL100 
270/35 KT MS10 
11/14 2000 FT 260/30 KT PS01 FL050 270/25 KT MS03 FL100 250/25 KT 
MS11 
CLD: SEE SIGNIFICANT WEATHER CHARTS 
FZLVL: 08/11 3000 FT AGL 11/14 2500 FT AGL 
MNM QNH: 1002 HPA 
VA: NIL

0000015300
529
SALV32 EVRA 110750
METAR EVLA 110750Z AUTO 24008KT 9999 BKN016 03/02 Q1004=
METAR EVVA 110750Z AUTO 26008KT 9999 OVC014 02/00 Q1003=

0000167000
530
SPUS70 KWBC 110752
SPECI
KCEC 110748Z AUTO 16015G23KT 8SM OVC008 11/09 A3010 RMK AO2
     T01110094=
KCXO 110748Z AUTO 19004KT 1 3/4SM BR OVC004 16/16 A2986 RMK
     AO2=
KFPR 110748Z 00000KT 3/4SM BR CLR 19/18 A3008 RMK AO2=
KHVN 110748Z AUTO 00000KT 1/4SM R02/1800FT FG VV002 03/02 A3016
     RMK AO2=
KPKD 110748Z AUTO 29004KT 3SM BR OVC017 M07/M08 A2940 RMK AO2
     TSNO=
KPOU 110748Z 29003KT 1SM -RA BR OVC006 01/M01 A3011 RMK AO2
     UPB44E47 CIG 005V009 P0001=
KVIH 110748Z AUTO 24011KT 8SM SCT019 02/01 A2959 RMK AO2 $=
KBWI 110749Z 00000KT 1/4SM R10/1200V1400FT FG VV002 02/02 A3003
     RMK AO2=
KDAW 110749Z AUTO 00000KT 5SM BR OVC004 M01/M03 A3021 RMK AO2=
KDPA 110749Z 19006KT 2 1/2SM R02L/3500FT -RA BR OVC002 03/03 A2945
     RMK AO2 RAB17 P0001=
KGFL 110749Z AUTO 00000KT 2SM -FZRA BR OVC006 M01/M03 A3009 RMK
     AO2 UPB19E43FZRAB43 P0000=
KGLS 110749Z AUTO 24008KT 5SM BR OVC004 18/18 A2988 RMK AO2 CIG
     002V006=
KHAO 110749Z AUTO 11003KT 2SM RA BR FEW011 OVC080 08/08 A2966 RMK
     AO2 VIS 1 1/4V3 P0006=
KHFD 110749Z AUTO 00000KT 3/4SM -RA BR OVC004 02/01 A3018 RMK AO2
     RAE16B20 P0001=
KHKY 110749Z AUTO 00000KT 2SM -RA BR FEW003 BKN006 OVC013 06/06
     A2998 RMK AO2 P0006=
KLNS 110749Z AUTO 00000KT 1SM -RA BR OVC002 02/02 A3002 RMK AO2
     P0001=
KMFR 110749Z AUTO 00000KT 1 3/4SM BR OVC002 05/04 A3004 RMK
     AO2=
KSPG 110749Z AUTO 21003KT 6SM BR FEW002 FEW010 19/19 A3004 RMK
     AO2=
KTHV 110749Z AUTO 00000KT 1/2SM FG OVC003 01/01 A3001 RMK AO2
     RAE47 P0002=
KWST 110749Z AUTO 16005KT 2 1/2SM BR OVC050 07/07 A3020 RMK
     AO2=

0000011000
531
SPUS41 KWBC 110752
SPECI
KHVN 110748Z AUTO 00000KT 1/4SM R02/1800FT FG VV002 03/02 A3016=

0000009200
532
SPUS42 KWBC 110752
SPECI
KFPR 110748Z 00000KT 3/4SM BR CLR 19/18 A3008=

0000016500
533
SADN33 EKCH 110750
METAR EKKA 110750Z 22011KT 8000 -RA FEW007 BKN038 07/06 Q1003=
METAR EKSP 110750Z 24014KT 5000 -RA SCT007 BKN010 07/06 Q1006=

0000025000
534
FTDN33 EKCH 110500 AAA
TAF AMD EKKA 110750Z 1107/1206 22010KT 9999 SCT006 BKN030 TEMPO 
1107/1109 3000 RADZ BR BKN006 BECMG 1109/1112 28012KT TEMPO 
1114/1124 5000 SHRA BKN020CB TEMPO 1200/1206 28015G28KT 5000 SHRA 
BKN020CB=

00000000