0000040700
295
SARA33 RUMS 110630
METAR COR UIAA 110630Z 00000MPS 9999 SKC M22/M31 Q1030 NOSIG RMK
QFE713 29CLRD70=
METAR UIBB 110630Z 13002MPS 6000 -SHSN SCT017CB OVC100 M17/M19 Q1027
NOSIG RMK QFE727/0969 30490240=
METAR UIII 110630Z 00000MPS CAVOK M13/M15 Q1030 NOSIG RMK QFE730/0973
12490340=
METAR UIUU 110630Z VRB01MPS 9999 FEW033 BKN100 M18/M20 Q1031 NOSIG
RMK QFE728/0971 26450545=

0000093800
296
SARA34 RUMS 110630
METAR UNAA 110630Z 19003MPS 9999 FEW043 BKN076 M02/M08 Q1031 NOSIG
RMK QFE750 20090040=
METAR UNBB 110630Z 22004MPS 9000 -SN BKN033 OVC100 M08/M10 Q1031
NOSIG RMK QFE751/1001 24452045=
METAR UNEE 110630Z 20006MPS 3500 -SN OVC010 M08/M10 Q1029 NOSIG RMK
QFE749 23452045=
METAR UNKL 110630Z 23003MPS 9999 -SHSN SCT026CB BKN083 M05/M10 Q1027
NOSIG RMK QFE745 29////40=
METAR UNNT 110630Z 21005MPS 6000 -SN BKN018 OVC083 M07/M09 Q1029
25390137 16390142 NOSIG RMK QFE762/1016=
METAR UNOO 110630Z 18005MPS 6000 BKN023CB M08/M10 Q1023 25390137
NOSIG RMK QFE759=
METAR UNTT 110630Z 21005MPS 9999 FEW006 SCT020CB OVC100 M07/M09 Q1027
NOSIG RMK QFE755 21390130=
METAR USTR 110630Z 18004MPS 9999 BKN021CB M07/M08 Q1013 NOSIG RMK
QFE750/1000 21390050 12750029=
METAR USHH 110630Z 04003G06MPS 6000 -SN BKN005 OVC080 M19/M21 Q1015
TEMPO 0600 +SN OVC002 RMK QBB150 QFE758 06////40=

0000064600
297
SARS33 RUMS 110630
METAR ULLI 110630Z 33004G09MPS 290V020 9999 DRSN OVC013 M05/M06 Q0993
88550538 NOSIG=
METAR UUBW 110630Z 22003MPS 9999 BKN013 03/01 Q0986 NOSIG=
METAR UUDD 110630Z 24004MPS 210V290 9999 BKN011 OVC100 03/01 Q0986
32290095 82290095 NOSIG=
METAR UUDL 110630Z 17002MPS 6000 -RA BKN003 OVC008 02/01 Q0984 NOSIG
RMK QBB090 QFE729 23690532=
METAR UUEE 110630Z 21005MPS 9999 -DZ OVC006 02/01 Q0985 75290151
25290151 NOSIG=
METAR UUWW 110630Z 23005MPS 9999 -RA BKN006 OVC018 02/01 Q0985
24290045 NOSIG=
METAR UUMO 110630Z 24004MPS 9999 BKN009 BKN020 02/02 Q0986 NOSIG RMK
QFE724/0966 26250550=

0000011400
298
SARA31 RUMS 110630
METAR UEEE 110630Z 25001MPS CAVOK M43/M48 Q1035 NOSIG RMK QFE767
23490145=

0000062000
299
SARS36 RUMS 110630
METAR ULAA 110630Z 07008G11MPS 5000 -SN BLSN OVC007 M17/M19 Q1000
BECMG 2000 SN BLSN OVC005 RMK QFE749/0999 SC053=
METAR ULMM 110630Z 00000MPS 9999 FEW003 M35/M39 Q1017 NOSIG RMK
QBB100 OBST OBSC QFE755 31450239=
METAR ULOO 110630Z NIL=
METAR ULPB 110630Z NIL=
METAR UMKK 110630Z 27003MPS 240V300 5000 -SHRA BKN012CB OVC100 05/03
Q1007 R24/29//60 NOSIG RMK QFE754/1005=
METAR UUOO 110630Z 24004G07MPS 9999 -RA OVC013 03/01 Q0994 NOSIG RMK
30290250=
METAR UUYY 110630Z 04003MPS 2200 -SHSN BKN007 OVC015CB M11/M12 Q1000
TEMPO 0700 +SHSN 0145//35 RMK QFE741/0988=

0000009900
300
SPUS42 KWBC 110637
SPECI
KPDK 110633Z AUTO 08003KT 1/2SM FG VV002 08/08 A2995=

0000010400
301
SPCN52 CWAO 110636
SPECI CWSA 110636Z AUTO 25012G18KT 9SM BKN016 OVC035 02/M01 A3039=

0000052700
302
FTJD31 OJAI 110500 CCA
TAF COR OJAM 110450Z 1106/1212 34004KT 0900 FG BKN007 BECMG
1107/1109 26010KT 5000 HZ SCT030 SCT035 BECMG 1116/1118 VRB03KT 7000
FEW030 TEMPO 1203/1206 3000 BR SCT025 BECMG 1206/1208 23008KT 6000
NSC=
TAF COR OJAI 110450Z 1106/1212 29006KT 3000 BR BECMG 1107/1109
26008KT 6000 SCT030 SCT035 BECMG 1118/1120 VRB03KT 8000 NSC TEMPO
1202/1206 3000 BR SCT025 BECMG 1206/1208 24005KT 7000 NSC=
TAF COR OJAQ 110450Z 1106/1212 35010KT 7000 NSC TEMPO 1122/1206
01008KT
CAVOK=

0000175300
303
SPUS70 KWBC 110638
SPECI
KPQL 110634Z AUTO 17011KT 3SM BR OVC002 19/19 A2991 RMK AO2
     T01940189 TSNO=
KHYR 110634Z AUTO 00000KT 2SM -SN BR BKN009 OVC024 M04/M05 A2942
     RMK AO2 P0000=
PAJZ 110638Z AUTO 36003KT 3SM BR BKN002 OVC006 M08/M09 A2945 RMK
     AO2 PWINO TSNO CIG 001V005 $=
KANB 110634Z AUTO 02006KT 3SM RA BR SCT009 BKN023 OVC044 12/11
     A2990 RMK AO2 LTG DSNT NE AND E TSB0550E05 P0031
     T01170111=
KHFF 110633Z 13004KT 1/2SM FG VV002 11/10 A3004 RMK AO2 SLP174=
KSLK 110634Z AUTO 00000KT 1 3/4SM BR SCT046 M04/M04 A2999 RMK
     AO2=
KSMQ 110634Z AUTO 00000KT 1 1/2SM -RA BR OVC006 01/01 A3013 RMK
     AO2 P0003 T00110011 TSNO=
KLOU 110634Z AUTO 00000KT 2SM RA BR BKN008 BKN013 OVC039 11/10
     A2971 RMK AO2 P0009 TSNO=
KMNN 110634Z AUTO 19016KT 10SM FEW012 BKN018 OVC032 08/07 A2968
     RMK AO2 TSNO=
KACK 110635Z AUTO 17006KT 3/4SM R24/3500V4500FT BR VV002 06/04
     A3027 RMK AO2 TSNO=
KBDE 110635Z AUTO 00000KT 5SM BR OVC010 M03/M04 A2939 RMK AO2 CIG
     007V013 T10281039 TSNO=
KCGI 110635Z AUTO 26004KT 7SM FEW006 BKN022 OVC030 07/07 A2960 RMK
     AO2 RAE02 P0000 T00720067=
KGVL 110635Z AUTO 08008KT 1/2SM FG VV002 08/07 A2998 RMK AO2=
KGWO 110635Z AUTO 21006KT 1 3/4SM +RA BR FEW007 BKN034 OVC070
     17/16 A2971 RMK AO2 VIS 3/4V5 P0013 T01670156 TSNO=
KLBT 110635Z AUTO 15007KT 9SM SCT006 BKN120 18/17 A3003 RMK AO2
     T01780172=
KLNR 110635Z AUTO 27005KT 2SM BR OVC007 01/00 A2944 RMK AO2
     RAE0559 P0000 T00060000=
KMEM 110635Z 24015G22KT 7SM -RA FEW014 BKN034 OVC055 14/12 A2969
     RMK AO2 PK WND 24026/0612 P0010=
KRST 110635Z AUTO 28007KT 5SM BR SCT004 OVC010 M02/M03 A2946 RMK
     AO2 CIG 008V013 T10171033=

0000012200
304
SPUS41 KWBC 110638
SPECI
KWRI 110634Z AUTO 13003KT 1 1/2SM R06/2800FT BR BKN041 OVC060
05/05 A3010=

0000015400
305
SPCN31 CWAO 110634 CCA
SPECI CYYJ 110634Z CCA 16012G17KT 6SM -RA BR FEW005 SCT010 BKN060
 OVC075 08/07 A2948 RMK SC2SC2SC3AC1 SLP983=

0000024200
306
SAJP31 KWBC 110630 RRA
METAR
RJAA 110630Z VRB02KT 9999 FEW030 08/M11 Q1022 BECMG 31005KT=
RJCC 110630Z 32011KT 9999 -SHSN FEW015 SCT040 BKN070 M06/M13
     Q1018=
RJTT 110630Z 09004KT 9999 FEW025 07/M06 Q1022 NOSIG=

0000030500
307
FTCN32 CWAO 110600
TAF CYMM 110638Z 1107/1119 VRB03KT P6SM SCT020 BKN060 TEMPO 1107/1116
     4SM -SN BKN020
     BECMG 1108/1110 12006KT
    FM111600 10012KT P6SM -SN SCT012 BKN120 OVC220 TEMPO 1117/1119
     2SM -SN VV012
    RMK FCST BASED ON AUTO OBS. NXT FCST BY 111300Z=

0000034300
308
FTCN32 CWAO 110600
TAF CYOJ 110638Z 1107/1119 VRB03KT P6SM SCT020 SCT060 TEMPO 1107/1110
     4SM -SN BKN020
    FM111000 VRB03KT P6SM -SN BKN030 BKN060 OVC220 TEMPO 1110/1117
     4SM -SN OVC020
    FM111700 06008KT 4SM -SN OVC015 TEMPO 1117/1119 2SM -SN VV012
    RMK FCST BASED ON AUTO OBS. NXT FCST BY 111300Z=

0000031700
309
FTCN32 CWAO 110600
TAF CYZH 110638Z 1107/1119 VRB03KT P6SM FEW040 FEW160 BKN220
    FM111200 10006KT P6SM BKN120 OVC220 TEMPO 1112/1115 4SM -SN
     BKN060
    FM111500 10015KT 4SM -SN SCT020 OVC060 TEMPO 1115/1119 2SM -SHSN
     VV012
    RMK FCST BASED ON AUTO OBS. NXT FCST BY 111300Z=

0000066100
310
UDAF01 FAPR 111714
AMDAR 1117
ASC AFZA25 2219N 11358E 111709 F018 PS155 052/010 TB1 S031 333 F/// VG037=
ASC AFZA25 2219N 11359E 111710 F020 PS147 057/011 TB1 S031 333 F/// VG037=
ASC AFZA25 2219N 11400E 111710 F023 PS140 065/009 TB1 S031 333 F/// VG037=
ASC AFZA25 2219N 11401E 111710 F026 PS135 060/007 TB1 S031 333 F/// VG037=
UNS AFZA25 2219N 11404E 111711 F032 PS129 167/005 TB1 S031 333 F/// VG032=
ASC AFZA25 2217N 11404E 111712 F037 PS137 209/006 TB1 S031 333 F/// VG028=
ASC AFZA25 2211N 11405E 111713 F047 PS110 159/003 TB1 S031 333 F/// VG023=
UNS AFZA25 2207N 11405E 111714 F063 PS076 094/004 TB1 S031 333 F/// VG022=
0000066100
311
UDAF01 FAPR 111711
AMDAR 1117
LVR AFZA07 2126S 03256E 111621 F330 MS375 204/006 TB0 S031 333 F/// VG000=
LVR AFZA07 2046S 03340E 111629 F330 MS370 221/005 TB0 S031 333 F/// VG000=
LVR AFZA07 2006S 03425E 111636 F330 MS375 225/008 TB0 S031 333 F/// VG000=
LVR AFZA07 1925S 03509E 111643 F330 MS370 171/005 TB0 S031 333 F/// VG000=
LVR AFZA07 1845S 03553E 111650 F330 MS367 147/008 TB0 S031 333 F/// VG000=
LVR AFZA07 1805S 03636E 111657 F330 MS365 085/012 TB0 S031 333 F/// VG000=
LVR AFZA07 1725S 03717E 111704 F330 MS369 065/015 TB0 S031 333 F/// VG000=
LVR AFZA07 1644S 03758E 111711 F330 MS370 077/010 TB0 S031 333 F/// VG000=
0000066100
312
UDAF01 FAPR 111711
AMDAR 1117
ASC AFZA26 4033N 07343W 111707 F023 PS149 199/042 TB1 S031 333 F/// VG031=
ASC AFZA26 4031N 07342W 111708 F026 PS142 200/045 TB1 S031 333 F/// VG028=
UNS AFZA26 4030N 07341W 111708 F029 PS137 196/038 TB1 S031 333 F/// VG026=
ASC AFZA26 4029N 07339W 111708 F032 PS132 203/047 TB1 S031 333 F/// VG025=
ASC AFZA26 4028N 07335W 111709 F045 PS122 203/044 TB1 S031 333 F/// VG024=
ASC AFZA26 4027N 07335W 111709 F047 PS120 205/044 TB1 S031 333 F/// VG031=
ASC AFZA26 4025N 07329W 111710 F063 PS095 216/047 TB1 S031 333 F/// VG024=
ASC AFZA26 4022N 07322W 111711 F080 PS051 222/051 TB1 S031 333 F/// VG023=
0000032100
313
SNMK01 KWBC 111700
AAXX 11171
13363 42970 23601 10042 20018 39304 48518 55002 81031=
13459 42670 41103 10077 20077 39468 40228 53003 81230 333 81896
84399=
13461 42670 60702 10104 20086 30224 40231 56003 83832 333 81840
82656 92312 92428=
13463 42570 40000 10094 20072 30169 40229 55001 83530=
0000014600
314
SNVD20 KWNB 111700 RRI
BBXX
44040 11171 99410 70736 46/// /1812 10123 20123 91645 22200 10301
70007 333 91215 555 11139 22160=
00000000