0000090600
335
SAFR35 LFPW 110630
METAR LFMI 110630Z AUTO 08004KT 9999 BKN026 OVC039 11/07 Q1020=
METAR LFMK 110630Z AUTO 14004KT 090V180 7000 OVC013 10/08 Q1019=
METAR LFOV 110630Z AUTO VRB02KT 0150 FG VV/// 05/05 Q1017=
METAR LFRD 110630Z AUTO 22005KT 5000 BR FEW023 BKN054 04/03 Q1017=
METAR LFRI 110630Z AUTO 30004KT 3500 BR OVC006 08/07 Q1017=
METAR LFRM 110630Z AUTO 00000KT 4000 BR OVC045 06/06 Q1017=
METAR LFRN 110630Z AUTO 33005KT 0300 R28/1000D FG VV/// 07/07 Q1018=
METAR LFRO 110630Z AUTO 34009KT 4100 DZ BR BKN005 OVC018 08/08
Q1018=
METAR LFRV 110630Z AUTO 35003KT 0100 FG VV/// 06/05 Q1017=
METAR LFRZ 110630Z AUTO 35005KT 320V020 9000 OVC007 08/07 Q1018=
METAR LFSB 110630Z 17005KT CAVOK 03/02 Q1016 NOSIG=
METAR LFST 110630Z AUTO 17002KT 6000 SCT002/// BKN068/// BKN078///
///TCU 01/01 Q1017=
METAR LFTH 110630Z AUTO 04006KT 9999 BKN029 OVC034 12/09 Q1020=

0000075200
336
SAFR36 LFPW 110630
METAR LFBA 110630Z AUTO 08003KT 6000 OVC018 08/07 Q1018=
METAR LFBE 110630Z AUTO VRB01KT 4400 BR OVC013 07/07 Q1018=
METAR LFGJ 110630Z AUTO VRB03KT 7000 NSC 03/02 Q1017=
METAR LFJR 110630Z AUTO 00000KT 0150 R26/0700N FG VV/// 05/05 Q1017=
METAR LFMD 110630Z AUTO VRB01KT 9999 OVC041 10/08 Q1021=
METAR LFOT 110630Z AUTO 00000KT 1300 R20///// BR OVC002 06/05 Q1016=
METAR LFPN 110630Z 00000KT 3000 BR FEW003 BKN053 06/05 Q1016 TEMPO
1500 BR=
METAR LFRC 110630Z AUTO 22008KT 2500 -RADZ BR BKN008 BKN015 OVC030
08/07 Q1016=
METAR LFRG 110630Z AUTO 22004KT 1000 R12///// BR FEW007 SCT240
04/04 Q1016=
METAR LFRK 110630Z AUTO 30006KT 5000 BR SCT006 BKN230 05/05 Q1017=
METAR LFMH 110630Z NIL=

0000075700
337
SAFR37 LFPW 110630
METAR LFAQ 110630Z AUTO 19004KT 1500 BR OVC002 04/04 Q1015=
METAR LFAT 110630Z AUTO 18003KT 130V240 5000 BR BKN008 OVC013
05/05 Q1015=
METAR LFBU 110630Z AUTO 16005KT 130V190 4300 BR OVC004 08/07 Q1017=
METAR LFLN 110630Z AUTO 00000KT 3200 BR NSC 03/02 Q1017=
METAR LFPM 110630Z AUTO 00000KT 3800 BR NSC 05/05 Q1016=
METAR LFPT 110630Z AUTO 00000KT 1200 R05///// BR OVC002 05/04 Q1016=
METAR LFRH 110630Z AUTO 31002KT 0200 R25/0650D R07/0650N FG VV///
05/05 Q1018=
METAR LFRQ 110630Z AUTO 00000KT 4500 BR OVC044 07/06 Q1017=
METAR LFRT 110630Z AUTO 26008KT 9999 FEW049 06/05 Q1017=
METAR LFSD 110630Z AUTO 12002KT 9999 OVC006 03/03 Q1016=
METAR LFTW 110630Z AUTO 09004KT 9999 OVC041 10/05 Q1020=

0000008900
338
SADL33 EDZO 110620 RRA
METAR EDFM 110620Z VRB01KT CAVOK M00/M01 Q1017=

0000009500
339
SPCN47 CWAO 110633
SPECI CYWA 110633Z AUTO 10007KT 2SM OVC004 M02/M02 A2988=

0000016400
340
FCFR31 LFPW 110500 AAA
TAF AMD LFBE 110630Z 1106/1115 12005KT 5000 BR BKN013 TEMPO 1106/1112
 1500 BR BKN003 OVC010
BECMG 1112/1114 8000 NSW=

0000056900
341
SASP31 LEMM 110630
METAR LEMD 110630Z 36003KT CAVOK 06/05 Q1017 NOSIG=
METAR LEBL 110630Z 32007KT 290V350 5000 BR SCT025 10/07 Q1019
NOSIG=
METAR LEPA 110630Z VRB02KT CAVOK 08/08 Q1017 NOSIG=
METAR LEZL 110630Z 04005KT CAVOK 09/09 Q1016 NOSIG=
METAR LEMG 110630Z 32004KT 7000 FEW025 10/09 Q1017 NOSIG=
METAR LEVC 110630Z 27003KT 8000 SCT040 08/06 Q1018 NOSIG=
METAR LEAL 110630Z VRB01KT CAVOK 11/08 Q1017 NOSIG=
METAR LEIB 110630Z 00000KT 9999 FEW010 10/10 Q1017 NOSIG=
METAR LEVX 110630Z VRB02KT 6000 NSC 07/07 Q1016 TEMPO 3000 BR=

0000026400
342
SATS32 DTTA 110630
METAR DTMB 110630Z 16008KT CAVOK 11/06 Q1019 NOSIG=
METAR DTNH 110630Z 28002KT CAVOK 04/04 Q1019=
METAR DTTA 110630Z 00000KT 5000 FEW020 SCT100 05/04 Q1019 NOSIG=
METAR DTTJ 110630Z 19005KT 6000 FEW023 10/07 Q1020 NOSIG=

0000077600
343
SASP32 LEMM 110630
METAR LEAS 110630Z 00000KT 9999 FEW015 BKN028 09/09 Q1018 NOSIG=
METAR LEBB 110630Z 11003KT 080V160 9999 FEW025 BKN034 09/08 Q1018
NOSIG=
METAR LECO 110630Z NIL=
METAR LEGE 110630Z VRB01KT 7000 BKN018 09/07 Q1019=
METAR LEST 110630Z 10003KT 070V150 3500 BR BKN004 05/05 Q1016
TEMPO 0700 BCFG=
METAR LEZG 110630Z 25004KT 0750 R30R/1400U R12R/P2000 R30L/1500U
BCFG VV002 05/05 Q1019=
METAR LESO 110630Z VRB01KT 9999 SCT019 BKN040 10/08 Q1018=
METAR LEVT 110630Z 00000KT 3000 BR BKN009 02/02 Q1018=
METAR LERS 110630Z 35004KT 9999 BKN021 11/08 Q1018=
METAR LEMH 110630Z 10007KT 9000 SCT005 13/12 Q1017=
METAR LEAM 110630Z VRB02KT 9999 FEW020 11/08 Q1017=
METAR LEGR 110630Z 00000KT 8000 FEW030 BKN090 06/06 Q1017=

0000020100
344
SASP33 LEMM 110630
METAR LEVD 110630Z 11003KT 0500 R23/0400N FZFG NSC M00/M00 Q1016=
METAR LEVS 110630Z 00000KT CAVOK 06/06 Q1017=
METAR LESA 110630Z 00000KT CAVOK M02/M02 Q1016=

0000035900
345
SACR31 LEMM 110630
METAR GCLP 110630Z 34005KT 9999 FEW020 15/11 Q1017 NOSIG=
METAR GCXO 110630Z 26005KT 230V290 CAVOK 11/08 Q1018 NOSIG=
METAR GCTS 110630Z 02007KT 9999 SCT030 15/12 Q1017 NOSIG=
METAR GCRR 110630Z 33005KT 9999 FEW025 13/10 Q1017=
METAR GCFV 110630Z 29003KT 260V320 9999 FEW020 12/09 Q1017=
METAR GCLA 110630Z NIL=

0000010800
346
SASP39 LEMM 110630
METAR LETL 110630Z AUTO 12003KT 0050 R36/0175N FG VV001 01/01
Q1017=

0000010400
347
SPCN31 CWAO 110632
SPECI CYHZ 110632Z 23009KT 8SM OVC004 01/M00 A3029 RMK ST8 SLP265=

0000148500
348
SPUS70 KWBC 110634
SPECI
KHKA 110630Z AUTO 23008KT 10SM -RA FEW022 SCT030 OVC080 12/11
     A2965 RMK AO2 P0001=
KHVN 110630Z AUTO 00000KT 3/4SM R02/2600V3500FT BR VV002 03/02
     A3019 RMK AO2=
KLCH 110630Z AUTO 25008KT 2SM BR OVC002 18/18 A2985 RMK AO2 LTG
     DSNT E AND S RAB02E29 P0000 T01830178=
KTMB 110630Z AUTO 00000KT 2SM BR FEW022 20/20 A3010 RMK AO2=
KNSE 110629Z AUTO 19013KT 2SM BR OVC002 19/19 A2996 RMK AO2 RAE27
     P0000 T01940189 $=
PAAQ 110630Z AUTO 00000KT 2SM BR OVC003 M04/M04 A2931 RMK AO2
     TSNO=
K2DP 110631Z AUTO 16017G26KT 8SM -RA SCT010 BKN019 BKN085 17/16
     A3011 RMK AO2 CIG 011V019=
KAOH 110631Z AUTO 19008KT 5SM -RA BKN008 BKN014 OVC021 08/ A2963
     RMK AO2 PNO $=
KCPS 110631Z AUTO 19003KT 3SM BR SCT050 06/06 A2954 RMK AO2=
KEVW 110631Z AUTO 22012KT 10SM BKN025 00/M04 A3013 RMK AO2 PK WND
     26044/0601 T00001044=
KLNS 110631Z AUTO 00000KT 1 1/4SM -RA BR OVC002 02/02 A3006 RMK
     AO2 RAE05B28 P0000=
KNSE 110629Z AUTO 19013KT 2SM BR OVC002 19/19 A2996 RMK AO2 RAE27
     P0000 T01940189 $=
KPKD 110631Z AUTO 22003KT 1/4SM FZFG CLR M08/M09 A2941 RMK AO2
     I1000 T10831089 TSNO=
KRSW 110631Z 12004KT 4SM BR CLR 19/19 A3008 RMK AO2 T01940194=
KSDF 110631Z 25005KT 3SM TSRA SCT007 BKN010 OVC041CB 11/10 A2970
     RMK AO2 TSE10B31 OCNL LTGIC OHD TS OHD MOV E P0010 $=
KSGH 110631Z AUTO 18010KT 3SM -RA BR FEW001 BKN015 OVC045 09/08
     A2970 RMK AO2 P0004=

0000029600
349
SASP34 LEMM 110630
METAR LEDA 110630Z NIL=
METAR LEJR 110630Z VRB02KT 9999 -RA SCT060 11/11 Q1016=
METAR LELL 110630Z NIL=
METAR LEPP 110630Z 00000KT 0100 R33/0500N R15/0450N FG VV001
03/03 Q1019=
METAR LEXJ 110630Z VRB01KT 5000 BR FEW007 BKN012 OVC018 11/10
Q1018=

0000026400
350
SATS40 DTTA 110630
METAR DTMB 110630Z 16008KT CAVOK 11/06 Q1019 NOSIG=
METAR DTNH 110630Z 28002KT CAVOK 04/04 Q1019=
METAR DTTA 110630Z 00000KT 5000 FEW020 SCT100 05/04 Q1019 NOSIG=
METAR DTTJ 110630Z 19005KT 6000 FEW023 10/07 Q1020 NOSIG=

0000009200
351
SAHK31 VHHH 110630
METAR VHHH 110630Z 27010KT 5000 NSC 22/12 Q1021 NOSIG=

0000030600
352
FTUK31 EGGY 110500 AAB
TAF AMD EGSS 110634Z 1106/1212 29010KT 9999 FEW015 SCT025 PROB30
    TEMPO 1106/1109 8000 -SHRA BKN012 BECMG 1116/1119 VRB03KT BECMG
    1120/1123 6000 PROB30 1200/1208 2000 BR BKN002 BECMG 1205/1208
    15012KT 9999 PROB40 TEMPO 1210/1212 8000 -RADZ BKN006=

0000026000
353
FTUK33 EGGY 110500 AAA
TAF AMD EGGW 110634Z 1106/1206 28010KT 9999 FEW010 SCT020 PROB30
    TEMPO 1106/1109 8000 -SHRA BKN010 BECMG 1116/1119 VRB03KT BECMG
    1121/1124 8000 PROB30 1200/1206 1200 BR BKN001 BECMG 1204/1206
    14010KT=

0000011700
354
SPUS41 KWBC 110634
SPECI
KHVN 110630Z AUTO 00000KT 3/4SM R02/2600V3500FT BR VV002 03/02
A3019=

00000000