0000027200
255
SAAO34 GOOY 110630
METAR GBYD 110630Z NIL=
METAR GFLL 110630Z NIL=
METAR GLRB 110630Z 00000KT 9000 BKN013  FEW023CB 24/23
Q1010 RMK CB-S, BRVC=
METAR GVAC 110630Z NIL=
METAR GVBA 110630Z NIL=
METAR GVNP 110630Z NIL=
METAR GVSV 110630Z NIL=

0000029700
256
SAIO31 KWBC 110600 RRH
METAR
WBGG 110630Z 35010KT 320V040 9999 FEW015CB SCT020 BKN150 28/23
     Q1010 NOSIG=
WBKK 110630Z 12003KT 9999 -RA FEW013 FEW017CB SCT035 OVC260 27/24
     Q1009 NOSIG=
WBSB 110630Z 31007KT 9999 FEW016 FEW017CB BKN280 30/25 Q1010
     NOSIG=

0000037500
257
SAID31 WIII 110630
METAR WIMM 110630Z 35007KT 6000 BKN017 28/25 Q1010= 
METAR WADD 110630Z 01005KT 9999 TS FEW015CB SCT017 27/23 Q1008 NOSIG=
METAR WAAA 110630Z 31007KT 9999 FEW019 31/23 Q1009= 
METAR WIII 110630Z 34010KT 9999 FEW018CB SCT020 32/24 Q1007 RMK CB TO
SE AND SW= 
METAR WIHH NIL=
METAR WABB NIL=
METAR WARR NIL=
METAR WIDD NIL=

0000035700
258
SAPO31 LPMG 110630
METAR LPBJ 110630Z NIL=
METAR LPFR 110630Z 04007KT 9999 BKN025 13/09 Q1015=
METAR LPMA 110630Z 34004KT 9999 FEW015 14/12 Q1016 RS34003KT
0535004KT 2336004KT=
METAR LPPR 110630Z 13005KT 6000 FEW001 06/06 Q1016=
METAR LPPS 110630Z 03002KT CAVOK 12/11 Q1016=
METAR LPPT 110630Z 32007KT 9999 FEW002 09/09 Q1016=

0000025900
259
SAPO32 LPMG 110630
METAR LPAZ 110630Z 24016KT 9999 BKN005 BKN012 BKN028 16/15 Q1006=
METAR LPFL 110630Z NIL=
METAR LPHR 110630Z NIL=
METAR LPLA 110630Z NIL=
METAR LPPD 110630Z 23014G24KT 6000 SHRA FEW006 SCT010 BKN035 15/14
Q1004=

0000053000
260
FTJD20 OJAM 110500 CCA
TAF COR OJAM  110450Z 1106/1212 34004KT 0900 FG BKN007 BECMG
1107/1109 26010KT 5000 HZ SCT030 SCT035 BECMG 1116/1118 VRB03KT 7000
FEW030 TEMPO 1203/1206 3000 BR SCT025 BECMG 1206/1208 23008KT 6000
NSC=
TAF COR OJAI  110450Z 1106/1212 29006KT 3000 BR BECMG 1107/1109
26008KT 6000 SCT030 SCT035 BECMG 1118/1120 VRB03KT 8000 NSC TEMPO
1202/1206 3000 BR SCT025 BECMG 1206/1208 24005KT 7000 NSC=
TAF COR OJAQ  110450Z 1106/1212 35010KT 7000 NSC TEMPO 1122/1206
01008KT
CAVOK=

0000033000
261
SAID32 WIII 110630
METAR WIPT 110630Z 26005KT 220V310 9999 SCT020 30/23 Q1009= 
METAR WIOO 110630Z 00000KT 9999 BKN011 32/24 Q1008= 
METAR WADL 110630Z 04004KT 4000 TSRA FEW015CB SCT016 25/23 Q1009= 
METAR WAMM NIL=
METAR WIBB NIL=
METAR WIDN NIL=
METAR WIPP NIL=
METAR WAOO NIL=
METAR WALL NIL=

0000234600
262
SPUS70 KWBC 110640
SPECI
KNSE 110636Z AUTO 18013KT 3SM BR OVC002 19/19 A2995 RMK AO2 RAE27
     P0000 T01940189 $=
KSSF 110636Z AUTO 00000KT 1SM BR CLR 11/10 A2988 RMK AO2=
KBPT 110636Z AUTO 23009KT 2SM BR OVC002 18/18 A2986 RMK AO2 $=
KBUY 110636Z AUTO 00000KT 2 1/2SM -RA BR SCT004 OVC007 04/03 A3003
     RMK AO2 RAE02B04 P0006 T00390028=
KDCA 110636Z 35006KT 1/2SM R01/P6000FT FG OVC003 03/02 A3008 RMK
     AO2=
KLVJ 110636Z AUTO 26007KT 10SM OVC009 20/18 A2988 RMK AO2 CIG
     007V013 T02000178=
KMFI 110636Z AUTO 28004KT 1SM -SN BR BKN009 OVC013 M02/M03 A2941
     RMK AO2 P0000 T10171028=
KMFR 110636Z AUTO 00000KT 1/2SM R14/P6000FT FG BKN005 04/03 A3007
     RMK AO2 T00390028=
KRDG 110636Z 00000KT 2SM BR OVC003 01/01 A3008 RMK AO2 RAE31
     P0001=
KDPA 110636Z 20007KT 1 3/4SM -RA BR OVC003 03/03 A2947 RMK AO2
     P0000=
KBRD 110637Z AUTO 25007KT 3SM HZ OVC010 11/M04 A2944 RMK AO2 CIG
     006V013=
KBWG 110637Z AUTO 24004KT 2 1/2SM +RA BR FEW008 BKN037 OVC046
     11/11 A2971 RMK AO2 PK WND 31026/0612 WSHFT 0557 RAB07 P0019
     T01110106=
KCLE 110637Z 18012G19KT 10SM BKN026 OVC050 09/06 A2970 RMK AO2
     T00940061=
KCSG 110637Z AUTO 09003KT 1SM VCTS -RA BR VV002 13/13 A2994 RMK
     AO2 LTG DSNT W-NE TSB07RAB0557 P0008=
KCXO 110637Z AUTO 00000KT 1/4SM FG VV006 16/16 A2986 RMK AO2=
KDEC 110637Z AUTO 18010KT 1 3/4SM BR OVC003 05/05 A2951 RMK AO2
     RAE27 P0001=
KECG 110637Z AUTO 14009G17KT 3SM -RA BR SCT008 BKN014 OVC024 17/16
     A3007 RMK AO2 RAB0557 PRESFR P0029 T01670161 TSNO=
KFWN 110637Z AUTO 00000KT 2SM UP BR OVC005 00/00 A3013 RMK AO2
     P0004 T00000000=
KHKS 110637Z AUTO 18011G19KT 10SM SCT009 BKN015 OVC020 19/17 A2974
     RMK AO2 TSE0558RAE14 P0001=
KMDW 110637Z 20009KT 1 1/2SM -DZ BR OVC002 04/04 A2948 RMK AO2
     P0000 $=
KMSP 110637Z 26006KT 3SM BR OVC004 M02/M02 A2946 RMK AO2 $=
KOFP 110637Z AUTO 30004KT 2 1/2SM BR OVC003 03/03 A3007 RMK AO2
     T00330033=
KSGR 110637Z AUTO 24005KT 7SM BKN006 18/17 A2987 RMK AO2=
KTAN 110636Z AUTO 00000KT 2SM BR FEW003 BKN009 OVC016 03/01 A3023
     RMK AO2 RAE29UPB27E28 P0002 T00330011=
PATQ 110637Z AUTO 30004KT 1/2SM HZ OVC006 M23/M26 A2983 RMK AO2
     TSNO=
PATQ 110637Z AUTO 30004KT 1/2SM HZ OVC006 M23/M26 A2983 RMK AO2
     TSNO=

0000009800
263
SAFR32 LFPW 110630 RRA
METAR LFCK 110630Z AUTO 29004KT 9999 OVC026 08/06 Q1020=

0000009300
264
SAFR33 LFPW 110630 RRA
METAR LFLC 110638Z VRB02KT CAVOK 07/02 Q1017 NOSIG=

0000009800
265
SPUS42 KWBC 110640
SPECI
KBPT 110636Z AUTO 23009KT 2SM BR OVC002 18/18 A2986=

0000010100
266
SPUS31 KWBC 110641
SPECI
KCLE 110637Z 18012G19KT 10SM BKN026 OVC050 09/06 A2970=

0000009500
267
SPUS31 KWBC 110641
SPECI
KMSP 110637Z 26006KT 3SM BR OVC004 M02/M02 A2946=

0000012200
268
SPUS41 KWBC 110641
SPECI
KWRI 110637Z AUTO 11003KT 1 3/4SM R06/3000FT BR BKN041 OVC060
05/05 A3010=

0000010100
269
SPUS43 KWBC 110641
SPECI
KMDW 110637Z 20009KT 1 1/2SM -DZ BR OVC002 04/04 A2948=

0000010700
270
SANT31 KWBC 110600 RRD
METAR
GVAC 110630Z NIL=
LPBJ 110630Z NIL=
LPLA 110630Z NIL=

0000022400
271
SAPA31 KWBC 110600 RRE
METAR
PGSN 110638Z 04010KT 10SM FEW022 BKN041 OVC050 27/23 A2986 RMK AO2
     RAB29E38 P0000=
PKWA 110640Z AUTO 06015KT 10SM SCT031 BKN050 29/20 A2975 RMK AO2
     T02850201=

0000057400
272
FTUS31 KWBC 110642 AAA
TAF AMD
KIND 110639Z 1107/1212 19006KT 2SM -SHRA BR OVC006
      TEMPO 1107/1109 1/4SM FG VV004
     FM111000 21012KT 2SM -RA BR OVC006
     FM111400 25014G22KT 5SM -DZ BR BKN006 OVC015
     FM111800 25014G24KT P6SM BKN015
     FM120000 27013KT P6SM BKN025
     FM120600 27011KT P6SM SCT050 BKN200=
KMEM 110641Z 1107/1206 24015G20KT 5SM -RA BR FEW015 BKN035 OVC050
     FM110800 24014KT P6SM BKN012 OVC100
     FM111100 26010KT P6SM SCT020
     FM111500 28012G20KT P6SM SCT250
     FM120200 28006KT P6SM SKC=

0000026900
273
FTUS72 KWBC 110642 AAA
TAF AMD
KMEM 110641Z 1107/1206 24015G20KT 5SM -RA BR FEW015 BKN035 OVC050
     FM110800 24014KT P6SM BKN012 OVC100
     FM111100 26010KT P6SM SCT020
     FM111500 28012G20KT P6SM SCT250
     FM120200 28006KT P6SM SKC=

0000035400
274
FTUS73 KWBC 110642 AAA
TAF AMD
KIND 110639Z 1107/1212 19006KT 2SM -SHRA BR OVC006
      TEMPO 1107/1109 1/4SM FG VV004
     FM111000 21012KT 2SM -RA BR OVC006
     FM111400 25014G22KT 5SM -DZ BR BKN006 OVC015
     FM111800 25014G24KT P6SM BKN015
     FM120000 27013KT P6SM BKN025
     FM120600 27011KT P6SM SCT050 BKN200=

00000000