0000009500
475
SAQB31 LQSM 110830
METAR LQSA 110830Z VRB01KT 7000 FEW070 07/06 Q1023 NOSIG=

0000029100
476
FTCZ31 LKPW 110500 AAA
TAF AMD LKKV 110822Z 1108/1212 VRB02KT 7000 SCT006 BECMG 1110/1112
         25006KT CAVOK BECMG 1113/1114 5000 BKN017 TEMPO 1114/1121
         27008G18KT 2500 RA BR BKN006 PROB30 TEMPO 1117/1121 1500
         RASN BKN003 BECMG 1206/1208 CAVOK=

0000054700
477
SADN31 EKCH 110820
METAR EKCH 110820Z 23014KT 9999 BKN011 06/05 Q1006 BECMG BKN007=
METAR EKBI 110820Z 22009G21KT 200V260 9000 -RA BKN008 BKN020
06/05 Q1004=
METAR EKYT 110820Z 24006KT 6000 -RA FEW018 BKN027 06/05 Q1002=
METAR EKRK 110820Z AUTO 23012KT 6000NDV FEW007/// BKN009///
OVC012/// 06/05 Q1006=
METAR EKAH 110820Z AUTO 23006KT 190V270 9999NDV -RA  OVC013///
07/04 Q1004=
METAR EKEB 110820Z AUTO 22012KT 9999NDV DZ  FEW006/// BKN026///
07/06 Q1005=
METAR EKRN 110820Z 24018KT 9999 BKN012 06/06 Q1008=

0000020500
478
SADN32 EKCH 110820
METAR EKVJ 110823Z NIL=
METAR EKSB 110820Z 23011KT 200V280 4000 -RA BKN009 07/06 Q1006=
METAR EKSN 110823Z NIL=
METAR EKVD 110823Z NIL=
METAR EKOD 110823Z NIL=

0000059300
479
SADN34 EKCH 110820
METAR EKGF 110820Z 36095KT 9999 FEW026 07/02 Q1006=
METAR EKHN 110820Z AUTO 23013G31KT 130V270 8000NDV -DZ   OVC007///
///// Q1006=
METAR EKHR 110820Z AUTO 23022KT 9999NDV -RA  FEW011/// SCT015///
BKN020/// BKN026/// 07/06 Q1004=
METAR EKHA 110820Z AUTO 30017KT 9999NDV 07/04 Q1006=
METAR EKHD 110820Z AUTO 28023KT 9999NDV 07/01 Q1005=
METAR EKTE 110820Z AUTO 03019KT 9999NDV FEW026 SCT012 07/03 Q1006=
METAR EKGC 110820Z AUTO 30018KT 9999NDV 07/04 Q1006=
METAR EKAV 110820Z AUTO 22019KT 9999NDV -SHRA  FEW063/// OVC072///
06/05 Q1003=

0000022900
480
SAAF18 LFPW 110800 RRC
METAR FMMT 110800Z 12006KT 9999 VCSH SCT017CB 31/26 Q1013 NOSIG=
METAR FMNM 110800Z 20004KT 9999 FEW020 SCT230 32/22 Q1012 NOSIG=
METAR FMNN 110800Z 22008KT 9999 SCT020CB 32/23 Q1011=

0000010200
481
SPUS43 KWBC 110818
SPECI
KPTK 110814Z AUTO 19007KT 1 3/4SM BR OVC002 04/04 A2954=

0000010000
482
SAAL41 DAMM 110800 RRF
METAR DAUE 110800Z /////KT 9999 FEW040 SCT100 11/07 Q1021=

0000038800
483
SAMG20 FMMI 110800
METAR FMMI 110800Z 13004KT 9999  BKN017CB  SCT230 28/22 Q1022
NOSIG=
METAR FMNA 110800Z NIL=
METAR FMNN 110800Z 22008KT 9999 SCT020CB 32/23 Q1011=
METAR FMSD 110800Z VRB02KT 9999 FEW020TCU SCT233 29/24 Q1014=
METAR FMMT 110800Z 12006KT 9999 VCSH SCT017CB 31/26 Q1013 NOSIG=
METAR FMNM 110800Z 20004KT 9999 FEW020 SCT230 32/22 Q1012 NOSIG=

0000010300
484
SADJ20 HDAM 110800 RRA
METAR
HDAM 110800Z 090/06KT 9999 FEW020 SCT133 28/20 Q1018=

0000009800
485
SAAG05 SABM 110800 RRB
METAR SANT 110800Z  18006KT 9999  OVC040  23/21
Q1011=

0000012200
486
SPUS41 KWBC 110819
SPECI
KAVP 110815Z AUTO VRB03KT 3/4SM R04/1200V6000FT -RA BR OVC012
03/03 A2997=

0000012100
487
SPUS41 KWBC 110819
SPECI
KORH 110815Z AUTO 19005KT 1/4SM R11/2000V2400FT -RA FG VV002 03/03
A3013=

0000010300
488
SPUS42 KWBC 110819
SPECI
KNEW 110815Z AUTO 20013KT 10SM BKN009 BKN065 19/18 A2987=

0000012000
489
SPUS43 KWBC 110819
SPECI
KGRR 110815Z AUTO 19007KT 1/2SM R26L/5000VP6000FT FG OVC002 05/04
A2948=

0000046000
490
SAMG20 FMMI 110800
METAR 110800Z
METAR FIMP 110800Z 09010KT 9999 BKN020 30/25 Q1015=
METAR FIMR 110800Z 10017KT 9999 BKN017 30/24 Q1016=
METAR FJDG 110800Z NIL=
METAR FMCH 110800Z 31006KT 270V010 9999 FEW022 31/24 Q1014 NOSIG=
METAR FMEE 110800Z 09023KT 9999 FEW028 SCT260 31/21 Q1014 NOSIG=
METAR FMCZ 110800Z 08004KT 030V200 9999 SCT022 SCT100 BKN300 31/24
Q1013 NOSIG=
METAR FMEP 110800Z AUTO 27009KT 9999 NCD 29/23 Q1014=

0000017700
491
FCDL33 EDZO 110800
TAF EDVK 110800Z 1109/1118 VRB03KT 9000 SCT030 PROB40 TEMPO 1109/1112
     BKN008 BECMG 1109/1111 19008KT TEMPO 1115/1118 4000 RA BKN014=

0000122000
492
FCDL34 EDZO 110800
TAF EDAH 110800Z 1109/1118 23012KT 7000 SCT009 OVC015 TEMPO 1109/1118
     4000 RADZ BKN009 PROB40 TEMPO 1112/1118 23015G25KT=
TAF EDGS 110800Z 1109/1118 22006KT 6000 SCT005 BKN015 TEMPO 1109/1118
     0300 -RA FG BKN001 BECMG 1111/1114 25012KT=
TAF EDHK 110800Z 1109/1118 22012KT 6000 BKN012 BECMG 1109/1111
     22015G25KT TEMPO 1109/1116 3000 RADZ BKN007 PROB30 1111/1115
     BKN003 BECMG 1116/1118 BKN020 TEMPO 1116/1118 3000 SHRAGS
     BKN007CB=
TAF EDHL 110800Z 1109/1118 22010KT 8000 BKN012 BECMG 1109/1112
     22015G30KT TEMPO 1109/1118 3000 RADZ BKN007 PROB30 1112/1116
     BKN003 BECMG 1116/1118 28015G30KT=
TAF EDLN 110800Z 1109/1118 17005KT 7000 SCT015 TEMPO 1111/1116 4000
     -RA BKN013 BECMG 1112/1115 25010KT=
TAF EDMA 110800Z 1109/1118 VRB03KT 6000 NSC BECMG 1110/1113 25007KT
     TEMPO 1112/1118 RA BKN012=
TAF EDQM 110800Z 1109/1118 22008KT 9999 BKN045 BECMG 1110/1113 BKN008
     TEMPO 1112/1115 RA=
TAF EDXW 110800Z 1109/1118 23015G30KT 6000 BKN020 BECMG 1109/1110
     BKN012 TEMPO 1109/1112 2500 RADZ BKN007 PROB30 1109/1112 BKN003
     BECMG 1112/1115 29015G30KT BKN025 TEMPO 1112/1118 3000 SHRAGS
     BKN007CB=

0000008500
493
FCRE31 FMEE 110900
TAF FMCZ 110800Z 1109/1118 27008KT 9999 SCT023=

0000077100
494
FCDL35 EDZO 110800
TAF EDAH 110800Z 1109/1118 23012KT 7000 SCT009 OVC015 TEMPO 1109/1118
     4000 RADZ BKN009 PROB40 TEMPO 1112/1118 23015G25KT=
TAF EDHK 110800Z 1109/1118 22012KT 6000 BKN012 BECMG 1109/1111
     22015G25KT TEMPO 1109/1116 3000 RADZ BKN007 PROB30 1111/1115
     BKN003 BECMG 1116/1118 BKN020 TEMPO 1116/1118 3000 SHRAGS
     BKN007CB=
TAF EDJA 110800Z 1109/1118 22005KT 9999 SCT045 BECMG 1113/1115
     24015G25KT=
TAF EDTL 110800Z 1109/1118 22005KT 9999 BKN030 TEMPO 1109/1118 4000
     RA=
TAF EDXW 110800Z 1109/1118 23015G30KT 6000 BKN020 BECMG 1109/1110
     BKN012 TEMPO 1109/1112 2500 RADZ BKN007 PROB30 1109/1112 BKN003
     BECMG 1112/1115 29015G30KT BKN025 TEMPO 1112/1118 3000 SHRAGS
     BKN007CB=

00000000