0000012000
215
SARA35 RUMS 110800
METAR USCM 110800Z 16002MPS 6000 OVC015 M05/M07 Q1009 NOSIG 19420150
RMK QFE719=

0000065100
216
SARS33 RUMS 110800
METAR ULLI 110800Z 32007MPS 9999 DRSN BKN010 OVC013 M05/M07 Q0995
88510545 NOSIG=
METAR UUBW 110800Z 22004MPS 9999 BKN012 03/01 Q0986 NOSIG=
METAR UUDD 110800Z 24004MPS 210V280 9999 -RA BKN008 OVC100 03/02
Q0986 32290095 82290095 NOSIG=
METAR UUDL 110800Z 18002MPS 3800 -SNRA BR BKN004 OVC013 01/01 Q0984
NOSIG RMK QBB140 QFE730 23690532=
METAR UUEE 110800Z 23005MPS 9999 -RA OVC007 02/01 Q0985 75290151
25290151 NOSIG=
METAR UUWW 110800Z 24005MPS 9999 -RA BKN006 OVC016 02/01 Q0986
24290045 NOSIG=
METAR UUMO 110800Z 24003MPS 9999 BKN008 OVC020 02/02 Q0986 NOSIG RMK
QFE725/0966 26250550=

0000116500
217
SARS32 RUMS 110800
METAR URKA 110800Z 28007MPS 9999 SCT020 07/03 Q1018 NOSIG RMK
QFE758/1011 SC070=
METAR URKK 110800Z 27008G11MPS 9999 FEW016 08/05 Q1016 NOSIG RMK
QFE759 SC060=
METAR URML 110800Z 19003MPS 170V230 6000 OVC016 06/03 Q1010 NOSIG RMK
QFE757/1010 SC070=
METAR URMM 110800Z VRB01MPS 9999 SCT036 BKN120 02/M00 Q1012 30CLRD70
TEMPO 31012G17MPS RMK QFE731/0975=
METAR URMN 110800Z 25003MPS 9999 SCT033 OVC100 09/M09 Q1010 NOSIG RMK
QFE720 SC07=
METAR URMO 110800Z 01002MPS 310V060 9999 BKN150 M00/M02 Q1010 NOSIG
RMK QFE714/0952 SC070=
METAR URMT 110800Z 30012G17MPS 4000 -SHRA BKN016CB OVC100 06/04 Q1011
NOSIG RMK QFE720 SC0.60=
METAR URRR 110800Z 25009G13MPS 9999 SCT023 BKN100 05/03 Q1010
22290043 TEMPO 26011G16MPS=
METAR URSS 110800Z 10004G07MPS 9000 -SHRA BKN025 OVC040CB 09/04 Q1019
NOSIG RMK R06/10005MPS MT OBSC QFE763 02190060 06//////=
METAR URWA 110800Z 17006G09MPS 9999 BKN013 OVC030 06/03 Q1011 NOSIG
RMK QFE760/1014 SC055=
METAR URWI 110800Z 24009G12MPS 9999 -SHRA OVC021CB 05/02 Q1009 NOSIG=
METAR URWW 110800Z 26011G15MPS 9999 SCT010 SCT020CB 04/03 Q1002 NOSIG
RMK 29290060=

0000102600
218
SARS35 RUMS 110800
METAR USPP 110800Z 13004MPS 6000 OVC006 M03/M04 Q1005 21310140 TEMPO
-FZDZ RMK QBB200 QFE743/0991 FBL ICE INC 230-1300=
METAR UWKD 110800Z 17012G15MPS 1000 R11/0800V1400N SNRA OVC006
M00/M01 Q0995 R11/7/0240 NOSIG RMK QFE737/0982=
METAR UWKE 110800Z 19008G11MPS 9999 DRSN OVC007 M02/M03 Q1001 NOSIG
RMK  QFE734/0978 21420542=
METAR UWKS 110800Z 16009MPS 1100 SHSN OVC005CB M01/M01 Q0991 TEMPO
0700 +SHSN VV003 RMK QBB150 QFE729 24590532=
METAR UWLW 110800Z 16008G12MPS 5000 -SNRA OVC007 00/00 Q0996 20550345
TEMPO 17015MPS 0500 +SNRA VV002 RMK QFE741=
METAR UWOR 110800Z 26003MPS 9999 OVC008 00/M01 Q1011 25450245 NOSIG
RMK QFE735/0980=
METAR UWOO 110800Z 20004MPS 5000 -SG BR OVC012 M01/M02 Q1011 26830336
TEMPO 1000 BR OVC003 RMK QFE748/0997=
METAR UWSS 110800Z 19006G09MPS 3000 RASN BR OVC004 01/01 Q0995
12250350 NOSIG RMK QFE735=
METAR UWWW 110800Z 15008G11MPS 1700 SNRA OVC006 M00/M01 Q0999
23////45 33//99// TEMPO 1200 SNRA OVC004 RMK QFE738/0985=

0000091300
219
SARA34 RUMS 110800
METAR UNAA 110800Z 20004MPS CAVOK M02/M07 Q1031 NOSIG RMK QFE750
20090040=
METAR UNBB 110800Z 24005MPS 9999 -SN BKN023 M07/M09 Q1031 NOSIG RMK
QFE751/1001 24452045=
METAR UNEE 110800Z 18004MPS 7000 -SN OVC014 M08/M10 Q1029 NOSIG RMK
QFE749 23452045=
METAR UNKL 110800Z 25005G08MPS 9999 SCT026CB BKN083 M04/M10 Q1028
NOSIG RMK QFE745 29////55=
METAR UNNT 110800Z 21005MPS 8000 -SN BKN021 OVC083 M07/M09 Q1030
25390140 16390142 NOSIG RMK QFE762/1016=
METAR UNOO 110800Z 17005MPS 4500 BR SCT033CB BKN066 M08/M11 Q1022
25390137 NOSIG RMK QFE758=
METAR UNTT 110800Z 22006MPS 9999 SCT016CB OVC100 M07/M09 Q1027 NOSIG
RMK QFE755 21390130=
METAR USTR 110800Z 17003MPS 9999 OVC026 M06/M08 Q1013 NOSIG RMK
QFE750/1001 21350055 12750029=
METAR USHH 110800Z 04005MPS 6000 -SN BKN004 OVC080 M18/M20 Q1015
TEMPO 0600 +SN OVC002 RMK QBB140 QFE758 06////40=

0000040300
220
SARA33 RUMS 110800
METAR UIAA 110800Z 00000MPS 9999 SKC M22/M32 Q1030 NOSIG RMK QFE713
29CLRD70=
METAR UIBB 110800Z 14002MPS 6000 -SHSN SCT020CB OVC200 M17/M19 Q1027
NOSIG RMK QFE727/0969 30490434=
METAR UIII 110800Z 00000MPS CAVOK M12/M15 Q1030 NOSIG RMK QFE730/0973
12490340=
METAR UIUU 110800Z VRB01MPS 9999 FEW033 SCT100 M18/M21 Q1032 NOSIG
RMK QFE729/0972 26450545=

0000060500
221
SARA36 RUMS 110800
METAR UWUU 110800Z 21007G10MPS 9999 -FZRA BKN007 OVC014 M01/M03 Q1007
14620342 TEMPO 1000 SN FZRA BKN003 RMK QBB220 QFE745/0993 MOD ICE
INC=
METAR USCC 110800Z 15004MPS 5000 BR FU BKN023 OVC070 M05/M07 Q1011
09490350 TEMPO 1100 BR FU BKN005 RMK QFE737=
METAR USNN 110800Z 05004MPS 1800 SN SCT013 OVC026 M11/M12 Q1018 NOSIG
RMK QFE759 03491034=
METAR USRR 110800Z 07003MPS 1600 SN OVC028 M17/M20 Q1017 TEMPO 2000
SN BKN007 RMK OBST OBSC QFE758 07////35=
METAR USSS 110800Z 15003MPS 7000 BKN008 BKN032 OVC067 M05/M07 Q1009
0829//37 NOSIG RMK QFE737=

0000036100
222
SARS31 RUMS 110800
METAR ULWC 110800Z NIL=
METAR UUBP 110800Z 28008G11MPS 9000 -RA BKN008 OVC016 02/01 Q0996
16290155 NOSIG=
METAR UUOB 110800Z 27006G11MPS 9999 -SHRA BKN016CB 03/02 Q1000
29290050 NOSIG=
METAR UUOK 110800Z NIL=
METAR UWGG 110800Z 19003MPS 5000 -SN OVC009 01/00 Q0987 TEMPO 1000
SHSNRA VV004 18691035 RMK QFE733=

0000067000
223
SARS36 RUMS 110800
METAR ULAA 110800Z 07007G11MPS 2900 -SN BLSN OVC007 M17/M19 Q1000
TEMPO 0600 +SN BLSN BKN003 RMK QFE749/0999 SC050=
METAR ULMM 110800Z 00000MPS CAVOK M35/M39 Q1018 NOSIG RMK QFE756
31450239=
METAR ULOO 110800Z NIL=
METAR ULPB 110800Z 35005MPS 4500 -SN BKN010 BKN066 M13/M14 Q0994
NOSIG RMK QBB300 QFE741/0988=
METAR UMKK 110800Z 28006MPS 250V320 8000 -SHRA SCT010 OVC019CB 05/03
Q1008 R24/29//60 NOSIG RMK QFE755/1006=
METAR UUOO 110800Z 25007G11MPS 9999 -RA OVC012 03/01 Q0994 NOSIG RMK
30290250=
METAR UUYY 110800Z 04004MPS 1700 SHSN BKN008 OVC013CB M10/M11 Q1000
TEMPO 0700 +SHSN 01490535 RMK QFE741/0988=

0000032100
224
FTCN37 CWAO 110800 AAA
TAF AMD CYHZ 110809Z 1108/1206 22012KT 1SM -DZ BR OVC002 TEMPO
     1108/1113 4SM BR OVC004
    FM111300 20012KT 3/4SM -DZ BR OVC002
    FM111700 20012G22KT 1SM -RA BR OVC002
     BECMG 1118/1120 20020G30KT
     BECMG 1122/1124 20025G35KT
    RMK NXT FCST BY 110900Z=

0000012800
225
SAUS75 KWBC 110800 RRB
METAR
PHLI 110805Z AUTO 06015G22KT 10SM -RA FEW011 BKN017 BKN023 22/21
     A2997=

0000011400
226
SATH33 VTBB 110800 RRA
METAR VTUD 110800Z VRB05KT 9999 SCT040 29/12 Q1015
A2998 INFO J RWY30=

0000025700
227
SAAO32 GOOY 110800
METAR GABS 110800Z 02006KT 6000  NSC 20/09 Q1015 TEMPO 4000 DU=
METAR GAGO 110800Z NIL=
METAR GAKY 110800Z NIL=
METAR GAKL 110800Z NIL=
METAR GAMB 110800Z NIL=
METAR GANR 110800Z NIL=
METAR GATB 110800Z NIL=

0000024500
228
SAAO31 GOOY 110800
METAR FHAW 110800Z NIL=
METAR GGOV 110800Z 35004KT CAVOK 17/10 Q1013 NOSIG=
METAR DIAP 110800Z 06003KT 040V100 7000 SCT011  BKN150 26/26 Q1012
NOSIG=
METAR DIBK 110800Z NIL=
METAR DIYO 110800Z NIL=

0000025300
229
SAAO30 GOOY 110800
METAR GOOY 110800Z 03006KT 330V060 CAVOK 19/15 Q1014 NOSIG=
METAR GOGS 110800Z NIL=
METAR GOOK 110800Z NIL=
METAR GOSS 110800Z NIL=
METAR GOTK 110800Z NIL=
METAR GOTT 110800Z NIL=
METAR GOGG 110800Z NIL=

0000037700
230
SAAO33 GOOY 110800
METAR GQPP 110800Z 02006KT 0600 R02/0600 FG BKN005 16/15 Q1017 NOSIG=
METAR GQNN 110800Z 02007KT 6000 NSC 14/13 Q1016 NOSIG=
METAR GQPA 110800Z NIL=
METAR GQNI 110800Z NIL=
METAR GQPZ 110800Z NIL=
METAR GUCY 110800Z 36004KT 8000 NSC 23/21 Q1012 NOSIG=
METAR GUXN 110800Z NIL=
METAR GULB 110800Z NIL=
METAR GUNZ 110800Z NIL=

0000042300
231
FCGR31 LGAT 110800
TAF LGAD 110800Z 1109/1118 VRB03KT 9999 SCT020=
TAF LGIO 110800Z 1109/1118 VRB03KT 9999 FEW010 SCT035=
TAF LGKC 110800Z 1109/1118 29015G25KT 9999 SCT012=
TAF LGKF 110800Z 1109/1118 VRB03KT 9999 FEW015 SCT020 TEMPO 1109/1118
SCT015 BKN020=
TAF LGKL 110800Z 1109/1118 30010KT 9999 FEW015=
TAF LGZA 110800Z 1109/1118 VRB03KT 9999 FEW015 SCT020 TEMPO 1109/1118
SCT015 BKN020=

0000059100
232
FCGR32 LGAT 110800
TAF LGAL 110800Z 1109/1118 04010KT 9999 FEW020=
TAF LGHI 110800Z 1109/1118 VRB03KT 9999 SCT020 TEMPO 1109/1118 SCT015
BKN025=
TAF LGKP 110800Z 1109/1118 28015KT 9999 SCT020=
TAF LGKV 110800Z 1109/1118 VRB03KT 8000 SCT020 PROB30 TEMPO 1109/1111
5000 BR SCT012 BECMG 1110/1112 9999 FEW015=
TAF LGLM 110800Z 1109/1118 04010KT 6000 SCT010 BKN020 PROB30 TEMPO
1109/1111 4000 BR SCT008 BKN016 BECMG 1110/1112 9999 05015KT FEW020
SCT030=
TAF LGMT 110800Z 1109/1118 VRB03KT 9000 SCT020=
TAF LGSM 110800Z 1109/1118 VRB03KT 8000 FEW015 SCT020=

0000020600
233
SAIN31 EGGY 110800
METAR VOBL 110800Z 09006KT 040V160 CAVOK 31/14 Q1017 NOSIG=
METAR VOCB 110800Z NIL=
METAR VOCI 110800Z 33003KT 5000 HZ NSC 32/19 Q1010 NOSIG=
METAR VOCL 110800Z NIL=
0000012700
234
SACZ41 LKPW 110800
METAR LKKU 110800Z 15003KT CAVOK 01/M01 Q1020 RMK REG QNH 1014=
METAR LKVO 110800Z NIL=

00000000