0000083300
355
SASP32 LEMM 110730
METAR LEAS 110730Z VRB01KT 9999 FEW015 BKN029 09/09 Q1018 NOSIG=
METAR LEBB 110730Z 00000KT 9999 FEW030 BKN037 09/08 Q1019 NOSIG=
METAR LECO 110730Z VRB01KT 2000 R21/0650U BCFG BKN001 02/02 Q1018=
METAR LEGE 110730Z VRB02KT 7000 BKN018 09/07 Q1019=
METAR LEST 110730Z 15004KT 1100 R17/P2000 R35/P2000 BR SCT002
SCT005 05/05 Q1017 TEMPO 0700 BCFG=
METAR LEZG 110730Z 28008KT 0500 R30R/1200N R12R/1900N R30L/1200U
FG VV002 05/05 Q1019=
METAR LESO 110730Z 00000KT 9999 FEW022 BKN041 09/07 Q1019=
METAR LEVT 110730Z 23001KT 3000 BR BKN009 BKN015 02/02 Q1019=
METAR LERS 110730Z 35004KT 9999 BKN021 12/09 Q1018=
METAR LEMH 110730Z 11003KT 6000 BKN006 13/12 Q1018=
METAR LEAM 110730Z VRB01KT 9999 FEW020 10/08 Q1017=
METAR LEGR 110730Z VRB01KT 8000 FEW030 SCT080 06/06 Q1017=

0000019200
356
SASP33 LEMM 110730
METAR LEVD 110730Z 08005KT 2000 VCFG NSC 00/00 Q1017=
METAR LEVS 110730Z 00000KT 7000 NSC 05/05 Q1018=
METAR LESA 110730Z 00000KT CAVOK M02/M02 Q1017=

0000026100
357
SATS32 DTTA 110730
METAR DTMB 110730Z 12003KT CAVOK 12/07 Q1019 NOSIG=
METAR DTNH 110730Z 26003KT CAVOK 06/05 Q1019=
METAR DTTA 110730Z 14004KT 6000 FEW020 SCT100 10/08 Q1019 NOSIG=
METAR DTTJ 110730Z 18004KT 8000 NSC 12/09 Q1020 NOSIG=

0000042700
358
SACR31 LEMM 110730
METAR GCLP 110730Z 31004KT 290V350 9999 FEW020 15/11 Q1018 NOSIG=
METAR GCXO 110730Z 28004KT 230V300 9999 FEW005 11/08 Q1019 NOSIG=
METAR GCTS 110730Z 01007KT 9999 SCT025 BKN035 15/12 Q1017 NOSIG=
METAR GCRR 110730Z 32004G14KT 280V350 9999 FEW025 13/10 Q1018=
METAR GCFV 110730Z 29005KT 270V330 9999 FEW020 12/09 Q1018=
METAR GCLA 110730Z 29005KT 260V330 9999 FEW025 16/03 Q1017=

0000032400
359
SASP34 LEMM 110730
METAR LEDA 110730Z NIL=
METAR LEJR 110730Z 00000KT 9999 FEW060 11/11 Q1016=
METAR LELL 110730Z 00000KT 4000 BR OVC020 09/08 Q1019=
METAR LEPP 110730Z 00000KT 0100 R33/0375N R15/0400N FG VV001
03/03 Q1019=
METAR LEXJ 110730Z 00000KT 6000 -DZ FEW007 SCT012 OVC036 11/09
Q1018=

0000011600
360
SASP39 LEMM 110730
METAR LETL 110730Z AUTO 20003KT 170V230 0050 R36/0200N FG VV001
01/01 Q1018=

0000251600
361
SPUS70 KWBC 110734
SPECI
KALO 110730Z 29006KT 9SM BKN015 OVC075 M01/M02 A2950 RMK AO2
     T10061017=
KBDE 110730Z AUTO 31006KT 5SM -SN BR SCT010 OVC018 M03/M04 A2938
     RMK AO2 SNB25 P0000 T10281044 TSNO=
KCMI 110730Z AUTO 18009KT 1/2SM R32R/1800V2200FT -RA FG VV002
     04/04 A2950 RMK AO2 P0001=
KHJO 110730Z AUTO 00000KT 2 1/2SM BR CLR 05/03 A3024 RMK AO2
     T00500028=
KHKS 110730Z AUTO 26014G21KT 2SM RA BR BKN014 OVC023 19/18 A2978
     RMK AO2 PK WND 20029/0713 WSHFT 0710 P0014=
KIXD 110730Z AUTO 27008KT 5SM BR OVC004 01/00 A2965 RMK AO2 UPE13
     P0000 T00110000=
KLPR 110730Z AUTO 19012KT 10SM BKN029 BKN035 OVC110 08/06 A2966
     RMK AO2=
KSDF 110730Z 15005KT 5SM RA SCT007 SCT060 OVC075 11/09 A2964 RMK
     AO2 TSE02 PRESFR TS DSIPTD P0013 $=
KSLK 110730Z AUTO 00000KT 3/4SM BR VV002 M06/M07 A2995 RMK AO2=
KTOI 110730Z AUTO 18010G16KT 10SM -RA OVC006 19/18 A2992 RMK AO2
     LTG DSNT S CIG 003V010 P0003 T01890178=
K2DP 110730Z AUTO 17012G31KT 2 1/4SM +SHRA VCTS FEW004 BKN012
     18/17 A3009 RMK AO2 VIS 1 5/8V2 1/4 LTG DSNT N=
PAGY 110731Z AUTO 00000KT 10SM SCT017 BKN021 OVC060 02/M02 A2924
     RMK AO2 TSNO $=
PAOH 110731Z AUTO 00000KT 1/4SM FZFG OVC004 M02/M02 A2924 RMK AO2
     TSNO $=
KAFN 110730Z AUTO 00000KT 1SM -FZRA BR VV004 00/M01 A3016 RMK AO2
     FZRAB0655 P0001 I1002 T00001006=
KBAF 110731Z 00000KT 1 1/4SM -FZRA BR OVC004 01/M01 A3017 RMK AO2
     FZRAE09B31 P0001 I1001 T00061006=
KDEC 110731Z AUTO 20011KT 1 3/4SM BR OVC002 06/06 A2949 RMK
     AO2=
KDPA 110731Z 20008KT 1 1/4SM R02L/3500FT -RA BR OVC002 03/03 A2946
     RMK AO2 RAB17 P0000=
KFFT 110731Z AUTO 25005KT 4SM VCTS -RA BR FEW015 BKN043 OVC070
     11/11 A2967 RMK AO2 LTG DSNT ALQDS PRESFR P0020 T01110106=
KFTY 110731Z 14004KT 10SM -RA BKN005 OVC011 10/09 A2991 RMK AO2
     PRESFR P0007=
KGWO 110731Z AUTO 23008KT 10SM SCT021 BKN030 OVC050 17/16 A2972
     RMK AO2 RAE30 P0018 T01670156 TSNO=
KPHF 110731Z 14011G18KT 5SM -RA BR SCT007 BKN036 OVC047 18/16
     A3005 RMK AO2 P0021 $=
KPKD 110731Z AUTO 27003KT 2SM BR OVC019 M07/M08 A2940 RMK AO2
     T10721083 TSNO=
KRWI 110731Z AUTO 15003KT 1 1/4SM BR OVC003 16/16 A3004 RMK AO2
     P0009 T01610156=
KSSI 110731Z AUTO 17005KT 1SM BR VV002 15/15 A3004 RMK AO2
     T01500150=
KSTJ 110731Z AUTO 26006KT 8SM BKN023 BKN110 01/M01 A2965 RMK AO2
     T00061006=
KY50 110731Z AUTO 27004KT 2 1/2SM BR OVC002 00/ A2941 RMK AO2 TSNO
     $=

0000011100
362
SPUS43 KWBC 110734
SPECI
KBDE 110730Z AUTO 31006KT 5SM -SN BR SCT010 OVC018 M03/M04 A2938=

0000010700
363
SPUS43 KWBC 110734
SPECI
KSDF 110730Z 15005KT 5SM RA SCT007 SCT060 OVC075 11/09 A2964=

0000026100
364
SATS40 DTTA 110730
METAR DTMB 110730Z 12003KT CAVOK 12/07 Q1019 NOSIG=
METAR DTNH 110730Z 26003KT CAVOK 06/05 Q1019=
METAR DTTA 110730Z 14004KT 6000 FEW020 SCT100 10/08 Q1019 NOSIG=
METAR DTTJ 110730Z 18004KT 8000 NSC 12/09 Q1020 NOSIG=

0000018500
365
SACA33 KWBC 110700 RRB
METAR
TFFF 110730Z AUTO 06006KT 9999 FEW016/// OVC060/// ///TCU 22/20
     Q1015=
TFFR 110730Z AUTO 27004KT 250V310 9999 NSC 21/20 Q1016=

0000009200
366
SAHK31 VHHH 110730
METAR VHHH 110730Z 27007KT 6000 NSC 20/12 Q1020 NOSIG=

0000010900
367
SARO33 LROM 110700 CCA
METAR COR LRBC 110700Z 27006KT 240V300 CAVOK 06/M00 Q1020 1619//95=

0000010000
368
SAUK37 EGGY 110720 RRC
METAR EGPI 110720Z AUTO 29008KT 9999 NCD 03/01 Q1012 RERA=

0000013500
369
SAUK38 EGGY 110720 RRA
METAR EGPU 110720Z AUTO 31018G30KT 280V340 9999 -SHRA FEW026///
     SCT034/// 04/01 Q1011=

0000020500
370
FTFK41 EGYP 110800
TAF EGYP 110734Z 1109/1203 21022KT 9999 FEW020 BKN030
TEMPO 1109/1115 SCT020 BECMG 1112/1115 24018KT BECMG
1115/1118 29020KT BKN020 TEMPO 1118/1203 7000 RA SCT010=

0000009400
371
SPCN52 CWAO 110733
SPECI CWSA 110733Z AUTO 24013KT 9SM OVC031 02/M01 A3038=

0000009700
372
SASP36 LEMM 110730
METAR GEML 110730Z 24004KT 190V290 9999 FEW006 14/12 Q1017=

0000102400
373
SNVD15 KWNB 111700 RRG
BBXX
41046 11171 99238 70683 46/// /1009 10258 20185 40224 58014 91650
22200 00260 10906 20705 3//// 40903 70028 333 91211 555 11098
22105 31612 41012 61649 100092 099094 099095 100101 096091 097096
81011 91621=
42060 11171 99163 70632 46/// /0710 10263 40170 58020 91650 22200
00267 10604 20603 307// 41001 70018 333 91211 555 11101 22108
31606 40811 61649 070094 068093 071096 077093 072093 070090 80710
91622=
44064 11171 99370 70760 46/// /2108 1//// 40084 58035 91700 22200
00080 10301 70006 333 91211 555 11087 22094=
44062 11171 99386 70764 46/// /1707 10058 40053 91700 22200 00030
10301 70005 333 91208 555 11086 22093=
44063 11171 99390 70764 46/// /1804 10070 40034 57050 91700 22200
00015 10301 70005 333 91206 555 11047 22051=
44041 11171 99372 70768 46/// /2208 10177 91700 22200 00047 1//00
70002 333 91212 555 11088 22095=
44042 11171 99380 70763 46/// /1605 10095 40057 57040 91700 22200
00041 10301 70004 333 91206 555 11057 22062=
0000066100
374
UDAF01 FAPR 111707
AMDAR 1117
ASC AFZA26 4037N 07348W 111704 F002 PS075 121/007 TB2 S031 333 F/// VG059=
ASC AFZA26 4037N 07347W 111705 F003 PS095 185/018 TB1 S031 333 F/// VG041=
ASC AFZA26 4036N 07346W 111706 F006 PS105 186/028 TB1 S031 333 F/// VG044=
ASC AFZA26 4036N 07346W 111706 F009 PS122 177/043 TB1 S031 333 F/// VG043=
ASC AFZA26 4036N 07345W 111706 F012 PS143 182/052 TB1 S031 333 F/// VG042=
ASC AFZA26 4035N 07345W 111706 F015 PS157 187/049 TB1 S031 333 F/// VG042=
ASC AFZA26 4035N 07345W 111706 F017 PS157 193/048 TB1 S031 333 F/// VG044=
ASC AFZA26 4034N 07344W 111707 F020 PS157 197/044 TB1 S031 333 F/// VG035=
00000000