0000050800
915
FTUS75 KWBC 110709 AAA
TAF AMD
PAGY 110708Z 1107/1206 21006KT P6SM VCSH FEW025 OVC070
     FM111000 VRB03KT P6SM SCT025 OVC050
     FM111800 03006KT P6SM FEW025 BKN050
     FM120300 VRB05KT P6SM VCSH FEW025 OVC050 AMD LTD TO CLD VIS
      AND WIND=
PAKT 110708Z 1107/1206 28009KT P6SM BKN100
     FM110900 33008KT P6SM VCSH SCT040 OVC080
     FM111800 32007KT P6SM FEW050 SCT100
     FM120400 30008KT P6SM VCSH SCT050 BKN080 AMD LTD TO CLD VIS
      AND WIND 1106/1115=

0000009400
916
SPSY31 OSDI 110713
SPECI OSDI 110713Z 00000KT 0800 R23/0800 FG 02/01 Q1025=

0000220200
917
SPUS70 KWBC 110714
SPECI
PANW 110707Z AUTO 36003KT 1 1/2SM BR OVC001 M09/M09 A2940 RMK AO2
     TSNO $=
KAOO 110710Z AUTO 21005KT 2SM BR OVC002 02/02 A2996 RMK AO2
     T00220022=
KASD 110710Z AUTO 18009KT 3SM BR OVC002 18/17 A2987 RMK AO2
     T01780172 TSNO=
KCMH 110710Z 18009KT 10SM SCT027 OVC045 11/08 A2970 RMK AO2=
KFAY 110710Z AUTO 17003KT 1 3/4SM BR BKN007 BKN010 17/16 A3002 RMK
     AO2 CIG 004V009=
KFLD 110710Z AUTO 21007KT 1 3/4SM BR OVC002 02/01 A2941 RMK AO2
     T00170011=
KFRG 110710Z AUTO 14006KT 2SM -RA BR SCT002 SCT032 OVC065 07/07
     A3016 RMK AO2 P0000=
KGMU 110710Z AUTO 07005KT 4SM BR SCT004 OVC008 08/07 A3000 RMK AO2
     RAE0656 CIG 007V012 P0000=
KHQM 110710Z AUTO 16029G40KT 1 3/4SM -SN OVC015 A2959 RMK AO2 PK
     WND 17040/0710 UPB0658E00SNE0658B00 P0000 TSNO $=
KLGB 110710Z 00000KT 1 1/2SM BR BKN003 OVC009 12/09 A3011 RMK
     AO2=
KMCW 110710Z AUTO 29011KT 3SM BR OVC002 M01/M02 A2950 RMK AO2
     T10111017 TSNO=
KMFI 110710Z AUTO 30005KT 1 1/4SM -SN BR FEW005 BKN020 OVC036
     M02/M03 A2940 RMK AO2 P0000 T10171033=
KTDR 110711Z AUTO 16010KT 9SM OVC004 17/17 A3002 RMK AO2 CIG
     004V006=
KBOK 110711Z AUTO 16011G17KT 3SM BR OVC002 10/10 A3010 RMK AO2
     $=
KBUY 110711Z AUTO 02003KT 2SM +RA BR OVC005 04/03 A3001 RMK AO2
     P0004 T00440028=
KDYL 110711Z AUTO 00000KT 3/4SM BR VV002 02/02 A3008 RMK AO2
     T00170017 $=
KEYW 110711Z AUTO 09005KT 10SM FEW019 SCT030 24/22 A3007 RMK AO2
     T02390222=
KHGR 110711Z AUTO 35003KT 1SM BR OVC003 01/01 A3001 RMK AO2
     T00060006=
KISP 110711Z AUTO 17006KT 3SM -RA BR SCT002 BKN011 OVC070 08/07
     A3016 RMK AO2 P0002=
KJST 110711Z AUTO 18015KT 10SM OVC006 05/04 A2988 RMK AO2 CIG
     004V007 T00500044=
KMFR 110711Z AUTO 00000KT 2 1/2SM BR OVC003 04/03 A3006 RMK AO2
     T00390033=
KOFP 110711Z AUTO 31004KT 1 1/4SM BR OVC002 03/03 A3006 RMK AO2
     T00330033=
KSTS 110711Z AUTO 00000KT 2SM BR CLR 06/06 A3020 RMK AO2 VIS 1V5
     T00610056=
KJEF 110711Z AUTO 25009KT 8SM BKN014 OVC021 05/02 A2960 RMK
     AO2=
KSPI 110711Z AUTO 20008KT 1 3/4SM BR OVC002 05/05 A2950 RMK
     AO2=

0000009800
918
SPUS41 KWBC 110714
SPECI
KCMH 110710Z 18009KT 10SM SCT027 OVC045 11/08 A2970=

0000010200
919
SPUS42 KWBC 110714
SPECI
KMGM 110710Z AUTO 16006KT 7SM BKN007 OVC013 18/17 A2989=

0000010000
920
SPUS44 KWBC 110714
SPECI
KHQM 110710Z AUTO 16029G40KT 1 3/4SM -SN OVC015 A2959=

0000008900
921
SAAG41 KWBC 110700 RRA
METAR
SAVC 110700Z 27003KT CAVOK 13/07 Q1016=

0000026100
922
FTCN35 CWAO 110700 AAA
TAF AMD CYYB 110714Z 1107/1114 12010KT 1SM -RASN BR OVC002 TEMPO
     1107/1108 3SM -FZRA -PL BR OVC004
    FM110800 12012KT 1/2SM -RA FG VV002 TEMPO 1108/1114 1SM -RA BR
     OVC004
    RMK NXT FCST BY 110800Z=

0000031100
923
SAAF11 LFPW 110700 RRA
METAR FCPP 110700Z 10006KT 9000 FEW013 BKN026 FEW030CB 25/24 Q1012
NOSIG=
METAR FKKD 110700Z 15002KT 1600 BR FEW013 FEW016CB BKN300 25/24 Q1013
TEMPO 0700 FG=
METAR FKKN 110700Z 00000KT CAVOK 15/04 Q1020=
METAR FKKR 110700Z 14004KT 8000 NSC 20/02 Q1016 NOSIG=

0000012200
924
SAAF14 LFPW 110700 RRB
METAR FEFF 110700Z VRB02KT 4000  BR FEW004 BKN300 21/18 Q1014 BECMG
 6000 NSW=

0000022100
925
SAAP32 FAPR 110700 RRA
METAR FBSK 110700Z 07012KT CAVOK 28/13 Q1017 NOSIG=
METAR FVHA 110700Z 04010KT 9999 BKN015 24/20 Q1022 NOSIG RMK QFE
    854.6=
METAR FYWH 110700Z 13008KT CAVOK 24/05 Q1023=

0000008800
926
SAAG05 SABM 110700 RRB
METAR SAVC 110700Z  27003KT CAVOK 13/07 Q1016=

0000046400
927
SAPS31 NFFN 110700
METAR NCRG 110700Z NIL=
METAR NFFN 110700Z 15006KT 9999 FEW030 27/21 Q1005 NOSIG=
METAR NFNA 110700Z 18007KT 9999 FEW023 SCT050 27/22 Q1006=
METAR NGFU 110700Z NIL=
METAR NGTA 110700Z NIL=
METAR NIUE 110700Z NIL=
METAR NSFA 110700Z NIL=
METAR NSTU 110700Z NIL=
METAR NTAA 110700Z VRB01KT 9999 FEW020 26/21 Q1013 NOSIG=
METAR NWWW 110700Z AUTO 13018KT 9999 BKN058 BKN082 26/16 Q1010=
METAR PLCH 110700Z NIL=

0000035500
928
FTUS41 KWBC 110715 AAA
TAF AMD
KPWM 110712Z 1107/1206 VRB03KT 6SM BR OVC025
     FM110900 20005KT 4SM BR OVC015
     FM111000 VRB04KT 1SM -FZDZ BR OVC005
     FM111200 15007KT 1/2SM -RA FG VV003 WS020/19050KT
     FM111600 16014G25KT 2SM RA BR OVC004 WS020/21060KT
     FM112000 18016G26KT 1/2SM +RA FG OVC001 WS020/21060KT=

0000031100
929
FTUS31 KWBC 110715 AAA
TAF AMD
KMSP 110712Z 1107/1212 29008KT 3SM BR OVC005
     FM110930 29008KT 3/4SM BR OVC002
     FM111230 29012KT 6SM BR SCT006 SCT015
     FM111600 30012KT P6SM SCT025 BKN040
     FM112000 27008KT P6SM SCT040 SCT250
     FM120200 23004KT P6SM SCT030 BKN120=

0000089800
930
FTUS71 KWBC 110715 AAA
TAF AMD
KPOU 110713Z 1107/1206 00000KT 3/4SM -RA BR OVC005
      TEMPO 1107/1108 1/2SM -RA FG OVC003
     FM110800 VRB03KT 1SM -RA BR SCT002 OVC005 WS020/19050KT
     FM111400 18008KT 3/4SM -RA BR OVC003 WS020/20055KT
     FM112300 23010G18KT 1 1/2SM -RA BR SCT003 OVC006=
KPSM 110712Z 1107/1206 VRB04KT 2SM BR OVC003
     FM110800 14005KT 1SM -FZDZ BR OVC003
     FM111100 16007KT 1/2SM -RA FG VV002 WS020/18050KT
     FM111500 18012G25KT 2SM RA BR OVC005 WS020/21060KT
     FM111900 20015G25KT 1/2SM +RA FG OVC002 WS020/21060KT=
KPWM 110712Z 1107/1206 VRB03KT 6SM BR OVC025
     FM110900 20005KT 4SM BR OVC015
     FM111000 VRB04KT 1SM -FZDZ BR OVC005
     FM111200 15007KT 1/2SM -RA FG VV003 WS020/19050KT
     FM111600 16014G25KT 2SM RA BR OVC004 WS020/21060KT
     FM112000 18016G26KT 1/2SM +RA FG OVC001 WS020/21060KT=

0000026500
931
FTUS72 KWBC 110715 AAA
TAF AMD
KMKL 110714Z 1107/1206 21012KT 4SM RA BR FEW005 BKN015 OVC030
     FM111000 24014KT P6SM BKN012 OVC080
     FM111200 26012KT P6SM SCT020
     FM111500 27012G18KT P6SM SCT250
     FM120100 26007KT P6SM SKC=

0000031100
932
FTUS73 KWBC 110715 AAA
TAF AMD
KMSP 110712Z 1107/1212 29008KT 3SM BR OVC005
     FM110930 29008KT 3/4SM BR OVC002
     FM111230 29012KT 6SM BR SCT006 SCT015
     FM111600 30012KT P6SM SCT025 BKN040
     FM112000 27008KT P6SM SCT040 SCT250
     FM120200 23004KT P6SM SCT030 BKN120=

0000023300
933
SAPS32 NFFN 110700
METAR NFTF 110700Z NIL=
METAR NFTL 110700Z NIL=
METAR NFTV 110700Z 31018KT 9999 FEW016 SCT120 BKN280 26/24 Q1006=
METAR NLWW 110700Z NIL=
METAR NVSS 110700Z NIL=
METAR NVVV 110700Z NIL=

0000008800
934
SACU31 MUHA 110715 RTD
METAR
MUCL 110705Z AUTO 08003KT 25/23 Q1017=

00000000