0000018900
015
FTCN38 CWAO 110700
TAF CYDF 110740Z 1108/1120 23012G22KT P6SM BKN050 TEMPO 1108/1120 4SM
     -SHSN OVC015
     BECMG 1118/1120 25012KT
    RMK NXT FCST BY 111400Z=

0000025800
016
FTCN36 CWAO 110700
TAF CYWK 110740Z 1108/1120 23007KT P6SM -SN OVC050 TEMPO 1108/1118
     4SM -SN OVC030
    FM111800 15010KT 6SM -SN OVC015 TEMPO 1118/1120 2SM -SN OVC008
     PROB30 1119/1120 1SM -SN
    RMK NXT FCST BY 111400Z=

0000013200
017
FTCN38 CWAO 110700
TAF CYCA 110740Z 1108/1120 ADVISORY OFFSITE 22008KT P6SM SCT040
    RMK NXT FCST BY 111400Z=

0000025300
018
FTCN38 CWAO 110700
TAF CYAY 110740Z 1108/1120 26007KT P6SM SCT025 BKN080 TEMPO 1108/1111
     3SM -SN BKN020
    FM111100 26012G22KT P6SM SCT030
     BECMG 1115/1117 25012KT
    RMK FCST BASED ON AUTO OBS. NXT FCST BY 111400Z=

0000015400
019
FTCN36 CWAO 110700
TAF CYKL 110740Z 1108/1120 FCST NOT AVBL DUE WND SENSOR INOPV
    RMK FCST BASED ON AUTO OBS. NXT FCST BY 111400Z=

0000023000
020
FTCN36 CWAO 110700
TAF CYBX 110740Z 1108/1120 27012KT P6SM SCT020 BKN040 TEMPO 1108/1111
     2SM -SN OVC020
    FM111100 25008KT P6SM SCT050
    FM111900 18005KT P6SM BKN100
    RMK NXT FCST BY 111400Z=

0000012800
021
SPUS41 KWBC 110741
SPECI
KEWB 110737Z AUTO 15004KT 1 1/4SM R05/6000VP6000FT BR BKN003
OVC046 07/07 A3021=

0000011600
022
SPUS42 KWBC 110741
SPECI
KOPF 110737Z AUTO 13005KT 10SM -RA SCT017 BKN023 BKN029 23/23
A3009=

0000008800
023
SAAL40 DAMM 110730 RRB
METAR DABS 110730Z 12006KT CAVOK 03/M02 Q1020=

0000010500
024
SACZ41 LKPW 110700 RRA
METAR LKKU 110741Z 16002KT CAVOK 00/M01 Q1020 RMK REG QNH 1014=

0000023500
025
FTUS31 KWBC 110742 AAA
TAF AMD
KDTW 110741Z 1108/1212 15007KT 3SM -RA BR OVC003 WS020/19043KT
     FM111200 18010KT 2SM SHRA BR OVC004
     FM111700 24012G20KT 6SM BR OVC010
     FM120600 25010KT P6SM OVC025=

0000020200
026
FTUS71 KWBC 110742 AAA
TAF AMD
KIPT 110739Z 1108/1206 08003KT 2SM -RA BR SCT004 BKN010 OVC025
      WS020/19045KT
     FM111500 17012G24KT 3SM RA BR BKN009 OVC016 WS012/19045KT=

0000016100
027
FTUS72 KWBC 110742 AAA
TAF AMD
KGGG 110741Z 1108/1206 34006KT P6SM SKC
     FM111700 30012G18KT P6SM SKC
     FM120000 28004KT P6SM SKC=

0000023500
028
FTUS73 KWBC 110742 AAA
TAF AMD
KDTW 110741Z 1108/1212 15007KT 3SM -RA BR OVC003 WS020/19043KT
     FM111200 18010KT 2SM SHRA BR OVC004
     FM111700 24012G20KT 6SM BR OVC010
     FM120600 25010KT P6SM OVC025=

0000008700
029
SANT31 KWBC 110700 RRD
METAR
LPBJ 110730Z NIL=
LPLA 110730Z NIL=

0000013500
030
SAPA31 KWBC 110700 RRE
METAR
PKWA 110740Z AUTO 06016G20KT 10SM SCT035 SCT060 28/20 A2977 RMK
     AO2 T02790195=

0000015600
031
SIVJ30 KWBC 111500 RRB
BBXX
VHMW 11154 99648 31298 41/91 /0106 11004 21005 49943 53005 74974
 8//// 22252 05013 20000 304// 40601 81004=
0000011600
032
SARE20 FMEE 110730 RRA
METAR FMCZ 110730Z 15005KT 120V180 9999 FEW022 BKN300 31/24 Q1013
NOSIG=

0000009500
033
SAAB31 LATI 110750
METAR LATI 110750Z 00000KT 9999 BKN055 11/08 Q1024 NOSIG=

0000023700
034
FTUS52 KWBC 110745 AAA
TAF AMD
KFMY 110742Z 1108/1206 14004KT P6SM OVC004
      TEMPO 1111/1114 3SM BR
     FM111500 18011KT P6SM SCT020
     FM111700 21016G22KT P6SM SCT030
     FM120000 23006KT P6SM SCT030=

00000000