0000040300
095
FTCN36 CWAO 110500
TAF CYZV 110540Z 1106/1206 27006KT P6SM FEW020 OVC050
    FM111200 VRB03KT P6SM -SN OVC030
    FM111500 07006KT 5SM -SN BKN015 OVC030
    FM111700 09010KT 1SM -SN VV010
    FM111900 09012G22KT 1/2SM -SN BLSN VV005
     BECMG 1119/1121 09018G28KT
    FM120100 09015G25KT 1SM -SN -PL OVC008
     BECMG 1202/1204 06010G20KT
    RMK NXT FCST BY 111200Z=

0000051100
096
FTCN31 CWAO 110500
TAF CYVR 110540Z 1106/1212 08015G25KT 6SM -RA BR SCT007 OVC015 TEMPO
     1106/1112 2SM RA BR BKN007
     BECMG 1110/1112 20015G25KT
    FM111200 19015G25KT P6SM -SHRA SCT015 BKN040 TEMPO 1112/1124 5SM
     -SHRA BR BKN015
     BECMG 1117/1119 19020G30KT
    FM120000 20015G25KT P6SM BKN050
     BECMG 1200/1202 30015G30KT
     BECMG 1202/1204 30030G40KT
    FM120800 30020G30KT P6SM SCT050
     BECMG 1210/1212 30015G25KT
    RMK NXT FCST BY 110900Z=

0000038000
097
FTCN37 CWAO 110500
TAF CYQI 110540Z 1106/1118 23010KT P6SM OVC010 TEMPO 1106/1109 5SM
     -RA -DZ BR OVC006 PROB30 1106/1109 OVC005
    FM110900 21010KT 3SM -DZ BR OVC004 TEMPO 1109/1112 P6SM -RA
     OVC007
    FM111200 18010KT 1SM -RA BR OVC002 TEMPO 1112/1118 3SM -RA BR
     OVC004
     BECMG 1113/1115 18015G25KT
    RMK NXT FCST BY 111200Z=

0000036800
098
FTCN31 CWAO 110500
TAF CYXX 110540Z 1106/1206 05005KT 6SM -RA SCT006 OVC025 TEMPO
     1106/1114 2SM RA BR BKN006 OVC015
     BECMG 1108/1110 20020G30KT
    FM111400 20020G30KT P6SM -SHRA SCT012 BKN050 TEMPO 1114/1202 5SM
     -SHRA BR BKN012 OVC030
    FM120200 22015G25KT P6SM SCT050 TEMPO 1202/1206 BKN050
    RMK NXT FCST BY 111200Z=

0000041100
099
FTCN37 CWAO 110500
TAF CYQM 110540Z 1106/1206 22008KT P6SM SCT012 TEMPO 1106/1109 BKN012
    FM110900 21006KT P6SM -SN BKN010 OVC030 TEMPO 1109/1112 P6SM NSW
     SCT010 BKN030
    FM111200 17006KT P6SM OVC010 TEMPO 1112/1116 4SM -SN BR OVC006
     PROB40 1112/1116 2SM -FZDZ BR
    FM111600 17015KT 4SM -RA BR OVC006
     BECMG 1118/1120 19020G30KT
    RMK NXT FCST BY 111200Z=

0000033100
100
FTCN31 CWAO 110500
TAF CYYJ 110540Z 1106/1206 14012G22KT 6SM -RA SCT007 OVC025 TEMPO
     1106/1113 2SM -RA BR BKN007 OVC020
    FM111300 23015G25KT P6SM -SHRA SCT012 BKN030 TEMPO 1113/1124 5SM
     -SHRA BR OVC012
    FM120000 26015G25KT P6SM SCT050 TEMPO 1200/1206 BKN050
    RMK NXT FCST BY 111200Z=

0000039500
101
FTCN37 CWAO 110500
TAF CYHZ 110540Z 1106/1206 22012KT P6SM -SN OVC003 TEMPO 1106/1108
     4SM -SG -FZDZ BR
    FM110800 21012KT 1SM -SG -FZDZ BR OVC002 TEMPO 1108/1113 4SM -SN
     BR
    FM111300 20012KT 3/4SM -DZ BR OVC002
    FM111700 20012G22KT 1SM -RA BR OVC002
     BECMG 1118/1120 20020G30KT
     BECMG 1122/1124 20025G35KT
    RMK NXT FCST BY 110900Z=

0000041100
102
FTCN37 CWAO 110500
TAF CYFC 110540Z 1106/1118 VRB03KT P6SM SCT080
    FM111000 VRB03KT P6SM SCT010 TEMPO 1110/1112 BKN010
    FM111200 VRB03KT P6SM SCT006 BKN010 TEMPO 1112/1115 BKN006 OVC010
     PROB30 1112/1115 2SM -FZDZ BR OVC005
    FM111500 VRB03KT 3SM -FZRA BR BKN006 OVC010
    FM111700 16012KT 3SM -RA BR BKN006 OVC010
    RMK FCST BASED ON AUTO OBS. NXT FCST BY 111200Z=

0000046200
103
FTCN37 CWAO 110500
TAF CYSJ 110540Z 1106/1118 VRB03KT P6SM SCT008 BKN060 TEMPO 1106/1109
     6SM BR BKN008 OVC060
    FM110900 VRB03KT 5SM BR BKN005 OVC010 TEMPO 1109/1112 P6SM NSW
     SCT005 OVC010 PROB30 1109/1112 3SM -FZDZ BR OVC002
    FM111200 VRB03KT 1SM -SN -FZDZ BR OVC002 PROB30 1112/1115 1/4SM
     -FZDZ FZFG VV001
    FM111500 15010KT 1SM -RA BR OVC002
     BECMG 1116/1118 17015G25KT
    RMK NXT FCST BY 111200Z=

0000025100
104
FTCN37 CWAO 110500
TAF CYYG 110540Z 1106/1118 22006KT P6SM SCT008 BKN030 TEMPO 1106/1112
     BKN008 OVC030
    FM111200 17006KT P6SM SCT005 OVC015 TEMPO 1112/1118 4SM -FZDZ BR
     BKN005 OVC015
    RMK NXT FCST BY 111200Z=

0000028700
105
FTCN37 CWAO 110500
TAF CYQY 110540Z 1106/1118 24012KT P6SM SCT012 BKN025 TEMPO 1106/1108
     6SM -SN BKN012 OVC025
    FM110900 23012KT P6SM SCT008 BKN012 TEMPO 1109/1118 5SM -SN BR
     BKN008 OVC012 PROB30 1109/1114 3SM -FZDZ BR
    RMK NXT FCST BY 111200Z=

0000025100
106
FTAU32 YBBN 110500 RRC
TAF YMAV 110530Z 1106/1206
18014KT CAVOK
BECMG 1109/1111 20008KT 9999 -DZ FEW010 BKN015
BECMG 1122/1124 20010KT 9999 SCT015 BKN020
BECMG 1200/1202 17012KT CAVOK
TEMPO 1116/1122 5000 -DZ BKN010
RMK=

0000024200
107
SAPO32 LPMG 110530
METAR LPAZ 110530Z 23016KT 7000 -DZ BKN004 16/15 Q1006=
METAR LPFL 110530Z NIL=
METAR LPHR 110530Z NIL=
METAR LPLA 110530Z NIL=
METAR LPPD 110530Z 23016G27KT 9999 FEW008 SCT014 BKN035 15/14 Q1004=

0000114600
108
SAAU32 YBBN 110530
METAR YAMB 110530Z AUTO 07011KT 9999 // SCT055 SCT094 29/15 Q1014=
METAR YMAV 110530Z AUTO 17016KT 9999 // NCD 21/13 Q1019=
METAR YBRM 110530Z 27010KT 9999 FEW025 SCT400 32/25 Q1008=
METAR YCIN 110530Z NIL=
METAR YSDU 110530Z AUTO 26004KT 9999 // SCT087 32/14 Q1015=
METAR YFRT 110530Z AUTO 14014KT //// // ////// 34/06 Q1018=
METAR YGEL 110530Z 22017KT CAVOK 44/05 Q1006=
METAR YPGV 110530Z 10015KT 9999 FEW018 BKN020 29/24 Q1004=
METAR YBHM 110530Z AUTO 12021KT 9999 // ////// 28/22 Q1011=
METAR YMHB 110530Z 15011KT 9999 FEW050 SCT280 22/11 Q1012=
METAR YPKG 110530Z AUTO 06010KT 9999 // NCD 36/05 Q1018=
METAR YMLT 110530Z AUTO 35017KT 9999 // NCD 26/11 Q1012=
METAR YBMA 110530Z NIL=
METAR YSNF 110530Z 12010KT 9999 FEW030 BKN280 21/13 Q1017=
METAR YPEA 110530Z NIL=
METAR YPPD 110530Z AUTO 33014KT 9999 // NCD 35/27 Q1007=
METAR YSRI 110530Z AUTO 28007KT 9999 // SCT062 SCT079 BKN110 32/11
Q1012=
METAR YBRK 110530Z 08011KT 9999 FEW040 29/17 Q1012=
METAR YWLM 110530Z AUTO 12011KT //// // NCD 31/15 Q1014=
METAR YPWR 110530Z AUTO 15013KT 9999 // NCD 39/04 Q1014=

0000015400
109
FTBE31 TXKF 110545
TAF TXKF 110545Z 1106/1206 09012KT 9999 FEW025 SCT050
     BECMG 1118/1121 14015KT
     BECMG 1203/1206 17025KT=

0000027600
110
FTCN33 CWAO 110500
TAF CYEK 110538Z 1106/1118 35008KT P6SM SKC TEMPO 1106/1112 5SM IC
     BECMG 1107/1109 VRB03KT
    FM111200 22005KT P6SM SKC TEMPO 1112/1118 3SM BR
     BECMG 1116/1118 23010KT
    RMK FCST BASED ON AUTO OBS. NXT FCST BY 111200Z=

0000035100
111
FTCN32 CWAO 110500
TAF CYEG 110538Z 1106/1206 16008KT P6SM FEW150 BKN220
    FM111000 12012KT P6SM -SN BKN100 TEMPO 1110/1114 4SM -SN OVC060
    FM111400 14018KT 4SM -SN SCT020 OVC060 TEMPO 1114/1120 2SM -SN
     VV012
    FM112000 20015KT P6SM BKN060 BKN120
    FM112200 30012KT P6SM SCT200
    RMK NXT FCST BY 110900Z=

0000086000
112
FTUS41 KWBC 110539
TAF
KFVE 110538Z 1106/1206 VRB03KT P6SM BKN015
     FM111200 16006KT P6SM OVC008
     FM111500 16010KT 2SM -FZRASNPL BR OVC005
     FM111800 16010KT 1SM -FZRAPL BR OVC005
     FM112000 18012KT 3/4SM -RA BR OVC003=
KHUL 110538Z 1106/1206 18006KT P6SM BKN060
     FM111000 16006KT P6SM OVC020
     FM111500 17010KT 2SM -FZRAPL BR OVC008
     FM111700 17010KT 1SM -RA BR OVC005
     FM112000 17012G20KT 3/4SM RA BR OVC003 WS020/19045KT
     FM120000 18015G25KT 3/4SM RA BR OVC003 WS020/20055KT
     FM120300 20012KT 1SM RA BR OVC003 WS020/22045KT=
KPQI 110538Z 1106/1206 VRB03KT P6SM BKN020
     FM111200 16006KT P6SM OVC010
     FM111500 16010KT 3SM -FZRASNPL BR OVC008
     FM111700 16010KT 2SM -FZRAPL BR OVC005
     FM111900 18012KT 1SM -RA BR OVC005 AMD LTD TO CLD VIS AND
      WIND=

0000033100
113
FTCN32 CWAO 110500
TAF CYXH 110538Z 1106/1118 24008KT P6SM SCT220
    FM110800 18008KT P6SM SCT100 BKN220
    FM111200 18005KT P6SM BKN100 OVC220 TEMPO 1112/1116 4SM -SN
     BKN060 PROB30 1112/1115 P6SM -FZRA
    FM111600 20018KT P6SM FEW100 BKN220
    RMK FCST BASED ON AUTO OBS. NXT FCST BY 111200Z=

0000025700
114
FTCN32 CWAO 110500
TAF CYQL 110538Z 1106/1118 16008KT P6SM FEW090 SCT220
     BECMG 1106/1108 22012KT
    FM111000 18018KT P6SM SCT100 SCT220
    FM111600 24032G48KT P6SM SCT220
    RMK FCST BASED ON AUTO OBS. NXT FCST BY 111200Z=

00000000