0000026900
315
NOUK32 EGGY 110641
SADIS GATEWAY MONITOR
INTERNAL ALARM MESSAGE
AERODROME NOT RECEIVED

SKBO FT LAST RECEIVED AT 101000Z
VABB FT LAST RECEIVED AT 100300Z
VTSP FT LAST RECEIVED AT 102300Z
ZSPD FT LAST RECEIVED AT 110324Z
END OF MESSAGE

0000023700
316
FTGR31 LGAT 110500 AAA
TAF AMD LGTS 110700Z 1107/1206 VRB03KT 1000 FG OVC005 TEMPO 1107/1110
 0200 FG OVC001 BECMG 1108/1110 9999 FEW010 SCT020 BECMG 1121/1123
 5000 BR SCT015 PROB40 TEMPO 1200/1206 0800 FG SCT008=

0000024100
317
FTDL33 EDZO 110500 AAA
TAF AMD EDLV 110629Z 1106/1206 19007KT 8000 SCT015 TEMPO 1106/1110
     4000 BR BKN004 BECMG 1110/1113 25011KT TEMPO 1110/1116 4000 RA
     BKN009 BECMG 1117/1119 24006KT TEMPO 1201/1206 4000 BR=

0000024100
318
FTDL34 EDZO 110500 AAA
TAF AMD EDLV 110629Z 1106/1206 19007KT 8000 SCT015 TEMPO 1106/1110
     4000 BR BKN004 BECMG 1110/1113 25011KT TEMPO 1110/1116 4000 RA
     BKN009 BECMG 1117/1119 24006KT TEMPO 1201/1206 4000 BR=

0000022700
319
SALJ31 LJLJ 110630
METAR LJLJ 110630Z 10002KT 9999 FEW030 BKN040 05/05 Q1020 NOSIG=
METAR LJMB 110630Z VRB01KT 9999 BKN003 OVC010 02/02 Q1020=
METAR LJPZ 110630Z VRB02KT 2500 BR FEW004 OVC050 09/08 Q1022=

0000009900
320
SALJ32 LJLJ 110630
METAR LJCE 110630Z VRB02KT 0400 FG VV001 03/02 Q1021 RMK RED=

0000009900
321
SAYG31 LYBM 110630 RRA
METAR LYKV 110630Z 00000KT 9999 BKN050 04/02 Q1024 NOSIG=

0000026500
322
SAFR21 LFPW 110630
METAR LFOA 110630Z AUTO 19003KT 9999 BKN020 BKN080 BKN110 07/05
Q1016=
METAR LFPC 110630Z AUTO 00000KT 1600 BCFG FEW003 OVC040 05/04 Q1016=
METAR LFPV 110630Z AUTO 00000KT 2300 1400 R27///// R09///// BR NSC
06/05 Q1016=

0000010300
323
SANT31 KWBC 110600 RRC
METAR
BIKF 110630Z 27010KT 9999 FEW042 BKN120 01/M03 Q0997=

0000047500
324
SAFR22 LFPW 110630
METAR LFBC 110630Z AUTO 21002KT 7000 OVC022 09/09 Q1018=
METAR LFBG 110630Z AUTO 00000KT 1800 BR OVC002 08/08 Q1018=
METAR LFBM 110630Z AUTO 00000KT 7000 FEW018 OVC026 09/09 Q1018=
METAR LFKS 110630Z AUTO 28003KT 9999 SCT026 OVC038 12/08 Q1021=
METAR LFMO 110630Z AUTO 30004KT 5000 BR BKN034 OVC040 08/07 Q1020=
METAR LFMY 110630Z AUTO 08004KT 9999 FEW030 OVC039 10/07 Q1020=
METAR LFBY 110630Z NIL=
METAR LFMC 110630Z NIL=

0000039200
325
SAFR23 LFPW 110630
METAR LFOC 110630Z AUTO VRB02KT 5000 BR OVC002 06/05 Q1016=
METAR LFOE 110630Z AUTO 00000KT 0200 R22/0700D FG VV/// 05/05 Q1016=
METAR LFOJ 110630Z AUTO VRB02KT 2600 BR OVC002 05/05 Q1016=
METAR LFRJ 110630Z AUTO 35006KT 5000 -RADZ BR BKN004 BKN010 BKN015
08/07 Q1018=
METAR LFRL 110630Z AUTO 36010KT 9999 // SCT002 BKN009 OVC013 08/07
Q1018=

0000025900
326
SAFR24 LFPW 110630
METAR LFSI 110630Z AUTO 10002KT 9999 NSC 04/03 Q1016=
METAR LFSO 110630Z AUTO 03002KT 7000 NSC 03/03 Q1016=
METAR LFSX 110630Z AUTO VRB02KT 9999 NSC 04/02 Q1017=
METAR LFYR 110630Z AUTO 00000KT 7000 NSC 04/03 Q1016=

0000035700
327
SARO31 LROM 110630
METAR LRBS 110630Z AUTO 24003KT NCD M00/M02 Q1022 NOSIG=
METAR LRCK 110630Z 29007KT 2500 BR SCT044 01/01 Q1021 BECMG 3000=
METAR LROP 110630Z 00000KT CAVOK M03/M04 Q1022 8819//95 NOSIG=
METAR LRSB 110630Z 09004KT 050V130 9999 SCT057 M02/M04 Q1022=
METAR LRTR 110630Z 09005KT 3000 BR BKN046 01/01 Q1023 11190095=

0000038600
328
SARO32 LROM 110630
METAR LRAR 110630Z 16003KT 5000 BR SCT045 02/02 Q1023=
METAR LRBM 110630Z 05002KT 4500 BR BKN022 01/01 Q1022 1019//95=
METAR LRCL 110630Z 00000KT 9999 BKN053 M01/M02 Q1021=
METAR LROD 110630Z 18012KT CAVOK 03/01 Q1022=
METAR LRSM 110630Z 19004KT CAVOK M02/M02 Q1021 0119//95=
METAR LRTM 110630Z VRB02KT 4500 BR NSC M01/M02 Q1022 0719//95=

0000032800
329
SARO33 LROM 110630
METAR LRBC 110630Z 31008KT 270V350 CAVOK M01/M09 Q1020 1619//95=
METAR LRCV 110630Z AUTO 21008KT 9999 NCD 02/M01 Q1022=
METAR LRIA 110630Z 28006KT CAVOK 04/M02 Q1019 1519//95=
METAR LRSV 110630Z 26006KT 180V260 CAVOK 02/M03 Q1018=
METAR LRTC 110630Z 23004KT 5000 BR NSC 01/00 Q1022=

0000056400
330
SAFR31 LFPW 110630
METAR LFLL 110630Z 18012KT 9999 FEW025 BKN200 10/06 Q1018 NOSIG=
METAR LFMN 110630Z 33009KT 9999 BKN040 10/05 Q1021 NOSIG=
METAR LFPG 110630Z 04002KT 4000 -RA BR FEW002 BKN036 BKN065 05/05
Q1016 TEMPO 2000 BR BKN002=
METAR LFPO 110630Z 17001KT 4500 BR FEW003 BKN050 06/05 Q1016 TEMPO
BKN003=
METAR LFQQ 110630Z 19007KT 3000 BR OVC002 04/04 Q1015 TEMPO 1200 DZ=
METAR LFRB 110630Z 02004KT 6000 -DZRA SCT004 OVC022 08/07 Q1018
NOSIG=
METAR LFRS 110630Z 30004KT 2000 BR SCT003 BKN013 08/07 Q1017 TEMPO
BKN003=

0000076800
331
SAFR32 LFPW 110630
METAR LFBD 110630Z AUTO VRB01KT 3900 BR OVC017 09/09 Q1018=
METAR LFBH 110630Z AUTO 31008KT 5000 BR NSC 09/08 Q1017=
METAR LFBI 110630Z AUTO 19005KT 4000 BR OVC005 07/07 Q1017=
METAR LFBL 110630Z AUTO 20012KT 7000 OVC007 08/07 Q1017=
METAR LFBO 110630Z AUTO 19006KT 5000 BR SCT012 OVC019 08/08 Q1019=
METAR LFBP 110630Z 19004KT 6000 SCT017 BKN032 09/08 Q1018 NOSIG=
METAR LFBT 110630Z AUTO 17004KT 7000 OVC025 08/07 Q1018=
METAR LFBZ 110630Z 19001KT 9999 BKN021 OVC040 11/09 Q1018 NOSIG=
METAR LFLB 110630Z 10001KT 5000 VCFG FEW001 BKN200 01/01 Q1019
TEMPO 800 BCFG=
METAR LFLX 110630Z 24007KT 9999 BKN016 08/07 Q1016 NOSIG=
METAR LFML 110630Z 10005KT 9999 BKN033 12/08 Q1020 NOSIG=
METAR LFCK 110630Z NIL=

0000051900
332
SAFR33 LFPW 110630
METAR LFKB 110630Z 21002KT 9999 OVC033 09/07 Q1021 NOSIG=
METAR LFKC 110630Z 19004KT 150V210 9999 FEW020 OVC200 07/05 Q1020
NOSIG=
METAR LFKF 110630Z AUTO 07008KT 040V100 9999 BKN024/// BKN031///
12/09 Q1021=
METAR LFKJ 110630Z 06007KT CAVOK 05/04 Q1020 NOSIG=
METAR LFMP 110630Z 27004KT 9999 SCT030 BKN150 09/07 Q1019 NOSIG=
METAR LFMV 110630Z AUTO 12006KT 9999 OVC039 11/07 Q1020=
METAR LFSL 110630Z AUTO VRB03KT 9999 OVC021 07/04 Q1018=
METAR LFLC 110630Z NIL=

0000103800
333
SAFR34 LFPW 110630
METAR LFCR 110630Z AUTO 13005KT 9999 NSC 05/03 Q1018=
METAR LFJL 110630Z AUTO 08003KT 020V130 5000 BR NSC 02/01 Q1016=
METAR LFLP 110630Z AUTO VRB02KT 7000 R04/1300U BKN016 BKN160
OVC190 02/02 Q1018=
METAR LFLS 110630Z AUTO 26006KT 170V340 9999 OVC017 08/06 Q1018=
METAR LFLY 110630Z AUTO 19010KT 9999 NSC 10/05 Q1018=
METAR LFMT 110630Z 02005KT 9999 SCT023 BKN048 10/08 Q1020 NOSIG=
METAR LFMU 110630Z AUTO 02005KT 2300 BR BKN019 BKN028 OVC037 11/09
Q1020=
METAR LFOB 110630Z AUTO 12003KT 1200 0750 R30///// R12///// BCFG
OVC003 04/04 Q1016=
METAR LFOH 110630Z AUTO 23007KT 9000 OVC004 07/06 Q1016=
METAR LFOK 110630Z AUTO VRB01KT 5000 BR NSC 02/02 Q1016=
METAR LFOP 110630Z AUTO 20004KT 0250 R22/0800N FG VV/// 05/05 Q1016=
METAR LFPB 110630Z AUTO 00000KT 7000 -RA FEW041 OVC072 06/05 Q1016=
METAR LFQA 110630Z AUTO 00000KT 8000 -RA NSC 03/03 Q1016=
METAR LFQB 110630Z AUTO VRB02KT 6000 NSC 03/03 Q1016=
METAR LFSN 110630Z AUTO 19001KT 3100 -DZ BR NSC 02/02 Q1016=

0000010300
334
SAKO31 RKSI 110630
METAR RKSI 110630Z 18003KT 9999 SCT040 BKN180 01/M12 Q1031 NOSIG=

00000000