0000012600
355
SNFR36 LFPW 111700 RRA
AAXX 11174
07645 26/// /3403 10114 20093 30143 40218 53004
  333 60005 90710 91107=
0000080000
356
SSVX02 LFVW 111707
ZZYY 41652 11014 1658/ 724049 037274 6112/
22219 00238
33311 88872 20000 32376 43602
444 2012/ 11014 1643/ 50101 9/015=
ZZYY 41644 11014 1700/ 730916 039799 6112/
22219 00217
33311 88872 20000 32168 43636
444 2012/ 11014 1645/ 50101 9/015=
ZZYY 41651 11014 1659/ 729246 048607 6111/
22219 00744
33311 88872 20000 37441 49371
444 2011/ 11014 1647/ 50101 9/015=
ZZYY 41648 11014 1658/ 725635 043609 6111/
22219 00234
33311 88872 20000 32336 43740
444 2011/ 11014 1643/ 50101 9/015=
ZZYY 41649 11014 1701/ 733889 031742 6112/
22219 00199
33311 88872 20000 31990 43634
444 2012/ 11014 1646/ 50101 9/015=
ZZYY 41645 11014 1658/ 727974 040124 6111/
22219 00226
33311 88872 20000 32256 43719
444 2011/ 11014 1644/ 50101 9/015=
0000012800
357
SSVX13 LFVW 111707
ZZYY 16551 11014 1700/ 321896 060334 6113/
11119 40185 52019
444 50101 80074 80000 9/015=
0000013900
358
SSVX13 LFPW 111701
ZZYY 41738 11014 1701/ 726608 077016 6113/ 22219 00271 444 20130
 11014 1501/ 50101 80050 80000 9/015=
0000012700
359
SNIY20 LIIB 111700 RRA
AAXX 11174
16219 42765 83005 10048 20000 38159 48541 56004 8805/ 333 55300
      88356=
0000047600
360
SSVX07 KARS 111706
ZZYY 48508 11014 1700/ 772691 159219 6112/
11119 11206 40003
444 20120 11014 1604/ 504//=
ZZYY 48536 11014 1700/ 175239 148573 6111/
11119 11309
444 20110 11014 1606/ 504//=
ZZYY 48507 11014 1700/ 773008 134842 6111/
11119 11246 49857
444 20110 11014 1658/ 504//=
ZZYY 48731 11014 1700/ 774097 154911 6111/
11119 11180 49965
444 20110 11014 1622/ 504//=
ZZYY 48733 11014 1700/ 772939 152339 6111/
11119 11233 49972=
0000010900
361
UANT01 CWAO 111707
ARP DAL2 5138N04509W 1707 F340 MS60 282/59 KT
N842MH QXT AOW 111707 F43A
0000011100
362
UANT01 CWAO 111707
ARP AWE701 5046N04100W 1707 F370 MS61 289/46 KT
N276AY DDL XXN 111707 J37A
0000011000
363
UANT01 CWAO 111707
ARP AFR968 4545N03655W 1707 F370 MS54 310/50 KT
FGITF QXT AOW 111707 F24A
0000011000
364
UANT01 CWAO 111707
ARP AFR006 5138N03459W 1707 F380 MS53 271/28 KT
FHPJA QXT AOE 111707 J19A
0000010000
365
SNNO22 ENMI 111700 RRA
AAXX 11171
01003 46/// /3005 10000 21034 30103 40117 52007=
0000164600
366
SNNO48 ENMI 111700
AAXX 11171
01002 46/// /2007 11053 21092 30057 40068 52005=
01006 46/// /1601 11104 21111 30076 40093 53005=
01009 46/// /2004 11024 2//// 30068 40075 52006=
01011 46/// /1301 11046 21054 30070 40081 50001=
01016 46/// /1904 11095 21104 30065 40082 50002=
01017 46/// /2506 10003 2//// 30106 40115 52003=
01020 46/// /2808 11005 21023 30107 40118 54001=
01024 NIL=
01035 46/// ///// 11134 2//// 333 4/167=
01043 46/// /0000 11050 2////=
01105 46/// /0908 11054 21100=
01124 26/// ///// 11106 21168 333 60005=
01133 26/// /1105 11114 21203 333 4/011 60005=
01146 26/// /0704 11107 21200 333 60005=
01148 26/// /1505 11111 21215 333 4/071 60005=
01158 26/// ///// 11093 21229 30145 40155 52010 333 60005=
01198 26/// ///// 11217 21241 39933 40210 55005 333 60005=
01214 46/// /0000 11041 21060=
01221 46/// ///// 11133 21181=
01224 NIL=
01239 26/// /3204 11212 21228 333 4/025 60005=
01242 46/// ///// 11087 21146=
01287 46/// ///// 11163 21194 333 4/031=
01315 26/// /2902 10013 21027 333 60005=
01326 46/// ///// 11007 21026=
01346 26/// /2811 11055 21067 333 60005=
01352 NIL=
01356 46/// ///// 11113 2//// 49935 50003=
01365 26/// /0502 11125 21140 333 4/076 60005=
01414 46/// /3606 10043 2////=
01417 26/// ///// 10022 20011 333 60005=
01418 46/// ///// 10016 2////=
01426 46/// /2816 10052 2////=
01444 26/// /3301 11007 21013 333 60005=
01449 26/// /0701 11002 21005 333 60005=
01453 26/// /1705 10029 21012 333 4/002 60005=
01478 46/// ///// 11007 2////=
01486 26/// ///// 11047 21066 333 60005=
01487 46/// /0504 11055 21067=
0000188500
367
SNNO49 ENMI 111700
AAXX 11171
01027 NIL=
01044 46/// /0000 11065 21098 30174 40183 55002=
01068 46/// /2303 11030 21055 30165 40183 53004=
01074 46/// /1603 11051 21071 30164 40179 51004=
01083 46/// /0407 11025 21067 30160 40177 53002=
01084 NIL=
01086 46/// /0104 11047 21090 39979 40169 53002=
01088 46/// /3503 11106 21123 30121 40172 53005=
01099 46/// /2203 11084 21093 30155 40172 52009=
01112 46/// /0909 11066 21146 30082 40092 53009=
01116 46/// /0606 11076 21194 30083 40104 53005=
01117 NIL=
01139 46/// /0911 11030 21091 30130 40135 53003=
01151 46/// /1303 11117 21215 30052 40144 52007=
01153 NIL=
01161 46/// /0707 11050 21096 30146 40158 52003=
01162 46/// /0505 11064 21133 30155 40160 54000=
01183 46/// /1403 11072 21137 30139 40173 53003=
01193 46/// /0406 11072 21128 30133 40171 52001=
01209 46/// /0000 11080 21092 39922 40016 53011=
01217 46/// /0705 11053 21080 30005 40009 52008=
01220 46/// /2303 11139 21155 333 4/113=
01223 46/// /0903 11063 21084 39931 40010 52008=
01250 46/// ///// 11198 21221=
01270 NIL=
01272 NIL=
01282 46/// /0907 11080 21145 30073 40078 53011=
01290 46/// /0706 11094 21149 30069 40071 53007=
01308 NIL=
01310 46/// /0802 11014 21051 39995 40009 52012=
01320 46/// /1403 11020 21051 39937 40012 53015=
01323 46/// /0000 11056 21068 39614 40010 52018=
01342 NIL=
01347 46/// /2610 11027 21064 39392 49995 53019=
01358 46/// ///// 11069 21079 39259 49997 53012=
01362 46/// /2612 11150 21165 49988 52009 333 4/050=
01368 46/// /0602 11117 21131 39014 40022 53009=
01371 NIL=
01381 NIL=
01382 NIL=
01387 NIL=
01408 46/// /3507 10045 20012 39992 40025 53024=
01413 NIL=
01463 26/// ///// 11040 21043 333 60005=
01464 NIL=
01466 46/// /0203 11057 21064 39876 40012 53007=
01485 NIL=
01489 26/// ///// 11073 2//// 333 60005=
0000015700
368
SSVX13 LFPW 111700
ZZYY 41637 11014 1700/ 724033 077533 6113/ 11119 40195 57013 22219
 00302 444 20130 11014 1500/ 50101 80130 80002 9/015=
0000011100
369
UANT99 KDDL 111707
ARP AAL105 5306N02326W 1708 F380 MS56 184/54 KT
N761AJ DDL XXN 111708 F38A
0000073800
370
SNNL50 EHDB 111700
AAXX 11171
06206 47/// /2810 10069 20024 30108 40161 51029 7//00
333 91013 91116 91213=
06207 45576 32915 10071 20018 30100 40154 51030 8////
333 82/24 83/28 91019 91119 91216=
06239 47574 32915 10068 20013 30062 40124 53025 70385 8////
333 82/25 83/36 91017 91117 91215=
06252 46/// /2812 10069 20027 30135 40182 51030 222// 00096 10604
333 91013 91115 91213=
06260 47570 42803 10062 20024 30190 40192 53035 70385 8////
333 83/25 84/32 91005 91107 91204
555 53000=
06270 47574 32907 10060 20019 30161 40161 53034 72280 8////
333 81/27 83/43 91011 91113 91208
555 53000=
06290 47570 12404 10037 20026 30133 40174 53039 70386 8////
333 81/26 91005 91106 91204
555 53000=
0000163800
371
SNNL51 EHDB 111700
AAXX 11171
06201 45571 43012 10067 20017 30109 40162 53027 8////
333 83/24 84/28 91014 91115 91213=
06203 45580 7//07 10079 20022 30143 40194 53031 8////
333 86/24 87/28 87/33 91010 91112 91209=
06204 45578 33011 10071 20016 30125 40176 51029 8////
333 83/23 91015 91117 91212=
06205 47573 33214 10065 20008 30060 40120 53023 70385 8////
333 81/25 83/28 91017 91117 91214=
06208 47573 12913 10071 20016 30096 40146 51036 72300 8////
333 81/28 91016 91120 91213=
06211 45581 42813 10068 20006 30113 40169 51029 8////
333 82/26 84/31 91015 91116 91214=
06212 45580 33013 10074 20015 3//// 4//// 5//// 8////
333 82/25 83/40 91015 91115 91213=
06235 45572 32908 10065 20020 30179 40179 53034 8////
333 83/30 91012 91113 91208
555 53000=
06240 45571 23006 10058 20023 30196 40191 52035 8////
333 81/24 91009 91110 91208
555 53000=
06251 41/74 /2911 10065 20015 30159 40160 51033 7//00
333 91016 91116 91211
555 53000=
06258 46/// /2809
333 91010 91111 91209=
06269 47975 02706 10059 20026 30188 40182 53036 70165
333 91008 91109 91206
555 53000=
06280 47971 02705 10053 20018 30152 40156 53035 70186
333 91008 91109 91206
555 53000=
06310 45978 22906 10072 20025 30198 40208 51027 8////
333 82/80 91007 91107 91206
555 53000=
06344 45980 13005 10057 20013 30204 40197 51032 8////
333 81/70 91008 91110 91206
555 53000=
06370 47569 42603 10051 20028 30176 40202 53036 70386 8////
333 82/29 84/37 91005 91106 91204
555 53000=
06380 47567 12703 10051 20029 30068 40211 52034 70285 8////
333 81/20 91005 91105 91203
555 53000=
0000083400
372
SNNL52 EHDB 111700
AAXX 11171
06210 45577 23006 10066 20022 30195 40195 52032 8////
333 82/27 91009 91112 91208
555 53000=
06225 46/// /2911
333 91013 91114 91211=
06242 45665 13013 10067 20013 30166 40168 51032 8////
333 81/37 91016 91117 91214=
06257 46/// ///// 10069 20024
555 53000=
06275 47570 62603 10039 20027 30131 40187 53036 70386 8////
333 83/28 86/33 86/40 91004 91104 91203
555 53000=
06330 46/// /3009 10071 20021 30185 40200 51032
333 91011 91113 91211
555 53000=
06340 47975 82703 10043 20020 30187 40206 51029 70380 8////
333 86/71 88/81 91004 91106 91204=
06350 47574 12703 10056 20026 30187 40202 53033 70186 8////
333 81/30 91004 91105 91203
555 53000=
06375 47571 22804 10059 20022 30170 40195 53036 70286 8////
333 82/30 91006 91106 91204
555 53000=
0000113700
373
SNNL53 EHDB 111700
AAXX 11171
06248 46/// /2904
333 91007 91108 91204=
06249 47/77 /2906 10057 20025 70080
333 91008 91110 91207
555 53000=
06267 47569 32909 10062 20029 70386 8////
333 82/28 83/33 91011 91113 91209
555 53000=
06273 47/69 /2806 10059 20029 70060
333 91008 91109 91206
555 53000=
06277 46/// /2912 10066 20027
333 91016 91119 91214
555 53000=
06278 46/// /2604 10048 20028
333 91006 91106 91204
555 53000=
06279 47571 12705 10047 20024 30147 40167 53038 70165 8////
333 81/27 91008 91109 91205
555 53000=
06283 46/// /2504 10033 20024
333 91005 91106 91204
555 53000=
06286 46/// /2807 10052 20025
333 91011 91111 91208
555 53000=
06319 41/74 /2503 10046 20024 30211 40213 51030 7//00
333 91004 91104 91203
555 53000=
06348 45/80 /2905 10052 20021 30194 40193 52033
333 91006 91108 91206
555 53000=
06356 465// 12804 10043 20018 30194 40195 53034 8////
333 81/29 91005 91106 91204
555 53000=
06377 47965 02703 10043 20028 70286
333 91006 91106 91204
555 53000=
06391 46/// /2503 10046 20029
333 91004 91104 91203
555 53000=
0000040600
374
SNNL54 EHDB 111700
AAXX 11171
06209 NIL=
06285 NIL=
06308 NIL=
06311 NIL=
06312 NIL=
06313 NIL=
06315 NIL=
06316 NIL=
06320 46/80 /3109 10081 20035 30171 40199 51027 222// 00081 10603
333 91011 91112 91210=
06321 46/80 /2910 10079 20029 30178 40202 51027 222// 00086 10604
333 91012 91113 91210=
06324 NIL=
06331 NIL=
06343 46/// /3106
333 91010 91111 91208=
00000000