0000026700
495
SAUS73 KWBC 110500 RRF
METAR
KALN 110515Z AUTO 15006KT 3SM -RA 06/05 A2957=
KGYY 110515Z AUTO 18008G16KT 10SM RA OVC007 07/05 A2954=
KIKK 110515Z AUTO 18014KT 3SM BR OVC002 04/04 A2956=
KSAW 110517Z AUTO 09004KT 1SM SN OVC008 M01/M02 A2944=

0000009800
496
SAUS74 KWBC 110500 RRD
METAR
KIWA 110515Z AUTO 10005KT 10SM CLR 06/M01 A3015=

0000027200
497
SAUS75 KWBC 110500 RRC
METAR
PADK 110516Z AUTO 23026G46KT 10SM FEW017 BKN037 OVC085 04/M01
     A2873=
PAGS 110516Z AUTO 09004KT 10SM OVC046 02/01 A2930=
PAUN 110516Z AUTO 09013KT 10SM CLR M14/M22 A2955=
PAVD 110516Z 10SM BKN120 M07/M08 A2929=

0000015000
498
SAPA31 KWBC 110700 RRG
METAR
PGSN 110744Z 02015G20KT 3SM -RA BR FEW020 SCT029 BKN043 25/23
     A2987 RMK AO2 RAE0659B36 P0003=

0000033500
499
FTUS75 KWBC 110748 AAA
TAF AMD
PAYA 110746Z 1108/1206 08004KT 6SM BR SCT003 OVC015
      TEMPO 1108/1111 1SM -SHSN BR OVC002
     FM111500 00000KT 3SM BR VCSH FEW010 BKN050
     FM112100 08003KT P6SM FEW010 OVC035
     FM120300 07003KT P6SM VCSH SCT025 OVC040 AMD LTD TO CLD VIS
      AND WIND 1106/1110=

0000013900
500
SAUS75 KWBC 110700 RRE
METAR
PASC 110653Z COR 24021KT 1/2SM R05/4000V5000FT -SN BLSN FZFG
     OVC012 M26/M29 A2979=

0000261800
501
UDFR01 LFPW 111709
AMDAR 1116
ASC EU0551 4844N 00220E 111653 F002 PS065 /// 009/005 TB0 S031
333 F002 VG007=
ASC EU0551 4843N 00219E 111654 F011 PS052 /// 011/007 TB0 S031
333 F011 VG010=
UNS EU0551 4843N 00217E 111654 F018 PS037 /// 021/012 TB1 S031
333 F018 VG026=
ASC EU0551 4843N 00216E 111654 F025 PS040 /// 016/015 TB1 S031
333 F025 VG018=
ASC EU0551 4842N 00215E 111655 F033 PS032 /// 349/011 TB2 S031
333 F033 VG079=
ASC EU0551 4841N 00214E 111655 F037 PS025 /// 338/013 TB0 S031
333 F037 VG002=
ASC EU0551 4841N 00213E 111655 F040 PS017 /// 346/014 TB0 S031
333 F040 VG009=
UNS EU0551 4840N 00211E 111656 F045 PS017 /// 310/008 TB0 S031
333 F045 VG009=
ASC EU0551 4839N 00210E 111656 F054 PS010 /// 307/012 TB0 S031
333 F054 VG003=
ASC EU0551 4838N 00208E 111656 F064 PS012 /// 347/014 TB1 S031
333 F064 VG028=
UNS EU0551 4836N 00208E 111657 F070 PS010 /// 009/018 TB2 S031
333 F070 VG046=
ASC EU0551 4834N 00208E 111657 F081 MS010 /// 334/014 TB1 S031
333 F081 VG012=
ASC EU0551 4833N 00208E 111657 F094 MS047 /// 334/010 TB1 S031
333 F094 VG018=
ASC EU0551 4831N 00209E 111658 F104 MS070 /// 006/009 TB2 S031
333 F104 VG034=
ASC EU0551 4829N 00210E 111658 F109 MS080 /// 325/006 TB0 S031
333 F109 VG002=
ASC EU0551 4828N 00210E 111658 F113 MS082 /// 316/012 TB0 S031
333 F113 VG004=
ASC EU0551 4826N 00211E 111659 F119 MS095 /// 319/017 TB0 S031
333 F119 VG007=
ASC EU0551 4824N 00211E 111659 F126 MS115 /// 326/018 TB1 S031
333 F126 VG020=
ASC EU0551 4822N 00212E 111659 F129 MS125 /// 321/017 TB1 S031
333 F129 VG014=
UNS EU0551 4819N 00213E 111700 F132 MS120 /// 330/019 TB3 S031
333 F132 VG059=
ASC EU0551 4817N 00213E 111700 F146 MS145 /// 319/018 TB1 S031
333 F146 VG014=
ASC EU0551 4815N 00213E 111700 F161 MS177 /// 330/022 TB1 S031
333 F161 VG023=
ASC EU0551 4813N 00212E 111701 F171 MS215 /// 332/023 TB1 S031
333 F171 VG025=
ASC EU0551 4811N 00212E 111701 F178 MS237 /// 334/023 TB1 S031
333 F178 VG008=
ASC EU0551 4809N 00212E 111701 F185 MS255 /// 334/024 TB1 S031
333 F185 VG013=
ASC EU0551 4807N 00212E 111702 F192 MS275 /// 331/026 TB0 S031
333 F192 VG007=
ASC EU0551 4804N 00212E 111702 F200 MS292 /// 322/023 TB0 S031
333 F200 VG003=
ASC EU0551 4802N 00211E 111702 F209 MS312 /// 305/026 TB1 S031
333 F209 VG024=
ASC EU0551 4800N 00211E 111703 F215 MS327 /// 292/029 TB1 S031
333 F215 VG015=
ASC EU0551 4758N 00211E 111703 F224 MS347 /// 284/029 TB1 S031
333 F224 VG019=
ASC EU0551 4756N 00211E 111703 F230 MS365 /// 284/000 TB0 S031
333 F230 VG///=
0000010200
502
SPCN46 CWAO 110747
SPECI CYGQ 110747Z 00000KT 3/4SM -FZDZ -SN BR OVC005 RMK SN2ST6=

0000013000
503
SALT34 EYVI 110750
METAR EYSA 110750Z 27010KT 7000 -SNRA SCT011 OVC013 00/M02 Q1004 
R32R/2///95 R32L/2///95=

0000012500
504
SAMP31 LMMM 110800
METAR HLLT NIL=
METAR HLLB NIL=
METAR LMML 110745Z 19006KT CAVOK 16/13 Q1023 NOSIG=

0000011000
505
SALT33 EYVI 110750
METAR EYPA 110750Z 25003KT 200V340 9999 OVC013 04/03 Q1005
R19/2///95=

0000025100
506
FTUS42 KWBC 110751 AAA
TAF AMD
KCRP 110749Z 1108/1206 23004KT 3SM BR SCT003 SCT250
      TEMPO 1108/1112 1/2SM FG BKN003
     FM111300 29005KT 5SM BR SCT005
     FM111500 35011KT P6SM FEW250
     FM120000 07010KT P6SM SKC=

0000025100
507
FTUS72 KWBC 110751 AAA
TAF AMD
KCRP 110749Z 1108/1206 23004KT 3SM BR SCT003 SCT250
      TEMPO 1108/1112 1/2SM FG BKN003
     FM111300 29005KT 5SM BR SCT005
     FM111500 35011KT P6SM FEW250
     FM120000 07010KT P6SM SKC=

0000013400
508
SAEU31 BKPR 110800
BKPR 110800Z 00000KT 0100 R17/0150 FZFG OVC002 M01/M01 Q1025 BECMG
 0300 BKN004 RMK 17010095 =

0000020400
509
FTUS52 KWBC 110751 AAA
TAF AMD
KELD 110749Z 1108/1206 28006KT P6SM SCT060 OVC120
     FM111100 25007KT P6SM SKC
     FM111800 27012G20KT P6SM SKC
     FM120100 VRB04KT P6SM SKC=

0000040600
510
FTUS80 KWBC 110751 AAA
TAF AMD
KCRP 110749Z 1108/1206 23004KT 3SM BR SCT003 SCT250
      TEMPO 1108/1112 1/2SM FG BKN003
     FM111300 29005KT 5SM BR SCT005
     FM111500 35011KT P6SM FEW250
     FM120000 07010KT P6SM SKC=
KELD 110749Z 1108/1206 28006KT P6SM SCT060 OVC120
     FM111100 25007KT P6SM SKC
     FM111800 27012G20KT P6SM SKC
     FM120100 VRB04KT P6SM SKC=

0000011700
511
SPUS41 KWBC 110751
SPECI
KDOV 110747Z AUTO 13005KT 6SM R01/5000FT -RA SCT025 BKN100 06/
A3004=

0000012900
512
SALT31 EYVI 110750
METAR EYVI 110750Z 28009KT 2600 SNRA BR BKN006 OVC014 00/M00 Q1005
     R20/2/0195 NOSIG=

0000034400
513
FTCN35 CWAO 110700
TAF CYTZ 110751Z 1108/1208 07013KT 1SM -RA BR OVC003 TEMPO 1109/1114
     1/2SM -RA FG VV002
     BECMG 1110/1112 21012KT
    FM111400 20010KT 11/2SM -RA BR OVC003
    FM112200 23015G25KT P6SM -SHRA OVC012
    FM120400 26020G30KT P6SM OVC025
    RMK FCST BASED ON AUTO OBS. NXT FCST BY 111400Z=

0000010300
514
SPCN43 CWAO 110750
SPECI CWHN 110750Z AUTO 27008KT 9SM OVC003 M09/M10 A2949 RMK ICG=

00000000