0000032200
735
SNMK10 LYPG 111700
AAXX 11171
13463 42570 40000 10094 20072 30169 40229 55001 83530=
13459 42670 41103 10077 20077 39468 40228 53003 81230 333 81896 84399
=
13461 42670 60702 10104 20086 30224 40231 56003 83832 333 81840 82656
92312 92428=
13363 42970 23601 10042 20018 39304 48518 55002 81031=
0000015100
736
SSVB12 RJTD 111700
ZZYY 21708 11014 1700/ 135453 154163
11109 0//// 1//// 2//// 30202 40202 5////
22209 00142 10908 20091 21041=

0000015100
737
SSVB12 RJTD 111600
ZZYY 21708 11014 1600/ 135446 154145
11109 0//// 1//// 2//// 30205 40205 5////
22209 00142 10908 20090 21042=

0000014800
738
FTIO31 FMMI 110500 RRA
TAF FMEE 110500Z 1106/1212 09020KT 9999 FEW026 PROB30 TEMPO 1118/1203
4500 SHRA BECMG 1118/1120 16008KT=

0000009500
739
SAEG31 HECA 110800
METAR HECA 110800Z 00000KT 3000 HZ NSC 16/09 Q1026 NOSIG=

0000010200
740
SPCN51 CWAO 110758
SPECI CWCL 110758Z AUTO 13005KT 5SM OVC004 OVC039 M02/M06 A2925=

0000077900
741
FTIL31 BICC 110800
TAF BIKF 110759Z 1109/1209 26013KT 9999 FEW025 SCT035 BKN050
         BECMG 1110/1113 18010KT
         BECMG 1118/1121 12010KT
         PROB30 TEMPO 1119/1124 3000 SHSN BKN015
         BECMG 1203/1206 09020KT=
TAF BIRK 110759Z 1109/1209 18008KT 9999 FEW018 SCT026 BKN050
         BECMG 1119/1122 10010KT=
TAF BIAR 110759Z 1109/1209 15010KT 9000 SN BKN030 OVC040
         TEMPO 1109/1113 3000 SN BKN012
         BECMG 1113/1116 21010KT 9999 NSW FEW030 SCT045=
TAF BIEG 110759Z 1109/1209 08020G30KT 5000 SNRA SCT012 OVC020
         TEMPO 1109/1111 2000 SN BKN008 OVC012
         BECMG 1111/1114 27010KT 9999 NSW SCT022 BKN035
         PROB40 TEMPO 1111/1116 5000 SHSN BKN015 OVC025
         BECMG 1203/1206 VRB02KT=

0000009700
742
SASG20 GOOY 110800
METAR GOOY 110800Z 03006KT 330V060 CAVOK 19/15 Q1014 NOSIG=

0000017300
743
SACN61 CYZE 110800
METAR CYZE 110800Z AUTO 15014G21KT 3SM FZRA BR OVC007 03/02 A2946 RMK
 ICG MAX WND 15017KT AT 0752Z PRESFR PCPN 3.2MM PAST HR SLP984=

0000009600
744
SADJ20 HDAM 110800
METAR HDAM 110800Z 07004KT 9999 FEW021 FEW030 27/21 Q1018=

0000008300
745
SABZ24 SBFI 110800
METAR SBFI 110800Z 10006KT CAVOK 24/22 Q1010=

0000012500
746
FCLJ31 LJLJ 110800
TAF LJPZ 110800Z 1109/1118 12005KT 2500 BR OVC050 TEMPO
1109/1118 5000 SCT007 OVC015=

0000017200
747
FCLJ32 LJLJ 110800
TAF LJCE 110800Z 1109/1118 25003KT 0300 FG VV001 PROB40 TEMPO
1109/1112 3500 BR SCT015 BKN045 BECMG 1111/1114 26006KT 9999
FEW030=

0000037100
748
FTLJ31 LJLJ 110800
TAF LJLJ 110800Z 1109/1209 VRB02KT 9999 FEW030 SCT040 TEMPO
1109/1118 25004KT TEMPO 1118/1209 3500 BCFG BR SCT001 PROB40
1121/1208 0500 FG VV002=
TAF LJMB 110800Z 1109/1209 VRB02KT 1500 BR OVC003 BECMG
1109/1111 3500 BECMG 1111/1113 22005KT 9999 NSW FEW020 BECMG
1118/1121 3500 BCFG BR SCT001 TEMPO 1200/1208 0300 FG VV001=

0000022900
749
FCSQ41 LZIB 110800
TAF LZPP 110800Z 1109/1118 35004KT 9999 FEW040 BKN100
    BECMG 1110/1112 15006KT=
TAF LZSL 110800Z 1109/1118 VRB02KT 9999 SCT051=
TAF LZZI 110800Z 1109/1118 25004KT 9999 SCT050 BKN100=

0000011000
750
SPCN46 CWAO 110752
SPECI CYRB 110752Z 19014KT 1 1/2SM R35/5500FT -SN BLSN OVC014 RMK
SC6=

0000008700
751
SARH32 LDZM 110800
METAR LDLO 110800Z NIL=
METAR LDSB 110800Z NIL=

0000026600
752
FCTU32 LTAA 110800
TAF LTAN 110740Z 1109/1118 VRB02KT 0250 FZFG VV002 BECMG 1109/1111
 0600=
TAF LTAY 110740Z 1109/1118 VRB02KT CAVOK=
TAF LTBF 110800Z NIL=
TAF LTBR 110740Z 1109/1118 VRB02KT 9999 FEW035 SCT200 PROB40
 1112/1115 09012KT=

0000059600
753
SAPR82 SPIM 110800
METAR SPHI 110800Z 17007KT CAVOK 22/21 Q1010 RMK PP000=
METAR SPIM 110800Z 16009KT CAVOK 21/19 Q1010 NOSIG RMK BKN 17000FT 
PP000=
METAR SPQT 110800Z 22003KT 8000 FEW004 SCT040 OVC100 24/23 Q1009
NOSIG RMK PP000=
METAR SPQU 110800Z 05002KT 4000 BCFG SCT010 10/10 Q1023 RMK PP000=
METAR SPRU 110800Z 13004KT 7000 FEW010 20/18 Q1010 RMK BR PP000=
METAR SPSO 110800Z /////KT 9999 SCT100 21/19 Q1010 RMK PP000=
METAR SPTN 110800Z VRB01KT CAVOK 20/16 Q1009 RMK PP000=
METAR SPZO 110800Z 11003KT 9999 FEW020 SCT043 BKN070 09/07 Q1029
RMK PP000=

0000018600
754
SAPR76 SPIM 110800
METAR SPCL 110800Z VRB02KT 9999 SCT020 BKN060 25/23 Q1010 RMK
PP000=
METAR SPJL 110800Z NIL=
METAR SPME 110800Z NIL=
METAR SPST 110800Z NIL=

00000000