0000023100
655
SNVD20 KWNB 111700 RRG
BBXX
44039 11171 99411 70727 46/// /1912 10107 20104 91645 333 91218
555 11144 22165=
44060 11171 99413 70721 46/// /1911 10098 20094 40098 91645 22200
00044 333 91214 555 11129 22144=
0000095300
656
FACR40 LEMM 110500
GCCC GAMET VALID 110900/111500 GCGC-
GCCC CANARIAS FIR SUBZONA ISLAS BLW FL150
SECN I:
SIG CLD: 09/12 BKN ST 008-012/018-020 HFT AMSL LAN COAST OF
AFRICA.
SECN II:
PSYS: 12 L 0993 N47 W023 MOV NE INTSF.
      12 L 0972 N49 W030 MOV NE INTSF.
      12 H 1033 N37 W052 EXTENDING CANARIAS MOV S WKN.
CLD: LOC BKN CU, SC 020-025/030-035 HFT AMSL MAR APRX WI N30 W015-
N29 W015- N29 W014-N30 W013.
WND/T:  LANZAROTE AD   TENERIFE S AD  LA PALMA  AD
      -------------- -------------- --------------
020HFT 192/004KT PS12 076/003KT PS14 081/002KT PS18
050HFT 027/010KT PS10 048/009KT PS10 059/003KT PS10
100HFT 342/010KT PS02 301/007KT PS03 276/008KT PS02
150HFT 310/019KT MS06 287/019KT MS05 291/016KT MS05
200HFT 301/021KT MS16 274/021KT MS15 275/021KT MS16
300HFT 280/036KT MS42 290/053KT MS40 287/052KT MS40
FZLVL:  115 HFT AMSL   123 HFT AMSL   118 HFT AMSL
MNM QNH:1018 HPA=

0000010700
657
FTOS33 LOWM 110500
TAF LOAV 110500Z NIL=
TAF LOAN 110500Z NIL=
TAF LOIH 110500Z NIL=

0000007900
658
FTSG20 GOOY 110530
TAF GOOY 110530Z 1106/1212 02012KT CAVOK=

0000007900
659
FTSG31 GOOY 110530
TAF GOOY 110530Z 1106/1212 02012KT CAVOK=

0000012300
660
FTSG21 GOOY 110530
TAF GOSS 110530Z 1106/1212 02010KT CAVOK=
TAF GOGS 110530Z 1106/1212 36010KT CAVOK=

0000069100
661
FTIS32 LLBD 110500
TAF LLHA 110520Z 1106/1206 14006KT 9999 BKN030
     BECMG 1110/1113 28008KT SCT040
     BECMG 1115/1118 16005KT BKN025
     TX17/1112Z TN11/1203Z=
TAF LLSD 110517Z 1106/1206 12005KT 9999 BKN030
     BECMG 1107/1109 30008KT SCT040
     BECMG 1116/1119 18008KT BKN025
     TX17/1112Z TN10/1203Z=
TAF LLIB 110524Z 1106/1206 VRB05KT 9999 BKN030
     BECMG 1107/1109 20006KT SCT030
     BECMG 1111/1113 32010KT
     BECMG 1118/1120 22004KT 6000 BKN020
     TX14/1112Z TN06/1203Z=
TAF LLHZ 110516Z 1106/1206 12005KT 9999 BKN030
     BECMG 1107/1109 30008KT SCT040
     BECMG 1116/1119 18008KT BKN025
     TX17/1112Z TN10/1203Z=

0000035900
662
SANL31 EHDB 110525
METAR EHAM 110525Z 21014KT 7000 FEW007 OVC010 05/04 Q1012 TEMPO
BKN008=
METAR EHBK 110525Z AUTO 21009KT 9999 NSC 03/02 Q1015 NOSIG=
METAR EHGG 110525Z AUTO 22013KT 180V240 3000 DZ BKN006/// OVC008///
05/05 Q1011 REDZ TEMPO 2500=
METAR EHRD 110525Z AUTO 19012KT 160V230 5000 BR BKN007 OVC009 05/03
Q1013 NOSIG=

0000010700
663
SABW31 VGHS 110520
METAR VGHS 110520Z 33006KT 2500 HZ NSC 19/12 Q1016 BECMG S/VIS 3000M=

0000027300
664
FTUS41 KWBC 110527
TAF
KILM 110526Z 1106/1206 18012KT P6SM VCSH BKN012
     FM111600 19012G20KT P6SM VCSH BKN018
      TEMPO 1119/1123 20020G30KT 2SM +SHRA BKN012CB
     FM112300 21012G19KT P6SM VCSH BKN025
     FM120300 25013G24KT P6SM SCT030=

0000007900
665
FTGB20 GOOY 110530
TAF GBYD 110530Z 1106/1212 02008KT CAVOK=

0000068100
666
FTUS42 KWBC 110527
TAF
KCHA 110525Z 1106/1206 18006KT 4SM BR OVC009 WS020/18040KT
      TEMPO 1106/1109 1SM -RA BR OVC004
     FM110900 20008KT 3SM SHRA BR SCT004 OVC008 WS020/20050KT
     FM111700 22012G20KT P6SM VCSH SCT015 OVC025
     FM112200 22014G24KT P6SM SCT025 OVC050
     FM120100 30007KT P6SM SCT050 BKN150=
KTYS 110525Z 1106/1206 20005KT 4SM BR BKN006 OVC012 WS020/18040KT
      TEMPO 1106/1110 2SM -RA BR OVC003
     FM111000 20010KT 3SM -RA SCT008 OVC012 WS020/18040KT
     FM111200 22014G26KT 3SM SHRA BR SCT004 OVC008 WS020/20050KT
     FM112000 22012G22KT P6SM VCSH SCT025 OVC040
     FM120100 26008KT P6SM SCT040 BKN100=

0000055000
667
FTUS43 KWBC 110527
TAF
KCPR 110524Z 1106/1206 24015KT P6SM SCT200
     FM111500 23016G26KT P6SM SCT200
     FM111800 22032G48KT P6SM SCT110 BKN200
     FM120100 22022G32KT P6SM SCT110 BKN200=
KICT 110523Z 1106/1206 29007KT P6SM SCT250
     FM111600 31012G20KT P6SM SKC
     FM112200 28010KT P6SM SKC
     FM120100 VRB05KT P6SM SKC=
KSGF 110526Z 1106/1206 27008KT P6SM SKC
     FM110800 28011KT P6SM BKN015
     FM111500 27011KT P6SM FEW020
     FM111800 27013G21KT P6SM SKC
     FM112300 26009KT P6SM SKC=

0000012500
668
SAHW31 KWBC 110500 RRA
METAR
PHLI 110524Z 05016G26KT 6SM -RA BR FEW018 BKN042 OVC070 22/21
     A2996=

0000038400
669
FTUS71 KWBC 110527 AAA
TAF AMD
KAND 110525Z 1105/1124 06003KT 3SM -SHRA BR OVC004
      TEMPO 1105/1107 2SM TSRA BR OVC006CB
     FM110900 15003KT 1 1/2SM SHRA BR OVC003
     FM111100 18007KT 1 1/2SM SHRA BR OVC002 WS020/21035KT
     FM111700 23014G24KT 2SM SHRA BR OVC004
     FM112000 25012G21KT 6SM SHRA OVC017
     FM112200 25011G19KT P6SM BKN250=

0000082300
670
FTUS71 KWBC 110527
TAF
KFLO 110526Z 1106/1206 00000KT 1/4SM FG BKN005
     FM111500 20012G18KT P6SM VCSH BKN009
      TEMPO 1117/1121 21018G28KT 2SM +SHRA BKN012CB
     FM112200 24014G23KT P6SM VCSH BKN020
     FM120100 26014G24KT P6SM SCT020=
KILM 110526Z 1106/1206 18012KT P6SM VCSH BKN012
     FM111600 19012G20KT P6SM VCSH BKN018
      TEMPO 1119/1123 20020G30KT 2SM +SHRA BKN012CB
     FM112300 21012G19KT P6SM VCSH BKN025
     FM120300 25013G24KT P6SM SCT030=
KMYR 110526Z 1106/1206 16006KT P6SM FEW012 SCT080
     FM110800 18009KT 2SM BR BKN006
     FM111600 19012G20KT P6SM VCSH BKN018
      TEMPO 1120/1124 20020G30KT 2SM +SHRA BKN012CB
     FM120000 21012G19KT P6SM VCSH BKN025
     FM120300 25013G23KT P6SM SCT030 AMD LTD TO CLD VIS AND WIND
      TIL 111100=

0000101500
671
FTUS72 KWBC 110527
TAF
KCHA 110525Z 1106/1206 18006KT 4SM BR OVC009 WS020/18040KT
      TEMPO 1106/1109 1SM -RA BR OVC004
     FM110900 20008KT 3SM SHRA BR SCT004 OVC008 WS020/20050KT
     FM111700 22012G20KT P6SM VCSH SCT015 OVC025
     FM112200 22014G24KT P6SM SCT025 OVC050
     FM120100 30007KT P6SM SCT050 BKN150=
KTRI 110525Z 1106/1206 VRB03KT P6SM SCT022 OVC050 WS020/18040KT
      TEMPO 1106/1109 4SM -RA BR OVC022
     FM110900 23007KT 4SM BR VCSH SCT012 OVC025 WS020/18040KT
     FM111300 23012G20KT 3SM SHRA BR SCT004 OVC008 WS020/22050KT
     FM112200 26012G20KT P6SM VCSH SCT015 OVC025
     FM120200 26010KT P6SM SCT025 OVC050=
KTYS 110525Z 1106/1206 20005KT 4SM BR BKN006 OVC012 WS020/18040KT
      TEMPO 1106/1110 2SM -RA BR OVC003
     FM111000 20010KT 3SM -RA SCT008 OVC012 WS020/18040KT
     FM111200 22014G26KT 3SM SHRA BR SCT004 OVC008 WS020/20050KT
     FM112000 22012G22KT P6SM VCSH SCT025 OVC040
     FM120100 26008KT P6SM SCT040 BKN100=

0000020600
672
FTUS73 KWBC 110527 RRA
TAF
KWRL 110524Z 1106/1206 16007KT P6SM FEW110
     FM111200 VRB06KT P6SM BKN110
     FM112100 20012KT P6SM SCT110 BKN200
     FM120200 17008KT P6SM BKN140=

0000061500
673
FTUS74 KWBC 110527
TAF
KBYI 110525Z 1106/1206 24010KT P6SM VCSH SCT025 OVC040
     FM111000 22011KT P6SM BKN040
     FM111900 20018G28KT P6SM BKN040
     FM112300 25020G30KT P6SM -RA SCT020 OVC035=
KIDA 110525Z 1106/1206 20013KT P6SM SCT050 OVC200
     FM110800 21012KT 6SM -SN OVC008
     FM111500 21010KT P6SM SCT015 BKN050
     FM112000 21018G28KT P6SM VCSH SCT020 OVC040
     FM112300 22020G30KT 3SM -SN BKN015 OVC030=
KPIH 110525Z 1106/1206 22014G20KT P6SM FEW010 BKN035
     FM112200 19020G30KT P6SM -RA BKN050 OVC100
     FM120200 20028G38KT P6SM -RA BKN025 OVC050=

0000149500
674
FTUS73 KWBC 110527
TAF
KCPR 110524Z 1106/1206 24015KT P6SM SCT200
     FM111500 23016G26KT P6SM SCT200
     FM111800 22032G48KT P6SM SCT110 BKN200
     FM120100 22022G32KT P6SM SCT110 BKN200=
KHUT 110523Z 1106/1206 32005KT P6SM SKC
     FM111600 31012G20KT P6SM SKC
     FM112200 28008KT P6SM SKC
     FM120100 VRB05KT P6SM SKC=
KICT 110523Z 1106/1206 29007KT P6SM SCT250
     FM111600 31012G20KT P6SM SKC
     FM112200 28010KT P6SM SKC
     FM120100 VRB05KT P6SM SKC=
KJAC 110524Z 1106/1206 19011G18KT P6SM VCSH SCT025 BKN035
     FM111200 19015KT 3SM -SN SCT010 BKN022
     FM112000 19015G25KT 1 1/2SM -SN BLSN SCT007 OVC014
     FM120000 19015G25KT 1SM -SN BLSN OVC007 AMD LTD TO CLD VIS
      AND
      WIND=
KJLN 110526Z 1106/1206 26005KT P6SM SKC
     FM110700 26009KT P6SM BKN015
     FM111300 26010KT P6SM FEW020
     FM111600 27014G21KT P6SM SKC
     FM112300 26009KT P6SM SKC=
KRKS 110524Z 1106/1206 25020G30KT P6SM SCT026 BKN035
      TEMPO 1107/1111 BKN026
     FM111200 24015KT P6SM SCT030 BKN040
     FM112000 24014G22KT P6SM SCT050
     FM120100 24014KT P6SM SCT040 BKN060=
KSGF 110526Z 1106/1206 27008KT P6SM SKC
     FM110800 28011KT P6SM BKN015
     FM111500 27011KT P6SM FEW020
     FM111800 27013G21KT P6SM SKC
     FM112300 26009KT P6SM SKC=
KSLN 110523Z 1106/1206 28007KT P6SM FEW100
     FM111500 29015G22KT P6SM SKC
     FM112200 27012KT P6SM SKC
     FM120100 VRB05KT P6SM SKC=

00000000