0000012200
615
SAEU31 BKPR 110700
BKPR 110700Z 00000KT 0100 R17/0150 FZFG OVC002 M01/M02 Q1024 NOSIG
 RMK 17010095 =

0000016800
616
SAAF13 LFPW 110500 RRA
METAR GBYD 110500Z 02006KT CAVOK 17/12 Q1012=
METAR GVAC 110500Z 05005KT 9999 FEW013 SCT015 BKN200 19/14 Q1015
     NOSIG=

0000057900
617
FTMG20 FMMI 110500
TAF FMMI 110500Z 1106/1212 06006KT 9999 SCT017 SCT020 BECMG 1108/1110
12010KT SCT020CB SCT023 PROB40 TEMPO 1110/1118 4000 TSRA BECMG
1120/1122 FEW017 BKN020 BECMG 1202/1205 VRB03KT BECMG 1208/1210
10010KT SCT020CB PROB40 TEMPO 1211/1212 4000 TSRA=
TAF FIMP 110510Z 1106/1212 09010KT 9999 SCT017 PROB30 TEMPO
    1118/1206 7000 -SHRA FEW010 BKN016 BKN050=
TAF FMCH 110500Z 1106/1212 34010KT 9999 FEW020 SCT030 PROB30 TEMPO
    1110/1114 SHRA FEW018CB BKN030 BECMG 1116/1118 06006KT BECMG
    1206/1208 30012KT=
TAF FMEE NIL=

0000023300
618
FTMP31 LMMM 110500 RRA
TAF HLLT 110500Z 1106/1206 VRB02KT CAVOK BECMG 1110/1112 20010KT
BECMG 1116/1118 VRB02KT=
TAF HLLB 110500Z 1106/1206 VRB02KT 9999 SCT020 BECMG 1110/1112
25010KT BECMG 1116/1118 VRB02KT=

0000057900
619
FTIO31 FMMI 110500
TAF FMMI 110500Z 1106/1212 06006KT 9999 SCT017 SCT020 BECMG 1108/1110
12010KT SCT020CB SCT023 PROB40 TEMPO 1110/1118 4000 TSRA BECMG
1120/1122 FEW017 BKN020 BECMG 1202/1205 VRB03KT BECMG 1208/1210
10010KT SCT020CB PROB40 TEMPO 1211/1212 4000 TSRA=
TAF FIMP 110510Z 1106/1212 09010KT 9999 SCT017 PROB30 TEMPO
    1118/1206 7000 -SHRA FEW010 BKN016 BKN050=
TAF FMCH 110500Z 1106/1212 34010KT 9999 FEW020 SCT030 PROB30 TEMPO
    1110/1114 SHRA FEW018CB BKN030 BECMG 1116/1118 06006KT BECMG
    1206/1208 30012KT=
TAF FMEE NIL=

0000009800
620
SARW20 HRYR 110530
METAR
HRYR 110530Z 00000KT 5000 SCT025  17/17 Q1021 NOSIG=

0000239000
621
SPUS70 KWBC 110522
SPECI
KBKV 110518Z AUTO 00000KT 2 1/2SM BR CLR 17/17 A3010 RMK AO2 VIS 1
     1/4V5 T01720167=
KBRO 110519Z 19005KT 1/2SM FG VV001 18/18 A2991 RMK AO2=
KCKV 110518Z AUTO 29012G22KT 1 1/4SM +TSRA BR FEW004 BKN018 OVC023
     11/11 A2975 RMK AO2 WSHFT 0458 LTG DSNT SW-N TSB04RAB0453
     P0021=
KDAN 110518Z AUTO 00000KT 1 3/4SM BR OVC004 04/03 A3010 RMK
     AO2=
KGSP 110518Z AUTO 02005KT 2 1/2SM BR OVC002 08/07 A3003 RMK AO2
     RAE0456 P0000=
KGVL 110518Z AUTO 09009KT 1 3/4SM -RA BR OVC003 08/07 A3002 RMK
     AO2 RAE0455B11 P0001=
KIMT 110518Z AUTO 00000KT 1SM -SN BR BKN004 OVC008 M02/M03 A2942
     RMK AO2 P0001=
KISW 110518Z AUTO 00000KT 3/4SM BR VV004 M01/M01 A2944 RMK AO2
     T10061011=
KLOU 110518Z AUTO 00000KT 3SM RA BR SCT020 BKN033 OVC041 11/10
     A2974 RMK AO2 RAB0458 P0015 TSNO=
KMLI 110518Z AUTO 25006KT 6SM BR OVC004 03/02 A2949 RMK AO2
     TSNO=
KMVY 110518Z AUTO 17003KT 1/2SM R24/3000V3500FT FG OVC002 07/06
     A3027 RMK AO2 $=
KVLD 110518Z AUTO 17005KT 1/2SM FG VV002 21/18 A3006 RMK AO2=
KAKH 110519Z AUTO 04005KT 1 3/4SM -RA BR OVC002 06/06 A3006 RMK
     AO2 P0001=
KCHO 110519Z 00000KT 1 3/4SM -RA BR BKN009 OVC015 02/01 A3010 RMK
     AO2 P0001 T00170011=
KCQX 110519Z AUTO 20005KT 5SM BR BKN002 BKN029 OVC075 06/04 A3029
     RMK AO2 T00560044=
KFCM 110519Z 24004KT 1/4SM FZFG VV002 M01/M01 A2948 RMK AO2=
KFOK 110519Z 00000KT 1/2SM -RA FG FEW016 BKN023 OVC040 06/04 A3024
     RMK AO2 RAB0457 P0000=
KGLH 110519Z AUTO 23013KT 8SM -RA SCT008 BKN012 OVC021 17/16 A2972
     RMK AO2 LTG DSNT E-S P0003=
KGPT 110519Z AUTO 17008KT 1/2SM TS FG VV002 17/16 A2992 RMK AO2
     TSB19 T01670161 RVRNO=
KGRD 110519Z AUTO 00000KT 2SM BR OVC002 08/07 A3006 RMK AO2
     RAB02E13 P0000=
KHGR 110519Z AUTO 32005KT 1/4SM FG VV002 01/00 A3009 RMK AO2
     RAB0459E11 P0000 T00060000=
KLCH 110519Z AUTO 22008G20KT 1SM -RA BR VV004 17/17 A2985 RMK AO2
     LTG DSNT NE P0036 T01720172=
KMMK 110519Z AUTO 00000KT 1SM -RA BR OVC004 01/00 A3024 RMK AO2
     P0000 T00110000 TSNO=
KVPZ 110519Z AUTO 19009KT 3/4SM BR VV002 03/03 A2957 RMK AO2
     T00330033 TSNO=
KJST 110519Z AUTO 17010KT 1SM BR VV002 03/02 A2995 RMK AO2
     T00280022=
PAMB 110519Z AUTO 05010KT 7SM OVC008 M06/M06 A2935 RMK AO2 TSNO
     CIG 006V011 UPE13 P0000 $=

0000010000
622
SPUS31 KWBC 110522
SPECI
KJAX 110518Z 13003KT 4SM BR SCT003 BKN060 16/16 A3007=

0000011700
623
SPUS31 KWBC 110522
SPECI
KLOU 110518Z AUTO 00000KT 3SM RA BR SCT020 BKN033 OVC041 11/10
A2974=

0000010200
624
SPUS41 KWBC 110522
SPECI
KGSP 110518Z AUTO 02005KT 2 1/2SM BR OVC002 08/07 A3003=

0000009400
625
SPUS42 KWBC 110522
SPECI
KBRO 110519Z 19005KT 1/2SM FG VV001 18/18 A2991=

0000011800
626
SPUS42 KWBC 110522
SPECI
KMGM 110518Z AUTO 15007KT 3SM -RA BR BKN003 BKN020 OVC085 14/13
A2994=

0000009800
627
SPUS43 KWBC 110522
SPECI
KMLI 110518Z AUTO 25006KT 6SM BR OVC004 03/02 A2949=

0000014700
628
SACA33 KWBC 110500 RRC
METAR
TNCB 110500Z AUTO 07012KT //// ////// Q1014=
TNCE 110500Z AUTO 06011KT //// ////// ///// Q1018=

0000008800
629
SACA41 KWBC 110500 RRA
METAR
MUCL 110505Z AUTO 08004KT 25/22 Q1017=

0000086500
630
SASN31 ESWI 110520
METAR ESGG 110520Z 23014KT 9000 -DZ OVC003 04/04 Q1000 R21/29//95=
METAR ESGJ 110520Z AUTO 24010KT 9999 FEW010/// BKN013/// OVC019///
04/03 Q0999=
METAR ESGP 110520Z 22013KT 9999 OVC007 06/05 Q1000 R19/29//95=
METAR ESGT 110520Z NIL=
METAR ESMK 110520Z AUTO 25010KT 9999NDV FEW012/// SCT018///
OVC030/// 06/04 Q1005=
METAR ESMQ 110520Z AUTO 21007KT 9999 FEW023/// BKN029/// 04/03
Q1003=
METAR ESMS 110520Z 25013KT 9999 OVC008 05/04 Q1006 R17/29//95=
METAR ESMT 110520Z AUTO 23018KT 7000 DZ FEW007/// SCT026///
BKN031/// 06/04 Q1004 REDZ=
METAR ESMX 110520Z AUTO 23009KT 9999 FEW007/// SCT009/// BKN010///
04/03 Q1002 RERA=
METAR ESTA 110520Z AUTO 25017KT 9999 -DZ SCT009/// BKN010///
OVC025/// 06/04 Q1005 REDZ=
METAR ESTL 110520Z AUTO 24012KT 9999NDV -DZ BKN010/// OVC033///
06/06 Q1005 REUP=

0000074900
631
SADL31 EDZO 110520
METAR EDDF 110520Z 05001KT 0500 R25L/0450N R25C/0650U
     R25R/1000VP2000U FZFG BKN001 M00/M00 Q1017 TEMPO 0300=
METAR EDDH 110520Z 23012KT 6000 -RADZ BKN010 06/04 Q1011 TEMPO 4000
BKN007=
METAR EDDK 110520Z 09005KT CAVOK 01/01 Q1016 NOSIG=
METAR EDDL 110520Z 14010KT CAVOK 02/00 Q1015 NOSIG=
METAR EDDM 110520Z 11001KT 3000 1000NE R26R/0800VP2000U
     R26L/1400VP2000D BCFG NSC M04/M04 Q1018 TEMPO 1200 BCFG=
METAR EDDN 110520Z 11003KT 9999 MIFG NSC M01/M01 Q1017 NOSIG=
METAR EDDS 110520Z 07002KT 9000 BCFG MIFG FEW030 SCT120 M01/M01 Q1016
     NOSIG=
METAR EDDT 110520Z 23006KT 9999 BKN019 05/02 Q1014 NOSIG=
METAR EDDV 110520Z 24007KT 9999 SCT014 BKN110 04/02 Q1013 TEMPO
BKN013=

0000045800
632
SADL32 EDZO 110520
METAR EDDB 110520Z 23009KT 9999 SCT030 BKN044 04/02 Q1014 NOSIG=
METAR EDDC 110520Z 22007KT CAVOK 02/M00 Q1016 NOSIG=
METAR EDDE 110520Z 21008KT CAVOK 01/M01 Q1015 NOSIG=
METAR EDDG 110520Z 19005KT 9999 SCT012 04/02 Q1014 TEMPO BKN010=
METAR EDDP 110520Z 18007KT CAVOK 03/01 Q1016 NOSIG=
METAR EDDR 110520Z 06001KT CAVOK 01/00 Q1016 NOSIG=
METAR EDDW 110520Z 22010KT 8000 -RA BKN010 05/04 Q1012 TEMPO BKN008=

0000055200
633
SAAM31 FCBB 110500
METAR FCBB 110500Z 00000KT 8000 FEW010 BKN018 23/22 Q1013 NOSIG=
METAR FCPP 110500Z 09003KT 7000 FEW010 BKN026 25/24 Q1010 NOSIG=
METAR FKKD 110500Z 00000KT 5000 BR SCT013 FEW016CB BKN120 25/24 Q1011
      BECMG 2000 BR=
METAR FKYS 110500Z 00000KT 2000 BR SCT003 20/19 Q1016 BECMG 0800 FG=
METAR FKKR NIL=
METAR FKKL NIL=
METAR FKKN 110500Z 00000KT CAVOK 12/03 Q1018=
METAR FEFF 110500Z VRB02KT  4000  BR FEW004 BKN300 18/17 Q1012 TEMPO
      2000=
METAR FEFT 110500Z 00000KT CAVOK 17/15 Q1011=

0000063200
634
SAFI31 EFHK 110520
METAR EFHK 110520Z 34010KT 9999 OVC009 M04/M05 Q0997 NOSIG=
METAR EFJY 110520Z AUTO 02009KT 6000 -SN BKN014 
M08/M10 Q0999=
METAR EFKU 110520Z AUTO 36009KT 8000 -SN OVC021 
M10/M11 Q1000=
METAR EFOU 110520Z AUTO 05008KT 010V090 9999 IC OVC057/// M14/M17 
Q1007 12410587=
METAR EFRO 110520Z AUTO 03014KT CAVOK M18/M21 
Q1010=
METAR EFTP 110520Z AUTO 04005KT 9999 OVC007 M05/M05
 Q0998=
METAR EFTU 110520Z AUTO 07003KT 020V100 4200 -SN OVC006/// M03/M03 
Q0998 R08/590147=
METAR EFVA 110520Z AUTO 04009KT 010V070 9999 -SN FEW034/// OVC066/// 
M08/M11 Q1002 R16/420195=

00000000