0000010700
975
SABW31 VGHS 110620
METAR VGHS 110620Z 00000KT 3200 HZ NSC 20/12 Q1015 BECMG S/VIS 3500M=

0000023100
976
SAAF13 LFPW 110600 RRB
METAR GOGG 110600Z 02006KT CAVOK 18/09 Q1013=
METAR GOGS 110600Z 36006KT CAVOK 18/14 Q1012=
METAR GOSS 110600Z 04004KT CAVOK 14/14 Q1014=
METAR GOTT 110600Z 04006KT CAVOK 22/10 Q1012=

0000023500
977
SAAF18 LFPW 110600 RRB
METAR FMMT 110600Z 36004KT 9999 VCSH SCT017TCU 30/26 Q1014 NOSIG=
METAR FMNM 110600Z 26004KT 9999 FEW020 SCT230 30/22 Q1013 NOSIG=
METAR FMNN 110600Z 22008KT 9999 SCT020 SCT100 29/23 Q1011=

0000017100
978
SAMP31 LMMM 110630
METAR HLLT NIL=
METAR HLLB 110615Z
00000KT 9999 SCT020 BKN080 12/10 Q1026 =
METAR LMML 110615Z 20006KT CAVOK 15/13 Q1022 NOSIG=

0000033900
979
SNAU44 AMMC 111700
AAXX 11174
94658 46/// /1307 10167 20132 30163 40197=
94666 46/// /1613=
94678 46/// /1220 10128 20126 39574 40170=
94681 46/// /1107 10152 20125 39865 40182=
94682 46/// /2008 10179 20117 30144 40179=
94684 46/// /1807 10188 20085 39825 40166=
94690 46/// /1710 10149 20117 30058 40187=

0000048300
980
SNAU45 AMMC 111700
AAXX 11174
94807 46/// /1513 10150 20130=
94808 46/// /1407 10161 20123=
94809 46/// /1515 10170 20138 30189 40197=
94811 46/// /1417 10135 20127 39794 40190=
94813 46/// /1705 10125 20102 30189 40210=
94822 46/// /1518 10161 20143 30140 40206=
95675 46/// /0000=
95678 46/// /1010 10120 20120=
95806 46/// /1317 10164 20135 30148 40200=
95815 46/// /1904 10126 20110 30166 40198=
95816 46/// /1608 10146 20125 30205 40209=

0000035700
981
SNAU47 AMMC 111700
AAXX 11174
94116 46/// /1302 10264 20237 30052 40057=
94119 46/// /1206 10236 20226 30031 40053=
94125 46/// /1403 10245 20226 39940 40057=
94139 46/// /1509 10252 20240 30024 40046=
94234 46/// /0000 10243 20218 39817 40051=
94284 45/// /1319 30066 40076 56021=
94328 46/// /1212 10304 20104 39465 40083=

0000009300
982
SNAU48 AMMC 111700
AAXX 11174
95121 46/// /2403 10246 20232 30040 40057=

0000129900
983
SNAU49 AMMC 111700
AAXX 11174
94171 179// 71404 10248 20238 30008 40053 58016 60063 7//44=
94174 17/// /1003 10274 20250 30043 40049 57020 69923 7//44=
94182 15/// /0000 10266 30042 40046 58018 60001=
94183 17/// /1605 10245 20233 39881 40061 57016 60193 7//44=
94188 17/// /1012 10244 20235 30054 40076 58014 60743 7//44=
94260 17/// /2601 10242 20242 30068 40075 57008 60203 7//44=
94261 17/// /0306 10254 20236 39924 40066 55008 60203 7//44=
94266 17/// /1003 10246 20246 30052 40073 56024 60373 7//44=
94274 47/// /1005 10245 20206 39734 40069 56035 6///3 7//44=
94276 17/// /1401 10244 20244 39836 40064 56026 60053 7//44=
94285 17/// /1515 10266 20248 30070 40074 56023 60053 7//44=
94295 17/// /1312 10276 20214 30075 40086 56021 60023 7//44=
94335 15/// /0214 10281 20199 39868 40075 53003 60003=
94336 15/// /0705 10271 39753 40072 56014 60023=
94337 15/// /0307 10277 20192 39943 40081 56008 60001=
94338 15/// /0416 10296 20164 39783 40078 56010 60003=
94342 15/// /0607 10273 20183 39874 40089 58011 60001=
94343 15/// /0808 10252 20179 39732 40082 58021 60003=
94372 15/// /1414 10239 20196 39880 40116 56015 60001=
94396 15/// /0000 10212 20170 39885 40132 56004 60001=
94399 15/// /0704 10224 20178 39822 40122 56008 60001=

0000103500
984
SNAU50 AMMC 111700
AAXX 11174
94368 15/// /1319 10259 20207 30038 40105 56016 60003=
94370 15/// /1603 10219 20189 30086 40122 56012 69983=
94373 15/// /1208 10247 20199 30119 40126 56013 69923=
94376 15/// /0000 10170 20148 39916 40135 57009 60003=
94378 45/// /1213 10252 30101 40124 56012=
94380 15/// /1807 10220 20184 30043 40128 56013 60003=
94381 155// 11905 10221 20184 30112 40131 56013 60003=
94386 45/// /1210 6///0=
94387 15/// /1806 10198 20179 30100 40136 56015 60003=
94517 15/// /0306 10243 20158 39903 40127 56009 60153=
94542 15/// /1205 10175 20138 39746 40133 56013 60001=
94549 15/// /0000 10159 20143 39651 40139 56014 60003=
94553 15/// /0000 10128 20128 39172 40133 57014 60001=
94555 15/// /0000 10159 20144 39601 40135 56012 60003=
94557 15/// ///// 10144 20130 60003=
94558 15/// ///06 10193 20180 60003=
94562 15/// /0000 10179 20164 69923=
94566 15/// /0000 10186 20176 30069 40143 56015 60001=
94567 15/// /2007 10196 20179 30126 40138 56014 60003=

0000150300
985
SNAU51 AMMC 111700
AAXX 11174
94568 15/// /0000 10176 20166 30119 40147 56014 60003=
94569 15/// /2403 10184 20169 30140 40145 56015 60003=
94570 15/// /2103 10212 20189 30135 40143 56014 60003=
94575 15/// /2004 10190 20173 30132 40147 56014 60003=
94576 15/// /2502 10210 20188 30137 40147 56015 60001=
94580 15/// /2305 10207 20173 30142 40147 56014 60003=
94581 45/// /0803=
94592 15/// /2101 10185 20172 30145 40150 56015 60003=
94594 46/// /0806 10221 20179 30028 40143 56015 6///0=
95283 175// 21109 10269 20232 30064 40070 56021 60583 7//44=
95286 15/// /1506 10235 20194 39549 40071 56023 60003=
95292 17/// /1709 10240 20225 30067 40088 56023 60553 7//44=
95293 15/// /1104 10209 20202 39480 40094 56019 60001=
95295 15/// /1605 10238 20201 60003=
95296 17/// /0812 10265 20206 30086 40095 56021 69923 7//44=
95351 15/// /1005 10220 20197 39801 40115 56008 60143=
95367 155// 32007 10223 20202 30109 40115 56014 60003=
95492 15/// /0504 10266 20159 39974 40121 56007 60003=
95529 15/// /0204 10227 20151 39795 40139 56013 60003=
95543 15/// /2002 10190 20157 30012 40139 56013 60001=
95551 152// 80607 10174 20161 39430 40145 56013 60003=
95565 15/// /2103 10202 20187 30122 40137 56015 60003=
95566 15/// /0000 10177 20162 60003=
95572 15/// /0000 10184 20176 30083 40145 56016 60001=
95573 15/// /0405 60083=
95575 15/// /0000 10172 20155 30095 40151 56012 60001=
95591 15/// /2506 10206 20176 30130 40145 56015 60003=

0000012600
986
SNAU54 AMMC 111700
AAXX 11174
94752 46/// /1803 10190 20170 30061 40156=
94754 46/// /1104 10186 20024=

0000029100
987
SNAU55 AMMC 111700
AAXX 11174
94759 46/// /1003 10190 20183=
94760 46/// /1704 10199 20175=
94763 46/// /2004 10204 20182=
94774 46/// /1702 10199 20187=
94780 46/// /0602=
94838 46/// /1711 10158 20114 30089 40179=
94886 46/// /2509 10157 20125 30194 40198=

0000029400
988
SNAU56 AMMC 111700
AAXX 11174
94915 46/// /2702 10126 20079=
94927 46/// /0000 10112 20044 39411 40161=
94929 46/// /3506 10114 20112 39308 40165=
94938 46/// /2205 10205 20132 30123 40166=
94939 46/// /0704 10196 20172 30102 40165=
95705 46/// /2306 10215 20091=

0000030300
989
SNAU57 AMMC 111700
AAXX 11174
95749 46/// /2108 10216 20188=
95756 46/// /1805=
95767 46/// /0000 10157 20149 30147 40155=
95770 46/// /0000 10200 20181 30129 40152=
95774 46/// /1703 10183 20170=
95822 46/// /1803 10133 20124 30152 40213=
95832 46/// /1707 10128 20110=

0000052800
990
SNAU58 AMMC 111700
AAXX 11174
94830 46/// /1906 10155 20121 30199 40211=
94833 46/// /1827 10124 20017=
94840 46/// /2002 10132 20130 30053 40207=
94846 46/// /2506 10132 20114=
94857 46/// /2404 10137 20121 30190 40206=
94859 46/// /2504 10135 20105=
94862 46/// /2405 10160 20105 39990 40138=
94863 46/// /2302 10136 20113 39926 40203=
94866 46/// /1909 10155 20120 30062 40201=
94871 46/// /1902 10157 20115=
94872 46/// /1703 10116 20105 39601 40192=
94878 46/// /2602 10201 20108=

0000050400
991
SNAU59 AMMC 111700
AAXX 11174
94881 46/// /1502 10142 20090=
94892 46/// /2503 10157 20121 30184 40201=
94898 46/// /2306 10159 20115 30185 40201=
94911 46/// /2512 10154 20122 30174 40190=
94914 46/// /0000 10136 20074 39437 40160=
94930 46/// /2607 10120 20106=
95831 46/// /1706 10173 20097=
95835 46/// /1703 10114 20100=
95840 46/// /1902 10113 20102 39939 40203=
95845 46/// /2111 10120 20120 39891 40196=
95864 46/// /1813=
95867 46/// /1604 10154 20108=

0000018100
992
SNAU60 AMMC 111700
AAXX 11174
95872 46/// /1811=
95880 NIL=
95913 46/// /2404 10113 20110=
95918 46/// /2905 10132 20111 30112 40186=
95995 46/// /0704=

0000024900
993
SNAU61 AMMC 111700
AAXX 11174
94955 46/// /2708 10126 20069 3//// 4////=
94959 46/// /2607 10095 20057=
94969 46/// /0702 10122 20094=
94987 46/// /2506 10159 20052 30061 40127=
95952 46/// /2122 10056 20055 38893 40155=

0000021600
994
SNAU62 AMMC 111700
AAXX 11174
95979 46/// /2440 10057 20005=
95985 46/// /2721 10156 20136 30110 40128=
95986 46/// /2607 10129 20092 39843 40126=
95988 46/// /2517 10160 20077 30092 40125=

00000000