0000011100
955
SAQB31 LQBK 110930
METAR LQBK 110930Z 31002KT 4000 2000N BR FEW002 08/06 Q1021 BECMG
5000=

0000009100
956
SAMJ41 LWOH 110930
METAR LWOH 110930Z 00000KT 0450 FG VV001 04/03 Q1024=

0000011700
957
SACN62 CYQI 110900
METAR CYQI 110900Z 22009KT 1 1/2SM -DZ BR OVC006 04/04 A3029 RMK SF8
 SLP257=

0000009100
958
SPCN31 CWAO 110927
SPECI CYTR 110927Z 13007KT 6SM -DZ BR OVC007 RMK SF8=

0000029800
959
SANL32 EHDB 110925
METAR EHEH 110925Z AUTO 23011KT 7000 BR BKN006 BKN007 04/03 Q1015 
YLO 22011KT 7000 SCT006 BKN007=
METAR EHKD 110925Z AUTO 22020KT 3100 R21/P3000 -SHRA BKN004 BKN005
FEW015TCU 07/07 Q1010 REDZ 
YLO 23018G28KT 5000 -RADZ FEW003 BKN005 OVC007 TEMPO 2500=

0000037300
960
SANT31 KWBC 110900 RRB
METAR
BGBW 110925Z NIL=
BGCO 110925Z NIL=
BGGH 110920Z AUTO 08008KT 9999NDV FEW200/// M09/M16 Q0994=
BGJN 110920Z AUTO VRB01KT 9999NDV BKN160/// M11/M19 Q0994=
BGKK 110920Z AUTO 10006KT 050V110 9999NDV SCT066/// M04/M10
     Q0997=
BGSF 110920Z AUTO 07006KT 9999NDV FEW100/// BKN140/// BKN170///
     M17/M22 Q0996=

0000016300
961
SAPA31 KWBC 110900 RRD
METAR
PGSN 110924Z 04014G25KT 5SM -RA BR FEW010 BKN033 OVC040 24/24
     A2989 RMK AO2 PK WND 03031/0912 RAB11 P0005=

0000149900
962
FTUS51 KWBC 110927 AAA
TAF AMD
KAOO 110923Z 1109/1206 03003KT 1/4SM FG VCSH VV002 WS019/21040KT
     FM111300 17013G27KT 3SM RA BR BKN009 OVC016 WS012/19045KT
     FM112300 26012G21KT 3SM -SHRA BR OVC015
     FM120200 28019KT P6SM OVC030=
KBFD 110923Z 1109/1206 17009G17KT 5SM BR OVC002 WS019/21048KT
      TEMPO 1109/1111 2SM -RA BR OVC002
     FM111100 17014G27KT 2SM RA BR OVC009 WS012/19049KT
     FM120000 27010G18KT 4SM BR OVC003=
KDAY 110925Z 1109/1206 18012G20KT 5SM -SHRA BR SCT005 OVC017
      TEMPO 1109/1111 2SM -SHRA BR BKN005 OVC012CB
     FM111300 20013KT P6SM OVC008
      TEMPO 1113/1116 20004KT 4SM BR OVC004
     FM111600 24016G26KT P6SM OVC015
     FM112300 25013KT P6SM OVC009
      TEMPO 1202/1206 5SM BR OVC004=
KDCA 110924Z 1109/1206 VRB03KT 3/4SM -RA BR OVC007 WS020/18035KT
      TEMPO 1110/1114 1/2SM FG VV002
     FM111400 20006KT 1 1/2SM BR OVC005 WS020/20045KT
     FM111700 18011KT 6SM -SHRA OVC007 WS020/20045KT
     FM111900 19013G23KT 3SM SHRA SCT007 OVC012 WS020/20050KT
     FM112200 24012G21KT 6SM -SHRA OVC030
     FM120000 27008KT P6SM BKN080=
KGMU 110924Z 1109/1206 VRB04KT 3SM SHRA BR VCTS OVC004CB
      WS020/21045KT
      TEMPO 1109/1111 2SM +TSRA OVC006CB
     FM111100 18008KT 1SM SHRA BR OVC002 WS020/21035KT
     FM111500 20012G18KT 2SM SHRA BR VCTS OVC004CB
     FM111900 22013G22KT 4SM -SHRA OVC020
     FM112000 24010G17KT P6SM BKN040
     FM112300 26010KT P6SM SCT050=

0000060900
963
FTUS51 KWBC 110927 AAB
TAF AMD
KIPT 110923Z 1109/1206 04007KT 4SM BR BKN012 OVC016 WS020/19045KT
     FM111500 17012G24KT 3SM RA BR BKN009 OVC016 WS012/19045KT
     FM120400 28010KT P6SM OVC025=
KJST 110923Z 1109/1206 18013KT P6SM FEW007 BKN040 BKN070
      WS019/21040KT
      TEMPO 1109/1111 BKN007
     FM111100 17016G32KT 2SM RA BR BKN009 OVC016 WS012/19049KT
     FM112200 25012G21KT 1SM -SHRA BR OVC015=
KUNV 110923Z 1109/1206 00000KT 1/4SM FG OVC002 WS015/20040KT
     FM111300 17013G27KT 3SM RA BR BKN009 OVC016 WS012/19045KT
     FM120200 28010KT P6SM OVC030=

0000043900
964
FTUS52 KWBC 110927 AAA
TAF AMD
KLNS 110923Z 1109/1206 00000KT 1/2SM -RA FG VV003 WS016/19045KT
     FM111500 17014G24KT 3SM RA BR BKN009 OVC016 WS012/19047KT
     FM112100 26012G21KT 4SM -SHRA BR OVC015
     FM120500 28012KT P6SM OVC030=
KTUP 110926Z 1109/1206 27009KT P6SM FEW010 BKN040 OVC080
     FM111200 28005KT P6SM BKN012 OVC100
     FM111500 30012G18KT P6SM SCT200
     FM120100 27003KT P6SM SKC=

0000045100
965
FTUS53 KWBC 110927 AAA
TAF AMD
KDPA 110926Z 1109/1206 20012KT 1SM -DZ BR OVC003
      TEMPO 1109/1111 1/4SM FG VV001
     FM111130 26010KT P6SM OVC007
     FM111600 27014G22KT P6SM OVC015
     FM112300 27010KT P6SM SCT015=
KRFD 110926Z 1109/1206 26010KT 2SM BR OVC005
      TEMPO 1109/1110 1/2SM FG VV002
     FM111030 27010KT 5SM BR OVC007
     FM111600 27014G22KT P6SM OVC015
     FM112200 27010KT P6SM SCT015=

0000121100
966
FTUS80 KWBC 110927 AAA
TAF AMD
KAOO 110923Z 1109/1206 03003KT 1/4SM FG VCSH VV002 WS019/21040KT
     FM111300 17013G27KT 3SM RA BR BKN009 OVC016 WS012/19045KT
     FM112300 26012G21KT 3SM -SHRA BR OVC015
     FM120200 28019KT P6SM OVC030=
KBFD 110923Z 1109/1206 17009G17KT 5SM BR OVC002 WS019/21048KT
      TEMPO 1109/1111 2SM -RA BR OVC002
     FM111100 17014G27KT 2SM RA BR OVC009 WS012/19049KT
     FM120000 27010G18KT 4SM BR OVC003=
KBWI 110924Z 1109/1212 00000KT 3/4SM -RA BR OVC006 WS020/19040KT
      TEMPO 1110/1114 1/4SM FG VV001
     FM111400 VRB04KT 1SM BR OVC006 WS020/20040KT
     FM111700 17007KT 6SM -SHRA OVC008 WS020/20045KT
     FM111900 18011G21KT 3SM SHRA OVC010 WS020/21050KT
     FM112300 24009KT 6SM -SHRA OVC025
     FM120100 26012G20KT 6SM -SHRA OVC035
     FM120200 27009KT P6SM BKN070
     FM120800 28010KT P6SM SCT130=
KDAY 110925Z 1109/1206 18012G20KT 5SM -SHRA BR SCT005 OVC017
      TEMPO 1109/1111 2SM -SHRA BR BKN005 OVC012CB
     FM111300 20013KT P6SM OVC008
      TEMPO 1113/1116 20004KT 4SM BR OVC004
     FM111600 24016G26KT P6SM OVC015
     FM112300 25013KT P6SM OVC009
      TEMPO 1202/1206 5SM BR OVC004=

0000132500
967
FTUS80 KWBC 110927 AAB
TAF AMD
KDCA 110924Z 1109/1206 VRB03KT 3/4SM -RA BR OVC007 WS020/18035KT
      TEMPO 1110/1114 1/2SM FG VV002
     FM111400 20006KT 1 1/2SM BR OVC005 WS020/20045KT
     FM111700 18011KT 6SM -SHRA OVC007 WS020/20045KT
     FM111900 19013G23KT 3SM SHRA SCT007 OVC012 WS020/20050KT
     FM112200 24012G21KT 6SM -SHRA OVC030
     FM120000 27008KT P6SM BKN080=
KDPA 110926Z 1109/1206 20012KT 1SM -DZ BR OVC003
      TEMPO 1109/1111 1/4SM FG VV001
     FM111130 26010KT P6SM OVC007
     FM111600 27014G22KT P6SM OVC015
     FM112300 27010KT P6SM SCT015=
KGMU 110924Z 1109/1206 VRB04KT 3SM SHRA BR VCTS OVC004CB
      WS020/21045KT
      TEMPO 1109/1111 2SM +TSRA OVC006CB
     FM111100 18008KT 1SM SHRA BR OVC002 WS020/21035KT
     FM111500 20012G18KT 2SM SHRA BR VCTS OVC004CB
     FM111900 22013G22KT 4SM -SHRA OVC020
     FM112000 24010G17KT P6SM BKN040
     FM112300 26010KT P6SM SCT050=
KGSP 110923Z 1109/1206 05005KT 2SM -SHRA BR VCTS OVC005CB
      WS020/21045KT
      TEMPO 1109/1111 1SM +TSRA BR OVC004CB
     FM111100 18007KT 1SM SHRA BR OVC003 WS020/21035KT
     FM111500 20012G19KT 2SM SHRA BR VCTS OVC004CB
     FM111900 22013G22KT 4SM -SHRA BR OVC020
     FM112100 24010KT P6SM BKN040
     FM112300 26010KT P6SM SCT050=

0000141900
968
FTUS80 KWBC 110927 AAC
TAF AMD
KGYY 110926Z 1109/1206 21010KT 4SM -RA BR VCSH OVC005
      TEMPO 1110/1112 1SM BR MIFG
     FM111230 26010G15KT P6SM OVC007
     FM111600 26015G25KT P6SM OVC015
     FM112300 27010KT P6SM SCT015=
KIAD 110924Z 1109/1212 VRB03KT 1SM -RA BR BKN004 OVC007
      WS020/19030KT
      TEMPO 1110/1114 1/2SM FG VV002
     FM111400 22004KT 1SM BR OVC004 WS020/20045KT
     FM111700 18009KT 3SM SHRA OVC007 WS020/20050KT
     FM112200 25008KT 6SM -SHRA OVC035
     FM120200 27008KT P6SM BKN090
     FM120700 29010KT P6SM SCT200=
KIPT 110923Z 1109/1206 04007KT 4SM BR BKN012 OVC016 WS020/19045KT
     FM111500 17012G24KT 3SM RA BR BKN009 OVC016 WS012/19045KT
     FM120400 28010KT P6SM OVC025=
KJST 110923Z 1109/1206 18013KT P6SM FEW007 BKN040 BKN070
      WS019/21040KT
      TEMPO 1109/1111 BKN007
     FM111100 17016G32KT 2SM RA BR BKN009 OVC016 WS012/19049KT
     FM112200 25012G21KT 1SM -SHRA BR OVC015=
KLNS 110923Z 1109/1206 00000KT 1/2SM -RA FG VV003 WS016/19045KT
     FM111500 17014G24KT 3SM RA BR BKN009 OVC016 WS012/19047KT
     FM112100 26012G21KT 4SM -SHRA BR OVC015
     FM120500 28012KT P6SM OVC030=
KMDT 110923Z 1109/1206 00000KT 1/2SM DZ FG VV003 WS020/19045KT
     FM111500 17014G24KT 3SM RA BR BKN009 OVC016 WS012/19047KT
     FM112100 26012G21KT 4SM -SHRA BR OVC015
     FM120500 28012KT P6SM OVC030=

0000103000
969
FTUS80 KWBC 110927 AAD
TAF AMD
KMDW 110926Z 1109/1206 21010KT 4SM -DZ BR VCSH OVC005
      TEMPO 1110/1112 1SM BR MIFG
     FM111200 26010KT P6SM OVC008
     FM111600 27014G22KT P6SM OVC015
     FM112300 27010KT P6SM SCT015=
KORD 110926Z 1109/1212 21010KT 4SM -DZ BR VCSH OVC005
      TEMPO 1110/1112 1SM BR MIFG
     FM111200 26010KT P6SM OVC008
     FM111600 27014G22KT P6SM OVC015
     FM112300 27010KT P6SM SCT015
     FM120500 23006KT P6SM SKC=
KRFD 110926Z 1109/1206 26010KT 2SM BR OVC005
      TEMPO 1109/1110 1/2SM FG VV002
     FM111030 27010KT 5SM BR OVC007
     FM111600 27014G22KT P6SM OVC015
     FM112200 27010KT P6SM SCT015=
KTUP 110926Z 1109/1206 27009KT P6SM FEW010 BKN040 OVC080
     FM111200 28005KT P6SM BKN012 OVC100
     FM111500 30012G18KT P6SM SCT200
     FM120100 27003KT P6SM SKC=
KUNV 110923Z 1109/1206 00000KT 1/4SM FG OVC002 WS015/20040KT
     FM111300 17013G27KT 3SM RA BR BKN009 OVC016 WS012/19045KT
     FM120200 28010KT P6SM OVC030=

0000010500
970
SADN32 EKCH 110920 RRA
METAR EKSB 110924Z 23012KT 190V260 5000 -RA BKN007 07/06 Q1006=

0000033500
971
SADL33 EDZO 110920
METAR EDFE 110920Z 32002KT 4000 BR -RA FEW006 BKN040 01/00 Q1018=
METAR EDFH 110920Z 23005KT 9999 FEW034 BKN070 04/03 Q1016=
METAR EDFM 110920Z VRB02KT 9999 // NSC 02/02 Q1018=
METAR EDLV 110920Z 20007KT 170V240 3900 BR BKN003 04/04 Q1015=
METAR EDVK 110920Z 17005KT 9000 NSC 02/M00 Q1015=

0000041500
972
SANO35 ENMI 110920
METAR ENMS 110920Z VRB04KT 9999 FEW040 M10/M18 Q1010 RMK WIND 412FT
           VRB09G23KT=
METAR ENRM 110920Z 10015KT CAVOK M08/M15 Q1006=
METAR ENRS 110920Z NIL=
METAR ENSK 110920Z NIL=
METAR ENSO 110920Z NIL=
METAR ENST 110920Z VRB07G18KT 9999 FEW050 M06/M16 Q1009 RMK WIND
           300FT 02012G23KT 320V130 RMK TURB WRNG - SEE IPPC=
METAR ENVD 110920Z NIL=

0000065000
973
SADL34 EDZO 110920
METAR EDAC 110920Z 20008KT CAVOK 04/01 Q1016=
METAR EDBC 110920Z 21008KT CAVOK 03/01 Q1014=
METAR EDGS 110920Z 22012KT 190V250 9999 FEW004 SCT027 BKN074 02/02
Q1014=
METAR EDHL 110920Z 23011KT 5000 -DZ BR BKN008 06/04 Q1010=
METAR EDLN 110920Z VRB02KT CAVOK 01/01 Q1015=
METAR EDLP 110920Z 20012KT CAVOK 04/M01 Q1014=
METAR EDLW 110920Z 20013KT CAVOK 04/02 Q1014=
METAR EDMA 110920Z VRB02KT 8000 NSC 01/01 Q1017=
METAR EDQM 110920Z 20005KT CAVOK 02/M01 Q1016=
METAR EDRZ 110920Z 15004KT 120V180 9999 BKN036 OVC041 01/01 Q1017=
METAR EDSB 110920Z VRB02KT 8000 -RA SCT045 BKN060  02/01 Q1018=

0000053800
974
SADL35 EDZO 110920
METAR EDAH 110920Z 23009KT 8000 BKN010 05/03 Q1011=
METAR EDHI 110920Z 22013KT 7000 DZ BKN010 05/04 Q1011=
METAR EDHK 110920Z 23013KT 190V250 5000 -RA BR OVC007 06/05 Q1008=
METAR EDJA 110920Z VRB02KT 9000 NSC 01/01 Q1016=
METAR EDTD 110920Z 13004KT 100V160 9999 FEW007 SCT030 BKN075 02/02
     Q1017=
METAR EDTL 110920Z 32006KT 4000NE 9999 RA FEW010 BKN060 04/04 Q1018=
METAR EDVE 110920Z 24008KT 9999 FEW006 05/01 Q1013=
METAR EDXW 110920Z 23016KT 8000 DZ FEW009 SCT029 07/06 Q1006=

00000000