0000015500
455
FCIY34 LIIB 110800
TAF LIPC 110800Z 1109/1118 VRB03KT 3000 BR BKN050 TEMPO 1109/1111
0800 FG BKN002=
TAF LIPF 110800Z 1109/1118 NIL=

0000052700
456
FCIY35 LIIB 110800
TAF LIRG 110800Z 1109/1118 NIL=
TAF LIRH 110800Z 1109/1118 VRB03KT 5000 BR SCT010 BKN020 BECMG ?
1110/1112 7000 SCT020=
TAF LIRL 110800Z 1109/1118 VRB03KT 9999 SCT030=
TAF LIRM 110800Z 1109/1118 04005KT 4000 BR SCT025 BECMG 1111/1113
8000=
TAF LIRS 110800Z 1109/1118 05005KT 9999 SCT020=
TAF LIRU 110800Z 1109/1118 VRB04KT 0200 FG OVC002 BECMG 1110/1112
1200 BR BKN015 BECMG 1112/1114 6000=
TAF LIRV 110800Z 1109/1118 04007KT 3000 BR SCT008 BECMG 1111/1113
9999 SCT025=

0000029400
457
FCIY36 LIIB 110800
TAF LIBC 110800Z 1109/1118 VRB05KT 9999 SCT030 BECMG 1110/1112
19010KT=
TAF LIBF 110800Z 1109/1118 VRB06KT 9999 BKN030=
TAF LIBG 110800Z 1109/1118 VRB05KT 9999 SCT025 BKN040=
TAF LIRZ 110800Z 1109/1118 VRB04KT 0100 FG OVC002 BECMG 1112/1114
0500=

0000020300
458
FCIY37 LIIB 110800
TAF LICD 110800Z 1109/1118 18012KT 9999 SCT040=
TAF LICG 110800Z 1109/1118 NIL=
TAF LICR 110800Z 1109/1118 VRB06KT 9999 SCT030=
TAF LICT 110800Z 1109/1118 NIL=

0000010600
459
SAAF11 LFPW 110800 RRA
METAR FCPP 110800Z 12008KT 9999 FEW015 BKN026 26/24 Q1012 NOSIG=

0000104400
460
SPUS70 KWBC 110822
SPECI
KBMI 110818Z AUTO 22012KT 1 3/4SM -RA BR OVC001 03/03 A2948 RMK
     AO2 P0002=
KDAW 110818Z AUTO 00000KT 3/4SM UP BR VV003 M01/M02 A3019 RMK AO2
     UPB0759SNB04E14 P0001 T10061017=
KPBG 110818Z AUTO 00000KT 7SM BKN018 M05/M06 A3001 RMK AO2=
KRHI 110818Z AUTO 00000KT 3/4SM -SN BR VV014 M04/M04 A2937 RMK AO2
     P0002 T10391044=
PAGY 110818Z AUTO 09004KT 10SM BKN018 BKN023 OVC070 01/M02 A2922
     RMK AO2 TSNO $=
PALG 110819Z AUTO 00000KT 10SM FEW017 M13/M17 A2941 RMK AO2 TSNO
     $=
KADG 110819Z AUTO 22010KT 1 1/4SM -RA BR OVC002 04/04 A2957 RMK
     AO2 RAB0756 P0000 TSNO=
KASX 110819Z AUTO 21003KT 7SM FEW012 OVC018 M03/M04 A2943 RMK
     AO2=
KFFC 110819Z AUTO 16008KT 4SM -TSRA BR FEW003 BKN020 OVC040 14/14
     A2989 RMK AO2 LTG DSNT E AND W AND NW TSB03 P0033
     T01390139=
KPHL 110819Z 07003KT 3/4SM R09R/P6000FT BR OVC002 04/03 A3004 RMK
     AO2 $=
KVAY 110819Z AUTO 13003KT 1/2SM FG BKN030 OVC049 04/03 A3005 RMK
     AO2 T00390033=

0000011900
461
SPUS41 KWBC 110822
SPECI
KCEF 110819Z AUTO 29002KT 1 1/2SM R23/5000FT -DZ BR OVC002 00/00
A3014=

0000011900
462
SPUS41 KWBC 110822
SPECI
KCEF 110820Z AUTO 30003KT 1 1/4SM R23/5000FT -DZ BR OVC002 00/00
A3014=

0000011500
463
SATH33 VTBB 110800 RRC
METAR  VTUU 110800Z 06006KT 9999 FEW023 SCT300 31/17 Q1012 A2990
NOSIG=

0000021200
464
FCIL41 BIRK 110750
TAF BIIS 110822Z NIL=
TAF BIBD 110822Z NIL=
TAF BIKR 110822Z NIL=
TAF BIHU 110822Z NIL=
TAF BIHN 110822Z NIL=
TAF BIVM 110822Z 1108/1117 26015KT 9999 FEW020 SCT045=

0000012500
465
SAMO31 ZMUB 110830
METAR ZMUB 110830Z VRB01MPS 4000NW FU NSC M23/M27 Q1028 NOSIG RMK
 QFE662.5 63 NW MO=

0000009600
466
FCIY37 LIIB 110800 RRA
TAF LICT 110800Z 1109/1118 14011KT 9999 FEW020 SCT050=

0000008900
467
FCIY37 LIIB 110800 RRB
TAF LICG 110800Z 1109/1118 20014KT 9999 SCT050=

0000082900
468
SASN31 ESWI 110820
METAR ESGG 110820Z 24014KT 8000 BR BKN003 05/04 Q1000 R21/29//95=
METAR ESGJ 110820Z AUTO 23013KT 5000 -DZ FEW006/// BKN008///
OVC010/// 04/04 Q0999=
METAR ESGP 110820Z NIL=
METAR ESGT 110820Z NIL=
METAR ESMK 110820Z AUTO 24009KT 9999NDV SCT011/// BKN016///
OVC019/// 07/05 Q1005 REDZ=
METAR ESMQ 110820Z AUTO 22008KT 9999 FEW013/// SCT020/// BKN025///
05/04 Q1003=
METAR ESMS 110820Z 24015KT 7000 BR BKN005 06/05 Q1006 R17/29//95=
METAR ESMT 110820Z AUTO 23017KT 9999 -DZ SCT006/// BKN008///
OVC021/// 06/05 Q1003 REDZ=
METAR ESMX 110820Z AUTO 22010KT 6000 BR FEW005/// SCT006///
BKN008/// 04/03 Q1002=
METAR ESTA 110820Z 21012KT 9999 DZ FEW012 BKN020 OVC036 06/05 Q1004=
METAR ESTL 110820Z AUTO 23011KT 9999NDV -DZ FEW010/// SCT014///
BKN065/// 06/06 Q1005=

0000012000
469
SASN31 ESWI 110820 RRA
METAR ESGP 110820Z 24013KT 9999 FEW007 SCT012 BKN016 06/05 Q1000
R19/29//95=

0000062200
470
SADL31 EDZO 110820
METAR EDDF 110820Z 17004KT 7000 -RA FEW005 BKN044 01/01 Q1017
     NOSIG=
METAR EDDH 110820Z 22012KT 6000 BKN008 06/04 Q1010 TEMPO 4000=
METAR EDDK 110820Z 13004KT 9999 FEW037 BKN090 03/02 Q1016 NOSIG=
METAR EDDL 110820Z 15010KT CAVOK 03/01 Q1015 NOSIG=
METAR EDDM 110820Z 04002KT 6000 NSC M01/M01 Q1018 NOSIG=
METAR EDDN 110820Z 12006KT CAVOK M01/M01 Q1017 NOSIG=
METAR EDDS 110820Z 11002KT 9999 -RA FEW010 SCT040 BKN060 M00/M00
     Q1017 NOSIG=
METAR EDDT 110820Z 22007KT 9999 FEW018 BKN130 05/02 Q1014 NOSIG=
METAR EDDV 110820Z 21009KT CAVOK 05/02 Q1013 NOSIG=

0000048400
471
SADL32 EDZO 110820
METAR EDDB 110820Z 21009KT CAVOK 03/02 Q1014 NOSIG=
METAR EDDC 110820Z 23010KT CAVOK 04/01 Q1015 NOSIG=
METAR EDDE 110820Z 20005KT CAVOK 02/M00 Q1015 NOSIG=
METAR EDDG 110820Z 20006KT 9999 FEW015 BKN100 03/01 Q1014 TEMPO
     BKN010=
METAR EDDP 110820Z 21008KT CAVOK 03/01 Q1016 NOSIG=
METAR EDDR 110820Z 08004KT 9000 BKN042 OVC080 01/01 Q1017 NOSIG=
METAR EDDW 110820Z 22010KT 9999 BKN011 BKN035 05/03 Q1012 TEMPO 4000
RA BKN007=

0000062000
472
SAFI31 EFHK 110820
METAR EFHK 110820Z 36007KT 9999 OVC009 M04/M05 Q0999 NOSIG=
METAR EFJY 110820Z AUTO 03008KT 4800 -SN OVC013 
M09/M11 Q1000=
METAR EFKU 110820Z AUTO 01009KT 8000 -SN OVC025 
M11/M13 Q1001=
METAR EFOU 110820Z AUTO 05007KT 360V090 CAVOK M15/M19 Q1008 120/0087=
METAR EFRO 110820Z AUTO 03013KT CAVOK M19/M22 
Q1011=
METAR EFTP 110820Z AUTO 05007KT 9999 SCT009 BKN011 
M05/M06 Q0999=
METAR EFTU 110820Z AUTO VRB01KT 3300 -SN OVC007/// M03/M04 Q0999 REUP
R08/690168=
METAR EFVA 110820Z AUTO 05007KT 020V080 3600 -SN SCT022/// OVC027/// 
M09/M11 Q1003 R16/420195=

0000013900
473
SAEA20 HKNC 110800 RRB
METAR HKEL 110800Z  09006KT  9999 FEW022CB 21/07 Q1026=
METAR HKMY 110800Z 09003KT CAVOK 28/11=

0000009700
474
SAKN20 HKNC 110800 RRB
METAR HKEL 110800Z  09006KT  9999 FEW022CB 21/07 Q1026=

00000000