0000017200
975
SSVF50 LFPW 111605 RRA
ZZYY 62066 11014 1605/ 743532 001615 22219 00130 11002 20100
21008=
ZZYY 62064 11014 1605/ 744653 001447 22219 10902 20090 21011=
0000046000
976
SSVF50 LFPW 111610 RRA
ZZYY 62074 11014 1610/ 747285 003285 22219 00100 11203 20120
21017=
ZZYY 62079 11014 1610/ 743403 001674 22219 00128 11202 20120
21010=
ZZYY 61289 11014 1610/ 143208 005230 22219 00141 10401 20040
21003=
ZZYY 62069 11014 1610/ 748290 004968 22219 00108 11104 20110
21021=
ZZYY 61191 11014 1610/ 142917 003125 22219 00127 10401 20040
21003=
ZZYY 62059 11014 1610/ 749695 001620 22219 10401 20040 21005=
0000010800
977
SSVF50 LFPW 111635 RRA
ZZYY 61188 11014 1635/ 142490 003168 22219 00125 10401 20040
21003=
0000010800
978
SSVF50 LFPW 111705 RRA
ZZYY 61188 11014 1705/ 142490 003168 22219 00124 10401 20040
21003=
0000010600
979
SACN62 CYEG 110800
METAR CYEG 110800Z 17010KT 15SM BKN200 M09/M11 A2952 RMK CS7 SLP035=

0000011700
980
SACN62 CYAM 110800
METAR CYAM 110800Z 09005KT 2 1/2SM -SN BR OVC004 00/00 A2943 RMK ST8
 SLP975=

0000090700
981
SAZA31 FAPR 110800
METAR FABL 110800Z 01004KT 280V080 CAVOK 27/11 Q1020 NOSIG=
METAR FACT 110800Z 21007KT 150V240 CAVOK 22/13 Q1017 NOSIG=
METAR FAEL 110800Z 19009KT 150V210 CAVOK 22/13 Q1019=
METAR FAGG 110800Z 13007KT 110V180 9999 BKN030 19/13 Q1018=
METAR FAKN 110800Z AUTO /////KT //// // ////// ///// Q////=
METAR FALA 110800Z 01010KT 340V040 CAVOK 25/16 Q1022 NOSIG=
METAR FALE 110800Z 20007KT 9999 FEW030 SCT049 26/18 Q1018 NOSIG=
METAR FALW 110800Z AUTO 21006KT //// // ////// 22/11 Q1016=
METAR FAMM 110800Z 03005KT CAVOK 32/07 Q1019 NOSIG=
METAR FAOR 110800Z 36014KT 9999 FEW032 23/15 Q1024 NOSIG=
METAR FAPE 110800Z 25013KT 9999 FEW020 22/11 Q1018 NOSIG=
METAR FAPN 110800Z AUTO 03003KT //// // ////// 29/12 Q1018=
METAR FAPP 110800Z 07006KT 5000 TSRA FEW020 SCT040CB 18/16 Q1021
      BECMG 8000=
METAR FAUP 110800Z 13004KT CAVOK 26/05 Q1017 NOSIG=

0000010300
982
SACN61 CYFC 110800
METAR CYFC 110800Z AUTO 22002KT 9SM CLR M13/M14 A3027 RMK SLP251=

0000010600
983
SACN62 CYKY 110800
METAR CYKY 110800Z 27008KT 15SM FEW240 M12/M14 A2963 RMK CI1 SLP080=

0000014600
984
SACN62 CYHM 110800
METAR CYHM 110800Z 10007KT 3/4SM -SHRA BR BKN005 OVC030 02/01 A2967
 RMK FG4SF2SC2 VIS VRB 1/2 - 1 SLP055=

0000011200
985
SACN62 CYGL 110800
METAR CYGL 110800Z 14008KT 8SM -SN OVC005 M05/M06 A2966 RMK ST8
 SLP058=

0000010200
986
SACN62 CYEV 110800
METAR CYEV 110800Z 28004KT 15SM IC SKC M28/M31 A2970 RMK SLP068=

0000009900
987
SACN62 CYGP 110800
METAR CYGP 110800Z 00000KT 15SM SKC M12/M15 A3013 RMK SLP207=

0000010600
988
SACN62 CYMA 110800
METAR CYMA 110800Z 21004KT 20SM OVC030 M24/M27 A2933 RMK NS8 SLP989=

0000011800
989
SACN49 CWAO 110800
METAR CYCX 110800Z 21003KT 15SM BKN100 M10/M11 A3026 RMK AC6
DA-3298FT SLP251=

0000071400
990
FCHU41 LHBM 110800
TAF LHDC 110800Z 1109/1118 20009KT 9999 BKN040 BECMG 1114/1117
    OVC020=
TAF LHKE 110745Z 1109/1118 17003MPS 9999 BKN035
    BECMG 1112/1115 BKN015
    PROB40 TEMPO 1115/1118 5000 BR BKN010=
TAF LHPP 110800Z 1109/1118 10004KT 9999 BKN040 TEMPO 1110/1114
    OVC020 BECMG 1110/1113 20006KT BECMG 1114/1117 CAVOK=
TAF LHPR 110800Z 1109/1118 18005KT 9999 BKN033 BECMG 1109/1112
    BKN016 TEMPO 1112/1118 6000 BKN010=
TAF LHSM 110800Z 1109/1118 18005KT 3000 BR BKN006 TEMPO 1109/1112
    0750 FG OVC002 BECMG 1114/1117 20010KT CAVOK=
TAF LHSN 110745Z 1109/1118 18003MPS 9999 BKN040
    BECMG 1112/1115 BKN025
    PROB40 TEMPO 1115/1118 5000 BR BKN015=

0000010800
991
SAUK37 EGGY 110750 RRA
METAR EGPI 110750Z AUTO 27007KT 240V300 9999 NCD 03/01 Q1013 RERA=

0000010600
992
SAUK38 EGGY 110750 RRB
METAR EGPU 110750Z AUTO 31014KT 9999 FEW046/// 04/01 Q1011 RERA=

0000010600
993
SACN61 CYNM 110800
METAR CYNM 110800Z AUTO 16011KT 8SM OVC007 M04/M04 A2970 RMK SLP075=

0000010600
994
SACN62 CYPA 110800
METAR CYPA 110800Z 31010KT 15SM OVC018 M04/M07 A2953 RMK SC8 SLP026=

00000000