0000011000
315
UANT99 KDDL 111713
ARP CRL938 4735N02515W 1713 F380 MS46 210/47 KT
FHBIL QXT AOE 111713 J25A
0000011000
316
UANT99 KDDL 111713
ARP BAW189 5302N01607W 1713 F390 MS57 352/59 KT
GZBJC QXT AOE 111713 L27A
0000046800
317
SZPA01 AMMC 111715
CREX++
T000103 A001 D01021 D06025++
0136250 17293000 67590 2014 01 11 17 08 3015 11 07 00 01
01668 0007 01663 0005 01666 0012 01642 -0008 01655 0008 01652 0008+
0710610 17137250 67680 2014 01 11 17 08 3013 11 07 00 01
01023 0059 01020 0059 01020 0061 01010 0055 01007 0054 01007 0057+
0698060 15820000 67950 2014 01 11 17 08 3022 11 07 00 01
00711 0087 00708 0084 00707 0084 00705 0083 00705 0083 00704 0083++
7777

0000178800
318
SZPS01 AMMC 111715
CREX++
T000103 A001 D01021 D06025++
-0204190 14737360 56130 2014 01 11 17 08 3023 11 07 00 01
00763 0110 00760 0105 00763 0106 00759 0101 00761 0101 00757 0095+
-0669280 15640860 56363 2014 01 11 17 08 //// 11 07 00 01
00633 -0051 00630 -0054 00631 -0052 00626 -0056 00626 -0056 00624 -0057+
-0942890 15995560 56670 2014 01 11 17 08 3038 11 07 00 01
00637 -0062 00637 -0063 00638 -0063 00640 -0063 00643 -0061 00642 -0063+
-1072080 16580190 57131 2014 01 11 17 08 //// 11 07 00 01
03367 2595 02630 1859 03245 2476 02835 2067 02956 2190 03255 2490+
-1551560 16718860 57210 2014 01 11 17 08 //// 11 07 00 01
01043 -0111 01044 -0109 01032 -0119 01031 -0119 01030 -0118 01021 -0125+
-1775690 16830030 57320 2014 01 11 17 08 3015 11 07 00 01
01147 -0019 01149 -0016 01149 -0016 01146 -0019 01143 -0021 01138 -0026+
-4397330 16861610 65180 2014 01 11 17 08 2880 11 07 00 01
01806 0404 01905 0497 01854 0441 01841 0422 01914 0489 01923 0493+
-2120470 -15978530 65980 2014 01 11 17 08 3008 11 07 00 01
00792 0048 00804 0061 00727 -0015 00749 0008 00753 0013 00812 0073+
-2113810 -17518140 66600 2014 01 11 17 08 //// 11 07 00 01
01425 0089 01420 0086 01419 0087 01418 0089 01420 0093 01422 0097+
-1382670 -17176110 66840 2014 01 11 17 08 3010 11 07 00 01
00941 0068 00936 0066 00935 0067 00930 0065 00932 0070 00931 0071+
-1813250 17842750 67050 2014 01 11 17 08 3030 11 07 00 01
01562 0087 01556 0083 01552 0081 01548 0080 01554 0088 01544 0080+
-1760530 17743810 67070 2014 01 11 17 08 3028 11 07 00 01
01673 0028 01669 0028 01666 0027 01664 0028 01660 0027 ///// ////+
-0850250 17919500 67440 2014 01 11 17 08 3027 11 07 00 01
02169 0021 02164 0019 02164 0023 02158 0021 02152 0018 02144 0013++
7777

0000034700
319
SZIO01 AMMC 111715
CREX++
T000103 A001 D01021 D06025++
-1211670 09689190 46280 2014 01 11 17 08 3018 11 07 00 01
00704 -0013 00705 -0013 00710 -0010 00710 -0010 00712 -0010 00715 -0008+
-1042940 10566940 46290 2014 01 11 17 08 //// 11 07 00 01
00630 0004 00656 0030 00639 0013 00642 0015 00646 0019 00642 0015++
7777

0000191900
320
SZAU01 AMMC 111715
CREX++
T000103 A001 D01021 D06025++
-1927750 14705860 59260 2014 01 11 17 08 3022 11 07 00 01
01250 0172 01260 0172 01268 0172 01275 0171 01288 0175 01295 0173+
-2316110 15079000 59670 2014 01 11 17 08 2998 11 07 00 01
02194 0155 02208 0158 02221 0160 02239 0165 02250 0166 02263 0168+
-3447330 15091170 60420 2014 01 11 17 08 2945 11 07 00 01
01206 -0023 01207 -0026 01209 -0028 01208 -0032 01212 -0032 01209 -0038+
-4105000 14591500 60910 2014 01 11 17 08 2888 11 07 00 01
01067 -0072 01061 -0083 01052 -0098 01069 -0086 01078 -0083 01084 -0083+
-4254640 14793080 61170 2014 01 11 17 08 2903 11 07 00 01
01418 0010 01428 0019 01425 0014 01427 0014 01423 0008 01426 0009+
-3834390 14161360 61410 2014 01 11 17 08 2908 11 07 00 01
00731 0034 00713 0017 00711 0015 00714 0019 00733 0039 00733 0039+
-3214890 13364170 62000 2014 01 11 17 08 2955 11 07 00 01
01319 0025 01316 0026 01312 0025 01307 0025 01304 0026 01301 0027+
-3387080 12189720 62080 2014 01 11 17 08 2948 11 07 00 01
00798 0042 00790 0035 00779 0026 00786 0035 00772 0023 00779 0032+
-3182560 11573860 62237 2014 01 11 17 08 2972 11 07 00 01
00610 0067 00618 0076 00613 0073 00621 0082 00625 0087 00627 0090+
-2422000 11339750 62385 2014 01 11 17 08 //// 11 07 00 01
00720 -0070 00739 -0050 00739 -0049 00637 -0150 00745 -0042 00690 -0096+
-2181670 11419110 62430 2014 01 11 17 08 //// 11 07 00 01
01231 -0121 01240 -0110 01244 -0105 01230 -0118 01232 -0114 01242 -0103+
-1800080 12221830 62650 2014 01 11 17 08 3043 11 07 00 01
04493 0248 04488 0245 04483 0245 04478 0243 04473 0242 04468 0239+
-1247190 13084580 63230 2014 01 11 17 08 3050 11 07 00 01
05118 -0113 05118 -0112 05118 -0110 05118 -0109 05117 -0110 05119 -0106+
-1386000 13641580 63511 2014 01 11 17 08 3042 11 07 00 01
01600 0098 01597 0097 01595 0097 01591 0095 01590 0097 01586 0095++
7777

0000039800
321
SWIO40 RJTD 111715
:PRS 1 #1 1913 1912 1911 1907 1917 1899 1915 1910 1918 1921 1910 1917
1919 1928 1948 1916 1937 1902 1949 1910 1918 1936 1906 1937 1912 1929
1920 1907 1908 1904 :RAD 1 #3 6296 6295 6296 6303 6308 6302 6301 6298
6294 6283 :ENC 5 #5 5289 5298 5300 5297 5290 5273 5255 5253 5261 5264
5264 5261 :SW1 15 #60 17 :SW2 45 #60 11 :BAT 14 #15 12.7 :NAME 
0650018E=
0000003800
322
UANT01 EGRR 111700
NIL
0000011000
323
UANT01 CWAO 111714
ARP DAL85 5033N04522W 1713 F320 MS59 292/70 KT
N841MH QXT AOW 111714 F34A
0000010900
324
UANT01 CWAO 111714
ARP OKKKF 5116N03854W 1714 F400 MS55 287/42 KT
OKKKF QXT EUA 111714 A36A
0000011000
325
UANT01 CWAO 111714
ARP DAL29 5203N01623W 1714 F330 MS59 212/84 KT
N172DZ QXT AOE 111714 F06A
0000009400
326
SNNO21 ENMI 111600 RRB
AAXX 11161
01300 46/// /1305 10022 20009 39896 49995=
0000009400
327
SNNO21 ENMI 111700 RRA
AAXX 11171
01300 46/// /1305 10023 20010 39897 49996=
0000009400
328
SNNO22 ENMI 111600 RRC
AAXX 11161
01400 46/// /2814 10050 20020 30038 40100=
0000014500
329
SNNO22 ENMI 111700 RRB
AAXX 11171
01400 46/// /2814 10053 20017 30039 40100=
01447 46/// /0000 11053 21058 39319 40002 53014=
0000036300
330
FTCN32 CWAO 110600
TAF CYPE 110638Z 1107/1119 VRB03KT P6SM SCT040 BKN060 OVC220 TEMPO
     1107/1111 4SM -SN BKN040
    FM111100 02006KT 4SM -SN SCT012 OVC080
    FM111300 35010KT 4SM -SN OVC030 TEMPO 1113/1117 11/2SM -SHSN
     VV012
    FM111700 02015KT 2SM -SN VV012 TEMPO 1117/1119 3/4SM -SHSN VV006
    RMK NXT FCST BY 111300Z=

0000035600
331
FTCN32 CWAO 110600
TAF CYQU 110638Z 1107/1119 VRB03KT P6SM BKN140 OVC220 TEMPO 1107/1110
     4SM -SN SCT040 OVC090
    FM111100 09012KT 4SM -SN SCT012 OVC060 TEMPO 1111/1115 11/2SM
     -SHSN VV012
    FM111500 09012KT 2SM -SN VV012 TEMPO 1115/1119 3/4SM -SHSN VV006
     BECMG 1116/1118 VRB03KT
    RMK NXT FCST BY 111300Z=

0000147500
332
FTUS80 KWBC 110542 RRP
TAF
KSLK 110539Z 1106/1206 23003KT 5SM BR OVC014
     FM110800 18009KT 5SM BR VCSH BKN015 OVC020 WS020/21045KT
      TEMPO 1108/1110 3SM -FZDZ BR BKN010 OVC015
     FM111000 20012G18KT 4SM -RA BR OVC008 WS020/22050KT
     FM111300 20012G20KT 3SM -RA BR OVC006 WS020/22055KT
     FM111800 21010G18KT 2SM RA BR BKN004 OVC006=
KTRK 110540Z 1106/1206 VRB04KT P6SM BKN180
     FM111000 20010G15KT P6SM SCT050 BKN090
     FM111700 21015G24KT P6SM SCT030 BKN060
     FM112000 24019G34KT P6SM VCSH SCT020 OVC040 AMD NOT SKED
      1106/1112=
KTVL 110540Z 1106/1206 18004KT P6SM BKN180
     FM111100 19010G18KT P6SM BKN180
     FM111700 19018G32KT P6SM SCT050 BKN080
     FM112000 20016G28KT 5SM -SHSN SCT025 OVC050
     FM120100 19012G22KT P6SM FEW050 SCT140=
KUNV 110539Z 1106/1206 31003KT 1 1/2SM BR VCSH OVC006
      WS015/20040KT
     FM110800 16007G15KT 6SM -DZ BR OVC012 WS015/20040KT
     FM111300 17013G27KT 3SM RA BR BKN009 OVC016
      WS012/19045KT=
KVRB 110538Z 1106/1206 13004KT P6SM SCT015
     FM110800 16005KT 5SM BR BKN010
     FM111400 18011G15KT P6SM SCT015 BKN150
     FM111600 19017G24KT P6SM SCT025 BKN080
     FM120000 21009KT P6SM SCT025 BKN150=
PABR 110539Z 1106/1206 30012KT 6SM BR OVC008
      TEMPO 1106/1108 1SM BR OVC004
     FM110800 28010KT 5SM BR OVC008=
PABT 110539Z 1106/1206 00000KT P6SM SKC=
PAFA 110539Z 1106/1212 00000KT P6SM FEW002 FEW090=

0000115500
333
FTUS80 KWBC 110542 RRQ
TAF
PAGA 110539Z 1106/1206 00000KT P6SM SKC=
TAF PAKN 110534Z 1106/1206 34005KT P6SM FEW004 SCT025 BKN120
     FM112100 04011KT 3SM -SN OVC025=
PAMC 110539Z 1106/1206 00000KT P6SM SCT100=
PAOM 110539Z 1106/1206 04015KT P6SM FEW030 SCT100=
PAOR 110539Z 1106/1206 VRB04KT 1 1/2SM -SN OVC020
      TEMPO 1106/1110 4SM -SN BR
     FM111000 00000KT 2SM -SN BR OVC020=
PAOT 110539Z 1106/1206 02005KT P6SM SKC=
PASC 110539Z 1106/1206 25020KT 1SM -SN BR OVC010=
PATA 110539Z 1106/1206 00000KT P6SM SKC=
PAUN 110539Z 1106/1206 09010KT P6SM SKC=
TAF PGSN 110538Z 1106/1206 05014G24KT P6SM VCSH SCT020 BKN120
     FM110800 06011KT P6SM VCSH SCT020=
TAF PGUM 110538Z 1106/1212 06014KT P6SM VCSH SCT020
     FM110800 06011KT P6SM FEW020=
TAF PKMJ 110538Z 1106/1206 06012KT P6SM VCSH FEW015 SCT050=
TAF PKWA 110538Z 1106/1206 07013KT P6SM VCSH SCT025=
TAF PTKK 110538Z 1106/1206 04011KT P6SM VCSH SCT014 SCT120=
TAF PTRO 110538Z 1106/1206 07013G23KT P6SM VCSH SCT015CB BKN120
      TEMPO 1106/1110 -SHRA BKN015CB BKN120=
TAF PTYA 110538Z 1106/1206 07012G22KT P6SM VCSH SCT020 BKN120=

0000011600
334
SPUS43 KWBC 110542
SPECI
KPIA 110538Z AUTO 20009KT 1/2SM R13/5000FT -RA FG VV002 04/03
A2951=

00000000