0000167200
075
SAUS71 KWBC 110800 RRA
METAR
KCAE 110756Z 00000KT 1/2SM FG VV002 10/10 A2998=
KCAK 110751Z 18010KT 10SM FEW021 OVC030 10/08 A2969=
KCAR 110754Z AUTO 17003KT 10SM OVC015 M09/M13 A3017=
KCEF 110758Z AUTO 33002KT 1 1/4SM R23/4500FT -DZ BR OVC002 00/00
     A3015=
KCHO 110753Z AUTO 00000KT 2 1/2SM -RA BR OVC009 03/02 A3001=
KCHS 110756Z 21008KT 10SM BKN006 OVC009 19/18 A3003=
KCKB 110753Z AUTO 00000KT 10SM BKN055 08/06 A2981=
KCLE 110751Z 19013G20KT 10SM BKN019 BKN036 10/07 A2967=
KCLT 110752Z 31004KT 1/4SM R18C/4500V5500FT -RA BR VV002 06/06
     A3001=
KCMH 110751Z 17008KT 4SM RA BR FEW026 BKN060 OVC075 11/08
     A2969=
KCRW 110754Z 00000KT 10SM BKN047 OVC055 10/09 A2977=
KCVG 110752Z 18010KT 4SM RA BR FEW007 OVC075 10/10 A2967=
KDAN 110753Z AUTO 00000KT 3SM -RA BR OVC005 04/03 A3002=
KDAY 110756Z 19013KT 10SM -RA BKN007 BKN020 OVC080 10/09 A2963=
KDCA 110752Z 27008KT 1SM R01/5000VP6000FT -RA BR OVC002 04/02
     A3006=
KDUJ 110756Z AUTO 13011G17KT 9SM SCT044 OVC055 06/04 A2981=
KECG 110754Z AUTO 18012G20KT 10SM FEW007 BKN017 OVC023 18/17
     A3008=
KEKN 110751Z AUTO 17008KT 10SM BKN100 OVC120 13/09 A2985=
KELM 110753Z AUTO 01004KT 7SM OVC009 03/02 A2991=
KERI 110751Z AUTO 17022G29KT 10SM FEW120 09/05 A2966=
KEWB 110753Z AUTO 19005KT 1 3/4SM R05/4000VP6000FT BR FEW003
     BKN046 OVC050 08/07 A3020=
KEWN 110754Z AUTO 20006KT 10SM OVC016 20/18 A3007=
KEWR 110751Z 01004KT 1SM BR OVC003 02/02 A3011=
KFAY 110753Z AUTO 14005KT 1 1/4SM BR OVC007 17/17 A3001=
KFLO 110753Z 23004KT 9SM FEW005 OVC020 17/16 A3002=
KFRG 110753Z AUTO 16009KT 7SM -RA SCT050 OVC060 08/08 A3014=

0000169600
076
SAUS71 KWBC 110800 RRB
METAR
KFVE 110753Z AUTO 18004KT 10SM OVC012 M07/M09 A3013=
KGFL 110753Z AUTO 00000KT 1 3/4SM -FZRA BR OVC006 M01/M02
     A3009=
KGON 110756Z AUTO 00000KT 1/2SM R05/P6000FT -RA FG VV003 04/04
     A3018=
KGSO 110754Z 04004KT 2SM FG OVC002 04/03 A2998=
KGSP 110753Z AUTO 03004KT 2 1/2SM BR BKN004 OVC008 07/07 A2996=
KHFD 110753Z AUTO 00000KT 1SM -RA BR OVC004 02/01 A3017=
KHKY 110753Z AUTO 00000KT 1 1/2SM BR FEW003 BKN008 OVC013 06/06
     A2998=
KHPN 110756Z 13004KT 1/4SM R16/2200V2800FT -RA FG VV002 02/02
     A3011=
KHTS 110751Z 15008KT 10SM CLR 15/10 A2970=
KHVN 110753Z AUTO 03003KT 1/4SM R02/1800V2000FT FG VV002 03/02
     A3015=
KHYA 110756Z 19007KT 3/4SM BR VV002 07/06 A3021=
KIAD 110752Z 00000KT 3/4SM R01R/P6000FT BR BKN004 BKN007 OVC018
     02/02 A3002=
KIAG NIL=
KILG 110751Z AUTO 00000KT 3/4SM R01/P6000FT BR VV002 04/04
     A3005=
KILM 110753Z AUTO 18011KT 10SM SCT036 19/16 A3005=
KINT 110754Z AUTO 36003KT 1 1/4SM -RA BR OVC002 04/03 A3001=
KIPT 110754Z AUTO 05007KT 6SM BR OVC019 02/01 A2998=
KISP 110756Z AUTO 16010KT 9SM -RA FEW030 SCT038 OVC065 09/08
     A3012=
KJFK 110751Z 09003KT 4SM BR SCT006 BKN045 OVC060 08/07 A3013=
KJST 110754Z AUTO 18011G19KT 10SM BKN007 OVC046 06/06 A2985=
KLBE NIL=
KLCK 110755Z AUTO 16006KT 7SM RA SCT022 BKN034 OVC060 10/08
     A2969=
KLEB 110753Z AUTO 04003KT 7SM OVC003 M02/M04 A3015=
KLGA 110751Z 09007KT 1/4SM R04/3000VP6000FT -RA FG VV002 02/01
     A3011=
KLUK 110753Z AUTO 23004KT 1 1/4SM R21L/3500V4000FT -RA BR FEW034
     FEW044 OVC080 08/08 A2969=
KLWM 110754Z AUTO 00000KT 1 1/2SM -RA BR OVC005 02/01 A3022=

0000166100
077
SAUS71 KWBC 110800 RRC
METAR
KLYH 110754Z AUTO 00000KT 3/4SM R04/2800V3000FT BR VV002 03/03
     A3002=
KMDT 110756Z 00000KT 1/2SM -RA FG VV003 01/00 A3002=
KMFD 110752Z AUTO 18016G24KT 10SM -RA OVC012 09/08 A2966=
KMGW 110753Z AUTO 18006KT 10SM BKN055 15/09 A2980=
KMHT 110753Z 35005KT 1 1/4SM R35/6000VP6000FT -FZDZ BR OVC003
     M01/M02 A3019=
KMIV 110754Z AUTO 15008KT 10SM SCT022 BKN029 OVC060 12/11
     A3006=
KMMU 110755Z AUTO 33003KT 2SM BR OVC003 02/01 A3011=
KMRB 110753Z AUTO 31003KT 1/4SM FG VV002 02/01 A3000=
KMSS 110753Z AUTO 05007KT 6SM BR CLR M04/M06 A2995=
KMTN 110800Z AUTO 00000KT 1/2SM FG OVC001 03/03 A3005=
KMYR 110755Z AUTO 16010KT 9SM FEW021 SCT035 OVC046 16/15 A3004=
KNKT 110754Z 19007G16KT 10SM BKN015 OVC022 20/18 A3006=
KOQU NIL=
KORF 110751Z AUTO 20008G16KT 3SM +RA BR SCT007 OVC037 17/16
     A3006=
KORH 110754Z AUTO 19005KT 1/2SM R11/2800V3000FT FG VV002 03/03
     A3015=
KPHF 110754Z 15013G18KT 5SM -RA SCT007 BKN034 OVC049 18/16
     A3004=
KPHL 110754Z 00000KT 1 1/2SM BR OVC002 03/02 A3006=
KPIT 110751Z 14005KT 10SM SCT055 BKN160 OVC230 08/06 A2975=
KPKB 110753Z AUTO 16009KT 10SM FEW039 OVC055 14/09 A2976=
KPLB NIL=
KPOU 110753Z 00000KT 1SM -RA BR OVC006 01/00 A3011=
KPQI 110755Z AUTO 18005KT 10SM FEW020 M12/M14 A3021=
KPSM 110758Z 34003KT 1/2SM R34/5500FT -FZDZ FZFG OVC002 00/00
     A3021=
KPVD 110751Z 00000KT 1/4SM R05/1200V1400FT FG VV002 02/01
     A3020=
KPWM 110751Z AUTO 35003KT 6SM BR SCT008 OVC011 M01/M02 A3023=
KRDG 110754Z 00000KT 2SM -RA BR OVC003 01/01 A3004=
KRDU 110751Z 00000KT 1/2SM BR OVC002 08/08 A3001=

0000028200
078
FTCN32 CWAO 110800 AAA
TAF AMD CYMM 110806Z 1108/1119 12005KT P6SM SCT012 BKN040 TEMPO
     1108/1116 4SM -SN BKN008
    FM111600 10012KT P6SM -SN SCT012 BKN120 OVC220 TEMPO 1117/1119
     2SM -SN VV012
    RMK FCST BASED ON AUTO OBS. NXT FCST BY 111300Z=

0000094000
079
SAUS71 KWBC 110800 RRD
METAR
KRIC 110754Z 30004KT 1/2SM R34/2400V3000FT FG VV002 05/04
     A3003=
KROA 110754Z 00000KT 1/2SM FG VV003 03/03 A3002=
KROC 110754Z 18016G24KT 10SM OVC080 08/04 A2977=
KRWI 110753Z AUTO 16004KT 1 1/2SM BR OVC002 16/16 A3003=
KSAV 110753Z AUTO 19004KT 1/2SM R01/3000V3500FT FG VV002 17/17
     A3002=
KSBY 110754Z AUTO 15009KT 10SM -RA SCT010 SCT042 BKN100 14/12
     A3005=
KSCH NIL=
KSLK 110751Z AUTO 00000KT 1/4SM FZFG BKN002 BKN027 M06/M06
     A2992=
KSWF NIL=
KSYR 110754Z 08006KT 10SM SCT020 BKN034 OVC049 04/02 A2989=
KTEB 110751Z 03004KT 3SM -DZ OVC003 02/01 A3010=
KTOL 110752Z 19008KT 8SM -RA OVC004 05/05 A2958=
KTTN 110753Z AUTO 06005KT 1SM BR OVC002 03/02 A3007=
KUCA NIL=
KWRI 110758Z AUTO 13008KT 10SM BKN034 09/09 A3005=
KYNG 110751Z 15010G17KT 10SM FEW032 BKN045 08/06 A2970=
KZZV 110753Z AUTO 17004KT 10SM BKN025 OVC029 10/08 A2971=

0000013400
080
SACN62 CYXX 110800
METAR CYXX 110800Z 03007KT 3SM -RA SCT015 OVC025 05/ A2943 RMK SF3NS5
 DP 4.0 VIA CYXC SLP967=

0000168900
081
SAUS72 KWBC 110800
METAR
KABI 110752Z 00000KT 10SM CLR 04/M03 A2993=
KABQ 110752Z 35007KT 10SM FEW250 04/M10 A3015=
KABY 110753Z 18013G18KT 7SM BKN004 OVC009 19/19 A2998=
KACT 110751Z 35007KT 10SM CLR 08/06 A2987=
KAEX 110753Z 25005KT 10SM FEW021 18/17 A2981=
KAFW 110753Z 24006KT 10SM SCT150 06/02 A2986=
KAHN 110751Z AUTO 09006KT 1/2SM -RA FG VV002 07/07 A2993=
KALI 110753Z AUTO 25004KT 10SM CLR 12/11 A2990=
KAMA 110753Z AUTO 22014KT 10SM CLR M02/M12 A2997=
KANB 110753Z AUTO 00000KT 10SM OVC011 13/12 A2984=
KAPF 110753Z 12005KT 7SM BKN002 BKN009 21/21 A3006=
KATL 110752Z 14005KT 1/4SM BR OVC003 09/09 A2992=
KAUS 110753Z 00000KT 10SM FEW150 14/12 A2988=
KBFM 110753Z AUTO 17007KT 1/2SM FG VV002 17/16 A2991=
KBHM 110753Z 16008G16KT 10SM OVC003 15/14 A2980=
KBNA 110753Z 17003KT 9SM -RA SCT037 BKN047 OVC060 12/11 A2970=
KBPT 110753Z AUTO 22004KT 5SM BR SCT006 BKN018 18/17 A2985=
KBQK 110755Z AUTO 19007KT 5SM OVC003 18/18 A3004=
KBRO 110753Z 23007KT 1 1/4SM BR OVC002 19/18 A2993=
KBTR 110753Z 21014KT 10SM -RA BKN010 OVC014 21/19 A2983=
KCEW 110753Z AUTO 17007KT 10SM OVC005 19/18 A2995=
KCHA 110753Z 18006KT 2SM OVC006 11/09 A2982=
KCLL 110753Z AUTO 24007KT 7SM CLR 14/13 A2985=
KCNM 110753Z AUTO 34011KT 10SM CLR 08/M08 A3001=
KCRP 110751Z 24003KT 1/4SM FG SCT001 BKN250 14/13 A2991=
KCSG 110751Z AUTO 17004KT 1/4SM FG VV002 14/13 A2991=
KCSV 110753Z AUTO 17013G20KT 6SM BR OVC002 11/11 A2976=
KDAB 110753Z 00000KT 9SM SCT016 SCT075 21/19 A3006=
KDAL 110753Z 23004KT 10SM FEW110 BKN140 09/04 A2985=
KDFW 110753Z 22009KT 10SM BKN150 07/03 A2986=
KDHN 110753Z AUTO 18011KT 6SM BR OVC002 18/18 A2998=

0000168300
082
SAUS72 KWBC 110800 RRA
METAR
KDLF 110758Z AUTO 01004KT 10SM CLR 08/07 A2993=
KDMN 110753Z AUTO 27007KT 10SM CLR 03/M08 A3014=
KELP 110751Z VRB03KT 10SM CLR 11/M08 A3008=
KESF 110753Z AUTO 25008KT 10SM CLR 18/17 A2982=
KEYW 110753Z AUTO 12007KT 10SM SCT017 BKN025 23/22 A3006=
KFLL 110753Z 15011KT 10SM SCT019 SCT045 23/22 A3008=
KFSM 110753Z 26007KT 10SM CLR 02/01 A2977=
KFTW 110753Z 00000KT 10SM CLR 08/03 A2987=
KFTY 110753Z 00000KT 10SM -RA BKN007 BKN010 OVC015 10/09 A2990=
KGGG 110753Z AUTO 00000KT 10SM CLR 10/08 A2984=
KGLS 110752Z AUTO 23010KT 4SM BR OVC004 18/18 A2988=
KGNV 110753Z AUTO 00000KT 1/4SM FG VV001 18/18 A3005=
KGPT 110753Z AUTO 18010KT 1/4SM FG VV002 17/16 A2988=
KGUP 110753Z AUTO 29006KT 10SM CLR M03/M10 A3021=
KGWO 110753Z AUTO 23009G16KT 10SM SCT018 BKN024 OVC046 17/16
     A2973=
KHOT 110753Z AUTO 00000KT 10SM CLR 07/06 A2977=
KHOU 110753Z 00000KT 7SM BCFG SCT006 17/17 A2986=
KHRL 110752Z 21008KT 1/2SM FG VV002 19/18 A2991=
KHRO 110753Z AUTO 28011G19KT 10SM CLR 06/M01 A2967=
KHSV 110753Z AUTO 17015G20KT 10SM VCTS OVC009 14/13 A2971=
KIAH 110753Z 21004KT 10SM FEW010 17/17 A2985=
KINK 110753Z AUTO 01007KT 10SM CLR 07/M08 A3001=
KJAN 110754Z AUTO 25015G21KT 3SM +RA BR SCT011 BKN022 OVC047 19/18
     A2976=
KJAX 110756Z 18008KT 2SM BR FEW000 OVC003 19/19 A3004=
KJBR 110753Z AUTO 27007KT 10SM SCT110 10/08 A2969=
KLBB 110753Z 32006KT 10SM CLR M01/M09 A2997=
KLCH 110753Z AUTO 24008KT 1 1/2SM BR OVC002 18/17 A2985=
KLFT 110753Z AUTO 22013G20KT 10SM -RA OVC008 21/ A2985=
KLIT 110753Z 27004KT 10SM FEW100 09/04 A2975=
KLRD 110756Z AUTO 00000KT 10SM CLR 13/12 A2994=

0000170800
083
SAUS72 KWBC 110800 RRB
METAR
KLRU 110755Z AUTO 32006KT 10SM CLR 01/M09 A3012=
KMAF 110753Z AUTO 29011KT 10SM CLR 08/M07 A2998=
KMCN 110753Z AUTO 16005KT 1/2SM FG VV002 13/13 A2995=
KMCO 110753Z 15006KT 10SM BKN070 22/20 A3006=
KMEI 110758Z AUTO 19016KT 10SM VCTS -RA SCT010 BKN015 OVC019 18/18
     A2976=
KMEM 110754Z 27008KT 10SM FEW015 OVC080 13/11 A2969=
KMFE 110753Z AUTO 00000KT 1/4SM FG VV001 16/14 A2992=
KMGM 110753Z AUTO 17009G16KT 10SM OVC007 19/18 A2986=
KMIA 110753Z 13004KT 10SM FEW022 23/22 A3009=
KMKL 110753Z AUTO 22007KT 10SM FEW016 OVC060 13/12 A2968=
KMLB 110753Z AUTO 00000KT 8SM CLR 21/21 A3008=
KMLC 110753Z AUTO 00000KT 10SM CLR 04/M01 A2982=
KMLU 110753Z AUTO 26007KT 10SM OVC016 18/16 A2979=
KMOB 110756Z AUTO 19013KT 8SM OVC003 19/19 A2990=
KMSL 110753Z AUTO 19009KT 6SM RA BR FEW018 SCT055 OVC090 16/13
     A2970=
KMSY 110753Z 19009KT 6SM BR SCT003 OVC006 19/19 A2987=
KNEW 110753Z AUTO 19013KT 10SM SCT010 SCT065 19/18 A2987=
KNGP 110756Z AUTO 23007KT 6SM BR CLR 17/16 A2990=
KOKC 110752Z 29009KT 10SM FEW200 04/M04 A2985=
KPBI 110753Z 15008KT 10SM SCT010 BKN250 24/22 A3007=
KPDK 110753Z AUTO 14005KT 10SM -RA OVC005 09/08 A2991=
KPFN NIL=
KPIE 110753Z AUTO 15007KT 10SM CLR 21/20 A3004=
KPNS 110753Z AUTO 18010KT 1/4SM R17/1400FT FG VV002 19/18
     A2992=
KROW 110751Z AUTO 17006KT 10SM CLR 07/M11 A3001=
KRSW 110753Z 14007KT 3SM BR OVC003 21/21 A3006=
KSAT 110751Z 00000KT 10SM FEW250 13/12 A2991=
KSFB 110753Z AUTO 15003KT 1SM BR VV011 19/19 A3007=
KSHV 110756Z 32005KT 10SM SCT110 12/10 A2982=
KSJT 110751Z AUTO 28010KT 10SM CLR 10/M05 A2994=
KSRQ 110753Z 15006KT 10SM CLR 21/19 A3004=

0000114000
084
SAUS72 KWBC 110800 RRC
METAR
KSSI 110753Z AUTO 17004KT 1SM BR VV002 15/14 A3004=
KTCC 110753Z AUTO 25008KT 10SM CLR 01/M12 A2997=
KTCL 110753Z AUTO 18012G18KT 9SM OVC005 17/16 A2976=
KTCS 110753Z AUTO 30016KT 10SM CLR 08/M10 A3010=
KTLH 110753Z AUTO 16004KT 1/2SM FG VV002 18/17 A3001=
KTPA 110753Z 16003KT 10SM FEW045 BKN130 21/20 A3005=
KTRI 110753Z 00000KT 10SM SCT065 BKN090 09/08 A2985=
KTUL 110753Z 27007KT 10SM CLR 04/M01 A2979=
KTUP 110753Z AUTO 27007KT 3SM +RA SCT006 BKN011 OVC046 15/
     A2971=
KTXK 110753Z AUTO 00000KT 10SM CLR 08/07 A2981=
KTYR 110753Z 00000KT 10SM CLR 10/09 A2987=
KTYS 110753Z VRB03KT 1/4SM R23R/1400V2800FT -RA FG VV004 07/07
     A2980=
KVCT 110751Z AUTO 00000KT 1/4SM FG VV001 14/13 A2990=
KVLD 110753Z AUTO 18009KT 10SM OVC004 21/19 A3001=
KVRB 110753Z 15003KT 1 1/2SM BR CLR 19/19 A3008=
TIST 110753Z 09004KT 10SM CLR 23/20 A3004=
TISX 110753Z AUTO 03005KT 10SM BKN080 22/19 A3004=
TJBQ 110750Z 11007KT 10SM FEW010 SCT040 23/ A3007=
TJMZ NIL=
TJPS NIL=
TJSJ 110756Z 14005KT 10SM FEW012 SCT021 SCT043 24/22 A3005=
TKPK NIL=
TNCM NIL=

0000033000
085
SNVB01 KWBC 111700 RRA
BBXX
SHIP 11174 99352 11406 46/// /3618 10085 20017 40227 56017 7////
 8//// 22252 0//// 2////=
3FZK3 11174 99352 11406 46/// /3618 10085 20017 40227 56017 7////
 8//// 22252 0//// 2////=
52202 11171 99137 11448 46/// ///// 1//// 91700 22200 00282 10806
 20805 300// 41101 70029=
0000024400
086
SNVC01 KWBC 111700
BBXX
9HJD9 11174 99485 50645 41999 /3320 1//// 2//// 40160 54/// 7////
 8//// 22234 00120 2//// 3//// 4//// 5//// 6//// 8//// ICE /////=
32012 11171 99199 50853 46/// ///// 1//// 91650 22200 11604 70022=
0000369400
087
SNVD01 KWBC 111700 RRA
BBXX
44098 11171 99428 70702 46/// ///// 1//// 91651 22200 00059 10503
 20503 70016=
44056 11171 99362 70757 46/// ///// 1//// 91653 22200 00090 10803
 20803 310// 41101 70015=
44097 11171 99410 70711 46/// ///// 1//// 91655 22200 00069 10604
 20604 70021=
WDJK 11174 99374 71586 41598 41714 10128 20114 40298 57013 70300
 841// 22283 00140 2//// 3//// 4//// 5//// 6//// 80120 ICE /////=
C6VG7 11174 99233 70831 41898 31913 10260 2//// 40187 53005 7//11
 831// 22214 00270 20502 308// 41002 5//02 6//// 8//// ICE /////=
41112 11171 99307 70813 46/// ///// 1//// 91652 22200 00115 10802
 20802 70012=
42099 11171 99273 70843 46/// ///// 1//// 91652 22200 00221 10502
 20502 70009=
41114 11171 99276 70802 46/// ///// 1//// 91655 22200 00236 10803
 20803 307// 41101 70013=
41108 11171 99337 70780 46/// ///// 1//// 91659 22200 00117 10704
 20703 70018=
46239 11171 99363 71221 46/// ///// 1//// 91659 22200 00133 11407
 21003 330// 41407 70037=
51205 11171 99210 71564 46/// ///// 1//// 91651 22200 00248 11005
 21004 301// 41103 70027=
46221 11171 99339 71186 46/// ///// 1//// 91655 22200 00154 11402
 21001 326// 41402 70011=
46214 11171 99379 71235 46/// ///// 1//// 91656 22200 00113 11407
 21003 331// 41406 70033=
46213 11171 99403 71247 46/// ///// 1//// 91654 22200 00121 11307
 21004 331// 41305 70036=
46231 11171 99327 71174 46/// ///// 1//// 91644 22200 00154 11302
 21001 329// 41302 70012=
46229 11171 99438 71246 46/// ///// 1//// 91649 22200 00093 11309
 20807 328// 41305 70044=
46218 11171 99345 71208 46/// ///// 1//// 91659 22200 00133 11506
 21003 331// 41505 70032=
46224 11171 99332 71175 46/// ///// 1//// 91642 22200 00154 11302
 20801 325// 41301 70008=
SHIP 11174 99464 70601 46/// /2010 10018 20018 40209 58022 7////
 8//// 22211 0//// 2////=
VXKF 11174 99464 70601 46/// /2010 10018 20018 40209 58022 7////
 8//// 22211 0//// 2////=
46236 11171 99368 71219 46/// ///// 1//// 91652 22200 00123 11304
 21002 329// 41303 70018=
46244 11171 99409 71244 46/// ///// 1//// 91651 22200 00108 11206
 21004 330// 41205 70031=
46240 11171 99366 71219 46/// ///// 1//// 91651 22200 00126 11303
 21002 335// 41303 70016=
46237 11171 99378 71226 46/// ///// 1//// 91701 22200 00110 11404
 21002 328// 41404 70021=
SHIP 11174 99495 70561 46/// /0000 11022 21077 40173 56018 7////
 8//// 22200 00033 2////=
SHIP 11174 99121 70689 46/// /1213 10285 20209 40159 58017 7////
 8//// 22200 0//// 2////=
SHIP 11174 99477 70700 46/// /2406 11022 2//// 40045 58077 7////
 8//// 22212 00016 2////=
SHIP 11174 99455 70735 46/// /1904 10054 20044 4//// 5//// 7////
 8//// 22200 0//// 2////=
SHIP 11174 99455 70735 46/// /0000 10051 20051 49988 58065 7////
 8//// 22241 0//// 2////=
SHIP 11174 99487 71234 46/// /1817 10091 20038 49928 51007 7////
 8//// 22231 00082 2////=
SHIP 11174 99489 70580 46/// /2103 11013 21059 40187 58024 7////
 8//// 22200 0//// 2////=
SHIP 11174 99462 70602 46/// /1912 10026 20037 40209 58032 7////
 8//// 22200 0//// 2////=
SHIP 11174 99492 70599 46/// /2413 11031 21057 4//// 58846 7////
 8//// 22263 0//// 2////=
SHIP 11174 99623 70748 46/// /1612 11205 21249 40088 53004 7////
 8//// 22200 0//// 2////=
SHIP 11174 99534 71293 46/// /3201 10021 20024 49836 53004 7////
 8//// 22200 0//// 2////=
SHIP 11174 99468 70712 46/// /0501 11007 21009 40037 58078 7////
 8//// 22200 00026 2////=
SHIP 11174 99453 70591 46/// /2117 10022 20017 40235 58027 7////
 8//// 22224 0//// 2////=
SHIP 11174 99483 70465 46/// /2927 11003 21038 40133 58022 7////
 8//// 22221 0//// 2////=
0000370100
088
SNVD01 KWBC 111700 RRB
BBXX
SHIP 11174 99485 70689 46/// /0813 11024 21026 40070 58093 7////
 8//// 22253 01004 2////=
SHIP 11174 99451 70609 46/// /1920 10020 20025 40218 58032 7////
 8//// 22264 0//// 2////=
SHIP 11174 99505 71278 46/// /0510 10052 20039 49828 56018 7////
 8//// 22200 0//// 2////=
SHIP 11174 99463 70725 46/// /0508 10008 20004 40000 58072 7////
 8//// 22200 0//// 2////=
SHIP 11174 99487 71235 46/// /1607 10087 20058 49922 58002 7////
 8//// 22200 0//// 2////=
SHIP 11174 99453 70660 46/// /1409 10043 20041 40152 58055 7////
 8//// 22200 0//// 2////=
SHIP 11174 99513 70568 46/// /3103 11038 21087 40162 56014 7////
 8//// 22200 0//// 2////=
SHIP 11174 99477 70699 46/// /2204 11034 21037 40049 58076 7////
 8//// 22213 00000 2////=
SHIP 11174 99445 70629 46/// /1715 10028 20027 40210 58045 7////
 8//// 22252 0//// 2////=
SHIP 11174 99474 70619 46/// /2205 11011 21012 40188 58039 7////
 8//// 22200 0//// 2////=
VOKJ 11174 99455 70735 46/// /0000 10051 20051 49988 58065 7////
 8//// 22241 0//// 2////=
VOKF 11174 99455 70735 46/// /1904 10054 20044 4//// 5//// 7////
 8//// 22200 0//// 2////=
VCLM 11174 99623 70748 46/// /1612 11205 21249 40088 53004 7////
 8//// 22200 0//// 2////=
VOLG 11174 99453 70591 46/// /2117 10022 20017 40235 58027 7////
 8//// 22224 0//// 2////=
SHIP 11174 99493 71231 46/// /1406 10075 20033 49942 53025 7////
 8//// 22200 0//// 2////=
XJAB 11174 99453 70660 46/// /1409 10043 20041 40152 58055 7////
 8//// 22200 0//// 2////=
VAAP 11174 99492 70599 46/// /2413 11031 21057 4//// 58846 7////
 8//// 22263 0//// 2////=
CGCX 11174 99495 70561 46/// /0000 11022 21077 40173 56018 7////
 8//// 22200 00033 2////=
CGCC 11174 99477 70699 46/// /2204 11034 21037 40049 58076 7////
 8//// 22213 00000 2////=
CG2958 11174 99505 71278 46/// /0510 10052 20039 49828 56018 7////
 8//// 22200 0//// 2////=
VOCJ 11174 99462 70602 46/// /1912 10026 20037 40209 58032 7////
 8//// 22200 0//// 2////=
CGHL 11174 99513 70568 46/// /3103 11038 21087 40162 56014 7////
 8//// 22200 0//// 2////=
VCBW 11174 99477 70700 46/// /2406 11022 2//// 40045 58077 7////
 8//// 22212 00016 2////=
CGSB 11174 99468 70712 46/// /0501 11007 21009 40037 58078 7////
 8//// 22200 00026 2////=
CGDX 11174 99485 70689 46/// /0813 11024 21026 40070 58093 7////
 8//// 22253 01004 2////=
CGJK 11174 99487 71234 46/// /1817 10091 20038 49928 51007 7////
 8//// 22231 00082 2////=
VCWL 11174 99489 70580 46/// /2103 11013 21059 40187 58024 7////
 8//// 22200 0//// 2////=
CGDR 11174 99534 71293 46/// /3201 10021 20024 49836 53004 7////
 8//// 22200 0//// 2////=
CGBN 11174 99451 70609 46/// /1920 10020 20025 40218 58032 7////
 8//// 22264 0//// 2////=
CGDT 11174 99463 70725 46/// /0508 10008 20004 40000 58072 7////
 8//// 22200 0//// 2////=
VAAZ 11174 99483 70465 46/// /2927 11003 21038 40133 58022 7////
 8//// 22221 0//// 2////=
CFN3031 11174 99474 70619 46/// /2205 11011 21012 40188 58039
 7//// 8//// 22200 0//// 2////=
8PSH 11174 99121 70689 46/// /1213 10285 20209 40159 58017 7////
 8//// 22200 0//// 2////=
CGBR 11174 99487 71235 46/// /1607 10087 20058 49922 58002 7////
 8//// 22200 0//// 2////=
C6SI6 11174 99493 71231 46/// /1406 10075 20033 49942 53025 7////
 8//// 22200 0//// 2////=
CG3029 11174 99445 70629 46/// /1715 10028 20027 40210 58045 7////
 8//// 22252 0//// 2////=
46232 11171 99325 71174 46/// ///// 1//// 91703 22200 00161 11303
 21002 328// 41302 70014=
46041 11171 99473 71247 46/// ///15 1//// 49931 58033 91650 22200
 00087 11011 20707 3//// 41009 70055 333 91219 555 11164 22176=
0000369700
089
SNVD01 KWBC 111700 RRC
BBXX
41043 11171 99211 70650 46/// ///10 1//// 40206 58020 91650 22200
 00264 10806 20805 307// 41103 70028 333 91212 555 11108 22115
 8//12 91601=
41036 11171 99342 70769 46/// /2012 10223 20200 40120 58025 91650
 22200 00210 10705 20705 70027 333 91215 555 11134 22145 31638
 41915 61649 197125 196119 196112 196108 195115 194118=
VCRG 11174 99464 70619 46/// /1714 10003 21005 40198 58031 7////
 8//// 22243 00026 2////=
SHIP 11174 99464 70619 46/// /1714 10003 21005 40198 58031 7////
 8//// 22243 00026 2////=
44013 11171 99423 70707 46/// /1909 10092 20092 40097 58054 91650
 22200 00048 10502 20502 70008 333 91212 555 11098 22112 31638
 41913 61649 184087 182091 176087 173082 169080 171074=
46088 11171 99483 71232 46/// /1304 10087 20043 49933 50000 91650
 22200 00074 10401 20401 70004 333 91205 555 11044 22052 31622
 42407 61649 130036 138021 235037 217027 217028 225037=
46069 11171 99337 71202 46/// /3204 10141 40216 53015 91650 22200
 00141 11405 20401 3//// 41405 70023 333 91205 555 11046 22048
 31618 43207 61649 320043 319049 319055 316057 315048 312045=
46126 11171 99540 71666 46/// /2405 10039 49798 91636 22200 00048
 1//00 70002 333 91207 555 11058 22063=
46126 11171 99540 71666 46/// /2306 10041 49799 91645 22200 00048
 1//00 70002 333 91208 555 11062 22067=
46126 11171 99540 71666 46/// /2405 10039 49798 91640 22200 00048
 1//00 70002 333 91207 555 11058 22063=
46126 11171 99540 71666 46/// /2306 10039 49798 91642 22200 00048
 1//00 70002 333 91208 555 11062 22067=
41009 11171 99285 70802 46/// /2009 10241 20210 40178 58006 91650
 22200 00240 10903 20703 307// 40902 70016 333 91211 555 11096
 22103 31557 42012 61649 197091 197094 199096 202091 201095
 200100=
51101 11171 99243 71621 46/// /0611 10228 20200 40136 56004 91650
 22200 00236 11108 20704 306// 41107 70041 333 91214 555 11115
 22122 31622 40615 61649 059108 059114 058117 048108 060100
 053100=
41040 11171 99145 70530 46/// /0609 10253 20201 40158 58021 91650
 22200 00262 11006 20804 307// 41004 70028 333 91210 555 11095
 22100 31604 40611 61649 062090 062085 066090 065093 064094 062091
 80610 91616=
41047 11171 99275 70715 46/// /1409 10241 20229 40226 58021 91650
 22200 00256 10805 20804 312// 41003 70023 333 91210 555 11090
 22095 31635 41411 61649 135085 133089 133079 137081 139082 141081
 81309 91633=
42003 11171 99260 70856 46/// /2107 10259 40172 50000 91650 22200
 00252 10502 20502 316// 40801 70011 333 91208 555 11076 22083
 31553 42009 61649 206070 204070 205072 201074 199075 196075 82008
 91611=
42039 11171 99288 70860 46/// /2108 10220 20220 40146 58004 91650
 22200 00212 10502 20502 70011 333 91209 555 11084 22092 31554
 42009 61649 207077 209075 214070 216073 209079 207078 82108
 91603=
44066 11171 99396 70726 46/// /1710 10143 20143 40097 58053 91650
 22200 00111 10604 20604 315// 40901 70018 333 91211 555 11105
 22117 61649 171098 171104 174091 171096 164112 168112=
41048 11171 99320 70695 46/// /1411 10210 20171 40242 58027 91650
 22200 00213 10604 20604 312// 40902 70022 333 91214 555 11120
 22128 31647 41414 61649 144112 143111 143110 141110 139102 138108
 81412 91627=
46078 11171 99560 71526 46/// /1408 10021 20021 49854 58046 91650
 22200 00044 11105 20603 323// 41104 70026 333 91210 555 11088
 22092 31630 41411 61649 141084 145087 146088 148085 151085 155081
 81509 91620=
46066 11171 99528 71550 46/// /2412 10066 49854 56010 91650 22200
 00053 11007 20705 318// 41004 70034 333 91215 555 11128 22139
 31632 42315 61649 241120 238118 237118 237120 237123 235124 82414
 91604=
0000372500
090
SNVD01 KWBC 111700 RRD
BBXX
42057 11171 99170 70815 46/// /0810 10276 20220 40164 58007 91650
 22200 00275 10904 20804 309// 40902 70020 333 91212 555 11102
 22109 31626 40813 61649 082096 080099 081104 080099 081095 081102
 80811 91630=
42055 11171 99222 70940 46/// /3403 10232 40184 51026 91650 22200
 00234 10702 20401 307// 40702 70010 333 91203 555 11031 22033
 31638 43304 61649 338030 340028 345022 342018 335016 339009 83403
 91638=
46054 11171 99343 71205 46/// /3308 10140 40219 51018 91650 22200
 00129 11305 20703 331// 41304 70025 333 91211 555 11087 22095
 31645 43211 61649 329080 328082 329070 333066 335064 336064=
46025 11171 99337 71191 46/// /0801 10155 20131 40215 53022 91650
 22200 00154 11102 327// 41102 70011 333 91202 555 11014 22016
 31551 40802 61649 077011 085009 068011 039013 052010 065014=
46026 11171 99378 71228 46/// ///02 10106 91650 22200 11505 20401
 330// 41504 70023 333 91203 555 11017 22018=
46029 11171 99462 71245 46/// /1916 10103 20070 49988 58021 91650
 22200 00091 11010 20806 322// 41008 70052 333 91220 555 11167
 22180 31633 41920 61649 191155 189154 190148 192148 194149
 194148=
46060 11171 99606 71468 46/// /2806 10010 49853 91650 22200 00053
 11101 20301 318// 41101 70007 333 91207 555 11061 22063 31629
 42808 61649 283058 282064 281064 281062 279066 277061 82807
 91629=
44065 11171 99404 70737 46/// /1711 10101 40063 58059 91650 22200
 00058 333 91213 555 11121 22135 31607 41715 61649 170111 173109
 171105 171111 168114 173104=
44007 11171 99435 70701 46/// /1909 10079 20074 40086 58063 91650
 22200 00045 10503 20503 70014 333 91211 555 11101 22114 31634
 41912 61649 191093 190101 191091 199077 198062 197056=
BATFR19 11174 99161 70611 46/// /0821 10259 20197 40167 56029
 22222 04267=
BATFR14 11174 99297 70391 46/// /05// 10190 20095 40224 58015
 22254 04224=
BATFR18 11174 99139 70458 46/// /0619 10247 40152 56015 22213
 04259=
BATFR15 11174 99162 70615 46/// /0705 10272 20197 40176 58023
 22200 04270=
BAREU00 11174 99476 70504 46/// ///// 40187 57001 22253=
46061 11171 99602 71468 46/// /3102 10018 49858 58017 91650 22200
 00042 11002 20301 300// 41002 70011 333 91203 555 11024 22024
 31550 43203 61649 314023 320018 329014 288013 294014 314015=
BAREU13 11174 99510 70409 46/// ///// 4//// 22254=
44059 11171 99368 70763 46/// /2306 10200 40080 91650 333 91210
 555 11066 22072=
44058 11171 99376 70763 46/// /1806 10089 40078 91650 333 91207
 555 11068 22074=
44020 11171 99414 70702 46/// ///// 10084 40104 58062 91650 22200
 00020 10402 20402 70011=
44009 11171 99385 70747 46/// ///// 10113 20113 40079 58050 91650
 22200 00066 10603 70017=
44014 11171 99366 70748 46/// ///// 10161 20158 40116 58039 91650
 22200 10906 70031=
41008 11171 99314 70809 46/// /1807 10163 20163 40136 58019 91650
 22200 00143 10803 20602 308// 40802 70013 333 91208 555 11076
 22086 31604 41909 61649 184069 186076 184079 187079 191079
 192076=
44017 11171 99407 70720 46/// /1813 10118 20117 40083 58054 91650
 22200 00073 10705 20704 70023 333 91215 555 11138 22152 31555
 41817 61649 177126 180129 179132 178130 177132 180133=
41013 11171 99334 70777 46/// /1912 10225 20208 40122 58027 91650
 22200 00194 10706 20705 317// 41401 70028 333 91214 555 11125
 22138 31619 41815 61649 191115 190113 188116 185115 183111
 188111=
44027 11171 99443 70673 46/// /1611 10069 20069 40119 58066 91650
 22200 00054 10602 20602 3//// 40901 70011 333 91213 555 11118
 22128 31645 41613 61649 164108 167103 165104 164102 166100
 161097=
44042 11171 99380 70763 46/// /1705 10096 40061 91650 333 91206
 555 11058 22063=
0000362300
091
SNVD01 KWBC 111700 RRE
BBXX
44063 11171 99390 70764 46/// /2104 10087 40045 91650 333 91205
 555 11040 22044=
46087 11171 99485 71247 46/// /1916 10086 20063 49891 58040 91650
 22200 00076 11006 20602 323// 41006 70031 333 91220 555 11168
 22181 31649 42020 61649 192153 191149 192129 193126 190134
 190126=
46015 11171 99428 71248 46/// /2012 10104 40139 53012 91650 22200
 00097 11107 20504 329// 41106 70036 333 91215 555 11127 22137
 31646 42015 61649 202115 205111 204110 206116 205109 204113=
46028 11171 99357 71219 46/// /3210 10120 40231 53015 91650 22200
 00133 333 91213 555 11109 22115 31646 43213 61649 319101 314095
 314090 309093 306089 311095=
44062 11171 99386 70764 46/// /1707 10058 40061 91650 333 91208
 555 11084 22092=
44041 11171 99372 70768 46/// /2207 10176 91650 333 91210 555
 11080 22087=
46042 11171 99368 71225 46/// /3304 10115 40248 52015 91650 22200
 00126 11608 20301 331// 41608 70039 333 91205 555 11043 22044
 31623 43206 61649 328041 328035 331040 336037 339038 339041=
42002 11171 99258 70937 46/// /2703 10240 20238 40183 51014 91650
 22200 00233 10702 20401 310// 40702 70009 333 91203 555 11027
 22029 31559 42504 61649 265027 257027 263029 262033 254034
 245036=
44064 11171 99370 70760 46/// /2108 1//// 40088 91650 333 91211
 555 11096 22104=
46013 11171 99382 71233 46/// /1604 10104 40216 58015 91650 22200
 00109 11506 20401 3//// 41506 70029 333 91206 555 11046 22048
 31637 41507 61649 158044 159045 169041 194032 199032 205031=
46022 11171 99407 71246 46/// /2206 10118 40201 52028 91650 22200
 00110 333 91207 555 11066 22073 31557 42309 61649 222061 216059
 217063 214062 221069 222072=
46050 11171 99446 71245 46/// /2014 10098 40064 58003 91650 22200
 00091 10909 20606 321// 40907 70044 333 91218 555 11150 22161
 61649 198139 197137 197133 196129 197127 199125=
46086 11171 99325 71180 46/// /1302 10143 40208 53013 91650 22200
 00160 11403 329// 41403 70017 333 91202 555 11016 22017 31611
 41103 61649 130016 111008 099011 099016 085012 080010=
46027 11171 99419 71244 46/// /2006 10087 40191 51039 91650 22200
 00091 11407 20603 329// 41407 70037 333 91208 555 11068 22072
 31649 42010 61649 198064 199064 201061 203059 208061 208063=
42040 11171 99292 70882 46/// /2711 10194 40144 50008 91650 22200
 00200 333 91214 555 11111 22118 31648 42714 50143 61649 272109
 264094 268099 267093 254086 255090 71650 82712 91649=
42058 11171 99149 70749 46/// /0910 10273 20238 40147 58009 91650
 22200 00275 10906 20705 310// 40904 70030 333 91212 555 11109
 22116 31636 41013 61649 093101 096105 095105 098096 097103 089105
 81012 91636=
42012 11171 99301 70876 46/// /2510 10180 20180 40135 51013 91650
 22200 00166 10503 20503 70013 333 91212 555 11110 22120 31639
 42413 61649 247103 244104 247099 250088 248084 242087=
46075 11171 99539 71608 46/// /2511 10050 49820 51007 91650 22200
 00048 11105 20804 3//// 41103 70025 333 91213 555 11114 22122
 31648 42513 61649 249104 247096 243090 243090 241093 243092 82511
 91648=
41041 11171 99143 70461 46/// /0509 10247 20239 40150 56027 91650
 22200 00258 11405 20703 301// 41404 70025 333 91211 555 11096
 22101 31608 40511 61649 054090 060095 059091 058092 055087 056082
 80710 91630=
46001 11171 99563 71479 46/// ///// 1//// 49906 58028 91650 22200
 00048 11005 70024=
41049 11171 99275 70629 46/// /0709 10230 40257 58025 91650 22200
 00252 10805 20805 304// 41102 70026 333 91210 555 11094 22099
 31617 40712 61649 073090 075092 073093 071093 070095 077092 80810
 91602=
0000166700
092
SNVD01 KWBC 111700 RRF
BBXX
42036 11171 99285 70845 46/// /1909 10222 20210 40153 58003 91650
 22200 00207 10502 20502 70010 333 91210 555 11093 22102 31643
 41910 61649 189084 191081 190082 193084 192080 191082=
42059 11171 99151 70675 46/// /1008 10269 40175 58015 91650 22200
 00269 10805 20804 3//// 40902 70024 333 91210 555 11087 22092
 31619 41010 61649 099080 101082 099086 097087 099084 101085 81010
 91620=
42019 11171 99279 70954 46/// /3307 10189 40189 51032 91650 22200
 00205 10602 20602 311// 40701 70011 333 91209 555 11074 22077
 31644 43409 61649 332071 332073 324067 310048 313043 317041=
42020 11171 99270 70967 46/// /3105 10170 20170 40192 51028 91650
 22200 00206 10802 20401 311// 40802 70010 333 91206 555 11050
 22052 31559 43106 61649 307048 305048 304047 308047 304047
 303041=
42056 11171 99198 70849 46/// /1206 10273 20225 40181 50003 91650
 22200 00276 10703 20502 313// 40702 70014 333 91207 555 11064
 22067 31606 41108 61649 122060 116062 115059 116059 114061 117063
 81207 91606=
42035 11171 99292 70944 46/// /3105 10132 20130 40181 51029 91650
 22200 00120 10602 20401 317// 40601 70008 333 91206 555 11054
 22061 31637 43106 61649 307048 299051 285043 278045 278047
 271043=
41012 11171 99300 70805 46/// /2007 10189 40162 58009 91650 22200
 00166 10803 20603 308// 40802 70017 333 91208 555 11080 22090
 31620 42008 61649 197071 196070 194073 195071 198069 201070=
41044 11171 99216 70586 46/// /0609 10249 40213 58023 91650 22200
 00258 10805 20805 70025 333 91211 555 11090 22096 31612 40711
 61649 064085 065088 066084 071088 069090 068087 80610 91637=
0000061600
093
SNVD80 KWBC 111700
BBXX
WCF3012 11174 99431 70824 43/// /2212 10051 49927 2221/ 00426=
WYQ4356 11174 99461 70840 43/// /2513 10015 49906 2227/ 00001=
SHIP 11174 99429 70824 46/// /2108 10051 20061 49923 58031 7////
 8//// 22200 0//// 2////=
SHIP 11174 99433 70798 46/// /2303 10070 20072 49937 58045 7////
 8//// 22200 0//// 2////=
VCBZ 11174 99429 70824 46/// /2108 10051 20061 49923 58031 7////
 8//// 22200 0//// 2////=
CG2350 11174 99433 70798 46/// /2303 10070 20072 49937 58045 7////
 8//// 22200 0//// 2////=
WDC6055 11174 99417 70871 43/// /2716 10010 49998 2227/ 00000=
0000023200
094
SNVD11 KWBC 111700
BBXX
BATFR43 11174 99060 70836 46/// /2801 10287 20244 40124 58006
 22264 04287=
PHSG 11174 99083 71323 41/97 80632 10260 20260 40110 55010 72362
 88/// 22214 00250 20204 326// 40308 80260=
00000000