0000010200
395
SPCN42 CWAO 110642
SPECI CYQD 110642Z 20002KT 15SM -SN OVC005 RMK ST8 PCPN VRY LGT=

0000009500
396
SAAB31 LATI 110650
METAR LATI 110650Z 00000KT 9999 OVC055 10/08 Q1023 NOSIG=

0000013200
397
FCFI33 EFHK 110500 AAA
TAF AMD EFIV 110646Z 1107/1112 24005KT 9999 OVC006 TEMPO 1107/1112
     2500 -SG OVC002=

0000009500
398
SAID32 WIII 110630
METAR WIBB 110630Z 36007KT 9999 BKN015 31/23 Q1009 NOSIG=

0000009800
399
SAEO32 EETN 110650
METAR EETU 110650Z 29009KT 9999 BKN008 OVC019 M01/M02 Q0997=

0000187400
400
SPUS70 KWBC 110646
SPECI
KCLM 110642Z AUTO 00000KT 5SM -RA BR BKN004 BKN019 OVC075 06/06
     A2943 RMK AO2 P0008 T00610056=
KDWH 110642Z 23005KT 6SM BR SCT006 17/17 A2986 RMK AO2=
KELD 110642Z AUTO 27008KT 10SM FEW015 SCT025 BKN090 16/13 A2977
     RMK AO2 T01610133 TSNO=
KGMU 110642Z AUTO 01005KT 4SM -RA BR BKN004 OVC008 08/07 A3001 RMK
     AO2 LTG DSNT E RAB05 P0004=
KLXT 110642Z AUTO 26006KT 8SM UP BKN009 OVC017 02/01 A2964 RMK AO2
     UPB40 CIG 007V011 P0000 T00170006=
KMFE 110642Z AUTO 00000KT 1/4SM FG VV001 15/14 A2992 RMK AO2=
KSEG 110642Z AUTO 00000KT 1/2SM -RA FG VV005 01/M01 A3005 RMK AO2
     P0002 T00061006=
KAVL 110643Z AUTO 15003KT 10SM -RA BKN003 OVC016 07/07 A3000 RMK
     AO2 P0003=
KCQX 110643Z AUTO 19005KT 2SM BR OVC002 06/05 A3027 RMK AO2
     RAE0557 P0000 T00560050=
KCRE 110643Z AUTO 18005KT 4SM BR SCT002 16/16 A3006 RMK AO2=
KFIT 110643Z AUTO 00000KT 1 1/2SM -RA BR OVC003 01/00 A3022 RMK
     AO2 RAB41 P0000 T00110000=
KHJO 110643Z AUTO 18004KT 3SM BR CLR 04/02 A3024 RMK AO2
     T00440022=
KILM 110643Z AUTO 18007G16KT 10SM SCT008 SCT013 19/17 A3006 RMK
     AO2=
KIMT 110644Z AUTO 30003KT 3SM -SN BR OVC005 M02/M03 A2937 RMK AO2
     SNE06B24 P0000=
KLBT 110643Z AUTO 16006KT 9SM BKN005 18/17 A3003 RMK AO2
     T01780172=
KLPR 110643Z AUTO 19013G19KT 9SM BKN028 OVC090 08/06 A2967 RMK AO2
     RAB22E37 P0000=
KMHT 110643Z 00000KT 4SM BR OVC009 M01/M03 A3021 RMK AO2
     T10111028=
KMOT 110644Z AUTO 28014KT 9SM SCT006 M04/M06 A2957 RMK AO2
     T10441061=
KOXB 110643Z AUTO 00000KT 10SM FEW023 SCT028 BKN090 09/09 A3011
     RMK AO2 T00940089 TSNO=
KPUW 110643Z AUTO 13012KT 9SM -RA FEW024 SCT029 OVC045 03/02 A2989
     RMK AO2 PRESFR P0001=
KWST 110643Z AUTO 00000KT 1/4SM FG VV016 02/02 A3022 RMK AO2 RAE26
     P0000 T00220022=

0000009100
401
FCIY33 LIIB 110500 RRA
TAF LIMW 110642Z 1106/1115 22002KT 9999 BKN030  =

0000018800
402
FTCN34 CWAO 110600 AAA
TAF AMD CYTL 110647Z 1106/1114 11005KT 2SM -SN OVC020 TEMPO 1106/1114
     4SM -SN OVC030
    RMK FCST BASED ON AUTO OBS. NXT FCST BY 110800Z=

0000009500
403
SPCN51 CWAO 110646
SPECI CWCL 110646Z AUTO 13004KT 5SM BKN001 M03/M07 A2933=

0000009900
404
SPCN47 CWAO 110646
SPECI CYWA 110646Z AUTO 12008KT 1 3/4SM OVC005 M02/M02 A2988=

0000167900
405
FTIN31 VABB 110500
TAF VAAH 110300Z 1106/1212 34006KT 5000 FU FEW100 BECMG 1112/1114
32004KT 4000 FU/HZ BECMG 1201/1203 VRB02KT 1500 HZ BECMG
1204/1206 30005KT 5000 FU FEW020 BECMG 32004KT 4000 FU =
TAF VABB 110300Z 1106/1212 10005KT 2500 FU/HZ FEW100
BECMG 1107/1109 27008KT 3000 FU
BECMG 1113/1115 33007KT 2500 FU/HZ NSC
BECMG 1122/1124 05005KT 2000 HZ
TEMPO 1123/1203 00000KT 1500 BR/HZ
BECMG 1204/1206 12004KT 2500 FU
BECMG 1207/1209 27008KT 3000 FU=
TAF VANP 110300Z 1106/1212 14005KT 3000 HZ FEW020 SCT025
BECMG 11081110 20005KT 4000 HZ
BECMG 11121114 14003KT 3000 HZ FEW025 SCT100
BECMG 12001202 07002KT 1000 BR
BECMG 12041206 09003KT 2000 HZ
BECMG 12081210 11005KT 4000 FEW020 SCT025=
TAF VECC 110300Z 1106/1212 35005KT 2800 HZ NSC
BECMG 1112/1114 00000KT 1800 BR
BECMG 1122/1124 1000 MIFG
BECMG 1200/1202 0500 FG
BECMG 1204/1206 34005KT 1500 BR
BECMG 1207/1209 2700 HZ=
TAF VEPT 110300Z 1106/1212 00000KT 0500 FG SCT020 FEW030CB BKN100
OVC250 BECMG 1109/1112 1000 MIFG SCT020 FEW030CB BKN100
BECMG 1203/1206 0500 FG
BECMG 1209/1212 1200 BR=
TAF VIAR 110300Z 1106/1212 VRB02KT 2000 BR NSC
BECMG 1108/1110 29006KT 5000 HZ
BECMG 1115/1117 00000KT 2200 BR
BECMG 1200/1202 VRB02KT 0800 MIFG FEW040 SCT100
BECMG 1203/1205 VRB02KT 2000 BR
BECMG 1206/1208 30008KT 5000 HZ SCT035 BKN100=
TAF VIBN 110300Z 1106/1212 32004KT 2000 HZ SCT020 BKN100 TEMPO
1106/1112 0800 RA/TSRA FEW030CB OVC090 BECMG 1112/1114 VRB02KT
1000 MIFG/BR SCT020 SCT100 BECMG 1116/1118 0800 MIFG BECMG
1121/1123 00000KT 0300 FG VV/// BECMG 1204/1206 VRB02KT 0800
MIFG/BR FEW020 SCT100 BECMG 1206/1208 11004KT 2000 HZ=

0000010100
406
SPUS42 KWBC 110645
SPECI
KBTR 110642Z 19015KT 2 1/2SM +RA BR OVC008 20/19 A2983=

0000009900
407
SPUS42 KWBC 110645
SPECI
KMFE 110642Z AUTO 00000KT 1/4SM FG VV001 15/14 A2992=

0000012300
408
SPUS42 KWBC 110645
SPECI
KMGM 110641Z AUTO 18005KT 2SM VCTS -RA BR FEW005 BKN019 OVC024
18/17 A2990=

0000010400
409
SPUS43 KWBC 110645
SPECI
KINL 110641Z AUTO 21005KT 1 3/4SM BR OVC003 M03/M04 A2938=

0000010200
410
SPUS43 KWBC 110645
SPECI
KPTK 110641Z AUTO 17008KT 3SM -RA BR OVC002 03/03 A2957=

0000011800
411
SPUS44 KWBC 110645
SPECI
KCLM 110642Z AUTO 00000KT 5SM -RA BR BKN004 BKN019 OVC075 06/06
A2943=

0000082600
412
SAGU31 MGGT 111700
METAR
METAR MGMM 111700Z 07006KT 9999 SCT018 26/22 Q1017 A3003=
METAR MGHT 111700Z 00000KT CAVOK 22/09 QFE 818.3=
METAR MGPB 111700Z 32010KT 9999 FEW018 27/23 Q1016 A3000=
METAR MGGT 111700Z  36010KT 9999 FEW022 23/10 Q1026 A3030 VOL. PACAYA
CON VA A 9000FT CON DIRECCION S-SSW A UNA DISTANCIA DE 6-10KM=
METAR MGSJ 111700Z 16008KT 8000 FEW200 32/22 Q1014 A2994 FU=
METAR MGRT 111700Z 18006KT 9999 FEW018 31/19 Q1016 A3000 VOL. STA.
MARIA Y SANTIAGUITO EN ACTIVIDAD=
METAR MGQZ 111700Z 23004KT 7000 SKC 17/13 QFE 769.0 HZ=
METAR MGCB 111700Z 12004KT CAVOK 23/15 QFE 872.2=
METAR MGZA 111700Z 00000KT CAVOK 29/19 QFE 990.7=
METAR MGES 111700Z 03004KT CAVOK 26/14 QFE 913.0=
METAR MGMT 111700Z 16004KT CAVOK 33/20 QFE 1009.1=
METAR MGTU 111700Z 27010KT CAVOK 31/22=
0000040100
413
FTTH33 VTBB 110500 RRA
TAF  VTUO  110500Z 1106/1206 04005KT 8000 FEW025
     BECMG 1108/1110 04005KT 8000 NSC=
TAF  VTUQ  110500Z 1106/1206 04005KT 8000 FEW025
     BECMG 1107/1109 05005KT 8000 NSC=
TAF  VTUV  110500Z 1106/1206 04005KT 9000 FEW025
     BECMG 1114/1116 04007KT CAVOK=
TAF  VTUJ  110500Z 1106/1206 04005KT 9000 FEW025
     BECMG 1113/1115 06005KT CAVOK=

0000023300
414
FTMP31 LMMM 110400 RRB
TAF HLLT 110500Z 1106/1206 VRB02KT CAVOK BECMG 1110/1112 20010KT
BECMG 1116/1118 VRB02KT=
TAF HLLB 110500Z 1106/1206 VRB02KT 9999 SCT020 BECMG 1110/1112
25010KT BECMG 1116/1118 VRB02KT=

00000000