0000050700
995
SAFI32 EFHK 110850
METAR EFHA 110850Z AUTO 02007KT 9999 -SN OVC015 
M08/M09 Q0999=
EFHF 110850Z 33004KT 300V010 9999 BKN009 M04/M05 Q0999=
METAR EFKA 110850Z AUTO 05009KT 9999 -SN BKN053 
M10/M12 Q1003=
EFKK 110850Z AUTO 05009KT 9999 -SN FEW015 SCT018 BKN035 M12/M14
Q1004=
EFMA 110850Z AUTO 33005KT 9999 OVC032 M01/M02 Q1000=
METAR EFPO 110850Z AUTO 00000KT 0900 R12/1000V1700D SN VV008 M04/M05 
Q1000=
EFSI 110850Z AUTO 06006KT 010V090 6000 -SN OVC022 M09/M11 Q1001=

0000047000
996
FTHW31 KWBC 110854 AAA
TAF AMD
PHLI 110850Z 1109/1206 05015G22KT P6SM VCSH FEW010 SCT020 BKN040
      TEMPO 1109/1112 -SHRA BKN020
     FM111200 07012KT P6SM VCSH SCT020 BKN050
     FM111800 13010KT P6SM SCT025 BKN050
     FM120200 15007KT P6SM SCT020 BKN050=
PHNL 110850Z 1109/1212 09005KT P6SM FEW030 SCT050
     FM111100 35005KT P6SM FEW030 SCT050
     FM112100 13008KT P6SM SCT025 SCT050
     FM120600 VRB04KT P6SM FEW030 SCT050=

0000030500
997
FTUS52 KWBC 110854 AAA
TAF AMD
KANB 110851Z 1109/1206 21009G22KT P6SM VCSH OVC015
      TEMPO 1109/1110 OVC007
     FM111000 16008KT 3SM -DZ BR OVC007
      TEMPO 1113/1117 22012KT 2SM -TSRA BR OVC007CB
     FM111700 25012G18KT P6SM BKN100
     FM112300 28010KT P6SM SCT250=

0000113300
998
FTUS80 KWBC 110854 AAA
TAF AMD
KANB 110851Z 1109/1206 21009G22KT P6SM VCSH OVC015
      TEMPO 1109/1110 OVC007
     FM111000 16008KT 3SM -DZ BR OVC007
      TEMPO 1113/1117 22012KT 2SM -TSRA BR OVC007CB
     FM111700 25012G18KT P6SM BKN100
     FM112300 28010KT P6SM SCT250=
KDTW 110853Z 1109/1212 17007KT 3SM -RA BR OVC003 WS020/19043KT
     FM111200 18010KT 2SM SHRA BR OVC004
     FM111800 25012G20KT 6SM BR OVC010
     FM120600 26011KT P6SM OVC010=
KEET 110852Z 1109/1206 16009G22KT P6SM VCSH OVC007
      TEMPO 1111/1115 1SM -TSRA BR OVC002CB
     FM111500 27012G18KT P6SM BKN100
     FM112300 29010KT P6SM SCT250=
KLAS 110852Z 1109/1206 VRB06KT P6SM SCT250=
PHLI 110850Z 1109/1206 05015G22KT P6SM VCSH FEW010 SCT020 BKN040
      TEMPO 1109/1112 -SHRA BKN020
     FM111200 07012KT P6SM VCSH SCT020 BKN050
     FM111800 13010KT P6SM SCT025 BKN050
     FM120200 15007KT P6SM SCT020 BKN050=
PHNL 110850Z 1109/1212 09005KT P6SM FEW030 SCT050
     FM111100 35005KT P6SM FEW030 SCT050
     FM112100 13008KT P6SM SCT025 SCT050
     FM120600 VRB04KT P6SM FEW030 SCT050=

0000209000
999
SPUS70 KWBC 110854
SPECI
KUZA 110850Z AUTO 00000KT 1/2SM FG VV002 06/06 A2995 RMK AO2=
KARA 110850Z AUTO 28014G18KT 2SM +TSRA BR BKN004 OVC020 19/18
     A2988 RMK AO2 VIS 3/4V4 LTG DSNT ALQDS TSB23RAE13B33 PRESRR
     P0015 $=
KCQX 110850Z AUTO 18006KT 2 1/2SM BR BKN002 BKN050 OVC060 06/05
     A3022 RMK AO2=
KFWN 110850Z AUTO 00000KT 1 3/4SM UP BR BKN006 OVC015 01/01 A3003
     RMK AO2 UPE18B39 P0001=
KILN 110850Z AUTO 20010KT 6SM RA BR BKN009 BKN017 OVC070 09/09
     A2963 RMK AO2 LTG DSNT E AND S P0011=
KJXN 110850Z 19008KT 1 3/4SM BR OVC003 05/05 A2949 RMK AO2=
KLBT 110850Z AUTO 19004KT 10SM SCT005 BKN021 18/17 A2999 RMK
     AO2=
KLWM 110850Z AUTO 04004KT 1/2SM -RA FG VV005 02/00 A3017 RMK AO2
     PRESFR P0001=
KMCB 110850Z AUTO 23008KT 2 1/2SM RA BR BKN009 BKN013 OVC019 19/19
     A2981 RMK AO2 LTG DSNT ALQDS TSB01E16B17E44 CIG 005V010
     P0015=
KMTO 110850Z AUTO 20009KT 1/2SM FG VV002 05/ A2950 RMK AO2
     RAB03E19 P0001 TSNO $=
KRHI 110851Z AUTO 00000KT 2SM -SN BR OVC023 M04/M05 A2935 RMK AO2
     P0004=
PAGK 110850Z AUTO 33005KT 2SM -SN BR BKN028 BKN050 OVC080 M13/M15
     A2922 RMK AO2 P0000 TSNO=
KZZV 110851Z AUTO 00000KT 10SM -RA BKN030 BKN036 OVC043 11/08
     A2965 RMK AO2 RAB44 P0000=
KABR 110851Z AUTO 34005KT 10SM BKN015 M10/M11 A2960 RMK AO2=
KARA 110851Z AUTO 28013G18KT 1 3/4SM +TSRA BR BKN004 OVC020 19/18
     A2987 RMK AO2 VIS 3/4V4 LTG DSNT ALQDS TSB23RAE13B33 P0017
     $=
KGMU 110851Z AUTO 05006KT 2 1/2SM -RA BR OVC004 08/07 A2994 RMK
     AO2 LTG DSNT W P0001=
KGNV 110851Z AUTO 12003KT 1/2SM FG FEW001 OVC013 18/18 A3004 RMK
     AO2=
KHKS 110851Z AUTO 27013G20KT 10SM -RA BKN016 BKN049 OVC100 18/17
     A2979 RMK AO2 P0015=
KHQM 110851Z AUTO 17033G50KT 2SM -SN OVC015 A2951 RMK AO2 PK WND
     18050/0843 P0006 TSNO $=
KLGB 110851Z 00000KT 1SM BR VV001 12/10 A3011 RMK AO2=
KPAH 110851Z AUTO 24012KT 10SM BKN013 OVC022 11/09 A2961 RMK
     AO2=
KPHF 110851Z 25007KT 10SM -RA BKN005 BKN023 OVC028 18/16 A3002 RMK
     AO2 P0000 $=

0000010900
000
SPUS41 KWBC 110854
SPECI
KCEF 110852Z AUTO 01002KT 1SM R23/4000FT BR OVC002 00/00 A3011=

0000010300
001
SPUS41 KWBC 110854
SPECI
KLWM 110850Z AUTO 04004KT 1/2SM -RA FG VV005 02/00 A3017=

0000021000
002
SADR31 MDSD 110900
METAR
METAR MDST 110900Z 00000KT 9999 SCT014 20/20 Q1018 RERA=
METAR MDPC 110900Z 10005KT 9999 FEW018 25/19 Q1017=
METAR MDSD 110900Z 02005KT 9999 FEW018 20/19 Q1017=

0000012500
003
SAMO31 ZMUB 110900
METAR ZMUB 110900Z 00000MPS 4000NW FU NSC M24/M28 Q1028 NOSIG RMK
 QFE662.6 69 NW MO=

0000010300
004
SAUK36 EGGY 110850 CCA
METAR COR EGSD 110850Z 29013KT 9999 FEW005 07/06 Q1013 NOSIG=

0000028500
005
FTCN36 CWAO 110800 AAA
TAF AMD CYVO 110854Z 1108/1118 15012KT 6SM -FZRA -PL BR OVC006 TEMPO
     1108/1116 1SM -SN BR OVC003
    FM111600 17012G22KT 1SM -RA BR OVC003 TEMPO 1116/1118 3SM -RA BR
     OVC006
    RMK FCST BASED ON AUTO OBS. NXT FCST BY 111200Z=

0000009100
006
SACS31 MROC 110900
METAR
MROC 110900Z 09005KT CAVOK 19/14 A2996 NOSIG=

0000047600
007
SABX31 EBBR 110850
METAR EBAW 110850Z 24008KT 200V270 8000 BKN006 04/02 Q1015 BECMG
     SCT006=
METAR EBBR 110850Z 24011KT 9999 BKN007 05/03 Q1016 NOSIG=
METAR EBCI 110850Z 22008KT 9999 SCT010 SCT036 06/04 Q1016 TEMPO
     BKN010=
METAR EBLG 110850Z 21011KT 9999 SCT040 06/04 Q1016 TEMPO BKN008=
METAR EBOS 110850Z 21009KT 6000 FEW008 SCT020 BKN035 05/03 Q1015
     NOSIG=
METAR ELLX 110850Z VRB01KT 3000 BR SCT042 BKN060 03/02 Q1016 NOSIG=

0000057100
008
SAOS31 LOWM 110850
METAR LOWW 110850Z 15003KT 120V180 9999 FEW035 SCT140 BKN280 02/00
Q1020 NOSIG=
METAR LOWL 110850Z VRB01KT 9999 VCFG FEW140 BKN250 M00/M00 Q1020
BECMG NSW=
METAR LOWS 110850Z VRB02KT 9999 FEW002 SCT100 BKN300 01/01 Q1018
NOSIG=
METAR LOWI 110850Z 24005KT 210V280 1200 R26/0800N R08/1200N BR SCT002
BKN004 02/02 Q1020 R08/19//71 BECMG SCT003 BKN007=
METAR LOWG 110850Z VRB01KT 9999 BKN009 BKN090 03/02 Q1020 R17/19//95
BECMG SCT009=
METAR LOWK 110850Z VRB02KT 5000 BR SCT003 OVC005 01/01 Q1022
R10L/19//95 NOSIG=

0000011800
009
SAOS32 LOWM 110850
METAR LOXZ 110850Z VRB01KT 30KM FEW002ST BKN150AC M01/M01 Q1020 NOSIG
RMK BKN=

0000010700
010
SAGR31 LGAT 110850 RRA
METAR LGAV 110850Z 06006KT 030V100 9999 FEW012 13/09 Q1023 NOSIG=

0000010000
011
SAGR33 LGAT 110850 RRA
METAR LGPA 110850Z 36005KT 9999 FEW018 SCT180 17/12 Q1022=

0000008300
012
SABZ19 SBBE 110900
METAR SBBE 110900Z 00000KT CAVOK 24/22 Q1010=

0000010000
013
SAGR33 LGAT 110850 RRB
METAR LGKF 110850Z 00000KT 9999 FEW015 SCT020 17/10 Q1023=

0000008400
014
SAAG41 SAWG 110900
METAR SAWG 110900Z  32004KT CAVOK 09/05 Q1010=

00000000