0000128200
375
FTUS72 KWBC 110903 AAA
TAF AMD
KHOU 110901Z 1109/1206 23009KT 2SM BR OVC003
     FM111100 27004KT P6SM SCT010
     FM111300 33010KT P6SM SKC
     FM120000 01005KT P6SM SKC=
KIAH 110901Z 1109/1212 25005KT 1SM BR BKN003
     FM111100 27004KT P6SM SCT010
     FM111300 33010KT P6SM SKC
     FM120000 VRB02KT P6SM SKC=
KMEM 110900Z 1109/1206 28009KT P6SM BKN100
     FM111500 28012G18KT P6SM SCT250
     FM120200 28006KT P6SM SKC=
KMSL 110901Z 1109/1206 24010KT 5SM -SHRA BR SCT035 OVC070
      WS015/20045KT
     FM111400 24012G20KT P6SM SCT070 BKN250
     FM111800 30015G25KT P6SM SCT250
     FM120000 VRB04KT P6SM SKC=
KPIE 110902Z 1109/1206 15008KT P6SM FEW018 BKN130
     FM111000 15008KT 4SM BR BKN007 OVC015
      TEMPO 1111/1114 2SM BR OVC004
     FM111600 18016G24KT P6SM SCT010 BKN020
     FM111800 21022G30KT P6SM SCT025 BKN150
     FM120000 22011KT P6SM SCT030 BKN150
     FM120400 27008KT P6SM BKN025 OVC050=
KSRQ 110901Z 1109/1206 15006KT P6SM SCT130
     FM111000 15007KT 4SM BR OVC007
      TEMPO 1111/1114 2SM BR OVC004
     FM111600 18014G22KT P6SM SCT010 BKN020
     FM111800 20019G27KT P6SM SCT015 BKN150
     FM120000 22010KT P6SM SCT030 BKN150
     FM120400 27009KT P6SM BKN025 OVC050=

0000023600
376
FTUS73 KWBC 110903 AAA
TAF AMD
KHON 110901Z 1109/1206 29009KT P6SM SKC
     FM111100 30010KT P6SM OVC015
     FM111500 31011G18KT P6SM SCT015
     FM112200 24008KT P6SM SKC
     FM120000 18012KT P6SM BKN150=

0000044100
377
FTUS74 KWBC 110903 AAA
TAF AMD
KPHX 110902Z 1109/1206 11005KT P6SM FEW250
     FM112300 26004KT P6SM SCT250
     FM120400 09004KT P6SM FEW250=
KSLC 110902Z 1109/1212 15007KT P6SM OVC060
     FM111200 16010KT P6SM SCT070 BKN120
     FM111900 18014G22KT P6SM SCT090
     FM120300 18016G25KT P6SM VCSH BKN060 BKN100
     FM120500 29012G30KT P6SM -RA SCT020 OVC035
     FM120800 30010G16KT 1SM -SN BR OVC012=

0000010600
378
SACN45 CWAO 110900
METAR CYCB 110900Z 24011KT 12SM SCT015 M29/M34 A2933 RMK SC2 SLP936=

0000029700
379
SAIE31 EIDB 110900
METAR EIDW 110900Z 24008KT 9999 FEW007 01/01 Q1018 BECMG SCT010=
METAR EINN 110900Z 12009KT 9999 FEW015 SCT250 01/01 Q1018 NOSIG=
METAR EICK 110900Z 16001KT 9999 FEW016 SCT220 00/M01 Q1018 NOSIG=
METAR EIKN 110900Z 24006KT 9999 FEW020 01/00 Q1016 NOSIG=

0000010600
380
SACN61 CYMO 110900
METAR CYMO 110900Z AUTO 13005KT 9SM OVC049 M01/M03 A2959 RMK SLP021=

0000010600
381
SACN61 CYNM 110900
METAR CYNM 110900Z AUTO 15011KT 7SM OVC005 M04/M04 A2966 RMK SLP061=

0000012600
382
SACN61 CYHU 110900
METAR CYHU 110900Z AUTO 36006KT 5SM BR BKN015 OVC055 M05/M07 A2998
 RMK PRESFR SLP153=

0000013000
383
SACN62 CYHM 110900
METAR CYHM 110900Z 16007KT 1 1/4SM -RA BR SCT002 OVC026 03/02 A2962
 RMK FG2SF1SC5 SLP036=

0000022600
384
SAUS75 KWBC 110800 RRE
METAR
PAFB 110805Z AUTO 00000KT 10SM FEW003 M34/M37 A2956=
PAHO 110846Z AUTO 05003KT 10SM SCT020 OVC037 M02/M04 A2930=
PAHO 110808Z AUTO 00000KT 10SM BKN020 OVC039 M01/M04 A2931=

0000010600
385
SACN62 CYKY 110900
METAR CYKY 110900Z 24009KT 15SM FEW240 M12/M14 A2962 RMK CI1 SLP078=

0000010600
386
SACN52 CWAO 110900
METAR CWEU 110900Z 15004KT 15SM OVC100 M19/M24 A2924 RMK AC6 SLP904=

0000010600
387
SACN62 CYHZ 110900
METAR CYHZ 110900Z 21007KT 3SM BR OVC002 01/00 A3028 RMK ST8 SLP259=

0000012300
388
SACN61 CYNE 110900
METAR CYNE 110900Z AUTO 30003KT 2 1/2SM BR BKN005 OVC009 M10/M11
 A2947 RMK SLP997=

0000041900
389
SAPL31 EPWA 110900
METAR EPGD 110900Z 25008KT 200V280 9999 -SHRA SCT011
    FEW013TCU BKN017 04/03 Q1009 =
METAR EPKK 110900Z 26008KT 9999 BKN060 04/01 Q1018 =
METAR EPLL 110900Z 25012KT 9999 FEW020 04/02 Q1015 =
METAR EPPO 110900Z 23006KT 9999 FEW023 03/02 Q1014
    R10/19//95 =
METAR EPRZ 110900Z 26008KT CAVOK 05/M00 Q1018 =
METAR EPWA 110900Z 26012KT 9999 BKN016 05/02 Q1014 NOSIG=

0000042800
390
SAPL32 EPWA 110900
METAR EPBY 110900Z 24010KT 9999 SCT020 05/03 Q1012 =
METAR EPKT 110900Z 22008KT 9999 FEW030 04/00 Q1017 =
METAR EPLB 110900Z 24013KT CAVOK 05/00 Q1013 =
METAR EPMO 110900Z 24011KT 9999 SCT019 04/02 Q1013=
METAR EPSC 110900Z 21007KT 9999 FEW007 SCT009 04/02
    Q1012 =
METAR EPWR 110900Z 20004KT 160V240 CAVOK 05/00 Q1017 =
METAR EPZG 110900Z 23008KT 9999 BKN047 04/02 Q1015 =

0000010300
391
SACN61 CYPY 110900
METAR CYPY 110900Z AUTO 00000KT 9SM CLR M26/M29 A2958 RMK SLP045=

0000011300
392
SACN62 CYPA 110900
METAR CYPA 110900Z 30014KT 15SM -SN OVC018 M05/M08 A2954 RMK SC8
 SLP030=

0000012400
393
SACN62 CYQK 110900
METAR CYQK 110900Z 29007KT 2SM -SN OVC004 M04/M05 A2938 RMK SF8 CIG
 VRB 3-5 SLP972=

0000012400
394
SACN61 CYQA 110900
METAR CYQA 110900Z AUTO 14013G19KT 6SM -RA BR OVC005 01/01 A2959 RMK
 PRESFR SLP032=

00000000