0000039300
955
FTUS80 KWBC 110851 AAA
TAF AMD
KAPF 110850Z 1109/1206 11004KT P6SM SCT002
      TEMPO 1109/1113 3SM BR BKN002
     FM111500 16014G20KT P6SM SCT025
     FM111900 21013KT P6SM SCT025 BKN250=
KMGM 110850Z 1109/1206 16008G20KT P6SM OVC007
      TEMPO 1114/1117 22010KT 2SM -TSRA BR OVC002CB
     FM111700 27012G19KT P6SM BKN100
     FM112300 29010KT P6SM SCT250=

0000011800
956
SPUS31 KWBC 110851
SPECI
KIND 110847Z 17003KT 1/4SM R05L/2400V4500FT -RA FG OVC004 04/04
A2954=

0000011700
957
SPUS41 KWBC 110851
SPECI
KBED 110847Z AUTO 08003KT 1/4SM R11/2200V2600FT FG VV002 01/01
A3014=

0000009800
958
SPUS42 KWBC 110851
SPECI
KBPT 110847Z AUTO 23004KT 2SM BR OVC004 18/17 A2986=

0000009700
959
SPUS42 KWBC 110851
SPECI
KHOU 110847Z 22008KT 2 1/2SM BR OVC003 17/16 A2986=

0000012900
960
SALT31 EYVI 110850
METAR EYVI 110850Z 27009KT 2600 SHSNRA BKN005 OVC012CB 00/00 Q1005
     R20/2/0195 NOSIG=

0000022500
961
FTUS52 KWBC 110848 AAA
TAF AMD
KTCL 110845Z 1109/1206 18010G22KT P6SM VCTS OVC005CB
      TEMPO 1110/1114 2SM TSRA BR OVC003CB
     FM111500 27013G19KT P6SM BKN100
     FM112300 29010KT P6SM SCT250=

0000129700
962
FTUS80 KWBC 110848 AAA
TAF AMD
KBNA 110845Z 1109/1206 19008KT 3SM -SHRA BR SCT030 BKN035
     FM111200 26012G25KT P6SM OVC025
     FM111500 27010G20KT P6SM BKN050=
KCLT 110845Z 1109/1206 04005KT 1SM -SHRA BR OVC003
     FM111100 18010KT 1SM SHRA BR OVC002 WS020/25040KT
     FM111600 20015G25KT 2SM SHRA BR OVC004 PROB30 1118/1120 3SM
      TSRA OVC006CB
     FM112000 25013G21KT 4SM -SHRA BKN010
     FM112300 24009KT P6SM SCT030 BKN250
     FM120400 28009KT P6SM SCT250=
KHPN 110847Z 1109/1206 11005KT 1/4SM -RA FG VV002 WS020/19050KT
     FM111100 16008KT 1SM BR SCT002 OVC008
     FM111400 18010KT 1/2SM -RA FG VV003 WS015/19050KT
     FM111800 18015G21KT 1/2SM +RA FG VV004 WS015/19050KT
     FM120300 23008KT 3SM -SHRA BR SCT007 OVC025 AMD NOT SKED=
KSWF 110845Z 1109/1212 VRB02KT 1SM BR OVC003
     FM111100 14005KT 2SM BR SCT003 OVC006
     FM111400 17010KT 1/2SM -RA FG OVC004 WS015/19050KT
     FM111900 17014KT 1SM +RA OVC004 WS015/19050KT
     FM120200 26012G18KT 3SM -SHRA BR SCT007 OVC025
     FM120600 27015G21KT P6SM SCT035 BKN050 AMD NOT SKED=
KTCL 110845Z 1109/1206 18010G22KT P6SM VCTS OVC005CB
      TEMPO 1110/1114 2SM TSRA BR OVC003CB
     FM111500 27013G19KT P6SM BKN100
     FM112300 29010KT P6SM SCT250=

0000174400
963
SPUS70 KWBC 110848
SPECI
KAXN 110844Z AUTO 29009KT 10SM OVC011 M07/M08 A2947 RMK AO2=
KBNA 110844Z 00000KT 3SM +RA BR BKN026 OVC035 12/12 A2968 RMK AO2
     P0020=
KCSV 110844Z AUTO 17011G23KT 130V200 9SM -RA OVC006 12/11 A2971
     RMK AO2 RAB44 CIG 004V009 PRESFR P0000=
KFLO 110844Z 17004KT 5SM BR BKN009 OVC015 17/16 A2999 RMK AO2
     RAB14E23 P0000=
KHUF 110844Z 18009KT 9SM -RA OVC004 07/ A2952 RMK AO2 P0004 $=
KHYA 110844Z 18006KT 3/4SM BR VV002 06/06 A3019 RMK AO2 RAB0759E09
     P0000 T00610056=
KMEI 110844Z AUTO 19014G25KT 6SM VCTS -RA BR SCT010 OVC016 19/18
     A2975 RMK AO2 LTG DSNT E-SW TSE03B40 P0008=
KMFI 110844Z AUTO 31009KT 2SM -SN BR OVC032 M02/M04 A2939 RMK AO2
     P0000 T10221039=
KPKD 110844Z AUTO 29005KT 6SM BR BKN007 OVC011 M06/M06 A2943 RMK
     AO2 T10561061 TSNO=
KRME 110844Z AUTO 13007KT 9SM -RA BKN018 BKN023 OVC033 02/00 A2993
     RMK AO2 RAE21B40 P0000 T00220000=
KSHN 110844Z AUTO 17010KT 3SM RA BR SCT012 OVC017 10/09 A2950 RMK
     AO2 P0007 T01000089 TSNO=
KTVR 110844Z AUTO 26007KT 10SM BKN019 BKN024 18/17 A2980 RMK AO2
     T01780167 TSNO=
KCEC 110845Z AUTO 15015G23KT 9SM OVC010 12/09 A3007 RMK AO2
     T01170094=
KELM 110845Z AUTO 02004KT 6SM BR OVC011 03/01 A2987 RMK AO2=
KFDY 110845Z AUTO 17008KT 4SM -RA BR BKN011 OVC075 04/04 A2955 RMK
     AO2 P0001=
KILN 110845Z AUTO 18013KT 6SM RA BR BKN011 OVC070 09/09 A2964 RMK
     AO2 LTG DSNT E AND S P0010 T00940089=
KMKE 110845Z 23008KT 1SM R01L/P6000FT BR OVC003 03/02 A2941 RMK
     AO2 SFC VIS 1 3/4 T00280022 $=
KSTP 110845Z AUTO 31007KT 5SM BR OVC010 M01/M03 A2949 RMK AO2 CIG
     008V013=
PAWI 110845Z AUTO 28010KT 10SM OVC008 A2980 RMK AO2 TSNO $=

0000010400
964
SPUS31 KWBC 110848
SPECI
KBNA 110844Z 00000KT 3SM +RA BR BKN026 OVC035 12/12 A2968=

0000011300
965
SPUS41 KWBC 110849
SPECI
KCEF 110846Z AUTO 00000KT 1 1/4SM R23/5000FT BR OVC002 00/00 A3011=

0000010600
966
SPUS43 KWBC 110849
SPECI
KMKE 110845Z 23008KT 1SM R01L/P6000FT BR OVC003 03/02 A2941=

0000009800
967
SABZ24 SBPA 110900
METAR SBPA 110900Z 09003KT 9999 FEW010 SCT100 21/20
Q1011=

0000010000
968
SPUS43 KWBC 110849
SPECI
KSTP 110845Z AUTO 31007KT 5SM BR OVC010 M01/M03 A2949=

0000064300
969
SAUK20 EGGY 110850
METAR EGRE 110850Z AUTO 06014KT 9999 SCT011/// BKN015/// 02/M01 Q0998
     RESN RERASN W///S5=
METAR EGRK 110850Z AUTO 28030KT 9999 FEW017/// 06/02 Q0999 W///S5=
METAR EGRM 110850Z AUTO 30030KT 9999 -RA SCT021/// 05/01 Q1003 RERA
     W///S5=
METAR EGRO 110850Z AUTO 31026KT //// // ///////// 05/01 Q1004 W///S5=
METAR EGRP 110850Z AUTO 28012G38KT 130V360 9999 NCD ///// Q1005
     W///S4=
METAR EGRS 110850Z AUTO 29027KT 9999 FEW030/// 06/M00 Q1005 W///S4=
METAR EGRV 110850Z AUTO 29017KT 9999 NCD 07/02 Q1012 W///S4=
METAR EGRW 110850Z AUTO 29021KT 9999 FEW025/// 07/03 Q1013 W///S4=

0000044700
970
SAUK21 EGGY 110850
METAR EGRF 110850Z AUTO 28029KT 9999 FEW031/// 06/00 Q0999 W///S6=
METAR EGRG 110850Z AUTO 07017KT 8000 FEW011/// 03/01 Q0998 RERA
     W///S5=
METAR EGRI 110850Z AUTO 29029KT 9999 FEW024/// 06/01 Q1001 RERA=
METAR EGRL 110850Z AUTO 29033KT 9999 SCT017/// 05/02 Q1000 W///S5=
METAR EGRN 110850Z AUTO 29025KT 9999 FEW030/// 06/M00 Q1006=
METAR EGRT 110850Z AUTO /////KT 9999 NCD 07/01 Q1012 W///S4=

0000014900
971
SAFA31 EKCH 110850
METAR EKVG 110850Z AUTO 29023G39KT 9000NDV -SHRA   BKN018///
03/01 Q0998 RMK BKN018/// WIND 850FT 30041G59KT=

0000012500
972
SALV31 EVRA 110850
METAR EVRA 110850Z 24005KT 190V310 9999 SCT019 BKN023 01/M01 Q1003 
R18/190060 NOSIG=

0000010600
973
SAQB31 LQMO 110900
METAR LQMO 110900Z VRB01KT 0900 FG FEW005 SCT050 BKN065 09/08 Q1024=

0000004200
974
SAMX31 KWBC 110845
NIL=

00000000