0000039900
655
SAPL31 EPWA 110530
METAR EPGD 110530Z 27010KT 9999 -SHRA BKN013 SCT015TCU
    04/03 Q1008 =
METAR EPKK 110530Z 25008KT 9999 BKN053 03/M00 Q1017 =
METAR EPLL 110530Z 26009KT CAVOK 04/01 Q1014 =
METAR EPPO 110530Z 24007KT 9999 SCT030 04/02 Q1014
    R10/19//95 =
METAR EPRZ 110530Z 26013KT CAVOK 05/M02 Q1016 =
METAR EPWA 110530Z 27014KT 9999 BKN046 05/01 Q1012 NOSIG=

0000039900
656
SAPL32 EPWA 110530
METAR EPBY 110530Z 23008KT CAVOK 05/03 Q1012 =
METAR EPKT 110530Z 22007KT 170V240 CAVOK 02/M01 Q1016 =
METAR EPLB 110530Z 26016KT CAVOK 05/01 Q1012 =
METAR EPMO 110530Z 25013KT 9999 OVC046 05/02 Q1012=
METAR EPSC 110530Z 24008KT 9999 BKN026 05/02 Q1012 =
METAR EPWR 110530Z 23004KT CAVOK 04/M00 Q1017 =
METAR EPZG 110530Z 23007KT CAVOK 03/01 Q1015 =

0000011000
657
UANT01 CWAO 111712
ARP AFR344 5213N03832W 1712 F360 MS57 285/48 KT
FGLZU QXT AOE 111712 J83A
0000014000
658
SSVX12 KARS 111711
ZZYY 48600 11014 1640/ 173714 174015 6112/
11119 40195 57006
444 20120 11014 1604/ 501// 80140 80000=
0000052600
659
SSVX07 KARS 111711
ZZYY 25605 11014 1705/ 182524 136535 6113/
11119 49986 52013
22219 01210
444 20130 11014 1701/ 504// 80100 80000=
ZZYY 48733 11014 1710/ 772953 152343 6113/
11119 11233 49972
444 20130 11014 1702/ 504//=
ZZYY 48732 11014 1710/ 774436 130893 6113/
11119 11145 49801
444 20130 11014 1701/ 504//=
ZZYY 48507 11014 1710/ 773009 134843 6113/
11119
444 20130 11014 1701/ 504//=
ZZYY 48731 11014 1710/ 774099 154921 6112/
11119 11179 49965
444 20120 11014 1702/ 504//=
0001044800
660
SNSW23 LSSW 111700
AAXX 11174
06686 23/// /2101 10061 20040 39627 40226 53018
  333 55300 20000 60005 91103 91202=
06623 23/// /2509 10046 20046 39371 48507 51015
  333 55300 20022 69975 91116 91210=
06624 23/// /0000 10040 20037 39720 40233 52011
  333 55300 20000 60005 91103 91202=
06602 23/// /2103 10078 20058 39697 40225 52011
  333 55300 20007 60005 91105 91203=
06693 23/// /3402 10079 20042 39486 48521 52019
  333 55300 20032 60005 91110 91204=
06682 23/// /1402 10040 20019 39107 48517 52015
  333 55300 20000 60005 91103 91202=
06675 23/// /1602 10062 20026 39161 48521 51016
  333 55300 20000 60005 91107 91203=
06637 23/// /2302 10025 20020 39533 40249 52018
  333 55300 20011 60005 91106 91204=
06627 23/// /1301 10053 20013 39033 48525 51017
  333 55300 20004 60005 91106 91203=
06625 23/// /2103 10070 20039 39454 48514 52011
  333 55300 20011 60005 91110 91206=
06608 23/// /2902 10041 20024 38910 48519 51012
  333 55300 20000 60005 91110 91205=
06638 23/// /0301 10061 20056 39351 48522 52016
  333 55300 20000 60005 91105 91202=
06635 23/// /3503 10055 20042 39647 40233 52009
  333 55300 20000 60005 91104 91203=
06728 23/// ///// 10007 21014 38410 48520 53017
  333 55300 20000 60005=
06725 23/// /0701 10023 21004 38480 48520 53017
  333 55300 20007 60005 91109 91205=
06758 23/// /0000 10054 20046 39837 40233 52006
  333 55300 20007 60005 91102 91201=
06796 23/// /0000 10011 20003 38636 48512 52002
  333 55300 20007 60005 91103 91202=
06784 23/// /1701 10009 21008 38416 48516 53016
  333 55300 20000 60005 91111 91205=
06786 23/// /0103 10058 20034 39560 40228 52020
  333 55300 20000 60005 91105 91203=
06794 23/// /0402 10019 20004 38974 48515 52003
  333 55300 20000 60005 91106 91204=
06792 23/// /2001 11014 21026 38298 48518 52007
  333 55300 20000 60005 91107 91205=
06798 23/// /2601 10005 21004 38720 48510 52015
  333 55300 20000 60005 91104 91202=
06702 23/// /1404 10005 21003 38344 48522 51011
  333 55300 20007 60005 91110 91205=
06610 23/// /1908 10083 20045 39634 40219 50005
  333 55300 20000 60005 91111 91208=
06730 43/// /3121 11096 21099 36556 47066 50000
  333 55300 20000 91130 91221=
06643 23/// /2101 10057 20046 39721 40235 52009
  333 55300 20000 60005 91106 91203=
06680 23/// /2530 11038 21052 37514 47051 52003
  333 55300 20000 60005 91142 91234=
06990 23/// /0201 10050 20039 39674 40230 53017
  333 55300 20000 60005 91106 91204=
06712 23/// /1001 10059 20046 39770 40235 52012
  333 55300 20018 60005 91103 91203=
06609 23/// /2518 10011 21045 38032 48517 52006
  333 55300 20000 60005 91125 91218=
06616 23/// /2602 10072 20049 39514 40225 52009
  333 55300 20007 60005 91108 91204=
06724 23/// /1301 10030 20001 38601 48520 53017
  333 55300 20011 60005 91103 91201=
06748 23/// /0406 10009 21025 38375 48520 53015
  333 55300 20018 60005 91110 91206=
06605 23/// /2007 10006 20006 38418 48518 52014
  333 55300 20004 60005 91114 91211=
06659 23/// /2010 11005 21040 37904 48518 51009
  333 55300 20000 60005 91132 91224=
06672 23/// /1401 10053 20043 39706 40240 52018
  333 55300 20000 69915 91104 91202=
06745 23/// /2304 10010 21006 38683 48518 52021
  333 55300 20007 60005 91109 91205=
06753 23/// /0801 10023 20004 39075 48517 52003
  333 55300 20000 60005 91106 91203=
06770 23/// /2301 10082 20066 39862 40227 52005
  333 55300 20000 60005 91103 91201=
06639 23/// /2014 10019 20017 38619 48518 52011
  333 55300 20000 60005 91121 91213=
06720 23/// /1102 10073 20038 39649 40228 53020
  333 55300 20000 60005 91104 91202=
06762 23/// /2201 10068 20053 39979 40230 52007
  333 55300 20000 60005 91102 91201=
06604 23/// /2403 10076 20054 39643 40224 52008
  333 55300 20000 60005 91109 91205=
06771 23/// /2401 10078 20055 39799 40225 52004
  333 55300 20000 60005 91103 91202=
06734 23/// /0000 10048 20041 39543 40239 51019
  333 55300 20014 60005 91105 91202=
06782 NIL=
06681 23/// /2307 10066 20029 39304 48513 52016
  333 55300 20000 60005 91113 91207=
06685 23/// /1501 10070 20042 39607 40227 52016
  333 55300 20000 60005 91107 91203=
06700 23/// /2501 10072 20048 39732 40229 52010
  333 55300 20007 60005 91105 91203=
06670 23/// /3402 10058 20046 39712 40230 52011
  333 55300 20000 69925 91108 91204=
06750 23/// /1102 11023 21034 37729 48526 52009
  333 55300 20000 60005 91115 91207=
06711 23/// /0203 10079 20049 39681 40229 52010
  333 55300 20022 60005 91104 91203=
06717 23/// /0906 11030 21077 37541 47074 52009
  333 55300 20000 60005 91109 91207=
06735 23/// /0802 10029 20014 38711 48525 51018
  333 55300 20018 60005 91106 91203=
06727 23/// /1002 10048 20023 39469 48513 52025
  333 55300 20004 60005 91105 91203=
06612 23/// /2401 10051 20029 39041 48520 52009
  333 55300 20000 60005 91109 91205=
06645 23/// /3601 10064 20049 39494 48511 52008
  333 55300 20007 69915 91105 91203=
06633 23/// /2803 10057 20047 39761 40233 52009
  333 55300 20000 69965 91107 91204=
06650 23/// /3503 10063 20049 39682 40232 52014
  333 55300 20000 60005 91108 91205=
06655 23/// /2502 10035 20026 39022 48518 52017
  333 55300 20000 60005 91106 91203=
06620 23/// /2509 10055 20044 39695 40228 52014
  333 55300 20000 69915 91112 91209=
06660 23/// /2402 10068 20047 39556 40222 52008
  333 55300 20000 69915 91109 91205=
06783 23/// /3303 11010 21020 38376 48523 52006
  333 55300 20000 60005 91104 91203=
06780 23/// /3212 11044 21053 37357 47064 52005
  333 55300 20000 60005 91119 91215=
06791 23/// /2810 11065 21111 36793 47067 52003
  333 55300 20000 60005 91122 91214=
06601 23/// /1702 10073 20049 39839 40224 52011
  333 55300 20000 60005 91106 91203=
06705 23/// /3504 10074 20047 39676 40228 52009
  333 55300 20007 60005 91105 91204=
06619 23/// /2302 10034 20020 38833 48518 52008
  333 55300 20014 60005 91106 91203=
06631 23/// /1803 10064 20042 39565 40229 52008
  333 55300 20004 60005 91107 91203=
06621 23/// /2307 10067 20054 39690 40222 52011
  333 55300 20000 69945 91115 91209=
06626 23/// /2806 10059 20043 39768 40232 52010
  333 55300 20014 69965 91111 91207=
06673 23/// /0903 10057 20046 39642 40229 52013
  333 55300 20000 60005 91105 91203=
06679 23/// /2603 10069 20045 39575 40220 52011
  333 55300 20007 69915 91113 91207=
06664 23/// /3103 10069 20046 39690 40226 52010
  333 55300 20000 69925 91106 91203=
06760 23/// /0901 10085 20035 39777 40227 52005
  333 55300 20000 60005 91102 91201=
06646 23/// /2001 10062 20051 39830 40228 52012
  333 55300 20000 69915 91110 91206=
06636 23/// /0602 10056 20047 39647 40228 52006
  333 55300 20007 60005 91106 91204=
06759 23/// /0802 11002 21008 38347 48516 52004
  333 55300 20000 60005 91105 91203=
06722 23/// /0102 10036 21060 38183 48519 52011
  333 55300 20000 60005 91104 91202=
06666 23/// /0502 10050 20050 39811 40230 52011
  333 55300 20000 69915 91104 91203=
06744 23/// /3005 10006 21033 38051 48523 52011
  333 55300 20000 60005 91114 91209=
06756 23/// /3502 10047 20021 39541 40235 52003
  333 55300 20011 60005 91105 91203=
06669 43/// /23// 10036 20036 39228 48508 52011
  333 55300 20007 91119 91215=
06689 23/// /2413 10035 20023 38906 48511 52010
  333 55300 20000 60005 91121 91214=
06628 23/// /2506 10050 20013 39013 48520 52011
  333 55300 20007 60005 91117 91210=
06751 23/// /2503 11031 21043 38107 48520 52005
  333 55300 20000 60005 91106 91203=
06747 43/// /1403 11039 21145 37168 47074 51008
  333 55300 20018 91106 91203=
06709 43/// /1304 10074 20048 39778 40232 50009
  333 91107 91204=
06740 43/// /2723 11066 21094 36976 47067 51005
  333 55300 20000 91130 91223=
06641 23/// /1801 10060 20057 39811 40232 52012
  333 55300 20000 69915 91104 91202=
06618 23/// /2103 10071 20062 39702 40229 52008
  333 55300 20014 60005 91105 91203=
06706 43/// /0104 1//// 2//// 3//// 5////
  333 91106 91204=
06787 23/// /1403 10039 20000 39068 48511 52021
  333 55300 20000 60005 91105 91203=
06754 43/// /3310 10007 21057 37816 48510 52005
  333 553// 20000 91113 91210=
06683 43/// /0000 1//// 2//// 39739 51///
  333 91103 91201=
06778 23/// /1501 11045 21062 38029 48518 52008
  333 55300 20011 60005 91104 91201=
06733 23/// /1801 10039 20034 39268 48518 51021
  333 55300 20000 60005 91107 91206=
06731 23/// /1502 10052 20044 39550 40236 52017
  333 55300 20000 60005 91105 91203=
06632 23/// /1002 10050 20048 39715 40239 52///
  333 55300 20025 60005 91105 91204=
06644 23/// /1706 10059 20056 39680 40228 52009
  333 55300 20000 60005 91109 91207=
06752 23/// /0701 10063 20022 39722 40233 52006
  333 55300 20004 60005 91112 91209=
06606 23/// /1801 10083 20057 39709 40228 52010
  333 55300 20000 60005 91105 91202=
06688 43/// /2411 11020 21055 37532 47060 52004
  333 55300 20011 91127 91218=
06777 23/// /3205 10013 20013 38411 48516 52005
  333 55300 20000 60005 91110 91207=
06704 23/// /2103 10063 20045 39417 48517 52010
  333 55300 20007 60005 91106 91203=
06708 23/// /1903 10065 20060 39256 48522 52010
  333 55300 20000 60005 91107 91205=
06617 23/// /2506 10045 20027 39004 48518 52008
  333 553// 20047 60005 91113 91208=
06648 23/// /3501 10058 20042 39602 40230 52013
  333 55300 20011 60005 91102 91202=
06671 43/// /2304 1//// 2//// 39745 5////
  333 91112 91209=
06656 23/// /1003 1//// 2//// 39557 52019
  333 60005 91105 91204=
06651 23/// /2203 10070 20037 39349 48520 52018
  333 55300 20000 60005 91105 91204=
06687 43/// /2904 1//// 2//// 39713 52///
  333 91117 91206=
06793 23/// /3504 10026 21005 38444 48517 52011
  333 55300 20000 60005 91112 91207=
06795 23/// /3407 11039 21075 37362 47068 52006
  333 55300 20000 60005 91110 91207=
06799 43/// /3011 11008 21063 37629 47084 53005
  333 55300 20000 91118 91215=
06723 43/// /2602 11030 21080 37308 47074 53009
  333 55300 20000 91114 91205=
06749 43/// /2803 11050 21132 36952 47076 52008
  333 55300 20000 91110 91208=
06739 43/// /1805 11047 21086 37161 47073 52007
  333 55300 20000 91110 91205=
06657 23/// /2502 10054 2//// 39669 40240 51///
  333 553// 20000 60005 91103 91202=
06788 23/// /0000 10018 20005 38962 48515 52004
  333 55300 20032 60005 91103 91202=

0000080100
661
SNEO41 EEMH 111700
AAXX 11171
26134 27159 72001 11003 21003 39925 49991 56008 72565 87///
 333  11002 21012 69927 87/02
 555  1/000 21012 3/100 51003 52101=
26144 27/78 /1501 11016 21020 39912 40000 55006 78086
 333  11010 21022 69947
 555  21022 51007 52104=
26214 27261 80204 10014 20008 39984 49991 57003 75286 88///
 333  10019 20003 69947 88/06
 555  1/001 20003 3/000 50019=
26218 27281 70102 10029 20023 39984 49986 57007 75165 87///
 333  10047 20009 60017 87/05 91108
 555  1/003 20009 3/000 50027=
26226 27377 82606 10042 20035 39979 49983 56019 74086 88///
 333  10042 20010 69957 88/09 91109
 555  1/003 20010 3/100 50023=
26227 27259 82304 10041 20034 39986 49988 57010 78188 88///
 333  10041 20014 60027 88/05 91109
 555  1/004 20014 3/000 50025=
0000451200
662
SNCZ64 OKPR 111700
AAXX 11171
11406 21757 32104 10014 20004 39579 40176 55003 710// 82501
  333 60005 82656
  555 393// 50027 60027 70030 80037 90051=
11414 22462 72604 10027 20003 39432 42766 56005 85570
  333 60005 83613 85618 87356
  555 384// 50023 60021 70025 80034=
11423 21/01 92707 10008 20008 39281 42775 55001 761//
  333 69905 89/01 91111
  555 300// 50018 60020 70025 80035=
11438 22968 72204 10047 20015 39753 40150 57011 8707/
  333 60005 87360
  555 380// 50030 60031 70032 80048 90055=
11450 21567 82205 10043 20022 39719 40171 55003 700// 8457/
  333 60005 84625 88357
  555 12508 386// 50029 60028 70031 80037=
11457 21265 82406 10015 20012 38866 48465 50000 76062 887//
  333 69905 88704 91014 91115
  555 398// 50004 60011 70012 80024=
11464 42582 82509 10006 21003 39148 42753 57011 8357/
  333 83623 86350 91114
  555 394//=
11487 22570 79901 10028 20001 39542 40174 55004 875//
  333 60005 85627 87640
  555 383// 50024 60023 70022 80032 90045=
11502 21774 82502 10023 21003 39688 40151 57014 700// 8807/
  333 60005 82356 88459
  555 384// 50024 60025 70029 80040 90053=
11509 22665 72801 10033 20020 39956 40154 55012 82570
  333 60005 82636 87359
  555 392// 50033 60033 70034 80041 90055=
11518 22582 72305 10042 20012 39714 40158 55008 8157/
  333 60005 81630 87356
  555 381//=
11519 22670 72001 10056 20010 39851 40161 55005 8157/
  333 60005 81634 85358 87359
  555 372//=
11520 22780 82303 10052 20009 39791 40161 55004 8552/
  333 60005 85650 88457
  555 374// 50029 60033 70034 80043 90053=
11538 22680 81002 10040 20019 39558 40170 55004 885//
  333 60005 88633
  555 386// 50014 60031 70032 80041=
11546 27661 /1901 10057 20038 39679 40166 55002 70010
  333 60005 81/34 85/42 87/50
  555 387// 50041 60042 70044 80053 90058=
11567 22665 72204 10046 20018 39808 40157 55007 82510
  333 60005 82636 87459
  555 382// 50037=
11603 21470 81302 10033 20003 39663 40151 55013 703// 8357/
  333 60005 81619 83648 87358
  555 380// 50033 60036 70039 80049 90058=
11624 21665 72201 10057 20016 39865 40157 58012 76162 87500
  333 69905 87647
  555 375// 50037=
11628 21570 82104 10043 20008 39524 40164 55009 72162 86570
  333 69905 83632 86637 88357
  555 378// 50026 60028 70029 80040 90048=
11636 21567 71601 10027 20002 39483 42775 57009 721// 875//
  333 69905 87632
  555 384// 50018 60025 70030 80042 90049=
11643 21470 82103 10007 21010 39177 42756 58009 77072 885//
  333 69905 88610
  555 13607 389// 50012 60014 70017=
11652 22670 82001 10053 20001 39877 40158 57012 8552/
  333 60005 85644 88457
  555 369// 50044=
11653 26/// ///// 11046 21047 3//// 4//// 5////
  333 6///5
  555 399//=
11659 21662 71403 10034 21004 39520 40167 58007 760// 875//
  333 69905 87637
  555 376// 50011 60027 70025 80035 90044=
11669 22570 72207 10018 21004 39262 42755 58014 83530
  333 60005 83627 87358
  555 385// 50016 60028 70030 80038 90050=
11679 21870 81902 10045 21009 39672 40163 58007 700// 8807/
  333 60005 83357 88462
  555 368// 50039 60040 70037 80047 90061=
11683 21665 82204 10017 21021 39283 42769 58004 770// 8557/
  333 69905 85633 87357
  555 1//04 376// 50026 60024 70027 80036=
11692 21665 71702 10027 20012 39595 40177 58002 76062 87500
  333 69905 87640
  555 390// 50022=
11693 21662 82101 10030 20009 39688 40178 58004 76166 885//
  333 69905 84643 88649
  555 12205 386// 50032 60035 70036 80053 90059=
11698 21760 81802 10037 20017 39764 40178 58006 760// 8802/
  333 69905 88550
  555 387// 50041 60042 70047 80055 90066=
11710 21980 72003 10028 21005 39545 40168 58007 703// 8705/
  333 60005 87358
  555 379// 50043 60043 70043 80050=
11723 22765 81801 10041 20006 39876 40178 57006 885//
  333 6///5 88656
  555 378// 50033 60034 70039 80051=
11730 21/03 72409 11034 21045 38606 48427 58009 770// 875//
  333 69905 856// 83604 91015 91116 93626 96048
  444 56//5
  555 392//=
11766 22980 72206 10004 21009 39266 42767 57008 82036
  333 60005 82362 87270 91012 91111
  555 391// 50008 60013 70019 80037=
11774 21869 81503 10032 20014 39902 40178 57008 703// 8807/
  333 60005 85357 88359
  555 388//=
11782 22980 62305 10044 21006 39860 40169 58009 86032
  333 60005 86359
  555 370//=
11787 22186 72307 11027 21034 38628 48447 55009 81572
  333 60005 81601 87350 91013 91113 93518
  555 396// 50006 60012 70009 80021=
0000011000
663
UANT01 CWAO 111712
ARP UAL16 5011N04631W 1712 F380 MS61 297/70 KT
N48127 DDL IG1 111712 F64A
0000011100
664
UANT01 CWAO 111712
ARP AWE717 4805N04949W 1712 F380 MS58 308/89 KT
N274AY DDL YYT 111712 J15A
0000012800
665
SNVF51 EGRR 111700
BBXX
62103 11174 99499 70029 46/99 /1505 10091 20036 40227 52011 22200
00112 11003 70013=
0000011600
666
SNVF51 EGRR 111700
BBXX
62304 11174 99512 10018 46/98 /3118 10082 40221 52019 22200 10501
70003=
0000014400
667
SNVF51 EGRR 111700
BBXX
62304 11174 99512 10018 46/98 /3118 10082 20022 40221 51020 22200
00101 10501 70003 333 90710 91125=
0000012800
668
SNVF51 EGRR 111700
BBXX
62305 11174 99504 70000 46/// /2707 10085 20033 40231 52015 22200
00110 10701 70005=
0000011600
669
SNVF51 EGRR 111700
BBXX
62050 11174 99500 70044 46/// /1310 10094 20037 40221 22200 10802
70011=
0000012800
670
SNVF51 EGRR 111700
BBXX
62170 11174 99514 10020 46/98 /2720 10082 20019 40223 52024 22200
00105 10401 70005=
0000014400
671
SNVF51 EGRR 111700
BBXX
62095 11174 99529 70156 46/// /1726 10102 20062 40045 56044 22200
00100 10809 70043 333 90710 91137=
0000011600
672
SNVF51 EGRR 111700
BBXX
62303 11174 99516 70051 46/// /1410 10077 20025 40219 22200 10703
70016=
0000013800
673
SNVF51 EGRR 111700
BBXX
62081 11174 99521 70105 46/// /1421 10087 20039 40151 57018 22200
10905 70027 333 90710 91131=
0000011200
674
SNVF51 EGRR 111700
BBXX
64046 11174 99605 70042 46/// /2932 10073 20015 40057 333 90710 91142=
00000000