0000066100
375
UDAF01 FAPR 111707
AMDAR 1117
ASC AFZA24 2600S 02814E 111702 F074 PS165 015/007 TB0 S031 333 F/// VG000=
ASC AFZA24 2558S 02813E 111703 F077 PS157 023/005 TB0 S031 333 F/// VG000=
ASC AFZA24 2557S 02812E 111703 F080 PS150 022/002 TB0 S031 333 F/// VG000=
ASC AFZA24 2556S 02811E 111703 F084 PS160 194/005 TB0 S031 333 F/// VG000=
ASC AFZA24 2555S 02810E 111704 F087 PS155 182/006 TB0 S031 333 F/// VG000=
ASC AFZA24 2552S 02808E 111704 F098 PS135 200/019 TB0 S031 333 F/// VG000=
ASC AFZA24 2543S 02801E 111706 F117 PS080 202/021 TB0 S031 333 F/// VG000=
ASC AFZA24 2537S 02756E 111707 F137 PS025 182/017 TB0 S031 333 F/// VG000=
0000155000
376
SNVD01 PANC 111700 RRB
BBXX
9HJD9 11174 99485 50645
41999 /3320 1//// 2//// 40160 54/// 7//// 8////
22234 00120 2//// 3//// 4//// 5//// 6//// 8//// ICE /////=
WECB 11174 99327 71172
43/// /0303 10157 20109 40221 5//// 7//// 8////
222// 04148 2//// 3//// 4//// 5//// 6//// 8//// ICE /////=
KAOU 11174 99047 31070
43/// /3311 10268 20235 40118 5//// 7//// 8////
222// 04300 2//// 3//// 4//// 5//// 6//// 8//// ICE /////=
WSQ2674 11174 99327 71172
43/// /0405 10149 2//// 40214 5//// 7//// 8////
222// 04150 2//// 3//// 4//// 5//// 6//// 8//// ICE /////=
C6FR5 11173 99171 70626
41797 20924 10230 2//// 40170 54/// 7//11 8216/
22200 00270 20301 306// 40402 5//// 6//// 8//// ICE 0/0//=
KAQP 11174 99098 71043
43/// /0714 10267 20222 40121 5//// 7//// 8////
222// 04270 2//// 3//// 4//// 5//// 6//// 8//// ICE /////=
C6VG7 11174 99233 70831
41898 31913 10260 2//// 40187 53005 7//11 831//
22214 00270 20502 308// 41002 5//02 6//// 8//// ICE /////=
WYQ4356 11174 99461 70840
43/// /2513 10015 49906
2227/ 00001=
WUR8857 11174 99430 70879
43/// /2918 10008 49988
2221/ 00010=
WYP8657 11174 99459 70854
43/// /3110 10001 49920
2227/ 00001=
WCF3012 11174 99431 70824
43/// /2212 10051 49927
2221/ 00426=
C6TZ9 11174 99275 50479
41/// /3519 10270 20228 40140 54/// 7//// 8////
222// 0//// 2//// 3//// 4//// 5//// 6//// 80240 ICE /////=
WDJK 11174 99374 71586
41598 41714 10128 20114 40298 57013 70300 841//
22283 00140 2//// 3//// 4//// 5//// 6//// 80120 ICE /////=
0000024900
377
SNVD20 KWNB 111700 RRF
BBXX
44059 11171 99368 70763 46/// /2207 10202 40076 91700 22200 00083
333 91211 555 11077 22084=
44058 11171 99376 70763 46/// /1706 10091 40071 91700 22200 00045
10301 70004 333 91207 555 11065 22070=
0000042700
378
SNVD22 KWNB 111700 RRL
BBXX
46089 11171 99459 71258 46/// /2111 10105 49968 56027 91650 22200
00091 11111 20607 323// 41109 70057 333 91214 555 11119 22129
31621 42417 61649 212109 213109 220121 212113 205109 205103=
46053 11171 99343 71199 46/// /2602 10137 40220 53014 91650 22200
00147 11403 326// 41403 70015 333 91203 555 11015 22016 31550
42803 61649 255015 270014 282019 289024 288021 283024=
0000023800
379
SNVE15 KWNB 111700 RRC
BBXX
51003 11171 99193 71606 46/// /1306 10247 40123 53012 91650 22200
00253 11104 20501 3//// 41104 70022 333 91207 555 11058 22061
31637 41408 61649 134056 136058 131060 111044 117051 116052=
0000045300
380
SNVD17 KWNB 111700 RRH
BBXX
46076 11171 99595 71480 46/// /2606 10023 49858 57016 91650 22200
00062 11003 20402 3//// 41003 70016 333 91208 555 11065 22067
31610 42508 61649 257063 257064 255064 261063 246068 247068 82407
91553=
46077 11171 99579 71543 46/// /0503 10014 49858 58033 91650 22200
00042 11101 3//// 41101 70006 333 91204 555 11034 22035 31637
40504 61649 050033 045033 049027 050027 051019 058013 80404 91640=
0000012600
381
SMCN04 KWBC 111200
AAXX 11124
71619 15/// /2902 11103 21119 30152 40213 58005 60001 333 11074
21110 70000=
0000034500
382
SIVD30 KWBC 111500 RRR
BBXX
42887 11151 99282 70885 46/// /2505 10227 20204 91500 22200 10402
 70011 555 11038 22041=
42392 11151 99272 70900 46/// ///// 1//// 91500 22200 10402 70010=
42369 11151 99272 70903 46/// /2201 1//// 91500=
42375 11151 99285 70883 46/// /2112 1//// 91500 22200 10402 70011
 555 11093 22102=
0000010400
383
SAUS71 KWBC 110700 RRH
METAR
KMTN 110739Z AUTO 00000KT 1/2SM FG OVC001 03/03 A3006=

0000009900
384
SAUS72 KWBC 110700 RRF
METAR
KBQK 110735Z AUTO 19004KT 4SM OVC003 18/17 A3005=

0000084100
385
FASW41 LSSW 110724
LSAS GAMET VALID 110900/111500 LSZH-
WESTERN SWITZERLAND
SECN I
TURB: LCA MOD 3500 FT AMSL/FL070
SECN II
W/T:  5000FT 240/35KT PS02   10000FT  260/35KT MS06
FZLVL: FL075
MNM QNH: 1019 HPA
EASTERN SWITZERLAND
SECN I
TURB: LCA MOD 3500 FT AMSL/FL070
SECN II
W/T: 5000FT 260/35KT PS02   10000FT  260/35KT MS06
FZLVL: FL075
MNM QNH: 1018 HPA
WESTERN ALPINE SWITZERLAND
SECN I
TURB: LCA MOD FL070/FL140
SECN II
W/T: 8000FT 230/20KT MS01   13000FT  270/30KT MS12
FZLVL: FL075
EASTERN ALPINE SWITZERLAND
SECN I
TURB: LOC MOD FL070/FL140
SECN II
W/T: 8000FT 250/15KT MS01   13000FT 260/30KT MS12
FZLVL: FL075
SOUTHERN SWITZERLAND
SECN I
HAZARDOUS WX NIL
SECN II
W/T: 5000FT 240/10KT PS01   10000FT 260/10KT MS03
FZLVL: FL075
MNM QNH: 1022 HPA  =

0000015100
386
SAUS73 KWBC 110700 RRG
METAR
KALN 110735Z AUTO 23010KT 10SM 06/06 A2954=
KSAW 110737Z AUTO 00000KT 4SM -SN OVC008 M02/M02 A2937=

0000020200
387
FTUS51 KWBC 110742 AAA
TAF AMD
KIPT 110739Z 1108/1206 08003KT 2SM -RA BR SCT004 BKN010 OVC025
      WS020/19045KT
     FM111500 17012G24KT 3SM RA BR BKN009 OVC016 WS012/19045KT=

0000016100
388
FTUS52 KWBC 110742 AAA
TAF AMD
KGGG 110741Z 1108/1206 34006KT P6SM SKC
     FM111700 30012G18KT P6SM SKC
     FM120000 28004KT P6SM SKC=

0000050000
389
FTUS80 KWBC 110742 AAA
TAF AMD
KDTW 110741Z 1108/1212 15007KT 3SM -RA BR OVC003 WS020/19043KT
     FM111200 18010KT 2SM SHRA BR OVC004
     FM111700 24012G20KT 6SM BR OVC010
     FM120600 25010KT P6SM OVC025=
KGGG 110741Z 1108/1206 34006KT P6SM SKC
     FM111700 30012G18KT P6SM SKC
     FM120000 28004KT P6SM SKC=
KIPT 110739Z 1108/1206 08003KT 2SM -RA BR SCT004 BKN010 OVC025
      WS020/19045KT
     FM111500 17012G24KT 3SM RA BR BKN009 OVC016 WS012/19045KT=

0000201800
390
SPUS70 KWBC 110742
SPECI
K2DP 110738Z AUTO 20015G20KT 4SM +SHRA VCTS BKN010 18/17 A3009 RMK
     AO2=
KRSW 110738Z 14006KT 7SM BKN003 21/20 A3006 RMK AO2 T02060200=
KBOK 110738Z AUTO 16012G21KT 1 3/4SM BR OVC002 10/10 A3009 RMK AO2
     $=
KDCA 110738Z 02004KT 3/4SM R01/4500VP6000FT RA BR OVC002 03/02
     A3004 RMK AO2 RAB26 P0003=
KHAO 110738Z AUTO 10004KT 1 3/4SM -RA BR OVC080 08/08 A2967 RMK
     AO2 P0005 T00780078=
KHYA 110738Z 19007KT 3/4SM BR VV002 07/06 A3022 RMK AO2
     T00670061=
KLWM 110738Z AUTO 00000KT 1 1/2SM -RA BR OVC005 02/01 A3023 RMK
     AO2 RAB21 P0000 T00220006=
KMCB 110738Z AUTO 19013G18KT 10SM OVC005 19/18 A2981 RMK AO2 LTG
     DSNT ALQDS RAE20 TSE18 CIG 004V009 P0001 T01890183=
KMPO 110738Z AUTO 16010KT 3/4SM -RA BR VV002 05/04 A3002 RMK AO2
     P0005 T00500044=
KOFP 110738Z AUTO 29005KT 3/4SM BR VV003 03/03 A3006 RMK AO2
     T00330028=
KSBM 110738Z AUTO 23005KT 3SM BR OVC004 02/02 A2940 RMK AO2
     T00170017=
KY50 110738Z AUTO 27004KT 4SM HZ OVC002 00/ A2941 RMK AO2 TSNO CIG
     001V007 P0001 $=
PACV 110738Z 00000KT 2SM R27/2000V3000FT BR FEW035 M06/M07 A2923
     RMK AO2 $=
PAGK 110738Z AUTO 32003KT 3SM -SN BR OVC045 M12/M14 A2923 RMK AO2
     P0000 T11221144 TSNO=
KADG 110739Z AUTO 21011KT 1 1/2SM BR OVC002 04/04 A2957 RMK AO2
     RAE23 P0000 TSNO=
KARA 110739Z AUTO 21011KT 3/4SM BR VV002 18/18 A2986 RMK AO2 LTG
     DSNT SW AND W TSB0655E10 $=
KASD 110739Z AUTO 18008KT 9SM SCT003 OVC016 18/18 A2986 RMK AO2
     T01830178 TSNO=
KFFT 110739Z AUTO 25005KT 9SM -RA SCT040 OVC070 11/11 A2966 RMK
     AO2 LTG DSNT N-SE P0021 T01110106=
KLEB 110739Z AUTO 00000KT 8SM OVC003 M02/M04 A3016 RMK AO2
     T10221044=
KMIE 110739Z AUTO 23008KT 8SM OVC005 07/06 A2958 RMK AO2 RAE0659
     P0000 T00670061 TSNO=
KPWM 110739Z AUTO 01003KT 6SM BR OVC013 M01/M02 A3024 RMK AO2
     T10061022=
PAOH 110739Z AUTO 00000KT 3/4SM BR OVC004 M02/M02 A2924 RMK AO2
     TSNO $=

0000010600
391
SPUS41 KWBC 110742
SPECI
KLWM 110738Z AUTO 00000KT 1 1/2SM -RA BR OVC005 02/01 A3023=

0000009000
392
SPUS42 KWBC 110742
SPECI
KRSW 110738Z 14006KT 7SM BKN003 21/20 A3006=

0000010400
393
SPUS43 KWBC 110742
SPECI
KINL 110738Z AUTO 22003KT 1 1/2SM BR OVC003 M03/M04 A2938=

0000012500
394
SPUS43 KWBC 110742
SPECI
KLEX 110738Z 31014G27KT 2 1/2SM VCTS +RA BR FEW006 BKN013 OVC041
12/10 A2968=

00000000