0000036400
035
SAGR33 LGAT 110920
METAR LGBL 110920Z 00000KT 9999 FEW018 14/09 Q1024 NOSIG=
METAR LGHI 110920Z NIL=
METAR LGKC 110920Z NIL=
METAR LGKF 110920Z NIL=
METAR LGKP 110920Z NIL=
METAR LGKZ 110920Z NIL=
METAR LGMK 110920Z 02010KT 9999 FEW008 SCT180 14/10 Q1022=
METAR LGNX 110920Z NIL=
METAR LGPA 110920Z NIL=
METAR LGSO 110920Z NIL=

0000036900
036
SAFI34 EFHK 110920
EFET 110920Z AUTO VRB02KT 9999 BKN044 M31/M34 Q1015=
EFIV 110920Z 24003KT 2000 -SG BR OVC004 M28/M31 Q1018 R04/41//88=
EFKE 110920Z AUTO 02012KT CAVOK M16/M20 Q1011=
EFKI 110920Z 04008KT 9999 FEW010 M16/M18 Q1004=
EFKS 110920Z AUTO 03007KT 310V110 CAVOK M16/M20 Q1007=
EFKT 110920Z 23003KT CAVOK M25/M28 Q1015 R16/////95=

0000012300
037
SPCZ40 LKKV 110924
SPECI LKKV 110924Z VRB01KT 0300 R29/P2000N FG SCT001 00/M01 Q1016
RMK REG QNH 1013=

0000009200
038
SAEG31 HECA 110930
METAR HECA 110930Z 00000KT 6000 NSC 18/07 Q1025 NOSIG=

0000147800
039
SPUS70 KWBC 110926
SPECI
KEWN 110922Z AUTO 19010KT 10SM FEW011 21/18 A3002 RMK AO2=
KIZG 110922Z AUTO 00000KT 4SM UP BKN008 OVC015 M06/M09 A3017 RMK
     AO2 UPB18 CIG 007V011 P0000 I1000 T10611094=
KLCH 110922Z AUTO 25006KT 2SM BR OVC002 18/17 A2986 RMK AO2
     T01780172=
KMIV 110922Z AUTO 18007KT 140V220 10SM -RA BKN009 OVC013 14/13
     A3001 RMK AO2 RAB18 CIG 006V010 P0000 T01390128=
KTYR 110922Z 00000KT 1SM BR CLR 08/08 A2987 RMK AO2=
PAIG 110922Z AUTO 00000KT 10SM OVC013 M09/M10 A2936 RMK AO2 TSNO
     $=
KBOK 110923Z AUTO 18009G17KT 4SM BR OVC004 10/10 A3005 RMK AO2 CIG
     001V006 $=
KDAW 110923Z AUTO 36003KT 1SM -FZRA BR OVC002 M01/M02 A3014 RMK
     AO2 FZRAE0859B17 P0001 I1001 T10061017=
KEET 110923Z AUTO 19014G24KT 10SM OVC008 18/17 A2978 RMK AO2 LTG
     DSNT W CIG 005V010 T01830172=
KEKQ 110923Z AUTO 27008KT 1SM +VCTSRA BR SCT002 BKN012 OVC025
     12/12 A2970 RMK AO2 LTG DSNT ALQDS TSB06 P0052 WSHFT 0852=
KFLO 110923Z 18007KT 5SM BR OVC004 17/17 A2996 RMK AO2 CIG
     003V006=
KGMU 110923Z AUTO 07006KT 3SM -RA BR OVC004 08/07 A2993 RMK AO2
     LTG DSNT N AND SW CIG 003V006 P0003=
PATQ 110923Z AUTO 27009KT 1 1/2SM -SN OVC006 M21/M24 A2978 RMK AO2
     TSNO P0000=
PAPB 110923Z AUTO 10026G34KT 5SM -SN BR BKN008 OVC014 01/01 A2884
     RMK AO2 PK WND 10034/0919 P0000 T00110011 TSNO $=
PATQ 110923Z AUTO 27009KT 1 1/2SM -SN OVC006 M21/M24 A2978 RMK AO2
     TSNO P0000=

0000011000
040
SPUS31 KWBC 110926
SPECI
KORF 110922Z AUTO 16006KT 10SM BKN016 BKN026 OVC037 17/16 A3001=

0000010600
041
SPUS41 KWBC 110926
SPECI
KCEF 110923Z AUTO 01001KT 1 3/4SM -RA BR OVC002 00/00 A3009=

0000068300
042
SARA32 RUMS 110530
METAR UHBB 110530Z 32006MPS 290V350 CAVOK M25/M33 Q1023 NOSIG RMK
QFE749/0999 36410160=
METAR UHHH 110530Z 25008G12MPS 9999 DRSN FEW200 M21/M30 Q1018 NOSIG
RMK QFE757/1010 23090060=
METAR UHMA 110530Z NIL=
METAR UHMD 110530Z NIL=
METAR UHMM 110530Z 03004MPS 9999 FEW066 M19/M29 Q1008 NOSIG RMK
QFE741 88820555 MOD TURB 0-1000=
METAR UHPP 110530Z VRB01MPS 9999 BKN026 BKN100 M06/M11 Q0995 NOSIG
RMK MT OBSC QFE743/0991 SC05 055 055=
METAR UHSS 110530Z 36002MPS 5000 -SHSN BKN030CB M14/M16 Q1011 NOSIG
MT OBSC RMK QFE757/1010 01810366=
METAR UHWW 110530Z VRB01MPS 9999 BKN100 M05/M22 Q1024 NOSIG RMK
QFE767/1022 25CLRD70=

0000012000
043
SARA35 RUMS 110530
METAR USCM 110530Z VRB01MPS 6000 OVC010 M06/M07 Q1009 NOSIG 19420150
RMK QFE719=

0000020200
044
SAIO31 KWBC 110500 RRF
METAR
FMCZ 110530Z 25003KT 9999 FEW021 BKN300 30/23 Q1014 NOSIG=
FMEE 110530Z 09020KT 9999 FEW026 30/21 Q1015 NOSIG=
VYMD 110530Z NIL=
VYYY 110530Z NIL=

0000010000
045
SPCN46 CWAO 110537
SPECI CYBN 110537Z AUTO 14007KT 1 3/4SM -RA VV003 01/01 A2978=

0000094800
046
SARA34 RUMS 110530
METAR UNAA 110530Z VRB01MPS 9999 FEW043 BKN090 M03/M08 Q1031 NOSIG
RMK QFE751 20090040=
METAR UNBB 110530Z 23005MPS 9999 -SN BKN033 M08/M11 Q1031 NOSIG RMK
QFE751/1001 24452045=
METAR UNEE 110530Z 20005MPS 2100 -SN OVC007 M08/M10 Q1029 NOSIG RMK
QFE749 23452045=
METAR UNKL 110530Z 23003MPS 9999 -SHSN SCT033CB BKN083 M05/M11 Q1027
NOSIG RMK QFE745 29////40=
METAR UNNT 110530Z 20004MPS 3300 -SN BKN024 OVC083 M07/M09 Q1029
25390137 16390142 NOSIG RMK QFE762/1016=
METAR UNOO 110530Z 19005MPS 6000 BKN019 BKN033CB M08/M10 Q1023
25390137 NOSIG RMK QFE759=
METAR UNTT 110530Z 22006MPS 3400 -SHSN SCT003 BKN016CB OVC066 M07/M09
Q1027 NOSIG RMK QBB110 QFE755 21390032=
METAR USTR 110530Z 18004MPS 9999 BKN020CB M07/M08 Q1013 NOSIG RMK
QFE750/1001 21390050 12750029=
METAR USHH 110530Z 04003MPS 3200 -SN BKN003 OVC080 M19/M22 Q1015
TEMPO 0600 +SN OVC002 RMK QBB090 QFE758 06////40=

0000062200
047
SARS33 RUMS 110530
METAR ULLI 110530Z 32007MPS 9999 DRSN SCT011 BKN015 OVC066 M04/M07
Q0992 88550538 NOSIG=
METAR UUBW 110530Z 21003MPS 9999 BKN015 03/01 Q0986 NOSIG=
METAR UUDD 110530Z 23005MPS 9999 BKN010 OVC100 03/01 Q0985 64290095
14290095 NOSIG=
METAR UUDL 110530Z 17003MPS 6000 OVC003 01/01 Q0984 NOSIG RMK QBB100
QFE729 23690532=
METAR UUEE 110530Z 21006MPS 9999 OVC009 02/01 Q0984 75290151 25290151
NOSIG=
METAR UUWW 110530Z 23005MPS 9999 BKN012 OVC016 02/01 Q0985 24290045
NOSIG=
METAR UUMO 110530Z 24004MPS 9999 BKN010 BKN020 02/02 Q0985 NOSIG RMK
QFE724/0966 26250550=

0000012300
048
SARA31 RUMS 110530
METAR UEEE 110530Z 00000MPS 3200 BR OVC200 M42/M47 Q1035 NOSIG RMK
QFE767 23490145=

0000109300
049
SARS32 RUMS 110530
METAR URKA 110530Z 29005MPS 9999 BKN018 BKN120 06/03 Q1016 NOSIG RMK
QFE757/1009 SC070=
METAR URKK 110530Z 28008G11MPS 6000 -SHRA SCT012 SCT020CB OVC030
08/07 Q1014 TEMPO 24012G17MPS RMK QFE757 SC065=
METAR URML 110530Z 19004MPS 6000 BKN015 03/01 Q1012 NOSIG RMK
QFE759/1012 SC070=
METAR URMM 110530Z VRB01MPS 9999 FEW043 BKN220 M04/M05 Q1009 30CLRD70
NOSIG RMK QFE729/0972=
METAR URMN 110530Z 20004MPS 9999 SCT100 OVC260 07/M10 Q1009 NOSIG RMK
QFE720 SC07=
METAR URMO 110530Z VRB01MPS 9999 BKN150 M03/M05 Q1009 NOSIG RMK
QFE714/0952 SC070=
METAR URMT 110530Z 31009G13MPS 9999 SCT033 BKN100 06/M04 Q1010 NOSIG
RMK QFE719 SC0.60=
METAR URRR 110530Z 26007G10MPS 9999 BKN018 OVC100 05/03 Q1008
22290043 NOSIG=
METAR URSS 110530Z 04004MPS 9999 BKN100 OVC210 05/M02 Q1018 NOSIG RMK
R06/07002MPS QFE762 02000070 06//////=
METAR URWA 110530Z 18004MPS 9999 SCT040 BKN120 02/00 Q1012 NOSIG RMK
QFE761/1015 SC055=
METAR URWI 110530Z NIL=
METAR URWW 110530Z 20009G12MPS 9999 BKN016CB OVC100 03/02 Q1001 NOSIG
RMK 29290060=

0000085400
050
SARS35 RUMS 110530
METAR USPP 110530Z 12004MPS 8000 OVC017 M04/M05 Q1006 21310140 NOSIG
RMK QFE744/0992=
METAR UWKD 110530Z 16013G16MPS 5000 -BLSN OVC006 M00/M01 Q0997
R11/7/0240 TEMPO 1500 OVC004 RMK QFE737/0983=
METAR UWKE 110530Z 18005G08MPS 7000 -SN DRSN OVC005 M03/M04 Q1002
NOSIG RMK  QBB160 QFE735/0980 21420542=
METAR UWKS 110530Z 16009MPS 1100 SHSN OVC004CB M01/M01 Q0993 TEMPO
1000 SHSN OVC004CB RMK QBB120 QFE729 06590532=
METAR UWLW 110530Z NIL=
METAR UWOR 110530Z NIL=
METAR UWOO 110530Z 21003MPS 5000 BR OVC008 M01/M02 Q1011 26830334
TEMPO 1000 BR OVC003 RMK QFE748/0997=
METAR UWSS 110530Z 19007G10MPS 0200 R12/0350 SNRA FG VV002 01/01
Q0998 12590340 NOSIG RMK QVV060 QFE736=
METAR UWWW 110530Z 17009G13MPS 3300 BR OVC005 M02/M03 Q1002 23520540
33//99// TEMPO OVC004 RMK QBB150 QFE740/0987=

0000061200
051
SARS36 RUMS 110530
METAR ULAA 110530Z 07007G12MPS 1400 R08/P2000U -SN BLSN OVC009
M17/M19 Q1000 BECMG 2000 SN BLSN OVC005 RMK QFE749/0999 SC053=
METAR ULMM 110530Z 00000MPS 9999 SCT004 M35/M39 Q1017 NOSIG RMK
QBB130 OBST OBSC QFE755 31450239=
METAR ULOO 110530Z NIL=
METAR ULPB 110530Z NIL=
METAR UMKK 110530Z 26003MPS 9999 BKN017 OVC100 03/02 Q1007 R24/29//60
NOSIG RMK QFE754/1005=
METAR UUOO 110530Z 24004G07MPS 9999 OVC011 03/01 Q0994 NOSIG RMK
30290250=
METAR UUYY 110530Z 06003MPS 6000 SCT009 BKN017CB OVC066 M11/M13 Q1001
TEMPO 0700 +SHSN 0145//35 RMK QFE741/0988=

0000038400
052
FCDN31 EKCH 110500
TAF EKRK 110540Z 1106/1115 24012KT 9999 BKN020 TEMPO 1106/1108 
BKN008 TEMPO 1108/1111 -RA BKN004 TEMPO 1111/1115 RA BKN006=
TAF EKEB 110540Z 1106/1115 23014KT 9999 BKN012 TEMPO 1106/1111 
4000 RADZ BKN006 BECMG 1111/1113 30012KT SCT020=
TAF EKRN 110540Z 1106/1115 25020KT 9999 BKN008 TEMPO 1106/1110 
BKN025 TEMPO 1110/1115 -RA BKN004=

0000070500
053
FTDN31 EKCH 110500
TAF EKCH 110530Z 1106/1206 23012KT 9999 BKN020 TEMPO 1106/1109 
BKN008 TEMPO 1109/1112 -RA BKN004 TEMPO 1112/1117 RA BKN008 BECMG 
1115/1117 29013KT=
TAF EKBI 110530Z 1106/1206 23010KT 9999 BKN012 TEMPO 1106/1108 
BKN008 TEMPO 1108/1111 4000 RADZ BR BKN004 BECMG 1111/1113 30010KT 
SCT030 TEMPO 1118/1124 4000 SHRA BKN010 SCT020CB TEMPO 1200/1206 
SHRA FEW020CB=
TAF EKYT 110530Z 1106/1206 23012KT 9999 BKN015 TEMPO 1106/1109 
4000 RA BKN006 BECMG 1108/1111 27012KT TEMPO 1115/1206 7000 -SHRA 
SCT020CB=
TAF EKAH 110530Z 1106/1206 21008KT 9999 BKN020 TEMPO 1106/1111 
4000 RADZ BR BKN006 BECMG 1110/1112 27010KT TEMPO 1118/1206 SHRA 
FEW020CB=

0000040100
054
FTDN33 EKCH 110500
TAF COR EKKA 110540Z 1106/1206 22010KT 9999 BKN012 TEMPO 1106/1109 
3000 RADZ BR BKN006 BECMG 1109/1112 28012KT SCT020 TEMPO 1114/1124 
5000 SHRA BKN020CB TEMPO 1200/1206 28015G28KT 5000 SHRA BKN020CB=
TAF EKSP 110530Z 1106/1206 24010KT 9999 BKN008 TEMPO 1106/1111 
3000 RADZ BR BKN004 BECMG 1111/1114 29012KT BKN020 TEMPO 1115/1206 
5000 SHRA BKN020CB=

00000000