0000010100
535
SPUS31 KWBC 110659
SPECI
KORD 110655Z 21011KT 2 1/2SM -DZ BR OVC004 04/03 A2945=

0000009500
536
SAMA21 FIMP 110700
METAR FIMR 110700Z 09015KT 9999 -SHRA SCT017 30/25 Q1016=

0000010300
537
SABZ24 SBCT 110700
METAR SBCT 110700Z 19010KT 9999 SCT012 BKN020 19/17
Q1018 RETS=

0000058700
538
SAGR32 LGAT 110650
METAR LGAL 110650Z 36005KT CAVOK 03/01 Q1024=
METAR LGEL 110650Z 00000KT 9999 FEW025 09/07 Q1022=
METAR LGIO 110650Z AUTO 00000KT //// // ////// 07/06 Q1023 RE//=
METAR LGKV 110650Z 03004KT 7000 FEW008 05/05 Q1023=
METAR LGMT 110650Z 00000KT 9999 SCT030 13/09 Q1022=
METAR LGPZ 110650Z 07004KT 9999 FEW025 SCT080 11/09 Q1024 NOSIG=
METAR LGRX 110650Z 00000KT 9999 FEW070 SCT180 09/07 Q1023 NOSIG=
METAR LGSK 110650Z 00000KT 9999 SCT016 09/08 Q1022=
METAR LGSR 110650Z NIL=
METAR LGZA 110650Z 00000KT 9999 SCT018 BKN080 10/08 Q1023=

0000009600
539
SASG20 GOOY 110700
METAR GOOY 110700Z 02008KT 9999  FEW010 19/15 Q1013 NOSIG=

0000013800
540
FCNO38 ENMI 110500 RRC
TAF ENNE 110500Z 1107/1115 08025KT 9999 -SHSN BKN020 TEMPO 1107/1115
         2000 SHSN VV008=

0000013500
541
FCUK32 EGGY 110500 RRD
TAF EGNH 110659Z 1106/1115 27010KT 9999 FEW025 PROB40 TEMPO
    1106/1109 7000 SHRA BKN012=

0000051800
542
FTME31 OLBA 110400 CCA
TAF OJAI  110450Z 1106/1212 29006KT 3000 BR BECMG 1107/1109
26008KT 6000 SCT030 SCT035 BECMG 1118/1120 VRB03KT 8000 NSC TEMPO
1202/1206 3000 BR SCT025 BECMG 1206/1208 24005KT 7000 NSC=
TAF OJAM  110450Z 1106/1212 34004KT 0900 FG BKN007 BECMG
1107/1109 26010KT 5000 HZ SCT030 SCT035 BECMG 1116/1118 VRB03KT 7000
FEW030 TEMPO 1203/1206 3000 BR SCT025 BECMG 1206/1208 23008KT 6000
NSC=
TAF OJAQ  110450Z 1106/1212 35010KT 7000 NSC TEMPO 1122/1206
01008KT
CAVOK=

0000018300
543
SACN61 CYZE 110700
METAR CYZE 110700Z AUTO 15016G23KT 3SM -FZRA BR OVC005 02/01 A2951
 RMK ICG INTMT MAX WND 15018KT AT 0651Z PRESFR PCPN 3.2MM PAST HR
 SLP000=

0000050400
544
SAGR33 LGAT 110650
METAR LGBL 110650Z VRB03KT 9999 FEW018 05/04 Q1023 NOSIG=
METAR LGHI 110650Z 00000KT 9999 FEW018 BKN025 BKN070 13/12 Q1022=
METAR LGKC 110650Z NIL=
METAR LGKF 110650Z 00000KT 9999 FEW015 SCT020 14/09 Q1023=
METAR LGKP 110650Z NIL=
METAR LGKZ 110650Z NIL=
METAR LGMK 110650Z 03006KT 9999 FEW008 BKN180 12/10 Q1021=
METAR LGNX 110650Z 00000KT 9999 SCT015 BKN180 13/11 Q1021=
METAR LGPA 110650Z VRB03KT 9999 FEW016 14/12 Q1021=
METAR LGSO 110650Z NIL=

0000008900
545
SAJM31 MKJP 110700
METAR MKJP 110700Z 01004KT 9999 FEW024 25/20 Q1015=

0000089900
546
SATU31 LTAA 110650
METAR LTAC 110650Z 31004KT 6000 OVC008 M04/M04 Q1024 NOSIG=
METAR LTAF 110650Z 04005KT 5000 HZ NSC 10/01 Q1023 BECMG TL0800
 CAVOK=
METAR LTAI 110650Z 35006KT 9999 FEW030 BKN200 08/05 Q1023 NOSIG=
METAR LTAJ 110650Z 00000KT CAVOK 04/M04 Q1022 NOSIG=
METAR LTAZ 110650Z 35004KT 5000 BR OVC004 M04/M04 Q1025=
METAR LTBA 110650Z 26004KT 240V310 6000 NSC 09/06 Q1024 NOSIG=
METAR LTBJ 110650Z VRB02KT 4700 BR FEW030 BKN100 08/04 Q1023 NOSIG=
METAR LTBS 110650Z 05005KT CAVOK 07/06 Q1024 NOSIG=
METAR LTCG 110650Z 25004KT 220V280 9000 FEW035 BKN180 13/M03 Q1022
 NOSIG=
METAR LTCS 110650Z 34006KT CAVOK 07/M06 Q1022=
METAR LTFC 110650Z 00000KT 0200 R05/0375U R23/0300U FZFG VV001
 M04/M04 Q1024=
METAR LTFE 110650Z VRB02KT 6000 SCT035 BKN100 10/09 Q1023 NOSIG=
METAR LTFJ 110650Z 23001KT 4400 HZ FEW013 08/02 Q1024 BECMG TL0750
 6000=

0000081500
547
SATU32 LTAA 110650
METAR LTAG 110650Z 02005KT CAVOK 09/M02 Q1023 NOSIG=
METAR LTAN 110650Z 00000KT 0350 R01/0375U R19/0350U FZFG VV002
 M03/M03 Q1024 BECMG TL0750 0800=
METAR LTAP 110650Z 00000KT 9999 BKN021 M01/M03 Q1025 NOSIG=
METAR LTAT 110650Z VRB02KT CAVOK M01/M05 Q1023 NOSIG=
METAR LTAU 110650Z 00000KT 0650 R25/1000U R07/0900N BCFG OVC002
 M05/M06 Q1024 BECMG 4500 BR SCT010 BKN200=
METAR LTBF 110650Z 00000KT 1600 R36/P1500U R18/1200U BR SCT035 02/02
 Q1024 NOSIG=
METAR LTBU 110650Z 07003KT 0800 R05/0800U R23/0800U FG NSC 05/05
 Q1024=
METAR LTCC 110650Z 12004KT CAVOK 01/M03 Q1021 NOSIG=
METAR LTCE 110650Z 00000KT 0300 R26L/0650N R08R/0500N R26R/0450N
 R08L/0900N FZFG NSC M23/M25 Q1022 BECMG 2000 BR=
METAR LTCJ 110650Z VRB01KT 2500 BR NSC M02/M02 Q1022=

0000065300
548
SATU33 LTAA 110650
METAR LTAR 110650Z 11003KT CAVOK M02/M07 Q1021=
METAR LTAY 110650Z 00000KT 9999 FEW035 SCT200 M00/M01 Q1023=
METAR LTBR 110650Z 14002KT 7000 FEW035 BKN200 M02/M03 Q1026 NOSIG=
METAR LTBY 110650Z 03003KT 360V070 6000 OVC006 M02/M03 Q1025=
METAR LTCA 110650Z VRB01KT CAVOK M01/M04 Q1023 NOSIG=
METAR LTCD 110650Z 00000KT 7000 NSC M08/M11 Q1024 NOSIG=
METAR LTCF 110650Z 00000KT CAVOK M17/M19 Q1020=
METAR LTCI 110650Z 06002KT 4000 BR FEW040 M04/M07 Q1020 BECMG TL0750
 8000=
METAR LTDA 110650Z VRB02KT CAVOK 03/01 Q1025=
METAR LTFH 110650Z 20008KT 170V230 9999 FEW036 BKN200 09/M02 Q1022
 NOSIG=

0000008700
549
SARH32 LDZM 110700
METAR LDLO 110700Z NIL=
METAR LDSB 110700Z NIL=

0000082700
550
SATU34 LTAA 110650
METAR LTAL 110650Z NIL=
METAR LTAS 110650Z NIL=
METAR LTAW 110650Z NIL=
METAR LTBD 110650Z NIL=
METAR LTBH 110650Z NIL=
METAR LTBO 110650Z NIL=
METAR LTCK 110650Z 00000KT 0200 R29/0400U R11/0700U FZFG OVC007
 M22/M24 Q1025=
METAR LTCL 110650Z 08001KT CAVOK 01/M04 Q1022=
METAR LTCM 110650Z NIL=
METAR LTCN 110650Z VRB01KT CAVOK 03/M02 Q1023=
METAR LTCO 110650Z 00000KT 0100 R16/0175N R34/0150N FZFG VV001
 M23/M24 Q1022=
METAR LTCP 110650Z 00000KT CAVOK 04/M05 Q1020=
METAR LTCR 110650Z NIL=
METAR LTCT 110650Z 22004KT 2500 R30/2500N SG BR BKN010 M11/M12 Q1028=
METAR LTCU 110650Z 30002KT 7000 NSC M06/M10 Q1024=
METAR LTCV 110650Z NIL=
METAR LTFD 110650Z 07003KT 5000 BR FEW015 SCT035 BKN100 07/05 Q1023=
METAR LTFG 110650Z 13004KT CAVOK 11/04 Q1022=

0000009500
551
SATU35 LTAA 110650
METAR LCEN 110650Z 28005KT 9999 FEW025 12/06 Q1023 NOSIG=

0000013800
552
SANO33 ENMI 110650 RRA
METAR ENAT 110650Z 22003KT 9999 FEW003 BKN005 M16/M18 Q1020 RMK WIND
           700FT 17005KT=

0000008300
553
SABZ18 SBKP 110700
METAR SBKP 110700Z 15005KT CAVOK 22/18 Q1016=

0000013300
554
SAGR31 LGAT 110650 RRA
METAR LGTS 110650Z VRB02KT 0800 R16/1700 R34/0350 FG SCT001 04/03
      Q1024 BECMG 1500=

00000000