0000050400
095
SAGR33 LGAT 110850
METAR LGBL 110850Z 00000KT 9999 FEW018 13/09 Q1024 NOSIG=
METAR LGHI 110850Z 00000KT 9999 FEW020 BKN060 15/13 Q1022=
METAR LGKC 110850Z NIL=
METAR LGKF 110850Z NIL=
METAR LGKP 110850Z NIL=
METAR LGKZ 110850Z 35004KT 9999 FEW070 SCT170 10/01 Q1023=
METAR LGMK 110850Z 03009KT 9999 FEW008 SCT180 14/11 Q1022=
METAR LGNX 110850Z 01005KT 9999 SCT015 SCT180 15/11 Q1022=
METAR LGPA 110850Z NIL=
METAR LGSO 110850Z 36005KT 9999 FEW018 SCT180 16/12 Q1022=

0000009500
096
SAQB31 LQSM 110900
METAR LQSA 110900Z VRB01KT 8000 FEW050 08/05 Q1023 NOSIG=

0000010500
097
SAFK41 EGYP 110850
METAR EGYP 110850Z 22019KT 9999 -RA FEW028 BKN036 04/M02 Q1006 BLU=

0000019500
098
SAMX43 MMMZ 110900
METAR MMMZ 110848Z 36007KT 10SM  SKC 11/08 A2996 RMK SLP145 54000
907=
METAR MMTJ 110840Z 00000KT 6SM  SKC 13/00 A3013 
      RMK SLP209 53003 916 HZY=

0000031900
099
SAMX44 MMMD 110855
METAR MMCZ 110846Z 00000KT 7SM  FEW080 21/21 A2997 
      RMK SLP156 52004 958 8/060 SC=
METAR MMMD 110849Z 00000KT 7SM  SKC 20/20 A2995 RMK SLP146 57004 970=
METAR MMTP 110845Z NIL=
METAR MMUN 110848Z 14009KT 7SM  FEW015TCU 25/23 A2998 
      RMK SLP131 57013 960 8/200=

0000019500
100
SAMX31 KWBC 110845 RRA
METAR
MMAA 110845Z 00000KT 8SM SKC 23/21 A2990 RMK SLP131 57001 908=
MMMX 110850Z 00000KT 10SM SKC 10/05 A3030 NOSIG RMK SLP122 54000
     918 HZY=

0000009700
101
SPCN46 CWAO 110855
SPECI CYBN 110855Z AUTO 16009KT 3SM -RA OVC004 02/02 A2959=

0000009700
102
SAMP31 LMMM 110900 RRB
METAR HLLT 110850Z
19005KT 160V230 CAVOK 17/07 Q1024=

0000085000
103
SASN31 ESWI 110850
METAR ESGG 110850Z 24014KT 9999 BKN004 05/04 Q1000 R21/29//95=
METAR ESGJ 110850Z AUTO 23013KT 8000 -DZ FEW006/// SCT008///
BKN010/// 05/04 Q0999=
METAR ESGP 110850Z 24009KT 9999 SCT012 OVC082 06/05 Q1000
R19/29//95=
METAR ESGT 110850Z NIL=
METAR ESMK 110850Z AUTO 24010KT 9999NDV -DZ BKN011/// BKN017///
07/05 Q1005 RERA=
METAR ESMQ 110850Z AUTO 21007KT 9999 FEW015/// OVC017/// 05/04
Q1003=
METAR ESMS 110850Z 24017KT 6000 BR BKN005 06/05 Q1006 R17/29//95=
METAR ESMT 110850Z AUTO 22018KT 9000 DZ OVC006/// 06/05 Q1003=
METAR ESMX 110850Z AUTO 22010KT 190V250 9000 BR FEW006/// BKN008///
OVC011/// 05/04 Q1002=
METAR ESTA 110850Z 22014KT 9999 DZ BKN009 BKN012 OVC038 06/05 Q1004
REDZ=
METAR ESTL 110850Z AUTO 24013KT 9000NDV -RA FEW009/// SCT012///
BKN027/// 06/06 Q1005 REDZ=

0000028200
104
FTPA31 PHFO 110800 AAA
TAF PHLI 110850Z 1109/1206 05015G22KT P6SM VCSH FEW010 SCT020 BKN040
      TEMPO 1109/1112 -SHRA BKN020
     FM111200 07012KT P6SM VCSH SCT020 BKN050
     FM111800 13010KT P6SM SCT025 BKN050
     FM120200 15007KT P6SM SCT020 BKN050=

0000061500
105
SADL31 EDZO 110850
METAR EDDF 110850Z 23003KT 7000 -RA FEW003 BKN041 02/02 Q1017
     NOSIG=
METAR COR EDDH 110850Z 22015KT 7000 BKN008 06/04 Q1010 TEMPO 4000=
METAR EDDK 110850Z 13006KT 9999 BKN035 BKN100 04/02 Q1016 NOSIG=
METAR EDDL 110850Z 15011KT CAVOK 04/02 Q1015 NOSIG=
METAR EDDM 110850Z 07003KT 8000 NSC M01/M01 Q1018 NOSIG=
METAR EDDN 110850Z 11004KT CAVOK M00/M00 Q1017 NOSIG=
METAR EDDS 110850Z VRB01KT 9999 RA FEW010 SCT040 BKN060 00/M00 Q1016
     BECMG NSW=
METAR EDDT 110850Z 23009KT CAVOK 05/02 Q1014 NOSIG=
METAR EDDV 110850Z 23008KT CAVOK 05/02 Q1013 NOSIG=

0000046200
106
SADL32 EDZO 110850
METAR EDDB 110850Z 23010KT CAVOK 04/02 Q1014 NOSIG=
METAR EDDC 110850Z 22009KT CAVOK 05/01 Q1015 NOSIG=
METAR EDDE 110850Z 20006KT CAVOK 03/00 Q1015 NOSIG=
METAR EDDG 110850Z 19007KT CAVOK 03/01 Q1013 TEMPO BKN010=
METAR EDDP 110850Z 20009KT CAVOK 04/01 Q1015 NOSIG=
METAR EDDR 110850Z 12006KT 9000 BKN039 OVC080 02/01 Q1017 NOSIG=
METAR EDDW 110850Z 22011KT 9999 SCT011 SCT035 BKN090 05/03 Q1011
BECMG BKN012=

0000022500
107
FTPA31 PHFO 110800 AAA
TAF PHNL 110850Z 1109/1212 09005KT P6SM FEW030 SCT050
     FM111100 35005KT P6SM FEW030 SCT050
     FM112100 13008KT P6SM SCT025 SCT050
     FM120600 VRB04KT P6SM FEW030 SCT050=

0000028200
108
SAIS31 LLBG 110850
METAR LLET 110850Z 04004KT CAVOK 17/10 Q1025 RMK FEW100=
METAR LLHA 110850Z VRB02KT CAVOK 16/07 Q1024=
METAR LLIB 110850Z VRB02KT 6000 3000N HZ SKC 13/06 Q1024=
METAR LLOV 110850Z NIL=
METAR LLSD 110850Z VRB03KT 9999 SCT038 18/12 Q1023=

0000067100
109
SAFI31 EFHK 110850
METAR EFHK 110850Z 33005KT 300V360 9999 OVC008 M04/M05 Q0999 NOSIG=
METAR EFJY 110850Z AUTO 03006KT 6000 -SN OVC014 
M10/M11 Q1000=
METAR EFKU 110850Z AUTO 36008KT 7000 -SN FEW013 
BKN025 M11/M13 Q1002=
METAR EFOU 110850Z AUTO 06007KT 030V100 CAVOK M15/M19 Q1008 120/0087=
METAR EFRO 110850Z AUTO 03014KT 3400 BR NCD M19/M21
 Q1011=
METAR EFTP 110850Z AUTO 05006KT 9999 SCT009 OVC011 
M05/M07 Q1000=
METAR EFTU 110850Z AUTO 00000KT 0900 R26/1000V1600U SN FEW008/// 
OVC016/// M03/M04 Q0999 R08/690168=
METAR EFVA 110850Z AUTO 05008KT 010V070 5000 -SN FEW015/// BKN028/// 
OVC047/// M09/M11 Q1003 R16/420195=

0000012000
110
SAMX45 MMMY 110853
METAR MMMY 110840Z 29008KT 8SM  SKC 12/11 A2997 
      RMK SLP158 54001 924 HZY=

0000010800
111
SPUS31 KWBC 110853
SPECI
KBNA 110849Z 17005KT 1 3/4SM +RA BR BKN026 OVC035 12/11 A2968=

0000012100
112
SPUS41 KWBC 110853
SPECI
KILG 110849Z AUTO 33005KT 1/2SM R01/2600V3500FT -RA FG VV002 04/03
A3002=

0000010300
113
SPUS41 KWBC 110853
SPECI
KLWM 110849Z AUTO 04003KT 1/2SM -RA FG VV004 02/00 A3017=

0000056300
114
SADN31 EKCH 110850
METAR EKCH 110850Z 23014KT 9999 FEW009 BKN011 06/05 Q1006 BECMG
BKN007=
METAR EKBI 110850Z 23010KT 200V260 9999 -RA BKN008 BKN020 06/05
Q1004=
METAR EKYT 110850Z 25003KT 6000 -RA FEW018 BKN029 06/05 Q1002=
METAR EKRK 110850Z AUTO 23013KT 7000NDV FEW007/// SCT010///
BKN014/// BKN045/// 06/05 Q1006=
METAR EKAH 110850Z AUTO 24008KT 190V270 9999NDV -RA  OVC016///
07/04 Q1004=
METAR EKEB 110850Z AUTO 22013KT 9999NDV DZ  FEW008/// BKN026///
07/05 Q1004=
METAR EKRN 110850Z 24019KT 8000 OVC012 06/06 Q1008=

00000000