0000012200
895
SASR31 WSSS 110530
METAR WSSS 110530Z 01006KT 290V090 9999 FEW020TCU SCT022 BKN300 31/24
Q1010 NOSIG=

0000090100
896
FTCH12 SCSC 110600
TAF SCIE 110415Z 1106/1206 24005KT CAVOK TX25/1118Z TN12/1110Z BECMG
         1108/1110 VRB02KT BECMG 1113/1115 21010KT BECMG 1202/1204
         22005KT=
TAF SCTC 110355Z 1106/1206 VRB02KT CAVOK
TN07/1109Z TX29/1120Z
BECMG 1114/1116 23008KT
BECMG 1201/1203 VRB02KT=
TAF SCJO 110600Z NIL=
TAF SCTE 110356Z 1106/1206 VRB02KT CAVOK
TN06/1109Z TX23/1120Z
BECMG 1109/1111 19005KT SCT025
BECMG 1114/1116 16008KT CAVOK
BECM 1201/1203 VRB02KT=
TAF SCPQ 110600Z NIL=
TAF SCBA 110356Z 1106/1206 30015KT CAVOK
TN05/1108Z TX14/1120Z
BECMG 1118/1120 30020KT=
TAF SCNT 110600Z NIL=
TAF SCCI 110440Z 1106/1206 29020G30KT 9999 SCT030 OVC070
TN08/1109Z TX16/1118Z
TEMPO 1106/1112 7000 -SHRA OVC020
BECMG 1109/1111 28027G40KT BKN040
TEMPO 1112/1121 29035G45KT 9000 
BECMG 1121/1123 28020KT 9999 BKN030
BECMG 1203/1205 30011KT SCT030=

0000018200
897
SACY31 LCLK 110530
METAR LCLK 110530Z 31007KT 9999 FEW025 10/06 Q1022 NOSIG=
METAR LCPH 110530Z 04006KT 9999 FEW030 SCT036 10/07 Q1023=
METAR LCNC 110530Z NIL=

0000032700
898
FTMJ31 LWSK 110530
TAF LWSK 110530Z 1106/1206 VRB02KT 0600 FG OVC002 TEMPO 0606/0608
0350 OVC001 TEMPO 0608/0610 1500 BR OVC003 BECMG 1110/1112 3000 BR
BKN008 TEMPO 1112/1117 5000 BR BKN010=
TAF LWOH 110530Z 1106/1206 VRB02KT 5000 BR BKN005 TEMPO 1106/1109
1500 BR BKN002 BECMG 1110/1112 7000 SCT020=

0000040800
899
SAHK31 VHHH 110530
METAR VHHH 110530Z 10011KT 080V190 9999 FEW035 21/11 Q1022 WS 
ALL RWY NOSIG=
METAR RCTP 110530Z 35012KT 9999 FEW020 23/14 Q1021 NOSIG RMK A3016
=
METAR RCKH 110530Z 29007KT 240V330 9999 FEW020 25/15 Q1021 NOSIG
RMK A3017=
METAR RCSS 110530Z 13013KT 9999 FEW025 24/11 Q1021 NOSIG RMK A3016
=
METAR VMMC 110530Z 02004KT 340V040 6000 NSC 18/12 Q1022 NOSIG=

0000032800
900
FTFR37 LFPW 110500 RRA
TAF LFPB 110500Z 1106/1206 VRB03KT 5000 BKN040 TEMPO 1106/1113 4000
BR BKN005 PROB40 TEMPO 1106/1109 2000 BR BKN004 BECMG 1107/1109
22005KT BECMG 1113/1115 8000 PROB30 TEMPO 1113/1118 BKN010 BECMG
1118/1120 05005KT BECMG 1122/1124 4000 BR BKN010 TEMPO 1202/1206 0900
 FG BKN004=

0000009500
901
SADJ20 HDAM 110500 RRA
METAR
HDAM 110500Z 00000KT 9999 FEW020 24/20 Q1019=

0000198000
902
SPUS70 KWBC 110532
SPECI
KAZO 110528Z AUTO 18012KT 10SM OVC004 04/03 A2957 RMK AO2 RAE14
     P0000=
KBRD 110528Z AUTO 22003KT 2 1/2SM HZ OVC004 09/M03 A2945 RMK
     AO2=
KCKV 110528Z AUTO 29005G16KT 3SM TSRA BR SCT006 BKN032 OVC060
     11/11 A2972 RMK AO2 WSHFT 0458 LTG DSNT ALQDS TSB04RAB0453
     P0025=
KEWB 110528Z AUTO 00000KT 1/2SM R05/2600V3000FT -RA FG BKN007
     OVC018 04/04 A3025 RMK AO2 P0002 T00440044=
KFDY 110528Z AUTO 16014KT 5SM BR SCT006 BKN034 OVC090 05/04 A2967
     RMK AO2 RAE19 P0001=
KGFK 110527Z 32015KT 10SM OVC014 M03/M06 A2943 RMK AO2 4/005
     T10281056=
KHKA 110528Z AUTO 24011G20KT 9SM -RA SCT009 BKN020 OVC031 11/10
     A2967 RMK AO2 P0005=
KMDH 110528Z AUTO 20006KT 7SM -RA BKN014 OVC019 08/07 A2961 RMK
     AO2 LTG DSNT SW RAB11 P0002 T00830072=
KMMK 110528Z AUTO 00000KT 1/2SM UP FG OVC004 01/00 A3023 RMK AO2
     RAE26UPB26 P0000 T00110000 TSNO=
KOWB 110528Z AUTO 17007KT 2 1/2SM VCTSRA BR FEW001 BKN033 OVC048
     08/08 A2970 RMK AO2 LTG DSNT ALQDS P0005=
KPSF 110527Z AUTO 00000KT 1/2SM FZFG VV002 M01/M01 A3015 RMK
     AO2=
PPIZ 110528Z AUTO 00000KT 9SM OVC010 M22/M24 A2994 RMK AO2 TSNO
     $=
KNFE 110529Z AUTO 15008KT 10SM FEW017 BKN050 OVC110 17/14 A3012
     RMK AO2 RAE22 P0000 T01670139=
K2DP 110528Z AUTO 16018G26KT 12SM -RA FEW014 BKN022 BKN110 18/16
     A3014 RMK AO2=
KBAF 110529Z 00000KT 3/4SM R20/5500VP6000FT -FZRA BR OVC003
     M01/M01 A3023 RMK AO2 FZRAB29 P0000 I1001 T10061011=
KBWI 110529Z 00000KT 1/4SM R10/1200V1400FT FG VV001 02/02 A3012
     RMK AO2=
KEQY 110529Z AUTO 05005KT 2SM -RA BR OVC002 06/06 A3006 RMK AO2
     RAB0454 P0001=
KGVL 110529Z AUTO 10006KT 2 1/2SM -RA BR OVC003 08/07 A3003 RMK
     AO2 RAE0455B11 P0002=
KPYM 110529Z AUTO 00000KT 3/4SM -RA BR VV003 04/03 A3026 RMK AO2
     RAB17 P0000 T00440033=
PAJZ 110533Z AUTO 04003KT 2 1/2SM BR OVC002 M08/M09 A2946 RMK AO2
     PWINO TSNO $=

0000012900
903
SPUS41 KWBC 110532
SPECI
KEWB 110528Z AUTO 00000KT 1/2SM R05/2600V3000FT -RA FG BKN007
OVC018 04/04 A3025=

0000009600
904
SPUS43 KWBC 110532
SPECI
KAZO 110528Z AUTO 18012KT 10SM OVC004 04/03 A2957=

0000009300
905
SPUS43 KWBC 110532
SPECI
KGFK 110527Z 32015KT 10SM OVC014 M03/M06 A2943=

0000010400
906
SASA31 KWBC 110500 RRC
METAR
SOCA 110530Z AUTO VRB02KT 6000 -RA OVC006 22/21 Q1011=

0000022700
907
SACZ31 LKPW 110530
METAR LKKV 110530Z NIL=
METAR LKMT 110530Z 23008KT CAVOK 02/M00 Q1018 NOSIG=
METAR LKPR 110530Z 21009KT CAVOK 01/M01 Q1017 NOSIG=
METAR LKTB 110530Z VRB02KT CAVOK M00/M02 Q1019 NOSIG=

0000009000
908
SAIL31 BICC 110530
METAR BIKF 110530Z 24011KT 9999 FEW043 01/M04 Q0996=

0000031300
909
FCSN31 ESWI 110500
TAF ESGJ 110500Z NIL=
TAF ESGP 110530Z 1106/1115 25013KT 9999 SCT010 BKN020 PROB40
1106/1108 RA BKN008=
TAF ESGT 110500Z NIL=
TAF ESMK 110500Z NIL=
TAF ESMQ 110500Z NIL=
TAF ESMT 110500Z NIL=
TAF ESMX 110500Z NIL=
TAF ESTA 110500Z NIL=
TAF ESTL 110500Z NIL=

0000118200
910
FTCU31 MUHA 110532 COR
TAF
MUHA 110500Z 1106/1206 VRB02KT 9000 FEW020 
       TEMPO 1108/1112 2000 BR 
       BECMG 1113/1115 15012KT 
       BECMG 1203/1205 VRB02KT= 
MUPB 110500Z 1106/1206 VRB03KT 9000 FEW020 
       TEMPO 1108/1112 2000 BR 
       BECMG 1113/1115 14012KT 
       BECMG 1203/1205 VRB03KT= 
MUSA 110500Z 1106/1206 VRB02KT 9000 FEW020 
       TEMPO 1108/1112 2000 BR 
       BECMG 1113/1115 13012KT 
       BECMG 1203/1205 VRB02KT= 
MUVR 110500Z 1106/1206 08003KT 9000 FEW020 
       BECMG 1113/1115 07013KT 
       BECMG 1203/1205 08003KT= 
MUSC 110500Z 1106/1206 09003KT 9000 SCT020 
       BECMG 1113/1115 10013KT 
       BECMG 1203/1205 09003KT= 
MUCC 110500Z 1106/1206 10004KT 9000 SCT020 
       BECMG 1113/1115 09014KT 
       BECMG 1203/1205 07004KT= 
MUCM 110500Z 1106/1206 08005KT 9000 SCT020 
       BECMG 1113/1115 09015KT 
       BECMG 1203/1205 08005KT= 
MUHG 110500Z 1106/1206 08004KT 9000 SCT020 
       BECMG 1113/1115 09014KT 
       BECMG 1203/1205 08004KT= 
MUCU 110500Z 1106/1206 36005KT 9000 SCT020 
       BECMG 1115/1117 15012KT 
       BECMG 1201/1203 36006KT= 

0000012800
911
FTCA33 KWBC 110533
TAF
TNCM 110531Z 1106/1206 07011KT P6SM VCSH FEW019
     FM111300 09015KT P6SM SCT020=

0000097900
912
FTCA32 KWBC 110533
TAF
TIST 110531Z 1106/1206 08010KT P6SM VCSH FEW030 SCT060
     FM111230 08015G23KT P6SM FEW035
     FM112300 09008KT P6SM FEW025=
TISX 110531Z 1106/1206 06007KT P6SM VCSH FEW030 SCT060
     FM111230 09016G23KT P6SM SCT025
     FM112200 08009KT P6SM FEW025=
TJBQ 110531Z 1106/1206 11008KT P6SM FEW030
     FM111400 08020G27KT P6SM SCT020
     FM112300 10010KT P6SM SCT020 AMD NOT SKED TIL 111100=
TJMZ 110531Z 1106/1206 07007KT P6SM FEW040
     FM111530 08008KT P6SM SCT030
     FM112200 06006KT P6SM SCT025 SCT040 AMD NOT SKED TIL 111600=
TJPS 110531Z 1106/1206 06005KT P6SM FEW030
     FM111500 13010KT P6SM SCT030
     FM112230 09007KT P6SM FEW030 AMD NOT SKED 1112/1203=
TJSJ 110531Z 1106/1206 10007KT P6SM VCSH SCT030
     FM111330 07016G25KT P6SM SCT030
     FM112200 10006KT P6SM FEW030=
TKPK 110531Z 1106/1206 06012KT P6SM VCSH FEW019
     FM111300 06016KT P6SM SCT020 AMD NOT SKED TIL 111100=

0000052400
913
SAYG31 LYBM 110530
METAR LYBE 110530Z 09004KT CAVOK 02/00 Q1023 NOSIG=
METAR LYBT 110530Z 08005KT CAVOK 02/02 Q1023 TEMPO 3000 BR=
METAR LYKV 110530Z 00000KT 9999 SCT040 04/02 Q1023 NOSIG=
METAR LYNI 110530Z VRB02KT CAVOK 00/M00 Q1024 NOSIG=
METAR LYPG 110530Z 00000KT 9999 FEW040 BKN100 08/07 Q1023 NOSIG=
METAR LYPR 110530Z NIL=
METAR LYTV 110530Z VRB02KT 9999 SCT050 09/08 Q1023=
METAR LYUZ 110530Z VRB01KT 9999 BKN020 03/03 Q1022=
METAR LYVR 110530Z VRB01KT 8000 NSC 04/01 Q1023 NOSIG=

0000044000
914
FCSN32 ESWI 110500
TAF ESOE 110500Z NIL=
TAF ESOK 110500Z NIL=
TAF ESOW 110500Z NIL=
TAF ESSB 110530Z 1107/1115 VRB02KT 5000 -SN FEW005 BKN020 TEMPO
1107/1110 1000 SN VV005 PROB40 1110/1114 1400 SN VV009=
TAF ESSD 110500Z NIL=
TAF ESSP 110530Z 1106/1108 VRB02KT 5000 -SN BR OVC005 TEMPO 1106/1108
4000 -FZRA OVC003=
TAF ESSV 110530Z 1107/1115 18006KT 9999 FEW009 BKN030 TEMPO 1107/1115
4000 RADZ BKN009=

00000000