0000029100
755
SAEQ01 SEQU 110800
METAR SEQM 110800Z 17002KT 9999 SCT013 BKN020 13/12 Q1024 RMK A3024 
    NOSIG=
METAR SEGU 110800Z 22008KT 9999 FEW012 BKN026 25/20 Q1009 RMK 
A2981 NOSIG=
METAR SEMT 110800Z NIL=
METAR SELT 110800Z 16003KT 3000 BCFG FEW005 BKN020 10/10 Q1027=

0000075200
756
FTNT31 KWBC 110800
TAF
TAF BIAR 110759Z 1109/1209 15010KT 9000 SN BKN030 OVC040
      TEMPO 1109/1113 3000 SN BKN012
      BECMG 1113/1116 21010KT 9999 NSW FEW030 SCT045=
TAF BIEG 110759Z 1109/1209 08020G30KT 5000 SNRA SCT012 OVC020
      TEMPO 1109/1111 2000 SN BKN008 OVC012
      BECMG 1111/1114 27010KT 9999 NSW SCT022 BKN035 PROB40
      TEMPO 1111/1116 5000 SHSN BKN015 OVC025
      BECMG 1203/1206 VRB02KT=
TAF BIKF 110759Z 1109/1209 26013KT 9999 FEW025 SCT035 BKN050
      BECMG 1110/1113 18010KT
      BECMG 1118/1121 12010KT PROB30
      TEMPO 1119/1124 3000 SHSN BKN015
      BECMG 1203/1206 09020KT=
TAF BIRK 110759Z 1109/1209 18008KT 9999 FEW018 SCT026 BKN050
      BECMG 1119/1122 10010KT=

0000038500
757
FTUS31 KWBC 110800 AAA
TAF AMD
KATL 110759Z 1108/1212 12006KT 4SM -RA BR OVC003
      TEMPO 1108/1110 1SM -TSRA BR OVC005CB
     FM111000 16009KT 3SM -SHRA BR OVC005
     FM111400 21010G18KT 4SM -SHRA BR OVC007
     FM111900 27012G22KT P6SM BKN025
     FM112100 29014G25KT P6SM SCT040
     FM120000 28014KT P6SM SCT250
     FM120600 30007KT P6SM SKC=

0000056800
758
FTUS42 KWBC 110800 AAA
TAF AMD
KBTR 110758Z 1108/1206 22015KT P6SM -SHRA OVC010
      TEMPO 1108/1112 2SM TSRA OVC003CB
     FM111500 30009KT P6SM SCT250
     FM120000 VRB03KT P6SM SKC=
KRSW 110758Z 1108/1206 14005KT 3SM BR OVC003
      TEMPO 1110/1114 1 1/2SM BR OVC002
     FM111500 18011KT P6SM SCT020
     FM111700 21016G22KT P6SM SCT030
     FM120000 23006KT P6SM SCT030=
KSHV 110757Z 1108/1206 32005KT P6SM BKN035 OVC080
     FM110900 31006KT P6SM SKC
     FM111700 29012G20KT P6SM SKC
     FM120000 28005KT P6SM SKC=

0000090400
759
FTUS72 KWBC 110800 AAA
TAF AMD
KATL 110759Z 1108/1212 12006KT 4SM -RA BR OVC003
      TEMPO 1108/1110 1SM -TSRA BR OVC005CB
     FM111000 16009KT 3SM -SHRA BR OVC005
     FM111400 21010G18KT 4SM -SHRA BR OVC007
     FM111900 27012G22KT P6SM BKN025
     FM112100 29014G25KT P6SM SCT040
     FM120000 28014KT P6SM SCT250
     FM120600 30007KT P6SM SKC=
KBTR 110758Z 1108/1206 22015KT P6SM -SHRA OVC010
      TEMPO 1108/1112 2SM TSRA OVC003CB
     FM111500 30009KT P6SM SCT250
     FM120000 VRB03KT P6SM SKC=
KRSW 110758Z 1108/1206 14005KT 3SM BR OVC003
      TEMPO 1110/1114 1 1/2SM BR OVC002
     FM111500 18011KT P6SM SCT020
     FM111700 21016G22KT P6SM SCT030
     FM120000 23006KT P6SM SCT030=
KSHV 110757Z 1108/1206 32005KT P6SM BKN035 OVC080
     FM110900 31006KT P6SM SKC
     FM111700 29012G20KT P6SM SKC
     FM120000 28005KT P6SM SKC=

0000009900
760
SAMX31 KWBC 110745 RRD
METAR
MMMY 110741Z 33005KT 8SM SKC 13/11 A2996 RMK HZY=

0000008300
761
SABZ18 SBKP 110800
METAR SBKP 110800Z 13006KT CAVOK 21/18 Q1016=

0000040100
762
SACU31 MUHA 110800
METAR
MUHA 110755Z 00000KT 7000 SKC 17/16 Q1017=
MUVR 110752Z 09008KT 8000 FEW020 23/21 Q1018=
MUSC 110750Z 15003KT 120V180 9000 NSC 20/20 Q1018=
MUCC 110750Z 10005KT 9000 FEW020 24/20 Q1018=
MUCM 110750Z 10006KT 9000 SKC 20/18 Q1018=
MUHG 110750Z 10004KT 8000 SKC 22/20 Q1017=
MUCU 110751Z 35005KT 9000 FEW020 20/18 Q1016=
MUCL  NIL=
MUCF  NIL=

0000045200
763
FCTU31 LTAA 110800
TAF LTAR 110740Z 1109/1118 28008KT CAVOK=
TAF LTBY 110740Z 1109/1118 VRB02KT 6000 OVC006=
TAF LTCA 110740Z 1109/1118 VRB02KT CAVOK=
TAF LTCD 110740Z 1109/1118 VRB02KT 7000 FEW045 BKN120=
TAF LTCF 110740Z 1109/1118 VRB02KT CAVOK=
TAF LTCI 110740Z 1109/1118 VRB02KT 8000 FEW040 TEMPO 1114/1116 4000
 BR=
TAF LTDA 110740Z 1109/1118 VRB02KT CAVOK=
TAF LTFH 110740Z 1109/1118 27009KT 9999 FEW036 BKN100=

0000085000
764
FCTU33 LTAA 110800
TAF LTAL 110740Z 1109/1118 34008KT 9999 SCT033 BKN100=
TAF LTAS 110740Z 1109/1118 VRB02KT 8000 SCT040 TEMPO 1109/1113 4000
 BR=
TAF LTAW 110740Z 1109/1118 VRB02KT 4000 BR NSC BECMG 1109/1111 CAVOK=
TAF LTBD 110740Z 1109/1118 VRB02KT CAVOK=
TAF LTBH 110740Z 1109/1118 VRB02KT 9999 FEW035 BKN200=
TAF LTBO 110740Z 1109/1118 VRB02KT CAVOK=
TAF LTBZ 110740Z 1109/1118 VRB02KT 2500 BR OVC004 TEMPO 1109/1112
 0500 FZFG VV002 BECMG 1112/1114 6000 OVC006=
TAF LTCT 110740Z 1109/1118 VRB02KT 2500 SG BR BKN010 BECMG 1109/1111
 4000 BR NSC=
TAF LTCU 110740Z 1109/1118 VRB02KT CAVOK=
TAF LTCV 110740Z 1109/1118 27006KT CAVOK=
TAF LTFD 110800Z NIL=
TAF LTFG 110740Z 1109/1118 VRB02KT CAVOK BECMG 1109/1112 FEW035 BECMG
 1115/1118 CAVOK=
TAF LTFK 110740Z 1109/1118 VRB02KT 9999 FEW035 BKN200=

0000043800
765
FCTU34 LTAA 110800
TAF LTCK 110740Z 1109/1118 VRB02KT 0800 FZFG OVC010 BECMG 1110/1112
 2000 BR SCT010=
TAF LTCL 110740Z 1109/1118 VRB02KT CAVOK=
TAF LTCM 110740Z 1109/1118 28008KT 9999 SCT030 BKN100=
TAF LTCN 110740Z 1109/1118 33009KT CAVOK=
TAF LTCO 110740Z 1109/1118 VRB02KT 0200 FZFG NSC BECMG 1109/1111 1100
 BCFG=
TAF LTCP 110740Z 1109/1118 VRB02KT CAVOK=
TAF LTCR 110740Z 1109/1118 VRB02KT CAVOK=

0000011600
766
SACN61 CYBC 110800
METAR CYBC 110800Z AUTO 31003KT 9SM BKN012 OVC050 M08/M10 A3012 RMK
 SLP200=

0000015800
767
SACN61 CYPQ 110800
METAR CYPQ 110800Z AUTO 09006KT 2 1/4SM -RA BR BKN006 BKN009 OVC016
 02/02 A2975 RMK PRESFR PCPN 1.8MM PAST HR SLP081=

0000083900
768
SATU31 LTAA 110750
METAR LTAC 110750Z 28004KT 8000 OVC008 M03/M04 Q1025 NOSIG=
METAR LTAF 110750Z 03007KT CAVOK 12/M03 Q1023 NOSIG=
METAR LTAI 110750Z 35005KT 9999 FEW030 BKN200 12/06 Q1024 NOSIG=
METAR LTAJ 110750Z 23007KT CAVOK 11/M05 Q1021 NOSIG=
METAR LTAZ 110750Z VRB01KT 6000 BKN005 M03/M04 Q1025=
METAR LTBA 110750Z 24006KT CAVOK 10/07 Q1024 NOSIG=
METAR LTBJ 110750Z 00000KT 4800 BR FEW030 BKN100 09/05 Q1024 NOSIG=
METAR LTBS 110750Z 05006KT CAVOK 09/06 Q1024 NOSIG=
METAR LTCG 110750Z 09005KT 9999 FEW035 BKN180 14/01 Q1022 NOSIG=
METAR LTCS 110750Z 27006KT 200V310 CAVOK 09/M05 Q1022=
METAR LTFC 110750Z 00000KT 0300 R05/0400U R23/0500D FZFG VV001
 M02/M02 Q1025=
METAR LTFE 110750Z VRB02KT 7000 SCT035 BKN100 11/09 Q1023 NOSIG=
METAR LTFJ 110750Z 24003KT 7000 NSC 09/02 Q1024 NOSIG=

0000077000
769
SATU32 LTAA 110750
METAR LTAG 110750Z 03005KT CAVOK 14/M01 Q1023 NOSIG=
METAR LTAN 110750Z 00000KT 0400 R01/0650N R19/0400V0700U FZFG VV002
 M02/M03 Q1024 BECMG 0250=
METAR LTAP 110750Z 00000KT 9999 FEW025 BKN070 00/M03 Q1025 NOSIG=
METAR LTAT 110750Z VRB03KT CAVOK 02/M05 Q1022 NOSIG=
METAR LTAU 110750Z VRB01KT 1300 R25/1500N R07/1400U BCFG OVC002
 M04/M05 Q1024 BECMG TL0850 4500 BR SCT010 BKN200=
METAR LTBF 110750Z NIL=
METAR LTBU 110750Z 29004KT 1000 R05/1100U R23/1200U BCFG NSC 06/06
 Q1024=
METAR LTCC 110750Z VRB01KT CAVOK 05/M02 Q1021 NOSIG=
METAR LTCE 110750Z VRB01KT 1400 R26L/1200N R08R/P1500U R26R/1100U
 R08L/1300N BR NSC M20/M22 Q1021 BECMG TL0900 2000 BR=
METAR LTCJ 110750Z VRB01KT 3000 BR NSC 01/01 Q1021=

0000066400
770
SATU33 LTAA 110750
METAR LTAR 110750Z 11005KT CAVOK 00/M08 Q1021=
METAR LTAY 110750Z 00000KT 9999 FEW035 SCT180 03/M01 Q1024=
METAR LTBR 110750Z VRB02KT 9999 FEW035 BKN200 01/M02 Q1027 NOSIG=
METAR LTBY 110750Z 10003KT 360V140 6000 OVC006 M02/M03 Q1025=
METAR LTCA 110750Z 11004KT 070V160 CAVOK 00/M04 Q1023 NOSIG=
METAR LTCD 110750Z 00000KT 7000 NSC M05/M11 Q1024 NOSIG=
METAR LTCF 110750Z 00000KT CAVOK M17/M19 Q1020=
METAR LTCI 110750Z 00000KT 6000 FEW040 M01/M05 Q1019 TEMPO TL0850
 4000 BR=
METAR LTDA 110750Z 00000KT CAVOK 06/01 Q1024=
METAR LTFH 110750Z 21006KT 160V240 9999 FEW036 SCT100 BKN200 12/M03
 Q1023 NOSIG=

0000090900
771
SATU34 LTAA 110750
METAR LTAL 110750Z 30005KT 9999 SCT030 BKN080 04/M02 Q1016=
METAR LTAS 110750Z NIL=
METAR LTAW 110750Z NIL=
METAR LTBD 110750Z 07009KT 9999 FEW040 BKN100 06/03 Q1024=
METAR LTBH 110750Z NIL=
METAR LTBO 110750Z NIL=
METAR LTCK 110750Z VRB01KT 0250 R29/0275U R11/0800U FZFG OVC007
 M21/M23 Q1025=
METAR LTCL 110750Z 21002KT CAVOK 03/M03 Q1021=
METAR LTCM 110750Z NIL=
METAR LTCN 110750Z VRB02KT CAVOK 06/M02 Q1022=
METAR LTCO 110750Z VRB01KT 0250 R16/0450N R34/0450N FZFG SCT001
 M23/M25 Q1021=
METAR LTCP 110750Z 00000KT CAVOK 09/M01 Q1021=
METAR LTCR 110750Z 17001KT CAVOK 07/M07 Q1021=
METAR LTCT 110750Z VRB03KT 2500 R30/2500N SG BR BKN010 M11/M12 Q1028=
METAR LTCU 110750Z VRB02KT CAVOK M02/M09 Q1024=
METAR LTCV 110750Z NIL=
METAR LTFD 110750Z 14002KT 7000 SCT035 SCT100 09/06 Q1023=
METAR LTFG 110750Z 14002KT CAVOK 14/06 Q1023=

0000009500
772
SATU35 LTAA 110750
METAR LCEN 110750Z 29006KT 9999 FEW025 14/07 Q1024 NOSIG=

0000011800
773
SACN31 CWAO 110800
METAR CYBG 110800Z 09005KT 15SM BKN025 OVC070 M10/M13 A3007 RMK
SC7AC1 SLP195=

0000009000
774
SACN51 CWAO 110800
METAR CWVH 110800Z AUTO ///// M29/ A2955 RMK SLP049=

00000000