0000010700
355
SPUS41 KWBC 110905
SPECI
KDOV 110903Z AUTO 10005KT 6SM R01/5000FT HZ OVC007 09/ A2998=

0000008400
356
SAAG41 SAZS 110900
METAR SAZS 110900Z  00000KT CAVOK 08/05 Q1022=

0000011900
357
SACN62 CYZT 110900
METAR CYZT 110900Z 27002KT 6SM RA BKN009 OVC016 04/04 A2913 RMK
 SC7SC1 SLP863=

0000011700
358
SACN45 CWAO 110900
METAR CYZS 110900Z 32010KT 15SM FEW210 M31/M35 A2969 RMK CI1 WND ESTD
SLP065=

0000006100
359
SAVN26 SVMC 110900
METAR SVMC 110900Z NIL=

0000015600
360
SASR31 WSSS 110900
METAR WSSS 110900Z 01008G18KT 330V060 9999 FEW015CB FEW017TCU SCT170
28/24 Q1008 RETS TEMPO FM0915 TL1015 4000 TSRA=

0000021900
361
SALJ31 LJLJ 110900
METAR LJLJ 110900Z 00000KT 9999 BKN035 07/06 Q1021 NOSIG=
METAR LJMB 110900Z 00000KT 1200 R32/1300D BR OVC002 04/03 Q1020=
METAR LJPZ 110900Z 00000KT 2000 BR OVC050 09/09 Q1023=

0000009900
362
SALJ32 LJLJ 110900
METAR LJCE 110900Z VRB01KT 0400 FG VV001 03/03 Q1021 RMK RED=

0000012500
363
SACN47 CWAO 110900
METAR CYVV 110900Z 17015G20KT 4SM -RA BR SCT008 OVC023 05/04 A2950
RMK SF3NS5 SLP997=

0000011800
364
SACN31 CWAO 110900
METAR CYYR 110900Z 25018KT 15SM FEW080 BKN140 M09/M16 A2991 RMK
AC2AC3 SLP134=

0000026200
365
SAFR21 LFPW 110900
METAR LFOA 110900Z AUTO 21002KT 9999 OVC015 08/06 Q1019=
METAR LFPC 110900Z AUTO 21003KT 1400 R25///// BR BKN002 OVC047
05/05 Q1018=
METAR LFPV 110900Z AUTO 27002KT 1400 1200 R27/1400U R09/1600U BR
VV/// 06/05 Q1018=

0000052500
366
SAFR22 LFPW 110900
METAR LFBC 110900Z AUTO 00000KT 9999 SCT017 SCT023 BKN030 10/10
Q1020=
METAR LFBG 110900Z AUTO VRB01KT 2000 BR OVC003 09/08 Q1020=
METAR LFBM 110900Z AUTO 00000KT 4200 BR OVC029 10/09 Q1020=
METAR LFBY 110900Z AUTO 15002KT 3500 // ////// 09/08 Q1020=
METAR LFKS 110900Z AUTO VRB02KT 9999 OVC028 13/08 Q1022=
METAR LFMO 110900Z AUTO 00000KT 5000 BR FEW030 BKN041 OVC049 09/08
Q1022=
METAR LFMY 110900Z AUTO VRB02KT 9999 BKN034 OVC040 11/07 Q1022=
METAR LFMC 110900Z NIL=

0000036300
367
SAFR23 LFPW 110900
METAR LFOC 110900Z AUTO 31004KT 0300 R28/0900U FG VV/// 06/05 Q1019=
METAR LFOE 110900Z AUTO 26003KT 0250 R22/0550U FG VV/// 05/05 Q1019=
METAR LFOJ 110900Z AUTO 00000KT 0250 R25/0800U FG VV/// 05/05 Q1019=
METAR LFRJ 110900Z AUTO 06003KT 9999 NSC 06/04 Q1020=
METAR LFRL 110900Z AUTO 04005KT 9999 // NSC 08/06 Q1020=

0000028800
368
SAFR24 LFPW 110900
METAR LFSI 110900Z AUTO 00000KT 9999 ///TCU 06/05 Q1018=
METAR LFSO 110900Z AUTO 17005KT 4700 -RA BR ///TCU 04/04 Q1017=
METAR LFSX 110900Z AUTO 09004KT 9999 OVC020/// ///TCU 04/03 Q1018=
METAR LFYR 110900Z AUTO 00000KT 9999 OVC003 04/04 Q1019=

0000034000
369
SARO31 LROM 110900
METAR LRBS 110900Z 25005KT 220V310 CAVOK 05/00 Q1023 NOSIG=
METAR LRCK 110900Z 28009KT 250V310 CAVOK 05/04 Q1022 NOSIG=
METAR LROP 110900Z 24006KT CAVOK 04/01 Q1022 8819//95 NOSIG=
METAR LRSB 110900Z VRB02KT 9999 FEW058 04/M02 Q1023=
METAR LRTR 110900Z 12006KT 6000 FEW046 05/04 Q1023 11190095=

0000011900
370
SACN62 CYSJ 110900
METAR CYSJ 110900Z 00000KT 15SM BKN015 OVC060 M04/M05 A3025 RMK
 SC5SC3 SLP251=

0000039800
371
SARO32 LROM 110900
METAR LRAR 110900Z 17005KT 8000 FEW007 SCT014 BKN049 05/05 Q1023=
METAR LRBM 110900Z 11004KT 9999 FEW035 04/03 Q1023 1019//95=
METAR LRCL 110900Z VRB02KT 9999 FEW050 BKN063 01/M01 Q1022=
METAR LROD 110900Z 19012KT CAVOK 05/03 Q1023=
METAR LRSM 110900Z VRB02KT CAVOK 01/01 Q1022 0119//95=
METAR LRTM 110900Z VRB02KT 4500 MIFG NSC 02/02 Q1023 0719//95=

0000054900
372
SAFR31 LFPW 110900
METAR LFLL 110900Z 20013KT 9999 FEW026 BKN190 10/06 Q1020 NOSIG=
METAR LFMN 110900Z 34008KT 9999 FEW040 BKN190 12/05 Q1021 NOSIG=
METAR COR LFPG 110900Z 27002KT 4500 BR SCT002 SCT003 BKN036 06/05
Q1018 TEMPO 1500 BR  BKN002=
METAR LFPO 110900Z 26002KT 4800 BR FEW004 SCT040 06/05 Q1019 TEMPO
BKN003=
METAR LFQQ 110900Z 23008KT 4500 BR OVC005 06/05 Q1016 TEMPO 1200 DZ=
METAR LFRB 110900Z 02005KT 9999 FEW031 06/06 Q1020 NOSIG=
METAR LFRS 110900Z 34003KT 300V030 3500 BR BKN006 08/08 Q1020 NOSIG=

0000031100
373
SARO33 LROM 110900
METAR LRBC 110900Z 27010KT CAVOK 09/02 Q1020 1619//95=
METAR LRCV 110900Z 25012KT CAVOK 07/01 Q1023=
METAR LRIA 110900Z 29004KT 260V360 CAVOK 07/M01 Q1020 1519//95=
METAR LRSV 110900Z 25006KT 190V260 CAVOK 05/M02 Q1018=
METAR LRTC 110900Z VRB02KT CAVOK 08/03 Q1022=

0000080000
374
SAFR32 LFPW 110900
METAR LFBD 110900Z AUTO 22002KT 6000 OVC031 10/10 Q1019=
METAR LFBH 110900Z AUTO 35006KT 1700 BR VV/// 09/08 Q1020=
METAR LFBI 110900Z AUTO 18005KT 3700 BR BKN005 BKN031 OVC039 08/07
Q1019=
METAR LFBL 110900Z AUTO 20011KT 9999 OVC009 08/06 Q1019=
METAR LFBO 110900Z AUTO 18002KT 6000 OVC019 09/08 Q1020=
METAR LFBP 110900Z VRB01KT 9000 FEW025 BKN200 08/08 Q1020 NOSIG=
METAR LFBT 110900Z AUTO 18005KT 9999 SCT029 BKN150 OVC180 08/07
Q1020=
METAR LFBZ 110900Z 00000KT 9999 SCT023 SCT036 10/09 Q1020 NOSIG=
METAR LFLB 110900Z 09002KT 6000 FEW023 BKN180 04/04 Q1021 TEMPO
4000 BR=
METAR LFLX 110900Z 24008KT 9999 OVC014 09/07 Q1019 NOSIG=
METAR LFML 110900Z 06004KT 030V090 9999 FEW030 BKN036 12/08 Q1021
NOSIG=
METAR LFCK 110900Z NIL=

00000000