0000009700
835
SPUS42 KWBC 110712
SPECI
KCHA 110709Z 18006KT 2SM -RA BR OVC004 10/09 A2986=

0000010200
836
SAAG31 KWBC 110700 RRA
METAR
SASJ 110700Z 32003KT 9999 FEW030 SCT100 25/19 Q1009=

0000022800
837
SABZ42 KWBC 110700 RRA
METAR
SBME 110700Z 03002KT CAVOK 23/22 Q1013=
SBSC 110700Z 03003KT CAVOK 25/23 Q1011=
SBSM 110700Z 22005KT 9999 FEW020 SCT070 22/20 Q1008=
SBUR 110700Z 05005KT CAVOK 20/17 Q1016=

0000028900
838
SABZ41 KWBC 110700 RRA
METAR
SBAF 110700Z 11002KT CAVOK 25/22 Q1012=
SBBH 110700Z 00000KT CAVOK 20/17 Q1017=
SBBU 110700Z 00000KT CAVOK 25/21 Q1014=
SBDN 110700Z 12003KT CAVOK 23/19 Q1012=
SBIL 110700Z 10013KT 8000 VCSH SCT015 SCT025 BKN070 23/22
     Q1013=

0000038800
839
SABZ43 KWBC 110700 RRB
METAR
SBAN 110700Z 04007KT 4000 -TSRA FEW010 SCT030 FEW040CB 16/15 Q1
     019=
SBAN 110700Z 04007KT 4000 -TSRA FEW010 SCT030 FEW040CB 16/15
     Q1019=
SBKG 110700Z 12004KT 6000 BKN015 20/20 Q1014=
SBMK 110700Z 11002KT 9999 SCT030 19/17 Q1016=
SBPJ 110700Z 14002KT 9999 FEW010 22/20 Q1012=
SBUL 110700Z 09007KT CAVOK 19/15 Q1016=

0000009900
840
SAAO31 GOOY 110700 RRA
METAR DIYO 110700Z 24004KT 4000 BR NSC 21/21 Q1012 NOSIG=

0000012600
841
FCUK33 EGGY 110500 RRB
TAF EGJA 110711Z 1107/1115 34010KT 9999 SCT010 SCT025
    BECMG 1113/1115 04008KT=

0000008400
842
SAAG41 SAVC 110700
METAR SAVC 110700Z  27003KT CAVOK 13/07 Q1016=

0000010100
843
SAIE31 EIDB 110700 RRA
METAR EIKN 110700Z 20004KT 9999 FEW045 M00/M00 Q1015 NOSIG=

0000021700
844
FTFR33 LFPW 110500 AAA
TAF AMD LFBD 110710Z 1107/1212 VRB02KT 5000 BR BKN015 PROB40 TEMPO
1107/1109 1500 BR BKN005 BECMG 1109/1111 8000 NSW TEMPO 1112/1120
SCT020 TEMPO 1120/1210 3000 BR BKN005=

0000020200
845
FCFR33 LFPW 110500 AAA
TAF AMD LFRQ 110706Z 1107/1115 VRB02KT 2000 BR BKN040 TEMPO 1107/1109
 0200 FG PROB40 TEMPO 1107/1108 BKN002 BECMG 1109/1110 08008KT 9999
NSW SCT012 SCT025=

0000025700
846
SAAO32 GOOY 110700
METAR GABS 110700Z 01004KT 6000  NSC 19/09 Q1014 TEMPO 4000 DU=
METAR GAGO 110700Z NIL=
METAR GAKY 110700Z NIL=
METAR GAKL 110700Z NIL=
METAR GAMB 110700Z NIL=
METAR GANR 110700Z NIL=
METAR GATB 110700Z NIL=

0000024400
847
SAAO31 GOOY 110700
METAR FHAW 110700Z NIL=
METAR GGOV 110700Z 34003KT CAVOK 17/12 Q1012 NOSIG=
METAR DIAP 110700Z 06002KT 7000 SCT011  BKN150 25/25 Q1011 TEMPO
BKN011=
METAR DIBK 110700Z NIL=
METAR DIYO 110700Z NIL=

0000034000
848
SAAO30 GOOY 110700
METAR GOOY 110700Z 02008KT 9999  FEW010 19/15 Q1013 NOSIG=
METAR GOGS 110700Z 36008KT CAVOK 17/13 Q1013=
METAR GOOK 110700Z NIL=
METAR GOSS 110700Z 08004KT CAVOK 14/14 Q1014=
METAR GOTK 110700Z NIL=
METAR GOTT 110700Z 36004KT CAVOK 21/10 Q1012=
METAR GOGG 110700Z 36006KT CAVOK 18/09 Q1014=

0000021000
849
FTUS53 KWBC 110709 AAA
TAF AMD
KEVV 110705Z 1107/1206 18006KT P6SM -RA OVC060
      TEMPO 1107/1110 4SM -RA BR OVC013
     FM111000 24010KT P6SM BKN020
     FM112100 26010KT P6SM SKC=

0000129200
850
FTUS80 KWBC 110709 AAA
TAF AMD
KBTV 110708Z 1107/1206 17009KT P6SM BKN015 OVC022
      TEMPO 1107/1109 SCT015 OVC020
     FM110900 17012KT P6SM VCSH BKN015 OVC020
      TEMPO 1109/1111 4SM -SHRA BR
     FM111100 17014G24KT 3SM -RA BR OVC011 WS020/18050KT
     FM111500 17015G25KT 4SM -RA BR BKN008 OVC010 WS020/18050KT
     FM111900 18013G23KT 3SM RA BR SCT005 OVC008 WS020/19050KT=
KEET 110707Z 1107/1206 13005KT 6SM -DZ BR OVC005
      TEMPO 1107/1108 3SM -DZ BR OVC002
     FM110800 16009KT 3SM -DZ BR OVC002
      TEMPO 1111/1115 1SM -TSRA BR OVC002CB
     FM111500 27012G18KT P6SM BKN100
     FM112300 29010KT P6SM SCT250=
KEVV 110705Z 1107/1206 18006KT P6SM -RA OVC060
      TEMPO 1107/1110 4SM -RA BR OVC013
     FM111000 24010KT P6SM BKN020
     FM112100 26010KT P6SM SKC=
PAGY 110708Z 1107/1206 21006KT P6SM VCSH FEW025 OVC070
     FM111000 VRB03KT P6SM SCT025 OVC050
     FM111800 03006KT P6SM FEW025 BKN050
     FM120300 VRB05KT P6SM VCSH FEW025 OVC050 AMD LTD TO CLD VIS
      AND WIND=
PAKT 110708Z 1107/1206 28009KT P6SM BKN100
     FM110900 33008KT P6SM VCSH SCT040 OVC080
     FM111800 32007KT P6SM FEW050 SCT100
     FM120400 30008KT P6SM VCSH SCT050 BKN080 AMD LTD TO CLD VIS
      AND WIND 1106/1115=

0000010500
851
SPUS31 KWBC 110709
SPECI
KBWI 110706Z 00000KT 1/8SM R10/1000FT FG VV002 02/02 A3005=

0000009300
852
SPUS31 KWBC 110709
SPECI
KIND 110706Z 23005KT 2SM BR OVC006 04/04 A2958=

0000037300
853
SAAO33 GOOY 110700
METAR GQPP 110700Z 01005KT 0100 FG BKN005 15/14 Q1016 NOSIG=
METAR GQNN 110700Z 02008KT 8000 NSC 14/13 Q1015 NOSIG=
METAR GQPA 110700Z NIL=
METAR GQNI 110700Z NIL=
METAR GQPZ 110700Z NIL=
METAR GUCY 110700Z 36004KT CAVOK 22/21 Q1011 TEMPO 5000 BR=
METAR GUXN 110700Z NIL=
METAR GULB 110700Z NIL=
METAR GUNZ 110700Z NIL=

0000020900
854
SAIN31 EGGY 110700
METAR VOBL 110700Z 09005KT 030V160 8000 NSC 29/16 Q1018 NOSIG=
METAR VOCB 110700Z NIL=
METAR VOCI 110700Z 00000KT 5000 HZ NSC 31/19 Q1012 NOSIG=
METAR VOCL 110700Z NIL=
00000000