0000011600
715
SACN61 CYMO 110700
METAR CYMO 110700Z AUTO 14007KT 9SM OVC024 M01/M03 A2965 RMK PRESFR
 SLP040=

0000011800
716
SACN62 CYMX 110700
METAR CYMX 110700Z 06007KT 8SM BKN030 OVC050 M07/M09 A3008 RMK SC5SC3
 SLP193=

0000010400
717
SACN62 CYHZ 110700
METAR CYHZ 110700Z 23010KT 8SM OVC003 01/M00 A3029 RMK ST8 SLP265=

0000010600
718
SACN62 CYKY 110700
METAR CYKY 110700Z 24007KT 15SM FEW240 M11/M13 A2964 RMK CI1 SLP085=

0000009900
719
SACN62 CYMA 110700
METAR CYMA 110700Z 00000KT 20SM SKC M25/M28 A2934 RMK SLP994=

0000021900
720
FTFR34 LFPW 110500 AAC
TAF AMD LFLB 110703Z 1107/1206 VRB02KT 5000 SCT023 TEMPO 1107/1109
4000 BR BKN023 BECMG 1109/1112 18004KT 8000 FEW023 BECMG 1112/1115
CAVOK TEMPO 1200/1206 0500 BCFG BKN001=

0000011400
721
SAUK34 EGGY 110650 RRA
METAR EGJA 110650Z 33013KT 300V360 9999 FEW010 SCT022 08/05
    Q1017=

0000012400
722
SAAF13 LFPW 110700
METAR GLRB 110700Z 00000KT 9000 SCT013  FEW023 CB BKN100 24/23
Q1011 RMK CB-S, BRVC=

0000014700
723
SAAF17 LFPW 110700
METAR HLLB 110645Z
00000KT 9999 SCT020 BKN080 13/10 Q1026 =
METAR HLLT 110650Z 17006KT CAVOK 09/05 Q1023=

0000021300
724
SALJ31 LJLJ 110700
METAR LJLJ 110700Z 00000KT 9999 FEW030 BKN040 05/05 Q1020 NOSIG=
METAR LJMB 110700Z 00000KT 6000 OVC003 03/02 Q1021=
METAR LJPZ 110700Z VRB01KT 2000 BR OVC050 09/08 Q1022=

0000009900
725
SALJ32 LJLJ 110700
METAR LJCE 110700Z VRB02KT 0400 FG VV001 03/02 Q1021 RMK RED=

0000011200
726
SACN42 CWAO 110700
METAR CYQD 110700Z 21002KT 15SM -SN OVC006 M08/M09 A2945 RMK SF8
SLP993=

0000011500
727
SACZ31 LKPW 110700 CCA
METAR COR LKKV 110700Z 10003KT 3300 1500E BR BCFG SCT002 M02/M02
Q1016=

0000010600
728
SACN62 CYEG 110700
METAR CYEG 110700Z 18009KT 15SM BKN200 M11/M14 A2955 RMK CS7 SLP048=

0000011200
729
SACN62 CYGL 110700
METAR CYGL 110700Z 14007KT 5SM -SN OVC005 M06/M07 A2968 RMK ST8
 SLP064=

0000010600
730
SACN61 CYGV 110700
METAR CYGV 110700Z AUTO 28013KT 9SM OVC070 M07/M12 A3006 RMK SLP183=

0000010200
731
SACN62 CYEV 110700
METAR CYEV 110700Z 27006KT 15SM IC SKC M27/M30 A2970 RMK SLP069=

0000010600
732
SACN62 CYGP 110700
METAR CYGP 110700Z 34006KT 15SM BKN050 M10/M14 A3013 RMK SC5 SLP206=

0000034900
733
SARO31 LROM 110700
METAR LRBS 110700Z VRB01KT CAVOK 01/M01 Q1022 NOSIG=
METAR LRCK 110700Z 29009KT 2500 BR FEW045 02/01 Q1022 BECMG 3000=
METAR LROP 110700Z VRB01KT CAVOK M01/M02 Q1022 8819//95 NOSIG=
METAR LRSB 110700Z 06004KT 9999 SCT058 M00/M03 Q1022=
METAR COR LRTR 110700Z 11007KT 2000 BR SCT048 02/01 Q1023 11190095=

0000025900
734
SAFR21 LFPW 110700
METAR LFOA 110700Z AUTO 22002KT 8000 OVC018 07/05 Q1017=
METAR LFPC 110700Z AUTO 13002KT 0550 R25/1600D FG SCT040 BKN170
04/04 Q1016=
METAR LFPV 110700Z AUTO 00000KT 2000 1300 R27///// R09///// BR NSC
06/05 Q1016=

00000000