0000010300
795
SACN43 CWAO 110800
METAR CYXD 110800Z AUTO 20002KT 9SM CLR M08/M14 A2951 RMK SLP029=

0000014700
796
FTAY31 RUMS 110700
TAF UDYZ 110700Z NIL=
TAF UDSG 110732Z 1109/1209 VRB01MPS 1000 BR FEW010 TEMPO 1109/1121
0200 FZFG VV001=

0000013100
797
SASR31 WSAP 110800
METAR WSAP 110800Z 04011KT 9999 4000SE -SHRA 
FEW015 FEW016CB FEW018TCU BKN300 30/25 Q1008=

0000014000
798
SACN61 CYHU 110800
METAR CYHU 110800Z AUTO 03006KT 5SM BR BKN055 BKN160 BKN180 OVC200
 M06/M07 A3003 RMK PRESFR SLP170=

0000012200
799
SACN61 CYKL 110800
METAR CYKL 110800Z AUTO /////KT 4SM -SN OVC029 M09/M11 A2972 RMK WND
 MISG SLP107=

0000014400
800
SACN61 CYKF 110800
METAR CYKF 110800Z AUTO 14012KT 2 1/2SM -RA BR OVC003 03/02 A2964 RMK
 PRESFR PCPN 1.8MM PAST HR SLP048=

0000010600
801
SACN62 CYHZ 110800
METAR CYHZ 110800Z 24008KT 5SM BR OVC003 01/00 A3028 RMK ST8 SLP262=

0000050600
802
SAHU41 LHBM 110800
METAR LHDC 110745Z 20005KT 9999 BKN040 01/M00 Q1022 NOSIG=
METAR LHKE 110745Z 00000MPS 9999 OVC040 03/01 Q1022 NOSIG RMK BLU=
METAR LHPA 110745Z 22001MPS 9999 BKN030 05/04 Q1021 NOSIG RMK BLU=
METAR LHPP 110745Z 02003KT 9999 BKN040 BKN083 05/04 Q1022=
METAR LHSM 110745Z 19002KT 1500 BR OVC004 04/04 Q1022 BECMG 2500 BR
     OVC007=
METAR LHSN 110745Z 00000MPS 9999 BKN043 03/01 Q1022 NOSIG RMK BLU=
METAR LHUD 110745Z 36003KT 4200 BR BKN030 03/02 Q1023=

0000012300
803
SACN61 CYLW 110800
METAR CYLW 110800Z AUTO 33003KT 320V060 9SM OVC055 00/M00 A2954 RMK
 PRESFR SLP018=

0000009200
804
SACN51 CWAO 110800
METAR CWKM 110800Z AUTO 26019KT M26/ A2973 RMK SLP075=

0000038900
805
SAMC31 GMMC 110800
METAR GMFF 110800Z 14004KT 9999 SCT030 BKN100 11/06 Q1018 NOSIG=
METAR GMME 110800Z 18004KT 5000 SCT020 BKN100 14/10 Q1017 NOSIG=
METAR GMMN 110800Z 19007KT 9999 FEW016 BKN100 11/08 Q1018 NOSIG=
METAR GMMX 110800Z 00000KT 8000 BKN023 11/10 Q1018 NOSIG=
METAR GMTT 110800Z 10003KT 6000 SCT016 BKN100 12/10 Q1017 NOSIG=
METAR GMAD 110800Z NIL=

0000082400
806
SAMC32 GMMC 110800
METAR GMAG 110800Z 04004KT CAVOK 07/06 Q1019=
METAR GMAT 110800Z 14002KT CAVOK 09/07 Q1018=
METAR GMFF 110800Z 14004KT 9999 SCT030 BKN100 11/06 Q1018 NOSIG=
METAR GMFK 110800Z 36018KT 8000  SCT026 BKN080 09/04 Q1018=
METAR GMFM 110800Z 20002KT 8000 SCT020 BKN100 10/06 Q1018=
METAR GMFO 110800Z 21014KT 8000 -RA BKN016 BKN026 12/09 Q1018 NOSIG=
METAR GMMC 110800Z 20002KT 9999 BKN026 14/08 Q1014=
METAR GMMH 110800Z 05005KT CAVOK 15/13 Q1017=
METAR GMMI 110800Z 09003KT 7000 NSC 08/05 Q1017=
METAR GMMW 110800Z 22003KT 5000 SCT010 SCT200 09/08 Q1018=
METAR GMMZ 110800Z 00000KT 9999 FEW030 04/03 Q1018=
METAR GMTA 110800Z 20002KT 9999 SCT026 BKN100 12/09 Q1019=
METAR GMTN 110800Z 20006KT 0800 R24/P2000N FG SCT020 SCT200 12/10
Q1017=
METAR GMML 110800Z NIL=

0000080400
807
SACH10 SCSC 110800
METAR SCFA 110800Z 20005KT 9999 BKN015 19/16 Q1011 NOSIG=
METAR SCAR 110800Z 14003KT CAVOK 22/17 Q1010=
METAR SCBA 110800Z AUTO 29011KT CAVOK 07/03 Q1019=
METAR SCCF 110800Z 09008KT CAVOK 08/05 Q1023=
METAR SCIE 110800Z 20006KT CAVOK 12/10 Q1013=
METAR SCAT 110800Z AUTO 25004KT 220V290 9999 // ///013 17/14 Q1012=
METAR SCDA 110800Z 00000KT CAVOK 21/17 Q1011=
METAR SCSE 110800Z 10002KT 9999 FEW010 15/13 Q1010=
METAR SCJO 110800Z NIL=
METAR SCTE 110800Z 19003KT CAVOK 09/07 Q1022 NOSIG=
METAR SCNT 110800Z NIL=
METAR SCCI 110800Z 30010KT 9999 SCT030 OVC080 09/05 Q1007 NOSIG=
METAR SCEL 110800Z VRB01KT CAVOK 15/06 Q1012 NOSIG=
METAR SCIP 110800Z 10005KT 9999 FEW020 22/18 Q1021 NOSIG=
METAR SCPQ 110800Z AUTO 20006KT CAVOK 07/05 Q1022=

0000019100
808
FTIE31 EIDB 110500 AAA
TAF AMD EIDW 110800Z 1108/1206 25012KT 9999 SCT004 BKN005
     BECMG 1108/1110 SCT010 BECMG 1121/1124 14015G25KT
     BECMG 1200/1203 14025G35KT=

0000011200
809
SACN61 CYNA 110800
METAR CYNA 110800Z AUTO 28012G17KT 9SM OVC022 M06/M10 A3007 RMK
 SLP184=

0000010600
810
SACN61 CYMO 110800
METAR CYMO 110800Z AUTO 14006KT 9SM OVC049 M01/M03 A2962 RMK SLP032=

0000012700
811
SACN61 CYMM 110800
METAR CYMM 110800Z AUTO 12006KT 9SM -SN BKN008 BKN042 BKN050 M16/M18
 A2950 RMK SLP023=

0000011500
812
SACN62 CYOW 110800
METAR CYOW 110800Z 06011KT 8SM OVC022 M04/M06 A2991 RMK SC8 PRESFR
 SLP136=

0000010500
813
SACN62 CYMX 110800
METAR CYMX 110800Z 05005KT 8SM OVC027 M07/M09 A3004 RMK SC8 SLP178=

0000012100
814
SACN44 CWAO 110800
METAR CYTH 110800Z 05007KT 8SM -SN BKN020 OVC063 M19/M20 A2950 RMK
SC6SC2 SLP013=

00000000