0000033300
395
SAID32 WIII 110700
METAR WIPT 110700Z 29005KT 230V320 9999 SCT020 30/23 Q1009= 
METAR WIOO 110700Z 01004KT 9999 BKN011 32/24 Q1008 =
METAR WADL 110700Z 08003KT 6000 RA FEW015CB BKN016 25/24 Q1009 RETS= 
METAR WAMM NIL=
METAR WIBB NIL=
METAR WIDN NIL=
METAR WIPP NIL=
METAR WAOO NIL=
METAR WALL NIL=

0000013100
396
FTAO33 DRRN 110500 RRA
TAF FTTJ 110500Z 1106/1212 04010KT 2500 HZ BECMG 1106/1108 06016KT
4000 SA TEMPO CAVOK=

0000013100
397
SPUS31 KWBC 110737
SPECI
KJFK 110733Z 14005KT 4SM R04R/3500VP6000FT -RA BR SCT006 BKN045
OVC060 07/07 A3015=

0000009800
398
SPUS42 KWBC 110737
SPECI
KBTR 110733Z 21017G22KT 10SM -RA OVC009 20/19 A2983=

0000038700
399
SAAL40 DAMM 110730
METAR DAAG 110730Z 26004KT 120V230 9999 FEW030 SCT040 12/08 Q1019=
METAR DAAT 110730Z 09004KT 060V120 CAVOK 13/M02 Q1024=
METAR DABB 110730Z NIL=
METAR DABC 110730Z 22003KT CAVOK 05/01 Q1020=
METAR DABS 110730Z NIL=
METAR DAON 110730Z NIL=
METAR DAOO 110730Z NIL=
METAR DAUH 110730Z 00000KT CAVOK 09/07 Q1021=
METAR DAUZ 110730Z NIL=

0000008700
400
SAAL31 DAAA 110730 RRA
METAR DAUH 110730Z 00000KT CAVOK 09/07 Q1021=

0000018900
401
SAIO31 KWBC 110700 RRF
METAR
FMCZ 110730Z NIL=
FMEE 110730Z 10022KT 9999 FEW028 31/21 Q1014 NOSIG=
VYMD 110730Z 32005KT 7000 HZ NSC 28/15 Q1015=
VYYY 110730Z NIL=

0000064100
402
SARA32 RUMS 110730
METAR UHBB 110730Z 32003MPS 270V350 CAVOK M25/M33 Q1024 NOSIG RMK
QFE750/1000 36410160=
METAR UHHH 110730Z 24006MPS CAVOK M23/M29 Q1019 NOSIG RMK QFE758/1011
23090060=
METAR UHMA 110730Z NIL=
METAR UHMD 110730Z NIL=
METAR UHMM 110730Z 04002MPS 010V130 9999 SKC M19/M30 Q1010 NOSIG RMK
QFE742 88820555=
METAR UHPP 110730Z 03002MPS 9999 SCT030 BKN100 M06/M13 Q0996 NOSIG
RMK QFE744/0992 SC05 055 055=
METAR UHSS 110730Z 00000MPS 4000 SHSN BKN018CB M16/M18 Q1012 NOSIG
RMK QFE758/1010 01810366=
METAR UHWW 110730Z 00000MPS 9999 BKN050 M08/M21 Q1024 NOSIG RMK
QFE767/1022 25CLRD70=

0000011400
403
SARA31 RUMS 110730
METAR UEEE 110730Z 00000MPS CAVOK M42/M47 Q1035 NOSIG RMK QFE768
23490145=

0000092700
404
SARA34 RUMS 110730
METAR UNAA 110730Z 20004MPS CAVOK M02/M07 Q1031 NOSIG RMK QFE750
20090040=
METAR UNBB 110730Z 23005MPS 9000 -SN BKN020 OVC100 M07/M09 Q1031
NOSIG RMK QFE751/1001 24452045=
METAR UNEE 110730Z 18005MPS 7000 -SN OVC013 M08/M10 Q1029 NOSIG RMK
QFE749 23452045=
METAR UNKL 110730Z 25003G07MPS 210V280 9999 SCT042CB BKN083 M04/M10
Q1027 NOSIG RMK QFE745 29////55=
METAR UNNT 110730Z 21004MPS 6000 -SN BKN021 OVC083 M07/M09 Q1029
25390140 16390142 NOSIG RMK QFE762/1016=
METAR UNOO 110730Z 18005MPS 4500 -SHSN BR BKN033CB M08/M11 Q1022
25390137 NOSIG RMK QFE759=
METAR UNTT 110730Z 22006MPS 9999 SCT016CB OVC100 M07/M09 Q1027 NOSIG
RMK QFE755 21390130=
METAR USTR 110730Z 18004MPS 9999 OVC027 M07/M08 Q1013 NOSIG RMK
QFE750/1001 21390050 12750029=
METAR USHH 110730Z 05003MPS 6000 -SN BKN004 OVC080 M18/M20 Q1015
TEMPO 0600 +SN OVC002 RMK QBB130 QFE758 06////40=

0000034700
405
SARA33 RUMS 110730
METAR UIAA 110730Z NIL=
METAR UIBB 110730Z 14002MPS 6000 -SHSN SCT018CB OVC200 M17/M18 Q1027
NOSIG RMK QFE727/0969 30490434=
METAR UIII 110730Z 00000MPS CAVOK M13/M15 Q1030 NOSIG RMK QFE730/0973
12490340=
METAR UIUU 110730Z 34001MPS 9999 FEW033 SCT100 M17/M19 Q1032 NOSIG
RMK QFE729/0972 26450545=

0000108200
406
SARS32 RUMS 110730
METAR URKA 110730Z 27004G07MPS 9999 BKN018 06/03 Q1018 NOSIG RMK
QFE758/1011 SC070=
METAR URKK 110730Z 29009G12MPS 9999 FEW017 07/04 Q1016 NOSIG RMK
QFE759 SC060=
METAR URML 110730Z 21003MPS 6000 OVC016 05/03 Q1011 NOSIG RMK
QFE758/1011 SC070=
METAR URMM 110730Z 32005MPS 9999 SCT036 BKN100 01/M00 Q1012 30CLRD70
NOSIG RMK QFE731/0975=
METAR URMN 110730Z 21003MPS 9999 SCT033 OVC100 09/M11 Q1010 NOSIG RMK
QFE720 SC07=
METAR URMO 110730Z VRB01MPS 9999 BKN150 M01/M03 Q1010 NOSIG RMK
QFE714/0953 SC070=
METAR URMT 110730Z 31009G12MPS 9999 SCT033 OVC100 05/02 Q1011 NOSIG
RMK QFE719 SC0.60=
METAR URRR 110730Z 26008G11MPS 9999 SCT021 BKN100 05/03 Q1010
22290043 TEMPO 26011G16MPS=
METAR URSS 110730Z 05003MPS 9999 -SHRA FEW024 OVC045CB 05/02 Q1019
NOSIG RMK R06/08004MPS MT OBSC QFE763 0219//60 06//////=
METAR URWA 110730Z 17006G09MPS 9999 BKN036 06/03 Q1011 NOSIG RMK
QFE760/1014 SC055=
METAR URWI 110730Z NIL=
METAR URWW 110730Z 24011G15MPS 9999 -SHRA SCT009 SCT020CB 03/03 Q1001
NOSIG RMK 29290060=

0000012000
407
SARA35 RUMS 110730
METAR USCM 110730Z 15002MPS 6000 OVC016 M05/M07 Q1009 NOSIG 19420150
RMK QFE719=

0000058400
408
SARA36 RUMS 110730
METAR UWUU 110730Z 19005MPS 160V220 9999 OVC007 M01/M02 Q1007
14620342 TEMPO 1000 SN FZRA BKN003 RMK QBB220 QFE745/0993 MOD ICE
INC=
METAR USCC 110730Z 15003MPS 5000 BR FU BKN016 OVC070 M05/M07 Q1011
09490350 TEMPO 1100 BR FU BKN005 RMK QFE737=
METAR USNN 110730Z 05004MPS 5000 -SN OVC030 M11/M12 Q1018 NOSIG RMK
QFE760 03490536=
METAR USRR 110730Z 08003MPS 1600 SN OVC022 M18/M20 Q1018 TEMPO 2000
SN BKN007 RMK OBST OBSC QFE758 07////35=
METAR USSS 110730Z 14003MPS 7000 BKN007 OVC067 M05/M07 Q1009 0829//37
NOSIG RMK QFE737=

0000029800
409
SARS31 RUMS 110730
METAR ULWC 110730Z NIL=
METAR UUBP 110730Z NIL=
METAR UUOB 110730Z 26007MPS 9999 -SHRA BKN020CB 03/02 Q0999 29290050
NOSIG=
METAR UUOK 110730Z NIL=
METAR UWGG 110730Z 20002MPS 3000 -SN OVC006 01/00 Q0987 TEMPO 1000
SHSNRA VV004 18691035 RMK QFE733=

0000066200
410
SARS33 RUMS 110730
METAR ULLI 110730Z 31007MPS 9999 DRSN BKN011 OVC013 M05/M07 Q0994
28550538 78510545 NOSIG RMK SEV ICE INC 0330-1000=
METAR UUBW 110730Z 22003MPS 9999 BKN014 03/01 Q0986 NOSIG=
METAR UUDD 110730Z 24004MPS 210V310 9999 -RA BKN007 OVC100 03/02
Q0986 32290095 82290095 NOSIG=
METAR UUDL 110730Z 16002MPS 6000 OVC003 02/01 Q0984 NOSIG RMK QBB110
QFE730 23690532=
METAR UUEE 110730Z 23005MPS 9999 OVC007 02/01 Q0985 75290151 25290151
NOSIG=
METAR UUWW 110730Z 24006MPS 9999 BKN006 OVC018 02/01 Q0985 24290045
NOSIG=
METAR UUMO 110730Z 24004MPS 9999 BKN008 OVC020 02/02 Q0986 NOSIG RMK
QFE725/0966 26250550=

0000085700
411
SARS35 RUMS 110730
METAR USPP 110730Z 13005MPS 6000 OVC007 M03/M04 Q1005 21310140 TEMPO
-FZDZ RMK QFE743/0991 FBL ICE INC 230-1300=
METAR UWKD 110730Z 16013G16MPS 2100 -SNRA OVC006 M00/M01 Q0996
R11/7/0240 TEMPO 1500 OVC004 RMK QFE737/0982=
METAR UWKE 110730Z 18007G10MPS 9999 DRSN OVC007 M02/M03 Q1001 NOSIG
RMK  QFE734/0978 21420542=
METAR UWKS 110730Z 15009MPS 1400 SHSN OVC005CB M01/M01 Q0991 TEMPO
0700 +SHSN VV003 RMK QBB150 QFE729 24590532=
METAR UWLW 110730Z NIL=
METAR UWOR 110730Z NIL=
METAR UWOO 110730Z 20004MPS 5000 -SG BR OVC009 M01/M02 Q1011 26830336
TEMPO 1000 BR OVC003 RMK QFE748/0997=
METAR UWSS 110730Z 19006G09MPS 1200 RASN BR OVC003 01/01 Q0996
12290350 NOSIG RMK QFE735=
METAR UWWW 110730Z 15009G12MPS 3500 BR BKN008 OVC100 M00/M02 Q1000
23////45 33//99// TEMPO OVC004 RMK QFE739/0985=

0000062000
412
SARS36 RUMS 110730
METAR ULAA 110730Z 07007G11MPS 2800 -SN BLSN OVC008 M17/M19 Q1000
BECMG 2000 SN BLSN OVC005 RMK QFE749/0999 SC050=
METAR ULMM 110730Z 00000MPS 9999 FEW003 M35/M39 Q1018 NOSIG RMK
QBB100 OBST OBSC QFE756 31450239=
METAR ULOO 110730Z NIL=
METAR ULPB 110730Z NIL=
METAR UMKK 110730Z 28006MPS 240V310 8000 -SHRA SCT009 OVC018CB 05/03
Q1007 R24/29//60 NOSIG RMK QFE754/1006=
METAR UUOO 110730Z 24006G09MPS 9999 -RA OVC011 03/01 Q0994 NOSIG RMK
30290250=
METAR UUYY 110730Z 04003MPS 2100 -SHSN BKN007 OVC013CB M10/M12 Q1000
TEMPO 0700 +SHSN 01490535 RMK QFE741/0988=

0000023700
413
FTCN34 CWAO 110700
TAF CYGQ 110738Z 1108/1120 VRB03KT 1SM -SN BR OVC005 TEMPO 1108/1118
     3SM -SN -FZDZ BR OVC008
    FM111800 28010KT 3SM -SN OVC006 TEMPO 1118/1120 6SM -SN OVC010
    RMK NXT FCST BY 111400Z=

0000024700
414
FTCN35 CWAO 110700
TAF CYTS 110738Z 1108/1120 12008KT 1/2SM SN VV003 TEMPO 1108/1115
     11/2SM -SN BR OVC006
    FM111500 17005KT 3SM -SN BR OVC008 TEMPO 1115/1120 11/2SM -SN BR
     OVC004
    RMK NXT FCST BY 111400Z=

00000000