0000009700
195
SAZA31 FAPR 110600 CCA
METAR COR FAUP 110600Z 16004KT CAVOK 21/06 Q1017 NOSIG=

0000009700
196
SAAF21 LFPW 110600 CCA
METAR COR FAUP 110600Z 16004KT CAVOK 21/06 Q1017 NOSIG=

0000150300
197
SPUS70 KWBC 110616
SPECI
KBPT 110612Z AUTO 24013KT 1 3/4SM R12/6000VP6000FT BR OVC002 18/18
     A2986 RMK AO2 $=
KCEU 110612Z AUTO 00000KT 2 1/2SM BR SCT005 OVC011 09/08 A3002 RMK
     AO2 LTG DSNT SE RAE07 P0000=
KCSG 110612Z AUTO 00000KT 1/2SM VCTS +RA FG VV002 13/12 A2996 RMK
     AO2 LTG DSNT SW-N TSB07RAB0557 P0003=
KCXY 110612Z AUTO 00000KT 1 1/4SM -RA BR OVC003 01/01 A3009 RMK
     AO2 P0001=
KECG 110612Z AUTO 16006KT 1 3/4SM RA BR FEW008 BKN019 OVC065 17/16
     A3011 RMK AO2 RAB0557 P0019 T01670156 TSNO=
KEQY 110612Z AUTO 04003KT 1 1/2SM -RA BR OVC002 06/06 A3003 RMK
     AO2 RAB05 P0000=
KFAY 110613Z AUTO 18004KT 2 1/2SM BR BKN007 OVC010 17/16 A3005 RMK
     AO2=
KFOE 110613Z AUTO 29006KT 6SM BR SCT006 BKN095 BKN120 01/M01 A2966
     RMK AO2 T00111006=
KLNR 110613Z AUTO 29004KT 1/4SM FG VV008 00/00 A2945 RMK AO2
     RAE0559 P0000 T00000000=
KADG 110613Z AUTO 21012KT 4SM -RA BR OVC002 04/04 A2961 RMK AO2
     P0001 TSNO=
KBED 110613Z 14003KT 1/2SM R11/3000V4000FT FG OVC004 01/01 A3023
     RMK AO2=
KBWG 110613Z AUTO 31018G26KT 3SM +RA BR FEW008 BKN029 OVC040 12/10
     A2972 RMK AO2 PK WND 31026/0612 WSHFT 0557 LTG DSNT N AND W
     RAB07 P0008 T01170100=
KEET 110613Z AUTO 15008KT 4SM BR OVC002 13/13 A2988 RMK AO2 LTG
     DSNT E T01330128=
KTVC 110613Z 00000KT 10SM -RA OVC014 03/02 A2944 RMK AO2 P0000
     T00330022 $=
K2DP 110613Z AUTO 15014G25KT 5SM -RA BKN014 17/16 A3013 RMK
     AO2=

0000012900
198
SPUS41 KWBC 110616
SPECI
KWRI 110613Z AUTO 12004KT 1SM R06/2000FT -RA BR FEW025 SCT045
OVC060 04/04 A3011=

0000010600
199
SACA33 KWBC 110500 CCA
METAR
TNCM 110500Z 08010KT 9999 FEW018 25/21 Q1018 A3007 RERA=

0000021100
200
SACA31 TNCC 110600
METAR TNCC 110600Z 10013KT 9999 FEW014 26/22 Q1014 NOSIG=
METAR TNCE 110600Z AUTO 06010KT //// ////// ///// Q1017=
METAR TNCB 110600Z AUTO 07011KT //// /////25/22 Q1014=

0000035900
201
SAAO33 GOOY 110600
METAR GQPP 110600Z 35004KT 7000 NSC 15/14 Q1015 NOSIG=
METAR GQNN 110600Z 02007KT 8000 NSC 14/13 Q1014 NOSIG=
METAR GQPA 110600Z NIL=
METAR GQNI 110600Z NIL=
METAR GQPZ 110600Z NIL=
METAR GUCY 110600Z 05004KT CAVOK 23/22 Q1010 NOSIG=
METAR GUXN 110600Z NIL=
METAR GULB 110600Z NIL=
METAR GUNZ 110600Z NIL=

0000010800
202
SAYG31 LYBM 110600 CCA
METAR COR LYBT 110600Z 13003KT 5000 BR NSC 01/01 Q1023 TEMPO 3000=

0000031700
203
SAAO34 GOOY 110600
METAR GBYD 110600Z 03006KT CAVOK 17/13 Q1012=
METAR GFLL 110600Z NIL=
METAR GLRB 110600Z NIL=
METAR GVAC 110600Z 05003KT 9999 BKN015 BKN200 19/14 Q1014
NOSIG=
METAR GVBA 110600Z NIL=
METAR GVNP 110600Z /////KT 9999 BKN020  ///// Q//// NOSIG=
METAR GVSV 110600Z NIL=

0000009300
204
SATH31 VTBB 110600 RRC
METAR VTPO 110600Z 02004KT 4000 HZ NSC 29/18 Q1015=

0000068100
205
SAVN20 SVMR 110600
METAR SVCR 110600Z /////KT CAVOK 25/25 Q1015=
METAR SVMC 110600Z NIL=
METAR SVBM 110600Z 07004KT 9999 SCT016 19/16 Q1017=
METAR SVBS 110600Z 09003KT CAVOK 21/17 Q1016=
METAR SVMI 110600Z 00000KT 9999 FEW016 23/18 Q1014 NOSIG=
METAR SVFM 110600Z NIL=
METAR SVBC 110600Z 00000KT 9999 FEW010 23/20 Q1014=
METAR SVCU 110600Z 09006KT CAVOK 24/18 Q1015=
METAR SVMG 110600Z /////KT 9999 SCT010 24/22 Q1014 NOSIG=
METAR SVAC 110600Z NIL=
METAR SVMT 110600Z NIL=
METAR SVBI 110600Z 05005KT CSVOK 25/14 Q1012=
METAR SVCB 110600Z 09006KT CAVOK 23/// Q1012=
METAR SVVA 110600Z 02002KT CAVOK 22/19 Q1015=
METAR SVSO 110600Z NIL=

0000011100
206
SPUS41 KWBC 110617
SPECI
KBED 110613Z 14003KT 1/2SM R11/3000V4000FT FG OVC004 01/01 A3023=

0000010100
207
SPUS43 KWBC 110617
SPECI
KDSM 110613Z 29008KT 6SM BR FEW007 OVC013 01/M01 A2954=

0000009300
208
SPCN42 CWAO 110617
SPECI CYUA 110617Z AUTO 30019KT 2 3/4SM CLR M26/ A2973=

0000035200
209
FTUS71 KWBC 110618 AAA
TAF AMD
KGFL 110616Z 1106/1206 00000KT 5SM BR OVC010
      TEMPO 1106/1109 2SM -FZDZ BR BKN006
     FM110900 VRB03KT 1 1/2SM -FZDZ BR OVC006
     FM111100 17004KT 1SM -RA BR OVC005 WS020/19040KT
     FM111700 19008KT 3/4SM -RA BR OVC004 WS020/20045KT
     FM112300 23010KT 2SM -RA BR SCT004 OVC008=

0000031600
210
FTUS73 KWBC 110618 AAA
TAF AMD
KEGE 110617Z 1106/1206 25011KT P6SM VCSH OVC060
      TEMPO 1106/1108 25015G25KT
     FM111200 VRB03KT P6SM VCFG SCT015 BKN050
     FM111800 23005KT P6SM SCT060 SCT200
     FM120000 VRB03KT P6SM SCT100 BKN200 AMD LTD TO CLD VIS AND
      WIND TIL 111400=

0000035400
211
FTUS74 KWBC 110618 AAA
TAF AMD
KMFR 110616Z 1106/1206 15006KT P6SM SCT006 OVC200
      TEMPO 1106/1110 3SM BR BKN006
     FM111000 15012KT P6SM VCSH SCT025 BKN080 WS020/20050KT
     FM111400 16008G16KT P6SM -RA BKN025 OVC040
     FM111900 23008G16KT P6SM -RA BKN030 OVC045
     FM120300 28010G20KT P6SM -SHRA BKN025 OVC040=

0000010600
212
SASP41 LEMM 110600 RRA
METAR LELO 110600Z 00000KT 0300 R29/0800N FG OVC002 04/04 Q1019=

0000030500
213
SACG21 FCBB 110600
METAR FCBB 110600Z 00000KT 8000 FEW011 23/22 Q1014 NOSIG=
METAR FCPP 110600Z 10004KT 8000 SCT010 BKN023 25/24 Q1011 NOSIG=
METAR FCPD 110600Z 00000KT 8000 FEW017 BKN050 23/22 Q1013=
METAR FCOU 110600Z 00000KT 0300 FG BKN010 OVC130 22/21 Q1013=
METAR FCOI NIL=

0000021900
214
SAUS71 KWBC 110600 RRF
METAR
KMMU 110615Z AUTO 00000KT 1SM -SN OVC003 02/01 A3017=
KMYR 110615Z AUTO 16008KT 3/4SM OVC003 14/13 A3009=
KPQI 110615Z AUTO 00000KT 10SM BKN022 OVC090 M12/M14 A3021=

00000000