0000048500
315
SAUK31 EGGY 110850
METAR EGBB 110850Z 24005KT 9999 FEW025 03/02 Q1016=
METAR EGCC 110850Z 28010KT 9999 -SHRA FEW008 BKN012CB 04/03 Q1016
    RESHRA=
METAR EGKK 110850Z 29009KT 9999 FEW015 06/04 Q1017=
METAR EGLL 110850Z 29007KT CAVOK 06/04 Q1017=
METAR EGPF 110850Z 28007KT CAVOK 02/00 Q1013=
METAR EGPH 110850Z 25010KT CAVOK 02/00 Q1012=
METAR EGPK 110850Z VRB02KT 9999 VCSH FEW006 FEW012CB 03/01 Q1014=
METAR EGSS 110850Z 29008KT CAVOK 05/03 Q1016=

0000014100
316
SAVN23 SVBC 110900
METAR SVBC 110900Z 00000KT 9999 FEW010 22/21 Q1013=
METAR SVMT 110900Z NIL=
METAR SVHG 110900Z NIL=

0000041000
317
SAGL31 BGSF 110850
METAR BGSF 110850Z AUTO 05006KT 9999NDV  FEW100/// BKN170/// 
M17/M23 Q0996=
METAR BGBW 110850Z 07006KT 9999 FEW180 M12/M19 Q0996 RMK 1CS 
=
METAR BGGH 110850Z AUTO 07011KT 9999NDV  FEW190/// M08/M16 Q0994=
METAR BGJN 110850Z AUTO 08004KT 020V100 9999NDV  SCT075/// M11/M20 
Q0994=
METAR BGKK 110850Z AUTO 05005KT 020V090 9999NDV  BKN062/// M04/M09 
Q0997=

0000046400
318
SAUK32 EGGY 110850
METAR EGAA 110850Z 21004KT 9999 BKN003 BKN007 01/01 Q1016=
METAR EGAC 110850Z VRB04KT 9999 FEW009 SCT015 02/00 Q1016=
METAR EGFF 110850Z 28007KT 9999 FEW032 03/03 Q1018=
METAR EGGW 110850Z 28009KT 9999 FEW009 04/03 Q1016=
METAR EGLC 110850Z NIL=
METAR EGNM 110850Z 27008KT 230V300 9999 FEW014CB 02/02 Q1013=
METAR EGNX 110850Z 25009KT 9999 FEW020 03/02 Q1015=
METAR EGPD 110850Z 27010KT CAVOK 03/M02 Q1007 NOSIG=

0000044200
319
SAUK33 EGGY 110850
METAR EGGD 110850Z 23005KT CAVOK 03/03 Q1018=
METAR EGGP 110850Z 28010KT 9999 -SHRA FEW012CB SCT018 05/03
    Q1016=
METAR EGHI 110850Z 32005KT 290V350 CAVOK 05/03 Q1018 =
METAR EGNS 110850Z NIL=
METAR EGNT 110850Z 26013KT 9999 FEW030 02/01 Q1012=
METAR EGNV 110850Z 26009KT 9999 FEW035 04/00 Q1013=
METAR COR EGPB 110850Z 27020KT 9999 -SHRA FEW014 FEW018CB SCT030
     05/03 Q1001 NOSIG=

0000039900
320
SAUK34 EGGY 110850
METAR EGHE 110850Z 36004KT 9999 FEW030 07/04 Q1020=
METAR EGHK 110850Z NIL=
METAR EGHQ 110850Z 34003KT 9999 SCT031 06/03 Q1019=
METAR EGJA 110850Z 34011KT 310V010 9999 FEW010 08/04 Q1019=
METAR EGJB 110850Z 35007KT 9999 FEW020 07/05 Q1019=
METAR EGJJ 110850Z 35007KT 9999 FEW018 08/05 Q1019 NOSIG=
METAR EGTE 110850Z 34004KT 9999 FEW025 03/02 Q1019=

0000044600
321
SAUK35 EGGY 110850
METAR EGHH 110850Z 30005KT CAVOK 04/03 Q1018=
METAR EGKA 110850Z NIL=
METAR EGKB 110850Z 29009KT 260V320 9999 FEW012 06/04 Q1016 =
METAR EGLF 110850Z 28005KT CAVOK 05/04 Q1017=
METAR EGMC 110850Z 28011KT 250V310 9999 FEW015 07/04 Q1015=
METAR EGMD 110850Z 30013KT 9999 FEW030 09/08 Q1016=
METAR EGMH 110850Z 28011KT 9999 FEW015 SCT030 07/06 Q1015 =
METAR EGTC 110850Z 27008KT CAVOK 04/03 Q1016=

0000037100
322
SAUK36 EGGY 110850
METAR EGBE 110850Z 19006KT CAVOK 02/00 Q1016=
METAR EGBJ 110850Z 20003KT 9999 FEW020 04/02 Q1017=
METAR EGCN 110850Z 23007KT 9999 FEW042 03/01 Q1015=
METAR EGSC 110850Z 27010KT CAVOK 05/03 Q1015=
METAR EGSD 110850Z NIL=
METAR EGSH 110850Z 29010KT 9999 FEW022 06/05 Q1014=
METAR EGVN 110850Z NIL=
METAR EGWU 110850Z NIL=

0000043500
323
SAUK37 EGGY 110850
METAR EGAE 110850Z 22007KT 190V250 9999 FEW011 03/02 Q1015=
METAR EGNC 110850Z NIL=
METAR EGNH 110850Z 31011KT 8000 RA FEW009 SCT015 BKN020 05/03
    Q1016=
METAR EGNJ 110850Z NIL=
METAR EGNO 110850Z NIL=
METAR EGNR 110850Z 25006KT 9999 -SHRA FEW015 SCT025 05/03 Q1016=
METAR EGPE 110850Z 22009KT 9999 FEW005 FEW025CB 01/M00 Q1009=
METAR EGPI 110850Z NIL=
METAR EGPN 110850Z NIL=

0000048800
324
SAUK38 EGGY 110850
METAR EGEC 110850Z NIL=
METAR EGEO 110850Z 26008KT 200V270 9999 FEW015 SCT024 04/01 Q1012=
METAR EGPA 110850Z 28011KT 9999 VCSH FEW010 SCT019 03/02 Q1005=
METAR EGPC 110850Z AUTO 31011KT 9999 FEW016/// SCT034/// 01/M00
    Q1006=
METAR EGPL 110850Z 26021G31KT 9999 -SHRA FEW012CB FEW014 BKN041
    04/01 Q1010=
METAR EGPM 110850Z NIL=
METAR EGPO 110850Z 22005KT 9999 FEW009 SCT012CB SCT030 02/01
    Q1008=
METAR EGPU 110850Z NIL=

0000017300
325
SAVN24 SVMG 110900
METAR SVMG 110900Z /////KT 9999 SCT010 24/22 Q1013 NOSIG=
METAR SVCU 110900Z NIL=
METAR SVCP 110900Z NIL=
METAR SVGI 110900Z NIL=

0000050800
326
SASW32 LSSW 110850
METAR LSGC 110850Z 25004KT 240V040 CAVOK 03/02 Q1017=
METAR LSGS 110850Z VRB01KT 9999 FEW150 SCT200 01/00 Q1019=
METAR LSZG 110850Z AUTO 24004KT 210V270 0400 FG VV002 02/02 Q1019=
METAR COR LSZR 110850Z VRB02KT 0350 R10/0650N FG VV002 03/02 Q1018
     NOSIG RMK C=
METAR LSZS 110850Z VRB01KT 9999 BKN090 M05/M05 Q1019 R03/39//99=
METAR LSZC 110850Z AUTO VRB02KT 0150 FG VV002 03/03 Q1018=
METAR LSZL 110850Z AUTO 07003KT 9999NDV OVC048 06/05 Q1023 RMK WHT=

0000009200
327
SAPM31 MPTO 110900
METAR 
MPTO 110900Z 00000KT CAVOK 24/20 Q1009 NOSIG=

0000028100
328
FTUS31 KWBC 110854 AAA
TAF AMD
KDTW 110853Z 1109/1212 17007KT 3SM -RA BR OVC003 WS020/19043KT
     FM111200 18010KT 2SM SHRA BR OVC004
     FM111800 25012G20KT 6SM BR OVC010
     FM120600 26011KT P6SM OVC010=
KLAS 110852Z 1109/1206 VRB06KT P6SM SCT250=

0000030500
329
FTUS72 KWBC 110854 AAA
TAF AMD
KANB 110851Z 1109/1206 21009G22KT P6SM VCSH OVC015
      TEMPO 1109/1110 OVC007
     FM111000 16008KT 3SM -DZ BR OVC007
      TEMPO 1113/1117 22012KT 2SM -TSRA BR OVC007CB
     FM111700 25012G18KT P6SM BKN100
     FM112300 28010KT P6SM SCT250=

0000009500
330
FTUS74 KWBC 110854 AAA
TAF AMD
KLAS 110852Z 1109/1206 VRB06KT P6SM SCT250=

0000023500
331
FTUS73 KWBC 110854 AAA
TAF AMD
KDTW 110853Z 1109/1212 17007KT 3SM -RA BR OVC003 WS020/19043KT
     FM111200 18010KT 2SM SHRA BR OVC004
     FM111800 25012G20KT 6SM BR OVC010
     FM120600 26011KT P6SM OVC010=

0000028800
332
FTUS75 KWBC 110854 AAA
TAF AMD
PHLI 110850Z 1109/1206 05015G22KT P6SM VCSH FEW010 SCT020 BKN040
      TEMPO 1109/1112 -SHRA BKN020
     FM111200 07012KT P6SM VCSH SCT020 BKN050
     FM111800 13010KT P6SM SCT025 BKN050
     FM120200 15007KT P6SM SCT020 BKN050=

0000080200
333
SASN32 ESWI 110850
METAR ESKN 110850Z 02006KT 6000 -SN SCT008 BKN010 M02/M03 Q1000
R26/720155=
METAR ESOE 110850Z AUTO 06011KT 2300NDV -SN FEW007/// SCT009///
BKN016/// M04/M05 Q1000=
METAR ESOK 110850Z AUTO 05011KT 9999 -FZDZ FEW006/// SCT011///
BKN015/// M04/M04 Q0999=
METAR ESOW 110850Z AUTO 01006KT 9999NDV OVC029/// M05/M07 Q1002=
METAR ESSA 110850Z 01007KT 9999 FEW008 BKN036 M04/M04 Q1001
R01L/520158 R08/520164 R01R/////// NOSIG=
METAR ESSB 110850Z 36005KT 9999 FEW006 BKN028 M04/M04 Q1001
R30/29//72=
METAR ESSD 110850Z AUTO 01005KT 6000 -SN FEW001/// SCT009///
BKN011/// M08/M10 Q1002=
METAR ESSP 110850Z AUTO 04008KT 4400NDV -SN VV004 M00/M00 Q1000
REDZ RERA REFZRA=
METAR ESSV 110850Z 23015KT 9999 DZ FEW009 BKN024 05/04 Q1001
R21/29//95=

0000009300
334
SAUK37 EGGY 110850 RRA
METAR EGNJ 110850Z 23007KT 9999 FEW036 04/02 Q1014=

00000000