0000012300
615
SACN62 CYWK 110600
METAR CYWK 110600Z 25007KT 15SM -SN BKN036 OVC046 M11/M14 A2981 RMK
 SC6SC2 SLP142=

0000013600
616
SACN62 CYQK 110600
METAR CYQK 110600Z 19003KT 3/8SM -FZDZ FZFG VV001 M05/M05 A2938 RMK
 FG8 VIS VRB 1/4-1/2 SLP973=

0000009900
617
SACN62 CYZF 110600
METAR CYZF 110600Z 30005KT 15SM SKC M30/M33 A2956 RMK SLP040=

0000046300
618
FTCN34 CWAO 110600 AAA
TAF AMD CYWG 110605Z 1106/1206 29012KT 1SM -SN BR OVC006 TEMPO
     1106/1115 3SM BR OVC008
     BECMG 1107/1109 31008KT
    FM111500 29008KT 2SM BR OVC006 TEMPO 1115/1118 P6SM NSW OVC012
    FM111800 29008KT P6SM SCT012 BKN030 TEMPO 1118/1121 6SM BR BKN012
    FM112100 27006KT P6SM SCT030 TEMPO 1121/1124 BKN030
    FM120000 20006KT P6SM SKC
    FM120300 18012KT P6SM BKN080
    RMK NXT FCST BY 111200Z=

0000097100
619
SAKZ31 RUMS 110600
METAR UAAA 110600Z 24001MPS 1300 R23R/1300N R23L/1400D FU FEW100
BKN200 M06/M13 Q1023 8891//60 NOSIG=
METAR UACC 110600Z 18008MPS 9999 -SN DRSN OVC017 M07/M10 Q1022
R22/4/0340 NOSIG RMK QFE735/0980=
METAR UAKK 110600Z 17010MPS 9999 DRSN SCT033 OVC170 M13/M16 Q1025
R23/850555 NOSIG RMK QFE721/0962=
METAR UAOO 110600Z 19005MPS 3300 BR BKN130 M03/M06 Q1021 R24/3///55
NOSIG RMK QFE754/1005=
METAR UARR 110600Z 17008MPS 9999 BKN007 OVC020 M00/M01 Q1009
R22/750245 TEMPO 3000 -SNRA -FZRA BR OVC006 RMK QFE753/1004=
METAR UATE 110600Z 12007MPS 9999 OVC020 01/01 Q1016 R12/3///65 NOSIG
RMK QFE760/1014=
METAR UATG 110600Z 19005MPS 5000 BR OVC030 02/02 Q1015 R14/19//65
NOSIG RMK QFE763/1018=
METAR UATT 110600Z 24004MPS 8000 BKN002 OVC016 M01/M01 Q1012
R13/390135 TEMPO 0500 FZFG VV002 RMK QBB080 QFE739/0986=
METAR UAUU 110600Z 18006MPS 9999 BKN029 OVC100 M07/M09 Q1014
R15/CLRD60 NOSIG RMK QFE744/0992=

0000018100
620
SAKY31 RUMS 110600
METAR UCFM 110600Z 07003MPS 4200 FU NSC M06/M12 Q1022 R08/CLRD70
NOSIG=
METAR UCFO 110600Z VRB01MPS 9000 NSC 01/M09 Q1026 R12/CLRD70 NOSIG=

0000021600
621
SAAY31 RUMS 110600
METAR UDYZ 110600Z VRB01MPS 1700 -SN BR BKN007 OVC016 M10/M11 Q1027
R09/490440 NOSIG=
METAR UDSG 110600Z 00000MPS M0075 R02/0075N FZFG VV001 M18/M21 Q1021
R02/CLRD70 NOSIG=

0000021900
622
SATA31 RUMS 110600
METAR UTDD 110600Z 08003MPS 9999 BKN200 05/M09 Q1027 09CLRD70 NOSIG
RMK QFE701/0935=
METAR UTDL 110600Z 07009G12MPS 5000 BR OVC210 01/M08 Q1027 NOSIG RMK
QFE731/0974 8809//70=

0000009500
623
SASP40 LEMM 110600 RRA
METAR LEMO 110600Z 12002KT CAVOK 09/08 Q1016
NOSIG=

0000072300
624
SACA32 KWBC 110600
METAR
MDLR NIL=
MDPC 110600Z 10010KT 9999 FEW018 25/20 Q1018=
MDPP 110600Z 09005KT 9999 FEW016 SCT070 23/22 Q1018=
MDSD 110600Z 02004KT 9999 FEW018 21/19 Q1018=
MDST 110600Z 00000KT 9999 BKN015 21/21 Q1019 RERA=
MTCH NIL=
MTPP NIL=
TAPA NIL=
TIST NIL=
TISX NIL=
TJBQ NIL=
TJMZ NIL=
TJNR 110553Z AUTO 09007G18KT 9SM FEW026 SCT042 BKN055 25/22 A3009
     RMK AO2 RAE05 SLP189 P0000 60000 T02500217 10261 20239 58014
     TSNO=
TJPS 110550Z 06005KT 10SM SKC 21/16 A3007=
TJSJ 110556Z 12003KT 10SM FEW036 SCT070 SCT090 24/21 A3007 RMK AO2
     SLP182 T02440211 10261 20244 58015 ?=
TKPK NIL=
TKPN NIL=
TQPF NIL=
TRPM NIL=
TUPJ NIL=
TUPW NIL=

0000033700
625
SAUK34 EGGY 110550
METAR EGHE 110550Z NIL=
METAR EGHK 110550Z NIL=
METAR EGHQ 110550Z NIL=
METAR EGJA 110550Z NIL=
METAR EGJB 110550Z 32009KT 9999 -RADZ FEW005 BKN013 08/07 Q1016
    RERA REDZ=
METAR EGJJ 110550Z 26007KT 9999 FEW012 BKN032 09/08 Q1016 TEMPO 5000
    -RA BKN005=
METAR EGTE 110550Z NIL=

0000034100
626
SAUK35 EGGY 110550
METAR EGHH 110550Z 31007KT 9999 FEW040 06/05 Q1015=
METAR EGKA 110550Z NIL=
METAR EGKB 110550Z NIL=
METAR EGLF 110550Z NIL=
METAR EGMC 110550Z 22009KT 8000 -DZRA BKN008 08/06 Q1012=
METAR EGMD 110550Z NIL=
METAR EGMH 110550Z 21011KT 9999 FEW012 BKN045 08/07 Q1013 =
METAR EGTC 110550Z NIL=

0000031500
627
SAUK36 EGGY 110550
METAR EGBE 110550Z NIL=
METAR EGBJ 110550Z NIL=
METAR EGCN 110550Z 29008KT 260V020 9999 SCT044 06/04 Q1012=
METAR EGSC 110550Z NIL=
METAR EGSD 110550Z NIL=
METAR EGSH 110550Z 23012KT 4000 DZ BKN004 08/07 Q1010 REDZ=
METAR EGVN 110550Z NIL=
METAR EGWU 110550Z NIL=

0000030400
628
SAUK37 EGGY 110550
METAR EGAE 110550Z NIL=
METAR EGNC 110550Z NIL=
METAR EGNH 110550Z NIL=
METAR EGNJ 110550Z NIL=
METAR EGNO 110550Z NIL=
METAR EGNR 110550Z NIL=
METAR EGPE 110550Z 23010KT 9999 FEW017 SCT020 02/00 Q1007=
METAR EGPI 110550Z NIL=
METAR EGPN 110550Z NIL=

0000035500
629
SAUK38 EGGY 110550
METAR EGEC 110550Z NIL=
METAR EGEO 110550Z NIL=
METAR EGPA 110550Z NIL=
METAR EGPC 110550Z AUTO 24006KT 9999 FEW025/// 01/M00 Q1004=
METAR EGPL 110550Z AUTO 27022KT 9999 // FEW026/// 05/02 Q1008=
METAR EGPM 110550Z NIL=
METAR EGPO 110550Z 25007KT 9999 FEW014 SCT029 01/M01 Q1006=
METAR EGPU 110550Z NIL=

0000040100
630
SASW32 LSSW 110550
METAR LSGC 110550Z AUTO 00000KT CAVOK 01/00 Q1016=
METAR LSGS 110550Z NIL=
METAR LSZG 110550Z AUTO VRB01KT 0250 FG VV002 01/01 Q1018=
METAR LSZR 110550Z AUTO 26002KT 0150 R10/0600N BR NCD 03/02 Q1017=
METAR LSZS 110550Z NIL=
METAR LSZC 110550Z AUTO VRB01KT 0200 FG VV002 01/01 Q1017=
METAR LSZL 110550Z AUTO VRB01KT 9999NDV OVC047 06/05 Q1021 RMK WHT=

0000058200
631
SAMX44 MMMD 110553
METAR MMCE 110546Z 36008KT 6SM SKC 24/22 A2992 RMK SLP132 57001 9//=
METAR MMCP 110541Z 00000KT 6SM  SKC 22/21 A2994 RMK HZY=
METAR MMCZ 110540Z 00000KT 7SM  FEW015 19/19 A3000 
      RMK SLP152 57018 966 8/100=
METAR MMMD 110546Z 11006KT 7SM  SKC 21/21 A2997 RMK SLP150 51008 981=
METAR MMTG 110549Z 00000KT 12SM  SKC 18/15 A2997 RMK SLP122 52010
979=
METAR MMTP 110547Z 00000KT 8SM  SCT200 25/22 A2993 
      RMK SLP116 52017 956 8/002=
METAR MMUN 110547Z 14010KT 7SM  SCT015 25/22 A3000 
      RMK SLP144 56011 974 8/100=

0000017300
632
SAVN24 SVMG 110600
METAR SVMG 110600Z /////KT 9999 SCT010 24/22 Q1014 NOSIG=
METAR SVCU 110600Z NIL=
METAR SVCP 110600Z NIL=
METAR SVGI 110600Z NIL=

0000010700
633
SPAU32 YBBN 110536
SPECI YBMA 110536Z AUTO 15018G30KT 5000 // BKN098 BKN115 34/15 Q1008=

0000075400
634
SACI31 ZBBB 110530
METAR ZBAA 110530Z 31002MPS 240V010 CAVOK 04/M24 Q1028 NOSIG=
ZBSJ NIL=
METAR ZBTJ 110530Z 23002MPS 190V250 1000 R16R/0900N HZ NSC
01/M07
Q1029 NOSIG=
METAR ZBYN 110530Z 21004MPS 3500 HZ NSC 02/M21 Q1026 NOSIG=
METAR ZGGG 110530Z VRB01MPS 5000 HZ NSC 21/10 Q1022 NOSIG=
METAR ZSHC 110530Z 09002MPS 070V130 2500 -RA BR SCT006
BKN020
06/04 Q1029 NOSIG=
METAR ZSPD 110530Z 05006MPS 9999 -RA NSC 07/02 Q1030 NOSIG=
METAR ZSSS 110530Z 10004MPS 9999 -RA BKN020 07/02 Q1029 NOSIG=
ZWSH NIL=
METAR ZWWW 110530Z 27002MPS 240V330 0700 R25/0750N FZFG
FEW011
M19/M21 Q1036 NOSIG=
METAR ZYTL 110530Z 29007MPS 4000 HZ NSC 04/M07 Q1029 NOSIG=
METAR ZYTX 110530Z 22004MPS CAVOK M00/M18 Q1027 NOSIG=

00000000