0000053900
555
FCAP32 FAPR 110600 RRA
TAF FALM 110600Z 1107/1112 NIL=
TAF FAPM 110600Z 1107/1118 11005KT 9999 BKN015 OVC035
    TEMPO 1115/1118 5000 SHRA BKN012 TX24/1112ZTN17/1118Z=
TAF FARB 110600Z 1107/1118 20015KT 9999 SCT045
    BECMG 1112/1114 12010KT BKN025
    TEMPO 1115/1118 5000 SHRA BKN015 TX28/1112ZTN24/1118Z=
TAF FAWB 110600Z 1107/1118 06008KT CAVOK
         BECMG 1109/1111 36007KT SCT040
         PROB30 TEMPO 1112/1118 -TSRA FEW035CB
         BECMG 1116/1118 06006KT
         TX33/1112ZTN26/1107Z=

0000013200
556
SAXX69 EGRR 110700
METAR EQBH 110650Z 14006KT 9999 FEW200 05/M01 Q1029 BLU NOSIG RMK A3039
      PA2501 DA1929=

0000022600
557
SANO37 ENMI 110650 RRA
METAR ENOV 110650Z VRB01KT CAVOK M08/M09 Q0998 RMK WIND 2175FT
           VRB01KT=
METAR ENSG 110650Z 07002KT 0800 SHSN BR VV003 M03/M03 Q0993 RMK WIND
           4226FT 26015KT=

0000009200
558
SAMX31 KWBC 110645 RRF
METAR
MMMY 110640Z 29006KT 10SM SKC 12/11 A2997=

0000037200
559
FTUS31 KWBC 110700 AAA
TAF AMD
KTEB 110658Z 1107/1206 VRB03KT 3SM -SHRA BR OVC003
      TEMPO 1107/1109 1/2SM -SHRA FG VV002
     FM110900 VRB05KT 1/2SM -RA FG OVC004 WS020/19050KT
     FM111400 17009KT 1SM -RA BR OVC004 WS015/19050KT
     FM111800 18015G21KT 1SM +RA BR OVC004 WS015/19050KT
     FM120300 23010KT 3SM -SHRA BR SCT007 OVC030=

0000065500
560
FTUS71 KWBC 110700 AAA
TAF AMD
KGSP 110657Z 1107/1206 05005KT 3SM -SHRA BR OVC004
     FM111100 18007KT 1SM SHRA BR OVC003 WS020/21035KT
     FM111600 20012G19KT 2SM SHRA BR VCTS OVC004CB
     FM111900 22013G22KT 4SM -SHRA BR OVC020
     FM112100 24010KT P6SM BKN040
     FM112300 26010KT P6SM SCT050=
KTEB 110658Z 1107/1206 VRB03KT 3SM -SHRA BR OVC003
      TEMPO 1107/1109 1/2SM -SHRA FG VV002
     FM110900 VRB05KT 1/2SM -RA FG OVC004 WS020/19050KT
     FM111400 17009KT 1SM -RA BR OVC004 WS015/19050KT
     FM111800 18015G21KT 1SM +RA BR OVC004 WS015/19050KT
     FM120300 23010KT 3SM -SHRA BR SCT007 OVC030=

0000033200
561
FTUS41 KWBC 110700 AAA
TAF AMD
KGSP 110657Z 1107/1206 05005KT 3SM -SHRA BR OVC004
     FM111100 18007KT 1SM SHRA BR OVC003 WS020/21035KT
     FM111600 20012G19KT 2SM SHRA BR VCTS OVC004CB
     FM111900 22013G22KT 4SM -SHRA BR OVC020
     FM112100 24010KT P6SM BKN040
     FM112300 26010KT P6SM SCT050=

0000026200
562
FTUS73 KWBC 110700 AAA
TAF AMD
KAXN 110657Z 1107/1206 27007KT 6SM BR SCT015
     FM110930 28008KT P6SM BKN015
     FM111500 31010KT P6SM SCT020 BKN040
     FM111800 29009KT P6SM SCT040 SCT250
     FM120000 23006KT P6SM SCT020 BKN100=

0000057300
563
SAPR82 SPIM 110700
METAR SPHI 110700Z 17009KT CAVOK 22/21 Q1011 RMK PP000=
METAR SPIM 110700Z 16010KT CAVOK 22/19 Q1010 NOSIG RMK BKN170 PP000=
METAR SPQT 110700Z 00000KT 8000 FEW010 SCT100 24/23 Q1009
NOSIG RMK PP000=
METAR SPQU 110700Z VRB01KT 7000 SCT040 11/10 Q1023 RMK PP000=
METAR SPRU 110700Z 14005KT 8000 FEW005 20/19 Q1010 RMK BR PP000=
METAR SPSO 110700Z /////KT 9999 FEW100 21/19 Q1010 RMK PP000=
METAR SPTN 110700Z VRB01KT 9999 SCT050 20/16 Q1009 RMK PP000=
METAR SPZO 110700Z 08003KT 9999 SCT043 BKN070 09/07 Q1029 RMK PP000=

0000019400
564
SAPR76 SPIM 110700
METAR SPCL 110700Z 01004KT 320V030 9999 SCT015 BKN060 25/24 Q1010
RMK PP000=
METAR SPJL 110700Z NIL=
METAR SPME 110700Z NIL=
METAR SPST 110700Z NIL=

0000023000
565
SAEQ01 SEQU 110700
METAR SEQM 110700Z 00000KT 9999 VCFG SCT013 BKN020 13/12 Q1024 RMK 
    A3026 NOSIG=
METAR SEGU 110700Z 22006KT 9999 FEW012 BKN026 25/20 Q1009 RMK 
A2982 NOSIG=
METAR SEMT 110700Z NIL=

0000010500
566
SAEQ01 SEQU 110700 RRA
METAR SELT 110700Z 12002KT 3000 BCFG FEW005 BKN020 11/11 Q1028=

0000011900
567
SADL34 EDZO 110650 RRA
METAR EDNY 110650Z AUTO 00000KT 0400 0350/ R24/1200D FG BKN001 01/00
Q1018=

0000020400
568
SAMX31 KWBC 110645 RRE
METAR
MMGL 110653Z 02002KT 10SM BKN030 12/06 A3020 RMK 8/500=
MMMZ 110642Z 32007KT 10SM SKC 12/08 A2996=
MMPR 110646Z 00000KT 10SM SKC 18/16 A2996 RMK AC/S=

0000021200
569
FCFA31 EKCH 110600 RRA
TAF EKVG 110700Z 1107/1115 28020G30KT 9999 BKN015 TEMPO 1107/1110 
28028G40KT 4000 SHRAGS BKN012CB TEMPO 1110/1113 28028G40KT FEW015CB 
TEMPO 1113/1115 SHRA SCT015CB=

0000009100
570
SACS31 MROC 110700
METAR
MROC 110700Z 11011KT CAVOK 20/13 A2999 NOSIG=

0000037000
571
FTUS80 KWBC 110657 AAA
TAF AMD
KGON 110655Z 1107/1206 VRB04KT 1SM BR OVC003
      TEMPO 1107/1109 1/4SM -RA FG VV002
     FM110900 15005KT 1/2SM -RA FG OVC003 WS020/19050KT
     FM111400 17011KT 3/4SM -RA BR OVC004 WS015/19050KT
     FM111900 18020G30KT 1/2SM RA FG OVC004 WS015/19060KT
     FM120500 23012G18KT 3SM -SHRA BR SCT007 OVC030=

0000010600
572
SAPR01 SPIM 110700
METAR SPIM 110700Z 16010KT CAVOK 22/19 Q1010 NOSIG RMK BKN170 PP000=

0000008900
573
SABZ21 SBFZ 110700
METAR SBFZ 110700Z 10012KT 9999 SCT020 26/20 Q1010=

0000015000
574
SAZS31 NSTU 110654
METAR NSTU 110654Z 01008KT 10SM SCT017TCU SCT045 OVC100 27/24 A2973
RMK SHRAB05E20 TCU ALQDS SLP069 T02730243=

00000000