0000033100
875
FCFI31 EFHK 110800
TAF EFHA 110840Z NIL=
TAF EFHF 110828Z 1109/1115 36006KT 9999 BKN009 TEMPO 1109/1115
     BKN012=
TAF EFKA 110840Z NIL=
TAF EFKK 110840Z NIL=
TAF EFMA 110828Z 1109/1118 33003KT 9999 BKN030 PROB40 TEMPO
     1109/1112 5000 -SN BKN009=
TAF EFPO 110840Z NIL=
TAF EFSI 110840Z NIL=

0000017900
876
FCFI32 EFHK 110800
TAF EFJO 110840Z NIL=
TAF EFLP 110840Z NIL=
TAF EFMI 110840Z NIL=
TAF EFSA 110840Z NIL=
TAF EFUT 110840Z NIL=
TAF EFVR 110840Z NIL=

0000031400
877
FCFI33 EFHK 110800
TAF EFET 110840Z NIL=
TAF EFIV 110822Z 1109/1112 24005KT 9999 BKN008 TEMPO 1109/1112
     2500 -SG OVC003=
TAF EFKE 110840Z NIL=
TAF EFKI 110822Z 1109/1115 04010KT 9999 -SN BKN020=
TAF EFKS 110822Z 1109/1118 04008KT CAVOK=
TAF EFKT 110822Z 1109/1118 36003KT CAVOK=

0000092200
878
FTFI31 EFHK 110800
TAF EFHK 110828Z 1109/1209 36006KT 9999 BKN008 TEMPO 1109/1209
     BKN012 PROB40 TEMPO 1114/1209 BKN015 PROB40 TEMPO
     1114/1118 4000 -SN=
TAF EFJY 110828Z 1109/1209 02008KT 9999 OVC015 TEMPO 1109/1209
     4500 -SN BKN012=
TAF EFKU 110822Z 1109/1209 01010KT 9999 -SN BKN023 TEMPO
     1109/1114 6000=
TAF EFOU 110822Z 1109/1209 06010KT CAVOK TEMPO 1109/1115 IC=
TAF EFRO 110822Z 1109/1209 02013KT CAVOK=
TAF EFTP 110827Z 1109/1209 04006KT 9999 BKN009 TEMPO 1109/1111
     BKN012 TEMPO 1111/1120 2500 -SN SCT010 BKN015
     PROB40 1200/1209 3000 -SN=
TAF EFTU 110828Z 1109/1209 VRB02KT 9999 BKN012 TEMPO 1109/1112
     2000 SN BKN007 TEMPO 1112/1114 2000 SN BKN015
     BECMG 1114/1116 BKN015=
TAF EFVA 110827Z 1109/1209 03009KT 7000 -SN SCT012 BKN025
     TEMPO 1109/1201 2000 BKN012 BECMG 1201/1203 9999
     PROB40 TEMPO 1203/1209 5000 BKN009=

0000249100
879
SPUS70 KWBC 110840
SPECI
KJMS 110837Z AUTO 32017KT 10SM OVC010 M03/M05 A2953 RMK AO2
     T10331050=
KMEB 110836Z AUTO 20006KT 3SM BR OVC003 16/16 A3000 RMK AO2
     T01560156=
KAEX 110836Z 22004KT 10SM SCT017 18/17 A2981 RMK AO2 $=
KALO 110836Z 28009KT 6SM BR OVC009 M01/M02 A2950 RMK AO2 CIG
     007V011 T10061017=
KARA 110836Z AUTO 24008KT 3/4SM VCTS -RA BR VV002 19/18 A2986 RMK
     AO2 LTG DSNT SW-N TSB23RAE13B33 P0001 $=
KBTL 110836Z 20012KT 1/4SM FG VV002 04/04 A2949 RMK AO2
     T00440039=
KCMX 110836Z AUTO 00000KT 1SM -SN BR FEW012 OVC019 M03/M04 A2937
     RMK AO2 P0002=
KDPA 110836Z 19007KT 3/4SM BR VV002 03/02 A2943 RMK AO2 RAE32
     P0000 RVRNO=
KFLD 110836Z AUTO 25006KT 6SM BR OVC005 02/01 A2939 RMK AO2 CIG
     002V008 T00170006=
KHKS 110836Z AUTO 26013G23KT 6SM RA BR SCT016 BKN050 OVC100 19/17
     A2978 RMK AO2 P0015=
KSMQ 110836Z AUTO 00000KT 2SM -RA BR OVC005 02/01 A3004 RMK AO2
     RAB22 P0000 T00170011 TSNO=
KTVR 110836Z AUTO 27007KT 10SM SCT019 18/17 A2980 RMK AO2
     T01780167 TSNO=
PANW 110833Z AUTO 03003KT 2SM BR OVC001 M09/M09 A2938 RMK AO2 TSNO
     $=
KAHN 110837Z AUTO 09007KT 1SM +TSRA BR BKN008 OVC100 07/07 A2991
     RMK AO2 LTG DSNT N AND NE AND SW TSB02 P0027=
KANB 110837Z AUTO 21009G22KT 10SM FEW017 SCT046 BKN060 17/15 A2981
     RMK AO2 T01720150=
KBAF 110837Z 00000KT 2SM BR OVC004 01/M01 A3013 RMK AO2 RAE37
     P0001 I1001 T00061006=
KBDE 110837Z AUTO 30004KT 6SM BR FEW014 BKN027 OVC032 M03/M04
     A2941 RMK AO2 SNE33 P0000 T10331044 TSNO=
KHKY 110837Z AUTO 00000KT 1 1/2SM -RA BR SCT002 OVC006 06/05 A2995
     RMK AO2 RAB0754E17B36 PRESFR P0000=
KMDH 110838Z AUTO 24008KT 10SM OVC009 09/08 A2959 RMK AO2 CIG
     007V012 T00940078=
KOKB 110837Z AUTO 00000KT 1/2SM FG VV009 05/04 A3010 RMK AO2 TSNO
     $=
KORD 110837Z 21008KT 5SM -RA BR OVC005 04/02 A2942 RMK AO2
     DZE09RAB09 P0005 T00390022 $=
KORE 110837Z AUTO 00000KT 1 1/4SM UP BR OVC004 00/M01 A3013 RMK
     AO2 P0001 T00001006=
KPGD 110837Z AUTO 14010KT 4SM BR BKN003 22/21 A3007 RMK AO2
     T02170211=
KRHI 110838Z AUTO 00000KT 1 1/4SM -SN BR OVC015 M04/M05 A2936 RMK
     AO2 P0004 T10391050=
KRME 110837Z AUTO 12006KT 8SM SCT018 SCT023 OVC033 02/00 A2994 RMK
     AO2 RAE21 P0000 T00170000=
KRST 110837Z AUTO 29011KT 2 1/2SM BR OVC003 M02/M03 A2945 RMK AO2
     I1001 T10171028=
KRUE 110837Z AUTO 00000KT 4SM BR CLR 01/01 A2975 RMK AO2=

0000010100
880
SPSP35 LEMM 110840
SPECI LEBZ 110840Z 00000KT 0300 R31/0225N FG VV001 05/05 Q1018=

0000010200
881
SAFR32 LFPW 110830 RRA
METAR LFCK 110830Z AUTO 26002KT 8000 -RA OVC024 08/07 Q1021=

0000009400
882
SPUS43 KWBC 110840
SPECI
KBTL 110836Z 20012KT 1/4SM FG VV002 04/04 A2949=

0000011100
883
SPUS43 KWBC 110840
SPECI
KCMX 110836Z AUTO 00000KT 1SM -SN BR FEW012 OVC019 M03/M04 A2937=

0000008700
884
SAUK36 EGGY 110820 RRB
METAR EGBE 110820Z VRB03KT CAVOK 02/01 Q1016=

0000009700
885
SPCN46 CWAO 110840
SPECI CYBN 110840Z AUTO 16008KT 3SM -RA OVC004 02/02 A2960=

0000009900
886
FCOS43 LOWM 110800
TAF LOXZ 110815Z 1109/1118 VRB03KT 9999 FEW080 SCT160 BKN300=

0000009700
887
SPUS31 KWBC 110841
SPECI
KORD 110837Z 21008KT 5SM -RA BR OVC005 04/02 A2942=

0000009400
888
SPUS41 KWBC 110841
SPECI
KBAF 110837Z 00000KT 2SM BR OVC004 01/M01 A3013=

0000011600
889
SPUS43 KWBC 110841
SPECI
KBDE 110837Z AUTO 30004KT 6SM BR FEW014 BKN027 OVC032 M03/M04
A2941=

0000018900
890
FTUS72 KWBC 110842 AAA
TAF AMD
KTYR 110841Z 1109/1206 31005KT P6SM SKC
      TEMPO 1109/1111 5SM BR
     FM111600 30012KT P6SM SKC
     FM112300 28004KT P6SM SKC=

0000011800
891
SPUS41 KWBC 110842
SPECI
KGON 110838Z AUTO 14006KT 3SM -RA BR SCT003 BKN019 OVC035 07/07
A3016=

0000009400
892
SPUS42 KWBC 110842
SPECI
KBRO 110838Z 22005KT 3/4SM BR VV002 19/18 A2993=

0000009500
893
SABZ43 KWBC 110800 RRC
METAR
SBBQ 110800Z 07004KT 9999 SCT020 19/18 Q1022=

0000009500
894
SACA33 KWBC 110800 RRE
METAR
TGPY 110800Z 09005KT 9999 FEW018 23/22 Q1014=

00000000