0000045200
435
SAAO34 GOOY 110900
METAR GBYD 110900Z 03004KT CAVOK 18/13 Q1014=
METAR GFLL 110900Z NIL=
METAR GLRB 110900Z 00000KT 9000 BKN013  25/24 Q1012 NOSIG
RMK BRVC=
METAR GVAC 110900Z 04004KT 9999 SCT014 SCT200 19/13 Q1016 NOSIG=
METAR GVBA 110900Z 06004KT 9999 FEW013 BKN015 20/15 Q1016 NOSIG=
METAR GVNP 110900Z /////KT 9999 BKN029  20/13 Q//// NOSIG=
METAR GVSV 110900Z 07008KT 9999 FEW020 SCT023 BKN200 21/15 Q1017
NOSIG=

0000019800
436
SAIN31 EGGY 110900
METAR VOBL 110900Z VRB05KT CAVOK 31/13 Q1016 NOSIG=
METAR VOCB 110900Z NIL=
METAR VOCI 110900Z NIL=
METAR VOCL 110900Z 28006KT 8000 FEW015 32/22 Q1010 NOSIG=
0000011700
437
SAMS33 WMKK 110900 RRA
METAR WMAU 110900Z 35010KT 8000 FEW020 SCT024 BKN260 27/24 Q////
QFF1009=

0000012700
438
SACZ41 LKPW 110900
METAR LKKU 110900Z 18005KT CAVOK 03/M00 Q1020 RMK REG QNH 1013=
METAR LKVO 110900Z NIL=

0000076800
439
SAEE31 LOWM 110900
METAR UACK 110900Z 20006MPS 9999 DRSN NSC M07/M10 Q1019
R20/490539 NOSIG RMK QFE740/0987=
METAR UACP 110900Z 18005MPS 8000 -SN SCT033 OVC100 M06/M07
Q1018 R23/4/3537 NOSIG RMK QFE751/1002=
METAR UAII 110900Z VRB01MPS CAVOK 08/M10 Q1022 R10/0///70
NOSIG RMK QFE731/0975=
METAR UADD 110900Z 18002MPS 9999 NSC 04/M07 Q1021 R13/0///65
NOSIG RMK QFE709/0945=
METAR UASK 110900Z 14004MPS 9999 BKN240 M02/M12 Q1032
R12/820350 NOSIG RMK QFE748/0998=
METAR UASP 110900Z 16004MPS CAVOK M10/M14 Q1028 R21/450155
NOSIG RMK QFE760/1013=
METAR UAOO 110900Z 23006MPS 5000 BR BKN330 00/M04 Q1020
R24/CLRD70 NOSIG RMK QFE753/1004=
METAR UAKD 110900Z 13005MPS 7000 OVC100 M07/M10
Q1020 R2289//45 NOSIG RMK QFE730/0974=

0000012100
440
SPCN43 CWAO 110906
SPECI CWHN 110906Z AUTO 25004KT 210V270 9SM OVC002 M08/M09 A2949 RMK
ICG PAST HR=

0000078700
441
SAMS33 WMKK 110900
METAR WMAU 110900Z NIL=
METAR WMBA 110900Z 28003KT 9999 FEW020 SCT150 BKN260 29/25 Q1009=
METAR WMKA 110900Z 06007KT 350V120 9999 FEW020 BKN140 28/21 Q1010=
METAR WMKB 110900Z 07010KT 9000 FEW020 BKN140 BKN270 27/24 Q1009
TEMPO 7000 RA=
METAR WMKC 110900Z 08010KT 050V110 6000 -RA FEW008 SCT020 OVC200
26/23 Q1011=
METAR WMKD 110900Z 01005KT 9999 FEW012 BKN160 25/22 Q1010 NOSIG=
METAR WMKE 110900Z 33006KT 9999 FEW012 SCT018 BKN220 25/24 Q1010=
METAR WMKI 110900Z 02005KT 9999 FEW020 BKN140 BKN280 28/24 Q1009=
METAR WMKL 110900Z 05008KT 9999 FEW022 BKN140 BKN270 30/21 Q1009=
METAR WMKM 110900Z 03009KT 330V060 9999 FEW017CB SCT150 BKN280 29/24
Q1008=
METAR WMKN 110900Z 04002KT 9999 -RA FEW010 SCT022 OVC190 26/24 Q1010=

0000055900
442
SAMS34 WMKK 110900
METAR WBGB 110900Z 31006KT 9999 -RA BKN014 BKN150 26/24 Q1009=
METAR WBGR 110900Z 34003KT 9999 SCT014 BKN150 27/23 Q1009=
METAR WBGS 110900Z 02008KT 9999 SCT018 BKN150 29/23 Q1008=
METAR WBGY 110900Z 33005KT 9999 FEW015CB SCT020 BKN300 29/24 Q1008=
METAR WBKL 110900Z 05009KT 9999 -RA FEW008 BKN140 BKN280 28/25 Q1009=
METAR WBKS 110900Z 03008KT 350V080 7000 -RA FEW010 SCT014 FEW016CB
OVC260 28/25 Q1009=
METAR WBKT 110900Z 06005KT 010V120 9000 FEW008 SCT013 BKN140 28/24
Q1010=
METAR WBKW 110900Z NIL=

0000017900
443
SAAF18 LFPW 110900 RRA
METAR FMEE 110900Z 09023KT 9999 FEW028 BKN260 31/21 Q1014 NOSIG=
METAR FMMI 110900Z VRB04KT 9999  SCTT020CB  BKN023 28/23 1021
NOSIG=

0000021200
444
SAAF20 LFPW 110900 RRA
METAR FABL 110900Z 27003G14KT CAVOK 28/07 Q1020 NOSIG=
METAR FAEL 110900Z 18010KT 9999 FEW030 22/13 Q1018=
METAR FAGG 110900Z 17007KT 140V200 9999 BKN020 18/13 Q1018=

0000022100
445
SAAF21 LFPW 110900 RRA
METAR FAMM 110900Z 31005KT 9999 FEW040 33/06 Q1019 NOSIG=
METAR FAPE 110900Z 22013KT 180V250 9999 FEW017 23/13 Q1018 NOSIG=
METAR FAUP 110900Z 18004KT CAVOK 29/02 Q1017 NOSIG=

0000058700
446
SATH33 VTBB 110900
METAR VTBO 110900Z 06006KT 9999 FEW030 SCT200 33/21 Q1011=
METAR VTUD 110900Z 06005KT 350V120 9999 29/12 Q1015
A2997 INFO K RWY30=
METAR VTUI 110900Z NIL=
METAR VTUK 110900Z VRB04KT 9999 FEW025 30/16 Q1014 A2995
RWY03 INFO K=
METAR VTUL 110900Z NIL=
METAR VTUO 110900Z NIL=
METAR VTUQ 110900Z NIL=
METAR  VTUU 110900Z 03003KT 9999 FEW023 SCT300 31/17 Q1012 A2990
NOSIG=
METAR VTUV 110900Z 00000KT 9999 SCT022 30/14 Q1013 A2992   
      INFO J RWY 36=
METAR VTUW 110900Z 10009KT 9999 FEW028 29/13 Q1014 A2995
RWY15 INFO I=

0000010200
447
SACA32 KWBC 110900 RRA
METAR
MDPP 110900Z 00000KT 9999 FEW016 SCT070 22/21 Q1018=

0000029100
448
SAIO31 KWBC 110900 RRA
METAR
FMCZ 110900Z 09006KT 050V120 9999 SCT022 BKN300 31/24 Q1012
     NOSIG=
FMEE 110900Z 09023KT 9999 FEW028 BKN260 31/21 Q1014 NOSIG=
FSIA 110900Z 06009KT 5000 -SHRA FEW010 FEW014CB BKN016 BKN080
     28/25 Q1011 PROB40 TEMPO 3000 SHRA=

0000010700
449
SANT31 KWBC 110900 RRA
METAR
LPBJ 110900Z VRB02KT 8000 3000NW BCFG FEW002 06/05 Q1018=

0000041000
450
SAAL40 DAMM 110900
METAR DAAG 110900Z 20005KT 170V240 CAVOK 17/11 Q1020=
METAR DAAT 110900Z 08008KT CAVOK 16/M02 Q1025=
METAR DABB 110900Z 23005KT CAVOK 12/08 Q1018=
METAR DABC 110900Z 00000KT CAVOK 09/04 Q1021=
METAR DABS 110900Z 14004KT CAVOK 07/01 Q1021=
METAR DAON 110900Z NIL=
METAR DAOO 110900Z NIL=
METAR DAUH 110900Z 00000KT CAVOK 13/07 Q1022=
METAR DAUZ 110900Z NIL=

0000008700
451
SAEA20 HKNC 110800 RRH
METAR HKEM 110800Z 02004KT 9999 FEW021 23/14=

0000042300
452
SATH31 VTBB 110900
METAR VTCH 110900Z NIL=
METAR VTCL 110900Z VRB03KT 9000 SCT025 30/16 Q1014 A2996 NOSIG
INFO: I=
METAR VTCN 110900Z VRB01KT CAVOK 31/09 Q1014 A2995
RMK/RWY02 INFO F=
METAR VTCP 110900Z NIL=
METAR VTCT 110900Z 12003KT 9999 FEW025 27/16 Q1015 A2999  
RMK/RWY03 INFO J=
METAR VTPH 110900Z NIL=
METAR VTPO 110900Z NIL=
METAR VTPP 110900Z 23007KT 7000 FEW030 30/16 Q1013=

0000092100
453
SARA34 RUMS 110900
METAR UNAA 110900Z 21004MPS CAVOK M03/M07 Q1031 NOSIG RMK QFE751
20090040=
METAR UNBB 110900Z 18003MPS 9999 SCT033 BKN100 M06/M09 Q1031 NOSIG
RMK QFE751/1001 24452045=
METAR UNEE 110900Z 17004MPS 4100 -SHSN OVC012CB M08/M10 Q1030 NOSIG
RMK QFE749 23452045=
METAR UNKL 110900Z 24004G07MPS 9999 SCT040CB BKN083 M04/M10 Q1028
NOSIG RMK QFE745 29////55=
METAR UNNT 110900Z 20004MPS 5000 -SN BKN030 OVC083 M06/M09 Q1030
25490142 16490150 NOSIG RMK QFE762/1017=
METAR UNOO 110900Z 17005G08MPS 4500 BR SCT033CB BKN066 M09/M11 Q1022
07390137 NOSIG RMK QFE758=
METAR UNTT 110900Z 21005MPS 9999 SCT020 OVC100 M07/M09 Q1028 NOSIG
RMK QFE756 21390130=
METAR USTR 110900Z 17003MPS 9999 OVC016 M06/M08 Q1013 NOSIG RMK
QFE750/1001 21350055 12750029=
METAR USHH 110900Z 04004MPS 2700 -SN BKN004 OVC080 M17/M20 Q1015
TEMPO 0600 +SN OVC002 RMK QBB140 QFE758 06////40=

0000126700
454
SAAL41 DAMM 110900
METAR DAAD 110900Z 00000KT CAVOK 07/06 Q1023=
METAR DAAE 110900Z 26012KT CAVOK 16/06 Q1019=
METAR DAAJ 110900Z NIL=
METAR DAAP 110900Z NIL=
METAR DAAS 110900Z 26006KT 9999 FEW030 BKN233 09/04 Q1023=
METAR DAAV 110900Z NIL=
METAR DAAY 110900Z 00000KT 8000 SCT030 BKN100 08/05 Q1022=
METAR DABT 110900Z NIL=
METAR DAEF 110900Z NIL=
METAR DAEN 110900Z 00000KT CAVOK 13/04 Q1021=
METAR DAFH 110900Z 08006KT 9999 SCT026TCU BKN030 08/07 Q1022=
METAR DAOB 110900Z NIL=
METAR DAOF 110900Z 35010KT CAVOK 11/03 Q1017=
METAR DAOI 110900Z 06006KT 9000 -RA FEW040 BKN100 13/07 Q1020=
METAR DAOL 110900Z NIL=
METAR DAOR 110900Z 09014KT 5000  BKN033 SCT100 12/07 Q1018=
METAR DAOV 110900Z NIL=
METAR DATG 110900Z NIL=
METAR DATM 110900Z 11011KT CAVOK 17/M01 Q1021=
METAR DAUA 110900Z 15020KT 6000 DRSA BKN046 SCT150 17/M04 Q1017=
METAR DAUB 110900Z /////KT 9999 FEW040 BKN100 12/06 Q1021=
METAR DAUE 110900Z NIL=
METAR DAUG 110900Z 00000KT 9999 SCT046 SCT100 11/06 Q1023=
METAR DAUI 110900Z NIL=
METAR DAUK 110900Z 00000KT 9999 SCT040 SCT100 09/08 Q1023=
METAR DAUL 110900Z 03008KT 9000 FEW030TCU BKN033 08/07 Q1022=
METAR DAUO 110900Z NIL=
METAR DAUT 110900Z NIL=
METAR DAUU 110900Z NIL=

00000000