0000010300
115
SPCN43 CWAO 110802
SPECI CWHN 110802Z AUTO 26008KT 9SM OVC002 M09/M10 A2949 RMK ICG=

0000023000
116
SALJ31 LJLJ 110800
METAR LJLJ 110800Z 31002KT 9999 MIFG FEW030 SCT040 05/05 Q1021 NOSIG=
METAR LJMB 110800Z VRB01KT 0600 R32/0800N FG VV002 03/03 Q1021=
METAR LJPZ 110800Z 00000KT 2000 BR OVC050 09/09 Q1023=

0000009900
117
SALJ32 LJLJ 110800
METAR LJCE 110800Z VRB02KT 0400 FG VV001 03/02 Q1021 RMK RED=

0000027500
118
SAFR21 LFPW 110800
METAR LFOA 110800Z AUTO 00000KT 8000 OVC018 07/06 Q1018=
METAR LFPC 110800Z AUTO 24002KT 1800 BR FEW002 SCT092 BKN110 04/04
Q1017=
METAR LFPV 110800Z AUTO 24002KT 0300 0250 R27/0800U R09/0800N FG
FEW001 BKN088 BKN150 05/04 Q1017=

0000034200
119
SARO31 LROM 110800
METAR LRBS 110800Z VRB02KT CAVOK 03/M01 Q1023 NOSIG=
METAR LRCK 110800Z 27008KT 5000 BR NSC 03/02 Q1022 NOSIG=
METAR LROP 110800Z 23003KT 210V270 CAVOK 02/M02 Q1022 8819//95
NOSIG=
METAR LRSB 110800Z VRB02KT 9999 FEW059 02/M02 Q1023=
METAR LRTR 110800Z 11006KT 4000 FEW046 03/03 Q1023 11190095=

0000051400
120
SAFR22 LFPW 110800
METAR LFBC 110800Z AUTO 20003KT 160V220 9999 FEW024 OVC030 10/09
Q1019=
METAR LFBG 110800Z AUTO VRB01KT 2800 BR OVC003 09/08 Q1019=
METAR LFBM 110800Z AUTO 00000KT 6000 FEW019 OVC028 09/09 Q1019=
METAR LFBY 110800Z AUTO 19004KT 6000 // ////// 09/08 Q1019=
METAR LFKS 110800Z AUTO VRB03KT 9999 OVC033 12/08 Q1022=
METAR LFMO 110800Z AUTO VRB01KT 5000 BR OVC030 08/07 Q1021=
METAR LFMY 110800Z AUTO 00000KT 9999 BKN033 OVC043 10/07 Q1021=
METAR LFMC 110800Z NIL=

0000037900
121
SARO32 LROM 110800
METAR LRAR 110800Z 17004KT 8000 BKN045 04/04 Q1023=
METAR LRBM 110800Z VRB02KT 9000 SCT030 02/02 Q1023 1019//95=
METAR LRCL 110800Z VRB02KT 9999 BKN055 00/M01 Q1022=
METAR LROD 110800Z 19012KT CAVOK 05/02 Q1023=
METAR LRSM 110800Z 11002KT CAVOK M00/M01 Q1022 0119//95=
METAR LRTM 110800Z VRB02KT 4300 MIFG NSC 00/00 Q1023 0719//95=

0000011600
122
SACN62 CYXJ 110800
METAR CYXJ 110800Z 17008KT 15SM BKN140 M05/M10 A2925 RMK AC6 PRESFR
 SLP951=

0000038200
123
SAFR23 LFPW 110800
METAR LFOC 110800Z AUTO 00000KT 0300 R28/1300D FG VV/// 05/05 Q1017=
METAR LFOE 110800Z AUTO VRB03KT 0250 R22/0700N FG VV/// 05/05 Q1018=
METAR LFOJ 110800Z AUTO 00000KT 1100 R25///// BR VV/// 05/05 Q1017=
METAR LFRJ 110800Z AUTO 02004KT 9999 FEW032 SCT058 06/05 Q1019=
METAR LFRL 110800Z AUTO 03006KT 9999 // SCT026 OVC040 08/06 Q1019=

0000015400
124
SACN61 CYXS 110800
METAR CYXS 110800Z AUTO 07007KT 3/4SM R15/P6000FT/U -SN VV008 M03/M03
 A2918 RMK PRESFR PCPN 1.8MM PAST HR SLP913=

0000032200
125
SARO33 LROM 110800
METAR LRBC 110800Z 29004KT 260V350 CAVOK 08/02 Q1020 1619//95=
METAR LRCV 110800Z 25008KT CAVOK 05/01 Q1023=
METAR LRIA 110800Z 30004KT 250V320 CAVOK 05/M01 Q1020 1519//95=
METAR LRSV 110800Z 25004KT 200V260 CAVOK 04/M02 Q1018=
METAR LRTC 110800Z VRB02KT 6000 NSC 05/02 Q1022=

0000029000
126
SAFR24 LFPW 110800
METAR LFSI 110800Z AUTO 09002KT 9999 ///TCU 05/04 Q1017=
METAR LFSO 110800Z AUTO VRB02KT 2000 BR FEW001 SCT012 BKN064 02/02
Q1017=
METAR LFSX 110800Z AUTO 10003KT 9999 ///TCU 04/02 Q1018=
METAR LFYR 110800Z AUTO 22002KT 5000 BR NSC 02/02 Q1018=

0000014500
127
SACN62 CYXT 110800
METAR CYXT 110800Z 01020KT 3/4SM -SN BLSN VV004 M00/M01 A2903 RMK SN8
 VIS VRB 1/2-1 /S03/ PRESFR SLP840=

0000012600
128
SACN62 CYYB 110800
METAR CYYB 110800Z 10015G20KT 1SM -RA BR OVC002 00/00 A2961 RMK
 FG4SF4 PRESFR SLP044=

0000010600
129
SACN62 CYYE 110800
METAR CYYE 110800Z 33003KT 15SM BKN080 M19/M22 A2944 RMK AC6 SLP005=

0000012300
130
SACN62 CYXY 110800
METAR CYXY 110800Z 01002KT 12SM -SN FEW017 BKN070 M12/M14 A2915 RMK
 SC2AC5 SLP927=

0000056900
131
SAFR31 LFPW 110800
METAR LFLL 110800Z 19012KT 9999 FEW026 BKN190 10/06 Q1019 NOSIG=
METAR LFMN 110800Z 35009KT 9999 SCT041 BKN190 10/05 Q1021 NOSIG=
METAR COR LFPG 110800Z 19003KT 6000 SCT001 SCT083 BKN100 06/05 Q1017
TEMPO 4000 BR BKN002=
METAR LFPO 110800Z 19003KT 4000 BR FEW003 SCT064 BKN230 05/05
Q1017 TEMPO BKN003=
METAR LFQQ 110800Z 20006KT 3000 BR OVC003 05/04 Q1016 TEMPO 1200 DZ=
METAR LFRB 110800Z 02005KT 9999 SCT031 07/06 Q1019 NOSIG=
METAR LFRS 110800Z 33004KT 290V360 3500 BR BKN005 BKN023 08/07
Q1019 TEMPO 0800 FG=

0000081000
132
SAFR32 LFPW 110800
METAR LFBD 110800Z AUTO 22002KT 5000 BR OVC021 09/09 Q1019=
METAR LFBH 110800Z AUTO 35007KT 0450 R27/1600D FG VV/// 09/08 Q1018=
METAR LFBI 110800Z AUTO 19005KT 3800 BR SCT006 OVC029 08/07 Q1018=
METAR LFBL 110800Z AUTO 19010KT 9999 OVC009 08/06 Q1018=
METAR LFBO 110800Z AUTO VRB02KT 6000 OVC020 09/08 Q1020=
METAR LFBP 110800Z 09003KT 9000 FEW015 SCT035 BKN200 07/06 Q1019
NOSIG=
METAR LFBT 110800Z AUTO 16003KT 6000 FEW011 BKN027 OVC180 07/07
Q1019=
METAR LFBZ 110800Z 16003KT 9999 SCT023 BKN036 11/09 Q1019 NOSIG=
METAR LFLB 110800Z 00000KT 6000 SCT023 BKN180 02/02 Q1020 TEMPO
4000 BR=
METAR LFLX 110800Z 24009KT 9999 OVC015 09/07 Q1018 BECMG OVC010=
METAR LFML 110800Z 09005KT 9999 FEW026 BKN033 12/08 Q1021 NOSIG=
METAR LFCK 110800Z NIL=

0000056900
133
SAFR33 LFPW 110800
METAR LFKB 110800Z 21004KT 9999 SCT033 BKN210 09/07 Q1021 NOSIG=
METAR LFKC 110800Z 17005KT 9999 FEW020 SCT170 07/06 Q1020 NOSIG=
METAR LFKF 110800Z AUTO 07007KT 040V100 9999 FEW023/// BKN031///
OVC180/// 13/10 Q1021=
METAR LFKJ 110800Z 05007KT CAVOK 07/05 Q1020 NOSIG=
METAR LFLC 110800Z VRB01KT CAVOK 07/02 Q1018 NOSIG=
METAR LFMP 110800Z 26004KT 9999 BKN033 BKN150 09/07 Q1020 NOSIG=
METAR LFMV 110800Z AUTO VRB02KT 9999 BKN041 OVC048 10/07 Q1021=
METAR LFSL 110800Z AUTO 15004KT 130V190 9999 OVC020 07/05 Q1019=

0000109000
134
SAFR34 LFPW 110800
METAR LFCR 110800Z AUTO 13002KT 9999 NSC 05/04 Q1019=
METAR LFJL 110800Z AUTO VRB02KT 2800 BR SCT041 BKN062 BKN076 02/01
Q1017=
METAR LFLP 110800Z AUTO 03003KT 9000 OVC017 02/02 Q1020=
METAR LFLS 110800Z AUTO 30005KT 9999 BKN018 OVC190 07/05 Q1020=
METAR LFLY 110800Z AUTO 21006KT 9999 NSC 10/05 Q1019=
METAR LFMT 110800Z 03004KT 8000 SCT020 BKN033 10/08 Q1021 NOSIG=
METAR LFMU 110800Z AUTO 03005KT 9999 BKN016 BKN023 OVC037 11/09
Q1020=
METAR LFOB 110800Z AUTO VRB01KT 0100 0050 R30/0375D R12///// UP FG
VV/// 04/03 Q1017=
METAR LFOH 110800Z AUTO 22006KT 2100 BR OVC002 07/06 Q1017=
METAR LFOK 110800Z AUTO 00000KT 8000 -RA NSC 03/03 Q1017=
METAR LFOP 110800Z AUTO VRB03KT 1400 R22/1500U BCFG VV/// 05/05
Q1017=
METAR LFPB 110800Z AUTO VRB02KT 5000 2400 -RA BR FEW004 BKN092
BKN140 05/05 Q1017=
METAR LFQA 110800Z AUTO 00000KT 6000 -RA BKN043 BKN050 OVC062
04/04 Q1017=
METAR LFQB 110800Z AUTO 00000KT 5000 -RA BR NSC 04/04 Q1017=
METAR LFSN 110800Z AUTO 00000KT 4000 -RA BR FEW019 BKN064 OVC076
02/02 Q1017=

00000000