0000011200
655
SACN47 CWAO 110700
METAR CYWA 110700Z AUTO 13008KT 2 1/4SM OVC005 M02/M02 A2987 RMK
SLP124=

0000012200
656
SACN51 CWAO 110700
METAR CWCL 110700Z AUTO 12003KT 5SM BKN000 BKN010 OVC022 M03/M07
A2932 RMK SLP968=

0000011700
657
SACN61 CYAY 110700
METAR CYAY 110700Z AUTO 26011KT 240V310 9SM OVC065 M09/M13 A2994 RMK
 SLP141=

0000010600
658
SACN61 CYBC 110700
METAR CYBC 110700Z AUTO 32002KT 9SM OVC012 M09/M11 A3012 RMK SLP201=

0000011500
659
SACN46 CWAO 110700
METAR CYYU 110700Z 13009KT 15SM OVC012 M02/M03 A2957 RMK SC8 PRESFR
SLP027=

0000012300
660
SACN46 CWAO 110700
METAR CYGQ 110700Z 00000KT 1SM -FZDZ -SN BR OVC005 M02/M02 A2942 RMK
SN2ST6 SLP984=

0000010600
661
SACN43 CWAO 110700
METAR CYQF 110700Z 18006KT 15SM FEW190 M08/M08 A2956 RMK AC0 SLP066=

0000011100
662
SACN31 CWAO 110700
METAR CYJT 110700Z 25017G28KT 15SM BKN025 M03/M06 A3016 RMK SC6
SLP213=

0000011500
663
SACN43 CWAO 110700
METAR CYGX 110700Z 04010KT 1 1/2SM -SN OVC016 M22/M25 A2957 RMK SC8
SLP031=

0000011800
664
SACN44 CWAO 110700
METAR CYOD 110700Z 22002KT 15SM SCT014 BKN110 M10/M11 A2956 RMK
SC4AC2 SLP048=

0000010400
665
SACN51 CWAO 110700
METAR CZCP 110700Z AUTO 28019KT 5SM -SN CLR M32/ A2942 RMK SLP978=

0000008100
666
SACN51 CWAO 110700
METAR CWRX 110700Z AUTO 32011KT M29/ A2941=

0000009600
667
SACN51 CWAO 110700
METAR CWOB 110700Z AUTO 25006KT CLR M20/ A2934 RMK SLP995=

0000009500
668
SACN51 CWAO 110700
METAR CWYK 110700Z AUTO 32020G31KT M24/ A2926 RMK SLP998=

0000011700
669
SACN61 CYDQ 110700
METAR CYDQ 110700Z AUTO 12004KT 020V130 9SM OVC130 M06/M10 A2935 RMK
 SLP973=

0000008400
670
SAAG41 SASA 110700
METAR SASA 110700Z  27004KT CAVOK 22/15 Q1012=

0000008400
671
SAAG41 SADF 110700
METAR SADF 110700Z  16012KT CAVOK 20/11 Q1012=

0000009100
672
SAAG41 SAEZ 110700
METAR SAEZ 110700Z 17013KT 140V200 CAVOK 17/08 Q1013=

0000014100
673
SACN61 CYDN 110700
METAR CYDN 110700Z AUTO 26019G24KT 6SM -SN FEW090 M07/M08 A2949 RMK
 MAX WND 27023KT AT 0647Z SLP006=

0000009400
674
SAFG20 SOCA 110700
METAR SOCA 110700Z AUTO 31003KT 9999 OVC003 22/21 Q1011=

00000000