0000031400
415
FTCN34 CWAO 110700
TAF CYQK 110738Z 1108/1120 21003KT 1/2SM FZFG VV001 TEMPO 1108/1114
     11/2SM -FZDZ -SN BR OVC004
     BECMG 1109/1111 28006KT
    FM111400 30008KT 2SM -SN BR OVC004 TEMPO 1114/1117 6SM BR OVC008
    FM111700 27008KT P6SM SCT006 OVC010
    RMK NXT FCST BY 111400Z=

0000024100
416
FTCN34 CWAO 110700
TAF CYXL 110738Z 1108/1120 15005KT 5SM -SN BR SCT006 OVC030 TEMPO
     1108/1117 2SM -SN BR OVC006 PROB30 1110/1115 1SM -FZDZ BR
    FM111700 30012KT P6SM FEW006 BKN025
    RMK NXT FCST BY 111400Z=

0000030300
417
FTCN34 CWAO 110700
TAF CYHD 110738Z 1108/1120 22005KT 1SM BR OVC003 TEMPO 1108/1116 2SM
     -FZDZ -SN OVC006 PROB30 1110/1115 1/2SM FZFG
    FM111600 28010KT 3SM BR BKN007 OVC015 TEMPO 1116/1120 P6SM NSW
     SCT007 OVC015
    RMK FCST BASED ON AUTO OBS. NXT FCST BY 111400Z=

0000018000
418
FTCN34 CWAO 110700
TAF CYTL 110738Z 1108/1120 08005KT 2SM -SN OVC025 TEMPO 1108/1120 3SM
     -SN OVC030
    RMK FCST BASED ON AUTO OBS. NXT FCST BY 111400Z=

0000023300
419
FTCN34 CWAO 110700
TAF CYQT 110738Z 1108/1120 VRB03KT 11/2SM -SN OVC015 TEMPO 1108/1113
     21/2SM -FZDZ BR OVC010
    FM111300 28006KT P6SM BKN030 TEMPO 1113/1120 5SM -SN OVC020
    RMK NXT FCST BY 111400Z=

0000024400
420
FTCN35 CWAO 110700
TAF CYYU 110738Z 1108/1120 13008KT 2SM -SN BR OVC010 TEMPO 1108/1115
     1/2SM SN VV004
    FM111500 17005KT 3SM -SN BR OVC008 TEMPO 1115/1120 11/2SM -SN BR
     OVC004
    RMK NXT FCST BY 111400Z=

0000028000
421
FTCN35 CWAO 110700
TAF CYYB 110738Z 1108/1120 12012KT 1SM -RA BR OVC002 TEMPO 1108/1112
     1/2SM -RA FG VV001
    FM111200 16012KT 1/4SM -RA FG VV001 TEMPO 1112/1120 1SM -RA BR
     OVC002
     BECMG 1113/1115 21012G22KT
    RMK NXT FCST BY 111400Z=

0000025300
422
FTCN36 CWAO 110700
TAF CYGP 110738Z 1108/1120 VRB03KT P6SM SCT030 TEMPO 1108/1115 BKN030
    FM111500 VRB03KT P6SM BKN020 OVC080 TEMPO 1115/1118 SCT020 BKN080
    FM111800 15007KT 3/4SM -SN -PL VV008
    RMK NXT FCST BY 111400Z=

0000029000
423
FTCN36 CWAO 110700
TAF CYGV 110738Z 1108/1120 27010KT P6SM SCT020 BKN070 TEMPO 1108/1118
     6SM -SN BKN020 OVC070
     BECMG 1113/1115 VRB03KT
    FM111800 13007KT 1SM -SN VV010
     BECMG 1118/1120 10015KT
    RMK FCST BASED ON AUTO OBS. NXT FCST BY 111400Z=

0000163000
424
SPUS70 KWBC 110738
SPECI
KDXR 110734Z AUTO 00000KT 3/4SM BR OVC003 01/00 A3015 RMK AO2
     RAE04 P0000 FZRANO=
KEET 110734Z AUTO 19010G17KT 160V220 10SM OVC007 16/16 A2983 RMK
     AO2 CIG 004V009 T01610156=
KEYW 110734Z AUTO 09003KT 10SM FEW017 BKN025 BKN060 23/22 A3006
     RMK AO2 T02330222=
KFCI 110735Z AUTO 31004KT 1/4SM OVC002 05/00 A3004 RMK AO1=
KFWN 110734Z AUTO 00000KT 1 1/4SM -RA BR OVC005 01/01 A3009 RMK
     AO2 UPE05B14E33RAB05E14B33 P0003 T00060006=
KGVL 110734Z AUTO 10009KT 3SM -RA BR OVC002 08/07 A2993 RMK AO2
     LTG DSNT S-W RAB22 P0004=
KIGX 110734Z AUTO 00000KT 3/4SM BR VV002 07/07 A3002 RMK AO2 RAE03
     P0000 T00720067=
KUUU 110734Z AUTO 17006KT 3SM BR BKN001 BKN031 OVC055 07/07 A3021
     RMK AO2 RAE04 P0000 T00720067=
KNFE 110735Z AUTO 16010KT 1 3/4SM +RA BR FEW005 SCT012 OVC020
     18/16 A3008 RMK AO2 P0030 T01780156=
KBPT 110734Z AUTO 24006KT 6SM BR BKN006 OVC018 19/18 A2985 RMK AO2
     $=
KPAE 110735Z AUTO 16015G22KT 2 1/2SM RA BR FEW029 OVC035 09/08
     A2957 RMK AO2 PRESFR P0005=
KSFB 110735Z AUTO 15003KT 1/2SM FG BKN011 BKN070 19/19 A3007 RMK
     AO2=
KSHN 110735Z AUTO 00000KT 2 1/2SM RA BR BKN008 BKN013 OVC019 08/08
     A2957 RMK AO2 P0009 T00830078 TSNO=
KASH 110735Z AUTO 00000KT 3/4SM UP BR VV002 00/M01 A3022 RMK AO2
     UPB07 P0000=
KSLK 110736Z AUTO 00000KT 1/4SM FZFG SCT002 SCT027 M07/M07 A2994
     RMK AO2=
PAHN 110735Z AUTO 30010KT 10SM OVC015 00/M01 A2924 RMK AO2
     T00001011 TSNO=
PASO 110735Z AUTO 15003KT 1SM -SN BR BKN007 OVC016 M01/M02 A2932
     RMK AO2 P0002 TSNO=

0000012200
425
SPUS41 KWBC 110738
SPECI
KWRI 110734Z AUTO 14006KT 7SM R06/5500FT SCT037 BKN046 OVC075
08/08 A3007=

0000010500
426
SPUS42 KWBC 110738
SPECI
KBPT 110734Z AUTO 24006KT 6SM BR BKN006 OVC018 19/18 A2985=

0000011000
427
SPUS42 KWBC 110738
SPECI
KEYW 110734Z AUTO 09003KT 10SM FEW017 BKN025 BKN060 23/22 A3006=

0000010100
428
SPUS43 KWBC 110738
SPECI
KDLH 110734Z 29009KT 3SM -FZDZ BR OVC004 M03/M05 A2939=

0000009000
429
SAAG41 KWBC 110700 RRB
METAR
SAZN 110700Z 11005KT CAVOK 17/M03 Q1017=

0000022900
430
SAJP31 KWBC 110730 RRA
METAR
RJAA 110730Z 23003KT 9999 FEW030 SCT150 06/M08 Q1023 BECMG
     27005KT=
RJCC 110730Z 30008KT 9999 FEW020 M07/M14 Q1019=
RJTT 110730Z 13003KT 9999 FEW025 06/M06 Q1023 NOSIG=

0000039500
431
FTCN36 CWAO 110700
TAF CYYY 110738Z 1108/1120 20012KT P6SM SCT030 BKN080 TEMPO 1108/1112
     BKN030
    FM111200 15012KT P6SM BKN025 TEMPO 1112/1115 P6SM -SN OVC020
    FM111500 13015KT 3/4SM -SN VV008 TEMPO 1115/1117 3SM -SN -PL
     OVC015
    FM111700 13015KT 3SM -FZRA -PL BR OVC015
    FM111900 13008KT 3SM -RA BR SCT008 OVC012
    RMK NXT FCST BY 111400Z=

0000022800
432
FTCN36 CWAO 110700
TAF CYNA 110738Z 1108/1120 28012KT P6SM SCT020 OVC070 TEMPO 1108/1119
     6SM -SN BKN020 OVC070
    FM111900 22007KT 1SM -SN VV010
    RMK FCST BASED ON AUTO OBS. NXT FCST BY 111400Z=

0000040200
433
FTCN36 CWAO 110700
TAF CYBC 110738Z 1108/1120 VRB03KT P6SM SCT005 OVC012 TEMPO 1108/1110
     3SM -SN -FZDZ BR BKN005 OVC012
    FM111200 VRB03KT 21/2SM -SN -FZDZ BR OVC004 TEMPO 1112/1116 6SM
     BR OVC010
    FM111600 10012KT 3/4SM -SN VV006 TEMPO 1116/1120 2SM -SN -PL
     OVC012
     BECMG 1116/1118 10012G22KT
    RMK FCST BASED ON AUTO OBS. NXT FCST BY 111400Z=

0000028900
434
FTCN35 CWAO 110700
TAF CYSB 110738Z 1108/1120 14015KT 1SM -FZRA -PL BR OVC002 TEMPO
     1108/1109 2SM -SNRA BR OVC004
    FM110900 14012KT 1SM -RA BR OVC002 TEMPO 1109/1120 1/4SM -RA FZFG
     VV001
     BECMG 1113/1115 20012G22KT
    RMK NXT FCST BY 111400Z=

00000000