0000025200
675
SAHO31 MHTG 110700
METAR MHLC 110700Z 00000KT 9999 FEW028 SCT080 21/20 Q1013 A2992
NOSIG= 
METAR MHLM 110700Z 00000KT 9999 FEW026 BKN080 22/22 Q1014 A2994
NOSIG=
METAR MHTG 110700Z 03003KT 9999 SCT022 18/14 Q1019 A3009 NOSIG=

0000087100
676
SASN31 ESWI 110650
METAR ESGG 110650Z 23016KT 6000 -RA BR BKN003 05/04 Q1000 REDZ
R21/29//95=
METAR ESGJ 110650Z AUTO 23009KT 5000 -DZ FEW008/// BKN010/// 04/03
Q1000 RESHUP REDZ=
METAR ESGP 110650Z 23013KT 9999 OVC006 06/05 Q1000 R19/29//95=
METAR ESGT 110650Z NIL=
METAR ESMK 110650Z AUTO 24011KT 9999NDV FEW012/// BKN015/// 06/04
Q1005 RERA=
METAR ESMQ 110650Z AUTO 21008KT 9999 FEW015/// SCT021/// BKN039///
05/04 Q1003=
METAR ESMS 110650Z 24013KT 9999 BKN007 05/05 Q1006 R17/29//95=
METAR ESMT 110650Z AUTO 22016KT 9000 -RA FEW006/// SCT027/// 06/04
Q1003 REDZ=
METAR ESMX 110650Z AUTO 22009KT 5000 -DZ FEW006/// OVC008/// 04/03
Q1002=
METAR ESTA 110650Z AUTO 23015KT 9999 -RA SCT028/// BKN040///
OVC053/// 06/04 Q1004 REDZ=
METAR ESTL 110650Z AUTO 25011KT 9999NDV -DZ FEW014/// SCT021///
BKN024/// 06/06 Q1005=

0000010700
677
SAQB31 LQMO 110700
METAR LQMO 110700Z 14004KT 120V180 1500 BR SCT040 BKN070 08/07 Q1023=

0000010500
678
SAZA31 FAPR 110600 CCB
METAR COR FALW 110600Z AUTO 20005KT //// // ////// 17/12 Q1017=

0000010500
679
SAPM31 MPTO 110700
METAR 
MPTO 110700Z 00000KT 9999 FEW020 BKN080 24/21 Q1010 NOSIG=

0000072200
680
SADL31 EDZO 110650
METAR EDDF 110650Z VRB01KT 5000 1500S R25L/1300VP2000U R25C/P2000N
     R25R/P2000N BCFG BR FEW001 BKN090 01/01 Q1017 BECMG 3000=
METAR EDDH 110650Z 22012KT 5000 -RA BR BKN008 06/04 Q1011 TEMPO 4000=
METAR EDDK 110650Z 11004KT CAVOK 02/01 Q1015 NOSIG=
METAR EDDL 110650Z 15008KT CAVOK 02/01 Q1015 NOSIG=
METAR EDDM 110650Z 08002KT 4500 1200NW R26R/P2000N R26L/P2000N PRFG
     NSC M03/M03 Q1018 BECMG 5000=
METAR EDDN 110650Z 13005KT CAVOK M03/M03 Q1017 NOSIG=
METAR EDDS 110650Z VRB01KT 9999 MIFG FEW030 SCT060 BKN100 M01/M01
     Q1017 NOSIG=
METAR EDDT 110650Z 24009KT 9999 BKN018 05/02 Q1014 NOSIG=
METAR EDDV 110650Z 24008KT 210V270 CAVOK 04/02 Q1013 NOSIG=

0000061000
681
SAFI31 EFHK 110650
METAR EFHK 110650Z 33008KT 9999 OVC008 M04/M06 Q0998 NOSIG=
METAR EFJY 110650Z AUTO 02007KT 7000 -SN OVC013 
M09/M11 Q1000=
METAR EFKU 110650Z AUTO 36010KT 8000 -SN OVC021 
M10/M12 Q1000=
METAR EFOU 110650Z AUTO 05008KT 020V110 CAVOK M15/M18 Q1007 120/0087=
METAR EFRO 110650Z AUTO 02014KT CAVOK M19/M22 
Q1011=
METAR EFTP 110650Z AUTO 02006KT 9999 BKN010 OVC013 
M05/M06 Q0999=
METAR EFTU 110650Z AUTO VRB02KT 9999 -SHSN OVC007/// M03/M04 Q0999 
R08/690162=
METAR EFVA 110650Z AUTO 04009KT 9000 -SN BKN047/// OVC053/// M09/M10 
Q1002 R16/420195=

0000046400
682
SADL32 EDZO 110650
METAR EDDB 110650Z 23009KT 9999 SCT023 SCT120 03/02 Q1014 NOSIG=
METAR EDDC 110650Z 22007KT CAVOK 03/00 Q1016 NOSIG=
METAR EDDE 110650Z 23011KT CAVOK 01/M00 Q1015 NOSIG=
METAR EDDG 110650Z 19006KT CAVOK 02/01 Q1014 TEMPO BKN010=
METAR EDDP 110650Z 19008KT CAVOK 01/00 Q1015 NOSIG=
METAR EDDR 110650Z VRB03KT 9999 -RA FEW030 BKN050 01/00 Q1016
     NOSIG=
METAR EDDW 110650Z 22013KT 9999 BKN009 05/04 Q1012 NOSIG=

0000028100
683
SAMX44 MMMD 110653
METAR MMCZ 110641Z 14004KT 7SM  SCT080 20/20 A2998 RMK 8/060=
METAR MMMD 110645Z 11005KT 7SM  SKC 21/21 A2996=
METAR MMTP 110640Z 00000KT 8SM  SCT080 24/22 A2992 RMK 8/030=
METAR MMUN 110645Z 12009KT 7SM  SCT015TCU 25/22 A2998 RMK 8/200=

0000013900
684
SAMX45 MMMY 110653
METAR MMMY 110640Z 29006KT 10SM  SKC 12/11 A2997=
METAR MMCU 110640Z 20004KT 10SM SKC 03/M05 A3015=

0000052500
685
SADN31 EKCH 110650
METAR EKCH 110650Z 24014KT 9999 BKN013 BKN150 06/05 Q1006 TEMPO
SCT013=
METAR EKBI 110650Z 23009KT 190V260 9000 -RA BKN008 06/06 Q1005=
METAR EKYT 110650Z 24010KT 4500 RA FEW006 BKN030 BKN040 07/06
Q1002=
METAR EKRK 110650Z AUTO 24012KT 9999NDV FEW009/// SCT045///
BKN120/// BKN150/// 06/05 Q1006=
METAR EKAH 110650Z AUTO 22006KT 170V280 9999NDV -RA  BKN013///
07/04 Q1004=
METAR EKEB 110650Z AUTO 22012KT 8000NDV DZ   BKN006/// 07/06
Q1005=
METAR EKRN 110653Z NIL=

0000016500
686
SADN32 EKCH 110650
METAR EKVJ 110653Z NIL=
METAR EKSB 110653Z NIL=
METAR EKSN 110653Z NIL=
METAR EKVD 110653Z NIL=
METAR EKOD 110653Z NIL=

0000059500
687
SADN34 EKCH 110650
METAR EKGF 110650Z 02016KT 9999 -RA SCT015 BKN030 07/05 Q1006=
METAR EKHN 110650Z AUTO VRB09G25KT 8000NDV SCT008/// BKN029///
///// Q1007=
METAR EKHR 110650Z AUTO 23019KT 9999NDV -SHRA  FEW007/// SCT022///
BKN039/// 08/07 Q1005=
METAR EKHA 110650Z AUTO 30021KT 5000NDV 07/06 Q1005=
METAR EKHD 110650Z AUTO 29023KT 9999NDV 07/03 Q1004=
METAR EKTE 110650Z AUTO 01018KT 9999NDV FEW024 BKN032 BKN038 07/05 
Q1006=
METAR EKGC 110650Z AUTO 31020KT 9999NDV 07/05 Q1006=
METAR EKAV 110650Z AUTO 22018KT 9999NDV BKN018/// BKN110///
06/04 Q1004=

0000011100
688
SPUS31 KWBC 110653
SPECI
KCVG 110649Z 19005KT 5SM -RA BR SCT031 BKN040 OVC055 10/09 A2968=

0000009700
689
SPUS31 KWBC 110653
SPECI
KIAD 110649Z VRB05KT 1 3/4SM BR OVC008 02/01 A3006=

0000011300
690
SPUS31 KWBC 110653
SPECI
KLOU 110649Z AUTO 00000KT 1 3/4SM +RA BR BKN006 OVC011 11/11 A2969=

0000010200
691
SPUS42 KWBC 110653
SPECI
KLCH 110649Z AUTO 24006KT 1 1/4SM BR OVC002 18/18 A2985=

0000009700
692
SPUS42 KWBC 110653
SPECI
KTMB 110649Z AUTO 00000KT 1SM BR VV009 21/21 A3009=

0000011800
693
SPUS44 KWBC 110653
SPECI
KBLI 110649Z AUTO 14026G35KT 8SM -RA SCT023 SCT065 OVC085 10/07
A2946=

0000009500
694
SPCN43 CWAO 110652
SPECI CWHN 110652Z AUTO 28005KT 9SM OVC001 M09/M10 A2950=

00000000