0000011600
955
SPUS41 KWBC 110728
SPECI
KGON 110724Z 00000KT 1/2SM R05/1800V2600FT -RA FG VV003 03/03
A3019=

0000009800
956
SPUS41 KWBC 110728
SPECI
KGSP 110724Z AUTO 06004KT 2SM BR OVC004 07/07 A2998=

0000010200
957
SPUS41 KWBC 110728
SPECI
KINT 110724Z AUTO 00000KT 1 1/2SM BR OVC002 04/04 A3002=

0000011000
958
SPUS41 KWBC 110728
SPECI
KPVD 110724Z 00000KT 1/4SM R05/1200V2200FT FG VV002 02/01 A3022=

0000010500
959
SADN32 EKCH 110720 RRA
METAR EKSB 110728Z 23010KT 190V250 4000 -RA BKN009 07/06 Q1006=

0000030000
960
SAMG20 FMMI 110700
METAR FMSD 110700Z VRB02KT 9999 FEW020 SCT230 29/24 Q1014=
METAR FMMT 110700Z 08004KT 9999 VCSH SCT017TCU 31/26 Q1014 NOSIG=
METAR FMNM 110700Z 20004KT 9999 FEW020 SCT230 31/23 Q1013 NOSIG=
METAR FMMI 110700Z 15004KT 9000 SCT017 BKN230 27/23 Q1022
NOSIG=

0000009600
961
SAFI32 EFHK 110720 CCA
EFMA 110728Z 32003KT 9999 SCT007 OVC035 M02/M02 Q1000=

0000022400
962
FTEU31 BKPR 110730 AAY
TAF BKPR 110730Z 1108/1206 VRB03KT 0150 FZFG BKN002 BECMG 1108/1110
 0800 FG BKN006 BECMG 1109/1111 3000 BR SCT008 TEMPO 1111/1117 8000
 NSW NSC BECMG 1200/1204 0300 FZFG BKN002=

0000009800
963
SAAT31 TAPA 110716 CCA
METAR COR TAPA  110700Z 08011KT 9999 FEW020 25/20 Q1016=

0000017900
964
FCIL41 BIRK 110730
TAF BIIS 110728Z NIL=
TAF BIBD 110728Z NIL=
TAF BIKR 110728Z NIL=
TAF BIHU 110728Z NIL=
TAF BIHN 110728Z NIL=
TAF BIVM 110728Z NIL=

0000025200
965
SADL36 EDZO 110720
METAR ETMN 110720Z 23011KT 3500 -DZRA BR OVC006 05/04 Q1010
      YLO=
METAR ETNL 110720Z 23008KT 6000 BKN009 05/04 Q1011
      GRN=
METAR ETSI 110720Z AUTO 07003KT 6000 // ////// M03/M03 Q1018
      ///=

0000099100
966
SANL33 EHDB 110725
METAR EHAK 110725Z AUTO 33015KT 9999 FEW022/// SCT035/// BKN048///
07/05 Q1006=
METAR EHDV 110725Z AUTO 30017KT 9999 -RADZ FEW011/// SCT026///
BKN031/// 08/06 Q1008=
METAR EHFD 110725Z AUTO 35017KT 320V040 9999 -RA FEW000/// SCT002///
BKN007/// 07/07 Q1005 RERA REDZ=
METAR EHFZ 110725Z AUTO 25018KT //// // ///////// 08/07 Q1007 RE//=
METAR EHJA 110725Z AUTO 30024KT 9999 FEW003/// SCT006/// BKN017///
07/06 Q1008=
METAR EHJR 110725Z NIL=
METAR EHKV 110725Z AUTO 25032KT 8000 FEW006/// BKN010/// BKN013///
09/08 Q1009=
METAR EHMA 110725Z AUTO 20022KT 3500 -RA SCT004/// BKN006///
BKN008/// 06/05 Q1009=
METAR EHMG 110725Z AUTO 23028KT 4200 DZ FEW006/// SCT009/// BKN011///
08/07 Q1008=
METAR EHPG 110725Z AUTO ///29KT 4600 DZ FEW005/// SCT006/// BKN009///
09/08 Q1011=
METAR EHQE 110725Z AUTO 22029KT 6000 -RA FEW003/// SCT006///
BKN010/// 08/07 Q//// RERA REDZ=
METAR EHSA 110725Z NIL=
METAR EHSC 110725Z NIL=

0000009800
967
SACA32 KWBC 110700 RRA
METAR COR TAPA  110700Z 08011KT 9999 FEW020 25/20 Q1016=

0000011000
968
SAFG20 SOCA 110730
METAR SOCA 110730Z AUTO 00000KT 9999 BKN003 BKN025 OVC100 22/21
Q1011=

0000022500
969
FTTH32 VTBB 110728
TAF VTSM 110500Z 1106/1206 10012KT 9000 FEW020 BKN300
    TEMPO 1106/1112 VRB15KT 5000 SCT020 BKN120
    BECMG 1113/1115 09006KT 8000 FEW020 BKN300
    BECMG 1201/1203 10012KT 9999=

0000012900
970
FCLT34 EYVI 110800
TAF EYSA 110800Z 1109/1118 26012KT 9000 SCT010 OVC015 TEMPO
1109/1114 5000 SHSN BKN013CB=

0000009500
971
SAPF20 NTAA 110730
METAR NTAA 110730Z 00000KT 9999 FEW020 26/21 Q1013 NOSIG=

0000009900
972
SAAO33 DRRN 110700 RRA
METAR DFFD 110700Z 05004KT 4000 DU NSC 20/03 Q1016 NOSIG=

0000015600
973
FCPO32 LPMG 110500 RRA
TAF LPHR 110730Z 1107/1115 31018KT 9999 SCT020 TEMPO 1107/1115
         31023G33KT 5000 SHRAGS BKN015 FEW018TCU=

0000056700
974
SAHU41 LHBM 110730
METAR LHDC 110715Z 20008KT 9999 BKN040 00/M01 Q1022 NOSIG=
METAR LHKE 110715Z 19001MPS 9999 OVC040 02/00 Q1022 NOSIG RMK BLU=
METAR LHPA 110715Z 12001MPS 9999 BKN033 04/03 Q1021 NOSIG RMK BLU=
METAR LHPP 110715Z 06003KT 9999 BKN040 BKN083 05/04 Q1022=
METAR LHPR 110715Z /////KT 9999 FEW030 SCT033 02/01 Q1020=
METAR LHSM 110715Z 16002KT 1500 BR OVC004 04/04 Q1022 BECMG 2500 BR
     OVC007=
METAR LHSN 110715Z 23002MPS 9999 BKN045 03/00 Q1022 NOSIG RMK BLU=
METAR LHUD 110715Z 14004KT 4500 BR BKN033 03/02 Q1023=

00000000