0000136100
675
FTUS75 KWBC 110527
TAF
NSTU 110525Z 1106/1206 36012G18KT P6SM VCSH SCT014 BKN040
      OVC100=
PHJH 110525Z 1106/1206 NIL=
PHKO 110525Z 1106/1206 13005KT P6SM FEW030 SCT060
     FM112000 26008KT P6SM SCT030 SCT050
     FM120500 VRB05KT P6SM FEW025 SCT050=
PHLI 110525Z 1106/1206 04018G24KT P6SM VCSH FEW010 SCT022 BKN040
      TEMPO 1106/1108 4SM SHRA BKN020
     FM110800 07012KT P6SM VCSH SCT020 BKN050
     FM111800 13010KT P6SM SCT025 BKN050
     FM120200 15007KT P6SM SCT020 BKN050=
PHMK 110525Z 1106/1206 06007KT P6SM FEW025 SCT050
     FM112100 13009KT P6SM VCSH SCT025 SCT050
     FM120500 VRB05KT P6SM SCT030 SCT050=
PHNY 110525Z 1106/1206 VRB05KT P6SM FEW020
     FM112100 23006KT P6SM VCSH BKN025
     FM120300 VRB05KT P6SM SCT020 BKN035 AMD NOT SKED=
PHOG 110525Z 1106/1206 05011KT P6SM FEW030 SCT050
     FM111000 13005KT P6SM FEW025
     FM112100 05011KT P6SM SCT025 SCT050 AMD LTD TO WX VIS AND
      WIND
      1109/1116=
PHTO 110525Z 1106/1206 24005KT P6SM FEW025 FEW050
     FM112100 13007KT P6SM VCSH SCT030 SCT050
     FM120500 24005KT P6SM VCSH SCT025 BKN050=
PMDY 110525Z 1106/1206 12012KT P6SM FEW035
     FM111600 15012KT P6SM FEW035 SCT060
     FM112300 17010KT P6SM SCT025 SCT050
     FM120500 20008KT P6SM VCSH SCT025 BKN050 AMD LTD TO CLD AND
      WIND=

0000009300
676
SATH31 VTBB 110500 RRB
METAR VTPO 110500Z 35002KT 4000 HZ NSC 28/17 Q1015=

0000007700
677
SASU01 HSSS 110530
METAR HSSS 110530Z 36010KT CAVOK Q1019=

0000012500
678
SAUS75 KWBC 110500 RRD
METAR
PHLI 110524Z 05016G26KT 6SM -RA BR FEW018 BKN042 OVC070 22/21
     A2996=

0000010100
679
SAUK35 EGGY 110520 RRA
METAR EGMH 110520Z 21010KT 9999 FEW012 BKN049 08/07 Q1013 =

0000074600
680
FTCZ31 LKPW 110500
TAF LKPR 110500Z 1106/1212 22010KT CAVOK BECMG 1115/1117 9999 BKN030
         TEMPO 1117/1121 5000 -RA BKN014 TEMPO 1117/1208 27015G28KT
         BECMG 1123/1201 CAVOK=
TAF LKMT 110500Z 1106/1212 22008KT CAVOK TEMPO 1120/1212 24014G24KT
         9000 -RA BKN025=
TAF LKTB 110500Z 1106/1212 12003KT CAVOK BECMG 1118/1120 30010KT 9999
         BKN035 TEMPO 1120/1124 5000 RA BKN014 BECMG 1204/1206 CAVOK=
TAF LKKV 110500Z 1106/1212 VRB02KT 0600 FG SCT008 TEMPO 1106/1108
         BKN006 BECMG 1110/1112 7000 SCT017 BECMG 1115/1117 27006KT
         5000 BR BKN015 TEMPO 1117/1206 27008G18KT 2500 RA BR BKN006
         PROB30 TEMPO 1118/1203 1500 RASN BKN003 BECMG 1206/1208
         CAVOK=

0000086200
681
FTJP31 RJTD 110500
TAF RJAA 110507Z 1106/1212 31007KT 9999 FEW030=
TAF RJBB 110509Z 1106/1212 31012KT 9999 FEW025 SCT050 BECMG
         1107/1109 35007KT BECMG 1121/1124 28012KT=
TAF RJTT 110506Z 1106/1212 12006KT 9999 FEW030 BECMG 1110/1112
         36008KT BECMG 1200/1203 18008KT BECMG 1209/1212 36008KT=
TAF RJOO 110505Z 1106/1212 32007KT 9999 FEW025 SCT045=
TAF ROAH 110506Z 1106/1212 07010KT 9999 SCT035 BECMG 1118/1121
         11006KT=
TAF RJCH 110521Z 1106/1212 30013KT 9999 FEW005 BKN015 TEMPO
         1106/1115 0800 SHSN VV005 TEMPO 1115/1121 2000 -SHSN TEMPO
         1121/1203 1500 -SHSN FEW005 BKN008 TEMPO 1203/1206
         29020G30KT 0500 SHSN BLSN VV005 TEMPO 1206/1212 29015G25KT
         1500 -SHSN FEW005 BKN008=
TAF RJSS 110505Z 1106/1212 30012KT 9999 FEW020 BECMG 1110/1112
         24007KT=

0000070000
682
SAGR31 LGAT 110520
METAR LGAD 110520Z 00000KT 9999 FEW020 10/07 Q1023=
METAR COR LGAV 110520Z 26004KT 9999 FEW010 07/05 Q1022 NOSIG=
METAR LGIR 110520Z 17006KT 9999 FEW025 10/08 Q1021 NOSIG=
METAR LGKL 110520Z 00000KT 9999 SCT080 10/08 Q1023=
METAR LGKO 110520Z 13004KT 9999 FEW018 BKN020 12/10 Q1021=
METAR LGKR 110520Z 00000KT 9999 SCT018 BKN070 11/10 Q1022 NOSIG=
METAR LGLM 110520Z NIL=
METAR LGRP 110520Z 00000KT 9999 FEW018 SCT060 12/08 Q1021 NOSIG=
METAR LGSA 110520Z 26015KT 9999 FEW020 SCT170 14/09 Q1021=
METAR LGSM 110520Z 00000KT 9999 FEW020 OVC080 13/09 Q1021=
METAR LGTS 110520Z 11004KT 0200 R16/0800  R34/0500 FG BKN001 04/03
      Q1022 NOSIG=

0000105300
683
FTJP32 RJTD 110500
TAF RJFF 110521Z 1106/1212 32008KT 9999 FEW035 BECMG 1111/1113
         15006KT BECMG 1200/1203 30007KT=
TAF RJGG 110505Z 1106/1212 32014KT 9999 FEW025 SCT050=
TAF RJCC 110507Z 1106/1212 33010KT 9999 FEW015 BKN030 BECMG
         1110/1112 24005KT TEMPO 1200/1203 1500 -SHSN FEW005 BKN008
         BECMG 1203/1206 36005KT TEMPO 1203/1209 0500 SHSN VV005=
TAF RJFK 110507Z 1106/1212 33005KT 9999 FEW030=
TAF RJSN 110507Z 1106/1212 30018KT 9999 FEW020 BKN040 BECMG
         1116/1118 18008KT TEMPO 1121/1124 0800 SHSNGS FEW003 BKN004
         BKN015 FEW015CB BECMG 1200/1203 27018KT TEMPO 1203/1206
         4000 -TSRAGS FEW008 BKN015 FEW015CB TEMPO 1206/1212
         27020G30KT=
TAF RJFU 110516Z 1106/1212 15006KT 9999 FEW035 BECMG 1106/1108
         34008KT BECMG 1113/1115 14003KT BECMG 1200/1203 33010KT=
TAF RJFT 110513Z 1106/1212 33005KT 9999 FEW040 BECMG 1109/1111
         07004KT BECMG 1200/1203 29005KT BECMG 1209/1212 06005KT=
TAF RJOA 110505Z 1106/1212 33007KT 9999 FEW040=

0000086900
684
FTJP32 RJTD 110500 RRA
TAF RJOB 110505Z 1106/1212 31008KT 9999 FEW030 SCT040=
TAF RJOT 110506Z 1106/1212 28010KT 9999 FEW025 SCT035 BECMG
         1108/1110 15007KT BECMG 1200/1203 27011KT=
TAF RJFO 110517Z 1106/1212 30005KT 9999 FEW030 BECMG 1112/1114
         26005KT BECMG 1200/1203 30010KT=
TAF RJNT 110507Z 1106/1212 20006KT 8000 -SHSN FEW010 BKN020 TEMPO
         1106/1112 2000 -SHSN FEW004 BKN008 TEMPO 1118/1124 3000
         -SHSN FEW004 BKN008 TEMPO 1209/1212 3000 -SHSNRAGS FEW006
         BKN008 FEW015CB=
TAF RJNK 110509Z 1106/1212 30008KT 9999 -SHRASN FEW008 BKN020 TEMPO
         1106/1109 2000 -SHSNRA BKN008 BKN015 TEMPO 1109/1112 4000
         -SHRASN BKN008 BKN020 TEMPO 1118/1124 2000 -SHSNRA FEW005
         BKN008 BECMG 1200/1203 22012KT TEMPO 1209/1212 4000
         -SHRASNGS FEW005 BKN008 FEW020CB=

0000049700
685
SAGR32 LGAT 110520
METAR LGAL 110520Z VRB03KT 9999 FEW018 02/01 Q1023=
METAR LGEL 110520Z 32003KT 9999 FEW025 06/04 Q1021=
METAR LGIO 110520Z AUTO 00000KT //// // ////// 07/06 Q1023
     RE//=
METAR LGKV 110520Z 06004KT CAVOK 05/05 Q1022=
METAR LGMT 110520Z VRB02KT 9999 FEW020 BKN025 12/09 Q1022=
METAR LGPZ 110520Z 07004KT 9999 SCT020 BKN080 12/09 Q1024 NOSIG=
METAR LGRX 110520Z NIL=
METAR LGSK 110520Z NIL=
METAR LGSR 110520Z NIL=
METAR LGZA 110520Z NIL=

0000016700
686
FCRS33 RUMS 110500 RRA
TAF UUMO 110500Z 1106/1115 22006G11MPS 6000 BKN008 TEMPO 1106/1115
2000 SHRASN BKN006 BKN012CB BECMG 1110/1112 27007G12MPS=

0000045600
687
FTTS40 DTTA 110500
TAF DTTA 110500Z 1106/1206 17003KT 4000 BR BECMG 1108/1110 18006KT
9999 FEW020 BECMG 1113/1115 VRB03KT=
TAF DTMB 110500Z 1106/1206 18008KT 9999 FEW020 TEMPO 1108/1118
18015G25KT=
TAF DTTJ 110500Z 1106/1206 18004KT 6000 NSC BECMG 1107/1109 19012KT
CAVOK=
TAF DTTZ 110500Z 1106/1206 27006KT 9999 FEW030 BECMG 1118/1120
VRB03KT=
TAF DTNH 110500Z 1106/1206 20005KT 9999 FEW020 TEMPO 1108/1118
20015G25KT=

0000019900
688
FTIE31 EIDB 110500 RRD
TAF EICK 110500Z 1106/1206 28004KT 9999 SCT020 BECMG 1118/1121
     14015KT BECMG 1121/1124 14025G35KT 4000 RA BKN010
     OVC020 TEMPO 1202/1206 BKN006=

0000065300
689
FTIO31 FMMI 110500
TAF FMNM 110500Z 1106/1206 VRB03KT 9999 FEW020  BECMG 1107/1109
32010KT BECMG 1116/1118 26004KT FEW020CB SCT040 PROB30 TEMPO
1200/1204 4000 TSRA=
TAF FMMT 110500Z 1106/1206 06010KT 9999 FEW017 SCT033 BECMG 1110/1112
FEW017CB SCT033 PROB30 TEMPO 1115/1121 TSRA BECMG 1116/1118 00000KT
BECMG 1121/1123 FEW017 SCT033=
TAF FSIA 102133Z 1100/1124 33010KT 9999 FEW015CB SCT018 TEMPO
    1100/1112 5000 SHRA/-TSRA FEW013CB BKN015 TEMPO 1115/1121 8000
   -SHRA FEW014CB BKN016=
TAF FIMR 110515Z 1106/1200 10015G25KT 9999 SCT017 PROB30 TEMPO
    1106/1114 7000 -SHRA FEW010 BKN016 BKN050=
TAF FJDG NIL=

0000056200
690
SADN31 EKCH 110520
METAR EKCH 110520Z 23011KT 9999 FEW010 BKN015 BKN150 06/05 Q1007
NOSIG=
METAR EKBI 110520Z 24010KT 210V270 9999 -DZ BKN009 06/05 Q1005=
METAR EKYT 110520Z 22013KT 8000 -RA FEW006 BKN010 BKN013 07/06
Q1002=
METAR EKRK 110520Z AUTO 23012KT 9999NDV FEW008/// BKN011///
BKN029/// 06/04 Q1006=
METAR EKAH 110520Z AUTO 21005KT 160V260 9999NDV OVC013/// 07/04
Q1005=
METAR EKEB 110520Z AUTO 22011KT 9999NDV -SHRA  BKN009/// BKN054///
07/06 Q1006=
METAR EKRN 110520Z AUTO 26021KT 9999NDV OVC008/// 06/06 Q1008=

0000016500
691
SADN32 EKCH 110520
METAR EKVJ 110523Z NIL=
METAR EKSB 110523Z NIL=
METAR EKSN 110523Z NIL=
METAR EKVD 110523Z NIL=
METAR EKOD 110523Z NIL=

0000055000
692
SADN34 EKCH 110520
METAR EKHN 110520Z AUTO 23009G21KT 160V270 8000NDV -RA   BKN007///
BKN032/// ///// Q1007=
METAR EKHR 110520Z AUTO 24021KT 9999NDV -SHRA  FEW007/// SCT010///
BKN014/// 08/07 Q1005=
METAR EKHA 110520Z AUTO 25019KT 7000NDV 07/07 Q1005=
METAR EKHD 110520Z AUTO 29015KT 9999NDV 07/04 Q1004=
METAR EKTE 110520Z AUTO 23012KT 9999NDV -SHRA FEW003 SCT006 BKN019 
07/06 Q1005=
METAR EKGC 110520Z AUTO 26020KT 9999NDV 07/07 Q1005=
METAR EKAV 110520Z AUTO 22020KT 9999NDV FEW046/// OVC066///
06/04 Q1004=

0000009500
693
SAQB31 LQSM 110530
METAR LQSA 110530Z VRB01KT 6000 BKN060 04/04 Q1022 NOSIG=

0000015200
694
SATH32 VTBB 110500 RRA
METAR VTSC 110500Z 06007KT 030V110 8000 VCSH SCT018 BKN040 OVC100
           26/22 Q1014 A2995 RWY02 INFO E=

00000000