0000037600
775
SAAL31 DAAA 110830
METAR DAAG 110830Z 22004KT CAVOK 14/10 Q1019=
METAR DAAT 110830Z 09007KT CAVOK 15/M02 Q1025=
METAR DABB 110830Z 21006KT CAVOK 10/07 Q1018=
METAR DABC 110830Z 25002KT CAVOK 10/03 Q1021=
METAR DAON 110830Z 20022KT 9999 SCT026 BKN100 16/05 Q1018=
METAR DAOO 110830Z 00000KT 9999 SCT030 SCT100 14/10 Q1018=
METAR DAUH 110830Z NIL=

0000021800
776
SAIE32 EIDB 110830
METAR EICM 110830Z NIL=
METAR EIDL 110830Z NIL=
METAR EIKY 110820Z 08001KT 9999 NSC M02/M02 Q1018=
METAR EIME 110830Z NIL=
METAR EISG 110830Z NIL=
METAR EIWF 110830Z NIL=

0000010400
777
SPCN31 CWAO 110835
SPECI CYQQ 110835Z 14020G32KT 1 1/2SM RA BR OVC007 RMK SF8 PRESFR=

0000009600
778
FCUK32 EGGY 110800 RRB
TAF EGNS 110800Z 1109/1118 28015KT 9999 FEW015 SCT040=

0000013900
779
SSVX02 CWAO 111700
ZZYY 47564 11014 1700/ 767112 028502 6113/ 11119 
40007 52025 444 20130 11014 1700/ 50400 80138 80001=
0000016000
780
SSVX02 CWAO 111700
ZZYY 56538 11014 1700/ 337526 135058 6113/ 11119 
40226 57012 22219 00176 444 20130 11014 1700/ 50101 80136 80011 
9/015=
0000016000
781
SSVX02 CWAO 111700
ZZYY 56947 11014 1700/ 331610 105888 6113/ 11119 
40174 57015 22219 00207 444 20130 11014 1700/ 50101 80142 80019 
9/015=
0000016000
782
SSVX02 CWAO 111700
ZZYY 56950 11014 1700/ 307899 103167 6113/ 11119 
40098 52001 22219 00290 444 20130 11014 1700/ 50101 80146 80015 
9/015=
0000016000
783
SSVX02 CWAO 111700
ZZYY 56540 11014 1700/ 554204 177360 6113/ 11119 
49975 57013 22219 00115 444 20130 11014 1700/ 50101 80136 80013 
9/015=
0000016000
784
SSVX02 CWAO 111700
ZZYY 56951 11014 1700/ 331180 111387 6113/ 11119 
40126 54000 22219 00214 444 20130 11014 1700/ 50101 80144 80045 
9/015=
0000016000
785
SSVX02 CWAO 111700
ZZYY 56502 11014 1700/ 331008 098423 6113/ 11119 
40194 52001 22219 00226 444 20130 11014 1700/ 50101 80144 80021 
9/015=
0000013900
786
SSVX02 CWAO 111700
ZZYY 64728 11014 1700/ 765162 008731 6113/ 22219 
00028 444 20130 11014 1700/ 50101 80140 80003 9/015=
0000012700
787
SSVX02 CWAO 111700
ZZYY 48741 11014 1700/ 174197 157366 6113/ 444 
20130 11014 1700/ 50101 80134 80002 9////=
0000009000
788
SNSE01 LFVW 111700
AAXX 1117/
94997 46/// ///// 10025 39970 49985 5////=
0000013900
789
SSVX02 CWAO 111700
ZZYY 64725 11014 1700/ 170997 025396 6113/ 22231 
00052 444 20130 11014 1700/ 50101 80138 80002 9////=
0000013900
790
SSVX02 CWAO 111700
ZZYY 64736 11014 1700/ 168559 005576 6113/ 22219 
00066 444 20130 11014 1700/ 50101 80140 80003 9/015=
0000011000
791
UANT99 KDDL 111720
ARP VIR11B 5406N02310W 1720 F380 MS60 194/61 KT
GVKSS DDL XXF 111720 J23A
0000011800
792
SNVD15 KWNB 111600 RRS
BBXX
42022 11161 99275 70837 46/// /1307 10222 40175 91629 555 11077
22083=
0000016000
793
SSVX05 CWAO 111700
ZZYY 44690 11014 1700/ 754252 051952 6113/ 11119 
40078 52003 22219 00036 444 20130 11014 1700/ 50101 80142 80001 
9////=
0000027500
794
SXHW11 KWAL 111722
15D142A4 011172202":PRS 1 #1 1365 1369 1363 1367 1372 1367 1375 1371 1379 1375 :RAD 1 #1 6952 6952 6953 6955 6956 6954 6959 6960 6965 6962 :ENC 2 #5 4860 4868 4871 4876 :SW1 22 #60 0 :SW2 52 #60 0 :BAT 4 #5 12.8 :NAME 15D142A4  31+0NN 216W
00000000