0000025100
835
SADL33 EDZO 110520
METAR EDFE 110520Z NIL=
METAR EDFH 110520Z 19006KT 9999 FEW010 BKN080 00/00 Q1015=
METAR EDFM 110520Z NIL=
METAR EDLV 110520Z 20005KT 6000 FEW007 01/01 Q1014=
METAR EDVK 110520Z VRB03KT CAVOK 01/M01 Q1015=

0000059100
836
SANO31 ENMI 110520
METAR ENAN 110520Z 10011KT CAVOK M06/M13 Q1016=
METAR ENBR 110520Z 25006KT 9999 -DZ FEW011 SCT018 BKN025 05/03 Q0996
           RMK WIND 1200FT 25015KT=
METAR ENBO 110520Z 10018KT CAVOK M08/M18 Q1011=
METAR ENDU 110520Z VRB01KT CAVOK M25/M27 Q1017=
METAR ENGM 110520Z 05008KT 9999 -SN FEW008 BKN010 M03/M05 Q0997 TEMPO
           2000 SN BKN004=
METAR ENOL 110520Z 08015KT 9999 FEW010 M09/M13 Q1002=
METAR ENVA 110520Z 08007KT CAVOK M10/M16 Q1003 RMK WIND 670FT
           11008KT=
METAR ENZV 110520Z 27014KT 9999 FEW021 06/03 Q1000=

0000011500
837
FCIY32 LIIB 110500 RRA
TAF LIBR 110500Z 1106/1115 VRB03KT 8000 SCT020 BECMG 1108/1110
20008KT=

0000035400
838
FCIE32 EIDB 110500
TAF EICM 110500Z NIL=
TAF EIDL 110500Z 1106/1115 25010KT 9999 SCT040=
TAF EIKY 110500Z 1106/1115 18004KT 9999 SCT018=
TAF EIME 110500Z 1106/1115 23010KT 9999 SCT013 BKN016=
TAF EISG 110500Z 1106/1115 23012KT 9999 BKN028=
TAF EIWF 110500Z 1106/1115 VRB03KT 9999 SCT030 TEMPO 1106/1108 3000
     BR BKN004=

0000044000
839
SAFI33 EFHK 110520
EFJO 110520Z AUTO 02013KT 340V060 9999 -SG FEW016 SCT019 BKN025
M08/M10 Q0996=
EFLP 110520Z 35011KT 310V040 9999 -SHSN OVC013 M06/M09 Q0995=
EFMI 110520Z AUTO VRB05KT 9999 -SN OVC013 M07/M08 Q0997=
EFSA 110520Z AUTO 34007KT 300V040 9999 -SG OVC016 M07/M09 Q0996=
EFUT 110520Z AUTO 35012KT 320V020 9999 OVC012 M06/M08 Q0996=
EFVR 110520Z AUTO 36008KT 330V040 1800 -SHSN OVC016 M08/M10 Q0998=

0000008800
840
SADL35 EDZO 110520
METAR EDJA 110520Z VRB03KT 6000 NSC M01/M01 Q1016=

0000027300
841
SADL34 EDZO 110520
METAR EDLP 110520Z 18009KT CAVOK 03/M02 Q1014=
METAR EDLW 110520Z 19010KT CAVOK 02/M01 Q1015=
METAR EDQM 110520Z AUTO 21008KT 5000NDV BR FEW004/// 00/M01 Q1016=
METAR EDSB 110520Z 11002KT 4000 BCFG BR FEW002 BKN066 M00/M01 Q1017=

0000021700
842
SANO37 ENMI 110520
METAR ENNO 110520Z NIL=
METAR ENOV 110520Z NIL=
METAR ENSD 110520Z NIL=
METAR ENSG 110520Z NIL=
METAR ENSN 110520Z NIL=
METAR ENSR 110520Z NIL=
METAR ENSS 110520Z NIL=

0000024900
843
SANO36 ENMI 110520
METAR ENBS 110520Z NIL=
METAR ENHK 110520Z NIL=
METAR ENHV 110520Z NIL=
METAR ENLK 110520Z NIL=
METAR ENMH 110520Z NIL=
METAR ENNK 110520Z NIL=
METAR ENNM 110520Z 08010KT 030V120 CAVOK M10/M16 Q1006=

0000058500
844
SANO38 ENMI 110520
METAR ENDR 110520Z AUTO 08025KT M04/M09 Q1001=
METAR ENEK 110520Z 31020KT 9999 FEW025 BKN090 07/03 Q1003 W08/S4=
METAR ENGC 110520Z 08017KT 9999 BKN024 03/M02 Q0996 W06/S5=
METAR ENHE 110520Z NIL=
METAR ENOA 110520Z 29020KT 9999 -SHRA BKN020 05/03 Q0995 W///S4=
METAR ENSL 110520Z AUTO 29028KT 9999NDV BKN028/// 06/01 Q1001
           W06/S4=
METAR ENFB 110520Z AUTO 09019KT 9999NDV -SHRA BKN018/// OVC031///
           03/00 Q0996 W///S5=
METAR ENSF 110520Z AUTO 09020KT 9999NDV -SHRA OVC022/// 04/M01 Q0996
           W///S5=

0000016300
845
SANM40 FYWW 110500 RRC
METAR FYOO 110500Z AUTO 17002KT //// // ////// 18/06 Q1017=
METAR FYOW 110500Z AUTO 00000KT //// // ////// 15/05 Q1018=

0000052300
846
SANO33 ENMI 110520
METAR ENAT 110520Z NIL=
METAR ENBL 110520Z NIL=
METAR ENEV 110520Z AUTO 22003KT 9999NDV NCD M08/M16 Q1015 RMK WIND
           1400FT 09012KT=
METAR ENFL 110520Z NIL=
METAR ENKB 110520Z 10004KT 070V150 9999 SCT024 M05/M07 Q0999=
METAR ENKR 110520Z AUTO 17007KT 7000NDV -SN OVC009/// M20/M22 Q1016
           SEASMOKE NORTH OF THE FIELD RMK WIND 775FT 24010KT=
METAR ENML 110520Z NIL=
METAR ENNA 110520Z 19003KT CAVOK M20/M22 Q1018 RMK WIND 1800FT
           06003KT=

0000021500
847
SANO34 ENMI 110520
METAR ENBN 110520Z 08017KT CAVOK M07/M13 Q1007=
METAR ENBV 110520Z NIL=
METAR ENFG 110520Z NIL=
METAR ENHF 110520Z NIL=
METAR ENRA 110520Z NIL=
METAR ENSH 110520Z NIL=

0000031700
848
FCTS40 DTTA 110530
TAF DTTB 110530Z 1107/1116 VRB03KT 9999 FEW020=
TAF DTKA 110530Z 1107/1116 VRB03KT 9999 FEW020=
TAF DTTX 110530Z 1107/1116 23005KT CAVOK=
TAF DTTF 110530Z 1107/1116 23004KT 8000 NSC=
TAF DTTG 110530Z 1107/1116 VRB03KT 8000 NSC=
TAF DTTR 110530Z 1107/1116 16005KT CAVOK=

0000022300
849
FCTS42 DTTA 110530
TAF DTTB 110530Z 1107/1116 VRB03KT 9999 FEW020=
TAF DTKA 110530Z 1107/1116 VRB03KT 9999 FEW020=
TAF DTTX 110530Z 1107/1116 23005KT CAVOK=
TAF DTTR 110530Z 1107/1116 16005KT CAVOK=

0000011100
850
SPUS31 KWBC 110525
SPECI
KIND 110521Z 15009KT 3SM -RA BR BKN006 BKN014 OVC050 05/05 A2962=

0000031300
851
WSZA21 FAOR 110529
FAOR SIGMET A02 VALID 110540/110940 FAOR-
FAJA JOHANNESBURG FIR EMBD TS OBS WI
S2306 E03133 - S2420 E03200 - S2440 E03201 - S2459 E03126 -
S2531 E02950 - S2535 E02831 - S2535 E02831 - S2452 E02727 -
S2412 E02743 - S2344 E02848 - S2328 E02957 - S2311 E03041 TOP FL360=

0000012900
852
FCTS32 DTTA 110530
TAF DTTF 110530Z 1107/1116 23004KT 8000 NSC=
TAF DTTG 110530Z 1107/1116 VRB03KT 8000 NSC=

0000010700
853
SAUK33 EGGY 110520 RRA
METAR EGNS 110520Z 27012KT 240V300 9999 FEW020 06/03 Q1012 NOSIG=

0000019700
854
FCSP31 LEMM 110500
TAF LEBA 110500Z 1106/1115 VRB02KT CAVOK=
TAF LEBG 110500Z 1106/1115 06006KT 0500 FG OVC001 TEMPO
1106/1111 4000 BR SCT005 BECMG 1111/1113 9999 NSW FEW015=

00000000