0000011800
815
SASC20 FSIA 110700
METAR FSIA 110700Z 30003KT 3000 SHRA FEW009 FEW014CB BKN016 27/24
Q1012 NOSIG=

0000024800
816
SAIE31 EIDB 110700
METAR EIDW 110700Z 28011KT 9999 FEW005 SCT006 02/01 Q1015 NOSIG=
METAR EINN 110700Z 15004KT 9999 FEW040 02/02 Q1017 NOSIG=
METAR EICK 110700Z 31004KT 9999 FEW016 02/00 Q1017 NOSIG=
METAR EIKN 110700Z NIL=

0000015000
817
SACN62 CYWL 110700
METAR CYWL 110700Z 11017G29KT 10SM DRSN FEW015 FEW080 BKN220 M02/M04
 A2925 RMK SF2AC1CS5 AC TR PRESFR SLP941=

0000012300
818
SACN62 CYXY 110700
METAR CYXY 110700Z 32005KT 15SM -SN SCT013 BKN059 M12/M14 A2917 RMK
 ST3SC4 SLP932=

0000013600
819
SACN62 CYYJ 110700
METAR CYYJ 110700Z 15012G19KT 6SM -RA BR BKN009 BKN032 OVC052 08/07
 A2945 RMK SC5SC2SC1 SLP972=

0000010700
820
SACN61 CYYL 110700
METAR CYYL 110700Z AUTO 01005KT 9SM -SN CLR M25/M28 A2949 RMK SLP027=

0000047100
821
FTUS53 KWBC 110703 AAA
TAF AMD
KHUF 110701Z 1107/1206 18008KT 2SM -SHRA BR OVC006
      TEMPO 1107/1109 1/4SM -RA FG OVC003
     FM110900 22010KT 3SM -RA BR OVC006
     FM111500 25012KT 4SM BR OVC010
     FM111800 25012G22KT P6SM OVC015
     FM120000 27010KT P6SM BKN025=
KTOP 110701Z 1107/1206 27005KT 4SM BR BKN006 OVC080
     FM110800 28006KT 5SM BR SCT008 BKN080
     FM111000 29010KT P6SM FEW100
     FM112300 25004KT P6SM SKC=

0000092300
822
FTUS80 KWBC 110703 AAA
TAF AMD
KBTR 110700Z 1107/1206 18014G20KT P6SM -SHRA BKN008 OVC025
      TEMPO 1107/1109 2SM TSRA OVC003CB
     FM110900 23012KT 4SM BR OVC004
     FM111500 30009KT P6SM SCT250
     FM120000 VRB03KT P6SM SKC=
KHUF 110701Z 1107/1206 18008KT 2SM -SHRA BR OVC006
      TEMPO 1107/1109 1/4SM -RA FG OVC003
     FM110900 22010KT 3SM -RA BR OVC006
     FM111500 25012KT 4SM BR OVC010
     FM111800 25012G22KT P6SM OVC015
     FM120000 27010KT P6SM BKN025=
KMSY 110701Z 1107/1206 19012KT 4SM BR BKN003 OVC006
      TEMPO 1107/1109 1/2SM FG OVC002
     FM110900 21012KT 3SM -RA OVC004
     FM111400 25012KT 5SM BR OVC015
     FM111800 30012KT P6SM SCT250
     FM120000 31007KT P6SM SKC=
KTOP 110701Z 1107/1206 27005KT 4SM BR BKN006 OVC080
     FM110800 28006KT 5SM BR SCT008 BKN080
     FM111000 29010KT P6SM FEW100
     FM112300 25004KT P6SM SKC=

0000010400
823
SPIY40 LIIB 110701
SPECI LIMG 110701Z 26003KT 220V290 9999 BKN040 OVC070 10/09 Q1022=

0000012100
824
SPUS42 KWBC 110703
SPECI
KMGM 110659Z AUTO 18008G17KT 5SM -RA BR SCT009 BKN013 OVC020 18/17
A2990=

0000012100
825
SACN61 CYZY 110700
METAR CYZY 110700Z AUTO 11002KT 3/4SM -SN VV013 M05/M05 A2931 RMK
 PRESFR SLP962=

0000020800
826
SABO41 SLLP 110700
METAR SLLP 110700Z VRB02KT 4000E VCFG FEW002 SCT200 06/05 Q1035=
METAR SLCB 110700Z 00000KT 9999 FEW027 14/08 Q1023= 
METAR SLVR 110700Z 25006KT 9999 NSC 23/22 Q1009=

0000015500
827
FCDN32 EKCH 110700
TAF EKSB 110700Z 1107/1116 23010KT 9999 BKN012 TEMPO 1107/1113 
3000 RADZ BR BKN005 BECMG 1113/1115 29010KT SCT020=

0000011100
828
SACN49 CWAO 110700
METAR CYGW 110700Z 13004KT 5SM -SN OVC014 M10/M11 A2974 RMK SC8
SLP071=

0000012600
829
SACN62 CYAM 110700
METAR CYAM 110700Z 10006KT 1SM -SN BR OVC006 00/M00 A2945 RMK ST8 CIG
 VRB 5-7 SLP982=

0000011900
830
SACN62 CYBR 110700
METAR CYBR 110700Z 28010KT 15SM FEW007 SCT150 M09/M10 A2953 RMK
 SF1AC2 SLP032=

0000011800
831
SACN46 CWAO 110700
METAR CYYH 110700Z 18007KT 15SM SCT035 BKN080 M33/M36 A2948 RMK
SC2AC1 SLP988=

0000006100
832
SAVN27 SVBM 110700
METAR SVBM 110700Z NIL=

0000006100
833
SAVN26 SVMC 110700
METAR SVMC 110700Z NIL=

0000008300
834
SABZ19 SBMA 110700
METAR SBMA 110700Z 00000KT CAVOK 23/23 Q1010=

00000000