0000043100
655
SAFI33 EFHK 110650
EFJO 110650Z 36010KT 320V030 9999 -SN FEW012 BKN014 BKN022 M09/M11
Q0997=
EFLP 110650Z AUTO 36009KT 320V030 9999 OVC012 M06/M09 Q0996=
EFMI 110650Z AUTO VRB05KT 9999 -SG OVC012 M07/M09 Q0998=
EFSA 110650Z AUTO 33008KT 300V010 9999 -SN OVC017 M07/M09 Q0997=
EFUT 110650Z AUTO 36010KT 340V040 9999 OVC012 M06/M08 Q0997=
EFVR 110650Z AUTO 36010KT 320V040 0900 SN OVC016 M08/M11 Q0999=

0000049100
656
SADL34 EDZO 110650
METAR EDGS 110650Z 22006KT 9999 3500SE PRFG FEW002 SCT083 02/02
Q1014=
METAR EDHL 110650Z 22010KT 7000 BKN010 06/04 Q1011=
METAR EDLN 110650Z 11002KT CAVOK M01/M02 Q1015=
METAR EDLP 110650Z 19011KT CAVOK 03/M02 Q1014=
METAR EDLW 110650Z 19010KT CAVOK 02/M00 Q1014=
METAR EDMA 110650Z VRB01KT 6000 NSC M01/M01 Q1017=
METAR EDQM 110650Z AUTO 20005KT 9999NDV NCD 00/M01 Q1016=
METAR EDSB 110650Z 00000KT 9000 -RA FEW035 BKN066 01/M00 Q1017=

0000069100
657
SANO31 ENMI 110650
METAR ENAN 110650Z 11013KT 9999 FEW045 M06/M13 Q1016=
METAR ENBR 110650Z VRB04KT 9999 FEW008 SCT015 BKN022 05/03 Q0996
           TEMPO -SHRA BKN012CB RMK WIND 1200FT 27016KT=
METAR ENBO 110650Z 12012KT 080V160 CAVOK M08/M19 Q1012=
METAR ENDU 110650Z VRB01KT 9999 FEW040 M25/M28 Q1018 NOSIG=
METAR ENGM 110650Z 04008KT 010V070 5000 -SN BR SCT007 BKN009 M05/M06
           Q0998 BECMG BKN012=
METAR ENOL 110650Z 10023KT 9999 FEW010 SCT080 M08/M13 Q1002=
METAR ENVA 110650Z 06006KT 020V100 CAVOK M11/M17 Q1004 NOSIG RMK WIND
           670FT 11007KT=
METAR ENZV 110650Z 27012KT 9999 FEW015 SCT020 BKN065 06/03 Q1000
           NOSIG=

0000013600
658
SADL35 EDZO 110650
METAR EDJA 110650Z 17003KT 7000 NSC M01/M01 Q1016=
METAR EDTL 110650Z 23002KT CAVOK 03/03 Q1017=

0000086600
659
SAIY31 LIIB 110650
METAR LIEA 110650Z 34003KT 310V010 CAVOK 06/06 Q1020=
METAR LIEE 110650Z VRB01KT CAVOK 06/06 Q1020=
METAR LIEO 110650Z VRB01KT 1000 0400SE R05/0800VP1500D BCFG NSC
02/02 Q1021=
METAR LIMC 110650Z VRB01KT 3000 BR SCT015 BKN035 07/07 Q1022 NOSIG=
METAR LIME 110650Z 16002KT 5000 BR BKN010 08/06 Q1022=
METAR LIMF 110650Z 15004KT 6000 BKN030 06/05 Q1021=
METAR LIMJ 110650Z 04004KT 010V070 9999 SCT015 BKN032 12/09 Q1021=
METAR LIML 110650Z 23002KT 5000 BR SCT007 BKN050 08/07 Q1022 NOSIG=
METAR LIRA 110645Z 03002KT 8000 FEW025 SCT060 04/04 Q1022=
METAR LIRF 110650Z 06004KT 7000 SCT030 05/05 Q1023 NOSIG=
METAR LIRN 110650Z 01003KT 8000 SCT050 08/06 Q1022=
METAR LIRP 110645Z 11007KT 9999 SCT050 08/07 Q1021 NOSIG=
METAR LIRQ 110650Z 00000KT 2700 1100NE R05/1200VP2000U BCFG FEW010
BKN040 11/10 Q1022=

0000053200
660
SANO38 ENMI 110650
METAR ENDR 110650Z AUTO 07022KT M04/M09 Q1001=
METAR ENEK 110650Z NIL=
METAR ENGC 110635Z 07015KT 9999 BKN020 02/M02 Q0997 W06/S5=
METAR ENHE 110650Z 10030KT 9999 BKN030 M03/M07 Q1003 W///S5=
METAR ENOA 110650Z 29023KT 260V320 9999 FEW020 SCT049 06/02 Q0996
           W///S5=
METAR ENSL 110650Z NIL=
METAR ENFB 110650Z AUTO 07019KT 9999NDV -SHRA OVC016/// 02/00 Q0997
           W///S5=
METAR ENSF 110650Z AUTO 07018KT 9999NDV -SHRA OVC017/// 03/00 Q0997
           W///S5=

0000068700
661
SAIY32 LIIB 110650
METAR LIBD 110650Z 23004KT 4000 BR NSC 05/05 Q1023=
METAR LIBR 110645Z 28003KT 9999 FEW020 06/05 Q1023 NOSIG=
METAR LICC 110650Z NIL=
METAR LICJ 110650Z 08002KT CAVOK 12/09 Q1021=
METAR LIPB 110650Z VRB01KT 9999 FEW038 BKN054 05/04 Q1023=
METAR LIPE 110650Z 27002KT 2500 BR BKN050 07/06 Q1022=
METAR LIPH 110645Z /////KT 2000 BR FEW020 SCT050 BKN060 07/06 Q1022
=
METAR LIPK 110650Z NIL=
METAR LIPQ 110650Z VRB01KT 2000 BR SCT015 BKN050 07/05 Q1022=
METAR LIPR 110645Z /////KT 3500 BR OVC040 09/09 Q1022=
METAR LIPX 110645Z 22001KT 1000 R04/P1500D BR BKN050 08/06 Q1022=
METAR LIPZ 110650Z VRB03KT 2500 BR BKN042 08/07 Q1022=

0000063900
662
SANO32 ENMI 110650
METAR ENAL 110650Z 05006KT 9999 SCT026 BKN034 M02/M07 Q0998=
METAR ENCN 110650Z 24004KT 9999 BCFG NSC 02/02 Q1000=
METAR ENHD 110650Z 26021KT 9999 -SHRA SCT020 BKN032 06/03 Q0999=
METAR ENRO 110650Z AUTO 06005KT 360V140 9999NDV -SN FEW022///
           BKN029/// OVC060/// M16/M19 Q0998=
METAR ENRY 110650Z 00000KT CAVOK M01/M01 Q0997=
METAR ENSB 110650Z 25016KT 9999 FEW018 BKN025 M00/M06 Q1008 RMK WIND
           1400FT 20019KT=
METAR ENTC 110650Z VRB02KT 9999 FEW011 M13/M15 Q1018 NOSIG RMK WIND
           2600FT 10010KT=
METAR ENTO 110650Z 26003KT 220V320 CAVOK 01/M00 Q0997=

0000009500
663
SAIY32 LIIB 110650 RRA
METAR LICC 110650Z 18003KT 120V230 CAVOK 06/03 Q1023=

0000008900
664
SABZ21 SBAR 110700
METAR SBAR 110700Z 11009KT 9999 SCT015 26/20 Q1013=

0000078600
665
SANO39 ENMI 110650
METAR ENNE 110650Z 08023KT 9999 -SHSN BKN025 M04/M09 Q1005 W02/S/=
METAR ENQR 110650Z AUTO 08009KT 040V150 5000NDV -SN OVC011/// 02/M01
           Q0997 W///S/=
METAR ENSE 110650Z AUTO 08015KT 8000NDV -RASN FEW010/// SCT017///
           BKN025/// 01/M02 Q0998 W///S5=
METAR ENQC 110650Z AUTO 06007KT 9999NDV OVC017/// 04/00 Q0996
           W///S4=
METAR ENQA 110650Z AUTO 08005KT 040V120 9999NDV -SHRA FEW009///
           SCT015/// BKN023/// 04/03 Q0997 W04/S4=
METAR ENHM 110650Z 26024KT 9999 FEW027 SCT041 BKN077 06/02 Q0998
           W08/S5=
METAR ENVH 110650Z AUTO 30022KT 9999NDV FEW026/// SCT100/// 06/00
           Q1005 W///S4=
METAR ENLA 110650Z AUTO 28022KT 9999NDV SCT029/// 06/01 Q1003
           W///S4=

0000031900
666
SANO34 ENMI 110650
METAR ENBN 110650Z 09010KT CAVOK M06/M13 Q1007=
METAR ENBV 110650Z 24009KT 8000 -SHSN FEW005 BKN026 M05/M06 Q1016=
METAR ENFG 110650Z NIL=
METAR ENHF 110650Z VRB02KT CAVOK M09/M11 Q1016 RMK WIND 1254FT
           23008KT=
METAR ENRA 110650Z NIL=
METAR ENSH 110650Z NIL=

0000009800
667
SARW20 HRYR 110700
METAR
HRYR 110700Z 00000KT 5000 SCT023  22/18 Q1022 NOSIG=

0000011000
668
SPUS41 KWBC 110655
SPECI
KGON 110651Z 00000KT 1/4SM R05/1800V2400FT FG VV002 03/03 A3020=

0000010600
669
SPUS41 KWBC 110655
SPECI
KGSP 110651Z AUTO 01004KT 3SM VCTS RA BR OVC004 08/07 A3000=

0000010800
670
SPUS42 KWBC 110655
SPECI
KSHV 110651Z 30018G22KT 10SM SCT010 BKN035 OVC044 17/11 A2980=

0000010600
671
SAMG20 FMMI 110700
METAR FMMI 110700Z 15004KT 9000  SCT017  BKN230 27/23 Q1022
NOSIG=

0000033700
672
SAMX42 MMGL 110654
METAR MMGL 110653Z 02002KT 10SM  BKN030 12/06 A3020 RMK 8/500=
METAR MMMM 110645Z 00000KT 7SM  BKN030 13/09 A3026 RMK 8/500=
METAR MMPR 110646Z 00000KT 10SM  SKC 18/16 A2996 RMK AC/S=
METAR MMSP 110644Z 00000KT 10SM  SKC 10/04 A3023 RMK SC=
METAR MMZC 110640Z 18006KT 10SM  SKC 03/M02 A3028=

0000009800
673
SABZ20 SBEG 110655
METAR SBEG 110700Z 06005KT 9999 SCT010 BKN025 22/20
Q1011=

0000017800
674
SAMX43 MMMZ 110700
METAR MMLP 110656Z  NIL=
METAR MMMZ 110642Z 32007KT 10SM  SKC 12/08 A2996=
METAR MMTJ 110640Z 10003KT 6SM  SKC 12/04 A3013 RMK ST W HZY=

00000000