0000010100
235
SPUS41 KWBC 110824
SPECI
KLUK 110820Z AUTO 19008KT 5SM RA BR OVC075 10/09 A2965=

0000009500
236
SPUS42 KWBC 110824
SPECI
KPDK 110820Z AUTO VRB04KT 7SM OVC003 09/09 A2991=

0000010100
237
SPUS43 KWBC 110824
SPECI
KDLH 110820Z 30007KT 3SM -FZDZ BR OVC006 M03/M05 A2939=

0000009200
238
SPUS43 KWBC 110824
SPECI
KFAR 110820Z 30013KT 9SM OVC016 M03/M06 A2951=

0000009800
239
SPUS43 KWBC 110824
SPECI
KGRB 110820Z AUTO 20006KT 3SM BR OVC003 01/01 A2939=

0000029500
240
SAAF11 LFPW 110800 RRB
METAR FKKD 110800Z 00000KT 2000 BR FEW013 BKN300 27/26 Q1013 BECMG
3500 BR=
METAR FKKN 110800Z 04004KT CAVOK 20/02 Q1020=
METAR FKKR 110800Z 16010KT 6000 NSC 23/01 Q1017 NOSIG=
METAR FKYS 110800Z 06002KT 1500 BR SCT003 23/21 Q1018 BECMG 3000 BR=

0000009300
241
SAAF14 LFPW 110800 RRB
METAR FEFT 110800Z 36004KT 4000 BR NSC 20/16 Q1013=

0000140700
242
SPUS70 KWBC 110828
SPECI
PASO 110824Z AUTO 17003KT 10SM SCT013 BKN022 OVC029 M01/M02 A2931
     RMK AO2 SNE0759 P0000 TSNO=
KATL 110824Z 13005KT 1/4SM R09R/2600V6000FT -RA BR OVC002CB 09/09
     A2990 RMK AO2 SFC VIS 1 RAB07 OCNL LTGIC OHD-E TS OHD-E MOV
     NE TWRINC P0002=
KAVL 110824Z AUTO 15003KT 2SM -RA BR BKN003 OVC011 07/07 A2993 RMK
     AO2 P0000=
KCPS 110824Z AUTO 27008KT 10SM FEW013 SCT019 BKN039 07/04 A2957
     RMK AO2=
KLHQ 110824Z AUTO 22004KT 4SM -RA BR FEW019 BKN033 OVC049 11/09
     A2968 RMK AO2 RAB0758 PRESFR P0018=
KORE 110824Z AUTO 00000KT 3/4SM UP BR VV006 00/M01 A3013 RMK AO2
     P0001 T00001006=
KOSU 110824Z AUTO 16010KT 8SM -RA FEW007 BKN050 OVC085 09/08 A2965
     RMK AO2 P0002 T00940083=
KOXB 110824Z AUTO 18007G15KT 150V210 5SM -RA BR SCT003 BKN035
     OVC095 11/11 A3007 RMK AO2 P0002 T01110106 TSNO=
K1M4 110825Z AUTO 22007G18KT 1 1/4SM +TSRA BR BKN001 BKN006 OVC022
     14/14 A2972 RMK AO2 CIG 001V004 LTG DSNT ALQDS P0041
     PRESFR=
KBWI 110825Z 00000KT 1/2SM R10/1800V2800FT -RA FG VV002 02/02
     A3001 RMK AO2 RAB11 P0001=
KJEF 110825Z AUTO 25011KT 6SM BR BKN014 BKN018 OVC025 04/02 A2962
     RMK AO2=
KMIE 110825Z AUTO 21006KT 1/2SM FG OVC002 07/06 A2956 RMK AO2
     T00670061 TSNO=
KPTW 110825Z AUTO 00000KT 3/4SM -RA BR VV003 02/02 A3004 RMK AO2
     RAB0759 P0000 T00220022=

0000012000
243
SPUS31 KWBC 110828
SPECI
KATL 110824Z 13005KT 1/4SM R09R/2600V6000FT -RA BR OVC002CB 09/09
A2990=

0000011900
244
SPUS41 KWBC 110828
SPECI
KCEF 110826Z AUTO 32003KT 1 1/2SM R23/5500FT -DZ BR OVC002 00/00
A3013=

0000009000
245
SPUS42 KWBC 110828
SPECI
KCRP 110824Z 23005KT 9SM BKN250 13/12 A2990=

0000017300
246
SARS32 RUMS 110800 CCA
METAR URSS 110827Z 12004G08MPS 8000 -SHRA SCT023 OVC042CB 09/03 Q1019
NOSIG RMK R06/13006G09MPS MT OBSC QFE762 02190060 06//////=

0000009900
247
SAGQ21 FGSL 110800 RRA
METAR FGBT 110800Z 12003KT 9999 FEW010 27/25 Q1013 NOSIG=

0000013300
248
SACN31 CWAO 110800 CCA
METAR CYQQ 110800Z CCA 14028G35KT 1SM RA BR OVC008 06/06 A2926 RMK
SF8 PRESFR R10 SLP911=

0000025400
249
SADL36 EDZO 110820
METAR ETMN 110820Z 23011KT 4000 -RA BR OVC006 05/04 Q1010
      YLO=
METAR ETNL 110820Z 23008KT 6000 -RA BKN009 05/04 Q1010
      GRN=
METAR ETSI 110820Z AUTO 08001KT 9000 // ////// M02/M02 Q1018
      ///=

0000095100
250
SANL33 EHDB 110825
METAR EHAK 110825Z AUTO 33022KT 9999 NSC 07/03 Q1006=
METAR EHDV 110825Z AUTO 31025KT 9999 FEW013/// SCT015/// BKN022///
07/05 Q1008=
METAR EHFD 110825Z AUTO 03015KT 320V040 9999 -RADZ FEW014///
SCT018/// BKN024/// 07/06 Q1006=
METAR EHFZ 110825Z AUTO 32016KT //// // ///////// 07/05 Q1008 RE//=
METAR EHJA 110825Z AUTO 29019KT 9999 FEW011/// SCT023/// BKN039///
07/05 Q1009=
METAR EHJR 110825Z NIL=
METAR EHKV 110825Z AUTO 28029KT 9999 -DZ FEW004/// SCT008///
BKN010/// 08/07 Q1009 REDZ=
METAR EHMA 110825Z AUTO VRB22KT 3300 -RA SCT004/// BKN005///
OVC006/// 06/05 Q1009=
METAR EHMG 110825Z AUTO 25027KT 4500 -RADZ FEW003/// SCT005///
BKN006/// 08/08 Q1007=
METAR EHPG 110825Z AUTO ///29KT 2900 -RA FEW003/// BKN005///
OVC006/// 09/08 Q1011=
METAR EHQE 110825Z AUTO 24031KT 3400 DZ FEW003/// BKN004/// OVC005///
08/08 Q////=
METAR EHSA 110825Z NIL=
METAR EHSC 110825Z NIL=

0000009500
251
SAEG31 HECA 110830
METAR HECA 110830Z 00000KT 3000 HZ NSC 17/09 Q1026 NOSIG=

0000011000
252
SAFG20 SOCA 110830
METAR SOCA 110830Z AUTO 22001KT 9999 FEW003 BKN042 OVC120 22/21
Q1011=

0000010800
253
SPUS31 KWBC 110831
SPECI
KBNA 110827Z 14004KT 2 1/2SM +RA BR BKN035 OVC042 12/11 A2968=

0000011300
254
SPUS41 KWBC 110831
SPECI
KCEF 110827Z AUTO 32003KT 1 1/2SM R23/5500FT BR OVC002 00/00 A3013=

00000000