0000020000
455
FTIE31 EIDB 110500 RRA
TAF EINN 110500Z 1106/1206 18004KT 9999 SCT020 TEMPO 1106/1108
     4000 BR BECMG 1120/1122 14015KT BECMG 1202/1205 14020G30KT
     4000 RA BKN010 OVC020=

0000008700
456
SAAL41 DAMM 110500 RRD
METAR DAUT 110500Z 10010KT CAVOK 11/03 Q1016=

0000020000
457
FTIE31 EIDB 110500 RRB
TAF EIKN 110500Z 1106/1206 18006KT 9999 SCT020 TEMPO 1106/1108
     4000 BR BECMG 1120/1122 14015KT BECMG 1202/1205 14020G30KT
     3000 RA BKN010 OVC020=

0000015700
458
FTIE31 EIDB 110500 RRC
TAF EIDW 110500Z 1106/1206 25012KT 9999 SCT013 BKN018
     BECMG 1121/1124 14015G25KT BECMG 1200/1203 14025G35KT=

0000019400
459
FCFR31 LFPW 110500 RRA
TAF LFRK 110500Z 1106/1115 20005KT 1200 BR SCT004 TEMPO 1106/1109
0200 FG VV/// TEMPO 1109/1111 RADZ BKN004 BECMG 1111/1113 34008KT
9999 NSW SCT020=

0000037900
460
FTBY31 UMMN 110500
TAF UMMS 110445Z 1106/1206 27009G14MPS 9999 BKN008 SCT015CB
       TEMPO 1106/1113 30012G17MPS 1500 SHRASN BKN004
       TEMPO 1113/1206 1200 SHRASN BKN003=
TAF UMGG 110445Z 1106/1206 28010G15MPS 9999 BKN013 BKN015CB
           TEMPO 1106/1114 30015G20MPS 2000 SHRA BKN005
           TEMPO 1114/1206 30015G20MPS 1300 SHSNRA BKN004=

0000019300
461
FTRA31 RUMS 110500
TAF UEEE 110500Z 1106/1212 VRB02MPS 1000 BR NSC TM45/1107Z TEMPO
1106/1112 0300 FG VV003 FM111200 VRB02MPS 0300 FG VV002 TEMPO
1112/1121 0800 FG VV003=

0000038000
462
FTRA35 RUMS 110500
TAF UHBB 110452Z 1106/1206 36005MPS CAVOK=
TAF UHSS 110500Z 1106/1212 01004MPS 9999 BKN025CB OVC100 530007 TEMPO
1106/1212 1400 SHSN BKN007 BKN025CB=
TAF UHWW 110455Z 1106/1206 VRB02MPS 3000 FU SCT100 BECMG 1108/1110
35004MPS 2100 -SHSN HZ SCT007 BKN020CB BKN100 TEMPO 1108/1206
36009G14MPS 530007 BECMG 1203/1204 9999 NSW SCT020CB=

0000088000
463
FTRS36 RUMS 110500
TAF ULAA 110500Z 1106/1206 05007G13MPS 2000 SN DRSN OVC005 650050
530001 TEMPO 1106/1118 03010G16MPS 0600 +SHSN BLSN BKN003 BKN007CB
TEMPO 1118/1203 01008G14MPS 1000 SHSN BLSN BKN004 BKN007CB=
TAF ULMM 110500Z 1106/1206 VRB02MPS 9999 SCT004 BKN012 TEMPO
1106/1115 09003MPS 2500 -SHSN BR SCT003 BKN011CB PROB40 TEMPO
1106/1115 0300 FZFG VV002 TEMPO 1115/1206 1300 -SHSN BR BKN004
BKN011CB=
TAF UMKK 110500Z 1106/1206 26007MPS 9999 BKN010 BKN100 TEMPO
1106/1112 27006G11MPS 3000 -SHRA BKN007 BKN020CB BECMG 1112/1114
24005G10MPS 5000 -RA BR BKN007 TEMPO 1112/1202 23008G13MPS 2000
SHRA SCT004 BKN010CB BECMG 1202/1204 32007G12MPS=
TAF UUYY 110500Z 1106/1206 06006G12MPS 2000 SHSN BR BKN005 BKN010CB
BKN070 650050 530001 TEMPO 1106/1112 0700 +SHSN BKN003 BKN007CB
TEMPO 1112/1206 0500 +SHSN FZRA BKN003 BKN007CB 640000=

0000017100
464
SAMP31 LMMM 110530
METAR HLLT NIL=
METAR HLLB 110518Z
00000KT 8000 SCT020 BKN080 11/09 Q1026 =
METAR LMML 110515Z 20004KT CAVOK 14/13 Q1022 NOSIG=

0000011000
465
SAHK31 VHHH 110500 RRA
METAR RPMZ 110500Z 03006KT 7000 -RA SCT018 OVC120 26/25 Q1010 A2985=

0000008800
466
FCIY31 LIIB 110500
TAF LIMP 110500Z 1106/1115 VRB03KT 4000 BR BKN030=

0000042600
467
FTRA33 RUMS 110500
TAF UIAA 110445Z 1106/1206 03004MPS 9999 BKN100 530009 TEMPO
1112/1203 VRB02MPS 2200 BR FEW003 BKN100=
TAF UIBB 110453Z 1106/1206 09003MPS 5000 -SHSN BKN017CB BKN100 TEMPO
1108/1121 1500 SHSN BR VV006=
TAF UIII 110447Z 1106/1206 16004MPS 9999 SCT020CB TEMPO 1106/1115
30004MPS 2000 FU=
TAF UIUU 110450Z 1106/1206 34005MPS 5000 -SHSN SCT020CB BKN100 BECMG
1109/1111 VRB02MPS=

0000091300
468
FTRS32 RUMS 110500
TAF URKA 110500Z 1106/1206 25007G12MPS 9999 BKN010 BKN020CB 530005
TEMPO 1106/1112 31007G13MPS TEMPO 12O0/1206 2000 SHRA BR BKN005
BKN015CB=
TAF URKK 110455Z 1106/1206 24010G15MPS 9999 BKN020CB 530002 TEMPO
1106/1109 30006G11MPS 2000 SHRA SCT005 BKN020CB FM110900
29006G11MPS 9999 BKN020CB 530002 TEMPO 1109/1118 3000 -SHRA BKN007
BKN020CB=
TAF URMM 110459Z 1106/1206 29007G12MPS 9999 BKN020CB 530002 TEMPO
1106/1121 31012G17MPS 2100 -SHRA BKN007 BKN020CB TEMPO 1121/1206
1200 SHRASN BKN004 BKN020CB=
TAF URRR 110500Z 1106/1206 24009G14MPS 3000 BR BKN007 BKN020CB 530005
TEMPO 1106/1118 26011G16MPS=
TAF URSS 110455Z 1106/1206 17006G11MPS 9999 SCT030CB BKN100 520002
TEMPO 1106/1109 06004G09MPS TEMPO 1109/1118 5000 -SHRA BKN020CB
BKN100 BECMG 1115/1117 05004G09MPS TEMPO 1118/1203 3000 -SHRA
SCT007 BKN020CB OVC100 PROB40 TEMPO 1118/1103 -TSRA=

0000060800
469
FTRS34 RUMS 110500
TAF USPP 110500Z 1106/1206 15008MPS 8000 BKN007 OVC100 650070 TEMPO
1106/1118 15013MPS 2000 -SN BR OVC003 BECMG 1118/1120 2000 SN BLSN
TEMPO 1118/1206 15013MPS=
TAF UWKD 110455Z 1106/1206 16010G16MPS 2000 SNRA BR OVC005 SCT015CB
650050 530001 TEMPO 1106/1115 0700 +SHSNRA FZRA OVC002 BKN010CB
640000 BECMG 1115/1117 19006G12MPS TEMPO 1117/1124 1000 VV003=
TAF UWKE 110445Z 1106/1206 18014MPS 2000 SN BLSN OVC005 650050 530001
TEMPO 1106/1118 18017MPS 0500 +SHSN FZRA BKN002 BKN010CB 640000
TEMPO 1118/1206 18018MPS 0500 +SHSN FZRA BKN002 BKN010CB 640000=

0000090300
470
FTRA34 RUMS 110500
TAF UNAA 110446Z 1106/1206 23005MPS 9999 SCT030CB BKN100 530009 TEMPO
1106/1115 21007G12MPS 2000 SHSN BLSN 640006=
TAF UNBB 110455Z 1106/1206 20008G14MPS 3000 -SHSN DRSN BKN010CB
530005 TEMPO 1106/1115 1200 SHSN BLSN SCT002 BKN005 650050 TEMPO
1115/1206 VRB02MPS 1200 SHSN BR SCT002 BKN005=
TAF UNKL 110445Z 1106/1206 20006MPS 5000 -SHSN SCT020CB OVC100 TEMPO
1106/1112 23006G11MPS 0800 +SHSN BLSN SCT007 BKN015CB OVC100 530009
TEMPO 1112/1118 2000 SHSN=
TAF COR UNNT 110455Z 1106/1206 19008G14MPS 4000 -SHSN DRSN BKN010CB
530005 TEMPO 1106/1120 0500 +SHSN BLSN SCT001 BKN004 650010 BECMG
1120/1121 9999 NSW BKN020 TEMPO 1121/1205 VRB02MPS 1200 BR SCT002=
TAF UNOO 110453Z 1106/1206 19006MPS 4000 -SHSN BLSN BKN010 BKN020CB
650100 530002 TEMPO 1106/1111 19012MPS 2000 SHSN BLSN BKN006
BKN020CB TEMPO 1111/1203 1000 SHSN BR BKN004 BKN020CB=

0000038800
471
FTRS31 RUMS 110500
TAF ULLI 110452Z 1106/1206 31006G12MPS 4000 -SN BLSN BKN008 530003
TEMPO 1106/1115 33010G15MPS 1600 SHSN BLSN BKN006 BKN015CB TEMPO
1115/1124 2100=
TAF UWGG 110450Z 1106/1206 20005G10MPS 2100 -SHSNRA OVC007 SCT012CB
650070 530003 TEMPO 1106/1118 17007G14MPS 1000 SHSNRA VV004
FM111800 24005G13MPS 2100 -SHSNRA BKN007 SCT012CB 650090 530003=

0000056000
472
FTRA37 RUMS 110500
TAF USTR 110500Z 1106/1206 18006MPS 4000 BR BKN007 BKN010CB 650079
TEMPO 1106/1121 16008MPS 1500 SHSN BLSN BKN005 BKN010CB=
TAF USHH 110457Z 1105/1206 06005MPS 3000 -SN BKN005 OVC070 620050
TEMPO 1105/1114 1200 SN BKN003 OVC070 620030 TEMPO 1114/1118 2000
SN BKN007 OVC070 650070=
TAF COR USRR 110442Z 1106/1206 08003MPS 4000 -SN SCT007 OVC066 TEMPO
1106/1109 2000 SN BR BKN004 TEMPO 1109/1118 1000 SN BR BKN003=
TAF USSS 110454Z 1106/1206 14004MPS 5000 -SN SCT006 BKN020 650060
BECMG 1112/1114 2000 SN BR=

0000047800
473
FTRA32 RUMS 110500
TAF UHHH 110448Z 1106/1212 25008G13MPS CAVOK 530002=
TAF UHMA 110459Z 1106/1206 36008G13MPS 9999 DRSN NSC 530009 TEMPO
1106/1118 06015G20MPS 2000 BLSN TEMPO 1118/1206 33008G13MPS 2000
BR=
TAF UHMM 110450Z 1106/1212 04006G12MPS 9999 DRSN SCT030 BKN100 530009
530906=
TAF UHPP 110445Z 1106/1212 30006MPS 9999 BKN025CB OVC100 650250
550009 TEMPO 1106/1112 04005G10MPS 2000 SHSN BKN006 TEMPO 1200/1212
02006MPS 1000 SHSN BKN004=

0000077500
474
FTRS33 RUMS 110500
TAF UUBW 110450Z 1106/1206 22006MPS 8000 BKN010 OVC100 TEMPO
1106/1109 2000 SHRASN SCT008 BKN010CB TEMPO 1109/1121 1800 SHSN
SCT007 BKN010CB BECMG 1110/1112 28007G12MPS=
TAF UUDD 110455Z 1106/1212 23008MPS 6000 OVC007 TEMPO 1106/1109 2100
-SHSNRA BKN004 BKN012CB BECMG 1109/1111 29008G13MPS TEMPO 1109/1120
0700 +SHSN BKN004 BKN012CB=
TAF UUDL 110500Z 1106/1206 17005MPS 3000 BR OVC004 640040 TEMPO
1106/1118 1500 SNRA BR OVC003=
TAF UUEE 110450Z 1106/1206 20005MPS 6000 BKN007 TEMPO 1106/1112 2000
RASN BKN005 SCT010CB BECMG 1110/1112 27005MPS TEMPO 1112/1206 1500
SHSNRA BKN005 SCT010CB=
TAF UUWW 110455Z 1106/1206 22006G11MPS 6000 BKN009 TEMPO 1106/1121
1200 SHRASN BKN004 BKN012CB BECMG 1110/1112 27007G12MPS=

00000000