0000034200
275
SANT31 KWBC 110600 RRB
METAR
BGBW 110625Z NIL=
BGCO 110625Z NIL=
BGGH 110620Z AUTO 07010KT 9999NDV NCD M09/M16 Q0993=
BGJN 110620Z AUTO 08006KT 9999NDV BKN130/// BKN150/// M10/M19
     Q0994=
BGKK 110620Z AUTO 09007KT 9999NDV BKN054/// M04/M09 Q0994=
BGSF 110620Z AUTO 06005KT 9999NDV BKN170/// M18/M23 Q0995=

0000014700
276
SAOS32 LOWM 110620 RRA
METAR LOXZ 110620Z VRB01KT 12KM 4000E BCFG FEW002ST SCT080SC BKN240CI
M03/M03 Q1020 TEMPO 1200 RMK BKN=

0000020400
277
FTSP33 LEMM 110500 AAA
TAF AMD LEST 110624Z 1106/1206 VRB03KT 7000 NSC TX13/1115Z
TN03/1106Z TEMPO 1106/1109 3000 BR BKN005 TEMPO 1106/1109
0700 BCFG BKN001 BECMG 1118/1122 19010KT=

0000036000
278
SAFI34 EFHK 110620
EFET 110620Z AUTO 00000KT CAVOK M33/M36 Q1014=
EFIV 110620Z AUTO 26002KT 3100 BR OVC003 M29/M32 Q1017=
EFKE 110620Z AUTO 02012KT CAVOK M16/M20 Q1010=
EFKI 110620Z 04012KT 9999 SCT016 BKN026 M14/M16 Q1003=
EFKS 110620Z AUTO VRB06KT CAVOK M17/M21 Q1007=
EFKT 110620Z 02004KT 320V080 CAVOK M20/M22 Q1014 R16/////95=

0000070400
279
SADL31 EDZO 110620
METAR EDDF 110620Z 18003KT 0900 R25L/0800N R25C/0900V1600N
     R25R/P2000N FG FEW001 SCT003 BKN096 01/01 Q1017 BECMG 3000=
METAR EDDH 110620Z 23013KT 6000 BKN009 06/04 Q1010 TEMPO 4000 BKN007=
METAR EDDK 110620Z 11003KT CAVOK 02/01 Q1015 NOSIG=
METAR EDDL 110620Z 15010KT CAVOK 02/01 Q1015 NOSIG=
METAR EDDM 110620Z VRB01KT 4000 1600NW BCFG NSC M03/M03 Q1018 BECMG
     5000=
METAR EDDN 110620Z 11004KT 9999 MIFG NSC M03/M03 Q1017 NOSIG=
METAR EDDS 110620Z VRB01KT 9999 -RA MIFG FEW030 SCT040 BKN100 M01/M01
     Q1016 NOSIG=
METAR EDDT 110620Z 24010KT 9999 OVC018 05/02 Q1014 NOSIG=
METAR EDDV 110620Z 23005KT 200V260 CAVOK 04/02 Q1013 NOSIG=

0000047000
280
SADL32 EDZO 110620
METAR EDDB 110620Z 22010KT 9999 BKN020 04/02 Q1014 NOSIG=
METAR EDDC 110620Z 22007KT CAVOK 02/M00 Q1015 NOSIG=
METAR EDDE 110620Z 23014KT CAVOK 02/00 Q1015 NOSIG=
METAR EDDG 110620Z 19007KT 9999 FEW015 03/01 Q1014 TEMPO BKN010=
METAR EDDP 110620Z 19010KT CAVOK 02/01 Q1015 NOSIG=
METAR EDDR 110620Z VRB01KT 9999 -RA FEW030 BKN050 01/00 Q1016
     NOSIG=
METAR EDDW 110620Z 22011KT 9999 BKN010 05/04 Q1011 TEMPO BKN008=

0000012200
281
SAEU31 BKPR 110630
BKPR 110630Z 00000KT 0100 R17/0150 FZFG OVC002 M01/M02 Q1024 NOSIG
 RMK 17010095 =

0000046600
282
FTCN35 CWAO 110600 AAA
TAF AMD CYTR 110623Z 1106/1206 15008KT 6SM BR SCT008 OVC140 TEMPO
     1106/1108 5SM -SHRA BR BKN008
    FM110800 16012G22KT 4SM -RA BR SCT004 OVC010 TEMPO 1108/1122 1SM
     -RA BR OVC004 PROB30 1115/1122 1/2SM -RA FG VV002
    FM112200 24012KT P6SM -SHRA SCT008 BKN025 TEMPO 1122/1205 2SM
     -SHRA BR BKN008
     BECMG 1200/1202 24015G25KT
    FM120500 26015G25KT P6SM BKN020
    RMK NXT FCST BY 111200Z=

0000061800
283
SAFI31 EFHK 110620
METAR EFHK 110620Z 32010KT 9999 OVC009 M04/M06 Q0998 TEMPO BKN010=
METAR EFJY 110620Z AUTO 02009KT 9999 -SN OVC016 
M09/M11 Q0999=
METAR EFKU 110620Z AUTO 36010KT 7000 -SN OVC023 
M10/M12 Q1000=
METAR EFOU 110620Z AUTO 05008G18KT 010V090 CAVOK M15/M18 Q1007 
120/0087=
METAR EFRO 110620Z AUTO 03013KT CAVOK M18/M21 
Q1011=
METAR EFTP 110620Z AUTO 03006KT 9999 FEW007 BKN009 
OVC011 M05/M06 Q0999=
METAR EFTU 110620Z AUTO 06005KT 9999 -SG OVC006/// M03/M04 Q0999 
R08/690162=
METAR EFVA 110620Z AUTO 03009KT 7000 -SN OVC051/// M09/M11 Q1002 
R16/420195=

0000059600
284
SADN31 EKCH 110620
METAR EKCH 110620Z 24014KT 9999 BKN013 BKN150 06/05 Q1006 TEMPO
SCT013=
METAR EKBI 110620Z 23010KT 200V260 9000 -RA BKN007 06/05 Q1005=
METAR EKYT 110620Z 25013KT 3500 RA FEW006 SCT025 BKN030 07/06
Q1002=
METAR EKRK 110620Z AUTO 24013KT 9999NDV FEW010/// SCT037///
BKN043/// BKN140/// 06/05 Q1006=
METAR EKAH 110620Z AUTO 21006KT 150V260 9999NDV -SHRA  BKN014///
OVC048/// 07/04 Q1004=
METAR EKEB 110620Z AUTO 23012KT 200V260 7000NDV DZ   BKN006///
07/06 Q1006=
METAR EKRN 110620Z AUTO 25020KT 9999NDV FEW009/// BKN026///
06/06 Q1008=

0000016500
285
SADN32 EKCH 110620
METAR EKVJ 110623Z NIL=
METAR EKSB 110623Z NIL=
METAR EKSN 110623Z NIL=
METAR EKVD 110623Z NIL=
METAR EKOD 110623Z NIL=

0000063900
286
SADN34 EKCH 110620
METAR EKGF 110620Z 01017KT 9999 -RA SCT008 SCT015 07/05 Q1005=
METAR EKHN 110620Z AUTO 23008G21KT 180V300 8000NDV FEW007///
BKN008/// ///// Q1007=
METAR EKHR 110620Z AUTO 23018KT 9999NDV -SHRA  FEW006/// SCT009///
BKN012/// BKN015/// 08/07 Q1005=
METAR EKHA 110620Z AUTO 29017KT 9000NDV 07/06 Q1005=
METAR EKHD 110620Z AUTO 29019KT 9999NDV 07/04 Q1004=
METAR EKTE 110620Z AUTO 01017KT 9999NDV -SHRA FEW007 SCT017 OVC023 
07/05 Q1006=
METAR EKGC 110620Z AUTO 29020KT 9999NDV 07/06 Q1005=
METAR EKAV 110620Z AUTO 21019KT 9999NDV SCT014/// SCT021///
BKN071/// BKN100/// 06/04 Q1004=

0000051500
287
SAUK31 EGGY 110620
METAR EGBB 110620Z 28006KT 9999 FEW038 04/03 Q1014=
METAR EGCC 110620Z 24005KT 9999 FEW017 03/02 Q1013=
METAR EGKK 110620Z 28011KT 9000 -RA SCT005 BKN008 08/07 Q1014
    RERA=
METAR EGLL 110620Z 28009KT 9999 FEW010 BKN039 08/07 Q1014=
METAR EGPF 110620Z 21008KT 9999 FEW049TCU 02/00 Q1010=
METAR EGPH 110620Z AUTO 24006KT 9999 NCD 01/M01 Q1010=
METAR EGPK 110620Z 24006KT 210V280 9999 FEW018 05/03 Q1011=
METAR EGSS 110620Z 28009KT 9999 OVC031 07/05 Q1013 RERA=

0000042900
288
SAUK32 EGGY 110620
METAR EGAA 110620Z 26011KT 9999 BKN005 01/01 Q1014=
METAR EGAC 110620Z 20010KT 9999 FEW007 02/01 Q1014=
METAR EGFF 110620Z NIL=
METAR EGGW 110620Z 28010KT CAVOK 06/04 Q1013=
METAR EGLC 110620Z 27013KT 9999 FEW006 BKN014 09/07 Q1013=
METAR EGNM 110620Z 27007KT CAVOK 02/01 Q1011=
METAR EGNX 110620Z 28010KT CAVOK 03/02 Q1013=
METAR EGPD 110620Z 27006KT CAVOK 02/M02 Q1006 NOSIG=

0000039100
289
SAUK33 EGGY 110620
METAR EGGD 110620Z 26009KT CAVOK 04/03 Q1015=
METAR EGGP 110620Z 25005KT 9999 FEW024 05/04 Q1013=
METAR EGHI 110620Z 29003KT 9999 FEW035 06/05 Q1015 =
METAR EGNS 110620Z NIL=
METAR EGNT 110620Z 27008KT 9999 FEW030 02/01 Q1010=
METAR EGNV 110620Z 25005KT CAVOK 04/01 Q1011=
METAR COR EGPB 110620Z 26013KT 9999 FEW013 SCT026 05/02 Q1000 NOSIG=

0000031500
290
SAUK34 EGGY 110620
METAR EGHE 110620Z NIL=
METAR EGHK 110620Z NIL=
METAR EGHQ 110620Z NIL=
METAR EGJA 110620Z NIL=
METAR EGJB 110620Z 32008KT 9999 SCT012 BKN025 08/06 Q1017=
METAR EGJJ 110620Z 26008KT 9999 -DZ FEW010 BKN015 09/08 Q1016 TEMPO
    5000 BKN005=
METAR EGTE 110620Z NIL=

0000034000
291
SAUK35 EGGY 110620
METAR EGHH 110620Z 30009KT CAVOK 06/05 Q1015=
METAR EGKA 110620Z NIL=
METAR EGKB 110620Z NIL=
METAR EGLF 110620Z NIL=
METAR EGMC 110620Z 23012KT 6000 -DZ BKN010 08/07 Q1012=
METAR EGMD 110620Z NIL=
METAR EGMH 110620Z 22011KT 9999 FEW012 SCT035 BKN044 08/07 Q1013 =
METAR EGTC 110620Z NIL=

0000037300
292
SAUK36 EGGY 110620
METAR EGBE 110620Z NIL=
METAR EGBJ 110620Z NIL=
METAR EGCN 110620Z 28009KT 9999 FEW033 05/03 Q1013=
METAR EGSC 110620Z NIL=
METAR COR EGSD 110620Z 23015KT 6000 SHRA BKN005 08/08 Q1010 BECMG
     9999 NSW SCT030=
METAR EGSH 110620Z 26013KT 9999 RA BKN006 08/07 Q1011 REDZ=
METAR EGVN 110620Z NIL=
METAR EGWU 110620Z NIL=

0000033200
293
SAUK37 EGGY 110620
METAR EGAE 110620Z NIL=
METAR EGNC 110620Z NIL=
METAR EGNH 110620Z 28007KT CAVOK 06/04 Q1013=
METAR EGNJ 110620Z NIL=
METAR EGNO 110620Z NIL=
METAR EGNR 110620Z NIL=
METAR EGPE 110620Z 23010KT 9999 -RASN SCT010 BKN019 02/01 Q1007=
METAR EGPI 110620Z NIL=
METAR EGPN 110620Z NIL=

0000034900
294
SAUK38 EGGY 110620
METAR EGEC 110620Z NIL=
METAR EGEO 110620Z NIL=
METAR EGPA 110620Z NIL=
METAR EGPC 110620Z AUTO 23007KT 9999 FEW019/// 01/M00 Q1004=
METAR EGPL 110620Z AUTO 27017KT 9999 // NCD 05/01 Q1008=
METAR EGPM 110620Z NIL=
METAR EGPO 110620Z 28011KT 9999 FEW014 SCT029 02/M01 Q1007=
METAR EGPU 110620Z NIL=

00000000