0000023400
255
NOUK32 EGGY 110841
SADIS GATEWAY MONITOR
INTERNAL ALARM MESSAGE
AERODROME NOT RECEIVED

SKBO FT LAST RECEIVED AT 101000Z
VTSP FT LAST RECEIVED AT 102300Z
ZSPD FT LAST RECEIVED AT 110324Z
END OF MESSAGE

0000052700
256
SAFR33 LFPW 110830
METAR LFKB 110830Z VRB03KT 9999 FEW033 BKN210 11/07 Q1021 NOSIG=
METAR LFKC 110830Z 18003KT CAVOK 09/07 Q1021 NOSIG=
METAR LFKF 110830Z AUTO 07008KT 040V100 9999 BKN024/// OVC031///
14/11 Q1021=
METAR LFKJ 110830Z 04007KT CAVOK 07/06 Q1021 NOSIG=
METAR LFMP 110830Z 25004KT 9999 SCT033 SCT230 10/08 Q1020 NOSIG=
METAR LFMV 110830Z AUTO VRB02KT 9999 SCT030 BKN040 OVC046 10/08
Q1021=
METAR LFSL 110830Z AUTO 14004KT 110V170 9999 OVC020 08/05 Q1019=
METAR LFLC 110830Z NIL=

0000104400
257
SAFR34 LFPW 110830
METAR LFCR 110830Z AUTO 15003KT 9999 NSC 04/03 Q1020=
METAR LFJL 110830Z AUTO 14008KT 6000 -DZ NSC 03/02 Q1017=
METAR LFLP 110830Z AUTO VRB03KT 9999 OVC019 03/03 Q1020=
METAR LFLS 110830Z AUTO 27007KT 230V300 9999 FEW019 OVC180 08/06
Q1020=
METAR LFLY 110830Z AUTO 21006KT 9999 NSC 10/05 Q1019=
METAR LFMT 110830Z 04006KT 9000 SCT020 OVC036 11/08 Q1021 NOSIG=
METAR LFMU 110830Z AUTO 03005KT 9999 BKN017 OVC034 11/09 Q1021=
METAR LFOB 110830Z AUTO 26002KT 0800 0350 R30/1400D R12///// FG
FEW001 OVC160 04/03 Q1018=
METAR LFOH 110830Z AUTO 22006KT 4700 BR OVC002 07/06 Q1018=
METAR LFOK 110830Z AUTO 32006KT 4100 BR NSC 03/03 Q1018=
METAR LFOP 110830Z AUTO 22003KT 2200 BR OVC006 05/05 Q1018=
METAR LFPB 110830Z AUTO 34003KT 8000 BKN037 BKN082 BKN100 06/05
Q1018=
METAR LFQA 110830Z AUTO 12001KT 6000 FEW043 SCT050 BKN060 04/04
Q1017=
METAR LFQB 110830Z AUTO 00000KT 5000 BR NSC 04/04 Q1018=
METAR LFSN 110830Z AUTO VRB02KT 5000 -RA BR FEW018 BKN062 OVC074
03/03 Q1017=

0000088100
258
SAFR35 LFPW 110830
METAR LFMI 110830Z AUTO 08004KT 9999 OVC022 11/08 Q1021=
METAR LFMK 110830Z AUTO VRB02KT 9999 OVC021 09/07 Q1020=
METAR LFOV 110830Z AUTO 00000KT 3400 BR BKN009 OVC050 05/05 Q1019=
METAR LFRD 110830Z AUTO 26005KT 9999 BKN010 OVC022 06/05 Q1019=
METAR LFRI 110830Z AUTO 33006KT 2900 BR BKN003 OVC011 08/07 Q1019=
METAR LFRM 110830Z AUTO VRB02KT 3200 BR FEW009 SCT052 06/05 Q1019=
METAR LFRN 110830Z AUTO 00000KT 0300 R28/0600D FG VV/// 06/06 Q1019=
METAR LFRO 110830Z AUTO 34003KT 9999 BKN041 OVC048 08/05 Q1020=
METAR LFRV 110830Z AUTO 36003KT 0400 FG VV/// 03/03 Q1019=
METAR LFRZ 110830Z AUTO 32003KT 280V350 6000 FEW005 07/06 Q1020=
METAR LFSB 110830Z 19005KT 9000 NSC 04/02 Q1018 NOSIG=
METAR LFST 110830Z AUTO 06003KT 3600 -RA BR ///TCU 02/02 Q1017=
METAR LFTH 110830Z AUTO 35003KT 320V030 9999 OVC021 12/09 Q1021=

0000077400
259
SAFR36 LFPW 110830
METAR LFBA 110830Z AUTO 09004KT 5000 BR OVC021 08/08 Q1020=
METAR LFBE 110830Z AUTO VRB03KT 4700 BR OVC021 08/08 Q1019=
METAR LFGJ 110830Z AUTO 13005KT 6000 NSC 04/04 Q1018=
METAR LFJR 110830Z AUTO VRB02KT 0150 R26/0450N FG VV/// 05/05 Q1019=
METAR LFMD 110830Z AUTO VRB02KT 9999 NSC 11/07 Q1021=
METAR LFMH 110830Z 16006KT CAVOK 09/03 Q1019 NOSIG=
METAR LFOT 110830Z AUTO 30002KT 1700 BR SCT005 BKN062 BKN140 06/05
Q1018=
METAR LFPN 110830Z 25003KT 0300 R25/0600D FG NSC 05/05 Q1018 NOSIG=
METAR LFRC 110830Z AUTO 32007KT 290V350 9999 BKN020 BKN025 BKN054
07/03 Q1018=
METAR LFRG 110830Z AUTO 24007KT 200V270 0350 R12/0600U FG VV///
06/06 Q1018=
METAR LFRK 110830Z AUTO 00000KT 6000 FEW005 OVC050 06/06 Q1018=

0000083400
260
SAFR37 LFPW 110830
METAR LFAQ 110830Z AUTO 18003KT 1000 R27///// BR FEW002 BKN060
BKN180 04/04 Q1017=
METAR LFAT 110830Z AUTO 23010KT 200V260 9000 OVC009 08/07 Q1016=
METAR LFBU 110830Z AUTO 16005KT 1600 BR OVC002 08/08 Q1019=
METAR LFLN 110830Z AUTO 00000KT 4300 BR NSC 03/02 Q1019=
METAR LFPM 110830Z AUTO 19002KT 2700 BR NSC 05/04 Q1018=
METAR LFPT 110830Z AUTO 29004KT 250V310 0150 R05/0450N FG VV///
05/04 Q1018=
METAR LFRH 110830Z AUTO 06003KT 0200 0150 R25/0550U R07/0550U FG
VV/// 05/05 Q1020=
METAR LFRQ 110830Z AUTO 03006KT 9999 FEW007 BKN026 BKN049 08/07
Q1019=
METAR LFRT 110830Z AUTO 31004KT 6000 BKN003 BKN016 OVC021 07/07
Q1019=
METAR LFSD 110830Z AUTO VRB02KT 0200 R35/0600N FG VV/// 04/04 Q1018=
METAR LFTW 110830Z AUTO 11003KT 4400 -RA HZ BKN016 OVC023 10/06
Q1021=

0000187600
261
SPUS70 KWBC 110834
SPECI
KCXO 110830Z AUTO 23006KT 3SM BR OVC004 16/16 A2985 RMK AO2=
KHAO 110830Z AUTO 15003KT 5SM RA BR FEW009 OVC070 10/09 A2962 RMK
     AO2 P0011 T01000094=
KLFT 110830Z AUTO 24013G23KT 3SM +TSRA SCT006 BKN013 OVC031 19/
     A2985 RMK AO2 LTG DSNT NE AND SW TSB06RAE0754B17 P0024 $=
KLVJ 110830Z AUTO 23003KT 3SM BR BKN003 17/16 A2988 RMK AO2
     T01720161=
KMKE 110830Z 23009KT 2SM BR OVC003 03/02 A2942 RMK AO2 SFC VIS 3
     T00280022 $=
KMLI 110830Z AUTO 28007KT 6SM BR OVC006 01/00 A2950 RMK AO2
     TSNO=
KORE 110830Z AUTO 00000KT 1SM UP BR VV005 00/M01 A3013 RMK AO2
     P0001 T00001006=
KPMP 110830Z AUTO 15010KT 10SM SCT019 BKN026 21/21 A3008 RMK AO2
     $=
KPSF 110830Z AUTO 00000KT 1/2SM UP FG VV002 01/00 A3005 RMK AO2
     UPB27FZRAE24 P0000=
KSFB 110830Z AUTO 13004KT 1/4SM FG VV006 18/18 A3006 RMK AO2=
KSGH 110830Z AUTO 17010KT 4SM -RA BR BKN006 BKN020 OVC033 09/08
     A2963 RMK AO2 CIG 003V013 P0002=
KVAY 110830Z AUTO 15003KT 3SM BR BKN030 BKN039 OVC050 08/07 A3004
     RMK AO2 T00780072=
KBGM 110831Z AUTO 16009KT 2SM -RA BR BKN002 OVC008 04/04 A2990 RMK
     AO2 RAB29 P0001 $=
KIJD 110831Z AUTO 00000KT 1/4SM FG VV003 01/00 A3015 RMK AO2
     RAB0757E18 P0000 T00060000 $=
KIWI 110831Z AUTO 00000KT 8SM BKN010 BKN018 OVC024 M02/M04 A3024
     RMK AO2 CIG 008V012 T10221039=
KMSP 110831Z 28004KT 3SM BR OVC006 M02/M02 A2947 RMK AO2 TWR VIS 4
     $=
KPBG 110831Z AUTO 00000KT 8SM SCT018 M05/M06 A2999 RMK AO2=
KSGJ 110831Z 12008KT 1SM BR VV007 17/17 A3006 RMK AO2 VIS
     1/4V5=
KUZA 110831Z AUTO VRB03KT 3/4SM BR VV002 06/06 A2996 RMK AO2
     T00610056=
PATQ 110831Z AUTO 25009KT 1/2SM SN OVC006 M23/M26 A2979 RMK AO2
     TSNO SNB28 P0000=
PATQ 110831Z AUTO 25009KT 1/2SM SN OVC006 M23/M26 A2979 RMK AO2
     TSNO SNB28 P0000=

0000009800
262
SPUS43 KWBC 110834
SPECI
KMLI 110830Z AUTO 28007KT 6SM BR OVC006 01/00 A2950=

0000009300
263
SPUS43 KWBC 110834
SPECI
KMKE 110830Z 23009KT 2SM BR OVC003 03/02 A2942=

0000011900
264
SAMG20 FMMI 110830
METAR  FMMI 110830Z 11005KT 9999  SCTT017CB  SCT023 BKN230 27/22
Q1021
NOSIG=

0000010000
265
SAUK38 EGGY 110820 RRA
METAR EGPU 110820Z AUTO 30015KT 9999 NCD 04/01 Q1011 RERA=

0000079400
266
SASP32 LEMM 110830
METAR LEAS 110830Z VRB02KT 9999 FEW020 BKN029 10/09 Q1018 NOSIG=
METAR LEBB 110830Z 00000KT 9999 FEW030 BKN037 09/08 Q1019 NOSIG=
METAR LECO 110830Z VRB02KT 0300 R21/0325N R03/0275N FG VV001
02/02 Q1018=
METAR LEGE 110830Z 00000KT 9000 SCT016 BKN028 09/08 Q1020=
METAR LEST 110830Z 00000KT 0500 R17/0350N R35/0700U FG BKN004
02/02 Q1018 NOSIG=
METAR LEZG 110830Z 27007KT 2000 BR VV005 05/05 Q1020=
METAR LESO 110830Z 00000KT 9999 FEW040 09/07 Q1019=
METAR LEVT 110830Z 00000KT 3000 BR BKN008 02/02 Q1019=
METAR LERS 110830Z 01005KT 9999 BKN021 12/09 Q1019=
METAR LEMH 110830Z 11004KT 080V140 5000 BR BKN006 14/13 Q1019=
METAR LEAM 110830Z 32004KT 9999 FEW020 12/09 Q1018=
METAR LEGR 110830Z 00000KT 8000 FEW030 BKN085 07/07 Q1018=

0000026100
267
SATS32 DTTA 110830
METAR DTMB 110830Z 12006KT CAVOK 14/08 Q1020 NOSIG=
METAR DTNH 110830Z 00000KT CAVOK 09/06 Q1020=
METAR DTTA 110830Z 00000KT 8000 FEW023 SCT100 12/08 Q1019 NOSIG=
METAR DTTJ 110830Z 19004KT 8000 NSC 16/09 Q1021 NOSIG=

0000039500
268
SACR31 LEMM 110830
METAR GCLP 110830Z 34005KT 9999 FEW023 15/11 Q1018 NOSIG=
METAR GCXO 110830Z VRB02KT 9999 FEW010 11/08 Q1019 NOSIG=
METAR GCTS 110830Z 03006KT 340V050 9999 SCT025 15/12 Q1018 NOSIG=
METAR GCRR 110830Z 31003G15KT 270V340 CAVOK 13/10 Q1018=
METAR GCFV 110830Z 29003G13KT 240V320 9999 FEW020 12/09 Q1018=
METAR GCLA 110830Z 29007KT CAVOK 16/04 Q1017=

0000057200
269
SASP31 LEMM 110830
METAR LEMD 110830Z 36002KT CAVOK 05/05 Q1018 NOSIG=
METAR LEBL 110830Z 32006KT 280V350 5000 BR FEW018 BKN028 11/07
Q1019 NOSIG=
METAR LEPA 110830Z 36003KT 330V030 9999 3000E FEW003 10/09 Q1018
NOSIG=
METAR LEZL 110830Z VRB01KT 8000 NSC 09/09 Q1018 NOSIG=
METAR COR LEMG 110830Z 30003KT 7000 SCT020 11/10 Q1018 NOSIG=
METAR LEVC 110830Z VRB02KT 6000 BKN025 09/07 Q1019 NOSIG=
METAR LEAL 110830Z 27003KT 9000 FEW060 11/09 Q1019 NOSIG=
METAR LEIB 110830Z 00000KT 9999 FEW010 11/11 Q1018 NOSIG=
METAR LEVX 110830Z NIL=

0000019200
270
SASP33 LEMM 110830
METAR LEVD 110830Z 10003KT 3000 VCFG NSC 00/00 Q1017=
METAR LEVS 110830Z 00000KT 6000 NSC 05/05 Q1018=
METAR LESA 110830Z 00000KT CAVOK M02/M02 Q1017=

0000031200
271
SASP34 LEMM 110830
METAR LEDA 110830Z NIL=
METAR LEJR 110830Z VRB01KT CAVOK 11/11 Q1017=
METAR LELL 110830Z 00000KT 4000 BR OVC020 10/08 Q1019=
METAR LEPP 110830Z 00000KT 0050 R33/0275N R15/0275N FG VV001
03/03 Q1019=
METAR LEXJ 110830Z VRB02KT 7000 FEW008 BKN014 OVC046 11/10 Q1019=

0000009600
272
SASP39 LEMM 110830
METAR LETL 110830Z AUTO 16003KT 0200 FG VV002 00/00 Q1019=

0000010300
273
SAUK36 EGGY 110820 CCB
METAR COR EGSD 110820Z 26010KT 9999 SCT004 07/07 Q1012 NOSIG=

0000026100
274
SATS40 DTTA 110830
METAR DTMB 110830Z 12006KT CAVOK 14/08 Q1020 NOSIG=
METAR DTNH 110830Z 00000KT CAVOK 09/06 Q1020=
METAR DTTA 110830Z 00000KT 8000 FEW023 SCT100 12/08 Q1019 NOSIG=
METAR DTTJ 110830Z 19004KT 8000 NSC 16/09 Q1021 NOSIG=

00000000