0000050700
875
UDAF01 FAPR 111718
AMDAR 1117
LVR AFZA61 2517S 03229W 111608 F400 MS592 256/005 TB0 S031 333 F/// VG000=
LVR AFZA61 2510S 03328W 111615 F400 MS585 351/006 TB0 S031 333 F/// VG000=
LVR AFZA61 2504S 03427W 111622 F400 MS595 025/007 TB0 S031 333 F/// VG000=
LVR AFZA61 2456S 03526W 111629 F400 MS592 025/009 TB0 S031 333 F/// VG000=
LVR AFZA61 2446S 03624W 111636 F400 MS587 006/009 TB0 S031 333 F/// VG000=
LVR AFZA61 2437S 03723W 111643 F400 MS590 033/013 TB0 S031 333 F/// VG000=
0000066100
876
UDAF01 FAPR 111715
AMDAR 1117
LVR AFZA60 2219S 02152E 111625 F360 MS445 284/013 TB0 S031 333 F/// VG000=
LVR AFZA60 2147S 02105E 111633 F360 MS445 311/012 TB0 S031 333 F/// VG000=
LVR AFZA60 2111S 02020E 111640 F360 MS450 325/006 TB0 S031 333 F/// VG000=
LVR AFZA60 2035S 01936E 111647 F360 MS455 296/004 TB0 S031 333 F/// VG000=
LVR AFZA60 1959S 01852E 111654 F360 MS446 052/007 TB0 S031 333 F/// VG000=
LVR AFZA60 1922S 01808E 111701 F360 MS450 057/007 TB0 S031 333 F/// VG000=
LVR AFZA60 1845S 01724E 111708 F360 MS448 088/010 TB0 S031 333 F/// VG000=
LVR AFZA60 1807S 01640E 111715 F360 MS451 079/013 TB0 S031 333 F/// VG000=
0000010300
877
SACG20 FCBB 110800
METAR FCBB 110800Z 26003KT 220V290 8000 FEW010 23/22 Q1015 NOSIG=

0000023300
878
SAXX69 EGRR 110800
METAR EQBH 110750Z 09004KT 9999 FEW160 BKN220 06/01 Q1027 BLU NOSIG
      RMK A3033 PA2538 DA2101=
METAR KQSA 110758Z 05003KT 9999 CLR 04/M11 A3034 RMK WND DATA ESTMD
      ALSTG/SLP ESTMD=

0000010600
879
SACN44 CWAO 110800
METAR CYPE 110800Z 24002KT 15SM OVC210 M14/M15 A2938 RMK CS2 SLP996=

0000011100
880
SACN31 CWAO 110800
METAR CYFB 110800Z 00000KT 10SM OVC035 M24/M27 A2960 RMK SC8 IC
SLP027=

0000010300
881
SARM31 LUKK 110800
METAR LUKK 110800Z 28011KT CAVOK 07/M02 Q1019 R26/CLRD65
NOSIG=

0000044500
882
SARH31 LDZM 110800
METAR LDSP 110800Z VRB02KT 9999 FEW060 10/09 Q1024 NOSIG =
METAR LDPL 110800Z VRB01KT 8000 FEW038 BKN055 10/09 Q1022 NOSIG =
METAR LDDU 110800Z 08008KT 9999 FEW060 10/06 Q1024 NOSIG =
METAR LDZA 110800Z NIL=
METAR LDZD 110800Z 10003KT 070V130 9999 SCT023 BKN060 10/09 Q1023
NOSIG =
METAR LDRI 110800Z 12002KT 9999 FEW016 SCT030 BKN043 11/10 Q1022=
METAR LDOS 110800Z 17007KT CAVOK 05/04 Q1022=

0000014100
883
SASR31 WSSL 110800
METAR WSSL 110800Z 02013KT 9999 FEW013 FEW016TCU FEW020CB SCT300
29/26 Q1008 RESHRA RMK 0730Z Q1008 =

0000013000
884
SARH31 LDZM 110800 RRA
METAR LDZA 110800Z 00000KT 0300 R05/0500V0750N R23/P2000N FG VV002
04/04 Q1021 NOSIG =

0000012100
885
SAID31 WIII 110800
METAR WIII 110800Z 32011KT 9999 SCT018CB SCT020 31/24 Q1006 RMK CB TO
S SW AND N=

0000008700
886
SAAG41 SADF 110800
METAR SADF 110800Z  16016G29KT CAVOK 19/11 Q1013=

0000013900
887
SAZS31 NSTU 110754
METAR NSTU 110751Z 02005KT 10SM SCT017TCU SCT045 OVC100 28/25 A2973
RMK TCU ALQDS SLP068 T02780246=

0000010700
888
SACN48 CWAO 110800
METAR CYOY 110800Z AUTO 05003KT 020V080 3SM M06/M07 A3010 RMK SLP208=

0000008400
889
SARM31 LUKK 110800
METAR LUBL 110800Z 27014KT CAVOK 05/M03 Q1018=

0000010000
890
SPAU32 YBBN 110800
SPECI YBMA 110800Z AUTO 11019G29KT 9999 // SCT110 33/16 Q1008=

0000010000
891
SPAU32 AMMC 110800
SPECI YBMA 110800Z AUTO 11019G29KT 9999 // SCT110 33/16 Q1008=

0000009500
892
SAVN22 SVMI 110800
METAR SVMI 110800Z 00000KT 9999 FEW016 22/18 Q1013 NOSIG=

0000010600
893
SACN41 CWAO 110800
METAR CYQH 110800Z 00000KT 10SM FEW030 M12/M14 A2913 RMK SC1 SLP912=

0000009900
894
SACN47 CWAO 110800
METAR CYVP 110800Z 25009KT 15SM SKC M24/M28 A2987 RMK SLP119=

00000000