0000010500
615
SAFK41 EGYP 110750
METAR EGYP 110750Z 22021KT 9999 -RA FEW016 BKN029 03/M02 Q1005 BLU=

0000009500
616
SACV20 GVBA 110800
METAR GVBA 110800Z 00000KT 9999 BKN015 17/14 Q1016 NOSIG=

0000062500
617
SAGR32 LGAT 110750
METAR LGAL 110750Z VRB03KT CAVOK 07/04 Q1025=
METAR LGEL 110750Z 00000KT 9999 FEW025 13/08 Q1023=
METAR LGIO 110750Z VRB01KT 9999 SCT035 BKN080 08/06 Q1024=
METAR LGKV 110750Z 00000KT 9000 FEW010 07/07 Q1024=
METAR LGMT 110750Z 00000KT 9999 SCT030 13/09 Q1023=
METAR LGPZ 110750Z 07007KT 9999 FEW020 BKN080 13/10 Q1024 NOSIG=
METAR LGRX 110750Z 00000KT 9999 SCT070 13/09 Q1024 NOSIG=
METAR LGSK 110750Z 00000KT 9999 SCT016 12/09 Q1023=
METAR LGSR 110750Z 25006KT 9999 FEW025 SCT080 BKN180 17/12 Q1022
 NOSIG=
METAR LGZA 110750Z 00000KT 9999 SCT018 BKN080 12/10 Q1023=

0000009800
618
SABZ20 SBEG 110755
METAR SBEG 110800Z 09007KT 9999 SCT010 BKN025 22/20
Q1010=

0000015100
619
SAMX43 MMMZ 110800
METAR MMMZ 110743Z 01007KT 10SM  SKC 11/08 A2997=
METAR MMTJ 110740Z 13003KT 6SM  SKC 13/02 A3013 RMK ST W HZY=

0000011200
620
FCQB31 LQBK 110800
TAF LQBK 110800Z 1109/1118 VRB02KT 2000 BR NSC BECMG 1110/1112 6000
NSW=

0000030800
621
SAMX41 MMMX 110755
METAR MMMX 110753Z 04003KT 10SM SKC 12/05 A3031 NOSIG RMK HZY AC=
METAR MMAA 110745Z 00000KT 8SM SKC 24/20 A2991=
METAR MMQT 110745Z 00000KT 6SM SCT020 BKN090 OVC250 13/09 A3028
      RMK 8/538 HZY=
METAR MMTO 110745Z 00000KT 5SM SCT015 04/02 A3039 RMK 8/400 HZ=

0000026800
622
SAMX31 KWBC 110745 RRB
METAR
MMCZ 110740Z 13005KT 7SM FEW080 21/21 A2997 RMK 8/060 SC=
MMMD 110745Z 10004KT 7SM SKC 20/20 A2995=
MMTP 110742Z 00000KT 8SM SCT080 23/21 A2990 RMK 8/030=
MMUN 110745Z 14007KT 7SM FEW015TCU 25/23 A2998 RMK 8/200=

0000053200
623
SAGR33 LGAT 110750
METAR LGBL 110750Z 26004KT 9999 FEW018 09/06 Q1023 NOSIG=
METAR LGHI 110750Z VRB01KT 9999 FEW020 BKN060 14/12 Q1022=
METAR LGKC 110750Z NIL=
METAR LGKF 110750Z 00000KT 9999 FEW015 SCT020 17/09 Q1023=
METAR LGKP 110750Z NIL=
METAR LGKZ 110750Z NIL=
METAR LGMK 110750Z 02011KT 9999 FEW018 SCT180 14/10 Q1022=
METAR LGNX 110750Z 00000KT 9999 SCT015 BKN180 14/12 Q1022=
METAR LGPA 110750Z 00000KT 9999 FEW016 16/13 Q1022=
METAR LGSO 110750Z 36006KT 9999 FEW015 SCT180 15/12 Q1022=

0000010200
624
SACV20 GVSV 110800
METAR GVSV 110800Z 07008KT 9999 SCT023 BKN200 20/15 Q1016 NOSIG=

0000036700
625
SAFI34 EFHK 110750
EFET 110750Z AUTO 00000KT CAVOK M32/M35 Q1014=
EFIV 110750Z 23004KT 9999 FEW003 OVC007 M28/M32 Q1017=
EFKE 110750Z AUTO 02011KT CAVOK M16/M20 Q1010=
EFKI 110750Z 03008KT 360V060 9999 SCT010 SCT070 M15/M17 Q1004=
EFKS 110750Z AUTO 04006KT 340V110 CAVOK M17/M21 Q1007=
EFKT 110750Z 01003KT CAVOK M22/M25 Q1014 R16/////95=

0000011300
626
SARH31 LDZM 110700 CCA
METAR COR LDRI 110700Z 14002KT 9999 SCT016 BKN033 OVC075 10/10
Q1021=

0000008900
627
SABZ21 SBNT 110800
METAR SBNT 110800Z 13006KT 9999 SCT022 25/21 Q1012=

0000009600
628
SACV20 GVNP 110800
METAR GVNP 110800Z /////KT 9999 BKN020  XX/XX Q//// NOSIG=

0000019600
629
FTSP33 LEMM 110500 AAC
TAF AMD LEZG 110754Z 1107/1206 VRB04KT 2000 BR BKN002 TX08/1115Z
TN03/1206Z PROB40 TEMPO 1107/1112 0500 FG VV003 PROB40 TEMPO
1118/1206 0500 FG VV002=

0000008900
630
SAMA21 FIMP 110800
METAR FIMR 110800Z 10017KT 9999 BKN017 30/24 Q1016=

0000009600
631
SAUK33 EGGY 110750 RRA
METAR EGHI 110750Z 30003KT 250V330 CAVOK 05/03 Q1017 =

0000039600
632
SASW39 LSSW 110750 RRA
METAR LSMA 110750Z AUTO VRB02KT 0550NDV R01/0900V1700D R19/0650N FG
           VV001 02/02 Q1018 RMK RED=
METAR LSME 110750Z AUTO VRB02KT 0450NDV R04/P2000N R22/0550N FG
           OVC002 02/02 Q1018 RMK RED=
METAR LSMM 110750Z AUTO 00000KT 5000NDV OVC110 01/00 Q1018 RMK GRN=
METAR LSMP 110750Z AUTO 22001KT 5000NDV BKN002 01/00 Q1019 RMK AMB=

0000035100
633
SANL31 EHDB 110755
METAR EHAM 110755Z 21014KT 4000 BR FEW006 SCT007 BKN008 05/04 Q1012
NOSIG=
METAR EHBK 110755Z AUTO 20011KT 9999 NSC 04/03 Q1015 NOSIG=
METAR EHGG 110755Z AUTO 21015KT 3500 DZ OVC006 05/04 Q1011 NOSIG=
METAR EHRD 110755Z AUTO 20013KT 170V230 4800 -DZ SCT007 BKN008 BKN010
FEW015CB 05/04 Q1013 TEMPO 6000=

0000032200
634
FTUS71 KWBC 110757 AAA
TAF AMD
KHKY 110755Z 1108/1206 00000KT 2SM -SHRA BR SCT003 OVC006
     FM111100 17006KT 1SM SHRA BR OVC003 WS020/21040KT
     FM111800 22010KT 3SM SHRA OVC007
     FM112100 25009KT P6SM OVC015
     FM112300 27009KT P6SM BKN040
     FM120200 29009KT P6SM SCT040 BKN250=

00000000