0000110000
895
SARS32 RUMS 110700
METAR URKA 110700Z 29006MPS 9999 SCT016 06/03 Q1017 NOSIG RMK
QFE758/1011 SC070=
METAR URKK 110700Z 28009G13MPS 9999 SCT018 06/05 Q1015 NOSIG RMK
QFE758 SC065=
METAR URML 110700Z 21003MPS 6000 OVC015 05/03 Q1011 NOSIG RMK
QFE758/1011 SC070=
METAR URMM 110700Z 32005G07MPS 9999 SCT043 BKN140 01/M01 Q1011
30CLRD70 NOSIG RMK QFE730/0974=
METAR URMN 110700Z 21004MPS 9999 SCT033 OVC100 09/M11 Q1009 NOSIG RMK
QFE720 SC07=
METAR URMO 110700Z VRB01MPS 9999 BKN150 M02/M03 Q1010 NOSIG RMK
QFE714/0952 SC070=
METAR URMT 110700Z 31012G15MPS CAVOK 05/01 Q1010 NOSIG RMK QFE719
SC0.60=
METAR URRR 110700Z 26007G11MPS 9999 BKN019 BKN100 05/03 Q1009
22290043 NOSIG=
METAR URSS 110700Z 05004MPS 9999 -SHRA FEW026 OVC053CB 06/M01 Q1019
NOSIG RMK R06/08004MPS MT OBSC QFE763 02000070 06//////=
METAR URWA 110700Z 17005G08MPS 9999 BKN036 05/02 Q1012 NOSIG RMK
QFE761/1014 SC055=
METAR URWI 110700Z 20007MPS 9999 BKN049 OVC060 04/00 Q1009 NOSIG=
METAR URWW 110700Z 23011G14MPS 9999 -SHRA SCT010 SCT020CB 03/02 Q1001
NOSIG RMK 29290060=

0000066700
896
SARS33 RUMS 110700
METAR ULLI 110700Z 32007MPS 9999 DRSN OVC012 M05/M07 Q0994 28550538
78510545 NOSIG RMK SEV ICE INC 0380-1000=
METAR UUBW 110700Z 22003MPS 9999 BKN014 03/01 Q0986 NOSIG=
METAR UUDD 110700Z 24004MPS 210V300 9999 -RA BKN008 OVC100 03/01
Q0986 32290095 82290095 NOSIG=
METAR COR UUDL 110700Z 17002MPS 6000 OVC003 02/01 Q0984 NOSIG RMK
QBB110 QFE730 23690532=
METAR UUEE 110700Z 23005MPS 9999 -DZ OVC007 02/01 Q0985 75290151
25290151 NOSIG=
METAR UUWW 110700Z 24005MPS 9999 -RA BKN007 OVC018 02/01 Q0985
24290045 NOSIG=
METAR UUMO 110700Z 24004MPS 9999 BKN009 BKN020 02/02 Q0986 NOSIG RMK
QFE724/0966 26250550=

0000035800
897
SARS31 RUMS 110700
METAR ULWC 110700Z NIL=
METAR UUBP 110700Z 27007G10MPS 9000 -RA BKN009 OVC018 02/01 Q0994
16290155 NOSIG=
METAR UUOB 110700Z 27008MPS 9999 -SHRA BKN013CB 03/02 Q0999 29290050
NOSIG=
METAR UUOK 110700Z NIL=
METAR UWGG 110700Z 20002MPS 2400 -SN OVC006 01/00 Q0987 TEMPO 1000
SHSNRA VV004 18691035 RMK QFE734=

0000058500
898
SARA36 RUMS 110700
METAR UWUU 110700Z 17004MPS 140V210 9999 OVC007 M01/M02 Q1007
14620342 TEMPO 1000 SN FZRA BKN003 RMK QBB220 QFE745/0993 MOD ICE
INC=
METAR USCC 110700Z 15004MPS 5000 BR FU BKN010 OVC070 M06/M07 Q1011
09490350 TEMPO 1100 BR FU BKN005 RMK QFE737=
METAR USNN 110700Z 04003MPS 7000 -SN OVC034 M11/M13 Q1018 NOSIG RMK
QFE760 03490536=
METAR USRR 110700Z 09003MPS 2100 -SN OVC041 M19/M21 Q1017 TEMPO 2000
SN BKN007 RMK OBST OBSC QFE758 07////35=
METAR USSS 110700Z 13003MPS 7000 BKN008 OVC067 M05/M07 Q1009 0829//37
NOSIG RMK QFE737=

0000064800
899
SARS36 RUMS 110700
METAR ULAA 110700Z 07007G11MPS 7000 -SN BLSN OVC007 M17/M19 Q1000
BECMG 2000 SN BLSN OVC005 RMK QFE749/0999 SC053=
METAR ULMM 110700Z 00000MPS 9999 FEW003 M35/M39 Q1017 NOSIG RMK
QBB100 OBST OBSC QFE756 31450239=
METAR ULOO 110700Z NIL=
METAR ULPB 110700Z AUTO 36005MPS 6000 NCD M13/M14 Q0993=
METAR UMKK 110700Z 27005G10MPS 8000 -SHRA SCT009 OVC016CB 05/03 Q1007
R24/29//60 NOSIG RMK QFE754/1006=
METAR UUOO 110700Z 24005G09MPS 9999 -RA OVC013 03/01 Q0994 NOSIG RMK
30290250=
METAR UUYY 110700Z 04004MPS 2600 -SHSN BKN007 OVC013CB M11/M12 Q1000
TEMPO 0700 +SHSN 01490535 RMK QFE741/0988=

0000170700
900
SPUS70 KWBC 110708
SPECI
PAAQ 110703Z AUTO 00000KT 2SM BR OVC003 M04/M04 A2931 RMK AO2
     TSNO=
PAOH 110703Z AUTO 00000KT 1 1/2SM BR OVC004 M02/M02 A2926 RMK AO2
     TSNO $=
KCEW 110704Z AUTO 17007KT 1 1/2SM +RA BR OVC002 19/18 A2997 RMK
     AO2 P0013 T01890183=
KFTY 110704Z 00000KT 1 1/4SM RA BR OVC003 10/09 A2994 RMK AO2
     P0003=
KJKL 110704Z AUTO VRB04KT 10SM SCT021 OVC060 13/11 A2977 RMK AO2
     T01330106=
KLSE 110704Z AUTO 00000KT 2 1/2SM BR FEW012 FEW035 OVC060 M01/M03
     A2946 RMK AO2 SNB02SNEMM P0000 T10111028 $=
KMEM 110704Z 25009G18KT 10SM SCT014 BKN060 14/12 A2969 RMK AO2
     RAE0658 P0000=
KPKD 110704Z AUTO 00000KT 1/2SM FZFG OVC021 M08/M09 A2941 RMK AO2
     T10831094 TSNO=
KYIP 110704Z AUTO 18009KT 2 1/2SM BR OVC002 06/04 A2959 RMK AO2
     TSNO=
PAMB 110704Z AUTO 04013KT 2SM BR OVC003 M06/M07 A2933 RMK AO2 TSNO
     $=
KCHO 110705Z AUTO 00000KT 4SM -RA BR OVC013 02/02 A3002 RMK AO2
     P0000 T00220017=
KECG 110705Z AUTO 15013KT 3SM RA BR SCT005 OVC015 17/17 A3006 RMK
     AO2 P0005 T01720167 TSNO=
KILN 110705Z AUTO 18007KT 3SM RA BR SCT020 BKN048 OVC060 09/08
     A2969 RMK AO2 LTG DSNT S P0006 T00890083=
KIPT 110705Z AUTO 01004KT 1SM -RA BR BKN002 BKN018 OVC025 01/00
     A3001 RMK AO2 UPE0655RAB02 P0000=
KLBX 110705Z AUTO 25006KT 6SM BR OVC004 18/18 A2988 RMK AO2 $=
KMGY 110705Z AUTO 20010KT 4SM +RA BR FEW006 BKN012 OVC040 10/09
     A2965 RMK AO2 PRESFR P0006 T01000089=
KSSF 110705Z AUTO 26006KT 2SM BR CLR 10/09 A2989 RMK AO2=
PALH 110705Z 35004KT 10SM FEW004 OVC017 M06/M07 A2934 RMK AO2=
PAOH 110705Z AUTO 00000KT 1SM BR OVC004 M02/M02 A2926 RMK AO2 TSNO
     $=

0000010100
901
SPUS31 KWBC 110708
SPECI
KMEM 110704Z 25009G18KT 10SM SCT014 BKN060 14/12 A2969=

0000011300
902
SPUS41 KWBC 110708
SPECI
KCEF 110704Z AUTO 01003KT 1SM R23/4500FT -RA BR OVC002 00/00 A3018=

0000011900
903
SPUS41 KWBC 110708
SPECI
KCEF 110706Z AUTO 01002KT 1 1/4SM R23/4500FT -DZ BR OVC002 00/00
A3018=

0000010000
904
SPUS42 KWBC 110708
SPECI
KFTY 110704Z 00000KT 1 1/4SM RA BR OVC003 10/09 A2994=

0000009500
905
SABZ43 KWBC 110700 RRA
METAR
SBJP 110700Z 21004KT 9999 FEW020 22/20 Q1012=

0000009500
906
SACA31 KWBC 110700 RRA
METAR
MKJS 110700Z 16008KT 9999 FEW024 25/19 Q1015=

0000021600
907
SACA33 KWBC 110700 RRA
METAR
TLPL 110700Z 08019KT 9999 FEW022 25/21 Q1014 NOSIG=
TTCP 110700Z 00000KT 9999 FEW015 23/19 Q1014 NOSIG=
TTPP 110700Z 00000KT 9999 FEW015 SCT040 22/21 Q1013 NOSIG=

0000006700
908
SAJP44 KWBC 110700 RRA
METAR
RJSA 110700Z NIL=

0000008900
909
SASA42 KWBC 110700 RRA
METAR
SCTC 110700Z VRB01KT CAVOK 06/05 Q1017=

0000101100
910
SAAG05 SABM 110700
METAR SAAR 110700Z  14015KT CAVOK 20/13 Q1011=
METAR SABE 110700Z  16023G35KT CAVOK 20/08 Q1012=
METAR SACO 110700Z  16012KT 9999  SCT016 BKN100
22/15 Q1017=
METAR SADF 110700Z  16012KT CAVOK 20/11 Q1012=
METAR SAEZ 110700Z 17013KT 140V200 CAVOK 17/08 Q1013=
METAR SAME 110700Z  18005KT CAVOK 24/04 Q1015=
METAR SANT 110700Z NIL=
METAR SAOC 110700Z  27005KT 9000  NSC  17/14 Q1014=
METAR SARC 110700Z  05004KT 9999  FEW050CB SCT100
BKN200  28/24 Q1007=
METAR SARE 110700Z NIL=
METAR SARF 110700Z 36006KT CAVOK 27/22 Q1007=
METAR SARI 110700Z  05003KT CAVOK 23/23 Q1011=
METAR SARL 110700Z NIL=
METAR SARP 110700Z  09004KT CAVOK 26/21 Q1010=
METAR SASA 110700Z  27004KT CAVOK 22/15 Q1012=
METAR SASJ 110700Z NIL=
METAR SAVC 110700Z NIL=
METAR SAWE 110700Z NIL=
METAR SAWG 110700Z  34007KT CAVOK 09/06 Q1011=
METAR SAWH 110700Z NIL=
METAR SAZM 110700Z NIL=
METAR SAZN 110700Z NIL=
METAR SAZS 110700Z  18004KT CAVOK 10/05 Q1021=

0000041500
911
FTUS41 KWBC 110709 AAA
TAF AMD
KBTV 110708Z 1107/1206 17009KT P6SM BKN015 OVC022
      TEMPO 1107/1109 SCT015 OVC020
     FM110900 17012KT P6SM VCSH BKN015 OVC020
      TEMPO 1109/1111 4SM -SHRA BR
     FM111100 17014G24KT 3SM -RA BR OVC011 WS020/18050KT
     FM111500 17015G25KT 4SM -RA BR BKN008 OVC010 WS020/18050KT
     FM111900 18013G23KT 3SM RA BR SCT005 OVC008 WS020/19050KT=

0000030900
912
FTUS72 KWBC 110709
TAF
TAF KNGP 1107/1207 23003KT 8000 BR SCT250 QNH2987INS
      TEMPO 1107/1113 0800 FG OVC005
     FM111300 33005KT 9000 BR SCT005 QNH3000INS
     FM111500 36011KT 9999 FEW250 QNH3011INS AUTOMATED SENSOR
      METWATCH 1107 TIL 1221 T13/1113Z T22/1121Z FN00088=

0000041500
913
FTUS71 KWBC 110709 AAA
TAF AMD
KBTV 110708Z 1107/1206 17009KT P6SM BKN015 OVC022
      TEMPO 1107/1109 SCT015 OVC020
     FM110900 17012KT P6SM VCSH BKN015 OVC020
      TEMPO 1109/1111 4SM -SHRA BR
     FM111100 17014G24KT 3SM -RA BR OVC011 WS020/18050KT
     FM111500 17015G25KT 4SM -RA BR BKN008 OVC010 WS020/18050KT
     FM111900 18013G23KT 3SM RA BR SCT005 OVC008 WS020/19050KT=

0000032900
914
FTUS73 KWBC 110709 AAA
TAF AMD
KEVV 110705Z 1107/1206 18006KT P6SM -RA OVC060
      TEMPO 1107/1110 4SM -RA BR OVC013
     FM111000 24010KT P6SM BKN020
     FM112100 26010KT P6SM SKC=
KOWB 110705Z 1107/1206 17012KT P6SM -RA OVC040
     FM111100 24010KT P6SM BKN020
     FM112200 26010KT P6SM SKC=

00000000