0000010400
855
SPUS41 KWBC 110839
SPECI
KLWM 110835Z AUTO 07004KT 3/4SM -RA BR OVC005 02/00 A3019=

0000010200
856
SPUS42 KWBC 110839
SPECI
KBPT 110835Z AUTO 22005KT 1 3/4SM BR OVC006 17/17 A2985=

0000009900
857
SPUS42 KWBC 110839
SPECI
KGLS 110835Z AUTO 23007KT 3/4SM BR VV002 17/17 A2988=

0000011000
858
SPUS43 KWBC 110839
SPECI
KPIA 110835Z 26005KT 1/2SM R13/3500V5500FT FG VV002 03/03 A2948=

0000011300
859
SPUS44 KWBC 110839
SPECI
KBLI 110835Z AUTO 15026G44KT 10SM BKN024 BKN060 OVC080 12/07 A2935=

0000014000
860
SAAK31 KWBC 110800 RRC
METAR
PAVD 110836Z 10SM OVC100 M08/M08 A2924=
PAWG 110836Z AUTO 03007KT 10SM CLR 02/M03 A2907=

0000012400
861
SAAK32 KWBC 110800 RRB
METAR
PADK 110836Z AUTO 23026G38KT 10SM FEW015 BKN024 OVC065 03/00
     A2867=

0000011300
862
SPCN43 CWAO 110838
SPECI CWHN 110838Z AUTO 25007KT 9SM OVC003 M09/M10 A2950 RMK ICG PAST
HR=

0000024900
863
SAAO32 GOOY 110830
METAR GABS 110830Z 07007KT 6000  NSC 25/05 Q1015 NOSIG=
METAR GAGO 110830Z NIL=
METAR GAKY 110830Z NIL=
METAR GAKL 110830Z NIL=
METAR GAMB 110830Z NIL=
METAR GANR 110830Z NIL=
METAR GATB 110830Z NIL=

0000021600
864
SAAO31 GOOY 110830
METAR FHAW 110830Z NIL=
METAR GGOV 110830Z NIL=
METAR DIAP 110830Z 03003KT 360V070 7000 SCT011 BKN100 27/25 Q1012
NOSIG=
METAR DIBK 110830Z NIL=
METAR DIYO 110830Z NIL=

0000024500
865
SAAO30 GOOY 110830
METAR GOOY 110830Z 02006KT CAVOK 19/15 Q1014 NOSIG=
METAR GOGS 110830Z NIL=
METAR GOOK 110830Z NIL=
METAR GOSS 110830Z NIL=
METAR GOTK 110830Z NIL=
METAR GOTT 110830Z NIL=
METAR GOGG 110830Z NIL=

0000029400
866
SAAO34 GOOY 110830
METAR GBYD 110830Z NIL=
METAR GFLL 110830Z 03003KT 4000 BR SCT012 23/22 Q1012=
METAR GLRB 110830Z 00000KT 9000 BKN013  25/24 Q1012 NOSIG
RMK BRVC=
METAR GVAC 110830Z NIL=
METAR GVBA 110830Z NIL=
METAR GVNP 110830Z NIL=
METAR GVSV 110830Z NIL=

0000030000
867
SAAO33 GOOY 110830
METAR GQPP 110830Z NIL=
METAR GQNN 110830Z 02007KT 8000 NSC 14/14 Q1016 NOSIG=
METAR GQPA 110830Z NIL=
METAR GQNI 110830Z NIL=
METAR GQPZ 110830Z NIL=
METAR GUCY 110830Z NIL=
METAR GUXN 110830Z NIL=
METAR GULB 110830Z NIL=
METAR GUNZ 110830Z NIL=

0000065900
868
SAEE31 LOWM 110830
METAR UACK 110830Z 18006MPS 9999 DRSN NSC M07/M09 Q1019
R20/490539 NOSIG RMK QFE740/0987=
METAR UACP 110830Z 17004MPS 9000 -SN SCT033 OVC100 M06/M07
Q1018 R23/4/3537 NOSIG RMK QFE751/1002=
METAR UAII 110830Z 11002MPS 060V180 CAVOK 07/M10 Q1023
R10/0///70 NOSIG RMK QFE731/0975=
METAR UADD 110830Z 19004MPS 9999 NSC 03/M08 Q1021 R13/0///65
NOSIG RMK QFE709/0945=
METAR UASK 110830Z 15005MPS 9999 FEW083 BKN230 M02/M13 Q1032
R12/820350 NOSIG RMK QFE748/0998=
METAR UASP 110830Z NIL=
METAR UAOO 110830Z 22005MPS 5000 BR BKN330 M00/M04 Q1020
R24/CLRD70 NOSIG RMK QFE753/1004=
METAR UAKD 110830Z NIL=

0000028400
869
SAIO31 KWBC 110800 RRI
METAR
WBGG 110830Z 01008KT 300V050 9999 FEW015CB SCT020 BKN300 28/23
     Q1009 NOSIG=
WBKK 110830Z 18001KT 9999 FEW014 SCT130 OVC260 28/24 Q1009
     NOSIG=
WBSB 110830Z 29008KT 9999 SCT015 FEW016CB BKN280 29/25 Q1009
     NOSIG=

0000041200
870
SAID31 WIII 110830
METAR WIMM 110830Z 32011KT 6000 SCT017 28/25 Q1009= 
METAR WADD 110830Z VRB02KT 9999 SCT017 29/24 Q1007 NOSIG= 
METAR WAAA 110830Z 33005KT 9999 FEW019 31/24 Q1008= 
METAR WIII 110830Z 32009KT 9999 SCT018CB SCT020 30/24 Q1007 RMK CB TO
NE S AND SW= 
METAR WARR 110830Z 07006KT 9000 FEW020CB FEW020 29/23 Q1007= 
METAR WIHH NIL=
METAR WABB NIL=
METAR WIDD NIL=

0000041200
871
SAPO31 LPMG 110830
METAR LPBJ 110830Z NIL=
METAR LPFR 110830Z 06007KT 9999 BKN013 13/10 Q1017=
METAR LPMA 110830Z 28005KT 9999 FEW015 14/11 Q1017 RS25005KT
0529006KT 2328005KT=
METAR LPPR 110830Z 11005KT 030V150 0500 R17/0400V0550D FG OVC002
06/06 Q1017=
METAR LPPS 110830Z 12002KT 9999 FEW015 13/12 Q1017=
METAR LPPT 110830Z 06004KT 020V120 0200 R21/0275 FG VV001 09/08
Q1017=

0000006700
872
SANT31 KWBC 110800 RRD
METAR
GVAC 110830Z NIL=

0000033200
873
SAPO32 LPMG 110830
METAR LPAZ 110830Z 27021KT 9999 -SHRA SCT004 BKN007 BKN014 15/14
Q1006=
METAR LPFL 110830Z 27011G21KT 230V360 9999 VCSH BKN020 09/01 Q1009=
METAR LPHR 110830Z 31018KT 9999 FEW020 SCT050 11/06 Q1008=
METAR LPLA 110830Z NIL=
METAR LPPD 110830Z 30021G31KT 9999 FEW012 SCT040 13/12 Q1005=

0000036000
874
SAID32 WIII 110830
METAR WIBB 110830Z 34007KT 9999 SCT017 30/23 Q1006 NOSIG= 
METAR WIPT 110830Z 27004KT 240V300 9999 SCT020 30/23 Q1008= 
METAR WIOO 110830Z 10003KT 9999 SCT011 30/24 Q1007 = 
METAR WIPP 110830Z 00000KT 9999 SCT008 26/25 Q1008= 
METAR WAMM NIL=
METAR WIDN NIL=
METAR WAOO NIL=
METAR WALL NIL=
METAR WADL NIL=

00000000