0000011700
855
SAMS34 WMKK 110700 RRA
METAR WBKT 110700Z 04004KT 010V120 9999 SCT013 SCT030 OVC140 29/25
Q1009=

0000004100
856
SACZ41 LKPW 110700
NIL

0000080100
857
SAEE31 LOWM 110700
METAR UACK 110700Z 20005MPS 3700 SHSN DRSN OVC041CB M08/M09
Q1019 R20/452042 TEMPO 0800 SHSN BLSN BKN007CB RMK
QFE740/0987=
METAR UACP 110700Z 18005MPS 6000 -SN SCT031 OVC100 M06/M08
Q1018 R23/4/3537 NOSIG RMK QFE751/1002=
METAR UAII 110700Z 15004MPS CAVOK 04/M08 Q1023 R10/0///70
NOSIG RMK QFE732/0976=
METAR UADD 110700Z 20005MPS 9999 NSC 01/M09 Q1022 NOSIG RMK
QFE709/0945=
METAR UASK 110700Z VRB01MPS 9999 SCT098 BKN230 M02/M13 Q1033
R12/820350 NOSIG RMK QFE749/0999=
METAR UASP 110700Z 17005MPS CAVOK M09/M14 Q1029 R21/450155
NOSIG RMK QFE760/1014=
METAR UAOO 110700Z 20005MPS 4300 BR BKN330 M02/M05 Q1021
R24/3///55 NOSIG RMK QFE754/1005=
METAR UAKD 110700Z 13006MPS 7000 OVC100 M08/M12
Q1020 R2289//45 NOSIG RMK QFE731/0975=

0000016900
858
SAOS33 LOWM 110700
METAR LOAN 110700Z NIL=
METAR LOAV 110700Z NIL=
METAR LOIH 110700Z NIL=
METAR LOWZ 110700Z 00000KT 1000 FG VV005 01/01 Q1020=

0000012100
859
FTRH33 LDZM 110500 RRA
TAF LDRI 110709Z 1107/1206 VRB02KT 9999 SCT015 BKN030 TX12/1113ZZ
TN07/1204Z=

0000009900
860
SPCN51 CWAO 110709
SPECI CWUW 110709Z AUTO 20004KT 9SM BKN024 OVC042 M27/ A2920=

0000010700
861
SASP40 LEMM 110700 RRA
METAR LEGA 110700Z VRB02KT 7000 FEW005 SCT030 BKN083 05/05 Q1017=

0000029300
862
SAIO31 KWBC 110700 RRB
METAR
WBGG 110700Z 35009KT 300V040 9999 FEW015CB SCT020 BKN150 28/23
     Q1009 NOSIG=
WBKK 110700Z 15003KT 9999 FEW013 FEW017CB BKN130 OVC260 27/24
     Q1009 NOSIG=
WBSB 110700Z 32008KT 9999 SCT016 FEW017CB BKN280 30/25 Q1010
     NOSIG=

0000052200
863
SAID31 WIII 110700
METAR WIII 110700Z 35007KT 9999 FEW018CB SCT020 31/24 Q1007 RMK CB TO
S AND SW= 
METAR WIHH 110700Z 33007KT 6000 FEW016CB SCT017 31/23 QNH 1008 NOSIG=
METAR WIMM 110700Z 31008KT 6000 BKN017 28/24 Q1009= 
METAR WARR 110700Z 07006KT 9999 FEW020CB FEW020 29/23 Q1007= 
METAR WADD 110700Z 32007KT 270V360 9999 TS FEW015CB SCT017 28/24
Q1008 NOSIG= 
METAR WAAA 110700Z 29006KT 9999 FEW019 31/24 Q1009= 
METAR WIDD 110700Z 05012KT 9999 SCT014 30/24 Q1009= 
METAR WABB NIL=

0000076500
864
SANM40 FYWW 110700
METAR FYGB 110700Z AUTO 10004KT //// // ////// 26/06 Q1022=
METAR FYGF 110700Z 24008KT CAVOK 25/06 Q1021=
METAR FYGO 110700Z AUTO 02007KT //// // ////// 20/13 Q1015=
METAR FYKT 110700Z 00000KT CAVOK 25/07 Q1019=
METAR COR FYLZ 110700Z AUTO 19011KT //// // ////// 18/08 Q1012=
METAR COR FYML 110700Z AUTO 11009KT //// // ////// 28/05 Q1021=
METAR FYOA 110700Z 25003KT CAVOK 24/08 Q1017=
METAR FYOO 110700Z AUTO 18004KT //// // ////// 26/06 Q1017=
METAR FYOW 110700Z AUTO 17005KT //// // ////// 26/00 Q1019=
METAR FYRN 110700Z 28006KT CAVOK 24/17 Q1018=
METAR FYWB 110700Z AUTO 01007KT //// // ////// 18/15 Q1015=
METAR FYWE 110700Z 15015KT CAVOK 24/05 Q1023=
METAR FYWH 110700Z 13008KT CAVOK 24/05 Q1023=

0000040300
865
SAPO31 LPMG 110700
METAR LPBJ 110700Z VRB01KT 5000 BCFG FEW001 05/04 Q1016=
METAR LPFR 110700Z 06005KT 9999 BKN025 12/09 Q1016=
METAR LPMA 110700Z 32003KT 9999 FEW015 13/11 Q1016 RS31002KT
0534005KT 2331003KT=
METAR LPPR 110700Z 13006KT 7000 FEW001 SCT004 06/06 Q1016=
METAR LPPS 110700Z VRB01KT 9999 FEW015 12/11 Q1016=
METAR LPPT 110700Z 34006KT 9999 FEW005 09/08 Q1016=

0000033100
866
SAPO32 LPMG 110700
METAR LPAZ 110700Z 24016KT 9999 BKN007 16/15 Q1005=
METAR LPFL 110700Z NIL=
METAR LPHR 110700Z 30017KT 9999 FEW020 SCT050 12/06 Q1006=
METAR LPLA 110700Z 32022G32KT 9000 -RA FEW013 SCT018 BKN034 12/10
      Q1003 RESHRA=
METAR LPPD 110700Z 26016KT 8000 -RA FEW014 BKN040 14/13 Q1004=

0000012300
867
SACN62 CYBK 110700
METAR CYBK 110700Z 16009KT 15SM -SN FEW007 BKN025 M29/M32 A2968 RMK
 SC1SC4 SLP054=

0000043100
868
SAAO33 DRRN 110700
METAR DBBB 110700Z VRB01KT 2500  BR SCT008 BKN200 25/25 Q1011 TEMPO
1400=
METAR DFFD 110700Z NIL=
METAR DGAA 110700Z 27004KT 8000 FEW048 26/24 Q1011 NOSIG=
METAR DNKN 110700Z NIL=
METAR DNMM 110700Z NIL=
METAR DRRN 110700Z 08010KT 2000 BLDU NSC 19/M01 Q1016 NOSIG=
METAR DXXX 110700Z 01001KT 1200 R22/0900 R04/1200 BR SCT010 26/25
Q1012 TEMPO 2000 BR=
METAR FTTJ 110700Z NIL=

0000031500
869
FTXX69 EGRR 110600 RRA
TAF KQIR 1107/1213 19012KT 9000 -SHRA SCT015 OVC030 QNH3006INS
     BECMG 1110/1111 23012KT 9999 NSW SCT040 BKN080 QNH3010INS
     BECMG 1121/1122 31010G15KT 8000 BR FEW040 QNH3014INS
     BECMG 1205/1206 33010G15KT 9999 NSW SKC QNH3016INS T19/1111Z
     T15/1203Z=

0000023300
870
FTUK32 EGGY 110500 AAA
TAF AMD EGGP 110709Z 1107/1206 27010KT 9999 FEW030 TEMPO 1107/1109
    7000 SHRA BKN014 PROB40 TEMPO 1107/1109 4000 TSRA BKN009
    BKN030CB BECMG 1116/1120 17005KT PROB30 1118/1206 8000=

0000124700
871
SAAU32 YBBN 110700
METAR YAMB 110700Z AUTO 07014KT 9999 // SCT059 29/15 Q1014=
METAR YMAV 110700Z AUTO 19018KT 9999 // SCT020 20/13 Q1019=
METAR YBRM 110700Z 28011KT 9999 FEW022 SCT400 33/24 Q1007=
METAR YCIN 110700Z AUTO 25009KT //// // NCD 39/20 Q1005=
METAR YSDU 110700Z AUTO 17006KT 9999 // NCD 33/11 Q1014=
METAR YFRT 110700Z AUTO 13015KT //// // ////// 33/08 Q1018=
METAR YGEL 110700Z 21018KT CAVOK 39/09 Q1006=
METAR YPGV 110700Z 10013KT 9999 FEW020 SCT270 BKN320 28/24 Q1004
RMK SHRA TO NW=
METAR YBHM 110700Z AUTO 11023KT 9999 // ////// 27/22 Q1011=
METAR YMHB 110700Z 16006KT 9999 FEW050 25/06 Q1011=
METAR YPKG 110700Z AUTO 09009KT 9999 // NCD 36/04 Q1016=
METAR YMLT 110700Z AUTO 35016KT 9999 // NCD 27/10 Q1011=
METAR YBMA 110700Z AUTO 14017KT 9999 // NCD 34/14 Q1007=
METAR YSNF 110700Z 12009KT 9999 FEW032 SCT220 BKN280 20/13 Q1017=
METAR YPEA 110700Z AUTO 13008KT 9999 // NCD 43/05 Q1010=
METAR YPPD 110700Z AUTO 31014KT 9999 // NCD 35/26 Q1006=
METAR YSRI 110700Z AUTO 10011KT 9999 // SCT120 30/14 Q1012=
METAR YBRK 110700Z 07009KT 9999 FEW040 28/17 Q1012=
METAR YWLM 110700Z AUTO 07012KT 9999 // NCD 29/14 Q1014=
METAR YPWR 110700Z AUTO 18011KT 9999 // NCD 39/M01 Q1013=

0000031300
872
SANG31 YBBN 110700
METAR AYPY 110700Z VRB02KT 9999 FEW019CB BKN020 OVC130 29/24 Q1004
RMKS: CB/SHRA TO N/NE/E=
METAR AYWK 110700Z NIL=
METAR AYVN 110700Z NIL=
METAR AYNZ 110700Z NIL=
METAR AYMH 110700Z NIL=
METAR AYGN 110700Z NIL=
METAR AYMO 110700Z NIL=
METAR AGGH 110700Z NIL=

0000133500
873
SAAU31 YBBN 110700
METAR YPAD 110700Z 16019KT CAVOK 28/08 Q1017
FM0800 14012KT CAVOK=
METAR YBAS 110700Z NIL=
METAR YBBN 110700Z 06013KT 9999 FEW038 26/18 Q1015=
METAR YBCS 110700Z 18008KT 9999 -SHRA SCT020 BKN070 27/23 Q1008=
METAR YSCB 110700Z 05005KT 9999 FEW050 SCT100 BKN240 31/10 Q1015
RMK USE TAF FOR ARRIVALS. LAST MANUAL OBS UNTIL
111900Z=
METAR YPXM 110700Z NIL=
METAR YPCC 110700Z 14012KT 9999 FEW026 SCT039 30/22 Q1009=
METAR YCFS 110700Z AUTO 03012KT 9999 // NCD 25/17 Q1015=
METAR YPDN 110700Z 31013KT 9999 -SHRA SCT042 BKN350 30/24 Q1004
TEMPO 0900/1000 VRB25G45KT 1000 TSRA BKN010 SCT020CB=
METAR YBCG 110700Z AUTO 10010KT 9999 // NCD 26/17 Q1016=
METAR YHID 110700Z AUTO 25005KT 9999 // ////// 29/24 Q1004=
METAR YPJT 110700Z AUTO 08001G15KT 9999 // NCD 42/08 Q1011=
METAR YPKU 110700Z AUTO 21007KT 9999 // NCD 31/19 Q1005=
METAR YPLM 110700Z AUTO 03011KT 9999 // NCD 37/19 Q1006=
METAR YMML 110700Z 18014KT 9999 FEW045 21/11 Q1019
NOSIG=
METAR YPPH 110700Z 12007KT CAVOK 42/05 Q1010=
METAR YSSY 110700Z 05012KT CAVOK 27/17 Q1014
RMK 1CU080 6AC120 5CI280
NOSIG=
METAR YSTW 110700Z AUTO 20005KT 9999 // SCT093 SCT120 32/07 Q1014=
METAR YPTN 110700Z AUTO 12011KT 9999 // SCT066 35/21 Q1004=
METAR YBTL 110700Z 09017KT 9999 FEW030 SCT180 31/21 Q1009=

0000069200
874
SASD20 OEJD 110700
METAR OERF 110700Z NIL=
METAR OERK 110700Z 17003KT CAVOK 15/10 Q1021 NOSIG=
METAR OERR 110700Z 30017KT 9999 SCT030 SCT040 07/07 Q1021 NOSIG=
METAR OERY 110700Z NIL=
METAR OESH 110700Z 22007KT 9999 FEW040 21/07 Q1018 NOSIG=
METAR OESK 110700Z 30016KT 9999 SCT010 SCT040 08/03 Q1022=
METAR OETB 110700Z 00000KT 9999 FEW040 09/03 Q1024 NOSIG=
METAR OETF 110700Z 01005KT 9999 FEW020 BKN030 10/04 Q1023 NOSIG=
METAR OETR 110700Z 32014KT 6000 SCT020 BKN030 OVC100 04/04 Q1021=
METAR OEWD 110700Z 13010KT CAVOK 20/10 Q1019 NOSIG=
METAR OEWJ 110700Z 36006KT 9999 FEW030 20/09 Q1022 NOSIG=
METAR OEYN 110700Z 00000KT CAVOK 20/07 Q1020 NOSIG=

00000000