0000013600
215
SADL35 EDZO 110620
METAR EDJA 110620Z VRB02KT 6000 NSC M01/M01 Q1016=
METAR EDTL 110620Z 22002KT CAVOK 01/01 Q1017=

0000009500
216
SPCN47 CWAO 110624
SPECI CYWA 110624Z AUTO 12006KT 2SM OVC005 M02/M03 A2990=

0000024100
217
SANO36 ENMI 110620
METAR ENBS 110620Z NIL=
METAR ENHK 110620Z NIL=
METAR ENHV 110620Z NIL=
METAR ENLK 110620Z NIL=
METAR ENMH 110620Z NIL=
METAR ENNK 110620Z NIL=
METAR ENNM 110620Z 07014KT CAVOK M10/M16 Q1006=

0000008700
218
SAUK34 EGGY 110620 RRA
METAR EGTE 110620Z 33006KT CAVOK 03/02 Q1016=

0000011100
219
SAMJ41 LWSK 110630
METAR LWSK 110630Z 02002KT 0350 R34/0500N FG OVC002 00/M00 Q1026
NOSIG=

0000008900
220
SPCN42 CWAO 110625
SPECI CYQD 110625Z 22003KT 15SM -SN OVC004 RMK SF8=

0000017400
221
SAUK31 EGGY 110620 CCA
METAR COR EGCC 110620Z 24005KT 9999 FEW017 03/02 Q1013 NOSIG=
METAR COR EGLL 110620Z 28009KT 9999 FEW010 BKN039 08/07 Q1014 NOSIG=

0000008900
222
FCUK32 EGGY 110500 RRA
TAF EGNV 110624Z 1106/1115 24007KT 9999 FEW030=

0000041500
223
FTUS52 KWBC 110624 AAA
TAF AMD
KCSG 110621Z 1106/1206 09005KT 1/2SM -RA FG OVC002
      TEMPO 1106/1109 2SM -TSRA BR BKN003 OVC012CB
     FM110900 15006KT 3SM -SHRA BR OVC004
     FM111500 22010G17KT 4SM -SHRA BR OVC007
     FM111800 25011G18KT 5SM -SHRA BR BKN025 PROB30 1118/1121 2SM
      TSRA BR BKN010CB
     FM112100 28012G20KT P6SM BKN050
     FM120000 30012KT P6SM SCT050=

0000075700
224
FTUS80 KWBC 110624 AAA
TAF AMD
KCSG 110621Z 1106/1206 09005KT 1/2SM -RA FG OVC002
      TEMPO 1106/1109 2SM -TSRA BR BKN003 OVC012CB
     FM110900 15006KT 3SM -SHRA BR OVC004
     FM111500 22010G17KT 4SM -SHRA BR OVC007
     FM111800 25011G18KT 5SM -SHRA BR BKN025 PROB30 1118/1121 2SM
      TSRA BR BKN010CB
     FM112100 28012G20KT P6SM BKN050
     FM120000 30012KT P6SM SCT050=
KTYS 110620Z 1106/1206 06004KT 3SM -RA BR BKN006 OVC012
      WS020/18040KT
      TEMPO 1106/1110 1/2SM FG OVC002
     FM111000 20010KT 3SM -RA SCT008 OVC012 WS020/18040KT
     FM111200 22014G26KT 3SM SHRA BR SCT004 OVC008 WS020/20050KT
     FM112000 22012G22KT P6SM VCSH SCT025 OVC040
     FM120100 26008KT P6SM SCT040 BKN100=

0000217000
225
SPUS70 KWBC 110624
SPECI
KBWG 110620Z AUTO 31009G26KT 2SM +RA BR FEW008 BKN029 OVC040 12/10
     A2971 RMK AO2 PK WND 31026/0612 WSHFT 0557 RAB07 P0013
     T01170100=
KCEU 110620Z AUTO 00000KT 3/4SM BR FEW006 OVC009 09/07 A3002 RMK
     AO2 RAE07 P0000=
KFWN 110620Z AUTO 07003KT 1 1/4SM UP BR OVC004 00/00 A3013 RMK AO2
     P0003 T00000000=
KGLS 110620Z AUTO 24009KT 1 1/2SM BR OVC002 17/17 A2989 RMK
     AO2=
KLNR 110620Z AUTO 27004KT 3/4SM BR OVC008 01/00 A2945 RMK AO2
     RAE0559 P0000 T00060000=
KPAH 110620Z AUTO 18008KT 9SM -RA FEW006 BKN022 OVC033 11/09 A2960
     RMK AO2 P0004 T01060094=
PAOH 110620Z AUTO 09003KT 1 3/4SM BR BKN004 M02/M02 A2928 RMK AO2
     TSNO CIG 004V007 $=
KAGS 110621Z AUTO 00000KT 1/4SM FG VV002 10/10 A3003 RMK AO2
     RVRNO=
KAND 110621Z AUTO 00000KT 6SM BR OVC006 08/08 A3001 RMK AO2
     TSE04RAE13 CIG 004V010 P0001=
KBOK 110621Z AUTO 14008KT 100V170 1 3/4SM BR OVC002 10/09 A3011
     RMK AO2 $=
KBUY 110621Z AUTO 00000KT 2 1/2SM -RA BR OVC003 04/03 A3005 RMK
     AO2 LTG DSNT S RAE02B04 P0001 T00390028=
KCEW 110621Z AUTO 18007KT 1 1/2SM BR OVC001 19/18 A2998 RMK AO2
     T01940183=
KGSP 110621Z AUTO 02005KT 2 1/2SM RA BR OVC002 08/07 A3000 RMK AO2
     P0001=
KGVL 110621Z AUTO 10007KT 1 3/4SM BR OVC003 08/07 A2999 RMK
     AO2=
KHFD 110621Z AUTO 00000KT 1SM BR BKN003 OVC008 02/01 A3021 RMK AO2
     UPE07 P0000 T00220011=
KHQM 110621Z AUTO 17028G39KT 2SM -SN SCT012 OVC017 A2963 RMK AO2
     PK WND 17041/0607 P0001 TSNO $=
KLVJ 110621Z AUTO 26007KT 10SM OVC011 21/18 A2988 RMK AO2
     T02060178=
KMIW 110621Z AUTO 29010KT 7SM SCT006 OVC012 M01/M01 A2950 RMK AO2
     T10061011 TSNO=
KNSE 110616Z AUTO 19012KT 3/4SM -RA BR VV002 19/19 A2996 RMK AO2
     P0000 T01940189 $=
KSTP 110621Z AUTO 00000KT 1 1/4SM BR OVC004 M02/M02 A2948 RMK
     AO2=
KTAN 110620Z AUTO 00000KT 1 1/4SM -RA BR SCT008 OVC015 03/01 A3023
     RMK AO2 P0002 T00280011=
K2DP 110619Z AUTO 16015G25KT 4SM -RA BKN013 17/16 A3013 RMK
     AO2=
PAJZ 110625Z AUTO 35003KT 10SM OVC006 M08/M09 A2946 RMK AO2 PWINO
     TSNO CIG 002V007 $=

0000010200
226
SPUS42 KWBC 110624
SPECI
KGLS 110620Z AUTO 24009KT 1 1/2SM BR OVC002 17/17 A2989=

0000010300
227
SPUS41 KWBC 110625
SPECI
KBDR 110621Z AUTO 05005KT 1/2SM -RA FG VV002 02/02 A3019=

0000011600
228
SPUS41 KWBC 110625
SPECI
KDOV 110623Z AUTO 11005KT 5SM R01/5000FT HZ FEW080 SCT140 05/
A3009=

0000010500
229
SPUS41 KWBC 110625
SPECI
KGSP 110621Z AUTO 02005KT 2 1/2SM RA BR OVC002 08/07 A3000=

0000012100
230
SPUS41 KWBC 110625
SPECI
KORH 110621Z AUTO 21004KT 1/4SM R11/2400V2600FT -RA FG VV002 02/02
A3019=

0000010400
231
SPUS43 KWBC 110625
SPECI
KSTP 110621Z AUTO 00000KT 1 1/4SM BR OVC004 M02/M02 A2948=

0000010300
232
SPUS44 KWBC 110625
SPECI
KHQM 110621Z AUTO 17028G39KT 2SM -SN SCT012 OVC017 A2963=

0000015100
233
SAMO31 ZMUB 110630
METAR ZMUB 110630Z VRB01MPS 1600NW 2800SE R14/1000N FU BR NSC
 M23/M26
 Q1028 NOSIG RMK QFE662.4 72 NW SE MO=

0000015500
234
FTMC33 GMMC 110400 RRB
TAF GMMX 110400Z 1106/1212 24006KT 8000 SCT026 SCT100 TEMPO
1114/1120
32012KT TEMPO 1204/1210 3000 BR BKN015=

00000000