0000062900
695
SAJP41 KWBC 110900
METAR
RJAF NIL=
RJAI NIL=
RJAK NIL=
RJAM NIL=
RJAO NIL=
RJAT NIL=
RJAW NIL=
RJBD 110900Z 34007KT 300V360 9999 FEW035 05/M03 Q1027=
RJCA NIL=
RJCB 110900Z 31006KT 280V340 9999 FEW040 M08/M20 Q1015=
RJCJ NIL=
RJCK 110900Z 25009KT 9999 FEW040 M07/M18 Q1015=
RJCM 110900Z 11003KT 9999 -SHSN FEW006 SCT030 BKN050 M12/M14
     Q1015=
RJCN 110900Z 27002KT 9999 FEW050 M11/M15 Q1014=
RJCO NIL=
RJCR NIL=
RJCT NIL=
RJCW 110900Z 29021KT 1600 -SHSN BLSN FEW004 SCT008 BKN012 M10/M19
     Q1015=
RJDB NIL=
RJDC 110900Z VRB02KT 9999 FEW040 SCT/// 05/M04 Q1028=

0000060900
696
SAJP42 KWBC 110900
METAR
RJDK NIL=
RJDM NIL=
RJDO NIL=
RJDT 110900Z 26004KT 9999 FEW035 SCT/// 03/M04 Q1029=
RJEB NIL=
RJEC 110900Z 25006KT 9999 -SHSN FEW010 SCT020 BKN050 M10/M15
     Q1015=
RJEO NIL=
RJER NIL=
RJFA NIL=
RJFC NIL=
RJFE NIL=
RJFG 110900Z VRB01KT 8000 FEW025 BKN070 07/04 Q1027=
RJFM 110900Z 23005KT 9999 FEW030 BKN060 08/00 Q1027=
RJFN NIL=
RJFO 110900Z 31006KT 9999 FEW035 SCT170 BKN/// 06/M02 Q1028=
RJFR 110900Z 34007KT 9999 SCT045 05/M02 Q1028=
RJFY NIL=
RJFZ NIL=
RJKA 110900Z 04006KT 9999 FEW040 BKN080 14/05 Q1027=
RJKB NIL=

0000066100
697
UDAF01 FAPR 111720
AMDAR 1117
ASC AFZA46 2607S 02814E 111718 F052 PS225 014/009 TB1 S031 333 F/// VG025=
ASC AFZA46 2607S 02814E 111719 F055 PS215 013/014 TB1 S031 333 F/// VG030=
ASC AFZA46 2606S 02814E 111719 F057 PS210 009/016 TB1 S031 333 F/// VG030=
ASC AFZA46 2606S 02814E 111719 F059 PS205 005/016 TB1 S031 333 F/// VG030=
ASC AFZA46 2606S 02814E 111719 F060 PS203 004/016 TB1 S031 333 F/// VG036=
ASC AFZA46 2606S 02814E 111719 F064 PS194 003/014 TB1 S031 333 F/// VG035=
ASC AFZA46 2605S 02815E 111719 F068 PS185 359/013 TB1 S031 333 F/// VG022=
ASC AFZA46 2604S 02815E 111720 F073 PS171 345/010 TB1 S031 333 F/// VG021=
0000023300
698
SNVD17 KWNB 111700 RRI
BBXX
51206 11171 99198 71550 46/// ///// 1//// 91703 22200 00246 11105
20904 307// 41102 70023=
46114 11171 99367 71223 46/// ///// 1//// 91708 22200 00126 11407
21003 331// 41406 70036=
0000040500
699
SNVD15 KWNB 111700 RRM
BBXX
44100 11171 99363 70756 46/// ///// 1//// 91704 22200 00091 10804
20804 312// 41101 70019=
44095 11171 99358 70753 46/// ///// 1//// 91717 22200 00108 10905
20905 312// 41101 70027=
41115 11171 99184 70673 46/// ///// 1//// 91711 22200 10902 20902
301// 41401 70011=
41113 11171 99284 70805 46/// ///// 1//// 91710 22200 00183 10802
20802 70010=
0000032800
700
SNVD22 KWNB 111700 RRO
BBXX
46215 11171 99352 71209 46/// ///// 1//// 91705 22200 00150 11305
21003 326// 41304 70023=
46219 11171 99332 71199 46/// ///// 1//// 91710 22200 00142 11405
21003 331// 41404 70023=
46211 11171 99469 71242 46/// ///// 1//// 91713 22200 00088 11109
21007 323// 41105 70044=
0000042300
701
SNVE15 KWNB 111700 RRD
BBXX
51208 11171 99223 71596 46/// ///// 1//// 91707 22200 00241 11107
21006 301// 41105 70037=
51207 11171 99215 71578 46/// ///// 1//// 91711 22200 00241 11106
21005 300// 41104 70031=
51203 11171 99208 71570 46/// ///// 1//// 91710 22200 00254 11202
21001 331// 41201 70008=
51202 11171 99214 71577 46/// ///// 1//// 91707 22200 00244 11105
21004 336// 41103 70027=
0000051800
702
SNVD20 KWNB 111700 RRO
BBXX
44096 11171 99370 70758 46/// ///// 1//// 91717 22200 00075 10903
20502 312// 40903 70016=
44099 11171 99369 70757 46/// ///// 1//// 91718 22200 00070 10904
20903 312// 41101 70018=
41029 11171 99328 70796 46/// /2007 1//// 40128 57031 91700 333
91208 555 11080 22085=
44039 11171 99411 70727 46/// /1911 10099 20097 91700 333 91214
555 11129 22149=
44060 11171 99413 70721 46/// /1810 10094 20090 40091 58057 91700
22200 00044 333 91214 555 11118 22134=
0000008800
703
SASA85 EGRR 111200 RRM
METAR COR SBCG 111200Z 33009KT CAVOK 27/19 Q1016=
0000025300
704
SPSA85 EGRR 111720
SPECI SBCG 111715Z 29008KT 9999 TS BKN040 FEW045CB 32/18 Q1014=
SPECI SBGR 111715Z 05025G35KT 9999 -TSRA BKN045 SCT050CB 25/18 Q1017=
SPECI SBPA 111715Z 30016KT 4000 RA BKN025 FEW040TCU BKN100 25/22 Q101
      5=
0000014500
705
FTSA85 EGRR 111722 RRC
TAF SAEZ 111700Z 1118/1218 12015KT CAVOK TX25/2318Z TN12/1209Z
     BECMG 1209/1212 09010KT 9999 SCT030=
0000011100
706
UANT99 KDDL 111723
ARP GEC8221 5806N02357W 1723 F350 MS64 210/72 KT
DALCA QXT IGW 111723 F20A
0000011000
707
UANT99 KDDL 111723
ARP AEA051 4558N02929W 1723 F350 MS46 243/39 KT
ECJQG QXT AOE 111723 J57A
0000073500
708
SNAL50 DAMM 111700
AAXX 11174
60612 46/// /0000 10194 21039=
60617 NIL=
60619 46/// /1710 10217 21029=
60621 46/// /2016 10246 21043=
60633 46/// /0709 10219 21037=
60650 NIL=
60660 46/// /1608 10241 21057=
60661 NIL=
60662 46/// /0000 10200 21158=
60663 NIL=
60664 46/// /0000 10164 21042=
60667 46/// /0000 10220 21065=
60672 46/// /0000 10206 21128=
60673 NIL=
60674 NIL=
60675 NIL=
60676 NIL=
60677 46/// /0000 10179 21103=
60679 46/// /1704 10121 21151=
60681 NIL=
60682 46/// /0000 10192 21069=
60683 NIL=
60685 NIL=
60688 NIL=
60689 46/// /1506 10248 21044=
60691 NIL=
60692 46/// ///08 10244 21037=
60693 NIL=
60694 NIL=
60695 46/// /1407 10228 21037=
0000014800
709
SNAL51 DAMM 111700 RRC
AAXX 11171
60373 46/// /0000 10175 20078=
60393 46/// /0000 10174 20100=
60623 46/// /0000 10221 21209=
0000015500
710
SAAU31 AMMC 111700 CCA
METAR YBCS 111700Z 18009KT 9999 FEW025 SCT040 25/23 Q1008
     INTER 1700/2000 VRB15G25KT 4000 SHRA FEW008 BKN020=
0000079700
711
SNVZ11 SBBR 111700 RRD
BBXX
SHIP 11171 99/// 1//// 36/// /2401 10260 20209 30029 40153 57///
  333 10264 20259 553// 00926 91105=
SHIP 11171 99/// 1//// 36/// /2103 10258 20195 30006 40148 57///
  333 10261 20253 553// 01974 91105=
SHIP 11171 99/// 1//// 16/// /0603 10207 20190 39559 49952 57/// 6016/
  333 10307 20204 553// 00484 91110=
SHIP 11171 99/// 1//// 16/// /2002 10222 20206 30008 40155 57/// 6994/
  333 10232 20221 553// 00483 91107=
SHIP 11171 99/// 1//// 36/// /0704 10356 20138 39950 40116 57///
  333 10359 20335 553// 03089 91111=
SHIP 11171 99/// 1//// 36/// /2302 10301 20235 30047 40114 57///
  333 10322 20301 553// 01570 91104=
SHIP 11171 99/// 1//// 36/// /3405 10299 20221 30089 40089 57///
  333 10305 20297 553// 03051 91111=
00000000