0000009600
935
SATH31 VTBB 110700 RRB
METAR VTPH 110700Z 01009KT 8000 NSC 29/20 Q1013 NOSIG=

0000017100
936
SANM40 FYWW 110700 CCA
METAR COR FYGB 110700Z AUTO 10006KT //// // ////// 27/06 Q1022=
METAR COR FYOO 110700Z AUTO 19004KT //// // ////// 27/05 Q1017=

0000008500
937
FTAI41 FHAW 110800
TAF FHAW 110730Z 1109/1203 14014KT 9999 FEW020=

0000008900
938
SAAT31 TAPA 110716
METAR TAPA 110700Z 08011KT 9999 FEW020 25/20 Q1019=

0000018700
939
FCUK32 EGGY 110500 AAA
TAF AMD EGNH 110716Z 1107/1115 27010KT 9999 FEW025 TEMPO 1107/1110
    7000 SHRA BKN012 PROB40 TEMPO 1107/1110 4000 TSRA BKN009
    BKN030CB=

0000015700
940
FCUK35 EGGY 110500 CCA
TAF COR EGAC 110716Z 1107/1115 21005KT 9999 SCT007 BKN011 BECMG
    1107/1109 FEW025 PROB30 TEMPO 1107/1109 SHRA=

0000011700
941
SPUS41 KWBC 110716
SPECI
KHVN 110712Z AUTO 36003KT 1/2SM R02/2200V2400FT FG VV002 03/02
A3017=

0000010800
942
SPUS43 KWBC 110716
SPECI
KSDF 110712Z 17005KT 3SM +RA BKN007 BKN055 OVC070 11/10 A2966=

0000013900
943
SSVX02 CWAO 111700
ZZYY 64732 11014 1700/ 765050 003763 6113/ 22219 
00052 444 20130 11014 1700/ 50101 80140 80003 9/015=
0000013900
944
SSVX02 CWAO 111700
ZZYY 64727 11014 1700/ 768503 001393 6113/ 22219 
00060 444 20130 11014 1700/ 50101 80138 80005 9/015=
0000013900
945
SSVX02 CWAO 111700
ZZYY 64737 11014 1700/ 763682 006257 6113/ 22219 
00044 444 20130 11014 1700/ 50101 80140 80026 9/015=
0000013900
946
SSVX02 CWAO 111700
ZZYY 64739 11014 1700/ 765992 013052 6112/ 22219 
00042 444 20130 11014 1700/ 50101 80148 80016 9/015=
0000015600
947
SNVE20 EHDB 111700 RRA
BBXX
OXBB2 11174 99251 51238 41598 52234 10270 20206 40188 54000 70211
84240 22214 00260 20202 322// 40504 80225=
0000012700
948
SSVX05 CWAO 111700
ZZYY 47550 11014 1700/ 770787 069468 6113/ 444 
20130 11014 1700/ 50101 80134 80001 9////=
0000015800
949
SNVD20 KWNB 111700 RRJ
BBXX
41052 11171 99183 70648 46/// /0908 10262 40175 58021 91700 22200
00267 10603 70015 333 91211 555 11087 22095=
0000027500
950
SXHW11 KWAL 111717
15D142A4 011171702 :PRS 1 #1 1367 1375 1371 1379 1375 1382 1370 1376 1375 1382 :RAD 1 #1 6954 6959 6960 6965 6962 6963 6960 6964 6968 6970 :ENC 2 #5 4868 4871 4876 4888 :SW1 17 #60 0 :SW2 47 #60 0 :BAT 4 #5 12.8 :NAME 15D142A4  31+0NN 216W
0000015800
951
SNVD15 KWNB 111700 RRJ
BBXX
41056 11171 99183 70655 46/// /0807 10262 40177 58022 91700 22200
00266 10803 70015 333 91209 555 11075 22081=
0000015200
952
SNVD20 KWNB 111700 RRL
BBXX
42085 11171 99179 70665 46/// /0809 10255 40178 91700 22200 00266
10603 70014 333 91211 555 11098 22107=
0000021300
953
SNVD20 KWNB 111700 RRK
BBXX
41052 11171 99183 70648 46/// /0908 10265 40177 91650 333 91211
555 11090 22098=
41052 11171 99183 70648 46/// /0908 10265 40179 91640 333 91210
555 11092 22099=
0000037000
954
SNVD19 KWNB 111700 RRB
BBXX
46126 11171 99540 71666 46/// /2306 10041 49799 91648 22200 00048
1//00 70002 333 91208 555 11061 22066=
46126 11171 99540 71666 46/// /2306 10041 49799 91650 22200 00048
1//00 70002 333 91208 555 11061 22066=
46126 11171 99540 71666 46/// /2505 10041 49799 91654 22200 00048
1//00 70002 333 91208 555 11058 22063=
00000000