0000017700
555
UDEU02 EGRR 111707 RRA
AMDAR 1116
LVR EU0453   5645N 01641E 111653 F380 MS515 274/031 TB/ S031=
LVR EU0453   5625N 01518E 111700 F291 MS502 242/055 TB/ S031=
0000023300
556
SNVD17 KWNB 111700 RRG
BBXX
51205 11171 99210 71564 46/// ///// 1//// 91651 22200 00248 11005
21004 301// 41103 70027=
46239 11171 99363 71221 46/// ///// 1//// 91659 22200 00133 11407
21003 330// 41407 70037=
0000015900
557
SOVI10 KWAL 111706
B110070A 011170601"P9751095 B\P~W@@@0ekQ1@o`???EDD?>@ok3@lD@AO4DX5Di6bQ9HC<BM nTQCL@d@f@f@t@t@n:AMPTEMP 32.46C  45+0NN 219E
0000029500
558
SXHW11 KWAL 111706
B1507246 011170602"
1,140111,16:00:00,12.0,39,16.1,20.2,1015.6,13.07,12.8,
1,140111,16:15:00,11.5,40,14.2,20.2,1015.5,13.07,12.8,
1,140111,16:30:00,11.4,35,16.3,20.2,1015.6,13.07,12.8,
1,140111,16:45:00,10.2,47,13.4,20.2,1015.6,13.07,12.8, 42-0NN 210W
0000025300
559
SNAA01 KARS 111600 RRA
AAXX 1116/
89869 46/// ///// 11054 39906 4//// 5//// 91610=
89329 46/// ///// 11096 38789 4//// 5//// 91610=
89828 46/// ///// 11346 36537 4//// 5//// 91610=
89108 46/// ///// 11196 37006 4//// 5//// 91610=
0000020300
560
SOBR10 KWAL 111706
BAB00078 011170611 :BUB 2 #1       M   0.579   0.579   0.609 :RAD 1 #1   0.474   0.505   0.510   0.493 :PRS 1 #1  -0.801  -0.800  -0.797  -0.791 :BL 12.01  35+0NN 219E
0000087800
561
FTPO33 LPMG 110500
TAF LPBJ 110511Z 1106/1206 VRB02KT 7000 BCFG FEW002 PROB30
    1106/1109 0100 FG BKN001 BECMG 1108/1110 12005KT CAVOK BECMG
    1118/1120 VRB02KT 7000 SCT005 PROB30 1120/1206 0100 FG BKN001=
TAF LPFR 110500Z 1106/1206 03005KT CAVOK PROB30 TEMPO 1106/1110 5000
         BR SCT008 BECMG 1110/1112 12010KT 9999 SCT015 SCT030 BECMG
         1112/1114 SCT020 TEMPO 1120/1206 SCT006 BKN012 BECMG
         1204/1206 17008KT=
TAF LPMA 110500Z 1106/1206 VRB05KT 9999 FEW015 BECMG 1108/1111
         24013KT BECMG 1203/1206 36012KT SCT015 BKN030 TEMPO
         1203/1206 5000 RADZ BR SCT008 BKN013=
TAF LPPR 110500Z 1106/1206 VRB03KT 6000 SCT006 TEMPO 1106/1109 1200
         PRFG SCT000 BKN002 PROB30 TEMPO 1106/1109 0600 FG VV001
         BECMG 1113/1116 16008KT 9999 FEW015 PROB30 TEMPO 1117/1124
         5000 BR SCT006=

0000036400
562
FTCN35 CWAO 110500
TAF CYWA 110515Z 1106/1118 14008KT 1/2SM -SN -FZDZ FG OVC002 TEMPO
     1106/1108 3SM BR OVC008
    FM110800 14008KT 4SM -FZRA BR OVC008 TEMPO 1108/1115 1/2SM -SN
     -RA FG OVC002
    FM111500 14008KT 4SM -RA BR OVC008 TEMPO 1115/1118 3/4SM -RA BR
     OVC002
    RMK FCST BASED ON AUTO OBS. NXT FCST BY 111200Z=

0000031800
563
FTCA33 KWBC 110515
TAF
TAF TFFF 110500Z 1106/1206 06015KT 9999 SCT030 BKN045
      TEMPO 1106/1112 05016G28KT 3000 SHRA SCT020TCU=
TAF TFFR 110500Z 1106/1206 VRB02KT 9999 SCT025 PROB30
      TEMPO 1106/1206 3000 SHRA FEW015TCU
      BECMG 1112/1114 08012KT
      BECMG 1121/1124 VRB02KT=

0000017300
564
FTUS75 KWBC 110515 AAA
TAF AMD
PABR 110512Z 1105/1124 30012KT 6SM BR OVC008
      TEMPO 1105/1108 1SM BR OVC004
     FM110800 28010KT 5SM BR OVC008=

0000045300
565
SAPS31 NFFN 110500
METAR NCRG 110500Z NIL=
METAR NFFN 110500Z 17017KT 9999 FEW030 30/22 Q1004 NOSIG=
METAR NFNA 110500Z 19010KT 9999 BKN022 28/22 Q1004=
METAR NGFU 110500Z NIL=
METAR NGTA 110500Z NIL=
METAR NIUE 110500Z NIL=
METAR NSFA 110500Z NIL=
METAR NSTU 110500Z NIL=
METAR NTAA 110500Z 10003KT 9999 FEW020 27/22 Q1012 NOSIG=
METAR NWWW 110500Z AUTO 14020KT 9999 FEW058/// 29/15 Q1009=
METAR PLCH 110500Z NIL=

0000019100
566
SAPS32 NFFN 110500
METAR NFTF 110500Z NIL=
METAR NFTL 110500Z NIL=
METAR NFTV 110500Z NIL=
METAR NLWW 110500Z NIL=
METAR NVSS 110500Z NIL=
METAR NVVV 110500Z NIL=

0000008800
567
SACU31 MUHA 110515 RTD
METAR
MUCL 110505Z AUTO 08004KT 25/22 Q1017=

0000018300
568
SANM40 FYWW 110500 RRA
METAR FYGF 110500Z 27005KT CAVOK 16/06 Q1020=
METAR FYKT 110500Z 27003KT CAVOK 20/08 Q1018=
METAR FYWW 110500Z 00000KT CAVOK 21/07 Q1021=

0000020600
569
FTSR31 WSSS 110500 RRA
TAF WIII 110500Z 1106/1212 33008KT 9999 FEW019CB SCT020
PROB30 TEMPO 1109/1112 6000 -TSRA 
BECMG 1110/1112 24005KT 7000 SCT020
BECMG 1116/1118 4000 BR FEW020=

0000031500
570
SAXX69 EGRR 110500 RRA
METAR KQIR 110459Z 09005KT 9999 RA FEW019 BKN038 OVC055 17/17 A3015
      RMK AO2A SLP212 WND DATA ESTMD P0006 T01710167 VISNO RWY16
      CHINO RWY16 $=
METAR KQSA 110458Z 23004KT 9999 CLR 00/M11 A3038 SLP372 WND DATA ESTMD
      ALSTG/SLP ESTMD 10014 21045 51017=

0000065500
571
FTBN31 OBBI 110500
TAF OBBI 110500Z 1106/1212 15010KT 8000 RA SCT020 OVC090 PROB30
TEMPO 1106/1115 VRB20G30KT 3000 TSRA SCT015 SCT050CB BECMG 1119/1121
33015G25KT 9999 SCT020=
TAF OEDF 110300Z 1106/1212 22014KT 5000 BR BKN080 TEMPO 1106/1114 RA
PROB30 TEMPO 1106/1109 2000 TSRA FEW030CB BECMG 1117/1120 33015G25KT
BLDU SCT030=
TAF OEDR 110300Z 1106/1212 22014KT 5000 BR BKN080 TEMPO 1106/1114 RA
PROB30 TEMPO 1106/1109 2000 TSRA FEW030CB BECMG 1117/1120 33015G25KT
BLDU SCT030=
TAF OTBD 110500Z NIL=
TAF OKBK 110445Z 1106/1212 18012KT 3000 BR FEW040 BKN080 BECMG
1109/1111 34012G22KT 6000 TEMPO 1118/1203 1200 BR =

0000023300
572
SABC40 FBSK 110500
METAR FBSK 110500Z 27004KT CAVOK 23/09 Q1016 NOSIG=
METAR FBMN 110500Z 03005KT CAVOK 23/18 Q1016=
METAR FBKE 110500Z 03003KT CAVOK 22/19 Q1018=
METAR FBSP 110500Z 14005KT CAVOK 24/20 Q1017=

0000015600
573
SAUK39 EGGY 110500 RRA
METAR EGUN 110458Z AUTO 23011KT 9999 -RA BKN009 OVC016 08/08 A2984
      RMK AO2 RAB0444 SLP108 P0000 T00780078=

0000151500
574
SPUS70 KWBC 110514
SPECI
KACK 110510Z AUTO 17006KT 5SM BR BKN002 OVC060 05/04 A3029 RMK AO2
     TSNO=
KGNV 110510Z AUTO 00000KT 1/4SM FG SCT002 OVC008 19/19 A3008 RMK
     AO2 T01890189=
KMGJ 110510Z AUTO 00000KT 3/4SM UP BR VV004 00/M01 A3018 RMK AO2
     P0001 T00001006 TSNO=
KOFP 110510Z AUTO 03003KT 3SM -RA BR OVC002 04/03 A3012 RMK AO2
     PRESFR P0000 T00390033=
KPIL 110510Z AUTO 20005KT 3/4SM BR VV001 18/17 A2991 RMK AO2=
KPQL 110510Z AUTO 18008G15KT 2 1/2SM -RA BR OVC002 20/19 A2994 RMK
     AO2 RAB06 P0000 T02000194 TSNO=
KRWI 110510Z AUTO 21005KT 2 1/2SM RA BR FEW006 BKN016 OVC028 17/16
     A3009 RMK AO2 P0005 T01670161=
K1M4 110511Z AUTO 17011KT 3/4SM BR OVC001 12/12 A2984 RMK AO2=
KBML 110511Z AUTO 00000KT 9SM BKN028 OVC055 M05/M09 A3018 RMK AO2
     T10501089=
KCKV 110511Z AUTO 30017G21KT 1 3/4SM VCTS +RA BR SCT006 BKN018
     OVC028 11/10 A2975 RMK AO2 LTG DSNT SW-N TSB04RAB0453 PRESRR
     P0009=
KCPS 110512Z AUTO 15003KT 4SM BR FEW008 SCT075 OVC110 06/06 A2956
     RMK AO2 RAE09 P0000=
KCRE 110511Z 19005KT 6SM BR SCT007 BKN028 16/16 A3009 RMK AO2=
KFLO 110511Z 00000KT 1/4SM FG BKN005 OVC044 14/13 A3007 RMK
     AO2=
KHYA 110511Z 20004KT 1 3/4SM BR OVC002 05/04 A3027 RMK AO2
     T00500044=
KTOI 110511Z AUTO 14005KT 5SM RA BR BKN006 OVC016 17/16 A2998 RMK
     AO2 LTG DSNT NE AND W TSE08 P0006 T01670161=
KUIN 110511Z AUTO 28006KT 3SM -RA BR BKN003 OVC015 04/03 A2953 RMK
     AO2 P0000 T00440033=

00000000