0000082000
415
FTRA34 RUMS 110800
TAF UNAA 110744Z 1109/1209 20006MPS 9999 SCT030CB BKN100 530009 TEMPO
1115/1206 2000 SHSN 640006=
TAF UNBB 110758Z 1109/1209 20008G14MPS 3000 -SHSN DRSN BKN010CB
530005 TEMPO 1109/1209 1200 SHSN BLSN SCT002 BKN005 650050=
TAF UNKL 110745Z 1109/1209 21006MPS 9999 SCT030CB OVC100 TEMPO
1109/1115 24006G11MPS 0800 +SHSN BLSN SCT007 BKN020CB OVC100 530009
TEMPO 1115/1118 2000 SHSN TEMPO 1118/1203 VRB02MPS 1000 SHSN BR=
TAF UNNT 110750Z 1109/1209 19008G14MPS 9999 DRSN BKN010CB 530005
TEMPO 1109/1203 VRB02MPS 0500 +SHSN BR SCT001 BKN004 650010 TEMPO
1203/1209 2000 SHSN BKN005=
TAF UNOO 110752Z 1109/1209 19006MPS 4000 -SHSN BR BKN010 BKN020CB
650100 530002 TEMPO 1109/1112 19012MPS 2000 SHSN BLSN BKN006
BKN020CB TEMPO 1112/1203 1000 SHSN BR BKN004 BKN020CB=

0000052000
416
FTRA33 RUMS 110800
TAF UIAA 110745Z 1109/1209 01004MPS 5000 BR BKN100 530009 TEMPO
1109/1203 VRB02MPS 2200 FEW002 BKN100=
TAF UIBB 110755Z 1109/1209 14003MPS 3000 -SHSN BKN010CB OVC100 TEMPO
1109/1124 1500 SHSN BR VV006 BECMG 1120/1122 24006MPS BECMG
1202/1203 BKN017CB BKN100=
TAF UIII 110755Z 1109/1209 16004MPS 9999 SCT020CB OVC100 TEMPO
1109/1112 30004MPS 2000 FU BECMG 1112/1114 1500 -SHSN BR BECMG
1204/1206 2000 FU=
TAF UIUU 110745Z 1109/1209 VRB02MPS 4000 -SN BR SCT030 BKN100=

0000060300
417
FTRS34 RUMS 110800
TAF USPP 110800Z 1109/1209 15008MPS 5000 -SN BKN007 OVC100 650070
530002 TEMPO 1109/1118 15013MPS 2000 -FZDZ BR OVC004 640000 BECMG
1118/1120 2000 SN BLSN=
TAF UWKD 110755Z 1109/1209 16010G16MPS 2000 SNRA BR OVC005 SCT015CB
650050 530001 TEMPO 1109/1115 0600 +SHSNRA FZRA OVC002 BKN010CB
670000 BECMG 1115/1117 19006G12MPS TEMPO 1117/1203 1000 VV003=
TAF UWKE 110745Z 1109/1209 18013MPS 2000 SN BLSN OVC005 650050 530001
TEMPO 1109/1121 18017MPS 0500 +SHSN FZRA BKN002 BKN010CB 640000
TEMPO 1121/1209 18018MPS 0500 +SHSN FZRA BKN002 BKN010CB 640000=

0000052500
418
FTRS35 RUMS 110800
TAF UWLW 110745Z 1109/1209 16010MPS 2100 -SHSNRA OVC005 BKN015CB
650050 TEMPO 1109/1115 19015MPS 0500 +SHSNRA VV002 530001=
TAF UWOO 110800Z 1109/1209 18008MPS 1200 SN BLSN OVC004 650040 530003
TEMPO 1109/1112 18009G14MPS 0500 FZDZ FZFG VV002 640000 TEMPO
1112/1124 19013MPS 0500 +SN BLSN VV001=
TAF UWWW 110800Z 1109/1209 17010MPS 1500 SNRA BR OVC005 SCT010CB
650050 530003 TEMPO 1109/1116 19014MPS 0400 +SHSNRA FZDZ FZFG VV002
TEMPO 1116/1204 22012MPS 0800 +SHSNRA VV003=

0000046800
419
FTRA32 RUMS 110800
TAF UHHH 110745Z 1109/1215 25008MPS CAVOK=
TAF UHMA 110759Z 1109/1209 33010G15MPS 9999 DRSN NSC 530009 TEMPO
1109/1118 03015G20MPS 2000 BLSN TEMPO 1118/1209 03008G13MPS 2000
BR=
TAF UHMM 110750Z 1109/1215 04004G09MPS 9999 DRSN SCT030 BKN100 530009
530906=
TAF UHPP 110735Z 1109/1215 32005MPS 9999 BKN030CB OVC100 650300
550009 TEMPO 1109/1112 04005G10MPS 2000 SHSN BKN006 TEMPO 1200/1210
02006MPS 1000 SHSN BKN004=

0000058400
420
FTRA36 RUMS 110800
TAF UWUU 110755Z 1108/1209 19007G13MPS 4000 -SNRA BR OVC007 SCT015CB
650070 530003 TEMPO 1108/1115 1000 SN FZDZ 670000=
TAF UNEE 110750Z 1109/1209 16008MPS 5000 -SHSN BKN010CB OVC070 650040
TEMPO 1109/1118 1100 SHSN BKN004 TEMPO 1118/1209 2000 SHSN BKN005=
TAF USCC 110800Z 1109/1209 VRB02MPS 2000 BR FU BKN007 OVC070 650070
530005 TEMPO 1109/1115 17006MPS BKN005=
TAF USNN 110800Z 1109/1209 08003MPS 3000 -SN BR BKN010 OVC066 620100
TEMPO 1109/1115 05003MPS 2000 SN BKN007 TEMPO 1115/1121 1000 SN
BKN004 BECMG 1121/1123 12005MPS=

0000075700
421
FTRS33 RUMS 110800
TAF UUBW 110750Z 1109/1209 23006MPS 8000 BKN010 OVC100 TEMPO
1109/1112 2100 -SHRASN SCT008 BKN012CB BECMG 1111/1113 28007MPS
TEMPO 1112/1121 1800 SHSN BKN007 SCT012CB=
TAF UUDD 110755Z 1109/1215 24006MPS 6000 OVC007 TEMPO 1109/1112 2000
SHSNRA SCT004 BKN010CB BECMG 1110/1112 29009G14MPS TEMPO 1112/1124
0700 +SHSN SCT004 BKN012CB BECMG 1204/1206 26006MPS=
TAF UUDL 110800Z 1109/1209 17005MPS 2500 BR BKN004 OVC015 650040
TEMPO 1109/1117 1000 SNRA BR OVC004 BECMG 1117/1119 27006MPS=
TAF UUEE 110750Z 1109/1209 23006MPS 6000 OVC007 TEMPO 1112/1120 1000
SHSNRA OVC005 SCT010CB=
TAF UUWW 110755Z 1109/1209 22006MPS 6000 BKN008 TEMPO 1109/1121 1100
SHRASN BKN004 BKN012CB BECMG 1110/1112 27007G12MPS=

0000043300
422
FTRS31 RUMS 110800
TAF ULLI 110757Z 1109/1209 32006G11MPS 6000 -SN DRSN BKN008 BKN016
530003 650080 TEMPO 1109/1118 35009G14MPS 2100 -SHSN BLSN BKN006
BKN015CB TEMPO 1118/1124 3000 -SHSN DRSN BKN007 BKN016CB=
TAF UWGG 110750Z 1109/1209 20003MPS 2100 -SHSNRA BR OVC007 SCT012CB
650070 530003 TEMPO 1109/1118 18005G10MPS 1000 SHSNRA BR VV004
FM111800 24005G13MPS 2100 -SHSNRA BKN007 SCT012CB 650090 530003=

0000042900
423
FTRA35 RUMS 110800
TAF UHBB 110752Z 1109/1209 35003MPS CAVOK=
TAF UHSS 110800Z 1109/1215 01004MPS 5000 BR FU BKN020CB OVC100 530007
TEMPO 1109/1215 1400 SHSN BKN007 BKN020CB BECMG 1122/1124 32004MPS
9999 NSW=
TAF UHWW 110755Z 1109/1209 VRB02MPS 3000 FU BKN030 BKN100 BECMG
1110/1112 35004MPS 2100 -SHSN HZ SCT007 BKN020CB BKN070 TEMPO
1110/1209 36009G14MPS 530007 BECMG 1203/1204 9999 NSW SCT020CB=

0000082000
424
FTRS36 RUMS 110800
TAF ULAA 110800Z 1109/1209 06007G13MPS 2000 SN BLSN OVC005 650050
530003 TEMPO 1109/1209 03010G17MPS 0500 +SHSN BLSN BKN003 BKN010CB
BECMG 1118/1120 04008G13MPS=
TAF ULMM 110800Z 1109/1209 VRB02MPS 9999 SCT003 BKN080 TEMPO
1109/1115 2100 BR SCT002 PROB40 TEMPO 1109/1115 0300 FZFG VV002
TEMPO 1115/1206 09003MPS 1300 -SHSN BR BKN003 BKN011CB=
TAF UMKK 110800Z 1109/1209 26008MPS 6000 -SHRA BKN007 BKN020CB TEMPO
1109/1113 27006G11MPS 2000 SHRA SCT005 BKN010CB BECMG 1113/1115
24006G11MPS TEMPO 1113/1202 23008G13MPS 2000 SHRA SCT004 BKN010CB
BECMG 1202/1204 32009G16MPS=
TAF UUYY 110800Z 1109/1209 06005G11MPS 1500 SHSN BR BKN004 BKN010CB
BKN070 650040 530001 TEMPO 1109/1115 0500 +SHSN BKN002 BKN007CB
TEMPO 1115/1209 0500 +SHSN FZRA BKN002 BKN007CB 640000=

0000055500
425
FTRA37 RUMS 110800
TAF USTR 110755Z 1109/1209 18006MPS 4000 BR BKN010CB 650079 TEMPO
1109/1121 16008MPS 2000 SHSN BLSN BKN007 BKN010CB=
TAF USHH 110755Z 1109/1209 06005MPS 4000 -SN BKN008 OVC070 620080
TEMPO 1109/1118 2000 SN BKN005 OVC070 620050 TEMPO 1118/1121 3000
BKN007 OVC070 650070=
TAF USRR 110737Z 1109/1209 06003MPS 2000 SN BKN005 OVC066 TEMPO
1109/1112 1000 SN BR BKN003 TEMPO 1112/1121 1000 SHSN BKN002
BKN015CB=
TAF USSS 110756Z 1109/1209 15004MPS 5000 -SN BKN006 BKN020 650060
BECMG 1113/1115 2000 SN BR=

0000013300
426
SAMP31 LMMM 110830
METAR HLLT NIL=
METAR HLLB NIL=
METAR LMML 110815Z 19006KT 160V220 CAVOK 16/13 Q1023 NOSIG=

0000011000
427
SALT33 EYVI 110820
METAR EYPA 110820Z 23004KT 200V280 9999 OVC010 05/03 Q1005
R19/2///95=

0000010300
428
SAMP31 LMMM 110830 RRA
METAR HLLB 110820Z
18005KT 9999 FEW020 BKN080 15/11 Q1027 =

0000028800
429
FTUS43 KWBC 110821 AAA
TAF AMD
KDLH 110818Z 1108/1206 30007KT 3SM -FZDZ BR OVC004
      TEMPO 1108/1110 2SM BR OVC002
     FM111000 29006KT 4SM BR OVC005
      TEMPO 1110/1112 2SM -FZDZ BR
     FM111500 29009KT P6SM OVC014
     FM112200 29010KT P6SM BKN250=

0000027000
430
FTUS71 KWBC 110821 AAA
TAF AMD
KLCK 110820Z 1108/1206 16008KT P6SM -SHRA SCT020 OVC035
      TEMPO 1108/1111 2SM -SHRA BR BKN008 OVC020
     FM111300 20012KT P6SM OVC012
     FM111600 24015G25KT P6SM OVC018
     FM120100 26013KT P6SM OVC009=

0000028800
431
FTUS73 KWBC 110821 AAA
TAF AMD
KDLH 110818Z 1108/1206 30007KT 3SM -FZDZ BR OVC004
      TEMPO 1108/1110 2SM BR OVC002
     FM111000 29006KT 4SM BR OVC005
      TEMPO 1110/1112 2SM -FZDZ BR
     FM111500 29009KT P6SM OVC014
     FM112200 29010KT P6SM BKN250=

0000013400
432
SPUS42 KWBC 110820
SPECI
KHSV 110816Z AUTO 23017G27KT 1SM R18R/2600VP6000FT +TSRA BR SCT007
OVC026 14/13 A2974=

0000009500
433
SPUS43 KWBC 110820
SPECI
KBTL 110816Z 19013KT 1/2SM FG OVC002 04/04 A2950=

0000008700
434
SAAL41 DAMM 110800 RRG
METAR DAAD 110800Z 00000KT CAVOK 07/05 Q1022=

00000000