0000046300
135
FTCN34 CWAO 110500
TAF CYXE 110538Z 1106/1206 26012KT P6SM SKC
    FM111200 23006KT P6SM SKC
    FM111500 18012KT P6SM BKN120 BKN220
    FM111800 15012G22KT P6SM -SN SCT040 OVC060 TEMPO 1118/1121 4SM
     -SN BKN040
    FM112100 15020G30KT 2SM -SN BLSN VV015 TEMPO 1121/1124 6SM -SN
     OVC030
    FM120000 19015G25KT P6SM BKN120
    FM120300 26025G35KT P6SM SKC
     BECMG 1204/1206 26020G30KT
    RMK NXT FCST BY 111200Z=

0000018600
136
FTCN33 CWAO 110500
TAF CYVQ 110538Z 1106/1118 VRB03KT P6SM -SN BKN080
    FM110800 VRB03KT P6SM SCT080 TEMPO 1108/1118 P6SM -SN BKN080
    RMK NXT FCST BY 111200Z=

0000032700
137
FTCN34 CWAO 110500
TAF CYDN 110538Z 1106/1118 26015G25KT P6SM SCT020 BKN120 TEMPO
     1106/1110 5SM -SN BR BKN020
    FM111000 26012KT P6SM SCT008 OVC012 TEMPO 1110/1116 2SM BR BKN008
    FM111600 26012KT P6SM SCT012 TEMPO 1116/1118 4SM BR BKN012
    RMK FCST BASED ON AUTO OBS. NXT FCST BY 111200Z=

0000026300
138
FTCN33 CWAO 110500
TAF CYXY 110538Z 1106/1118 VRB03KT P6SM SCT012 BKN060 TEMPO 1106/1116
     BKN010 PROB30 1106/1116 4SM BR BKN008
    FM111600 33005KT P6SM FEW020 BKN050 TEMPO 1116/1118 4SM -SN
     BKN020
    RMK NXT FCST BY 111200Z=

0000045400
139
FTCN34 CWAO 110500
TAF CYWG 110538Z 1106/1206 29012KT 1/2SM FZFG VV003 TEMPO 1106/1115
     3SM BR OVC008
     BECMG 1107/1109 31008KT
    FM111500 29008KT 2SM BR OVC006 TEMPO 1115/1118 P6SM NSW OVC012
    FM111800 29008KT P6SM SCT012 BKN030 TEMPO 1118/1121 6SM BR BKN012
    FM112100 27006KT P6SM SCT030 TEMPO 1121/1124 BKN030
    FM120000 20006KT P6SM SKC
    FM120300 18012KT P6SM BKN080
    RMK NXT FCST BY 111200Z=

0000019700
140
FTCN33 CWAO 110500
TAF CYYH 110538Z 1106/1118 VRB03KT P6SM FEW030 SCT080 TEMPO 1106/1118
     5SM IC SCT030 BKN080
     BECMG 1109/1111 17010KT
    RMK NXT FCST BY 111200Z=

0000024700
141
FTCN34 CWAO 110500
TAF CYQR 110538Z 1106/1118 28012KT P6SM BKN005
     BECMG 1106/1108 SCT005
    FM111200 27008KT P6SM SKC
    FM111500 VRB03KT P6SM SKC
    FM111700 16012G22KT P6SM BKN070
    RMK NXT FCST BY 111200Z=

0000015300
142
FTCN33 CWAO 110500
TAF CYMA 110538Z 1106/1118 VRB03KT P6SM BKN050 TEMPO 1106/1118 5SM
     -SN OVC040
    RMK NXT FCST BY 111200Z=

0000030600
143
FTCN34 CWAO 110500
TAF CYQW 110538Z 1106/1118 29008KT P6SM FEW120 SCT220
     BECMG 1110/1112 VRB03KT
    FM111500 12008KT P6SM BKN100 OVC220
    FM111700 12015G25KT P6SM -SN SCT040 OVC060 TEMPO 1117/1118 4SM
     -SN BKN040
    RMK FCST BASED ON AUTO OBS. NXT FCST BY 111200Z=

0000015300
144
FTCN33 CWAO 110500
TAF CYQH 110538Z 1106/1118 VRB03KT P6SM BKN030 TEMPO 1106/1118 4SM
     -SN BKN020
    RMK NXT FCST BY 111200Z=

0000038800
145
FTCN34 CWAO 110500
TAF CYYN 110538Z 1106/1118 26012G22KT P6SM SCT008 TEMPO 1106/1108
     BKN008
    FM110900 26012KT P6SM SKC
     BECMG 1110/1112 21008KT
    FM111500 18012G22KT P6SM SCT020 OVC040 TEMPO 1115/1117 2SM -SN
     BLSN VV012
    FM111700 19020G30KT P6SM BKN050 PROB30 1117/1118 P6SM -FZRA
    RMK FCST BASED ON AUTO OBS. NXT FCST BY 111200Z=

0000034700
146
FTCN34 CWAO 110500
TAF CYYQ 110538Z 1106/1206 32006KT P6SM IC SCT210
    FM110900 04006KT P6SM IC BKN080
    FM111200 07005KT P6SM SCT030 OVC060 TEMPO 1112/1124 3SM -SN
     BKN030
     BECMG 1116/1118 VRB03KT
    FM120000 VRB03KT P6SM SCT020 BKN030 TEMPO 1200/1206 5SM -SN
     BKN020
    RMK NXT FCST BY 111200Z=

0000024300
147
FTCN33 CWAO 110500
TAF CYZF 110538Z 1106/1206 30010KT P6SM SKC
    FM110800 34008KT P6SM BKN100 TEMPO 1108/1118 4SM IC BKN080
    FM111800 02008KT P6SM OVC080 TEMPO 1118/1206 4SM -SN OVC060
    RMK NXT FCST BY 111200Z=

0000023800
148
FTCN33 CWAO 110500
TAF CYHY 110538Z 1106/1118 VRB03KT P6SM FEW220
    FM111000 VRB03KT P6SM -SN BKN080
    FM111500 04008KT P6SM -SN SCT030 OVC060 TEMPO 1115/1118 3SM -SN
     BKN030
    RMK NXT FCST BY 111200Z=

0000012000
149
FTCN33 CWAO 110500
TAF CYLT 110538Z 1106/1120 FCST NOT AVBL DUE NO OBS
    RMK NXT FCST BY 111200Z=

0000027100
150
FTCN33 CWAO 110500
TAF CYRB 110538Z 1106/1206 22010KT P6SM -SN BKN050 TEMPO 1106/1110
     4SM -SN BKN020 OVC050
    FM111000 18010KT P6SM FEW020 SCT050 TEMPO 1110/1115 5SM IC BKN020
    FM111500 14012KT P6SM FEW030
    RMK NXT FCST BY 111200Z=

0000034800
151
FTCN34 CWAO 110500
TAF CYBR 110538Z 1106/1118 29012KT 4SM BR OVC006 TEMPO 1106/1109 P6SM
     NSW SCT006 BKN120
    FM110900 28012KT 11/2SM BR OVC004 TEMPO 1109/1116 P6SM NSW OVC008
     PROB30 1110/1116 1/2SM FZFG VV002
    FM111600 29012KT P6SM SCT006 OVC012 TEMPO 1116/1118 3SM BR BKN006
    RMK NXT FCST BY 111200Z=

0000023200
152
FTCN36 CWAO 110500
TAF CYFB 110538Z 1106/1206 34005KT P6SM SCT050 TEMPO 1106/1112 5SM IC
     BECMG 1109/1111 34010KT
    FM111200 34012KT P6SM SKC
     BECMG 1118/1120 32008KT
    RMK NXT FCST BY 111200Z=

0000016400
153
FTCN33 CWAO 110500
TAF CYSM 110538Z 1106/1118 VRB03KT P6SM SCT060
    FM111500 VRB03KT P6SM FEW020 SCT040 BKN080
    RMK NXT FCST BY 111200Z=

0000009300
154
SPCN42 CWAO 110548
SPECI CYUA 110548Z AUTO 30021KT 1 1/2SM CLR M25/ A2973=

00000000