0000010900
515
SATS40 DTTA 110600 RRA
METAR DTTA 110600Z 00000KT 4000 BR FEW010 SCT020 08/07 Q1019 NOSIG=

0000024200
516
FCFR31 LFPW 110500 RRB
TAF LFPN 110600Z 1106/1115 VRB02KT 2500 BR SCT003 BKN050 TEMPO
1106/1110 0900 FG BKN002 PROB40 TEMPO 1106/1110 0300 FG VV/// BECMG
1110/1112 29006KT 4500 BR BKN005 BECMG 1112/1114 8000 NSW BKN010=

0000052400
517
SATS32 DTTA 110600
METAR DTKA 110600Z 04005KT 9999 FEW020 07/05 Q1017 NOSIG=
METAR DTMB 110600Z 17010KT CAVOK 11/06 Q1019 NOSIG=
METAR DTNH 110600Z AUTO 24004KT CAVOK 04/03 Q1019=
METAR DTTA 110600Z 00000KT 4000 BR FEW010 SCT020 08/07 Q1019 NOSIG=
METAR DTTF 110600Z 24004KT 8000 FEW030 08/04 Q1021 NOSIG=
METAR DTTG NIL=
METAR DTTJ 110600Z 18006KT 6000 FEW023 09/07 Q1020 NOSIG=
METAR DTTX 110600Z 22005KT CAVOK 07/05 Q1020 NOSIG=
METAR DTTZ 110600Z 27006KT 9999 FEW030 08/04 Q1021 NOSIG=

0000034300
518
SATS42 DTTA 110600
METAR DTTB 110600Z 25002KT 8000 NSC 06/06 Q1018=
METAR DTTD 110600Z 21008KT 170V250 CAVOK 14/04 Q1021=
METAR DTTK 110600Z VRB02KT CAVOK 09/04 Q1019=
METAR DTTL 110600Z 00000KT 8000 NSC 08/07 Q1019=
METAR DTTN 110600Z 00000KT 3000 BR NSC 04/04 Q1019=
METAR DTTR 110600Z 14006KT CAVOK 09/05 Q1022=

0000037000
519
FTAG05 SABM 110600
TAF SAWE 110600Z NIL=
TAF SAWG 110600Z NIL=
TAF SAWH 110600Z NIL=
TAF SAZM 110500Z 1106/1206 20010KT 9999 BKN020 TX18/1118Z
     TN13/1110Z=
TAF SAZN 110500Z 1106/1206 05005KT CAVOK TX32/1118Z TN15/1110Z
BECMG 1114/1116 02015KT=
TAF SAZS 110500Z 1106/1206 VRB05KT CAVOK TX28/1118Z TN05/1110Z
BECMG 1113/1115 05010KT=

0000195200
520
SPUS70 KWBC 110604
SPECI
PAJZ 110604Z AUTO 00000KT 10SM OVC004 M08/M09 A2945 RMK AO2 PWINO
     TSNO CIG 002V007 $=
KAOO 110600Z AUTO 19003KT 1/4SM FG VV002 02/01 A3000 RMK AO2
     T00170011=
KDVN 110600Z AUTO 25010KT 1 1/4SM BR OVC002 02/01 A2949 RMK
     AO2=
KFCI 110601Z AUTO 00000KT 1 3/4SM OVC002 05/00 A3006 RMK AO1=
KFCM 110600Z AUTO 25004KT 2SM BR OVC002 M01/M02 A2947 RMK AO2=
KFIT 110600Z AUTO 00000KT 3SM BR OVC004 01/00 A3023 RMK AO2
     T00110000=
KHYR 110600Z AUTO 00000KT 1 1/2SM -SN BR OVC013 M04/M05 A2945 RMK
     AO2 P0000=
KIMT 110600Z AUTO 32003KT 3SM -SN BR OVC005 M02/M03 A2939 RMK AO2
     P0000=
KMCB 110600Z AUTO 17015G21KT 10SM VCTS -RA OVC005 18/18 A2983 RMK
     AO2 LTG DSNT NE-S TSE0554 P0000 T01830178=
KMFE 110600Z AUTO 00000KT 1/4SM FG VV003 17/16 A2992 RMK AO2=
KPNS 110600Z AUTO 18011KT 2SM R17/5500VP6000FT -RA BR OVC002 19/19
     A2996 RMK AO2 P0001 T01940189=
KSNS 110600Z AUTO 00000KT 3SM BR OVC003 10/09 A3021 RMK AO2 TSNO
     $=
KBMI 110601Z AUTO 19011KT 1/4SM R29/1800V2400FT UP FG OVC001 03/02
     A2952 RMK AO2 P0000=
KGNV 110601Z AUTO 00000KT 1/4SM FG VV003 18/18 A3007 RMK AO2
     T01780178=
KGVL 110601Z AUTO 08006KT 2 1/2SM BR OVC003 08/07 A3001 RMK
     AO2=
KHKS 110601Z AUTO 18011G20KT 3SM -RA BR OVC011 19/17 A2977 RMK AO2
     LTG DSNT E AND SE TSE0558 P0001=
KIXD 110601Z AUTO 25008KT 5SM -RA BR OVC009 02/01 A2965 RMK AO2
     UPE0557RAB0557 CIG 006V011 P0001 T00170006=
KLGB 110601Z 00000KT 2SM HZ FEW003 BKN011 13/10 A3011 RMK AO2=
KLSE 110602Z AUTO 35003KT 4SM BR SCT016 OVC042 M01/M02 A2947 RMK
     AO2 T10111022 PWINO FZRANO $=
KMMK 110601Z AUTO 00000KT 1SM -RA BR OVC003 01/00 A3021 RMK AO2
     RAB0558UPB0559E00 P0000 T00110000 TSNO=
KMSS 110601Z AUTO 05004KT 7SM SCT025 BKN050 M03/M06 A3003 RMK
     AO2=
KPUW 110601Z AUTO 14010KT 3SM -RA BR OVC024 03/02 A2992 RMK AO2
     P0001=

0000009900
521
SPUS42 KWBC 110604
SPECI
KMFE 110600Z AUTO 00000KT 1/4SM FG VV003 17/16 A2992=

0000011300
522
SPUS42 KWBC 110604
SPECI
KMGM 110600Z AUTO 17008KT 10SM TS BKN009 BKN055 OVC110 17/16 A2992=

0000012100
523
SPUS42 KWBC 110604
SPECI
KPNS 110600Z AUTO 18011KT 2SM R17/5500VP6000FT -RA BR OVC002 19/19
A2996=

0000011700
524
SPUS42 KWBC 110604
SPECI
KSAV 110600Z AUTO 17005KT 3/4SM R01/2200V3500FT BR VV002 17/16
A3005=

0000169400
525
FTAG05 SABM 110600
TAF SAAR 110500Z 1106/1206 18005KT CAVOK TX29/1118Z TN16/1206Z
BECMG 1110/1112 18010KT BECMG 1116/1117 16010KT=
TAF SABE 110500Z 1106/1206 18015KT 9999 SCT020 TX23/1118Z
TN17/1110Z BECMG 1108/1110 16015KT 9999 BKN020 BECMG 1115/1117
11015KT=
TAF SACO 110500Z 1106/1206 14015KT 9999 BKN030 FEW040CB
TX30/1118Z TN19/1110Z PROB30 1105/1110 5000 TS SHRA
BKN020 FEW040CB BECMG 1110/1112 14010KT 9999 SCT030=
TAF SADF 110500Z 1106/1206 20015KT CAVOK TX24/1118Z TN17/1110Z
BECMG 1108/1110 16010KT 9999 BKN020 BECMG 1114/1116 11010KT=
TAF SAEZ 110500Z 1106/1206 19010KT CAVOK TX26/1118Z TN14/1109Z BECMG
1106/1109 16010G20KT 9999 SCT030 BECMG 1114/1117 16015KT 9999
     SCT040
BECMG 1122/1201 10010KT=
TAF SAME 110500Z 1106/1206 14005KT 9999 FEW040TCU
TN18/1110Z TX32/1120Z=
TAF SANT 110500Z 1106/1206 20010KT 5000 TS SHRA BKN010
SCT020CB TX25/1118Z TN20/1110Z TEMPO 1112/1115 8000 VCTS
SHRA BKN015 FEW030CB=
TAF SAOC 110600Z NIL=
TAF SARC 110600Z NIL=
TAF SARE 110500Z 1106/1206 09010KT 9999 TS FEW050CB BKN100
     TX28/1119Z
 TN24/1109Z BECMG 1109/1111 14010G25KT 5000 TSRA BKN025 BKN040
FEW050CB OVC100 TEMPO 1118/1122 16010KT 9999 FEW010 SCT025
     BKN090=
TAF SARF 110500Z 1106/1206 36010KT CAVOK TX29/1117Z TN24/1109Z BECMG
1112/1115 9999 SCT030 FEW040TCU BECMG 1117/1120 8000 TSRA BKN030
FEW050CB BKN100 BECMG 1201/1203 16010KT 6000 TSRA BKN040 FEW050CB
OVC100=
TAF SARI 110500Z 1106/1206 02005KT 9999 FEW050CB BKN100 TX34/1118Z
TN20/1109Z BECMG 1112/1115 09005KT 9999 SCT030 FEW050CB BKN100
     BECMG
1118/1120 16010G20KT 5000 TSRA BKN020 BKN040 FEW050CB OVC100=
TAF SARL 110600Z NIL=

0000010600
526
SACN62 CYYY 110600
METAR CYYY 110600Z 20014KT 15SM SCT080 M05/M09 A3013 RMK AC4 SLP205=

0000011100
527
SAHK31 VHHH 110600
METAR VHHH 110600Z 26007KT 190V310 7000 NSC 22/11 Q1021 WS R07R 
NOSIG=

0000011200
528
SACN62 CYYT 110600
METAR CYYT 110600Z 27027G34KT 15SM BKN140 M05/M09 A3006 RMK AC5
 SLP189=

0000015000
529
SNDL22 EDZW 111600 CCA
AAXX 11161
10131 41480 42908 10063 20032 30082 40097 53025 72111 81230
  333 55300 20006 30006 81816 84363=
0000013800
530
SNDL23 EDZW 111700 CCA
AAXX 11171
10655 42665 52103 10034 20026 39847 40181 53005 83531
  333 55300 20000 30000 82643=
0000147100
531
SNOS43 LOWM 111700
AAXX 11171
11018 36/// /2602 10028 20014 39870 40196 53005 333 55300=
11019 27/// /2202 10038 20026 39451 40178 58002 72144 333 55300 69955=
11034 36/// /1801 10071 20050 39965 40182 58001 333 55300=
11040 36/// /2002 10046 20029 39941 40186 58001 333 55300=
11051 27/// /3002 10031 20022 39720 40194 50002 780// 333 55300 69905=
11055 27/// /1401 10033 20028 39814 40199 52005 740// 333 55300 69915=
11060 27/// /2301 10036 20009 39874 40197 52008 721// 333 55300 69905=
11070 27/// /2201 10043 20025 39933 40184 57003 72144 333 55300 69915=
11075 27/// /0000 10035 20029 39929 40188 57001 74044 333 55300 69945=
11082 36/// /2502 10048 20034 39911 40182 58001 333 55300=
11149 36/// /3102 10024 21025 38245 48496 53009 333 55300=
11152 27/// /1601 10051 20035 39587 40195 50009 721// 333 55300 69905=
11185 36/// /3001 10059 21012 39022 48481 53001 333 55300=
11248 36/// /1401 10049 20042 39922 40187 58005 333 55300=
11252 36/// /3001 10006 21024 38833 48501 53008 333 55300=
11255 36/// /3601 10033 20005 39368 40219 53003 333 55300=
11270 36/// /0000 11005 21010 39466 40232 53004 333 55300=
11275 36/// /0803 10020 21002 39157 40215 53002 333 55300=
11280 36/// /2901 10013 21002 39243 40216 53008 333 55300=
11292 36/// /2901 10035 20024 39551 40190 57005 333 55300=
11343 36/// /2705 11066 21095 36948 47056 50002 333 55300=
11385 36/// /2401 10069 21001 39082 48478 52002 333 55300=
0000135200
532
SNOS40 LOWM 111700
AAXX 11171
11010 21662 72003 10029 20015 39811 40197 52004 76062 333 69905
82640 84656 86359=
11012 26/// /2103 10034 20016 39722 40198 51009 333 55300 69905=
11022 27/// /2403 10041 20020 39785 40176 58004 780// 333 55300 69905=
11035 32960 52303 10064 20048 39928 40182 52001 69905 81032 333 81360
84073=
11036 32958 51803 10037 20029 39960 40187 56003 333 81360 85072=
11101 36/// /0801 10058 20049 39698 40227 52018 333 55300=
11120 32880 79901 10044 20036 39505 40219 52017 333 83657 85360=
11126 36/// /3307 11004 21032 37749 48505 53005 333 55300=
11130 36/// /2402 10059 20033 39613 40205 51010 333 55300=
11146 NIL=
11150 32775 79901 10054 20037 39662 40201 52013 333 85650 86657=
11155 26/// /2909 10027 21016 38363 48489 53005 333 55300 69905 91119=
11157 36/// /0000 10030 20013 39429 40213 53015 333 55300=
11171 36/// /0901 10020 21002 39173 40199 52008 333 55300=
11190 36/// /0402 10057 20043 39957 40180 58001 333 55300=
11204 36/// /2701 11013 21021 39419 40235 53007 333 55300=
11212 NIL=
11231 31140 83202 10014 20013 39635 40219 55001 71022 333 81702
88703=
11240 31958 71501 10027 20018 39747 40193 57006 71122 333 84365
87370=
11244 36/// /3401 10040 20029 39862 40195 55002 333 55300=
11389 32/50 82003 10045 20020 39858 40188 52002 333 55300=
0000106400
533
SNOS41 LOWM 111700
AAXX 11171
11001 27/// /2904 10051 20027 39454 40192 51008 721// 333 55300 69915=
11024 26/// /2707 10038 20005 39056 48473 52001 333 55300 69905 91113=
11030 27/// /2102 10040 20026 39970 40189 52003 721// 333 55300 69905=
11053 26/// /1501 10036 20024 39671 40193 50003 333 55300 69905=
11105 26/// /0000 10043 20038 39696 40226 53016 333 55300 69905=
11110 27/// /2810 11016 21023 37912 48515 53009 74044 333 55300 69905 91115=
11112 36/// /0000 10040 20029 39260 40216 52018 333 55300=
11127 36/// /1601 10001 21045 38060 48511 52012 333 55300=
11136 36/// /3101 10026 20022 39031 48497 53015 333 55300=
11142 NIL=
11147 36/// /2301 10026 20014 39191 40211 53017 333 55300=
11148 36/// /0901 11007 21018 38978 48487 53008 333 55300=
11153 36/// /3201 10042 20034 39621 40204 51013 333 55300=
11165 NIL=
11180 26/// /3008 10049 21018 38421 48482 50002 333 55300 69905 91117=
11229 36/// /0601 10027 20019 39721 40216 55000 333 55300=
11232 36/// /0601 10015 20012 39567 40214 55002 333 55300=
0000127800
534
SNOS42 LOWM 111700
AAXX 11171
11008 27/// /1701 10017 20014 39468 40196 52005 780// 333 55300 69905=
11015 36/// ///// 10017 20011 39530 40196 50006 333 55300=
11020 27/// /0000 10018 20015 39569 40183 57004 721// 333 55300 69915=
11021 26/// /2001 10038 20032 39507 40174 50000 333 55300 69905=
11032 27/// /1902 10058 20038 39927 40179 55006 721// 333 55300 69905=
11078 36/// /2303 10069 20008 39355 40175 53002 333 55300=
11129 36/// /1903 10003 21007 38649 48508 52007 333 55300=
11135 NIL=
11138 36/// /0103 11022 21041 37684 47055 53010 333 55300=
11141 36/// /1402 10042 20022 39553 40214 53019 333 55300=
11144 36/// /1701 10023 20020 3//// 4//// 5//// 333 55300=
11154 26/// /2601 10038 20015 39678 40195 50008 333 55300 69905=
11170 36/// /0000 10008 20003 39465 40208 53010 333 55300=
11174 NIL=
11182 36/// /3402 10032 20026 39841 40186 50000 333 55300=
11192 36/// /0000 10047 20038 39864 40191 57003 333 55300=
11194 36/// /1603 10058 20048 39997 40180 58001 333 55300=
11213 36/// /0501 10014 20011 39612 40217 53001 333 55300=
11225 36/// /2501 10008 20002 39360 40219 53004 333 55300=
11241 36/// /3205 10046 21017 38546 48483 55001 333 55300=
11261 36/// /0000 10032 21006 39250 40214 53006 333 55300=
00000000