0000009800
875
SAFR32 LFPW 110700 RRA
METAR LFCK 110700Z AUTO 27003KT 9999 OVC025 08/06 Q1020=

0000011700
876
SAAF05 LFPW 110700 RRA
METAR DBBB 110700Z VRB01KT 2500  BR SCT008 BKN200 25/25 Q1011 TEMPO
1400=

0000010500
877
SAAF08 LFPW 110700 RRA
METAR GABS 110700Z 01004KT 6000  NSC 19/09 Q1014 TEMPO 4000 DU=

0000009300
878
SAAF13 LFPW 110700 RRB
METAR GGOV 110700Z 34003KT CAVOK 17/12 Q1012 NOSIG=

0000010200
879
SAAF14 LFPW 110700 RRA
METAR DRRN 110700Z 08010KT 2000 BLDU NSC 19/M01 Q1016 NOSIG=

0000016100
880
SAAF27 LFPW 110700 RRA
METAR DGAA 110700Z 27004KT 8000 FEW048 26/24 Q1011 NOSIG=
METAR GUCY 110700Z 36004KT CAVOK 22/21 Q1011 TEMPO 5000 BR=

0000009500
881
SPCN43 CWAO 110709
SPECI CWHN 110709Z AUTO 27005KT 9SM OVC002 M09/M10 A2949=

0000123400
882
SPUS70 KWBC 110710
SPECI
KBWI 110706Z 00000KT 1/8SM R10/1000FT FG VV002 02/02 A3005 RMK AO2
     PRESFR=
KDCA 110706Z 03004KT 3/4SM R01/3500VP6000FT BR OVC003 03/02 A3005
     RMK AO2 PRESFR=
KGWO 110706Z AUTO 26008KT 230V300 1 1/2SM RA BR SCT006 BKN029
     OVC060 17/16 A2971 RMK AO2 P0016 T01670156 TSNO=
KHAO 110706Z AUTO 00000KT 5SM -RA BR BKN028 OVC046 10/09 A2968 RMK
     AO2 P0002 T01000094=
KIMT 110707Z AUTO 00000KT 5SM BR OVC003 M02/M03 A2936 RMK AO2=
KIND 110706Z 23005KT 2SM BR OVC006 04/04 A2958 RMK AO2 FG OVR RWY
     $=
KLWV 110706Z AUTO 34003KT 1/4SM -RA BKN004 BKN009 OVC035 05/ A2959
     RMK AO2 P0001 T0050 $=
KOKB 110706Z AUTO 00000KT 1 1/2SM BR CLR 06/06 A3010 RMK AO2 TSNO
     $=
KDVN 110707Z AUTO 27011KT 1 3/4SM BR OVC002 01/01 A2948 RMK
     AO2=
KPDK 110707Z AUTO 00000KT 1/2SM VCTS FG VV002 08/08 A2993 RMK AO2
     LTG DSNT S-W TSB06=
KSTJ 110707Z AUTO 27007KT 8SM SCT018 BKN110 01/M01 A2964 RMK AO2
     T00061006=
PAPB 110707Z AUTO 10021G32KT 6SM -SN BR SCT012 OVC021 01/01 A2892
     RMK AO2 PK WND 10032/0703 P0000 T00110006 TSNO $=
K2DP 110707Z AUTO 15020G26KT 3SM SHRA BKN004 BKN018 BKN075 17/17
     A3009 RMK AO2 LTG DSNT N=

0000070900
883
SAAG31 KWBC 110700
METAR
SAAG NIL=
SAAP NIL=
SAAR 110700Z 14015KT CAVOK 20/13 Q1011=
SABE 110700Z 16023G35KT CAVOK 20/08 Q1012=
SACO 110700Z 16012KT 9999 SCT016 BKN100 22/15 Q1017=
SADD NIL=
SAEZ 110700Z 17013KT 140V200 CAVOK 17/08 Q1013=
SAME 110700Z 18005KT CAVOK 24/04 Q1015=
SARC 110700Z 05004KT 9999 FEW050CB SCT100 BKN200 28/24 Q1007=
SARE 110700Z NIL=
SARF 110700Z 36006KT CAVOK 27/22 Q1007=
SARI 110700Z 05003KT CAVOK 23/23 Q1011=
SARP 110700Z 09004KT CAVOK 26/21 Q1010=
SASA 110700Z 27004KT CAVOK 22/15 Q1012=
SASJ 110700Z NIL=
SAWE 110700Z NIL=
SAWG 110700Z 34007KT CAVOK 09/06 Q1011=
SAZM 110700Z NIL=
SAZS 110700Z 18004KT CAVOK 10/05 Q1021=

0000023100
884
SAAG41 KWBC 110700
METAR
SAAC NIL=
SAAV NIL=
SAGS NIL=
SANE NIL=
SANT 110700Z NIL=
SANU NIL=
SAOR NIL=
SARL 110700Z NIL=
SATM NIL=
SAVC 110700Z NIL=
SAVT NIL=
SAZB NIL=
SAZN 110700Z NIL=

0000009500
885
SACA31 KWBC 110700 RRB
METAR
MYNN 110700Z 12006KT 9999 FEW018 24/21 A3012=

0000057000
886
SAJP31 KWBC 110700 RRA
METAR
RJAA 110700Z VRB02KT 9999 FEW030 07/M09 Q1022 BECMG 31005KT RMK
     1CU030 A3020=
RJCC 110700Z 34005KT 9999 FEW020 SCT070 M07/M11 Q1018 RMK 1CU020
     3AC070 A3008=
RJFK 110700Z 36006KT 300V110 9999 FEW030 SCT040 BKN120 08/M01
     Q1026 RMK 1CU030 3CU040 5AC120 A3032=
RJOO 110700Z 32005KT 280V340 9999 FEW030 SCT050 08/M05 Q1026 RMK
     1CU030 3SC050 A3032=
RJTT 110700Z 12004KT 9999 FEW025 07/M06 Q1022 NOSIG RMK 1CU025
     A3021=
RODN 110658Z 06009KT 10SM BKN046 19/09 A3027 RMK AO2A SLP 253=

0000047600
887
SAPR41 KWBC 110700
METAR
SPCL 110700Z 01004KT 320V030 9999 SCT015 BKN060 25/24 Q1010 RMK
     PP000=
SPEC NIL=
SPEI NIL=
SPEO NIL=
SPGM NIL=
SPHI 110700Z 17009KT CAVOK 22/21 Q1011 RMK PP000=
SPHO NIL=
SPHY NIL=
SPJA NIL=
SPJI NIL=
SPJL 110700Z NIL=
SPJN NIL=
SPJR NIL=
SPME 110700Z NIL=
SPMS NIL=
SPNC NIL=
SPPY NIL=
SPRU 110700Z 14005KT 8000 FEW005 20/19 Q1010 RMK BR PP000=
SPST 110700Z NIL=
SPTU NIL=
SPUR NIL=

0000034400
888
SAMG20 FMMI 110700
METAR FMNA 110700Z=
METAR FMNN 110700Z=
METAR FMSD 110700Z VRB02KT 9999 FEW020 SCT230 29/24 Q1014=
METAR FMMT 110700Z 08004KT 9999 VCSH SCT017TCU 31/26 Q1014 NOSIG=
METAR FMNM 110700Z 20004KT 9999 FEW020 SCT230 31/23 Q1013 NOSIG=
METAR FMMI 110700Z 15004KT 9000 SCT017 BKN230 27/23 Q1022
NOSIG=

0000012700
889
SASA41 KWBC 110700 RRA
METAR
SKBG 110700Z NIL=
SKMD 110700Z NIL=
SKPE 110700Z NIL=
SKSM 110700Z NIL=

0000011300
890
SPUS41 KWBC 110710
SPECI
KPVD 110707Z 00000KT 1 1/4SM R05/3000V4000FT BR OVC003 02/01 A3023=

0000009700
891
SPUS41 KWBC 110710
SPECI
KRIC 110707Z 31006KT 1 3/4SM BR OVC002 06/04 A3005=

0000010400
892
SPUS42 KWBC 110710
SPECI
KPDK 110707Z AUTO 00000KT 1/2SM VCTS FG VV002 08/08 A2993=

0000040200
893
SAMG20 FMMI 110700
METAR FIMP 110700Z 08009KT 9999 SCT020 29/25 Q1016=
METAR FIMR 110700Z 09015KT 9999 -SHRA SCT017 30/25 Q1016=
METAR FMEP 110700Z AUTO 26009KT 9999 NCD 29/24 Q1015=
METAR FJDG 110700Z NIL=
METAR FMCH 110700Z 32005KT 270V020 9999 FEW022 31/24 Q1014 NOSIG=
METAR FMEE 110700Z NIL=
METAR FMCZ 110700Z 16003KT 110V250 9999 FEW022 BKN300 31/24 Q1013
NOSIG=

0000091600
894
SARA34 RUMS 110700
METAR UNAA 110700Z 21003MPS CAVOK M02/M07 Q1031 NOSIG RMK QFE750
20090040=
METAR UNBB 110700Z 22004MPS 9000 -SN BKN033 OVC100 M07/M09 Q1031
NOSIG RMK QFE751/1001 24452045=
METAR UNEE 110700Z 19006MPS 6000 -SN OVC013 M08/M10 Q1029 NOSIG RMK
QFE749 23452045=
METAR UNKL 110700Z 24003MPS 9999 SCT026CB BKN083 M04/M10 Q1027 NOSIG
RMK QFE745 29////55=
METAR UNNT 110700Z 21004MPS 6000 -SN BKN020 OVC083 M07/M09 Q1029
25390137 16390142 NOSIG RMK QFE762/1016=
METAR UNOO 110700Z 18005MPS 4500 -SHSN BR BKN023CB M08/M10 Q1022
25390137 NOSIG RMK QFE759=
METAR UNTT 110700Z 22005MPS 9999 SCT018CB OVC100 M07/M09 Q1027 NOSIG
RMK QFE755 21390130=
METAR USTR 110700Z 18004MPS 9999 OVC027 M07/M08 Q1013 NOSIG RMK
QFE750/1001 21390050 12750029=
METAR USHH 110700Z 04003MPS 9000 -SN BKN004 OVC080 M18/M21 Q1015
TEMPO 0600 +SN OVC002 RMK QBB130 QFE758 06////40=

00000000