0000013600
995
FTAU33 YBBN 110700 AAB
TAF AMD YMLT 110704Z 1107/1124
34015G25KT 9999 SCT045
FM111000 34008KT 9999 FEW015 
RMK=

0000013800
996
SACN62 CYSB 110700
METAR CYSB 110700Z 14018KT 1SM R22/P6000FT/N -FZRA BR OVC002 M01/M01
 A2960 RMK SF8 PRESFR SLP041=

0000010200
997
SACN62 CYRT 110700
METAR CYRT 110700Z 35003KT 15SM IC SKC M32/M36 A2972 RMK SLP071=

0000011900
998
SACN62 CYSJ 110700
METAR CYSJ 110700Z 00000KT 15SM BKN014 OVC062 M04/M06 A3027 RMK
 SC5SC3 SLP255=

0000012300
999
SAUK37 EGGY 110650 RRB
METAR EGPI 110650Z AUTO 32025KT 7000 SHRA FEW008/// SCT017/// 03/01
     Q1013=

0000010600
000
SAUK38 EGGY 110650 RRA
METAR EGPU 110650Z AUTO 28015KT 9999 FEW037/// 05/01 Q1010 RERA=

0000008900
001
SAJM31 MKJS 110700
METAR MKJS 110700Z 16008KT 9999 FEW024 25/19 Q1015=

0000009800
002
SAMT20 GQPP 110700
METAR GQPP 110700Z 01005KT 0100 FG BKN005 15/14 Q1016 NOSIG=

0000009700
003
SASP36 LEMM 110700
METAR GEML 110700Z 24008KT 200V280 9999 FEW014 14/12 Q1017=

0000017500
004
SASP37 LEMM 110700
METAR LEBG 110700Z 00000KT 0200 R22/0450N FG VV001 00/00 Q1017=
METAR LEHC 110700Z NIL=
METAR LEBA 110700Z VRB01KT CAVOK 08/06 Q1017=

0000007500
005
SASU01 HSSS 110630
METAR HSSS 110630Z 36011 CAVOK Q1020=

0000029900
006
SASP40 LEMM 110700
METAR LEGA 110700Z NIL=
METAR LEGT 110700Z 00000KT 8000 NSC 07/05 Q1017=
METAR LEMO 110700Z 03002KT CAVOK 09/08 Q1016
NOSIG=
METAR LERI 110700Z 27001KT 4000 BR OVC030 08/08 Q1018 NOSIG=
METAR LERT 110700Z 01004KT 340V050 9999 FEW058 12/10 Q1016 NOSIG=

0000008900
007
SAKN61 HKJK 110633
METAR HKJK 110630Z 36008KT CAVOK 22/13 Q1023 NOSIG=

0000011200
008
SACN46 CWAO 110700
METAR CYKZ 110700Z 10006KT 2SM -RA BR OVC002 02/02 A2974 RMK ST8
SLP080=

0000008900
009
SASU01 HSSS 110700
METAR HSSS 110700Z 02012KT CAVOK 16/00 Q1020 NOSIG=

0000047500
010
SAAP32 FAPR 110700
METAR FABL 110700Z 36004KT 260V040 CAVOK 24/14 Q1020 NOSIG=
METAR FACT 110700Z 23006KT 180V270 9999 FEW030 20/12 Q1017 NOSIG=
METAR FALE 110700Z 20006KT 9999 FEW020 SCT049 25/17 Q1018 NOSIG=
METAR FAOR 110700Z 02012KT CAVOK 22/14 Q1024 NOSIG=
METAR FDMS 110700Z 00000KT 9999 SCT020 BKN030 23/18 Q1020 NOSIG=
METAR FQBR 110700Z 04007KT 010V100 9999 FEW025 31/26 Q1012=
METAR FQMA 110700Z 18019KT 9999 BKN025 26/21 Q1016 NOSIG=

0000026300
011
SASP41 LEMM 110700
METAR COR LEAO 110700Z 00000KT 0400 FG BKN001 03/03 Q1017=
METAR LEBT 110700Z NIL=
METAR LECV 110700Z NIL=
METAR LEEC 110700Z 02005KT CAVOK 10/08 Q1016=
METAR LELO 110700Z 00000KT 0300 R29/0900N FG OVC002 04/04 Q1019=

0000009300
012
SAMC31 GMMC 110700 RRA
METAR GMAD 110700Z 00000KT 9999 SCT020 09/08 Q1016=

0000013600
013
FTAU33 YBBN 110700 AAC
TAF AMD YMLT 110705Z 1107/1124
34015G25KT 9999 FEW045
FM111000 34008KT 9999 FEW015 
RMK=

0000023300
014
SABC40 FBSK 110700
METAR FBFT 110700Z /////KT CAVOK 25/19 Q1017=
METAR FBKE 110700Z 36003KT CAVOK 23/19 Q1019=
METAR FBMN 110700Z 03009KT CAVOK 27/19 Q1017=
METAR FBSK 110700Z 07012KT CAVOK 28/13 Q1017 NOSIG=

00000000