0000008900
215
FCUK34 EGGY 110800 RRB
TAF EGBJ 110859Z 1109/1118 20005KT 9999 FEW025=

0000077200
216
SPUS70 KWBC 110900
SPECI
KMCB 110856Z AUTO 21010KT 1 1/2SM +TSRA BR SCT007 BKN013 OVC020
     19/19 A2981 RMK AO2 LTG DSNT ALQDS TSB54 P0003 T01940189=
KATL 110857Z 36005G16KT 1/4SM R09R/4500VP6000FT -TSRA BR SCT003
     OVC006CB 10/09 A2990 RMK AO2 SFC VIS 3/4 OCNL LTGIC OHD-NE-SE
     TS OHD-NE-SE MOV NE TWRINC P0015=
KDAW 110857Z AUTO 00000KT 3/4SM BR VV003 M01/M01 A3016 RMK AO2
     FZRAE57 P0000 I1000 T10061011=
KFCI 110858Z AUTO 00000KT 1SM OVC002 05/00 A2999 RMK AO1=
KFTY 110857Z 14005KT 2 1/2SM RA BR SCT005 BKN010 OVC025 11/10
     A2988 RMK AO2 P0001=
KLHQ 110857Z AUTO 21007KT 2 1/2SM +RA BR BKN022 OVC033 11/09 A2969
     RMK AO2 P0002=
KSSF 110857Z AUTO 00000KT 1 1/4SM BR FEW005 09/09 A2990 RMK AO2
     $=

0000012900
217
SACN62 CYQX 110900
METAR CYQX 110900Z 24013KT 20SM FEW027 SCT140 BKN260 M06/M09 A3004
 RMK SC1AC3CI3 SLP183=

0000010700
218
SACN48 CWAO 110900
METAR CYOY 110900Z AUTO 05003KT 020V090 4SM M06/M07 A3006 RMK SLP194=

0000009000
219
SACN51 CWAO 110900
METAR CWYK 110900Z AUTO ///// M24/ A2929 RMK SLP005=

0000011600
220
SAMJ41 LWSK 110900
METAR LWSK 110900Z 00000KT 0900 R34/1100N FG OVC003 00/M00 Q1026
BECMG 1500=

0000009200
221
SACN51 CWAO 110900
METAR CWIL 110900Z AUTO 19009KT M25/ A2937 RMK SLP956=

0000008900
222
SABZ41 KWBC 110800 RRB
METAR
SBBI 110800Z 21005KT CAVOK 21/18 Q1018=

0000010300
223
SACN44 CWAO 110900
METAR CYED 110900Z AUTO 20007KT 9SM CLR M07/M13 A2947 RMK SLP012=

0000008100
224
SACN51 CWAO 110900
METAR CWRX 110900Z AUTO 32013KT M30/ A2947=

0000009800
225
SABZ19 SBMA 110900
METAR SBMA 110900Z 30003KT 9999 SCT030 SCT070 22/22
Q1011=

0000011700
226
SPSR31 WSAP 110900
SPECI WSAP 110900Z 04013KT 7000 -TSRA 
FEW010 FEW014CB SCT016TCU 30/24 Q1008=

0000009600
227
SACV20 GVNP 110900
METAR GVNP 110900Z /////KT 9999 BKN029  20/13 Q//// NOSIG=

0000021800
228
SASQ31 LZIB 110900
METAR LZIB 110900Z 13003KT 9999 SCT044 03/01 Q1021 NOSIG=
METAR LZKZ 110900Z 00000KT 9999 FEW001 M01/M01 Q1020 NOSIG=
METAR LZTT 110900Z VRB02KT 9999 FEW036 00/M04 Q1018 NOSIG=

0000019400
229
SASQ41 LZIB 110900
METAR LZPP 110900Z 26003KT CAVOK 03/M00 Q1021=
METAR LZSL 110900Z 00000KT 9999 FEW053 02/M01 Q1020=
METAR LZZI 110900Z VRB01KT 9999 FEW022 03/M00 Q1020=

0000009500
230
SAHU31 LHBM 110900
METAR LHBP 110900Z 09005KT 9999 BKN033 03/02 Q1022 NOSIG=

0000022200
231
SABU31 LBSM 110900
METAR LBSF 110900Z VRB01MPS 1700 BR NSC 01/01 Q1024 BECMG 3000 BR=
METAR LBWN 110900Z 27006MPS CAVOK 09/00 Q1023 NOSIG=
METAR LBBG 110900Z 27003MPS 240V300 CAVOK 09/03 Q1024 NOSIG=

0000011700
232
SASR31 WSAP 110900
METAR WSAP 110900Z 04013KT 7000 -TSRA 
FEW010 FEW014CB SCT016TCU 30/24 Q1008=

0000011500
233
SACN44 CWAO 110900
METAR CYPE 110900Z 00000KT 15SM OVC150 M13/M15 A2932 RMK AS7 PRESFR
SLP971=

0000011200
234
SACN51 CWAO 110900
METAR CWCL 110900Z AUTO 15006KT 2 1/4SM OVC002 M02/M06 A2919 RMK
SLP919=

00000000