0000039100
395
SACR31 LEMM 110800
METAR GCLP 110800Z 32007KT 290V360 9999 FEW023 15/11 Q1018 NOSIG=
METAR GCXO 110800Z VRB02KT 9999 FEW010 11/07 Q1019 NOSIG=
METAR GCTS 110800Z 01007KT 9999 SCT025 SCT035 15/12 Q1018 NOSIG=
METAR GCRR 110800Z 31004KT 280V360 CAVOK 13/10 Q1018=
METAR GCFV 110800Z 29004KT 9999 FEW020 12/09 Q1018=
METAR GCLA 110800Z 29007KT 9000 NSC 17/04 Q1017=

0000009600
396
SASP39 LEMM 110800
METAR LETL 110800Z AUTO 00000KT 0400 FG VV001 00/00 Q1018=

0000031800
397
SASP34 LEMM 110800
METAR LEDA 110800Z NIL=
METAR LEJR 110800Z VRB02KT CAVOK 11/10 Q1017=
METAR LELL 110800Z 00000KT 4000 BR OVC020 10/08 Q1019=
METAR LEPP 110800Z 00000KT 0050 R33/0275N R15/0325N FG VV001
03/03 Q1019=
METAR LEXJ 110800Z 26001KT 6000 -DZ FEW008 BKN014 OVC040 11/10
Q1019=

0000033100
398
SASP35 LEMM 110800
METAR LEAB 110800Z 00000KT 2000 BR BKN002 05/05 Q1018 BECMG 1400=
METAR LEBZ 110800Z 00000KT 0400 R31/0400D FG VV001 05/05 Q1017=
METAR LELC 110800Z 31003KT 9999 SCT018 11/10 Q1018 NOSIG=
METAR LELN 110800Z 36003KT CAVOK 02/00 Q1017=
METAR LETO 110800Z 02002KT CAVOK 05/04 Q1018 NOSIG=

0000017900
399
SACR32 LEMM 110800
METAR GCHI 110800Z 04003KT 340V080 9999 FEW020 18/14 Q1017=
METAR GCGM 110800Z VRB01KT 9999 FEW065 15/09 Q1018 RMK CAB09
04003KT 010V080=

0000012400
400
SASC20 FSIA 110800
METAR FSIA 110800Z 08003KT 9999 FEW009 FEW015CB BKN017 28/25 Q1012
TEMPO 8000 -SHRA=

0000052900
401
SATS32 DTTA 110800
METAR DTKA 110800Z 04005KT 9999 FEW020 11/06 Q1019 NOSIG=
METAR DTMB 110800Z 16004KT 120V190 CAVOK 14/07 Q1020 NOSIG=
METAR DTNH 110800Z 25003KT 210V270 CAVOK 08/06 Q1020=
METAR DTTA 110800Z VRB02KT 8000 FEW020 SCT100 11/08 Q1019 NOSIG=
METAR DTTF 110800Z 14003KT 9999 FEW030 13/05 Q1021 NOSIG=
METAR DTTG NIL=
METAR DTTJ 110800Z 22003KT 8000 NSC 14/10 Q1021 NOSIG=
METAR DTTX 110800Z 21004KT CAVOK 13/07 Q1021 NOSIG=
METAR DTTZ 110800Z 26005KT 9999 FEW030 11/04 Q1021 NOSIG=

0000033400
402
SATS42 DTTA 110800
METAR DTTB 110800Z 33004KT CAVOK 10/09 Q1019=
METAR DTTD 110800Z 21008KT 180V280 CAVOK 16/03 Q1022=
METAR DTTK 110800Z VRB02KT CAVOK 11/06 Q1020=
METAR DTTL 110800Z 00000KT CAVOK 10/10 Q1019=
METAR DTTN 110800Z 18002KT 5000 NSC 05/05 Q1020=
METAR DTTR 110800Z 14008KT CAVOK 11/06 Q1023=

0000030400
403
SATS41 DTTA 110800
METAR DTTB 110800Z 33004KT CAVOK 10/09 Q1019=
METAR DTTD 110800Z 21008KT 180V280 CAVOK 16/03 Q1022=
METAR DTTG NIL=
METAR DTTK 110800Z VRB02KT CAVOK 11/06 Q1020=
METAR DTTL 110800Z 00000KT CAVOK 10/10 Q1019=
METAR DTTN 110800Z 18002KT 5000 NSC 05/05 Q1020=

0000010600
404
SATS40 DTTA 110800 RRA
METAR DTTA 110800Z VRB02KT 8000 FEW020 SCT100 11/08 Q1019 NOSIG=

0000055900
405
SATS40 DTTA 110800
METAR DTKA 110800Z 04005KT 9999 FEW020 11/06 Q1019 NOSIG=
METAR DTMB 110800Z 16004KT 120V190 CAVOK 14/07 Q1020 NOSIG=
METAR DTNH 110800Z 25003KT 210V270 CAVOK 08/06 Q1020=
METAR DTTA 110800Z VRB02KT 8000 FEW020 SCT100 11/08 Q1019 NOSIG=
METAR DTTF 110800Z 14003KT 9999 FEW030 13/05 Q1021 NOSIG=
METAR DTTJ 110800Z 22003KT 8000 NSC 14/10 Q1021 NOSIG=
METAR DTTR 110800Z 14008KT CAVOK 11/06 Q1023=
METAR DTTX 110800Z 21004KT CAVOK 13/07 Q1021 NOSIG=
METAR DTTZ 110800Z 26005KT 9999 FEW030 11/04 Q1021 NOSIG=

0000008400
406
SAAG41 SAWG 110800
METAR SAWG 110800Z  34007KT CAVOK 09/06 Q1010=

0000009800
407
SAAG05 SABM 110700 RRE
METAR SANT 110700Z  18006KT 9999  OVC040  23/20
Q1011=

0000178300
408
SPUS70 KWBC 110804
SPECI
KCDW 110800Z 36003KT 1 3/4SM BR OVC002 01/01 A3011 RMK AO2=
KDCU 110800Z AUTO 22016G23KT 1 1/4SM +TSRA BR SCT007 OVC023 15/14
     A2975 RMK AO2 LTG DSNT ALQDS P0016=
KFAY 110800Z AUTO 16007KT 3SM BR OVC007 18/17 A3000 RMK AO2=
KGVL 110800Z AUTO 13008KT 2SM +TSRA BR BKN004 OVC009 08/07 A2994
     RMK AO2 LTG DSNT E AND W AND NW P0004=
KHOU 110800Z 00000KT 1SM BR VV005 16/16 A2986 RMK AO2=
KJEF 110800Z AUTO 26010KT 9SM FEW021 BKN035 OVC060 04/02 A2962 RMK
     AO2=
KLOU 110800Z AUTO 00000KT 1 3/4SM +RA BR BKN060 OVC075 10/10 A2965
     RMK AO2 P0005 TSNO=
KPWM 110800Z AUTO 00000KT 6SM BR BKN008 OVC012 M01/M02 A3023 RMK
     AO2 T10061022=
KNFE 110801Z AUTO 15012G17KT 1 3/4SM RA SCT005 BKN019 OVC024 18/15
     A3007 RMK AO2 P0001 T01830150=
KBPT 110801Z AUTO 22005KT 5SM BR BKN006 BKN016 18/17 A2985 RMK AO2
     $=
KDAW 110801Z AUTO 00000KT 1 3/4SM UP BR OVC003 M01/M03 A3020 RMK
     AO2 UPB0759 P0000 T10111028=
KECP 110801Z AUTO 15012G17KT 8SM BKN004 OVC010 19/18 A2998 RMK AO2
     $=
KGEZ 110801Z AUTO 19009KT 1/2SM FG VV002 08/ A2958 RMK AO2 T0078
     $=
KISW 110801Z AUTO 28005KT 3SM -SN BR OVC004 M01/M01 A2941 RMK AO2
     SNB01 CIG 003V008 P0000 T10061011=
KLHQ 110801Z AUTO 25004KT 2SM +RA BKN019 BKN027 OVC032 11/08 A2971
     RMK AO2 RAB0758 P0010=
KOXB 110801Z AUTO 21005KT 4SM -RA BR SCT004 BKN032 OVC090 10/09
     A3009 RMK AO2 P0001 T01000089 TSNO=
KSMQ 110801Z AUTO 34003KT 1 1/2SM BR OVC006 02/01 A3006 RMK AO2
     T00170011 TSNO=
KVAY 110801Z AUTO 00000KT 3/4SM BR FEW002 BKN028 OVC033 03/03
     A3006 RMK AO2 T00280028=
KVSF 110801Z AUTO 00000KT 1/2SM -FZRA FZFG VV003 M03/M03 A3016 RMK
     AO2 UPE0755FZRAB0755 P0000 I1000 T10331033=

0000011300
409
SPUS31 KWBC 110804
SPECI
KLOU 110800Z AUTO 00000KT 1 3/4SM +RA BR BKN060 OVC075 10/10 A2965=

0000010700
410
SPUS41 KWBC 110804
SPECI
KPWM 110800Z AUTO 00000KT 6SM BR BKN008 OVC012 M01/M02 A3023=

0000009200
411
SPUS42 KWBC 110804
SPECI
KHOU 110800Z 00000KT 1SM BR VV005 16/16 A2986=

0000011000
412
SPIY40 LIIB 110758 COR
SPECI COR LIPY 110758Z 16003KT 0800 R22/P1500 FG BKN000 10/09 Q1023=

0000080800
413
FTRS32 RUMS 110800
TAF URKA 110800Z 1109/1209 26007G12MPS 9999 SCT015 SCT020CB 530005
TEMPO 12O0/1206 2000 BR BKN005 BKN015CB=
TAF URKK 110758Z 1109/1209 28010G15MPS 9999 SCT020CB 530002 TEMPO
1109/1118 3000 -SHRA BKN007 BKN020CB=
TAF URMM 110757Z 1109/1209 29007G12MPS 9999 BKN020CB 530002 TEMPO
1109/1121 31012G17MPS 2100 -SHRA BKN007 BKN020CB TEMPO 1121/1209
1200 SHRASN BKN004 BKN020CB=
TAF URRR 110759Z 1109/1209 24009G14MPS 9999 SCT010 BKN020CB 530005
TEMPO 1109/1121 26011G16MPS TEMPO 1121/1206 2100 BR SCT007
BKN020CB=
TAF URSS 110755Z 1109/1209 07004G09MPS 9999 BKN020CB BKN100 520002
TEMPO 1109/1112 15004G09MPS 5000 -SHRA SCT007 BKN020CB BKN100 TEMPO
1112/1118 27004G09MPS TEMPO 1118/1203 3000 -SHRA SCT007 BKN020CB
OVC100 PROB40 TEMPO 1118/1103 -TSRA=

0000012900
414
FTRA31 RUMS 110800
TAF UEEE 110800Z 1109/1215 VRB02MPS 1500 BR NSC TM44/1112Z TEMPO
1109/1124 0300 FG VV003=

00000000