0000010200
915
SAUS74 KWBC 110600 RRC
METAR
KOTH 110615Z 20008KT 10SM FEW028 BKN060 13/11 A2997=

0000015900
916
FCRO33 LROM 110500 AAA
TAF AMD LRTC 110700Z 1107/1115 26008KT CAVOK TEMPO 1107/1108 5000 BR=
TAF AMD LRSV 110700Z 1107/1115 27007KT CAVOK=

0000062400
917
SAVN21 SVMR 110600
METAR SVJC 110600Z NIL=
METAR SVLO 110600Z NIL=
METAR SVGI 110600Z NIL=
METAR SVMN 110600Z NIL=
METAR SVVL 110600Z NIL=
METAR SVGU 110600Z 00000KT CAVOK 22/20 Q1011=
METAR SVJM 110600Z NIL=
METAR SVCZ 110600Z NIL=
METAR SVVP 110600Z NIL=
METAR SVVG 110600Z NIL=
METAR SVMD 110600Z 02003KT 9000 VCBR BKN027 15/11 Q1020=
METAR SVCL 110600Z 09006KT CAVOK ///// Q1012=
METAR SVSA 110600Z NIL=
METAR SVGD 110600Z 07004KT CAVOK 19/14 Q////=
METAR SVSR 110600Z /////KT CAVOK 23/// Q1012=
METAR SVTM 110600Z NIL=
METAR SVPA 110600Z NIL=
METAR SVSE 110600Z NIL=

0000075900
918
SASD20 OEJD 110600
METAR OEMK 110600Z NIL=
METAR OENG 110600Z 24004KT 9999 SCT030 BKN090 17/02 Q1020 NOSIG=
METAR OEPA 110600Z 33005KT 9999 SCT035 10/08 Q1019 NOSIG=
METAR OERF 110600Z NIL=
METAR OERK 110600Z 17007KT 8000 NSC 12/10 Q1021 NOSIG=
METAR OERR 110600Z 31011KT 9999 BKN040 06/06 Q1020 NOSIG=
METAR OERY 110600Z NIL=
METAR OESH 110600Z 24008KT 9999 FEW040 17/04 Q1019 NOSIG=
METAR OESK 110600Z 31014KT 9999 SCT015 BKN040 07/02 Q1021=
METAR OETB 110600Z 00000KT 6000 SCT040 06/02 Q1023 NOSIG=
METAR OETF 110600Z VRB02KT 9999 FEW015 BKN030 09/07 Q1023 NOSIG=
METAR OETR 110600Z 32014KT 6000 SCT020 BKN030 OVC100 03/03 Q1021=
METAR OEWD 110600Z NIL=
METAR OEWJ 110600Z 01006KT 9999 FEW030 16/09 Q1021 NOSIG=

0000032100
919
FTCN35 CWAO 110600 AAA
TAF AMD CYAM 110618Z 1106/1114 08008KT 1/4SM -SN FZFG VV003 TEMPO
     1106/1109 1SM -SN BR OVC008 PROB30 1106/1109 2SM -FZRA -PL BR
    FM110900 14005KT 1/4SM -DZ FG VV002 TEMPO 1109/1114 1SM -RA BR
     OVC004
     BECMG 1110/1112 25005KT
    RMK NXT FCST BY 110800Z=

0000015600
920
SAAF13 LFPW 110600 RRA
METAR GBYD 110600Z 03006KT CAVOK 17/13 Q1012=
METAR GVAC 110600Z 05003KT 9999 BKN015 BKN200 19/14 Q1014
NOSIG=

0000009300
921
SAAF27 LFPW 110600 RRB
METAR GUCY 110600Z 05004KT CAVOK 23/22 Q1010 NOSIG=

0000017600
922
SASD20 OEJD 110600
METAR OEAB 110600Z 24008KT 9999 SCT012 SCT015 12/12 Q1025 NOSIG=
METAR OEAH 110600Z 17007KT 9999 SCT050 BKN100 14/12 Q1020 RERA
NOSIG=

0000176600
923
SPUS70 KWBC 110612
SPECI
KACK 110608Z AUTO 17005KT 1 3/4SM BR SCT002 OVC006 05/04 A3027 RMK
     AO2 TSNO=
KARA 110608Z AUTO 20014G24KT 3SM -RA BR OVC003 18/17 A2987 RMK AO2
     LTG DSNT N AND NE RAB08 CIG 002V006 P0000 $=
KCVG 110608Z 19007KT 4SM TSRA BR SCT018 BKN023CB OVC036 10/10
     A2971 RMK AO2 TSB0554 OCNL LTGIC TS OHD MOV E P0008=
KGWO 110608Z AUTO 21013KT 10SM -RA SCT008 BKN031 OVC075 17/16
     A2972 RMK AO2 PRESFR P0002 T01670156 TSNO=
KJST 110608Z AUTO 17011KT 7SM OVC004 03/03 A2991 RMK AO2 CIG
     002V008 T00330033=
KLGB 110608Z 00000KT 1 3/4SM HZ SCT003 BKN011 13/11 A3011 RMK
     AO2=
KNEW 110608Z AUTO 18013KT 2SM BR OVC002 19/18 A2990 RMK AO2
     T01890183 TSNO=
KYIP 110608Z AUTO 17008KT 2 1/2SM BR OVC002 04/03 A2962 RMK AO2
     TSNO=
PANW 110605Z AUTO 01003KT 1 1/4SM BR OVC001 M08/M09 A2941 RMK AO2
     TSNO $=
KARB 110609Z AUTO 18006KT 3/4SM -RA BR VV002 04/03 A2960 RMK AO2
     P0000=
KASH 110609Z AUTO 00000KT 5SM BR BKN008 00/M01 A3024 RMK AO2 CIG
     008V011=
KDAN 110609Z AUTO 00000KT 3/4SM BR VV002 04/03 A3007 RMK AO2=
KFLO 110609Z 16003KT 1/2SM FG SCT003 OVC120 15/14 A3004 RMK
     AO2=
KHKY 110609Z AUTO 00000KT 2SM -RA BR OVC005 06/06 A3002 RMK AO2
     P0001=
KIND 110609Z 16007KT 2 1/2SM -RA BR OVC004 05/05 A2959 RMK AO2 VIS
     2V4 P0001 $=
KINT 110609Z AUTO 05004KT 2SM -RA BR OVC002 04/03 A3005 RMK AO2
     P0001=
KLCH 110609Z AUTO 21006KT 1SM VCTS -RA BR VV002 18/18 A2985 RMK
     AO2 LTG DSNT E RAB02 P0000 T01780178=
KMIE 110609Z AUTO 19012KT 7SM -RA BKN005 OVC070 07/06 A2960 RMK
     AO2 P0001 T00670061 TSNO=
KUUU 110609Z AUTO 17004KT 1/2SM -RA FG BKN003 OVC036 07/07 A3023
     RMK AO2 RAB06 P0000 T00720072=

0000011600
924
SPUS31 KWBC 110612
SPECI
KCVG 110608Z 19007KT 4SM TSRA BR SCT018 BKN023CB OVC036 10/10
A2971=

0000009800
925
SPUS42 KWBC 110612
SPECI
KNEW 110608Z AUTO 18013KT 2SM BR OVC002 19/18 A2990=

0000009200
926
SPIY40 LIIB 110608
SPECI LIPY 110608Z 22004KT 3500 BR BKN004 08/08 Q1022=

0000010100
927
SPUS31 KWBC 110613
SPECI
KIND 110609Z 16007KT 2 1/2SM -RA BR OVC004 05/05 A2959=

0000012400
928
SPUS41 KWBC 110613
SPECI
KBDL 110609Z 00000KT 3/4SM R06/5000V5500FT -RA BR BKN005 OVC014
01/00 A3020=

0000010200
929
SPUS41 KWBC 110613
SPECI
KINT 110609Z AUTO 05004KT 2SM -RA BR OVC002 04/03 A3005=

0000010500
930
SPUS41 KWBC 110613
SPECI
KSYR 110609Z 08009KT 10SM SCT017 BKN041 OVC190 02/01 A2997=

0000010600
931
SPUS42 KWBC 110613
SPECI
KLCH 110609Z AUTO 21006KT 1SM VCTS -RA BR VV002 18/18 A2985=

0000199800
932
SPUS70 KWBC 110614
SPECI
KAKH 110610Z AUTO 04005KT 3SM BR OVC002 06/06 A3003 RMK AO2 RAE10
     P0003=
KAOO 110610Z AUTO 16006KT 1SM BR OVC002 02/02 A2998 RMK AO2
     T00220022=
KARR 110610Z 19004KT 1/2SM FG OVC002 A2949 RMK AO2 $=
KBKV 110610Z AUTO 10004KT 2SM BR FEW022 17/16 A3008 RMK AO2 VIS
     1V5 T01670161=
KBWG 110610Z AUTO 29017G24KT 5SM +RA FEW008 SCT012 OVC040 13/10
     A2972 RMK AO2 WSHFT 0552 LTG DSNT N AND W RAB07 P0005
     T01280100=
KCEW 110610Z AUTO 17006KT 2SM BR OVC002 19/19 A2998 RMK AO2
     T01940189=
KFOK 110610Z 18007KT 2SM BR FEW032 BKN055 OVC075 08/06 A3022 RMK
     AO2=
KGFL 110610Z AUTO 00000KT 5SM BR OVC008 M02/M03 A3016 RMK AO2=
KLWM 110610Z AUTO 00000KT 2 1/2SM BR OVC004 02/M01 A3025 RMK AO2
     T00171006=
KSDF 110610Z VRB03KT 3SM RA FEW022 OVC048 11/10 A2969 RMK AO2
     TSE10 TS DSIPTD P0004 $=
KBFM 110611Z AUTO 18007KT 3/4SM BR VV002 17/17 A2994 RMK AO2 RAE00
     P0000 T01720167=
KCHO 110611Z 00000KT 2 1/2SM -RA BR SCT011 OVC018 02/02 A3006 RMK
     AO2 P0000 T00220017=
KDVN 110611Z AUTO 26010KT 3SM BR OVC002 02/01 A2948 RMK AO2=
KMFI 110611Z AUTO 29004KT 2SM -SN BR BKN005 OVC009 M02/M03 A2941
     RMK AO2 CIG 003V007 P0000 T10171033=
KOWB 110611Z AUTO 15013KT 3SM -RA BR FEW001 BKN039 OVC049 08/08
     A2965 RMK AO2 LTG DSNT E-S TSE11 P0002 PRESFR=
KPLN 110612Z AUTO 16004KT 5SM -RA BR FEW004 BKN015 OVC027 01/M01
     A2948 RMK AO2 P0001 T00061006=
KPNS 110611Z AUTO 19010KT 3/4SM R17/3000VP6000FT -RA BR VV002
     19/18 A2996 RMK AO2 P0001 T01940183=
KUZA 110611Z AUTO 00000KT 2 1/2SM BR OVC002 06/06 A3004 RMK AO2
     RAE11 P0001 T00560056=
KVRB 110611Z 00000KT 1 1/2SM BR SCT016 BKN020 BKN027 20/20 A3011
     RMK AO2 VIS 3/4V5=
PAMB 110611Z AUTO 05012KT 6SM BR BKN005 OVC009 M06/M06 A2935 RMK
     AO2 TSNO CIG 004V007 $=
PAPB 110611Z AUTO 10015G22KT 10SM BKN014 BKN021 OVC043 02/01 A2895
     RMK AO2 UPE0556 P0000 T00170011 TSNO $=

0000010300
933
SPUS41 KWBC 110614
SPECI
KLWM 110610Z AUTO 00000KT 2 1/2SM BR OVC004 02/M01 A3025=

0000011100
934
SPUS42 KWBC 110614
SPECI
KTYS 110610Z 08004KT 1/4SM R23R/1600V3000FT FG VV002 08/07 A2988=

00000000