0000009300
555
SPUS41 KWBC 110648
SPECI
KPSM 110644Z 02002KT 2SM BR OVC005 00/00 A3023=

0000010400
556
SPUS43 KWBC 110648
SPECI
KSTP 110644Z AUTO 27003KT 2 1/2SM BR OVC004 M02/M02 A2948=

0000012200
557
SAAK31 KWBC 110600 RRC
METAR
PANC 110553Z COR 34004KT 10SM FEW006 BKN015 OVC025 M05/M07
     A2934=

0000016400
558
FCUK32 EGGY 110500 RRC
TAF EGSD 110648Z 1107/1115 21012KT 9999 BKN010 BECMG 1107/1109
    31008KT SCT030 PROB30 TEMPO 1107/1109 4000 RA BKN004=

0000013200
559
FCFI32 EFHK 110500 AAA
TAF AMD EFJO 110649Z 1106/1108 02013KT 9999 -SN BKN018 TEMPO
     1106/1108 6000 BKN009=

0000010200
560
SACV20 GVSV 110700
METAR GVSV 110700Z 08006KT 9999 SCT023 BKN200 20/15 Q1016 NOSIG=

0000034700
561
SASW31 LSSW 110650
METAR LSZH 110650Z VRB01KT 0500 R14/0800U R16/1200D R28/0900N
    R34/1000N PRFG VV002 01/01 Q1018 NOSIG=
METAR LSGG 110650Z 25001KT 9999 MIFG NSC 02/02 Q1019 NOSIG=
METAR LSZB 110650Z 18001KT 4000 VCFG FEW003 BKN130 M01/M01 Q1018
    NOSIG=
METAR LSZA 110650Z VRB01KT 9999 BKN044 07/06 Q1022 NOSIG=

0000064400
562
SASW39 LSSW 110650
METAR LSMA 110650Z AUTO 19003KT 0700NDV R01/0800V1100N R19/1700D FG
           OVC002 01/01 Q1018 RMK RED=
METAR LSMD 110650Z AUTO VRB02KT 0600NDV R11/1100N R29/0900D FG VV001
           01/01 Q1018 RMK RED=
METAR LSME 110650Z AUTO VRB01KT 0600NDV R04/1000D R22/0750N FG
           OVC002 02/02 Q1018 RMK RED=
METAR LSMM 110650Z AUTO 29003KT 220V330 6000NDV BKN110 BKN130 00/00
           Q1017 RMK GRN=
METAR LSMP 110650Z AUTO 00000KT 0600NDV R05/0900VP2000D R23/0800U FG
           FEW005 SCT160 BKN210 M00/M00 Q1018 RMK RED=
METAR LSMS 110650Z VRB02KT 9999 FEW150 BKN200 02/02 Q1018=

0000033100
563
FTUS51 KWBC 110651 AAA
TAF AMD
KGMU 110647Z 1107/1206 VRB04KT 3SM SHRA BR OVC004
     FM111100 18008KT 1SM SHRA BR OVC002 WS020/21035KT
     FM111500 20012G18KT 2SM SHRA BR VCTS OVC004CB
     FM111900 22013G22KT 4SM -SHRA OVC020
     FM112000 24010G17KT P6SM BKN040
     FM112300 26010KT P6SM SCT050=

0000047400
564
FTUS53 KWBC 110651 AAA
TAF AMD
KCID 110648Z 1107/1206 28009KT P6SM OVC006
     FM110800 29011KT P6SM BKN006 OVC015
     FM111500 26008KT P6SM SCT010
     FM111800 30013KT P6SM BKN018
     FM112300 26006KT P6SM SKC=
KDBQ 110649Z 1107/1206 29010KT 4SM BR OVC002
     FM110800 28011KT 4SM BR OVC004
     FM111000 27007KT 6SM BR BKN006 OVC015
     FM111600 29012KT P6SM SCT018
      TEMPO 1117/1121 BKN018
     FM120000 26006KT P6SM SKC=

0000140000
565
FTUS80 KWBC 110651 AAA
TAF AMD
KATL 110649Z 1107/1212 12005KT 1/4SM -RADZ FG OVC002
      TEMPO 1107/1110 1/2SM -TSRA FG OVC003CB
     FM111000 16009KT 3SM -SHRA BR OVC004
     FM111400 21010G18KT 4SM -SHRA BR OVC007
     FM111900 27012G22KT P6SM BKN025
     FM112100 29014G25KT P6SM SCT040
     FM120000 28014KT P6SM SCT250
     FM120600 30007KT P6SM SKC=
KCID 110648Z 1107/1206 28009KT P6SM OVC006
     FM110800 29011KT P6SM BKN006 OVC015
     FM111500 26008KT P6SM SCT010
     FM111800 30013KT P6SM BKN018
     FM112300 26006KT P6SM SKC=
KDBQ 110649Z 1107/1206 29010KT 4SM BR OVC002
     FM110800 28011KT 4SM BR OVC004
     FM111000 27007KT 6SM BR BKN006 OVC015
     FM111600 29012KT P6SM SCT018
      TEMPO 1117/1121 BKN018
     FM120000 26006KT P6SM SKC=
KFTY 110650Z 1107/1206 05005KT 3SM -RADZ BR OVC005
      TEMPO 1107/1109 1SM -TSRA BR OVC003CB
     FM111000 16009KT 3SM -SHRA BR OVC004
     FM111400 21009KT 4SM -SHRA BR OVC007
     FM111900 27010G18KT P6SM BKN025
     FM112100 29012G20KT P6SM SCT040
     FM120000 28011KT P6SM SCT250=
KGMU 110647Z 1107/1206 VRB04KT 3SM SHRA BR OVC004
     FM111100 18008KT 1SM SHRA BR OVC002 WS020/21035KT
     FM111500 20012G18KT 2SM SHRA BR VCTS OVC004CB
     FM111900 22013G22KT 4SM -SHRA OVC020
     FM112000 24010G17KT P6SM BKN040
     FM112300 26010KT P6SM SCT050=

0000029400
566
FTUS80 KWBC 110651 AAB
TAF AMD
KSFO 110650Z 1107/1212 27006KT P6SM SCT010 BKN200
     FM110900 25005KT P6SM OVC008
     FM111500 19006KT P6SM BKN015
     FM112100 24006KT P6SM VCSH BKN025 BKN060
     FM120000 29010KT P6SM BKN060
     FM120600 29006KT P6SM SCT060=

0000011100
567
SPUS43 KWBC 110651
SPECI
KSDF 110647Z 22005KT 3SM TSRA BKN007 BKN010 OVC041CB 11/10 A2968=

0000010000
568
SPUS43 KWBC 110651
SPECI
KSTP 110647Z AUTO 27003KT 3SM BR OVC006 M02/M02 A2948=

0000012500
569
SAMO31 ZMUB 110700
METAR ZMUB 110700Z VRB01MPS 2000NW FU NSC M23/M26 Q1028 NOSIG RMK
 QFE662.4 71 NW MO=

0000009500
570
SABW31 VGHS 110650
METAR VGHS 110650Z 31006KT 3500 HZ NSC 21/12 Q1015 NOSIG=

0000009600
571
SACV20 GVNP 110700
METAR GVNP 110700Z /////KT 9999 BKN020  XX/XX Q//// NOSIG=

0000010200
572
SAIS32 LLBG 110650
METAR LLBG 110650Z 14004KT 9999 FEW035 SCT050 14/11 Q1024 NOSIG=

0000017800
573
SALV32 EVRA 110650
METAR EVLA 110650Z AUTO 26006KT 9999 OVC019 03/00 Q1004=
METAR EVVA 110650Z AUTO 28008KT 250V310 9999 FEW008 BKN018 OVC023 
01/00 Q1003=

0000017400
574
SADN33 EKCH 110650
METAR EKKA 110651Z 23012KT 5000 -RA BR FEW006 BKN010 07/06 Q1003=
METAR EKSP 110650Z 24015KT 5000 BR SCT007 BKN009 07/06 Q1006
RERA=

00000000