0000040600
115
SAUS73 KWBC 110700 RRE
METAR
KALN 110715Z AUTO 21012KT 10SM 07/06 A2953=
KEGE 110715Z AUTO 23018G23KT 10SM OVC070 M01/M05 A3013=
KGYY 110715Z AUTO 19009G15KT 160V220 1 3/4SM -DZ OVC003 06/05
     A2949=
KIKK 110715Z AUTO 17010KT 1 1/4SM -RA OVC002 04/04 A2949=
KJAC 110715Z AUTO 17014KT 10SM OVC031 M01/M04 A3000=
KSAW 110717Z AUTO 00000KT 1 1/2SM -SN OVC008 M02/M02 A2936=

0000009800
116
SAUS74 KWBC 110700 RRD
METAR
KIWA 110715Z AUTO 13004KT 10SM CLR 06/M01 A3016=

0000026200
117
SAUS75 KWBC 110700 RRB
METAR
PADK 110716Z AUTO 22037G46KT 5SM BKN021 OVC027 03/M01 A2866=
PAGS 110716Z AUTO 00000KT 1 1/4SM BKN048 M01/M01 A2924=
PAUN 110716Z AUTO 10012KT 10SM CLR M17/M23 A2954=
PAVD 110716Z 10SM OVC100 M08/M09 A2926=

0000008800
118
SPCN46 CWAO 110720
SPECI CYYU 110720Z 13009KT 6SM -SN OVC012 RMK SC8=

0000022100
119
SAAK31 KWBC 110700 RRA
METAR
PAED 110658Z 00000KT 10SM SCT005 OVC013 M05/M06 A2932 AO2A SLP933
     T10531058=
PAVD 110716Z 10SM OVC100 M08/M09 A2926=
PAWG 110716Z 00000KT 10SM CLR 01/M03 A2914=

0000011000
120
SAAK32 KWBC 110700 RRA
METAR
PADK 110716Z AUTO 22037G46KT 5SM BKN021 OVC027 03/M01 A2866=

0000013400
121
SAEU31 BKPR 110730
BKPR 110730Z 00000KT 0100 R17/0150 FZFG OVC002 M01/M02 Q1024 BECMG
 0300 BKN004 RMK 17010095 =

0000008800
122
SPCN43 CWAO 110720
SPECI CYGX 110720Z 05005KT 2SM -SN OVC016 RMK SC8=

0000012500
123
SPCZ40 LKKV 110720
SPECI LKKV 110720Z VRB02KT 2500 BR BCFG SCT002 BKN004 M02/M03 Q1016
RMK REG QNH 1014=

0000013000
124
SALT31 EYVI 110720
METAR EYVI 110720Z 28009KT 4000 -SNRA BR BKN007 OVC012 00/M01 Q1005
     R20/2/0195 NOSIG=

0000008900
125
SAMP31 LMMM 110730 RRA
METAR HLLT 110720Z
17006KT CAVOK 11/06 Q1023=

0000014700
126
FCNO33 ENMI 110500 AAB
TAF AMD ENKR 110719Z 1107/1115 17008KT 9999 -SN FEW002 BKN010 TEMPO
             1107/1115 4000 BKN005=

0000017600
127
FTCN34 CWAO 110700 AAA
TAF AMD CYGQ 110721Z 1107/1114 VRB03KT 1SM -SN BR OVC005 TEMPO
     1107/1114 3SM -SN -FZDZ BR OVC008
    RMK NXT FCST BY 110800Z=

0000021100
128
FTUS51 KWBC 110721 AAA
TAF AMD
KZZV 110720Z 1107/1206 17010G20KT P6SM BKN025 OVC035 WS020/22045KT
     FM110900 18010KT 4SM -RA OVC009 WS020/22050KT
     FM111700 23012G24KT P6SM BKN015=

0000018800
129
FTUS52 KWBC 110721 AAA
TAF AMD
KPBF 110720Z 1107/1206 26006KT P6SM BKN100 BKN250 WS020/20040KT
     FM111500 28012G20KT P6SM SCT250
     FM120000 27006KT P6SM SKC=

0000039500
130
FTUS53 KWBC 110721 AAA
TAF AMD
KRWF 110717Z 1107/1206 28008KT P6SM SCT015
     FM111230 30010KT P6SM BKN020 BKN040
     FM111800 29010KT P6SM SCT040 SCT250
     FM120000 23007KT P6SM SCT020 BKN100=
KUIN 110718Z 1107/1206 29009KT 2SM BR OVC005
      TEMPO 1107/1111 1/2SM FG VV002
     FM111500 27012G18KT P6SM SCT020 BKN250
     FM120200 27008KT 6SM BR SCT250=

0000136500
131
FTUS80 KWBC 110721 AAA
TAF AMD
KJFK 110720Z 1107/1212 05004KT 1SM -SHRA BR OVC003 WS020/19040KT
      TEMPO 1107/1108 1/2SM -SHRA FG
     FM110800 16011KT 3SM -RA BR BKN011 OVC040 WS020/19055KT
     FM111300 17018KT 5SM -RA BR SCT011 OVC040 WS015/19060KT
     FM111800 18023G32KT 1/2SM +RA FG OVC004 WS015/19060KT
     FM120300 23014G20KT 3SM -SHRA BR SCT015 BKN030
     FM120600 27016G22KT P6SM SCT035=
KPBF 110720Z 1107/1206 26006KT P6SM BKN100 BKN250 WS020/20040KT
     FM111500 28012G20KT P6SM SCT250
     FM120000 27006KT P6SM SKC=
KRWF 110717Z 1107/1206 28008KT P6SM SCT015
     FM111230 30010KT P6SM BKN020 BKN040
     FM111800 29010KT P6SM SCT040 SCT250
     FM120000 23007KT P6SM SCT020 BKN100=
KSUS 110719Z 1107/1206 26014G22KT 5SM BR OVC012
     FM111600 27012G20KT P6SM SCT020 BKN250
     FM120400 23006KT 5SM BR SCT250=
KTMB 110720Z 1107/1206 13003KT 3SM BR FEW007 SCT200
     FM111400 16013G19KT P6SM SCT025 BKN250
     FM111900 19013G19KT P6SM SCT035 BKN050=
KUIN 110718Z 1107/1206 29009KT 2SM BR OVC005
      TEMPO 1107/1111 1/2SM FG VV002
     FM111500 27012G18KT P6SM SCT020 BKN250
     FM120200 27008KT 6SM BR SCT250=
KZZV 110720Z 1107/1206 17010G20KT P6SM BKN025 OVC035 WS020/22045KT
     FM110900 18010KT 4SM -RA OVC009 WS020/22050KT
     FM111700 23012G24KT P6SM BKN015=

0000011100
132
SPUS42 KWBC 110721
SPECI
KTYS 110717Z 00000KT 1/4SM R23R/1600V3500FT FG VV002 07/07 A2983=

0000009800
133
SPUS42 KWBC 110721
SPECI
KTMB 110717Z AUTO 13003KT 3SM BR FEW007 22/22 A3008=

0000010100
134
SPUS43 KWBC 110721
SPECI
KLEX 110717Z 23005KT 9SM -RA BKN015 OVC050 13/11 A2965=

00000000