0000030300
435
FTUS52 KWBC 110909 AAA
TAF AMD
KMCB 110906Z 1109/1206 21012G18KT 5SM -RA BR SCT007 BKN015 OVC020
      TEMPO 1109/1111 2SM TSRA OVC007CB
     FM111100 23010KT 5SM BR OVC015
     FM111500 30008KT P6SM SCT250
     FM111800 30012G20KT P6SM SKC
     FM120000 30004KT P6SM SKC=

0000058200
436
FTUS53 KWBC 110909 AAA
TAF AMD
KALO 110907Z 1109/1206 29009KT 6SM BR OVC008
     FM111100 29010KT P6SM SKC
     FM111600 29014G20KT P6SM BKN030
     FM112300 26008KT P6SM FEW030=
KFWA 110908Z 1109/1206 21010KT 3/4SM -SHRA BR OVC004
      TEMPO 1109/1112 1/4SM FG
     FM111200 22012KT 1/2SM FG VCSH OVC003
     FM111500 25014G22KT 3SM BR VCSH OVC008
     FM120100 27011G17KT 5SM BR OVC010=
KMCW 110907Z 1109/1206 29010KT 3SM BR OVC004
     FM111000 30010KT P6SM SKC
     FM111400 30015G22KT P6SM BKN025
     FM112200 27010KT P6SM FEW030=

0000133600
437
FTUS80 KWBC 110909 AAA
TAF AMD
KALO 110907Z 1109/1206 29009KT 6SM BR OVC008
     FM111100 29010KT P6SM SKC
     FM111600 29014G20KT P6SM BKN030
     FM112300 26008KT P6SM FEW030=
KCRQ 110907Z 1109/1206 VRB03KT 6SM BR FEW250
     FM111100 VRB03KT 5SM BR VCFG FEW002
     FM111600 24005KT P6SM FEW250
     FM120200 VRB03KT 5SM BR BKN008=
KDSM 110907Z 1109/1206 29010KT 5SM BR BKN006
     FM111000 30010KT P6SM FEW120
     FM111600 30014G20KT P6SM SCT030
     FM112200 25008KT P6SM SKC=
KFWA 110908Z 1109/1206 21010KT 3/4SM -SHRA BR OVC004
      TEMPO 1109/1112 1/4SM FG
     FM111200 22012KT 1/2SM FG VCSH OVC003
     FM111500 25014G22KT 3SM BR VCSH OVC008
     FM120100 27011G17KT 5SM BR OVC010=
KGRR 110908Z 1109/1206 20008KT 1/4SM -RA FG OVC004
     FM111200 22007KT 1/2SM -DZ FG OVC004
     FM111600 27012G22KT 4SM -SN BR OVC008
     FM112300 28013KT P6SM OVC025=
KMCB 110906Z 1109/1206 21012G18KT 5SM -RA BR SCT007 BKN015 OVC020
      TEMPO 1109/1111 2SM TSRA OVC007CB
     FM111100 23010KT 5SM BR OVC015
     FM111500 30008KT P6SM SCT250
     FM111800 30012G20KT P6SM SKC
     FM120000 30004KT P6SM SKC=
KMCW 110907Z 1109/1206 29010KT 3SM BR OVC004
     FM111000 30010KT P6SM SKC
     FM111400 30015G22KT P6SM BKN025
     FM112200 27010KT P6SM FEW030=

0000071600
438
FTUS80 KWBC 110909 AAB
TAF AMD
KMPV 110906Z 1109/1206 18005KT 5SM BR VCSH SCT006 BKN012 OVC020
      TEMPO 1109/1113 3SM -FZRA BR BKN006 OVC010
     FM111300 17007KT 3SM -RA BR OVC007 WS020/20050KT
     FM111500 17009G18KT 3SM -RA BR BKN003 OVC009 WS020/20050KT
     FM112000 17008G18KT 2SM RA BR BKN003 OVC008 WS020/20055KT=
KSAN 110906Z 1109/1212 VRB03KT 6SM BR FEW250
     FM111100 VRB03KT 4SM BR SCT004
     FM111600 27007KT P6SM FEW250
     FM120200 VRB04KT P6SM BKN010
     FM121000 VRB03KT P6SM FEW010=
PAIL 110908Z 1109/1206 02007KT P6SM BKN004
     FM111200 02009KT 6SM BR BKN015
     FM111600 03008KT P6SM SCT020 BKN050
     FM120400 02006KT 5SM -SHSN OVC035=

0000011300
439
SPUS41 KWBC 110909
SPECI
KCEF 110907Z AUTO 36003KT 1 1/4SM R23/5000FT BR OVC002 00/00 A3010=

0000028400
440
SAOS33 LOWM 110900
METAR LOAN 110900Z VRB02KT 25KM FEW020CU SCT035SC RMK BKN=
METAR LOAV 110900Z VRB02KT 40KM FEW040CU BKN080AC 03/M00 Q1021 RMK
BKN=
METAR LOIH 110900Z 00000KT 0200 FG VV000 03/02 Q1017=
METAR LOWZ 110900Z 21003KT 1000 FG VV005 01/01 Q1019=

0000008700
441
SAAL41 DAMM 110900 RRB
METAR DAAP 110900Z 00000KT CAVOK 18/02 Q1023=

0000009300
442
SAID33 WALR 110900
METAR WALR 110900Z 35007KT 7000 -RA BKN014 27/24 Q1009=

0000032200
443
SAIO31 KWBC 110900 RRB
METAR
VYMD 110900Z NIL=
VYYY 110900Z NIL=
WBGG 110900Z 01007KT 330V050 9999 SCT020 SCT150 BKN300 27/23 Q1009
     NOSIG=
WBKK 110900Z 00000KT 9999 FEW014 SCT040 OVC260 28/24 Q1009
     NOSIG=
WBSB 110900Z 26008KT 9000 SCT015 FEW016CB BKN280 29/25 Q1009
     NOSIG=

0000046600
444
SAID31 WIII 110900
METAR WIII 110900Z 32010KT 9999 SCT018CB SCT020 30/24 Q1007 RMK CB TO
SE S AND SW= 
METAR WIHH 110900Z 30007KT 6000 SCT017 30/24 QNH 1008 NOSIG= 
METAR WIMM 110900Z 32008KT 6000 FEW017 28/24 Q1008= 
METAR WADD 110900Z VRB02KT 9999 SCT017 29/25 Q1007 NOSIG= 
METAR WAAA 110900Z 36004KT 9999 FEW019 30/24 Q1008= 
METAR WARR 110900Z 35010KT 320V100 7000 SCT018CB FEW020 29/23 Q1007= 
METAR WABB NIL=
METAR WIDD NIL=

0000029400
445
FTCN34 CWAO 110900 AAA
TAF AMD CYQK 110909Z 1109/1120 29008KT 2SM BR OVC004 TEMPO 1109/1112
     4SM -FZDZ -SN OVC008
    FM111200 30008KT P6SM -SN OVC010 TEMPO 1112/1117 21/2SM -SN BR
     OVC006
    FM111700 27008KT P6SM SCT006 OVC012
    RMK NXT FCST BY 111400Z=

0000044400
446
SAPO31 LPMG 110900
METAR LPBJ 110900Z VRB02KT 8000 3000NW BCFG FEW002 06/05 Q1018=
METAR LPFR 110900Z 05009KT 9999 SCT013 SCT020 13/10 Q1017=
METAR LPMA 110900Z 26005KT 9999 FEW015 15/11 Q1018 RS26004KT
0529006KT 2328005KT=
METAR LPPR 110900Z 11009KT 0700 R17/0550N FG BKN003 07/07 Q1018=
METAR LPPS 110900Z 15005KT 9999 FEW014 15/14 Q1018=
METAR LPPT 110900Z 35004KT 310V020 0200 R21/0300 FG VV001 08/08
Q1018=

0000032500
447
SAPO32 LPMG 110900
METAR LPAZ 110900Z 29022KT 9000 -DZ BKN007 15/13 Q1007=
METAR LPFL 110900Z VRB11KT 9999 FEW020TCU 08/01 Q1009=
METAR LPHR 110900Z 30014G25KT 9999 SCT025 12/05 Q1008=
METAR LPLA 110900Z 32019G29KT 9999 FEW017 12/07 Q1006=
METAR LPPD 110900Z 30017KT 9999 FEW012 SCT045 13/11 Q1005=

0000008900
448
FCIE32 EIDB 110800 RRD
TAF EIWF 110800Z 1109/1118 VRB03KT 9999 SCT030=

0000008900
449
FCIE32 EIDB 110800 RRE
TAF EIKY 110800Z 1109/1118 15005KT 9999 SCT020=

0000047700
450
SAAO33 DRRN 110900
METAR DBBB 110900Z VRB03KT 3000  BR SCT010 BKN200 27/26 Q1012 NOSIG=
METAR DFFD 110900Z 08011KT 4000 DU NSC 25/03 Q1017 BECMG 6000 NSW=
METAR DGAA 110850Z 25007KT 9000 SCT015 28/24 Q1013 NOSIG=
METAR DNKN 110900Z NIL=
METAR DNMM 110900Z NIL=
METAR DRRN 110900Z 09017KT 3000 BLDU NSC 23/M03 Q1017 NOSIG=
METAR DXXX 110900Z 24004KT 220V280 7000  SCT012 27/25 Q1013 NOSIG=
METAR FTTJ 110900Z 05014KT 7000  NSC 23/04 Q1019 NOSIG=

0000008700
451
SAAL41 DAMM 110900 RRC
METAR DAUE 110900Z /////KT CAVOK 12/06 Q1022=

0000040600
452
SAID32 WIII 110900
METAR WIPT 110900Z 28005KT 250V320 9999 SCT020 30/24 Q1008= 
METAR WIOO 110900Z 35004KT 9999 SCT012 31/24 Q1007 NOSIG = 
METAR WADL 110900Z 10006KT 8000 HZ FEW016 27/24 Q1008= 
METAR WIBB 110900Z 32006KT 9999 SCT016 30/23 Q1006 NOSIG= 
METAR WIPP 110900Z 04003KT 7000 SCT008 26/25 Q1008= 
METAR WAMM NIL=
METAR WIDN NIL=
METAR WAOO NIL=
METAR WALL NIL=

0000081200
453
SAEG32 HECA 110900
METAR HEMM 110900Z 26012KT 9999 SCT020 BKN025 15/10 Q1027 NOSIG=
METAR HEAX 110900Z 20003KT 9999 SCT020 18/11 Q1026 NOSIG=
METAR HEAL 110900Z NIL=
METAR HELX 110900Z 00000KT CAVOK 17/10 Q1025 NOSIG=
METAR HESN 110900Z 36010KT CAVOK 17/05 Q1024 NOSIG=
METAR HEAR 110900Z NIL=
METAR HEGN 110900Z 34014KT 8000 FEW025 19/10 Q1024 NOSIG=
METAR HEPS 110900Z 36004KT CAVOK 18/15 Q1025 NOSIG=
METAR HETB 110900Z NIL=
METAR HESH 110900Z 03011KT 9999 FEW020 21/05 Q1023 NOSIG=
METAR HEAT 110900Z 34004KT 8000 NSC 15/07 Q1027 NOSIG=
METAR HEBA 110900Z 18004KT CAVOK 16/12 Q1026 NOSIG=
METAR HEBL 110900Z NIL=
METAR HESC 110900Z 03008KT 9999 SCT020 BKN100 07/03 Q1027 NOSIG=
METAR HESG 110900Z NIL=
METAR HEMA 110900Z 34015KT 9999 SCT020 18/06 Q1024 NOSIG=

0000010200
454
SAID31 WIII 110900
METAR WIDD 110900Z 03011KT 650 TSRA BKN014 FEW018CB 26/25 Q1009=

00000000