0000051300
675
SAOS31 LOWM 110750
METAR LOWW 110750Z 16004KT 9999 FEW035 01/M01 Q1020 NOSIG=
METAR LOWL 110750Z VRB01KT 9999 VCFG FEW055 BKN250 M02/M02 Q1020
BECMG NSW=
METAR LOWS 110750Z VRB02KT 9999 2000SE BCFG FEW001 BKN300 M00/M00
Q1018 NOSIG=
METAR LOWI 110750Z VRB02KT 2500 BR SCT002 BKN004 01/01 Q1020
R08/19//71 NOSIG=
METAR LOWG 110750Z VRB02KT 9999 BKN009 BKN090 02/01 Q1020 R17/19//95
TEMPO SCT009=
METAR LOWK 110750Z 33004KT 5000 BR SCT003 OVC005 01/01 Q1021
R10L/19//95 NOSIG=

0000009100
676
SACS31 MROC 110800
METAR
MROC 110800Z 09007KT CAVOK 19/13 A2997 NOSIG=

0000009300
677
SAGR33 LGAT 110750 RRA
METAR LGKZ 110750Z 00000KT 9999 FEW070 08/02 Q1023=

0000009500
678
SAQB31 LQSM 110800
METAR LQSA 110800Z 00000KT 7000 FEW070 05/05 Q1023 NOSIG=

0000010700
679
SAMT20 GQPP 110800
METAR GQPP 110800Z 02006KT 0600 R02/0600 FG BKN005 16/15 Q1017 NOSIG=

0000009200
680
SAMT20 GQPP 110700
GQPP 110700Z 01005KT 0100 FG BKN005 15/14 Q1016 NOSIG=

0000008900
681
SAID32 WADL 110800
METAR WADL 110800Z 13005KT 7000 SCT016 27/25 Q1008=

0000011300
682
SAUS75 KWBC 110700 RRF
METAR
PAOM 110653Z COR 04015KT 10SM DRSN FEW032 SCT100 M12/M21 A2959=

0000011000
683
SAUK36 EGGY 110750 CCA
METAR COR EGSD 110750Z 27011KT 9999 SCT004 07/06 Q1012 TEMPO BKN006=

0000032000
684
FTRS32 RUMS 110500 CCA
TAF URSS 110700Z 1107/1206 07004G09MPS 9999 BKN020CB BKN100
520002 TEMPO 1106/1109 16004G09MPS -SHRA TEMPO 1109/1118
26004G09MPS 5000 -SHRA SCT007 BKN020CB BKN100 BECMG 1115/1117
05004G09MPS TEMPO 1118/1203 3000 -SHRA SCT007 BKN020CB OVC100
PROB40 TEMPO 1118/1103 -TSRA=

0000011500
685
SAES20 MSLP 110800
METAR MSLP 110750Z 04003KT CAVOK 21/18 Q1017 A2987=
METAR MSSS 110750Z NIL=

0000031800
686
SAMG20 FMMI 110700
METAR 110700Z
METAR FMSD 110700Z VRB02KT 9999 FEW020 SCT230 29/24 Q1014=
METAR FMMT 110700Z 08004KT 9999 VCSH SCT017TCU 31/26 Q1014 NOSIG=
METAR FMNM 110700Z 20004KT 9999 FEW020 SCT230 31/23 Q1013 NOSIG=
METAR FMMI 110700Z 15004KT 9000  SCT017  BKN230 27/23 Q1022
NOSIG=

0000008900
687
SABZ24 SBFL 110800
METAR SBFL 110800Z 20006KT 9999 BKN040 22/21 Q1012=

0000009800
688
SABZ19 SBBE 110800
METAR SBBE 110800Z 07002KT 9999 SCT020 BKN100 24/22
Q1009=

0000032200
689
FTUS51 KWBC 110757 AAA
TAF AMD
KHKY 110755Z 1108/1206 00000KT 2SM -SHRA BR SCT003 OVC006
     FM111100 17006KT 1SM SHRA BR OVC003 WS020/21040KT
     FM111800 22010KT 3SM SHRA OVC007
     FM112100 25009KT P6SM OVC015
     FM112300 27009KT P6SM BKN040
     FM120200 29009KT P6SM SCT040 BKN250=

0000015000
690
FTMG20 FMMI 110500 RRA
TAF FMEE 110500Z 1106/1212 09020KT 9999 FEW026 PROB30 TEMPO
1118/1203
4500 SHRA BECMG 1118/1120 16008KT=

0000011300
691
SAAK31 KWBC 110700 RRD
METAR
PAOM 110653Z COR 04015KT 10SM DRSN FEW032 SCT100 M12/M21 A2959=

0000015900
692
SAUK36 EGGY 110750 RRA
METAR EGVN 110750Z 28002KT 9999 FEW030 04/02 Q1016 NOSIG=
METAR EGWU 110750Z 30010KT 9999 FEW020 06/03 Q1015 NOSIG=

0000026400
693
FCDL34 EDZO 110500 RRC
TAF EDGS 110755Z 1108/1115 22006KT 6000 SCT005 TEMPO 1108/1115 0400
     FG BKN001 BECMG 1111/1114 24012KT=
TAF EDLN 110753Z 1108/1115 17005KT 9999 SCT020 TEMPO 1111/1115 4000
     -RA BKN013 BECMG 1113/1115 25008KT=

0000010100
694
SPCN46 CWAO 110757
SPECI CYBN 110757Z AUTO 14010KT 2 1/2SM -RA OVC004 03/03 A2963=

00000000