0000010800
655
SAIE32 EIDB 110900 RRC
METAR EISG 110900Z VRB02KT 9999 FEW036 SCT045 SCT060 02/M01 Q1016=

0000031400
656
SAUS71 KWBC 110900 RRE
METAR
KLCK 110915Z AUTO 16007KT 7SM RA SCT034 SCT048 OVC080 10/08
     A2962=
KMMU 110915Z AUTO 00000KT 1 1/2SM -DZ OVC003 03/02 A3005=
KMYR 110915Z AUTO 19012G15KT 7SM BKN003 BKN017 OVC035 17/16
     A3002=
KPQI 110915Z AUTO 12004KT 10SM OVC028 M11/M14 A3017=

0000037000
657
SAUS73 KWBC 110900 RRD
METAR
KBJC 110915Z AUTO 29027G38KT 10SM CLR 03/M08 A2988=
KCIU 110915Z AUTO 13006KT 2SM OVC002 01/01 A2936=
KEGE 110915Z AUTO 25013KT 10SM OVC060 00/M04 A3018=
KELO 110912Z AUTO 28003KT 7SM OVC006 M04/M05 A2937=
KJAC 110915Z AUTO 19010G15KT 10SM OVC029 01/M03 A3003=
KLBL 110915Z AUTO 27012KT 10SM CLR M01/M09 A2994=

0000014800
658
SAUS74 KWBC 110900 RRC
METAR
KIWA 110915Z AUTO 12006KT 10SM CLR 05/M01 A3017=
KOTH 110915Z 21020G39KT 8SM OVC014 13/12 A2988=

0000038900
659
SAMG20 FMMI 110900
METAR FIMP 110900Z 09010KT 9999 BKN018 29/25 Q1015=
METAR FIMR 110900Z 10018KT 9999 SCT017 BKN050 30/24 Q1015=
METAR FJDG 110855Z 29014G21KT 9999 FEW020 BKN050 OVC080 27/25 A2983
RMK SLP098 60006 8/87/ T02710246 57020=
METAR FMCH 110900Z 31008KT 9999 SCT022 32/24 Q1013 NOSIG=
METAR FMEE 110900Z 09023KT 9999 FEW028 BKN260 31/21 Q1014 NOSIG=

0000010000
660
SAAL41 DAMM 110900 RRJ
METAR DAEF 110900Z /////KT 9999 FEW040 BKN233 14/01 Q1022=

0000011700
661
SPUS41 KWBC 110906
SPECI
KILG 110902Z AUTO 00000KT 1/4SM R01/2400V2800FT FG VV002 04/04
A3000=

0000010700
662
SPUS41 KWBC 110906
SPECI
KPWM 110902Z AUTO 00000KT 1 1/4SM UP BR OVC004 M01/M02 A3020=

0000096000
663
SAUS71 KWBC 110900 RRD
METAR
KRDU 110851Z 00000KT 1/4SM BR OVC002 08/08 A2999=
KRIC 110854Z 00000KT 1/4SM R34/1400FT -RA FG VV002 05/04 A3000=
KROA 110854Z 00000KT 4SM BR OVC005 03/03 A2998=
KROC 110854Z 19015G19KT 10SM BKN080 OVC180 08/04 A2972=
KRWI 110853Z AUTO 15004KT 1/2SM FG VV003 16/16 A2999=
KSAV 110853Z AUTO 18005KT 3/4SM R01/3500V4000FT BR VV002 18/17
     A3000=
KSBY 110854Z AUTO 17019G29KT 10SM -RA OVC008 18/16 A3000=
KSCH NIL=
KSLK 110851Z AUTO 04003KT 8SM BKN020 OVC033 M04/M04 A2987=
KSWF NIL=
KSYR 110854Z 14009KT 10SM SCT019 BKN025 OVC110 05/03 A2983=
KTEB 110851Z 35003KT 3SM -DZ OVC003 03/01 A3007=
KTOL 110852Z 19006KT 8SM BKN004 OVC013 06/05 A2955=
KTTN 110853Z AUTO 08003KT 1/4SM FG VV001 04/04 A3002=
KUCA NIL=
KWRI 110858Z AUTO 14009KT 10SM OVC025 10/10 A3001=
KYNG 110851Z 17010KT 10SM BKN027 OVC040 09/07 A2967=
KZZV 110853Z AUTO 00000KT 10SM -RA BKN030 OVC038 11/08 A2965=

0000012400
664
SACN49 CWAO 110900
METAR CYCX 110900Z 00000KT 10SM BKN100 M09/M10 A3025 RMK AC6
DA-3138FT FROIN SLP248=

0000120000
665
SAAK31 KWBC 110900
METAR
PABR 110853Z 30010KT 10SM BKN009 BKN013 M24/M27 A2975=
PACD 110853Z AUTO 13023KT 10SM BKN026 BKN080 OVC100 03/01
     A2902=
PAED NIL=
PAEI NIL=
PAEN 110853Z 00000KT 10SM OVC013 M04/M04 A2932=
PAFA 110853Z 00000KT 8SM FEW002 FEW090 M33/M37 A2954=
PAFR NIL=
PAFS 110856Z AUTO 00000KT 8SM -SN CLR M25/M28 A2948=
PAFY NIL=
PAJN 110853Z 25004KT 1/8SM R08/1600V2800FT FZFG BKN000 BKN049
     M01/M02 A2917=
PAKN 110854Z 32008KT 10SM FEW004 SCT025 SCT130 M08/M08 A2932=
PAKT 110853Z AUTO 22003KT 10SM FEW070 OVC090 02/M02 A2897=
PANC 110853Z 00000KT 10SM FEW003 BKN013 OVC025 M05/M06 A2931=
PAOM 110853Z 04017KT 10SM BLSN FEW032 SCT100 M13/M21 A2958=
PAOR 110853Z 32004KT 4SM -SN OVC035 M17/M19 A2930=
PAOT 110853Z 01007KT 10SM CLR M19/M26 A2973=
PARY 110856Z AUTO 00000KT 10SM CLR M24/M26 A2954=
PASC 110853Z 24016KT 2SM -SN BLSN BR BKN011 OVC070 M27/M31
     A2977=
PASG NIL=
PASI 110853Z 00000KT 10SM CLR M01/M01 A2912=
PATQ 110856Z AUTO 26009KT 3/4SM -SN OVC006 M22/M25 A2978=
PAVD 110856Z 10SM OVC100 M07/M08 A2923=
PAWG 110856Z AUTO 34013G19KT 10SM CLR 02/M04 A2905=
PFYU 110856Z 00000KT 2SM CLR A2967=

0000037000
666
SABO41 KWBC 110900
METAR
SLCA 110900Z 00000KT 9999 NSC 20/1 Q1013=
SLCN NIL=
SLCO NIL=
SLCP NIL=
SLJE NIL=
SLJO NIL=
SLMG NIL=
SLOR NIL=
SLPO NIL=
SLPS NIL=
SLRB NIL=
SLRI 110900Z 00000KT 9999 SCT020 BKN080 24/24 Q1009=
SLRQ NIL=
SLRY NIL=
SLSA NIL=
SLSI NIL=
SLSU NIL=
SLVG NIL=
SLVM NIL=
SLYA NIL=
SLZO NIL=

0000060300
667
SABZ41 KWBC 110900
METAR
SBAA NIL=
SBAF NIL=
SBAR 110900Z 10008KT 9999 SCT015 26/20 Q1014=
SBBG NIL=
SBBH NIL=
SBBI NIL=
SBBU NIL=
SBCJ NIL=
SBCO NIL=
SBCR 110900Z 20001KT CAVOK 23/21 Q1010=
SBCT 110900Z 03002KT 9999 VCTS FEW020 FEW030CB 18/17 Q1018
     RETS=
SBCV NIL=
SBCY 110900Z 33004KT 9999 FEW020 SCT100 24/21 Q1011=
SBCZ NIL=
SBDN NIL=
SBFL 110900Z 35006KT 9999 FEW009 BKN040 23/21 Q1011=
SBFN 110900Z 10010KT 9999 SCT021 25/20 Q1013=
SBGO 110900Z 33002KT 9999 FEW035 FEW040TCU 19/16 Q1017=
SBGW NIL=
SBHT NIL=
SBIH NIL=
SBIL NIL=

0000043400
668
SABZ43 KWBC 110900
METAR
SBAN NIL=
SBAT NIL=
SBBA NIL=
SBBQ NIL=
SBBW NIL=
SBCC NIL=
SBER NIL=
SBES NIL=
SBGA NIL=
SBIZ NIL=
SBJF NIL=
SBJP NIL=
SBKG NIL=
SBLB NIL=
SBLP NIL=
SBMK NIL=
SBMS NIL=
SBMZ NIL=
SBPB NIL=
SBPJ NIL=
SBPL 110900Z 11007KT 9999 SCT020 BKN070 24/19 Q1014=
SBPN NIL=
SBQV NIL=
SBRP NIL=
SBTF NIL=
SBTK NIL=
SBUF NIL=
SBUI NIL=
SBUL NIL=

0000050500
669
SACA31 KWBC 110900
METAR
MBJT NIL=
MBPV NIL=
MBSC NIL=
MKJP 110900Z 02006KT 9999 FEW024 25/20 Q1015=
MKJS 110900Z 13005KT 9999 FEW024 25/20 Q1015=
MUCM 110850Z 10005KT 9000 SKC 20/18 Q1018=
MUCU 110851Z 34006KT 9000 FEW020 20/18 Q1016=
MUHA 110855Z VRB01KT 8000 SKC 17/16 Q1017=
MUVR 110851Z 09008KT 8000 FEW020 22/20 Q1018=
MWCB NIL=
MWCR NIL=
MYAM NIL=
MYAT NIL=
MYBS NIL=
MYEC NIL=
MYEG NIL=
MYEH NIL=
MYEM NIL=
MYGF NIL=
MYGW NIL=
MYNN NIL=

0000096400
670
SAAK32 KWBC 110900
METAR
PABA 110901Z AUTO 28030G33KT 1/4SM +SN FZFG M23/M26 A2973=
PABI 110853Z AUTO 22004KT 4SM BR OVC003 M21/M22 A2944=
PACZ 110855Z AUTO 10017G24KT 10SM FEW060 M06/M11 A2931=
PADK 110856Z AUTO 24024G37KT 10SM SCT013 BKN022 OVC065 03/01
     A2867=
PADL 110855Z 01010KT 10SM SCT006 OVC044 M08/M08 A2937=
PADQ 110853Z 26005KT 10SM FEW040 SCT250 M06/M08 A2933=
PAEH 110855Z AUTO 13027G32KT 4SM -FZDZ BR SCT003 BKN035 M01/M02
     A2922=
PAFB 110856Z AUTO 00000KT 10SM CLR M34/M37 A2955=
PAGA 110858Z AUTO 00000KT 10SM CLR M34/ A2964=
PAIM 110855Z AUTO VRB01KT 10SM CLR M23/M26 A2951=
PALU 110855Z AUTO 12004KT 10SM OVC007 M18/M20 A2991=
PASV 110855Z AUTO 07003KT 2SM -SHSN BR OVC002 M13/M14 A2928=
PASY 110856Z AUTO 32017KT 10SM SCT018 BKN025 OVC100 00/M02
     A2892=
PATC 110855Z AUTO 02031KT 1 3/4SM BR SCT002 M17/M18 A2967=
PATL 110855Z AUTO 08004KT 10SM FEW250 M19/M21 A2946=
PBTI NIL=

0000027500
671
SADR31 MDSD 110900 RTD
METAR
METAR MDPP 110900Z 00000KT 9999 FEW016 SCT070 22/21 Q1018=
METAR MDST 110900Z 00000KT 9999 SCT014 20/20 Q1018 RERA=
METAR MDPC 110900Z 10005KT 9999 FEW018 25/19 Q1017=
METAR MDSD 110900Z 02005KT 9999 FEW018 20/19 Q1017=

0000089100
672
SABZ42 KWBC 110900
METAR
SBJR NIL=
SBLO 110900Z 22002KT CAVOK 22/20 Q1015=
SBMA 110900Z 30003KT 9999 SCT030 SCT070 22/22 Q1011=
SBME NIL=
SBMN 110900Z 03003KT 9999 SCT011 BKN100 22/21 Q1011=
SBMO 110900Z 32002KT 9999 FEW020 22/21 Q1014=
SBMQ 110900Z 01003KT 9999 FEW013 BKN080 24/23 Q1010=
SBMT NIL=
SBPC NIL=
SBPK NIL=
SBPP NIL=
SBPV 110900Z 03002KT 5000 -RA SCT006 BKN012 BKN070 23/22 Q1010=
SBRB 110900Z 06002KT 9999 FEW020 BKN100 ///// Q1010=
SBRJ 110900Z 01005KT CAVOK 26/22 Q1012=
SBSC NIL=
SBSJ 110900Z 00000KT CAVOK 20/18 Q1016=
SBSM NIL=
SBSP 110900Z 04003KT CAVOK 23/17 Q1017=
SBST NIL=
SBTE 110900Z 27002KT 9999 FEW010 SCT030 BKN070 24/22 Q1011=
SBTU NIL=
SBUG 110900Z 28003KT 4000 TSRA BR BKN005 BKN012 FEW030CB OVC100
     20/19 Q1012=
SBUR NIL=
SBVH NIL=
SBVT 110900Z 24002KT CAVOK 24/22 Q1016=
SBYS NIL=

0000079700
673
SACA32 KWBC 110900
METAR
MDLR NIL=
MDPC 110900Z 10005KT 9999 FEW018 25/19 Q1017=
MDPP NIL=
MDSD 110900Z 02005KT 9999 FEW018 20/19 Q1017=
MDST 110900Z 00000KT 9999 SCT014 20/20 Q1018 RERA=
MTCH NIL=
MTPP NIL=
TAPA NIL=
TIST 110853Z 10003KT 10SM CLR 23/20 A3004 RMK AO2 SLP173 T02280200
     55006=
TISX 110853Z AUTO 05004KT 10SM FEW022 BKN050 23/20 A3004 RMK AO2
     SLP171 60001 T02280200 56006 TSNO=
TJBQ 110850Z 11006KT 10SM FEW010 23/ A3007 RMK RWY08 ATIS U=
TJMZ NIL=
TJNR 110853Z AUTO 08007KT 10SM CLR 25/19 A3007 RMK AO2 SLP182
     T02500194 55006 TSNO=
TJPS NIL=
TJSJ 110856Z 12004KT 10SM FEW023 SCT030 23/21 A3005 RMK AO2 SLP175
     60004 T02330211 55007 $=
TKPK NIL=
TKPN NIL=
TQPF NIL=
TRPM NIL=
TUPJ NIL=
TUPW NIL=

0000050000
674
SACA41 KWBC 110900
METAR
MKBK NIL=
MUBA NIL=
MUBY NIL=
MUCA NIL=
MUCL NIL=
MUCM 110850Z 10005KT 9000 SKC 20/18 Q1018=
MUCU 110851Z 34006KT 9000 FEW020 20/18 Q1016=
MUGM 110856Z 34006KT 9999 CLR 22/19 A3003 RMK SLP168 T02170189
     55009=
MUGT NIL=
MUHA 110855Z VRB01KT 8000 SKC 17/16 Q1017=
MUMO NIL=
MUMZ NIL=
MUNG NIL=
MUVR 110851Z 09008KT 8000 FEW020 22/20 Q1018=
MUVT NIL=
MYEF NIL=
MYSM NIL=
TABS NIL=
TAOA NIL=
TBBI NIL=
TDCF NIL=

00000000