0000016400
415
SADN33 EKCH 110520
METAR EKKA 110520Z 22011KT 4000 -RA BR FEW007 BKN010 07/06 Q1004=
METAR EKSP 110520Z 24014KT 9999 SCT007 BKN009 07/06 Q1006=

0000009500
416
SPCN51 CWAO 110645
SPECI CWCL 110645Z AUTO 14003KT 5SM BKN002 M03/M07 A2933=

0000009300
417
SPCN31 CWAO 110644
SPECI CYQQ 110644Z 14023G31KT 1SM RA BR OVC007 RMK SF8=

0000012300
418
SACN62 CYZT 110600
METAR CYZT 110600Z 11021G34KT 60SM -RA BR OVC013 04/04 A2917 RMK SC8
 /R16/ SLP878=

0000009900
419
SATU35 LTAA 110550 RRA
METAR LCEN 110550Z 25006KT 9999 FEW025 08/05 Q1023 NOSIG=

0000031200
420
SACZ43 LKPW 110600
METAR LKCV 110600Z 22005KT CAVOK 00/M01 Q1018 NOSIG=
METAR COR LKKB 110600Z 21006KT CAVOK 01/M00 Q1017 NOSIG=
METAR LKLN 110600Z NIL=
METAR LKNA 110600Z 22003KT 9999 FEW040 BKN200 M01/M01 Q1018
           NOSIG=
METAR LKPD 110600Z 00000KT CAVOK 01/M01 Q1018 NOSIG=

0000009400
421
SAEO32 EETN 110550 RRA
METAR EEPU 110550Z 30009KT 9999 OVC012 01/M00 Q0998=

0000012100
422
SACN44 CWAO 110600
METAR CYTH 110600Z 05006KT 5SM -SN BKN012 OVC025 M18/M19 A2950 RMK
SC6SC2 SLP014=

0000010600
423
SACN44 CWAO 110600
METAR CYPE 110600Z 26002KT 15SM BKN070 M13/M14 A2943 RMK AC6 SLP010=

0000039000
424
SAPL31 EPWA 110600
METAR EPGD 110600Z 27009KT 9999 FEW015 BKN019 04/03
    Q1008 =
METAR EPKK 110600Z 25007KT 9999 BKN053 03/M00 Q1017 =
METAR EPLL 110600Z 26008KT CAVOK 04/01 Q1014 =
METAR EPPO 110600Z 22008KT 9999 BKN030 04/02 Q1014
    R10/19//95 =
METAR EPRZ 110600Z 26012KT CAVOK 05/M01 Q1017 =
METAR EPWA 110600Z 26013KT 9999 BKN046 05/01 Q1012 NOSIG=

0000039700
425
SAPL32 EPWA 110600
METAR EPBY 110600Z 24009KT 9999 FEW023 05/03 Q1012 =
METAR EPKT 110600Z 21008KT CAVOK 02/M01 Q1016 =
METAR EPLB 110600Z 27016KT CAVOK 05/01 Q1012 =
METAR EPMO 110600Z 25012KT 9999 OVC046 05/02 Q1012=
METAR EPSC 110600Z 21006KT 9999 SCT033 04/02 Q1012 =
METAR EPWR 110600Z 23004KT CAVOK 04/M01 Q1017 =
METAR EPZG 110600Z 22005KT CAVOK 02/01 Q1015 =

0000013100
426
SACN61 CYTE 110600
METAR CYTE 110600Z AUTO 27012KT 9SM CLR M23/M27 A2956 RMK MAX WND
 26018KT AT 0522Z SLP016=

0000013100
427
SACN62 CYXY 110600
METAR CYXY 110600Z 01004KT 300V010 15SM -SN FEW009 OVC057 M13/M15
 A2918 RMK ST2SC6 SLP937=

0000024800
428
SAIE31 EIDB 110600
METAR EIDW 110600Z 27015KT 9999 SCT007 BKN008 02/01 Q1014 NOSIG=
METAR EINN 110600Z VRB03KT 9999 FEW038 02/02 Q1016 NOSIG=
METAR EICK 110600Z 29005KT 9999 FEW016 03/01 Q1016 NOSIG=
METAR EIKN 110600Z NIL=

0000012500
429
SACN61 CYTL 110600
METAR CYTL 110600Z AUTO 10005KT 070V140 1 3/4SM -SN OVC024 M08/M09
 A2944 RMK SLP987=

0000011900
430
SACN62 CYWG 110600
METAR CYWG 110600Z 29012KT 1 1/2SM -SN BR OVC008 M09/M11 A2948 RMK
 ST8 SLP000=

0000013200
431
SACN61 CYXS 110600
METAR CYXS 110600Z AUTO 02003KT 020V080 1 1/4SM -SN OVC024 M03/M03
 A2936 RMK PRESFR SLP976=

0000008900
432
SAJM31 MKJP 110600
METAR MKJP 110600Z 36003KT 9999 FEW024 25/21 Q1015=

0000028900
433
FTUS52 KWBC 110603 AAA
TAF AMD
KMCB 110602Z 1106/1206 18012G20KT 5SM -RA BR OVC005
      TEMPO 1106/1109 2SM TSRA OVC003CB
     FM111000 23010KT 5SM BR OVC005
     FM111500 30008KT P6SM SCT250
     FM111800 30012G20KT P6SM SKC
     FM120000 30004KT P6SM SKC=

0000039800
434
FTUS80 KWBC 110603 CCA
TAF COR
KBTV 110600Z 1106/1206 19009KT P6SM BKN025 OVC035
     FM110800 17012KT P6SM VCSH SCT020 BKN035 OVC045
      TEMPO 1109/1110 4SM -FZDZ BR BKN015 OVC020
     FM111100 17014G24KT 3SM -RA BR OVC011 WS020/18050KT
     FM111500 17015G25KT 4SM -RA BR BKN008 OVC010 WS020/18050KT
     FM111900 18013G23KT 3SM RA BR SCT005 OVC008 WS020/19050KT=

00000000