0000036800
335
FTCN31 CWAO 110500
TAF CYQQ 110539Z 1106/1206 15018G28KT 6SM -RA BR SCT006 OVC015 TEMPO
     1106/1107 1SM RA BR OVC006
    FM110900 13015G25KT P6SM SCT015 BKN040 TEMPO 1109/1111 P6SM -RA
     BKN015
    FM111100 18008KT P6SM SCT030 BKN120
    FM111800 15010G20KT P6SM SCT030 BKN200 TEMPO 1118/1206 P6SM VCSH
    RMK NXT FCST BY 111200Z=

0000026700
336
SAUS71 KWBC 110500 RRG
METAR
KLCK 110535Z AUTO 17010KT 10SM OVC020 10/07 A2974=
KMMU 110535Z AUTO 00000KT 1 1/2SM UP OVC003 02/01 A3019=
KMYR 110535Z AUTO 00000KT 1 1/4SM CLR 14/14 A3009=
KPQI 110535Z AUTO 00000KT 10SM FEW022 M10/M14 A3021=

0000009800
337
SAUS72 KWBC 110500 RRE
METAR
KLRU 110535Z AUTO 28007KT 10SM CLR 06/M09 A3011=

0000036900
338
SAUS73 KWBC 110500 RRG
METAR
KBJC 110534Z AUTO 09003KT 10SM CLR 00/M10 A2984=
KCIU 110535Z AUTO 12008KT 2SM OVC003 01/01 A2951=
KELO 110533Z AUTO 00000KT 4SM BR OVC005 M04/M05 A2942=
KGYY 110535Z AUTO 18008KT 7SM DZ OVC007 07/05 A2954=
KJAC 110535Z AUTO 19014KT 10SM OVC037 M01/M04 A2999=
KLBL 110535Z AUTO 29011KT 10SM CLR M01/M09 A2986=

0000014600
339
SAUS74 KWBC 110500 RRE
METAR
KIWA 110535Z AUTO 12005KT 10SM CLR 06/M01 A3015=
KOTH 110535Z 19011KT 10SM FEW024 13/11 A2998=

0000027100
340
SAUS75 KWBC 110500 RRE
METAR
PADK 110536Z AUTO 22033G42KT 5SM SCT025 BKN039 OVC065 03/M01
     A2871=
PAGS 110536Z AUTO 00000KT 10SM OVC044 02/01 A2929=
PAUN 110536Z AUTO 08016KT 10SM CLR M14/M22 A2954=
PAVD 110536Z 10SM BKN120 M07/M09 A2928=

0000050000
341
FTCN38 CWAO 110500
TAF CYJT 110539Z 1106/1206 25015G25KT P6SM BKN025 TEMPO 1106/1110 4SM
     -SHSN BKN020
    FM111000 26012G22KT P6SM SCT015 TEMPO 1110/1115 5SM -SN BKN015
    FM111500 26012G22KT 5SM -SN BKN015 TEMPO 1115/1121 P6SM NSW
     BKN025
     BECMG 1117/1119 26012KT
    FM112100 20012KT 6SM -SN OVC012 TEMPO 1121/1124 2SM -SN OVC009
    FM120000 15015G25KT 21/2SM -SNRA BR OVC010
    FM120200 18020G30KT 4SM -RA BR OVC012
    RMK NXT FCST BY 111200Z=

0000024100
342
SOAT10 KWAL 111708
FA8005BC 011170837 OT12 ID:KN-BASS-01 DT:2014 01 11 17 06
:RD -3067 -3049 -3076 -3043 -3078 -3100 -3085 -3068 -3057 -3047
:PR 0574 0579 0556 0597 0627 0606 0676 0616 0578 0662
:B 13.7V
 46+1NN 219E
0000034500
343
FTCN38 CWAO 110500
TAF CYYT 110539Z 1106/1206 26020G35KT P6SM FEW220 TEMPO 1106/1112 5SM
     -SN BKN020
     BECMG 1109/1111 27015G25KT
    FM111900 27015KT P6SM BKN015 OVC240
     BECMG 1122/1124 23007KT
    FM120300 20012KT 2SM -SN OVC012 PROB30 1203/1206 6SM -FZRA BR
     OVC006
    RMK NXT FCST BY 111200Z=

0000038700
344
FTCN38 CWAO 110500
TAF CYQX 110539Z 1106/1206 24015G25KT P6SM FEW020 SCT100
    FM110800 24015KT P6SM BKN025 TEMPO 1108/1121 5SM -SN BKN020
     BECMG 1112/1114 25012G22KT
    FM112100 22012KT P6SM BKN020 OVC220
    FM120100 17012KT 1SM -SN OVC006
    FM120300 17012KT 1/2SM SN VV003 PROB40 1204/1206 2SM -FZRA BR
     OVC004
    RMK NXT FCST BY 111200Z=

0000024500
345
SAAO32 GOOY 110530
METAR GABS 110530Z 02003KT CAVOK 19/06 Q1013 NOSIG=
METAR GAGO 110530Z NIL=
METAR GAKY 110530Z NIL=
METAR GAKL 110530Z NIL=
METAR GAMB 110530Z NIL=
METAR GANR 110530Z NIL=
METAR GATB 110530Z NIL=

0000021500
346
SAAO31 GOOY 110530
METAR FHAW 110530Z NIL=
METAR GGOV 110530Z NIL=
METAR DIAP 110530Z 07002KT 9999 BKN013 OVC150 25/25 Q1010 TEMPO
BKN009=
METAR DIBK 110530Z NIL=
METAR DIYO 110530Z NIL=

0000025200
347
SAAO30 GOOY 110530
METAR GOOY 110530Z 01009KT 9999  FEW010 19/15 Q1013 NOSIG=
METAR GOGS 110530Z NIL=
METAR GOOK 110530Z NIL=
METAR GOSS 110530Z NIL=
METAR GOTK 110530Z NIL=
METAR GOTT 110530Z NIL=
METAR GOGG 110530Z NIL=

0000030000
348
SAAO33 GOOY 110530
METAR GQPP 110530Z NIL=
METAR GQNN 110530Z 01006KT 8000 NSC 14/13 Q1014 NOSIG=
METAR GQPA 110530Z NIL=
METAR GQNI 110530Z NIL=
METAR GQPZ 110530Z NIL=
METAR GUCY 110530Z NIL=
METAR GUXN 110530Z NIL=
METAR GULB 110530Z NIL=
METAR GUNZ 110530Z NIL=

0000065200
349
SAEE31 LOWM 110530
METAR UACK 110530Z 19007MPS 9999 -SHSN DRSN BKN021CB OVC064
M09/M11 Q1019 R20/452042 NOSIG RMK QFE741/0988=
METAR UACP 110530Z 18006MPS 8000 -SN NSC M06/M08 Q1018
R23/4/3537 NOSIG RMK QFE751/1002=
METAR UAII 110530Z 14002MPS 7000 NSC 01/M08 Q1024 R10/0///70
NOSIG RMK QFE732/0977=
METAR UADD 110530Z 19006MPS 9999 NSC M01/M10 Q1022 NOSIG RMK
QFE709/0946=
METAR UASK 110530Z VRB01MPS 9999 SCT073 BKN230 M05/M14 Q1034
R12/820350 NOSIG RMK QFE750/1000=
METAR UASP 110530Z NIL=
METAR UAOO 110530Z 18006MPS 3300 BR BKN130 M04/M07 Q1021
R24/3///55 NOSIG RMK QFE754/1006=
METAR UAKD 110530Z NIL=

0000010600
350
SAAE33 VTBB 110530 RRA
METAR VVPB 110530Z 04004KT 6000 FEW013 BKN060 24/20 Q1019 NOSIG=

0000082800
351
FTPA31 KWBC 110539
TAF
PGRO 110538Z 1106/1206 06012KT P6SM VCSH SCT015 SCT120
     FM110800 06009KT P6SM VCSH FEW020=
PGSN 110538Z 1106/1206 05014G24KT P6SM VCSH SCT020 BKN120
     FM110800 06011KT P6SM VCSH SCT020=
PGUM 110538Z 1106/1212 06014KT P6SM VCSH SCT020
     FM110800 06011KT P6SM FEW020=
PGWT 110538Z 1106/1206 06012G22KT P6SM VCSH SCT015 BKN120
     FM110800 06011KT P6SM VCSH SCT020=
PKMJ 110538Z 1106/1206 06012KT P6SM VCSH FEW015 SCT050=
PKWA 110538Z 1106/1206 07013KT P6SM VCSH SCT025=
PTKK 110538Z 1106/1206 04011KT P6SM VCSH SCT014 SCT120=
PTPN 110538Z 1106/1206 NIL=
PTRO 110538Z 1106/1206 07013G23KT P6SM VCSH SCT015CB BKN120
      TEMPO 1106/1110 -SHRA BKN015CB BKN120=
PTSA 110538Z 1106/1206 NIL=
PTYA 110538Z 1106/1206 07012G22KT P6SM VCSH SCT020 BKN120=

0000082800
352
FTPQ31 KWBC 110539
TAF
PGRO 110538Z 1106/1206 06012KT P6SM VCSH SCT015 SCT120
     FM110800 06009KT P6SM VCSH FEW020=
PGSN 110538Z 1106/1206 05014G24KT P6SM VCSH SCT020 BKN120
     FM110800 06011KT P6SM VCSH SCT020=
PGUM 110538Z 1106/1212 06014KT P6SM VCSH SCT020
     FM110800 06011KT P6SM FEW020=
PGWT 110538Z 1106/1206 06012G22KT P6SM VCSH SCT015 BKN120
     FM110800 06011KT P6SM VCSH SCT020=
PKMJ 110538Z 1106/1206 06012KT P6SM VCSH FEW015 SCT050=
PKWA 110538Z 1106/1206 07013KT P6SM VCSH SCT025=
PTKK 110538Z 1106/1206 04011KT P6SM VCSH SCT014 SCT120=
PTPN 110538Z 1106/1206 NIL=
PTRO 110538Z 1106/1206 07013G23KT P6SM VCSH SCT015CB BKN120
      TEMPO 1106/1110 -SHRA BKN015CB BKN120=
PTSA 110538Z 1106/1206 NIL=
PTYA 110538Z 1106/1206 07012G22KT P6SM VCSH SCT020 BKN120=

0000017300
353
SAAK31 KWBC 110500 RRB
METAR
PAVD 110536Z 10SM BKN120 M07/M09 A2928=
PAWG 110536Z 00000KT 10SM CLR 01/M02 A2925=
PFYU 110536Z 00000KT 3SM CLR A2969=

0000131900
354
SNOS44 LOWM 111700
AAXX 11171
11137 36/// /1001 10025 20018 39276 40223 51013 333 55300=
11173 36/// /0701 10052 20002 38978 48482 55000 333 55300=
11302 26/// /3401 10038 20036 39730 40227 52017 333 55300 69905=
11308 27/// /2302 10036 21003 38544 48512 53010 78044 333 55300 69915=
11310 27/// /2903 11011 21039 37702 47075 52009 740// 333 55300 69905=
11340 36/// /3006 10009 21028 38038 48501 53012 333 55300=
11345 36/// /1801 10029 20014 39322 40218 53018 333 55300=
11346 36/// /0000 10012 20005 39105 48492 51017 333 55300=
11348 36/// /0601 11005 21015 38870 48491 53007 333 55300=
11350 26/// /0000 10058 20034 39689 40194 51012 333 55300 69905=
11351 36/// /2903 10046 20007 38803 48495 53012 333 55300=
11354 36/// /0000 10051 20032 39599 40205 51016 333 55300=
11355 36/// /0000 10039 20022 39477 40195 53013 333 55300=
11356 36/// /0000 10044 20029 39322 40203 53014 333 55300=
11357 27/// /0000 10051 20042 39546 40198 51012 721// 333 55300 69915=
11358 26/// /0000 10026 20019 39253 40207 53013 333 55300 69905=
11370 36/// /1201 10021 20002 39588 40203 53003 333 55300=
11380 36/// /2801 10036 20015 39596 40187 58001 333 55300=
11382 36/// /2901 10007 21007 39486 40199 50002 333 55300=
11384 36/// /2103 10044 21016 38667 48478 50002 333 55300=
00000000