0000011100
555
SAEO31 EETN 110750
METAR EETN 110750Z 30005KT 9999 OVC007 M01/M02 Q0999 R08/590295 
NOSIG=

0000010000
556
SPAU32 YBBN 110750
SPECI YBMA 110750Z AUTO 12017G31KT 9999 // SCT110 34/15 Q1008=

0000008900
557
SPCN42 CWAO 110749
SPECI CYQD 110749Z 27007KT 15SM -SN OVC010 RMK ST8=

0000010000
558
SPAU32 AMMC 110750
SPECI YBMA 110750Z AUTO 12017G31KT 9999 // SCT110 34/15 Q1008=

0000101000
559
SPUS70 KWBC 110750
SPECI
KAMG 110746Z AUTO 17006KT 1/2SM FG VV002 18/17 A3001 RMK AO2
     T01830172 $=
KDAN 110746Z AUTO 00000KT 2 1/2SM BR OVC005 04/03 A3001 RMK AO2
     RAE25 P0001=
KGEZ 110746Z AUTO 19013KT 3SM BR OVC003 08/ A2958 RMK AO2 RAE10
     CIG 002V007 P0001 T0083 $=
KDCU 110747Z AUTO 25009G24KT 2SM VCTS +RA BR BKN005 OVC018 14/14
     A2976 RMK AO2 WSHFT 0729 LTG DSNT ALQDS TSB30RAE0658B29
     P0012=
KEVV 110747Z AUTO 18009KT 10SM -RA BKN008 BKN012 OVC080 11/09
     A2960 RMK AO2 P0002 T01060089=
KFWN 110747Z AUTO 00000KT 2SM UP BR OVC005 01/01 A3008 RMK AO2
     UPE05B14RAB05E14B33E46 P0003=
KGVL 110747Z AUTO 12006KT 1 3/4SM VCTS RA BR OVC002 08/07 A2994
     RMK AO2 LTG DSNT ALQDS TSB40RAB22 P0013=
KMKE 110747Z 23010KT 4SM BR OVC004 03/03 A2943 RMK AO2 RAE0657
     P0000 $=
KSTL 110747Z 28014KT 9SM BKN011 OVC019 08/05 A2955 RMK AO2=
KY50 110747Z AUTO 25005KT 6SM HZ OVC004 00/ A2941 RMK AO2 TSNO CIG
     001V007 P0001 $=

0000009700
560
SPUS31 KWBC 110750
SPECI
KSTL 110747Z 28014KT 9SM BKN011 OVC019 08/05 A2955=

0000010600
561
SPUS43 KWBC 110750
SPECI
KGRR 110746Z AUTO 18008KT 2 1/2SM -RA BR OVC004 05/04 A2949=

0000009300
562
SPUS43 KWBC 110750
SPECI
KMKE 110747Z 23010KT 4SM BR OVC004 03/03 A2943=

0000010000
563
SACA33 KWBC 110700 RRE
METAR
TNCE 110700Z AUTO 06012KT //// ////// ///// Q1017=

0000011800
564
SAOS32 LOWM 110750
METAR LOXZ 110750Z 32002KT 15KM FEW002ST BKN170AC M03/M03 Q1020 NOSIG
RMK BKN=

0000011000
565
UANT01 CWAO 111716
ARP BAW273 6106N03440W 1716 F340 MS61 202/51 KT
GYMMC QXT AOE 111716 F25A
0000028800
566
SSVX13 KARS 111713
ZZYY 53606 11014 1600/ 322484 077069 6111/
11119 40156 52012
22219 00260
444 2011/ 11014 1534/ 50101 80129 80008 9/015=
ZZYY 53569 11014 1600/ 327249 073669 6112/
11119 40230 52011
22219 00242
444 2012/ 11014 1626/ 50101 80128 80035 9/015=
0000212000
567
SSVX02 KARS 111713
ZZYY 21575 11014 1700/ 146286 159068 6111/
11119 39962 49962 52018
22219 00032
444 20110 11014 1528/ 50101 80100 80032 9/015=
ZZYY 21527 11014 1610/ 153199 171468 6112/
11119 39829 49829 52002
22219 00043
444 20120 11014 1600/ 50101 80100 80029 9/015=
ZZYY 21542 11014 1650/ 145438 161976 6113/
11119 39954 49954 57007
22219 00055
444 20130 11014 0956/ 50101 80100 80044 9/015=
ZZYY 46927 11014 1700/ 148399 172554 6111/
11119 39896 49896 57002
22219 00046
444 20110 11014 1558/ 50101 80100 80052 9/015=
ZZYY 21573 11014 1640/ 145601 171432 6111/
11119 39947 49947 57005
22219 00048
444 20110 11014 1559/ 50101 80100 80037 9/015=
ZZYY 46911 11014 1610/ 154450 174726 6113/
11119 39806 49806 52003
22219 00040
444 20130 11014 1559/ 50101 80153 80008 9/015=
ZZYY 33960 11014 1540/ 339237 072870 6111/
11119 30235 40235 52007
22219 00154
444 20110 11014 1526/ 50101 80110 80000 9/015=
ZZYY 23961 11014 1600/ 324922 073748 6113/
11119 40206 52011
22219 00250
444 2013/ 11014 1626/ 50101 80113 80005 9/015=
ZZYY 16575 11014 1340/ 327403 064060 6112/
11119 30194 40194 52004
22219 00244
444 20120 11014 1323/ 50101 80100 80000 9/015=
ZZYY 16575 11014 1540/ 327400 064046 6112/
11119 30213 40213 52002
22219 00244
444 20120 11014 1459/ 50101 80100 80000 9/015=
ZZYY 14568 11014 1600/ 101553 089761 6111/
11119 40127 52019
22219 00289
444 2011/ 11014 1538/ 50101 80110 80017 9/015=
ZZYY 56604 11014 1600/ 319697 096412 6112/
11119 40152 52011
444 2012/ 11014 1534/ 50101 80113 80003 9/015=
ZZYY 53602 11014 1600/ 317522 080939 6111/
11119 40067 52018
22219 00276
444 2011/ 11014 1535/ 50101 80105 80023 9/015=
ZZYY 23921 11014 1600/ 101456 089737 6111/
11119 40127 52020
22219 00289
444 2011/ 11014 1537/ 50101 80093 80019 9/015=
ZZYY 56911 11014 1600/ 314550 084241 6112/
11119 40125 52019
22219 00283
444 2012/ 11014 1534/ 50101 80110 80025 9/015=
ZZYY 56910 11014 1600/ 318384 079619 6111/
11119 40058 52011
22219 00278
444 2011/ 11014 1535/ 50101 80116 80026 9/015=
0000010800
568
UANT01 CWAO 111716
ARP THY7 5301N01932W 1716 F380 MS59 211/67 KT
TCJNK QXT AOE 111716 J20A
0000010900
569
UANT01 CWAO 111716
ARP XLF64 4456N03303W 1716 F370 MS48 274/32 KT
CGGTS QXT AOE 111716 J76A
0000011000
570
UANT01 CWAO 111716
ARP AZA604 4900N04357W 1716 F390 MS58 295/52 KT
EIEJP QXT AOW 111716 J23A
0000011100
571
UANT01 CWAO 111717
ARP DAL271 4958N04357W 1716 F340 MS60 290/59 KT
N185DN QXT AOW 111717 F79A
0000011200
572
UANT01 CWAO 111717
ARP FDX5081 5503N03812W 1717 F350 MS57 264/35 KT
N589FE QXT AOW 111717 F19A
0000011000
573
UANT01 CWAO 111717
ARP BAW178 5220N04838W 1716 F390 MS59 292/74 KT
GBYGB QXT AOW 111717 F85A
0000101400
574
FPAE41 OMAE 111710
station,wdir,wspeed,temperature,dewpoint,pressure,time,date
"Al-Ain International Airport", 350,    8,  19,  11,1021.0,17:00,11.01.2014
"Bateen Airport",  10,    5,  18,  16,1021.0,17:00,11.01.2014
"Abu Dhabi International Airport",   -,    -,   -,   -,     -,17:00,11.01.2014
"Dubai International Airport",   -,    -,   -,   -,     -,17:00,11.01.2014
"Sharjah International Airport", 330,    4,  17,  16,1021.0,17:00,11.01.2014
"Ras al-Khaimah International Airport", 300,    5,  17,  16,1021.0,17:00,11.01.2014
"Fujairah Airport", 250,    1,  19,  13,1021.0,17:00,11.01.2014
"MUSCAT INTERNATIONAL AIRPORT",  -1,    2,  19,   9,1022.0,17:00,11.01.2014
"DOHA INTERNATIONAL AIRPORT",  -1,    1,  17,  12,1021.0,17:00,11.01.2014
"KUWAIT INTERNATIONAL AIRPORT", 310,   13,  13,   8,1020.0,17:00,11.01.2014
"BAHRAIN INTERNATIONAL AIRPORT", 230,    5,  16,  13,1020.0,17:00,11.01.2014
"JEDDAH INTERNATIONAL AIRPORT",   -,    -,   -,   -,     -,17:00,11.01.2014
00000000