0000021500
515
SANO34 ENMI 110820
METAR ENBN 110820Z NIL=
METAR ENBV 110820Z NIL=
METAR ENFG 110820Z NIL=
METAR ENHF 110820Z NIL=
METAR ENRA 110820Z 09012KT CAVOK M10/M22 Q1012=
METAR ENSH 110820Z NIL=

0000010100
516
SPCN52 CWAO 110822
SPECI CWSA 110822Z AUTO 24011KT 9SM FEW019 OVC032 03/M00 A3037=

0000065800
517
SANO39 ENMI 110820
METAR ENNE 110820Z NIL=
METAR ENQR 110820Z AUTO 06010KT 040V110 9999NDV -SHRA SCT014///
           SCT027/// BKN042/// 02/M02 Q0998 W///S/=
METAR ENSE 110820Z AUTO 06016KT 9999NDV FEW014/// BKN037/// 01/M02
           Q0998 W///S5=
METAR ENQC 110820Z AUTO 02009KT 9999NDV -RA OVC019/// 02/M01 Q0997
           W///S4=
METAR ENQA 110820Z AUTO 03013KT 9999NDV FEW008/// BKN034/// 03/02
           Q0997 W04/S4=
METAR ENHM 110820Z NIL=
METAR ENVH 110820Z AUTO 29022KT 9999NDV BKN032/// 06/00 Q1005
           W///S4=
METAR ENLA 110820Z AUTO 29027KT 9999NDV FEW031/// 06/01 Q1004
           W///S4=

0000055000
518
SANO32 ENMI 110820
METAR ENAL 110820Z 13007KT 9999 FEW028 M03/M07 Q0998=
METAR ENCN 110820Z VRB01KT 9999 BCFG FEW025 SCT048 00/M01 Q1000=
METAR ENHD 110820Z 25020KT 9999 FEW012 BKN041 06/03 Q0999=
METAR ENRO 110820Z AUTO 10010KT 9999NDV FEW008/// OVC062/// M16/M19
           Q0998=
METAR ENRY 110820Z 01002KT 9999 VCFG NSC M02/M02 Q0998=
METAR ENSB 110820Z NIL=
METAR ENTC 110820Z VRB01KT 9999 FEW012 M13/M15 Q1018 NOSIG RMK WIND
           2600FT 14010KT=
METAR ENTO 110820Z 36005KT 2000 PRFG NSC M02/M02 Q0998=

0000019400
519
FTEA32 HKNA 110500 RRA
TAF HKMO 110450Z 1106/1212 09010G20KT 9999 FEW026
BECMG 1118/1121 03010KT FEW022
BECMG 1200/1203 00000KT SCT020
BECMG 1206/1209 08010G20KT FEW027=

0000010100
520
SPCN31 CWAO 110820
SPECI CYQG 110820Z 20014KT 5SM -RA BR BKN002 OVC007 RMK SF7SC1=

0000079600
521
SAIY31 LIIB 110820
METAR LIEA 110820Z 01004KT CAVOK 08/08 Q1021=
METAR LIEE 110820Z VRB02KT CAVOK 09/08 Q1020=
METAR LIEO 110820Z VRB01KT 5000 BR NSC 06/06 Q1022=
METAR LIMC 110820Z VRB01KT 2500 BR SCT010 BKN045 07/07 Q1023 NOSIG=
METAR LIME 110820Z 08002KT 4000 BR BKN020 08/06 Q1022=
METAR LIMF 110820Z 00000KT 4000 BR BKN030 07/05 Q1021=
METAR LIMJ 110820Z 04004KT 9999 FEW015 BKN035 12/09 Q1022=
METAR LIML 110820Z VRB01KT 3000 BR SCT010 BKN050 08/08 Q1023 NOSIG=
METAR LIRA 110815Z 00000KT 8000 FEW010 SCT030 05/04 Q1022=
METAR LIRF 110820Z 07004KT 9000 FEW030 07/07 Q1023 NOSIG=
METAR LIRN 110820Z 00000KT 9999 SCT050 09/07 Q1023=
METAR LIRP 110815Z 11005KT 9999 FEW050 08/06 Q1022 NOSIG=
METAR LIRQ 110820Z 00000KT 8000 FEW005 BKN040 11/11 Q1023=

0000055700
522
SAIY32 LIIB 110820
METAR LIBD 110820Z 23003KT 5000 BR SCT015 09/09 Q1024=
METAR LIBR 110815Z 29003KT 9999 FEW020 09/09 Q1023 NOSIG=
METAR LICC 110820Z NIL=
METAR LICJ 110820Z 02002KT CAVOK 14/11 Q1022=
METAR LIPE 110820Z VRB02KT 5000 BR BKN050 08/07 Q1023=
METAR LIPH 110820Z NIL=
METAR LIPQ 110820Z VRB02KT 1500 MIFG SCT010 BKN040 07/05 Q1022=
METAR LIPR 110815Z /////KT 3200 BR OVC040 09/09 Q1022=
METAR LIPX 110815Z 00000KT 1200 R04/P1500N BR BKN050 08/06 Q1023=
METAR LIPZ 110820Z 00000KT 3000 BR BKN042 09/07 Q1022=

0000009400
523
SAIY33 LIIB 110820
METAR LIMW 110820Z AUTO 00000KT 6000 OVC029 02/01 Q1023=

0000008700
524
SAIY32 LIIB 110820 RRA
METAR LICC 110820Z VRB02KT CAVOK 08/04 Q1024=

0000069600
525
SAGR31 LGAT 110820
METAR LGAD 110820Z NIL=
METAR LGAV 110820Z VRB02KT 9999 FEW012 13/09 Q1023 NOSIG=
METAR LGIR 110820Z 17007KT 9999 FEW025 SCT180 17/10 Q1023 NOSIG=
METAR LGKL 110820Z 34005KT 9999 FEW080 14/09 Q1024=
METAR LGKO 110820Z 19009KT 9999 FEW018 BKN020 14/06 Q1023=
METAR LGKR 110820Z 00000KT 9999 SCT030 BKN070 12/10 Q1023 NOSIG=
METAR LGLM 110820Z 06004KT 6000 SCT010 BKN020 13/10 Q1023=
METAR LGRP 110820Z VRB02KT 9999 FEW018 BKN040 14/10 Q1022 NOSIG=
METAR LGSA 110820Z 26015KT 9999 FEW020 BKN170 16/10 Q1022=
METAR LGSM 110820Z 27003KT 9999 FEW020 SCT030 BKN080 14/09 Q1021=
METAR LGTS 110820Z 00000KT 5000 2000E BR SCT003 07/07 Q1024 NOSIG=

0000016700
526
FCFR31 LFPW 110500 AAB
TAF AMD LFRG 110823Z 1108/1115 23005KT 0200 FG VV///BECMG 1108/1110
3000 BR BKN004 BECMG 1111/1113 33008KT 9999 NSW SCT020=

0000087800
527
FTUS71 KWBC 110827 AAA
TAF AMD
KAVL 110826Z 1108/1206 13005KT 1SM SHRA BR OVC003
     FM111000 17009KT 1SM SHRA BR OVC002
     FM111400 19013G21KT 1SM SHRA BR OVC003
     FM111700 30010KT 2SM SHRA BR OVC004
     FM111900 31012KT 4SM -SHRA OVC035
     FM120000 31014G22KT P6SM SCT040 BKN250=
KCRW 110826Z 1108/1206 17004KT P6SM BKN050 OVC060
     FM111000 17011G17KT 6SM -RA OVC035
     FM111200 17011G17KT 4SM SHRA OVC025
     FM111700 22011G16KT 3SM SHRA OVC008
     FM111900 24011G16KT 5SM SHRA OVC010
     FM112100 24013G17KT 6SM SHRA OVC015=
KGSP 110825Z 1108/1206 05005KT 2SM -SHRA BR VCTS OVC003CB
     FM111100 18007KT 1SM SHRA BR OVC003 WS020/21035KT
     FM111500 20012G19KT 2SM SHRA BR VCTS OVC004CB
     FM111900 22013G22KT 4SM -SHRA BR OVC020
     FM112100 24010KT P6SM BKN040
     FM112300 26010KT P6SM SCT050=

0000025300
528
FTUS72 KWBC 110827 CCA
TAF COR
KLFT 110825Z 1108/1206 22012G20KT P6SM VCTS OVC006CB
      TEMPO 1108/1110 4SM -SHRA BR OVC003CB
     FM111000 23010KT 4SM BR OVC003
      TEMPO 1110/1114 1SM BR
     FM111700 33011KT P6SM SKC=

0000035000
529
FTUS73 KWBC 110827 AAA
TAF AMD
KIND 110824Z 1108/1212 21007KT 1SM -SHRA BR OVC004
      TEMPO 1108/1111 1/4SM FG VV003
     FM111100 21012KT 1SM BR OVC005
     FM111400 25014G22KT 5SM -DZ BR BKN006 OVC015
     FM111800 25014G24KT P6SM BKN015
     FM120000 27013KT P6SM BKN025
     FM120600 27011KT P6SM SCT050 BKN200=

0000014800
530
SARA32 RUMS 110800 CCA
METAR COR UHSS 110800Z 12001MPS 4000 SHSN BKN020CB M17/M19 Q1012
NOSIG RMK MT OBSC QFE758/1011 01810366=

0000011100
531
SAMJ41 LWSK 110830
METAR LWSK 110830Z 06002KT 0250 R34/0550N FG OVC002 00/M00 Q1027
NOSIG=

0000061000
532
FTUS51 KWBC 110827 AAA
TAF AMD
KAVL 110826Z 1108/1206 13005KT 1SM SHRA BR OVC003
     FM111000 17009KT 1SM SHRA BR OVC002
     FM111400 19013G21KT 1SM SHRA BR OVC003
     FM111700 30010KT 2SM SHRA BR OVC004
     FM111900 31012KT 4SM -SHRA OVC035
     FM120000 31014G22KT P6SM SCT040 BKN250=
KGMU 110825Z 1108/1206 VRB04KT 3SM SHRA BR VCTS OVC004CB
     FM111100 18008KT 1SM SHRA BR OVC002 WS020/21035KT
     FM111500 20012G18KT 2SM SHRA BR VCTS OVC004CB
     FM111900 22013G22KT 4SM -SHRA OVC020
     FM112000 24010G17KT P6SM BKN040
     FM112300 26010KT P6SM SCT050=

0000025300
533
FTUS52 KWBC 110827 CCA
TAF COR
KLFT 110825Z 1108/1206 22012G20KT P6SM VCTS OVC006CB
      TEMPO 1108/1110 4SM -SHRA BR OVC003CB
     FM111000 23010KT 4SM BR OVC003
      TEMPO 1110/1114 1SM BR
     FM111700 33011KT P6SM SKC=

0000029400
534
FTUS53 KWBC 110827 AAA
TAF AMD
KLAF 110826Z 1108/1206 22006KT 3SM -SHRA BR OVC003
      TEMPO 1109/1111 1SM BR
     FM111500 27012KT 4SM BR OVC010
     FM111800 27013G23KT P6SM OVC015
     FM120000 28010KT P6SM BKN025 AMD LTD TO CLD VIS AND WIND TIL
      111400=

00000000