0000045400
295
SASW39 LSSW 110550 RRA
METAR LSMD 110550Z AUTO VRB02KT 0500NDV R11/0700N R29/1500VP2000U BR
           OVC001 01/01 Q1018 RMK RED=
METAR LSME 110550Z AUTO VRB02KT 0550NDV R04/0650N R22/0800N FG VV001
           03/03 Q1018 RMK RED=
METAR LSMM 110550Z AUTO 11003KT 5000NDV BKN110 00/M00 Q1017 RMK GRN=
METAR LSMP 110550Z AUTO 00000KT 0900NDV R05/1100VP2000U R23/P2000N
           FG SCT001 BKN120 BKN180 01/01 Q1018 RMK RED=

0000009500
296
SAEG31 HECA 110600
METAR HECA 110600Z 00000KT 2000 BR NSC 10/08 Q1026 NOSIG=

0000035000
297
SANL31 EHDB 110555
METAR EHAM 110555Z 21013KT 7000 SCT007 OVC011 05/04 Q1012 TEMPO
BKN008=
METAR EHBK 110555Z AUTO 21009KT 9999 NSC 03/02 Q1015 NOSIG=
METAR EHGG 110555Z AUTO 21013KT 3000 DZ BKN006 OVC007 05/04 Q1011
REDZ NOSIG=
METAR EHRD 110555Z AUTO 20013KT 5000 BR FEW007 BKN008 OVC009 05/03
Q1013 TEMPO 4500 -RADZ=

0000074700
298
FTUS71 KWBC 110557 CCA
TAF COR
KMYR 110556Z 1106/1206 00000KT 1SM BR SCT006 SCT080
     FM110800 18007KT 2SM BR BKN006
     FM111600 19012G20KT P6SM VCSH BKN018
      TEMPO 1120/1124 20020G30KT 2SM +SHRA BKN012CB
     FM120000 21012G19KT P6SM VCSH BKN025
     FM120300 25013G23KT P6SM SCT030 AMD LTD TO CLD VIS AND WIND
      TIL 111100=
KSLK 110556Z 1106/1206 00000KT 4SM BR BKN020 OVC035
      TEMPO 1106/1107 SCT015 BKN050
     FM110800 18009KT 4SM BR VCSH BKN015 OVC020 WS020/21045KT
      TEMPO 1108/1110 2SM -FZDZ BR BKN010 OVC015
     FM111000 20012G18KT 3SM -RA BR OVC008 WS020/22050KT
     FM111300 20012G20KT 3SM -RA BR OVC006 WS020/22055KT
     FM111800 21010G18KT 2SM RA BR BKN004 OVC006=

0000008300
299
SABZ19 SBBE 110600
METAR SBBE 110600Z 10004KT CAVOK 24/23 Q1010=

0000075800
300
FTUS74 KWBC 110557
TAF
KLMT 110554Z 1106/1206 21006KT P6SM SCT060 BKN150
     FM111200 20020G30KT P6SM VCSH BKN035
     FM111700 24024G35KT P6SM -RA OVC025
     FM112100 24025G45KT 4SM -SHSN BKN025 BKN040=
KMFR 110554Z 1106/1206 15006KT P6SM SCT035 OVC200
      TEMPO 1106/1109 3SM BR
     FM111000 15012KT P6SM VCSH SCT025 BKN080 WS020/20050KT
     FM111400 16008G16KT P6SM -RA BKN025 OVC040
     FM111900 23008G16KT P6SM -RA BKN030 OVC045
     FM120300 28010G20KT P6SM -SHRA BKN025 OVC040=
KOTH 110554Z 1106/1206 19010KT P6SM -SHRA BKN025 OVC035
     FM110800 20020G32KT 5SM -RA BR BKN015 OVC025
     FM111100 20025G38KT 3SM RA BR OVC012 WS020/25060KT
     FM112200 27020G30KT P6SM -SHRA SCT015 BKN050 OVC070=

0000037700
301
SAMX34 MMMD 110600
METAR MMCZ 110540Z 00000KT 7SM  FEW015 19/19 A3000 
      RMK SLP152 57018 966 8/100=
METAR MMMD 110546Z 11006KT 7SM  SKC 21/21 A2997 RMK SLP150 51008 981=
METAR MMTP 110547Z 00000KT 8SM  SCT200 25/22 A2993 
      RMK SLP116 52017 956 8/002=
METAR MMUN 110547Z 14010KT 7SM  SCT015 25/22 A3000 
      RMK SLP144 56011 974 8/100=

0000052300
302
SAGR32 LGAT 110550
METAR LGAL 110550Z 00000KT CAVOK 01/00 Q1024=
METAR LGEL 110550Z 00000KT 9999 FEW025 07/06 Q1021=
METAR LGIO 110550Z AUTO 00000KT //// // ////// 06/06 Q1023
      RE//=
METAR LGKV 110550Z 03004KT 8000 NSC 04/04 Q1022=
METAR LGMT 110550Z /////KT 9999 BKN025 13/09 Q1022=
METAR LGPZ 110550Z 07005KT 9999 FEW025 BKN080 11/09 Q1024 NOSIG=
METAR LGRX 110550Z NIL=
METAR LGSK 110550Z NIL=
METAR LGSR 110550Z NIL=
METAR LGZA 110550Z 00000KT 9999 SCT018 SCT080 10/09 Q1023=

0000009300
303
SPCN42 CWAO 110556
SPECI CYUA 110556Z AUTO 30021KT 1 1/4SM CLR M25/ A2974=

0000011900
304
SPUS31 KWBC 110547
SPECI
KIND 110543Z 15008KT 1SM R05L/P6000FT -RA BR BKN004 OVC009 04/04
A2960=

0000010200
305
SPUS41 KWBC 110547
SPECI
KINT 110543Z AUTO 00000KT 2SM -RA BR OVC002 04/03 A3007=

0000009300
306
SPUS42 KWBC 110547
SPECI
KFTY 110543Z 00000KT 2SM BR OVC005 09/09 A2998=

0000009000
307
SPUS42 KWBC 110547
SPECI
KMFE 110543Z 00000KT 3SM BR CLR 17/16 A2992=

0000032300
308
FTUS31 KWBC 110548
TAF
KSEA 110545Z 1106/1212 19012G18KT P6SM -RA SCT016 OVC035
     FM110700 19018G30KT 5SM -RA BR OVC016
     FM110900 20023G38KT 3SM RA BR OVC016
     FM111300 20018G32KT P6SM -RA OVC025
     FM112000 20024G38KT P6SM -SHRA OVC017
     FM120900 20018G28KT P6SM -SHRA OVC022=

0000053100
309
FTUS41 KWBC 110548
TAF
KAVP 110546Z 1106/1206 VRB05KT 4SM BR SCT008 OVC012
      TEMPO 1106/1110 2SM -DZ BR OVC008
     FM111500 15005KT 2SM RA BR OVC008
     FM112100 21005KT P6SM -SHRA OVC012
     FM120100 24008KT P6SM -SHRASN SCT015 OVC025=
KSYR 110546Z 1106/1206 10005KT P6SM OVC015
      TEMPO 1106/1110 -SHRA SCT015 OVC025
     FM111000 11008KT P6SM -DZ OVC012
     FM111500 15008KT 2SM RA BR OVC008
     FM112000 21005KT 5SM -SHRA BR OVC012
     FM120000 25012KT P6SM -SHRASN OVC015=

0000147500
310
FTUS72 KWBC 110536 RRA
TAF
KHRO 110535Z 1106/1206 28005KT P6SM FEW025 FEW250
      TEMPO 1110/1114 BKN025
     FM111500 27010G18KT P6SM SCT250
     FM120000 28004KT P6SM SKC=
KLIT 110535Z 1106/1206 17008KT P6SM SCT014 BKN040 WS020/20045KT
      TEMPO 1106/1107 5SM -RA BR BKN014 OVC030
     FM110800 27010KT P6SM SCT100 BKN250 WS020/21040KT
     FM111500 28010G20KT P6SM SCT250
     FM120000 28006KT P6SM SKC=
KMCN 110534Z 1106/1206 VRB03KT 1/4SM -RADZ FG OVC002
     FM110900 15006KT 1SM -SHRA BR OVC004
     FM111400 20010G17KT 2SM -SHRA BR OVC007
     FM111800 24011G18KT 4SM -SHRA BR BKN025 PROB30 1118/1121 2SM
      TSRA BR BKN010CB
     FM112200 28012G20KT P6SM BKN050
     FM120000 30012KT P6SM SCT050=
KPDK 110534Z 1106/1206 05004KT 2SM -RADZ BR OVC002
      TEMPO 1106/1110 1SM -DZ BR
     FM111000 16006KT 2SM -SHRA BR OVC004
     FM111400 21009KT 3SM -SHRA BR OVC007
     FM111900 27010G18KT P6SM BKN025
     FM112100 29012G20KT P6SM SCT040
     FM120000 28011KT P6SM SCT250=
TAF TIST 110531Z 1106/1206 08010KT P6SM VCSH FEW030 SCT060
     FM111230 08015G23KT P6SM FEW035
     FM112300 09008KT P6SM FEW025=
TAF TISX 110531Z 1106/1206 06007KT P6SM VCSH FEW030 SCT060
     FM111230 09016G23KT P6SM SCT025
     FM112200 08009KT P6SM FEW025=
TAF TJBQ 110531Z 1106/1206 11008KT P6SM FEW030
     FM111400 08020G27KT P6SM SCT020
     FM112300 10010KT P6SM SCT020 AMD NOT SKED TIL 111100=

0000067900
311
FTUS72 KWBC 110536 RRB
TAF
TAF TJMZ 110531Z 1106/1206 07007KT P6SM FEW040
     FM111530 08008KT P6SM SCT030
     FM112200 06006KT P6SM SCT025 SCT040 AMD NOT SKED TIL 111600=
TAF TJPS 110531Z 1106/1206 06005KT P6SM FEW030
     FM111500 13010KT P6SM SCT030
     FM112230 09007KT P6SM FEW030 AMD NOT SKED 1112/1203=
TAF TJSJ 110531Z 1106/1206 10007KT P6SM VCSH SCT030
     FM111330 07016G25KT P6SM SCT030
     FM112200 10006KT P6SM FEW030=
TAF TKPK 110531Z 1106/1206 06012KT P6SM VCSH FEW019
     FM111300 06016KT P6SM SCT020 AMD NOT SKED TIL 111100=
TAF TNCM 110531Z 1106/1206 07011KT P6SM VCSH FEW019
     FM111300 09015KT P6SM SCT020=

0000140800
312
FTUS73 KWBC 110536 RRA
TAF
KGYY 110533Z 1106/1206 18010G15KT P6SM OVC006
      TEMPO 1106/1109 2SM RA BR OVC004
     FM110900 20008KT 4SM BR OVC004
     FM111200 26010G15KT P6SM OVC007
     FM111600 26015G25KT P6SM OVC015
     FM112300 27010KT P6SM SCT015=
KMDW 110533Z 1106/1206 20012KT 1SM -DZ BR VCSH OVC003
      TEMPO 1106/1108 5SM RA OVC006
     FM111100 26008KT P6SM OVC007
     FM111600 27014G22KT P6SM OVC015
     FM112300 27010KT P6SM SCT015=
KMLI 110534Z 1106/1206 24006KT 6SM BR OVC004
      TEMPO 1106/1108 3SM BR
     FM110900 28009KT P6SM BKN008 OVC015
     FM111600 28012KT P6SM SCT015
      TEMPO 1118/1122 BKN015
     FM120000 26006KT P6SM SKC=
KMSP 110533Z 1106/1212 24003KT 2SM BR BKN002
      TEMPO 1106/1109 1/2SM FZFG
     FM110900 26005KT 4SM BR BKN009
     FM111000 28008KT P6SM SCT015
     FM111200 29012KT P6SM SCT250
     FM111600 30012KT P6SM SCT025 BKN040
     FM112000 27008KT P6SM SCT040 SCT250
     FM120200 23004KT P6SM SCT030 BKN120=
KORD 110533Z 1106/1212 20012KT 1SM -DZ BR VCSH OVC003
      TEMPO 1106/1108 5SM RA OVC006
     FM111100 26008KT P6SM OVC007
     FM111600 27014G22KT P6SM OVC015
     FM112300 27010KT P6SM SCT015
     FM120500 23006KT P6SM SKC=
KRAP 110534Z 1106/1206 33012KT P6SM BKN040 OVC060
     FM111500 25008KT P6SM SCT100 BKN250
     FM112100 15008KT P6SM SCT120=

0000141500
313
FTUS75 KWBC 110536
TAF
PABE 110534Z 1106/1206 03011KT P6SM SCT050
     FM111300 03018KT P6SM FEW050 SCT150=
PACD 110534Z 1106/1206 14020G28KT 6SM -RA BR SCT015 OVC025
      TEMPO 1106/1108 SCT025 OVC050
     FM111000 20011KT P6SM -SHRA SCT025 BKN040=
PACV 110534Z 1106/1206 00000KT P6SM VCFG FEW001 BKN035
     FM111900 VRB03KT P6SM SCT035 BKN070
     FM120300 VRB03KT 3SM -SHSN OVC025=
PADL 110534Z 1106/1206 02008KT P6SM VCSH OVC015
      TEMPO 1106/1110 3SM -SHSN
     FM111200 02012G20KT P6SM SCT020 BKN050 OVC080
     FM112200 02015G25KT 2SM -SN BLSN OVC015 AMD LTD TO CLD VIS
      AND
      WIND 1107/1116=
PADQ 110534Z 1106/1206 28005KT P6SM FEW040 SCT250
     FM111800 13005KT P6SM SCT035 SCT120 OVC200
     FM112200 13012KT P6SM VCSH BKN030 OVC080
     FM120100 VRB03KT 3SM -RA BR BKN012 OVC020=
PADU 110534Z 1106/1206 21011KT P6SM -SHRA SCT020 OVC035
      TEMPO 1106/1110 BKN020
     FM111200 21012G20KT P6SM -SHRA SCT025 BKN040
     FM120000 21017G26KT P6SM -SHRA SCT035 BKN045=
PAEN 110534Z 1106/1206 01005KT P6SM OVC006
     FM111700 04007KT P6SM BKN015 OVC040
     FM111900 03008KT P6SM SCT025 BKN060=
PAGK 110534Z 1106/1206 34005KT 4SM -SHSN BR SCT025 OVC050=
PAHO 110534Z 1106/1206 04005KT P6SM SCT015 OVC030
      TEMPO 1106/1110 BKN015
     FM111500 05005KT P6SM SCT025 OVC050
     FM120300 VRB04KT 3SM -SHSN OVC025=

0000087700
314
FTUS75 KWBC 110536 RRA
TAF
PAIL 110534Z 1106/1206 02007KT P6SM SCT006 OVC020
      TEMPO 1106/1110 BKN006
     FM111600 03008KT P6SM SCT020 BKN050
     FM120400 02006KT 5SM -SHSN OVC035=
PAKN 110534Z 1106/1206 34005KT P6SM FEW004 SCT025 BKN120
     FM112100 04011KT 3SM -SN OVC025=
PANC 110534Z 1106/1212 34004KT P6SM VCSH SCT015 OVC025
      TEMPO 1106/1110 5SM -SHSN BKN015
     FM112200 VRB03KT P6SM SCT025 BKN050=
PASN 110534Z 1106/1206 08015KT P6SM VCSH SCT015 BKN050 OVC080
      TEMPO 1106/1109 BKN015
     FM110900 07018G25KT 3SM -RASN BR OVC015
     FM111600 13011KT 5SM -SHRASN BR BKN015 OVC030
     FM120000 07015G22KT 3SM -SHRASN BR OVC015=
PATK 110534Z 1106/1206 00000KT P6SM OVC020
     FM111800 VRB03KT P6SM SCT025 BKN060=
PAVD 110534Z 1106/1206 VRB03KT P6SM SCT050 BKN120 AMD LTD TO CLD
      VIS AND WIND=

00000000