0000024600
115
SADN32 EKCH 110850
METAR EKVJ 110853Z NIL=
METAR EKSB 110850Z 23012KT 200V270 5000 -RA BKN011 07/06 Q1006=
METAR EKSN 110853Z NIL=
METAR EKVD 110850Z 24015KT 9999 -SHRA SCT008 BKN020 07/06 Q1005=
METAR EKOD 110853Z NIL=

0000050300
116
SADN34 EKCH 110850
METAR EKHN 110850Z AUTO 26020KT 8000NDV -DZ  BKN005/// /////
Q1006=
METAR EKHR 110850Z AUTO 23025KT 5000NDV -RA  FEW007/// BKN012///
OVC016/// 07/07 Q1004=
METAR EKHA 110850Z AUTO 30018KT 9999NDV 07/04 Q1007=
METAR EKHD 110850Z AUTO 28023KT 9999NDV 07/01 Q1005=
METAR EKTE 110850Z AUTO 03019KT 9999NDV 07/02 Q1007=
METAR EKGC 110850Z AUTO 30021KT 9999NDV 07/03 Q1007=
METAR EKAV 110850Z AUTO 22018KT 9999NDV -SHRA  BKN058/// OVC090///
06/05 Q1003=

0000009800
117
SABW31 VGEG 110850
METAR VGEG 110850Z 26006KT 4000 HZ SCT300 25/15 Q1014 NOSIG=

0000030700
118
FTPR00 SPIM 110841 AAA
TAF AMD
SPQU 110840Z 1108/1206 VRB02KT 7000 SCT010 SCT070
     TX19/1119Z TN10/1111Z
     TEMPO 1108/1112 4000 BCFG BKN010 SCT070
     FM111400 24006KT 9999 SCT020 SCT100
     FM111800 25011KT 9999 BKN030 SCT080
     FM120000 VRB02KT 8000 BKN012 SCT080=

0000029900
119
SAUK53 EGRR 111700
METAR EGUL 111658Z AUTO 28005KT 9999 CLR 04/02 A3014 RMK AO2 SLP210
      T00350019=
METAR EGUN 111658Z AUTO 27008KT 9999 CLR 02/01 A3015 RMK AO2 SLP213
      T00210007=
METAR EGVA 111658Z AUTO 34003KT 9999 CLR 03/02 A3017 RMK AO2 SLP224
      T00320024=
0000309000
120
SNUK42 EGRR 111700
AAXX 11174
03002 47564 /2835 10048 20012 30003 40022 53009 723//
  333 81/23 86/35 90710 91147 91047=
03008 46/// /2722 10055 20016 30000 40073 53025
  333 90710 91139 91036=
03010 46/// /3025 10059 20012 40107 52016
  333 90710 91136=
03014 46/// /3034 40057 53017
  333 90710 91147=
03031 47684 /2809 10008 21014 39819 40154 53018 721//
  333 553// 20001 84/36=
03034 45981 /2611 10052 20009 30133 40147 52019
  333 8//99=
03037 47778 /1904 10032 20011 30137 40159 51019 723//
  333 83/50=
03039 46/// /2819 11011 21016
  333 90710 91127=
03044 47584 /2805 10017 20001 30028 40130 51023 723//
  333 553// 20000 81/21 86/31=
03047 47284 /0202 10004 21010 39864 40175 51019 724//
  333 553// 20001 81/03 85/47=
03062 45984 /2109 10008 21001 30132 40137 53018
  333 553// 20000 8//99=
03065 46/// /2631 11055 21064
  333 90710 91145=
03068 42584 12514 10017 20000 30130 40138 51025 81900
  333 81920=
03072 46/// /2927 11037 21051
  333 90710 91144 91038=
03080 45975 /2707 10011 21031 39973 40148 51025
  333 8//99=
03088 45982 /2819 10036 21025 39975 40141 52021
  333 553// 20000 8//99 90710 91129=
03105 45670 /2612 10055 20029 30163 40181 53011
  333 82/42 83/73=
03132 45980 /2507 10027 20019 30179 40193 53009
  333 8//99=
03144 45684 /2504 10024 20001 30126 40170 53022
  333 553// 20000 81/36=
03148 46/// /2715 11008 21015=
03153 45970 /2609 10019 20011 30046 40188 51012
  333 553// 20006 83/73=
03155 46982 /2312 10020 20010 39875 40180 51014
  333 8//99=
03158 45984 /2407 10024 21006 30030 40170 51023
  333 553// 20000 8//99=
03210 46970 /2708 10039 20032 30043 40198 51013
  333 8//99=
03212 45/82 /0501 10035 20014 30096 40197 53010=
03214 45980 /2608 10055 20032 30182 40201 51017
  333 81/73=
03220 46979 ///// 10028 20015 30156 40191 52014
  333 8//99=
03224 45470 /2611 10011 20011 39834 40189 53015
  333 82/16=
03225 46982 /2510 10021 21011 39885 40199 53011
  333 553// 20000 8//99=
03226 45984 /3204 10013 21006 39912 40196 53015
  333 8//99=
03227 46/// /2722 11024 2////
  333 90710 91126=
03230 46980 /3105 10015 20001 39918 40182 51015
  333 8//99=
03238 45983 /2710 10022 20004 39998 40176 51015
  333 8//99=
03261 46965 /2806 10020 21006 30157 40198 53022
  333 8//99=
03265 45983 /2506 10030 21010 30166 40197 52022
  333 8//99=
03266 46981 /2406 10041 20004 30179 40197 51023
  333 8//99=
03275 45977 /2707 10023 21004 39988 40185 51023
  333 8//99=
03281 46/// /2705 10013 21014=
03901 45979 /1506 10023 20011 30097 40187 52004
  333 55300 20019 82/69=
03904 45974 /1402 10020 20001 30127 40188 51007
  333 83/65=
03907 47684 /2207 10033 20017 30179 40187 51010 723//
  333 55300 20015 82/39=
03911 46980 /0102 10013 20001 39914 40195 52005
  333 87/64=
03915 46968 /1505 10019 20009 30108 40189 51009
  333 81/70=
03916 46980 /2305 10026 21001 39995 40189 52012
  333 553// 20006 82/65=
03923 45964 /2406 10016 20014 39991 40193 51005
  333 81/68=
0000386400
121
SNUK43 EGRR 111700
AAXX 11174
03301 46979 /1902 10029 20007 30137 40212 52009
  333 8//99=
03305 45982 /2603 10026 21003 39950 40220 51011
  333 8//99=
03313 46980 /2104 10035 20002 30120 40216 51016
  333 81/74=
03316 45566 /2609 10062 20036 30200 40211 51019
  333 81/25 83/70=
03318 46/// /2708 10051 20034=
03321 45981 /2405 10029 21004 30205 40217 51021
  333 55301 20018 8//99=
03330 45478 /2704 10022 20007 39850 40221 53022
  333 81/14 84/72=
03344 45982 /2607 10026 20009 39880 40206 51022
  333 82/73=
03346 46/// /2612 10024 20005=
03351 45975 /2405 10043 20025 30173 40217 53022
  333 55300 20014 84/72=
03373 46981 /2608 10013 21004 30134 40206 51024
  333 8//99=
03379 46981 /2510 10012 21005 30134 40213 51027
  333 8//99=
03382 45982 /2706 10039 20009 30182 40191 51020
  333 55300 20000 8//99=
03385 46970 /2404 10036 20009 30189 40199 51023
  333 8//99=
03391 42980 12203 10033 20008 30198 40206 51023 81030
  333 81358=
03392 46977 /2707 10028 20013 30200 40204 51023
  333 8//99=
03405 469// /1905 10046 20009 30102 40221 52007
  333 553// 20025 8//99=
03409 46/// /2403 10031 20009 30015 40220 53017
  333 55300 2////=
03410 46981 /2508 10017 21002 39775 40222 52015
  333 553// 20026 81/74=
03469 45984 /2705 10034 20015 30203 40207 51021
  333 553// 20000 8//99=
03488 45984 /2716 10041 20018 30176 40203 53026
  333 8//99=
03503 45981 /1401 10017 20011 30142 40222 53009
  333 8//99=
03520 46980 /0901 10020 21007 30103 40228 53019
  333 553// 20027 8//99=
03522 45968 /1101 10021 21003 30135 40231 53020
  333 8//99=
03529 45982 /2603 10031 21004 30185 40229 52020
  333 8//99=
03544 45980 /2705 10034 20005 30087 40221 52018
  333 553// 20000 82/74=
03560 45976 /3006 10022 21001 30111 40218 51018
  333 553// 20001 8//99=
03604 46983 /1506 10060 20016 30164 40219 52011
  333 81/61=
03605 46968 /1604 10028 20003 30215 40224 51013
  333 8//99=
03609 46/// /2104 10061 20032 30177 40230 53012=
03628 45971 /2301 10035 20014 30154 40229 53017
  333 55303 20026 8//99=
03647 46974 /2904 10017 21002 39962 40225 51018
  333 553// 20025 81/75=
03658 42982 62001 10009 21015 30153 40225 51017 80002
  333 86072=
03660 45980 /3102 10029 21002 39969 40224 51016
  333 8//99=
03672 42984 13402 10041 20009 30180 40222 52018 80001
  333 81075=
03680 46/// ///// 10037 20007 30060 40220 51015
  333 553// 20002=
03684 45982 /2805 10043 20012 30107 40216 52022
  333 8//99=
03693 45978 /2805 10051 20014 30217 40219 51025
  333 8//99=
03707 45974 /1301 10054 20011 30216 40224 53010
  333 8//99=
03710 46980 /3001 10032 21010 39799 40229 53014
  333 553// 20052 8//99=
03743 46981 /3002 10044 20012 30061 40226 52014
  333 8//99=
03749 46962 /2702 10042 20009 30114 40227 51017
  333 8//99=
03761 42982 32803 10043 20008 30077 40225 52016 80001
  333 55300 20011 83075=
03768 46979 /2304 10010 21006 30144 40226 51018
  333 8//99=
03769 45962 /2502 10027 20002 30137 40222 53016
  333 55300 20001 8//99=
03770 46/// ///// 10066 20010=
03781 45984 /2905 10027 21005 30012 40224 52017
  333 553// 20010 8//99=
03784 46/// /2804 10061 20021 30214 40218 52021=
03797 45980 /2905 10047 20013 30159 40221 51023
  333 55300 20012 8//99=
03823 45978 /1306 10044 20029 39972 40220 50003
  333 553// 20080 8//99=
03839 46/// ///// 10052 20025
  333 553// 20029=
03857 45980 /2401 10069 20020 30163 40228 52014
  333 8//99=
03862 45984 /2701 10037 20011 30214 40226 53016
  333 55303 20025 8//99=
03866 46/// /3302 10069 20024 30198 40223 51016=
03872 45984 ///// 10049 20009 30217 40222 51015
  333 553// 20021 8//99 91002=
03876 46/// /3401 10037 20009 30221 40224 52017=
03895 42483 11004 10063 20035 40226 52009 81501 333 81617=
0000125000
122
SREW41 EGRR 111700
03002004 03005000 03008000 03017OTR 03026OTR 03031OTR 03034000
03037OTR 03044008 03047002 03062000 03063000 03066000 03068000
03075006 03080000 03088000 03091000 03100000 03105000 03111000
03132000 03134000 03136000 03144000 03153000 03155000 03158000
03162000 03166000 03171000 03204000 03210000 03212000 03214000
03220000 03224000 03225000 03226000 03230000 03238000 03240000
03257000 03261000 03265000 03266000 03275000 03281000 03292000
03301000 03302000 03305000 03313000 03316000 03318000 03321000
03330000 03344000 03346000 03351000 03354000 03373000 03377000
03379000 03382000 03391000 03392000 03405000 03409000 03410000
03414000 03462000 03469000 03482000 03488000 03502OTR 03503000
03520000 03522000 03529000 03535000 03544000 03560000 03590000
03604000 03605000 03609000 03628000 03647000 03649000 03658000
03660000 03672000 03684000 03693000 03707000 03710000 03716000
03740000 03743000 03746000 03749000 03761000 03768000 03769000
03770000 03772000 03781000 03797000 03803000 03808000 03809000
03823000 03827000 03839000 03840000 03853000 03857000 03862000
03866000 03872000 03876000 03882000 03901000 03904000 03907OTR
03911999 03915000 03916000 03917000 03923000=
0000009200
123
SACN52 CWAO 110900
METAR CWYM 110900Z AUTO 26024KT M21/ A2921 RMK SLP965=

0000012500
124
SABZ24 SBUG 110900
METAR SBUG 110900Z 28003KT 4000 TSRA BR BKN005
BKN012 FEW030CB OVC100
 20/19 Q1012=

0000009500
125
SAVN22 SVMI 110900
METAR SVMI 110900Z 00000KT 9999 FEW016 22/17 Q1013 NOSIG=

0000011100
126
SACV20 GVSV 110900
METAR GVSV 110900Z 07008KT 9999 FEW020 SCT023 BKN200 21/15 Q1017
NOSIG=

0000011900
127
SACN61 CYZY 110900
METAR CYZY 110900Z AUTO 35003KT 1SM -SN VV017 M05/M06 A2918 RMK
 PRESFR SLP917=

0000015400
128
SACN61 CYXS 110900
METAR CYXS 110900Z AUTO 09004KT 3/4SM R15/P6000FT/D -SN VV011 M03/M03
 A2910 RMK PRESFR PCPN 1.2MM PAST HR SLP886=

0000009500
129
SACN52 CWAO 110900
METAR CWTU 110900Z AUTO 30013G22KT M15/ A2957 RMK SLP077=

0000010600
130
SACN62 CYYE 110900
METAR CYYE 110900Z 35002KT 15SM BKN080 M19/M22 A2941 RMK AC6 SLP995=

0000012000
131
SACN43 CWAO 110900
METAR CWHN 110900Z AUTO 24005KT 9SM OVC003 M08/M09 A2949 RMK ICG PAST
HR SLP024=

0000010300
132
SACN43 CWAO 110900
METAR CYXD 110900Z AUTO 17005KT 9SM CLR M07/M14 A2948 RMK SLP015=

0000010400
133
SACN51 CWAO 110900
METAR CZCP 110900Z AUTO 27018KT 4SM -SN CLR M32/ A2940 RMK SLP972=

0000061300
134
SAHU41 LHBM 110900
METAR LHBC 110845Z 18005KT 8000 OVC083 03/02 Q1023=
METAR LHDC 110845Z 20006KT 9999 BKN040 02/00 Q1022 NOSIG=
METAR LHKE 110845Z 16001MPS 9999 OVC040 04/01 Q1022 NOSIG RMK BLU=
METAR LHPA 110845Z 22002MPS 9999 BKN030 05/04 Q1021 NOSIG RMK BLU=
METAR LHPP 110845Z 04002KT 9999 SCT043 SCT083 06/04 Q1022=
METAR LHPR 110845Z /////KT 9999 FEW033 07/03 Q1021=
METAR LHSM 110845Z 00000KT 2600 BR OVC005 05/05 Q1022 BECMG 2500 BR
     OVC007=
METAR LHSN 110845Z 00000MPS 9999 OVC045 04/01 Q1022 NOSIG RMK BLU=
METAR LHUD 110845Z 15004KT 4500 BR BKN030 04/03 Q1023=

00000000