0000024600
075
FTNO33 ENMI 110800
TAF ENNA 110800Z 1109/1209 20005KT 9999 FEW005 PROB30 TEMPO 1109/1115
         0800 FZFG VV001=
TAF ENSB 110800Z 1109/1209 26010KT 9999 -SN FEW010 BKN020=
TAF ENTC 110800Z 1109/1209 14005KT 9999 FEW020=

0000010300
076
SAUK36 EGGY 110850 CCB
METAR COR EGSH 110850Z 29010KT 9999 FEW022 06/05 Q1014 NOSIG=

0000042000
077
SANO35 ENMI 110850
METAR ENMS 110850Z 10013G26KT 060V160 9999 FEW040 M09/M18 Q1010 RMK
           WIND 412FT VRB09KT=
METAR ENRM 110850Z 10017KT CAVOK M08/M15 Q1006=
METAR ENRS 110850Z NIL=
METAR ENSK 110850Z NIL=
METAR ENSO 110850Z NIL=
METAR ENST 110850Z VRB05KT 9999 FEW050 M07/M16 Q1008 RMK WIND 300FT
           06015G26KT 350V120 RMK TURB WRNG - SEE IPPC=
METAR ENVD 110850Z NIL=

0000059400
078
SANO38 ENMI 110850
METAR ENDR 110850Z AUTO 08022KT M04/M08 Q1001=
METAR ENEK 110850Z 29024KT 9999 SCT025 06/01 Q1006 W08/S4=
METAR ENGC 110835Z 06016KT 9999 VCSH BKN012 02/M01 Q0998 W06/S5=
METAR ENHE 110850Z NIL=
METAR ENOA 110850Z 34011KT 9999 FEW039 OVC067 05/02 Q0997 W///S5=
METAR ENSL 110850Z 29034KT 9999 VCSH FEW020CB BKN052 06/03 Q1002
           W05/S5=
METAR ENFB 110850Z AUTO 07016KT 9999NDV FEW014/// BKN018/// OVC040///
           03/00 Q0998 W///S5=
METAR ENSF 110850Z AUTO 06019KT 9999NDV BKN011/// BKN043/// 02/00
           Q0998 W///S5=

0000045100
079
SAFI33 EFHK 110850
EFJO 110850Z AUTO 35009KT 320V040 9000 -SN FEW015 BKN022 M10/M12
Q0998=
EFLP 110850Z AUTO 36008KT 330V040 9999 -SG OVC014 M06/M09 Q0997=
EFMI 110850Z AUTO VRB05KT 4700 -SN OVC012 M08/M09 Q0999=
EFSA 110850Z AUTO 33008KT 300V010 5000 -SN FEW017 BKN023 M08/M10
Q0998=
EFUT 110850Z AUTO 02009KT 350V060 9999 OVC011 M06/M08 Q0998=
EFVR 110850Z AUTO 36007KT 340V040 1400 SN BKN017 OVC021 M08/M11
Q1000=

0000064400
080
SANO33 ENMI 110850
METAR ENAT 110850Z 21004KT 9999 FEW005 BKN064 M16/M18 Q1020 RMK WIND
           700FT 17004KT=
METAR ENBL 110850Z NIL=
METAR ENEV 110850Z 12008KT CAVOK M08/M15 Q1016 RMK WIND 1400FT
           10016KT=
METAR ENFL 110850Z 06002KT 9999 -SN FEW007 SCT013 BKN020 M01/M02
           Q0997=
METAR ENKB 110850Z 10006KT 030V140 9999 FEW019 M06/M09 Q0999=
METAR ENKR 110850Z 17009KT 8000 -SN BKN010 M19/M21 Q1017 RMK WIND
           775FT /////KT=
METAR ENML 110850Z 07011KT 9999 FEW020 BKN035 M04/M08 Q0999=
METAR ENNA 110850Z VRB01KT CAVOK M17/M18 Q1019 RMK WIND 1800FT
           30006KT=

0000031500
081
SANO36 ENMI 110850
METAR ENBS 110850Z 16005KT 9999 VCSH SCT030 BKN060 M08/M12 Q1015=
METAR ENHK 110850Z NIL=
METAR ENHV 110850Z NIL=
METAR ENLK 110850Z NIL=
METAR ENMH 110850Z NIL=
METAR ENNK 110850Z 04015KT 010V090 CAVOK M08/M13 Q1016=
METAR ENNM 110850Z 07017KT CAVOK M10/M16 Q1006=

0000066300
082
SANO32 ENMI 110850
METAR ENAL 110850Z 14008KT 9999 FEW030 M03/M07 Q0998=
METAR ENCN 110850Z 26002KT 9999 VCFG FEW025 SCT048 01/01 Q1000=
METAR ENHD 110850Z 26019KT 9999 SCT023 BKN039 06/03 Q0999=
METAR ENRO 110850Z AUTO 10009KT 070V130 9999NDV -SN SCT008///
           BKN011/// OVC064/// M16/M19 Q0998=
METAR ENRY 110850Z VRB02KT 9999 VCFG SCT003 M02/M02 Q0998=
METAR ENSB 110850Z 23019KT 9999 FEW018 BKN025 M00/M06 Q1009 RMK WIND
           1400FT 22021G34KT=
METAR ENTC 110850Z 15003KT 9999 FEW011 M13/M15 Q1018 NOSIG RMK WIND
           2600FT 13012KT=
METAR ENTO 110850Z 01004KT 0900 R36/P2000 FZFG VV002 M01/M01 Q0998=

0000066300
083
SAGR31 LGAT 110850
METAR LGAD 110850Z NIL=
METAR LGAV 110850Z NIL=
METAR LGIR 110850Z 17004KT 9999 FEW025 SCT180 17/11 Q1023 NOSIG=
METAR LGKL 110850Z 32004KT 9999 FEW080 16/09 Q1024=
METAR LGKO 110850Z 19008KT 9999 BKN020 SCT180 15/09 Q1023=
METAR LGKR 110850Z 00000KT 9999 SCT030 BKN070 13/12 Q1023 NOSIG=
METAR LGLM 110850Z 06004KT 6000 SCT010 BKN020 13/10 Q1023=
METAR LGRP 110850Z 00000KT 9999 FEW018 BKN040 15/12 Q1023 NOSIG=
METAR LGSA 110850Z 26015KT 9999 FEW020 BKN170 16/10 Q1022=
METAR LGSM 110850Z 26003KT 9999 FEW020 SCT030 BKN080 14/10 Q1022=
METAR LGTS 110850Z 00000KT 6000 3000SE BR FEW006 08/07 Q1024 NOSIG=

0000068500
084
SANO39 ENMI 110850
METAR ENNE 110850Z NIL=
METAR ENQR 110850Z AUTO VRB08KT 9999NDV SCT018/// BKN040/// 02/M02
           Q0998 W///S/=
METAR ENSE 110850Z AUTO 07016KT 9999NDV FEW016/// SCT041/// BKN160///
           01/M02 Q0998 W///S5=
METAR ENQC 110850Z AUTO 01014KT 9999NDV BKN016/// 02/M01 Q0997
           W///S4=
METAR ENQA 110850Z AUTO 03014KT 9999NDV FEW009/// SCT011/// BKN016///
           02/01 Q0997 W04/S4=
METAR ENHM 110850Z 28025KT 9999 FEW023 06/03 Q0999 W08/S5=
METAR ENVH 110850Z AUTO 29023KT 9999NDV SCT034/// 06/00 Q1006
           W///S4=
METAR ENLA 110850Z AUTO 28027KT 9999NDV FEW030/// 06/00 Q1004
           W///S4=

0000068700
085
SANO31 ENMI 110850
METAR ENAN 110850Z 11012KT 9999 FEW045 M06/M13 Q1017 NOSIG=
METAR ENBR 110850Z VRB02KT 9999 VCSH FEW008 SCT020 BKN040 05/03 Q0997
           TEMPO 4000 SHRA BKN012CB RMK WIND 1200FT 26013KT=
METAR ENBO 110850Z 11015KT CAVOK M07/M19 Q1012 TEMPO 11020G30KT=
METAR ENDU 110850Z 30001KT 9999 FEW040 M26/M29 Q1018 NOSIG=
METAR ENGM 110850Z 04006KT 9999 FEW009 SCT012 BKN019 M06/M08 Q0999
           NOSIG=
METAR ENOL 110850Z NIL=
METAR ENVA 110850Z 10005KT 060V140 CAVOK M13/M17 Q1004 NOSIG RMK WIND
           670FT 11010KT=
METAR ENZV 110850Z 32011G21KT 9999 VCSH FEW015CB SCT025 BKN045 04/02
           Q1000 TEMPO SHRA BKN012CB=

0000035400
086
SANO34 ENMI 110850
METAR ENBN 110850Z 09011KT 050V120 CAVOK M06/M13 Q1007=
METAR ENBV 110850Z 23008KT 9999 VCSH BKN040 M06/M07 Q1017=
METAR ENFG 110850Z NIL=
METAR ENHF 110850Z 25003KT 180V260 CAVOK M08/M11 Q1017 RMK WIND
           1254FT 22007KT=
METAR ENRA 110850Z 09012G22KT CAVOK M10/M22 Q1012=
METAR ENSH 110850Z NIL=

0000057400
087
SAGR32 LGAT 110850
METAR LGAL 110850Z VRB03KT CAVOK 07/05 Q1025=
METAR LGEL 110850Z 00000KT CAVOK 16/09 Q1023=
METAR LGIO 110850Z NIL=
METAR LGKV 110850Z 00000KT 9999 SCT030 10/08 Q1024=
METAR LGMT 110850Z 00000KT 9999 SCT030 15/10 Q1023=
METAR LGPZ 110850Z 07006KT 9999 FEW020 BKN100 13/09 Q1025 NOSIG=
METAR LGRX 110850Z 00000KT 9999 BKN045 15/10 Q1024 NOSIG=
METAR LGSK 110850Z 01004KT 9999 SCT016 13/09 Q1023=
METAR LGSR 110850Z 25007KT 9999 SCT025 BKN180 17/12 Q1022 NOSIG=
METAR LGZA 110850Z 00000KT 9999 SCT020 BKN080 17/14 Q1023=

0000082600
088
SAIY31 LIIB 110850
METAR LIEA 110850Z 35003KT 300V020 CAVOK 09/08 Q1021=
METAR LIEE 110850Z 30004KT 270V350 8000 NSC 10/09 Q1021=
METAR LIEO 110850Z VRB02KT 7000 NSC 08/07 Q1022=
METAR LIMC 110850Z VRB02KT 3000 BR SCT010 BKN045 07/07 Q1023 NOSIG=
METAR LIME 110850Z 04002KT 4000 BR BKN040 08/07 Q1022=
METAR LIMF 110850Z 00000KT 4000 BR BKN030 07/05 Q1021=
METAR LIMJ 110850Z 04003KT 9999 FEW015 SCT020 BKN040 12/10 Q1022=
METAR LIML 110850Z 05001KT 3000 BR FEW010 BKN050 08/08 Q1023 NOSIG=
METAR LIRA 110845Z 01001KT 8000 FEW010 SCT030 06/05 Q1022=
METAR LIRF 110850Z 07006KT 9000 FEW030 08/08 Q1023 NOSIG=
METAR LIRN 110850Z VRB02KT 9999 SCT050 10/07 Q1023=
METAR LIRP 110845Z 11005KT 9999 FEW040 BKN080 09/07 Q1023 NOSIG=
METAR LIRQ 110850Z 00000KT 8000 FEW008 BKN040 12/12 Q1023=

0000071900
089
SAIY32 LIIB 110850
METAR LIBD 110850Z VRB02KT 5000 BR SCT015 10/10 Q1024=
METAR LIBR 110845Z 30003KT 9999 FEW020 10/10 Q1023 NOSIG=
METAR LICC 110850Z NIL=
METAR LICJ 110850Z 15001KT CAVOK 15/10 Q1022=
METAR LIPB 110850Z 00000KT 9999 BKN053 06/05 Q1023=
METAR LIPE 110850Z 31002KT 5000 BR BKN050 08/07 Q1023=
METAR LIPH 110845Z /////KT 2500 BR BKN030 BKN060 08/07 Q1023=
METAR LIPK 110850Z 00000KT 1700 BR SCT025 BKN040 09/07 Q1022=
METAR LIPQ 110850Z VRB01KT 1500 MIFG SCT010 BKN040 07/06 Q1023=
METAR LIPR 110845Z /////KT 3200 BR OVC040 09/09 Q1022=
METAR COR LIPX 110845Z 00000KT 1200 R04/1500N BR BKN050 08/06 Q1023
=
METAR LIPZ 110850Z 00000KT 3000 BR BKN040 09/07 Q1023=

0000008700
090
SAIY32 LIIB 110850 RRA
METAR LICC 110850Z 23004KT CAVOK 10/05 Q1024=

0000008500
091
SPCN45 CWAO 110854
SPECI CYCB 110854Z 24011KT 12SM SCT015 RMK SC2=

0000008900
092
SABZ21 SBAR 110900
METAR SBAR 110900Z 10008KT 9999 SCT015 26/20 Q1014=

0000009800
093
SABZ20 SBEG 110855
METAR SBEG 110900Z 08004KT 9999 SCT010 BKN025 22/20
Q1010=

0000013200
094
SAUK31 EGGY 110850 CCA
METAR COR EGCC 110850Z 28010KT 9999 -SHRA FEW008 BKN012CB 04/03 Q1016
     RESHRA NOSIG=

00000000