0000003800
495
SNVA21 AMMC 111700
NIL
0000003800
496
SNVB21 AMMC 111700
NIL
0000003800
497
SNVC21 AMMC 111700
NIL
0000003800
498
SNVD21 AMMC 111700
NIL
0000020300
499
SOBR10 KWAL 111716
BAB00078 011171611 :BUB 2 #1       M   0.599   0.529   0.589 :RAD 1 #1   0.507   0.487   0.491   0.500 :PRS 1 #1  -0.802  -0.800  -0.798  -0.791 :BL 11.93  33+0NN 219E
0000068500
500
UDEU02 EGRR 111718
AMDAR 1116
ASC EU8520   5618N 01124E 111608 F370 MS456 269/034 TB/ S031=
LVR EU8520   5530N 01058E 111615 F410 MS470 274/037 TB/ S031=
LVR EU8520   5441N 01034E 111622 F410 MS455 277/039 TB/ S031=
LVR EU8520   5352N 01010E 111629 F410 MS463 275/039 TB/ S031=
LVR EU8520   5302N 00948E 111636 F410 MS466 272/040 TB/ S031=
LVR EU8520   5212N 00931E 111643 F410 MS480 273/039 TB/ S031=
LVR EU8520   5122N 00914E 111650 F410 MS470 288/036 TB/ S031=
LVR EU8520   5030N 00857E 111657 F410 MS463 271/035 TB/ S031=
LVR EU8520   4939N 00842E 111704 F410 MS508 277/036 TB/ S031=
LVR EU8520   4850N 00819E 111711 F410 MS531 255/037 TB/ S031=
0000058000
501
FCBY31 UMMN 110500
TAF UMBB 110450Z 1106/1115 26006G11MPS 6000 BKN007 BKN020CB
TEMPO 1106/1112 29008G13MPS 2000 SHRA BKN005=
TAF UMII 110450Z 1105/1115 30008G13MPS 4000 -SNRA
OVC006 SCT010CB TEMPO 1105/1115 1000 SHSNRA BKN003=
TAF UMMG 110400Z 1105/1115 29009G14MPS 9999 BKN012CB BKN020
TEMPO 1105/1115 3000 -SHRA BKN006=
TAF UMMM 110440Z 1106/1115 30010G15MPS 6000 -SHRA BKN010 BKN015CB
TEMPO 1107/1115 26009G14MPS 2000 SHRASN BKN007=
TAF UMOO 110450Z 1105/1115 28012G17MPS 9999 BKN010 BKN015CB
TEMPO 1105/1115 30015G20MPS 2000 SHSNRA BKN005=

0000023300
502
FTMP31 LMMM 110400 RRA
TAF HLLT 102300Z 1100/1124 VRB02KT CAVOK BECMG 1110/1112 20010KT
BECMG 1116/1118 VRB02KT=
TAF HLLB 102300Z 1100/1124 VRB02KT 9999 SCT020 BECMG 1110/1112
25010KT BECMG 1116/1118 VRB02KT=

0000065800
503
SAUK20 EGGY 110520
METAR EGRE 110520Z AUTO 06019KT 4200 -SN BKN019/// 02/M02 Q0997 RERA
     W///S5=
METAR EGRK 110520Z AUTO 26028KT 9999 SCT024/// 07/01 Q0998 W///S5=
METAR EGRM 110520Z AUTO 27030KT 9999 NCD 06/01 Q1001 W///S5=
METAR EGRO 110520Z AUTO 28027KT //// // ///////// 06/01 Q1003 W///S5=
METAR EGRP 110520Z AUTO 27011G23KT 200V330 9999 FEW033/// ///// Q1004
     W///S4=
METAR EGRS 110520Z AUTO 29024KT 9999 FEW031/// 07/M00 Q1004 W///S4=
METAR EGRV 110520Z AUTO 31018KT 5000 RA SCT012/// SCT021/// 07/05
     Q1009 RERA W///S3=
METAR EGRW 110520Z AUTO 30016G27KT 6000 RA BKN006/// 07/06 Q1009
     W///S4=

0000047600
504
SAUK21 EGGY 110520
METAR EGRF 110520Z AUTO 29028KT 9999 SCT030/// 07/M00 Q0998 RERA
     W///S5=
METAR EGRG 110520Z AUTO 10017KT 9999 BKN016/// 04/02 Q0995 W///S5=
METAR EGRI 110520Z AUTO 26030KT 9999 RA FEW024/// 06/M00 Q0999=
METAR EGRL 110520Z AUTO 26022G35KT 9999 FEW045/// 06/01 Q0999 W///S5=
METAR EGRN 110520Z AUTO 31022KT 9999 NCD 06/M00 Q1005=
METAR EGRT 110520Z AUTO /////KT 9999 -RA FEW007/// SCT012/// 06/03
     Q1009 RERA W///S4=

0000152300
505
FTBN32 OBBI 110500
TAF OMAA 110500Z 1106/1212 17008KT CAVOK BECMG 1110/1112 32010KT
BECMG 1117/1119 05006KT BECMG 1202/1204 23006KT
BECMG 1206/1208 31014KT=
TAF OMAD 110500Z 1106/1212 17006KT CAVOK BECMG 1110/1112 32008KT
BECMG 1117/1119 05006KT BECMG 1202/1204 22006KT
BECMG 1206/1208 31014KT=
TAF OMAL 110500Z 1106/1212 17010KT CAVOK BECMG 1111/1113 34006KT
BECMG 1116/1118 09008KT BECMG 1123/1201 16007KT
BECMG 1207/1209 29011KT=
TAF OMDB 110500Z 1106/1212 08008KT 9999 FEW035 BECMG 1106/1108
17010KT BECMG 1109/1111 33010KT PROB30 TEMPO
1109/1124 VRB15G30KT 3000 SHRA SCT030TCU BECMG
1115/1117 11005KT PROB30 TEMPO 1200/1212 VRB20G40KT
1500 TSRA SCT030CB BECMG 1206/1208 29012KT=
TAF OMDW 110500Z 1106/1212 06008KT 9999 FEW035 BECMG 1106/1108
18010KT BECMG 1109/1111 36010KT PROB30 TEMPO
1109/1124 VRB15G30KT 3000 SHRA SCT030TCU BECMG
1115/1117 06005KT PROB30 TEMPO 1200/1212 VRB20G40KT
1500 TSRA SCT030CB BECMG 1206/1208 28013KT=
TAF OMFJ 110446Z 1106/1212 11010KT 9999 SCT020 TEMPO 1110/1206 5000
SHRA FEW025TCU BKN030 BECMG 1114/1116 VRB05KT BECMG
1205/1207 12010KT=
TAF OMRK 110500Z 1106/1212 12008KT 9999 FEW035 PROB30 TEMPO
1109/1124 VRB15G30KT 3000 SHRA SCT030TCU PROB30
1110/1114 36010KT PROB30 TEMPO 1200/1212 VRB20G40KT
1500 TSRA SCT030CB BECMG 1206/1208 28010KT=
TAF OMSJ 110500Z NIL=
TAF OOMS 110500Z 1106/1212 04012KT CAVOK BECMG 1116/1118 12008KT 9999
FEW030 SCT100 PROB30 TEMPO 1209/1212 RA SCT020 BKN080=
TAF OOSA 110500Z NIL=

0000032000
506
FTAR20 OEJD 110500 RRC
TAF OBBI 110500Z 1106/1212 15010KT 8000 RA SCT020 OVC090 PROB30
TEMPO 1106/1115 VRB20G30KT 3000 TSRA SCT015 SCT050CB BECMG 1119/1121
33015G25KT 9999 SCT020=
TAF OKBK 110445Z 1106/1212 18012KT 3000 BR FEW040 BKN080 BECMG
1109/1111 34012G22KT 6000 TEMPO 1118/1203 1200 BR=

0000016500
507
SAFA31 EKCH 110520
METAR EKVG 110520Z AUTO 27019G29KT 9999NDV -SHRA  BKN012///
BKN024/// BKN062/// 04/02 Q0995 RMK BKN013/// WIND 850FT 29024KT=

0000011800
508
SALV31 EVRA 110520
METAR EVRA 110520Z 27005KT 210V320 9999 OVC015 01/M00 Q1001 
R36/290158 NOSIG=

0000070200
509
FTYG31 LYBM 110500
TAF LYBE 110500Z 1106/1206 16006KT CAVOK TX11/1112Z TN03/1205Z=
TAF LYBT 110500Z 1106/1206 1200502T CAVOK TX11/1112Z TN01/1206Z TEMPO
1106/1108 5000 BR=
TAF LYKV 110500Z 1106/1206 VRB02KT 9999 SCT040 TX14/1113Z TNM03/1205Z
BECMG 1122/1124 1500 BR
TEMPO 1203/1206 0500 FZFG=
TAF LYNI 110500Z 1106/1206 VRB02KT CAVOK TX12/1113Z TN01/1205Z=
TAF LYPG 110500Z 1106/1206 VRB02KT 9999 FEW040 SCT100 TX14/1113Z
TN06/1206Z=
TAF LYPR 110500Z NIL=
TAF LYTV 110500Z 1106/1206 08005KT 9999 SCT040 TX14/1112Z TN04/1204Z=
TAF LYUZ 110500Z 1106/1206 VRB02KT 9999 SCT020 TX07/1112Z TN01/1206Z=
TAF LYVR 110500Z 1106/1206 12005KT CAVOK TX11/1112Z TN00/1206Z=

0000011700
510
SPCN42 CWAO 110519
SPECI CYUA 110519Z AUTO 30021KT 2 3/4SM CLR M25/ A2975 RMK VSBY VRBL
1.3V5.0=

0000011800
511
SALT32 EYVI 110520
METAR EYKA 110520Z 28009KT 250V310 9999 BKN014 OVC020 01/M01 Q1004
R08/190095=

0000035700
512
FTGO31 FOOL 110517
TAF FOOL 110500Z 1106/1212 22008KT 9999 SCT010 FEW020CB BKN033 TEMPO 
                 1106/1110 TS PROB30 TEMPO 1122/1106 3000 TSRA BKN006
                 FEW016CB OVC023= 
TAF FOOG 110500Z 1106/1206 18010KT 9999 SCT010 FEW020CB BKN040 PROB30
                 TEMPO 1106/1110 4000 TSRA BKN008 FEW018CB OVC026=

0000086500
513
FTAO33 DRRN 110500
TAF DBBB 110500Z 1106/1212 32002KT 3000 BR BKN010 BECMG 1109/1110
22010KT 8000 NSW FEW013 TEMPO 1204/1209 32002KT 3000 BR=
TAF DFFD 110500Z 1106/1212 06008KT 8000 NSC BECMG 1106/1108 3000 DU
BECMG 1112/1114 6000 NSW TEMPO 1117/1120 4000 DU=
TAF DGAA 110402Z 1106/1212 26010KT 9999 SCT012 BECMG 1111/1113
19012KT FEW022 TEMPO 1114/1117
FEW030CB BECMG 1118/1120 SCT012 BECMG 1200/1202 25008KT BKN010
TEMPO1206/1209 5000 BR BECMG1209/1211 18012KT 9999 SCT016=
TAF DNKN 110500Z NIL=
TAF DNMM 110500Z NIL=
TAF DRRN 110500Z 1106/1212 08012KT 4000 BLDU NSC TEMPO 1106/1109 2500
TEMPO 1118/1120 2000 TEMPO 1205/1208 2000=
TAF DXXX 110500Z 1106/1212 26005KT 8000 SCT012 TEMPO 1106/1108
2000 BR BECMG 1109/1112 19010KT PROB30 TEMPO 1115/1119 TS FEW015
FEW020CB TEMPO 1200/1209 VRB03KT=
TAF FTTJ 110500Z NIL=

0000022500
514
SANM40 FYWW 110500 RRB
METAR FYGB 110500Z AUTO 26003KT //// // ////// 20/06 Q1021=
METAR FYLZ 110500Z AUTO 19008KT //// // ////// 13/07 Q1012=
METAR FYML 110500Z AUTO 00000KT //// // ////// 23/05 Q1020=

00000000