0000014700
515
SABU32 LBSM 110600
METAR LBPD 110600Z 19002MPS CAVOK 05/00 Q1023 NOSIG=
METAR LBGO 110600Z 19001MPS CAVOK M03/M03 Q1023 NOSIG=

0000010500
516
SACI44 ZSJN 110600
METAR ZSJN 110600Z 25004MPS 210V290 4000 HZ NSC 07/M06 Q1029 NOSIG=

0000014400
517
SACN61 CYKF 110600
METAR CYKF 110600Z AUTO 11007KT 1 1/4SM -RA BR OVC003 02/02 A2974 RMK
 PRESFR PCPN 3.2MM PAST HR SLP082=

0000012700
518
SACN61 CYPR 110600
METAR CYPR 110600Z AUTO 01005KT 340V060 9SM -RA OVC034 04/M01 A2902
 RMK PRESFR SLP828=

0000012600
519
SACN61 CYLW 110600
METAR CYLW 110600Z AUTO VRB02KT 9SM -RA FEW010 OVC055 01/M00 A2967
 RMK PRESFR SLP062=

0000012500
520
SACN61 CYQA 110600
METAR CYQA 110600Z AUTO 13009KT 1 3/4SM -RA BR OVC003 01/01 A2977 RMK
 PRESFR SLP094=

0000010300
521
SACN61 CYQW 110600
METAR CYQW 110600Z AUTO 30008KT 9SM CLR M08/M09 A2961 RMK SLP063=

0000008700
522
SAAG41 SADF 110600
METAR SADF 110600Z  16015G25KT CAVOK 20/12 Q1011=

0000015100
523
SACN31 CWAO 110600
METAR CYZX 110600Z 00000KT 6SM -SHSN SCT008 OVC012 00/M00 A3031 RMK
SF4SC4 WNDY HILL UNAVBL VIS VRB 4-8 SLP264=

0000009900
524
SACN47 CWAO 110600
METAR CYVP 110600Z 21009KT 15SM SKC M25/M29 A2982 RMK SLP103=

0000011000
525
SAMF20 TFFR 110600
METAR TFFR 110600Z AUTO 09003KT 9999 FEW032 BKN056 BKN078 23/21
Q1016=

0000009600
526
SACN51 CWAO 110600
METAR CWOB 110600Z AUTO 29005KT CLR M20/ A2931 RMK SLP985=

0000011000
527
SACN42 CWAO 110600
METAR CYUA 110600Z AUTO 30021KT 1 1/4SM -SN CLR M25/ A2974 RMK
SLP080=

0000009200
528
SACN51 CWAO 110600
METAR CWYK 110600Z AUTO 33009KT M24/ A2922 RMK SLP983=

0000008600
529
SAAG41 SAEZ 110600
METAR SAEZ 110600Z 16019G30KT CAVOK 18/09 Q1012=

0000012000
530
SACN61 CYZY 110600
METAR CYZY 110600Z AUTO 14002KT 9SM -SN OVC015 M05/M06 A2939 RMK
 PRESFR SLP993=

0000010600
531
SACN51 CWAO 110600
METAR CWCA 110600Z 21008KT 15SM FEW070 M11/M13 A2978 RMK AC1 SLP088=

0000009000
532
SACN51 CWAO 110600
METAR CWVH 110600Z AUTO ///// M28/ A2956 RMK SLP051=

0000009500
533
SAID32 WIDN 110600
METAR WIDN 110600Z 35007KT 9999 BKN015 31/25 Q1011 NOSIG=

0000011100
534
SACN49 CWAO 110600
METAR CYGW 110600Z 13003KT 4SM -SN OVC013 M10/M11 A2975 RMK SC8
SLP074=

00000000