0000036400
555
SAGR33 LGAT 110820
METAR LGBL 110820Z 00000KT 9999 FEW018 11/08 Q1024 NOSIG=
METAR LGHI 110820Z NIL=
METAR LGKC 110820Z NIL=
METAR LGKF 110820Z NIL=
METAR LGKP 110820Z NIL=
METAR LGKZ 110820Z NIL=
METAR LGMK 110820Z 02011KT 9999 FEW008 SCT180 14/11 Q1022=
METAR LGNX 110820Z NIL=
METAR LGPA 110820Z NIL=
METAR LGSO 110820Z NIL=

0000012200
556
SAOS32 LOWM 110820 RRA
METAR LOXZ 110820Z VRB01KT 30KM FEW002ST BKN160AC M02/M02 Q1020 NOSIG
RMK BKN=

0000033800
557
SAFI34 EFHK 110820
EFET 110820Z AUTO 00000KT CAVOK M32/M36 Q1015=
EFIV 110820Z 24003KT 3000 -SN OVC004 M28/M31 Q1017 R04/41//88=
EFKE 110820Z AUTO 02010KT CAVOK M16/M20 Q1010=
EFKI 110820Z 04010KT 9999 SCT010 SCT070 M15/M17 Q1004=
EFKS 110820Z AUTO 04006KT 350V090 CAVOK M17/M21 Q1007=
METAR EFKT 110826Z NIL=

0000010600
558
SPCN51 CWAO 110825
SPECI CWCL 110825Z AUTO 17004KT 2 1/4SM OVC003 OVC021 M02/M06 A2922=

0000009300
559
SAGR31 LGAT 110820 RRA
METAR LGAD 110820Z 13004KT 9999 FEW025 15/08 Q1024=

0000009900
560
SAUK33 EGGY 110820 RRA
METAR EGNS 110820Z 29014KT 9999 FEW014 04/02 Q1015 NOSIG=

0000015400
561
FTAY31 RUMS 110700 RRA
TAF UDYZ 110758Z 1109/1209 VRB02MPS 2000 BR OVC010 TEMPO 1109/1118
1000 SN TEMPO 1118/1206 0800 SN FZFG VV005=

0000030300
562
FTPO31 LPMG 110500 AAB
TAF AMD LPPT 110800Z 1108/1212 VRB03KT 0200 FG VV001 TEMPO 1109/1112
             6000 SCT002 BKN006 BECMG 1110/1112 13005KT 9999 NSW
             FEW015 BECMG 1114/1116 18005KT BECMG 1121/1124 BKN008
             TEMPO 1200/1212 3000 DZ BR SCT002 BKN005=

0000120400
563
SPUS70 KWBC 110826
SPECI
KAFN 110822Z AUTO 00000KT 3/4SM UP BR VV004 00/M01 A3012 RMK AO2
     UPB16FZRAE16 P0001 I1000 T00001006=
KCEU 110822Z AUTO 07004KT 2 1/2SM TSRA BR OVC003 09/07 A2994 RMK
     AO2 VIS 1 1/2V3 LTG DSNT NW TSB22 P0003=
KFIG 110822Z AUTO 36005KT 1/4SM FG VV002 01/01 A2988 RMK AO2
     T00110011=
KSPI 110822Z AUTO 26009KT 3SM BR OVC002 04/04 A2950 RMK AO2=
KSSI 110822Z AUTO 16005KT 3/4SM BR VV002 14/14 A3004 RMK AO2
     T01390139=
PATO 110822Z AUTO 28007KT 10SM OVC009 M02/M03 A2929 RMK AO2 CIG
     007V012 T10221033 TSNO=
KARA 110823Z AUTO 20011KT 1 1/2SM VCTS BR OVC002 18/18 A2986 RMK
     AO2 LTG DSNT SW-N TSB23RAE13 P0000 $=
KDCA 110823Z 07003KT 1 1/2SM BR OVC012 03/02 A3003 RMK AO2 RAE16
     PRESFR P0002=
KHHR 110823Z AUTO 17003KT 2 1/2SM BR BKN002 12/11 A3011 RMK
     AO2=
KHOU 110823Z 22004KT 3/4SM BR OVC005 16/16 A2986 RMK AO2=
KHRL 110823Z 21012KT 1SM BR VV002 18/18 A2990 RMK AO2=
KHUF 110823Z 18008KT 4SM -RA OVC002 06/ A2953 RMK AO2 P0002 $=
PATQ 110823Z AUTO 25008KT 3/4SM HZ OVC006 M23/M26 A2980 RMK AO2
     TSNO=
PATQ 110823Z AUTO 25008KT 3/4SM HZ OVC006 M23/M26 A2980 RMK AO2
     TSNO=

0000012100
564
SPUS41 KWBC 110826
SPECI
KORH 110822Z AUTO 19004KT 1/4SM R11/2000V2200FT -RA FG VV002 03/03
A3013=

0000009900
565
SPUS42 KWBC 110826
SPECI
KSSI 110822Z AUTO 16005KT 3/4SM BR VV002 14/14 A3004=

0000009500
566
SABW31 VGHS 110820
METAR VGHS 110820Z 32006KT 3500 HZ NSC 24/10 Q1014 NOSIG=

0000035000
567
FTUS31 KWBC 110827 AAA
TAF AMD
KIND 110824Z 1108/1212 21007KT 1SM -SHRA BR OVC004
      TEMPO 1108/1111 1/4SM FG VV003
     FM111100 21012KT 1SM BR OVC005
     FM111400 25014G22KT 5SM -DZ BR BKN006 OVC015
     FM111800 25014G24KT P6SM BKN015
     FM120000 27013KT P6SM BKN025
     FM120600 27011KT P6SM SCT050 BKN200=

0000060600
568
FTUS41 KWBC 110827 AAA
TAF AMD
KCRW 110826Z 1108/1206 17004KT P6SM BKN050 OVC060
     FM111000 17011G17KT 6SM -RA OVC035
     FM111200 17011G17KT 4SM SHRA OVC025
     FM111700 22011G16KT 3SM SHRA OVC008
     FM111900 24011G16KT 5SM SHRA OVC010
     FM112100 24013G17KT 6SM SHRA OVC015=
KGSP 110825Z 1108/1206 05005KT 2SM -SHRA BR VCTS OVC003CB
     FM111100 18007KT 1SM SHRA BR OVC003 WS020/21035KT
     FM111500 20012G19KT 2SM SHRA BR VCTS OVC004CB
     FM111900 22013G22KT 4SM -SHRA BR OVC020
     FM112100 24010KT P6SM BKN040
     FM112300 26010KT P6SM SCT050=

0000027000
569
FTUS71 KWBC 110827
TAF
TAF AMD KLCK 110820Z 1108/1206 16008KT P6SM -SHRA SCT020 OVC035
      TEMPO 1108/1111 2SM -SHRA BR BKN008 OVC020
     FM111300 20012KT P6SM OVC012
     FM111600 24015G25KT P6SM OVC018
     FM120100 26013KT P6SM OVC009=

0000036800
570
SANL31 EHDB 110825
METAR EHAM 110825Z 20014KT 2300 -DZ BR FEW006 BKN007 BKN022 05/04
Q1012 TEMPO 5000=
METAR EHBK 110825Z AUTO 20011KT 9999 NSC 05/04 Q1015 NOSIG=
METAR EHGG 110825Z AUTO 21014KT 2900 DZ FEW005 BKN007 OVC008 05/04
Q1011 TEMPO BKN005=
METAR EHRD 110825Z AUTO 20012KT 4200 -DZ FEW008 SCT009 BKN012 05/04
Q1013 BECMG BKN006=

0000008500
571
FCRE31 FMEE 110900
TAF FMEP 110800Z 1109/1118 26010KT 9999 FEW023=

0000010800
572
SPUS31 KWBC 110823
SPECI
KPHL 110819Z 07003KT 3/4SM R09R/P6000FT BR OVC002 04/03 A3004=

0000056300
573
SAUK31 EGGY 110820
METAR EGBB 110820Z 25004KT 9999 FEW025 03/02 Q1015=
METAR COR EGCC 110820Z 21008KT 9999 6000NE -SHRA FEW012 BKN015CB
     04/03 Q1015 TEMPO SHRA=
METAR EGKK 110820Z 29009KT CAVOK 06/04 Q1016=
METAR COR EGLL 110820Z 29007KT CAVOK 07/04 Q1016 NOSIG=
METAR EGPF 110820Z 27008KT 9999 -RA FEW019CB SCT032 BKN044 02/00
    Q1013=
METAR EGPH 110820Z 24010KT 9999 FEW010 01/00 Q1011=
METAR EGPK 110820Z 26015KT 9999 -SHRA FEW014 FEW018CB SCT032
    05/01 Q1013=
METAR EGSS 110820Z 30009KT 9999 FEW011 05/03 Q1015=

0000051600
574
SAAM31 FCBB 110800
METAR FCBB 110800Z 26003KT 220V290 8000 FEW010 23/22 Q1015 NOSIG=
METAR FCPP 110800Z 12008KT 9999 FEW015 BKN026 26/24 Q1012 NOSIG=
METAR FKKD 110800Z 00000KT 2000 BR FEW013 BKN300 27/26 Q1013 BECMG
3500 BR=
METAR FKYS 110800Z 06002KT 1500 BR SCT003 23/21 Q1018 BECMG 3000 BR=
METAR FKKR 110800Z 16010KT 6000 NSC 23/01 Q1017 NOSIG=
METAR FKKL NIL=
METAR FKKN 110800Z 04004KT CAVOK 20/02 Q1020=
METAR FEFF NIL=
METAR FEFT 110800Z 36004KT 4000 BR NSC 20/16 Q1013=

00000000