0000010600
095
SACN44 CWAO 110600
METAR CYOD 110600Z 22006KT 15SM BKN015 M09/M10 A2957 RMK SC4 SLP052=

0000026100
096
FTCN35 CWAO 110600 AAA
TAF AMD CYSB 110606Z 1106/1114 14012KT 1SM -FZRA -PL BR OVC002 TEMPO
     1106/1109 2SM -SN BR OVC004
    FM110900 13012KT 1/4SM -RA FZFG VV001 TEMPO 1109/1114 1SM -RA BR
     OVC002
    RMK NXT FCST BY 110800Z=

0000009800
097
SANL33 EHDB 110555 RRA
METAR EHJR 110555Z AUTO 22032G37KT  09/07 Q1008 W10/H23=

0000010200
098
SANL33 EHDB 110555 RRB
METAR EHSC 110555Z AUTO 22024G27KT 6000 06/06 Q1012 W08/H15=

0000010200
099
SANL33 EHDB 110555 RRC
METAR EHSA 110555Z AUTO 21025G29KT 9999 07/06 Q1012 W09/H17=

0000008800
100
SAAL31 DAAA 110600 RRA
METAR DAAT 110600Z 16004KT CAVOK 10/M04 Q1023=

0000171200
101
SAUS71 KWBC 110600
METAR
KABE 110551Z 08006KT 1/2SM -RA BR OVC003 01/00 A3013=
KACK 110553Z AUTO 17006KT 3SM BR OVC002 05/04 A3027=
KACY 110554Z 16010KT 10SM BKN065 OVC090 10/09 A3014=
KAGC 110553Z AUTO 14005KT 10SM SCT049 SCT060 08/06 A2983=
KAGS 110553Z AUTO 00000KT 1/2SM FG VV002 10/09 A3004=
KAKR 110554Z AUTO 16005KT 10SM OVC044 08/07 A2973=
KALB 110551Z 19004KT 10SM OVC008 01/M01 A3016=
KAND 110556Z AUTO 00000KT 2SM VCTS RA BR BKN004 BKN008 OVC013
     08/08 A3003=
KAOO 110553Z AUTO 00000KT 1/4SM FG VV003 01/01 A3000=
KAPG NIL=
KART 110556Z AUTO 16005KT 10SM CLR 06/02 A2995=
KAVL 110554Z AUTO 16003KT 10SM -RA BKN001 OVC022 07/07 A3002=
KAVP 110554Z AUTO 00000KT 2 1/2SM BR OVC010 02/01 A3006=
KBAF 110553Z 36004KT 1SM R20/5500VP6000FT -FZRA BR VV004 00/M01
     A3022=
KBDL 110551Z 31003KT 3/4SM R06/4500V5500FT -RA BR BKN003 OVC010
     01/M01 A3022=
KBDR 110552Z AUTO 00000KT 1 3/4SM -RA BR OVC003 02/02 A3021=
KBED 110556Z 00000KT 1/4SM R11/2400V2800FT FG VV003 01/01
     A3023=
KBFD 110553Z AUTO 15010G18KT 1SM BR OVC002 02/ A2987=
KBGM 110553Z AUTO 15010KT 1/4SM FG VV001 02/02 A3000=
KBGR 110553Z 00000KT 10SM OVC070 M08/M10 A3027=
KBKL 110553Z AUTO 16016G23KT 10SM FEW041 OVC085 08/06 A2969=
KBKW 110551Z AUTO 16014KT 10SM BKN070 OVC085 17/08 A2994=
KBOS 110554Z 00000KT 1/4SM R04R/1600V1800FT FG VV003 01/01
     A3026=
KBTV 110554Z 17011KT 10SM OVC028 02/M02 A3012=
KBUF 110554Z 14009KT 10SM -RA FEW030 BKN065 OVC080 06/03 A2977=
KBVY 110553Z AUTO 00000KT 1/4SM FG VV002 02/01 A3024=
KBWI 110554Z 00000KT 1/8SM R10/1000V1200FT FG VV001 02/01
     A3010=
KCAE 110556Z 00000KT 3/4SM BR VV003 10/09 A3004=

0000169300
102
SAUS71 KWBC 110600 RRA
METAR
KCAK 110551Z 15010KT 10SM OVC048 08/07 A2974=
KCAR 110554Z AUTO 23003KT 10SM OVC019 M08/M13 A3019=
KCEF 110558Z AUTO 32003KT 3/4SM R23/3000FT -RA BR OVC002 00/00
     A3021=
KCHO 110553Z 18003KT 2SM -RA BR FEW006 BKN013 OVC024 02/02
     A3008=
KCHS 110556Z 15006KT 10SM BKN017 BKN024 18/17 A3006=
KCKB 110553Z 00000KT 10SM CLR 08/07 A2986=
KCLE 110551Z 18014G21KT 10SM SCT055 OVC085 09/06 A2973=
KCLT 110552Z 02003KT 1/4SM -DZ BR OVC002 06/06 A3006=
KCMH 110551Z 16008KT 10SM OVC021 11/07 A2973=
KCRW 110554Z COR 00000KT 10SM SCT055 BKN190 12/09 A2983=
KCRW 110554Z 00000KT 10SM SCT055 12/09 A2983=
KCVG 110552Z 20008KT 2SM +RA BR SCT018 BKN023 OVC034 11/10
     A2973=
KDAN 110553Z AUTO 00000KT 1SM BR VV002 04/03 A3008=
KDAY 110556Z 18010KT 6SM -RA BR SCT060 OVC075 09/08 A2969=
KDCA 110552Z 35005KT 1/4SM R01/4500V5500FT FG OVC004 04/02
     A3012=
KDUJ 110556Z AUTO 13011KT 3SM BR OVC002 03/02 A2988=
KECG 110554Z AUTO 13009KT 10SM FEW026 BKN045 OVC065 16/15
     A3010=
KEKN 110551Z AUTO 16009KT 10SM CLR 11/08 A2992=
KELM 110553Z AUTO 00000KT 4SM BR OVC007 02/01 A2999=
KERI 110551Z AUTO 16022G29KT 10SM BKN065 BKN120 08/04 A2974=
KEWB 110553Z AUTO 00000KT 1/2SM R05/3000V3500FT -RA FG SCT011
     BKN014 OVC019 04/04 A3025=
KEWN 110554Z AUTO 18010G16KT 10SM -RA OVC010 20/18 A3010=
KEWR 110551Z 02005KT 1SM -RA BR OVC003 02/01 A3018=
KFAY 110553Z AUTO 17004KT 5SM BR FEW008 BKN013 OVC038 17/16
     A3006=
KFLO 110553Z 00000KT 1/2SM FG BKN003 OVC120 14/13 A3005=
KFRG 110553Z AUTO 12005KT 1/2SM FG VV002 04/04 A3019=
KFVE 110553Z AUTO 21006KT 10SM OVC012 M07/M10 A3014=

0000167700
103
SAUS71 KWBC 110600 RRB
METAR
KGFL 110553Z AUTO 00000KT 6SM BR OVC010 M01/M03 A3016=
KGON 110556Z 35003KT 1/2SM R05/2600V3000FT -RA FG VV003 03/03
     A3023=
KGSO 110554Z 07004KT 1/2SM -RA FG VV002 03/03 A3005=
KGSP 110553Z AUTO 05005KT 3SM -RA BR OVC002 08/07 A3001=
KHFD 110553Z AUTO 00000KT 1/4SM UP FG VV008 02/01 A3022=
KHKY 110553Z AUTO 00000KT 1 1/2SM -RA BR OVC003 06/05 A3004=
KHPN 110556Z 10003KT 1/2SM R16/P6000FT FG VV002 02/01 A3017=
KHTS 110551Z 18004KT 10SM OVC032 12/08 A2981=
KHVN 110553Z AUTO 01003KT 2SM BR OVC003 02/02 A3021=
KHYA 110556Z 20006KT 3/4SM BR VV002 05/04 A3025=
KIAD 110552Z 08004KT 4SM BR SCT004 OVC008 02/02 A3010=
KIAG 110553Z AUTO 15005KT 10SM -RA OVC075 04/02 A2977=
KILG 110551Z AUTO 08006KT 1SM R01/P6000FT BR VV002 04/03 A3013=
KILM 110553Z AUTO 18008KT 10SM BKN010 BKN016 20/18 A3009=
KINT 110554Z AUTO 00000KT 3SM -RA BR OVC002 04/03 A3007=
KIPT 110554Z AUTO 09004KT 1 1/4SM -RA BR BKN006 BKN011 OVC018
     01/00 A3006=
KISP 110556Z AUTO 15005KT 1/4SM R06/2400VP6000FT -RA FG SCT004
     BKN032 OVC041 06/05 A3019=
KJFK 110551Z 07004KT 1/2SM R04R/1400FT -RA FG VV002 04/03
     A3019=
KJST 110554Z AUTO 19008KT 5SM BR OVC002 03/03 A2992=
KLBE NIL=
KLCK 110555Z AUTO 18009KT 10SM OVC022 11/07 A2973=
KLEB 110553Z AUTO 00000KT 9SM BKN004 OVC008 M02/M04 A3019=
KLGA 110551Z 07005KT 1 1/2SM R04/4500V5000FT -RA BR OVC003 01/00
     A3019=
KLUK 110553Z AUTO 25009KT 10SM -RA OVC023 11/08 A2975=
KLWM 110554Z AUTO 00000KT 4SM BR OVC007 02/M01 A3025=
KLYH 110554Z AUTO 00000KT 3SM BR OVC007 03/03 A3007=
KMDT 110556Z 00000KT 3/4SM -RA BR OVC005 01/00 A3009=

0000042600
104
SAJP31 RJTD 110600
METAR RJAA 110600Z 28004KT 230V010 9999 FEW030 08/M11 Q1022 NOSIG=
METAR RJBB 110600Z 30014KT 9999 FEW025 08/M05 Q1027 NOSIG=
METAR RJTT 110600Z 11006KT 9999 FEW025 07/M06 Q1022 NOSIG=
METAR RJOO 110600Z 28006KT 210V340 9999 FEW030 08/M06 Q1026=
METAR ROAH 110600Z 09008KT 060V120 9999 FEW030 SCT040 19/08 Q1024=
METAR RJGG 110600Z 35010KT 9999 FEW025 BKN045 07/M01 Q1025 NOSIG=

0000164700
105
SAUS71 KWBC 110600 RRC
METAR
KMFD 110552Z AUTO 17012KT 10SM OVC024 08/07 A2971=
KMGW 110553Z AUTO 17005KT 10SM BKN055 14/09 A2986=
KMHT 110553Z 33003KT 4SM BR OVC012 M01/M03 A3022=
KMIV 110554Z AUTO 15008KT 10SM SCT065 OVC095 11/10 A3013=
KMMU 110555Z AUTO 00000KT 1 1/4SM UP OVC003 02/01 A3018=
KMRB 110553Z AUTO 00000KT 1/4SM FG VV004 02/01 A3007=
KMSS 110553Z AUTO 06003KT 7SM BKN025 M03/M06 A3004=
KMTN 110600Z AUTO 00000KT 1/4SM FG OVC001 02/02 A3012=
KMYR 110555Z AUTO 00000KT 1/2SM BKN002 14/14 A3009=
KNKT 110554Z 20009KT 10SM SCT007 BKN018 BKN025 19/18 A3010=
KOQU NIL=
KORF 110551Z AUTO 16004KT 10SM -RA FEW017 BKN110 16/14 A3010=
KORH 110554Z AUTO 21004KT 1/2SM R11/3500V4500FT FG VV003 02/02
     A3019=
KPHF 110554Z 15006KT 9SM -RA OVC100 16/13 A3009=
KPHL 110554Z 04005KT 3/4SM R09R/6000VP6000FT BR OVC002 03/01
     A3014=
KPIT 110551Z 13003KT 10SM OVC060 07/05 A2982=
KPKB 110553Z AUTO 17012KT 10SM FEW042 OVC050 13/08 A2984=
KPLB NIL=
KPOU 110553Z 00000KT 1/2SM FG OVC003 01/M01 A3018=
KPQI 110555Z AUTO 17003KT 10SM BKN022 M12/M15 A3021=
KPSM 110558Z 05002KT 3SM BR OVC009 M01/M01 A3024=
KPVD 110551Z 00000KT 1/2SM R05/2000V3500FT -RA FG FEW003 OVC010
     02/01 A3025=
KPWM 110551Z AUTO 00000KT 7SM OVC041 M01/M03 A3026=
KRDG 110554Z 00000KT 1 1/4SM -RA BR BKN003 OVC008 01/00 A3011=
KRDU 110551Z 00000KT 5SM -RA BR OVC003 08/07 A3008=
KRIC 110554Z 04004KT 1 1/4SM BR OVC006 05/04 A3006=
KROA 110554Z 00000KT 3/4SM BR OVC003 03/03 A3008=
KROC 110554Z 13010KT 10SM OVC150 04/02 A2986=
KRWI 110553Z AUTO 16004KT 10SM -RA BKN019 OVC095 17/16 A3007=

0000069500
106
SAUS71 KWBC 110600 RRD
METAR
KSAV 110553Z AUTO 18004KT 1SM R01/3500V4000FT BR VV003 17/16
     A3006=
KSBY 110554Z AUTO 14007KT 10SM BKN100 12/10 A3012=
KSCH NIL=
KSLK 110551Z AUTO 00000KT 5SM BR CLR M03/M04 A3001=
KSWF NIL=
KSYR 110554Z 07008KT 10SM BKN017 OVC200 02/01 A3000=
KTEB 110551Z 35003KT 2 1/2SM -DZ OVC005 02/00 A3018=
KTOL 110552Z 17008KT 2 1/2SM -RA BR OVC004 05/05 A2963=
KTTN 110553Z AUTO 04004KT 1SM -RA BR OVC002 02/02 A3014=
KUCA NIL=
KWRI 110558Z AUTO 10003KT 1/2SM R06/1400FT -RA FG BKN017 OVC065
     04/04 A3012=
KYNG 110551Z 15011KT 10SM BKN038 OVC055 08/05 A2978=
KZZV 110553Z AUTO 16011KT 10SM BKN035 OVC046 10/07 A2977=

0000167100
107
SAUS72 KWBC 110600
METAR
KABI 110552Z 02004KT 10SM CLR 07/M02 A2989=
KABQ 110552Z VRB04KT 10SM CLR 06/M10 A3013=
KABY 110553Z 18011KT 4SM BR OVC002 19/19 A3001=
KACT 110551Z 00000KT 8SM BKN036 09/08 A2983=
KAEX 110553Z 24007KT 10SM BKN013 BKN021 OVC070 19/18 A2980=
KAFW 110553Z 30003KT 10SM SCT120 06/02 A2984=
KAHN 110551Z AUTO 07004KT 1 1/4SM BR OVC003 07/07 A3001=
KALI 110553Z AUTO 17004KT 10SM CLR 13/12 A2991=
KAMA 110553Z 30004KT 10SM CLR 01/M13 A2992=
KANB NIL=
KAPF 110553Z 11005KT 10SM CLR 22/21 A3008=
KATL 110552Z 12006KT 1/4SM R09R/2200V2800FT -DZ FG VV002 09/08
     A2997=
KAUS 110553Z 25005KT 9SM FEW150 14/13 A2986=
KBFM 110553Z AUTO 17007KT 1 1/4SM -RA BR OVC002 17/17 A2995=
KBHM 110553Z 16007KT 5SM BR OVC003 14/13 A2988=
KBNA 110553Z 18016G22KT 10SM BKN015 OVC070 14/12 A2971=
KBPT 110553Z AUTO 23009KT 8SM OVC002 19/18 A2986=
KBQK 110555Z AUTO 19004KT 1 1/2SM OVC003 18/18 A3007=
KBRO 110553Z 00000KT 3/4SM BR VV002 18/18 A2992=
KBTR 110553Z 19013KT 10SM OVC009 20/19 A2984=
KCEW 110553Z AUTO 16006KT 5SM BR OVC002 19/19 A2999=
KCHA 110553Z 19005KT 2SM BR OVC004 10/09 A2990=
KCLL 110553Z AUTO 21006KT 8SM CLR 15/14 A2984=
KCNM 110553Z AUTO 26013KT 10SM CLR 13/M09 A2996=
KCRP 110551Z 18005KT 10SM SCT250 14/13 A2990=
KCSG 110551Z AUTO 11003KT 1/2SM FG VV002 12/12 A2997=
KCSV 110553Z AUTO 18007KT 6SM BR OVC002 10/10 A2984=
KDAB 110553Z 16004KT 9SM FEW250 20/19 A3009=
KDAL 110553Z 00000KT 10SM BKN130 09/05 A2982=
KDFW 110553Z 00000KT 10SM BKN110 11/02 A2983=
KDHN 110553Z AUTO 19006KT 1/4SM FG VV002 17/17 A3002=
KDLF 110558Z AUTO VRB06KT 10SM CLR 08/07 A2990=

0000075900
108
SAJP32 RJTD 110600
METAR RJFF 110600Z 29005KT 240V350 9999 FEW035 07/M04 Q1029=
METAR RJCC 110600Z 32012KT 9999 -SHSN FEW015 SCT040 M05/M14 Q1018=
METAR RJFK 110600Z 35003KT 270V060 9999 FEW030 SCT040 BKN050 09/M03
           Q1026=
METAR RJSN 110600Z 30015KT 9999 VCSH FEW006 SCT020 BKN040 03/M04
           Q1025=
METAR RJFT 110600Z 33004KT 260V060 9999 FEW040 SCT140 08/M04 Q1027=
METAR RJFU 110600Z 13004KT 110V170 9999 FEW040 SCT060 BKN140 08/M01
           Q1028=
METAR RJCH 110600Z 30017KT 9999 VCSH FEW010 SCT025 M06/M10 Q1019=
METAR RJSS 110600Z 30014KT 9999 FEW015 03/M06 Q1023=
METAR RJOA 110600Z 28010KT 9999 FEW030 SCT040 06/M07 Q1026=
METAR RJOB 110600Z 30007KT 260V360 9999 FEW030 SCT045 05/M05 Q1026=

0000016400
109
SAJP32 RJTD 110600 RRA
METAR RJOT 110600Z 28011KT 250V320 9999 FEW035 06/M04 Q1027=
METAR RJFO 110600Z 32011KT 9999 FEW035 SCT170 09/M02 Q1028=

0000169200
110
SAUS72 KWBC 110600 RRA
METAR
KDMN 110553Z AUTO 30006KT 10SM CLR 04/M08 A3012=
KELP 110551Z 26008G20KT 10SM CLR 13/M08 A3006=
KESF 110553Z AUTO 24010KT 10SM FEW010 OVC017 19/18 A2980=
KEYW 110553Z AUTO VRB03KT 10SM FEW016 23/22 A3007=
KFLL 110553Z 14006KT 10SM FEW022 23/23 A3008=
KFSM 110553Z 28003KT 10SM CLR 04/02 A2975=
KFTW 110553Z 31003KT 10SM SCT110 09/03 A2985=
KFTY 110553Z 00000KT 3/4SM BR OVC003 09/09 A2997=
KGGG 110553Z AUTO 29011KT 6SM VCTS -RA FEW013 SCT060 OVC095 17/14
     A2981=
KGLS 110552Z AUTO 22009KT 3/4SM BR VV002 17/17 A2987=
KGNV 110553Z AUTO 00000KT 1/2SM FG VV003 18/18 A3007=
KGPT 110553Z AUTO 18009G17KT 1/2SM FG VV002 17/16 A2991=
KGUP 110553Z AUTO 18005KT 10SM CLR M03/M10 A3021=
KGWO 110553Z AUTO 20014G20KT 1 3/4SM +RA BR FEW013 SCT019 OVC033
     17/16 A2974=
KHOT 110553Z AUTO 28003KT 10SM BKN110 11/08 A2976=
KHOU 110553Z 24013KT 10SM OVC010 20/18 A2987=
KHRL 110552Z 20009KT 1/2SM FG VV002 18/18 A2990=
KHRO 110553Z AUTO 26003KT 10SM CLR 04/00 A2968=
KHSV 110553Z COR 16013KT 10SM OVC007 13/12 A2981=
KHSV 110553Z 16013KT 10SM OVC007 13/12 A2981=
KIAH 110553Z 21004KT 10SM SCT012 19/18 A2986=
KINK 110553Z AUTO 29008KT 10SM CLR 12/M08 A2995=
KJAN 110554Z AUTO 18015G24KT 8SM VCTS -RA OVC009 19/17 A2977=
KJAX 110556Z 00000KT 3SM BR SCT003 16/16 A3006=
KJBR 110553Z AUTO 22008KT 10SM FEW050 BKN085 OVC100 10/09
     A2965=
KLBB 110553Z 30007KT 10SM CLR 00/M09 A2994=
KLCH 110553Z AUTO 21009KT 1SM BR VV002 17/17 A2986=
KLFT 110553Z AUTO 19011KT 10SM -RA OVC006 19/15 A2985=
KLIT 110553Z 27013G22KT 10SM BKN100 13/07 A2972=
KLRD 110556Z AUTO 00000KT 10SM CLR 14/12 A2995=

0000168800
111
SAUS72 KWBC 110600 RRB
METAR
KLRU 110555Z AUTO 29005KT 10SM CLR 05/M09 A3012=
KMAF 110553Z AUTO 29009KT 260V350 10SM CLR 07/M06 A2996=
KMCN 110553Z AUTO 00000KT 1/4SM FG VV002 11/11 A3001=
KMCO 110553Z 14005KT 10SM BKN070 22/19 A3010=
KMEI 110558Z AUTO 18013KT 7SM OVC002 17/17 A2982=
KMEM 110554Z 26014G26KT 2SM R36L/4500VP6000FT +RA BR SCT006 BKN012
     OVC023 14/13 A2969=
KMFE 110553Z 00000KT 1SM BR VV004 16/16 A2992=
KMGM 110553Z AUTO 16008KT 10SM VCTS BKN011 OVC060 16/16 A2992=
KMIA 110553Z 12004KT 10SM FEW018 SCT090 24/22 A3009=
KMKL 110553Z AUTO 18009KT 8SM -RA 13/12 A2967=
KMLB 110553Z AUTO 15003KT 8SM SCT014 SCT025 BKN050 21/21 A3010=
KMLC 110553Z AUTO 00000KT 10SM FEW080 00/M01 A2978=
KMLU 110553Z AUTO 23011KT 10SM BKN017 OVC023 18/17 A2978=
KMOB 110556Z AUTO 17011KT 1 1/4SM BR OVC002 19/19 A2993=
KMSL 110553Z AUTO 17012KT 10SM -RA OVC007 14/12 A2976=
KMSY 110553Z 19011KT 1/2SM FG VV002 18/18 A2990=
KNEW 110553Z AUTO 18011KT 1/4SM FG VV002 18/18 A2991=
KNGP 110556Z AUTO 21006KT 9SM CLR 18/17 A2989=
KOKC 110552Z 29006KT 10SM SCT200 BKN250 04/M06 A2981=
KPBI 110553Z 15005KT 10SM FEW012 SCT250 24/22 A3008=
KPDK 110553Z AUTO 00000KT 1SM BR OVC002 08/08 A2998=
KPFN NIL=
KPIE 110553Z AUTO 12005KT 10SM CLR 19/18 A3007=
KPNS 110553Z AUTO 18011KT 3/4SM R17/2600VP6000FT RA BR VV002 19/18
     A2996=
KROW 110551Z AUTO 30003KT 10SM CLR 07/M11 A3000=
KRSW 110553Z 08004KT 9SM CLR 19/19 A3009=
KSAT 110551Z 26008KT 10SM FEW250 16/13 A2988=
KSFB 110553Z AUTO 14004KT 8SM CLR 19/19 A3009=
KSHV 110556Z 23008KT 10SM BKN012 BKN180 18/16 A2977=
KSJT 110551Z AUTO 27010KT 10SM CLR 14/M05 A2988=

0000112200
112
SAUS72 KWBC 110600 RRC
METAR
KSRQ 110553Z 11004KT 10SM CLR 20/18 A3006=
KSSI 110553Z AUTO 19006KT 1/2SM FG VV002 17/17 A3007=
KTCC 110553Z AUTO 29009KT 10SM CLR 03/M12 A2994=
KTCL 110553Z AUTO 16007KT 5SM BR OVC003 14/14 A2985=
KTCS 110553Z AUTO 32011G16KT 10SM CLR 11/M11 A3010=
KTLH 110553Z AUTO 00000KT 1/2SM FG VV002 18/17 A3003=
KTPA 110553Z AUTO 11004KT 10SM BKN046 22/19 A3008=
KTRI 110553Z 01003KT 8SM -RA BKN055 BKN080 OVC110 09/08 A2992=
KTUL 110553Z 27007KT 10SM CLR 05/M03 A2974=
KTUP 110553Z AUTO 21013G20KT 4SM VCTS RA OVC005 13/ A2975=
KTXK 110553Z AUTO 31008KT 10SM FEW060 BKN120 12/09 A2980=
KTYR 110553Z 34005KT 10SM CLR 14/12 A2984=
KTYS 110553Z 05003KT 1SM R23R/3000VP6000FT BR OVC002 08/07
     A2989=
KVCT 110551Z AUTO 21004KT 1/4SM FG VV001 17/16 A2988=
KVLD 110553Z AUTO 18009KT 1SM BR VV002 21/19 A3004=
KVRB 110553Z 00000KT 4SM BR SCT016 BKN023 BKN028 21/21 A3010=
TIST NIL=
TISX NIL=
TJBQ NIL=
TJMZ NIL=
TJPS 110550Z 06005KT 10SM SKC 21/16 A3007=
TJSJ 110556Z 12003KT 10SM FEW036 SCT070 SCT090 24/21 A3007=
TKPK NIL=
TNCM NIL=

0000170700
113
SAUS73 KWBC 110600
METAR
KABR 110553Z AUTO 16004KT 10SM CLR M13/M15 A2954=
KALN 110555Z AUTO 16007KT 5SM BR 06/06 A2955=
KALO 110554Z 29005KT 8SM OVC007 00/M01 A2949=
KAPN 110554Z AUTO 15011KT 10SM -RA BKN008 OVC047 02/01 A2953=
KASE 110553Z 22004KT 10SM OVC041 M06/M07 A3009=
KATY 110553Z AUTO 00000KT 10SM CLR M09/M11 A2951=
KAXN 110553Z AUTO 27004KT 4SM BR FEW001 M07/M09 A2946=
KAZO 110553Z AUTO 19014KT 9SM OVC004 04/03 A2955=
KBDE 110553Z AUTO 24003KT 5SM BR OVC006 M03/M04 A2939=
KBFF 110553Z AUTO 29008KT 10SM SCT075 OVC095 00/M07 A2980=
KBIS 110552Z 30005KT 10SM OVC110 M04/M07 A2959=
KBJC 110554Z AUTO 07004KT 10SM CLR 00/M10 A2984=
KBKF 110555Z 04001KT 10SM FEW100 SCT220 00/M10 A2986=
KBRL 110553Z AUTO 28008KT 6SM HZ OVC003 12/02 A2952=
KBTL 110553Z 19015G22KT 10SM -RA OVC005 05/04 A2955=
KCGI 110553Z AUTO 17013KT 8SM -RA BKN075 OVC095 08/08 A2960=
KCID 110552Z AUTO 30010KT 6SM BR OVC004 00/M01 A2948=
KCIU 110555Z AUTO 12009KT 2SM OVC003 01/01 A2950=
KCMI 110553Z AUTO 19010KT 1/4SM R32R/1400FT FG VV002 04/04
     A2956=
KCMX 110553Z AUTO 06004KT 1 1/2SM -SN BR BKN027 OVC035 M03/M04
     A2943=
KCOS 110554Z 35009KT 10SM FEW150 FEW170 M02/M11 A2987=
KCOU 110554Z AUTO 27008KT 6SM BR BKN006 OVC013 04/04 A2958=
KCPR 110553Z AUTO 10SM CLR M05/M10 A2985=
KCYS 110553Z AUTO 31022G33KT 10SM CLR M01/M08 A2982=
KDDC 110552Z AUTO 28010KT 10SM CLR M01/M06 A2981=
KDEC 110554Z AUTO 18016KT 3SM -RA BR OVC003 06/05 A2953=
KDEN 110553Z 19005KT 10SM FEW090 SCT120 SCT200 M04/M09 A2986=
KDET 110553Z 16008KT 4SM -RA BR OVC003 05/03 A2964=
KDLH 110555Z 23004KT 1/4SM R09/1800V2000FT -FZDZ FZFG VV002
     M03/M04 A2942=

0000169200
114
SAUS73 KWBC 110600 RRA
METAR
KDSM 110554Z 29007KT 5SM BR FEW007 OVC017 01/M01 A2955=
KDTW 110553Z 15009KT 3/4SM -RA BR OVC002 04/03 A2964=
KEAU 110556Z AUTO 00000KT 5SM BR FEW047 BKN055 OVC090 M03/M03
     A2946=
KEGE 110555Z AUTO 27015G22KT 10SM FEW041 OVC060 M01/M05 A3009=
KEGE 110550Z 23017G25KT 10SM VCSH FEW040 OVC060 00/M06 A3008=
KELO 110552Z AUTO 00000KT 2 1/2SM BR OVC005 M04/M05 A2940=
KEVV 110554Z AUTO 17008KT 10SM FEW070 OVC095 10/08 A2964=
KFAR 110553Z 25007G30KT 10SM OVC018 M04/M07 A2948=
KFNT 110553Z AUTO 17011KT 10SM -RA OVC009 04/03 A2958=
KFSD 110556Z 9SM CLR M07/M08 A2956=
KFWA 110554Z 17012KT 3SM -RA BR OVC004 04/04 A2960=
KGCK 110554Z AUTO 29009KT 10SM CLR M02/M06 A2983=
KGFK 110553Z AUTO 31012KT 10SM OVC016 M04/M07 A2943=
KGJT 110553Z AUTO 08006KT 10SM OVC070 M06/M08 A3015=
KGRB 110553Z 19004KT 1SM BR OVC003 01/01 A2942=
KGRI 110553Z AUTO 28008KT 10SM SCT075 M03/M06 A2968=
KGRR 110553Z AUTO 18009KT 5SM -RA BR OVC006 05/04 A2953=
KGYY 110555Z AUTO 19007G17KT 5SM -RA OVC007 07/05 A2953=
KHIB 110553Z AUTO 00000KT 2 1/2SM BR OVC003 M03/M04 A2942=
KHON 110555Z AUTO 29004KT 10SM CLR M07/M09 A2956=
KHUF 110553Z 20009KT 7SM OVC006 07/ A2962=
KHUT 110552Z AUTO 29010KT 10SM CLR 02/00 A2974=
KICT 110553Z 28009KT 9SM FEW055 SCT130 BKN250 01/01 A2973=
KIKK 110555Z AUTO 19014G18KT 1 3/4SM BR OVC002 04/04 A2954=
KIND 110554Z 16008KT 1 1/2SM -RA BR OVC004 05/05 A2960=
KINL 110555Z AUTO 17003KT 2SM BR OVC003 M03/M04 A2939=
KIRK 110555Z AUTO 29008KT 7SM BKN006 OVC010 02/01 A2955=
KJAC 110555Z AUTO 18014G18KT 10SM OVC039 M01/M04 A2998=
KJLN 110553Z AUTO 00000KT 3SM BR CLR 00/M01 A2969=

00000000