0000039800
475
FTUS71 KWBC 110603 CCA
TAF COR
KBTV 110600Z 1106/1206 19009KT P6SM BKN025 OVC035
     FM110800 17012KT P6SM VCSH SCT020 BKN035 OVC045
      TEMPO 1109/1110 4SM -FZDZ BR BKN015 OVC020
     FM111100 17014G24KT 3SM -RA BR OVC011 WS020/18050KT
     FM111500 17015G25KT 4SM -RA BR BKN008 OVC010 WS020/18050KT
     FM111900 18013G23KT 3SM RA BR SCT005 OVC008 WS020/19050KT=

0000025000
476
FTUS72 KWBC 110603 AAA
TAF AMD
KBTR 110601Z 1106/1206 18010KT P6SM -SHRA OVC008
      TEMPO 1106/1109 2SM TSRA OVC003CB
     FM110900 23012KT 4SM BR OVC004
     FM111500 30009KT P6SM SCT250
     FM120000 VRB03KT P6SM SKC=

0000011600
477
SACN46 CWAO 110600
METAR CYRB 110600Z 21008KT 5SM -SN DRSN OVC060 M32/M35 A2917 RMK SC6
SLP891=

0000010300
478
SARM31 LUKK 110600
METAR LUKK 110600Z 26009KT CAVOK 02/M02 Q1018 R26/CLRD65
NOSIG=

0000013200
479
SAXX69 EGRR 110600
METAR EQBH 110550Z 10006KT 9999 FEW180 03/M01 Q1029 BLU NOSIG RMK A3039
      PA2485 DA1760=

0000009900
480
SACN43 CWAO 110600
METAR CYQF 110600Z 18005KT 15SM SKC M09/M10 A2959 RMK SLP078=

0000011100
481
SACN31 CWAO 110600
METAR CYFB 110600Z 00000KT 15SM OVC068 M25/M29 A2954 RMK AC8 IC
SLP007=

0000012500
482
SASR31 WSSL 110600
METAR WSSL 110600Z 35008KT 9999 SCT018 FEW020TCU BKN300 31/25 Q1010
RMK 0530Z Q1010 =

0000011600
483
SAMJ41 LWSK 110600
METAR LWSK 110600Z 04002KT 0500 R34/0700V0800N FG OVC002 00/M00 Q1026
NOSIG=

0000009900
484
SACN48 CWAO 110600
METAR CYOY 110600Z AUTO 04002KT 3SM M07/M09 A3014 RMK SLP220=

0000011800
485
SACN31 CWAO 110600
METAR CYZV 110600Z 31003KT 15SM FEW035 OVC062 M09/M14 A3009 RMK
SC2SC6 SLP195=

0000010000
486
SARM31 LUKK 110600
METAR LUBL 110600Z AUTO 27011KT 9999 ///063/// 03/M03
Q1017=

0000010300
487
SACN44 CWAO 110600
METAR CYED 110600Z AUTO 23006KT 9SM CLR M07/M12 A2956 RMK SLP046=

0000045000
488
SARH31 LDZM 110600
METAR LDSP 110600Z VRB02KT 9999 SCT060 10/09 Q1023 NOSIG =
METAR LDPL 110600Z VRB02KT 9000 FEW038 OVC057 09/09 Q1022 NOSIG =
METAR LDDU 110600Z 06007KT 9999 BKN060 09/05 Q1023 NOSIG =
METAR LDZA 110600Z 00000KT 0500 R05/0900U R23/0650V1200U FG VV002
03/03 Q1021 NOSIG =
METAR LDZD 110600Z 10005KT 9999 BKN050 09/09 Q1022 NOSIG =
METAR LDRI 110600Z NIL=
METAR LDOS 110600Z 15007KT CAVOK 04/03 Q1021=

0000180900
489
FTEA32 HKNA 110500
TAF HKJK 110430Z 1106/1212 06010KT 9999 SCT026 TEMPO 1112/1118
      VRB10KT FEW023CB SCT024 BECMG 1120/1123 03005KT
       FEW020 TEMPO 1200/1206 VRB05KT SCT017 BECMG 1208/1211
       06010KT SCT026=
TAF HKEL 110430Z 1106/1206 07010KT 9999 SCT025 TEMPO 1112/1118
      VRB10KT -TSRA FEW021CB BKN022 BKN080 BECMG 1120/1123
       10005KT FEW018 TEMPO 1200/1206 VRB05KT CAVOK=
TAF HBBA 110300Z 1106/1212 36002KT 9999 FEW024 SCT100 BECMG
     1107/1109
     18012G24KT 9999 SCT026 FEW028CB BKN100 PROB30 TEMPO
     1113/1118
     08012G24KT 6000 TSRA OR SHRA SCT028 FEW030CB BKN090 BECMG
     1202/1204 VRB03KT 9999 FEW024 BKN100 BECMG 1207/1209
     12012G24KT
     9999 FEW026 FEW028CB SCT100=
TAF HUEN 110300Z 1106/1212 VRB10KT 8000 -TS FEW018 FEW020CB BKN120
    BECMG 1107/1113 18010KT 9000 FEW024 FEW026CB BKN200
    FM 111600 22006KT FEW021 FEW023CB SCT150
    BECMG 1121/1124 36005KT FEW020 FEW022CB BKN120
    TEMPO 1201/1206 VRB10KT 8000 -TS SCT018 FEW022CB BKN110
    BECMG 1207/1212 17012KT 9000 FEW024 FEW027CB BKN250=
TAF HTDA 110400Z 1106/1212 36010KT 9999 SCT024
     BECMG 1109/1112 03015KT 9999 BKN026
     BECMG 1115/1118 SCT024 BECMG 1203/1206 36015
     BECMG 1209/1212 03010G20KT BKN026=
TAF HTKJ 110400Z 1106/1206 07005KT 9999 FEW020
     BECMG 1108/1112 12010KT FEW032CB SCT033
     BECMG 1114/1118 10010KT FEW028
     BECMG 1120/1124 09010KT FEW024
     BECMG 1202/1206 09005KT FEW022 =
TAF HRYR 110245Z 1106/1212 0/0KT 8000 FEW026 SCT300 FM110900Z 0/0KT
9/9 SCT025 TEMPO1112/1118 25009KT -TS FEW023CB SCT025 FM112100
16005KT SCT025 BECMG1203/1206 VRB03KT 8000 FEW026 FM120800
0/0KT 9/9 FEW023=
TAF HTZA 110400Z 1106/1206 36010KT 9999 BKN016
     BECMG 1110/1112 06015KT SCT022=

0000010600
490
SACN61 CYAY 110600
METAR CYAY 110600Z AUTO 28007KT 9SM SCT025 M09/M13 A2993 RMK SLP139=

0000011600
491
SACN61 CYHD 110600
METAR CYHD 110600Z AUTO 20007KT 1SM BR OVC003 M06/M06 A2937 RMK ICG
 SLP972=

0000012600
492
SAMR20 TFFF 110600
METAR TFFF 110600Z AUTO 07012KT 9999 FEW024/// SCT043/// OVC068///
///TCU 24/20 Q1015=

0000008900
493
SAMA21 FIMP 110600
METAR FIMR 110600Z 11015KT 9999 BKN017 29/25 Q1017=

0000010600
494
SABZ24 SBFL 110600
METAR SBFL 110600Z 09007KT 9999 -TSRA BKN030
FEW040CB 22/21 Q1012=

00000000