0000014500
235
SABU32 LBSM 110900
METAR LBPD 110900Z VRB01MPS CAVOK 09/04 Q1024 NOSIG=
METAR LBGO 110900Z VRB02MPS CAVOK 08/01 Q1024 NOSIG=

0000012900
236
SACN46 CWAO 110900
METAR CYBN 110900Z AUTO 16009KT 4SM -RA OVC004 03/03 A2959 RMK PCPN
1.5MM PAST HR SLP027=

0000011800
237
SACN46 CWAO 110900
METAR CYYU 110900Z 09007KT 4SM -SN OVC011 M02/M02 A2947 RMK SC8
PRESFR SLP993=

0000009900
238
SACN47 CWAO 110900
METAR CYVP 110900Z 24004KT 15SM SKC M25/M29 A2987 RMK SLP120=

0000011800
239
SACN31 CWAO 110900
METAR CYZV 110900Z 31004KT 15SM BKN040 BKN100 M09/M13 A3010 RMK
SC6AC2 SLP199=

0000009700
240
SACI44 ZSJN 110900
METAR ZSJN 110900Z VRB01MPS 4000 HZ NSC 04/M06 Q1028 NOSIG=

0000013800
241
SACN61 CYKL 110900
METAR CYKL 110900Z AUTO /////KT 1 3/4SM -SN OVC015 M10/M11 A2972 RMK
 VIS VRB 1-3 WND MISG SLP107=

0000010000
242
SAGR32 LGAT 110850 RRA
METAR LGIO 110850Z VRB01KT 9999 SCT035 BKN080 10/07 Q1024=

0000011600
243
SACN61 CYAY 110900
METAR CYAY 110900Z AUTO 25010KT 9SM SCT085 OVC100 M08/M12 A2997 RMK
 SLP151=

0000010100
244
SANC01 NWWW 110900
METAR NWWW 110900Z AUTO 13009KT 9999 SCT068 BKN078 24/15 Q1011=

0000011000
245
SAMF20 TFFR 110900
METAR TFFR 110900Z AUTO 27002KT 9999 SCT030 BKN035 BKN042 21/20
Q1016=

0000009800
246
SAIL41 BIIS 110900
METAR
BIIS 110900Z VRB02KT 8500 -SNRA OVC025 01/M00 Q0995=

0000019500
247
FTFR34 LFPW 110500 AAF
TAF AMD LFBH 110900Z 1109/1206 35010KT 1500 BR OVC001 BECMG 1109/1111
 07008KT 3000 BR BKN005 BECMG 1111/1113 8000 NSW BKN015 TEMPO
1113/1206 BKN005=

0000013400
248
SACN61 CYDN 110900
METAR CYDN 110900Z AUTO 26014KT 9SM FEW210 M08/M09 A2952 RMK MAX WND
 26018KT AT 0816Z SLP017=

0000013500
249
SACN62 CYEG 110900
METAR CYEG 110900Z 17010KT 15SM OVC150 M06/M08 A2948 RMK AS8 CIG DFUS
 MOON DIMLY VISBL SLP018=

0000011600
250
SACN61 CYDQ 110900
METAR CYDQ 110900Z AUTO 14011KT 9SM OVC090 M05/M08 A2924 RMK PRESFR
 SLP934=

0000009600
251
SAID32 WIDN 110900
METAR WIDN 110900Z 02007KT 9000 SCT015 FEW013 29/24 Q1009=

0000011200
252
SACN62 CYGL 110900
METAR CYGL 110900Z 13008KT 5SM -SN OVC007 M05/M06 A2964 RMK ST8
 SLP052=

0000009600
253
SACN51 CWAO 110900
METAR CWOB 110900Z AUTO 27004KT CLR M20/ A2939 RMK SLP012=

0000011100
254
SACN31 CWAO 110900
METAR CYJT 110900Z 25015G24KT 15SM BKN026 M03/M07 A3016 RMK SC7
SLP213=

00000000