0000007400
695
SASU01 HSSS 110730
HSSS 110730Z 02018KT 8000M SA Q1020=

0000027000
696
SANL32 EHDB 110755
METAR EHEH 110755Z AUTO 21008KT 8000 BR OVC006 04/03 Q1014 
YLO 22005KT 8000 OVC007=
METAR EHKD 110755Z AUTO 21020KT 5000 BR BKN005 OVC006 07/06 Q1010
REDZ 
YLO 22018G28KT 5000 -RADZ SCT005 OVC007 BECMG FEW005 SCT008 OVC012=

0000031400
697
SAMX31 KWBC 110745 RRC
METAR
MMAA 110745Z 00000KT 8SM SKC 24/20 A2991=
MMGL 110751Z 00000KT 10SM BKN030 12/06 A3020 RMK 8/500=
MMMX 110753Z 04003KT 10SM SKC 12/05 A3031 NOSIG RMK HZY AC=
MMMZ 110743Z 01007KT 10SM SKC 11/08 A2997=
MMPR 110747Z 00000KT 10SM SCT070 18/16 A2997 RMK 8/030=

0000010400
698
SADL33 EDZO 110750 CCA
METAR COR EDFM 110750Z 11002KT 9999 FEW048 BKN062 01/01 Q1017=

0000013100
699
SADL34 EDZO 110750 RRA
METAR EDNY 110750Z AUTO 00000KT 0400 0300/ R24/0800V1100N FG BKN000
BKN002 01/01 Q1018=

0000013900
700
SAZS31 NSTU 110750
METAR NSTU 110751Z 02005KT 10SM SCT017TCU SCT045 OVC100 28/25 A2973
RMK TCU ALQDS SLP068 T02780246=

0000010400
701
SAAL40 DAMM 110730 CCA
METAR COR DAON 110730Z 24016KT 9999 SCT026 BKN100 15/04 Q1017=

0000010400
702
SAAL31 DAAA 110730 CCA
METAR COR DAON 110730Z 24016KT 9999 SCT026 BKN100 15/04 Q1017=

0000088200
703
SASN31 ESWI 110750
METAR ESGG 110750Z 24014KT 3900 -RA BR BKN003 05/04 Q1000
R21/29//95=
METAR ESGJ 110750Z AUTO 22011KT 9000 -DZ FEW005/// BKN008///
OVC011/// 04/04 Q0999=
METAR ESGP 110750Z 23012KT 9999 BKN006 OVC009 06/05 Q1000
R19/29//95=
METAR ESGT 110750Z NIL=
METAR ESMK 110750Z AUTO 23009KT 9999NDV SCT011/// OVC015/// 06/05
Q1005=
METAR ESMQ 110750Z AUTO 22008KT 9999 FEW013/// BKN015/// BKN069///
05/04 Q1003=
METAR ESMS 110750Z 24012KT 9999 BKN006 06/05 Q1006 R17/29//95=
METAR ESMT 110750Z AUTO 23017KT 9999 FEW006/// SCT007/// BKN017///
06/04 Q1003 REDZ=
METAR ESMX 110750Z AUTO 21010KT 9000 DZ FEW004/// SCT007///
BKN008/// 04/03 Q1002=
METAR ESTA 110750Z AUTO 22013KT 9999 -RA SCT020/// BKN030///
BKN043/// 06/05 Q1004 RERA=
METAR ESTL 110750Z AUTO 24010KT 9999NDV DZ FEW009/// BKN012///
OVC018/// 06/06 Q1005=

0000012300
704
SPCN31 CWAO 110750
SPECI CYYZ 110750Z 10010KT 3SM -RA BR BKN003 OVC008 03/02 A2970 RMK
 NS6NS2 SLP063=

0000064700
705
SADL31 EDZO 110750
METAR EDDF 110750Z 21003KT 5000 -RA BR FEW001 SCT040 BKN070 01/01
     Q1017 NOSIG=
METAR EDDH 110750Z 23013KT 5000 -RA BR BKN008 06/04 Q1011 TEMPO 4000=
METAR EDDK 110750Z 12005KT 9999 SCT037 BKN090 03/02 Q1015 NOSIG=
METAR EDDL 110750Z 15009KT CAVOK 03/01 Q1015 NOSIG=
METAR EDDM 110750Z 07002KT 6000 NSC M02/M02 Q1018 NOSIG=
METAR EDDN 110750Z 10007KT CAVOK M01/M01 Q1017 NOSIG=
METAR EDDS 110750Z 36002KT 9999 -RA FEW010 SCT040 BKN080 M00/M00
     Q1017 NOSIG=
METAR EDDT 110750Z 23007KT 9999 FEW018 BKN130 04/02 Q1014 NOSIG=
METAR EDDV 110750Z 24006KT 210V280 CAVOK 04/01 Q1013 NOSIG=

0000048400
706
SADL32 EDZO 110750
METAR EDDB 110750Z 20006KT 9999 FEW023 SCT120 03/01 Q1014 NOSIG=
METAR EDDC 110750Z 22008KT CAVOK 04/00 Q1015 NOSIG=
METAR EDDE 110750Z 20007KT CAVOK 00/M01 Q1015 NOSIG=
METAR EDDG 110750Z 19006KT CAVOK 02/01 Q1014 TEMPO BKN010=
METAR EDDP 110750Z 20009KT CAVOK 02/01 Q1016 NOSIG=
METAR EDDR 110750Z 12003KT 8000 FEW040 BKN050 OVC080 01/00 Q1017
     NOSIG=
METAR EDDW 110750Z 22009KT 9999 BKN010 05/03 Q1012 TEMPO 4000 RA
BKN007=

0000026500
707
SAIS31 LLBG 110750
METAR LLET 110750Z 07005KT CAVOK 15/09 Q1026=
METAR LLHA 110750Z 17005KT CAVOK 15/07 Q1025=
METAR LLIB 110750Z VRB01KT 3000 HZ SKC 13/06 Q1025=
METAR LLOV 110750Z NIL=
METAR LLSD 110750Z VRB03KT 9999 SCT037 17/13 Q1023=

0000009500
708
SABW31 VGHS 110750
METAR VGHS 110750Z 31008KT 3500 HZ NSC 24/10 Q1014 NOSIG=

0000063100
709
SAFI31 EFHK 110750
METAR EFHK 110750Z 35008KT 320V020 9999 OVC008 M04/M06 Q0998 NOSIG=
METAR EFJY 110750Z AUTO 02008KT 6000 -SN OVC015 
M09/M11 Q1000=
METAR EFKU 110750Z AUTO 01011KT 9999 -SN OVC025 
M11/M13 Q1001=
METAR EFOU 110750Z AUTO 05006KT 340V080 CAVOK M15/M18 Q1008 120/0087=
METAR EFRO 110750Z AUTO 02014KT CAVOK M19/M22 
Q1011=
METAR EFTP 110750Z AUTO 04006KT 9999 BKN009 OVC011 
M05/M06 Q0999=
METAR EFTU 110750Z AUTO VRB01KT 9999 -SHSN OVC007/// M03/M04 Q0999 
REUP R08/690168=
METAR EFVA 110750Z AUTO 04010KT 360V060 6000 -SN FEW014/// OVC031/// 
M09/M11 Q1002 R16/420195=

0000009400
710
SAMX45 MMMY 110753
METAR MMMY 110741Z 33005KT 8SM  SKC 13/11 A2996 RMK HZY=

0000021200
711
FCQB31 LQSM 110800
TAF LQSA 110800Z 1109/1118 VRB02KT 8000 FEW065=
TAF LQMO 110800Z 1109/1118 VRB02KT 0800 FG FEW005 BKN045
BECMG 1109/1111 5000 BR
BECMG 1111/1113 9999 NSW SCT035 BKN055=

0000010300
712
SAMP31 LMMM 110800 RRA
METAR HLLB 110750Z
20005KT 9999 FEW020 BKN080 14/11 Q1027 =

0000055400
713
SADN31 EKCH 110750
METAR EKCH 110750Z 24014KT 9999 BKN013 BKN080 06/05 Q1006 BECMG
BKN007=
METAR EKBI 110750Z 22009KT 9999 -RA SCT010 BKN027 06/05 Q1005=
METAR EKYT 110750Z 25008KT 7000 -RA FEW006 BKN028 06/05 Q1002=
METAR EKRK 110750Z AUTO 22013KT 7000NDV FEW007/// SCT010///
BKN029/// BKN043/// 06/05 Q1006=
METAR EKAH 110750Z AUTO 23007KT 190V270 9999NDV -RA  OVC014///
07/05 Q1004=
METAR EKEB 110750Z AUTO 22013KT 9999NDV -RA  BKN006/// BKN029///
07/06 Q1005=
METAR EKRN 110750Z 24017KT 9999 BKN011 06/06 Q1008=

0000020500
714
SADN32 EKCH 110750
METAR EKVJ 110753Z NIL=
METAR EKSB 110750Z 23011KT 200V260 4500 -RA BKN009 07/06 Q1006=
METAR EKSN 110753Z NIL=
METAR EKVD 110753Z NIL=
METAR EKOD 110753Z NIL=

00000000