0000037100
395
SASP35 LEMM 110900
METAR LEAB 110900Z VRB02KT 1200 0450W R09/0600N R27/2000N BR BCFG
BKN002 05/05 Q1019 BECMG 0800 FG=
METAR LEBZ 110900Z 15001KT 0800 R31/0800U FG NSC 05/05 Q1018=
METAR LELC 110900Z 31003KT 9999 FEW018 12/10 Q1019 NOSIG=
METAR LELN 110900Z 34002KT CAVOK 01/01 Q1018=
METAR LETO 110900Z 02003KT 9999 FEW065 06/05 Q1019 NOSIG=

0000016300
396
SACR32 LEMM 110900
METAR GCHI 110900Z 00000KT 9999 FEW020 18/14 Q1018=
METAR GCGM 110900Z 00000KT 9999 FEW065 17/11 Q1019 RMK CAB09
00000KT=

0000054700
397
SATS32 DTTA 110900
METAR DTKA 110900Z 05004KT 9999 FEW020 14/08 Q1019 NOSIG=
METAR DTMB 110900Z 15006KT CAVOK 15/08 Q1020 NOSIG=
METAR DTNH 110900Z 21003KT 080V250 CAVOK 11/06 Q1020=
METAR DTTA 110900Z 17005KT 9999 FEW023 13/09 Q1020 NOSIG=
METAR DTTF 110900Z 14002KT 9999 FEW030 14/05 Q1022 NOSIG=
METAR DTTG 110900Z 27006KT CAVOK 13/05 Q1022 NOSIG=
METAR DTTJ 110900Z 23005KT CAVOK 17/09 Q1021 NOSIG=
METAR DTTX 110900Z 22007KT CAVOK 16/07 Q1022 NOSIG=
METAR DTTZ 110900Z 25004KT 9999 FEW030 14/04 Q1022 NOSIG=

0000054100
398
SATS40 DTTA 110900
METAR DTKA 110900Z 05004KT 9999 FEW020 14/08 Q1019 NOSIG=
METAR DTMB 110900Z 15006KT CAVOK 15/08 Q1020 NOSIG=
METAR DTNH 110900Z 21003KT 080V250 CAVOK 11/06 Q1020=
METAR DTTA 110900Z 17005KT 9999 FEW023 13/09 Q1020 NOSIG=
METAR DTTF 110900Z 14002KT 9999 FEW030 14/05 Q1022 NOSIG=
METAR DTTJ 110900Z 23005KT CAVOK 17/09 Q1021 NOSIG=
METAR DTTR 110900Z 15010KT CAVOK 14/06 Q1023=
METAR DTTX 110900Z 22007KT CAVOK 16/07 Q1022 NOSIG=
METAR DTTZ 110900Z 25004KT 9999 FEW030 14/04 Q1022 NOSIG=

0000010800
399
SAMG20 FMMI 110900
METAR FMMI 110900Z VRB04KT 9999  SCTT020CB  BKN023 28/23 1021
NOSIG=

0000035600
400
SATS41 DTTA 110900
METAR DTTB 110900Z 23004KT CAVOK 13/10 Q1020=
METAR DTTD 110900Z 21012KT 180V250 CAVOK 17/04 Q1022=
METAR DTTG 110900Z 27006KT CAVOK 13/05 Q1022 NOSIG=
METAR DTTK 110900Z 21003KT 110V270 CAVOK 13/06 Q1020=
METAR DTTL 110900Z 20003KT 160V270 CAVOK 14/12 Q1020=
METAR DTTN 110900Z 25002KT 6000 NSC 08/08 Q1020=

0000009900
401
SATS40 DTTA 110900 RRA
METAR DTTA 110900Z 17005KT 9999 FEW023 13/09 Q1020 NOSIG=

0000011700
402
SACN61 CYTL 110900
METAR CYTL 110900Z AUTO 09004KT 2 1/2SM -SN OVC034 M08/M09 A2938 RMK
 SLP967=

0000014300
403
SACN62 CYTS 110900
METAR CYTS 110900Z 11010KT 1/2SM R03/3500V5000FT/D SN VV003 M02/M03
 A2946 RMK SN8 /S04/ PRESFR SLP993=

0000011300
404
SACN62 CYVC 110900
METAR CYVC 110900Z 27007KT 10SM -SN OVC025 M11/M13 A2952 RMK SC8
 SLP025=

0000035000
405
SATS42 DTTA 110900
METAR DTTB 110900Z 23004KT CAVOK 13/10 Q1020=
METAR DTTD 110900Z 21012KT 180V250 CAVOK 17/04 Q1022=
METAR DTTK 110900Z 21003KT 110V270 CAVOK 13/06 Q1020=
METAR DTTL 110900Z 20003KT 160V270 CAVOK 14/12 Q1020=
METAR DTTN 110900Z 25002KT 6000 NSC 08/08 Q1020=
METAR DTTR 110900Z 15010KT CAVOK 14/06 Q1023=

0000019600
406
FTRA35 RUMS 110800 AAA
TAF AMD UHSS 110850Z 1109/1215 01003MPS 2100 BR FU BKN006 BKN015CB
530007 TEMPO 1109/1215 1000 SHSN BKN004 BKN020CB BECMG 1122/1124
32004MPS 9999 NSW=

0000009400
407
SAAG41 SAZM 110900
METAR SAZM 110900Z  20006KT 9999  FEW020  14/07
Q1016=

0000173900
408
SPUS70 KWBC 110904
SPECI
KABR 110900Z AUTO 32005KT 10SM OVC013 M10/M11 A2960 RMK AO2=
KANB 110900Z AUTO 21010G17KT 10SM BKN018 BKN030 BKN043 18/15 A2979
     RMK AO2 T01780150=
KBLI 110900Z AUTO 15025G45KT 10SM BKN022 OVC065 12/07 A2934 RMK
     AO2 PK WND 14039/0857=
KBVY 110900Z AUTO 10005KT 1/2SM -RA FG VV003 02/01 A3015 RMK AO2
     P0000 T00170006=
KEKQ 110900Z AUTO 29018G24KT 2SM +RA BR FEW001 OVC019 16/13 A2970
     RMK AO2 OVC V BKN VIS 3/4V5 LTG DSNT NE AND W P0005
     PRESRR=
KGLS 110900Z AUTO 23009KT 1/4SM FG VV002 17/17 A2988 RMK AO2=
KGWO 110900Z AUTO 30005KT 10SM FEW012 BKN036 OVC075 17/13 A2977
     RMK AO2 T01670128 TSNO=
KILN 110900Z AUTO 19011KT 6SM RA BR SCT009 OVC070 09/09 A2962 RMK
     AO2 LTG DSNT SE P0002 T00890089=
KOKB 110900Z AUTO 00000KT 2SM BR FEW009 05/04 A3010 RMK AO2 TSNO
     $=
KORE 110900Z AUTO 00000KT 3/4SM BR OVC003 00/00 A3011 RMK AO2
     T00000000=
KPSX 110900Z AUTO 23004KT 2 1/2SM BR CLR 13/13 A2989 RMK AO2
     T01280128=
KRHI 110900Z AUTO 00000KT 1 1/4SM -SN BR OVC025 M04/M05 A2935 RMK
     AO2 P0000 T10391050=
PAGN 110901Z AUTO 00000KT 1SM BR OVC005 01/01 A2914 RMK AO2 TSNO
     $=
KHOT 110901Z AUTO 00000KT 3SM BR CLR 04/03 A2979 RMK AO2=
KMDH 110901Z AUTO 24007KT 10SM SCT009 SCT027 BKN034 09/07 A2958
     RMK AO2 T00890072=
KMFI 110901Z AUTO 31008KT 2SM -SN BR FEW008 OVC036 M02/M04 A2938
     RMK AO2 P0000 T10221039=
KMFR 110901Z AUTO 13004KT 1 1/2SM R14/2200V4000FT BR OVC002 05/04
     A3000 RMK AO2 T00500044=
KTDZ 110901Z AUTO 18009KT 3SM -RA BR FEW021 BKN042 OVC049 04/04
     A2955 RMK AO2 P0000 TSNO=
PAGN 110901Z AUTO 00000KT 1SM BR OVC005 01/01 A2914 RMK AO2 TSNO
     $=

0000010300
409
SPUS41 KWBC 110904
SPECI
KBVY 110900Z AUTO 10005KT 1/2SM -RA FG VV003 02/01 A3015=

0000009900
410
SPUS42 KWBC 110904
SPECI
KGLS 110900Z AUTO 23009KT 1/4SM FG VV002 17/17 A2988=

0000011800
411
SPUS43 KWBC 110904
SPECI
KGRR 110900Z AUTO 19006KT 1/4SM R26L/2200V3500FT FG VV002 05/04
A2945=

0000010600
412
SPUS44 KWBC 110904
SPECI
KBLI 110900Z AUTO 15025G45KT 10SM BKN022 OVC065 12/07 A2934=

0000011900
413
SACN62 CYXL 110900
METAR CYXL 110900Z 22004KT 2 1/2SM -SN BR OVC005 M06/M06 A2935 RMK
 ST8 SLP964=

0000032300
414
FTUS44 KWBC 110903 AAA
TAF AMD
KSLC 110902Z 1109/1212 15007KT P6SM OVC060
     FM111200 16010KT P6SM SCT070 BKN120
     FM111900 18014G22KT P6SM SCT090
     FM120300 18016G25KT P6SM VCSH BKN060 BKN100
     FM120500 29012G30KT P6SM -RA SCT020 OVC035
     FM120800 30010G16KT 1SM -SN BR OVC012=

00000000