0000004200
735
SAHA31 KWBC 110830
NIL=

0000004200
736
SAJP31 KWBC 110830
NIL=

0000004200
737
SAJP41 KWBC 110830
NIL=

0000004200
738
SAJP42 KWBC 110830
NIL=

0000004200
739
SAJP43 KWBC 110830
NIL=

0000004200
740
SAJP44 KWBC 110830
NIL=

0000004200
741
SAJP45 KWBC 110830
NIL=

0000013000
742
SPCN31 CWAO 110834
SPECI CYVR 110834Z 09015KT 6SM +RA BR BKN007 OVC013 07/06 A2937 RMK
 SF5NS3 PRESFR SLP945=

0000027400
743
SANZ31 NZKL 110830
METAR NZAA 110830Z AUTO 26012KT 9999 DZ SCT020/// BKN027/// OVC042///
          17/14 Q1018 NOSIG=
METAR NZWN 110830Z AUTO 36016KT 9999 SCT018/// 17/13 Q1015 NOSIG=
METAR NZCH 110830Z AUTO 07015KT 9999 OVC011/// 15/13 Q1011 NOSIG=

0000008900
744
SAIE32 EIDB 110830 RRA
METAR EIWF 110830Z 29001KT CAVOK M00/M01 Q1019=

0000045600
745
SAAO33 DRRN 110825
METAR DBBB 110830Z 35004KT 320V020 3000  BR SCT010 BKN200 27/26 Q1012
NOSIG=
METAR DFFD 110830Z 08012KT 4000 DU NSC 24/02 Q1017 BECMG 6000 NSW=
METAR DGAA 110825Z NIL=
METAR DNKN 110825Z NIL=
METAR DNMM 110825Z NIL=
METAR DRRN 110830Z 08015KT 2000 BLDU NSC 22/M02 Q1017 NOSIG=
METAR DXXX 110830Z VRB01KT 4000 BR FEW012 27/26 Q1013 BECMG 6000 NSW=
METAR FTTJ 110830Z 06015KT 7000  NSC 22/05 Q1019 NOSIG=

0000009300
746
SAAF11 LFPW 110800 RRC
METAR FKKL 110800Z 32008KT 3000 HZ NSC 21/02 Q1018=

0000034900
747
SANG31 YBBN 110800
METAR AYPY 110800Z 26018KT 9999 TS FEW019 SCT020 OVC130 29/24 Q1005
RMKS CB/DIST TS TO N/NE=
METAR AYWK 110800Z NIL=
METAR AYVN 110800Z NIL=
METAR AYNZ 110800Z NIL=
METAR AYMH 110800Z NIL=
METAR AYGN 110800Z NIL=
METAR AYMO 110800Z NIL=
METAR AGGH 110800Z 14003KT 9999 SCT020 BKN025 28/25 Q1005=

0000009400
748
SPAU32 AMMC 110834
SPECI YSRI 110835Z AUTO 08006KT 9999 // NCD 19/06 Q1014=

0000023100
749
FCNO35 ENMI 110800
TAF ENRM 110800Z NIL=
TAF ENSO 110800Z NIL=
TAF ENVD 110800Z 1109/1112 02008KT 9999 FEW010 BKN030 TEMPO 1109/1112
         2000 SHSN VV008=
TAF ENNO 110800Z NIL=
TAF ENSN 110800Z NIL=

0000054500
750
FCNO38 ENMI 110800
TAF ENEK 110800Z 1109/1118 31022KT 9999 FEW020 SCT050 BECMG 1115/1117
         30035KT=
TAF ENSL 110800Z 1109/1118 29032KT 9999 FEW015 BKN035 TEMPO 1109/1118
         SHRA BKN012CB PROB30 TEMPO 1112/1118 TS=
TAF ENNE 110800Z 1109/1118 08025KT 9999 -SHSN BKN020=
TAF ENHM 110800Z 1109/1118 27035KT 9999 FEW015 BKN035 TEMPO 1109/1118
         4000 SHRA BKN012CB PROB30 TEMPO 1112/1118 TS=
TAF ENHE 110800Z 1109/1118 09030KT 9999 FEW015 BKN020 PROB30 TEMPO
         1109/1118 2000 -SHSN BKN010=

0000059700
751
FCNO33 ENMI 110800
TAF ENAT 110800Z 1109/1114 20005KT 9999 FEW020 TEMPO 1109/1114 -SN
         OVC002=
TAF ENBL 110800Z NIL=
TAF ENEV 110800Z 1109/1112 14012KT CAVOK TEMPO 1109/1112 08015G25KT=
TAF ENFL 110800Z 1109/1113 04007KT 9999 -SN FEW010 BKN020 PROB30
         TEMPO 1109/1111 4000 SN VV010=
TAF ENKB 110800Z 1109/1118 07008KT 9999 FEW010 BKN020 PROB40 TEMPO
         1109/1118 -SN SCT006 BKN010=
TAF ENKR 110800Z 1109/1116 17008KT 9999 -SN FEW002 BKN010 TEMPO
         1109/1116 4000 -SN BKN005=
TAF ENML 110800Z 1109/1118 04007KT 9999 SCT020 BKN035=

0000036900
752
FCNO34 ENMI 110800
TAF ENBN 110800Z 1109/1116 08015KT CAVOK TEMPO 1109/1116 08015G25KT=
TAF ENBV 110800Z 1109/1113 22008KT 9999 FEW008 BKN025 TEMPO 1109/1113
         2000 SHSN VV005=
TAF ENFG 110800Z NIL=
TAF ENHF 110800Z 1109/1116 VRB05KT CAVOK=
TAF ENRA 110800Z 1109/1114 09008KT CAVOK TEMPO 1109/1114 09015G25KT=
TAF ENSH 110800Z NIL=

0000009700
753
SASP36 LEMM 110830
METAR GEML 110830Z 26003KT 230V290 9999 FEW006 15/12 Q1018=

0000037100
754
FCNO32 ENMI 110800
TAF ENAL 110800Z 1109/1118 10007KT 9999 FEW015 SCT030=
TAF ENCN 110800Z 1109/1118 VRB05KT 9999 FEW020 SCT040 BECMG 1109/1111
         27012KT TEMPO 1112/1118 29015G25KT=
TAF ENHD 110800Z 1109/1118 26020KT 9999 FEW015 BKN030 TEMPO 1109/1118
         4000 SHRA BKN012 SCT015CB PROB30 TEMPO 1115/1118 TS=
TAF ENRO 110800Z NIL=

00000000