0000013200
635
SACN47 CWAO 110700
METAR CYVV 110700Z 15011G17KT 4SM -RA BR BKN009 OVC040 04/04 A2958
RMK SF6NS2 PRESFR SLP028=

0000011800
636
SACN45 CWAO 110700
METAR CYHY 110700Z 00000KT 15SM FEW040 SCT230 M28/M33 A2963 RMK
SC0CI0 SLP058=

0000008400
637
SAAG41 SAZS 110700
METAR SAZS 110700Z  18004KT CAVOK 10/05 Q1021=

0000008700
638
SAAG41 SABE 110700
METAR SABE 110700Z  16023G35KT CAVOK 20/08 Q1012=

0000012700
639
SACN46 CWAO 110700
METAR CYRB 110700Z 19009KT 10SM -SN DRSN BKN027 OVC072 M32/M35 A2920
RMK SC5AC0 SLP901=

0000011100
640
SACN43 CWAO 110700
METAR CYEN 110700Z 25009KT 13SM FEW050 M10/M11 A2960 RMK SC2 FG
SLP057=

0000081100
641
SPUS70 KWBC 110702
SPECI
PASO 110658Z AUTO 00000KT 2SM -SN BR BKN014 BKN022 OVC033 M01/M02
     A2933 RMK AO2 P0000 TSNO=
KCEW 110658Z AUTO 19007KT 3SM RA BR OVC002 19/18 A2998 RMK AO2
     P0001 T01890183=
KFCI 110659Z AUTO 31004KT 3/4SM OVC002 05/00 A3005 RMK AO1=
KLWV 110658Z AUTO 31004KT 3/4SM -RA BKN006 BKN009 OVC046 06/ A2960
     RMK AO2 P0000 T0061 $=
KBLF 110659Z AUTO 15007KT 030V310 7SM -RA BKN008 OVC013 12/09
     A2993 RMK AO2 P0001=
KFFC 110659Z AUTO 15006KT 4SM VCTS -RA BR SCT004 BKN010 OVC018
     11/11 A2994 RMK AO2 LTG DSNT ALQDS P0001 T01060106=
KFLO 110659Z 18004KT 3SM BR SCT004 16/16 A3002 RMK AO2=
KPTW 110659Z AUTO 00000KT 1 3/4SM BR OVC002 02/02 A3009 RMK AO2
     T00170017=
KVRB 110659Z 00000KT 3/4SM BR VV014 19/19 A3009 RMK AO2=

0000026600
642
SACZ31 LKPW 110700
METAR LKKV 110700Z 10003KT 3300 1500E BR SCT002 M02/M02 Q1016=
METAR LKMT 110700Z 25009KT CAVOK 01/M01 Q1019 NOSIG=
METAR LKPR 110700Z 20008KT CAVOK 01/M01 Q1017 NOSIG=
METAR LKTB 110700Z VRB01KT CAVOK M00/M02 Q1020 NOSIG=

0000053800
643
SAYG31 LYBM 110700
METAR LYBE 110700Z 16007KT CAVOK 06/00 Q1023 NOSIG=
METAR LYBT 110700Z 16003KT 070V180 2000 BR NSC 01/01 Q1023 NOSIG=
METAR LYKV 110700Z 00000KT 9999 BKN060 04/02 Q1024 NOSIG=
METAR LYNI 110700Z 16002KT 8000 SCT040 01/00 Q1025 NOSIG=
METAR LYPG 110700Z 14001KT 9999 BKN040 BKN090 08/07 Q1024 NOSIG=
METAR LYPR 110700Z NIL=
METAR LYTV 110700Z VRB01KT 9999 BKN057 09/09 Q1023 NOSIG=
METAR LYUZ 110700Z VRB02KT 9999 BKN020 04/03 Q1022=
METAR LYVR 110700Z VRB02KT CAVOK 02/00 Q1023 NOSIG=

0000029000
644
FTUS31 KWBC 110703 AAA
TAF AMD
KMSY 110701Z 1107/1206 19012KT 4SM BR BKN003 OVC006
      TEMPO 1107/1109 1/2SM FG OVC002
     FM110900 21012KT 3SM -RA OVC004
     FM111400 25012KT 5SM BR OVC015
     FM111800 30012KT P6SM SCT250
     FM120000 31007KT P6SM SKC=

0000026000
645
FTUS42 KWBC 110703 AAA
TAF AMD
KBTR 110700Z 1107/1206 18014G20KT P6SM -SHRA BKN008 OVC025
      TEMPO 1107/1109 2SM TSRA OVC003CB
     FM110900 23012KT 4SM BR OVC004
     FM111500 30009KT P6SM SCT250
     FM120000 VRB03KT P6SM SKC=

0000050100
646
FTUS72 KWBC 110703 AAA
TAF AMD
KBTR 110700Z 1107/1206 18014G20KT P6SM -SHRA BKN008 OVC025
      TEMPO 1107/1109 2SM TSRA OVC003CB
     FM110900 23012KT 4SM BR OVC004
     FM111500 30009KT P6SM SCT250
     FM120000 VRB03KT P6SM SKC=
KMSY 110701Z 1107/1206 19012KT 4SM BR BKN003 OVC006
      TEMPO 1107/1109 1/2SM FG OVC002
     FM110900 21012KT 3SM -RA OVC004
     FM111400 25012KT 5SM BR OVC015
     FM111800 30012KT P6SM SCT250
     FM120000 31007KT P6SM SKC=

0000030200
647
FTUS73 KWBC 110703 AAA
TAF AMD
KHUF 110701Z 1107/1206 18008KT 2SM -SHRA BR OVC006
      TEMPO 1107/1109 1/4SM -RA FG OVC003
     FM110900 22010KT 3SM -RA BR OVC006
     FM111500 25012KT 4SM BR OVC010
     FM111800 25012G22KT P6SM OVC015
     FM120000 27010KT P6SM BKN025=

0000036100
648
SAIL31 BICC 110700
METAR BIAR 110700Z 13008KT 040V200 9999 -SN SCT024 BKN036 OVC045
    02/M03 Q0997=
METAR BIEG 110700Z 04012G23KT 9000 -SNRA SCT012 OVC020 01/M01 Q0996
RMK
R04/790193=
METAR BIKF 110700Z 30007KT 9999 FEW042 BKN125 00/M04 Q0997=
METAR BIRK 110700Z 17007KT 9999 FEW025 SCT050 BKN100 M00/M03 Q0997
    R13/790193=

0000009900
649
SACN44 CWAO 110700
METAR CYSM 110700Z 28002KT 15SM SKC M25/M27 A2959 RMK SLP047=

0000010500
650
SACI44 ZSJN 110700
METAR ZSJN 110700Z 28004MPS 240V300 4000 HZ NSC 07/M06 Q1028 NOSIG=

0000010100
651
SANC01 NWWW 110700
METAR NWWW 110700Z AUTO 13018KT 9999 BKN058 BKN082 26/16 Q1010=

0000009000
652
SACN44 CWAO 110700
METAR CWRF 110700Z AUTO ///// M35/ A2935 RMK SLP004=

0000007600
653
SACN52 CWAO 110700
METAR CWRH 110700Z AUTO 27017KT A2944=

0000009200
654
SACN51 CWAO 110700
METAR CWIL 110700Z AUTO 19008KT M27/ A2939 RMK SLP964=

00000000