0000012400
595
SPUS31 KWBC 110916
SPECI
KLAX 110913Z 00000KT 2 1/2SM R25R/2000VP6000FT BR FEW010 SCT250
11/09 A3012=

0000010800
596
SASA41 KWBC 110900 RRB
METAR
SMJP 110900Z 09004KT 9999 FEW008 SCT045 23/22 Q1012 NOSIG=

0000009500
597
SASA32 KWBC 110900 RRA
METAR
SLTR 110900Z 02003KT 9999 SCT080 24/23 Q1010=

0000023100
598
SAAF13 LFPW 110900 RRB
METAR GOGG 110900Z 02006KT CAVOK 18/10 Q1015=
METAR GOGS 110900Z 02012KT CAVOK 19/11 Q1015=
METAR GOSS 110900Z 04006KT CAVOK 16/16 Q1015=
METAR GOTT 110900Z 02006KT CAVOK 22/09 Q1014=

0000010200
599
SAAB31 LATI 110920
METAR LATI 110920Z 00000KT 9999 BKN057 OVC080 13/08 Q1024 NOSIG=

0000009900
600
SPCN47 CWAO 110916
SPECI CYWA 110916Z AUTO 13007KT 3SM -RA OVC005 M01/M02 A2972=

0000054600
601
SAMG20 FMMI 110900
METAR 110900Z
METAR FIMP 110900Z 09010KT 9999 BKN018 29/25 Q1015=
METAR FIMR 110900Z 10018KT 9999 SCT017 BKN050 30/24 Q1015=
METAR FJDG 110855Z 29014G21KT 9999 FEW020 BKN050 OVC080 27/25 A2983
RMK SLP098 60006 8/87/ T02710246 57020=
METAR FMCH 110900Z 31008KT 9999 SCT022 32/24 Q1013 NOSIG=
METAR FMEE 110900Z 09023KT 9999 FEW028 BKN260 31/21 Q1014 NOSIG=
METAR FMCZ 110900Z 09006KT 050V120 9999 SCT022 BKN300 31/24 Q1012
NOSIG=
METAR FMEP 110900Z AUTO 26007KT 230V290 9999 NCD 30/23 Q1014=

0000010400
602
SAAL40 DAMM 110900 RRB
METAR DAON 110900Z 22016KT 8000 -RA SCT026 BKN100 14/08 Q1019=

0000024500
603
FTDN31 EKCH 110500 AAB
TAF AMD EKYT 110915Z 1109/1206 23008KT 9999 SCT012 BKN030 TEMPO 
1109/1112 6000 -RA BKN012 BECMG 1109/1112 27015KT TEMPO 1115/1124 
7000 -SHRA SCT020CB TEMPO 1200/1206 29018G32KT 7000 -SHRA SCT020CB=

0000009100
604
SPSP35 LEMM 110913
SPECI LEBZ 110913Z 00000KT 1500 BCFG NSC 05/05 Q1018=

0000010100
605
SPUS41 KWBC 110913
SPECI
KBDL 110909Z 00000KT 1 3/4SM -RA BR OVC004 01/00 A3010=

0000011900
606
SPUS41 KWBC 110913
SPECI
KCEF 110909Z AUTO 36003KT 1 1/2SM R23/5500FT -RA BR OVC002 00/00
A3010=

0000011300
607
SPUS42 KWBC 110913
SPECI
KBPT 110909Z AUTO 22004KT 1SM R12/3500V6000FT BR VV002 18/17 A2985=

0000027400
608
FTRW32 HRYR 110900 RRA
HRZA 110830Z 1112/1218 20008KT 9999 TS FEW023CB SCT026
     TEMPO1115/1121 17008KT -TSRA FEW023CB BKN025
     FM120200 00000KT SCT023
     BECMG1206/1209 05006KT 25006KT SCT025
     TEMPO1211/1217 23008KT TS FEW023CB SCT025=

0000008700
609
SAAL41 DAMM 110900 RRF
METAR DABT 110900Z /////KT CAVOK 07/04 Q1021=

0000014200
610
SAPA31 KWBC 110900 RRA
METAR
PTTP 110856Z 05006KT 15SM FEW018 OVC300 28/25 A2981 RMK SLP093
     8/101 T02780248 52017=

0000010300
611
SAUG20 HUEN 110900
METAR
HUEN 110900Z 24006KT 7000 SCT023TCU FEW025CB 26/22 Q1018=

0000009100
612
SPCN52 CWAO 110913
SPECI CWFD 110913Z AUTO 04003KT 1/4SM CLR M23/ A2905=

0000010400
613
SAAL31 DAAA 110900 RRB
METAR DAON 110900Z 22016KT 8000 -RA SCT026 BKN100 14/08 Q1019=

0000009500
614
SAAT31 TAPA 110916
METAR TAPA 110900Z 09011KT 9999 SCT018 25/19 Q1017 NOSIG=

00000000