0000039200
735
SARO32 LROM 110700
METAR COR LRAR 110700Z 17006KT 5000 BR BKN043 03/03 Q1023=
METAR LRBM 110700Z 06004KT 5000 BR BKN025 02/01 Q1022 1019//95=
METAR LRCL 110700Z 26002KT 9999 BKN060 M00/M01 Q1022=
METAR LROD 110700Z 19012KT CAVOK 04/02 Q1022=
METAR LRSM 110700Z 17002KT CAVOK M01/M01 Q1022 0119//95=
METAR LRTM 110700Z 00000KT 4300 MIFG NSC M01/M01 Q1022 0719//95=

0000031500
736
SARO33 LROM 110700
METAR LRBC 110700Z 30006KT 240V350 CAVOK 03/M03 Q1020 1619//95=
METAR LRCV 110700Z 22008KT CAVOK 02/M00 Q1023=
METAR LRIA 110700Z 30006KT CAVOK 04/M02 Q1020 1519//95=
METAR COR LRSV 110700Z 26004KT CAVOK 02/M02 Q1018=
METAR LRTC 110700Z VRB02KT 5000 BR NSC 03/01 Q1022=

0000056000
737
SAFR22 LFPW 110700
METAR LFBC 110700Z AUTO 22002KT 9999 BKN020 OVC026 10/09 Q1018=
METAR LFBG 110700Z AUTO 17003KT 140V200 2500 BR BKN002 OVC006
08/08 Q1018=
METAR LFBM 110700Z AUTO 00000KT 5000 BR BKN018 OVC026 09/08 Q1019=
METAR LFBY 110700Z AUTO 14002KT 7000 // FEW029/// OVC035/// 10/09
Q1018=
METAR LFKS 110700Z AUTO VRB03KT 9999 FEW029 OVC038 12/08 Q1021=
METAR LFMO 110700Z AUTO 00000KT 6000 BKN032 OVC040 09/07 Q1021=
METAR LFMY 110700Z AUTO 07004KT 040V100 9999 FEW029 OVC039 10/07
Q1020=
METAR LFMC 110700Z NIL=

0000038800
738
SAFR23 LFPW 110700
METAR LFOC 110700Z AUTO VRB02KT 5000 BR OVC003 06/05 Q1017=
METAR LFOE 110700Z AUTO 25003KT 0150 R22/0700U FG VV/// 05/05 Q1017=
METAR LFOJ 110700Z AUTO 01003KT 2300 -RA BR BKN002 OVC082 05/05
Q1017=
METAR LFRJ 110700Z AUTO 01004KT 9999 FEW004 BKN025 OVC037 08/07
Q1018=
METAR LFRL 110700Z AUTO 03005KT 350V050 9999 // OVC017 08/07 Q1018=

0000029100
739
SAFR24 LFPW 110700
METAR LFSI 110700Z AUTO 11004KT 9999 -RA NSC 05/04 Q1016=
METAR LFSO 110700Z AUTO VRB02KT 3300 BR ///TCU 03/02 Q1016=
METAR LFSX 110700Z AUTO VRB01KT 9999 FEW019 BKN120 OVC140 04/02
Q1017=
METAR LFYR 110700Z AUTO 00000KT 1400 BR NSC 03/02 Q1017=

0000009900
740
SACN48 CWAO 110700
METAR CYPX 110700Z 19009KT 15SM SKC M25/M28 A2980 RMK SLP096=

0000057700
741
SAFR31 LFPW 110700
METAR LFLL 110700Z 19016KT 160V220 9999 SCT024 BKN200 10/06 Q1018
NOSIG=
METAR LFMN 110700Z 33009KT 9999 SCT031 BKN043 10/05 Q1021 NOSIG=
METAR LFPG 110700Z 03003KT 5000 BR FEW002 SCT036 BKN072 05/05
Q1016 TEMPO 4000 BR BKN002=
METAR LFPO 110700Z 18002KT 3500 BR FEW003 BKN052 06/05 Q1016 TEMPO
BKN003=
METAR LFQQ 110700Z 20007KT 3000 BR OVC002 04/04 Q1015 TEMPO 1200 DZ=
METAR LFRB 110700Z 01004KT 9999 FEW013 OVC023 08/07 Q1018 NOSIG=
METAR LFRS 110700Z 32006KT 2000 BR BKN003 BKN013 07/07 Q1018 TEMPO
1200 BR BKN002=

0000012100
742
SACN31 CWAO 110700
METAR CYQY 110700Z 23011KT 8SM -SN SCT010 OVC018 M01/M03 A3025 RMK
SC3SC5 SLP247=

0000081600
743
SAFR32 LFPW 110700
METAR LFBD 110700Z AUTO 22002KT 5000 BR OVC019 09/09 Q1018=
METAR LFBH 110700Z AUTO 32007KT 4200 BR BKN004 BKN150 OVC170 09/08
Q1017=
METAR LFBI 110700Z AUTO 19005KT 4000 BR OVC005 07/07 Q1017=
METAR LFBL 110700Z AUTO 19010KT 160V220 7000 OVC007 08/07 Q1018=
METAR LFBO 110700Z AUTO 17004KT 6000 FEW014 OVC020 08/07 Q1019=
METAR LFBP 110700Z VRB01KT 9000 FEW020 BKN035 09/07 Q1019 NOSIG=
METAR LFBT 110700Z AUTO 18004KT 6000 FEW011 OVC026 08/06 Q1019=
METAR LFBZ 110700Z 14002KT 9999 FEW016 BKN023 OVC040 11/09 Q1019
NOSIG=
METAR LFLB 110700Z 20002KT 5000 SCT023 BKN180 02/02 Q1019 TEMPO
4000 BR=
METAR LFLX 110700Z 24008KT 9999 OVC015 09/07 Q1017 BECMG OVC010=
METAR LFML 110700Z 09007KT 9999 FEW026 BKN036 12/08 Q1020 NOSIG=
METAR LFCK 110700Z NIL=

0000053800
744
SAFR33 LFPW 110700
METAR LFKB 110700Z 22003KT 9999 BKN033 09/07 Q1021 NOSIG=
METAR LFKC 110700Z VRB03KT 9999 FEW020 SCT170 BKN210 06/05 Q1020
NOSIG=
METAR LFKF 110700Z AUTO 07009KT 9999 FEW026/// OVC190/// 12/09
Q1021=
METAR LFKJ 110700Z 05009KT CAVOK 06/05 Q1020 NOSIG=
METAR LFLC 110700Z VRB02KT CAVOK 07/02 Q1017 NOSIG=
METAR LFMP 110700Z 29005KT 9999 SCT030 BKN150 09/07 Q1019 NOSIG=
METAR LFMV 110700Z AUTO VRB02KT 9999 OVC043 11/06 Q1021=
METAR LFSL 110700Z AUTO 14003KT 9999 OVC020 07/05 Q1018=

0000102800
745
SAFR34 LFPW 110700
METAR LFCR 110700Z AUTO 13004KT 9999 NSC 04/02 Q1019=
METAR LFJL 110700Z AUTO VRB02KT 2700 -DZ BR NSC 02/01 Q1017=
METAR LFLP 110700Z AUTO 00000KT 7000 OVC015 01/01 Q1019=
METAR LFLS 110700Z AUTO 25007KT 220V310 9999 BKN020 OVC190 08/05
Q1019=
METAR LFLY 110700Z AUTO 20010KT 9999 NSC 10/05 Q1018=
METAR LFMT 110700Z 02005KT 9999 SCT023 BKN041 10/08 Q1020 NOSIG=
METAR LFMU 110700Z AUTO 03004KT 9999 SCT021 OVC038 11/08 Q1020=
METAR LFOB 110700Z AUTO 15002KT 0900 0700 R30///// R12/1900N FG
VV/// 05/04 Q1016=
METAR LFOH 110700Z AUTO 24009KT 6000 OVC003 07/06 Q1017=
METAR LFOK 110700Z AUTO 03002KT 5000 BR NSC 03/03 Q1016=
METAR LFOP 110700Z AUTO 24003KT 0150 R22/0600N FG VV/// 05/05 Q1017=
METAR LFPB 110700Z AUTO 00000KT 6000 -DZ FEW035 BKN072 OVC086
05/05 Q1016=
METAR LFQA 110700Z AUTO 00000KT 9000 -RA FEW041 OVC052 03/03 Q1016=
METAR LFQB 110700Z AUTO 16002KT 6000 -RA ///TCU 04/04 Q1016=
METAR LFSN 110700Z AUTO VRB01KT 2600 BR ///TCU 02/02 Q1017=

0000093200
746
SAFR35 LFPW 110700
METAR LFMI 110700Z AUTO 08004KT 9999 SCT033 OVC040 11/07 Q1020=
METAR LFMK 110700Z AUTO 14003KT 110V170 9999 FEW018 BKN025 OVC030
10/08 Q1019=
METAR LFOV 110700Z AUTO 33003KT 3200 BR SCT018 BKN038 OVC044 05/05
Q1018=
METAR LFRD 110700Z AUTO 23005KT 6000 FEW044 BKN052 04/04 Q1017=
METAR LFRI 110700Z AUTO 32004KT 3700 BR OVC008 08/07 Q1017=
METAR LFRM 110700Z AUTO VRB02KT 3200 BR FEW045 BKN058 OVC220 06/05
Q1017=
METAR LFRN 110700Z AUTO 31003KT 0500 R28/1100U FG VV/// 07/06 Q1018=
METAR LFRO 110700Z AUTO 35005KT 9999 BKN005 OVC022 08/08 Q1018=
METAR LFRV 110700Z AUTO 35004KT 0100 FG VV/// 05/05 Q1018=
METAR LFRZ 110700Z AUTO 33004KT 9999 FEW009 07/07 Q1018=
METAR LFSB 110700Z 18005KT CAVOK 03/02 Q1017 NOSIG=
METAR LFST 110700Z AUTO VRB03KT 5000 BR FEW004/// BKN076///
OVC100/// ///TCU 02/01 Q1017=
METAR LFTH 110700Z AUTO 05004KT 9999 OVC034 12/09 Q1020=

0000073600
747
SAFR36 LFPW 110700
METAR LFBA 110700Z AUTO 10003KT 6000 OVC019 08/07 Q1019=
METAR LFBE 110700Z AUTO 09006KT 4500 BR SCT012 OVC020 07/07 Q1018=
METAR LFGJ 110700Z AUTO VRB03KT 8000 NSC 03/02 Q1017=
METAR LFJR 110700Z AUTO 00000KT 0100 R26/0500N FG VV/// 05/04 Q1017=
METAR LFMD 110700Z AUTO 02003KT 340V070 9999 OVC042 10/07 Q1021=
METAR LFMH 110700Z 17010KT CAVOK 08/02 Q1018 NOSIG=
METAR LFOT 110700Z AUTO 00000KT 1900 BR BKN002 OVC076 06/05 Q1017=
METAR LFPN 110700Z 00000KT 2500 BR NSC 05/05 Q1016 TEMPO 1500 BR=
METAR LFRC 110700Z AUTO 30008KT 270V340 9999 OVC005 08/07 Q1017=
METAR LFRG 110700Z AUTO 25004KT 6000 OVC006 06/05 Q1017=
METAR LFRK 110700Z AUTO 28007KT 3800 BR OVC004 06/06 Q1017=

0000082000
748
SAFR37 LFPW 110700
METAR LFAQ 110700Z AUTO 18002KT 1100 R27///// BR OVC002 04/04 Q1016=
METAR LFAT 110700Z AUTO 21005KT 180V260 8000 BKN010 OVC056 07/06
Q1015=
METAR LFBU 110700Z AUTO 16004KT 120V190 2400 BR OVC003 08/07 Q1018=
METAR LFLN 110700Z AUTO 16002KT 5000 BR NSC 03/02 Q1017=
METAR LFPM 110700Z AUTO 31002KT 3500 BR FEW031 05/05 Q1016=
METAR LFPT 110700Z AUTO VRB02KT 0600 R05/2000D FG VV/// 05/04 Q1016=
METAR LFRH 110700Z AUTO 01001KT 0200 0150 R25/0650N R07/0700U FG
VV/// 05/04 Q1018=
METAR LFRQ 110700Z AUTO 00000KT 0300 R28/1100D FG FEW013 BKN021
OVC039 07/06 Q1018=
METAR LFRT 110700Z AUTO 26007KT 9999 FEW008 SCT014 BKN038 07/06
Q1017=
METAR LFSD 110700Z AUTO 00000KT 9999 OVC006 04/03 Q1017=
METAR LFTW 110700Z AUTO 10004KT 9999 FEW026 OVC042 10/05 Q1020=

0000004200
749
SAHA31 KWBC 110700
NIL=

0000067100
750
SAJP31 KWBC 110700
METAR
RJAA 110700Z VRB02KT 9999 FEW030 07/M09 Q1022 BECMG 31005KT=
RJAH 110700Z 24005KT 200V290 9999 FEW030 07/M10 Q1022=
RJCC 110700Z 34005KT 9999 FEW020 SCT070 M07/M11 Q1018=
RJCH 110700Z 30014KT 9999 VCSH FEW005 SCT025 M06/M10 Q1020=
RJFK 110700Z 36006KT 300V110 9999 FEW030 SCT040 BKN120 08/M01
     Q1026=
RJFT 110700Z VRB02KT 9999 FEW040 BKN060 07/M04 Q1027=
RJFU 110700Z 14003KT 9999 FEW050 SCT070 BKN/// 08/M01 Q1028=
RJNN NIL=
RJOO 110700Z 32005KT 280V340 9999 FEW030 SCT050 08/M05 Q1026=
RJSS 110700Z 30012KT 9999 FEW015 02/M06 Q1023=
RJTT 110700Z 12004KT 9999 FEW025 07/M06 Q1022 NOSIG=
RODN NIL=

0000070300
751
SAJP42 KWBC 110700
METAR
RJDK NIL=
RJDM NIL=
RJDO NIL=
RJDT 110700Z 32008KT 290V010 9999 FEW035 05/M05 Q1028=
RJEB 110700Z 31009KT 2400 -SHSN FEW003 SCT005 BKN020 M09/M12
     Q1014=
RJEC 110700Z 26005G18KT 230V310 9999 -SHSN FEW007 SCT020 BKN030
     M09/M14 Q1014=
RJEO NIL=
RJER NIL=
RJFA NIL=
RJFC NIL=
RJFE NIL=
RJFG 110700Z 33003KT 280V030 9999 FEW025 SCT170 10/02 Q1027=
RJFM 110700Z 15008KT 9999 FEW030 SCT130 10/M00 Q1027=
RJFN NIL=
RJFO 110700Z 33009KT 9999 FEW035 SCT170 08/M02 Q1028=
RJFR 110700Z 32009KT 290V350 9999 FEW040 07/M02 Q1028=
RJFY NIL=
RJFZ NIL=
RJKA 110700Z 05008KT 9999 FEW035 SCT050 BKN060 14/05 Q1026=
RJKB NIL=

0000059200
752
SAJP44 KWBC 110700
METAR
RJOS NIL=
RJOT 110700Z 28010KT 9999 FEW035 05/M04 Q1027=
RJOY 110700Z 28010KT 9999 FEW030 SCT045 08/M03 Q1026=
RJOZ NIL=
RJSA 110700Z 25011KT 3000 -SHSN FEW003 SCT005 BKN010 M06/M07
     Q1020=
RJSC 110700Z 20006KT 8000 -SHSN FEW005 SCT012 BKN020 M01/M03
     Q1023=
RJSD NIL=
RJSH NIL=
RJSI 110700Z VRB03KT 9999 FEW030 M03/M07 Q1021=
RJSO NIL=
RJST NIL=
RJSU NIL=
RJTA NIL=
RJTC NIL=
RJTE NIL=
RJTF 110700Z 15003KT 120V190 CAVOK 08/M10 Q1022=
RJTH NIL=
RJTI 110700Z 16004KT 130V190 9999 FEW025 07/M06 Q1023=

0000077000
753
SAJP41 KWBC 110700
METAR
RJAF 110700Z 34006KT 9999 FEW050 01/M08 Q1021=
RJAI NIL=
RJAK NIL=
RJAM NIL=
RJAO NIL=
RJAT NIL=
RJAW 110700Z 05012KT 020V080 9999 FEW030 BKN080 18/07 Q1022 RMK
     1CU030 6AC080 A3018=
RJBD 110700Z 32012KT 290V350 9999 FEW030 07/M03 Q1026=
RJCA NIL=
RJCB 110700Z 31005KT 260V340 9999 FEW040 SCT070 M07/M18 Q1014=
RJCJ NIL=
RJCK 110700Z 26010KT 9999 FEW040 M06/M18 Q1014=
RJCM 110700Z 02004KT 9999 FEW010 SCT025 BKN040 M09/M11 Q1014=
RJCN 110700Z 24002KT 9999 VCSH FEW015 BKN050 M08/M12 Q1013=
RJCO NIL=
RJCR NIL=
RJCT NIL=
RJCW 110700Z 27022KT 0800 R08/1000VP1800U SHSN BLSN FEW004 SCT008
     BKN012 M10/M19 Q1014=
RJDB NIL=
RJDC 110700Z 28007KT 250V310 9999 FEW040 07/M04 Q1028=

0000067000
754
SAJP43 KWBC 110700
METAR
RJKI NIL=
RJKN NIL=
RJNF NIL=
RJNG NIL=
RJNH NIL=
RJNO NIL=
RJNT 110700Z VRB02KT 9999 FEW006 BKN030 02/M00 Q1026=
RJNY NIL=
RJOA 110700Z 34008KT 290V360 9999 FEW030 SCT045 05/M08 Q1026=
RJOB 110700Z 29007KT 250V320 9999 FEW030 SCT045 05/M05 Q1026=
RJOC 110700Z VRB01KT 9999 FEW015 SCT035 06/M01 Q1028=
RJOE NIL=
RJOF NIL=
RJOI 110655Z 33006KT 9999 FEW025 FEW040 SCT200 07/M04 A3034 RMK
     SLP273 T00721039=
RJOK 110700Z 01011KT 9999 FEW040 SCT/// 09/M04 Q1026=
RJOM 110700Z 31003KT 250V340 9999 FEW030 BKN045 08/M03 Q1028=
RJOP NIL=
RJOR 110700Z 23010KT 9999 FEW030 SCT045 05/M01 Q1027=

00000000