0000109200
175
FTUS31 KWBC 110900 AAA
TAF AMD
KLAX 110859Z 1109/1212 VRB03KT 4SM BR SCT250
     FM111100 VRB03KT 4SM BR BKN007
     FM111600 VRB03KT 5SM HZ SCT250
     FM111900 26010KT P6SM SCT250
     FM120500 VRB03KT P6SM SCT250
     FM121000 VRB03KT 4SM BR SKC=
KMCO 110859Z 1109/1206 15005KT P6SM FEW005 BKN070
     FM111000 16005KT 5SM BR OVC005
     FM111400 19010G15KT P6SM SCT015 SCT070 BKN150
      TEMPO 1114/1116 BKN015
     FM111600 20018G25KT P6SM SCT025 BKN080
     FM120000 24009KT P6SM SCT025 BKN150=
KPIT 110858Z 1109/1212 15006KT P6SM OVC050 WS020/22045KT
     FM111100 18008KT 4SM -RA OVC025 WS020/22050KT
     FM111300 19008KT 3SM -RA OVC008 WS020/22050KT
     FM111800 23012G24KT P6SM OVC015
     FM120000 26013KT P6SM BKN035=
KTPA 110857Z 1109/1206 VRB04KT P6SM FEW045 BKN130
     FM111000 16005KT 4SM BR BKN007 OVC015
      TEMPO 1111/1114 OVC004
     FM111600 19012G20KT P6SM SCT010 BKN020
     FM111800 22014G22KT P6SM SCT025 BKN150
     FM112200 22010KT P6SM SCT030 BKN150
     FM120400 26008KT P6SM BKN025 OVC050=

0000059000
176
FTUS71 KWBC 110900 AAA
TAF AMD
KAND 110857Z 1109/1206 VRB04KT 1SM SHRA BR VCTS OVC004CB
      TEMPO 1109/1111 3/4SM +TSRA BR OVC003CB
     FM111100 15006KT 2SM SHRA BR OVC003 WS020/20035KT
     FM111500 20013G21KT 1SM SHRA BR VCTS OVC004CB
     FM111900 24012G18KT P6SM BKN030
     FM112200 25008KT P6SM FEW040 SCT250=
KPIT 110858Z 1109/1212 15006KT P6SM OVC050 WS020/22045KT
     FM111100 18008KT 4SM -RA OVC025 WS020/22050KT
     FM111300 19008KT 3SM -RA OVC008 WS020/22050KT
     FM111800 23012G24KT P6SM OVC015
     FM120000 26013KT P6SM BKN035=

0000062000
177
FTUS72 KWBC 110900 AAA
TAF AMD
KMCO 110859Z 1109/1206 15005KT P6SM FEW005 BKN070
     FM111000 16005KT 5SM BR OVC005
     FM111400 19010G15KT P6SM SCT015 SCT070 BKN150
      TEMPO 1114/1116 BKN015
     FM111600 20018G25KT P6SM SCT025 BKN080
     FM120000 24009KT P6SM SCT025 BKN150=
KTPA 110857Z 1109/1206 VRB04KT P6SM FEW045 BKN130
     FM111000 16005KT 4SM BR BKN007 OVC015
      TEMPO 1111/1114 OVC004
     FM111600 19012G20KT P6SM SCT010 BKN020
     FM111800 22014G22KT P6SM SCT025 BKN150
     FM112200 22010KT P6SM SCT030 BKN150
     FM120400 26008KT P6SM BKN025 OVC050=

0000041900
178
FTUS73 KWBC 110900 AAA
TAF AMD
KFSD 110858Z 1109/1206 29008KT P6SM SKC
     FM111300 31011KT P6SM OVC015
     FM111700 31013G19KT P6SM SCT015
     FM112200 26008KT P6SM SKC
     FM120200 19012KT P6SM SCT150=
KSBN 110856Z 1109/1206 20011KT 1/2SM -SHRA FG OVC002
      TEMPO 1109/1112 1/4SM FG
     FM111400 25013G20KT 3SM BR VCSH BKN008 OVC015
     FM120100 27011G17KT 5SM BR OVC015=

0000009300
179
SAJM31 MKJP 110800 RRA
METAR MKJP 110800Z 35004KT 9999 FEW024 25/20 Q1015=

0000009900
180
SAUK36 EGGY 110850 RRB
METAR EGVN 110850Z 22003KT 9999 FEW040 04/02 Q1017 NOSIG=

0000039300
181
SACU31 MUHA 110900
METAR
MUHA 110855Z VRB01KT 8000 SKC 17/16 Q1017=
MUVR 110851Z 09008KT 8000 FEW020 22/20 Q1018=
MUSC 110850Z 08004KT 9000 NSC 20/20 Q1018=
MUCC 110850Z 09005KT 9000 FEW020 23/20 Q1017=
MUCM 110850Z 10005KT 9000 SKC 20/18 Q1018=
MUHG 110850Z 10004KT 8000 SKC 22/20 Q1017=
MUCU 110851Z 34006KT 9000 FEW020 20/18 Q1016=
MUCL  NIL=
MUCF  NIL=

0000008300
182
SABZ18 SBKP 110900
METAR SBKP 110900Z 11005KT CAVOK 21/18 Q1017=

0000082800
183
SATU31 LTAA 110850
METAR LTAC 110850Z VRB03KT 8000 OVC008 M03/M03 Q1024 NOSIG=
METAR LTAF 110850Z 05005KT CAVOK 14/M02 Q1023 NOSIG=
METAR LTAI 110850Z 36004KT 340V050 9999 FEW030 BKN200 14/05 Q1023
 NOSIG=
METAR LTAJ 110850Z 23011KT CAVOK 12/M05 Q1021 NOSIG=
METAR LTAZ 110850Z NIL=
METAR LTBA 110850Z 24007KT CAVOK 11/07 Q1024 NOSIG=
METAR LTBJ 110850Z VRB01KT 6000 SCT030 BKN100 10/03 Q1023 NOSIG=
METAR LTBS 110850Z 02005KT CAVOK 12/06 Q1024 NOSIG=
METAR LTCG 110850Z 26010KT 190V320 9999 FEW035 BKN180 13/04 Q1022
 NOSIG=
METAR LTCS 110850Z 27011KT CAVOK 09/M07 Q1021=
METAR LTFC 110850Z 00000KT 0400 R05/0400U R23/0300U FZFG VV002
 M02/M02 Q1024=
METAR LTFE 110850Z 11003KT 6000 SCT035 BKN100 12/09 Q1023 NOSIG=
METAR LTFJ 110850Z 22004KT 130V250 7000 NSC 11/02 Q1024 NOSIG=

0000028000
184
FTUS74 KWBC 110900 AAA
TAF AMD
KLAX 110859Z 1109/1212 VRB03KT 4SM BR SCT250
     FM111100 VRB03KT 4SM BR BKN007
     FM111600 VRB03KT 5SM HZ SCT250
     FM111900 26010KT P6SM SCT250
     FM120500 VRB03KT P6SM SCT250
     FM121000 VRB03KT 4SM BR SKC=

0000077100
185
SATU32 LTAA 110850
METAR LTAG 110850Z 07002KT CAVOK 15/02 Q1022 NOSIG=
METAR LTAN 110850Z 00000KT 0700 R01/0900U R19/0900N FZFG VV003
 M02/M02 Q1024 BECMG VV002=
METAR LTAP 110850Z 00000KT 9999 BKN023 02/M03 Q1024 NOSIG=
METAR LTAT 110850Z VRB02KT CAVOK 04/M06 Q1021 NOSIG=
METAR LTAU 110850Z 00000KT 1700 BCFG BKN004 M04/M05 Q1024 BECMG 8000
 NSC=
METAR LTBF 110850Z 00000KT 2000 BR SCT035 06/03 Q1025 BECMG TL1000
 9999 NSW=
METAR LTBU 110850Z 30003KT 1200 R05/1200N R23/1300N BCFG NSC 09/08
 Q1024=
METAR LTCC 110850Z 10005KT CAVOK 06/M03 Q1020 NOSIG=
METAR LTCE 110850Z 00000KT 1600 R26L/P1500U R08R/P1500U R26R/P1500U
 R08L/P1500U BR NSC M17/M18 Q1020 NOSIG=
METAR LTCJ 110850Z 28003KT 220V310 4500 BR NSC 04/M03 Q1021=

0000066100
186
SATU33 LTAA 110850
METAR LTAR 110850Z 25005KT CAVOK 01/M08 Q1021=
METAR LTAY 110850Z 00000KT 9999 FEW035 BKN180 07/M01 Q1024=
METAR LTBR 110850Z VRB02KT 9999 FEW035 BKN200 03/M02 Q1026 NOSIG=
METAR LTBY 110850Z 05003KT 010V090 6000 OVC006 M01/M02 Q1025=
METAR LTCA 110850Z 04003KT 340V090 CAVOK 01/M03 Q1022 NOSIG=
METAR LTCD 110850Z VRB02KT 7000 FEW045 BKN120 M03/M11 Q1023 NOSIG=
METAR LTCF 110850Z 30004KT 270V340 9999 FEW040 M16/M18 Q1019=
METAR LTCI 110850Z VRB02KT 6000 FEW040 00/M06 Q1018 NOSIG=
METAR LTDA 110850Z 00000KT CAVOK 09/01 Q1023=
METAR LTFH 110850Z 26008KT 9999 FEW036 SCT100 BKN200 12/M01 Q1023
 NOSIG=

0000009900
187
SPCN51 CWAO 110859
SPECI CWCL 110859Z AUTO 14002KT 2 1/4SM OVC004 M02/M06 A2919=

0000010300
188
SACG20 FCBB 110900
METAR FCBB 110900Z 23003KT 160V290 8000 FEW016 25/22 Q1015 NOSIG=

0000011000
189
SAUS71 KWBC 110800 RRJ
METAR
KSWF 110845Z 00000KT 3/4SM R09/3500FT FG OVC002 02/02 A3005=

0000010300
190
SARM31 LUKK 110900
METAR LUKK 110900Z 29012KT CAVOK 08/M03 Q1019 R26/CLRD65
NOSIG=

0000093700
191
SATU34 LTAA 110850
METAR LTAL 110850Z 23004KT 9999 SCT030 BKN080 04/00 Q1021=
METAR LTAS 110850Z NIL=
METAR LTAW 110850Z NIL=
METAR LTBD 110850Z 08009KT 9999 FEW040 BKN100 07/04 Q1024=
METAR LTBH 110850Z NIL=
METAR LTBO 110850Z NIL=
METAR LTCK 110850Z 33002KT 0800 R29/1100U R11/1400U BCFG BKN010
 M20/M22 Q1024=
METAR LTCL 110850Z 15002KT CAVOK 06/M04 Q1020=
METAR LTCM 110850Z NIL=
METAR LTCN 110850Z 26004KT CAVOK 07/M02 Q1021=
METAR LTCO 110850Z 26003KT 230V300 0600 R16/0750N R34/0900N FZFG NSC
 M20/M22 Q1021=
METAR LTCP 110850Z 21003KT CAVOK 09/M01 Q1020=
METAR LTCR 110850Z 19003KT CAVOK 07/M09 Q1020=
METAR LTCT 110850Z VRB03KT 2500 R30/2500N SG BR BKN010 M10/M11 Q1027=
METAR LTCU 110850Z VRB02KT CAVOK M00/M08 Q1022=
METAR LTCV 110850Z 27002KT CAVOK 10/M04 Q1018=
METAR LTFD 110850Z 12003KT 090V170 7000 SCT035 13/07 Q1023=
METAR LTFG 110850Z 17002KT CAVOK 14/06 Q1023=

0000009500
192
SATU35 LTAA 110850
METAR LCEN 110850Z 28009KT 9999 FEW025 16/08 Q1023 NOSIG=

0000013800
193
SAXX69 EGRR 110900
METAR EQBH 110850Z 06006KT 9999 FEW020 BKN220 07/00 Q1026 BLU NOSIG
      RMK A3030 PA2575 DA2268=

0000009800
194
SAMT20 GQPP 110900
METAR GQPP 110900Z 04010KT 0200 FG BKN005 14/14 Q1018 NOSIG=

00000000