0000031600
155
FTUS52 KWBC 110633 AAA
TAF AMD
KMKL 110629Z 1106/1206 27010G22KT 3SM -RA BR OVC005
     FM110700 19010KT 5SM RA BR BKN010 OVC050
     FM111000 22014KT P6SM BKN012 OVC080
     FM111200 26012KT P6SM SCT020
     FM111500 27012G18KT P6SM SCT250
     FM120100 26007KT P6SM SKC AMD NOT SKED=

0000031600
156
FTUS80 KWBC 110633 AAA
TAF AMD
KMKL 110629Z 1106/1206 27010G22KT 3SM -RA BR OVC005
     FM110700 19010KT 5SM RA BR BKN010 OVC050
     FM111000 22014KT P6SM BKN012 OVC080
     FM111200 26012KT P6SM SCT020
     FM111500 27012G18KT P6SM SCT250
     FM120100 26007KT P6SM SKC AMD NOT SKED=

0000010800
157
SPUS31 KWBC 110633
SPECI
KIND 110629Z 27005KT 1/4SM R05L/P6000FT FG OVC004 03/03 A2959=

0000009200
158
SPUS31 KWBC 110633
SPECI
KMSY 110629Z 18010KT 1SM BR VV002 19/19 A2989=

0000010400
159
SPCN46 CWAO 110630
SPECI CYGQ 110630Z 00000KT 1 1/4SM -FZDZ -SN BR OVC006 RMK SN2ST6=

0000011400
160
SASR31 WSSS 110630
METAR WSSS 110630Z VRB05KT 9999 FEW020TCU SCT024 BKN300 31/24 Q1009
NOSIG=

0000010000
161
SPUS41 KWBC 110631
SPECI
KDAY 110627Z 18011KT 7SM RA BKN010 OVC016 10/09 A2967=

0000009500
162
SAPF20 NTAA 110630
METAR NTAA 110630Z 10003KT 9999 FEW020 26/21 Q1013 NOSIG=

0000052100
163
SAHU41 LHBM 110630
METAR LHDC 110615Z 19008KT 9999 BKN040 00/M01 Q1022=
METAR LHKE 110615Z 19001MPS 9999 BKN045 02/00 Q1022 NOSIG RMK BLU=
METAR LHPA 110615Z 00000MPS 9999 BKN033 04/03 Q1021 NOSIG RMK BLU=
METAR LHPP 110615Z 07003KT 9999 BKN040 05/04 Q1022=
METAR LHPR 110615Z /////KT 9999 SCT030 BKN083 03/01 Q1020=
METAR LHSM 110615Z 00000KT 0900 FG OVC003 04/04 Q1021=
METAR LHSN 110615Z 20002MPS CAVOK 02/M00 Q1022 NOSIG RMK BLU=
METAR LHUD 110615Z 16003KT 3600 BR BKN030 03/02 Q1022=

0000010800
164
SAIO31 KWBC 110600 RRE
METAR
FMMI 110630Z VRB02KT 8000 SCT017 BKN230 25/23 Q1022 NOSIG=

0000030600
165
SAMC31 GMMC 110630
METAR GMME 110630Z 19005KT 5000 SCT020 BKN100 13/10 Q1016 NOSIG=
METAR GMMN 110630Z AUTO 20008KT 9999NDV /// 11/08 Q1017=
METAR GMTT 110630Z 10005KT 6000 SCT016 BKN100 13/11 Q1016 NOSIG=
METAR GMAD 110630Z NIL=
METAR GMFF 110630Z NIL=
METAR GMMX 110630Z NIL=

0000009000
166
SAAL41 DAMM 110600 RRJ
METAR DAUU 110600Z 33006KT 8000 NSC 07/06 Q1021=

0000009500
167
SPCN51 CWAO 110631
SPECI CWCL 110631Z AUTO 16004KT 4SM BKN000 M03/M07 A2935=

0000210600
168
SPUS70 KWBC 110632
SPECI
KAKH 110628Z AUTO 05004KT 2SM -RA BR OVC002 06/06 A3002 RMK AO2
     P0003=
KASH 110628Z AUTO 00000KT 6SM BR SCT008 00/M01 A3023 RMK AO2=
KBED 110628Z 00000KT 3/4SM R11/5000V6000FT BR OVC006 01/01 A3022
     RMK AO2=
KGNV 110628Z AUTO 00000KT 1/4SM FG VV001 18/17 A3007 RMK AO2
     T01780172=
KIMT 110629Z AUTO 31003KT 1 3/4SM -SN BR OVC005 M02/M03 A2937 RMK
     AO2 SNE06B24 P0000=
KLNR 110628Z AUTO 26003KT 1 3/4SM BR OVC008 01/01 A2944 RMK AO2
     RAE0559 P0000 T00060006=
KLOU 110628Z AUTO 25003KT 1 3/4SM RA BR SCT008 BKN013 OVC039 11/10
     A2971 RMK AO2 P0008 TSNO=
KLSE 110628Z AUTO 00000KT 2 1/2SM BR FEW012 BKN036 OVC045 M01/M02
     A2947 RMK AO2 T10111022 PWINO FZRANO $=
KMFR 110628Z AUTO 06004KT 1 1/4SM BR BKN005 03/03 A3007 RMK AO2
     T00330028=
KNEW 110628Z AUTO 19014KT 10SM SCT003 OVC060 19/19 A2989 RMK AO2
     T01940189 TSNO=
KSSI 110628Z AUTO 00000KT 1/4SM FG VV002 16/16 A3006 RMK AO2
     T01560156=
KSTP 110628Z AUTO 00000KT 1 1/2SM BR BKN004 OVC007 M02/M02 A2948
     RMK AO2 CIG 003V006=
KTOI 110628Z AUTO 18007KT 2 1/2SM BR OVC002 18/17 A2994 RMK AO2
     LTG DSNT NW-NE RAB12E23 P0000 T01780167=
KUUU 110628Z AUTO 17005KT 1 1/4SM BR OVC002 07/07 A3023 RMK AO2
     RAB06E15 P0000 T00720067=
KNSE 110629Z AUTO 19013KT 2SM BR OVC002 19/19 A2996 RMK AO2 RAE27
     P0000 T01940189 $=
KEAU 110629Z AUTO 00000KT 1 3/4SM -SN BR BKN028 OVC055 M03/M03
     A2945 RMK AO2 SNB17 P0001 T10281033=
KFAY 110629Z AUTO 17005KT 3SM BR OVC007 17/17 A3004 RMK AO2 CIG
     006V010=
KGEZ 110629Z AUTO 17015KT 1/2SM -RA OVC003 07/ A2960 RMK AO2 P0002
     T0072 $=
KGSH 110629Z AUTO 19013KT 5SM BR OVC004 06/04 A2956 RMK AO2=
KIND 110629Z 27005KT 1/4SM R05L/P6000FT FG OVC004 03/03 A2959 RMK
     AO2 RAE19 P0001 $=
KMSY 110629Z 18010KT 1SM BR VV002 19/19 A2989 RMK AO2 T01890189
     RVRNO $=
KMVL 110629Z AUTO 00000KT 9SM OVC028 M04/M06 A3014 RMK AO2=
KTAN 110629Z AUTO 00000KT 1 1/2SM BR BKN005 OVC013 03/01 A3023 RMK
     AO2 RAE29UPB27E28 P0002 T00330011=

0000012100
169
SPUS31 KWBC 110632
SPECI
KLOU 110628Z AUTO 25003KT 1 3/4SM RA BR SCT008 BKN013 OVC039 11/10
A2971=

0000011100
170
SPUS41 KWBC 110632
SPECI
KBED 110628Z 00000KT 3/4SM R11/5000V6000FT BR OVC006 01/01 A3022=

0000010300
171
SPUS42 KWBC 110632
SPECI
KNEW 110628Z AUTO 19014KT 10SM SCT003 OVC060 19/19 A2989=

0000012300
172
SPUS42 KWBC 110632
SPECI
KMGM 110628Z AUTO 22010G22KT 1 3/4SM VCTS +RA BR BKN007 OVC017
18/17 A2992=

0000009900
173
SPUS42 KWBC 110632
SPECI
KSSI 110628Z AUTO 00000KT 1/4SM FG VV002 16/16 A3006=

0000011100
174
SPUS43 KWBC 110632
SPECI
KSTP 110628Z AUTO 00000KT 1 1/2SM BR BKN004 OVC007 M02/M02 A2948=

00000000