0000008900
095
FCUK31 EGGY 110500 RRA
TAF EGHI 110628Z 1106/1115 30005KT 9999 FEW040=

0000028900
096
FTCN37 CWAO 110600 AAA
TAF AMD CYQI 110629Z 1106/1118 21012KT 11/2SM -DZ BR OVC004 TEMPO
     1106/1112 6SM -RA BR OVC007
    FM111200 18010KT 1SM -RA BR OVC002 TEMPO 1112/1118 3SM -RA BR
     OVC004
     BECMG 1113/1115 18015G25KT
    RMK NXT FCST BY 111200Z=

0000009300
097
SAUK34 EGGY 110620 RRB
METAR EGHQ 110620Z 32009KT 9999 FEW003 06/03 Q1017=

0000048800
098
SAGR32 LGAT 110620
METAR LGAL 110620Z 00000KT CAVOK 02/00 Q1024=
METAR LGEL 110620Z 00000KT 9999 FEW025 08/06 Q1021=
METAR LGIO 110620Z AUTO 00000KT //// // ////// 06/06 Q1023
      RE//=
METAR LGKV 110620Z 07004KT 8000 NSC 04/04 Q1023=
METAR LGMT 110620Z VRB02KT 9999 BKN025 13/09 Q1022=
METAR LGPZ 110620Z 06005KT 9999 FEW025 BKN080 11/09 Q1024 NOSIG=
METAR LGRX 110620Z NIL=
METAR LGSK 110620Z NIL=
METAR LGSR 110620Z NIL=
METAR LGZA 110620Z NIL=

0000045000
099
SARH31 LDZM 110630
METAR LDSP 110630Z VRB03KT 9999 SCT060 10/08 Q1023 NOSIG =
METAR LDPL 110630Z VRB02KT 9000 FEW037 OVC056 10/09 Q1022 NOSIG =
METAR LDDU 110630Z 07006KT 9999 BKN060 08/06 Q1023 NOSIG =
METAR LDZA 110630Z VRB02KT 0200 R05/0600V0800N R23/0750N FG VV002
03/03 Q1021 NOSIG =
METAR LDZD 110630Z 11004KT 9999 BKN060 09/09 Q1022 NOSIG =
METAR LDRI 110630Z NIL=
METAR LDOS 110630Z 15007KT CAVOK 04/03 Q1022=

0000090500
100
SATU31 LTAA 110620
METAR LTAC 110620Z 31004KT 270V340 6000 OVC008 M04/M04 Q1024 NOSIG=
METAR LTAF 110620Z VRB02KT 5000 2400S BR NSC 08/03 Q1023 BECMG TL0800
 9999 NSW=
METAR LTAI 110620Z 36005KT 9999 FEW030 BKN200 07/04 Q1023 NOSIG=
METAR LTAJ 110620Z 00000KT CAVOK 02/M03 Q1022 NOSIG=
METAR LTAZ 110620Z VRB02KT 4800 BR OVC004 M04/M04 Q1024=
METAR LTBA 110620Z 26004KT 230V290 8000 NSC 09/06 Q1023 NOSIG=
METAR LTBJ 110620Z 00000KT 4100 BR FEW030 BKN100 07/04 Q1023 NOSIG=
METAR LTBS 110620Z 05005KT CAVOK 06/04 Q1023 NOSIG=
METAR LTCG 110620Z VRB03KT 9999 FEW035 BKN180 12/M03 Q1021 NOSIG=
METAR LTCS 110620Z 33004KT CAVOK 06/M05 Q1022=
METAR LTFC 110620Z 00000KT 0200 R05/0450D R23/0250U FZFG VV001
 M04/M04 Q1024=
METAR LTFE 110620Z VRB02KT 6000 SCT035 BKN100 10/08 Q1023 NOSIG=
METAR LTFJ 110620Z 00000KT 4900 BR FEW013 06/01 Q1023 BECMG TL0720
 6000=

0000067500
101
SATU32 LTAA 110620
METAR LTAG 110620Z 32003KT CAVOK 07/M01 Q1023 NOSIG=
METAR LTAN 110620Z NIL=
METAR LTAP 110620Z 00000KT 9999 BKN023 M01/M03 Q1024 TEMPO TL0800
 4000 BR=
METAR LTAT 110620Z 20002KT CAVOK M03/M06 Q1023 NOSIG=
METAR LTAU 110620Z VRB01KT 0550 R25/0900U R07/0600D FZFG OVC002
 M05/M06 Q1024 BECMG 2500 BR=
METAR LTBF 110620Z NIL=
METAR LTBU 110620Z 02003KT 0600 R05/0400N R23/0300U FG NSC 03/03
 Q1023=
METAR LTCC 110620Z VRB01KT CAVOK 01/M04 Q1021 NOSIG=
METAR LTCE 110620Z VRB01KT 0400 R26L/0300N R08R/1000U R26R/0350N
 R08L/0900N BCFG NSC M25/M27 Q1022 NOSIG=
METAR LTCJ 110620Z 00000KT 2000 BR NSC M02/M02 Q1022=

0000009500
102
SATU35 LTAA 110620
METAR LCEN 110620Z 26005KT 9999 FEW025 10/06 Q1023 NOSIG=

0000033600
103
SAGR33 LGAT 110620
METAR LGBL 110620Z 28004KT 9999 FEW018 SCT180 05/03 Q1023 NOSIG=
METAR LGHI 110620Z NIL=
METAR LGKC 110620Z NIL=
METAR LGKF 110620Z NIL=
METAR LGKP 110620Z NIL=
METAR LGKZ 110620Z NIL=
METAR LGMK 110620Z NIL=
METAR LGNX 110620Z NIL=
METAR LGPA 110620Z NIL=
METAR LGSO 110620Z NIL=

0000004200
104
FCPO32 LPMG 110500
NIL=

0000010900
105
SAHW31 KWBC 110600 RRA
METAR
PHLI 110625Z 05015KT 10SM SCT018 BKN033 OVC060 23/21 A2997=

0000075100
106
FCAP32 FAPR 110600
TAF FAEL 110600Z 1107/1118 24015KT CAVOK
         BECMG 1111/1113 15010KT SCT030 TX26/1112ZTN18/1118Z=
TAF FAHS 110600Z 1107/1118 NIL=
TAF FAKM 110600Z 1107/1118 22010KT CAVOK TX33/1113ZTN24/1118Z=
TAF FAKN 110600Z 1107/1118 10005KT 8000 OVC010 BECMG 1108/1110 BKN020
         PROB30 TEMPO 1110/1118 5000 SHRA BCFG OVC008 FEW030CB
         TX26/1112ZTN24/1107Z=
TAF FAPP 110600Z 1107/1118 15007KT 3000 TSRA SCT040CB FM110900
    06005KT
         8000 BKN015 BECMG 1110/1112 SCT035 TEMPO 1110/1118 5000 TSRA
         BKN030 FEW040CB TX28/1112ZTN21/1107Z=
TAF FAUT 110600Z 1107/1118 16008KT 9999 SCT020 BKN025
         PROB30 TEMPO 1112/1115 5000 SHRA BKN012
         TX24/1112ZTN17/1118Z=

0000011500
107
SAGR31 LGAT 110620 RRA
METAR LGKR 110620Z 00000KT 9999 FEW018 SCT030 BKN070 11/10 Q1022
NOSIG=

0000010900
108
SARM31 LUKK 110630
METAR LUKK 110630Z 27008KT 9999 FEW049 04/M02 Q1018
R26/CLRD65 NOSIG=

0000010300
109
SACG20 FCBB 110630
METAR FCBB 110630Z 22003KT 190V250 8000 FEW010 23/22 Q1014 NOSIG=

0000010900
110
SAUS75 KWBC 110600 RRC
METAR
PHLI 110625Z 05015KT 10SM SCT018 BKN033 OVC060 23/21 A2997=

0000008400
111
SARM31 LUKK 110630
METAR LUBL 110630Z 27013KT CAVOK 04/M03 Q1017=

0000014100
112
SPCN31 CWAO 110630
SPECI CYZX 110630Z 00000KT 2 1/4SM -SHSN OVC010 RMK SF8 WNDY HILL
UNAVBL VIS VRB 11/2-3 CIG VRB 7-13=

0000016400
113
FTFR34 LFPW 110500 AAA
TAF AMD LFBP 110629Z 1106/1206 20003KT 9999 BKN025 PROB40 TEMPO
1106/1110 BKN013 PROB40 TEMPO 1200/1206 0400 BCFG VV///=

0000010600
114
SAMG20 FMMI 110630
METAR FMMI 110630Z VRB02KT 8000  SCT017  BKN230 25/23 Q1022
NOSIG=

00000000