0000168100
775
SAUS73 KWBC 110700
METAR
KABR 110653Z AUTO 24004KT 10SM CLR M13/M14 A2954=
KALN 110655Z AUTO 20008KT 5SM BR 05/05 A2953=
KALO 110654Z 30008KT 8SM OVC007 M01/M01 A2949=
KAPN 110654Z AUTO 19006KT 6SM -RA BR OVC007 02/02 A2949=
KASE 110653Z 16007KT 7SM -SN OVC035 M05/M07 A3012=
KATY 110653Z AUTO 29007KT 10SM CLR M07/M09 A2950=
KAXN 110653Z AUTO 28010KT 10SM CLR M06/M08 A2946=
KAZO 110653Z AUTO 19010KT 7SM -RA OVC004 04/03 A2954=
KBDE 110653Z AUTO 00000KT 6SM BR BKN010 OVC017 M03/M04 A2939=
KBFF 110653Z AUTO 27007KT 10SM OVC110 00/M07 A2980=
KBIS 110652Z 28007KT 10SM SCT012 OVC110 M05/M08 A2960=
KBJC 110655Z AUTO 27011G17KT 10SM CLR 01/M09 A2986=
KBKF 110655Z 21004KT 10SM FEW100 SCT220 M02/M10 A2988=
KBRL 110653Z AUTO 28009KT 9SM OVC006 09/02 A2950=
KBTL 110653Z 20012KT 10SM OVC005 05/03 A2953=
KCGI 110653Z AUTO 00000KT 1 1/4SM BR FEW006 OVC021 07/06 A2960=
KCID 110652Z AUTO 30009KT 8SM OVC006 00/M01 A2947=
KCIU 110655Z AUTO 12011G18KT 8SM OVC003 01/01 A2943=
KCMI 110653Z AUTO 17013KT 1/4SM R32R/1600FT -RA FG VV002 04/04
     A2951=
KCMX 110653Z AUTO 00000KT 1 1/4SM -SN BR BKN014 OVC024 M03/M04
     A2940=
KCOS 110654Z 36008KT 10SM FEW170 M07/M12 A2989=
KCOU 110654Z AUTO 28010KT 6SM BR OVC008 04/03 A2958=
KCPR 110653Z AUTO 23015KT 10SM CLR M04/M11 A2986=
KCYS 110653Z AUTO 31027G39KT 10SM CLR M01/M08 A2982=
KDDC 110652Z AUTO 28012KT 10SM CLR M01/M07 A2982=
KDEC 110654Z AUTO 19010KT 1SM BR VV002 04/04 A2951=
KDEN 110653Z 19005KT 10SM FEW090 FEW120 SCT200 M01/M10 A2987=
KDET 110653Z AUTO 20011KT 6SM -RA BR OVC003 06/04 A2961=
KDLH 110655Z 27005KT 3SM -FZDZ BR OVC002 M03/M04 A2940=

0000165900
776
SAUS73 KWBC 110700 RRA
METAR
KDSM 110654Z 30014KT 6SM BR OVC010 01/M01 A2955=
KDTW 110653Z 16010KT 3/4SM -RA BR OVC002 03/03 A2961=
KEAU NIL=
KEGE 110655Z AUTO 24017KT 10SM OVC060 M01/M05 A3012=
KELO 110653Z AUTO 27005KT 2SM BR OVC003 M04/M05 A2938=
KEVV 110654Z AUTO 18004KT 10SM -RA FEW013 FEW070 OVC090 11/09
     A2960=
KFAR 110653Z 26009KT 10SM OVC014 M03/M07 A2948=
KFNT 110653Z AUTO 19010KT 10SM -RA OVC007 06/04 A2956=
KFSD 110656Z AUTO 28005KT 10SM CLR M07/M08 A2955=
KFWA 110654Z 19009KT 7SM OVC006 04/04 A2957=
KGCK 110654Z AUTO 29011KT 10SM CLR M01/M07 A2985=
KGFK NIL=
KGJT 110653Z AUTO 19003KT 10SM BKN070 M06/M08 A3017=
KGRB 110653Z AUTO 22005KT 3/4SM BR OVC002 01/01 A2940=
KGRI 110653Z AUTO 26009KT 10SM CLR M03/M06 A2969=
KGRR 110653Z AUTO 18010KT 6SM -RA BR OVC006 06/04 A2951=
KGYY 110655Z AUTO 19009G15KT 160V220 2 1/2SM BR OVC003 06/05
     A2951=
KHIB 110653Z AUTO 00000KT 3SM BR OVC005 M03/M04 A2940=
KHON 110655Z AUTO 28005KT 10SM CLR M07/M09 A2957=
KHUF 110653Z 18008KT 1/4SM -RA OVC002 06/ A2959=
KHUT 110652Z AUTO 32007KT 10SM FEW100 01/M01 A2975=
KICT 110653Z 29011KT 10SM FEW070 SCT130 SCT250 03/01 A2975=
KIKK 110655Z AUTO 17011KT 1/2SM -RA OVC002 04/04 A2951=
KIND NIL=
KINL 110655Z AUTO 21003KT 1 3/4SM BR OVC003 M03/M04 A2938=
KIRK 110655Z AUTO 29006KT 9SM OVC006 02/01 A2956=
KJAC NIL=
KJLN 110653Z AUTO 24003KT 4SM BR CLR M01/M02 A2969=
KJMS 110656Z AUTO 31019G26KT 8SM OVC007 M03/M06 A2951=
KJXN 110656Z 19011KT 10SM OVC006 05/04 A2955=
KLAN 110653Z 19012KT 10SM OVC008 05/04 A2954=
KLAR 110653Z AUTO 28021G27KT 10SM CLR M04/M09 A2985=

0000048100
777
SATH32 VTBB 110700
METAR VTSB 110700Z 04013KT 9999 SCT020 BKN300 30/25 Q1011
A2987 INFO H / RWY 04=
METAR VTSC 110700Z NIL=
METAR VTSF 110700Z 06004KT 5000 RA FEW017 SCT022 BKN100
24/23 Q1012 A2990 INFO H / RWY 19=
METAR VTSG 110700Z 10008KT 9999 SCT020 BKN300 30/21 Q1011
A2986 INFO Q RWY32=
METAR VTSH 110700Z NIL=
METAR VTSM 110700Z 02010KT 9000 FEW020TCU BKN300 30/23 
Q1012 A2991 TCU SE=
METAR VTSR 110700Z NIL=
METAR VTST 110700Z NIL=

0000167900
778
SAUS73 KWBC 110700 RRB
METAR
KLBF 110653Z AUTO 33005KT 10SM OVC100 M03/M06 A2973=
KLBL 110655Z AUTO 29011KT 10SM CLR M01/M09 A2989=
KLEX 110654Z 18014G21KT 10SM BKN050 OVC065 13/10 A2967=
KLNK 110654Z AUTO 00000KT 8SM CLR M05/M07 A2966=
KLOU 110653Z AUTO 00000KT 1 1/2SM RA BR BKN006 OVC011 11/10
     A2969=
KLOZ 110653Z AUTO 16009G15KT 10SM SCT060 SCT120 13/10 A2974=
KLSE 110653Z AUTO 00000KT 3SM BR FEW014 BKN041 OVC060 M01/M03
     A2946=
KMBS 110653Z 18014KT 8SM -RA OVC007 04/03 A2953=
KMCI 110653Z 27006KT 8SM -DZ OVC006 02/01 A2964=
KMDW 110651Z 20010KT 1SM R31C/P6000FT -DZ BR OVC002 04/04
     A2948=
KMHK 110652Z AUTO 26005KT 7SM CLR 01/01 A2970=
KMKC 110654Z AUTO 25006KT 8SM -RA OVC009 02/01 A2964=
KMKE 110652Z 21008KT 4SM -RA BR OVC005 03/03 A2944=
KMKG 110655Z AUTO 19013KT 5SM -RA BR OVC004 04/03 A2949=
KMLI 110652Z AUTO 27011KT 6SM BR OVC004 02/01 A2947=
KMOT NIL=
KMSN 110653Z 24005KT 1SM R36/5500VP6000FT BR VV003 02/02 A2942=
KMSP 110653Z 28008KT 3SM BR OVC004 M02/M02 A2946=
KOFF 110658Z 28002KT 6SM R30/5000FT BR CLR M05/M05 A2962=
KOMA 110652Z 00000KT 7SM BCFG CLR M03/M04 A2962=
KORD 110651Z 21013KT 3SM -DZ BR OVC005 04/03 A2946=
KOSH 110653Z 21008KT 2 1/2SM BR OVC003 02/01 A2940=
KOTM 110653Z AUTO 29009KT 8SM BKN007 OVC041 01/M01 A2952=
KOWB 110656Z AUTO 16013KT 7SM -RA FEW024 SCT045 BKN070 08/08
     A2961=
KPAH 110653Z AUTO 21008KT 10SM FEW008 BKN014 OVC024 11/10
     A2960=
KPIA 110654Z 21007KT 1/4SM R13/5000FT FG VV002 03/02 A2950=
KPIR 110653Z AUTO 31010KT 10SM CLR M01/M05 A2960=
KPLN 110654Z AUTO 16004KT 5SM BR SCT002 BKN016 OVC022 01/00
     A2943=

0000135500
779
SAUS73 KWBC 110700 RRC
METAR
KPTK 110653Z AUTO 18009G14KT 6SM -RA BR OVC002 04/03 A2957=
KPUB 110653Z AUTO 00000KT 10SM CLR M06/M14 A2990=
KRAP 110652Z AUTO 32023G30KT 10SM CLR 03/M04 A2969=
KRFD 110654Z 19006KT 1/2SM R01/2400V2600FT -DZ FG VV002 02/01
     A2947=
KRKS 110654Z AUTO 26030G37KT 10SM FEW027 M02/M06 A3004=
KRST 110654Z AUTO 29008KT 4SM BR BKN006 OVC010 M02/M03 A2946=
KSAW 110657Z AUTO 03003KT 2SM -SN BKN008 OVC012 M02/M02 A2937=
KSBN 110654Z 20010KT 1 3/4SM BR OVC002 05/04 A2954=
KSDF 110656Z 23004KT 2 1/2SM TSRA BKN007 BKN010 OVC041CB 11/11
     A2968=
KSDM 110653Z AUTO 13005KT 5SM HZ CLR 09/04 A3011=
KSGF 110652Z 25003KT 6SM BR BKN038 01/M01 A2966=
KSLN 110653Z AUTO 29007KT 10SM CLR 02/M01 A2973=
KSPI 110652Z AUTO 19010KT 6SM BR OVC004 05/05 A2950=
KSTC 110653Z AUTO 29006KT 4SM BR OVC008 M03/M03 A2945=
KSTJ 110653Z AUTO 27007KT 8SM BKN018 01/M01 A2964=
KSTL 110651Z 24010KT 9SM OVC016 08/06 A2954=
KSTP 110653Z AUTO 29005KT 4SM BR OVC006 M01/M02 A2947=
KSUS 110654Z AUTO 26012G18KT 10SM OVC016 07/06 A2954=
KSUX 110652Z 00000KT 3SM BR CLR M04/M07 A2960=
KTVC 110653Z 00000KT 10SM OVC013 03/02 A2942=
KUIN 110652Z AUTO 28010KT 1 1/2SM BR OVC002 03/02 A2952=
KWRL 110653Z AUTO 20010KT 10SM CLR M08/M12 A2986=
KYIP 110653Z AUTO 18008KT 4SM BR OVC002 05/03 A2959=

0000167900
780
SAUS74 KWBC 110700
METAR
KACV 110653Z AUTO 11006KT 10SM CLR 08/07 A3012=
KALW 110653Z AUTO 17016KT 9SM -RA OVC070 11/04 A2986=
KBFI 110653Z 00000KT 9SM -RA OVC035 10/07 A2961=
KBFL 110654Z AUTO 09003KT 7SM CLR 08/03 A3023=
KBIL 110653Z 31011KT 10SM BKN080 03/M05 A2979=
KBKE 110653Z AUTO 25004KT 10SM FEW005 BKN060 OVC080 00/M01
     A3000=
KBLI 110653Z AUTO 14024G35KT 8SM -RA FEW023 OVC085 10/07 A2945=
KBOI 110653Z 15008KT 10SM OVC048 04/01 A3009=
KBTM 110653Z AUTO 24008G15KT 10SM OVC050 01/M06 A2988=
KBUR 110653Z 00000KT 9SM CLR 13/05 A3011=
KBYI 110653Z AUTO 25008KT 10SM OVC043 03/M02 A3011=
KBZN 110656Z AUTO 23004KT 10SM BKN070 BKN120 04/M08 A2989=
KCDC 110653Z AUTO 16003KT 10SM CLR 01/M05 A3020=
KCEC 110656Z AUTO 16017G23KT 9SM OVC011 11/09 A3011=
KCLM 110653Z AUTO 00000KT 6SM -RA BR BKN003 BKN045 OVC070 06/06
     A2942=
KCTB 110656Z AUTO 26018KT 10SM CLR 02/M05 A2967=
KCXL NIL=
KEKO 110656Z AUTO 00000KT 10SM CLR M01/M03 A3021=
KEUG 110654Z 18011KT 10SM OVC055 11/05 A2992=
KFAT 110653Z 00000KT 4SM HZ SCT200 08/04 A3024=
KFLG 110657Z AUTO VRB05KT 10SM CLR M03/M07 A3023=
KGCN 110654Z AUTO 00000KT 10SM CLR M08/M11 A3026=
KGEG 110653Z 17008KT 10SM -RA FEW025 OVC070 04/01 A2980=
KGGW 110653Z AUTO 33008KT 10SM CLR M07/M09 A2972=
KGTF 110653Z 22012KT 10SM CLR 01/M05 A2975=
KHLN 110653Z AUTO 25003KT 10SM OVC070 03/M05 A2986=
KHQM 110653Z AUTO 17030G42KT 2 1/2SM -SN OVC013 A2961=
KIDA 110653Z AUTO 20018KT 10SM OVC100 01/M02 A3008=
KIWA 110655Z AUTO 13005KT 10SM CLR 06/M01 A3015=
KLAS 110656Z 20007KT 10SM FEW160 SCT250 08/M02 A3014=
KLAX 110653Z 05003KT 7SM CLR 14/11 A3012=

0000170400
781
SAUS74 KWBC 110700 RRA
METAR
KLGB 110653Z 00000KT 1 1/4SM BR FEW003 OVC009 12/10 A3011=
KLMT 110653Z AUTO 05003KT 9SM CLR 00/M02 A3010=
KLVM 110653Z AUTO 24019G33KT 10SM BKN110 04/M08 A2980=
KMFR 110653Z AUTO 00000KT 1SM R14/5000VP6000FT BR OVC003 04/03
     A3007=
KMLS 110653Z AUTO 28009KT 10SM OVC120 M02/M05 A2973=
KMRY 110654Z AUTO 00000KT 10SM CLR 08/07 A3020=
KMSO 110653Z 00000KT 10SM BKN070 OVC080 01/M01 A2990=
KMYV 110653Z AUTO 00000KT 9SM CLR 07/04 A3021=
KNTD 110654Z 30003KT 7SM FEW220 11/09 A3010=
KOAK 110653Z 00000KT 6SM MIFG FEW200 08/07 A3022=
KOGD 110653Z 17006KT 10SM OVC050 03/M03 A3017=
KOLM 110654Z AUTO 19019G29KT 10SM -RA OVC018 10/08 A2964=
KONT 110653Z 00000KT 6SM HZ FEW250 12/05 A3011=
KOTH 110655Z 20011G15KT 10SM SCT032 OVC040 13/11 A2995=
KPAE 110653Z AUTO 17016G24KT 5SM -RA BR OVC049 09/07 A2960=
KPDX 110653Z 18013G21KT 10SM OVC035 13/04 A2983=
KPHX 110651Z 00000KT 10SM CLR 11/M01 A3013=
KPIH 110653Z AUTO 22018G24KT 10SM SCT039 OVC100 04/M03 A3011=
KPMD 110653Z 18005KT 10SM CLR 05/M03 A3020=
KPRB 110653Z AUTO 00000KT 10SM CLR 06/01 A3020=
KPRC 110653Z AUTO 23004KT 10SM CLR 01/M07 A3022=
KPSP 110653Z AUTO 35004KT 10SM CLR 12/M04 A3015=
KRBL 110654Z AUTO 00000KT 10SM CLR 06/02 A3019=
KRDD 110653Z AUTO 00000KT 10SM CLR 04/02 A3017=
KRDM 110656Z AUTO 18017KT 10SM CLR 08/01 A2992=
KRNO 110655Z 00000KT 10SM BKN200 03/M02 A3024=
KRNT 110653Z AUTO 11003KT 10SM -RA OVC041 09/08 A2961=
KSAC 110653Z AUTO 00000KT 8SM CLR 06/04 A3021=
KSAN 110651Z 00000KT 5SM BR CLR 13/09 A3012=
KSBA 110653Z AUTO 02004KT 9SM CLR 10/08 A3010=
KSBD NIL=
KSBP 110656Z AUTO 00000KT 10SM CLR 16/02 A3014=

0000096200
782
SAUS74 KWBC 110700 RRB
METAR
KSCK 110655Z AUTO 14003KT 8SM CLR 07/04 A3021=
KSEA 110653Z 18006KT 7SM -RA FEW020 OVC036 11/08 A2962=
KSFF 110653Z AUTO 20007KT 10SM FEW037 SCT047 OVC055 06/02
     A2982=
KSFO 110656Z 00000KT 10SM CLR 10/07 A3021=
KSHR 110653Z AUTO 32015KT 10SM BKN070 OVC090 02/M05 A2979=
KSJC 110653Z 00000KT 10SM CLR 10/07 A3022=
KSLC 110653Z 17003KT 10SM OVC060 06/M03 A3018=
KSMF 110653Z 14003KT 10SM CLR 08/03 A3021=
KSMX 110651Z AUTO 00000KT 10SM CLR 12/04 A3014=
KSNA 110653Z 00000KT 5SM HZ BKN250 12/08 A3011=
KSNS 110653Z AUTO 00000KT 1/4SM FG VV001 10/09 A3021=
KTIW 110653Z AUTO 19021G27KT 10SM FEW029 OVC070 12/08 A2961=
KTUS 110653Z 15006KT 10SM CLR 06/M05 A3018=
KTVL 110653Z AUTO 00000KT 10SM CLR M02/M04 A3027=
KTWF 110653Z AUTO 19007KT 10SM BKN050 OVC070 06/00 A3011=
KUKI 110656Z AUTO 00000KT 10SM CLR 06/02 A3021=
KYKM 110653Z AUTO VRB04KT 10SM CLR 03/00 A2975=
KYUM NIL=

0000166900
783
SAUS75 KWBC 110700
METAR
PABA 110701Z AUTO 28029G36KT 1/4SM +SN FZFG M24/M26 A2976=
PABE 110653Z 02011KT 10SM SCT049 M14/M16 A2937=
PABI 110653Z AUTO 29004KT 10SM OVC005 M19/M21 A2945=
PABR 110653Z 30009KT 10SM OVC009 M24/M27 A2979=
PABT 110653Z 00000KT 10SM FEW150 M36/ A2963=
PACV 110653Z 00000KT 6SM R27/3500VP6000FT BR FEW002 SCT035 M05/M06
     A2924=
PACZ 110655Z AUTO 10008G12KT 030V130 10SM SCT040 M08/M11 A2935=
PADK 110656Z AUTO 22035G44KT 5SM FEW019 BKN023 OVC031 03/M01
     A2866=
PADL NIL=
PADU 110656Z AUTO 21009KT 10SM FEW041 BKN065 04/01 A2899=
PAEH 110655Z AUTO 14027G31KT 4SM -SHSN BR BKN003 M01/M02 A2924=
PAEI 110655Z 00000KT 10SM SCT004 M25/M28 A2954=
PAEN 110653Z 00000KT 10SM OVC006 M04/M04 A2933=
PAFA 110653Z 00000KT 10SM FEW002 SCT090 M32/M36 A2956=
PAFB NIL=
PAGA 110658Z AUTO 00000KT 10SM CLR M33/M37 A2965=
PAGK 110653Z AUTO 33004KT 2SM -SN BR OVC037 M12/M14 A2924=
PAGS 110656Z AUTO 00000KT 10SM OVC048 00/M01 A2925=
PAGY 110653Z AUTO 20005KT 10SM FEW015 OVC065 02/M01 A2925=
PAHO 110653Z AUTO 05003KT 10SM BKN018 OVC041 M01/M04 A2932=
PAIL 110653Z AUTO 01007KT 10SM OVC006 M07/M07 A2939=
PAJN 110653Z 08005KT 10SM FEW018 BKN043 OVC055 01/M01 A2926=
PAKN 110654Z 32007KT 10SM FEW004 SCT025 SCT130 M07/M08 A2935=
PAKT 110653Z AUTO 27007G15KT 250V310 10SM OVC100 03/M02 A2906=
PALU 110655Z AUTO 09007KT 10SM -SHSN OVC007 M18/M20 A2993=
PAMC 110653Z AUTO 00000KT 10SM CLR M23/M26 A2952=
PANC 110653Z 33005KT 10SM FEW006 BKN015 OVC025 M06/M07 A2932=
PANT 110653Z AUTO 06003KT 10SM OVC070 03/M03 A2905=
PAOM 110653Z 04015KT 10SM BLSN FEW032 SCT100 M12/M21 A2959=

0000120800
784
SAUS75 KWBC 110700 RRA
METAR
PAOR 110653Z 32005KT 3SM -SN OVC029 M17/M19 A2932=
PAOT 110653Z VRB04KT 10SM CLR M21/M26 A2974=
PAPG NIL=
PASC 110653Z 24021KT 1/2SM R05/4000V5000FT -SN BLSN BR OVC012
     M26/M29 A2979=
PASI 110653Z 00000KT 10SM CLR 00/M01 A2920=
PASN 110653Z AUTO 07015KT 10SM SCT023 BKN036 OVC070 02/00
     A2898=
PATA 110652Z AUTO 28003KT 10SM CLR M35/ A2963=
PATC 110655Z AUTO 02030KT 3/4SM BR VV002 M18/M19 A2967=
PATK 110653Z AUTO 00000KT 10SM OVC020 M08/M10 A2931=
PAUN 110656Z AUTO 09013KT 10SM CLR M17/M23 A2954=
PAVD 110656Z 10SM BKN120 M08/M08 A2926=
PAYA 110653Z AUTO 00000KT 6SM -SN BR BKN005 BKN013 OVC033 00/00
     A2925=
PGRO 110650Z 04011KT 7SM SCT030 SCT120 26/23 A2987=
PGUA NIL=
PGUM 110654Z 05014KT 10SM FEW024 SCT043 BKN070 27/22 A2986=
PHJH NIL=
PHLI 110653Z 05017KT 10SM FEW015 SCT020 BKN027 23/21 A2998=
PHMK 110654Z AUTO 03004KT 10SM CLR 22/18 A2995=
PHNL 110653Z 06006KT 10SM FEW030 23/18 A2995=
PHNY 110656Z AUTO 05005KT 10SM CLR 19/18 A2999=
PHOG 110654Z 16004KT 10SM FEW025 20/17 A2994=
PHTO 110653Z 23005KT 10SM CLR 20/19 A2998=
PMDY 110656Z AUTO 11016KT 4SM HZ CLR 21/18 A3010=
PWAK NIL=

0000009100
785
SPUS31 KWBC 110707
SPECI
KCHS 110702Z 18007KT 10SM SCT009 19/18 A3005=

0000008900
786
SABA31 MYNN 110700
METAR MYNN 110700Z 12006KT 9999 FEW018 24/21 A3012=

0000015700
787
FCFR24 LFPW 110500 AAA
TAF AMD LFSO 110700Z 1107/1115 VRB02KT 5000 -RA SCT005 BKN050 OVC080
TEMPO 1109/1115 2000 -DZRA BR BKN003 BKN010=

0000022600
788
SATH41 VTBB 110700
METAR VTPB 110700Z NIL=
METAR VTPM 110700Z 31004KT 240V050 9999 FEW035 31/15 Q1014 A2994
RMK/RWY27 INFO H=
METAR VTSE 110700Z NIL=
METAR VTSK 110700Z NIL=
METAR VTUJ 110700Z NIL=

0000052800
789
SASG21 GOOY 110700
METAR GOSS 110700Z 08004KT CAVOK 14/14 Q1014=
METAR GOSP 110700Z 36002KT CAVOK 14/11 Q1014=
METAR GOOG 110700Z 06002KT 8000 NSC 15/12 Q////=
METAR GOSM 110700Z 36004KT CAVOK 17/09 Q1013=
METAR GOOD 110700Z 36004KT 8000 NSC 15/12 Q1014=
METAR GOOK 110700Z NIL=
METAR GOTT 110700Z 36004KT CAVOK 21/10 Q1012=
METAR GOGG 110700Z 36006KT CAVOK 18/09 Q1014=
METAR GOGS 110700Z 36008KT CAVOK 17/13 Q1013=
METAR GOGK 110700Z VRB02KT 8000 NSC 17/10 Q1011=
METAR GOTK 110700Z NIL=

0000085600
790
SAMS33 WMKK 110700
METAR WMAU 110700Z 35012KT 3000 FEW010 SCT024 OVC260 26/24 Q////
QFF1010=
METAR WMBA 110700Z 16003KT 9999 FEW020 SCT140 BKN260 30/25 Q1009=
METAR WMKA 110700Z 07011KT 350V120 9999 FEW020 BKN140 30/21 Q1010=
METAR WMKB 110700Z 06010KT 9999 FEW020 BKN140 BKN270 28/23 Q1009
NOSIG=
METAR WMKC 110700Z 07009KT 030V100 7000 -RA FEW008 SCT020 OVC200
26/24 Q1011=
METAR WMKD 110700Z 35004KT 9999 FEW012 BKN160 25/23 Q1011 NOSIG=
METAR WMKE 110700Z 31005KT 9999 FEW012 FEW016CB SCT020 BKN220 25/23
Q1011=
METAR WMKI 110700Z 02006KT 340V060 9999 FEW020 BKN140 BKN280 29/23
Q1010=
METAR WMKL 110700Z 04008KT 9999 FEW022 SCT140 BKN270 31/21 Q1010=
METAR WMKM 110700Z 36005KT 300V060 9999 SCT020 SCT150 BKN280 31/25
Q1009=
METAR COR WMKN 110700Z 04003KT 9999 -RA FEW008 SCT022 OVC190 26/24
Q1011=

0000053300
791
SAMS34 WMKK 110700
METAR WBGB 110700Z 34008KT 9999 BKN014 BKN150 28/25 Q1010=
METAR WBGR 110700Z 32007KT 9999 SCT014 BKN150 26/23 Q1009=
METAR WBGS 110700Z 02010KT 9999 SCT018 BKN150 29/23 Q1009=
METAR WBGY 110700Z 01004KT 9999 FEW015CB SCT020 BKN300 29/23 Q1009=
METAR WBKL 110700Z 33005KT 9999 FEW010 SCT140 BKN290 29/25 Q1009=
METAR WBKS 110700Z 36003KT 7000 -RA SCT014 FEW016CB SCT030 OVC260
26/25 Q1008=
METAR WBKT 110700Z NIL=
METAR WBKW 110700Z 32006KT 9999 FEW017 SCT030 BKN140 27/24 Q1008=

0000026500
792
SANZ31 NZKL 110700
METAR NZAA 110700Z AUTO 23011KT 9999 FEW026/// SCT031/// BKN044///
          18/13 Q1017 NOSIG=
METAR NZWN 110700Z AUTO 35014KT 9999 NCD 19/14 Q1014 NOSIG=
METAR NZCH 110700Z AUTO 07017KT 9999 OVC014/// 15/12 Q1012 NOSIG=

0000021700
793
SAIO31 KWBC 110700 RRA
METAR
FMCZ 110700Z 16003KT 110V250 9999 FEW022 BKN300 31/24 Q1013
     NOSIG=
FMEE 110700Z 10020KT 9999 FEW026 31/22 Q1015 NOSIG=
VYMD 110700Z NIL=
VYYY 110700Z NIL=

0000023100
794
SAAF13 LFPW 110700 RRA
METAR GOGG 110700Z 36006KT CAVOK 18/09 Q1014=
METAR GOGS 110700Z 36008KT CAVOK 17/13 Q1013=
METAR GOSS 110700Z 08004KT CAVOK 14/14 Q1014=
METAR GOTT 110700Z 36004KT CAVOK 21/10 Q1012=

00000000