0000010300
595
SPIY32 LIIB 110700
SPECI LIPK 110700Z VRB01KT 0900 R12/P1500N FG BKN025 07/05 Q1021=

0000043700
596
SPUS70 KWBC 110700
SPECI
KARA 110656Z AUTO 21013KT 1 3/4SM VCTS BR OVC003 18/17 A2985 RMK
     AO2 LTG DSNT E-S TSB55 $=
KFFC 110656Z AUTO 12007KT 2SM VCTS RA BR FEW004 BKN008 OVC018
     10/10 A2994 RMK AO2 LTG DSNT ALQDS P0001 T01000100=
KFPR 110656Z 00000KT 3/4SM BR VV010 19/18 A3009 RMK AO2=
KGWO 110657Z AUTO 29008G16KT 1SM +RA BR SCT006 BKN013 OVC034 17/16
     A2972 RMK AO2 P0013 T01670156 TSNO=

0000009400
597
SPUS42 KWBC 110700
SPECI
KFPR 110656Z 00000KT 3/4SM BR VV010 19/18 A3009=

0000010600
598
SACN52 CWAO 110700
METAR CWEU 110700Z 13006KT 15SM OVC090 M20/M25 A2920 RMK AC8 SLP889=

0000013900
599
SASR31 WSSL 110700
METAR WSSL 110700Z 35009KT 9999 VCSH FEW015 SCT017TCU FEW018CB BKN300
32/24 Q1009 RMK 0630Z Q1009 =

0000043800
600
SARH31 LDZM 110700
METAR LDSP 110700Z 00000KT 9999 SCT060 10/08 Q1024 NOSIG =
METAR LDPL 110700Z 00000KT 8000 BKN055 09/08 Q1022 NOSIG =
METAR LDDU 110700Z 10006KT 9999 BKN060 08/06 Q1023 NOSIG =
METAR LDZA 110700Z 00000KT 0200 R05/0500N R23/0600N FG VV002 03/03
Q1021 NOSIG =
METAR LDZD 110700Z 13005KT 9999 BKN060 08/08 Q1023 NOSIG =
METAR LDRI 110700Z NIL=
METAR LDOS 110700Z 16008KT CAVOK 03/02 Q1022=

0000011300
601
SACN41 CWAO 110700
METAR CYQH 110700Z 10002KT 10SM MIFG FEW030 M12/M14 A2915 RMK SC2
SLP919=

0000011100
602
SACN31 CWAO 110700
METAR CYFB 110700Z 00000KT 12SM BKN068 M26/M30 A2956 RMK AC7 IC
SLP015=

0000011000
603
SARH31 LDZM 110700 RRA
METAR LDRI 110700Z 14002KT 9999 SCT016 BKN033 OVC075 10/10 Q1021
=

0000009900
604
SACN48 CWAO 110700
METAR CYOY 110700Z AUTO 00000KT 4SM M07/M09 A3013 RMK SLP216=

0000013500
605
SAMR20 TFFF 110700
METAR TFFF 110700Z AUTO 06015G27KT 3400 RA BR FEW014/// SCT027///
BKN050/// ///TCU 22/20 Q1015=

0000008300
606
SABZ18 SBGR 110700
METAR SBGR 110700Z 09002KT CAVOK 19/17 Q1016=

0000009800
607
SABZ19 SBMQ 110700
METAR SBMQ 110700Z 10008KT 9999 FEW013 BKN080 24/23
Q1010=

0000008400
608
SARM31 LUKK 110700
METAR LUBL 110700Z 26017KT CAVOK 04/M03 Q1017=

0000009500
609
SAVN22 SVMI 110700
METAR SVMI 110700Z 00000KT 9999 FEW016 22/18 Q1014 NOSIG=

0000010900
610
SABR31 TBPB 110700
METAR TBPB 110700Z 06017KT 8000 -RA SCT016 BKN035 
23/22 Q1014 NOSIG=

0000010600
611
SACN44 CWAO 110700
METAR CYPE 110700Z 27003KT 15SM OVC210 M14/M15 A2940 RMK CS2 SLP002=

0000009900
612
SACN47 CWAO 110700
METAR CYVP 110700Z 24004KT 15SM SKC M24/M28 A2984 RMK SLP110=

0000010600
613
SACN31 CWAO 110700
METAR CYYR 110700Z 25022KT 15SM SCT120 M09/M16 A2987 RMK AC2 SLP119=

0000011800
614
SACN31 CWAO 110700
METAR CYZV 110700Z 00000KT 15SM FEW035 BKN074 M10/M13 A3008 RMK
SC1AC5 SLP191=

00000000