0000011300
475
SPUS41 KWBC 110908
SPECI
KCEF 110906Z AUTO 36003KT 1 1/4SM R23/4500FT BR OVC002 00/00 A3010=

0000009900
476
SPUS41 KWBC 110908
SPECI
KINT 110904Z AUTO 00000KT 3/4SM BR VV002 04/04 A2996=

0000010900
477
SPUS43 KWBC 110908
SPECI
KPIA 110904Z 28008KT 1SM R13/6000VP6000FT BR VV003 03/02 A2949=

0000010000
478
SPUS44 KWBC 110908
SPECI
KHQM 110904Z AUTO 17033G50KT 1 1/2SM -SN OVC015 A2951=

0000013700
479
SABZ43 KWBC 110900 RRA
METAR
SBJP 110900Z 21006KT 9999 FEW020 22/20 Q1013=
SBRP 110900Z 10004KT CAVOK 20/18 Q1015=

0000015300
480
SAJP41 KWBC 110900 RRA
METAR
RJAW 110900Z 04012KT 9999 FEW030 BKN080 17/08 Q1022 RMK 1CU030
     7AC080 A3020=
RJCM 110900Z NIL=

0000008900
481
SASA42 KWBC 110900 RRA
METAR
SCTC 110900Z VRB01KT CAVOK 07/05 Q1017=

0000010100
482
SPSP37 LEMM 110912
SPECI LEBG 110912Z 00000KT 0300 R22/0300N FG VV001 02/02 Q1018=

0000039400
483
FTUS51 KWBC 110912 AAA
TAF AMD
KRWI 110908Z 1109/1206 16004KT 2SM BR OVC003 WS010/18035KT
      TEMPO 1109/1112 1/2SM FG
     FM111200 18006KT 2SM BR OVC006
     FM111500 20015G28KT P6SM BKN008
     FM111900 20015G28KT P6SM BKN012
      TEMPO 1119/1123 28025G40KT 2SM SHRA BR
     FM112300 25015G25KT 6SM -SHRA SCT025 OVC080
     FM120200 28012KT P6SM BKN080=

0000099600
484
FTUS52 KWBC 110912 AAA
TAF AMD
KGLH 110910Z 1109/1206 28012G19KT P6SM FEW070 SCT100
     FM111200 28011KT P6SM SCT035
     FM111400 28016G23KT P6SM SKC=
KGWO 110910Z 1109/1206 30005KT P6SM FEW012 BKN035 OVC080
     FM111300 28011KT P6SM SCT035
     FM111600 28012G20KT P6SM SKC=
KHKS 110911Z 1109/1206 28012G20KT P6SM -RA SCT014 BKN022 OVC100
     FM111000 26009KT P6SM OVC025
     FM111400 29010KT P6SM SCT020
     FM111600 27013G20KT P6SM SKC=
KJAN 110911Z 1109/1206 25010KT P6SM -RA OVC013
     FM111000 26009KT P6SM OVC015
     FM111400 29010KT P6SM SCT020
     FM111600 27013G20KT P6SM SKC=
KTRI 110908Z 1109/1206 VRB03KT 5SM -RA BR BKN025 OVC050
      WS020/18040KT
      TEMPO 1109/1111 1/2SM FG BKN001 OVC025
     FM111100 23007KT 4SM -SHRA BR SCT012 OVC025 WS020/18040KT
     FM111300 23012G20KT 3SM SHRA BR SCT004 OVC008 WS020/22050KT
     FM112200 26012G20KT P6SM VCSH SCT015 OVC025
     FM120200 26010KT P6SM SCT025 OVC050=

0000140000
485
FTUS80 KWBC 110912 AAA
TAF AMD
KAUS 110910Z 1109/1212 23004KT 3SM BR FEW250
     FM111300 33010KT P6SM FEW250
     FM111700 01006KT P6SM FEW250
     FM120000 VRB03KT P6SM SKC
     FM120600 19005KT P6SM SKC=
KGLH 110910Z 1109/1206 28012G19KT P6SM FEW070 SCT100
     FM111200 28011KT P6SM SCT035
     FM111400 28016G23KT P6SM SKC=
KGWO 110910Z 1109/1206 30005KT P6SM FEW012 BKN035 OVC080
     FM111300 28011KT P6SM SCT035
     FM111600 28012G20KT P6SM SKC=
KHKS 110911Z 1109/1206 28012G20KT P6SM -RA SCT014 BKN022 OVC100
     FM111000 26009KT P6SM OVC025
     FM111400 29010KT P6SM SCT020
     FM111600 27013G20KT P6SM SKC=
KILM 110911Z 1109/1206 17007KT P6SM SCT012
     FM111600 19012G20KT P6SM VCSH BKN018
      TEMPO 1119/1123 20020G30KT 2SM +SHRA BKN012CB
     FM112300 21012G19KT P6SM VCSH BKN025
     FM120300 25013G24KT P6SM SCT030=
KJAN 110911Z 1109/1206 25010KT P6SM -RA OVC013
     FM111000 26009KT P6SM OVC015
     FM111400 29010KT P6SM SCT020
     FM111600 27013G20KT P6SM SKC=
KRWI 110908Z 1109/1206 16004KT 2SM BR OVC003 WS010/18035KT
      TEMPO 1109/1112 1/2SM FG
     FM111200 18006KT 2SM BR OVC006
     FM111500 20015G28KT P6SM BKN008
     FM111900 20015G28KT P6SM BKN012
      TEMPO 1119/1123 28025G40KT 2SM SHRA BR
     FM112300 25015G25KT 6SM -SHRA SCT025 OVC080
     FM120200 28012KT P6SM BKN080=

0000053300
486
FTUS80 KWBC 110912 AAB
TAF AMD
KSTL 110909Z 1109/1212 26012KT P6SM OVC020
     FM111600 27012G20KT P6SM SCT020 BKN250
     FM120600 23007KT 6SM BR SCT250=
KTRI 110908Z 1109/1206 VRB03KT 5SM -RA BR BKN025 OVC050
      WS020/18040KT
      TEMPO 1109/1111 1/2SM FG BKN001 OVC025
     FM111100 23007KT 4SM -SHRA BR SCT012 OVC025 WS020/18040KT
     FM111300 23012G20KT 3SM SHRA BR SCT004 OVC008 WS020/22050KT
     FM112200 26012G20KT P6SM VCSH SCT015 OVC025
     FM120200 26010KT P6SM SCT025 OVC050=

0000012500
487
SPCN31 CWAO 110909
SPECI CYVR 110909Z 09012G17KT 5SM RA BR BKN008 OVC012 07/07 A2934 RMK
 ST5NS3 SLP936=

0000222500
488
SPUS70 KWBC 110912
SPECI
K2DP 110907Z AUTO 18008KT 12SM BKN008 BKN030 16/15 A3007 RMK AO2
     CIG 008V010=
KNFE 110905Z AUTO 14006KT 10SM BKN010 OVC015 18/16 A3004 RMK AO2
     RAE00 P0000 T01830156=
PAIG 110908Z AUTO 00000KT 10SM SCT005 OVC015 M09/M10 A2937 RMK AO2
     TSNO $=
KAHN 110908Z AUTO 11004KT 2SM +TSRA BR FEW004 SCT007 OVC024 08/08
     A2991 RMK AO2 LTG DSNT ALQDS P0026=
KBOK 110908Z AUTO 16010KT 2SM BR OVC002 10/10 A3005 RMK AO2 $=
KCQX 110908Z AUTO 18008KT 3/4SM BR BKN001 OVC007 06/05 A3020 RMK
     AO2 T00610050=
KDSV 110908Z AUTO 14013G19KT 10SM BKN020 08/04 A2974 RMK AO2
     PRESFR=
KFDY 110908Z AUTO 19006KT 3SM -RA BR OVC011 05/04 A2954 RMK AO2
     P0000=
KJST 110908Z AUTO 18013KT 10SM FEW007 BKN042 BKN065 07/06 A2980
     RMK AO2 T00720061=
KMGY 110908Z AUTO 20009KT 6SM -RA BR SCT007 OVC055 10/09 A2959 RMK
     AO2 P0002 T01000094=
KMTW 110908Z AUTO 30003KT 3/4SM BR OVC008 02/01 A2936 RMK AO2 CIG
     008V013 FZRANO=
KVAY 110908Z AUTO 16008KT 10SM SCT019 BKN029 BKN060 09/09 A3001
     RMK AO2 T00940089=
KBMI 110909Z AUTO 25008KT 1/4SM R29/2400V3000FT FG OVC001 03/02
     A2947 RMK AO2=
KBPT 110909Z AUTO 22004KT 1SM R12/3500V6000FT BR VV002 18/17 A2985
     RMK AO2 $=
KECG 110909Z AUTO 17006KT 10SM BKN009 BKN014 OVC022 18/17 A3004
     RMK AO2 T01780172 TSNO=
KFFC 110909Z AUTO 27004KT 2 1/2SM -RA BR OVC005 15/15 A2990 RMK
     AO2 LTG DSNT N CIG 003V009 P0003 T01500150=
KHJO 110909Z AUTO 00000KT 2SM BR CLR 03/02 A3024 RMK AO2
     T00330017=
KMCB 110909Z AUTO 24006KT 4SM VCTS -RA BR BKN007 OVC013 19/19
     A2981 RMK AO2 LTG DSNT ALQDS TSB0854E09 P0007 T01940189=
KMFI 110909Z AUTO 31009KT 1 1/2SM -SN BR FEW008 OVC034 M02/M04
     A2938 RMK AO2 P0000 T10221039=
KRWI 110909Z AUTO 16003KT 1SM BR VV003 17/16 A2998 RMK AO2
     T01670161=
KSTS 110909Z AUTO 00000KT 1/2SM FG VV002 04/04 A3018 RMK AO2
     T00440044=
PAGN 110909Z AUTO 00000KT 3/4SM BR OVC005 01/01 A2914 RMK AO2 TSNO
     $=
PAGN 110909Z AUTO 00000KT 3/4SM BR OVC005 01/01 A2914 RMK AO2 TSNO
     $=
KPHD 110909Z AUTO 26004KT 5SM RA BKN029 OVC041 12/08 A2967 RMK AO2
     RAB03 P0003 T01220083 TSNO=

0000012100
489
SPUS41 KWBC 110912
SPECI
KAVP 110908Z AUTO 06003KT 2SM R04/3500VP6000FT -RA BR OVC014 04/04
A2993=

0000009800
490
SPUS41 KWBC 110912
SPECI
KSYR 110908Z 14008KT 10SM BKN020 OVC025 08/05 A2982=

0000010300
491
SPUS43 KWBC 110912
SPECI
KSUS 110908Z AUTO 24009KT 10SM SCT024 OVC031 06/02 A2958=

0000055700
492
SABZ41 KWBC 110900 RRA
METAR
SBAF 110900Z 03002KT CAVOK 26/21 Q1013=
SBBH 110900Z 00000KT CAVOK 21/18 Q1018=
SBBI 110900Z 02002KT 9999 FEW030TCU 20/18 Q1018=
SBBU 110900Z 04003KT CAVOK 24/21 Q1016=
SBCO 110900Z 04002KT 0200 R30/0700 R12/1600 FG SCT005 21/// Q10
     11=
SBCO 110900Z 04002KT 0200 R30/0700 R12/1600 FG SCT005 21///
     Q1011=
SBDN 110900Z 34002KT CAVOK 22/19 Q1013=
SBGW 110900Z 35001KT CAVOK 19/17 Q1016=
SBHT 110900Z 00000KT 9999 FEW010 22/22 Q1011=
SBIL 110900Z 09006KT 9999 BKN025 26/22 Q1014=

0000040800
493
SABZ42 KWBC 110900 RRA
METAR
SBJR 110900Z 34002KT CAVOK 27/25 Q1013=
SBME 110900Z 05008KT CAVOK 26/24 Q1014=
SBMT 110900Z 15002KT CAVOK 22/18 Q1017=
SBSC 110900Z 01007KT CAVOK 27/20 Q1012=
SBSM 110900Z 00000KT 9999 FEW020 SCT070 21/20 Q1011=
SBST 110900Z 10002KT CAVOK 23/21 Q1011=
SBUR 110900Z 08005KT 9999 FEW030 21/15 Q1017=
SBYS 110900Z 01002KT 9999 FEW030 20/19 Q1016=

0000045100
494
SABZ43 KWBC 110900 RRB
METAR
SBAN 110900Z 36003KT 9999 FEW030 FEW035TCU BKN100 15/15 Q1019=
SBES 110900Z 06012KT 9999 FEW010 24/22 Q1014=
SBIZ 110900Z 00000KT CAVOK 23/23 Q1011=
SBKG 110900Z 08002KT 9999 FEW020 20/20 Q1015=
SBMK 110900Z 04004KT 350V080 9999 BKN025 21/18 Q1017=
SBPJ 110900Z 14003KT 9999 FEW015 BKN100 22/20 Q1012=
SBQV 110900Z 11005KT 9999 SCT010 19/19 Q1019=
SBUL 110900Z 08009KT CAVOK 19/15 Q1018=

00000000