0000101600
815
FTBX31 EBBR 110500
TAF EBBR 110520Z 1106/1212 22009KT 9999 BKN011
    PROB40 TEMPO 1106/1107 BKN008
    TEMPO 1107/1111 SCT012
    BECMG 1113/1115 SCT015 
    BECMG 1200/1203 3000 BR
    PROB30 1203/1209 0500 FZFG BKN001
    BECMG 1210/1212 8000 NSW =
TAF EBLG 110520Z 1106/1212 19008KT 9999 SCT006
    PROB30 TEMPO 1106/1109 BKN006
    PROB40 TEMPO 1109/1115 BKN012
    BECMG 1200/1202 3000 BR
    PROB40 1202/1209 0500 FZFG BKN001
    BECMG 1210/1212 8000 NSW =
TAF EBOS 110520Z 1106/1212 20010KT 9999 BKN006
    BECMG 1106/1108 SCT012 BKN040
    PROB40 TEMPO 1108/1110 BKN012
    BECMG 1110/1112 32015KT 
    BECMG 1120/1123 20004KT 
    BECMG 1201/1203 3000 BR
    PROB40 1203/1209 0500 FZFG BKN001
    BECMG 1209/1212 9999 NSW =
TAF ELLX 110500Z 1106/1212 22005KT 9999 BKN012
    TEMPO 1106/1112 2000 -RA BR BKN003
    BECMG 1112/1115 25008KT
    BECMG 1120/1123 32008KT CAVOK
    BECMG 1203/1206 06008KT
    TEMPO 1202/1208 3000 BR SCT010=

0000112900
816
FTDL31 EDZO 110500
TAF EDDF 110500Z 1106/1212 VRB03KT 4000 BCFG SCT003 TEMPO 1106/1108
     0500 FG BKN001 BECMG 1107/1109 23005KT 6000 BKN030 TEMPO
     1109/1118 4000 -RA BR BKN007 PROB40 TEMPO 1115/1118 RA BECMG
     1118/1120 27006KT SCT030 BECMG 1200/1203 VRB03KT TEMPO 1206/1209
     4000 BR BECMG 1210/1212 06005KT=
TAF EDDH 110500Z 1106/1212 22011KT 9999 BKN015 TEMPO 1106/1109 4000
     -RA BKN008 BECMG 1109/1112 BKN012 BECMG 1112/1115 3500 RA BKN007
     TEMPO 1113/1118 26015G30KT BECMG 1115/1118 28013KT 9999 NSW
     BKN020 PROB40 TEMPO 1118/1206 30015G30KT 3000 SHRAGS BKN012CB
     TEMPO 1200/1209 BKN008=
TAF EDDK 110500Z 1106/1212 12005KT 9999 SCT030 BECMG 1111/1113
     26007KT TEMPO 1113/1117 RA BECMG 1202/1204 12004KT=
TAF EDDL 110500Z 1106/1212 16010KT 9999 SCT030 BECMG 1112/1114
     26007KT TEMPO 1114/1117 RA BECMG 1200/1202 20005KT=
TAF EDDM 110500Z 1106/1212 14003KT 9999 SCT045 TEMPO 1106/1108 2000
     BCFG BECMG 1110/1112 27005KT BECMG 1117/1119 26012KT BKN012
     BECMG 1200/1202 28006KT BECMG 1204/1206 SCT030 BECMG 1209/1211
     08005KT=

0000044600
817
SABX31 EBBR 110520
METAR EBAW 110520Z 22007KT 9999 OVC007 04/02 Q1015 NOSIG=
METAR EBBR 110520Z 21006KT 9999 FEW008 03/02 Q1015 NOSIG=
METAR EBCI 110520Z 22010KT 9999 FEW004 05/04 Q1015 TEMPO BKN006=
METAR EBLG 110520Z 19007KT CAVOK 04/02 Q1015 NOSIG=
METAR EBOS 110520Z 20011KT 6000 SCT004 BKN006 04/02 Q1015 TEMPO
     BKN004=
METAR ELLX 110520Z VRB02KT 5000 R24/1300VP1500N SCT020 BKN040 02/02
    Q1016 NOSIG=

0000139400
818
FTDL32 EDZO 110500
TAF EDDB 110500Z NIL=
TAF EDDC 110500Z NIL=
TAF EDDG 110500Z 1106/1206 21007KT 9999 BKN015 TEMPO 1106/1109 BKN009
     BECMG 1111/1113 26012KT TEMPO 1113/1116 4000 RA BKN012 BECMG
     1118/1120 25007KT=
TAF EDDN 110500Z 1106/1206 12003KT 9999 SCT045 BECMG 1111/1113 RA
     BKN012 BECMG 1113/1115 22007KT NSW BECMG 1119/1121 28012KT
     BKN020 TEMPO 1120/1123 28015G25KT BECMG 1201/1203 24005KT PROB30
     TEMPO 1203/1206 1200 BCFG=
TAF EDDP 110500Z 1106/1206 20010KT 9999 SCT035 BECMG 1114/1116
     22015KT BECMG 1116/1119 26015G25KT TEMPO 1118/1121 27020G30KT
     RA=
TAF EDDS 110500Z 1106/1206 VRB03KT 8000 SCT035 TEMPO 1106/1109 2000
     BCFG BECMG 1110/1112 25005KT TEMPO 1112/1115 RA BECMG 1202/1204
     VRB03KT=
TAF EDDT 110500Z NIL=
TAF EDDV 110500Z 1106/1206 22011KT 9999 BKN020 TEMPO 1106/1110 BKN009
     BECMG 1113/1115 4000 RA BKN008 TEMPO 1113/1118 26020G35KT BECMG
     1115/1118 28013KT 9999 NSW BKN020 PROB40 TEMPO 1118/1124
     30015G30KT 3000 SHRAGS BKN012CB TEMPO 1200/1206 BKN008=
TAF EDDW 110500Z 1106/1206 22011KT 9999 BKN015 TEMPO 1106/1110 4000
     -RA BKN008 BECMG 1110/1113 BKN012 BECMG 1113/1115 3500 RA BKN007
     TEMPO 1113/1117 26020G35KT BECMG 1115/1117 28013KT 9999 NSW
     BKN020 PROB40 TEMPO 1117/1124 30015G30KT 3000 SHRAGS BKN012CB
     TEMPO 1200/1206 BKN008=

0000142600
819
FTDL33 EDZO 110500
TAF EDDE 110500Z 1106/1206 22007KT 9999 FEW035 BECMG 1112/1114
     23012KT BECMG 1115/1118 27015G25KT TEMPO 1118/1121 27020G30KT=
TAF EDDR 110500Z 1106/1206 VRB03KT 8000 SCT005 BKN035 BECMG 1106/1109
     21005KT 4000 -RA BR BKN005 TEMPO 1106/1112 2000 -RADZ BKN002
     BECMG 1116/1118 BKN025 BECMG 1122/1124 VRB03KT BECMG 1202/1204
     06006KT TEMPO 1204/1206 2000 BCFG BKN003=
TAF EDFH 110500Z 1106/1206 18005KT 7000 SCT003 TEMPO 1106/1108 0300
     FG BKN001 BECMG 1108/1110 BKN006 TEMPO 1108/1115 2000 -RA BR
     BKN003 BECMG 1114/1116 27007KT RA BKN010 BECMG 1117/1119 NSW
     SCT010 BECMG 1202/1204 VRB03KT TEMPO 1204/1206 3000 BR BKN003=
TAF EDLP 110500Z 1106/1206 22010KT 9999 FEW035 TEMPO 1113/1117
     26015G25KT TEMPO 1115/1119 RA TEMPO 1121/1123 BKN013=
TAF EDLV 110500Z 1106/1206 19007KT 9999 SCT030 TEMPO 1106/1110 BKN006
     BECMG 1111/1113 25011KT TEMPO 1111/1116 4000 RA BKN012 BECMG
     1117/1119 24006KT TEMPO 1201/1206 4000 BR=
TAF EDNY 110500Z 1106/1206 03003KT 0200 FG BKN002 BECMG 1107/1109
     24005KT 6000 BKN030 BECMG 1119/1121 BKN012 BECMG 1201/1203
     03005KT TEMPO 1201/1206 0400 FG VV002=
TAF EDSB 110500Z 1106/1206 VRB03KT 8000 SCT030 PROB40 TEMPO 1106/1109
     0500 BCFG BKN002 BECMG 1109/1111 23005KT TEMPO 1109/1116 4000
     RADZ BKN010 BECMG 1122/1124 VRB03KT TEMPO 1203/1206 2000 BCFG
     BKN003=

0000075600
820
FTDL34 EDZO 110500
TAF EDLP 110500Z 1106/1206 22010KT 9999 FEW035 TEMPO 1113/1117
     26015G25KT TEMPO 1115/1119 RA TEMPO 1121/1123 BKN013=
TAF EDLV 110500Z 1106/1206 19007KT 9999 SCT030 TEMPO 1106/1110 BKN006
     BECMG 1111/1113 25011KT TEMPO 1111/1116 4000 RA BKN012 BECMG
     1117/1119 24006KT TEMPO 1201/1206 4000 BR=
TAF EDNY 110500Z 1106/1206 03003KT 0200 FG BKN002 BECMG 1107/1109
     24005KT 6000 BKN030 BECMG 1119/1121 BKN012 BECMG 1201/1203
     03005KT TEMPO 1201/1206 0400 FG VV002=
TAF EDSB 110500Z 1106/1206 VRB03KT 8000 SCT030 PROB40 TEMPO 1106/1109
     0500 BCFG BKN002 BECMG 1109/1111 23005KT TEMPO 1109/1116 4000
     RADZ BKN010 BECMG 1122/1124 VRB03KT TEMPO 1203/1206 2000 BCFG
     BKN003=

0000049900
821
FTAF33 OEJD 110400 RRA
TAF DTMB 110500Z 1106/1206 18008KT 9999 FEW020 TEMPO 1108/1118
18015G25KT=
TAF DTTA 110500Z 1106/1206 17003KT 4000 BR BECMG 1108/1110 18006KT
9999 FEW020 BECMG 1113/1115 VRB03KT=
TAF DTTJ 110500Z 1106/1206 18004KT 6000 NSC BECMG 1107/1109 19012KT
CAVOK=
TAF HLLB 110500Z 1106/1206 VRB02KT 9999 SCT020 BECMG 1110/1112
25010KT BECMG 1116/1118 VRB02KT=
TAF HLLT 110500Z 1106/1206 VRB02KT CAVOK BECMG 1110/1112 20010KT
BECMG 1116/1118 VRB02KT=

0000050800
822
SAOS31 LOWM 110520
METAR LOWW 110520Z 19004KT 9999 FEW038 M02/M03 Q1020 NOSIG=
METAR LOWL 110520Z VRB01KT 6000 FEW053 SCT250 M02/M02 Q1020 TEMPO
0800 FZBCFG=
METAR LOWS 110520Z VRB01KT 9999 MIFG FEW080 BKN300 M00/M00 Q1018
NOSIG=
METAR LOWI 110520Z VRB01KT 2500 BR SCT002 BKN004 02/02 Q1020
R08/19//71 NOSIG=
METAR LOWG 110520Z 02002KT 9999 SCT010 BKN095 02/00 Q1020 R17/19//95
NOSIG=
METAR LOWK 110520Z 33004KT 5000 BR FEW002 OVC003 01/01 Q1021
R10L/19//95 TEMPO 4000=

0000006100
823
SAOS32 LOWM 110520
METAR LOXZ 110520Z NIL=

0000040100
824
SANO35 ENMI 110520
METAR ENMS 110520Z VRB06KT 9999 FEW040 SCT080 M09/M18 Q1009 RMK WIND
           412FT VRB04KT=
METAR ENRM 110520Z NIL=
METAR ENRS 110520Z NIL=
METAR ENSK 110520Z NIL=
METAR ENSO 110520Z NIL=
METAR ENST 110520Z 01012G22KT 310V090 CAVOK M07/M16 Q1008 RMK WIND
           300FT VRB12G22KT=
METAR ENVD 110520Z 15003KT 9999 SCT012 BKN018 M06/M09 Q1015=

0000029900
825
FTCY31 LCLK 110530
TAF LCLK 110530Z 1106/1206 30007KT 9999 FEW030
         BECMG 1108/1110 22012KT
         BECMG 1116/1118 32007KT=
TAF LCPH 110530Z 1106/1206 02008KT 9999 SCT030
         BECMG 1107/1109 28011KT
         BECMG 1117/1119 02007KT=
TAF LCNC 110530Z NIL=

0000121300
826
FTNL31 EHDB 110500
TAF EHAM 110506Z 1106/1212 21014KT 7000 -RA BKN008 PROB30 TEMPO
1106/1111 4000 RADZ BKN004 BECMG 1110/1112 32018G28KT 9999 NSW SCT020
SCT040 PROB30 TEMPO 1111/1113 6000 -SHRA FEW020CB BECMG 1112/1114
30014KT BECMG 1121/1124 27005KT BECMG 1203/1206 19005KT 4000 MIFG NSC
PROB30 TEMPO 1205/1210 0800 BCFG BECMG 1210/1212 8000 NSW=
TAF EHBK 110523Z 1106/1212 21010KT CAVOK BECMG 1111/1114 27015G25KT
BKN015 TEMPO 1112/1115 4500 RADZ SCT007 BKN010 BECMG 1115/1117
27005KT CAVOK BECMG 1123/1202 6000 PROB30 TEMPO 1200/1208 4000 MIFG
BR BECMG 1207/1210 16005KT 9999=
TAF EHGG 110519Z 1106/1212 22013KT 4000 DZRA BKN006 PROB30 TEMPO
1106/1113 2500 BKN004 BECMG 1111/1113 30016G26KT 9999 NSW SCT020
PROB40 TEMPO 1112/1115 6000 SHRA SCT020CB BECMG 1115/1118 27012KT
BECMG 1203/1206 24006KT PROB30 1206/1210 4000 MIFG NSC=
TAF EHRD 110506Z 1106/1212 21014KT 7000 -RA BKN008 PROB30 TEMPO
1106/1111 4000 RADZ BKN004 BECMG 1110/1112 32018G28KT 9999 NSW SCT020
SCT040 PROB30 TEMPO 1111/1113 6000 -SHRA FEW020CB BECMG 1112/1114
30014KT BECMG 1121/1124 27005KT BECMG 1203/1206 19005KT 4000 MIFG NSC
PROB30 TEMPO 1205/1210 0800 BCFG BECMG 1210/1212 8000 NSW=

0000050700
827
FTRH31 LDZM 110500
TAF LDDU 110525Z 1106/1206 06006KT 9999 FEW050 TX14/1113Z
TN09/1106Z=
TAF LDPL 110525Z 1106/1206 VRB02KT 9999 SCT015 BKN045 TX14/1113Z
TN09/1106Z
TEMPO 1118/1206 4000 BR BKN012 OVC030=
TAF LDSP 110525Z 1106/1206 VRB02KT 9999 SCT040 TX14/1112Z
TN09/1205Z=
TAF LDZA 110525Z 1106/1206 VRB02KT 0700 FG VV003 TX12/1113Z
TN03/1106Z
PROB30 TEMPO 1106/1108 0300 VV001
BECMG 1108/1110 3000 BR SCT015
BECMG 1110/1112 23006KT CAVOK
BECMG 1202/1204 05006KT=

0000072800
828
SANO39 ENMI 110520
METAR ENNE 110520Z NIL=
METAR ENQR 110520Z AUTO 08008KT 9999NDV -SHRA OVC023/// 03/M02 Q0997
           W///S/=
METAR ENSE 110520Z AUTO 08019KT 9999NDV -SHRA FEW023/// BKN034///
           BKN044/// 02/M03 Q0997 W///S5=
METAR ENQC 110520Z AUTO 06008KT 9999NDV BKN018/// 04/00 Q0996
           W///S4=
METAR ENQA 110520Z AUTO 07009KT 050V120 9999NDV FEW018/// SCT062///
           BKN092/// 03/02 Q0996 W04/S4=
METAR ENHM 110520Z AUTO 26029KT 9999NDV FEW028/// 06/02 Q0998
           W08/S5=
METAR ENVH 110520Z AUTO 30020KT 9999NDV FEW025/// BKN064/// 07/03
           Q1004 W///S4=
METAR ENLA 110520Z AUTO 29022KT 9999NDV FEW029/// 07/01 Q1003
           W///S4=

0000046000
829
SANO32 ENMI 110520
METAR ENAL 110520Z 13005KT 9999 BKN030 M02/M07 Q0998=
METAR ENCN 110520Z 19004KT 9999 FEW030 03/03 Q1000=
METAR ENHD 110520Z AUTO 26022KT 9999NDV SCT019/// BKN048/// 06/03
           Q0998=
METAR ENRO 110520Z AUTO 08007KT 9999NDV NSC M17/M20 Q0998=
METAR ENRY 110508Z 05003KT CAVOK 00/M01 Q0997=
METAR ENSB 110520Z NIL=
METAR ENTC 110520Z NIL=
METAR ENTO 110520Z AUTO VRB02KT 9999NDV OVC110/// 02/01 Q0997=

0000090600
830
FTSP31 LEMM 110500
TAF LEBL 110500Z 1106/1206 33006KT 6000 SCT011 TX15/1112Z
TN08/1106Z TEMPO 1106/1112 34012G22KT PROB40 TEMPO 1106/1108
VRB03KT 4000 BR BKN008 BECMG 1112/1114 07011KT=
TAF LEMD 110500Z 1106/1212 VRB03KT CAVOK TX14/1115Z TN01/1207Z
PROB40 TEMPO 1106/1109 3000 BR SCT008 PROB30 TEMPO 1106/1109
1000 BCFG BKN010=
TAF LEMG 110500Z 1106/1206 30008KT 9999 FEW020 SCT070 TX15/1115Z
TN11/1106Z BECMG 1110/1112 12008KT TEMPO 1106/1118 SCT020
BKN070 TEMPO 1106/1110 3000 BR BKN010 PROB30 TEMPO 1106/1112
5000 RA BKN020 BECMG 1119/1121 30010KT=
TAF LEPA 110500Z 1106/1206 06005KT 9999 FEW015 TX17/1112Z
TN07/1106Z PROB40 TEMPO 1106/1108 4000 BR BKN009 PROB30
TEMPO 1106/1108 1000 BCFG SCT003 TEMPO 1115/1122 RA=
TAF LEVC 110500Z 1106/1206 VRB03KT 6000 BKN025 TX15/1112Z
TN08/1106Z TEMPO 1106/1110 2000 BR BKN014 PROB30 TEMPO 1118/1206
2000 BR BKN014=

0000025700
831
FTRH32 LDZM 110500
TAF LDOS 110525Z 1106/1206 16007KT CAVOK TX11/1113Z TN04/1106Z
PROB40 TEMPO 1120/1201 3000 BR
BECMG 1201/1203 33008KT=
TAF LDZD 110525Z 1106/1206 11006KT 9999 BKN050 TX13/1112Z TN08/1106Z
TEMPO 1123/1206 BKN010=

0000082800
832
FTSP33 LEMM 110500
TAF LEAL 110500Z 1106/1206 06010KT 9999 SCT014 TX16/1113Z
TN08/1106Z TEMPO 1106/1110 VRB04KT 5000 BR BKN010 BECMG
1118/1121 29004KT SCT035=
TAF LEGE 110500Z 1106/1206 VRB03KT 4000 BR BKN018 TX15/1112Z
TN05/1107Z PROB40 TEMPO 1106/1108 0500 FG VV002 BECMG 1108/1110
8000 NSW TEMPO 1106/1118 36008KT=
TAF LEST 110500Z 1106/1206 VRB03KT 7000 NSC TX13/1115Z TN03/1106Z
TEMPO 1106/1109 3000 BR TEMPO 1106/1109 0700 BCFG BECMG
1118/1122 19010KT=
TAF LEVX 110500Z 1106/1206 VRB03KT 7000 NSC TX12/1115Z TN05/1106Z
TEMPO 1106/1110 2000 BR BCFG BKN008 TEMPO 1106/1110 0700
BCFG TEMPO 1106/1110 0350 FG VV001 BECMG 1118/1122 19010KT=
TAF LEZG 110500Z 1106/1206 VRB04KT 2000 BR BKN002 TX08/1115Z
TN04/1106Z TEMPO 1106/1112 0300 FG VV001 PROB40 TEMPO 1118/1206
0500 FG VV002=

0000072000
833
FTSP34 LEMM 110500
TAF LEBB 110500Z 1106/1206 12005KT 9999 SCT015 BKN025 TX14/1115Z
TN06/1106Z PROB40 TEMPO 1106/1112 3000 BR BKN012 PROB30
TEMPO 1200/1206 19015G25KT=
TAF LEJR 110500Z 1106/1206 VRB02KT CAVOK TX18/1114Z TN10/1108Z
PROB30 TEMPO 1106/1109 3000 BR=
TAF LELC 110500Z 1106/1206 06010KT 9999 BKN014 TX15/1112Z
TN08/1106Z BECMG 1118/1121 29004KT SCT035=
TAF LESO 110500Z 1106/1206 VRB03KT 9999 SCT015 BKN025 TX14/1115Z
TN07/1106Z PROB40 TEMPO 1106/1112 3000 BR BKN012 PROB40
TEMPO 1200/1206 19015G25KT=
TAF LEVT 110500Z 1106/1206 VRB03KT 7000 NSC TX12/1115Z TN00/1107Z
TEMPO 1106/1112 3000 BR BKN012 TEMPO 1106/1112 0350 FG VV001
PROB40 TEMPO 1200/1206 0350 FG VV001=

0000004600
834
FTRH33 LDZM 110500
TAF NIL=

00000000