0000010600
055
SACN62 CYYY 110700
METAR CYYY 110700Z 21009KT 15SM BKN080 M05/M08 A3013 RMK AC7 SLP206=

0000013000
056
SACN62 CYVR 110700
METAR CYVR 110700Z 07016KT 3SM +RA BR SCT011 OVC017 06/05 A2949 RMK
 SC4NS4 PRESFR SLP985=

0000011500
057
SACN62 CYXL 110700
METAR CYXL 110700Z 18004KT 4SM -SN BR OVC035 M06/M07 A2936 RMK SC8
 SLP969=

0000013400
058
SACN62 CYXX 110700
METAR CYXX 110700Z 06004KT 3SM +RA FEW015 OVC025 05/ A2951 RMK SF2SC6
 DP 4.2 VIA CYXC SLP993=

0000009100
059
SAAL40 DAMM 110600 CCA
METAR COR DABC 110600Z 22003KT CAVOK 04/01 Q1020=

0000009900
060
SAUK36 EGGY 110650 RRB
METAR EGWU 110650Z 29008KT 9999 FEW025 07/05 Q1014 NOSIG=

0000009100
061
SAAL40 DAMM 110630 CCA
METAR COR DABC 110630Z 14002KT CAVOK 04/01 Q1020=

0000009100
062
SAAL31 DAAA 110600 CCA
METAR COR DABC 110600Z 22003KT CAVOK 04/01 Q1020=

0000009100
063
SAAL31 DAAA 110630 CCA
METAR COR DABC 110630Z 14002KT CAVOK 04/01 Q1020=

0000008700
064
SAAL31 DAAA 110700 RRA
METAR DABC 110700Z 23004KT CAVOK 03/01 Q1021=

0000009500
065
SALC31 TLPL 110700
METAR TLPL 110700Z 08019KT 9999 FEW022 25/21 Q1014 NOSIG=

0000094400
066
FTUS53 KWBC 110706 AAA
TAF AMD
KBRD 110704Z 1107/1206 26004KT 4SM BR OVC010
      TEMPO 1108/1112 3/4SM BR OVC005
     FM111500 29008KT P6SM OVC011
     FM112100 26009KT P6SM SCT015=
KCGI 110705Z 1107/1206 25004KT 4SM BR SCT015 OVC020
      TEMPO 1107/1109 1SM BR OVC015
     FM110900 23006KT P6SM SCT025 BKN150
     FM111300 27010KT P6SM SCT020 BKN150
     FM112100 26008KT P6SM SKC=
KMCW 110705Z 1107/1206 28007KT 2SM BR OVC004
      TEMPO 1107/1108 3/4SM BR OVC003
     FM110900 29008KT 5SM BR OVC009
     FM111000 30011KT P6SM SCT005 BKN035
     FM111600 30015G24KT P6SM BKN100
     FM120000 28009KT P6SM SCT100=
KMHK 110703Z 1107/1206 28005KT P6SM BKN080
     FM110900 29007KT P6SM FEW100
     FM112300 26003KT P6SM SKC=
KPAH 110705Z 1107/1206 20008KT P6SM OVC025
      TEMPO 1107/1110 5SM -RA BR OVC014
     FM111000 26010KT P6SM SCT020 BKN150
     FM112100 26008KT P6SM SKC=

0000114900
067
FTUS80 KWBC 110706 AAA
TAF AMD
KBRD 110704Z 1107/1206 26004KT 4SM BR OVC010
      TEMPO 1108/1112 3/4SM BR OVC005
     FM111500 29008KT P6SM OVC011
     FM112100 26009KT P6SM SCT015=
KCGI 110705Z 1107/1206 25004KT 4SM BR SCT015 OVC020
      TEMPO 1107/1109 1SM BR OVC015
     FM110900 23006KT P6SM SCT025 BKN150
     FM111300 27010KT P6SM SCT020 BKN150
     FM112100 26008KT P6SM SKC=
KDLH 110703Z 1107/1206 26005KT 2SM -FZDZ BR VV002
      TEMPO 1107/1110 1/2SM FZFG OVC001
     FM111000 26004KT 3SM BR OVC002
     FM111500 29009KT P6SM OVC014
     FM112200 29010KT P6SM BKN250=
KMCW 110705Z 1107/1206 28007KT 2SM BR OVC004
      TEMPO 1107/1108 3/4SM BR OVC003
     FM110900 29008KT 5SM BR OVC009
     FM111000 30011KT P6SM SCT005 BKN035
     FM111600 30015G24KT P6SM BKN100
     FM120000 28009KT P6SM SCT100=
KMHK 110703Z 1107/1206 28005KT P6SM BKN080
     FM110900 29007KT P6SM FEW100
     FM112300 26003KT P6SM SKC=
KPAH 110705Z 1107/1206 20008KT P6SM OVC025
      TEMPO 1107/1110 5SM -RA BR OVC014
     FM111000 26010KT P6SM SCT020 BKN150
     FM112100 26008KT P6SM SKC=

0000228600
068
SPUS70 KWBC 110706
SPECI
KDAN 110702Z AUTO 00000KT 1 1/2SM BR OVC005 04/03 A3004 RMK AO2
     RAE0656 P0000=
KEAU 110703Z AUTO 00000KT 3SM -SN BR SCT026 OVC085 M03/M04 A2944
     RMK AO2 P0000 T10331039=
KFIG 110702Z AUTO 02006KT 1/2SM FG VV003 01/01 A2992 RMK AO2
     T00060006=
KGMU 110702Z AUTO 05004KT 9SM SCT004 OVC010 08/07 A3000 RMK AO2
     RAE0656 CIG 007V012 P0000=
KHDO 110702Z AUTO 00000KT 1/4SM FG VV004 07/06 A2993 RMK AO2
     T00670056=
KLAF 110702Z AUTO 20005KT 5SM BR OVC004 06/05 A2956 RMK AO2
     T00560050=
KMCW 110702Z AUTO 28008KT 1 1/2SM BR OVC002 M01/M02 A2950 RMK AO2
     T10111017 TSNO=
KMGJ 110702Z AUTO 00000KT 1 1/4SM -RA BR SCT004 OVC009 01/M01
     A3012 RMK AO2 P0001 T00061006 TSNO=
KOVS 110702Z AUTO 21003KT 1 1/2SM BR OVC005 01/00 A2945 RMK AO2
     T00060000=
KPDK 110702Z AUTO 00000KT 3/4SM BR VV002 08/08 A2994 RMK AO2 LTG
     DSNT S AND SW=
KPSF 110702Z AUTO 00000KT 1/2SM -FZRA FZFG VV002 M01/M01 A3011 RMK
     AO2 P0000=
KSDF 110702Z 00000KT 2 1/2SM +RA BKN007 OVC047 11/10 A2967 RMK AO2
     TSE02 TS DSIPTD P0003 $=
KSLK 110702Z AUTO 00000KT 2 1/2SM BR CLR M04/M05 A2997 RMK AO2=
KTMB 110702Z AUTO 00000KT 3/4SM BR FEW009 SCT020 21/21 A3009 RMK
     AO2=
PACV 110702Z 00000KT 1 3/4SM R27/2400V4500FT BR CLR M05/M06 A2924
     RMK AO2 $=
PASO 110702Z AUTO 00000KT 1 3/4SM -SN BR FEW007 BKN014 OVC021
     M01/M02 A2932 RMK AO2 P0000 TSNO=
KARA 110703Z AUTO 21011KT 2SM VCTS BR OVC003 18/17 A2985 RMK AO2
     LTG DSNT E AND SE TSB0655 $=
KBAF 110703Z 01003KT 1 1/4SM R20/5000VP6000FT -FZRA BR BKN004
     OVC010 00/M01 A3018 RMK AO2 P0001 I1000 T00001011=
KBIS 110703Z 29006KT 10SM BKN012 OVC110 M04/M07 A2960 RMK AO2
     T10441072=
KCRE 110703Z AUTO 18006KT 3SM BR BKN002 OVC030 17/16 A3006 RMK
     AO2=
KHOU 110703Z 23007KT 9SM FEW009 SCT250 18/17 A2986 RMK AO2=
KLCH 110703Z AUTO 25007KT 3/4SM BR VV002 18/18 A2985 RMK AO2 LTG
     DSNT E-S T01780178=
KLFT 110703Z AUTO 22011G19KT 10SM BKN010 OVC022 21/ A2984 RMK AO2
     LTG DSNT E AND SE CIG 007V014 $=
KPHF 110703Z 17004KT 2SM RA BR BKN007 BKN024 OVC042 17/15 A3008
     RMK AO2 P0007 $=
KUIN 110703Z AUTO 29010KT 1/2SM FG VV002 03/02 A2952 RMK AO2
     T00280022=

0000034800
069
FTUS80 KWBC 110718 AAB
TAF AMD
KSTC 110716Z 1107/1206 29006KT 3SM BR SCT002 OVC008
     FM110815 29007KT 1/2SM FZFG VV002
     FM110930 29007KT 6SM BR SCT012
     FM111030 30009KT P6SM SCT200
     FM111200 31010KT P6SM BKN020 BKN040
     FM111800 30009KT P6SM SCT040 SCT250
     FM120000 24006KT P6SM SCT020 BKN100=

0000137500
070
FTUS80 KWBC 110718 AAA
TAF AMD
KALB 110714Z 1107/1206 18004KT P6SM OVC008
      TEMPO 1107/1108 2SM -FZDZ BR OVC006
     FM110800 16006KT 2SM -RA BR OVC008
     FM111100 17010G16KT 1 1/2SM -RA BR OVC007 WS020/19045KT
     FM111500 18012G22KT 1SM -RA BR OVC006 WS020/20050KT
     FM111900 19015G25KT 3/4SM -RA OVC005
     FM120000 22012G22KT 1 1/2SM -RA BR SCT005 OVC009=
KGCC 110716Z 1107/1206 25012KT P6SM SCT030 OVC060
     FM111600 21020G30KT P6SM SCT050 BKN100 AMD NOT SKED=
KISP 110717Z 1107/1206 17006KT 3SM -SHRA BR SCT003 BKN011 OVC060
      WS020/19040KT
     FM110900 16013KT 5SM -RA BR FEW011 OVC060 WS020/19055KT
     FM111400 17017KT 1/2SM -RA FG OVC004 WS015/19060KT
     FM111800 18023G30KT 1/2SM +RA FG OVC004 WS015/19060KT
     FM120400 23012G18KT 3SM -SHRA BR SCT007 OVC030=
KJBR 110716Z 1107/1206 24009KT P6SM SCT030 BKN100
     FM111000 25010KT P6SM SCT020
     FM111400 27012G20KT P6SM SCT025
     FM120000 26007KT P6SM SKC=
KRAP 110717Z 1107/1206 33015G25KT P6SM SCT040 OVC060
     FM111300 25008KT P6SM SCT100 BKN250
     FM112100 15008KT P6SM SCT120=
KSDF 110716Z 1107/1212 19009KT 3SM SHRA BR VCTS BKN012CB OVC035
      TEMPO 1107/1110 2SM SHRA BR BKN007 OVC035
     FM111000 21012G22KT 6SM BR VCSH BKN012
     FM111400 26016G27KT P6SM BKN021
     FM112300 27011KT P6SM SCT010=

0000017900
071
FTFR37 LFPW 110500 AAB
TAF AMD LFJL 110718Z 1107/1206 VRB02KT 7000 NSC TEMPO 1107/1112 2500
-RA BKN040 BECMG 1112/1115 27005KT PROB40 TEMPO 1121/1206 3000 BR=

0000009400
072
SAID32 WIII 110700
METAR WIBB 110700Z 3500KT 9999 SCT015 30/24 Q1007 NOSIG=

0000011900
073
SPUS31 KWBC 110719
SPECI
KATL 110715Z 11006KT 1/4SM R09R/5500VP6000FT -RA BR OVC003 09/09
A2994=

0000010200
074
SPUS42 KWBC 110719
SPECI
KTMB 110714Z AUTO 13003KT 1 3/4SM BR FEW007 22/22 A3008=

00000000