0000045400
975
SAFI33 EFHK 110920
EFJO 110920Z AUTO 36008KT 330V040 8000 -SN FEW017 BKN023 M10/M12
Q0998=
EFLP 110920Z AUTO 36009KT 310V040 9999 BKN013 OVC017 M06/M09 Q0997=
EFMI 110920Z AUTO VRB03KT 5000 -SN OVC013 M08/M09 Q0999=
EFSA 110920Z AUTO 33008KT 300V360 5000 -SN FEW016 OVC023 M08/M10
Q0998=
EFUT 110920Z AUTO 36008KT 330V060 9999 OVC011 M06/M08 Q0998=
EFVR 110920Z AUTO 02008KT 350V060 1500 SN BKN016 OVC021 M08/M11
Q1000=

0000024100
976
SANO36 ENMI 110920
METAR ENBS 110920Z NIL=
METAR ENHK 110920Z NIL=
METAR ENHV 110920Z NIL=
METAR ENLK 110920Z NIL=
METAR ENMH 110920Z NIL=
METAR ENNK 110920Z NIL=
METAR ENNM 110920Z 07015KT CAVOK M10/M16 Q1006=

0000052400
977
SANO38 ENMI 110920
METAR ENDR 110910Z 07024KT 9999 -SHSN BKN018 M04/M08 Q1001=
METAR ENEK 110920Z NIL=
METAR ENGC 110920Z NIL=
METAR ENHE 110920Z 10031KT 9999 BKN019 M03/M08 Q1003 W///S5=
METAR ENOA 110920Z NIL=
METAR ENSL 110920Z 29030KT 9999 VCSH FEW020CB SCT070 06/02 Q1002
           W05/S5=
METAR ENFB 110920Z AUTO 06014KT 9999NDV FEW011/// BKN029/// BKN110///
           02/M01 Q0998 W///S5=
METAR ENSF 110920Z AUTO 06014KT 9999NDV -SHRA BKN016/// 02/M01 Q0998
           W///S5=

0000055700
978
SANO33 ENMI 110920
METAR ENAT 110920Z NIL=
METAR ENBL 110920Z VRB02KT 4000 -SN VV016 M03/M03 Q0995=
METAR ENEV 110920Z AUTO 13009KT 9999NDV NCD M08/M15 Q1016 RMK WIND
           1400FT 10018KT=
METAR ENFL 110920Z NIL=
METAR ENKB 110920Z 10005KT 060V130 9999 FEW021 M06/M10 Q0999=
METAR ENKR 110920Z 16009KT 9999 SCT012 BKN019 M19/M21 Q1017 RMK WIND
           775FT 24012KT=
METAR ENML 110920Z 05006KT 9999 FEW020 BKN035 M04/M09 Q0999=
METAR ENNA 110920Z VRB02KT CAVOK M17/M18 Q1019 RMK WIND 1800FT
           32005KT=

0000027300
979
SANO37 ENMI 110920
METAR ENNO 110920Z NIL=
METAR ENOV 110920Z NIL=
METAR ENSD 110920Z 26005KT 230V330 9999 FEW015 BKN040 M01/M05 Q0997
           RMK WIND 1138FT VRBO2KT=
METAR ENSN 110920Z NIL=
METAR ENSR 110920Z NIL=
METAR ENSS 110920Z NIL=

0000073200
980
SANO31 ENMI 110920
METAR ENAN 110920Z NIL=
METAR ENBR 110920Z 29015G29KT 240V320 9000 SHRA FEW005 FEW012CB
           BKN015 03/02 Q0997 TEMPO 26008KT 4000 SHRA BKN008 SCT015CB
           RMK WIND 1200FT 26025G35KT=
METAR ENBO 110920Z 10017KT 070V130 CAVOK M07/M20 Q1012 TEMPO
           11020G30KT=
METAR ENDU 110920Z VRB01KT 9999 FEW040 M27/M30 Q1018 NOSIG=
METAR ENGM 110920Z 03007KT 9999 -SN FEW008 BKN010 M06/M07 Q0999
           NOSIG=
METAR ENOL 110920Z 11018KT 9999 FEW015 M08/M14 Q1002 NOSIG=
METAR ENVA 110920Z 13006KT CAVOK M14/M17 Q1004 NOSIG RMK WIND 670FT
           12007KT=
METAR ENZV 110920Z 27014KT 9999 -SHRA FEW015CB BKN027 05/03 Q1000
           TEMPO SHRA BKN012CB=

0000013200
981
SPSR31 WSSL 110925
SPECI WSSL 110925Z 36012KT 8000 VCTS FEW012 SCT015TCU FEW017CB 28/26
Q1008 RMK 0830Z Q1008 =

0000011600
982
SPUS42 KWBC 110925
SPECI
KHSV 110921Z AUTO 16003KT 10SM -RA FEW009 SCT023 OVC041 14/14
A2966=

0000010600
983
SPUS43 KWBC 110925
SPECI
KDET 110921Z AUTO 21011KT 2 1/2SM -RA BR OVC005 07/05 A2953=

0000061600
984
SANO32 ENMI 110920
METAR ENAL 110920Z 13008KT 9999 FEW030 M03/M07 Q0998=
METAR ENCN 110920Z 22002KT 9999 VCFG FEW025 SCT050 M00/M01 Q1000=
METAR ENHD 110920Z 26018KT 9999 VCSH SCT021 BKN044 06/03 Q0999=
METAR ENRO 110920Z AUTO 11008KT 090V150 9999NDV -SN FEW008///
           SCT012/// OVC064/// M16/M19 Q0999=
METAR ENRY 110914Z 04003KT 350V090 9999 BKN007 M00/M01 Q0998=
METAR ENSB 110920Z NIL=
METAR ENTC 110920Z VRB02KT 9999 FEW011 M13/M15 Q1018 NOSIG RMK WIND
           2600FT 13011KT=
METAR ENTO 110920Z 36005KT 1400 R18/P2000N R36/P2000N VV002 M01/M01
           Q0998=

0000064000
985
SANO39 ENMI 110920
METAR ENNE 110920Z NIL=
METAR ENQR 110920Z AUTO VRB07KT 9999NDV FEW018/// 02/M03 Q0998
           W///S/=
METAR ENSE 110920Z AUTO 06014KT 9999NDV FEW018/// SCT039/// BKN140///
           01/M02 Q0998 W///S5=
METAR ENQC 110920Z AUTO 02014KT 9999NDV BKN016/// 02/M01 Q0997
           W///S4=
METAR ENQA 110920Z AUTO 03017KT 9999NDV FEW010/// SCT017/// BKN021///
           02/01 Q0997 W04/S4=
METAR ENHM 110920Z NIL=
METAR ENVH 110920Z AUTO 28024KT 9999NDV BKN032/// 06/01 Q1006
           W///S4=
METAR ENLA 110920Z AUTO 28028KT 9999NDV FEW030/// 06/01 Q1004
           W///S4=

0000047600
986
FTCN35 CWAO 110900 AAB
TAF AMD CYTR 110925Z 1109/1206 14010KT 6SM -RA BR SCT004 OVC010 TEMPO
     1109/1112 2SM -RA -DZ BR OVC004
    FM111200 16010G20KT 4SM -RA BR SCT004 OVC010 TEMPO 1112/1122 1SM
     -RA -DZ BR OVC004 PROB30 1115/1122 1/2SM -RA FG VV002
    FM112200 24012KT P6SM -SHRA SCT008 BKN025 TEMPO 1122/1205 2SM
     -SHRA BR BKN008
     BECMG 1200/1202 24015G25KT
    FM120500 26015G25KT P6SM BKN020
    RMK NXT FCST BY 111200Z=

0000019100
987
SANO34 ENMI 110920
METAR ENBN 110920Z NIL=
METAR ENBV 110920Z NIL=
METAR ENFG 110920Z NIL=
METAR ENHF 110920Z NIL=
METAR ENRA 110920Z NIL=
METAR ENSH 110920Z NIL=

0000071300
988
FASN53 ESWI 110700 AAA
ESAA GAMET AMD VALID 110800/111400 ESSA- 
SWEDEN FIR/E BLW FL125 
SECN I 
SFC WSPD: NIL 
SFC VIS: 08/14 3000-5000 M RA 
SIGWX: NIL 
SIG CLD: 08/12 BKN SFC/500 FT AGL 12/14 BKN 500/1000 FT AGL 
ICE: 08/12 MOD 3000FT AGL/ABV FL125 12/14 MOD 2500FT AGL/ABV FL125 
TURB: NIL 
MTW: NIL 
SIGMET APPLICABLE: AT TIME OF ISSUE NIL 
SECN II 
PSYS: SEE SIGNIFICANT WEATHER CHARTS 
WIND/T: 08/11 2000 FT 260/35 KT PS02 FL050 270/35 KT MS02 FL100 
270/35 KT MS10 
11/14 2000 FT 260/30 KT PS01 FL050 270/25 KT MS03 FL100 250/25 KT 
MS11 
CLD: SEE SIGNIFICANT WEATHER CHARTS 
FZLVL: 08/11 3000 FT AGL 11/14 2500 FT AGL 
MNM QNH: 1002 HPA 
VA: NIL

0000014000
989
SANO31 ENMI 110920 CCA
METAR COR ENGM 110920Z 03007KT 9999 -SN FEW008 BKN010 M06/M07 Q0999
               TEMPO BKN015=

0000073200
990
SAGR31 LGAT 110920
METAR LGAD 110920Z VRB03KT 9999 FEW025 BKN080 16/09 Q1023=
METAR LGAV 110920Z 05005KT 9999 FEW020 13/08 Q1023 NOSIG=
METAR LGIR 110920Z 31003KT 9999 FEW025 SCT180 17/11 Q1023 NOSIG=
METAR LGKL 110920Z 00000KT 9999 FEW080 17/09 Q1023=
METAR LGKO 110920Z 20010KT 9999 BKN020 SCT180 16/10 Q1023=
METAR LGKR 110920Z 00000KT 9999 SCT030 SCT070 14/12 Q1023 NOSIG=
METAR LGLM 110920Z 06004KT 6000 SCT010 BKN020 13/10 Q1023=
METAR LGRP 110920Z 00000KT 9999 FEW018 BKN040 15/12 Q1023 NOSIG=
METAR LGSA 110920Z 27018KT 9999 FEW020 BKN170 16/10 Q1022=
METAR LGSM 110920Z 26003KT 9999 FEW020 SCT030 BKN080 15/10 Q1022=
METAR LGTS 110920Z 00000KT 7000 3500SE BR FEW012 10/08 Q1024 NOSIG=

0000082300
991
SAIY31 LIIB 110920
METAR LIEA 110920Z 36003KT CAVOK 10/09 Q1021=
METAR LIEE 110920Z 31002KT 8000 NSC 11/10 Q1021=
METAR LIEO 110920Z VRB01KT 9999 FEW015 09/09 Q1022=
METAR LIMC 110920Z 00000KT 3500 BR SCT030 OVC060 08/07 Q1023 NOSIG=
METAR LIME 110920Z 29002KT 4000 BR BKN040 08/07 Q1023=
METAR LIMF 110920Z VRB01KT 4000 BR BKN030 08/05 Q1023=
METAR LIMJ 110920Z 07003KT 040V120 9999 FEW015 SCT020 BKN040 13/10
Q1022=
METAR LIML 110920Z 00000KT 3000 BR FEW010 BKN050 09/08 Q1023 NOSIG=
METAR LIRA 110915Z 04002KT 8000 FEW010 SCT030 07/07 Q1022=
METAR LIRF 110920Z 07006KT 9000 FEW030 10/08 Q1023 NOSIG=
METAR LIRN 110920Z 05003KT 9999 SCT070 10/07 Q1023=
METAR LIRP 110915Z 09004KT 9999 FEW040 BKN070 09/07 Q1023 NOSIG=
METAR LIRQ 110920Z VRB02KT 8000 FEW008 BKN040 12/11 Q1023=

0000059200
992
SAIY32 LIIB 110920
METAR LIBD 110920Z 00000KT 5000 BR SCT015 11/11 Q1024=
METAR LIBR 110915Z 30003KT 9999 SCT020 11/11 Q1023 NOSIG=
METAR LICC 110920Z NIL=
METAR LICJ 110920Z 20008KT 170V230 CAVOK 17/09 Q1022=
METAR LIPE 110920Z 28003KT 5000 BR BKN050 08/07 Q1023=
METAR LIPH 110915Z /////KT 2500 BR BKN030 BKN060 08/07 Q1023=
METAR LIPQ 110920Z VRB01KT 1500 MIFG SCT010 BKN040 07/06 Q1023=
METAR LIPR 110915Z /////KT 3500 BR BKN040 10/10 Q1022=
METAR LIPX 110915Z 00000KT 2000 BR BKN050 09/07 Q1023=
METAR LIPZ 110920Z 00000KT 3500 BR BKN045 09/07 Q1023=

0000009400
993
SAIY33 LIIB 110920
METAR LIMW 110920Z AUTO VRB01KT 8000 OVC029 03/02 Q1023=

0000009500
994
SAIY32 LIIB 110920 RRA
METAR LICC 110920Z 24003KT 210V270 CAVOK 11/06 Q1024=

00000000