0000032400
975
SAMC31 GMMC 110730
METAR GMME 110730Z 19005KT 5000 SCT020 BKN100 14/10 Q1017 NOSIG=
METAR GMMN 110730Z 19008KT 9999 FEW016 BKN100 11/08 Q1018 NOSIG=
METAR GMTT 110730Z 14004KT 100V160 6000 SCT016 BKN100 13/11 Q1017
NOSIG=
METAR GMAD 110730Z NIL=
METAR GMFF 110730Z NIL=
METAR GMMX 110730Z NIL=

0000009600
976
SAFI34 EFHK 110720 CCA
EFIV 110732Z 24003KT 9999 FEW003 OVC007 M29/M32 Q1017=

0000009500
977
SAEG31 HECA 110730
METAR HECA 110730Z 00000KT 2000 BR NSC 14/09 Q1026 NOSIG=

0000009300
978
SAUK37 EGGY 110720 RRB
METAR EGNJ 110720Z 25004KT 9999 FEW026 05/02 Q1012=

0000013900
979
SPSR31 WSSL 110729
SPECI WSSL 110729Z VRB08KT 6000 2000S +SHRA FEW012 SCT015TCU FEW017CB
30/26 Q1008 RMK 0630Z Q1009 =

0000028800
980
FTUS80 KWBC 110730 AAA
TAF AMD
KSEA 110729Z 1107/1212 18010G20KT 6SM -RA BR BKN022 OVC035
     FM110900 20022G32KT 3SM RA BR OVC016
     FM111300 20018G32KT P6SM -RA OVC025
     FM112000 20024G38KT P6SM -SHRA OVC017
     FM120900 20018G28KT P6SM -SHRA OVC022=

0000183900
981
SPUS70 KWBC 110730
SPECI
KASH 110726Z AUTO 00000KT 1SM UP BR VV002 00/M01 A3022 RMK AO2
     UPB07 P0000=
KAUW 110726Z AUTO 30005KT 1 1/2SM -SN BR SCT006 OVC021 M03/M03
     A2937 RMK AO2 SNB08 P0000 T10281033=
KBRO 110726Z 20005KT 1SM BR VV002 19/18 A2992 RMK AO2=
KEVV 110726Z AUTO 18006KT 10SM -RA BKN012 OVC070 10/09 A2959 RMK
     AO2 PRESFR P0001 T01000089=
KOKB 110726Z AUTO 00000KT 3/4SM BR VV009 06/05 A3010 RMK AO2 TSNO
     $=
KPAH 110726Z AUTO 21009G15KT 10SM BKN011 BKN016 OVC090 11/10 A2960
     RMK AO2 CIG 005V014 T01110100=
KFLD 110726Z AUTO 21007KT 3SM BR OVC002 02/01 A2940 RMK AO2
     T00220011=
PAIG 110726Z AUTO 00000KT 3SM BR OVC003 M08/M09 A2939 RMK AO2 TSNO
     $=
K1M4 110727Z AUTO 22016G29KT 1/2SM +TSRA FG BKN001 BKN009 OVC019
     13/13 A2978 RMK AO2 LTG DSNT ALQDS P0048 PK WND
     26030/0714=
KABY 110727Z 19009KT 2 1/2SM BR OVC004 19/19 A3000 RMK AO2=
KADG 110727Z AUTO 21011KT 2 1/2SM BR OVC002 04/04 A2958 RMK AO2
     RAE23 P0000 TSNO=
KBOS 110727Z 09003KT 1/4SM R04R/2200V2400FT -RA FG VV005 02/01
     A3022 RMK AO2 TWR VIS 1/2 RAB10 P0001=
KGVL 110727Z AUTO 09009KT 1 1/4SM +RA BR OVC002 08/07 A2994 RMK
     AO2 LTG DSNT S AND SW RAB22 P0004=
KHQM 110727Z AUTO 17032G47KT 3SM -SN OVC014 A2958 RMK AO2 PK WND
     17047/0721 UPB0658E00SNE0658B00 P0001 TSNO $=
KIPT 110727Z AUTO 08003KT 2 1/2SM -RA BR SCT004 BKN010 OVC025
     02/01 A3000 RMK AO2 UPE0655RAB02 P0005=
KLBT 110727Z AUTO 16007KT 10SM OVC005 18/17 A3001 RMK AO2
     T01780172=
KLWM 110727Z AUTO 00000KT 3/4SM -RA BR OVC005 02/00 A3023 RMK AO2
     RAB21 P0000 T00170000=
KMHT 110727Z 35003KT 1 1/4SM -FZDZ BR OVC004 M02/M03 A3020 RMK AO2
     TWR VIS 1 1/2 P0001 I1001 T10171028=
KSLK 110728Z AUTO 00000KT 1 3/4SM BR CLR M06/M07 A2995 RMK AO2=

0000011700
982
SPUS31 KWBC 110730
SPECI
KBOS 110727Z 09003KT 1/4SM R04R/2200V2400FT -RA FG VV005 02/01
A3022=

0000010400
983
SPUS41 KWBC 110730
SPECI
KLWM 110727Z AUTO 00000KT 3/4SM -RA BR OVC005 02/00 A3023=

0000009200
984
SPUS42 KWBC 110730
SPECI
KBRO 110726Z 20005KT 1SM BR VV002 19/18 A2992=

0000011100
985
SPUS42 KWBC 110730
SPECI
KTYS 110726Z 00000KT 1/4SM R23R/1600V1800FT FG VV002 07/07 A2983=

0000009800
986
SPUS43 KWBC 110730
SPECI
KGRR 110727Z AUTO 19009KT 4SM BR OVC004 05/04 A2950=

0000010000
987
SPUS43 KWBC 110730
SPECI
KLEX 110726Z 28007KT 10SM VCTS -RA OVC013 12/11 A2966=

0000009600
988
SPUS44 KWBC 110730
SPECI
KHQM 110727Z AUTO 17032G47KT 3SM -SN OVC014 A2958=

0000008400
989
SARM31 LUKK 110730
METAR LUBL 110730Z 27016KT CAVOK 05/M03 Q1018=

0000012500
990
SALI20 GLRB 110730
METAR GLRB 110730Z 34004KT 8000 SCT013  FEW022 CB BKN100 24/23
Q1011 RMK CB-SW, BRVC=

0000011600
991
SAMR20 TFFF 110730
METAR TFFF 110730Z AUTO 06006KT 9999 FEW016/// OVC060/// ///TCU
22/20 Q1015=

0000009800
992
SATU31 LTAA 110720 RRA
METAR LTAZ 110720Z VRB02KT 5000 BR OVC005 M04/M04 Q1025=

0000022400
993
SASQ31 LZIB 110730
METAR LZIB 110730Z 25004KT 9999 BKN045 02/00 Q1020 NOSIG=
METAR LZKZ 110730Z 07001KT 9999 MIFG FEW001 M02/M02 Q1020 NOSIG=
METAR LZTT 110730Z 07004KT 9999 FEW040 M04/M06 Q1018 NOSIG=

0000020200
994
SASQ41 LZIB 110730
METAR LZPP 110730Z 35005KT 9999 FEW040 M02/M04 Q1021=
METAR LZSL 110730Z 00000KT 9999 FEW051 M01/M02 Q1020=
METAR LZZI 110730Z 28004KT 9999 BKN057 01/M01 Q1020=

00000000