0000009400
815
SAUK35 EGGY 110750 RRA
METAR EGKB 110750Z 29009KT 9999 BKN009 06/05 Q1015 =

0000011400
816
SACN52 CWAO 110800
METAR CWSA 110800Z AUTO 24010KT 9SM SCT023 OVC032 02/M01 A3037 RMK
SLP286=

0000014100
817
SACN61 CYPR 110800
METAR CYPR 110800Z AUTO 35008KT 6SM -SN -UP OVC018 01/01 A2891 RMK
 PRESFR PCPN 1.5MM PAST HR SLP789=

0000031000
818
SPUS70 KWBC 110802
SPECI
K1M4 110759Z AUTO 24008G15KT 3SM +VCTSRA BR BKN001 BKN011 OVC027
     14/14 A2975 RMK AO2 BKN V SCT LTG DSNT ALQDS P0000=
KAPF 110759Z 12004KT 8SM SCT002 SCT009 21/21 A3006 RMK AO2=
KRSW 110759Z 15006KT 1 3/4SM BR OVC002 21/21 A3006 RMK AO2
     T02060206=

0000011000
819
SPUS43 KWBC 110802
SPECI
KLEX 110758Z 30008KT 3SM RA BR FEW009 BKN036 OVC044 11/11 A2970=

0000009500
820
SABR31 TBPB 110800
METAR TBPB 110800Z 06020KT 9999 FEW016 24/20 Q1014 NOSIG=

0000008400
821
SAAG41 SARI 110800
METAR SARI 110800Z  05006KT CAVOK 23/23 Q1012=

0000008400
822
SAAG41 SAME 110800
METAR SAME 110800Z  18009KT CAVOK 23/03 Q1016=

0000008400
823
SAAG41 SAZS 110800
METAR SAZS 110800Z  00000KT CAVOK 08/04 Q1022=

0000011900
824
SALI20 GLRB 110800
METAR GLRB 110800Z 00004KT 9000BKNT013  FEW022 CB  25/23
Q1012 RMK CB-SW, BRVC=

0000014400
825
FCTU32 LTAA 110800 RRA
TAF LTBF 110740Z 1109/1118 VRB02KT 2000 BR NSC BECMG 1109/1110 CAVOK
 BECMG 1110/1112 FEW035 SCT100=

0000009700
826
SPCN46 CWAO 110802
SPECI CYBN 110802Z AUTO 14009KT 3SM -RA OVC004 03/03 A2963=

0000027600
827
SACZ31 LKPW 110800
METAR LKKV 110800Z 06002KT 7000 2200N BCFG FEW002 SCT006 M01/M02
Q1016=
METAR LKMT 110800Z 22010KT CAVOK 01/M01 Q1019 NOSIG=
METAR LKPR 110800Z 21010KT CAVOK 01/M01 Q1017 NOSIG=
METAR LKTB 110800Z 03003KT CAVOK 01/M01 Q1020 NOSIG=

0000013000
828
SASR31 WSSS 110800
METAR WSSS 110800Z 03006KT 310V060 8000 -SHRA FEW015CB SCT017TCU
27/25 Q1008 RESHRA NOSIG=

0000047900
829
FTUS31 KWBC 110803 AAA
TAF AMD
KDEN 110802Z 1108/1212 16011KT P6SM FEW090 SCT120
     FM111500 28014G22KT P6SM FEW090 SCT120
     FM111800 29018G30KT P6SM FEW090 SCT120
     FM120000 29014KT P6SM SCT120 SCT180
     FM120400 21012KT P6SM FEW140 SCT200=
KMSY 110800Z 1108/1206 19012KT 6SM BR SCT003 OVC006
      TEMPO 1108/1112 3SM -RA OVC003
     FM111400 25012KT P6SM BKN015
     FM111800 30012KT P6SM SCT250
     FM120000 31007KT P6SM SKC=

0000056600
830
SAYG31 LYBM 110800
METAR LYBE 110800Z 18010KT CAVOK 08/M00 Q1022 NOSIG=
METAR LYBT 110800Z 08003KT 050V110 5000 BR NSC 06/06 Q1023 BECMG 8000
NSW=
METAR LYKV 110800Z VRB01KT 9999 BKN050 04/03 Q1024 NOSIG=
METAR LYNI 110800Z 19003KT 150V220 7000 SCT040 02/02 Q1025 NOSIG=
METAR LYPG 110800Z 00000KT 9999 BKN050 BKN090 08/07 Q1024 NOSIG=
METAR LYPR 110800Z NIL=
METAR LYTV 110800Z VRB01KT 9999 BKN060 10/09 Q1024 NOSIG=
METAR LYUZ 110800Z 23004KT 200V280 9999 SCT020 05/03 Q1023=
METAR LYVR 110800Z VRB02KT CAVOK 07/02 Q1024 NOSIG=

0000011200
831
SACN42 CWAO 110800
METAR CYQD 110800Z 28008KT 15SM -SN OVC011 M07/M08 A2945 RMK ST8
SLP992=

0000010600
832
SACN48 CWAO 110800
METAR CYBX 110800Z 27011KT 15SM BKN080 M10/M14 A2998 RMK AC7 SLP155=

0000033300
833
SAIL31 BICC 110800
METAR BIAR 110800Z VRB04KT 9999 -SN FEW024 BKN038 OVC057 02/M03
    Q0997=
METAR BIEG 110800Z 10025G36KT 5000 -SNRA SCT012 OVC020 01/M00 Q0995
RMK
R04/790136=
METAR BIKF 110800Z 22018KT 9999 FEW045 SCT055 BKN085 00/M02 Q0998=
METAR BIRK 110800Z 20006KT CAVOK 01/M02 Q0998 R01/790140=

0000036100
834
FTUS41 KWBC 110803 AAA
TAF AMD
KALB 110802Z 1108/1206 VRB03KT 5SM BR OVC008
      TEMPO 1108/1110 2SM -RA BR OVC005
     FM111100 17010G16KT 1 1/2SM -RA BR OVC007 WS020/19045KT
     FM111500 18012G22KT 1SM -RA BR OVC006 WS020/20050KT
     FM111900 19015G25KT 3/4SM -RA OVC005
     FM120000 22012G22KT 1 1/2SM -RA BR SCT005 OVC009=

00000000