0000034000
695
SAGL31 BGSF 110650
METAR BGSF 110650Z AUTO 05006KT 9999NDV  BKN140/// M17/M22 Q0995=
METAR BGBW 110653Z NIL=
METAR BGGH 110650Z AUTO 07012KT 9999NDV  NCD M08/M16 Q0993=
METAR BGJN 110650Z AUTO 08006KT 9999NDV  BKN120/// BKN130/// 
M10/M19 Q0994=
METAR BGKK 110650Z AUTO 10008KT 9999NDV  BKN057/// M04/M09 Q0995=

0000008300
696
SABZ19 SBBE 110700
METAR SBBE 110700Z 13003KT CAVOK 24/22 Q1009=

0000008900
697
SATU33 LTAA 110550 RRA
METAR LTAR 110550Z 12003KT CAVOK M06/M08 Q1021=

0000036300
698
SANL31 EHDB 110655
METAR EHAM 110655Z 20013KT 4500 -RADZ FEW007 BKN008 OVC038 05/04
Q1012 TEMPO 5000=
METAR EHBK 110655Z AUTO 20010KT 9999 NSC 04/03 Q1015 NOSIG=
METAR EHGG 110655Z AUTO 21013KT 3100 DZ SCT005/// OVC006/// 05/04
Q1011 REDZ NOSIG=
METAR EHRD 110655Z AUTO 20012KT 170V230 4900 -DZ SCT007 OVC008 05/04
Q1013 TEMPO 6000=

0000011700
699
SASP32 LEMM 110630 RRA
METAR LECO 110630Z VRB02KT 0300 R21/0500N R03/0350N FG VV001
03/03 Q1017=

0000014900
700
FCNO33 ENMI 110500 AAA
TAF AMD ENKB 110654Z 1106/1115 07008KT 9999 FEW010 BKN020 TEMPO
             1106/1115 -SN SCT006 BKN010=

0000037000
701
FTUS41 KWBC 110657 AAA
TAF AMD
KGON 110655Z 1107/1206 VRB04KT 1SM BR OVC003
      TEMPO 1107/1109 1/4SM -RA FG VV002
     FM110900 15005KT 1/2SM -RA FG OVC003 WS020/19050KT
     FM111400 17011KT 3/4SM -RA BR OVC004 WS015/19050KT
     FM111900 18020G30KT 1/2SM RA FG OVC004 WS015/19060KT
     FM120500 23012G18KT 3SM -SHRA BR SCT007 OVC030=

0000037000
702
FTUS71 KWBC 110657 AAA
TAF AMD
KGON 110655Z 1107/1206 VRB04KT 1SM BR OVC003
      TEMPO 1107/1109 1/4SM -RA FG VV002
     FM110900 15005KT 1/2SM -RA FG OVC003 WS020/19050KT
     FM111400 17011KT 3/4SM -RA BR OVC004 WS015/19050KT
     FM111900 18020G30KT 1/2SM RA FG OVC004 WS015/19060KT
     FM120500 23012G18KT 3SM -SHRA BR SCT007 OVC030=

0000011500
703
SAES20 MSLP 110700
METAR MSLP 110650Z 03004KT CAVOK 21/17 Q1012 A2989=
METAR MSSS 110650Z NIL=

0000013100
704
SAOS32 LOWM 110650 RRA
METAR LOXZ 110650Z VRB01KT 8000 FEW002ST SCT080SC BKN240CI M04/M04
Q1020 NOSIG RMK BKN=

0000009900
705
SPCN45 CWAO 110655
SPECI CYCB 110655Z 23008KT 10SM -SN SCT015 BKN060 RMK SC2SC2=

0000008900
706
SPCN42 CWAO 110656
SPECI CYUA 110656Z AUTO 29016KT 9SM CLR M26/ A2972=

0000011100
707
SPCN51 CWAO 110656
SPECI CWCL 110656Z AUTO 11002KT 5SM BKN001 BKN010 OVC022 M03/M07
A2933=

0000012400
708
SALI20 GLRB 110700
METAR GLRB 110700Z 00000KT 9000 SCT013  FEW023 CB BKN100 24/23
Q1011 RMK CB-S, BRVC=

0000012100
709
FCDL35 EDZO 110500 RRA
TAF EDTL 110650Z 1106/1115 21005KT 9999 SCT040 TEMPO 1106/1115 4000
     -RA=

0000008900
710
SABZ22 SBBR 110700
METAR SBBR 110700Z 22003KT 9999 FEW030 20/15 Q1017=

0000026400
711
SANL32 EHDB 110655
METAR EHEH 110655Z AUTO 21006KT 9000 BR OVC007 04/02 Q1014 
GRN 22005KT 8000 OVC007=
METAR EHKD 110655Z AUTO 21018KT 4900 -RA BKN005 OVC006 07/06 Q1010
RERA REDZ 
YLO 22018G28KT 6000 -RA -RADZ SCT005 OVC007 TEMPO 4000=

0000048000
712
SAUK31 EGGY 110650
METAR EGBB 110650Z 28007KT CAVOK 03/02 Q1014=
METAR EGCC 110650Z 23005KT 9999 FEW036 03/02 Q1014=
METAR EGKK 110650Z 29010KT 9999 -RA FEW030 SCT035 BKN041 08/06
    Q1014=
METAR COR EGLL 110650Z 28010KT 9999 SCT045 08/06 Q1014 NOSIG=
METAR EGPF 110650Z NIL=
METAR EGPH 110650Z 24009KT CAVOK 01/M00 Q1010=
METAR EGPK 110650Z 24009KT 9999 -RA FEW018 04/02 Q1012=
METAR EGSS 110650Z 28008KT 9999 FEW022 SCT035 BKN040 06/04 Q1013=

0000048700
713
SAUK32 EGGY 110650
METAR EGAA 110650Z 24009KT 9999 RA BKN005 BKN024 01/01 Q1014=
METAR EGAC 110650Z 20008KT 180V250 9999 -SHRA SCT007 BKN010 02/01
    Q1015=
METAR EGFF 110650Z 29008KT 9000 NSC 03/03 Q1016=
METAR EGGW 110650Z 26011KT 9999 BKN015 06/04 Q1013=
METAR EGLC 110650Z 30011KT 9999 -RA SCT010 BKN020 08/06 Q1014=
METAR EGNM 110650Z 26008KT 220V290 CAVOK 02/02 Q1011=
METAR EGNX 110650Z NIL=
METAR EGPD 110650Z VRB03KT CAVOK 02/M02 Q1006 NOSIG=

0000041200
714
SAUK33 EGGY 110650
METAR EGGD 110650Z 24007KT CAVOK 04/03 Q1016=
METAR EGGP 110650Z 25009KT 9999 FEW024 05/04 Q1014=
METAR EGHI 110650Z VRB02KT 9999 FEW035 05/04 Q1015 =
METAR EGNS 110650Z NIL=
METAR EGNT 110650Z 27011KT 9999 FEW030 02/02 Q1010=
METAR EGNV 110650Z 23008KT CAVOK 02/M00 Q1011=
METAR COR EGPB 110650Z 27021KT 9000 -SHRA FEW013 SCT022 05/03 Q1000
     TEMPO BKN010=

00000000