0000009800
195
SPUS41 KWBC 110821
SPECI
KCAK 110818Z 21010KT 10SM BKN020 OVC030 10/08 A2969=

0000010200
196
SPUS42 KWBC 110821
SPECI
KGPT 110817Z AUTO 18009G16KT 1/2SM FG VV002 17/16 A2987=

0000014000
197
SAAK31 KWBC 110800 RRB
METAR
PAVD 110816Z 10SM OVC100 M08/M11 A2925=
PAWG 110816Z AUTO 34003KT 10SM CLR 02/M02 A2909=

0000012400
198
SAAK32 KWBC 110800 RRA
METAR
PADK 110816Z AUTO 23030G40KT 10SM SCT015 BKN025 OVC043 03/01
     A2866=

0000012900
199
SALT31 EYVI 110820
METAR EYVI 110820Z 27008KT 2600 SNRA BR BKN005 OVC014 00/M00 Q1005
     R20/2/0195 NOSIG=

0000036800
200
SASW31 LSSW 110820
METAR LSZH 110820Z VRB02KT 0400 R14/0550N R16/0550N R28/1400U
    R34/0700D FG VV002 02/01 Q1018 NOSIG=
METAR LSGG 110820Z 00000KT 8000 MIFG FEW015 BKN190 03/02 Q1020
    NOSIG=
METAR LSZB 110820Z 00000KT 4000 VCFG FEW003 BKN130 M00/M00 Q1018
    NOSIG=
METAR LSZA 110820Z 16002KT 9999 SCT039 OVC044 07/06 Q1022 NOSIG=

0000016100
201
FTIY32 LIIB 110500 AAA
TAF AMD LIPY 110500Z 1108/1206 VRB04KT 2000 BR BKN040 TEMPO 1108/1111
 0300 FG BKN005 BECMG 1120/1122 0300 FG BKN005=

0000010100
202
SAIO31 KWBC 110800 RRF
METAR
VRMM 110800Z 07012KT 9000 FEW018 31/24 Q1011 NOSIG=

0000044400
203
SAMG20 FMMI 110800
METAR FIMP 110800Z 09010KT 9999 BKN020 30/25 Q1015=
METAR FIMR 110800Z 10017KT 9999 BKN017 30/24 Q1016=
METAR FJDG 110800Z NIL=
METAR FMCH 110800Z 31006KT 270V010 9999 FEW022 31/24 Q1014 NOSIG=
METAR FMEE 110800Z 09023KT 9999 FEW028 SCT260 31/21 Q1014 NOSIG=
METAR FMCZ 110800Z 08004KT 030V200 9999 SCT022 SCT100 BKN300 31/24
Q1013 NOSIG=
METAR FMEP 110800Z AUTO 27009KT 9999 NCD 29/23 Q1014=

0000039100
204
SAPA31 KWBC 110800 RRC
METAR
AYPY 110800Z 26018KT 9999 TS FEW019 SCT020 OVC130 29/24 Q1005
     RMKS/ CB/DIST TS TO N/NE=
PGSN 110818Z 02011KT 10SM BKN017 BKN026 OVC050 26/24 A2987 RMK
     AO2=
PGUA 110755Z COR 07012KT 10SM FEW021 SCT038 SCT060 25/23 A2987 RMK
     SLP102 COR 110818=
PKWA 110820Z AUTO 06017KT 10SM CLR 28/19 A2978 RMK AO2
     T02780190=

0000013300
205
SAPA31 KWBC 110700 RRH
METAR
PGUA 110655Z COR 04012KT 10SM SCT033 BKN043 26/24 A2986 RMK SLP097
     COR 1815=

0000010300
206
SPPR01 SPIM 110821
SPECI SPIM 110820Z 16009KT 9999 BKN007 BKN1700 21/19 Q1010 NOSIG=

0000008100
207
SAEA20 HKNC 110700 RRE
METAR HKMY 110700Z 11004KT CAVOK 27/11=

0000015300
208
SALV32 EVRA 110820
METAR EVLA 110820Z AUTO 23008KT 9999 OVC014 04/02 Q1004=
METAR EVVA 110820Z AUTO 25009KT 9999 OVC014 02/01 Q1003=

0000010600
209
SACN47 CWAO 110800
METAR CYRJ 110800Z 00000KT 20SM OVC020 M05/M07 A2998 RMK SC8 SLP166=

0000010000
210
SAIS32 LLBG 110820
METAR LLBG 110820Z 19004KT CAVOK 15/11 Q1024 NOSIG RMK FEW060=

0000017400
211
SADN33 EKCH 110820
METAR EKKA 110820Z 22012KT 6000 -RA FEW007 BKN020 07/06 Q1003=
METAR EKSP 110820Z 23014KT 5000 -RA SCT007 BKN010 BKN020 07/06
Q1006=

0000010100
212
SAMT20 GQPP 110800
GQPP 110800Z 02006KT 0600 R02/0600 FG BKN005 16/15 Q1017 NOSIG=

0000013300
213
SPNG31 YBBN 110800
SPECI AYPY 110800Z 26018KT 9999 TS FEW019 SCT020 OVC130 29/24 Q1005
RMKS: CB/DIST TS TO N/NE=

0000008600
214
SASU01 HSSS 110800
HSSS 110800Z 02018KT 8000M SA 19/00 Q1020 N0SIG=

00000000