0000113900
595
SASA31 KWBC 110900
METAR
SEGU 110900Z 2200KT 9999 FEW012 BKN026 25/20 Q1009 RMK A2980
     NOSIG=
SEQU NIL=
SKBO 110900Z VRB02KT 9999 BKN015 10/09 A3026=
SKBQ 110900Z 07006KT CAVOK 24/23 A2983=
SKCG NIL=
SKCL 110900Z 00000KT 9999 FEW020 BKN090 20/19 A2993=
SKLT NIL=
SKRG 110900Z 00000KT 4000 BCFG BKN008 14/13 A3022 RMK BCFG/S/N=
SKSP NIL=
SMNI NIL=
SMZO 110900Z 00000KT 9999 FEW012 SCT025 23/23 Q1012 NOSIG=
SMZY NIL=
SOCA 110900Z AUTO VRB01KT 9999 BKN002 BKN037 BKN072 22/21
     Q1011=
SPIM 110900Z 16010KT 9999 OVC006 21/19 Q1010 NOSIG RMK PP000=
SPQT 110900Z 19003KT 8000 SCT008 OVC100 24/23 Q1009 NOSIG RMK
     PP000=
SPQU 110900Z 36004KT 9999 FEW010 10/09 Q1023 RMK PP000=
SPSO 110900Z /////KT 9999 SCT100 21/18 Q1010 RMK PP000=
SPTN 110900Z 27003KT CAVOK 20/16 Q1009 RMK PP000=
SPYL NIL=
SPZO 110900Z 09004KT 9999 FEW020 SCT040 BKN070 09/07 Q1030 RMK
     PP000=
SVBC 110900Z 00000KT 9999 FEW010 22/21 Q1013=
SVMC 110900Z NIL=
SVMG 110900Z /////KT 9999 SCT010 24/22 Q1013 NOSIG=
SVMI 110900Z 00000KT 9999 FEW016 22/17 Q1013 NOSIG=
SYCJ NIL=
SYTM NIL=

0000109400
596
SASA32 KWBC 110900
METAR
SCAR 110900Z NIL=
SCBA 110900Z AUTO 29008KT CAVOK 07/03 Q1019=
SCCF 110900Z 08010KT CAVOK 07/04 Q1023=
SCCH NIL=
SCCI 110900Z 29015KT 9999 SCT020 OVC100 11/06 Q1006 NOSIG=
SCDA 110900Z 00000KT CAVOK 21/15 Q1011=
SCEL 110900Z 33003KT CAVOK 15/06 Q1012 NOSIG=
SCFA 110900Z 18004KT 9999 FEW015 19/16 Q1011 NOSIG=
SCGE NIL=
SCIE 110900Z 21005KT CAVOK 11/10 Q1013=
SCIP 110900Z 10005KT 9999 FEW020 21/18 Q1020 NOSIG=
SCTE 110900Z 21002KT 9999 FEW007 09/07 Q1022 NOSIG=
SGAS 110900Z 05003KT CAVOK 25/23 Q1009=
SGES 110900Z 17003KT 9999 SCT030 BKN080 24/21 Q1010=
SLCB 110900Z 00000KT 9999 FEW0527 13/09 Q1023=
SLCZ NIL=
SLLP 110900Z 08006KT 4000E VCFG FEW003 SCT200 04/03 Q1035=
SLTJ NIL=
SLTR NIL=
SLVR 110900Z 36004KT 9999 BKN007 BKN200 23/22 Q1010=
SUAA 110900Z 18012G22KT 9999 SCT026 BKN160 20/15 Q1013=
SUCA NIL=
SULS 110900Z 17015KT 9999 OVC015 20/18 Q1012=
SUMU 110900Z 18015G25KT 9999 BKN026 20/16 Q1013 NOSIG=
SUPE NIL=
SURV NIL=
SUSO 110900Z 13005KT 999 TS SCT020 FEW050CB OVC060 21/21 Q1010=

0000019600
597
SASA41 KWBC 110900
METAR
SEMT 110900Z NIL=
SEPA NIL=
SKBG NIL=
SKMD NIL=
SKPE NIL=
SKSM NIL=
SKVG NIL=
SMJP 110900Z 09004KT 9999 FEW008 SCT045 23/22/Q1012 NOSIG=

0000030200
598
SASA42 KWBC 110900
METAR
SCAC NIL=
SCHA NIL=
SCSE 110900Z 06001KT 9999 FEW010 15/13 Q1011=
SCTC NIL=
SCTI NIL=
SCVD NIL=
SELT 110900Z 17004KT 4000 BCFG FEW005 BKN020 11/11 Q1027=
SUAG NIL=
SUDU 110900Z 00000KT 9999 SCT017 BKN200 19/18 Q1011=
SUPU NIL=
SUTB NIL=

0000004200
599
SAVN42 KWBC 110900
NIL=

0000009300
600
SAEA20 HKNC 110800 RRE
METAR HKGA 110800Z 36007KT 9999 SCT027 30/19 Q1014=

0000009300
601
SAAI41 FHAW 110850
METAR FHAW 110850Z 13013KT 9999 FEW018 25/20 Q1014 BLU=

0000012100
602
SACN31 CWAO 110900
METAR CYQQ 110900Z 14023G32KT 1SM RA BR OVC007 07/07 A2918 RMK SF8
PRESFR SLP883=

0000009900
603
SPUS41 KWBC 110907
SPECI
KABE 110903Z 34003KT 3/4SM -RA BR OVC003 03/02 A3001=

0000010900
604
SPUS41 KWBC 110907
SPECI
KCEF 110905Z AUTO 36003KT 1SM R23/4500FT BR OVC002 00/00 A3010=

0000009300
605
SPUS42 KWBC 110907
SPECI
KAUS 110903Z 23004KT 3SM BR FEW150 08/08 A2989=

0000011100
606
SPUS42 KWBC 110907
SPECI
KFTY 110903Z 15004KT 4SM +RA BR SCT005 BKN037 OVC070 11/11 A2986=

0000023900
607
SANZ31 NZKL 110900
METAR NZAA 110900Z AUTO 26009KT 9999 BKN041/// 17/13 Q1018 NOSIG=
METAR NZWN 110900Z AUTO 02014KT 9999 BKN021/// 17/13 Q1015 NOSIG=
METAR NZCH 110900Z AUTO 07017KT 9999 OVC011/// 15/13 Q1011 NOSIG=

0000011700
608
SACN62 CYYZ 110900
METAR CYYZ 110900Z 12007KT 2 1/2SM -RA BR OVC002 04/03 A2963 RMK NS8
 SLP039=

0000011500
609
SACN62 CYQT 110900
METAR CYQT 110900Z 00000KT 2 1/2SM BR OVC020 M04/M05 A2940 RMK SC8
 SLP966=

0000025400
610
FTCN34 CWAO 110900 AAA
TAF AMD CYBR 110905Z 1109/1118 27010KT P6SM SCT005 SCT120 TEMPO
     1109/1113 4SM -SN BR BKN005
    FM111300 29012KT P6SM SCT012 OVC030 TEMPO 1113/1118 4SM -SN BR
     BKN012
    RMK NXT FCST BY 111200Z=

0000016700
611
FCNM40 FYWW 110800
TAF FYGF 110800Z 1109/1118 28006KT CAVOK=
TAF FYOA 110800Z 1109/1118 21006KT CAVOK=
TAF FYWE 110800Z 1109/1118 07010KT CAVOK=

0000024300
612
SARE20 FMEE 110900
METAR FMCZ 110900Z 09006KT 050V120 9999 SCT022 BKN300 31/24 Q1012
NOSIG=
METAR FMEE 110900Z 09023KT 9999 FEW028 BKN260 31/21 Q1014 NOSIG=
METAR FMEP 110900Z AUTO 26007KT 230V290 9999 NCD 30/23 Q1014=

0000011100
613
FCGL31 BGSF 110900
TAF BGBW 110900Z 1109/1118 07008KT 9999 FEW180 TEMPO 1116/1118 
BKN060=

0000043500
614
SAIY33 LIIB 110900
METAR LIMA 110850Z 00000KT 8000 FEW020 BKN030 07/06 Q1022=
METAR LIMG 110850Z 00000KT 9999 SCT040 BKN060 11/09 Q1022=
METAR LIMP 110850Z VRB03KT 0800 R20/1500N FG BKN002 08/08 Q1024=
METAR LIMS 110855Z 12001KT 0800 R30/P1500 R12/1300 FG SCT002 BKN010
      08/08 Q1022=
METAR LIMW 110850Z AUTO 00000KT 8000 OVC029 03/02 Q1023=
METAR LIMZ 110850Z VRB03KT 6000 SCT030 OVC040 07/05 Q1022=

00000000