0000010000
935
SNNO23 ENMI 111700 RRA
AAXX 11171
01180 46/// /1802 11066 21129 30115 40175 52002=
0000010000
936
SNNO24 ENMI 111700 RRA
AAXX 11171
01393 46/// /1001 11160 21179 39212 40062 53004=
0000010000
937
SNNO25 ENMI 111700 RRA
AAXX 11171
01469 46/// /3404 11053 21073 39836 40012 53007=
0000010000
938
SNNO26 ENMI 111700 RRA
AAXX 11171
01476 46/// /0704 10006 21007 39984 49990 52013=
0000367600
939
SSVX02 KARS 111708
ZZYY 41571 11014 1301/ 723274 040423 6113/
22219 00238
33311 88872 20000 32383 43739
444 50101 80011 80104 9/015=
ZZYY 13573 11014 1600/ 735613 018518 6112/
22219 00182
444 20120 11014 1507/ 50101 80117 80006 9/015=
ZZYY 13601 11014 1655/ 726704 035664 6111/
22219 00225
444 20110 11014 1657/ 50101 80108 80025 9/015=
ZZYY 41559 11014 1658/ 723830 036922 6111/
22219 00237
444 50101 80108 80021 9/015=
ZZYY 13657 11014 1655/ 718239 020008 6111/
22219 00231
444 20110 11014 1509/ 50101 80068 80014 9/015=
ZZYY 41669 11014 1656/ 723287 040411 6112/
22219 00240
444 20120 11014 1646/ 50101 80102 80035 9/015=
ZZYY 13574 11014 1631/ 732479 018552 6113/
22219 00000
33311 88872 20000 30000 41500
444 50101 80016 80078 9/015=
ZZYY 13574 11014 1601/ 732480 018551 6113/
22219 00000
33311 88872 20000 30000 41500
444 50101 80017 80078 9/015=
ZZYY 13520 11014 1702/ 735491 029351 6111/
22219 00186
444 20110 11014 1700/ 50101 80102 80008 9/015=
ZZYY 13568 11014 1531/ 729672 017882 6113/
22219 00204
33311 88872 20000 32035 43692
444 50101 80017 80094 9/015=
ZZYY 41974 11014 1655/ 723386 042887 6112/
22219 00239
444 20120 11014 1647/ 50101 80102 80003 9/015=
ZZYY 13654 11014 1655/ 715855 031669 6112/
22219 00249
444 20120 11014 1645/ 50101 80100 80013 9/015=
ZZYY 41624 11014 1657/ 724108 041412 6112/
22219 00241
444 20120 11014 1646/ 50101 80098 80050 9/015=
ZZYY 62724 11014 1600/ 741205 012504 6113/
22219 00143
444 20130 11014 1513/ 50101 80115 80007 9/015=
ZZYY 31708 11014 1656/ 716798 032035 6113/
22219 00237
444 20130 11014 1645/ 50101 80106 80040 9/015=
ZZYY 13590 11014 1653/ 728102 017327 6113/
444 20130 11014 1502/ 50101 80102 9/015=
ZZYY 41934 11014 1655/ 722611 038170 6112/
22219 00239
444 20120 11014 1645/ 50101 80102 80042 9/015=
ZZYY 13524 11014 1654/ 720961 032278 6113/
22219 00236
444 20130 11014 1645/ 50101 80072 80008 9/015=
ZZYY 55566 11014 1700/ 356775 168384 6113/
11119 49807
22219 00059
444 50101 80118 80010 9/015=
ZZYY 55594 11014 1700/ 357736 164078 6113/
11119 49752
22219 00040
444 50101 80118 80010 9/015=
ZZYY 23676 11014 1701/ 116267 114402 6113/
22219 00249
444 50101 80116 80032 9/015=
ZZYY 55593 11014 1700/ 358252 163536 6113/
11119 49728
22219 00045
444 50101 80116 80016 9/015=
ZZYY 14948 11014 1600/ 307059 077564 6113/
11119 40136
22219 00289
444 50101 80120 80012 9/015=
ZZYY 46589 11014 1700/ 752940 167265 6113/
11119 49815
22219 00052
444 50101 80116 80012 9/015=
ZZYY 33558 11014 1703/ 548236 049895 6113/
22219 00089
444 50101 80110 80037 9/015=
ZZYY 33570 11014 1702/ 552132 045138 6113/
22219 00060
444 50101 80110 80024 9/015=
ZZYY 33559 11014 1705/ 549241 045505 6110/
22219 00104
444 2020/ 549241 045505 50101 80112 80018 9/015=
ZZYY 16513 11014 1700/ 343315 064956 6113/
11119 40154
22219 00114
444 50101 80118 80011 9/015=
ZZYY 33566 11014 1702/ 551892 047989 6113/
22219 00048
444 50101 80110 80039 9/015=
ZZYY 22908 11014 1702/ 105326 106247 6113/
22219 00258
444 50101 80112 80032 9/015=
ZZYY 55595 11014 1700/ 357914 164017 6113/
11119 49746
22219 00043
444 50101 80118 80012 9/015=
ZZYY 33569 11014 1702/ 551812 045908 6113/
22219 00057
444 50101 80110 80026 9/015=
ZZYY 55570 11014 1700/ 357950 164376 6113/
11119 49743
22219 00050
444 50101 80118 80012 9/015=
ZZYY 33577 11014 1703/ 548688 051730 6113/
22219 00075
444 50101 80112 80026 9/015=
ZZYY 22925 11014 1705/ 117983 112321 6110/
22219 00235
444 2020/ 117983 112321 50101 80112 80035 9/015=
0000010900
940
UANT01 CWAO 111711
ARP SWR64 4806N03330W 1711 F360 MS52 303/34 KT
HBJHN QXT AOE 111711 J32A
0000014200
941
SNNL51 EHDB 111700 CCA
AAXX 11171
06251 41/74 /2911 10065 20015 30159 40160 51033 7//88
333 91016 91116 91211
555 53000=
0000014500
942
SSVX05 CWAO 111700
ZZYY 48509 11014 1700/ 775531 140979 6113/ 11131 
11203 49854 57017 444 20130 11014 1700/ 50400 80134 80001=
0000015100
943
SSVX05 CWAO 111700
ZZYY 48593 11014 1700/ 771631 176462 6113/ 11119 
40132 57010 22291 01099 444 20130 11014 1700/ 50400 80138 80001=
0000012100
944
SSVX05 CWAO 111700
ZZYY 48524 11014 1700/ 772273 179091 6113/ 444 
20130 11014 1700/ 50400 80140 80001=
0000015100
945
SSVX05 CWAO 111700
ZZYY 48510 11014 1700/ 778965 129443 6113/ 11119 
11288 49859 52006 444 20130 11014 1700/ 50100 80132 80001 9////=
0000105300
946
FTUS31 KWBC 110927 AAA
TAF AMD
KBWI 110924Z 1109/1212 00000KT 3/4SM -RA BR OVC006 WS020/19040KT
      TEMPO 1110/1114 1/4SM FG VV001
     FM111400 VRB04KT 1SM BR OVC006 WS020/20040KT
     FM111700 17007KT 6SM -SHRA OVC008 WS020/20045KT
     FM111900 18011G21KT 3SM SHRA OVC010 WS020/21050KT
     FM112300 24009KT 6SM -SHRA OVC025
     FM120100 26012G20KT 6SM -SHRA OVC035
     FM120200 27009KT P6SM BKN070
     FM120800 28010KT P6SM SCT130=
KIAD 110924Z 1109/1212 VRB03KT 1SM -RA BR BKN004 OVC007
      WS020/19030KT
      TEMPO 1110/1114 1/2SM FG VV002
     FM111400 22004KT 1SM BR OVC004 WS020/20045KT
     FM111700 18009KT 3SM SHRA OVC007 WS020/20050KT
     FM112200 25008KT 6SM -SHRA OVC035
     FM120200 27008KT P6SM BKN090
     FM120700 29010KT P6SM SCT200=
KORD 110926Z 1109/1212 21010KT 4SM -DZ BR VCSH OVC005
      TEMPO 1110/1112 1SM BR MIFG
     FM111200 26010KT P6SM OVC008
     FM111600 27014G22KT P6SM OVC015
     FM112300 27010KT P6SM SCT015
     FM120500 23006KT P6SM SKC=

0000093300
947
FTUS41 KWBC 110927 AAA
TAF AMD
KDAY 110925Z 1109/1206 18012G20KT 5SM -SHRA BR SCT005 OVC017
      TEMPO 1109/1111 2SM -SHRA BR BKN005 OVC012CB
     FM111300 20013KT P6SM OVC008
      TEMPO 1113/1116 20004KT 4SM BR OVC004
     FM111600 24016G26KT P6SM OVC015
     FM112300 25013KT P6SM OVC009
      TEMPO 1202/1206 5SM BR OVC004=
KGSP 110923Z 1109/1206 05005KT 2SM -SHRA BR VCTS OVC005CB
      WS020/21045KT
      TEMPO 1109/1111 1SM +TSRA BR OVC004CB
     FM111100 18007KT 1SM SHRA BR OVC003 WS020/21035KT
     FM111500 20012G19KT 2SM SHRA BR VCTS OVC004CB
     FM111900 22013G22KT 4SM -SHRA BR OVC020
     FM112100 24010KT P6SM BKN040
     FM112300 26010KT P6SM SCT050=
KMDT 110923Z 1109/1206 00000KT 1/2SM DZ FG VV003 WS020/19045KT
     FM111500 17014G24KT 3SM RA BR BKN009 OVC016 WS012/19047KT
     FM112100 26012G21KT 4SM -SHRA BR OVC015
     FM120500 28012KT P6SM OVC030=

0000025300
948
FTUS43 KWBC 110927 AAA
TAF AMD
KMDW 110926Z 1109/1206 21010KT 4SM -DZ BR VCSH OVC005
      TEMPO 1110/1112 1SM BR MIFG
     FM111200 26010KT P6SM OVC008
     FM111600 27014G22KT P6SM OVC015
     FM112300 27010KT P6SM SCT015=

0000121100
949
FTUS71 KWBC 110927 AAA
TAF AMD
KAOO 110923Z 1109/1206 03003KT 1/4SM FG VCSH VV002 WS019/21040KT
     FM111300 17013G27KT 3SM RA BR BKN009 OVC016 WS012/19045KT
     FM112300 26012G21KT 3SM -SHRA BR OVC015
     FM120200 28019KT P6SM OVC030=
KBFD 110923Z 1109/1206 17009G17KT 5SM BR OVC002 WS019/21048KT
      TEMPO 1109/1111 2SM -RA BR OVC002
     FM111100 17014G27KT 2SM RA BR OVC009 WS012/19049KT
     FM120000 27010G18KT 4SM BR OVC003=
KBWI 110924Z 1109/1212 00000KT 3/4SM -RA BR OVC006 WS020/19040KT
      TEMPO 1110/1114 1/4SM FG VV001
     FM111400 VRB04KT 1SM BR OVC006 WS020/20040KT
     FM111700 17007KT 6SM -SHRA OVC008 WS020/20045KT
     FM111900 18011G21KT 3SM SHRA OVC010 WS020/21050KT
     FM112300 24009KT 6SM -SHRA OVC025
     FM120100 26012G20KT 6SM -SHRA OVC035
     FM120200 27009KT P6SM BKN070
     FM120800 28010KT P6SM SCT130=
KDAY 110925Z 1109/1206 18012G20KT 5SM -SHRA BR SCT005 OVC017
      TEMPO 1109/1111 2SM -SHRA BR BKN005 OVC012CB
     FM111300 20013KT P6SM OVC008
      TEMPO 1113/1116 20004KT 4SM BR OVC004
     FM111600 24016G26KT P6SM OVC015
     FM112300 25013KT P6SM OVC009
      TEMPO 1202/1206 5SM BR OVC004=

0000150300
950
FTUS71 KWBC 110927 AAB
TAF AMD
KDCA 110924Z 1109/1206 VRB03KT 3/4SM -RA BR OVC007 WS020/18035KT
      TEMPO 1110/1114 1/2SM FG VV002
     FM111400 20006KT 1 1/2SM BR OVC005 WS020/20045KT
     FM111700 18011KT 6SM -SHRA OVC007 WS020/20045KT
     FM111900 19013G23KT 3SM SHRA SCT007 OVC012 WS020/20050KT
     FM112200 24012G21KT 6SM -SHRA OVC030
     FM120000 27008KT P6SM BKN080=
KGSP 110923Z 1109/1206 05005KT 2SM -SHRA BR VCTS OVC005CB
      WS020/21045KT
      TEMPO 1109/1111 1SM +TSRA BR OVC004CB
     FM111100 18007KT 1SM SHRA BR OVC003 WS020/21035KT
     FM111500 20012G19KT 2SM SHRA BR VCTS OVC004CB
     FM111900 22013G22KT 4SM -SHRA BR OVC020
     FM112100 24010KT P6SM BKN040
     FM112300 26010KT P6SM SCT050=
KIAD 110924Z 1109/1212 VRB03KT 1SM -RA BR BKN004 OVC007
      WS020/19030KT
      TEMPO 1110/1114 1/2SM FG VV002
     FM111400 22004KT 1SM BR OVC004 WS020/20045KT
     FM111700 18009KT 3SM SHRA OVC007 WS020/20050KT
     FM112200 25008KT 6SM -SHRA OVC035
     FM120200 27008KT P6SM BKN090
     FM120700 29010KT P6SM SCT200=
KIPT 110923Z 1109/1206 04007KT 4SM BR BKN012 OVC016 WS020/19045KT
     FM111500 17012G24KT 3SM RA BR BKN009 OVC016 WS012/19045KT
     FM120400 28010KT P6SM OVC025=
KJST 110923Z 1109/1206 18013KT P6SM FEW007 BKN040 BKN070
      WS019/21040KT
      TEMPO 1109/1111 BKN007
     FM111100 17016G32KT 2SM RA BR BKN009 OVC016 WS012/19049KT
     FM112200 25012G21KT 1SM -SHRA BR OVC015=

0000026300
951
FTUS71 KWBC 110927 AAC
TAF AMD
KMDT 110923Z 1109/1206 00000KT 1/2SM DZ FG VV003 WS020/19045KT
     FM111500 17014G24KT 3SM RA BR BKN009 OVC016 WS012/19047KT
     FM112100 26012G21KT 4SM -SHRA BR OVC015
     FM120500 28012KT P6SM OVC030=

0000022400
952
FTUS72 KWBC 110927 AAA
TAF AMD
KTUP 110926Z 1109/1206 27009KT P6SM FEW010 BKN040 OVC080
     FM111200 28005KT P6SM BKN012 OVC100
     FM111500 30012G18KT P6SM SCT200
     FM120100 27003KT P6SM SKC=

0000089700
953
FTUS73 KWBC 110927 AAA
TAF AMD
KGYY 110926Z 1109/1206 21010KT 4SM -RA BR VCSH OVC005
      TEMPO 1110/1112 1SM BR MIFG
     FM111230 26010G15KT P6SM OVC007
     FM111600 26015G25KT P6SM OVC015
     FM112300 27010KT P6SM SCT015=
KMDW 110926Z 1109/1206 21010KT 4SM -DZ BR VCSH OVC005
      TEMPO 1110/1112 1SM BR MIFG
     FM111200 26010KT P6SM OVC008
     FM111600 27014G22KT P6SM OVC015
     FM112300 27010KT P6SM SCT015=
KORD 110926Z 1109/1212 21010KT 4SM -DZ BR VCSH OVC005
      TEMPO 1110/1112 1SM BR MIFG
     FM111200 26010KT P6SM OVC008
     FM111600 27014G22KT P6SM OVC015
     FM112300 27010KT P6SM SCT015
     FM120500 23006KT P6SM SKC=
KRFD 110926Z 1109/1206 26010KT 2SM BR OVC005
      TEMPO 1109/1110 1/2SM FG VV002
     FM111030 27010KT 5SM BR OVC007
     FM111600 27014G22KT P6SM OVC015
     FM112200 27010KT P6SM SCT015=

0000010300
954
SAAG05 SABM 110900 RRC
METAR SAWE 110900Z
32009 KT 9999 FEW013 SCT050 07/06 Q1007=

00000000