0000010000
755
SACN42 CWAO 110700
METAR CYUA 110700Z AUTO 29014KT 9SM CLR M26/ A2972 RMK SLP074=

0000009200
756
SACN52 CWAO 110700
METAR CWYM 110700Z AUTO 26028KT M21/ A2916 RMK SLP948=

0000022400
757
SASQ31 LZIB 110700
METAR LZIB 110700Z VRB02KT 9999 BKN041 01/00 Q1021 NOSIG=
METAR LZKZ 110700Z 26001KT 9999 MIFG FEW003 M03/M03 Q1020 NOSIG=
METAR LZTT 110700Z VRB02KT 9999 FEW040 M04/M07 Q1017 NOSIG=

0000020200
758
SASQ41 LZIB 110700
METAR LZPP 110700Z 00000KT 9999 FEW040 M03/M04 Q1021=
METAR LZSL 110700Z VRB02KT 9999 FEW052 M02/M03 Q1020=
METAR LZZI 110700Z VRB02KT 9999 BKN057 01/M01 Q1020=

0000014700
759
SABU32 LBSM 110700
METAR LBPD 110700Z VRB02MPS CAVOK 05/02 Q1024 NOSIG=
METAR LBGO 110700Z VRB01MPS CAVOK M01/M01 Q1024 NOSIG=

0000010600
760
SACN47 CWAO 110700
METAR CYRJ 110700Z 08003KT 20SM OVC020 M05/M08 A3002 RMK SC8 SLP180=

0000011400
761
SACN51 CWAO 110700
METAR CWCA 110700Z 21010KT 15SM FEW070 M11/M13 A2980 RMK AC1 TR AC
SLP095=

0000012200
762
SACN44 CWAO 110700
METAR CYTH 110700Z 05006KT 10SM -SN BKN017 OVC055 M18/M19 A2949 RMK
SC6SC2 SLP010=

0000009500
763
SAHU31 LHBM 110700
METAR LHBP 110700Z VRB02KT 9999 BKN039 01/01 Q1022 NOSIG=

0000009100
764
SAMF20 TFFR 110700
METAR TFFR 110700Z AUTO VRB02KT 9999 NSC 22/20 Q1016=

0000015000
765
SACN61 CYPQ 110700
METAR CYPQ 110700Z AUTO 09004KT 070V140 4SM -RA BR FEW006 BKN045
 BKN065 OVC110 02/01 A2982 RMK PRESRR SLP106=

0000012300
766
SASR31 WSAP 110700
METAR WSAP 110700Z 01009KT 9999 VCSH 
FEW018CB FEW020TCU SCT020 BKN300 33/24 Q1008=

0000010600
767
SACN61 CYNM 110700
METAR CYNM 110700Z AUTO 17012KT 8SM OVC007 M03/M04 A2974 RMK SLP090=

0000011700
768
SACN61 CYPY 110700
METAR CYPY 110700Z AUTO 31004KT 280V340 9SM FEW029 M20/M22 A2958 RMK
 SLP043=

0000013700
769
SACN61 CYPR 110700
METAR CYPR 110700Z AUTO 35010KT 7SM -RA OVC022 02/01 A2897 RMK PRESFR
 PCPN 1.0MM PAST HR SLP810=

0000009200
770
SACN51 CWAO 110700
METAR CWUP 110700Z AUTO 23012KT M23/ A2922 RMK SLP946=

0000009500
771
SACN51 CWAO 110700
METAR CWLI 110700Z AUTO 26011G17KT M34/ A2954 RMK SLP027=

0000038900
772
SAMC31 GMMC 110700
METAR GMFF 110700Z 000//KT 9999 FEW030 BKN100 11/06 Q1018 NOSIG=
METAR GMME 110700Z 18003KT 5000 SCT020 BKN100 13/10 Q1016 NOSIG=
METAR GMMN 110700Z 19006KT 9999 SCT016 BKN100 11/08 Q1017 NOSIG=
METAR GMMX 110700Z 06002KT 8000 BKN020 10/10 Q1017 NOSIG=
METAR GMTT 110700Z 10006KT 6000 SCT016 BKN100 13/11 Q1016 NOSIG=
METAR GMAD 110700Z NIL=

0000081100
773
SACH10 SCSC 110700
METAR SCFA 110700Z 19007KT 9999 BKN015 20/16 Q1011 NOSIG=
METAR SCAR 110700Z 16005KT 9999 OVC040 22/17 Q1010=
METAR SCBA 110700Z AUTO 30016KT CAVOK 07/03 Q1019=
METAR SCCF 110700Z 09009KT CAVOK 09/05 Q1023=
METAR SCIE 110700Z 20007KT CAVOK 12/09 Q1014=
METAR SCAT 110700Z AUTO 26003KT 9999 // ///013 17/14 Q1012=
METAR SCDA 110700Z 00000KT CAVOK 21/17 Q1011=
METAR SCSE 110700Z 14002KT CAVOK 15/13 Q1010=
METAR SCJO 110700Z NIL=
METAR SCTE 110700Z 18004KT CAVOK 09/07 Q1022 NOSIG=
METAR SCNT 110700Z NIL=
METAR SCCI 110700Z 30014KT 9999 SCT030 OVC080 09/05 Q1007 NOSIG=
METAR SCEL 110700Z 04003KT 340V070 CAVOK 16/06 Q1012 NOSIG=
METAR SCIP 110700Z 11006KT 9999 FEW020 SCT150 22/18 Q1021 NOSIG=
METAR SCPQ 110700Z AUTO 20008KT CAVOK 08/06 Q1022=

0000062400
774
SAHU41 LHBM 110700
METAR LHBC 110645Z 18004KT 7000 BKN083 01/00 Q1023=
METAR LHDC 110645Z 20008KT 9999 BKN040 01/M01 Q1022 NOSIG=
METAR LHKE 110645Z 18001MPS 8000 BKN040 02/M00 Q1022 NOSIG RMK BLU=
METAR LHPA 110645Z 08001MPS 9999 BKN033 04/03 Q1021 NOSIG RMK BLU=
METAR LHPP 110645Z 09003KT 9999 FEW040 BKN083 05/04 Q1022=
METAR LHPR 110645Z /////KT 9999 FEW026 SCT030 BKN083 03/01 Q1020=
METAR LHSM 110645Z 15003KT 1000 BR OVC003 04/04 Q1021 BECMG 1500
     BR=
METAR LHSN 110645Z 20002MPS 9999 BKN047 03/00 Q1022 NOSIG RMK BLU=
METAR LHUD 110645Z 07001KT 3600 MIFG BKN030 02/01 Q1023=

00000000