0000015400
495
SACN61 CYHE 110600
METAR CYHE 110600Z AUTO 12004KT 3SM -RA BR FEW003 BKN007 OVC020 05/05
 A2962 RMK PRESFR PCPN 1.8MM PAST HR SLP032=

0000009900
496
SAUK36 EGGY 110550 RRA
METAR EGVN 110550Z 26005KT 9999 FEW030 05/04 Q1013 NOSIG=

0000054600
497
SPUS70 KWBC 110600
SPECI
KFDY 110556Z AUTO 16014KT 5SM BR SCT004 SCT021 OVC080 05/04 A2964
     RMK AO2=
PAPB 110556Z AUTO 11017KT 10SM FEW009 BKN019 OVC031 02/01 A2896
     RMK AO2 UPE56 P0000 T00170011 TSNO $=
KEWB 110557Z AUTO 00000KT 1/2SM R05/3000V3500FT -RA FG SCT009
     OVC016 04/04 A3024 RMK AO2 P0001 T00440039=
KLCH 110557Z AUTO 22007KT 3/4SM VCTS BR VV002 17/17 A2985 RMK AO2
     LTG DSNT SW T01720172=
KNSE 110552Z AUTO 18012KT 1 1/2SM -RA BR OVC002 20/19 A2996 RMK
     AO2 RAE11B51 P0000 $=

0000014400
498
SACN41 CWAO 110600
METAR CYQH 110600Z 00000KT 20SM BKN030 M08/M10 A2918 RMK SC6 CLIMAT
-5.5 / -9.6 / TR CM / TR MWE SLP928=

0000007600
499
SACN52 CWAO 110600
METAR CWRH 110600Z AUTO 28015KT A2940=

0000012600
500
SACN51 CWAO 110600
METAR CWUW 110600Z AUTO 19006KT 4SM SCT015 SCT051 BKN063 BKN089 M28/
A2917 RMK SLP960=

0000009200
501
SACN51 CWAO 110600
METAR CWIL 110600Z AUTO 19008KT M28/ A2941 RMK SLP970=

0000013200
502
SACN46 CWAO 110600
METAR CYBN 110600Z AUTO 14007KT 1 5/8SM -RA VV003 02/02 A2977 RMK
PCPN 0.5MM PAST HR SLP089=

0000009200
503
SACN51 CWAO 110600
METAR CWLI 110600Z AUTO 27011KT M33/ A2956 RMK SLP031=

0000023700
504
SASQ31 LZIB 110600
METAR LZIB 110600Z 05001KT 9999 BKN044 01/M00 Q1020 NOSIG=
METAR LZKZ 110600Z 05001KT 0600 R01/0700N FZFG FEW001 M04/M04 Q1020
NOSIG=
METAR LZTT 110600Z VRB02KT 9999 FEW040 M03/M06 Q1017 NOSIG=

0000027900
505
FTUS51 KWBC 110600 CCA
TAF COR
KFLO 110556Z 1106/1206 00000KT 1/4SM FG VV002
     FM111500 20012G18KT P6SM VCSH BKN009
      TEMPO 1117/1121 21018G28KT 2SM +SHRA BKN012CB
     FM112200 24014G23KT P6SM VCSH BKN020
     FM120100 26014G24KT P6SM SCT020=

0000023500
506
FTUS53 KWBC 110600 CCA
TAF COR
KJLN 110559Z 1106/1206 26005KT 3SM BR SKC
     FM110730 26009KT P6SM BKN015
     FM111300 26010KT P6SM FEW020
     FM111600 27014G21KT P6SM SKC
     FM112300 26009KT P6SM SKC=

0000033600
507
FTUS52 KWBC 110600 CCA
TAF COR
KPGV 110559Z 1106/1206 17007KT 5SM BR VCSH SCT008 OVC020
      TEMPO 1106/1109 4SM BR BKN008
     FM111400 20015G22KT P6SM VCSH SCT020 BKN035
     FM112000 21016G26KT 3SM -RA VCTS BKN020CB
     FM120200 24010G15KT 5SM BR VCSH SCT015 BKN035 AMD LTD TO CLD
      VIS AND WIND=

0000029800
508
FTUS80 KWBC 110600 AAA
TAF AMD
PADL 110556Z 1106/1206 02008KT P6SM VCSH OVC010
      TEMPO 1106/1110 3SM -SHSN BR OVC005
     FM111200 02012G20KT P6SM SCT020 BKN050 OVC080
     FM112200 02015G25KT 2SM -SN BLSN OVC015 AMD LTD TO CLD VIS
      AND
      WIND 1107/1116=

0000116500
509
FTUS80 KWBC 110600 CCA
TAF COR
KCLT 110558Z 1106/1206 04005KT 2SM -SHRA BR OVC002
      TEMPO 1107/1111 1SM -SHRA BR
     FM111100 18010KT 1SM SHRA BR OVC002 WS020/25040KT
     FM111700 20015G26KT 2SM SHRA BR VCTS OVC004CB
     FM112000 25013G21KT 4SM -SHRA OVC008
     FM112300 24009KT P6SM SCT030 BKN250
     FM120400 28009KT P6SM SCT250=
KFLO 110556Z 1106/1206 00000KT 1/4SM FG VV002
     FM111500 20012G18KT P6SM VCSH BKN009
      TEMPO 1117/1121 21018G28KT 2SM +SHRA BKN012CB
     FM112200 24014G23KT P6SM VCSH BKN020
     FM120100 26014G24KT P6SM SCT020=
KJLN 110559Z 1106/1206 26005KT 3SM BR SKC
     FM110730 26009KT P6SM BKN015
     FM111300 26010KT P6SM FEW020
     FM111600 27014G21KT P6SM SKC
     FM112300 26009KT P6SM SKC=
KPGV 110559Z 1106/1206 17007KT 5SM BR VCSH SCT008 OVC020
      TEMPO 1106/1109 4SM BR BKN008
     FM111400 20015G22KT P6SM VCSH SCT020 BKN035
     FM112000 21016G26KT 3SM -RA VCTS BKN020CB
     FM120200 24010G15KT 5SM BR VCSH SCT015 BKN035 AMD LTD TO CLD
      VIS AND WIND=
KSTJ 110557Z 1106/1206 27005KT P6SM SCT009 OVC022
     FM110800 26010KT P6SM SCT150=

0000011200
510
SPUS42 KWBC 110600
SPECI
KTYS 110556Z 07004KT 1/2SM R23R/3000VP6000FT FG VV003 08/07 A2989=

0000019600
511
SASQ41 LZIB 110600
METAR LZPP 110600Z 00000KT CAVOK M03/M05 Q1021=
METAR LZSL 110600Z 19005KT 9999 FEW018 M02/M03 Q1019=
METAR LZZI 110600Z 30004KT 9999 BKN057 01/M01 Q1019=

0000009500
512
SAHU31 LHBM 110600
METAR LHBP 110600Z VRB02KT 9999 BKN042 01/01 Q1022 NOSIG=

0000011300
513
SABZ24 SBCT 110600
METAR SBCT 110600Z 26006KT 9999 TS FEW010 FEW030CB
SCT050 19/18 Q1017
=

0000026200
514
SABU31 LBSM 110600
METAR LBSF 110600Z 00000MPS 1000 0200W R27/P2000N FZFG FEW001 SCT003
    M06/M06 Q1024 TEMPO 0700 FZFG SCT004=
METAR LBWN 110600Z VRB01MPS CAVOK 01/M01 Q1022 NOSIG=
METAR LBBG 110600Z 25002MPS CAVOK 00/M00 Q1023 NOSIG=

00000000