0000027000
455
SATS32 DTTA 110530
METAR DTMB 110530Z 16006KT CAVOK 10/06 Q1018 NOSIG=
METAR DTNH 110530Z AUTO 21003KT 190V260 CAVOK 05/04 Q1018=
METAR DTTA 110530Z 19003KT 4000 BR SCT010 08/07 Q1018 NOSIG=
METAR DTTJ 110530Z 16006KT 6000 NSC 09/07 Q1019 NOSIG=

0000027000
456
SATS40 DTTA 110530
METAR DTMB 110530Z 16006KT CAVOK 10/06 Q1018 NOSIG=
METAR DTNH 110530Z AUTO 21003KT 190V260 CAVOK 05/04 Q1018=
METAR DTTA 110530Z 19003KT 4000 BR SCT010 08/07 Q1018 NOSIG=
METAR DTTJ 110530Z 16006KT 6000 NSC 09/07 Q1019 NOSIG=

0000010400
457
SPAU32 AMMC 110534
SPECI YBMA 110534Z AUTO 15019KT 6000 // BKN098 BKN115 35/15 Q1008=

0000066400
458
SAIR31 OIII 110530
METAR OIAW 110530Z 10008KT 7000 FEW030CB SCT030 OVC090 12/10
Q1019=
METAR OIFM 110530Z 00000KT 0400 FG FEW040 BKN100 M04/M04 Q1021
      A3016=
METAR OIII 110530Z 22004KT 8000 FEW040 SCT100 BKN200 03/M05 Q1022
 A3018 TEMPO FEW035CB SCT030 BKN100=
METAR OIKB 110530Z 05004KT 7000 RA FEW025CB SCT030 OVC090 13/09
Q1023 A3022=
METAR OIKK 110530Z NIL=
METAR OIMM 110530Z 00000KT 9999 FEW035 BKN190 06/M10 Q1022 A3019=
METAR OISS 110530Z 00000KT 2500 BR FEW030CB FEW035 OVC080 02/01
Q1024 A3024=
METAR OITT 110530Z 07006KT 6000 NSC M10/M14 Q1022 A3020=
METAR OIZH 110530Z 23004KT CAVOK 02/M04 Q1025 A3027=

0000051400
459
SAIR32 OIII 110530
METAR OIAA 110530Z 12004KT 2500 BR SCT040 BKN100 13/12 Q1018=
METAR OIBK 110530Z 06014KT 5000 -RA FEW030CB SCT025 OVC080 13/09
Q1022=
METAR OICC 110530Z 11008KT 2000 -SN FEW035CB SCT040 OVC070
 M01/M03 Q1019 A3012 TEMPO SN=
METAR OIGG 110530Z VRB02KT 2500 BR FEW015CB BKN025
BKN090 02/02 Q1018=
METAR OIIE 110530Z NIL=
METAR OITR 110530Z 27004KT 2000 BR SCT035 BKN140 M11/M13 Q1021=
METAR OIYY 110530Z NIL=
METAR OAKN 110530Z NIL=
METAR OAKB 110530Z NIL=

0000011700
460
SAHK31 VHHH 110530
METAR VHHH 110530Z 10011KT 080V190 9999 FEW035 21/11 Q1022 WS 
ALL RWY NOSIG=

0000052900
461
SABY31 UMMN 110530
METAR UMBB 110530Z 27008G13MPS 9999 OVC024CB 05/01 Q1010 R29/290050
NOSIG=
METAR UMGG 110530Z 28012G16MPS 9999 BKN025CB BKN100 04/00 Q1000
R28/290250 NOSIG=
METAR UMII 110530Z NIL=
METAR UMMG 110530Z 29006G09MPS 9999 BKN011 OVC066 03/01 Q1006
R35/290060 NOSIG=
METAR UMMM 110530Z 29007G12MPS 6000 -SHRASN BKN017CB BKN100 02/M02
Q1001 R30/190060 NOSIG RMK QFE732 =
METAR UMMS 110530Z 30007G12MPS 270V330 9999 BKN019 02/M01
Q1000 R31/290060 NOSIG=
METAR UMOO 110530Z NIL=

0000110600
462
SPUS70 KWBC 110534
SPECI
KLWC 110530Z AUTO 28007KT 6SM -RA BR OVC009 02/01 A2965 RMK AO2
     RAB07 P0001 T00220006=
KPTW 110530Z AUTO 00000KT 2SM +RA BR OVC003 02/02 A3015 RMK AO2
     P0006 T00170017=
KRST 110530Z AUTO 29007KT 3SM BR BKN004 OVC008 M02/M03 A2948 RMK
     AO2 UPB0458E04SNE0458 CIG 003V007 P0000 T10171033=
PABA 110530Z AUTO 28026G33KT 1/4SM +SN FZFG FEW004 OVC008 M24/M27
     A2978 RMK AO2 PK WND 28033/0527 CIG 006V010 P0000 FZRANO=
KARR 110531Z 19008KT 2SM BR OVC004 A2951 RMK AO2 RAE22 P0004 $=
KAWM 110531Z AUTO 22012G20KT 4SM -RA BR FEW006 BKN029 OVC036 14/13
     A2968 RMK AO2 LTG DSNT E P0015=
KBKV 110531Z AUTO 00000KT 1 3/4SM BR CLR 18/17 A3009 RMK AO2
     T01780172=
KDUJ 110531Z AUTO 13009KT 2 1/2SM BR OVC004 03/02 A2990 RMK
     AO2=
KHBG 110531Z AUTO 18011KT 10SM OVC005 19/18 A2987 RMK AO2
     RAB0457E07 P0000 T01890178=
KIND 110531Z 16009KT 3SM -RA BR BKN004 BKN008 OVC014 04/04 A2961
     RMK AO2 P0003 $=
KUUU 110531Z AUTO 18004KT 1SM -RA BR FEW002 BKN007 OVC014 07/07
     A3025 RMK AO2 P0000 T00670067=

0000010100
463
SAUK37 EGGY 110520 RRA
METAR EGPI 110520Z AUTO 31012KT 9999 FEW043/// 05/01 Q1010=

0000010000
464
SAUK38 EGGY 110520 RRA
METAR EGPU 110520Z AUTO 32011KT 9999 NCD 03/00 Q1009 RERA=

0000037000
465
FABU31 LBSM 110600
LBSR GAMET VALID 110600/111200 LBSR-
LBSR SOFIA FIR/1 BLW FL150
SECN I
SFC VIS: 800M FG W OF E024
MT OBSC: PARTIALLY
SECN II
PSYS: 06 H1025
WIND/T:  2000 FT NIL MPS NIL
 5000 FT 310/03 MPS PS03
10000 FT 280/11 MPS MS05
CLD: SCT ST/SC/AC 1000/12000 FT AGL
FZLVL:  7000 FT AMSL
MNM QNH:  1020 HPA
VA: NIL
=

0000010200
466
SANO38 ENMI 110520 RRA
METAR ENHE 110520Z 10032KT 9999 BKN031 M02/M08 Q1002 W///S5=

0000027300
467
FCNO38 ENMI 110500
TAF ENEK 110500Z 1106/1115 31022KT 9999 FEW020 SCT050=
TAF ENSL 110500Z NIL=
TAF ENNE 110500Z NIL=
TAF ENHM 110500Z NIL=
TAF ENHE 110500Z 1106/1115 09030KT 9999 FEW015 BKN030 PROB30 TEMPO
         1106/1115 2000 -SHSN BKN009=

0000023100
468
FCNO35 ENMI 110500
TAF ENRM 110500Z NIL=
TAF ENSO 110500Z NIL=
TAF ENVD 110500Z 1106/1112 02008KT 9999 FEW010 BKN030 TEMPO 1106/1109
         2000 SHSN VV008=
TAF ENNO 110500Z NIL=
TAF ENSN 110500Z NIL=

0000018400
469
FTSA32 KWBC 110536
TAF
TAF SCTE 110356Z 1106/1206 VRB02KT CAVOK TN06/1109Z TX23/1120Z
      BECMG 1109/1111 19005KT SCT025
      BECMG 1114/1116 16008KT CAVOK=

0000137800
470
FTUS51 KWBC 110536
TAF
KBLF 110533Z 1106/1206 17008G16KT P6SM OVC008
     FM111000 18015G25KT P6SM OVC025
     FM111600 24015G25KT 4SM SHRA OVC020
     FM111900 28015G24KT P6SM -SHRA OVC015
     FM112300 29015G25KT P6SM OVC030=
KDAN 110533Z 1106/1206 00000KT 4SM -RA BR OVC004 WS015/20030KT
     FM111200 14004KT 4SM -RA BR OVC007 WS015/20035KT
     FM111700 19009G22KT 6SM SHRA BR OVC020
     FM112200 27012G23KT P6SM -SHRA OVC045
     FM120000 28013G25KT P6SM SCT120=
KISP 110533Z 1106/1206 VRB04KT 1/2SM -SHRA FG OVC003 WS020/19040KT
      TEMPO 1106/1109 1/4SM -RA FG VV002
     FM110900 15013KT 3/4SM -RA BR OVC004 WS020/19055KT
     FM111400 17017KT 1/2SM -RA FG OVC004 WS015/19060KT
     FM111800 18023G30KT 1/2SM +RA FG OVC004 WS015/19060KT
     FM120400 23012G18KT 3SM -SHRA BR SCT007 OVC030=
KLWB 110533Z 1106/1206 04003KT 4SM BR OVC009 WS020/20030KT
     FM111000 05006KT 5SM -DZ BR OVC013 WS020/20040KT
     FM111600 20009KT 4SM SHRA BR OVC015
     FM111900 26009G20KT 6SM -SHRA BR OVC015
     FM112300 28011G22KT P6SM OVC050=
KLYH 110533Z 1106/1206 00000KT 2SM -DZ BR OVC004 WS018/18035KT
      TEMPO 1106/1108 1/2SM FG
     FM111100 14003KT 4SM -RA BR OVC007 WS015/20035KT
     FM111700 18008KT 6SM SHRA OVC014
     FM112200 26010G20KT P6SM -SHRA OVC045
     FM120100 27012G25KT P6SM SCT040=

0000029500
471
FTUS51 KWBC 110536 RRA
TAF
KROA 110533Z 1106/1206 00000KT 3SM -DZ BR OVC004 WS019/20035KT
     FM111200 15006KT 6SM -DZ BR OVC009 WS020/20035KT
     FM111600 16009KT 5SM -SHRA BR OVC012
     FM112200 27011G23KT P6SM -SHRA OVC030
     FM120100 29015G30KT P6SM SCT045=

0000131700
472
FTUS52 KWBC 110536
TAF
KAHN 110534Z 1106/1206 09004KT 1SM -RADZ BR OVC003
      TEMPO 1106/1110 1/2SM -DZ FG OVC002
     FM111200 15006KT 2SM -SHRA BR OVC004
     FM111500 20009KT 3SM -SHRA BR OVC007
     FM111900 27010G18KT P6SM BKN025
     FM112200 29012G20KT P6SM SCT040
     FM120100 28011KT P6SM SCT250=
KBCB 110533Z 1106/1206 00000KT 1/4SM FG OVC002 WS015/18035KT
      TEMPO 1107/1109 3/4SM -DZ BR OVC003
     FM111200 VRB03KT 2SM -DZ BR OVC006 WS015/20035KT
     FM111800 18008KT 5SM SHRA BR OVC012
     FM112100 26009G18KT P6SM -SHRA OVC030
     FM112300 29014G26KT P6SM SCT100=
KCSG 110534Z 1106/1206 09005KT 1/2SM -RADZ FG OVC002
     FM110900 15006KT 3SM -SHRA BR OVC004
     FM111500 22010G17KT 4SM -SHRA BR OVC007
     FM111800 25011G18KT 5SM -SHRA BR BKN025 PROB30 1118/1121 2SM
      TSRA BR BKN010CB
     FM112100 28012G20KT P6SM BKN050
     FM120000 30012KT P6SM SCT050=
KHOT 110535Z 1106/1206 29007KT P6SM SCT015 BKN070 WS020/21040KT
      TEMPO 1106/1107 -RA
     FM110900 29004KT P6SM SCT080 WS020/23035KT
     FM111500 29010KT P6SM SCT250
     FM120000 28004KT P6SM SKC=
KHRO 110535Z 1106/1206 28005KT P6SM FEW025 FEW250
      TEMPO 1110/1114 BKN025
     FM111500 27010G18KT P6SM SCT250
     FM120000 28004KT P6SM SKC=

0000060800
473
FTUS52 KWBC 110536 RRA
TAF
KMCN 110534Z 1106/1206 VRB03KT 1/4SM -RADZ FG OVC002
     FM110900 15006KT 1SM -SHRA BR OVC004
     FM111400 20010G17KT 2SM -SHRA BR OVC007
     FM111800 24011G18KT 4SM -SHRA BR BKN025 PROB30 1118/1121 2SM
      TSRA BR BKN010CB
     FM112200 28012G20KT P6SM BKN050
     FM120000 30012KT P6SM SCT050=
KPBF 110535Z 1106/1206 26010KT P6SM SCT010 BKN025 WS020/20043KT
      TEMPO 1106/1109 5SM -RA BR BKN010 OVC025
     FM110900 27010G18KT P6SM BKN100 BKN250 WS020/20040KT
     FM111500 28012G20KT P6SM SCT250
     FM120000 27006KT P6SM SKC=

0000132900
474
FTUS53 KWBC 110536
TAF
KALO 110533Z 1106/1206 30005KT 4SM BR OVC005
     FM110900 28009KT 6SM BR SCT010 BKN028
     FM111200 30011KT P6SM SCT040
     FM111700 30014G20KT P6SM BKN080
     FM120000 27008KT P6SM SCT100=
KAXN 110533Z 1106/1206 24004KT 3SM BR SCT002
      TEMPO 1106/1109 1/4SM FZFG VV002
     FM110900 27006KT P6SM SCT200
     FM111100 31010KT P6SM SCT025 BKN040
     FM111800 29009KT P6SM SCT040 SCT250
     FM120000 23006KT P6SM SCT020 BKN100=
KBRL 110534Z 1106/1206 25005KT 6SM BR OVC004
      TEMPO 1106/1108 4SM BR
     FM110800 28007KT P6SM BKN006 OVC015
     FM111600 28012KT P6SM SCT015
     FM120000 26006KT P6SM SKC=
KCID 110534Z 1106/1206 28009KT 4SM BR OVC004
     FM110800 29011KT 6SM BR BKN006 OVC015
     FM111500 26008KT P6SM SCT010
     FM111800 30013KT P6SM BKN018
     FM112300 26006KT P6SM SKC=
KDBQ 110534Z 1106/1206 23005KT 1/4SM -DZ FG VV002
      TEMPO 1106/1108 2SM BR OVC003
     FM110800 28011KT 4SM BR OVC004
     FM111000 27007KT 6SM BR BKN006 OVC015
     FM111600 29012KT P6SM SCT018
      TEMPO 1117/1121 BKN018
     FM120000 26006KT P6SM SKC=
KDPA 110533Z 1106/1206 20012KT 1 1/2SM -DZ BR OVC003
     FM111030 26008KT P6SM OVC007
     FM111600 27014G22KT P6SM OVC015
     FM112300 27010KT P6SM SCT015=

00000000