0000092800
715
SAFR35 LFPW 110530
METAR LFMI 110530Z AUTO 08006KT 9999 FEW026 OVC040 11/07 Q1019=
METAR LFMK 110530Z AUTO 14004KT 090V190 9999 OVC016 10/08 Q1019=
METAR LFOV 110530Z AUTO 34004KT 0100 FG VV/// 05/05 Q1016=
METAR LFRD 110530Z AUTO 22004KT 0150 R35/0650U FG VV/// 03/03 Q1016=
METAR LFRI 110530Z AUTO 00000KT 1400 R28///// BR FEW003 08/07 Q1016=
METAR LFRM 110530Z AUTO 00000KT 4600 BR BKN043 BKN074 06/05 Q1016=
METAR LFRN 110530Z AUTO VRB01KT 0750 R28///// FG OVC002 07/07 Q1016=
METAR LFRO 110530Z AUTO 24009KT 9999 FEW018 BKN041 BKN048 08/07
Q1016=
METAR LFRV 110530Z AUTO 34006KT 0200 FG VV/// 06/05 Q1016=
METAR LFRZ 110530Z AUTO 34003KT 310V010 5000 BR OVC005 08/08 Q1016=
METAR LFSB 110530Z 15005KT CAVOK 04/03 Q1017 NOSIG=
METAR LFST 110530Z AUTO 00000KT 7000 BKN003/// BKN043/// BKN066///
///TCU 01/01 Q1017=
METAR LFTH 110530Z AUTO 01003KT 9999 BKN027 OVC033 12/09 Q1020=

0000076500
716
SAFR36 LFPW 110530
METAR LFBA 110530Z AUTO 08002KT 7000 OVC014 08/07 Q1018=
METAR LFBE 110530Z AUTO 09003KT 5000 BR OVC014 06/06 Q1018=
METAR LFGJ 110530Z AUTO VRB02KT 8000 NSC 03/02 Q1016=
METAR LFJR 110530Z AUTO 00000KT 0150 R26/0550N FG VV/// 06/06 Q1016=
METAR LFMD 110530Z AUTO 02004KT 350V050 9999 OVC042 10/07 Q1020=
METAR LFMH 110530Z 16010KT CAVOK 07/03 Q1016 NOSIG=
METAR LFOT 110530Z VRB01KT 4000 BR BKN003 BKN120 06/05 Q1016 NOSIG=
METAR LFPN 110530Z AUTO 34003KT 1800 BR FEW002 OVC052 06/06 Q1015=
METAR LFRC 110530Z AUTO 20007KT 6000 SCT006 SCT010 BKN037 07/07
Q1015=
METAR LFRG 110530Z AUTO 20006KT 4800 BR SCT011 SCT019 OVC150 06/05
Q1015=
METAR LFRK 110530Z AUTO 18003KT 0800 R31/1700U FG NSC 04/04 Q1016=

0000072300
717
SAFR37 LFPW 110530
METAR LFAQ 110530Z AUTO 19005KT 1700 BR OVC002 04/04 Q1015=
METAR LFAT 110530Z AUTO 16003KT 110V190 4200 BR OVC009 05/04 Q1015=
METAR LFLN 110530Z AUTO 16002KT 4000 BR NSC 03/02 Q1016=
METAR LFPM 110530Z AUTO VRB02KT 4300 BR BKN003/// ///TCU 05/04
Q1016=
METAR LFPT 110530Z AUTO 00000KT 0900 R05///// FG VV/// 05/05 Q1016=
METAR LFRH 110530Z AUTO VRB02KT 0200 0150 R25/0650D R07/0700U FG
VV/// 06/06 Q1017=
METAR LFRQ 110530Z AUTO 00000KT 5000 BR OVC043 07/06 Q1017=
METAR LFRT 110530Z AUTO 25006KT 9999 FEW049 07/06 Q1016=
METAR LFSD 110530Z AUTO 00000KT 9999 OVC006 03/02 Q1016=
METAR LFTW 110530Z AUTO 09003KT 9999 OVC024 10/06 Q1020=
METAR LFBU 110530Z NIL=

0000011700
718
SPUS41 KWBC 110543
SPECI
KCEF 110540Z AUTO 30002KT 3/4SM R23/2800FT -RA BR OVC002 00/00
A3022=

0000011000
719
SPUS41 KWBC 110543
SPECI
KWRI 110540Z AUTO 03001KT 1/2SM R06/1400FT FG VV002 04/04 A3014=

0000009200
720
SPUS43 KWBC 110543
SPECI
KOMA 110539Z 31003KT 3SM BR CLR M03/M04 A2962=

0000010600
721
SPCN51 CWAO 110543
SPECI CWUW 110543Z AUTO 19006KT 7SM BKN014 BKN051 BKN063 M28/ A2916=

0000142500
722
SPUS70 KWBC 110550
SPECI
KFWN 110546Z AUTO 00000KT 1 1/4SM UP BR OVC005 00/00 A3016 RMK AO2
     P0002 T00000000=
KHKA 110546Z AUTO 22012KT 8SM RA FEW011 BKN034 OVC070 11/11 A2967
     RMK AO2 P0009=
KMEM 110546Z 25010G18KT 1 1/2SM R36L/4500VP6000FT +RA BR SCT006
     OVC012 14/13 A2969 RMK AO2 SCT V BKN P0027 $=
KMIC 110546Z 27005KT 3SM BR OVC004 M01/M02 A2947 RMK AO2=
KTAN 110546Z AUTO 00000KT 1 1/4SM -RA BR FEW001 BKN010 OVC022
     03/01 A3025 RMK AO2 P0002=
KADG 110547Z AUTO 20010KT 2SM -RA BR OVC002 04/04 A2963 RMK AO2
     P0000 TSNO=
KANB 110547Z AUTO 02007KT 2 1/2SM VCTS RA BR OVC011 11/11 A2992
     RMK AO2 LTG DSNT S AND SW RAB0454 CIG 008V013 P0041=
KAVL 110547Z AUTO 00000KT 5SM R34/4000VP6000FT BR BKN001 OVC011
     07/07 A3001 RMK AO2 RAE38 P0006=
KCEU 110547Z AUTO 30004KT 6SM -RA BR BKN007 OVC011 09/07 A3005 RMK
     AO2 LTG DSNT SE TSB0459E14 P0024=
KIJD 110547Z AUTO 00000KT 1SM -RA BR VV005 01/00 A3024 RMK AO2
     RAB0456UPB02E07B30E32FZRAE0456 P0001 I1000 $=
KISW 110547Z AUTO 00000KT 1/2SM FZFG VV003 M01/M01 A2944 RMK AO2
     I1000 T10061006=
KJMS 110547Z AUTO 30018KT 9SM OVC009 M03/M04 A2950 RMK AO2 PK WND
     31026/0536 T10281044=
KM19 110547Z AUTO 21006KT 3SM -RA BR BKN085 OVC100 08/08 A2967 RMK
     AO2 P0001=
K2DP 110546Z AUTO 16017G23KT 7SM -RA FEW014 FEW017 SCT030 BKN060
     BKN100 17/16 A3013 RMK AO2=

0000013100
723
SPUS31 KWBC 110550
SPECI
KMEM 110546Z 25010G18KT 1 1/2SM R36L/4500VP6000FT +RA BR SCT006
OVC012 14/13 A2969=

0000010200
724
SPUS42 KWBC 110550
SPECI
KMOB 110546Z AUTO 18011KT 1 3/4SM BR OVC003 19/19 A2994=

0000011300
725
SPUS42 KWBC 110550
SPECI
KSAV 110546Z AUTO 18004KT 1SM R01/4000V4500FT BR VV002 17/16 A3006=

0000012300
726
SACA35 KWBC 110500 RRA
METAR
MSLP 110450Z 36003KT 330V050 CAVOK 21/18 Q1012 A2990=
MSSS 110450Z NIL=

0000009300
727
SAAI41 FHAW 110550
METAR FHAW 110550Z 13012KT 9999 FEW018 23/19 Q1012 BLU=

0000010000
728
SALT33 EYVI 110550
METAR EYPA 110550Z VRB05KT 9999 BKN014 03/00 Q1005 R01/2///95=

0000013100
729
SACN45 CWAO 110500 CCA
METAR CYHI 110500Z CCA 27011KT 15SM SKC M34/M35 A2932 RMK LAST
OBS/NEXT 111500Z SLP936=

0000022300
730
FTUS31 KWBC 110551
TAF
KBHM 110540Z 1106/1206 15008G17KT P6SM -DZ OVC005
      TEMPO 1111/1115 21013KT 2SM -TSRA BR OVC003CB
     FM111500 27015G21KT P6SM BKN100
     FM112300 28010KT P6SM SCT250=

0000031400
731
FTUS42 KWBC 110551
TAF
KMGM 110540Z 1106/1206 15008KT P6SM -RA VCTS OVC012CB
      TEMPO 1106/1108 2SM TSRA BR OVC003CB
     FM110800 16008KT 4SM -DZ BR OVC003
      TEMPO 1113/1117 22010KT 2SM -TSRA BR OVC002CB
     FM111700 27012G19KT P6SM BKN100
     FM112300 29010KT P6SM SCT250=

0000093600
732
FTUS72 KWBC 110551
TAF
KANB 110540Z 1106/1206 04007KT 6SM -RA BR OVC011
      TEMPO 1106/1110 2SM TSRA BR OVC007CB
     FM111000 16008KT 3SM -DZ BR OVC007
      TEMPO 1113/1117 22012KT 2SM -TSRA BR OVC007CB
     FM111700 25012G18KT P6SM BKN100
     FM112300 28010KT P6SM SCT250=
KBHM 110540Z 1106/1206 15008G17KT P6SM -DZ OVC005
      TEMPO 1111/1115 21013KT 2SM -TSRA BR OVC003CB
     FM111500 27015G21KT P6SM BKN100
     FM112300 28010KT P6SM SCT250=
KMGM 110540Z 1106/1206 15008KT P6SM -RA VCTS OVC012CB
      TEMPO 1106/1108 2SM TSRA BR OVC003CB
     FM110800 16008KT 4SM -DZ BR OVC003
      TEMPO 1113/1117 22010KT 2SM -TSRA BR OVC002CB
     FM111700 27012G19KT P6SM BKN100
     FM112300 29010KT P6SM SCT250=
KTCL 110540Z 1106/1206 15007KT 4SM -DZ BR OVC003
      TEMPO 1110/1114 2SM TSRA BR OVC003CB
     FM111500 27013G19KT P6SM BKN100
     FM112300 29010KT P6SM SCT250=

0000031900
733
FTUS72 KWBC 110551 CCA
TAF COR
KCSV 110548Z 1106/1206 19008G16KT P6SM -SHRA OVC004
     FM110800 17010G20KT 3SM -SHRA BR VCTS OVC002CB
     FM111100 18012G22KT 2SM -SHRA BR OVC002
     FM111600 25010G20KT P6SM OVC015
     FM111900 27010G20KT P6SM BKN050
     FM120000 28007KT P6SM SCT080=

0000008900
734
SAMP31 LMMM 110600 RRA
METAR HLLT 110550Z
17005KT CAVOK 09/06 Q1023=

00000000