0000009700
995
SASP36 LEMM 110800
METAR GEML 110800Z 25003KT 200V290 9999 FEW006 14/12 Q1018=

0000012300
996
SACN61 CYNE 110800
METAR CYNE 110800Z AUTO 32003KT 1 3/4SM BR FEW005 OVC010 M10/M11
 A2944 RMK SLP989=

0000018500
997
SASP37 LEMM 110800
METAR LEBG 110800Z 14001KT 0900 R22/1200U FZFG NSC M00/M00 Q1018=
METAR LEHC 110800Z NIL=
METAR LEBA 110800Z 11003KT 070V230 CAVOK 07/06 Q1018=

0000039800
998
SAAO34 GOOY 110700
METAR GBYD 110700Z NIL=
METAR GFLL 110700Z NIL=
METAR GLRB 110700Z 00000KT 9000 SCT013  FEW023CB BKN100 24/23
Q1011 RMK CB-S, BRVC=
METAR GVAC 110700Z 03007KT 9999 BKN015 BKN200 20/14 Q1015
NOSIG=
METAR GVBA 110700Z NIL=
METAR GVNP 110700Z /////KT 9999 BKN020  ///// Q//// NOSIG=
METAR GVSV 110700Z 08006KT 9999 SCT023 BKN200 20/15 Q1016 NOSIG=

0000035500
999
SASP40 LEMM 110800
METAR LEGA 110800Z 17005KT 6000 FEW005 SCT030 BKN080 06/04
Q1018=
METAR LEGT 110800Z 00000KT 8000 NSC 06/05 Q1018=
METAR LEMO 110800Z 09003KT 8000 NSC 09/08 Q1017
NOSIG=
METAR LERI 110800Z 27002KT 4000 BR FEW018 OVC035 09/08 Q1019
NOSIG=
METAR LERT 110800Z 35003KT 320V020 6000 FEW058 10/09 Q1017 NOSIG=

0000010800
000
SAAF13 LFPW 110700 RRC
METAR GVAC 110700Z 03007KT 9999 BKN015 BKN200 20/14 Q1015
NOSIG=

0000009300
001
SAMC31 GMMC 110800 RRA
METAR GMAD 110800Z 00000KT 9999 FEW020 09/08 Q1017=

0000010600
002
SACN43 CWAO 110800
METAR CYEN 110800Z 28009KT 15SM FEW050 M09/M10 A2962 RMK SC2 SLP066=

0000052200
003
SAAP32 FAPR 110800
METAR FABL 110800Z 01004KT 280V080 CAVOK 27/11 Q1020 NOSIG=
METAR FACT 110800Z 21007KT 150V240 CAVOK 22/13 Q1017 NOSIG=
METAR FALE 110800Z 20007KT 9999 FEW030 SCT049 26/18 Q1018 NOSIG=
METAR FAOR 110800Z 36014KT 9999 FEW032 23/15 Q1024 NOSIG=
METAR FBSK 110800Z 06012KT 030V090 CAVOK 30/14 Q1017 NOSIG=
METAR FDMS 110800Z 00000KT 9999 BKN030 23/17 Q1020 NOSIG=
METAR FQBR 110800Z VRB03KT 9999 SCT020 32/25 Q1012=
METAR FXMM 110800Z 09010KT 9999 FEW040 22/12 Q1023 NOSIG=

0000029100
004
SASP41 LEMM 110800
METAR LEAO 110800Z 15001KT 0400 R27/0500N FG BKN001 03/03 Q1018=
METAR LEBT 110800Z NIL=
METAR LECV 110800Z 00000KT CAVOK 05/04 Q1017=
METAR LEEC 110800Z 04003KT CAVOK 09/08 Q1017=
METAR LELO 110800Z 00000KT 0500 R29/1400U FG OVC004 05/05 Q1020=

0000030400
005
FTSQ31 LZIB 110500 AAA
TAF AMD LZKZ 110805Z 1108/1206 VRB02KT 5000 MIFG FEW001
    TEMPO 1108/1109 0100 FZFG BKN001
    BECMG 1109/1111 23007KT 9999 FEW020 BKN035
    BECMG 1116/1118 3000 BR BKN010 BKN040
    TEMPO 1120/1206 1200 BCFG BKN002
    PROB40 TEMPO 1120/1202 -RASN=

0000024100
006
SABC40 FBSK 110800
METAR FBFT 110800Z /////KT CAVOK 28/20 Q1017=
METAR FBKE 110800Z 34004KT CAVOK 24/19 Q1018=
METAR FBSK 110800Z 06012KT 030V090 CAVOK 30/14 Q1017 NOSIG=
METAR FBSP 110800Z 00000KT CAVOK 29/22 Q1018=

0000009500
007
SALC31 TLPL 110800
METAR TLPL 110800Z 08021KT 9999 FEW022 25/21 Q1014 NOSIG=

0000042600
008
SAIY33 LIIB 110800
METAR LIMA 110750Z 00000KT 8000 FEW020 BKN030 07/06 Q1022=
METAR LIMG 110750Z 00000KT 9999 BKN040 10/09 Q1022=
METAR LIMP 110750Z VRB01KT 0300 R20/0600N FG VV/// 08/08 Q1024=
METAR LIMS 110755Z 00000KT 0600 R30/0900 R12/0800 FG SCT002 BKN010
      08/07 Q1022=
METAR LIMW 110750Z AUTO 00000KT 8000 OVC028 03/02 Q1023=
METAR LIMZ 110750Z 26003KT 7000 SCT030 OVC040 06/05 Q1022=

0000008700
009
SAAO34 GOOY 110700 RRA
METAR GBYD 110700Z 06004KT CAVOK 16/12 Q1012=

0000008700
010
SAAF13 LFPW 110700 RRD
METAR GBYD 110700Z 06004KT CAVOK 16/12 Q1012=

0000030400
011
SAIY34 LIIB 110800
METAR LIPC 110755Z /////KT 1300 R11/1500 BR OVC050 08/05 Q1022=
METAR LIPF 110755Z 00000KT 0500 FG OVC005 06/04 Q1022=
METAR LIPO 110750Z 26002KT 2500 BR FEW020 BKN045 07/07 Q1023=
METAR COR LIPY 110750Z 16003KT 1500 0600SE VCFG BR FEW001 BKN002
10/09 Q1023=

0000021500
012
SAAY31 RUMS 110800
METAR UDYZ 110800Z VRB01MPS 2000 -SN BR BKN009 OVC016 M09/M12 Q1027
R09/490440 NOSIG=
METAR UDSG 110800Z 00000MPS 0200 R02/0225N FZFG VV002 M15/M17 Q1020
R02/CLRD70 NOSIG=

0000021600
013
SATA31 RUMS 110800
METAR UTDD 110800Z 10004MPS 9999 BKN190 06/M09 Q1025 09CLRD70 NOSIG
RMK QFE700/0934=
METAR UTDL 110800Z 07009G13MPS 7000 FEW200 03/M09 Q1025 NOSIG RMK
QFE729/0972 8809//70=

0000044900
014
SAIY35 LIIB 110800
METAR LIQN 110800Z NIL=
METAR LIQW 110800Z NIL=
METAR LIRG 110800Z NIL=
METAR LIRH 110755Z 16001KT 3000 BR SCT010 BKN015 07/04 Q1022=
METAR LIRL 110755Z 33002KT 8000 BKN080 07/05 Q1022=
METAR LIRM 110755Z 05005KT 5000 BR FEW080 05/04 Q1022=
METAR LIRS 110755Z /////KT CAVOK 05/03 Q1022=
METAR LIRU 110750Z 35007KT 0200 FG VV/// 03/03 Q1023=
METAR LIRV 110755Z 02008KT 0600 FG BKN001 02/00 Q1021=

00000000