0000027700
495
FCBX31 EBBR 110800
TAF EBAW 110800Z 1109/1118 24008KT 9999 SCT006 BKN012
    TEMPO 1109/1111 4000 -RA BR BKN006 BECMG 1111/1113 SCT012=
TAF EBCI 110800Z 1109/1118 22008KT 9999 SCT005 BKN011
    TEMPO 1109/1113 4000 -RA BR BKN005 BECMG 1112/1114 SCT012=

0000009300
496
SAUK32 EGGY 110820 RRA
METAR EGLC 110820Z 29012KT 9999 FEW018 07/04 Q1016=

0000044600
497
SABX31 EBBR 110820
METAR EBAW 110820Z 23009KT 8000 BKN006 04/02 Q1015 BECMG SCT006=
METAR EBBR 110820Z 24011KT 9999 SCT008 05/03 Q1015 NOSIG=
METAR COR EBCI 110820Z 22007KT 9999 FEW005 05/04 Q1016 TEMPO BKN005=
METAR EBLG 110820Z 20010KT CAVOK 05/03 Q1015 TEMPO BKN008=
METAR EBOS 110820Z 20010KT 4500 BR FEW007 SCT020 BKN040 05/03 Q1015
     BECMG 6000=
METAR ELLX 110820Z 00000KT 3000 BR BKN035 02/02 Q1016 NOSIG=

0000053000
498
SAOS31 LOWM 110820
METAR LOWW 110820Z 18004KT 9999 FEW035 SCT140 BKN280 02/M00 Q1020
NOSIG=
METAR LOWL 110820Z VRB01KT 9999 VCFG FEW120 BKN250 M02/M02 Q1020
BECMG NSW=
METAR LOWS 110820Z VRB01KT 9999 FEW001 SCT100 BKN300 00/00 Q1018
NOSIG=
METAR LOWI 110820Z 25003KT 220V280 2500 BR SCT002 BKN004 02/02 Q1020
R08/19//71 NOSIG=
METAR LOWG 110820Z VRB01KT 9999 BKN009 BKN090 03/01 Q1020 R17/19//95
BECMG SCT009=
METAR LOWK 110820Z 32003KT 5000 BR SCT003 OVC005 01/01 Q1021
R10L/19//95 NOSIG=

0000006100
499
SAOS32 LOWM 110820
METAR LOXZ 110820Z NIL=

0000023900
500
SANO37 ENMI 110820
METAR ENNO 110820Z NIL=
METAR ENOV 110820Z NIL=
METAR ENSD 110820Z 18003KT 9999 FEW015 BKN040 M01/M04 Q0997 RMK WIND
           1138FT 05003KT=
METAR ENSN 110820Z NIL=
METAR ENSR 110820Z NIL=

0000059700
501
SANO38 ENMI 110820
METAR ENDR 110820Z AUTO 08022KT M04/M09 Q1001=
METAR ENEK 110820Z 30022KT 9999 FEW025 06/01 Q1005 W08/S4=
METAR ENGC 110812Z 06017KT 9999 VCSH FEW010 BKN018 02/M01 Q0998
           W06/S5=
METAR ENHE 110820Z 10031KT 9999 BKN030 M02/M08 Q1003 W///S5=
METAR ENOA 110820Z NIL=
METAR ENSL 110820Z 30032KT 9999 FEW019CB BKN074 05/02 Q1002 RESHRA
           W05/S5=
METAR ENFB 110820Z AUTO 05016KT 9999NDV BKN012/// BKN033/// 02/00
           Q0998 W///S5=
METAR ENSF 110820Z AUTO 06020KT 9999NDV -SHRA BKN011/// 02/00 Q0998
           W///S5=

0000098600
502
FTSP32 LEMM 110800
TAF LEAS 110800Z 1109/1209 12009KT 9999 FEW020 SCT035 TX14/1114Z
TN07/1204Z PROB30 TEMPO 1115/1118 06012G22KT BECMG 1204/1207
20010KT=
TAF LECO 110800Z 1109/1209 VRB05KT 3000 BR BKN004 TX13/1115Z
TN08/1206Z PROB40 TEMPO 1109/1110 0500 BCFG BKN001 BECMG
1110/1112 9999 NSW FEW020 BECMG 1121/1123 18010KT PROB40
TEMPO 1200/1209 17015G25KT=
TAF LEGR 110800Z 1109/1209 VRB03KT 9999 FEW020 SCT080 TX16/1115Z
TN03/1206Z TEMPO 1109/1118 SCT020 BKN080 PROB30 TEMPO 1109/1118
RA BKN025=
TAF LEPP 110800Z 1109/1209 VRB03KT 3000 BR SCT010 TX09/1115Z
TN02/1206Z TEMPO 1109/1112 1200 BCFG BKN005 TEMPO 1109/1111
0100 FG VV001 BECMG 1111/1114 8000 NSW PROB40 TEMPO 1122/1209
2500 BR BKN010 PROB40 TEMPO 1200/1209 0500 FG BKN002=
TAF LEXJ 110800Z 1109/1209 VRB03KT 9999 FEW015 SCT035 TX14/1114Z
TN08/1204Z PROB30 TEMPO 1109/1110 4500 DZ BR BKN014 BECMG
1110/1113 06010KT BECMG 1200/1203 17010KT PROB30 TEMPO 1207/1209
23012G22KT=

0000064000
503
FTSP36 LEMM 110800
TAF LEAM 110800Z 1109/1209 02008KT 9999 SCT020 SCT080 TX16/1115Z
TN10/1206Z TEMPO 1109/1118 SCT020 BKN080 BECMG 1109/1111
22012KT PROB30 TEMPO 1109/1116 RA BKN020=
TAF LEIB 110800Z 1109/1209 03006KT 9999 FEW010 TX17/1113Z
TN09/1206Z TEMPO 1109/1111 BKN010 BECMG 1119/1121 26005KT
PROB30 TEMPO 1123/1208 4000 BR BKN008=
TAF LEMH 110800Z 1109/1209 08005KT 8000 FEW010 TX16/1113Z
TN10/1206Z PROB30 TEMPO 1122/1208 4000 BR BKN006=
TAF LERS 110800Z 1109/1209 35005KT 8000 SCT020 TX16/1114Z
TN05/1207Z PROB30 TEMPO 1200/1209 3000 BR BKN006 TEMPO 1111/1117
11007KT=
TAF LEZL 110800Z NIL=

0000033100
504
FTCR31 LEMM 110800
TAF GCLP 110800Z 1109/1209 VRB05KT 9999 FEW020 TX22/1112Z
TN15/1207Z=
TAF GCRR 110800Z 1109/1209 VRB04KT 9999 FEW020 TX21/1112Z
TN13/1207Z=
TAF GCTS 110800Z 1109/1209 VRB05KT 9999 SCT030 TX21/1112Z
TN14/1207Z=
TAF GCXO 110800Z 1109/1209 12007KT 9999 FEW010 TX16/1112Z
TN10/1207Z=

0000042600
505
SANO35 ENMI 110820
METAR ENMS 110820Z 14010KT 090V200 9999 FEW040 M09/M18 Q1010 RMK WIND
           412FT VRB09G21KT=
METAR ENRM 110820Z NIL=
METAR ENRS 110820Z 08021KT 9999 FEW045 M04/M12 Q1011=
METAR ENSK 110820Z NIL=
METAR ENSO 110820Z NIL=
METAR ENST 110820Z VRB11KT 9999 FEW050 M07/M17 Q1008 RMK WIND 300FT
           08026G45KT 040V150 RMK TURB WRNG - SEE IPPC=
METAR ENVD 110820Z NIL=

0000071000
506
SANO31 ENMI 110820
METAR ENAN 110820Z NIL=
METAR ENBR 110820Z 30004KT 230V350 9999 VCSH FEW005 SCT018 BKN060
           05/03 Q0997 TEMPO 4000 SHRA BKN012CB RMK WIND 1200FT
           27013KT=
METAR ENBO 110820Z 12014KT CAVOK M08/M18 Q1012 TEMPO 11020G30KT=
METAR ENDU 110820Z VRB01KT 9999 FEW040 M26/M28 Q1018 NOSIG=
METAR ENGM 110820Z 06005KT 9999 -SN FEW009 BKN019 M06/M07 Q0999
           NOSIG=
METAR ENOL 110820Z 10018KT 9999 FEW012 SCT200 M08/M13 Q1002 NOSIG=
METAR ENVA 110820Z 10006KT 080V140 CAVOK M13/M17 Q1004 NOSIG RMK WIND
           670FT 11008KT=
METAR ENZV 110820Z 31020KT 9999 SHRA FEW012CB SCT020 BKN045 04/02
           Q1000 TEMPO -SHRA BKN012CB=

0000033100
507
SADL33 EDZO 110820
METAR EDFE 110820Z 17002KT 9000 FEW040 BKN060 00/M00 Q1017=
METAR EDFH 110820Z 23006KT 9999 -RA FEW020 BKN040 04/02 Q1015=
METAR EDFM 110820Z VRB02KT 9999 FEW047 OVC059 01/01 Q1018=
METAR EDLV 110820Z 22006KT 2100 BR BKN002 03/03 Q1015=
METAR EDVK 110820Z 12007KT 9000 NSC 01/00 Q1015=

0000061000
508
SADL34 EDZO 110820
METAR EDAC 110820Z 19007KT CAVOK 03/01 Q1016=
METAR EDGS 110820Z 23011KT 9999 VCFG FEW002 SCT034 BKN083 02/02
Q1014=
METAR EDHL 110820Z 23010KT 5000 BR BKN009 06/04 Q1010=
METAR EDLN 110820Z 13002KT CAVOK M00/M00 Q1015=
METAR EDLW 110820Z 19010KT CAVOK 03/00 Q1014=
METAR EDMA 110820Z VRB01KT 8000 NSC M00/M00 Q1018=
METAR EDNY 110820Z VRB01KT 0300 R24/0550N FG VV/// 02/01 Q1018=
METAR EDQM 110820Z 21007KT CAVOK 01/M01 Q1016=
METAR EDRZ 110820Z VRB01KT 8000 BKN042 OVC049 01/01 Q1017=
METAR EDSB 110820Z VRB03KT 7000 -RA BR SCT040 BKN060 02/01 Q1018=

0000009700
509
SARW20 HRYR 110830
METAR
HRYR 110830Z 00000KT 7000 SCT023 24/18 Q1022 NOSIG=

0000017900
510
FCIE32 EIDB 110800
TAF EICM 110800Z NIL=
TAF EIDL 110800Z NIL=
TAF EIKY 110800Z NIL=
TAF EIME 110800Z NIL=
TAF EISG 110800Z NIL=
TAF EIWF 110800Z NIL=

0000064800
511
SANO33 ENMI 110820
METAR ENAT 110820Z 21003KT 9999 SCT005 BKN062 M16/M18 Q1020 RMK WIND
           700FT 13006KT=
METAR ENBL 110820Z VRB02KT 3000 -SN VV014 M03/M03 Q0994=
METAR ENEV 110820Z AUTO 13009KT 9999NDV NCD M08/M15 Q1016 RMK WIND
           1400FT 10018KT=
METAR ENFL 110820Z 04004KT 9999 -SN FEW007 SCT013 BKN020 M01/M02
           Q0997=
METAR ENKB 110820Z 10008KT 060V130 9999 FEW011 SCT019 M05/M09 Q0999=
METAR ENKR 110820Z 16007KT 7000 -SN FEW006 SCT011 BKN015 M20/M22
           Q1017 RMK WIND 775FT 25007KT=
METAR ENML 110820Z 07009KT 9999 FEW020 BKN035 M04/M08 Q0999=
METAR ENNA 110820Z NIL=

0000024100
512
SANO36 ENMI 110820
METAR ENBS 110820Z NIL=
METAR ENHK 110820Z NIL=
METAR ENHV 110820Z NIL=
METAR ENLK 110820Z NIL=
METAR ENMH 110820Z NIL=
METAR ENNK 110820Z NIL=
METAR ENNM 110820Z 08018KT CAVOK M10/M16 Q1006=

0000041900
513
SADL35 EDZO 110820
METAR EDAH 110820Z 23011KT 8000 BKN010 05/03 Q1011=
METAR EDHK 110820Z 23012KT 5000 BR OVC006 06/05 Q1008=
METAR EDJA 110820Z 00000KT CAVOK M01/M01 Q1016=
METAR EDTD 110820Z 14003KT 9999 FEW007 SCT030 BKN065 M00/M00 Q1017=
METAR EDTL 110820Z 13002KT CAVOK 03/03 Q1017=
METAR EDVE 110820Z 22009KT CAVOK 04/01 Q1014=
METAR EDXW 110820Z 23015KT 9000 DZ BKN028 07/06 Q1006=

0000044200
514
SAFI33 EFHK 110820
EFJO 110820Z AUTO 35010KT 320V040 8000 -SN FEW014 BKN023 M10/M12
Q0998=
EFLP 110820Z AUTO 36008KT 310V030 9999 -SG BKN014 M06/M09 Q0997=
EFMI 110820Z AUTO VRB04KT 5000 -SN OVC011 M07/M09 Q0999=
EFSA 110820Z AUTO 33008KT 300V360 7000 -SN FEW015 OVC019 M08/M09
Q0998=
EFUT 110820Z AUTO 35009KT 320V020 9999 OVC011 M06/M08 Q0998=
EFVR 110820Z AUTO 36008KT 340V040 1600 SN OVC016 M08/M11 Q1000=

00000000