0000053000
515
SAMG20 FMMI 110900
METAR FIMP 110900Z 09010KT 9999 BKN018 29/25 Q1015=
METAR FIMR 110900Z 10018KT 9999 SCT017 BKN050 30/24 Q1015=
METAR FJDG 110855Z 29014G21KT 9999 FEW020 BKN050 OVC080 27/25 A2983
RMK SLP098 60006 8/87/ T02710246 57020=
METAR FMCH 110900Z 31008KT 9999 SCT022 32/24 Q1013 NOSIG=
METAR FMEE 110900Z 09023KT 9999 FEW028 BKN260 31/21 Q1014 NOSIG=
METAR FMCZ 110900Z 09006KT 050V120 9999 SCT022 BKN300 31/24 Q1012
NOSIG=
METAR FMEP 110900Z AUTO 26007KT 230V290 9999 NCD 30/23 Q1014=

0000008900
516
SAAG31 KWBC 110900 RRA
METAR
SARP 110900Z 09004KT CAVOK 25/21 Q1011=

0000010400
517
SAAG41 KWBC 110900 RRA
METAR
SANT 110900Z 18008KT 9999 BKN040 FEW045CB 23/21 Q1012=

0000016000
518
SACA33 KWBC 110900 RRD
METAR
TNCC 110900Z 10011KT 9999 FEW014 26/22 Q1014 NOSIG=
TNCM 110900Z 08013KT 9999 FEW020 24/19 Q1017 A3005 RERA=

0000008800
519
SACA41 KWBC 110900 RRA
METAR
MUCL 110905Z AUTO 09007KT 25/23 Q1017=

0000013000
520
SAEO31 EETN 110920
METAR EETN 110920Z 29004KT 9000 -SN BKN007 OVC011 M01/M02 Q0999 
R08/590295 TEMPO 2000 SN=

0000022900
521
SAAF18 LFPW 110900 RRB
METAR FMMT 110900Z 12008KT 9999 VCSH SCT017CB 31/27 Q1013 NOSIG=
METAR FMNM 110900Z 22006KT 9999 FEW020 SCT230 32/25 Q1011 NOSIG=
METAR FMNN 110900Z 18008KT 9999 SCT020CB 32/27 Q1010=

0000008700
522
SAAL40 DAMM 110900 RRC
METAR DAUZ 110900Z 13012KT CAVOK 14/02 Q1023=

0000012100
523
SPCN43 CWAO 110917
SPECI CWHN 110917Z AUTO 22003KT 200V260 9SM OVC003 M08/M09 A2949 RMK
ICG PAST HR=

0000043500
524
FTUS51 KWBC 110918 AAA
TAF AMD
KMHT 110917Z 1109/1206 00000KT 2SM -FZRA BR OVC003
     FM111100 00000KT 2SM -FZRA BR OVC008 WS020/35030KT
     FM111400 VRB03KT 3SM -RA BR OVC008 WS020/19035KT
     FM111900 18012G21KT 3SM -RA BR OVC008 WS020/20050KT
     FM120000 19012G22KT 1SM +RA BR OVC008 WS020/20050KT
     FM120200 20010KT 2SM -RA BR OVC008 WS020/30040KT
     FM120400 21007KT 6SM -SHRA BR OVC008=

0000037300
525
FTUS52 KWBC 110918 AAA
TAF AMD
KLFK 110914Z 1109/1206 23007KT 5SM BR OVC003
      TEMPO 1110/1112 SCT003
     FM111200 28005KT P6SM SKC
     FM111700 31010KT P6SM SKC
     FM120000 VRB03KT P6SM SKC=
KTYR 110915Z 1109/1206 00000KT P6SM SKC
      TEMPO 1109/1111 1SM BR VV002
     FM111600 30012KT P6SM SKC
     FM112300 28004KT P6SM SKC=

0000122200
526
FTUS80 KWBC 110918 AAA
TAF AMD
KBDL 110916Z 1109/1212 VRB03KT 1SM -RA BR BKN004 OVC008
     FM111200 16006KT 2SM -RA BR OVC004 WS020/19040KT
     FM111800 19014G24KT 3SM RA BR OVC008 WS020/20050KT
     FM120000 20014G25KT 1SM +RA BR OVC008 WS020/21050KT
     FM120300 21007KT 6SM BR OVC008
     FM120600 23008KT 5SM BR OVC100=
KBED 110916Z 1109/1206 00000KT 1/4SM FG OVC002
     FM111200 17007KT 2SM -RA BR OVC003 WS020/19040KT
     FM111800 19015G27KT 2SM -RA BR OVC010 WS020/20050KT
     FM112100 19016G28KT 3SM -RA BR OVC008 WS020/20055KT
     FM120200 22012G29KT 1SM +RA BR OVC008 WS020/34040KT
     FM120400 22009KT 6SM -SHRA BR BKN008=
KBOS 110916Z 1109/1212 VRB03KT 1SM BR BKN003 OVC008
      TEMPO 1109/1112 1/4SM FG
     FM111200 17012KT 1SM -RA BR OVC008 WS020/34035KT
     FM111800 19017G30KT 3SM -RA BR OVC010 WS020/20055KT
     FM112300 19020G38KT 1SM -RA BR OVC008 WS020/20060KT
     FM120200 21015G39KT 3SM +RA BR OVC008 WS020/21045KT
     FM120500 23011G18KT P6SM OVC040=
KLFK 110914Z 1109/1206 23007KT 5SM BR OVC003
      TEMPO 1110/1112 SCT003
     FM111200 28005KT P6SM SKC
     FM111700 31010KT P6SM SKC
     FM120000 VRB03KT P6SM SKC=

0000119000
527
FTUS80 KWBC 110918 AAB
TAF AMD
KMHT 110917Z 1109/1206 00000KT 2SM -FZRA BR OVC003
     FM111100 00000KT 2SM -FZRA BR OVC008 WS020/35030KT
     FM111400 VRB03KT 3SM -RA BR OVC008 WS020/19035KT
     FM111900 18012G21KT 3SM -RA BR OVC008 WS020/20050KT
     FM120000 19012G22KT 1SM +RA BR OVC008 WS020/20050KT
     FM120200 20010KT 2SM -RA BR OVC008 WS020/30040KT
     FM120400 21007KT 6SM -SHRA BR OVC008=
KPVD 110917Z 1109/1206 VRB03KT 1/4SM -RA FG OVC002
     FM111000 17007KT 1/4SM -RA FG OVC002 WS020/21035KT
     FM111400 18011KT 1SM -RA BR OVC008 WS020/19045KT
     FM111700 19016G27KT 3SM -RA BR OVC010 WS020/19055KT
     FM112300 19020G39KT 1SM -RA BR OVC008 WS020/20065KT
     FM120100 20018G40KT 2SM +RA BR OVC008 WS020/20060KT
     FM120400 22009KT P6SM RA OVC008=
KSAV 110914Z 1109/1206 18003KT 1/2SM FG VV002
     FM111300 19009KT 4SM BR OVC004
     FM111500 21012G18KT P6SM SCT005 BKN025
     FM111900 21015G24KT 3SM +RA SCT015 OVC030
     FM112200 26010KT P6SM SCT040 BKN080=
KTYR 110915Z 1109/1206 00000KT P6SM SKC
      TEMPO 1109/1111 1SM BR VV002
     FM111600 30012KT P6SM SKC
     FM112300 28004KT P6SM SKC=

0000159000
528
SPUS70 KWBC 110918
SPECI
KDCA 110914Z 00000KT 3/4SM R01/4500V5500FT BR OVC007 04/03 A2999
     RMK AO2 CIG 003V009=
KENW 110914Z AUTO 23008KT 1/4SM FG VV002 03/02 A2940 RMK AO2
     T00330022=
KFCI 110915Z AUTO 00000KT 3SM BKN004 BKN010 OVC035 05/00 A2998 RMK
     AO1=
K1M4 110914Z AUTO 21013KT 2 1/2SM +RA BR SCT003 BKN009 OVC027
     14/14 A2974 RMK AO2 BKN V SCT LTG DSNT NE-S TSE09 P0006=
KCEW 110914Z AUTO 17008G17KT 3SM BR OVC002 20/19 A2992 RMK AO2 LTG
     DSNT E T02000194=
KNFE 110915Z AUTO VRB05KT 7SM -RA OVC007 18/16 A3003 RMK AO2
     RAE00B15 P0000 T01780156=
KAHN 110915Z AUTO 12005KT 1 1/4SM +TSRA BR FEW004 BKN020 OVC040
     08/08 A2989 RMK AO2 LTG DSNT ALQDS PRESFR P0031=
KAZO 110915Z AUTO 18009KT 1SM BR VV002 04/03 A2946 RMK AO2=
KDAW 110915Z AUTO 00000KT 1SM BR VV003 M01/M02 A3015 RMK AO2
     FZRAE0859 P0001 I1000 T10061017=
KJXN 110915Z 20008KT 3/4SM BR OVC002 05/04 A2949 RMK AO2
     T00500044=
KLBT 110915Z AUTO 00000KT 9SM SCT021 SCT027 OVC033 17/17 A2998 RMK
     AO2 T01720172=
KLWM 110915Z AUTO 00000KT 3/4SM BR VV003 02/01 A3016 RMK AO2 RAE12
     P0001 T00170006=
KLWV 110915Z AUTO 22007KT 2SM BR BKN006 OVC019 07/ A2955 RMK AO2
     T0067 $=
KMHT 110915Z 32003KT 3/4SM R35/4000V5000FT -FZRA BR OVC004 M01/M02
     A3013 RMK AO2 TWR VIS 1 P0002 I1003 T10111017=
KOWB 110915Z AUTO 17009KT 10SM -RA BKN013 OVC018 09/09 A2957 RMK
     AO2 P0000 PRESFR=
KOXB 110915Z AUTO 18009G18KT 150V210 2SM RA BR SCT002 BKN040
     OVC070 12/12 A3003 RMK AO2 PRESFR P0010 T01220117 TSNO=

0000008900
529
SABZ43 KWBC 110900 RRD
METAR
SBBQ 110900Z 05003KT CAVOK 20/18 Q1022=

0000012100
530
SANK31 MNMG 110900
METAR  
MNMG 110900Z 00000KT 9999 FEW025 22/20 Q1011 A2986 1AC070 1CI300
NOSIG=

0000021900
531
SACA31 TNCC 110900
METAR TNCB 110900Z AUTO 06011KT //// ////// 25/23 Q1013 NOSIG=
METAR TNCE 110900Z AUTO 06012KT //// ////// ///// Q1017=
METAR TNCC 110900Z 10011KT 9999 FEW014 26/22 Q1014 NOSIG=

0000010600
532
SAAG05 SABM 110900 RRA
METAR SANT 110900Z  18008KT 9999  BKN040 FEW045CB
23/21 Q1012=

0000037000
533
FTCN34 CWAO 110900 AAA
TAF AMD CYHD 110918Z 1109/1120 23005KT 1/2SM -FZDZ FZFG VV002 TEMPO
     1109/1114 1SM -SN BR OVC005
    FM111400 28008KT 2SM BR OVC003 TEMPO 1114/1116 6SM -FZDZ -SN
     OVC006
    FM111600 28010KT 3SM BR BKN007 OVC015 TEMPO 1116/1120 P6SM NSW
     SCT007 OVC015
    RMK FCST BASED ON AUTO OBS. NXT FCST BY 111400Z=

0000009300
534
SANO36 ENMI 110850 RRA
METAR ENLK 110850Z 08020G31KT CAVOK M05/M017 Q1013=

00000000