0000009500
535
SPCN51 CWAO 110918
SPECI CWCL 110918Z AUTO 14003KT 3SM OVC002 M02/M06 A2918=

0000010100
536
SAMC32 GMMC 110900 RRB
METAR GMFK 110900Z 36014KT 8000  SCT026 BKN080 10/04 Q1019=

0000009500
537
SAIS32 LLBG 110920
METAR LLBG 110920Z VRB02KT 9999 SCT030 18/11 Q1023 NOSIG=

0000035900
538
SASW31 LSSW 110920
METAR LSZH 110920Z VRB01KT 0500 R14/0800U R16/0800U R28/0900N
    R34/0700N FG VV002 02/02 Q1019 BECMG 1500 BKN005=
METAR LSGG 110920Z VRB01KT 8000 FEW021 BKN180 05/04 Q1020 NOSIG=
METAR LSZB 110920Z 00000KT 3000 BR FEW001 SCT200 01/01 Q1019 NOSIG=
METAR LSZA 110920Z VRB01KT 9999 SCT038 OVC045 08/06 Q1023 NOSIG=

0000015800
539
SAIO31 KWBC 110900 RRD
METAR
FMMT 110900Z 12008KT 9999 VCSH SCT017CB 31/27 Q1013 NOSIG=
FMNN 110900Z 18008KT 9999 SCT020CB 32/27 Q1010=

0000013500
540
SAPA31 KWBC 110900 RRC
METAR
PKWA 110920Z AUTO 06013G21KT 10SM SCT037 SCT045 28/19 A2980 RMK
     AO2 T02760190=

0000013100
541
SAEU31 BKPR 110930
BKPR 110930Z 00000KT 0200 R17/0200 FG OVC002 00/M01 Q1024 BECMG 0400
 BKN004 RMK 17010095 =

0000038800
542
SAMG20 FMMI 110900
METAR FMMI 110900Z VRB04KT 9999  SCTT020CB  BKN023 28/23 1021
NOSIG=
METAR FMNA 110900Z NIL=
METAR FMNN 110900Z 18008KT 9999 SCT020CB 32/27 Q1010=
METAR FMSD 110900Z 12004KT 9999 FEW020TCU SCT230 30/25 Q1014=
METAR FMMT 110900Z 12008KT 9999 VCSH SCT017CB 31/27 Q1013 NOSIG=
METAR FMNM 110900Z 22006KT 9999 FEW020 SCT230 32/25 Q1011 NOSIG=

0000036300
543
SACG21 FCBB 110900
METAR FCBB 110900Z 23003KT 160V290 8000 FEW016 25/22 Q1015 NOSIG=
METAR FCPP 110900Z 13007KT 090V160 9999 FEW013 BKN040 27/24 Q1012
NOSIG=
METAR FCPD 110900Z 00000KT 9999 SCT020 BKN130 27/23 Q1014=
METAR FCOU 110900Z 18004KT 8000 BKN015 OVC140 26/23 Q1014=
METAR FCOI 110900Z 32004KT 9999 SCT013 BKN100 26/23 Q1015=

0000017400
544
SALV32 EVRA 110920
METAR EVLA 110920Z AUTO 21007KT 7000 -RA SCT007 BKN015 OVC018 04/04 
Q1003=
METAR EVVA 110920Z AUTO 21006KT 9999 OVC016 03/02 Q1002=

0000041600
545
FTCN34 CWAO 110900 AAA
TAF AMD CYHD 110922Z 1109/1120 23005KT 1/2SM -FZDZ FZFG VV002 TEMPO
     1109/1114 1SM -SN BR OVC005
    FM111400 28008KT 2SM BR OVC003 TEMPO 1114/1116 6SM -FZDZ -SN
     OVC006
    FM111600 28010KT 3SM BR BKN007 OVC015 TEMPO 1116/1120 P6SM NSW
     SCT007 OVC015
    RMK FCST BASED ON AUTO OBS. AUTO OBS NON-REPRESENTATIVE OF CRNT
     WX NXT FCST BY 111400Z=

0000153700
546
SPUS70 KWBC 110922
SPECI
KATL 110918Z 22005KT 1/4SM -RA BR FEW003 BKN017 OVC030 13/12 A2987
     RMK AO2 SFC VIS 4 TSE18 TS MOV NE P0056=
KBAF 110919Z 01003KT 2SM -RA BR OVC005 01/M01 A3009 RMK AO2 P0000
     T00061006=
KMQY 110918Z AUTO 33007KT 2 1/2SM +RA BR FEW001 SCT008 BKN013
     12/12 A2969 RMK AO2 TSNO BKN V SCT P0007=
KPDK 110918Z AUTO 14006KT 1 1/2SM +TSRA BR SCT003 SCT014 OVC030
     10/09 A2987 RMK AO2 LTG DSNT E AND SW P0029=
KSMQ 110918Z AUTO 31003KT 1/2SM -RA FG OVC004 02/01 A3000 RMK AO2
     PRESFR P0001 T00170011 TSNO=
K2DP 110919Z AUTO 20007KT 10SM SCT007 SCT030 BKN037 16/16 A3006
     RMK AO2=
KBAZ 110918Z AUTO 28005KT 2SM BR FEW002 09/09 A2990 RMK AO2=
KBPT 110918Z AUTO 22005KT 3/4SM R12/2400V3500FT BR VV002 18/17
     A2985 RMK AO2 $=
KHBG 110918Z AUTO 19012G20KT 4SM +TSRA BR OVC011 21/18 A2982 RMK
     AO2 LTG DSNT ALQDS RAB12 TSB13 P0004 T02060183=
KLFT 110918Z AUTO 24011KT 5SM HZ BKN007 OVC011 18/ A2986 RMK AO2
     LTG DSNT E AND SE TSE12 CIG 005V009 $=
KLVJ 110918Z AUTO 23005KT 2SM BR OVC002 17/16 A2989 RMK AO2
     T01720161=
KSFB 110918Z AUTO 00000KT 1/4SM FG VV002 19/19 A3005 RMK AO2=
KSGJ 110918Z 13003KT 1/2SM FG OVC007 16/15 A3005 RMK AO2 CIG
     004V010=
KBFM 110919Z AUTO 17008KT 3/4SM BR VV002 17/16 A2987 RMK AO2
     T01670161=
KLWV 110919Z AUTO 22006KT 1 3/4SM BR BKN004 OVC019 07/ A2955 RMK
     AO2 CIG 003V009 T0067 $=
KPLN 110920Z AUTO 16003KT 2 1/2SM BR OVC007 01/00 A2936 RMK AO2
     T00060000=

0000011300
547
SPUS31 KWBC 110922
SPECI
KATL 110918Z 22005KT 1/4SM -RA BR FEW003 BKN017 OVC030 13/12 A2987=

0000009800
548
SPUS41 KWBC 110922
SPECI
KBAF 110919Z 01003KT 2SM -RA BR OVC005 01/M01 A3009=

0000011700
549
SPUS42 KWBC 110922
SPECI
KBPT 110918Z AUTO 22005KT 3/4SM R12/2400V3500FT BR VV002 18/17
A2985=

0000012400
550
SPUS42 KWBC 110922
SPECI
KPDK 110918Z AUTO 14006KT 1 1/2SM +TSRA BR SCT003 SCT014 OVC030
10/09 A2987=

0000015900
551
SACA33 KWBC 110900 RRE
METAR
TNCB 110900Z AUTO 06011KT //// ////// 25/23 Q1013 NOSIG=
TNCE 110900Z AUTO 06012KT //// ////// ///// Q1017=

0000011600
552
SAAF11 LFPW 110900 RRA
METAR FCPP 110900Z 13007KT 090V160 9999 FEW013 BKN040 27/24 Q1012
NOSIG=

0000013400
553
SPCZ40 LKKV 110920
SPECI LKKV 110920Z VRB01KT 5000 1000N R29/P2000N BR BCFG SCT001
00/M01 Q1016 RMK REG QNH 1013=

0000018200
554
SADN33 EKCH 110920
METAR COR EKKA 110921Z 23013KT 6000 -DZRA FEW006 BKN009 07/06
Q1002=
METAR EKSP 110920Z 24014KT 6000 -RA FEW007 SCT012 BKN025 06/05
Q1005=

00000000