0000016200
315
FTFI31 EFHK 110800 AAA
TAF AMD EFTU 110859Z 1109/1209 VRB02KT 9999 BKN015 TEMPO 1109/1112
     0900 SN BKN007 TEMPO 1112/1114 2000 SN BKN012=

0000008900
316
SABZ21 SBFZ 110900
METAR SBFZ 110900Z 11010KT 9999 SCT020 26/20 Q1011=

0000003800
317
SDTH20 VTBB 111700
NIL
0000111600
318
FTTH20 VTBB 111700
TAF VTBS 111700Z NIL=
TAF VTCC 111700Z NIL=
TAF VTCH 111700Z NIL=
TAF VTCL 111700Z NIL=
TAF VTCN 111700Z NIL=
TAF VTCP 111700Z NIL=
TAF VTCT 111700Z NIL=
TAF VTPB 111700Z NIL=
TAF VTPM 111700Z NIL=
TAF VTPO 111700Z NIL=
TAF VTPP 111700Z NIL=
TAF VTPT 111700Z NIL=
TAF VTUD 111700Z 1118/1218 06006KT 9000 NSC	
        BECMG 1123/1202
36005KT 4000 BR NSC
        BECMG 1203/1206 06007KT 9999 FEW025=
TAF VTUI 111700Z 1118/1218 09008KT CAVOK	
        BECMG 1123/1202
08006KT 9000 NSC
        BECMG 1203/1206 09008KT 9999 FEW025=
TAF VTUJ 111700Z NIL=
TAF VTUK 111700Z 1118/1218 06007KT CAVOK	
        BECMG 1123/1202
36005KT 8000 NSC
        BECMG 1203/1206 06008KT 9999 FEW025=
TAF VTUL 111700Z 1118/1218 16005KT 9000 NSC
        BECMG 1123/1202
00000KT 2000 BR NSC
        BECMG 1203/1206 15005KT 8000 NSC=
TAF VTUO 111700Z NIL=
TAF VTUQ 111700Z NIL=
TAF VTUU 111700Z NIL=
TAF VTUV 111700Z NIL=
TAF VTUW 111700Z 1118/1218 10009KT 9999 FEW030	
        BECMG
1123/1202 10007KT 9000 NSC
        BECMG 1203/1206 10009KT 9999
FEW025=
0000056900
319
SNVF21 ENMI 111700
BBXX
LDGJ 11171 99603 10053 43/// /3102 10018 21030 40018 5//// 222/0
      04075 1//// 3//// 4//// 5////=
LF4H 11174 99596 10022 46/// /3230 10051 20013 40035 52019 8////
      91702 22200 06077 10607 70036=
LGWS 11171 99229 30145 43/// /2306 10188 20149 40124 5//// 222/0
      04166 1//// 3//// 4//// 5////=
LJIT 11171 99590 10055 43/// /3406 10051 20007 40025 5//// 222/0
      04060 1//// 3//// 4//// 5////=
LMEL 11171 99603 10053 43/// /3302 10013 21024 40017 5//// 222/0
      04077 1//// 3//// 4//// 5////=
0000020900
320
FTPA31 KWBC 110906
TAF
TAF AMD PGUA 1109/1208 06012G18KT 9999 SCT020 SCT030 QNH2981INS
      TEMPO 1109/1114 06015G25KT 9000 -SHRA SCT015 BKN025
      TX29/1205Z TN24/1117Z AMD 110905=

0000129900
321
FTUS51 KWBC 110906 AAA
TAF AMD
KAVL 110905Z 1109/1206 15005KT 1SM SHRA BR OVC008
      TEMPO 1109/1111 2SM TSRA BR OVC012CB
     FM111100 17009KT 1SM SHRA BR OVC003
     FM111400 19013G21KT 1SM SHRA BR OVC004
     FM111700 30010KT 2SM SHRA BR OVC005
     FM111900 31012KT 4SM -SHRA OVC035
     FM120000 31014G22KT P6SM SCT040 BKN250=
KBGM 110903Z 1109/1206 16008KT 3SM -DZ BR SCT002 OVC006
      TEMPO 1109/1113 1/2SM FG OVC002
     FM111600 18010KT 1 1/2SM RA BR OVC003
     FM112100 21005KT 5SM -SHRA BR OVC008
     FM120100 23010KT P6SM -SHRASN OVC012=
KBKW 110905Z 1109/1206 17014G20KT P6SM SCT006 BKN070
     FM111500 22012G23KT 4SM SHRA SCT010 BKN020
     FM111800 25011G16KT 3SM SHRA BKN008 OVC020
     FM112100 26012G19KT 3SM SHRA OVC008
     FM112300 27013G20KT P6SM OVC015=
KELM 110903Z 1109/1206 VRB05KT 4SM BR OVC008
      TEMPO 1109/1113 P6SM NSW SCT008 OVC015
     FM111500 13008KT 2SM RA BR OVC008
     FM112000 21005KT P6SM -SHRA OVC015
     FM120000 24008KT P6SM -SHRASN SCT015 OVC025=
KITH 110903Z 1109/1206 16008KT P6SM OVC012
      TEMPO 1109/1113 2SM -DZ BR OVC005
     FM111500 18010KT 1 1/2SM RA BR OVC003
     FM112000 21005KT 5SM -SHRA BR OVC008
     FM120000 23010KT P6SM -SHRASN OVC012 AMD NOT SKED=

0000047400
322
FTUS51 KWBC 110906 AAB
TAF AMD
KJHW 110903Z 1109/1206 17006KT P6SM OVC006 WS020/20045KT
     FM111300 18015KT 2SM -RA BR OVC007 WS020/20055KT
     FM111800 21015KT 4SM -RA BKN015 BKN040 WS020/22045KT
     FM120000 25014KT 3SM -SN OVC008 AMD LTD TO CLD VIS AND WIND=
KPOU 110903Z 1109/1206 00000KT 3/4SM -RA BR OVC004 WS020/19050KT
     FM111400 18008KT 3/4SM -RA BR OVC003 WS020/20055KT
     FM112300 23010G18KT 1 1/2SM -RA BR SCT003 OVC006=

0000061800
323
FTUS52 KWBC 110906 AAA
TAF AMD
KAHN 110905Z 1109/1206 09004KT 1SM -RA BR OVC003
      TEMPO 1109/1110 1/2SM TSRA FG SCT005 OVC010CB
     FM111200 15006KT 2SM -SHRA BR OVC004
     FM111500 20009KT 3SM -SHRA BR OVC007
     FM111900 27010G18KT P6SM BKN025
     FM112200 29012G20KT P6SM SCT040
     FM120100 28011KT P6SM SCT250=
KPSF 110905Z 1109/1206 VRB04KT 1/2SM FZFG VV003
      TEMPO 1109/1111 3/4SM -FZRA BR OVC003
     FM111100 16008KT 1SM -RA BR OVC005 WS020/19040KT
     FM111700 18012G20KT 1 1/2SM -RA BR OVC004 WS020/19045KT
     FM112300 22012G22KT 1SM -RA BR OVC006=

0000057600
324
FTUS54 KWBC 110906 AAA
TAF AMD
KHIO 110904Z 1109/1206 18014G22KT P6SM SCT030 OVC050
     FM111100 18014G26KT 4SM RA BR SCT015 OVC025
     FM111600 20018G28KT P6SM -SHRA SCT015 BKN025 OVC045
     FM111900 20022G35KT P6SM -SHRA SCT025 BKN050
     FM120300 21018G28KT P6SM -SHRA SCT025 BKN050=
KTTD 110905Z 1109/1206 20010KT P6SM OVC050
     FM111200 20015G25KT 4SM RA BR SCT015 OVC030
     FM111700 22016G25KT P6SM -SHRA SCT015 BKN025 OVC045
     FM112000 22018G28KT P6SM -SHRA SCT025 BKN050
     FM120300 24015KT P6SM -SHRA SCT025 BKN050=

0000149400
325
FTUS80 KWBC 110906 AAA
TAF AMD
KACT 110903Z 1109/1206 32004KT P6SM SCT150
     FM111400 30010KT P6SM SKC=
KAHN 110905Z 1109/1206 09004KT 1SM -RA BR OVC003
      TEMPO 1109/1110 1/2SM TSRA FG SCT005 OVC010CB
     FM111200 15006KT 2SM -SHRA BR OVC004
     FM111500 20009KT 3SM -SHRA BR OVC007
     FM111900 27010G18KT P6SM BKN025
     FM112200 29012G20KT P6SM SCT040
     FM120100 28011KT P6SM SCT250=
KART 110903Z 1109/1206 VRB03KT P6SM FEW030 SCT035 WS020/19040KT
     FM111100 16015KT 3SM -RA BR OVC015 WS020/19045KT
     FM111500 17018G25KT 1SM -RA BR OVC003 WS020/20045KT
     FM111900 21017KT 1SM RA BR OVC008 WS020/20045KT
     FM120200 23020KT 2SM -SN OVC008=
KAVL 110905Z 1109/1206 15005KT 1SM SHRA BR OVC008
      TEMPO 1109/1111 2SM TSRA BR OVC012CB
     FM111100 17009KT 1SM SHRA BR OVC003
     FM111400 19013G21KT 1SM SHRA BR OVC004
     FM111700 30010KT 2SM SHRA BR OVC005
     FM111900 31012KT 4SM -SHRA OVC035
     FM120000 31014G22KT P6SM SCT040 BKN250=
KAVP 110903Z 1109/1206 VRB05KT 4SM BR SCT008 OVC012
      TEMPO 1109/1112 2SM -SHRA BR OVC008
     FM111600 15005KT 2SM RA BR OVC008
     FM112200 21005KT P6SM -SHRA OVC012
     FM120100 24008KT P6SM -SHRASN SCT015 OVC025=
KBGM 110903Z 1109/1206 16008KT 3SM -DZ BR SCT002 OVC006
      TEMPO 1109/1113 1/2SM FG OVC002
     FM111600 18010KT 1 1/2SM RA BR OVC003
     FM112100 21005KT 5SM -SHRA BR OVC008
     FM120100 23010KT P6SM -SHRASN OVC012=

0000140800
326
FTUS80 KWBC 110906 AAB
TAF AMD
KBKW 110905Z 1109/1206 17014G20KT P6SM SCT006 BKN070
     FM111500 22012G23KT 4SM SHRA SCT010 BKN020
     FM111800 25011G16KT 3SM SHRA BKN008 OVC020
     FM112100 26012G19KT 3SM SHRA OVC008
     FM112300 27013G20KT P6SM OVC015=
KBTR 110904Z 1109/1206 22015KT P6SM -SHRA OVC010
      TEMPO 1109/1111 2SM TSRA OVC010CB
     FM111500 30009KT P6SM SCT250
     FM120000 VRB03KT P6SM SKC=
KBUF 110903Z 1109/1206 17012KT P6SM BKN060 OVC070 WS020/20045KT
     FM111300 19015KT 3SM -RA BR OVC015
     FM112000 21015KT 5SM -RA BR BKN035 OVC050
     FM120000 25014KT 3SM -SN OVC012=
KCVG 110903Z 1109/1212 19010KT 5SM -RA BR SCT020 OVC050
      TEMPO 1109/1112 2SM -RA BKN020 OVC040
     FM111200 22011G20KT P6SM OVC018
     FM111600 25016G25KT P6SM OVC020
     FM120000 26014KT P6SM BKN020
     FM120800 27010KT 5SM BR OVC010
      TEMPO 1208/1212 2SM BR OVC006=
KDAL 110903Z 1109/1206 32004KT P6SM SCT150
     FM111400 30010KT P6SM SKC=
KDFW 110903Z 1109/1212 32004KT P6SM SCT150
     FM111400 30010KT P6SM SKC=
KELM 110903Z 1109/1206 VRB05KT 4SM BR OVC008
      TEMPO 1109/1113 P6SM NSW SCT008 OVC015
     FM111500 13008KT 2SM RA BR OVC008
     FM112000 21005KT P6SM -SHRA OVC015
     FM120000 24008KT P6SM -SHRASN SCT015 OVC025=
KFTW 110903Z 1109/1206 32004KT P6SM SCT150
     FM111400 30010KT P6SM SKC=

0000148100
327
FTUS80 KWBC 110906 AAC
TAF AMD
KGLS 110902Z 1109/1206 23006KT 1/2SM FG VV002
     FM111200 24007KT 4SM BR SCT002 BKN012
     FM111400 27008KT P6SM SCT008 SCT015
     FM111500 33012KT P6SM SKC
     FM120000 01007KT P6SM SKC=
KHIO 110904Z 1109/1206 18014G22KT P6SM SCT030 OVC050
     FM111100 18014G26KT 4SM RA BR SCT015 OVC025
     FM111600 20018G28KT P6SM -SHRA SCT015 BKN025 OVC045
     FM111900 20022G35KT P6SM -SHRA SCT025 BKN050
     FM120300 21018G28KT P6SM -SHRA SCT025 BKN050=
KIAG 110903Z 1109/1206 16012G20KT 5SM BR VCSH OVC025 WS020/20040KT
     FM111300 19014KT 3SM -RA BR OVC007
     FM112000 21015KT 5SM -RA BR BKN035 OVC050
     FM120000 25014KT 3SM -SN OVC012=
KITH 110903Z 1109/1206 16008KT P6SM OVC012
      TEMPO 1109/1113 2SM -DZ BR OVC005
     FM111500 18010KT 1 1/2SM RA BR OVC003
     FM112000 21005KT 5SM -SHRA BR OVC008
     FM120000 23010KT P6SM -SHRASN OVC012 AMD NOT SKED=
KJHW 110903Z 1109/1206 17006KT P6SM OVC006 WS020/20045KT
     FM111300 18015KT 2SM -RA BR OVC007 WS020/20055KT
     FM111800 21015KT 4SM -RA BKN015 BKN040 WS020/22045KT
     FM120000 25014KT 3SM -SN OVC008 AMD LTD TO CLD VIS AND WIND=
KMKE 110903Z 1109/1212 23007KT 2SM -DZ BR OVC005
      TEMPO 1109/1112 1SM BR OVC002
     FM111200 27008KT 4SM -DZ OVC007
     FM111500 28012G19KT 6SM -SN OVC009
     FM111800 27013G22KT P6SM BKN012
     FM120000 27010KT P6SM BKN025
     FM120500 27008KT P6SM SCT030=

0000141700
328
FTUS80 KWBC 110906 AAD
TAF AMD
KMSP 110903Z 1109/1212 29008KT 3SM BR SCT006 BKN009 OVC012
     FM111230 29009KT 6SM BR SCT006 SCT015
     FM111500 30012KT P6SM BKN020 BKN040
     FM112000 27008KT P6SM SCT040 SCT250
     FM120200 23004KT P6SM SCT030 BKN120=
KPDX 110903Z 1109/1206 19015G25KT P6SM OVC040
     FM111100 22020G35KT 4SM RA BR SCT015 OVC030 WS015/20055KT
     FM111600 22020G30KT P6SM -SHRA BKN015 BKN025 OVC045
     FM111900 22024G36KT P6SM -SHRA SCT025 BKN050
     FM120300 24018KT P6SM -SHRA SCT030 BKN050=
KPOU 110903Z 1109/1206 00000KT 3/4SM -RA BR OVC004 WS020/19050KT
     FM111400 18008KT 3/4SM -RA BR OVC003 WS020/20055KT
     FM112300 23010G18KT 1 1/2SM -RA BR SCT003 OVC006=
KPSF 110905Z 1109/1206 VRB04KT 1/2SM FZFG VV003
      TEMPO 1109/1111 3/4SM -FZRA BR OVC003
     FM111100 16008KT 1SM -RA BR OVC005 WS020/19040KT
     FM111700 18012G20KT 1 1/2SM -RA BR OVC004 WS020/19045KT
     FM112300 22012G22KT 1SM -RA BR OVC006=
KRME 110903Z 1109/1206 12008KT P6SM OVC012
      TEMPO 1109/1113 -SHRA SCT012 OVC025
     FM111600 14008KT 2SM RA BR OVC005
     FM112100 19005KT 5SM -SHRA BR OVC008
     FM120100 24010KT P6SM -SHRASN OVC012=
KROC 110903Z 1109/1206 19014G20KT P6SM BKN080 WS020/20045KT
     FM111400 19014G21KT 2SM -RA BR OVC003
     FM111900 22015KT 5SM -RA BR BKN035 OVC050
     FM120000 25014KT 3SM -SN OVC008=

0000118300
329
FTUS80 KWBC 110906 AAE
TAF AMD
KSFO 110904Z 1109/1212 00000KT P6SM BKN200
     FM111200 19006KT P6SM BKN015
     FM112100 24006KT P6SM VCSH BKN025 BKN060
     FM120000 29010KT P6SM BKN060
     FM120600 29006KT P6SM SCT060=
KSSF 110905Z 1109/1206 00000KT 3/4SM BR VV005
     FM111300 33009KT P6SM SKC
     FM111700 02006KT P6SM SKC
     FM120000 VRB03KT P6SM SKC=
KSYR 110903Z 1109/1206 10005KT P6SM OVC015
      TEMPO 1109/1113 -SHRA SCT015 OVC025
     FM111500 15008KT 2SM RA BR OVC008
     FM112000 21005KT 5SM -SHRA BR OVC012
     FM120000 25012KT P6SM -SHRASN OVC015=
KTTD 110905Z 1109/1206 20010KT P6SM OVC050
     FM111200 20015G25KT 4SM RA BR SCT015 OVC030
     FM111700 22016G25KT P6SM -SHRA SCT015 BKN025 OVC045
     FM112000 22018G28KT P6SM -SHRA SCT025 BKN050
     FM120300 24015KT P6SM -SHRA SCT025 BKN050=
KTTN 110903Z 1109/1206 15050KT 1SM -SHRA BR OVC004 WS020/20060KT
      TEMPO 1109/1112 1/4SM FG VV001
     FM111500 18012KT 1SM SHRA BR OVC004 WS020/21055KT
     FM112000 19012G22KT 1SM SHRA BR OVC005 WS020/18060KT
     FM120000 26010KT 6SM -SHRA BKN020 OVC040
     FM120400 27010KT P6SM BKN040=

0000230300
330
SPUS70 KWBC 110906
SPECI
KCLM 110902Z AUTO VRB04KT 7SM -RA FEW003 BKN055 OVC070 08/07 A2933
     RMK AO2 P0001 T00780067=
KDEC 110902Z AUTO 23011KT 3SM BR OVC004 06/06 A2949 RMK AO2 CIG
     003V007=
KDFI 110902Z AUTO 20005KT 1 3/4SM BR OVC004 06/04 A2955 RMK
     AO2=
KDHN 110902Z AUTO 16013KT 3SM -RA BR SCT004 BKN022 OVC110 19/18
     A2996 RMK AO2 LTG DSNT N P0005=
KEKQ 110902Z AUTO 30020G24KT 1 1/4SM +RA BR FEW001 OVC019 15/13
     A2970 RMK AO2 LTG DSNT NE AND SW P0008 WSHFT 0847=
KILG 110902Z AUTO 00000KT 1/4SM R01/2400V2800FT FG VV002 04/04
     A3000 RMK AO2 RAE0858 P0000=
KLVJ 110902Z AUTO 23006KT 1/2SM FG VV002 17/16 A2988 RMK AO2
     T01720161=
KMAE 110902Z AUTO 00000KT 2 1/2SM BR CLR 03/02 A3023 RMK AO2
     T00330022=
KMCB 110902Z AUTO 22007KT 2SM TSRA BR BKN007 BKN013 OVC018 19/19
     A2981 RMK AO2 LTG DSNT ALQDS TSB0854 P0007 T01940189=
KPOU 110902Z 00000KT 1/2SM FG OVC004 01/00 A3005 RMK AO2=
KPWM 110902Z AUTO 00000KT 1 1/4SM UP BR OVC004 M01/M02 A3020 RMK
     AO2 P0000 T10061017=
KPYM 110902Z AUTO 20005KT 1 1/4SM BR OVC002 07/06 A3018 RMK AO2
     T00670056=
KRAC 110902Z AUTO 22007KT 1 1/2SM BR OVC003 03/03 A2941 RMK AO2
     T00330028=
KVSF 110902Z AUTO 00000KT 3/4SM -FZRA BR OVC005 M03/M03 A3011 RMK
     AO2 P0000 I1000 T10281028=
K1M4 110903Z AUTO 22011G16KT 2SM +TSRA BR BKN003 BKN009 OVC027
     14/14 A2974 RMK AO2 CIG 001V006 LTG DSNT NE-S P0003=
KAHN 110903Z AUTO 10005KT 1SM +TSRA BR SCT004 OVC015 08/07 A2991
     RMK AO2 LTG DSNT ALQDS P0024=
KAUS 110903Z 23004KT 3SM BR FEW150 08/08 A2989 RMK AO2 BCFG
     ALQDS=
KFTY 110903Z 15004KT 4SM +RA BR SCT005 BKN037 OVC070 11/11 A2986
     RMK AO2 PRESFR P0003=
KGKJ 110903Z AUTO VRB04KT 10SM BKN027 OVC033 09/06 A2966 RMK AO2
     TSNO=
KHBG 110903Z AUTO 19012G19KT 10SM VCTS OVC011 21/18 A2981 RMK AO2
     LTG DSNT SW-N T02060183=
KLHQ 110903Z AUTO 20006KT 2SM +RA BR SCT022 OVC035 11/09 A2967 RMK
     AO2 P0006=
KUGN 110903Z AUTO 22008KT 6SM BR OVC003 03/03 A2941 RMK AO2 RAE00
     P0000 $=
KWST 110903Z AUTO 14006KT 4SM -RA BR SCT020 BKN036 OVC070 07/07
     A3015 RMK AO2 PRESFR P0000 T00720067=
PATO 110903Z AUTO 27010G15KT 10SM BKN010 OVC016 M03/M03 A2928 RMK
     AO2 T10281033 TSNO=

0000009700
331
SPUS31 KWBC 110906
SPECI
KLAX 110904Z 00000KT 1 3/4SM BR FEW250 12/11 A3012=

0000010600
332
SACN62 CYXJ 110900
METAR CYXJ 110900Z 15008KT 15SM BKN110 M06/M10 A2923 RMK AC7 SLP938=

0000012700
333
SACN62 CYWL 110900
METAR CYWL 110900Z 13015G24KT 15SM DRSN BKN085 OVC130 M01/M03 A2915
 RMK AC6AC2 SLP904=

0000012500
334
SACN62 CYXC 110900
METAR CYXC 110900Z 13009G15KT 10SM -SN SCT035 OVC050 01/M01 A2962 RMK
 SC3SC5 SLP053=

00000000