0000036100
715
SAUK34 EGGY 110650
METAR EGHE 110650Z NIL=
METAR EGHK 110650Z NIL=
METAR EGHQ 110650Z 32009KT CAVOK 06/03 Q1018=
METAR EGJA 110650Z NIL=
METAR EGJB 110650Z 32009KT 9999 -RA SCT014 BKN035 08/06 Q1017=
METAR EGJJ 110650Z 33009KT 4000 -DZ SCT004 BKN012 08/08 Q1017 RERA
    BECMG 9999=
METAR EGTE 110650Z 33005KT CAVOK 03/03 Q1017=

0000034300
716
SAUK35 EGGY 110650
METAR EGHH 110650Z 31008KT CAVOK 05/04 Q1016=
METAR EGKA 110650Z NIL=
METAR EGKB 110650Z NIL=
METAR EGLF 110650Z NIL=
METAR EGMC 110650Z 26013G23KT 9000 -DZ BKN007 09/07 Q1013=
METAR EGMD 110650Z NIL=
METAR EGMH 110650Z 22010KT 9999 FEW011 SCT023 BKN038 08/07 Q1013 =
METAR EGTC 110650Z NIL=

0000036900
717
SAUK36 EGGY 110650
METAR EGBE 110650Z NIL=
METAR EGBJ 110650Z NIL=
METAR EGCN 110650Z 27009KT CAVOK 05/02 Q1013=
METAR EGSC 110650Z NIL=
METAR COR EGSD 110650Z 25015KT 8000 -RADZ BKN007 08/08 Q1011 BECMG
     31008KT SCT040=
METAR EGSH 110650Z 26010KT 9999 RA FEW008 BKN032 07/07 Q1011=
METAR EGVN 110650Z NIL=
METAR EGWU 110650Z NIL=

0000033700
718
SAUK37 EGGY 110650
METAR EGAE 110650Z NIL=
METAR EGNC 110650Z NIL=
METAR EGNH 110650Z 26006KT 9999 FEW027 06/05 Q1013=
METAR EGNJ 110650Z NIL=
METAR EGNO 110650Z NIL=
METAR EGNR 110650Z NIL=
METAR EGPE 110650Z 21009KT 9999 VCSH FEW010 BKN028 01/01 Q1008=
METAR EGPI 110650Z NIL=
METAR EGPN 110650Z NIL=

0000034800
719
SAUK38 EGGY 110650
METAR EGEC 110650Z NIL=
METAR EGEO 110650Z NIL=
METAR EGPA 110650Z NIL=
METAR EGPC 110650Z AUTO 24011KT 9999 NCD 02/00 Q1005=
METAR EGPL 110650Z AUTO 28017KT 9999 // BKN031/// 04/01 Q1009=
METAR EGPM 110650Z NIL=
METAR EGPO 110650Z 29013KT 9999 FEW010 SCT022 03/M01 Q1007=
METAR EGPU 110650Z NIL=

0000017300
720
SAVN24 SVMG 110700
METAR SVMG 110700Z /////KT 9999 SCT010 24/22 Q1013 NOSIG=
METAR SVCU 110700Z NIL=
METAR SVCP 110700Z NIL=
METAR SVGI 110700Z NIL=

0000048800
721
SASW32 LSSW 110650
METAR LSGC 110650Z VRB01KT CAVOK 02/01 Q1016=
METAR LSGS 110650Z VRB02KT 9999 FEW150 BKN200 02/02 Q1018=
METAR LSZG 110650Z 24002KT 0150 FG VV002 01/01 Q1018 NOSIG=
METAR LSZR 110650Z 23002KT 0800 R10/1200N FG VV002 03/02 Q1018 NOSIG
    RMK A=
METAR LSZS 110650Z VRB01KT 9999 BKN080 M06/M06 Q1019 R03/19//99=
METAR LSZC 110650Z AUTO VRB01KT 0100 FG VV002 01/01 Q1018=
METAR LSZL 110650Z AUTO 00000KT 9999NDV OVC047 06/05 Q1022 RMK WHT=

0000010100
722
SADN32 EKCH 110650 RRA
METAR EKSB 110653Z 23010KT 200V270 9999 BKN009 07/06 Q1007=

0000014100
723
SAVN23 SVBC 110700
METAR SVBC 110700Z 00000KT 9999 FEW010 22/20 Q1014=
METAR SVMT 110700Z NIL=
METAR SVHG 110700Z NIL=

0000013500
724
SAUK31 EGGY 110650 RRA
METAR EGPF 110650Z AUTO 28006KT 230V340 9999 FEW020/// SCT035///
    //////TCU 02/01 Q1011=

0000055500
725
FTUS42 KWBC 110654 AAA
TAF AMD
KGLS 110652Z 1107/1206 24007KT 3SM BR OVC002
     FM111000 24007KT 4SM BR SCT002 BKN012
     FM111200 27008KT P6SM SCT008 SCT015
     FM111400 33012KT P6SM SKC
     FM120000 01007KT P6SM SKC=
KPDK 110651Z 1107/1206 05004KT 1/2SM -RADZ FG OVC002
      TEMPO 1107/1109 1SM -TSRA BR OVC003CB
     FM111000 16006KT 2SM -SHRA BR OVC004
     FM111400 21009KT 3SM -SHRA BR OVC007
     FM111900 27010G18KT P6SM BKN025
     FM112100 29012G20KT P6SM SCT040
     FM120000 28011KT P6SM SCT250=

0000027100
726
FTUS43 KWBC 110654 AAA
TAF AMD
KMOT 110653Z 1107/1206 29015KT P6SM SCT006 BKN060
     FM111000 27011KT P6SM BKN015
     FM111600 24009KT P6SM SCT030
     FM112100 19010KT P6SM VCSH BKN070 OVC100
     FM120000 19012KT P6SM -FZRA SCT015 OVC060=

0000055500
727
FTUS72 KWBC 110654 AAA
TAF AMD
KGLS 110652Z 1107/1206 24007KT 3SM BR OVC002
     FM111000 24007KT 4SM BR SCT002 BKN012
     FM111200 27008KT P6SM SCT008 SCT015
     FM111400 33012KT P6SM SKC
     FM120000 01007KT P6SM SKC=
KPDK 110651Z 1107/1206 05004KT 1/2SM -RADZ FG OVC002
      TEMPO 1107/1109 1SM -TSRA BR OVC003CB
     FM111000 16006KT 2SM -SHRA BR OVC004
     FM111400 21009KT 3SM -SHRA BR OVC007
     FM111900 27010G18KT P6SM BKN025
     FM112100 29012G20KT P6SM SCT040
     FM120000 28011KT P6SM SCT250=

0000079300
728
SASN32 ESWI 110650
METAR ESKN 110650Z 35007KT 7000 -SN BKN004 M02/M02 Q0999
R26/720145=
METAR ESOE 110650Z AUTO 04012KT 4000NDV -SN FEW006/// SCT007///
BKN009/// M04/M04 Q1000=
METAR ESOK 110650Z AUTO 05010KT 2900 -SN BKN004/// OVC007/// M02/M02
Q0998=
METAR ESOW 110650Z AUTO 01006KT 9999NDV -SN FEW012/// OVC035///
M05/M06 Q1001 RESG=
METAR ESSA 110650Z 31003KT 3300 -SN FEW016 BKN041 M04/M05 Q1001
R01L/520250 R08/520253 R01R/19//68 TEMPO 2000=
METAR ESSB 110650Z 36004KT 1500 -SN FEW005 BKN007 M04/M04 Q1000=
METAR ESSD 110650Z AUTO 01004KT 9000 -SN FEW001/// SCT005///
OVC027/// M08/M10 Q1002=
METAR ESSP 110650Z 00000KT 9999 SCT011 OVC016 00/00 Q0999
R27/720154=
METAR ESSV 110650Z 23010KT 4000 -RA BKN005 BKN018 04/04 Q1000
R21/29//95=

0000010500
729
SABZ21 SBSV 110700 RRA
METAR SBSV 110700Z 09008KT 9999 SCT017
FEW020TCU 26/23 Q1012=

0000066900
730
SASN33 ESWI 110650
METAR ESNG 110650Z AUTO 31006KT 9999 NCD M21/M23 Q1013=
METAR ESNK 110650Z AUTO 34012KT 9999 -SN BKN033/// M10/M14 Q1006
RESG=
METAR ESNN 110650Z AUTO 32009KT 2500NDV -SN NCD M10/M12 Q1005
R16/49/79=
METAR ESNO 110650Z AUTO 36010KT 330V030 5000 -SN OVC019/// M12/M15
Q1004=
METAR ESNQ 110650Z AUTO 00000KT 9999NDV NCD M22/M24 Q1012=
METAR ESNS 110650Z 36013KT 1500 SN VV008 M13/M15 Q1007=
METAR ESNU 110650Z 35016KT 2600 -SN FEW021 SCT034 OVC051 M11/M14
Q1005 R14/49//50=
METAR COR ESNZ 110651Z 03003KT 9999 -SN VV028 M14/M16 Q1003=
METAR ESUT 110650Z AUTO VRB05G26KT 180V070 9999 SCT110/// M13/M20
Q1006=

0000026500
731
SAMX31 KWBC 110645 RRC
METAR
MMCZ 110641Z 14004KT 7SM SCT080 20/20 A2998 RMK 8/060=
MMMD 110645Z 11005KT 7SM SKC 21/21 A2996=
MMTP 110640Z 00000KT 8SM SCT080 24/22 A2992 RMK 8/030=
MMUN 110645Z 12009KT 7SM SCT015TCU 25/22 A2998 RMK 8/200=

0000053600
732
SASN34 ESWI 110650
METAR ESCF 110650Z AUTO 23007KT 9999NDV BKN016/// OVC022/// 03/03 
Q0999=
METAR ESDF 110650Z AUTO 25006KT 9999NDV FEW019/// SCT039/// 04/03 
Q1005=
METAR ESIB 110650Z AUTO 25009KT 9999NDV -SHRA FEW017/// OVC032/// 
05/04 Q0999=
METAR ESMV 110650Z NIL=
METAR ESPA 110650Z 02007KT 340V040 CAVOK M16/M19 Q1011=
METAR ESPE 110650Z AUTO 36005KT 340V070 9999NDV NCD M17/M20 Q1011=
METAR ESSL 110650Z AUTO 23007KT 9999NDV FEW015/// BKN021///
OVC028/// 03/02 Q0999 RERA REDZ R29/19//95=

0000040600
733
SASN35 ESWI 110650
METAR ESGR 110650Z NIL=
METAR ESKM 110650Z NIL=
METAR ESNL 110650Z AUTO 35008KT 9999NDV IC FEW015/// OVC023///
M14/M17 Q1007=
METAR ESNX 110650Z AUTO 01007KT 9999NDV NCD M17/M21 Q1008=
METAR ESNY 110650Z NIL=
METAR ESSF 110650Z NIL=
METAR ESSK 110650Z NIL=
METAR ESUD 110650Z AUTO 01005KT 340V040 9999 -SN SCT018/// BKN025///
BKN055/// M14/M17 Q1008=

0000053800
734
FTUS73 KWBC 110654 AAA
TAF AMD
KMKG 110651Z 1107/1206 18012G18KT 5SM -RA BR OVC004
     FM110800 18011KT 1 1/2SM -RA BR OVC003
     FM111000 20008KT 3/4SM -RA BR OVC004
     FM111200 22007KT 1/2SM -DZ FG OVC004
     FM111600 27009KT 4SM -SN BR OVC008
     FM112300 28013KT P6SM OVC025=
KMOT 110653Z 1107/1206 29015KT P6SM SCT006 BKN060
     FM111000 27011KT P6SM BKN015
     FM111600 24009KT P6SM SCT030
     FM112100 19010KT P6SM VCSH BKN070 OVC100
     FM120000 19012KT P6SM -FZRA SCT015 OVC060=

00000000