0000010600
675
SACN61 CYFC 110700
METAR CYFC 110700Z AUTO 35004KT 9SM OVC090 M12/M13 A3028 RMK SLP254=

0000010000
676
SAAG41 SACO 110700
METAR SACO 110700Z  16012KT 9999  SCT016 BKN100
22/15 Q1017=

0000011000
677
SACN45 CWAO 110700
METAR CYZS 110700Z 30005KT 15SM SKC M31/M35 A2964 RMK WND ESTD
SLP047=

0000011300
678
SACN45 CWAO 110700
METAR CYCO 110700Z 25016KT 10SM DRSN SKC M31/M39 A2949 RMK AURBOR
SLP991=

0000009200
679
SACN52 CWAO 110700
METAR CWXR 110700Z AUTO 29018KT M31/ A2937 RMK SLP963=

0000012600
680
SACN51 CWAO 110700
METAR CWUW 110700Z AUTO 19004KT 9SM SCT028 BKN047 BKN063 BKN071 M27/
A2919 RMK SLP966=

0000009200
681
SACN51 CWAO 110700
METAR CWPX 110700Z AUTO 26012KT M31/ A2925 RMK SLP940=

0000009000
682
SACN52 CWAO 110700
METAR CWKP 110700Z AUTO ///// M35/ A2918 RMK SLP939=

0000010300
683
SPIY40 LIIB 110700
SPECI LIPK 110700Z VRB01KT 0900 R12/P1500N FG BKN025 07/05 Q1021=

0000012100
684
SACN42 CWAO 110700
METAR CYIV 110700Z 35002KT 6SM -SN FEW012 BKN070 M11/M12 A2941 RMK
SC1AC6 SLP981=

0000012200
685
SACN45 CWAO 110700
METAR CYCB 110700Z 25009KT 10SM -SN SCT015 BKN060 M27/M31 A2933 RMK
SC2SC2 SLP940=

0000009500
686
SAPF20 NTAA 110700
METAR NTAA 110700Z VRB01KT 9999 FEW020 26/21 Q1013 NOSIG=

0000015300
687
SACN61 CYHE 110700
METAR CYHE 110700Z AUTO 12007KT 5SM RA BR FEW003 BKN032 OVC045 04/04
 A2955 RMK PRESFR PCPN 2.0MM PAST HR SLP008=

0000012200
688
SACN61 CYKL 110700
METAR CYKL 110700Z AUTO /////KT 8SM -SN OVC029 M09/M12 A2970 RMK WND
 MISG SLP102=

0000010600
689
SACN61 CYNA 110700
METAR CYNA 110700Z AUTO 28012KT 9SM OVC024 M06/M08 A3006 RMK SLP181=

0000012200
690
SACN61 CYHD 110700
METAR CYHD 110700Z AUTO 22004KT 1SM BR OVC003 M05/M06 A2936 RMK ICG
 INTMT SLP971=

0000011200
691
SACN61 CYHU 110700
METAR CYHU 110700Z AUTO 36005KT 6SM BR OVC031 M05/M07 A3008 RMK
 SLP187=

0000014400
692
SACN61 CYKF 110700
METAR CYKF 110700Z AUTO 11011KT 2 1/4SM -RA BR OVC003 02/02 A2969 RMK
 PRESFR PCPN 3.0MM PAST HR SLP063=

0000012600
693
SACN61 CYLW 110700
METAR CYLW 110700Z AUTO 09004KT 9SM -RA FEW045 OVC050 01/M00 A2961
 RMK PRESFR SLP042=

0000011300
694
SACN61 CYMM 110700
METAR CYMM 110700Z AUTO 12005KT 9SM CLR M18/M19 A2952 RMK PRESFR
 SLP031=

00000000