0000012500
535
SAPA31 KWBC 110500 RRB
METAR
PKWA 110520Z AUTO 07013KT 10SM SCT032 30/20 A2974 RMK AO2
     T02950201=

0000045600
536
FTTS32 DTTA 110500
TAF DTTA 110500Z 1106/1206 17003KT 4000 BR BECMG 1108/1110 18006KT
9999 FEW020 BECMG 1113/1115 VRB03KT=
TAF DTMB 110500Z 1106/1206 18008KT 9999 FEW020 TEMPO 1108/1118
18015G25KT=
TAF DTTJ 110500Z 1106/1206 18004KT 6000 NSC BECMG 1107/1109 19012KT
CAVOK=
TAF DTTZ 110500Z 1106/1206 27006KT 9999 FEW030 BECMG 1118/1120
VRB03KT=
TAF DTNH 110500Z 1106/1206 20005KT 9999 FEW020 TEMPO 1108/1118
20015G25KT=

0000046000
537
FTTS32 DTTA 110400 RRB
TAF DTTA 110500Z 1106/1206 17003KT 4000 BR BECMG 1108/1110 18006KT
9999 FEW020 BECMG 1113/1115 VRB03KT=
TAF DTMB 110500Z 1106/1206 18008KT 9999 FEW020 TEMPO 1108/1118
18015G25KT=
TAF DTTJ 110500Z 1106/1206 18004KT 6000 NSC BECMG 1107/1109 19012KT
CAVOK=
TAF DTTZ 110500Z 1106/1206 27006KT 9999 FEW030 BECMG 1118/1120
VRB03KT=
TAF DTNH 110500Z 1106/1206 20005KT 9999 FEW020 TEMPO 1108/1118
20015G25KT=

0000021000
538
SALV32 EVRA 110520
METAR EVLA 110520Z AUTO 28007KT 250V310 9999 FEW014 BKN016 OVC019 
02/00 Q1004=
METAR EVVA 110520Z AUTO 28008KT 250V310 9999 FEW006 BKN013 BKN022 
01/00 Q1002 RERASN=

0000168600
539
FABX31 EBBR 110845
EBBU GAMET VALID 111200/111800 EBBR-
EBBU BRUSSELS FIR BLW FL100
SECN I
SIG CLD:                12/15 BKN 200-700/5000 FT AGL IN E
TURB:                   12/14 MOD SFC/FL030
SECN II
PSYS:                   12 COMPLEX L 996 HPA FROM ICELAND TO 
                        SCANDINAVIA WITH ASSOCIATED OCCLUDED 
                        FRONTAL SYSTEM OVER HOLLAND AND CENTER OF 
                        BELGIUM, MOV E 30KT, NC. BEHIND IT, 
                        ADVECTION OF MARITIME AIR FROM W, STABILIZED 
                        BY A BUILDING RIDGE EXTENDING FROM W OF 
                        FRANCE TOWARDS IRELAND AND MOV SLW E.
SFC WSPD (?=30KT):      12/15 07-11 KT, 13-20 KT IN COASTAL AREA
                        15/18 04-09 KT 
WIND/T:                 1000 FT 12/14 260/25 KT PS05
                                14/18 310/15 KT PS05
                        2000 FT 12/14 270/30 KT PS03
                                14/18 320/20 KT PS03
                        5000 FT 12/14 280/35 KT MS01
                                14/16 300/25 KT MS03
                                16/18 320/20 KT MS04
                        10000 FT 12/14 280/40 KT MS06
                                 14/16 280/50 KT MS06
                                 16/18 300/55 KT MS06
SFC VIS (?5KM):         10 KM
CLD:                    FEW TO SCT CU,SC 2000/6000 FT AGL
                        12/15 BKN SC AC 1200/ABV10000 FT AGL IN E
FZLVL:                  3000 FT AGL
MNM QNH:                1015 HPA
OTLK:                   FM 18 TL 24 Z
                        SFC VIS: 21/24 3000-5000 M BR  

0000009900
540
SAIN31 EGGY 110900 RRA
METAR VOCI 110900Z 35007KT 5000 HZ FEW020 32/17 Q1009 NOSIG=
0000021700
541
SABO41 SLLP 110900
METAR SLLP 110900Z 08006KT 4000E VCFG FEW003 SCT200 04/03 Q1035=
METAR SLVR 110900Z 36004KT 9999 BKN007 BKN200 23/22 Q1010=
METAR SLCB 110900Z 00000KT 9999 FEW027 13/09 Q1023=

0000025100
542
FTDN33 EKCH 110500 AAB
TAF AMD EKKA 110905Z 1109/1206 22012KT 9999 SCT006 BKN030 TEMPO 
1109/1112 4000 -RADZ BR BKN006 BECMG 1110/1112 28012KT TEMPO 
1114/1124 5000 SHRA BKN020CB TEMPO 1200/1206 28015G28KT 5000 SHRA 
BKN020CB=

0000017400
543
FTDN33 EKCH 110500 AAC
TAF AMD EKSP 110910Z 1109/1206 24010KT 9999 SCT007 BKN025 TEMPO 
1109/1115 4000 RADZ BR BKN007 TEMPO 1115/1206 5000 SHRA BKN020CB=

0000013700
544
SPUS31 KWBC 110911
SPECI
KATL 110907Z VRB04KT 1/4SM R09R/4500VP6000FT +TSRA BR SCT003
BKN014CB OVC037 11/11 A2988=

0000011200
545
SPUS31 KWBC 110911
SPECI
KCLE 110907Z 19011G19KT 10SM -RA SCT024 BKN040 OVC080 10/07 A2962=

0000011900
546
SPUS41 KWBC 110911
SPECI
KCEF 110908Z AUTO 36003KT 1 1/4SM R23/5000FT -RA BR OVC002 00/00
A3010=

0000010700
547
SPUS41 KWBC 110911
SPECI
KDOV 110908Z AUTO 10005KT 3SM R01/4000FT BR OVC007 09/ A2998=

0000009800
548
SPUS43 KWBC 110911
SPECI
KBTL 110907Z 20012KT 1/2SM -RA FG VV002 04/03 A2947=

0000013600
549
SAUK39 EGGY 110900
METAR EGUN 110858Z AUTO 29010KT 9999 CLR 05/05 A2998 RMK AO2 SLP156
      60000 T00450045 52037=

0000009100
550
SPCN52 CWAO 110911
SPECI CWFD 110911Z AUTO 05002KT 3/4SM CLR M23/ A2905=

0000029000
551
FTCN31 CWAO 110900 AAA
TAF AMD CYQQ 110911Z 1109/1206 15020G30KT 2SM RA BR OVC007 TEMPO
     1109/1112 P6SM NSW SCT007 OVC025
    FM111200 18008KT P6SM SCT030 BKN120
    FM111800 15010G20KT P6SM SCT030 BKN200 TEMPO 1118/1206 P6SM VCSH
    RMK NXT FCST BY 111200Z=

0000017900
552
FTUS31 KWBC 110912 AAA
TAF AMD
KSTL 110909Z 1109/1212 26012KT P6SM OVC020
     FM111600 27012G20KT P6SM SCT020 BKN250
     FM120600 23007KT 6SM BR SCT250=

0000027600
553
FTUS41 KWBC 110912 AAA
TAF AMD
KILM 110911Z 1109/1206 17007KT P6SM SCT012
     FM111600 19012G20KT P6SM VCSH BKN018
      TEMPO 1119/1123 20020G30KT 2SM +SHRA BKN012CB
     FM112300 21012G19KT P6SM VCSH BKN025
     FM120300 25013G24KT P6SM SCT030=

0000023500
554
FTUS42 KWBC 110912 AAA
TAF AMD
KAUS 110910Z 1109/1212 23004KT 3SM BR FEW250
     FM111300 33010KT P6SM FEW250
     FM111700 01006KT P6SM FEW250
     FM120000 VRB03KT P6SM SKC
     FM120600 19005KT P6SM SKC=

00000000