0000008700
195
SAMC32 GMMC 110700 RRB
METAR GMML 110700Z 17001KT CAVOK 10/09 Q1018=

0000010600
196
SAIS32 LLBG 110720
METAR LLBG 110720Z VRB02KT 9999 FEW030 15/11 Q1025 NOSIG RMK SCT060=

0000051500
197
SADN31 EKCH 110720
METAR EKCH 110720Z 24014KT 9999 BKN013 06/05 Q1006 BECMG BKN007=
METAR EKBI 110720Z 24009KT 200V270 9999 -RA SCT009 BKN030 06/05
Q1005=
METAR EKYT 110720Z 24010KT 7000 -RA FEW006 BKN032 06/06 Q1002=
METAR EKRK 110720Z AUTO 23012KT 9999NDV FEW008/// BKN042///
BKN100/// 06/05 Q1006=
METAR EKAH 110720Z AUTO 22007KT 170V270 9999NDV DZ  BKN013///
BKN040/// 07/05 Q1004=
METAR EKEB 110720Z AUTO 22012KT 9999NDV DZ  OVC007/// 07/06
Q1005=
METAR EKRN 110723Z NIL=

0000016500
198
SADN32 EKCH 110720
METAR EKVJ 110723Z NIL=
METAR EKSB 110723Z NIL=
METAR EKSN 110723Z NIL=
METAR EKVD 110723Z NIL=
METAR EKOD 110723Z NIL=

0000051600
199
SADN34 EKCH 110720
METAR EKHN 110720Z AUTO VRB11G25KT 9000NDV BKN024/// ///// Q1007=
METAR EKHR 110720Z AUTO 23022KT 9999NDV -DZ  FEW011/// SCT035///
BKN040/// BKN047/// 08/06 Q1005=
METAR EKHA 110720Z AUTO 31022KT 9999NDV 06/04 Q1006=
METAR EKHD 110720Z AUTO 29021KT 9999NDV 07/02 Q1005=
METAR EKTE 110720Z AUTO 02016KT 9999NDV FEW029 BKN048 07/04 Q1006=
METAR EKGC 110720Z AUTO 31016KT 9999NDV 07/04 Q1006=
METAR EKAV 110720Z AUTO 22019KT 9999NDV FEW016/// BKN070///
06/05 Q1004=

0000026000
200
FTCN31 CWAO 110700 AAA
TAF AMD CYXT 110723Z 1107/1119 01018G28KT 3/4SM -SN BLSN VV005 TEMPO
     1107/1110 3SM -SN OVC020
    FM111000 01010KT P6SM SCT015 BKN040 TEMPO 1110/1119 3SM -SN
     FEW005 BKN015
    RMK NXT FCST BY 111300Z=

0000009500
201
SABW31 VGHS 110720
METAR VGHS 110720Z 33005KT 3500 HZ NSC 22/11 Q1015 NOSIG=

0000048700
202
SAUK31 EGGY 110720
METAR EGBB 110720Z 26008KT CAVOK 04/03 Q1015=
METAR EGCC 110720Z 25008KT 9999 -RA FEW016 BKN022TCU 04/03 Q1014=
METAR EGKK 110720Z 28008KT 9999 FEW035 SCT041 07/05 Q1015=
METAR EGLL 110720Z 28009KT 9999 SCT020 07/05 Q1015=
METAR EGPF 110720Z 25006KT 9999 FEW024TCU SCT041 02/01 Q1012=
METAR EGPH 110720Z 25007KT CAVOK 01/M00 Q1010=
METAR EGPK 110720Z 25014KT 9999 FEW018 05/02 Q1012=
METAR EGSS 110720Z 27007KT 9999 SCT017 06/03 Q1014=

0000044600
203
SAUK32 EGGY 110720
METAR EGAA 110720Z 23006KT 9999 FEW037 01/01 Q1015 RERA=
METAR EGAC 110720Z 15007KT 9999 FEW007 SCT011 02/01 Q1014=
METAR EGFF 110720Z 30009KT 9999 FEW030 04/03 Q1017=
METAR EGGW 110720Z 27012KT 9999 SCT013 05/04 Q1014=
METAR EGLC 110720Z NIL=
METAR EGNM 110720Z VRB03KT 9999 FEW020 02/02 Q1012=
METAR EGNX 110720Z 27010KT CAVOK 03/02 Q1014=
METAR EGPD 110720Z 25006KT CAVOK 00/M03 Q1006 NOSIG=

0000041800
204
SAUK33 EGGY 110720
METAR EGGD 110720Z 26008KT 9999 SCT012 03/03 Q1016=
METAR EGGP 110720Z 24009KT 9999 FEW020 05/03 Q1014=
METAR EGHI 110720Z 28003KT 250V320 9999 FEW035 05/03 Q1016 =
METAR EGNS 110720Z NIL=
METAR EGNT 110720Z 26012KT 9999 FEW030 02/02 Q1010=
METAR EGNV 110720Z 25009KT CAVOK 04/01 Q1012=
METAR COR EGPB 110720Z 26015KT 9999 -SHRA FEW012 SCT018 06/02 Q1000
     NOSIG=

0000037100
205
SAUK34 EGGY 110720
METAR EGHE 110720Z NIL=
METAR EGHK 110720Z NIL=
METAR EGHQ 110720Z 33009KT 9999 FEW026 06/03 Q1018=
METAR EGJA 110720Z 33012KT 9999 SCT022 08/05 Q1017=
METAR EGJB 110720Z 32009KT 9999 FEW018 BKN046 08/05 Q1018=
METAR EGJJ 110720Z 34007KT 9999 FEW010 BKN035 08/07 Q1017 NOSIG=
METAR EGTE 110720Z 03004KT CAVOK 02/01 Q1017=

0000037000
206
SAUK35 EGGY 110720
METAR EGHH 110720Z 31009KT CAVOK 05/04 Q1016=
METAR EGKA 110720Z NIL=
METAR EGKB 110720Z NIL=
METAR EGLF 110720Z NIL=
METAR EGMC 110720Z 29011KT 9000 -DZ FEW007 SCT011 BKN022 08/05
    Q1014=
METAR EGMD 110720Z NIL=
METAR EGMH 110720Z 23011KT 8000 -RA FEW010 SCT039 BKN047 08/07 Q1014
    =
METAR EGTC 110720Z NIL=

0000030200
207
SAUK36 EGGY 110720
METAR EGBE 110720Z NIL=
METAR EGBJ 110720Z NIL=
METAR EGCN 110720Z 27007KT CAVOK 05/02 Q1014=
METAR EGSC 110720Z NIL=
METAR EGSD 110720Z NIL=
METAR EGSH 110720Z 26010KT 9999 -RA SCT008 07/06 Q1012 RERA=
METAR EGVN 110720Z NIL=
METAR EGWU 110720Z NIL=

0000035600
208
SAUK37 EGGY 110720
METAR EGAE 110720Z NIL=
METAR EGNC 110720Z NIL=
METAR EGNH 110720Z 27012KT 9999 VCSH SCT026 07/04 Q1014=
METAR EGNJ 110720Z NIL=
METAR EGNO 110720Z NIL=
METAR EGNR 110720Z NIL=
METAR EGPE 110720Z 23005KT 9999 -SHRA FEW010 SCT018 BKN027 01/00
    Q1008=
METAR EGPI 110720Z NIL=
METAR EGPN 110720Z NIL=

0000035000
209
SAUK38 EGGY 110720
METAR EGEC 110720Z NIL=
METAR EGEO 110720Z NIL=
METAR EGPA 110720Z NIL=
METAR EGPC 110720Z AUTO 24008KT 9999 NCD 01/M00 Q1005=
METAR EGPL 110720Z 27017KT 9999 VCSH FEW032 SCT045 05/01 Q1009=
METAR EGPM 110720Z NIL=
METAR EGPO 110720Z 28007KT 9999 FEW012 SCT022 02/M01 Q1007=
METAR EGPU 110720Z NIL=

0000012900
210
SAUK31 EGGY 110720 CCA
METAR COR EGCC 110720Z 25008KT 9999 -RA FEW016 BKN022TCU 04/03 Q1014
     TEMPO SHRA=

0000013000
211
SPCN31 CWAO 110720
SPECI CYYZ 110720Z 11008KT 3SM -RA BR SCT003 OVC009 03/02 A2972 RMK
 SF4NS4 PRESFR SLP071=

0000013200
212
SAUK33 EGGY 110720 RRA
METAR EGNS 110720Z 29013KT 260V330 9999 -RA FEW011 BKN019 OVC042
     04/03 Q1014 NOSIG=

0000044900
213
SASW32 LSSW 110720
METAR LSGC 110720Z VRB02KT CAVOK 02/01 Q1016=
METAR LSGS 110720Z VRB01KT 9999 FEW150 BKN200 01/01 Q1019=
METAR LSZG 110720Z 25003KT 0200 FG VV002 01/01 Q1018 NOSIG=
METAR COR LSZR 110720Z 22001KT 0800 R10/1200N FG VV002 03/02 Q1018
     NOSIG RMK B=
METAR LSZS 110720Z 20002KT 9999 BKN080 M06/M06 Q1019 R03/19//99=
METAR LSZC 110720Z AUTO 28002KT 0100 FG VV002 02/02 Q1018=
METAR LSZL 110720Z NIL=

0000039700
214
FTUS31 KWBC 110724 AAA
TAF AMD
KLGA 110721Z 1107/1206 05007KT 1SM -SHRA BR OVC003 WS020/19040KT
      TEMPO 1107/1109 1/2SM -SHRA FG
     FM110900 15009KT 3SM -RA BR SCT003 OVC050 WS020/19055KT
     FM111400 17016KT 5SM -RA BR SCT015 OVC050 WS015/19060KT
     FM111800 18021G30KT 1/2SM +RA FG OVC004 WS015/19060KT
     FM120300 23014G20KT 3SM -SHRA BR SCT015 BKN030=

00000000