0000013100
055
SACN47 CWAO 110800
METAR CYWA 110800Z AUTO 13009KT 2 1/2SM OVC006 M02/M02 A2982 RMK PCPN
0.5MM PAST HR SLP107=

0000018700
056
FTDN31 EKCH 110500 AAA
TAF AMD EKCH 110800Z 1108/1206 23014KT 9999 BKN015 BECMG 1108/1110 
BKN007 TEMPO 1110/1116 4000 RA BR BKN012 BECMG 1116/1117 29015KT 
SCT020=

0000009200
057
SACN51 CWAO 110800
METAR CWIL 110800Z AUTO 19009KT M26/ A2938 RMK SLP962=

0000010000
058
SACN52 CWAO 110800
METAR CWFD 110800Z AUTO 19007KT 9SM CLR M23/ A2902 RMK SLP921=

0000011000
059
SAFG20 SOCA 110800
METAR SOCA 110800Z AUTO 28001KT 9999 SCT004 BKN015 BKN026 22/21
Q1011=

0000011200
060
SAGQ20 FGSL 110800
METAR FGSL 110800Z 21003KT 170V240 6000 FEW012 BKN130 28/24 Q1013
NOSIG=

0000011800
061
SACN46 CWAO 110800
METAR CYYH 110800Z 19008KT 15SM SCT035 BKN080 M32/M35 A2949 RMK
SC2AC1 SLP992=

0000011600
062
SACN45 CWAO 110800 CCA
METAR CYFS 110800Z CCA 31006KT 15SM OVC025 M24/M26 A2960 RMK SC7
SLP049=

0000010600
063
SACN45 CWAO 110800
METAR CYFS 110800Z 31006KT 15SM OVC025 M24/M26 A2960 RMK SC7 SLP049=

0000011900
064
SACN61 CYAY 110800
METAR CYAY 110800Z AUTO 27010G17KT 9SM BKN060 OVC100 M09/M12 A2995
 RMK SLP146=

0000010600
065
SACN62 CYBR 110800
METAR CYBR 110800Z 28013KT 15SM SCT005 M08/M08 A2954 RMK SF4 SLP034=

0000008400
066
SAAG41 SASA 110800
METAR SASA 110800Z  27004KT CAVOK 23/15 Q1013=

0000009200
067
SACN52 CWAO 110800
METAR CWYM 110800Z AUTO 27027KT M21/ A2919 RMK SLP959=

0000010400
068
SACN51 CWAO 110800
METAR CZCP 110800Z AUTO 28023KT 4SM -SN CLR M32/ A2940 RMK SLP974=

0000010000
069
SAAG41 SACO 110800
METAR SACO 110800Z  16007KT 9999  FEW016 BKN100
21/14 Q1017=

0000009600
070
SACN51 CWAO 110800
METAR CWOB 110800Z AUTO 27008KT CLR M20/ A2937 RMK SLP004=

0000007600
071
SACN52 CWAO 110800
METAR CWRH 110800Z AUTO 27015KT A2946=

0000009100
072
SAAG41 SAEZ 110800
METAR SAEZ 110800Z 16010KT 120V210 CAVOK 16/08 Q1014=

0000009500
073
SACN52 CWAO 110800
METAR CWTU 110800Z AUTO 29020G33KT M14/ A2952 RMK SLP060=

0000012200
074
SACN31 CWAO 110800
METAR CYTR 110800Z 12005KT 3SM -RA BR BKN009 OVC020 03/01 A2982 RMK
SF6SC2 SLP102=

00000000