0000008900
015
SAID32 WADL 110900
METAR WADL 110900Z 10006KT 8000 FEW016 27/24 Q1008=

0000011100
016
SAQB31 LQBK 110900
METAR LQBK 110900Z 01002KT 4000 1200N BR FEW002 08/06 Q1021 BECMG
5000=

0000009800
017
SABZ22 SBBR 110900
METAR SBBR 110900Z 00000KT 9999 FEW040 SCT070 20/15
Q1018=

0000094800
018
FTUS80 KWBC 110857 AAA
TAF AMD
KBNA 110856Z 1109/1206 19008KT 3SM -SHRA BR BKN025 OVC035
      TEMPO 1109/1111 1SM SHRA BR
     FM111200 26012G25KT P6SM OVC025
     FM111500 27010G20KT P6SM BKN050=
KCLE 110856Z 1109/1212 19010G20KT 3SM -RA BR SCT007 OVC020
     FM111100 19010G20KT 3SM -RA BR SCT007 OVC015
     FM111800 22010G20KT P6SM -RA OVC007
     FM112000 24010G20KT P6SM OVC015
     FM120400 24010G20KT P6SM -RASN OVC015=
KHTS 110854Z 1109/1206 15003KT P6SM OVC050
     FM111000 16011G16KT 5SM -RA BKN025 OVC040
     FM111200 19012G18KT 3SM SHRA SCT005 OVC012
     FM111500 25014G20KT 6SM BR BKN009 OVC020
     FM112300 26013G19KT P6SM BKN020=
KSTC 110855Z 1109/1206 29007KT 4SM BR OVC008
     FM110930 29007KT 5SM BR SCT012
     FM111030 30009KT P6SM SCT200
     FM111200 31010KT P6SM BKN020 BKN040
     FM111800 30009KT P6SM SCT040 SCT250
     FM120000 24006KT P6SM SCT020 BKN100=

0000009300
019
SAUK36 EGGY 110850 RRA
METAR EGWU 110850Z 30007KT CAVOK 05/03 Q1017 NOSIG=

0000028100
020
SANL32 EHDB 110855
METAR EHEH 110855Z AUTO 23011KT 5000 BR BKN005 OVC006 04/03 Q1015 
YLO 22011KT 7000 SCT006 OVC007=
METAR EHKD 110855Z AUTO 21020KT 3000 R21/2900 DZRA BKN004 OVC005
07/06 Q1010 
YLO 23018G28KT 5000 -RADZ FEW003 BKN005 OVC007 TEMPO 2500=

0000036600
021
SAMX31 KWBC 110845 RRB
METAR
MMCZ 110846Z 00000KT 7SM FEW080 21/21 A2997 RMK SLP156 52004 958
     8/060 SC=
MMMD 110849Z 00000KT 7SM SKC 20/20 A2995 RMK SLP146 57004 970=
MMMZ 110848Z 36007KT 10SM SKC 11/08 A2996 RMK SLP145 54000 907=
MMTP 110845Z NIL=
MMUN 110848Z 14009KT 7SM FEW015TCU 25/23 A2998 RMK SLP131 57013
     960 8/200=

0000011500
022
SADL35 EDZO 110850 CCA
METAR COR EDTL 110850Z VRB03KT 4000N 9999 RA FEW011 BKN060 04/04
Q1018=

0000009800
023
SABZ24 SBFL 110900
METAR SBFL 110900Z 35006KT 9999 FEW009 BKN040 23/21
Q1011=

0000010500
024
SAPR01 SPIM 110900
METAR SPIM 110900Z 16010KT 9999 OVC006 21/19 Q1010 NOSIG RMK PP000=

0000008300
025
SABZ24 SBFI 110900
METAR SBFI 110900Z 13005KT CAVOK 24/22 Q1011=

0000009600
026
SAMA21 FIMP 110900
METAR FIMR 110900Z 10018KT 9999 SCT017 BKN050 30/24 Q1015=

0000045300
027
SAMX42 MMGL 110855
METAR MMGL 110854Z 00000KT 10SM  BKN030 12/07 A3019 
      RMK SLP140 57003 917 8/500=
METAR MMMM 110849Z 00000KT 7SM  SCT030 09/07 A3024 
      RMK SLP136 54000 902 8/500=
METAR MMPR 110847Z 00000KT 10SM  BKN090 18/16 A2996 
      RMK SLP145 52001 914 8/030=
METAR MMSP 110841Z 00000KT 8SM  SCT080 08/04 A3023 
      RMK SLP132 52004 919 8/030 SC=
METAR MMZC 110840Z 19003KT 10SM  SKC 02/M03 A3028=

0000037000
028
SAFI34 EFHK 110850
EFET 110850Z AUTO 01003KT CAVOK M30/M32 Q1015=
EFIV 110850Z 24002KT 3000 -SN OVC004 M28/M31 Q1018 R04/41//88=
EFKE 110850Z AUTO 02011KT CAVOK M16/M20 Q1011=
EFKI 110850Z 04008KT 9999 SCT010 SCT070 M16/M18 Q1004=
EFKS 110850Z AUTO 04008G18KT 340V110 CAVOK M16/M20 Q1007=
EFKT 110850Z 36003KT CAVOK M25/M27 Q1015 R16/////95=

0000008900
029
SABZ21 SBNT 110900
METAR SBNT 110900Z 12006KT 9999 SCT022 25/21 Q1012=

0000009300
030
SAUK37 EGGY 110850 RRB
METAR EGPI 110850Z 27014KT 9999 FEW025 05/03 Q1014=

0000010900
031
SPUS31 KWBC 110856
SPECI
KPHF 110851Z 25007KT 10SM -RA BKN005 BKN023 OVC028 18/16 A3002=

0000010900
032
SPUS41 KWBC 110856
SPECI
KCEF 110854Z AUTO 36001KT 1SM R23/3500FT BR OVC002 00/00 A3011=

0000009600
033
SPUS44 KWBC 110856
SPECI
KHQM 110851Z AUTO 17033G50KT 2SM -SN OVC015 A2951=

0000009800
034
SABZ19 SBMQ 110900
METAR SBMQ 110900Z 01003KT 9999 FEW013 BKN080 24/23
Q1010=

00000000