0000032800
795
SNVD22 KWNB 111700 RRM
BBXX
46251 11171 99338 71196 46/// ///// 1//// 91709 22200 00153 11403
20702 327// 41402 70014=
46243 11171 99462 71241 46/// ///// 1//// 91716 22200 00088 11009
21008 323// 41104 70045=
46217 11171 99342 71194 46/// ///// 1//// 91709 22200 00153 11102
20901 327// 41101 70009=
0000013900
796
SSVX02 CWAO 111700
ZZYY 64731 11014 1700/ 764295 012735 6113/ 22219 
00053 444 20130 11014 1700/ 50101 80138 80002 9////=
0000016000
797
SSVX02 CWAO 111700
ZZYY 56513 11014 1700/ 344510 114439 6112/ 11119 
40120 57010 22219 00115 444 20130 11014 1700/ 50101 80150 80021 
9/015=
0000013900
798
SSVX02 CWAO 111700
ZZYY 64735 11014 1700/ 765575 000790 6113/ 22219 
00055 444 20130 11014 1700/ 50101 80140 80008 9/015=
0000137000
799
SASA31 KWBC 110800
METAR SEGU 110800Z 22008KT 9999 FEW012 BKN026 25/20 Q1009 RMK A2981
NOSIG=
METAR SEQU NIL=
METAR SKBO 110800Z 05004KT 9999 BKN015 10/09 A3025=
METAR SKBQ 110800Z 04014KT CAVOK 26/23 A2982=
METAR SKCG 110800Z 00000KT CAVOK 24/2 A2980=
METAR SKCL 110800Z 00000KT 9999 FEW020 BKN090 21/19 A2992=
METAR SKLT NIL=
METAR SKRG 110800Z 00000KT 6000 VCFG BKN010 SCT070 14/14 A3024 RMK
VCFG/N/S=
METAR SKSP 110800Z 08015KT 9999 SCT017 27/24 A2987=
METAR SMNI NIL=
METAR SMZO 110800Z NIL=
METAR SMZY NIL=
METAR SOCA 110800Z AUTO 28001KT 9999 SCT004 BKN015 BKN026 22/21
Q1011=
METAR SPIM 110800Z 16009KT CAVOK 21/19 Q1010 NOSIG RMK BKN 17000FT
PP000=
METAR SPQT 110800Z 22003KT 8000 FEW004 SCT040 OVC100 24/23 Q1009
     NOSIG
RMK PP000=
METAR SPQU 110800Z 05002KT 4000 BCFG SCT010 10/10 Q1023 RMK PP000=
METAR SPSO 110800Z /////KT 9999 SCT100 21/19 Q1010 RMK PP000=
METAR SPTN 110800Z VRB01KT CAVOK 20/16 Q1009 RMK PP000=
METAR SPYL NIL=
METAR SPZO 110800Z 11003KT 9999 FEW020 SCT043 BKN070 09/07 Q1029 RMK
PP000=
METAR SVBC 110800Z 00000KT 9999 FEW010 22/20 Q1013=
METAR SVMC 110800Z NIL=
METAR SVMG 110800Z /////KT 9999 SCT010 24/22 Q1013 NOSIG=
METAR SVMI 110800Z 00000KT 9999 FEW016 22/18 Q1013 NOSIG=
METAR SYCJ 110800Z 00000KT 8000 SCT015 21/20 Q1012 NOSIG=
METAR SYTM NIL=

0000167800
800
SPUS70 KWBC 110836
SPECI
KAHN 110832Z AUTO 12003KT 1/2SM +TSRA FG VV005 07/07 A2994 RMK AO2
     LTG DSNT ALQDS TSB02 P0019=
KCSG 110832Z AUTO 21008KT 3/4SM -RA BR VV002 16/16 A2991 RMK AO2
     RAB00E15B31 P0001=
KLCH 110832Z AUTO 24007KT 4SM BR OVC002 18/18 A2986 RMK AO2
     T01780178=
KMEB 110832Z AUTO 20007KT 1SM BR VV003 16/16 A3000 RMK AO2
     T01560156=
KOGB 110832Z AUTO 19006KT 1SM BR VV003 17/16 A2998 RMK AO2
     T01720161 TSNO=
KPAH 110832Z AUTO 22010KT 10SM SCT007 BKN015 OVC024 11/09 A2960
     RMK AO2 T01110094=
KTAN 110832Z AUTO 12004KT 3/4SM BR BKN024 BKN048 OVC060 04/02
     A3017 RMK AO2 T00390022=
PAIG 110832Z AUTO 00000KT 10SM OVC003 M08/M09 A2937 RMK AO2 TSNO
     OVC V BKN $=
PAJZ 110836Z AUTO 36005KT 10SM OVC005 M09/M11 A2943 RMK AO2 PWINO
     TSNO CIG 001V007 $=
KFIG 110833Z AUTO 36008KT 1/4SM FG VV003 01/01 A2986 RMK AO2
     PRESFR T00110011=
KGON 110833Z AUTO 15005KT 1SM R05/P6000FT BR SCT003 OVC019 07/06
     A3016 RMK AO2 RAE16 P0000=
KMIC 110833Z 29004KT 4SM BR OVC010 M02/M03 A2946 RMK AO2=
K1M4 110833Z AUTO 21006KT 2SM TSRA BR BKN003 OVC020 14/14 A2971
     RMK AO2 CIG 001V010 LTG DSNT ALQDS P0043=
KBMI 110833Z AUTO 24010KT 1SM R29/5000VP6000FT -RA BR OVC001 03/03
     A2948 RMK AO2 P0002=
KCGI 110833Z AUTO 24014KT 10SM SCT023 08/07 A2961 RMK AO2
     T00830072=
KMNN 110833Z AUTO 19016KT 10SM -RA SCT017 SCT060 OVC090 09/08
     A2962 RMK AO2 P0004 TSNO=
KRDG 110833Z 02003KT 1 3/4SM -RA BR OVC003 01/01 A3001 RMK AO2
     P0001=
KTDZ 110833Z AUTO 18009KT 2 1/2SM -RA BR FEW018 SCT029 OVC038
     04/03 A2956 RMK AO2 PRESFR P0000 TSNO=

0000018200
801
SACA33 KWBC 110800 RRD
METAR
TFFF 110830Z AUTO 04005KT 360V070 9999 BKN060 OVC070 24/20
     Q1015=
TFFR 110830Z AUTO VRB01KT 9999 FEW028 BKN046 21/20 Q1016=

0000010200
802
SPUS31 KWBC 110837
SPECI
KJAX 110833Z 19005KT 1/2SM FG SCT000 OVC003 19/19 A3004=

0000011900
803
SPUS41 KWBC 110837
SPECI
KGON 110833Z AUTO 15005KT 1SM R05/P6000FT BR SCT003 OVC019 07/06
A3016=

0000010700
804
SAUG20 HUEN 110800
METAR
HUEN 110800Z 27005KT 7000 FEW022 FEW024CB SCT250 25/22 Q1019=

0000011300
805
SPCN43 CWAO 110836
SPECI CWHN 110836Z AUTO 25006KT 9SM OVC004 M09/M10 A2950 RMK ICG PAST
HR=

0000045100
806
SAAL40 DAMM 110830
METAR DAAG 110830Z 22004KT CAVOK 14/10 Q1019=
METAR DAAT 110830Z 09007KT CAVOK 15/M02 Q1025=
METAR DABB 110830Z 21006KT CAVOK 10/07 Q1018=
METAR DABC 110830Z 25002KT CAVOK 10/03 Q1021=
METAR DABS 110830Z 14004KT CAVOK 04/M02 Q1021=
METAR DAON 110830Z 20022KT 9999 SCT026 BKN100 16/05 Q1018=
METAR DAOO 110830Z 00000KT 9999 SCT030 SCT100 14/10 Q1018=
METAR DAUH 110830Z NIL=
METAR DAUZ 110830Z NIL=

0000026200
807
SAIO31 KWBC 110800 RRH
METAR
FMCZ 110830Z 07004KT 040V120 9999 SCT022 SCT100 BKN300 31/24 Q1013
     NOSIG=
FMEE 110830Z 10024KT 9999 FEW028 SCT260 31/20 Q1014 NOSIG=
VYMD 110830Z 36003KT 8000 NSC 29/16 Q1015 NOSIG=
VYYY 110830Z NIL=

0000051100
808
FTCN31 CWAO 110800
TAF CYVR 110838Z 1109/1212 09015G25KT 6SM -RA BR SCT007 OVC015 TEMPO
     1109/1112 2SM RA BR BKN007
     BECMG 1110/1112 20015G25KT
    FM111200 20015G25KT P6SM -SHRA SCT015 BKN040 TEMPO 1112/1124 5SM
     -SHRA BR BKN015
     BECMG 1117/1119 20020G30KT
    FM120000 20015G25KT P6SM BKN050
     BECMG 1200/1202 30015G30KT
     BECMG 1202/1204 30030G40KT
    FM120800 30020G30KT P6SM SCT050
     BECMG 1210/1212 30015G25KT
    RMK NXT FCST BY 111200Z=

0000035100
809
FTCN32 CWAO 110800
TAF CYEG 110838Z 1109/1206 16010KT P6SM FEW150 BKN220
    FM111000 12012KT P6SM -SN BKN100 TEMPO 1110/1114 4SM -SN OVC060
    FM111400 14018KT 4SM -SN SCT020 OVC060 TEMPO 1114/1120 2SM -SN
     VV012
    FM112000 20015KT P6SM BKN060 BKN120
    FM112200 30012KT P6SM SCT200
    RMK NXT FCST BY 111200Z=

0000025100
810
FTCN32 CWAO 110800
TAF CYYC 110838Z 1109/1206 16012KT P6SM BKN080 BKN140 BKN220
    FM111700 24010KT P6SM SCT120 BKN220
    FM112100 27018G28KT P6SM SCT100 SCT220
    FM120200 24015KT P6SM SCT200
    RMK NXT FCST BY 111200Z=

0000009400
811
SAFI34 EFHK 110820 RRA
EFKT 110838Z 36003KT CAVOK M25/M28 Q1015 R16/////95=

0000008700
812
SAIE32 EIDB 110830 RRB
METAR EISG 110830Z VRB02KT CAVOK 03/00 Q1016=

0000029800
813
FTOS31 LOWM 110500 AAA
TAF AMD LOWW 110832Z 1108/1212 15006KT CAVOK TX07/1200Z TN02/1108Z
    BECMG 1111/1113 9999 SCT005
    PROB40 TEMPO 1112/1119 3000 BR BKN005
    BECMG 1119/1121 28013KT 9999 BKN040
    TEMPO 1121/1208 31015G27KT SCT040
    FM120800 30012KT CAVOK=

0000235700
814
SPUS70 KWBC 110838
SPECI
KCRE 110834Z AUTO 18012KT 10SM SCT024 BKN030 OVC045 17/17 A3001
     RMK AO2=
KCXY 110834Z AUTO 12003KT 1 3/4SM BR OVC003 01/01 A3000 RMK AO2
     RAE03UPB03E05 P0000=
KFLO 110834Z 17004KT 6SM BR BKN011 OVC018 17/16 A3000 RMK AO2
     RAB14E23 CIG 008V015 P0000=
KSGJ 110834Z 14005KT 1/2SM FG SCT007 SCT011 16/16 A3005 RMK
     AO2=
KFFC 110834Z AUTO 15006KT 8SM -RA BKN023 BKN035 OVC055 14/14 A2988
     RMK AO2 LTG DSNT ALQDS TSB03E28 P0033 T01440144=
KIAH 110834Z 22003KT 1 1/2SM BR FEW004 16/16 A2986 RMK AO2 SFC VIS
     2=
KMTO 110834Z AUTO 20009KT 1/4SM FG VV002 05/ A2951 RMK AO2
     RAB03E19 P0001 T0050 TSNO $=
KPWM 110834Z AUTO 00000KT 2SM UP BR OVC005 M01/M02 A3022 RMK AO2
     VIS 1 1/4 W UPB27 P0001 T10061017=
KSBY 110834Z AUTO 17017G29KT 10SM -RA OVC008 17/16 A2999 RMK AO2
     PK WND 14029/0827 CIG 005V012 P0000=
PAOO 110834Z AUTO 05022KT 4SM -SN FEW016 SCT050 M09/M12 A2929 RMK
     AO2 TSNO P0000 PK WND 06029/0805 $=
KTOI 110834Z AUTO 18010G16KT 10SM OVC005 19/18 A2990 RMK AO2 LTG
     DSNT SE CIG 004V010 T01890178=
KAXN 110835Z AUTO 28008KT 10SM BKN009 M07/M08 A2947 RMK AO2=
KBLI 110835Z AUTO 15026G44KT 10SM BKN024 BKN060 OVC080 12/07 A2935
     RMK AO2 PK WND 15045/0805 RAE29 PRESFR P0000=
KBNA 110835Z 00000KT 3SM +RA BR SCT028 OVC035 12/11 A2968 RMK AO2
     P0015=
KBPT 110835Z AUTO 22005KT 1 3/4SM BR OVC006 17/17 A2985 RMK AO2
     $=
KBUY 110835Z AUTO 00000KT 1 3/4SM BR OVC003 04/03 A2999 RMK AO2
     T00440033=
KECG 110835Z AUTO 17008KT 10SM BKN009 OVC014 18/17 A3006 RMK AO2
     RAB03E15 CIG 006V011 P0000 T01780167 TSNO=
KGLS 110835Z AUTO 23007KT 3/4SM BR VV002 17/17 A2988 RMK AO2=
KLAF 110835Z AUTO 17003KT 2SM -RA BR OVC003 05/05 A2951 RMK AO2
     RAB16 P0001 T00500050=
KLWM 110835Z AUTO 07004KT 3/4SM -RA BR OVC005 02/00 A3019 RMK AO2
     P0001 T00170000=
KMTW 110835Z AUTO 00000KT 1SM BR FEW004 OVC008 02/01 A2939 RMK AO2
     FZRANO=
KOXB 110835Z AUTO 18007KT 2 1/2SM -RA BR BKN003 BKN019 OVC095
     11/10 A3007 RMK AO2 P0005 T01060100 TSNO=
KPLN 110835Z AUTO 00000KT 3SM BR OVC008 01/00 A2939 RMK AO2 CIG
     006V010 T00060000=
KTYR 110835Z 00000KT 4SM BR CLR 09/08 A2988 RMK AO2=
PAAQ 110835Z AUTO 24003KT 7SM BKN007 BKN012 OVC017 M04/M05 A2929
     RMK AO2 TSNO=

00000000