0000010700
255
SPUS43 KWBC 110627
SPECI
KSDF 110623Z 25005KT 3SM RA BKN007 BKN033 OVC046 11/10 A2971=

0000009600
256
SPUS43 KWBC 110627
SPECI
KSUS 110623Z AUTO 25012KT 10SM BKN018 08/06 A2953=

0000011600
257
SPUS44 KWBC 110627
SPECI
KBKE 110623Z AUTO 00000KT 10SM -RA SCT016 BKN055 OVC080 01/00
A3001=

0000026800
258
SANL32 EHDB 110625
METAR EHEH 110625Z AUTO 21005KT 9999 OVC007 03/02 Q1014 
GRN 22005KT 8000 OVC007=
METAR EHKD 110625Z AUTO 21019KT 5000 -RA FEW005 SCT006 BKN013 07/06
Q1010 RERA REDZ 
YLO 22018G28KT 6000 -RA -RADZ SCT005 OVC007 TEMPO 4000=

0000011900
259
SADL34 EDZO 110620 RRA
METAR EDNY 110620Z AUTO 08002KT 0550 0450/ R24/1500N FG BKN002 01/00
Q1018=

0000014700
260
SACN62 CYAM 110600 CCA
METAR CYAM 110600Z CCA 08007KT 3/8SM SN BR OVC007 M00/M01 A2951 RMK
 SN4ST4 CIG VRB 3-10 PRESFR SLP003=

0000083800
261
SAIY31 LIIB 110620
METAR LIEA 110620Z 02004KT CAVOK 06/06 Q1020=
METAR LIEE 110620Z 02003KT 300V040 CAVOK 06/06 Q1019=
METAR LIEO 110620Z 21003KT 1800 0500SE R05/1200VP1500N BCFG NSC
04/03 Q1021=
METAR LIMC 110620Z VRB01KT 4000 BR BKN030 07/06 Q1022 NOSIG=
METAR LIME 110620Z 15003KT 5000 BR BKN010 08/06 Q1022=
METAR LIMF 110620Z 00000KT 7000 BKN030 07/05 Q1021=
METAR LIMJ 110620Z 03003KT 360V080 9999 SCT015 BKN032 12/09 Q1021=
METAR LIML 110620Z VRB02KT 5000 BR SCT007 BKN050 08/07 Q1022 NOSIG=
METAR LIRA 110615Z 04002KT 8000 FEW010 04/04 Q1022=
METAR LIRF 110620Z 07005KT 6000 SCT030 06/06 Q1022 NOSIG=
METAR LIRN 110620Z 34003KT 300V010 5000 BR SCT050 07/05 Q1022=
METAR LIRP 110615Z 09004KT 9999 SCT050 08/07 Q1021 NOSIG=
METAR LIRQ 110620Z VRB01KT 5000 MIFG FEW010 BKN040 10/10 Q1022=

0000059500
262
SANO38 ENMI 110620
METAR ENDR 110620Z 08024KT 9999 SHSN BKN020 M04/M09 Q1001=
METAR ENEK 110620Z 30022KT 9999 FEW025 SCT110 06/01 Q1004 W08/S4=
METAR ENGC 110620Z 08015KT 9999 BKN021 02/M02 Q0997 W06/S5=
METAR ENHE 110620Z 10030KT 9999 BKN030 M02/M08 Q1003 W///S5=
METAR ENOA 110620Z 27026KT 9999 FEW023 07/03 Q0995 W///S5=
METAR ENSL 110620Z 29031KT 9999 FEW025 BKN048 06/01 Q1001 W05/S5=
METAR ENFB 110620Z AUTO 08016KT 9999NDV OVC018/// 03/00 Q0997
           W///S5=
METAR ENSF 110620Z AUTO 07018KT 9999NDV -SHRA BKN018/// 03/M01 Q0997
           W///S5=

0000059500
263
SAIY32 LIIB 110620
METAR LIBD 110620Z 23005KT 4000 BR NSC 05/05 Q1023=
METAR LIBR 110615Z 27003KT 9999 FEW020 06/05 Q1022 NOSIG=
METAR LICC 110620Z NIL=
METAR LICJ 110620Z 20003KT 170V260 CAVOK 11/09 Q1021=
METAR LIPE 110620Z 00000KT 2500 BR BKN050 07/07 Q1022=
METAR LIPH 110615Z /////KT 2000 BR SCT020 BKN050 07/06 Q1022=
METAR LIPQ 110620Z VRB01KT 2000 BR SCT015 BKN050 06/04 Q1022=
METAR LIPR 110615Z /////KT 6000 BKN050 09/09 Q1022=
METAR LIPX 110615Z 22001KT 1000 R04/P1500N BR BKN050 08/06 Q1022=
METAR LIPZ 110620Z VRB02KT 3000 BR BKN042 08/07 Q1022=

0000004200
264
SAIY33 LIIB 110620
NIL=

0000041800
265
SAFI33 EFHK 110620
EFJO 110620Z 36009KT 330V040 9999 -SN FEW012 BKN014 M08/M10 Q0997=
EFLP 110620Z AUTO 36011KT 310V050 9999 OVC012 M06/M09 Q0996=
EFMI 110620Z AUTO 35006KT 300V070 9999 OVC012 M07/M08 Q0998=
EFSA 110620Z AUTO 34007KT 300V020 9999 -SN OVC016 M07/M09 Q0997=
EFUT 110620Z AUTO 36013KT 9999 OVC011 M07/M08 Q0997=
EFVR 110620Z AUTO 36009KT 330V040 0500 SN OVC017 M08/M11 Q0998=

0000027800
266
SANO34 ENMI 110620
METAR ENBN 110620Z NIL=
METAR ENBV 110620Z 23008KT 9000 -SHSN FEW007 SCT016 BKN040 M05/M06
           Q1016=
METAR ENFG 110620Z NIL=
METAR ENHF 110620Z NIL=
METAR ENRA 110620Z 08015KT CAVOK M09/M22 Q1012=
METAR ENSH 110620Z NIL=

0000008700
267
SAIY32 LIIB 110620 RRA
METAR LICC 110620Z 25005KT CAVOK 05/03 Q1022=

0000066100
268
SANO31 ENMI 110620
METAR ENAN 110620Z 11012KT CAVOK M06/M13 Q1016=
METAR ENBR 110620Z 25007KT 210V280 9999 FEW008 SCT020 BKN030 05/04
           Q0996 TEMPO 4000 SHRA BKN012CB RMK WIND 1200FT 26014KT=
METAR ENBO 110620Z 11014KT CAVOK M08/M19 Q1012=
METAR ENDU 110620Z 00000KT CAVOK M25/M28 Q1018=
METAR ENGM 110620Z 03008KT 3100 -SN BR BKN007 M05/M05 Q0998 TEMPO
           2000 SN BKN004=
METAR ENOL 110620Z 10018KT 9999 FEW010 M08/M13 Q1002=
METAR ENVA 110620Z 07008KT 9999 FEW045 M11/M17 Q1004 NOSIG RMK WIND
           670FT 10009KT=
METAR ENZV 110620Z 30010KT 9999 FEW020 SCT025 BKN090 05/02 Q1000
           NOSIG=

0000024100
269
FTPO31 LPMG 110500 AAA
TAF AMD LPPT 110625Z 1106/1212 33005KT CAVOK BECMG 1111/1113 13005KT
             9999 FEW015 BECMG 1114/1116 18005KT BECMG 1121/1124
             BKN008 TEMPO 1200/1212 3000 DZ BR SCT002 BKN005=

0000008700
270
SAAL41 DAMM 110600 RRI
METAR DAOI 110600Z 04006KT CAVOK 14/05 Q1018=

0000010000
271
SACG21 FCBB 110600 RRA
METAR FCOI 110600Z 00000KT 9999 FEW010 BKN100 24/23 Q1015=

0000075300
272
SANO39 ENMI 110620
METAR ENNE 110620Z 09023KT 9999 -SHSN BKN025 M04/M09 Q1006 W02/S/=
METAR ENQR 110620Z AUTO VRB08KT 5000NDV -SHRASN OVC013/// 02/M01
           Q0997 W///S/=
METAR ENSE 110620Z AUTO 07017KT 8000NDV -SHRASN FEW019/// BKN024///
           BKN029/// 01/M03 Q0997 W///S5=
METAR ENQC 110620Z AUTO 06009KT 9999NDV OVC019/// 04/00 Q0996
           W///S4=
METAR ENQA 110620Z AUTO VRB03KT 9999NDV FEW008/// SCT017/// BKN021///
           04/02 Q0996 W04/S4=
METAR ENHM 110620Z 27032KT 7000 DZ FEW023 SCT037 05/01 Q0998 W08/S5=
METAR ENVH 110620Z AUTO 31021KT 9999NDV FEW026/// BKN100/// 06/01
           Q1004 W///S4=
METAR ENLA 110620Z AUTO 28023KT 9999NDV SCT029/// 06/01 Q1003
           W///S4=

0000059100
273
SANO33 ENMI 110620
METAR ENAT 110620Z NIL=
METAR ENBL 110620Z NIL=
METAR ENEV 110620Z AUTO 14006KT 090V180 9999NDV NCD M08/M16 Q1016 RMK
           WIND 1400FT 08011KT=
METAR ENFL 110620Z NIL=
METAR ENKB 110620Z 10005KT 050V140 9000 SCT012 BKN023 M04/M07 Q0999=
METAR ENKR 110620Z 16009KT 9000 -SN FEW007 BKN010 OVC017 M21/M23
           Q1017 SEASMOKE NORTH OF THE FIELD RMK WIND 775FT 24009KT=
METAR ENML 110620Z 02005KT 9999 SCT020 BKN035 M04/M07 Q0999=
METAR ENNA 110620Z 19002KT 9999 FEW005 SCT064 M19/M21 Q1018 RMK WIND
           1800FT 03003KT=

0000056300
274
SANO32 ENMI 110620
METAR ENAL 110620Z 11005KT 040V140 9999 SCT031 M02/M07 Q0998=
METAR ENCN 110620Z 00000KT 9999 PRFG NSC 01/01 Q1000=
METAR ENHD 110620Z 26021KT 9999 -SHRA FEW018 SCT041 BKN061 06/03
           Q0999=
METAR ENRO 110620Z AUTO 07005KT 040V100 9999NDV FEW014/// OVC060///
           M17/M20 Q0998=
METAR ENRY 110620Z 00000KT CAVOK M00/M01 Q0997=
METAR ENSB 110620Z NIL=
METAR ENTC 110620Z 16003KT 9999 SCT011 M12/M14 Q1018 NOSIG RMK WIND
           2600FT 10010KT=
METAR ENTO 110620Z 25006KT CAVOK 01/00 Q0997=

00000000