0000019100
235
FTCN33 CWAO 110600
TAF CYCB 110639Z 1107/1119 20010KT P6SM FEW015 SCT060 TEMPO 1107/1119
     5SM -SN BKN015
     BECMG 1109/1111 28010KT
    RMK NXT FCST BY 111300Z=

0000030600
236
FTCN34 CWAO 110600
TAF CYTH 110639Z 1107/1119 07005KT 3SM -SN OVC012 TEMPO 1107/1112
     P6SM NSW SCT012 BKN030
     BECMG 1107/1109 03006KT
    FM111200 36006KT P6SM SCT020 BKN030 TEMPO 1112/1119 4SM -SN
     BKN020
     BECMG 1116/1118 32005KT
    RMK NXT FCST BY 111300Z=

0000014400
237
FTCN33 CWAO 110600
TAF CYUX 110639Z 1107/1119 FCST NOT AVBL DUE NO OBS
    RMK FCST BASED ON AUTO OBS. NXT FCST BY 111300Z=

0000033200
238
FTCN32 CWAO 110600
TAF CYXJ 110639Z 1107/1119 19005KT P6SM BKN180
     BECMG 1108/1110 08008KT
    FM111000 10007KT P6SM -SN SCT020 OVC070 TEMPO 1110/1112 2SM -SN
     BKN020
    FM111200 08012KT 1SM -SN VV010 TEMPO 1112/1119 4SM -SN OVC025
     BECMG 1114/1116 33015G25KT
    RMK NXT FCST BY 111300Z=

0000027400
239
FTCN34 CWAO 110600
TAF CYQD 110639Z 1107/1119 VRB03KT P6SM SCT006 OVC012 TEMPO 1107/1118
     3SM -SN BR BKN006
     BECMG 1110/1112 30008KT
    FM111800 28006KT P6SM SCT020 BKN040 TEMPO 1118/1119 5SM -SN
     BKN020
    RMK NXT FCST BY 111300Z=

0000049900
240
FTUS80 KWBC 110639 AAA
TAF AMD
KDET 110636Z 1107/1206 16014KT 3SM -RA BR OVC003 WS020/19043KT
     FM111200 18010KT 2SM SHRA BR OVC004
     FM111700 24012G20KT 6SM BR OVC010=
KFNT 110636Z 1107/1206 16014KT 6SM -RA BR OVC008 WS020/19044KT
     FM111200 20010KT 2SM SHRA BR OVC004
     FM111700 24012G20KT 5SM BR OVC010=
KMBS 110636Z 1107/1206 16014KT 6SM -RA BR OVC008 WS020/20040KT
     FM111200 20010KT 2SM SHRA BR OVC004
     FM111700 25012G20KT 5SM BR OVC010=

0000010000
241
SPUS31 KWBC 110639
SPECI
KJAX 110635Z 14004KT 2SM BR FEW000 SCT003 16/16 A3006=

0000011700
242
SPUS31 KWBC 110639
SPECI
KLOU 110634Z AUTO 00000KT 2SM RA BR BKN008 BKN013 OVC039 11/10
A2971=

0000011100
243
SPUS31 KWBC 110639
SPECI
KMEM 110635Z 24015G22KT 7SM -RA FEW014 BKN034 OVC055 14/12 A2969=

0000011300
244
SPUS41 KWBC 110639
SPECI
KCEF 110636Z AUTO 04001KT 1SM R23/3500FT -DZ BR OVC002 00/00 A3019=

0000013000
245
SPUS42 KWBC 110639
SPECI
KMGM 110635Z AUTO 18006G16KT 1 1/4SM VCTS +RA BR SCT005 BKN021
OVC035 18/17 A2991=

0000010000
246
SPUS43 KWBC 110639
SPECI
KBDE 110635Z AUTO 00000KT 5SM BR OVC010 M03/M04 A2939=

0000013500
247
SAAK31 KWBC 110600 RRB
METAR
PAVD 110636Z 10SM BKN120 M07/M09 A2927=
PAWG 110636Z 00000KT 10SM CLR 01/M02 A2919=

0000012400
248
SAAK32 KWBC 110600 RRA
METAR
PADK 110636Z AUTO 22034G42KT 5SM SCT023 BKN030 OVC037 03/M01
     A2868=

0000024900
249
SAAO32 GOOY 110630
METAR GABS 110630Z 02003KT 8000  NSC 19/09 Q1014 NOSIG=
METAR GAGO 110630Z NIL=
METAR GAKY 110630Z NIL=
METAR GAKL 110630Z NIL=
METAR GAMB 110630Z NIL=
METAR GANR 110630Z NIL=
METAR GATB 110630Z NIL=

0000023600
250
SAAO31 GOOY 110630
METAR FHAW 110630Z NIL=
METAR GGOV 110630Z NIL=
METAR DIAP 110630Z 05003KT 7000 SCT011 FEW020CB OVC150 25/25 Q1011
TEMPO TS BKN011 FEW020CB=
METAR DIBK 110630Z NIL=
METAR DIYO 110630Z NIL=

0000025200
251
SAAO30 GOOY 110630
METAR GOOY 110630Z 02007KT 9999  FEW010 19/15 Q1013 NOSIG=
METAR GOGS 110630Z NIL=
METAR GOOK 110630Z NIL=
METAR GOSS 110630Z NIL=
METAR GOTK 110630Z NIL=
METAR GOTT 110630Z NIL=
METAR GOGG 110630Z NIL=

0000030000
252
SAAO33 GOOY 110630
METAR GQPP 110630Z NIL=
METAR GQNN 110630Z 02007KT 8000 NSC 14/13 Q1014 NOSIG=
METAR GQPA 110630Z NIL=
METAR GQNI 110630Z NIL=
METAR GQPZ 110630Z NIL=
METAR GUCY 110630Z NIL=
METAR GUXN 110630Z NIL=
METAR GULB 110630Z NIL=
METAR GUNZ 110630Z NIL=

0000067600
253
SAEE31 LOWM 110630
METAR UACK 110630Z 20006MPS 1700 SHSN BLSN OVC028CB M08/M10
Q1019 R20/452042 TEMPO 0800 SHSN BLSN BKN007CB RMK
QFE741/0988=
METAR UACP 110630Z 18005MPS 7000 -SN BKN033 OVC100 M06/M08
Q1018 R23/4/3537 NOSIG RMK QFE751/1002=
METAR UAII 110630Z 16003MPS CAVOK 04/M08 Q1024 R10/0///70
NOSIG RMK QFE732/0976=
METAR UADD 110630Z 21003MPS 9999 NSC 02/M10 Q1022 NOSIG RMK
QFE709/0946=
METAR UASK 110630Z VRB01MPS 9999 SCT071 BKN230 M03/M13 Q1033
R12/820350 NOSIG RMK QFE749/0999=
METAR UASP 110630Z NIL=
METAR UAOO 110630Z 20006MPS 4300 BR BKN330 M02/M06 Q1021
R24/3///55 NOSIG RMK QFE754/1005=
METAR UAKD 110630Z NIL=

0000023300
254
FTZA31 FAPR 110600
TAF FXMM 110600Z 1106/1206 36005KT 9999 FEW040 BECMG 1106/1108
     03004KT FM110800 28010KT //// SCT040 FEW045TCU PROB30 TEMPO
     1114/1116 TS BKN035 FEW040CB FM111600 09008KT //// FEW040=

00000000