0000061600
035
FTUS80 KWBC 110745 AAA
TAF AMD
KFMY 110742Z 1108/1206 14004KT P6SM OVC004
      TEMPO 1111/1114 3SM BR
     FM111500 18011KT P6SM SCT020
     FM111700 21016G22KT P6SM SCT030
     FM120000 23006KT P6SM SCT030=
KPAE 110743Z 1108/1206 16018G28KT 5SM -RA BR SCT025 OVC035
      TEMPO 1108/1112 2SM RA BR OVC018
     FM111200 20018G32KT P6SM -RA OVC025
     FM112000 20024G38KT P6SM -SHRA OVC017=
KRSW 110743Z 1108/1206 14005KT P6SM OVC003
      TEMPO 1110/1114 3SM BR
     FM111500 18011KT P6SM SCT020
     FM111700 21016G22KT P6SM SCT030
     FM120000 23006KT P6SM SCT030=

0000012100
036
SPUS41 KWBC 110745
SPECI
KAVP 110741Z AUTO VRB05KT 1SM R04/2600VP6000FT -RA BR OVC014 03/02
A2998=

0000009900
037
SPUS41 KWBC 110745
SPECI
KBTV 110741Z 18012KT 10SM FEW008 OVC018 03/M01 A3006=

0000010200
038
SPUS43 KWBC 110745
SPECI
KGRB 110741Z AUTO 21006KT 1 1/2SM BR OVC003 01/01 A2939=

0000015700
039
FCDN31 EKCH 110500 AAA
TAF AMD EKRK 110742Z 1107/1115 24012KT 9000 -RA BKN020 BECMG 
1107/1109 BKN006 TEMPO 1109/1115 4000 RA BR BKN012=

0000016900
040
SAAL40 DAMM 110700 CCA
METAR COR DAOO 110700Z 18004KT 9999 SCT030 SCT100 13/09 Q1017=
METAR COR DAON 110700Z 24016KT 9999 SCT026 SCT100 15/04 Q1017=

0000016900
041
SAAL31 DAAA 110700 CCA
METAR COR DAOO 110700Z 18004KT 9999 SCT030 SCT100 13/09 Q1017=
METAR COR DAON 110700Z 24016KT 9999 SCT026 SCT100 15/04 Q1017=

0000016900
042
SAAL41 DAMM 110700 CCA
METAR COR DAOV 110700Z 16010KT 9999 SCT033 SCT100 12/09 Q1018=
METAR COR DAAY 110700Z 00000KT 8000 SCT030 SCT100 08/06 Q1021=

0000030300
043
FTAL40 DAMM 110500 CCA
TAF COR DAON 110500Z 1106/1206 20010KT 9999 FEW030 SCT100 TEMPO
                 1106/1112 26012G22KT 6000 -TSSHRA SCT030CB BECMG
                 1112/1114 26008KT BECMG 1115/1118 SCT026 SCT100
                 TEMPO 1115/1124 6000 -TSRA FEW026CB BKN026=

0000030300
044
FTAL32 DAAA 110400 CCA
TAF COR DAON 110500Z 1106/1206 20010KT 9999 FEW030 SCT100 TEMPO
                 1106/1112 26012G22KT 6000 -TSSHRA SCT030CB BECMG
                 1112/1114 26008KT BECMG 1115/1118 SCT026 SCT100
                 TEMPO 1115/1124 6000 -TSRA FEW026CB BKN026=

0000030300
045
FTAL34 DAAA 110400 CCA
TAF COR DAON 110500Z 1106/1206 20010KT 9999 FEW030 SCT100 TEMPO
                 1106/1112 26012G22KT 6000 -TSSHRA SCT030CB BECMG
                 1112/1114 26008KT BECMG 1115/1118 SCT026 SCT100
                 TEMPO 1115/1124 6000 -TSRA FEW026CB BKN026=

0000164600
046
SPUS70 KWBC 110744
SPECI
K1M4 110740Z AUTO 20012KT 1 1/2SM +TSRA BR BKN001 OVC011 13/13
     A2976 RMK AO2 OVC V BKN LTG DSNT ALQDS P0060 PK WND
     26030/0714=
KAVL 110740Z AUTO 00000KT 6SM -RA BR BKN003 OVC009 07/07 A2996 RMK
     AO2 P0002=
KBNA 110740Z 24003KT 3SM RA BR FEW005 BKN037 OVC049 12/12 A2972
     RMK AO2 P0033=
KLFT 110740Z AUTO 22014KT 10SM OVC008 21/ A2984 RMK AO2 LTG DSNT
     SW-NW CIG 006V011 $=
KLUK 110740Z AUTO 30003KT 1/2SM R21L/2400VP6000FT -RA FG FEW033
     BKN042 OVC080 08/07 A2968 RMK AO2 LTG DSNT S P0002
     T00780072=
KPDK 110740Z AUTO 11004KT 2SM VCTS -RA BR BKN005 OVC011 08/08
     A2991 RMK AO2 VIS 1V5 LTG DSNT N-E TSB06RAB11 P0012=
KSHN 110740Z AUTO 13003KT 2 1/2SM RA BR SCT010 OVC015 09/08 A2956
     RMK AO2 P0010 T00890078 TSNO=
KCDW 110741Z 02004KT 2SM -RA BR BKN004 OVC024 01/00 A3011 RMK AO2
     PRESFR P0006=
KCXO 110741Z AUTO 19004KT 3/4SM BR OVC004 16/16 A2986 RMK AO2=
KDFI 110741Z AUTO 20008KT 5SM -RA BR BKN006 BKN012 OVC026 06/04
     A2958 RMK AO2 RAE0656B36 P0000=
KGRB 110741Z AUTO 21006KT 1 1/2SM BR OVC003 01/01 A2939 RMK AO2
     T00110011=
KHBG 110741Z AUTO 19013G22KT 10SM SCT015 BKN021 OVC060 21/18 A2983
     RMK AO2 LTG DSNT NW RAB29E39 P0000 T02060183=
KLWV 110741Z AUTO 17006KT 1/4SM -RA OVC005 06/ A2957 RMK AO2
     RAE26B39 CIG 003V009 P0001 T0056 $=
KMGJ 110741Z AUTO 05003KT 2SM -RA BR OVC006 01/00 A3009 RMK AO2
     P0001 T00060000 TSNO=
KORE 110741Z AUTO 00000KT 3/4SM UP BR VV005 00/M01 A3017 RMK AO2
     P0001 T00001006=
KVRB 110741Z 00000KT 1 1/4SM BR FEW009 19/19 A3008 RMK AO2=

0000011000
047
SPUS31 KWBC 110744
SPECI
KBNA 110740Z 24003KT 3SM RA BR FEW005 BKN037 OVC049 12/12 A2972=

0000013800
048
SPUS41 KWBC 110744
SPECI
KLUK 110740Z AUTO 30003KT 1/2SM R21L/2400VP6000FT -RA FG FEW033
BKN042 OVC080 08/07 A2968=

0000010200
049
SPUS42 KWBC 110744
SPECI
KCRP 110740Z 23004KT 1/4SM FG FEW001 BKN250 14/13 A2991=

0000011600
050
SPUS42 KWBC 110744
SPECI
KPDK 110740Z AUTO 11004KT 2SM VCTS -RA BR BKN005 OVC011 08/08
A2991=

0000018000
051
SACA31 TNCC 110700
METAR TNCC 110700Z 10011KT 9999 FEW014 26/22 Q1014 NOSIG=
METAR TNCE 110700Z AUTO 06012KT //// ////// ///// Q1017=
METAR TNCB 110700Z NIL=

0000119800
052
FCAL40 DAMM 110700
TAF DAAE 110800Z 1109/1118 30012KT 9999 FEW030 BKN100=
TAF DAAJ 110800Z 1109/1118 34010KT CAVOK BECMG 1112/1114 26012KT=
TAF DAAP 110800Z 1109/1118 VRB02KT CAVOK BECMG 1114/1116 02010KT=
TAF DAAS 110800Z 1109/1118 26008KT 9999 FEW033 BKN100=
TAF DABT 110800Z 1109/1118 24008KT 9999 FEW033 BKN100=
TAF DAOB 110800Z 1109/1118 CNL=
TAF DAOF 110800Z 1109/1118 02012KT CAVOK=
TAF DAOR 110800Z 1109/1118 04012KT 8000 SCT033 SCT100 TEMPO
                 1109/1114 5000 -RA BKN033=
TAF DAUA 110800Z 1109/1118 12014KT 8000 FEW046 PROB30 TEMPO
                 1109/1112 12024KT 4000 DRSA BECMG 1114/1116
                 20014KT=
TAF DAUB 110800Z 1109/1118 26010KT 9999 FEW040 BKN100=
TAF DAUE 110800Z 1109/1118 08014KT 9999 SCT040 PROB30 TEMPO
                 1109/1114 08024KT 4000 DRSA=
TAF DAUK 110800Z 1109/1118 34010KT 9999 FEW040 SCT100=
TAF DAUL 110800Z 1109/1118 VRB02KT 9999 SCT033 SCT080=
TAF DAUO 110800Z 1109/1118 VRB02KT 8000 FEW040 BECMG 1111/1113
                 32012KT=
TAF DAUT 110800Z 1109/1118 10012KT 9999 FEW046 BECMG 1112/1114
                 22014KT=
TAF DAUU 110800Z 1109/1118 34010KT 8000 FEW046=

0000056400
053
FCAL41 DAMM 110700
TAF DAAD 110800Z 1109/1118 26010KT CAVOK=
TAF DAAV 110800Z 1109/1118 30010KT 9999 FEW030 BKN100=
TAF DAAY 110800Z 1109/1118 14012KT 8000 SCT030 SCT100 PROB40 TEMPO
                 1112/1118 5000 -TSRA FEW030CB BKN100=
TAF DAEF 110800Z 1109/1118 12010KT CAVOK=
TAF DAEN 110800Z 1109/1118 VRB02KT CAVOK=
TAF DAFH 110800Z 1109/1118 VRB02KT 9999 SCT030 SCT100 BECMG
                 1114/1116 14010KT=
TAF DAOY 110800Z 1109/1118 VRB02KT 9999 FEW030 SCT100=
TAF DATM 110800Z 1109/1118 13010KT 9999 SCT046 SCT100=

0000023700
054
FTUS42 KWBC 110745 AAA
TAF AMD
KRSW 110743Z 1108/1206 14005KT P6SM OVC003
      TEMPO 1110/1114 3SM BR
     FM111500 18011KT P6SM SCT020
     FM111700 21016G22KT P6SM SCT030
     FM120000 23006KT P6SM SCT030=

00000000