0000010600
535
SACN47 CWAO 110600
METAR CYRJ 110600Z 11004KT 20SM OVC020 M05/M08 A3004 RMK SC8 SLP184=

0000009100
536
SACS31 MROC 110600
METAR
MROC 110600Z 09010KT CAVOK 20/13 A3000 NOSIG=

0000010100
537
SABZ22 SBBR 110600
METAR SBBR 110600Z 00000KT 9999 SCT030 FEW040TCU
21/15 Q1017=

0000010900
538
SAFK41 EGYP 110550 COR
METAR COR EGYP 110550Z 21022KT 9999 FEW024 BKN038 04/M02 Q1004 BLU=

0000008900
539
SASU01 HSSS 110600
METAR HSSS 110600Z 36013KT CAVOK 15/02 Q1020 NOSIG=

0000047400
540
SPUS70 KWBC 110558
SPECI
KAND 110553Z AUTO 00000KT 1 1/2SM VCTS +RA BR BKN004 BKN008 OVC013
     08/08 A3003 RMK AO2 TSB0459E14B47RAB00 P0031=
KHYA 110553Z 20006KT 3/4SM BR VV002 05/04 A3025 RMK AO2 RAB19E42
     P0000=
KTVR 110555Z AUTO 23009G21KT 1SM +RA BR SCT009 OVC023 18/18 A2976
     RMK AO2 P0004 T01830178 TSNO=
KCVG 110555Z 19008KT 2SM +TSRA BR SCT018 BKN023CB OVC036 11/10
     A2972 RMK AO2 TSB54 OCNL LTGIC TS OHD MOV E P0004=

0000012000
541
SAUK33 EGGY 110550 RRB
METAR EGNS 110550Z 28011KT 250V310 9999 -SHRA FEW020 06/02 Q1013
     NOSIG=

0000010100
542
SABZ21 SBSV 110600
METAR SBSV 110600Z 08008KT 9999 SCT017 FEW020TCU
26/23 Q1012=

0000100600
543
SANL33 EHDB 110555
METAR EHAK 110555Z AUTO 33019KT 9999 FEW015/// SCT019/// BKN023///
07/05 Q1005 REDZ=
METAR EHDV 110555Z AUTO 32018KT 8000 -RA FEW002/// SCT004///
BKN006/// 07/07 Q1007 RERA REDZ=
METAR EHFD 110555Z AUTO 25025KT 9999 -RADZ SCT003/// BKN004///
OVC006/// 07/07 Q1005 RERA REDZ=
METAR EHFZ 110555Z AUTO 23024KT //// // ///////// 08/07 Q1007 RE//=
METAR EHJA 110555Z AUTO 24026KT 3300 DZRA FEW003/// SCT004///
BKN005/// 07/07 Q1007=
METAR EHJR 110555Z NIL=
METAR EHKV 110555Z AUTO 24032KT 9000 -RA FEW009/// BKN011///
OVC015/// 08/07 Q1009 RERA REDZ=
METAR EHMA 110555Z AUTO 22015KT 4100 DZ SCT004/// BKN005/// BKN007///
06/05 Q1010=
METAR EHMG 110555Z AUTO 23024KT 9999 -RADZ FEW010/// BKN034/// 08/06
Q1008=
METAR EHPG 110555Z AUTO ///27KT 9999 FEW006/// SCT017/// BKN035///
08/07 Q1010 REDZ=
METAR EHQE 110555Z AUTO 23027KT 9999 -DZ FEW027/// BKN030///
BKN035/// 08/06 Q//// REDZ=
METAR EHSA 110555Z NIL=
METAR EHSC 110555Z NIL=

0000009900
544
SASP31 LEMM 110530 RRA
METAR LEMG 110530Z 28008KT 9999 FEW025 11/10 Q1016 NOSIG=

0000009200
545
SABZ19 SBMA 110600
METAR SBMA 110600Z 30001KT 9999 -RA NSC 22/22
Q1011=

0000040600
546
SXXX32 EUMS 111700
262D700E
:PRS 1 /1 3414 3396 3385 3384 3343 3409 3448 3471 3453 3535 3457 3459 3446 3433 3407 3390 3428 3458 3492 3539 3515 3484 3441 3400 3405 3384 3412 3505 3455 3453 :RAD 1 /3 5854 5876 5889 5877 5884 5906 5895 5888 5908 5914 5904 5907 5918 5924 5928 :ENC 5 /5 5994 5993 6003 6010 6004 6022 6012 6027 6043 6032 6036 6025 :SW1 60 /60 0 :BAT 14 /15 13.1 :NAME 262D700E
0000044900
547
SXXX32 EUMS 111700 RRA
16289262
:PRS 1 /1 2636 2624 2627 2633 2624 2638 2629 2623 2620 2609 2635 2626 2621 2622 2615 2609 2621 2623 2607 2608 2617 2609 2624 2612 2611 2616 2601 2622 2610 2611 :RAD 1 /3 8079 8075 8071 8071 8068 8065 8064 8066 8060 8056 8051 8051 8047 8042 8041 8036 8037 8032 8030 8026 :ENC 5 /5 5453 5452 5448 5441 5441 5435 5431 5426 5408 5412 5401 5396 :SW1 60 /60 0 :SW2 30 /60 0 :BAT 14 /15 12.7 :NAME 16289262
0000010500
548
SACN62 CYOW 110600
METAR CYOW 110600Z 05007KT 8SM OVC021 M05/M07 A3002 RMK SC8 SLP173=

0000011900
549
SACN62 CYQB 110600
METAR CYQB 110600Z 02002KT 12SM SCT017 OVC025 M07/M09 A3017 RMK
 SC4SC4 SLP223=

0000010600
550
SACN62 CYPA 110600
METAR CYPA 110600Z 26007KT 15SM OVC020 M06/M08 A2951 RMK SC8 SLP022=

0000012000
551
SACN62 CYQI 110600
METAR CYQI 110600Z 21012G17KT 1 1/2SM -DZ BR OVC006 03/03 A3032 RMK
 SF8 SLP267=

0000012200
552
SACN42 CWAO 110600
METAR CYQD 110600Z 21002KT 15SM -SN SCT007 OVC010 M08/M09 A2945 RMK
SF3ST5 SLP993=

0000098600
553
SAFR34 LFPW 110600
METAR LFCR 110600Z AUTO 13005KT 9999 NSC 05/03 Q1018=
METAR LFJL 110600Z AUTO VRB02KT 5000 -DZ BR NSC 01/01 Q1016=
METAR LFLP 110600Z AUTO 03001KT 5000 BR NSC 01/01 Q1018=
METAR LFLS 110600Z AUTO 23006KT 200V270 9999 OVC017 08/06 Q1018=
METAR LFLY 110600Z AUTO 18012KT 9999 NSC 10/05 Q1017=
METAR LFMT 110600Z VRB05KT 9999 SCT032 BKN048 11/08 Q1020=
METAR LFMU 110600Z AUTO 03006KT 8000 BKN019 BKN025 BKN040 11/08
Q1019=
METAR LFOB 110600Z AUTO 10001KT 2800 BR OVC002 05/04 Q1016=
METAR LFOH 110600Z AUTO 21005KT 7000 BKN006 OVC010 07/05 Q1016=
METAR LFOK 110600Z AUTO 01004KT 5000 -RA BR NSC 02/02 Q1015=
METAR LFOP 110600Z AUTO 21003KT 0200 R22/0800N FG VV/// 05/05 Q1016=
METAR LFPB 110600Z AUTO 36003KT 9000 3700 SCT042 OVC064 06/05 Q1016=
METAR LFQA 110600Z AUTO 00000KT 7000 -DZ NSC 03/03 Q1016=
METAR LFQB 110600Z AUTO 00000KT 5000 BR NSC 03/03 Q1016=
METAR LFSN 110600Z AUTO VRB02KT 1800 BR ///TCU 02/02 Q1016=

0000011300
554
SACN43 CWAO 110600
METAR CYEN 110600Z 24004KT 1/4SM FZFG VV001 M07/M08 A2960 RMK FG8
SLP058=

00000000