0000009200
695
SACN51 CWAO 110700
METAR CWLX 110700Z AUTO 33002KT M26/ A2934 RMK SLP963=

0000013600
696
SACN31 CWAO 110700
METAR CYZX 110700Z 29002KT 2SM -SN OVC010 M00/M01 A3030 RMK SF8 WNDY
HILL UNAVBL CIG RAG SLP263=

0000016200
697
SARA34 RUMS 110630 CCA
METAR COR USHH 110630Z 04003MPS 6000 -SN BKN005 OVC080 M19/M21 Q1015
TEMPO 0600 +SN OVC002 RMK QBB150 QFE758 06////40=

0000009200
698
SACN51 CWAO 110700
METAR CWKM 110700Z AUTO 26019KT M26/ A2974 RMK SLP079=

0000010600
699
SACN43 CWAO 110700
METAR CWHN 110700Z AUTO 27005KT 9SM OVC001 M09/M10 A2950 RMK SLP030=

0000010000
700
SACN52 CWAO 110700
METAR CWFD 110700Z AUTO 18006KT 9SM CLR M22/ A2899 RMK SLP909=

0000010300
701
SACN43 CWAO 110700
METAR CYXD 110700Z AUTO 20006KT 9SM CLR M07/M13 A2954 RMK SLP040=

0000011200
702
SACN31 CWAO 110700
METAR CYQG 110700Z 20011KT 4SM -RA BR OVC004 05/05 A2961 RMK SF8
SLP032=

0000012400
703
SASR31 WSSS 110700
METAR WSSS 110700Z 04009KT 320V080 9999 FEW017CB FEW020TCU BKN300
30/25 Q1009 NOSIG=

0000011500
704
SACN62 CYOW 110700
METAR CYOW 110700Z 05011KT 8SM OVC021 M05/M07 A2997 RMK SC8 PRESFR
 SLP154=

0000119400
705
SAAK31 KWBC 110700
METAR
PABR 110653Z 30009KT 10SM OVC009 M24/M27 A2979=
PACD 110653Z AUTO 14019KT 10SM OVC038 03/01 A2909=
PAED NIL=
PAEI 110655Z 00000KT 10SM SCT004 M25/M28 A2954=
PAEN 110653Z 00000KT 10SM OVC006 M04/M04 A2933=
PAFA 110653Z 00000KT 10SM FEW002 SCT090 M32/M36 A2956=
PAFR NIL=
PAFS 110656Z AUTO 00000KT 3SM -SN CLR M23/M26 A2950=
PAFY NIL=
PAJN 110653Z 08005KT 10SM FEW018 BKN043 OVC055 01/M01 A2926=
PAKN 110654Z 32007KT 10SM FEW004 SCT025 SCT130 M07/M08 A2935=
PAKT 110653Z AUTO 27007G15KT 250V310 10SM OVC100 03/M02 A2906=
PANC 110653Z 33005KT 10SM FEW006 BKN015 OVC025 M06/M07 A2932=
PAOM 110653Z 04015KT 10SM BLSN FEW032 SCT100 M12/M21 A2959=
PAOR 110653Z 32005KT 3SM -SN OVC029 M17/M19 A2932=
PAOT 110653Z VRB04KT 10SM CLR M21/M26 A2974=
PARY 110656Z AUTO 19004KT 10SM CLR M24/M28 A2955=
PASC 110653Z 24021KT 1/2SM R05/4000V5000FT -SN BLSN BR OVC012
     M26/M29 A2979=
PASG NIL=
PASI 110653Z 00000KT 10SM CLR 00/M01 A2920=
PATQ 110656Z AUTO 26010KT 3/4SM -SN OVC006 M23/M26 A2982=
PAVD 110656Z 10SM BKN120 M08/M08 A2926=
PAWG 110656Z 00000KT 10SM CLR 01/M03 A2916=
PFYU 110656Z 00000KT 7SM CLR A2968=

0000004200
706
SABO41 KWBC 110700
NIL=

0000051800
707
SABZ41 KWBC 110700
METAR
SBAA NIL=
SBAF NIL=
SBAR 110700Z 11009KT 9999 SCT015 26/20 Q1013=
SBBG NIL=
SBBH NIL=
SBBI NIL=
SBBU NIL=
SBCJ NIL=
SBCO NIL=
SBCR NIL=
SBCT 110700Z 19010KT 9999 SCT012 BKN020 19/17 Q1018 RETS=
SBCV NIL=
SBCY 110700Z 35003KT 9999 FEW020 BKN100 24/21 Q1010=
SBCZ NIL=
SBDN NIL=
SBFL 110700Z 09005KT 9999 BKN030 22/21 Q1013 RETS=
SBFN NIL=
SBGO 110700Z 03003KT 9999 SCT035 SCT100 19/18 Q1016=
SBGW NIL=
SBHT NIL=
SBIH NIL=
SBIL NIL=

0000045700
708
SABZ43 KWBC 110700
METAR
SBAN NIL=
SBAT NIL=
SBBA NIL=
SBBQ NIL=
SBBW NIL=
SBCC NIL=
SBER NIL=
SBES NIL=
SBGA NIL=
SBIZ NIL=
SBJF NIL=
SBJP NIL=
SBKG NIL=
SBLB NIL=
SBLP NIL=
SBMK NIL=
SBMS NIL=
SBMZ NIL=
SBPB NIL=
SBPJ NIL=
SBPL 110700Z 10008KT 9999 SCT020 25/20 Q1013=
SBPN NIL=
SBQV NIL=
SBRP 110700Z 04002KT CAVOK 20/18 Q1015=
SBTF NIL=
SBTK NIL=
SBUF NIL=
SBUI NIL=
SBUL NIL=

0000048000
709
SACA31 KWBC 110700
METAR
MBJT NIL=
MBPV NIL=
MBSC NIL=
MKJP 110700Z 01004KT 9999 FEW024 25/20 Q1015=
MKJS NIL=
MUCM 110650Z 09007KT 9000 FEW020 20/18 Q1018=
MUCU 110651Z 34006KT 9000 FEW020 21/18 Q1017=
MUHA 110655Z 25003KT 8000 SKC 17/16 Q1018=
MUVR 110650Z 09006KT 050V110 8000 FEW020 23/21 Q1019=
MWCB NIL=
MWCR NIL=
MYAM NIL=
MYAT NIL=
MYBS NIL=
MYEC NIL=
MYEG NIL=
MYEH NIL=
MYEM NIL=
MYGF NIL=
MYGW NIL=
MYNN NIL=

0000082700
710
SABZ42 KWBC 110700
METAR
SBJR NIL=
SBLO 110700Z 13003KT CAVOK 24/20 Q1014=
SBMA 110700Z 00000KT CAVOK 23/23 Q1010=
SBME NIL=
SBMN 110700Z 06003KT 9999 -RA SCT010 BKN100 22/21 Q1010=
SBMO 110700Z 32003KT 9999 FEW020 22/21 Q1013=
SBMQ 110700Z 10008KT 9999 FEW013 BKN080 24/23 Q1010=
SBMT NIL=
SBPC NIL=
SBPK 110700Z 25005KT CAVOK 20/19 Q1010=
SBPP NIL=
SBPV 110700Z 00000KT 5000 2000S -RA SCT006 BKN012 BKN070 23/21
     Q1010=
SBRB 110700Z 08002KT 9999 FEW020 BKN100 ///// Q1010=
SBRJ NIL=
SBSC NIL=
SBSJ 110700Z 00000KT CAVOK 20/18 Q1014=
SBSM NIL=
SBSP 110700Z 01003KT CAVOK 23/16 Q1016=
SBST NIL=
SBTE 110700Z 33001KT 9999 FEW016 SCT040 BKN080 24/23 Q1010=
SBTU NIL=
SBUG NIL=
SBUR NIL=
SBVH NIL=
SBVT 110700Z 31002KT 9999 FEW015 23/22 Q1015=
SBYS NIL=

0000087500
711
SAAK32 KWBC 110700
METAR
PABA 110701Z AUTO 28029G36KT 1/4SM +SN FZFG M24/M26 A2976=
PABI 110653Z AUTO 29004KT 10SM OVC005 M19/M21 A2945=
PACZ 110655Z AUTO 10008G12KT 030V130 10SM SCT040 M08/M11 A2935=
PADK 110656Z AUTO 22035G44KT 5SM FEW019 BKN023 OVC031 03/M01
     A2866=
PADL NIL=
PADQ 110653Z 27005KT 10SM FEW040 SCT250 M05/M07 A2936=
PAEH 110655Z AUTO 14027G31KT 4SM -SHSN BR BKN003 M01/M02 A2924=
PAFB NIL=
PAGA 110658Z AUTO 00000KT 10SM CLR M33/M37 A2965=
PAIM 110655Z AUTO VRB01KT 10SM CLR M23/M26 A2953=
PALU 110655Z AUTO 09007KT 10SM -SHSN OVC007 M18/M20 A2993=
PASV 110655Z AUTO 23001KT 2SM BR OVC009 M13/M14 A2931=
PASY 110656Z AUTO 33018KT 10SM -SN BKN013 BKN021 OVC027 00/M01
     A2890=
PATC 110655Z AUTO 02030KT 3/4SM BR VV002 M18/M19 A2967=
PATL 110655Z AUTO 08004KT 10SM FEW250 M19/M20 A2948=
PBTI NIL=

0000062700
712
SACA32 KWBC 110700
METAR
MDLR NIL=
MDPC 110700Z 11010KT 9999 FEW018 25/19 Q1018=
MDPP NIL=
MDSD 110700Z 02004KT 9999 FEW018 20/18 Q1017=
MDST 110700Z VRB03KT 9999 BKN015 21/21 Q1018=
MTCH NIL=
MTPP NIL=
TAPA NIL=
TIST NIL=
TISX 110653Z AUTO 05006KT 10SM BKN065 23/19 A3004 RMK AO2 SLP172
     T02330189 TSNO=
TJBQ 110650Z 10009KT 10SM SKC 23/ A3007 RMK RWY08 ATIS S=
TJMZ NIL=
TJPS 110650Z 05005KT 10SM SKC 19/16 A3005=
TJSJ 110656Z 10005KT 10SM FEW021 SCT050 25/22 A3005 RMK AO2 SLP174
     T02500217 $=
TKPK NIL=
TKPN NIL=
TQPF NIL=
TRPM NIL=
TUPJ NIL=
TUPW NIL=

0000051500
713
SACA33 KWBC 110700
METAR
TBPB 110700Z 06017KT 8000 -RA SCT016 BKN035 23/22 Q1014 NOSIG=
TDPD NIL=
TDPR NIL=
TFFF 110700Z AUTO 06015G27KT 3400 RA BR FEW014/// SCT027///
     BKN050/// ///TCU 22/20 Q1015=
TFFG NIL=
TFFJ NIL=
TFFR 110700Z AUTO VRB02KT 9999 NSC 22/20 Q1016=
TGPY NIL=
TGPZ NIL=
TLPC NIL=
TLPL NIL=
TNCA 110700Z 10011KT 9999 FEW018 24/22 Q1013 A2993=
TNCB NIL=
TNCC NIL=
TNCE NIL=
TNCM NIL=
TTCP NIL=
TTPP NIL=
TVSM NIL=
TVSU NIL=
TVSV NIL=

0000049800
714
SACA41 KWBC 110700
METAR
MKBK NIL=
MUBA NIL=
MUBY NIL=
MUCA NIL=
MUCL NIL=
MUCM 110650Z 09007KT 9000 FEW020 20/18 Q1018=
MUCU 110651Z 34006KT 9000 FEW020 21/18 Q1017=
MUGM 110656Z 34006KT 9999 CLR 23/19 A3004 RMK SLP171 T02280189=
MUGT NIL=
MUHA 110655Z 25003KT 8000 SKC 17/16 Q1018=
MUMO NIL=
MUMZ NIL=
MUNG NIL=
MUVR 110650Z 09006KT 050V110 8000 FEW020 23/21 Q1019=
MUVT NIL=
MYEF NIL=
MYSM NIL=
TABS NIL=
TAOA NIL=
TBBI NIL=
TDCF NIL=

00000000