0000213500
895
SPUS70 KWBC 110542
SPECI
KTTS 110538Z AUTO 13002KT 10SM SCT016 BKN070 20/17 A3011 RMK AO2
     $=
KNSE 110539Z AUTO 18013G19KT 2SM BR OVC002 20/19 A2996 RMK AO2
     RAE11 P0000 T02000189 $=
K1M4 110538Z AUTO 17009KT 1/4SM FG OVC001 12/12 A2982 RMK AO2=
KBNA 110538Z 18018G26KT 10SM BKN015 BKN070 14/11 A2973 RMK AO2 PK
     WND 17027/0501=
KDDH 110538Z AUTO 01003KT 9SM FEW014 BKN028 OVC044 01/M01 A3014
     RMK AO2=
KHKS 110538Z AUTO 17013G18KT 10SM TS OVC011 19/17 A2977 RMK AO2
     LTG DSNT ALQDS TSE00B11RAB0455E05B23E38 P0001=
KMIC 110538Z 26004KT 1 1/4SM BR BKN002 OVC006 M02/M02 A2947 RMK
     AO2=
KSSF 110538Z AUTO 00000KT 4SM BR CLR 11/10 A2987 RMK AO2=
KSUX 110538Z 31005KT 3SM R31/4000VP6000FT BR CLR M06/M06 A2960 RMK
     AO2 I1000 T10561061=
KVUO 110538Z AUTO 15009KT 10SM OVC030 12/04 A2987 RMK AO2
     T01220044=
KYIP 110538Z AUTO 16008KT 2SM BR OVC002 04/02 A2964 RMK AO2 P0003
     TSNO=
KAEX 110539Z 24010KT 10SM BKN015 OVC019 19/18 A2980 RMK AO2 $=
KAOO 110539Z AUTO 22004KT 3/4SM BR OVC002 02/01 A3002 RMK AO2
     T00170011=
KASX 110539Z AUTO 00000KT 2 1/2SM -SN BR OVC028 M03/M04 A2948 RMK
     AO2 SNE12B28 P0000=
KAXN 110539Z AUTO 27005KT 1 1/4SM BR BKN001 M07/M08 A2946 RMK
     AO2=
KBOK 110539Z AUTO 15010G17KT 1 3/4SM BR OVC006 10/09 A3012 RMK AO2
     $=
KDPA 110539Z 19010KT 6SM -RA BR OVC005 03/03 A2950 RMK AO2
     P0008=
KGWO 110539Z AUTO 21014KT 2SM +RA BR FEW010 BKN031 OVC050 17/16
     A2975 RMK AO2 RAB0457 P0018 T01670161 TSNO=
KHFF 110534Z 32001KT 2SM -SHRA BR OVC002 11/10 A3008 RMK AO2
     SHRAB0419 SLP188 P0000 60037 T1070104 10129 20092 58020=
KLXT 110539Z AUTO 27005KT 10SM OVC011 02/01 A2963 RMK AO2 CIG
     008V014 T00220006=
KMVY 110539Z AUTO 18006KT 1SM R24/4500V6000FT BR OVC002 07/06
     A3026 RMK AO2 $=
KOMA 110539Z 31003KT 3SM BR CLR M03/M04 A2962 RMK AO2 TWR VIS 6
     VIS SE 1 1/2 T10331039=
KTVC 110539Z 00000KT 8SM -RA OVC015 03/02 A2947 RMK AO2 P0004
     T00280017 $=
KVSF 110539Z AUTO 00000KT 7SM OVC004 M03/M05 A3021 RMK AO2 CIG
     003V006 T10331050=

0000010100
896
SPUS31 KWBC 110542
SPECI
KBNA 110538Z 18018G26KT 10SM BKN015 BKN070 14/11 A2973=

0000129500
897
FTUS80 KWBC 110542 RRB
TAF
KBDL 110539Z 1106/1212 00000KT 1/2SM -DZ FG BKN003 OVC008
     FM110900 VRB03KT 1SM -RA BR BKN003 OVC008
     FM111200 16006KT 2SM -RA BR OVC003 WS020/19040KT
     FM111800 19014G24KT 3SM RA BR OVC008 WS020/20050KT
     FM120000 20014G25KT 1SM +RA BR OVC008 WS020/21050KT
     FM120300 21007KT 6SM BR OVC008
     FM120600 23008KT 5SM BR OVC100=
KBED 110539Z 1106/1206 00000KT 1SM BR OVC003
     FM111200 17007KT 2SM -RA BR OVC003 WS020/19040KT
     FM111800 19015G27KT 2SM -RA BR OVC010 WS020/20050KT
     FM112100 19016G28KT 3SM -RA BR OVC008 WS020/20055KT
     FM120200 22012G29KT 1SM +RA BR OVC008 WS020/34040KT
     FM120400 22009KT 6SM -SHRA BR BKN008=
KBFD 110539Z 1106/1206 15011G21KT 1SM BR OVC002
     FM110700 16009KT 2SM -RA BR BKN006 OVC009 WS019/21048KT
     FM111100 17014G27KT 2SM RA BR OVC009 WS012/19049KT
     FM120000 27010G18KT 4SM BR OVC003=
KBGR 110538Z 1106/1206 VRB03KT P6SM OVC060
     FM110800 18006KT P6SM OVC030
     FM111400 18012KT 3SM -FZRAPL BR OVC010
     FM111600 18015G25KT 1SM -RA BR OVC005
     FM112000 18020G35KT 3/4SM RA BR OVC003 WS020/20055KT
     FM120000 18025G40KT 3/4SM RA BR OVC003 WS020/20060KT
     FM120400 21020G30KT 3/4SM RA BR OVC003 WS020/21060KT=

0000130400
898
FTUS80 KWBC 110536 RRD
TAF
KGON 110533Z 1106/1206 VRB04KT 1SM BR OVC003
      TEMPO 1106/1109 1/2SM -RA FG
     FM110900 15005KT 1/2SM -RA FG OVC003 WS020/19050KT
     FM111400 17011KT 3/4SM -RA BR OVC004 WS015/19050KT
     FM111900 18020G30KT 1/2SM RA FG OVC004 WS015/19060KT
     FM120500 23012G18KT 3SM -SHRA BR SCT007 OVC030=
KGYY 110533Z 1106/1206 18010G15KT P6SM OVC006
      TEMPO 1106/1109 2SM RA BR OVC004
     FM110900 20008KT 4SM BR OVC004
     FM111200 26010G15KT P6SM OVC007
     FM111600 26015G25KT P6SM OVC015
     FM112300 27010KT P6SM SCT015=
KHOT 110535Z 1106/1206 29007KT P6SM SCT015 BKN070 WS020/21040KT
      TEMPO 1106/1107 -RA
     FM110900 29004KT P6SM SCT080 WS020/23035KT
     FM111500 29010KT P6SM SCT250
     FM120000 28004KT P6SM SKC=
KHPN 110533Z 1106/1206 VRB03KT 1/2SM -SHRA FG VV002
      TEMPO 1106/1109 1/4SM -SHRA FG
     FM110900 VRB05KT 1/4SM -RA FG VV002 WS020/19050KT
     FM111400 17010KT 1/2SM -RA FG VV003 WS015/19050KT
     FM111800 18015G21KT 1/2SM +RA FG VV004 WS015/19050KT
     FM120300 23008KT 3SM -SHRA BR SCT007 OVC025 AMD NOT SKED=
KHRO 110535Z 1106/1206 28005KT P6SM FEW025 FEW250
      TEMPO 1110/1114 BKN025
     FM111500 27010G18KT P6SM SCT250
     FM120000 28004KT P6SM SKC=

0000138800
899
FTUS80 KWBC 110536 RRB
TAF
KCRQ 110534Z 1106/1206 VRB03KT 5SM BR FEW250
     FM110900 VRB03KT 2SM BR VCFG SCT002
     FM111600 24005KT P6SM FEW250
     FM120200 VRB03KT 5SM BR BKN008=
KCSG 110534Z 1106/1206 09005KT 1/2SM -RADZ FG OVC002
     FM110900 15006KT 3SM -SHRA BR OVC004
     FM111500 22010G17KT 4SM -SHRA BR OVC007
     FM111800 25011G18KT 5SM -SHRA BR BKN025 PROB30 1118/1121 2SM
      TSRA BR BKN010CB
     FM112100 28012G20KT P6SM BKN050
     FM120000 30012KT P6SM SCT050=
KDAN 110533Z 1106/1206 00000KT 4SM -RA BR OVC004 WS015/20030KT
     FM111200 14004KT 4SM -RA BR OVC007 WS015/20035KT
     FM111700 19009G22KT 6SM SHRA BR OVC020
     FM112200 27012G23KT P6SM -SHRA OVC045
     FM120000 28013G25KT P6SM SCT120=
KDBQ 110534Z 1106/1206 23005KT 1/4SM -DZ FG VV002
      TEMPO 1106/1108 2SM BR OVC003
     FM110800 28011KT 4SM BR OVC004
     FM111000 27007KT 6SM BR BKN006 OVC015
     FM111600 29012KT P6SM SCT018
      TEMPO 1117/1121 BKN018
     FM120000 26006KT P6SM SKC=
KDPA 110533Z 1106/1206 20012KT 1 1/2SM -DZ BR OVC003
     FM111030 26008KT P6SM OVC007
     FM111600 27014G22KT P6SM OVC015
     FM112300 27010KT P6SM SCT015=
KDSM 110533Z 1106/1206 29006KT 5SM BR SCT005 OVC015
     FM110900 28011KT P6SM SCT012 SCT025
     FM111600 29016G21KT P6SM BKN070
     FM120000 27008KT P6SM SKC=

0000134500
900
FTUS80 KWBC 110536 RRE
TAF
KISP 110533Z 1106/1206 VRB04KT 1/2SM -SHRA FG OVC003 WS020/19040KT
      TEMPO 1106/1109 1/4SM -RA FG VV002
     FM110900 15013KT 3/4SM -RA BR OVC004 WS020/19055KT
     FM111400 17017KT 1/2SM -RA FG OVC004 WS015/19060KT
     FM111800 18023G30KT 1/2SM +RA FG OVC004 WS015/19060KT
     FM120400 23012G18KT 3SM -SHRA BR SCT007 OVC030=
KJFK 110533Z 1106/1212 05004KT 1SM -SHRA BR OVC003 WS020/19040KT
      TEMPO 1106/1109 1/2SM -SHRA FG
     FM110900 15011KT 3/4SM -RA BR OVC004 WS020/19055KT
     FM111300 17018KT 1SM -RA BR OVC004 WS015/19060KT
     FM111800 18023G32KT 1/2SM +RA FG OVC004 WS015/19060KT
     FM120300 23014G20KT 3SM -SHRA BR SCT015 BKN030
     FM120600 27016G22KT P6SM SCT035=
KLGA 110533Z 1106/1206 05007KT 1SM -SHRA BR OVC003 WS020/19040KT
      TEMPO 1106/1109 1/2SM -SHRA FG
     FM110900 15009KT 3/4SM -RA BR OVC003 WS020/19055KT
     FM111400 17016KT 1SM -RA BR OVC004 WS015/19060KT
     FM111800 18021G30KT 1/2SM +RA FG OVC004 WS015/19060KT
     FM120300 23014G20KT 3SM -SHRA BR SCT015 BKN030=
KLIT 110535Z 1106/1206 17008KT P6SM SCT014 BKN040 WS020/20045KT
      TEMPO 1106/1107 5SM -RA BR BKN014 OVC030
     FM110800 27010KT P6SM SCT100 BKN250 WS020/21040KT
     FM111500 28010G20KT P6SM SCT250
     FM120000 28006KT P6SM SKC=

0000142300
901
FTUS80 KWBC 110536 RRF
TAF
KLWB 110533Z 1106/1206 04003KT 4SM BR OVC009 WS020/20030KT
     FM111000 05006KT 5SM -DZ BR OVC013 WS020/20040KT
     FM111600 20009KT 4SM SHRA BR OVC015
     FM111900 26009G20KT 6SM -SHRA BR OVC015
     FM112300 28011G22KT P6SM OVC050=
KLYH 110533Z 1106/1206 00000KT 2SM -DZ BR OVC004 WS018/18035KT
      TEMPO 1106/1108 1/2SM FG
     FM111100 14003KT 4SM -RA BR OVC007 WS015/20035KT
     FM111700 18008KT 6SM SHRA OVC014
     FM112200 26010G20KT P6SM -SHRA OVC045
     FM120100 27012G25KT P6SM SCT040=
KMCE 110533Z 1106/1206 12003KT P6SM SCT200
     FM110900 VRB03KT 4SM HZ SCT200
     FM111900 15004KT P6SM SCT100 BKN200=
KMCN 110534Z 1106/1206 VRB03KT 1/4SM -RADZ FG OVC002
     FM110900 15006KT 1SM -SHRA BR OVC004
     FM111400 20010G17KT 2SM -SHRA BR OVC007
     FM111800 24011G18KT 4SM -SHRA BR BKN025 PROB30 1118/1121 2SM
      TSRA BR BKN010CB
     FM112200 28012G20KT P6SM BKN050
     FM120000 30012KT P6SM SCT050=
KMCW 110533Z 1106/1206 29007KT 2SM BR OVC004
     FM110700 29008KT 5SM BR OVC009
     FM111000 30011KT P6SM SCT005 BKN035
     FM111600 30015G24KT P6SM BKN100
     FM120000 28009KT P6SM SCT100=
KMDW 110533Z 1106/1206 20012KT 1SM -DZ BR VCSH OVC003
      TEMPO 1106/1108 5SM RA OVC006
     FM111100 26008KT P6SM OVC007
     FM111600 27014G22KT P6SM OVC015
     FM112300 27010KT P6SM SCT015=

0000127400
902
FTUS80 KWBC 110536 RRG
TAF
KMLI 110534Z 1106/1206 24006KT 6SM BR OVC004
      TEMPO 1106/1108 3SM BR
     FM110900 28009KT P6SM BKN008 OVC015
     FM111600 28012KT P6SM SCT015
      TEMPO 1118/1122 BKN015
     FM120000 26006KT P6SM SKC=
KMSP 110533Z 1106/1212 24003KT 2SM BR BKN002
      TEMPO 1106/1109 1/2SM FZFG
     FM110900 26005KT 4SM BR BKN009
     FM111000 28008KT P6SM SCT015
     FM111200 29012KT P6SM SCT250
     FM111600 30012KT P6SM SCT025 BKN040
     FM112000 27008KT P6SM SCT040 SCT250
     FM120200 23004KT P6SM SCT030 BKN120=
KONT 110534Z 1106/1212 VRB03KT 5SM BR FEW250
     FM110900 VRB03KT 3SM BR FEW250
     FM111500 VRB03KT 5SM HZ FEW250
     FM112200 26006KT P6SM FEW250
     FM120300 VRB03KT 5SM HZ FEW250=
KORD 110533Z 1106/1212 20012KT 1SM -DZ BR VCSH OVC003
      TEMPO 1106/1108 5SM RA OVC006
     FM111100 26008KT P6SM OVC007
     FM111600 27014G22KT P6SM OVC015
     FM112300 27010KT P6SM SCT015
     FM120500 23006KT P6SM SKC=
KPBF 110535Z 1106/1206 26010KT P6SM SCT010 BKN025 WS020/20043KT
      TEMPO 1106/1109 5SM -RA BR BKN010 OVC025
     FM110900 27010G18KT P6SM BKN100 BKN250 WS020/20040KT
     FM111500 28012G20KT P6SM SCT250
     FM120000 27006KT P6SM SKC=

0000149000
903
FTUS80 KWBC 110536 RRH
TAF
KPDK 110534Z 1106/1206 05004KT 2SM -RADZ BR OVC002
      TEMPO 1106/1110 1SM -DZ BR
     FM111000 16006KT 2SM -SHRA BR OVC004
     FM111400 21009KT 3SM -SHRA BR OVC007
     FM111900 27010G18KT P6SM BKN025
     FM112100 29012G20KT P6SM SCT040
     FM120000 28011KT P6SM SCT250=
KPSP 110534Z 1106/1206 VRB06KT P6SM FEW250=
KRAP 110534Z 1106/1206 33012KT P6SM BKN040 OVC060
     FM111500 25008KT P6SM SCT100 BKN250
     FM112100 15008KT P6SM SCT120=
KRFD 110533Z 1106/1206 18012KT 1 1/2SM BR OVC003
      TEMPO 1106/1107 1/2SM -DZ FG OVC002
     FM110900 26010KT P6SM OVC007
     FM111600 27014G22KT P6SM OVC015
     FM112200 27010KT P6SM SCT015=
KRNH 110533Z 1106/1206 17005KT 3SM BR OVC005
      TEMPO 1106/1109 1SM -FZDZSN BR SCT005 BKN012
     FM110900 25005KT 4SM BR BKN008
     FM111200 29010KT 6SM BR SCT015
     FM111800 30012KT P6SM SCT025 BKN040
     FM112200 26007KT P6SM SCT040 SCT250
     FM120200 22006KT P6SM SCT100=
KROA 110533Z 1106/1206 00000KT 3SM -DZ BR OVC004 WS019/20035KT
     FM111200 15006KT 6SM -DZ BR OVC009 WS020/20035KT
     FM111600 16009KT 5SM -SHRA BR OVC012
     FM112200 27011G23KT P6SM -SHRA OVC030
     FM120100 29015G30KT P6SM SCT045=
KRWF 110533Z 1106/1206 26007KT 4SM BR SCT015
     FM110900 28008KT P6SM FEW015 SCT250
     FM111300 30010KT P6SM SCT020 BKN040
     FM111800 29010KT P6SM SCT040 SCT250
     FM120000 23007KT P6SM SCT020 BKN100=

0000137000
904
FTUS80 KWBC 110536 RRJ
TAF
KTEB 110533Z 1106/1206 VRB03KT 1 1/2SM -SHRA BR OVC004
      TEMPO 1106/1109 1/2SM -SHRA FG
     FM110900 VRB05KT 1/2SM -RA FG OVC004 WS020/19050KT
     FM111400 17009KT 1SM -RA BR OVC004 WS015/19050KT
     FM111800 18015G21KT 1SM +RA BR OVC004 WS015/19050KT
     FM120300 23010KT 3SM -SHRA BR SCT007 OVC030=
KTRM 110534Z 1106/1206 VRB06KT P6SM FEW250=
PAAQ 110534Z 1106/1206 00000KT P6SM VCFG OVC009
      TEMPO 1106/1110 2SM BR OVC005
     FM111900 02004KT P6SM SCT015 BKN040 OVC060=
PABE 110534Z 1106/1206 03011KT P6SM SCT050
     FM111300 03018KT P6SM FEW050 SCT150=
PACD 110534Z 1106/1206 14020G28KT 6SM -RA BR SCT015 OVC025
      TEMPO 1106/1108 SCT025 OVC050
     FM111000 20011KT P6SM -SHRA SCT025 BKN040=
PACV 110534Z 1106/1206 00000KT P6SM VCFG FEW001 BKN035
     FM111900 VRB03KT P6SM SCT035 BKN070
     FM120300 VRB03KT 3SM -SHSN OVC025=
PADL 110534Z 1106/1206 02008KT P6SM VCSH OVC015
      TEMPO 1106/1110 3SM -SHSN
     FM111200 02012G20KT P6SM SCT020 BKN050 OVC080
     FM112200 02015G25KT 2SM -SN BLSN OVC015 AMD LTD TO CLD VIS
      AND
      WIND 1107/1116=
PADQ 110534Z 1106/1206 28005KT P6SM FEW040 SCT250
     FM111800 13005KT P6SM SCT035 SCT120 OVC200
     FM112200 13012KT P6SM VCSH BKN030 OVC080
     FM120100 VRB03KT 3SM -RA BR BKN012 OVC020=

0000139500
905
FTUS80 KWBC 110536 RRI
TAF
KSAN 110534Z 1106/1212 VRB04KT 5SM BR FEW250
     FM110900 VRB03KT 4SM BR SCT003
      TEMPO 1110/1114 2SM BR
     FM111600 27007KT P6SM FEW250
     FM120200 VRB04KT P6SM BKN010
     FM121000 VRB03KT P6SM FEW010=
KSAV 110533Z 1106/1206 18003KT 4SM BR BKN004
      TEMPO 1108/1109 2SM BR BKN002
     FM110900 18004KT 1/4SM FG VV001
     FM111300 19009KT 4SM BR OVC004
     FM111500 21012G18KT P6SM SCT005 BKN025
     FM111900 21015G24KT 3SM +RA SCT015 OVC030
     FM112200 26010KT P6SM SCT040 BKN080=
KSNA 110534Z 1106/1206 22006KT 4SM HZ FEW250
     FM110800 VRB03KT 2SM BR VCFG SCT003
     FM111600 VRB05KT 5SM HZ FEW010
     FM112100 22006KT P6SM FEW250
     FM120400 VRB03KT 5SM BR BKN008=
KSTC 110533Z 1106/1206 21005KT 2SM BR SCT002 BKN012
      TEMPO 1106/1109 1/2SM FZFG VV002
     FM110900 24005KT 6SM BR SCT012
     FM111000 30009KT P6SM SCT200
     FM111200 31010KT P6SM SCT025 BKN040
     FM111800 30009KT P6SM SCT040 SCT250
     FM120000 24006KT P6SM SCT020 BKN100=
KSWF 110533Z 1106/1212 VRB04KT 1SM -FZRA BR OVC003
     FM110800 15005KT 1/2SM -RA FG OVC004
     FM111400 17010KT 1/2SM -RA FG OVC004 WS015/19050KT
     FM111900 17014KT 1SM +RA OVC004 WS015/19050KT
     FM120200 26012G18KT 3SM -SHRA BR SCT007 OVC025
     FM120600 27015G21KT P6SM SCT035 BKN050 AMD NOT SKED=

0000098700
906
FTUS80 KWBC 110536 RRL
TAF
TAF TIST 110531Z 1106/1206 08010KT P6SM VCSH FEW030 SCT060
     FM111230 08015G23KT P6SM FEW035
     FM112300 09008KT P6SM FEW025=
TAF TISX 110531Z 1106/1206 06007KT P6SM VCSH FEW030 SCT060
     FM111230 09016G23KT P6SM SCT025
     FM112200 08009KT P6SM FEW025=
TAF TJBQ 110531Z 1106/1206 11008KT P6SM FEW030
     FM111400 08020G27KT P6SM SCT020
     FM112300 10010KT P6SM SCT020 AMD NOT SKED TIL 111100=
TAF TJMZ 110531Z 1106/1206 07007KT P6SM FEW040
     FM111530 08008KT P6SM SCT030
     FM112200 06006KT P6SM SCT025 SCT040 AMD NOT SKED TIL 111600=
TAF TJPS 110531Z 1106/1206 06005KT P6SM FEW030
     FM111500 13010KT P6SM SCT030
     FM112230 09007KT P6SM FEW030 AMD NOT SKED 1112/1203=
TAF TJSJ 110531Z 1106/1206 10007KT P6SM VCSH SCT030
     FM111330 07016G25KT P6SM SCT030
     FM112200 10006KT P6SM FEW030=
TAF TNCM 110531Z 1106/1206 07011KT P6SM VCSH FEW019
     FM111300 09015KT P6SM SCT020=

0000143200
907
FTUS80 KWBC 110536 RRK
TAF
PADU 110534Z 1106/1206 21011KT P6SM -SHRA SCT020 OVC035
      TEMPO 1106/1110 BKN020
     FM111200 21012G20KT P6SM -SHRA SCT025 BKN040
     FM120000 21017G26KT P6SM -SHRA SCT035 BKN045=
PAEN 110534Z 1106/1206 01005KT P6SM OVC006
     FM111700 04007KT P6SM BKN015 OVC040
     FM111900 03008KT P6SM SCT025 BKN060=
PAGK 110534Z 1106/1206 34005KT 4SM -SHSN BR SCT025 OVC050=
PAHO 110534Z 1106/1206 04005KT P6SM SCT015 OVC030
      TEMPO 1106/1110 BKN015
     FM111500 05005KT P6SM SCT025 OVC050
     FM120300 VRB04KT 3SM -SHSN OVC025=
PAIL 110534Z 1106/1206 02007KT P6SM SCT006 OVC020
      TEMPO 1106/1110 BKN006
     FM111600 03008KT P6SM SCT020 BKN050
     FM120400 02006KT 5SM -SHSN OVC035=
PAKN 110534Z 1106/1206 34005KT P6SM FEW004 SCT025 BKN120
     FM112100 04011KT 3SM -SN OVC025=
PANC 110534Z 1106/1212 34004KT P6SM VCSH SCT015 OVC025
      TEMPO 1106/1110 5SM -SHSN BKN015
     FM112200 VRB03KT P6SM SCT025 BKN050=
PASN 110534Z 1106/1206 08015KT P6SM VCSH SCT015 BKN050 OVC080
      TEMPO 1106/1109 BKN015
     FM110900 07018G25KT 3SM -RASN BR OVC015
     FM111600 13011KT 5SM -SHRASN BR BKN015 OVC030
     FM120000 07015G22KT 3SM -SHRASN BR OVC015=
PATK 110534Z 1106/1206 00000KT P6SM OVC020
     FM111800 VRB03KT P6SM SCT025 BKN060=
PAVD 110534Z 1106/1206 VRB03KT P6SM SCT050 BKN120 AMD LTD TO CLD
      VIS AND WIND=

0000026000
908
FTUS80 KWBC 110536 AAA
TAF AMD
KAUS 110532Z 1106/1212 24006KT P6SM FEW250
     FM110900 32005KT P6SM SKC
     FM111600 01007KT P6SM SKC
     FM120000 08005KT P6SM SKC
     FM120300 12004KT P6SM SKC
     FM120600 16004KT P6SM SKC=

0000025200
909
FTMX31 MMMX 110500
TAF MMMX 110537Z 1106/1212 00000KT P6SM SCT100 SCT200 TX21/1122Z
TN08/1112Z
         FM111600 06005KT P6SM BKN200 
         FM112100 12010KT P6SM SCT030 BKN200 
         FM120200 03005KT P6SM SCT100 BKN200=

0000023200
910
FTMX31 MMMX 110500
TAF MMTM 110537Z 1106/1206 12005KT 5SM HZ SCT080 BKN200 
         TEMPO 1111/1115 3SM BR BKN010 
         FM111800 36010KT P6SM SCT010 BKN200 
         FM120100 03010KT P6SM BKN010 BKN200=

0000032700
911
FTMX31 MMMX 110500
TAF MMVR 110537Z 1106/1206 00000KT P6SM SCT015 TX26/1120Z TN18/1112Z 
         TEMPO 1106/1110 BKN010 
         FM111000 00000KT P6SM SCT010 
         FM111500 08010KT P6SM SCT015 BKN200 
         FM112100 03015KT P6SM SCT015 BKN200 
         FM120100 03010KT P6SM BKN015 BKN070=

0000011700
912
SPUS42 KWBC 110536
SPECI
KPNS 110532Z AUTO 18009KT 1SM R17/4500VP6000FT BR OVC002 19/18
A2996=

0000004200
913
SAJP44 KWBC 110530
NIL=

0000004200
914
SAJP45 KWBC 110530
NIL=

00000000