0000010600
615
SAUS75 KWBC 110700 RRH
METAR
PGUA 110655Z COR 04012KT 10SM SCT033 BKN043 26/24 A2986=

0000045500
616
FTUS52 KWBC 110824 AAA
TAF AMD
KAEX 110820Z 1108/1206 23006KT P6SM BKN020 OVC120
      TEMPO 1108/1110 5SM BR BKN015 OVC025
     FM111000 26007KT 4SM BR OVC010
      TEMPO 1110/1114 1/2SM FG
     FM111500 31011KT P6SM SKC=
KLFT 110822Z 1108/1206 21012G20KT P6SM VCTS OVC006CB
      TEMPO 1108/1110 4SM -SHRA BR OVC003CB
     FM111000 23010KT 4SM BR OVC003
      TEMPO 1110/1114 1SM BR
     FM111700 33011KT P6SM SKC=

0000040000
617
FTUS54 KWBC 110824 AAA
TAF AMD
KIDA 110821Z 1108/1206 19014G24KT P6SM VCSH OVC020
     FM111500 21010KT P6SM SCT015 BKN050
     FM112000 21018G28KT P6SM VCSH SCT020 OVC040
     FM112300 22020G30KT 3SM -SN BKN015 OVC030=
KSNS 110822Z 1108/1206 09004KT 1/4SM FG VV001
     FM111700 13006KT P6SM BKN060
     FM112100 28006KT P6SM BKN060
     FM120300 28006KT P6SM SKC=

0000129300
618
FTUS80 KWBC 110824 AAA
TAF AMD
KAEX 110820Z 1108/1206 23006KT P6SM BKN020 OVC120
      TEMPO 1108/1110 5SM BR BKN015 OVC025
     FM111000 26007KT 4SM BR OVC010
      TEMPO 1110/1114 1/2SM FG
     FM111500 31011KT P6SM SKC=
KCHS 110821Z 1108/1206 19007KT 2SM BR BKN006
     FM111000 20008KT 1SM BR BKN004
      TEMPO 1110/1113 1/2SM FG OVC002
     FM111530 20012G18KT P6SM SCT008 BKN025
     FM112000 21014G24KT 3SM +RA SCT015 OVC030
     FM112300 25010KT P6SM SCT015 BKN060=
KCMH 110822Z 1108/1206 17009KT 4SM -SHRA BR SCT008 OVC040
      TEMPO 1108/1110 2SM -SHRA BR BKN008 OVC020
     FM111300 20012KT P6SM OVC012
     FM111600 24015G25KT P6SM OVC018
     FM120100 26013KT P6SM OVC009=
KIDA 110821Z 1108/1206 19014G24KT P6SM VCSH OVC020
     FM111500 21010KT P6SM SCT015 BKN050
     FM112000 21018G28KT P6SM VCSH SCT020 OVC040
     FM112300 22020G30KT 3SM -SN BKN015 OVC030=
KLFT 110822Z 1108/1206 21012G20KT P6SM VCTS OVC006CB
      TEMPO 1108/1110 4SM -SHRA BR OVC003CB
     FM111000 23010KT 4SM BR OVC003
      TEMPO 1110/1114 1SM BR
     FM111700 33011KT P6SM SKC=
KSNS 110822Z 1108/1206 09004KT 1/4SM FG VV001
     FM111700 13006KT P6SM BKN060
     FM112100 28006KT P6SM BKN060
     FM120300 28006KT P6SM SKC=

0000009700
619
SPAU32 AMMC 110824
SPECI YSCB 110824Z AUTO 08015KT 9999 // SCT100 28/11 Q1016=

0000174100
620
SPUS70 KWBC 110824
SPECI
KASE 110820Z 00000KT 4SM -SN BR OVC033 M05/M06 A3015 RMK AO2 P0001
     T10501056=
KBAZ 110820Z AUTO 20004KT 1SM BR VV002 09/09 A2989 RMK AO2=
KDKK 110820Z AUTO 22011G21KT 10SM FEW050 BKN075 09/04 A2970 RMK
     AO2 PK WND 18028/0755 WSHFT 0800 TSNO=
KGRB 110820Z AUTO 20006KT 3SM BR OVC003 01/01 A2939 RMK AO2
     T00110011=
KLFT 110820Z AUTO 25016G21KT 1 3/4SM +TSRA OVC006 21/ A2985 RMK
     AO2 LTG DSNT SW TSB06RAE0754B17 P0017 $=
KLNR 110820Z AUTO 26004KT 2 1/2SM BR OVC009 01/00 A2944 RMK AO2
     CIG 005V013 T00060000=
KLUK 110820Z AUTO 19008KT 5SM RA BR OVC075 10/09 A2965 RMK AO2 LTG
     DSNT SE P0010 T01000094=
KMTO 110820Z AUTO 20010KT 1SM BR VV002 06/ A2951 RMK AO2 RAB03E19
     P0001 T0056 TSNO $=
KPDK 110820Z AUTO VRB04KT 7SM OVC003 09/09 A2991 RMK AO2 LTG DSNT
     SE-SW RAE02 P0000=
KSGJ 110820Z VRB05KT 2SM BR FEW006 17/16 A3006 RMK AO2=
KSGR 110820Z AUTO 20004KT 2 1/2SM BR OVC002 17/17 A2986 RMK
     AO2=
KTHV 110820Z AUTO 00000KT 1/2SM FG OVC002 01/01 A3000 RMK AO2
     T00110011=
PAPB 110820Z AUTO 10023G34KT 4SM -SN BR SCT009 OVC014 01/01 A2887
     RMK AO2 PK WND 10034/0815 P0001 T00110006 TSNO $=
KAMG 110821Z AUTO 16007KT 1/2SM FG VV002 19/18 A3000 RMK AO2
     T01890178 $=
KDPA 110821Z 21006KT 1 1/4SM -RA BR OVC002 03/03 A2943 RMK AO2
     P0000=
KSFB 110821Z AUTO 12003KT 1/2SM FG VV009 19/19 A3006 RMK AO2=
KCXO 110821Z AUTO 21003KT 1 1/4SM BR OVC004 16/16 A2985 RMK
     AO2=
KMFR 110821Z AUTO 12003KT 1/4SM R14/1600V2000FT FG VV002 04/04
     A3003 RMK AO2 T00440039=
KSSF 110821Z AUTO 30003KT 1 3/4SM BR CLR 11/10 A2990 RMK AO2 $=
KTYR 110821Z 00000KT 2SM BR CLR 09/08 A2987 RMK AO2=

0000010800
621
SPUS41 KWBC 110831
SPECI
KDOV 110826Z AUTO 13006KT 10SM FEW025 SCT047 BKN090 09/ A3001=

0000009700
622
SPUS41 KWBC 110831
SPECI
KGSO 110827Z 04003KT 1 1/2SM BR OVC002 04/03 A2996=

0000009300
623
SPUS42 KWBC 110831
SPECI
KHOU 110827Z 22004KT 1SM BR OVC005 16/16 A2986=

0000009300
624
SPUS43 KWBC 110831
SPECI
KFAR 110827Z 31014KT 10SM OVC014 M03/M06 A2952=

0000012100
625
SAGQ21 FGSL 110830
METAR FGSL 110830Z 22005KT 180V250 6000 FEW012 FEW020CB BKN130 30/24
Q1013 NOSIG=

0000010700
626
SALI20 GLRB 110830
METAR GLRB 110830Z 00000KT 9000 BKN013  25/24 Q1012 NOSIG
RMK BRVC=

0000031400
627
SAMC31 GMMC 110830
METAR GMME 110830Z 19004KT 5000 SCT020 BKN100 14/10 Q1017 NOSIG=
METAR GMMN 110830Z 17005KT 9999 FEW016 BKN100 12/09 Q1019 NOSIG=
METAR GMTT 110830Z 08003KT 6000 SCT016 BKN100 12/10 Q1017 NOSIG=
METAR GMAD 110830Z NIL=
METAR GMFF 110830Z NIL=
METAR GMMX 110830Z NIL=

0000033400
628
FTBZ18 SBGR 111200
TAF SBSP 110800Z 1112/1212 01008KT 9999 SCT035
TX34/1117Z TN20/1208Z
BECMG 1115/1117 30005KT 9999 SCT035
FEW045TCU
PROB40 1118/1121 27010KT 8000 TSRA BKN030 FEW040CB
BECMG
1121/1123 13005KT CAVOK
BECMG 1203/1205 04005KT
BECMG 1206/1208
06005KT
BECMG 1210/1212 35005KT RMK PHH=

0000033500
629
FTBZ18 SBGR 111200
TAF SBGR 110800Z 1112/1218 08005KT 9999 SCT040
TX33/1117Z TN20/1208Z
BECMG 1115/1117 33008KT SCT035 FEW045TCU
PROB40
1118/1122 30008KT 9000 TSRA SCT030 FEW045CB
BECMG 1122/1124 10005KT
CAVOK
BECMG 1204/1206 07005KT
BECMG 1212/1214 34008KT SCT040
TEMPO
1215/1218 BKN040 RMK PHH=

0000035300
630
FTBZ18 SBGR 111200
TAF SBRP 110800Z 1112/1212 11003KT CAVOK TX35/1117Z
TN20/1208Z
BECMG 1112/1114 33008KT 9999 SCT035
BECMG 1115/1117 SCT035
FEW045TCU
PROB40 1118/1121 30010KT 8000 TSRA SCT040 FEW045CB
BECMG
1121/1123 08005KT CAVOK
BECMG 1200/1202 00000KT
BECMG 1207/1209
09005KT
TEMPO 1209/1212 11005KT RMK PHH=

0000029300
631
FTBZ18 SBGR 111200
TAF SBCF 110800Z 1112/1212 05008KT 9999 SCT020
TX30/1117Z TN19/1209Z
BECMG 1114/1116 11005KT 9999 SCT030
FEW045TCU
BECMG 1122/1124 14005KT SCT025
BECMG 1203/1205 11005KT
TEMPO
1206/1210 14005KT CAVOK
TEMPO 1210/1212 09008KT BKN030 RMK PHH=

0000009500
632
SAPF20 NTAA 110830
METAR NTAA 110830Z 08002KT 9999 FEW020 25/21 Q1013 NOSIG=

0000050600
633
SAHU41 LHBM 110830
METAR LHDC 110815Z 20007KT 9999 BKN040 01/M00 Q1022 NOSIG=
METAR LHKE 110815Z 00000MPS 9999 OVC040 03/02 Q1022 NOSIG RMK BLU=
METAR LHPA 110815Z 25001MPS 9999 BKN030 05/04 Q1021 NOSIG RMK BLU=
METAR LHPP 110815Z 04002KT 9999 SCT040 BKN083 06/04 Q1022=
METAR LHSM 110815Z 21003KT 1600 BR OVC005 05/05 Q1022 BECMG 2500 BR
     OVC007=
METAR LHSN 110815Z 00000MPS 9999 BKN043 04/02 Q1022 NOSIG RMK BLU=
METAR LHUD 110815Z 13005KT 4500 BR BKN026 04/03 Q1023=

0000030200
634
FTBZ18 SBGR 111200
TAF SBKP 110800Z 1112/1212 04005KT CAVOK TX33/1117Z
TN21/1208Z
BECMG 1113/1115 01005KT FEW030
BECMG 1115/1117 33008KT
SCT040 FEW045TCU
PROB40 1118/1124 20008KT 8000 TSRA SCT040
FEW045CB
BECMG 1200/1202 14005KT CAVOK
BECMG 1210/1212 05005KT RMK PHH=

00000000