0000103900
635
FTUS72 KWBC 110906 AAA
TAF AMD
KACT 110903Z 1109/1206 32004KT P6SM SCT150
     FM111400 30010KT P6SM SKC=
KAHN 110905Z 1109/1206 09004KT 1SM -RA BR OVC003
      TEMPO 1109/1110 1/2SM TSRA FG SCT005 OVC010CB
     FM111200 15006KT 2SM -SHRA BR OVC004
     FM111500 20009KT 3SM -SHRA BR OVC007
     FM111900 27010G18KT P6SM BKN025
     FM112200 29012G20KT P6SM SCT040
     FM120100 28011KT P6SM SCT250=
KBTR 110904Z 1109/1206 22015KT P6SM -SHRA OVC010
      TEMPO 1109/1111 2SM TSRA OVC010CB
     FM111500 30009KT P6SM SCT250
     FM120000 VRB03KT P6SM SKC=
KDAL 110903Z 1109/1206 32004KT P6SM SCT150
     FM111400 30010KT P6SM SKC=
KDFW 110903Z 1109/1212 32004KT P6SM SCT150
     FM111400 30010KT P6SM SKC=
KFTW 110903Z 1109/1206 32004KT P6SM SCT150
     FM111400 30010KT P6SM SKC=
KGLS 110902Z 1109/1206 23006KT 1/2SM FG VV002
     FM111200 24007KT 4SM BR SCT002 BKN012
     FM111400 27008KT P6SM SCT008 SCT015
     FM111500 33012KT P6SM SKC
     FM120000 01007KT P6SM SKC=

0000020900
636
FTUS75 KWBC 110906
TAF
TAF AMD PGUA 1109/1208 06012G18KT 9999 SCT020 SCT030 QNH2981INS
      TEMPO 1109/1114 06015G25KT 9000 -SHRA SCT015 BKN025
      TX29/1205Z TN24/1117Z AMD 110905=

0000056700
637
FTUS73 KWBC 110906 AAA
TAF AMD
KMKE 110903Z 1109/1212 23007KT 2SM -DZ BR OVC005
      TEMPO 1109/1112 1SM BR OVC002
     FM111200 27008KT 4SM -DZ OVC007
     FM111500 28012G19KT 6SM -SN OVC009
     FM111800 27013G22KT P6SM BKN012
     FM120000 27010KT P6SM BKN025
     FM120500 27008KT P6SM SCT030=
KMSP 110903Z 1109/1212 29008KT 3SM BR SCT006 BKN009 OVC012
     FM111230 29009KT 6SM BR SCT006 SCT015
     FM111500 30012KT P6SM BKN020 BKN040
     FM112000 27008KT P6SM SCT040 SCT250
     FM120200 23004KT P6SM SCT030 BKN120=

0000052500
638
FTUS74 KWBC 110906 AAA
TAF AMD
KPDX 110903Z 1109/1206 19015G25KT P6SM OVC040
     FM111100 22020G35KT 4SM RA BR SCT015 OVC030 WS015/20055KT
     FM111600 22020G30KT P6SM -SHRA BKN015 BKN025 OVC045
     FM111900 22024G36KT P6SM -SHRA SCT025 BKN050
     FM120300 24018KT P6SM -SHRA SCT030 BKN050=
KSFO 110904Z 1109/1212 00000KT P6SM BKN200
     FM111200 19006KT P6SM BKN015
     FM112100 24006KT P6SM VCSH BKN025 BKN060
     FM120000 29010KT P6SM BKN060
     FM120600 29006KT P6SM SCT060=

0000040600
639
SAHW31 KWBC 110900
METAR
PBKH NIL=
PHJR 110853Z 00000KT 10SM CLR 19/18 A2995=
PHKO 110853Z AUTO 11005KT 10SM CLR 23/16 A2993=
PHLI 110853Z AUTO 04017KT 10SM SCT017 BKN021 OVC048 23/21
     A2996=
PHNL 110853Z 09003KT 10SM FEW032 22/18 A2994=
PHOG 110854Z 13007KT 10SM CLR 20/17 A2995=
PHTO 110853Z AUTO 23007KT 8SM -RA FEW027 BKN041 OVC055 20/18
     A2998=
PNGF NIL=

0000048800
640
SAIO31 KWBC 110900
METAR
FIMP 110900Z 09010KT 9999 BKN018 29/25 Q1015=
FIMR 110900Z 10018KT 9999 SCT017 BKN050 30/24 Q1015=
FJDG 110855Z 29014G21KT 9999 FEW020 BKN050 OVC080 27/25 A2983 RMK
     SLP098 60006 8/87/ T02710246 57020=
FMCH NIL=
FMCV NIL=
FMCZ NIL=
FMEE NIL=
FMMI 110900Z VRB04KT 9999 SCTT020CB BKN023 28/23 1021 NOSIG=
FMMT NIL=
FMNN NIL=
FSIA NIL=
FSSS NIL=
VRMM NIL=
VYMD NIL=
VYYY NIL=
WBGG NIL=
WBKK NIL=
WBSB NIL=

0000106300
641
SANT31 KWBC 110900
METAR
BGBW 110850Z 07006KT 9999 FEW180 M12/M19 Q0996 RMK 1CS=
BGCO 110850Z AUTO 28002KT //// SCT012/// BKN038/// BKN072///
     M08/M10 Q1011=
BGGH 110850Z AUTO 07011KT 9999NDV FEW190/// M08/M16 Q0994=
BGJN 110850Z AUTO 08004KT 020V100 9999NDV SCT075/// M11/M20
     Q0994=
BGKK 110850Z AUTO 05005KT 020V090 9999NDV BKN062/// M04/M09
     Q0997=
BGSF 110850Z AUTO 05006KT 9999NDV FEW100/// BKN170/// M17/M23
     Q0996=
BGTL 110858Z AUTO 09011KT 9999 FEW140 M11/M15 A2931 RMK AO2 SLP913
     T11121153 58002=
BIAR 110900Z 31005KT 9999 -SN BKN031 OVC045 01/M02 Q0998
     01/490195=
BIEG 110900Z 09025G40KT 9999 -SNRA SCT012 BKN030 BKN060 01/M01
     Q0995 RMK R04/790194=
BIKF 110900Z 21007KT 9999 FEW040 M01/M03 Q0999=
BIRK 110900Z 21012KT 9999 FEW032 SCT055 00/M02 Q0999
     R19/790144=
GVAC 110900Z 04004KT 9999 SCT014 SCT200 19/13 Q1016 NOSIG=
GVPR NIL=
LPBJ NIL=
LPLA 110900Z 32019G29KT 9999 FEW017 12/07 Q1006=
TXKF 110855Z 08011KT 9999 FEW026 SCT050 SCT300 17/12 Q1030=

0000029500
642
FTES31 MSLP 110925
TAF MSLP 110925Z 1112/1212 02008KT CAVOK TX33/1118Z TN20/1211Z  
TEMPO 1119/1201 20010KT 9999 FEW066
FM110100 34008KT CAVOK=
TAF MSSS 110925Z 1112/1212 35007KT CAVOK TX31/1118Z TN17/1111Z
TEMPO 1119/1201 14008KT 9999 FEW047
FM110100 34007KT CAVOK=

0000149300
643
SAPA31 KWBC 110900
METAR
AGGG NIL=
AGGH 110900Z 14003KT 9999 SCT017 SCT040 28/25 Q1006=
ANAU NIL=
AYPY NIL=
PGNT NIL=
PGRO 110850Z 05007KT 7SM -RA BKN030 BKN100 24/24 A2989=
PGSN 110854Z 04017G24KT 10SM FEW015 SCT023 OVC035 26/24 A2988 RMK
     AO2 PK WND 03027/0829 RAB30E41 SLP139 P0000 60003 T02560239
     51003=
PGUA 110855Z 05009KT 10SM FEW047 SCT065 25/24 A2989 RMK SLP107
     53010=
PGUM 110854Z 06011KT 10SM FEW025 BKN050 BKN065 26/22 A2988 RMK AO2
     SLP113 60001 T02610217 53012=
PGWT 110850Z 08014KT 5SM -RA FEW010 SCT015 BKN100 25/24 A2987 RMK
     WIND DATA ESTIMATED=
PHJH NIL=
PHJR 110853Z 00000KT 10SM CLR 19/18 A2995 RMK AO2 SLP148 T01890178
     50004=
PHMK 110854Z AUTO 00000KT 10SM CLR 19/17 A2996 RMK AO2 SLP147
     T01940167 50005 TSNO=
PJON NIL=
PKMJ NIL=
PKMR 110855Z 04014KT 15SM FEW015 FEW050 BKN300 28/23 A2975 RMK
     SLP075 8/801 T02780232 52015=
PKWA 110900Z AUTO 07015KT 10SM CLR 28/19 A2979 RMK AO2
     T02760189=
PLCH NIL=
PMDY 110856Z AUTO 12015KT 5SM BR CLR 21/18 A3013 RMK AO2 TSNO
     53004 T02050183 SLP511 ?=
PTKK NIL=
PTKR 110850Z 07005KT 15SM FEW017CB BKN110 OVC280 26/25 A2977 RMK
     CB DSNT ALQDS SLP082 60000 8/978 T02610246 53007=
PTPN NIL=
PTRO 110856Z 07006KT 14SM SCT016 BKN110 OVC290 26/25 A2976=
PTSA NIL=
PTTP NIL=
PTYA 110850Z 06012KT 12SM SCT016 BKN130 OVC300 28/23 A2982 RMK MDT
     CU ALQDS SLP100 8/272 T02780233 53015=
PWAK NIL=

0000021900
644
SAIE32 EIDB 110900
METAR EICM 110900Z NIL=
METAR EIDL 110900Z NIL=
METAR EIKY 110900Z NIL=
METAR EIME 110900Z 23007KT 9999 FEW016 01/00 Q1018=
METAR EISG 110900Z NIL=
METAR EIWF 110900Z NIL=

0000011700
645
SATD31 TTPP 110900
METAR
TTPP 110900Z 00000KT 9999 FEW015 21/20 Q1013=
METAR TTCP 110900Z NIL=

0000038700
646
SAMX34 MMMD 110905
METAR MMCZ 110846Z 00000KT 7SM  FEW080 21/21 A2997 
      RMK SLP156 52004 958 8/060 SC=
METAR MMMD 110849Z 00000KT 7SM  SKC 20/20 A2995 RMK SLP146 57004 970=
METAR MMTP 110902Z RTD 00000KT 8SM  SCT080 23/21 A2990 
      RMK SLP116 57009 961 8/030=
METAR MMUN 110848Z 14009KT 7SM  FEW015TCU 25/23 A2998 
      RMK SLP131 57013 960 8/200=

0000169000
647
SAUS71 KWBC 110900
METAR
KABE 110851Z 36003KT 1 1/4SM -RA BR OVC003 03/02 A3002=
KACK 110853Z AUTO 16010KT 1/2SM R24/2800V3000FT FG VV001 06/05
     A3021=
KACY 110854Z 16012G19KT 10SM BKN025 OVC036 12/11 A3005=
KAGC 110853Z AUTO 15006KT 6SM HZ FEW039 OVC055 09/07 A2972=
KAGS 110853Z AUTO 00000KT 1/4SM FG VV002 10/10 A2995=
KAKR 110854Z AUTO 19008KT 10SM -RA FEW021 BKN027 OVC060 09/07
     A2965=
KALB 110851Z 00000KT 5SM -RA BR OVC004 01/M01 A3003=
KAND 110856Z AUTO 06005KT 1 1/2SM VCTS -RA BR OVC002 08/08
     A2992=
KAOO 110853Z AUTO 03003KT 1/4SM FG VV002 01/01 A2989=
KAPG NIL=
KART 110856Z AUTO 18012G24KT 10SM -RA OVC080 09/06 A2977=
KAVL 110854Z AUTO 19003KT 1 1/4SM R34/3500V5000FT -RA BR OVC009
     07/07 A2992=
KAVP 110854Z AUTO 00000KT 3SM BR OVC014 05/04 A2995=
KBAF 110853Z 35003KT 2SM -RA BR OVC005 01/M01 A3012=
KBDL 110851Z 00000KT 3/4SM R06/P6000FT BR FEW002 BKN004 OVC010
     01/00 A3011=
KBDL 110851Z COR 00000KT 3/4SM R06/P6000FT BR FEW002 BKN004 OVC010
     01/00 A3011=
KBDR 110852Z AUTO 05008KT 1/2SM FG VV002 03/03 A3010=
KBED 110856Z AUTO 00000KT 1/4SM R11/2400V2800FT FG VV002 02/02
     A3014=
KBFD 110853Z AUTO 17009G17KT 5SM BR OVC002 04/03 A2976=
KBGM 110853Z AUTO 16008KT 10SM -RA BKN004 OVC010 05/05 A2989=
KBGR 110853Z 00000KT 10SM BKN035 BKN060 M07/M09 A3023=
KBKL 110853Z AUTO 17015G21KT 10SM -RA SCT047 OVC075 11/07
     A2961=
KBKW 110851Z AUTO 16013G21KT 10SM FEW008 FEW065 17/09 A2982=
KBOS 110854Z 09005KT 1/4SM R04R/2000FT FG VV003 02/01 A3017=
KBTV 110854Z 17008KT 10SM OVC018 02/M01 A3000=
KBUF 110854Z 17013G19KT 10SM SCT046 BKN055 OVC070 06/04 A2966=

0000167200
648
SAUS71 KWBC 110900 RRA
METAR
KBVY 110853Z AUTO 09004KT 1/4SM -RA FG VV003 01/01 A3016=
KBWI 110854Z 00000KT 1 1/2SM R10/5500VP6000FT -RA BR SCT003 OVC011
     03/03 A2999=
KCAE 110856Z 04003KT 3/4SM BR VV002 11/11 A2995=
KCAK 110851Z 21010KT 10SM -RA FEW015 BKN020 OVC030 10/08 A2966=
KCAR 110854Z AUTO 18004KT 10SM OVC019 M09/M13 A3016=
KCEF 110858Z AUTO 01002KT 1SM R23/3500FT BR OVC002 00/00 A3010=
KCHO 110853Z AUTO 00000KT 1SM -RA BR OVC004 02/02 A2997=
KCHS 110856Z 21011KT 4SM BR OVC003 19/18 A3001=
KCKB 110853Z AUTO 00000KT 10SM OVC060 08/07 A2976=
KCLE 110851Z 19012KT 10SM -RA BKN024 OVC040 10/07 A2964=
KCLT 110852Z 35003KT 1/4SM R18C/4500VP6000FT -DZ BR VV002 06/06
     A2996=
KCMH 110851Z 16007KT 10SM FEW031 SCT050 OVC090 10/08 A2966=
KCRW 110854Z COR 33003KT 10SM FEW060 09/08 A2971=
KCRW 110854Z 33003KT 10SM FEW060 09/08 A2971=
KCVG 110852Z 18008KT 3SM +RA BR OVC065 11/10 A2960=
KDAN 110853Z AUTO 00000KT 6SM BR OVC005 04/03 A2998=
KDAY 110856Z 19016G22KT 7SM -RA BKN005 OVC010 10/09 A2960=
KDCA 110852Z 00000KT 1 1/4SM R01/5000VP6000FT BR BKN001 OVC012
     04/02 A3001=
KDUJ 110856Z AUTO 13009KT 8SM FEW034 SCT044 05/03 A2976=
KECG 110854Z AUTO 17008KT 10SM OVC010 18/17 A3005=
KEKN 110851Z AUTO 16011KT 10SM SCT085 BKN110 14/09 A2982=
KELM 110853Z AUTO 35004KT 7SM OVC011 03/02 A2986=
KERI 110851Z AUTO 17016G25KT 10SM SCT038 BKN110 09/05 A2962=
KEWB 110853Z AUTO 16004KT 10SM FEW030 BKN055 OVC070 08/08
     A3017=
KEWN 110854Z AUTO 19011G15KT 10SM OVC011 21/18 A3003=
KEWR 110851Z 03005KT 1SM BR OVC003 02/02 A3007=
KFAY 110853Z AUTO 19006KT 10SM OVC005 18/17 A2999=

0000010200
649
SABR31 TBPB 110900
METAR TBPB 110900Z 05015KT 9999 SCT016 BKN035 22/21 Q1014 NOSIG=

0000165500
650
SAUS71 KWBC 110900 RRB
METAR
KFLO 110853Z 17006KT 5SM BR BKN006 OVC009 17/16 A2998=
KFRG 110853Z AUTO 15009KT 10SM OVC055 09/09 A3009=
KFVE 110853Z AUTO 19003KT 10SM OVC013 M06/M08 A3011=
KGFL 110853Z AUTO 00000KT 1 1/4SM -FZRA BR OVC006 M01/M01
     A3003=
KGON 110856Z AUTO 14006KT 3SM -RA BR FEW020 BKN036 OVC060 08/07
     A3014=
KGSO 110854Z 06003KT 1SM -DZ BR OVC002 04/03 A2995=
KGSP 110853Z AUTO 04006KT 2SM -RA BR BKN003 OVC007 07/07 A2992=
KHFD 110853Z AUTO 00000KT 1 1/4SM -RA BR OVC003 02/01 A3012=
KHKY 110853Z AUTO 00000KT 1/2SM -RA FG VV005 06/05 A2994=
KHPN 110856Z 14004KT 1/4SM R16/1600V1800FT RA FG VV002 03/03
     A3005=
KHTS 110851Z 15008KT 10SM CLR 16/11 A2963=
KHVN 110853Z AUTO 00000KT 1/2SM R02/2200V2400FT FG VV002 03/03
     A3011=
KHYA 110856Z 18007KT 3/4SM BR VV002 07/06 A3017=
KIAD 110852Z 00000KT 1 1/4SM R01R/5500VP6000FT -RA BR BKN004
     OVC007 02/02 A2999=
KIAG NIL=
KILG 110851Z AUTO 34004KT 1/2SM R01/2800V3500FT -RA FG VV002 04/03
     A3001=
KILM 110853Z AUTO 17007KT 10SM CLR 19/17 A3001=
KINT 110854Z AUTO 00000KT 1SM BR OVC002 04/04 A2996=
KIPT 110854Z AUTO 04007KT 4SM BR BKN012 OVC016 02/01 A2994=
KISP 110856Z AUTO 15011KT 10SM BKN060 OVC075 11/09 A3008=
KJFK 110851Z 14012KT 8SM FEW006 OVC043 09/08 A3009=
KJST 110854Z AUTO 18011KT 10SM BKN007 BKN044 OVC065 07/06
     A2982=
KLBE NIL=
KLCK 110855Z AUTO 16010KT 5SM RA SCT017 BKN048 OVC080 10/08
     A2966=
KLEB 110853Z AUTO 00000KT 5SM BR OVC003 M02/M04 A3010=
KLGA 110851Z 00000KT 3/4SM BR OVC002 02/01 A3007=
KLUK 110853Z AUTO 18005KT 10SM -RA OVC075 10/09 A2962=

0000167300
651
SAUS71 KWBC 110900 RRC
METAR
KLWM 110854Z AUTO 04004KT 1/2SM -RA FG VV004 01/00 A3017=
KLYH 110854Z AUTO 00000KT 1 1/4SM R04/2800V3500FT -RA BR OVC005
     03/03 A2997=
KMDT 110856Z 00000KT 1/2SM DZ FG VV003 01/M01 A2997=
KMFD 110852Z AUTO 18015G20KT 10SM -RA SCT014 BKN025 OVC095 09/09
     A2962=
KMGW 110853Z AUTO 17006KT 10SM BKN050 OVC070 15/09 A2975=
KMHT 110853Z 32004KT 1SM R35/5000VP6000FT -FZRA BR OVC003 M01/M02
     A3015=
KMIV 110854Z AUTO 16007KT 130V190 10SM BKN018 OVC029 13/12
     A3002=
KMMU 110855Z AUTO 00000KT 1SM UP OVC003 02/01 A3006=
KMRB 110853Z AUTO 00000KT 1/4SM FG VV002 02/01 A2995=
KMSS 110853Z AUTO 05008KT 3SM -FZRA BR BKN034 OVC047 M02/M04
     A2989=
KMTN 110857Z AUTO 00000KT 1/2SM -RA OVC001 03/03 A3001=
KMYR 110855Z AUTO 19011KT 10SM FEW017 OVC035 18/16 A3003=
KNKT 110854Z 19010KT 10SM SCT009 OVC017 19/18 A3005=
KOQU NIL=
KORF 110851Z AUTO 17009KT 10SM -RA SCT031 BKN045 OVC060 17/16
     A3003=
KORH 110854Z AUTO 20007KT 1/4SM R11/2200V2600FT FG VV002 03/03
     A3011=
KPHF NIL=
KPHL 110854Z 04003KT 3/4SM R09R/P6000FT BR BKN002 OVC029 04/03
     A3002=
KPIT 110851Z 15006KT 10SM SCT050 BKN160 BKN250 09/07 A2969=
KPKB 110853Z AUTO 17009G16KT 10SM CLR 14/09 A2970=
KPLB NIL=
KPOU 110853Z 00000KT 1SM BR OVC004 01/00 A3006=
KPQI 110855Z AUTO 12005KT 10SM BKN028 M11/M16 A3018=
KPSM 110858Z 07003KT 3/8SM R34/4500FT -FZRA FZFG OVC002 00/00
     A3016=
KPVD 110851Z 00000KT 1/4SM R05/0800V1000FT FG VV002 02/01
     A3016=
KPWM 110851Z AUTO 00000KT 1 1/2SM UP BR OVC004 M01/M02 A3020=
KRDG 110854Z 30003KT 2 1/2SM -RA BR OVC003 02/01 A3001=

0000081700
652
UDEU02 EGRR 111713 RRA
AMDAR 1116
ASC EU0009   3400N 00716W 111652 F182 MS205 316/016 TB/ S031=
ASC EU0009   3403N 00713W 111652 F199 MS245 337/021 TB/ S031=
ASC EU0009   3407N 00710W 111652 F215 MS282 345/028 TB/ S031=
ASC EU0009   3410N 00707W 111653 F229 MS307 335/043 TB/ S031=
ASC EU0009   3413N 00704W 111653 F242 MS332 333/049 TB/ S031=
ASC EU0009   3417N 00702W 111653 F253 MS362 337/049 TB/ S031=
ASC EU0009   3420N 00659W 111654 F267 MS387 342/063 TB/ S031=
ASC EU0009   3424N 00656W 111654 F277 MS420 339/067 TB/ S031=
ASC EU0009   3427N 00653W 111654 F287 MS445 340/070 TB/ S031=
ASC EU0009   3431N 00650W 111655 F296 MS470 342/070 TB/ S031=
ASC EU0009   3434N 00646W 111655 F304 MS490 344/068 TB/ S031=
ASC EU0009   3438N 00643W 111655 F312 MS507 345/068 TB/ S031=
0000068900
653
UDEU02 EGRR 111713 RRB
AMDAR 1116
LVR EU9962   3545N 02852E 111606 F360 MS565 305/070 TB/ S031=
LVR EU9962   3615N 02814E 111613 F360 MS570 304/065 TB/ S031=
ASC EU9962   3647N 02735E 111620 F374 MS600 299/066 TB/ S031=
LVR EU9962   3718N 02658E 111627 F380 MS619 293/066 TB/ S031=
LVR EU9962   3752N 02621E 111634 F380 MS624 289/063 TB/ S031=
LVR EU9962   3826N 02545E 111641 F380 MS628 281/059 TB/ S031=
LVR EU9962   3902N 02509E 111648 F380 MS625 276/056 TB/ S031=
LVR EU9962   3939N 02435E 111655 F380 MS625 271/059 TB/ S031=
LVR EU9962   4021N 02409E 111702 F380 MS624 275/061 TB/ S031=
LVR EU9962   4102N 02342E 111709 F380 MS628 279/062 TB/ S031=
0000027000
654
SXHW11 KWAL 111710
B159741A 011171053 
DY DH PC VB
14/01/11 17:00 25.52
14/01/11 16:45 25.52
14/01/11 16:30 25.52
14/01/11 16:15 25.52
14/01/11 16:00 25.52
14/01/11 15:45 25.52
14/01/11 15:30 25.52
14/01/11 15:15 25.52 12.2 40+0NN  16W
00000000