0000021000
875
FTUS52 KWBC 110718 AAA
TAF AMD
KJBR 110716Z 1107/1206 24009KT P6SM SCT030 BKN100
     FM111000 25010KT P6SM SCT020
     FM111400 27012G20KT P6SM SCT025
     FM120000 26007KT P6SM SKC=

0000053400
876
FTUS53 KWBC 110718 AAA
TAF AMD
KGCC 110716Z 1107/1206 25012KT P6SM SCT030 OVC060
     FM111600 21020G30KT P6SM SCT050 BKN100 AMD NOT SKED=
KRAP 110717Z 1107/1206 33015G25KT P6SM SCT040 OVC060
     FM111300 25008KT P6SM SCT100 BKN250
     FM112100 15008KT P6SM SCT120=
KSDF 110716Z 1107/1212 19009KT 3SM SHRA BR VCTS BKN012CB OVC035
      TEMPO 1107/1110 2SM SHRA BR BKN007 OVC035
     FM111000 21012G22KT 6SM BR VCSH BKN012
     FM111400 26016G27KT P6SM BKN021
     FM112300 27011KT P6SM SCT010=

0000182900
877
SPUS70 KWBC 110718
SPECI
K2DP 110713Z AUTO 16017G26KT 1 7/8SM +SHRA SCT004 BKN012 BKN075
     17/17 A3010 RMK AO2 VIS 1 7/8V4 LTG DSNT N CIG 004V012=
KCEU 110714Z AUTO 00000KT 1/2SM -RA FG VV004 09/08 A2999 RMK AO2
     P0001=
KOKB 110714Z AUTO 00000KT 3/4SM BR VV010 06/05 A3010 RMK AO2 TSNO
     $=
KPQL 110714Z AUTO 19007G20KT 4SM BR OVC002 19/19 A2991 RMK AO2
     T01940194 TSNO=
KPSX 110714Z AUTO 22004KT 1SM BR VV002 14/13 A2989 RMK AO2
     T01390133=
KTMB 110714Z AUTO 13003KT 1 3/4SM BR FEW007 22/22 A3008 RMK
     AO2=
KAND 110715Z AUTO 04003KT 2 1/2SM BR OVC004 08/08 A2998 RMK AO2
     CIG 002V006=
KATL 110715Z 11006KT 1/4SM R09R/5500VP6000FT -RA BR OVC003 09/09
     A2994 RMK AO2 SFC VIS 4 TSE15RAB0655 TS DSPTD P0012=
KBRD 110715Z AUTO 26007KT 3SM HZ OVC008 13/M04 A2943 RMK AO2 CIG
     006V013=
KCEW 110715Z AUTO 17006KT 2SM RA BR BKN003 OVC021 19/18 A2996 RMK
     AO2 VIS 3/4V5 P0019 T01940183=
KDPA 110715Z 20006KT 3/4SM R02L/3500FT BR VV002 03/03 A2946 RMK
     AO2=
KEAU 110715Z AUTO 24003KT 3SM BR BKN012 BKN025 OVC090 M03/M04
     A2944 RMK AO2 SNE15 P0000 T10331039=
KIJD 110715Z AUTO 00000KT 1 1/4SM BR OVC003 01/00 A3020 RMK AO2
     T00060000 $=
KMHT 110715Z 00000KT 1 1/2SM -FZDZ BR OVC005 M02/M03 A3020 RMK AO2
     SFC VIS 2 CIG 004V008 P0000 I1000 T10171028=
KMSL 110715Z AUTO 18009KT 4SM VCTS RA BR SCT009 BKN031 OVC075
     15/13 A2975 RMK AO2 LTG DSNT ALQDS P0009=
KSTS 110715Z AUTO 00000KT 1 1/4SM BR FEW002 06/05 A3020 RMK AO2
     T00560050=
KVPC 110715Z AUTO 00000KT 1 3/4SM +RA OVC004 15/10 A2991 RMK AO2
     LTG DSNT N AND SE P0007=
KNSE 110712Z AUTO 17012KT 1/4SM FG VV002 19/18 A2994 RMK AO2
     T01940183 $=
KNSE 110712Z AUTO 17012KT 1/4SM FG VV002 19/18 A2994 RMK AO2
     T01940183 $=

0000013000
878
SPUS70 KWBC 110718 CCA
SPECI
KNSE 110712Z AUTO 17012KT 1/4SM FG VV002 19/18 A2994 RMK AO2
     T01940183 $=

0000011300
879
SPUS41 KWBC 110718
SPECI
KWRI 110716Z AUTO 13004KT 7SM R06/5500FT FEW038 OVC075 08/07 A3008=

0000020700
880
FTCN34 CWAO 110700 AAA
TAF AMD CYXL 110718Z 1107/1114 15005KT 5SM -SN BR SCT006 OVC030 TEMPO
     1107/1114 2SM -SN BR OVC006 PROB30 1110/1114 1SM -FZDZ BR
    RMK NXT FCST BY 110800Z=

0000010200
881
SPCN51 CWAO 110714
SPECI CWCL 110714Z AUTO 14005KT 6SM FEW008 BKN013 M03/M06 A2930=

0000028400
882
SAXX69 EGRR 110700 RRA
METAR KQIR 110658Z 19007KT 9999 -RA SCT019 SCT028 OVC045 16/14 A3016
      RMK AO2A SLP215 WND DATA ESTMD P0008 VISNO RWY16 CHINO RWY16 $=
METAR KQSA 110658Z VRB02KT 9999 CLR 03/M12 A3027 RMK SLP357 WND DATA
      ESTMD ALSTG/SLP ESTMD=

0000131700
883
FTUS51 KWBC 110715 AAA
TAF AMD
KMPV 110711Z 1107/1206 20008KT P6SM BKN016 OVC022
     FM110800 18005KT 5SM BR VCSH BKN014 OVC020
      TEMPO 1109/1113 3SM -FZRA BR SCT007 BKN010 OVC015
     FM111300 17007KT 3SM -RA BR OVC007 WS020/20050KT
     FM111500 17009G18KT 3SM -RA BR BKN003 OVC009 WS020/20050KT
     FM112000 17008G18KT 2SM RA BR BKN003 OVC008 WS020/20055KT=
KPNE 110713Z 1107/1206 05005KT 2SM BR OVC002 WS020/20050KT
      TEMPO 1107/1110 1/4SM -SHRA FG OVC004
     FM111000 17010KT 2SM -SHRA BR OVC004 WS020/21055KT
     FM111500 19012KT 1SM SHRA BR BKN004 OVC010 WS020/21055KT
     FM111900 20012G22KT 1SM SHRA BR OVC006 WS020/21055KT
     FM120000 27010KT 6SM -SHRA BR BKN025 OVC040
     FM120400 26012KT P6SM BKN040=
KPOU 110713Z 1107/1206 00000KT 3/4SM -RA BR OVC005
      TEMPO 1107/1108 1/2SM -RA FG OVC003
     FM110800 VRB03KT 1SM -RA BR SCT002 OVC005 WS020/19050KT
     FM111400 18008KT 3/4SM -RA BR OVC003 WS020/20055KT
     FM112300 23010G18KT 1 1/2SM -RA BR SCT003 OVC006=
KPSM 110712Z 1107/1206 VRB04KT 2SM BR OVC003
     FM110800 14005KT 1SM -FZDZ BR OVC003
     FM111100 16007KT 1/2SM -RA FG VV002 WS020/18050KT
     FM111500 18012G25KT 2SM RA BR OVC005 WS020/21060KT
     FM111900 20015G25KT 1/2SM +RA FG OVC002 WS020/21060KT=

0000026500
884
FTUS52 KWBC 110715 AAA
TAF AMD
KMKL 110714Z 1107/1206 21012KT 4SM RA BR FEW005 BKN015 OVC030
     FM111000 24014KT P6SM BKN012 OVC080
     FM111200 26012KT P6SM SCT020
     FM111500 27012G18KT P6SM SCT250
     FM120100 26007KT P6SM SKC=

0000125200
885
FTUS80 KWBC 110715 AAA
TAF AMD
KMKL 110714Z 1107/1206 21012KT 4SM RA BR FEW005 BKN015 OVC030
     FM111000 24014KT P6SM BKN012 OVC080
     FM111200 26012KT P6SM SCT020
     FM111500 27012G18KT P6SM SCT250
     FM120100 26007KT P6SM SKC=
KMPV 110711Z 1107/1206 20008KT P6SM BKN016 OVC022
     FM110800 18005KT 5SM BR VCSH BKN014 OVC020
      TEMPO 1109/1113 3SM -FZRA BR SCT007 BKN010 OVC015
     FM111300 17007KT 3SM -RA BR OVC007 WS020/20050KT
     FM111500 17009G18KT 3SM -RA BR BKN003 OVC009 WS020/20050KT
     FM112000 17008G18KT 2SM RA BR BKN003 OVC008 WS020/20055KT=
KMSP 110712Z 1107/1212 29008KT 3SM BR OVC005
     FM110930 29008KT 3/4SM BR OVC002
     FM111230 29012KT 6SM BR SCT006 SCT015
     FM111600 30012KT P6SM SCT025 BKN040
     FM112000 27008KT P6SM SCT040 SCT250
     FM120200 23004KT P6SM SCT030 BKN120=
KPNE 110713Z 1107/1206 05005KT 2SM BR OVC002 WS020/20050KT
      TEMPO 1107/1110 1/4SM -SHRA FG OVC004
     FM111000 17010KT 2SM -SHRA BR OVC004 WS020/21055KT
     FM111500 19012KT 1SM SHRA BR BKN004 OVC010 WS020/21055KT
     FM111900 20012G22KT 1SM SHRA BR OVC006 WS020/21055KT
     FM120000 27010KT 6SM -SHRA BR BKN025 OVC040
     FM120400 26012KT P6SM BKN040=

0000089800
886
FTUS80 KWBC 110715 AAB
TAF AMD
KPOU 110713Z 1107/1206 00000KT 3/4SM -RA BR OVC005
      TEMPO 1107/1108 1/2SM -RA FG OVC003
     FM110800 VRB03KT 1SM -RA BR SCT002 OVC005 WS020/19050KT
     FM111400 18008KT 3/4SM -RA BR OVC003 WS020/20055KT
     FM112300 23010G18KT 1 1/2SM -RA BR SCT003 OVC006=
KPSM 110712Z 1107/1206 VRB04KT 2SM BR OVC003
     FM110800 14005KT 1SM -FZDZ BR OVC003
     FM111100 16007KT 1/2SM -RA FG VV002 WS020/18050KT
     FM111500 18012G25KT 2SM RA BR OVC005 WS020/21060KT
     FM111900 20015G25KT 1/2SM +RA FG OVC002 WS020/21060KT=
KPWM 110712Z 1107/1206 VRB03KT 6SM BR OVC025
     FM110900 20005KT 4SM BR OVC015
     FM111000 VRB04KT 1SM -FZDZ BR OVC005
     FM111200 15007KT 1/2SM -RA FG VV003 WS020/19050KT
     FM111600 16014G25KT 2SM RA BR OVC004 WS020/21060KT
     FM112000 18016G26KT 1/2SM +RA FG OVC001 WS020/21060KT=

0000029700
887
FTUK31 EGGY 110500 CCA
TAF COR EGKK 110715Z 1107/1212 31010KT 9999 SCT035 BECMG 1115/1118
    17002KT TEMPO 1118/1121 7000 BECMG 1121/1124 5000 BR PROB30
    1200/1204 2000 TEMPO 1203/1207 9999 NSW BECMG 1206/1209 16014KT
    -RADZ BKN010 TEMPO 1208/1212 4000 RADZ BKN005=

0000010300
888
SPUS42 KWBC 110715
SPECI
KEYW 110711Z AUTO 09005KT 10SM FEW019 SCT030 24/22 A3007=

0000009600
889
SATH31 VTBB 110700 RRC
METAR VTPO 110700Z 27002KT 5000 HZ FEW022 30/18 Q1014=

0000011500
890
SATH32 VTBB 110700 RRB
METAR VTST 110700Z 06013KT 9999 FEW020 BKN300 31/20 Q1009 RWY08
INFO H=

0000009500
891
SACA32 KWBC 110600 RRB
METAR
TAPA 110600Z 07011KT 9999 SCT020 25/20 Q1017=

0000023700
892
SAPA31 KWBC 110700 RRA
METAR
AYPY 110700Z VRB02KT 9999 FEW019CB BKN020 OVC130 29/24 Q1004 RMKS/
     CB/SHRA TO N/NE/E=
AYPY 110700Z VRB02KT 9999 FEW019CB BKN020 OVC130 29/24 Q1004 RMKS:
     CB/SHRA TO N/NE/E=

0000010300
893
SPSP35 LEMM 110713
SPECI LEAB 110713Z VRB02KT 3000 BR OVC004 05/05 Q1018 BECMG 1400=

0000009600
894
SAAB31 LATI 110720
METAR LATI 110720Z VRB01KT 9999  BKN055 10/09 Q1023 NOSIG=

00000000