0000049000
435
FTUS80 KWBC 110603 AAA
TAF AMD
KBTR 110601Z 1106/1206 18010KT P6SM -SHRA OVC008
      TEMPO 1106/1109 2SM TSRA OVC003CB
     FM110900 23012KT 4SM BR OVC004
     FM111500 30009KT P6SM SCT250
     FM120000 VRB03KT P6SM SKC=
KMCB 110602Z 1106/1206 18012G20KT 5SM -RA BR OVC005
      TEMPO 1106/1109 2SM TSRA OVC003CB
     FM111000 23010KT 5SM BR OVC005
     FM111500 30008KT P6SM SCT250
     FM111800 30012G20KT P6SM SKC
     FM120000 30004KT P6SM SKC=

0000008900
436
SABA31 MYNN 110558
METAR MYNN 110600Z 12005KT 9999 FEW018 24/22 A3013=

0000010700
437
SACN61 CYYL 110600
METAR CYYL 110600Z AUTO 02006KT 9SM -SN CLR M24/M27 A2948 RMK SLP025=

0000009900
438
SACN62 CZBF 110600
METAR CZBF 110600Z 22003KT 15SM SKC M20/M23 A3019 RMK SLP230=

0000012500
439
SACN62 CYYC 110600
METAR CYYC 110600Z 19007KT 15SM FEW100 FEW220 M06/M08 A2962 RMK
 AC1CI2 AC TR SLP079=

0000006100
440
SAVN27 SVBM 110600
METAR SVBM 110600Z NIL=

0000011800
441
FCDN34 EKCH 110600
TAF EKGF 110600Z 1106/1115 29018KT 9999 BKN030 TEMPO 1114/1115 
SHRA SCT020CB=

0000008400
442
SAAG41 SAZS 110600
METAR SAZS 110600Z  00000KT CAVOK 10/05 Q1021=

0000010600
443
SACN45 CWAO 110600
METAR CYFS 110600Z 32006KT 15SM OVC090 M24/M25 A2965 RMK AS5 SLP064=

0000006100
444
SAVN26 SVMC 110600
METAR SVMC 110600Z NIL=

0000009600
445
SAAG41 SABE 110600
METAR SABE 110600Z  16021G36KT  140V210 CAVOK 21/12 Q1011=

0000012900
446
SACN62 CYDF 110600
METAR CYDF 110600Z 22012KT 15SM SCT024 BKN058 BKN075 M04/M08 A3008
 RMK SC3SC3AC1 SLP189=

0000012300
447
SACN62 CYBK 110600
METAR CYBK 110600Z 14008KT 15SM -SN FEW007 BKN025 M30/M33 A2970 RMK
 SC2SC4 SLP062=

0000010200
448
SACN62 CYEV 110600
METAR CYEV 110600Z 28007KT 15SM IC SKC M27/M30 A2970 RMK SLP069=

0000010600
449
SACN62 CYEG 110600
METAR CYEG 110600Z 18009KT 15SM BKN220 M11/M13 A2958 RMK CS6 SLP059=

0000009900
450
SACN48 CWAO 110600
METAR CYPX 110600Z 21008KT 15SM SKC M25/M27 A2978 RMK SLP087=

0000013400
451
SACN31 CWAO 110600
METAR CYQG 110600Z 17009KT 3/4SM -RA BR BKN002 OVC007 04/04 A2963 RMK
FG2SF5SC2 PRESFR SLP039=

0000022700
452
SALJ31 LJLJ 110600
METAR LJLJ 110600Z 00000KT 9999 FEW030 BKN040 05/05 Q1020 NOSIG=
METAR LJMB 110600Z VRB01KT 9999 BKN003 OVC010 02/02 Q1021=
METAR LJPZ 110600Z VRB01KT 3000 BR FEW004 OVC050 09/09 Q1022=

0000009900
453
SALJ32 LJLJ 110600
METAR LJCE 110600Z VRB01KT 0400 FG VV001 03/02 Q1021 RMK RED=

0000065300
454
FTMG20 FMMI 110500
TAF FMNM 110500Z 1106/1206 VRB03KT 9999 FEW020  BECMG 1107/1109
32010KT BECMG 1116/1118 26004KT FEW020CB SCT040 PROB30 TEMPO
1200/1204 4000 TSRA=
TAF FMMT 110500Z 1106/1206 06010KT 9999 FEW017 SCT033 BECMG 1110/1112
FEW017CB SCT033 PROB30 TEMPO 1115/1121 TSRA BECMG 1116/1118 00000KT
BECMG 1121/1123 FEW017 SCT033=
TAF FSIA 102133Z 1100/1124 33010KT 9999 FEW015CB SCT018 TEMPO
    1100/1112 5000 SHRA/-TSRA FEW013CB BKN015 TEMPO 1115/1121 8000
   -SHRA FEW014CB BKN016=
TAF FIMR 110515Z 1106/1200 10015G25KT 9999 SCT017 PROB30 TEMPO
    1106/1114 7000 -SHRA FEW010 BKN016 BKN050=
TAF FJDG NIL=

00000000