0000009800
375
SPCN52 CWAO 110629
SPECI CWSA 110629Z AUTO 24015KT 9SM -SN OVC014 02/M01 A3039=

0000010100
376
SAAL41 DAMM 110600 RRK
METAR DATM 110600Z 12010KT 9999 SCT046 SCT100 13/M01 Q1018=

0000070200
377
SXXX32 EUMS 111706 RRR
22E7E6D2
OT12 ID:ID-ROTE-11 DT:2014 01 11 17 04
:PRS /1 -10752 -10193 -10737 -10751 -10721 -10720 -10720 -10722 -10750 -10751 -10748 -10746 -10749 -10747 -10743 -10748 -10198 -10738 -10742 -10721 -10720 -10720 -10719 -10749 -10'510/95741 -10744 -10741 -10750 -10743
:PR2 /1 03544 03504 03529 03491 03505 03486 03515 03476 03504 03452 03482 03487 03461 03436 03460 03465 03477 03458 03462 03455 03456 03444 03437 03409 03420 03425 03400 03434 03398 03421
:RAD /1 05112 05130 05152 05136 05108 05120 05088 05080 05052 05072 05044 05056 05072 05048 05044 05040 05040 04999 05063 05019 05040 05020 04984 04995 05028 05003 05008 05004 05035 04967
:BAT 12.1V/
0000007800
378
SNAL54 EUMS 111700
AAXX 11174
60645 46/// /0000 10259 21046=
0000007800
379
SNAL53 EUMS 111700
AAXX 11174
60619 46/// /1710 10217 21029=
0000012600
380
SNAA19 LFVW 110100 RRC
AAXX 11014
89811 46/// /0922 11089 29099 38282 4//// 5//// 90130
  333 90700 91126=
0000010200
381
SNVX19 LFVW 111600 RRA
BBXX
MINUK03 1116/ 99525 10046 46/// ///// 10070 40172 52032=
0000009700
382
SPCN46 CWAO 110638
SPECI CYBN 110638Z AUTO 14007KT 2SM -RA OVC003 02/02 A2972=

0000011200
383
SAHW31 KWBC 110600 RRB
METAR
PHLI 110636Z 05017G23KT 10SM BKN018 BKN036 OVC046 23/21 A2997=

0000049900
384
FTUS43 KWBC 110639 AAA
TAF AMD
KDET 110636Z 1107/1206 16014KT 3SM -RA BR OVC003 WS020/19043KT
     FM111200 18010KT 2SM SHRA BR OVC004
     FM111700 24012G20KT 6SM BR OVC010=
KFNT 110636Z 1107/1206 16014KT 6SM -RA BR OVC008 WS020/19044KT
     FM111200 20010KT 2SM SHRA BR OVC004
     FM111700 24012G20KT 5SM BR OVC010=
KMBS 110636Z 1107/1206 16014KT 6SM -RA BR OVC008 WS020/20040KT
     FM111200 20010KT 2SM SHRA BR OVC004
     FM111700 25012G20KT 5SM BR OVC010=

0000064900
385
FTUS73 KWBC 110639 AAA
TAF AMD
KDET 110636Z 1107/1206 16014KT 3SM -RA BR OVC003 WS020/19043KT
     FM111200 18010KT 2SM SHRA BR OVC004
     FM111700 24012G20KT 6SM BR OVC010=
KFNT 110636Z 1107/1206 16014KT 6SM -RA BR OVC008 WS020/19044KT
     FM111200 20010KT 2SM SHRA BR OVC004
     FM111700 24012G20KT 5SM BR OVC010=
KMBS 110636Z 1107/1206 16014KT 6SM -RA BR OVC008 WS020/20040KT
     FM111200 20010KT 2SM SHRA BR OVC004
     FM111700 25012G20KT 5SM BR OVC010=
KYIP 110636Z 1107/1206 16014KT 3SM -RA BR OVC002 WS020/19043KT
     FM111200 18010KT 2SM SHRA BR OVC004
     FM111700 24012G20KT 6SM BR OVC010=

0000027800
386
SAUS71 KWBC 110600 RRI
METAR
KLCK 110635Z AUTO 17010G16KT 10SM OVC024 11/08 A2971=
KMMU 110635Z AUTO 00000KT 1 1/4SM UP OVC003 02/01 A3016=
KMYR 110635Z AUTO 15005KT 1/2SM OVC002 15/14 A3007=
KPQI 110635Z AUTO 00000KT 10SM BKN022 OVC090 M13/M16 A3021=

0000033500
387
FTCN31 CWAO 110600
TAF CYPR 110639Z 1107/1119 36006KT P6SM SCT015 OVC050 TEMPO 1107/1114
     3SM -SHRA BR BKN015
     BECMG 1110/1112 15012KT
    FM111400 15012KT P6SM -SHRA OVC025 TEMPO 1114/1119 4SM -SHRA BR
     BKN008
     BECMG 1117/1119 30012KT
    RMK FCST BASED ON AUTO OBS. NXT FCST BY 111300Z=

0000020400
388
FTCN31 CWAO 110600
TAF CYZY 110639Z 1107/1109 12004KT 6SM -SN SCT015 OVC025 TEMPO
     1107/1109 11/2SM -SN VV010
    RMK FCST BASED ON AUTO OBS. NXT FCST WILL BE ISSUED AT 111445Z=

0000030500
389
FTCN31 CWAO 110600
TAF CYKA 110639Z 1107/1119 10015KT P6SM FEW015 OVC060
    FM110900 10020G30KT P6SM SCT020 BKN050 TEMPO 1109/1114 5SM -SHRA
     BR BKN020
    FM111400 10015G25KT P6SM SCT050 TEMPO 1114/1119 BKN050
     BECMG 1116/1118 26012G22KT
    RMK NXT FCST BY 111300Z=

0000027500
390
FTCN31 CWAO 110600
TAF CYYF 110639Z 1107/1119 13010KT P6SM FEW050 OVC080
     BECMG 1107/1109 18020G30KT
    FM110900 18020G30KT P6SM OVC050 TEMPO 1109/1117 5SM -SHRA BR
     BKN030
    FM111700 18015G25KT P6SM SCT080
    RMK NXT FCST BY 111300Z=

0000019400
391
FTCN31 CWAO 110600
TAF CYWL 110639Z 1107/1119 12015G25KT P6SM BKN015 TEMPO 1107/1109 3SM
     -SN
    FM110900 13020G30KT P6SM SCT015 BKN030
    RMK NXT FCST BY 111300Z=

0000009800
392
SAUS72 KWBC 110600 RRE
METAR
KLRU 110635Z AUTO 27009KT 10SM CLR 04/M08 A3012=

0000042900
393
SAUS73 KWBC 110600 RRF
METAR
KBJC 110633Z AUTO 28003KT 10SM CLR 00/M10 A2986=
KCIU 110635Z AUTO 12012KT 5SM OVC003 01/01 A2946=
KEGE 110635Z AUTO 25019G26KT 9SM OVC060 M01/M05 A3011=
KELO 110632Z AUTO 23004KT 2SM BR OVC003 M04/M05 A2939=
KGYY 110635Z AUTO 19012G18KT 5SM BR OVC003 06/05 A2951=
KJAC 110635Z AUTO 22009KT 10SM OVC037 M01/M04 A3000=
KLBL 110635Z AUTO 29012KT 10SM CLR M01/M09 A2988=

0000015600
394
SAUS74 KWBC 110600 RRE
METAR
KIWA 110635Z AUTO 12005KT 10SM CLR 06/M01 A3015=
KOTH 110635Z 19011G14KT 10SM BKN040 OVC060 13/11 A2996=

00000000