0000009300
795
SAAL41 DAMM 110600 CCA
METAR COR DABT 110600Z /////KT CAVOK M00/M02 Q1022=

0000008800
796
SAAL41 DAMM 110600 RRC
METAR DAAP 110600Z 00000KT CAVOK 10/M00 Q1020=

0000012900
797
SAMX31 KWBC 110605 RRA
METAR MNMG 110600Z 10006KT 9999 FEW023 24/20 Q1012 A2989 1AC070
     1CI30 0
NOSIG=

0000017000
798
FTAU32 YBBN 110600 AAB
TAF AMD YGEL 110613Z 1106/1206
20018KT CAVOK
FM111200 19008KT CAVOK
FM111800 VRB03KT CAVOK
FM112400 24010KT CAVOK
RMK=

0000009900
799
SPCN51 CWAO 110612
SPECI CWCL 110612Z AUTO 15004KT 2 1/2SM OVC000 M03/M07 A2937=

0000045700
800
SAAO33 DRRN 110600
METAR DBBB 110600Z VRB02KT 2800 BR SCT008 BKN200 25/25 Q1010 TEMPO
1500=
METAR DFFD 110600Z 07006KT 8000 NSC 19/03 Q1014 BECMG 4000 DU=
METAR DGAA 110600Z 28004KT 230V300 9999 FEW010 26/24 Q1011 NOSIG=
METAR DNKN 110600Z NIL=
METAR DNMM 110600Z NIL=
METAR DRRN 110600Z 07011KT 2500 BLDU NSC 20/M01 Q1015 NOSIG=
METAR DXXX 110600Z 01001KT 3500 BR SCT010 26/25 Q1011 TEMPO 2500 BR=
METAR FTTJ 110600Z NIL=

0000008700
801
SAAL41 DAMM 110600 RRB
METAR DAUK 110600Z 36005KT CAVOK 05/04 Q1022=

0000130600
802
SAAU31 YBBN 110600
METAR YPAD 110600Z 15014KT CAVOK 29/02 Q1017
NOSIG=
METAR YBAS 110600Z 11017KT 100V170 9999 PO NSC 39/03 Q1011
RMK 5CU125=
METAR YBBN 110600Z 07012KT 9999 FEW035 27/18 Q1015=
METAR YBCS 110600Z 17007KT 9000 -SHRA FEW005 SCT020 BKN070 27/23
Q1008=
METAR YSCB 110600Z 33007KT 9999 FEW050 SCT100 BKN240 30/10 Q1016=
METAR YPXM 110600Z AUTO 15005KT 9999 // OVC020 27/22 Q1011=
METAR YPCC 110600Z 14011KT 9999 FEW025 BKN039 29/21 Q1010=
METAR YCFS 110600Z AUTO 03013KT 9999 // NCD 26/17 Q1015=
METAR YPDN 110600Z AUTO 29011KT 9999 // BKN040 31/24 Q1005=
METAR YBCG 110600Z AUTO 10011KT 9999 // NCD 27/18 Q1016=
METAR YHID 110600Z AUTO 25006KT 9999 // ////// 30/25 Q1004=
METAR YPJT 110600Z AUTO 11010G21KT 9999 // NCD 41/06 Q1012=
METAR YPKU 110600Z AUTO 33009KT 0900 // SCT012 BKN053 OVC100 30/22
Q1005=
METAR YPLM 110600Z AUTO 03014KT 9999 // NCD 35/24 Q1007=
METAR YMML 110600Z 18013KT 9999 FEW045 22/11 Q1018
NOSIG=
METAR YPPH 110600Z 09013KT CAVOK 42/06 Q1011=
METAR YSSY 110600Z 06015KT CAVOK 28/15 Q1013
RMK 1CU060 4AC130
NOSIG=
METAR YSTW 110600Z AUTO 23006KT 9999 // NCD 33/09 Q1014=
METAR YPTN 110600Z AUTO 16005KT 9999 -SHRA SCT021 SCT030 33/23 Q1004=
METAR YBTL 110600Z 08018KT 9999 FEW030 BKN220 30/21 Q1009=

0000011700
803
SATH31 VTBB 110600 RRA
METAR VTCT 110600Z 09003KT 9999FEW025 24/17 Q1017 A3005
RMK/RWY03 INFO G=

0000013900
804
SACN62 CYAM 110600
METAR CYAM 110600Z 08007KT 3/8SM SN BR OVC007 M00/M01 A2951 RMK
 SN4ST4 CIG VRB 3-10 PRESFR SLP003=

0000009400
805
SPCN52 CWAO 110607
SPECI CWSA 110607Z AUTO 25014KT 9SM OVC014 02/M01 A3039=

0000012900
806
SACN62 CYXX 110600
METAR CYXX 110600Z 02007KT 3SM RA OVC025 05/ A2958 RMK SC8 DP 4.1
 /R12/ VIA CYXC SLP020=

0000045500
807
SAID32 WIII 110600
METAR WIPT 110600Z 24004KT 180V300 9999 FEW020 30/24 Q1010= 
METAR WIPP 110600Z 00000KT 9999 BKN015 FEW020CB 25/24 Q1010= 
METAR WALL 110600Z 21003KT 9000 FEW018CB SCT018 29/25 Q1008 NOSIG RMK
CB TO W AND NW= 
METAR WADL 110600Z 05013KT 4000 TSRA FEW015CB BKN016 25/23 Q1009= 
METAR WIBB 110600Z 36007KT 9999 BKN015 31/23 Q1009 NOSIG= 
METAR WAMM NIL=
METAR WIDN NIL=
METAR WIOO NIL=
METAR WAOO NIL=

0000014200
808
SACN62 CYWL 110600 CCA
METAR CYWL 110600Z CCA 11018G25KT 10SM -SN DRSN BKN015 M03/M04 A2933
 RMK SF7 /S04/ PRESFR SLP972=

0000034700
809
SANG31 YBBN 110600
METAR AYPY 110600Z 26016KT 9999 FEW018CB BKN020 BKN300 30/24 Q1003
RMKS: CB ASSW DIST SH TO NE/E=
METAR AYWK 110600Z NIL=
METAR AYVN 110600Z NIL=
METAR AYNZ 110600Z NIL=
METAR AYMH 110600Z NIL=
METAR AYGN 110600Z NIL=
METAR AYMO 110600Z NIL=
METAR AGGH 110600Z 29006KT 9999 SCT020 31/24 Q1004=

0000123600
810
SAAU32 YBBN 110600
METAR YAMB 110600Z AUTO 07013KT 9999 // SCT058 30/15 Q1014=
METAR YMAV 110600Z AUTO 19016KT 9999 // NCD 21/13 Q1019=
METAR YBRM 110600Z 28010KT 9999 FEW025 SCT400 32/25 Q1007=
METAR YCIN 110600Z AUTO 22008KT //// // NCD 38/22 Q1006=
METAR YSDU 110600Z AUTO 19009KT 9999 // NCD 32/14 Q1015=
METAR YFRT 110600Z AUTO 14013KT //// // ////// 33/07 Q1018=
METAR YGEL 110600Z 22017KT CAVOK 42/08 Q1006=
METAR YPGV 110600Z 10016KT 9999 SCT018 BKN280 28/24 Q1004=
METAR YBHM 110600Z AUTO 11019KT 9999 // ////// 28/21 Q1011=
METAR YMHB 110600Z 15008KT 9999 FEW050 SCT300 22/10 Q1011=
METAR YPKG 110600Z AUTO 09010KT 9999 // NCD 36/05 Q1017=
METAR YMLT 110600Z AUTO 35017KT 9999 // NCD 27/11 Q1011=
METAR YBMA 110600Z AUTO 16021KT 9999 // SCT098 SCT115 34/13 Q1008=
METAR YSNF 110600Z 12010KT 9999 FEW033 BKN280 21/13 Q1016=
METAR YPEA 110600Z AUTO 08010KT 9999 // NCD 42/06 Q1011=
METAR YPPD 110600Z AUTO 32014KT 9999 // NCD 35/27 Q1007=
METAR YSRI 110600Z AUTO 13002KT 9999 // BKN100 33/11 Q1012=
METAR YBRK 110600Z 07011KT 9999 FEW040 SCT090 28/16 Q1012=
METAR YWLM 110600Z AUTO 11011KT 9999 // NCD 30/14 Q1013=
METAR YPWR 110600Z AUTO 15011KT 9999 // NCD 38/05 Q1014=

0000069500
811
SANM40 FYWW 110600
METAR FYGF 110600Z 24005KT CAVOK 22/07 Q1021=
METAR FYGO 110600Z AUTO 01006KT //// // ////// 17/14 Q1015=
METAR FYKT 110600Z 00000KT CAVOK 23/09 Q1018=
METAR COR FYLZ 110600Z AUTO 19011KT //// // ////// 15/07 Q1012=
METAR COR FYML 110600Z AUTO 13003KT //// // ////// 26/05 Q1021=
METAR FYOA 110600Z 23002KT CAVOK 21/09 Q1016=
METAR FYOO 110600Z AUTO 20004KT //// // ////// 22/07 Q1017=
METAR FYOW 110600Z AUTO 16001KT //// // ////// 22/04 Q1018=
METAR FYRN 110600Z 36009KT CAVOK 21/15 Q1017=
METAR FYWB 110600Z 35006KT 9999 OVC015 17/15 Q1015=
METAR FYWE 110600Z 16006KT CAVOK 22/05 Q1022=
METAR FYWH 110600Z 18007KT CAVOK 22/06 Q1022=

0000010500
812
SAFR32 LFPW 110600 RRA
METAR LFCK 110600Z AUTO 26005KT 9999 BKN028 OVC140 08/06 Q1020=

0000011600
813
SAAF05 LFPW 110600 RRA
METAR DBBB 110600Z VRB02KT 2800 BR SCT008 BKN200 25/25 Q1010 TEMPO
1500=

0000025400
814
SAAF08 LFPW 110600 RRA
METAR DFFD 110600Z 07006KT 8000 NSC 19/03 Q1014 BECMG 4000 DU=
METAR GABS 110600Z 02004KT CAVOK 19/08 Q1013 NOSIG=
METAR GAKY 110600Z 28004KT CAVOK 22/09 Q1012=
METAR GAMB 110600Z 06006KT CAVOK 18/05 Q1013=

00000000