0000011000
635
UANT01 CWAO 111723
ARP TAP103 4507N04445W 1723 F390 MS59 307/54 KT
CSTOM DDL XXH 111723 J65A
0000192400
636
SSVX02 KARS 111720
ZZYY 71673 11014 1650/ 351168 177979 6113/
11119 39983 49983 54000
22219 00104
444 20130 11014 1420/ 50101 80080 80000 9/015=
ZZYY 54554 11014 1700/ 558318 166046 6112/
11119 49977 52011
22219 00046
444 2012/ 11014 1429/ 50101 80118 80008 9/015=
ZZYY 72834 11014 1700/ 561711 160918 6111/
11119 40007 52001
22219 00013
444 2011/ 11014 1602/ 50101 80119 80006 9/015=
ZZYY 54556 11014 1700/ 558163 167332 6112/
11119 49977 52008
22219 00042
444 2012/ 11014 1420/ 50101 80117 80008 9/015=
ZZYY 54558 11014 1700/ 558297 167926 6113/
11119 49983 52008
22219 00040
444 2013/ 11014 1421/ 50101 80117 80008 9/015=
ZZYY 17908 11014 1610/ 357650 157522 6112/
11119 39747 49747 57005
22219 00023
444 20120 11014 1556/ 50101 80110 80060 9/015=
ZZYY 54904 11014 1700/ 560154 164011 6113/
11119 49995 52005
22219 00026
444 2013/ 11014 1427/ 50101 80118 80010 9/015=
ZZYY 72831 11014 1650/ 569499 124220 6111/
444 20110 11014 1600/ 50101 80138 9/015=
ZZYY 54559 11014 1700/ 559300 165998 6113/
11119 49986 52008
22219 00028
444 2013/ 11014 1428/ 50101 80119 80008 9/015=
ZZYY 54901 11014 1700/ 553732 169166 6112/
11119 49988 52021
22219 00089
444 2012/ 11014 1419/ 50101 80117 80013 9/015=
ZZYY 54903 11014 1700/ 554796 168334 6111/
11119 49974 52020
22219 00081
444 2011/ 11014 1421/ 50101 80120 80009 9/015=
ZZYY 54855 11014 1700/ 557454 169087 6113/
11119 49982 52012
22219 00054
444 2013/ 11014 1421/ 50101 80120 80006 9/015=
ZZYY 54857 11014 1700/ 555810 171091 6112/
11119 49991 52015
22219 00068
444 2012/ 11014 1420/ 50101 80119 80005 9/015=
ZZYY 54560 11014 1700/ 559170 165247 6112/
11119 49985 52011
22219 00031
444 2012/ 11014 1428/ 50101 80118 80009 9/015=
ZZYY 54823 11014 1700/ 557583 167864 6111/
11119 49974 52012
22219 00054
444 2011/ 11014 1420/ 50101 80121 80008 9/015=
0000013000
637
UACN10 CYWG 111723
WG
UA /OV CYWG /TM 1715 /FLDURD /TP B350 /SK 011OVC030 /IC LGT MXD 011-030 /RM ON APCH RWY 31
0000011000
638
UANT01 CWAO 111723
ARP SWR14E 5046N04058W 1723 F380 MS59 285/42 KT
HBJHM QXT AOW 111723 J46A
0000011000
639
UANT01 CWAO 111723
ARP CRL938 4723N02706W 1723 F380 MS46 217/54 KT
FHBIL QXT AOE 111723 J27A
0000010900
640
UANT01 CWAO 111724
ARP DAL9 5238N03458W 1723 F330 MS56 292/39 KT
N174DN QXT AOE 111724 F29A
0000066100
641
UDAF01 FAPR 111724
AMDAR 1117
LVR AFZA09 0651S 00801E 111634 F380 MS515 069/021 TB0 S031 333 F/// VG000=
LVR AFZA09 0605S 00729E 111642 F380 MS516 064/016 TB0 S031 333 F/// VG000=
LVR AFZA09 0519S 00657E 111649 F380 MS525 058/009 TB0 S031 333 F/// VG000=
LVR AFZA09 0430S 00630E 111656 F380 MS514 108/012 TB0 S031 333 F/// VG000=
LVR AFZA09 0336S 00612E 111703 F380 MS517 163/010 TB0 S031 333 F/// VG000=
LVR AFZA09 0242S 00554E 111710 F398 MS562 155/016 TB0 S031 333 F/// VG000=
LVR AFZA09 0148S 00536E 111717 F400 MS577 161/014 TB0 S031 333 F/// VG000=
LVR AFZA09 0055S 00518E 111724 F400 MS575 158/017 TB0 S031 333 F/// VG000=
0000066100
642
UDAF01 FAPR 111724
AMDAR 1117
ASC AFZA46 2603S 02815E 111720 F076 PS165 345/005 TB0 S031 333 F/// VG018=
ASC AFZA46 2601S 02815E 111720 F079 PS162 127/000 TB0 S031 333 F/// VG017=
ASC AFZA46 2600S 02815E 111721 F083 PS165 188/006 TB0 S031 333 F/// VG016=
ASC AFZA46 2559S 02815E 111721 F086 PS157 192/008 TB0 S031 333 F/// VG015=
ASC AFZA46 2556S 02815E 111721 F096 PS134 202/016 TB0 S031 333 F/// VG014=
ASC AFZA46 2552S 02815E 111722 F114 PS083 211/025 TB0 S031 333 F/// VG014=
ASC AFZA46 2548S 02815E 111723 F134 PS024 215/021 TB0 S031 333 F/// VG013=
ASC AFZA46 2544S 02815E 111724 F155 MS023 206/010 TB0 S031 333 F/// VG013=
0000010300
643
SPUS43 KWBC 110917
SPECI
KMKC 110913Z AUTO 28005KT 8SM BKN012 OVC019 02/M01 A2970=

0000010400
644
SPUS43 KWBC 110917
SPECI
KINL 110913Z AUTO 27004KT 2 1/2SM BR OVC003 M03/M04 A2938=

0000010000
645
SPUS43 KWBC 110917
SPECI
KTOL 110913Z 18006KT 6SM BR BKN006 OVC014 06/06 A2953=

0000040900
646
FTUS31 KWBC 110918 AAA
TAF AMD
KBOS 110916Z 1109/1212 VRB03KT 1SM BR BKN003 OVC008
      TEMPO 1109/1112 1/4SM FG
     FM111200 17012KT 1SM -RA BR OVC008 WS020/34035KT
     FM111800 19017G30KT 3SM -RA BR OVC010 WS020/20055KT
     FM112300 19020G38KT 1SM -RA BR OVC008 WS020/20060KT
     FM120200 21015G39KT 3SM +RA BR OVC008 WS020/21045KT
     FM120500 23011G18KT P6SM OVC040=

0000106800
647
FTUS41 KWBC 110918 AAA
TAF AMD
KBDL 110916Z 1109/1212 VRB03KT 1SM -RA BR BKN004 OVC008
     FM111200 16006KT 2SM -RA BR OVC004 WS020/19040KT
     FM111800 19014G24KT 3SM RA BR OVC008 WS020/20050KT
     FM120000 20014G25KT 1SM +RA BR OVC008 WS020/21050KT
     FM120300 21007KT 6SM BR OVC008
     FM120600 23008KT 5SM BR OVC100=
KBED 110916Z 1109/1206 00000KT 1/4SM FG OVC002
     FM111200 17007KT 2SM -RA BR OVC003 WS020/19040KT
     FM111800 19015G27KT 2SM -RA BR OVC010 WS020/20050KT
     FM112100 19016G28KT 3SM -RA BR OVC008 WS020/20055KT
     FM120200 22012G29KT 1SM +RA BR OVC008 WS020/34040KT
     FM120400 22009KT 6SM -SHRA BR BKN008=
KPVD 110917Z 1109/1206 VRB03KT 1/4SM -RA FG OVC002
     FM111000 17007KT 1/4SM -RA FG OVC002 WS020/21035KT
     FM111400 18011KT 1SM -RA BR OVC008 WS020/19045KT
     FM111700 19016G27KT 3SM -RA BR OVC010 WS020/19055KT
     FM112300 19020G39KT 1SM -RA BR OVC008 WS020/20065KT
     FM120100 20018G40KT 2SM +RA BR OVC008 WS020/20060KT
     FM120400 22009KT P6SM RA OVC008=

0000010100
648
SACA32 KWBC 110900 RRB
METAR
TAPA 110900Z 09011KT 9999 SCT018 25/19 Q1017 NOSIG=

0000010100
649
SAIO31 KWBC 110900 RRC
METAR
FMCH 110900Z 31008KT 9999 SCT022 32/24 Q1013 NOSIG=

0000011700
650
SASP32 LEMM 110900 RRA
METAR LECO 110900Z VRB02KT 0300 R21/0400N R03/0225N FG VV001
03/03 Q1019=

0000027400
651
FTUS42 KWBC 110918 AAA
TAF AMD
KSAV 110914Z 1109/1206 18003KT 1/2SM FG VV002
     FM111300 19009KT 4SM BR OVC004
     FM111500 21012G18KT P6SM SCT005 BKN025
     FM111900 21015G24KT 3SM +RA SCT015 OVC030
     FM112200 26010KT P6SM SCT040 BKN080=

0000065800
652
FTUS71 KWBC 110918 AAB
TAF AMD
KPVD 110917Z 1109/1206 VRB03KT 1/4SM -RA FG OVC002
     FM111000 17007KT 1/4SM -RA FG OVC002 WS020/21035KT
     FM111400 18011KT 1SM -RA BR OVC008 WS020/19045KT
     FM111700 19016G27KT 3SM -RA BR OVC010 WS020/19055KT
     FM112300 19020G39KT 1SM -RA BR OVC008 WS020/20065KT
     FM120100 20018G40KT 2SM +RA BR OVC008 WS020/20060KT
     FM120400 22009KT P6SM RA OVC008=
KSAV 110914Z 1109/1206 18003KT 1/2SM FG VV002
     FM111300 19009KT 4SM BR OVC004
     FM111500 21012G18KT P6SM SCT005 BKN025
     FM111900 21015G24KT 3SM +RA SCT015 OVC030
     FM112200 26010KT P6SM SCT040 BKN080=

0000143000
653
FTUS71 KWBC 110918 AAA
TAF AMD
KBDL 110916Z 1109/1212 VRB03KT 1SM -RA BR BKN004 OVC008
     FM111200 16006KT 2SM -RA BR OVC004 WS020/19040KT
     FM111800 19014G24KT 3SM RA BR OVC008 WS020/20050KT
     FM120000 20014G25KT 1SM +RA BR OVC008 WS020/21050KT
     FM120300 21007KT 6SM BR OVC008
     FM120600 23008KT 5SM BR OVC100=
KBED 110916Z 1109/1206 00000KT 1/4SM FG OVC002
     FM111200 17007KT 2SM -RA BR OVC003 WS020/19040KT
     FM111800 19015G27KT 2SM -RA BR OVC010 WS020/20050KT
     FM112100 19016G28KT 3SM -RA BR OVC008 WS020/20055KT
     FM120200 22012G29KT 1SM +RA BR OVC008 WS020/34040KT
     FM120400 22009KT 6SM -SHRA BR BKN008=
KBOS 110916Z 1109/1212 VRB03KT 1SM BR BKN003 OVC008
      TEMPO 1109/1112 1/4SM FG
     FM111200 17012KT 1SM -RA BR OVC008 WS020/34035KT
     FM111800 19017G30KT 3SM -RA BR OVC010 WS020/20055KT
     FM112300 19020G38KT 1SM -RA BR OVC008 WS020/20060KT
     FM120200 21015G39KT 3SM +RA BR OVC008 WS020/21045KT
     FM120500 23011G18KT P6SM OVC040=
KMHT 110917Z 1109/1206 00000KT 2SM -FZRA BR OVC003
     FM111100 00000KT 2SM -FZRA BR OVC008 WS020/35030KT
     FM111400 VRB03KT 3SM -RA BR OVC008 WS020/19035KT
     FM111900 18012G21KT 3SM -RA BR OVC008 WS020/20050KT
     FM120000 19012G22KT 1SM +RA BR OVC008 WS020/20050KT
     FM120200 20010KT 2SM -RA BR OVC008 WS020/30040KT
     FM120400 21007KT 6SM -SHRA BR OVC008=

0000019500
654
FTUS72 KWBC 110918 AAA
TAF AMD
KTYR 110915Z 1109/1206 00000KT P6SM SKC
      TEMPO 1109/1111 1SM BR VV002
     FM111600 30012KT P6SM SKC
     FM112300 28004KT P6SM SKC=

00000000