0000046400
575
SAPS31 NFFN 110900
METAR NCRG 110900Z NIL=
METAR NFFN 110900Z 12004KT 9999 FEW030 25/21 Q1006 NOSIG=
METAR NFNA 110900Z 18006KT 9999 SCT023 SCT048 27/23 Q1006=
METAR NGFU 110900Z NIL=
METAR NGTA 110900Z NIL=
METAR NIUE 110900Z NIL=
METAR NSFA 110900Z NIL=
METAR NSTU 110900Z NIL=
METAR NTAA 110900Z VRB01KT 9999 FEW020 25/21 Q1013 NOSIG=
METAR NWWW 110900Z AUTO 13009KT 9999 SCT068 BKN078 24/15 Q1011=
METAR PLCH 110900Z NIL=

0000008800
576
SACU31 MUHA 110915 RTD
METAR
MUCL 110905Z AUTO 09007KT 25/23 Q1017=

0000019100
577
SAPS32 NFFN 110900
METAR NFTF 110900Z NIL=
METAR NFTL 110900Z NIL=
METAR NFTV 110900Z NIL=
METAR NLWW 110900Z NIL=
METAR NVSS 110900Z NIL=
METAR NVVV 110900Z NIL=

0000017100
578
SANM40 FYWW 110900 CCA
METAR COR FYGB 110900Z AUTO 06007KT //// // ////// 31/05 Q1021=
METAR COR FYOO 110900Z AUTO 18004KT //// // ////// 33/01 Q1018=

0000023400
579
FTSW31 LSSW 110800 AAA
TAF AMD LSGG 110915Z 1109/1215 VRB03KT 7000 SCT015 TX11/1114Z
     TN03/1205Z TX07/1214Z BECMG 1110/1112 24007KT BECMG 1121/1200
     04005KT BECMG 1203/1206 BKN020 BECMG 1210/1212 SCT030=

0000040700
580
FTUS52 KWBC 110915 AAA
TAF AMD
KDRT 110912Z 1109/1206 33005KT 5SM BR FEW250
     FM111300 32008KT P6SM FEW250
     FM112300 11005KT P6SM SKC=
KLBT 110912Z 1109/1206 VRB03KT P6SM SCT005 BKN021 BKN030
     FM111500 20012G18KT P6SM VCSH BKN009
      TEMPO 1118/1122 21018G28KT 2SM +SHRA BKN012CB
     FM112200 23014G23KT P6SM VCSH BKN020
     FM120100 25014G24KT P6SM SCT050=

0000056600
581
FTUS51 KWBC 110915 AAA
TAF AMD
KFLO 110912Z 1109/1206 17006KT 5SM BR BKN006 OVC009
     FM111500 20012G18KT P6SM VCSH BKN009
      TEMPO 1117/1121 21018G28KT 2SM +SHRA BKN012CB
     FM112200 24014G23KT P6SM VCSH BKN020
     FM120100 26014G24KT P6SM SCT020=
KMYR 110912Z 1109/1206 19011KT P6SM FEW017 OVC035
     FM111600 19012G20KT P6SM VCSH BKN018
      TEMPO 1120/1124 20020G30KT 2SM +SHRA BKN012CB
     FM120000 21012G19KT P6SM VCSH BKN025
     FM120300 25013G23KT P6SM SCT030 AMD LTD TO CLD VIS AND WIND
      TIL 111100=

0000131800
582
FTUS80 KWBC 110915 AAA
TAF AMD
KCRE 110911Z 1109/1206 20011G18KT P6SM BKN018 BKN027 OVC035
      TEMPO 1121/1124 20020G30KT 2SM +SHRA BKN012CB
     FM120000 21012G19KT P6SM VCSH BKN025
     FM120300 25013G23KT P6SM SCT030=
KDRT 110912Z 1109/1206 33005KT 5SM BR FEW250
     FM111300 32008KT P6SM FEW250
     FM112300 11005KT P6SM SKC=
KFLO 110912Z 1109/1206 17006KT 5SM BR BKN006 OVC009
     FM111500 20012G18KT P6SM VCSH BKN009
      TEMPO 1117/1121 21018G28KT 2SM +SHRA BKN012CB
     FM112200 24014G23KT P6SM VCSH BKN020
     FM120100 26014G24KT P6SM SCT020=
KLBT 110912Z 1109/1206 VRB03KT P6SM SCT005 BKN021 BKN030
     FM111500 20012G18KT P6SM VCSH BKN009
      TEMPO 1118/1122 21018G28KT 2SM +SHRA BKN012CB
     FM112200 23014G23KT P6SM VCSH BKN020
     FM120100 25014G24KT P6SM SCT050=
KMYR 110912Z 1109/1206 19011KT P6SM FEW017 OVC035
     FM111600 19012G20KT P6SM VCSH BKN018
      TEMPO 1120/1124 20020G30KT 2SM +SHRA BKN012CB
     FM120000 21012G19KT P6SM VCSH BKN025
     FM120300 25013G23KT P6SM SCT030 AMD LTD TO CLD VIS AND WIND
      TIL 111100=
PAJN 110913Z 1109/1206 VRB03KT 4SM BR SCT002 BKN050
      TEMPO 1109/1113 00000KT 1/4SM FG BKN002
     FM111800 00000KT P6SM SCT025 BKN070
     FM120300 VRB04KT P6SM VCSH BKN035 OVC070=

0000009700
583
SPUS31 KWBC 110915
SPECI
KCHS 110911Z 22014KT 2 1/2SM BR OVC003 19/18 A3001=

0000012100
584
SPUS31 KWBC 110915
SPECI
KORF 110911Z AUTO 16005KT 2 1/2SM RA BR BKN026 BKN035 OVC049 17/16
A3002=

0000010600
585
SPUS41 KWBC 110915
SPECI
KCEF 110913Z AUTO 01002KT 1 3/4SM -RA BR OVC002 00/00 A3009=

0000011700
586
SPUS41 KWBC 110915
SPECI
KHVN 110911Z AUTO 00000KT 1/2SM R02/2000V2200FT FG VV002 04/03
A3009=

0000010600
587
SPUS41 KWBC 110915
SPECI
KCEF 110912Z AUTO 01002KT 1 1/2SM -RA BR OVC002 00/00 A3010=

0000010700
588
SPUS41 KWBC 110915
SPECI
KDOV 110913Z AUTO 11005KT 3SM R01/4000FT BR OVC006 09/ A2997=

0000012400
589
SPUS41 KWBC 110915
SPECI
KRIC 110911Z 00000KT 1/2SM R34/1800V5500FT +RA FG BKN004 OVC037
05/05 A2998=

0000042700
590
SAXX69 EGRR 110900 RRA
METAR KQIR 110858Z 19007KT 9999 -RA SCT029 BKN050 15/14 A3012 RMK AO2A
      WND DATA ESTMD SLP202 P0008 60031 58012 VISNO RWY16 CHINO
      RWY16 $=
METAR KQSA 110855Z 27002KT 9999 FEW120 06/M12 A3030 RMK SLP334 WND
      DATA ESTMD ALSTG/SLP ESTMD=
METAR KQTZ 110855Z 12007KT 3200 BR FEW006 BKN008 OVC012 10/07 A3005
      RMK SLP177 WND DATA ESTMD ALSTG/SLP ESTMD 50001=

0000016300
591
SAPA31 KWBC 110900 RRB
METAR
PGSN 110913Z 03023G31KT 3SM +RA BR FEW007 BKN026 OVC039 25/24
     A2989 RMK AO2 PK WND 03031/0912 RAB11 P0001=

0000040300
592
SALY31 HLMC 110900
METAR HLLT 110850Z 19005KT 160V230 CAVOK 17/07 Q1024=
METAR HLGD 110900Z NIL=
METAR HLGT 110900Z NIL=
METAR HLJA 110900Z NIL=
METAR HLKF 110900Z NIL=
METAR HLKM 110900Z NIL=
METAR HLLB 110900Z NIL=
METAR HLLM 110900Z NIL=
METAR HLLS 110900Z NIL=
METAR HLMI 110900Z NIL=
METAR HLNT 110900Z NIL=
METAR HLON 110900Z NIL=
METAR HLTD 110900Z NIL=

0000009000
593
SAAL41 DAMM 110900 RRG
METAR DAUO 110900Z /////KT 8000 NSC 11/08 Q1023=

0000188200
594
SPUS70 KWBC 110916
SPECI
KGZH 110912Z AUTO 19010KT 6SM -RA BR BKN005 OVC009 21/19 A2987 RMK
     AO2 RAB09 P0000 T02060189=
KMCW 110912Z AUTO 30012KT 1 3/4SM BR OVC003 M02/M02 A2951 RMK AO2
     T10171022 TSNO=
KMEI 110912Z AUTO 20016G24KT 5SM -RA BR BKN012 BKN028 OVC060 19/18
     A2975 RMK AO2 LTG DSNT ALQDS TSE11 P0006=
KMIV 110912Z AUTO 16006KT 10SM BKN011 OVC016 13/13 A3001 RMK AO2
     CIG 008V013 T01330128=
KRDG 110912Z 00000KT 1 3/4SM -RA BR OVC003 02/01 A2999 RMK AO2
     P0001=
KVIH 110912Z AUTO 26012KT 9SM BKN014 OVC030 02/01 A2961 RMK AO2
     T00220006 $=
KBGM 110913Z AUTO 16011G17KT 10SM OVC006 06/06 A2987 RMK AO2
     RAE0854 CIG 003V011 $=
KEVV 110913Z AUTO 21005KT 10SM BKN010 OVC017 10/09 A2956 RMK AO2
     T01000089=
KFWN 110913Z AUTO 00000KT 2SM UP BR OVC006 01/01 A3002 RMK AO2
     P0000 T00060006=
KGLS 110913Z AUTO 21005KT 1/4SM FG VV001 16/16 A2989 RMK AO2 $=
KIND 110913Z 16005KT 1/4SM R05L/1600V2200FT -RA FG VV002 03/03
     A2951 RMK AO2 PRESFR P0001 $=
KMKC 110913Z AUTO 28005KT 8SM BKN012 OVC019 02/M01 A2970 RMK AO2
     T00171006=
KPDK 110913Z AUTO 13006KT 1 1/2SM TSRA BR SCT003 BKN014 OVC022
     10/09 A2988 RMK AO2 LTG DSNT E AND SW P0023=
KZZV 110913Z AUTO 29003KT 6SM BR OVC028 10/08 A2965 RMK AO2
     RAE0854=
PATQ 110913Z AUTO 28007KT 1SM -SN BR OVC006 M22/M24 A2977 RMK AO2
     TSNO P0000=
PATQ 110913Z AUTO 28007KT 1SM -SN BR OVC006 M22/M24 A2977 RMK AO2
     TSNO P0000=
KASH 110913Z AUTO 00000KT 1SM -FZRA BR VV002 00/00 A3015 RMK AO2
     P0000=
KBVY 110913Z AUTO 11005KT 1/4SM FG VV003 02/01 A3015 RMK AO2 RAE04
     P0000 T00170011=
KPSF 110913Z AUTO 00000KT 1/2SM -RA FG VV003 01/00 A3001 RMK AO2
     UPB01E07RAB07 P0001=
KVSF 110913Z AUTO 00000KT 1SM -FZRA BR BKN003 OVC007 M02/M03 A3010
     RMK AO2 P0000 I1001 T10221028=

00000000