0000010400
455
SACN45 CWAO 110600
METAR CYCO 110600Z 26017KT 10SM DRSN SKC M30/M37 A2949 RMK SLP991=

0000090300
456
SPUS70 KWBC 110602
SPECI
KCKV 110558Z AUTO 18006KT 4SM VCTS RA BR OVC055 11/11 A2970 RMK
     AO2 LTG DSNT ALQDS TSE55B58 PRESFR P0001=
KIJD 110558Z AUTO 00000KT 1/2SM -RA FG OVC004 01/M01 A3023 RMK AO2
     P0000 T00061006 $=
KIND 110558Z 16008KT 3SM -RA BR OVC004 05/05 A2960 RMK AO2 P0000
     $=
KPKD 110558Z AUTO 24004KT 1 3/4SM BR SCT003 M07/M08 A2942 RMK AO2
     T10671078 TSNO=
KACV 110559Z AUTO 11003KT 1 3/4SM BR CLR 07/06 A3016 RMK AO2
     T00720061=
KAND 110559Z AUTO 00000KT 4SM VCTS -RA BR SCT004 BKN009 OVC013
     08/08 A3003 RMK AO2 LTG DSNT E P0000=
KDEQ 110559Z AUTO 00000KT 1/4SM FG CLR 06/06 A2978 RMK AO2
     T00610061=
KGWO 110559Z AUTO 20011KT 3SM RA BR FEW014 BKN035 OVC075 17/16
     A2974 RMK AO2 P0002 T01670161 TSNO=
KTAN 110559Z AUTO 00000KT 1SM -RA BR FEW002 BKN020 OVC035 03/01
     A3024 RMK AO2 P0001 T00280011=

0000009700
457
SPUS31 KWBC 110602
SPECI
KIND 110558Z 16008KT 3SM -RA BR OVC004 05/05 A2960=

0000008400
458
SAAG41 SAWG 110600
METAR SAWG 110600Z  29007KT CAVOK 09/06 Q1011=

0000008400
459
SAAG41 SAVC 110600
METAR SAVC 110600Z  23006KT CAVOK 15/04 Q1015=

0000012700
460
SACN52 CWAO 110600
METAR CWEU 110600Z 03003KT 15SM OVC090 M20/M25 A2919 RMK AC8 SN
COV/MEDIUM PACK SLP888=

0000013200
461
SACN47 CWAO 110600
METAR CYVV 110600Z 16013G18KT 4SM -RA BR BKN008 OVC040 04/03 A2966
RMK SF6NS2 PRESFR SLP053=

0000012500
462
SACN46 CWAO 110600
METAR CYGQ 110600Z 00000KT 1SM -SN BR OVC006 M03/M03 A2945 RMK SN2SF6
CIG RAG SLP993=

0000010500
463
SACN52 CWAO 110600
METAR CWSA 110600Z AUTO 24014KT 9SM OVC016 02/M01 A3038 RMK SLP289=

0000010000
464
SAAG41 SASA 110600
METAR SASA 110600Z  14005KT 9999  FEW025 BKN200
22/17 Q1012=

0000050500
465
FCKZ31 RUMS 110500
TAF UAOO 110552Z 1107/1116 20009MPS 3000 BR BKN010 OVC100=
TAF UARR 110556Z 1107/1116 20012G17MPS 3000 -SHSNRA BR BKN006
BKN010CB TEMPO 1107/1113 18009G14MPS 1000 -FZRA BR OVC003 TEMPO
1113/1116 1800 OVC004=
TAF UATE 110551Z 1107/1116 14007G13MPS 6000 BKN010=
TAF UATG 110554Z 1107/1116 18008MPS 3000 BR BKN010 OVC030 TEMPO
1112/1116 -RA=
TAF UAUU 110600Z 1107/1116 18005MPS 6000 SCT006 BKN010CB TEMPO
1108/1116 17009MPS 2000 -SHSN BR BKN006 BKN010CB=

0000021700
466
SABO41 SLLP 110600
METAR SLLP 110600Z 12004KT 4000E VCFG FEW003 SCT200 06/04 Q1035=
METAR SLCB 110600Z 00000KT 9999 FEW027 15/08 Q1023=
METAR SLVR 110600Z 35006KT 9999 FEW005 SCT070 23/22 Q1010=

0000139700
467
FTCH10 SCSC 110600
TAF SCAR 110430Z 1106/1206 08005KT 9999 BKN045 TN20/1106Z TX25/1118Z 
BECMG 1109/1111 02005KT CAVOK BECMG 1112/1114 20005KT BECMG 
1116/1118 21015KT BECMG 1200/1202 17005KT=
TAF SCDA 110430Z 1106/1206 07005KT CAVOK TN20/1106Z TX25/1118Z BECMG 
1110/1112 20008KT BECMG 1118/1120 20018KT BECMG 1202/1204 18005KT=
TAF SCFA 110430Z 1106/1206 18005KT 9999 SCT014 TN19/1106Z TX26/1118Z 
BECMG 1108/1110 08005KT FEW017 BECMG 1112/1114 18010KT BECMG 1202/120
4 15005KT SCT015=
TAF SCAT 110430Z 1106/1206 02005KT 9999 OVC011 TN15/1106Z TX24/1118Z 
BECMG 1110/1112 34005KT BECMG 1116/1118 27012KT CAVOK BECMG 
1200/1202 24008KT OVC012=
TAF SCCF 110430Z 1106/1206 09010KT CAVOK TN08/1106Z TX25/1118Z BECMG 
1114/1116 25015KT BECMG 1118/1120 26022KT BECMG 1204/1206 08010KT=
TAF SCSE 110415Z 1106/1206 VRB02KT CAVOK TX22/1118Z TN14/1110Z TEMPO
         1108/1112 03004KT 3000 BR OVC008 BECMG 1114/1116 SCT013
         BECMG 1116/1118 28010KT CAVOK BECMG 1202/1204 VRB02KT=
TAF COR SCIP 110551Z 1106/1206 10005KT 9999 SCT020 SCT150 TN21/1110Z 
TX26/1120Z BECMG 1106/1108 SCT020 TEMPO 1113/1123 07010KT 7000 -SHRA 
SCT017 BKN025 BECMG 1114/1116 11010KT BECMG 1203/1205 10003KT=
TAF SCEL 110415Z 1106/1206 VRB02KT CAVOK TX33/1119Z TN16/1110Z BECMG
         1113/1115 17004KT BECMG 1116/1118 19013KT BECMG 1202/1204
         17005KT=

0000010000
468
SAMC32 GMMC 110500 RRB
METAR GMMC 110500Z 20004KT 9999 FEW016 SCT026 14/09 Q1014=

0000026400
469
SACZ31 LKPW 110600
METAR LKKV 110600Z VRB02KT 5000 FEW001 SCT014 M01/M01 Q1016=
METAR LKMT 110600Z 22010KT CAVOK 01/M01 Q1018 NOSIG=
METAR LKPR 110600Z 21009KT CAVOK 01/M01 Q1017 NOSIG=
METAR LKTB 110600Z VRB01KT CAVOK M00/M02 Q1019 NOSIG=

0000034500
470
SAIL31 BICC 110600
METAR BIAR 110600Z 20007KT 150V260 9999 -SN FEW023 BKN028 OVC040
    01/M02 Q0996=
METAR BIEG 110600Z 05013G23KT 7000 -SN BKN013 OVC020 01/M00 Q0996 RMK
R04/790193=
METAR BIKF 110600Z 26009KT 9999 FEW039 01/M05 Q0996=
METAR BIRK 110600Z 27008KT 9999 FEW020 SCT048 BKN100 02/M03 Q0996
    RESHSN=

0000054800
471
SAYG31 LYBM 110600
METAR LYBE 110600Z 06004KT CAVOK 03/01 Q1023 NOSIG=
METAR LYBT 110600Z 14003KT 5000 BR NSC 02/02 Q1023 TEMPO 3000 BR=
METAR LYKV 110600Z 02001KT 9999 SCT040 04/02 Q1023 NOSIG=
METAR LYNI 110600Z 00000KT 7000 FEW040 M00/M00 Q1024 NOSIG=
METAR LYPG 110600Z 08002KT 9999 BKN034 BKN100 08/07 Q1023 NOSIG=
METAR LYPR 110600Z NIL=
METAR LYTV 110600Z VRB01KT 9999 SCT050 09/08 Q1023 NOSIG=
METAR LYUZ 110600Z 28002KT 9999 BKN020 03/03 Q1022=
METAR LYVR 110600Z 18004KT 150V210 CAVOK 04/01 Q1023 NOSIG=

0000039800
472
FTUS41 KWBC 110603 CCA
TAF COR
KBTV 110600Z 1106/1206 19009KT P6SM BKN025 OVC035
     FM110800 17012KT P6SM VCSH SCT020 BKN035 OVC045
      TEMPO 1109/1110 4SM -FZDZ BR BKN015 OVC020
     FM111100 17014G24KT 3SM -RA BR OVC011 WS020/18050KT
     FM111500 17015G25KT 4SM -RA BR BKN008 OVC010 WS020/18050KT
     FM111900 18013G23KT 3SM RA BR SCT005 OVC008 WS020/19050KT=

0000034500
473
FTUK31 EGGY 110500 AAA
TAF AMD EGSS 110602Z 1106/1212 23012KT 3500 RADZ BKN003 BECMG
    1106/1108 29010KT 9999 SCT025 PROB30 TEMPO 1108/1110 8000 SHRA
    BKN012 BECMG 1116/1119 VRB03KT BECMG 1120/1123 6000 PROB30
    1200/1208 2000 BR BKN002 BECMG 1205/1208 15012KT 9999 PROB40
    TEMPO 1210/1212 8000 -RADZ BKN006=

0000025000
474
FTUS42 KWBC 110603 AAA
TAF AMD
KBTR 110601Z 1106/1206 18010KT P6SM -SHRA OVC008
      TEMPO 1106/1109 2SM TSRA OVC003CB
     FM110900 23012KT 4SM BR OVC004
     FM111500 30009KT P6SM SCT250
     FM120000 VRB03KT P6SM SKC=

00000000