0000010400
175
SAAG31 KWBC 110700 RRB
METAR
SARE 110700Z 09002KT 9999 FEW056CB OVC200 27/24 Q1007=

0000009300
176
SAUK32 EGGY 110720 RRA
METAR EGLC 110720Z 29015KT 9999 FEW010 08/04 Q1015=

0000011900
177
SAUK36 EGGY 110720 CCA
METAR COR EGSH 110720Z 26010KT 9999 -RA SCT008 07/06 Q1012 RERA
     NOSIG=

0000038100
178
FCZA31 FAPR 110600
TAF FAEL 110600Z 1107/1118 24015KT CAVOK
         BECMG 1111/1113 15010KT SCT030 TX26/1112ZTN18/1118Z=
TAF FAWK 110600Z 1107/1118 05010KT CAVOK
         BECMG 1109/1111 34008KT SCT040
         TEMPO 1112/1118 -TSRA FEW035CB
         BECMG 1116/1118 05007KT
         TX32/1112ZTN25/1107Z=
TAF FYWE 110500Z 1106/1115 18005KT CAVOK=

0000053200
179
SAOS31 LOWM 110720
METAR LOWW 110720Z 17004KT 9999 SCT035 00/M01 Q1020 NOSIG=
METAR LOWL 110720Z 34002KT 9999 4000SE MIFG VCFG FEW053 BKN250
M03/M03 Q1020 BECMG NSW=
METAR LOWS 110720Z VRB02KT 9999 4000N BCFG FEW001 BKN300 M00/M00
Q1018 NOSIG=
METAR LOWI 110720Z 24003KT 200V270 2500 BR SCT002 BKN004 01/01 Q1020
R08/19//71 NOSIG=
METAR LOWG 110720Z VRB02KT 9999 BKN009 BKN090 02/01 Q1020 R17/19//95
TEMPO SCT009=
METAR LOWK 110720Z 36003KT 5000 BR SCT003 OVC005 01/01 Q1021
R10L/19//95 NOSIG=

0000012700
180
SAOS32 LOWM 110720
METAR LOXZ 110720Z VRB01KT 8000 FEW002ST SCT170AC BKN220CI M03/M03
Q1020 NOSIG RMK BKN=

0000010000
181
SADN34 EKCH 110720 RRA
METAR EKGF 110720Z 03015KT 9999 SCT020 SCT028 07/04 Q1005=

0000073300
182
FCZA32 FAPR 110600
TAF FAKM 110600Z 1107/1118 22010KT CAVOK TX33/1113ZTN24/1118Z=
TAF FAMM 110600Z 1107/1118 12006KT CAVOK
         BECMG 1107/1109 30007KT
         BECMG 1112/1114 27006KT 
         TX35/1112ZTN27/1107Z=
TAF FAWB 110600Z 1107/1118 06008KT CAVOK
         BECMG 1109/1111 36007KT SCT040
         PROB30 TEMPO 1112/1118 -TSRA FEW035CB
         BECMG 1116/1118 06006KT 
         TX33/1112ZTN26/1107Z=
TAF FAWK 110600Z 1107/1118 05010KT CAVOK
         BECMG 1109/1111 34008KT SCT040
         TEMPO 1112/1118 -TSRA FEW035CB
         BECMG 1116/1118 05007KT
         TX32/1112ZTN25/1107Z=
TAF FYGF 110500Z 1106/1115 18005KT CAVOK=
TAF FYWE 110500Z 1106/1115 18005KT CAVOK=

0000037400
183
SANO37 ENMI 110720
METAR ENNO 110720Z NIL=
METAR ENOV 110720Z NIL=
METAR ENSD 110720Z NIL=
METAR ENSG 110720Z 07002KT 4000 -SHSN BR FEW/// VV009 M03/M03 Q0993
           RMK WIND 4226FT 27021KT=
METAR ENSN 110720Z NIL=
METAR ENSR 110720Z NIL=
METAR ENSS 110720Z 04019KT 8000 -SHSN BKN038 M02/M07 Q1015 RMK WIND
           500FT 10013G27KT=

0000043500
184
SABX31 EBBR 110720
METAR EBAW 110720Z 23007KT 9999 BKN007 04/02 Q1015 NOSIG=
METAR EBBR 110720Z 23007KT 8000 BKN007 05/03 Q1015 NOSIG=
METAR EBCI 110720Z 21009KT 9999 FEW005 05/04 Q1015 TEMPO BKN005=
METAR EBLG 110720Z 20010KT 140V220 CAVOK 05/03 Q1015 TEMPO BKN008=
METAR EBOS 110720Z 20011KT 4500 -RA BR BKN007 04/02 Q1015 TEMPO
     SCT008=
METAR ELLX 110720Z VRB01KT 3000 BR BKN042 02/02 Q1016 NOSIG=

0000067500
185
SADL31 EDZO 110720
METAR EDDF 110720Z 18005KT 5000 1200S R25L/P2000N R25C/P2000N
     R25R/P2000N BCFG BR FEW001 BKN050 00/00 Q1017 NOSIG=
METAR EDDH 110720Z 23012KT 5000 BR BKN008 06/04 Q1010 TEMPO 4000=
METAR EDDK 110720Z 12004KT 9999 BKN035 BKN095 03/02 Q1016 NOSIG=
METAR EDDL 110720Z 16005KT CAVOK 02/01 Q1015 NOSIG=
METAR EDDM 110720Z VRB02KT 6000 NSC M03/M03 Q1018 NOSIG=
METAR EDDN 110720Z 09006KT CAVOK M01/M01 Q1017 NOSIG=
METAR EDDS 110720Z 15001KT 9999 FEW030 SCT060 BKN100 M01/M01 Q1017
     NOSIG=
METAR EDDT 110720Z 23008KT 9999 SCT018 BKN130 04/02 Q1014 NOSIG=
METAR EDDV 110720Z 23009KT 210V280 CAVOK 04/02 Q1013 NOSIG=

0000047200
186
SADL32 EDZO 110720
METAR EDDB 110720Z 22007KT 9999 SCT023 SCT120 03/01 Q1014 NOSIG=
METAR EDDC 110720Z 22007KT CAVOK 03/00 Q1016 NOSIG=
METAR EDDE 110720Z 23007KT CAVOK 01/M00 Q1015 NOSIG=
METAR EDDG 110720Z 20006KT CAVOK 02/01 Q1014 TEMPO BKN010=
METAR EDDP 110720Z 20011KT CAVOK 02/01 Q1016 NOSIG=
METAR EDDR 110720Z VRB01KT 9000 -RA FEW030 BKN050 01/00 Q1017
     NOSIG=
METAR EDDW 110720Z 23011KT 9999 BKN009 05/04 Q1012 TEMPO 4000 RA=

0000010200
187
SAAG05 SABM 110700 RRC
METAR SARE 110700Z 09002KT 9999 FEW056CB OVC200 27/24 Q1007=

0000062200
188
SAFI31 EFHK 110720
METAR EFHK 110720Z 32007KT 9999 OVC008 M04/M06 Q0998 NOSIG=
METAR EFJY 110720Z AUTO 02007KT 8000 -SN OVC015 
M09/M11 Q1000=
METAR EFKU 110720Z AUTO 01009KT 9999 -SN FEW018 
OVC020 M10/M12 Q1001=
METAR EFOU 110720Z AUTO 06006KT 020V100 CAVOK M15/M18 Q1008 120/0087=
METAR EFRO 110720Z AUTO 03014KT CAVOK M19/M22 
Q1011=
METAR EFTP 110720Z AUTO 04005KT 9999 BKN010 OVC015 
M05/M06 Q0999=
METAR EFTU 110720Z AUTO VRB01KT 9999 -SHSN OVC006/// M03/M04 Q0998 
REUP R08/690162=
METAR EFVA 110720Z AUTO 04008KT 9999 -SN FEW014/// OVC046/// M09/M11 
Q1002 R16/420195=

0000065300
189
FKPQ30 RJTD 110600
TC ADVISORY
DTG:                 20140111/0600Z
TCAC:                TOKYO
TC:                  NN
NR:                  4
PSN:                 N0430 E12850
MOV:                 WNW 08KT
C:                   1006HPA
MAX WIND:            30KT
FCST PSN +6HR:       11/1200Z N0450 E12820
FCST MAX WIND +6HR:  35KT
FCST PSN +12HR:      11/1800Z N0510 E12755
FCST MAX WIND +12HR: 35KT
FCST PSN +18HR:      12/0000Z N0535 E12735
FCST MAX WIND +18HR: 35KT
FCST PSN +24HR:      12/0600Z N0555 E12720
FCST MAX WIND +24HR: 35KT
RMK:                 NIL
NXT MSG:             20140111/1200Z =

0000013500
190
SPUS31 KWBC 110723
SPECI
KBNA 110719Z 32008KT 2 1/2SM R02L/6000VP6000FT +RA BR FEW005
BKN011 OVC019 13/12 A2971=

0000010000
191
SPUS31 KWBC 110723
SPECI
KJAX 110719Z 19003KT 2SM BR FEW000 BKN003 16/16 A3005=

0000010000
192
SPUS31 KWBC 110723
SPECI
KORD 110719Z 21011G19KT 3SM -RA BR OVC004 04/03 A2945=

0000011600
193
SPUS41 KWBC 110723
SPECI
KGON 110719Z 00000KT 1/4SM R05/1800V2200FT -RA FG VV003 04/03
A3020=

0000011000
194
SPUS41 KWBC 110723
SPECI
KPVD 110719Z 00000KT 1/2SM R05/1600V3500FT FG VV002 02/01 A3022=

00000000