0000011200
895
SACN62 CYYQ 110700
METAR CYYQ 110700Z 30005KT 15SM IC FEW210 M27/M30 A2970 RMK CI2
 SLP063=

0000011600
896
SACN62 CYXU 110700
METAR CYXU 110700Z 14012KT 2SM -RA BR OVC002 03/03 A2966 RMK FG2SF6
 SLP052=

0000037600
897
FTCN31 CWAO 110700 AAA
TAF AMD CYQQ 110705Z 1107/1206 15018G28KT 6SM -RA BR SCT006 OVC015
     TEMPO 1107/1109 1SM RA BR OVC006
    FM110900 13015G25KT P6SM SCT015 BKN040 TEMPO 1109/1111 P6SM -RA
     BKN015
    FM111100 18008KT P6SM SCT030 BKN120
    FM111800 15010G20KT P6SM SCT030 BKN200 TEMPO 1118/1206 P6SM VCSH
    RMK NXT FCST BY 111200Z=

0000009100
898
SAAL41 DAMM 110600 CCB
METAR COR DAUK 110600Z 36005KT CAVOK 06/04 Q1022=

0000029000
899
FTUK31 EGGY 110500 AAC
TAF AMD EGCC 110705Z 1107/1212 28010KT 9999 FEW035 PROB30 TEMPO
    1107/1110 7000 SHRA BKN014 BECMG 1116/1120 16004KT PROB40
    1118/1124 6000 PROB30 1200/1206 4000 BR PROB40 1206/1209 3000 BR
    BKN008 BECMG 1209/1212 14014KT 8000 BKN012=

0000009900
900
SPUS31 KWBC 110705
SPECI
KRDU 110701Z 00000KT 1/2SM -RA BR OVC002 08/07 A3004=

0000010200
901
SPUS41 KWBC 110705
SPECI
KLWM 110701Z AUTO 12003KT 1 1/2SM BR OVC005 02/01 A3024=

0000009800
902
SANL33 EHDB 110655 RRA
METAR EHJR 110655Z AUTO 23030G35KT  08/08 Q1009 W10/H24=

0000010200
903
SANL33 EHDB 110655 RRB
METAR EHSC 110655Z AUTO 22025G27KT 6000 06/06 Q1012 W08/H16=

0000010200
904
SANL33 EHDB 110655 RRC
METAR EHSA 110655Z AUTO 22027G30KT 9999 08/06 Q1012 W09/H19=

0000010000
905
SASP34 LEMM 110700 CCA
METAR COR LELL 110700Z 00000KT 5000 BR BKN020 09/08 Q1019=

0000009900
906
SACN62 CZBF 110700
METAR CZBF 110700Z VRB02KT 15SM SKC M19/M22 A3020 RMK SLP232=

0000010600
907
SACN62 CYZF 110700
METAR CYZF 110700Z 31006KT 15SM BKN070 M29/M32 A2956 RMK AC5 SLP040=

0000011200
908
SACN62 CYYT 110700
METAR CYYT 110700Z 26025G33KT 15SM SCT140 M05/M08 A3005 RMK AC3
 SLP186=

0000012700
909
SACN62 CYYZ 110700
METAR CYYZ 110700Z 10004KT 2 1/2SM -RA BR OVC010 02/02 A2974 RMK
 FG4SF4 PRESFR SLP077=

0000031900
910
SAAL31 DAAA 110700
METAR DAAG 110700Z 26004KT 9999 FEW030 SCT040 11/08 Q1018=
METAR DAAT 110700Z 15006KT CAVOK 11/M02 Q1023=
METAR DABB 110700Z 22007KT CAVOK 08/06 Q1017=
METAR DABC 110700Z NIL=
METAR DAON 110700Z NIL=
METAR DAOO 110700Z NIL=
METAR DAUH 110700Z 00000KT CAVOK 08/06 Q1021=

0000015400
911
SACA32 KWBC 110700 CCA
METAR
TJNR 110653Z AUTO 06005G15KT 10SM FEW019 BKN060 OVC085 24/22 A3007
     RMK AO2 SLP184 T02440217 TSNO=

0000062700
912
SACA32 KWBC 110700
METAR
MDLR NIL=
MDPC 110700Z 11010KT 9999 FEW018 25/19 Q1018=
MDPP NIL=
MDSD 110700Z 02004KT 9999 FEW018 20/18 Q1017=
MDST 110700Z VRB03KT 9999 BKN015 21/21 Q1018=
MTCH NIL=
MTPP NIL=
TAPA NIL=
TIST NIL=
TISX 110653Z AUTO 05006KT 10SM BKN065 23/19 A3004 RMK AO2 SLP172
     T02330189 TSNO=
TJBQ 110650Z 10009KT 10SM SKC 23/ A3007 RMK RWY08 ATIS S=
TJMZ NIL=
TJPS 110650Z 05005KT 10SM SKC 19/16 A3005=
TJSJ 110656Z 10005KT 10SM FEW021 SCT050 25/22 A3005 RMK AO2 SLP174
     T02500217 ?=
TKPK NIL=
TKPN NIL=
TQPF NIL=
TRPM NIL=
TUPJ NIL=
TUPW NIL=

0000065300
913
FTUS71 KWBC 110706
TAF
TAF AMD KWRI 1107/1208 14006KT 9000 BR BKN040 OVC070 WS020/19045KT
      QNH3005INS
      TEMPO 1107/1110 3200 BR BKN010 OVC020
      BECMG 1109/1110 16009KT 3200 -RA BR BKN006 OVC040
      WS020/19050KT QNH2991INS
      BECMG 1113/1114 18010G20KT 1200 -SHRA BR OVC002
      WS020/20060KT
      QNH2979INS
      BECMG 1116/1117 18015G25KT 6000 -SHRA OVC002
      QNH2951INS
      TEMPO 1118/1122 18025G35KT 3200 -TSRA OVC002CB
      BECMG 1205/1206 26012G18KT 6000 BR SCT005 QNH2951INS
      BECMG 1207/1208 27015G25KT 9999 NSW BKN009 QNH2955INS
      T16/1121Z T05/1107Z AMD 110701=

0000074500
914
FTUS73 KWBC 110706 AAA
TAF AMD
KCGI 110705Z 1107/1206 25004KT 4SM BR SCT015 OVC020
      TEMPO 1107/1109 1SM BR OVC015
     FM110900 23006KT P6SM SCT025 BKN150
     FM111300 27010KT P6SM SCT020 BKN150
     FM112100 26008KT P6SM SKC=
KDLH 110703Z 1107/1206 26005KT 2SM -FZDZ BR VV002
      TEMPO 1107/1110 1/2SM FZFG OVC001
     FM111000 26004KT 3SM BR OVC002
     FM111500 29009KT P6SM OVC014
     FM112200 29010KT P6SM BKN250=
KMHK 110703Z 1107/1206 28005KT P6SM BKN080
     FM110900 29007KT P6SM FEW100
     FM112300 26003KT P6SM SKC=
KPAH 110705Z 1107/1206 20008KT P6SM OVC025
      TEMPO 1107/1110 5SM -RA BR OVC014
     FM111000 26010KT P6SM SCT020 BKN150
     FM112100 26008KT P6SM SKC=

00000000