0000008900
255
SAAG31 KWBC 110800 RRB
METAR
SAZM 110800Z 20005KT CAVOK 14/07 Q1015=

0000200500
256
SPUS70 KWBC 110816
SPECI
KECG 110812Z AUTO 18007KT 9SM -RA SCT009 BKN014 OVC019 17/17 A3007
     RMK AO2 RAB03 P0000 T01720167 TSNO=
KLFT 110812Z AUTO 21010G20KT 10SM TS OVC006 21/ A2984 RMK AO2 LTG
     DSNT SW AND W TSB06RAE0754 $=
KBED 110812Z AUTO 09003KT 1/4SM R11/2000V2200FT -RA FG VV003 01/01
     A3018 RMK AO2 P0000 TSNO=
KBML 110812Z AUTO 00000KT 10SM SCT026 BKN050 M05/M08 A3013 RMK AO2
     T10501083=
KCQX 110812Z AUTO 18005KT 3SM BR BKN002 OVC060 06/06 A3023 RMK AO2
     T00610056=
KFLD 110812Z AUTO 23005KT 3SM BR OVC003 02/01 A2939 RMK AO2
     T00170011=
KUIN 110812Z AUTO 28007KT 5SM BR OVC004 02/02 A2953 RMK AO2 CIG
     003V007 T00220017=
PASC 110812Z 24019KT 1SM R05/P6000FT -SN BLSN BR BKN004 BKN048
     OVC065 M27/M30 A2978 RMK AO2 P0000=
KNFE 110813Z AUTO 16010KT 7SM RA SCT007 SCT027 OVC039 19/16 A3006
     RMK AO2 P0003 T01890156=
KFWN 110813Z AUTO 00000KT 1 1/4SM UP BR OVC006 01/00 A3005 RMK AO2
     PRESFR P0001 T00060000=
KGFK 110813Z AUTO 31011KT 10SM OVC016 M05/M07 A2948 RMK AO2
     T10501072 TSNO=
KGVL 110813Z AUTO 07005KT 9SM -RA BKN004 OVC009 08/07 A2994 RMK
     AO2 LTG DSNT N-SE TSE07 P0004=
KHUF 110813Z 19012KT 2 1/2SM -RA OVC002 06/ A2955 RMK AO2 VIS 1
     1/2V5 P0001 $=
KLCH 110813Z AUTO 23007KT 2SM BR OVC002 18/18 A2985 RMK AO2
     T01780178=
KMIE 110813Z AUTO 21007KT 1 3/4SM BR OVC003 07/06 A2956 RMK AO2
     T00670061 TSNO=
KAKH 110813Z AUTO 01004KT 3/4SM BR VV002 06/06 A2998 RMK AO2=
KAZO 110813Z AUTO 19009KT 1/2SM FG OVC002 04/04 A2950 RMK AO2=
KCMX 110813Z AUTO 00000KT 3/4SM -SN BR OVC011 M03/M04 A2938 RMK
     AO2 P0001=
KFFC 110813Z AUTO 16008KT 1SM +TSRA BR SCT003 BKN016 OVC044 13/13
     A2990 RMK AO2 LTG DSNT E AND SW AND W TSB03 P0032
     T01330133=
KCKV 110813Z AUTO 20009KT 5SM RA BR FEW012 BKN018 OVC040 12/11
     A2966 RMK AO2 P0007=
KHKS 110813Z AUTO 27017G22KT 8SM -RA FEW011 BKN018 OVC055 19/17
     A2977 RMK AO2 P0009=

0000021400
257
SASA41 KWBC 110700 RRB
METAR
SMJP 110700Z WIND RWY 11 TDZ 080/5KT VIS RWY 11 TDZ 10KM END 10KM
     CLD RWY 11 SCT 800FT SCT 2500FT T23 DP23 QNH 1012HPA QFE RWY
     11 1010HPA TREND NOSIG=

0000012000
258
SATH41 VTBB 110800 RRB
METAR VTSE 110800Z 04012KT 6000 FEW024 BKN300 29/24
Q1012 A2989 RMK /RWY 06=

0000010200
259
SPCN42 CWAO 110815
SPECI CYQD 110815Z 28007KT 15SM -SN OVC015 RMK ST8 PCPN VRY LGT=

0000042000
260
SALY31 HLMC 110800
METAR HLLM 110750Z 19007KT 8000 NSC 16/07 Q1024=
METAR HLLT 110750Z 18006KT CAVOK 14/07 Q1024=
METAR HLGD 110800Z NIL=
METAR HLGT 110800Z NIL=
METAR HLJA 110800Z NIL=
METAR HLKF 110800Z NIL=
METAR HLKM 110800Z NIL=
METAR HLLB 110800Z NIL=
METAR HLLS 110800Z NIL=
METAR HLMI 110800Z NIL=
METAR HLNT 110800Z NIL=
METAR HLON 110800Z NIL=
METAR HLTD 110800Z NIL=

0000013300
261
FTOS33 LOWM 110500 AAA
TAF AMD LOAV 110816Z 1108/1118 VRB02KT 9999 FEW030 BKN180
    BECMG 1117/1118 31015G25KT=

0000009700
262
SPCN46 CWAO 110816
SPECI CYBN 110816Z AUTO 16009KT 3SM -RA OVC003 02/02 A2962=

0000011600
263
SATH33 VTBB 110800 RRB
METAR VTUO 110800Z 01006KT CAVOK 30/13  Q1012 A2991
      INFO I RWY 04=

0000016400
264
FCRS33 RUMS 110800 RRA
TAF UUMO 110800Z 1109/1118 23006MPS 6000 BKN008 TEMPO 1109/1118 1000
SHRASN BKN005 SCT012CB BECMG 1112/1114 27007G12MPS=

0000009300
265
SATS41 DTTA 110800 RRA
METAR DTTG 110800Z 28005KT CAVOK 11/04 Q1022 NOSIG=

0000008800
266
SAAG05 SABM 110800 RRA
METAR SAZM 110800Z  20005KT CAVOK 14/07 Q1015=

0000009300
267
SATS32 DTTA 110800 RRA
METAR DTTG 110800Z 28005KT CAVOK 11/04 Q1022 NOSIG=

0000040400
268
SAMG20 FMMI 110800
METAR 110800Z
METAR FMMI 110800Z 13004KT 9999  BKN017CB  SCT230 28/22 Q1022
NOSIG=
METAR FMNA 110800Z NIL=
METAR FMNN 110800Z 22008KT 9999 SCT020CB 32/23 Q1011=
METAR FMSD 110800Z VRB02KT 9999 FEW020TCU SCT233 29/24 Q1014=
METAR FMMT 110800Z 12006KT 9999 VCSH SCT017CB 31/26 Q1013 NOSIG=
METAR FMNM 110800Z 20004KT 9999 FEW020 SCT230 32/22 Q1012 NOSIG=

0000191400
269
SPUS70 KWBC 110814
SPECI
KASE 110810Z 00000KT 3SM -SN BR OVC027 M05/M06 A3014 RMK AO2 P0000
     T10501056=
KIAD 110810Z 00000KT 1 3/4SM BR BKN004 OVC014 02/01 A3001 RMK
     AO2=
KISW 110810Z AUTO 28006KT 4SM -SN BR OVC006 M01/M01 A2941 RMK AO2
     SNB01 CIG 003V008 P0000 T10061011=
KLFK 110810Z AUTO 23003KT 4SM BR OVC003 17/16 A2983 RMK AO2 $=
KLUK 110810Z AUTO 20005KT 2 1/2SM +RA BR BKN070 OVC080 09/09 A2966
     RMK AO2 LTG DSNT SE PRESFR P0007 T00890089=
KMCI 110810Z 28007KT 8SM SCT008 OVC015 01/00 A2966 RMK AO2
     T00110000=
KOXB 110810Z AUTO 18008KT 140V210 3SM -RA BR BKN003 BKN032 OVC100
     11/10 A3007 RMK AO2 P0001 T01110100 TSNO=
KPAE 110810Z AUTO 15011G19KT 4SM -RA BR FEW006 SCT016 OVC025 09/08
     A2954 RMK AO2 PRESFR P0003=
KPTW 110810Z AUTO 00000KT 1SM -RA BR VV003 02/02 A3004 RMK AO2
     RAB0759 P0000 T00220022=
KRST 110810Z AUTO 28008KT 2SM BR OVC005 M02/M03 A2945 RMK AO2 CIG
     002V009 I1000 T10171028=
KSTS 110810Z AUTO 00000KT 1/4SM FG VV002 04/04 A3019 RMK AO2
     T00440044=
K2DP 110809Z AUTO 19016G25KT 12SM BKN007 BKN060 18/17 A3008 RMK
     AO2 LTG DSNT N-NE=
KBDE 110811Z AUTO 31006KT 3SM -SN BR SCT012 OVC034 M03/M04 A2939
     RMK AO2 P0000 T10331044 TSNO=
KBOK 110811Z AUTO 16013G17KT M1/4SM -RA FG OVC002 10/10 A3007 RMK
     AO2 P0000 $=
KFPR 110811Z 17003KT 8SM CLR 20/19 A3007 RMK AO2=
KJEF 110811Z AUTO 26010KT 9SM SCT016 BKN023 OVC046 04/01 A2962 RMK
     AO2=
KLOU 110811Z AUTO 13003KT 3SM +RA BR OVC060 11/10 A2963 RMK AO2
     P0010 TSNO=
KOSH 110811Z 25004KT 4SM BR OVC003 02/01 A2939 RMK AO2 CIG 002V007
     T00170006=
KRWI 110811Z AUTO 00000KT 1/2SM FG VV003 16/16 A3003 RMK AO2
     T01610156=
KSTJ 110811Z AUTO 22004KT 7SM FEW008 BKN021 00/M01 A2967 RMK AO2
     T00001011=
KTHV 110811Z AUTO 10003KT 1SM BR OVC002 01/01 A3000 RMK AO2
     T00110011=

0000010400
270
SPUS31 KWBC 110814
SPECI
KIAD 110810Z 00000KT 1 3/4SM BR BKN004 OVC014 02/01 A3001=

0000009700
271
SPUS31 KWBC 110814
SPECI
KMCI 110810Z 28007KT 8SM SCT008 OVC015 01/00 A2966=

0000011300
272
SPUS41 KWBC 110814
SPECI
KLUK 110810Z AUTO 20005KT 2 1/2SM +RA BR BKN070 OVC080 09/09 A2966=

0000011600
273
SPUS41 KWBC 110814
SPECI
KPSM 110808Z 35002KT 3/8SM R34/5500FT -FZRA FZFG OVC002 00/00
A3020=

0000012200
274
SPUS42 KWBC 110814
SPECI
KTYS 110810Z 02005KT 1/2SM R23R/3500VP6000FT BR BKN003 OVC038
07/07 A2979=

00000000