0000081100
455
SANM40 FYWW 110900
METAR FYGB 110900Z AUTO 06006KT //// // ////// 31/05 Q1021=
METAR FYGF 110900Z 28004KT 9999 FEW050 23/08 Q1021=
METAR FYGO 110900Z AUTO 33009KT //// // ////// 27/16 Q1015=
METAR FYKM 110900Z 34004KT CAVOK 28/19 Q1018=
METAR FYKT 110900Z 06007KT CAVOK 30/06 Q1018=
METAR COR FYLZ 110900Z AUTO 20015KT //// // ////// 21/09 Q1012=
METAR COR FYML 110900Z AUTO 10008KT //// // ////// 32/05 Q1020=
METAR FYOA 110900Z 21006KT CAVOK 30/05 Q1017=
METAR FYOO 110900Z AUTO 16004KT //// // ////// 33/01 Q1017=
METAR FYOW 110900Z AUTO 20002KT //// // ////// 31/02 Q1019=
METAR FYRN 110900Z 05011KT CAVOK 30/16 Q1018=
METAR FYWB 110900Z 32007KT 9999 SCT050 21/14 Q1015=
METAR FYWE 110900Z 08009KT CAVOK 28/03 Q1023=
METAR FYWH 110900Z 11006KT CAVOK 26/04 Q1023=

0000176700
456
SPUS70 KWBC 110910
SPECI
KAVL 110906Z AUTO 00000KT 2SM R34/5000VP6000FT -RA BR SCT003
     OVC009 07/07 A2992 RMK AO2 LTG DSNT S-W P0000=
KBOK 110906Z AUTO 16012KT 1 1/4SM BR OVC002 10/10 A3005 RMK AO2
     $=
KDCU 110906Z AUTO 5SM -RA BR FEW027 BKN037 OVC048 14/14 A2968 RMK
     AO2 LTG DSNT ALQDS TSE06 PRESFR P0005 $=
KHKY 110906Z AUTO 00000KT 1SM BR VV004 06/05 A2994 RMK AO2 RAE05
     P0000=
KIND 110906Z 18004KT 1/8SM R05L/2000V3000FT -RA FG VV002 03/03
     A2953 RMK AO2 P0001 $=
KPDK 110906Z AUTO 15004KT 3/4SM VCTS +RA BR BKN003 BKN007 OVC016
     10/09 A2989 RMK AO2 LTG DSNT E AND SW P0020=
KRST 110906Z AUTO 30012KT 2SM BR OVC002 M02/M03 A2946 RMK AO2
     I1000 T10171033=
KSGR 110906Z AUTO 23008KT 1SM BR OVC002 17/16 A2987 RMK AO2=
KATL 110907Z VRB04KT 1/4SM R09R/4500VP6000FT +TSRA BR SCT003
     BKN014CB OVC037 11/11 A2988 RMK AO2 SFC VIS 1 1/4 OCNL LTGIC
     OHD-NE TS OHD-NE MOV NE P0035=
KAXN 110907Z AUTO 30011KT 10SM BKN009 OVC013 M06/M08 A2947 RMK
     AO2=
KBTL 110907Z 20012KT 1/2SM -RA FG VV002 04/03 A2947 RMK AO2 P0000
     T00440033=
KCKV 110907Z AUTO 21009KT 7SM -RA SCT016 BKN060 OVC075 13/12 A2964
     RMK AO2 P0003=
KCLE 110907Z 19011G19KT 10SM -RA SCT024 BKN040 OVC080 10/07 A2962
     RMK AO2 P0001 T01000072=
KHIB 110907Z AUTO 00000KT 3SM BR OVC005 M03/M04 A2939 RMK AO2=
KLFT 110907Z AUTO 25009KT 5SM VCTS HZ OVC009 18/ A2986 RMK AO2 LTG
     DSNT NE-S $=
KMPO 110907Z AUTO 16011KT 2SM -RA BR OVC002 07/06 A2996 RMK AO2
     P0002 T00670061=
KOKB 110907Z AUTO 00000KT 1 1/4SM BR FEW009 06/04 A3010 RMK AO2
     TSNO $=
KOXB 110907Z AUTO 18007KT 150V220 1 1/4SM +RA BR SCT002 BKN015
     OVC025 13/12 A3005 RMK AO2 P0008 T01280117 TSNO=

0000011700
457
SPUS31 KWBC 110910
SPECI
KIND 110906Z 18004KT 1/8SM R05L/2000V3000FT -RA FG VV002 03/03
A2953=

0000011700
458
SPUS41 KWBC 110910
SPECI
KORH 110906Z AUTO 19006KT 1/4SM R11/1600V2000FT FG VV002 03/03
A3010=

0000079300
459
SAAG31 KWBC 110900
METAR
SAAG NIL=
SAAP NIL=
SAAR 110900Z 14011KT CAVOK 18/10 Q1014=
SABE 110900Z 16017G33KT CAVOK 19/06 Q1015=
SACO 110900Z 16008KT CAVOK 21/13 Q1018=
SADD NIL=
SAEZ 110900Z 15006KT 120V210 CAVOK 15/08 Q1016=
SAME 110900Z 18008KT CAVOK 23/03 Q1017=
SARC 110900Z 00000KT 9999 FEW035 FEW050CB OVC100 28/24 Q1009=
SARE 110900Z 14002KT 9999 FEW056CB OVC100 26/24 Q1009=
SARF 110900Z 34002KT 9999 BKN020 26/23 Q1009=
SARI 110900Z 05005KT CAVOK 23/22 Q1013=
SARP 110900Z NIL=
SASA 110900Z 07002KT 9999 FEW025 SCT200 20/17 Q1013=
SASJ 110900Z 00000KT 9999 FEW030 SCT100 24/20 Q1010=
SAWE 110900Z NIL=
SAWG 110900Z 32004KT CAVOK 09/05 Q1010=
SAZM 110900Z 20006KT 9999 FEW020 14/07 Q1016=
SAZS 110900Z 00000KT CAVOK 08/05 Q1022=

0000027500
460
SAAG41 KWBC 110900
METAR
SAAC NIL=
SAAV NIL=
SAGS NIL=
SANE NIL=
SANT 110900Z NIL=
SANU NIL=
SAOR NIL=
SARL 110900Z NIL=
SATM NIL=
SAVC 110900Z 00000KT CAVOK 12/08 Q1017=
SAVT NIL=
SAZB NIL=
SAZN 110900Z 11002KT CAVOK 16/02 Q1018=

0000020400
461
SACA33 KWBC 110900 RRA
METAR
TBPB 110900Z 05015KT 9999 SCT016 BKN035 22/21 Q1014 NOSIG=
TGPY 110900Z 07007KT 9999 SCT018 24/23 Q1014=
TTPP 110900Z 00000KT 9999 FEW015 21/20 Q1013=

0000054700
462
SAJP31 KWBC 110900 RRA
METAR
RJAA 110900Z 15004KT 9999 FEW030 BKN/// 01/M05 Q1024 NOSIG RMK
     1CU030 A3024=
RJCC 110900Z 26005KT 220V340 9999 FEW020 M07/M16 Q1019 RMK 1CU020
     A3011=
RJFK 110900Z 34005KT 9999 FEW040 BKN050 06/M03 Q1027 RMK 1CU040
     7SC050 A3035=
RJOO 110900Z 36004KT 9999 FEW030 BKN060 06/M03 Q1027 RMK 1CU030
     6SC060 A3034=
RJTT 110900Z 00000KT 9999 FEW025 SCT/// 07/M05 Q1024 NOSIG RMK
     1CU025 A3024 MOD TURB OBS AT 0841Z 4NM SE UMUKI BTN 7000FT
     AND 6000FT BY B734=

0000052100
463
SAPR41 KWBC 110900
METAR
SPCL 110900Z 03003KT 9999 SCT015 BKN060 25/23 Q1010 RMK PP000=
SPEC NIL=
SPEI NIL=
SPEO NIL=
SPGM NIL=
SPHI 110900Z 18008KT CAVOK 22/20 Q1010 RMK PP000=
SPHO NIL=
SPHY NIL=
SPJA NIL=
SPJI NIL=
SPJL 110900Z NIL=
SPJN NIL=
SPJR 110900Z VRB02KT 9999 SCT043 09/09 Q1025 RMK PP000=
SPME 110900Z NIL=
SPMS NIL=
SPNC NIL=
SPPY NIL=
SPRU 110900Z 13005KT 8000 BKN004 OVC035 20/18 Q1010 RMK BR
     PP000=
SPST 110900Z NIL=
SPTU NIL=
SPUR NIL=

0000044000
464
SATG20 DXXX 110900
METAR DXDP 110900Z 08012KT 5000 HZ NSC 25/02= 
METAR DXMG 110900Z 04008KT 2000 HZ NSC 25/03=
METAR DXNG 110900Z 08011KT 7000 NSC 25/01 Q1017 NOSIG=
METAR DXLK 110900Z 10006KT 8000 NSC 24/07 Q1013=
METAR DXSK 110900Z 04006KT 8000 NSC 27/07=
METAR DXAK 110900Z 28002KT 7000 FEW013 BKN260 26/22 Q1012=
METAR DXTA 110900Z NIL=
METAR DXXX 110900Z 24004KT 220V280 7000 SCT012 27/25 Q1013 NOSIG=

0000010000
465
SAAL41 DAMM 110900 RRD
METAR DAUT 110900Z 10010KT 9999 BKN046 SCT120 14/05 Q1018=

0000009800
466
SAFR32 LFPW 110900 RRA
METAR LFCK 110900Z AUTO 27005KT 6000 OVC021 08/07 Q1021=

0000011000
467
SAAF05 LFPW 110900 RRA
METAR DBBB 110900Z VRB03KT 3000  BR SCT010 BKN200 27/26 Q1012 NOSIG=

0000026200
468
SAAF08 LFPW 110900 RRA
METAR DFFD 110900Z 08011KT 4000 DU NSC 25/03 Q1017 BECMG 6000 NSW=
METAR GABS 110900Z 07009KT CAVOK 27/04 Q1015 NOSIG=
METAR GAMB 110900Z 10014KT 6000 NSC 27/M03 Q1015=
METAR GANR 110900Z 36004KT CAVOK 21/01 Q////=

0000021600
469
SAAF13 LFPW 110900 RRA
METAR GBYD 110900Z 03004KT CAVOK 18/13 Q1014=
METAR GGOV 110900Z 35004KT 320V020 CAVOK 19/09 Q1014 NOSIG=
METAR GVAC 110900Z 04004KT 9999 SCT014 SCT200 19/13 Q1016 NOSIG=

0000016000
470
SAAF14 LFPW 110900 RRA
METAR DRRN 110900Z 09017KT 3000 BLDU NSC 23/M03 Q1017 NOSIG=
METAR FTTJ 110900Z 05014KT 7000  NSC 23/04 Q1019 NOSIG=

0000033400
471
SAAF17 LFPW 110900 RRA
METAR HEAX 110900Z 20003KT 9999 SCT020 18/11 Q1026 NOSIG=
METAR HEGN 110900Z 34014KT 8000 FEW025 19/10 Q1024 NOSIG=
METAR HELX 110900Z 00000KT CAVOK 17/10 Q1025 NOSIG=
METAR HEMM 110900Z 26012KT 9999 SCT020 BKN025 15/10 Q1027 NOSIG=
METAR HESN 110900Z 36010KT CAVOK 17/05 Q1024 NOSIG=

0000009900
472
SAAF27 LFPW 110900 RRA
METAR DGAA 110850Z 25007KT 9000 SCT015 28/24 Q1013 NOSIG=

0000021500
473
SAKN20 HKNC 110900
METAR HKJK 110900Z 03011KT 360V070 9999 FEW027 26/10 Q1022 NOSIG=
METAR HKMO 110900Z 33008KT 9999 BKN024 31/20 Q1013 NOSIG=
METAR HKEL 110900Z NIL=
METAR HKKI 110900Z NIL=

0000026800
474
FTCN31 CWAO 110900 AAA
TAF AMD CYKA 110908Z 1109/1119 08015KT P6SM SCT020 OVC050 TEMPO
     1109/1114 5SM -SHRA BR BKN020
    FM111400 10015G25KT P6SM SCT050 TEMPO 1114/1119 BKN050
     BECMG 1116/1118 26012G22KT
    RMK NXT FCST BY 111300Z=

00000000