0000018300
475
FCRS36 RUMS 110500
TAF ULOO 110500Z NIL=
TAF ULPB 110500Z NIL=
TAF UUOO 110500Z 1106/1115 26008MPS 4000 SNRA BKN007 650200 530002
BECMG 1108/1110 26009G14MPS=

0000056400
476
FCRS34 RUMS 110500
TAF URWW 110450Z 1106/1115 19011G17MPS 2000 -SHRA BR BKN007 SCT020CB
BKN100 530002 TEMPO 1106/1110 23008G14MPS 0700 FG BKN003 SCT020CB
BKN100 BECMG 1110/1112 25010G15MPS=
TAF UWKS 110450Z 1106/1115 16010G15MPS 2100 -SHSNRA BR OVC006
BKN012CB 650060 530001 TEMPO 1106/1112 0800 +SHSNRA OVC003
BKN012CB=
TAF UWOR 110500Z 1106/1115 27006MPS 1200 SN BR OVC006 650060 TEMPO
1106/1109 0500 FZDZ FZFG VV002 640000=
TAF UWSS 110500Z 1106/1115 19009MPS 1000 SNRA BR OVC003 530002 TEMPO
1106/1115 0300FG OVC002 650030=

0000008800
477
SAAG05 SABM 110500 RRA
METAR SAZS 110500Z  00000KT CAVOK 11/05 Q1022=

0000047700
478
SAID32 WIII 110500
METAR WIPT 110500Z 23004KT 180V270 9999 FEW020 30/23 Q1011= 
METAR WIOO 110500Z 06003KT 9999 BKN012 32/24 Q1010 NOSIG= 
METAR WIPP 110500Z 03004KT 8000 -RA BKN015 FEW020CB 25/24 Q1011= 
METAR WALL 110500Z 02005KT 9000 SCT018 BKN090 30/23 Q1009 NOSIG= 
METAR WADL 110500Z 27008KT 8000 HZ FEW015CB SCT016 31/24 Q1009= 
METAR WIBB 110500Z 36011KT 9999 SCT015 31/24 Q1010 NOSIG= 
METAR WAMM NIL=
METAR WIDN NIL=
METAR WAOO NIL=

0000025200
479
FTMA31 FIMP 110510
TAF FIMP 110510Z 1106/1212 09010KT 9999 SCT017 PROB30 TEMPO
1118/1206 7000 -SHRA FEW010 BKN016 BKN050=
TAF FIMR 110515Z 1106/1200 10015G25KT 9999 SCT017 PROB30 TEMPO
1106/1114 7000 -SHRA FEW010 BKN016 BKN050=

0000011900
480
SPCN31 CWAO 110510
SPECI CYZX 110510Z 24002KT 6SM -SHSN SCT008 OVC012 RMK SF3SC5 WNDY
HILL UNAVBL=

0000050500
481
SAMG20 FMMI 110500
METAR FIMP 110500Z 09010KT 9999 SCT018 29/24 Q1017=
METAR FJDG 110455Z 28012KT 9999 FEW020 BKN050 OVC080 27/25 A2989 RMK
      SLP119 T02690253=
METAR FMEE 110500Z 09020KT 9999 FEW026 29/23 Q1015 NOSIG=
METAR FMCH 110500Z 35005KT 310V030 9999 FEW020 30/24 Q1014 NOSIG=
METAR FIMR 110500Z 10016KT 8000 -SHRA BKN017 28/25 Q1017=
METAR FMCZ 110504Z VRB03KT 9999 FEW021 BKN300 29/24 Q1014 NOSIG=
METAR FMEP 110500Z AUTO 25004KT 210V290 9999 NCD 28/23 Q1015=

0000045500
482
FTUS53 KWBC 110509 AAA
TAF AMD
KCMI 110507Z 1105/1124 21007KT 1/4SM -RA FG VV002
     FM111000 22012KT 1SM BR OVC003
     FM111400 26012G18KT P6SM OVC015
     FM111800 27014G22KT P6SM BKN025
     FM112200 27014KT P6SM SCT250=
KCMI 110506Z 1105/1124 21007KT 1/4SM FG VV002
     FM111000 22012KT 1SM BR OVC003
     FM111400 26012G18KT P6SM OVC015
     FM111800 27014G22KT P6SM BKN025
     FM112200 27014KT P6SM SCT250=

0000021100
483
FTUS80 KWBC 110509
TAF
TAF TJSJ 110501Z 1105/1124 08008KT P6SM FEW025
      TEMPO 1105/1106 5SM SHRA BKN030
     FM110600 VRB04KT P6SM VCSH FEW025
     FM111330 07016G25KT P6SM SCT025=

0000077700
484
FTUS80 KWBC 110509 AAA
TAF AMD
KALB 110506Z 1105/1124 19006KT P6SM SCT009 OVC015
      TEMPO 1105/1108 3SM BR BKN009
     FM110800 16006KT 3SM -FZRAPL BR SCT009 OVC015
      TEMPO 1108/1110 1SM -FZRAPL BR OVC009
     FM111000 16006KT 4SM -SHRA BR OVC010
     FM111200 18010KT 4SM -SHRA BR OVC010
     FM111600 18012G23KT 3SM -SHRA OVC010=
KCMI 110507Z 1105/1124 21007KT 1/4SM -RA FG VV002
     FM111000 22012KT 1SM BR OVC003
     FM111400 26012G18KT P6SM OVC015
     FM111800 27014G22KT P6SM BKN025
     FM112200 27014KT P6SM SCT250=
KCMI 110506Z 1105/1124 21007KT 1/4SM FG VV002
     FM111000 22012KT 1SM BR OVC003
     FM111400 26012G18KT P6SM OVC015
     FM111800 27014G22KT P6SM BKN025
     FM112200 27014KT P6SM SCT250=

0000020400
485
FTAH10 OAKN 110500
TAF OAKN 1106/1206 07010KT 8000 SCT035
     BECMG 1106/1108 VRB06KT NSC
     TEMPO 1110/1114 27008KT
     BECMG 1118/1120 08010KT
     BECMG 1202/1204 BKN100=

0000009200
486
SPUS43 KWBC 110508
SPECI
KOMA 110504Z 00000KT 3SM BR CLR M03/M04 A2961=

0000011100
487
SPUS43 KWBC 110509
SPECI
KCMX 110505Z AUTO 06003KT 1SM -SN BR SCT002 OVC018 M03/M04 A2947=

0000015300
488
SAJP41 KWBC 110500 RRA
METAR
RJAW 110500Z 05013KT 9999 FEW030 SCT050 20/07 Q1021 RMK 2CU030
     4SC050 A3016=
RJCM 110500Z NIL=

0000008900
489
SASA42 KWBC 110500 RRA
METAR
SCTC 110500Z VRB01KT CAVOK 07/06 Q1019=

0000008900
490
SASA32 KWBC 110500 RRA
METAR
SULS 110500Z 00000KT CAVOK 21/20 Q1010=

0000018700
491
FTAU32 YBBN 110500 AAA
TAF AMD YBTL 110511Z 1106/1206
08016KT 9999 SCT025 SCT045
FM111000 12012KT 9999 -SHRA SCT020 BKN040
INTER 1118/1206 4000 SHRA BKN016
RMK=

0000043900
492
FTJD20 OJAM 110500
TAF OJAI  110450Z 1106/1212 26008KT 6000 SCT030 SCT035 BECMG
1118/1120 VRB03KT 8000 NSC TEMPO 1202/1206 3000 BR SCT025 BECMG
1206/1208 24005KT 7000 NSC=
TAF OJAM  110450Z 1106/1212 26010KT 5000 HZ SCT030 SCT035 BECMG
1116/1118 VRB03KT 7000 FEW030 TEMPO 1203/1206 3000 BR SCT025 BECMG
1206/1208 23008KT 6000 NSC=
TAF OJAQ  110450Z 1106/1212 35010KT 7000 NSC TEMPO 1122/1206 01008KT
CAVOK=

0000010100
493
SPIY40 LIIB 110500
SPECI LIMP 110500Z VRB01KT 0050 R20/0300N FG VV/// 08/07 Q1023=

0000011500
494
SPCN31 CWAO 110508
SPECI CYUL 110508Z 03009KT 8SM OVC028 M06/M08 A3012 RMK SC8 PRESFR
 SLP203=

00000000