0000062500
575
FPAE44 OMAE 111710
station,wdir,wspeed,temperature,dewpoint,pressure,time,date
"Al-Ain International Airport", 350,    8,  19,  11,1021.0,17:00,11.01.2014
"Bateen Airport",  10,    5,  18,  16,1021.0,17:00,11.01.2014
"Abu Dhabi International Airport",   -,    -,   -,   -,     -,17:00,11.01.2014
"Dubai International Airport",   -,    -,   -,   -,     -,17:00,11.01.2014
"Sharjah International Airport", 330,    4,  17,  16,1021.0,17:00,11.01.2014
"Ras al-Khaimah International Airport", 300,    5,  17,  16,1021.0,17:00,11.01.2014
"Fujairah Airport", 250,    1,  19,  13,1021.0,17:00,11.01.2014
0000192000
576
SZAU01 AMMC 111718
CREX++
T000103 A001 D01021 D06025++
-1927750 14705860 59260 2014 01 11 17 11 3022 11 07 00 01
01275 0171 01288 0175 01295 0173 01305 0175 01316 0176 01320 0172+
-2316110 15079000 59670 2014 01 11 17 11 2998 11 07 00 01
02239 0165 02250 0166 02263 0168 02281 0172 02287 0167 02304 0171+
-3447330 15091170 60420 2014 01 11 17 11 2945 11 07 00 01
01208 -0032 01212 -0032 01209 -0038 01213 -0038 01217 -0038 01224 -0034+
-4105000 14591500 60910 2014 01 11 17 11 2888 11 07 00 01
01069 -0086 01078 -0083 01084 -0083 01087 -0086 01085 -0093 01103 -0082+
-4254640 14793080 61170 2014 01 11 17 11 2903 11 07 00 01
01427 0014 01423 0008 01426 0009 01420 0001 01418 -0003 01425 0002+
-3834390 14161360 61410 2014 01 11 17 11 2908 11 07 00 01
00714 0019 00733 0039 00733 0039 00721 0028 00715 0023 00727 0035+
-3214890 13364170 62000 2014 01 11 17 11 2955 11 07 00 01
01307 0025 01304 0026 01301 0027 01297 0027 01293 0027 01286 0025+
-3387080 12189720 62080 2014 01 11 17 11 2948 11 07 00 01
00786 0035 00772 0023 00779 0032 00769 0024 00753 0010 00747 0006+
-3182560 11573860 62237 2014 01 11 17 11 2972 11 07 00 01
00621 0082 00625 0087 00627 0090 00627 0091 00626 0091 00624 0090+
-2422000 11339750 62385 2014 01 11 17 11 //// 11 07 00 01
00637 -0150 00745 -0042 00690 -0096 00660 -0125 00730 -0055 00632 -0152+
-2181670 11419110 62430 2014 01 11 17 11 //// 11 07 00 01
01230 -0118 01232 -0114 01242 -0103 01246 -0097 01259 -0083 01235 -0106+
-1800080 12221830 62650 2014 01 11 17 11 3043 11 07 00 01
04478 0243 04473 0242 04468 0239 04462 0237 04456 0233 04452 0233+
-1247190 13084580 63230 2014 01 11 17 11 3050 11 07 00 01
05118 -0109 05117 -0110 05119 -0106 05119 -0105 05118 -0104 05117 -0104+
-1386000 13641580 63511 2014 01 11 17 11 3042 11 07 00 01
01591 0095 01590 0097 01586 0095 01585 0096 01583 0096 01581 0097++
7777

0000034700
577
SZIO01 AMMC 111718
CREX++
T000103 A001 D01021 D06025++
-1211670 09689190 46280 2014 01 11 17 11 3018 11 07 00 01
00710 -0010 00712 -0010 00715 -0008 00716 -0008 00722 -0003 00719 -0007+
-1042940 10566940 46290 2014 01 11 17 11 //// 11 07 00 01
00642 0015 00646 0019 00642 0015 00631 0003 00657 0029 00645 0016++
7777

0000178800
578
SZPS01 AMMC 111718
CREX++
T000103 A001 D01021 D06025++
-0204190 14737360 56130 2014 01 11 17 11 3023 11 07 00 01
00759 0101 00761 0101 00757 0095 00757 0094 00754 0089 00752 0085+
-0669280 15640860 56363 2014 01 11 17 11 //// 11 07 00 01
00626 -0056 00626 -0056 00624 -0057 00621 -0059 00621 -0058 00620 -0058+
-0942890 15995560 56670 2014 01 11 17 11 3038 11 07 00 01
00640 -0063 00643 -0061 00642 -0063 00643 -0063 00645 -0062 00649 -0060+
-1072080 16580190 57131 2014 01 11 17 11 //// 11 07 00 01
02835 2067 02956 2190 03255 2490 03306 2542 03372 2610 02878 2118+
-1551560 16718860 57210 2014 01 11 17 11 //// 11 07 00 01
01031 -0119 01030 -0118 01021 -0125 01033 -0112 01022 -0121 01036 -0105+
-1775690 16830030 57320 2014 01 11 17 11 3015 11 07 00 01
01146 -0019 01143 -0021 01138 -0026 01131 -0032 01125 -0037 01119 -0043+
-4397330 16861610 65180 2014 01 11 17 11 2880 11 07 00 01
01841 0422 01914 0489 01923 0493 01818 0382 01934 0493 01923 0476+
-2120470 -15978530 65980 2014 01 11 17 11 3008 11 07 00 01
00749 0008 00753 0013 00812 0073 00761 0023 00752 0015 00730 -0006+
-2113810 -17518140 66600 2014 01 11 17 11 //// 11 07 00 01
01418 0089 01420 0093 01422 0097 01421 0099 01415 0096 01413 0096+
-1382670 -17176110 66840 2014 01 11 17 11 3010 11 07 00 01
00930 0065 00932 0070 00931 0071 00927 0070 00922 0068 00916 0064+
-1813250 17842750 67050 2014 01 11 17 11 3030 11 07 00 01
01548 0080 01554 0088 01544 0080 01541 0080 01539 0081 01542 0086+
-1760530 17743810 67070 2014 01 11 17 11 3028 11 07 00 01
01664 0028 01660 0027 01656 0026 01654 0027 01651 0027 ///// ////+
-0850250 17919500 67440 2014 01 11 17 11 3027 11 07 00 01
02158 0021 02152 0018 02144 0013 02142 0016 02133 0010 02133 0014++
7777

0000046900
579
SZPA01 AMMC 111718
CREX++
T000103 A001 D01021 D06025++
0136250 17293000 67590 2014 01 11 17 11 3015 11 07 00 01
01642 -0008 01655 0008 01652 0008 01645 0005 01652 0015 01619 -0015+
0710610 17137250 67680 2014 01 11 17 11 3013 11 07 00 01
01010 0055 01007 0054 01007 0057 01004 0057 00989 0045 00990 0048+
0698060 15820000 67950 2014 01 11 17 11 3022 11 07 00 01
00705 0083 00705 0083 00704 0083 00705 0084 00706 0086 00707 0088++
7777

0000024100
580
SOAT10 KWAL 111718
FA8005BC 011171837 OT12 ID:KN-BASS-01 DT:2014 01 11 17 16
:RD -3074 -3035 -3091 -3046 -3065 -3090 -3057 -3076 -3039 -3058
:PR 0560 0568 0601 0619 0538 0603 0584 0595 0617 0608
:B 13.7V
 46+1NN 219E
0000036400
581
SXXX32 EUMS 111712
22E595B6
:PRS 1 /1 M 2911 2882 2917 2866 2935 2939 2906 2951 2905 2902 2949 2886 2916 2892 2908 2904 2896 2897 2911 2883 2892 2911 2871 2918 2891 2922 2956 2885 2929 :RAD 1 /3 6086 6093 6089 6083 6079 6078 6078 6082 6085 6078 :ENC 2 /5 4207 4216 4201 4193 4202 4197 :SW1 12 /60 60 :SW2 42 /60 60 :BAT 14 /15 12.5 :NAME 22E595B6
0000044600
582
SXXX32 EUMS 111713
32BD7124
:PRS 1 /1 1854 1852 1849 1849 1849 1848 1848 1845 1844 1845 1847 1848 1849 1848 1846 1845 1842 1843 1844 1844 1845 1841 1838 1833 1829 1829 1828 1825 1825 1819 :RAD 3 /3 7636 7632 7629 7629 7630 7628 7624 7616 7609 7604 7599 7597 7593 7587 7575 7563 7555 7547 7546 7546 :ENC 3 /5 4630 4626 4625 4625 4613 4601 4595 4590 4575 4557 4543 4540 :SW1 14 /60 0 :SW2 44 /60 60 :BAT 14 /15 12.4 :NAME 32BD7124
0000070100
583
SXXX32 EUMS 111713 RRA
223412A2
OT12 ID:IND-SADENG DT:2014 01 11 17 12
:PRS /1 01078 01055 01073 01122 01140 01156 01088 01145 01140 01151 01023 01080 01094 01106 01160 01169 01148 01081 01074 01073 01100 01076 01041 01055 01082 01109 01138 01080 01058 01144
:ENC /1 -13633 -13646 -13629 -13609 -13576 -13583 -13623 -13573 -13559 -13569 -13663 -13633 -13629 -13649 -13579 -13526 -13563 -13623 -13606 -13619 -13623 -13629 -13646 -13649 -13633 -13606 -13566 -13633 -13639 -13593
:RAD /1 10850 10803 10825 14449 13279 10960 10870 10892 10926 10906 10790 10820 10801 10794 10837 11010 10909 10870 10866 10882 10815 10833 10855 10815 10800 10899 10901 10832 10893 10798
:BAT 11.8V
0000040600
584
SXXX32 EUMS 111715
262D700E
:PRS 1 /1 3365 3380 3383 3400 3396 3421 3393 3385 3422 3383 3394 3405 3425 3448 3437 3414 3396 3385 3384 3343 3409 3448 3471 3453 3535 3457 3459 3446 3433 3407 :RAD 1 /3 5845 5843 5848 5865 5860 5854 5876 5889 5877 5884 5906 5895 5888 5908 5914 :ENC 5 /5 5949 5981 5962 5994 5993 6003 6010 6004 6022 6012 6027 6043 :SW1 15 /60 0 :BAT 14 /15 13.1 :NAME 262D700E
0000034900
585
SAMX42 MMGL 110754
METAR MMGL 110751Z 00000KT 10SM  BKN030 12/06 A3020 RMK 8/500=
METAR MMMM 110745Z 00000KT 7SM  BKN030 12/09 A3025 RMK 8/500=
METAR MMPR 110747Z 00000KT 10SM  SCT070 18/16 A2997 RMK 8/030=
METAR MMSP 110746Z 00000KT 8SM  SCT080 08/05 A3024 RMK 8/030 SC=
METAR MMZC 110740Z 21006KT 10SM  SKC 02/M03 A3028=

0000045500
586
SANO37 ENMI 110750
METAR ENNO 110750Z NIL=
METAR ENOV 110750Z VRB01KT CAVOK M08/M09 Q0998 RMK WIND 2175FT
           VRB01KT=
METAR ENSD 110750Z NIL=
METAR ENSG 110750Z 00000KT 5000 VCFG FEW/// SCT005 BKN018 M03/M03
           Q0993 RMK WIND 4226FT 28027KT=
METAR ENSN 110750Z NIL=
METAR ENSR 110750Z NIL=
METAR ENSS 110750Z 04021KT 8000 4000E -SHSN -DRSN FEW022 SCT035
           M03/M06 Q1015 RMK WIND 500FT 28006KT=

0000125300
587
FTUS80 KWBC 110754 AAA
TAF AMD
KAPN 110751Z 1108/1206 15009KT P6SM -RA OVC006 WS020/20040KT
      TEMPO 1108/1109 BKN012
     FM110900 18009KT 3SM -RA BR OVC005 WS020/20040KT
     FM111800 27009KT 4SM -SN BR OVC012
     FM120000 26007KT P6SM OVC025=
KCHS 110750Z 1108/1206 19007KT P6SM BKN007
     FM111000 20008KT 4SM BR BKN004
      TEMPO 1110/1113 2SM BR OVC002
     FM111530 20012G18KT P6SM SCT008 BKN025
     FM112000 21014G24KT 3SM +RA SCT015 OVC030
     FM112300 25010KT P6SM SCT015 BKN060=
KLUK 110751Z 1108/1206 VRB03KT 2SM -SHRA BR OVC035
      TEMPO 1108/1109 3/4SM -RA BR BKN012 OVC028
     FM110900 18006KT 5SM -SHRA BR OVC025
     FM111300 21010G18KT P6SM VCSH OVC015
     FM111600 25012G22KT P6SM OVC025
     FM120000 26011KT P6SM BKN020=
KSAV 110752Z 1108/1206 18003KT 1/2SM FG VV002
     FM110900 18004KT 1/4SM FG VV001
     FM111300 19009KT 4SM BR OVC004
     FM111500 21012G18KT P6SM SCT005 BKN025
     FM111900 21015G24KT 3SM +RA SCT015 OVC030
     FM112200 26010KT P6SM SCT040 BKN080=
KTVC 110752Z 1108/1206 14006KT 6SM -RA BR OVC025 WS020/20030KT
      TEMPO 1108/1110 BKN015
     FM111000 22005KT 3SM -RASN BR OVC008
     FM111500 27008KT 4SM -SN BR OVC015=

0000009400
588
SPUS42 KWBC 110754
SPECI
KBTR 110750Z 22016KT 8SM -RA OVC010 21/19 A2983=

0000011300
589
SPUS44 KWBC 110754
SPECI
KPAE 110750Z AUTO 15015KT 2 1/2SM -RA BR FEW024 OVC029 09/08 A2956=

0000034100
590
SAEO32 EETN 110750
METAR EEKA 110750Z 24004KT 5000 SHSN SCT013CB BKN018 00/M00 
Q0999=
METAR EEKE 110750Z 28004KT 250V340 9999 FEW004 BKN011CB BKN025 00/00 
Q1001 R17/390193=
METAR EETU 110750Z 29009KT 5000 -SHSN BKN009 BKN016CB OVC022
M01/M02 Q0998=
METAR EEPU 110750Z 25004KT 9999 BKN006 OVC019 01/M00 Q0999=

0000034000
591
SADL33 EDZO 110750
METAR EDFE 110750Z 15003KT 9000 FEW040 BKN070 00/M01 Q1017=
METAR EDFH 110750Z 23007KT 9999 -RA FEW030 BKN033 04/02 Q1015=
METAR EDFM 110750Z 11002KT 9999 FEW048 BKN062 01/01 Q1017=
METAR EDLV 110750Z 22007KT 3200 BR BKN003 03/02 Q1014=
METAR EDVK 110750Z 09003KT 060V120 8000 NSC 00/M01 Q1015=

0000056800
592
SADL34 EDZO 110750
METAR EDGS 110750Z 22006KT 190V250 9999 2800SE  PRFG FEW001 SCT086
01/01 Q1014=
METAR EDHL 110750Z 21009KT 4500 BR SCT008 BKN010 06/04 Q1011=
METAR EDLN 110750Z 14002KT 8000 NSC M01/M01 Q1015=
METAR EDLP 110750Z 19013KT CAVOK 03/M02 Q1014=
METAR EDLW 110750Z 20011KT CAVOK 02/M00 Q1014=
METAR EDMA 110750Z 16003KT 8000 NSC M01/M01 Q1017=
METAR EDQM 110750Z 18004KT 150V230 CAVOK M00/M02 Q1016=
METAR EDRZ 110750Z VRB02KT 8000 BKN047 00/M00 Q1016=
METAR EDSB 110750Z 00000KT 5000 -RA BR SCT030 BKN050 01/00 Q1017=

0000034700
593
SANO36 ENMI 110750
METAR ENBS 110750Z 22005KT 9999 -SHSN SCT030 BKN060 M08/M12 Q1015=
METAR ENHK 110750Z NIL=
METAR ENHV 110750Z NIL=
METAR ENLK 110750Z 10015KT CAVOK M05/M014 Q1013=
METAR ENMH 110750Z NIL=
METAR ENNK 110750Z 03014KT 360V090 9999 FEW035 M08/M14 Q1016=
METAR ENNM 110750Z 08013KT CAVOK M10/M16 Q1006=

0000028400
594
SADL35 EDZO 110750
METAR EDAH 110750Z 23013KT 8000 BKN015 05/03 Q1011=
METAR EDHK 110750Z 23011KT 200V260 5000 -DZ BR OVC007 06/05 Q1008=
METAR EDJA 110750Z VRB02KT 9000 NSC M01/M01 Q1016=
METAR EDXW 110750Z 24014KT 5000 DZ FEW004 SCT011 BKN021 07/06
Q1007=

00000000