0000009700
555
SARW20 HRYR 110930
METAR
HRYR 110930Z 00000KT 9999 SCT023 25/18 Q1021 NOSIG=

0000009500
556
SAQB31 LQSM 110930
METAR LQSA 110930Z 00000KT 8000 FEW050 09/05 Q1023 NOSIG=

0000040400
557
SAMG20 FMMI 110900
METAR 110900Z
METAR FMMI 110900Z VRB04KT 9999  SCTT020CB  BKN023 28/23 1021
NOSIG=
METAR FMNA 110900Z NIL=
METAR FMNN 110900Z 18008KT 9999 SCT020CB 32/27 Q1010=
METAR FMSD 110900Z 12004KT 9999 FEW020TCU SCT230 30/25 Q1014=
METAR FMMT 110900Z 12008KT 9999 VCSH SCT017CB 31/27 Q1013 NOSIG=
METAR FMNM 110900Z 22006KT 9999 FEW020 SCT230 32/25 Q1011 NOSIG=

0000010100
558
SALT32 EYVI 110920
METAR EYKA 110920Z 27010KT 9999 OVC015 03/M00 Q1006 R08/190095=

0000013300
559
SAMP31 LMMM 110930
METAR HLLT NIL=
METAR HLLB NIL=
METAR LMML 110915Z 19008KT 160V220 CAVOK 17/14 Q1024 NOSIG=

0000009100
560
SPCN52 CWAO 110920
SPECI CWFD 110920Z AUTO 02004KT 1/8SM CLR M23/ A2905=

0000013200
561
SAEA20 HKNC 110900 RRA
METAR HKKG 110900Z 09005KT 9999 FEW026 26/13=
METAR HKNK 110900Z  00000KT  CAVOK  24/05=

0000011400
562
SALT33 EYVI 110920
METAR EYPA 110920Z 27009KT 210V310 9999 -RA OVC010 05/05 Q1005
R19/2///95=

0000010700
563
SAHW31 KWBC 110900 RRA
METAR
PHTO 110917Z AUTO 07004KT 10SM BKN027 OVC032 19/19 A2998=

0000066600
564
FTUS71 KWBC 110921 AAA
TAF AMD
KACK 110918Z 1109/1206 17009KT 1/2SM FG OVC002
     FM111200 17012KT 3SM -RA BR OVC008
     FM111700 18021G30KT 2SM -RA BR OVC008 WS020/19055KT
     FM112100 18026G40KT 1SM BR OVC008 WS020/20065KT
     FM120100 19028G44KT 2SM +RA BR OVC008 WS020/20065KT
     FM120400 20024G35KT 3SM -SHRA BR OVC008 WS020/21055KT=
KMYR 110919Z 1109/1206 19012G15KT P6SM BKN003 BKN017 OVC035
     FM111600 19012G20KT P6SM VCSH BKN018
      TEMPO 1120/1124 20020G30KT 2SM +SHRA BKN012CB
     FM120000 21012G19KT P6SM VCSH BKN025
     FM120300 25013G23KT P6SM SCT030 AMD LTD TO CLD VIS AND WIND
      TIL 111100=

0000025100
565
FTUS73 KWBC 110921
TAF
TAF KBKF 1109/1215 27012KT 9999 FEW110 SCT220 QNH2983INS
      BECMG 1117/1118 27015G25KT 9999 SCT150 520009 QNH2976INS
      BECMG 1200/1201 21009KT 9999 SCT120 QNH2965INS TX12/1121Z
      TN00/1214Z=

0000025000
566
FTUS74 KWBC 110921 AAA
TAF AMD
KOTH 110919Z 1109/1206 20022G39KT 6SM -RA BR BKN014 OVC025
      WS015/23060KT
     FM111200 20025G42KT 3SM RA BR OVC012 WS015/23060KT
     FM112200 27020G30KT P6SM -SHRA SCT015 BKN050 OVC070=

0000011700
567
SPUS42 KWBC 110920
SPECI
KFTY 110916Z 00000KT 1 3/4SM +RA BR FEW008 BKN037 OVC070 12/11
A2985=

0000008800
568
SAAG05 SABM 110900 RRB
METAR SARP 110900Z  09004KT CAVOK 25/21 Q1011=

0000010600
569
SAUS71 KWBC 110900 RRF
METAR
KMTN 110921Z AUTO 00000KT 1 1/2SM RA OVC001 04/04 A3000=

0000009500
570
SABW31 VGHS 110920
METAR VGHS 110920Z 34008KT 4000 HZ NSC 27/12 Q1013 NOSIG=

0000020900
571
SAUS72 KWBC 110900 RRD
METAR
KBQK 110915Z AUTO 20006KT 7SM SCT003 18/17 A3002=
KLRU 110915Z AUTO 31004KT 10SM CLR 03/M09 A3015=
TNCM 110900Z 08013KT 9999 FEW020 24/19 Q1017 A3005 RERA=

0000026100
572
SAUS73 KWBC 110900 RRE
METAR
KALN 110915Z AUTO 27010KT 7SM 05/05 A2957=
KGYY 110915Z AUTO 20005KT 7SM RA OVC005 06/05 A2945=
KIKK 110915Z AUTO 20008KT 1SM -DZ OVC002 03/03 A2946=
KSAW 110917Z AUTO 01003KT 3SM -SN OVC006 M02/M02 A2932=

0000030200
573
FTIN32 VABB 111500 RRB
TAF VOTV 111500Z 1118/1224 00000KT 4000 HZ FEW015 SCT100
    TEMPO 1200/1203 2000 BR/HZ FEW025CB BECMG 1204/1205 14005KT 5000
     HZ TEMPO 1209/1212 2000 TSRA/RA SCT008 SCT012 FEW025CB OVC090
     BECMG 1217/1218 00000KT 4000 HZ=
TAF VRMM 111500Z NIL=

0000009200
574
SAIN90 VOMM 111710
METAR VOMM 111710Z 07004KT 6000 FEW020 23/19 Q1015 NOSIG=
00000000