0000019400
695
SANO39 ENMI 110820 RRA
METAR ENNE 110820Z 07027KT 9999 VCSH BKN026 M03/M10 Q1006 W02/S/=
METAR ENHM 110820Z 28026KT 9999 -SHRA FEW020 SCT052 06/02 Q0998
           W08/S5=

0000085900
696
SATU31 LTAA 110820
METAR LTAC 110820Z VRB03KT 8000 OVC008 M03/M04 Q1025 NOSIG=
METAR LTAF 110820Z 01004KT 350V050 CAVOK 14/M02 Q1023 NOSIG=
METAR LTAI 110820Z 36004KT 330V030 9999 FEW030 BKN200 13/06 Q1023
 NOSIG=
METAR LTAJ 110820Z 23008KT CAVOK 11/M05 Q1021 NOSIG=
METAR LTAZ 110820Z VRB01KT 6000 BKN006 M03/M04 Q1025=
METAR LTBA 110820Z 24006KT 210V270 CAVOK 10/07 Q1024 NOSIG=
METAR LTBJ 110820Z VRB01KT 5000 HZ NSC 09/04 Q1024 NOSIG=
METAR LTBS 110820Z 04006KT CAVOK 10/06 Q1024 NOSIG=
METAR LTCG 110820Z 08006KT 040V110 9999 FEW035 BKN180 13/02 Q1022
 NOSIG=
METAR LTCS 110820Z 26010KT CAVOK 10/M07 Q1021=
METAR LTFC 110820Z 00000KT 0400 R05/0650U R23/0500U FZFG VV002
 M02/M02 Q1024=
METAR LTFE 110820Z 00000KT 6000 SCT035 BKN100 12/09 Q1024 NOSIG=
METAR LTFJ 110820Z VRB02KT 7000 NSC 10/02 Q1024 NOSIG=

0000068400
697
SATU32 LTAA 110820
METAR LTAG 110820Z 08002KT CAVOK 14/00 Q1023 NOSIG=
METAR LTAN 110820Z NIL=
METAR LTAP 110820Z 00000KT 9999 BKN023 01/M03 Q1025 NOSIG=
METAR LTAT 110820Z VRB02KT CAVOK 03/M05 Q1022 NOSIG=
METAR LTAU 110820Z 00000KT 1400 R25/1100D R07/P1500U BCFG OVC002
 M04/M05 Q1024 BECMG TL0850 4500 BR SCT010 BKN200=
METAR LTBF 110820Z NIL=
METAR LTBU 110820Z 31004KT 1000 R05/1100N R23/1200N BCFG NSC 07/07
 Q1024=
METAR LTCC 110820Z VRB02KT CAVOK 06/M03 Q1020 NOSIG=
METAR LTCE 110820Z 00000KT 1600 R26L/1100U R08R/P1500U R26R/1100U
 R08L/1500U BR NSC M20/M21 Q1021 NOSIG=
METAR LTCJ 110820Z 29003KT 230V350 3500 BR NSC 03/M02 Q1021=

0000009500
698
SATU35 LTAA 110820
METAR LCEN 110820Z 27005KT 9999 FEW025 15/07 Q1023 NOSIG=

0000032800
699
FTUS31 KWBC 110830 AAA
TAF AMD
KBMG 110829Z 1108/1206 19012KT 3SM -SHRA BR BKN008 OVC015
     FM111000 22010KT 3SM -RA BR BCFG SCT003 OVC006
     FM111500 25012KT 4SM -DZ BR OVC009
     FM111800 25012G22KT P6SM OVC015
     FM120000 27008KT P6SM BKN025 AMD LTD TO CLD VIS AND WIND TIL
      111400=

0000057400
700
FTUS71 KWBC 110830 AAA
TAF AMD
KAND 110828Z 1108/1206 VRB04KT 1SM SHRA BR VCTS OVC004CB
     FM111100 15006KT 2SM SHRA BR OVC003 WS020/20035KT
     FM111500 20013G21KT 1SM SHRA BR VCTS OVC004CB
     FM111900 24012G18KT P6SM BKN030
     FM112200 25008KT P6SM FEW040 SCT250=
KHKY 110828Z 1108/1206 00000KT 1SM -SHRA BR SCT003 OVC007
     FM111100 17006KT 1SM SHRA BR OVC003 WS020/21040KT
     FM111800 22010KT 3SM SHRA OVC007
     FM112100 25009KT P6SM OVC015
     FM112300 27009KT P6SM BKN040
     FM120200 29009KT P6SM SCT040 BKN250=

0000029100
701
FTUS73 KWBC 110830 AAA
TAF AMD
KHUF 110827Z 1108/1206 18008KT 2SM -SHRA BR OVC003
      TEMPO 1108/1111 1/2SM FG
     FM111100 22010KT 2SM -RA BR OVC004
     FM111500 25012KT 4SM BR OVC010
     FM111800 25012G22KT P6SM OVC015
     FM120000 27010KT P6SM BKN025=

0000027800
702
FTUS74 KWBC 110830 AAA
TAF AMD
KCEC 110829Z 1108/1206 16018G28KT 6SM BR OVC008
     FM111100 17025G35KT 6SM BR OVC012
     FM111300 18018G28KT 2SM RA BR OVC008
     FM111800 19018G28KT 5SM SHRA BKN012 OVC020
     FM120300 23011KT 4SM BR VCSH OVC035=

0000009300
703
SPCN46 CWAO 110824
SPECI CYRB 110824Z 19012KT 3SM -SN DRSN OVC018 RMK SC5=

0000202600
704
SPUS70 KWBC 110832
SPECI
PANW 110825Z AUTO 00000KT 3SM BR OVC001 M09/M09 A2938 RMK AO2 TSNO
     $=
KATL 110824Z COR 13005KT 1/4SM R09R/2600V6000FT -TSRA BR OVC002CB
     09/09 A2990 RMK AO2 SFC VIS 1 RAB07TSB24 OCNL LTGIC OHD-E TS
     OHD-E MOV NE TWRINC P0002=
KBRL 110829Z AUTO 30007KT 9SM FEW008 BKN014 OVC039 09/01 A2951 RMK
     AO2 T00940006=
KDCA 110828Z 10003KT 3/4SM R01/4000VP6000FT BR OVC001 03/02 A3002
     RMK AO2 RAE16 PRESFR P0002=
KDCU 110828Z AUTO 22011KT 3SM +TSRA BR BKN048 OVC070 14/14 A2972
     RMK AO2 LTG DSNT ALQDS TSE26B28 P0030=
KDVN 110828Z AUTO 27008KT 5SM BR OVC006 01/00 A2949 RMK AO2=
KFTY 110828Z VRB03KT 4SM +RA BR OVC003 11/10 A2990 RMK AO2
     RAE0755B15 P0004=
KGWO 110828Z AUTO 25011G16KT 10SM BKN014 OVC021 17/16 A2974 RMK
     AO2 T01720161 TSNO=
KHKY 110828Z AUTO 00000KT 2SM BR OVC004 06/06 A2997 RMK AO2
     RAB0754E17 P0000=
KMKC 110828Z AUTO 27005KT 9SM SCT010 BKN021 02/00 A2968 RMK AO2
     T00220000=
KPGD 110828Z AUTO 14008KT 10SM SCT003 22/21 A3007 RMK AO2
     T02170206=
KPTK 110828Z AUTO 19006KT 1/2SM R09R/2800V4000FT FG VV002 04/04
     A2953 RMK AO2 RAE00 P0000 TSNO=
KRUE 110828Z AUTO 00000KT 2 1/2SM BR CLR 02/01 A2974 RMK AO2=
KSSF 110828Z AUTO 30003KT 3SM BR CLR 12/11 A2990 RMK AO2 $=
KVTA 110828Z AUTO 18005KT 6SM -RA BR SCT020 BKN039 OVC070 08/07
     A2968 RMK AO2 P0007 T00830067=
KEVV 110829Z AUTO 18006KT 10SM -RA BKN009 OVC065 10/09 A2958 RMK
     AO2 P0002 T01000089=
KFHR 110829Z AUTO 15018G32KT 10SM SCT011 BKN050 OVC090 09/08 A2938
     RMK AO2 PK WND 14037/0812 RAE06 P0000 T00940078=
KGIF 110829Z AUTO 15005KT 5SM BR OVC004 21/20 A3007 RMK AO2
     T02060200 TSNO=
KGNV 110829Z AUTO 11004KT 1/4SM FG BKN006 OVC016 18/17 A3004 RMK
     AO2 T01780172=
KGRD 110829Z AUTO 00000KT 1/2SM FG VV002 08/07 A2996 RMK AO2=
KHHR 110829Z AUTO 09003KT 3/4SM BR VV002 12/11 A3011 RMK AO2=
KYIP 110829Z AUTO 20007KT 2 1/2SM BR OVC004 07/04 A2956 RMK AO2
     TSNO=

0000012600
705
SPUS31 KWBC 110832
SPECI
KATL 110824Z COR 13005KT 1/4SM R09R/2600V6000FT -TSRA BR OVC002CB
09/09 A2990=

0000009700
706
SPUS42 KWBC 110832
SPECI
KFTY 110828Z VRB03KT 4SM +RA BR OVC003 11/10 A2990=

0000010200
707
SPUS43 KWBC 110832
SPECI
KMKC 110828Z AUTO 27005KT 9SM SCT010 BKN021 02/00 A2968=

0000011800
708
SPUS43 KWBC 110832
SPECI
KPTK 110828Z AUTO 19006KT 1/2SM R09R/2800V4000FT FG VV002 04/04
A2953=

0000012100
709
SASA31 KWBC 110800 RRB
METAR
SOCA 110830Z AUTO 22001KT 9999 FEW003 BKN042 OVC120 22/21
     Q1011=

0000026100
710
SACZ31 LKPW 110830
METAR LKKV 110830Z VRB01KT 6000 BCFG SCT008 M01/M01 Q1016=
METAR LKMT 110830Z 21007KT CAVOK 02/M00 Q1019 NOSIG=
METAR LKPR 110830Z 20008KT CAVOK 01/M00 Q1017 NOSIG=
METAR LKTB 110830Z 03002KT CAVOK 02/M01 Q1020 NOSIG=

0000038600
711
FCSN31 ESWI 110800
TAF ESGJ 110800Z NIL=
TAF ESGP 110830Z 1109/1118 24013KT 9000 BR SCT008 BKN020 PROB40
1109/1112 BKN006=
TAF ESGT 110800Z NIL=
TAF ESMK 110800Z NIL=
TAF ESMQ 110800Z NIL=
TAF ESMT 110800Z NIL=
TAF ESMX 110800Z NIL=
TAF ESTA 110830Z 1109/1116 23015KT 9999 -RA SCT010 BKN015 TEMPO 
1109/1115 4000 RADZ BKN008=
TAF ESTL 110800Z NIL=

0000036800
712
FCSN32 ESWI 110800
TAF ESOE 110800Z NIL=
TAF ESOK 110800Z NIL=
TAF ESOW 110800Z NIL=
TAF ESSB 110830Z 1109/1116 01004KT 9999 FEW014 BKN030 PROB40
1109/1114 4000 -SN VV009 TEMPO 1114/1116 1400 SN VV009=
TAF ESSD 110800Z NIL=
TAF ESSP 110800Z NIL=
TAF ESSV 110830Z 1109/1117 18006KT 9999 SCT008 BKN020 TEMPO 1109/1117
4000 RADZ BKN007=

0000037700
713
FCSN33 ESWI 110800
TAF ESNG 110800Z NIL=
TAF ESNK 110800Z NIL=
TAF ESNN 110800Z NIL=
TAF ESNO 110800Z NIL=
TAF ESNQ 110800Z NIL=
TAF ESNS 110800Z NIL=
TAF ESNU 110830Z 1109/1118 36014KT 5000 -SN BKN030 TEMPO 1109/1118
1400 SN VV014=
TAF ESNZ 110830Z 1109/1112 03004KT 9999 -SN BKN040 PROB40 1109/1112
4000 -SN VV014=
TAF ESUT 110800Z NIL=

0000034800
714
FCSN34 ESWI 110800
TAF ESCF 110800Z NIL=
TAF ESCM 110800Z NIL=
TAF ESDF 110800Z NIL=
TAF ESIA 110800Z NIL=
TAF ESIB 110800Z NIL=
TAF ESMV 110800Z NIL=
TAF ESNL 110800Z NIL=
TAF ESPA 110830Z 1109/1118 02010KT CAVOK PROB40 1109/1111 4000 -SN
VV014 RMK ISSUED BY ESSA=
TAF ESPE 110800Z NIL=
TAF ESSL 110800Z NIL=

00000000