0000070000
575
SAJP43 KWBC 110600
METAR
RJKI NIL=
RJKN NIL=
RJNF NIL=
RJNG NIL=
RJNH NIL=
RJNO NIL=
RJNT 110600Z 16003KT 100V200 9999 FEW008 02/01 Q1026=
RJNY NIL=
RJOA 110600Z 28010KT 9999 FEW030 SCT040 06/M07 Q1026=
RJOB 110600Z 30007KT 260V360 9999 FEW030 SCT045 05/M05 Q1026=
RJOC 110600Z 20006KT 140V220 9999 -SHRA FEW013 SCT030 BKN035 04/00
     Q1028=
RJOE NIL=
RJOF NIL=
RJOI 110555Z 31008KT 9999 FEW025 SCT040 08/M03 A3033 RMK SLP272
     T00781033 10078 20033 56014=
RJOK 110600Z VRB07KT 9999 FEW040 10/M04 Q1026=
RJOM 110600Z 28005KT 240V320 9999 FEW030 BKN050 07/M02 Q1028=
RJOP NIL=
RJOR 110600Z 23008KT 9999 FEW010 SCT020 BKN040 05/M00 Q1027=

0000062700
576
SAJP44 KWBC 110600
METAR
RJOS NIL=
RJOT 110600Z 28011KT 250V320 9999 FEW035 06/M04 Q1027=
RJOY 110600Z 26012KT 9999 FEW030 08/M03 Q1026=
RJOZ NIL=
RJSA 110600Z 25015KT 0700 R24/1400VP1800U SHSN SCT002 BKN005
     M05/M07 Q1020=
RJSC 110600Z 23005KT 190V250 7000 -SHSN FEW005 SCT025 BKN035
     M01/M03 Q1023=
RJSD NIL=
RJSH NIL=
RJSI 110600Z 25005KT 210V300 9999 -SHSN FEW010 BKN035 M03/M06
     Q1021=
RJSO NIL=
RJST NIL=
RJSU NIL=
RJTA NIL=
RJTC NIL=
RJTE NIL=
RJTF 110600Z VRB02KT 9999 FEW040 08/M10 Q1022=
RJTH NIL=
RJTI 110600Z 15004KT 9999 FEW025 08/M06 Q1022=

0000019500
577
SAJP45 KWBC 110600
METAR
RJTJ NIL=
RJTK NIL=
RJTL NIL=
RJTO 110600Z 03005KT 350V090 9999 FEW030 08/00 Q1022=
RJTQ NIL=
RJTR NIL=
RJTU NIL=
RJTX NIL=
RJTY NIL=

0000121300
578
SASA31 KWBC 110600
METAR
SEGU 110600Z 24006KT 9999 FEW010 BKN026 BKN100 25/20 Q1010 RMK
     A2984 NOSIG=
SEQU NIL=
SKBO 110600Z VRB02KT 9999 BKN015 12/09 A3028=
SKBQ 110600Z 04008KT CAVOK 26/23 A2983=
SKCG NIL=
SKCL 110600Z 00000KT 9999 FEW020 BKN090 21/19 A2996 REDZ=
SKLT NIL=
SKRG 110600Z 00000KT 6000 VCFG BKN008 15/14 A3025 RMK VCFG/S/N=
SKSP 110600Z 08018KT 9999 FEW017 27/23 A2990 REDZ=
SMNI NIL=
SMZO 110600Z NIL=
SMZY NIL=
SOCA 110600Z AUTO 25003KT 9999 -RA FEW007 SCT031 OVC098 22/21
     Q1011=
SPIM 110600Z 15012KT CAVOK 22/19 Q1011 NOSIG RMK BKN170 PP000=
SPQT 110600Z 00000KT 9999 SCT020 BKN100 24/23 Q1009 NOSIG RMK
     PP000=
SPQU 110600Z 04005KT 9999 SCT015 SCT040 12/10 Q1024 RMK PPP000=
SPSO 110600Z /////KT 9999 FEW100 21/19 Q1011 RMK PP000=
SPTN 110600Z VRB02KT 9999 BKN050 20/16 Q1010 RMK PP000=
SPYL NIL=
SPZO 110600Z 00000KT 9999 FEW025 SCT043 BKN070 10/07 Q1030 RMK
     PP000=
SVBC 110600Z 00000KT 9999 FEW010 23/22 Q1014=
SVMC 110600Z NIL=
SVMG 110600Z /////KT 9999 SCT010 24/22 Q1014 NOSIG=
SVMI 110600Z 00000KT 9999 FEW016 23/18 Q1014 NOSIG=
SYCJ 110600Z 00000KT 8000 SCT015 21/20 Q1012 NOSIG=
SYTM NIL=

0000087800
579
SASA32 KWBC 110600
METAR
SCAR 110600Z NIL=
SCBA 110600Z AUTO 32013KT CAVOK 07/03 Q1020=
SCCF 110600Z 09006KT CAVOK 09/04 Q1024=
SCCH NIL=
SCCI 110600Z 30015KT 9999 SCT030 OVC080 09/05 Q1008 NOSIG=
SCDA 110600Z 00000KT CAVOK 21/17 Q1011=
SCEL 110600Z 00000KT CAVOK 17/06 Q1012 NOSIG=
SCFA 110600Z NIL=
SCGE NIL=
SCIE 110600Z 23006KT CAVOK 12/09 Q1014=
SCIP 110600Z 11005KT 9999 FEW020 SCT150 22/19 Q1022 NOSIG=
SCTE 110600Z 18004KT CAVOK 08/06 Q1023 NOSIG=
SGAS NIL=
SGES NIL=
SLCB 110600Z 00000KT 9999 FEW027 15/08 Q1023=
SLCZ NIL=
SLLP 110600Z 12004KT 4000E VCFG FEW003 SCT200 06/04 Q1035=
SLTJ NIL=
SLTR NIL=
SLVR 110600Z 35006KT 9999 FEW005 SCT070 23/22 Q1010=
SUAA NIL=
SUCA NIL=
SULS 110600Z 00000KT CAVOK 20/19 Q1009=
SUMU 110600Z 28003KT 9999 FEW046 20/18 Q1009 NOSIG=
SUPE NIL=
SURV NIL=
SUSO NIL=

0000023900
580
SASA41 KWBC 110600
METAR
SEMT 110600Z NIL=
SEPA NIL=
SKBG NIL=
SKMD NIL=
SKPE 110600Z 10006KT 9999 FEW015 SCT080 19/16 A3009=
SKSM NIL=
SKVG NIL=
SMJP 110600Z 11002KT 9999 FEW010 SCT045 23/23 Q1012 NOSIG=

0000025900
581
SASA42 KWBC 110600
METAR
SCAC NIL=
SCHA NIL=
SCSE 110600Z 26004KT CAVOK 15/14 Q1010=
SCTC NIL=
SCTI NIL=
SCVD NIL=
SELT 110600Z 15003KT 4000 2000N BCFG FEW005 BKN020 11/11 Q1028=
SUAG NIL=
SUDU NIL=
SUPU NIL=
SUTB NIL=

0000004200
582
SAVN42 KWBC 110600
NIL=

0000010500
583
SASB31 VCRI 110610
METAR VCRI 110610Z 05010KT 020V080 9000 FEW016   31/21 Q1012 NOSIG=

0000012600
584
FCIY37 LIIB 110500 RRA
TAF LICG 110500Z 1106/1115 20015KT 9999 FEW020  TEMPO 1106/1112
20015G25KT SCT050=

0000013500
585
FTYG31 LYBM 110500 CCA
TAF COR LYBT 110600Z 1106/1206 12005KT CAVOK TX11/1112Z TN01/1206Z
TEMPO 1106/1108 5000 BR=

0000012800
586
SACN31 CWAO 110600
METAR CYYR 110600Z 25021KT 15SM SCT098 BKN140 BKN220 M09/M16 A2985
RMK AC2AC2CI0 SLP112=

0000009900
587
SACH10 SCSC 110600 RRA
METAR SCFA 110600Z 18008KT 9999 BKN014 20/16 Q1011 NOSIG=

0000008400
588
SAAG41 SAZM 110600
METAR SAZM 110600Z  20006KT CAVOK 15/08 Q1014=

0000084700
589
SACI41 ZBBB 110600
METAR ZBHH 110600Z 23003MPS 200V270 6000 NSC M07/M20 Q1026 NOSIG=
METAR ZGHA 110600Z 31004MPS 3200 -DZ BR SCT004 BKN006 OVC040
04/03
Q1029 NOSIG=
METAR ZHCC 110600Z 20003MPS 140V250 3000 HZ NSC 09/M05 Q1029 NOSIG=
METAR ZHHH 110600Z VRB01MPS 2800 BR SCT016 05/02 Q1029 NOSIG=
METAR ZJHK 110600Z 07008MPS 9999 SCT023 23/17 Q1019 NOSIG=
METAR ZJSY 110600Z 08008MPS 9999 FEW020 26/17 Q1018 NOSIG=
METAR ZLLL 110600Z 14002MPS 070V170 CAVOK M05/M21 Q1028 NOSIG=
METAR ZSNJ 110600Z 08004MPS 2400 -RA BR SCT011 OVC040 05/03 Q1030
NOSIG=
METAR ZSOF 110600Z 36003MPS 3500 HZ BKN023 06/01 Q1029 NOSIG=
METAR ZUCK 110600Z VRB01MPS 3500 -RA BR SCT013 OVC050 06/04 Q1027
NOSIG=
METAR ZYCC 110600Z 23007MPS CAVOK M07/M16 Q1023 NOSIG=
METAR ZYHB 110600Z 10002MPS 6000 NSC M14/M20 Q1023
NOSIG=

0000061400
590
SAMS31 WMKK 110600
METAR COR WBGG 110600Z 02009KT 350V070 9999 FEW015CB BKN020 BKN150
28/23 Q1010 NOSIG=
METAR COR WBKK 110600Z 10003KT 9999 -RA FEW013 FEW017CB SCT035 OVC260
27/22 Q1010 NOSIG=
METAR WBSB 110600Z 31007KT 9999 FEW016 FEW017CB BKN280 30/25 Q1010
NOSIG=
METAR WMKK 110600Z 32003KT 9999 FEW018 SCT140 BKN280 31/24 Q1010
NOSIG=
METAR WMKP 110600Z 02007KT 320V070 9000 FEW020 BKN140 BKN270 29/23
Q1011 NOSIG=
METAR WSSL 110600Z 35008KT 9999 SCT018 FEW020TCU BKN300 31/25 Q1010=
METAR WSSS 110600Z 02008KT 330V070 9999 FEW020TCU SCT024 BKN300 31/24
Q1010 NOSIG=

0000051500
591
SAMS32 WMKK 110600
METAR COR WBGG 110600Z 02009KT 350V070 9999 FEW015CB BKN020 BKN150
28/23 Q1010 NOSIG=
METAR COR WBKK 110600Z 10003KT 9999 -RA FEW013 FEW017CB SCT035 OVC260
27/22 Q1010 NOSIG=
METAR WMKJ 110600Z 01009KT 330V040 9999 SCT018 BKN280 32/25 Q1009=
METAR WMKK 110600Z 32003KT 9999 FEW018 SCT140 BKN280 31/24 Q1010
NOSIG=
METAR WMKP 110600Z 02007KT 320V070 9000 FEW020 BKN140 BKN270 29/23
Q1011 NOSIG=
METAR WMSA 110600Z 33006KT 9999 FEW019 SCT140 BKN280 32/23 Q1009=

0000086600
592
SAMS33 WMKK 110600
METAR WMAU 110600Z 35012G23KT 3000 SHRA SCT020 SCT140 OVC260 25/25
Q//// QFF1010=
METAR WMBA 110600Z 24002KT 9999 FEW020 SCT140 BKN260 30/25 Q1010=
METAR WMKA 110600Z 07009KT 010V140 9999 FEW020 BKN140 BKN260 28/22
Q1011=
METAR WMKB 110600Z 06008KT 9999 FEW020 BKN140 BKN270 28/23 Q1011
TEMPO 7000 RA=
METAR WMKC 110600Z 08011KT 050V110 7000 -RA FEW008 SCT020 OVC200
26/23 Q1012=
METAR WMKD 110600Z 01005KT 9999 FEW012 BKN160 24/22 Q1012 NOSIG=
METAR WMKE 110600Z 31004KT 9999 FEW012 SCT020 BKN220 24/23 Q1012=
METAR WMKI 110600Z 04007KT 350V090 9999 FEW016CB BKN130 BKN280 28/23
Q1011=
METAR WMKL 110600Z 04008KT 340V120 9999 FEW022 SCT140 BKN270 31/21
Q1011=
METAR WMKM 110600Z 01005KT 9999 SCT021 SCT150 BKN280 31/24 Q1010=
METAR WMKN 110600Z 19002KT 8000 -RA FEW008 SCT022 OVC190 25/24 Q1012=

0000009900
593
SAAF18 LFPW 110600 RRA
METAR FMEE 110600Z 10020KT 9999 FEW026 30/21 Q1015 NOSIG=

0000060500
594
SAMS34 WMKK 110600
METAR WBGB 110600Z 32008KT 9999 SCT014 BKN150 28/24 Q1010=
METAR WBGR 110600Z 29009KT 9999 SCT014 BKN150 26/23 Q1011=
METAR WBGS 110600Z 36010KT 9999 SCT018 BKN150 30/23 Q1010=
METAR WBGY 110600Z 01003KT 9999 SCT018 SCT150 BKN300 30/24 Q1010=
METAR COR WBKL 110600Z 34005KT 320V070 9999 FEW012 FEW015CB BKN290
30/26 Q1010=
METAR WBKS 110600Z 03008KT 330V060 5000 -RA SCT014 FEW016CB SCT040
OVC260 25/25 Q1009=
METAR WBKT 110600Z 06002KT 9999 SCT013 SCT033 BKN260 28/25 Q1010=
METAR WBKW 110600Z 34005KT 9999 -RA FEW016CB SCT025 BKN140 26/24
Q1009=

00000000