0000011300
275
SAID31 WIII 110600
METAR WIII 110600Z 34006KT 9999 FEW018CB SCT020 33/24 Q1008 RMK CB TO
SW=

0000022900
276
SANL32 EHDB 110555
METAR EHEH 110555Z AUTO 24007KT 9999 OVC007 04/02 Q1015 
GRN=
METAR EHKD 110555Z AUTO 22018KT 4300 +DZ BKN005 OVC006 07/06 Q1011 
YLO 22018G28KT 6000 -RA -RADZ SCT005 OVC007 TEMPO 4000=

0000011900
277
SADL34 EDZO 110550 RRA
METAR EDNY 110550Z AUTO VRB02KT 0200 0150/ R24/0550N FG BKN001 02/01
Q1017=

0000026100
278
SAMX31 KWBC 110545 RRC
METAR
MMGL 110549Z 00000KT 10SM BKN030 12/06 A3020 RMK SLP153 52010 900
     8/500=
MMMZ 110542Z 36006KT 10SM SKC 13/08 A2996 RMK SLP146 52010 905=
MMPR 110545Z 05004KT 10SM SKC 18/17 A2996 RMK SLP146 52013 904=

0000009500
279
SPCN51 CWAO 110557
SPECI CWCL 110557Z AUTO 16005KT 3SM OVC001 M03/M07 A2939=

0000010600
280
SAPR01 SPIM 110600
METAR SPIM 110600Z 15012KT CAVOK 22/19 Q1011 NOSIG RMK BKN170 PP000=

0000009800
281
SARW20 HRYR 110600
METAR
HRYR 110600Z 00000KT 5000 SCT025  18/18 Q1022 NOSIG=

0000036500
282
SAFI34 EFHK 110550
EFET 110550Z AUTO 34002KT CAVOK M29/M32 Q1014=
EFIV 110550Z AUTO 24002KT 8000 OVC003 M29/M32 Q1016=
EFKE 110550Z AUTO 02011KT CAVOK M16/M20 Q1010=
EFKI 110550Z 05013KT 010V070 9999 BKN018 BKN025 M14/M16 Q1003=
EFKS 110550Z AUTO 03007KT 330V130 CAVOK M17/M21 Q1006=
EFKT 110550Z 31002KT CAVOK M23/M25 Q1014 R16/////95=

0000008300
283
SABZ23 SBGL 110555
METAR SBGL 110600Z 09004KT CAVOK 25/20 Q1011=

0000008900
284
SABZ21 SBNT 110600
METAR SBNT 110600Z 12004KT 9999 BKN023 25/21 Q1012=

0000010600
285
SAMG20 FMMI 110600
METAR FMMI 110600Z VRB01KT 8000  SCT017  BKN230 24/22 Q1023
NOSIG=

0000012400
286
SPUS41 KWBC 110555
SPECI
KWRI 110552Z AUTO 07002KT 1/2SM R06/1400FT -RA FG BKN003 OVC065
04/04 A3013=

0000009700
287
SPUS42 KWBC 110555
SPECI
KMFE 110551Z 00000KT 1 1/2SM BR FEW004 16/16 A2992=

0000010400
288
SPUS43 KWBC 110555
SPECI
KSTP 110551Z AUTO 00000KT 1 3/4SM BR OVC004 M02/M03 A2949=

0000051500
289
SAMX31 KWBC 110545 RRB
METAR
MMAA 110545Z 00000KT 8SM SKC 25/21 A2992 RMK SLP132 52010 955=
MMCZ 110540Z 00000KT 7SM FEW015 19/19 A3000 RMK SLP152 57018 966
     8/100=
MMMD 110546Z 11006KT 7SM SKC 21/21 A2997 RMK SLP150 51008 981=
MMMX 110549Z 06004KT 10SM FEW080 14/05 A3032 NOSIG RMK SLP113
     52013 904 8/030 HZY SC=
MMTP 110547Z 00000KT 8SM SCT200 25/22 A2993 RMK SLP116 52017 956
     8/002=
MMUN 110547Z 14010KT 7SM SCT015 25/22 A3000 RMK SLP144 56011 974
     8/100=

0000075600
290
SAGR31 LGAT 110550
METAR LGAD 110550Z 14004KT 9999 FEW020 SCT180 09/07 Q1023=
METAR LGAV 110550Z 26003KT 9999 FEW010 07/05 Q1022 NOSIG=
METAR LGIR 110550Z 17009KT 9999 FEW025 SCT180 10/08 Q1022 NOSIG=
METAR LGKL 110550Z 00000KT 9999 SCT080 08/07 Q1023=
METAR LGKO 110550Z 14004KT 9999 FEW018 BKN020 14/06 Q1021=
METAR LGKR 110550Z 00000KT 9999 FEW018 SCT030 BKN070 10/10 Q1022
NOSIG=
METAR LGLM 110550Z 00000KT 5000 BR SCT009 BKN020 12/10 Q1022=
METAR LGRP 110550Z VRB02KT 9999 FEW018 BKN040 13/10 Q1021 NOSIG=
METAR LGSA 110550Z 26015KT 9999 FEW020 SCT170 14/09 Q1021=
METAR LGSM 110550Z 00000KT 9999 FEW020 OVC080 13/09 Q1021=
METAR LGTS 110550Z VRB02KT 0200 R16/0250 R34/1900 FG BKN001 03/03
      Q1023 NOSIG=

0000013200
291
SAMX42 MMGL 110556
METAR MMLO 110551Z 00000KT 8SM  BKN030 BKN220 12/06 A3027 
      RMK SLP050 52014 961 8/502=

0000020400
292
FCUK34 EGGY 110500 RRA
TAF EGMH 110555Z 1106/1115 21012KT 9999 FEW015 SCT030 BECMG
    1106/1109 30015KT TEMPO 1106/1109 8000 -RA BKN012 PROB30 TEMPO
    1106/1109 4000 RADZ BKN007=

0000023800
293
SPUS70 KWBC 110556
SPECI
K2DP 110552Z AUTO 16016G23KT 8SM -RA FEW016 BKN023 BKN100 17/16
     A3013 RMK AO2 CIG 023V060=
KNSE 110552Z AUTO 18012KT 1 1/2SM -RA BR OVC002 20/19 A2996 RMK
     AO2 RAE11B51 P0000 $=

0000013300
294
SAUK36 EGGY 110550 CCA
METAR COR EGSH 110550Z 23012KT 4000 DZ BKN004 08/07 Q1010 REDZ BECMG
     31008KT SCT030=

00000000