0000011900
675
SPCN31 CWAO 110828
SPECI CYWG 110828Z 31010KT 10SM FEW025 BKN120 M10/M12 A2951 RMK
 SC1AC4 SLP010=

0000009900
676
SAAP32 FAPR 110800 RRB
METAR FQMA 110800Z 16010KT 9999 BKN025 28/21 Q1016 NOSIG=

0000009100
677
SANC01 NWWW 110830
METAR NWWW 110830Z AUTO 13010KT 9999 NSC 24/15 Q1011=

0000009500
678
SAHU31 LHBM 110830
METAR LHBP 110830Z VRB02KT 9999 BKN035 03/03 Q1022 NOSIG=

0000022500
679
SABU31 LBSM 110830
METAR LBSF 110830Z VRB02MPS 1600 BR FEW002 M00/M00 Q1024 BECMG 3000
    BR=
METAR LBWN 110830Z 25005MPS CAVOK 08/01 Q1023 NOSIG=
METAR LBBG 110830Z 26003MPS CAVOK 07/04 Q1024 NOSIG=

0000010100
680
SAMF20 TFFR 110830
METAR TFFR 110830Z AUTO VRB01KT 9999 FEW028 BKN046 21/20 Q1016=

0000049800
681
FCPL32 EPWA 110800
TAF EPBY 110830Z 1109/1118 23010KT 9999 SCT035=
TAF EPKT 110830Z 1109/1118 22010KT 9999 SCT035=
TAF EPLB 110830Z 1109/1118 25015KT 9999 SCT025 BKN040
    PROB30 1109/1115 25015G25KT=
TAF EPMO 110830Z 1109/1118 24012KT 9999 BKN035
    TEMPO 1109/1115 BKN020=
TAF EPSC 110830Z 1109/1118 22008KT 9999 SCT030
    PROB40 TEMPO 1111/1115 SHRA BKN015CB=
TAF EPWR 110830Z 1109/1118 23007KT 9999 SCT040=
TAF EPZG 110830Z 1109/1118 24008KT 9999 SCT042=

0000010800
682
SPSP37 LEMM 110829
SPECI LEBG 110829Z 00000KT 2400 0900NW VCFG BR FEW001 M01/M01
Q1018=

0000008900
683
SANO35 ENMI 110820 RRA
METAR ENRM 110820Z 10017KT CAVOK M08/M15 Q1006=

0000011600
684
SPUS31 KWBC 110829
SPECI
KBWI 110825Z 00000KT 1/2SM R10/1800V2800FT -RA FG VV002 02/02
A3001=

0000008900
685
SASG20 GOOY 110830
METAR GOOY 110830Z 02006KT CAVOK 19/15 Q1014 NOSIG=

0000010000
686
SAHU41 LHBM 110800 RRA
METAR LHPR 110745Z /////KT 9999 FEW030 BKN033 03/01 Q1020=

0000009900
687
FCOS32 LOWM 110800
TAF LOXZ 110815Z 1109/1118 VRB03KT 9999 FEW080 SCT160 BKN300=

0000090600
688
FCSW31 LSSW 110800
TAF LSGC 110825Z 1109/1118 VRB03KT CAVOK BECMG 1109/1112 24008KT
     BECMG 1115/1118 9999 SCT050 BKN080=
TAF LSGS 110825Z 1109/1118 VRB03KT 9999 FEW100 SCT150 BKN200=
TAF LSZA 110825Z 1109/1118 VRB03KT 9999 BKN045 TEMPO 1109/1115
     SCT045=
TAF LSZB 110825Z 1109/1118 VRB03KT 4000 BR SCT120 BECMG 1109/1112
     7000 PROB30 TEMPO 1115/1118 RA SCT015 BKN030=
TAF LSZC 110800Z NIL=
TAF LSZG 110825Z 1109/1118 VRB03KT 0200 FG VV001 BECMG 1110/1112
     1000 BCFG BKN003 BECMG 1112/1115 4500 BR BKN065 PROB30 TEMPO
     1114/1117 RA SCT015 BKN030=
TAF LSZL 110800Z NIL=
TAF LSZR 110825Z 1109/1118 VRB03KT 0800 FG VV003 BECMG 1109/1112
     1500 BCFG BKN003 BECMG 1112/1114 7000 NSC PROB40 TEMPO
     1115/1118 RA SCT020 BKN040 BECMG 1117/1118 BKN060=
TAF LSZS 110825Z 1109/1118 VRB03KT 9999 BKN080 TX03/1113Z TEMPO
     1109/1118 SCT040=

0000056400
689
FTSW31 LSSW 110800
TAF LSZH 110825Z 1109/1215 VRB03KT 0400 FG VV002 TX08/1114Z
     TN03/1206Z TX06/1214Z BECMG 1110/1112 1200 BCFG SCT120 BECMG
     1112/1115 6000 PROB40 TEMPO 1114/1120 RA SCT015 BKN030 BECMG
     1118/1122 4000 BR SCT035 BKN060 BECMG 1209/1211 04005KT 7000
     BKN030=
TAF LSGG 110825Z 1109/1215 VRB03KT 8000 MIFG NSC TX11/1114Z
     TN03/1205Z TX07/1214Z BECMG 1110/1112 24007KT CAVOK BECMG
     1112/1115 9999 FEW050 SCT080 BKN150 BECMG 1121/1200 04005KT
     BECMG 1203/1206 BKN020 BECMG 1210/1212 SCT030=

0000008700
690
SAUK36 EGGY 110820 RRA
METAR EGSC 110820Z 27009KT CAVOK 06/04 Q1015=

0000051300
691
SARH31 LDZM 110830
METAR LDSP 110830Z 00000KT 9999 FEW060 11/10 Q1024 NOSIG =
METAR LDPL 110830Z VRB02KT 8000 BKN055 11/10 Q1022 NOSIG =
METAR LDDU 110830Z 08006KT 9999 FEW060 11/06 Q1024 NOSIG =
METAR LDZA 110830Z 00000KT 0500 R05/0600V1100N R23/1200VP2000D FG
VV002 04/04 Q1021 TEMPO 0800 =
METAR LDZD 110830Z 10003KT 070V140 9999 SCT023 BKN060 11/10 Q1023
NOSIG =
METAR LDRI 110830Z VRB02KT 9999 FEW016 SCT030 BKN043 11/10 Q1022=
METAR LDOS 110830Z 18008KT CAVOK 06/04 Q1022=

0000038900
692
FCRO32 LROM 110800
TAF LRAR 110800Z 1109/1118 17006KT 9999 BKN045=
TAF LRBM 110800Z 1109/1118 VRB03KT 9999 SCT030 PROB30 TEMPO 1115/1118
5000 -RA=
TAF LRCL 110800Z 1109/1118 VRB04KT 9999 BKN045=
TAF LROD 110800Z 1109/1118 19010KT 9999 BKN045=
TAF LRSM 110800Z 1109/1118 17006KT CAVOK=
TAF LRTM 110800Z 1109/1118 VRB04KT 9999 SCT045 TEMPO 1109/1110 5000
BR=

0000025500
693
FCRO33 LROM 110800
TAF LRBC 110800Z 1109/1118 27006KT CAVOK=
TAF LRCV 110800Z 1109/1118 27008KT CAVOK=
TAF LRIA 110800Z 1109/1118 30006KT CAVOK=
TAF LRSV 110800Z 1109/1118 25006KT CAVOK=
TAF LRTC 110800Z 1109/1118 27006KT CAVOK=

0000019400
694
FTAF34 OEJD 110400 RRB
TAF HKMO 110450Z 1106/1212 09010G20KT 9999 FEW026
BECMG 1118/1121 03010KT FEW022
BECMG 1200/1203 00000KT SCT020
BECMG 1206/1209 08010G20KT FEW027=

00000000