0000004200
295
SAJP41 KWBC 110730
NIL=

0000004200
296
SAJP42 KWBC 110730
NIL=

0000004200
297
SAJP43 KWBC 110730
NIL=

0000004200
298
SAJP44 KWBC 110730
NIL=

0000004200
299
SAJP45 KWBC 110730
NIL=

0000009300
300
SALY31 HLMC 110700 RRA
METAR HLLM 110650Z 19006KT 7000 SCT150 14/06 Q1024=

0000011500
301
SAKY31 RUMS 110730 RRA
METAR UCFM 110730Z 09002MPS 4000 FU NSC M02/M11 Q1021 R08/CLRD70
NOSIG=

0000025500
302
SANZ31 NZKL 110730
METAR NZAA 110730Z AUTO 24011KT 9999 FEW027/// BKN046/// 18/13 Q1018
          NOSIG=
METAR NZWN 110730Z AUTO 35015KT 9999 NCD 18/14 Q1014 NOSIG=
METAR NZCH 110730Z AUTO 07015KT 9999 OVC013/// 15/13 Q1011 NOSIG=

0000042500
303
SAAO33 DRRN 110725
METAR DBBB 110730Z VRB02KT 2500  BR SCT008 BKN200 26/26 Q1011 TEMPO
1400=
METAR DFFD 110730Z 07003KT 4000 DU NSC 20/03 Q1016 NOSIG=
METAR DGAA 110725Z NIL=
METAR DNKN 110725Z NIL=
METAR DNMM 110725Z NIL=
METAR DRRN 110730Z 07009KT 2500 DU NSC 20/M01 Q1016 NOSIG=
METAR DXXX 110730Z VRB01KT 1200 R22/0900V1300 BR SCT010 26/25 Q1013
BECMG 2000 BR=
METAR FTTJ 110725Z NIL=

0000008800
304
SAAG05 SABM 110700 RRD
METAR SAZN 110700Z 11005KT CAVOK 17/M03 Q1017=

0000009500
305
SPCN31 CWAO 110736
SPECI CYTR 110736Z 10006KT 2 1/2SM -RA BR OVC010 RMK SF8=

0000021600
306
SAAY31 RUMS 110730
METAR UDYZ 110730Z VRB02MPS 2000 -SN BR BKN009 OVC016 M10/M12 Q1027
R09/490440 NOSIG=
METAR UDSG 110730Z 00000MPS M0075 R02/0075N FZFG VV001 M14/M16 Q1020
R02/CLRD70 NOSIG=

0000012800
307
SAKY31 RUMS 110730
METAR UCFM 110730Z NIL=
METAR UCFO 110730Z 31002MPS CAVOK 01/M09 Q1025 R12/CLRD70 NOSIG=

0000095600
308
SAKZ31 RUMS 110730
METAR UAAA 110730Z 28002MPS 230V320 2600 FU FEW100 BKN200 M02/M13
Q1022 8891//60 NOSIG=
METAR UACC 110730Z 19008MPS 4500 -SN DRSN OVC021 M07/M09 Q1022
R22/4/0340 NOSIG RMK QFE735/0980=
METAR UAKK 110730Z 17007MPS 9999 FEW033 OVC130 M12/M15 Q1024
R23/850555 NOSIG RMK QFE721/0961=
METAR UAOO 110730Z 21006MPS 5000 BR BKN330 M01/M05 Q1020 R24/3///55
NOSIG RMK QFE753/1005=
METAR UARR 110730Z 18010MPS 7000 BKN002 OVC020 00/00 Q1008 R22/750245
TEMPO 3000 -SNRA -FZRA BR OVC002 RMK QBB080 QFE752/1003=
METAR UATE 110730Z 12006MPS 9999 OVC016 03/02 Q1015 R12/0///70 NOSIG
RMK QFE759/1013=
METAR UATG 110730Z 18004MPS 5000 BR OVC031 02/02 Q1015 R14/19//65
NOSIG RMK QFE763/1017=
METAR UATT 110730Z 25004MPS 7000 -FZDZ OVC005 M00/M00 Q1013
R13/39//40 TEMPO 0500 FZFG VV002 RMK QBB150 QFE740/0987=
METAR UAUU 110730Z 18007MPS 9999 BKN040 OVC100 M07/M09 Q1014
R15/CLRD60 NOSIG RMK QFE744/0992=

0000021600
309
SATA31 RUMS 110730
METAR UTDD 110730Z 09004MPS 9999 BKN190 06/M11 Q1025 09CLRD70 NOSIG
RMK QFE701/0934=
METAR UTDL 110730Z 07010G14MPS 7000 SCT200 02/M09 Q1025 NOSIG RMK
QFE729/0973 8809//70=

0000017700
310
SARE20 FMEE 110730
METAR FMEE 110730Z 10022KT 9999 FEW028 31/21 Q1014 NOSIG=
METAR FMEP 110730Z AUTO 27009KT 9999 NCD 29/23 Q1014=
METAR FMCZ 110730Z NIL=

0000016000
311
FTSN31 ESWI 110500 AAA
TAF AMD ESKN 110735Z 1107/1206 16008KT 5000 -SN SCT009 BKN020 TEMPO
1107/1202 2000 SN VV004 BECMG 1110/1112 07012KT=

0000011600
312
SPUS31 KWBC 110735
SPECI
KPHF 110731Z 14011G18KT 5SM -RA BR SCT007 BKN036 OVC047 18/16
A3005=

0000010400
313
SPUS41 KWBC 110735
SPECI
KBAF 110731Z 00000KT 1 1/4SM -FZRA BR OVC004 01/M01 A3017=

0000010200
314
SPUS42 KWBC 110735
SPECI
KFTY 110731Z 14004KT 10SM -RA BKN005 OVC011 10/09 A2991=

00000000