0000057400
075
SAOS31 LOWM 110620
METAR LOWW 110620Z 20003KT 150V240 9999 BKN036 00/M02 Q1020 NOSIG=
METAR LOWL 110620Z VRB01KT 7000 0500SE R26/P1500U FZBCFG MIFG FEW053
SCT250 M03/M03 Q1020 TEMPO 0500 FZBCFG=
METAR LOWS 110620Z VRB01KT 9999 3000S BCFG FEW080 BKN300 M01/M01
Q1018 NOSIG=
METAR LOWI 110620Z 22003KT 190V270 2500 BR SCT002 BKN004 01/01 Q1020
R08/19//71 NOSIG=
METAR LOWG 110620Z 29003KT 9999 SCT010 BKN090 02/01 Q1020 R17/19//95
NOSIG=
METAR LOWK 110620Z 36003KT 320V020 4500 BR FEW002 OVC003 01/01 Q1021
R10L/19//95 TEMPO 5000 BKN005=

0000006100
076
SAOS32 LOWM 110620
METAR LOXZ 110620Z NIL=

0000011700
077
SALI20 GLRB 110630
METAR GLRB 110630Z 00000KT 9000 BKN013  FEW023 CB 24/23
Q1010 RMK CB-S, BRVC=

0000021700
078
SANO37 ENMI 110620
METAR ENNO 110620Z NIL=
METAR ENOV 110620Z NIL=
METAR ENSD 110620Z NIL=
METAR ENSG 110620Z NIL=
METAR ENSN 110620Z NIL=
METAR ENSR 110620Z NIL=
METAR ENSS 110620Z NIL=

0000021200
079
FTNL32 EHDB 110600
TAF EHEH 110548Z 1106/1212 22008KT 9999 BKN010
      TEMPO 1106/1110 BKN005
      BECMG 1114/1116 27005KT CAVOK BECMG 1122/1124 19004KT 
      PROB40 1205/1209 2000 BR=

0000045900
080
SANO35 ENMI 110620
METAR ENMS 110620Z 19007KT 130V250 9999 FEW040 SCT080 M09/M18 Q1009
           RMK WIND 412FT VRB06KT=
METAR ENRM 110620Z 10016KT CAVOK M07/M15 Q1006=
METAR ENRS 110620Z 08019KT 9999 SCT045 M03/M10 Q1011=
METAR ENSK 110620Z NIL=
METAR ENSO 110620Z NIL=
METAR ENST 110620Z 01012G23KT 320V050 CAVOK M07/M15 Q1008 RMK WIND
           300FT 02014G25KT 310V110 RMK TURB WRNG - SEE IPPC=
METAR ENVD 110620Z NIL=

0000027600
081
SADL33 EDZO 110620
METAR EDFE 110620Z NIL=
METAR EDFH 110620Z 23006KT 210V270 9999 -RA SCT027 BKN060 03/01
Q1015=
METAR EDFM 110620Z NIL=
METAR EDLV 110620Z 24009KT 5000 BR BKN004 02/02 Q1015=
METAR EDVK 110620Z 13003KT 080V200 CAVOK 01/M00 Q1015=

0000038800
082
SADL34 EDZO 110620
METAR EDHL 110620Z 23010KT 7000 BKN011 06/04 Q1011=
METAR EDLP 110620Z 22003KT 160V300 CAVOK 02/M02 Q1014=
METAR EDLW 110620Z 19011KT CAVOK 02/M01 Q1014=
METAR EDMA 110620Z 15003KT 030V180 CAVOK M01/M01 Q1017=
METAR EDQM 110620Z AUTO 21006KT 9999NDV NCD 00/M01 Q1016=
METAR EDSB 110620Z 00000KT 9000 -RA FEW041 BKN066 00/M00 Q1017
REFZRA=

0000124000
083
FTUS80 KWBC 110542 RRN
TAF
KPVU 110538Z 1106/1206 VRB04KT P6SM OVC070
     FM111200 14004KT P6SM SCT080
     FM120400 22010KT P6SM -SHRA BKN060 AMD LTD TO CLD VIS AND
      WIND=
KRDM 110538Z 1106/1206 19015G25KT P6SM BKN070 BKN100
     FM111500 22022G40KT P6SM VCSH BKN050
     FM111800 23030G45KT P6SM VCSH BKN050
     FM120200 30030G45KT P6SM VCSH BKN050=
KRDU 110539Z 1106/1206 VRB04KT 2SM -RA BR OVC002 WS010/19035KT
      TEMPO 1106/1110 1/2SM FG
     FM111000 14004KT 2SM -RA BR VV002 WS010/19040KT
      TEMPO 1110/1113 1/2SM FG
     FM111500 20015G28KT P6SM BKN008
      TEMPO 1117/1121 28025G40KT 2SM SHRA BR
     FM112100 25015G25KT 6SM -SHRA SCT025 OVC080
     FM120200 28012KT P6SM BKN080=
KRHI 110539Z 1106/1206 12003KT 3SM -SN BR OVC012
      TEMPO 1106/1108 1SM -SN BR OVC007
     FM111200 30006KT 3SM -SN BR OVC008
     FM111500 30009KT 6SM -SN BR OVC010
     FM111800 29010KT P6SM SCT012 BKN035
     FM112300 26005KT P6SM BKN050=
KRNO 110540Z 1106/1206 VRB04KT P6SM BKN200
     FM111500 18010G20KT P6SM FEW070 BKN150
     FM111900 19025G40KT P6SM FEW050 BKN090
     FM112200 26022G35KT P6SM SCT050 BKN090
     FM120200 28015G25KT P6SM FEW090 SCT180=

0000134700
084
FTUS80 KWBC 110542 RRO
TAF
KRUT 110539Z 1106/1206 15005KT P6SM BKN025 OVC035
     FM110700 13009G18KT 6SM BR VCSH SCT015 BKN020 OVC025
      TEMPO 1107/1109 -FZDZ BR OVC015
     FM111000 14015G25KT 5SM -RA BR BKN008 OVC015
     FM111400 15015G28KT 5SM -RA BR BKN005 OVC008 WS020/20055KT
     FM111900 15013G23KT 3SM RA BR OVC005 WS020/20055KT AMD LTD TO
      CLD VIS AND WIND=
KRWI 110539Z 1106/1206 16006KT 3SM -RA BR SCT006 OVC010
      WS010/18035KT
      TEMPO 1107/1111 1SM BR OVC006
     FM111100 18006KT 2SM BR OVC006
     FM111500 20015G28KT P6SM BKN008
     FM111900 20015G28KT P6SM BKN012
      TEMPO 1119/1123 28025G40KT 2SM SHRA BR
     FM112300 25015G25KT 6SM -SHRA SCT025 OVC080
     FM120200 28012KT P6SM BKN080=
KSFB 110538Z 1106/1206 15003KT P6SM BKN070
     FM110800 17005KT 5SM BR OVC005
     FM111400 19010G15KT P6SM SCT015 BKN150
      TEMPO 1114/1116 BKN015
     FM111600 21018G25KT P6SM SCT025 BKN060
     FM120000 24009KT P6SM VCSH SCT025 BKN150=
KSFF 110540Z 1106/1206 21006KT P6SM -RA SCT020 OVC060
     FM110700 19011KT 6SM -RA SCT010 BKN022 WS020/21045KT
     FM111200 20020G35KT P6SM RA BKN018 OVC030
     FM111600 21025G43KT P6SM -RA BKN020 BKN040
     FM112000 22025G40KT P6SM VCSH SCT020 BKN060
     FM120100 22020G35KT P6SM BKN020 OVC050=

0000216500
085
SZNZ01 NZKL 111709
CREX++
T000103 A001 D01021 D06025++
-3683144 17478654 AUCT  2014 01 11 17 01 //// 11 07 00 01
05863 3126 05860 3126 05857 3127 05854 3127 05851 3128 05848 3129+
-4402404 -17636748 CHIT  2014 01 11 17 01 //// 11 07 00 01
04838 2087 04827 2080 04801 2058 04797 2058 04789 2054 04760 2028+
-4089929 17623168 CPIT  2014 01 11 17 01 //// 11 07 00 01
03952 2295 03940 2288 03947 2300 03954 2312 03922 2286 03924 2293+
-3618905 17548887 GBIT  2014 01 11 17 01 //// 11 07 00 01
06310 0027 06301 0020 06286 0009 06289 0015 06291 0019 06291 0022+
-3867541 17802288 GIST  2014 01 11 17 01 //// 11 07 00 01
04185 2712 04171 2703 04173 2710 04175 2716 04164 2710 04174 2725+
-4241288 17370277 KAIT  2014 01 11 17 01 //// 11 07 00 01
03303 2255 03289 2246 03279 2242 03264 2232 03270 2243 03270 2249+
-3755040 17815904 LOTT  2014 01 11 17 01 //// 11 07 00 01
03838 0196 03828 0189 03840 0204 03819 0187 03825 0197 03820 0195+
-3704657 17451175 MNKT  2014 01 11 17 01 //// 11 07 00 01
03105 -0086 03112 -0086 03125 -0080 03119 -0092 03134 -0083 03147 -0076+
-3947566 17692007 NAPT  2014 01 11 17 01 //// 11 07 00 01
03149 2048 03154 2058 03111 2020 03119 2033 03115 2034 03101 2025+
-3441483 17304870 NCPT  2014 01 11 17 01 //// 11 07 00 01
-04538 -9519 -04523 -9503 -04492 -9471 -04434 -9413 -04425 -9403 -04508 -9485+
-4581435 17062939 OTAT  2014 01 11 17 01 //// 11 07 00 01
04215 3502 04210 3502 04205 3502 04199 3502 04194 3502 04190 3503+
-2928002 -17789440 RBCT  2014 01 11 17 01 //// 11 07 00 01
06289 2016 06281 2009 06279 2010 06265 1998 06267 2002 06278 2014+
-2925114 -17790384 RFRT  2014 01 11 17 01 //// 11 07 00 01
03203 0138 03227 0164 03210 0149 03237 0178 03211 0154 03169 0115+
-4357010 17277383 SUMT  2014 01 11 17 01 //// 11 07 00 01
01912 1926 01893 1914 01898 1926 01890 1925 01883 1924 01863 1910+
-3764109 17618118 TAUT  2014 01 11 17 01 //// 11 07 00 01
05558 3995 05555 3996 05552 3995 05549 3995 05545 3994 05541 3992+
-4128448 17477985 WLGT  2014 01 11 17 01 //// 11 07 00 01
03087 2050 03077 2044 03077 2048 03070 2046 03073 2053 03066 2051++
7777
0000031500
086
UAAK04 KAWN 111600
OTZ UA /OV OTZ/TM 1649/FLUNKN/TP B732/SK SKC/WX FV99SM/TB NEG/RM
 DURD FM SE FL300-SFC..BA GOOD RWY 27=
ENA UA /OV ANC-ENA/TM 1650/FL040/TP DH8C/SK OVC015-TOP045/TA
 M11/IC MOD RIME 040-015=
VDZ UA /OV VDZ/TM 1652/FL100/TP DH8D/SK OVC100/IC TRACE RIME/RM
 DURD THIN OVC=
0000003900
087
UAIN31 VABB 111655
NIL=
0000071700
088
SAGR31 LGAT 110620
METAR LGAD 110620Z 13004KT 9999 FEW020 SCT180 10/07 Q1023=
METAR LGAV 110620Z 24002KT 9999 FEW010 08/06 Q1022 NOSIG=
METAR LGIR 110620Z 17010KT 9999 FEW025 SCT180 11/09 Q1022 NOSIG=
METAR LGKL 110620Z 33006KT 9999 SCT080 08/07 Q1023=
METAR LGKO 110620Z 13004KT 9999 FEW018 BKN020 14/06 Q1021=
METAR LGKR 110620Z NIL=
METAR LGLM 110620Z 00000KT 5000 BR SCT009 BKN020 12/10 Q1022=
METAR LGRP 110620Z VRB02KT 9999 FEW018 BKN040 13/10 Q1021 NOSIG=
METAR LGSA 110620Z 26016KT 9999 FEW020 SCT170 14/09 Q1021=
METAR LGSM 110620Z 27003KT 9999 FEW020 OVC080 13/09 Q1021=
METAR LGTS 110620Z VRB02KT 0600 0100N R16/1000 R34/1500 FG BKN001
      03/02 Q1023 BECMG 1500=

0000008500
089
SPCN44 CWAO 110628
SPECI CYOD 110628Z 22006KT 15SM BKN014 RMK SC6=

0000010000
090
SAHU41 LHBM 110600 RRA
METAR LHPR 110545Z /////KT 9999 SCT033 BKN083 02/02 Q1020=

0000012100
091
SPUS31 KWBC 110629
SPECI
KLOU 110625Z AUTO 00000KT 1 3/4SM RA BR SCT011 BKN020 OVC043 11/10
A2971=

0000009800
092
SPUS42 KWBC 110629
SPECI
KGLS 110625Z AUTO 24007KT 3SM BR OVC002 17/17 A2989=

0000010200
093
SPUS43 KWBC 110629
SPECI
KMKC 110625Z 25005KT 10SM -RA BKN011 OVC016 03/01 A2964=

0000009600
094
SASG20 GOOY 110630
METAR GOOY 110630Z 02007KT 9999  FEW010 19/15 Q1013 NOSIG=

00000000