0000029100
155
FTUS75 KWBC 110812 AAA
TAF AMD
PAJN 110810Z 1108/1206 08005KT P6SM VCFG FEW003 BKN050
      TEMPO 1108/1110 00000KT 3SM BR BKN003
     FM111000 VRB02KT 3SM BCFG SCT003 BKN040
     FM111800 00000KT P6SM SCT025 BKN070
     FM120300 VRB04KT P6SM VCSH BKN035 OVC070=

0000028900
156
FCRA32 RUMS 110800
TAF UNTT 110754Z 1109/1118 22007G12MPS 5000 -SHSN DRSN SCT010
BKN017CB OVC100 650060 TEMPO 1109/1118 1100 SHSN BLSN SCT003=
TAF USCM 110800Z 1109/1118 15007MPS 4000 -SN BR OVC010 650100 530005
TEMPO 1109/1118 16013MPS 2000 FZDZ BR OVC005 640000=

0000028400
157
FCRS31 RUMS 110800
TAF ULWC 110800Z NIL=
TAF UUBP 110735Z 1109/1118 26007G12MPS 9999 OVC020 530003 TEMPO
1109/1115 5000 -SHSN BKN009CB=
TAF COR UUOB 110745Z 1109/1118 25007G12MPS 9999 SHRA BKN010CB 530003
TEMPO 1110/1115 28010G15MPS=
TAF UUOK 110800Z NIL=

0000004600
158
FCRS33 RUMS 110800
TAF NIL=

0000055500
159
FCRS34 RUMS 110800
TAF URWW 110750Z 1109/1118 27011G17MPS 2000 -SHRA BR BKN007 SCT020CB
BKN100 530002 TEMPO 1109/1115 23015G20MPS 1300 BKN004 SCT020CB
BKN100 BECMG 1115/1117 1300 BKN004 SCT020CB BKN100=
TAF UWKS 110750Z 1109/1118 16009G14MPS 1800 SHSNRA BR OVC006 BKN012CB
650060 530001 TEMPO 1109/1115 0800 +SHSNRA OVC003 BKN012CB=
TAF UWOR 110800Z 1109/1118 25007MPS 2000 BR OVC007 650060 TEMPO
1109/1112 0800 FZDZ FZFG VV002 640000=
TAF UWSS 110800Z 1109/1118 19009MPS 2000 SNRA OVC004 530002 TEMPO
1109/1118 0300 FG=

0000004600
160
FCRA31 RUMS 110800
TAF NIL=

0000072700
161
FCRS32 RUMS 110800
TAF URML 110752Z 1109/1118 32009G14MPS 6000 BKN017 530001 TEMPO
1109/1112 VRB02MPS 3200 BR OVC013=
TAF URMN 110800Z 1109/1118 22005MPS 9999 BKN020CB TEMPO 1109/1115
25009G14MPS 530002=
TAF URMO 110740Z 1109/1118 26004MPS 9999 BKN020 BKN100 BECMG
1110/1111 28006G11MPS 530002=
TAF URMT 110750Z 1109/1118 28009G14MPS 9999 SCT015CB BKN100 530003
TEMPO 1109/1115 28012G17MPS 2000 -SHRA BR SCT007 BKN015CB OVC100=
TAF URWA 110800Z 1109/1118 19005G10MPS 9999 BKN010 OVC100 510003
BECMG 1111/1113 25007G12MPS 5000 -SHRA BR BKN005 SCT015CB OVC100=
TAF URWI 110800Z 1109/1118 20007G12MPS 9999 SCT007 BKN020CB 530005
TEMPO 1109/1115 2100 -SHRA BR TEMPO 1115/1118 3000 -SHRA BR=

0000033000
162
FCRS36 RUMS 110800
TAF ULOO 110808Z 1109/1118 31007G13MPS 6000 -SN BKN010 TEMPO
1109/1118 2100 -SHSN BLSN BKN007 BKN012CB=
TAF ULPB 110800Z 1109/1118 36007G13MPS 5000 -SN BKN010 TEMPO
1109/1118 2100 -SHSN BLSN BKN006 BKN015CB=
TAF UUOO 110800Z 1109/1118 26008G13MPS 4000 SHSNRA BKN007 BKN020CB
530002=

0000043000
163
FCMC31 GMMC 110800
TAF GMME 110800Z 1110/1119 20008KT 6000 SCT015 BKN100 TEMPO
     1112/1119 24010KT 4000 RA CKN013 BKN070=
TAF GMMN 110800Z 1110/1119 18006KT 9999 FEW016 BKN100 TEMPO 1114/1118
22010KT=
TAF GMMX 110800Z 1110/1119 24006KT 8000 SCT026 SCT100 TEMPO 1115/1119
         32014KT=
TAF GMTT 110800Z 1110/1119 VRB03KT 6000 SCT016 BKN100
PROB30 TEMPO 1112/1119 -RA=
TAF GMAD 110800Z NIL=

0000045500
164
SAPO31 LPMG 110800
METAR LPBJ 110800Z VRB02KT 3000 0500NE BCFG FEW001 04/04 Q1017=
METAR LPFR 110800Z 07007KT 9999 SCT017 14/10 Q1016=
METAR LPMA 110800Z 28004KT 9999 FEW015 14/11 Q1017 RS26004KT
0529006KT 2329005KT=
METAR LPPR 110800Z 13004KT 090V170 0900 R17/0900V1600D PRFG BKN002
05/05 Q1017=
METAR LPPS 110800Z 11002KT 9999 FEW015 13/12 Q1017=
METAR LPPT 110800Z 09004KT 020V110 6000 2000NE VCFG FEW001 08/07
Q1016=

0000031600
165
FCMC32 GMMC 110800
TAF GMFF 110800Z 1110/1119 24006KT 9999 SCT030 BKN100 BECMG 1110/1114
30010KT RA BKN030 BKN100=
TAF GMFO 110800Z 1110/1119 22014KT 8000 -RA BKN016 BKN026=
TAF GMFB 110800Z NIL=
TAF GMML 110800Z NIL=
TAF GMMW 110800Z NIL=
TAF GMMZ 110800Z NIL=
TAF GMTA 110800Z NIL=

0000008800
166
SAIE32 EIDB 110800 RRC
METAR EIWF 110800Z 30003KT CAVOK 00/M01 Q1018=

0000076700
167
SANM40 FYWW 110800
METAR FYGB 110800Z AUTO 08007KT //// // ////// 29/06 Q1021=
METAR FYGF 110800Z 24004KT CAVOK 28/06 Q1021=
METAR FYGO 110800Z AUTO 34005KT //// // ////// 24/11 Q1016=
METAR FYKT 110800Z 04004KT CAVOK 27/06 Q1019=
METAR COR FYLZ 110800Z AUTO 20013KT //// // ////// 20/08 Q1012=
METAR FYML 110800Z AUTO 10010KT //// // ////// 29/05 Q1020=
METAR FYOA 110800Z 18004KT CAVOK 27/06 Q1017=
METAR FYOO 110800Z AUTO 19004KT //// // ////// 30/01 Q1018=
METAR FYOW 110800Z AUTO 12004KT //// // ////// 29/03 Q1019=
METAR FYRN 110800Z 30005KT CAVOK 27/18 Q1018=
METAR FYWB 110800Z 36006KT 9999 BKN040 19/15 Q1015=
METAR FYWE 110800Z 13007KT CAVOK 27/04 Q1023=
METAR FYWH 110800Z AUTO 15007KT //// // ////// 22/03 Q1023=

0000035900
168
SAPO32 LPMG 110800
METAR LPAZ 110800Z 23018KT 9999 -DZ BKN008 16/15 Q1006=
METAR LPFL 110800Z 31014G30KT 240V020 9999 VCSH BKN020 09/03 Q1008=
METAR LPHR 110800Z 30018G28KT 9999 -SHRA SCT020 BKN050 12/07 Q1007=
METAR LPLA 110800Z 33024G34KT 9999 FEW013 12/09 Q1004=
METAR LPPD 110800Z 29024KT 260V320 9999 FEW012 SCT035 14/13 Q1004=

0000040000
169
SAID32 WIII 110800
METAR WIPT 110800Z 28005KT 250V330 9999 SCT020 30/22 Q1008= 
METAR WIOO 110800Z 05002KT 9999 SCT012 31/24 Q1007 = 
METAR WADL 110800Z 13005KT 7000 HZ SCT016 27/25 Q1008= 
METAR WIBB 110800Z 34006KT 9999 SCT017 31/23 Q1006 NOSIG= 
METAR WIPP 110800Z 00000KT 9999 SCT008 26/25 Q1008= 
METAR WAMM NIL=
METAR WIDN NIL=
METAR WAOO NIL=
METAR WALL NIL=

0000048800
170
SAAO33 DRRN 110800
METAR DBBB 110800Z VRB03KT 2500  BR SCT008 BKN200 26/26 Q1012 TEMPO
1400=
METAR DFFD 110800Z 08006KT 4000 DU NSC 23/02 Q1016 NOSIG=
METAR DGAA 110751Z 26005KT 8000 NSC 26/25 Q1012 NOSIG=
METAR DNKN 110800Z NIL=
METAR DNMM 110800Z NIL=
METAR DRRN 110800Z 07010KT 2500 DU NSC 21/M01 Q1017 NOSIG=
METAR DXXX 110800Z VRB01KT 1200 R22/1000V1300 BR SCT010 26/26 Q1013
BECMG 2000 BR=
METAR FTTJ 110800Z 06014KT 7000  NSC 20/03 Q1019 NOSIG=

0000056600
171
SASG21 GOOY 110800
METAR GOSS 110800Z 04006KT CAVOK 14/14 Q1014=
METAR GOSP 110800Z 36002KT CAVOK 14/11 Q1015=
METAR GOOG 110800Z 06002KT 9000 NSC 15/12 Q////=
METAR GOSM 110800Z 34002KT CAVOK 17/09 Q1014=
METAR GOOD 110800Z 36002KT CAVOK 15/12 Q1014=
METAR GOOK 110800Z 00000KT CAVOK 16/13 Q1014=
METAR GOTT 110800Z 00000KT CAVOK 20/10 Q1013=
METAR GOGG 110800Z 02004KT CAVOK 18/10 Q1014=
METAR GOGS 110800Z 36008KT CAVOK 17/12 Q1014=
METAR GOGK 110800Z VRB02KT CAVOK 17/13 Q1013=
METAR GOTK 110800Z 16004KT CAVOK 20/11 Q1012=

0000032700
172
SAAO30 GOOY 110800 RRA
METAR GOSS 110800Z 04006KT CAVOK 14/14 Q1014=
METAR GOOK 110800Z 00000KT CAVOK 16/13 Q1014=
METAR GOTT 110800Z 00000KT CAVOK 20/10 Q1013=
METAR GOGG 110800Z 02004KT CAVOK 18/10 Q1014=
METAR GOGS 110800Z 36008KT CAVOK 17/12 Q1014=
METAR GOTK 110800Z 16004KT CAVOK 20/11 Q1012=

0000011500
173
SATH32 VTBB 110800 RRA
METAR VTST 110800Z 05012KT 9999 FEW020 BKN300 31/20 Q1008 RWY08
INFO I=

0000020200
174
FTSP33 LEMM 110500 AAD
TAF AMD LEST 110808Z 1108/1206 VRB03KT 7000 NSC TX12/1115Z
TN01/1108Z TEMPO 1108/1110 2500 BR BKN004 TEMPO 1108/1109
0200 FG BKN001 BECMG 1120/1123 19010KT=

00000000