0000015400
415
SSVX02 LFVW 111722
ZZYY 23598 11014 1550/ 114618 083024 6112/
11119 40173 52021
22219 00264
444 20120 11014 1315/ 503// 80108 80011=
0000181800
416
SSVX08 KARS 111721
ZZYY 23017 10014 1200/ 304016 067235 6111/
33311 88872 20001 32812 20020 32802 20060 32499 43539 20080 32151
20100 31965 20120 31834 20140 31738 20180 31536 20300 31146
20500 30947
444 20110 10014 1148/ 521//=
ZZYY 23017 11014 17004 304017 067242 6111/
11119 02713 10273 29082
22219 00282
444 20110 11014 1713/ 521// 60401=
ZZYY 14043 10014 1200/ 312203 067249 6111/
33311 88872 20001 32970 43504 20020 32969 20040 32922
20060 32551 43509 20080 32180 20100 31962 20120 31813 20140 31695
20180 31483 20300 31140 20500 30881
444 20110 10014 1144/ 521//=
ZZYY 14043 11014 17004 312198 067252 6111/
11119 01211 10292 29074 40129
22219 00297
444 20110 11014 1712/ 521// 60401=
ZZYY 14042 10014 1200/ 312115 054867 6112/
33311 88872 20001 32895 43493 20020 32890 43496 20040 32831 43501
20060 32667 43500 20080 32517 20100 32301 20120 32122 20140 31954
20180 31707 20500 30944
444 20120 10014 1144/ 521//=
ZZYY 14042 11014 17004 312117 054864 6111/
11119 00513 10287 29081 40124
22219 00290
444 20110 11014 1713/ 521// 60401=
ZZYY 23016 10014 1200/ 301618 066811 6112/
33311 88872 20001 32838 20020 32830 43526 20040 32793
20060 32580 43546 20080 32315 20100 32120 20120 31834 20140 31576
20180 31359 20300 31179 20500 30954
444 20120 10014 1148/ 521//=
ZZYY 14040 10014 1200/ 308084 066939 6112/
33311 88872 20001 32964 43475 20020 32889 43501 20040 32489 43508
20060 32002 43511 20080 31796 20100 31609 20120 31503 20140 31414
20180 31285 20300 31081 20500 30904
444 20120 10014 1146/ 521//=
ZZYY 14040 11014 17004 308081 066944 6111/
11119 02708 10283 29077 40131
22219 00296
444 20110 11014 1712/ 521// 60401=
ZZYY 14041 11014 1700/ 307900 055085 6112/
11119 10280 29080
444 20120 11014 1713/ 521//=
0000011000
417
UANT01 CWAO 111722
ARP BAW173 5252N03222W 1722 F380 MS53 232/19 KT
GZZZC QXT AOW 111722 F23A
0000011000
418
UANT01 CWAO 111722
ARP VIR11B 5407N02333W 1722 F380 MS60 192/58 KT
GVKSS DDL XXF 111722 J24A
0000216600
419
SZNZ01 NZKL 111724
CREX++
T000103 A001 D01021 D06025++
-3683144 17478654 AUCT  2014 01 11 17 16 //// 11 07 00 01
05820 3140 05817 3141 05814 3142 05812 3144 05807 3144 05803 3144+
-4402404 -17636748 CHIT  2014 01 11 17 16 //// 11 07 00 01
04697 2004 04695 2005 04685 1998 04680 1997 04694 2015 04689 2014+
-4089929 17623168 CPIT  2014 01 11 17 16 //// 11 07 00 01
03854 2275 03862 2288 03862 2293 03859 2295 03852 2294 03856 2302+
-3618905 17548887 GBIT  2014 01 11 17 16 //// 11 07 00 01
06248 0012 06232 -0001 06232 0003 06241 0015 06236 0014 06228 0009+
-3867541 17802288 GIST  2014 01 11 17 16 //// 11 07 00 01
04126 2723 04118 2720 04129 2736 04111 2722 04129 2745 04105 2726+
-4241288 17370277 KAIT  2014 01 11 17 16 //// 11 07 00 01
03211 2242 03213 2249 03210 2252 03209 2256 03215 2267 03218 2275+
-3755040 17815904 LOTT  2014 01 11 17 16 //// 11 07 00 01
03788 0201 03788 0205 03777 0197 03770 0195 03772 0200 03766 0198+
-3704657 17451175 MNKT  2014 01 11 17 16 //// 11 07 00 01
03185 -0099 03191 -0098 03175 -0120 03196 -0104 03204 -0102 03210 -0102+
-3947566 17692007 NAPT  2014 01 11 17 16 //// 11 07 00 01
03052 2028 03068 2050 03060 2047 03067 2059 03047 2045 03049 2052+
-3441483 17304870 NCPT  2014 01 11 17 16 //// 11 07 00 01
-04542 -9508 -04533 -9498 -04511 -9475 -04556 -9518 -04524 -9484 -04520 -9479+
-4581435 17062939 OTAT  2014 01 11 17 16 //// 11 07 00 01
04144 3506 04140 3507 04134 3505 04130 3505 04124 3504 04118 3503+
-2928002 -17789440 RBCT  2014 01 11 17 16 //// 11 07 00 01
06247 2006 06255 2017 06249 2013 06249 2016 06238 2007 06235 2006+
-2925114 -17790384 RFRT  2014 01 11 17 16 //// 11 07 00 01
03173 0141 03187 0158 03182 0155 03161 0136 03180 0158 03177 0157+
-4357010 17277383 SUMT  2014 01 11 17 16 //// 11 07 00 01
01771 1883 01741 1859 01754 1879 01732 1864 01712 1849 01733 1877+
-3764109 17618118 TAUT  2014 01 11 17 16 //// 11 07 00 01
05507 3989 05501 3986 05501 3988 05499 3990 05498 3992 05499 3997+
-4128448 17477985 WLGT  2014 01 11 17 16 //// 11 07 00 01
03009 2036 03010 2041 02998 2033 02997 2036 02981 2024 02986 2033++
7777
0000024100
420
SOAT10 KWAL 111723
FA8005BC 011172337 OT12 ID:KN-BASS-01 DT:2014 01 11 17 21
:RD -3090 -3057 -3076 -3039 -3058 -3037 -3044 -3046 -3072 -3073
:PR 0603 0584 0595 0617 0608 0583 0623 0585 0606 0645
:B 13.7V
 46+1NN 219E
0000011100
421
UANT99 KDDL 111722
ARP IBE6253 4540N02146W 1722 F330 MS53 198/91 KT
ECLUB QXT EUA 111722 J44A
0000011200
422
UANT99 KDDL 111722
ARP FDX5081 5504N03655W 1722 F350 MS57 255/28 KT
N589FE QXT AOW 111722 F20A
0000011200
423
SACN42 CWAO 110900
METAR CYQD 110900Z 32011KT 15SM -SN OVC015 M06/M08 A2946 RMK SC8
SLP996=

0000010600
424
SACN43 CWAO 110900
METAR CYEN 110900Z 28010KT 15SM FEW050 M11/M12 A2964 RMK SC1 SLP074=

0000010200
425
SAAK32 KWBC 110800 RRC
METAR
PAFB 110805Z AUTO 00000KT 10SM FEW003 M34/M37 A2956=

0000030100
426
SABC40 FBSK 110900
METAR FBSK 110900Z 04010KT 360V070 9999 FEW030 31/13 Q1017 NOSIG=
METAR FBFT 110900Z /////KT 9999 FEW030 30/21 Q1017=
METAR FBMN 110900Z 03008KT CAVOK 30/19 Q1017=
METAR FBKE 110900Z 32004KT CAVOK 25/19 Q1018=
METAR FBSP 110900Z 15004KT CAVOK 31/13 Q1018=

0000011300
427
SACN52 CWAO 110900
METAR CWSA 110900Z AUTO 24009KT 9SM OVC032 OVC042 03/00 A3036 RMK
SLP283=

0000009900
428
SACN62 CYQR 110900
METAR CYQR 110900Z 28013KT 15SM SKC M10/M11 A2964 RMK SLP076=

0000010600
429
SACN62 CYQU 110900
METAR CYQU 110900Z 14004KT 25SM OVC080 M07/M10 A2929 RMK AC8 SLP955=

0000010200
430
SACN62 CYRT 110900
METAR CYRT 110900Z VRB02KT 15SM IC SKC M31/M34 A2973 RMK SLP073=

0000011500
431
SACN62 CYSB 110900
METAR CYSB 110900Z 14013KT 2SM -RA BR OVC002 M00/M00 A2949 RMK SF8
 SLP001=

0000024200
432
FTPO33 LPMG 110500 AAA
TAF AMD LPPR 110900Z 1109/1206 11007KT 0300 FG BKN001 TEMPO 1109/1112
             3000 BR SCT005 BKN010 BECMG 1112/1114 18008KT 9999 NSW
             FEW015 PROB30 TEMPO 1117/1124 5000 BR SCT006=

0000059900
433
FCEE31 LOWM 110800
TAF UAII 110850Z 1110/1119 12004MPS 7000 NSC
     TEMPO 1113/1119 VRB02MPS 2000 BR FU=
TAF UASP 110900Z 1110/1119 16005MPS 3100 -SN FU BKN011 OVC100
TEMPO 1110/1119 16010MPS 2000 SN BLSN FEW003=
TAF UADD 110845Z 1110/1119 18005G10MPS 9999 BKN100=
TAF COR UASK 110902Z 1110/1119 14006G11MPS 9999 SCT030 BKN100
TEMPO 1113/1119 3500 SN BR=
TAF UACK 110900Z 1110/1119 19006MPS 9999 DRSN BKN015CB BKN100
TEMPO 1110/1116 2000 SHSN BLSN SCT006 BKN010CB=
TAF UACP 110800Z NIL=
TAF UAOO 110852Z 1110/1119 23008MPS 5000 BR NSC=
TAF UAKD 110800Z NIL=

0000035400
434
FTUS51 KWBC 110909 AAA
TAF AMD
KMPV 110906Z 1109/1206 18005KT 5SM BR VCSH SCT006 BKN012 OVC020
      TEMPO 1109/1113 3SM -FZRA BR BKN006 OVC010
     FM111300 17007KT 3SM -RA BR OVC007 WS020/20050KT
     FM111500 17009G18KT 3SM -RA BR BKN003 OVC009 WS020/20050KT
     FM112000 17008G18KT 2SM RA BR BKN003 OVC008 WS020/20055KT=

00000000