0000049000
675
SACA33 KWBC 110900
METAR
TBPB NIL=
TDPD NIL=
TDPR NIL=
TFFF 110900Z AUTO 06012KT 9999 FEW032/// SCT066/// ///TCU 24/20
     Q1015=
TFFG NIL=
TFFJ NIL=
TFFR 110900Z AUTO 27002KT 9999 SCT030 BKN035 BKN042 21/20
     Q1016=
TGPY NIL=
TGPZ NIL=
TLPC NIL=
TLPL 110900Z 09020G35KT 9999 -SHRA BKN018 SCT040 22/21 Q1015
     NOSIG=
TNCA NIL=
TNCB NIL=
TNCC NIL=
TNCE NIL=
TNCM NIL=
TTCP NIL=
TTPP NIL=
TVSM NIL=
TVSU NIL=
TVSV NIL=

0000063600
676
SACA35 KWBC 110900
METAR
MGGI NIL=
MGPB 110900Z 00000KT CAVOK 22/21 Q1013 A2991 SCT090=
MGSJ 110900Z 00000KT CAVOK 21/21 Q1012 A2988=
MHLC 110900Z 00000KT 9999 FEW028 20/20 Q1013 A2991 NOSIG=
MHLM 110900Z 00000KT 9999 FEW026 BKN080 21/21 Q1014 A2994
     NOSIG=
MHTG 110900Z 03004KT 9999 FEW022 16/13 Q1019 A3009 NOSIG=
MNPC NIL=
MPBO NIL=
MPCH NIL=
MPDA NIL=
MPMG NIL=
MPSA NIL=
MPTO 110900Z 00000KT CAVOK 24/20 Q1009 NOSIG=
MRLB NIL=
MRLM NIL=
MROC 110900Z 09005KT CAVOK 19/14 A2996 NOSIG=
MRPV NIL=
MSLP 110850Z 03004KT CAVOK 21/17 Q1011 A2986=
MSSS 110850Z NIL=
MZBZ NIL=

0000004200
677
SAHA31 KWBC 110900
NIL=

0000168600
678
SAUS72 KWBC 110900
METAR
KABI 110852Z 00000KT 10SM CLR 05/M03 A2996=
KABQ 110852Z 35008KT 10SM FEW250 03/M09 A3016=
KABY 110853Z 18009KT 10SM OVC008 19/18 A2996=
KACT 110851Z 31004KT 10SM CLR 07/04 A2988=
KAEX 110853Z 23004KT 10SM FEW015 17/16 A2982=
KAFW NIL=
KAHN 110851Z AUTO 26003KT 1 1/2SM +TSRA BR SCT004 OVC008 08/07
     A2994=
KALI 110853Z AUTO 28004KT 10SM CLR 12/11 A2990=
KAMA 110853Z AUTO 25007KT 10SM CLR M02/M12 A3000=
KANB 110853Z AUTO 21010KT 10SM SCT018 BKN030 BKN046 17/15
     A2980=
KAPF 110853Z 11005KT 6SM BR BKN002 21/21 A3005=
KATL 110852Z 29012G16KT 1/4SM -TSRA BR BKN003 BKN020CB OVC050
     10/09 A2994=
KAUS 110853Z 00000KT 7SM FEW150 08/07 A2988=
KBFM 110853Z AUTO 16007KT 3/4SM BR VV002 16/16 A2989=
KBHM 110853Z 18017G27KT 8SM OVC007 17/16 A2977=
KBNA 110853Z 18005KT 1 3/4SM +RA BR BKN026 OVC035 12/11 A2968=
KBPT 110853Z AUTO 21004KT 1 1/2SM R12/5500VP6000FT BR OVC004 17/17
     A2986=
KBQK 110855Z AUTO 20006KT 10SM SCT003 SCT019 18/17 A3002=
KBRO 110853Z 20007KT 1SM BR VV002 19/18 A2992=
KBTR 110853Z 22013KT 9SM -RA BKN010 OVC014 20/19 A2984=
KCEW 110850Z AUTO 18010KT 1 3/4SM BR OVC002 19/19 A2993=
KCHA 110853Z 20006KT 2SM OVC008 11/09 A2977=
KCLL 110853Z AUTO 24006KT 6SM BR CLR 13/13 A2986=
KCNM 110853Z AUTO 04005KT 10SM CLR 07/M08 A3003=
KCRP 110851Z 24004KT 10SM BKN250 12/11 A2990=
KCSG 110851Z AUTO 21011KT 3SM -RA BR OVC002 17/17 A2990=
KCSV 110853Z AUTO 17007G18KT 10SM VCTS -RA OVC006 12/11 A2970=
KDAB 110853Z 16004KT 9SM SCT016 SCT075 21/20 A3005=
KDAL 110853Z 00000KT 10SM FEW110 SCT160 08/04 A2989=
KDFW 110853Z 24006KT 10SM SCT150 07/02 A2988=

0000167000
679
SAUS72 KWBC 110900 RRA
METAR
KDHN 110853Z AUTO 18011KT 2SM +RA BR BKN002 OVC012 19/18 A2997=
KDLF 110858Z AUTO 36007KT 10SM CLR 07/07 A2995=
KDMN 110853Z AUTO 23005KT 10SM CLR 01/M08 A3015=
KELP 110851Z 14005KT 10SM CLR 06/M08 A3010=
KESF 110853Z AUTO 25008KT 10SM CLR 18/17 A2982=
KEYW 110853Z AUTO 13009KT 10SM FEW017 SCT065 24/23 A3005=
KFLL 110853Z 15007KT 10SM FEW019 SCT040 23/22 A3007=
KFSM 110853Z 26010KT 10SM CLR 02/01 A2981=
KFTW 110853Z 29003KT 10SM CLR 08/02 A2989=
KFTY 110853Z 14005KT 1 1/2SM +RA BR BKN005 BKN016 OVC070 11/11
     A2988=
KGGG 110853Z AUTO 00000KT 9SM CLR 07/06 A2985=
KGLS 110852Z AUTO 23006KT 1/2SM FG VV002 17/17 A2988=
KGNV 110853Z AUTO 12003KT 1/2SM FG FEW001 OVC013 17/17 A3004=
KGPT 110853Z AUTO 20007KT 1/2SM FG VV002 16/15 A2987=
KGUP 110853Z AUTO 23008KT 10SM CLR M01/M09 A3021=
KGWO 110853Z AUTO 29008G21KT 10SM BKN012 BKN032 OVC040 17/14
     A2976=
KHOT 110853Z AUTO 00000KT 1 1/2SM BR CLR 03/03 A2979=
KHOU 110853Z 23009KT 2 1/2SM BR OVC003 17/16 A2986=
KHRL 110852Z 25004KT 1SM BR OVC002 18/18 A2992=
KHRO 110853Z AUTO 28008G15KT 10SM CLR 05/M01 A2969=
KHSV 110853Z AUTO 22009KT 1 3/4SM +TSRA BR FEW011 BKN032 OVC050
     14/13 A2972=
KIAH 110853Z 25005KT 1SM BR BKN003 17/16 A2986=
KINK 110853Z AUTO 34008KT 10SM CLR 05/M08 A3002=
KJAN 110854Z AUTO 25010KT 7SM RA OVC013 18/17 A2979=
KJAX 110856Z 22004KT 1/2SM FG VV002 19/19 A3003=
KJBR 110853Z AUTO 27007KT 10SM CLR 08/05 A2970=
KLBB 110853Z 27008KT 10SM CLR M03/M10 A3000=
KLCH 110853Z AUTO 24006KT 4SM BR OVC002 18/17 A2985=
KLFT 110853Z AUTO 24010KT 10SM VCTS BKN011 OVC043 18/ A2985=

0000169200
680
SAUS72 KWBC 110900 RRB
METAR
KLIT 110853Z 26007KT 10SM CLR 08/04 A2976=
KLRD 110856Z AUTO 00000KT 10SM CLR 13/12 A2995=
KLRU 110855Z AUTO 32006KT 10SM CLR 01/M09 A3014=
KMAF 110853Z AUTO 31009KT 10SM CLR 07/M07 A3001=
KMCN 110853Z AUTO 18006KT 3SM BR OVC002 16/16 A2993=
KMCO 110853Z 15005KT 10SM SCT070 OVC250 21/19 A3006=
KMEI 110858Z AUTO 19017G21KT 7SM VCTS -RA BKN013 BKN026 OVC040
     19/18 A2975=
KMEM 110854Z 27009KT 10SM BKN090 BKN100 OVC250 13/09 A2971=
KMFE 110853Z AUTO 00000KT 1/4SM FG VV001 16/15 A2993=
KMGM 110853Z AUTO 18008G16KT 10SM OVC009 19/18 A2985=
KMIA 110853Z 13006KT 10SM FEW022 24/22 A3008=
KMKL 110853Z AUTO 23006KT 10SM SCT080 OVC095 12/11 A2968=
KMLB 110853Z AUTO 16005KT 8SM CLR 21/21 A3006=
KMLC 110853Z AUTO 00000KT 10SM CLR 01/M01 A2986=
KMLU 110853Z AUTO 26008KT 10SM SCT019 BKN024 BKN033 18/16
     A2981=
KMOB 110856Z AUTO 19016KT 5SM BR OVC003 19/19 A2987=
KMSL 110853Z AUTO 23009KT 4SM RA BR FEW038 OVC055 16/13 A2969=
KMSY 110853Z 20010KT 7SM OVC006 20/19 A2986=
KNEW 110853Z AUTO 20016KT 9SM OVC007 19/18 A2987=
KNGP 110856Z AUTO 23007KT 2 1/2SM BR SCT002 16/16 A2990=
KOKC 110852Z 29010KT 10SM FEW200 04/M04 A2987=
KPBI 110853Z 15009KT 10SM FEW011 SCT250 24/22 A3007=
KPDK 110853Z AUTO 14004KT 2SM VCTS RA BR OVC003 09/09 A2988=
KPFN NIL=
KPIE 110853Z AUTO 15008KT 10SM FEW018 21/20 A3004=
KPNS 110853Z AUTO 18015KT 1/4SM R17/1600FT FG VV002 19/19
     A2990=
KROW 110851Z AUTO 08004KT 10SM CLR 03/M10 A3004=
KRSW 110853Z 16006KT 1 3/4SM BR OVC002 21/21 A3006=
KSAT 110851Z 00000KT 8SM BCFG FEW250 12/11 A2992=
KSFB 110853Z AUTO 00000KT 1/2SM FG VV002 18/18 A3006=

0000128500
681
SAUS72 KWBC 110900 RRC
METAR
KSHV 110856Z 28005KT 10SM CLR 11/09 A2984=
KSJT 110851Z AUTO 26007KT 10SM CLR 07/M05 A2996=
KSRQ 110853Z 15006KT 10SM CLR 21/19 A3003=
KSSI 110853Z AUTO 17006KT 3/4SM BR VV002 13/13 A3002=
KTCC 110853Z AUTO 27008KT 10SM CLR M01/M12 A2999=
KTCL 110853Z AUTO 19015G25KT 10SM -RA OVC007 18/17 A2973=
KTCS 110853Z AUTO 30011KT 10SM CLR 07/M10 A3013=
KTLH 110853Z AUTO 19005KT 1/2SM FG VV002 18/17 A3000=
KTPA 110853Z VRB04KT 9SM FEW045 BKN130 21/20 A3004=
KTRI 110853Z 00000KT 1/2SM FG VV001 07/06 A2980=
KTUL 110853Z 28006KT 10SM CLR 03/M01 A2981=
KTUP 110853Z AUTO 22008KT 10SM BKN021 BKN031 OVC065 16/16
     A2971=
KTXK 110853Z AUTO 22004KT 9SM CLR 07/07 A2983=
KTYR 110853Z 00000KT 8SM CLR 09/08 A2987=
KTYS 110853Z 00000KT 1/2SM R23R/3000V4500FT -RA BR FEW002 BKN018
     OVC050 07/07 A2977=
KVCT 110851Z AUTO 21004KT 1/2SM FG VV001 14/13 A2990=
KVLD 110853Z AUTO 19008KT 10SM OVC005 21/18 A3000=
KVRB 110853Z 17003KT 8SM FEW011 21/21 A3007=
TIST 110853Z 10003KT 10SM CLR 23/20 A3004=
TISX 110853Z AUTO 05004KT 10SM FEW022 BKN050 23/20 A3004=
TJBQ 110850Z 11006KT 10SM FEW010 23/ A3007=
TJMZ NIL=
TJPS NIL=
TJSJ 110856Z 12004KT 10SM FEW023 SCT030 23/21 A3005=
TKPK NIL=
TNCM NIL=

0000170100
682
SAUS73 KWBC 110900
METAR
KABR 110853Z AUTO 33005KT 10SM BKN015 M10/M11 A2960=
KALN 110855Z AUTO 26012KT 10SM 06/05 A2957=
KALO 110854Z 29007KT 6SM BR OVC009 M01/M02 A2951=
KAPN 110854Z AUTO 19006KT 10SM OVC013 03/02 A2943=
KASE 110853Z 00000KT 6SM -SN BR SCT047 OVC060 M05/M06 A3016=
KATY 110853Z AUTO 30011KT 10SM CLR M07/M09 A2953=
KAXN 110853Z AUTO 30010KT 10SM OVC011 M06/M08 A2947=
KAZO 110853Z AUTO 19010KT 1/2SM FG OVC002 04/03 A2948=
KBDE 110853Z AUTO 29004KT 7SM BKN009 BKN013 OVC027 M03/M05
     A2941=
KBFF 110853Z AUTO 28008KT 10SM OVC100 01/M07 A2986=
KBIS 110852Z 30007KT 10SM SCT100 M04/M07 A2963=
KBJC 110855Z AUTO 31009G22KT 10SM CLR 03/M09 A2988=
KBKF 110855Z 28016G19KT 10SM FEW100 SCT220 02/M09 A2988=
KBRL 110853Z AUTO 29007KT 9SM BKN010 OVC040 09/01 A2953=
KBTL 110853Z 20013KT 1/4SM -RA FG VV002 04/04 A2948=
KCGI 110853Z AUTO 25012KT 10SM CLR 08/07 A2961=
KCID 110852Z AUTO 30010KT 8SM BKN008 OVC070 00/M02 A2950=
KCIU 110855Z AUTO 12007KT 3SM OVC002 01/01 A2938=
KCMI 110853Z AUTO 19011KT 1/2SM R32R/2000V2800FT FG VV002 04/04
     A2948=
KCMX 110853Z AUTO 00000KT 1SM -SN BR FEW008 OVC020 M03/M05
     A2937=
KCOS 110854Z 36015G24KT 10SM FEW170 M02/M12 A2990=
KCOU 110854Z AUTO 28016G20KT 6SM -RA BR OVC004 03/02 A2962=
KCPR 110853Z AUTO 24014KT 10SM FEW080 M04/M10 A2988=
KCYS 110853Z AUTO 31019G30KT 10SM CLR M01/M08 A2987=
KDDC 110852Z AUTO 28012KT 10SM CLR M01/M07 A2986=
KDEC 110854Z AUTO 22009KT 3SM BR OVC006 06/06 A2949=
KDEN 110853Z 15008KT 10SM FEW090 FEW120 M05/M10 A2987=
KDET 110853Z AUTO 20007KT 4SM BR OVC005 07/05 A2955=
KDLH 110855Z 30006KT 3SM -FZDZ BR OVC006 M03/M05 A2939=

0000165700
683
SAUS73 KWBC 110900 RRA
METAR
KDSM 110854Z 30013KT 5SM BR OVC006 01/M01 A2958=
KDTW 110853Z 18008KT 1SM BR OVC004 04/04 A2954=
KEAU NIL=
KEGE 110855Z AUTO 25019KT 10SM OVC060 00/M04 A3017=
KELO 110853Z AUTO 28005KT 7SM OVC006 M04/M06 A2937=
KEVV 110854Z AUTO 19006KT 9SM FEW008 BKN019 OVC026 10/09 A2957=
KFAR 110853Z 31015KT 10SM OVC014 M03/M06 A2953=
KFNT 110853Z AUTO 18008KT 8SM OVC007 06/04 A2950=
KFSD 110856Z AUTO 29008KT 10SM CLR M05/M07 A2955=
KFWA 110854Z 21008KT 1/4SM FG VV002 04/03 A2953=
KGCK 110854Z AUTO 28010KT 10SM CLR M01/M07 A2988=
KGFK NIL=
KGJT 110853Z AUTO 34003KT 10SM OVC070 M06/M08 A3021=
KGRB 110853Z AUTO 26005KT 6SM BR OVC006 01/01 A2938=
KGRI 110853Z AUTO 28008KT 10SM OVC110 M02/M05 A2970=
KGRR 110853Z AUTO 19007KT 1/2SM R26L/2200V3500FT FG VV002 05/04
     A2945=
KGYY 110855Z AUTO 20005KT 4SM RA BKN005 OVC010 06/05 A2946=
KHIB NIL=
KHON 110855Z AUTO 29008KT 10SM CLR M06/M08 A2961=
KHUF 110853Z 19011KT 7SM -RA BKN004 OVC032 06/ A2952=
KHUT 110852Z AUTO 30006KT 10SM CLR M01/M03 A2980=
KICT 110853Z 29009KT 10SM FEW250 02/M01 A2980=
KIKK 110855Z AUTO 19009KT 1SM -DZ OVC002 03/03 A2947=
KIND 110854Z 18004KT 1/4SM R05L/2000V3500FT -RA FG VV002 04/04
     A2954=
KINL 110855Z AUTO 26004KT 1 1/4SM -SN BR OVC003 M03/M04 A2938=
KIRK 110855Z AUTO 27010KT 7SM OVC008 01/00 A2958=
KJAC 110855Z AUTO 17010G19KT 10SM OVC031 00/M03 A3002=
KJLN 110853Z AUTO 26008KT 6SM BR OVC036 01/00 A2974=
KJMS 110856Z AUTO 32017KT 10SM BKN011 M04/M06 A2954=
KJXN 110851Z 19008KT 1 1/2SM BR OVC003 05/05 A2949=
KLAN 110853Z 19011G16KT 4SM BR OVC004 04/04 A2948=

0000168400
684
SAUS73 KWBC 110900 RRB
METAR
KLAR 110853Z AUTO 25015G24KT 10SM FEW038 BKN070 M03/M09 A2989=
KLBF 110853Z AUTO 32006KT 10SM FEW100 M04/M07 A2976=
KLBL 110855Z AUTO 28011KT 10SM CLR M01/M09 A2993=
KLEX 110854Z 20005KT 5SM RA BR OVC049 11/10 A2966=
KLNK 110854Z AUTO 00000KT 10SM CLR M04/M06 A2968=
KLOU 110853Z AUTO 16004KT 5SM RA BR OVC065 11/11 A2961=
KLOZ 110853Z AUTO 17012G18KT 10SM FEW031 14/11 A2965=
KLSE 110853Z AUTO 00000KT 5SM BR OVC011 M02/M03 A2946=
KMBS NIL=
KMCI 110853Z 27009KT 7SM BKN007 BKN019 01/M01 A2968=
KMDW 110851Z 21008KT 3SM -RA BR OVC005 04/04 A2944=
KMHK 110852Z AUTO 00000KT 9SM CLR M01/M02 A2974=
KMKC 110854Z AUTO 26007KT 9SM BKN019 02/M01 A2969=
KMKE 110852Z 23007KT 1SM R01L/P6000FT BR OVC002 03/02 A2940=
KMKG 110855Z AUTO 19011KT 1/2SM R32/3000FT FG VV002 04/02
     A2942=
KMLI 110852Z AUTO 29005KT 6SM BR OVC006 01/00 A2948=
KMOT NIL=
KMSN 110853Z 28006KT 8SM OVC008 01/01 A2942=
KMSP 110853Z 28005KT 4SM BR SCT006 OVC011 M02/M02 A2948=
KOFF 110858Z 00000KT 4SM R30/4500FT BR CLR M09/M09 A2964=
KOMA 110852Z 00000KT 8SM CLR M05/M08 A2965=
KORD 110851Z 21011KT 7SM -RA OVC006 04/02 A2942=
KOSH 110853Z 25004KT 8SM OVC007 01/00 A2939=
KOTM 110853Z AUTO 29010KT 8SM OVC010 01/M01 A2954=
KOWB 110856Z AUTO 19007KT 10SM -RA BKN017 BKN028 OVC080 09/09
     A2959=
KPAH 110853Z AUTO 24013KT 10SM OVC013 11/09 A2961=
KPIA 110854Z 28008KT 3/4SM R13/4500VP6000FT BR VV003 03/03
     A2949=
KPIR 110853Z AUTO 31016KT 10SM CLR M02/M06 A2966=
KPLN 110854Z AUTO 14003KT 4SM BR OVC006 01/00 A2937=
KPTK 110853Z AUTO 19006KT 1/2SM R09R/2400V3000FT -RA FG VV002
     04/04 A2952=

0000126900
685
SAUS73 KWBC 110900 RRC
METAR
KPUB 110853Z AUTO 00000KT 10SM CLR M06/M13 A2993=
KRAP 110852Z AUTO 32012KT 10SM FEW070 01/M04 A2973=
KRFD 110854Z 26009KT 1/4SM R01/1600V2800FT FG VV002 02/02
     A2945=
KRKS 110854Z AUTO 26018G24KT 10SM OVC024 M01/M05 A3006=
KRST 110854Z AUTO 29011KT 1 3/4SM BR OVC003 M02/M03 A2946=
KSAW 110856Z AUTO 02003KT 4SM -SN OVC006 M02/M02 A2933=
KSBN 110854Z 19008KT 1/4SM FG VV002 04/04 A2948=
KSDF 110856Z 17007KT 6SM -RA FEW007 OVC070 11/11 A2960=
KSDM 110853Z AUTO 00000KT 8SM CLR 10/03 A3011=
KSGF 110852Z 28007KT 10SM FEW050 02/00 A2968=
KSLN 110853Z AUTO 23006KT 10SM CLR 01/M01 A2977=
KSPI 110852Z AUTO 24008KT 1/2SM FG OVC002 03/03 A2951=
KSTC 110853Z AUTO 30006KT 4SM BR OVC006 M04/M05 A2946=
KSTJ 110853Z AUTO 27008KT 5SM BR OVC006 00/M01 A2969=
KSTL 110851Z 26010KT 7SM SCT018 OVC025 07/04 A2957=
KSTP 110853Z AUTO 29006KT 5SM BR OVC010 M01/M03 A2949=
KSUS 110854Z AUTO 24009KT 10SM FEW019 BKN027 OVC031 06/03
     A2959=
KSUX 110852Z 29006KT 10SM CLR M06/M08 A2960=
KTVC 110853Z 19004KT 7SM OVC011 04/03 A2937=
KUIN 110854Z AUTO 27009KT 7SM OVC005 02/01 A2955=
KWRL 110853Z AUTO 14010KT 10SM CLR M10/M13 A2987=
KYIP 110853Z AUTO 21009KT 4SM BR OVC004 07/04 A2953=

0000167700
686
SAUS74 KWBC 110900
METAR
KACV 110853Z AUTO 11006KT 10SM OVC035 08/07 A3010=
KALW 110853Z AUTO 17016G23KT 10SM OVC100 13/04 A2974=
KBFI 110853Z 17017G24KT 10SM -RA OVC055 14/08 A2948=
KBFL 110854Z AUTO 12004KT 7SM CLR 07/03 A3023=
KBIL 110853Z 28008KT 10SM FEW160 01/M06 A2979=
KBKE 110853Z AUTO 13011KT 10SM FEW027 SCT043 BKN075 03/00
     A2994=
KBLI 110853Z AUTO 15029G46KT 10SM SCT024 BKN065 OVC075 12/07
     A2935=
KBOI 110853Z 14008KT 10SM OVC060 04/01 A3003=
KBTM 110853Z AUTO 02004KT 10SM FEW041 01/M06 A2983=
KBUR 110853Z 00000KT 9SM CLR 12/04 A3011=
KBYI 110853Z AUTO 23004KT 10SM FEW042 BKN049 OVC070 02/M01
     A3009=
KBZN 110856Z AUTO VRB04KT 10SM SCT070 OVC090 02/M06 A2985=
KCDC 110853Z AUTO 05004KT 10SM CLR M03/M06 A3022=
KCEC 110856Z AUTO 15016G22KT 10SM OVC012 12/09 A3006=
KCLM 110853Z AUTO VRB04KT 10SM -RA BKN060 OVC075 08/07 A2933=
KCTB 110856Z AUTO 21012KT 10SM SCT110 03/M05 A2960=
KCXL NIL=
KEKO 110856Z AUTO 27004KT 10SM OVC070 02/M02 A3018=
KEUG 110854Z AUTO 19012KT 10SM FEW044 12/05 A2983=
KFAT 110853Z 00000KT 4SM HZ BKN200 07/03 A3023=
KFLG 110857Z AUTO 00000KT 10SM CLR M04/M07 A3025=
KGCN 110854Z AUTO 06006KT 10SM CLR M08/M10 A3027=
KGEG 110853Z 16014G21KT 10SM -RA BKN034 OVC040 04/02 A2970=
KGGW 110853Z AUTO 32007KT 10SM OVC100 M07/M10 A2974=
KGTF 110853Z 21013G22KT 10SM BKN100 BKN120 03/M04 A2970=
KHLN 110853Z AUTO 18011KT 10SM OVC060 05/M06 A2979=
KHQM 110853Z AUTO 17037G48KT 2SM -SN OVC015 A2951=
KIDA 110853Z AUTO 21021G26KT 10SM OVC018 02/M01 A3006=
KIWA 110855Z AUTO 12004KT 10SM CLR 05/M01 A3017=
KLAS 110856Z 19007KT 10SM BKN250 08/M02 A3014=

0000168900
687
SAUS74 KWBC 110900 RRA
METAR
KLAX 110853Z 00000KT 4SM BR FEW250 12/11 A3011=
KLGB 110853Z 00000KT 1SM BR VV001 12/10 A3011=
KLMT 110853Z AUTO 00000KT 6SM BR CLR 01/M01 A3004=
KLVM 110853Z AUTO 25016G27KT 10SM CLR 04/M07 A2977=
KMFR 110853Z AUTO 16005KT 3/4SM R14/2200V4500FT BR VV002 05/04
     A3001=
KMLS 110853Z AUTO 29005KT 10SM OVC095 M01/M04 A2978=
KMRY 110854Z AUTO 00000KT 10SM CLR 08/06 A3019=
KMSO 110853Z AUTO 11006KT 10SM FEW055 BKN100 03/M02 A2983=
KMYV 110853Z AUTO 00000KT 8SM CLR 04/03 A3020=
KNTD 110854Z AUTO 02003KT CLR 11/08 A3011=
KOAK 110853Z 00000KT 10SM MIFG SCT200 07/06 A3020=
KOGD 110853Z 15004KT 10SM OVC050 03/M03 A3016=
KOLM 110854Z AUTO 19019G34KT 9SM -RA BKN015 OVC042 10/08 A2952=
KONT 110853Z 01006KT 7SM FEW250 11/04 A3011=
KOTH 110855Z 21017G23KT 10SM OVC016 13/12 A2988=
KPAE 110853Z AUTO 15012G19KT 2 1/2SM RA BR BKN015 OVC023 10/08
     A2949=
KPDX 110853Z 18012G19KT 10SM OVC036 13/04 A2973=
KPHX 110851Z 11006KT 10SM CLR 09/M01 A3014=
KPIH 110853Z AUTO 23013KT 10SM SCT036 BKN044 OVC060 03/M02
     A3010=
KPMD 110853Z 23004KT 10SM CLR 04/M03 A3019=
KPRB 110853Z AUTO 06003KT 10SM CLR 05/01 A3020=
KPRC 110853Z AUTO 20006KT 10SM CLR 01/M06 A3023=
KPSP 110853Z AUTO 34007KT 10SM CLR 11/M03 A3014=
KRBL 110854Z AUTO 00000KT 10SM CLR 05/02 A3018=
KRDD 110853Z AUTO 06003KT 10SM CLR 03/01 A3016=
KRDM 110856Z AUTO 17014G25KT 10SM FEW100 09/01 A2982=
KRNO 110855Z 00000KT 10SM SCT200 01/M02 A3019=
KRNT 110853Z AUTO 15010G17KT 10SM -RA SCT055 BKN075 OVC095 13/08
     A2949=
KSAC 110853Z AUTO 00000KT 7SM CLR 05/03 A3021=
KSAN 110851Z 00000KT 6SM BR CLR 13/07 A3012=

0000110100
688
SAUS74 KWBC 110900 RRB
METAR
KSBA 110853Z AUTO 00000KT 8SM CLR 09/07 A3011=
KSBD NIL=
KSBP 110856Z AUTO 05004KT 10SM CLR 12/02 A3016=
KSCK 110855Z AUTO 11006KT 8SM CLR 07/04 A3019=
KSEA 110853Z 18018G24KT 10SM -RA FEW020 BKN048 OVC060 13/08
     A2949=
KSFF 110853Z AUTO 19010G18KT 10SM -RA OVC037 06/02 A2974=
KSFO 110856Z 00000KT 10SM FEW200 09/07 A3020=
KSHR 110853Z AUTO 25009KT 10SM CLR M01/M06 A2981=
KSJC 110853Z AUTO 00000KT 10SM CLR 08/05 A3019=
KSLC 110853Z 12007KT 10SM BKN055 04/M01 A3016=
KSMF 110853Z 14003KT 10SM SCT250 08/04 A3020=
KSMX 110851Z AUTO 33006KT 10SM CLR 11/03 A3014=
KSNA 110853Z AUTO 00000KT 5SM HZ CLR 11/08 A3010=
KSNS 110853Z AUTO 12005KT 1/4SM FG VV001 08/07 A3019=
KTIW 110853Z AUTO 18021G34KT 10SM BKN050 BKN060 OVC075 13/08
     A2950=
KTUS 110853Z 12004KT 10SM CLR 06/M05 A3019=
KTVL 110853Z AUTO 00000KT 10SM CLR M02/M05 A3025=
KTWF 110853Z AUTO 20008KT 10SM OVC045 07/01 A3008=
KUKI 110856Z AUTO 00000KT 10SM CLR 04/01 A3019=
KYKM 110853Z AUTO 18021G36KT 10SM FEW050 FEW080 12/05 A2962=
KYUM NIL=

0000167300
689
SAUS75 KWBC 110900
METAR
PABA 110901Z AUTO 28030G33KT 1/4SM +SN FZFG M23/M26 A2973=
PABE 110853Z 03012KT 10SM CLR M15/M16 A2935=
PABI 110853Z AUTO 22004KT 4SM BR OVC003 M21/M22 A2944=
PABR 110853Z 30010KT 10SM BKN009 BKN013 M24/M27 A2975=
PABT 110853Z 00000KT 10SM SCT150 M37/ A2961=
PACV 110853Z 00000KT 10SM CLR M07/M08 A2922=
PACZ 110855Z AUTO 10017G24KT 10SM FEW060 M06/M11 A2931=
PADK 110856Z AUTO 24024G37KT 10SM SCT013 BKN022 OVC065 03/01
     A2867=
PADL 110855Z 01010KT 10SM SCT006 OVC044 M08/M08 A2937=
PADU 110856Z AUTO 17006KT 10SM FEW022 BKN042 OVC080 03/01
     A2898=
PAEH 110855Z AUTO 13027G32KT 4SM -FZDZ BR SCT003 BKN035 M01/M02
     A2922=
PAEI NIL=
PAEN 110853Z 00000KT 10SM OVC013 M04/M04 A2932=
PAFA 110853Z 00000KT 8SM FEW002 FEW090 M33/M37 A2954=
PAFB 110856Z AUTO 00000KT 10SM CLR M34/M37 A2955=
PAGA 110858Z AUTO 00000KT 10SM CLR M34/ A2964=
PAGK 110853Z AUTO 33005KT 2 1/2SM -SN BR SCT028 BKN050 OVC080
     M13/M15 A2922=
PAGS 110856Z AUTO 00000KT 2 1/2SM CLR M01/M01 A2917=
PAGY 110853Z AUTO 05007KT 10SM OVC018 01/M02 A2919=
PAHO 110853Z AUTO 05004KT 10SM FEW020 OVC037 M02/M04 A2930=
PAIL 110853Z AUTO 02009KT 9SM OVC004 M07/M08 A2936=
PAJN 110853Z 25004KT 1/8SM R08/1600V2800FT FZFG BKN000 BKN049
     M01/M02 A2917=
PAKN 110854Z 32008KT 10SM FEW004 SCT025 SCT130 M08/M08 A2932=
PAKT 110853Z AUTO 22003KT 10SM FEW070 OVC090 02/M02 A2897=
PALU 110855Z AUTO 12004KT 10SM OVC007 M18/M20 A2991=
PAMC 110853Z AUTO 29004KT 10SM CLR M23/M26 A2951=
PANC 110853Z 00000KT 10SM FEW003 BKN013 OVC025 M05/M06 A2931=
PANT 110853Z AUTO VRB04KT 7SM -SN OVC019 01/00 A2893=

0000131300
690
SAUS75 KWBC 110900 RRA
METAR
PAOM 110853Z 04017KT 10SM BLSN FEW032 SCT100 M13/M21 A2958=
PAOR 110853Z 32004KT 4SM -SN OVC035 M17/M19 A2930=
PAOT 110853Z 01007KT 10SM CLR M19/M26 A2973=
PAPG NIL=
PASC 110853Z 24016KT 2SM -SN BLSN BR BKN011 OVC070 M27/M31
     A2977=
PASI 110853Z 00000KT 10SM CLR M01/M01 A2912=
PASN 110853Z AUTO 08020KT 8SM UP OVC006 01/01 A2892=
PATA 110852Z AUTO 00000KT 10SM CLR M35/ A2961=
PATC 110855Z AUTO 02031KT 1 3/4SM BR SCT002 M17/M18 A2967=
PATK 110853Z AUTO 00000KT 10SM OVC016 M08/M10 A2930=
PAUN 110856Z AUTO 11012KT 10SM CLR M17/M23 A2953=
PAVD 110856Z 10SM OVC100 M07/M08 A2923=
PAYA 110853Z AUTO 00000KT 7SM FEW002 OVC038 M01/M01 A2920=
PGRO 110850Z 05007KT 7SM -RA BKN030 BKN100 24/24 A2989=
PGUA 110855Z 05009KT 10SM FEW047 SCT065 25/24 A2989=
PGUM 110854Z 06011KT 10SM FEW025 BKN050 BKN065 26/22 A2988=
PHJH NIL=
PHLI 110853Z AUTO 04017KT 10SM SCT017 BKN021 OVC048 23/21
     A2996=
PHMK 110854Z AUTO 00000KT 10SM CLR 19/17 A2996=
PHNL 110853Z 09003KT 10SM FEW032 22/18 A2994=
PHNY 110856Z AUTO 08004KT 10SM CLR 17/17 A3000=
PHOG 110854Z 13007KT 10SM CLR 20/17 A2995=
PHTO 110853Z AUTO 23007KT 8SM -RA FEW027 BKN041 OVC055 20/18
     A2998=
PMDY 110856Z AUTO 12015KT 5SM BR CLR 21/18 A3013=
PWAK NIL=

0000020200
691
FTCN34 CWAO 110900 AAA
TAF AMD CYVC 110906Z 1109/1119 27006KT P6SM SCT012 BKN025 TEMPO
     1109/1119 4SM -SN BR BKN012
     BECMG 1116/1118 12006KT
    RMK NXT FCST BY 111300Z=

0000012300
692
SACN62 CYWK 110900
METAR CYWK 110900Z 21005KT 12SM -SN SCT035 OVC056 M11/M13 A2982 RMK
 SC3SC5 SLP144=

0000011300
693
SPUS44 KWBC 110906
SPECI
KCLM 110902Z AUTO VRB04KT 7SM -RA FEW003 BKN055 OVC070 08/07 A2933=

0000068900
694
SAJP31 KWBC 110900
METAR
RJAA 110900Z 15004KT 9999 FEW030 BKN/// 01/M05 Q1024 NOSIG=
RJAH 110900Z VRB01KT 9999 FEW030 BKN080 02/M09 Q1023=
RJCC 110900Z 26005KT 220V340 9999 FEW020 M07/M16 Q1019=
RJCH 110900Z 31008KT 9999 FEW015 SCT030 M07/M10 Q1021=
RJFK 110900Z 34005KT 9999 FEW040 BKN050 06/M03 Q1027=
RJFT 110900Z VRB02KT 9999 FEW040 BKN050 05/M02 Q1028=
RJFU 110900Z VRB02KT CAVOK 05/M00 Q1028=
RJNN NIL=
RJOO 110900Z 36004KT 9999 FEW030 BKN060 06/M03 Q1027=
RJSS 110900Z 25005KT 9999 FEW020 01/M06 Q1024=
RJTT 110900Z 00000KT 9999 FEW025 SCT/// 07/M05 Q1024 NOSIG=
RODN 110858Z 08007KT 10SM OVC070 17/08 A3028 RMK AO2A SLP255 PA
     -180=

00000000