0000059700
395
SAPR82 SPIM 110600
METAR SPHI 110600Z 18009KT CAVOK 22/21 Q1011 RMK PP000=
METAR SPIM 110600Z 15012KT CAVOK 22/19 Q1011 NOSIG RMK BKN170 PP000=
METAR SPQT 110600Z 00000KT 9999 SCT020 BKN100 24/23 Q1009
NOSIG RMK PP000=
METAR SPQU 110600Z 04005KT 9999 SCT015 SCT040 12/10 Q1024
    RMK PPP000=
METAR SPRU 110600Z 13006KT 8000 FEW005 20/19 Q1011 RMK BR PP000=
METAR SPSO 110600Z /////KT 9999 FEW100 21/19 Q1011 RMK PP000=
METAR SPTN 110600Z VRB02KT 9999 BKN050 20/16 Q1010 RMK PP000=
METAR SPZO 110600Z 00000KT 9999 FEW025 SCT043 BKN070 10/07 
Q1030 RMK PP000=

0000008700
396
SARH32 LDZM 110600
METAR LDLO 110600Z NIL=
METAR LDSB 110600Z NIL=

0000008300
397
SABZ18 SBKP 110600
METAR SBKP 110600Z 12006KT CAVOK 21/18 Q1015=

0000085000
398
SATU31 LTAA 110550
METAR LTAC 110550Z 30003KT 270V020 6000 OVC008 M04/M04 Q1023 NOSIG=
METAR LTAF 110550Z 03004KT 5000 BR NSC 04/M01 Q1023 BECMG 9999 NSW=
METAR LTAI 110550Z 35005KT 9999 FEW030 BKN200 05/03 Q1023 NOSIG=
METAR LTAJ 110550Z 00000KT CAVOK M01/M04 Q1021 NOSIG=
METAR LTAZ 110550Z VRB01KT 3500 BR OVC003 M04/M04 Q1024=
METAR LTBA 110550Z 28004KT 6000 NSC 08/05 Q1023 NOSIG=
METAR LTBJ 110550Z 00000KT 3200 BR NSC 05/04 Q1023 NOSIG=
METAR LTBS 110550Z 05006KT CAVOK 05/04 Q1023 NOSIG=
METAR LTCG 110550Z VRB04KT CAVOK 12/M04 Q1020 NOSIG=
METAR LTCS 110550Z 32006KT CAVOK 04/M06 Q1022=
METAR LTFC 110550Z 00000KT 0200 R05/0325U R23/0250U FZFG VV001
 M05/M05 Q1024=
METAR LTFE 110550Z 00000KT 6000 SCT030 BKN100 09/08 Q1022 NOSIG=
METAR LTFJ 110550Z VRB01KT 6000 FEW013 05/00 Q1023 TEMPO 4000 BR=

0000083600
399
SATU32 LTAA 110550
METAR LTAG 110550Z 34003KT CAVOK 04/M02 Q1022 NOSIG=
METAR LTAN 110550Z 00000KT 0300 R01/0325U R19/0350U FZFG VV002
 M03/M03 Q1023 BECMG TL0650 0600=
METAR LTAP 110550Z 34004KT 9999 SCT021 BKN100 M02/M03 Q1024 TEMPO
 4000 BR=
METAR LTAT 110550Z 17003KT CAVOK M06/M08 Q1022 NOSIG=
METAR COR LTAU 110550Z 04004KT 350V060 1100 R25/1500U R07/1300D BCFG
 OVC002 M05/M06 Q1024 BECMG 2500 BR=
METAR LTBF 110550Z 00000KT 0800 R36/0700N R18/0900U FG SCT035 00/00
 Q1024 BECMG 2000 BR=
METAR LTBU 110550Z 36003KT 0800 R05/0400U R23/0400D FG NSC 03/03
 Q1023=
METAR LTCC 110550Z 00000KT CAVOK 01/M05 Q1021 NOSIG=
METAR COR LTCE 110550Z 00000KT 0200 R26L/0275U R08R/0150N R26R/0275N
 R08L/0500D FZFG NSC M26/M28 Q1021 NOSIG=
METAR LTCJ 110550Z 30002KT 1800 BCFG NSC M04/M04 Q1021=

0000019400
400
SAPR76 SPIM 110600
METAR SPCL 110600Z 01003KT 340V050 9999 SCT017 BKN060 25/24 Q1010
RMK PP000=
METAR SPJL 110600Z NIL=
METAR SPME 110600Z NIL=
METAR SPST 110600Z NIL=

0000058700
401
SATU33 LTAA 110550
METAR LTAR 110550Z NIL=
METAR LTAY 110550Z 12002KT CAVOK M04/M04 Q1022=
METAR LTBR 110550Z 22002KT 7000 NSC M05/M06 Q1024 NOSIG=
METAR LTBY 110550Z 06004KT 020V080 6000 OVC006 M02/M03 Q1024=
METAR LTCA 110550Z 24004KT CAVOK M07/M08 Q1023 NOSIG=
METAR LTCD 110550Z 00000KT 6000 NSC M12/M14 Q1024 NOSIG=
METAR LTCF 110550Z 32002KT CAVOK M22/M25 Q1020=
METAR LTCI 110550Z 07003KT 6000 FEW040 M07/M09 Q1020 TEMPO 4000 BR=
METAR LTDA 110550Z 00000KT CAVOK M00/M01 Q1024=
METAR LTFH 110550Z VRB01KT 9999 FEW036 BKN200 06/M02 Q1022 NOSIG=

0000071200
402
SATU34 LTAA 110550
METAR LTAL 110550Z NIL=
METAR LTAS 110550Z NIL=
METAR LTAW 110550Z NIL=
METAR LTBD 110550Z NIL=
METAR LTBH 110550Z NIL=
METAR LTBO 110550Z NIL=
METAR LTCK 110550Z 00000KT 0350 R29/1500N R11/0900D BCFG OVC007
 M24/M27 Q1025=
METAR LTCL 110550Z NIL=
METAR LTCM 110550Z NIL=
METAR LTCN 110550Z 09002KT CAVOK M01/M03 Q1022=
METAR LTCO 110550Z NIL=
METAR LTCP 110550Z 00000KT CAVOK 02/M04 Q1020=
METAR LTCR 110550Z 29003KT 9999 FEW040 06/M07 Q1021=
METAR LTCT 110550Z NIL=
METAR LTCU 110550Z NIL=
METAR LTCV 110550Z NIL=
METAR LTFD 110550Z 13003KT 090V160 6000 FEW015 SCT035 BKN100 06/04
 Q1023=
METAR LTFG 110550Z 13005KT CAVOK 09/04 Q1022=

0000004100
403
SATU35 LTAA 110550
NIL

0000030900
404
SAEQ01 SEQU 110600
METAR SEQM 110600Z 12002KT 8000 BCFG BKN010 SCT020 13/12 Q1025 RMK 
    A3027 NOSIG=
METAR SEGU 110600Z 24006KT 9999 FEW010 BKN026 BKN100 25/20 Q1010 RMK 
A2984 NOSIG=
METAR SEMT 110600Z NIL=
METAR SELT 110600Z 15003KT 4000 2000N BCFG FEW005 BKN020 11/11 Q1028=

0000037300
405
FTUS31 KWBC 110600 CCA
TAF COR
KCLT 110558Z 1106/1206 04005KT 2SM -SHRA BR OVC002
      TEMPO 1107/1111 1SM -SHRA BR
     FM111100 18010KT 1SM SHRA BR OVC002 WS020/25040KT
     FM111700 20015G26KT 2SM SHRA BR VCTS OVC004CB
     FM112000 25013G21KT 4SM -SHRA OVC008
     FM112300 24009KT P6SM SCT030 BKN250
     FM120400 28009KT P6SM SCT250=

0000033600
406
FTUS43 KWBC 110600 CCA
TAF COR
KPGV 110559Z 1106/1206 17007KT 5SM BR VCSH SCT008 OVC020
      TEMPO 1106/1109 4SM BR BKN008
     FM111400 20015G22KT P6SM VCSH SCT020 BKN035
     FM112000 21016G26KT 3SM -RA VCTS BKN020CB
     FM120200 24010G15KT 5SM BR VCSH SCT015 BKN035 AMD LTD TO CLD
      VIS AND WIND=

0000011300
407
SAMX31 KWBC 110545 RRD
METAR
MMMY 110540Z 27004KT 12SM SKC 14/12 A2997 RMK SLP158 53011 907=

0000060300
408
FTUS71 KWBC 110600 CCA
TAF COR
KCLT 110558Z 1106/1206 04005KT 2SM -SHRA BR OVC002
      TEMPO 1107/1111 1SM -SHRA BR
     FM111100 18010KT 1SM SHRA BR OVC002 WS020/25040KT
     FM111700 20015G26KT 2SM SHRA BR VCTS OVC004CB
     FM112000 25013G21KT 4SM -SHRA OVC008
     FM112300 24009KT P6SM SCT030 BKN250
     FM120400 28009KT P6SM SCT250=
KFLO 110556Z 1106/1206 00000KT 1/4SM FG VV002
     FM111500 20012G18KT P6SM VCSH BKN009
      TEMPO 1117/1121 21018G28KT 2SM +SHRA BKN012CB
     FM112200 24014G23KT P6SM VCSH BKN020
     FM120100 26014G24KT P6SM SCT020=

0000032400
409
FTUS73 KWBC 110600 CCA
TAF COR
KJLN 110559Z 1106/1206 26005KT 3SM BR SKC
     FM110730 26009KT P6SM BKN015
     FM111300 26010KT P6SM FEW020
     FM111600 27014G21KT P6SM SKC
     FM112300 26009KT P6SM SKC=
KSTJ 110557Z 1106/1206 27005KT P6SM SCT009 OVC022
     FM110800 26010KT P6SM SCT150=

0000029800
410
FTUS75 KWBC 110600 AAA
TAF AMD
PADL 110556Z 1106/1206 02008KT P6SM VCSH OVC010
      TEMPO 1106/1110 3SM -SHSN BR OVC005
     FM111200 02012G20KT P6SM SCT020 BKN050 OVC080
     FM112200 02015G25KT 2SM -SN BLSN OVC015 AMD LTD TO CLD VIS
      AND
      WIND 1107/1116=

0000040700
411
SACU31 MUHA 110600
METAR
MUHA 110555Z 00000KT 8000 SKC 18/17 Q1018=
MUVR 110550Z 08005KT 8000 FEW020 23/21 Q1019=
MUSC 110550Z 10005KT 9000 NSC 21/21 Q1019=
MUCC 110550Z 10005KT 080V140 9000 FEW020 24/21 Q1018=
MUCM 110550Z 08007KT 9000 FEW025 20/18 Q1019=
MUHG 110550Z 10006KT 9000 FEW020 23/20 Q1017=
MUCU 110551Z 34005KT 9000 FEW020 21/18 Q1017=
MUCL  NIL=
MUCF  NIL=

0000009500
412
SACG20 FCBB 110600
METAR FCBB 110600Z 00000KT 8000 FEW011 23/22 Q1014 NOSIG=

0000011400
413
SAPH41 RPLC 110600
METAR RPLC 110600Z
08010KT 9999 SCT042 BKN100 27/15 Q1016 A3000 RMK NOSIG=

0000009200
414
SACN51 CWAO 110600
METAR CWPX 110600Z AUTO 25013KT M30/ A2925 RMK SLP940=

00000000