0000053200
695
SAUK31 EGGY 110520
METAR EGBB 110520Z 32012KT 9999 FEW011 SCT016 BKN037 05/04 Q1013=
METAR COR EGCC 110520Z 26004KT 9999 SCT025 BKN031 03/02 Q1012 NOSIG=
METAR EGKK 110520Z 22006KT 9000 -RA BKN007 BKN018 09/08 Q1013=
METAR EGLL 110520Z 25012KT 9999 -RA FEW006 SCT012 BKN022 08/07
    Q1013=
METAR EGPF 110520Z 23007KT 9999 FEW046TCU 02/M00 Q1010=
METAR EGPH 110520Z 23006KT 9999 FEW015 02/00 Q1009=
METAR EGPK 110520Z NIL=
METAR EGSS 110520Z 23010KT 3000 RADZ BKN003 OVC006 07/07 Q1012
    RERA=

0000036200
696
FTAF34 OEJD 110400
TAF HUEN 110300Z 1106/1212 VRB12KT 8000 -TS FEW018 FEW020CB BKN120
BECMG 1107/1113 18010KT 9000 FEW024 FEW026CB BKN200
FM111600 22006KT FEW021 FEW023CB SCT150
BECMG 1121/1124 36005KT FEW020 FEW022CB BKN120
TEMPO 1201/1206 VRB09KT 8000 -TS SCT018 FEW022CB BKN110
BECMG 1207/1212 17012KT 9000 FEW024 FEW027CB BKN200=

0000010400
697
SPUS42 KWBC 110523
SPECI
KLCH 110519Z AUTO 22008G20KT 1SM -RA BR VV004 17/17 A2985=

0000010200
698
SPUS42 KWBC 110523
SPECI
KGPT 110519Z AUTO 17008KT 1/2SM TS FG VV002 17/16 A2992=

0000011200
699
SPCN31 CWAO 110521
SPECI CYHZ 110521Z 23010KT 10SM -SN OVC003 00/M00 A3029 RMK ST8
 SLP265=

0000009700
700
SPUS42 KWBC 110523
SPECI
KTYS 110519Z 00000KT 2 1/2SM BR OVC002 08/07 A2992=

0000048200
701
SAUK32 EGGY 110520
METAR EGAA 110520Z 23010KT 9999 FEW007 SCT015 01/01 Q1012=
METAR EGAC 110520Z NIL=
METAR EGFF 110520Z 29009KT CAVOK 04/04 Q1015=
METAR EGGW 110520Z 27019KT 7000 BKN005 07/06 Q1012 REDZ=
METAR EGLC 110520Z AUTO 24010KT 7000 -SHRA SCT010/// BKN016///
    09/07 Q1012 RERA=
METAR EGNM 110520Z 27004KT CAVOK 02/02 Q1010=
METAR EGNX 110520Z 30008KT 9999 FEW010 SCT032 05/03 Q1012=
METAR EGPD 110520Z 26009KT CAVOK 02/M02 Q1005 NOSIG=

0000033100
702
SAUK33 EGGY 110520
METAR EGGD 110520Z 27012KT CAVOK 04/04 Q1014=
METAR EGGP 110520Z 26008KT 9999 FEW020 05/04 Q1013=
METAR EGHI 110520Z NIL=
METAR EGNS 110520Z NIL=
METAR EGNT 110520Z 26013KT 9999 FEW030 02/01 Q1009=
METAR EGNV 110520Z NIL=
METAR EGPB 110520Z AUTO 27021KT 9999 FEW023/// 06/03 Q1000=

0000032100
703
SAUK34 EGGY 110520
METAR EGHE 110520Z NIL=
METAR EGHK 110520Z NIL=
METAR EGHQ 110520Z NIL=
METAR EGJA 110520Z NIL=
METAR EGJB 110520Z 32013KT 5000 -RADZ SCT003 BKN005 09/08 Q1016=
METAR EGJJ 110520Z 25007KT 9999 FEW012 BKN040 09/08 Q1016 TEMPO 5000
    -RA BKN005=
METAR EGTE 110520Z NIL=

0000031000
704
SAUK35 EGGY 110520
METAR EGHH 110520Z 31007KT 9999 BKN049 07/06 Q1014=
METAR EGKA 110520Z NIL=
METAR EGKB 110520Z NIL=
METAR EGLF 110520Z NIL=
METAR EGMC 110520Z 22011KT 9000 -RA SCT010 BKN015 08/07 Q1012=
METAR EGMD 110520Z NIL=
METAR EGMH 110520Z NIL=
METAR EGTC 110520Z NIL=

0000034200
705
SAUK36 EGGY 110520
METAR EGBE 110520Z NIL=
METAR EGBJ 110520Z NIL=
METAR EGCN 110520Z 29004KT 9999 -SHRA SCT046 06/04 Q1012=
METAR EGSC 110520Z NIL=
METAR EGSD 110520Z NIL=
METAR EGSH 110520Z AUTO 22011KT 2300 DZ BKN003/// OVC006/// 08/07
    Q1010 RERA REDZ=
METAR EGVN 110520Z NIL=
METAR EGWU 110520Z NIL=

0000029800
706
SAUK37 EGGY 110520
METAR EGAE 110520Z NIL=
METAR EGNC 110520Z NIL=
METAR EGNH 110520Z NIL=
METAR EGNJ 110520Z NIL=
METAR EGNO 110520Z NIL=
METAR EGNR 110520Z NIL=
METAR EGPE 110520Z 22009KT 9999 FEW042 01/M00 Q1007=
METAR EGPI 110520Z NIL=
METAR EGPN 110520Z NIL=

0000043000
707
SAUK38 EGGY 110520
METAR EGEC 110520Z NIL=
METAR EGEO 110520Z NIL=
METAR EGPA 110520Z AUTO 27011KT 9999 NCD 04/01 Q1003=
METAR EGPC 110520Z AUTO 26010KT 9999 NCD 01/M01 Q1004=
METAR EGPL 110520Z AUTO 27018KT 9999 // NCD 05/01 Q1007=
METAR EGPM 110520Z AUTO 24006KT 9999 FEW016/// SCT041/// 04/02 Q0998
    RERA=
METAR EGPO 110520Z 24005KT 9999 FEW014 SCT029 01/M01 Q1006=
METAR EGPU 110520Z NIL=

0000015100
708
SAMO31 ZMUB 110530
METAR ZMUB 110530Z 00000MPS 1500NW 2000SE R14/0750N FU BR NSC
 M25/M28
 Q1028 NOSIG RMK QFE662.5 72 NW SE MO=

0000035700
709
SASW32 LSSW 110520
METAR LSGC 110520Z AUTO 00000KT CAVOK 01/01 Q1016=
METAR LSGS 110520Z NIL=
METAR LSZG 110520Z AUTO VRB01KT 0200 FG VV002 02/02 Q1018=
METAR LSZR 110520Z AUTO 28003KT 0150 R10/0550N BR NCD 03/02 Q1018=
METAR LSZS 110520Z NIL=
METAR LSZC 110520Z AUTO VRB03KT 0100 FG VV001 01/01 Q1017=
METAR LSZL 110520Z NIL=

0000032900
710
FTCN34 CWAO 110500 AAA
TAF AMD CYXL 110523Z 1105/1114 15005KT 5SM -SN BR SCT006 OVC030 TEMPO
     1105/1107 2SM -SN BR OVC006
    FM110700 20005KT 2SM BR OVC004 TEMPO 1107/1113 5SM -SN BR OVC008
     PROB40 1108/1112 1SM -FZDZ BR
    FM111300 27010KT 6SM BR BKN006 OVC012
    RMK NXT FCST BY 110800Z=

0000012200
711
SAEU31 BKPR 110530
BKPR 110530Z 00000KT 0250 R17/0225 FZFG BKN002 M01/M02 Q1023 NOSIG
 RMK 17010095 =

0000010100
712
SAIO31 KWBC 110500 RRD
METAR
VRMM 110500Z 07013KT 9000 FEW018 30/24 Q1014 NOSIG=

0000078200
713
SASN32 ESWI 110520
METAR ESKN 110520Z 16005KT 7000 -SN VV007 M01/M01 Q0999 R26/710144=
METAR ESOE 110520Z AUTO 04010KT 3500NDV -SN SCT004/// OVC010///
M02/M03 Q0999 RESG=
METAR ESOK 110520Z AUTO 02009KT 9000 OVC002/// M01/M01 Q0998=
METAR ESOW 110520Z AUTO 04005KT 1400NDV R01/P1500N R19/P1500N -SN
FEW006/// M04/M06 Q1001=
METAR ESSA 110520Z VRB02KT 4300 -SN BKN030 M04/M05 Q1000 R01L/510171
R08/510166 R01R/19//68 TEMPO 2000 SN=
METAR ESSB 110520Z AUTO VRB01KT 2000NDV -SN FEW009/// M04/M04
Q1000=
METAR ESSD 110520Z AUTO 01005KT 3100 -SN FEW005/// SCT013///
OVC018/// M08/M10 Q1001=
METAR ESSP 110520Z VRB02KT 4000 -FZRA BR OVC005 M00/M00 Q0999
R27/790142=
METAR ESSV 110520Z AUTO 16006KT 9999NDV BKN010/// OVC014/// 00/M00
Q1001=

0000072100
714
SASN33 ESWI 110520
METAR ESNG 110520Z AUTO 32005KT 9999 NCD M19/M21 Q1012=
METAR ESNK 110520Z AUTO 34012KT 9999 -SN FEW021/// SCT027///
OVC033/// M10/M14 Q1005=
METAR ESNN 110520Z AUTO 32010KT 4100NDV -SN NCD M10/M12 Q1005
R16/49/79=
METAR ESNO 110520Z AUTO 36010KT 330V040 6000 -SN FEW015/// OVC020///
M12/M15 Q1004=
METAR ESNQ 110520Z AUTO 21002KT 9999NDV NCD M21/M23 Q1012=
METAR ESNS 110520Z AUTO 35013KT //// VV005 M13/M15 Q1007=
METAR ESNU 110520Z 35013KT 1600 -SN VV017 M11/M14 Q1005 R14/49//50=
METAR ESNZ 110520Z AUTO 04003KT 9999NDV SG SCT023/// OVC034///
M15/M16 Q1003 RESN=
METAR ESUT 110520Z AUTO VRB09G19KT 100V320 9999 IC FEW076///
BKN100/// M13/M19 Q1006 RESG=

00000000