0000011200
626
SMNL54 EHDB 110000 RRA
AAXX 11001
06285 46/// /2210
333 91012 91114 91211
555 51113 51211=
0000011200
627
SMNL54 EHDB 110000 RRB
AAXX 11001
06315 46/// /2208
333 91009 91112 91210
555 51111 51209=
0000011200
628
SMNL54 EHDB 110000 RRC
AAXX 11001
06313 46/// /1910
333 91012 91114 91212
555 51113 51211=
0000011200
629
SMNL54 EHDB 110000 RRD
AAXX 11001
06312 46/// /2011
333 91013 91114 91212
555 51113 51211=
0000011200
630
SMNL54 EHDB 110000 RRE
AAXX 11001
06308 46/// /1906
333 91009 91110 91207
555 51110 51206=
0000011200
631
SMNL54 EHDB 110000 RRF
AAXX 11001
06209 46/// /2111
333 91014 91116 91213
555 51115 51213=
0000011200
632
SMNL54 EHDB 110000 RRG
AAXX 11001
06316 46/// /2009
333 91011 91113 91210
555 51111 51210=
0000011200
633
SMNL54 EHDB 110000 RRH
AAXX 11001
06331 46/// /2007
333 91010 91111 91209
555 51110 51208=
0000011200
634
SMNL54 EHDB 110000 RRI
AAXX 11001
06324 46/// /2109
333 91011 91112 91209
555 51111 51209=
0000011200
635
SMNL54 EHDB 110000 RRJ
AAXX 11001
06311 46/// /2005
333 91008 91109 91207
555 51109 51206=
0000374200
636
SMCI01 KWBC 110000
AAXX 11001
52418 32980 00901 11155 21235 39048 40477 52012 333 00852=
52681 32980 02502 11134 21235 38757 40434 52017 333 00552=
53959 31924 70701 11025 21075 39882 40346 52011 705// 87/// 333
00301=
54161 32970 02201 11164 21231 39980 40298 57001 333 00102 92511=
54374 32965 00201 11212 21248 39850 40362 52009 333 00103 92506=
54843 41919 00000 11043 21063 30313 40342 52006 710// 333 00103=
54909 41919 71401 11020 21045 40336 52005 710// 87/// 333 00200
31020=
56029 32680 80000 11102 21189 36438 52014 88/// 333 00559 79999=
50468 32970 03201 11355 21388 30040 40281 52010 333 00453 92517=
50745 32963 70000 11239 21262 30076 40280 52005 87/// 333 00200
92502=
50774 11656 72501 11311 21339 39914 40276 52008 69902 770// 87///
333 00201 79999 92528=
50788 32970 22001 11269 21309 30152 40248 57001 82/// 333 00253
31025 92521=
50953 42961 52502 11216 21253 30116 40278 52015 85/// 333 00202
92513=
51133 32980 00000 11148 21181 39693 40395 57017 333 05251 92512=
51288 32980 01103 11151 21217 38429 57005 333 00503 92505=
51431 32980 01401 11181 21208 39529 40393 57020 333 05401 31048
92520=
51463 32980 02205 11116 21204 39239 40426 57012 333 00202 31019
92525=
52203 32980 00201 11183 21229 39507 40477 52008 333 00751=
53513 32980 12204 11127 21227 39071 40384 52008 81/// 333 00106=
53564 41920 00701 11192 21230 39300 40420 52005 705// 333 00200=
53588 32480 42707 11122 21287 37798 57002 84/// 333 00304=
53614 31941 72002 11105 21182 39014 40383 52010 705// 87/// 333
00300=
53646 32970 73401 11115 21219 38949 40373 52008 87/// 333 00304=
53798 31909 72201 11037 21095 30226 40327 57003 705// 87/// 333
00151=
54094 41736 20202 11237 21272 39862 40280 57002 705// 82/// 333
00103 31022 92535=
54102 32966 71802 11177 21250 39073 40366 57001 87/// 333 00204
92504=
54292 32962 03601 11147 21211 39944 40287 52002 333 00102 92506=
54337 42940 32501 11127 21167 30230 40319 52002 83/// 333 00103
92501=
54401 32963 72902 11150 21240 39379 40369 52004 87/// 333 00102=
54423 31941 20000 11164 21229 39795 40351 52003 705// 82/// 333
00102=
54497 41957 00703 11118 21131 30313 40333 52008 710// 333 00102=
54618 31/00 90000 11054 21058 30314 40333 52003 749// 333 00101=
57083 31/05 92501 11009 21029 30195 40338 52008 745// 333 00300=
57131 31958 83202 11007 21086 40349 52015 705// 88/// 333 00403
31041=
57265 11959 82902 10020 20011 30168 40337 52010 69991 710// 88///
333 00500 30020 70022=
57494 11456 80201 10030 20021 30283 40315 52010 60031 710// 88///
333 00351 30032 70058=
58040 31906 70000 11030 21034 30335 40343 52004 742// 87/// 333
00001 31033=
58102 32962 50902 10011 21043 30284 40334 52010 85/// 333 00101
31033=
58238 31736 80905 10039 21005 30278 40324 52005 705// 88/// 333
05104 30030=
58251 31936 80902 10022 21012 30328 40334 54000 705// 88/// 333
05103 30000=
58362 32962 80704 10062 20015 30322 40331 52008 88/// 333 05207
30023=
58457 11908 83201 10045 20039 30261 40315 52007 60021 760// 88///
333 05304 30043 70021=
58752 31756 82902 10086 20034 40304 52006 705// 88/// 333 05305=
58847 32563 83202 10103 20061 30182 40287 52007 88/// 333 05303=
59134 32760 83202 10123 20080 30101 40272 52014 88/// 333 05203=
59316 31755 60401 10136 20086 30263 40272 52016 705// 86/// 333
05101=
59758 32665 70703 10193 20178 30141 40218 52017 87/// 333 05102=
50136 32965 20000 11409 21455 39717 40356 52012 82/// 333 00601
92501=
51076 32980 00201 11197 21230 39502 40488 57008 333 00400 92507=
51243 32965 23402 11235 21268 39864 40485 57009 82/// 333 00351
92508=
51573 32965 02701 11127 21177 30411 40459 52007 333 00751=
0000078900
637
UDAS02 BABJ 110021
AMDAR 1100
ASC CNFPYL 2438N 11801E 110016 F147 MS030 268/047 TB/ S//1=
ASC CNFPYL 2441N 11801E 110017 F163 MS069 261/051 TB/ S//1=
ASC CNFPYL 2444N 11801E 110018 F179 MS104 257/051 TB/ S//1=
ASC CNFPYL 2448N 11801E 110018 F195 MS095 266/066 TB/ S//1=
LVR CNFNXP 3539N 11729E 110010 F266 MS410 268/069 TB/ S//1=
LVR CNFNXP 3517N 11737E 110013 F266 MS410 270/065 TB/ S//1=
LVR CNFNXP 3456N 11742E 110016 F266 MS406 270/059 TB/ S//1=
LVR CNFNXP 3435N 11751E 110019 F266 MS395 269/061 TB/ S//1=
ASC CNFLWQ 2640N 10649E 110018 F080 MS038 178/007 TB/ S//1=
ASC CNFLWQ 2643N 10649E 110018 F094 MS023 233/033 TB/ S//1=
ASC CNFLWQ 2646N 10649E 110019 F113 MS053 245/042 TB/ S//1=
ASC CNFLWQ 2649N 10649E 110019 F131 MS031 257/037 TB/ S//1=
0000096200
638
SMCI01 KWBC 110000 RRA
AAXX 11001
51709 32965 22503 11100 21134 38752 40435 57001 82/// 333 00752=
51747 32962 70000 11220 21260 40488 57003 87/// 333 00751=
52983 32980 02501 11149 21201 38192 52018 333 00653=
53845 32965 20000 11117 21191 38936 40386 52011 82/// 333 00451=
54471 42960 01102 11090 21149 30310 40316 52003 333 00102=
54511 31936 41601 11074 21149 30282 40324 52002 705// 84/// 333
00101=
54618 31/00 90000 11054 21058 30314 40333 52003 749// 333 00101=
56778 32565 00201 10041 20016 38140 52013 333 00253 31011=
57127 12961 80701 10023 20005 39702 40332 52012 69921 88/// 333
00500 30015 70018=
58221 31927 70702 10010 21008 30297 40333 52014 710// 87/// 333
00005 31012=
59117 31659 72901 10105 20079 30128 40271 52010 710// 87/// 333
05100=
59287 31961 70000 10120 20090 30169 40257 52012 710// 87/// 333
05101=
59644 11558 80702 10164 20144 30210 40227 52017 69901 760// 88///
333 05104=
0000012600
639
SMMK01 KWBC 110000
AAXX 11001
13462 41956 23101 10071 20064 30191 40231 54001 710// 82030 90018
333 82360=
0000392200
640
KSME32 SBBR 110000 RRA
CREX++
T000113 A000 D07080++
 82 586 QUIXERAMOBIM         1 2014 01 11 00 00 -0520000 -03930000 02120 ///// 09853 10120 //// // -0007 ///// ///// ///// 2680 2310 082 ///// 0100 ///// ///// ///// 050 07 04 0080 32 20 10 0000 0000  07 /// 08 /// 09 /// // ///// ///// // ///// ///// // ///// //// 003 -0006 06 02  -0024 0414 -0001 //// /////  //// ///// -0006 00010 ///// -0012 0000 3500 -0012 0000 //// ///// 03 02 -0010 360 0041 //  -0010 /// //// //// /// //// ///// -0024 // ////  -0001 //// //// ///// ///// ///// ///// -0024 //// //// ///// ///// ///// ///// //// 0000 //+
 83 096 ARACAJU              1 2014 01 11 00 00 -1091000 -03705000 00050 ///// 10122 10129 //// // 0004 ///// ///// ///// 2670 2430 078 ///// 0200 ///// ///// ///// 062 07 05 0125 35 20 10 0000 0000  07 /// 08 /// 09 /// // ///// ///// // ///// ///// // ///// //// 508 -0006 10 10  -0024 0594 -0001 //// /////  -0001 00000 //// ///// ///// -0012 0000 3100 -0012 0000 //// ///// 03 02 -0010 090 0031 //  -0010 /// //// //// /// //// ///// -0024 // ////  -0001 //// //// ///// ///// ///// ///// -0024 //// //// ///// ///// ///// ///// //// 0000 //+
 83 186 JACOBINA             1 2014 01 11 00 00 -1118000 -04046000 04850 ///// 09566 10091 //// // 0006 ///// ///// ///// 2560 1990 063 ///// 1000 ///// ///// ///// 062 07 04 0080 35 20 12 0000 0000  07 /// 08 /// 09 /// // ///// ///// // ///// ///// // ///// //// 508 -0006 10 10  -0024 0642 -0001 //// /////  -0001 00000 //// ///// ///// -0012 0000 3280 -0012 0000 //// ///// 03 02 -0010 090 0113 //  -0010 /// //// //// /// //// ///// -0024 // ////  -0001 //// //// ///// ///// ///// ///// -0024 //// //// ///// ///// ///// ///// //// 0000 //+
 83 236 BARREIRAS            1 2014 01 11 00 00 -1215000 -04500000 04390 ///// 09594 10080 //// // 0002 ///// ///// ///// 2540 2170 /// ///// 2000 ///// ///// ///// 050 08 04 0175 30 22 10 0000 0000  07 /// 08 /// 09 /// // ///// ///// // ///// ///// // ///// //// 508 -0006 10 10  -0024 0618 -0001 //// /////  -0001 00000 //// ///// ///// -0012 0000 3160 -0012 0000 //// ///// 03 02 -0010 000 0000 //  -0010 /// //// //// /// //// ///// -0024 // ////  -0001 //// //// ///// ///// ///// ///// -0024 //// //// ///// ///// ///// ///// //// 0000 //+
 83 242 LENCOIS              1 2014 01 11 00 00 -1256000 -04138000 04390 ///// 09639 10129 //// // 0016 ///// ///// ///// 2590 1940 066 ///// 0200 ///// ///// ///// 100 07 08 0045 37 61 60 0000 0000  07 /// 08 /// 09 /// // ///// ///// // ///// ///// // ///// //// 508 -0006 10 10  -0024 0492 -0001 //// /////  -0001 00000 //// ///// ///// -0012 0000 3130 -0012 0000 //// ///// 03 02 -0010 180 0010 //  -0010 /// //// //// /// //// ///// -0024 // ////  -0001 //// //// ///// ///// ///// ///// -0024 //// //// ///// ///// ///// ///// //// 0000 //+
 83 288 BOM JESUS DA LAPA    1 2014 01 11 00 00 -1326667 -04341667 04410 00015 09609 10096 //// // -0002 ///// ///// 00150 2510 2160 070 ///// 0200 ///// ///// ///// 025 00 00 0250 30 20 15 0000 0000  07 /// 08 /// 09 /// // ///// ///// // ///// ///// // ///// //// 508 -0006 10 10  -0024 0654 -0001 //// /////  -0001 00000 //// ///// 00150 -0012 0000 3250 -0012 0000 //// ///// 03 02 -0010 000 0000 //  -0010 /// //// //// /// //// ///// -0024 // ////  -0001 //// //// ///// ///// ///// ///// -0024 //// //// ///// ///// ///// ///// //// 0000 //+
 83 344 VITORIA DA CONQUISTA 1 2014 01 11 00 00 -1495000 -04088000 08400 ///// 09175 10136 //// // 0009 ///// ///// ///// 1960 1740 078 ///// 0400 ///// ///// ///// 038 08 03 0125 30 23 10 0000 0000  07 /// 08 /// 09 /// // ///// ///// // ///// ///// // ///// //// 508 -0006 10 10  -0024 0336 -0001 //// /////  -0001 00000 //// ///// ///// -0012 0000 2550 -0012 0000 //// ///// 03 02 -0010 000 0000 //  -0010 /// //// //// /// //// ///// -0024 // ////  -0001 //// //// ///// ///// ///// ///// -0024 //// //// ///// ///// ///// ///// //// 0000 //++
7777
0000392200
641
KSMI33 SBBR 110000 RRA
CREX++
T000113 A000 D07080++
 83 552 CORUMBA              1 2014 01 11 00 00 -1908000 -05750000 01300 ///// ///// ///// //// // //// ///// ///// ///// 3250 2330 049 ///// 0200 ///// ///// ///// 062 07 05 0080 33 20 10 0000 0000  07 /// 08 /// 09 /// // ///// ///// // ///// ///// // ///// //// 508 -0006 10 10  -0024 //// -0001 //// /////  -0001 00000 //// ///// ///// -0012 0000 3580 -0012 0000 //// ///// 03 02 -0010 /// //// //  -0010 /// //// //// /// //// ///// -0024 // ////  -0001 //// //// ///// ///// ///// ///// -0024 //// //// ///// ///// ///// ///// //// 0000 //+
 83 565 PARANAIBA            1 2014 01 11 00 00 -1970000 -05118000 03310 ///// 09634 10091 //// // -0002 ///// ///// ///// 2760 1860 052 ///// 0100 ///// ///// ///// 038 05 03 //// 62 61 60 0000 0000  07 /// 08 /// 09 /// // ///// ///// // ///// ///// // ///// //// 508 -0006 10 10  -0024 0720 -0001 //// /////  -0001 00000 //// ///// ///// -0012 0000 3480 -0012 0000 //// ///// 03 02 -0010 090 0021 //  -0010 /// //// //// /// //// ///// -0024 // ////  -0001 //// //// ///// ///// ///// ///// -0024 //// //// ///// ///// ///// ///// //// 0000 //+
 83 623 VOTUPORANGA          1 2014 01 11 00 00 -2041000 -04998000 ///// ///// ///// ///// //// // //// ///// ///// ///// //// //// /// ///// 0200 ///// ///// ///// 088 08 05 0250 30 25 10 0000 0000  07 /// 08 /// 09 /// // ///// ///// // ///// ///// // ///// //// 029 -0006 02 02  -0024 //// -0001 //// /////  -0001 00000 //// ///// ///// -0012 0000 //// -0012 0000 //// ///// 03 02 -0010 /// //// //  -0010 /// //// //// /// //// ///// -0024 // ////  -0001 //// //// ///// ///// ///// ///// -0024 //// //// ///// ///// ///// ///// //// 0000 //+
 83 630 FRANCA               1 2014 01 11 00 00 -2055000 -04743000 10260 ///// ///// ///// 0013 01 //// ///// ///// ///// 2000 1760 077 ///// 1000 ///// ///// ///// 000 62 // 0000 // // // 0000 0000  07 /// 08 /// 09 /// // ///// ///// // ///// ///// // ///// //// 000 -0006 06 02  -0024 0342 -0001 //// /////  //// ///// -0006 00110 ///// -0012 0000 2980 -0012 0000 //// ///// 03 02 -0010 090 0021 //  -0010 /// //// //// /// //// ///// -0024 // ////  -0001 //// //// ///// ///// ///// ///// -0024 //// //// ///// ///// ///// ///// //// 0000 //+
 83 676 CATANDUVA            1 2014 01 11 00 00 -2113000 -04896000 05360 ///// 09508 10128 //// // //// ///// ///// ///// 2500 2050 /// ///// 1000 ///// ///// ///// 062 07 05 0080 33 20 10 0000 0000  07 /// 08 /// 09 /// // ///// ///// // ///// ///// // ///// //// 013 -0006 02 01  -0024 0600 -0001 //// /////  -0001 00000 //// ///// ///// -0012 0000 3300 -0012 0000 //// ///// 03 02 -0010 050 0031 //  -0010 /// //// //// /// //// ///// -0024 // ////  -0001 //// //// ///// ///// ///// ///// -0024 //// //// ///// ///// ///// ///// //// 0000 //+
 83 704 IVINHEMA             1 2014 01 11 00 00 -2231000 -05393000 03690 ///// 09664 ///// -0009 06 //// ///// ///// ///// //// //// /// ///// 1000 ///// ///// ///// 000 62 // 0000 // // // 0000 0000  07 /// 08 /// 09 /// // ///// ///// // ///// ///// // ///// //// 508 -0006 10 10  -0024 0732 -0001 //// /////  -0001 00000 //// ///// ///// -0012 0000 //// -0012 0000 //// ///// 03 02 -0010 230 0010 //  -0010 /// //// //// /// //// ///// -0024 // ////  -0001 //// //// ///// ///// ///// ///// -0024 //// //// ///// ///// ///// ///// //// 0000 //+
 83 726 SAO CARLOS           1 2014 01 11 00 00 -2201000 -04788000 08560 ///// 09182 10128 0027 01 //// ///// ///// ///// 2310 1860 060 ///// 1000 ///// ///// ///// 075 07 06 0080 31 61 60 0000 0000  07 /// 08 /// 09 /// // ///// ///// // ///// ///// // ///// //// 508 -0006 10 10  -0024 //// -0001 //// /////  -0001 00000 //// ///// ///// -0012 0000 3280 -0012 0000 //// ///// 03 02 -0010 050 0010 //  -0010 /// //// //// /// //// ///// -0024 // ////  -0001 //// //// ///// ///// ///// ///// -0024 //// //// ///// ///// ///// ///// //// 0000 //++
7777
0000030100
642
SMCI01 KWBC 101800
AAXX 10181
55279 32/72 92205 11101 21350 35655 52002 333 00053 11030=
56116 32/// 92702 11087 21168 36315 52002 333 00353 10024=
58314 12/// 91601 10037 21003 30204 40314 52002 69911 333 10064=
58921 31/59 90401 10102 20058 30024 40275 57002 70500 333 10143=
0000402700
643
KSMI33 SBBR 110000 RRA
CREX++
T000113 A000 D07086++
 83 552 CORUMBA              1 2014 01 11 00 00 -1908000 -05750000 ///// ///// ///// ///// //// // //// ///// ///// ///// 3250 2330 049 ///// 0200 ///// ///// ///// 062 07 05 0080 33 20 10 0000 0000 // // ///// //// ////// / /// /// ////// /// /// /////// // /// // /// /// ////////// /// /// 508 -0006 10 10  -0024 //// -0001 //// /////  -0001 00000 //// ///// ///// -0012 0000 3580 -0012 0000 //// ///// 03 02 -0010 /// //// //  -0010 /// //// //// /// //// ///// -0024 // ////  -0001 //// //// ///// ///// ///// ///// -0024 //// //// ///// ///// ///// /////+
 83 565 PARANAIBA            1 2014 01 11 00 00 -1970000 -05118000 ///// ///// 09634 10091 //// // -0002 ///// ///// ///// 2760 1860 052 ///// 0100 ///// ///// ///// 038 05 03 //// 62 61 60 0000 0000 // // ///// //// ////// / /// /// ////// /// /// /////// // /// // /// /// ////////// /// /// 508 -0006 10 10  -0024 0720 -0001 //// /////  -0001 00000 //// ///// ///// -0012 0000 3480 -0012 0000 //// ///// 03 02 -0010 090 0021 //  -0010 /// //// //// /// //// ///// -0024 // ////  -0001 //// //// ///// ///// ///// ///// -0024 //// //// ///// ///// ///// /////+
 83 623 VOTUPORANGA          1 2014 01 11 00 00 -2041000 -04998000 ///// ///// ///// ///// //// // //// ///// ///// ///// //// //// /// ///// 0200 ///// ///// ///// 088 08 05 0250 30 25 10 0000 0000 // // ///// //// ////// / /// /// ////// /// /// /////// // /// // /// /// ////////// /// /// 029 -0006 02 02  -0024 //// -0001 //// /////  -0001 00000 //// ///// ///// -0012 0000 //// -0012 0000 //// ///// 03 02 -0010 /// //// //  -0010 /// //// //// /// //// ///// -0024 // ////  -0001 //// //// ///// ///// ///// ///// -0024 //// //// ///// ///// ///// /////+
 83 630 FRANCA               1 2014 01 11 00 00 -2055000 -04743000 ///// ///// ///// ///// 0013 01 //// ///// ///// ///// 2000 1760 077 ///// 1000 ///// ///// ///// 000 62 // 0000 // // // 0000 0000 // // ///// //// ////// / /// /// ////// /// /// /////// // /// // /// /// ////////// /// /// 000 -0006 06 02  -0024 0342 -0001 //// /////  //// ///// -0006 00110 ///// -0012 0000 2980 -0012 0000 //// ///// 03 02 -0010 090 0021 //  -0010 /// //// //// /// //// ///// -0024 // ////  -0001 //// //// ///// ///// ///// ///// -0024 //// //// ///// ///// ///// /////+
 83 676 CATANDUVA            1 2014 01 11 00 00 -2113000 -04896000 ///// ///// 09508 10128 //// // //// ///// ///// ///// 2500 2050 /// ///// 1000 ///// ///// ///// 062 07 05 0080 33 20 10 0000 0000 // // ///// //// ////// / /// /// ////// /// /// /////// // /// // /// /// ////////// /// /// 013 -0006 02 01  -0024 0600 -0001 //// /////  -0001 00000 //// ///// ///// -0012 0000 3300 -0012 0000 //// ///// 03 02 -0010 050 0031 //  -0010 /// //// //// /// //// ///// -0024 // ////  -0001 //// //// ///// ///// ///// ///// -0024 //// //// ///// ///// ///// /////+
 83 704 IVINHEMA             1 2014 01 11 00 00 -2231000 -05393000 ///// ///// 09664 ///// -0009 06 //// ///// ///// ///// //// //// /// ///// 1000 ///// ///// ///// 000 62 // 0000 // // // 0000 0000 // // ///// //// ////// / /// /// ////// /// /// /////// // /// // /// /// ////////// /// /// 508 -0006 10 10  -0024 0732 -0001 //// /////  -0001 00000 //// ///// ///// -0012 0000 //// -0012 0000 //// ///// 03 02 -0010 230 0010 //  -0010 /// //// //// /// //// ///// -0024 // ////  -0001 //// //// ///// ///// ///// ///// -0024 //// //// ///// ///// ///// /////+
 83 726 SAO CARLOS           1 2014 01 11 00 00 -2201000 -04788000 ///// ///// 09182 10128 0027 01 //// ///// ///// ///// 2310 1860 060 ///// 1000 ///// ///// ///// 075 07 06 0080 31 61 60 0000 0000 // // ///// //// ////// / /// /// ////// /// /// /////// // /// // /// /// ////////// /// /// 508 -0006 10 10  -0024 //// -0001 //// /////  -0001 00000 //// ///// ///// -0012 0000 3280 -0012 0000 //// ///// 03 02 -0010 050 0010 //  -0010 /// //// //// /// //// ///// -0024 // ////  -0001 //// //// ///// ///// ///// ///// -0024 //// //// ///// ///// ///// /////++
7777
0000327200
644
SMCN04 KWBC 110000
AAXX 11004
71107 17/// /1435 10037 20027 39836 49947 58094 60031 7//4/ 333
10062 20035 70059=
71374 45/// /2819 11060 6///1 333 11048 21145 7////=
71423 15/// /2518 30201 58001 60001 333 70000=
71482 45/// /0809 10036 20022 39996 40027 58065 6///1 333 10062
20032 7////=
71502 15/// /3016 11253 21283 30005 40021 58004 60001 333 11233
21264 70000=
71506 15/// /0000 11282 21307 39118 40056 52002 60001 333 11252
21292 70000=
71683 15/// /2814 11256 21281 39939 40053 50005 60001 333 11235
21269 70000=
71743 15/// /2303 11229 21250 39844 40069 52031 60001 333 11156
21241 70002=
71828 17/// /2618 11101 21120 39417 40065 53005 60091 7//4/ 333
11101 21210 7////=
71244 15/// /2714 10009 21037 38823 40049 53022 60001 333 10033
21089 70000=
71246 17/// /1103 11121 21137 39359 40033 51010 69951 7//4/ 333
11116 21164 70025=
71439 45/// /2004 10009 21004 39913 40137 58019 6///1 333 10011
21031 7////=
71488 15/// /2813 11009 21054 38507 40050 53023 60001 333 10017
21023 70000=
71632 17/// /0705 11196 21221 39565 40015 51013 60031 7//4/ 333
11142 21196 70047=
71682 17/// /0000 11201 21230 39826 40064 53021 69931 7//4/ 333
11190 21239 70016=
71737 15/// /1902 11050 21067 39684 40225 55004 60001 333 11050
21199 70000=
71823 17/// /2110 11074 21090 39710 40097 51013 69921 7//4/ 333
11074 21151 7////=
71829 15/// /2512 11075 21101 30033 40200 58007 60001 333 11074
21189 7////=
71883 45/// /0000 11013 21021 39300 40124 50011 6///1 333 10021
21046 7////=
71903 15/// /1307 10038 20017 39909 49958 58064 60001 333 10055
20030 70020=
71055 45/// /2412 11289 21319 39690 40033 51003 6///1 333 11245
21289 7////=
71186 45/// /3403 11138 21165 6///1 333 11136 21235 7////=
71190 45/// /2907 11048 21070 6///1 333 11047 21141 7////=
71191 15/// ///// 10002 60001 333 70000=
71228 15/// /2712 11042 21058 60001 333 11012 21160 70019=
71273 45/// /2705 11034 21074 39336 49996 52022 6///1 333 11017
21130 7////=
71341 15/// /2610 10031 21050 60001 333 10053 21012 70000=
71342 45/// /3016 11073 21086 6///1 333 11066 21117 7////=
71344 15/// /2913 11050 21058 60001 333 11022 21083 7////=
71347 15/// /2401 11155 21172 60001 333 11095 21200 70000=
71348 15/// /2804 11079 21109 60001 333 11066 21148 70000=
71421 17/// /2206 11145 21181 39429 40171 53006 69921 7//4/ 333
11136 21248 70002=
71478 17/// /1245 10036 20028 39838 49972 56097 60051 7//4/ 333
10065 20032 70058=
71909 15964 03502 11258 21298 39917 49962 51025 60001 333 11205
21282 7////=
71916 45/// ///// 11398 21447 39849 49907 53004 6///1 333 11340
21398 7////=
71954 45/// /0000 11086 21094 39608 49986 51021 6///1 333 11080
21099 7////=
71974 15/// /1409 11408 21452 39860 49905 56011 60001 333 11371
21435 7////=
71976 15/// /2615 11277 21301 39351 49999 51033 60001 333 11218
21277 70000=
71990 17/// /2003 11158 21173 38319 49939 56009 69901 7//4/ 333
11157 21215 70023=
71269 15/// /3314 11060 21099 60001 333 11027 21072 70000=
71285 15/// /2705 11059 21075 60001 333 11019 21171 70000=
71340 15/// /2806 11063 21083 60001 333 11028 21152 70004=
71971 17/// /0302 11140 21152 39784 49829 50001 60021 7//4/ 333
11102 21231 70034=
0000064800
645
USAA01 NZCM 110000
TTAA 61001 89664
99997 00056 18501 00512 ///// ///// 92601 07158 18518
85255 11341 17017 70716 21114 15006 50514 33959 24513
40666 44759 24520 30855 51765 24023 25975 45585 24514
20124 43786 24513 15318 43586 26009 10592 41586 23504
88320 52361 23026
77999
31313 48008 82219=

0000069700
87361=
0000011200
87368=
0000015000
87382
0000012800
87386
0000045600
87406
0000047700
87410=
0000049900
87467=
0000048000
87577=
0000054300
87885
0000068800
88062
0000058500
88356
0000062700
88606
0000058600
89090
0000056600
89667=
0000073200
95988
00000000