0000176900
306
SASA85 EGRR 111100 RRD
METAR SACO 111100Z 16006KT 9999 FEW035 BKN100 22/11 Q1019=
METAR SAEZ 111100Z 15012KT 120V200 CAVOK 17/08 Q1018=
METAR SAVC 111100Z 23001KT 120V260 CAVOK 14/06 Q1019=
METAR SBCT 111100Z 09002KT 9999 FEW006 SCT020 BKN100 21/20 Q1019=
METAR SBJP 111100Z 21004KT 6000 -RA BKN020 24/22 Q1014=
METAR SBLO 111100Z 16003KT CAVOK 25/20 Q1016=
METAR SBPB 111100Z 10014KT 9999 FEW017 SCT090 30/24 Q1011=
METAR SBRJ 111100Z 36005KT CAVOK 29/23 Q1013=
METAR SBSV 111100Z 08009KT 9999 FEW017 SCT080 28/22 Q1015=
METAR SBUG 111100Z 03004KT 8000 -TSRA SCT006 BKN013 FEW030CB OVC100
      2 0/20 Q1013=
METAR SCAR 111100Z 04003KT CAVOK 21/15 Q1011=
METAR SCBA 111100Z AUTO 27007KT 240V300 CAVOK 08/04 Q1020=
METAR SCCI 111100Z 28011KT 9999 SCT030 OVC100 11/06 Q1006 NOSIG=
METAR SCDA 111100Z 19003KT CAVOK 20/15 Q1012=
METAR SCEL 111100Z VRB01KT CAVOK 16/07 Q1012 NOSIG=
METAR SCFA 111100Z 10002KT 9999 FEW035 19/16 Q1013 NOSIG=
METAR SCIE 111100Z 17004KT CAVOK 13/09 Q1013=
METAR SCSE 111100Z 00000KT 9999 FEW009 OVC010 16/14 Q1012=
METAR SCTE 111100Z 20005KT 9999 BKN011 10/09 Q1021 NOSIG=
METAR SLCB 111100Z 00000KT 8000 FEW027 FEW030CB SCT200 15/10 Q1025=
METAR SLLP 111100Z VRB02KT 4000E VCFG FEW003 SCT200 05/04 Q1036=
METAR SLVR 111100Z 34008KT 9999 BKN005 OVC015 24/23 Q1012=
METAR SOCA 111100Z AUTO 23002KT 9999 OVC003 22/22 Q1013=
METAR SUAA 111100Z 21015KT 9999 FEW026 BKN070 21/15 Q1015=
METAR SUCA 111100Z XXXXXKT CAVOK 20/10 Q1013=
METAR SUDU 111100Z 16013KT 9999 SCT013 BKN060 OVC200 21/19 Q1013=
METAR SULS 111100Z 17014KT 9999 SCT017 BKN200 21/15 Q1014=
METAR SUSO 111100Z 00000KT 9999 FEW027 SCT060 OVC200 23/21 Q1011=
METAR SVBC 111100Z 00000KT 9999 SCT010 21/21 Q1014=
0000138000
307
FTSA85 EGRR 111107 RRB
TAF SAAR 111100Z 1112/1212 14010KT CAVOK TX29/1118Z TN12/1206Z
     BECMG 1202/1204 09010KT=
TAF SACO 111100Z 1112/1212 14010KT CAVOK TX32/1118Z TN14/1210Z
     PROB30 TEMPO 1117/1122 11010KT 9999 SCT030
     BECMG 1210/1212 05010KT=
TAF SANT 111100Z 1112/1212 18010KT 4000 TSRA BKN010 OVC030 FEW045CB
     TX29/1118Z TN21/1210Z
     BECMG 1120/1122 20010KT 9999 BKN030=
TAF SASA 111100Z 1112/1212 36005KT 9999 SCT015 BKN030 FEW030CB
     TX26/1118Z TN19/1210Z
     BECMG 1116/1118 14010KT 2000 TSRA BKN010 OVC030 SCT030CB
     BECMG 1206/1208 18010KT 9999 BKN020=
TAF SASJ 111100Z 1112/1212 05005KT 9999 SCT015 BKN030 FEW030CB
     TX28/1118Z TN20/1210Z
     BECMG 1116/1118 14010KT 2000 TSRA BKN010 OVC030 SCT030CB
     BECMG 1206/1208 18010KT 9999 BKN020=
TAF SAWE 111100Z 1112/1212 30012KT 9999 BKN020 BKN030 TX18/1119Z
     TN09/1210Z
     TEMPO 1112/1116 8000 RA
     BECMG 1116/1118 28025KT BKN035=
TAF SAWG 111100Z 1112/1212 30015KT 9999 BKN023 BKN060 TX24/1119Z
     TN12/1210Z
     TEMPO 1112/1114 8000 SHRA
     BECMG 1115/1117 28020G30KT BKN030 SCT080
     BECMG 1123/1201 VRB07KT=
TAF SAZM 111100Z 1112/1212 20015KT 9999 BKN020 TX18/1118Z TN11/1210Z
     BECMG 1204/1206 09005KT
     BECMG 1210/1212 05010KT=
TAF SAZN 111100Z 1112/1212 02015KT CAVOK TX32/1118Z TN20/1210Z=
0000008900
308
SAIN90 VOMM 111110
METAR VOMM 111110Z 09006KT 8000 NSC 27/19 Q1012 NOSIG=
0000009200
309
SAIN90 VAAH 111110
METAR VAAH 111110Z 06006KT 3500 FU NSC 22/10 Q1015 NOSIG=
0000009200
310
SAIN90 VABB 111110
METAR VABB 111110Z 31012KT 4500 FU NSC 23/08 Q1013 NOSIG=
0000170200
311
SASA85 EGRR 111100 RRE
METAR SABE 111100Z 14017KT CAVOK 18/05 Q1017=
METAR SARI 111100Z 05006KT CAVOK 25/23 Q1014=
METAR SARP 111100Z 09002KT CAVOK 26/23 Q1012=
METAR SASA 111100Z 05004KT 9999 FEW030 BKN100 21/16 Q1016=
METAR SAWE 111100Z 32012KT 9999 FEW020 SCT050 09/07 Q1006=
METAR SAWG 111100Z 32009KT 9999 SCT025 BKN040 10/08 Q1010=
METAR SBPL 111100Z 11010KT 9999 SCT023 27/19 Q1016=
METAR SBPP 111100Z 00000KT CAVOK 27/20 Q1016=
METAR SLCA 111100Z 00000KT 9999 SCT033 21/20 Q1014=
METAR SLCO 111100Z 00000KT 9999 FEW020 BKN070 24/23 Q1011=
METAR SLCP 111100Z 00000KT 9999 OVC004 22/22 Q1015=
METAR SLET 111100Z 32012KT 9999 BKN006 BKN010 24/22 Q1011=
METAR SLJE 111100Z 00000KT 9999 FEW008 23/22 Q1016=
METAR SLJO 111100Z 00000KT 9999 FEW020 BKN080 24/24 Q1010=
METAR SLMG 111100Z 00000KT 9999 FEW020 BKN080 24/24 Q1011=
METAR SLOR 111100Z 05009KT 9999 FEW015 10/04 Q1033=
METAR SLPO 111100Z 00000KT 9999 NSC 04/02 Q1037=
METAR SLPS 111100Z 00000KT 9999 NSC 24/21 Q1010=
METAR SLRB 111100Z 33006KT 9999 NSC 25/23 Q1014=
METAR SLRI 111100Z 00000KT 9999 SCT020 BKN080 24/24 Q1010=
METAR SLRQ 111100Z 00000KT 0200 FG VV/// 23/23 Q1010=
METAR SLRY 111100Z 00000KT 9999 BKN006 OVC080 23/22 Q1011=
METAR SLSA 111100Z 36004KT 9999 SCT020 BKN070 24/24 Q1011=
METAR SLSI 111100Z 00000KT 9999 SCT020 23/22 Q1013=
METAR SLSU 111100Z 00000KT 9999 FEW015 13/12 Q1029=
METAR SLTJ 111100Z 00000KT 9999 FEW030 20/17 Q1019=
METAR SLTR 111100Z 03004KT 9999 FEW015 SCT080 24/23 Q1011=
METAR SLVM 111100Z 36008KT 9999 NSC 22/20 Q1008=
METAR SLYA 111100Z 36004KT 9999 NSC 23/21 Q1010=
METAR SYCJ 111100Z 00000KT 9999 FEW015 21/20 Q1014 NOSIG=
0000167500
312
SASA85 EGRR 111100 RRF
METAR SAAR 111100Z 16008KT CAVOK 18/11 Q1016=
METAR SANT 111100Z 14004KT 6000 -TSRA SCT006 FEW045CB OVC050 22/21
      Q1014=
METAR SAOC 111100Z 00000KT CAVOK 16/12 Q1019=
METAR SARC 111100Z 14018KT 5000 TSRA FEW008 OVC040 FEW045CB 19/18 Q1012=
METAR SARE 111100Z 16016KT 5000 TSRA SCT025 OVC040 FEW056CB 20/20 Q1012=
METAR SAVE 111100Z 23006KT CAVOK 08/03 Q1021=
METAR SAZM 111100Z 20010KT 9999 FEW025 SCT100 16/08 Q1018=
METAR SAZN 111100Z 11006KT CAVOK 16/M00 Q1020=
METAR SBAT 111100Z 00000KT 9999 FEW006 BKN090 23/22 Q1014=
METAR SBCC 111100Z 04004KT 9999 FEW020 BKN080 20/19 Q1016=
METAR SBHT 111100Z 00000KT 9999 SCT010 BKN090 23/23 Q1013=
METAR SBIH 111100Z 00000KT 9999 FEW010 BKN100 24/23 Q1012=
METAR SBIL 111100Z 28005KT 8000 -RA BKN023 BKN100 26/23 Q1016=
METAR SBIZ 111100Z 00000KT CAVOK 25/23 Q1012=
METAR SBMS 111100Z 14007KT 9999 FEW025 29/20 Q1013=
METAR SBTU 111100Z 04006KT CAVOK 23/23 Q1015=
METAR SBVH 111100Z 32005KT 9999 SCT005 BKN090 21/21 Q1015=
METAR SKBG 111100Z 00000KT 9999 NSC 18/15 A2998=
METAR SKBO 111100Z 05003KT 9999 SCT015 SCT080 10/09 A3030=
METAR SKBQ 111100Z 04004KT CAVOK 24/22 A2986=
METAR SKCG 111100Z 00000KT CAVOK 23/22 A2984=
METAR SKCL 111100Z 23003KT 8000 -DZ SCT017 BKN070 20/19 A2997=
METAR SKLT 111100Z 00000KT 9999 BKN009 BKN080 24/24 A2989 RMK AD OPR
      IMC=
METAR SKMD 111100Z 00000KT 7000 SCT025 BKN080 18/16 A3007 RMK HZ=
METAR SKPE 111100Z 11003KT 9999 FEW016 SCT070 19/17 A3009=
METAR SKRG 111100Z 00000KT 4000 -DZ BCFG BKN008 BKN080 14/13 A3025
      RMK BCFG/N/S=
METAR SKSP 111100Z 08016KT 9999 FEW017 27/23 A2989=
0000012800
313
SNVF51 EGRR 111100
BBXX
62095 11114 99529 70156 46/// /1619 10095 20036 40127 57007 22200
00098 10907 70035=
0000011200
314
SNVF51 EGRR 111100
BBXX
64046 11114 99605 70042 46/// /2825 10069 20018 40023 333 90710 91132=
0000011600
315
SNVF51 EGRR 111100
BBXX
62303 11114 99516 70051 46/// /3310 10078 20009 40211 22200 10603
70015=
0000011600
316
SNVF51 EGRR 111100
BBXX
62050 11114 99500 70044 46/// /0306 10095 20040 40215 22200 10602
70011=
0000010100
317
SAUK39 EGRR 111050 RRC
METAR EGOW 111050Z 31007KT 9999 FEW015 SCT025 06/04 Q1018 BLU=
0000081600
318
SSVX08 KARS 111111
ZZYY 28401 11014 10004 132219 144588 6112/
11119 03126
444 20120 11014 1041/ 521// 60401=
ZZYY 52004 10014 0000/ 305008 165171 6111/
33311 88870 20001 33066 20025 33001 20075 33033 20100 32928
20150 32662 20200 32047 20250 31393 20300 31040 20500 30819
444 20110 10014 0128/ 521//=
ZZYY 52004 11014 10004 305006 165167 6112/
11119 02706 10299 29074
22219 00306
444 20120 11014 0945/ 521// 60401=
ZZYY 52007 10014 1200/ 308031 164802 6112/
33311 88872 20001 33060 43420 20025 32988 43453 20050 32895 43493
20075 32764 20100 32729 20125 32589 20150 32479 20200 32075
20250 31633 20300 31285 20500 30764
444 20120 10014 1053/ 521//=
ZZYY 52007 11014 10004 308028 164800 6111/
11119 02203 10295 29077
22219 00308
444 20110 11014 0945/ 521// 60401=
0000010900
319
UANT01 CWAO 111111
ARP VIR24 5419N05724W 1111 F370 MS61 287/81 KT
GVBUG DDL XXW 111111 J92A
0000013700
320
UAPA01 KWBC 111112
ARP UAL185 1123N 14116E 1105 F380 MS50 145/024KT=
ARP WJA1875 3003N 14905W 1105 F360 MS53 251/050KT=
0000009400
321
SNNO21 ENMI 111000 RRB
AAXX 11101
01300 46/// /0403 10025 21021 39903 40002=
0000009400
322
SNNO21 ENMI 111100 RRA
AAXX 11111
01300 46/// /0403 10026 21021 39902 40001=
0000009400
323
SNNO22 ENMI 111000 RRD
AAXX 11101
01400 46/// /2810 10067 21005 30009 40070=
0000014500
324
SNNO22 ENMI 111100 RRB
AAXX 11111
01400 46/// /2709 10067 20006 30010 40071=
01447 46/// /1601 11009 21019 39310 49981 50000=
0000081900
325
SNEO41 EEMH 111100
AAXX 11111
26134 27581 82600 11007 21010 39941 40007 50007 72486 88///
 333  10002 21012 60007 88/22
 555  1/001 21012 3/100 50000 52101=
26144 27/74 /2802 11010 21019 39916 40004 52012 72287
 333  11002 21015 69917
 555  21015 50004 52102=
26214 27051 81803 10008 20002 39995 40002 58012 76776 88///
 333  10027 20006 60027 88/01
 555  1/001 20006 3/000 50025=
26218 27361 82108 10031 20023 30002 40004 58014 76160 88///
 333  10031 20009 69967 88/07 91010 91110
 555  1/003 20009 3/000 50027=
26226 27383 72608 10022 21001 30009 40013 50003 72480 87///
 333  10027 20013 60007 87/09 91010 91111
 555  1/003 20013 3/100 50026=
26227 27481 72206 10019 20000 30013 40016 58002 74088 87///
 333  10028 20014 60007 87/11 91008 91111
 555  1/003 20014 3/000 50028=
00000000