0000013600
066
WSIR31 OIII 111113
OIIX SIGMET 4 VALID 111130/111430 OIII-
OIIX TEHRAN FIR EMBD TS OBS LOC OVER SW,W OF IRAN TOP FL320=
0000011000
067
UANT99 KDDL 111113
ARP BAW242 5605N03258W 1112 F370 MS57 200/42 KT
GCIVK QXT AOW 111113 F21A
0000010900
068
UANT99 KDDL 111113
ARP SWR41 5804N03306W 1113 F350 MS58 217/41 KT
HBJMJ QXT AOW 111113 J49A
0000020100
069
SNVD15 KWNB 111100 RRI
BBXX
41051 11111 99183 70650 46/// /0907 10246 91050 333 91209 555
11074 22080=
41051 11111 99183 70650 46/// /0806 10250 91040 333 91209 555
11070 22076=
0000017800
070
UAAS11 RJTD 111100
AIREP
CSN329 3806N 15000E 1037 F350 MS45 280/156=
ACA064 3712N 14540E 1049 F320 MS46 274/147=
DAL287 3000N 14057E 1055 F350 MS43 265/129=
0000078900
071
UDAS02 BABJ 111104
AMDAR 1111
LVR CNFPTK 3212N 12043E 111053 F276 MS353 263/088 TB/ S//1=
LVR CNFPTK 3231N 12035E 111056 F276 MS355 263/089 TB/ S//1=
LVR CNFPTK 3249N 12027E 111059 F276 MS375 264/085 TB/ S//1=
LVR CNFPTK 3308N 12020E 111102 F276 MS390 259/078 TB/ S//1=
LVR CNFOZN 2625N 11937E 111053 F361 MS480 253/089 TB/ S//1=
LVR CNFOZN 2609N 11926E 111056 F361 MS483 252/084 TB/ S//1=
LVR CNFOZN 2550N 11919E 111059 F361 MS483 252/082 TB/ S//1=
LVR CNFOZN 2537N 11906E 111102 F361 MS483 249/079 TB/ S//1=
LVR CNFPQL 3259N 11854E 111100 F246 MS338 269/052 TB/ S//1=
LVR CNFPQL 3252N 11857E 111101 F246 MS335 272/051 TB/ S//1=
LVR CNFPQL 3247N 11901E 111102 F246 MS330 274/053 TB/ S//1=
LVR CNFPQL 3246N 11902E 111102 F246 MS329 274/054 TB/ S//1=
0000066500
072
UDAS02 BABJ 111106
AMDAR 1111
LVR CNFLWR 2648N 10731E 111101 F187 MS125 271/050 TB/ S//1=
DES CNFLWR 2647N 10728E 111102 F183 MS115 273/050 TB/ S//1=
DES CNFLWR 2645N 10725E 111102 F177 MS098 274/049 TB/ S//1=
DES CNFLWR 2642N 10720E 111103 F160 MS060 283/051 TB/ S//1=
DES CNFLWN 2306N 11227E 111102 F114 PS029 267/025 TB/ S//1=
DES CNFLWN 2306N 11228E 111102 F112 PS034 274/023 TB/ S//1=
DES CNFLWN 2304N 11233E 111103 F105 PS055 266/023 TB/ S//1=
DES CNFLWN 2304N 11239E 111104 F095 PS064 255/019 TB/ S//1=
ASC CNFPYL 2433N 11808E 111104 F001 PS148 116/010 TB/ S//1=
ASC CNFPYL 2433N 11809E 111104 F007 PS145 079/013 TB/ S//1=
0000066100
073
UDAF01 FAPR 111113
AMDAR 1111
DES AFZA01 0847S 01320E 111106 F024 PS203 114/005 TB0 S031 333 F/// VG000=
DES AFZA01 0847S 01319E 111107 F021 PS205 095/006 TB0 S031 333 F/// VG000=
DES AFZA01 0848S 01319E 111107 F018 PS217 115/006 TB0 S031 333 F/// VG000=
DES AFZA01 0849S 01318E 111108 F015 PS225 110/005 TB0 S031 333 F/// VG000=
DES AFZA01 0849S 01317E 111108 F012 PS227 106/001 TB0 S031 333 F/// VG000=
DES AFZA01 0850S 01317E 111108 F009 PS235 233/002 TB0 S031 333 F/// VG000=
DES AFZA01 0851S 01316E 111109 F007 PS242 233/002 TB0 S031 333 F/// VG000=
DES AFZA01 0851S 01315E 111109 F004 PS252 348/002 TB0 S031 333 F/// VG000=
0000035300
074
UDAF01 FAPR 111112
AMDAR 1111
DES AFZA01 0850S 01327E 111104 F048 PS196 031/001 TB0 S031 333 F/// VG000=
UNS AFZA01 0845S 01323E 111106 F032 PS208 160/014 TB0 S031 333 F/// VG000=
DES AFZA01 0848S 01319E 111107 F018 PS217 115/006 TB0 S031 333 F/// VG000=
DES AFZA01 0851S 01315E 111109 F004 PS252 348/002 TB0 S031 333 F/// VG000=
0000066100
075
UDAF01 FAPR 111112
AMDAR 1111
DES AFZA01 0932S 01359E 111055 F189 MS071 084/015 TB0 S031 333 F/// VG000=
DES AFZA01 0931S 01358E 111055 F183 MS059 063/016 TB0 S031 333 F/// VG000=
DES AFZA01 0926S 01352E 111056 F160 MS023 098/014 TB0 S031 333 F/// VG000=
DES AFZA01 0920S 01347E 111058 F139 PS015 113/019 TB0 S031 333 F/// VG000=
DES AFZA01 0913S 01343E 111059 F118 PS050 117/020 TB0 S031 333 F/// VG000=
DES AFZA01 0904S 01336E 111101 F099 PS093 104/011 TB0 S031 333 F/// VG000=
DES AFZA01 0857S 01332E 111102 F081 PS130 108/005 TB0 S031 333 F/// VG000=
DES AFZA01 0852S 01329E 111103 F064 PS165 043/002 TB0 S031 333 F/// VG000=
0000043000
076
UDAF01 FAPR 111111
AMDAR 1111
DES AFZA22 3902N 07447W 111055 F170 MS122 225/048 TB0 S031 333 F/// VG011=
DES AFZA22 3904N 07457W 111057 F158 MS100 223/051 TB0 S031 333 F/// VG011=
DES AFZA22 3909N 07515W 111060 F137 MS055 235/048 TB0 S031 333 F/// VG010=
DES AFZA22 3912N 07535W 111103 F120 MS035 248/042 TB0 S031 333 F/// VG011=
DES AFZA22 3915N 07623W 111111 F120 MS038 233/040 TB0 S031 333 F/// VG011=
0000012800
077
SNVD20 KWNB 111100 RRI
BBXX
44022 11111 99409 70737 46/// /0304 10033 20030 91100 333 91205
555 11041 22041=
0000020200
078
SNVE15 KWNB 111000 RRF
BBXX
51000 11101 99331 71522 46/// /0608 10161 40312 90950 22200 00177
333 91210 555 11085 22089 30916 40511 60949 060080 056077 056078
056081 049082 050083=
0000025200
079
SNVD17 KWNB 111100 RRH
BBXX
46077 11111 99579 71543 46/// /2504 10014 49913 58018 91050 22200
00044 10901 20301 3//// 40901 70007 333 91206 555 11036 22037
31046 42506 61049 244032 029013 037010 037006 073010 076011 82805
91047=
0000032700
080
SNMK01 KWBC 111100
AAXX 11111
13463 42565 51601 10127 20064 30179 40239 57005 83830=
13363 41958 41602 10058 20027 39317 48534 57013 71041 84030=
13459 42670 62701 10095 20094 39475 40245 57010 82234 333 82896
85399=
13461 42670 62702 10151 20110 30231 40238 58006 86800 333 82840
85656 92312 92428=
0000015100
081
SSVB11 RJTD 111100
ZZYY 21706 11014 1100/ 136822 168904
11109 0//// 1//// 2//// 30098 40098 5////
22209 00151 11008 20097 21040=

0000097300
082
SNVZ11 SBBR 111100 RRC
BBXX
SHIP 11111 99/// 1//// 36/// /0501 10223 20176 39130 40159 52///
  333 10223 20212 553// 00752 91103=
SHIP 11111 99/// 1//// 16/// /2200 10215 20182 39060 40174 6992/
  333 10215 20181 553// 01376 91101=
SHIP 11111 99/// 1//// 36/// /0801 10264 20199 39513 40153 52///
  333 10266 20238 553// 01444 91103=
SHIP 11111 99/// 1//// 36/// /0601 10236 20190 39616 40180
  333 10238 20231 553// 00595 91103=
SHIP 11111 99/// 1//// 36/// /1503 10270 20177 39992 40164
  333 10273 20252 553// 01517 91106=
SHIP 11111 99/// 1//// 36/// /1001 10283 20215 30019 40093 52///
  333 10291 20250 553// 01606 91103=
SHIP 11111 99/// 1//// 36/// /0702 10255 20191 39489 40130
  333 10256 20238 553// 00973 91106=
SHIP 11111 99/// 1//// 36/// /2201 10249 20231 30077 40145
  333 10250 20232 553// 00419 91102=
SHIP 11111 99/// 1//// 36/// /0406 10273 20216 30158 40162 52///
  333 10274 20264 553// 01829 91110=
0000076900
083
SNBX40 EBBR 111100
AAXX 11111
06407 41462 32908 10082 20047 30165 40172 53020 72111 83500
333 81616 83656 91111 91209=
06428 47321 /2204 10059 20052 30130 40174 53008 76265
 333 81/06 83/08 85/10 91108 91205=
06447 NIL=
06451 41556 72406 10065 20044 30103 40171 51011 78022 878//
333 82820 86646 91109 91207=
06456 42480 52405 10074 20048 39834 40179 50011 82831
 333 81816 84075 91108 91206=
06476 45480 82503 10045 20032 39518 40187 51014
333 84/19 87/25 88/29 91106 91203=
06479 42360 72305 10058 20045 30087 40162 50005 875//
 333 83707 85656 91109 91206=
06490 45483 82405 10056 2//// 39604 4//// 51012
333 86/11 88/14 91109 91206=
06590 41635 72602 10034 20030 39733 40193 52015 71022 875//
333 87641 91106 91202=
0000076500
084
SNBX41 EBBR 111100
AAXX 11111
06400 41472 43006 10083 20054 30167 40175 53020 72122 83531
 333 81619 83639 91110 91206=
06431 NIL=
06432 45250 /2304 10056 20049 30107 40180 53011
 333 83/04 87/06 91107 91206=
06449 42368 52407 10074 20047 39949 40178 51015 82602
333 82709 84070 91109 91207=
06450 41345 82306 10061 20044 30147 40163 52005 76022 885//
333 81708 87638 91108 91206=
06458 45472 /2406 10078 20055 30032 40170 51010
 333 84/10 85/50 86/58 91108 91206=
06465 45663 /2203 10076 20052 30102 40165 51006
 333 81/43 85/56 87/58 91106 91203=
06478 42470 32207 10080 20044 39949 40169 50010 82832
333 82817 91111 91207=
06496 47373 /2503 10040 20034 39499 40177 50008 70050
 333 81/06 83/08 85/10 91106 91204=
0000011000
085
UANT01 CWAO 111114
ARP BAW196 5305N04512W 1113 F350 MS62 296/74 KT
GCIVH QXT AOW 111114 F55A
00000000