0000062800
086
USAA01 NZCM 110000
TTAA 61001 89664
99997 00056 18501 00512 ///// ///// 92601 07158 18518
85255 11341 17017 70716 21114 15006 50514 33959 24513
40666 44759 24520 30855 51765 24023 25975 45585 24514
20124 43786 24513 15318 43586 26009 10592 41586 23504
88320 52361 23026
77999
31313 48008 82219=

0000069700
87361=
0000011200
87368=
0000015000
87382
0000012800
87386
0000045600
87406=
0000047800
87429
0000015700
87445=
0000050000
87538
0000054200
87552
0000066600
87599=
0000012800
87916
0000062600
88103
0000054400
88371=
0000064900
90581=
0000077200
087
USAA01 NZCM 110000
TTAA 61001 89664
99997 00056 18501 00512 ///// ///// 92601 07158 18518
85255 11341 17017 70716 21114 15006 50514 33959 24513
40666 44759 24520 30855 51765 24023 25975 45585 24514
20124 43786 24513 15318 43586 26009 10592 41586 23504
88320 52361 23026
77999
31313 48008 82219=

0000069700
87361=
0000011200
87368
0000009600
87371
0000035800
87378
0000037300
87381
0000039400
87385=
0000043700
87428
0000047800
87442=
0000052100
87533=
0000058400
87735
0000056400
87937
0000064700
88142
0000060600
88434
0000068900
88750
0000077200
89228
0000062800
89814
0000062800
90717
0000077300
91815
0000073200
93312
0000075300
95256
0000071200
97501
0000071000
088
USAA01 NZCM 110000
TTAA 61001 89664
99997 00056 18501 00512 ///// ///// 92601 07158 18518
85255 11341 17017 70716 21114 15006 50514 33959 24513
40666 44759 24520 30855 51765 24023 25975 45585 24514
20124 43786 24513 15318 43586 26009 10592 41586 23504
88320 52361 23026
77999
31313 48008 82219=

0000069700
87361=
0000011200
87368=
0000015000
87382
0000012800
87386
0000045600
87406
0000047700
87410=
0000049900
87467=
0000048000
87577
0000054200
87619
0000058400
87681
0000056400
87786
0000062600
87981
0000058500
88158
0000062700
88457
0000064800
88734
0000071000
89208
0000060700
89729
0000056600
90588=
0000073100
089
USAA01 NZCM 110000
TTAA 61001 89664
99997 00056 18501 00512 ///// ///// 92601 07158 18518
85255 11341 17017 70716 21114 15006 50514 33959 24513
40666 44759 24520 30855 51765 24023 25975 45585 24514
20124 43786 24513 15318 43586 26009 10592 41586 23504
88320 52361 23026
77999
31313 48008 82219=

0000069700
87361=
0000011200
87368=
0000015000
87382
0000012800
87386
0000045600
87406
0000047700
87410=
0000049900
87467
0000047900
87475
0000047900
87491
0000056200
87512
0000054200
87550
0000058400
87597
0000062500
87670=
0000054400
88236
0000056500
88508
0000064800
88778
0000066900
89239
0000058600
89795=
0000071200
97510
0000013200
090
SACN41 CWAO 110000 RRA
METAR CYCD 110000Z 09003KT 12SM -RA FEW010 SCT030 OVC080 06/06 A2988
 RMK SF1SC2AC5 SLP120=
0000073100
091
USAA01 NZCM 110000
TTAA 61001 89664
99997 00056 18501 00512 ///// ///// 92601 07158 18518
85255 11341 17017 70716 21114 15006 50514 33959 24513
40666 44759 24520 30855 51765 24023 25975 45585 24514
20124 43786 24513 15318 43586 26009 10592 41586 23504
88320 52361 23026
77999
31313 48008 82219=

0000069700
87361=
0000011200
87368
0000009600
87371
0000035800
87378
0000037300
87381
0000039400
87385
0000039400
87407=
0000012000
87430
0000054000
87439
0000049900
87460=
0000048000
87541
0000054200
87545
0000052200
87598=
0000064700
88091
0000060600
88382
0000056500
88672
0000068900
89176
0000064800
89727
0000066900
90591=
0000021700
092
SACN42 CWAO 110000 RRA
METAR CYXC 110000Z 23006KT 20SM FEW030 BKN080 BKN210 03/M03 A2974 RMK
 SC2AC4CI1 SLP105=
METAR CYZT 110000Z 11022G28KT 8SM -RA SCT012 OVC022 05/04 A2960 RMK
 SF4SC4 SLP025=
0000011300
093
SACN47 CWAO 110000 RRA
METAR CYYY 110000Z 21012G18KT 30SM SCT100 M06/M13 A3014 RMK AC3
 SLP212=
0000068900
094
USAA01 NZCM 110000
TTAA 61001 89664
99997 00056 18501 00512 ///// ///// 92601 07158 18518
85255 11341 17017 70716 21114 15006 50514 33959 24513
40666 44759 24520 30855 51765 24023 25975 45585 24514
20124 43786 24513 15318 43586 26009 10592 41586 23504
88320 52361 23026
77999
31313 48008 82219=

0000069700
87361=
0000011200
87368
0000009600
87371
0000035800
87378
0000037300
87381
0000039400
87385
0000039400
87407
0000041500
87411
0000014600
87417
0000045700
87421
0000049900
87440=
0000052100
87535
0000052100
87570
0000011400
87630=
0000052300
88069
0000054400
88343=
0000066900
90592=
0000060600
095
USAA01 NZCM 110000
TTAA 61001 89664
99997 00056 18501 00512 ///// ///// 92601 07158 18518
85255 11341 17017 70716 21114 15006 50514 33959 24513
40666 44759 24520 30855 51765 24023 25975 45585 24514
20124 43786 24513 15318 43586 26009 10592 41586 23504
88320 52361 23026
77999
31313 48008 82219=

0000069700
87361=
0000011200
87368
0000009600
87371
0000035800
87378
0000037300
87381=
0000039500
87413
0000041600
87422=
0000043800
87504=
0000052200
87720
0000054300
87824
0000056400
88052
0000064700
88325=
0000062800
90555=
0000029000
096
SACN31 CWAO 110000 RRA
METAR CYVR 110000Z 09008KT 10SM -RA OVC035 07/06 A2992 RMK SC8
 SLP130=
METAR CYYQ 110000Z 31006KT 15SM SCT130 OVC270 M28/M32 A2974 RMK
 AC4CI4 SLP074=
METAR CYZF 110000Z 29005KT 10SM -SN BKN055 BKN240 M25/M27 A2950 RMK
 SC5CI2 /S01/ SLP020=
0000013500
097
SACN46 CWAO 110000 RRA
METAR CYSB 110000Z 17012G18KT 3/4SM R22/5500FT/D -FZDZ BR VV001
 M03/M03 A2994 RMK FG8 SLP158=
0000011900
098
SACN43 CWAO 110000 RRA
METAR CYQL 110000Z 26013KT 30SM BKN100 BKN270 03/M04 A2959 RMK AC5CI2
 SLP049=
0000062800
099
USAA01 NZCM 110000
TTAA 61001 89664
99997 00056 18501 00512 ///// ///// 92601 07158 18518
85255 11341 17017 70716 21114 15006 50514 33959 24513
40666 44759 24520 30855 51765 24023 25975 45585 24514
20124 43786 24513 15318 43586 26009 10592 41586 23504
88320 52361 23026
77999
31313 48008 82219=

0000069700
87361=
0000011200
87368=
0000015000
87382
0000012800
87386
0000045600
87406=
0000047800
87429
0000015700
87445
0000049900
87465
0000054100
87473=
0000050100
87586=
0000062600
87905
0000062600
88086
0000060600
88335=
0000064900
90571=
0000068900
100
USAA01 NZCM 110000
TTAA 61001 89664
99997 00056 18501 00512 ///// ///// 92601 07158 18518
85255 11341 17017 70716 21114 15006 50514 33959 24513
40666 44759 24520 30855 51765 24023 25975 45585 24514
20124 43786 24513 15318 43586 26009 10592 41586 23504
88320 52361 23026
77999
31313 48008 82219=

0000069700
87361=
0000011200
87368
0000009600
87371
0000035800
87378
0000037300
87381
0000039400
87385
0000039400
87407
0000041500
87411
0000014600
87417
0000045700
87421=
0000050000
87501
0000056200
87513=
0000060500
87736
0000062600
87931
0000062600
88134
0000056500
88400=
0000066900
90596=
0000068900
101
USAA01 NZCM 110000
TTAA 61001 89664
99997 00056 18501 00512 ///// ///// 92601 07158 18518
85255 11341 17017 70716 21114 15006 50514 33959 24513
40666 44759 24520 30855 51765 24023 25975 45585 24514
20124 43786 24513 15318 43586 26009 10592 41586 23504
88320 52361 23026
77999
31313 48008 82219=

0000069700
87361=
0000011200
87368
0000009600
87371
0000035800
87378
0000037300
87381
0000039400
87385
0000039400
87407
0000041500
87411
0000014600
87417
0000045700
87421
0000049900
87440
0000052000
87462=
0000050100
87574
0000050100
87625=
0000058500
88104
0000054400
88386=
0000062800
90597=
0000071000
102
USAA01 NZCM 110000
TTAA 61001 89664
99997 00056 18501 00512 ///// ///// 92601 07158 18518
85255 11341 17017 70716 21114 15006 50514 33959 24513
40666 44759 24520 30855 51765 24023 25975 45585 24514
20124 43786 24513 15318 43586 26009 10592 41586 23504
88320 52361 23026
77999
31313 48008 82219=

0000069700
87361=
0000011200
87368=
0000015000
87382
0000012800
87386
0000045600
87406
0000047700
87410
0000049800
87416
0000051900
87420
0000047800
87441=
0000045900
87536
0000052100
87559
0000054200
87603
0000052200
87665
0000060500
87771
0000062600
87959
0000062600
88131
0000054400
88410=
0000056600
90567=
0000062700
103
USAA01 NZCM 110000
TTAA 61001 89664
99997 00056 18501 00512 ///// ///// 92601 07158 18518
85255 11341 17017 70716 21114 15006 50514 33959 24513
40666 44759 24520 30855 51765 24023 25975 45585 24514
20124 43786 24513 15318 43586 26009 10592 41586 23504
88320 52361 23026
77999
31313 48008 82219=

0000069700
87361=
0000011200
87368
0000009600
87371
0000035800
87378
0000037300
87381=
0000039500
87413
0000041600
87422=
0000043800
87504
0000052100
87527
0000058300
87571
0000052200
87616=
0000056500
88102
0000062700
88381=
0000056600
90603=
0000068900
104
USAA01 NZCM 110000
TTAA 61001 89664
99997 00056 18501 00512 ///// ///// 92601 07158 18518
85255 11341 17017 70716 21114 15006 50514 33959 24513
40666 44759 24520 30855 51765 24023 25975 45585 24514
20124 43786 24513 15318 43586 26009 10592 41586 23504
88320 52361 23026
77999
31313 48008 82219=

0000069700
87361=
0000011200
87368
0000009600
87371
0000035800
87378
0000037300
87381
0000039400
87385=
0000043700
87428
0000047800
87442
0000056100
87461
0000047900
87477
0000056200
87486
0000052100
87514
0000064500
87547
0000052200
87621=
0000058500
88116
0000066800
88374=
0000060800
90580=
0000075100
105
USAA01 NZCM 110000
TTAA 61001 89664
99997 00056 18501 00512 ///// ///// 92601 07158 18518
85255 11341 17017 70716 21114 15006 50514 33959 24513
40666 44759 24520 30855 51765 24023 25975 45585 24514
20124 43786 24513 15318 43586 26009 10592 41586 23504
88320 52361 23026
77999
31313 48008 82219=

0000069700
87361=
0000011200
87368
0000009600
87371
0000035800
87378
0000037300
87381
0000039400
87385
0000039400
87407
0000041500
87411
0000014600
87417
0000045700
87421=
0000050000
87501
0000056200
87513
0000060400
87556
0000054200
87613=
0000052300
88087
0000054400
88355
0000066800
88649
0000075100
89191
0000069000
89752
0000056600
90611=
00000000