0000008200
086
SMAL50 DAMM 110000 RRC
AAXX 11004
60689 36/// /1503 10182 21035=
0000066800
087
USAA01 NZCM 110000
TTAA 61001 89664
99997 00056 18501 00512 ///// ///// 92601 07158 18518
85255 11341 17017 70716 21114 15006 50514 33959 24513
40666 44759 24520 30855 51765 24023 25975 45585 24514
20124 43786 24513 15318 43586 26009 10592 41586 23504
88320 52361 23026
77999
31313 48008 82219=

0000069700
87361=
0000011200
87368
0000009600
87371
0000035800
87378
0000037300
87381=
0000039500
87413=
0000052000
87479
0000056200
87492
0000045900
87517=
0000054300
87740
0000056400
87934
0000052300
88140=
0000069000
89956
0000062800
90829
0000064900
92042
0000071100
93718
0000011500
088
SMAL51 DAMM 110000 RRB
AAXX 11001
60381 36/// /1801 10143 20050=
60639 46/// /0602 10130 21024=
0000011200
089
SMPO60 LPMG 110000 RRB
AAXX 11001
08568 42/// /36// 1//// 2//// 3//// 4//// 5////
555 60005=
0000071000
090
USAA01 NZCM 110000
TTAA 61001 89664
99997 00056 18501 00512 ///// ///// 92601 07158 18518
85255 11341 17017 70716 21114 15006 50514 33959 24513
40666 44759 24520 30855 51765 24023 25975 45585 24514
20124 43786 24513 15318 43586 26009 10592 41586 23504
88320 52361 23026
77999
31313 48008 82219=

0000069700
87361=
0000011200
87368=
0000015000
87382
0000012800
87386
0000045600
87406
0000047700
87410=
0000049900
87467
0000047900
87475
0000047900
87491
0000056200
87512=
0000054300
87729
0000054300
87840
0000060600
88007
0000013400
88174=
0000062800
89979
0000062800
90854
0000067000
92109
0000079400
93711
0000081300
091
USAA01 NZCM 110000
TTAA 61001 89664
99997 00056 18501 00512 ///// ///// 92601 07158 18518
85255 11341 17017 70716 21114 15006 50514 33959 24513
40666 44759 24520 30855 51765 24023 25975 45585 24514
20124 43786 24513 15318 43586 26009 10592 41586 23504
88320 52361 23026
77999
31313 48008 82219=

0000069700
87361=
0000011200
87368=
0000015000
87382
0000012800
87386
0000045600
87406
0000047700
87410
0000049800
87416
0000051900
87420
0000047800
87441
0000045800
87463
0000047900
87474
0000054100
87493
0000052100
87509
0000048000
87557
0000050100
87618
0000052200
87680
0000060500
87820
0000068800
87999
0000058500
88171
0000060600
88468
0000068900
88727=
0000064900
92023
0000071200
93658
0000064800
092
USAA01 NZCM 110000
TTAA 61001 89664
99997 00056 18501 00512 ///// ///// 92601 07158 18518
85255 11341 17017 70716 21114 15006 50514 33959 24513
40666 44759 24520 30855 51765 24023 25975 45585 24514
20124 43786 24513 15318 43586 26009 10592 41586 23504
88320 52361 23026
77999
31313 48008 82219=

0000069700
87361=
0000011200
87368=
0000015000
87382
0000012800
87386
0000045600
87406=
0000047800
87429=
0000005900
87506
0000058300
87508
0000054200
87566=
0000056400
87888
0000058500
88076
0000064700
88361
0000056500
88689
0000066900
89164=
0000073200
93677
0000073000
093
USAA01 NZCM 110000
TTAA 61001 89664
99997 00056 18501 00512 ///// ///// 92601 07158 18518
85255 11341 17017 70716 21114 15006 50514 33959 24513
40666 44759 24520 30855 51765 24023 25975 45585 24514
20124 43786 24513 15318 43586 26009 10592 41586 23504
88320 52361 23026
77999
31313 48008 82219=

0000069700
87361=
0000011200
87368
0000009600
87371
0000035800
87378
0000037300
87381=
0000039500
87413
0000041600
87422
0000043700
87443
0000045800
87466
0000054100
87469=
0000050100
87581
0000046000
87641
0000058400
87805
0000058500
87979
0000054400
88203
0000060600
88445
0000056500
88731
0000071000
89197=
0000065000
93723
0000075100
094
USAA01 NZCM 110000
TTAA 61001 89664
99997 00056 18501 00512 ///// ///// 92601 07158 18518
85255 11341 17017 70716 21114 15006 50514 33959 24513
40666 44759 24520 30855 51765 24023 25975 45585 24514
20124 43786 24513 15318 43586 26009 10592 41586 23504
88320 52361 23026
77999
31313 48008 82219=

0000069700
87361=
0000011200
87368
0000009600
87371
0000035800
87378
0000037300
87381=
0000039500
87413
0000041600
87422
0000043700
87443
0000045800
87466=
0000054200
87540
0000048000
87567
0000050100
87610
0000056300
87645
0000060500
87781
0000058500
87966
0000068800
88155
0000064800
88454
0000060700
88743
0000058600
89214=
0000060800
93679
0000013100
095
UGTH20 VTBB 110000 RRA
PPBB  61001 48477 90/12 32004 02015 04521 9037/ 05020 09506 9125/
04006 12503 920// 16010=
0000048700
096
SMVS02 VNNN 110000
AAXX 11001
48802 11460 73602 10098 20083 38435 48520 52005 69922 70262 878// 333 00008 20061 3/007 59003 85894 87696=
48803 31456 80000 10146 20131 30107 40224 52014 71022 888// 333 00015 20145 3/015 59001 84894 88696=
48810 11460 80000 10136 20130 30002 40214 53013 69992 76162 888// 333 01015 20133 3/014 59008 85894 88696 96160=
48831 11340 80000 10148 20133 30169 40208 53013 69902 75152 8672/ 333 00016 20148 3/015 59017 86894 88499 96150=
0000014800
097
SMVS02 VNNN 110000
AAXX 11001
48852 11598 73401 10182 20180 30188 40198 53015 60012 70282 872// 333 01019 20181 3/018 58008 87895=
0000025700
098
SMVS01 VNNN 110000
AAXX 11001
48855 32560 70000 10210 20197 30190 40198 52016 86848 333 01021 20210 3/020 58005 82895 85697 86299=
48848 11565 82701 10175 20166 30196 40204 52013 60012 72162 888// 333 01018 20173 3/018 59001 83895 88697=
0000010100
099
SAAE31 VTBB 110000 CCB
METAR COR VDPP 110000Z 05011KT 8000 FEW015 BKN040 24/17 Q1013=
0000014800
100
SMVS40 VNNN 110000
AAXX 11001
48863 11597 82902 10207 20199 30182 40193 53018 60022 72582 882// 333 01022 20205 3/020 58004 88895=
0000023900
101
SMVS02 VNNN 110000
AAXX 11001
48919 32498 60707 10256 20238 30122 40144 52020 862// 22200 02260 2//03 333 20250 58013 82894 86895=
48916 32698 70902 10256 20228 30088 40135 53008 875// 333 00/// 20255 3//// 58014 87696=
0000045100
102
SMVS01 VNNN 110000
AAXX 11001
48918 32470 70505 10246 20204 30138 40149 52016 84808 222// 00233 2//03 333 00024 20242 3/023 58016 81894 83696 86299=
48917 32598 70502 10257 20206 30127 40133 52017 81208 222// 00272 2//00 333 00025 20254 3/024 58008 81895 87299=
48894 32998 40000 10225 20198 30124 40128 56007 80008 333 58008 84299=
48914 32698 70702 10244 20204 30138 40140 52014 82508 333 00025 20242 3/023 58010 82696 87299=
0000045700
103
SMVS01 VNNN 110000
AAXX 11001
48870 11470 73202 10228 20192 30173 40180 53015 69932 70262 878// 333 01023 20225 3/022 58005 83894 87696=
48877 32570 82902 10232 20182 30166 40171 52017 888// 333 00024 20230 3/023 58003 84895 86697=
48887 32572 70202 10231 20167 30136 40142 53014 878// 333 00023 20225 3/022 58004 83895 86697=
48920 11998 63605 10256 20241 30136 40139 53016 60082 70282 80008 222// 00278 2//02 333 20248 58013 86299=
0000066900
104
USAA01 NZCM 110000
TTAA 61001 89664
99997 00056 18501 00512 ///// ///// 92601 07158 18518
85255 11341 17017 70716 21114 15006 50514 33959 24513
40666 44759 24520 30855 51765 24023 25975 45585 24514
20124 43786 24513 15318 43586 26009 10592 41586 23504
88320 52361 23026
77999
31313 48008 82219=

0000069700
87361=
0000011200
87368=
0000015000
87382
0000012800
87386
0000045600
87406=
0000047800
87429
0000015700
87445=
0000050000
87538=
0000054300
87731
0000056400
87826
0000052300
88004
0000086000
88168
0000070900
88451
0000062700
88744
0000075100
89200=
0000073200
93689
0000066800
105
USAA01 NZCM 110000
TTAA 61001 89664
99997 00056 18501 00512 ///// ///// 92601 07158 18518
85255 11341 17017 70716 21114 15006 50514 33959 24513
40666 44759 24520 30855 51765 24023 25975 45585 24514
20124 43786 24513 15318 43586 26009 10592 41586 23504
88320 52361 23026
77999
31313 48008 82219=

0000069700
87361=
0000011200
87368
0000009600
87371
0000035800
87378
0000037300
87381
0000039400
87385=
0000043700
87428=
0000047900
87503=
0000056300
87717
0000060500
87837=
0000052400
88898
0000064800
89371
0000071000
89994
0000073100
90875
0000071100
92053
0000069100
93694
00000000