0000071000
006
USAA01 NZCM 110000
TTAA 61001 89664
99997 00056 18501 00512 ///// ///// 92601 07158 18518
85255 11341 17017 70716 21114 15006 50514 33959 24513
40666 44759 24520 30855 51765 24023 25975 45585 24514
20124 43786 24513 15318 43586 26009 10592 41586 23504
88320 52361 23026
77999
31313 48008 82219=

0000069700
87361=
0000011200
87368=
0000015000
87382=
0000030600
87414
0000014800
87423
0000049900
87438=
0000050000
87532
0000048000
87568
0000056300
87609
0000068700
87654
0000058400
87789
0000060500
87988
0000056400
88195
0000066800
88439
0000062700
88733=
0000069100
92019
0000067000
93634
0000067000
95718
0000077200
007
USAA01 NZCM 110000
TTAA 61001 89664
99997 00056 18501 00512 ///// ///// 92601 07158 18518
85255 11341 17017 70716 21114 15006 50514 33959 24513
40666 44759 24520 30855 51765 24023 25975 45585 24514
20124 43786 24513 15318 43586 26009 10592 41586 23504
88320 52361 23026
77999
31313 48008 82219=

0000069700
87361=
0000011200
87368
0000009600
87371
0000035800
87378
0000037300
87381=
0000039500
87413
0000041600
87422
0000043700
87443
0000045800
87466
0000054100
87469
0000050000
87483
0000045900
87525
0000058300
87572
0000060400
87624
0000058400
87661=
0000060600
88227
0000062700
88498
0000071000
88765=
0000062900
92028
0000073200
93678
0000075300
95716
0000071000
008
USAA01 NZCM 110000
TTAA 61001 89664
99997 00056 18501 00512 ///// ///// 92601 07158 18518
85255 11341 17017 70716 21114 15006 50514 33959 24513
40666 44759 24520 30855 51765 24023 25975 45585 24514
20124 43786 24513 15318 43586 26009 10592 41586 23504
88320 52361 23026
77999
31313 48008 82219=

0000069700
87361=
0000011200
87368=
0000015000
87382
0000012800
87386
0000045600
87406
0000047700
87410=
0000049900
87467=
0000048000
87577
0000054200
87619
0000058400
87681
0000056400
87786
0000062600
87981
0000058500
88158
0000062700
88457
0000064800
88734
0000071000
89208=
0000079400
93657
0000073300
95721
0000003800
009
SMAA11 RUML 110000
NIL
0000071000
010
USAA01 NZCM 110000
TTAA 61001 89664
99997 00056 18501 00512 ///// ///// 92601 07158 18518
85255 11341 17017 70716 21114 15006 50514 33959 24513
40666 44759 24520 30855 51765 24023 25975 45585 24514
20124 43786 24513 15318 43586 26009 10592 41586 23504
88320 52361 23026
77999
31313 48008 82219=

0000069700
87361=
0000011200
87368=
0000015000
87382=
0000030600
87414
0000014800
87423
0000049900
87438=
0000050000
87532
0000048000
87568
0000056300
87609
0000068700
87654
0000058400
87789
0000060500
87988
0000056400
88195
0000066800
88439
0000062700
88733
0000069000
89202=
0000069100
93642
0000062900
95723
0000075200
011
USAA01 NZCM 110000
TTAA 61001 89664
99997 00056 18501 00512 ///// ///// 92601 07158 18518
85255 11341 17017 70716 21114 15006 50514 33959 24513
40666 44759 24520 30855 51765 24023 25975 45585 24514
20124 43786 24513 15318 43586 26009 10592 41586 23504
88320 52361 23026
77999
31313 48008 82219=

0000069700
87361=
0000011200
87368=
0000015000
87382
0000012800
87386
0000045600
87406=
0000047800
87429
0000015700
87445
0000049900
87465
0000054100
87473
0000050000
87488
0000052100
87521
0000054200
87549=
0000056400
87860
0000054400
88008
0000064700
88191
0000062700
88488
0000062700
88756=
0000067000
92020
0000060800
93659
0000069100
95722
0000046200
012
SMAA10 RUML 110000
AAXX 11004
89050 11498 82710 11005 21025 40034 57004 69902 72272 885// 333
10005=
89512 42898 61216 10009 21069 39739 49887 52008 86050=
89574 12998 60817 10046 21053 39852 49868 52017 60002 80001 333 20043
55173 91125 555 7000/=
89592 12498 71110 10018 21027 49820 52008 60002 82531 333 20011 91011
91112 555 7000/=
89606 12998 32310 11297 21357 36371 47672 57004 60002 80004 333 21340
47096 55240 555 7990/=
0000077200
013
USAA01 NZCM 110000
TTAA 61001 89664
99997 00056 18501 00512 ///// ///// 92601 07158 18518
85255 11341 17017 70716 21114 15006 50514 33959 24513
40666 44759 24520 30855 51765 24023 25975 45585 24514
20124 43786 24513 15318 43586 26009 10592 41586 23504
88320 52361 23026
77999
31313 48008 82219=

0000069700
87361=
0000011200
87368
0000009600
87371
0000035800
87378
0000037300
87381=
0000039500
87413
0000041600
87422
0000043700
87443
0000045800
87466
0000054100
87469
0000050000
87483
0000045900
87525
0000058300
87572
0000060400
87624
0000058400
87661=
0000060600
88227
0000062700
88498
0000071000
88765
0000062800
89212=
0000065000
93681
0000069100
95717
0000216500
014
SZNZ01 NZKL 110030
CREX++
T000103 A001 D01021 D06025++
-3683144 17478654 AUCT  2014 01 11 00 22 //// 11 07 00 01
04974 3141 04983 3141 04989 3139 05001 3142 05010 3143 05018 3143+
-4402404 -17636748 CHIT  2014 01 11 00 22 //// 11 07 00 01
05327 2073 05333 2078 05309 2053 05322 2065 05325 2066 05309 2049+
-4089929 17623168 CPIT  2014 01 11 00 22 //// 11 07 00 01
04285 2248 04297 2257 04306 2263 04309 2262 04311 2261 04322 2269+
-3618905 17548887 GBIT  2014 01 11 00 22 //// 11 07 00 01
05848 0017 05867 0030 05870 0028 05870 0023 05875 0022 05884 0025+
-3867541 17802288 GIST  2014 01 11 00 22 //// 11 07 00 01
04315 2685 04336 2702 04320 2682 04333 2691 04321 2675 04326 2677+
-4241288 17370277 KAIT  2014 01 11 00 22 //// 11 07 00 01
03783 2164 03769 2148 03781 2157 03792 2166 03782 2154 03801 2171+
-3755040 17815904 LOTT  2014 01 11 00 22 //// 11 07 00 01
03660 0201 03671 0207 03688 0218 03680 0206 03688 0209 03692 0208+
-3704657 17451175 MNKT  2014 01 11 00 22 //// 11 07 00 01
01824 -0206 01838 -0191 01839 -0191 01841 -0189 01831 -0199 01849 -0182+
-3947566 17692007 NAPT  2014 01 11 00 22 //// 11 07 00 01
03395 2000 03398 1999 03412 2010 03426 2019 03430 2020 03451 2037+
-3441483 17304870 NCPT  2014 01 11 00 22 //// 11 07 00 01
-01411 -5596 -01505 -5695 -01931 -6126 -02017 -6218 -02438 -6644 -02123 -6334+
-4581435 17062939 OTAT  2014 01 11 00 22 //// 11 07 00 01
05295 3451 05291 3447 05283 3439 05285 3442 05294 3451 05298 3456+
-2928002 -17789440 RBCT  2014 01 11 00 22 //// 11 07 00 01
06066 1979 06076 1985 06073 1979 06069 1970 06075 1973 06085 1980+
-2925114 -17790384 RFRT  2014 01 11 00 22 //// 11 07 00 01
03022 0166 03012 0152 03032 0169 03023 0155 03025 0153 03034 0159+
-4357010 17277383 SUMT  2014 01 11 00 22 //// 11 07 00 01
02624 1759 02639 1772 02645 1775 02637 1766 02673 1800 02658 1783+
-3764109 17618118 TAUT  2014 01 11 00 22 //// 11 07 00 01
05114 4013 05119 4013 05124 4012 05131 4014 05136 4013 05141 4014+
-4128448 17477985 WLGT  2014 01 11 00 22 //// 11 07 00 01
03608 2081 03609 2080 03614 2083 03621 2088 03616 2081 03618 2081++
7777
0000020300
015
SMKZ01 UAAA 110000 CCA
AAXX 11001
28867 41598 81803 11082 21109 39901 40180 57013 70373 885// 555  
1/108=
28952 419// 81808 11072 21097 39967 40163 57009 77173 8802/ 555  
1/108=
0000081300
016
USAA01 NZCM 110000
TTAA 61001 89664
99997 00056 18501 00512 ///// ///// 92601 07158 18518
85255 11341 17017 70716 21114 15006 50514 33959 24513
40666 44759 24520 30855 51765 24023 25975 45585 24514
20124 43786 24513 15318 43586 26009 10592 41586 23504
88320 52361 23026
77999
31313 48008 82219=

0000069700
87361=
0000011200
87368
0000009600
87371
0000035800
87378
0000037300
87381
0000039400
87385
0000039400
87407
0000041500
87411
0000014600
87417
0000045700
87421=
0000050000
87501
0000056200
87513
0000060400
87556
0000054200
87613
0000052200
87648
0000064600
87794
0000056400
87973
0000064700
88154
0000062700
88443
0000060600
88737
0000077200
89192=
0000060800
93664
0000069100
95720
0000068900
017
USAA01 NZCM 110000
TTAA 61001 89664
99997 00056 18501 00512 ///// ///// 92601 07158 18518
85255 11341 17017 70716 21114 15006 50514 33959 24513
40666 44759 24520 30855 51765 24023 25975 45585 24514
20124 43786 24513 15318 43586 26009 10592 41586 23504
88320 52361 23026
77999
31313 48008 82219=

0000069700
87361=
0000011200
87368
0000009600
87371
0000035800
87378
0000037300
87381=
0000039500
87413=
0000052000
87479
0000056200
87492
0000045900
87517=
0000054300
87740
0000056400
87934
0000052300
88140
0000066800
88409
0000056500
88661
0000064800
89169=
0000073200
93646
0000079400
95719
0000022700
018
SMVS40 VNNN 110000
AAXX 11001
48866 32998 70703 10154 20138 39292 40190 52012 80008 333 00015 20146 3/015 58002 87299=
48875 32670 60503 10193 20171 39620 40161 52009 85501 333 00020 20184 3/018 58006 85696=
0000014800
019
SMVS01 VNNN 110000
AAXX 11001
48845 31496 80000 10174 20165 30199 40206 52016 71022 888// 333 01017 20173 3/017 59012 85894 88696=
0000013600
020
SMVS02 VNNN 110000
AAXX 11001
48840 32498 80000 10168 20150 30200 40206 52010 888// 333 00019 20165 3/018 83894 88696=
0000032300
021
SMJD01 OJAM 110000
AAXX 11004
40250 32660 83508 10015 20015 39389 40208 54000 85830 333 82830=
40265 31956 60000 10062 20022 39412 40222 54001 70500 86030 333
86360=
40296 32660 60000 10140 20134 40210 52003 86800 333 84830 82630=
40310 32560 83110 10060 20039 38981 48511 52006 88700 83225 85625=
0000014200
022
SMVS40 VNNN 110000
AAXX 11001
48846 32498 80000 10170 20161 30197 40200 52011 888// 333 01016 20160 3/016 59009 83894 88697=
0000014600
023
SMVS01 VNNN 110000 RRA
AAXX 11001
48825 31696 83202 10152 20141 30201 40210 52009 71022 885// 333 00016 20148 3/015 59012 88696=
0000014600
024
SMVS02 VNNN 110000 RRA
AAXX 11001
48823 32497 73401 10165 20154 30201 40204 52009 878// 333 00017 20162 3/016 59022 83894 87696=
0000015200
025
SMVS02 VNNN 110000 RRB
AAXX 11001
48806 32460 80000 10138 20127 39431 40223 52016 888// 333 00016 20134 3/010 58005 85894 88696 96122=
00000000