0000081300
386
USAA01 NZCM 110000
TTAA 61001 89664
99997 00056 18501 00512 ///// ///// 92601 07158 18518
85255 11341 17017 70716 21114 15006 50514 33959 24513
40666 44759 24520 30855 51765 24023 25975 45585 24514
20124 43786 24513 15318 43586 26009 10592 41586 23504
88320 52361 23026
77999
31313 48008 82219=

0000069700
87361=
0000011200
87368
0000009600
87371
0000035800
87378
0000037300
87381
0000039400
87385=
0000043700
87428
0000047800
87442
0000056100
87461
0000047900
87477
0000056200
87486
0000052100
87514
0000064500
87547
0000052200
87621
0000058400
87677=
0000054400
88234
0000062700
88507
0000064800
88768
0000071000
89231
0000066900
89787
0000071100
90683
0000069100
91811
0000077300
93302
0000081300
387
USAA01 NZCM 110000
TTAA 61001 89664
99997 00056 18501 00512 ///// ///// 92601 07158 18518
85255 11341 17017 70716 21114 15006 50514 33959 24513
40666 44759 24520 30855 51765 24023 25975 45585 24514
20124 43786 24513 15318 43586 26009 10592 41586 23504
88320 52361 23026
77999
31313 48008 82219=

0000069700
87361=
0000011200
87368
0000009600
87371
0000035800
87378
0000037300
87381
0000039400
87385
0000039400
87407=
0000012000
87430
0000054000
87439
0000049900
87460
0000047900
87470
0000052100
87487
0000054200
87520
0000052100
87554=
0000050200
87872
0000054300
88051
0000058600
88334
0000064800
88633
0000064800
89187
0000066900
89736
0000085500
90671
0000077300
91799
0000067000
93315
0000068900
388
USAA01 NZCM 110000
TTAA 61001 89664
99997 00056 18501 00512 ///// ///// 92601 07158 18518
85255 11341 17017 70716 21114 15006 50514 33959 24513
40666 44759 24520 30855 51765 24023 25975 45585 24514
20124 43786 24513 15318 43586 26009 10592 41586 23504
88320 52361 23026
77999
31313 48008 82219=

0000069700
87361=
0000011200
87368=
0000015000
87382
0000012800
87386
0000045600
87406
0000047700
87410
0000049800
87416
0000051900
87420=
0000047900
87502
0000013400
87528=
0000048100
87743=
0000052400
88807
0000056500
89256
0000056600
89808
0000069000
90718
0000058700
91791
0000077300
93286
0000071000
389
USAA01 NZCM 110000
TTAA 61001 89664
99997 00056 18501 00512 ///// ///// 92601 07158 18518
85255 11341 17017 70716 21114 15006 50514 33959 24513
40666 44759 24520 30855 51765 24023 25975 45585 24514
20124 43786 24513 15318 43586 26009 10592 41586 23504
88320 52361 23026
77999
31313 48008 82219=

0000069700
87361=
0000011200
87368=
0000015000
87382
0000012800
87386
0000045600
87406=
0000047800
87429=
0000005900
87506
0000058300
87508
0000054200
87566=
0000056400
87888
0000058500
88076
0000064700
88361
0000056500
88689
0000066900
89164
0000073100
89744
0000064900
90651
0000060800
91786
0000073200
93294
0000075100
390
USAA01 NZCM 110000
TTAA 61001 89664
99997 00056 18501 00512 ///// ///// 92601 07158 18518
85255 11341 17017 70716 21114 15006 50514 33959 24513
40666 44759 24520 30855 51765 24023 25975 45585 24514
20124 43786 24513 15318 43586 26009 10592 41586 23504
88320 52361 23026
77999
31313 48008 82219=

0000069700
87361=
0000011200
87368=
0000015000
87382
0000012800
87386
0000045600
87406
0000047700
87410
0000049800
87416
0000051900
87420
0000047800
87441=
0000045900
87536
0000052100
87559
0000054200
87603
0000052200
87665
0000060500
87771=
0000062700
88820
0000056500
89281
0000062800
89802
0000066900
90710
0000071100
91773
0000067000
93310
0000073100
391
USAA01 NZCM 110000
TTAA 61001 89664
99997 00056 18501 00512 ///// ///// 92601 07158 18518
85255 11341 17017 70716 21114 15006 50514 33959 24513
40666 44759 24520 30855 51765 24023 25975 45585 24514
20124 43786 24513 15318 43586 26009 10592 41586 23504
88320 52361 23026
77999
31313 48008 82219=

0000069700
87361=
0000011200
87368=
0000015000
87382
0000012800
87386
0000045600
87406=
0000047800
87429
0000015700
87445
0000049900
87465=
0000054200
87575
0000062500
87617
0000062500
87660=
0000064700
88233
0000058600
88504
0000062700
88760
0000071000
89213
0000062800
89759
0000062800
90687
0000067000
91802
0000071100
93304
0000081300
392
USAA01 NZCM 110000
TTAA 61001 89664
99997 00056 18501 00512 ///// ///// 92601 07158 18518
85255 11341 17017 70716 21114 15006 50514 33959 24513
40666 44759 24520 30855 51765 24023 25975 45585 24514
20124 43786 24513 15318 43586 26009 10592 41586 23504
88320 52361 23026
77999
31313 48008 82219=

0000069700
87361=
0000011200
87368
0000009600
87371
0000035800
87378
0000037300
87381
0000039400
87385
0000039400
87407=
0000012000
87430
0000054000
87439
0000049900
87460
0000047900
87470=
0000052200
87585
0000052200
87663
0000064600
87774
0000060500
87964
0000060600
88192
0000054400
88440
0000075100
88726
0000064800
89198
0000071000
89751
0000062800
90661
0000075200
91800
0000069100
93296
0000071000
393
USAA01 NZCM 110000
TTAA 61001 89664
99997 00056 18501 00512 ///// ///// 92601 07158 18518
85255 11341 17017 70716 21114 15006 50514 33959 24513
40666 44759 24520 30855 51765 24023 25975 45585 24514
20124 43786 24513 15318 43586 26009 10592 41586 23504
88320 52361 23026
77999
31313 48008 82219=

0000069700
87361=
0000011200
87368=
0000015000
87382
0000012800
87386
0000045600
87406
0000047700
87410=
0000049900
87467
0000047900
87475=
0000048000
87589
0000058400
87664=
0000058500
88242
0000066800
88515
0000062700
88789
0000060700
89244
0000060700
89815
0000073100
90699
0000069000
91805
0000071100
93292
0000081300
394
USAA01 NZCM 110000
TTAA 61001 89664
99997 00056 18501 00512 ///// ///// 92601 07158 18518
85255 11341 17017 70716 21114 15006 50514 33959 24513
40666 44759 24520 30855 51765 24023 25975 45585 24514
20124 43786 24513 15318 43586 26009 10592 41586 23504
88320 52361 23026
77999
31313 48008 82219=

0000069700
87361=
0000011200
87368
0000009600
87371
0000035800
87378
0000037300
87381
0000039400
87385
0000039400
87407
0000041500
87411
0000014600
87417
0000045700
87421
0000049900
87440
0000052000
87462=
0000050100
87574
0000050100
87625
0000054300
87671=
0000058500
88247
0000060600
88516
0000064800
88773
0000064800
89242
0000060700
89823
0000069000
90704
0000071100
91816
0000077300
93322
0000064800
395
USAA01 NZCM 110000
TTAA 61001 89664
99997 00056 18501 00512 ///// ///// 92601 07158 18518
85255 11341 17017 70716 21114 15006 50514 33959 24513
40666 44759 24520 30855 51765 24023 25975 45585 24514
20124 43786 24513 15318 43586 26009 10592 41586 23504
88320 52361 23026
77999
31313 48008 82219=

0000069700
87361=
0000011200
87368=
0000015000
87382=
0000030600
87414=
0000011000
87481=
0000054200
87583
0000058400
87642=
0000062700
88217
0000064800
88493
0000062700
88763
0000071000
89226
0000058600
89792
0000067000
90686
0000077300
91787
0000067000
93283
0000087500
396
USAA01 NZCM 110000
TTAA 61001 89664
99997 00056 18501 00512 ///// ///// 92601 07158 18518
85255 11341 17017 70716 21114 15006 50514 33959 24513
40666 44759 24520 30855 51765 24023 25975 45585 24514
20124 43786 24513 15318 43586 26009 10592 41586 23504
88320 52361 23026
77999
31313 48008 82219=

0000069700
87361=
0000011200
87368
0000009600
87371
0000035800
87378
0000037300
87381
0000039400
87385
0000039400
87407
0000041500
87411
0000014600
87417
0000045700
87421
0000049900
87440
0000052000
87462
0000050000
87472
0000005900
87495
0000058300
87519
0000056300
87548
0000056300
87600
0000062500
87655=
0000062700
88220
0000066800
88497
0000062700
88783
0000068900
89270
0000064800
89828
0000066900
90746
0000064900
91823
0000069100
93300
0000073000
397
USAA01 NZCM 110000
TTAA 61001 89664
99997 00056 18501 00512 ///// ///// 92601 07158 18518
85255 11341 17017 70716 21114 15006 50514 33959 24513
40666 44759 24520 30855 51765 24023 25975 45585 24514
20124 43786 24513 15318 43586 26009 10592 41586 23504
88320 52361 23026
77999
31313 48008 82219=

0000069700
87361=
0000011200
87368
0000009600
87371
0000035800
87378
0000037300
87381
0000039400
87385=
0000043700
87428
0000047800
87442=
0000052100
87533=
0000058400
87735
0000056400
87937
0000064700
88142
0000060600
88434
0000068900
88750
0000077200
89228
0000062800
89814
0000062800
90717
0000077300
91815
0000073200
93312
0000075100
398
USAA01 NZCM 110000
TTAA 61001 89664
99997 00056 18501 00512 ///// ///// 92601 07158 18518
85255 11341 17017 70716 21114 15006 50514 33959 24513
40666 44759 24520 30855 51765 24023 25975 45585 24514
20124 43786 24513 15318 43586 26009 10592 41586 23504
88320 52361 23026
77999
31313 48008 82219=

0000069700
87361=
0000011200
87368=
0000015000
87382
0000012800
87386
0000045600
87406
0000047700
87410
0000049800
87416
0000051900
87420
0000047800
87441
0000045800
87463
0000047900
87474
0000054100
87493
0000052100
87509=
0000048100
87737=
0000050300
88793
0000058600
89265
0000066900
89801
0000056600
90715
0000075200
91817
0000064900
93313
0000068900
399
USAA01 NZCM 110000
TTAA 61001 89664
99997 00056 18501 00512 ///// ///// 92601 07158 18518
85255 11341 17017 70716 21114 15006 50514 33959 24513
40666 44759 24520 30855 51765 24023 25975 45585 24514
20124 43786 24513 15318 43586 26009 10592 41586 23504
88320 52361 23026
77999
31313 48008 82219=

0000069700
87361=
0000011200
87368=
0000015000
87382
0000012800
87386=
0000045700
87427
0000045800
87444
0000047900
87464
0000052000
87476
0000050000
87490
0000045900
87515=
0000054300
87741=
0000056500
88799
0000056500
89258
0000064900
89816
0000062800
90702
0000058700
91809
0000071200
93306
0000068900
400
USAA01 NZCM 110000
TTAA 61001 89664
99997 00056 18501 00512 ///// ///// 92601 07158 18518
85255 11341 17017 70716 21114 15006 50514 33959 24513
40666 44759 24520 30855 51765 24023 25975 45585 24514
20124 43786 24513 15318 43586 26009 10592 41586 23504
88320 52361 23026
77999
31313 48008 82219=

0000069700
87361=
0000011200
87368=
0000015000
87382
0000012800
87386
0000045600
87406
0000047700
87410
0000049800
87416=
0000045800
87478
0000043800
87484
0000050000
87523=
0000054300
87742=
0000056500
88798
0000066900
89251
0000066900
89820
0000075200
90703
0000069000
91814
0000071200
93316
0000068800
401
USAA01 NZCM 110000
TTAA 61001 89664
99997 00056 18501 00512 ///// ///// 92601 07158 18518
85255 11341 17017 70716 21114 15006 50514 33959 24513
40666 44759 24520 30855 51765 24023 25975 45585 24514
20124 43786 24513 15318 43586 26009 10592 41586 23504
88320 52361 23026
77999
31313 48008 82219=

0000069700
87361=
0000011200
87368
0000009600
87371
0000035800
87378
0000037300
87381
0000039400
87385=
0000043700
87428
0000047800
87442
0000056100
87461
0000047900
87477
0000056200
87486
0000052100
87514
0000064500
87547
0000052200
87621=
0000058500
88116=
0000066900
89894
0000069000
90793
0000024600
402
SIIN90 VECC 102100
AAXX 10214
42807 31995 00000 10150 20132 40148 71000
  333 58006=
42706 31994 00000 10142 20124 40153 71000
  333 58001=
43333 31495 50504 10258 20229 40123 70522 84401
  333 56209 58014 82618 83820=
0000155600
403
FCIN90 VEGT 110000
TAF VEGT 110000Z 1103/1112  00000KT 1500 BR NSC BEC 1107/1109 05004KT
3000 HZ FEW018 SCT100 BEC 1110/1112 00000KT 2000 BR SCT100=

TAF VEBI 110000Z 1103/1112 00000KT 1300 BR FEW008 SCT015 BKN100 BEC
1107/1109 03005KT 2500 HZ FEW018 SCT100 BEC 1110/1112 00000KT 1500 BR
BKN100=

TAF VELR 110000Z 1103/1112 00000KT 1500 BR NSC BEC 1107/1109 04005KT
3000 HZ FEW018 SCT100 BEC 1110/1112 00000KT 2000 BR SCT100=

TAF VEIM 110000Z 1103/1112 00000KT 1300 BR NSC BEC 1107/1109 07005KT
2500 HZ FEW018 SCT100  BEC 1110/1112 00000KT 2000 BR SCT100=

TAF VEKU 110000Z 1103/1112 00000KT 2000 BR NSC  BEC 1107/1109 05005KT
3500 HZ FEW018 SCT100 BEC 1110/1112 00000KT 2500 HZ SCT100=

TAF VEMR 110000Z 1103/1112 00000KT 1500 BR NSC BEC 1106/1108 07006KT
3000 HZ FEW018 SCT100 BEC 1110/1112 00000KT 2000 BR SCT100=

TAF VELP 110000Z 1103/1112 00000KT 05005KT 1500 BR FEW015 SCT100 BEC
1107/1109 08008KT 3000 HZ FEW018 SCT100 BEC 1110/1112 00000KT 2500 HZ
SCT100=

TAF VEPG 110000Z 1103/1112 00000KT 04006KT 1500 BR SCT015 BKN100 BEC
1106/1108 3000 HZ  BEC 1110/1112 00000KT 2500 HZ BKN100=

TAF  VETJ 110000Z 1103/1112 00000KT 05005KT 1500 BR SCT015 BKN100 BEC
1106/1108 2500 HZ BEC 1110/1112 00000KT 2000 BR BKN100=

TAF VEZO 110000Z 1103/1112 00000KT 04004KT 1500 BR SCT015 BKN100 BEC
1106/1108 2500 HZ BEC 1110/1112 00000KT 2000 BR BKN100=

TAF VEDZ 110000Z 1103/1112 00000KT 07006KT 1500 BR SCT015 BKN100 BEC
1106/1108 2500 HZ BEC 1110/1112 00000KT 2000 BR BKN100=

0000037000
404
SMIN90 VECC 110000
AAXX 11004
42807 31995 00000 10140 20129 40154 71000
  333 59004=
42706 31994 00000 10126 20111 40150 71000
  333 58001=
42901 31995 03601 10126 20115 40146 70500
  333 58004=
42503 31993 00000 10148 20126 40167 74444
  333 58009=
43333 31495 70504 10256 20233 40128 70522 84431
  333 56299 58009 82618 83820 85070=
0000058500
405
USAA01 NZCM 110000
TTAA 61001 89664
99997 00056 18501 00512 ///// ///// 92601 07158 18518
85255 11341 17017 70716 21114 15006 50514 33959 24513
40666 44759 24520 30855 51765 24023 25975 45585 24514
20124 43786 24513 15318 43586 26009 10592 41586 23504
88320 52361 23026
77999
31313 48008 82219=

0000069700
87361=
0000011200
87368=
0000015000
87382=
0000030600
87414
0000014800
87423=
0000050000
87499
0000062400
87518
0000056300
87544=
0000054300
87877
0000058500
88044
0000058500
88316
0000073000
88586=
00000000