0000005200
546
RRIN23 VECC 110033
RQRPT 379-400=

0000031000
547
USIN90 VOHY 110000
TTAA 61001 43128 
99951 19219 00000 00/// ///// ///// 92763 17419 14516 
85489 17458 31503 70120 10478 25519 50584 02576 31528 
40758 15172 30036 30970 31375 26032 25097 42167 27548 
20244 54559 26538 15423 69358 25530 10660 77758 26524 
88122 77159 26039 77999=

0000357000
548
SMRA13 RUHB 110000
AAXX 11001
30455 129// 00000 11382 21404 38948 48452 52032 60002 333 21392
47007=
30669 12999 01001 11341 21378 39403 40394 52016 60002 333 21346
47008=
30731 115// 60902 11165 21184 39710 40362 52008 69902 72273 83502 333
21166 47019=
30739 116// 21802 11200 21241 39478 40363 52016 69922 70131 81542 333
21268 3/131 47008 55043=
30741 129// 23202 11232 21244 38715 48501 52033 60002 82040 333 21///
47030=
30745 129// 00302 11315 21339 39131 40430 52025 60002 333 21315 47009
55015=
30764 11993 00000 11417 21432 39515 40460 52023 60002 74440 333 21419
47004=
30829 12984 62402 11237 21270 39652 40410 52009 60002 82031 333 21239
47008=
30838 11598 22705 11188 21207 39320 40375 52014 69942 73683 82900 333
21220 47015=
30846 11699 80801 11180 21214 39373 40344 52021 69942 78582 85933 333
21180 47003=
30859 11999 80000 11255 21280 39453 40376 52034 69962 72273 80007 333
21255 47004=
30862 12999 01004 11320 21357 39556 40394 52023 69902 333 21326
47004=
30957 11698 73504 11151 21185 39367 40311 52022 69922 78583 87300 333
21240 47005 91111=
30975 12899 50000 11344 21362 39615 40355 52009 60002 83031 333 21386
47007=
24076 41596 81003 11233 21258 39918 40311 52010 77172 885// 333
88621=
24194 41996 80502 11199 21211 30244 40301 58004 71072 8801/=
24219 12999 01301 11456 21481 39985 40345 57006 60002 333 21485 47013
55000=
24261 41997 83001 11337 21359 39633 40328 52004 77177 86037=
24263 42999 50000 11436 21456 30031 40357 52005 80001 333 21436=
24322 12998 42102 11331 21348 39627 40334 53002 69902 80001 333 21333
47040 93512=
24338 12999 22301 11415 21438 39891 40345 54000 60002 80005 333 21446
47038=
24361 42999 20000 11466 21481 30046 40353 52007 80001=
24371 42999 10000 11441 21464 39950 40363 52007 81030 333 21444=
24449 12999 30000 11504 21530 30265 40381 52002 60002 80001 333 21504
47062=
24462 12899 80000 11352 21380 39266 40349 52005 60002 8801/ 333 21416
47022=
24477 42999 50000 11450 21483 39387 40377 52003 85070=
24525 12998 20000 11481 21500 30014 40401 58002 60002 80002 333 21481
47045=
24538 12998 00000 11506 21535 30169 40388 54000 60002 333 21515
47052=
24557 12999 00000 11498 21522 30245 40379 54000 60002 333 21504
47044=
24585 41998 80000 11328 21357 39569 40299 53002 77172 8802/=
24588 41997 80000 11332 21350 39476 40300 53001 77172 8802/=
24643 12999 00000 11457 21485 30264 40383 51003 69902 70271 333 21477
47049 55000=
24644 11997 20000 11445 21469 30222 40400 52003 60002 71000 80001 333
21469 47032=
24668 12999 00000 11474 21490 30230 40372 52006 60002 333 21474
47039=
24679 42999 80000 11313 21330 38578 48355 58003 8802/ 333 55000=
24684 41998 83601 11314 21330 39225 40286 53002 77172 8802/=
24691 42999 00000 11447 21459 39186 40343 53011 333 21447 55006=
24725 NIL=
24726 11994 82703 11441 21489 39884 40422 58002 60002 71022 80001 333
21454 47036=
24737 11996 00000 11510 21530 30210 40431 58002 60002 71000 333 21518
47028=
24739 12999 30000 11455 21472 39938 40408 52002 60002 333 21480
47043=
24753 11996 02801 11446 21469 30248 40387 52006 69902 71000 333 21446
47036=
24758 12998 30000 11471 21501 30054 40411 52005 60002 80001 333
21503=
24763 42999 00000 11465 21496 30199 40376 52007 333 55000=
24771 42999 00000 11465 21496 39938 40380 53001=
24826 11999 82402 11436 21469 39916 40451 54000 69902 70271 80006 333
21458 48053 55017=
24843 12998 00000 11524 21541 30109 40424 52001 60002 333 21532
47036=
0000066900
549
USAA01 NZCM 110000
TTAA 61001 89664
99997 00056 18501 00512 ///// ///// 92601 07158 18518
85255 11341 17017 70716 21114 15006 50514 33959 24513
40666 44759 24520 30855 51765 24023 25975 45585 24514
20124 43786 24513 15318 43586 26009 10592 41586 23504
88320 52361 23026
77999
31313 48008 82219=

0000069700
87361=
0000011200
87368=
0000015000
87382=
0000030600
87414
0000014800
87423
0000049900
87438
0000052000
87459
0000058200
87471=
0000050100
87587
0000062500
87647=
0000058500
88254=
0000060700
90453
0000058700
91548
0000064900
93085
0000067000
94968
0000065000
97154
0000059200
550
SMRA18 RUHB 110000
AAXX 11001
31825 42/// /3201 11249 21309 39964 40192 52009=
31845 12999 00000 11318 21348 30080 40265 52004=
31878 41956 01701 11269 21297 30135 40274 57001 70400 333 21295=
31915 42999 02501 11211 21262 39973 40271 57005=
31921 42998 22103 11212 21261 30156 40264 57003 80001 333 21219=
31969 82997 02703 11109 21198 30228 40280 52004 333 21135=
31981 42999 02503 11260 21299 30034 40296 52006 333 21276=
31987 42999 02201 11162 21241 30005 40284 53011=
32069 41598 51002 11226 21251 30130 40136 53001 70283 82930 333 21234
91004 91105=
0000073100
551
USAA01 NZCM 110000
TTAA 61001 89664
99997 00056 18501 00512 ///// ///// 92601 07158 18518
85255 11341 17017 70716 21114 15006 50514 33959 24513
40666 44759 24520 30855 51765 24023 25975 45585 24514
20124 43786 24513 15318 43586 26009 10592 41586 23504
88320 52361 23026
77999
31313 48008 82219=

0000069700
87361=
0000011200
87368=
0000015000
87382
0000012800
87386
0000045600
87406
0000047700
87410=
0000049900
87467
0000047900
87475
0000047900
87491
0000056200
87512
0000054200
87550
0000058400
87597=
0000052300
88098
0000066800
88367=
0000062800
90540
0000064900
91623
0000060800
93128
0000060800
95002
0000069100
97150
0000079300
552
USAA01 NZCM 110000
TTAA 61001 89664
99997 00056 18501 00512 ///// ///// 92601 07158 18518
85255 11341 17017 70716 21114 15006 50514 33959 24513
40666 44759 24520 30855 51765 24023 25975 45585 24514
20124 43786 24513 15318 43586 26009 10592 41586 23504
88320 52361 23026
77999
31313 48008 82219=

0000069700
87361=
0000011200
87368=
0000015000
87382
0000012800
87386
0000045600
87406
0000047700
87410
0000049800
87416
0000051900
87420
0000047800
87441=
0000045900
87536
0000052100
87559
0000054200
87603
0000052200
87665
0000060500
87771
0000062600
87959
0000062600
88131
0000054400
88410=
0000056600
90567
0000062800
91654
0000067000
93182
0000060800
95040
0000067000
97194
0000103100
553
SMNR01 DRRN 110000
AAXX 11004
61017 32960 50000 10086 20018 39784 40201 80002
  333 0//00 58001 85080=
61024 NIL=
61036 NIL=
61043 31956 71010 10186 21066 39710 40153 7052/ 80008
  333 0//00 58002 87280=
61045 NIL=
61049 31956 70806 10176 20023 39853 40175 7052/ 80008
  333 0//00 58018 87280=
61052 31956 20806 10220 20076 39877 40135 70600 80002
  333 0//00 59001 82080=
61053 31945 70808 10220 20010 39/// 4//// 7062/ 80008
  333 0//00 5//// 87280=
61075 31958 60402 10195 20026 39841 40149 7062/ 80008
  333 0//00 58004 86280=
61080 31956 71004 10160 21017 39727 40150 7062/ 80008
  333 0//00 59004 87280=
61085 31920 50819 10185 21009 39823 40247 7072/ 80002
  333 0//00 58024 85080=
61090 31956 73606 10190 21058 39649 40162 70522 80008
  333 0//00 58017 87280=
61091 32960 50000 10128 20020 39713 40172 80002
  333 0//00 58014 85080=
61096 31956 73606 10186 21010 39784 40168 7052/ 80008
  333 0//00 58008 87280=
61099 NIL=







NNNN
?=
0000032500
554
USCN01 CWAO 110000
TTAA  61001 71600 99031 00756 25014 00250 03145 24521 92860
08902 26020 85517 05787 26531 70016 12376 27532 50552 27959
29042 40708 40522 28554 30898 55345 29058 25013 59160 29556
20152 59967 29061 15333 57581 28581 10585 63177 28576 88231
61360 28559 88106 63577 28580 77103 28585=
0000064100
555
UKCN01 CWAO 110000
TTBB  61008 71600 00031 00756 11896 10902 22889 09544 33884
08571 44878 06977 55867 05987 66750 10789 77727 11589 88714
12369 99705 12189 11696 12378 22691 12558 33687 12941 44684
12519 55681 12522 66651 15309 77625 15742 88614 16918 99563
21357 11558 21164 22556 21168 33553 21760 44547 22359 55543
22765 66521 25559 77514 26361 88507 27357 99469 30964 11442
34561 22421 37714 33413 38736 44403 40118 55385 42550 66352
47926 77340 49343 88324 51931 99317 52756 11288 57138 22262
58959 33245 59160 44231 61360 55167 56978 66136 59780 77130
58781 88106 63577 99100 63177 31313 48008 82316=
0000026900
556
UGCN01 CWAO 110000
PPBB  61008 71600 90012 25014 24520 25518 90345 26020 25532
26036 90678 27028 26028 26524 909// 26528 91246 29035 28544
29039 92013 28542 28046 29054 9257/ 29053 28548 93035 29058
29557 28558 937// 30062 95012 28576 28585 28576=
0000079300
557
USAA01 NZCM 110000
TTAA 61001 89664
99997 00056 18501 00512 ///// ///// 92601 07158 18518
85255 11341 17017 70716 21114 15006 50514 33959 24513
40666 44759 24520 30855 51765 24023 25975 45585 24514
20124 43786 24513 15318 43586 26009 10592 41586 23504
88320 52361 23026
77999
31313 48008 82219=

0000069700
87361=
0000011200
87368=
0000015000
87382
0000012800
87386
0000045600
87406
0000047700
87410
0000049800
87416
0000051900
87420
0000047800
87441
0000045800
87463
0000047900
87474
0000054100
87493
0000052100
87509
0000048000
87557=
0000050200
87884
0000062600
88049
0000060600
88332=
0000064800
90549
0000058700
91641
0000067000
93149
0000058700
95006
0000060800
97180
0000079300
558
USAA01 NZCM 110000
TTAA 61001 89664
99997 00056 18501 00512 ///// ///// 92601 07158 18518
85255 11341 17017 70716 21114 15006 50514 33959 24513
40666 44759 24520 30855 51765 24023 25975 45585 24514
20124 43786 24513 15318 43586 26009 10592 41586 23504
88320 52361 23026
77999
31313 48008 82219=

0000069700
87361=
0000011200
87368=
0000015000
87382
0000012800
87386
0000045600
87406
0000047700
87410=
0000049900
87467=
0000048000
87577
0000054200
87619
0000058400
87681
0000056400
87786
0000062600
87981
0000058500
88158
0000062700
88457
0000064800
88734
0000071000
89208
0000060700
89729
0000056600
90588
0000073200
91647
0000065000
93144
0000073200
95014
0000058800
97186
0000062700
559
USAA01 NZCM 110000
TTAA 61001 89664
99997 00056 18501 00512 ///// ///// 92601 07158 18518
85255 11341 17017 70716 21114 15006 50514 33959 24513
40666 44759 24520 30855 51765 24023 25975 45585 24514
20124 43786 24513 15318 43586 26009 10592 41586 23504
88320 52361 23026
77999
31313 48008 82219=

0000069700
87361=
0000011200
87368
0000009600
87371
0000035800
87378
0000037300
87381=
0000039500
87413=
0000052000
87479=
0000056300
87590
0000058400
87644
0000054300
87807
0000015200
88028=
0000064800
89434=
0000062900
95007
0000075300
97181
0000077200
560
USAA01 NZCM 110000
TTAA 61001 89664
99997 00056 18501 00512 ///// ///// 92601 07158 18518
85255 11341 17017 70716 21114 15006 50514 33959 24513
40666 44759 24520 30855 51765 24023 25975 45585 24514
20124 43786 24513 15318 43586 26009 10592 41586 23504
88320 52361 23026
77999
31313 48008 82219=

0000069700
87361=
0000011200
87368
0000009600
87371
0000035800
87378
0000037300
87381=
0000039500
87413=
0000052000
87479
0000056200
87492
0000045900
87517
0000054200
87560
0000060400
87620
0000064600
87679
0000048100
87790
0000050200
87984
0000058500
88157
0000060600
88415=
0000062800
90576
0000062900
91645
0000077400
93152
0000064900
95012
0000077400
97182
0000066900
561
USAA01 NZCM 110000
TTAA 61001 89664
99997 00056 18501 00512 ///// ///// 92601 07158 18518
85255 11341 17017 70716 21114 15006 50514 33959 24513
40666 44759 24520 30855 51765 24023 25975 45585 24514
20124 43786 24513 15318 43586 26009 10592 41586 23504
88320 52361 23026
77999
31313 48008 82219=

0000069700
87361=
0000011200
87368=
0000015000
87382
0000012800
87386
0000045600
87406
0000047700
87410
0000049800
87416
0000051900
87420
0000047800
87441
0000045800
87463=
0000048000
87576=
0000060500
87895
0000054400
88078=
0000060700
89447=
0000071200
95043
0000062900
97196
0000073100
562
USAA01 NZCM 110000
TTAA 61001 89664
99997 00056 18501 00512 ///// ///// 92601 07158 18518
85255 11341 17017 70716 21114 15006 50514 33959 24513
40666 44759 24520 30855 51765 24023 25975 45585 24514
20124 43786 24513 15318 43586 26009 10592 41586 23504
88320 52361 23026
77999
31313 48008 82219=

0000069700
87361=
0000011200
87368
0000009600
87371
0000035800
87378
0000037300
87381
0000039400
87385=
0000043700
87428
0000047800
87442
0000056100
87461
0000047900
87477
0000056200
87486
0000052100
87514=
0000064600
87726=
0000060600
88295
0000060600
88563
0000066900
89023
0000073100
89548=
0000064900
95037
0000060900
97189
0000083500
563
USAA01 NZCM 110000
TTAA 61001 89664
99997 00056 18501 00512 ///// ///// 92601 07158 18518
85255 11341 17017 70716 21114 15006 50514 33959 24513
40666 44759 24520 30855 51765 24023 25975 45585 24514
20124 43786 24513 15318 43586 26009 10592 41586 23504
88320 52361 23026
77999
31313 48008 82219=

0000069700
87361=
0000011200
87368=
0000015000
87382
0000012800
87386
0000045600
87406=
0000047800
87429
0000015700
87445
0000049900
87465
0000054100
87473
0000050000
87488
0000052100
87521
0000054200
87549
0000056300
87594
0000062500
87639=
0000054400
88218
0000064800
88494
0000068900
88767
0000068900
89216
0000071000
89741
0000073200
90605
0000067000
91667
0000062900
93153
0000056700
95034
0000077400
97193
0000003900
564
UAXX01 HECA 110000
NIL=
0000039100
565
SMAF95 HECA 110000 RRH
AAXX 11004
42634 32996 00000 10124 20073 40163
  333 58012=
42647 31996 03204 10120 20061 40153 70500
  333 58022=
43003 31995 03603 10172 20073 40140 70400
  333 58020=
43014 31996 00000 10132 20078 39469 40135 70500
  333 58000=
43117 32996 00000 10190 20113 40127
  333 59001=
43192 32996 00903 10200 20160 40123
  333 58010=
00000000