0000011000
366
SIIN90 VECC 110900
AAXX 11094
42503 31593 83201 10172 20133 40173 74444 8552/
  333 58019=
0000073100
367
USAA01 NZCM 110000
TTAA 61001 89664
99997 00056 18501 00512 ///// ///// 92601 07158 18518
85255 11341 17017 70716 21114 15006 50514 33959 24513
40666 44759 24520 30855 51765 24023 25975 45585 24514
20124 43786 24513 15318 43586 26009 10592 41586 23504
88320 52361 23026
77999
31313 48008 82219=

0000069700
87361=
0000011200
87368=
0000015000
87382
0000012800
87386
0000045600
87406=
0000047800
87429
0000015700
87445=
0000050000
87538
0000054200
87552
0000066600
87599
0000058400
87652=
0000060600
88230
0000062700
88505
0000058600
88775
0000062700
89249
0000071000
89817
0000073100
90722
0000062800
91819
0000069100
93317
0000073100
368
USAA01 NZCM 110000
TTAA 61001 89664
99997 00056 18501 00512 ///// ///// 92601 07158 18518
85255 11341 17017 70716 21114 15006 50514 33959 24513
40666 44759 24520 30855 51765 24023 25975 45585 24514
20124 43786 24513 15318 43586 26009 10592 41586 23504
88320 52361 23026
77999
31313 48008 82219=

0000069700
87361=
0000011200
87368=
0000015000
87382
0000012800
87386
0000045600
87406=
0000047800
87429
0000015700
87445=
0000050000
87538
0000054200
87552=
0000066700
87865
0000056400
88009
0000054400
88205
0000066800
88453
0000075100
88747
0000058600
89210
0000062800
89757
0000060700
90692
0000075200
91812
0000060800
93307
0000030700
369
USCN05 CWAO 110000
TTAA  61001 71043 99996 28321 31504 00065 ///// ///// 92632
25738 31014 85240 28724 30012 70632 28923 28026 50499 40541
28060 40648 48529 27561 30834 56959 27545 25949 57762 28549
20091 57573 29052 15273 58376 29055 10527 60376 29568 88292
57558 27549 77105 29070=
0000057900
370
UKCN05 CWAO 110000
TTBB  61008 71043 00996 28321 11995 26127 22991 25127 33977
25724 44950 24339 55869 27534 66824 30508 77799 25326 88782
26522 99742 30301 11733 29707 22723 28905 33712 28134 44695
29111 55671 29939 66632 31706 77612 32716 88602 33304 99559
35150 11531 37150 22473 43328 33420 47315 44385 49531 55381
49728 66367 50157 77354 51534 88341 52360 99328 53957 11292
57558 22270 58360 33259 56962 44232 57766 55224 55771 66210
57972 77206 56573 88200 57573 99189 56375 11119 59577 22117
58977 33108 61176 44100 60376 31313 48008 82316=
0000031900
371
UGCN05 CWAO 110000
PPBB  61008 71043 90012 31504 29014 31014 90345 33015 29512
25017 90678 28518 28522 29025 909// 28028 91024 29030 27044
27554 91568 28557 28059 28065 92013 27562 27560 28554 9256/
28046 27046 93024 28047 28041 28058 93569 28557 29051 29046
94019 28053 29551 29070 950// 29568=
0000030700
372
USCN03 CWAO 110000
TTAA  61001 71119 99912 01357 03011 00017 ///// ///// 92652
///// ///// 85323 04756 30538 70819 14361 31039 50528 32360
29037 40684 34176 31109 30879 48156 31161 25997 57149 31665
20136 58366 31590 15318 58179 30575 10573 58981 29575 88216
63343 31632 77260 31168=
0000043100
373
UKCN03 CWAO 110000
TTBB  61008 71119 00912 01357 11833 05957 22719 15102 33709
13759 44654 18361 55604 23344 66590 24756 77530 29756 88504
31960 99477 35358 11469 35764 22464 35569 33431 33781 44398
34376 55385 35571 66359 39359 77341 41960 88275 53138 99261
55948 11216 63343 22212 63148 33211 61150 44207 58358 55201
58366 66183 57976 77167 55780 88148 58779 99123 56781 11100
58781 31313 48008 82315=
0000030100
374
UGCN03 CWAO 110000
PPBB  61008 71119 90034 03011 31524 30536 90567 30543 30040
29041 9089/ 28541 31039 91024 31036 31045 29043 91689 30037
29537 30051 92035 30065 31116 31137 928// 31160 93025 31162
31168 32151 937// 31591 94245 30590 30566 29575 947// 28566
9502/ 30062 29575=
0000003900
375
UPGO01 FOOL 110000
NIL=
0000060500
376
CSAM01 FCBB 110000
CLIMAT 01014
64005 NIL=
64006 NIL=
64008 NIL=
64018 NIL=
64021 NIL=
64034 NIL=
64040 NIL=
64056 NIL=
64062 NIL=
64076 NIL=
64108 NIL=
64115 NIL=
64126 NIL=
64146 NIL=
64155 NIL=
64180 NIL=
64184 NIL=
64201 NIL=
64203 NIL=
64207 NIL=
64210 111 19756 10105 30255/// 403070221 5255 60367/18 8000000
          9000000
   333 031240000 31716 41201 50000 8120000 9000003
   444 0027719 1023226 2034022 3020025 486524 5403004 61900
          711806=
64222 NIL=
64224 NIL=
64228 NIL=
64235 NIL=
64247 NIL=
64248 NIL=
0000008300
377
UAPA01 KWBC 110018
ARP B1825 1143N 18000W 0009 F380 MS48 330/008KT=
0000062700
378
USAA01 NZCM 110000
TTAA 61001 89664
99997 00056 18501 00512 ///// ///// 92601 07158 18518
85255 11341 17017 70716 21114 15006 50514 33959 24513
40666 44759 24520 30855 51765 24023 25975 45585 24514
20124 43786 24513 15318 43586 26009 10592 41586 23504
88320 52361 23026
77999
31313 48008 82219=

0000069700
87361=
0000011200
87368=
0000015000
87382=
0000030600
87414=
0000011000
87481=
0000054200
87583
0000058400
87642
0000062600
87763=
0000060600
88809
0000077200
89269
0000066900
89800
0000066900
90716
0000067000
91792
0000067000
93290
0000071000
379
USAA01 NZCM 110000
TTAA 61001 89664
99997 00056 18501 00512 ///// ///// 92601 07158 18518
85255 11341 17017 70716 21114 15006 50514 33959 24513
40666 44759 24520 30855 51765 24023 25975 45585 24514
20124 43786 24513 15318 43586 26009 10592 41586 23504
88320 52361 23026
77999
31313 48008 82219=

0000069700
87361=
0000011200
87368=
0000015000
87382
0000012800
87386
0000045600
87406=
0000047800
87429=
0000005900
87506
0000058300
87508
0000054200
87566
0000056300
87622
0000052200
87672
0000054300
87803
0000062600
87992
0000070900
88180
0000070900
88458=
0000064900
90650
0000064900
91796
0000079400
93301
0000008200
380
UXIN90 VABP 110000
PPAA 61000 42675 NO ASCENT DUE TO NO GAS=


0000005200
381
RRIN23 VECC 110021
RQRPT 019-040=

0000068900
382
USAA01 NZCM 110000
TTAA 61001 89664
99997 00056 18501 00512 ///// ///// 92601 07158 18518
85255 11341 17017 70716 21114 15006 50514 33959 24513
40666 44759 24520 30855 51765 24023 25975 45585 24514
20124 43786 24513 15318 43586 26009 10592 41586 23504
88320 52361 23026
77999
31313 48008 82219=

0000069700
87361=
0000011200
87368=
0000015000
87382
0000012800
87386
0000045600
87406
0000047700
87410
0000049800
87416
0000051900
87420
0000047800
87441=
0000045900
87536=
0000052200
87739=
0000054400
88796
0000058600
89260
0000066900
89810
0000067000
90721
0000083500
91789
0000089700
93284
0000103800
383
SMRA20 RUNW 110000
AAXX 11001
28216 41697 82001 11051 21061 39789 40075 57003 72272 885//=
28428 42597 81801 11037 21044 39896 40084 58005 885//=
28451 41596 81501 11050 21053 39956 40118 54000 77172 8802/=
28537 41496 81801 11043 21048 39674 40097 54001 70282 8237/=
28615 42997 82201 11039 21044 39920 40078 52002 8802/=
28655 41996 71803 11081 21097 39914 40143 54000 77173 87010=
28756 41996 81905 11081 21098 30013 40165 57005 77073 8807/ 333
91111=
29557 12998 82306 11059 21110 30019 40292 52005 60002 8805/ 333 21070
47004 91111=
29625 11496 82305 11083 21101 30096 40281 52006 69972 78583 889// 333
21083 48023 88917 91111=
29813 12999 82104 11083 21102 30091 40277 52005 69962 85032 333 21086
47016=
29822 11997 82305 11076 21101 30141 40311 52004 69962 70272 8807/ 333
21076 47018 55000=
29915 11496 82104 11083 21098 30146 40311 52005 69972 78583 889// 333
21086 48012 88912=
36020 11496 82006 11084 21099 30107 40316 53005 60012 78583 889// 333
21084 48013 55000 88915=
0000040900
384
SMRA21 RUNW 110000
AAXX 11001
28383 41997 82004 11049 21073 30102 40188 52007 70272 8802/=
28586 42997 82204 11062 21077 30056 40208 52001 8805/=
28588 42597 81804 11061 21084 30044 40207 58003 8802/=
28688 42997 82103 11066 21094 30055 40219 54000 8807/=
28696 41996 82004 11072 21093 30100 40244 52006 70232 8801/=
28791 42998 82004 11070 21091 30084 40233 54000 8802/ 333 88515=
0000071000
385
USAA01 NZCM 110000
TTAA 61001 89664
99997 00056 18501 00512 ///// ///// 92601 07158 18518
85255 11341 17017 70716 21114 15006 50514 33959 24513
40666 44759 24520 30855 51765 24023 25975 45585 24514
20124 43786 24513 15318 43586 26009 10592 41586 23504
88320 52361 23026
77999
31313 48008 82219=

0000069700
87361=
0000011200
87368=
0000015000
87382
0000012800
87386
0000045600
87406=
0000047800
87429
0000015700
87445
0000049900
87465=
0000054200
87575
0000062500
87617
0000062500
87660
0000064600
87787=
0000062700
88828
0000058600
89308
0000060700
89848
0000081400
90745
0000083500
91822
0000077300
93318
00000000