0000071000
826
USAA01 NZCM 110000
TTAA 61001 89664
99997 00056 18501 00512 ///// ///// 92601 07158 18518
85255 11341 17017 70716 21114 15006 50514 33959 24513
40666 44759 24520 30855 51765 24023 25975 45585 24514
20124 43786 24513 15318 43586 26009 10592 41586 23504
88320 52361 23026
77999
31313 48008 82219=

0000069700
87361=
0000011200
87368=
0000015000
87382
0000012800
87386
0000045600
87406
0000047700
87410=
0000049900
87467
0000047900
87475
0000047900
87491=
0000056300
87705
0000058400
87804
0000056400
87994=
0000062700
89396
0000064900
90042
0000064900
91051
0000067000
92311
0000067000
94014
0000073200
96185
0000073100
827
USAA01 NZCM 110000
TTAA 61001 89664
99997 00056 18501 00512 ///// ///// 92601 07158 18518
85255 11341 17017 70716 21114 15006 50514 33959 24513
40666 44759 24520 30855 51765 24023 25975 45585 24514
20124 43786 24513 15318 43586 26009 10592 41586 23504
88320 52361 23026
77999
31313 48008 82219=

0000069700
87361=
0000011200
87368=
0000015000
87382
0000012800
87386
0000045600
87406=
0000047800
87429
0000015700
87445
0000049900
87465=
0000054200
87575
0000062500
87617
0000062500
87660
0000064600
87787
0000062600
87967
0000058500
88194=
0000071000
90096
0000058700
91104
0000064900
92397
0000062900
94043
0000067000
96192
0000047500
828
WAIR31 OIII 111118
OIIX AIRMET 11 VALID 111130/111430 OIII-
OIIX TEHRAN FIR ISOL CB TOP ABV FL150 OBS OVER SW,W,S,SE
     N,E AND CENTRAL AND TEHRAN AREA OF IRAN STNR INSF
SFC VIS 3000M TO 1000M DUE TO SN/RA BR/FG OBS LOC OVER SW,S,W,NW
    SSE,E,SE AND CENTRAL AND TEHRAN AREA OF IRAN
SFC VIS 5000M TO 2000M DUE TO HZ/BR AND BKN005 CLD OBS LOC OVER N
    OF IRAN
SFC VIS 1000M TO 0200M DUE TO FG SN OBS OVER OISY,OIID,OICC,OIII
    OIHM,OICC=
0000013300
829
FTIQ01 ORBI 111119
TAF ORMM 111000Z 1112/1212 27016KT 8000 SCT040 SCT080 TEMPO
1201/1206
30006KT 4000 BR SCT040 =
0000036300
830
SXXX32 EUMS 111112
22E595B6
:PRS 1 /1 M 3879 3861 3885 3885 3871 3895 3895 3935 3931 3907 3919 3913 3890 3950 3931 3936 3920 3935 3926 3946 3944 3909 3947 3902 3961 3916 3929 3929 3911 :RAD 1 /3 7073 7089 7106 7104 7114 7113 7110 7102 7102 7103 :ENC 2 /5 5191 5225 5231 5241 5236 5229 :SW1 12 /60 0 :SW2 42 /60 60 :BAT 14 /15 12.7 :NAME 22E595B6
0000044500
831
SXXX32 EUMS 111113
32BD7124
:PRS 1 /1 2152 2154 2154 2155 2157 2155 2153 2153 2151 2149 2151 2153 2157 2161 2163 2165 2166 2167 2169 2172 2176 2176 2176 2175 2172 2177 2179 2178 2180 2174 :RAD 3 /3 7940 7942 7939 7945 7951 7955 7964 7961 7962 7956 7955 7966 7971 7986 7989 7990 7994 8003 8002 8009 :ENC 3 /5 4939 4937 4946 4959 4961 4956 4957 4971 4984 4988 4996 5004 :SW1 14 /60 0 :SW2 44 /60 0 :BAT 14 /15 12.7 :NAME 32BD7124
0000070100
832
SXXX32 EUMS 111113 RRA
223412A2
OT12 ID:IND-SADENG DT:2014 01 11 11 12
:PRS /1 02061 02025 02095 02146 02151 02060 02076 02000 02009 02171 02033 02042 02009 01959 02064 02050 02064 02051 02054 02059 02005 02014 02035 02121 02136 02012 01937 01977 02026 02016
:ENC /1 -12726 -12773 -12719 -12656 -12639 -12729 -12736 -12796 -12793 -12619 -12716 -12739 -12769 -12826 -12753 -12736 -12719 -12719 -12749 -12766 -12759 -12776 -12749 -12679 -12679 -12779 -12819 -12793 -12756 -12793
:RAD /1 11789 11734 11747 11860 11883 11833 11759 11727 11725 11821 11895 11806 11763 11693 11731 11847 11842 11797 11774 11736 11756 11810 11742 11815 11829 11782 11770 11708 11742 11723
:BAT 12.1V
0000040700
833
SXXX32 EUMS 111115
262D700E
:PRS 1 /1 2286 2320 2377 2344 2333 2345 2303 2325 2291 2254 2222 2271 2272 2249 2257 2272 2263 2257 2255 2231 2208 2195 2214 2209 2235 2228 2225 2222 2195 2199 :RAD 1 /3 4753 4736 4711 4699 4684 4667 4657 4647 4630 4610 4596 4578 4562 4557 4546 :ENC 5 /5 4853 4818 4795 4767 4763 4723 4700 4681 4664 4616 4644 4591 :SW1 15 /60 60 :BAT 14 /15 13.5 :NAME 262D700E
0000044900
834
SXXX32 EUMS 111115 RRA
16289262
:PRS 1 /1 2196 2191 2200 2204 2194 2184 2182 2192 2206 2198 2183 2192 2184 2186 2198 2198 2187 2181 2175 2193 2184 2190 2180 2167 2185 2179 2176 2171 2174 2174 :RAD 1 /3 7658 7654 7650 7646 7647 7643 7644 7640 7636 7633 7636 7638 7638 7633 7631 7632 7633 7632 7635 7639 :ENC 5 /5 5020 5016 5016 5009 4999 5003 5004 5001 5008 5003 4997 5001 :SW1 15 /60 0 :SW2 45 /60 0 :BAT 14 /15 12.9 :NAME 16289262
0000045500
835
SXXX32 EUMS 111115 RRB
324DF524
:PRS 1 /1 2253 2257 2262 2266 2270 2275 2280 2284 2289 2294 2299 2303 2308 2312 2318 2322 2327 2331 2336 2341 2346 2350 2356 2360 2365 2370 2375 2379 2385 2390 :RAD 1 /3 2272 2286 2298 2312 2327 2341 2353 2367 2383 2400 2416 2432 2452 2466 2482 2497 2513 2529 2545 2564 :ENC 5 /5 1232 1255 1279 1304 1329 1354 1379 1405 1431 1457 1483 1508 :SW1 15 /60 0 0 :SW2 45 /60 60 60 :BAT 14 /15 12.4 :NAME 324DF524
0000041700
836
SXXX32 EUMS 111116
26CB10AC
:PRS 1 /1 -1336 -1336 -1336 -1336 -1336 -1336 -1336 -1336 -1336 -1336 -1336 -1336 -1336 -1337 -1336 -1336 -1336 -1336 -1336 -1336 -1336 -1337 -1337 -1337 -1337 -1337 -1336 -1337 -1338 -1337 :RAD 3 /3 5839 5839 5838 5832 5826 5823 5821 5819 5816 5812 :RA2 3 /3 5814 5813 5815 5812 5804 5802 5800 5795 5794 5795 :SW1 17 /60 60 :SW2 47 /60 60 :BAT 14 /15 13.0 :NAME 26CB10AC
0000045000
837
SXXX32 EUMS 111116 RRA
1227146C
:PRS 1 /1 3701 3698 3696 3691 3685 3683 3683 3676 3671 3670 3667 3662 3659 3656 3655 3649 3645 3646 3644 3639 3634 3633 3630 3624 3621 3618 3612 3607 3604 3601 :RAD 3 /3 3685 3683 3648 3617 3626 3622 3621 3605 3602 3578 3579 3557 3526 3543 3531 3517 3507 3478 3460 3460 :ENC 1 /5 4448 4429 4412 4398 4380 4358 4344 4328 4306 4285 4267 4248 :SW1 17 /60 0 :SW2 47 /60 60 :BAT 14 /15 12.5 :NAME 1227146C
0000009900
838
SAME31 OLBA 111100 RRA
METAR OJAM 111100Z 33010KT 6000 BKN025TCU 12/04 Q1022 NOSIG=
0000035300
839
UDAF01 FAPR 111117
AMDAR 1111
DES AFZA41 2642S 02820E 111107 F120 PS054 263/019 TB0 S031 333 F/// VG017=
DES AFZA41 2633S 02817E 111110 F099 PS105 281/014 TB0 S031 333 F/// VG009=
DES AFZA41 2622S 02814E 111112 F081 PS150 352/009 TB0 S031 333 F/// VG010=
DES AFZA41 2614S 02814E 111115 F064 PS197 025/006 TB0 S031 333 F/// VG014=
0000066100
840
UDAF01 FAPR 111117
AMDAR 1111
DES AFZA41 2621S 02814E 111112 F077 PS164 330/009 TB0 S031 333 F/// VG014=
DES AFZA41 2617S 02813E 111114 F075 PS169 353/009 TB0 S031 333 F/// VG014=
DES AFZA41 2616S 02813E 111114 F071 PS181 126/009 TB0 S031 333 F/// VG014=
DES AFZA41 2615S 02814E 111115 F067 PS192 325/007 TB0 S031 333 F/// VG014=
DES AFZA41 2614S 02814E 111115 F064 PS197 025/006 TB0 S031 333 F/// VG014=
DES AFZA41 2613S 02814E 111116 F061 PS207 013/011 TB1 S031 333 F/// VG023=
DES AFZA41 2611S 02815E 111116 F058 PS219 009/011 TB1 S031 333 F/// VG023=
DES AFZA41 2610S 02815E 111117 F054 PS232 233/005 TB1 S031 333 F/// VG022=
0000015800
841
SNVD19 KWNB 111100 RRC
BBXX
46126 11111 99540 71666 46/// /2103 10040 49803 56011 91100 22200
00045 1//00 70002 333 91205 555 11034 22037=
0000046200
842
SNVD15 KWNB 111100 RRL
BBXX
44064 11111 99370 70760 46/// /1307 10099 40143 91110 333 91208
555 11077 22084=
44062 11111 99386 70764 46/// /0601 10030 40136 91110 333 91202
555 11016 22018=
44063 11111 99390 70764 46/// /0401 10023 40123 91110 333 91201
555 11009 22010=
44041 11111 99372 70768 46/// /1203 10142 91110 333 91204 555
11036 22039=
44042 11111 99380 70763 46/// /1706 10093 40128 91110 333 91206
555 11064 22069=
0000011000
843
UANT99 KDDL 111118
ARP AFR498 4702N00943W 1117 F340 MS60 279/48 KT
FGNII QXS BES 111118 J19A
0000034900
844
SAIQ01 ORBI 111100
METAR ORBI 111100Z VRB01KT 2600 OVC030 10/08 Q1017 NOSIG=
METAR ORMM 111100Z 29016KT 9999 SCT040 BKN100 14/11 Q1016 NOSIG=
METAR ORBM 111100Z VRB03KT 7000 SCT040 13/04 Q1019 NOSIG=
METAR ORNI 111100Z 25013KT 4000 BR OVC025 10/09 Q1016 NOSIG=
METAR ORER 111100Z 10006KT 9000 SCT030 SCT080 10/09 Q1016 NOSIG=
0000014600
845
FTUZ31 UTTW 111100 RRB
TAF UTNU 111107Z 1112/1212 09004G09MPS 6000 SCT030 SCT100 TEMPO
1112/1118 VRB02MPS 2000 BR BKN020 BKN100=
00000000