0000079300
286
USAA01 NZCM 110000
TTAA 61001 89664
99997 00056 18501 00512 ///// ///// 92601 07158 18518
85255 11341 17017 70716 21114 15006 50514 33959 24513
40666 44759 24520 30855 51765 24023 25975 45585 24514
20124 43786 24513 15318 43586 26009 10592 41586 23504
88320 52361 23026
77999
31313 48008 82219=

0000069700
87361=
0000011200
87368
0000009600
87371
0000035800
87378
0000037300
87381
0000039400
87385
0000039400
87407=
0000012000
87430=
0000054100
87500
0000056200
87510
0000050100
87551
0000056300
87601=
0000050200
87911
0000060600
88090
0000060600
88369
0000068900
88634
0000064800
89035
0000064800
89613
0000066900
90297
0000071100
91304
0000071100
92701
0000073200
94467
0000060700
287
USAA01 NZCM 110000
TTAA 61001 89664
99997 00056 18501 00512 ///// ///// 92601 07158 18518
85255 11341 17017 70716 21114 15006 50514 33959 24513
40666 44759 24520 30855 51765 24023 25975 45585 24514
20124 43786 24513 15318 43586 26009 10592 41586 23504
88320 52361 23026
77999
31313 48008 82219=

0000069700
87361=
0000011200
87368=
0000015000
87382
0000012800
87386
0000045600
87406=
0000047800
87429=
0000005900
87506
0000058300
87508
0000054200
87566=
0000056400
87888=
0000058600
88926=
0000079400
92648
0000067000
94453
0000070100
288
SXXX32 EUMS 111106 RRA
22E7E6D2
OT12 ID:ID-ROTE-11 DT:2014 01 11 11 04
:PRS /1 -10802 -10332 -10797 -10799 -10769 -90770 -10772 -10770 -10803 -10805 -10806 -10803 -10801 -10803 -10801 -10800 -10305 -10801 -10798 -10767 -10770 -10769 -10771 -1079)/-10800 -10800 -10804 -10800 -10803 -10802
:PR2 /1 04691 04702 04716 04661 04714 04684 04706 04697 04725 04719 04730 04725 04741 04693 04718 04723 04713 04727 04739 04699 04749 04720 04720 04712 04722 04700 04741 04747 04727 04721
:RAD /1 06218 06270 06266 06225 06278 06242 06246 06262 06286 06262 06282 06262 06278 06306 06286 06270 06262 06281 06278 06302 06289 06318 06302 06282 06262 06278 06249 06262 06302 06314
:BAT 12.4V
0000066700
289
SXXX32 EUMS 111107
32CC9580
OT12 ID:ID-ENGG-07 DT:2014 01 11 11 06
:PRS /1 01732 01773 01762 01789 01764 01736 01765 01738 01727 01741 01720 01799 01748 01762 01715 01723 01719 01724 01685 01754 01699 01734 01728 01739 01703 01693 01757 01717 01665 01700
:PR2 /1 05184 05190 05212 05206 05209 05196 05202 05192 05158 05176 05145 05199 05151 05173 05155 05204 05143 05140 05118 05159 05138 05142 05119 05151 05164 05145 05174 05112 05089 05117
:RAD /1 06063 06099 06079 06073 06102 06079 06104 06072 06079 06051 06051 06078 06050 06064 06047 06063 06044 06046 06009 06062 06028 06058 06029 06054 06061 06029 06034 06032 05989 06031
:BAT 12.5V
0000044400
290
SXXX32 EUMS 111109
224AD678
:PRS 2 /1 2480 2478 2473 2463 2463 2467 2470 2469 2464 2455 2453 2454 2452 2450 2448 2444 2440 2439 2436 2436 2437 2435 2432 2426 2424 2422 2421 2423 2422 2418 :RAD 4 /3 5284 5284 5276 5270 5265 5255 5252 5245 5241 5234 5221 5214 5204 5201 5195 5189 5186 5178 5173 5168 :ENC 4 /5 8796 8793 8782 8766 8760 8747 8731 8724 8713 8702 8695 8686 :SW1 9 /60 0 :SW2 39 /60 0 :BAT 14 /15 13.0 :NAME 224AD678
0000043300
291
UDEU02 EGRR 111114 RRB
AMDAR 1110
LVR EU0037   3948N 00750W 111032 F350 MS595 349/038 TB/ S031=
LVR EU0037   3858N 00820W 111039 F350 MS592 344/044 TB/ S031=
LVR EU0037   3808N 00850W 111046 F350 MS587 349/047 TB/ S031=
LVR EU0037   3717N 00919W 111053 F350 MS582 351/055 TB/ S031=
LVR EU0037   3625N 00949W 111100 F350 MS590 348/066 TB/ S031=
LVR EU0037   3537N 01024W 111107 F350 MS582 337/062 TB/ S031=
0000190500
292
UDEU02 EGRR 111114 RRC
AMDAR 1110
ASC EU0638   3651N 00222W 111054 F007 PS120 108/002 TB/ S031=
ASC EU0638   3651N 00223W 111054 F015 PS100 229/004 TB/ S031=
ASC EU0638   3651N 00225W 111054 F020 PS085 250/005 TB/ S031=
ASC EU0638   3651N 00227W 111054 F026 PS080 218/005 TB/ S031=
ASC EU0638   3650N 00228W 111054 F034 PS085 022/002 TB/ S031=
ASC EU0638   3650N 00230W 111054 F045 PS072 348/011 TB/ S031=
ASC EU0638   3650N 00232W 111054 F056 PS060 359/014 TB/ S031=
ASC EU0638   3650N 00234W 111054 F065 PS037 033/012 TB/ S031=
ASC EU0638   3650N 00235W 111054 F075 PS017 067/006 TB/ S031=
ASC EU0638   3649N 00237W 111054 F098 MS035 247/007 TB/ S031=
ASC EU0638   3652N 00238W 111055 F117 MS085 261/008 TB/ S031=
ASC EU0638   3655N 00238W 111055 F134 MS125 230/009 TB/ S031=
ASC EU0638   3658N 00238W 111055 F150 MS155 212/012 TB/ S031=
ASC EU0638   3701N 00237W 111056 F160 MS177 187/011 TB/ S031=
ASC EU0638   3705N 00237W 111056 F167 MS190 194/013 TB/ S031=
ASC EU0638   3709N 00237W 111056 F179 MS205 191/017 TB/ S031=
ASC EU0638   3713N 00238W 111057 F193 MS240 199/018 TB/ S031=
ASC EU0638   3717N 00241W 111057 F210 MS285 213/020 TB/ S031=
ASC EU0638   3720N 00244W 111057 F224 MS325 221/026 TB/ S031=
ASC EU0638   3723N 00248W 111058 F237 MS360 219/028 TB/ S031=
ASC EU0638   3727N 00251W 111058 F248 MS392 212/031 TB/ S031=
ASC EU0638   3730N 00255W 111058 F259 MS422 213/036 TB/ S031=
ASC EU0638   3734N 00259W 111059 F270 MS455 211/035 TB/ S031=
ASC EU0638   3738N 00303W 111059 F281 MS482 211/029 TB/ S031=
ASC EU0638   3741N 00306W 111059 F291 MS512 199/013 TB/ S031=
ASC EU0638   3745N 00310W 111100 F300 MS532 207/012 TB/ S031=
ASC EU0638   3750N 00311W 111100 F310 MS552 210/002 TB/ S031=
ASC EU0638   3755N 00313W 111100 F320 MS570 177/005 TB/ S031=
ASC EU0638   3759N 00314W 111101 F330 MS580 208/003 TB/ S031=
0000010400
293
SAAE31 VTBB 111100 RRA
METAR VDSR 111100Z 02004KT 340V040 9000 FEW020 29/18 Q1012 NOSIG=
0000011000
294
UANT99 KDDL 111111
ARP AAL63 4901N01600W 1111 F310 MS53 232/67 KT
N371AA DDL XXN 111111 F22A
0000011100
295
UANT99 KDDL 111111
ARP DAL177 5400N02955W 1110 F340 MS61 190/64 KT
N1604R QXT AOE 111111 F92A
0000011000
296
UANT99 KDDL 111111
ARP UAL37 5406N02231W 1111 F360 MS65 214/79 KT
N21108 DDL IG1 111111 F53A
0000011000
297
UANT99 KDDL 111111
ARP DLH543 4602N01527W 1111 F370 MS65 245/67 KT
DAIHL QXT AOE 111111 J20A
0000042900
298
UDAS02 EGRR 111114
AMDAR 1110
LVR EU0453   5015N 09839E 111035 F341 MS612 304/042 TB/ S031=
LVR EU0453   5038N 09730E 111042 F340 MS615 310/044 TB/ S031=
LVR EU0453   5100N 09620E 111049 F340 MS612 314/049 TB/ S031=
LVR EU0453   5120N 09509E 111056 F340 MS632 326/038 TB/ S031=
LVR EU0453   5142N 09357E 111103 F340 MS652 334/033 TB/ S031=
LVR EU0453   5206N 09245E 111110 F340 MS657 313/025 TB/ S031=
0000068900
299
UDEU02 EGRR 111114 RRD
AMDAR 1110
LVR EU9962   5222N 02432E 111005 F390 MS560 304/074 TB/ S031=
LVR EU9962   5126N 02452E 111012 F390 MS569 295/076 TB/ S031=
LVR EU9962   5030N 02510E 111019 F390 MS623 307/074 TB/ S031=
LVR EU9962   4935N 02528E 111026 F390 MS600 307/066 TB/ S031=
LVR EU9962   4839N 02546E 111033 F390 MS603 304/069 TB/ S031=
LVR EU9962   4745N 02609E 111040 F390 MS640 304/076 TB/ S031=
LVR EU9962   4653N 02646E 111047 F390 MS640 311/073 TB/ S031=
LVR EU9962   4600N 02722E 111054 F390 MS635 316/064 TB/ S031=
LVR EU9962   4508N 02756E 111101 F390 MS635 312/061 TB/ S031=
LVR EU9962   4416N 02829E 111108 F390 MS620 305/052 TB/ S031=
0000068900
300
UDEU02 EGRR 111114 RRE
AMDAR 1110
DES EU0735   5131N 00118E 111057 F183 MS262 283/084 TB/ S031=
DES EU0735   5128N 00108E 111059 F154 MS205 297/081 TB/ S031=
DES EU0735   5121N 00100E 111100 F126 MS135 301/075 TB/ S031=
DES EU0735   5116N 00053E 111102 F110 MS097 297/065 TB/ S031=
DES EU0735   5110N 00045E 111103 F110 MS092 301/063 TB/ S031=
DES EU0735   5104N 00038E 111105 F105 MS090 293/051 TB/ S031=
DES EU0735   5101N 00030E 111106 F090 MS060 291/047 TB/ S031=
DES EU0735   5100N 00021E 111108 F074 MS032 293/036 TB/ S031=
DES EU0735   5102N 00012E 111109 F060 MS040 282/024 TB/ S031=
DES EU0735   5107N 00012E 111111 F050 MS020 285/028 TB/ S031=
0000062500
301
UDEU02 EGRR 111114 RRF
AMDAR 1110
LVR EU9622   4516N 00528W 111011 F370 MS623 276/028 TB/ S031=
LVR EU9622   4429N 00555W 111018 F370 MS623 282/023 TB/ S031=
LVR EU9622   4341N 00619W 111025 F370 MS630 282/017 TB/ S031=
LVR EU9622   4253N 00642W 111032 F370 MS636 303/019 TB/ S031=
LVR EU9622   4204N 00705W 111039 F370 MS640 315/023 TB/ S031=
LVR EU9622   4115N 00731W 111046 F370 MS635 324/031 TB/ S031=
LVR EU9622   4025N 00756W 111053 F370 MS628 338/040 TB/ S031=
LVR EU9622   3934N 00821W 111100 F370 MS630 342/043 TB/ S031=
LVR EU9622   3843N 00846W 111107 F370 MS628 342/049 TB/ S031=
0000014200
302
SNNL51 EHDB 111100 CCA
AAXX 11111
06251 41/67 /3007 10072 20058 30104 40105 53015 7//88
333 91010 91112 91209
555 53017=
0000172200
303
SASA85 EGRR 111100 RRC
METAR SAME 111100Z 18005KT CAVOK 23/05 Q1019=
METAR SARF 111100Z 02004KT 9999 FEW022 27/23 Q1010=
METAR SBCY 111100Z 00000KT 9999 FEW020 BKN100 26/22 Q1013=
METAR SBFL 111100Z 33009KT CAVOK 24/21 Q1013=
METAR SBGO 111100Z 23002KT 9999 FEW045 22/17 Q1018=
METAR SBRB 111100Z 00000KT CAVOK ///// Q1012=
METAR SBTE 111100Z 00000KT 9999 SCT015 BKN070 26/23 Q1012=
METAR SEGU 111100Z 23004KT 9999 FEW016 BKN026 BKN100 25/20 Q1010 RMK
      A2983 NOSIG=
METAR SELT 111100Z 18004KT 4000 BCFG FEW005 BKN020 11/11 Q1028=
METAR SPCL 111100Z 04005KT 9999 SCT016 BKN070 24/23 Q1011 RMK BIRD
      HAZARD RWY 02/20 PP000=
METAR SPHI 111100Z 17007KT CAVOK 21/19 Q1011 RMK PP000=
METAR SPHO 111100Z 05003KT 0100 FG SCT010 OVC070 11/09 Q1025 RMK PP000=
METAR SPHY 111100Z 00000KT 8000 3000NW -DZ SCT012 BKN040 06/05 Q1035
      RMK BCFG QUAD NW PP010=
METAR SPJL 111100Z 29006KT CAVOK 04/02 Q1037 RMK PP000=
METAR SPJR 111100Z 00000KT 9999 FEW037 09/09 Q1026 RMK PP000=
METAR SPQT 111100Z 35003KT 8000 BKN008 OVC100 24/23 Q1010 NOSIG RMK
      BIRD HAZARD RWY 06/24 PP000=
METAR SPQU 111100Z VRB01KT CAVOK 10/08 Q1024 RMK PP000=
METAR SPRU 111100Z 13004KT 6000 OVC040 20/19 Q1011 RMK BR PP000=
METAR SPSO 111100Z /////KT 9999 SCT070 BKN230 21/19 Q1010 RMK PP000=
METAR SPST 111100Z 27004KT 9999 SCT015 BKN100 23/20 Q1011 RMK BIRD
      HAZARD RWY 17/35 PP000=
METAR SPTN 111100Z 02003KT CAVOK 19/16 Q1010 RMK PP000=
METAR SPTU 111100Z 00000KT 9999 BKN030 23/23 Q1010 RMK BIRD HAZARD
      RWY 01/19 RA AT NIGHT PP030=
METAR SPZO 111100Z VRB02KT 9999 FEW020 SCT036 BKN070 09/07 Q1031 TEMPO
      -RA FEW010 SCT030 BKN060 RMK BR QUAD NE PP000=
0000128300
304
FTSA85 EGRR 111101
TAF SPHI 111030Z 1112/1212 19007KT CAVOK TX30/1118Z TN20/1210Z
     TEMPO 1112/1115 BKN012 SCT100
     FM111900 19013KT CAVOK
     FM120100 17010KT CAVOK=
TAF SPIM 111030Z 1112/1212 16007KT 9999 BKN010 SCT170 TX25/1119Z
     TN21/1211Z
     TEMPO 1112/1113 5000 BR BKN006 BKN130
     FM111500 19008KT CAVOK
     FM111900 16012KT CAVOK=
TAF SPQT 111100Z 1112/1212 02005KT 9999 BKN015 BKN100 TX31/1119Z
     TN23/1211Z
     TEMPO 1112/1113 00000KT 8000 BKN012 OVC100
     TEMPO 1119/1122 33003KT VCSH BKN012 BKN100
     BECMG 1209/1211 00000KT 7000 PRFG BKN008 OVC080=
TAF SPQU 111030Z 1112/1212 34004KT 9999 SCT040 SCT100 TX19/1119Z
     TN11/1211Z
     TEMPO 1112/1113 8000 SCT010 SCT040
     FM111400 24007KT CAVOK
     FM111800 25011KT 9999 BKN030 SCT080
     FM120000 VRB02KT 8000 BKN012 SCT080=
TAF SPSO 111030Z 1112/1212 VRB02KT 8000 NSC TX28/1119Z TN20/1210Z
     TEMPO 1112/1114 5000 BR BKN012 SCT230
     FM111800 24010KT 9999 SCT008 BKN100
     FM120000 21006KT 9999 BKN030 SCT230
     FM120600 23005KT 8000 SCT012 SCT230=
TAF SPTN 111030Z 1112/1212 VRB02KT CAVOK TX28/1118Z TN18/1210Z
     TEMPO 1112/1114 BKN020 SCT080
     FM111700 20012KT CAVOK
     FM112300 24005KT 9999 BKN030=
0000122300
305
FTSA85 EGRR 111103 RRA
TAF SAVC 111100Z 1112/1212 VRB08KT CAVOK TX26/1118Z TN15/1112Z
     BECMG 1116/1118 05015KT
     BECMG 1201/1203 27020KT BKN080=
TAF SAWH 111100Z 1112/1212 VRB08KT 9999 BKN023 BKN035 TX17/1119Z
     TN08/1210Z
     TEMPO 1112/1115 8000 RA
     BECMG 1116/1118 29020KT=
TAF SPJL 111030Z 1112/1212 15005KT CAVOK TX19/1119Z TN05/1211Z
     BECMG 1116/1118 9999 SCT025 SCT100
     TEMPO 1120/1123 RA SCT017 BKN100
     FM120200 VRB03KT 9999 SCT020 SCT080=
TAF SPRU 111030Z 1112/1212 15006KT 8000 SCT006 BKN035 TX25/1119Z
     TN19/1209Z
     TEMPO 1112/1114 4000 BR SCT003 OVC006
     FM111600 16009KT 9999 FEW015 BKN030
     FM120400 14006KT 9000 FEW005 BKN140=
TAF SPYL 111030Z 1112/1212 15015KT CAVOK TX31/1119Z TN19/1211Z
     TEMPO 1112/1114 9999 SCT040 SCT120
     FM111800 23012KT CAVOK
     FM120200 16012KT CAVOK=
TAF SPZO 111050Z 1112/1212 11008KT 9999 FEW020 SCT040 BKN070
     TX20/1119Z TN09/1211Z
     TEMPO 1112/1114 -RA FEW010 SCT030 BKN050
     BECMG 1114/1116 31006KT 9999 FEW030 SCT050 BKN100
     TEMPO 1117/1119 36016G26KT
     PROB40 1119/1122 VCSH SCT040TCU BKN080
     BECMG 1122/1201 00000KT 9999 FEW050 SCT100=
00000000