0000073100
506
USAA01 NZCM 110000
TTAA 61001 89664
99997 00056 18501 00512 ///// ///// 92601 07158 18518
85255 11341 17017 70716 21114 15006 50514 33959 24513
40666 44759 24520 30855 51765 24023 25975 45585 24514
20124 43786 24513 15318 43586 26009 10592 41586 23504
88320 52361 23026
77999
31313 48008 82219=

0000069700
87361=
0000011200
87368
0000009600
87371
0000035800
87378
0000037300
87381=
0000039500
87413
0000041600
87422
0000043700
87443
0000045800
87466
0000054100
87469=
0000050100
87581=
0000046100
87909
0000058500
88097=
0000056600
89892
0000064900
90783
0000064900
91957
0000069000
93538
0000071100
95490
0000077400
97827
0000013800
507
ULNO11 ENMI 110000
TTCC 10235 01415 70815 59181 30024 50025 58581 30536 88999 77457
      30540 407// 31313 48108 82318=
0000003900
508
ULNO12 ENMI 110000
NIL=
0000032400
509
ULNO13 ENMI 110000
TTCC 11003 01152 70778 64976 32537 50980 68773 31549 30280 74170
      30557 20519 ///// 88999 66213 31074 413// 31313 48108 82310=
TTCC 60233 01241 70796 63578 31577 50003 62580 31083 30314 67977
      31116 20558 ///// 88778 63378 32071 77246 31147 432// 31313
      48108 82316=
0000027800
510
UEGL05 EKMI 110000
TTDD 6023/ 04339
11706 69169 22579 74967 33459 74766 44338 69769 55301
72969 66268 71370 77197 74770 88156 72771 99147 69572
21212 11596 22572 22475 21073 33449 23089 44419 22091
55376 24113 66314 25094 77281 23590
31313 48006 82303=
0000017000
511
ULGL05 EKMI 110000
TTCC 60233 04339
70766 69369 21066 50963 73966 21072 30264 72769 24590
20502 73970
88999
77376 24113 43021
31313 48006 82303=
0000013400
512
ULNO14 ENMI 110000
TTCC 11005 01400
70828 59180 30024 50040 59381 30527
88999
77462 30031 408//
31313 48008 82307=
0000027300
513
UENO14 ENMI 110000
TTDD 1100/ 01400
11835 54582 22691 59380 33653 56781 44/// /////
21212 11837 31513 22820 30511 33791 27515 44758 27021
55713 29024 66683 31523 77663 31020 88602 30523 99554
28525 11501 30527 22462 30031 33457 30031
31313 48008 82307=
0000023600
514
UENO11 ENMI 110000
TTDD 1023/ 01415 11807 59381 22744 56382 33640 61780 44439 59181
      21212 11833 31529 22780 32024 33748 29524 44701 30024 55623
      30530 66555 29535 77457 30540 88439 31538 31313 48108 82318=
0000003900
515
UENO12 ENMI 110000
NIL=
0000058400
516
UENO13 ENMI 110000
TTDD 1100/ 01152 11857 62777 22775 67374 33718 64576 44540 70772
      55503 68573 66369 74970 77298 74170 88255 69773 99213 71973
      21212 11888 32027 22829 33527 33661 32538 44620 32535 55508
      31550 66404 32542 77317 31560 88260 31065 99250 31061 11213
      31074 31313 48108 82310=
TTDD 6023/ 01241 11778 63378 22636 65377 33575 61780 44258 68976
      55240 67576 21212 11698 31577 22647 32064 33569 30578 44492
      31584 55447 30591 66353 31103 77324 31124 88283 31612 99246
      31147 11241 31145 31313 48108 82316=
0000066900
517
USAA01 NZCM 110000
TTAA 61001 89664
99997 00056 18501 00512 ///// ///// 92601 07158 18518
85255 11341 17017 70716 21114 15006 50514 33959 24513
40666 44759 24520 30855 51765 24023 25975 45585 24514
20124 43786 24513 15318 43586 26009 10592 41586 23504
88320 52361 23026
77999
31313 48008 82219=

0000069700
87361=
0000011200
87368=
0000015000
87382
0000012800
87386=
0000045700
87427
0000045800
87444
0000047900
87464=
0000052100
87578=
0000056400
87893
0000058500
88065
0000058500
88359
0000060600
88684=
0000064900
91990
0000060800
93558
0000069100
95511
0000071200
97836
0000074100
518
SAAE31 VTBB 110030
METAR VTBS 110030Z 06005KT 360V130 CAVOK 23/17 Q1016 NOSIG=
METAR VTBD 110030Z 04003KT 9000 NSC 23/18 Q1016 NOSIG=
METAR VTCC 110030Z 00000KT 2000 BR NSC 18/16 Q1019 A3011 NOSIG=
METAR VTBU 110030Z 04004KT 5000 BR NSC 23/17 Q1014 A2996=
METAR VTSS 110030Z 04005KT 9000 FEW018 BKN120 BKN300 26/20 Q1013
           A2994 NOSIG=
METAR VTSP 110030Z 06006KT 7000 FEW020 SCT120 BKN300 26/21 Q1013
A2992 NOSIG=
METAR VLVT 110030Z 36002KT 2000 BR SCT020 17/15 Q1017 NOSIG=
METAR VYMD 110030Z 00000KT 5000 BR NSC 11/11 Q1017=
METAR VYYY 110030Z 02002KT 6000 NSC 19/18 Q1015=
METAR VDPP 110030Z 05010KT 8000 FEW015 BKN040 25/17 Q1014=
METAR VDSR 110030Z 12003KT 8000 FEW020 23/18 Q1015 NOSIG=
0000013700
519
UAAK04 KAWN 110000 RRA
KTN UA /OV KTN/TM 0019/FLUNKN/TP C208/TA M04/IC LGT-MOD RIME/RM
 APP RY11 ICE DURGD DOOZI-COGOX=
0000079300
520
USAA01 NZCM 110000
TTAA 61001 89664
99997 00056 18501 00512 ///// ///// 92601 07158 18518
85255 11341 17017 70716 21114 15006 50514 33959 24513
40666 44759 24520 30855 51765 24023 25975 45585 24514
20124 43786 24513 15318 43586 26009 10592 41586 23504
88320 52361 23026
77999
31313 48008 82219=

0000069700
87361=
0000011200
87368
0000009600
87371
0000035800
87378
0000037300
87381
0000039400
87385
0000039400
87407
0000041500
87411
0000014600
87417=
0000041700
87480
0000060300
87494
0000052100
87511
0000058300
87573
0000050100
87608=
0000056400
87908
0000064700
88092
0000066800
88365
0000062700
88637
0000068900
89130=
0000062900
93546
0000081500
95497
0000083600
97832
0000064800
521
USAA01 NZCM 110000
TTAA 61001 89664
99997 00056 18501 00512 ///// ///// 92601 07158 18518
85255 11341 17017 70716 21114 15006 50514 33959 24513
40666 44759 24520 30855 51765 24023 25975 45585 24514
20124 43786 24513 15318 43586 26009 10592 41586 23504
88320 52361 23026
77999
31313 48008 82219=

0000069700
87361=
0000011200
87368
0000009600
87371
0000035800
87378
0000037300
87381
0000039400
87385
0000039400
87407
0000041500
87411
0000014600
87417=
0000041700
87480=
0000060400
87592
0000056300
87635=
0000048200
88216
0000070900
88469=
0000062800
90662=
0000069000
522
USAA01 NZCM 110000
TTAA 61001 89664
99997 00056 18501 00512 ///// ///// 92601 07158 18518
85255 11341 17017 70716 21114 15006 50514 33959 24513
40666 44759 24520 30855 51765 24023 25975 45585 24514
20124 43786 24513 15318 43586 26009 10592 41586 23504
88320 52361 23026
77999
31313 48008 82219=

0000069700
87361=
0000011200
87368=
0000015000
87382
0000012800
87386
0000045600
87406=
0000047800
87429
0000015700
87445
0000049900
87465=
0000054200
87575=
0000062600
87883
0000052300
88067
0000064700
88337
0000066800
88595
0000062700
89140=
0000073200
93568
0000073200
95517
0000065000
97840
0000058600
523
USAA01 NZCM 110000
TTAA 61001 89664
99997 00056 18501 00512 ///// ///// 92601 07158 18518
85255 11341 17017 70716 21114 15006 50514 33959 24513
40666 44759 24520 30855 51765 24023 25975 45585 24514
20124 43786 24513 15318 43586 26009 10592 41586 23504
88320 52361 23026
77999
31313 48008 82219=

0000069700
87361=
0000011200
87368=
0000015000
87382
0000012800
87386=
0000045700
87427
0000045800
87444
0000047900
87464
0000052000
87476=
0000050100
87588=
0000062600
88115
0000060600
88393=
0000069000
90640=
0000077200
524
USAA01 NZCM 110000
TTAA 61001 89664
99997 00056 18501 00512 ///// ///// 92601 07158 18518
85255 11341 17017 70716 21114 15006 50514 33959 24513
40666 44759 24520 30855 51765 24023 25975 45585 24514
20124 43786 24513 15318 43586 26009 10592 41586 23504
88320 52361 23026
77999
31313 48008 82219=

0000069700
87361=
0000011200
87368
0000009600
87371
0000035800
87378
0000037300
87381
0000039400
87385
0000039400
87407
0000041500
87411
0000014600
87417=
0000041700
87480
0000060300
87494
0000052100
87511
0000058300
87573=
0000050200
87874
0000060500
88033
0000064700
88305
0000062700
88579
0000068900
89105=
0000062900
93560
0000069100
95515
0000077400
97830
0000068900
525
USAA01 NZCM 110000
TTAA 61001 89664
99997 00056 18501 00512 ///// ///// 92601 07158 18518
85255 11341 17017 70716 21114 15006 50514 33959 24513
40666 44759 24520 30855 51765 24023 25975 45585 24514
20124 43786 24513 15318 43586 26009 10592 41586 23504
88320 52361 23026
77999
31313 48008 82219=

0000069700
87361=
0000011200
87368
0000009600
87371
0000035800
87378
0000037300
87381
0000039400
87385
0000039400
87407
0000041500
87411
0000014600
87417=
0000041700
87480
0000060300
87494
0000052100
87511=
0000010400
87753
0000064700
87951
0000052300
88135
0000058500
88408=
0000062800
90632=
00000000