0000075100
666
USAA01 NZCM 110000
TTAA 61001 89664
99997 00056 18501 00512 ///// ///// 92601 07158 18518
85255 11341 17017 70716 21114 15006 50514 33959 24513
40666 44759 24520 30855 51765 24023 25975 45585 24514
20124 43786 24513 15318 43586 26009 10592 41586 23504
88320 52361 23026
77999
31313 48008 82219=

0000069700
87361=
0000011200
87368
0000009600
87371
0000035800
87378
0000037300
87381
0000039400
87385
0000039400
87407=
0000012000
87430
0000054000
87439=
0000056200
87534
0000060400
87553
0000056300
87602
0000052200
87653
0000054300
87782
0000056400
87982
0000062600
88176
0000054400
88466=
0000062800
90951
0000069100
92248
0000071100
93940
0000075100
667
USAA01 NZCM 110000
TTAA 61001 89664
99997 00056 18501 00512 ///// ///// 92601 07158 18518
85255 11341 17017 70716 21114 15006 50514 33959 24513
40666 44759 24520 30855 51765 24023 25975 45585 24514
20124 43786 24513 15318 43586 26009 10592 41586 23504
88320 52361 23026
77999
31313 48008 82219=

0000069700
87361=
0000011200
87368=
0000015000
87382
0000012800
87386=
0000045700
87427
0000045800
87444
0000047900
87464
0000052000
87476
0000050000
87490
0000045900
87515
0000054200
87561
0000056300
87628
0000058400
87682
0000058400
87821=
0000052400
88921
0000058600
89387
0000060700
90041
0000062800
91029
0000064900
92307
0000071200
94008
0000075100
668
USAA01 NZCM 110000
TTAA 61001 89664
99997 00056 18501 00512 ///// ///// 92601 07158 18518
85255 11341 17017 70716 21114 15006 50514 33959 24513
40666 44759 24520 30855 51765 24023 25975 45585 24514
20124 43786 24513 15318 43586 26009 10592 41586 23504
88320 52361 23026
77999
31313 48008 82219=

0000069700
87361=
0000011200
87368
0000009600
87371
0000035800
87378
0000037300
87381=
0000039500
87413
0000041600
87422
0000043700
87443
0000045800
87466=
0000054200
87540
0000048000
87567
0000050100
87610
0000056300
87645
0000060500
87781
0000058500
87966
0000068800
88155
0000064800
88454=
0000060800
90973
0000064900
92270
0000067000
93975
0000071000
669
USAA01 NZCM 110000
TTAA 61001 89664
99997 00056 18501 00512 ///// ///// 92601 07158 18518
85255 11341 17017 70716 21114 15006 50514 33959 24513
40666 44759 24520 30855 51765 24023 25975 45585 24514
20124 43786 24513 15318 43586 26009 10592 41586 23504
88320 52361 23026
77999
31313 48008 82219=

0000069700
87361=
0000011200
87368=
0000015000
87382
0000012800
87386
0000045600
87406=
0000047800
87429
0000015700
87445=
0000050000
87538
0000054200
87552
0000066600
87599
0000058400
87652
0000058400
87779
0000056400
87980
0000062600
88161
0000064700
88444=
0000062800
90965
0000064900
92242
0000060800
93948
0000068900
670
USAA01 NZCM 110000
TTAA 61001 89664
99997 00056 18501 00512 ///// ///// 92601 07158 18518
85255 11341 17017 70716 21114 15006 50514 33959 24513
40666 44759 24520 30855 51765 24023 25975 45585 24514
20124 43786 24513 15318 43586 26009 10592 41586 23504
88320 52361 23026
77999
31313 48008 82219=

0000069700
87361=
0000011200
87368=
0000015000
87382
0000012800
87386
0000045600
87406
0000047700
87410=
0000049900
87467=
0000048000
87577
0000054200
87619
0000058400
87681
0000056400
87786
0000062600
87981
0000058500
88158
0000062700
88457=
0000064900
90964
0000067000
92260
0000069100
94004
0000068900
671
USAA01 NZCM 110000
TTAA 61001 89664
99997 00056 18501 00512 ///// ///// 92601 07158 18518
85255 11341 17017 70716 21114 15006 50514 33959 24513
40666 44759 24520 30855 51765 24023 25975 45585 24514
20124 43786 24513 15318 43586 26009 10592 41586 23504
88320 52361 23026
77999
31313 48008 82219=

0000069700
87361=
0000011200
87368
0000009600
87371
0000035800
87378
0000037300
87381=
0000039500
87413
0000041600
87422=
0000043800
87504
0000052100
87527
0000058300
87571
0000052200
87616
0000058400
87667=
0000060600
88239
0000056500
88511=
0000069000
90992
0000062800
92265
0000073200
93972
0000068900
672
USAA01 NZCM 110000
TTAA 61001 89664
99997 00056 18501 00512 ///// ///// 92601 07158 18518
85255 11341 17017 70716 21114 15006 50514 33959 24513
40666 44759 24520 30855 51765 24023 25975 45585 24514
20124 43786 24513 15318 43586 26009 10592 41586 23504
88320 52361 23026
77999
31313 48008 82219=

0000069700
87361=
0000011200
87368
0000009600
87371
0000035800
87378
0000037300
87381=
0000039500
87413
0000041600
87422
0000043700
87443
0000045800
87466
0000054100
87469=
0000050100
87581
0000046000
87641=
0000054400
88252
0000056500
88523=
0000064900
91018
0000058700
92315
0000067000
94013
0000062700
673
USAA01 NZCM 110000
TTAA 61001 89664
99997 00056 18501 00512 ///// ///// 92601 07158 18518
85255 11341 17017 70716 21114 15006 50514 33959 24513
40666 44759 24520 30855 51765 24023 25975 45585 24514
20124 43786 24513 15318 43586 26009 10592 41586 23504
88320 52361 23026
77999
31313 48008 82219=

0000069700
87361=
0000011200
87368=
0000015000
87382
0000012800
87386=
0000045700
87427=
0000045900
87505
0000050000
87526=
0000050200
87744
0000056400
87939
0000064700
88138
0000058500
88441=
0000062800
90962
0000077300
92240
0000067000
93949
0000071000
674
USAA01 NZCM 110000
TTAA 61001 89664
99997 00056 18501 00512 ///// ///// 92601 07158 18518
85255 11341 17017 70716 21114 15006 50514 33959 24513
40666 44759 24520 30855 51765 24023 25975 45585 24514
20124 43786 24513 15318 43586 26009 10592 41586 23504
88320 52361 23026
77999
31313 48008 82219=

0000069700
87361=
0000011200
87368=
0000015000
87382
0000012800
87386
0000045600
87406=
0000047800
87429
0000015700
87445
0000049900
87465=
0000054200
87575
0000062500
87617
0000062500
87660
0000064600
87787
0000062600
87967
0000058500
88194
0000060600
88482=
0000073100
90938
0000064900
92235
0000062900
93945
0000075100
675
USAA01 NZCM 110000
TTAA 61001 89664
99997 00056 18501 00512 ///// ///// 92601 07158 18518
85255 11341 17017 70716 21114 15006 50514 33959 24513
40666 44759 24520 30855 51765 24023 25975 45585 24514
20124 43786 24513 15318 43586 26009 10592 41586 23504
88320 52361 23026
77999
31313 48008 82219=

0000069700
87361=
0000011200
87368=
0000015000
87382=
0000030600
87414
0000014800
87423
0000049900
87438
0000052000
87459
0000058200
87471
0000050000
87489
0000052100
87522
0000058300
87546
0000054200
87595
0000058400
87662
0000064600
87772
0000066700
87960
0000056400
88139
0000058500
88433=
0000062800
90981
0000064900
92253
0000067000
93969
0000066800
676
USAA01 NZCM 110000
TTAA 61001 89664
99997 00056 18501 00512 ///// ///// 92601 07158 18518
85255 11341 17017 70716 21114 15006 50514 33959 24513
40666 44759 24520 30855 51765 24023 25975 45585 24514
20124 43786 24513 15318 43586 26009 10592 41586 23504
88320 52361 23026
77999
31313 48008 82219=

0000069700
87361=
0000011200
87368
0000009600
87371
0000035800
87378
0000037300
87381=
0000039500
87413=
0000052000
87479
0000056200
87492=
0000046000
87710
0000056400
87802
0000060500
87978
0000058500
88163
0000060600
88449=
0000058700
90968
0000071100
92269
0000073200
93982
0000066800
677
USAA01 NZCM 110000
TTAA 61001 89664
99997 00056 18501 00512 ///// ///// 92601 07158 18518
85255 11341 17017 70716 21114 15006 50514 33959 24513
40666 44759 24520 30855 51765 24023 25975 45585 24514
20124 43786 24513 15318 43586 26009 10592 41586 23504
88320 52361 23026
77999
31313 48008 82219=

0000069700
87361=
0000011200
87368
0000009600
87371
0000035800
87378
0000037300
87381
0000039400
87385=
0000043700
87428
0000047800
87442=
0000052100
87533=
0000058400
87735
0000056400
87937
0000064700
88142
0000060600
88434=
0000069000
90980
0000062900
92266
0000073200
93988
0000075100
678
USAA01 NZCM 110000
TTAA 61001 89664
99997 00056 18501 00512 ///// ///// 92601 07158 18518
85255 11341 17017 70716 21114 15006 50514 33959 24513
40666 44759 24520 30855 51765 24023 25975 45585 24514
20124 43786 24513 15318 43586 26009 10592 41586 23504
88320 52361 23026
77999
31313 48008 82219=

0000069700
87361=
0000011200
87368=
0000015000
87382
0000012800
87386
0000045600
87406
0000047700
87410
0000049800
87416
0000051900
87420=
0000047900
87502
0000013400
87528
0000052100
87563
0000054200
87615
0000064600
87668
0000064600
87793
0000058500
87991
0000064700
88185
0000064700
88479=
0000069000
90950
0000064900
92237
0000071100
93952
0000073100
679
USAA01 NZCM 110000
TTAA 61001 89664
99997 00056 18501 00512 ///// ///// 92601 07158 18518
85255 11341 17017 70716 21114 15006 50514 33959 24513
40666 44759 24520 30855 51765 24023 25975 45585 24514
20124 43786 24513 15318 43586 26009 10592 41586 23504
88320 52361 23026
77999
31313 48008 82219=

0000069700
87361=
0000011200
87368=
0000015000
87382
0000012800
87386
0000045600
87406=
0000047800
87429
0000015700
87445
0000049900
87465
0000054100
87473
0000050000
87488
0000052100
87521
0000054200
87549=
0000056400
87860
0000054400
88008
0000064700
88191
0000062700
88488=
0000062800
90984
0000064900
92249
0000069100
93955
0000073000
680
USAA01 NZCM 110000
TTAA 61001 89664
99997 00056 18501 00512 ///// ///// 92601 07158 18518
85255 11341 17017 70716 21114 15006 50514 33959 24513
40666 44759 24520 30855 51765 24023 25975 45585 24514
20124 43786 24513 15318 43586 26009 10592 41586 23504
88320 52361 23026
77999
31313 48008 82219=

0000069700
87361=
0000011200
87368
0000009600
87371
0000035800
87378
0000037300
87381=
0000039500
87413
0000041600
87422
0000043700
87443
0000045800
87466
0000054100
87469=
0000050100
87581
0000046000
87641
0000058400
87805
0000058500
87979
0000054400
88203
0000060600
88445=
0000056600
90961
0000069100
92282
0000067000
93971
0000011200
681
SMRA10 RUNW 110000 CCA
AAXX 11001
28255 41994 81801 11037 21045 39982 40112 57002 77072 8807/=
0000773700
682
SMVF01 EGRR 110000
BBXX
ZCDN2 11004 99501 70022 41/98 12227 40141 54000 70300 81125 22264
00100 20101=
A8CP5 11000 99485 70057 41398 52504 10110 20090 40150 50005 70222
85464 22213 04116 2//// 3//// 4//// 5//// 80100=
62301 11004 99524 70047 46/// /2912 10085 20056 40115 53011 22200
00096 10503 70013=
64045 11004 99591 70117 46/// /2819 10068 21007 40013 53013 22200
00096 10809 70047 333 90710 91128=
62105 11004 99550 70132 46/// /2418 10074 20010 40091 53011 22200
00108 10808 70039 333 90710 91125=
62001 11004 99452 70050 46/// /2907 10116 20078 40173 52007 22200
00128 10703 70014=
62107 11004 99501 70061 46/// /3316 10093 20035 40147 53012 22200
00105 10804 70018=
62304 11004 99512 10018 46/97 /1820 10069 20054 40155 58001 22200
00102 10601 70005 333 90710 91129=
62027 11004 99491 70022 46/// /2310 1//// 2//// 40155
55005 22200 0//// 11102 327// 70008=
62081 11004 99521 70105 46/// /2714 10080 20030 40133 52015 22200
10807 70036=
62103 11004 99499 70029 46/99 /2317 10107 20076 40149 55001 22200
00112 10602 70011=
62163 11004 99475 70084 46/// /0110 10099 20072 40157 51015 22200
00121 10704 70022=
62305 11004 99504 70000 46/// /2119 10090 20065 40155 58002 22200
00109 10502 70008 333 90710 91127=
63055 11004 99606 10016 47298 /1203 10055 20042 49972 58009 762// 22200 10805 70026=
62112 11004 99584 70002 47598 /2816 10066 20018 40027 52008 700// 22200=
PJAI 11004 99581 70014 47998 /2618 10067 21005 40034 53009 700// 22200=
62111 11004 99580 70003 46/// /2822 10065 20010 40050 52008 22200 10605 70025=
62142 11004 99530 10021 47997 /2219 10075 20066 40111 58004 700// 22200 10402 70011=
63056 11004 99597 10016 47598 /2521 10062 20023 49988 56005 700// 22200 10705 70026=
63109 11004 99596 10015 46/// /2725 10060 20020 49989 57003 22200=
63110 11004 99595 10015 47498 /2722 10066 20025 49998 56003 700// 22200 10605 70023=
MQSY9 11004 99593 10015 47598 /2725 10067 20023 50000 700// 22200=
63057 11004 99592 10015 47998 /2617 10065 20013 40000 57001 700// 22200 10605 70023=
62128 11004 99587 10014 47998 /2722 10064 20018 40016 51003 700// 22200 10605 70025=
62129 11004 99584 10003 46/// /2720 10062 20005 40027 53007 22200=
62113 11004 99584 10002 47999 /2821 10062 20000 40030 52007 700// 22200=
63108 11004 99608 10017 47/99 /1212 10045 20026 49971 58009 700// 22200 10705 70026=
63106 11004 99610 10017 46/// /0914 10031 57007 22200=
63105 11004 99610 10017 47397 /1015 10047 20008 49978 57009 762// 22200=
63113 11004 99610 10017 46/// /1013 10048 20015 49975 58009 22200 10805 70027=
63112 11004 99611 10010 47498 /1115 10033 20019 49968 58010 700// 22200 10706 70029=
63107 11004 99611 10017 46/// /1014 10035 49977 56008 22200=
63101 11004 99612 10009 46/// /0916 10039 20008 49977 57006 22200 10705 70027=
63103 11004 99612 10011 46/// ///// 10030 21001 49966 57007 22200 10806 70028=
63104 11004 99612 10016 47498 /1114 10032 21014 49980 56008 751// 22200 10706 70029=
63117 11004 99613 10011 47498 /1013 49981 56006 700// 22200=
63114 11004 99613 10017 47598 /0913 10030 21014 49981 56008 762// 22200=
63115 11004 99616 10013 47496 /0813 10037 21021 49983 56006 771// 22200 10806 70031=
MWYG6 11004 99603 70040 47598 /2722 49982 53005 700// 22200=
64041 11004 99607 70026 47998 /2620 49973 53003 700// 22200 10907 70033=
62153 11004 99573 10020 47898 /2912 40039 53003 700// 22200 10604 70022=
62122 11004 99573 10016 47998 /3019 10076 20035 40038 57003 700// 22200 10604 70020=
62140 11004 99573 10013 46/// ///20 10073 20015 40041 52003 22200=
62146 11004 99572 10021 47498 /2202 10075 20054 40043 55003 700// 22200 10604 70021=
62164 11004 99572 10008 47998 /3016 10076 20012 40045 52009 700// 22200 00084 10604 70021=
62133 11004 99571 10009 46/// /3117 40045 52008 22200 10604 70020=
62119 11004 99570 10019 47498 /3015 10081 20056 40046 55001 700// 22200 10604 70021=
62152 11004 99570 10018 47898 /3012 10078 20049 40048 55000 700// 22200 10505 70024=
62154 11004 99564 10022 46/// /2714 10076 20064 40044 57006 22200=
62120 11004 99564 10021 47298 /2916 10070 20060 40046 58002 700// 22200=
62132 11004 99564 10020 46/// /3014 10073 20054 40052 54000 22200=
62123 11004 99563 10022 47297 /2718 10075 20061 40046 57004 700// 22200 1//05 70025=
62165 11004 99540 10011 47597 /2223 10076 20062 40081 58008 700// 22200 10503 70015=
62127 11004 99540 10007 47598 ///// 10074 20051 40084 56009 700// 22200 10503 70013=
62131 11004 99539 10012 46/// /2122 10076 20060 40086 57007 22200=
62149 11004 99537 10011 47596 /2224 10073 20059 40094 57007 762// 22200 10402 70012=
62148 11004 99536 10015 46/// ///// 22200=
62150 11004 99536 10007 47598 /2122 10072 20071 40100 58008 762// 22200 10502 70010=
62121 11004 99535 10027 46/// ///// 10077 20055 40111 57004 22200=
62144 11004 99534 10017 47597 /2219 10075 20057 40108 57001 700// 22200 10402 70012=
62145 11004 99531 10028 47998 /2220 10084 20053 40113 57004 700// 22200 10504 70018=
62116 11004 99576 10011 47598 /3018 10070 20016 40036 52005 700// 22200 10504 70020=
62104 11004 99574 10013 47598 /2917 10080 20032 40039 52006 700// 22200=
62155 11004 99577 10007 47598 /2920 10070 20004 40042 51007 700// 22200 10604 70020=
62118 11004 99577 10009 47598 /2920 10069 20020 40034 52009 700// 22200 10604 70022=
62143 11004 99577 10018 47598 /3108 10073 20022 40044 53006 700// 22200 10504 70021=
62117 11004 99579 10000 47598 /2718 10064 20008 40029 53012 700// 22200 10503 70017=
62102 11004 99579 10018 47798 /2919 10082 20024 40028 53003 700// 22200 10605 70024=
62134 11004 99580 10014 46/// /3022 10069 20030 40031 53003 22200 10604 70022=
62114 11004 99583 10000 46/// /2823 10062 20017 40025 52006 22200=
ZQSD5 11004 99583 10008 47998 ///// 10067 20019 40021 53004 700// 22200 1//06 70032=
2AUO5 11003 99606 10016 41397 89903 10061 20047 49974 58008 76162
8//// 22200 2//// 333// 40903 80055=
AMOUK05 1100/ 99532 10007 46/// ///// 10072 2//// 40093=
AMOUK11 1100/ 99534 70049 46/// ///// 10076 20031=
AMOUK06 1100/ 99520 10018 46/// ///// 10094 2//// 40133=
AMOUK28 1100/ 99576 70072 46/// ///// 1//// 2//// 40044=
AMOUK32 1100/ 99559 70047 46/// ///// 10042 20011 40082=
AMOUK13 1100/ 99513 10014 46/// ///// 10082 20063 40147=
AMOUK04 1100/ 99536 70038 46/// ///// 10084 20047 40089=
AMOUK02 1100/ 99535 70051 46/// ///// 10076 20036 40114=
AMOUK11 1100/ 99534 70049 46/// ///// 10076 20028=
AMOUK14 1100/ 99535 70030 46/// ///// 10068 20056 40091=
AMOUK43 1100/ 99545 70045 46/// ///// 10071 20050 40107=
AMOUK29 1100/ 99517 70061 46/// ///// 1//// 2//// 40131=
AMOUK03 1100/ 99526 10026 46/// ///// 10090 20078 40108=
AMOUK45 11004 99509 70014 46/// /2007 10091 20074 40132 22200   401320103=
AMOUK44 1100/ 99543 70040 46/// ///// 1//// 2//// 40095=
AMOUK23 1100/ 99564 70023 46/// ///// 10054 20014 40063=
AMOUK34 1100/ 99500 70020 46/// ///// 10098 20084 40145=
AMOUK09 1100/ 99517 10018 46/// ///// 10084 20083 40146=
AMOUK42 1100/ 99506 70025 46/// ///// 10104 20080 40138=
AMOUK26 1100/ 99507 70060 46/// ///// 10090 20031 40137=
AMOUK33 1100/ 99555 10084 46/// ///// 10064 20051 40083=
62303 11004 99516 70051 46/// /3016 10093 20060 40125 22200 10604
70019=
64046 11004 99605 70042 46/// /2620 10073 20025 49975=
62050 11004 99500 70044 46/// /2416 10102 20087 40137 22200 10503
70015=
62095 11004 99529 70156 46/// /2617 10073 20026 40121 53011 22200
00097 10908 70039=
62170 11004 99514 10020 46/98 /2417 10084 20066 40153 57001 22200
00105 10501 70005 333 90710 91131=
63119 11003 99582 70002 41/97 /2928 10057 21004 40034 53/// 700//
8//// 22200 2//// 303// 40607 5////=
0000014200
683
SMVS40 VNNN 110000
AAXX 11001
48907 32698 60501 10235 20212 30138 40141 52010 82508 333 00024 20233 3/023 58006 82696 86299=
0000013000
684
SMVS02 VNNN 110000
AAXX 11001
48892 32598 70706 10270 20229 30138 40143 53020 81208 333 20235 58013 81895 87299=
0000053100
685
SMVB10 RJTD 110000
BBXX
JGQH    11004 99317 11370
41/97 73514 10106 20034 40280 53011 70281 8627/
22241 00193 1//// 20301 330// 40802 70024=
JPBN    11004 99245 11299
41/97 60519 10185 20103 40264 52018 70222 86230
22251 00223 10703 20503 302// 40804 70017=
JGQH    11004 99317 11370
41/97 73514 10106 20034 40280 53011 70281 8627/
22241 00193 1//// 20301 330// 40802 70024=
JPBN    11004 99245 11299
41/97 60519 10185 20103 40264 52018 70222 86230
22251 00223 10703 20503 302// 40804 70017=
00000000