0000071000
166
USAA01 NZCM 110000
TTAA 61001 89664
99997 00056 18501 00512 ///// ///// 92601 07158 18518
85255 11341 17017 70716 21114 15006 50514 33959 24513
40666 44759 24520 30855 51765 24023 25975 45585 24514
20124 43786 24513 15318 43586 26009 10592 41586 23504
88320 52361 23026
77999
31313 48008 82219=

0000069700
87361=
0000011200
87368=
0000015000
87382
0000012800
87386
0000045600
87406=
0000047800
87429
0000015700
87445=
0000050000
87538
0000054200
87552
0000066600
87599
0000058400
87652
0000058400
87779
0000056400
87980
0000062600
88161
0000064700
88444
0000062700
88735
0000069000
89220=
0000064900
93717
0000077700
167
SMIL61 BIRK 110000
AAXX 11004
04104 26/// /2218 10022 21002 49918 52013 333 10024 20022 60017=
04115 26/// /2603 10002 21009 49905 52006 333 10003 20002 60037=
04123 NIL=
04127 36/// /1108 10053 21028 49914 52002 333 10055 20052=
04130 26/// /2806 10002 21006 49931 52016 333 10002 20001 60017=
04137 26/// /1703 10021 21032 49962 57001 333 10021 20020 69907=
04145 26/// /1205 10035 21035 49920 52004 333 10045 20035 69907=
04146 26/// /3009 10021 21013 49930 52019 333 10021 20019 69907=
04156 26/// /0404 11019 21054 49918 52005 333 11011 21019 69907=
04165 36/// /1521 10017 21010 49979 57001 333 10017 20012=
04176 26/// /0819 11027 21027 49944 57004 333 11027 21029 69927=
04197 26/// /1215 10026 49982 57001 333 10026 20022 69917=
0000071000
168
SMPA01 KWBC 110000 RRA
AAXX 11004
91165 12966 00315 10256 20194 30105 40140 69981 92353 555 91100=
91182 12562 63109 10244 20194 30120 40124 58034 69951 92353 333
10278 20194 91017 555 91100=
91190 12666 23610 10267 20200 30110 40130 58030 69901 92354 333
10267 20211 555 91100=
91212 12566 40616 10283 20217 31401 40135 50012 69901 92354 333
10289 20256 555 91100=
91285 32566 40507 10261 20200 30110 40122 58030 92353 333 10267
20178 555 91100=
91425 12474 80404 10306 20289 30101 40102 5//// 60104 82208 333
20239 561/9 58007 70099 82818 86280 555 91100=
91434 11474 83604 10289 20259 30088 40089 5//// 60134 70282 882//
333 20211 56899 59003 70130 88818 555 91100=
0000017900
169
SNVD01 PANC 102200 RRG
BBXX
KGTZ 10223 99548 71338
41698 81910 10067 20015 40015 57040 70322 8682/
22274 00075 20502 326// 41307 5//// 6//// 80044 ICE /////=
0000011200
170
SNVD01 PANC 102300 RRG
BBXX
WUR8857 10234 99456 70862
43/// /1622 10008 40086
2228/ 00029=
0000024900
171
SNHK22 VHHH 110015
AAXX 11001
45032 36/// /1002 10114 20106 30237 40254 54000=
45035 36/// /0604 10131 20108 30213 40257 54000=
45039 36/// /3401 10136 20111 30242 40257 54000=
45044 36/// /0404 10152 20117 30156 40252 54000=
0000215400
172
SMCI04 BABJ 110000
AAXX 11001
56146 32880 43401 11093 21136 36707 52011 84/// 333 00351=
56444 32980 02702 11070 21141 36809 52004 333 00251=
56492 11750 80000 10065 20047 39883 40303 52013 69922 710//
88/// 333 00501 70004=
56571 32980 00000 10032 21038 38403 52022 333 00354 31007=
57799 31733 80402 10061 20047 30196 40288 52014 710// 88///
333 05101=
57866 11457 80204 10052 20049 30086 40301 52015 69991 760//
88/// 333 00251 70012=
57957 11458 80202 10063 20048 30070 40275 52017 69991 760//
88/// 333 00000 70009=
57993 31937 00401 10091 20069 30099 40269 52006 710// 333
05203=
58027 31910 70701 11021 21037 30284 40339 52004 710// 87///
333 00151 31021=
58141 31920 10401 11009 21025 30323 40341 52007 710// 81///
333 00101 31006=
58265 11455 80904 10049 21001 30330 40336 52007 69901 760//
88/// 333 05105 30020 79999=
58472 11980 80906 10072 20013 30220 40321 52005 69902 760//
88/// 333 05203 30019 79999=
58477 11458 80901 10067 20042 30272 40318 52009 69921 760//
88/// 333 05306 30016 70002=
58527 11334 80401 10051 20045 30217 40296 52014 60041 760//
88/// 333 05203 70042=
58633 11643 80403 10052 20035 30197 40301 52010 60011 710//
88/// 333 05304 30050 70012=
58666 32670 80405 10108 20071 30187 40295 52003 88/// 333
05406=
58725 32765 72901 10083 20047 30018 40287 52010 87/// 333
05203=
58921 31957 82901 10099 20066 30031 40284 52014 710// 88///
333 05102=
59082 31656 71602 10081 20056 30117 40268 52009 710// 87///
333 05100=
59211 11820 82001 10116 20110 30021 40234 52020 69981 760//
88/// 333 05101 70008=
59265 31756 81401 10127 20092 30110 40251 52015 705// 88///
333 05103=
59293 31757 70701 10103 20084 30180 40268 52013 705// 87///
333 05101=
59501 31658 70702 10137 20083 30235 40257 52011 705// 87///
333 05201=
59663 31656 70407 10144 20108 30130 40240 52014 705// 87///
333 05102=
59838 31957 10402 10185 20167 30196 40206 52012 710// 81///
333 00000=
59948 31373 70407 10179 20176 39721 40211 52018 780// 87///
333 00101=
59981 12477 70706 10231 20212 30183 40190 52018 69931 87///
333 00000 70026=
0000061100
173
SMGL61 EKMI 110000
AAXX 11004
04211 45/80 /1107 11063 21096 39778 49938 52020 =
04213 46/// /1614 11063 21220 39842 49952 52027 =
04224 45984 31409 11102 21179 39915 49949 52013
  333 83/73 91219 =
04234 45684 71110 11059 21168 39926 49936 52013
  333 87/39 91120 =
04241 47/// 90815 11087 21099 39902 49942 52003 772//
  333 89/11 =
04254 45782 71210 11073 21162 39829 49945 54000
  333 87/50 91128 =
04341 466// 70000 11084 21099 30094 40109 52004
  333 87/33 =
04361 47402 80842 11011 21027 39795 49847 57003 77277
  333 88/12 91199 00294 91299 00243 91099 00277 =
0000079800
174
SMBZ02 SBBR 110000
AAXX 11004
82392 32496 83604 10268 20204 39998 40100 8321/ 333 10340 29063 55083 59002=
82583 21596 83602 10269 20208 39759 40096 70266 8783/ 333 10327 29064 55051 59011 69931=
82594 32697 20910 10282 20207 30100 40108 82002 333 10322 29064 55099 59002=
82683 32994 00000 10265 20200 39659 40109 333 10309 29071 55043 59006=
82780 21494 62301 10262 20214 39874 40125 72162 86700 333 10350 29063 55063 58008 60011=
82789 21594 21408 10216 20163 38938 40220 70066 82100 333 10279 29075 55058 58004 60021=
82795 32594 70910 10225 20199 39532 40148 87700 333 10294 29074 55076 59010=
82879 32592 61801 10252 20196 39838 40103 86800 333 10320 29073 55025 58014=
82893 NIL=
82979 NIL=
82986 NIL=
83179 NIL=
83192 NIL=
83339 NIL=
83498 NIL=
0000066900
175
USAA01 NZCM 110000
TTAA 61001 89664
99997 00056 18501 00512 ///// ///// 92601 07158 18518
85255 11341 17017 70716 21114 15006 50514 33959 24513
40666 44759 24520 30855 51765 24023 25975 45585 24514
20124 43786 24513 15318 43586 26009 10592 41586 23504
88320 52361 23026
77999
31313 48008 82219=

0000069700
87361=
0000011200
87368=
0000015000
87382
0000012800
87386
0000045600
87406=
0000047800
87429
0000015700
87445=
0000050000
87538
0000054200
87552=
0000066700
87865
0000056400
88009
0000054400
88205
0000066800
88453
0000075100
88747
0000058600
89210=
0000067000
93702
0000039100
176
SMBZ03 SBBR 110000
AAXX 11004
83384 NIL=
83386 NIL=
83388 NIL=
83393 NIL=
83442 NIL=
83479 NIL=
83483 NIL=
83531 NIL=
83538 NIL=
83574 NIL=
83582 NIL=
83595 NIL=
83687 NIL=
83692 NIL=
83695 316// 21406 10262 20214 30013 40148 52018 71300 82300 333 10334 29067 55077=
83718 325// 30000 10246 20205 39579 40140 52020 83100 333 10312 29/// 55095=
0000066900
177
USAA01 NZCM 110000
TTAA 61001 89664
99997 00056 18501 00512 ///// ///// 92601 07158 18518
85255 11341 17017 70716 21114 15006 50514 33959 24513
40666 44759 24520 30855 51765 24023 25975 45585 24514
20124 43786 24513 15318 43586 26009 10592 41586 23504
88320 52361 23026
77999
31313 48008 82219=

0000069700
87361=
0000011200
87368=
0000015000
87382
0000012800
87386
0000045600
87406=
0000047800
87429
0000015700
87445
0000049900
87465=
0000054200
87575
0000062500
87617
0000062500
87660=
0000064700
88233
0000058600
88504
0000062700
88760=
0000071100
92029
0000069100
93682
0000081300
178
USAA01 NZCM 110000
TTAA 61001 89664
99997 00056 18501 00512 ///// ///// 92601 07158 18518
85255 11341 17017 70716 21114 15006 50514 33959 24513
40666 44759 24520 30855 51765 24023 25975 45585 24514
20124 43786 24513 15318 43586 26009 10592 41586 23504
88320 52361 23026
77999
31313 48008 82219=

0000069700
87361=
0000011200
87368
0000009600
87371
0000035800
87378
0000037300
87381
0000039400
87385
0000039400
87407=
0000012000
87430
0000054000
87439
0000049900
87460
0000047900
87470
0000052100
87487
0000054200
87520
0000052100
87554
0000050100
87606
0000058400
87669
0000060500
87776
0000066700
87962
0000062600
88147
0000070900
88431
0000068900
88725
0000060700
89193=
0000069100
93712
0000005100
179
SMBZ01 SBBR 110000
AAXX 11004
NIL
0000073100
180
USAA01 NZCM 110000
TTAA 61001 89664
99997 00056 18501 00512 ///// ///// 92601 07158 18518
85255 11341 17017 70716 21114 15006 50514 33959 24513
40666 44759 24520 30855 51765 24023 25975 45585 24514
20124 43786 24513 15318 43586 26009 10592 41586 23504
88320 52361 23026
77999
31313 48008 82219=

0000069700
87361=
0000011200
87368=
0000015000
87382
0000012800
87386
0000045600
87406=
0000047800
87429
0000015700
87445
0000049900
87465
0000054100
87473
0000050000
87488
0000052100
87521
0000054200
87549
0000056300
87594
0000062500
87639=
0000054400
88218
0000064800
88494
0000068900
88767
0000068900
89216=
0000071100
93674
0000022100
181
SMAZ41 LPMG 110000
AAXX 11001
08506 12/// /2307 10145 20119 39991 40062 57018 69911
333  91011 91114
555 60005=
08511 12/// /2705 10144 20131 39955 40061 57012 69931
333  91010 91110
555 60005=
0000068900
182
USAA01 NZCM 110000
TTAA 61001 89664
99997 00056 18501 00512 ///// ///// 92601 07158 18518
85255 11341 17017 70716 21114 15006 50514 33959 24513
40666 44759 24520 30855 51765 24023 25975 45585 24514
20124 43786 24513 15318 43586 26009 10592 41586 23504
88320 52361 23026
77999
31313 48008 82219=

0000069700
87361=
0000011200
87368=
0000015000
87382
0000012800
87386=
0000045700
87427
0000045800
87444
0000047900
87464
0000052000
87476
0000050000
87490
0000045900
87515
0000054200
87561=
0000056400
87894
0000256100
88072
0000054400
88341
0000056500
88674
0000066900
89149=
0000062900
93625
0000021300
183
SMVD15 KWNB 110000 RRI
BBXX
41056 11001 99183 70655 46/// /0508 10260 40174 92350 333 91210
555 11086 22093=
41056 11001 99183 70655 46/// /0508 10260 40172 92340 333 91210
555 11089 22097=
0000014600
184
SMVF01 KWBC 100600 RRQ
BBXX
9V8798 10063 99364 10188 41297 62415 10152 20149 40232 50008 703//
 8/7// 22264 00207 20602 80150=
0000459000
185
KSME02 SBBR 110000
CREX++
T000113 A000 D07086++
 82 392 SOBRAL               1 2014 01 11 00 00 -0370000 -04035000 ///// ///// 09998 10100 //// // -0002 ///// ///// ///// 2680 2040 063 ///// 0400 ///// ///// ///// 100 07 03 0045 32 21 60 0000 0000 // // ///// //// ////// / /// /// ////// /// /// /////// // /// // /// /// ////////// /// /// 508 -0006 10 10  -0024 0498 -0001 //// /////  -0001 00000 //// ///// ///// -0012 0000 3400 -0012 0000 //// ///// 03 02 -0010 360 0021 //  -0010 /// //// //// /// //// ///// -0024 // ////  -0001 //// //// ///// ///// ///// ///// -0024 //// //// ///// ///// ///// /////+
 82 583 CRATEUS              1 2014 01 11 00 00 -0516000 -04066000 ///// ///// 09759 10096 //// // -0011 ///// ///// ///// 2690 2080 064 ///// 0400 ///// ///// ///// 100 07 07 0080 38 23 60 0000 0000 // // ///// //// ////// / /// /// ////// /// /// /////// // /// // /// /// ////////// /// /// 002 -0006 06 06  -0024 0306 -0001 //// /////  //// ///// -0006 00003 ///// -0012 0000 3270 -0012 0000 //// ///// 03 02 -0010 360 0010 //  -0010 /// //// //// /// //// ///// -0024 // ////  -0001 //// //// ///// ///// ///// ///// -0024 //// //// ///// ///// ///// /////+
 82 594 MACAU                1 2014 01 11 00 00 -0511000 -03663000 ///// ///// 10100 10108 //// // -0002 ///// ///// ///// 2820 2070 064 ///// 1000 ///// ///// ///// 025 00 02 0125 30 20 12 0000 0000 // // ///// //// ////// / /// /// ////// /// /// /////// // /// // /// /// ////////// /// /// 508 -0006 10 10  -0024 0594 -0001 //// /////  -0001 00000 //// ///// ///// -0012 0000 3220 -0012 0000 //// ///// 03 02 -0010 090 0051 //  -0010 /// //// //// /// //// ///// -0024 // ////  -0001 //// //// ///// ///// ///// ///// -0024 //// //// ///// ///// ///// /////+
 82 683 TAUA                 1 2014 01 11 00 00 -0600000 -04041000 ///// ///// 09659 10109 //// // -0006 ///// ///// ///// 2650 2000 071 ///// 0100 ///// ///// ///// 000 62 // 0000 // // // 0000 0000 // // ///// //// ////// / /// /// ////// /// /// /////// // /// // /// /// ////////// /// /// 508 -0006 10 10  -0024 0258 -0001 //// /////  -0001 00000 //// ///// ///// -0012 0000 3090 -0012 0000 //// ///// 03 02 -0010 000 0000 //  -0010 /// //// //// /// //// ///// -0024 // ////  -0001 //// //// ///// ///// ///// ///// -0024 //// //// ///// ///// ///// /////+
 82 780 PICOS                1 2014 01 11 00 00 -0706000 -04148000 ///// ///// 09874 10125 //// // 0008 ///// ///// ///// 2620 2140 063 ///// 0100 ///// ///// ///// 075 07 06 0045 37 20 10 0000 0000 // // ///// //// ////// / /// /// ////// /// /// /////// // /// // /// /// ////////// /// /// 021 -0006 06 02  -0024 0378 -0001 //// /////  //// ///// -0006 00010 ///// -0012 0000 3500 -0012 0000 //// ///// 03 02 -0010 230 0005 //  -0010 /// //// //// /// //// ///// -0024 // ////  -0001 //// //// ///// ///// ///// ///// -0024 //// //// ///// ///// ///// /////+
 82 789 TRIUNFO              1 2014 01 11 00 00 -0785000 -03813000 ///// ///// 08938 10220 //// // 0004 ///// ///// ///// 2160 1630 075 ///// 0100 ///// ///// ///// 025 07 02 0080 31 20 10 0000 0000 // // ///// //// ////// / /// /// ////// /// /// /////// // /// // /// /// ////////// /// /// 000 -0006 06 06  -0024 0348 -0001 //// /////  //// ///// -0006 00020 ///// -0012 0000 2790 -0012 0000 //// ///// 03 02 -0010 140 0041 //  -0010 /// //// //// /// //// ///// -0024 // ////  -0001 //// //// ///// ///// ///// ///// -0024 //// //// ///// ///// ///// /////+
 82 795 CAMPINA GRANDE       1 2014 01 11 00 00 -0721000 -03588000 ///// ///// 09532 10148 //// // -0010 ///// ///// ///// 2250 1990 074 ///// 0100 ///// ///// ///// 088 07 07 0080 37 20 10 0000 0000 // // ///// //// ////// / /// /// ////// /// /// /////// // /// // /// /// ////////// /// /// 508 -0006 10 10  -0024 0456 -0001 //// /////  -0001 00000 //// ///// ///// -0012 0000 2940 -0012 0000 //// ///// 03 02 -0010 090 0051 //  -0010 /// //// //// /// //// ///// -0024 // ////  -0001 //// //// ///// ///// ///// ///// -0024 //// //// ///// ///// ///// /////+
 82 879 S.JOAO DO PIAUI      1 2014 01 11 00 00 -0835000 -04225000 ///// ///// 09838 10103 //// // 0014 ///// ///// ///// 2520 1960 073 ///// 0020 ///// ///// ///// 075 07 06 0080 38 20 10 0000 0000 // // ///// //// ////// / /// /// ////// /// /// /////// // /// // /// /// ////////// /// /// 508 -0006 10 10  -0024 0150 -0001 //// /////  -0001 00000 //// ///// ///// -0012 0000 3200 -0012 0000 //// ///// 03 02 -0010 180 0005 //  -0010 /// //// //// /// //// ///// -0024 // ////  -0001 //// //// ///// ///// ///// ///// -0024 //// //// ///// ///// ///// /////++
7777
00000000