0000015800
866
WSRS31 RUKZ 111100
UWKD SIGMET 3 VALID 111200/111500 UWKD-
          UWKD KAZAN FIR SEV ICE FZRA  FCST
          SFC/FL080 MOV NE 30KMH  NC=
0000017800
867
SAJD31 OJAI 111100
METAR OJAI 111100Z 29010KT 8000 SCT025 12/07 Q1023 NOSIG=
METAR OJAM 111100Z NIL=
METAR OJAQ 111100Z 34006KT 9999 SCT030 18/07 Q1023 NOSIG=
0000023100
868
SNVD20 KWNB 111100 RRH
BBXX
44039 11111 99411 70727 46/// /1504 10060 20060 91045 333 91205
555 11057 22067=
44060 11111 99413 70721 46/// /1605 10067 20064 40195 91045 22200
00041 333 91206 555 11062 22072=
0000037600
869
SATR31 UTAA 111100
METAR UTAA 111100Z 13002MPS 100V160 9999 FEW100 BKN230
13/M06 Q1017 12CLRD70 NOSIG=
METAR UTAK 111100Z 15007MPS 9999 FEW016 BKN100  08/01 Q1015 NOSIG=
METAR UTAV 111100Z 20005MPS CAVOK 12/M06 Q1021 NOSIG=
METAR UTAM 111100Z 15003MPS CAVOK 14/M07 Q1020 NOSIG  RMK  SC07=
METAR UTAT 111100Z 09003MPS CAVOK 08/00 Q1021 99CLRD70 NOSIG=
0000084100
870
SAUR31 UKMS 111100
METAR UKLR 111100Z 28010MPS 9999 SCT030 BKN100 05/00
         Q1014 NOSIG=
METAR UKLI 111100Z 27007MPS 240V300 CAVOK 07/M03
         Q1018  28090070 NOSIG=
METAR UKON 111100Z 29010MPS 260V340 CAVOK 09/M02
         Q1016 NOSIG=
METAR UKCM 111100Z 25009MPS 9999 BKN034 07/01 Q1012
         19290060 NOSIG=
METAR UKCW 111100Z 25010MPS 9999 SCT029CB BKN040
         05/01  Q1006 2719//65 BECMG 25012G20MPS=
METAR UKLU 111100Z 15004MPS 9999 OVC007 02/00 Q1021
         10190065 NOSIG=
METAR UKKK 111100Z 27008MPS 9999 BKN020 05/02 Q1009
         26290250  TEMPO 27012G18MPS=
METAR UKKM 111100Z 28006MPS 4300 -SHRA SCT018CB
         BKN030 05/02  Q1009 33210250 TEMPO 28012G17MPS=
METAR UKKE NIL=
METAR UKLN 111100Z 29003MPS 250V340 CAVOK 07/M04
         Q1018 3309//70 NOSIG=
0000179500
871
SAIR31 OIII 111100
 METAR OIAA 111100Z 30008KT 4000 BR FEW035CB FEW040 BKN100 13/11
 Q1017=
METAR OIAG 111100Z 10014KT 4000 SHRA SCT030CB BKN035 12/11 Q1018=
 METAR OIAH 111100Z 00000KT 4000 RA FEW030CB SCT035 OVC070 08/08
 Q1017=
METAR OIAI 111100Z 15004KT 9999 SCT030CB SCT035 OVC070 11/08 Q1015=
METAR OIAM 111100Z 11018KT 8000 SHRA SCT030CB SCT035 13/11 Q1016=
METAR OIAW 111100Z 14010KT 9999 FEW020CB SCT025 OVC080 14/10 Q1016=
 METAR OIBA 111100Z 00000KT 5000 -RA FEW025CB FEW030 OVC080 20/12
 Q1018=
 METAR OIBB 111100Z 15012KT 9999 FEW030CB SCT035 OVC080 14/10 Q1016
 A3002=
 METAR OIBK 111100Z 08012KT 6000 -RA FEW030CB SCT025 OVC080 15/13
 Q1019=
 METAR OIBL 111100Z 03006KT 3000 -RA FEW020CB SCT025 OVC080 14/12
 Q1019=
METAR OIBS 111100Z 06020KT 7000 -SHRA FEW030CB OVC080 19/16 Q1019=
 METAR OICC 111100Z 00000KT 0800 R11/0600D +SN SCT021CB SCT030
 OVC060 M00/M01 Q1018 A3008 TEMPO SN=
 METAR OICI 111100Z Z 00000KT 7000 FEW015 FEW025CB SCT035 OVC090
 05/05 Q1015 A3000=
 METAR OICJ 111050Z 00000KT 2000 -SN FEW030CB SCT035 OVC070 01/M01
 Q1017=
 METAR OICK 111050Z 12004KT 8000 -RA FEW010 FEW030CB BKN035 OVC080
 04/03 Q1017=
METAR OICS 111100Z 26002KT 7000 SCT035 BKN080 02/M04 Q1018=
METAR OIFK 111100Z 35004KT 4000 -SN BKN020 OVC070 01/00 Q1023=
 METAR OIFM 111100Z 34004KT 2200 HZ SCT040 OVC100 02/M03 Q1017
 A3004=
 METAR OIFS 111100Z 00000KT 3000 BR FEW025CB SCT030 OVC080 M02/M04
 Q1017=
METAR OIGG 111100Z 33004KT 3000 BR SCT025 BKN090 10/08
Q1013=
METAR OIGK 111050Z 32008KT 9999 FEW035 BKN150 M02/M07 Q1016=
METAR OIHH NIL=
METAR OIHM 111100Z 27010KT 0500 +SN SCT035 OVC080 M03/M03 Q1016=
 METAR OIIE 111100Z 22006KT 5000 BR SCT025 SCT035CB SCT045 OVC080
 01/M00 Q1020 A3013 NOSIG=
0000180300
872
SAIR31 OIII 111100 RRA
 METAR OIII 111100Z 24008KT 0800 -SN SCT025 OVC080 00/M01 Q1019
 A3010 TEMPO 0800 SN FEW035CB SCT030 BKN100 TEMPO 0800 SN FEW035CB
SCT030 BKN100=
 METAR OIIK 111100Z 11004KT 5000 HZ FEW035CB SCT040 OVC090 01/M03
 Q1019=
 METAR OIIP 111100Z 00000KT 1200 BR SCT020 SCT035 OVC080 M01/M01
 Q1018=
METAR OIIS 111100Z 30004KT 9999 SCT030 OVC090 04/00 Q1019 RESN=
 METAR OIKB 111100Z 34004KT 7000 -RA FEW025CB SCT030 OVC090 16/07
 Q1020 A3014 NOSIG=
METAR OIKK 111050Z 00000KT 9999 SCT035 OVC100 06/M03 Q1019 A3010=
 METAR OIKO 111100Z 00000KT 8000 FEW030 FEW025CB OVC080 17/02
 Q1020=
 METAR OIKQ 111100Z 34010KT 8000 -RA FEW025CB SCT030 BKN090 14/08
 Q1019=
METAR OIMB 111100Z 09012KT 9999 SCT030 BKN090 07/M13 Q1019=
METAR OIMC 111100Z 15012KT 9999 SCT040 BKN170 15/M05 Q1018=
METAR OIMD 111100Z 05006KT 9999 FEW035 SCT190 08/M05 Q1016=
METAR OIMM 111100Z 30006KT 9999 FEW040 SCT110 09/M12 Q1018 A3007=
METAR OINB 111100Z 05006KT 9999 FEW022 OVC100 10/08 Q1014=
METAR OING 111100Z 29006KT 6000 SCT030 BKN090 12/07 Q1016=
METAR OINK 111100Z 22004KT 7000 FEW030 BKN100 12/06 Q1013=
METAR OINN 111100Z 09006KT CAVOK 11/10 Q1014=
METAR OINR 111100Z 13008KT 7000 FEW045 OVC160 11/07 Q1013=
 METAR OISA 111050Z 21006KT 9999 FEW035CB SCT040 BKN100 05/M01
 Q1016=
 METAR OISF 111050Z 14006KT 8000 -SHRA FEW030CB SCT035 OVC090 08/03
 Q1019=
 METAR OISL 111100Z 00000KT 9999 FEW020 FEW035CB OVC090 08/05
 Q1020=
 METAR OISS 111100Z 00000KT 1500-RA BR FEW030CB SCT035 OVC070 03/02
 Q1019 A3011=
 METAR OISY 111100Z 00000KT 0500 +SNRA FEW030CB SCT035 OVC080 01/01
 Q1019 RERA=
METAR OITL 111050Z 22019KT 9999 SCT090 BKN190 00/M04 Q1014=
 METAR OITR 111100Z 09004KT 2000 HZ SCT035 BKN170 M05/M09 Q1019
 NOSIG=
0000051600
873
SAIR31 OIII 111100 RRB
 METAR OITT 111100Z VRB02KT 5000 HZ FEW035 BKN180 M03/M10 Q1020
 A3013=
METAR OITU 111050Z 00000KT 3000 BR SKC M10/M10 Q1020=
 METAR OIYY 111100Z 33006KT 5000 HZ FEW035 SCT100 08/M01 Q1018=
METAR OIZB 111100Z 09004KT CAVOK 10/M03 Q1022=
METAR OIZC NIL=
 METAR OIZH 111100Z 11012KT 9999 SCT035 FEW040CB BKN090 07/M06
 Q1019 A3011 TEMPO SHRA=
METAR OIZI 111100Z 07008KT 9999 FEW020 OVC090 15/M05 Q1019=
METAR OIZJ 111100Z 00000KT 9999 SCT030 BKN090 20/06 Q1019=
0000018600
874
FTUZ31 UTTW 111100 RRA
TAF UTST 111100Z 1112/1212 06004G09MPS 6000 SCT050CB BKN100 TEMPO
1115/1204 VRB02MPS 0400 FZFG VV001 TEMPO 1204/1212 03003G08MPS
BKN020 BKN100=
0000013000
875
FTUZ31 UTTW 110500 CCA
TAF UTFN 111100Z 1112/1212 34004MPS 1200 BR NSC TEMPO 1112/1124
VRB02MPS 0500 FZFG VV002=
0000011900
876
SAIR35 OIII 111100 RRA
METAR OIAD 111100Z  00000KT 5000 BR FEW035CB SCT040 OVC080 11/09
 Q1016 A3001=
0000101400
877
FPAE41 OMAE 111110
station,wdir,wspeed,temperature,dewpoint,pressure,time,date
"Al-Ain International Airport", 200,    5,  21,   9,1019.0,11:00,11.01.2014
"Bateen Airport", 210,    6,  23,  12,1018.0,11:00,11.01.2014
"Abu Dhabi International Airport", 190,    7,  23,  10,1018.0,11:00,11.01.2014
"Dubai International Airport", 180,    9,  23,   9,1018.0,11:00,11.01.2014
"Sharjah International Airport", 180,    6,  22,  10,1019.0,11:00,11.01.2014
"Ras al-Khaimah International Airport", 110,    8,  22,  11,1019.0,11:00,11.01.2014
"Fujairah Airport", 130,    8,  21,   9,1018.0,11:00,11.01.2014
"MUSCAT INTERNATIONAL AIRPORT",  50,   15,  22,   9,1019.0,11:00,11.01.2014
"DOHA INTERNATIONAL AIRPORT", 230,    6,  17,  14,1019.0,11:00,11.01.2014
"KUWAIT INTERNATIONAL AIRPORT", 330,   13,  15,   8,1017.0,11:00,11.01.2014
"BAHRAIN INTERNATIONAL AIRPORT", 190,    6,  17,  14,1018.0,11:00,11.01.2014
"JEDDAH INTERNATIONAL AIRPORT",   -,    -,   -,   -,     -,11:00,11.01.2014
0000062500
878
FPAE44 OMAE 111110
station,wdir,wspeed,temperature,dewpoint,pressure,time,date
"Al-Ain International Airport", 200,    5,  21,   9,1019.0,11:00,11.01.2014
"Bateen Airport", 210,    6,  23,  12,1018.0,11:00,11.01.2014
"Abu Dhabi International Airport", 190,    7,  23,  10,1018.0,11:00,11.01.2014
"Dubai International Airport", 180,    9,  23,   9,1018.0,11:00,11.01.2014
"Sharjah International Airport", 180,    6,  22,  10,1019.0,11:00,11.01.2014
"Ras al-Khaimah International Airport", 110,    8,  22,  11,1019.0,11:00,11.01.2014
"Fujairah Airport", 130,    8,  21,   9,1018.0,11:00,11.01.2014
0000011100
879
UANT99 KDDL 111110
ARP RCH317 5101N01552W 1110 F320 MS56 233/76 KT
88196A DDL XXN 111110 F50A
0000010700
880
UANT99 KDDL 111110
ARP UAL957 51N020W 1110 F360 MS60 215/80 KT
N667UA DDL XXW 111110 F23A
0000011000
881
UANT99 KDDL 111110
ARP BAW274 5505N03709W 1110 F370 MS56 252/21 KT
GCIVT QXT AOW 111110 F79A
0000217000
882
SZNZ01 NZKL 111112
CREX++
T000103 A001 D01021 D06025++
-3683144 17478654 AUCT  2014 01 11 11 04 //// 11 07 00 01
04195 3228 04200 3229 04203 3226 04208 3226 04216 3229 04222 3230+
-4402404 -17636748 CHIT  2014 01 11 11 04 //// 11 07 00 01
04948 1986 04967 2001 04985 2015 05020 2047 05010 2034 05035 2054+
-4089929 17623168 CPIT  2014 01 11 11 04 //// 11 07 00 01
03923 2324 03917 2313 03912 2302 03931 2316 03950 2330 03956 2330+
-3618905 17548887 GBIT  2014 01 11 11 04 //// 11 07 00 01
05201 -0010 05207 -0008 05209 -0009 05212 -0011 05224 -0003 05234 0003+
-3867541 17802288 GIST  2014 01 11 11 04 //// 11 07 00 01
03780 2743 03804 2762 03825 2778 03818 2766 03814 2757 03821 2758+
-4241288 17370277 KAIT  2014 01 11 11 04 //// 11 07 00 01
03520 2269 03524 2267 03521 2259 03523 2255 03524 2252 03517 2239+
-3755040 17815904 LOTT  2014 01 11 11 04 //// 11 07 00 01
03044 0216 03045 0212 03024 0188 03046 0205 03029 0183 03059 0208+
-3704657 17451175 MNKT  2014 01 11 11 04 //// 11 07 00 01
02063 -0155 02054 -0159 02048 -0159 02038 -0163 02040 -0156 02027 -0164+
-3947566 17692007 NAPT  2014 01 11 11 04 //// 11 07 00 01
02940 2066 02939 2060 02948 2063 02960 2069 02953 2057 02958 2056+
-3441483 17304870 NCPT  2014 01 11 11 04 //// 11 07 00 01
-04437 -8055 -04473 -8093 -04469 -8091 -04497 -8121 -04436 -8062 -04404 -8032+
-4581435 17062939 OTAT  2014 01 11 11 04 //// 11 07 00 01
05088 3426 05094 3426 05100 3428 05108 3432 05117 3436 05123 3437+
-2928002 -17789440 RBCT  2014 01 11 11 04 //// 11 07 00 01
05597 1999 05607 2006 05590 1987 05581 1975 05591 1982 05613 2002+
-2925114 -17790384 RFRT  2014 01 11 11 04 //// 11 07 00 01
02522 0193 02508 0175 02532 0197 02509 0170 02531 0189 02522 0177+
-4357010 17277383 SUMT  2014 01 11 11 04 //// 11 07 00 01
02307 1902 02317 1905 02325 1906 02325 1900 02337 1905 02351 1913+
-3764109 17618118 TAUT  2014 01 11 11 04 //// 11 07 00 01
04540 4046 04537 4040 04543 4042 04549 4045 04550 4042 04553 4041+
-4128448 17477985 WLGT  2014 01 11 11 04 //// 11 07 00 01
03300 2055 03299 2050 03309 2055 03320 2062 03321 2058 03324 2056++
7777
0000803200
883
SFUK45 EGRR 111050
J#R SFUK45_EGRR_111050.DAT }\ˎeq+n_UfЂ(BD+G6#ÅuNV3q뜪|DFfݯ>|_?|?|^̬o??^]_?u'~[_}'㷿?S}?7?=~y}>w~gf(/|cչW/<|lc?|>]p 9[?gMpkO#l)\m=;qZ՞eb%nk7hͭӉК=^Y^aeܥx@[S@l3=V+<_x?Rc[I`{ͭ<z&(7sأ#w-m؉/y>x
ϰٳ0 \V]vh01sm=}se+(}mK'oh0Z\I]ƒsp{Xǜuw;,=5on58c3Oħϩ-g?׺i+qCAwRQR3ų>'^ p0^0;hzSh[ [[`Ϫyue|1ΘPcX
}CFתkzYSL3c0hX6&ܔv؋IO={NXl>xzk*sir|-Mc7pഛNghx=J^c t$.=i;[ϽpsLF'ϐ0}K;^	ϲr~o+*{ tCC:.2;ۛW9|p(ftf8XrҞbFCJKG vzi'nd
cEH!LFD NO%ƣNn<# i}~hðl\tD'lckTSf*g9c@,0֔z`}_IPY!pW,\zJG>ó0$)KcACBlw7ڑw[Uٞ V Dj[NBJT@H=@TqgYE۳vkn	xЖJ>/Xw+[7|qZFf';y 33^xS[h q+)l) Czo:H#3R7;xxHȆeFBlкVW26<΄ X\	ϟ{LOGޣ+"͗Rq*`oFkC.1Q䲆 z;:mU-}@(CRݕ&,Sb͕<!^$4M[,+E+p2S'`KXfCeG
g1VAǽ&*(ɝR0b8GUy/lI4ҭ(r╦pnИ,93X8/ǁXg]`d@Ug\rpq#$G#ĺ\ZÝ@WA`-:ZL  S<HcD'*jQDwJi+2TU0 oKƏXq(@Jb/PauS!^ZLY!JJhE$hӧmp1
q|{!vMb04n&G	+F&ѝ&xgǀ((Ycňk+¶߲ٓ&x`QH.'Z8dz{m6+"=}
3xӋҼ*	
8xawg 0)h)vL O|']N	kso,DQ9wcz_7:cY6t6ZK`A+vJڗ-VrO?M@K8GBQY3#(<?Ѧ"yJ$9 iaZA{Xy3gvCncY}Zz̕TA'آXxeVS+	jpcE?ֱ߁[	 =}FGb跬IM<D֖TJ	PTU/tIك'r-prXB=v Mk"ء5{'ZƈΔ*geI r{̝	#rG%gM$n[jqREmJ(ǗZCg/3K()mI1$	JbSmI|Ul!\YLtwn8fG
ެP+qOjӐT8UeIړD!:RUR`1lJ3GFfs!K|. ݪV?<:yۤy/Cٕ*%@M(D-41jx	3ZzE_zRBe,yV!j9EP) Լ)>-;ScgW$Ix1 )"4!bc{֐%<B7gI>m\DB:Kߒah]#%Z_$l&#D%0W!Sq=.h#qc'{ k$H,lݩI=%Zf30b԰a&=48JzLBTvkZ=D%E 	쇈!Bבj.jh=g|8AԿ5edM	A B^W=Wp%6&Yl*mFKVA`,e+"њ;?%kz[#!Pl/-]h+idjpEuSi%<R46=]GlK#+$.oٷU  [(րVvFutx*V0*usrJ;^ęS:M[Oe=\CV	#7C9uȡ^^nȠ,RR!;,-|]OafKR.kHXfؖıg@2gc~ςCZs_8&J4v9zl(X+,Fs
zȽL)	f0/8/OO_4DF I1Xh!):
]ru)9K\NxFɾv(]qi;88jo	)}dd#p .Ғm͢{_5,'9A(!1nT %`8Br-_ђ6Z[:%-2սO΄nP, MX/'HNVG'+YwԍlkcG{V~\nCK"_Ѡ{:KvKAcyi8>QRC+U6[ȣd~ֱD{7VY7KEU)R`W?aDѰbvY6EOw`K=*!!m#H-D+Ba:8ʺcNxFv=y	ۊwb"l
z5=g3(`<dMPˀYOq *!{2{ZtP'hCN*5oĀxM=?^ꈠiA]CwVRߩ`]&G{i%=Q
XRK;Y,$`EgDCyce<&=?VnM?-u(r*g8bbnCqƇgɜw	*X164S\U=L&jo8Il9a2c4Ƣ=C1qBU^[ԅ{\rnEք2TǑH=25Q)Mƺ!(K=uoIO7cdp=N8nqnVę51tNrGѻǥ!\dL /$`Q+1#w2rlE`4I.$ΔJl3Y#MCUkE#O,ShEܕvQj<Kb`Y&+R,&'8``;OA^[l{8+ R3(<Uɜ(r;\)'@ԇuaTWgVaU>'boc'8`ĉ״3J*9P5Q
*x1Q-+FBׅ1w&p3	ILA|L fjShvܽǒ["WJǵ0/OsKjuw@${!0̀KkعΗ;N4"OjKz9g'=Yaώ`d.MUNF+񬧍kn4*q$]0/H4 Z.+#`ȩ2M *vv")OfΫ
>\f^xi/؎X=5G;P˝q$N
\~+shz\ڗ񼮔#f'p5rE	W+H>p'91gBqF弟rޏwԟ[y\Ҭ8?ŢB9نRyb諫G;|T]b;\+^SdN׬rZp dXtvS8FN T*sruh8QrS}8ʄPWFrf7݌FД7HW7ITz,9QF;F&Qw5rf8`4yKW5C!+A^~8?]Qn!	R@gU{vO*YN-݌/&{łg':3!F,lW綞6[޹pȅj)1|̙*uTq ouM,yh0Sqkz邬ܔxГA2cM@3ǟ抢9~	^9)S J/rߩ'3-T7p8	
1<a6 ~TJ,|aG:|@`	؀Z~j_7dz:+d6gr;ьmg.Q6}i"Tv5pBFı/Ac\RycUZy+iTgH
ʱ@dsԹϊ'68ɳ'Z;3	4:X"⬗"ShbØ{J;nOMC+r&D8.LWkzy$BqZ6U@3(dOE˺.EƘvqYmjݦ,R@U-w$sD^Q|*H)1ACQ6[3x xJ&>[$Y	xüG_m2J6$rf/"Q2yTQN5">J8bԤ sǌ>Lm$2,1`צVz7͕) miFH䖒a;R2v(̧vm!=-46U"ǬBQdTrO<:Y6=FQ58[fp3}e'B2oLEe%.iių^ӶǱb.פ~d>%BEZGq	ˮv`L[nQqBNjfĴS^MWTqir\mjּvMVG6$\s_˨UZMw[#q}y\Rt)Lybш;SESX6eϹ`XQڅy
ʸ4ɚ 3T؛_m	mo'gkS0sTn\V8шl<Fq*z1`?Ē7uٺ{`{yՔ{*qC1u3uxK^8K*",&#nuu̺sܺs5ViyhQcQMBFu{U_lʻSV 8򘨐UŰrìK~x{wkܺ,ɔE_aI]o̼ա{pj̺lN4B;t@7kZ1ߩ~ Q,UyOz9){S,xu^PnB66q\J>R&d/ҫ&
9J'4ȤFh 3]-n&ݒ?yWo-$v3128>$2%񙜖զ=fF%kqdlϩnnmū+=P-lynsWm(JZ|관7]t #;+=f⼀`@N(	: ~%=#}|G ku@R=
iM7En uu֬4a1۔' 
Pyّ]4l;Rul]uލ;{DKݰkbkZNoԾjY.n4@(am_P{@"tSO/pviְӐ񣎠(D\./{Q@|=huOw%`YAd/F3Ѭ%<L<;2 b^oVα+$ӠC*Tr&gY8xגq䔞8O=X;lF ?4tޠOMg0mHzzTP!am7H\RDA(2ءpzB9-]9>I91Sbqv;a1(@|:z]2Oa!] ]ދX]It7Ku:33~Ko7wwbPAƝq]ZVͼȺvH	/;Uϔu,QFvr?׸xr`c-FόImZir_qQqph>]̒!刼I牛sCk	})ӈO䞵~}Ԃ]kr$_Wrt͜3'KF'Ύ4<7Z;=}^cJ	3SeZJc&o-$+ŽFh;;pQA:XB`gQǅ3fg.(#zU|Mp}(~j uz9/6ebZ{Eg&7,v)F*ۗq5oiv;mFJ=kʁFŧ[RkUvoɈh2L[_VX
&`;'>x۸:3HH.	Qʏmh{0UQ	m!njרFu_c"Hw"	nwodruSĸkq7Vrrzz%ڸ608Fǲ&;E^Uk<y˜'ߎ& ;]cf3(vb5_)	6k .8.Äp{FfvV2w[d##?N`掓׷W ?y)˖ᶫS)e.HyKXM	&`	>-u:߲iM;ZH>ފ{5x`QrVs}ޔiԃkQXc_*FۧQR{ɼ["\Yob;t}ߢ9NRNT\b|Y~@7AݚkUpQҊ`2p22f_5b$xԌw6QYH6}b0ov'HoE\FE_45&27<Pj kl_!F쳗*Ͽ|,ӯ~Oݿ|W_//~?//O/ן?o[~gihV  
0000060800
884
SFUK43 EGRR 111105
&R SFUK43_EGRR_111105.CSV uݎ0~ H@KPYZ"W+
6$.'dE"OgΪ>ޚpٷ-OEʀ~0UڲH<-V3Č=M]H/}dbFf%k7˯l1/cGj
~[4u <HxPM
RJs'4**^I8 =&]+xN(l5չ Zq6QN-Zs)8zhuYPx=ieZ8=pW=1(>r٢3"	%=Gà|pr3QS2iGM$3i<r(9lvY˅T94ׂ|uwrfHa#zLE9 (g@BE
mLl3x׳1zGvue|<Ogʩx:v9+?$	c-x(>>Rb].<[es6cCVӏa+{=ο3+KK?ű_8PLyT  
0000011000
885
UANT01 CWAO 111110
ARP VJT748 5658N04504W 1110 F410 MS60 092/42 KT
9HVJC QXS UAK 111110 M67A
00000000