0000011000
126
UANT99 KDDL 111108
ARP UAL22 5307N02600W 1108 F350 MS63 195/63 KT
N17126 DDL IG1 111108 F46A
0000107300
127
SAYE20 OYSC 111100
METAR OYAA 111100Z 14013KT 9999 SCT020 27/19 Q1014 NOSIG=
METAR OYAM 111100Z NIL=
METAR OYAR 111100Z 32004KT 9999FEW030 23/06 Q////=
METAR OYAS 111100Z NIL=
METAR OYAT 111100Z 12022KT CAVOK 24/05 Q1018=
METAR OYDM 111100Z 06009KT CAVOK 21/M02 Q////=
METAR OYGD 111100Z 09016KT 9999 BKN025 25/18 Q1015=
METAR OYHD 111100Z 21022KT 9999 FEW030 28/20 Q1013=
METAR OYHJ 111100Z 26010KT 0500 FG OVC008 15/14 Q////=
METAR OYIB 111100Z 12004KT 9999 SCT025 24/07 Q1020=
METAR OYKD 111100Z NIL=
METAR OYMB 111100Z 18006KT CAVOK 28/09 Q1013=
METAR OYMK 111100Z 18016KT CAVOK 27/21 Q////=
METAR OYMT 111100Z VRB02KT 9999 FEW020 21/09 Q////=
METAR OYRN 111100Z 10014KT 9999 FEW018 BKN040 26/17 Q1014=
METAR OYSD 111100Z 21004KT CAVOK 21/M04 Q////=
METAR OYSH 111100Z NIL=
METAR OYSN 111100Z 21009KT 140V310 9999 FEW030 SCT180 23/M05 Q1024=
METAR OYSQ 111100Z 09018KT 9999 SCT018 SCT200 28/20 Q1013=
METAR OYSY 111100Z 03009KT 360V070 CAVOK 27/10 Q1015=
METAR OYTZ 111100Z 20004KT 9999 FEW025 SCT200 25/07 Q1019=
0000011800
128
SMCN04 KWBC 110600
AAXX 11064
71642 13/// ///// 11030 60031 333 11030 21100 70030 555 10030
20030=
0000076800
129
SNNL50 EHDB 111100
AAXX 11111
06206 47/// /3012 10075 20032 30061 40114 53030 7//00
333 91014 91115 91213=
06207 47459 43112 10066 20035 30053 40107 53025 75865 8////
333 82/13 83/19 91017 91117 91212=
06239 47576 83410 10072 20028 30028 40090 53023 70265 8////
333 81/24 86/57 88/61 91012 91113 91211=
06252 46/// /2912 10078 20040 30086 40132 51037 222// 00096 10604
333 91014 91114 91212=
06260 47235 82306 10055 20046 30136 40138 53001 75885 8////
333 87/06 88/08 91008 91110 91206
555 53014=
06270 47261 82805 10069 20060 30108 40108 53005 76285 8////
333 82/04 83/08 85/11 91008 91114 91210
555 53007=
06290 47358 82106 10046 20028 30091 40132 58005 72381 8////
333 81/08 83/09 85/35 91008 91109 91206
555 53031=
0000178200
130
SNNL51 EHDB 111100
AAXX 11111
06201 47569 13011 10073 20029 30067 40120 51031 70165 8////
333 81/22 91012 91114 91212=
06203 47466 8//08 10078 20042 30088 40139 53028 78186 8////
333 82/14 85/17 86/20 91012 91116 91211=
06204 47467 83010 10078 20037 30077 40128 53034 72365 8////
333 81/16 83/19 87/58 91012 91112 91210=
06205 45571 33110 10069 20021 30031 40090 51026 8////
333 83/23 83/27 91012 91112 91210=
06208 47358 83111 10069 20045 30043 40092 55002 78166 8////
333 81/07 83/16 85/25 91015 91116 91215=
06211 47577 12812 10072 20028 30067 40123 52030 70186 8////
333 81/24 91014 91115 91212=
06212 47356 83115 10059 20031 3//// 4//// 5//// 78165 8////
333 81/08 83/12 85/15 91020 91120 91215=
06235 47566 72904 10072 20053 30118 40118 53012 76185 8////
333 81/25 83/33 87/46 91006 91111 91208
555 53013=
06240 47231 82508 10071 20066 30139 40134 53005 75885 8////
333 83/05 86/06 86/08 91011 91112 91209
555 53009=
06251 41/67 /3007 10072 20058 30104 40105 53015 7//00
333 91010 91112 91209
555 53017=
06258 46/// /2313
333 91015 91117 91214=
06269 47342 82308 10057 20049 30131 40125 55001 78185 8////
333 83/07 87/08 88/09 91011 91112 91209
555 53013=
06280 47240 82209 10054 20047 30101 40105 57008 78065 8////
333 87/06 88/07 91012 91112 91209
555 53009=
06310 47557 82409 10072 20062 30150 40160 53015 72281 8////
333 81/22 84/41 86/46 91010 91113 91211
555 53021=
06344 47350 82407 10071 20061 30149 40142 53005 72385 8////
333 81/08 86/14 87/17 91010 91114 91209
555 53017=
06370 47460 82206 10059 20041 30127 40153 51002 75110 8////
333 81/10 83/27 86/31 91009 91109 91206
555 53039=
06380 45973 02208 10079 20051 30023 40164 50005
333 91011 91111 91208
555 53072=
0000090000
131
SNNL52 EHDB 111100
AAXX 11111
06210 47360 82807 10079 20063 30138 40138 53006 75885 8////
333 81/09 83/24 85/36 91010 91114 91210
555 53011=
06225 46/// /2710
333 91012 91113 91211=
06242 47467 73010 10072 20056 30111 40113 53018 72386 8////
333 82/12 83/16 86/32 91012 91112 91210=
06257 46/// ///// 10077 20060
555 53013=
06275 47228 82106 10044 20037 30080 40136 58005 75381 8////
333 83/05 86/07 88/09 91009 91109 91206
555 53016=
06330 46/// /2812 10079 20067 30131 40145 53010
333 91016 91116 91212
555 53015=
06340 47328 82305 10057 20050 30141 40160 53008 78151 8////
333 82/07 85/08 88/10 91008 91108 91205=
06350 47250 82305 10055 20041 30136 40151 52002 75281 8////
333 81/06 83/09 85/10 91009 91109 91205
555 53021=
06375 47559 72307 10055 20036 30122 40147 58001 71010 8////
333 82/25 84/29 86/34 91009 91110 91207
555 53038=
0000119700
132
SNNL53 EHDB 111100
AAXX 11111
06248 46/// /2307
333 91010 91114 91211=
06249 47/56 /2706 10074 20067 76285
333 91009 91114 91209
555 53008=
06267 47350 82708 10070 20061 76185 8////
333 81/07 84/10 86/13 91012 91115 91210
555 53010=
06273 47/33 /2207 10053 20047 75181
333 91010 91113 91209
555 53010=
06277 46/// /3016 10069 20059
333 91018 91118 91216
555 53007=
06278 46/// /2206 10048 20037
333 91008 91109 91206
555 53015=
06279 47227 82107 10046 20039 30094 40114 58009 75885 8////
333 81/05 86/06 87/08 91009 91110 91207
555 53014=
06283 46/// /2104 10046 20034
333 91008 91108 91205
555 53030=
06286 46/// /2109 10051 20041
333 91012 91113 91209
555 53017=
06319 41/50 /2407 10065 20053 30162 40164 53010 7//00
333 91010 91110 91207
555 53015=
06348 47/40 /2308 10059 20051 30141 40140 53002 78185
333 91011 91112 91209
555 53018=
06356 463// 82208 10054 20046 30143 40144 53002 8////
333 82/08 85/10 87/13 91011 91111 91208
555 53022=
06377 47359 82406 10062 20048 71031 8////
333 85/07 87/09 88/56 91009 91110 91207
555 53069=
06391 46/// /2204 10054 20040
333 91008 91108 91206
555 53045=
0000040600
133
SNNL54 EHDB 111100
AAXX 11111
06209 NIL=
06285 NIL=
06308 NIL=
06311 NIL=
06312 NIL=
06313 NIL=
06315 NIL=
06316 NIL=
06320 46/80 /3012 10084 20054 30121 40148 53018 222// 00082 10503
333 91015 91116 91214=
06321 46/62 /3012 10084 20051 30127 40151 53022 222// 00086 10503
333 91014 91116 91213=
06324 NIL=
06331 NIL=
06343 46/// /2307
333 91009 91113 91209=
0000010600
134
SAIR31 OIII 111100 RRA
METAR OIAW 111100Z 14010KT 9999 FEW020CB SCT025 OVC080 14/10 Q1016=
0000132200
135
SNVD01 PANC 111100 RRA
BBXX
WECB 11114 99327 71172
43/// /2202 10130 20087 40206 5//// 7//// 8////
222// 04147 2//// 3//// 4//// 5//// 6//// 8//// ICE /////=
3ETA8 11114 99237 70877
41/// /1811 10240 2021/ 40130 54/// 7//// 8////
22275 04240 20302 3//// 404// 5//// 6//// 80220 ICE /////=
WSQ2674 11114 99327 71172
43/// /2603 10113 2//// 40198 5//// 7//// 8////
222// 04151 2//// 3//// 4//// 5//// 6//// 8//// ICE /////=
KAOU 11114 99053 31062
43/// /3415 10270 20243 40098 5//// 7//// 8////
222// 04304 2//// 3//// 4//// 5//// 6//// 8//// ICE /////=
KAQP 11114 99098 71043
43/// /0812 10266 20222 40095 5//// 7//// 8////
222// 04270 2//// 3//// 4//// 5//// 6//// 8//// ICE /////=
PHSG 11114 99066 71331
41/98 80924 10250 20235 40090 54000 70392 88///
22214 00250 20203 323// 40306 80240=
WYP8657 11114 99458 70846
43/// /1608 10018 49944
2227/ 00001=
WYQ4356 11114 99461 70840
43/// /1604 10023 49944
2227/ 00001=
WUR8857 11114 99434 70877
43/// /2612 10022 49961
2221/ 00004=
C6ZI9 11113 99197 70861
41/// 31216 10260 2//// 40110 51/// 7//00 834//
22234 00260 2//// 3//// 4//// 5//// 6//// 8//// ICE /////=
C6UA2 11113 99323 31532
41/// /0515 10270 20213 40170 54000 7//// 8////
22254 04280 2//// 3//// 4//// 5//// 6//// 80230 ICE /////=
0000023300
136
SNVD17 KWNB 111100 RRG
BBXX
51205 11111 99210 71564 46/// ///// 1//// 91051 22200 00249 11104
21004 302// 41103 70022=
46239 11111 99363 71221 46/// ///// 1//// 91059 22200 00133 11406
21003 330// 41405 70032=
0000023800
137
SNVE15 KWNB 111100 RRD
BBXX
51003 11111 99193 71606 46/// /0806 10245 40129 57007 91050 22200
00255 11105 20401 3//// 41104 70023 333 91207 555 11058 22060
31000 40707 61049 082055 081053 072054 074050 074052 072053=
0000015800
138
SNVD20 KWNB 111100 RRG
BBXX
44058 11111 99376 70763 46/// /1806 10082 40138 57038 91100 22200
00045 10301 70004 333 91207 555 11067 22073=
0000023800
139
SNVD22 KWNB 111100 RRL
BBXX
46053 11111 99343 71199 46/// /0904 10140 40198 54000 91050 22200
00148 11303 20401 329// 41303 70016 333 91205 555 11041 22042
31046 40805 61049 087039 087035 077024 059014 082016 077019=
0000034500
140
SIVD30 KWBC 110900 RRU
BBXX
42375 11091 99285 70883 46/// /1610 1//// 90900 22200 10401 70007
 555 11084 22092=
42887 11091 99282 70885 46/// /1912 10229 20207 90900 22200 10502
 70009 555 11099 22108=
42392 11091 99272 70900 46/// ///// 1//// 90900 22200 10401 70007=
42369 11091 99272 70903 46/// /1607 1//// 90900=
0000015600
141
SIVJ30 KWBC 110900 RRB
BBXX
VHMW 11094 99645 31309 41/// 90706 10002 21004 49933 52011 74174
 8//// 22252 05008 20000 333// 40404 80000=
0000013900
142
SNVD01 KWBC 111000 RRO
BBXX
46242 11101 99332 71174 46/// ///// 1//// 91027 22200 00152 11301
 21001 324// 41301 70005=
0000021500
143
SNVA01 KWBC 111100
BBXX
A8JX9 11114 99124 10436 41697 41317 10256 20196 40130 50020 70200
 81407 22235 20504 80215=
BATFR55 11114 99079 30418 46/// /3410 10279 20220 40120 58024
 22272 04297=
0000041000
144
SNVB01 KWBC 111100 RRA
BBXX
52202 11111 99137 11448 46/// ///// 1//// 91100 22200 00282 10704
 20704 306// 41101 70022=
3FZK3 11114 99362 11409 46/// /0807 10068 21033 40248 53009 7////
 8//// 22242 0//// 2////=
SHIP 11114 99362 11409 46/// /0807 10068 21033 40248 53009 7////
 8//// 22242 0//// 2////=
BATFR10 11114 99244 11233 46/// /1220 10209 20125 40241 53014
 22283 04242=
0000011200
145
SNVC01 KWBC 111100 RRA
BBXX
32012 11111 99199 50853 46/// ///// 1//// 91050 22200 11204 70022=
00000000