0000073000
366
USAA01 NZCM 110000
TTAA 61001 89664
99997 00056 18501 00512 ///// ///// 92601 07158 18518
85255 11341 17017 70716 21114 15006 50514 33959 24513
40666 44759 24520 30855 51765 24023 25975 45585 24514
20124 43786 24513 15318 43586 26009 10592 41586 23504
88320 52361 23026
77999
31313 48008 82219=

0000069700
87361=
0000011200
87368
0000009600
87371
0000035800
87378
0000037300
87381
0000039400
87385
0000039400
87407
0000041500
87411
0000014600
87417
0000045700
87421
0000049900
87440
0000052000
87462
0000050000
87472
0000005900
87495=
0000058400
87712=
0000056500
88271
0000058600
88538
0000064800
89057
0000073100
89646=
0000081300
367
USAA01 NZCM 110000
TTAA 61001 89664
99997 00056 18501 00512 ///// ///// 92601 07158 18518
85255 11341 17017 70716 21114 15006 50514 33959 24513
40666 44759 24520 30855 51765 24023 25975 45585 24514
20124 43786 24513 15318 43586 26009 10592 41586 23504
88320 52361 23026
77999
31313 48008 82219=

0000069700
87361=
0000011200
87368
0000009600
87371
0000035800
87378
0000037300
87381
0000039400
87385
0000039400
87407
0000041500
87411
0000014600
87417
0000045700
87421
0000049900
87440
0000052000
87462
0000050000
87472
0000005900
87495
0000058300
87519=
0000056400
87727
0000054300
87830=
0000056500
88861
0000064800
89335
0000050400
89911
0000062800
90837
0000064900
92131
0000079400
93834
0000066800
368
USAA01 NZCM 110000
TTAA 61001 89664
99997 00056 18501 00512 ///// ///// 92601 07158 18518
85255 11341 17017 70716 21114 15006 50514 33959 24513
40666 44759 24520 30855 51765 24023 25975 45585 24514
20124 43786 24513 15318 43586 26009 10592 41586 23504
88320 52361 23026
77999
31313 48008 82219=

0000069700
87361=
0000011200
87368
0000009600
87371
0000035800
87378
0000037300
87381=
0000039500
87413
0000041600
87422
0000043700
87443
0000045800
87466
0000054100
87469
0000050000
87483=
0000046000
87718=
0000054400
88279
0000056500
88548
0000060700
89100
0000071000
89645=
0000068900
369
USAA01 NZCM 110000
TTAA 61001 89664
99997 00056 18501 00512 ///// ///// 92601 07158 18518
85255 11341 17017 70716 21114 15006 50514 33959 24513
40666 44759 24520 30855 51765 24023 25975 45585 24514
20124 43786 24513 15318 43586 26009 10592 41586 23504
88320 52361 23026
77999
31313 48008 82219=

0000069700
87361=
0000011200
87368=
0000015000
87382=
0000030600
87414=
0000011000
87481
0000054100
87485
0000050000
87516
0000054200
87558
0000060400
87607
0000056300
87649
0000062600
87766
0000064700
87955
0000066800
88123=
0000064900
89930
0000066900
90827
0000058700
92111
0000062900
93825
0000056500
370
USAA01 NZCM 110000
TTAA 61001 89664
99997 00056 18501 00512 ///// ///// 92601 07158 18518
85255 11341 17017 70716 21114 15006 50514 33959 24513
40666 44759 24520 30855 51765 24023 25975 45585 24514
20124 43786 24513 15318 43586 26009 10592 41586 23504
88320 52361 23026
77999
31313 48008 82219=

0000069700
87361=
0000011200
87368=
0000015000
87382
0000012800
87386=
0000045700
87427=
0000045900
87505=
0000050100
87719=
0000054400
88291
0000056500
88553
0000062700
89078
0000077200
89648=
0000064800
371
USAA01 NZCM 110000
TTAA 61001 89664
99997 00056 18501 00512 ///// ///// 92601 07158 18518
85255 11341 17017 70716 21114 15006 50514 33959 24513
40666 44759 24520 30855 51765 24023 25975 45585 24514
20124 43786 24513 15318 43586 26009 10592 41586 23504
88320 52361 23026
77999
31313 48008 82219=

0000069700
87361=
0000011200
87368=
0000015000
87382=
0000030600
87414
0000014800
87423
0000049900
87438=
0000050000
87532
0000048000
87568=
0000056400
87875=
0000056500
88865
0000060700
89338
0000062800
89920
0000058700
90844
0000056600
92114
0000044500
93826
0000114600
372
SNCN19 CWAO 111018
OOXX
MYP42 11081 99045 11014 ///// 15551
     26/// /2801 10206 29072 38423 90817 333 60000=
MYP42 11081 99045 11014 ///// 15551
     26/// /2101 10202 29075 38425 90827 333 60000=
MYP42 11081 99045 11014 ///// 15551
     26/// /3001 10204 29075 38429 90837 333 60000=
MYP42 11081 99045 11014 ///// 15551
     26/// /3501 10202 29076 38427 90847 333 60000=
MYP42 11081 99045 11014 ///// 15551
     26/// /3301 10198 29076 38436 90857 333 60000=
MYP42 11091 99045 11014 ///// 15551
     26/// /2901 10198 29076 38436 90907 333 60000=
MYP42 11091 99045 11014 ///// 15551
     26/// /1701 10196 29078 38421 90917 333 60000=
MYP42 11091 99045 11014 ///// 15551
     26/// /2501 10196 29079 38427 90927 333 60000=
MYP42 11091 99045 11014 ///// 15551
     26/// /1901 10192 29078 38416 90937 333 60000=
MYP42 11091 99045 11014 ///// 15551
     26/// /2801 10191 29077 38427 90947 333 60000=
MYP42 11091 99045 11014 ///// 15551
     26/// /3101 10192 29077 38429 90957 333 60000=
MYP42 11101 99045 11014 ///// 15551
     26/// /2101 10194 29071 38434 91007 333 60000=

0000114600
373
SNCN19 CWAO 111033
OOXX
KIP39 11081 99020 51574 ///// 00181
     26/// /3204 10261 29088 30095 90820 333 60000=
KIP39 11081 99020 51574 ///// 00181
     26/// /3304 10260 29088 30094 90830 333 60000=
KIP39 11081 99020 51574 ///// 00181
     26/// /3204 10261 29089 30093 90840 333 60000=
KIP39 11081 99020 51574 ///// 00181
     26/// /3304 10260 29091 30093 90850 333 60000=
KIP39 11091 99020 51574 ///// 00181
     26/// /3303 10259 29090 30093 90900 333 60000=
KIP39 11091 99020 51574 ///// 00181
     26/// /3304 10259 29091 30091 90910 333 60000=
KIP39 11091 99020 51574 ///// 00181
     26/// /3303 10258 29090 30092 90920 333 60000=
KIP39 11091 99020 51574 ///// 00181
     26/// /3304 10260 29090 30091 90930 333 60000=
KIP39 11091 99020 51574 ///// 00181
     26/// /3403 10257 29090 30091 90940 333 60000=
KIP39 11091 99020 51574 ///// 00181
     26/// /3403 10256 29091 30091 90950 333 60000=
KIP39 11101 99020 51574 ///// 00181
     26/// /3403 10257 29091 30093 91000 333 60000=
KIP39 11101 99020 51574 ///// 00181
     26/// /3402 10255 29091 30093 91010 333 60000=

0000114600
374
SNCN19 CWAO 111017
OOXX
ARP01 11081 99345 50585 ///// 00311
     26/// /1606 10461 29/// 30114 90810 333 60000=
ARP01 11081 99345 50585 ///// 00311
     26/// /1604 10462 29/// 30117 90820 333 60000=
ARP01 11081 99345 50585 ///// 00311
     26/// /1604 10463 29/// 30119 90830 333 60000=
ARP01 11081 99345 50585 ///// 00311
     26/// /1804 10462 29/// 30125 90840 333 60000=
ARP01 11081 99345 50585 ///// 00311
     26/// /1605 10461 29/// 30129 90850 333 60000=
ARP01 11091 99345 50585 ///// 00311
     26/// /1604 10459 29/// 30132 90900 333 60000=
ARP01 11091 99345 50585 ///// 00311
     26/// /1604 10458 29/// 30132 90910 333 60000=
ARP01 11091 99345 50585 ///// 00311
     26/// /1604 10458 29/// 30132 90920 333 60000=
ARP01 11091 99345 50585 ///// 00311
     26/// /1605 10455 29/// 30133 90930 333 60000=
ARP01 11091 99345 50585 ///// 00311
     26/// /1604 10454 29/// 30135 90940 333 60000=
ARP01 11091 99345 50585 ///// 00311
     26/// /1605 10452 29/// 30137 90950 333 60000=
ARP01 11101 99345 50585 ///// 00311
     26/// /1604 10452 29/// 30137 91000 333 60000=

0000114600
375
SNCN19 CWAO 111028
OOXX
ARP03 11081 99412 50712 ///// 08491
     26/// /1501 10040 29079 39238 90830 333 60000=
ARP03 11081 99412 50712 ///// 08491
     26/// /1401 10045 29077 39240 90840 333 60000=
ARP03 11081 99412 50712 ///// 08491
     26/// /1501 10048 29075 39241 90850 333 60000=
ARP03 11091 99412 50712 ///// 08491
     26/// /1701 10045 29073 39240 90900 333 60000=
ARP03 11091 99412 50712 ///// 08491
     26/// /0000 10041 29079 39242 90910 333 60000=
ARP03 11091 99412 50712 ///// 08491
     26/// /1401 10045 29077 39243 90920 333 60000=
ARP03 11091 99412 50712 ///// 08491
     26/// /0000 10036 29080 39242 90930 333 60000=
ARP03 11091 99412 50712 ///// 08491
     26/// /1201 10043 29077 39242 90940 333 60000=
ARP03 11091 99412 50712 ///// 08491
     26/// /1201 10050 29075 39242 90950 333 60000=
ARP03 11101 99412 50712 ///// 08491
     26/// /1301 10054 29073 39243 91000 333 60000=
ARP03 11101 99412 50712 ///// 08491
     26/// /1301 10061 29070 39242 91010 333 60000=
ARP03 11101 99412 50712 ///// 08491
     26/// /1201 10074 29065 39243 91020 333 60000=

0000114600
376
SNCN19 CWAO 111054
OOXX
CAP17 11081 99476 70527 ///// 01331
     26/// /0811 11037 29078 30046 90850 333 60000=
CAP17 11091 99476 70527 ///// 01331
     26/// /0811 11036 29078 30045 90900 333 60000=
CAP17 11091 99476 70527 ///// 01331
     26/// /0810 11036 29078 30046 90910 333 60000=
CAP17 11091 99476 70527 ///// 01331
     26/// /0811 11036 29078 30047 90920 333 60000=
CAP17 11091 99476 70527 ///// 01331
     26/// /0712 11034 29077 30044 90930 333 60000=
CAP17 11091 99476 70527 ///// 01331
     26/// /0811 11033 29077 30048 90940 333 60000=
CAP17 11091 99476 70527 ///// 01331
     26/// /0711 11033 29076 30045 90950 333 60000=
CAP17 11101 99476 70527 ///// 01331
     26/// /0712 11033 29077 30047 91000 333 60000=
CAP17 11101 99476 70527 ///// 01331
     26/// /0711 11033 29077 30050 91010 333 60000=
CAP17 11101 99476 70527 ///// 01331
     26/// /0711 11032 29077 30053 91020 333 60000=
CAP17 11101 99476 70527 ///// 01331
     26/// /0810 11032 29076 30056 91030 333 60000=
CAP17 11101 99476 70527 ///// 01331
     26/// /0710 11031 29075 30057 91040 333 60000=

0000135200
377
UAPS01 NZKL 111100
AIREP
ANZ2 3648S 17512E 1009 F117 PS02 208/07=
SQC7295 3718S 17342E 1059 F201 MS16 243/13=
HAL466 1324S 17018W 1043 F253 MS18 307/20=
ANZ6 1424S 16254W 1016 F310 MS32 194/23=
ANZ6 1148S 16106W 1038 F310 MS32 174/14=
ANZ2 3306S 17924W 1052 F310 MS38 295/65=
ANZ6 0912S 15930W 1059 F310 MS33 198/20=
ANZ8 1200S 17636W 1010 F330 MS36 249/06=
ANZ994 1712S 17854W 1013 F330 MS35 281/16=
ANZ8 1024S 17530W 1024 F330 MS36 281/15=
ANZ8 0848S 17418W 1038 F330 MS36 249/18=
ANZ994 1524S 17530W 1041 F330 MS36 282/14=
HAL466 1206S 16954W 1053 F330 MS37 214/02=
HAL466 1200S 16954W 1054 F330 MS37 133/01=
ANZ7 0042S 14824W 1004 F340 MS41 294/35=
ANZ3 0124S 15018W 1005 F340 MS42 278/23=
ANZ7 0224S 14924W 1018 F340 MS42 267/19=
ANZ3 0248S 15124W 1019 F340 MS42 243/17=
ANZ7 0400S 15024W 1032 F339 MS42 230/23=
ANZ3 0418S 15230W 1033 F340 MS42 198/19=
ANZ7 0530S 15124W 1046 F340 MS43 188/19=
ANZ3 0542S 15336W 1046 F340 MS42 185/20=
ANZ3 0648S 15424W 1057 F340 MS42 160/16=
FJI810 1000S 17700W 1001 F350 MS42 269/18=
ANZ84 1600S 17248W 1015 F350 MS40 310/06=
LAN801 5906S 14512W 1015 F350 MS54 244/29=
ANZ84 1336S 17112W 1036 F350 MS41 259/08=
ANZ8 0706S 17318W 1052 F350 MS42 202/19=
ANZ84 1142S 16930W 1054 F350 MS42 234/07=
LAN801 5654S 15412W 1058 F350 MS53 358/10=
0000026900
378
UAPS01 NZKL 111100 RRA
AIREP
FJI923 2436S 16024E 1006 F360 MS48 269/73=
CSN306 3436S 17100E 1048 F360 MS53 267/34=
FJI810 0848S 17536W 1015 F370 MS48 248/25=
FJI810 0706S 17442W 1029 F370 MS48 210/20=
FJI810 0536S 17330W 1042 F370 MS47 185/23=
0000056900
379
SNVF21 ENMI 111100
BBXX
LDGJ 11111 99603 10053 43/// /2802 10055 20012 49982 5//// 222/0
      04078 1//// 3//// 4//// 5////=
LF4H 11114 99596 10022 46/// /3029 10046 20012 40003 52014 8////
      91102 22200 06077 10706 70032=
LGWS 11111 99229 30145 43/// /3005 10189 20177 40125 5//// 222/0
      04176 1//// 3//// 4//// 5////=
LJIT 11111 99585 10046 43/// /2914 10050 20019 40016 5//// 222/0
      04070 1//// 3//// 4//// 5////=
LMEL 11111 99603 10053 43/// /3002 10052 20019 49978 5//// 222/0
      04077 1//// 3//// 4//// 5////=
0000010200
380
SAIR31 OIII 111100 RRA
METAR OIHH 111100Z 00000KT 2000 BR BKN035 OVC090 M04/M07 Q1018=
0000010200
381
SAIR78 OIII 111100 RRA
METAR OIHH 111100Z 00000KT 2000 BR BKN035 OVC090 M04/M07 Q1018=
0000012600
382
SNAA19 LFVW 111000 RRB
AAXX 11104
89614 46/// /0927 11022 29001 38988 4//// 5//// 91030
  333 90700 91134=
0000012000
383
SNAA19 LFVW 101900 RRE
AAXX 10194
89811 46/// /0829 11076 29095 38259 4//// 5////
  333 90700 91134=
0000125000
384
SREW41 EGRR 111100
03002002 03005OTR 03008000 03017004 03026002 03031OTR 03034002
03037000 03044OTR 03047OTR 03062000 03063OTR 03066OTR 03068000
03075000 03080000 03088000 03091000 03100000 03105OTR 03111000
03132000 03134012 03136000 03144000 03153000 03155000 03158000
03162006 03166000 03171000 03204000 03210000 03212000 03214000
03220000 03224000 03225002 03226000 03230002 03238000 03240000
03257000 03261000 03265000 03266000 03275000 03281000 03292000
03301000 03302000 03305000 03313000 03316OTR 03318000 03321000
03330OTR 03344000 03346000 03351014 03354000 03373000 03377000
03379000 03382000 03391000 03392000 03405000 03409000 03410000
03414000 03462000 03469000 03482000 03488000 03502000 03503000
03520000 03522000 03529000 03535000 03544000 03560000 03590000
03604000 03605000 03609000 03628000 03647000 03649000 03658000
03660000 03672000 03684000 03693000 03707000 03710000 03716000
03740000 03743000 03746000 03749000 03761000 03768000 03769000
03770000 03772000 03781000 03797000 03803000 03808000 03809000
03823000 03827000 03839000 03840000 03853000 03857000 03862000
03866000 03872000 03876000 03882000 03901002 03904000 03907000
03911999 03915000 03916000 03917000 03923000=
0000105300
385
SAUK63 EGRR 111050 RRB
METAR EGDY 111050Z AUTO 27004KT 9999 FEW015/// 07/05 Q1020=
METAR EGOM 111050Z AUTO 26018KT 9999 SCT002/// 01/01 Q1013=
METAR EGOP 111050Z AUTO 28005KT 9999 // NCD 06/03 Q1020=
METAR EGOS 111050Z AUTO 28008KT 9999 BKN029/// 06/02 Q1018=
METAR EGOV 111050Z AUTO 30009KT 9999 NCD 06/03 Q1019=
METAR EGQK 111050Z AUTO 24011KT 9999 FEW050/// BKN100/// 03/00 Q1010 RERA=
METAR EGUW 111050Z AUTO 30013KT 9999 NCD 06/02 Q1017=
METAR EGUY 111050Z 28009KT CAVOK 06/04 Q1018=
METAR EGVP 111050Z AUTO 28008KT 9999 // NCD 06/03 Q1020=
METAR EGWC 111050Z 28008KT 9999 FEW020 06/03 Q1018=
METAR EGXD 111050Z AUTO 28004KT 9999 // NCD 05/01 Q1016=
METAR EGXE 111050Z AUTO 28003KT 9999 FEW028/// 05/01 Q1015=
METAR EGXP 111050Z AUTO 27014KT 9999 // FEW060/// 05/03 Q1016=
METAR EGXS 111050Z AUTO 25011KT 9999 // NCD 06/03 Q1015=
METAR EGXU 111050Z AUTO 27006KT 9999 // NCD 05/01 Q1015=
METAR EGXZ 111050Z AUTO 22004KT 9999 FEW140/// 06/01 Q1015=
METAR EGYM 111050Z AUTO 28011KT 9999 NCD 06/03 Q1017=
00000000