0000044900
346
SXXX32 EUMS 111100 RRA
16289262
:PRS 1 /1 2198 2187 2181 2175 2193 2184 2190 2180 2167 2185 2179 2176 2171 2174 2174 2175 2181 2186 2187 2157 2184 2166 2170 2178 2181 2176 2187 2183 2185 2180 :RAD 1 /3 7643 7644 7640 7636 7633 7636 7638 7638 7633 7631 7632 7633 7632 7635 7639 7636 7633 7635 7632 7633 :ENC 5 /5 5009 4999 5003 5004 5001 5008 5003 4997 5001 4993 4998 5001 :SW1 60 /60 0 :SW2 30 /60 0 :BAT 14 /15 12.9 :NAME 16289262
0000045500
347
SXXX32 EUMS 111100 RRB
324DF524
:PRS 1 /1 2322 2327 2331 2336 2341 2346 2350 2356 2360 2365 2370 2375 2379 2385 2390 2394 2399 2404 2410 2414 2419 2424 2429 2435 2440 2445 2450 2455 2461 2465 :RAD 1 /3 2341 2353 2367 2383 2400 2416 2432 2452 2466 2482 2497 2513 2529 2545 2564 2580 2596 2613 2630 2647 :ENC 5 /5 1304 1329 1354 1379 1405 1431 1457 1483 1508 1535 1562 1588 :SW1 60 /60 0 0 :SW2 30 /60 60 60 :BAT 14 /15 12.4 :NAME 324DF524
0000041600
348
SXXX32 EUMS 111101
26CB10AC
:PRS 1 /1 -1336 -1336 -1336 -1336 -1336 -1336 -1337 -1337 -1337 -1337 -1337 -1336 -1337 -1338 -1337 -1337 -1337 -1337 -1336 -1336 -1336 -1336 -1336 -1336 -1336 -1336 -1336 -1336 -1337 -1336 :RAD 3 /3 5823 5821 5819 5816 5812 5810 5811 5809 5805 5802 :RA2 3 /3 5802 5800 5795 5794 5795 5784 5793 5791 5785 5783 :SW1 2 /60 60 :SW2 32 /60 60 :BAT 14 /15 13.0 :NAME 26CB10AC
0000044900
349
SXXX32 EUMS 111101 RRA
1227146C
:PRS 1 /1 3649 3645 3646 3644 3639 3634 3633 3630 3624 3621 3618 3612 3607 3604 3601 3595 3593 3592 3591 3586 3583 3581 3578 3571 3567 3566 3563 3555 3551 3549 :RAD 3 /3 3622 3621 3605 3602 3578 3579 3557 3526 3543 3531 3517 3507 3478 3460 3460 3456 3427 3426 3395 3401 :ENC 1 /5 4398 4380 4358 4344 4328 4306 4285 4267 4248 4224 4198 4178 :SW1 2 /60 0 :SW2 32 /60 60 :BAT 14 /15 12.6 :NAME 1227146C
0000044400
350
SXXX32 EUMS 111103
22856700
:PRS 1 /1 4016 4016 4021 4013 4015 4017 4016 4021 4031 4026 4022 4021 4019 4020 4019 4021 4021 4017 4021 4028 4021 4017 4029 4031 4034 4028 4023 4036 4027 4014 :RAD 1 /3 7521 7522 7525 7524 7523 7525 7528 7530 7526 7522 7520 7519 7521 7520 7521 7518 7516 7512 7509 7509 :ENC 3 /5 5714 5722 5717 5719 5727 5721 5711 5716 5717 5713 5706 5703 :SW1 3 /60 0 :SW2 33 /60 0 :BAT 14 /15 12.5 :NAME 22856700
0000045000
351
SXXX32 EUMS 111103 RRA
32D8A2BE
:PRS 1 /1 1648 1655 1659 1648 1662 1656 1661 1668 1661 1659 1673 1665 1665 1666 1671 1676 1676 1674 1677 1682 1680 1685 1682 1687 1683 1692 1688 1688 1693 1690 :RAD 1 /3 7238 7243 7246 7251 7253 7257 7262 7267 7272 7274 7277 7279 7280 7284 7289 7292 7302 7302 7306 7312 :ENC 3 /5 4669 4674 4680 4690 4698 4705 4710 4714 4718 4724 4730 4738 :SW1 3 /60 60 :SW2 33 /60 60 :BAT 14 /15 13.1 :NAME 32D8A2BE
0000068900
352
UDEU02 EGRR 111109 RRB
AMDAR 1111
DES EU3080   3652N 00446W 111100 F053 PS055 347/003 TB/ S031=
DES EU3080   3650N 00444W 111101 F053 PS057 021/005 TB/ S031=
DES EU3080   3649N 00441W 111102 F046 PS070 035/006 TB/ S031=
DES EU3080   3647N 00439W 111102 F037 PS080 017/007 TB/ S031=
DES EU3080   3646N 00437W 111103 F030 PS085 277/002 TB/ S031=
DES EU3080   3644N 00435W 111104 F023 PS095 092/004 TB/ S031=
DES EU3080   3643N 00434W 111104 F017 PS110 115/002 TB/ S031=
DES EU3080   3642N 00432W 111105 F011 PS117 124/001 TB/ S031=
DES EU3080   3641N 00431W 111106 F006 PS125 035/003 TB/ S031=
DES EU3080   3640N 00429W 111106 F000 PS127 315/005 TB/ S031=
0000047700
353
SXXX32 EUMS 111104
262AD2C2
OT12 ID:PK-ORMA-10 DT:2014 01 11 11 03
:PRS /1 06843 06841 06848 06849 06857 06872 06867 06884 06891 06904 06912 06911 06922 06925 06921 06930 06937 06939 06940 06963 06974 06978 06978 06960 06968 06983 06973 06983 07006 07006
:RAD /1 ///// ///// ///// ///// ///// ///// ///// ///// ///// ///// ///// ///// ///// ///// ///// ///// ///// ///// ///// ///// ///// ///// ///// ///// ///// ///// ///// ///// ///// /////
:BAT 13.0V
0000042900
354
UDAC02 EGRR 111109
AMDAR 1110
LVR EU2200   7442N 09149E 111030 F380 MS600 163/009 TB/ S031=
LVR EU2200   7514N 08855E 111037 F380 MS600 110/009 TB/ S031=
LVR EU2200   7544N 08548E 111044 F380 MS597 110/010 TB/ S031=
LVR EU2200   7611N 08230E 111051 F380 MS602 061/015 TB/ S031=
LVR EU2200   7635N 07900E 111058 F380 MS602 046/023 TB/ S031=
LVR EU2200   7656N 07517E 111105 F380 MS605 048/031 TB/ S031=
0000085100
355
UDAS02 BABJ 111057
AMDAR 1110
DES CNFNXP 3700N 11706E 111052 F030 MS023 244/021 TB/ S//1=
DES CNFNXP 3702N 11708E 111053 F022 MS008 224/020 TB/ S//1=
DES CNFNXP 3701N 11712E 111054 F016 PS008 221/023 TB/ S//1=
DES CNFNXP 3659N 11713E 111055 F016 PS008 217/016 TB/ S//1=
LVR CNFLWN 2411N 11118E 111050 F331 MS394 255/076 TB/ S//1=
DES CNFLWN 2353N 11137E 111053 F290 MS293 259/073 TB/ S//1=
ASC CNFPYN 3632N 10346E 111054 F133 MS180 283/022 TB/ S//1=
ASC CNFPYN 3630N 10349E 111054 F153 MS204 302/018 TB/ S//1=
ASC CNFPYN 3628N 10352E 111055 F169 MS236 304/031 TB/ S//1=
LVR CNFOZM 3638N 11543E 111054 F236 MS335 269/087 TB/ S//1=
LVR CNFOZM 3637N 11540E 111054 F236 MS336 270/086 TB/ S//1=
LVR CNFOZM 3636N 11536E 111055 F236 MS336 269/085 TB/ S//1=
LVR CNFOZM 3635N 11532E 111055 F236 MS335 269/084 TB/ S//1=
0000078900
356
UDAS02 BABJ 111059
AMDAR 1110
LVR CNFPQL 3337N 11840E 111054 F246 MS341 260/058 TB/ S//1=
LVR CNFPQL 3330N 11839E 111055 F246 MS343 259/053 TB/ S//1=
LVR CNFPQL 3325N 11841E 111056 F246 MS343 258/056 TB/ S//1=
LVR CNFPQL 3324N 11842E 111056 F246 MS343 258/055 TB/ S//1=
LVR CNFLWR 2700N 10808E 111055 F236 MS225 255/076 TB/ S//1=
LVR CNFLWR 2659N 10804E 111056 F236 MS225 256/076 TB/ S//1=
LVR CNFLWR 2658N 10802E 111056 F236 MS225 255/077 TB/ S//1=
DES CNFLWR 2656N 10755E 111057 F229 MS213 257/069 TB/ S//1=
ASC CNFPYN 3625N 10355E 111055 F184 MS265 291/031 TB/ S//1=
ASC CNFPYN 3623N 10359E 111056 F202 MS306 278/034 TB/ S//1=
LVR CNFPYN 3621N 10402E 111057 F207 MS323 278/040 TB/ S//1=
ASC CNFPYN 3618N 10406E 111057 F211 MS325 270/042 TB/ S//1=
0000016900
357
UDAS02 BABJ 111100
AMDAR 1111
DES CNFNXP 3659N 11713E 111055 F016 PS008 212/017 TB/ S//1=
DES CNFNXP 3657N 11713E 111056 F012 PS020 220/013 TB/ S//1=
0000105600
358
SAAU31 AMMC 111100
METAR YBAS 111100Z AUTO 13009KT 9999 // NCD 35/04 Q1012=
METAR YBBN 111100Z 05008KT 9999 FEW025 SCT033 24/19 Q1017
     NOSIG=
METAR YBCS 111100Z 19012KT 9999 FEW020 BKN120 26/22 Q1010
     INTER 1100/1400 VRB15G25KT 4000 SHRA FEW008 BKN020=
METAR YBTL 111100Z 10015KT 9999 FEW025 SCT090 BKN140 28/22 Q1011=
METAR YMML 111100Z 18009KT 9999 FEW015 BKN017 16/12 Q1021
     FM1100 19009KT 9000 -DZ HZ BKN014=
METAR YPAD 111100Z 18012KT 9999 FEW030 19/11 Q1019
     FM1100 MOD TURB BLW 3000FT=
METAR YPCC 111100Z AUTO 14012KT 9999 // SCT038 28/22 Q1009=
METAR YPDN 111100Z 21006KT 9999 FEW020 OVC380 28/25 Q1006
     NOSIG=
METAR YPKU 111100Z AUTO 01006KT 9999 // NCD 27/22 Q1006=
METAR YPLM 111100Z AUTO 30009KT 9999 // NCD 33/19 Q1006=
METAR YPPH 111100Z 14012KT CAVOK 40/05 Q1008
     NOSIG=
METAR YPTN 111100Z AUTO 09011KT 9999 -SHRA SCT024 SCT056 BKN068 28/22 Q1008=
METAR YPXM 111100Z AUTO 13005KT 9999 // NCD 26/22 Q1010=
METAR YSSY 111100Z 03012KT CAVOK 25/19 Q1016
     NOSIG=
0000013100
359
SABY31 UMMN 111100 RRA
METAR UMOO 111100Z 28010G14MPS 6000 -SHSNRA BKN022CB OVC/// 01/M01
Q1003 R31/290067 NOSIG=
0000009200
360
SAIQ01 ORBI 111100
METAR ORBM 111100Z VRB03KT 7000 SCT040 13/04 Q1019 NOSIG=
0000043300
361
UDEU02 EGRR 111109 RRC
AMDAR 1110
LVR EU0064   3546N 01013W 111027 F390 MS565 329/056 TB/ S031=
LVR EU0064   3501N 01054W 111034 F390 MS585 317/067 TB/ S031=
LVR EU0064   3418N 01133W 111041 F390 MS610 308/063 TB/ S031=
LVR EU0064   3335N 01211W 111048 F390 MS592 301/063 TB/ S031=
LVR EU0064   3252N 01247W 111055 F390 MS592 292/072 TB/ S031=
LVR EU0064   3210N 01323W 111102 F390 MS607 288/063 TB/ S031=
0000038700
362
SNVD15 KWNB 111100 RRF
BBXX
41108 11111 99337 70780 46/// ///// 1//// 91059 22200 00121 10802
20802 70012=
42099 11111 99273 70843 46/// ///// 1//// 91052 22200 00220 10401
20401 70007=
41114 11111 99276 70802 46/// ///// 1//// 91055 22200 00234 10803
20803 306// 41501 70014=
41112 11111 99307 70813 46/// ///// 1//// 91052 22200 00113 10802
20802 70012=
0000024100
363
UDEU02 EGRR 111109 RRD
AMDAR 1110
LVR EU7724   6218N 01928E 111051 F360 MS470 300/037 TB/ S031=
LVR EU7724   6128N 01903E 111058 F360 MS485 299/036 TB/ S031=
DES EU7724   6040N 01838E 111105 F265 MS438 290/057 TB/ S031=
0000011300
364
UDEU02 EGRR 111109 RRE
AMDAR 1111
LVR EU3522   5412N 01145E 111103 F303 MS500 255/063 TB/ S031=
0000049700
365
UDEU02 EGRR 111109 RRF
AMDAR 1110
LVR EU9743   3421N 00938W 111024 F370 MS563 323/067 TB/ S031=
LVR EU9743   3335N 01012W 111031 F370 MS593 311/068 TB/ S031=
LVR EU9743   3250N 01046W 111038 F370 MS605 314/063 TB/ S031=
LVR EU9743   3206N 01121W 111045 F370 MS593 307/052 TB/ S031=
LVR EU9743   3122N 01154W 111052 F370 MS598 300/054 TB/ S031=
DES EU9743   3038N 01227W 111059 F342 MS555 295/040 TB/ S031=
DES EU9743   2953N 01259W 111106 F258 MS336 316/033 TB/ S031=
00000000