0000032200
446
SAIN34 VOMM 111100
METAR VOBL 111100Z 08004KT 030V130 CAVOK 32/11 Q1016 NOSIG=
METAR VOCB 111100Z 09006KT 6000 NSC 30/13 Q1013 NOSIG=
METAR VOCI 111100Z 27005KT 4000 HZ NSC 32/20 Q1009 NOSIG=
METAR VOCL 111100Z 28006KT 8000 NSC 30/21 Q1010 NOSIG=
METAR VOMD 111100Z 07006KT 7000 FEW020 31/16 Q1011=
0000009500
447
SAIN90 VANP 111110
METAR VANP 111110Z 22003KT 5000 HZ FEW020 27/14 Q1013 NOSIG=
0000009500
448
SAIN90 VOHS 111110
METAR VOHS 111110Z 21005KT 5000 HZ SCT020 29/11 Q1015 NOSIG=
0000009200
449
SAIN90 VOTR 111110
METAR VOTR 111110Z 09008KT 7000 FEW016 29/19 Q1012 NOSIG=
0000022800
450
SAIN32 VIDP 111100
METAR VIDP 111100Z 31011KT 3000 HZ NSC 18/07 Q1018 NOSIG=
METAR VILK 111100Z 09004KT 1400 R27/1600 BKN020 BKN100 17/14 Q1016
    NOSIG=
METAR VIAR 111100Z 25004KT 4000 HZ NSC 16/11 Q1019=
0000037400
451
SMME20 OEJD 110000
AAXX 11004
40007 NIL=
40022 NIL=
40080 NIL=
40100 13/// /2001 10117 20100 30180 40212 51007 69961 900// 333 92416=
40270 31940 40803 10062 20039 39293 40207 52004 70522 83031 333 83360
84070=
40272 31930 32404 10050 20036 39366 40221 54002 71000 80001 333
83070=
40340 32560 10000 10112 20092 40212 54000 81100 333 81830=
0000079200
452
USAA01 NZCM 110000
TTAA 61001 89664
99997 00056 18501 00512 ///// ///// 92601 07158 18518
85255 11341 17017 70716 21114 15006 50514 33959 24513
40666 44759 24520 30855 51765 24023 25975 45585 24514
20124 43786 24513 15318 43586 26009 10592 41586 23504
88320 52361 23026
77999
31313 48008 82219=

0000069700
87361=
0000011200
87368
0000009600
87371
0000035800
87378
0000037300
87381
0000039400
87385
0000039400
87407
0000041500
87411
0000014600
87417
0000045700
87421
0000049900
87440
0000052000
87462
0000050000
87472
0000005900
87495
0000058300
87519
0000056300
87548
0000056300
87600
0000062500
87655
0000054300
87765=
0000056500
88814=
0000058700
92157
0000067000
93855
0000079200
453
USAA01 NZCM 110000
TTAA 61001 89664
99997 00056 18501 00512 ///// ///// 92601 07158 18518
85255 11341 17017 70716 21114 15006 50514 33959 24513
40666 44759 24520 30855 51765 24023 25975 45585 24514
20124 43786 24513 15318 43586 26009 10592 41586 23504
88320 52361 23026
77999
31313 48008 82219=

0000069700
87361=
0000011200
87368
0000009600
87371
0000035800
87378
0000037300
87381
0000039400
87385
0000039400
87407
0000041500
87411
0000014600
87417
0000045700
87421
0000049900
87440=
0000052100
87535
0000052100
87570
0000011400
87630
0000056300
87656
0000060500
87770
0000062600
87958
0000056400
88145
0000066800
88432
0000066800
88714
0000069000
89051
0000060700
89649=
0000071000
454
USAA01 NZCM 110000
TTAA 61001 89664
99997 00056 18501 00512 ///// ///// 92601 07158 18518
85255 11341 17017 70716 21114 15006 50514 33959 24513
40666 44759 24520 30855 51765 24023 25975 45585 24514
20124 43786 24513 15318 43586 26009 10592 41586 23504
88320 52361 23026
77999
31313 48008 82219=

0000069700
87361=
0000011200
87368
0000009600
87371
0000035800
87378
0000037300
87381=
0000039500
87413
0000041600
87422
0000043700
87443
0000045800
87466=
0000054200
87540
0000048000
87567
0000050100
87610=
0000056400
87913
0000056400
88101
0000060600
88376
0000066800
88656
0000058600
89083
0000060700
89664=
0000060600
455
USAA01 NZCM 110000
TTAA 61001 89664
99997 00056 18501 00512 ///// ///// 92601 07158 18518
85255 11341 17017 70716 21114 15006 50514 33959 24513
40666 44759 24520 30855 51765 24023 25975 45585 24514
20124 43786 24513 15318 43586 26009 10592 41586 23504
88320 52361 23026
77999
31313 48008 82219=

0000069700
87361=
0000011200
87368
0000009600
87371
0000035800
87378
0000037300
87381=
0000039500
87413=
0000052000
87479
0000056200
87492=
0000046000
87710=
0000058500
88273
0000062700
88541
0000066900
89067
0000060700
89655=
0000066800
456
USAA01 NZCM 110000
TTAA 61001 89664
99997 00056 18501 00512 ///// ///// 92601 07158 18518
85255 11341 17017 70716 21114 15006 50514 33959 24513
40666 44759 24520 30855 51765 24023 25975 45585 24514
20124 43786 24513 15318 43586 26009 10592 41586 23504
88320 52361 23026
77999
31313 48008 82219=

0000069700
87361=
0000011200
87368
0000009600
87371
0000035800
87378
0000037300
87381
0000039400
87385=
0000043700
87428
0000047800
87442=
0000052100
87533
0000058300
87555
0000060400
87612
0000058400
87657
0000064600
87769=
0000066800
88818=
0000067000
92149
0000071100
93857
0000058600
457
USAA01 NZCM 110000
TTAA 61001 89664
99997 00056 18501 00512 ///// ///// 92601 07158 18518
85255 11341 17017 70716 21114 15006 50514 33959 24513
40666 44759 24520 30855 51765 24023 25975 45585 24514
20124 43786 24513 15318 43586 26009 10592 41586 23504
88320 52361 23026
77999
31313 48008 82219=

0000069700
87361=
0000011200
87368=
0000015000
87382=
0000030600
87414=
0000011000
87481=
0000054200
87583=
0000058500
87910
0000056200
88094
0000058500
88380
0000062700
88618
0000068900
89074
0000062700
89668=
0000073000
458
USAA01 NZCM 110000
TTAA 61001 89664
99997 00056 18501 00512 ///// ///// 92601 07158 18518
85255 11341 17017 70716 21114 15006 50514 33959 24513
40666 44759 24520 30855 51765 24023 25975 45585 24514
20124 43786 24513 15318 43586 26009 10592 41586 23504
88320 52361 23026
77999
31313 48008 82219=

0000069700
87361=
0000011200
87368=
0000015000
87382
0000012800
87386=
0000045700
87427
0000045800
87444
0000047900
87464
0000052000
87476
0000050000
87490
0000045900
87515
0000054200
87561
0000056300
87628
0000058400
87682
0000058400
87821
0000062600
88059
0000054400
88358
0000056500
88597
0000062700
89075
0000056600
89638=
0000062700
459
USAA01 NZCM 110000
TTAA 61001 89664
99997 00056 18501 00512 ///// ///// 92601 07158 18518
85255 11341 17017 70716 21114 15006 50514 33959 24513
40666 44759 24520 30855 51765 24023 25975 45585 24514
20124 43786 24513 15318 43586 26009 10592 41586 23504
88320 52361 23026
77999
31313 48008 82219=

0000069700
87361=
0000011200
87368=
0000015000
87382
0000012800
87386=
0000045700
87427
0000045800
87444=
0000048000
87537=
0000058400
87748
0000054300
87941
0000062600
88136
0000068900
88405
0000062700
88673
0000064800
89069
0000060700
89641=
0000079200
460
USAA01 NZCM 110000
TTAA 61001 89664
99997 00056 18501 00512 ///// ///// 92601 07158 18518
85255 11341 17017 70716 21114 15006 50514 33959 24513
40666 44759 24520 30855 51765 24023 25975 45585 24514
20124 43786 24513 15318 43586 26009 10592 41586 23504
88320 52361 23026
77999
31313 48008 82219=

0000069700
87361=
0000011200
87368
0000009600
87371
0000035800
87378
0000037300
87381
0000039400
87385
0000039400
87407
0000041500
87411
0000014600
87417=
0000041700
87480
0000060300
87494
0000052100
87511
0000058300
87573
0000050100
87608
0000056300
87640
0000066700
87775
0000062600
87963
0000062600
88156=
0000064800
89965
0000066900
90846
0000064900
92125
0000067000
93869
0000075100
461
USAA01 NZCM 110000
TTAA 61001 89664
99997 00056 18501 00512 ///// ///// 92601 07158 18518
85255 11341 17017 70716 21114 15006 50514 33959 24513
40666 44759 24520 30855 51765 24023 25975 45585 24514
20124 43786 24513 15318 43586 26009 10592 41586 23504
88320 52361 23026
77999
31313 48008 82219=

0000069700
87361=
0000011200
87368=
0000015000
87382
0000012800
87386
0000045600
87406
0000047700
87410
0000049800
87416
0000051900
87420=
0000047900
87502
0000013400
87528
0000052100
87563
0000054200
87615
0000064600
87668
0000064600
87793
0000058500
87991
0000064700
88185
0000064700
88479
0000068900
88720
0000062800
89085
0000054500
89647=
0000024200
462
SMOM66 OOMS 110000 RRC
AAXX 11004
41246 36/// /1804 10153 20097 30208 40212
333 0E016 58008 =
41252 36/// /0805 10152 20082 39820 40194
333 0E017 58013 =
41267 36/// /3110 10182 20098 30199 40214
333 0E017 58022  =
0000068900
463
USAA01 NZCM 110000
TTAA 61001 89664
99997 00056 18501 00512 ///// ///// 92601 07158 18518
85255 11341 17017 70716 21114 15006 50514 33959 24513
40666 44759 24520 30855 51765 24023 25975 45585 24514
20124 43786 24513 15318 43586 26009 10592 41586 23504
88320 52361 23026
77999
31313 48008 82219=

0000069700
87361=
0000011200
87368
0000009600
87371
0000035800
87378
0000037300
87381
0000039400
87385=
0000043700
87428=
0000047900
87503
0000056200
87524
0000048000
87543
0000056300
87596=
0000056400
87903
0000052300
88080
0000066800
88333
0000058600
88627
0000060700
89028
0000060700
89640=
0000073000
464
USAA01 NZCM 110000
TTAA 61001 89664
99997 00056 18501 00512 ///// ///// 92601 07158 18518
85255 11341 17017 70716 21114 15006 50514 33959 24513
40666 44759 24520 30855 51765 24023 25975 45585 24514
20124 43786 24513 15318 43586 26009 10592 41586 23504
88320 52361 23026
77999
31313 48008 82219=

0000069700
87361=
0000011200
87368
0000009600
87371
0000035800
87378
0000037300
87381
0000039400
87385
0000039400
87407
0000041500
87411
0000014600
87417
0000045700
87421
0000049900
87440=
0000052100
87535
0000052100
87570
0000011400
87630
0000056300
87656
0000060500
87770=
0000062700
88819=
0000071100
92136
0000073200
93858
0000064700
465
USAA01 NZCM 110000
TTAA 61001 89664
99997 00056 18501 00512 ///// ///// 92601 07158 18518
85255 11341 17017 70716 21114 15006 50514 33959 24513
40666 44759 24520 30855 51765 24023 25975 45585 24514
20124 43786 24513 15318 43586 26009 10592 41586 23504
88320 52361 23026
77999
31313 48008 82219=

0000069700
87361=
0000011200
87368
0000009600
87371
0000035800
87378
0000037300
87381=
0000039500
87413
0000041600
87422=
0000043800
87504=
0000052200
87720
0000054300
87824
0000056400
88052
0000064700
88325
0000062700
88629
0000066900
89151
0000071000
89706=
00000000