0000071000
466
USAA01 NZCM 110000
TTAA 61001 89664
99997 00056 18501 00512 ///// ///// 92601 07158 18518
85255 11341 17017 70716 21114 15006 50514 33959 24513
40666 44759 24520 30855 51765 24023 25975 45585 24514
20124 43786 24513 15318 43586 26009 10592 41586 23504
88320 52361 23026
77999
31313 48008 82219=

0000069700
87361=
0000011200
87368
0000009600
87371
0000035800
87378
0000037300
87381
0000039400
87385=
0000043700
87428
0000047800
87442=
0000052100
87533
0000058300
87555=
0000060500
87878
0000062600
88040
0000064700
88327
0000066800
88593
0000068900
89047=
0000060800
93505
0000062900
95440
0000077400
97777
0000073100
467
USAA01 NZCM 110000
TTAA 61001 89664
99997 00056 18501 00512 ///// ///// 92601 07158 18518
85255 11341 17017 70716 21114 15006 50514 33959 24513
40666 44759 24520 30855 51765 24023 25975 45585 24514
20124 43786 24513 15318 43586 26009 10592 41586 23504
88320 52361 23026
77999
31313 48008 82219=

0000069700
87361=
0000011200
87368
0000009600
87371
0000035800
87378
0000037300
87381
0000039400
87385
0000039400
87407=
0000012000
87430=
0000054100
87500=
0000056300
87703
0000056400
87841=
0000062700
88885
0000060700
89325
0000058600
89915
0000075200
90802
0000060800
91972
0000067000
93518
0000069100
95475
0000087700
97783
0000066900
468
USAA01 NZCM 110000
TTAA 61001 89664
99997 00056 18501 00512 ///// ///// 92601 07158 18518
85255 11341 17017 70716 21114 15006 50514 33959 24513
40666 44759 24520 30855 51765 24023 25975 45585 24514
20124 43786 24513 15318 43586 26009 10592 41586 23504
88320 52361 23026
77999
31313 48008 82219=

0000069700
87361=
0000011200
87368=
0000015000
87382
0000012800
87386
0000045600
87406
0000047700
87410=
0000049900
87467=
0000048000
87577=
0000054300
87885
0000068800
88062
0000058500
88356
0000062700
88606
0000058600
89090=
0000067000
93533
0000056700
95478
0000077400
97789
0000010400
469
UEKN01 HKNC 110000
TTDD 6100/ 63612 NIL=
TTDD 6100/ 63723 NIL=
TTDD 6100/ 63741 NIL=
0000010400
470
UKKN01 HKNC 110000
TTBB 6100/ 63612 NIL=
TTBB 6100/ 63723 NIL=
TTBB 6100/ 63741 NIL=
0000005600
471
USKN01 HKNC 110000
TTAA 6100/ 63741 NIL=
0000100200
472
SATN40 HTDA 110000
METAR
HTBU 110000Z 00000KT 9999 FEW013 FEW015CB 17/16 Q1015=
HTDA 110000Z 02008KT 9999 SCT024 27/24 Q1011 NOSIG=
HTDA 102300Z 01012KT 9999 SCT024 27/24 Q1012 NOSIG=
HTDA 102200Z 02013KT 9999 SCT024 27/24 Q1012 NOSIG=
HTAR 110000Z 00000KT CAVOK 16/15 Q1017=
HTZA 110000Z 00000KT 9999 FEW018 26/23 Q1011 NOSIG=
HTMU 110000Z 00000KT 9999 FEW019CB 20/16 Q1016=
HTSU 110000Z 00000KT CAVOK 15/14 Q1021=
HTMG 100000Z 05008KT 9999 FEW024 24/19 Q1013=
HTKJ 110000Z 08010KT 9999 FEW022 21/16 Q1014 NOSIG =
HTIR 110000Z 00000KT 9999 SCT017 BKN070 19/17 Q1019=
HTKA 110000Z 00000KT 9999 FEW020 FEW022CB BKN200 21/20 Q1017=
HTKA 102300Z 00000KT 9999 FEW020 FEW022CB BKN200 21/20 Q1017=
HTKA 102200Z 00000KT 9999 FEW020 FEW022CB BKN200 22/21 Q1018=
HTMT 110000Z 35011KT 9999 FEW021 26/23 Q1011=
HTMT 102300Z 35008KT 9999 FEW021 26/23 Q1011=
HTMT 102200Z 36010KT 9999 FEW022 27/23 Q1012=
HTMW 110000Z 00000KT 9999 FEW019 SCT230 19/18 Q1014 NOSIG=
0000064800
473
USAA01 NZCM 110000
TTAA 61001 89664
99997 00056 18501 00512 ///// ///// 92601 07158 18518
85255 11341 17017 70716 21114 15006 50514 33959 24513
40666 44759 24520 30855 51765 24023 25975 45585 24514
20124 43786 24513 15318 43586 26009 10592 41586 23504
88320 52361 23026
77999
31313 48008 82219=

0000069700
87361=
0000011200
87368
0000009600
87371
0000035800
87378
0000037300
87381=
0000039500
87413=
0000052000
87479=
0000056300
87590
0000058400
87644=
0000060600
88269
0000056500
88535
0000062700
89026=
0000069000
93466
0000069100
95437
0000069100
97776
0000066900
474
USAA01 NZCM 110000
TTAA 61001 89664
99997 00056 18501 00512 ///// ///// 92601 07158 18518
85255 11341 17017 70716 21114 15006 50514 33959 24513
40666 44759 24520 30855 51765 24023 25975 45585 24514
20124 43786 24513 15318 43586 26009 10592 41586 23504
88320 52361 23026
77999
31313 48008 82219=

0000069700
87361=
0000011200
87368=
0000015000
87382=
0000030600
87414=
0000011000
87481=
0000054200
87583
0000058400
87642
0000062600
87763
0000054300
87949
0000054400
88125
0000060600
88403
0000056500
88631
0000071000
89084=
0000067000
93529
0000075300
95502
0000071200
97812
0000073100
475
USAA01 NZCM 110000
TTAA 61001 89664
99997 00056 18501 00512 ///// ///// 92601 07158 18518
85255 11341 17017 70716 21114 15006 50514 33959 24513
40666 44759 24520 30855 51765 24023 25975 45585 24514
20124 43786 24513 15318 43586 26009 10592 41586 23504
88320 52361 23026
77999
31313 48008 82219=

0000069700
87361=
0000011200
87368=
0000015000
87382=
0000030600
87414
0000014800
87423
0000049900
87438
0000052000
87459
0000058200
87471=
0000050100
87587
0000062500
87647
0000060500
87792
0000056400
87970
0000060600
88179
0000064700
88463
0000060600
88702=
0000064900
91978
0000071100
93530
0000067000
95476
0000075300
97793
0000066900
476
USAA01 NZCM 110000
TTAA 61001 89664
99997 00056 18501 00512 ///// ///// 92601 07158 18518
85255 11341 17017 70716 21114 15006 50514 33959 24513
40666 44759 24520 30855 51765 24023 25975 45585 24514
20124 43786 24513 15318 43586 26009 10592 41586 23504
88320 52361 23026
77999
31313 48008 82219=

0000069700
87361=
0000011200
87368=
0000015000
87382
0000012800
87386=
0000045700
87427
0000045800
87444=
0000048000
87537=
0000058400
87748
0000054300
87941
0000062600
88136
0000068900
88405
0000062700
88673
0000064800
89069=
0000073200
93482
0000062900
95458
0000077400
97787
0000081400
477
USAA01 NZCM 110000
TTAA 61001 89664
99997 00056 18501 00512 ///// ///// 92601 07158 18518
85255 11341 17017 70716 21114 15006 50514 33959 24513
40666 44759 24520 30855 51765 24023 25975 45585 24514
20124 43786 24513 15318 43586 26009 10592 41586 23504
88320 52361 23026
77999
31313 48008 82219=

0000069700
87361=
0000011200
87368=
0000015000
87382
0000012800
87386
0000045600
87406=
0000047800
87429
0000015700
87445
0000049900
87465
0000054100
87473
0000050000
87488
0000052100
87521
0000054200
87549
0000056300
87594
0000062500
87639
0000070800
87764
0000072900
87952
0000056400
88128
0000064700
88406
0000056500
88679=
0000067000
91932
0000065000
93501
0000073200
95460
0000065000
97797
0000071000
478
USAA01 NZCM 110000
TTAA 61001 89664
99997 00056 18501 00512 ///// ///// 92601 07158 18518
85255 11341 17017 70716 21114 15006 50514 33959 24513
40666 44759 24520 30855 51765 24023 25975 45585 24514
20124 43786 24513 15318 43586 26009 10592 41586 23504
88320 52361 23026
77999
31313 48008 82219=

0000069700
87361=
0000011200
87368
0000009600
87371
0000035800
87378
0000037300
87381
0000039400
87385=
0000043700
87428=
0000047900
87503=
0000056300
87717
0000060500
87837
0000052300
88011
0000058500
88196
0000070900
88442
0000073000
88703=
0000064900
92000
0000067000
93609
0000065000
95519
0000071200
97808
0000075100
479
USAA01 NZCM 110000
TTAA 61001 89664
99997 00056 18501 00512 ///// ///// 92601 07158 18518
85255 11341 17017 70716 21114 15006 50514 33959 24513
40666 44759 24520 30855 51765 24023 25975 45585 24514
20124 43786 24513 15318 43586 26009 10592 41586 23504
88320 52361 23026
77999
31313 48008 82219=

0000069700
87361=
0000011200
87368
0000009600
87371
0000035800
87378
0000037300
87381
0000039400
87385=
0000043700
87428
0000047800
87442
0000056100
87461
0000047900
87477
0000056200
87486=
0000052200
87707
0000060500
87815
0000058500
88046
0000066800
88331
0000066800
88623
0000058600
89137=
0000067000
93539
0000062900
95491
0000067000
97805
0000079300
480
USAA01 NZCM 110000
TTAA 61001 89664
99997 00056 18501 00512 ///// ///// 92601 07158 18518
85255 11341 17017 70716 21114 15006 50514 33959 24513
40666 44759 24520 30855 51765 24023 25975 45585 24514
20124 43786 24513 15318 43586 26009 10592 41586 23504
88320 52361 23026
77999
31313 48008 82219=

0000069700
87361=
0000011200
87368
0000009600
87371
0000035800
87378
0000037300
87381
0000039400
87385
0000039400
87407=
0000012000
87430=
0000054100
87500
0000056200
87510
0000050100
87551
0000056300
87601
0000050100
87643
0000052200
87801=
0000056500
88854
0000058600
89303
0000064800
89867
0000066900
90813
0000069000
91968
0000058700
93508
0000069100
95462
0000065000
97788
0000068900
481
USAA01 NZCM 110000
TTAA 61001 89664
99997 00056 18501 00512 ///// ///// 92601 07158 18518
85255 11341 17017 70716 21114 15006 50514 33959 24513
40666 44759 24520 30855 51765 24023 25975 45585 24514
20124 43786 24513 15318 43586 26009 10592 41586 23504
88320 52361 23026
77999
31313 48008 82219=

0000069700
87361=
0000011200
87368
0000009600
87371
0000035800
87378
0000037300
87381=
0000039500
87413
0000041600
87422=
0000043800
87504=
0000052200
87720
0000054300
87824
0000056400
88052
0000064700
88325
0000062700
88629=
0000058700
91964
0000062900
93567
0000069100
95513
0000075300
97806
0000077200
482
USAA01 NZCM 110000
TTAA 61001 89664
99997 00056 18501 00512 ///// ///// 92601 07158 18518
85255 11341 17017 70716 21114 15006 50514 33959 24513
40666 44759 24520 30855 51765 24023 25975 45585 24514
20124 43786 24513 15318 43586 26009 10592 41586 23504
88320 52361 23026
77999
31313 48008 82219=

0000069700
87361=
0000011200
87368
0000009600
87371
0000035800
87378
0000037300
87381=
0000039500
87413
0000041600
87422
0000043700
87443
0000045800
87466
0000054100
87469
0000050000
87483
0000045900
87525
0000058300
87572=
0000060500
87890
0000058500
88060
0000058500
88345
0000062700
88676=
0000064900
91975
0000060800
93521
0000069100
95474
0000073300
97781
0000073100
483
USAA01 NZCM 110000
TTAA 61001 89664
99997 00056 18501 00512 ///// ///// 92601 07158 18518
85255 11341 17017 70716 21114 15006 50514 33959 24513
40666 44759 24520 30855 51765 24023 25975 45585 24514
20124 43786 24513 15318 43586 26009 10592 41586 23504
88320 52361 23026
77999
31313 48008 82219=

0000069700
87361=
0000011200
87368=
0000015000
87382
0000012800
87386=
0000045700
87427
0000045800
87444
0000047900
87464
0000052000
87476=
0000050100
87588
0000062500
87676
0000054300
87809
0000066700
87996
0000064700
88184
0000058500
88427
0000062700
88722=
0000058700
91979
0000060800
93528
0000069100
95481
0000071200
97810
0000075200
484
USAA01 NZCM 110000
TTAA 61001 89664
99997 00056 18501 00512 ///// ///// 92601 07158 18518
85255 11341 17017 70716 21114 15006 50514 33959 24513
40666 44759 24520 30855 51765 24023 25975 45585 24514
20124 43786 24513 15318 43586 26009 10592 41586 23504
88320 52361 23026
77999
31313 48008 82219=

0000069700
87361=
0000011200
87368=
0000015000
87382
0000012800
87386
0000045600
87406
0000047700
87410=
0000049900
87467
0000047900
87475
0000047900
87491
0000056200
87512=
0000054300
87729
0000054300
87840
0000060600
88007
0000013400
88174
0000064700
88423
0000056500
88646
0000058600
89068=
0000067000
93517
0000062900
95457
0000077400
97764
0000077200
485
USAA01 NZCM 110000
TTAA 61001 89664
99997 00056 18501 00512 ///// ///// 92601 07158 18518
85255 11341 17017 70716 21114 15006 50514 33959 24513
40666 44759 24520 30855 51765 24023 25975 45585 24514
20124 43786 24513 15318 43586 26009 10592 41586 23504
88320 52361 23026
77999
31313 48008 82219=

0000069700
87361=
0000011200
87368
0000009600
87371
0000035800
87378
0000037300
87381
0000039400
87385
0000039400
87407
0000041500
87411
0000014600
87417
0000045700
87421
0000049900
87440=
0000052100
87535=
0000052200
87749
0000056400
87945
0000058500
88121
0000054400
88389
0000062700
88652=
0000067000
91969
0000062900
93579
0000067000
95518
0000069100
97807
00000000