0000030400
766
SNVD20 KWNB 111100 RRF
BBXX
44056 11111 99362 70757 46/// ///// 1//// 91053 22200 00088 10803
20803 311// 41101 70015=
44098 11111 99428 70702 46/// ///// 1//// 91051 22200 00058 10501
20501 70007=
44097 11111 99410 70711 46/// ///// 1//// 91055 22200 00068 10402
20402 70009=
0000062700
767
SAAE31 VTBB 111100
METAR VTBS 111100Z 07006KT 350V120 9999 FEW025 SCT300 30/14 Q1013 
NOSIG=
METAR VTBD 111100Z 33008KT 9999 FEW030 SCT300 30/18 Q1013 NOSIG=
METAR VTCC 111100Z 16002KT 9999 FEW040 28/13 Q1016 A3002 NOSIG=
METAR VTBU 111100Z NIL=
METAR VTSS 111100Z 08010KT 9999 FEW020 SCT120 BKN300 28/21 Q1012
           A2989 NOSIG=
METAR VTSP 111100Z 32007KT 9999 FEW022 BKN300 28/21 Q1011 A2988
           NOSIG=
METAR VLVT 111100Z 14002KT 6000 SCT050 27/17 Q1015 NOSIG=
METAR VYMD 111100Z NIL=
METAR VYYY 111100Z NIL=
METAR VDPP 111100Z 36004KT 9999 SCT017 30/18 Q1011=
METAR VDSR 111100Z NIL=
0000003900
768
UAIN31 VABB 111055
NIL=
0000011100
769
UANT99 KDDL 111107
ARP BAW9172 5148N03105W 1107 F410 MS54 330/35 KT
GZBJB QXT AOE 111107 L41A
0000011000
770
UANT99 KDDL 111107
ARP DAL19 5301N01557W 1107 F330 MS60 246/71 KT
N834MH QXT AOE 111107 F25A
0000010900
771
UANT99 KDDL 111107
ARP SIA26 5405N02720W 1107 F390 MS58 217/57 KT
9VSKS QXT EUA 111107 J85A
0000025000
772
FTAJ31 UBBB 111100
TAF UBBB 111056Z 1112/1212 20020G30KT 8000 SCT080 530003
TX08/1112Z TN02/1203Z TEMPO 1112/1114 22026G36KT SCT010 TEMPO
1114/1116 25010KT BECMG 1116/1118 33020G30KT BKN020 BKN100 TEMPO
1118/1124 5000 BR BKN007=
0000017500
773
FTAJ31 UBBB 111000
TAF UBBG 111100Z 1112/1212 30012KT 9999 FEW040 SCT080
530003 TX12/1112Z TNM02/1202Z TEMPO 1114/1120 28016G26KT
BECMG 1202/1204 VRB04KT =
0000081300
774
USAA01 NZCM 110000
TTAA 61001 89664
99997 00056 18501 00512 ///// ///// 92601 07158 18518
85255 11341 17017 70716 21114 15006 50514 33959 24513
40666 44759 24520 30855 51765 24023 25975 45585 24514
20124 43786 24513 15318 43586 26009 10592 41586 23504
88320 52361 23026
77999
31313 48008 82219=

0000069700
87361=
0000011200
87368
0000009600
87371
0000035800
87378
0000037300
87381
0000039400
87385
0000039400
87407
0000041500
87411
0000014600
87417
0000045700
87421
0000049900
87440
0000052000
87462
0000050000
87472
0000005900
87495
0000058300
87519=
0000056400
87727
0000054300
87830
0000060500
88000
0000058500
88181
0000062700
88481
0000068900
88719
0000060700
89139=
0000062800
93566
0000062700
775
USAA01 NZCM 110000
TTAA 61001 89664
99997 00056 18501 00512 ///// ///// 92601 07158 18518
85255 11341 17017 70716 21114 15006 50514 33959 24513
40666 44759 24520 30855 51765 24023 25975 45585 24514
20124 43786 24513 15318 43586 26009 10592 41586 23504
88320 52361 23026
77999
31313 48008 82219=

0000069700
87361=
0000011200
87368=
0000015000
87382=
0000030600
87414
0000014800
87423
0000049900
87438=
0000050000
87532=
0000048100
87747
0000060500
87944
0000058500
88151
0000060600
88411
0000056500
88680=
0000058700
91989
0000071100
93559
0000066900
776
USAA01 NZCM 110000
TTAA 61001 89664
99997 00056 18501 00512 ///// ///// 92601 07158 18518
85255 11341 17017 70716 21114 15006 50514 33959 24513
40666 44759 24520 30855 51765 24023 25975 45585 24514
20124 43786 24513 15318 43586 26009 10592 41586 23504
88320 52361 23026
77999
31313 48008 82219=

0000069700
87361=
0000011200
87368=
0000015000
87382
0000012800
87386
0000045600
87406=
0000047800
87429
0000015700
87445=
0000050000
87538
0000054200
87552
0000066600
87599=
0000012800
87916
0000062600
88103
0000054400
88371
0000064800
88655
0000056500
89115=
0000060800
93575
0000068900
777
USAA01 NZCM 110000
TTAA 61001 89664
99997 00056 18501 00512 ///// ///// 92601 07158 18518
85255 11341 17017 70716 21114 15006 50514 33959 24513
40666 44759 24520 30855 51765 24023 25975 45585 24514
20124 43786 24513 15318 43586 26009 10592 41586 23504
88320 52361 23026
77999
31313 48008 82219=

0000069700
87361=
0000011200
87368=
0000015000
87382=
0000030600
87414
0000014800
87423
0000049900
87438
0000052000
87459
0000058200
87471
0000050000
87489=
0000052200
87715
0000066700
87819
0000056400
88002
0000064700
88159
0000058600
88450
0000064800
88694
0000058600
89109=
0000065000
93574
0000062700
778
USAA01 NZCM 110000
TTAA 61001 89664
99997 00056 18501 00512 ///// ///// 92601 07158 18518
85255 11341 17017 70716 21114 15006 50514 33959 24513
40666 44759 24520 30855 51765 24023 25975 45585 24514
20124 43786 24513 15318 43586 26009 10592 41586 23504
88320 52361 23026
77999
31313 48008 82219=

0000069700
87361=
0000011200
87368=
0000015000
87382
0000012800
87386=
0000045700
87427=
0000045900
87505=
0000050100
87719
0000050200
87834=
0000062700
88908
0000054500
89331
0000064800
89908
0000064900
90821
0000060700
91963
0000079400
93565
0000075100
779
USAA01 NZCM 110000
TTAA 61001 89664
99997 00056 18501 00512 ///// ///// 92601 07158 18518
85255 11341 17017 70716 21114 15006 50514 33959 24513
40666 44759 24520 30855 51765 24023 25975 45585 24514
20124 43786 24513 15318 43586 26009 10592 41586 23504
88320 52361 23026
77999
31313 48008 82219=

0000069700
87361=
0000011200
87368
0000009600
87371
0000035800
87378
0000037300
87381
0000039400
87385
0000039400
87407=
0000012000
87430
0000054000
87439
0000049900
87460
0000047900
87470
0000052100
87487
0000054200
87520
0000052100
87554
0000050100
87606=
0000048200
88093
0000062700
88368
0000066800
88648=
0000071100
91954
0000067000
93549
0000075100
780
USAA01 NZCM 110000
TTAA 61001 89664
99997 00056 18501 00512 ///// ///// 92601 07158 18518
85255 11341 17017 70716 21114 15006 50514 33959 24513
40666 44759 24520 30855 51765 24023 25975 45585 24514
20124 43786 24513 15318 43586 26009 10592 41586 23504
88320 52361 23026
77999
31313 48008 82219=

0000069700
87361=
0000011200
87368=
0000015000
87382
0000012800
87386=
0000045700
87427
0000045800
87444
0000047900
87464=
0000052100
87578
0000056300
87627
0000052200
87675
0000060500
87810
0000056400
88020
0000060600
88213
0000050300
88492
0000058600
88784
0000064800
89288
0000062800
89869
0000060700
90809
0000071100
91953
0000071100
93563
0000062700
781
USAA01 NZCM 110000
TTAA 61001 89664
99997 00056 18501 00512 ///// ///// 92601 07158 18518
85255 11341 17017 70716 21114 15006 50514 33959 24513
40666 44759 24520 30855 51765 24023 25975 45585 24514
20124 43786 24513 15318 43586 26009 10592 41586 23504
88320 52361 23026
77999
31313 48008 82219=

0000069700
87361=
0000011200
87368=
0000015000
87382
0000012800
87386=
0000045700
87427
0000045800
87444
0000047900
87464=
0000052100
87578=
0000056400
87893
0000058500
88065
0000058500
88359
0000060600
88684=
0000064900
91990
0000060800
93558
0000068900
782
USAA01 NZCM 110000
TTAA 61001 89664
99997 00056 18501 00512 ///// ///// 92601 07158 18518
85255 11341 17017 70716 21114 15006 50514 33959 24513
40666 44759 24520 30855 51765 24023 25975 45585 24514
20124 43786 24513 15318 43586 26009 10592 41586 23504
88320 52361 23026
77999
31313 48008 82219=

0000069700
87361=
0000011200
87368=
0000015000
87382=
0000030600
87414=
0000011000
87481
0000054100
87485
0000050000
87516
0000054200
87558
0000060400
87607
0000056300
87649
0000062600
87766
0000064700
87955
0000066800
88123
0000060600
88397
0000068900
88640=
0000064900
91958
0000060800
93581
0000064700
783
USAA01 NZCM 110000
TTAA 61001 89664
99997 00056 18501 00512 ///// ///// 92601 07158 18518
85255 11341 17017 70716 21114 15006 50514 33959 24513
40666 44759 24520 30855 51765 24023 25975 45585 24514
20124 43786 24513 15318 43586 26009 10592 41586 23504
88320 52361 23026
77999
31313 48008 82219=

0000069700
87361=
0000011200
87368
0000009600
87371
0000035800
87378
0000037300
87381=
0000039500
87413
0000041600
87422=
0000043800
87504=
0000052200
87720
0000054300
87824
0000056400
88052
0000064700
88325
0000062700
88629=
0000058700
91964
0000062900
93567
0000068900
784
USAA01 NZCM 110000
TTAA 61001 89664
99997 00056 18501 00512 ///// ///// 92601 07158 18518
85255 11341 17017 70716 21114 15006 50514 33959 24513
40666 44759 24520 30855 51765 24023 25975 45585 24514
20124 43786 24513 15318 43586 26009 10592 41586 23504
88320 52361 23026
77999
31313 48008 82219=

0000069700
87361=
0000011200
87368=
0000015000
87382
0000012800
87386
0000045600
87406=
0000047800
87429
0000015700
87445
0000049900
87465
0000054100
87473
0000050000
87488=
0000052200
87714
0000058400
87814
0000060500
88045
0000060600
88340
0000062700
88626
0000058600
89119=
0000067000
93550
0000073000
785
USAA01 NZCM 110000
TTAA 61001 89664
99997 00056 18501 00512 ///// ///// 92601 07158 18518
85255 11341 17017 70716 21114 15006 50514 33959 24513
40666 44759 24520 30855 51765 24023 25975 45585 24514
20124 43786 24513 15318 43586 26009 10592 41586 23504
88320 52361 23026
77999
31313 48008 82219=

0000069700
87361=
0000011200
87368
0000009600
87371
0000035800
87378
0000037300
87381
0000039400
87385
0000039400
87407
0000041500
87411
0000014600
87417=
0000041700
87480
0000060300
87494
0000052100
87511
0000058300
87573=
0000050200
87874
0000060500
88033
0000064700
88305
0000062700
88579
0000068900
89105=
0000062900
93560
00000000