0000073000
046
USAA01 NZCM 110000
TTAA 61001 89664
99997 00056 18501 00512 ///// ///// 92601 07158 18518
85255 11341 17017 70716 21114 15006 50514 33959 24513
40666 44759 24520 30855 51765 24023 25975 45585 24514
20124 43786 24513 15318 43586 26009 10592 41586 23504
88320 52361 23026
77999
31313 48008 82219=

0000069700
87361=
0000011200
87368
0000009600
87371
0000035800
87378
0000037300
87381=
0000039500
87413
0000041600
87422
0000043700
87443
0000045800
87466
0000054100
87469
0000050000
87483
0000045900
87525=
0000058400
87752
0000050200
87943
0000068800
88132
0000077100
88437
0000056500
88729=
0000071100
92033
0000077300
93686
0000114200
047
SMMI01 GABS 110000
AAXX 11004
61202 NIL=
61214 NIL=
61223 NIL=
61226 NIL=
61230 32960 63602 10254 20064 3//// 4//// 83042
  333 0//00 5//// 83365 84075=
61233 32960 70000 10260 20062 39828 40121 87072
  333 0//00 58011 87365=
61235 32960 72804 10260 20061 30002 40144 87070
  333 0//00 58009 87365=
61240 NIL=
61250 NIL=
61257 32960 63206 10245 20086 30062 40118 86040
  333 0//00 58013 86365=
61265 32960 60404 10202 20069 39811 40114 85042
  333 0//00 58000 85365 83075=
61270 32960 23606 10279 20045 39740 40107 82040
  333 0//00 59002 82465=
61272 32960 60000 10253 20101 39796 40116 86040
  333 0//00 58007 86365=
61277 32960 20000 10240 20084 39800 40118 80002
  333 0//00 58004 82075=
61285 32960 60000 10233 20094 39969 40119 85072
  333 0//00 58012 85365 83075=
61291 32960 20402 10215 20097 39693 40099 81042
  333 0//00 59001 81362=
61293 32960 20000 10227 20098 39692 40092 80002
  333 0//00 59004 82075=
61296 32960 60000 10221 20118 39711 40102 80002
  333 0//00 58001 86075=
61297 32960 30602 10245 20065 39639 40091 80002
  333 0//00 59007 83075=
0000011200
048
SMPO60 LPMG 110000 RRA
AAXX 11001
08560 32/// /36// 10073 20070 39405 40167 52002
555 60005=
0000151700
049
SMAK01 KWBC 110000 RRA
AAXX 11004
70133 32966 00405 11189 21250 30078 40084 58004 92353 333 11161
21194 555 91100=
70174 32666 40000 11289 21317 39815 40077 56003 92353 333 11278
21328 4/061 555 91100=
70200 32966 40512 11111 21183 30035 40042 58002 92353 333 11094
21122 4/046 555 91100=
70219 32366 60409 11106 21117 39918 49974 58011 92353 333 11083
21106 555 91100=
70231 11458 83403 11167 21194 39891 40025 56003 69901 771// 92353
333 11117 21178 4/048 555 91100=
70261 32866 20000 11261 21294 39851 40032 58003 92353 333 11167
21267 555 91100=
70267 11566 60000 11167 21194 39530 40037 58004 69931 771// 92353
333 11167 21178 555 91100=
70271 17640 83303 11089 21106 39373 49969 58008 69951 710// 92353
333 11083 21100 555 91100=
70273 11261 83304 11033 21050 39895 49955 58008 69901 771// 92353
333 11028 21033 555 91100=
70316 11466 81511 10028 21006 39887 49924 56019 69901 761// 92353
333 10039 21017 555 91100=
70326 32266 60505 11022 21023 39950 49965 56014 92354 333 11022
555 91100=
70340 32466 83005 11028 21039 39918 49980 58009 92353 333 11022
21044 555 91100=
70350 32666 40000 10022 21039 39922 49964 58014 92353 333 10028
21039 555 91100=
70361 11148 80000 10000 20000 39941 49952 56007 60021 771// 92353
333 10017 20000 4/020 96010 555 91100=
70381 12466 8//05 10028 20000 39973 49981 58015 69901 92353 333
10033 20017 555 91100=
70414 32364 83628 10000 20000 39717 49755 51001 92356 333 10006
21005 91034 555 91100=
0000023700
050
SMCA01 KWBC 110000 RRA
AAXX 11004
78526 12566 40807 10250 20211 30163 40185 53014 69931 92356 333
10294 20239 555 91100=
78543 15966 00812 10250 20172 30102 40184 53014 69901 92353 333
10289 20239 91022 555 91100=
0000371200
051
SMUS04 KWBC 110000 RRA
AAXX 11004
72688 32766 82216 10094 20011 39623 40161 58006 92353 333 10094
20061 91021 555 91100=
72693 12566 81909 10106 20078 30049 40188 56027 69901 92354 333
10117 20083 555 91100=
72698 11566 81809 10111 20072 30160 40168 56032 69931 761// 92353
333 10111 20094 555 91100=
72772 32766 82718 10050 21056 38734 40114 51023 92353 333 10072
21027 91032 555 91100=
72773 12766 80000 10033 21006 39008 40149 51016 69931 92353 333
10039 21016 555 91100=
72776 32966 02511 10022 21044 38776 40072 51024 92353 333 10056
20000 555 91100=
72777 35966 02811 10017 21033 39112 40037 52022 92353 333 10033
21028 555 91100=
72785 32566 82114 10039 20011 39273 40140 53012 92353 333 10044
20006 555 91100=
72791 17456 81811 10106 20078 30135 40139 58022 60021 761// 92355
333 10117 20094 91024 555 91100=
72792 11648 81803 10078 20067 30079 40151 56031 60021 761// 92354
333 10083 20072 96010 555 91100=
72311 11120 80806 10078 20072 39905 40201 56007 60011 710// 92351
333 10083 20033 555 91100=
72323 12566 81305 10106 20083 39924 40152 58008 60011 92353 333
10122 20067 555 91100=
72407 11108 90000 10050 20050 30221 40264 56013 60031 741// 92354
333 10056 21049 555 91100=
72422 32566 21407 10100 20072 39770 40128 58028 92354 333 10117
20033 555 91100=
72423 32566 81506 10100 20083 39944 40120 56020 92356 333 10117
20022 555 91100=
72435 11658 81609 10094 20078 39937 40080 56044 60011 763// 92353
333 10094 20022 96010 555 91100=
72440 11562 81514 10089 20078 39552 40009 58016 60021 92352 333
10094 20011 555 91100=
72446 12366 82707 10039 20028 39632 40012 53008 69901 92353 333
10056 21010 555 91100=
72450 32766 42504 10028 21017 39553 40037 53014 92353 333 10089
20017 555 91100=
72464 35966 02915 10056 21133 38491 40080 53023 92353 333 10100
21032 91024 555 91100=
72476 32966 00705 11039 21067 38523 40187 53006 92353 333 10006
21122 555 91100=
72515 32362 81505 10006 21011 39638 40240 56010 92353 333 10011
21061 555 91100=
72525 31158 61311 10039 20028 39743 40178 58026 710// 8/500 92351
333 10044 21016 555 91100=
72529 32566 81405 10044 20006 39986 40208 56016 92354 333 10044
21055 4/003 555 91100=
72532 11259 81612 10039 20033 39778 40026 58032 60171 761// 92354
333 10039 21010 96010 555 91100=
72535 11216 81710 10039 20022 39804 40090 58019 60111 763// 92354
333 10039 21032 96010 555 91100=
72536 11104 81306 10022 20022 39869 40126 57034 69931 710// 92352
333 10033 21043 555 91100=
72539 11256 81510 10028 20017 39782 40103 58035 69951 710// 92353
333 10028 21055 555 91100=
72543 11258 81709 10022 20017 39763 40032 58031 60171 761// 92354
333 10022 21038 4/025 96010 555 91100=
72544 11359 81810 10044 20033 39786 40006 56032 60071 761// 92352
333 10044 21021 96010 555 91100=
72550 11456 83004 10006 21006 39647 40022 52005 69901 710// 92352
333 10017 21032 555 91100=
72551 11459 82803 10006 21006 39591 40025 51009 69901 710// 92354
333 10017 21021 555 91100=
72556 37859 42903 11006 21017 39457 40018 51012 710// 92356 333
10044 21017 555 91100=
72562 15966 42904 11006 21017 39061 40056 53012 69931 92353 333
10061 21044 555 91100=
72567 35966 23406 10028 21067 39120 40045 51015 92352 333 10078
21027 555 91100=
72617 32866 81808 10006 21039 30117 40250 56007 92354 333 10006
21100 4/010 555 91100=
72636 11316 81411 10022 20006 39844 40076 57037 60081 763// 92355
333 10022 21049 4/030 96010 555 91100=
72641 11262 81408 10017 20006 39710 40025 56038 60021 92353 333
10017 21056 4/015 555 91100=
72644 11520 80603 11011 21028 39530 40018 56019 60011 771// 92354
333 11006 21083 555 91100=
0000062700
052
USAA01 NZCM 110000
TTAA 61001 89664
99997 00056 18501 00512 ///// ///// 92601 07158 18518
85255 11341 17017 70716 21114 15006 50514 33959 24513
40666 44759 24520 30855 51765 24023 25975 45585 24514
20124 43786 24513 15318 43586 26009 10592 41586 23504
88320 52361 23026
77999
31313 48008 82219=

0000069700
87361=
0000011200
87368=
0000015000
87382
0000012800
87386=
0000045700
87427=
0000045900
87505
0000050000
87526=
0000050200
87744
0000056400
87939
0000064700
88138
0000058500
88441
0000062700
88732=
0000069100
92031
0000073200
93684
0000073100
053
USAA01 NZCM 110000
TTAA 61001 89664
99997 00056 18501 00512 ///// ///// 92601 07158 18518
85255 11341 17017 70716 21114 15006 50514 33959 24513
40666 44759 24520 30855 51765 24023 25975 45585 24514
20124 43786 24513 15318 43586 26009 10592 41586 23504
88320 52361 23026
77999
31313 48008 82219=

0000069700
87361=
0000011200
87368
0000009600
87371
0000035800
87378
0000037300
87381
0000039400
87385
0000039400
87407=
0000012000
87430
0000054000
87439
0000049900
87460=
0000048000
87541=
0000054300
87724
0000058500
87828=
0000062700
88880
0000064800
89352
0000060700
89960
0000069000
90865
0000067000
92036
0000065000
93705
0000075100
054
USAA01 NZCM 110000
TTAA 61001 89664
99997 00056 18501 00512 ///// ///// 92601 07158 18518
85255 11341 17017 70716 21114 15006 50514 33959 24513
40666 44759 24520 30855 51765 24023 25975 45585 24514
20124 43786 24513 15318 43586 26009 10592 41586 23504
88320 52361 23026
77999
31313 48008 82219=

0000069700
87361=
0000011200
87368=
0000015000
87382
0000012800
87386
0000045600
87406
0000047700
87410=
0000049900
87467
0000047900
87475
0000047900
87491
0000056200
87512
0000054200
87550
0000058400
87597
0000062500
87670
0000054300
87796
0000062600
87990
0000058500
88183=
0000062800
89983
0000066900
90878
0000069000
92055
0000067000
93699
0000073000
055
USAA01 NZCM 110000
TTAA 61001 89664
99997 00056 18501 00512 ///// ///// 92601 07158 18518
85255 11341 17017 70716 21114 15006 50514 33959 24513
40666 44759 24520 30855 51765 24023 25975 45585 24514
20124 43786 24513 15318 43586 26009 10592 41586 23504
88320 52361 23026
77999
31313 48008 82219=

0000069700
87361=
0000011200
87368
0000009600
87371
0000035800
87378
0000037300
87381=
0000039500
87413
0000041600
87422=
0000043800
87504
0000052100
87527
0000058300
87571
0000052200
87616
0000058400
87667
0000056400
87778
0000062600
87965
0000056500
88167
0000073000
88480
0000066900
88717
0000071000
89166=
0000067000
93638
0000075100
056
USAA01 NZCM 110000
TTAA 61001 89664
99997 00056 18501 00512 ///// ///// 92601 07158 18518
85255 11341 17017 70716 21114 15006 50514 33959 24513
40666 44759 24520 30855 51765 24023 25975 45585 24514
20124 43786 24513 15318 43586 26009 10592 41586 23504
88320 52361 23026
77999
31313 48008 82219=

0000069700
87361=
0000011200
87368=
0000015000
87382
0000012800
87386
0000045600
87406
0000047700
87410
0000049800
87416=
0000045800
87478
0000043800
87484
0000050000
87523
0000054200
87562
0000060400
87623
0000056300
87678
0000064600
87811
0000068800
87998
0000062600
88186
0000062700
88471
0000060600
88740=
0000062900
92025
0000073200
93696
0000079200
057
USAA01 NZCM 110000
TTAA 61001 89664
99997 00056 18501 00512 ///// ///// 92601 07158 18518
85255 11341 17017 70716 21114 15006 50514 33959 24513
40666 44759 24520 30855 51765 24023 25975 45585 24514
20124 43786 24513 15318 43586 26009 10592 41586 23504
88320 52361 23026
77999
31313 48008 82219=

0000069700
87361=
0000011200
87368
0000009600
87371
0000035800
87378
0000037300
87381
0000039400
87385
0000039400
87407
0000041500
87411
0000014600
87417
0000045700
87421
0000049900
87440
0000052000
87462
0000050000
87472
0000005900
87495
0000058300
87519
0000056300
87548
0000056300
87600=
0000052300
88063
0000060600
88322
0000062700
88587
0000014700
89153=
0000079400
93666
0000085400
058
USAA01 NZCM 110000
TTAA 61001 89664
99997 00056 18501 00512 ///// ///// 92601 07158 18518
85255 11341 17017 70716 21114 15006 50514 33959 24513
40666 44759 24520 30855 51765 24023 25975 45585 24514
20124 43786 24513 15318 43586 26009 10592 41586 23504
88320 52361 23026
77999
31313 48008 82219=

0000069700
87361=
0000011200
87368
0000009600
87371
0000035800
87378
0000037300
87381
0000039400
87385
0000039400
87407
0000041500
87411
0000014600
87417
0000045700
87421
0000049900
87440
0000052000
87462
0000050000
87472
0000005900
87495
0000058300
87519
0000056300
87548
0000056300
87600
0000062500
87655
0000054300
87765
0000062600
87953
0000058500
88149
0000060600
88438
0000062700
88693
0000068900
89181=
0000069100
93672
0000068900
059
USAA01 NZCM 110000
TTAA 61001 89664
99997 00056 18501 00512 ///// ///// 92601 07158 18518
85255 11341 17017 70716 21114 15006 50514 33959 24513
40666 44759 24520 30855 51765 24023 25975 45585 24514
20124 43786 24513 15318 43586 26009 10592 41586 23504
88320 52361 23026
77999
31313 48008 82219=

0000069700
87361=
0000011200
87368
0000009600
87371
0000035800
87378
0000037300
87381
0000039400
87385=
0000043700
87428
0000047800
87442
0000056100
87461
0000047900
87477=
0000056300
87584=
0000052300
87914
0000058500
88105
0000054400
88384
0000060600
88660
0000075100
89188=
0000069100
93714
0000064800
060
USAA01 NZCM 110000
TTAA 61001 89664
99997 00056 18501 00512 ///// ///// 92601 07158 18518
85255 11341 17017 70716 21114 15006 50514 33959 24513
40666 44759 24520 30855 51765 24023 25975 45585 24514
20124 43786 24513 15318 43586 26009 10592 41586 23504
88320 52361 23026
77999
31313 48008 82219=

0000069700
87361=
0000011200
87368=
0000015000
87382
0000012800
87386
0000045600
87406=
0000047800
87429=
0000005900
87506
0000058300
87508
0000054200
87566
0000056300
87622=
0000052300
88108
0000064700
88373
0000066800
88665=
0000058700
91988
0000077300
93663
0000071000
061
USAA01 NZCM 110000
TTAA 61001 89664
99997 00056 18501 00512 ///// ///// 92601 07158 18518
85255 11341 17017 70716 21114 15006 50514 33959 24513
40666 44759 24520 30855 51765 24023 25975 45585 24514
20124 43786 24513 15318 43586 26009 10592 41586 23504
88320 52361 23026
77999
31313 48008 82219=

0000069700
87361=
0000011200
87368=
0000015000
87382
0000012800
87386
0000045600
87406
0000047700
87410
0000049800
87416
0000051900
87420
0000047800
87441=
0000045900
87536
0000052100
87559=
0000054300
87869
0000068800
88016
0000068800
88209
0000066800
88489
0000068900
88771
0000071000
89204=
0000071200
93673
0000037500
062
UPMI01 GABS 110000
PPAA 60231 61202 NIL=
PPAA 60231 61214 NIL=
PPAA 60231 61223 NIL=
PPAA 60231 61226 NIL=
PPAA 60231 61233 NIL=
PPAA 60231 61257 NIL=
PPAA 60231 61265 55285 08007 15008 77999=
PPAA 60231 61272 NIL=
PPAA 60238 61291 44385 10503 14519 22515 44340 22016 26045 27555
44320 29058 26072 23037 77143  26574 42441 77195 29065 42133=
0000064800
063
USAA01 NZCM 110000
TTAA 61001 89664
99997 00056 18501 00512 ///// ///// 92601 07158 18518
85255 11341 17017 70716 21114 15006 50514 33959 24513
40666 44759 24520 30855 51765 24023 25975 45585 24514
20124 43786 24513 15318 43586 26009 10592 41586 23504
88320 52361 23026
77999
31313 48008 82219=

0000069700
87361=
0000011200
87368=
0000015000
87382
0000012800
87386
0000045600
87406=
0000047800
87429=
0000005900
87506=
0000058400
87701
0000056400
87813
0000058500
88012
0000056500
88204
0000062700
88475
0000068900
88739
0000066900
89194=
0000071200
93704
0000075100
064
USAA01 NZCM 110000
TTAA 61001 89664
99997 00056 18501 00512 ///// ///// 92601 07158 18518
85255 11341 17017 70716 21114 15006 50514 33959 24513
40666 44759 24520 30855 51765 24023 25975 45585 24514
20124 43786 24513 15318 43586 26009 10592 41586 23504
88320 52361 23026
77999
31313 48008 82219=

0000069700
87361=
0000011200
87368=
0000015000
87382
0000012800
87386
0000045600
87406
0000047700
87410
0000049800
87416=
0000045800
87478
0000043800
87484
0000050000
87523
0000054200
87562
0000060400
87623
0000056300
87678
0000064600
87811
0000068800
87998
0000062600
88186
0000062700
88471
0000060600
88740
0000062800
89209=
0000071100
93685
0000066800
065
USAA01 NZCM 110000
TTAA 61001 89664
99997 00056 18501 00512 ///// ///// 92601 07158 18518
85255 11341 17017 70716 21114 15006 50514 33959 24513
40666 44759 24520 30855 51765 24023 25975 45585 24514
20124 43786 24513 15318 43586 26009 10592 41586 23504
88320 52361 23026
77999
31313 48008 82219=

0000069700
87361=
0000011200
87368
0000009600
87371
0000035800
87378
0000037300
87381=
0000039500
87413=
0000052000
87479
0000056200
87492=
0000046000
87710
0000056400
87802
0000060500
87978
0000058500
88163
0000060600
88449
0000058600
88738=
0000069100
92035
0000065000
93701
00000000