0000021200
026
SAIN34 VOMM 111110
METAR VOHS 111110Z 21005KT 5000 HZ SCT020 29/11 Q1015 NOSIG=
METAR VOMM 111110Z 09006KT 8000 NSC 27/19 Q1012 NOSIG=
METAR VOTR 111110Z 09008KT 7000 FEW016 29/19 Q1012 NOSIG=
0000009300
027
SAIN35 VIDP 111100 RRA
METAR VAUD 111100Z 05006KT 4000 HZ NSC 18/05 Q1018=

0000010800
028
SSVF50 LFPW 110740 RRA
ZZYY 61289 11014 0740/ 143208 005230 22219 00141 10301 20030
21005=
0000010800
029
SSVF50 LFPW 110810 RRA
ZZYY 61289 11014 0810/ 143208 005230 22219 00140 10301 20030
21005=
0000010800
030
SSVF50 LFPW 110840 RRA
ZZYY 61289 11014 0840/ 143208 005230 22219 00140 10301 20030
21004=
0000017200
031
SSVF50 LFPW 110850 RRA
ZZYY 62078 11014 0850/ 747239 002787 22219 00072 10801 20080
21007=
ZZYY 62067 11014 0850/ 746833 002295 22219 10701 20068 21007=
0000018000
032
SSVF50 LFPW 110910 RRA
ZZYY 61289 11014 0910/ 143208 005230 22219 00140 10301 20030
21004=
ZZYY 61431 11014 0910/ 143411 004163 22219 00124 10401 20040
21004=
0000017200
033
SSVF50 LFPW 110920 RRA
ZZYY 62078 11014 0920/ 747239 002787 22219 00072 10901 20090
21007=
ZZYY 62067 11014 0920/ 746833 002295 22219 10702 20070 21008=
0000017200
034
SSVF50 LFPW 110935 RRA
ZZYY 62066 11014 0935/ 743532 001615 22219 00120 10902 20090
21009=
ZZYY 62064 11014 0935/ 744653 001447 22219 10802 20080 21010=
0000060400
035
SSVF50 LFPW 110940 RRA
ZZYY 62074 11014 0940/ 747285 003285 22219 00100 11003 20100
21013=
ZZYY 61289 11014 0940/ 143208 005230 22219 00140 10301 20030
21004=
ZZYY 62069 11014 0940/ 748290 004968 22219 00111 11104 20110
21018=
ZZYY 62068 11014 0940/ 748717 003961 22219 00110 10400 20040
21002=
ZZYY 62059 11014 0940/ 749695 001620 22219 10502 20050 21009=
ZZYY 62079 11014 0940/ 743403 001674 22219 00124 11002 20100
21010=
ZZYY 61431 11014 0940/ 143411 004163 22219 00125 10401 20040
21004=
ZZYY 61191 11014 0940/ 142917 003125 22219 00123 10401 20040
21003=
0000017200
036
SSVF50 LFPW 111005 RRA
ZZYY 62066 11014 1005/ 743532 001615 22219 00120 10902 20090
21010=
ZZYY 62064 11014 1005/ 744653 001447 22219 10902 20090 21010=
0000046000
037
SSVF50 LFPW 111010 RRA
ZZYY 62074 11014 1010/ 747285 003285 22219 00100 11003 20100
21015=
ZZYY 62079 11014 1010/ 743403 001674 22219 00125 10902 20090
21009=
ZZYY 61289 11014 1010/ 143208 005230 22219 00140 10301 20030
21004=
ZZYY 62069 11014 1010/ 748290 004968 22219 00111 11104 20110
21019=
ZZYY 61191 11014 1010/ 142917 003125 22219 00124 10401 20040
21004=
ZZYY 62059 11014 1010/ 749695 001620 22219 10502 20050 21009=
0000010800
038
SSVF50 LFPW 111035 RRA
ZZYY 61188 11014 1035/ 142490 003168 22219 00125 10401 20040
21003=
0000010800
039
SSVF50 LFPW 111105 RRA
ZZYY 61188 11014 1105/ 142490 003168 22219 00128 10401 20040
21003=
0000193400
040
SSVX08 KARS 111118
ZZYY 13009 10014 1200/ 707921 038091 6112/
33311 88872 20020 32610 43576 20040 32400 43600 20060 31970
20080 31678 20100 31490 20120 31356 43539 20140 31220 20180 31104
20300 30960 20500 30782
444 20120 10014 1149/ 521//=
ZZYY 13009 11014 1100/ 707931 038092 6112/
444 20120 11014 0904/ 521//=
ZZYY 41139 10014 12004 720011 037854 6111/
11119 00712 10215 29077 40201
22219 00240
33311 88872 20000 32402 20001 32404 43696 20020 32402 43706
20040 32402 43702 20060 32404 43704 20080 32410 20100 32351
20120 32230 20140 32151 20180 31985 20300 31610 20500 31215
444 20110 10014 1145/ 521// 60401=
ZZYY 41139 11014 11004 720010 037859 6111/
11119 00710 10231 29072 40191
22219 00240
444 20110 11014 0913/ 521// 60401=
ZZYY 13002 10014 1200/ 720444 023132 6112/
33311 88872 20001 32153 43671 20020 32152 20040 32148 43670
20080 32043 20100 31854 20120 31779 20140 31775 20180 31731
20300 31467 20500 31069
444 20120 10014 1140/ 521//=
ZZYY 13002 11014 11004 720447 023140 6111/
11119 00508 10204 29074
22219 00215
444 20110 11014 1031/ 521// 60401=
ZZYY 41026 10014 1200/ 711497 037983 6112/
33311 88872 20001 32570 43597 20060 32563 20080 32137 20100 31693
20120 31445 43565 20140 31329 20180 31230 20300 31062 20500 30906
444 20120 10014 1148/ 521//=
ZZYY 41026 11014 1100/ 711505 037975 6112/
11119 10248 29075
22219 00257
444 20120 11014 0904/ 521//=
ZZYY 31006 10014 1200/ 704046 022978 6112/
33311 88872 20020 32744 43552 20040 32744 43571 20060 32327 43631
20080 31725 20100 31599 20120 31538 20140 31497 20180 31438
20300 31160 20500 30741
444 20120 10014 1148/ 521//=
ZZYY 13001 10014 1200/ 711462 022996 6112/
33311 88872 20001 32484 43550 20020 32484 43550 20040 32396 43558
20060 31761 43573 20080 31533 20100 31428 20120 31372 20140 31336
20180 31261 20300 31119 20500 30953
444 20120 10014 1146/ 521//=
0000110200
041
SSWB41 RKSL 111100
ZZYY 21229 11014 11001 13746/ 13111/ 
11109 02705 10051 40270 5//// 
22209 00130 10602 20058 21012= 
ZZYY 22101 11014 11001 13724/ 12602/ 
11109 01903 10027 40305 5//// 
22209 00053 10501 20049 21004= 
ZZYY 22102 11014 11001 13479/ 12578/ 
11109 03403 10043 40309 5//// 
22209 00069 10501 20046 21004= 
ZZYY 22103 11014 11001 13400/ 12750/ 
11109 03205 10054 40303 5//// 
22209 00143 10302 20025 21011= 
ZZYY 22104 11014 11001 13477/ 12890/ 
11109 03502 10057 40300 5//// 
22209 00150 10701 20071 21006= 
ZZYY 22105 11014 11001 13754/ 13000/ 
11109 02605 10053 40275 5//// 
22209 00120 10502 20046 21009= 
ZZYY 22106 11014 11001 13635/ 12978/ 
11109 02806 10050 40286 5//// 
22209 00115 10602 20058 21010= 
ZZYY 22107 11014 11001 13308/ 12603/ 
11109 00207 10083 40306 5//// 
22209 00162 10401 20036 21005= 
ZZYY 22108 11014 11001 13625/ 12575/ 
11109 02905 10044 40308 5//// 
22209 00066 10501 20046 21006= 
ZZYY 22183 11014 11001 13473/ 12624/ 
11109 03503 10039 40314 5//// 
22209 00069 10200 20021 21001= 
0000028600
042
SXHW11 KWAL 111120
B14036D2 011112013"
1,140111,10:15:00,10.2,72,12.1,0.0,1015.1,0.00,13.1,
1,140111,10:30:00,10.3,77,12.6,0.0,1015.0,0.00,13.1,
1,140111,10:45:00,8.9,79,12.8,0.0,1015.0,0.00,13.1,
1,140111,11:00:00,10.7,80,12.7,0.0,1014.8,0.00,13.1, 48-0NN  30W
0000027900
043
SXHW11 KWAL 111120
B1404042 011112023"
1,140111,10:15:00,2.9,86,7.2,0.0,1014.4,3.00,11.8,
1,140111,10:30:00,4.9,76,8.3,0.0,1014.3,3.00,11.8,
1,140111,10:45:00,5.1,72,7.3,0.0,1014.2,3.00,11.8,
1,140111,11:00:00,5.1,71,7.8,0.0,1014.0,3.00,11.8, 44-0NN  30W
0000011700
044
FTIQ01 ORBI 111120
TAF ORNI 111000Z 1112/1212 27015KT 4000 BR BKN040 TEMPO 1115/1120
30006KT 2000 =
0000010600
045
SAIR31 OIII 111100 RRB
 METAR OIZC 111100Z 13006KT CAVOK 21/M11 Q1020 A3012 SCT080 BKN170=
00000000