0000073000
486
USAA01 NZCM 110000
TTAA 61001 89664
99997 00056 18501 00512 ///// ///// 92601 07158 18518
85255 11341 17017 70716 21114 15006 50514 33959 24513
40666 44759 24520 30855 51765 24023 25975 45585 24514
20124 43786 24513 15318 43586 26009 10592 41586 23504
88320 52361 23026
77999
31313 48008 82219=

0000069700
87361=
0000011200
87368
0000009600
87371
0000035800
87378
0000037300
87381
0000039400
87385
0000039400
87407
0000041500
87411
0000014600
87417
0000045700
87421
0000049900
87440
0000052000
87462
0000050000
87472=
0000058400
87593
0000060500
87638
0000060500
87800
0000060500
87975=
0000054500
89421
0000060700
90097=
0000068900
487
USAA01 NZCM 110000
TTAA 61001 89664
99997 00056 18501 00512 ///// ///// 92601 07158 18518
85255 11341 17017 70716 21114 15006 50514 33959 24513
40666 44759 24520 30855 51765 24023 25975 45585 24514
20124 43786 24513 15318 43586 26009 10592 41586 23504
88320 52361 23026
77999
31313 48008 82219=

0000069700
87361=
0000011200
87368=
0000015000
87382
0000012800
87386
0000045600
87406
0000047700
87410
0000049800
87416
0000051900
87420
0000047800
87441
0000045800
87463
0000047900
87474
0000054100
87493=
0000052200
87702
0000058400
87777
0000066700
87968
0000060600
88160=
0000056600
90027=
0000064800
488
USAA01 NZCM 110000
TTAA 61001 89664
99997 00056 18501 00512 ///// ///// 92601 07158 18518
85255 11341 17017 70716 21114 15006 50514 33959 24513
40666 44759 24520 30855 51765 24023 25975 45585 24514
20124 43786 24513 15318 43586 26009 10592 41586 23504
88320 52361 23026
77999
31313 48008 82219=

0000069700
87361=
0000011200
87368=
0000015000
87382
0000012800
87386
0000045600
87406
0000047700
87410
0000049800
87416
0000051900
87420
0000047800
87441
0000045800
87463
0000047900
87474=
0000054200
87591
0000060500
87658=
0000058500
88222=
0000060700
90085=
0000077200
489
USAA01 NZCM 110000
TTAA 61001 89664
99997 00056 18501 00512 ///// ///// 92601 07158 18518
85255 11341 17017 70716 21114 15006 50514 33959 24513
40666 44759 24520 30855 51765 24023 25975 45585 24514
20124 43786 24513 15318 43586 26009 10592 41586 23504
88320 52361 23026
77999
31313 48008 82219=

0000069700
87361=
0000011200
87368
0000009600
87371
0000035800
87378
0000037300
87381=
0000039500
87413
0000041600
87422
0000043700
87443
0000045800
87466=
0000054200
87540
0000048000
87567
0000050100
87610
0000056300
87645
0000060500
87781
0000058500
87966
0000068800
88155
0000064800
88454
0000060700
88743=
0000058700
92030
0000062900
93809
0000071200
95895
0000008900
490
SPIN90 VIGR 110900
SPECI VIGR 110900Z 32004KT 1500 BR FEW250 20/08 Q1017=
0000011600
491
SIIN90 VIGR 110900
AAXX 11094
42361 31994 23204 10200 20076 40169 71000 80001
  333 58029 82075=
0000068900
492
USAA01 NZCM 110000
TTAA 61001 89664
99997 00056 18501 00512 ///// ///// 92601 07158 18518
85255 11341 17017 70716 21114 15006 50514 33959 24513
40666 44759 24520 30855 51765 24023 25975 45585 24514
20124 43786 24513 15318 43586 26009 10592 41586 23504
88320 52361 23026
77999
31313 48008 82219=

0000069700
87361=
0000011200
87368=
0000015000
87382
0000012800
87386
0000045600
87406
0000047700
87410=
0000049900
87467
0000047900
87475
0000047900
87491
0000056200
87512
0000054200
87550
0000058400
87597
0000062500
87670
0000054300
87796
0000062600
87990=
0000071000
89393
0000071000
90046=
0000075100
493
USAA01 NZCM 110000
TTAA 61001 89664
99997 00056 18501 00512 ///// ///// 92601 07158 18518
85255 11341 17017 70716 21114 15006 50514 33959 24513
40666 44759 24520 30855 51765 24023 25975 45585 24514
20124 43786 24513 15318 43586 26009 10592 41586 23504
88320 52361 23026
77999
31313 48008 82219=

0000069700
87361=
0000011200
87368
0000009600
87371
0000035800
87378
0000037300
87381
0000039400
87385
0000039400
87407
0000041500
87411
0000014600
87417
0000045700
87421
0000049900
87440
0000052000
87462
0000050000
87472
0000005900
87495
0000058300
87519
0000056300
87548=
0000056400
87866
0000052300
88017=
0000054500
89423
0000073100
90093=
0000075100
494
USAA01 NZCM 110000
TTAA 61001 89664
99997 00056 18501 00512 ///// ///// 92601 07158 18518
85255 11341 17017 70716 21114 15006 50514 33959 24513
40666 44759 24520 30855 51765 24023 25975 45585 24514
20124 43786 24513 15318 43586 26009 10592 41586 23504
88320 52361 23026
77999
31313 48008 82219=

0000069700
87361=
0000011200
87368
0000009600
87371
0000035800
87378
0000037300
87381
0000039400
87385
0000039400
87407
0000041500
87411
0000014600
87417
0000045700
87421
0000049900
87440
0000052000
87462
0000050000
87472
0000005900
87495
0000058300
87519=
0000056400
87727
0000054300
87830
0000060500
88000
0000058500
88181=
0000056600
90094=
0000062700
495
USAA01 NZCM 110000
TTAA 61001 89664
99997 00056 18501 00512 ///// ///// 92601 07158 18518
85255 11341 17017 70716 21114 15006 50514 33959 24513
40666 44759 24520 30855 51765 24023 25975 45585 24514
20124 43786 24513 15318 43586 26009 10592 41586 23504
88320 52361 23026
77999
31313 48008 82219=

0000069700
87361=
0000011200
87368
0000009600
87371
0000035800
87378
0000037300
87381=
0000039500
87413=
0000052000
87479=
0000056300
87590
0000058400
87644=
0000060600
88269
0000056500
88535
0000062700
89026
0000068900
89628=
0000071200
95898
0000005200
496
RRIN23 VECC 110029
RQRPT 239-260=

0000008300
497
FTIN90 VECC 110000
TAF VTBD 110000Z NIL=
TAF VTCC 110000Z NIL=

0000249800
498
SMIN31 VECC 110000
AAXX 11004
42042 NIL=
42216 NIL=
42220 32996 33208 10136 20097 40171 83030
  333 58007 83360=
42295 NIL=
42296 NIL=
42299 NIL=
42305 NIL=
42309 31994 30000 10078 20069 40172 70500 83030
  333 58017=
42311 NIL=
42312 NIL=
42314 31997 10000 10092 20080 40171 71044 81030
  333 58006 81360=
42316 NIL=
42382 NIL=
42387 NIL=
42390 NIL=
42390 NIL=
42391 NIL=
42393 NIL=
42395 NIL=
42398 NIL=
42399 NIL=
42403 NIL=
42404 NIL=
42407 NIL=
42409 NIL=
42410 31994 00000 10114 20114 40167 71000
  333 58002=
42413 NIL=
42414 NIL=
42415 31994 30000 10110 20102 40190 71000 83030
  333 58010 83360=
42419 NIL=
42420 NIL=
42423 NIL=
42426 NIL=
42480 NIL=
42487 NIL=
42488 NIL=
42492 NIL=
42498 NIL=
42499 NIL=
42500 NIL=
42503 31993 00000 10148 20126 40167 74444
  333 58009=
42506 NIL=
42511 NIL=
42514 NIL=
42515 NIL=
42516 32996 00000 10098 21026 38427 48424
  333 58051=
42522 NIL=
42523 NIL=
42527 NIL=
42586 NIL=
42587 NIL=
42588 NIL=
42591 NIL=
42595 NIL=
42599 NIL=
42603 NIL=
42618 31/91 90000 10106 20102 40174 74511 89///
  333 58013=
42619 31994 00000 10096 20092 40164 71000
  333 58010=
42620 NIL=
42623 31394 20000 10052 20048 39283 40199 71000 82600
  333 58009 82708=
42699 NIL=
42701 NIL=
42703 NIL=
42704 NIL=
42705 NIL=
42707 NIL=
42708 NIL=
42709 NIL=
42710 NIL=
42711 NIL=
42714 NIL=
42724 31994 00000 10086 20073 40161 71000
  333 58010=
42727 NIL=
42793 NIL=
42795 NIL=
42798 NIL=
42799 NIL=
42802 NIL=
42803 NIL=
42805 NIL=
42807 31995 00000 10140 20129 40154 71000
  333 59004=
42809 31994 00000 10120 20105 40152 71000
  333 58003=
42810 NIL=
42811 NIL=
42812 NIL=
42838 NIL=
42859 NIL=
42883 NIL=
42886 31995 00501 10164 20147 40139 74040
  333 58002=
42891 NIL=
42894 NIL=
42900 NIL=
42901 31995 03601 10126 20115 40146 70500
  333 58004=
42903 NIL=
42942 NIL=
42961 NIL=
42963 NIL=
42966 NIL=
42969 NIL=
42970 NIL=
42971 31994 00502 10170 20146 40148 71000
  333 58001=
42976 NIL=
42977 NIL=
43049 31995 03602 10188 20178 40149 70500
  333 58004=
43053 32996 03603 10188 20165 40150
  333 58007=
43097 NIL=
43309 NIL=
43310 NIL=
43333 31495 70504 10256 20233 40128 70522 84431
  333 56299 58009 82618 83820 85070=
43364 NIL=
43367 NIL=
43368 NIL=
43382 NIL=
43382 NIL=
43385 NIL=
0000060700
499
USAA01 NZCM 110000
TTAA 61001 89664
99997 00056 18501 00512 ///// ///// 92601 07158 18518
85255 11341 17017 70716 21114 15006 50514 33959 24513
40666 44759 24520 30855 51765 24023 25975 45585 24514
20124 43786 24513 15318 43586 26009 10592 41586 23504
88320 52361 23026
77999
31313 48008 82219=

0000069700
87361=
0000011200
87368=
0000015000
87382
0000012800
87386
0000045600
87406=
0000047800
87429
0000015700
87445=
0000050000
87538
0000054200
87552=
0000066700
87865
0000056400
88009
0000054400
88205=
0000060700
90038=
0000006100
500
AAUK99 EGRR 110030
Socket stay alive message.
0000064800
501
USAA01 NZCM 110000
TTAA 61001 89664
99997 00056 18501 00512 ///// ///// 92601 07158 18518
85255 11341 17017 70716 21114 15006 50514 33959 24513
40666 44759 24520 30855 51765 24023 25975 45585 24514
20124 43786 24513 15318 43586 26009 10592 41586 23504
88320 52361 23026
77999
31313 48008 82219=

0000069700
87361=
0000011200
87368=
0000015000
87382
0000012800
87386=
0000045700
87427
0000045800
87444
0000047900
87464
0000052000
87476=
0000050100
87588=
0000062600
88115=
0000058700
89933
0000062800
90826
0000062900
92096
0000058700
93813
0000075300
95894
0000316200
502
SMRA17 RUHB 110000
AAXX 11001
24790 41684 50403 11223 21236 39347 40212 52007 70272 82570 333 21289
55000=
24894 41999 80306 11222 21263 39095 40185 52007 73673 80005=
24898 41999 10204 11231 21288 39427 40192 52011 73630 80030 333
21233=
24982 42999 73502 11159 21210 39598 40116 52006 86031 333 55007=
24988 42999 83603 11109 21205 39835 40092 52007 86037=
25034 NIL=
25378 41998 03413 11150 21220 30146 40176 51002 73730 333 91019
91119=
25503 41999 03201 11354 21377 30109 40254 52004 70270 333 21355
55000=
25627 41998 40000 11375 21399 39242 40234 57004 77671 82031=
25648 41598 80207 11172 21198 30040 40098 57008 73632 87500=
25700 42699 10000 11435 21457 39814 40279 52006 81531 333 21435=
25705 41998 73301 11239 21257 39869 40226 52007 77172 87070 333
55000=
25707 42999 80000 11235 21247 39761 40236 52009 8801/=
25715 42999 60302 11270 21288 39520 40200 58002 86030=
25808 41999 80000 11346 21362 39274 40254 52007 70272 80005=
25820 42699 60205 11131 21195 30081 40096 55003 86500 333 91010
91113=
25904 41699 20303 11235 21292 39490 40188 53013 70230 81501 333
21236=
25916 41698 70404 11101 21164 39970 40055 52008 71522 86570 333 55000
91112=
25919 41699 40110 11118 21190 30051 40068 52006 70231 82901 333 91016
91125=
25922 41699 20108 11140 21211 30048 40092 52004 73732 82500 333 21146
55001 91011 91116=
25927 NIL=
25932 NIL=
25941 11599 70910 11170 21204 30035 40054 53002 60000 73631 87500 333
21180 55021 91014 91118=
31083 NIL=
31096 41599 71403 11124 21186 30013 40081 53012 73632 82901 333 21126
91013 91122=
31152 42997 83401 11358 21401 39874 40336 52007 85036 333 21386
55000=
31174 41597 73206 11214 21247 30131 40143 52004 77173 87500 333 21214
55000 91010 91114=
31489 42998 00000 11391 21434 30057 40193 52007 333 21409=
31866 42999 02001 11161 21303 30169 40173 50003=
31959 82998 02602 11147 21261 30196 40242 51012 333 21169 55083=
31989 42599 12202 11102 21211 30210 40267 53009 81100=
32027 42999 52002 11226 21266 30105 40114 54000 82032 333 55070 91003
91105=
32076 42998 02703 11244 21284 30101 40112 53006 333 55055 91004
91105=
32099 42598 73608 11168 21194 30116 40124 53002 87900 333 55000 91009
91112=
32121 41497 83007 11144 21187 30110 40134 53003 78583 889// 333 55003
91011 91113=
32213 11497 83520 11036 21046 39841 49904 53014 60002 73632 886// 333
21056=
32222 42999 70502 11150 21192 39992 40016 53012 87030 333 55000=
32287 41496 81403 11163 21182 39960 49971 54000 78582 889// 333 55024
88713=
32333 11598 81005 11042 21096 39977 49989 52006 60062 72682 884// 333
21071=
32408 41497 80203 11063 21071 39945 49974 50003 78582 889// 333
55000=
32411 41498 60802 11152 21162 39955 49962 53007 70282 85601 333 55000
21153=
32509 41599 70410 11031 21099 39923 49957 52008 70232 82570 333 21036
55000 91013 91117=
32519 41596 63102 11046 21066 39940 49960 51009 78583 86900 333
21052=
32562 41595 80301 11082 21089 39915 49954 52012 78583 889// 333 55019
91110 92980=
32594 41495 80211 11058 21066 39895 49931 52010 78583 889// 333 91016
91120 92982=
0000083400
503
USAA01 NZCM 110000
TTAA 61001 89664
99997 00056 18501 00512 ///// ///// 92601 07158 18518
85255 11341 17017 70716 21114 15006 50514 33959 24513
40666 44759 24520 30855 51765 24023 25975 45585 24514
20124 43786 24513 15318 43586 26009 10592 41586 23504
88320 52361 23026
77999
31313 48008 82219=

0000069700
87361=
0000011200
87368
0000009600
87371
0000035800
87378
0000037300
87381
0000039400
87385
0000039400
87407
0000041500
87411
0000014600
87417
0000045700
87421
0000049900
87440
0000052000
87462
0000050000
87472
0000005900
87495
0000058300
87519
0000056300
87548
0000056300
87600
0000062500
87655=
0000062700
88220
0000066800
88497
0000062700
88783=
0000064900
92141
0000064900
93851
0000067000
95921
0000058600
504
USAA01 NZCM 110000
TTAA 61001 89664
99997 00056 18501 00512 ///// ///// 92601 07158 18518
85255 11341 17017 70716 21114 15006 50514 33959 24513
40666 44759 24520 30855 51765 24023 25975 45585 24514
20124 43786 24513 15318 43586 26009 10592 41586 23504
88320 52361 23026
77999
31313 48008 82219=

0000069700
87361=
0000011200
87368=
0000015000
87382
0000012800
87386=
0000045700
87427
0000045800
87444
0000047900
87464=
0000052100
87578=
0000056400
87893=
0000056500
88922
0000064800
89378
0000066900
90032=
0000071000
505
USAA01 NZCM 110000
TTAA 61001 89664
99997 00056 18501 00512 ///// ///// 92601 07158 18518
85255 11341 17017 70716 21114 15006 50514 33959 24513
40666 44759 24520 30855 51765 24023 25975 45585 24514
20124 43786 24513 15318 43586 26009 10592 41586 23504
88320 52361 23026
77999
31313 48008 82219=

0000069700
87361=
0000011200
87368
0000009600
87371
0000035800
87378
0000037300
87381
0000039400
87385
0000039400
87407=
0000012000
87430=
0000054100
87500
0000056200
87510
0000050100
87551
0000056300
87601
0000050100
87643=
0000054400
88257
0000056500
88527
0000060700
89058
0000071000
89637=
0000062900
95908
00000000