0000058600
126
USAA01 NZCM 110000
TTAA 61001 89664
99997 00056 18501 00512 ///// ///// 92601 07158 18518
85255 11341 17017 70716 21114 15006 50514 33959 24513
40666 44759 24520 30855 51765 24023 25975 45585 24514
20124 43786 24513 15318 43586 26009 10592 41586 23504
88320 52361 23026
77999
31313 48008 82219=

0000069700
87361=
0000011200
87368=
0000015000
87382=
0000030600
87414
0000014800
87423=
0000050000
87499
0000062400
87518
0000056300
87544
0000054200
87611=
0000058500
88081=
0000066900
89884
0000066900
90790=
0000073100
127
USAA01 NZCM 110000
TTAA 61001 89664
99997 00056 18501 00512 ///// ///// 92601 07158 18518
85255 11341 17017 70716 21114 15006 50514 33959 24513
40666 44759 24520 30855 51765 24023 25975 45585 24514
20124 43786 24513 15318 43586 26009 10592 41586 23504
88320 52361 23026
77999
31313 48008 82219=

0000069700
87361=
0000011200
87368
0000009600
87371
0000035800
87378
0000037300
87381=
0000039500
87413
0000041600
87422=
0000043800
87504
0000052100
87527
0000058300
87571
0000052200
87616
0000058400
87667=
0000060600
88239
0000056500
88511
0000068900
88764=
0000064900
92047
0000056700
93753
0000071200
95813
0000060800
98190
0000068900
128
USAA01 NZCM 110000
TTAA 61001 89664
99997 00056 18501 00512 ///// ///// 92601 07158 18518
85255 11341 17017 70716 21114 15006 50514 33959 24513
40666 44759 24520 30855 51765 24023 25975 45585 24514
20124 43786 24513 15318 43586 26009 10592 41586 23504
88320 52361 23026
77999
31313 48008 82219=

0000069700
87361=
0000011200
87368
0000009600
87371
0000035800
87378
0000037300
87381
0000039400
87385=
0000043700
87428=
0000047900
87503
0000056200
87524
0000048000
87543
0000056300
87596
0000054300
87636
0000052200
87806=
0000056500
88841
0000064800
89290
0000066900
89868
0000062800
90753=
0000108800
129
SMKR21 DKPY 110000
AAXX 11001
47003 32980 00000 11150 21177 30272 40276 52007 333 21168=
47005 32980 00000 11199 21225 38609 58013 333 21209=
47022 32975 03403 11153 21213 38869 52011 333 21175=
47028 32467 21802 11131 21151 30218 40320 52001 82600 333 21142=
47031 32970 00000 11245 21270 38973 53009 333 21269=
47037 32970 00000 11132 21145 30195 40326 53020 333 21148=
47039 32960 00000 11169 21188 30152 40362 52002 333 21177=
47046 32969 03201 11105 21141 30275 40299 53007 333 21122=
47050 32965 00000 11112 21147 30279 40315 54000 333 21130=
47052 32965 00000 11144 21157 39982 40351 52029 333 21152=
47060 31940 01403 11066 21082 30263 40325 52006 71000 333 21070=
47061 32980 03202 11007 21117 30250 40296 52009 333 21028=
47065 32970 00000 11079 21101 30266 40333 52011 333 21087=
47067 31960 00000 11115 21143 30226 40356 52044 71020 333 21125=
47068 32960 00901 11074 21087 30292 40329 52006 333 21084=
47070 32570 20000 11074 21080 30248 40341 52012 82500 333 21089=
47075 32970 00000 11111 21124 30013 40475 52015 333 21132=
0000323300
130
SMKR22 DKPY 110000
AAXX 11001
47090 32970 00902 10003 21117 30279 40302 52008 333 21024 30104
92011=
47095 11958 00000 11082 21096 30139 40341 52015 69902 71100 333
21105 34107=
47097 329// /2901 11068 21089 30241 40344 52013 333 21093 3/103=
47098 329// /0001 11077 21093 30194 40338 52015 333 21090 3/105=
47099 329// /0000 11088 21107 30299 40338 52013 333 21113 3/105=
47100 12970 02710 11076 21124 39357 40324 50016 69902 333 21092
3/108 41///=
47102 12670 61106 11007 21086 30143 40328 52010 69902 86500 333
21012 3/101 42///=
47104 32970 01603 11012 21134 30203 40304 52004 333 21059 30103=
47106 329// /1103 10006 21117 30255 40306 52009 333 21021 3/103=
47112 12966 20204 11027 21094 30244 40332 52013 69902 80001 333
21036 34102 92012=
47114 32660 20502 11063 21084 30148 40342 52012 82500 333 21083
30104=
47119 11920 00000 11047 21055 30295 40340 52015 69902 71000 333
21074 34104=
47121 329// /0000 11088 21104 30033 40348 52012 333 21104 3/107=
47127 329// /0000 11058 21083 30195 40345 52011 333 21090 3/103=
47129 11640 60201 11036 21040 30302 40340 52011 69912 71022 85500
333 21075 3/000 48///=
47130 32968 42307 11009 21105 30252 40316 52011 80001 333 21054
30102 92023=
47131 11658 50000 11026 21049 30265 40339 52013 69902 71021 85500
333 21047 34102=
47135 329// /2503 11025 21079 30025 40338 52012 333 21048 3/102=
47136 31656 12901 11074 21104 30158 40342 52014 71010 81500 333
21093 30106=
47137 329// /0001 11039 21082 30212 40337 52011 333 21052 3/104=
47140 11650 60703 11016 21034 30308 40338 52011 69902 71022 86500
333 21036 34101 92022=
47143 329// /0501 11014 21077 30261 40344 52010 333 21029 3/101=
47145 11650 50000 11039 21051 30304 40331 52014 69902 71022 85500
333 21064 30103=
47146 31659 73601 11001 21057 30271 40340 52011 70522 87500 333
21027 34001=
47150 12661 60202 11011 21044 30313 40333 52009 69902 86500 333
21047 34101=
47152 32965 23203 10008 21092 30282 40326 52011 80001 333 21017
30102=
47154 329// /0000 11032 21071 30276 40340 52011 333 21060 3/103=
47155 32960 00000 10005 21082 30287 40335 52012 333 21023 30000=
47156 11659 42501 11007 21042 30249 40342 52008 69902 70511 84500
333 21024 34000=
47157 12660 40000 11028 21092 30044 40333 52008 69902 84500 333
21052 34102=
47162 32961 03203 11007 21058 30294 40336 52010 333 21026 34101
92021=
47169 12670 30502 10031 21034 30243 40340 52009 69902 83500 333
20026 31000 92031=
47170 32970 02901 10003 21037 30297 40342 52007 333 21017 34000
92021=
47171 NIL=
47172 129// /0000 11007 21033 30264 40333 52008 69902 333 21024
3/000=
47173 329// /0501 11035 21059 30174 40339 52010 333 21053 3/101=
47174 32962 20001 11029 21065 30124 40336 51009 80001 333 21057
30101=
47175 12970 03204 11016 21073 39744 40341 53003 69902 333 21038
3/000 43002 92022=
47185 12965 23611 10041 21029 30238 40332 52011 69902 80001 333
20038 31003 92034=
47188 12670 23605 10035 21024 30309 40331 52013 69902 81500 333
20026 31002 92022=
47189 32670 40201 10045 21017 30260 40322 52012 81530 333 20038
30002 92021=
47192 31950 20000 11045 21071 30301 40341 52011 71000 80001 333
21086 34103=
0000068900
131
USAA01 NZCM 110000
TTAA 61001 89664
99997 00056 18501 00512 ///// ///// 92601 07158 18518
85255 11341 17017 70716 21114 15006 50514 33959 24513
40666 44759 24520 30855 51765 24023 25975 45585 24514
20124 43786 24513 15318 43586 26009 10592 41586 23504
88320 52361 23026
77999
31313 48008 82219=

0000069700
87361=
0000011200
87368
0000009600
87371
0000035800
87378
0000037300
87381=
0000039500
87413
0000041600
87422=
0000043800
87504
0000052100
87527
0000058300
87571
0000052200
87616
0000058400
87667
0000056400
87778=
0000062700
88826
0000060700
89321
0000073100
89826
0000075200
90734=
0000066900
132
USAA01 NZCM 110000
TTAA 61001 89664
99997 00056 18501 00512 ///// ///// 92601 07158 18518
85255 11341 17017 70716 21114 15006 50514 33959 24513
40666 44759 24520 30855 51765 24023 25975 45585 24514
20124 43786 24513 15318 43586 26009 10592 41586 23504
88320 52361 23026
77999
31313 48008 82219=

0000069700
87361=
0000011200
87368=
0000015000
87382
0000012800
87386
0000045600
87406=
0000047800
87429
0000015700
87445
0000049900
87465
0000054100
87473
0000050000
87488=
0000052200
87714
0000058400
87814=
0000058600
88882
0000060700
89344
0000060700
89936=
0000058800
98184
0000073100
133
USAA01 NZCM 110000
TTAA 61001 89664
99997 00056 18501 00512 ///// ///// 92601 07158 18518
85255 11341 17017 70716 21114 15006 50514 33959 24513
40666 44759 24520 30855 51765 24023 25975 45585 24514
20124 43786 24513 15318 43586 26009 10592 41586 23504
88320 52361 23026
77999
31313 48008 82219=

0000069700
87361=
0000011200
87368
0000009600
87371
0000035800
87378
0000037300
87381
0000039400
87385=
0000043700
87428
0000047800
87442
0000056100
87461=
0000021900
87579=
0000050200
87870
0000054300
88010
0000064700
88198
0000060600
88477
0000068900
88745
0000062800
89199=
0000071200
93740
0000071200
95859
0000067100
98213
0000066900
134
USAA01 NZCM 110000
TTAA 61001 89664
99997 00056 18501 00512 ///// ///// 92601 07158 18518
85255 11341 17017 70716 21114 15006 50514 33959 24513
40666 44759 24520 30855 51765 24023 25975 45585 24514
20124 43786 24513 15318 43586 26009 10592 41586 23504
88320 52361 23026
77999
31313 48008 82219=

0000069700
87361=
0000011200
87368=
0000015000
87382=
0000030600
87414
0000014800
87423
0000049900
87438=
0000050000
87532
0000048000
87568
0000056300
87609
0000068700
87654=
0000060600
88235
0000056500
88509
0000062700
88776
0000052400
89247
0000066900
89830
0000075200
90767=
0000068900
135
USAA01 NZCM 110000
TTAA 61001 89664
99997 00056 18501 00512 ///// ///// 92601 07158 18518
85255 11341 17017 70716 21114 15006 50514 33959 24513
40666 44759 24520 30855 51765 24023 25975 45585 24514
20124 43786 24513 15318 43586 26009 10592 41586 23504
88320 52361 23026
77999
31313 48008 82219=

0000069700
87361=
0000011200
87368
0000009600
87371
0000035800
87378
0000037300
87381
0000039400
87385
0000039400
87407
0000041500
87411
0000014600
87417=
0000041700
87480
0000060300
87494
0000052100
87511=
0000010400
87753=
0000064800
88812
0000064800
89280
0000066900
89856
0000064900
90791=
0000013200
136
SAIN90 VIDP 110030
METAR VIDP 110030Z 00000KT 0200 R28/1500 R29/0500 FG VV/// 06/05
      Q1017
     BECMG 0150=
0000069600
137
FCIN90 VILK 110000 CCA
TAF VILK 110000Z 1103/1112 VRB02KT 0300 FG VV/// BECMG 1104/1106
0800 MIFG/BR SCT020 BKN100 BECMG 1106/1108 32004KT 2000 HZ TEMPO
1106/1112 0800 RA/TSRA FEW030CB OVC090=
TAF VIBN 110000Z 1103/1112 VRB02KT 0300 FG VV/// BECMG 1104/1106
0800 MIFG/BR SCT020 BKN100 BECMG 1106/1108 32004KT 2000 HZ TEMPO
1106/1112 0800 RA/TSRA FEW030CB OVC090=
TAF VICX 110000Z 1103/1112 VRB02KT 0300 FG VV/// BECMG 1104/1106
0800 MIFG/BR SCT020 BKN100 BECMG 1106/1108 32004KT 2000 HZ TEMPO
1106/1112 0800 RA/TSRA FEW030CB OVC090=
TAF VIDN 110000Z 1103/1112 00000KT 1500 HZ/BR SCT020 SCT080
BECMG 1106/1108 11004KT 3000 HZ TEMPO 1106/1112 FEW030CB BKN080=

0000071000
138
USAA01 NZCM 110000
TTAA 61001 89664
99997 00056 18501 00512 ///// ///// 92601 07158 18518
85255 11341 17017 70716 21114 15006 50514 33959 24513
40666 44759 24520 30855 51765 24023 25975 45585 24514
20124 43786 24513 15318 43586 26009 10592 41586 23504
88320 52361 23026
77999
31313 48008 82219=

0000069700
87361=
0000011200
87368
0000009600
87371
0000035800
87378
0000037300
87381
0000039400
87385
0000039400
87407
0000041500
87411
0000014600
87417
0000045700
87421
0000049900
87440
0000052000
87462
0000050000
87472=
0000058400
87593=
0000060600
87906
0000060600
88089=
0000060700
89886
0000064900
90777=
0000068900
139
USAA01 NZCM 110000
TTAA 61001 89664
99997 00056 18501 00512 ///// ///// 92601 07158 18518
85255 11341 17017 70716 21114 15006 50514 33959 24513
40666 44759 24520 30855 51765 24023 25975 45585 24514
20124 43786 24513 15318 43586 26009 10592 41586 23504
88320 52361 23026
77999
31313 48008 82219=

0000069700
87361=
0000011200
87368
0000009600
87371
0000035800
87378
0000037300
87381
0000039400
87385
0000039400
87407
0000041500
87411
0000014600
87417
0000045700
87421
0000049900
87440=
0000052100
87535=
0000052200
87749=
0000056500
88806
0000066900
89283
0000062800
89859
0000071100
90749=
0000071000
140
USAA01 NZCM 110000
TTAA 61001 89664
99997 00056 18501 00512 ///// ///// 92601 07158 18518
85255 11341 17017 70716 21114 15006 50514 33959 24513
40666 44759 24520 30855 51765 24023 25975 45585 24514
20124 43786 24513 15318 43586 26009 10592 41586 23504
88320 52361 23026
77999
31313 48008 82219=

0000069700
87361=
0000011200
87368=
0000015000
87382
0000012800
87386
0000045600
87406
0000047700
87410
0000049800
87416
0000051900
87420=
0000047900
87502
0000013400
87528
0000052100
87563
0000054200
87615
0000064600
87668
0000064600
87793=
0000058600
88852
0000058600
89295
0000064800
89874
0000058700
90755=
0000073100
141
USAA01 NZCM 110000
TTAA 61001 89664
99997 00056 18501 00512 ///// ///// 92601 07158 18518
85255 11341 17017 70716 21114 15006 50514 33959 24513
40666 44759 24520 30855 51765 24023 25975 45585 24514
20124 43786 24513 15318 43586 26009 10592 41586 23504
88320 52361 23026
77999
31313 48008 82219=

0000069700
87361=
0000011200
87368=
0000015000
87382=
0000030600
87414
0000014800
87423
0000049900
87438
0000052000
87459
0000058200
87471
0000050000
87489
0000052100
87522
0000058300
87546
0000054200
87595=
0000058500
88096=
0000062800
89935
0000056600
90841
0000060800
92089
0000073200
93795
0000067000
95851
0000062900
98219
0000064800
142
USAA01 NZCM 110000
TTAA 61001 89664
99997 00056 18501 00512 ///// ///// 92601 07158 18518
85255 11341 17017 70716 21114 15006 50514 33959 24513
40666 44759 24520 30855 51765 24023 25975 45585 24514
20124 43786 24513 15318 43586 26009 10592 41586 23504
88320 52361 23026
77999
31313 48008 82219=

0000069700
87361=
0000011200
87368=
0000015000
87382
0000012800
87386
0000045600
87406
0000047700
87410
0000049800
87416
0000051900
87420
0000047800
87441=
0000045900
87536=
0000052200
87739
0000056400
87935
0000064700
88130=
0000062800
89990=
0000073300
98215
0000066900
143
USAA01 NZCM 110000
TTAA 61001 89664
99997 00056 18501 00512 ///// ///// 92601 07158 18518
85255 11341 17017 70716 21114 15006 50514 33959 24513
40666 44759 24520 30855 51765 24023 25975 45585 24514
20124 43786 24513 15318 43586 26009 10592 41586 23504
88320 52361 23026
77999
31313 48008 82219=

0000069700
87361=
0000011200
87368=
0000015000
87382
0000012800
87386
0000045600
87406
0000047700
87410=
0000049900
87467
0000047900
87475
0000047900
87491
0000056200
87512
0000054200
87550=
0000058500
87863=
0000052400
88871
0000064800
89326
0000056600
89898
0000056600
90775=
0000075100
144
USAA01 NZCM 110000
TTAA 61001 89664
99997 00056 18501 00512 ///// ///// 92601 07158 18518
85255 11341 17017 70716 21114 15006 50514 33959 24513
40666 44759 24520 30855 51765 24023 25975 45585 24514
20124 43786 24513 15318 43586 26009 10592 41586 23504
88320 52361 23026
77999
31313 48008 82219=

0000069700
87361=
0000011200
87368
0000009600
87371
0000035800
87378
0000037300
87381
0000039400
87385
0000039400
87407
0000041500
87411
0000014600
87417
0000045700
87421
0000049900
87440
0000052000
87462
0000050000
87472
0000005900
87495=
0000058400
87712
0000050200
87812=
0000062700
88858
0000062700
89310
0000062800
89847
0000064900
90744=
0000064800
145
USAA01 NZCM 110000
TTAA 61001 89664
99997 00056 18501 00512 ///// ///// 92601 07158 18518
85255 11341 17017 70716 21114 15006 50514 33959 24513
40666 44759 24520 30855 51765 24023 25975 45585 24514
20124 43786 24513 15318 43586 26009 10592 41586 23504
88320 52361 23026
77999
31313 48008 82219=

0000069700
87361=
0000011200
87368=
0000015000
87382
0000012800
87386=
0000045700
87427
0000045800
87444=
0000048000
87537
0000058300
87569
0000050100
87626
0000052200
87673
0000054300
87808=
0000066800
88857
0000071000
89296
0000066900
89873
0000075200
90758=
00000000