0000079300
186
USAA01 NZCM 110000
TTAA 61001 89664
99997 00056 18501 00512 ///// ///// 92601 07158 18518
85255 11341 17017 70716 21114 15006 50514 33959 24513
40666 44759 24520 30855 51765 24023 25975 45585 24514
20124 43786 24513 15318 43586 26009 10592 41586 23504
88320 52361 23026
77999
31313 48008 82219=

0000069700
87361=
0000011200
87368
0000009600
87371
0000035800
87378
0000037300
87381
0000039400
87385
0000039400
87407
0000041500
87411
0000014600
87417=
0000041700
87480
0000060300
87494
0000052100
87511
0000058300
87573
0000050100
87608
0000056300
87640=
0000064700
88244
0000060600
88522=
0000064900
90998
0000077300
92263
0000077300
93991
0000069100
96111
0000075400
98572
0000062800
187
USAA01 NZCM 110000
TTAA 61001 89664
99997 00056 18501 00512 ///// ///// 92601 07158 18518
85255 11341 17017 70716 21114 15006 50514 33959 24513
40666 44759 24520 30855 51765 24023 25975 45585 24514
20124 43786 24513 15318 43586 26009 10592 41586 23504
88320 52361 23026
77999
31313 48008 82219=

0000069700
87361=
0000011200
87368
0000009600
87371
0000035800
87378
0000037300
87381
0000039400
87385
0000039400
87407=
0000012000
87430=
0000054100
87500
0000056200
87510=
0000050200
87730=
0000056400
88303
0000060600
88577=
0000064900
91333=
0000077200
188
USAA01 NZCM 110000
TTAA 61001 89664
99997 00056 18501 00512 ///// ///// 92601 07158 18518
85255 11341 17017 70716 21114 15006 50514 33959 24513
40666 44759 24520 30855 51765 24023 25975 45585 24514
20124 43786 24513 15318 43586 26009 10592 41586 23504
88320 52361 23026
77999
31313 48008 82219=

0000069700
87361=
0000011200
87368
0000009600
87371
0000035800
87378
0000037300
87381
0000039400
87385=
0000043700
87428
0000047800
87442
0000056100
87461
0000047900
87477
0000056200
87486=
0000052200
87707
0000060500
87815=
0000058600
88906
0000060700
89381
0000077200
90007
0000062800
90885
0000058700
92208
0000067000
93927
0000073200
96102
0000083600
98537
0000066900
189
USAA01 NZCM 110000
TTAA 61001 89664
99997 00056 18501 00512 ///// ///// 92601 07158 18518
85255 11341 17017 70716 21114 15006 50514 33959 24513
40666 44759 24520 30855 51765 24023 25975 45585 24514
20124 43786 24513 15318 43586 26009 10592 41586 23504
88320 52361 23026
77999
31313 48008 82219=

0000069700
87361=
0000011200
87368
0000009600
87371
0000035800
87378
0000037300
87381
0000039400
87385
0000039400
87407=
0000012000
87430=
0000054100
87500
0000056200
87510
0000050100
87551=
0000056400
87867
0000056400
88039
0000054400
88308
0000052400
88569=
0000058700
91334=
0000079300
190
USAA01 NZCM 110000
TTAA 61001 89664
99997 00056 18501 00512 ///// ///// 92601 07158 18518
85255 11341 17017 70716 21114 15006 50514 33959 24513
40666 44759 24520 30855 51765 24023 25975 45585 24514
20124 43786 24513 15318 43586 26009 10592 41586 23504
88320 52361 23026
77999
31313 48008 82219=

0000069700
87361=
0000011200
87368
0000009600
87371
0000035800
87378
0000037300
87381
0000039400
87385
0000039400
87407
0000041500
87411
0000014600
87417
0000045700
87421=
0000050000
87501
0000056200
87513
0000060400
87556
0000054200
87613
0000052200
87648=
0000060600
88245
0000060600
88519=
0000058700
91016
0000060800
92300
0000079400
93996
0000058800
96114
0000065000
98545
0000075200
191
USAA01 NZCM 110000
TTAA 61001 89664
99997 00056 18501 00512 ///// ///// 92601 07158 18518
85255 11341 17017 70716 21114 15006 50514 33959 24513
40666 44759 24520 30855 51765 24023 25975 45585 24514
20124 43786 24513 15318 43586 26009 10592 41586 23504
88320 52361 23026
77999
31313 48008 82219=

0000069700
87361=
0000011200
87368
0000009600
87371
0000035800
87378
0000037300
87381=
0000039500
87413
0000041600
87422
0000043700
87443
0000045800
87466=
0000054200
87540
0000048000
87567
0000050100
87610
0000056300
87645=
0000064700
88246
0000066800
88521=
0000013400
91019
0000075200
92304
0000073200
93974
0000071200
96107
0000077400
98571
0000075200
192
USAA01 NZCM 110000
TTAA 61001 89664
99997 00056 18501 00512 ///// ///// 92601 07158 18518
85255 11341 17017 70716 21114 15006 50514 33959 24513
40666 44759 24520 30855 51765 24023 25975 45585 24514
20124 43786 24513 15318 43586 26009 10592 41586 23504
88320 52361 23026
77999
31313 48008 82219=

0000069700
87361=
0000011200
87368
0000009600
87371
0000035800
87378
0000037300
87381
0000039400
87385
0000039400
87407=
0000012000
87430
0000054000
87439
0000049900
87460
0000047900
87470=
0000052200
87585
0000052200
87663=
0000064700
88226
0000062700
88500=
0000060800
90987
0000067000
92291
0000067000
93985
0000075300
96108
0000071200
98549
0000058600
193
USAA01 NZCM 110000
TTAA 61001 89664
99997 00056 18501 00512 ///// ///// 92601 07158 18518
85255 11341 17017 70716 21114 15006 50514 33959 24513
40666 44759 24520 30855 51765 24023 25975 45585 24514
20124 43786 24513 15318 43586 26009 10592 41586 23504
88320 52361 23026
77999
31313 48008 82219=

0000069700
87361=
0000011200
87368
0000009600
87371
0000035800
87378
0000037300
87381=
0000039500
87413=
0000052000
87479=
0000056300
87590
0000058400
87644=
0000060600
88269
0000056500
88535=
0000062800
91358=
0000290700
194
SMRA13 RUNW 110000
AAXX 11001
20046 41598 72308 11114 21125 30088 40118 58009 73632 8553/=
20069 12980 51902 11260 21284 30164 40184 58009 60002 82031 333 21282
48014=
20087 11498 81701 11276 21303 30199 40210 58007 69922 77172 8653/ 333
21300 48016 86615 93535=
20292 11498 50000 11240 21252 30209 40230 57003 69912 70282 82531 333
21253 48020=
20353 NIL=
20471 12998 30302 11345 21381 30162 40180 57006 60002 80001 333 21364
48010 93583=
20476 12998 01001 11363 21397 30160 40176 56005 60002 333 21388
48005=
20667 41998 03607 11258 21282 30134 40142 53009 73630=
20674 11997 80606 11286 21315 30057 40123 58005 69932 77173 8807/ 333
21328 48018=
20744 42998 11402 11262 21317 30188 40208 52006 80001=
20871 11996 50809 11287 21312 30097 40105 53003 60002 73732 85030 333
21307 47024 91112 96110 96510=
20891 11996 01003 11352 21367 30120 40168 57008 60002 71000 333 21416
47019=
20946 NIL=
20967 42998 23407 11275 21301 30049 40075 52021 80001=
20978 11896 81405 11288 21318 30054 40094 53020 69932 77173 82037 333
21289 47076 91112=
23022 42997 02903 11281 21308 30115 40187 52007=
23032 NIL=
23058 41997 62307 11280 21307 30045 40050 52014 73632 86030 333
91110=
23174 11897 82306 11274 21304 60022 77173 8801/ 333 21274 48062=
23179 11897 81504 11214 21239 30021 40149 5//// 60032 77173 8807/ 333
21216 47101 55///=
23242 41994 62811 11262 21280 30105 40122 52018 73832 86030 333
91114=
23256 41996 82308 11332 21369 30088 40128 52013 77173 80006 333 91012
91114=
23330 41997 01803 11357 21386 30147 40171 52009 70271=
23345 41997 02707 11355 21383 30154 40165 52017 70230 333 91110=
23376 11996 80603 11242 21281 30032 40172 5//// 60012 77173 8802/ 333
21254 48092=
23445 42997 01903 11362 21407 30156 40185 52013=
23463 NIL=
23527 42984 60000 11318 21341 30141 40183 52005 86040=
23552 42997 02001 11367 21397 30158 40198 52012=
23631 42998 00000 11322 21352 30134 40180 57001=
23662 42998 00000 11333 21362 30158 40209 52017=
23724 42998 83602 11218 21236 30088 40158 52007 8805/=
23734 42998 80000 11228 21253 30074 40174 58002 8802/=
23774 NIL=
23776 118// 81801 11135 21162 30140 40206 52002 60012 77177 8802/ 333
21171 47053=
23849 42796 40803 11267 21297 30115 40197 52005 84500 333 84650=
23867 41996 82301 11098 21110 30112 40187 52016 77172 8802/=
23933 41596 80201 11211 21239 30110 40171 58003 77172 8657/ 333
86632=
28064 42598 81101 11066 21078 30036 40125 57002 885//=
28275 41596 81302 11038 21053 30093 40154 52005 78582 889//=
28493 42497 82003 11056 21078 30116 40210 52007 885// 333 88612=
28698 41596 81902 11069 21089 30078 40238 52005 77172 885// 333
88633=
29059 118// 80000 11112 21132 30097 40233 52001 69962 77172 8807/ 333
21149 47070=
29558 11998 82502 11072 21127 39886 40297 52005 60002 70232 80006 333
21072 47003 55021 91110=
0000214900
195
SMRA14 RUNW 110000
AAXX 11001
23339 42999 01901 11354 21383 30125 40177 52012=
23358 41997 22504 11381 21409 30085 40176 51011 70530 80001=
23426 42984 00000 11398 21448 30151 40179 52005=
23431 42998 01202 11372 21407 30156 40181 52005=
23443 41998 32302 11369 21397 30106 40181 52013 77670 80001=
23453 42997 02303 11356 21390 30143 40177 52014=
23465 42998 02002 11337 21359 30155 40191 52022=
23471 41498 80303 11130 21143 30116 40189 52012 72272 885// 333
88617=
23625 42998 02801 11314 21350 30135 40173 52003=
23635 42997 01001 11391 21417 30090 40217 52007=
23656 42998 00000 11353 21390 30118 40215 52018=
23657 42998 02101 11366 21402 30029 40221 52009=
23741 42/// /0701 11299 21332 30087 40208 51007=
23748 42998 30202 11298 21315 30109 40205 52007 80001=
23758 41997 00000 11314 21336 30108 40207 52016 70271=
23823 41996 80701 11206 21231 30017 40169 54000 77172 8802/=
23847 42597 80501 11242 21274 30142 40189 52004 885//=
23862 NIL=
23929 42576 80803 11094 21106 30062 40130 57002 889//=
23939 42598 80502 11112 21132 30113 40155 58003 883//=
23946 41997 80301 11123 21150 30119 40184 52005 77172 8807/=
23947 41997 80701 11076 21085 30096 40167 52003 77872 8807/=
28076 42497 80902 11053 21060 30073 40146 54000 886//=
28097 41996 80000 11072 21085 30097 40176 54000 77172 8802/=
28165 41444 81701 11030 21030 30024 40127 54000 77172 8872/=
28366 41999 81902 11039 21061 30081 40148 52001 70272 8802/=
28367 41470 81504 11044 21064 30010 40140 54000 78587 8497/=
28382 41998 81802 11044 21067 30107 40179 52007 70272 8802/=
28481 42997 82003 11062 21077 30087 40188 51002 8802/=
28491 42997 81802 11061 21084 30085 40199 52010 8802/=
28465 42998 81705 11060 21079 30075 40154 52002 8802/=
28573 41497 82005 11072 21097 30084 40191 54000 73632 886// 333
88710=
28593 42997 81903 11063 21086 30122 40223 52003 8807/=
28786 41596 81904 11068 21088 30073 40235 57008 77173 8802/ 333 88529
91111=
28797 41697 82303 11082 21101 30085 40249 51002 70272 885// 333
88639=
28799 41597 82204 11085 21109 30113 40263 52004 73673 8802/ 333
88520=
0000066900
196
USAA01 NZCM 110000
TTAA 61001 89664
99997 00056 18501 00512 ///// ///// 92601 07158 18518
85255 11341 17017 70716 21114 15006 50514 33959 24513
40666 44759 24520 30855 51765 24023 25975 45585 24514
20124 43786 24513 15318 43586 26009 10592 41586 23504
88320 52361 23026
77999
31313 48008 82219=

0000069700
87361=
0000011200
87368=
0000015000
87382
0000012800
87386
0000045600
87406
0000047700
87410
0000049800
87416
0000051900
87420
0000047800
87441
0000045800
87463=
0000048000
87576
0000060400
87629=
0000056400
88119
0000054400
88391
0000058600
88668=
0000067000
91366=
0000071100
197
USAA01 NZCM 110000
TTAA 61001 89664
99997 00056 18501 00512 ///// ///// 92601 07158 18518
85255 11341 17017 70716 21114 15006 50514 33959 24513
40666 44759 24520 30855 51765 24023 25975 45585 24514
20124 43786 24513 15318 43586 26009 10592 41586 23504
88320 52361 23026
77999
31313 48008 82219=

0000069700
87361=
0000011200
87368=
0000015000
87382
0000012800
87386
0000045600
87406=
0000047800
87429
0000015700
87445
0000049900
87465
0000054100
87473=
0000050100
87586=
0000062600
87905
0000062600
88086
0000060600
88335
0000064800
88645
0000060600
89121
0000066900
89694=
0000062900
96041
0000073300
98575
0000060700
198
USAA01 NZCM 110000
TTAA 61001 89664
99997 00056 18501 00512 ///// ///// 92601 07158 18518
85255 11341 17017 70716 21114 15006 50514 33959 24513
40666 44759 24520 30855 51765 24023 25975 45585 24514
20124 43786 24513 15318 43586 26009 10592 41586 23504
88320 52361 23026
77999
31313 48008 82219=

0000069700
87361=
0000011200
87368=
0000015000
87382
0000012800
87386=
0000045700
87427=
0000045900
87505
0000050000
87526
0000050100
87565
0000062500
87605=
0000062700
88083
0000060600
88349
0000064700
88601=
0000062800
91335=
0000066900
199
USAA01 NZCM 110000
TTAA 61001 89664
99997 00056 18501 00512 ///// ///// 92601 07158 18518
85255 11341 17017 70716 21114 15006 50514 33959 24513
40666 44759 24520 30855 51765 24023 25975 45585 24514
20124 43786 24513 15318 43586 26009 10592 41586 23504
88320 52361 23026
77999
31313 48008 82219=

0000069700
87361=
0000011200
87368=
0000015000
87382=
0000030600
87414
0000014800
87423=
0000050000
87499=
0000062500
87711
0000054300
87791
0000060500
87985
0000068800
88189
0000073000
88467=
0000066900
90960
0000075200
92213
0000073200
93929
0000067000
96093
0000077400
98579
0000077200
200
USAA01 NZCM 110000
TTAA 61001 89664
99997 00056 18501 00512 ///// ///// 92601 07158 18518
85255 11341 17017 70716 21114 15006 50514 33959 24513
40666 44759 24520 30855 51765 24023 25975 45585 24514
20124 43786 24513 15318 43586 26009 10592 41586 23504
88320 52361 23026
77999
31313 48008 82219=

0000069700
87361=
0000011200
87368
0000009600
87371
0000035800
87378
0000037300
87381=
0000039500
87413
0000041600
87422
0000043700
87443
0000045800
87466
0000054100
87469
0000050000
87483
0000045900
87525
0000058300
87572
0000060400
87624
0000058400
87661
0000060500
87773
0000068800
87961
0000062600
88133
0000058600
88452
0000058600
88698=
0000058700
91369=
0000069000
201
USAA01 NZCM 110000
TTAA 61001 89664
99997 00056 18501 00512 ///// ///// 92601 07158 18518
85255 11341 17017 70716 21114 15006 50514 33959 24513
40666 44759 24520 30855 51765 24023 25975 45585 24514
20124 43786 24513 15318 43586 26009 10592 41586 23504
88320 52361 23026
77999
31313 48008 82219=

0000069700
87361=
0000011200
87368=
0000015000
87382
0000012800
87386
0000045600
87406=
0000047800
87429
0000015700
87445
0000049900
87465=
0000054200
87575
0000062500
87617=
0000058500
88079
0000064800
88351
0000060600
88669
0000068900
89157
0000066900
89711=
0000075300
96036
0000065000
98578
0000064800
202
USAA01 NZCM 110000
TTAA 61001 89664
99997 00056 18501 00512 ///// ///// 92601 07158 18518
85255 11341 17017 70716 21114 15006 50514 33959 24513
40666 44759 24520 30855 51765 24023 25975 45585 24514
20124 43786 24513 15318 43586 26009 10592 41586 23504
88320 52361 23026
77999
31313 48008 82219=

0000069700
87361=
0000011200
87368
0000009600
87371
0000035800
87378
0000037300
87381=
0000039500
87413
0000041600
87422=
0000043800
87504
0000052100
87527=
0000052200
87750
0000060500
87942
0000070900
88146
0000073000
88430
0000062700
88691=
0000058700
91372=
0000073100
203
USAA01 NZCM 110000
TTAA 61001 89664
99997 00056 18501 00512 ///// ///// 92601 07158 18518
85255 11341 17017 70716 21114 15006 50514 33959 24513
40666 44759 24520 30855 51765 24023 25975 45585 24514
20124 43786 24513 15318 43586 26009 10592 41586 23504
88320 52361 23026
77999
31313 48008 82219=

0000069700
87361=
0000011200
87368=
0000015000
87382
0000012800
87386=
0000045700
87427
0000045800
87444
0000047900
87464
0000052000
87476
0000050000
87490
0000045900
87515
0000054200
87561=
0000056400
87894
0000256100
88072
0000054400
88341
0000056500
88674
0000066900
89149
0000062800
89710=
0000067000
96048
0000081500
98581
0000064800
204
USAA01 NZCM 110000
TTAA 61001 89664
99997 00056 18501 00512 ///// ///// 92601 07158 18518
85255 11341 17017 70716 21114 15006 50514 33959 24513
40666 44759 24520 30855 51765 24023 25975 45585 24514
20124 43786 24513 15318 43586 26009 10592 41586 23504
88320 52361 23026
77999
31313 48008 82219=

0000069700
87361=
0000011200
87368
0000009600
87371
0000035800
87378
0000037300
87381=
0000039500
87413=
0000052000
87479
0000056200
87492
0000045900
87517
0000054200
87560
0000060400
87620=
0000052300
88114
0000050300
88379
0000060600
88616=
0000064900
91359=
0000073100
205
USAA01 NZCM 110000
TTAA 61001 89664
99997 00056 18501 00512 ///// ///// 92601 07158 18518
85255 11341 17017 70716 21114 15006 50514 33959 24513
40666 44759 24520 30855 51765 24023 25975 45585 24514
20124 43786 24513 15318 43586 26009 10592 41586 23504
88320 52361 23026
77999
31313 48008 82219=

0000069700
87361=
0000011200
87368=
0000015000
87382=
0000030600
87414
0000014800
87423
0000049900
87438=
0000050000
87532
0000048000
87568
0000056300
87609
0000068700
87654
0000058400
87789
0000060500
87988
0000056400
88195
0000066800
88439=
0000062800
90963
0000077300
92254
0000069100
93976
0000073200
96101
0000071200
98550
00000000