0000178900
706
SZPS01 AMMC 111124
CREX++
T000103 A001 D01021 D06025++
-0204190 14737360 56130 2014 01 11 11 17 3027 11 07 00 01
00431 0058 00429 0058 00431 0061 00432 0064 00428 0061 00435 0069+
-0669280 15640860 56363 2014 01 11 11 17 //// 11 07 00 01
00430 -0036 00426 -0041 00430 -0038 00428 -0041 00426 -0045 00426 -0046+
-0942890 15995560 56670 2014 01 11 11 17 3043 11 07 00 01
00436 -0056 00436 -0055 00437 -0054 00436 -0054 00432 -0057 00435 -0054+
-1072080 16580190 57131 2014 01 11 11 17 //// 11 07 00 01
01346 0983 01195 0830 01655 1288 00765 0397 02037 1666 00549 0176+
-1551560 16718860 57210 2014 01 11 11 17 //// 11 07 00 01
00404 -0133 00403 -0136 00409 -0133 00383 -0161 00395 -0152 00407 -0143+
-1775690 16830030 57320 2014 01 11 11 17 3017 11 07 00 01
00378 -0106 00375 -0110 00372 -0115 00369 -0119 00366 -0123 00364 -0126+
-4397330 16861610 65180 2014 01 11 11 17 2887 11 07 00 01
01739 0373 01746 0386 01755 0400 01743 0394 01737 0393 01719 0379+
-2120470 -15978530 65980 2014 01 11 11 17 3010 11 07 00 01
00481 0001 00498 0017 00473 -0009 00483 0000 00483 -0002 00512 0026+
-2113810 -17518140 66600 2014 01 11 11 17 //// 11 07 00 01
00790 0086 00783 0076 00786 0077 00791 0078 00795 0079 00797 0078+
-1382670 -17176110 66840 2014 01 11 11 17 3013 11 07 00 01
00686 0037 00687 0035 00696 0041 00691 0033 00688 0028 00697 0034+
-1813250 17842750 67050 2014 01 11 11 17 3030 11 07 00 01
00872 0107 00883 0116 00882 0112 00888 0114 00889 0112 00892 0112+
-1760530 17743810 67070 2014 01 11 11 17 3032 11 07 00 01
00849 0025 00853 0024 00856 0024 00860 0024 00863 0024 ///// ////+
-0850250 17919500 67440 2014 01 11 11 17 3028 11 07 00 01
01881 0019 01887 0021 01888 0019 01893 0020 01898 0021 01899 0019++
7777

0000034600
707
SZIO01 AMMC 111124
CREX++
T000103 A001 D01021 D06025++
-1211670 09689190 46280 2014 01 11 11 17 3020 11 07 00 01
00915 0026 00919 0032 00915 0031 00903 0021 00903 0023 00894 0017+
-1042940 10566940 46290 2014 01 11 11 17 //// 11 07 00 01
01261 0014 01189 -0056 01236 -0006 01203 -0037 01223 -0015 01208 -0028++
7777

0000046700
708
SZPA01 AMMC 111124
CREX++
T000103 A001 D01021 D06025++
0136250 17293000 67590 2014 01 11 11 17 3017 11 07 00 01
01627 0050 01616 0036 01613 0030 01627 0040 01642 0052 01634 0041+
0710610 17137250 67680 2014 01 11 11 17 3013 11 07 00 01
01122 0080 01121 0077 01130 0084 01136 0087 01139 0087 01138 0084+
0698060 15820000 67950 2014 01 11 11 17 3023 11 07 00 01
00619 0029 00619 0029 00619 0028 00618 0026 00620 0028 00620 0027++
7777

0000192400
709
SZAU01 AMMC 111124
CREX++
T000103 A001 D01021 D06025++
-1927750 14705860 59260 2014 01 11 11 17 3023 11 07 00 01
01989 0216 01984 0219 01978 0219 01973 0221 01960 0215 01958 0220+
-2316110 15079000 59670 2014 01 11 11 17 3002 11 07 00 01
02752 0271 02738 0266 02742 0279 02729 0276 02723 0279 02715 0279+
-3447330 15091170 60420 2014 01 11 11 17 2953 11 07 00 01
00576 -0048 00575 -0047 00572 -0047 00577 -0040 00579 -0036 00574 -0039+
-4105000 14591500 60910 2014 01 11 11 17 2888 11 07 00 01
02733 -0003 02718 -0011 02725 0003 02705 -0011 02695 -0015 02690 -0012+
-4254640 14793080 61170 2014 01 11 11 17 2895 11 07 00 01
01092 0093 01090 0092 01092 0095 01099 0103 01100 0105 01101 0107+
-3834390 14161360 61410 2014 01 11 11 17 2908 11 07 00 01
00736 0042 00731 0036 00712 0017 00716 0020 00707 0010 00710 0013+
-3214890 13364170 62000 2014 01 11 11 17 2960 11 07 00 01
01052 -0005 01053 -0004 01051 -0007 01050 -0008 01049 -0009 01050 -0009+
-3387080 12189720 62080 2014 01 11 11 17 2950 11 07 00 01
01032 0050 01041 0058 01049 0065 01057 0073 01058 0073 01064 0078+
-3182560 11573860 62237 2014 01 11 11 17 2972 11 07 00 01
01026 0079 01028 0081 01022 0076 01023 0077 01017 0072 01020 0075+
-2422000 11339750 62385 2014 01 11 11 17 //// 11 07 00 01
01413 -0040 01406 -0046 01379 -0071 01392 -0057 01443 -0005 01422 -0024+
-2181670 11419110 62430 2014 01 11 11 17 //// 11 07 00 01
02170 -0074 02185 -0058 02180 -0062 02178 -0063 02188 -0052 02188 -0051+
-1800080 12221830 62650 2014 01 11 11 17 3043 11 07 00 01
06829 -0006 06821 -0010 06816 -0012 06814 -0011 06813 -0008 06811 -0006+
-1247190 13084580 63230 2014 01 11 11 17 3050 11 07 00 01
04224 0136 04224 0136 04223 0135 04224 0137 04224 0135 04224 0137+
-1386000 13641580 63511 2014 01 11 11 17 3043 11 07 00 01
01908 0146 01909 0146 01912 0148 01916 0152 01917 0152 01917 0151++
7777

0000011000
710
UANT01 CWAO 111123
ARP AFR022 5018N03755W 1123 F370 MS54 292/29 KT
FGSPC QXT AOE 111123 F34A
0000032200
711
SIRE20 FMEE 110900
AAXX 11094
61976 46/// /0614 10266 20244 30116 40131
  333 58008=
61980 22565 50923 10306 20208 40141 81204
  333 58001 60007 81828 85076 90710 91132 92437
  555 60005=
67005 22570 60906 10311 20240 30120 40128 58012 83834
  333 60007 83822 86080 90710 91108
  555 60005=
0000012200
712
SAWD01 OEJD 111100 RRA
METAR WMKK 111100Z 30007KT 270V330 9999 FEW017CB SCT140 BKN280 30/24
Q1009 NOSIG=
0000733700
713
SNVF21 EGRR 111100
BBXX
TBWUK65 11114 99369 10029 41598 62308 10190 20112 40194 51021 70322
86/7/ 22224 2//// 80147=
62301 11114 99524 70047 46/// /3209 10070 20020 40203 51027 22200
00097 10503 70015=
62105 11114 99550 70132 46/// /2410 10079 21009 40153 53021 22200
00108 10907 70037=
64045 11114 99591 70117 46/// /2715 10062 20004 40093 53025 22200
00096 10909 70046=
62001 11114 99452 70050 46/// /0808 10119 20071 40215 51020 22200
00128 10903 70016=
62304 11114 99512 10018 46/98 /2921 10078 20049 40179 52035 22200
00102 10501 70005 333 90710 91132=
62163 11114 99475 70084 46/// /1019 10104 20077 40191 50004 22200
00122 10806 70031 333 90710 91129=
62107 11114 99501 70061 46/// /0305 10095 20026 40215 51017 22200
00104 11005 70024=
62305 11114 99504 70000 46/// /3116 10081 20036 40203 51039 22200
00109 10501 70007=
62081 11114 99521 70105 46/// /1312 10067 20027 40183 52012 22200
10907 70034=
62103 11114 99499 70029 46/99 /3414 10089 20036 40221 52029 22200
00111 10802 70012=
MWYG6 11114 99603 70040 47498 /3025 40036 52024 700// 22200=
64041 11114 99607 70026 47598 /2921 40013 52017 700// 22200 11008 70042=
63056 11114 99597 10016 47598 /2823 10055 20004 40006 52017 762// 22200 10707 70033=
63109 11114 99596 10015 46/// /3027 10050 20011 40008 52016 22200=
63110 11114 99595 10015 47598 /3024 10059 20020 40021 52021 700// 22200 10706 70032=
MQSY9 11114 99593 10015 47496 /3120 10049 20006 52021 762// 22200=
63057 11114 99592 10015 47998 /2822 10059 20006 40018 52017 700// 22200 10706 70032=
62128 11114 99587 10014 47498 /3022 10049 20024 40043 51022 700// 22200 10707 70033=
62129 11114 99584 10003 46/// /2923 10047 20005 40052 52017 22200=
62113 11114 99584 10002 47497 /2924 10050 20010 40053 52015 762// 22200=
ZQSD5 11114 99583 10008 47598 ///// 10058 20013 40042 52013 700// 22200 1//07 70033=
63115 11114 99616 10013 47598 /0607 10023 21020 49997 52014 700// 22200 10806 70030=
63114 11114 99613 10017 47599 /0505 10020 21027 49999 52016 700// 22200=
63108 11114 99608 10017 47/99 /0706 10032 20007 49995 52024 700// 22200 10706 70028=
63117 11114 99613 10011 47499 /1007 40001 52018 700// 22200=
63104 11114 99612 10016 47598 /0707 10027 21009 49999 52016 700// 22200 10806 70032=
63103 11114 99612 10011 46/// ///// 10025 20002 49990 52018 22200 10806 70028=
63101 11114 99612 10009 46/// /0808 10024 21001 49998 52018 22200 10806 70030=
63107 11114 99611 10017 46/// /0607 10031 49997 52020 22200=
63112 11114 99611 10010 47498 /1005 10037 20007 49995 52020 700// 22200 10706 70028=
63113 11114 99610 10017 46/// /0606 10048 20002 49998 52021 22200 10706 70028=
63105 11114 99610 10017 47499 /0607 10024 21023 49999 52018 700// 22200=
63106 11114 99610 10017 46/// /0508 10035 52020 22200=
62111 11114 99580 70003 46/// /3028 10057 20009 40080 52016 22200 10606 70028=
PJAI 11114 99581 70014 47998 /2820 10055 21005 40071 52023 700// 22200=
62112 11114 99584 70002 47598 /2814 10074 20025 40054 52016 700// 22200=
63055 11114 99606 10016 47598 /0905 10048 20015 49996 52025 700// 22200 10705 70027=
62142 11114 99530 10021 47997 /3016 10068 20040 40147 52039 700// 22200 10403 70014=
62145 11114 99531 10028 47998 /3120 10070 20020 40151 52041 700// 22200 10503 70017=
62144 11114 99534 10017 47998 /2815 10064 20018 40153 52040 700// 22200 10503 70015=
62121 11114 99535 10027 46/// ///// 10071 20018 40133 52037 22200=
62150 11114 99536 10007 47998 /2819 10061 20019 40166 52033 700// 22200 10502 70012=
62148 11114 99536 10015 46/// ///// 22200=
62149 11114 99537 10011 47998 /2820 10085 20026 40152 52032 700// 22200 10503 70014=
62131 11114 99539 10012 46/// /3016 10066 20017 40145 52031 22200=
62127 11114 99540 10007 47999 ///// 10059 21000 40149 52029 762// 22200 10503 70016=
62165 11114 99540 10011 47998 /2818 10063 20013 40150 52029 700// 22200 10503 70017=
62123 11114 99563 10022 47598 /2924 10065 20001 40081 52013 700// 22200 1//05 70027=
62132 11114 99564 10020 46/// /3120 10064 21000 40095 52019 22200=
62120 11114 99564 10021 47598 /2922 10060 21005 40080 52014 700// 22200=
62154 11114 99564 10022 46/// /2918 10061 21004 40078 52014 22200=
62152 11114 99570 10018 47598 /2917 10061 21003 40080 53014 700// 22200 10505 70026=
62114 11114 99583 10000 46/// /2824 10055 20018 40051 52016 22200=
62134 11114 99580 10014 47596 /3023 10061 20018 40053 52014 700// 22200 10606 70028=
62102 11114 99579 10018 47598 /2824 10069 20011 40048 52013 700// 22200 10606 70029=
62117 11114 99579 10000 47598 /2825 10058 20009 40053 52012 700// 22200 10605 70023=
62143 11114 99577 10018 47598 /3113 10058 20014 40071 52015 700// 22200 10605 70027=
62118 11114 99577 10009 47598 /2824 10060 20012 40060 52016 700// 22200 10606 70028=
62155 11114 99577 10007 47598 /2923 10058 20018 40071 52014 763// 22200 10606 70028=
62116 11114 99576 10011 47598 /2823 10060 20013 40060 52013 700// 22200 10606 70030=
62104 11114 99574 10013 47598 /2822 10066 20011 40063 52012 700// 22200=
62153 11114 99573 10020 47598 /2714 40064 52013 700// 22200=
62122 11114 99573 10016 47598 /2923 10062 20005 40069 53014 700// 22200 10605 70024=
62140 11114 99573 10013 46/// ///21 10057 20008 40070 52015 22200=
62146 11114 99572 10021 47598 /2103 10057 20009 40074 53014 700// 22200 10605 70025=
62164 11114 99572 10008 47598 /2820 10070 20014 40076 52017 700// 22200 00084 10605 70025=
62133 11114 99571 10009 46/// /3021 40077 52017 22200 10605 70024=
62119 11114 99570 10019 47598 /3023 10065 20000 40079 53015 700// 22200 10505 70023=
VQIV8 11114 99595 10226 41096 82811 10014 49992 50000 785// 886//
22263 2//// 30000 61033=
AMOUK05 1111/ 99519 10041 46/// ///// 10073 2//// 40145=
AMOUK06 1111/ 99512 10014 46/// ///// 10082 20079 40178=
AMOUK13 1111/ 99512 10014 46/// ///// 10079 20044 40179=
AMOUK23 1111/ 99577 70018 46/// ///// 10044 20000 40080=
AMOUK29 1111/ 99506 70081 46/// ///// 1//// 2//// 40203=
AMOUK28 1111/ 99578 70067 46/// ///// 1//// 2//// 40100=
AMOUK03 1111/ 99537 70003 46/// ///// 10072 20033 40154=
AMOUK44 1111/ 99547 70052 46/// ///// 1//// 2//// 40175=
AMOUK32 1111/ 99559 70047 46/// ///// 10040 20014 40147=
AMOUK11 1111/ 99534 70050 46/// ///// 10059 20028=
AMOUK04 1111/ 99535 70055 46/// ///// 10062 20025 40188=
AMOUK14 1111/ 99533 70062 46/// ///// 10055 20003 40190=
AMOUK43 1111/ 99541 70036 46/// ///// 10063 20020 40173=
AMOUK45 11114 99509 70014 46/// /3207 10069 20034 40197 22200   401970104=
AMOUK34 1111/ 99512 10020 46/// ///// 10087 20053 40169=
AMOUK16 1111/ 99521 70056 46/// ///// 10065 20026 40206=
AMOUK26 1111/ 99498 70028 46/// ///// 10093 20043 40211=
AMOUK42 1111/ 99506 70025 46/// ///// 10093 20044 40214=
AMOUK09 1111/ 99517 10018 46/// ///// 10073 20072 40171=
AMOUK33 1111/ 99555 10084 46/// ///// 10066 20060 40046=
62095 11114 99529 70156 46/// /1619 10095 20036 40127 57007 22200
00098 10907 70035=
64046 11114 99605 70042 46/// /2825 10069 20018 40023 333 90710 91132=
62050 11114 99500 70044 46/// /0306 10095 20040 40215 22200 10602
70011=
62303 11114 99516 70051 46/// /3310 10078 20009 40211 22200 10603
70015=
62023 11113 99514 70079 46/97 /1206 10091 2//// 4//// 5////
22200 10804 70022 555 70036 80001=
0000011000
714
UANT99 KDDL 111122
ARP UAL75 5401N01921W 1122 F360 MS68 224/74 KT
N17133 DDL IG1 111123 F32A
0000011000
715
UANT99 KDDL 111122
ARP VJT748 5756N04212W 1123 F410 MS59 084/34 KT
9HVJC QXS UAK 111123 M70A
0000011000
716
UANT99 KDDL 111123
ARP DLH462 4803N00940W 1123 F340 MS60 277/62 KT
DAIMI QXS LEQ 111123 J09A
0000011100
717
UANT99 KDDL 111123
ARP UAL957 5105N02222W 1123 F360 MS59 208/75 KT
N667UA DDL XXW 111123 F26A
0000029800
718
USNC01 NWBB 111200
TTAA 61111 91592 99005 24256 09014 00108 23856 09014 92783 17635
09016 85502 13219 10516 70118 10473 19007 50584 04963 28012 40756
15963 29028 30966 32359 27540 25092 409// 29040 20240 511// 26557
15422 641// 28545 10660 789// 27537 88999 77999 31313 47708 81032=
0000069000
719
USAA01 NZCM 110000
TTAA 61001 89664
99997 00056 18501 00512 ///// ///// 92601 07158 18518
85255 11341 17017 70716 21114 15006 50514 33959 24513
40666 44759 24520 30855 51765 24023 25975 45585 24514
20124 43786 24513 15318 43586 26009 10592 41586 23504
88320 52361 23026
77999
31313 48008 82219=

0000069700
87361=
0000011200
87368=
0000015000
87382
0000012800
87386
0000045600
87406=
0000047800
87429
0000015700
87445=
0000050000
87538
0000054200
87552
0000066600
87599
0000058400
87652
0000058400
87779
0000056400
87980=
0000058600
88989
0000058600
89532=
0000069100
95173
0000071200
97322
0000011100
720
SMVF01 ESWI 110000 RRA
BBXX
SBPQ 11001 99656 10222 46/// /0205 11135 40092 52006 22203 00007=
0000073100
721
USAA01 NZCM 110000
TTAA 61001 89664
99997 00056 18501 00512 ///// ///// 92601 07158 18518
85255 11341 17017 70716 21114 15006 50514 33959 24513
40666 44759 24520 30855 51765 24023 25975 45585 24514
20124 43786 24513 15318 43586 26009 10592 41586 23504
88320 52361 23026
77999
31313 48008 82219=

0000069700
87361=
0000011200
87368=
0000015000
87382
0000012800
87386
0000045600
87406
0000047700
87410
0000049800
87416
0000051900
87420
0000047800
87441=
0000045900
87536
0000052100
87559
0000054200
87603
0000052200
87665
0000060500
87771
0000062600
87959=
0000062700
88954
0000060700
89493=
0000073200
95166
0000067100
97321
0000066900
722
USAA01 NZCM 110000
TTAA 61001 89664
99997 00056 18501 00512 ///// ///// 92601 07158 18518
85255 11341 17017 70716 21114 15006 50514 33959 24513
40666 44759 24520 30855 51765 24023 25975 45585 24514
20124 43786 24513 15318 43586 26009 10592 41586 23504
88320 52361 23026
77999
31313 48008 82219=

0000069700
87361=
0000011200
87368=
0000015000
87382=
0000030600
87414=
0000011000
87481=
0000054200
87583
0000058400
87642
0000062600
87763
0000054300
87949
0000054400
88125
0000060600
88403=
0000056600
90557
0000056600
91689
0000071100
93204
0000075300
95176
0000071200
97337
0000062800
723
USAA01 NZCM 110000
TTAA 61001 89664
99997 00056 18501 00512 ///// ///// 92601 07158 18518
85255 11341 17017 70716 21114 15006 50514 33959 24513
40666 44759 24520 30855 51765 24023 25975 45585 24514
20124 43786 24513 15318 43586 26009 10592 41586 23504
88320 52361 23026
77999
31313 48008 82219=

0000069700
87361=
0000011200
87368=
0000015000
87382=
0000030600
87414
0000014800
87423
0000049900
87438
0000052000
87459
0000058200
87471=
0000050100
87587=
0000054400
87915=
0000062700
88943
0000062800
89508=
0000069100
95157
0000071200
97333
0000079300
724
USAA01 NZCM 110000
TTAA 61001 89664
99997 00056 18501 00512 ///// ///// 92601 07158 18518
85255 11341 17017 70716 21114 15006 50514 33959 24513
40666 44759 24520 30855 51765 24023 25975 45585 24514
20124 43786 24513 15318 43586 26009 10592 41586 23504
88320 52361 23026
77999
31313 48008 82219=

0000069700
87361=
0000011200
87368=
0000015000
87382
0000012800
87386
0000045600
87406
0000047700
87410=
0000049900
87467
0000047900
87475
0000047900
87491
0000056200
87512
0000054200
87550
0000058400
87597
0000062500
87670
0000054300
87796
0000062600
87990
0000058500
88183
0000064700
88425=
0000075200
90660
0000064900
91751
0000067000
93236
0000077400
95182
0000079500
97347
0000073100
725
USAA01 NZCM 110000
TTAA 61001 89664
99997 00056 18501 00512 ///// ///// 92601 07158 18518
85255 11341 17017 70716 21114 15006 50514 33959 24513
40666 44759 24520 30855 51765 24023 25975 45585 24514
20124 43786 24513 15318 43586 26009 10592 41586 23504
88320 52361 23026
77999
31313 48008 82219=

0000069700
87361=
0000011200
87368=
0000015000
87382
0000012800
87386
0000045600
87406
0000047700
87410
0000049800
87416=
0000045800
87478
0000043800
87484
0000050000
87523
0000054200
87562
0000060400
87623=
0000056400
88113
0000058500
88394=
0000058700
90637
0000060800
91720
0000071100
93222
0000062900
95169
0000071200
97334
00000000