0000013600
606
SMCN03 CWAO 110000 RRB
AAXX 11004
71421 17/// /2206 11145 21181 39429 40171 53006 69921 7//4/
333 11136 21248 70002=
0000058600
607
USAA01 NZCM 110000
TTAA 61001 89664
99997 00056 18501 00512 ///// ///// 92601 07158 18518
85255 11341 17017 70716 21114 15006 50514 33959 24513
40666 44759 24520 30855 51765 24023 25975 45585 24514
20124 43786 24513 15318 43586 26009 10592 41586 23504
88320 52361 23026
77999
31313 48008 82219=

0000069700
87361=
0000011200
87368=
0000015000
87382=
0000030600
87414
0000014800
87423=
0000050000
87499=
0000062500
87711=
0000058500
88238
0000062700
88513=
0000052500
90990
0000073200
92276
0000073200
93998
0000012100
608
UAUS31 KWBC 111109
ARP UAL929 52N 003W 1055 F320 TB CONT LGT TURB RM B763 OV 52N003W
    SAME AT FL300=
0000010100
609
UAPA01 KWBC 111109
ARP AWE664 2425N 14459W 1058 F370 MS47 250/055KT TB CONT LGT CHOP=
0000032800
610
SNMK10 LYPG 111100
AAXX 11111
13463 42565 51601 10127 20064 30179 40239 57005 83830=
13459 42670 62701 10095 20094 39475 40245 57010 82234 333 82896 85399
=
13461 42670 62702 10151 20110 30231 40238 58006 86800 333 82840 85656
92312 92428=
13363 41958 41602 10058 20027 39317 48534 57013 71041 84030=
0000011100
611
UANT01 CWAO 111109
ARP BER7416 5006N02311W 1109 F360 MS57 204/60 KT
DALPI QXT AOE 111109 J01A
0000117600
612
SNEO21 EEMH 111100
AAXX 11111
26038 27470 81801 11010 21012 39961 40002 50004 72486 88///
 333  11004 21016 69937 88/14
 555  1/100 21016 3/101 50000 52102=
26045 27364 83405 11019 21032 39995 49998 51013 78085 88///
 333  11001 21021 60007 88/09 91109
 555  21021 50001=
26058 27470 73204 11028 21050 39955 49991 52019 72488 80///
 333  11014 21034 60007 80/14 91108
 555  21034 51012=
26115 27125 82503 10006 20007 39993 40001 58003 77176 88///
 333  10019 20003 60027 88/03
 555  1/100 20003 3/100 50019=
26135 27327 83401 11011 21024 39934 40009 52011 78587 88///
 333  10002 21012 60007 88/08
 555  1/100 21012 3/101 50005 52101=
26141 27468 83304 11029 21036 39853 40003 52014 72287 88///
 333  11016 21029 60007 88/10
 555  1/101 21029 3/102 51013 52103=
26231 27367 82402 10010 20006 39997 40012 50008 77188 88///
 333  10018 20002 69927 88/09
 555  1/002 20002 3/000 50017=
26242 27356 82802 11007 21017 39920 40007 52014 78587 88///
 333  10007 21011 60007 88/09 91109
 555  1/000 21011 3/100 50012 52101=
26247 27/43 /2804 10006 20006 39934 40014 52013 77177
 333  10012 20001 60007
 555  1/002 20001 3/000 50018=
0000051200
613
SNSP20 LEMM 111100
AAXX 11114
08045 46/// /2005 10099 20079 39880 40191 51014
  555 60005=
08181 47/58 /3510 10131 20092 30199 40206 50012 71011
  555 60005=
08221 42963 70201 10093 20061 39521 40207 51017 85017
  555 60005=
08284 46/// /3301 10116 20071 30130 40206 5////
  555 60005=
08306 46/// /0704 10149 20134 30183 40189 50004
  555 60005=
08314 46/// /1409 10155 2//// 3//// 4//// 5////
  555 60005=
08482 46/// /3301 10148 20118 30193 40201 50018
  555 60005=
0000011800
614
SNVF25 LFPW 111100
BBXX
BATUK01 11114 99577 70062 43/// /2805 10054 21013 40112 53034
22200 04094=
0000089800
615
SSVX02 LFVW 111109
ZZYY 23598 11014 0650/ 114611 083040 6111/
11119 40167 57016
22219 00264
444 20110 11014 0811/ 503// 80108 80010=
ZZYY 41647 11014 0919/ 724142 048676 6113/
22219 00244
33311 88872 20000 32442 43668
444 2013/ 11014 0912/ 50101 9/015=
ZZYY 41651 11014 0918/ 729240 048583 6112/
22219 00///
33311 88872 20000 46215
444 2012/ 11014 0912/ 50101 9/015=
ZZYY 41653 11014 0919/ 722218 048623 6113/
22219 00246
33311 88872 20000 32457 43735
444 2013/ 11014 0910/ 50101 9/015=
ZZYY 13984 11014 0916/ 724370 072669 6112/
22219 00259
33311 88872 20000 32591 43602
444 50101 9/015=
ZZYY 41645 11014 0917/ 727990 040110 6112/
22219 00226
33311 88872 20000 32257 43719
444 2012/ 11014 0911/ 50101 9/015=
ZZYY 41650 11014 0919/ 723326 049596 6113/
22219 00247
33311 88872 20000 32467 43747
444 2013/ 11014 0911/ 50101 9/015=
0000012800
616
SSVX13 LFVW 111109
ZZYY 16551 11014 1100/ 321923 060387 6113/
11119 40158 57013
444 50101 80074 80000 9/015=
0000014000
617
SNFP20 LFVP 111100
AAXX 11114
71805 22584 32717 11012 21052 30224 40233 58005 83500
  333 60005 83623 90710 91128 93100=
0000376200
618
SNPL40 SOWR 111100
AAXX 11111
12100 42465 82003 10056 20033 30095 40102 57008 885//
  333 91108=
12105 42460 82105 10050 20032 30061 40103 57007 885//
  333 88613=
12115 42468 82307 10056 20033 30077 40091 57006 8655/
  333 91113=
12120 42570 82512 10056 20033 30084 40088 58003 885//=
12125 46/// /2406 10055 20028 30045 40096 57002 =
12135 42468 72604 10058 20044 30088 40091 58001 872//
  333 91009 91109=
12160 42465 72308 10039 20036 39873 40101 58003 872//
  333 91113=
12185 41480 72506 10047 20030 39964 40100 51005 72522 875//=
12195 41482 72807 10039 20033 39865 40094 51007 72522 875//=
12200 42460 72203 10054 20040 30100 40107 58008 8551/=
12205 42465 72206 10058 20033 30110 40118 57010 8557/=
12210 46/// /2104 10050 20029 30043 40107 57006=
12215 41/// /2304 10045 20024 39942 40114 57005 7////
  =
12230 42568 82403 10050 20022 30035 40126 57009 875//=
12235 42466 72207 10042 20027 39901 40113 58006 8453/
  333 84612=
12250 42579 72404 10057 20022 30040 40129 58004 86101
  333 91108=
12270 42462 82505 10042 20027 39946 40130 50000 885//
  333 88612=
12272 42470 72404 10045 20027 39943 40111 50000 875//
  333 87613 91108=
12280 42470 72604 10044 20027 39949 40107 50005 875//
  333 91009 91109=
12285 41/// /2505 10054 20023 30008 40124 52002 700//=
12295 42674 82705 10046 20021 39928 40113 51008 885//
  333 91111=
12300 42582 72604 10048 20022 30046 40137 57009 8583/=
12310 42980 42305 10072 20021 30073 40139 58009 83032=
12330 42465 62305 10054 20019 30034 40143 58010 81130=
12345 42662 72205 10049 20019 30002 40147 58003 81538=
12360 42465 72306 10048 20018 30002 40137 58002 83508=
12375 42570 72605 10053 20012 30015 40147 50001 875//=
12385 42470 72405 10052 20024 39948 40139 50002 875//
  333 91112=
12399 42560 62606 10058 20009 39965 40134 51005 82136
  333 91110=
12400 42581 22404 10061 20012 39915 40151 57007 81841=
12415 42984 52704 10080 20012 30007 40160 58011 81048=
12418 42580 22305 10067 20018 30039 40154 58010 81231=
12424 42999 32105 10074 20019 30014 40167 58008 81032=
12435 42580 72305 10052 20020 39983 40156 58008 81252=
12455 42673 62405 10066 20013 39919 40165 57007 86500=
12465 42566 72406 10050 20015 39933 40157 58003 8553/=
12469 42575 72405 10046 20014 39928 40162 50000 875//=
12488 42580 72504 10051 20008 30001 40157 50002 84508
  333 91111=
12495 42580 72506 10047 20005 39867 40162 51002 878//=
12497 42570 72707 10052 20011 39926 40147 52004 81158=
12500 42984 52203 10068 21019 39747 40165 57011 82058=
12510 41799 52918 11049 21059 38317 48442 58002 73843 81031
  444 46004=
12520 42575 72204 10050 20007 39745 40182 58008 83538
  333 83622=
12530 42975 22404 10075 20002 39975 40176 58008 81032=
12540 42776 52407 10064 20013 39932 40186 58008 81532=
12550 42670 72404 10060 21010 39812 40173 58006 8353/=
12560 42998 32306 10061 21002 39840 40183 58007 81031=
12566 42782 32408 10063 21007 39887 40183 58007 81502
  333 91113=
12570 42768 72504 10047 20006 39853 40174 58003 8357/=
12575 42668 72402 10069 21020 39926 40182 57006 8354/=
12580 42780 72506 10062 21008 39921 40182 58006 8451/=
12585 42773 72404 10052 20006 39904 40174 58002 875//=
12595 46/70 /2607 10049 20007 39892 40169 52001 =
12600 42580 32406 10060 21029 39700 40185 58007 81102=
12625 42680 52703 10027 21067 39177 42793 58010 81508=
12650 41484 22609 11083 21087 37955 48473 57001 73831 81538
  333 91114=
12660 42584 32506 10069 21045 39826 40187 58010 81202=
12670 42770 71904 10022 21012 39787 40198 58001 82548=
12690 42675 72305 10024 21027 39682 40202 50000 82508
  333 91110=
12695 41/// /2405 10052 21025 39844 40187 54000 700//=
0000011000
619
UANT99 KDDL 111108
ARP DLH499 5506N02358W 1108 F350 MS60 211/77 KT
DABYG QXT EUA 111108 F18A
0000010900
620
UANT99 KDDL 111109
ARP THY34 5729N01402W 1109 F350 MS57 249/82 KT
TCJJH QXT AOE 111109 F44A
0000075800
621
SDTH20 VTBB 111100
FFBB 1111/ 48300 NIL=
FFBB 1111/ 48303 00000=
FFBB  1111/ 48327 00000=
FFBB  1111/ 48356 00000=
FFBB  1111/ 48378 00000=
FFBB 1111/ 48381 00000=
FFBB 1111/ 48407 00000=
FFBB 1111/ 48413 NIL=
FFBB 1111/ 48417 00000=
FFBB 1111/ 48432 0/0/0=
FFBB 1111/ 48456 NIL=
FFBB 1111/ 48475 NIL=
FFBB 1111/ 48478 NIL=
FFBB 1111/ 48517 656/7 676/7 754/5 /555/ 65971 61616 6534 751=
FFBB  1111/ 48551 0/0/0=
FFBB 1111/ 48565 375/3 575/3 585/3 61616 570=
FFBB 1111/ 48567 NIL=
FFBB 1111/ 48568 155/3 235/3 255/3 335/3 347/5 355/3 365/5 435/5
445/5 457/5 654/3 665/5 675/3 755/5 765/5 775/5 845/3 855/5 865/3
61616 151 23124 2534 334 3434 352 363 432 4412 4512 654 6634 673 861=
FFBB 1111/ 48583 NIL=
0000084100
622
FTTH20 VTBB 111100
TAF VTBS 111100Z NIL=
TAF VTCC 111100Z NIL=
TAF VTCH 111100Z NIL=
TAF VTCL 111100Z NIL=
TAF VTCN 111100Z NIL=
TAF VTCP 111100Z NIL=
TAF VTCT 111100Z NIL=
TAF VTPB 111100Z NIL=
TAF VTPM 111100Z NIL=
TAF VTPO 111100Z NIL=
TAF VTPP 111100Z NIL=
TAF VTPT 111100Z NIL=
TAF VTUD 111100Z 1112/1212 03005KT 9000 NSC
        BECMG 1123/1202
36005KT 5000 NSC
        BECMG 1204/1207 06007KT 9999 FEW025=
TAF VTUI 111100Z NIL=
TAF VTUJ 111100Z NIL=
TAF VTUK 111100Z 1112/1212 03007KT CAVOK
        BECMG 1122/1201
36006KT 8000 NSC
        BECMG 1203/1206 06008KT 9999 FEW025=
TAF VTUL 111100Z NIL=
TAF VTUO 111100Z NIL=
TAF VTUQ 111100Z NIL=
TAF  VTUU  111030Z 1112/1212 05005KT 8000 FEW025
     BECMG 1114/1116 05005KT CAVOK=
TAF VTUV 111100Z NIL=
TAF VTUW 111100Z NIL=
0000090800
623
SAYE20 OYSC 111000 RRB
METAR OYAA 111000Z 13014KT 9999 SCT020 27/18 Q1015=
METAR OYAM 111000Z NIL=
METAR OYAR 111000Z 32004KT 9999 FEW030 23/06 Q////=
METAR OYAS 111000Z NIL=
METAR OYAT 111000Z NIL=
METAR OYDM 111000Z 08009KT CAVOK 20/M04 Q////=
METAR OYGD 111000Z NIL=
METAR OYHD 111000Z NIL=
METAR OYHJ 111000Z 27008KT 0500 FG BKN008 16/14 Q////=
METAR OYIB 111000Z NIL=
METAR OYKD 111000Z NIL=
METAR OYMB 111000Z 09008KT CAVOK 27/09 Q1015=
METAR OYMK 111000Z 18016KT CAVOK 28/21 Q////=
METAR OYMT 111000Z VRB02KT 9999 FEW020 20/08 Q////=
METAR OYRN 111000Z NIL=
METAR OYSD 111000Z 18004KT CAVOK 20/M11 Q////=
METAR OYSH 111000Z 18012KT 8000 SCT030 22/07 Q////=
METAR OYSN 111000Z NIL=
METAR OYSQ 111000Z 07020KT 9999 SCT018 SCT200 27/21 Q1014=
METAR OYSY 111000Z 03008KT 350V080 CAVOK 26/10 Q1016=
METAR OYTZ 111000Z 21004KT 9999 FEW025 24/09 Q1020=
0000027000
624
SXHW11 KWAL 111110
B159741A 011111053 
DY DH PC VB
14/01/11 11:00 25.48
14/01/11 10:45 25.48
14/01/11 10:30 25.48
14/01/11 10:15 25.48
14/01/11 10:00 25.48
14/01/11 09:45 25.48
14/01/11 09:30 25.48
14/01/11 09:15 25.48 12.3 40-0NN  16W
0000017000
625
SOVI10 KWAL 111111
B110070A 011111101"P9751095 B\P~W@@F0ekK1@mV???C_Cc>@mI3@JC~@e4Cp5C?6bS9Jy<BH2?????@"??? iTKHKB_BYBXBVB\BT:AMPTEMP 25.85C  45+0NN 219E
00000000