0000073000
066
USAA01 NZCM 110000
TTAA 61001 89664
99997 00056 18501 00512 ///// ///// 92601 07158 18518
85255 11341 17017 70716 21114 15006 50514 33959 24513
40666 44759 24520 30855 51765 24023 25975 45585 24514
20124 43786 24513 15318 43586 26009 10592 41586 23504
88320 52361 23026
77999
31313 48008 82219=

0000069700
87361=
0000011200
87368
0000009600
87371
0000035800
87378
0000037300
87381
0000039400
87385=
0000043700
87428=
0000047900
87503
0000056200
87524
0000048000
87543
0000056300
87596
0000054300
87636
0000052200
87806
0000066700
87986
0000062600
88166
0000060600
88464
0000062700
88711
0000058600
89177=
0000071200
93675
0000073000
067
USAA01 NZCM 110000
TTAA 61001 89664
99997 00056 18501 00512 ///// ///// 92601 07158 18518
85255 11341 17017 70716 21114 15006 50514 33959 24513
40666 44759 24520 30855 51765 24023 25975 45585 24514
20124 43786 24513 15318 43586 26009 10592 41586 23504
88320 52361 23026
77999
31313 48008 82219=

0000069700
87361=
0000011200
87368
0000009600
87371
0000035800
87378
0000037300
87381=
0000039500
87413
0000041600
87422
0000043700
87443
0000045800
87466
0000054100
87469
0000050000
87483=
0000046000
87718
0000056400
87822
0000056400
88001
0000058500
88178=
0000064900
89981
0000066900
90856
0000077300
92058
0000073200
93691
0000073100
068
USAA01 NZCM 110000
TTAA 61001 89664
99997 00056 18501 00512 ///// ///// 92601 07158 18518
85255 11341 17017 70716 21114 15006 50514 33959 24513
40666 44759 24520 30855 51765 24023 25975 45585 24514
20124 43786 24513 15318 43586 26009 10592 41586 23504
88320 52361 23026
77999
31313 48008 82219=

0000069700
87361=
0000011200
87368
0000009600
87371
0000035800
87378
0000037300
87381
0000039400
87385
0000039400
87407=
0000012000
87430
0000054000
87439
0000049900
87460=
0000048000
87541
0000054200
87545
0000052200
87598
0000054300
87659=
0000060600
88221
0000054400
88495
0000066900
88755=
0000069000
92040
0000062900
93707
0000071000
069
USAA01 NZCM 110000
TTAA 61001 89664
99997 00056 18501 00512 ///// ///// 92601 07158 18518
85255 11341 17017 70716 21114 15006 50514 33959 24513
40666 44759 24520 30855 51765 24023 25975 45585 24514
20124 43786 24513 15318 43586 26009 10592 41586 23504
88320 52361 23026
77999
31313 48008 82219=

0000069700
87361=
0000011200
87368=
0000015000
87382
0000012800
87386
0000045600
87406=
0000047800
87429
0000015700
87445
0000049900
87465=
0000054200
87575
0000062500
87617
0000062500
87660
0000064600
87787
0000062600
87967
0000058500
88194
0000060600
88482
0000073000
88708
0000075100
89152=
0000073200
93695
0000079200
070
USAA01 NZCM 110000
TTAA 61001 89664
99997 00056 18501 00512 ///// ///// 92601 07158 18518
85255 11341 17017 70716 21114 15006 50514 33959 24513
40666 44759 24520 30855 51765 24023 25975 45585 24514
20124 43786 24513 15318 43586 26009 10592 41586 23504
88320 52361 23026
77999
31313 48008 82219=

0000069700
87361=
0000011200
87368
0000009600
87371
0000035800
87378
0000037300
87381
0000039400
87385
0000039400
87407
0000041500
87411
0000014600
87417
0000045700
87421
0000049900
87440
0000052000
87462
0000050000
87472
0000005900
87495=
0000058400
87712
0000050200
87812
0000062600
87997
0000052300
88188
0000066800
88470
0000060600
88749=
0000064900
92018
0000064900
93654
0000071000
071
USAA01 NZCM 110000
TTAA 61001 89664
99997 00056 18501 00512 ///// ///// 92601 07158 18518
85255 11341 17017 70716 21114 15006 50514 33959 24513
40666 44759 24520 30855 51765 24023 25975 45585 24514
20124 43786 24513 15318 43586 26009 10592 41586 23504
88320 52361 23026
77999
31313 48008 82219=

0000069700
87361=
0000011200
87368
0000009600
87371
0000035800
87378
0000037300
87381
0000039400
87385
0000039400
87407=
0000012000
87430
0000054000
87439=
0000056200
87534=
0000060500
87732
0000056400
87842
0000056400
88013
0000054400
88200
0000070900
88485
0000066800
88710
0000060700
89156=
0000060800
93683
0000075100
072
USAA01 NZCM 110000
TTAA 61001 89664
99997 00056 18501 00512 ///// ///// 92601 07158 18518
85255 11341 17017 70716 21114 15006 50514 33959 24513
40666 44759 24520 30855 51765 24023 25975 45585 24514
20124 43786 24513 15318 43586 26009 10592 41586 23504
88320 52361 23026
77999
31313 48008 82219=

0000069700
87361=
0000011200
87368
0000009600
87371
0000035800
87378
0000037300
87381
0000039400
87385
0000039400
87407=
0000012000
87430
0000054000
87439=
0000056200
87534
0000060400
87553
0000056300
87602
0000052200
87653
0000054300
87782
0000056400
87982
0000062600
88176
0000054400
88466
0000062700
88721
0000058600
89167=
0000067000
93697
0000075100
073
USAA01 NZCM 110000
TTAA 61001 89664
99997 00056 18501 00512 ///// ///// 92601 07158 18518
85255 11341 17017 70716 21114 15006 50514 33959 24513
40666 44759 24520 30855 51765 24023 25975 45585 24514
20124 43786 24513 15318 43586 26009 10592 41586 23504
88320 52361 23026
77999
31313 48008 82219=

0000069700
87361=
0000011200
87368
0000009600
87371
0000035800
87378
0000037300
87381
0000039400
87385
0000039400
87407=
0000012000
87430
0000054000
87439
0000049900
87460
0000047900
87470=
0000052200
87585
0000052200
87663
0000064600
87774
0000060500
87964
0000060600
88192
0000054400
88440
0000075100
88726
0000064800
89198=
0000071100
93692
0000068900
074
USAA01 NZCM 110000
TTAA 61001 89664
99997 00056 18501 00512 ///// ///// 92601 07158 18518
85255 11341 17017 70716 21114 15006 50514 33959 24513
40666 44759 24520 30855 51765 24023 25975 45585 24514
20124 43786 24513 15318 43586 26009 10592 41586 23504
88320 52361 23026
77999
31313 48008 82219=

0000069700
87361=
0000011200
87368=
0000015000
87382
0000012800
87386=
0000045700
87427=
0000045900
87505
0000050000
87526
0000050100
87565
0000062500
87605
0000054300
87651
0000058400
87783
0000054300
87977
0000068800
88153=
0000058600
89968
0000066900
90839
0000062800
92068
0000062900
93703
0000073000
075
USAA01 NZCM 110000
TTAA 61001 89664
99997 00056 18501 00512 ///// ///// 92601 07158 18518
85255 11341 17017 70716 21114 15006 50514 33959 24513
40666 44759 24520 30855 51765 24023 25975 45585 24514
20124 43786 24513 15318 43586 26009 10592 41586 23504
88320 52361 23026
77999
31313 48008 82219=

0000069700
87361=
0000011200
87368
0000009600
87371
0000035800
87378
0000037300
87381
0000039400
87385=
0000043700
87428
0000047800
87442
0000056100
87461
0000047900
87477=
0000056300
87584
0000052200
87646
0000064600
87799
0000062600
87989
0000062600
88177=
0000054500
89975
0000062800
90852
0000073200
92066
0000008000
93719
0000071000
076
USAA01 NZCM 110000
TTAA 61001 89664
99997 00056 18501 00512 ///// ///// 92601 07158 18518
85255 11341 17017 70716 21114 15006 50514 33959 24513
40666 44759 24520 30855 51765 24023 25975 45585 24514
20124 43786 24513 15318 43586 26009 10592 41586 23504
88320 52361 23026
77999
31313 48008 82219=

0000069700
87361=
0000011200
87368
0000009600
87371
0000035800
87378
0000037300
87381
0000039400
87385
0000039400
87407=
0000012000
87430
0000054000
87439
0000049900
87460
0000047900
87470=
0000052200
87585
0000052200
87663=
0000064700
88226
0000062700
88500
0000060700
88759=
0000067000
92037
0000067000
93713
0000075900
077
SMUS04 KWBC 110000 RRE
AAXX 11004
72266 31959 02912 10183 21089 39433 40058 53011 705// 92352 333
10222 20106 555 91100=
72271 35966 02303 10156 21111 38490 40100 53006 92353 333 10167
20022 555 91100=
72320 15266 81507 10100 20094 39942 40170 58012 69981 92353 333
10100 20039 555 91100=
72324 11212 80000 10072 20067 39925 40176 58010 69951 751// 92353
333 10083 20056 555 91100=
72326 32666 80000 10089 20061 39804 40163 58017 92353 333 10106
20028 555 91100=
72327 32466 81913 10117 20089 39889 40138 56008 92353 333 10128
20072 91021 555 91100=
72351 32966 03409 10100 21017 39705 40065 51027 92352 333 10206
20044 555 91100=
72353 32966 22905 10094 21033 39607 40063 51024 92352 333 10150
20033 555 91100=
0000373500
078
SMUS04 KWBC 110000
AAXX 11004
72297 31959 02005 10183 20089 30160 40171 55007 705// 92353 333
10206 20078 555 91100=
72371 35966 03604 10106 21044 38687 40156 53004 92353 333 10133
20011 555 91100=
72387 35966 02406 10167 21033 39033 40170 55003 92352 333 10172
20028 555 91100=
72408 11220 80505 10022 20006 30249 40270 55008 60011 761// 92354
333 10022 21016 96010 555 91100=
72677 32966 42814 10044 21044 38803 40056 51022 92353 333 10061
21021 4/003 555 91100=
72767 35966 42704 11061 21094 39321 40020 53017 92352 333 10000
21067 555 91100=
72768 35966 03104 11039 21078 39206 40035 51022 92353 333 10000
21061 555 91100=
72783 32966 80000 10089 21011 39636 40156 51007 92356 333 10100
20056 555 91100=
72274 32966 02606 10178 21067 39273 40168 55001 92353 333 10189
20028 555 91100=
72278 32966 42103 10189 21039 39774 40166 55002 92351 333 10194
20067 555 91100=
72290 32961 23006 10189 20094 30161 40177 56005 92351 333 10206
20100 555 91100=
72295 32962 42704 10172 20100 30120 40174 55005 92353 333 10183
20094 555 91100=
72383 35966 0//03 10122 21017 38658 40189 55004 92348 333 10178
20050 555 91100=
72394 32966 03010 10189 20089 30104 40194 55000 92351 333 10244
20111 555 91100=
72462 35966 03108 11028 21128 37640 40180 53009 92352 333 11006
21211 555 91100=
72488 32866 80000 10122 21006 38712 40228 55003 92355 333 10133
20000 555 91100=
72492 32966 02906 10156 20067 30208 40219 56015 92355 333 10161
20050 555 91100=
72572 32866 81504 10056 21028 38730 40190 53012 92353 333 10061
21016 4/018 555 91100=
72583 35866 41209 10078 21006 38738 40222 50002 92356 333 10089
20022 555 91100=
72591 35966 00000 10172 20033 30098 40223 56015 92354 333 10172
20022 555 91100=
72605 17859 20000 11083 21094 30149 40280 55003 69931 710// 92351
333 11039 21189 555 91100=
72639 37259 81307 11006 21022 39862 40121 58028 710// 92354 333
11006 21106 555 91100=
72793 12466 81809 10089 20056 39989 40159 56023 69901 92353 333
10094 20083 555 91100=
72797 17440 81511 10089 20067 30037 40103 58043 60051 762// 92353
333 10089 20083 91017 96010 555 91100=
72302 15566 81307 10200 20167 3//// 40218 58010 69931 92353 333
10233 20061 555 91100=
72314 12266 80204 10061 20056 39953 40219 56009 60031 92352 333
10067 20033 555 91100=
72334 32666 81615 10122 20083 39975 40078 56036 92354 333 10150
20072 91018 555 91100=
72370 35966 00204 10161 21061 39007 40164 53003 92351 333 10172
21027 555 91100=
72374 35966 01203 10128 21056 38509 40179 51007 92356 333 10139
21060 555 91100=
72376 32966 03011 10067 21094 38278 40163 53009 92353 333 10083
21038 555 91100=
72384 35964 02203 10161 20050 30045 40224 55005 92354 333 10167
20056 555 91100=
72386 32966 61404 10156 21033 39429 40167 55003 92356 333 10161
20056 555 91100=
72389 31956 60000 10161 20056 30105 40229 55009 705// 92353 333
10161 20056 555 91100=
72405 11424 80605 10028 20017 30238 40260 56008 60051 751// 92352
333 10039 21021 96010 555 91100=
72475 35966 01904 10078 21011 3//// 40196 53005 92352 333 10089
21060 555 91100=
72486 35966 02903 10056 21039 38110 40205 53008 92353 333 10078
21021 555 91100=
72570 35566 82418 11006 21056 38061 40174 53018 92353 333 11006
21144 555 91100=
72578 32666 42224 10033 21028 38623 40169 53014 92353 333 10050
21021 91029 555 91100=
72594 37124 80000 10106 20089 30205 40233 56007 710// 92353 333
10128 20094 555 91100=
72597 32464 80000 10083 20050 39750 40223 56017 92353 555 91100=
72681 32766 80106 10050 21006 39183 40207 50004 92353 333 10061
20011 555 91100=
72683 35566 80000 10044 21006 38760 40212 55001 92353 333 10050
20000 555 91100=
0000370000
079
SMUS04 KWBC 110000 RRB
AAXX 11004
72645 11258 81508 10011 20006 39801 40052 56037 69951 761// 92353
333 10011 21050 96010 555 91100=
72651 31859 62705 11006 21017 39498 40019 51005 710// 92356 333
10006 21039 4/008 555 91100=
72654 35966 02706 11033 21061 39551 40024 51010 92355 333 10028
21039 555 91100=
72658 11358 81503 11006 21017 39698 40021 58010 69901 710// 92353
333 11006 21089 4/015 555 91100=
72662 32966 63307 10017 21061 38923 40046 53012 92352 333 10061
21027 555 91100=
72666 35866 83012 10033 21056 38685 40065 51023 92353 333 10044
21083 555 91100=
72712 35966 01804 11100 21161 30004 40252 56004 92354 333 11083
21189 555 91100=
72747 37248 81704 11044 21056 39556 49996 58008 710// 92355 333
11044 21100 555 91100=
72421 32466 81411 10089 20078 39796 40117 58034 92352 333 10100
20006 555 91100=
72428 32566 81311 10078 20056 39848 40145 58037 92351 333 10078
20006 555 91100=
72429 11104 81511 10067 20061 39761 40126 58032 69931 710// 92356
333 10067 20006 555 91100=
72432 11959 61305 10083 20067 39962 40101 58028 60021 710// 92354
333 10089 20017 555 91100=
72438 11220 81708 10033 20033 39818 40109 56021 60021 761// 92354
333 10044 21005 4/020 96010 555 91100=
72445 12366 81711 10067 20061 39692 40013 58007 60061 92354 333
10072 20006 555 91100=
72451 35866 43116 10033 21022 39144 40062 53026 92352 333 10094
21005 555 91100=
72458 17340 82807 10006 20006 39496 40027 53013 69931 771// 92355
333 10028 20000 96010 555 91100=
72480 35966 03618 10200 21056 38759 40157 53004 92356 333 10239
20044 91024 555 91100=
72494 32466 60000 10133 20083 30192 40222 56015 92356 333 10156
20100 555 91100=
72530 11361 81816 10039 20017 39804 40044 60111 761// 92351 333
10039 21027 4/015 555 91100=
72533 11124 81405 10028 20022 39811 40111 58026 60021 761// 92354
333 10033 21016 4/010 96010 555 91100=
72537 31248 81304 10028 20017 39896 40134 58030 710// 92353 333
10028 21043 555 91100=
72546 11108 /0000 10011 20006 39657 40010 56003 60011 751// 92354
333 10017 21049 4/003 96041 555 91100=
72547 11132 81609 10006 20006 39615 40008 56028 60021 710// 92353
333 10006 21056 555 91100=
72548 17228 81203 10000 20000 39690 40009 58016 60021 710// 92354
333 10000 21067 555 91100=
72552 12866 23006 10011 21022 39363 40027 53013 69901 92353 333
10044 21005 555 91100=
72557 31232 82903 10006 21006 39611 40018 55002 710// 92352 333
10011 21028 555 91100=
72564 32966 03014 11006 21089 38018 40082 51018 92353 333 10017
21050 91024 555 91100=
72565 32966 42912 10011 21089 38253 40074 51021 92353 333 10050
21043 555 91100=
72566 35966 83408 10028 21072 38696 40065 53017 92353 333 10067
21005 555 91100=
72569 32966 03304 11039 21089 38270 40095 53014 92353 333 10011
21061 555 91100=
72592 32966 00000 10167 20039 30034 40219 56017 92353 333 10172
20000 555 91100=
72635 11248 81615 10039 20022 39795 40087 58036 60051 763// 92353
333 10039 21043 4/028 96010 555 91100=
72637 31358 81512 10033 20011 39832 40115 58035 710// 92353 333
10033 21043 555 91100=
72638 17248 81509 11006 21011 39675 40105 56025 69901 710// 92353
333 11006 21094 96010 555 91100=
72640 11256 81615 10017 20011 39790 40042 58045 60071 710// 92352
333 10022 21043 4/018 96010 555 91100=
72659 35966 02207 11061 21078 39530 40018 53004 92353 333 10017
21094 555 91100=
72672 35966 03020 10011 21078 38237 40093 53024 92353 333 10028
21067 555 91100=
72694 32866 81712 10117 20072 30095 40167 56036 92356 333 10117
20094 555 91100=
72745 11212 81806 11039 21056 39490 40022 58012 69951 773// 92355
333 11039 21100 96073 96010 555 91100=
0000374600
080
SMUS04 KWBC 110000 RRC
AAXX 11004
72753 32961 01808 11044 21067 39652 49992 58000 92353 333 11017
21061 555 91100=
72764 32966 02609 11022 21072 39400 40006 53004 92352 333 10028
21067 555 91100=
72781 32866 82107 10106 20011 39755 40139 53004 92353 333 10128
21016 555 91100=
72203 12566 61408 10246 20210 30182 40189 53005 69901 92353 333
10267 20167 555 91100=
72205 32766 41304 10217 20189 30154 40188 53002 92353 333 10272
20200 555 91100=
72208 12666 61703 10178 20161 30190 40207 55000 60011 92356 333
10239 20122 555 91100=
72212 15/// /0000 30171 40187 53007 69931 92353 555 91100=
72218 11232 83405 10094 20089 30146 40200 58008 60091 710// 92353
333 10094 20078 555 91100=
72219 11104 81006 10089 20083 39815 40194 55004 69951 751// 92352
333 10094 20039 96010 555 91100=
72220 37112 90903 10178 20167 30173 40178 51004 710// 92353 555
91100=
72223 12264 81207 10150 20150 30075 40153 58006 69951 92356 333
10161 20083 555 91100=
72226 11116 /0805 10117 20111 30093 40169 56009 69951 761// 92353
333 10117 20078 96010 555 91100=
72231 31108 81303 10161 20161 30132 40143 56003 710// 92353 333
10189 20100 555 91100=
72234 32264 80000 10128 20117 30035 40142 58013 92358 333 10139
20061 555 91100=
72235 32666 81414 10150 20122 30015 40121 58014 92354 333 10167
20050 555 91100=
72240 11256 81709 10178 20172 30108 40119 58008 69931 761// 92353
333 10189 20106 96010 555 91100=
72248 11448 81809 10167 20150 39975 40069 58006 69951 761// 92356
333 10194 20106 96010 555 91100=
72250 32966 01810 10228 20183 30102 40108 53007 92353 333 10272
20189 555 91100=
72253 32966 82207 10211 20144 39813 40087 53008 92351 333 10228
20183 555 91100=
72255 12566 41703 10217 20189 30061 40098 53005 60011 92351 333
10233 20172 555 91100=
72263 32966 02510 10200 21067 39408 40072 53007 92351 333 10228
20089 555 91100=
72267 32966 22910 10128 21089 38940 40052 53006 92353 333 10167
20044 555 91100=
72268 32966 02809 10167 21117 38835 40076 53009 92351 333 10206
21043 555 91100=
72270 32966 02618 10161 21100 38780 40099 55001 92351 333 10172
20089 555 91100=
72332 12266 81808 10111 20000 39999 40123 58023 69931 92353 333
10111 20078 91018 555 91100=
72344 11156 60605 10094 20089 39864 40032 56009 60051 710// 92353
333 10139 20017 555 91100=
72356 32766 22909 10089 20000 39799 40044 53030 92353 333 10150
20022 555 91100=
72360 35966 03016 10072 21161 38394 40068 53020 92355 333 10111
20000 91024 555 91100=
72363 32966 22904 10089 21117 38837 40062 53009 92353 333 10128
20056 555 91100=
72365 32966 23210 10117 21128 38331 40113 53002 92352 333 10128
21021 91020 555 91100=
72401 11132 81203 10044 20039 30183 40249 56017 60031 761// 92354
333 10044 20006 96010 555 91100=
72412 35266 61411 10078 20056 39291 40190 56017 92351 333 10089
20022 555 91100=
72507 11216 80000 10006 20000 30265 40283 50000 69931 751// 92351
333 10006 21100 96010 555 91100=
72509 31458 82106 10022 20006 30273 40281 55004 710// 92354 333
10028 21078 555 91100=
72514 31459 80605 10011 21022 30049 40253 56012 705// 92354 333
10017 21032 555 91100=
72518 32666 81706 10011 21028 30153 40263 56007 92351 333 10011
21116 4/005 555 91100=
72526 32766 81610 10050 20028 39904 40176 56024 92351 333 10050
21005 91017 555 91100=
74740 35961 02208 10183 20078 39484 40066 57001 92351 333 10206
20111 555 91100=
72306 11116 80205 10067 20056 30067 40225 58007 60101 763// 92351
333 10072 20039 96010 555 91100=
72308 17956 80000 10061 20056 30233 40249 58015 60021 710// 92351
333 10167 20011 555 91100=
72310 12348 80000 10094 20089 30118 40208 51002 60361 92356 333
10106 20078 555 91100=
0000374900
081
SMUS04 KWBC 110000 RRD
AAXX 11004
72312 11120 80205 10083 20078 39862 40206 56006 60021 710// 92353
333 10089 20028 555 91100=
72315 11140 81903 10072 20067 39419 40204 55006 69931 710// 92354
333 10100 20011 555 91100=
72317 11156 80305 10033 20028 39891 40225 58010 60061 761// 92354
333 10039 20017 96010 555 91100=
72402 17756 81504 10061 20050 30243 40255 57014 60021 710// 92354
333 10100 21005 555 91100=
72403 11212 80000 10017 20011 30145 40259 56006 60021 751// 92352
333 10017 21010 96010 555 91100=
72406 11116 80000 10022 20017 30185 40259 55009 60031 761// 92354
333 10022 21016 96010 555 91100=
72411 11116 80000 10033 20028 39806 40245 56005 60031 710// 92354
333 10039 20006 555 91100=
72414 32866 60804 10100 20078 39792 40160 56026 92354 333 10133
20011 555 91100=
72417 35766 81607 10106 20061 39482 40201 57016 92351 333 10111
20017 555 91100=
72425 32766 21005 10089 20078 39847 40153 56029 92351 333 10106
20011 555 91100=
72456 12261 82707 10033 20017 39705 40024 53015 69901 92353 333
10050 20000 555 91100=
72465 15966 03208 10000 21044 38790 40065 53017 69951 92353 333
10056 21060 555 91100=
72502 11116 80104 10011 20006 30265 40274 56008 69951 751// 92351
333 10011 21032 96010 555 91100=
72503 11224 80505 10006 21006 30260 40273 56008 69951 751// 92351
333 10011 21027 96010 555 91100=
72504 11220 80103 10011 20011 30269 40277 58007 69931 710// 92352
333 10011 21049 555 91100=
72508 11456 81904 10006 21006 30201 40278 55003 69931 710// 92351
333 10006 21111 4/003 555 91100=
72513 32464 41905 10011 21006 39892 40250 58009 92354 333 10033
21050 555 91100=
72517 31224 80000 10006 21011 30126 40269 56009 710// 92351 333
10011 21033 555 91100=
72519 32766 80506 10022 21011 30067 40222 56013 92354 333 10039
21071 555 91100=
72520 32366 81204 10061 20050 39756 40196 58018 92351 333 10078
21005 555 91100=
72521 31202 91506 10051 20051 39713 40169 58028 741// 92351 333
10050 21010 555 91100=
72524 31259 81612 10050 20033 39874 40162 56031 710// 92351 333
10056 21005 4/010 555 91100=
72528 32466 81705 10033 20017 39911 40187 58021 92354 333 10039
21055 4/015 555 91100=
72606 12866 82303 11017 21044 30252 40273 56008 69901 92351 333
11011 21161 555 91100=
74486 11108 80103 10028 20017 30266 40275 56010 69951 761// 92351
333 10033 21038 96010 555 91100=
72201 32966 01108 10233 20222 30170 40174 50004 92353 333 10267
20206 555 91100=
72202 32466 61207 10250 20217 30179 40189 51006 92353 333 10272
20222 555 91100=
72206 32566 20607 10189 20183 30181 40189 53003 92356 333 10261
20150 555 91100=
72207 11256 81309 10183 20172 30186 40201 53001 60021 710// 92353
333 10228 20133 555 91100=
72211 32766 62003 10217 20194 30176 40187 53004 92353 333 10261
20200 555 91100=
72214 11124 81606 10194 20183 30166 40184 53002 69901 710// 92353
333 10206 20144 555 91100=
72217 11116 90703 10106 20106 30062 40193 58005 69951 710// 92353
333 10111 20061 555 91100=
72241 12264 81711 10183 20172 30095 40102 56008 69951 92353 333
10211 20128 555 91100=
72243 12466 81906 10206 20183 30051 40095 53000 69901 92353 333
10211 20139 555 91100=
72251 12666 41607 10211 20189 30079 40097 53009 69901 92351 333
10250 20183 555 91100=
72254 15966 02105 10200 20144 39863 40081 50005 69981 92351 333
10222 20178 555 91100=
72256 32966 02008 10172 20150 39885 40061 55002 92351 333 10217
20150 555 91100=
72259 12666 42310 10189 20100 39848 40048 53005 69931 92353 333
10211 20078 555 91100=
72261 35964 01505 10178 20089 39732 40092 53001 92353 333 10194
20094 555 91100=
72265 35966 02414 10178 21078 39084 40061 58003 92353 333 10206
20078 555 91100=
0000256100
082
SMUS02 KWBC 110000 RRA
AAXX 11004
72302 15566 81307 10200 20167 3//// 40218 58010 69931 92353 333
10233 20061 555 91100=
72308 17956 80000 10061 20056 30233 40249 58015 60021 710// 92351
333 10167 20011 555 91100=
72310 12348 80000 10094 20089 30118 40208 51002 60361 92356 333
10106 20078 555 91100=
72311 11120 80806 10078 20072 39905 40201 56007 60011 710// 92351
333 10083 20033 555 91100=
72312 11120 80205 10083 20078 39862 40206 56006 60021 710// 92353
333 10089 20028 555 91100=
72314 12266 80204 10061 20056 39953 40219 56009 60031 92352 333
10067 20033 555 91100=
72317 11156 80305 10033 20028 39891 40225 58010 60061 761// 92354
333 10039 20017 96010 555 91100=
72323 12566 81305 10106 20083 39924 40152 58008 60011 92353 333
10122 20067 555 91100=
72324 11212 80000 10072 20067 39925 40176 58010 69951 751// 92353
333 10083 20056 555 91100=
72326 32666 80000 10089 20061 39804 40163 58017 92353 333 10106
20028 555 91100=
72327 32466 81913 10117 20089 39889 40138 56008 92353 333 10128
20072 91021 555 91100=
72334 32666 81615 10122 20083 39975 40078 56036 92354 333 10150
20072 91018 555 91100=
72344 11156 60605 10094 20089 39864 40032 56009 60051 710// 92353
333 10139 20017 555 91100=
72351 32966 03409 10100 21017 39705 40065 51027 92352 333 10206
20044 555 91100=
72353 32966 22905 10094 21033 39607 40063 51024 92352 333 10150
20033 555 91100=
72356 32766 22909 10089 20000 39799 40044 53030 92353 333 10150
20022 555 91100=
72360 35966 03016 10072 21161 38394 40068 53020 92355 333 10111
20000 91024 555 91100=
72363 32966 22904 10089 21117 38837 40062 53009 92353 333 10128
20056 555 91100=
72365 32966 23210 10117 21128 38331 40113 53002 92352 333 10128
21021 91020 555 91100=
72370 35966 00204 10161 21061 39007 40164 53003 92351 333 10172
21027 555 91100=
72371 35966 03604 10106 21044 38687 40156 53004 92353 333 10133
20011 555 91100=
72374 35966 01203 10128 21056 38509 40179 51007 92356 333 10139
21060 555 91100=
72376 32966 03011 10067 21094 38278 40163 53009 92353 333 10083
21038 555 91100=
72384 35964 02203 10161 20050 30045 40224 55005 92354 333 10167
20056 555 91100=
72386 32966 61404 10156 21033 39429 40167 55003 92356 333 10161
20056 555 91100=
72387 35966 02406 10167 21033 39033 40170 55003 92352 333 10172
20028 555 91100=
72389 31956 60000 10161 20056 30105 40229 55009 705// 92353 333
10161 20056 555 91100=
72394 32966 03010 10189 20089 30104 40194 55000 92351 333 10244
20111 555 91100=
0000287600
083
SMUS03 KWBC 110000 RRA
AAXX 11004
72401 11132 81203 10044 20039 30183 40249 56017 60031 761// 92354
333 10044 20006 96010 555 91100=
72403 11212 80000 10017 20011 30145 40259 56006 60021 751// 92352
333 10017 21010 96010 555 91100=
72407 11108 90000 10050 20050 30221 40264 56013 60031 741// 92354
333 10056 21049 555 91100=
72408 11220 80505 10022 20006 30249 40270 55008 60011 761// 92354
333 10022 21016 96010 555 91100=
72411 11116 80000 10033 20028 39806 40245 56005 60031 710// 92354
333 10039 20006 555 91100=
72412 35266 61411 10078 20056 39291 40190 56017 92351 333 10089
20022 555 91100=
72414 32866 60804 10100 20078 39792 40160 56026 92354 333 10133
20011 555 91100=
72417 35766 81607 10106 20061 39482 40201 57016 92351 333 10111
20017 555 91100=
72421 32466 81411 10089 20078 39796 40117 58034 92352 333 10100
20006 555 91100=
72422 32566 21407 10100 20072 39770 40128 58028 92354 333 10117
20033 555 91100=
72428 32566 81311 10078 20056 39848 40145 58037 92351 333 10078
20006 555 91100=
72432 11959 61305 10083 20067 39962 40101 58028 60021 710// 92354
333 10089 20017 555 91100=
72435 11658 81609 10094 20078 39937 40080 56044 60011 763// 92353
333 10094 20022 96010 555 91100=
72438 11220 81708 10033 20033 39818 40109 56021 60021 761// 92354
333 10044 21005 4/020 96010 555 91100=
72440 11562 81514 10089 20078 39552 40009 58016 60021 92352 333
10094 20011 555 91100=
72445 12366 81711 10067 20061 39692 40013 58007 60061 92354 333
10072 20006 555 91100=
72446 12366 82707 10039 20028 39632 40012 53008 69901 92353 333
10056 21010 555 91100=
72450 32766 42504 10028 21017 39553 40037 53014 92353 333 10089
20017 555 91100=
72451 35866 43116 10033 21022 39144 40062 53026 92352 333 10094
21005 555 91100=
72456 12261 82707 10033 20017 39705 40024 53015 69901 92353 333
10050 20000 555 91100=
72458 17340 82807 10006 20006 39496 40027 53013 69931 771// 92355
333 10028 20000 96010 555 91100=
72462 35966 03108 11028 21128 37640 40180 53009 92352 333 11006
21211 555 91100=
72464 35966 02915 10056 21133 38491 40080 53023 92353 333 10100
21032 91024 555 91100=
72465 15966 03208 10000 21044 38790 40065 53017 69951 92353 333
10056 21060 555 91100=
72475 35966 01904 10078 21011 3//// 40196 53005 92352 333 10089
21060 555 91100=
72476 32966 00705 11039 21067 38523 40187 53006 92353 333 10006
21122 555 91100=
72480 35966 03618 10200 21056 38759 40157 53004 92356 333 10239
20044 91024 555 91100=
72486 35966 02903 10056 21039 38110 40205 53008 92353 333 10078
21021 555 91100=
72488 32866 80000 10122 21006 38712 40228 55003 92355 333 10133
20000 555 91100=
72492 32966 02906 10156 20067 30208 40219 56015 92355 333 10161
20050 555 91100=
72494 32466 60000 10133 20083 30192 40222 56015 92356 333 10156
20100 555 91100=
0000297300
084
SMUS04 KWBC 110000 RRA
AAXX 11004
72503 11224 80505 10006 21006 30260 40273 56008 69951 751// 92351
333 10011 21027 96010 555 91100=
72508 11456 81904 10006 21006 30201 40278 55003 69931 710// 92351
333 10006 21111 4/003 555 91100=
72509 31458 82106 10022 20006 30273 40281 55004 710// 92354 333
10028 21078 555 91100=
72514 31459 80605 10011 21022 30049 40253 56012 705// 92354 333
10017 21032 555 91100=
72515 32362 81505 10006 21011 39638 40240 56010 92353 333 10011
21061 555 91100=
72518 32666 81706 10011 21028 30153 40263 56007 92351 333 10011
21116 4/005 555 91100=
72519 32766 80506 10022 21011 30067 40222 56013 92354 333 10039
21071 555 91100=
72520 32366 81204 10061 20050 39756 40196 58018 92351 333 10078
21005 555 91100=
72524 31259 81612 10050 20033 39874 40162 56031 710// 92351 333
10056 21005 4/010 555 91100=
72526 32766 81610 10050 20028 39904 40176 56024 92351 333 10050
21005 91017 555 91100=
72528 32466 81705 10033 20017 39911 40187 58021 92354 333 10039
21055 4/015 555 91100=
72530 11361 81816 10039 20017 39804 40044 60111 761// 92351 333
10039 21027 4/015 555 91100=
72532 11259 81612 10039 20033 39778 40026 58032 60171 761// 92354
333 10039 21010 96010 555 91100=
72533 11124 81405 10028 20022 39811 40111 58026 60021 761// 92354
333 10033 21016 4/010 96010 555 91100=
72537 31248 81304 10028 20017 39896 40134 58030 710// 92353 333
10028 21043 555 91100=
72546 11108 /0000 10011 20006 39657 40010 56003 60011 751// 92354
333 10017 21049 4/003 96041 555 91100=
72547 11132 81609 10006 20006 39615 40008 56028 60021 710// 92353
333 10006 21056 555 91100=
72552 12866 23006 10011 21022 39363 40027 53013 69901 92353 333
10044 21005 555 91100=
72556 37859 42903 11006 21017 39457 40018 51012 710// 92356 333
10044 21017 555 91100=
72557 31232 82903 10006 21006 39611 40018 55002 710// 92352 333
10011 21028 555 91100=
72562 15966 42904 11006 21017 39061 40056 53012 69931 92353 333
10061 21044 555 91100=
72564 32966 03014 11006 21089 38018 40082 51018 92353 333 10017
21050 91024 555 91100=
72565 32966 42912 10011 21089 38253 40074 51021 92353 333 10050
21043 555 91100=
72567 35966 23406 10028 21067 39120 40045 51015 92352 333 10078
21027 555 91100=
72569 32966 03304 11039 21089 38270 40095 53014 92353 333 10011
21061 555 91100=
72570 35566 82418 11006 21056 38061 40174 53018 92353 333 11006
21144 555 91100=
72572 32866 81504 10056 21028 38730 40190 53012 92353 333 10061
21016 4/018 555 91100=
72578 32666 42224 10033 21028 38623 40169 53014 92353 333 10050
21021 91029 555 91100=
72583 35866 41209 10078 21006 38738 40222 50002 92356 333 10089
20022 555 91100=
72591 35966 00000 10172 20033 30098 40223 56015 92354 333 10172
20022 555 91100=
72594 37124 80000 10106 20089 30205 40233 56007 710// 92353 333
10128 20094 555 91100=
72597 32464 80000 10083 20050 39750 40223 56017 92353 555 91100=
0000230500
085
SMUS05 KWBC 110000 RRA
AAXX 11004
72606 12866 82303 11017 21044 30252 40273 56008 69901 92351 333
11011 21161 555 91100=
72617 32866 81808 10006 21039 30117 40250 56007 92354 333 10006
21100 4/010 555 91100=
72635 11248 81615 10039 20022 39795 40087 58036 60051 763// 92353
333 10039 21043 4/028 96010 555 91100=
72636 11316 81411 10022 20006 39844 40076 57037 60081 763// 92355
333 10022 21049 4/030 96010 555 91100=
72637 31358 81512 10033 20011 39832 40115 58035 710// 92353 333
10033 21043 555 91100=
72638 17248 81509 11006 21011 39675 40105 56025 69901 710// 92353
333 11006 21094 96010 555 91100=
72639 37259 81307 11006 21022 39862 40121 58028 710// 92354 333
11006 21106 555 91100=
72640 11256 81615 10017 20011 39790 40042 58045 60071 710// 92352
333 10022 21043 4/018 96010 555 91100=
72641 11262 81408 10017 20006 39710 40025 56038 60021 92353 333
10017 21056 4/015 555 91100=
72644 11520 80603 11011 21028 39530 40018 56019 60011 771// 92354
333 11006 21083 555 91100=
72645 11258 81508 10011 20006 39801 40052 56037 69951 761// 92353
333 10011 21050 96010 555 91100=
72651 31859 62705 11006 21017 39498 40019 51005 710// 92356 333
10006 21039 4/008 555 91100=
72654 35966 02706 11033 21061 39551 40024 51010 92355 333 10028
21039 555 91100=
72658 11358 81503 11006 21017 39698 40021 58010 69901 710// 92353
333 11006 21089 4/015 555 91100=
72659 35966 02207 11061 21078 39530 40018 53004 92353 333 10017
21094 555 91100=
72662 32966 63307 10017 21061 38923 40046 53012 92352 333 10061
21027 555 91100=
72666 35866 83012 10033 21056 38685 40065 51023 92353 333 10044
21083 555 91100=
72677 32966 42814 10044 21044 38803 40056 51022 92353 333 10061
21021 4/003 555 91100=
72681 32766 80106 10050 21006 39183 40207 50004 92353 333 10061
20011 555 91100=
72683 35566 80000 10044 21006 38760 40212 55001 92353 333 10050
20000 555 91100=
72688 32766 82216 10094 20011 39623 40161 58006 92353 333 10094
20061 91021 555 91100=
72693 12566 81909 10106 20078 30049 40188 56027 69901 92354 333
10117 20083 555 91100=
72694 32866 81712 10117 20072 30095 40167 56036 92356 333 10117
20094 555 91100=
72698 11566 81809 10111 20072 30160 40168 56032 69931 761// 92353
333 10111 20094 555 91100=
00000000