0000010600
046
SAIR77 OIII 111100 RRB
 METAR OIZC 111100Z 13006KT CAVOK 21/M11 Q1020 A3012 SCT080 BKN170=
0000010600
047
SAIR78 OIII 111100 RRB
 METAR OIZC 111100Z 13006KT CAVOK 21/M11 Q1020 A3012 SCT080 BKN170=
0000069000
048
USAA01 NZCM 110000
TTAA 61001 89664
99997 00056 18501 00512 ///// ///// 92601 07158 18518
85255 11341 17017 70716 21114 15006 50514 33959 24513
40666 44759 24520 30855 51765 24023 25975 45585 24514
20124 43786 24513 15318 43586 26009 10592 41586 23504
88320 52361 23026
77999
31313 48008 82219=

0000069700
87361=
0000011200
87368=
0000015000
87382
0000012800
87386
0000045600
87406=
0000047800
87429
0000015700
87445=
0000050000
87538
0000054200
87552=
0000066700
87865
0000056400
88009
0000054400
88205=
0000060700
90038
0000067000
91058
0000075200
92337
0000069100
94079
0000071200
96255
0000066900
049
USAA01 NZCM 110000
TTAA 61001 89664
99997 00056 18501 00512 ///// ///// 92601 07158 18518
85255 11341 17017 70716 21114 15006 50514 33959 24513
40666 44759 24520 30855 51765 24023 25975 45585 24514
20124 43786 24513 15318 43586 26009 10592 41586 23504
88320 52361 23026
77999
31313 48008 82219=

0000069700
87361=
0000011200
87368=
0000015000
87382
0000012800
87386
0000045600
87406=
0000047800
87429
0000015700
87445
0000049900
87465
0000054100
87473
0000050000
87488
0000052100
87521
0000054200
87549
0000056300
87594
0000062500
87639=
0000054400
88218=
0000064900
90110=
0000342000
050
SMRA15 RUNW 110000
AAXX 11001
23074 NIL=
23078 11898 61307 11205 21246 30048 40136 53011 69902 73632 86070 333
21205 48031 55000 91012 91115=
23274 11797 72604 11272 21296 30122 40161 52031 60012 77173 82508 333
21273 47093 55000=
23383 NIL=
23472 11497 81503 11164 21198 30120 40171 52012 60012 78583 889// 333
21225 48112 55000=
23578 119// 81701 11142 21162 30132 40173 52009 60012 77173 8807/ 333
21175 48085=
23589 119// 80904 11290 21321 30110 4//// 54000 60012 77173 8807/ 333
21337 47077 55000=
23678 115// 81602 11134 21160 30134 40195 52006 69952 77173 885// 333
21166 48077=
23788 11897 81402 11194 21220 30154 40240 58001 60022 77172 8802/ 333
21239 47089=
23884 119// 80000 11174 21193 30144 40221 54000 60022 77172 8802/ 333
21212 37120 47077 55000=
23891 11996 80000 11309 21346 39968 57002 60012 77177 83036 333 21356
47083 55000=
24507 119// 81901 11422 21456 30059 40346 57009 69992 77172 80007 333
21508 47046 55000=
24817 119// 00000 11505 21531 30002 40442 57012 60002 74000 333 21510
47058 55000=
24908 11997 80000 11365 21401 39998 40381 57012 69972 77172 82037 333
21460 47051 55039=
29068 118// 81402 11128 21141 30156 40246 58001 60012 77177 8802/ 333
21147 47073=
29263 115// 81602 11101 21106 30153 40258 54001 60002 78582 8395/ 333
21127 47065 55014=
29274 11965 81302 11096 21112 30155 40273 54000 69992 77177 8802/ 333
21138 47052=
29282 11962 80000 11247 21272 30133 40320 57007 69972 77172 80007 333
21293 47032 55000=
29363 13/// /2303 11088 21098 30029 40265 54001 60002 333 21114=
29379 11997 81803 11117 21131 30071 40294 57003 69982 77172 80007 333
21151 47035=
29456 63/// /2204 11069 21106 30013 40279 52008 60002 333 21090=
29464 119// 82104 11078 21092 39977 40279 52003 60012 77173 8802/ 333
21091 47034=
29477 11996 82102 11091 21110 30077 40293 54001 69962 77172 8802/ 333
21162 47030=
29563 11899 82404 11091 21111 39680 40295 52003 69972 70273 8802/ 333
21116 47079 91110=
29570 11596 82302 11073 21105 39936 40294 52005 69902 78582 889// 333
21095 47032=
29576 11897 82302 11095 21105 39815 40301 52002 69972 77172 86037 333
21133 48029=
29662 11996 81901 11068 21088 39893 40310 5//// 69962 77172 8802/ 333
21095 47027=
29698 119// 80000 11226 21243 39801 40364 57008 69902 77102 86071 333
21276 47023 55021=
29892 129// 61801 11257 21281 39461 40419 58006 60002 82041 333 21302
47017=
30028 12997 72701 11464 21476 39923 40460 57006 60002 83041 333 21498
47022=
30142 129// 00000 11489 21524 30141 40498 52002 60002 333 21500
47050=
30157 11995 00000 11466 21502 30176 40526 52014 60002 71000 333 21475
47055=
30230 41/// 90000 11490 21524 30084 40489 58004 74742 333 21494 48034
55043=
30252 119// 00000 11468 21490 30161 40546 52013 60002 74840 333 21468
47031 55015=
30309 11998 80000 11227 21246 39797 40368 57003 69932 77172 8802/ 333
21251 47034 55041=
30328 129// 30000 11394 21423 39965 40467 52002 60002 80001 333 21394
48040 55024=
30439 11998 03602 11235 21275 39774 40411 52015 60002 71100 333 21262
48025=
30521 129// 60000 11319 21337 39839 40437 52005 69922 80001 333 21324
47037 55000=
30710 11995 80701 11190 21202 39765 40397 52003 69952 77172 80006 333
21191 47026 55024=
30815 12999 02701 11209 21221 38594 48525 52001 60002 333 21223 48104
55045 333 1/129 53004 7000/=
36103 NIL=
0000075200
051
USAA01 NZCM 110000
TTAA 61001 89664
99997 00056 18501 00512 ///// ///// 92601 07158 18518
85255 11341 17017 70716 21114 15006 50514 33959 24513
40666 44759 24520 30855 51765 24023 25975 45585 24514
20124 43786 24513 15318 43586 26009 10592 41586 23504
88320 52361 23026
77999
31313 48008 82219=

0000069700
87361=
0000011200
87368
0000009600
87371
0000035800
87378
0000037300
87381
0000039400
87385
0000039400
87407=
0000012000
87430
0000054000
87439
0000049900
87460=
0000048000
87541
0000054200
87545=
0000052300
87864
0000056400
88023=
0000060700
89427
0000060700
90119
0000075200
91110
0000067000
92389
0000069100
94120
0000071200
96282
0000071000
052
USAA01 NZCM 110000
TTAA 61001 89664
99997 00056 18501 00512 ///// ///// 92601 07158 18518
85255 11341 17017 70716 21114 15006 50514 33959 24513
40666 44759 24520 30855 51765 24023 25975 45585 24514
20124 43786 24513 15318 43586 26009 10592 41586 23504
88320 52361 23026
77999
31313 48008 82219=

0000069700
87361=
0000011200
87368=
0000015000
87382
0000012800
87386
0000045600
87406
0000047700
87410
0000049800
87416=
0000045800
87478
0000043800
87484=
0000050100
87716
0000056400
87839
0000050200
88021=
0000058600
89425
0000060700
90128
0000069000
91127
0000067000
92412
0000069100
94061
0000075300
96238
0000066900
053
USAA01 NZCM 110000
TTAA 61001 89664
99997 00056 18501 00512 ///// ///// 92601 07158 18518
85255 11341 17017 70716 21114 15006 50514 33959 24513
40666 44759 24520 30855 51765 24023 25975 45585 24514
20124 43786 24513 15318 43586 26009 10592 41586 23504
88320 52361 23026
77999
31313 48008 82219=

0000069700
87361=
0000011200
87368=
0000015000
87382
0000012800
87386
0000045600
87406=
0000047800
87429
0000015700
87445
0000049900
87465
0000054100
87473
0000050000
87488
0000052100
87521
0000054200
87549=
0000056400
87860
0000054400
88008
0000064700
88191=
0000062800
90104=
0000335000
054
SMRA16 RUNW 110000
AAXX 11001
23699 NIL=
23973 NIL=
23975 115// 80000 11112 21132 3//// 4//// 5//// 69972 70282 889// 333
21140 47061 55000=
23982 NIL=
23986 11996 82302 11159 21186 39591 40261 58004 60032 77172 8801/ 333
21162 48072=
23987 11499 81204 11137 21157 30156 40234 54000 69952 70283 8595/ 333
21157 47083 55000=
23992 119// 81801 11281 21312 30076 40330 57006 69952 77177 80007 333
21337 48051=
24606 119// 80801 11448 21478 30066 40387 57016 69932 77171 80007 333
21527 47036 55025=
24802 NIL=
24807 NIL=
29253 118// 80000 11090 21101 30060 40241 5//// 60022 77172 8802/ 333
21113 47067=
29276 NIL=
29367 13/// /2002 11080 21090 30039 40275 52005 60002 333 21105=
29374 119// 81802 11098 21110 30152 40275 54000 60012 77173 8807/ 333
21147 47053 55000=
29467 11597 82406 11068 21101 39955 40288 52005 69972 77173 8802/ 333
21087 47013 91111=
29471 11596 81802 11082 21097 30048 40284 54001 60012 78582 889// 333
21136 47038 88921=
29481 11997 80000 11145 21157 30047 40299 55001 69972 77172 80007 333
21156 47042=
29485 12/// /1001 11151 21162 39983 40315 55004 60002 333 21167=
29553 11598 82205 11073 21114 39911 40288 52009 60012 72687 8692/ 333
21104 47017 55005=
29561 118// 82303 11071 21111 39961 40292 52007 69952 77172 8802/ 333
21101 47026 55012=
29562 11549 82003 11084 21096 39868 40298 52005 69962 78587 889// 333
21097 47056=
29566 11897 82303 11077 21095 39941 40296 52001 69932 77172 86027 333
21091 47052 55028=
29571 NIL=
29581 119// 42701 11183 21203 30041 40317 55001 69902 70271 80001 333
21183 47017=
29594 11599 81301 11141 21154 39917 40325 57005 69902 70272 83901 333
21211 48027 55002=
29653 62597 71301 11090 21116 3//// 4//// 5//// 60002 87200 333
21090=
29674 NIL=
29676 12698 80000 11124 21151 39868 40310 53003 60002 885// 333 21200
47006 88640=
29752 114// 82711 11125 21138 38832 48477 52002 60042 78683 889// 333
21139 49032 55001 91123=
29759 115// 82703 11092 21132 39258 40319 52006 60012 77173 8372/ 333
21102 47026=
29766 11899 80000 11082 21092 39964 40331 53007 69982 70272 8802/ 333
21118 47024 55032=
29789 12999 80000 11179 21191 39098 40362 57008 60002 8801/ 333 21249
48009 55031=
29864 13/// /1701 11100 21130 39655 40329 52008 60002 333 21122=
29866 126// 80000 11038 21079 39994 40321 53004 60002 8357/ 333 21108
48003 55041=
29869 426// 80000 11085 21109 39960 40348 52002 8557/ 333 21117
48017=
29956 12984 50000 11112 21118 39769 40355 52005 60002 85030 333 21121
47009 55020=
30337 11996 00000 11450 21484 39951 40495 58001 60002 74000 333 21451
47040 55017=
30405 119// 70401 11220 21233 39789 40366 57008 69902 70271 87030 333
21241 47033 55005=
30504 11597 71802 11165 21178 39666 40358 58010 69902 82332 333 21193
47023 55014=
30603 12997 60000 11232 21238 39752 40386 52003 69902 86030 333 21236
47028=
30612 119// 60000 11211 21230 39808 40389 58004 69922 70272 86070 333
21211 47021 55///=
30622 129// 20000 11301 21326 39703 40432 52008 60002 82030 333 21312
47021=
30627 11999 00000 11215 21233 39377 40388 58003 69942 70171 333 21220
47019 55014=
30703 129// 20000 11315 21345 39649 40414 57002 60002 80002 333 21316
47035 55030=
36307 12997 01102 11355 21390 39104 48567 52004 60002 333 21366
47018=
0000069000
055
USAA01 NZCM 110000
TTAA 61001 89664
99997 00056 18501 00512 ///// ///// 92601 07158 18518
85255 11341 17017 70716 21114 15006 50514 33959 24513
40666 44759 24520 30855 51765 24023 25975 45585 24514
20124 43786 24513 15318 43586 26009 10592 41586 23504
88320 52361 23026
77999
31313 48008 82219=

0000069700
87361=
0000011200
87368=
0000015000
87382
0000012800
87386
0000045600
87406=
0000047800
87429
0000015700
87445=
0000050000
87538
0000054200
87552
0000066600
87599
0000058400
87652=
0000060600
88230
0000062700
88505
0000058600
88775
0000062700
89249=
0000073200
94131
0000062900
96289
0000062700
056
USAA01 NZCM 110000
TTAA 61001 89664
99997 00056 18501 00512 ///// ///// 92601 07158 18518
85255 11341 17017 70716 21114 15006 50514 33959 24513
40666 44759 24520 30855 51765 24023 25975 45585 24514
20124 43786 24513 15318 43586 26009 10592 41586 23504
88320 52361 23026
77999
31313 48008 82219=

0000069700
87361=
0000011200
87368
0000009600
87371
0000035800
87378
0000037300
87381
0000039400
87385=
0000043700
87428
0000047800
87442
0000056100
87461=
0000021900
87579=
0000050200
87870
0000054300
88010
0000064700
88198=
0000060700
90087=
0000062700
057
USAA01 NZCM 110000
TTAA 61001 89664
99997 00056 18501 00512 ///// ///// 92601 07158 18518
85255 11341 17017 70716 21114 15006 50514 33959 24513
40666 44759 24520 30855 51765 24023 25975 45585 24514
20124 43786 24513 15318 43586 26009 10592 41586 23504
88320 52361 23026
77999
31313 48008 82219=

0000069700
87361=
0000011200
87368
0000009600
87371
0000035800
87378
0000037300
87381=
0000039500
87413
0000041600
87422=
0000043800
87504
0000052100
87527=
0000052200
87750=
0000060600
88803
0000058600
89259=
0000067000
94085
0000079400
96269
0000062700
058
USAA01 NZCM 110000
TTAA 61001 89664
99997 00056 18501 00512 ///// ///// 92601 07158 18518
85255 11341 17017 70716 21114 15006 50514 33959 24513
40666 44759 24520 30855 51765 24023 25975 45585 24514
20124 43786 24513 15318 43586 26009 10592 41586 23504
88320 52361 23026
77999
31313 48008 82219=

0000069700
87361=
0000011200
87368=
0000015000
87382
0000012800
87386
0000045600
87406
0000047700
87410
0000049800
87416
0000051900
87420=
0000047900
87502=
0000052200
87721
0000058400
87831
0000054400
88003
0000064700
88182=
0000058700
90088=
0000071000
059
USAA01 NZCM 110000
TTAA 61001 89664
99997 00056 18501 00512 ///// ///// 92601 07158 18518
85255 11341 17017 70716 21114 15006 50514 33959 24513
40666 44759 24520 30855 51765 24023 25975 45585 24514
20124 43786 24513 15318 43586 26009 10592 41586 23504
88320 52361 23026
77999
31313 48008 82219=

0000069700
87361=
0000011200
87368=
0000015000
87382
0000012800
87386=
0000045700
87427
0000045800
87444
0000047900
87464=
0000052100
87578
0000056300
87627
0000052200
87675
0000060500
87810
0000056400
88020
0000060600
88213=
0000050400
90108
0000058700
91068
0000067000
92366
0000060800
94112
0000060800
96268
0000062700
060
USAA01 NZCM 110000
TTAA 61001 89664
99997 00056 18501 00512 ///// ///// 92601 07158 18518
85255 11341 17017 70716 21114 15006 50514 33959 24513
40666 44759 24520 30855 51765 24023 25975 45585 24514
20124 43786 24513 15318 43586 26009 10592 41586 23504
88320 52361 23026
77999
31313 48008 82219=

0000069700
87361=
0000011200
87368=
0000015000
87382=
0000030600
87414
0000014800
87423
0000049900
87438
0000052000
87459
0000058200
87471=
0000050100
87587
0000062500
87647
0000060500
87792
0000056400
87970=
0000058600
89391
0000066900
90039=
0000083400
061
USAA01 NZCM 110000
TTAA 61001 89664
99997 00056 18501 00512 ///// ///// 92601 07158 18518
85255 11341 17017 70716 21114 15006 50514 33959 24513
40666 44759 24520 30855 51765 24023 25975 45585 24514
20124 43786 24513 15318 43586 26009 10592 41586 23504
88320 52361 23026
77999
31313 48008 82219=

0000069700
87361=
0000011200
87368
0000009600
87371
0000035800
87378
0000037300
87381
0000039400
87385
0000039400
87407
0000041500
87411
0000014600
87417
0000045700
87421
0000049900
87440
0000052000
87462
0000050000
87472
0000005900
87495
0000058300
87519
0000056300
87548=
0000056400
87866
0000052300
88017=
0000054500
89423
0000073100
90093
0000069000
91054
0000071100
92343
0000062900
94100
0000065000
96277
0000058600
062
USAA01 NZCM 110000
TTAA 61001 89664
99997 00056 18501 00512 ///// ///// 92601 07158 18518
85255 11341 17017 70716 21114 15006 50514 33959 24513
40666 44759 24520 30855 51765 24023 25975 45585 24514
20124 43786 24513 15318 43586 26009 10592 41586 23504
88320 52361 23026
77999
31313 48008 82219=

0000069700
87361=
0000011200
87368=
0000015000
87382
0000012800
87386
0000045600
87406=
0000047800
87429=
0000005900
87506=
0000058400
87701
0000056400
87813
0000058500
88012
0000056500
88204=
0000062800
90084=
0000064800
063
USAA01 NZCM 110000
TTAA 61001 89664
99997 00056 18501 00512 ///// ///// 92601 07158 18518
85255 11341 17017 70716 21114 15006 50514 33959 24513
40666 44759 24520 30855 51765 24023 25975 45585 24514
20124 43786 24513 15318 43586 26009 10592 41586 23504
88320 52361 23026
77999
31313 48008 82219=

0000069700
87361=
0000011200
87368
0000009600
87371
0000035800
87378
0000037300
87381=
0000039500
87413
0000041600
87422
0000043700
87443
0000045800
87466=
0000054200
87540=
0000048100
87746=
0000050300
88800
0000064800
89261=
0000067000
94103
0000069100
96267
0000013600
064
SMRA16 RUNW 110000 RRA
AAXX 11001
23982 118// 80000 11235 21268 30100 40270 57003 60022 77172 8801/ 333
21261 47075=
0000011600
065
SMRA16 RUNW 110000 RRB
AAXX 11001
29276 16/// /0000 11205 21220 30064 40300 54001 60002 333 21233=
00000000