0000068900
766
USAA01 NZCM 110000
TTAA 61001 89664
99997 00056 18501 00512 ///// ///// 92601 07158 18518
85255 11341 17017 70716 21114 15006 50514 33959 24513
40666 44759 24520 30855 51765 24023 25975 45585 24514
20124 43786 24513 15318 43586 26009 10592 41586 23504
88320 52361 23026
77999
31313 48008 82219=

0000069700
87361=
0000011200
87368
0000009600
87371
0000035800
87378
0000037300
87381
0000039400
87385
0000039400
87407
0000041500
87411
0000014600
87417=
0000041700
87480
0000060300
87494
0000052100
87511=
0000010400
87753
0000064700
87951=
0000052400
88958=
0000060800
92947
0000060800
94814
0000062700
767
USAA01 NZCM 110000
TTAA 61001 89664
99997 00056 18501 00512 ///// ///// 92601 07158 18518
85255 11341 17017 70716 21114 15006 50514 33959 24513
40666 44759 24520 30855 51765 24023 25975 45585 24514
20124 43786 24513 15318 43586 26009 10592 41586 23504
88320 52361 23026
77999
31313 48008 82219=

0000069700
87361=
0000011200
87368
0000009600
87371
0000035800
87378
0000037300
87381=
0000039500
87413
0000041600
87422
0000043700
87443=
0000052100
87539=
0000058400
87751
0000060500
87950=
0000058600
88952=
0000058700
92950
0000060800
94815
0000062700
768
USAA01 NZCM 110000
TTAA 61001 89664
99997 00056 18501 00512 ///// ///// 92601 07158 18518
85255 11341 17017 70716 21114 15006 50514 33959 24513
40666 44759 24520 30855 51765 24023 25975 45585 24514
20124 43786 24513 15318 43586 26009 10592 41586 23504
88320 52361 23026
77999
31313 48008 82219=

0000069700
87361=
0000011200
87368
0000009600
87371
0000035800
87378
0000037300
87381=
0000039500
87413=
0000052000
87479
0000056200
87492
0000045900
87517=
0000054300
87740
0000056400
87934=
0000052400
88963=
0000060800
92951
0000062900
94816
0000064800
769
USAA01 NZCM 110000
TTAA 61001 89664
99997 00056 18501 00512 ///// ///// 92601 07158 18518
85255 11341 17017 70716 21114 15006 50514 33959 24513
40666 44759 24520 30855 51765 24023 25975 45585 24514
20124 43786 24513 15318 43586 26009 10592 41586 23504
88320 52361 23026
77999
31313 48008 82219=

0000069700
87361=
0000011200
87368=
0000015000
87382
0000012800
87386
0000045600
87406
0000047700
87410
0000049800
87416=
0000045800
87478
0000043800
87484
0000050000
87523=
0000054300
87742
0000054300
87936=
0000054500
88977=
0000060800
92948
0000056700
94817
0000064800
770
USAA01 NZCM 110000
TTAA 61001 89664
99997 00056 18501 00512 ///// ///// 92601 07158 18518
85255 11341 17017 70716 21114 15006 50514 33959 24513
40666 44759 24520 30855 51765 24023 25975 45585 24514
20124 43786 24513 15318 43586 26009 10592 41586 23504
88320 52361 23026
77999
31313 48008 82219=

0000069700
87361=
0000011200
87368=
0000015000
87382=
0000030600
87414=
0000011000
87481
0000054100
87485
0000050000
87516
0000054200
87558
0000060400
87607
0000056300
87649
0000062600
87766
0000064700
87955=
0000058600
88945=
0000009900
92954
0000069100
94822
0000060700
771
USAA01 NZCM 110000
TTAA 61001 89664
99997 00056 18501 00512 ///// ///// 92601 07158 18518
85255 11341 17017 70716 21114 15006 50514 33959 24513
40666 44759 24520 30855 51765 24023 25975 45585 24514
20124 43786 24513 15318 43586 26009 10592 41586 23504
88320 52361 23026
77999
31313 48008 82219=

0000069700
87361=
0000011200
87368=
0000015000
87382
0000012800
87386
0000045600
87406=
0000047800
87429=
0000005900
87506=
0000058400
87701=
0000060600
88275
0000056500
88543
0000052400
88978=
0000064900
92956
0000062900
94821
0000071000
772
USAA01 NZCM 110000
TTAA 61001 89664
99997 00056 18501 00512 ///// ///// 92601 07158 18518
85255 11341 17017 70716 21114 15006 50514 33959 24513
40666 44759 24520 30855 51765 24023 25975 45585 24514
20124 43786 24513 15318 43586 26009 10592 41586 23504
88320 52361 23026
77999
31313 48008 82219=

0000069700
87361=
0000011200
87368=
0000015000
87382
0000012800
87386
0000045600
87406
0000047700
87410
0000049800
87416
0000051900
87420=
0000047900
87502
0000013400
87528
0000052100
87563
0000054200
87615
0000064600
87668=
0000054400
88240=
0000056600
90439
0000052500
91532
0000060800
92928
0000062900
94823
0000071000
773
USAA01 NZCM 110000
TTAA 61001 89664
99997 00056 18501 00512 ///// ///// 92601 07158 18518
85255 11341 17017 70716 21114 15006 50514 33959 24513
40666 44759 24520 30855 51765 24023 25975 45585 24514
20124 43786 24513 15318 43586 26009 10592 41586 23504
88320 52361 23026
77999
31313 48008 82219=

0000069700
87361=
0000011200
87368
0000009600
87371
0000035800
87378
0000037300
87381
0000039400
87385
0000039400
87407=
0000012000
87430=
0000054100
87500
0000056200
87510
0000050100
87551
0000056300
87601
0000050100
87643=
0000054400
88257=
0000056600
90452
0000058700
91547
0000064900
92922
0000065000
94793
0000127200
774
SMRS42 RUMS 110000
AAXX 11001
22003 41496 72008 11069 21085 30147 40161 54000 78583 87900 333 91010
91110 91009 91110=
22004 42984 00000 11236 21264 30064 40192 52003 333 93506=
22012 42498 83608 11108 21134 30148 40161 52003 8793/ 333 91009=
22100 43/// /0000 11388 21432 30038 40208 5////=
22101 42/// /0000 11273 21299 30051 40193 52003=
22105 42/// /0000 11302 21334 30058 40187 52002=
22133 NIL=
22140 41597 60909 11109 21131 30134 40150 58002 70282 86500 333 91012
91113=
22213 42984 10201 11238 21262 39971 40156 52002 80001 333 91002
93501=
22249 42/// /0703 11174 21196 39934 40135 57006 333 91007 91111=
22305 NIL=
22413 41459 80506 11119 21139 39965 40070 54000 77173 8671/ 333 91011
91114=
22717 41250 80205 11112 21125 39725 49925 53006 77173 8872/ 333 91110
93701=
22805 414// 80106 11070 21083 39883 49903 52015 78587 889// 333 91010
91111 93704=
22829 42/// /0000 11009 21009 39796 49846 54000=
22891 41495 80104 11047 21056 39796 49884 52027 78587 889// 333 86712
91110=
22897 42/// /0302 11045 21073 39881 49895 52029 333 91110=
26067 41497 73407 11027 21040 39718 49877 52033 70282 87900 333 86917
91011 91111=
26080 41384 83402 10005 20002 39797 49829 52007 70252 886// 333
88707=
0000047700
775
SMRS41 RUMS 110000
AAXX 11001
22525 41494 80807 11090 21102 39995 40008 57005 77573 8802/ 333 91013
91114=
22727 41922 83605 11109 21137 39869 49918 53004 77573 8807/ 333 91011
91111 92982=
26069 41399 83406 11015 21018 39750 48861 52027 70272 886// 333 88709
91012 91112=
26099 42/// /0000 11000 21000 39609 49822 57003=
26179 41196 83404 10018 20010 39800 49831 53003 75165 886// 333
88703=
26268 42/// /2903 10014 20005 39777 49856 53025=
0000015800
776
SMVA01 LFPW 110000 RRA
BBXX
A8PB2 11004 99280 70134 41198 10512 10160 20144 40160 50010 7//00
81200
22213 04170 20401 326// 40604 80150=
0000250600
777
SMRS40 RUMS 110000
AAXX 11001
22212 42981 03501 11233 21265 39991 40173 52003 333 91003 93509=
22312 42/// /0507 11147 21184 30097 40120 52003 333 91012 91114=
22912 41970 80205 11063 21075 39848 49863 52015 77173 8802/ 333 91112
92980=
22913 41396 80105 11029 21039 39822 49851 53012 77172 8872/ 333 86708
91110=
22925 41369 80303 10003 21003 39701 49837 54000 77172 8872/ 333
86707=
26072 41463 83503 11019 21028 39840 49860 52028 77172 8872/ 333 88512
93704=
26157 41597 83305 11005 21014 39851 49901 52041 72682 883// 333 91010
91112=
26359 41461 83206 10016 20002 39743 49875 52028 78582 889// 333 91011
91113=
26029 27/68 /3607 10006 21007 39924 49952 52026 76176 333 10029 20003
60007 91010 91113=
26045 27361 83509 11005 21016 39922 49924 51030 74187 88/// 333 10025
21007 60007 88/10 91012 91114=
26046 27319 83504 11020 21026 39822 49913 53035 77177 88/// 333 10012
21020 60017 88/07 91008 91112=
26058 27454 73506 11021 21035 39863 49898 52034 77177 81/// 333 10012
21021 60007 81/20 91011 91111=
26124 27221 83103 10002 20002 39925 49955 52026 77176 88/// 333 10021
20002 69997 88/04 91108=
26134 27357 83405 11002 21002 39878 49943 51026 77176 88/// 333 10015
21002 69927 88/07 91108=
26135 27232 73202 11001 21008 39861 49935 51030 77177 87/// 333 10043
21001 60007 87/05=
26141 21237 83505 11020 21020 39775 49924 52032 77172 8872/ 333 10003
21020 69927 88506 91009 91112=
26145 27330 73203 11008 21016 39874 49914 52039 77777 87/// 333 10020
21008 69927 87/08 91110=
26229 43/// /3207 10026 20015 39945 49954 52033 333 91013 91115=
26233 27370 83103 10004 21005 39825 49932 51035 72484 88/// 333 10040
20003 60007 88/10 91109=
26238 NIL=
26314 41497 72907 10022 20005 30004 40008 52030 78082 86960 333 85711
91012 91115=
26318 43/// /2906 10014 20008 39893 49993 52030 333 91112=
26324 43/// /3005 10024 20010 39975 49982 52032 333 91113=
26326 43/// /3207 10029 20012 39950 49961 52035 333 91013 91115=
26335 43/// /3006 10012 20004 39793 49944 52039 333 91010 91113=
26425 43/// /2903 10028 20016 39973 49980 52034 333 91112=
26531 /1470 82906 10033 20020 39897 49973 52037 72586 885// 333 88623
91011 91114=
26633 /1463 82906 10026 20013 39842 49972 51036 76166 8872/ 333 88713
91012 91115=
26643 41463 82908 10032 20011 39771 49930 53034 76165 8872/ 333 88715
91015 91116=
26653 41458 82905 10026 20018 39739 49900 52022 76162 8872/ 333 88714
91011 91111=
26668 NIL=
0000068900
778
USAA01 NZCM 110000
TTAA 61001 89664
99997 00056 18501 00512 ///// ///// 92601 07158 18518
85255 11341 17017 70716 21114 15006 50514 33959 24513
40666 44759 24520 30855 51765 24023 25975 45585 24514
20124 43786 24513 15318 43586 26009 10592 41586 23504
88320 52361 23026
77999
31313 48008 82219=

0000069700
87361=
0000011200
87368
0000009600
87371
0000035800
87378
0000037300
87381
0000039400
87385=
0000043700
87428=
0000047900
87503
0000056200
87524
0000048000
87543
0000056300
87596
0000054300
87636
0000052200
87806
0000066700
87986=
0000060700
88998=
0000056700
92957
0000062900
94830
0000073100
779
USAA01 NZCM 110000
TTAA 61001 89664
99997 00056 18501 00512 ///// ///// 92601 07158 18518
85255 11341 17017 70716 21114 15006 50514 33959 24513
40666 44759 24520 30855 51765 24023 25975 45585 24514
20124 43786 24513 15318 43586 26009 10592 41586 23504
88320 52361 23026
77999
31313 48008 82219=

0000069700
87361=
0000011200
87368
0000009600
87371
0000035800
87378
0000037300
87381
0000039400
87385
0000039400
87407=
0000012000
87430
0000054000
87439
0000049900
87460=
0000048000
87541
0000054200
87545
0000052200
87598
0000054300
87659
0000060500
87767
0000060500
87956=
0000052400
88947=
0000077300
92959
0000069100
94828
0000071000
780
USAA01 NZCM 110000
TTAA 61001 89664
99997 00056 18501 00512 ///// ///// 92601 07158 18518
85255 11341 17017 70716 21114 15006 50514 33959 24513
40666 44759 24520 30855 51765 24023 25975 45585 24514
20124 43786 24513 15318 43586 26009 10592 41586 23504
88320 52361 23026
77999
31313 48008 82219=

0000069700
87361=
0000011200
87368
0000009600
87371
0000035800
87378
0000037300
87381
0000039400
87385
0000039400
87407=
0000012000
87430
0000054000
87439=
0000056200
87534
0000060400
87553
0000056300
87602
0000052200
87653=
0000060600
88231=
0000153900
90429
0000064900
91526
0000054600
92926
0000069100
94826
0000071000
781
USAA01 NZCM 110000
TTAA 61001 89664
99997 00056 18501 00512 ///// ///// 92601 07158 18518
85255 11341 17017 70716 21114 15006 50514 33959 24513
40666 44759 24520 30855 51765 24023 25975 45585 24514
20124 43786 24513 15318 43586 26009 10592 41586 23504
88320 52361 23026
77999
31313 48008 82219=

0000069700
87361=
0000011200
87368=
0000015000
87382
0000012800
87386
0000045600
87406
0000047700
87410
0000049800
87416
0000051900
87420
0000047800
87441
0000045800
87463
0000047900
87474=
0000054200
87591
0000060500
87658
0000058400
87768
0000056400
87954=
0000066900
88950=
0000056700
92936
0000056700
94836
0000071000
782
USAA01 NZCM 110000
TTAA 61001 89664
99997 00056 18501 00512 ///// ///// 92601 07158 18518
85255 11341 17017 70716 21114 15006 50514 33959 24513
40666 44759 24520 30855 51765 24023 25975 45585 24514
20124 43786 24513 15318 43586 26009 10592 41586 23504
88320 52361 23026
77999
31313 48008 82219=

0000069700
87361=
0000011200
87368=
0000015000
87382
0000012800
87386=
0000045700
87427=
0000045900
87505
0000050000
87526
0000050100
87565
0000062500
87605
0000054300
87651
0000058400
87783
0000054300
87977
0000068800
88153
0000054400
88416
0000066800
88651
0000064800
89010=
0000060800
92978
0000071200
94827
0000064800
783
USAA01 NZCM 110000
TTAA 61001 89664
99997 00056 18501 00512 ///// ///// 92601 07158 18518
85255 11341 17017 70716 21114 15006 50514 33959 24513
40666 44759 24520 30855 51765 24023 25975 45585 24514
20124 43786 24513 15318 43586 26009 10592 41586 23504
88320 52361 23026
77999
31313 48008 82219=

0000069700
87361=
0000011200
87368=
0000015000
87382
0000012800
87386
0000045600
87406
0000047700
87410
0000049800
87416
0000051900
87420=
0000047900
87502
0000013400
87528=
0000048100
87743
0000052300
87946=
0000064800
88967=
0000060800
93003
0000065000
94831
0000066900
784
USAA01 NZCM 110000
TTAA 61001 89664
99997 00056 18501 00512 ///// ///// 92601 07158 18518
85255 11341 17017 70716 21114 15006 50514 33959 24513
40666 44759 24520 30855 51765 24023 25975 45585 24514
20124 43786 24513 15318 43586 26009 10592 41586 23504
88320 52361 23026
77999
31313 48008 82219=

0000069700
87361=
0000011200
87368
0000009600
87371
0000035800
87378
0000037300
87381=
0000039500
87413
0000041600
87422
0000043700
87443
0000045800
87466=
0000054200
87540
0000048000
87567
0000050100
87610=
0000056400
87913=
0000056600
88940=
0000064900
92945
0000069100
94832
0000064800
785
USAA01 NZCM 110000
TTAA 61001 89664
99997 00056 18501 00512 ///// ///// 92601 07158 18518
85255 11341 17017 70716 21114 15006 50514 33959 24513
40666 44759 24520 30855 51765 24023 25975 45585 24514
20124 43786 24513 15318 43586 26009 10592 41586 23504
88320 52361 23026
77999
31313 48008 82219=

0000069700
87361=
0000011200
87368=
0000015000
87382
0000012800
87386=
0000045700
87427=
0000045900
87505
0000050000
87526
0000050100
87565=
0000062600
87871
0000062600
88032
0000060600
88309
0000066800
88572
0000060700
88988=
0000067000
93007
0000058800
94838
00000000