0000551300
866
SMIN56 VIDP 110600
AAXX 11063
40582 41630 80000 10121 20107 40197 51024 76062 82570
  333 55300 00119 10000 20200 30035 41284 51328 60235 55407 40165
82400 88458 90400 91009 91113 91209 91305=
40794 11656 80904 10104 20096 30113 40213 51011 60111 76166 8532/
  333 32010 50051 70298 82935 83640 88557=
40812 11540 82302 10096 20096 39819 40202 53010 60221 76466 8432/
  333 32007 50081 70273 83930 83635 88557=
40829 11957 41102 10049 21006 39697 40296 51012 60001 70510 80006
  333 31108 5///1 70000 84269=
40833 11560 81207 10124 20101 30180 40212 53005 60211 72598 883//
  333 32010 50201 70275 83930 85635=
40835 11640 81303 10086 20061 39379 40207 52015 60041 76262 85320
  333 32004 50121 70078 82935 83840 88557=
40845 11560 81207 10150 20128 30200 40205 52015 60143 72162 8592/
  333 30014 50101 70139 82925 83640 88459=
40882 11550 80809 10132 20097 30183 40219 51008 60041 76186 8532/
  333 31011 50081 70044 81930 84725 88558=
40889 12660 80812 10206 20128 30226 40231 52030 60003 8342/
222// 00225 20604
  333 30018 50571 70000=
40893 12560 70303 10172 20044 30230 40237 52020 60001 84470
222// 00160
  333 20501 30013 50501 70000 81925 84630 87359=
41024 42660 20310 10210 20110 30172 40192 82500
  333 20150 58042 82640=
41061 42960 01410 10180 20100 39464 40170
  333 20100 58002=
41084 42560 32806 10134 20100 38891 48540 82430
  333 20109 58020 82630 83360=
41114 42560 52412 10134 20080 37996 48533 85400
  333 20106 58003 85620=
41128 42560 62404 10166 20020 38825 48529 83450
  333 20110 59012 83630 85359=
41140 42560 51910 10275 20230 30152 40163 82430
  333 20239 58008 82630 84360=
41170 41457 80303 10172 20150 30206 40219 76166 8257/
  333 20169 59011 82615 83360 88462=
41184 42960 61314 10199 20102 40227 82034
  333 20142 59010 82358 86070=
41194 12960 81109 10199 20104 30230 40235 60001 88020
  333 20174 59001 88465=
41198 42560 72603 10191 20101 40235 83530
  333 20153 59008 83620 85360=
41216 42960 71408 10184 20106 30220 40224 8703/
  333 20166 58002 87366=
41241 36/// /1104 10204 20095 30189 40227
  333 20164 59018=
41431 42560 21807 10250 20211 30143 40156 82400
  333 20210 30/// 58006 82630=
41515 02997 00916 10056 21173 38610 48569 60001
  333 58043 60007=
41560 22696 31303 11010 21070 38261 48505 60001 82430
  333 59002 60007=
41571 11995 00000 10120 20035 39631 40229 60001 70500
  333 58021=
41594 31996 02304 10160 21005 39989 40208 70500
  333 58015=
41598 11996 03102 10145 20020 39926 40203 60001 70500
  333 58011=
41620 32997 02305 10035 21094 38/// 48///
  333 58///=
41624 02997 00000 10145 21034 30019 40224 60001
  333 58026 60007=
41640 01996 03106 10145 20035 39963 40218 60001 70506
  333 58023 60007=
41660 11996 13104 10000 21042 38487 48577 60001 70500 81001
  333 56009 58017 81172=
41675 11996 20000 10140 20028 30080 40224 60001 70500 82030
  333 56090 58024 82362=
41685 32997 23102 10095 21167 38971 48541 82020
  333 56090 58033 82460=
41710 02997 20000 10085 21094 39450 40254 60001 80001
  333 56009 58003 60007 82070=
41712 12997 30504 10050 21014 39287 48557 60001 80008
  333 56009 58005 83270=
41715 01996 33102 10150 20028 30169 40236 60001 70500 80001
  333 56009 58034 60007 83070=
41718 11995 00000 10155 20075 30116 40222 60001 70400
  333 58025=
41739 02997 23612 10040 21027 39110 48538 60001 82030
  333 56090 58013 60007 82360=
41744 12996 00000 10070 21019 38795 48511 60001
  333 58002=
41749 01996 53604 10150 20043 30199 40232 60001 70400 82031
  333 58028 60007 82360 83070=
41756 02996 53604 10150 21024 30165 40231 60001 85030
  333 56090 59003 60007 85358=
41764 31996 40410 10160 20028 30175 40226 60001 70400 80001
  333 56009 58030 60007 84070=
41768 02996 40504 10180 20058 30216 40223 60001 80001
  333 56009 58024 60007 84070=
41780 02996 60504 10185 21036 40229 60001 80001
  333 56009 58027 60007 86070=
41859 31440 80502 10194 20110 30141 40180 70522 8662/
  333 56199 58008 70000 83710 84618 88458=
41883 31930 72702 10205 20145 30154 40175 70540 87010
  333 56090 58003 70000 87458=
41891 31950 01302 10234 20110 30121 40160 70510
  333 59006 70000=
41907 31940 03604 10230 20120 30152 40168 70544
  333 58004 70000=
41923 31932 00000 10243 20090 30158 40168 70500
  333 59005 70000=
41936 31918 00000 10248 20160 30160 40167 70500
  333 59003 70000=
41943 31940 00000 10253 20120 30152 40159 70500
  333 59001 70000=
41950 31930 00000 10243 20120 30161 40163 70540
  333 58001 70000=
41978 31940 02406 10228 20120 30152 40158 70542
  333 59004 70000=
41992 31935 00000 10272 20140 30142 40144 70500
  333 59007 70000=
43413 22470 13605 10275 20235 30140 40145 81100
  333 58008 60007 70000 81818=
43415 22470 50903 10291 20229 30034 40142 85200
  333 58007 60007 70000 85818=
43424 22478 43607 10285 20221 30125 40128 84100
  333 58005 60007 70000 84818=
43436 22470 43208 10278 20239 30133 40136 83101
  333 58004 60007 70000 83818 83080=
43466 22470 40504 10300 20214 30110 40122 82101
  333 58010 60007 79999 82818 83080=
43467 22470 12908 10298 20208 30120 40125 81100
  333 58012 60007 70026 81816=
43497 22970 03603 10326 20231 30104 40120
  333 58006 60007 70000=
43555 11459 30713 10303 20246 30134 40136 60001 70500 82201
  333 58008 82818=
43599 12462 40205 10300 20249 30130 40132 60001 81202
  333 58005 81818 84076=
0000066900
867
USAA01 NZCM 110000
TTAA 61001 89664
99997 00056 18501 00512 ///// ///// 92601 07158 18518
85255 11341 17017 70716 21114 15006 50514 33959 24513
40666 44759 24520 30855 51765 24023 25975 45585 24514
20124 43786 24513 15318 43586 26009 10592 41586 23504
88320 52361 23026
77999
31313 48008 82219=

0000069700
87361=
0000011200
87368
0000009600
87371
0000035800
87378
0000037300
87381
0000039400
87385
0000039400
87407=
0000012000
87430=
0000054100
87500
0000056200
87510=
0000050200
87730
0000009800
87843
0000058500
88006
0000060600
88193=
0000064900
90077
0000073100
91088=
0000060700
868
USAA01 NZCM 110000
TTAA 61001 89664
99997 00056 18501 00512 ///// ///// 92601 07158 18518
85255 11341 17017 70716 21114 15006 50514 33959 24513
40666 44759 24520 30855 51765 24023 25975 45585 24514
20124 43786 24513 15318 43586 26009 10592 41586 23504
88320 52361 23026
77999
31313 48008 82219=

0000069700
87361=
0000011200
87368=
0000015000
87382
0000012800
87386
0000045600
87406=
0000047800
87429=
0000005900
87506=
0000058400
87701
0000056400
87813=
0000058600
88899
0000064800
89386
0000058600
90028
0000069000
91069=
0000064800
869
USAA01 NZCM 110000
TTAA 61001 89664
99997 00056 18501 00512 ///// ///// 92601 07158 18518
85255 11341 17017 70716 21114 15006 50514 33959 24513
40666 44759 24520 30855 51765 24023 25975 45585 24514
20124 43786 24513 15318 43586 26009 10592 41586 23504
88320 52361 23026
77999
31313 48008 82219=

0000069700
87361=
0000011200
87368=
0000015000
87382=
0000030600
87414
0000014800
87423
0000049900
87438
0000052000
87459
0000058200
87471
0000050000
87489=
0000052200
87715
0000066700
87819
0000056400
88002
0000064700
88159=
0000056600
90031
0000060800
91090=
0000071000
870
USAA01 NZCM 110000
TTAA 61001 89664
99997 00056 18501 00512 ///// ///// 92601 07158 18518
85255 11341 17017 70716 21114 15006 50514 33959 24513
40666 44759 24520 30855 51765 24023 25975 45585 24514
20124 43786 24513 15318 43586 26009 10592 41586 23504
88320 52361 23026
77999
31313 48008 82219=

0000069700
87361=
0000011200
87368
0000009600
87371
0000035800
87378
0000037300
87381
0000039400
87385
0000039400
87407=
0000012000
87430=
0000054100
87500
0000056200
87510
0000050100
87551
0000056300
87601
0000050100
87643
0000052200
87801
0000056400
87993
0000060600
88199=
0000060700
90106
0000066900
91076=
0000064800
871
USAA01 NZCM 110000
TTAA 61001 89664
99997 00056 18501 00512 ///// ///// 92601 07158 18518
85255 11341 17017 70716 21114 15006 50514 33959 24513
40666 44759 24520 30855 51765 24023 25975 45585 24514
20124 43786 24513 15318 43586 26009 10592 41586 23504
88320 52361 23026
77999
31313 48008 82219=

0000069700
87361=
0000011200
87368=
0000015000
87382
0000012800
87386
0000045600
87406
0000047700
87410
0000049800
87416
0000051900
87420=
0000047900
87502=
0000052200
87721
0000058400
87831
0000054400
88003
0000064700
88182=
0000058700
90088
0000062800
91095=
0000069000
872
USAA01 NZCM 110000
TTAA 61001 89664
99997 00056 18501 00512 ///// ///// 92601 07158 18518
85255 11341 17017 70716 21114 15006 50514 33959 24513
40666 44759 24520 30855 51765 24023 25975 45585 24514
20124 43786 24513 15318 43586 26009 10592 41586 23504
88320 52361 23026
77999
31313 48008 82219=

0000069700
87361=
0000011200
87368=
0000015000
87382
0000012800
87386
0000045600
87406=
0000047800
87429
0000015700
87445
0000049900
87465
0000054100
87473
0000050000
87488
0000052100
87521
0000054200
87549=
0000056400
87860
0000054400
88008
0000064700
88191=
0000062800
90104
0000062800
91093=
0000064800
873
USAA01 NZCM 110000
TTAA 61001 89664
99997 00056 18501 00512 ///// ///// 92601 07158 18518
85255 11341 17017 70716 21114 15006 50514 33959 24513
40666 44759 24520 30855 51765 24023 25975 45585 24514
20124 43786 24513 15318 43586 26009 10592 41586 23504
88320 52361 23026
77999
31313 48008 82219=

0000069700
87361=
0000011200
87368=
0000015000
87382
0000012800
87386
0000045600
87406
0000047700
87410
0000049800
87416=
0000045800
87478=
0000043900
87582
0000052200
87674
0000054300
87785
0000060500
87983
0000068800
88164=
0000066900
90045
0000064900
91101=
0000060700
874
USAA01 NZCM 110000
TTAA 61001 89664
99997 00056 18501 00512 ///// ///// 92601 07158 18518
85255 11341 17017 70716 21114 15006 50514 33959 24513
40666 44759 24520 30855 51765 24023 25975 45585 24514
20124 43786 24513 15318 43586 26009 10592 41586 23504
88320 52361 23026
77999
31313 48008 82219=

0000069700
87361=
0000011200
87368=
0000015000
87382
0000012800
87386
0000045600
87406=
0000047800
87429=
0000005900
87506=
0000058400
87701
0000056400
87813
0000058500
88012
0000056500
88204=
0000062800
90084
0000064900
91097=
0000060700
875
USAA01 NZCM 110000
TTAA 61001 89664
99997 00056 18501 00512 ///// ///// 92601 07158 18518
85255 11341 17017 70716 21114 15006 50514 33959 24513
40666 44759 24520 30855 51765 24023 25975 45585 24514
20124 43786 24513 15318 43586 26009 10592 41586 23504
88320 52361 23026
77999
31313 48008 82219=

0000069700
87361=
0000011200
87368=
0000015000
87382
0000012800
87386
0000045600
87406=
0000047800
87429=
0000005900
87506=
0000058400
87701
0000056400
87813
0000058500
88012=
0000058600
89418
0000062800
90095
0000062800
91100=
0000060700
876
USAA01 NZCM 110000
TTAA 61001 89664
99997 00056 18501 00512 ///// ///// 92601 07158 18518
85255 11341 17017 70716 21114 15006 50514 33959 24513
40666 44759 24520 30855 51765 24023 25975 45585 24514
20124 43786 24513 15318 43586 26009 10592 41586 23504
88320 52361 23026
77999
31313 48008 82219=

0000069700
87361=
0000011200
87368=
0000015000
87382=
0000030600
87414
0000014800
87423=
0000050000
87499
0000062400
87518=
0000056400
87723
0000060500
87835
0000058500
88005=
0000071000
89422
0000056600
90099
0000062800
91105=
0000066900
877
USAA01 NZCM 110000
TTAA 61001 89664
99997 00056 18501 00512 ///// ///// 92601 07158 18518
85255 11341 17017 70716 21114 15006 50514 33959 24513
40666 44759 24520 30855 51765 24023 25975 45585 24514
20124 43786 24513 15318 43586 26009 10592 41586 23504
88320 52361 23026
77999
31313 48008 82219=

0000069700
87361=
0000011200
87368=
0000015000
87382
0000012800
87386
0000045600
87406
0000047700
87410=
0000049900
87467
0000047900
87475
0000047900
87491
0000056200
87512=
0000054300
87729
0000054300
87840
0000060600
88007=
0000058600
89406
0000060700
90062
0000060700
91102=
0000064800
878
USAA01 NZCM 110000
TTAA 61001 89664
99997 00056 18501 00512 ///// ///// 92601 07158 18518
85255 11341 17017 70716 21114 15006 50514 33959 24513
40666 44759 24520 30855 51765 24023 25975 45585 24514
20124 43786 24513 15318 43586 26009 10592 41586 23504
88320 52361 23026
77999
31313 48008 82219=

0000069700
87361=
0000011200
87368
0000009600
87371
0000035800
87378
0000037300
87381
0000039400
87385=
0000043700
87428=
0000047900
87503
0000056200
87524
0000048000
87543=
0000056400
87862
0000058500
88014=
0000062800
89426
0000062800
90120
0000067000
91109=
0000005200
879
RRIN23 VECC 110037
RQRPT 279-320=

0000005200
880
RRIN23 VECC 110037
RQRPT 379-400=

0000075100
881
USAA01 NZCM 110000
TTAA 61001 89664
99997 00056 18501 00512 ///// ///// 92601 07158 18518
85255 11341 17017 70716 21114 15006 50514 33959 24513
40666 44759 24520 30855 51765 24023 25975 45585 24514
20124 43786 24513 15318 43586 26009 10592 41586 23504
88320 52361 23026
77999
31313 48008 82219=

0000069700
87361=
0000011200
87368
0000009600
87371
0000035800
87378
0000037300
87381
0000039400
87385
0000039400
87407
0000041500
87411
0000014600
87417
0000045700
87421
0000049900
87440
0000052000
87462
0000050000
87472
0000005900
87495=
0000058400
87712
0000050200
87812
0000062600
87997
0000052300
88188=
0000064800
90073
0000062800
91107=
0000069000
882
USAA01 NZCM 110000
TTAA 61001 89664
99997 00056 18501 00512 ///// ///// 92601 07158 18518
85255 11341 17017 70716 21114 15006 50514 33959 24513
40666 44759 24520 30855 51765 24023 25975 45585 24514
20124 43786 24513 15318 43586 26009 10592 41586 23504
88320 52361 23026
77999
31313 48008 82219=

0000069700
87361=
0000011200
87368
0000009600
87371
0000035800
87378
0000037300
87381
0000039400
87385
0000039400
87407=
0000012000
87430
0000054000
87439
0000049900
87460=
0000048000
87541
0000054200
87545=
0000052300
87864
0000056400
88023=
0000060700
89427
0000060700
90119
0000075200
91110=
0000066900
883
USAA01 NZCM 110000
TTAA 61001 89664
99997 00056 18501 00512 ///// ///// 92601 07158 18518
85255 11341 17017 70716 21114 15006 50514 33959 24513
40666 44759 24520 30855 51765 24023 25975 45585 24514
20124 43786 24513 15318 43586 26009 10592 41586 23504
88320 52361 23026
77999
31313 48008 82219=

0000069700
87361=
0000011200
87368=
0000015000
87382
0000012800
87386
0000045600
87406=
0000047800
87429
0000015700
87445
0000049900
87465
0000054100
87473=
0000050100
87586
0000062500
87637
0000052200
87823
0000056400
88019=
0000064800
89432
0000062800
90123
0000056600
91112=
0000064800
884
USAA01 NZCM 110000
TTAA 61001 89664
99997 00056 18501 00512 ///// ///// 92601 07158 18518
85255 11341 17017 70716 21114 15006 50514 33959 24513
40666 44759 24520 30855 51765 24023 25975 45585 24514
20124 43786 24513 15318 43586 26009 10592 41586 23504
88320 52361 23026
77999
31313 48008 82219=

0000069700
87361=
0000011200
87368=
0000015000
87382=
0000030600
87414
0000014800
87423
0000049900
87438
0000052000
87459
0000058200
87471=
0000050100
87587
0000062500
87647
0000060500
87792
0000056400
87970=
0000058600
89391
0000066900
90039
0000058700
91096=
0000077200
885
USAA01 NZCM 110000
TTAA 61001 89664
99997 00056 18501 00512 ///// ///// 92601 07158 18518
85255 11341 17017 70716 21114 15006 50514 33959 24513
40666 44759 24520 30855 51765 24023 25975 45585 24514
20124 43786 24513 15318 43586 26009 10592 41586 23504
88320 52361 23026
77999
31313 48008 82219=

0000069700
87361=
0000011200
87368
0000009600
87371
0000035800
87378
0000037300
87381
0000039400
87385
0000039400
87407
0000041500
87411
0000014600
87417
0000045700
87421
0000049900
87440
0000052000
87462
0000050000
87472
0000005900
87495
0000058300
87519
0000056300
87548
0000056300
87600
0000062500
87655=
0000062700
88220=
0000066900
90113
0000064900
91111=
00000000