0000083400
906
USAA01 NZCM 110000
TTAA 61001 89664
99997 00056 18501 00512 ///// ///// 92601 07158 18518
85255 11341 17017 70716 21114 15006 50514 33959 24513
40666 44759 24520 30855 51765 24023 25975 45585 24514
20124 43786 24513 15318 43586 26009 10592 41586 23504
88320 52361 23026
77999
31313 48008 82219=

0000069700
87361=
0000011200
87368
0000009600
87371
0000035800
87378
0000037300
87381
0000039400
87385=
0000043700
87428
0000047800
87442
0000056100
87461
0000047900
87477
0000056200
87486
0000052100
87514
0000064500
87547
0000052200
87621
0000058400
87677
0000054300
87788
0000056400
87987
0000062700
88190
0000056500
88486
0000073000
88704
0000066900
89175=
0000079400
93687
0000073200
95739
0000071200
98038
0000373900
907
SMVF01 KWBC 110000 RRD
BBXX
62116 11004 99576 10011 47598 /3018 10070 20016 40036 52005 700//
 22200 10504 70020=
62155 11004 99577 10007 47598 /2920 10070 20004 40042 51007 700//
 22200 10604 70020=
62104 11004 99574 10013 47598 /2917 10080 20032 40039 52006 700//
 22200=
62144 11004 99534 10017 47597 /2219 10075 20057 40108 57001 700//
 22200 10402 70012=
62145 11004 99531 10028 47998 /2220 10084 20053 40113 57004 700//
 22200 10504 70018=
62150 11004 99536 10007 47598 /2122 10072 20071 40100 58008 762//
 22200 10502 70010=
62121 11004 99535 10027 46/// ///// 10077 20055 40111 57004 22200=
62148 11004 99536 10015 46/// ///// 22200=
62131 11004 99539 10012 46/// /2122 10076 20060 40086 57007 22200=
62149 11004 99537 10011 47596 /2224 10073 20059 40094 57007 762//
 22200 10402 70012=
62127 11004 99540 10007 47598 ///// 10074 20051 40084 56009 700//
 22200 10503 70013=
62123 11004 99563 10022 47297 /2718 10075 20061 40046 57004 700//
 22200 1//05 70025=
62120 11004 99564 10021 47298 /2916 10070 20060 40046 58002 700//
 22200=
62132 11004 99564 10020 46/// /3014 10073 20054 40052 54000 22200=
62165 11004 99540 10011 47597 /2223 10076 20062 40081 58008 700//
 22200 10503 70015=
62152 11004 99570 10018 47898 /3012 10078 20049 40048 55000 700//
 22200 10505 70024=
62119 11004 99570 10019 47498 /3015 10081 20056 40046 55001 700//
 22200 10604 70021=
62154 11004 99564 10022 46/// /2714 10076 20064 40044 57006 22200=
62164 11004 99572 10008 47998 /3016 10076 20012 40045 52009 700//
 22200 00084 10604 70021=
62133 11004 99571 10009 46/// /3117 40045 52008 22200 10604 70020=
64041 11004 99607 70026 47998 /2620 49973 53003 700// 22200 10907
 70033=
62140 11004 99573 10013 46/// ///20 10073 20015 40041 52003 22200=
62146 11004 99572 10021 47498 /2202 10075 20054 40043 55003 700//
 22200 10604 70021=
62122 11004 99573 10016 47998 /3019 10076 20035 40038 57003 700//
 22200 10604 70020=
62153 11004 99573 10020 47898 /2912 40039 53003 700// 22200 10604
 70022=
MWYG6 11004 99603 70040 47598 /2722 49982 53005 700// 22200=
63115 11004 99616 10013 47496 /0813 10037 21021 49983 56006 771//
 22200 10806 70031=
63104 11004 99612 10016 47498 /1114 10032 21014 49980 56008 751//
 22200 10706 70029=
63117 11004 99613 10011 47498 /1013 49981 56006 700// 22200=
63114 11004 99613 10017 47598 /0913 10030 21014 49981 56008 762//
 22200=
63101 11004 99612 10009 46/// /0916 10039 20008 49977 57006 22200
 10705 70027=
63107 11004 99611 10017 46/// /1014 10035 49977 56008 22200=
63103 11004 99612 10011 46/// ///// 10030 21001 49966 57007 22200
 10806 70028=
63112 11004 99611 10010 47498 /1115 10033 20019 49968 58010 700//
 22200 10706 70029=
63105 11004 99610 10017 47397 /1015 10047 20008 49978 57009 762//
 22200=
63108 11004 99608 10017 47/99 /1212 10045 20026 49971 58009 700//
 22200 10705 70026=
63113 11004 99610 10017 46/// /1013 10048 20015 49975 58009 22200
 10805 70027=
62113 11004 99584 10002 47999 /2821 10062 20000 40030 52007 700//
 22200=
63106 11004 99610 10017 46/// /0914 10031 57007 22200=
62128 11004 99587 10014 47998 /2722 10064 20018 40016 51003 700//
 22200 10605 70025=
62129 11004 99584 10003 46/// /2720 10062 20005 40027 53007 22200=
63057 11004 99592 10015 47998 /2617 10065 20013 40000 57001 700//
 22200 10605 70023=
MQSY9 11004 99593 10015 47598 /2725 10067 20023 50000 700// 22200=
63110 11004 99595 10015 47498 /2722 10066 20025 49998 56003 700//
 22200 10605 70023=
63109 11004 99596 10015 46/// /2725 10060 20020 49989 57003 22200=
62142 11004 99530 10021 47997 /2219 10075 20066 40111 58004 700//
 22200 10402 70011=
0000371500
908
SMVF01 KWBC 110000 RRC
BBXX
V7ZZ5 11004 99401 70317 41396 73130 10150 2010/ 40030 57020 71452
 8/7// 22223 0//// 21004 31818 40706 50705 6//// 80120 ICE /////
 THANKS & BRGDS CAPT AMOL PATANKAR M.V. AM HAMBURG FBB 500 TEL
 +870773165342 FBB 150 TEL +870773165354 FBB 500=
DGOQ 11003 99544 10103 41/97 42512 10047 20019 40110 53006 70211
 8///7 22200 04059 399// 40201=
DJBF2 11004 99365 70008 41/98 80425 10145 20129 40147 50000 70222
 22223 00156=
DBKV 11001 99543 10102 46/// /2504 10061 20045 40115 52005 22200
 00064=
DBFR 11001 99514 10027 46/// /2111 10060 20045 40154 54000 22212
 00092=
DBBU 11001 99546 10135 46/// /2512 10060 20053 40101 52012 22200
 00066=
DBJM 11001 99540 10085 46/// /2312 10061 40121 52005 22260 00061=
DBFH 11001 99539 10087 46/// /2305 10061 20055 40128 52004 22210
 00061=
DBBC 11001 99536 10086 46/// /2205 10060 20049 40128 54000 22210
 00064=
D5BA9 11004 99441 70094 41998 32208 10140 20064 40160 55010 70111
 83030 22254 04120=
DBBA 11001 99541 10121 46/// ///// 10059 20039 40120 52006 22260
 00066=
62086 11001 99550 10064 46/// ///11 10076 20059 40/// 57006 22230
 00078=
BSH03 11001 99540 10081 46/// ///// 22200 00070 20804 70018=
63119 11003 99582 70002 41/97 /2928 10057 21004 40034 53/// 700//
 8//// 22200 2//// 303// 40607 5////=
62050 11004 99500 70044 46/// /2416 10102 20087 40137 22200 10503
 70015=
62095 11004 99529 70156 46/// /2617 10073 20026 40121 53011 22200
 00097 10908 70039=
62170 11004 99514 10020 46/98 /2417 10084 20066 40153 57001 22200
 00105 10501 70005 333 90710 91131=
AMOUK33 1100/ 99555 10084 46/// ///// 10064 20051 40083=
62303 11004 99516 70051 46/// /3016 10093 20060 40125 22200 10604
 70019=
64046 11004 99605 70042 46/// /2620 10073 20025 49975=
AMOUK26 1100/ 99507 70060 46/// ///// 10090 20031 40137=
AMOUK42 1100/ 99506 70025 46/// ///// 10104 20080 40138=
AMOUK23 1100/ 99564 70023 46/// ///// 10054 20014 40063=
AMOUK34 1100/ 99500 70020 46/// ///// 10098 20084 40145=
AMOUK09 1100/ 99517 10018 46/// ///// 10084 20083 40146=
AMOUK44 1100/ 99543 70040 46/// ///// 1//// 2//// 40095=
AMOUK29 1100/ 99517 70061 46/// ///// 1//// 2//// 40131=
AMOUK03 1100/ 99526 10026 46/// ///// 10090 20078 40108=
AMOUK45 11004 99509 70014 46/// /2007 10091 20074 40132 22200
 401320103=
AMOUK43 1100/ 99545 70045 46/// ///// 10071 20050 40107=
AMOUK02 1100/ 99535 70051 46/// ///// 10076 20036 40114=
AMOUK11 1100/ 99534 70049 46/// ///// 10076 20028=
AMOUK14 1100/ 99535 70030 46/// ///// 10068 20056 40091=
AMOUK04 1100/ 99536 70038 46/// ///// 10084 20047 40089=
AMOUK32 1100/ 99559 70047 46/// ///// 10042 20011 40082=
AMOUK28 1100/ 99576 70072 46/// ///// 1//// 2//// 40044=
AMOUK13 1100/ 99513 10014 46/// ///// 10082 20063 40147=
AMOUK06 1100/ 99520 10018 46/// ///// 10094 2//// 40133=
AMOUK11 1100/ 99534 70049 46/// ///// 10076 20031=
AMOUK05 1100/ 99532 10007 46/// ///// 10072 2//// 40093=
ZQSD5 11004 99583 10008 47998 ///// 10067 20019 40021 53004 700//
 22200 1//06 70032=
2AUO5 11003 99606 10016 41397 89903 10061 20047 49974 58008 76162
 8//// 22200 2//// 333// 40903 80055=
62114 11004 99583 10000 46/// /2823 10062 20017 40025 52006 22200=
62102 11004 99579 10018 47798 /2919 10082 20024 40028 53003 700//
 22200 10605 70024=
62134 11004 99580 10014 46/// /3022 10069 20030 40031 53003 22200
 10604 70022=
62117 11004 99579 10000 47598 /2718 10064 20008 40029 53012 700//
 22200 10503 70017=
62118 11004 99577 10009 47598 /2920 10069 20020 40034 52009 700//
 22200 10604 70022=
62143 11004 99577 10018 47598 /3108 10073 20022 40044 53006 700//
 22200 10504 70021=
0000079300
909
USAA01 NZCM 110000
TTAA 61001 89664
99997 00056 18501 00512 ///// ///// 92601 07158 18518
85255 11341 17017 70716 21114 15006 50514 33959 24513
40666 44759 24520 30855 51765 24023 25975 45585 24514
20124 43786 24513 15318 43586 26009 10592 41586 23504
88320 52361 23026
77999
31313 48008 82219=

0000069700
87361=
0000011200
87368=
0000015000
87382
0000012800
87386
0000045600
87406
0000047700
87410=
0000049900
87467
0000047900
87475
0000047900
87491
0000056200
87512
0000054200
87550
0000058400
87597
0000062500
87670
0000054300
87796
0000062600
87990
0000058500
88183=
0000062800
89983
0000066900
90878
0000069000
92055
0000067000
93699
0000073200
95743
0000067100
98056
0000073100
910
USAA01 NZCM 110000
TTAA 61001 89664
99997 00056 18501 00512 ///// ///// 92601 07158 18518
85255 11341 17017 70716 21114 15006 50514 33959 24513
40666 44759 24520 30855 51765 24023 25975 45585 24514
20124 43786 24513 15318 43586 26009 10592 41586 23504
88320 52361 23026
77999
31313 48008 82219=

0000069700
87361=
0000011200
87368=
0000015000
87382
0000012800
87386
0000045600
87406
0000047700
87410
0000049800
87416=
0000045800
87478
0000043800
87484
0000050000
87523
0000054200
87562
0000060400
87623=
0000056400
88113
0000058500
88394
0000058600
88688
0000060700
89170=
0000077300
93635
0000079400
95734
0000081500
98037
0000375800
911
SMVF01 KWBC 110000 RRE
BBXX
63056 11004 99597 10016 47598 /2521 10062 20023 49988 56005 700//
 22200 10705 70026=
62111 11004 99580 70003 46/// /2822 10065 20010 40050 52008 22200
 10605 70025=
PJAI 11004 99581 70014 47998 /2618 10067 21005 40034 53009 700//
 22200=
63055 11004 99606 10016 47298 /1203 10055 20042 49972 58009 762//
 22200 10805 70026=
62112 11004 99584 70002 47598 /2816 10066 20018 40027 52008 700//
 22200=
62163 11004 99475 70084 46/// /0110 10099 20072 40157 51015 22200
 00121 10704 70022=
62305 11004 99504 70000 46/// /2119 10090 20065 40155 58002 22200
 00109 10502 70008 333 90710 91127=
62103 11004 99499 70029 46/99 /2317 10107 20076 40149 55001 22200
 00112 10602 70011=
62081 11004 99521 70105 46/// /2714 10080 20030 40133 52015 22200
 10807 70036=
62107 11004 99501 70061 46/// /3316 10093 20035 40147 53012 22200
 00105 10804 70018=
62001 11004 99452 70050 46/// /2907 10116 20078 40173 52007 22200
 00128 10703 70014=
62304 11004 99512 10018 46/97 /1820 10069 20054 40155 58001 22200
 00102 10601 70005 333 90710 91129=
62027 11004 99491 70022 46/// /2310 1//// 2//// 40155 55005 22200
 0//// 11102 327// 70008=
62301 11004 99524 70047 46/// /2912 10085 20056 40115 53011 22200
 00096 10503 70013=
62105 11004 99550 70132 46/// /2418 10074 20010 40091 53011 22200
 00108 10808 70039 333 90710 91125=
A8CP5 11000 99485 70057 41398 52504 10110 20090 40150 50005 70222
 85464 22213 04116 2//// 3//// 4//// 5//// 80100=
ZCDN2 11004 99501 70022 41/98 12227 40141 54000 70300 81125 22264
 00100 20101=
64045 11004 99591 70117 46/// /2819 10068 21007 40013 53013 22200
 00096 10809 70047 333 90710 91128=
MINUK03 1100/ 99525 10046 46/// ///// 10065 40137 57002=
MINUK05 1100/ 99605 10001 46/// ///// 10068 49970 57009=
LF3N 11004 99653 10073 41395 80817 11036 21043 40046 54000 78582
 880// 22200 00083 10707 70035 333 91124=
LF4C 11004 99584 10019 43/// /2915 10072 20035 40022 52002 22200
 10704 70021 333 91122=
3ERR2 11004 99653 10073 43/// /1020 11022 21053 40042 57001 22200
 10806 70032 333 91129=
LF4B 11004 99606 10037 47/97 /1106 10033 49988 57006 762// 22200
 00041 10805 70026 333 91113=
LF5T 11004 99660 10081 43/// /0819 11029 21116 40065 52002 22200
 10706 70029 333 91131=
LF3F 11004 99643 10078 43/// /0719 11040 21096 40028 52004 22200
 04102 10705 70026 333 91131=
A8MA9 11004 99406 10287 41998 01807 10090 20018 40200 54000 70000
 80000 22200 20501 80060=
A8VD8 11004 99326 10254 41598 62910 10180 20125 40250 54000 70322
 84545 22224 00198 29901 80147=
BATFR14 11004 99330 70334 44698 705// 10184 20155 40134 52020
 70122 8642/ 22254 04197 20606 333// 40606 5////=
FVNM 11004 99477 70034 46/// /3003 10084 20074 40151 53005 22200
 04097=
PBEO 11003 99364 70043 41/97 60910 10162 20116 40172 53010 70222
 857// 22263 02153 20302 30000 80135=
BAREU13 11004 99528 70342 46/// ///// 4//// 22264=
BATFR61 11004 99468 70047 46/// /3107 10109 20079 40165 51009
 22271 04127=
BATFR21 11004 99429 10070 46/// /1205 10132 20084 40208 53006
 222//=
BATFR16 11004 99431 70181 44/97 81121 10109 20039 40148 56018
 70211 8//// 22214 00140 328// 410// 5////=
BATEU08 11004 99631 70205 46/// /2723 29046 49923 51025 222//=
BATFR09 11004 99415 70101 46/// /0010 10110 20052 40174 51002
 22242 04152=
BATFR20 11004 99402 10074 46/// /1207 10139 20110 40188 58003
 22233=
BATFR27 11004 99500 70017 46/// /2225 10099 20074 40136 55///
 22253 04114=
BATFR22 11004 99423 10070 46/// /1307 10127 20077 40206 51006
 22234 04142=
BATFR54 11004 99475 70039 46/// /2403 10095 20079 40174 51012
 22232 04109=
12050 11004 99336 10319 46/// ///// 40225 52002 22200=
0000066900
912
USAA01 NZCM 110000
TTAA 61001 89664
99997 00056 18501 00512 ///// ///// 92601 07158 18518
85255 11341 17017 70716 21114 15006 50514 33959 24513
40666 44759 24520 30855 51765 24023 25975 45585 24514
20124 43786 24513 15318 43586 26009 10592 41586 23504
88320 52361 23026
77999
31313 48008 82219=

0000069700
87361=
0000011200
87368=
0000015000
87382
0000012800
87386=
0000045700
87427=
0000045900
87505
0000050000
87526=
0000050200
87744
0000056400
87939
0000064700
88138
0000058500
88441
0000062700
88732=
0000069100
92031
0000073200
93684
0000073300
95741
0000075300
98041
0000053700
913
SMIN42 DEMS 110000
AAXX 11004
42103 31994 23202 10088 20075 40174 71011 82030
  333 58005 82360=
42273 21595 70902 10130 20123 40145 70562 85530
  333 59012 6994/ 85620 87360=
43181 31994 20000 10208 20195 30114 40142 71000 82030
  333 58006=
43221 32996 00000 10218 20196 30124 40138
  333 58006=
43311 32996 00504 10266 20237 40115
  333 58009=
43325 31996 20000 10210 20191 39814 40133 70500 80001
  333 58006=
43360 31595 30503 10222 20197 39985 40136 70500 81501
  333 58008=
43303 NIL=
0000033700
914
SMVF01 KWBC 110000 RRF
BBXX
BAREU66 11004 99370 70013 46/// ///// 40164 57010 22255=
BATFR24 11004 99430 10077 44/98 03101 10132 20079 40209 58017
 70000 22264 00130=
BAREU65 11004 99335 70139 46/// ///// 40158 52013 22243=
61002 11004 99421 10047 46/// /1608 10130 20050 40190 57002 22200
 00129 10501 70004=
0000085500
915
USAA01 NZCM 110000
TTAA 61001 89664
99997 00056 18501 00512 ///// ///// 92601 07158 18518
85255 11341 17017 70716 21114 15006 50514 33959 24513
40666 44759 24520 30855 51765 24023 25975 45585 24514
20124 43786 24513 15318 43586 26009 10592 41586 23504
88320 52361 23026
77999
31313 48008 82219=

0000069700
87361=
0000011200
87368=
0000015000
87382
0000012800
87386
0000045600
87406
0000047700
87410
0000049800
87416
0000051900
87420
0000047800
87441
0000045800
87463
0000047900
87474
0000054100
87493
0000052100
87509
0000048000
87557
0000050100
87618
0000052200
87680
0000060500
87820
0000068800
87999
0000058500
88171
0000060600
88468
0000068900
88727
0000064800
89207=
0000069100
93667
0000069100
95733
0000069100
98031
0000069000
916
USAA01 NZCM 110000
TTAA 61001 89664
99997 00056 18501 00512 ///// ///// 92601 07158 18518
85255 11341 17017 70716 21114 15006 50514 33959 24513
40666 44759 24520 30855 51765 24023 25975 45585 24514
20124 43786 24513 15318 43586 26009 10592 41586 23504
88320 52361 23026
77999
31313 48008 82219=

0000069700
87361=
0000011200
87368=
0000015000
87382
0000012800
87386
0000045600
87406=
0000047800
87429=
0000005900
87506=
0000058400
87701
0000056400
87813
0000058500
88012
0000056500
88204
0000062700
88475
0000068900
88739
0000066900
89194=
0000071200
93704
0000012000
95754
0000075300
98057
0000077200
917
USAA01 NZCM 110000
TTAA 61001 89664
99997 00056 18501 00512 ///// ///// 92601 07158 18518
85255 11341 17017 70716 21114 15006 50514 33959 24513
40666 44759 24520 30855 51765 24023 25975 45585 24514
20124 43786 24513 15318 43586 26009 10592 41586 23504
88320 52361 23026
77999
31313 48008 82219=

0000069700
87361=
0000011200
87368
0000009600
87371
0000035800
87378
0000037300
87381
0000039400
87385
0000039400
87407
0000041500
87411
0000014600
87417
0000045700
87421
0000049900
87440=
0000052100
87535=
0000052200
87749
0000056400
87945
0000058500
88121
0000054400
88389
0000062700
88652
0000066900
89155=
0000067000
93633
0000075300
95737
0000144700
98042
0000089600
918
USAA01 NZCM 110000
TTAA 61001 89664
99997 00056 18501 00512 ///// ///// 92601 07158 18518
85255 11341 17017 70716 21114 15006 50514 33959 24513
40666 44759 24520 30855 51765 24023 25975 45585 24514
20124 43786 24513 15318 43586 26009 10592 41586 23504
88320 52361 23026
77999
31313 48008 82219=

0000069700
87361=
0000011200
87368
0000009600
87371
0000035800
87378
0000037300
87381
0000039400
87385
0000039400
87407
0000041500
87411
0000014600
87417
0000045700
87421
0000049900
87440
0000052000
87462
0000050000
87472
0000005900
87495
0000058300
87519
0000056300
87548
0000056300
87600
0000062500
87655
0000054300
87765
0000062600
87953
0000058500
88149
0000060600
88438
0000062700
88693
0000068900
89181=
0000069100
93672
0000012000
95747
0000075400
98047
0000071000
919
USAA01 NZCM 110000
TTAA 61001 89664
99997 00056 18501 00512 ///// ///// 92601 07158 18518
85255 11341 17017 70716 21114 15006 50514 33959 24513
40666 44759 24520 30855 51765 24023 25975 45585 24514
20124 43786 24513 15318 43586 26009 10592 41586 23504
88320 52361 23026
77999
31313 48008 82219=

0000069700
87361=
0000011200
87368
0000009600
87371
0000035800
87378
0000037300
87381=
0000039500
87413
0000041600
87422
0000043700
87443=
0000052100
87539
0000048000
87564
0000056300
87614=
0000062600
88120
0000060600
88395
0000066800
88685
0000068900
89190=
0000062900
93662
0000071200
95726
0000077400
98032
0000077300
920
USAA01 NZCM 110000
TTAA 61001 89664
99997 00056 18501 00512 ///// ///// 92601 07158 18518
85255 11341 17017 70716 21114 15006 50514 33959 24513
40666 44759 24520 30855 51765 24023 25975 45585 24514
20124 43786 24513 15318 43586 26009 10592 41586 23504
88320 52361 23026
77999
31313 48008 82219=

0000069700
87361=
0000011200
87368
0000009600
87371
0000035800
87378
0000037300
87381
0000039400
87385
0000039400
87407=
0000012000
87430
0000054000
87439
0000049900
87460=
0000048000
87541
0000054200
87545
0000052200
87598
0000054300
87659=
0000060600
88221
0000054400
88495
0000066900
88755=
0000069000
92040
0000062900
93707
0000071200
95762
0000077400
98055
0000066900
921
USAA01 NZCM 110000
TTAA 61001 89664
99997 00056 18501 00512 ///// ///// 92601 07158 18518
85255 11341 17017 70716 21114 15006 50514 33959 24513
40666 44759 24520 30855 51765 24023 25975 45585 24514
20124 43786 24513 15318 43586 26009 10592 41586 23504
88320 52361 23026
77999
31313 48008 82219=

0000069700
87361=
0000011200
87368=
0000015000
87382=
0000030600
87414
0000014800
87423=
0000050000
87499=
0000062500
87711
0000054300
87791
0000060500
87985
0000068800
88189
0000073000
88467
0000066800
88730
0000071000
89211=
0000083500
93671
0000062900
95731
0000075400
98027
0000083400
922
USAA01 NZCM 110000
TTAA 61001 89664
99997 00056 18501 00512 ///// ///// 92601 07158 18518
85255 11341 17017 70716 21114 15006 50514 33959 24513
40666 44759 24520 30855 51765 24023 25975 45585 24514
20124 43786 24513 15318 43586 26009 10592 41586 23504
88320 52361 23026
77999
31313 48008 82219=

0000069700
87361=
0000011200
87368
0000009600
87371
0000035800
87378
0000037300
87381
0000039400
87385
0000039400
87407
0000041500
87411
0000014600
87417
0000045700
87421=
0000050000
87501
0000056200
87513
0000060400
87556
0000054200
87613
0000052200
87648
0000064600
87794
0000056400
87973
0000064700
88154
0000062700
88443
0000060600
88737=
0000077300
92009
0000071100
93637
0000073300
95735
0000065000
98040
0000075200
923
USAA01 NZCM 110000
TTAA 61001 89664
99997 00056 18501 00512 ///// ///// 92601 07158 18518
85255 11341 17017 70716 21114 15006 50514 33959 24513
40666 44759 24520 30855 51765 24023 25975 45585 24514
20124 43786 24513 15318 43586 26009 10592 41586 23504
88320 52361 23026
77999
31313 48008 82219=

0000069700
87361=
0000011200
87368=
0000015000
87382=
0000030600
87414
0000014800
87423
0000049900
87438
0000052000
87459
0000058200
87471
0000050000
87489
0000052100
87522=
0000058400
87725
0000058500
87827
0000058500
88015
0000062600
88202
0000066800
88447
0000068900
88742
0000071000
89195=
0000073200
93668
0000071200
95727
0000071200
98036
0000079300
924
USAA01 NZCM 110000
TTAA 61001 89664
99997 00056 18501 00512 ///// ///// 92601 07158 18518
85255 11341 17017 70716 21114 15006 50514 33959 24513
40666 44759 24520 30855 51765 24023 25975 45585 24514
20124 43786 24513 15318 43586 26009 10592 41586 23504
88320 52361 23026
77999
31313 48008 82219=

0000069700
87361=
0000011200
87368=
0000015000
87382
0000012800
87386
0000045600
87406
0000047700
87410
0000049800
87416=
0000045800
87478
0000043800
87484
0000050000
87523
0000054200
87562
0000060400
87623
0000056300
87678
0000064600
87811
0000068800
87998
0000062600
88186
0000062700
88471
0000060600
88740
0000062800
89209=
0000071100
93685
0000012600
95756
0000069100
98053
0000077200
925
USAA01 NZCM 110000
TTAA 61001 89664
99997 00056 18501 00512 ///// ///// 92601 07158 18518
85255 11341 17017 70716 21114 15006 50514 33959 24513
40666 44759 24520 30855 51765 24023 25975 45585 24514
20124 43786 24513 15318 43586 26009 10592 41586 23504
88320 52361 23026
77999
31313 48008 82219=

0000069700
87361=
0000011200
87368
0000009600
87371
0000035800
87378
0000037300
87381=
0000039500
87413
0000041600
87422
0000043700
87443
0000045800
87466
0000054100
87469
0000050000
87483=
0000046000
87718
0000056400
87822
0000056400
88001
0000058500
88178=
0000064900
89981
0000066900
90856
0000077300
92058
0000073200
93691
0000073300
95761
0000075300
98058
00000000