0000077200
166
USAA01 NZCM 110000
TTAA 61001 89664
99997 00056 18501 00512 ///// ///// 92601 07158 18518
85255 11341 17017 70716 21114 15006 50514 33959 24513
40666 44759 24520 30855 51765 24023 25975 45585 24514
20124 43786 24513 15318 43586 26009 10592 41586 23504
88320 52361 23026
77999
31313 48008 82219=

0000069700
87361=
0000011200
87368
0000009600
87371
0000035800
87378
0000037300
87381
0000039400
87385
0000039400
87407=
0000012000
87430
0000054000
87439
0000049900
87460
0000047900
87470
0000052100
87487
0000054200
87520
0000052100
87554
0000050100
87606=
0000048200
88093
0000062700
88368=
0000066900
90574
0000067000
91702
0000067000
93188
0000056700
95147
0000068900
167
USAA01 NZCM 110000
TTAA 61001 89664
99997 00056 18501 00512 ///// ///// 92601 07158 18518
85255 11341 17017 70716 21114 15006 50514 33959 24513
40666 44759 24520 30855 51765 24023 25975 45585 24514
20124 43786 24513 15318 43586 26009 10592 41586 23504
88320 52361 23026
77999
31313 48008 82219=

0000069700
87361=
0000011200
87368
0000009600
87371
0000035800
87378
0000037300
87381
0000039400
87385
0000039400
87407
0000041500
87411
0000014600
87417
0000045700
87421=
0000050000
87501
0000056200
87513=
0000060500
87736
0000062600
87931=
0000062700
88957
0000064800
89510=
0000071200
95159
0000075100
168
USAA01 NZCM 110000
TTAA 61001 89664
99997 00056 18501 00512 ///// ///// 92601 07158 18518
85255 11341 17017 70716 21114 15006 50514 33959 24513
40666 44759 24520 30855 51765 24023 25975 45585 24514
20124 43786 24513 15318 43586 26009 10592 41586 23504
88320 52361 23026
77999
31313 48008 82219=

0000069700
87361=
0000011200
87368
0000009600
87371
0000035800
87378
0000037300
87381
0000039400
87385=
0000043700
87428
0000047800
87442
0000056100
87461=
0000021900
87579
0000050100
87604
0000052200
87650
0000054300
87784
0000056400
87976
0000056400
88162
0000060600
88419=
0000073100
90583
0000069000
91709
0000062900
93210
0000060800
95153
0000071000
169
USAA01 NZCM 110000
TTAA 61001 89664
99997 00056 18501 00512 ///// ///// 92601 07158 18518
85255 11341 17017 70716 21114 15006 50514 33959 24513
40666 44759 24520 30855 51765 24023 25975 45585 24514
20124 43786 24513 15318 43586 26009 10592 41586 23504
88320 52361 23026
77999
31313 48008 82219=

0000069700
87361=
0000011200
87368=
0000015000
87382
0000012800
87386=
0000045700
87427
0000045800
87444
0000047900
87464
0000052000
87476
0000050000
87490
0000045900
87515
0000054200
87561=
0000056400
87894
0000256100
88072
0000054400
88341=
0000073100
90610
0000064900
91677
0000071100
93209
0000069100
95155
0000064800
170
USAA01 NZCM 110000
TTAA 61001 89664
99997 00056 18501 00512 ///// ///// 92601 07158 18518
85255 11341 17017 70716 21114 15006 50514 33959 24513
40666 44759 24520 30855 51765 24023 25975 45585 24514
20124 43786 24513 15318 43586 26009 10592 41586 23504
88320 52361 23026
77999
31313 48008 82219=

0000069700
87361=
0000011200
87368
0000009600
87371
0000035800
87378
0000037300
87381=
0000039500
87413
0000041600
87422
0000043700
87443
0000045800
87466=
0000054200
87540=
0000048100
87746
0000050200
87938=
0000066900
88946
0000058700
89502=
0000073200
95152
0000062700
171
USAA01 NZCM 110000
TTAA 61001 89664
99997 00056 18501 00512 ///// ///// 92601 07158 18518
85255 11341 17017 70716 21114 15006 50514 33959 24513
40666 44759 24520 30855 51765 24023 25975 45585 24514
20124 43786 24513 15318 43586 26009 10592 41586 23504
88320 52361 23026
77999
31313 48008 82219=

0000069700
87361=
0000011200
87368
0000009600
87371
0000035800
87378
0000037300
87381=
0000039500
87413
0000041600
87422=
0000043800
87504
0000052100
87527=
0000052200
87750
0000060500
87942=
0000058600
88966
0000066900
89574=
0000069100
95168
0000060700
172
USAA01 NZCM 110000
TTAA 61001 89664
99997 00056 18501 00512 ///// ///// 92601 07158 18518
85255 11341 17017 70716 21114 15006 50514 33959 24513
40666 44759 24520 30855 51765 24023 25975 45585 24514
20124 43786 24513 15318 43586 26009 10592 41586 23504
88320 52361 23026
77999
31313 48008 82219=

0000069700
87361=
0000011200
87368=
0000015000
87382
0000012800
87386
0000045600
87406=
0000047800
87429=
0000005900
87506
0000058300
87508
0000054200
87566=
0000056400
87888=
0000058600
88926
0000066900
89492=
0000071200
95164
0000054100
173
UDAS02 BABJ 110017
AMDAR 1100
LVR CNFPXL 3531N 11945E 110005 F256 MS378 266/067 TB/ S//1=
LVR CNFPXL 3518N 11931E 110008 F256 MS373 267/069 TB/ S//1=
LVR CNFPXL 3504N 11917E 110011 F256 MS370 269/065 TB/ S//1=
LVR CNFPXL 3450N 11903E 110014 F256 MS370 269/062 TB/ S//1=
LVR CNFPYN 2618N 11759E 110006 F256 MS193 256/093 TB/ S//1=
LVR CNFPYN 2637N 11754E 110009 F256 MS195 257/096 TB/ S//1=
LVR CNFPYN 2650N 11740E 110012 F256 MS193 257/099 TB/ S//1=
LVR CNFPYN 2703N 11726E 110015 F256 MS195 258/100 TB/ S//1=
0000047900
174
UDAS02 BABJ 110018
AMDAR 1100
ASC CNFLWQ 2632N 10648E 110016 F034 PS001 086/001 TB/ S//1=
ASC CNFLWQ 2633N 10648E 110016 F035 PS003 143/002 TB/ S//1=
ASC CNFPYL 2428N 11754E 110014 F094 MS013 214/010 TB/ S//1=
ASC CNFPYL 2430N 11756E 110015 F106 MS048 243/017 TB/ S//1=
ASC CNFPYL 2432N 11758E 110015 F118 MS066 253/024 TB/ S//1=
ASC CNFPYL 2435N 11801E 110016 F131 MS001 279/044 TB/ S//1=
ASC CNFLWQ 2634N 10648E 110016 F047 MS021 025/006 TB/ S//1=
0000067100
175
SXXX32 EUMS 110013 RRX
16F152DA
OT12 ID:IR-JASK-09 DT:2014 01 11 00 03
:RAD /1 03681 03666 03674 03662 03679(03676 03676 03677 03672 03686 03692 03660 03689 03668 03669 03666 03656 03666 03663 03665 03666 03686 03690 03685 03693 03701 03711 03717 03726 03736
:PR1 /1 00920 00923 00916 00933 00932 00922 00923 00931 00945 00934 00943(00945 00932 00934 00925 00930 00921 00921 00914 00918 00932 00930 00950 00944 00944 00955 00972 00976 00987 00998
:PR2 /1 02526 02528 02532 02534 02525 02524 02535 02532 02545 02543 02543 02537 02541 02528 02528 02518 02520 02516 02519 02529 02528 02539 02534 02548 02548 02557 02574 02581 02596 02596
:BAT 13.5V
0000070200
176
SXXX32 EUMS 110013 RRX
223412A2
OT12 ID:IND-SADENG DT:2014 01 11 00 12
:PRS /1 01544 01494 01433 01487 01406 01390 01371 01512 01508 01525 01406 01310 01394 01461 01580 01474 01503 01390 01398 01337 01435 01521 01377 01470 01430 01359 01323 01443 01469 01513
:ENC /1 -13509 -13549 -13596 -13543 -13606 -13653 -13656 -13546 -13506 -13513 -13653 -13709 -13653 -13573 -13479 -13543 -13536 -13613 -13623 -13639 -13543 -13546 -13609 -13516 -13573 -13646 -13669 -13586 -13569 -13529
:RAD /1 11241 11219 11164 14600 13481 11140 11092 11199 11314 11274 11169 11106 11134 11200 11336 11322 11250 11170 14582 13449 11238 11205 11160 11214 11199 11158 11064 11153 11188 11249
:BAT 11.7V/
0000039800
177
SXXX32 EUMS 110015 RRX
16590056
:PRS 1 /1 2310 2307 2301 2299 2309 2316 2324 2330 2335 2348 2359 2360 :RAD 1 /1 6595 6593 6586 6585 6593 6601 6609 6616 6619 6633 6643 6644 6638 6635 6629 6628 6620 6616 :ENC 6 /6 4831 4849 4813 4810 4838 4839 4832 4827 4831 4837 :ENB 6 /6 4832 4846 4811 4809 4837 4837 4831 4826 4830 4836 :SW1 15 /60 0 :SW2 42 /60 31 :BAT 5 /6 12.4 :NAME 16590056
0000041200
178
SXXX32 EUMS 110015 RRX
262D700E
:PRS 1 /1 3418 3420 3441 3407 3448 3422 3412 3354 3398 3436 3396 3402 3391 3459 3354 3344 3378 3416 3383 3389 3405 3362 3410 3385 3413 3368 3312 3372 3312 3419 :RAD 1 /3 5840 5842 5844 5837 5834 5830 5815 5806 5803 5801 5797 5794 5795 5790 5777 :ENC 5 /5 5961 5961 5964 5949 5930 5925 5921 5927 5905 5874 5881 5868 :SW1 15 /60 0 :BAT 14 /15 12.9 :NAME 262D700E /
0000045100
179
SXXX32 EUMS 110015 RRX
16289262
:PRS 1 /1 2517 2512 2522 2517 2511 2517 2504 2513 2516 2512 2524 2499 2511 2513 2496 2515 2496 2519 2509 2505 2502 2507 2508 2505 2499 2509 2500 2503 2509 2507 :RAD 1 /3 7971 7967 7966 7968 7965 7962 7959 7962 7963 7964 7963 7963 7963 7966 7964 7962 7960 7961 7961 7960 :ENC 5 /5 5341 5341 5344 5346 5331 5338 5340 5327 5325 5328 5336 5339 :SW1 15 /60 0 :SW2 45 /60 0 :BAT 14 /15 12.5 :NAME 16289262 /
0000213700
180
SMCI07 BABJ 110000
AAXX 11001
50434 32975 00401 11442 21480 39328 40380 52006 333 00452
92517=
50527 12962 73201 11306 21337 39435 40326 52013 69901 87///
333 00452 79999 92515=
50603 32980 73203 11195 21230 39568 40306 52015 87/// 333
00304 92502=
50632 32980 73401 11271 21302 39303 40290 52002 87/// 333
00252 92505=
50727 11529 71101 11216 21247 39010 40299 52003 69931 705//
87/// 333 00108 31042 70003 92527=
50915 41957 02703 11221 21266 39246 40348 52003 705// 333
00251 92506=
51716 32963 01601 11137 21164 39059 40455 52001 333 00752=
51765 32980 02501 11149 21200 39385 40474 52004 333 00703=
51777 32970 02501 11154 21195 39335 40474 52001 333 00851=
51811 32962 50000 11128 21154 38925 40445 57003 85/// 333
00756=
51828 32961 73601 11098 21111 38767 40435 57003 87/// 333
00751=
52267 42980 02705 11130 21224 39224 40414 52008 333 00405=
52323 32980 02507 11188 21235 38325 52007 333 00602=
52495 42980 72704 11124 21235 38781 40420 52013 87/// 333
00408=
53149 42980 70701 11161 21246 38833 40358 52012 87/// 333
00102=
53192 31957 50000 11205 21266 38941 40386 52002 705// 85///
333 00205=
53231 42980 21806 11174 21245 38553 52007 82/// 333 00302=
53336 32980 70000 11155 21225 38782 40391 52004 87/// 333
00103=
53391 42957 22703 11156 21246 38543 40370 57003 82/// 333
00104=
53529 42978 20401 11113 21234 38700 40385 52010 82/// 333
00207=
53543 42980 02503 11104 21233 38596 40366 52002 333 00201=
53723 32968 22703 11108 21236 38747 40387 52014 82/// 333
00301=
54012 42980 02705 11167 21247 39052 40331 57002 333 00103
92505=
54026 31932 20201 11174 21241 39935 40289 57005 705// 82///
333 00051=
54027 32975 01801 11189 21238 39667 40308 52002 333 00004=
54208 42980 00000 11193 21249 38805 40372 57001 333 00202=
54776 41531 72202 10002 21075 30273 40336 52007 705// 87///
333 00103 31042=
56004 32980 72902 11191 21265 35797 52004 87/// 333 00352=
56033 32680 70000 11191 21244 35991 52004 87/// 333 00455
79999 92503=
56046 12780 71101 11133 21160 36235 52007 69942 87/// 333
00453 70011 92501=
0000198200
181
SMCI32 BABJ 110000
AAXX 11001
56193 NIL=
56196 31950 83201 10033 20024 39668 40310 52015 710// 88///
333 00552 31012 70007=
56287 31840 82001 10049 20016 40310 52011 705// 88/// 333
00500 30042 79999=
56684 31558 80405 11024 21041 37847 52015 710// 88/// 333
00559 31034=
56751 32980 01104 10094 21025 38033 52008 333 00202 30026=
56786 32975 02201 10055 20023 38126 52018 333 00300 31014=
56977 31/02 92901 10124 20124 40203 52015 747// 333 00103=
57259 12460 80000 10010 20010 39811 40345 52011 69902 88///
333 00551 30001 79999=
57279 11956 83202 10029 20003 40331 52008 69902 710// 88///
333 00451 30021 79999=
57348 32860 83401 10061 20014 40306 52013 88/// 333 00452
30044 79999=
57399 11956 83401 10028 20022 40311 52009 60011 760// 88///
333 00103 30028 70018=
57554 11857 80901 10030 20018 40325 52016 69912 710// 88///
333 00351 30032 70018=
57793 11718 83601 10053 20046 40298 52017 60011 760// 88///
333 00001 70031=
58345 11439 80703 10043 20017 30309 40317 52005 69911 760//
88/// 333 05205 30037 70001=
58506 11/07 93601 10005 20005 40306 52010 60042 710// 333
05101 31010 70058 93427=
58813 31957 80402 10096 20060 40273 52008 710// 88/// 333
05205=
58834 32960 80902 10101 20051 40288 52009 88/// 333 05202=
58926 32968 01601 10113 20072 40284 52007 333 05102=
58944 32566 83603 10117 20072 40273 52006 88/// 333 05303=
59096 31556 73601 10084 20069 40272 52011 710// 87/// 333
05100=
59102 32565 40000 10062 20061 40272 52012 84/// 333 05151
30048=
59278 31757 71801 10132 20081 40255 52013 705// 87/// 333
05101=
59456 31858 70000 10148 20121 30061 40231 52014 710// 87///
333 05103=
59493 31955 00703 10135 20101 30176 40254 52015 705// 333
05100=
59658 11459 80905 10164 20124 30162 40227 52019 69902 705//
88/// 333 05103 79999=
59673 32565 70406 10156 20118 40244 52017 87/// 333 00001=
59845 31658 61102 10188 20175 40216 52017 710// 86/// 333
05102=
0000047900
182
UDAS02 BABJ 110019
AMDAR 1100
LVR CNFOZN 3800N 11937E 110008 F256 MS428 269/076 TB/ S//1=
LVR CNFOZN 3811N 11923E 110011 F256 MS434 266/069 TB/ S//1=
LVR CNFOZN 3819N 11905E 110014 F256 MS438 266/067 TB/ S//1=
LVR CNFOZN 3828N 11845E 110017 F256 MS439 268/067 TB/ S//1=
ASC CNFLWQ 2635N 10648E 110016 F052 MS029 023/010 TB/ S//1=
ASC CNFLWQ 2635N 10648E 110017 F055 MS034 021/012 TB/ S//1=
ASC CNFLWQ 2637N 10648E 110017 F070 MS050 049/014 TB/ S//1=
0000045100
183
SXXX32 EUMS 110015 RRX
324DF524
:PRS 1 /1 1927 1931 1934 1938 1941 1944 1948 1952 1955 1959 1962 1965 1969 1973 1976 1980 1983 1987 1990 1994 1998 2002 2006 2010 2013 2016 2020 2024 2028 2031 :RAD 1 /3 1933 1946 1955 1967 1978 1989 2001 2012 2024 2036 2049 2058 2069 2080 2093 2104 2119 2132 2146 2160 :ENC 5 /5 896 913 932 951 970 989 1008 1030 1050 1070 1091 1113 :SW1 15 /60 0 0 :SW2 45 /60 60 60 :BAT 14 /15 12.0 :NAME 324DF524 /
0000048200
184
SXXX32 EUMS 110015 RRX
22BF90A6
:PRS 1 /1 976 974 977 974 973 973 977 974 974 973 977 975 972 970 975 :RAD 1 /3 4156 4154 4156 4156 4154 4154 4157 4157 4156 4158 :SW1 15 /60 0 :SW2 45 /60 60 :WTP 15 /15 29.6 :BAT 13 /15 12.7 :WAV 5 /10 5.3 5.6 5.8 :DAV 5 /10 108 110 112 :WMX 5 /10 6.4 7.2 7.1 :TPA 15 /15 27.1 :TMN 15 /720 27.1 :TMX 15 /720 28.1 :HUM 15 /15 80.7 :PRA 15 /15 1014.7 :RAC 14 /60 0.0 :RDU 14 /60 0 :RIN 14 /60 0.0 :DAC 14 /1440 0.4 :DDR 14 /1440 330
0000042100
185
SXXX32 EUMS 110016 RRX
26CB10AC
:PRS 1 /1 -1341 -1341 -1341 -1341 -1341 -1341 -1341 -1341 -1341 -1341 -1341 -1341 -1341 -1343 -1341 -1341 -1341 -1341 -1341 -1341 -1341 -1341 -1341 -1341 -1341 -1341 -1341 -1341 -1342 -1341 :RAD 3 /3 6309 6310 6309 6307 6303 6296 6294 6291 6287 6285 :RA2 3 /3 6287 6291 6290 6288 6289 6274 6272 6273 6268 6265 :SW1 17 /60 0 :SW2 47 /60 0 :BAT 14 /15 12.3 :NAME 26CB10AC /
00000000