0000011500
986
FTOM21 OOMS 111100 RRA
TAF OOMS 111100Z 1112/1218  05014KT 9000 NSC BECMG 1116/1118 VRB02KT BKN030=
0000011100
987
UANT01 CWAO 111107
ARP SVA021 5108N02313W 1107 F340 MS61 194/70 KT
HZAK20 QXT EUA 111107 F61A
0000066000
988
SNBX43 EBUM 111100
AAXX 11111
06418 46/// /2907 10075 20060 30154 40166 53020 333   91111 91209=
06434 46/// /2305 10062 20048 30155 40175 53009 333   91109 91205=
06439 46/// /2305 10061 20039 30158 40172 51010 333   91108 91205=
06447 41397 72404 10060 20045 30048 40174 51013 78022 85631 333
91107 91205=
06455 46/// /2304 10084 20048 39885 40169 50012 333   91107 91204=
06464 46/// /2505 10061 20061 30130 40158 52008 333   91109 91205=
06472 46/// ///// 10071 20064 39824 40185 51012=
06477 46/// /2304 10079 20058 30115 40165 50008 333   91107 91205=
06484 46/// /2201 10041 20041 39800 40198 53015 333   91102 91202=
0000025200
989
SNBX42 EBUM 111100
AAXX 11111
06414 46/// /2504 10066 20046 30139 40172 53017 333   91108 91205=
06459 46/// /2506 10074 20070 39986 40179 50011 333   91108 91206=
06494 46/// /2505 10032 20028 39370 40176 51011 333   91108 91206=
0000015100
990
SNVD03 CWAO 111100
BBXX
CFL24 11114 99438 70606 47998 62615 10039 20011 40279 57001 7//// 86/// 222// 0//// 10603 70017 333 86/58=

0000003800
991
SAUK53 EGRR 111100
NIL
0000303900
992
SNUK42 EGRR 111100
AAXX 11114
03002 47572 /2821 10058 20020 39984 40003 53015 723//
  333 81/26 85/64 90710 91127=
03008 46/// /2920 10050 20013 39963 40037 51014
  333 90710 91130=
03010 46/// /2726 10066 20005 40067 52023
  333 90710 91134=
03031 47681 /2713 10012 21007 39778 40111 51025 724//
  333 553// 20350 82/35=
03034 47781 /2711 10051 20007 30094 40108 51024 723//
  333 81/50=
03037 45776 /1904 10031 20004 30104 40127 53025
  333 85/56=
03039 46/// /2921 11022 21027
  333 90710 91132=
03044 47475 /2407 10030 20006 39992 40093 51026 782//
  333 553// 20095 81/16 84/29=
03047 47436 /3304 10009 21007 39828 40138 52025 785//
  333 553// 20237 84/14=
03062 45983 /2306 10028 20002 30096 40101 53023
  333 553// 20241 83/63=
03065 46/// /2627 11059 21068
  333 91038=
03068 42584 22513 10029 20001 30091 40100 52024 82931
  333 81920=
03072 46/// /2930 11034 21068
  333 90710 91159 91047=
03080 45783 /2813 10040 21028 39930 40103 53023
  333 81/50=
03088 45984 /2913 10030 21022 39939 40105 53025
  333 553// 20417 8//99=
03105 47568 /2915 10052 20011 30137 40154 52022 723//
  333 82/27 85/50=
03132 45480 /2806 10053 20030 30156 40169 51028
  333 85/18=
03144 45984 /2210 10027 20001 30088 40132 52027
  333 553// 20275 8//99=
03148 46/// /2817 11015 21027
  333 90710 91125=
03153 45983 /2804 10035 20019 30020 40161 52024
  333 553// 20625 8//99=
03155 46384 /2415 10011 20001 39845 40149 51024
  333 81/08=
03158 45983 /2613 10031 21003 39988 40127 52021
  333 553// 20445 8//99=
03210 46473 /3112 10043 20030 30017 40171 53029
  333 85/13=
03212 45/82 /3006 10042 20019 30068 40169 53029=
03214 45478 /2915 10056 20031 30152 40171 52027
  333 81/19=
03220 46983 ///// 10039 20026 30122 40157 51024
  333 8//99=
03224 45171 /2618 10011 20011 39799 40152 51025
  333 83/02=
03225 46981 /2905 10033 21002 39853 40164 52023
  333 553// 20513 8//99=
03226 45482 /3109 10028 20013 39878 40159 51026
  333 81/18=
03227 46/// /2827 11011 2////
  333 90710 91136=
03230 46981 /2705 10027 20003 39883 40144 52021
  333 8//99=
03238 45979 /2718 10029 20013 39958 40135 51025
  333 8//99 90710 91127=
03261 46981 /2804 10048 20010 30120 40161 53028
  333 8//99=
03265 45980 /2204 10055 20009 30129 40160 53027
  333 81/64=
03266 46983 /2706 10054 20011 30142 40159 53026
  333 8//99=
03275 45976 /2714 10037 20009 39949 40145 51026
  333 8//99=
03281 46/// /2815 10033 20000=
03901 45178 /1504 10011 20009 30084 40175 51020
  333 55305 20489 83/02=
03904 45579 /0000 10018 20013 30111 40173 51021
  333 81/23 84/48=
03907 45981 /2111 10033 20014 30156 40164 51018
  333 55307 20339 8//99=
03911 46067 /1203 10000 21006 39896 40178 51023
  333 85/01=
03915 46974 /1306 10015 20004 30088 40168 51020
  333 8//99=
03916 46984 /2504 10020 21002 39972 40167 51022
  333 553// 20326 8//99=
03923 45168 /2407 10008 20008 39975 40177 52017
  333 82/02=
0000388800
993
SNUK43 EGRR 111100
AAXX 11114
03301 46481 /2807 10055 20032 30119 40193 51031
  333 86/16=
03305 45984 /2814 10041 21006 39927 40194 51032
  333 8//99=
03313 46480 /2706 10047 20023 30096 40192 51035
  333 81/17 86/24=
03316 47567 /3208 10060 20046 30171 40182 53031 721//
  333 81/21 83/31=
03318 46/// /2910 10052 20025=
03321 45580 /2709 10057 20024 30174 40186 52027
  333 55302 20331 87/28=
03330 47272 /3012 10026 20019 39812 40180 53024 741//
  333 81/04 86/07=
03344 45384 /2706 10027 20012 39844 40169 52032
  333 87/07=
03346 46/// /2714 10024 20013=
03351 47481 /3007 10043 20038 30136 40180 51031 723//
  333 55300 20197 81/11 87/24=
03373 46788 /2714 10047 20025 30093 40164 51027
  333 82/56=
03379 42580 12614 10049 20029 30092 40170 51027 81800
  333 81822=
03382 45971 /2609 10054 20026 30145 40154 52027
  333 55308 20486 81/65=
03385 46969 /2511 10055 20030 30147 40157 51027
  333 8//99=
03391 42675 52713 10060 20025 30159 40167 51029 85500
  333 85645=
03392 46975 /2712 10055 20033 30160 40163 51029
  333 8//99=
03405 464// /2811 10058 20024 30085 40203 51026
  333 553// 20606 81/16=
03409 46/// /3501 10042 20009 39991 40194 51034
  333 55302 2////=
03410 46484 /2805 10033 20000 39747 40190 52029
  333 553// 20571 84/16=
03469 45780 /2611 10053 20029 30166 40170 51032
  333 553// 20595 82/50=
03488 45982 /2716 10060 20035 30134 40160 51035
  333 8//99=
03503 45581 /3405 10061 20023 30121 40199 51028
  333 87/23=
03520 46576 /3007 10062 20014 30074 40196 53027
  333 553// 20761 85/26=
03522 45972 /2608 10061 20023 30106 40200 51026
  333 8//99=
03529 45980 /2306 10066 20030 30153 40197 52026
  333 8//99=
03544 45981 /2509 10051 20027 30050 40183 52023
  333 553// 20681 8//99=
03560 45980 /2708 10057 20031 30077 40182 51031
  333 553// 20703 8//99=
03604 46982 /3105 10070 20023 30152 40206 51023
  333 8//99=
03605 46981 /2805 10061 20030 30198 40207 51025
  333 8//99=
03609 46/// /2907 10063 20040 30159 40212 51025=
03628 45973 /2706 10067 20035 30130 40204 52030
  333 55310 20903 8//99=
03647 46980 /2507 10057 20030 39930 40189 51027
  333 553// 20680 8//99=
03658 42480 12307 10064 20037 30124 40195 51027 81100
  333 81812=
03660 45971 /2907 10050 20028 39941 40193 51030
  333 8//99=
03672 42484 13007 10070 20027 30151 40191 51033 81100
  333 81817=
03680 46/// ///// 10055 20029 30031 40190 51032
  333 553// 20735=
03684 45980 /2909 10062 20027 30072 40179 51035
  333 8//99=
03693 45981 /3010 10075 20035 30180 40182 51036
  333 8//99=
03707 45981 /3308 10083 20021 30204 40211 51025
  333 8//99=
03710 46477 /3210 10056 20035 39782 40207 51024
  333 553// 20823 82/13=
03743 46980 /2706 10065 20037 30041 40204 51030
  333 8//99=
03749 46980 /2808 10058 20033 30092 40204 51033
  333 8//99=
03761 42981 02707 10064 20029 30053 40199 51034
  333 55310 20754=
03768 46980 /2807 10065 20035 30117 40198 51033
  333 8//99=
03769 45980 /3005 10073 20032 30110 40193 52035
  333 55309 20507 8//99=
03770 46/// ///// 10081 20032=
03781 45982 /3007 10058 20033 39984 40194 51034
  333 553// 20729 8//99=
03784 46/// /2811 10075 20036 30181 40185 52035=
03797 45981 /2912 10072 20037 30118 40178 51031
  333 55310 20789 8//99=
03823 45481 /3205 10088 20051 39962 40206 51020
  333 553// 20721 81/19=
03839 46/// ///// 10061 20044
  333 553// 20651=
03857 45973 /3317 10080 20045 30143 40207 51028
  333 8//99=
03862 45972 /3308 10073 20050 30195 40207 51033
  333 55310 20697 8//99=
03866 46/// /2807 10075 20037 30179 40204 51033=
03872 45982 ///// 10070 20042 30197 40202 52035
  333 553// 20730 8//99 91011=
03876 46/// /3609 10077 20038 30194 40196 51035=
03895 42584 13506 10095 20054 40214 51028 81501 333 81625=
0000121900
994
SNVD15 KWNB 111100 RRG
BBXX
41046 11111 99238 70683 46/// /1009 10252 20197 40220 52006 91050
22200 00259 10905 20704 3//// 40903 70027 333 91211 555 11095
22100 31015 41012 61049 095089 092089 096090 098095 094084 091082
81010 91016=
42060 11111 99163 70632 46/// /0710 10260 40166 53012 91050 22200
00267 11004 20603 308// 41002 70020 333 91211 555 11107 22113
31010 40612 61049 072098 070092 067094 070096 065095 066092 80711
91045=
41036 11111 99342 70769 46/// /1909 10220 20203 40162 56015 91050
22200 00210 10705 20705 70023 333 91210 555 11094 22102 30959
41912 61049 194087 193084 194087 196088 195094 192096=
44064 11111 99370 70760 46/// /1206 10095 40144 58027 91100 22200
00071 10301 70004 333 91207 555 11065 22070=
44062 11111 99386 70764 46/// /0601 10031 40139 56031 91100 22200
00030 1//00 70001 333 91202 555 11014 22015=
44063 11111 99390 70764 46/// /0301 10024 40123 58035 91100 22200
00014 1//00 70000 333 91202 555 11014 22015=
44041 11111 99372 70768 46/// /1303 10142 91100 22200 00040 1//00
70002 333 91204 555 11039 22043=
44042 11111 99380 70763 46/// /1805 10089 40130 56025 91100 22200
00039 10301 70006 333 91206 555 11058 22063=
0000066100
995
UDAF01 FAPR 111105
AMDAR 1111
ASC AFZA48 3357S 02528E 111043 F094 PS060 291/015 TB0 S031 333 F/// VG012=
ASC AFZA48 3357S 02528E 111044 F094 PS058 291/015 TB1 S031 333 F/// VG020=
ASC AFZA48 3354S 02530E 111045 F115 PS022 268/017 TB0 S031 333 F/// VG011=
ASC AFZA48 3349S 02533E 111045 F133 MS013 266/019 TB0 S031 333 F/// VG011=
ASC AFZA48 3346S 02535E 111046 F156 MS065 271/026 TB0 S031 333 F/// VG010=
LVR AFZA48 3317S 02552E 111051 F251 MS245 252/054 TB0 S031 333 F/// VG009=
LVR AFZA48 3229S 02621E 111058 F365 MS500 271/049 TB0 S031 333 F/// VG009=
LVR AFZA48 3140S 02649E 111105 F370 MS511 270/048 TB0 S031 333 F/// VG010=
0000066100
996
UDAF01 FAPR 111108
AMDAR 1111
LVR AFZA41 2951S 02819E 111039 F370 MS472 294/087 TB0 S031 333 F/// VG010=
LVR AFZA41 2904S 02830E 111047 F370 MS480 291/079 TB0 S031 333 F/// VG010=
LVR AFZA41 2815S 02840E 111054 F370 MS485 289/072 TB0 S031 333 F/// VG010=
LVR AFZA41 2728S 02833E 111101 F310 MS322 294/053 TB0 S031 333 F/// VG008=
DES AFZA41 2658S 02824E 111105 F185 MS080 232/013 TB0 S031 333 F/// VG008=
DES AFZA41 2652S 02823E 111106 F162 MS025 222/014 TB0 S031 333 F/// VG009=
DES AFZA41 2647S 02821E 111107 F140 PS004 245/011 TB0 S031 333 F/// VG009=
DES AFZA41 2642S 02820E 111108 F120 PS052 261/021 TB0 S031 333 F/// VG008=
0000011000
997
UANT99 KDDL 111107
ARP DAL39 5306N02245W 1107 F310 MS56 207/83 KT
N845MH QXT AOE 111108 F05A
0000010900
998
UANT99 KDDL 111107
ARP BAW6B 5705N04234W 1107 F370 MS59 259/25 KT
GCIVS QXS UAK 111108 F48A
0000015100
999
SNVD20 EHDB 111100
BBXX
PHSG 11114 99066 71331 41/98 80924 10250 20235 40090 54000 70392
88/// 22214 00250 20203 323// 40306 80240=
0000003800
000
SNVC20 EHDB 111100
NIL
0000003800
001
SNVE20 EHDB 111100
NIL
0000003800
002
SNVJ20 EHDB 111100
NIL
0000011000
003
UANT99 KDDL 111108
ARP KLM686 5505N03257W 1108 F370 MS58 205/38 KT
PHBFC QXT AOE 111108 F87A
0000011000
004
UANT99 KDDL 111108
ARP UAL56 5107N02219W 1108 F320 MS58 195/73 KT
N66051 DDL XXN 111108 F16A
0000010600
005
UANT99 KDDL 111108
ARP UAL920 RATSU 1108 F320 MS49 242/33 KT
N660UA QXS FAE1 111108 F65A
00000000