0000017100
486
SAEG33 HECA 110000
METAR
HECA 110000Z 24003KT 2000 BR NSC 13/09 Q1023=
HETR 110000Z 31010KT CAVOK 15/05 Q1021=
HEDF 110000Z NIL= 
HEIS 110000Z NIL=
0000062700
487
USAA01 NZCM 110000
TTAA 61001 89664
99997 00056 18501 00512 ///// ///// 92601 07158 18518
85255 11341 17017 70716 21114 15006 50514 33959 24513
40666 44759 24520 30855 51765 24023 25975 45585 24514
20124 43786 24513 15318 43586 26009 10592 41586 23504
88320 52361 23026
77999
31313 48008 82219=

0000069700
87361=
0000011200
87368=
0000015000
87382
0000012800
87386=
0000045700
87427
0000045800
87444
0000047900
87464=
0000052100
87578
0000056300
87627
0000052200
87675=
0000060600
88258
0000062700
88531
0000066900
89091
0000071000
89679=
0000068900
488
USAA01 NZCM 110000
TTAA 61001 89664
99997 00056 18501 00512 ///// ///// 92601 07158 18518
85255 11341 17017 70716 21114 15006 50514 33959 24513
40666 44759 24520 30855 51765 24023 25975 45585 24514
20124 43786 24513 15318 43586 26009 10592 41586 23504
88320 52361 23026
77999
31313 48008 82219=

0000069700
87361=
0000011200
87368=
0000015000
87382=
0000030600
87414
0000014800
87423
0000049900
87438
0000052000
87459
0000058200
87471
0000050000
87489
0000052100
87522
0000058300
87546
0000054200
87595
0000058400
87662
0000064600
87772=
0000066800
88821=
0000062800
92159
0000071100
93865
0000073000
489
USAA01 NZCM 110000
TTAA 61001 89664
99997 00056 18501 00512 ///// ///// 92601 07158 18518
85255 11341 17017 70716 21114 15006 50514 33959 24513
40666 44759 24520 30855 51765 24023 25975 45585 24514
20124 43786 24513 15318 43586 26009 10592 41586 23504
88320 52361 23026
77999
31313 48008 82219=

0000069700
87361=
0000011200
87368
0000009600
87371
0000035800
87378
0000037300
87381=
0000039500
87413
0000041600
87422
0000043700
87443
0000045800
87466
0000054100
87469
0000050000
87483=
0000046000
87718
0000056400
87822=
0000056500
88888
0000058600
89349
0000064800
89971
0000071100
90920
0000052500
92139
0000067000
93866
0000068900
490
USAA01 NZCM 110000
TTAA 61001 89664
99997 00056 18501 00512 ///// ///// 92601 07158 18518
85255 11341 17017 70716 21114 15006 50514 33959 24513
40666 44759 24520 30855 51765 24023 25975 45585 24514
20124 43786 24513 15318 43586 26009 10592 41586 23504
88320 52361 23026
77999
31313 48008 82219=

0000069700
87361=
0000011200
87368=
0000015000
87382=
0000030600
87414
0000014800
87423
0000049900
87438
0000052000
87459
0000058200
87471
0000050000
87489=
0000052200
87715
0000066700
87819
0000056400
88002
0000064700
88159
0000058600
88450
0000064800
88694
0000058600
89109
0000064900
89687=
0000071000
491
USAA01 NZCM 110000
TTAA 61001 89664
99997 00056 18501 00512 ///// ///// 92601 07158 18518
85255 11341 17017 70716 21114 15006 50514 33959 24513
40666 44759 24520 30855 51765 24023 25975 45585 24514
20124 43786 24513 15318 43586 26009 10592 41586 23504
88320 52361 23026
77999
31313 48008 82219=

0000069700
87361=
0000011200
87368
0000009600
87371
0000035800
87378
0000037300
87381
0000039400
87385
0000039400
87407=
0000012000
87430
0000054000
87439=
0000056200
87534=
0000060500
87732
0000056400
87842=
0000052400
88900
0000062800
89351
0000064800
89963
0000062800
90870
0000054600
92150
0000067000
93864
0000073000
492
USAA01 NZCM 110000
TTAA 61001 89664
99997 00056 18501 00512 ///// ///// 92601 07158 18518
85255 11341 17017 70716 21114 15006 50514 33959 24513
40666 44759 24520 30855 51765 24023 25975 45585 24514
20124 43786 24513 15318 43586 26009 10592 41586 23504
88320 52361 23026
77999
31313 48008 82219=

0000069700
87361=
0000011200
87368
0000009600
87371
0000035800
87378
0000037300
87381
0000039400
87385=
0000043700
87428
0000047800
87442
0000056100
87461=
0000021900
87579
0000050100
87604
0000052200
87650
0000054300
87784
0000056400
87976
0000056400
88162
0000060600
88419
0000073000
88657
0000064800
89144
0000073100
89707=
0000075100
493
USAA01 NZCM 110000
TTAA 61001 89664
99997 00056 18501 00512 ///// ///// 92601 07158 18518
85255 11341 17017 70716 21114 15006 50514 33959 24513
40666 44759 24520 30855 51765 24023 25975 45585 24514
20124 43786 24513 15318 43586 26009 10592 41586 23504
88320 52361 23026
77999
31313 48008 82219=

0000069700
87361=
0000011200
87368=
0000015000
87382
0000012800
87386
0000045600
87406
0000047700
87410=
0000049900
87467
0000047900
87475
0000047900
87491
0000056200
87512
0000054200
87550
0000058400
87597
0000062500
87670
0000054300
87796
0000062600
87990
0000058500
88183
0000064700
88425
0000062700
88700
0000068900
89132
0000066900
89686=
0000144500
494
SMRA11 RUHB 110000
AAXX 11001
29998 12999 31502 11263 21281 38696 48540 54000 60002 80001 333 21272
3/133 47010 55052=
30385 12999 50000 11360 21378 39801 40439 52014 60002 80009 333 21361
55000=
30636 129// 00000 11316 21345 39713 40404 52022 60002 333 21317 47049
55000=
30650 11999 11301 11386 21420 39163 40464 52019 69922 74000 81040 333
21386 47005=
30664 11996 00000 11459 21481 39305 40499 52020 60002 71000 333 21460
47008 55057=
30781 12999 00000 11443 21470 39835 40398 52011 60002 333 21443
47009=
30777 11998 00000 11407 21427 39644 40412 52016 60002 74000 333 21411
47010 55062=
30822 11597 83204 11080 21131 39745 40347 52002 60002 70232 8497/ 333
21084 47016 55003 91110=
30844 11598 52701 11196 21215 39311 40361 52024 69922 77172 85500 333
21197 47007=
30925 128// 73601 11224 21249 39351 40413 52008 60002 85075 333 21252
47010 55068=
31371 12999 52702 11312 21343 39973 40270 52007 60002 83031 333 21406
47010 55074=
31388 11993 00000 11451 21478 39955 40268 52006 60002 74440 333 21461
47030 55060=
31478 41999 31001 11423 21444 39020 40292 53008 70271 80009 333
21434=
31532 42999 20000 11443 21470 39878 40285 52007 80001 333 21450
55079=
31594 11996 00000 11417 21444 30070 40273 52010 60002 71000 333 21419
47036=
31624 NIL=
31655 42998 01906 11262 21327 30139 40191 53019 333 21265 91010=
31754 42999 01603 11259 21324 39670 40221 52006=
0000131300
495
SMTR10 UTAA 110000
AAXX 11001
38388 42998 00000 11056 21060 30150 40224 58008 555 14107=
38392 42996 09902 11056 21070 30113 40222 57002 555 14110=
38507 42596 70000 10046 20026 30115 40219 57006 87500 333 87622 555
10003=
38511 42998 71402 11018 21024 30071 40217 57006 87070 555 14105=
38545 42998 01102 11020 21065 30052 40234 57006 555 14104=
38647 42997 01901 11020 21036 30169 40213 57001 555 10106=
38656 42998 00000 11026 21071 30111 40225 57003 555 14107=
38687 42996 01804 10010 21046 30008 40250 57012 555 14102=
38750 42997 62702 10060 20002 30246 40217 57010 80001 555 10001=
38763 42997 00000 11024 21040 30125 40234 54000 555 14103=
38774 42995 00000 10002 21031 30027 40230 58017 555 10105=
38799 42997 21405 10030 21028 39996 40232 57011 80003 555 10101=
38806 42997 01603 10004 21043 39986 40255 57014 555 14103=
38880 42997 22204 11002 21070 39974 40238 58002 80001 555 10105=
38886 42997 02602 10005 21061 39995 40230 52001 555 14103=
38895 42996 01802 10002 21009 39930 40229 56009 555 14105=
38911 42997 01608 10022 21028 39956 40258 57013 555 10001=
38915 42997 01206 10030 21050 39927 40260 57007 555 11001=
38974 42998 20000 10031 21027 39905 40247 52013 80002 555 10102=
38987 42996 02701 11021 21055 39505 40280 57005 555 14103=
0000068900
496
USAA01 NZCM 110000
TTAA 61001 89664
99997 00056 18501 00512 ///// ///// 92601 07158 18518
85255 11341 17017 70716 21114 15006 50514 33959 24513
40666 44759 24520 30855 51765 24023 25975 45585 24514
20124 43786 24513 15318 43586 26009 10592 41586 23504
88320 52361 23026
77999
31313 48008 82219=

0000069700
87361=
0000011200
87368=
0000015000
87382
0000012800
87386=
0000045700
87427
0000045800
87444
0000047900
87464
0000052000
87476
0000050000
87490
0000045900
87515
0000054200
87561
0000056300
87628=
0000052300
88117=
0000069000
89937
0000062800
90890
0000052500
92154
0000067000
93888
0000073000
497
USAA01 NZCM 110000
TTAA 61001 89664
99997 00056 18501 00512 ///// ///// 92601 07158 18518
85255 11341 17017 70716 21114 15006 50514 33959 24513
40666 44759 24520 30855 51765 24023 25975 45585 24514
20124 43786 24513 15318 43586 26009 10592 41586 23504
88320 52361 23026
77999
31313 48008 82219=

0000069700
87361=
0000011200
87368
0000009600
87371
0000035800
87378
0000037300
87381
0000039400
87385
0000039400
87407
0000041500
87411
0000014600
87417
0000045700
87421
0000049900
87440
0000052000
87462=
0000050100
87574
0000050100
87625=
0000058500
88104
0000054400
88386
0000062700
88667
0000058600
89179
0000060700
89713=
0000071000
498
USAA01 NZCM 110000
TTAA 61001 89664
99997 00056 18501 00512 ///// ///// 92601 07158 18518
85255 11341 17017 70716 21114 15006 50514 33959 24513
40666 44759 24520 30855 51765 24023 25975 45585 24514
20124 43786 24513 15318 43586 26009 10592 41586 23504
88320 52361 23026
77999
31313 48008 82219=

0000069700
87361=
0000011200
87368=
0000015000
87382=
0000030600
87414
0000014800
87423
0000049900
87438
0000052000
87459
0000058200
87471
0000050000
87489
0000052100
87522
0000058300
87546
0000054200
87595
0000058400
87662=
0000056500
88232
0000058600
88503
0000058600
88781=
0000067000
92169
0000067000
93871
0000068900
499
USAA01 NZCM 110000
TTAA 61001 89664
99997 00056 18501 00512 ///// ///// 92601 07158 18518
85255 11341 17017 70716 21114 15006 50514 33959 24513
40666 44759 24520 30855 51765 24023 25975 45585 24514
20124 43786 24513 15318 43586 26009 10592 41586 23504
88320 52361 23026
77999
31313 48008 82219=

0000069700
87361=
0000011200
87368=
0000015000
87382
0000012800
87386
0000045600
87406
0000047700
87410
0000049800
87416=
0000045800
87478
0000043800
87484
0000050000
87523
0000054200
87562=
0000060500
87889
0000052300
88043
0000060600
88307
0000014900
88567
0000068900
89104
0000060700
89698=
0000068900
500
USAA01 NZCM 110000
TTAA 61001 89664
99997 00056 18501 00512 ///// ///// 92601 07158 18518
85255 11341 17017 70716 21114 15006 50514 33959 24513
40666 44759 24520 30855 51765 24023 25975 45585 24514
20124 43786 24513 15318 43586 26009 10592 41586 23504
88320 52361 23026
77999
31313 48008 82219=

0000069700
87361=
0000011200
87368
0000009600
87371
0000035800
87378
0000037300
87381
0000039400
87385
0000039400
87407=
0000012000
87430
0000054000
87439
0000049900
87460
0000047900
87470=
0000052200
87585=
0000060600
88100=
0000060700
89923
0000062800
90838
0000069000
92142
0000069100
93872
0000073000
501
USAA01 NZCM 110000
TTAA 61001 89664
99997 00056 18501 00512 ///// ///// 92601 07158 18518
85255 11341 17017 70716 21114 15006 50514 33959 24513
40666 44759 24520 30855 51765 24023 25975 45585 24514
20124 43786 24513 15318 43586 26009 10592 41586 23504
88320 52361 23026
77999
31313 48008 82219=

0000069700
87361=
0000011200
87368
0000009600
87371
0000035800
87378
0000037300
87381
0000039400
87385=
0000043700
87428
0000047800
87442
0000056100
87461
0000047900
87477
0000056200
87486
0000052100
87514
0000064500
87547
0000052200
87621=
0000058500
88116
0000066800
88374
0000060700
88654
0000071000
89131
0000066900
89697=
0000066800
502
USAA01 NZCM 110000
TTAA 61001 89664
99997 00056 18501 00512 ///// ///// 92601 07158 18518
85255 11341 17017 70716 21114 15006 50514 33959 24513
40666 44759 24520 30855 51765 24023 25975 45585 24514
20124 43786 24513 15318 43586 26009 10592 41586 23504
88320 52361 23026
77999
31313 48008 82219=

0000069700
87361=
0000011200
87368
0000009600
87371
0000035800
87378
0000037300
87381
0000039400
87385=
0000043700
87428
0000047800
87442=
0000052100
87533=
0000058400
87735
0000056400
87937
0000064700
88142=
0000066900
90000
0000060700
90887
0000067000
92174
0000071100
93874
0000064800
503
USAA01 NZCM 110000
TTAA 61001 89664
99997 00056 18501 00512 ///// ///// 92601 07158 18518
85255 11341 17017 70716 21114 15006 50514 33959 24513
40666 44759 24520 30855 51765 24023 25975 45585 24514
20124 43786 24513 15318 43586 26009 10592 41586 23504
88320 52361 23026
77999
31313 48008 82219=

0000069700
87361=
0000011200
87368=
0000015000
87382
0000012800
87386
0000045600
87406=
0000047800
87429
0000015700
87445
0000049900
87465
0000054100
87473
0000050000
87488=
0000052200
87714=
0000052300
88272
0000060600
88539
0000064800
89101
0000060700
89690=
0000073000
504
USAA01 NZCM 110000
TTAA 61001 89664
99997 00056 18501 00512 ///// ///// 92601 07158 18518
85255 11341 17017 70716 21114 15006 50514 33959 24513
40666 44759 24520 30855 51765 24023 25975 45585 24514
20124 43786 24513 15318 43586 26009 10592 41586 23504
88320 52361 23026
77999
31313 48008 82219=

0000069700
87361=
0000011200
87368
0000009600
87371
0000035800
87378
0000037300
87381
0000039400
87385
0000039400
87407
0000041500
87411
0000014600
87417
0000045700
87421
0000049900
87440=
0000052100
87535=
0000052200
87749
0000056400
87945
0000058500
88121
0000054400
88389
0000062700
88652
0000066900
89155
0000066900
89715=
0000056500
505
USAA01 NZCM 110000
TTAA 61001 89664
99997 00056 18501 00512 ///// ///// 92601 07158 18518
85255 11341 17017 70716 21114 15006 50514 33959 24513
40666 44759 24520 30855 51765 24023 25975 45585 24514
20124 43786 24513 15318 43586 26009 10592 41586 23504
88320 52361 23026
77999
31313 48008 82219=

0000069700
87361=
0000011200
87368=
0000015000
87382=
0000030600
87414=
0000011000
87481
0000054100
87485=
0000050100
87709=
0000048200
88290
0000068900
88557
0000062700
89099
0000060700
89672=
00000000