0000010400
106
SMIN90 VARP 110000
AAXX 11003
42779 32996 00000 10164 20140 39424 40133
  333 59005=
0000073000
107
USAA01 NZCM 110000
TTAA 61001 89664
99997 00056 18501 00512 ///// ///// 92601 07158 18518
85255 11341 17017 70716 21114 15006 50514 33959 24513
40666 44759 24520 30855 51765 24023 25975 45585 24514
20124 43786 24513 15318 43586 26009 10592 41586 23504
88320 52361 23026
77999
31313 48008 82219=

0000069700
87361=
0000011200
87368
0000009600
87371
0000035800
87378
0000037300
87381
0000039400
87385
0000039400
87407
0000041500
87411
0000014600
87417
0000045700
87421=
0000050000
87501
0000056200
87513
0000060400
87556
0000054200
87613=
0000052300
88087
0000054400
88355
0000066800
88649
0000075100
89191=
0000064900
93693
0000073000
108
USAA01 NZCM 110000
TTAA 61001 89664
99997 00056 18501 00512 ///// ///// 92601 07158 18518
85255 11341 17017 70716 21114 15006 50514 33959 24513
40666 44759 24520 30855 51765 24023 25975 45585 24514
20124 43786 24513 15318 43586 26009 10592 41586 23504
88320 52361 23026
77999
31313 48008 82219=

0000069700
87361=
0000011200
87368
0000009600
87371
0000035800
87378
0000037300
87381=
0000039500
87413
0000041600
87422
0000043700
87443
0000045800
87466
0000054100
87469
0000050000
87483
0000045900
87525
0000058300
87572=
0000060500
87890
0000058500
88060
0000058500
88345
0000062700
88676
0000064800
89158=
0000071100
93648
0000066800
109
USAA01 NZCM 110000
TTAA 61001 89664
99997 00056 18501 00512 ///// ///// 92601 07158 18518
85255 11341 17017 70716 21114 15006 50514 33959 24513
40666 44759 24520 30855 51765 24023 25975 45585 24514
20124 43786 24513 15318 43586 26009 10592 41586 23504
88320 52361 23026
77999
31313 48008 82219=

0000069700
87361=
0000011200
87368
0000009600
87371
0000035800
87378
0000037300
87381
0000039400
87385=
0000043700
87428
0000047800
87442=
0000052100
87533=
0000058400
87735
0000056400
87937
0000064700
88142
0000060600
88434
0000068900
88750=
0000069000
92057
0000067000
93709
0000068900
110
USAA01 NZCM 110000
TTAA 61001 89664
99997 00056 18501 00512 ///// ///// 92601 07158 18518
85255 11341 17017 70716 21114 15006 50514 33959 24513
40666 44759 24520 30855 51765 24023 25975 45585 24514
20124 43786 24513 15318 43586 26009 10592 41586 23504
88320 52361 23026
77999
31313 48008 82219=

0000069700
87361=
0000011200
87368=
0000015000
87382
0000012800
87386=
0000045700
87427
0000045800
87444
0000047900
87464
0000052000
87476=
0000050100
87588
0000062500
87676
0000054300
87809
0000066700
87996
0000064700
88184
0000058500
88427
0000062700
88722
0000058600
89162=
0000073200
93698
0000071000
111
USAA01 NZCM 110000
TTAA 61001 89664
99997 00056 18501 00512 ///// ///// 92601 07158 18518
85255 11341 17017 70716 21114 15006 50514 33959 24513
40666 44759 24520 30855 51765 24023 25975 45585 24514
20124 43786 24513 15318 43586 26009 10592 41586 23504
88320 52361 23026
77999
31313 48008 82219=

0000069700
87361=
0000011200
87368=
0000015000
87382
0000012800
87386
0000045600
87406
0000047700
87410=
0000049900
87467
0000047900
87475
0000047900
87491
0000056200
87512=
0000054300
87729
0000054300
87840=
0000060700
88894
0000062700
89382
0000058600
89999
0000069000
90877
0000069100
92039
0000069100
93715
0000068900
112
USAA01 NZCM 110000
TTAA 61001 89664
99997 00056 18501 00512 ///// ///// 92601 07158 18518
85255 11341 17017 70716 21114 15006 50514 33959 24513
40666 44759 24520 30855 51765 24023 25975 45585 24514
20124 43786 24513 15318 43586 26009 10592 41586 23504
88320 52361 23026
77999
31313 48008 82219=

0000069700
87361=
0000011200
87368
0000009600
87371
0000035800
87378
0000037300
87381
0000039400
87385
0000039400
87407=
0000012000
87430
0000054000
87439=
0000056200
87534
0000060400
87553
0000056300
87602=
0000052300
88061
0000060600
88339
0000060700
88644
0000064800
89160=
0000069100
93710
0000005100
113
SMBZ04 SBBR 110000
AAXX 11004
NIL
0000071000
114
USAA01 NZCM 110000
TTAA 61001 89664
99997 00056 18501 00512 ///// ///// 92601 07158 18518
85255 11341 17017 70716 21114 15006 50514 33959 24513
40666 44759 24520 30855 51765 24023 25975 45585 24514
20124 43786 24513 15318 43586 26009 10592 41586 23504
88320 52361 23026
77999
31313 48008 82219=

0000069700
87361=
0000011200
87368=
0000015000
87382
0000012800
87386
0000045600
87406
0000047700
87410=
0000049900
87467
0000047900
87475
0000047900
87491
0000056200
87512
0000054200
87550
0000058400
87597
0000062500
87670=
0000054400
88236
0000056500
88508
0000064800
88778=
0000069000
92078
0000071100
93722
0000156300
115
SMAG01 SABM 110000
AAXX 11004
87022 32960 50000 10296 20200 39517 40006 53013 80006 333
10370 20246 5600685270=
87046 NIL=
87047 31570 73201 10253 20158 38727 48450 53011 71322 83906 333
10326 20222 56106 57972 82820 81945 86270 90007=
87097 11970 40000 10276 20239 39789 40093 53020 60021 70281 80006
333 10336 20263 56006 84270=
87121 31550 81804 10311 20227 39516 40005 53021 71792 8597/ 333
10363 20270 56769 57950 83630 82945 85360 96005=
87129 31662 80905 10354 20197 39785 40004 53023 71321 8657/ 333
10410 20288 56269 86635 88365=
87148 32970 31104 10305 20244 39940 40043 52015 80005 333 10356
20291 56005 83270=
87155 31956 50704 10305 20252 39996 40055 52012 70411 80006 333
10357 20300 56006 85270=
87162 32570 10504 10311 20239 39991 40058 52018 81800 333 10365 20298 56700 81825=
87166 32760 40502 10311 20242 39988 40058 53011 81306 333 10356
20302 56105 57915 81950 83270=
87217 NIL=
87222 31770 83610 10349 20181 39496 49987 52021 71792 889// 333
10393 20301 56199 57930 87650 81856=
87257 32765 51111 10302 20230 39962 40061 52024 82303
333 10386 20292 56606 57986 82650 81956 84070=
87289 11562 70917 10241 20205 30000 40080 52012 60051 71392 81976 333
10350 20228 56100 57950 81625 81945 85360 87270=
87311 32965 62312 10304 20077 39409 40065 52023 86070 333 10338
20250 56040 86360=
87320 32670 51604 10327 20199 39528 40030 52024 82255
333 10358 20296 56012 57883 81840 81843=
87328 32680 21803 10285 20157 39434 40057 53017 81201 333 10336 20234 57851 81840 95000=
0000066900
116
USAA01 NZCM 110000
TTAA 61001 89664
99997 00056 18501 00512 ///// ///// 92601 07158 18518
85255 11341 17017 70716 21114 15006 50514 33959 24513
40666 44759 24520 30855 51765 24023 25975 45585 24514
20124 43786 24513 15318 43586 26009 10592 41586 23504
88320 52361 23026
77999
31313 48008 82219=

0000069700
87361=
0000011200
87368=
0000015000
87382
0000012800
87386
0000045600
87406=
0000047800
87429
0000015700
87445
0000049900
87465=
0000054200
87575
0000062500
87617
0000062500
87660=
0000064700
88233
0000058600
88504
0000062700
88760
0000071000
89213=
0000071200
93706
0000005500
117
SMBZ06 SBBR 110000 RRA
AAXX 11003
NIL
0000064800
118
USAA01 NZCM 110000
TTAA 61001 89664
99997 00056 18501 00512 ///// ///// 92601 07158 18518
85255 11341 17017 70716 21114 15006 50514 33959 24513
40666 44759 24520 30855 51765 24023 25975 45585 24514
20124 43786 24513 15318 43586 26009 10592 41586 23504
88320 52361 23026
77999
31313 48008 82219=

0000069700
87361=
0000011200
87368=
0000015000
87382
0000012800
87386
0000045600
87406=
0000047800
87429=
0000005900
87506
0000058300
87508
0000054200
87566
0000056300
87622=
0000052300
88108
0000064700
88373
0000066800
88665
0000058600
89171=
0000064900
93708
0000071000
119
USAA01 NZCM 110000
TTAA 61001 89664
99997 00056 18501 00512 ///// ///// 92601 07158 18518
85255 11341 17017 70716 21114 15006 50514 33959 24513
40666 44759 24520 30855 51765 24023 25975 45585 24514
20124 43786 24513 15318 43586 26009 10592 41586 23504
88320 52361 23026
77999
31313 48008 82219=

0000069700
87361=
0000011200
87368=
0000015000
87382
0000012800
87386
0000045600
87406=
0000047800
87429
0000015700
87445=
0000050000
87538
0000054200
87552
0000066600
87599
0000058400
87652
0000058400
87779
0000056400
87980
0000062600
88161
0000064700
88444
0000062700
88735=
0000067000
92038
0000069100
93716
0000036400
120
SMAG01 SABM 110000 RRA
AAXX 11003
87007 32970 20503 10166 21022 36722 47117 52016 80005 333 10255
20106 56005 82270=
87178 11568 81402 10312 20229 39942 40083 52017 69901 79599 8592/
333 10350 20245 56449 57900 57960 83620 82940 87550=
87270 31960 80918 10280 20234 39996 40056 52020 72992 84076 333
10290 20280 56066 84360 87270 96004=
0000081300
121
USAA01 NZCM 110000
TTAA 61001 89664
99997 00056 18501 00512 ///// ///// 92601 07158 18518
85255 11341 17017 70716 21114 15006 50514 33959 24513
40666 44759 24520 30855 51765 24023 25975 45585 24514
20124 43786 24513 15318 43586 26009 10592 41586 23504
88320 52361 23026
77999
31313 48008 82219=

0000069700
87361=
0000011200
87368
0000009600
87371
0000035800
87378
0000037300
87381
0000039400
87385
0000039400
87407
0000041500
87411
0000014600
87417
0000045700
87421
0000049900
87440
0000052000
87462
0000050000
87472
0000005900
87495
0000058300
87519
0000056300
87548=
0000056400
87866
0000052300
88017
0000062700
88211
0000062700
88460
0000073000
88748=
0000062800
92059
0000065000
93688
0000005100
122
SMBZ05 SBBR 110000
AAXX 11004
NIL
0000071000
123
USAA01 NZCM 110000
TTAA 61001 89664
99997 00056 18501 00512 ///// ///// 92601 07158 18518
85255 11341 17017 70716 21114 15006 50514 33959 24513
40666 44759 24520 30855 51765 24023 25975 45585 24514
20124 43786 24513 15318 43586 26009 10592 41586 23504
88320 52361 23026
77999
31313 48008 82219=

0000069700
87361=
0000011200
87368
0000009600
87371
0000035800
87378
0000037300
87381
0000039400
87385
0000039400
87407=
0000012000
87430=
0000054100
87500
0000056200
87510=
0000050200
87730
0000009800
87843
0000058500
88006
0000060600
88193
0000056500
88472
0000073000
88697
0000071000
89186=
0000069100
93721
0000068900
124
USAA01 NZCM 110000
TTAA 61001 89664
99997 00056 18501 00512 ///// ///// 92601 07158 18518
85255 11341 17017 70716 21114 15006 50514 33959 24513
40666 44759 24520 30855 51765 24023 25975 45585 24514
20124 43786 24513 15318 43586 26009 10592 41586 23504
88320 52361 23026
77999
31313 48008 82219=

0000069700
87361=
0000011200
87368=
0000015000
87382
0000012800
87386
0000045600
87406
0000047700
87410=
0000049900
87467
0000047900
87475
0000047900
87491=
0000056300
87705
0000058400
87804
0000056400
87994
0000058500
88172
0000062700
88422
0000066800
88653
0000066900
89185=
0000064900
93700
0000167800
125
SMBZ06 SBBR 110000
AAXX 11004
82022 32970 00609 10278 20177 30002 40098 333 10318 58000=
82193 21470 60204 10235 20220 30090 40110 70162 82130 333 10287
 59013 60031=
82281 32470 40405 10266 20212 30052 40114 84200 333 10309 59003=
82332 21350 71003 10228 20220 30024 40118 76362 85530 333 10290
 58019 60141=
82398 32470 30712 10269 20211 30090 40119 83100 333 10302 59005=
82400 NIL=
82579 21470 83608 10262 20231 30027 40105 76196 8451/ 333 10341
 59003 69951=
82917 42570 60000 1//// 2//// 39857 4//// 81131 333 10306 59018=
82965 NIL=
82993 32570 31004 10243 20221 30004 40140 83100 333 10304 58009=
83208 21470 50203 10210 20206 39413 48500 70196 84230 333 10291
 59006 69981=
83349 21570 62503 10237 20223 30147 40153 70262 83230 333 10287
 58015 69911=
83362 22570 60000 10239 20195 39887 40103 84000 333 10320 59007
 69921=
83378 31570 51203 10201 20152 38956 48520 71311 84330 333 10286
 59001=
83460 32470 40604 10249 20223 30095 40154 84800 333 10274 58008=
83497 NIL=
83566 32670 50808 10239 20177 39219 48540 82130 333 10287 59008=
83599 NIL=
83612 32670 23602 10250 20188 39466 48510 53011 81230 333 10323=
83649 32570 23202 10258 20229 30154 40159 52020 82200 333 10317=
83650 NIL=
83780 21959 61204 10248 20204 39247 48550 51015 70522 80001
 333 10335 69961=
83827 32970 01602 10257 20227 39823 40094 53015 333 10339=
83840 21259 70707 10196 20163 39132 48540 53028 79592 889//
 333 10312 60051=
83899 31570 40107 10265 20238 30113 40119 51025 71790 84900
 333 10326=
83925 NIL=
83970 NIL=
83971 21458 80109 10224 20209 30120 40124 50005 79196 8542/
 333 10319 60021=
00000000