0000073000
746
USAA01 NZCM 110000
TTAA 61001 89664
99997 00056 18501 00512 ///// ///// 92601 07158 18518
85255 11341 17017 70716 21114 15006 50514 33959 24513
40666 44759 24520 30855 51765 24023 25975 45585 24514
20124 43786 24513 15318 43586 26009 10592 41586 23504
88320 52361 23026
77999
31313 48008 82219=

0000069700
87361=
0000011200
87368
0000009600
87371
0000035800
87378
0000037300
87381
0000039400
87385
0000039400
87407
0000041500
87411
0000014600
87417
0000045700
87421
0000049900
87440
0000052000
87462=
0000050100
87574=
0000050200
87891
0000056400
88057
0000060600
88338
0000062700
88608
0000064800
89125=
0000073200
93548
0000075100
747
USAA01 NZCM 110000
TTAA 61001 89664
99997 00056 18501 00512 ///// ///// 92601 07158 18518
85255 11341 17017 70716 21114 15006 50514 33959 24513
40666 44759 24520 30855 51765 24023 25975 45585 24514
20124 43786 24513 15318 43586 26009 10592 41586 23504
88320 52361 23026
77999
31313 48008 82219=

0000069700
87361=
0000011200
87368
0000009600
87371
0000035800
87378
0000037300
87381
0000039400
87385
0000039400
87407
0000041500
87411
0000014600
87417=
0000041700
87480
0000060300
87494
0000052100
87511
0000058300
87573
0000050100
87608=
0000056400
87908
0000064700
88092
0000066800
88365
0000062700
88637
0000068900
89130=
0000062900
93546
0000081300
748
USAA01 NZCM 110000
TTAA 61001 89664
99997 00056 18501 00512 ///// ///// 92601 07158 18518
85255 11341 17017 70716 21114 15006 50514 33959 24513
40666 44759 24520 30855 51765 24023 25975 45585 24514
20124 43786 24513 15318 43586 26009 10592 41586 23504
88320 52361 23026
77999
31313 48008 82219=

0000069700
87361=
0000011200
87368
0000009600
87371
0000035800
87378
0000037300
87381
0000039400
87385
0000039400
87407
0000041500
87411
0000014600
87417
0000045700
87421
0000049900
87440
0000052000
87462
0000050000
87472
0000005900
87495
0000058300
87519=
0000056400
87727
0000054300
87830
0000060500
88000
0000058500
88181
0000062700
88481
0000068900
88719=
0000060800
91941
0000060800
93556
0000062700
749
USAA01 NZCM 110000
TTAA 61001 89664
99997 00056 18501 00512 ///// ///// 92601 07158 18518
85255 11341 17017 70716 21114 15006 50514 33959 24513
40666 44759 24520 30855 51765 24023 25975 45585 24514
20124 43786 24513 15318 43586 26009 10592 41586 23504
88320 52361 23026
77999
31313 48008 82219=

0000069700
87361=
0000011200
87368=
0000015000
87382
0000012800
87386=
0000045700
87427
0000045800
87444
0000047900
87464=
0000052100
87578
0000056300
87627
0000052200
87675=
0000060600
88258
0000062700
88531
0000066900
89091=
0000060800
93557
0000062700
750
USAA01 NZCM 110000
TTAA 61001 89664
99997 00056 18501 00512 ///// ///// 92601 07158 18518
85255 11341 17017 70716 21114 15006 50514 33959 24513
40666 44759 24520 30855 51765 24023 25975 45585 24514
20124 43786 24513 15318 43586 26009 10592 41586 23504
88320 52361 23026
77999
31313 48008 82219=

0000069700
87361=
0000011200
87368=
0000015000
87382
0000012800
87386=
0000045700
87427
0000045800
87444
0000047900
87464=
0000052100
87578
0000056300
87627=
0000064700
88111=
0000054500
89907
0000066900
90819
0000067000
91965
0000060800
93576
0000075100
751
USAA01 NZCM 110000
TTAA 61001 89664
99997 00056 18501 00512 ///// ///// 92601 07158 18518
85255 11341 17017 70716 21114 15006 50514 33959 24513
40666 44759 24520 30855 51765 24023 25975 45585 24514
20124 43786 24513 15318 43586 26009 10592 41586 23504
88320 52361 23026
77999
31313 48008 82219=

0000069700
87361=
0000011200
87368
0000009600
87371
0000035800
87378
0000037300
87381
0000039400
87385
0000039400
87407
0000041500
87411
0000014600
87417=
0000041700
87480
0000060300
87494
0000052100
87511
0000058300
87573=
0000050200
87874=
0000052400
88886
0000054500
89319
0000069000
89834
0000060700
90772
0000058700
91955
0000062900
93569
0000062700
752
USAA01 NZCM 110000
TTAA 61001 89664
99997 00056 18501 00512 ///// ///// 92601 07158 18518
85255 11341 17017 70716 21114 15006 50514 33959 24513
40666 44759 24520 30855 51765 24023 25975 45585 24514
20124 43786 24513 15318 43586 26009 10592 41586 23504
88320 52361 23026
77999
31313 48008 82219=

0000069700
87361=
0000011200
87368=
0000015000
87382=
0000030600
87414=
0000011000
87481=
0000054200
87583
0000058400
87642
0000062600
87763
0000054300
87949
0000054400
88125
0000060600
88403
0000056500
88631
0000071000
89084=
0000067000
93529
0000075100
753
USAA01 NZCM 110000
TTAA 61001 89664
99997 00056 18501 00512 ///// ///// 92601 07158 18518
85255 11341 17017 70716 21114 15006 50514 33959 24513
40666 44759 24520 30855 51765 24023 25975 45585 24514
20124 43786 24513 15318 43586 26009 10592 41586 23504
88320 52361 23026
77999
31313 48008 82219=

0000069700
87361=
0000011200
87368=
0000015000
87382
0000012800
87386
0000045600
87406
0000047700
87410=
0000049900
87467
0000047900
87475
0000047900
87491
0000056200
87512
0000054200
87550
0000058400
87597
0000062500
87670
0000054300
87796
0000062600
87990
0000058500
88183
0000064700
88425
0000062700
88700
0000068900
89132=
0000077300
93572
0000015900
754
WOUK50 EGRR 111108
GALE WARNING SATURDAY 11 JANUARY 1107GMT 92

SOUTHEAST ICELAND
GALE FORCE 8 BACKING EASTERLY SEVERE GALE FORCE 9 LATER
0000020400
755
WOUK57 EGRR 111108
WOUK57 EGRR 111107
OB46
PORTPATRICKRADIO
GALE WARNING SATURDAY 11 JANUARY 1107 UTC

SOUTHEAST ICELAND
GALE FORCE 8 BACKING EASTERLY SEVERE GALE FORCE 9 LATER
0000166700
756
SAFC21 OEJD 111100
METAR
OEAB 111100Z 21008KT 9999 SCT010 15/15 Q1023 NOSIG=
OEAH 111100Z 16011KT 9999 SCT030 BKN100 16/13 Q1017 RERA  NOSIG=
OEAO 111100Z 33006KT CAVOK 16/M01 Q1022=
OEBA 111100Z 06004KT 9999 FEW030 15/14 Q1020 NOSIG=
OEBH 111100Z 22005KT 9999 FEW030 20/11 Q1018 NOSIG=
OEDF 111100Z 19018KT 9999 SCT040 18/11 Q1017 NOSIG=
OEDM 111100Z 03007KT CAVOK 16/02 Q1018=
OEDR 111100Z 20014KT 9999 FEW030 SCT080 17/14 Q1016 NOSIG=
OEGN 111100Z 23013KT 9999 SCT030 SCT100 29/22 Q1015 NOSIG=
OEGS 111100Z 31010KT 9999 SCT040 16/08 Q1019=
OEGT 111100Z 29006KT CAVOK 13/00 Q1021 NOSIG=
OEHL 111100Z 33014KT 9999 SCT045 11/03 Q1020 NOSIG=
OEJN 111100Z 29016KT CAVOK 26/09 Q1016 NOSIG=
OEKJ 111100Z 19006KT 9999 FEW040 BKN070 15/10 Q1019=
OEKK 111100Z 32017KT CAVOK 15/11 Q1018 NOSIG=
OEKM 111100Z 24008KT 9999 BKN020 15/12 Q1022 NOSIG=
OEMA 111100Z 26004KT CAVOK 18/02 Q1021 NOSIG=
OEMK 111100Z 33003KT CAVOK 27/11 Q1015=
OENG 111100Z 08006KT 9999 SCT030 BKN090 26/05 Q1016 NOSIG=
OEPA 111100Z 28012KT 9999 FEW035 13/08 Q1017 NOSIG=
OERF 111100Z 27017KT 9999 BKN040 10/04 Q1017=
OERK 111100Z 34011KT 9999 SCT040 17/11 Q1018 NOSIG=
OERR 111100Z 32015KT 9999 BKN030 09/09 Q1019 NOSIG=
OERY NIL=
OESH 111100Z 24005KT 9999 FEW040 27/09 Q1014 NOSIG=
OESK 111100Z 31018KT 9999 BKN030 11/00 Q1020=
OETB 111100Z 33009KT 9999 FEW040 15/02 Q1021 NOSIG=
OETF 111100Z VRB03KT 9999 FEW030 15/05 Q1020 NOSIG=
OETR 111100Z 33016KT 9999 SCT030 BKN100 07/04 Q1021=
OEWD 111100Z 11006KT CAVOK 24/11 Q1015 NOSIG=
OEWJ 111100Z 30016KT CAVOK 23/08 Q1020 NOSIG=
OEYN 111100Z 00000KT CAVOK 24/04 Q1017 NOSIG=
0000185900
757
SASD20 OEJD 111100
METAR OEAB 111100Z 21008KT 9999 SCT010 15/15 Q1023 NOSIG=
METAR OEAH 111100Z 16011KT 9999 SCT030 BKN100 16/13 Q1017 RERA  NOSIG=
METAR OEAO 111100Z 33006KT CAVOK 16/M01 Q1022=
METAR OEBA 111100Z 06004KT 9999 FEW030 15/14 Q1020 NOSIG=
METAR OEBH 111100Z 22005KT 9999 FEW030 20/11 Q1018 NOSIG=
METAR OEDF 111100Z 19018KT 9999 SCT040 18/11 Q1017 NOSIG=
METAR OEDM 111100Z 03007KT CAVOK 16/02 Q1018=
METAR OEDR 111100Z 20014KT 9999 FEW030 SCT080 17/14 Q1016 NOSIG=
METAR OEGN 111100Z 23013KT 9999 SCT030 SCT100 29/22 Q1015 NOSIG=
METAR OEGS 111100Z 31010KT 9999 SCT040 16/08 Q1019=
METAR OEGT 111100Z 29006KT CAVOK 13/00 Q1021 NOSIG=
METAR OEHL 111100Z 33014KT 9999 SCT045 11/03 Q1020 NOSIG=
METAR OEJN 111100Z 29016KT CAVOK 26/09 Q1016 NOSIG=
METAR OEKJ 111100Z 19006KT 9999 FEW040 BKN070 15/10 Q1019=
METAR OEKK 111100Z 32017KT CAVOK 15/11 Q1018 NOSIG=
METAR OEKM 111100Z 24008KT 9999 BKN020 15/12 Q1022 NOSIG=
METAR OEMA 111100Z 26004KT CAVOK 18/02 Q1021 NOSIG=
METAR OEMK 111100Z 33003KT CAVOK 27/11 Q1015=
METAR OENG 111100Z 08006KT 9999 SCT030 BKN090 26/05 Q1016 NOSIG=
METAR OEPA 111100Z 28012KT 9999 FEW035 13/08 Q1017 NOSIG=
METAR OERF 111100Z 27017KT 9999 BKN040 10/04 Q1017=
METAR OERK 111100Z 34011KT 9999 SCT040 17/11 Q1018 NOSIG=
METAR OERR 111100Z 32015KT 9999 BKN030 09/09 Q1019 NOSIG=
METAR OERY 111100Z NIL=
METAR OESH 111100Z 24005KT 9999 FEW040 27/09 Q1014 NOSIG=
METAR OESK 111100Z 31018KT 9999 BKN030 11/00 Q1020=
METAR OETB 111100Z 33009KT 9999 FEW040 15/02 Q1021 NOSIG=
METAR OETF 111100Z VRB03KT 9999 FEW030 15/05 Q1020 NOSIG=
METAR OETR 111100Z 33016KT 9999 SCT030 BKN100 07/04 Q1021=
METAR OEWD 111100Z 11006KT CAVOK 24/11 Q1015 NOSIG=
METAR OEWJ 111100Z 30016KT CAVOK 23/08 Q1020 NOSIG=
METAR OEYN 111100Z 00000KT CAVOK 24/04 Q1017 NOSIG=
0000009200
758
SASD32 OEJD 111100
METAR OETF 111100Z VRB03KT 9999 FEW030 15/05 Q1020 NOSIG=
0000068900
759
UDEU02 EGRR 111110 RRA
AMDAR 1110
UNS EU0354   5134N 00017W 111050 F063 MS052 286/026 TB/ S031=
UNS EU0354   5133N 00016W 111051 F060 MS047 288/027 TB/ S031=
UNS EU0354   5133N 00014W 111051 F057 MS040 288/025 TB/ S031=
UNS EU0354   5132N 00012W 111051 F054 MS032 286/026 TB/ S031=
DES EU0354   5132N 00009W 111052 F050 MS032 298/025 TB/ S031=
DES EU0354   5131N 00006W 111052 F047 MS025 300/022 TB/ S031=
UNS EU0354   5130N 00003W 111053 F044 MS017 301/023 TB/ S031=
UNS EU0354   5129N 00000E 111053 F041 MS012 305/030 TB/ S031=
DES EU0354   5126N 00007W 111055 F038 MS002 309/028 TB/ S031=
DES EU0354   5126N 00009W 111056 F035 PS002 310/028 TB/ S031=
0000024100
760
SOAT10 KWAL 111108
FA8005BC 011110837 OT12 ID:KN-BASS-01 DT:2014 01 11 11 06
:RD -3081 -3107 -3093 -3087 -3079 -3084 -3076 -3112 -3073 -3089
:PR 0611 0592 0569 0543 0530 0591 0585 0574 0588 0586
:B 13.7V
 46+1NN 219E
0000106100
761
SAUK39 EGRR 111050 RRB
METAR EGDY 111050Z AUTO 27004KT 9999 FEW015/// 07/05 Q1020=
METAR EGOM 111050Z AUTO 26018KT 9999 SCT002/// 01/01 Q1013=
METAR EGOP 111050Z AUTO 28005KT 9999 // NCD 06/03 Q1020=
METAR EGOS 111050Z AUTO 28008KT 9999 BKN029/// 06/02 Q1018=
METAR EGOV 111050Z AUTO 30009KT 9999 NCD 06/03 Q1019=
METAR EGQK 111050Z AUTO 24011KT 9999 FEW050/// BKN100/// 03/00 Q1010 RERA=
METAR EGUW 111050Z AUTO 30013KT 9999 NCD 06/02 Q1017=
METAR EGUY 111050Z 28009KT CAVOK 06/04 Q1018 BLU=
METAR EGVP 111050Z AUTO 28008KT 9999 // NCD 06/03 Q1020=
METAR EGWC 111050Z 28008KT 9999 FEW020 06/03 Q1018 BLU=
METAR EGXD 111050Z AUTO 28004KT 9999 // NCD 05/01 Q1016=
METAR EGXE 111050Z AUTO 28003KT 9999 FEW028/// 05/01 Q1015=
METAR EGXP 111050Z AUTO 27014KT 9999 // FEW060/// 05/03 Q1016=
METAR EGXS 111050Z AUTO 25011KT 9999 // NCD 06/03 Q1015=
METAR EGXU 111050Z AUTO 27006KT 9999 // NCD 05/01 Q1015=
METAR EGXZ 111050Z AUTO 22004KT 9999 FEW140/// 06/01 Q1015=
METAR EGYM 111050Z AUTO 28011KT 9999 NCD 06/03 Q1017=
0000217100
762
SZNZ01 NZKL 111109
CREX++
T000103 A001 D01021 D06025++
-3683144 17478654 AUCT  2014 01 11 11 01 //// 11 07 00 01
04182 3230 04184 3228 04189 3228 04195 3228 04200 3229 04203 3226+
-4402404 -17636748 CHIT  2014 01 11 11 01 //// 11 07 00 01
04940 1990 04944 1989 04963 2005 04948 1986 04967 2001 04985 2015+
-4089929 17623168 CPIT  2014 01 11 11 01 //// 11 07 00 01
03900 2318 03901 2313 03914 2321 03923 2324 03917 2313 03912 2302+
-3618905 17548887 GBIT  2014 01 11 11 01 //// 11 07 00 01
05198 -0001 05195 -0008 05193 -0014 05201 -0010 05207 -0008 05209 -0009+
-3867541 17802288 GIST  2014 01 11 11 01 //// 11 07 00 01
03759 2737 03763 2735 03762 2730 03780 2743 03804 2762 03825 2778+
-4241288 17370277 KAIT  2014 01 11 11 01 //// 11 07 00 01
03495 2260 03497 2256 03512 2266 03520 2269 03524 2267 03521 2259+
-3755040 17815904 LOTT  2014 01 11 11 01 //// 11 07 00 01
03021 0206 03037 0218 03023 0199 03044 0216 03045 0212 03024 0188+
-3704657 17451175 MNKT  2014 01 11 11 01 //// 11 07 00 01
02087 -0148 02068 -0161 02059 -0164 02063 -0155 02054 -0159 02048 -0159+
-3947566 17692007 NAPT  2014 01 11 11 01 //// 11 07 00 01
02916 2058 02924 2061 02926 2058 02940 2066 02939 2060 02948 2063+
-3441483 17304870 NCPT  2014 01 11 11 01 //// 11 07 00 01
-04291 -7904 -04376 -7991 -04379 -7995 -04437 -8055 -04473 -8093 -04469 -8091+
-4581435 17062939 OTAT  2014 01 11 11 01 //// 11 07 00 01
05068 3420 05075 3422 05080 3422 05088 3426 05094 3426 05100 3428+
-2928002 -17789440 RBCT  2014 01 11 11 01 //// 11 07 00 01
05580 1990 05568 1976 05582 1986 05597 1999 05607 2006 05590 1987+
-2925114 -17790384 RFRT  2014 01 11 11 01 //// 11 07 00 01
02493 0171 02518 0194 02505 0178 02522 0193 02508 0175 02532 0197+
-4357010 17277383 SUMT  2014 01 11 11 01 //// 11 07 00 01
02280 1895 02291 1899 02304 1905 02307 1902 02317 1905 02325 1906+
-3764109 17618118 TAUT  2014 01 11 11 01 //// 11 07 00 01
04517 4034 04521 4034 04526 4037 04540 4046 04537 4040 04543 4042+
-4128448 17477985 WLGT  2014 01 11 11 01 //// 11 07 00 01
03287 2055 03293 2056 03299 2058 03300 2055 03299 2050 03309 2055++
7777
0000012600
763
SITH21 VTBB 110300 RRB
AAXX 11034
48477 31957 40000 10312 20195 30133 40157 50015 70511 81045
  333 58006=
0000311600
764
UDFR01 LFPW 111108
AMDAR 1110
DES EU2890 3414N 00644W 111051 F231 MS347 /// 005/020 TB1 S031
333 F231 VG019=
DES EU2890 3413N 00646W 111051 F224 MS330 /// 358/013 TB1 S031
333 F224 VG013=
DES EU2890 3411N 00647W 111051 F219 MS320 /// 335/009 TB0 S031
333 F219 VG002=
DES EU2890 3410N 00649W 111052 F215 MS310 /// 328/006 TB1 S031
333 F215 VG016=
DES EU2890 3409N 00651W 111052 F211 MS300 /// 353/013 TB1 S031
333 F211 VG010=
DES EU2890 3407N 00653W 111052 F209 MS290 /// 326/014 TB0 S031
333 F209 VG004=
DES EU2890 3406N 00655W 111053 F209 MS290 /// 314/018 TB0 S031
333 F209 VG002=
DES EU2890 3405N 00656W 111053 F210 MS292 /// 325/018 TB0 S031
333 F210 VG001=
UNS EU2890 3404N 00658W 111053 F209 MS295 /// 322/020 TB0 S031
333 F209 VG003=
DES EU2890 3403N 00700W 111054 F210 MS295 /// 316/018 TB0 S031
333 F210 VG001=
DES EU2890 3402N 00702W 111054 F209 MS295 /// 311/018 TB0 S031
333 F209 VG001=
DES EU2890 3401N 00704W 111054 F210 MS295 /// 307/019 TB0 S031
333 F210 VG001=
DES EU2890 3401N 00706W 111055 F210 MS292 /// 309/020 TB0 S031
333 F210 VG002=
DES EU2890 3400N 00708W 111055 F209 MS287 /// 319/018 TB2 S031
333 F209 VG023=
DES EU2890 3359N 00710W 111055 F204 MS277 /// 320/017 TB1 S031
333 F204 VG019=
DES EU2890 3358N 00712W 111056 F192 MS250 /// 315/017 TB0 S031
333 F192 VG001=
DES EU2890 3357N 00714W 111056 F178 MS220 /// 331/016 TB1 S031
333 F178 VG008=
UNS EU2890 3356N 00716W 111056 F164 MS187 /// 333/013 TB1 S031
333 F164 VG012=
DES EU2890 3355N 00719W 111057 F147 MS152 /// 342/014 TB1 S031
333 F147 VG013=
DES EU2890 3353N 00720W 111057 F133 MS112 /// 337/017 TB1 S031
333 F133 VG005=
UNS EU2890 3351N 00722W 111057 F124 MS105 /// 352/018 TB1 S031
333 F124 VG012=
DES EU2890 3350N 00723W 111058 F120 MS100 /// 006/014 TB1 S031
333 F120 VG009=
DES EU2890 3349N 00725W 111058 F117 MS095 /// 011/012 TB0 S031
333 F117 VG005=
DES EU2890 3347N 00727W 111058 F113 MS087 /// 020/011 TB1 S031
333 F113 VG020=
DES EU2890 3346N 00729W 111059 F105 MS072 /// 012/006 TB0 S031
333 F105 VG000=
DES EU2890 3346N 00730W 111059 F097 MS052 /// 003/002 TB0 S031
333 F097 VG000=
UNS EU2890 3344N 00732W 111059 F089 MS032 /// 294/007 TB0 S031
333 F089 VG001=
UNS EU2890 3343N 00733W 111100 F081 MS017 /// 261/004 TB1 S031
333 F081 VG009=
DES EU2890 3343N 00735W 111100 F072 PS000 /// 218/007 TB0 S031
333 F072 VG000=
DES EU2890 3343N 00737W 111100 F064 PS022 /// 220/007 TB2 S031
333 F064 VG033=
UNS EU2890 3341N 00740W 111101 F057 PS040 /// 198/012 TB0 S031
333 F057 VG000=
DES EU2890 3340N 00740W 111101 F055 PS047 /// 201/011 TB0 S031
333 F055 VG001=
UNS EU2890 3337N 00741W 111102 F051 PS055 /// 200/010 TB0 S031
333 F051 VG004=
DES EU2890 3337N 00740W 111102 F050 PS055 /// 217/011 TB0 S031
333 F050 VG000=
DES EU2890 3334N 00740W 111103 F046 PS062 /// 216/009 TB0 S031
333 F046 VG003=
DES EU2890 3334N 00740W 111103 F042 PS072 /// 215/008 TB0 S031
333 F042 VG003=
DES EU2890 3332N 00739W 111104 F039 PS080 /// 216/007 TB0 S031
333 F039 VG002=
0000272100
765
SNVZ11 SBBR 111100 RRA
BBXX
SHIP 11111 99/// 1//// 36/// /1503 10238 20181 39527 40147 52///
  333 10244 20227 553// 01417 91106=
SHIP 11111 99/// 1//// 36/// /0501 10235 20172 39313 40155
  333 10236 20209 553// 01148 91103=
SHIP 11111 99/// 1//// 36/// /1102 10264 20222 39642 40138 52///
  333 10265 20238 553// 01312 91104=
SHIP 11111 99/// 1//// 36/// /0803 10247 20183 39350 40157
  333 10247 20224 553// 01542 91105=
SHIP 11111 99/// 1//// 16/// /0705 10183 20168 38694 49775 6992/
  333 10183 20171 553// 00421 91108=
SHIP 11111 99/// 1//// 36/// /0402 10248 20182 39341 40156
  333 10248 20225 553// 00958 91105=
SHIP 11111 99/// 1//// 36/// /2600 10236 20217 39730 40167
  333 10236 20205 553// 00796 91102=
SHIP 11111 99/// 1//// 36/// /3505 10254 20188 39622 40138
  333 10254 20231 553// 01193 91107=
SHIP 11111 99/// 1//// 36/// /1504 10252 20181 39668 40142 52///
  333 10259 20235 553// 01662 91106=
SHIP 11111 99/// 1//// 36/// /2300 10250 20225 39990 40135 52///
  333 10252 20229 553// 00813 91102=
SHIP 11111 99/// 1//// 36/// /3000 10237 20228 39962 40133 52///
  333 10237 20225 553// 00460 91100=
SHIP 11111 99/// 1//// 36/// /0900 10237 20207 30112 40113
  333 10252 20235 553// 00964 91101=
SHIP 11111 99/// 1//// 36/// /1105 10251 20192 39736 40148
  333 10260 20234 553// 01646 91108=
SHIP 11111 99/// 1//// 36/// /1103 10240 20188 39541 40157
  333 10240 20210 553// 01340 91104=
SHIP 11111 99/// 1//// 36/// /0802 10241 20191 39630 40164 52///
  333 10243 20228 553// 01077 91106=
SHIP 11111 99/// 1//// 36/// /0701 10271 20178 39545 40153 52///
  333 10271 20238 553// 01144 91103=
SHIP 11111 99/// 1//// 36/// /2407 10243 20206 30065 40125 52///
  333 10243 20234 553// 01049 91110=
SHIP 11111 99/// 1//// 36/// /0405 10245 20186 39233 40133
  333 10246 20231 553// 01159 91108=
SHIP 11111 99/// 1//// 36/// /1700 10246 20209 39920 40125
  333 10246 20231 553// 00568 91102=
SHIP 11111 99/// 1//// 16/// /1701 10213 20198 39723 40193 6001/
  333 10232 20209 553// 00378 91107=
SHIP 11111 99/// 1//// 36/// /0802 10263 20223 30117 40142
  333 10265 20240 553// 00767 91103=
SHIP 11111 99/// 1//// 36/// /1201 10252 20190 39462 40135 52///
  333 10252 20216 553// 01216 91103=
SHIP 11111 99/// 1//// 36/// /1101 10233 20209 39903 40145 52///
  333 10234 20226 553// 00266 91103=
SHIP 11111 99/// 1//// 36/// /2601 10196 20181 39255 40170
  333 10196 20182 553// 00751 91103=
SHIP 11111 99/// 1//// 36/// /2202 10236 20217 30128 40149 52///
  333 10236 20232 553// 00428 91105=
SHIP 11111 99/// 1//// 36/// /0701 10227 20189 30031 40125
  333 10227 20205 553// 01032 91102=
00000000