0000062700
546
USAA01 NZCM 110000
TTAA 61001 89664
99997 00056 18501 00512 ///// ///// 92601 07158 18518
85255 11341 17017 70716 21114 15006 50514 33959 24513
40666 44759 24520 30855 51765 24023 25975 45585 24514
20124 43786 24513 15318 43586 26009 10592 41586 23504
88320 52361 23026
77999
31313 48008 82219=

0000069700
87361=
0000011200
87368
0000009600
87371
0000035800
87378
0000037300
87381=
0000039500
87413
0000041600
87422=
0000043800
87504=
0000052200
87720=
0000066800
88282
0000060600
88545=
0000067000
91429
0000060800
92809
0000058700
94630
0000056500
547
USAA01 NZCM 110000
TTAA 61001 89664
99997 00056 18501 00512 ///// ///// 92601 07158 18518
85255 11341 17017 70716 21114 15006 50514 33959 24513
40666 44759 24520 30855 51765 24023 25975 45585 24514
20124 43786 24513 15318 43586 26009 10592 41586 23504
88320 52361 23026
77999
31313 48008 82219=

0000069700
87361=
0000011200
87368=
0000015000
87382=
0000030600
87414
0000014800
87423=
0000050000
87499=
0000062500
87711
0000054300
87791=
0000066800
88847
0000062800
89342=
0000069100
94638
0000068900
548
USAA01 NZCM 110000
TTAA 61001 89664
99997 00056 18501 00512 ///// ///// 92601 07158 18518
85255 11341 17017 70716 21114 15006 50514 33959 24513
40666 44759 24520 30855 51765 24023 25975 45585 24514
20124 43786 24513 15318 43586 26009 10592 41586 23504
88320 52361 23026
77999
31313 48008 82219=

0000069700
87361=
0000011200
87368
0000009600
87371
0000035800
87378
0000037300
87381
0000039400
87385=
0000043700
87428
0000047800
87442
0000056100
87461
0000047900
87477
0000056200
87486
0000052100
87514=
0000064600
87726
0000054300
87838=
0000064800
88909
0000062700
89380=
0000065000
94662
0000068900
549
USAA01 NZCM 110000
TTAA 61001 89664
99997 00056 18501 00512 ///// ///// 92601 07158 18518
85255 11341 17017 70716 21114 15006 50514 33959 24513
40666 44759 24520 30855 51765 24023 25975 45585 24514
20124 43786 24513 15318 43586 26009 10592 41586 23504
88320 52361 23026
77999
31313 48008 82219=

0000069700
87361=
0000011200
87368
0000009600
87371
0000035800
87378
0000037300
87381
0000039400
87385
0000039400
87407=
0000012000
87430
0000054000
87439=
0000056200
87534
0000060400
87553
0000056300
87602
0000052200
87653
0000054300
87782
0000056400
87982=
0000058600
89395=
0000064900
94684
0000066800
550
USAA01 NZCM 110000
TTAA 61001 89664
99997 00056 18501 00512 ///// ///// 92601 07158 18518
85255 11341 17017 70716 21114 15006 50514 33959 24513
40666 44759 24520 30855 51765 24023 25975 45585 24514
20124 43786 24513 15318 43586 26009 10592 41586 23504
88320 52361 23026
77999
31313 48008 82219=

0000069700
87361=
0000011200
87368
0000009600
87371
0000035800
87378
0000037300
87381
0000039400
87385
0000039400
87407
0000041500
87411
0000014600
87417=
0000041700
87480
0000060300
87494=
0000052200
87704
0000054300
87832=
0000062700
88878
0000058600
89383=
0000067100
94658
0000066900
551
USAA01 NZCM 110000
TTAA 61001 89664
99997 00056 18501 00512 ///// ///// 92601 07158 18518
85255 11341 17017 70716 21114 15006 50514 33959 24513
40666 44759 24520 30855 51765 24023 25975 45585 24514
20124 43786 24513 15318 43586 26009 10592 41586 23504
88320 52361 23026
77999
31313 48008 82219=

0000069700
87361=
0000011200
87368=
0000015000
87382
0000012800
87386
0000045600
87406=
0000047800
87429=
0000005900
87506
0000058300
87508
0000054200
87566
0000056300
87622
0000052200
87672=
0000054400
88267
0000066800
88533=
0000060800
91469
0000075300
92817
0000067000
94663
0000064800
552
USAA01 NZCM 110000
TTAA 61001 89664
99997 00056 18501 00512 ///// ///// 92601 07158 18518
85255 11341 17017 70716 21114 15006 50514 33959 24513
40666 44759 24520 30855 51765 24023 25975 45585 24514
20124 43786 24513 15318 43586 26009 10592 41586 23504
88320 52361 23026
77999
31313 48008 82219=

0000069700
87361=
0000011200
87368
0000009600
87371
0000035800
87378
0000037300
87381
0000039400
87385
0000039400
87407=
0000012000
87430=
0000054100
87500
0000056200
87510=
0000050200
87730
0000009800
87843=
0000058600
88893
0000060700
89374=
0000075300
94646
0000062700
553
USAA01 NZCM 110000
TTAA 61001 89664
99997 00056 18501 00512 ///// ///// 92601 07158 18518
85255 11341 17017 70716 21114 15006 50514 33959 24513
40666 44759 24520 30855 51765 24023 25975 45585 24514
20124 43786 24513 15318 43586 26009 10592 41586 23504
88320 52361 23026
77999
31313 48008 82219=

0000069700
87361=
0000011200
87368=
0000015000
87382=
0000030600
87414
0000014800
87423
0000049900
87438=
0000050000
87532
0000048000
87568
0000056300
87609
0000068700
87654
0000058400
87789
0000060500
87988=
0000060700
89405=
0000062900
94693
0000077200
554
USAA01 NZCM 110000
TTAA 61001 89664
99997 00056 18501 00512 ///// ///// 92601 07158 18518
85255 11341 17017 70716 21114 15006 50514 33959 24513
40666 44759 24520 30855 51765 24023 25975 45585 24514
20124 43786 24513 15318 43586 26009 10592 41586 23504
88320 52361 23026
77999
31313 48008 82219=

0000069700
87361=
0000011200
87368
0000009600
87371
0000035800
87378
0000037300
87381
0000039400
87385
0000039400
87407=
0000012000
87430=
0000054100
87500
0000056200
87510
0000050100
87551
0000056300
87601
0000050100
87643=
0000054400
88257
0000056500
88527
0000060700
89058
0000071000
89637
0000062800
90331
0000064900
91382
0000073200
92788
0000062900
94645
0000062700
555
USAA01 NZCM 110000
TTAA 61001 89664
99997 00056 18501 00512 ///// ///// 92601 07158 18518
85255 11341 17017 70716 21114 15006 50514 33959 24513
40666 44759 24520 30855 51765 24023 25975 45585 24514
20124 43786 24513 15318 43586 26009 10592 41586 23504
88320 52361 23026
77999
31313 48008 82219=

0000069700
87361=
0000011200
87368=
0000015000
87382=
0000030600
87414
0000014800
87423
0000049900
87438
0000052000
87459
0000058200
87471
0000050000
87489=
0000052200
87715
0000066700
87819=
0000056500
88889
0000056500
89361=
0000064900
94648
0000064800
556
USAA01 NZCM 110000
TTAA 61001 89664
99997 00056 18501 00512 ///// ///// 92601 07158 18518
85255 11341 17017 70716 21114 15006 50514 33959 24513
40666 44759 24520 30855 51765 24023 25975 45585 24514
20124 43786 24513 15318 43586 26009 10592 41586 23504
88320 52361 23026
77999
31313 48008 82219=

0000069700
87361=
0000011200
87368
0000009600
87371
0000035800
87378
0000037300
87381
0000039400
87385
0000039400
87407=
0000012000
87430=
0000054100
87500
0000056200
87510
0000050100
87551=
0000056400
87867=
0000058600
88902
0000062800
89356=
0000069100
94642
0000071000
557
USAA01 NZCM 110000
TTAA 61001 89664
99997 00056 18501 00512 ///// ///// 92601 07158 18518
85255 11341 17017 70716 21114 15006 50514 33959 24513
40666 44759 24520 30855 51765 24023 25975 45585 24514
20124 43786 24513 15318 43586 26009 10592 41586 23504
88320 52361 23026
77999
31313 48008 82219=

0000069700
87361=
0000011200
87368=
0000015000
87382=
0000030600
87414=
0000011000
87481
0000054100
87485
0000050000
87516
0000054200
87558=
0000060500
87873
0000058500
88038
0000070900
88321
0000062700
88590
0000062800
89080
0000064800
89652
0000060700
90338
0000069000
91396
0000058700
92796
0000067000
94655
0000064800
558
USAA01 NZCM 110000
TTAA 61001 89664
99997 00056 18501 00512 ///// ///// 92601 07158 18518
85255 11341 17017 70716 21114 15006 50514 33959 24513
40666 44759 24520 30855 51765 24023 25975 45585 24514
20124 43786 24513 15318 43586 26009 10592 41586 23504
88320 52361 23026
77999
31313 48008 82219=

0000069700
87361=
0000011200
87368
0000009600
87371
0000035800
87378
0000037300
87381
0000039400
87385
0000039400
87407=
0000012000
87430
0000054000
87439=
0000056200
87534=
0000060500
87732
0000056400
87842=
0000052400
88900
0000062800
89351=
0000071100
94627
0000066800
559
USAA01 NZCM 110000
TTAA 61001 89664
99997 00056 18501 00512 ///// ///// 92601 07158 18518
85255 11341 17017 70716 21114 15006 50514 33959 24513
40666 44759 24520 30855 51765 24023 25975 45585 24514
20124 43786 24513 15318 43586 26009 10592 41586 23504
88320 52361 23026
77999
31313 48008 82219=

0000069700
87361=
0000011200
87368
0000009600
87371
0000035800
87378
0000037300
87381=
0000039500
87413
0000041600
87422
0000043700
87443
0000045800
87466
0000054100
87469=
0000050100
87581
0000046000
87641
0000058400
87805=
0000060600
88840
0000060700
89355=
0000069100
94649
0000049800
560
SZOC40 AMMC 110027
DART 55012S 011002709


D$1I 01/10/2014 18:15:00 1534143 3272272 3272292 3272314 3272331  1* 3F
D$1I 01/10/2014 19:15:00 1534143 3272347 3272360 3272370 3272379  1* 3B
D$1I 01/10/2014 20:15:00 1534143 3272383 3272385 3272386 3272383  2* 3D
D$1I 01/10/2014 21:15:00 1534143 3272383 3272377 3272373 3272364  1* 31
D$1I 01/10/2014 22:15:00 1534143 3272355 3272344 3272337 3272328  1* 31
D$1I 01/10/2014 23:15:00 1534143 3272317 3272305 3272294 3272281  2* 3A
0000049800
561
SZIO40 AMMC 110027
DART 56001S 011002711


D$1I 01/10/2014 18:15:00 1394142 5642666 5642685 5642705 5642725  1* 34
D$1I 01/10/2014 19:15:00 1394142 5642745 5642762 5642777 5642793  1* 35
D$1I 01/10/2014 20:15:00 1394142 5642804 5642814 5642821 5642827  1* 37
D$1I 01/10/2014 21:15:00 1394142 5642830 5642830 5642825 5642821  1* 35
D$1I 01/10/2014 22:15:00 1394142 5642812 5642801 5642792 5642776  1* 3A
D$1I 01/10/2014 23:15:00 1394142 5642764 5642750 5642734 5642719  1* 3B
0000069000
562
USAA01 NZCM 110000
TTAA 61001 89664
99997 00056 18501 00512 ///// ///// 92601 07158 18518
85255 11341 17017 70716 21114 15006 50514 33959 24513
40666 44759 24520 30855 51765 24023 25975 45585 24514
20124 43786 24513 15318 43586 26009 10592 41586 23504
88320 52361 23026
77999
31313 48008 82219=

0000069700
87361=
0000011200
87368=
0000015000
87382
0000012800
87386
0000045600
87406=
0000047800
87429
0000015700
87445
0000049900
87465
0000054100
87473
0000050000
87488
0000052100
87521=
0000054300
87728=
0000066800
88288
0000058600
88550=
0000073200
91446
0000064900
92805
0000071200
94659
0000064800
563
USAA01 NZCM 110000
TTAA 61001 89664
99997 00056 18501 00512 ///// ///// 92601 07158 18518
85255 11341 17017 70716 21114 15006 50514 33959 24513
40666 44759 24520 30855 51765 24023 25975 45585 24514
20124 43786 24513 15318 43586 26009 10592 41586 23504
88320 52361 23026
77999
31313 48008 82219=

0000069700
87361=
0000011200
87368=
0000015000
87382
0000012800
87386
0000045600
87406
0000047700
87410=
0000049900
87467=
0000048000
87577=
0000054300
87885
0000068800
88062
0000058500
88356
0000062700
88606=
0000058700
91462
0000077300
92812
0000058800
94653
0000281300
564
SMRA16 RUHB 110000
AAXX 11001
25703 41999 73603 11238 21263 39939 40229 52006 70187 83031 333 21238
55000=
25745 41699 50509 11174 21214 30053 40107 53002 73732 85500 333 55018
91015 91116=
25913 41699 60507 11165 21270 39928 40083 52004 73631 81531 333 21172
55000 91012 91114=
25956 42598 70406 11130 21191 30013 40019 57004 87500=
30074 NIL=
31088 42599 83602 11152 21165 30082 40089 52013 70272 8357/ 333
55000=
31873 42998 32401 11217 21257 30122 40269 52002 80001 333 21244=
31909 42999 02805 11158 21269 30140 40223 52011 333 21177 55080
91111=
31960 82998 03002 11122 21226 30027 40277 52006 333 21133 55074=
31961 41996 00000 11247 21274 30227 40277 50000 70400 333 21276
55084=
32053 42999 12404 11250 21281 30046 40099 54000 80002 333 91007
91109=
32061 42598 61303 11273 21298 30093 40136 52002 83930 333 21288 55023
91004 91104=
32098 42598 13002 11301 21319 30125 40136 53003 81900 333 21319 55071
91003 91104=
32150 41998 83501 11208 21220 30110 40142 52004 70281 8801/ 333 55076
91002 91103=
32165 41598 82806 11068 21115 30089 40152 52011 78583 85901 333 55018
91011 91113=
32215 41592 83314 11041 21053 39896 49925 52008 78683 889// 333 55040
91023 91126=
32252 41597 80507 11075 21081 39977 49986 52002 60032 78582 889// 333
21125 55000=
32389 41699 72402 11115 21133 39948 49985 52007 70282 82531 333 21132
55000=
32477 41599 83401 11105 21119 39926 49958 52005 70282 885// 333 21113
55035=
32583 41598 80101 11030 21092 39915 49945 52017 70232 8655/ 333
91111=
32618 41598 70309 11036 21046 39895 49917 58004 72682 85931 333 55000
91012 91114=
24856 12997 02303 11433 21456 30217 40401 53012 60002 333 21442 47020
55000=
24871 42998 11901 11464 21492 30166 40383 52005 80001 333 21464=
24928 12999 20000 11487 21524 30019 40484 58001 60002 80001 333 21522
47043 55000=
24933 12999 30000 11495 21518 30004 40392 54000 60002 80002 333 21501
47032 55038=
25017 42999 00101 11384 21396 30257 40281 52003=
25121 42998 20000 11394 21416 30249 40266 53004 82010 333 21394=
30173 12999 20000 11506 21530 30183 40499 52011 60002 80002 333 21508
47022=
30198 12999 00000 11488 21512 39873 40518 52014 60002 333 21488
47038=
31005 11993 20000 11509 21535 30042 40488 52012 69902 74841 80001 333
21510 47027=
31011 12999 00000 11504 21537 30028 40464 52006 60002 333 21508
47020=
31016 11999 50000 11500 21525 30105 40467 52008 69922 70272 80006 333
21501 47028=
31026 11998 82204 11390 21418 30128 40424 52010 69902 73673 83075 333
21411 47036 55015=
31041 41998 82701 11409 21432 30121 40391 52006 77172 85037=
31062 41695 82503 11391 21425 39748 40302 52006 77372 8802/=
31102 11899 80000 11442 21470 38776 48420 52014 69922 70272 81045 333
21448 47039 55000=
0000014800
565
SMRA11 RUNW 110000 RRM
AAXX 11001
29023 11396 81801 11102 21115 30092 40193 52007 69982 78587 889// 333
21130 47059 55000 86709=
00000000