0000075100
386
USAA01 NZCM 110000
TTAA 61001 89664
99997 00056 18501 00512 ///// ///// 92601 07158 18518
85255 11341 17017 70716 21114 15006 50514 33959 24513
40666 44759 24520 30855 51765 24023 25975 45585 24514
20124 43786 24513 15318 43586 26009 10592 41586 23504
88320 52361 23026
77999
31313 48008 82219=

0000069700
87361=
0000011200
87368
0000009600
87371
0000035800
87378
0000037300
87381=
0000039500
87413
0000041600
87422=
0000043800
87504
0000052100
87527=
0000052200
87750
0000060500
87942
0000070900
88146
0000073000
88430
0000062700
88691
0000058600
89040
0000062800
89593
0000062800
90289
0000069000
91320
0000077300
92689
0000069100
94527
0000153700
387
SMAG03 SABM 110000
AAXX 11004
87593 32560 43207 10256 20200 30053 40079 53009 82205 333 10315
20212 56805 57800 82825=
87623 32980 32007 10266 21061 39896 40115 52021 80002 333 10312
20213 56006 83070=
87641 32965 01809 10198 20084 39946 40118 52048 333 10317 20197=
87645 32965 11816 10185 20086 39913 40116 52051 80005 333 10305
20177 56006 81270=
87648 32660 10506 10216 20183 30082 40093 52011 81400 333 10327
20216  56700 81635=
87692 31558 62504 10192 20108 30098 40123 52043 70410 82570 333
10245 20192 56550 82625 84360=
87715 32965 40000 10253 20030 39806 40118 53009 80006 333 10290
20176 56006 84270=
87750 32965 51112 10177 20085 30062 40161 52036 80002 333 10266
20177 56006 85070=
87765 32960 23211 10158 20046 39217 48514 53020 80006 333 10201
20101 56006 82270=
87784 NIL=
87791 32980 61108 10163 20086 30152 40159 52024 80006 333 10225 20162
 56006 86270=
87800 32980 31806 10195 20067 39777 40175 54000 82041 333 10235
20091 56046 57344 82368 83089=
87803 NIL=
87828 32980 31109 10149 20031 30110 40161 52015 81041 333 10216 20149
56066 57361 81361=
87860 32980 40508 10170 20044 30064 40119 52008 81076 333 10202
20141 56075 81360 83270=
87904 NIL=
87909 32980 81817 10133 20009 30068 40143 52025 83076 333 10182 20090
 56066 83360 85270=
87925 11670 82511 10090 20055 30096 40119 51011 69901 76162 8252/
333 10148 20090 56560 82635 86550=
87938 31575 82510 10072 20035 30002 40073 52012 71522 888// 333
10095 20053 56599 88830 95030=
0000072300
388
SMAG04 SABM 110000
AAXX 11004
87078 32970 00903 10315 20209 39897 40042 52019 333 10362 20286=
87244 32570 30000 10265 20229 39690 40070 53019 81363 333
10355 20265 56400 57947 81925=
87393 11560 82012 10247 20232 30037 40099 52027 69931 79592 8592/
333 10353 20234 56609 57900 82620 87540 84945=
87563 32965 40914 10240 20036 30018 40060 52010 84030 333
10325 20215 56080 84360=
87640 32965 00000 10249 20040 39997 40105 52020 333 10320 20247=
87688 32965 01810 10167 20084 30018 40157 5//// 333 10300 20167=
87774 32982 42308 10198 21019 39152 48506 52027 80005 333 10230
20094 56006 84270=
87852 32584 62718 10134 20043 39640 40145 52019 83574 333 10185
20114 56600 83620 83070=
0000028900
389
SMAG04 SABM 110000 RRA
AAXX 11003
87016 32565 70000 10302 20255 39600 49993 53019 83506 333 10370 20243 56404 83625=
87416 32965 02005 10277 20103 39361 40081 52028 333 10325 20230=
87896 32980 81605 10110 20022 30041 40139 52013 8807/ 333 10154 20106
 56049 88460=
0000005500
390
SMAG03 SABM 110000 RRA
AAXX 11003
NIL
0000073000
391
USAA01 NZCM 110000
TTAA 61001 89664
99997 00056 18501 00512 ///// ///// 92601 07158 18518
85255 11341 17017 70716 21114 15006 50514 33959 24513
40666 44759 24520 30855 51765 24023 25975 45585 24514
20124 43786 24513 15318 43586 26009 10592 41586 23504
88320 52361 23026
77999
31313 48008 82219=

0000069700
87361=
0000011200
87368
0000009600
87371
0000035800
87378
0000037300
87381
0000039400
87385
0000039400
87407
0000041500
87411
0000014600
87417
0000045700
87421=
0000050000
87501=
0000056300
87706
0000054300
87818
0000052300
88037
0000054400
88348
0000056500
88602=
0000060800
91332
0000067000
92736
0000071200
94533
0000079300
392
USAA01 NZCM 110000
TTAA 61001 89664
99997 00056 18501 00512 ///// ///// 92601 07158 18518
85255 11341 17017 70716 21114 15006 50514 33959 24513
40666 44759 24520 30855 51765 24023 25975 45585 24514
20124 43786 24513 15318 43586 26009 10592 41586 23504
88320 52361 23026
77999
31313 48008 82219=

0000069700
87361=
0000011200
87368=
0000015000
87382
0000012800
87386
0000045600
87406
0000047700
87410
0000049800
87416
0000051900
87420
0000047800
87441
0000045800
87463
0000047900
87474=
0000054200
87591
0000060500
87658=
0000058500
88222
0000060600
88476
0000058600
88706
0000064800
89033
0000077200
89633
0000071000
90323
0000062800
91284
0000079400
92704
0000064900
94525
0000071000
393
USAA01 NZCM 110000
TTAA 61001 89664
99997 00056 18501 00512 ///// ///// 92601 07158 18518
85255 11341 17017 70716 21114 15006 50514 33959 24513
40666 44759 24520 30855 51765 24023 25975 45585 24514
20124 43786 24513 15318 43586 26009 10592 41586 23504
88320 52361 23026
77999
31313 48008 82219=

0000069700
87361=
0000011200
87368
0000009600
87371
0000035800
87378
0000037300
87381
0000039400
87385=
0000043700
87428=
0000047900
87503
0000056200
87524=
0000048100
87722=
0000058600
88286
0000054500
88555
0000056600
89041
0000064800
89626
0000033500
90328
0000060800
91375
0000060800
92737
0000062900
94530
0000066800
394
USAA01 NZCM 110000
TTAA 61001 89664
99997 00056 18501 00512 ///// ///// 92601 07158 18518
85255 11341 17017 70716 21114 15006 50514 33959 24513
40666 44759 24520 30855 51765 24023 25975 45585 24514
20124 43786 24513 15318 43586 26009 10592 41586 23504
88320 52361 23026
77999
31313 48008 82219=

0000069700
87361=
0000011200
87368
0000009600
87371
0000035800
87378
0000037300
87381
0000039400
87385
0000039400
87407
0000041500
87411
0000014600
87417=
0000041700
87480
0000060300
87494=
0000052200
87704
0000054300
87832=
0000062700
88878=
0000073200
92630
0000073200
94526
0000071000
395
USAA01 NZCM 110000
TTAA 61001 89664
99997 00056 18501 00512 ///// ///// 92601 07158 18518
85255 11341 17017 70716 21114 15006 50514 33959 24513
40666 44759 24520 30855 51765 24023 25975 45585 24514
20124 43786 24513 15318 43586 26009 10592 41586 23504
88320 52361 23026
77999
31313 48008 82219=

0000069700
87361=
0000011200
87368=
0000015000
87382
0000012800
87386
0000045600
87406
0000047700
87410
0000049800
87416
0000051900
87420
0000047800
87441=
0000045900
87536=
0000052200
87739
0000056400
87935
0000064700
88130
0000058500
88429
0000079200
88692=
0000075200
91377
0000062900
92723
0000073200
94528
0000073100
396
USAA01 NZCM 110000
TTAA 61001 89664
99997 00056 18501 00512 ///// ///// 92601 07158 18518
85255 11341 17017 70716 21114 15006 50514 33959 24513
40666 44759 24520 30855 51765 24023 25975 45585 24514
20124 43786 24513 15318 43586 26009 10592 41586 23504
88320 52361 23026
77999
31313 48008 82219=

0000069700
87361=
0000011200
87368
0000009600
87371
0000035800
87378
0000037300
87381
0000039400
87385
0000039400
87407=
0000012000
87430=
0000054100
87500
0000056200
87510
0000050100
87551
0000056300
87601=
0000050200
87911
0000060600
88090
0000060600
88369
0000068900
88634=
0000064900
91367
0000067000
92732
0000069100
94535
0000064800
397
USAA01 NZCM 110000
TTAA 61001 89664
99997 00056 18501 00512 ///// ///// 92601 07158 18518
85255 11341 17017 70716 21114 15006 50514 33959 24513
40666 44759 24520 30855 51765 24023 25975 45585 24514
20124 43786 24513 15318 43586 26009 10592 41586 23504
88320 52361 23026
77999
31313 48008 82219=

0000069700
87361=
0000011200
87368=
0000015000
87382
0000012800
87386=
0000045700
87427=
0000045900
87505
0000050000
87526
0000050100
87565=
0000062600
87871
0000062600
88032
0000060600
88309
0000066800
88572=
0000058700
91328
0000073200
92758
0000067000
94544
0000073100
398
USAA01 NZCM 110000
TTAA 61001 89664
99997 00056 18501 00512 ///// ///// 92601 07158 18518
85255 11341 17017 70716 21114 15006 50514 33959 24513
40666 44759 24520 30855 51765 24023 25975 45585 24514
20124 43786 24513 15318 43586 26009 10592 41586 23504
88320 52361 23026
77999
31313 48008 82219=

0000069700
87361=
0000011200
87368
0000009600
87371
0000035800
87378
0000037300
87381
0000039400
87385
0000039400
87407=
0000012000
87430
0000054000
87439
0000049900
87460=
0000048000
87541=
0000054300
87724
0000058500
87828
0000058500
88035
0000060600
88319
0000060600
88584=
0000064900
91356
0000067000
92727
0000071200
94534
0000075100
399
USAA01 NZCM 110000
TTAA 61001 89664
99997 00056 18501 00512 ///// ///// 92601 07158 18518
85255 11341 17017 70716 21114 15006 50514 33959 24513
40666 44759 24520 30855 51765 24023 25975 45585 24514
20124 43786 24513 15318 43586 26009 10592 41586 23504
88320 52361 23026
77999
31313 48008 82219=

0000069700
87361=
0000011200
87368
0000009600
87371
0000035800
87378
0000037300
87381=
0000039500
87413=
0000052000
87479
0000056200
87492
0000045900
87517
0000054200
87560
0000060400
87620
0000064600
87679
0000048100
87790
0000050200
87984
0000058500
88157
0000060600
88415
0000062700
88650=
0000004000
91340
0000062900
92742
0000069100
94537
0000066900
400
USAA01 NZCM 110000
TTAA 61001 89664
99997 00056 18501 00512 ///// ///// 92601 07158 18518
85255 11341 17017 70716 21114 15006 50514 33959 24513
40666 44759 24520 30855 51765 24023 25975 45585 24514
20124 43786 24513 15318 43586 26009 10592 41586 23504
88320 52361 23026
77999
31313 48008 82219=

0000069700
87361=
0000011200
87368=
0000015000
87382=
0000030600
87414
0000014800
87423
0000049900
87438
0000052000
87459
0000058200
87471
0000050000
87489
0000052100
87522=
0000058400
87725=
0000052400
88284
0000056500
88551=
0000058700
91327
0000073200
92740
0000069100
94557
0000068900
401
USAA01 NZCM 110000
TTAA 61001 89664
99997 00056 18501 00512 ///// ///// 92601 07158 18518
85255 11341 17017 70716 21114 15006 50514 33959 24513
40666 44759 24520 30855 51765 24023 25975 45585 24514
20124 43786 24513 15318 43586 26009 10592 41586 23504
88320 52361 23026
77999
31313 48008 82219=

0000069700
87361=
0000011200
87368
0000009600
87371
0000035800
87378
0000037300
87381
0000039400
87385=
0000043700
87428
0000047800
87442
0000056100
87461
0000047900
87477
0000056200
87486=
0000052200
87707=
0000050300
88274
0000054400
88540=
0000069000
91379
0000064900
92747
0000065000
94545
0000075100
402
USAA01 NZCM 110000
TTAA 61001 89664
99997 00056 18501 00512 ///// ///// 92601 07158 18518
85255 11341 17017 70716 21114 15006 50514 33959 24513
40666 44759 24520 30855 51765 24023 25975 45585 24514
20124 43786 24513 15318 43586 26009 10592 41586 23504
88320 52361 23026
77999
31313 48008 82219=

0000069700
87361=
0000011200
87368
0000009600
87371
0000035800
87378
0000037300
87381
0000039400
87385
0000039400
87407
0000041500
87411
0000014600
87417
0000045700
87421
0000049900
87440
0000052000
87462
0000050000
87472
0000005900
87495=
0000058400
87712=
0000056500
88271
0000058600
88538=
0000064900
91402
0000067000
92768
0000069100
94555
0000005200
403
RRIN23 VIDP 110024
RQRPT 823-844=

0000066900
404
USAA01 NZCM 110000
TTAA 61001 89664
99997 00056 18501 00512 ///// ///// 92601 07158 18518
85255 11341 17017 70716 21114 15006 50514 33959 24513
40666 44759 24520 30855 51765 24023 25975 45585 24514
20124 43786 24513 15318 43586 26009 10592 41586 23504
88320 52361 23026
77999
31313 48008 82219=

0000069700
87361=
0000011200
87368=
0000015000
87382
0000012800
87386
0000045600
87406=
0000047800
87429
0000015700
87445
0000049900
87465
0000054100
87473=
0000050100
87586
0000062500
87637=
0000052300
88281
0000060600
88547=
0000004000
91343
0000060800
92745
0000069100
94546
0000071000
405
USAA01 NZCM 110000
TTAA 61001 89664
99997 00056 18501 00512 ///// ///// 92601 07158 18518
85255 11341 17017 70716 21114 15006 50514 33959 24513
40666 44759 24520 30855 51765 24023 25975 45585 24514
20124 43786 24513 15318 43586 26009 10592 41586 23504
88320 52361 23026
77999
31313 48008 82219=

0000069700
87361=
0000011200
87368
0000009600
87371
0000035800
87378
0000037300
87381
0000039400
87385=
0000043700
87428=
0000047900
87503
0000056200
87524
0000048000
87543
0000056300
87596=
0000056400
87903
0000052300
88080
0000066800
88333
0000058600
88627=
0000060800
91360
0000060800
92734
0000065000
94538
00000000