0000068900
306
USAA01 NZCM 110000
TTAA 61001 89664
99997 00056 18501 00512 ///// ///// 92601 07158 18518
85255 11341 17017 70716 21114 15006 50514 33959 24513
40666 44759 24520 30855 51765 24023 25975 45585 24514
20124 43786 24513 15318 43586 26009 10592 41586 23504
88320 52361 23026
77999
31313 48008 82219=

0000069700
87361=
0000011200
87368
0000009600
87371
0000035800
87378
0000037300
87381
0000039400
87385=
0000043700
87428
0000047800
87442
0000056100
87461
0000047900
87477=
0000056300
87584
0000052200
87646
0000064600
87799=
0000062700
88850
0000062700
89311=
0000077300
94206
0000058800
96340
0000068900
307
USAA01 NZCM 110000
TTAA 61001 89664
99997 00056 18501 00512 ///// ///// 92601 07158 18518
85255 11341 17017 70716 21114 15006 50514 33959 24513
40666 44759 24520 30855 51765 24023 25975 45585 24514
20124 43786 24513 15318 43586 26009 10592 41586 23504
88320 52361 23026
77999
31313 48008 82219=

0000069700
87361=
0000011200
87368
0000009600
87371
0000035800
87378
0000037300
87381
0000039400
87385=
0000043700
87428
0000047800
87442
0000056100
87461
0000047900
87477=
0000056300
87584
0000052200
87646
0000064600
87799=
0000062700
88850=
0000075300
92506
0000067000
94265
0000077400
96421
0000068900
308
USAA01 NZCM 110000
TTAA 61001 89664
99997 00056 18501 00512 ///// ///// 92601 07158 18518
85255 11341 17017 70716 21114 15006 50514 33959 24513
40666 44759 24520 30855 51765 24023 25975 45585 24514
20124 43786 24513 15318 43586 26009 10592 41586 23504
88320 52361 23026
77999
31313 48008 82219=

0000069700
87361=
0000011200
87368
0000009600
87371
0000035800
87378
0000037300
87381
0000039400
87385=
0000043700
87428
0000047800
87442=
0000052100
87533
0000058300
87555
0000060400
87612
0000058400
87657
0000064600
87769=
0000066800
88818
0000054500
89274=
0000067000
94135
0000069100
96357
0000077600
309
UEMI01 GABS 110000
TTDD 6023/ 61291
11967 80164 22868 73565 33732 79165 44671 74565 55544
71968 66527 72569 77506 72170 88495 68171 99423 63980
11393 65579 22331 60581 33314 62180 44160 54982 55144
56182 66119 48584 77101 41786 88088 44586 99065 40587
11054 41586
21212 11923 17031 22899 16529 33784 27016 44734 29014
55700 29022 66663 25520 77644 27024 88621 31027 99576
32509 11571 31507 22539 27012 33525 27517 44498 30003
55493 28003 66473 20012 77462 23017 88437 26523 99410
29006 11402 22503 22365 27510 33349 33510 44332 34515
55319 36010 66278 00000 77240 06511 88234 06013 99223
09510 11217 08014 22208 13013 33196 07020 44180 06505
55155 05035 66141 06034 77133 08547 88109 08064 99100
09572 11072 08070 22054 09575=
??=
0000081300
310
USAA01 NZCM 110000
TTAA 61001 89664
99997 00056 18501 00512 ///// ///// 92601 07158 18518
85255 11341 17017 70716 21114 15006 50514 33959 24513
40666 44759 24520 30855 51765 24023 25975 45585 24514
20124 43786 24513 15318 43586 26009 10592 41586 23504
88320 52361 23026
77999
31313 48008 82219=

0000069700
87361=
0000011200
87368
0000009600
87371
0000035800
87378
0000037300
87381
0000039400
87385=
0000043700
87428
0000047800
87442
0000056100
87461
0000047900
87477
0000056200
87486
0000052100
87514
0000064500
87547
0000052200
87621
0000058400
87677
0000054300
87788
0000056400
87987
0000062700
88190=
0000056600
90102
0000052500
91080
0000071100
92364
0000064900
94154
0000062900
96346
0000062700
311
USAA01 NZCM 110000
TTAA 61001 89664
99997 00056 18501 00512 ///// ///// 92601 07158 18518
85255 11341 17017 70716 21114 15006 50514 33959 24513
40666 44759 24520 30855 51765 24023 25975 45585 24514
20124 43786 24513 15318 43586 26009 10592 41586 23504
88320 52361 23026
77999
31313 48008 82219=

0000069700
87361=
0000011200
87368
0000009600
87371
0000035800
87378
0000037300
87381
0000039400
87385=
0000043700
87428
0000047800
87442=
0000052100
87533=
0000058400
87735=
0000056500
88797
0000062700
89282=
0000054600
94204
0000011600
96344
0000064800
312
USAA01 NZCM 110000
TTAA 61001 89664
99997 00056 18501 00512 ///// ///// 92601 07158 18518
85255 11341 17017 70716 21114 15006 50514 33959 24513
40666 44759 24520 30855 51765 24023 25975 45585 24514
20124 43786 24513 15318 43586 26009 10592 41586 23504
88320 52361 23026
77999
31313 48008 82219=

0000069700
87361=
0000011200
87368=
0000015000
87382
0000012800
87386
0000045600
87406
0000047700
87410
0000049800
87416=
0000045800
87478
0000043800
87484=
0000050100
87716
0000056400
87839=
0000058600
88867
0000060700
89315=
0000071100
94191
0000060800
96343
0000073100
313
USAA01 NZCM 110000
TTAA 61001 89664
99997 00056 18501 00512 ///// ///// 92601 07158 18518
85255 11341 17017 70716 21114 15006 50514 33959 24513
40666 44759 24520 30855 51765 24023 25975 45585 24514
20124 43786 24513 15318 43586 26009 10592 41586 23504
88320 52361 23026
77999
31313 48008 82219=

0000069700
87361=
0000011200
87368
0000009600
87371
0000035800
87378
0000037300
87381=
0000039500
87413
0000041600
87422
0000043700
87443
0000045800
87466=
0000054200
87540=
0000048100
87746
0000050200
87938=
0000066900
88946
0000058700
89502
0000060700
90206
0000064900
91176
0000067000
92457
0000060800
94231
0000062900
96393
0000045300
314
SXXX32 EUMS 111118 RRX
32D8A2BE
:PRS 1 /1 1644 1645 1643 1650 1645 1647 1643 1650 1643 1641 1655 1650 1645 1653 1651 1648 1655 1659 1648 1662 1656 1661 1668 1661 1659 1673 1665 1665 1666 1671 :RAD 1 /3 7224 7227 7227 7232 7233 7238 7243 7246 7251 7253 7257 7262 7267 7272 7274 7277 7279 7280 7284 7289 :ENC 3 /5 4657 4659 4663 4669 4674 4680 4690 4698 4705 4710 4714 4718 :SW1 18 /60 60 :SW2 48 /60 60 :BAT 14 /15 13.1 :NAME 32D8A2BE /
0000007800
315
SNAL56 EUMS 111100
AAXX 11114
60692 46/// ///04 10217 21020=
0000063500
316
SAER10 OMAM 111100
METAR OMAD 111100Z 21006KT 180V240 9999 FEW045 23/12 Q1018 A3008
                   NOSI G=
METAR OMAH 111100Z 26003KT 7000 -RA OVC080 18/12 Q1019 A3009=
METAR OMAM 111100Z 22008KT CAVOK 23/10 Q1017 A3005=
METAR OMDL 111100Z VRB03KT 8000NDV -RA OVC080 18/13 Q1017 A3005=
METAR OMDM 111100Z 19006KT CAVOK 22/09 Q1019=
METAR OMLW 111100Z 18008KT CAVOK 23/11 Q1017=
METAR OMMZ 111100Z AUTO 16007KT /////NDV //// ///// 23/11 Q1018 A3006=
METAR OMSN 111100Z AUTO 21006KT /////NDV //// ///// 18/14 Q1019 A3011=
METAR OMSW 111100Z NIL=
METAR OMTH 111100Z 13008KT 9999 OVC090 20/09 Q1019=
0000007800
317
SNAL52 EUMS 111100
AAXX 11114
60667 46/// /0000 10182 20000=
0000008200
318
SNAL53 EUMS 111100 RRA
AAXX 11114
60662 46/// /0000 10193 21117=
0000007800
319
SNAL57 EUMS 111100
AAXX 11114
60691 46/// /0000 10217 21042=
0000008200
320
SNAL52 EUMS 111100 RRA
AAXX 11114
60633 46/// /0614 10200 21013=
0000008200
321
SNAL53 EUMS 111100 RRB
AAXX 11114
60660 46/// /1506 10235 21047=
0000008200
322
SNAL51 EUMS 111100 RRC
AAXX 11114
60672 46/// /0000 10201 21099=
0000008200
323
SNAL52 EUMS 111100 RRB
AAXX 11114
60661 46/// /2705 10176 21080=
0000008200
324
SNAL54 EUMS 111100 RRB
AAXX 11114
60677 46/// /0000 10166 21032=
0000015700
325
SNVX19 LFVW 111100
BBXX
MINUK03 1111/ 99525 10046 46/// ///// 10075 40125 52007=
MINFR00 1111/ 99390 70295 46/// ///// 10115 40101 52046=
00000000