0000036800
202
SXXX32 EUMS 111306 RRP
12FFB3C8
:PRS 1 /1 M 3067 3063 3074 3080 3090 3098 3104 3095 3092 3085 3089 3093 3081 3078 3072 3077 3080 3081 3088 3081 3081 3082 3075 3083 3083 3065 3078 3076 3075 :RAD 1 /3 6018 6030 6026 6022 6016 6020 6018 6017 6018 6025 :ENC 1 /5 -144 -144 -144 -144 -144 -144 :SW1 6 /60 0 :SW2 36 /60 16 :BAT 14 /15 13.9 :NAME 12FFB3C8 /
0000069800
203
SXXX32 EUMS 111306 RRQ
3601E29A
OT12 ID:DJ-BOUT-08 DT:2014 01 11 12 56
:RAD /1 01757 01768 01772 01783 01779 01789 01792 01794 01799 01802 01810 01807 01817 01832 01821 01815 01814 01840 01853 01848 01874 01886 01869 01848 01854 01873 01883 01886 01892 01889
:PR1 /1 02064 02079 02080 02089 02090 02086 02095 02090 02107 02106 02110 02119 02119 02118 02110 02123 02124 02167 02152 02152 02176 02178 02169 02152 02166 02185 02181 02187 02194 02193
:PR2 /1 00321 00301 00327 00326 00319 00317 00332 00353 00338 00356 00360 00364 00363 00359 00344 00354 00361 00380 00389 00391 00407 00420 00405 00385 00413 00424 00422 00422 00427 00419
:TM1 /15 260 260 260 260
:BAT 13.4V
0000070500
204
SXXX32 EUMS 111306 RRS
26F364EA

ST STHELENA
DT 11/01/14 11/01/14
TM 13:00:00 12:45:00
RD 10000 10000 10000 10000 10000 10000 10000 10000 10000 10000 10000 10000 10000 10000 10000 10000 10000 10000 10000 10000 10000 10000 10000 10000 10000 10000 10000 10000 10000 10000
P1 01020 00312 01274 01074 01049 01095 00637 00943 01118 01081 00913 01065 01011 00818 00725 00660 00996 00768 00535 00992 01224 01303 00985 00595 01293 00848 00852 00241 00954 01307
P2 00023 00022 00015 00017 00017 00029 00021 00029 00018 00019 00012 00011 00017 00013 00012 00011 00016 00012 00017 00012 00019 00091 00018 00009 00026 00012 00006 00021 00009 00119
T1 00.0 00.0
T2 22.8 22.8
VB 13.5
0000011000
205
UANT99 KDDL 111308
ARP BAW207 5000N02956W 1308 F320 MS46 193/27 KT
GBYGG QXT AOE 111308 F29A
0000011000
206
UANT99 KDDL 111308
ARP VIR75B 5303N01930W 1308 F370 MS59 222/65 KT
GVROS DDL XXF 111308 F67A
0000033100
207
UGIN40 DEMS 111200 RRB
PPBB 61111 42165
90012 36001 35007 34509 90378 34508 32511 35013 91012
34517 33518 33524 9158/ 31534 30540=
PPBB 61111 42348
90023 36003 00011 00513 9078/ 05008 33012 91012 34521
32538 32538 913// 33537=
PPBB 61111 42542
90023 00000 04005 03508 907// 04514 9125/ 33517 31518=

0000070200
208
SXXX32 EUMS 111306 RRR
22E7E6D2
OT12 ID:ID-ROTE-11 DT:2014 01 11 13 04
:PRS /1 -10789 -10294 -10782 -10782 -10759 -10760 -10761 -10760 -10788 -10785 -10791 -10791 -10789 -10787 -10787 -10789 -10289 -10779 -10787 -10756 -10756 -10759 -10758 -10790 -10787 -10785 -10/07/511686 -10785 -10785
:PR2 /1 04684 04679 04671 04639 04660 04673 04650 04652 04662 04641 04632 04654 04651 04601 04654 04647 04631 04611 04632 04612 04619 04585 04593 04619 04626 04585 04615 04591 04582 04606
:RAD /1 06254 06250 06262 06250 06206 06206 06218 06230 06210 06238 06214 06210 06202 06214 06206 06198 06198 06170 06181 06238 06150 06158 06162 06190 06174 06214 06190 06198 06182 06166
:BAT 12.2V/
0000067200
209
SXXX32 EUMS 111307 RRT
32CC9580
OT12 ID:ID-ENGG-07 DT:2014 01 11 13 06
:PRS /1 01506 01487 01491 01503 01503 01469 01451 01454 01462 01484 01454 01477 01462 01468 01474 01454 01456 01447 01448 01449 01418 01468 01437 01470 01428 01436 01445 01406 01450 01397
:PR2 /1 04933 04901 04902 04921 04928 04936 04920 04890 04925 04906 04897 04899 04861 04914 04912 04866 04900 04910 04886 04877 04845 04895 04880 04842 04869 04858 04876 04864 04870 04847
:RAD /1 05826 05797 05807 05812 05824 05829 05792 05785 05793 05790 05788 05790 05787 05787 05797 05768 05777 05776 05770 05772 05742 05775 05771 05750 05763 05753 05756 05758 05751 05746
:BAT 12.4V/
0000010900
210
UANT99 KDDL 111308
ARP VIR24 5603N02832W 1308 F370 MS60 211/58 KT
GVBUG DDL XXN 111308 J19A
0000007800
211
SNAL51 EUMS 111300
AAXX 11134
60663 46/// ///03 10234 21094=
0000007800
212
SNAL53 EUMS 111300
AAXX 11134
60619 46/// /1612 10214 21035=
0000008200
213
SNAL51 EUMS 111300 RRA
AAXX 11134
60612 46/// /0000 10199 21026=
0000008200
214
SNAL54 EUMS 111300 RRA
AAXX 11134
60621 46/// /1824 10250 21038=
0000011100
215
UANT99 KDDL 111308
ARP BER7346 4801N01610W 1308 F390 MS56 226/51 KT
DABXC QXT AOE 111309 J73A
0000011000
216
UANT99 KDDL 111309
ARP AFR368 4636N02520W 1309 F320 MS49 198/77 KT
FGLZI QXT AOE 111309 J41A
0000011000
217
UANT99 KDDL 111309
ARP JAI228 5208N02619W 1309 F350 MS60 181/64 KT
VTJWS QXT AOE 111309 J77A
0000011100
218
UANT99 KDDL 111309
ARP AWE705 5106N02228W 1309 F360 MS56 200/63 KT
N270AY DDL XXN 111309 J01A
0000014000
219
SNFP20 LFVP 111300
AAXX 11134
71805 22584 32615 11002 21039 30230 40239 52005 83500
  333 60005 83621 90710 91123 93100=
0000075000
220
SNNL50 EHDB 111300
AAXX 11131
06206 46/// /2913 10076 20025 30071 40124 51021
333 91015 91115 91213=
06207 45569 33014 10075 20026 30063 40117 51023 8////
333 82/22 83/61 91015 91115 91214=
06239 47474 42911 10068 20030 30032 40094 51013 72180 8////
333 81/16 83/22 91014 91116 91212=
06252 46/// /2812 10076 20025 30097 40143 51019 222// 00096 10504
333 91013 91115 91212=
06260 47470 83006 10070 20045 30145 40147 53012 72385 8////
333 83/12 86/15 86/21 91011 91111 91206
555 53028=
06270 47479 82905 10065 20040 30117 40117 51020 72380 8////
333 83/16 84/19 85/22 91007 91110 91206
555 53018=
06290 47250 82307 10055 20046 30084 40125 56012 72385 8////
333 85/05 88/07 91011 91111 91207
555 53008=
0000169200
221
SNNL51 EHDB 111300
AAXX 11131
06201 45569 13012 10071 20020 30072 40125 51014 8////
333 81/22 91014 91114 91212=
06203 45471 1//07 10086 20025 30105 40156 51031 8////
333 81/18 91009 91111 91207=
06204 45570 53011 10076 20031 30087 40138 51024 8////
333 82/20 84/24 85/28 91015 91115 91211=
06205 45681 23112 10060 20008 30031 40091 51007 8////
333 81/38 91014 91115 91213=
06208 47468 72910 10076 20051 30052 40101 51013 72180 8////
333 82/13 83/16 86/41 91014 91114 91211=
06211 45577 12811 10070 20024 30075 40131 51016 8////
333 81/23 91013 91114 91212=
06212 45575 13112 10079 20022 3//// 4//// 5//// 8////
333 81/24 91014 91115 91213=
06235 45565 43007 10076 20036 30137 40137 53026 8////
333 81/22 84/59 91010 91111 91207
555 53043=
06240 45679 43006 10072 20042 30152 40147 53021 8////
333 82/37 84/50 91009 91113 91210
555 53058=
06251 43/66 /3009 10074 20037 30119 40120 51027
333 91013 91113 91209
555 53028=
06258 46/// /3006
333 91007 91116 91212=
06269 47583 83309 10056 20035 30142 40136 53015 72365 8////
333 81/21 84/35 88/50 91015 91116 91211
555 53032=
06280 47567 82905 10062 20043 30109 40113 53006 76165 8////
333 83/24 85/39 88/50 91008 91111 91207
555 53018=
06310 45473 43106 10086 20041 30163 40173 52022 8////
333 82/19 83/31 91012 91112 91208
555 53079=
06344 45568 13006 10082 20044 30163 40156 53020 8////
333 81/21 91009 91113 91209
555 53068=
06370 47256 82506 10066 20053 30131 40157 53004 72380 8////
333 81/06 83/08 85/09 91008 91110 91207
555 53025=
06380 47459 82505 10075 20056 30024 40166 55004 75186 8////
333 85/13 88/16 91008 91110 91206
555 53019=
00000000