0000010900
302
UANT99 KDDL 111310
ARP AUA93 5300N01947W 1310 F320 MS56 207/68 KT
OELAE QXT AOE 111310 F25A
0000011000
303
UANT99 KDDL 111310
ARP BAW268 5550N01904W 1310 F390 MS58 241/48 KT
GXLEB QXT EUA 111310 J60A
0000011000
304
UANT99 KDDL 111310
ARP KLM751 4858N03006W 1310 F310 MS46 195/31 KT
PHBQA QXT AOE 111310 F24A
0000010900
305
UANT99 KDDL 111310
ARP VIR24 5604N02804W 1310 F370 MS61 211/64 KT
GVBUG DDL XXN 111311 J26A
0000019200
306
UQCN01 CWAO 111200
PPDD  61128 71600 9537/ 29078 29066 96034 28553 26066 27577
968// 27078 9707/ 24571 25083 98128 22592 23098 22581 989//
23582 99039 22083 22583 21082=

0000015100
307
SSVX05 CWAO 111300
ZZYY 48593 11014 1300/ 771638 176477 6113/ 11132 
40152 57015 22291 01095 444 20130 11014 1300/ 50400 80138 80001=
0000012100
308
SSVX05 CWAO 111300
ZZYY 48524 11014 1300/ 772286 179093 6113/ 444 
20130 11014 1300/ 50400 80140 80001=
0000012700
309
SSVX05 CWAO 111300
ZZYY 47550 11014 1300/ 770787 069468 6113/ 444 
20130 11014 1300/ 50101 80134 80001 9////=
0000014800
310
ULCN01 CWAO 111200
TTCC  61122 71600 70812 63579 28554 50017 63979 27073 30340
48184 25082 20611 42986 22585 88999 77240 23098=

0000028400
311
UECN01 CWAO 111200
TTDD  6112/ 71600 11956 64576 22837 62178 33671 62179 44563
66178 55381 57582 66360 58181 77321 51983 88316 48184 99293
46385 11276 46985 22239 45585 33226 41586 44198 43586 55150
42386 66138 33189 77125 36988 88111 36588 51515 10190 10087=

0000014500
312
SSVX05 CWAO 111300
ZZYY 48509 11014 1300/ 775559 141015 6113/ 11131 
11202 49878 57027 444 20130 11014 1300/ 50400 80134 80001=
0000015100
313
SSVX05 CWAO 111300
ZZYY 48510 11014 1300/ 778970 129381 6113/ 11119 
11269 49846 52022 444 20130 11014 1300/ 50100 80132 80001 9////=
0000027500
314
SXHW11 KWAL 111312
15D142A4 011131202":PRS 1 #1 1757 1763 1757 1748 1756 1743 1765 1761 1767 1758 :RAD 1 #1 7345 7345 7345 7344 7345 7346 7353 7351 7347 7348 :ENC 2 #5 5246 5255 5250 5250 :SW1 12 #60 0 :SW2 42 #60 0 :BAT 4 #5 13.0 :NAME 15D142A4  31+0NN 216W
0000046700
315
SZPA01 AMMC 111312
CREX++
T000103 A001 D01021 D06025++
0136250 17293000 67590 2014 01 11 13 05 3015 11 07 00 01
01957 0052 01956 0049 01960 0051 01971 0060 01973 0060 01972 0056+
0710610 17137250 67680 2014 01 11 13 05 3013 11 07 00 01
01290 0025 01304 0038 01295 0028 01298 0030 01306 0037 01309 0039+
0698060 15820000 67950 2014 01 11 13 05 3023 11 07 00 01
00788 0124 00789 0124 00787 0122 00793 0127 00796 0129 00796 0129++
7777

0000192100
316
SZAU01 AMMC 111312
CREX++
T000103 A001 D01021 D06025++
-1927750 14705860 59260 2014 01 11 13 05 3023 11 07 00 01
01205 0184 01205 0191 01200 0192 01183 0181 01176 0180 01173 0183+
-2316110 15079000 59670 2014 01 11 13 05 3000 11 07 00 01
01684 0235 01679 0238 01674 0241 01665 0239 01658 0241 01646 0236+
-3447330 15091170 60420 2014 01 11 13 05 2952 11 07 00 01
00489 -0029 00490 -0028 00490 -0028 00489 -0030 00478 -0041 00476 -0044+
-4105000 14591500 60910 2014 01 11 13 05 2888 11 07 00 01
01851 -0021 01826 -0038 01819 -0038 01822 -0026 01808 -0033 01806 -0027+
-4254640 14793080 61170 2014 01 11 13 05 2900 11 07 00 01
01055 0083 01057 0085 01051 0078 01056 0083 01051 0077 01044 0069+
-3834390 14161360 61410 2014 01 11 13 05 2908 11 07 00 01
00730 -0009 00779 0039 00743 0003 00766 0026 00723 -0017 00780 0039+
-3214890 13364170 62000 2014 01 11 13 05 2955 11 07 00 01
01224 -0008 01227 -0008 01233 -0004 01237 -0003 01240 -0002 01246 0001+
-3387080 12189720 62080 2014 01 11 13 05 2950 11 07 00 01
01057 0010 01056 0009 01053 0006 01052 0005 01048 0001 01040 -0006+
-3182560 11573860 62237 2014 01 11 13 05 2973 11 07 00 01
00900 0041 00895 0037 00891 0034 00886 0031 00878 0024 00880 0027+
-2422000 11339750 62385 2014 01 11 13 05 //// 11 07 00 01
01147 -0107 01168 -0083 01190 -0059 01168 -0079 01195 -0050 01223 -0019+
-2181670 11419110 62430 2014 01 11 13 05 //// 11 07 00 01
01975 -0055 01954 -0074 01969 -0056 01940 -0082 01965 -0055 01938 -0079+
-1800080 12221830 62650 2014 01 11 13 05 3043 11 07 00 01
06293 0134 06286 0135 06278 0137 06269 0136 06259 0133 06249 0134+
-1247190 13084580 63230 2014 01 11 13 05 3050 11 07 00 01
04389 0070 04390 0068 04395 0066 04399 0067 04401 0066 04405 0064+
-1386000 13641580 63511 2014 01 11 13 05 3043 11 07 00 01
01867 0056 01867 0055 01864 0053 01863 0051 01860 0048 01856 0045++
7777

0000178800
317
SZPS01 AMMC 111312
CREX++
T000103 A001 D01021 D06025++
-0204190 14737360 56130 2014 01 11 13 05 3027 11 07 00 01
00430 0120 00427 0116 00426 0115 00429 0118 00428 0116 00430 0118+
-0669280 15640860 56363 2014 01 11 13 05 //// 11 07 00 01
00566 -0049 00569 -0047 00566 -0052 00568 -0051 00571 -0049 00571 -0051+
-0942890 15995560 56670 2014 01 11 13 05 3038 11 07 00 01
00432 -0053 00435 -0050 00428 -0058 00433 -0053 00437 -0049 00433 -0054+
-1072080 16580190 57131 2014 01 11 13 05 //// 11 07 00 01
02202 1578 00642 0015 00954 0325 01845 1213 01599 0965 02796 2159+
-1551560 16718860 57210 2014 01 11 13 05 //// 11 07 00 01
00740 -0135 00733 -0145 00732 -0149 00738 -0147 00755 -0133 00750 -0141+
-1775690 16830030 57320 2014 01 11 13 05 3015 11 07 00 01
00643 -0085 00647 -0084 00651 -0083 00654 -0083 00656 -0083 00659 -0084+
-4397330 16861610 65180 2014 01 11 13 05 2885 11 07 00 01
01259 0371 01272 0387 01299 0417 01257 0378 01250 0373 01269 0395+
-2120470 -15978530 65980 2014 01 11 13 05 3010 11 07 00 01
00666 0032 00659 0023 00639 0001 00650 0011 00645 0005 00677 0035+
-2113810 -17518140 66600 2014 01 11 13 05 //// 11 07 00 01
01193 0087 01202 0092 01202 0089 01209 0092 01209 0088 01210 0086+
-1382670 -17176110 66840 2014 01 11 13 05 3010 11 07 00 01
00987 0044 00987 0041 00983 0035 00983 0033 00993 0041 00999 0044+
-1813250 17842750 67050 2014 01 11 13 05 3030 11 07 00 01
01260 0076 01261 0073 01263 0071 01263 0067 01266 0066 01272 0068+
-1760530 17743810 67070 2014 01 11 13 05 3030 11 07 00 01
01339 0036 01343 0036 01346 0034 01350 0033 01354 0032 ///// ////+
-0850250 17919500 67440 2014 01 11 13 05 3028 11 07 00 01
02254 0000 02263 0006 02258 -0002 02269 0006 02271 0005 02274 0005++
7777

0000034400
318
SZIO01 AMMC 111312
CREX++
T000103 A001 D01021 D06025++
-1211670 09689190 46280 2014 01 11 13 05 3018 11 07 00 01
00702 0019 00698 0016 00698 0017 00694 0015 00693 0015 00691 0014+
-1042940 10566940 46290 2014 01 11 13 05 //// 11 07 00 01
00920 -0042 00978 0019 00967 0011 00908 -0046 01003 0052 00875 -0073++
7777

0000022100
319
SAJD31 OJAI 111300
METAR OJAI 111300Z 29012KT 6000 HZ SCT030 12/05 Q1023 NOSIG=
METAR OJAM 111300Z 33010KT 5000 HZ BKN025TCU 12/04 Q1022 NOSIG=
METAR OJAQ 111300Z 34008KT 9999 SCT030 19/07 Q1023 NOSIG=
0000040400
320
SATR31 UTAA 111300
METAR UTAA 111300Z 15002MPS 9999 SCT160 BKN230 10/M08 Q1016
12CLRD70 NOSIG=
METAR UTAK 111300Z 15007MPS 9999 FEW016 BKN200  08/03 Q1014 NOSIG=
METAR UTAV 111300Z 21002MPS 7000 BKN200 08/M03 Q1021 NOSIG=
METAR UTAM 111300Z 06002MPS 6000 SCT066 SCT100 OVC230 10/M04 Q1019
 NOSIG  RMK  SC07=
METAR UTAT 111300Z 09003MPS 4000 FEW200 05/M00 Q1020 99CLRD70 NOSIG=
0000080400
321
SAUR31 UKMS 111300
METAR UKLR 111300Z 27008MPS 9999 SCT026 BKN100 04/00
         Q1014 NOSIG=
METAR UKLI 111300Z 26006MPS 220V290 CAVOK 07/M03
         Q1018  28090070 NOSIG=
METAR UKON 111300Z 29009MPS CAVOK 09/M02 Q1016 NOSIG=
METAR UKCM 111300Z 24009MPS 9999 BKN044 07/01 Q1013
         19190062 NOSIG=
METAR UKCW 111300Z 25009MPS 9999 SCT030CB BKN040
         05/01  Q1008 2719//65 BECMG 25012G20MPS=
METAR UKLU 111300Z 17002MPS 9999 BKN012 03/01 Q1020
         10090070 NOSIG=
METAR UKKK 111300Z 28008MPS 9999 BKN024 05/02 Q1010
         26290250  NOSIG=
METAR UKKM 111300Z 27007MPS 9999 SCT026CB BKN032
         05/01 Q1010  33210250 TEMPO 28010G15MPS=
METAR UKKE NIL=
METAR UKLN 111300Z 33003MPS 290V010 CAVOK 07/M03
         Q1018 3309//70 NOSIG=
00000000