0000109900
682
UDAS02 BABJ 111307
AMDAR 1113
ASC CNFPTK 3551N 12035E 111303 F173 MS215 277/056 TB/ S//1=
ASC CNFPTK 3549N 12036E 111304 F190 MS243 274/063 TB/ S//1=
ASC CNFPTK 3546N 12038E 111304 F204 MS258 276/073 TB/ S//1=
ASC CNFPTK 3542N 12040E 111305 F212 MS265 282/081 TB/ S//1=
LVR CNFPQL 3210N 12041E 111256 F301 MS390 258/112 TB/ S//1=
LVR CNFPQL 3212N 12023E 111259 F301 MS395 262/106 TB/ S//1=
LVR CNFPQL 3213N 12003E 111302 F301 MS395 260/107 TB/ S//1=
LVR CNFPQL 3216N 11944E 111305 F301 MS400 262/099 TB/ S//1=
LVR CNFLWL 3549N 11135E 111257 F311 MS510 248/079 TB/ S//1=
LVR CNFLWL 3610N 11152E 111300 F311 MS513 247/083 TB/ S//1=
LVR CNFLWL 3632N 11210E 111303 F311 MS518 251/089 TB/ S//1=
LVR CNFLWL 3653N 11227E 111306 F311 MS520 251/094 TB/ S//1=
ASC CNFPTK 3540N 12041E 111305 F222 MS290 277/081 TB/ S//1=
ASC CNFPTK 3539N 12042E 111306 F228 MS306 275/081 TB/ S//1=
ASC CNFPTK 3535N 12043E 111306 F247 MS356 265/086 TB/ S//1=
ASC CNFPTK 3535N 12044E 111306 F250 MS360 263/091 TB/ S//1=
ASC CNFPYN 3420N 11358E 111305 F086 MS091 179/010 TB/ S//1=
0000054100
683
UDAS02 BABJ 111309
AMDAR 1113
LVR CNFPXL 3818N 12049E 111305 F197 MS328 271/067 TB/ S//1=
LVR CNFPXL 3815N 12048E 111306 F197 MS328 271/066 TB/ S//1=
LVR CNFPXL 3812N 12047E 111306 F197 MS326 271/066 TB/ S//1=
LVR CNFPXL 3810N 12046E 111307 F197 MS328 271/064 TB/ S//1=
LVR CNFNZK 3046N 12208E 111305 F197 MS193 268/033 TB/ S//1=
DES CNFNZK 3043N 12202E 111306 F184 MS173 269/036 TB/ S//1=
DES CNFNZK 3041N 12159E 111307 F175 MS153 269/037 TB/ S//1=
DES CNFNZK 3040N 12157E 111307 F169 MS138 266/036 TB/ S//1=
0000022600
684
UEPM01 MPCZ 111200
78807 TTDD 6112/ 78807
11922 805// 22715 789// 33670 731// 44546 659// 55441
689// 66360 641// 77300 55781 88268 57780 99187 50783
11152 56180 22143 54182
31313 48008 81126=



0000019200
685
ULPM01 MPCZ 111200
78807 TTCC 61122 78807
70858 769// 13505 50058 665// 27534 30371 55782 34023
20629 51383 13514
88922 805// 06026
77999
31313 48008 81126=



0000031800
686
UQPM01 MPCZ 111200
PPDD 61128 78807
901// 23367 9589/ 08026 14517 96012 14510 03010 06510
96345 22510 24001 28013 9679/ 29527 27535 97012 30037
31531 32023 97345 32018 30514 32008 978// 32015 98012
34524 35521 05018 98357 04010 00000 16010 9889/ 13013
17011 99125 14515 14510 07511=



0000009400
687
SAUK39 EGRR 111250 RRC
METAR EGUO 111250Z 27008KT 9999 FEW012 06/04 Q1021 BLU=
0000122600
688
UEUK80 EGRR 111200
TTDD 6111/ 03808
11901 55782 22806 53983 33736 54383 44709 51983 55681
52783 66643 51184 77579 51783 88558 53383 99535 51783
11485 50584 22419 52783 33413 51983 44385 52183 55380
50584 66367 51383 77340 49784 88323 50984 99313 49784
11296 48784 22270 50184 33254 48784 44236 48984 55224
50784 66221 51184 77210 49184 88203 49984 99198 49384
11189 51783 22169 50384 33150 44985 44139 43986 55130
45185 66122 43986 77106 45985 88097 44386 99081 46785
11078 45785 22075 45785 33073 45185 44068 40987 55061
41187 66057 42586
21212 11887 23533 22860 24537 33771 26024 44727 25029
55695 25521 66691 25021 77660 26025 88642 24519 99622
24521 11602 22021 22575 24525 33555 25022 44516 25036
55480 26525 66458 24522 77433 27016 88409 27030 99387
28019 11363 26525 22353 27532 33326 28522 44313 28024
55302 29024 66291 27529 77277 29524 88267 27525 99251
27521 11222 27025 22200 30044 33188 29539 44178 30047
55169 29552 66159 30058 77150 30566 88144 30565 99138
31064 11133 31068 22129 31068 33119 31564 44103 32076
55096 32574 66089 32062 77085 32565 88082 32065 99076
31587 11073 31081 22069 30585 33064 31092 44061 31587
55057 31077
31313 48008 81115=
0000142600
689
SASA85 EGRR 111300 RRE
METAR SABE 111300Z 16023KT CAVOK 21/05 Q1017=
METAR SASA 111300Z 36002KT 9999 SCT025 26/19 Q1017=
METAR SAVC 111300Z 14005KT 070V200 CAVOK 17/08 Q1018=
METAR SAWE 111300Z 34011KT 9999 FEW015 SCT050 09/08 Q1005=
METAR SAZS 111300Z 00000KT CAVOK 14/04 Q1022=
METAR SBPP 111300Z 30004KT CAVOK 30/19 Q1017=
METAR SBTF 111300Z 07005KT 9999 SCT012 28/24 Q1014=
METAR SLAS 111300Z 36007KT 9999 BKN012 BKN070 26/23 Q1014=
METAR SLET 111300Z 32015KT 9999 BKN007 BKN013 26/23 Q1012=
METAR SLMG 111300Z 00000KT 9999 FEW008 SCT020 BKN080 26/24 Q1013=
METAR SLRB 111300Z 30006KT 9999 NSC 28/24 Q1015=
METAR SLRI 111300Z 03005KT 9999 SCT008 SCT020 BKN080 26/23 Q1013=
METAR SLSU 111300Z 00000KT 9999 SCT015 17/11 Q1030=
METAR SLTR 111300Z 35008KT 9999 FEW012 SCT080 28/24 Q1013=
METAR SVAC 111300Z 02006KT 9999 SCT017 25/20 Q1017=
METAR SVBM 111300Z 05003KT 9999 FEW016 SCT060 23/18 Q1019=
METAR SVCB 111300Z 07006KT 9999 SCT010 26/// Q1014=
METAR SVGU 111300Z 00000KT 9999 FEW020 26/16 Q1015=
METAR SVJC 111300Z 09010KT 9999 BKN013 26/22 Q1016=
METAR SVLF 111300Z 00000KT CAVOK XX/XX Q1016=
METAR SVMC 111300Z /////KT 9999 FEW013 SCT070 25/20 Q1015=
METAR SVMD 111300Z 36008KT CAVOK 16/11 Q1024=
METAR SVSA 111300Z /////KT CAVOK 21/14 Q1014=
METAR SVST 111300Z 00000KT CAVOK ///// Q1017=
METAR SYCJ 111300Z 01004KT 9999 BKN017 SCT300 26/24 Q1015 NOSIG=
0000166100
690
SASA85 EGRR 111300 RRF
METAR SAAR 111300Z 14010KT CAVOK 23/10 Q1017=
METAR SAOC 111300Z 09005KT CAVOK 19/11 Q1020=
METAR SARC 111300Z 14011KT 6000 -TSRA FEW008 OVC040 FEW045CB 20/19
      Q1014=
METAR SARE 111300Z 20005KT 2500 TSRA FEW025 OVC040 FEW056CB 20/20 Q1015=
METAR SARF 111300Z 18021KT-RA SCT007 SCT020 BKN040 21/19 Q1014=
METAR SARL 111300Z 34008KT 8000-TSRA FEW008 OVC035 FEW045CB 22/21 Q1013=
METAR SASJ 111300Z 14006KT 9999 FEW040TCU SCT200 27/19 Q1014=
METAR SAVE 111300Z 23006KT CAVOK 12/01 Q1021=
METAR SAWH 111300Z 18001KT 9999 DZ BKN040 BKN100 08/06 Q1001=
METAR SAZM 111300Z 20011KT 9999 SCT020 SCT025 17/08 Q1020=
METAR SAZN 111300Z 11003KT CAVOK 19/02 Q1020=
METAR SBKG 111300Z 14009KT 9999 BKN025 BKN100 28/18 Q1016=
METAR SBMS 111300Z 10010KT 9999 SCT030 33/18 Q1012=
METAR SBTC 111300Z 11002KT 9999 SCT015 BKN060 31/24 Q1017=
METAR SKBG 111300Z 08003KT 9999 FEW015 20/15 A3004=
METAR SKBO 111300Z 03006KT 9999 FEW017 SCT090 13/09 A3035=
METAR SKBQ 111300Z 06007KT CAVOK 26/23 A2991=
METAR SKCG 111300Z 00000KT CAVOK 26/22 A2988=
METAR SKCL 111300Z 00000KT 4000 BR BKN005 BKN080 21/20 A3004 RMK AD
      OPER IMC=
METAR SKLT 111300Z 00000KT 1500 RA FEW005 BKN010 BKN080 24/24 A2995
      RMK AD OPR IMC=
METAR SKMD 111300Z 00000KT 9000 SCT025 BKN080 20/17 A3012 REDZ RMK
      HZ=
METAR SKPE 111300Z 06003KT 9999 FEW017 20/18 A3013=
METAR SKRG 111300Z 18003KT 9999 5000SE HZ SCT007 SCT070 15/14 A3031=
METAR SKSM 111300Z 00000KT 9999 FEW020 25/21 A2989=
METAR SKSP 111300Z 08014KT 9999 FEW018 SCT200 27/23 A2993=
METAR SVBC 111300Z 00000KT 9999 FEW010 27/22 Q1016=
0000165700
691
SASA85 EGRR 111300 RRG
METAR SAME 111300Z 14005KT CAVOK 26/08 Q1020=
METAR SBAF 111300Z 34007KT CAVOK 33/21 Q1014=
METAR SBAT 111300Z 07006KT 9999 -RA FEW008 BKN100 24/22 Q1016=
METAR SBBH 111300Z 07011KT 9999 SCT030 27/17 Q1021=
METAR SBBI 111300Z 01007KT 9999 FEW015 26/21 Q1019=
METAR SBBQ 111300Z 02010KT 9999 SCT020 24/16 Q1024=
METAR SBBU 111300Z 32008KT CAVOK 31/21 Q1018=
METAR SBCC 111300Z 03004KT 9999 FEW020 BKN100 22/19 Q1017=
METAR SBCO 111300Z 30006KT 9999 FEW040 29/// Q1012=
METAR SBDN 111300Z 01006KT CAVOK 30/18 Q1016=
METAR SBGW 111300Z 05005KT 9999 FEW020 29/18 Q1017=
METAR SBHT 111300Z 08003KT 9999 SCT010 BKN100 26/24 Q1014=
METAR SBIH 111300Z 00000KT 9999 FEW013 BKN100 26/24 Q1014=
METAR SBIL 111300Z 11004KT 9999 VCSH SCT025 FEW030TCU BKN100 28/23
      Q1017=
METAR SBIZ 111300Z 15002KT 9999 FEW018 SCT100 28/23 Q1013=
METAR SBJF 111300Z 01008KT 9999 BKN018 25/19 Q1021=
METAR SBJR 111300Z 17004KT 9999 FEW020 32/25 Q1014=
METAR SBME 111300Z 05012KT CAVOK 35/22 Q1014=
METAR SBMK 111300Z 07009KT 9999 SCT030 BKN040 26/17 Q1020=
METAR SBMT 111300Z 06004KT CAVOK 29/18 Q1018=
METAR SBPC 111300Z 02004KT 9999 SCT018 27/21 Q1023=
METAR SBSC 111300Z 03018KT CAVOK 33/21 Q1013=
METAR SBST 111300Z 22007KT 9999 SCT025 SCT035 29/25 Q1014=
METAR SBTK 111300Z 36005KT 9999 OVC015 25/23 Q1014=
METAR SBTU 111300Z 07007KT 9999 SCT015 BKN070 26/24 Q1016=
METAR SBUL 111300Z 04013KT 9999 FEW040 26/17 Q1021=
METAR SBUR 111300Z 04011KT 9999 FEW035 28/17 Q1020=
METAR SBVH 111300Z 36006KT 9999 SCT015 SCT100 25/21 Q1017=
METAR SBYS 111300Z 03008KT 9999 FEW035 30/20 Q1018=
0000068800
692
SASA85 EGRR 111300 RRH
METAR SANT 111300Z 18012KT 1500 +TSRA BKN004 SCT045CB OVC050 22/21
      Q1018=
METAR SBAN 111300Z 05008KT 9999 FEW025 SCT100 25/18 Q1021=
METAR SBBW 111300Z 09004KT 9999 FEW020 SCT090 27/21 Q1017=
METAR SBCB 111300Z 09012KT CAVOK 30/21 Q1014=
METAR SBSM 111300Z 32008KT 2100 TSRA BKN005 BKN030 FEW040CB OVC090
      22/21 Q1016=
METAR SGAS 111300Z 36011KT 310V020 CAVOK 33/24 Q1011=
METAR SGES 111300Z 05010KT 360V090 9999 SCT030 BKN200 28/23 Q1012=
METAR SKCL 111300Z 00000KT 4000 BR BKN005 BKN080 21/20 A3004 RMK AD
      O PER IMC=
METAR SPIM 111300Z 17008KT 140V200 9999 SCT006 BKN008 22/19 Q1012 NOS
      IG RMK PP000=
0000012400
693
SPSA85 EGRR 111316
SPECI SBRF 111310Z 12006KT 9999 4000NE -RA SCT008 BKN017 BKN050 24/23
      Q1014 RERA=
0000026700
694
SASA85 EGRR 111200 RRK
METAR SGAS 111200Z 02008KT 9999 CAVOK 31/24 Q1010=
METAR SGAS 111230Z VRB11KT CAVOK 32/24 Q1010=
METAR SGES 111200Z VRB05KT 9999 SCT030 BKN070 26/23 Q1012=
METAR SGES 111230Z 03010KT 330V090 9999 SCT030 BKN200 28/23 Q1012=
0000016500
695
SASA85 EGRR 111100 RRM
METAR SGAS 111130Z 02006KT 9999 FEW033 SCT083 BKN200 30/23 Q1010=
METAR SGES 111130Z VRB05KT 9999 SCT030 BKN070 26/23 Q1013=
0000024100
696
SOAT10 KWAL 111318
FA8005BC 011131837 OT12 ID:KN-BASS-01 DT:2014 01 11 13 16
:RD -3081 -3058 -3043 -3075 -3046 -3075 -3065 -3089 -3103 -3082
:PR 0568 0626 0580 0566 0579 0628 0595 0624 0651 0602
:B 13.7V
 46+1NN 219E
0000039000
697
SMVB13 RJTD 111200
BBXX
SHIP    11124 99113 11420
41497 30622 10272 20233 40112 52010 70200 82302 9////
22202 06286 6//// 80244=
SHIP    11124 99203 11202
41897 30918 10230 20201 40355 54000 70100 83175
22253 00248 20505 309// 40305 80210=
H9XE    11124 99371 11412
41698 70116 10030 21055 40260 51030 70211 86145
22243 00120 20202 30606 40102 50102 80000=
0000003900
698
SMVD13 RJTD 111200
NIL=
0000011100
699
UANT99 KDDL 111317
ARP AWE755 5103N01913W 1317 F380 MS59 223/66 KT
N288AY DDL XXN 111317 J77A
0000011000
700
UANT99 KDDL 111317
ARP BAW175 5406N02325W 1317 F370 MS62 200/66 KT
GBNLP QXT AOE 111317 F95A
0000033700
701
WAIY32 LIIB 111322
LIRR AIRMET 04 VALID 111335/111735 LIMM-
LIRR ROMA FIR SFC VIS 1000/5000 M BR AND LOC 0100/0900 M FG OBS
N/CENTRAL PENINSULAR PART STNR NC.
LIRR ROMA FIR OVC CLD 0100/1000 FT OBS LOC N/CENTRAL PENINSULAR PART
STNR NC.
LIRR ROMA FIR MT OBSC OBS LOC MAINLY N/CENTRAL APPENNINIAN AREA STNR
NC=
00000000