0000017700
542
ULHU01 HABP 111200
TTCC  11122 12843
70833 59370 30514 50045 58772 31528 30366 57575 33038
20624 56577 32543
88999
77126 33053 40705
31313 41708 81124=
0000014200
543
ULAL01 DAMM 111200 RRA
TTCC 61115 60630
70857 679// 21517 50061 629// 11010
88940 703// 24068
77999
31313 47908 81119=
0000038500
544
SSVX13 LFPW 111300
ZZYY 61691 11014 1300/ 144517 032895 6113/ 11119 40216 52003 22219
 00095 33300 88870 20000 30952 20011 30960 20013 30948 20016 30956
 20021 30944 20026 30956 20031 30956 20036 30944 20041 30940 20046
 30948 20051 30932 20056 30936 20061 30896 20066 30836 20071 30812
 20076 30796 20081 30786 444 20131 11014 1147/ 50101 80094 80045
 9/015=
0000032200
545
USSP01 LEMM 111200 RRA
TTAA 61111 08190 99009 13640 05003 00173 13258 05506 92822 07407
08509 85515 07259 16514 70084 01362 21011 50567 19758 21025 40728
33360 23028 30924 47949 21043 25041 57346 22040 20180 62558 22041
15361 55974 23036 10621 56181 24515 88218 63143 21535 77999 31313
47708 81101=
0000059400
546
UKSP01 LEMM 111200 RRA
TTBB 61118 08190 00009 13640 11989 11637 22953 08812 33923 07406
44866 04228 55859 06857 66855 07459 77808 04260 88784 02258 99759
02074 11714 00171 22679 02957 33615 09721 44504 18958 55485 21361
66383 35962 77356 40157 88218 63143 99195 62159 11189 57961 22168
55170 33145 56376 44139 53178 55131 55379 66114 52582 21212 00009
05003 11842 17016 22580 23516 33492 21023 44438 22521 55325 21550
66219 21534 77196 23046 88183 23019 99151 23037 11124 24021 22115
24033 33107 27520 44101 25015 31313 47708 81101 41414 ///// 51515
11895 13011=
0000190100
547
UDEU02 EGRR 111318
AMDAR 1112
ASC EU7033   3934N 00245E 111256 F007 PS137 084/000 TB/ S031=
ASC EU7033   3935N 00247E 111256 F014 PS127 019/000 TB/ S031=
ASC EU7033   3935N 00249E 111256 F019 PS115 179/001 TB/ S031=
ASC EU7033   3936N 00251E 111256 F027 PS115 198/007 TB/ S031=
ASC EU7033   3937N 00252E 111256 F034 PS102 200/012 TB/ S031=
ASC EU7033   3938N 00254E 111256 F042 PS092 203/011 TB/ S031=
ASC EU7033   3939N 00256E 111256 F053 PS077 217/010 TB/ S031=
ASC EU7033   3939N 00258E 111256 F065 PS050 215/010 TB/ S031=
ASC EU7033   3940N 00300E 111256 F077 PS025 208/012 TB/ S031=
ASC EU7033   3941N 00301E 111256 F100 MS017 219/011 TB/ S031=
ASC EU7033   3943N 00305E 111257 F113 MS057 223/011 TB/ S031=
ASC EU7033   3945N 00310E 111257 F132 MS100 220/010 TB/ S031=
ASC EU7033   3947N 00314E 111257 F149 MS120 197/026 TB/ S031=
ASC EU7033   3949N 00318E 111258 F165 MS155 202/025 TB/ S031=
ASC EU7033   3952N 00323E 111258 F184 MS190 203/018 TB/ S031=
ASC EU7033   3955N 00327E 111258 F200 MS232 195/020 TB/ S031=
ASC EU7033   3958N 00331E 111259 F214 MS270 200/022 TB/ S031=
ASC EU7033   4001N 00336E 111259 F226 MS300 199/027 TB/ S031=
ASC EU7033   4004N 00340E 111259 F239 MS327 207/031 TB/ S031=
ASC EU7033   4007N 00345E 111300 F251 MS355 213/031 TB/ S031=
ASC EU7033   4010N 00350E 111300 F263 MS392 212/032 TB/ S031=
ASC EU7033   4013N 00355E 111300 F273 MS417 213/037 TB/ S031=
ASC EU7033   4016N 00400E 111301 F284 MS447 214/032 TB/ S031=
ASC EU7033   4020N 00405E 111301 F296 MS480 205/031 TB/ S031=
ASC EU7033   4023N 00410E 111301 F300 MS492 211/029 TB/ S031=
ASC EU7033   4026N 00415E 111302 F300 MS495 209/033 TB/ S031=
ASC EU7033   4030N 00420E 111302 F300 MS492 211/036 TB/ S031=
ASC EU7033   4034N 00423E 111302 F300 MS492 211/035 TB/ S031=
ASC EU7033   4039N 00424E 111303 F300 MS492 208/032 TB/ S031=
0000010500
548
UANT99 KDDL 111314
ARP AAL211 MALOT 1314 F350 MS64 238/77 KT
N185AN DDL ORK 111314 F15A
0000011100
549
UANT99 KDDL 111314
ARP AMX003 4836N02450W 1314 F390 MS48 326/52 KT
N961AM DDL XXW 111314 L38A
0000011000
550
UANT99 KDDL 111314
ARP EIN105 5202N02946W 1314 F360 MS55 167/43 KT
EIDUZ DDL XXN 111314 J91A
0000083900
551
SAUZ31 UTTW 111300
METAR UTFN 111300Z VRB01MPS 0700 R28/1200N FZFG NSC M05/M06 Q1025
R28/CLRD70 NOSIG=
METAR UTNN 111300Z 08002MPS CAVOK 01/M02 Q1020 R33/CLRD60 NOSIG=
METAR UTNU 111300Z 09001MPS 6000 SCT200 04/M02 Q1020 R31/CLRD60
NOSIG=
METAR UTSA 111300Z 11004MPS 8000 FEW 01/M05 Q1021 R25/CLRD70 NOSIG=
METAR UTSB 111300Z 17004MPS 6000 NSC 07/M08 Q1020 R01/CLRD70 NOSIG=
METAR UTSK 111300Z 08003MPS CAVOK 06/M04 Q1022 R16/CLRD70=
METAR UTSS 111300Z 00000MPS 9999 NSC 02/M06 Q1021 R88/CLRD70 NOSIG=
METAR UTST 111300Z 12002MPS CAVOK 07/M06 Q1023 R88/CLRD70 NOSIG=
METAR UTFA 111300Z 00000MPS 0800 R04/0800 FZFG NSC M04/M05 Q1026
R88/09//70=
METAR UTFF 111300Z 25002MPS 0450 R18/0450N FZFG NSC M05/M05 Q1024
R18/CLRD70=
METAR UTTT 111300Z 21001MPS 4000 FU NSC 05/M03 Q1022 R08R/CLRD70
NOSIG=
0000125400
552
SMNR01 DRRN 111200
AAXX 11124
61017 32960 50402 10242 20018 39789 40205 80002
  333 0//00 58004 85080=
61024 31940 01025 10242 20022 39613 40185 70700
  333 0//00 58002=
61036 31958 71410 10286 20023 39908 40146 70522 80008
  333 0//00 58009 87280=
61043 31914 71014 10260 20008 39710 40153 70722 80008
  333 0//00 59002 87280=
61045 31915 70804 10240 21018 39667 40168 7062/ 80008
  333 0//00 58000 87280=
61049 32960 70808 10255 20022 39844 40166 80008
  333 0//00 58013 87280=
61052 31930 30810 10282 20021 39900 40155 70611 80002
  333 0//00 58010 83080=
61053 31925 71410 10270 21006 39/// 4//// 7062/ 80008
  333 0//00 5//// 87280=
61075 31956 61006 10275 20014 39846 40154 70622 80008
  333 0//00 58004 86280=
61080 31908 71006 10250 21008 39733 40157 70642 80008
  333 0//00 58000 87280=
61085 32960 50808 10260 20038 39817 40246 80002
  333 0//00 58000 85080=
61090 31926 70612 10240 21044 39654 40168 70642 80008
  333 0//00 58003 87280=
61091 31930 70810 10250 20032 39730 40192 7062/ 80008
  333 0//00 58011 87280=
61096 32960 70406 10262 20010 39778 40161 80008
  333 0//00 59001 87280=
61099 31956 70610 10300 20058 39899 40126 70622 80008
  333 0//00 58006 87280=
0000175300
553
SAIR31 OIII 111300
METAR OIAA 111300Z 30010KT 6000 SCT040 BKN100
13/10 Q1017=
METAR OIAG 111300Z 12010KT 9999 SCT030CB SCT035 13/11 Q1017 RESH=
 METAR OIAH 111300Z 00000KT 4000 RA FEW030CB SCT035 OVC070 09/09
 Q1016=
METAR OIAI 111300Z 09002KT 9999 FEW035CB SCT040 OVC080 11/09 Q1015=
 METAR OIAM 111300Z 11010KT 9999 FEW030CB SCT035 OVC080 12/11
 Q1016=
 METAR OIAW 111300Z 14006KT 3000 -RA FEW020CB SCT030 OVC070 12/12
 Q1016=
 METAR OIBA 111300Z 07008KT 3000 -RA FEW025CB FEW030 OVC080 17/15
 Q1018=
 METAR OIBB 111300Z 12014KT 8000 RA FEW025 FEW030CB SCT035 OVC080
 13/10 Q1016 A3001=
 METAR OIBK 111300Z 10016KT 8000 FEW030CB SCT025 OVC090 16/14
 Q1019=
 METAR OIBL 111300Z 06010KT 4000 BR FEW020CB SCT025 OVC080 14/13
 Q1019=
METAR OIBS 111300Z 20012KT 7000 -RA FEW030CB OVC080 ///// Q1019=
 METAR OICC 111300Z 07004KT 4000 BR FEW030CB SCT035 OVC070 00/M00
 Q1018 A3008 TEMPO SN=
 METAR OICI 111300Z 00000KT 8000 FEW015 FEW025CB SCT035 BKN090
 05/05 Q1016 A3002=
 METAR OICJ 111250Z 00000KT 2000 SN FEW030CB SCT035 OVC070 01/M01
 Q1017=
 METAR OICK 111300Z 14004KT 7000 -TSRA FEW010 FEW030CB BKN035
 OVC070 05/04 Q1017=
METAR OICS 111300Z 6002KT 7000 SCT035 BKN080 01/M04 Q1018=
METAR OIFK 111300Z 00000KT 2000 BR BKN020 OVC070 01/00 Q1022=
 METAR OIFM 111300Z 30008KT 0900 -SN BR SCT035 OVC090 01/M01 Q1018
 A3007=
 METAR OIFS 111300Z 00000KT 1000 -SN BR FEW025CB SCT030 OVC070
 M03/M04 Q1018=
METAR OIGG 111300Z 27004KT 3000 BR SCT025 BKN090 09/07
Q1013=
METAR OIGK 111250Z 00000KT 9999 SCT020 OVC080 M01/M06 Q1016=
 METAR OIHH 111300Z 00000KT 2000 BR FEW030CB BKN035 OVC090 M04/M07
 Q1018=
METAR OIHM 111300Z 00000KT 1000 BR SCT035 OVC090 00/M01 Q1017=
0000178100
554
SAIR31 OIII 111300 RRA
 METAR OIIE 111300Z 18004KT 7000 SCT025 FEW035CB SCT045 OVC080
 02/M01 Q1019 A3011 NOSIG=
 METAR OIII 111300Z 26008KT 1000 BR SCT030 OVC090 01/M02 Q1018
 A3008 TEMPO 0500 BR FEW035CB SCT030 BKN100 TEMPO 0500 BR FEW035CB
SCT030 BKN100=
METAR OIIK 111300Z 00000KT 8000 SCT040 BKN090 01/M03 Q1019=
 METAR OIIP 111300Z 00000KT 3000 BR FEW020 SCT035 OVC080 M01/M01
 Q1017=
METAR OIIS 111300Z 09002KT 9999 SCT030 BKN090 04/M02 Q1018=
 METAR OIKB 111300Z 32006KT 7000 -RA FEW025CB SCT030 OVC090 14/10
 Q1021 A3015 NOSIG=
METAR OIKK 111250Z 00000KT 9999 SCT035 BKN100 03/M04 Q1019 A3011=
 METAR OIKO 111250Z 00000KT 6000 -SHRA FEW015 SCT025CB OVC070 16/10
 Q1021=
 METAR OIKQ 111300Z 26008KT 8000 -RA FEW025CB SCT030 BKN090 13/08
 Q1020=
METAR OIMB 111300Z 09012KT 9999 SCT040 BKN090 04/M14 Q1019=
METAR OIMC 111250Z 15012KT 9999 SCT040 SCT180 14/M06 Q1017=
METAR OIMD 111250Z 09006KT 9999 FEW035 BKN100 06/M05 Q1015=
METAR OIMM 111300Z 19004KT CAVOK 08/M12 Q1017 A3004=
METAR OINB 111300Z 06004KT 9999 SCT022 BKN100 10/08 Q1013=
METAR OING 111300Z 29004KT 6000 SCT030 BKN090 10/07 Q1016=
METAR OINK 111300Z 00000KT 8000 FEW035 BKN100 10/05 Q1014=
METAR OINN 111300Z 14004KT CAVOK 11/10 Q1014=
METAR OINR 111300Z 15004KT 8000 FEW045 OVC170 11/07 Q1013=
 METAR OISA 111250Z 27006KT 8000 -SHRA FEW035CB SCT040 OVC090 02/00
 Q1017=
METAR OISF 111250Z 00000KT 8000 FEW035CB SCT040 OVC100 06/02 Q1018=
 METAR OISL 111300Z 00000KT 9999 FEW020 FEW030CB OVC080 09/05
 Q1020=
 METAR OISS 111300Z 14006KT 1200 RA BR FEW030CB SCT035 OVC070 04/03
 Q1019 A3010=
 METAR OISY 111300Z 00000KT 0900 -RA FEW030CB SCT035 OVC080 01/00
 Q1019=
METAR OITL 111250Z 23019KT 9999 SCT090 BKN190 00/M03 Q1015=
0000061000
555
SAIR31 OIII 111300 RRB
 METAR OITR 111300Z 08004KT 2000 HZ FEW035 SCT170 M04/M08 Q1019
 NOSIG=
 METAR OITT 111300Z 29004KT 5000 HZ FEW035 SCT190 M02/M10 Q1019
 A3012=
METAR OITU 111250Z 00000KT 6000 NSC M09/M13 Q1019=
 METAR OIYY 111300Z 33006KT 6000 FEW030CB FEW035 BKN100 07/M02
 Q1019=
METAR OIZB 111300Z 25004KT 9999 FEW035 BKN090 09/M02 Q1023=
METAR OIZC NIL=
 METAR OIZH 111300Z 12014KT 9999 FEW035 BKN090 05/M07 Q1018 A3009
 NOSIG=
METAR OIZI 111300Z 32004KT 9999 FEW020 OVC090 16/M06 Q1019=
 METAR OIZJ 111250Z 00000KT 8000 FEW025CB SCT030 BKN090 19/05
 Q1019=
0000331000
556
USCI04 BABJ 111200
TTAA  11111 56146 99669 04070 22505 50568 16356 25009 40731
30329 24516 30928 47549 26035 25046 51758 27043 20191 54361
25542 15374 57762 26053 10628 595// 25031 88263 53956 26537
88121 625// 27047 77136 26055 31313 63203 81115=
TTAA  11111 56571 99837 11665 36002 70076 04264 20014 50571
16737 27022 40736 24766 27038 30939 37772 25548 25064 41372
25071 20212 52770 25574 15394 617// 25053 10639 719// 26533
88999 77236 25074 31313 63203 81115=
TTAA  11111 57461 99000 04242 29502 92886 00131 34503 85558
03923 01509 70079 09120 33004 50565 15170 26021 40731 24770
25532 30934 39967 25549 25057 42167 25573 20204 53365 26074
15387 609// 25065 10633 715// 26039 88100 715// 26039 77221
25580 31313 63203 81115=
TTAA  11111 57516 99964 05406 09001 92878 03412 08003 85559
00911 ///// 70082 10913 27506 50567 15783 28028 40731 28173
28037 30932 41172 25046 25055 42773 25069 20203 52771 25575
15385 59970 25065 10633 703// 25032 88999 77226 25580 31313
63203 81115=
TTAA  11111 57749 99999 03812 01002 92885 00517 05005 85558
02718 02506 70109 02917 25518 50571 12790 26033 40738 23182
26044 30945 31984 25561 25071 40581 25562 20219 52578 26062
15399 653// 24553 10641 737// 25527 88999 77283 25563 31313
63203 81115=
TTAA  11111 57972 99007 04818 36003 00242 04416 36004 92872
01019 05005 85553 06026 17008 70134 01123 26513 50575 13985
26532 40744 17188 25544 30954 30184 26051 25080 41581 25048
20228 53777 25047 15408 649// 25537 10646 781// 25031 88999
77307 26051 31313 63203 81115=
TTAA  11111 58150 99031 03240 11502 00252 02443 15504 92878
00281 30003 85550 03978 29502 70065 10170 29509 50563 19164
27527 40725 31970 26533 30923 43962 26552 25044 48164 26061
20190 49365 26074 15376 58965 26577 10627 641// 26543 88137
615// 26066 77163 26080 31313 63203 81115=
TTAA  11111 58457 99025 05809 04502 00244 04013 08005 92874
00815 11505 85552 00015 23007 70103 02714 26519 50570 19165
27016 40733 26572 26542 30937 34371 26566 25063 41569 26576
20211 52167 25570 15391 651// 25064 10635 727// 25539 88999
77266 26576 31313 63203 81116=
TTAA  11111 58847 99015 14856 36002 00210 13850 02502 92862
09610 08504 85562 06012 33006 70139 00258 25005 50578 11786
27033 40748 15589 26042 30959 31384 26046 25085 41381 25544
20233 53378 25047 15411 679// 25043 10649 755// 25525 88116
761// 25035 77180 25049 31313 63203 81115=
TTAA  11111 59316 99023 15833 07002 00204 14217 07003 92859
11617 07505 85567 11661 30502 70157 01463 28508 50584 07182
27527 40755 14182 25529 30967 30976 25030 25093 41773 25529
20241 53771 24534 15419 671// 24033 10655 789// 24519 88105
795// 25022 77176 24536 77463 26031 31313 63203 81115=
TTAA  11111 59758 99013 20017 09005 00173 19220 09007 92840
17259 10008 85555 11856 05003 70157 07075 28506 50586 06773
26019 40758 13773 26520 30970 30969 24516 25096 42167 24016
20243 54165 23521 15421 695// 22525 10656 819// 23513 88999
77999 31313 63203 81116=
TTAA  11111 59981 99017 24437 02507 00156 22631 03513 92830
17413 05514 85549 13018 06009 70167 09866 23001 50588 05362
25509 40761 13784 27504 30973 29376 23007 25100 40174 21506
20248 52771 21013 15427 685// 18020 10662 797// 17510 88106
811// 17511 77999 31313 63203 81115=
0000009400
557
SNAA01 KARS 111200 RRA
AAXX 1112/
89879 46/// ///// 10006 39894 4//// 5////=
0000029800
558
SNAA01 KARS 111100 RRG
AAXX 1111/
89866 46/// ///// 11023 39873 4//// 5//// 91140=
89329 46/// ///// 11119 38796 4//// 5//// 91140=
89108 46/// ///// 11209 37008 4//// 5//// 91140=
89799 46/// ///// 11209 4//// 5//// 91130=
89314 46/// ///// 11120 38286 4//// 5//// 91130=
0000036600
559
USPM01 MPCZ 111200
78807 TTAA 61121 78807
99010 23613 34001 00093 23618 33508 92775 21648 01513
85505 16430 02509 70142 09650 12009 50586 06548 20507
40758 12996 10007 30969 32377 33012 25095 42172 29042
20242 55165 29543 15420 689// 00541 10655 789// 05028
88999
77999
31313 48008 81126
51515 10164 00005 10194 01012 06511=



0000009200
560
UECN02 CWAO 111200
TTDD  6112/ 71845 11880 63975 22760 67573 33223 76369=

0000011800
561
UQCN02 CWAO 111200
PPDD  61128 71845 9606/ 28579 28571 97034 28088 28577 28595
9757/ 28585 28104=

00000000