0000014500
322
SSVX05 CWAO 111300
ZZYY 48505 11014 1300/ 783955 123528 6113/ 11119 
11323 49953 57001 444 20130 11014 1300/ 50000 80136 80001=
0000010000
323
SNNO23 ENMI 111300 RRA
AAXX 11131
01180 46/// /1503 11060 21126 30113 40173 54001=
0000010000
324
SNNO24 ENMI 111300 RRA
AAXX 11131
01393 46/// /1102 11164 21184 39209 40060 57006=
0000015100
325
SNNO25 ENMI 111300 RRA
AAXX 11131
01265 46/// /2702 11128 21143 39432 40042 57004=
01469 46/// /3403 11041 21057 39825 40001 54000=
0000010000
326
SNNO26 ENMI 111300 RRA
AAXX 11131
01476 46/// /2307 10046 20016 39970 49976 57008=
0000042200
327
UERE01 FMEE 111200
TTDD 6111/ 61980 11826 777// 22772 747// 33628 759// 44508 727//
55420 621// 66388 625// 77334 561// 88201 559// 99163 489// 11110
449// 22103 465// 33063 335// 21212 11815 10025 22775 14027 33663
08533 44578 09525 55505 07016 66457 11022 77431 09538 88362 08531
99345 10530 11304 06029 22242 06541 33223 08527 44175 09550 55099
09549 66078 09079 77063 06576 31313 47708 81120=
0000030700
328
USKZ11 UAAA 111200
TTAA  11121 38341 99946 00859 18003 00202 ///// ///// 92835
02062 19503 85514 00878 27006 70033 08374 23017 50555 26773
27029 40713 37374 29042 30904 55170 28546 25018 63169 28542
20155 61769 28033 15334 61568 27034 10584 62769 29033 88240
63968 28543 77302 28546=
0000011000
329
UANT01 CWAO 111310
ARP KLM757 4900N01946W 1310 F330 MS56 191/91 KT
PHBQM QXT AOE 111310 F13A
0000011000
330
UANT01 CWAO 111310
ARP UAL80 5159N04352W 1310 F340 MS62 291/72 KT
N14120 DDL IG1 111310 F80A
0000011000
331
UANT01 CWAO 111310
ARP BAW207 4957N03022W 1310 F320 MS48 211/29 KT
GBYGG QXT AOE 111310 F32A
0000032000
332
SSVX08 KARS 111310
ZZYY 48400 10014 12004 750144 144847 6111/
11119 01126 10064 29092
22219 00091
33311 88872 20000 30912 20001 30906 43226
444 20110 10014 1218/ 521// 60401=
ZZYY 48400 11014 12004 750121 144810 6111/
11119 02917 10067 29075
22219 00090
444 20110 11014 1215/ 521// 60401=
0000022400
333
SSVX07 KARS 111310
ZZYY 48733 11014 1240/ 772951 152327 6111/
11119 11255 40016
444 20110 11014 1221/ 504//=
ZZYY 48507 11014 1240/ 773040 134952 6112/
11119 11258 49898
444 20120 11014 1222/ 504//=
0000010400
334
SAIN90 VERC 111300
METAR VERC 111300Z 32005KT 1200 MIFG SCT015 BKN100 14/12 Q1018 NOSIG=
0000446200
335
SNPL40 SOWR 111300
AAXX 11131
12100 41458 82103 10057 20035 30079 40086 58021 71022 885//
  333 91109
  555 57013=
12105 42463 82104 10052 20032 30047 40089 57019 885//
  333 88613
  555 57011=
12115 41459 82306 10056 20038 30065 40079 58017 76062 885//
  333 91011 91111
  555 57011=
12120 41463 82510 10054 20037 30073 40077 58014 76022 885//
  555 57012=
12125 46/// /2305 10054 20031 30033 40084 57014 =
12135 42470 72604 10058 20038 30079 40082 57010 872//
  333 87815 91109
  555 57011=
12160 42470 72207 10041 20032 39867 40094 58008 872//
  555 57003=
12185 42580 72406 10048 20027 39959 40094 58005 8553/
  555 57011=
12195 42580 82606 10041 20026 39865 40093 51001 885//
  555 57007=
12200 41458 72103 10051 20042 30082 40089 58022 78022 873//
  555 57008=
12205 42780 62205 10070 20032 30091 40099 58024 84532
  555 57018=
12210 46/// /2204 10056 20029 30026 40090 57020=
12215 41/// /2304 10045 20026 39932 40103 57016 7////
  =
12230 42570 82303 10057 20022 30020 40110 58020 875//
  555 57019=
12235 42466 72207 10043 20026 39891 40103 57017 875//
  333 87613
  555 57010=
12250 42466 82303 10050 20025 30033 40122 57011 885//
  333 91110
  555 57018=
12270 42463 72505 10045 20022 39938 40121 58009 873//
  333 87915
  555 57010=
12272 42470 72304 10045 20022 39937 40105 57007 875//
  333 87613
  555 57011=
12280 42570 82404 10045 20024 39946 40104 57004 885//
  555 57010=
12285 41/// /9904 10049 20019 30006 40122 57003 700//=
12295 42671 82604 10046 20020 39929 40114 50002 885//
  555 57015=
12300 42782 22603 10071 20026 30026 40116 57023 81541
  555 57017=
12310 42980 12205 10077 20017 30059 40125 57021 81030
  555 57033=
12330 42565 72405 10063 20018 30020 40128 58020 8383/
  555 57021=
12345 42560 62105 10064 20025 39992 40136 57014 82231
  555 57019=
12360 42570 72305 10052 20019 39996 40130 57009 875//
  555 57023=
12375 42570 72503 10060 20009 30007 40138 57010 85232
  333 91110
  555 57027=
12385 42570 82405 10050 20017 39945 40136 57005 885//
  333 91110
  555 57016=
12399 42963 72504 10053 20010 39967 40136 51002 8707/
  333 91110
  555 57024=
12400 42982 52304 10066 20013 39900 40136 57018 85050
  555 57033=
12415 42684 62705 10084 21001 39995 40147 57017 81552
  555 57048=
12418 42580 42305 10070 20015 30025 40139 57020 81250
  555 57034=
12424 42999 22204 10076 20014 39999 40151 57020 81032
  555 57037=
12435 42574 42306 10066 20017 39974 40146 57013 81232
  555 57026=
12455 42678 52505 10066 20007 39908 40154 57017 81138
  555 57031=
12465 42565 52206 10065 20010 39923 40145 58014 84202
  555 57023=
12469 42575 62205 10051 20014 39921 40154 57010 865//
  555 57019=
12488 42577 62504 10057 20010 39994 40150 57009 84508
  555 57024=
12495 42670 72504 10047 20012 39862 40157 58005 86501
  555 57019=
12497 42570 72505 10051 20010 39925 40146 50000 83538
  555 57023=
12500 42984 72405 10064 21022 39738 40156 55014 85048
  555 57047=
12510 41/99 62816 11051 21055 38305 48431 58017 73833 82551
  444 26005
  555 57003=
12520 42582 72204 10051 20007 39735 40172 56017 83548
  333 83624
  555 57019=
12530 42570 62402 10071 20005 39962 40163 58018 81132
  555 57043=
12540 42980 72406 10065 20008 39919 40173 57019 84052
  555 57035=
12550 42670 62503 10069 21008 39802 40161 57014 82236
  555 57040=
12560 42698 62306 10058 21005 39830 40173 56016 81136
  555 57037=
12566 42982 52407 10068 21011 39877 40172 57016 81032
  555 57044=
12570 42570 72503 10060 20003 39843 40162 57012 8685/
  555 57032=
12575 42672 62602 10079 21025 39918 40173 57011 81132
  555 57055=
12580 42780 72304 10070 21009 39914 40174 57010 875//
  555 57039=
12585 42572 62303 10059 20008 39898 40167 57008 81230
  555 57025=
12595 46/70 /2707 10053 20007 39887 40163 57004 =
12600 42670 72403 10058 21016 39691 40176 57015 81508
  555 57044=
12625 42982 72902 10025 21049 39168 42785 57014 82058
  555 57035=
12650 42484 72404 11077 21081 37950 48467 58004 81538
  555 57001=
12660 42584 42405 10072 21037 39819 40179 57013 81108
  555 57060=
12670 42765 51906 10025 21015 39777 40187 58012 82531
  333 91110
  555 57023=
12690 42680 62203 10046 21034 39674 40189 57010 84532
  333 91109
  555 57037=
12695 41/// /2405 10061 21025 39840 40181 57006 700//=
0000091400
336
SNEO40 EEMH 111300
AAXX 11131
26029 27/57 /1701 11002 21007 39967 49996 58006 76786
 333  10004 21010 69967
 555  21010 50008=
26046 27345 83002 11028 21036 39914 40006 53012 77187 88///
 333  11023 21030 60007 88/08
 555  21030 51014=
26124 27119 82001 10000 21001 39969 49999 58008 77187 88///
 333  10003 21004 60017 88/02
 555  1/001 21004 3/001 50006 52101=
26128 27247 82001 10004 20003 39997 40000 58010 77176 88///
 333  10019 20004 69997 88/04
 555  1/001 20004 3/000 50018=
26145 27484 83101 11017 21037 39966 40006 50007 72480 88///
 333  11010 21020 60007 88/13
 555  1/101 21020 3/101 51005 52102=
26233 27256 72302 10001 21006 39902 40009 50002 77177 87///
 333  10002 21009 60007 87/06
 555  1/001 21009 3/100 50006 52101=
26249 27359 82702 10003 21009 39912 40014 51010 77187 88///
 333  10005 21003 60007 88/09 91111
 555  1/001 21003 3/000 50012 52101=
0000015100
337
SNVF20 EHDB 111300
BBXX
PJKV 11133 99476 70144 41396 71532 10113 20089 40104 55005 76186
8672/ 22224 04135 20605 331// 41206 80101=
0000043700
338
UKKZ11 UAAA 111200
TTBB  11123 38341 00946 00859 11900 05078 22884 03879 33761
06773 44681 09777 55643 13380 66579 19360 77569 20561 88483
28774 99392 38374 11366 43772 22281 58969 33240 63968 44175
60769 55100 62769 21212 00946 18003 11925 19503 22900 23003
33850 27006 44732 23010 55703 22516 66689 23521 77609 26022
88381 29043 99357 28544 11230 28544 22202 28032 33104 29033
31313 52716 81133 41414 22600=
0000016000
339
SSVX02 LFVW 111312
ZZYY 41649 11014 1303/ 733880 031695 6111/
22219 00199
33311 88872 20000 31993 43634
444 2011/ 11014 1207/ 50101 9/015=
0000036200
340
SXXX32 EUMS 111306
12FFB3C8
:PRS 1 /1 M 3067 3063 3074 3080 3090 3098 3104 3095 3092 3085 3089 3093 3081 3078 3072 3077 3080 3081 3088 3081 3081 3082 3075 3083 3083 3065 3078 3076 3075 :RAD 1 /3 6018 6030 6026 6022 6016 6020 6018 6017 6018 6025 :ENC 1 /5 -144 -144 -144 -144 -144 -144 :SW1 6 /60 0 :SW2 36 /60 16 :BAT 14 /15 13.9 :NAME 12FFB3C8
0000070100
341
SXXX32 EUMS 111306 RRA
22E7E6D2
OT12 ID:ID-ROTE-11 DT:2014 01 11 13 04
:PRS /1 -10789 -10294 -10782 -10782 -10759 -10760 -10761 -10760 -10788 -10785 -10791 -10791 -10789 -10787 -10787 -10789 -10289 -10779 -10787 -10756 -10756 -10759 -10758 -10790 -10787 -10785 -10/05)/15786 -10785 -10785
:PR2 /1 04684 04679 04671 04639 04660 04673 04650 04652 04662 04641 04632 04654 04651 04601 04654 04647 04631 04611 04632 04612 04619 04585 04593 04619 04626 04585 04615 04591 04582 04606
:RAD /1 06254 06250 06262 06250 06206 06206 06218 06230 06210 06238 06214 06210 06202 06214 06206 06198 06198 06170 06181 06238 06150 06158 06162 06190 06174 06214 06190 06198 06182 06166
:BAT 12.2V
00000000