0000011100
082
UANT01 CWAO 111326
ARP DAL241 5107N02336W 1326 F330 MS58 191/82 KT
N176DN QXT AOE 111326 F54A
0000011000
083
UANT01 CWAO 111326
ARP DLH400 5406N02338W 1326 F340 MS61 205/68 KT
DABTL QXT EUA 111326 F17A
0000013700
084
UAPA01 KWBC 111327
ARP ASA898 3500N 14221W 1321 F340 MS54 275/059KT=
ARP WJA1853 3925N 13458W 1321 F360 MS54 264/088KT=
0000011100
085
UANT01 CWAO 111327
ARP RCH317 5001N03952W 1326 F340 MS60 319/51 KT
88196A DDL XXN 111327 F94A
0000011100
086
UANT01 CWAO 111327
ARP BER7346 4801N01920W 1326 F390 MS56 221/68 KT
DABXC QXT AOE 111327 J75A
0000011000
087
UANT01 CWAO 111327
ARP DAL91 5358N03038W 1326 F360 MS59 182/51 KT
N1501P QXT AOE 111327 F38A
0000010200
088
SAIN90 VEPT 111320
METAR VEPT 111320Z 10005KT 1500 BR SCT015 SCT100 15/14 Q1016 NOSIG=
0000009600
089
SAIN31 VABB 111240 RRA
METAR VAAH 111240Z 04004KT 3000 FU NSC 20/10 Q1016 NOSIG=
0000027400
090
UGIN90 VIDP 111200
PPBB 61122 42182 90023 31501 31501 32008 90456 31511 31521 32022
     90789 33024 33533 32537 91012 31029 31030 32035 91345 32545
     32044 32035 91678 32535 32540 32543 919// 32563 92024 33083
     32589 31591 9268/ 31093 30095=

0000008600
091
SAIN90 VOMD 111330
METAR VOMD 111330Z 11006KT 6000 FEW020 28/17 Q1013=
0000018600
092
FCIN90 VILK 111200
TAF VIBN 111200Z 1115/1124 VRB02KT 0800 MIFG/FU SCT020 BKN100 BECMG
1118/1120 0200 FG VV/// TEMPO 1115/1124 1000 RA/TSRA BKN020 FEW030CB
OVC090=

0000013400
093
WSCH31 SCIP 111322
SCIZ SIGMET 4 VALID 111322/111430 SCIP-
SCIZ ISLA DE PASCUA FIR CNL SIGMET 3 VALID 111030/111430=
0000080300
094
SNPO41 LPMG 111300
AAXX 11131
08533 42/// /36// 1//// 2//// 3//// 4//// 5////
555 60005=
08535 NIL=
08541 42/// /2403 10155 20119 30065 40183 57004
333  91105
555 60005=
08545 NIL=
08548 42/// /9901 10128 20115 39977 40181 57008
555 60005=
08554 42/// /0805 10177 20132 30174 40183 57006
333  91108
555 60005=
08560 42/// /36// 10125 20066 39425 40174 57001
555 60005=
08562 42/// /36// 1//// 2//// 3//// 4//// 5////
555 60005=
08567 42/// /9901 10076 20072 39524 40193 57004
555 60005=
08568 42/// /36// 1//// 2//// 3//// 4//// 5////
555 60005=
08570 42/// /0602 10126 20072 39726 40182 57006
555 60005=
08571 NIL=
08575 42/// /1602 10113 20063 39376 40180 57009
555 60005=
08579 42/// /0602 10094 20092 30059 40186 57001
555 60005=
0000032200
095
UECN06 CWAO 111200 COR
TTDD 6112/ 71964
11468 58773 22375 56774 33334 60174 44299 57173 55280 59974
66232 61775 77160 57578 88154 58178 99141 54782 11136 50383
22117 46185 33113 47584 44105 41986 55078 46185 66066 43786
77064 38787 88054 39587
51515 10190 05483=








NNNN

0000023600
096
ULCN06 CWAO 111200 COR
TTCC 61121 71964
70778 56573 29583 50992 57773 30100 30314 57173 31117 20567
59177 31649 10015 43786 33725 07254 45385 33230
88280 59974 31131
77067 33235=








NNNN

0000018400
097
UQCN06 CWAO 111200 COR
PPDD 61128 71964
9705/ 30104 31113 9879/ 32166 32151 9909/ 32157 33726 1007/
33720 33235 1102/ 33731 33718=








NNNN

0000027700
098
SAPK31 OPKC 111330
METAR OPGD 111330Z NIL=
METAR OPKC 111325Z 07006KT 7000 SCT200 19/M06 Q1020 NOSIG=
METAR OPLA 111325Z 00000KT 5000 FU NSC 16/06 Q1020=
METAR OPNH 111330Z NIL=
METAR OPPS 111330Z NIL=
METAR OPRN 111330Z NIL=
METAR OPSK 111330Z NIL=
0000043500
099
SNVB20 RJTD 111300
BBXX
JGQH    11134 99304 11370
46/// /3013 10127 20013 40272 58001 8////
22241 00190 10703 70015=
JPBN    11134 99252 11290
46/// /0714 10181 20081 40264 52011 8////
22271 00236 1//03 70017=
JGQH    11134 99304 11370
46/// /3013 10127 20013 40272 58001 8////
22241 00190 10703 70015=
JPBN    11134 99252 11290
46/// /0714 10181 20081 40264 52011 8////
22271 00236 1//03 70017=
0000024100
100
SOAT10 KWAL 111328
FA8005BC 011132837 OT12 ID:KN-BASS-01 DT:2014 01 11 13 26
:RD -3064 -3062 -3075 -3042 -3071 -3050 -3069 -3064 -3105 -3077
:PR 0661 0632 0638 0639 0525 0580 0588 0660 0602 0630
:B 13.7V
 46+1NN 219E
0000013600
101
SNVD17 CWVR 111300
BBXX
46204 11131 99514 71288 46/// /1806 10076 49825 57012
22200 0//// 10905 70023 333 91208 =

00000000