0000760900
942
SNVF21 EGRR 111300
BBXX
64045 11134 99591 70117 46/// /2516 10064 21004 40105 51023 22200
00098 10809 70045=
62105 11134 99550 70132 46/// /1711 10083 20007 40147 50002 22200
00108 10908 70038=
62107 11134 99501 70061 46/// /1209 10095 20038 40211 58001 22200
00105 11005 70026=
62301 11134 99524 70047 46/// /2804 10072 20014 40209 52008 22200
00096 10503 70014=
62163 11134 99475 70084 46/// /1219 10109 20092 40183 57013 22200
00121 10706 70028 333 90710 91127=
62001 11134 99452 70050 46/// /0909 10118 20070 40207 58008 22200
00127 10904 70021=
62304 11134 99512 10018 46/98 /3321 10078 40195 51027 22200 10501
70006 333 90710 91129=
62103 11134 99499 70029 46/99 /0208 10089 20030 40217 50005 22200
00111 10803 70014=
62134 11134 99580 10014 47596 /3025 10058 20015 40058 51010 700// 22200 10606 70030=
62114 11134 99583 10000 46/// /3030 10036 20007 40059 52013 22200=
ZQSD5 11134 99583 10008 47497 ///// 10049 20027 40052 52013 761// 22200 1//08 70038=
62113 11134 99584 10002 47498 /2925 10049 20010 40064 52012 700// 22200=
62129 11134 99584 10003 46/// /2926 10047 20011 40060 52014 22200=
62128 11134 99587 10014 47598 /2823 10051 20014 40045 52007 700// 22200 10707 70034=
63057 11134 99592 10015 47498 /2820 10058 20014 40024 51012 700// 22200 10706 70031=
MQSY9 11134 99593 10015 47498 /2826 10061 20020 51011 700// 22200=
63110 11134 99595 10015 47598 /2923 10066 20025 40024 51011 700// 22200 10706 70030=
63109 11134 99596 10015 46/// /3026 10062 20023 40012 51010 22200=
63056 11134 99597 10016 47598 /2925 10063 20010 40011 52009 700// 22200 10606 70032=
63115 11134 99616 10013 47598 /1105 10029 21015 49997 51004 700// 22200 10806 70029=
63114 11134 99613 10017 47599 /1002 10029 21026 49999 51007 700// 22200=
62102 11134 99579 10018 46/// /2926 10066 20004 40051 51007 22200 10606 70029=
63117 11134 99613 10011 47498 /1306 49999 51002 767// 22200=
63104 11134 99612 10016 47598 /1203 10025 21017 40001 51009 700// 22200 10806 70028=
63103 11134 99612 10011 46/// ///// 10027 20004 49988 50003 22200 10806 70029=
63101 11134 99612 10009 46/// /1408 10033 20009 49996 50002 22200 10806 70031=
63107 11134 99611 10017 46/// /1303 10033 40000 51011 22200=
63112 11134 99611 10010 47998 /1605 10040 20015 49994 50005 700// 22200 10706 70030=
63113 11134 99610 10017 46/// /1103 10060 20008 40001 51011 22200 10706 70028=
63105 11134 99610 10017 47598 /1103 10029 21019 40001 51010 700// 22200=
63106 11134 99610 10017 46/// /1304 10034 51011 22200=
63108 11134 99608 10017 47/99 /1702 10036 20011 49999 51014 762// 22200 10706 70028=
63055 11134 99606 10016 47496 /2804 10045 20014 40000 51013 762// 22200 10705 70026=
62112 11134 99584 70002 47498 /2815 10055 20014 40067 53018 700// 22200=
PJAI 11134 99581 70014 47598 /2823 10062 21002 40080 52016 700// 22200=
62111 11134 99580 70003 46/// /2929 10057 20009 40090 52014 22200 10605 70027=
64041 11134 99607 70026 47497 /2730 40019 51012 700// 22200 10909 70045=
62142 11134 99530 10021 47997 /2920 10066 20035 40157 52021 700// 22200 10403 70016=
62145 11134 99531 10028 47498 /2819 10066 20013 40162 52022 700// 22200 10403 70016=
62144 11134 99534 10017 47998 /2820 10062 20014 40168 51023 700// 22200 10503 70016=
62121 11134 99535 10027 46/// ///// 10067 20017 40142 52019 22200=
62150 11134 99536 10007 47998 /2720 10062 20018 40172 51017 700// 22200 10503 70014=
62148 11134 99536 10015 46/// ///// 22200=
62149 11134 99537 10011 47998 /2920 10088 20017 40159 52015 700// 22200 10503 70015=
62131 11134 99539 10012 46/// /2915 10065 20015 40150 51015 22200=
62127 11134 99540 10007 47999 ///// 10061 20003 40153 51013 700// 22200 10503 70017=
62165 11134 99540 10011 47998 /2820 10062 20017 40154 51013 700// 22200 10504 70018=
MWYG6 11134 99603 70040 47698 /2729 40041 51014 700// 22200=
62123 11134 99563 10022 47598 /3024 10058 20010 40083 51006 700// 22200 1//05 70026=
62132 11134 99564 10020 46/// /2724 10062 21002 40101 52013 22200=
62120 11134 99564 10021 47598 /3026 10057 20003 40083 51008 700// 22200=
62154 11134 99564 10022 46/// /3020 10056 20001 40081 51006 22200=
62152 11134 99570 10018 47698 /2919 10054 20007 40085 52010 700// 22200 10605 70027=
62119 11134 99570 10019 47598 /2926 10061 20008 40084 52011 700// 22200 10605 70025=
62133 11134 99571 10009 46/// /2923 40081 52010 22200 10605 70026=
62164 11134 99572 10008 47598 /2823 10064 20016 40081 52011 700// 22200 00084 10606 70029=
62146 11134 99572 10021 47497 /2809 10042 20004 40076 51009 762// 22200 10605 70026=
62140 11134 99573 10013 46/// ///23 10055 20008 40074 51009 22200=
62122 11134 99573 10016 47598 /2928 10060 20012 40073 52009 700// 22200 10605 70027=
62153 11134 99573 10020 47498 /2916 40069 53010 762// 22200 10605 70026=
62104 11134 99574 10013 47598 /2926 10066 20015 40068 52009 700// 22200=
62116 11134 99576 10011 47598 /2926 10053 20008 40066 51011 700// 22200 10605 70027=
62155 11134 99577 10007 47498 /2927 10058 20011 40077 52011 762// 22200 10606 70030=
62118 11134 99577 10009 47598 /2926 10057 20012 40067 52013 700// 22200 10706 70030=
62143 11134 99577 10018 47698 /3113 10059 20011 40077 51013 700// 22200 10605 70027=
62117 11134 99579 10000 47598 /2826 10059 20008 40061 51013 700// 22200 10605 70026=
AMOUK05 1113/ 99519 10041 46/// ///// 10081 20053 40161=
AMOUK06 1113/ 99510 10012 46/// ///// 10093 20072 40198=
AMOUK14 1113/ 99533 70062 46/// ///// 10081 21008 40200=
AMOUK13 1113/ 99512 10016 46/// ///// 10118 20047 40193=
AMOUK23 1113/ 99577 70023 46/// ///// 10049 20006 40096=
AMOUK24 1113/ 99571 70072 46/// ///// 10068 20015 40119=
AMOUK45 1113/ 99509 70014 46/// ///// 10083 20008 40198 22200   401980104=
AMOUK32 1113/ 99559 70047 46/// ///// 10059 20016 40154=
AMOUK29 1113/ 99506 70081 46/// ///// 1//// 2//// 40196=
AMOUK30 1113/ 99566 70065 46/// ///// 10071 20000 40144=
AMOUK31 1113/ 99558 70055 46/// ///// 10076 20031 40163=
AMOUK43 1113/ 99544 70044 46/// ///// 10063 20029 40176=
AMOUK02 1113/ 99536 70046 46/// ///// 10069 20027 40194=
AMOUK03 1113/ 99537 70003 46/// ///// 10072 20024 40161=
AMOUK04 1113/ 99536 70045 46/// ///// 10072 20026 40189=
AMOUK28 1113/ 99577 70065 46/// ///// 1//// 2//// 40125=
AMOUK44 1113/ 99544 70043 46/// ///// 1//// 2//// 40184=
AMOUK34 1113/ 99516 10024 46/// ///// 10083 20031 40172=
AMOUK11 1113/ 99533 70046 46/// ///// 10073 20022=
AMOUK09 1113/ 99517 10017 46/// ///// 10076 20073 40189=
AMOUK42 1113/ 99506 70025 46/// ///// 10113 20036 40213=
AMOUK26 1113/ 99500 70020 46/// ///// 10095 20033 40212=
AMOUK33 1113/ 99555 10084 46/// ///// 10066 20040 40053=
AMOUK36 1113/ 99581 70014 46/// ///// 10057 20008 40086=
62169 11134 99614 10014 41498 71011 10025 20025 49975 53015 70222
8/7// 22200 20606 305// 40905 5//// 80025=
62023 11133 99514 70079 46/97 /1411 10086 2//// 4//// 5////
22200 10804 70021 555 70037 80011=
62305 11134 99504 70000 46/// /3011 10083 20038 40211 51019 22200
00110 10601 70007=
62304 11134 99512 10018 46/98 /3321 10078 20026 40195 51027 22200
00103 10501 70006 333 90710 91129=
62081 11134 99521 70105 46/// /1310 10073 20034 40177 58005 22200
10806 70029=
62050 11134 99500 70044 46/// /1205 10098 20035 40211 22200 10602
70011=
64046 11134 99605 70042 46/// /2925 10066 20019 40033 333 90710 91133=
62303 11134 99516 70051 46/// /3504 10078 20011 40209 22200 10603
70014=
62095 11134 99529 70156 46/// /1725 10097 20051 40111 58017 22200
00100 10807 70036 333 90710 91134=
0000026100
943
SNVF21 EGRR 111300 RRA
BBXX
62170 11134 99514 10020 46/98 /2920 10081 20038 40193 51030 22200
00106 10501 70005 333 90710 91127=
ZCEF2 11134 99492 70078 41798 41228 10100 20044 40193 58016 70300
8404/ 22254 00110 20802 327// 41007 80075=
0000014600
944
SNVD20 KWNB 111300 RRJ
BBXX
44040 11131 99410 70736 46/// /1709 10110 20110 91245 22200 10201
70004 333 91212 555 11108 22129=
0000023300
945
SNVD17 KWNB 111300 RRI
BBXX
51206 11131 99198 71550 46/// ///// 1//// 91303 22200 00248 10905
20904 334// 41302 70024=
46114 11131 99367 71223 46/// ///// 1//// 91308 22200 00126 11307
20903 331// 41306 70033=
0000066100
946
UDAF01 FAPR 111322
AMDAR 1113
ASC AFZA44 2553S 02833E 111217 F156 MS024 213/002 TB0 S031 333 F/// VG010=
LVR AFZA44 2540S 02855E 111221 F217 MS137 288/023 TB0 S031 333 F/// VG009=
LVR AFZA44 2507S 02936E 111228 F301 MS297 279/030 TB0 S031 333 F/// VG009=
LVR AFZA44 2430S 03020E 111235 F389 MS522 281/026 TB0 S031 333 F/// VG009=
LVR AFZA44 2353S 03103E 111242 F390 MS529 281/020 TB0 S031 333 F/// VG010=
LVR AFZA44 2316S 03143E 111249 F390 MS532 306/010 TB0 S031 333 F/// VG010=
LVR AFZA44 2236S 03218E 111256 F390 MS532 199/003 TB0 S031 333 F/// VG010=
LVR AFZA44 2155S 03255E 111303 F390 MS525 179/005 TB0 S031 333 F/// VG010=
0000032800
947
SNVD22 KWNB 111300 RRO
BBXX
46215 11131 99352 71209 46/// ///// 1//// 91305 22200 00131 11204
21002 327// 41204 70022=
46219 11131 99332 71199 46/// ///// 1//// 91310 22200 00142 11305
21003 330// 41304 70025=
46211 11131 99469 71242 46/// ///// 1//// 91313 22200 00084 11008
21006 323// 41106 70042=
0000040500
948
SNVD15 KWNB 111300 RRL
BBXX
44100 11131 99363 70756 46/// ///// 1//// 91304 22200 00090 10804
20804 312// 41101 70019=
44095 11131 99358 70753 46/// ///// 1//// 91317 22200 00133 10805
20805 313// 41101 70026=
41115 11131 99184 70673 46/// ///// 1//// 91311 22200 10802 20802
301// 41201 70011=
41113 11131 99284 70805 46/// ///// 1//// 91310 22200 00180 10802
20802 70010=
0000032800
949
SNVE15 KWNB 111300 RRD
BBXX
51208 11131 99223 71596 46/// ///// 1//// 91307 22200 00242 11008
21006 335// 41105 70040=
51203 11131 99208 71570 46/// ///// 1//// 91310 22200 00254 11102
20901 329// 41101 70008=
51202 11131 99214 71577 46/// ///// 1//// 91307 22200 00245 11106
21005 300// 41103 70031=
0000060300
950
UDAS02 BABJ 111315
AMDAR 1113
DES CNFLWT 2713N 10737E 111313 F250 MS261 255/085 TB/ S//1=
DES CNFNZK 3029N 12137E 111311 F126 MS078 258/045 TB/ S//1=
DES CNFNZK 3026N 12132E 111312 F116 MS058 259/042 TB/ S//1=
DES CNFNZK 3025N 12130E 111313 F110 MS045 265/039 TB/ S//1=
DES CNFNZK 3024N 12128E 111313 F105 MS040 269/038 TB/ S//1=
LVR CNFPYN 3332N 11406E 111313 F207 MS240 249/040 TB/ S//1=
ASC CNFPYN 3328N 11407E 111313 F213 MS251 253/042 TB/ S//1=
ASC CNFPYN 3326N 11408E 111314 F222 MS270 247/045 TB/ S//1=
ASC CNFPYN 3324N 11408E 111314 F228 MS283 242/047 TB/ S//1=
0000044500
951
SXXX32 EUMS 111318
22856700
:PRS 1 /1 3701 3697 3704 3715 3716 3712 3713 3722 3726 3730 3736 3739 3735 3739 3736 3739 3749 3754 3757 3766 3763 3764 3771 3777 3784 3788 3784 3785 3799 3798 :RAD 1 /3 7214 7224 7236 7245 7252 7265 7277 7288 7298 7308 7317 7326 7332 7343 7352 7360 7369 7378 7385 7388 :ENC 3 /5 5412 5432 5442 5461 5482 5497 5513 5522 5541 5555 5574 5580 :SW1 18 /60 0 :SW2 48 /60 0 :BAT 14 /15 12.5 :NAME 22856700
0000045100
952
SXXX32 EUMS 111318 RRA
32D8A2BE
:PRS 1 /1 1711 1713 1704 1711 1705 1707 1696 1711 1698 1701 1696 1700 1696 1691 1694 1690 1687 1693 1695 1687 1684 1690 1686 1682 1681 1684 1679 1671 1684 1674 :RAD 1 /3 7281 7276 7274 7270 7270 7267 7266 7258 7254 7253 7249 7243 7246 7245 7243 7237 7229 7224 7223 7223 :ENC 3 /5 4715 4707 4702 4695 4688 4683 4678 4677 4674 4669 4661 4659 :SW1 18 /60 60 :SW2 48 /60 60 :BAT 14 /15 12.9 :NAME 32D8A2BE
0000047700
953
SXXX32 EUMS 111319
262AD2C2
OT12 ID:PK-ORMA-10 DT:2014 01 11 13 18
:PRS /1 07666 07660 07679 07679 07680 07692 07699 07690 07722 07709 07720 07744 07762 07763 07777 07757 07801 07789 07785 07801 07799 07806 07826 07823 07830 07841 07822 07828 07830 07835
:RAD /1 ///// ///// ///// ///// ///// ///// ///// ///// ///// ///// ///// ///// ///// ///// ///// ///// ///// ///// ///// ///// ///// ///// ///// ///// ///// ///// ///// ///// ///// /////
:BAT 12.9V
0000036300
954
SXXX32 EUMS 111321
12FFB3C8
:PRS 1 /1 M 3033 3025 3033 3032 3035 3035 3035 3043 3051 3054 3051 3046 3051 3057 3069 3067 3063 3074 3080 3090 3098 3104 3095 3092 3085 3089 3093 3081 3078 :RAD 1 /3 5972 5979 5989 5996 6008 6018 6030 6026 6022 6016 :ENC 1 /5 -144 -144 -144 -144 -144 -144 :SW1 21 /60 0 :SW2 51 /60 16 :BAT 14 /15 13.9 :NAME 12FFB3C8
0000070100
955
SXXX32 EUMS 111321 RRA
22E7E6D2
OT12 ID:ID-ROTE-11 DT:2014 01 11 13 19
:PRS /1 -10789 -10289 -10779 -10787 -10756 -10756 -10759 -10758 -10790 -10787 -10785 -10785 -10786 -10785 -10785 -10783 -10284 -10779 -10786 -10755 -10755 -10754 -10755 -10779 -10784 -10782 -10787 -10780 -10781 -10782
:PR2 /1 04647 04631 04611 04632 04612 04619 04585 04593 04619 04626 04585 04615 04591 04582 04606 04586 04543 04575 04547 04587 04568 04568 04553 04550 04568 04549 04524 04505 04529 04523
:RAD /1 06198 06198 06170 06181 06238 06150 06158 06162 06190 06174 06214 06190 06198 06182 06166 06134 06166 06110 06117 06085 06122 06146 06122 06118 06125 06110 06130 06106 06062 06093
:BAT 12.4V
0000066700
956
SXXX32 EUMS 111322
32CC9580
OT12 ID:ID-ENGG-07 DT:2014 01 11 13 21
:PRS /1 01454 01456 01447 01448 01449 01418 01468 01437 01470 01428 01436 01445 01406 01450 01397 01411 01389 01400 01376 01401 01421 01397 01401 01408 01448 01404 01405 01418 01404 01391
:PR2 /1 04866 04900 04910 04886 04877 04845 04895 04880 04842 04869 04858 04876 04864 04870 04847 04853 04845 04854 04835 04852 04849 04841 04822 04841 04849 04835 04831 04850 04833 04812
:RAD /1 05768 05777 05776 05770 05772 05742 05775 05771 05750 05763 05753 05756 05758 05751 05746 05728 05729 05744 05723 05730 05741 05729 05704 05725 05740 05726 05720 05712 05736 05701
:BAT 12.4V
0000014800
957
SNAL51 DAMM 111300 RRB
AAXX 11131
60373 46/// /2801 10188 20077=
60623 46/// /0000 10240 21196=
60393 46/// /0000 10190 20069=
0000077500
958
SNAL50 DAMM 111300
AAXX 11134
60612 46/// /0000 10199 21026=
60617 NIL=
60619 46/// /1612 10214 21035=
60621 46/// /1824 10250 21038=
60633 46/// /0711 10223 21026=
60650 NIL=
60660 46/// /1708 10251 21065=
60661 46/// /2304 10218 21088=
60662 46/// /0000 10218 21171=
60663 46/// ///03 10234 21094=
60664 46/// /0000 10172 21026=
60667 46/// /0000 10207 21026=
60672 46/// /0000 10222 21110=
60673 NIL=
60674 NIL=
60675 NIL=
60676 NIL=
60677 46/// /0000 10196 21049=
60679 46/// /3506 10138 21167=
60681 NIL=
60682 46/// /0000 10205 21086=
60683 NIL=
60685 NIL=
60688 NIL=
60689 NIL=
60691 46/// /0000 10236 21049=
60692 46/// ///04 10245 21026=
60693 NIL=
60694 NIL=
60695 46/// /1509 10224 21026=
0000014200
959
UANT01 CWAO 111323
ARP AFR682 4959N03056W 1323 F350 4902N04001W 1410 4602N05001W MS49
 194/27 KT
FGSPP QXT AOE 111323 F23A
0000011000
960
UANT01 CWAO 111323
ARP AAL63 4703N03947W 1323 F320 MS58 330/61 KT
N371AA DDL XXN 111323 F54A
0000017700
961
ULKZ12 UAAA 111200
TTCC  11121 36872 70802 59960 25536 50011 63162 24039 30329
59764 22555 20588 49166 22061 10052 42372 20053 88535 62562
24035 77227 21064=
00000000