0000011000
242
UANT01 CWAO 111308
ARP DAL91 5405N02649W 1308 F360 MS64 188/70 KT
N1501P QXT AOE 111308 F31A
0000012800
243
SSVX13 LFVW 111309
ZZYY 16551 11014 1300/ 321914 060366 6113/
11119 40162 57001
444 50101 80074 80000 9/015=
0000028800
244
SSVX02 LFVW 111309
ZZYY 41652 11014 1121/ 724043 037279 6113/
22219 00235
33311 88872 20000 32350 43599
444 2013/ 11014 1116/ 50101 9/015=
ZZYY 41648 11014 1121/ 725632 043582 6112/
22219 00233
33311 88872 20000 32333 43740
444 2012/ 11014 1116/ 50101 9/015=
0000028200
245
SMVD01 PANC 111200 RRI
BBXX
3FNX5 11123 99284 70881
41293 82124 10225 20210 40137 57009 70222 8/6//
22200 00229 20402 80215=
WHKM 11124 99366 31037
41196 80213 10220 20190 40150 57020 78142 889//
22233 0//// 20301 316// 40804 5//// 6//// 80200 ICE /////=
0000014500
246
SSVX13 LFPW 111300
ZZYY 26556 11014 1300/ 778926 014038 6113/ 11119 40012 52004 444
 20130 11014 1200/ 50101 80130 80002 9/015=
0000011800
247
SNVF25 LFPW 111300
BBXX
BATUK01 11134 99576 70061 43/// /2509 10064 21008 40122 51025
22241 04094=
0000009500
248
SAIN90 VOHS 111310
METAR VOHS 111310Z 10005KT 5000 HZ SCT020 24/14 Q1016 NOSIG=
0000025700
249
SAIN34 VOMM 111300
METAR VOBL 111300Z 12003KT CAVOK 28/13 Q1017 NOSIG=
METAR VOCI 111300Z 25004KT 4000 HZ NSC 27/21 Q1010 NOSIG=
METAR VOCL 111300Z 29006KT 6000 NSC 29/22 Q1011 NOSIG=
METAR VOMD 111300Z 10003KT 6000 FEW020 29/16 Q1012=
0000051800
250
SNSP20 LEMM 111300
AAXX 11134
08045 46/// /1904 10127 20085 39871 40178 58005
  555 60005=
08181 47/70 /0509 10138 20113 30191 40198 57011 76166
  555 60005=
08221 42660 62702 10121 20067 39509 40187 58009 82037
  555 60005=
08284 46/// /0000 10137 20075 30116 40191 5////
  555 60005=
08306 46/// /0803 10163 20132 30172 40178 58015
  555 60005=
08314 42360 81206 10153 20134 30079 40181 5//// 8657/
  555 60005=
08482 46/// /2904 10154 20118 30184 40192 58010
  555 60005=
0000025200
251
SNBX42 EBUM 111300
AAXX 11131
06414 46/// /3107 10082 20055 30149 40182 53017 333   91111 91208=
06459 46/// /2707 10066 20066 39989 40183 53002 333   91109 91207=
06494 46/// /2606 10043 20039 39367 40170 58002 333   91111 91207=
0000066000
252
SNBX43 EBUM 111300
AAXX 11131
06418 46/// /3208 10084 20060 30167 40179 51023 333   91112 91208=
06434 46/// /2804 10080 20063 30163 40183 53010 333   91107 91205=
06439 46/// /2505 10074 20052 30162 40176 52006 333   91108 91205=
06447 41395 82504 10063 20050 30051 40177 51007 72162 875// 333
91108 91205=
06455 46/// /2305 10096 20056 39886 40168 54000 333   91108 91205=
06464 46/// /2605 10068 20068 30132 40160 51005 333   91108 91205=
06472 46/// ///// 10081 20067 39824 40183 50001=
06477 46/// /2505 10077 20053 30117 40167 55001 333   91109 91206=
06484 46/// /2403 10060 20060 39798 40194 51003 333   91105 91203=
0000032200
253
SNMK10 LYPG 111300
AAXX 11131
13463 42570 62501 10147 20070 30166 40225 57020 83832=
13459 42670 61403 10110 20090 39464 40224 57018 82234 333 82895 85399
=
13461 42670 62502 10161 20109 30225 40232 57011 84802 333 82840 83656
92312 92428=
13363 42670 31802 10118 20040 39304 48538 57019 81101=
0000032200
254
USFR01 LFPW 111200 RRA
TTAA 61121 07110 99010 09236 06006 00180 08436 06007 92819 05671
07518 85505 01456 31506 70054 04992 11507 50560 23983 25013 40719
37364 27530 30911 515// 28046 25027 599// 28538 20167 585// 28045
15351 533// 25028 10611 553// 24527 88251 599// 28538 77999 31313
47708 81138=
0000056800
255
UKFR01 LFPW 111200 RRA
TTBB 61128 07110 00010 09236 11964 05639 22940 06478 33841 00845
44821 00357 55796 00960 66782 01094 77762 00894 88659 08991 99552
17993 11504 23392 22439 31558 33382 40168 44251 599// 55182 579//
66169 525// 77102 553// 21212 00010 06006 11923 07518 22878 00000
33816 26013 44779 02507 55638 19507 66582 28508 77538 23508 88433
27023 99321 27550 11252 28537 22237 25545 33197 28045 44183 25538
55170 28029 66151 25028 77124 26532 88113 24026 31313 47708 81138
41414 00901 51515 11894 02506 22800 31510 33600 25508=
0000014200
256
ULFR01 LFPW 111200 RRA
TTCC 61123 07110 70840 529// 26022 50058 509// 25529 30390 505//
28524 88999 77999 31313 47708 81138=
0000021000
257
UQCN06 CWAO 111200
PPDD  61128 71109 95368 25543 28050 26551 96012 27561 26560
27565 96379 29565 29549 32051 9707/ 32052 30072 989// 32607
99068 32607 33155 34160 10069 34676 34196 34185=

0000021600
258
UECN06 CWAO 111200
TTDD  6112/ 71109 11979 56774 22931 56975 33887 55576 44723
57775 55627 54976 66343 59974 77234 57375 88157 65972 99129
63773 11113 53774 22097 46583 33083 49381 44066 45585=

0000019800
259
ULCN06 CWAO 111200
TTCC  61121 71109 70816 56576 27061 50030 56774 29549 30351
59573 30575 20606 61173 32100 10037 47181 34671 07273 46585
34191 88979 56774 26040 77075 34196=

0000010300
260
SNVX22 EDZW 111300 RRA
SATLINK DATA BUFFER EMPTY NSB III 62087 TIME 2014/01/11 13:01:17
0000014000
261
SMMS31 WMKK 111200 CCA
AAXX 11124
48674 11560 73509 10258 20241 30062 40112 60061 70582 82535 333 10281 82624 84364 85077=
00000000