0000010000
422
SMAA01 KARS 111200 RRE
AAXX 1112/
89828 46/// ///// 11239 36542 4//// 5//// 91240=
0000039900
423
SMAA01 KARS 111300
AAXX 1113/
89869 46/// ///// 11076 39915 4//// 5////=
89866 46/// ///// 11019 39868 4//// 5////=
89329 46/// ///// 11111 38792 4//// 5////=
89799 46/// ///// 11203 4//// 5////=
89828 46/// ///// 11256 36542 4//// 5////=
89108 46/// ///// 11201 37008 4//// 5////=
89879 46/// ///// 10006 39891 4//// 5////=
89314 46/// ///// 11126 38281 4//// 5////=
0000024900
424
SNHK22 VHHH 111300
AAXX 11131
45032 36/// /1402 10149 20123 30220 40237 52003=
45035 36/// /0504 10144 20122 30195 40237 52001=
45039 36/// /3301 10144 20119 30225 40240 54000=
45044 36/// /0504 10159 20129 30140 40235 52001=
0000033200
425
UGHK20 VHHH 111200
PPBB 11128 45004
21212 00015 09002 11952 09505 22929 13009 33904 12506 44827
13001 55726 26002 66701 27508 77676 28013 88660 27012 99634
29013 11565 26017 22490 26525 33465 25028 44333 26027 55255
24524 66224 23528 77171 24532 88151 23033 99126 25024 11116
23025 22109 26024 33100 24018=
0000056800
426
UQHK20 VHHH 111200
PPDD 11128 45004
21212 11967 25515 22944 25012 33937 24011 44914 21512 55883
22515 66852 24014 77822 23514 88759 27511 99728 24507 11710
22509 22674 23011 33654 20513 44618 22018 55544 27012 66528
26009 77513 27507 88506 26506 99486 23009 11464 23009 22452
24010 33441 25006 44435 26503 55415 32005 66375 08502 77360
13505 88353 14006 99302 10013 11272 14006 22265 12503 33256
10006 44212 06013 55197 08017 66187 07017 77181 07519 88175
09018 99160 08516 11153 06516 22142 07526 33127 09527 44098
09537 55082 10031=
0000091300
427
UDAS02 BABJ 111304
AMDAR 1113
DES CNFLWM 2627N 10647E 111300 F048 MS003 027/015 TB/ S//1=
DES CNFLWM 2629N 10647E 111300 F042 PS005 030/011 TB/ S//1=
DES CNFLWM 2632N 10648E 111301 F033 PS028 335/000 TB/ S//1=
ASC CNFPYN 3431N 11350E 111301 F001 PS041 228/003 TB/ S//1=
ASC CNFPYN 3431N 11351E 111301 F002 PS044 227/009 TB/ S//1=
LVR CNFPXL 3834N 12103E 111301 F187 MS305 274/068 TB/ S//1=
LVR CNFPXL 3832N 12101E 111301 F187 MS305 273/067 TB/ S//1=
LVR CNFPXL 3832N 12101E 111302 F187 MS305 272/067 TB/ S//1=
LVR CNFPXL 3830N 12058E 111302 F187 MS305 271/066 TB/ S//1=
ASC CNFPYN 3431N 11352E 111302 F008 PS058 261/018 TB/ S//1=
ASC CNFPTK 3559N 12030E 111301 F116 MS136 290/031 TB/ S//1=
ASC CNFPTK 3557N 12032E 111302 F137 MS180 292/030 TB/ S//1=
ASC CNFPTK 3555N 12033E 111302 F147 MS201 284/032 TB/ S//1=
ASC CNFPTK 3554N 12033E 111303 F157 MS223 281/032 TB/ S//1=
0000091300
428
UDAS02 BABJ 111306
AMDAR 1113
ASC CNFPYN 3430N 11353E 111302 F014 PS055 280/021 TB/ S//1=
ASC CNFPYN 3430N 11354E 111302 F016 PS050 283/022 TB/ S//1=
LVR CNFPXL 3828N 12056E 111303 F187 MS303 272/066 TB/ S//1=
LVR CNFPXL 3825N 12054E 111303 F187 MS303 271/065 TB/ S//1=
ASC CNFPXL 3823N 12052E 111304 F193 MS318 268/064 TB/ S//1=
LVR CNFPXL 3821N 12051E 111304 F197 MS328 271/067 TB/ S//1=
DES CNFNZK 3102N 12216E 111302 F235 MS263 263/075 TB/ S//1=
DES CNFNZK 3056N 12214E 111303 F220 MS243 266/053 TB/ S//1=
DES CNFNZK 3053N 12213E 111304 F211 MS228 263/041 TB/ S//1=
DES CNFNZK 3051N 12212E 111304 F205 MS215 265/037 TB/ S//1=
ASC CNFPYN 3428N 11356E 111303 F028 PS023 303/024 TB/ S//1=
ASC CNFPYN 3426N 11356E 111303 F043 MS010 320/023 TB/ S//1=
ASC CNFPYN 3423N 11357E 111304 F063 MS045 320/012 TB/ S//1=
ASC CNFPYN 3420N 11358E 111304 F081 MS088 346/008 TB/ S//1=
0000008400
429
SNAA01 KARS 111300
AAXX 1113/
89799 46/// ///// 11214 4//// 5////=
0000073700
430
SEXX01 PHEB 111314
TO    HONG KONG OBSERVATORY
      JMA, TOKYO
      ALASKA TSUNAMI WARNING CENTER
      CENTRE POLYNESIEN DE PREVENTION DES TSUNAMI
      NAT. MET. OPS. CENTRE, MELBOURNE
      PACIFIC TSUNAMI WARNING CENTER
 
FROM PACIFIC TSUNAMI WARNING CENTER
 
THIS IS PRELIMINARY DATA, NOT FOR PUBLIC DISSEMINATION.
COMPLETE INFORMATION CAN BE OBTAINED FROM THE USGS/NEIC
TELEPHONE (303) 273-8500.
 
H 13:10:50Z JAN 11 2014Z LAT 14.7N LONG 92.2W DEPTH 78.9km MWP 5.5 ( 6 STATIONS)
 
NEAR THE COAST OF CHIAPAS, MEXICO
 
PATR  P 131104.1  HUEH  P 131110.8  PCIG  P 131116.3  TGUH  P 131200.6
CRIN  P 131208.5  PNIG  P 131216.8  LVIG  P 131221.0  TEIG  P 131226.5
 
 
 
STOP
0000074600
431
SEXX01 PHEB 111314
TO    HONG KONG OBSERVATORY
      JMA, TOKYO
      ALASKA TSUNAMI WARNING CENTER
      CENTRE POLYNESIEN DE PREVENTION DES TSUNAMI
      NAT. MET. OPS. CENTRE, MELBOURNE
      PACIFIC TSUNAMI WARNING CENTER
 
FROM PACIFIC TSUNAMI WARNING CENTER
 
THIS IS PRELIMINARY DATA, NOT FOR PUBLIC DISSEMINATION.
COMPLETE INFORMATION CAN BE OBTAINED FROM THE USGS/NEIC
TELEPHONE (303) 273-8500.
 
H 13:10:50Z JAN 11 2014Z LAT 14.7N LONG 92.2W DEPTH 78.9KM MWP 5.5 ( 
6 STATIONS)
 
NEAR THE COAST OF CHIAPAS, MEXICO
 
PATR  P 131104.1  HUEH  P 131110.8  PCIG  P 131116.3  TGUH  P 
131200.6
CRIN  P 131208.5  PNIG  P 131216.8  LVIG  P 131221.0  TEIG  P 
131226.5
 
 
 
STOP
0000030800
432
SAAE31 VTBB 111300 RRC
METAR VTCC 111300Z 28003KT CAVOK 22/15 Q1018 A3006 NOSIG=
METAR VTBU 111300Z 05004KT 3000 BR NSC 28/21 Q1013 A2994=
METAR VTSS 111300Z 05004KT 9999 FEW020 BKN120 BKN300 26/22 Q1013
           A2993 NOSIG=
METAR VLVT 111300Z 02002KT 3000 BR FEW050 23/17 Q1016 NOSIG=
0000009800
433
SAAE31 VTBB 111300 RRD
METAR VTBD 111300Z 31006KT 250V350 CAVOK 28/18 Q1014 NOSIG=
0000105500
434
SAAR20 OEJD 111300
METAR OBBI 111300Z NIL=
METAR OKBK 111300Z 32013KT CAVOK 15/08 Q1018
     NOSIG=
METAR OMAA 111300Z 32007KT 9999 -RA FEW045 21/13 Q1019 A3009 NOSIG=
METAR OMAD 111300Z 32007KT 9999 -RA SCT045 21/15 Q1019 A3010 NOSIG=
METAR OMAL 111300Z 17004KT 090V190 CAVOK 21/09 Q1019 A3011 NOSIG=
METAR OMDB 111300Z 31011KT 8000 -RA NSC 20/13 Q1020 TEMPO 4000 RA=
METAR OMFJ 111300Z 14003KT 9999 FEW020 SCT100 21/10 Q1020 A3012=
METAR OMRK 111300Z 02005KT 9999 FEW040 21/12 Q1020 A3014=
METAR OMSJ 111300Z 29008KT 270V330 9999 SCT040 21/13 Q1020=
METAR OOBR 111300Z NIL=
METAR OOKB 111300Z NIL=
METAR OOMS 111250Z 07013KT 9999 FEW030 SCT100 BKN200 21/07 Q1019
NOSIG=
METAR OOSA 111250Z 13010KT 100V190 9999 BKN025 24/15
Q1016 NOSIG=
METAR OOSH 111300Z NIL=
METAR OOSQ 111300Z NIL=
METAR OOSR 111300Z NIL=
METAR OOTH 111300Z NIL=
METAR OOYB 111300Z NIL=
METAR OTBD 111300Z 23007KT 190V250 9999 -RA FEW016 SCT100 OVC120
17/15 Q1020 NOSIG=
METAR OYAA 111300Z 16012KT 9999 SCT020 27/19 Q1014=
0000010100
435
SAAR20 OEJD 111300 RRA
METAR OYSN 111300Z 27011G22KT 230V320 9999 SCT030 22/03 Q1024=
0000204800
436
SNAU01 AMMC 111300
AAXX 11134
94102 17/// /2011 10278 20246 30075 40084 51013 60022 7//44
  333 10328=
94103 45/// /2310 10294 30089 40094 51023
  333 10302=
94200 NIL=
94203 11970 62810 10297 20252 30067 40077 55009 60002 70511 83032
  333 10335=
94206 15/// /3105 10390 20086 39925 40053 51018 60002
  333 10435=
94207 46/// /2512 10292 30082 40090 51015=
94212 15/// /0203 10331 20137 39601 40065 51026 60002
  333 10412=
94216 15/// /2703 10258 20219 30025 40074 53026 60072
  333 10382=
94300 155// 10408 10297 20172 30091 40096 53005 60002
  333 10322=
94302 15/// /2310 10291 20233 30077 40083 51024 60002
  333 10404=
94312 15/// /2808 10297 20265 30066 40075 51014 60002
  333 10360=
94317 15/// /0804 10331 21040 39509 40077 51014 60002
  333 10427=
94319 15/// /1607 10352 21024 39745 40065 51016 60002
  333 10444=
94403 15/// /2107 10291 20162 30065 40099 53020 60002
  333 10458=
94429 15/// /0507 10376 21006 39635 40085 51012 60002
  333 10454=
94430 15/// /1007 10350 20099 39522 40087 51013 60002
  333 10430=
94449 15/// /1012 10337 20025 39621 40137 51016 60002
  333 10412=
94601 15/// /1114 10216 20197 30129 40145 51001 60002
  333 10256=
94610 11980 01509 10346 20068 30067 40090 52005 60002 70200
  333 10435=
94637 15/// /1208 10287 20075 39732 40149 51014 60002
  333 10374=
94638 15/// /0908 10193 20141 30163 40195 51010 60001
  333 10250=
94647 15/// /1311 10187 20156 30100 40209 51006 60001
  333 10238=
94802 154// 20711 10186 20159 30099 40182 51004 60002
  333 10285=
95205 15/// /0204 10320 20255 30067 40074 51016 60002
  333 10382=
95448 15/// /1006 10348 21027 39557 40102 51013 60002
  333 10432=
95634 15/// /0914 10347 20061 39731 40122 53012 60002
  333 10416=
95637 15/// /1314 10244 20145 39821 40148 51009 60002
  333 10383=
95641 15/// /1608 10207 20181 30045 40139 58003 60002
  333 10365=
95646 15/// /1312 10190 20138 30012 40196 51014 60002
  333 10348=
96995 NIL=

0000028200
437
SNAU03 AMMC 111300
AAXX 11134
94461 NIL=
94651 NIL=
94653 46/// /1611 10184 20153 30174 40192=
94659 NIL=
94672 NIL=
94804 NIL=
94821 NIL=
95458 NIL=
95480 NIL=
95481 NIL=
95666 NIL=
95826 45/// /2205 10163 30221 40223 50003
  333 10183=

0000340100
438
SAWD01 OEJD 111300
METAR DAAG 111300Z 31004KT CAVOK 18/11 Q1019=
METAR DTTA 111300Z 00000KT 9999 FEW023 20/05 Q1018 NOSIG=
METAR EBBR 111250Z 26012KT 8000 SCT012 BKN044 07/05 Q1017 NOSIG=
METAR EDDH 111250Z 22015KT 7000 -RA SCT009 BKN012 05/04 Q1007 RERA
TEMPO 22015G25KT 4000 RA BKN008=
METAR EFHK 111250Z 07005KT 350V160 9000 -SN BKN008 M04/M05 Q0999
TEMPO BKN010=
METAR EGLL 111250Z 30006KT 270V340 9999 SCT030 08/03 Q1020 NOSIG=
METAR EHAM 111255Z 31012KT 9999 FEW022 07/04 Q1014 NOSIG=
METAR EIDW 111300Z 23009KT 9999 FEW018 06/01 Q1019 BECMG SCT010=
METAR EKCH 111250Z 23016KT 9999 RA BKN011 06/05 Q1003 NOSIG=
METAR ELLX 111250Z 22005KT 180V260 6000 FEW005 SCT040 05/04 Q1017
    NOSIG=
METAR ENFB 111250Z AUTO 10004KT 9999NDV OVC022/// 03/M01 Q1000
           W///S5=
METAR EPWA 111300Z 26010KT 9999 BKN030 06/01 Q1013 NOSIG=
METAR ESSA 111250Z 01007KT 1100 R01L/1000VP1500D R19R/1000VP1500N
R01R/0800V1000N R19L/0900VP1500U SN VV007 M03/M03 Q1001 R01L/510265
R08/510165 R01R/////// TEMPO 4000 -SN=
METAR ETBS 111300Z NIL=
METAR GMME 111300Z 19005KT 5000 -RA SCT020 BKN080 16/13 Q1018 NOSIG=
METAR GQNN 111300Z 04009KT 010V070 8000 NSC 24/11 Q1015 NOSIG=
METAR HAAS 111300Z NIL=
METAR HCMM 111300Z NIL=
METAR HECA 111300Z 30006KT 9999 SCT025 19/06 Q1024 NOSIG=
METAR HLLT 111250Z
25006KT CAVOK 23/05 Q1021=
METAR HSSS 111300Z 34013KT CAVOK 25/M05 Q1017NOSIG=
METAR KBOS 111254Z 16005KT 7SM FEW008 SCT045 BKN080 OVC180 06/06
     A3000=
METAR KIAD 111252Z 21004KT 3/4SM R01R/5000VP6000FT -RA BR OVC004 02/02
     A2985=
METAR KJFH 111300Z NIL=
METAR KWBS 111300Z NIL=
METAR LEMD 111300Z 26001KT CAVOK 12/06 Q1019 NOSIG=
METAR LFPO 111300Z 31005KT 9999 FEW010 09/07 Q1020 TEMPO BKN006=
METAR LGAV 111250Z 08005KT 050V110 9999 FEW020 SCT180 15/09 Q1022
NOSIG=
METAR LIRF 111250Z VRB02KT 9000 SCT030 14/09 Q1022 NOSIG=
METAR LOWW 111250Z 14009KT 9999 FEW055 SCT180 BKN280 07/03 Q1018
NOSIG=
METAR LSGG 111250Z 21012KT 9999 FEW025 SCT170 11/05 Q1021 NOSIG=
METAR LTAC 111250Z VRB01KT 6000 BKN009 00/M01 Q1023 NOSIG=
METAR OAKB 111250Z 26003KT 4500 HZ SCT120 00/M14 Q1024 NOSIG RMK GRN GRN=
METAR OBBI 111300Z NIL=
METAR OJAM 111300Z 33010KT 5000 HZ BKN025TCU 12/04 Q1022 NOSIG=
METAR OKBK 111300Z 32013KT CAVOK 15/08 Q1018
     NOSIG=
METAR OLBA 111300Z 25006KT 9999 FEW200 17/06 Q1024=
METAR OMAA 111300Z 32007KT 9999 -RA FEW045 21/13 Q1019 A3009 NOSIG=
METAR OOMS 111250Z 07013KT 9999 FEW030 SCT100 BKN200 21/07 Q1019
NOSIG=
METAR OPKC 111300Z NIL=
METAR OPRN 111300Z 31006KT 6000 FEW200 14/01 Q1020.8/30.14=
METAR ORBB 111300Z NIL=
METAR OSDI 111300Z 27006KT CAVOK 14/02 Q1022=
METAR OTBD 111300Z 23007KT 190V250 9999 -RA FEW016 SCT100 OVC120
17/15 Q1020 NOSIG=
METAR OYAA 111300Z 16012KT 9999 SCT020 27/19 Q1014=
METAR OYSN 111300Z 27011G22KT 230V320 9999 SCT030 22/03 Q1024=
METAR RKSS 111300Z 10002KT 9999 SCT030 M02/M11 Q1030 NOSIG=
METAR UUEE 111300Z NIL=
METAR VCBI 111310Z 34008KT 9999 FEW016 SCT300  27/23 Q1010 NOSIG=
METAR VGZR 111300Z NIL=
METAR VHHH 111300Z NIL=
METAR VIDP 111300Z 30003KT 1800 R28/P2000 R29/P2000 FU NSC 14/09
      Q1019 NOSIG=
METAR WIIH 111300Z NIL=
METAR WMKK 111300Z 03005KT 010V070 9999 FEW017CB SCT140 BKN280 28/24
Q1010 NOSIG=
METAR WSSS 111300Z 01006KT 280V060 9999 SCT016 SCT280 26/24 Q1012
NOSIG=
0000041000
439
SAME31 OEJD 111300
METAR OJAI 111300Z 29012KT 6000 HZ SCT030 12/05 Q1023 NOSIG=
METAR OJAM 111300Z 33010KT 5000 HZ BKN025TCU 12/04 Q1022 NOSIG=
METAR OJAQ 111300Z 34008KT 9999 SCT030 19/07 Q1023 NOSIG=
METAR OLBA 111300Z 25006KT 9999 FEW200 17/06 Q1024=
METAR OSAP 111300Z NIL=
METAR OSDI 111300Z 27006KT CAVOK 14/02 Q1022=
METAR OSLK 111300Z 23006KT 9999 SCT030 BKN200 17/08 Q1022=
0000151600
440
SNAU05 AMMC 111300
AAXX 11134
94691 NIL=
94693 45/// /1710 10282 20031 30101 40162 51015
  333 10393=
94700 NIL=
94703 45/// /0906 10268 20132 30014 40136 51005
  333 10370=
94710 45/// /0905 10280 20098 39894 40141 51005
  333 10361=
94729 45/// /1406 10221 20132 39326 40158 51009
  333 10319=
94750 45/// /1809 10211 20185 30048 40171 51011
  333 10324=
94767 41980 50506 10230 20184 30157 40163 50006 70222 85070
  333 10319=
94776 45/// /0000 10201 20173 30145 40155 50001
  333 10318=
94791 45/// /3306 10196 20175 30162 40169 58005
  333 10264=
94842 45/// /2610 10153 20122 30117 40215 50001
  333 10184=
94865 454// 81907 10170 20129 30186 40211 58001
  333 10225=
94875 45/// /1815 10195 20118 30029 40162 51010
  333 10380=
94893 45/// /2726 10154 20118 30058 40173 56001
  333 10268=
94907 45/// /2512 10155 20110 30188 40198 51009
  333 10287=
94910 45/// /0000 10241 20114 39890 40133 51002
  333 10358=
94926 45/// /1205 10194 20107 39511 40164 51009
  333 10326=
94935 45/// /2706 10168 20109 30154 40180 50003
  333 10268=
94995 457// 80709 10208 20133 30179 40187 58010
  333 10241=
95485 45/// /0706 10293 20099 39934 40133 52006
  333 10381=
95527 459// 10408 10259 20140 39898 40145 53011
  333 10337=
95719 45/// /2102 10233 20140 39819 40142 51001
  333 10329=
95762 45/// /1404 10229 20113 39701 40147 51009
  333 10335=
95839 45/// /1910 10161 20113 30043 40200 51015
  333 10328=

0000015100
441
SMSD12 OEJD 111200 RRA
AAXX 11124
41084 32560 22404 10208 20110 38860 48513 82400 333 58018 82630 555 04410
 50132 41084 18347 MT2=
00000000