0000011600
362
SNVF51 EGRR 111300
BBXX
62303 11134 99516 70051 46/// /3504 10078 20011 40209 22200 10603
70014=
0000014400
363
SNVF51 EGRR 111300
BBXX
62095 11134 99529 70156 46/// /1725 10097 20051 40111 58017 22200
00100 10807 70036 333 90710 91134=
0000011600
364
SNVF51 EGRR 111300
BBXX
62050 11134 99500 70044 46/// /1205 10098 20035 40211 22200 10602
70011=
0000014400
365
SNVF51 EGRR 111300
BBXX
62170 11134 99514 10020 46/98 /2920 10081 20038 40193 51030 22200
00106 10501 70005 333 90710 91127=
0000023600
366
SAAE31 VTBB 111300 RRB
METAR VTSP 111300Z 00000KT 9999 FEW022 BKN300 28/22 Q1013 A2993
           NOSIG=
METAR VDPP 111300Z 35005KT 9000 FEW017 29/18 Q1012=
METAR VDSR 111300Z 04003KT 9000 FEW020 27/19 Q1013 NOSIG=
0000009800
367
SAFC21 OEJD 111200 RRB
METAR
OEBH 111200Z 24004KT 9999 FEW030 21/11 Q1018 NOSIG=
0000009600
368
SASD20 OEJD 111200 RRB
METAR OEBH 111200Z 24004KT 9999 FEW030 21/11 Q1018 NOSIG=
0000024100
369
SOAT10 KWAL 111313
FA8005BC 011131337 OT12 ID:KN-BASS-01 DT:2014 01 11 13 11
:RD -3072 -3077 -3080 -3094 -3077 -3081 -3058 -3043 -3075 -3046
:PR 0649 0547 0651 0591 0545 0568 0626 0580 0566 0579
:B 13.7V
 46+1NN 219E
0000015700
370
SNVD03 CWAO 111300
BBXX
CFL24 11134 99438 70606 47498 42214 10038 20014 40272 58004 7//// 81/// 222// 0//// 10603 70015 333 81/13 83/29=

0000034000
371
USAL01 DAMM 111200 RRA
TTAA 61111 60630
99988 23476 19008 00159 ///// ///// 92834 19073 20015
85553 13669 20519 70160 05464 19533 50581 14758 23553
40746 26363 24075 30947 425// 24582 25068 517// 22585
20209 593// 23105 15391 579// 22578 10642 689// 24570
88204 595// 23105
77201 23105 41524
31313 47908 81119=
0000056400
372
UKAL01 DAMM 111200 RRA
TTBB 61118 60630
00988 23476 11981 24077 22841 12868 33755 08478 44715
06476 55693 05257 66561 09515 77549 09964 88542 10758
99516 13357 11379 29363 22358 31578 33330 36762 44314
39570 55298 429// 66284 461// 77204 595// 88188 603//
99171 551// 11132 593// 22100 689//
21212 00988 19008 11790 22524 22696 19533 33477 24052
44374 24580 55310 24083 66276 24080 77243 22588 88201
23105 99177 24085 11155 23077 22124 23591 33100 24570
31313 47908 81119
41414 52730
51515 77323 09070 22525 60399 04738 22044=
0000005700
373
ULKZ11 UAAA 111200
TTCC  1112/ 38341 NIL=
0001044800
374
SNSW23 LSSW 111300
AAXX 11134
06686 23/// /3008 10076 20041 39607 40201 52007
  333 55300 20666 60005 91112 91208=
06623 23/// /2109 10033 20033 39350 48486 52009
  333 55300 20464 60005 91120 91213=
06624 23/// /1201 10031 20029 39703 40217 52004
  333 55300 20230 60005 91105 91203=
06602 23/// /2003 10062 20061 39680 40210 52002
  333 55300 20421 60005 91104 91203=
06693 23/// /2409 10094 20039 39467 48509 53014
  333 55303 20724 60005 91120 91209=
06682 23/// /3401 10058 20031 39089 48505 52014
  333 55300 20518 60005 91105 91202=
06675 23/// /2104 10072 20035 39145 48509 53015
  333 55310 21174 60005 91113 91206=
06637 23/// /3402 10019 20019 39512 40228 52007
  333 55300 20270 60005 91103 91202=
06627 23/// /2703 10079 20016 39012 48511 52004
  333 55309 20961 60005 91106 91202=
06625 23/// /2313 10097 20043 39436 48507 58000
  333 55305 21037 60005 91125 91216=
06608 23/// /3303 10029 20020 38893 48502 52004
  333 55300 20349 60005 91106 91203=
06638 23/// /1201 10081 20054 39332 48511 52006
  333 55306 20896 60005 91104 91203=
06635 23/// /2102 10058 20038 39632 40217 50004
  333 55300 20486 60005 91109 91206=
06728 23/// ///// 10061 21055 38391 48500 56008
  333 55310 21256 60005=
06725 23/// /0302 10052 21032 38462 48502 57009
  333 55307 20911 60005 91105 91203=
06758 23/// /1902 10069 20051 39833 40227 58015
  333 55300 20234 60005 91104 91203=
06796 23/// /0702 10010 20010 38632 48508 57004
  333 55300 20713 60005 91105 91203=
06784 23/// /0000 10043 20025 38398 48497 57005
  333 55300 20857 60005 91101 91200=
06786 23/// /0306 10094 20037 39535 40193 55004
  333 55300 20659 60005 91116 91210=
06794 23/// /0502 10029 20002 38977 48520 57003
  333 55300 20317 60005 91103 91202=
06792 23/// /1808 10004 21019 38291 48510 57005
  333 55302 20828 60005 91114 91210=
06798 23/// /0901 10027 21005 38704 48497 56014
  333 55309 21246 60005 91103 91202=
06702 23/// /3011 10017 20002 38333 48511 52007
  333 55304 20932 60005 91120 91217=
06610 23/// /2406 10101 20048 39621 40202 57003
  333 55303 20878 60005 91116 91208=
06730 43/// /3408 11094 21105 36556 47066 58009
  333 55301 20698 91118 91208=
06643 23/// /2304 10050 20033 39705 40219 50005
  333 55300 20572 60005 91111 91206=
06680 23/// /3009 11041 21043 37510 47046 58005
  333 55304 20752 60005 91130 91215=
06990 23/// /3307 10056 20037 39656 40209 53017
  333 55300 20594 60005 91110 91207=
06712 23/// /2704 10078 20046 39756 40217 57003
  333 55308 21102 60005 91107 91204=
06609 23/// /2525 10007 21036 38017 48503 57005
  333 55310 21206 60005 91136 91227=
06616 23/// /2608 10080 20044 39497 40205 52006
  333 55300 20338 60005 91116 91208=
06724 23/// /2603 10077 21017 38581 48503 57007
  333 55310 21210 60005 91106 91203=
06748 23/// /2301 10060 21038 38356 48499 56010
  333 55306 21051 60005 91103 91202=
06605 23/// /2917 10014 20006 38402 48502 50000
  333 55300 20382 60005 91127 91221=
06659 23/// /2110 10001 21051 37892 48504 57003
  333 55300 20446 60005 91127 91211=
06672 23/// /0401 10051 20038 39686 40219 53012
  333 55300 20356 60005 91104 91203=
06745 23/// /0501 10021 21008 38661 48499 56010
  333 55310 21174 60005 91102 91201=
06753 23/// /0101 10030 20010 39073 48516 57010
  333 55300 20198 60005 91103 91201=
06770 23/// /2302 10084 20066 39857 40221 58019
  333 55300 20270 60005 91105 91202=
06639 23/// /2312 10039 21001 38605 48505 52005
  333 55304 20950 60005 91122 91211=
06720 23/// /2507 10076 20038 39627 40204 57005
  333 55309 20968 60005 91117 91212=
06762 23/// /0000 10084 20047 39976 40225 58015
  333 55300 20313 60005 91102 91201=
06604 23/// /2604 10069 20041 39630 40212 50001
  333 55300 20461 60005 91110 91205=
06771 23/// /2302 10094 20060 39796 40220 56017
  333 55300 20205 60005 91105 91203=
06734 23/// /0104 10069 20042 39520 40209 52003
  333 55309 20886 60005 91108 91205=
06782 NIL=
06681 23/// /2404 10090 20035 39285 48503 52012
  333 55301 20698 60005 91113 91207=
06685 23/// /1601 10056 20037 39590 40213 53013
  333 55301 20529 60005 91105 91202=
06700 23/// /2113 10107 20047 39720 40210 57001
  333 55306 20922 60005 91118 91213=
06670 23/// /1907 10065 20041 39692 40207 52005
  333 55300 20554 60005 91111 91207=
06750 23/// /3407 10006 21059 37719 48507 57005
  333 55310 21400 60005 91114 91207=
06711 23/// /2301 10083 20048 39669 40215 57000
  333 55307 20911 60005 91104 91202=
06717 23/// /1004 11003 21103 37529 47067 56008
  333 55309 21490 60005 91105 91203=
06735 23/// /0805 10066 21006 38687 48505 52004
  333 55308 21037 60005 91109 91204=
06727 23/// /2707 10055 20015 39438 48489 57010
  333 55300 20302 60005 91112 91207=
06612 23/// /2306 10061 20032 39026 48508 52008
  333 55300 20382 60005 91117 91210=
06645 23/// /0104 10069 20041 39475 48496 50005
  333 55300 20418 60005 91106 91204=
06633 23/// /3003 10059 20036 39744 40214 52005
  333 55300 20511 60005 91110 91205=
06650 23/// /1903 10066 20049 39665 40213 52009
  333 55302 20720 60005 91107 91204=
06655 23/// /2603 10049 20024 39001 48502 52006
  333 55304 20922 60005 91109 91204=
06620 23/// /2707 10034 20025 39677 40213 52004
  333 55300 20202 60005 91115 91211=
06660 23/// /1803 10067 20043 39541 40206 52008
  333 55305 20889 60005 91108 91204=
06783 23/// /0000 10002 21011 38370 48516 57013
  333 55300 20320 60005 91103 91201=
06780 23/// /2408 11018 21076 37352 47063 57004
  333 55300 20828 60005 91114 91207=
06791 23/// /2511 11058 21103 36789 47062 58008
  333 55300 20763 60005 91123 91213=
06601 23/// /1003 10068 20041 39823 40208 53004
  333 55300 20371 60005 91106 91204=
06705 23/// /2104 10101 20060 39664 40210 57001
  333 55306 21015 60005 91108 91205=
06619 23/// /1705 10043 20025 38817 48504 52001
  333 55300 20605 60005 91111 91203=
06631 23/// /3001 10067 20037 39550 40212 50001
  333 55301 20684 60005 91106 91203=
06621 23/// /2303 10045 20042 39677 40212 52009
  333 55300 20551 60005 91106 91203=
06626 23/// /2704 10059 20037 39751 40214 52005
  333 55300 20504 60005 91110 91207=
06673 23/// /0803 10048 20039 39626 40214 52010
  333 55303 20875 60005 91105 91203=
06679 23/// /2304 10080 20039 39559 40200 52007
  333 55301 20702 60005 91111 91204=
06664 23/// /1302 10066 20047 39672 40207 52006
  333 55301 20608 60005 91105 91203=
06760 23/// /0000 10082 20050 39775 40226 58015
  333 55300 20313 60005 91103 91202=
06646 23/// /1603 10063 20043 39813 40210 52005
  333 55300 20360 60005 91106 91202=
06636 23/// /2802 10067 20047 39633 40210 58002
  333 55302 20724 60005 91106 91203=
06759 23/// /0505 10003 21004 38344 48513 58012
  333 55300 20360 60005 91108 91205=
06722 23/// /0000 10066 21081 38169 48501 57005
  333 55308 21246 60005 91103 91202=
06666 23/// /0000 10045 20038 39795 40214 52005
  333 55300 20259 60005 91103 91201=
06744 23/// /1703 10030 21067 38037 48505 57004
  333 55310 21246 60005 91107 91204=
06756 23/// /3302 10056 20028 39539 40230 58014
  333 55300 20266 60005 91103 91203=
06669 43/// /23// 10031 20025 39210 48491 52010
  333 55300 20558 91122 91212=
06689 23/// /2408 10040 20018 38895 48502 53013
  333 55300 20565 60005 91119 91212=
06628 23/// /2514 10097 20010 38995 48512 52005
  333 55310 21588 60005 91123 91214=
06751 23/// /3201 11030 21035 38104 48516 57009
  333 55300 20619 60005 91103 91201=
06747 43/// /0704 11004 21158 37159 47067 57008
  333 55303 20900 91107 91204=
06709 43/// /2701 10069 20052 39768 40222 57002
  333 91107 91205=
06740 43/// /2814 11054 21081 36973 47064 56006
  333 55305 21181 91122 91215=
06641 23/// /2403 10063 20050 39793 40212 50003
  333 55300 20238 60005 91103 91202=
06618 23/// /2111 10088 20085 39688 40211 57004
  333 55302 20936 60005 91115 91210=
06706 43/// /1304 1//// 2//// 3//// 5////
  333 91107 91205=
06787 23/// /2801 10077 21002 39044 48497 57009
  333 55300 20680 60005 91104 91202=
06754 43/// /1804 11035 21035 37812 48517 56008
  333 553// 20781 91108 91204=
06683 43/// /1003 1//// 2//// 39725 53///
  333 91104 91203=
06778 23/// /2403 10029 21046 38019 48495 57007
  333 55306 21030 60005 91110 91206=
06733 23/// /0609 10069 20028 39240 48502 52003
  333 55306 21044 60005 91112 91209=
06731 23/// /2603 10081 20049 39528 40205 52001
  333 55310 21141 60005 91107 91203=
06632 23/// /2502 10046 20045 39699 40223 50///
  333 55300 20396 60005 91103 91202=
06644 23/// /1805 10088 20052 39661 40202 50002
  333 55305 20922 60005 91109 91205=
06752 23/// /0302 10073 20028 39718 40226 57015
  333 55300 20173 60005 91105 91202=
06606 23/// /2304 10071 20049 39695 40215 57002
  333 55301 20439 60005 91111 91207=
06688 43/// /0903 11002 21063 37527 47059 58005
  333 55304 21210 91109 91205=
06777 23/// /3405 10012 20012 38407 48513 58014
  333 55300 20342 60005 91110 91206=
06704 23/// /2211 10082 20050 39404 48512 52004
  333 55302 20788 60005 91121 91213=
06708 23/// /1808 10060 20055 39240 48507 50001
  333 55308 21040 60005 91115 91208=
06617 23/// /2610 10054 20029 38991 48508 52010
  333 553// 20367 60005 91118 91211=
06648 23/// /3102 10076 20057 39582 40205 50004
  333 55302 20634 60005 91113 91210=
06671 43/// /2307 1//// 2//// 39726 5////
  333 91114 91211=
06656 23/// /1004 1//// 2//// 39535 52005
  333 60005 91105 91204=
06651 23/// /2404 10104 20027 39329 48512 52009
  333 55307 21112 60005 91111 91207=
06687 43/// /2508 1//// 2//// 39695 51///
  333 91114 91208=
06793 23/// /3301 10063 21006 38428 48501 57002
  333 55300 20720 60005 91107 91204=
06795 23/// /3006 11007 21096 37355 47065 55001
  333 55300 20734 60005 91115 91206=
06799 43/// /2506 10015 21071 37623 47084 58005
  333 55310 21188 91111 91207=
06723 43/// /2406 11013 21081 37298 47065 57005
  333 55308 21339 91114 91207=
06749 43/// /2605 11041 21140 36944 47066 57008
  333 55307 21307 91112 91207=
06739 43/// /2907 11024 21094 37154 47067 58007
  333 55310 21325 91116 91210=
06657 23/// /1201 10051 2//// 39650 40220 53///
  333 553// 21199 60005 91103 91201=
06788 23/// /0601 10028 20008 38959 48514 57011
  333 55300 20310 60005 91101 91201=

0000011100
375
UANT01 CWAO 111310
ARP DAL187 5232N03550W 1310 F360 MS56 283/26 KT
N173DZ QXT AOE 111310 F39A
0000011000
376
UANT01 CWAO 111311
ARP BAW117 4934N04825W 1310 F370 MS63 286/57 KT
GBNLN QXT AOW 111311 F97A
0000011100
377
UANT01 CWAO 111310
ARP AAL291 5206N04647W 1310 F360 MS63 284/66 KT
N190AA DDL XXN 111310 F75A
0000089200
378
UKMD01 LPMG 111200
TTBB 11128 08522 00013 20248 11009 17650 22942 12408 33932 13461
44866 10864 55753 02264 66656 02779 77645 02964 88642 02965 99618
05163 11588 07958 22561 09559 33555 09763 44553 09368 55550 09167
66535 10758 77501 14346 88479 16757 99380 30950 11361 34125 22299
455// 33282 483// 44278 485// 55272 485// 66229 569// 77192 599//
88175 587// 99113 603// 11103 647// 22100 637// 21212 00013 23502
11002 24005 22985 27508 33965 29005 44841 24510 55785 19507 66750
23007 77740 19507 88727 19006 99702 22507 11672 24005 22663 22506
33586 26511 44566 25510 55526 28011 66487 26014 77400 25519 88302
26515 99253 27522 11230 30023 22212 28029 33183 29037 44171 28525
55164 27529 66145 28538 77134 29531 88125 28029 99115 29025 11100
27014 31313 47908 81119 41414 28502 51515 11900 26007 22800 20507
33600 25512 61616 11978 28507 22944 29005=
0000440200
379
SNCZ64 OKPR 111300
AAXX 11131
11406 21660 82103 10020 20008 39581 40177 58017 76122 885//
  333 69905 88642 91008
  555 392// 50023 60024 70028 80037 90051=
11414 22664 83103 10018 21001 39439 42771 57015 8657/
  333 60005 86646 88358
  555 387// 50021 60019 70025 80034=
11423 21683 82605 10019 20009 39284 42777 55010 76022 875//
  333 69905 87646
  555 393// 50015 60019 70025 80035=
11438 22972 72203 10058 20011 39764 40160 56020 8707/
  333 60005 84360 87462
  555 372// 50025 60028 70032 80048 90054=
11450 22870 72401 10041 20004 39723 40175 57015 8707/
  333 60005 87357
  555 12702 377// 50026 60024 70028 80038=
11457 21582 72507 10031 20008 38864 48465 55011 72162 8257/
  333 69905 81632 87356 91013 91115
  555 385// 50004 60012 70012 80024=
11464 42780 82511 10013 21013 39160 42763 57016 8807/
  333 88350 91115
  555 383//=
11487 21775 79901 10035 21002 39546 40176 56016 71522 8257/
  333 60005 82656 87359
  555 377// 50019 60019 70020 80032 90044=
11502 22368 72502 10023 21004 39705 40169 55014 81672
  333 60005 81708 87463
  555 382// 50021 60023 70029 80040 90053=
11509 22775 70801 10048 20022 39969 40166 57018 83570
  333 60005 83650 86360
  555 383// 50032 60030 70031 80041 90055=
11518 22782 72302 10055 20011 39726 40168 55014 8257/
  333 60005 82650 87359
  555 373//=
11519 22880 71902 10066 21004 39859 40168 57019 8707/
  333 60005 81357 87360
  555 361//=
11520 22982 72203 10063 21008 39802 40171 55015 87070
  333 60005 85359 83361
  555 360// 50024 60029 70031 80043 90052=
11538 22981 71401 10041 20010 39563 40176 55018 86031
  333 60005 86359
  555 380// 50010 60026 70030 80042=
11546 27772 /1602 10054 20018 39681 40168 57022 72386
  333 69905 85/50 87/56
  555 378// 50039 60038 70041 80054 90058=
11567 22870 72003 10062 20005 39819 40166 57015 87050
  333 60005 82357 87360
  555 367// 50034=
11603 22466 71103 10033 20005 39675 40164 57016 85571
  333 60005 85615 85359
  555 381// 50031 60035 70039 80050 90058=
11624 22975 51903 10072 20004 39880 40171 57019 85070
  333 60005 85359
  555 362// 50032=
11628 22970 69902 10048 21007 39530 40170 57019 84032
  333 60005 84360 86070
  555 368// 50023 60025 70028 80040 90048=
11636 22982 71603 10040 21002 39492 42784 57019 83052
  333 60005 83361 87071
  555 374// 50011 60020 70028 80042 90048=
11643 22470 52003 10009 21019 39194 42771 55012 82531
  333 60005 82616 83359
  555 13606 381// 50011 60014 70017=
11652 22970 62302 10069 21001 39893 40173 57017 83031
  333 60005 83360 86073
  555 361// 50043=
11653 26/// /2414 11045 21047 3//// 4//// 5////
  333 6///5 91019 91120
  555 399//=
11659 22975 61605 10048 21013 39530 40174 57019 82082
  333 60005 82360 86071
  555 365// 50007 60024 70025 80035 90044=
11669 22465 72304 10016 20006 39283 42773 57014 87500
  333 60005 87610
  555 393// 50018 60028 70030 80038 90050=
11679 22580 62503 10064 21007 39684 40172 57018 82508
  333 60005 82630 86270
  555 361// 50036 60038 70037 80047 90060=
11683 22970 72205 10031 21019 39292 42778 58016 83032
  333 60005 83360 86070
  555 1//05 370// 50020 60018 70024 80036=
11692 22980 61703 10050 21009 39603 40181 57017 82036
  333 60005 82363 86273
  555 366// 50021=
11693 22982 71603 10048 21008 39697 40185 57017 82048
  333 60005 82365 87271
  555 11806 367// 50029 60033 70035 80054 90059=
11698 22980 71403 10045 21001 39775 40188 57016 82036
  333 60005 82361 86068
  555 372// 50037 60037 70045 80056 90065=
11710 22682 42305 10050 21040 39556 40175 57017 81102
  333 60005 81836 84071
  555 352// 50040 60037 70038 80049=
11723 22980 72002 10058 20006 39884 40185 57021 81034
  333 6///5 81360 87072
  555 369// 50030 60030 70038 80052=
11730 21/01 92507 11033 21044 38625 48444 55005 74944
  333 60005 89/01 91116 93620
  555 392//=
11766 22483 52204 10023 21015 39280 42780 57012 81106
  333 60005 81814 83269
  555 376// 50009 60013 70020 80037=
11774 22983 71704 10064 20005 39913 40187 57020 81082
  333 60005 81361 87075
  555 366//=
11782 22980 62307 10064 20005 39872 40179 56017 84032
  333 60005 84363 86073
  555 366//=
11787 22386 59902 11020 21050 38639 48458 57012 81142
  333 60005 81808 85068 91111 93519
  555 380// 50005 60011 70008 80020=
0000018200
380
ULMD01 LPMG 111200
TTCC 11122 08522 70850 625// 22506 50059 573// 14501 30387 507//
09520 20655 467// 09528 10116 ///// 88999 77111 08034 405// 31313
47908 81119=
0000053400
381
UEMD01 LPMG 111200
TTDD 1112/ 08522 11821 647// 22293 503// 33280 513// 44259 477//
55211 453// 66178 483// 77141 483// 88107 425// 21212 11975 26014
22934 27521 33868 29512 44826 26510 55749 32003 66734 30001 77699
22506 88668 22004 99628 19007 11590 19510 22575 19007 33534 24504
44503 14501 55458 05506 66451 08507 77423 12007 88397 10509 99386
12009 11371 09509 22340 12512 33332 11011 44306 09521 55251 10017
66239 10520 77199 09528 88136 08532 99125 08027 11111 08034 22107
08033 31313 47908 81119=
00000000