0000111000
222
USBZ03 SBBR 111200
TTAA 61121 83525 99912 24257 05011 00128 ///// /////
92816 ///// /////
85549 18850 03022 70187 07843 09004 50588 07563 02529
40758 19157 12503 30966 34157 17517 25091 445// 18022
20237 565// 16523 15415 639// 12522 10657 749// 11517
88999 77999=
TTAA ///// 83566 NIL=
TTAA ///// 83649 NIL=
TTAA 61111 83650
99020 27041 09512 00179 24239 09512 92857 18413 07023
85580 15232 07531 70212 11077 09021 50594 06186 11010
40764 19377 00504 30971 34573 09521 25096 449// 11017
20241 559// 09017 15421 641// 05011 10660 765// 10510
88999
77999=
TTAA 61121 83746 99014 31061 36002 00136 27857 31502 92824
23656 33009 85559 19456 32006 70202 10062 05508 50591 07168
08010 40761 19575 05522 30967 36959 05020 25091 45366 09521
20237 54964 13037 15417 64566 09018 10659 74367 10517 88999
77999=
TTAA 61121 83779 99934 27660 06002 00117 ///// ///// 92808
26059 33007 85546 20050 33017 70193 09056 07503 50589 08562
01019 40759 19567 02027 30966 34763 08513 25091 42768 12033
20237 55957 14034 15416 62770 12020 10659 75764 16515 88999
77999=
0000145800
223
USBZ04 SBBR 111200
TTAA 6112/ 83768 99950 27335 09002 88999 77999=
TTAA 61121 83827 99985 26856 03003 00108 ///// ///// 92797
26860 36016 85539 21258 34517 70183 08656 34015 50588 07384
07505 40757 18768 24006 30966 32574 24018 25092 41368 25021
20239 54358 26019 15418 67756 23047 10660 73568 02508 88144
69756 22544 77999=
TTAA 61121 83840 99915 22029 06010 00126 ///// ///// 92811
///// ///// 85542 18232 02507 70185 09259 28510 50589 08756
24007 40758 19768 29012 30966 34356 28011 25090 44158 09007
20236 56557 05016 15417 62971 18519 10657 78364 18006 88101
78364 16006 77999=
TTAA 61121 83899 99012 24027 35004 00110 23840 33511 92790
22258 33021 85525 21865 27025 70170 08257 25022 50586 09156
21517 40756 18726 25012 30964 33758 27014 25089 44950 28014
20234 55160 32515 15415 62171 19520 10657 74766 26512 88105
75367 31510 77999=
TTAA ///// 83928 NIL=
TTAA 61121 83937 99002 22029 00000 00105 21830 00000 92784
24457 30515 85521 19861 25511 70155 08250 25513 50584 10140
32530 40754 20337 33513 30961 34148 30546 25086 43756 29545
20232 54557 29548 15412 65356 26528 10657 72368 28520 88999
77213 29060 41224=
TTAA 61121 83971 99012 24848 33003 00109 22636 30005 92787
21058 26508 85515 17860 29513 70151 08256 27519 50584 08931
28527 40754 20558 24521 30961 33161 31531 25087 43756 29038
20233 55357 29551 15412 62160 27037 10656 72967 28025 88102
74767 27025 77188 28066 42923=
0000026000
224
ULAG01 SABM 111200
TTCC ///// 87047 NIL=
TTCC ///// 87155 NIL=
TTCC 61122 87344
70863 70175 18508 50066 61980 03515 30387 57582 08526
20649 51583 11524 10112 /////
88740 71775 21510
77999
31313 48008 81105=
TTCC ///// 87418 NIL=
0000012800
225
SNVD20 KWNB 111300 RRK
BBXX
41033 11131 99323 70804 46/// /1907 10142 40150 91300 333 91208
555 11094 22113=
0000056800
226
SNVD01 PANC 111300 RRE
BBXX
PHEO 11134 99213 71584
41398 41113 10230 20207 40080 56020 70311 842//
22263 00260 20301 317// 40905 80215=
C6FN4 11134 99264 70863
41998 12023 10250 20222 40160 54/// 7//11 810//
22264 04217 20504 3//// 4//// 5//// 6//// 80230 ICE /////=
V7YW3 11134 99254 70576
41698 70828 10210 2020/ 40230 54000 78032 85948
22273 04150 20502 30808 40806 50806 6//// 80200 ICE /////=
C6ZI9 11133 99196 70824
416// 41217 10270 2//// 40140 54/// 7//00 84///
22234 0//// 2//// 3//// 4//// 5//// 6//// 8//// ICE /////=
0000012600
227
SNAU45 AMMC 111300 RRO
AAXX 11134
95661 454// 11614 10173 20149 30208 40218 51002 91330
  333 10246=


0000017900
228
SNVD01 PANC 111100 RRF
BBXX
WOSI 11114 99314 70234
41598 62319 10200 20153 40170 51010 70122 84278
22223 0//// 20402 325// 40604 5//// 6//// 80170 ICE /////=
0000010600
229
SMVD01 KWBC 110600 RRX
BBXX
3FJM9 11063 99236 71122 41/98 43517 1020/ 4017/ 7//11 22233=
0000013600
230
SNVD17 CWVR 111300
BBXX
46185 11131 99524 71298 46/// /2005 10066 49812 52004
22200 00074 1//// 70/// 333 91207 =

0000017900
231
SMVB01 KWBC 111200 RRH
BBXX
V7QK3 11123 99107 11202 41597 60230 10270 2020/ 40120 52001 7//11
 86866 22213 00310 20403 302// 40506 5//// 6//// 80220 ICE /////=
0000017800
232
SMVD11 KWBC 111200 RRD
BBXX
WMLI 11124 99063 71409 41497 80412 10250 20222 40100 5//// 76162
 887// 22254 04246 20402 304// 41005 5//// 6//// 80230 ICE /////=
0000021400
233
SMVF01 KWBC 111200 RRL
BBXX
BSH05 11121 99549 10082 46/// ///// 22200 00062 20703 70017=
63119 11123 99582 70002 41397 83238 10036 21001 40076 53018 78182
 867// 22200 20306 328// 40606 5////=
0000012600
234
SNAU45 AMMC 111300 RRP
AAXX 11134
95664 45/// /1814 10203 20147 30176 40184 51006 91330
  333 10301=


0000034500
235
SNVD01 KWBC 111100 RRU
BBXX
42887 11111 99282 70885 46/// /2212 10226 20203 91120 22200 10402
 70009 555 11097 22106=
42392 11111 99272 70900 46/// ///// 1//// 91120 22200 10402 70009=
42375 11111 99285 70883 46/// /1813 1//// 91120 22200 10402 70010
 555 11104 22113=
42369 11111 99272 70903 46/// /2003 1//// 91120=
0000012600
236
SNAU45 AMMC 111300 RRQ
AAXX 11134
95687 45/// /2011 10229 20097 30142 40180 51011 91330
  333 10368=


0000012600
237
SNVA01 KWBC 111300 RRB
BBXX
DBBH 11131 99173 30117 41/98 /2005 10184 20166 40137 57014 7////
 22282 04174=
0000023300
238
SNVB01 KWBC 111300 RRB
BBXX
JGQH 11134 99304 11370 46/// /3013 10127 20013 40272 58001 8////
 22241 00190 10703 70015=
JPBN 11134 99252 11290 46/// /0714 10181 20081 40264 52011 8////
 22271 00236 1//03 70017=
0000362000
239
SNVD01 KWBC 111300 RRH
BBXX
46204 11131 99514 71288 46/// /1806 10076 49825 57012 22200 0////
 10905 70023 333 91208=
46131 11131 99499 71250 46/// /2308 10076 49874 52006 22200 00079
 10602 70011 333 91211=
46145 11131 99544 71324 46/// /0008 10027 49808 52024 22200 00068
 11203 70015 333 91209=
46147 11131 99518 71312 46/// /0904 10055 49799 54000 22200 00074
 11007 70035 333 91206=
44040 11131 99410 70736 46/// /1709 10110 20110 91245 22200 10201
 70004 333 91212 555 11108 22129=
46114 11131 99367 71223 46/// ///// 1//// 91308 22200 00126 11307
 20903 331// 41306 70033=
51206 11131 99198 71550 46/// ///// 1//// 91303 22200 00248 10905
 20904 334// 41302 70024=
46215 11131 99352 71209 46/// ///// 1//// 91305 22200 00131 11204
 21002 327// 41204 70022=
46211 11131 99469 71242 46/// ///// 1//// 91313 22200 00084 11008
 21006 323// 41106 70042=
46219 11131 99332 71199 46/// ///// 1//// 91310 22200 00142 11305
 21003 330// 41304 70025=
44095 11131 99358 70753 46/// ///// 1//// 91317 22200 00133 10805
 20805 313// 41101 70026=
44100 11131 99363 70756 46/// ///// 1//// 91304 22200 00090 10804
 20804 312// 41101 70019=
41115 11131 99184 70673 46/// ///// 1//// 91311 22200 10802 20802
 301// 41201 70011=
41113 11131 99284 70805 46/// ///// 1//// 91310 22200 00180 10802
 20802 70010=
C6FN4 11134 99264 70863 41998 12023 10250 20222 40160 54/// 7//11
 810// 22264 04217 20504 3//// 4//// 5//// 6//// 80230 ICE /////=
PHEO 11134 99213 71584 41398 41113 10230 20207 40080 56020 70311
 842// 22263 00260 20301 317// 40905 80215=
V7YW3 11134 99254 70576 41698 70828 10210 2020/ 40230 54000 78032
 85948 22273 04150 20502 30808 40806 50806 6//// 80200 ICE /////=
44022 11131 99409 70737 46/// /2007 10098 20094 91315 333 91211
 555 11088 22103=
44099 11131 99369 70757 46/// ///// 1//// 91318 22200 00065 10803
 20803 312// 41101 70016=
44039 11131 99411 70727 46/// /1808 10085 20084 91300 333 91210
 555 11098 22118=
44096 11131 99370 70758 46/// ///// 1//// 91317 22200 00068 10802
 20702 314// 40801 70011=
44060 11131 99413 70721 46/// /1706 10079 20076 40161 58042 91300
 22200 00042 333 91207 555 11067 22082=
46223 11131 99335 71178 46/// ///// 1//// 91248 22200 00156 11402
 20901 327// 41401 70008=
46222 11131 99336 71183 46/// ///// 1//// 91233 22200 00157 11302
 20901 328// 41302 70011=
46225 11131 99329 71174 46/// ///// 1//// 91242 22200 00154 11302
 20801 328// 41301 70010=
46216 11131 99343 71198 46/// ///// 1//// 91242 22200 00148 11303
 21002 326// 41302 70013=
46217 11131 99342 71194 46/// ///// 1//// 91309 22200 00153 11302
 21001 327// 41301 70010=
46251 11131 99338 71196 46/// ///// 1//// 91309 22200 00154 11303
 21002 327// 41302 70015=
46243 11131 99462 71241 46/// ///// 1//// 91316 22200 00086 11010
 21008 322// 41106 70051=
41053 11131 99185 70661 46/// /1006 10249 40196 91250 333 91208
 555 11061 22067=
41053 11131 99185 70661 46/// /1105 10249 40194 91240 333 91206
 555 11054 22058=
46126 11131 99540 71666 46/// /2406 10045 49798 56010 91300 22200
 00046 1//00 70002 333 91209 555 11067 22073=
44063 11131 99390 70764 46/// /2001 10026 40095 91310 333 91202
 555 11012 22013=
44064 11131 99370 70760 46/// /1806 10142 40126 91310 333 91207
 555 11073 22079=
44042 11131 99380 70763 46/// /1805 10093 40110 91310 333 91207
 555 11060 22065=
44041 11131 99372 70768 46/// /1805 10145 91310 333 91207 555
 11061 22067=
46207 11131 99509 71299 46/// /1507 10079 49806 57022 22200 00077
 10807 70034 333 91209=
0000371000
240
SNVF01 KWBC 111300 RRC
BBXX
62303 11134 99516 70051 46/// /3504 10078 20011 40209 22200 10603
 70014=
64046 11134 99605 70042 46/// /2925 10066 20019 40033 333 90710
 91133=
62095 11134 99529 70156 46/// /1725 10097 20051 40111 58017 22200
 00100 10807 70036 333 90710 91134=
62304 11134 99512 10018 46/98 /3321 10078 20026 40195 51027 22200
 00103 10501 70006 333 90710 91129=
62050 11134 99500 70044 46/// /1205 10098 20035 40211 22200 10602
 70011=
62081 11134 99521 70105 46/// /1310 10073 20034 40177 58005 22200
 10806 70029=
62305 11134 99504 70000 46/// /3011 10083 20038 40211 51019 22200
 00110 10601 70007=
AMOUK36 1113/ 99581 70014 46/// ///// 10057 20008 40086=
AMOUK33 1113/ 99555 10084 46/// ///// 10066 20040 40053=
62169 11134 99614 10014 41498 71011 10025 20025 49975 53015 70222
 8/7// 22200 20606 305// 40905 5//// 80025=
AMOUK26 1113/ 99500 70020 46/// ///// 10095 20033 40212=
AMOUK42 1113/ 99506 70025 46/// ///// 10113 20036 40213=
AMOUK09 1113/ 99517 10017 46/// ///// 10076 20073 40189=
AMOUK29 1113/ 99506 70081 46/// ///// 1//// 2//// 40196=
AMOUK11 1113/ 99533 70046 46/// ///// 10073 20022=
AMOUK34 1113/ 99516 10024 46/// ///// 10083 20031 40172=
AMOUK04 1113/ 99536 70045 46/// ///// 10072 20026 40189=
AMOUK28 1113/ 99577 70065 46/// ///// 1//// 2//// 40125=
AMOUK44 1113/ 99544 70043 46/// ///// 1//// 2//// 40184=
AMOUK31 1113/ 99558 70055 46/// ///// 10076 20031 40163=
AMOUK03 1113/ 99537 70003 46/// ///// 10072 20024 40161=
AMOUK02 1113/ 99536 70046 46/// ///// 10069 20027 40194=
AMOUK43 1113/ 99544 70044 46/// ///// 10063 20029 40176=
AMOUK30 1113/ 99566 70065 46/// ///// 10071 20000 40144=
AMOUK32 1113/ 99559 70047 46/// ///// 10059 20016 40154=
AMOUK45 1113/ 99509 70014 46/// ///// 10083 20008 40198 22200
 401980104=
AMOUK24 1113/ 99571 70072 46/// ///// 10068 20015 40119=
AMOUK23 1113/ 99577 70023 46/// ///// 10049 20006 40096=
AMOUK13 1113/ 99512 10016 46/// ///// 10118 20047 40193=
AMOUK06 1113/ 99510 10012 46/// ///// 10093 20072 40198=
AMOUK14 1113/ 99533 70062 46/// ///// 10081 21008 40200=
AMOUK05 1113/ 99519 10041 46/// ///// 10081 20053 40161=
62117 11134 99579 10000 47598 /2826 10059 20008 40061 51013 700//
 22200 10605 70026=
62143 11134 99577 10018 47698 /3113 10059 20011 40077 51013 700//
 22200 10605 70027=
62155 11134 99577 10007 47498 /2927 10058 20011 40077 52011 762//
 22200 10606 70030=
62118 11134 99577 10009 47598 /2926 10057 20012 40067 52013 700//
 22200 10706 70030=
62116 11134 99576 10011 47598 /2926 10053 20008 40066 51011 700//
 22200 10605 70027=
62104 11134 99574 10013 47598 /2926 10066 20015 40068 52009 700//
 22200=
62122 11134 99573 10016 47598 /2928 10060 20012 40073 52009 700//
 22200 10605 70027=
62153 11134 99573 10020 47498 /2916 40069 53010 762// 22200 10605
 70026=
62146 11134 99572 10021 47497 /2809 10042 20004 40076 51009 762//
 22200 10605 70026=
62140 11134 99573 10013 46/// ///23 10055 20008 40074 51009 22200=
62133 11134 99571 10009 46/// /2923 40081 52010 22200 10605 70026=
62119 11134 99570 10019 47598 /2926 10061 20008 40084 52011 700//
 22200 10605 70025=
62164 11134 99572 10008 47598 /2823 10064 20016 40081 52011 700//
 22200 00084 10606 70029=
62123 11134 99563 10022 47598 /3024 10058 20010 40083 51006 700//
 22200 1//05 70026=
62152 11134 99570 10018 47698 /2919 10054 20007 40085 52010 700//
 22200 10605 70027=
62154 11134 99564 10022 46/// /3020 10056 20001 40081 51006 22200=
62132 11134 99564 10020 46/// /2724 10062 21002 40101 52013 22200=
62120 11134 99564 10021 47598 /3026 10057 20003 40083 51008 700//
 22200=
0000374500
241
SNVF01 KWBC 111300 RRD
BBXX
MWYG6 11134 99603 70040 47698 /2729 40041 51014 700// 22200=
62165 11134 99540 10011 47998 /2820 10062 20017 40154 51013 700//
 22200 10504 70018=
62127 11134 99540 10007 47999 ///// 10061 20003 40153 51013 700//
 22200 10503 70017=
62131 11134 99539 10012 46/// /2915 10065 20015 40150 51015 22200=
62149 11134 99537 10011 47998 /2920 10088 20017 40159 52015 700//
 22200 10503 70015=
62148 11134 99536 10015 46/// ///// 22200=
62150 11134 99536 10007 47998 /2720 10062 20018 40172 51017 700//
 22200 10503 70014=
62121 11134 99535 10027 46/// ///// 10067 20017 40142 52019 22200=
62142 11134 99530 10021 47997 /2920 10066 20035 40157 52021 700//
 22200 10403 70016=
62144 11134 99534 10017 47998 /2820 10062 20014 40168 51023 700//
 22200 10503 70016=
62145 11134 99531 10028 47498 /2819 10066 20013 40162 52022 700//
 22200 10403 70016=
64041 11134 99607 70026 47497 /2730 40019 51012 700// 22200 10909
 70045=
62111 11134 99580 70003 46/// /2929 10057 20009 40090 52014 22200
 10605 70027=
PJAI 11134 99581 70014 47598 /2823 10062 21002 40080 52016 700//
 22200=
62112 11134 99584 70002 47498 /2815 10055 20014 40067 53018 700//
 22200=
63055 11134 99606 10016 47496 /2804 10045 20014 40000 51013 762//
 22200 10705 70026=
63108 11134 99608 10017 47/99 /1702 10036 20011 49999 51014 762//
 22200 10706 70028=
63106 11134 99610 10017 46/// /1304 10034 51011 22200=
63105 11134 99610 10017 47598 /1103 10029 21019 40001 51010 700//
 22200=
63113 11134 99610 10017 46/// /1103 10060 20008 40001 51011 22200
 10706 70028=
63112 11134 99611 10010 47998 /1605 10040 20015 49994 50005 700//
 22200 10706 70030=
63107 11134 99611 10017 46/// /1303 10033 40000 51011 22200=
63101 11134 99612 10009 46/// /1408 10033 20009 49996 50002 22200
 10806 70031=
63103 11134 99612 10011 46/// ///// 10027 20004 49988 50003 22200
 10806 70029=
63104 11134 99612 10016 47598 /1203 10025 21017 40001 51009 700//
 22200 10806 70028=
62170 11134 99514 10020 46/98 /2920 10081 20038 40193 51030 22200
 00106 10501 70005 333 90710 91127=
ZCEF2 11134 99492 70078 41798 41228 10100 20044 40193 58016 70300
 8404/ 22254 00110 20802 327// 41007 80075=
63117 11134 99613 10011 47498 /1306 49999 51002 767// 22200=
63114 11134 99613 10017 47599 /1002 10029 21026 49999 51007 700//
 22200=
62102 11134 99579 10018 46/// /2926 10066 20004 40051 51007 22200
 10606 70029=
63115 11134 99616 10013 47598 /1105 10029 21015 49997 51004 700//
 22200 10806 70029=
63109 11134 99596 10015 46/// /3026 10062 20023 40012 51010 22200=
63056 11134 99597 10016 47598 /2925 10063 20010 40011 52009 700//
 22200 10606 70032=
63110 11134 99595 10015 47598 /2923 10066 20025 40024 51011 700//
 22200 10706 70030=
63057 11134 99592 10015 47498 /2820 10058 20014 40024 51012 700//
 22200 10706 70031=
MQSY9 11134 99593 10015 47498 /2826 10061 20020 51011 700// 22200=
62129 11134 99584 10003 46/// /2926 10047 20011 40060 52014 22200=
62128 11134 99587 10014 47598 /2823 10051 20014 40045 52007 700//
 22200 10707 70034=
62113 11134 99584 10002 47498 /2925 10049 20010 40064 52012 700//
 22200=
62107 11134 99501 70061 46/// /1209 10095 20038 40211 58001 22200
 00105 11005 70026=
ZQSD5 11134 99583 10008 47497 ///// 10049 20027 40052 52013 761//
 22200 1//08 70038=
64045 11134 99591 70117 46/// /2516 10064 21004 40105 51023 22200
 00098 10809 70045=
62114 11134 99583 10000 46/// /3030 10036 20007 40059 52013 22200=
62134 11134 99580 10014 47596 /3025 10058 20015 40058 51010 700//
 22200 10606 70030=
62103 11134 99499 70029 46/99 /0208 10089 20030 40217 50005 22200
 00111 10803 70014=
00000000