0000009300
902
SAIN34 VOMM 111310 RRA
METAR VOMM 111310Z 05006KT 6000 NSC 24/19 Q1013 NOSIG=
0000010400
903
UANT99 KDDL 111322
ARP AAL49 ATSIX 1322 F340 MS52 267/62 KT
N355AA DDL SYY 111322 F33A
0000011100
904
UANT99 KDDL 111322
ARP BER7444 4701N01830W 1322 F340 MS59 209/84 KT
DALPC QXT AOE 111322 J19A
0000011100
905
UANT99 KDDL 111322
ARP UAL967 5202N01555W 1322 F340 MS62 231/81 KT
N672UA DDL XXW 111322 F98A
0000030400
906
USFG01 SOCA 111200
TTAA 61121 81405 99014 23214 18001 00131 22200 16003 92806 18800
05015 85531 15800 06513 70163 08000 11506 50586 08147 30512 40757
15767 01509 30967 32171 28039 25094 413// 26050 20241 533// 22547
15420 689// 27554 10654 763// 33514 88999 77999 31313 47708 81223=
0000064200
907
SAER10 OMAM 111300
METAR OMAD 111300Z 32007KT 9999 -RA SCT045 21/15 Q1019 A3010 NOSIG=
METAR OMAH 111300Z 02005KT 7000 -RA OVC080 17/13 Q1019 A3009=
METAR OMAM 111300Z 28005KT 9999 -RA FEW040 BKN090 22/10 Q1018 A3008=
METAR OMDL 111300Z VRB02KT 7000NDV -RA OVC080 17/12 Q1018 A3007=
METAR OMDM 111300Z 30005KT CAVOK 21/11 Q1019=
METAR OMLW 111300Z 19004KT 170V230 CAVOK 22/11 Q1018=
METAR OMMZ 111300Z AUTO 00000KT /////NDV //// ///// 22/10 Q1019 A3009=
METAR OMSN 111300Z AUTO 20004KT 170V230 /////NDV //// ///// 18/13 Q1020 A3012=
METAR OMSW 111300Z NIL=
METAR OMTH 111300Z 36002KT 9999 BKN090 20/09 Q1021=
0000023800
908
SWVD12 LFPW 111300
MMXX 41300 11014 1300/ 71551 05728 00011 15400 20285 30090
11130 0005/ 1024/ 30/// 14054 11174
22226 89007 10001 30624 55967 70046 92221 13219 31413
50710 70508 90303 10505 30302 50201 70201 90101=
0000009300
909
UAIY61 LIIB 111320
AIREP SPECIAL: MED REP MOD ICE OVER KALMO POINT FL190/220=
0000216500
910
SZNZ01 NZKL 111324
CREX++
T000103 A001 D01021 D06025++
-3683144 17478654 AUCT  2014 01 11 13 16 //// 11 07 00 01
05171 3216 05179 3215 05186 3214 05194 3214 05202 3214 05211 3214+
-4402404 -17636748 CHIT  2014 01 11 13 16 //// 11 07 00 01
05435 2150 05417 2131 05426 2140 05424 2137 05409 2122 05409 2121+
-4089929 17623168 CPIT  2014 01 11 13 16 //// 11 07 00 01
04457 2301 04459 2301 04450 2290 04452 2290 04446 2282 04433 2266+
-3618905 17548887 GBIT  2014 01 11 13 16 //// 11 07 00 01
05907 0008 05920 0016 05933 0023 05937 0022 05934 0013 05930 0004+
-3867541 17802288 GIST  2014 01 11 13 16 //// 11 07 00 01
04380 2718 04383 2717 04400 2731 04384 2712 04412 2737 04409 2730+
-4241288 17370277 KAIT  2014 01 11 13 16 //// 11 07 00 01
03991 2256 03999 2263 03993 2255 03997 2259 03988 2248 04004 2263+
-3755040 17815904 LOTT  2014 01 11 13 16 //// 11 07 00 01
03695 0205 03703 0208 03710 0210 03718 0214 03711 0202 03712 0198+
-3704657 17451175 MNKT  2014 01 11 13 16 //// 11 07 00 01
01769 -0153 01788 -0135 01783 -0142 01778 -0148 01786 -0142 01779 -0151+
-3947566 17692007 NAPT  2014 01 11 13 16 //// 11 07 00 01
03455 1964 03447 1954 03464 1968 03482 1983 03479 1977 03488 1984+
-3441483 17304870 NCPT  2014 01 11 13 16 //// 11 07 00 01
-04035 -8214 -04010 -8195 -03873 -8064 -03995 -8191 -03961 -8162 -04076 -8283+
-4581435 17062939 OTAT  2014 01 11 13 16 //// 11 07 00 01
05364 3486 05365 3489 05361 3487 05357 3485 05353 3483 05350 3482+
-2928002 -17789440 RBCT  2014 01 11 13 16 //// 11 07 00 01
06003 1949 06019 1960 06030 1968 06022 1957 06015 1946 06022 1950+
-2925114 -17790384 RFRT  2014 01 11 13 16 //// 11 07 00 01
02985 0170 02973 0155 02976 0154 02970 0144 02976 0146 02977 0144+
-4357010 17277383 SUMT  2014 01 11 13 16 //// 11 07 00 01
02772 1823 02772 1822 02780 1828 02783 1831 02790 1838 02774 1821+
-3764109 17618118 TAUT  2014 01 11 13 16 //// 11 07 00 01
05158 4007 05164 4007 05171 4008 05175 4008 05181 4008 05183 4005+
-4128448 17477985 WLGT  2014 01 11 13 16 //// 11 07 00 01
03650 2022 03649 2020 03654 2024 03648 2018 03656 2025 03654 2023++
7777
0000032800
911
USSP01 LEMM 111200 RRB
TTAA 61121 08001
99011 12045 13003 00154 09647 10510 92798 06457 08511
85491 05675 11504 70051 02982 21510 50563 19967 25511
40725 32159 27020 30921 48739 30041 25038 58157 31025
20176 63161 28533 15357 54982 26523 10617 54582 26016
88207 65750 29028
77999
31313 48008 81136=
0000021000
912
SZSR01 WSSS 111324
CREX++
T000103 A001 D01021 D06025++
0126166 10385160 00044 2014 01 11 12 42 //// 11 07 00 06
02194 -0066 02211 -0059 02212 -0068 02210 -0070 02212 -0078 02216 -0074++
7777
0000097300
913
SNGL61 EKMI 111300
AAXX 11134
04211 47/34 /3210 11083 21090 39814 49976 54000 77781 =
04213 46/// /2510 11068 21183 39843 49954 52001 =
04220 45984 81809 11090 21124 39914 49966 52010
  333 55300 20004 87/61 88/62 =
04221 45784 80703 11094 21197 39923 49961 52010
  333 85/56 88/59 =
04224 45984 81808 11090 21129 39930 49964 52010
  333 88/61 =
04231 45884 70604 11172 21225 39916 49993 52015
  333 85/57 87/59 =
04234 45/84 /0806 11104 21176 39954 49965 52009 =
04241 45984 10909 11103 21156 39931 49972 52013
  333 81/68 =
04250 45/84 00512 11089 21164 39844 49951 52012
  333 55300 20004 =
04260 45/83 /1304 11104 21193 39898 49946 52005 =
04270 45/84 /0612 11109 21211 39929 49969 52001 =
04272 45984 50507 11084 21139 39880 49954 57003
  333 81/61 83/63 85/64 =
04320 45/83 03115 11185 21219 30028 40044 52001
  333 55300 20011 =
04339 NIL =
04360 NIL =
04390 45/84 /2507 11075 21165 39856 49951 52014 =
0000011100
914
UANT01 CWAO 111322
ARP AAL211 5301N01627W 1322 F350 MS64 228/79 KT
N185AN DDL BLY 111322 F23A
0000011000
915
UANT01 CWAO 111322
ARP DAL131 5140N03427W 1322 F340 MS54 230/9 KT
N171DZ QXT AOE 111322 F22A
0000011100
916
UANT01 CWAO 111322
ARP BER7210 4921N03720W 1322 F380 MS54 312/24 KT
DALPH QXT AOE 111322 J46A
0000010900
917
UANT01 CWAO 111322
ARP SWR16 5042N03416W 1322 F380 MS53 245/21 KT
HBJHJ QXT AOE 111322 J35A
0000015600
918
SNVF20 EHDB 111300 RRA
BBXX
D5DK7 11133 99430 70098 41598 10910 10118 20085 40168 54000 70100
8116/ 22284 04140 20704 314// 40806 80100=
0000014200
919
ULSP01 LEMM 111200 RRC
TTCC 61123 08001 70844 54183 24018 50061 53183 22013 30395 47984
30007 88999 77999 31313 48008 81136=
0000045200
920
UESP01 LEMM 111200 RRC
TTDD 6112/ 08001 11840 55782 22506 52383 33477 54383 44375 47185
55311 49584 66259 45585 21212 11955 23517 22864 23519 33842 25019
44800 21014 55767 24023 66731 22517 77685 25516 88657 24004 99638
21010 11611 20014 22586 23513 33555 18510 44538 18514 55518 22014
66474 20012 77445 21010 88426 20010 99417 22012 11383 20013 22368
24015 33360 25510 44348 27502 55329 01512 66260 04011 31313 48008
81136=
0000095200
921
UKSP01 LEMM 111200 RRB
TTBB 61128 08001 00011 12045 11010 10650 22911 05857 33909 05857
44905 07681 55897 08287 66843 05269 77835 05659 88715 04735 99710
03372 11704 02781 22672 03990 33441 26364 44366 37750 55348 40159
66307 47521 77298 48750 88267 55350 99256 56959 11232 61750 22207
65750 33187 57376 44177 59775 55147 53183 66106 56582 77100 54583
21212 00011 13003 11997 10010 22973 12014 33953 11513 44916 08511
55797 14501 66739 23510 77713 23012 88695 21011 99626 25516 11589
23511 22581 24510 33574 27511 44529 22012 55508 26010 66469 25507
77456 28012 88431 26519 99375 26520 11317 30529 22300 30041 33262
29019 44245 31526 55216 31024 66202 28035 77191 29028 88185 27521
99178 26023 11171 27534 22162 28529 33156 27017 44153 25520 55149
27024 66142 26530 77136 28023 88122 26026 99115 28019 11108 25018
22104 26523 33100 26016 31313 48008 81136 41414 00900 51515 11895
12007 22800 12002 33600 24014=
00000000