0000088200
222
SNNL52 EHDB 111300
AAXX 11131
06210 45571 13107 10077 20048 30153 40153 53023 8////
333 81/27 91009 91112 91209
555 53071=
06225 46/// /3011
333 91013 91113 91211=
06242 47563 73112 10072 20033 30126 40128 52025 72300 8////
333 81/21 83/59 87/62 91014 91115 91213=
06257 46/// ///// 10079 20038
555 53053=
06275 47338 82407 10061 20055 30081 40137 55002 75880 8////
333 82/07 84/08 86/10 91010 91111 91207
555 53017=
06330 46/// /3112 10082 20035 30144 40158 52020
333 91015 91115 91212
555 53069=
06340 47475 72906 10079 20053 30149 40168 53014 72380 8////
333 83/17 85/21 85/24 91010 91110 91207=
06350 47459 72705 10079 20061 30141 40156 53005 78100 8////
333 82/10 84/13 85/17 91009 91110 91205
555 53033=
06375 47356 82505 10064 20053 30124 40149 53001 72380 8////
333 81/07 85/08 87/09 91008 91109 91206
555 53015=
0000117900
223
SNNL53 EHDB 111300
AAXX 11131
06248 46/// /3104
333 91006 91117 91211=
06249 47/78 /3006 10070 20042 72388
333 91008 91115 91212
555 53042=
06267 47468 72907 10067 20048 72386 8////
333 81/14 83/32 85/47 91009 91112 91209
555 53010=
06273 47/61 /3110 10054 20032 76266
333 91015 91116 91210
555 53018=
06277 46/// /3107 10070 20043
333 91008 91111 91210
555 53022=
06278 46/// /2604 10064 20056
333 91007 91110 91207
555 53013=
06279 47250 82505 10061 20052 30097 40117 55002 76165 8////
333 81/06 88/24 91007 91112 91208
555 53018=
06283 46/// /2407 10056 20048
333 91010 91110 91207
555 53009=
06286 46/// /2808 10060 20042
333 91012 91113 91210
555 53016=
06319 43/81 /2908 10087 20050 30173 40175 53017
333 91011 91111 91208
555 53070=
06348 45/82 /3108 10073 20040 30151 40150 53014
333 91011 91113 91209
555 53039=
06356 464// 72908 10077 20052 30148 40149 53007 8////
333 81/10 84/18 85/20 91011 91111 91208
555 53042=
06377 47359 82505 10070 20058 75186 8////
333 82/08 85/10 87/13 91007 91109 91206
555 53022=
06391 46/// /2405 10063 20052
333 91008 91109 91205
555 53013=
0000040600
224
SNNL54 EHDB 111300
AAXX 11131
06209 NIL=
06285 NIL=
06308 NIL=
06311 NIL=
06312 NIL=
06313 NIL=
06315 NIL=
06316 NIL=
06320 46/71 /3110 10078 20043 30137 40164 51025 222// 00081 10503
333 91012 91114 91211=
06321 46/74 /3110 10084 20028 30144 40168 51026 222// 00086 10503
333 91012 91113 91210=
06324 NIL=
06331 NIL=
06343 46/// /3008
333 91013 91114 91210=
0000117600
225
SNEO21 EEMH 111300
AAXX 11131
26038 27421 /1701 11011 21012 39957 49998 57006 76776
 333  11009 21016 69937 8//11
 555  1/101 21016 3/101 51001 52102=
26045 27376 83003 11015 21033 30000 40002 50006 78588 88///
 333  11004 21021 60007 88/10
 555  21021 51002=
26058 27368 83403 11031 21044 39964 49999 52014 78580 88///
 333  11024 21034 60007 88/09 91108
 555  21034 51015=
26115 27381 73200 10007 20007 39989 49997 57008 76176 85///
 333  10018 20003 60017 85/07
 555  1/001 20003 3/100 50017=
26135 27458 82301 11008 21020 39931 40006 50001 76787 88///
 333  11003 21012 60007 88/11
 555  1/100 21012 3/101 50001 52101=
26141 27358 83401 11027 21032 39855 40006 50007 78580 88///
 333  11020 21029 60007 88/10
 555  1/101 21029 3/102 51015 52103=
26231 27150 72202 10003 20003 39992 40007 58006 77187 87///
 333  10015 20002 69957 87/02
 555  1/001 20002 3/000 50014=
26242 27460 82902 11004 21020 39924 40011 51008 77787 88///
 333  10002 21011 60007 88/13
 555  1/000 21011 3/100 50007 52101=
26247 27/56 /2803 10006 20006 39936 40016 50005 77177
 333  10011 20001 69927
 555  1/001 20001 3/000 50015=
0000166600
226
SASA85 EGRR 111300 RRA
METAR SARI 111300Z 06006KT CAVOK 28/24 Q1014=
METAR SBAR 111300Z 12010KT 9999 SCT016 29/20 Q1015=
METAR SBBE 111300Z 06006KT 9999 BKN017 BKN100 27/23 Q1013=
METAR SBBR 111300Z 06009KT 9999 SCT030 26/16 Q1021=
METAR SBCR 111300Z 36004KT CAVOK 30/23 Q1013=
METAR SBCT 111300Z 36003KT 9999 BKN013 BKN100 25/21 Q1020=
METAR SBCY 111300Z 30006KT CAVOK 28/22 Q1014=
METAR SBFI 111300Z 03006KT CAVOK 31/23 Q1013=
METAR SBFL 111300Z 34009KT CAVOK 27/22 Q1013=
METAR SBFN 111300Z 09012KT 9999 SCT021 28/20 Q1014=
METAR SBFZ 111300Z 09020KT 9999 SCT025 30/17 Q1013=
METAR SBGO 111300Z 03008KT 9999 FEW030 26/15 Q1018=
METAR SBMA 111300Z 07006KT 9999 SCT015 BKN100 27/23 Q1014=
METAR SBMO 111300Z 11008KT 9999 SCT020 30/18 Q1015=
METAR SBNT 111300Z 13014KT 9999 BKN030 29/21 Q1013=
METAR SBPA 111300Z 28005KT 9999 FEW033 26/21 Q1012=
METAR COR SBRF 111300Z 12008KT 070V180 1500 R36/1100 R18/1600 RA BKN0
      08 BKN017 OVC050 24/23 Q1014=
METAR SBRF 111300Z 12008KT 070V180 9999 R36/1100 R18/1600 RA BKN008
      B KN017 OVC050 24/23 Q1014=
METAR SBTT 111300Z 32003KT 2000 1000SW RA BCFG BR BKN010 BKN014 OVC07
      0 24/24 Q1014=
METAR SLCB 111300Z 00000KT 9999 FEW027 SCT200 21/10 Q1026=
METAR SLLP 111300Z 11004KT 9999 FEW003 SCT014 10/04 Q1038=
METAR SLVR 111300Z 35009KT 9999 BKN007 BKN015 25/23 Q1013=
METAR SMJP 111300Z 35005KT 9999 FEW012 SCT035 23/22 Q1015 NOSIG=
METAR SPIM 111300Z 17008KT 140V200 9999 SCT006 BKN008 22/19 Q1012 NOSIG
      RMK PP000=
METAR SUMU 111300Z 19017KT 9999 SCT026 BKN040 22/16 Q1016 NOSIG=
METAR SVVA 111300Z 09005KT 9999 FEW016 25/21 Q1018=
0000164900
227
SASA85 EGRR 111300 RRB
METAR SBKP 111300Z 02010KT 9999 FEW045 28/18 Q1018=
METAR SBMN 111300Z 05003KT 9999 SCT010 BKN100 25/22 Q1015=
METAR SBRB 111300Z 05003KT 9999 SCT010 SCT100 ///// Q1014=
METAR SBRJ 111300Z 03004KT CAVOK 31/23 Q1014=
METAR SBSN 111300Z 00000KT 9999 SCT015 BKN100 27/22 Q1014=
METAR SEGU 111300Z 24004KT 9999 BKN026 OVC100 25/20 Q1012 RMK A2988
      NOSIG=
METAR SELT 111300Z 17009KT 8000 BCFG SCT010 BKN020 12/11 Q1030=
METAR SEMT 111300Z 23004KT 9999 BKN023 24/22 Q1012=
METAR SPGM 111300Z /////KT 1000 +RA OVC010 21/20 Q1016 RMK TN/19.8
      PP520=
METAR SPHI 111300Z 17009KT CAVOK 22/20 Q1012 RMK PP000=
METAR SPHY 111300Z 35003KT 8000 SCT012 BKN050 09/07 Q1035 RMK PP000=
METAR SPJI 111300Z 00000KT 9999 BKN030 25/23 Q1021 RMK T.MIN 14.4 PP000=
METAR SPLO 111300Z 11009KT CAVOK 24/18 Q1010 RMK TMIN 18.4 PP000=
METAR SPME 111300Z 07004KT 9999 OVC017 24/23 Q1011 RMK BIRD HAZARD
      RWY 32/14 PP000=
METAR SPQT 111300Z 00000KT 9999 SCT010 BKN020 26/23 Q1013 NOSIG RMK
      PP000=
METAR SPQU 111300Z 00000KT CAVOK 16/10 Q1025 NOSIG RMK PP000=
METAR SPRU 111300Z 14007KT 9000 BKN013 OVC100 21/19 Q1012 RMK BR PP000=
METAR SPSO 111300Z /////KT 8000 FEW008 OVC100 22/19 Q1012 RMK BIRD
      HAZARD RWY 22/04 PP000=
METAR SPST 111300Z 30004KT 9999 SCT020 BKN100 25/18 Q1013 RMK BIRD
      HAZARD RWY 17/35 PP000=
METAR COR SPTN 111300Z 15003KT CAVOK 23/16 Q1011 RMK PP000=
METAR SPTU 111300Z 00000KT 9999 FEW007 SCT033 26/24 Q1011 RMK BIRD
      HAZARD RWY 01/19 PP000=
METAR SPZO 111300Z VRB01KT 9999 SCT036 SCT070 13/07 Q1033 NOSIG RMK
      PP000=
0000167200
228
SASA85 EGRR 111300 RRC
METAR SADF 111300Z 16013G23KT CAVOK 21/07 Q1017=
METAR SAWG 111300Z 32007KT 9999 SCT030 BKN100 12/08 Q1010=
METAR SBCZ 111300Z 00000KT 9999 SCT006 BKN100 24/24 Q1013=
METAR SBGL 111300Z 30004KT CAVOK 33/21 Q1014=
METAR SBGR 111300Z 33007KT CAVOK 29/18 Q1019=
METAR SBJP 111300Z 17007KT 9999 BKN025 26/22 Q1014=
METAR SBLO 111300Z 36004KT 9999 FEW025 30/20 Q1018=
METAR SBMQ 111300Z 12006KT 8000 -RA SCT010 BKN030 BKN080 24/23 Q1014=
METAR SBPB 111300Z 08014KT 9999 FEW020 33/23 Q1012=
METAR SBRP 111300Z 02003KT 9999 FEW030 29/19 Q1017=
METAR SBTE 111300Z 00000KT 9999 SCT017 BKN070 29/14 Q1013=
METAR SBUG 111300Z 33007KT 9999 -TSRA SCT010 BKN015 FEW030CB OVC100
      2 1/19 Q1013=
METAR SBUG 111300Z 33007KT 9999 -TSRA SCT010 BKN015 FEW030CB OVC100
      2 1/19 Q1013 RETS=
METAR SOCA 111300Z AUTO 00000KT 5000 -RA BR BKN005/// OVC009/// ///TCU
      23/22 Q1015=
METAR SPCL 111300Z 35005KT 9999 SCT020 BKN100 25/22 Q1013 RMK BIRD
      HAZARD RWY 02/20 PP000=
METAR COR SPHO 111300Z 33003KT 330V090 6000 BCFG SCT020 BKN060 12/09
      Q1027 RMK BCFG EN QUADS PP000=
METAR SPJL 111300Z 00000KT CAVOK 11/04 Q1038 RMK PP000=
METAR SPJR 111300Z 00000KT 9999 SCT080 14/10 Q1028 RMK PP000=
METAR SPMS 111300Z /////KT 9999 SCT015 SCT100 26/23 Q1014 RMK BIRD
      HAZARD 09/27 PP000=
METAR SUAA 111300Z 19011KT 21 9999 SCT023 BKN200 20/14 Q1016=
METAR SUCA 111300Z XXXXXKT CAVOK 21/11 Q1015=
METAR SUDU 111300Z 16015G25KT 9999 FEW020 SCT080 BKN200 22/17 Q1013=
METAR SULS 111300Z 17014KT 9999 FEW023 BKN200 22/13 Q1015=
METAR SUSO 111300Z 18016KT 9999 BKN013 OVC060 24/20 Q1013=
0000172700
229
SASA85 EGRR 111300 RRD
METAR SACO 111300Z 14008KT CAVOK 23/10 Q1022=
METAR SAEZ 111300Z 15014KT 120V190 CAVOK 21/06 Q1019=
METAR SARP 111300Z 18015KT 9999 TS SCT020 FEW050CB OVC050 23/19 Q1014=
METAR SBPL 111300Z 10012KT 9999 SCT025 31/18 Q1016=
METAR SBVT 111300Z 34008KT 9999 FEW023 31/22 Q1017=
METAR SCAR 111300Z 27002KT CAVOK 25/16 Q1012=
METAR SCBA 111300Z 31013KT 270V340 CAVOK 12/04 Q1020=
METAR SCCI 111300Z 26019KT 9999 SCT030 BKN100 12/06 Q1005 NOSIG=
METAR SCDA 111300Z 21009KT CAVOK 24/16 Q1012=
METAR SCEL 111300Z VRB03KT CAVOK 23/07 Q1013 NOSIG=
METAR SCFA 111300Z 19004KT CAVOK 22/15 Q1013 NOSIG=
METAR SCIE 111300Z 21008KT 190V250 CAVOK 19/09 Q1013=
METAR SCSE 111300Z 24005KT 9999 SCT010 OVC014 17/13 Q1014=
METAR SCTE 111300Z 14009KT 9999 SCT017 15/10 Q1021 NOSIG=
METAR SLCA 111300Z 00000KT 9999 NSC 28/21 Q1015=
METAR SLCO 111300Z 35005KT 9999 SCT010 BKN080 27/24 Q1012=
METAR SLCP 111300Z 30003KT 9999 OVC007 25/23 Q1016=
METAR SLJE 111300Z 00000KT 9999 FEW015 29/24 Q1016=
METAR SLJO 111300Z 36004KT 9999 SCT012 BKN080 27/24 Q1012=
METAR SLOR 111300Z 09004KT 9999 NSC 14/05 Q1034=
METAR SLPO 111300Z 06005KT 9999 NSC 12/05 Q1040=
METAR SLPS 111300Z 36005KT 9999 NSC 32/23 Q1012=
METAR SLRQ 111300Z 00000KT 0500 FGDZ OVC004 24/24 Q1012=
METAR SLSA 111300Z 35006KT 9999 SCT015 BKN080 27/25 Q1012=
METAR SLSI 111300Z 33008KT 9999 BKN017 26/22 Q1014=
METAR SLTJ 111300Z 00000KT 9999 FEW030 FEW033TCU 25/17 Q1020=
METAR SLVM 111300Z 36008KT 9999 NSC 32/24 Q1009=
METAR SLYA 111300Z 36005KT 9999 NSC 28/23 Q1010=
METAR SPYL 111300Z 14017KT CAVOK 24/20 Q1012 RMK TMIN 20.2 PP000=
METAR SVMI 111300Z 00000KT 9999 SCT016 26/20 Q1016 NOSIG=
0000035100
230
SAUK53 EGRR 111300
METAR EGUL 111258Z AUTO 29012KT 9999 BKN020 BKN039 OVC048 07/04 A3006
      RMK AO2 CIG 020V033 BKN020 V SCT SLP183 T00710043=
METAR EGUN 111258Z AUTO 29009KT 9999 BKN022 OVC048 07/05 A3007 RMK
      AO2 SLP186 T00710046=
METAR EGVA 111258Z AUTO 29008KT 9999 CLR 08/05 A3010 RMK AO2 SLP198
      T00760051=
0000014800
231
SMVF01 EGRR 111200 RRC
BBXX
62095 11124 99529 70156 46/// /1720 10094 20042 40121 57008 22200
00099 10807 70036 333 90710 91131=
0000310800
232
SNUK42 EGRR 111300
AAXX 11134
03002 47563 /2823 10055 20016 39991 40009 51012 781//
  333 81/27 90710 91132=
03008 46/// /2917 10052 20012 39971 40045 52012
  333 90710 91137 91027=
03010 46/// /2819 10059 20005 40081 52020
  333 90710 91133=
03014 46/// /3030 40033 52013
  333 90710=
03031 45681 /2811 10020 21010 39792 40124 53017
  333 553// 20584 83/35 87/41=
03034 47574 /2713 10050 20011 30109 40123 53019 781//
  333 81/29 86/56=
03037 45667 /2007 10050 20011 30112 40135 51017
  333 82/43 85/50=
03039 46/// /2718 11019 21024=
03044 47679 /2815 10029 20004 30003 40103 52018 781//
  333 553// 20410 81/39=
03047 47383 /2302 10011 21007 39842 40152 53023 785//
  333 553// 20441 83/06 85/39=
03062 47682 /2513 10044 20015 30104 40109 51015 723//
  333 553// 20542 81/43 83/50=
03065 46/// /2731 11058 21067
  333 90710 91146 91045=
03068 42584 12616 10045 21003 30100 40109 52015 81931
  333 81920=
03072 46/// /3033 11030 21070
  333 90710 91151 91047=
03080 45982 /2711 10049 21023 39939 40111 52014
  333 8//99=
03088 45982 /2716 10045 21023 39947 40112 51017
  333 553// 20669 8//99 90710 91125=
03105 47671 /2514 10066 20036 30149 40166 52018 723//
  333 82/43 84/57=
03132 45978 /2614 10050 20032 30163 40177 51015
  333 8//99=
03144 45982 /2309 10038 20013 30096 40140 51017
  333 553// 20535 8//99=
03148 46/// /2914 11005 21029
  333 90710 91129=
03153 45484 /2810 10045 20026 30029 40169 51016
  333 553// 20586 85/11=
03155 46983 /2514 10033 20013 39851 40154 51012
  333 8//99=
03158 45984 /2514 10041 21002 30000 40139 53017
  333 553// 20709 8//99 90710 91125=
03210 46472 /2815 10054 20040 30022 40176 51017
  333 81/12=
03212 45/82 /2906 10059 20019 30075 40175 51017=
03214 45481 /2913 10060 20029 30162 40181 51020
  333 83/18=
03220 46982 ///// 10054 20021 30131 40166 51014
  333 8//99=
03224 45389 /2612 10020 20012 39810 40163 52016
  333 86/08=
03225 46981 /1904 10044 20001 39861 40172 51016
  333 553// 20799 8//99=
03226 45581 /2810 10041 20010 39887 40168 51019
  333 83/26=
03227 46/// /2721 11020 2////
  333 90710 91130=
03230 46983 /2706 10038 20001 39891 40152 52015
  333 8//99=
03238 45981 /2713 10040 20003 39972 40148 53019
  333 8//99=
03261 46977 /2907 10060 20007 30128 40168 51017
  333 8//99=
03265 45683 /2706 10065 21004 30135 40166 51015
  333 81/31=
03266 46982 /2710 10057 20002 30148 40165 51015
  333 8//99=
03275 45975 /2616 10048 20017 39956 40151 51014
  333 8//99=
03281 46/// /2713 10041 20002=
03901 45972 /1305 10039 20025 30091 40181 52010
  333 55310 20768 8//99=
03904 45980 /2504 10045 20018 30119 40180 52011
  333 8//99=
03907 45981 /2309 10048 20027 30167 40174 51014
  333 55310 20673 8//99=
03911 46580 /2902 10020 20001 39906 40186 52014
  333 81/28=
03915 46075 /1406 10029 20012 30096 40176 51013
  333 81/01=
03916 46982 /2506 10038 20000 39981 40175 51015
  333 553// 20722 8//99=
03923 45980 /2307 10024 20015 39986 40187 53016
  333 8//99=
0000390200
233
SNUK43 EGRR 111300
AAXX 11134
03301 46977 /3004 10068 20030 30121 40196 51009
  333 8//99=
03305 45582 /2105 10045 20004 39931 40198 51008
  333 82/29=
03313 46482 /2608 10059 20018 30101 40196 51015
  333 81/18=
03316 45569 /2916 10073 20040 30176 40187 51017
  333 81/21=
03318 46/// /2811 10065 20033=
03321 45980 /2910 10068 20023 30180 40193 51014
  333 55310 20885 8//99=
03330 47266 /3208 10031 20028 39817 40185 51012 723//
  333 85/03 85/14=
03344 45480 /2709 10037 20013 39847 40171 50013
  333 81/13 91020=
03346 46/// /2709 10039 20006
  333 90710 91125=
03351 45480 /2906 10061 20040 30143 40187 51015
  333 55307 20676 85/14=
03373 46589 /2913 10046 20018 30103 40174 53015
  333 83/21=
03379 42582 52914 10064 20021 30104 40182 52019 85800
  333 83820 83635=
03382 45984 /2612 10057 20019 30153 40162 51016
  333 55310 20817 8//99=
03385 46972 /2613 10070 20029 30156 40166 51018
  333 8//99=
03391 42581 22815 10066 20016 30167 40174 51015 82100
  333 82820=
03392 46481 /2815 10062 20031 30170 40174 51020
  333 84/17=
03405 469// /2508 10074 20028 30090 40208 52008
  333 553// 20892 8//99=
03409 46/// /2306 10061 20010 39993 40196 51012
  333 55310 2////=
03410 46983 /3103 10048 21002 39753 40193 51015
  333 553// 21004 8//99=
03469 45484 /2813 10066 20029 30174 40178 51018
  333 553// 20894 81/17=
03488 45880 /2716 10069 20032 30142 40168 51017
  333 81/57=
03503 45581 /2805 10066 20025 30125 40203 51011
  333 87/23=
03520 46979 /2906 10068 20013 30076 40199 51012
  333 553// 20989 8//99=
03522 45972 /2707 10071 20016 30109 40203 50011
  333 8//99=
03529 45984 /2811 10070 20007 30161 40205 51013
  333 8//99=
03544 45581 /2909 10059 20015 30058 40190 51011
  333 553// 20734 84/23=
03560 45580 /3013 10065 20022 30085 40190 51015
  333 553// 20912 81/22=
03604 46981 /3303 10075 20010 30153 40207 51005
  333 8//99=
03605 46980 /2602 10080 20021 30200 40209 51007
  333 8//99=
03609 46/// /3005 10070 20028 30161 40215 51011=
03628 45979 /2509 10072 20027 30131 40204 51008
  333 55310 21038 8//99=
03647 46581 /2912 10059 20022 39938 40196 51013
  333 553// 20971 82/21=
03658 42482 22508 10075 20031 30130 40201 51013 82100
  333 82818=
03660 45480 /3004 10065 20021 39947 40198 51015
  333 83/16=
03672 42583 33109 10077 20015 30157 40198 51015 83100
  333 83825=
03680 46/// ///// 10063 20029 30040 40198 51018
  333 553// 20780=
03684 45981 /2912 10072 20025 30081 40188 51019
  333 8//99=
03693 45980 /3009 10086 20031 30189 40192 51022
  333 8//99=
03707 45980 /3603 10089 21004 30204 40212 51007
  333 8//99=
03710 46981 /3005 10073 20024 39782 40206 51005
  333 553// 21035 8//99=
03743 46982 /2907 10073 20016 30043 40206 51012
  333 8//99=
03749 46982 /2908 10078 20013 30095 40206 51012
  333 8//99=
03761 42580 12810 10076 20014 30057 40203 51014 81101
  333 55310 21047 81820=
03768 46981 /2910 10077 20023 30121 40202 51014
  333 8//99=
03769 45980 /2806 10082 20022 30117 40200 51017
  333 55310 20659 8//99=
03770 46/// ///// 10086 20021=
03781 45580 /2909 10068 20021 39990 40199 51017
  333 553// 20993 81/22=
03784 46/// /2809 10087 20027 30189 40193 51018=
03797 45981 /3010 10077 20031 30133 40193 51022
  333 55310 21021 8//99=
03823 45481 /0403 10080 20037 39961 40206 50002
  333 553// 21091 82/19=
03839 46/// ///// 10087 20043
  333 553// 20995=
03857 45978 /3408 10091 20035 30144 40208 51009
  333 8//99=
03862 45971 /3108 10085 20037 30195 40207 51009
  333 55310 21075 8//99=
03866 46/// /2808 10085 20041 30180 40205 50010=
03872 45982 ///// 10088 20035 30198 40203 51013
  333 553// 21021 8//99 91010=
03876 46/// /0108 10090 20032 30199 40202 51016=
03895 42484 10110 10091 20048 40214 50008 81502 333 81617=
0000125000
234
SREW41 EGRR 111300
03002OTR 03005006 03008006 03017008 03026OTR 03031006 03034OTR
03037000 03044OTR 03047016 03062OTR 03063OTR 03066000 03068000
03075000 03080000 03088000 03091000 03100000 03105OTR 03111000
03132000 03134000 03136000 03144000 03153000 03155000 03158000
03162000 03166000 03171000 03204000 03210000 03212000 03214000
03220000 03224000 03225000 03226000 03230000 03238000 03240000
03257000 03261000 03265000 03266000 03275000 03281000 03292000
03301000 03302000 03305000 03313000 03316000 03318002 03321000
03330OTR 03344000 03346000 03351000 03354000 03373000 03377000
03379000 03382000 03391000 03392000 03405000 03409000 03410000
03414000 03462000 03469000 03482000 03488000 03502000 03503000
03520000 03522000 03529000 03535000 03544000 03560000 03590000
03604000 03605000 03609000 03628000 03647000 03649000 03658000
03660000 03672000 03684000 03693000 03707000 03710000 03716000
03740000 03743000 03746000 03749000 03761000 03768000 03769000
03770000 03772000 03781000 03797000 03803000 03808000 03809000
03823000 03827000 03839000 03840000 03853000 03857000 03862000
03866000 03872000 03876000 03882000 03901000 03904000 03907000
03911999 03915000 03916000 03917000 03923000=
0000011100
235
UANT01 CWAO 111308
ARP DAL241 5101N02004W 1308 F330 MS59 201/80 KT
N176DN QXT AOE 111308 F52A
0000012200
236
SSVX07 KARS 111308
ZZYY 48536 11014 1250/ 175236 148521 6111/
11119 11292
444 20110 11014 1235/ 504//=
0000037800
237
SSVX08 KARS 111308
ZZYY 15007 10014 1200/ 305994 008000 6111/
33311 88872 20020 31811 43576 20040 31711 43580 20060 31655 43575
20080 31622 20100 31591 20120 31562 20140 31535 20180 31472
20300 31130 20500 30742
444 20110 10014 1141/ 521//=
ZZYY 15007 11014 13004 305976 007994 6111/
11119 02008 10267 29077 40116
444 20110 11014 1131/ 521// 60401=
0000011100
238
UANT01 CWAO 111308
ARP BER7402 4959N03001W 1307 F370 MS52 191/32 KT
DABXA QXT AOE 111308 J28A
0000011100
239
UANT01 CWAO 111308
ARP BER7346 4801N01609W 1308 F390 MS56 226/51 KT
DABXC QXT AOE 111308 J72A
0000011100
240
UANT01 CWAO 111308
ARP RCH317 5025N03650W 1308 F340 MS54 319/30 KT
88196A DDL XXN 111308 F93A
0000014000
241
UAPA01 KWBC 111309
ARP ASA871 50N 156W 1259 F370 MS63 282/123KT TB LGT CHOP=
ARP ASA876 40N 136W 1300 F370 MS57 272/102KT=
00000000