0000011000
502
UANT99 KDDL 111313
ARP DAL109 4657N03112W 1313 F330 MS44 257/42 KT
N1605 QXT AOE 111313 F69A
0000011000
503
UANT99 KDDL 111313
ARP AFR690 4906N02645W 1313 F300 MS47 182/70 KT
FGZNH QXT AOE 111314 F19A
0000011100
504
UANT99 KDDL 111313
ARP DAL117 5205N02257W 1313 F310 MS55 194/75 KT
N175DZ QXT AOE 111314 F04A
0000087900
505
SNVZ11 SBBR 111300 RRC
BBXX
SHIP 11131 99/// 1//// 36/// /0501 10264 20185 39132 40146 52///
  333 10265 20238 553// 02712 91106=
SHIP 11131 99/// 1//// 16/// /3600 10267 20190 39062 40156 6992/
  333 10268 20244 553// 03039 91100=
SHIP 11131 99/// 1//// 36/// /3603 10305 20190 39515 40146 52///
  333 10305 20286 553// 03029 91107=
SHIP 11131 99/// 1//// 36/// /3300 10233 20196 39636 40128
  333 10237 20229 553// 00462 91102=
SHIP 11131 99/// 1//// 36/// /0702 10251 20179 39617 40178
  333 10254 20246 553// 01053 91107=
SHIP 11131 99/// 1//// 36/// /1003 10321 20203 30020 40093 52///
  333 10321 20296 553// 02775 91107=
SHIP 11131 99/// 1//// 36/// /0703 10296 20162 39487 40119
  333 10300 20269 553// 02756 91107=
SHIP 11131 99/// 1//// 16/// /3302 10264 20186 39094 40137 52/// 6992/
  333 10264 20235 553// 02966 91107=
0000178800
506
SZPS01 AMMC 111315
CREX++
T000103 A001 D01021 D06025++
-0204190 14737360 56130 2014 01 11 13 08 3027 11 07 00 01
00429 0118 00428 0116 00430 0118 00433 0121 00432 0119 00433 0120+
-0669280 15640860 56363 2014 01 11 13 08 //// 11 07 00 01
00568 -0051 00571 -0049 00571 -0051 00576 -0047 00577 -0048 00574 -0052+
-0942890 15995560 56670 2014 01 11 13 08 3038 11 07 00 01
00433 -0053 00437 -0049 00433 -0054 00431 -0056 00432 -0055 00433 -0055+
-1072080 16580190 57131 2014 01 11 13 08 //// 11 07 00 01
01845 1213 01599 0965 02796 2159 01660 1021 01395 0753 01997 1353+
-1551560 16718860 57210 2014 01 11 13 08 //// 11 07 00 01
00738 -0147 00755 -0133 00750 -0141 00754 -0141 00761 -0137 00750 -0152+
-1775690 16830030 57320 2014 01 11 13 08 3015 11 07 00 01
00654 -0083 00656 -0083 00659 -0084 00661 -0084 00663 -0085 00664 -0087+
-4397330 16861610 65180 2014 01 11 13 08 2885 11 07 00 01
01257 0378 01250 0373 01269 0395 01259 0388 01260 0391 01253 0387+
-2120470 -15978530 65980 2014 01 11 13 08 3010 11 07 00 01
00650 0011 00645 0005 00677 0035 00647 0003 00667 0022 00627 -0020+
-2113810 -17518140 66600 2014 01 11 13 08 //// 11 07 00 01
01209 0092 01209 0088 01210 0086 01210 0082 01218 0086 01217 0082+
-1382670 -17176110 66840 2014 01 11 13 08 3010 11 07 00 01
00983 0033 00993 0041 00999 0044 00989 0032 01007 0048 01003 0042+
-1813250 17842750 67050 2014 01 11 13 08 3030 11 07 00 01
01263 0067 01266 0066 01272 0068 01273 0065 01279 0067 01288 0072+
-1760530 17743810 67070 2014 01 11 13 08 3030 11 07 00 01
01350 0033 01354 0032 01357 0031 01361 0030 01365 0029 ///// ////+
-0850250 17919500 67440 2014 01 11 13 08 3028 11 07 00 01
02269 0006 02271 0005 02274 0005 02278 0006 02283 0008 02278 0000++
7777

0000034400
507
SZIO01 AMMC 111315
CREX++
T000103 A001 D01021 D06025++
-1211670 09689190 46280 2014 01 11 13 08 3018 11 07 00 01
00694 0015 00693 0015 00691 0014 00695 0019 00692 0018 00691 0018+
-1042940 10566940 46290 2014 01 11 13 08 //// 11 07 00 01
00908 -0046 01003 0052 00875 -0073 01011 0066 00893 -0050 00971 0030++
7777

0000192000
508
SZAU01 AMMC 111315
CREX++
T000103 A001 D01021 D06025++
-1927750 14705860 59260 2014 01 11 13 08 3023 11 07 00 01
01183 0181 01176 0180 01173 0183 01167 0183 01161 0183 01156 0184+
-2316110 15079000 59670 2014 01 11 13 08 3000 11 07 00 01
01665 0239 01658 0241 01646 0236 01639 0238 01628 0234 01614 0227+
-3447330 15091170 60420 2014 01 11 13 08 2952 11 07 00 01
00489 -0030 00478 -0041 00476 -0044 00469 -0051 00465 -0056 00464 -0058+
-4105000 14591500 60910 2014 01 11 13 08 2888 11 07 00 01
01822 -0026 01808 -0033 01806 -0027 01797 -0027 01792 -0025 01789 -0019+
-4254640 14793080 61170 2014 01 11 13 08 2900 11 07 00 01
01056 0083 01051 0077 01044 0069 01043 0068 01054 0078 01055 0079+
-3834390 14161360 61410 2014 01 11 13 08 2908 11 07 00 01
00766 0026 00723 -0017 00780 0039 00718 -0023 00766 0025 00720 -0021+
-3214890 13364170 62000 2014 01 11 13 08 2955 11 07 00 01
01237 -0003 01240 -0002 01246 0001 01245 -0002 01252 0002 01254 0001+
-3387080 12189720 62080 2014 01 11 13 08 2950 11 07 00 01
01052 0005 01048 0001 01040 -0006 01052 0005 01056 0010 01062 0016+
-3182560 11573860 62237 2014 01 11 13 08 2973 11 07 00 01
00886 0031 00878 0024 00880 0027 00882 0030 00883 0033 00879 0030+
-2422000 11339750 62385 2014 01 11 13 08 //// 11 07 00 01
01168 -0079 01195 -0050 01223 -0019 01160 -0080 01216 -0022 01150 -0085+
-2181670 11419110 62430 2014 01 11 13 08 //// 11 07 00 01
01940 -0082 01965 -0055 01938 -0079 01936 -0078 01965 -0046 01946 -0062+
-1800080 12221830 62650 2014 01 11 13 08 3043 11 07 00 01
06269 0136 06259 0133 06249 0134 06240 0132 06232 0132 06223 0133+
-1247190 13084580 63230 2014 01 11 13 08 3050 11 07 00 01
04399 0067 04401 0066 04405 0064 04410 0064 04413 0065 04414 0060+
-1386000 13641580 63511 2014 01 11 13 08 3043 11 07 00 01
01863 0051 01860 0048 01856 0045 01854 0042 01852 0041 01852 0040++
7777

0000046700
509
SZPA01 AMMC 111315
CREX++
T000103 A001 D01021 D06025++
0136250 17293000 67590 2014 01 11 13 08 3015 11 07 00 01
01971 0060 01973 0060 01972 0056 01976 0059 01975 0055 01989 0067+
0710610 17137250 67680 2014 01 11 13 08 3013 11 07 00 01
01298 0030 01306 0037 01309 0039 01311 0039 01316 0044 01315 0041+
0698060 15820000 67950 2014 01 11 13 08 3023 11 07 00 01
00793 0127 00796 0129 00796 0129 00796 0128 00789 0121 00789 0120++
7777

0000030800
510
UEAL01 DAMM 111200 RRA
TTDD 6111/ 60630
11940 703// 22773 645// 33662 703// 44608 661// 55399
575//
21212 11889 23560 22856 24557 33806 26537 44732 24015
55686 21020 66662 21524 77640 24024 88593 28011 99552
01006 11512 10010 22485 10510 33433 07524 44399 09522
31313 47908 81119=
0000094300
511
SAAU31 AMMC 111300
METAR YBAS 111300Z AUTO 10005KT 9999 // NCD 31/08 Q1013=
METAR YBBN 111300Z 05005KT 9999 SCT031 23/18 Q1016
     NOSIG=
METAR YBCS 111300Z 19013KT 8000 -SHRA FEW020 SCT040 BKN120 24/22 Q1011
     INTER 1300/1600 VRB15G25KT 4000 SHRA FEW008 BKN020=
METAR YBTL 111300Z AUTO 13013KT 9999 // NCD 27/21 Q1012=
METAR YMML NIL=
METAR YPAD 111300Z 19008KT 9999 FEW022 18/13 Q1019
     FM1300 MOD TURB BLW 3000FT=
METAR YPCC 111300Z AUTO 12013KT 9999 // SCT037 27/22 Q1010=
METAR YPDN 111300Z 18009KT CAVOK 27/24 Q1007=
METAR YPKU 111300Z AUTO 27003KT 9999 // NCD 26/22 Q1007=
METAR YPLM 111300Z AUTO 23010KT 9999 // NCD 29/23 Q1008=
METAR YPPH 111300Z 15009KT CAVOK 35/07 Q1009
     NOSIG=
METAR YPTN 111300Z AUTO 15006KT 9999 // SCT056 SCT075 SCT085 24/22 Q1010=
METAR YPXM 111300Z AUTO 14001KT //// // ////// 24/22 Q1011=
METAR YSSY 111300Z 05006KT CAVOK 23/18 Q1016
     NOSIG=
0000003800
512
SNVA21 AMMC 111300
NIL
0000015200
513
SNVB21 AMMC 111300
BBXX
2ALD3 11123 99332 11404 41/98 /2715 10105 20096 40253 58001 70222
8//// 22283 20403 3//// 4//// 5//// 80100=
0000003800
514
SNVC21 AMMC 111300
NIL
0000003800
515
SNVD21 AMMC 111300
NIL
0000003800
516
SNVF21 AMMC 111300
NIL
0000023100
517
SNVJ21 AMMC 111300
BBXX
UCKZ 11121 99660 30953 41498 71111 10011 20002 49833 58001 71582
85331 22281 01003 20402 ICE 0/2/0=
FHZI 11124 99652 31401 46/// /1717 11005 21007 39894 49905 52015
22253 05006 86006=
0000009200
518
SAIN90 VAAH 111310
METAR VAAH 111310Z VRB02KT 3000 FU NSC 19/10 Q1017 NOSIG=
0000008900
519
SAIN35 VIDP 111300
METAR VAUD 111300Z 04003KT 4000 HZ NSC 16/05 Q1014=

0000003800
520
UANT01 EGRR 111300
NIL
0000039800
521
SWIO40 RJTD 111315
:PRS 1 #1 1740 1745 1732 1719 1730 1694 1722 1720 1708 1758 1679 1742
1712 1710 1718 1715 1704 1714 1714 1709 1714 1707 1728 1701 1713 1701
1707 1732 1698 1744 :RAD 1 #3 6110 6101 6098 6094 6095 6093 6095 6096
6100 6103 :ENC 5 #5 5094 5093 5088 5087 5090 5106 5102 5101 5111 5098
5087 5089 :SW1 15 #60 60 :SW2 45 #60 60 :BAT 14 #15 12.8 :NAME 
0650018E=
00000000