0000017000
202
SOVI10 KWAL 112121
B110070A 011212101"P9751095 B\P~W@@R0ekU1@pG???DXDZ>@pF3@`D@AB4DG5DX6bI9I[<BM2?????@"??? nTURLAMAOAJANANAO:AMPTEMP 33.46C  47-0NN 219E
0000047300
203
SIVZ11 SBBR 112100 RRE
BBXX
SHIP 11211 99/// 1//// 16/// /2700 10215 20206 30038 40164 6996/
  333 10218 20213 553// 00193 91104=
SHIP 11211 99/// 1//// 16/// /0800 10221 20202 39545 49936 52/// 6992/
  333 10222 20215 553// 00180 91104=
SHIP 11211 99/// 1//// 16/// /2002 10217 20204 39861 40145 57/// 6992/
  333 10221 20217 553// 00301 91105=
SHIP 11211 99/// 1//// 36/// /0400 10243 20200 30014 40160
  333 10245 20242 553// 00643 91102=
0000020300
204
SOBR10 KWAL 112121
BAB00078 011212111":BUB 2 #1       M   0.179   0.129   0.189 :RAD 1 #1   0.098   0.083   0.095   0.081 :PRS 1 #1  -0.810  -0.810  -0.806  -0.802 :BL 11.61  36-0NN 219E
0000046700
205
SZPA01 AMMC 112121
CREX++
T000103 A001 D01021 D06025++
0136250 17293000 67590 2014 01 11 21 14 3015 11 07 00 01
01308 0062 01302 0055 01309 0060 01305 0054 01316 0064 01308 0053+
0710610 17137250 67680 2014 01 11 21 14 3013 11 07 00 01
00831 0095 00831 0094 00830 0090 00830 0088 00834 0090 00837 0091+
0698060 15820000 67950 2014 01 11 21 14 3018 11 07 00 01
00741 0088 00742 0088 00748 0092 00746 0089 00749 0090 00747 0086++
7777

0000192300
206
SZAU01 AMMC 112121
CREX++
T000103 A001 D01021 D06025++
-1927750 14705860 59260 2014 01 11 21 14 3015 11 07 00 01
03096 0146 03097 0146 03101 0148 03098 0145 03101 0146 03106 0150+
-2316110 15079000 59670 2014 01 11 21 14 2995 11 07 00 01
04275 0137 04282 0145 04276 0142 04281 0148 04279 0148 04278 0150+
-3447330 15091170 60420 2014 01 11 21 14 2947 11 07 00 01
01314 -0056 01316 -0051 01313 -0051 01311 -0050 01308 -0050 01303 -0052+
-4105000 14591500 60910 2014 01 11 21 14 2887 11 07 00 01
02982 -0104 02993 -0096 02999 -0093 02990 -0105 02991 -0107 02993 -0108+
-4254640 14793080 61170 2014 01 11 21 14 2903 11 07 00 01
01428 0057 01423 0054 01420 0053 01422 0057 01415 0053 01406 0047+
-3834390 14161360 61410 2014 01 11 21 14 2908 11 07 00 01
00505 0024 00474 -0006 00502 0023 00467 -0011 00486 0009 00488 0012+
-3214890 13364170 62000 2014 01 11 21 14 2950 11 07 00 01
00482 -0046 00482 -0048 00484 -0048 00486 -0049 00488 -0048 00491 -0047+
-3387080 12189720 62080 2014 01 11 21 14 2947 11 07 00 01
00444 0001 00441 -0002 00443 0000 00449 0006 00442 0000 00439 -0003+
-3182560 11573860 62237 2014 01 11 21 14 2970 11 07 00 01
00442 0053 00449 0060 00455 0066 00462 0072 00465 0076 00466 0076+
-2422000 11339750 62385 2014 01 11 21 14 //// 11 07 00 01
00886 -0010 00813 -0085 00817 -0082 00846 -0054 00835 -0066 00812 -0090+
-2181670 11419110 62430 2014 01 11 21 14 //// 11 07 00 01
01385 -0106 01399 -0094 01405 -0090 01405 -0092 01424 -0075 01428 -0073+
-1800080 12221830 62650 2014 01 11 21 14 3043 11 07 00 01
05486 0022 05496 0024 05506 0025 05515 0023 05524 0024 05534 0026+
-1247190 13084580 63230 2014 01 11 21 14 3047 11 07 00 01
03473 0014 03463 0014 03454 0014 03444 0016 03434 0014 03424 0013+
-1386000 13641580 63511 2014 01 11 21 14 3040 11 07 00 01
01309 0106 01305 0103 01304 0102 01302 0100 01300 0099 01296 0095++
7777

0000179400
207
SZPS01 AMMC 112121
CREX++
T000103 A001 D01021 D06025++
-0204190 14737360 56130 2014 01 11 21 14 3025 11 07 00 01
00975 0096 00975 0096 00969 0090 00973 0093 00971 0092 00968 0088+
-0669280 15640860 56363 2014 01 11 21 14 //// 11 07 00 01
00669 -0035 00671 -0035 00667 -0040 00670 -0039 00670 -0040 00671 -0040+
-0942890 15995560 56670 2014 01 11 21 14 3035 11 07 00 01
00931 -0031 00931 -0031 00932 -0031 00936 -0028 00934 -0031 00935 -0031+
-1072080 16580190 57131 2014 01 11 21 14 //// 11 07 00 01
00733 0225 00842 0333 00434 -0075 00733 0223 00799 0288 00484 -0028+
-1551560 16718860 57210 2014 01 11 21 14 //// 11 07 00 01
00601 -0097 00602 -0096 00609 -0089 00614 -0083 00605 -0092 00618 -0079+
-1775690 16830030 57320 2014 01 11 21 14 3013 11 07 00 01
00732 -0082 00733 -0080 00734 -0078 00736 -0075 00738 -0072 00738 -0071+
-4397330 16861610 65180 2014 01 11 21 14 2880 11 07 00 01
02600 0519 02658 0579 02642 0565 02617 0543 02550 0477 02569 0500+
-2120470 -15978530 65980 2014 01 11 21 14 3008 11 07 00 01
00440 -0020 00471 0012 00449 -0010 00441 -0018 00439 -0019 00450 -0008+
-2113810 -17518140 66600 2014 01 11 21 14 //// 11 07 00 01
00715 0057 00707 0050 00709 0053 00704 0048 00707 0052 00703 0049+
-1382670 -17176110 66840 2014 01 11 21 14 3010 11 07 00 01
00502 0058 00504 0059 00493 0048 00493 0047 00493 0047 00492 0045+
-1813250 17842750 67050 2014 01 11 21 14 3028 11 07 00 01
00834 0079 00832 0078 00833 0079 00827 0074 00828 0076 00831 0080+
-1760530 17743810 67070 2014 01 11 21 14 3028 11 07 00 01
00877 0051 00875 0050 00875 0050 00874 0050 00874 0051 ///// ////+
-0850250 17919500 67440 2014 01 11 21 14 3028 11 07 00 01
01597 0011 01605 0018 01602 0014 01603 0014 01604 0014 01607 0015++
7777

0000034700
208
SZIO01 AMMC 112121
CREX++
T000103 A001 D01021 D06025++
-1211670 09689190 46280 2014 01 11 21 14 3017 11 07 00 01
00809 0009 00807 0008 00810 0012 00813 0016 00816 0020 00809 0014+
-1042940 10566940 46290 2014 01 11 21 14 //// 11 07 00 01
00831 -0083 00840 -0075 00884 -0032 00816 -0101 00863 -0055 00853 -0065++
7777

0000012400
209
SISV01 FDMS 112100
AAXX 11214
68298 46/// /0000 1//// 2//// 38946 4//// 53002
      333 1//// 2//// 555=
0000003800
210
SIZW21 FVHA 112100
NIL
0000021100
211
SIAG01 SABM 112100 RRA
AAXX 11213
87007 42570 70505 10154 20050 36732 47133 53005 84405 333 56707
84620 87270=
87178 42570 81603 10242 20186 30002 40146 57004 8557/ 333 56559
85620 88360=
0000142200
212
SIAG01 SABM 112100
AAXX 11214
87022 41558 81816 10234 20199 39640 40144 52068 71722 8692/
333  56499 85630 81940 84550 96016=
87046 41660 81806 10197 20165 39162 48549 51008 72196 8452/
333 56499 84635 86550 90105=
87047 41250 83403 10172 20164 38842 48558 50009 76166 8572/ 333
56229 82705 85615 88535 90044 90090 90221 90292 97274 96010 98550
98158=
87097 41670 81811 10253 20228 39814 40122 53020 70292 8517/ 333
56399 85840 86360=
87121 41665 70000 10252 20191 39658 40163 56020 70262 81436 333
56466 81635 86360=
87129 42465 62306 10248 20209 39938 40165 57015 83560 333 56499
83620 85360=
87148 41470 81810 10214 20197 30034 40141 57029 70262 886//
333 56299 88712 91119 91517=
87155 42265 82003 10229 20203 30092 40152 57011 83677 333 56476
83704 85360 88270=
87162 41462 80905 10212 20208 30067 40137 58027 76196 8352/ 333
56369 83615 88550=
87166 42360 72006 10222 20197 30080 40152 58003 83670 333 56570
83708 87360=
87217 42770 50208 10290 20188 39661 40142 56019 84230 333 56560
84850 81360=
87222 NIL=
87257 NIL=
87270 41603 81813 10247 20213 30098 40160 53001 76562 8802/
333 56059 88530=
87289 41462 82509 10239 20209 30073 40155 52003 72162 84577 333
56560 84615 86360 88270 90105=
87311 42965 00000 10342 20110 39450 40106 57032=
87320 NIL=
87328 42780 33616 10331 20056 39505 40132 57009 83200
333 56700 57883 83850 95000=
0000261400
213
SIRS26 RUMS 112100
AAXX 11211
34240 41497 82607 10024 21002 39908 40044 51018 70282 8697/ 333 91011
91112=
34253 42598 82407 10013 20004 39860 40025 51012 885// 333 91010
91112=
34254 41598 82504 10027 20008 39922 40042 52013 70288 889// 333
91110=
34262 41597 62605 10016 20005 39884 40028 52011 70262 83530 333
91110=
34267 41497 82405 10023 20009 39912 40039 52010 78082 883// 333
91112=
34321 42997 83004 10032 21009 39943 40082 52011 8802/ 333 91111=
34344 42598 72604 10035 21005 39984 40072 52013 8657/ 333 91111=
34356 42598 72506 10025 20013 39911 40058 52009 87500 333 91110=
34373 42597 82104 10015 20012 39998 40042 54001 86301 333 91110=
34438 42597 72504 10027 20008 39908 40099 52011 875// 333 91110=
34445 41598 82506 10035 20003 39970 40084 52012 70272 8797/ 333 91011
91111=
34476 41598 82206 10031 20014 30063 40071 52003 70282 8193/ 333
91110=
34535 42998 82606 10050 20002 30044 40116 52013 8807/ 333 91010
91113=
34555 41598 62408 10027 20008 30015 40106 52009 70282 86200 333 91010
91116=
34560 42597 82609 10027 20016 39915 40081 52003 8357/ 333 91012
91114=
34578 42997 32207 10029 20012 30093 40100 54001 80001 333 91111=
34644 41597 82704 10044 20012 30058 40135 52010 70282 888//=
34646 41598 82605 10041 20007 30043 40124 52006 78082 889// 333 91010
91112=
34655 42597 82507 10045 20011 30060 40120 52004 885// 333 91010
91113=
34662 42998 72508 10044 20011 30091 40103 52002 87070 333 91013=
34720 42598 82604 10042 20006 30113 40153 52008 885// 333 91110=
34727 42597 62306 10041 20014 30167 40171 52010 86500 333 91111=
34730 42497 72608 10044 20017 30056 40148 52007 82530 333 91012
91112=
34740 42598 52503 10026 20000 30061 40158 52007 82530 333 91111=
34743 42497 72505 10039 20010 3//// 4//// 5//// 87500 333 91011
91111=
34759 41996 52406 10018 20002 30018 40150 54001 71011 85030 333 91010
91112=
34785 42997 32403 10022 20005 30156 40133 54001 80001=
34824 42997 82604 10041 20006 30180 40185 51006 880// 333 91110=
34845 32998 02503 10031 20007 30056 40164 51005=
34858 41996 62305 10037 20003 30059 40167 52005 71011 86030 333 91010
91110=
34861 42997 62508 10011 21007 39909 40153 52002 80030 333 91012
91112=
34866 82998 02606 10032 20008 30160 40152 53003 333 91010 91113=
34880 41996 02203 10019 20005 30172 40146 52001 71011=
34887 42998 02303 10023 20003 30181 40162 51001=
37018 42698 62305 10084 20019 30149 40224 54001 86400 333 91111=
37054 42997 02502 10029 21029 39815 40204 54001=
37472 42597 82702 10062 20006 30207 40185 52007 8357/=
0000122300
214
SIAL20 DAMM 112100
AAXX 11214
60360 NIL=
60390 41560 71603 10142 20121 40219 53013 72162 81832 333 81826 85358
95990=
60402 42560 72806 10139 20099 40209 53009 81234 333 81823 83359 85073
95990=
60419 42660 50000 10093 20047 40222 53008 82530 333 82640 85360 95990
=
60475 42965 50000 10086 20033 39268 48526 51010 82032 333 82360 84073
95990=
60490 42665 80000 10130 20121 40221 51025 8553/ 333 85633 84360 95990
=
60525 42960 8//// 10135 20085 40206 50016 882// 333 88840 95990=
60531 41558 81804 10118 20110 40225 52023 70262 8357/ 333 83630 86460
95990=
60566 42960 30607 10118 20058 40220 50003 83030 333 83360=
60571 41530 30110 10110 20070 39274 48536 52027 70600 82280 333 82833
95990=
60580 42660 50000 10106 20061 40214 53004 82230 333 82846 83360=
60590 NIL=
60611 42960 40806 10120 21012 40220 51015 80001 333 84073=
60620 42957 00000 10170 21056 40172 51010=
60630 41740 50000 10176 21021 40185 53018 70622 83230 333 83856 83362
=
60656 42960 23606 10127 20006 40203 52024 80002 333 82073=
60670 42965 60000 10110 20016 39123 48558 51006 83082 333 83360 84073
95990=
60680 42775 51102 10136 21055 38692 48566 51014 82232 333 82856 95990
=
0000097500
215
SIAL21 DAMM 112100
AAXX 11214
60351 42960 40000 10134 20091 40199 52006 84032 333 84359 95990=
60355 42960 42004 10143 20084 40196 56001 82032 333 82360 83073 95990
=
60445 42565 60000 10082 20025 39062 48540 52011 82232 333 82830 84360
95990=
60468 42560 6//// 10080 20041 39265 48528 53010 82232 333 82826 84360
95990=
60507 41656 80000 10103 20097 40218 52027 76066 8457/ 333 84633 86460
95990=
60511 41560 70000 10077 20067 39091 48526 53007 72162 8327/ 333 83826
86359 95990=
60536 41960 80000 10089 20073 39344 48531 51017 72162 8807/ 333 88460
95990=
60550 42560 61205 10082 20023 38680 48520 53005 84530 333 84630 83360
95990=
60555 12970 30000 10097 20063 40220 53001 82032 333 82360=
60559 42660 7//// 10132 20089 40226 53014 8423/ 333 84840 85360=
60581 42960 30000 10130 20111 40208 55009 83030 333 83360=
60607 42956 02306 10150 21012 40169 52018=
60640 42960 30808 10151 21047 40202 51015 80002 333 83073=
0000035400
216
SIAL22 DAMM 112100
AAXX 11214
60395 42665 6//// 10147 20106 40210 53012 83270 333 83840 84360 95990
=
60444 42660 70000 10103 20058 39126 48540 52010 862// 333 87833 95990
=
60452 42565 82406 10151 20114 40219 51020 882// 222// 2//// 333 88823
91826=
60457 42560 80000 10123 20109 40217 52020 8257/ 333 82526 87460 95990
=
0000053400
217
SSVX02 KARS 112116
ZZYY 13520 11014 2051/ 735479 029367 6111/
444 20110 11014 2027/ 50101 8//// 80007 9/015=
ZZYY 61652 11014 2055/ 139194 002515 6112/
22219 00148
444 20120 11014 2002/ 50101 80104 80021 9/015=
ZZYY 41560 11014 2000/ 744217 024554 6112/
11119 40041
444 2012/ 11014 1942/ 50101 80100 80021 9/015=
ZZYY 44506 11014 2100/ 744277 027894 6111/
22219 00134
444 20110 11014 2051/ 50101 9/050=
ZZYY 44508 11014 2050/ 757530 007682 6111/
22219 00054
444 20110 11014 2058/ 50101 9/050=
0000019700
218
SIAA21 EGRR 112100
AAXX 11214
89022 42688 60508 11068 21090 39915 49954 52003 83508 333 83630 83270=
89062 41184 70108 10016 21035 39864 49905 57016 70272 8353/ 333 81620 86357=
0000030100
219
SFUK43 EGRR 112115
ã∆µ—R SFUK43_EGRR_112115.CSV uê—j√ ÜÔÛÁ‹à]€Aa°1ñ∫ë4∞]O7¡hgÃ≈ﬁ~6BŸÕ¿øÛˇsP∏Q[i‡‚ùöá Aè∏JWîn 8ZÙ2hgoVtOæÕµhä#<¡Ê>8oâÛ£|<Ú›ˆÊSaùX◊ùÍ2rWıœÎá„mõ)ê\GëQﬁM88´&R5ØPó‰{ñFáb‚JaVHå≥üÈÜﬁ;üe@ä.8Éø…˙˝>ä™oöw‡L∞∂8≤`y"ÊÒ=∏3úçúæpm/sà€Âˇx4˙˙s’“ÙÏÄ™æH  
0000186600
220
SIRA20 RUHB 112100
AAXX 11211
30372 41993 20000 11452 21478 39463 40516 56002 74444 80001=
30433 41699 80301 11257 21281 39752 40415 57005 70282 84931=
30554 429// 80000 11348 21371 39208 40465 57005 80002=
30635 418// 81302 11229 21255 39770 40401 57008 77172 8802/=
30673 419// 00000 11402 21422 39541 40449 57003 71000=
30692 42999 02902 11308 21361 39790 40352 54000=
30758 41967 03501 11319 21344 39507 40448 57013 70411=
30823 42999 32701 11244 21256 39718 40426 53001 80005=
30879 42999 30000 11312 21343 39558 40424 58006 80001=
30935 42999 30000 11226 21238 39396 40427 57002 80001=
30949 42999 00000 11292 21309 39222 40457 57006=
30965 429// 01101 11407 21421 39507 40490 57006=
31168 11998 82003 11237 21287 30156 40167 52010 60012 73673 8801/ 333
21254 47072 91114=
31285 12999 82001 11323 21353 30165 40254 52006 69902 80007 333 21328
47085=
31300 42984 83501 11248 21323 39957 40277 51004 80007=
31329 42999 00601 11399 21421 39511 40289 53002=
31369 11496 82706 11217 21235 30013 40104 52001 60032 78583 8592/ 333
21225 47065 85920 91011 91113=
31416 11997 80000 11306 21339 30080 40185 54001 69952 77172 8802/ 333
21331 47043=
31484 12999 02602 11288 21346 39831 40206 54000 69902 333 21293
47027=
31512 429// 02904 11250 21305 30100 40283 57002=
31538 12998 30000 11332 21356 39757 40254 54000 60002 80001 333 21332
47029=
31561 12998 00000 11370 21408 30174 40203 52005 60002 333 21373
48038=
31683 12999 00000 11338 21362 30085 40169 54000 60002 333 21338
47022=
31707 12998 00000 11302 21332 30155 40260 57003 60002 333 21302
48028=
31733 12999 01804 11312 21343 30125 40208 52006 60002 333 21314
47015=
31735 12997 02304 11299 21353 30110 40210 53003 60002 333 21303
47015=
31770 12984 22302 11245 21311 30124 40157 58002 60001 80001 333 21247
46001=
0000099600
221
SICI31 BABJ 112100
AAXX 11211
50844 33/// 92901 11291 21338 40364 57002=
50854 33/// 92502 11271 21332 40353 52006 333 70001=
50968 43/// 92201 11253 21319 40339 52022 333 70004=
51379 32/// 91801 11257 21287 40372 57003 333 05854=
51467 32/// 90201 11196 21252 38288 57005 333 05556=
51495 33/// 93601 11114 21207 40417 57009 333 05302=
53480 42/80 92501 11191 21261 40421 57003=
53673 42/// 93604 11065 21229 40378 52009=
53698 31/22 92901 11042 21133 40352 52014 705//=
53898 31/34 93403 10015 21134 40346 52020 705//=
54308 32/80 93405 11116 21231 40376 52002=
54602 31/07 90702 11087 21115 40352 52014 705//=
54725 41/06 93403 11051 21071 40335 52014 744//=
54751 32/72 90211 11007 21106 40312 52010=
54916 41/14 93601 11035 21052 40321 57005 710//=
57014 32/// 90201 11066 21147 40403 52006=
57025 42/69 93202 11054 21169 40400 52004=
57046 42/67 92904 11112 21216 37998 57005 333 00354=
58208 31/17 92201 10012 21001 40315 57007 710//=
00000000