0000114600
062
SNCN19 CWAO 112017
OOXX
ARP01 11181 99345 50585 ///// 00311
     26/// /1605 10502 29/// 30172 91810 333 60000=
ARP01 11181 99345 50585 ///// 00311
     26/// /1605 10499 29/// 30172 91820 333 60000=
ARP01 11181 99345 50585 ///// 00311
     26/// /1804 10501 29/// 30173 91830 333 60000=
ARP01 11181 99345 50585 ///// 00311
     26/// /1403 10501 29/// 30172 91840 333 60000=
ARP01 11181 99345 50585 ///// 00311
     26/// /1603 10509 29/// 30173 91850 333 60000=
ARP01 11191 99345 50585 ///// 00311
     26/// /0903 10507 29/// 30173 91900 333 60000=
ARP01 11191 99345 50585 ///// 00311
     26/// /0904 10509 29/// 30174 91910 333 60000=
ARP01 11191 99345 50585 ///// 00311
     26/// /0905 10491 29/// 30174 91920 333 60000=
ARP01 11191 99345 50585 ///// 00311
     26/// /0905 10488 29/// 30175 91930 333 60000=
ARP01 11191 99345 50585 ///// 00311
     26/// /0705 10487 29/// 30175 91940 333 60000=
ARP01 11191 99345 50585 ///// 00311
     26/// /0906 10488 29/// 30175 91950 333 60000=
ARP01 11201 99345 50585 ///// 00311
     26/// /0905 10485 29/// 30175 92000 333 60000=

0000114600
063
SNCN19 CWAO 112004
OOXX
NOP49 11181 99782 10154 ///// 04691
     26/// /2308 11041 29084 39521 91810 333 6///0=
NOP49 11181 99782 10154 ///// 04691
     26/// /2310 11041 29084 39521 91820 333 6///0=
NOP49 11181 99782 10154 ///// 04691
     26/// /2309 11042 29086 39522 91830 333 6///0=
NOP49 11181 99782 10154 ///// 04691
     26/// /2309 11042 29087 39524 91840 333 6///0=
NOP49 11181 99782 10154 ///// 04691
     26/// /2308 11041 29084 39524 91850 333 6///0=
NOP49 11191 99782 10154 ///// 04691
     26/// /2308 11042 29087 39525 91900 333 6///0=
NOP49 11191 99782 10154 ///// 04691
     26/// /2308 11041 29087 39526 91910 333 6///0=
NOP49 11191 99782 10154 ///// 04691
     26/// /2309 11042 29088 39526 91920 333 6///0=
NOP49 11191 99782 10154 ///// 04691
     26/// /2309 11041 29088 39527 91930 333 6///0=
NOP49 11191 99782 10154 ///// 04691
     26/// /2310 11041 29087 39528 91940 333 6///0=
NOP49 11191 99782 10154 ///// 04691
     26/// /2308 11041 29087 39529 91950 333 6///0=
NOP49 11201 99782 10154 ///// 04691
     26/// /2308 11040 29086 39530 92000 333 6///0=

0000114600
064
SNCN19 CWAO 112018
OOXX
MYP42 11181 99045 11014 ///// 15551
     26/// /0705 10170 29078 38436 91817 333 60000=
MYP42 11181 99045 11014 ///// 15551
     26/// /0401 10174 29078 38445 91827 333 60000=
MYP42 11181 99045 11014 ///// 15551
     26/// /0403 10172 29078 38436 91837 333 60000=
MYP42 11181 99045 11014 ///// 15551
     26/// /0401 10174 29077 38438 91847 333 60000=
MYP42 11181 99045 11014 ///// 15551
     26/// /0402 10172 29078 38438 91857 333 60000=
MYP42 11191 99045 11014 ///// 15551
     26/// /1001 10170 29079 38447 91907 333 60000=
MYP42 11191 99045 11014 ///// 15551
     26/// /0801 10170 29079 38442 91917 333 60000=
MYP42 11191 99045 11014 ///// 15551
     26/// /0801 10171 29079 38438 91927 333 60000=
MYP42 11191 99045 11014 ///// 15551
     26/// /0201 10171 29078 38440 91937 333 60000=
MYP42 11191 99045 11014 ///// 15551
     26/// /0404 10171 29078 38429 91947 333 60000=
MYP42 11191 99045 11014 ///// 15551
     26/// /0301 10170 29078 38436 91957 333 60000=
MYP42 11201 99045 11014 ///// 15551
     26/// /0101 10169 29078 38432 92007 333 60000=

0000114600
065
SNCN19 CWAO 112033
OOXX
KIP39 11181 99020 51574 ///// 00181
     26/// /3204 10270 29084 30098 91820 333 60000=
KIP39 11181 99020 51574 ///// 00181
     26/// /3305 10270 29084 30099 91830 333 60000=
KIP39 11181 99020 51574 ///// 00181
     26/// /3305 10268 29084 30098 91840 333 60000=
KIP39 11181 99020 51574 ///// 00181
     26/// /3305 10273 29083 30098 91850 333 60000=
KIP39 11191 99020 51574 ///// 00181
     26/// /3305 10276 29081 30096 91900 333 60000=
KIP39 11191 99020 51574 ///// 00181
     26/// /3305 10277 29080 30096 91910 333 60000=
KIP39 11191 99020 51574 ///// 00181
     26/// /3305 10279 29079 30095 91920 333 60000=
KIP39 11191 99020 51574 ///// 00181
     26/// /3305 10279 29080 30096 91930 333 60000=
KIP39 11191 99020 51574 ///// 00181
     26/// /3305 10281 29079 30094 91940 333 60000=
KIP39 11191 99020 51574 ///// 00181
     26/// /3205 10283 29078 30092 91950 333 60000=
KIP39 11201 99020 51574 ///// 00181
     26/// /3205 10283 29079 30090 92000 333 60000=
KIP39 11201 99020 51574 ///// 00181
     26/// /3204 10283 29078 30091 92010 333 60000=

0000114600
066
SNCN19 CWAO 112053
OOXX
CMP13 11181 99038 10102 ///// 01281
     26/// /0000 10264 29088 39979 91850 333 60000=
CMP13 11191 99038 10102 ///// 01281
     26/// /0000 10263 29088 39979 91900 333 60000=
CMP13 11191 99038 10102 ///// 01281
     26/// /0000 10261 29089 39978 91910 333 60000=
CMP13 11191 99038 10102 ///// 01281
     26/// /0000 10260 29090 39980 91920 333 60000=
CMP13 11191 99038 10102 ///// 01281
     26/// /0000 10258 29090 39981 91930 333 60000=
CMP13 11191 99038 10102 ///// 01281
     26/// /0000 10258 29091 39983 91940 333 60000=
CMP13 11191 99038 10102 ///// 01281
     26/// /0000 10258 29091 39984 91950 333 60000=
CMP13 11201 99038 10102 ///// 01281
     26/// /0000 10258 29091 39986 92000 333 60000=
CMP13 11201 99038 10102 ///// 01281
     26/// /0000 10259 29091 39988 92010 333 60000=
CMP13 11201 99038 10102 ///// 01281
     26/// /0000 10259 29090 39989 92020 333 60000=
CMP13 11201 99038 10102 ///// 01281
     26/// /0000 10260 29090 39991 92030 333 60000=
CMP13 11201 99038 10102 ///// 01281
     26/// /0000 10262 29090 39993 92040 333 60000=

0000056300
067
SIVF21 ENMI 112100
BBXX
LDGJ 11211 99603 10053 43/// /1605 10016 21001 40006 5//// 222/0
      04078 1//// 3//// 4//// 5////=
LF4H 11214 99596 10022 46/// /2932 10067 20006 40041 52005 8////
      22200 06076 10708 70039=
LGWS 11211 99229 30145 43/// /2003 10176 20148 40151 5//// 222/0
      04156 1//// 3//// 4//// 5////=
LJIT 11211 99589 10057 43/// /2404 10055 20011 40052 5//// 222/0
      04068 1//// 3//// 4//// 5////=
LMEL 11211 99603 10053 43/// /1305 10011 20011 40007 5//// 222/0
      04079 1//// 3//// 4//// 5////=
0000032600
068
SISM20 SMJP 112100
AAXX 11214
81225 41465 63307 10270 20238 40114 71522 84972
  333 56199 58013 81810 81920 83835 86458=
81200 42570 62203 10281 20216 40120 85842
  333 56399 59016 83820 83635=
81202 42470 53310 10254 20221 40126 83862
  333 56299 58017 81815 83630 85080=
81209 NIL=
81251 NIL=
0000092800
069
SIPF20 NTAA 112100
AAXX 11214
91925 22582 51012 10293 20210 30041 40101 58014 84830
  333 56290 60007 81823 83656 90710 91123
  555 60005 11125 59004=
91929 24584 /1112 10300 20239 30110 40113 58006 700//
  333 4//// 60007 90710 91117
  555 60005=
91938 21570 30511 10304 20233 30115 40117 58010 71500 82232
  333 60007 82823 90710 91121
  555 60005 10621 59012=
91943 46/// /0711 10295 20232 30114 40117 58008
  333 59005=
91944 24556 60713 1//// 2//// 30135 4//// 58009 700//
  333 4//// 6///7 90710 91132
  555 6///5=
91948 22580 11110 10281 20211 30082 40183 58008 81200
  333 56200 60007 81826 90710 91120
  555 60005 11120 59007=
91954 26/// /0617 10286 20221 30157 40160 50001
  333 4//// 60007 90710 91126
  555 60005 11027 58000=
91958 22482 50710 10265 20232 30210 40212 58001 85200
  333 56200 60007 85815 90710 91114
  555 60005 10921 58002=
91945 NIL=
0000011800
070
SIVS20 VNNN 112100
AAXX 11211
48825 32697 80000 10168 20156 30208 40217 55004 885// 333 58016 88696=
0000011800
071
SIVS21 VNNN 112100
AAXX 11211
48823 32697 83601 10172 20161 30211 40214 54000 885// 333 58019 88696=
0000072300
072
SIBY20 UMMN 112100
AAXX 11211
26554 41356 82404 10028 20020 39859 40021 57010 71072 886// 333
88707=
26666 41356 72503 10001 21008 39820 40036 58012 78587 87900 333
87707=
26850 41460 82502 10034 20011 39784 40067 57008 70262 885// 333 88713=
26863 42560 72406 10014 21003 39824 40061 58006 875// 333
87627 91112=
26941 42560 72204 10034 20008 39851 40088 57008 87500 333 87633=
26951 42969 72504 10032 20017 39890 40090 58006 8705/=
33008 42960 72203 10034 21001 39928 40107 57015 87030=
33019 42660 72103 10044 20005 39931 40106 57012 875// 333 87644=
33036 42960 72402 10033 20001 39878 40110 58002 8707/=
33041 41560 72603 10038 20012 39939 40095 52002 70282 875// 333
87622=
0000119500
073
SITU10 LTAA 112100
AAXX 11214
17022 42965 01905 10077 20007 30078 40246 56001
 333 91111 92427=
17031 41256 61102 10021 20016 30233 40239 57007 71022 84250
 333 82706 84829 86360 91106=
17038 41670 71703 10096 20071 30196 40247 58002 70182 84270
 333 84835 87360 91015 91115 92428=
17050 42970 03603 10029 20027 30170 40234 55001
 333 91108=
17060 41956 00000 10059 20055 30197 40238 56001 71000
 333 91106=
17096 41529 21101 11181 21181 38256 48538 58001 71000 82500
 333 82630=
17124 41116 80000 11014 21019 39333 40290 50001 71022 886//
 333 88703 91108=
17128 41235 72202 11020 21023 39144 40293 55000 71022 87600
 333 87706=
17170 41658 21103 11090 21090 38343 48518 50006 71000 82500
 333 82640=
17195 41950 00000 11052 21055 39028 48527 52002 71000
 333 91103=
17197 42960 0//// 10014 21037 39140 40246 52100=
17219 41932 40000 10060 20046 30088 40234 52005 71011 80001 333 84070=
17240 42970 02701 11015 21039 39086 40271 52004=
17244 41/03 90000 11028 21028 39056 48533 55000 74944
 333 89/01=
17280 42960 00302 11010 21052 39414 40225 51004=
17350 42660 60102 10076 20072 30146 40225 51002 83101
 333 83835 86070=
0000010300
074
SAIN90 VOMM 112110
METAR VOMM 112110Z 00000KT 4000 HZ SCT020 22/20 Q1013 TEMPO 3000 HZ=
0000032300
075
SAIN34 VOMM 112100
METAR VOBL 112100Z VRB00KT 6000 NSC 19/18 Q1018 NOSIG=
METAR VOCB 112100Z 02005KT 4000 HZ NSC 21/17 Q1016 NOSIG=
METAR VOCI 112100Z 00000KT 4000 HZ NSC 22/29 Q1012 NOSIG=
METAR VOCL 112100Z 12003KT 6000 FEW015 24/21 Q1012 NOSIG=
METAR VOMD 112100Z 05004KT 4000 HZ NSC 23/19 Q1014=
0000009200
076
SAIN90 VOTR 112110
METAR VOTR 112110Z VRB02KT 2500 HZ NSC 21/20 Q1014 NOSIG=
0000018700
077
SAIN32 VIDP 112100
METAR VIDP 112100Z 00000KT 0300 R28/2000 R29/1300 FG NSC 08/08
      Q1020 NOSIG=
METAR VIAR 112100Z 00000KT 0200 R34/1100V1500D FG NSC 04/04 Q1021=
0000107400
078
SITU11 LTAA 112100
AAXX 11214
17026 42465 61607 10091 20090 30195 40234 57007 83650
 333 83710 86360 91112 92427=
17034 42670 60000 10085 20046 30206 40253 58001 83250 333 83835 86360 92428=
17070 42965 01101 10012 21003 39370 40263 52005
 333 91105=
17084 41650 82303 11015 21040 39348 40293 54000 71022 8452/
 333 84635 88460 91108=
17090 NIL=
17098 42660 40000 11163 21178 38207 48534 52004 84500
 333 84635 91110=
17150 41916 00000 11007 21010 30121 40249 52005 71000
 333 91104=
17160 41/06 93001 11029 21030 39082 48532 56001 74742
 333 89/07 91104=
17184 42665 70000 10065 20043 30129 40243 53003 83230
 333 83840 87360 91103=
17190 41/03 91302 11037 21040 39047 48525 51002 74544
 333 89/04=
17210 NIL=
17234 42670 60000 10094 20058 30170 40239 53004 83250
 333 83840 86360 91103=
17260 42960 02103 10052 20002 39390 40213 50002
 333 91112=
17290 42670 61302 10142 20130 30203 40235 52005 82250
 333 82835 85360 92408=
17370 41965 60201 10142 20097 30224 40228 53001 70282 86030
 333 86360 92417=
0000101600
079
SITU12 LTAA 112100
AAXX 11214
17024 42670 31909 10062 20049 30152 40231 57004 83400
 333 83635 91113 92428=
17056 41900 02901 10039 20038 30231 40235 50000 74444
 333 91102 92411=
17067 41958 01302 10051 20038 30213 40236 50002 71000
 333 91104 92406=
17092 42660 60101 11049 21110 38911 48526 52002 81550
 333 81640 85359 91105=
17112 41205 70104 10067 20057 30234 40236 52006 74611 87700
 333 87705 91107 92413=
17115 41956 00000 10007 20002 30183 40236 52001 71000
 333 91103=
17116 42960 00802 10019 21002 30124 40249 51002
 333 91103=
17188 42970 00302 10053 20012 39169 40241 52001
 333 91104=
17202 42970 02606 11044 21062 39198 40261 50002=
17248 41902 02202 11051 21060 39040 48526 52004 74400=
17292 42970 01601 10040 20035 39480 40255 52005
 333 91104=
17300 41956 03505 10062 20056 30158 40230 51006 71000=
17310 42970 00401 10125 20070 30224 40231 52009
 333 91103 92428=
17330 42970 43003 10104 20027 30214 40232 52005 84030
 333 84360=
0000071900
080
SITU13 LTAA 112100
AAXX 11214
17042 41560 70000 10095 20043 30215 40255 54000 78022 84250
 333 84830 87358 92437=
17074 4//// /1802 11029 21033 39301 4//// 58000=
17086 42970 00000 11011 21038 39524 40269 51001=
17088 NIL=
17140 41901 00601 11048 21054 38747 48524 58001 74844=
17155 4//// /0502 11023 21024 39119 4//// 50003=
17203 42970 00000 11059 21119 38916 48553 52004=
17237 42970 62302 10091 20029 39730 40239 52003 86070
 333 86360 91103=
17250 42970 00501 11029 21054 38855 48538 53001=
17270 42970 02704 10081 21032 39556 40205 53003=
17295 42960 00505 10089 20081 30233 40240 52007=
17320 NIL=
17375 42970 03602 10098 20060 30229 40231 52004
 333 91105 92408=
0000092900
081
SITU14 LTAA 112100
AAXX 11214
17500 NIL=
17501 42560 31706 10140 20071 30212 40231 53002 83800
  333 81825 83640 92437=
17505 42560 32808 10151 20107 30128 40241 53003 83800
  333 81825 83640=
17507 NIL=
17510 42560 40000 10138 20084 30170 40180 56005 81130
333 81830 83360 92417=
17515 42560 30000 10085 20058 30076 40256 52004 83800
  333 81825 83640=
17521 42560 32406 10077 20055 30092 40231 52003 83800
333 81825 83630=
17530 42560 33004 10063 20044 30187 40245 52006 83800
  333 81825 83640=
17535 42560 33303 10083 20047 30184 40221 51003 83800
  381825 83640=
17540 42560 42107 10128 20075 30229 40253 50003 81131
333 81830 92427=
17547 42560 41109 10130 20082 39985 40230 52002 81131
333 81830 92427=
17550 42560 30000 10126 20073 30086 40233 52005 83800
  333 81825 83640 92437=
17572 42560 42908 10148 20084 30218 40243 53003 81130
333 81830 83360 92417=
00000000