0000017700
153
SACN62 CYOC 102100
METAR CYOC 102100Z 00000KT 20SM IC VCFG FEW018 FEW032 SCT085 M41/M45
 A2972 RMK ST1SC1AC1 FROIN VIS NE 2 LAST OBS/NEXT 111400 UTC SLP115=

0000010700
154
SACN61 CYKF 102100
METAR CYKF 102100Z AUTO 17006KT 3SM BR OVC005 01/00 A3006 RMK SLP195=

0000011200
155
SACN62 CYIO 102100
METAR CYIO 102100Z 22007KT 9SM -SN OVC050 M21/M24 A2910 RMK SC8
 SLP863=

0000009500
156
SPUS31 KWBC 102101
SPECI
KMSP 102057Z 15009KT 6SM BR OVC006 M01/M02 A2959=

0000010100
157
SAFG20 SOCA 102100
METAR SOCA 102100Z AUTO VRB02KT 9999 FEW006 OVC100 25/23 Q1009=

0000010200
158
SAGQ20 FGSL 102100
METAR FGSL 102100Z 23005KT 6000 FEW012 BKN130 26/23 Q1012 NOSIG=

0000011100
159
SACN61 CYPR 102100
METAR CYPR 102100Z AUTO 13008KT 9SM CLR 04/02 A2970 RMK PRESFR
 SLP058=

0000013700
160
SACN61 CYQW 102100
METAR CYQW 102100Z AUTO 35006KT 9SM SCT049 SCT055 BKN078 OVC110
 M08/M09 A2943 RMK PRESRR SLP003=

0000011900
161
SACN62 CYQX 102100
METAR CYQX 102100Z 23014KT 20SM FEW070 SCT240 M08/M13 A3010 RMK
 AC2CI1 SLP204=

0000011900
162
SACN62 CYQM 102100
METAR CYQM 102100Z 22012KT 15SM FEW100 FEW240 M03/M08 A3027 RMK
 AC1CI1 SLP257=

0000012200
163
SACN62 CYRL 102100
METAR CYRL 102100Z 15005KT 2 1/2SM -SN BR OVC007 M07/M08 A2942 RMK
 SN4SC4 SLP988=

0000012800
164
SACN62 CYQI 102100
METAR CYQI 102100Z 23011KT 2SM -SN OVC005 00/00 A3040 RMK SF8 VIS VRB
 11/2-21/2 SLP297=

0000010000
165
SACS31 MROC 102057
METAR
MROC 102100Z 08010G20KT 9999 FEW030 27/11 A2992 NOSIG=

0000012900
166
FCFR33 LFPW 101700 AAA
TAF AMD LFRQ 102105Z 1021/1103 12005KT 2000 BR BKN002 TEMPO 1021/1103
 0200 FG VV///=

0000141700
167
SAUS73 KWBC 102100 RRC
METAR
KPLN 102054Z AUTO 13010KT 5SM BR OVC011 M02/M04 A2988=
KPTK 102053Z 16008KT 1 3/4SM BR OVC004 02/01 A2996=
KPUB 102053Z AUTO 31029G37KT 10SM 08/M16 A2968=
KRAP 102052Z 31004KT 10SM SCT080 06/M09 A2955=
KRFD 102054Z 14015KT 1 1/2SM R01/5000VP6000FT RA BR BKN004 BKN024
     OVC070 01/01 A2970=
KRKS 102054Z AUTO 28026G34KT 10SM BKN028 BKN033 00/M06 A2983=
KRST 102054Z 14007KT 3/4SM R31/4500V5000FT BR OVC003 M01/M02
     A2959=
KSAW NIL=
KSBN 102054Z 15013G19KT 1SM -RA BR OVC006 03/02 A2984=
KSDF 102056Z 14007KT 10SM OVC015 11/08 A2994=
KSDM 102053Z 30004KT 9SM CLR 20/09 A3006=
KSGF 102052Z 16014KT 10SM SCT007 BKN050 OVC110 09/08 A2960=
KSLN 102053Z 29006KT 9SM OVC023 03/01 A2957=
KSPI 102052Z 17016KT 4SM -RA BR OVC006 04/04 A2971=
KSTC 102053Z 19007KT 2SM BR OVC005 M03/M03 A2956=
KSTJ 102053Z 23006KT 5SM BR OVC005 03/02 A2954=
KSTL 102051Z 16013KT 3SM -RA BR BKN007 BKN048 OVC065 07/05
     A2971=
KSTP 102053Z AUTO 15006KT 5SM BR OVC006 M01/M02 A2961=
KSUS 102054Z 17006G14KT 4SM RA BR BKN011 OVC070 07/06 A2968=
KSUX 102052Z 15005KT 1SM R31/P6000FT BR OVC003 00/M01 A2956=
KTVC 102053Z 16008KT 6SM HZ OVC014 01/M02 A2986=
KUIN 102054Z AUTO 17013KT 5SM -RA BR BKN007 BKN011 OVC055 05/04
     A2961=
KWRL 102053Z AUTO 10004KT 10SM SCT110 M02/M07 A2967=
KYIP 102053Z 17005KT 2 1/2SM BR OVC006 04/02 A2999=

0000009900
168
SACN62 CYXN 102100
METAR CYXN 102100Z 31005KT 15SM SKC M31/M34 A2968 RMK SLP054=

0000010600
169
SACN62 CYYQ 102100
METAR CYYQ 102100Z 29005KT 15SM OVC270 M28/M32 A2970 RMK CI8 SLP063=

0000168400
170
SAUS74 KWBC 102100
METAR
KACV 102053Z AUTO 27004KT 1/2SM R32/2200VP6000FT FG BKN002 OVC006
     10/09 A3025=
KALW 102053Z 21013G22KT 10SM OVC110 10/01 A3003=
KBFI 102053Z 16012G19KT 10SM BKN019 OVC100 10/06 A3004=
KBFL 102054Z VRB03KT 9SM CLR 16/06 A3021=
KBIL NIL=
KBKE 102053Z AUTO 05009KT 10SM BKN080 OVC100 04/M01 A3005=
KBLI 102053Z 17010KT 10SM OVC110 09/04 A2998=
KBOI 102053Z 31006KT 10SM FEW055 OVC080 06/M01 A3010=
KBTM 102053Z AUTO 29018G23KT 10SM OVC065 03/M07 A2973=
KBUR 102053Z 20004KT 10SM CLR 23/03 A3004=
KBYI NIL=
KBZN 102056Z 28018G22KT 10SM OVC085 04/M08 A2972=
KCDC 102053Z AUTO VRB03KT 10SM CLR 09/M05 A3009=
KCEC 102056Z AUTO 18009KT 4SM BR OVC003 10/09 A3025=
KCLM 102053Z AUTO 07003KT 10SM OVC015 09/05 A2999=
KCTB 102056Z AUTO 25022G33KT 10SM SCT110 03/M04 A2953=
KCXL NIL=
KEKO 102056Z AUTO 24012KT 10SM BKN065 08/M01 A3013=
KEUG 102054Z 21007KT 6SM HZ BKN075 OVC100 11/08 A3017=
KFAT 102053Z 00000KT 4SM HZ FEW200 15/06 A3024=
KFLG 102057Z VRB06G14KT 10SM CLR 09/M08 A3010=
KGCN 102054Z 27010G14KT 10SM CLR 09/M06 A3009=
KGEG 102053Z 23019G26KT 10SM FEW022 SCT070 SCT150 BKN190 04/M01
     A2987=
KGGW 102053Z AUTO 27006KT 10SM CLR M01/M06 A2947=
KGTF 102053Z 26021G26KT 10SM FEW075 05/M04 A2958=
KHLN 102053Z 27017G27KT 10SM SCT065 BKN080 05/M05 A2967=
KHQM 102053Z AUTO 14006KT 2 1/2SM -RA FEW012 SCT020 OVC044
     A3004=
KIDA 102053Z 21017KT 10SM SCT030 SCT060 01/M02 A2990=
KIWA 102055Z 24003KT 30 FEW250 16/M03 3006=
KLAS 102056Z 12005KT 10SM SCT250 14/M04 A3004=
KLAX 102053Z 26007KT 7SM FEW160 SCT250 18/09 A3006=
KLGB 102053Z 19005KT 3SM HZ CLR 18/09 A3006=

0000167600
171
SAUS74 KWBC 102100 RRA
METAR
KLMT 102053Z 14006KT 10SM OVC039 06/M02 A3020=
KLVM 102053Z AUTO 26031G38KT 10SM CLR 05/M08 A2962=
KMFR 102053Z 00000KT 4SM BR OVC005 06/04 A3023=
KMLS 102053Z AUTO 25015KT 10SM SCT080 OVC100 03/M02 A2951=
KMRY 102054Z 31003KT 10SM CLR 15/08 A3021=
KMSO 102053Z 03003KT 10SM OVC050 03/01 A2985=
KMYV 102053Z AUTO 36003KT 10SM CLR 15/06 A3023=
KNTD 102054Z COR 16010KT 7SM SCT220 19/13 A3005=
KNTD 102054Z 16010KT 7SM SCT220 19/13 A3005=
KOAK 102053Z 27005KT 8SM SCT250 12/08 A3024=
KOGD 102053Z 23008KT 10SM OVC100 06/M04 A3004=
KOLM 102054Z 19007KT 8SM -RA FEW010 BKN034 OVC075 08/07 A3007=
KONT 102053Z 23008KT 6SM HZ FEW250 22/04 A3004=
KOTH 102055Z 20008KT 10SM BKN014 BKN019 OVC065 12/11 A3019=
KPAE 102053Z 18013G18KT 10SM BKN014 08/05 A3001=
KPDX 102053Z 18005KT 8SM FEW023 SCT060 OVC085 11/07 A3012=
KPHX 102051Z 29003KT 10SM FEW250 17/M04 A3004=
KPIH 102053Z 24025G32KT 10SM SCT031 04/M01 A2994=
KPMD 102053Z 00000KT 10SM CLR 19/01 A3011=
KPRB 102053Z AUTO 00000KT 10SM CLR 17/04 A3018=
KPRC 102053Z 34011KT 10SM CLR 14/M07 A3009=
KPSP 102053Z 14007KT 10SM SCT200 23/M03 A3005=
KRBL 102054Z AUTO 33005KT 10SM CLR 15/04 A3024=
KRDD 102053Z 00000KT 10SM CLR 16/04 A3023=
KRDM 102056Z 28006KT 10SM OVC047 09/M01 A3008=
KRNO 102055Z 11004KT 10SM FEW075 SCT150 OVC250 11/M01 A3024=
KRNT 102053Z 16008KT 9SM OVC019 09/06 A3005=
KSAC 102053Z 31003KT 10SM CLR 14/06 A3024=
KSAN 102051Z 27004KT 9SM SCT250 21/08 A3007=
KSBA 102053Z 13009KT 5SM HZ CLR 18/13 A3005=
KSBD NIL=
KSBP 102056Z 34012G19KT 10SM CLR 23/03 A3011=
KSCK 102055Z 33005KT 10SM CLR 15/07 A3022=

0000089800
172
SAUS74 KWBC 102100 RRB
METAR
KSEA 102053Z 19012KT 10SM BKN014 BKN020 OVC100 09/06 A3005=
KSFF 102053Z 24009KT 10SM FEW110 06/00 A2989=
KSFO 102056Z 00000KT 10SM FEW001 BKN200 13/08 A3023=
KSHR 102053Z AUTO 32017KT 10SM CLR 04/M06 A2956=
KSJC 102053Z 32006KT 10SM SCT160 BKN250 14/08 A3023=
KSLC 102053Z 15006KT 10SM SCT065 BKN110 BKN150 06/M03 A3005=
KSMF 102053Z 00000KT 10SM BKN250 14/06 A3024=
KSMX 102051Z 32013KT 10SM CLR 23/03 A3010=
KSNA 102053Z VRB03KT 5SM HZ CLR 20/09 A3005=
KSNS 102053Z 25008KT 10SM CLR 18/07 A3020=
KTIW 102053Z 19007KT 10SM SCT012 BKN024 OVC110 08/06 A3006=
KTUS 102053Z 31006KT 10SM CLR 18/M07 A3008=
KTVL 102053Z AUTO 03009KT 10SM CLR 12/M04 A3026=
KTWF 102053Z 26021G27KT 10SM BKN080 BKN100 08/M03 A3004=
KUKI 102056Z AUTO VRB03KT 10SM CLR 15/04 A3022=
KYKM 102053Z 29023G31KT 10SM BKN060 12/M02 A2992=
KYUM NIL=

00000000