0000022500
833
WSCH31 SCIP 111011
SCIZ SIGMET 3 VALID 111030/111430 SCIP-
SCIZ ISLA DE PASCUA FIR EMBD/ISOL TS IN AREA: S38/W100 S40/W096 S49/
W090 S53/W090 S51/W092 S44/W095 AND S38/W100 TOP ETI FL330/380 MOV
ESE WKN=
0000200400
834
SMBM01 VBRR 110600
AAXX 11064
48001 32450 50000 10140 20124 40182 83520 333 56110 58005= 
48004 32562 11201 10210 20143 81500 333 56900=
48008 31958 00401 10215 20136 40183 333 58009=
48010 32058 00000 10230 20163 40178 70144 333 58009=
48018 32960 01402 10238 20124 40170 70244 333 59001=
48019 32960 00401 10230 20134 40174 333 58008=
48020 32258 30403 10245 20167 70122 83400 333 56500=
48025 31440 33201 10242 20155 40180 83800 333 56500 58006=
48035 31958 02702 10242 20095 40137 70500 333 58005=
48037 32960 03601 10249 20150 40168 333 58019=
48042 31956 03601 10255 20155 40163 70500 333 58018=
48045 32562 11802 10188 20118 81100 333 56500=
48048 32958 00401 10246 20167 40170 333 58010=
48053 32950 03602 10270 20154 40155 333 58008=
48057 32960 02202 10222 20045 333=
48060 NIL=
48062 32960 00403 10246 20220 40162 333 58011=
48071 31960 00503 10260 20203 40161 70500 333 58005=
48077 32959 00000 10284 20158 40159 333 58011=
48078 32956 20902 10272 20163 40162 80001 333 56009 58019=
48080 32562 33103 10301 20223 40154 81836 333 56999 58002=
48094 32960 00404 10300 20220 40154 333 58011=
48097 32957 21303 10310 20189 40153 70211 80006 333 56009 58014=
48108 32996 50503 10330 20172 40145 80005 333 56009 58010=
48109 32497 20401 10306 20254 40146 82500 333 56900 58009=
48110 31996 31304 10330 20206 40137 70511 80006 333 56009 58010=
48112 32597 80403 10305 20230 40129 83876 333 56199 58010=
48030 32960 02204 10192 29016 333=
48051 /2959 03103 10262 20140 70200 333=
48072 32960 01304 10265 20240 333= 
48075 32558 20000 10250 20150 40158 82100 333 56500 58009=
48085 32958 20401 10304 20203 40144 80006 333 56009 58007=
48087 32960 20403 10295 20207 80001 333 56009=
48095 32960 20402 10290 20215 70311 80002 333 56009=
48099 32458 20000 10310 20203 40145 82800 333 56900 58010=
48101 32960 30401 10302 20207 70322 80006 333 56009=
48103 31456 10401 10313 20189 40145 70144 81500 333 56100 58012=
0000015700
835
SSVX13 LFPW 110600
ZZYY 62687 11014 0600/ 166057 001466 6113/ 11119 40053 52001 22219
 00076 444 20130 11014 0557/ 50101 80098 80000 9/015=
0000015700
836
SSVX13 LFPW 110600
ZZYY 62713 11014 0600/ 733799 019595 6113/ 11119 40153 57009 22219
 00182 444 20130 11014 0557/ 50101 80098 80000 9/015=
0000015700
837
SSVX13 LFPW 110600
ZZYY 44624 11014 0600/ 746698 020061 6113/ 11119 40059 57045 22219
 00128 444 20130 11014 0557/ 50101 80098 80016 9/015=
0000015700
838
SSVX13 LFPW 110600
ZZYY 44762 11014 0600/ 751183 006206 6113/ 11119 40172 52020 22219
 00106 444 20130 11014 0557/ 50101 80096 80000 9/015=
0000015700
839
SSVX13 LFPW 110600
ZZYY 62714 11014 0600/ 734330 021731 6113/ 11119 40140 57012 22219
 00192 444 20130 11014 0557/ 50101 80100 80000 9/015=
0000015700
840
SSVX13 LFPW 110600
ZZYY 44747 11014 0600/ 758628 045299 6113/ 11119 49958 57003 22219
 00046 444 20130 11014 0500/ 50101 80154 80000 9/015=
0000015700
841
SSVX13 LFPW 110600
ZZYY 44745 11014 0600/ 745761 050373 6113/ 11119 40246 57007 22219
 00015 444 20130 11014 0600/ 50101 80150 80000 9/015=
0000502600
842
AXNT20 KNHC 110601
TWDAT

TROPICAL WEATHER DISCUSSION
NWS NATIONAL HURRICANE CENTER MIAMI FL
105 AM EST FRI JAN 10 2014

TROPICAL WEATHER DISCUSSION FOR NORTH AMERICA...CENTRAL
AMERICA...GULF OF MEXICO...CARIBBEAN SEA...NORTHERN SECTIONS OF
SOUTH AMERICA...AND ATLANTIC OCEAN TO THE AFRICAN COAST FROM THE
EQUATOR TO 32N. THE FOLLOWING INFORMATION IS BASED ON SATELLITE
IMAGERY...WEATHER OBSERVATIONS...RADAR...AND METEOROLOGICAL
ANALYSIS.

BASED ON 0000 UTC SURFACE ANALYSIS AND SATELLITE IMAGERY THROUGH
0515 UTC.

...SPECIAL FEATURE...

A 0230 UTC OSCAT PASS INDICATED GALE FORCE WINDS CONTINUING OVER
THE SW CARIBBEAN IN AN AREA FROM 11N-13N BETWEEN 73W-78W. WINDS
WERE GENERALLY 25-35 KT IN THE AREA WITH SEAS OF 9-14 FEET. GALE
FORCE WINDS ARE FORECAST TO PERSIST FOR THE NEXT 48 HOURS.
ADDITIONAL DETAILS CAN BE FOUND IN HIGH SEAS FORECAST UNDER
AWIPS/WMO HEADERS...MIAHSFAT2/FZNT02 KNHC.

...ITCZ/MONSOON TROUGH...

THE MONSOON TROUGH AXIS EXTENDS FROM THE WEST AFRICAN COAST NEAR
6N11W TO 4N18W. THE ITCZ AXIS EXTENDS FROM 4N18W TO 2N30W TO THE
EQUATOR AT 41W...AND THE COAST OF SOUTH AMERICA AT 2S45W.
SCATTERED MODERATE ISOLATED STRONG CONVECTION WAS NOTED WITHIN
90-120 NM OF THE MONSOON TROF AND ITCZ AXIS BETWEEN THE COAST OF
AFRICA AND 33W. SCATTERED MODERATE CONVECTION WAS NOTED
ELSEWHERE FROM 2N-7N BETWEEN 38W-44W.

...DISCUSSION...

GULF OF MEXICO...

INCREASING SOUTHERLY RETURN FLOW WAS SPREADING OVER MOST OF THE
NORTHERN GULF WITH WINDS OF 10-15 KT...AND TO 20 KT AT ELEVATED
PLATFORMS. THE RETURN FLOW WAS ADVECTING COPIUS LOW LEVEL
MOISTURE TO FUEL SCATTERED THUNDERSTORMS OVER
LOUISIANA...MISSISSIPPI AND ALABAMA AS INDICATED IN REGIONAL WSR-
88D RADAR DATA. AREAS OF LOW CEILINGS AND FOG WERE NOTED ALONG
THE GULF COAST OUTSIDE OF CONVECTIVE ACTIVITY. WATER VAPOR
IMAGERY DEPICTED BROAD SW MID TO UPPER LEVEL FLOW OVER THE GULF
WITH SEVERAL BANDS OF MID TO UPPER LEVEL MOISTURE WITHIN A
BROADER AREA OF SUBSIDENCE. GOES SATELLITE DERIVED WINDS
INDICATED A SUBTROPICAL JET WITH CORE SPEEDS OF 100 KT SWEEPING
NE ALONG THE TEXAS COAST TOWARD THE MID-ATLANTIC STATES AND
CRESTING AN AMPLIFYING RIDGE ALONG 80W. A COLD FRONT IS FORECAST
TO MOVE OFF THE TEXAS COAST LATER THIS MORNING AND EXTEND FROM
THE FLORIDA BIG BEND TO THE WEST CENTRAL GULF NEAR 24N95W BY
THIS EVENING WITH SCATTERED SHOWERS AND THUNDERSTORMS DEVELOPING
WITHIN 90-120 NM E OF THE FRONT. THE FRONT WILL USHER IN FRESH
NW WINDS.

CARIBBEAN SEA...

GALE FORCE WINDS CONTINUE OVER THE SW CARIBBEAN ALONG AND WITHIN
90 NM OF THE COAST OF COLOMBIA. REFER TO THE SPECIAL FEATURE
ABOVE. A SURFACE TROUGH IS OVER THE NW CARIBBEAN WITHIN 90 NM OF
THE COAST OF YUCATAN AND BELIZE...EXTENDING SWD TO THE NORTHERN
COAST OF HONDURAS. SCATTERED SHOWERS ARE WITHIN 120 NM OF THE
TROUGH. OUTSIDE OF THE GALE AREA...SEVERAL SCATTEROMETER PASSES
DEPICTED 20-25 KT TRADEWINDS OVER THE BASIN BETWEEN 70W-80W WITH
LIGHTER WINDS...15-20 KT ELSEWHERE. SCATTERED LOW TOPPED SHOWERS
WERE NOTED OVER HONDURAS...NICARAGUA...S OF JAMAICA...PUERTO
RICO... AND THE E CARIBBEAN E OF 70W. SCATTERED SHOWERS ARE ALSO
OVER PANAMA AND COSTA RICA IN THE VICINITY OF A MONSOON TROUGH.
WATER VAPOR IMAGERY DEPICTED A BROAD RIDGE OVER MOST OF THE
CARIBBEAN WITH THE EXCEPTION OF THE FAR SE/SOUTHERN LESSER
ANTILLES. DEEP LAYERED SUBSIDENCE WAS NOTED WITHIN THE RIDGE AND
WAS NOTABLE S OF 15N. LITTLE CHANGE IS EXPECTED IN THIS FAIRLY
STABLE REGIME OVER THE NEXT 24 HOURS.

...HISPANIOLA...

ONLY ISOLATED WARM TOPPED SHOWERS WERE NOTED IN THE VICINITY OF
HISPANIOLA IN AN OTHERWISE FAIR STABLE ENVIRONMENT DUE TO A THE
PRESENCE OF A BROAD UPPER LEVEL RIDGE IN THE AREA. THE 0000 UTC
SAN JUAN RAOB INDICATED VERY DRY CONDITIONS ABOVE 725 MB WITH
PRECIPITABLE WATER VALUES OF ONLY 1.48 IN. EXPECT THESE TRANQUIL
CONDITIONS TO PERSIST OVER THE NEXT SEVERAL DAYS.

ATLANTIC OCEAN...

A COLD FRONT IS OVER THE CENTRAL ATLANTIC FROM 32N34W TO 27N45W
TO 28N55W. THE FRONT WAS USHERING IN NORTHERLY FLOW TO THE E OF
A 1035 MB SURFACE HIGH NEAR 38N61W. SCATTERED SHOWERS AND
ISOLATED THUNDERSTORMS WERE NOTED OFF THE FLORIDA COAST N OF 29N
AND W OF 76W. SCATTERED SHOWERS WERE WITHIN 90 NM OF THE COLD
FRONT NOTED ABOVE. WATER VAPOR IMAGERY DEPICTED MAINLY ZONAL W
TO NW FLOW OVER THE SUBTROPICAL ATLC N OF 22N AND W OF 60W.
STRONG SUBSIDENCE WAS NOTED IN THE REGION S OF 22N. A LARGE
UPPER LEVEL LOW IS CENTERED OVER THE TROPICAL ATLANTIC NEAR
15N48W. UPPER LEVEL DIFFLUENCE E OF THE LOW AND AN ATTENDANT
TROUGH IS PRODUCING A VAST AREA OF BROKEN TO OVERCAST MID AND
HIGH CLOUDS FROM THE ITCZ NORTHWARD TO 20N BETWEEN 25W-45W. THE
CENTRAL ATLC COLD FRONT IS FORECAST TO SWEEP SOUTHEASTWARD AS
HIGH PRES BUILDS OVER THE FAR NORTHERN PORTION OF THE
DISCUSSION AREA.

FOR ADDITIONAL INFORMATION PLEASE VISIT
HTTP://WWW.HURRICANES.GOV/MARINE

$$
COBB
0000091700
843
SMFI01 EFKL 110600
AAXX 11061
02741 NIL=
02754 37380 80202 11047 21060 39883 49991 52010 70020 88/// 90539
333 11018 21048 3////=
02755 NIL=
02769 NIL=
02773 37399 80401 11026 21036 39979 49990 52006 72487 88/// 90539
333 10006 21027 3/103=
02789 NIL=
02801 NIL=
02805 NIL=
02814 NIL=
02835 NIL=
02836 NIL=
02844 NIL=
02845 47999 00307 11184 21213 39865 40134 52007 70087 90539 
333 11153 21185 3/120 4/056=
02849 47999 03403 11209 21234 39847 40147 52004 70000 90539 
333 11168 21216 3////=
02851 NIL=
02852 NIL=
02866 NIL=
02880 NIL=
02883 NIL=
02889 NIL=
02915 NIL=
02924 47450 70302 11083 21108 39807 40011 52007 77170 87/// 90539
333 11050 21083 3////=
02926 NIL=
02935 NIL=
02939 NIL=
02955 37556 73605 11093 21120 39896 40010 52015 77176 87/// 90539
333 11067 21094 3//// 4/998=
02957 NIL=
02964 NIL=
02978 NIL=
02981 NIL=
0000015100
844
SMFI01 EFKL 110600 RRA
AAXX 11061
02981 17336 82905 10001 21008 39986 49996 53006 69912 785// 88///
90600 
333 10017 21003 3/101=
0000014800
845
SMFI01 EFKL 110600 RRB
AAXX 11061
02741 165// 83001 11018 21023 39982 49998 54001 69942 87/// 90600
333 11001 21018 3/103 4/998=
0000014200
846
SMFI01 EFKL 110600 RRC
AAXX 11061
02978 37481 73506 11031 21047 39982 49987 52021 70087 87/// 90600
333 10004 21031 3/103=
0000014200
847
SMFI01 EFKL 110600 RRD
AAXX 11061
02964 17319 90804 11021 21023 39986 49991 54001 69912 77174 90600
333 10000 21021 3////=
0000014800
848
SMFI01 EFKL 110600 RRE
AAXX 11061
02926 37381 80501 11043 21052 39985 49997 53002 700// 88/// 90600
333 11027 21046 3/104 4/998=
0000014200
849
SMFI01 EFKL 110600 RRF
AAXX 11061
02769 37465 80303 11071 21091 39889 40009 52005 77871 88/// 90600
333 11062 21071 3/107=
0000014200
850
SMFI01 EFKL 110600 RRG
AAXX 11061
02935 37466 70205 11088 21122 39830 40010 52014 77170 87/// 90600
333 11060 21088 3/109=
0000015700
851
SMFI01 EFKL 110600 RRH
AAXX 11061
02957 17456 70405 11084 21101 30016 40028 53007 69962 771// 87///
90600 
333 11065 21085 3/108 4/002=
0000014200
852
SMFI01 EFKL 110600 RRI
AAXX 11061
02915 37458 80402 11102 21126 39855 40025 52013 77170 88/// 90600
333 11066 21102 3/110=
00000000