0000704800
893
SNIN02 DEMS 110600
OOXX
  RAK 11064 99296 10794 10199 ////2 26/// ///// 1//// 2//// 3//// 4//// 5//// 6//// 7//// 8//// 9////   333 55/// ///// 58/// 6000/   555 6//// =
  RAW 11064 99247 10722 10142 ////2 26/// ///// 10183 2//// 3//// 40/// 5//// 6//// 7//// 8//// 9////   333 55/// ///// 58/// 6000/   555 6//// =
  RCH 11064 99233 10855 10035 ////2 26/// ///// 1//// 2//// 3//// 4//// 5//// 6//// 7//// 8//// 9////   333 55/// ///// 58/// 6000/   555 6//// =
  RCM 11064 99175 10786 06578 ////2 26/// ///// 1//// 2//// 3//// 4//// 5//// 6//// 7//// 8//// 9////   333 55/// ///// 58/// 6000/   555 6//// =
  RDU 11064 99266 10814 10061 ////2 26/// ///// 1//// 2//// 3//// 4//// 5//// 6//// 7//// 8//// 9////   333 55/// ///// 58/// 6009/   555 6//// =
  RED 11064 99246 10725 10142 ////2 26/// ///// 1//// 2//// 3//// 4//// 5//// 6//// 7//// 8//// 9////   333 55/// ///// 58/// 6000/   555 6//// =
  RHL 11064 99236 10790 10139 ////2 26/// ///// 1//// 2//// 3//// 4//// 5//// 6//// 7//// 8//// 9////   333 55/// ///// 58/// 6000/   555 6//// =
  RII 11064 99272 10767 10176 ////2 26/// ///// 1//// 2//// 3//// 4//// 5//// 6//// 7//// 8//// 9////   333 55/// ///// 58/// 6000/   555 6//// =
  RMA 11064 99294 10791 10199 ////2 26/// ///// 1//// 2//// 3//// 4//// 5//// 6//// 7//// 8//// 9////   333 55/// ///// 58/// 6000/   555 6//// =
  RMR 11064 99250 10731 10153 ////2 26/// ///// 1//// 2//// 3//// 4//// 5//// 6//// 7//// 8//// 9////   333 55/// ///// 58/// 6000/   555 6//// =
  RTH 11064 99239 10801 10030 ////2 26/// ///// 1//// 2//// 3//// 4//// 5//// 6//// 7//// 8//// 9////   333 55/// ///// 58/// 6000/   555 6//// =
  SAW 11064 99236 10740 10134 ////2 26/// ///// 10184 2//// 3//// 40/// 5//// 6//// 7//// 8//// 9////   333 55/// ///// 58/// 6000/   555 6//// =
  SBD 11064 99274 10796 10179 ////2 26/// ///// 1//// 2//// 3//// 4//// 5//// 6//// 7//// 8//// 9////   333 55/// ///// 58/// 6000/   555 6//// =
  SBL 11064 99286 10786 10188 ////2 26/// ///// 1//// 2//// 3//// 4//// 5//// 6//// 7//// 8//// 9////   333 55/// ///// 58/// 6000/   555 6//// =
  SDR 11064 99277 10784 10178 ////2 26/// ///// 10132 2//// 3//// 40/// 5//// 6//// 7//// 8//// 9////   333 55/// ///// 58/// 6000/   555 6//// =
  SEA 11064 99217 10751 10115 ////2 26/// ///// 1//// 2//// 3//// 4//// 5//// 6//// 7//// 8//// 9////   333 55/// ///// 58/// 6000/   555 6//// =
  SGI 11064 99298 10744 10194 ////2 26/// ///// 1//// 2//// 3//// 4//// 5//// 6//// 7//// 8//// 9////   333 55/// ///// 58/// 6000/   555 6//// =
  SHM 11064 99294 10773 10197 ////2 26/// ///// 1//// 2//// 3//// 4//// 5//// 6//// 7//// 8//// 9////   333 55/// ///// 58/// 6000/   555 6//// =
  SII 11064 99213 10830 10013 ////2 26/// ///// 1//// 2//// 3//// 4//// 5//// 6//// 7//// 8//// 9////   333 55/// ///// 58/// 6000/   555 6//// =
  SIM 11064 99274 10756 10175 ////2 26/// ///// 1//// 2//// 3//// 4//// 5//// 6//// 7//// 8//// 9////   333 55/// ///// 58/// 6000/   555 6//// =
  SIN 11064 99219 10733 10113 ////2 26/// ///// 1//// 2//// 3//// 4//// 5//// 6//// 7//// 8//// 9////   333 55/// ///// 58/// 6000/   555 6//// =
  SIO 11064 99249 10729 10142 ////2 26/// ///// 1//// 2//// 3//// 4//// 5//// 6//// 7//// 8//// 9////   333 55/// ///// 58/// 6000/   555 6//// =
  SIS 11064 99302 10788 13608 ////2 26/// ///// 10130 2//// 3//// 40/// 5//// 6//// 7//// 8//// 9////   333 55/// ///// 58/// 6000/   555 6//// =
  SJM 11064 99264 10907 09960 ////2 26/// ///// 1//// 2//// 3//// 4//// 5//// 6//// 7//// 8//// 9////   333 55/// ///// 58/// 6000/   555 6//// =
  SJP 11064 99185 10738 06583 ////2 26/// ///// 10244 2//// 3//// 40/// 5//// 6//// 7//// 8//// 9////   333 55/// ///// 58/// 6000/   555 6//// =
  SKD 11064 99264 10796 10169 ////2 26/// ///// 1//// 2//// 3//// 4//// 5//// 6//// 7//// 8//// 9////   333 55/// ///// 58/// 6000/   555 6//// =
  SNA 11064 99291 10776 10197 ////2 26/// ///// 10133 2//// 3//// 40/// 5//// 6//// 7//// 8//// 9////   333 55/// ///// 58/// 6000/   555 6//// =
  SND 11064 99270 10805 10070 ////2 26/// ///// 10164 2//// 3//// 40/// 5//// 6//// 7//// 8//// 9////   333 55/// ///// 58/// 6000/   555 6//// =
  SNP 11064 99187 10738 06583 ////2 26/// ///// 10232 2//// 3//// 40/// 5//// 6//// 7//// 8//// 9////   333 55/// ///// 58/// 6000/   555 6//// =
  SNR 11064 99236 10765 10136 ////2 26/// ///// 1//// 2//// 3//// 4//// 5//// 6//// 7//// 8//// 9////   333 55/// ///// 58/// 6000/   555 6//// =
  SOM 11064 99298 10796 10199 ////2 26/// ///// 1//// 2//// 3//// 4//// 5//// 6//// 7//// 8//// 9////   333 55/// ///// 58/// 6000/   555 6//// =
  SPU 11064 99232 10807 10030 ////2 26/// ///// 1//// 2//// 3//// 4//// 5//// 6//// 7//// 8//// 9////   333 55/// ///// 58/// 6000/   555 6//// =
  SUN 11064 99311 10770 13617 ////2 26/// ///// 1//// 2//// 3//// 4//// 5//// 6//// 7//// 8//// 9////   333 55/// ///// 58/// 6000/   555 6//// =
  TBG 11064 99266 10816 10061 ////2 26/// ///// 10145 2//// 3//// 40/// 5//// 6//// 7//// 8//// 9////   333 55/// ///// 58/// 6006/   555 6//// =
  THE 11064 99090 10770 02997 ////2 26/// ///// 1//// 2//// 3//// 4//// 5//// 6//// 7//// 8//// 9////   333 55/// ///// 58/// 6000/   555 6//// =
  THL 11064 99300 10795 13609 ////2 26/// ///// 1//// 2//// 3//// 4//// 5//// 6//// 7//// 8//// 9////   333 55/// ///// 58/// 6000/   555 6//// =
  TIJ 11064 99279 10768 10176 ////2 26/// ///// 10136 2//// 3//// 40/// 5//// 6//// 7//// 8//// 9////   333 55/// ///// 58/// 6000/   555 6//// =
  TRR 11064 99286 10750 10185 ////2 26/// ///// 1//// 2//// 3//// 4//// 5//// 6//// 7//// 8//// 9////   333 55/// ///// 58/// 6000/   555 6//// =
  TRS 11064 99260 10755 10165 ////2 26/// ///// 1//// 2//// 3//// 4//// 5//// 6//// 7//// 8//// 9////   333 55/// ///// 58/// 6000/   555 6//// =
  UHR 11064 99255 10812 10051 ////2 26/// ///// 1//// 2//// 3//// 4//// 5//// 6//// 7//// 8//// 9////   333 55/// ///// 58/// 6000/   555 6//// =
  UPW 11064 99277 10755 10175 ////2 26/// ///// 1//// 2//// 3//// 4//// 5//// 6//// 7//// 8//// 9////   333 55/// ///// 58/// 6000/   555 6//// =
  VAI 11064 99092 10786 02998 ////2 26/// ///// 10278 2//// 3//// 40/// 5//// 6//// 7//// 8//// 9////   333 55/// ///// 58/// 6000/   555 6//// =
  VEP 11064 99113 10788 06518 ////2 26/// ///// 1//// 2//// 3//// 4//// 5//// 6//// 7//// 8//// 9////   333 55/// ///// 58/// 6000/   555 6//// =
  VGH 11064 99240 10808 10040 ////2 26/// ///// 1//// 2//// 3//// 4//// 5//// 6//// 7//// 8//// 9////   333 55/// ///// 58/// 6000/   555 6//// =
  VPR 11064 99260 10774 10167 ////2 26/// ///// 1//// 2//// 3//// 4//// 5//// 6//// 7//// 8//// 9////   333 55/// ///// 58/// 6000/   555 6//// =
  YAC 11064 99170 10786 06578 ////2 26/// ///// 1//// 2//// 3//// 4//// 5//// 6//// 7//// 8//// 9////   333 55/// ///// 58/// 6000/   555 6//// =
  YDU 11064 99176 10803 06470 ////2 26/// ///// 1//// 2//// 3//// 4//// 5//// 6//// 7//// 8//// 9////   333 55/// ///// 58/// 6000/   555 6//// =
  YRM 11064 99160 10793 06569 ////2 26/// ///// 1//// 2//// 3//// 4//// 5//// 6//// 7//// 8//// 9////   333 55/// ///// 58/// 6000/   555 6//// =

0000011200
894
SMNL54 EHDB 110600 RRD
AAXX 11061
06312 46/// /2110
333 91012 91114 91211
555 51112 51210=
0000011200
895
SMNL54 EHDB 110600 RRE
AAXX 11061
06308 46/// /1905
333 91008 91109 91207
555 51108 51206=
0000011200
896
SMNL54 EHDB 110600 RRF
AAXX 11061
06209 46/// /2112
333 91014 91116 91213
555 51115 51212=
0000011200
897
SMNL54 EHDB 110600 RRG
AAXX 11061
06316 46/// /2008
333 91010 91112 91210
555 51111 51209=
0000011200
898
SMNL54 EHDB 110600 RRH
AAXX 11061
06331 46/// /1907
333 91008 91111 91209
555 51108 51207=
0000011200
899
SMNL54 EHDB 110600 RRI
AAXX 11061
06324 46/// /2006
333 91008 91111 91209
555 51109 51207=
0000011200
900
SMNL54 EHDB 110600 RRJ
AAXX 11061
06311 46/// /2106
333 91008 91110 91207
555 51108 51206=
0000134900
901
SMCI06 BABJ 110600
AAXX 11061
55299 32880 72003 11068 21266 35823 57019 87/// 333 00154
21184=
55591 32667 72706 10034 21216 36495 57018 87/// 333 00153
21061=
56739 32580 12503 10169 20005 38335 57025 81/// 333 00101
20014=
56951 32980 03203 10216 21010 38522 57034 333 00101 20048=
56964 32580 22502 10218 20076 38735 40175 57028 82/// 333
00200 20074=
57328 11823 80901 10080 20023 39864 40288 57026 69901 76060
88/// 333 20055=
57411 31558 73402 10099 20041 39907 40287 57029 70500 87///
333 20053=
57447 11962 82201 10055 20023 39737 40298 57026 69911 76066
88/// 333 20043=
57662 11858 83403 10042 20024 30118 40309 57026 69911 71060
88/// 333 20023=
57745 31757 80404 10043 20020 39962 40303 57030 71000 88///
333 20030=
57972 11440 83401 10062 20044 30057 40289 57023 69901 76060
88/// 333 20060=
58203 31941 00203 10083 20000 30261 40304 57026 70500 333
20017=
58314 11960 80000 10051 20005 30238 40349 52020 69931 70060
88/// 333 20001=
58424 11338 80204 10030 20023 30215 40295 57022 69991 72185
88/// 333 20024=
59023 11450 80402 10079 20071 39941 40261 57028 60011 76066
88/// 333 20075=
59417 11440 81801 10132 20116 30062 40219 57029 69931 76060
88/// 333 20117=
59985 11580 40404 10261 20213 30165 40171 57029 69911 70080
84/// 333 20230=
59995 NIL=
0000010400
902
SMBM01 VBRR 110600 RRB
AAXX 11064
48042 31956 03601 10255 20155 40163 70500 333 58018=
0000011200
903
SMTA10 UTDD 110600 RRF
AAXX 11061
38947 32997 33501 10012 21023 40304 52001 80001 333   21038=
0000016700
904
SOVI10 KWAL 110631
B110070A 011063101"P9751095 B\P~W@@X0ekF1@o_???CnCp>@oz3@CD@@V4Cw5C~6bF9JA2?????@"??? ?TF\L@_@\@_@a@h@c:AMPTEMP 26.57C  46-0NN 219E
0000032300
905
KSMH01 EUMS 110621 RRA
CREX++
T00020413// A000 P00106000 U00 S001 Y20140111 H0600 D301004 D301023 D302001 D302032 D302070 B013019 B013021 B013023 B014021++
63 995 MET5                 0 0923 04612 10122 10137 0010 00 01000 2830 2297 072 01000 0100 160 0126 217 0153 098 232 0000 00000 00000 ///++
7777
0000243000
906
SMRA15 RUNW 110600
AAXX 11061
23074 NIL=
23078 41896 82008 11251 21290 30072 40162 52014 77173 8807/ 333 91011
91115=
23274 41798 31503 11339 21368 30161 40202 52014 70271 82501=
23383 42998 80000 11406 21433 39882 40295 52001 81087=
23472 41598 13002 11277 21315 30162 40216 52022 77681 81500=
23578 41999 81501 11175 21201 30158 40199 52015 72272 82039=
23589 41997 81102 11267 21292 30112 4//// 54000 77172 8807/=
23678 41998 20901 11143 21163 30149 40210 52010 70273 82031=
23788 41897 81702 11181 21206 30160 40245 52001 77172 8802/=
23884 41568 80000 11153 21166 30157 40235 52003 77172 8552/=
23891 41696 80000 11285 21317 39960 57005 77177 8357/=
24507 41996 81203 11381 21409 30049 40331 57008 77172 80007=
24817 41995 80000 11421 21450 39985 40409 57010 74011 82045=
24908 41975 80501 11317 21355 39979 40353 57010 77172 80007=
29068 41595 81503 11103 21116 30169 40258 52007 78687 889//=
29263 41596 82103 11070 21083 30159 40263 52005 78582 8595/=
29274 41545 81902 11070 21083 30158 40275 58002 77377 8271/=
29282 41997 80000 11230 21256 30128 40314 57004 77072 8807/=
29363 43/// /2303 11070 21082 30041 40277 52004=
29379 41497 81901 11087 21100 30077 40297 54000 78587 889//=
29456 83/// /2305 11060 21105 30030 40296 52005=
29464 41996 82204 11065 21097 39999 40298 52007 77173 8802/=
29477 41599 82404 11054 21094 30090 40303 52004 72687 8597/=
29563 41898 72605 11073 21098 39694 40305 52002 77172 87020=
29570 41598 72403 11049 21092 39947 40302 54000 78582 84930=
29576 41898 82402 11066 21105 39827 40308 54000 70272 84045=
29662 41999 82401 11039 21106 39902 40314 5//// 70272 8807/=
29698 41996 80000 11148 21172 39803 40348 58003 77172 85071=
29892 42998 81801 11173 21215 39440 40363 57021 83032=
30028 42999 51801 11386 21420 39904 40423 57013 84041=
30142 NIL=
30157 42998 51001 11398 21441 30169 40508 58008 80001=
30230 41993 60000 11434 21463 30067 40460 57014 74441 82031=
30252 41995 70701 11426 21450 30156 40534 58011 71041 80004=
30309 41997 81602 11168 21187 39787 40343 58010 77172 80007=
30328 42997 81801 11298 21328 39957 40440 58013 77071 82046=
30439 42999 30000 11171 21240 39786 40408 58001 80003=
30521 41599 80000 11261 21279 39844 40427 58006 70282 82901=
30710 41997 70000 11120 21146 39755 40369 58014 70271 86031=
30815 42899 72101 11111 21195 38597 48531 58002 84016=
36103 NIL=
0000248800
907
SMRA16 RUNW 110600
AAXX 11061
23699 NIL=
23973 NIL=
23975 41598 80000 11102 21223 3//// 4//// 5//// 78582 889//=
23982 NIL=
23986 41995 82401 11136 21156 39595 40259 53007 77372 8802/ 333
95090=
23987 41499 51302 11119 21139 30163 40240 52003 70282 83901=
23992 41898 80000 11273 21298 30067 40319 57004 77172 8807/=
24606 41896 82201 11394 21423 30044 40357 57011 77172 84037=
24802 NIL=
24807 NIL=
29253 41898 82001 11072 21097 30076 40254 5//// 77172 8802/=
29276 NIL=
29367 43/// /2302 11064 21093 30057 40292 52007=
29374 41550 72204 11063 21086 30158 40279 52001 78572 86950=
29467 41598 72407 11056 21098 39971 40302 52006 70273 87500 333
91010=
29471 41596 82102 11053 21080 30061 40294 52005 78582 889// 333
88921=
29481 41999 62001 11067 21095 30050 40295 57002 70272 84031=
29485 42/// /2303 11082 21096 39988 40311 57002=
29553 41596 72305 11064 21105 39928 40304 52006 78582 85950 333 91011
91111=
29561 41896 72403 11058 21096 39975 40306 51005 77172 86071=
29562 41597 62203 11061 21094 39880 40307 52002 78582 86900=
29566 41697 72103 11049 21089 39955 40309 54000 78587 84930=
29571 41898 72302 11049 21085 30000 40303 51002 70287 87040=
29581 41996 80000 11100 21126 30047 40315 57003 77171 8802/=
29594 41997 80000 11126 21146 39919 40324 52002 77172 8801/=
29653 42997 21701 11050 21104 39815 40310 52002 80001=
29674 NIL=
29676 41696 80201 11059 21101 39875 70308 50001 71072 885//=
29752 41496 72507 11123 21143 38843 48485 52004 78583 84939 333
91122=
29759 41599 62403 11090 21134 39269 40330 58001 78587 83930=
29766 42899 70000 11046 21073 39976 40339 51002 82031=
29789 42699 81801 11063 21144 39099 40305 53001 82532=
29864 43/// /2004 11037 21098 39666 40325 50001=
29866 42699 72302 11018 21071 30006 40330 52003 82501=
29869 42698 60000 11039 21084 39969 40351 53009 82951=
29956 42998 82302 11073 21094 39778 40356 52001 8807/=
30337 42998 70000 11362 21397 39940 40462 58013 80001=
30405 41998 80000 11172 21191 39789 40354 57003 77172 8802/=
30504 42998 72002 11145 21158 39667 40354 58002 80002=
30603 41996 80000 11147 21153 39755 40360 57006 71022 83037=
30612 41598 80903 11199 21218 39809 40388 58001 77172 82507=
30622 42998 80000 11258 21297 39713 40429 58004 80003=
30627 42998 40202 11196 21215 39399 40405 58001 80001=
30703 42999 80000 11158 21209 39650 40366 58011 81042=
36307 42999 62201 11276 21322 39105 48595 58001 80002=
0000010600
908
SMRA16 RUNW 110600 RRA
AAXX 11061
23699 42998 80000 11344 21374 3//// 4//// 5//// 8807/=
0000011200
909
SMRA16 RUNW 110600 RRB
AAXX 11061
24802 41899 81802 11318 21348 39839 40350 57009 70272 83031=
0000010000
910
SMRA16 RUNW 110600 RRC
AAXX 11061
29276 46/// /2801 11193 21209 30068 40303 54001=
0000010600
911
SMRA11 RUNW 110600 RRM
AAXX 11061
29664 42998 61702 11060 21113 39897 40315 52005 80002=
0000012400
912
SMRA11 RUNW 110600 RRN
AAXX 11061
36092 41899 82001 11191 21232 39341 40477 58003 77077 8802/ 333
95050=
00000000