0000023800
133
SWVD12 LFPW 111000
MMXX 41300 11014 1000/ 71551 05728 00011 15400 20300 30101
11130 0005/ 1024/ 30/// 14054 11174
22226 90006 10001 30414 55800 79954 94026 12006 31713
51312 70808 90806 10304 30505 50302 70201 90100=
0000017200
134
SSVF50 LFPW 110750 RRA
ZZYY 62078 11014 0750/ 747239 002787 22219 00072 10801 20080
21007=
ZZYY 62067 11014 0750/ 746833 002295 22219 10702 20070 21008=
0000010800
135
SSVF50 LFPW 110810 RRA
ZZYY 61431 11014 0810/ 143411 004163 22219 00124 10401 20040
21004=
0000017200
136
SSVF50 LFPW 110820 RRA
ZZYY 62078 11014 0820/ 747239 002787 22219 00072 10801 20080
21007=
ZZYY 62067 11014 0820/ 746833 002295 22219 10601 20063 21007=
0000017200
137
SSVF50 LFPW 110835 RRA
ZZYY 62066 11014 0835/ 743532 001615 22219 00120 10902 20090
21009=
ZZYY 62064 11014 0835/ 744653 001447 22219 10902 20090 21011=
0000052400
138
SSVF50 LFPW 110840 RRA
ZZYY 62074 11014 0840/ 747285 003285 22219 00100 11003 20100
21013=
ZZYY 62079 11014 0840/ 743403 001674 22219 00126 11002 20100
21010=
ZZYY 62069 11014 0840/ 748290 004968 22219 00111 11004 20100
21019=
ZZYY 61431 11014 0840/ 143411 004163 22219 00124 10401 20040
21004=
ZZYY 62068 11014 0840/ 748717 003961 22219 10400 20040 21002=
ZZYY 61191 11014 0840/ 142917 003125 22219 00125 10401 20040
21003=
ZZYY 62059 11014 0840/ 749695 001620 22219 10401 20040 21007=
0000040700
139
SXXX32 EUMS 110615
262D700E
:PRS 1 /1 2317 2300 2269 2268 2280 2305 2369 2336 2366 2318 2337 2271 2286 2344 2308 2365 2385 2391 2427 2415 2432 2433 2404 2384 2353 2445 2421 2458 2454 2418 :RAD 1 /3 4771 4789 4799 4808 4834 4857 4868 4880 4895 4905 4919 4945 4962 4972 4993 :ENC 5 /5 4886 4884 4936 4954 4983 4994 5035 5049 5092 5096 5150 5147 :SW1 15 /60 60 :BAT 14 /15 14.0 :NAME 262D700E
0000045500
140
SXXX32 EUMS 110615 RRA
324DF524
:PRS 1 /1 4018 4018 4019 4018 4019 4019 4019 4018 4018 4018 4018 4017 4016 4015 4014 4012 4011 4010 4008 4007 4005 4003 4001 3999 3997 3994 3992 3989 3986 3983 :RAD 1 /3 4063 4061 4057 4055 4054 4049 4043 4038 4028 4017 4002 3988 3974 3959 3942 3923 3906 3893 3877 3858 :ENC 5 /5 2991 2988 2983 2975 2964 2949 2929 2906 2881 2856 2827 2798 :SW1 15 /60 0 0 :SW2 45 /60 60 60 :BAT 14 /15 13.2 :NAME 324DF524
0000041600
141
SXXX32 EUMS 110616
26CB10AC
:PRS 1 /1 -1338 -1338 -1338 -1338 -1338 -1338 -1338 -1338 -1338 -1338 -1338 -1338 -1338 -1339 -1338 -1338 -1338 -1338 -1338 -1339 -1339 -1339 -1339 -1339 -1339 -1339 -1339 -1338 -1340 -1339 :RAD 3 /3 5933 5939 5948 5954 5962 5967 5976 5982 5992 5994 :RA2 3 /3 5893 5897 5913 5912 5926 5923 5939 5938 5959 5952 :SW1 17 /60 15 :SW2 47 /60 1 :BAT 14 /15 13.3 :NAME 26CB10AC
0000045000
142
SXXX32 EUMS 110616 RRA
1227146C
:PRS 1 /1 2678 2676 2677 2677 2678 2677 2679 2680 2680 2681 2682 2682 2682 2682 2681 2682 2681 2680 2681 2684 2683 2686 2684 2685 2687 2687 2689 2689 2691 2691 :RAD 3 /3 2677 2668 2678 2668 2672 2681 2674 2669 2677 2699 2682 2685 2684 2685 2689 2684 2694 2705 2706 2719 :ENC 1 /5 3416 3419 3421 3421 3425 3429 3430 3435 3439 3447 3457 3467 :SW1 17 /60 0 :SW2 47 /60 60 :BAT 14 /15 13.5 :NAME 1227146C
0000261800
143
UDFR01 LFPW 110619
AMDAR 1106
ASC EU0012 4117N 00205E 110604 F001 PS095 /// 016/014 TB2 S031
333 F001 VG061=
UNS EU0012 4117N 00204E 110604 F008 PS100 /// 069/016 TB1 S031
333 F008 VG052=
UNS EU0012 4116N 00204E 110604 F017 PS087 /// 040/004 TB2 S031
333 F017 VG065=
ASC EU0012 4115N 00204E 110605 F021 PS072 /// 054/005 TB1 S031
333 F021 VG020=
ASC EU0012 4114N 00203E 110605 F025 PS062 /// 078/005 TB0 S031
333 F025 VG003=
ASC EU0012 4113N 00202E 110605 F028 PS055 /// 060/004 TB3 S031
333 F028 VG110=
UNS EU0012 4112N 00201E 110606 F037 PS077 /// 069/002 TB1 S031
333 F037 VG020=
UNS EU0012 4111N 00159E 110606 F043 PS075 /// 090/009 TB1 S031
333 F043 VG028=
UNS EU0012 4111N 00158E 110606 F052 PS067 /// 079/012 TB0 S031
333 F052 VG007=
UNS EU0012 4112N 00156E 110607 F062 PS047 /// 115/012 TB0 S031
333 F062 VG005=
ASC EU0012 4113N 00155E 110607 F072 PS025 /// 146/011 TB1 S031
333 F072 VG023=
ASC EU0012 4114N 00153E 110607 F081 PS007 /// 165/018 TB0 S031
333 F081 VG004=
ASC EU0012 4116N 00153E 110608 F089 PS000 /// 177/015 TB1 S031
333 F089 VG011=
ASC EU0012 4117N 00152E 110608 F100 MS020 /// 186/018 TB1 S031
333 F100 VG019=
ASC EU0012 4119N 00150E 110608 F106 MS040 /// 183/018 TB0 S031
333 F106 VG001=
ASC EU0012 4120N 00149E 110609 F109 MS050 /// 184/017 TB1 S031
333 F109 VG023=
ASC EU0012 4122N 00147E 110609 F117 MS065 /// 186/016 TB0 S031
333 F117 VG003=
ASC EU0012 4124N 00146E 110609 F125 MS085 /// 188/021 TB0 S031
333 F125 VG008=
ASC EU0012 4126N 00145E 110610 F133 MS102 /// 197/026 TB0 S031
333 F133 VG003=
ASC EU0012 4127N 00143E 110610 F141 MS122 /// 195/023 TB0 S031
333 F141 VG006=
ASC EU0012 4129N 00142E 110610 F149 MS132 /// 202/024 TB1 S031
333 F149 VG011=
ASC EU0012 4131N 00141E 110611 F157 MS152 /// 200/025 TB1 S031
333 F157 VG015=
UNS EU0012 4132N 00140E 110611 F163 MS165 /// 186/025 TB1 S031
333 F163 VG019=
ASC EU0012 4135N 00139E 110611 F170 MS180 /// 200/027 TB0 S031
333 F170 VG005=
ASC EU0012 4137N 00139E 110612 F178 MS192 /// 205/025 TB1 S031
333 F178 VG009=
ASC EU0012 4139N 00138E 110612 F185 MS210 /// 208/025 TB1 S031
333 F185 VG013=
ASC EU0012 4141N 00138E 110612 F191 MS225 /// 203/025 TB0 S031
333 F191 VG006=
ASC EU0012 4143N 00138E 110613 F197 MS240 /// 202/025 TB1 S031
333 F197 VG008=
ASC EU0012 4146N 00137E 110613 F203 MS257 /// 201/026 TB0 S031
333 F203 VG002=
ASC EU0012 4148N 00137E 110613 F209 MS270 /// 210/028 TB0 S031
333 F209 VG002=
ASC EU0012 4150N 00137E 110614 F215 MS277 /// 216/000 TB0 S031
333 F215 VG///=
0000373800
144
SMRS10 RUMS 110600
AAXX 11061
26894 11556 82705 10026 20010 39720 49935 53015 60022 78082 889// 333
20019 88920=
26898 11458 82604 10020 20015 39678 49941 53017 60012 78082 8695/ 333
80014 86918 91110=
26976 11561 82505 10033 21002 39806 49986 52027 69982 70282 8392/ 333
20027 91010 91113=
26997 11457 82607 10024 20008 39555 49977 53020 60002 71022 886// 333
20023 88711 91010 91013=
27595 41397 81604 11006 21014 39833 49981 56022 70272 886// 333 88707
91112=
27612 11496 82601 10024 20017 39673 49864 54001 60022 72162 887// 333
20023=
27707 11445 72605 10009 20003 39617 49905 53009 69922 78082 87900 333
20009 85918=
27719 11597 72203 10017 20007 39645 49893 54000 69952 72522 86330 333
20017=
27785 41395 81605 11005 21012 39817 49976 56028 77372 8802/ 333 88507
91011 91111=
27817 11561 82504 10020 20007 39675 49919 53005 60022 72582 883// 333
20020 41997=
27848 41445 82202 10006 20001 39745 49918 57004 71072 886// 333
88712=
27857 41496 82402 10005 20003 39760 49921 57009 77176 8802/ 333 20003
88510=
27906 11497 82306 10021 20013 39694 49932 53005 60022 78082 889// 333
20012=
27928 41496 82303 10021 20013 39731 49936 57005 75152 886//=
27930 41460 82206 10020 20004 39717 49932 57008 70282 886// 333
91110=
27935 41595 82103 10008 21000 39738 49931 57004 71077 885// 333
88630=
27947 41397 82305 10013 20005 39774 49931 57006 72387 886// 333
88708=
27957 41396 82202 10000 21003 39730 49938 57009 77177 8872/ 333
21002=
27962 41396 81904 10007 20001 39729 49939 57024 77176 8872/ 333 88508
91112=
27983 41396 81605 11001 21007 39869 49997 57029 77175 886// 333 88708
91010 91112 91112 93400=
27995 42398 81606 10005 21006 39966 40027 58026 886// 333 21010 88707
91012 91112=
28506 42997 81203 11028 21035 39920 40035 56017 8807/=
28704 41497 81614 11007 21013 39922 40018 58020 73632 8802/ 333 88514
91018 91118=
28711 41295 81805 11036 21041 39681 40060 57006 77172 886// 333
88704=
34003 11497 82604 10020 20012 39643 49946 57008 60032 75152 886// 333
20002 91011 91113=
34009 11596 82505 10022 20009 39661 49962 53004 60042 78082 889// 333
20001 91011 91113=
34013 12598 82504 10025 20009 39721 49939 57002 60022 885// 333 20012
41998=
34047 41396 82505 10011 20003 39776 49957 57004 71076 886// 333 88708
91110=
34109 11396 82604 10028 20012 39750 49983 53003 60042 76165 8872/ 333
20006 88707 91111=
34110 11497 82707 10025 20009 39705 49980 53001 60042 76122 8872/ 333
20012 88710 91011 91112=
34123 41497 82202 10027 20011 39766 49946 57009 70262 885//=
34139 41456 82305 10020 20015 39740 49976 53011 71062 885// 333 88612
91110=
34146 41496 82602 10021 20011 39837 49967 56010 76166 8872/ 333
88712=
34152 41397 82404 10016 20009 39761 49951 56010 76162 8872/ 333 86707
91110=
34163 41597 81907 10019 20013 39724 49971 56031 76368 8802/ 333 88520
91010 91110=
34171 41/03 91906 10010 20010 39787 49982 57031 76974 333 89/02 91110
96045=
34186 41296 81811 10007 20002 39891 40028 57024 76164 8802/ 333 88504
91015 91115 93401=
34202 11497 82708 10027 20017 39728 40002 53001 60032 76165 8872/ 333
20011 91012 91113=
34231 41598 82503 10035 20017 39837 49977 53007 70282 889// 333
88922=
34238 41497 82203 10021 20010 39777 49967 53003 70262 8672/=
34247 41397 82604 10030 20020 39879 49992 53010 70262 885// 333
86708=
34336 41470 82304 10036 20034 39902 40004 53021 70282 8532/ 333
91111=
34391 41496 81807 10011 21002 30033 40060 57014 76162 887// 333 88516
91010 91110=
35011 41496 82004 11012 21022 39939 40096 50002 77572 8802/ 333 21013
88516=
35121 41396 82304 11011 21022 39975 40123 53012 75652 886// 333 88709
93401=
0000003800
145
SMVE12 RUHB 110600
NIL
0000003800
146
SMVD12 RUHB 110600
NIL
0000009200
147
SAIN90 VECC 110620
METAR VECC 110620Z 04004KT 2500 HZ NSC 24/13 Q1016 NOSIG=
0000011800
148
UGIN90 VEAT 110600
PPBB 61061 42724
90012 00000 32502 32003 9037/ 29505 20510 91258 24009
24511 25504=
0000252400
149
SMRS13 RUMS 110600
AAXX 11061
22271 42998 30905 11251 21277 30157 40164 56003 80001=
22292 NIL=
22365 NIL=
22446 NIL=
22520 11494 80512 11063 21079 30008 40017 52002 69992 77373 8802/ 333
48010 88511 91019 91120=
22541 41496 80611 11126 21153 30007 40013 56003 77073 8802/ 333 91014
91116=
22550 41464 80405 11169 21211 39992 40003 57007 78583 889// 333 88917
91111=
22551 41496 80609 11167 21187 30008 40013 57007 73873 886// 333 91012
91113=
22559 41445 80705 11162 21192 39981 49999 56007 77173 8872/ 333 88710
91111=
22573 41425 80504 11184 21217 39966 40062 57006 77177 8802/ 333 88512
91110=
22583 41358 80802 11193 21213 39990 40078 57009 77177 8872/ 333
88709=
22656 41995 80307 11156 21173 39941 49963 57007 77373 8807/ 333 21163
91010 91111=
22648 41495 80303 11154 21169 39904 49953 54001 77373 8872/ 333 21154
88710=
22686 41996 80903 11171 21205 39931 40037 56011 77173 8807/=
22762 41395 80502 11126 21136 39898 49938 57011 77377 8872/ 333 21131
86707=
22768 41295 80705 11088 21099 39850 49907 57013 77373 8872/ 333 86705
91111 92984=
22778 41295 80804 11093 21101 39865 49934 57017 77372 8872/ 333
86705=
22798 41324 80503 11142 21154 39890 40008 57013 77377 8802/ 333
88609=
22845 41396 80204 11079 21083 39717 49876 52006 77177 8872/ 333 21079
86707=
22854 41359 80604 11076 21094 39590 49881 57003 77172 8872/ 333 21079
87706=
22887 41316 80804 11046 21062 39860 49930 57019 77577 8872/ 333
86707=
22981 41396 81204 10001 21002 39787 49908 57020 77372 8872/ 333
86707=
23205 NIL=
23219 NIL=
23226 41912 00000 11404 21432 39965 40219 52003 70540=
23305 42999 33602 11370 21404 30160 40189 57004 82031=
23418 41959 63402 11366 21394 30078 40163 57007 71011 80001 93402=
23518 82998 83602 11338 21374 30040 40145 58005 82041=
23606 42660 80404 11250 21274 39931 40123 57007 885// 333 88633=
23701 41330 80604 11185 21203 39923 40061 58011 77373 8802/ 333
88508=
23711 42998 83602 11262 21287 39926 40116 57010 885// 333 88633=
23804 41394 80802 11116 21129 39864 40014 57014 77372 887// 333
86607=
27037 41393 81502 10003 20002 39677 49835 54000 75175 886// 333
88707=
27199 41420 81306 11017 21022 39771 49967 57017 77373 8872/ 333 21017
91010 91111=
27271 41494 81405 11000 21000 39731 49884 57014 77173 8872/ 333 21000
91110=
27459 41340 81702 10001 21002 39690 49883 57009 77172 8872/ 333 20001
91004 91107 93603=
27730 42496 82003 10017 20012 39702 49892 54001 885//=
0000020300
150
SMVS40 VNNN 110600
AAXX 11061
48866 32598 60907 10262 20163 39281 40148 57020 82248 333 59001 82895 83299=
48875 32570 60905 10260 20153 39609 40139 58027 868// 333 58003 82895 84696=
0000012400
151
SMVS40 VNNN 110600
AAXX 11061
48838 32498 80502 10181 20153 30206 40213 57027 888// 333 58000 82894 88696=
0000537800
152
SMRS12 RUMS 110600
AAXX 11061
22028 12580 21805 11202 21208 30137 40179 53004 60002 82500 333 21202
48025 91006 93510=
22106 12999 00000 11348 21389 30107 40198 53003 60002 333 21358 47047
93503=
22127 11496 62801 11278 21310 39954 40181 54000 60002 71011 86600 333
47053 86711 91001=
22324 11684 30205 11165 21193 30058 40111 52002 60002 73631 82501 333
21165 47048 91009 91113=
22413 11463 80406 11025 21160 39967 40072 52002 60022 77173 8572/ 333
21160 48045 91011 91114=
22525 11495 80707 11082 21094 39994 40007 54001 60022 77373 8802/ 333
21095 48016 91013 91114=
22529 11996 80603 11120 21126 39986 49993 56004 69992 77173 8802/ 333
21131 48014=
22621 11498 80503 11120 21155 39841 49987 58002 69952 72683 889// 333
21137 47017 86910=
22717 11256 80105 11113 21133 39745 49946 52011 60012 77173 8872/ 333
21114 47007 86706 91111=
22727 11961 83604 11125 21160 39892 49942 52012 60052 77173 8807/ 333
21126 48003 91112 92980=
22805 115// 80105 11078 21100 39925 49945 52024 60032 73683 885// 333
21078 47004 91010 91111 93703=
22831 11396 80203 11116 21151 39835 49896 53009 60032 77172 8872/ 333
21117 47014 88709=
22892 12597 70104 11054 21083 39946 49962 52021 69942 87608 333 21056
91110=
22912 11963 80205 11106 21126 39896 49912 52023 60022 77173 8807/ 333
21109 47004 91112=
22913 11496 80104 11088 21117 39872 49902 52024 60032 77172 8872/ 333
21088 47003 86711 91110=
22917 21368 80104 11066 21078 39891 49902 52033 60062 77173 8872/ 333
21067 48006 88709 91113 92981 93710=
22925 11469 80105 11074 21104 39743 49884 52020 60022 77172 8872/ 333
21074 47005 86715 91110=
26069 11599 73205 11057 21075 39815 49928 52029 60022 87500 333 21055
43997 87621 91110=
26872 NIL=
26078 NIL=
26080 11484 83305 11041 21060 39864 49897 52040 60022 72272 885// 333
21041 47000 88618 91010 91113=
26099 11496 80000 10000 20000 39632 49845 52018 60022 77172 8572/ 333
21001 43008=
26179 11496 83307 11026 21052 39873 49905 52046 60022 77175 8802/ 333
21026 47997 88517 91113=
26268 11596 82905 11013 21030 39852 49933 52036 60032 77172 8802/ 333
21013 47001 91011 91111=
26275 11497 83307 11013 21036 39881 49911 52044 60022 77176 8872/ 333
21015 42997 88714 91011 91114=
26285 11395 83206 11020 21029 39806 49884 52040 60052 78683 889// 333
21020 47002 87707 91010 91113 92982=
26291 11396 83004 10009 20004 39742 49850 53021 60032 78582 883// 333
20009 86708=
26378 11496 82804 11001 21005 39825 49913 52039 60052 78582 889// 333
21001 88915 91110=
26381 11496 82905 11009 21025 39816 49891 53048 60022 78583 883// 333
21009 43997 88916 91011 91111 92982=
26389 11396 82904 11005 21005 39617 49878 53033 60012 71022 886// 333
21005 91111=
26393 11597 82602 10011 20008 39642 49846 52015 60012 78082 889// 333
20011 42997=
26477 11596 82703 10008 21009 39801 49928 52037 69972 78582 889// 333
20007=
26479 11427 83004 10001 20001 39681 49910 53042 60052 77376 8872/ 333
20001 43997 88710 91113=
26499 11496 82502 10005 20003 39633 49858 53013 60012 77187 8872/ 333
20005 41998=
26578 11456 82707 10006 21001 39733 49935 52041 69972 78582 889// 333
20005 88915 91012 91113=
26585 11496 83105 10004 21002 39627 49898 53031 60042 77176 8872/ 333
20004 41001 91010 91113=
26695 11496 82605 10012 20007 39590 49888 52016 60022 76162 8672/ 333
20009 86710=
26784 11496 82806 10009 20003 39692 49940 53029 60032 78582 8695/ 333
20008 84914 91111=
26795 11458 82503 10006 20004 39624 49913 53019 60022 76876 8872/ 333
20005 88511=
26882 11462 82909 10014 20007 39668 49941 53025 60022 76162 8677/ 333
20012 86712 91015 91115=
27108 11396 82602 10015 20014 39656 49833 52010 60022 71082 886// 333
20003 43001=
27164 41956 80000 11001 21001 39682 49867 57012 77172 8802/ 333
21001=
27176 41440 81504 11005 21005 39709 49904 57017 77172 885// 333 21005
91111=
27215 11596 80000 10012 20009 39630 49832 52005 60042 78082 889// 333
20001 42002 88920=
27223 41310 81902 10012 20012 39691 49836 54000 75252 886// 333
88709=
27316 11557 72302 10016 20015 39671 49839 52004 60022 71062 87500 333
20007 41998=
27321 41558 82104 10017 21014 39693 49841 53003 60030 76162 885//=
27347 41220 82302 10008 20007 39707 49859 57002 71087 886// 333
88705=
27417 11597 82101 10015 20007 39651 49852 52005 60012 70262 885// 333
20015=
27507 11356 82504 10014 20008 39639 49873 52011 60022 76162 8872/ 333
20014 42997 88707=
27511 11597 82402 10016 20011 39664 49856 57009 60012 72582 883// 333
20016 42997=
27523 12597 82002 10019 20012 39700 49862 55000 60012 885// 333 20016
41998=
27539 41496 81902 10014 20009 39712 49877 57002 71072 886//=
27606 11396 82203 10017 20012 39641 49880 53001 69992 75165 886// 333
20017 88708=
27611 11497 82203 10016 20012 39637 49867 53002 60012 78082 889// 333
20016 42998=
27627 12497 72403 10017 20004 39616 49883 54000 69952 87900 333 20016
42001=
27703 11397 82403 10014 20009 49889 53003 69962 76162 8872/ 333 20014
86707=
27745 41298 82002 10004 20004 39764 49905 55003 72272 8802/ 333
88506=
27821 11440 82302 10014 20011 39618 49896 56002 60032 76122 8672/ 333
20005 42002=
27823 42498 82106 10014 20010 39651 49904 57004 8471/=
27921 12497 82304 10018 20012 39657 49922 57005 60032 886// 333 20005
43002 88713=
00000000