0000140200
033
SMSD10 OEJD 110600
AAXX 11064
40356 41456 83214 10030 20030 39223 48509 71000 8372/ 333 20020 58052 83720 85630 88460 555 04410
50228=
40357 42660 63111 10063 20060 39556 40211 86500 333 20055 58058 86640=
40360 42560 32704 10070 20040 39635 40243 83500 333 20040 58065 83630=
40361 42460 83114 10072 20020 39435 40223 88600 333 20060 58069 84715
85640=
40362 NIL=
40373 42660 33305 10098 20080 39773 40201 83500 333 20073 58004 83635=
40375 41656 40000 10060 20020 39342 40244 70500 84200 333 20036 58068 84840=
40377 42960 03314 10112 20110 39720 40212 333 20087 59018=
40394 42660 63316 10074 20040 39072 48538 86500 333 20040 58060 86645 555 04410 50221=
40400 42560 10106 10158 20090 30186 40214 81200 333 20125 58051 81830=
40401 41959 02306 10112 20030 39516 40230 70600 333 20085 58063=
40405 42960 03412 10110 20080 39457 40205 333 20090 58045=
40416 42660 72505 10155 20120 30173 40193 84550 333 20135 59014 84640 87358=
40417 42660 61813 10158 20110 30195 40210 83570 333 20145 59011 83640 85359=
40420 42760 81707 10140 20120 39992 40203 83520 333 20122 59012 83650 86460=
40430 41957 00206 10130 20000 39494 40227 70500 333 20105 58057=
40435 42960 03310 10100 20040 39150 40187 333 20080 58032=
40437 41958 31707 10123 20100 39490 40207 71022 83040 333 20103 58004 83359=
40439 42960 00000 10153 20090 30185 40195 333 20130 58042=
0000090800
034
SMSD12 OEJD 110600
AAXX 11064
41024 42660 20310 10210 20110 30172 40192 82500 333 20150 58042 82640=
41030 42960 03302 10184 20110 39903 40181 333 20170 58036=
41036 42460 79902 10094 20070 38595 48543 87700 333 20073 58034 81715 86630 555 04410 50187=
41055 41550 33306 10105 20100 38388 48537 71000 83400 333 20100 58024 83630 555 04410 50192=
41061 NIL=
41084 42560 32806 10134 20100 38891 48540 82430 333 20109 58020 82630 83360 555 04410 50179=
41112 42460 62408 10121 20120 37966 48539 86700 333 20107 58002 83712 83615 555 04410 50199=
41114 42560 52412 10134 20080 37996 48533 85400 333 20106 58003 85620 555 04410 50184=
41128 42560 62404 10166 20020 38825 48529 83450 333 20110 59012 83630 85359 555 04410 50157=
41136 42660 32408 10171 20040 39347 40165 82430 333 20120 59016 82640=
41140 42560 51910 10275 20230 30152 40163 82430 333 20239 58008 82630 84360=
0000216000
035
SMKW10 OKBK 110600
AAXX 11064
40550 37/47 /2606 10108 20095 40196 51022 71011
  333 55300 00067 10000 20131 30013 41255 51304 60144 55407 40118
90069 90400 91017 91117 91205 91301=
40551 47/58 /2310 10108 20088 40200 51022 71086
  333 90069 90400 91011 91117 91215 91309=
40552 47/48 /2712 10105 20094 40193 51019 72386
  333 55301 90069 90400 91015 91115 91211 91305=
40553 37/28 /2710 10111 20103 40192 5//// 76186
  333 55300 90007 90401 91013 91115 91211 91303=
40568 46/// /2210 10129 20120 40205 53023
  333 90400 91013 91113 91209 91305=
40569 NIL=
40570 47/62 /3409 10096 20070 40204 52024 70086
  333 55302 90069 90401 91011 91115 91213 91307=
40571 NIL=
40572 NIL=
40573 47/58 /3209 10103 20073 40208 53029 72386
  333 90069 90400 91011 91115 91211 91307=
40580 46/// /1403 10129 20111 40198 51022
  333 553// 00195 10000 20271 30022 41293 51346 60293 55407 40250
90400 91005 91113 91205 91303=
40581 46/// /1803 10132 20119 40202 51020
  333 90400 91005 91115 91207 91305=
40582 41630 80000 10121 20107 40197 51024 76062 82570
  333 55300 00119 10000 20200 30035 41284 51328 60235 55407 40165
82400 88458 90400 91009 91113 91209 91305=
40583 NIL=
40585 46/// /2207 10135 20108 222// 1//// 3//// 4//// 70///
  333 90400 91015 91127 91221 91315=
40586 46/// /2506 10118 20109 40198 51020
  333 90400 91009 91109 91207 91303=
40587 46/// /2606 10117 20106 40199 51024
  333 553// 00168 10000 20272 30041 41261 51321 60313 55407 40232
90400 91009 91115 91211 91303=
40588 47/46 /2311 10136 20119 40199 53024 78186
  333 55300 90007 90401 91013 91117 91211 91307=
40589 NIL=
40590 47/28 /2406 10106 20096 40201 51025 72361
  333 90069 90401 91007 91119 91215 91309=
40591 NIL=
40592 37/48 /2006 10126 20110 40197 53019 78186
  333 55300 00217 10000 20337 30053 41275 51346 60390 55407 40284
90000 90401 91011 91115 91209 91305=
40593 46/// /2705 10133 20120
  333 90401 91009 91119 91213 91311=
40594 46/// /2013 10139 20127 40201 53020
  333 90400 91017 91117 91213 91307=
40596 46/// /1922 10165 20138
  333 90400 91029 91131 91225 91323=
0000041200
036
SMVS01 VNNN 110600
AAXX 11061
48877 32570 70506 10263 20210 30148 40153 58026 878// 333 59005 81895 87697=
48920 12598 63604 10280 20251 30116 40119 58024 60083 868// 222// 00290 2//01 333 58005 82895 8469
7=
48870 01470 73603 10250 20202 30158 40165 58019 69933 70262 878// 333 59001 69901 83894 87696=
48887 32572 70906 10275 20220 30115 40121 58030 84808 333 58003 81895 83697 85299=
0000013600
037
ULSP01 LEMM 110000 RRB
TTCC 61005 08023 70844 55583 28006 50060 52584 28009 30391 /////
88999 77999 31313 48008 82352=
0000029000
038
UESP01 LEMM 110000 RRB
TTDD 6100/ 08023 11801 56183 22347 50785 21212 11970 26019 22900
20011 33853 23518 44824 20515 55767 23514 66729 29011 77688 24011
88655 28017 99621 26512 11581 30511 22486 28510 33438 00000 44383
33510 55358 32514 66347 34016 31313 48008 82352=
0000017600
039
SMVX02 DEMS 110618
BBXX AUYB 11061 99126 10740 46/// /3308 10277 29069 49117 90558 222//=
BBXX VTJR 11061 99162 10827 46/// /1309 10260 29062 49148 90603 22231=
0000003900
040
SMVA01 ESWI 110600
NIL=
0000003800
041
SMMW21 FWCL 110600
NIL
0000013200
042
SNDL23 EDZW 110500 CCA
AAXX 11051
10609 41/01 91201 11003 21003 39844 40185 55007 74944
  333 55300 20000 30000=
0000161600
043
SMIR02 OIII 110600
AAXX 11061
40703 11510 80000 11104 21112 38984 40349 58004 69901 77772 886//
333 3/117 47003 79999 88720 90768 93197 555 11103 29094=
40712 11620 62602 11088 21134 38716 40321 52010 60001 70522 83506
333 3/114 70000 83635 86266 555 11096 29070=
40729 11660 71204 11034 21056 38350 40280 51003 69901 72222 83478
333 3/112 43006 79999 83635 86359 90768 93100 555 11040 29084=
40736 12960 61502 10084 20037 30209 40183 58006 60001 83036 333
30002 50181 70000 83360 85268 555 10064 29072=
40739 12662 60000 11006 21076 38721 40267 53007 60001 83570 333
30107 70000 83635 85360 555 11028 29059=
40743 12965 30804 10028 21085 39117 40271 53005 60001 80002 333 
      30106 5//// 70000 84070 555 11009 29043= 
40762 12665 61203 10021 21056 38596 40277 53008 60001 81430 333
      30109 70000 81640 86359 555 11007 29062=
40768 11620 80000 11078 21098 38278 40341 53006 60021 71072 8547/
333 3/120 47018 70033 85635 86359 90768 93105 555 11084 29084=
40769 11510 80000 11054 21061 38322 40315 52018 60051 77172 82018
333 3/117 47015 5//// 70056 83720 88557 90768 93107 555 11054 
29095=
40785 11556 80000 10018 20003 39125 40274 53011 69911 72222 8452/
333 31104 5///1 70001 84630 88459 555 10012 29090=
40809 12662 80804 10036 21124 38540 40266 50002 60001 81537 333
30108 70000 81640 84359 88269 555 11014 29030=
40821 11557 71202 10028 21026 38822 40249 53004 60001 70521 83320
      333 30103 70000 82925 81635 87460 555 10008 29068=
40831 11625 81702 10140 20133 30186 40194 53011 69981 71062 8432/
333 32010 50421 70022 82935 82640 88459 555 10136 29095=

0000011100
044
UANT01 CWAO 110615
ARP GLJ98RM 6321N04835W 0615 F430 MS56 010/12 KT
OEIRM QXS UAK 110615 F71A
0000012200
045
SSVX07 KARS 110615
ZZYY 48536 11014 0610/ 175232 148560 6112/
11119 11235
444 20120 11014 0604/ 504//=
0000011000
046
UANT01 CWAO 110616
ARP UAE206 4415N04901W 0615 F350 MS62 309/38 KT
A6EGP DDL XXW 110616 F23A
0000011000
047
UANT01 CWAO 110616
ARP VIR10K 4835N05148W 0616 F390 MS64 296/56 KT
GVKSS DDL YYT 110616 J86A
0000184800
048
UDIO01 AMMC 110600
AMDAR 1106
LVR AU0078 4028S 10010E 110516 F320 MS453 310/123 TB0 S031
  333 F320 VG016=
LVR AU0078 4034S 09909E 110523 F320 MS456 313/125 TB0 S031
  333 F320 VG006=
LVR AU0078 4039S 09808E 110530 F320 MS459 315/119 TB0 S031
  333 F320 VG003=
LVR AU0078 4045S 09705E 110537 F320 MS478 317/100 TB0 S031
  333 F320 VG002=
LVR AU0078 4049S 09601E 110544 F340 MS466 316/098 TB0 S031
  333 F340 VG009=
LVR SG0013 0233S 10450E 110452 F360 MS466 057/031 TB0 S031
  333 F360 VG001=
LVR SG0013 0141S 10435E 110459 F360 MS467 086/035 TB0 S031
  333 F360 VG000=
LVR SG0013 0050S 10419E 110506 F358 MS469 083/021 TB0 S031
  333 F358 VG001=
LVR SG0013 0001S 10408E 110513 F209 MS102 231/015 TB0 S031
  333 F/// VG000=
LVR SG0013 0828S 10833E 110356 F360 MS465 087/016 TB0 S031
  333 F360 VG000=
LVR SG0013 0748S 10758E 110403 F360 MS467 076/011 TB0 S031
  333 F360 VG001=
LVR SG0013 0708S 10722E 110410 F360 MS470 072/010 TB0 S031
  333 F360 VG001=
LVR SG0013 0628S 10647E 110417 F360 MS467 064/020 TB0 S031
  333 F360 VG001=
LVR SG0013 0543S 10617E 110424 F360 MS470 070/021 TB0 S031
  333 F360 VG001=
LVR SG0013 0457S 10550E 110431 F360 MS460 042/016 TB0 S031
  333 F360 VG000=
LVR SG0013 0412S 10524E 110438 F360 MS459 033/023 TB0 S031
  333 F360 VG000=
LVR SG0013 0323S 10506E 110445 F360 MS461 037/034 TB0 S031
  333 F360 VG001=
LVR AU0078 3943S 10529E 110441 F320 MS400 314/089 TB0 S031
  333 F320 VG013=
LVR AU0078 3955S 10423E 110448 F320 MS402 319/098 TB0 S031
  333 F320 VG010=
LVR AU0078 4005S 10317E 110455 F320 MS427 312/105 TB0 S031
  333 F320 VG006=
LVR AU0078 4013S 10214E 110502 F320 MS437 317/118 TB0 S031
  333 F320 VG006=
LVR AU0078 4021S 10112E 110509 F320 MS450 319/127 TB0 S031
  333 F320 VG006=
0000806900
0364=
0000215900
049
SZNZ01 NZKL 110618
CREX++
T000103 A001 D01021 D06025++
-3683144 17478654 AUCT  2014 01 11 06 10 //// 11 07 00 01
05213 3111 05206 3113 05198 3113 05190 3114 05183 3114 05176 3116+
-4402404 -17636748 CHIT  2014 01 11 06 10 //// 11 07 00 01
04398 1960 04416 1981 04423 1989 04423 1992 04420 1990 04407 1980+
-4089929 17623168 CPIT  2014 01 11 06 10 //// 11 07 00 01
03428 2283 03411 2270 03396 2259 03398 2265 03397 2268 03397 2272+
-3618905 17548887 GBIT  2014 01 11 06 10 //// 11 07 00 01
05811 0033 05800 0028 05790 0024 05783 0022 05783 0028 05780 0030+
-3867541 17802288 GIST  2014 01 11 06 10 //// 11 07 00 01
03682 2728 03663 2714 03648 2703 03641 2701 03627 2692 03644 2714+
-4241288 17370277 KAIT  2014 01 11 06 10 //// 11 07 00 01
02726 2177 02733 2188 02718 2175 02717 2177 02710 2174 02699 2166+
-3755040 17815904 LOTT  2014 01 11 06 10 //// 11 07 00 01
03338 0210 03335 0212 03339 0222 03325 0213 03318 0211 03320 0218+
-3704657 17451175 MNKT  2014 01 11 06 10 //// 11 07 00 01
03445 -0143 03453 -0137 03458 -0133 03454 -0138 03470 -0123 03442 -0152+
-3947566 17692007 NAPT  2014 01 11 06 10 //// 11 07 00 01
02632 2065 02602 2040 02621 2064 02592 2039 02612 2064 02606 2063+
-3441483 17304870 NCPT  2014 01 11 06 10 //// 11 07 00 01
01582 -3064 01657 -2984 01729 -2906 01708 -2922 01474 -3152 01405 -3215+
-4581435 17062939 OTAT  2014 01 11 06 10 //// 11 07 00 01
03773 3429 03772 3429 03772 3429 03770 3428 03769 3428 03769 3428+
-2928002 -17789440 RBCT  2014 01 11 06 10 //// 11 07 00 01
06025 2030 06037 2046 06039 2052 06026 2043 06033 2054 06018 2043+
-2925114 -17790384 RFRT  2014 01 11 06 10 //// 11 07 00 01
02969 0240 02948 0223 02949 0227 02934 0217 02943 0230 02939 0231+
-4357010 17277383 SUMT  2014 01 11 06 10 //// 11 07 00 01
01195 1824 01199 1832 01207 1844 01194 1834 01194 1837 01217 1863+
-3764109 17618118 TAUT  2014 01 11 06 10 //// 11 07 00 01
05122 4004 05117 4004 05111 4005 05104 4002 05099 4004 05092 4003+
-4128448 17477985 WLGT  2014 01 11 06 10 //// 11 07 00 01
02763 2109 02756 2105 02748 2099 02744 2097 02742 2099 02737 2096++
7777
0000040700
050
SMGG40 UGGG 110600
AAXX 11061
37279 32998 70000 10009 21037 30042 40190 52020 80007
  555 21015=
37308 32999 00000 11058 21069 39561 40245 58052
  333 21092=
37531 32999 20000 11073 21082 39500 40267 57002 80050
  333 21096=
37553 32999 10000 10050 21061 39523 40173 57007 80030
  333 21028=
37651 16/// ///00 11003 21052 3//// 4//// 5//// 60002
  333 21053=
37492 NIL=
0000011100
051
UANT99 KDDL 110615
ARP DAL615 5804N04210W 0614 F360 MS59 240/27 KT
N185DN QXT AOW 110615 F07A
0000013700
052
UANT99 KDDL 110615
ARP UAL990 5706N02606W 0615 F350 5700N02000W 0638 PIKIL MS59 230/59
 KT
N675UA DDL XXW 110615 F23A
00000000