0000011000
073
UANT01 CWAO 110631
ARP ACA846 5226N03326W 0631 F360 MS56 214/41 KT
CGFAJ DDL XXW 110631 J95A
0000011000
074
UANT01 CWAO 110631
ARP BAW114 4915N03421W 0631 F350 MS51 210/37 KT
GSTBC QXT AOW 110631 F19A
0000011000
075
UANT01 CWAO 110631
ARP BAW188 5133N03233W 0631 F400 MS53 338/46 KT
GZBJA QXT AOW 110631 L16A
0000011000
076
UANT01 CWAO 110631
ARP DLH405 4827N04808W 0631 F370 MS67 316/54 KT
DABVN QXS YYT 110631 F85A
0000010900
077
UANT01 CWAO 110631
ARP BAW98 5210N04833W 0630 F390 MS63 292/52 KT
GZBJC QXT AOW 110631 L56A
0000013700
078
SIVF10 EHDB 110300 RRA
BBXX
PEBT 11033 99455 10309 41996 03318 10095 20066 40177 58020 7////
80000 22213 20503 80080=
0000121500
079
SIMG20 FMMI 110300
AAXX 11034
67002 42580 20805 10250 20226 30093 40128 81800
  333 58012 81820 92408=
67009 32580 70000 10246 20214 39989 40108 52005 8693/
  333 81820 81920 86640 84360 94976=
67012 22582 61804 10240 20234 30103 40114 53009 86900
  333 60012 83820 81920 84640 94951 95831=
67025 NIL=

67027 32582 52602 10250 20238 30099 40120 53009 81232
  333 81820 85073
  555 81360=
67045 NIL=

67072 NIL=

67073 NIL=

67083 31215 70000 10174 20173 38763 48537 53015 74042 82808
  333 82705 87273=
67095 22480 50000 10250 20246 30128 40134 53020 83802
  333 69932 83817 555 81633 82073=
67113 NIL=

67117 NIL=

67137 31265 50000 10197 20191 38907 48513 53004 71022 82402
  333 81707 83073 555 82617=
67143 32581 50000 10250 20244 30122 40129 53012 85800
  333 83820 83633 92438=
67152 23480 5//// 10185 20177 39221 48522 52011 83270
  333 69952 83817 84360=
67157 32580 5//// 10/// 20/// 30146 40153 51004 85800
  333 82820 85633=
67161 32582 40000 10/// 20/// 30122 40131 53003 82332
  333 81820 81920 94996 95816
  555 81640 82360 81073=
67197 22480 30000 10246 20234 30128 40138 53015 81202
  333 69952 81816 83073=
0000066100
080
UDAF01 FAPR 110633
AMDAR 1106
DES AFZA23 2618S 02807E 110629 F077 PS167 348/003 TB0 S031 333 F/// VG015=
DES AFZA23 2616S 02809E 110630 F073 PS172 010/006 TB0 S031 333 F/// VG015=
DES AFZA23 2615S 02809E 110630 F070 PS166 351/013 TB0 S031 333 F/// VG015=
DES AFZA23 2614S 02809E 110631 F067 PS162 004/016 TB0 S031 333 F/// VG015=
DES AFZA23 2613S 02810E 110631 F064 PS170 350/013 TB0 S031 333 F/// VG015=
DES AFZA23 2612S 02810E 110631 F060 PS179 001/012 TB1 S031 333 F/// VG025=
DES AFZA23 2611S 02810E 110632 F057 PS190 349/010 TB1 S031 333 F/// VG025=
DES AFZA23 2610S 02811E 110632 F054 PS202 342/009 TB1 S031 333 F/// VG025=
0000066100
081
UDAF01 FAPR 110631
AMDAR 1106
ASC AFZA45 3400S 02534E 110629 F021 PS127 244/010 TB1 S031 333 F/// VG031=
ASC AFZA45 3400S 02534E 110629 F024 PS130 228/010 TB1 S031 333 F/// VG022=
ASC AFZA45 3401S 02533E 110629 F027 PS136 229/005 TB1 S031 333 F/// VG021=
ASC AFZA45 3401S 02533E 110630 F030 PS140 255/007 TB1 S031 333 F/// VG020=
UNS AFZA45 3400S 02530E 110630 F043 PS105 349/002 TB0 S031 333 F/// VG017=
ASC AFZA45 3358S 02530E 110631 F059 PS074 252/015 TB0 S031 333 F/// VG015=
ASC AFZA45 3358S 02531E 110631 F066 PS060 248/018 TB0 S031 333 F/// VG015=
ASC AFZA45 3356S 02531E 110631 F078 PS065 248/012 TB0 S031 333 F/// VG014=
0000066100
082
UDAF01 FAPR 110631
AMDAR 1106
LVR AFZA41 3112S 02239E 110541 F390 MS572 273/056 TB0 S031 333 F/// VG010=
LVR AFZA41 3034S 02326E 110549 F391 MS526 280/056 TB0 S031 333 F/// VG010=
LVR AFZA41 2956S 02411E 110556 F389 MS507 289/090 TB0 S031 333 F/// VG010=
LVR AFZA41 2918S 02456E 110603 F370 MS472 288/088 TB0 S031 333 F/// VG010=
LVR AFZA41 2840S 02540E 110610 F370 MS472 287/083 TB0 S031 333 F/// VG010=
LVR AFZA41 2802S 02623E 110617 F370 MS477 287/075 TB0 S031 333 F/// VG010=
LVR AFZA41 2724S 02705E 110624 F307 MS321 289/052 TB0 S031 333 F/// VG009=
DES AFZA41 2650S 02738E 110631 F183 MS069 259/009 TB0 S031 333 F/// VG009=
0000027600
083
UDAF01 FAPR 110633
AMDAR 1106
DES AFZA23 2629S 02757E 110626 F098 PS104 296/004 TB0 S031 333 F/// VG013=
DES AFZA23 2621S 02804E 110628 F080 PS156 338/003 TB0 S031 333 F/// VG014=
DES AFZA23 2613S 02810E 110631 F064 PS170 350/013 TB0 S031 333 F/// VG015=
0000147600
084
SMKR01 KWBC 110600
AAXX 11061
47016 42970 00000 11059 21138 39377 40284 57043=
47046 42969 02303 10017 21092 30235 40258 57004=
47065 42970 00000 10018 21117 30241 40307 58035=
47067 42965 82503 10010 21135 30203 40336 57031 80001=
47003 42980 03204 10003 21174 30234 40238 57025=
47005 42980 22303 11121 21183 38609 58018 80002=
47008 42970 01402 11012 21116 30186 40242 54000=
47014 42950 00000 11076 21148 39839 40260 58037=
47020 42965 00000 11090 21145 39925 40325 57025=
47022 42975 03206 11080 21167 38830 57011=
47025 42978 02303 10004 21139 30222 40252 57004=
47028 42967 03201 11002 21108 30187 40284 57030=
47031 42970 03204 11090 21219 38948 57018=
47035 42970 80000 11003 21101 30263 40273 57032 8803/=
47037 42967 01401 11014 21115 30173 40299 58027=
47039 42960 00000 11027 21116 30114 40312 57025=
47041 42970 00000 10042 21093 30223 40251 57007=
47050 42765 60000 11014 21126 30256 40291 57021 86020=
47052 42965 52704 11013 21135 39935 40284 57019 80002=
47055 42970 22706 10033 21150 30229 40275 57021 80001=
47058 42960 52302 10010 21087 30257 40305 57020 80002=
47060 42960 80903 10002 21026 30240 40300 58027 80002=
47061 42980 03202 10043 21120 30226 40272 57014=
47068 42960 81401 10026 21072 30268 40304 57011 80007=
47069 42665 80000 11003 21110 30210 40313 58004 885//=
47070 42770 82704 10011 21016 30226 40316 57019 88030=
47075 42980 52303 11011 21109 39998 40443 57009 80001=
0000123000
085
SMCN04 KWBC 110600
AAXX 11064
71010 15/// /2611 11063 21092 60001 333 11012 21111 70000 555
32418 40050=
71214 15/// /2608 11093 21112 60001 333 11050 21118 70000 555
32717 40030=
71223 15/// /2816 11063 21086 60001 333 11041 21118 70000 555
32721 40031=
71227 45/// /2208 11113 21129 6///1 333 11013 21138 7////=
71258 15/// /1710 11080 21084 60001 333 10003 21106 70000=
71274 15/// /2602 11112 21119 60001 333 11012 21152 70000 555
33119 40230=
71278 15/// /2709 11084 21108 60001 333 11042 21177 70000=
71393 15/// ///// 11061 21077 38797 40073 58009 60001 333 10019
21085 70000=
71536 15/// /2003 11040 21067 60001 333 10045 21050 70000 555
32729 40191=
71075 15/// /0000 11270 21303 39394 40025 58006 60001 333 11173
21280 70000=
71257 15/// /1907 11095 21101 60001 333 11021 21138 7////=
71259 15/// /1605 11132 21140 60001 333 11019 21207 70000 555
33423 40211=
71275 45/// /2102 11118 21126 6///1 333 11059 21172 7////=
71286 15/// /2506 11094 21114 60001 333 11038 21194 70000=
71287 15/// /2002 11114 21120 60001 333 11047 21117 7////=
71351 45/// /2204 11064 21095 6///1 333 11005 21145 7////=
71353 15/// /2208 11058 21072 60001 333 11012 21079 70005=
0000009800
086
SAIN90 VIBN 110630
METAR VIBN 110630Z 14008KT 1500 BR SCT020 FEW030CB 18/17 Q1016=
0000012400
087
SAIR31 OIII 110630 RRA
METAR OIKB 110628Z 19004KT 7000 -RA FEW015 FEW025CB SCT030 OVC090
13/10 Q1023 A3021=

0000011600
088
SAIR31 OIII 110630 RRB
METAR OISS 110620Z 00000KT 2500 BR FEW030CB FEW035 OVC080 03/00
Q1024 A3024=

0000010400
089
SPIN90 VERC 110630
SPECI VERC 110630Z 33007KT 0800 MIFG SCT015 OVC080 17/13 Q1018 NOSIG=
0000107500
090
SSVX01 DEMS 110635
ZZYY 23492 11014 02491 110873 072210 111// 02504 10271 40135 222// 00282 1////=
ZZYY 23491 11014 05461 111593 092603 111// 01106 10/// 40137 222// 00282 1////=
ZZYY 23497 11014 05471 110547 072255 111// 00407 10278 40146 222// 00286 1////=
ZZYY 23098 11014 05491 114291 080206 111// 00801 10259 40168 222// 00250 11003=
ZZYY 23494 11014 05531 108524 073102 111// 00405 10284 40138 222// 00279 10502=
ZZYY 23453 11014 06001 108275 073311 111// 0//04 10285 40136 222// 00/// 10602=
ZZYY 23454 11014 06001 110327 072184 111// 00108 10284 40143 222// 00/// 1////=
ZZYY 23091 11014 06001 118151 089670 111// 00500 10260 40162 222// 00/// 107//=
ZZYY 23092 11014 06001 117846 089678 111// 01000 10256 40163 222// 00/// 1////=
ZZYY 23093 11014 06001 116499 087994 111// 0//// 10/// 40164 222// 00/// 1////=
ZZYY 23094 11014 06001 113492 084017 111// 0//// 10/// 40159 222// 00/// 10502=
ZZYY 23095 11014 06001 110517 093978 111// 00707 10277 40128 222// 00/// 1////=
ZZYY 23460 11014 06001 107009 087977 111// 00404 10273 40120 222// 00/// 10604=

0000174300
091
SMIN05 DEMS 110600
AAXX 11064
43086 32597 81804 10250 20180 39980 40179 8457/
  333 58010=
43128 31496 61603 10246 20198 39547 40152 70522 84530
  333 56390 59005 84615 85360=
43150 31596 11402 10280 20187 30094 40169 70511 81500
  333 58008 81620=
43185 31596 51404 10280 20201 30156 40159 70522 82531
  333 58006 82620 84360=
43189 32597 40000 10288 20196 30160 40169 83502
  333 58010=
43198 32996 00203 10270 20083 39316 40130
  333 58005=
43201 32497 12302 10282 20160 39412 40118 81500
  333 58000 81615=
43213 32997 39903 10280 20172 39834 40150 80008
  333 58000=
43226 32997 00902 10300 20200 30122 40152
  333 58008=
43233 32597 10703 10274 20165 39334 40131 81500
  333 58004=
43237 32997 41106 10290 20153 39757 40146 80002
  333 58003 84075=
43245 32597 30000 10286 20190 30134 40161 82401
  333 58006=
43279 32497 50702 10280 20197 30149 40161 84401
  333 58012 82618 83825=
43284 31596 23205 10290 20202 30020 40134 70242 81501
  333 58003 81620=
43295 32997 30902 10252 20146 39132 48547 80001
  333 58009 83075=
43311 32597 60505 10320 20249 40135 85401
  333 58013 85620 83075=
43314 32997 23202 10314 20230 40140 80001
  333 58005=
43321 31495 70503 10248 20178 39708 40157 70522 83540
  333 58004 83615 86358=
43329 32597 50702 10290 20214 30140 40154 83501
  333 58008=
43344 31496 50508 10280 20187 30054 40154 70511 84801
  333 58006 83616=
43346 32597 30506 10278 20215 30142 40149 82501
  333 58009 82620=
43353 31995 39903 10308 20216 40138 70500 82011
  333 56099 58005 82458=
43369 32497 50906 10304 20247 40121 84402
  333 58002 83615=
43371 32597 30000 10304 20225 30060 40132 83500
  333 58007 83620=
0000070200
092
SAAE31 VTBB 110630
METAR VTBS 110630Z 06012KT 030V100 CAVOK 31/15 Q1014 NOSIG=
METAR VTBD 110630Z 09008KT 020V120 9999 FEW030 SCT300 32/18 Q1013 
NOSIG=
METAR VTCC 110630Z 19006KT 9999 FEW040 28/15 Q1017 A3005 NOSIG=
METAR VTBU 110630Z 23008KT 8000 NSC 31/20 Q1012 A2991=
METAR VTSS 110630Z 09015KT 9999 SCT018 BKN120 BKN300 31/21 Q1012
           A2988 NOSIG=
METAR VTSP 110630Z 09012KT 9999 FEW025 SCT300 31/20 Q1011 A2986
           NOSIG=
METAR VLVT 110630Z 20004KT 7000 NSC 27/17 Q1016 NOSIG=
METAR VYMD 110630Z 00000KT 7000 HZ NSC 28/16 Q1016=
METAR VYYY 110630Z NIL=
METAR VDPP 110630Z 02011KT 9999 FEW020 31/17 Q1011=
METAR VDSR 110630Z 25007KT 210V310 CAVOK 31/19 Q1012 NOSIG=

00000000