0000012900
393
SACN62 CYDA 102100
METAR CYDA 102100Z 00000KT 20SM SCT080 BKN100 BKN210 M23/M25 A2950
 RMK AC3AS3CI1 SLP033=

0000010700
394
SACN62 CYGK 102100
METAR CYGK 102100Z 15008KT 4SM BR OVC017 00/M01 A3021 RMK ST8 SLP235=

0000012900
395
SACN62 CYDB 102100
METAR CYDB 102100Z 29004KT 30SM FEW005 SCT030 BKN140 M20/M21 A2930
 RMK ST2SC1AC3 SLP001=

0000071700
396
SAZA31 FAPR 102100
METAR FABL 102100Z AUTO 22005KT //// // ////// 22/02 Q1017=
METAR FACT 102100Z 17013KT 9999 FEW035 18/12 Q1019 NOSIG=
METAR FAGG 102100Z AUTO 28003KT 180V320 9999 -RA OVC019 16/13 Q1020=
METAR FALA 102100Z AUTO 20006KT //// // 22/10 Q1018=
METAR FALE 102100Z 19004KT 9999 -RA SCT025 23/20 Q1015 NOSIG=
METAR FAMM 102100Z AUTO 23005KT //// // ////// 24/07 Q1017=
METAR FAOR 102100Z 18007KT 150V230 CAVOK 19/08 Q1021 NOSIG=
METAR FAPE 102100Z 24015KT 9999 FEW018 19/14 Q1017 NOSIG=
METAR FAPN 102100Z AUTO 21002KT //// // ////// 25/05 Q1014=
METAR FAPP 102100Z AUTO 07003KT //// // ////// 22/15 Q1017=
METAR FAUP 102100Z AUTO 20005KT //// // ////// 23/04 Q1016=

0000011800
397
SACN62 CYGR 102100
METAR CYGR 102100Z 24022G31KT 20SM FEW240 M05/M10 A3024 RMK CI1 CI TR
 SLP242=

0000011200
398
SACN62 CYMX 102100
METAR CYMX 102100Z 05004KT 8SM -SN OVC010 M09/M13 A3028 RMK ST8
 SLP262=

0000011900
399
SACN62 CYLJ 102100
METAR CYLJ 102100Z 24010KT 15SM FEW070 FEW210 M08/M11 A2936 RMK
 AC1CI1 SLP975=

0000011200
400
SACN62 CYGL 102100
METAR CYGL 102100Z 22008KT 4SM -SN OVC005 M06/M07 A2971 RMK SC8
 SLP077=

0000011900
401
SACN62 CYLL 102100
METAR CYLL 102100Z 28008KT 15SM BKN060 BKN250 M05/M06 A2941 RMK
 SC5CI2 SLP998=

0000010500
402
SACN62 CYND 102100
METAR CYND 102100Z 08006KT 8SM OVC009 M07/M09 A3025 RMK SF8 SLP250=

0000013300
403
SACN62 CYKA 102100
METAR CYKA 102100Z 26002KT 30SM VCSH FEW010 BKN057 OVC110 01/M02
 A2986 RMK SF1SC5AC2 SLP127=

0000010600
404
SACN62 CYHK 102100
METAR CYHK 102100Z 24012KT 15SM SCT150 M35/M39 A2944 RMK AS3 SLP978=

0000010600
405
SACN62 CYHM 102100
METAR CYHM 102100Z 19009KT 6SM BR OVC008 02/01 A3009 RMK SC8 SLP200=

0000012900
406
SACN62 CYOJ 102100
METAR CYOJ 102100Z 00000KT 15SM FEW046 SCT100 BKN250 M17/M20 A2948
 RMK SC1AC3CI2 SLP018=

0000012900
407
SACN62 CYPA 102100
METAR CYPA 102100Z 22005KT 15SM SCT040 BKN120 BKN250 M07/M09 A2938
 RMK SC4AC1CI1 SLP978=

0000012200
408
SACN62 CYPL 102100
METAR CYPL 102100Z 19009KT 1 1/2SM -SN BR OVC003 M08/M09 A2952 RMK
 FG2SF6 SLP024=

0000013400
409
SACN62 CYQB 102100
METAR CYQB 102100Z 23006KT 6SM -SHSN SCT020 BKN038 OVC100 M09/M12
 A3029 RMK SC3SC2AC3 SLP265=

0000011200
410
SACN62 CYQT 102100
METAR CYQT 102100Z 25005KT 10SM OVC016 M03/M06 A2965 RMK SC8 BR
 SLP052=

0000013100
411
SACN62 CYQR 102100
METAR CYQR 102100Z 31009KT 3/8SM R13/1800FT/N FZFG OVC002 M08/M09
 A2944 RMK FG3ST5 SLP009=

0000004200
412
SASP36 LEMM 102100
NIL=

00000000