0000166400
106
SNDL49 EDZW 110700
AAXX 11071
10756 47941 73601 11015 21017 39605 40193 57010 71000
  333 55300 20000 30000 87/60=
10761 45961 73601 11016 21018 39674 40200 56009
  333 55300 20000 84/59 86/61 87/64=
10765 46/// /1501 11019 21019 39708 40200 56008=
10771 NIL=
10777 47921 51202 11009 21009 39542 40202 57006 72030
  333 55300 83/62 83/68 85/75=
10782 47924 61301 11031 21031 39595 40216 55001 72030
  333 55300 20000 30000 81/74 86/80=
10796 47002 73401 11034 21035 39461 40221 56002 73530
  333 4/002 55300 87/00=
10803 45962 70801 10013 20008 39887 40182 56009
  333 55300 20000 30000 85/58 86/60 87/68=
10818 45785 81703 10058 20025 39043 48479 55002
  333 55300 20000 30000 82/56 88/58 88/63=
10827 46/// /2103 10029 20022 39087 48470 56006
  333 55300 20000 30000=
10837 NIL=
10838 46/21 /2101 11017 21018 39500 40201 56008
  333 55300=
10850 47001 81502 11019 21019 39579 40200 57009 73533
  333 55300 88/00 88/59=
10853 NIL=
10856 NIL=
10857 NIL=
10860 NIL=
10863 47929 41001 11019 21021 39614 40207 56007 72030
  333 55300 20000 30000 40992 81/59 83/63=
10865 45985 61402 10015 20007 39557 40197 56008
  333 55300 86/60=
10872 47935 80901 11046 21049 39776 40220 56004 72030
  333 55300 84/69 87/76 88/79=
10875 47001 81001 11018 21018 39708 40214 55004 73533
  333 55300 20000 30000 88/00=
10945 45962 81501 10001 20001 39384 40200 55003
  333 55300 82/59 88/66 88/68=
10954 NIL=
10963 45860 82101 11001 21001 39343 40214 56005
  333 4/002 55300 20000 30000 85/58 88/60 88/63=
10982 45969 50602 10003 21000 39531 40206 56007
  333 55300 20000 30000 85/76=
0000017800
107
SMRO45 YRBK 110600 CCA
AAXX 11061
15014 01697 81300 10009 20009 39990 40223 53007 69962 7026/ 8557/ 333
10029
21002 31101 6///7 70020 91001 91103 555 6////=
0000047400
108
UDIO01 AMMC 110700
AMDAR 1107
LVR AU0078 4054S 09454E 110551 F340 MS470 315/083 TB0 S031
  333 F340 VG002=
LVR AU0078 4057S 09347E 110558 F340 MS479 305/058 TB0 S031
  333 F340 VG002=
LVR AU0078 4056S 09238E 110605 F340 MS457 293/051 TB0 S031
  333 F340 VG002=
LVR AU0078 4043S 09132E 110612 F340 MS469 277/043 TB0 S031
  333 F340 VG005=
LVR AU0078 4030S 09025E 110619 F340 MS474 240/047 TB0 S031
  333 F340 VG003=

0000774500
04096
0000011100
109
UANT01 CWAO 110701
ARP GTI609 5231N03244W 0701 F370 MS54 208/41 KT
N851GT DDL XXH 110701 F41A
0000011000
110
UANT01 CWAO 110701
ARP AAL78 4756N05035W 0701 F370 MS64 297/51 KT
N754AN DDL YYT 110701 F30A
0000011100
111
UANT01 CWAO 110701
ARP DAL615 5801N03029W 0701 F360 MS56 221/43 KT
N185DN QXT AOE 110701 F17A
0000011000
112
UANT01 CWAO 110701
ARP ACA854 6300N06158W 0701 F350 MS60 285/28 KT
CGHKW DDL YFB 110701 J63A
0000011000
113
UANT01 CWAO 110701
ARP KLM214 5654N02822W 0701 F370 MS58 226/56 KT
PHAOF QXT AOE 110701 J61A
0000015700
114
SSVX13 LFPW 110700
ZZYY 16591 11014 0700/ 343573 064532 6113/ 11119 40204 57006 22219
 00112 444 20130 11014 0659/ 50101 80118 80016 9/015=
0000015700
115
SSVX13 LFPW 110700
ZZYY 44612 11014 0700/ 745768 045369 6113/ 11119 40217 57002 22219
 00040 444 20130 11014 0700/ 50101 80154 80000 9/015=
0000011800
116
SNVF25 LFPW 110700
BBXX
BATFR61 11074 99472 70057 46/// /2806 10119 20094 40184 53014
22272 04124=
0000011200
117
SNVF25 LFPW 110700
BBXX
BATFR20 11074 99386 10086 46/// /0825 10149 20114 40180 57003
22233=
0000009200
118
SAIN90 VABP 110700
METAR VABP 110700Z 01006KT 2500 HZ NSC 17/11 Q1018 NOSIG=
0000008800
119
SPIN90 VILD 110700
SPECI VILD 110700Z 34002KT 2000 HZ NSC 17/04 Q1019

0000009400
120
SAIN90 VEAT 110700
METAR VEAT 110700Z 32005KT 3000 HZ NSC 25/13
Q1014 NOSIG=
0000009600
121
SAIN90 VECC 110700
METAR VEJS 110700Z 06003KT 1500 FU FEW020 SCT100 24/12 Q1015=
0000017700
122
SACY31 LCLK 110700
METAR LCLK 110700Z 31003KT 9999 FEW035 15/07 Q1024 NOSIG=
METAR LCPH 110700Z 07003KT 030V100 9999 SCT036 14/09 Q1024=
METAR LCNC 110700Z NIL=

0000008400
123
SAIN90 VOBM 110700
METAR VOBM 110700Z 02004KT 8000 NSC 28/07 Q1018=

0000008500
124
UPIN90 VOMM 110600
PPAA 61061 43185 55392 11515 12513 10511 77999=

0000009900
125
SAIN90 VOVZ 110700
METAR VOVZ 110700Z 12007KT 4500 HZ SCT018 28/20 Q1016 NOSIG =

00000000