0000025100
773
WSAU21 AMMC 111006
YMMM SIGMET B01 VALID 111030/111430 YMMC-
YMMM MELBOURNE FIR SEV TURB FCST WI S4700 E07800 - S4300 E08200 -
S3300 E08400 - S3100 E08000 - S3200 E07900 - S3700 E08100 - S4700
E07700 FL300/FL390 MOV E 40KT INTSF=
0000013900
774
SPCN48 CWAO 102041
SPECI CYOY 102041Z 20002KT 5SM -SN BKN020 BKN065 OVC100 RMK SC5SC2AC1
LAST STFD OBS/NXT 131400 UTC=

0000011600
775
SPUS41 KWBC 102047
SPECI
KDOV 102043Z AUTO 07003KT 1/2SM R01/4000FT -RA FG VV002 04/04
A3032=

0000009900
776
SPUS43 KWBC 102047
SPECI
KGRB 102043Z 15008KT 2 1/2SM BR OVC007 M01/M02 A2978=

0000016100
777
SAVN34 SVSR 102100
METAR SVSR 102100Z /////KT CAVOK 32/XX Q1011=
METAR SVVP 102100Z NIL=
METAR SVCL 102100Z NIL=
METAR SVPA 102100Z NIL=

0000055400
778
FTUS31 KWBC 102048 AAA
TAF AMD
KCLE 102046Z 1021/1124 19009KT P6SM SCT009 OVC045
      TEMPO 1021/1023 BKN012
     FM110300 16014KT 3SM -RA BR OVC010 WS015/19045KT
     FM111600 22008KT 2SM BR OVC006
     FM112100 25016G22KT 5SM BR OVC008=
KLAS 102046Z 1021/1118 VRB05KT P6SM SCT250=
KPHF 102046Z 1021/1118 09005KT 3SM -RA BR SCT005 OVC035
      TEMPO 1021/1023 1SM -RA BR BKN005 OVC025
     FM102300 15007KT 4SM BR BKN015 OVC025
     FM110700 19009KT 3SM -DZ BR BKN010
     FM111400 19014G20KT 3SM -DZ BR BKN010=

0000018100
779
FTUS44 KWBC 102048 AAA
TAF AMD
KSLC 102045Z 1021/1124 15007KT P6SM BKN070
     FM110900 18010KT P6SM SCT050 BKN090
     FM111200 18010KT P6SM SCT070 BKN120=

0000027100
780
FTUS41 KWBC 102048 AAA
TAF AMD
KCAE 102046Z 1021/1118 04005KT 3SM -RA BR OVC007
     FM110200 VRB04KT 1SM -DZ BR OVC005
      TEMPO 1108/1112 1/2SM -DZ FG OVC003
     FM111200 17007KT 5SM BR OVC003
     FM111600 19012G20KT P6SM SCT005 OVC015=

0000032200
781
FTUS43 KWBC 102048 AAA
TAF AMD
KMLI 102047Z 1021/1118 16010KT 1 1/2SM -RA BR OVC006
     FM102300 17008KT 1SM -RA BR OVC002
     FM110200 18003KT 1/2SM -RA FG OVC002
     FM110800 26005KT 1SM -FZRASN BR OVC003
     FM111000 28011KT 2SM -SN BR OVC004
     FM111400 28011KT 4SM BR VCSH OVC006=

0000112600
782
FTUS71 KWBC 102048 AAA
TAF AMD
KAGS 102046Z 1021/1118 VRB05KT 4SM -RA BR BKN005
     FM110200 VRB04KT 1SM -DZ BR OVC003
      TEMPO 1108/1112 1/2SM -DZ FG OVC001
     FM111200 17008KT 5SM BR OVC003
     FM111600 19014G22KT P6SM -SHRA SCT005 OVC015=
KCAE 102046Z 1021/1118 04005KT 3SM -RA BR OVC007
     FM110200 VRB04KT 1SM -DZ BR OVC005
      TEMPO 1108/1112 1/2SM -DZ FG OVC003
     FM111200 17007KT 5SM BR OVC003
     FM111600 19012G20KT P6SM SCT005 OVC015=
KCLE 102046Z 1021/1124 19009KT P6SM SCT009 OVC045
      TEMPO 1021/1023 BKN012
     FM110300 16014KT 3SM -RA BR OVC010 WS015/19045KT
     FM111600 22008KT 2SM BR OVC006
     FM112100 25016G22KT 5SM BR OVC008=
KECG 102047Z 1021/1118 15007KT P6SM OVC090
      TEMPO 1021/1024 3SM -RA OVC030
     FM110500 18008KT 4SM -DZ BR OVC010
     FM111400 18015G22KT 4SM BR BKN010=
KPHF 102046Z 1021/1118 09005KT 3SM -RA BR SCT005 OVC035
      TEMPO 1021/1023 1SM -RA BR BKN005 OVC025
     FM102300 15007KT 4SM BR BKN015 OVC025
     FM110700 19009KT 3SM -DZ BR BKN010
     FM111400 19014G20KT 3SM -DZ BR BKN010=

0000022700
783
FTUS74 KWBC 102048 AAA
TAF AMD
KLAS 102046Z 1021/1118 VRB05KT P6SM SCT250=
KSLC 102045Z 1021/1124 15007KT P6SM BKN070
     FM110900 18010KT P6SM SCT050 BKN090
     FM111200 18010KT P6SM SCT070 BKN120=

0000032200
784
FTUS73 KWBC 102048 AAA
TAF AMD
KMLI 102047Z 1021/1118 16010KT 1 1/2SM -RA BR OVC006
     FM102300 17008KT 1SM -RA BR OVC002
     FM110200 18003KT 1/2SM -RA FG OVC002
     FM110800 26005KT 1SM -FZRASN BR OVC003
     FM111000 28011KT 2SM -SN BR OVC004
     FM111400 28011KT 4SM BR VCSH OVC006=

0000019500
785
SAKO31 RKSI 102000 RRA
METAR RKTU 102000Z 12001KT 4000 BR BKN040 M06/M08 A3050 RMK CIG040
SLP332 8/500 9/600=
METAR RKTN 102000Z 00000KT 9999 SKC M05/M09 A3047 RMK SLP321 =

0000011600
786
SPUS31 KWBC 102043
SPECI
KBWI 102039Z 00000KT 1SM R10/5500VP6000FT -RA BR OVC003 02/01
A3032=

0000010100
787
SPUS31 KWBC 102043
SPECI
KIAD 102039Z 00000KT 1 1/4SM -RA BR OVC005 02/01 A3031=

0000010500
788
SPUS31 KWBC 102043
SPECI
KMEM 102039Z 13005KT 10SM SCT028 BKN034 OVC050 14/09 A2988=

0000010400
789
SPUS41 KWBC 102043
SPECI
KBDR 102039Z 00000KT 1 1/2SM BR SCT028 OVC033 01/00 A3037=

0000010800
790
SPUS41 KWBC 102043
SPECI
KBDL 102039Z 00000KT 4SM BR SCT016 BKN090 BKN250 00/M02 A3035=

0000011000
791
SPUS41 KWBC 102043
SPECI
KCAE 102039Z 01005KT 3SM RA BR SCT008 BKN043 OVC060 09/08 A3016=

0000011100
792
SPUS41 KWBC 102043
SPECI
KHVN 102039Z 15003KT 2 1/2SM BR FEW003 SCT010 OVC027 02/01 A3037=

00000000