0000011000
706
UANT99 KDDL 110707
ARP AAL62 4431N02831W 0707 F360 MS50 207/49 KT
N39356 DDL XXW 110707 F33A
0000011100
707
UANT99 KDDL 110707
ARP BER7249 5446N04128W 0707 F390 MS57 278/45 KT
DALPD QXT AOW 110707 J83A
0000011000
708
UANT99 KDDL 110707
ARP BAW188 5240N02400W 0707 F400 MS54 356/64 KT
GZBJA QXT AOE 110707 L25A
0000011000
709
UANT99 KDDL 110707
ARP VIR16B 4627N02350W 0707 F380 MS53 220/55 KT
GVROM DDL XXF 110707 F91A
0000199100
710
SNVZ11 SBBR 110700 RRA
BBXX
SHIP 11071 99/// 1//// 36/// ///// 10135 20133 38363 49422
  333 10135 20130 553// 10004=
SHIP 11071 99/// 1//// 36/// /0302 10233 20223 30118 40147 57///
  333 10235 20231 553// 10004 91105=
SHIP 11071 99/// 1//// 36/// /1302 10205 20193 39511 40137 57///
  333 10206 20204 553// 10004 91106=
SHIP 11071 99/// 1//// 36/// /1700 10219 20210 39895 40114
  333 10220 20219 553// 10002 91102=
SHIP 11071 99/// 1//// 36/// /2300 10197 20169 39287 40138
  333 10200 20195 553// 10004 91100=
SHIP 11071 99/// 1//// 16/// /3202 10201 20192 39380 40038 6994/
  333 10205 20200 553// 10003 91106=
SHIP 11071 99/// 1//// 36/// /0803 10252 20193 39862 40111 57///
  333 10252 20249 553// 10003 91107=
SHIP 11071 99/// 1//// 36/// /1800 10206 20195 39700 40140
  333 10216 20206 553// 10004 91102=
SHIP 11071 99/// 1//// 36/// /1600 10230 20217 39968 40114 57///
  333 10232 20229 553// 10003 91102=
SHIP 11071 99/// 1//// 36/// /0303 10226 20206 30090 40091 57///
  333 10226 20218 553// 10004 91105=
SHIP 11071 99/// 1//// 36/// /1702 10210 20177 39272 40122
  333 10215 20209 553// 10003 91105=
SHIP 11071 99/// 1//// 36/// /0101 10219 20185 39606 40143 57///
  333 10223 20217 553// 10003 91105=
SHIP 11071 99/// 1//// 36/// /3602 10218 20172 39519 40137
  333 10228 20218 553// 10004 91104=
SHIP 11071 99/// 1//// 36/// /0903 10217 20188 39645 40140
  333 10218 20213 553// 10004 91105=
SHIP 11071 99/// 1//// 36/// /1105 10221 20181 39206 40111
  333 10222 20218 553// 10004 91107=
SHIP 11071 99/// 1//// 36/// /1202 10222 20208 39696 40163
  333 10223 20221 553// 10003 91104=
SHIP 11071 99/// 1//// 36/// /1301 10174 20165 39438 40128 57///
  333 10180 20174 553// 10004 91101=
SHIP 11071 99/// 1//// 36/// /1900 10231 20214 30118 40139 57///
  333 10235 20231 553// 10003 91106=
SHIP 11071 99/// 1//// 36/// /2101 10196 20183 39997 40091
  333 10202 20196 553// 10004 91103=
0000030400
711
SNVD20 KWNB 110700 RRF
BBXX
44056 11071 99362 70757 46/// ///// 1//// 90653 22200 00088 10602
20602 310// 41401 70010=
44098 11071 99428 70702 46/// ///// 1//// 90651 22200 00059 10502
20502 70008=
44097 11071 99410 70711 46/// ///// 1//// 90655 22200 00068 11002
21002 70009=
0000013400
712
SNFP20 LFVP 110700
AAXX 11074
71805 24569 82623 11012 21051 30226 40235 55002 700//
  333 60005 91035 90710 91135=
0000075600
713
SNNL50 EHDB 110700
AAXX 11071
06206 46/// /2409 10076 20075 30026 40079 55008
333 91010 91112 91210=
06207 47357 52312 10080 20070 30029 40083 56012 75865 8////
333 81/08 83/10 85/22 91014 91115 91212=
06239 47057 83308 10069 20068 39997 40058 55002 75865 8////
333 81/00 83/02 86/03 91009 91113 91210=
06252 46/// /2312 10082 20078 30045 40091 55004 222// 00096 10605
333 91015 91116 91213=
06260 47356 82105 10041 20028 30136 40138 55007 75151 8////
333 86/07 86/11 87/21 91008 91109 91206
555 53000=
06270 47233 82207 10055 20047 30106 40106 56008 75266 8////
333 86/05 88/07 91010 91112 91208
555 53000=
06290 47257 82205 10031 20021 30099 40140 55005 71011 8////
333 88/06 91008 91109 91206
555 53000=
0000180000
714
SNNL51 EHDB 110700
AAXX 11071
06201 47467 63207 10073 20061 30029 40081 53011 75866 8////
333 81/11 84/27 85/46 91009 91111 91209=
06203 47257 8//12 10085 20074 30058 40109 55007 75186 8////
333 81/05 84/07 85/09 91015 91116 91213=
06204 47350 82514 10083 20075 30045 40096 55006 76166 8////
333 82/07 84/10 86/13 91017 91118 91214=
06205 45671 83307 10070 20049 30001 40060 53008 8////
333 82/34 84/38 88/46 91008 91109 91208=
06208 47234 82109 10062 20053 30048 40098 56009 76166 8////
333 82/04 83/07 86/10 91013 91113 91210=
06211 47159 83011 10067 20060 30028 40084 53001 76266 8////
333 81/03 83/05 85/22 91013 91118 91212=
06212 47357 82212 10084 20068 3//// 4//// 5//// 75265 8////
333 81/08 83/13 85/18 91015 91115 91212=
06235 47242 82110 10067 20062 30109 40109 56009 75365 8////
333 86/05 88/06 91013 91114 91210
555 53000=
06240 47337 82007 10049 20040 30135 40130 56006 75255 8////
333 85/07 86/08 88/10 91009 91109 91207
555 53000=
06251 43/56 /2210 10069 20063 30094 40095 56009
333 91013 91114 91211
555 53000=
06258 46/// /2112
333 91015 91115 91213=
06269 47350 82107 10047 20035 30134 40128 55007 78000 8////
333 86/07 88/08 91009 91109 91207
555 53000=
06280 47230 82107 10050 20043 30111 40115 56008 75255 8////
333 87/06 88/07 91009 91110 91207
555 53000=
06310 47232 82108 10045 20036 30135 40145 55004 71011 8////
333 83/05 87/06 87/08 91011 91111 91208
555 53000=
06344 47347 82006 10045 20036 30144 40137 55004 75750 8////
333 85/07 87/08 88/10 91009 91109 91206
555 53000=
06370 47358 82003 10036 20023 30126 40152 55002 71010 8////
333 88/07 91004 91106 91204
555 53000=
06380 45969 82005 10035 20025 30016 40158 56005 8////
333 85/59 88/63 91006 91106 91205
555 53000=
0000084600
715
SNNL52 EHDB 110700
AAXX 11071
06210 47349 82006 10050 20037 30131 40131 56005 75255 8////
333 84/08 86/09 87/11 91008 91108 91206
555 53000=
06225 46/// /2113
333 91015 91115 91213=
06242 47459 82211 10073 20065 30097 40099 56009 75265 8////
333 82/11 83/18 87/23 91014 91114 91211=
06257 46/// ///// 10058 20048
555 53000=
06275 47250 82105 10033 20025 30084 40140 56006 71011 8////
333 88/05 91006 91108 91206
555 53000=
06330 46/// /2009 10047 20038 30120 40134 56005
333 91012 91112 91209
555 53000=
06340 47256 82304 10036 20025 30130 40149 55004 71011 8////
333 88/06 91007 91107 91204=
06350 47258 81904 10033 20021 30130 40145 56008 71000 8////
333 88/06 91006 91106 91204
555 53000=
06375 45260 82205 10032 20020 30123 40148 56004 8////
333 88/06 91006 91107 91205
555 53000=
0000009700
716
UGIN90 VOMM 110600
PPBB 61071 43279 90012 09003 09006 11007 9036/ 09508 11505=

0000070000
717
SAJP32 RJTD 110700
METAR RJFF 110700Z VRB03KT 9999 FEW035 07/M04 Q1028=
METAR RJCC 110700Z 34005KT 9999 FEW020 SCT070 M07/M11 Q1018=
METAR RJFK 110700Z 36006KT 300V110 9999 FEW030 SCT040 BKN120 08/M01
           Q1026=
METAR RJSN 110700Z 30014KT 9999 VCSH FEW006 SCT030 BKN040 03/M03
           Q1025=
METAR RJFT 110700Z VRB02KT 9999 FEW040 BKN060 07/M04 Q1027=
METAR RJFU 110700Z 14003KT 9999 FEW050 SCT070 BKN/// 08/M01 Q1028=
METAR RJCH 110700Z 30014KT 9999 VCSH FEW005 SCT025 M06/M10 Q1020=
METAR RJSS 110700Z 30012KT 9999 FEW015 02/M06 Q1023=
METAR RJOA 110700Z 34008KT 290V360 9999 FEW030 SCT045 05/M08 Q1026=
METAR RJOB 110700Z 29007KT 250V320 9999 FEW030 SCT045 05/M05 Q1026=

0000015200
718
SAJP32 RJTD 110700 RRA
METAR RJOT 110700Z 28010KT 9999 FEW035 05/M04 Q1027=
METAR RJFO 110700Z 33009KT 9999 FEW035 SCT170 08/M02 Q1028=

0000010200
719
SAIN90 VOHS 110710
METAR VOHS 110710Z 15005KT 5000 HZ FEW020 SCT200 28/14 Q1017 NOSIG=
0000062900
720
SAMS38 WMKK 110700
METAR WBGB 110700Z 34008KT 9999 BKN014 BKN150 28/25 Q1010=
METAR WBGR 110700Z 32007KT 9999 SCT014 BKN150 26/23 Q1009=
METAR WBGS 110700Z 02010KT 9999 SCT018 BKN150 29/23 Q1009=
METAR WBKL 110700Z 33005KT 9999 FEW010 SCT140 BKN290 29/25 Q1009=
METAR WBKS 110700Z 36003KT 7000 -RA SCT014 FEW016CB SCT030 OVC260
26/25 Q1008=
METAR WBKW 110700Z 32006KT 9999 FEW017 SCT030 BKN140 27/24 Q1008=
METAR WMKD 110700Z 35004KT 9999 FEW012 BKN160 25/23 Q1011 NOSIG=
METAR WMKL 110700Z 04008KT 9999 FEW022 SCT140 BKN270 31/21 Q1010=
METAR WMKM 110700Z 36005KT 300V060 9999 SCT020 SCT150 BKN280 31/25 
Q1009=

0000009200
721
SAIN90 VOMM 110710
METAR VOMM 110710Z 16004KT 6000 SCT020 28/19 Q1014 NOSIG=
0000116100
722
SNNL53 EHDB 110700
AAXX 11071
06248 46/// /2110
333 91012 91113 91210=
06249 47/44 /2107 10053 20045 75255
333 91010 91110 91207
555 53000=
06267 47335 82109 10056 20045 75885 8////
333 84/08 87/09 88/11 91012 91113 91209
555 53000=
06273 47/42 /2107 10049 20040 71010
333 91010 91110 91207
555 53000=
06277 46/// /2109 10058 20053
333 91012 91112 91209
555 53000=
06278 46/// /2104 10040 20027
333 91007 91110 91206
555 53000=
06279 47250 82106 10044 20033 30104 40124 56009 72180 8////
333 87/06 88/07 91009 91109 91206
555 53000=
06283 46/// /2103 10027 20020
333 91006 91108 91205
555 53000=
06286 46/// /2107 10049 20041
333 91010 91110 91208
555 53000=
06319 43/56 /2206 10040 20028 30149 40151 55002
333 91008 91108 91206
555 53000=
06348 47/50 /2005 10039 20030 30138 40137 56008 75150
333 91007 91108 91206
555 53000=
06356 462// 82005 10034 20024 30140 40141 55008 8////
333 88/06 91007 91108 91206
555 53000=
06377 47935 82701 10003 20001 71011 8////
333 88/66 91002 91102 91202
555 53000=
06391 46/// /2102 10023 20022
333 91004 91104 91202
555 53000=
0000040600
723
SNNL54 EHDB 110700
AAXX 11071
06209 NIL=
06285 NIL=
06308 NIL=
06311 NIL=
06312 NIL=
06313 NIL=
06315 NIL=
06316 NIL=
06320 46/56 /2211 10059 20057 30104 40131 55004 222// 00081 10503
333 91013 91113 91211=
06321 46/62 /2212 10078 20062 30106 40130 55004 222// 00086 10504
333 91014 91114 91212=
06324 NIL=
06331 NIL=
06343 46/// /2006
333 91008 91110 91207=
0000046700
724
SZPA01 AMMC 110709
CREX++
T000103 A001 D01021 D06025++
0136250 17293000 67590 2014 01 11 07 02 3017 11 07 00 01
01423 0065 01434 0078 01422 0069 01427 0076 01421 0073 01425 0079+
0710610 17137250 67680 2014 01 11 07 02 3013 11 07 00 01
00865 0096 00861 0093 00858 0092 00859 0095 00858 0095 00863 0101+
0698060 15820000 67950 2014 01 11 07 02 3023 11 07 00 01
00684 0031 00682 0031 00680 0031 00677 0030 00676 0030 00678 0034++
7777

0000034100
725
SZIO01 AMMC 110709
CREX++
T000103 A001 D01021 D06025++
-1211670 09689190 46280 2014 01 11 07 02 3020 11 07 00 01
01287 0042 01286 0041 01281 0035 01282 0036 01288 0041 01286 0039+
-1042940 10566940 46290 2014 01 11 07 02 //// 11 07 00 01
01352 0050 01330 0026 01327 0021 01343 0036 01338 0029 01353 0042++
7777

00000000