0000064800
053
SAPR82 SPIM 102100
METAR SPHI 102100Z 19016KT CAVOK 29/22 Q1008 RMK PP000=
METAR SPIM 102100Z 18011KT 9999 FEW009 SCT170 24/19 Q1010 NOSIG RMK 
PP000=
METAR SPQT 102100Z 35007KT 9999 BKN040 26/22 Q1007 NOSIG 
RMK PP000=
METAR SPQU 102100Z 27012KT 7000NE VCSH BKN022 SCT100 15/10 Q1023
RMK PP000=
METAR SPRU 102100Z 19006KT 9999 FEW030 SCT130 24/20 Q1009 RMK PP000=
METAR SPSO 102100Z /////KT 9999 SCT080 SCT230 25/20 Q1009 
RMK BIRD HAZARD RWY 22/04 PP000=
METAR SPTN 102100Z 21010KT CAVOK 25/16 Q1008 RMK PP000=
METAR SPZO 102100Z 01010KT 300V080 9999 FEW036TCU SCT060 BKN100 15/06
Q1025 NOSIG RMK PP000=

0000013200
054
SAXX69 EGRR 102100
METAR EQBH 102050Z 11002KT 9999 FEW200 01/M01 Q1027 BLU NOSIG RMK A3033
      PA2546 DA1554=

0000009200
055
SAIN90 VOMM 111010
METAR VOMM 111010Z 07008KT 8000 FEW020 29/19 Q1012 NOSIG=
0000009200
056
SARM31 LUKK 102100
METAR LUBL 102100Z AUTO 27008KT 9999 NCD 03/M01 Q1013=

0000010100
057
SABZ18 SBKP 102100
METAR SBKP 102100Z 12008KT 9999 FEW040 FEW045TCU
28/17 Q1013=

0000008900
058
SAJM31 MKJP 102100
METAR MKJP 102100Z 14023KT 9999 FEW022 29/22 Q1013=

0000008700
059
SAEA20 HKNC 102000 RRC
METAR HKVO 102000Z 09010KT 9999 BKN021 22/20=

0000010200
060
SAMR20 TFFF 102100
METAR TFFF 102100Z AUTO 06014KT 020V080 9999 FEW033 27/20 Q1014=

0000011500
061
SASR31 WSSL 102100
METAR WSSL 102100Z 33003KT 9999 FEW018 BKN300 25/24 Q1010 RMK 1930Z
Q1010 =

0000014100
062
SACN61 CYAY 102100
METAR CYAY 102100Z AUTO 25019G24KT 6SM -SN BKN130 M10/M12 A2991 RMK
 MAX WND 24026KT AT 2001Z SLP132=

0000009900
063
SASR31 WSAP 102100
METAR WSAP 102100Z 36004KT 9999 
FEW020 BKN300 25/23 Q1010=

0000020500
064
SASQ31 LZIB 102100
METAR LZIB 102100Z 27003KT CAVOK 04/01 Q1021=
METAR LZKZ 102100Z 00000KT 0250 R01/0400N FG BKN001 01/01 Q1018=
METAR LZTT 102100Z 26014KT 9999 FEW050 02/M05 Q1015=

0000023100
065
SASQ41 LZIB 102100
METAR LZPP 102100Z AUTO 25004KT 210V270 9999 // BKN061/// BKN100///
02/M01 Q1020=
METAR LZSL 102100Z 29006KT 9999 FEW060 04/M03 Q1018=
METAR LZZI 102100Z VRB02KT 9999 SCT055 03/M00 Q1018=

0000021900
066
SABU31 LBSM 102100
METAR LBSF 102100Z 12002MPS 3500 BR NSC M02/M02 Q1021 NOSIG=
METAR LBWN 102100Z 27006MPS CAVOK 09/03 Q1017 NOSIG=
METAR LBBG 102100Z 24003MPS 220V280 8000 NSC 05/04 Q1018 NOSIG=

0000014500
067
SABU32 LBSM 102100
METAR LBPD 102100Z 27006MPS CAVOK 12/05 Q1019 NOSIG=
METAR LBGO 102100Z 09003MPS CAVOK 05/03 Q1020 NOSIG=

0000012500
068
SABZ19 SBBE 102100
METAR SBBE 102100Z 05009KT 7000 -RA SCT010 BKN015
FEW020TCU BKN100 24
/22
 Q1009=

0000009700
069
SAHU31 LHBM 102100
METAR LHBP 102100Z 11004KT 070V210 CAVOK 02/01 Q1021 NOSIG=

0000013200
070
SACN61 CYHE 102100
METAR CYHE 102100Z AUTO 29012G18KT 270V330 9SM BKN055 BKN064 BKN120
 08/05 A2993 RMK SLP137=

0000010400
071
SACN62 CYCS 102100
METAR CYCS 102100Z 29018KT 20SM DRSN SKC M32/M35 A2964 RMK SLP040=

0000009900
072
SANC01 NWWW 102100
METAR NWWW 102100Z AUTO 10004KT 030V200 9999 NSC 27/15 Q1013=

00000000