0000051800
313
SANO33 ENMI 102020
METAR ENAT 102020Z NIL=
METAR ENBL 102020Z VRB02KT 9999 FEW/// SCT040 M02/M03 Q0996=
METAR ENEV 102020Z NIL=
METAR ENFL 102020Z NIL=
METAR ENKB 102020Z 02005KT 9999 FEW019 BKN030 M04/M08 Q1000=
METAR ENKR 102020Z 17007KT 5000 IC BR BKN003 M21/M23 Q1016 SEASMOKE
           NORTH OF THE FIELD RMK WIND 775FT 26007KT=
METAR ENML 102020Z 32004KT 9999 FEW025 M04/M07 Q1000=
METAR ENNA 102020Z 16002KT 9999 -SN BKN007 M14/M15 Q1018 RMK WIND
           1800FT 33006KT=

0000035500
314
FTCR31 LEMM 102000
TAF GCLP 102000Z 1021/1121 35009KT 9999 FEW035 TX22/1112Z
TN13/1107Z=
TAF GCRR 102000Z 1021/1121 VRB04KT 9999 FEW020 TX21/1112Z
TN13/1107Z=
TAF GCTS 102000Z 1021/1121 VRB05KT 9999 FEW040 TX21/1112Z
TN12/1107Z=
TAF GCXO 102000Z 1021/1121 29014KT 9999 FEW014 TX16/1112Z
TN09/1107Z BECMG 1106/1109 12008KT=

0000055400
315
SANO32 ENMI 102020
METAR ENAL 102020Z 05012KT 9999 VCSH FEW021 SCT036 M01/M04 Q1000=
METAR ENCN 102020Z VRB01KT 9999 FEW013 SCT023 M00/M00 Q1001=
METAR ENHD 102020Z 27010KT 9999 SCT012 BKN018 06/05 Q1000=
METAR ENRO 102020Z AUTO 10009KT 6000NDV -SN FEW003/// SCT007///
           BKN011/// M13/M16 Q0997=
METAR ENRY 102020Z 18006KT 9999 FEW012 01/01 Q0997=
METAR ENSB 102020Z NIL=
METAR ENTC 102020Z VRB02KT CAVOK M12/M14 Q1017 NOSIG RMK WIND 2600FT
           11012KT=
METAR ENTO 102020Z 24005KT CAVOK M00/M01 Q0997=

0000060100
316
SANO31 ENMI 102020
METAR ENAN 102020Z NIL=
METAR ENBR 102020Z VRB01KT 8000 -RADZ FEW008 SCT015 BKN025 04/03
           Q0999 TEMPO BKN012 RMK WIND 1200FT 02005KT=
METAR ENBO 102020Z 10018KT CAVOK M07/M16 Q1011 NOSIG=
METAR ENDU 102020Z NIL=
METAR ENGM 102020Z 15004KT 120V190 9999 BKN005 M01/M01 Q0996 TEMPO
           BKN004=
METAR ENOL 102020Z NIL=
METAR ENVA 102020Z 07011KT 8000 -SN FEW026 BKN035 M08/M12 Q1002 TEMPO
           3000 -SN VV012 RMK WIND 670FT 10014KT=
METAR ENZV 102020Z 26011KT 9999 FEW012 SCT020 BKN030 07/05 Q1001
           TEMPO BKN012=

0000029800
317
SANO37 ENMI 102020
METAR ENNO 102020Z NIL=
METAR ENOV 102020Z NIL=
METAR ENSD 102020Z 28008KT 230V320 9999 FEW025 SCT045 01/M02 Q0998
           RMK WIND 1138FT 30006KT=
METAR ENSG 102020Z NIL=
METAR ENSN 102020Z NIL=
METAR ENSR 102020Z NIL=
METAR ENSS 102020Z NIL=

0000032400
318
FCIE32 EIDB 102000
TAF EICM 102000Z NIL=
TAF EIDL 102000Z NIL=
TAF EIKY 102000Z NIL=
TAF EIME 102000Z 1021/1106 24006KT 9999 FEW015 SCT025=
TAF EISG 102000Z 1021/1106 24007KT 9999 SCT018 SCT025 PROB30 TEMPO
     1021/1023 SCT012 SCT018CB=
TAF EIWF 102000Z 1021/1106 29005KT 9999 FEW018 SCT025=

0000079400
319
SANO39 ENMI 102020
METAR ENNE 102020Z NIL=
METAR ENQR 102020Z AUTO 08012KT 9999NDV BKN030/// OVC048/// 06/M02
           Q0999 W///S/=
METAR ENSE 102020Z AUTO 07020KT 9999NDV SCT028/// BKN044/// OVC056///
           04/M02 Q0999 W///S5=
METAR ENQC 102020Z AUTO 03012KT 010V070 9999NDV FEW020/// SCT044///
           BKN055/// 05/01 Q0998 W///S5=
METAR ENQA 102020Z AUTO 06010KT 9999NDV -SHRA FEW019/// SCT023///
           BKN029/// 05/02 Q0999 W05/S5=
METAR ENHM 102020Z AUTO 25018KT 9999NDV -SHRA FEW019/// SCT039///
           BKN072/// 07/05 Q0999 W08/S4=
METAR ENVH 102020Z AUTO 23024KT 9999NDV FEW010/// OVC038/// 07/06
           Q1005 W///S4=
METAR ENLA 102020Z AUTO 25027KT 9999NDV -SHRA BKN013/// BKN055///
           08/07 Q1003 W///S4=

0000026300
320
SADL33 EDZO 102020
METAR EDFE 102020Z NIL=
METAR EDFH 102020Z 23006KT CAVOK 02/01 Q1017=
METAR EDFM 102020Z 15003KT CAVOK 03/02 Q1019=
METAR COR EDLV 102020Z 22010KT 9999 BKN012 05/03 Q1016=
METAR EDVK 102020Z 20008KT CAVOK 04/01 Q1016=

0000042700
321
SADL34 EDZO 102020
METAR EDHL 102020Z 25012KT 9999 BKN015 06/05 Q1012=
METAR EDLP 102020Z 23009KT 9999 FEW036 04/00 Q1016=
METAR EDLW 102020Z 21010KT CAVOK 05/02 Q1016=
METAR EDNY 102020Z VRB02KT 6000 NSC 03/01 Q1019=
METAR EDQM 102020Z AUTO 23008KT 9999NDV FEW015/// BKN028///
BKN036/// 02/M00 Q1017=
METAR EDRZ 102020Z 10002KT CAVOK 02/02 Q1018=
METAR EDSB 102020Z 00000KT CAVOK 01/M00 Q1019=

0000014400
322
SADL35 EDZO 102020
METAR EDJA 102020Z 17002KT CAVOK 01/01 Q1019=
METAR EDVE 102020Z 25008KT 9999 FEW033 OVC039 06/02 Q1015=

0000071000
323
SASN31 ESWI 102020
METAR ESGG 102020Z NIL=
METAR ESGJ 102020Z 21005KT 9999 BKN014 00/M00 Q1001 R01/720068=
METAR ESGP 102020Z NIL=
METAR ESGT 102020Z NIL=
METAR ESMK 102020Z AUTO 27009KT 9999NDV FEW018/// OVC029/// 06/04
Q1004=
METAR ESMQ 102020Z AUTO 29003KT 9999 OVC015/// 02/M00 Q1003=
METAR ESMS 102020Z 26014KT 9999 BKN008 05/05 Q1006 R17/29//95=
METAR ESMT 102020Z AUTO 25012KT 9999 FEW010/// SCT018/// BKN025///
06/04 Q1004=
METAR ESMX 102020Z AUTO 27003KT 9999 OVC019/// 01/M00 Q1002=
METAR ESTA 102020Z AUTO 26012KT 9999 SCT011/// BKN015/// OVC021///
06/04 Q1004=
METAR ESTL 102020Z AUTO 26014KT 6000NDV BR FEW009/// SCT013///
BKN018/// 06/06 Q1005 REUP=

0000011900
324
SPUR31 UKMS 102020
SPECI UKLI 102020Z 24008G14MPS 210V270 9999 BKN040
06/M03 Q1013 28090070 NOSIG=

0000056800
325
SADL31 EDZO 102020
METAR EDDF 102020Z VRB01KT 9999 FEW040 BKN250 03/02 Q1019 NOSIG=
METAR EDDH 102020Z 25011KT 210V280 9999 BKN017 06/04 Q1012 NOSIG=
METAR EDDK 102020Z 14005KT CAVOK 04/02 Q1018 NOSIG=
METAR EDDL 102020Z 22011KT CAVOK 05/02 Q1017 NOSIG=
METAR EDDM 102020Z 20003KT 9999 FEW035 00/M01 Q1020 NOSIG=
METAR EDDN 102020Z VRB01KT CAVOK 03/02 Q1019 NOSIG=
METAR EDDS 102020Z 27002KT 9999 FEW024 02/M00 Q1019 NOSIG=
METAR EDDT 102020Z 25011KT CAVOK 05/01 Q1014 NOSIG=
METAR EDDV 102020Z 24007KT 9999 SCT032 06/03 Q1015 NOSIG=

0000043900
326
SADL32 EDZO 102020
METAR EDDB 102020Z 24011KT 9999 BKN048 05/01 Q1015 NOSIG=
METAR EDDC 102020Z 25008KT 9999 SCT040 BKN058 05/01 Q1016 NOSIG=
METAR EDDE 102020Z 22010KT CAVOK 02/00 Q1017 NOSIG=
METAR EDDG 102020Z 21007KT CAVOK 06/04 Q1015 NOSIG=
METAR EDDP 102020Z 21009KT CAVOK 04/03 Q1016 NOSIG=
METAR EDDR 102020Z 09002KT CAVOK 01/M01 Q1019 NOSIG=
METAR EDDW 102020Z 23009KT 9999 SCT024 05/04 Q1013 NOSIG=

0000045300
327
FTSQ31 LZIB 101700 AAA
TAF AMD LZKZ 102023Z 1020/1118 VRB02KT 2300 BR BKN003
    TEMPO 1020/1106 0200 FG OVC001
    BECMG 1108/1110 6000 SCT015
    BECMG 1110/1112 23007KT 9999 FEW018 BKN030
    PROB40 TEMPO 1115/1118 -RA=
TAF AMD LZTT 102023Z 1020/1118 27012KT 9999 SCT045
    TEMPO 1020/1024 -SN
    BECMG 1100/1102 26007KT
    BECMG 1108/1110 27010KT BKN035
    PROB30 TEMPO 1114/1118 27013KT -RASN SCT010 OVC030=

0000010400
328
SPUS31 KWBC 102023
SPECI
KPHL 102019Z 08003KT 1 3/4SM BR BKN006 OVC015 02/01 A3036=

0000010200
329
SPUS41 KWBC 102023
SPECI
KWRI 102019Z AUTO 35003KT 1 3/4SM BR OVC003 02/02 A3034=

0000058500
330
SADN31 EKCH 102020
METAR EKCH 102020Z 27012KT 9999 -SHRA FEW010 BKN015 BKN022 06/05
Q1006 NOSIG=
METAR EKBI 102020Z 25008KT 9999 BKN036 05/03 Q1007=
METAR EKYT 102020Z 26015KT 9999 FEW016 SCT025TCU BKN028 06/05
Q1003=
METAR EKRK 102020Z AUTO 26015KT 9999NDV FEW012/// SCT023///
BKN031/// OVC040/// 06/04 Q1006=
METAR EKAH 102020Z AUTO 26011KT 230V290 9999NDV BKN035/// 06/04
Q1006=
METAR EKEB 102020Z AUTO 24012KT 9999NDV FEW020/// BKN033///
BKN130/// 06/04 Q1008=
METAR EKRN 102020Z AUTO 28017KT 8000NDV -SHRA   BKN008/// 06/06
Q1007 RESHRA=

0000016500
331
SADN32 EKCH 102020
METAR EKVJ 102023Z NIL=
METAR EKSB 102023Z NIL=
METAR EKSN 102023Z NIL=
METAR EKVD 102023Z NIL=
METAR EKOD 102023Z NIL=

0000048300
332
SADN34 EKCH 102020
METAR EKHN 102020Z AUTO 25013G24KT 180V270 8000NDV FEW016///
FEW035/// SCT130/// ///// Q1010=
METAR EKHR 102020Z AUTO 25023KT 9999NDV FEW035/// 07/05 Q1008=
METAR EKHA 102020Z AUTO 23025KT 9999NDV 07/06 Q1009=
METAR EKHD 102020Z AUTO 26023KT 9999NDV 07/05 Q1005=
METAR EKTE 102020Z AUTO 22021KT 9999NDV 07/05 Q1008=
METAR EKGC 102020Z AUTO 23020KT 9999NDV 07/06 Q1008=
METAR EKAV 102020Z AUTO 26018KT 9999NDV BKN017/// 06/04 Q1004=

00000000