0000009500
293
SAUK38 EGGY 102050 RRA
METAR EGPU 102050Z AUTO 25009KT 9999 NCD 03/01 Q1006=

0000061000
294
FTUS31 KWBC 102106 AAA
TAF AMD
KCLT 102103Z 1021/1118 02006KT P6SM OVC003
      TEMPO 1021/1024 5SM -RA BR
     FM110000 04006KT 4SM -RADZ OVC003
     FM110300 03003KT 2SM -RADZ BR OVC003 WS020/20035KT
     FM110800 14004KT 3SM SHRA BR OVC004 WS020/20035KT
     FM111400 18010KT 4SM SHRA BR OVC005 WS020/20040KT=
KMEM 102105Z 1021/1118 16010KT P6SM SCT025 BKN050
     FM102300 17012G18KT P6SM VCSH BKN035
     FM110200 18015G22KT 4SM -RA BR VCTS OVC009CB
     FM110800 24014KT P6SM BKN012 OVC100
     FM111100 26010KT P6SM SCT020
     FM111500 28012G20KT P6SM SCT025=

0000031400
295
FTUS43 KWBC 102106 AAA
TAF AMD
KMKE 102104Z 1021/1124 15010KT 1 1/2SM -FZRA BR OVC004
     FM102300 14010KT 2SM -RA BR OVC005
     FM110300 21008KT 2SM -RA BR OVC006
     FM110800 25007KT 3SM -DZ BR OVC004
     FM111400 27010G19KT 4SM -SN OVC008
     FM111800 17013G22KT P6SM BKN012=

0000009500
296
SATU31 LTAA 102050 RRA
METAR LTAZ 102050Z VRB03KT 9999 BKN009 M02/M02 Q1023=

0000009800
297
SANL33 EHDB 102055 RRA
METAR EHJR 102055Z AUTO 21027G30KT  09/07 Q1011 W10/H18=

0000010200
298
SANL33 EHDB 102055 RRB
METAR EHSC 102055Z AUTO 21024G26KT 9999 07/06 Q1014 W08/H16=

0000010200
299
SANL33 EHDB 102055 RRC
METAR EHSA 102055Z AUTO 21025G28KT 9999 08/06 Q1014 W09/H17=

0000009300
300
SAUK37 EGGY 102050 RRA
METAR EGPN 102050Z 29003KT 9999 FEW011 02/02 Q1006=

0000010400
301
SASN31 ESWI 102050 RRA
METAR ESGP 102050Z 23007KT 9999 SCT019 05/03 Q1001 R19/19//95=

0000111500
302
SACA32 KWBC 102100
METAR
MDLR 102100Z 05018KT 9999 SCT022 27/20 Q1016=
MDPC 102100Z 10012KT 9999 FEW022 SCT080 26/22 Q1017=
MDPP 102100Z 09014KT 9999 SCT020 28/22 Q1017=
MDSD 102100Z 08010KT 9999 SCT022 31/24 Q1015=
MDST 102100Z 16006KT 9999 SCT018 24/22 Q1018 RERA=
MTCH NIL=
MTPP NIL=
TAPA 102100Z 08009KT 9999 FEW019 26/19 Q1016 NOSIG=
TIST 102053Z AUTO 07011KT 10SM BKN065 26/20 A3003 RMK AO2 SLP170
     60000 T02560200 53001 TSNO=
TISX 102053Z 08013G19KT 10SM SCT029 25/21 A3002 RMK AO2
     RAE02B24E37 SLP165 P0000 60000 T02500206 55002=
TJBQ 102050Z 09019G27KT 10SM SCT020 SCT060 31/ A3005 RMK ATIS
     INDIA=
TJMZ 102050Z 07011KT 10SM SCT040 27/20 A3001=
TJNR 102053Z AUTO 08010G17KT 10SM OVC055 27/21 A3006 RMK AO2
     SLP179 T02670211 55003 TSNO=
TJPS NIL=
TJSJ 102056Z 07015KT 10SM SCT029 SCT041 28/21 A3004 RMK AO2 SLP172
     T02780206 55003=
TKPK 102100Z 03012KT 9999 FEW021 SCT044 25/21 Q1016=
TKPN NIL=
TQPF 102100Z 07013KT 9999 FEW023 26/18 Q1016=
TRPM NIL=
TUPJ 102100Z 08009KT 9999 FEW020 26/19 Q1017 RMK A3004=
TUPW NIL=

0000026100
303
FTUS44 KWBC 102106 AAA
TAF AMD
KPDX 102105Z 1021/1118 18011KT P6SM -RA SCT025 OVC060
     FM110100 19014G24KT 6SM -RA BR SCT020 OVC040
     FM110700 19018G30KT 5SM -RA BR SCT015 OVC035
     FM111400 22020G35KT 4SM RA BR BKN015 OVC030=

0000025800
304
FTUS71 KWBC 102106
TAF
TAF KLCK 102059Z 1021/1118 17009KT P6SM SCT010 BKN035
      TEMPO 1100/1103 BKN015
     FM110300 17010KT 5SM BR VCSH OVC015
     FM110700 17012KT 4SM -RA BR OVC008
     FM111400 23014G23KT P6SM VCSH OVC012=

0000060500
305
FTUS71 KWBC 102106 AAA
TAF AMD
KCLT 102103Z 1021/1118 02006KT P6SM OVC003
      TEMPO 1021/1024 5SM -RA BR
     FM110000 04006KT 4SM -RADZ OVC003
     FM110300 03003KT 2SM -RADZ BR OVC003 WS020/20035KT
     FM110800 14004KT 3SM SHRA BR OVC004 WS020/20035KT
     FM111400 18010KT 4SM SHRA BR OVC005 WS020/20040KT=
KMIV 102103Z 1021/1118 08003KT 3SM BR BKN004
      TEMPO 1021/1024 1SM -SHRA BR BKN002
     FM110200 14005KT 1SM BR BKN005 OVC015
     FM110600 16005KT 2SM -RA BR BKN004 OVC010 WS020/20050KT
     FM111500 19013KT 1SM RA BR BKN003 OVC010 WS020/21050KT=

0000070200
306
FTUS73 KWBC 102106 AAA
TAF AMD
KMKE 102104Z 1021/1124 15010KT 1 1/2SM -FZRA BR OVC004
     FM102300 14010KT 2SM -RA BR OVC005
     FM110300 21008KT 2SM -RA BR OVC006
     FM110800 25007KT 3SM -DZ BR OVC004
     FM111400 27010G19KT 4SM -SN OVC008
     FM111800 17013G22KT P6SM BKN012=
KMSN 102104Z 1021/1118 14009KT 1 1/2SM -FZRA BR OVC004
     FM102300 14006KT 3SM -RA BR OVC005
     FM110500 21004KT 2SM -DZ OVC004
     FM111000 28007KT 3SM -SN OVC006
     FM111600 29009G18KT P6SM BKN012=
KUIN 102102Z 1021/1118 17015KT 5SM -RA BR OVC007
     FM110000 19011KT 4SM BR OVC007
     FM110600 26012KT 5SM BR OVC008
     FM111500 26012KT P6SM SCT015 BKN250=

0000043700
307
FTUS74 KWBC 102106 AAA
TAF AMD
KIDA 102104Z 1021/1118 22015G25KT P6SM SCT020
     FM110200 21012G20KT P6SM VCSH OVC035
     FM110600 21014KT 6SM -SN OVC008
     FM111700 21020G30KT P6SM VCSH OVC015=
KPDX 102105Z 1021/1118 18011KT P6SM -RA SCT025 OVC060
     FM110100 19014G24KT 6SM -RA BR SCT020 OVC040
     FM110700 19018G30KT 5SM -RA BR SCT015 OVC035
     FM111400 22020G35KT 4SM RA BR BKN015 OVC030=

0000066400
308
FTUS72 KWBC 102106 AAA
TAF AMD
KMEM 102105Z 1021/1118 16010KT P6SM SCT025 BKN050
     FM102300 17012G18KT P6SM VCSH BKN035
     FM110200 18015G22KT 4SM -RA BR VCTS OVC009CB
     FM110800 24014KT P6SM BKN012 OVC100
     FM111100 26010KT P6SM SCT020
     FM111500 28012G20KT P6SM SCT025=
KTUP 102104Z 1021/1118 18010KT P6SM OVC005
     FM102200 18010KT P6SM SCT007 BKN020
      TEMPO 1022/1023 BKN007
     FM110000 18010G15KT P6SM SCT015 BKN035
     FM110200 19015G25KT P6SM VCSH SCT010 BKN025
     FM110600 21014KT 3SM -RA BR VCTS OVC005CB
     FM111100 25010KT P6SM BKN012 OVC100
     FM111300 30012G18KT P6SM SCT020=

0000045200
309
SAHW31 KWBC 102100
METAR
PBKH NIL=
PHJR 102053Z VRB03KT 10SM FEW033 26/18 A3001=
PHKO 102053Z 35010KT 10SM CLR 27/16 A2995=
PHLI 102103Z 05014KT 10SM BKN023 BKN029 BKN035 25/21 A3005=
PHLI 102053Z 05015KT 10SM SCT025 BKN035 24/21 A3005=
PHNL 102053Z 07007G14KT 10SM FEW026 SCT037 SCT042 26/17 A3000=
PHOG 102054Z 35008KT 10SM FEW028 SCT050 26/21 A2999=
PHTO 102053Z 02008KT 10SM FEW030 FEW050 26/19 A2999=
PNGF NIL=

0000040300
310
SAIO31 KWBC 102100
METAR
FIMP 102100Z 09005KT 9999 VCSH SCT016 SCT050 26/24 Q1016=
FIMR NIL=
FJDG 102055Z 30011KT 9999 SCT020 SCT080 BKN220 27/25 A2981 RMK
     SLP091 60001 8/278 T02680247 57024=
FMCH NIL=
FMCV NIL=
FMCZ NIL=
FMEE NIL=
FMMI NIL=
FMMT NIL=
FMNN NIL=
FSIA NIL=
FSSS NIL=
VRMM NIL=
VYMD NIL=
VYYY NIL=
WBGG NIL=
WBKK NIL=
WBSB NIL=

0000015100
311
SATD31 TTPP 102100
METAR
TTPP 102100Z 10011KT 9999 FEW020 28/20 Q1012 NOSIG=
TTCP 102100Z 09010KT 9999 SCT015 27/20 Q1013 NOSIG=

0000036600
312
SAAL31 DAAA 102100
METAR DAAG 102100Z VRB02KT 9999 FEW030 BKN080 13/07 Q1018=
METAR DAAT 102100Z NIL=
METAR DABB 102100Z 18002KT CAVOK 11/10 Q1017=
METAR DABC 102100Z 24003KT CAVOK 08/02 Q1020=
METAR DAON 102100Z NIL=
METAR DAOO 102100Z 30004KT 9999 FEW023 SCT100 13/07 Q1015=
METAR DAUH 102100Z 05007KT 9999 FEW040 SCT100 15/08 Q1021=

00000000