0000031900
693
FTCN35 CWAO 102000
TAF CYYZ 102038Z 1021/1124 15006KT 1SM BR OVC003 TEMPO 1021/1106 3SM
     BR OVC005
    FM110600 12008KT 1SM -RA BR OVC003
    FM110900 16008KT 1/2SM -RA FG VV002
    FM111400 20010KT 11/2SM -RA BR OVC003
    FM112200 23015G25KT P6SM OVC015
    RMK NXT FCST BY 110000Z=

0000009800
694
SPUS41 KWBC 102038
SPECI
KHTS 102034Z 00000KT 10SM FEW017 OVC031 10/08 A3007=

0000010100
695
SACA33 KWBC 102000 RRF
METAR
TNCC 102000Z 10010KT 9999 FEW024 28/22 Q1012 NOSIG=

0000023500
696
SAJP31 KWBC 102030 RRA
METAR
RJAA 102030Z 35003KT 9999 FEW025 M03/M08 Q1023 NOSIG=
RJCC 102030Z 23003KT 9999 -SHSN FEW015 SCT045 BKN070 M09/M12
     Q1018=
RJTT 102030Z 28005KT 9999 FEW030 01/M06 Q1023 NOSIG=

0000042100
697
FTCN31 CWAO 102000
TAF CYVR 102038Z 1021/1124 10003KT P6SM SCT015 BKN040 OVC100 TEMPO
     1021/1024 6SM -RA BKN015 OVC040
     BECMG 1021/1023 10010KT
    FM110000 10012KT 6SM -RA BR SCT007 OVC015 TEMPO 1100/1110 2SM -RA
     BR BKN007 OVC015
     BECMG 1101/1103 10015G25KT
    FM111000 19012G22KT P6SM SCT020 BKN040 TEMPO 1110/1124 P6SM -SHRA
     BKN020
    RMK NXT FCST BY 110000Z=

0000025800
698
FTCN32 CWAO 102000
TAF CYYC 102038Z 1021/1118 34008KT P6SM FEW090
    FM110300 25010KT P6SM SCT200
     BECMG 1104/1106 20006KT BKN150
    FM110700 18005KT P6SM BKN030
    FM111600 23010KT P6SM SCT200
    RMK NXT FCST BY 110000Z=

0000024300
699
FTCN32 CWAO 102000
TAF CYEG 102038Z 1021/1118 27010KT P6SM FEW030 BKN110
     BECMG 1104/1106 24005KT
     BECMG 1107/1109 14010KT
    FM111000 14012KT P6SM BKN100 TEMPO 1110/1118 2SM -SN
    RMK NXT FCST BY 110000Z=

0000009800
700
FTTU33 LTAA 101700 AAA
TAF AMD LTCE 102037Z 1020/1118 VRB02KT 1700 BCFG BKN005=

0000047400
701
SAMS32 WMKK 111000
METAR WBGG 111000Z 36006KT 300V050 9999 FEW020 BKN300 28/22 Q1009
NOSIG=
METAR WBKK 111000Z 09001KT 9999 FEW014 SCT130 OVC260 27/24 Q1010 
NOSIG=
METAR WMKJ 111000Z 01009KT 320V030 9999 FEW017CB BKN280 28/24 Q1009=
METAR WMKK 111000Z 27008KT 220V320 9999 FEW017CB SCT140 BKN280 31/25 
Q1008 NOSIG=
METAR WMKP 111000Z 04009KT 9999 FEW020 BKN140 BKN270 28/24 Q1009 
NOSIG=
METAR WMSA 111000Z 27009KT 9999 FEW017CB SCT140 BKN280 31/24 Q1008=

0000026500
702
FTUS41 KWBC 102039 AAA
TAF AMD
KLUK 102038Z 1021/1118 16007KT P6SM OVC012
     FM110000 15007KT 4SM BR VCSH OVC018
     FM110600 17007KT 4SM -SHRA BR OVC009
     FM111300 21010G18KT P6SM VCSH OVC012
     FM111600 25012G22KT P6SM OVC022=

0000033400
703
FTUS31 KWBC 102039 AAA
TAF AMD
KCVG 102036Z 1021/1124 16008KT 6SM BR OVC050
      TEMPO 1022/1024 BKN015
     FM110000 15010KT 4SM BR VCSH OVC015
     FM110600 17011KT 4SM -SHRA BR OVC008
     FM111200 22011G20KT P6SM VCSH OVC012
     FM111600 25016G25KT P6SM OVC022
     FM112300 26014KT P6SM BKN025=

0000028000
704
FTUS42 KWBC 102039 AAA
TAF AMD
KSAV 102038Z 1021/1118 14007KT P6SM -SHRA BKN010 BKN020
      TEMPO 1021/1023 3SM SHRA BR BKN005
     FM102300 15005KT 4SM BR BKN005
     FM110400 18005KT 3/4SM BR OVC003
     FM111500 21012G20KT P6SM VCSH SCT015 BKN040=

0000078100
705
FTUS71 KWBC 102039 AAA
TAF AMD
KCVG 102036Z 1021/1124 16008KT 6SM BR OVC050
      TEMPO 1022/1024 BKN015
     FM110000 15010KT 4SM BR VCSH OVC015
     FM110600 17011KT 4SM -SHRA BR OVC008
     FM111200 22011G20KT P6SM VCSH OVC012
     FM111600 25016G25KT P6SM OVC022
     FM112300 26014KT P6SM BKN025=
KLUK 102038Z 1021/1118 16007KT P6SM OVC012
     FM110000 15007KT 4SM BR VCSH OVC018
     FM110600 17007KT 4SM -SHRA BR OVC009
     FM111300 21010G18KT P6SM VCSH OVC012
     FM111600 25012G22KT P6SM OVC022=
KSAV 102038Z 1021/1118 14007KT P6SM -SHRA BKN010 BKN020
      TEMPO 1021/1023 3SM SHRA BR BKN005
     FM102300 15005KT 4SM BR BKN005
     FM110400 18005KT 3/4SM BR OVC003
     FM111500 21012G20KT P6SM VCSH SCT015 BKN040=

0000041600
706
SAID31 WIII 102030
METAR WIII 102030Z 00000KT 4000 BR FEW021 SCT100 25/23 Q1008 NOSIG= 
METAR WADD 102030Z VRB01KT 9999 FEW015CB FEW017 26/24 Q1009 NOSIG= 
METAR WAAA 102030Z 10007KT 5000 -TSRA FEW017CB BKN019 24/24 Q1010= 
METAR WIMM 102030Z 26005KT 4000 HZ BKN017 24/24 Q1011= 
METAR WARR 102030Z 34002KT 5000 HZ FEW020 25/23 Q1009= 
METAR WIHH NIL=
METAR WABB NIL=
METAR WIDD NIL=

0000017900
707
SAID33 WIII 102030
METAR WABP NIL=
METAR WAJJ NIL=
METAR WAKK NIL=
METAR WAPP NIL=
METAR WARS NIL=
METAR WATT NIL=
METAR WALR NIL=
METAR WARQ NIL=

0000009500
708
SPCN42 CWAO 102039
SPECI CYUA 102039Z AUTO 29023KT 3/4SM -SN CLR M25/ A2977=

0000126700
709
SAAU31 YBBN 102030
METAR YPAD 102030Z 11005KT 9999 FEW018 18/09 Q1018
NOSIG=
METAR YBAS 102030Z 30007KT CAVOK 20/M07 Q1015=
METAR YBBN 102030Z 17006KT CAVOK 22/17 Q1018
RMK 5SC066=
METAR YBCS 102030Z 21009KT 8000 -SHRA FEW005 SCT023 BKN050 25/23
Q1010=
METAR YSCB 102030Z 14005KT CAVOK 17/13 Q1020
RMK 1AC140 3CI240=
METAR YPXM 102030Z NIL=
METAR YPCC 102030Z AUTO 16011KT 9999 // SCT032 26/21 Q1010=
METAR YCFS 102030Z AUTO 36002KT 9999 // NCD 21/19 Q1019=
METAR YPDN 102030Z 08003KT CAVOK 25/24 Q1007=
METAR YBCG 102030Z AUTO 20003KT 9999 // SCT036 BKN055 21/19 Q1019=
METAR YHID 102030Z AUTO 09008KT //// // ////// 28/25 Q1007=
METAR YPJT 102030Z AUTO 10010KT 9999 // NCD 23/11 Q1015=
METAR YPKU 102030Z AUTO 00000KT 9999 // NCD 26/24 Q1008=
METAR YPLM 102030Z AUTO 22006KT 9999 // NCD 27/23 Q1006=
METAR YMML 102030Z 17007KT 9000 OVC011 17/14 Q1018
FM2030 18008KT 9999 BKN008=
METAR YPPH 102030Z 09013KT CAVOK 24/10 Q1014=
METAR YSSY 102030Z 32006KT 9999 FEW040 22/17 Q1018
RMK HZ
NOSIG=
METAR YSTW 102030Z AUTO 00000KT 9999 // BKN115 21/15 Q1020=
METAR YPTN 102030Z AUTO 13002KT 9999 // NCD 24/22 Q1008=
METAR YBTL 102030Z 15010KT 9999 FEW014 SCT030 BKN070 26/22 Q1012
RMK DISTANT SHOWERS=

0000114000
710
SAAU32 YBBN 102030
METAR YAMB 102030Z AUTO 00000KT 9999 // NCD 21/19 Q1019=
METAR YMAV 102030Z AUTO 26008KT 9999 // OVC013 17/13 Q1018=
METAR YBRM 102030Z AUTO 26009KT 9999 // SCT020 29/25 Q1007=
METAR YCIN 102030Z NIL=
METAR YSDU 102030Z AUTO 14008KT 9999 // NCD 20/18 Q1020=
METAR YFRT 102030Z AUTO 15009KT //// // ////// 16/16 Q1020=
METAR YGEL 102030Z AUTO 14005KT 9999 // NCD 18/17 Q1010=
METAR YPGV 102030Z NIL=
METAR YBHM 102030Z AUTO 11019KT 9999 // ////// 27/21 Q1013=
METAR YMHB 102030Z 16003KT 9999 FEW009 BKN250 17/14 Q1014=
METAR YPKG 102030Z AUTO 13009KT 9999 // NCD 20/10 Q1020=
METAR YMLT 102030Z AUTO 17006KT 9999 // SCT100 18/14 Q1013=
METAR YBMA 102030Z AUTO 17008KT 9999 // NCD 28/17 Q1011=
METAR YSNF 102030Z 13008KT 9999 FEW027 BKN055 20/11 Q1019=
METAR YPEA 102030Z NIL=
METAR YPPD 102030Z AUTO 31009KT 9999 // SCT017 29/27 Q1007=
METAR YSRI 102030Z AUTO 05001KT 9999 // NCD 18/17 Q1019=
METAR YBRK 102030Z 12009KT 9999 FEW016 BKN300 23/20 Q1015=
METAR YWLM 102030Z AUTO 06003KT //// // NCD 21/16 Q1018=
METAR YPWR 102030Z AUTO 16010KT 9999 // NCD 23/10 Q1016=

0000132000
711
SPUS70 KWBC 102040
SPECI
KARB 102036Z 18005KT 2 1/2SM BR OVC004 02/02 A2999 RMK AO2=
KAVL 102036Z 17006KT 4SM BR OVC003 09/08 A3015 RMK AO2=
KBDE 102036Z AUTO 18010KT 2 1/2SM BR OVC005 M04/M06 A2945 RMK AO2
     T10441056 TSNO=
KDWH 102036Z 17007KT 10SM -RA SCT016 BKN024 OVC070 21/18 A2981 RMK
     AO2 RAB34 P0000=
KGLD 102036Z AUTO 33014KT 10SM BKN036 BKN046 OVC055 02/M02 A2963
     RMK AO2 PK WND 33029/2007 SNE25 P0001 T00171017=
KHKY 102036Z 08005KT 3SM BR OVC003 08/06 A3018 RMK AO2 RAE36
     P0001=
KIXD 102036Z 20005KT 1/4SM FG VV002 05/04 A2954 RMK AO2
     T00500044=
KLXT 102036Z AUTO 21006KT 1SM BR VV003 04/04 A2954 RMK AO2
     T00440039=
KTQE 102037Z AUTO 20006KT 10SM OVC015 03/M01 A2955 RMK AO2
     T00281011=
KTYR 102036Z 22010KT 4SM RA BR SCT009 BKN013 OVC028 17/16 A2976
     RMK AO2 P0002=
KUUU 102036Z AUTO 21003KT 1 3/4SM -RA BR FEW005 BKN012 OVC024
     03/03 A3038 RMK AO2 RAB19 P0000 T00330028=
KOVS 102037Z AUTO VRB03KT 1 3/4SM BR OVC006 01/M01 A2965 RMK AO2
     RAB1956E12 P0000 T00111006=
KSBY 102037Z 09005KT 2 1/2SM -RA BR OVC003 07/05 A3033 RMK AO2
     P0000=
KSPI 102036Z 17017KT 2 1/2SM +RA BR OVC006 04/04 A2972 RMK AO2
     P0015 $=
KMKO 102037Z AUTO 14006KT 10SM BKN017 OVC022 12/11 A2961 RMK
     AO2=

0000009500
712
SAFR32 LFPW 102030 RRA
METAR LFCK 102030Z AUTO 12020KT 9999 NSC 11/07 Q1016=

00000000