0000014000
273
SNFP20 LFVP 111000
AAXX 11104
71805 22584 72718 11006 21043 30225 40234 58001 875//
  333 60005 87623 90710 91131 93100=
0000118500
274
SNVD01 PANC 111000 RRB
BBXX
PHET 11101 99131 70597
41498 50706 10248 20219 40160 52010 70211 844//
22222 04273 20000 3//// 4//// 5////=
WYP8657 11104 99458 70846
43/// /1510 10020 49954
2227/ 00001=
WYQ4356 11104 99461 70840
43/// /1504 10019 49954
2227/ 00001=
WUR8857 11104 99436 70876
43/// /2312 10017 49957
2221/ 00002=
C6FT7 11104 99237 70855
41698 41508 10261 2//// 40161 5//// 70211 8488/
22283 00280 2//// 3//// 4//// 5//// 6//// 8//// ICE /////=
C6VG7 11104 99224 70850
417// 81516 10260 2//// 40160 51002 79522 889//
22214 00270 2//04 3//// 4//04 5//04 6//// 8//// ICE /////=
KAOU 11104 99055 31061
43/// /2914 10268 20241 40089 5//// 7//// 8////
222// 04304 2//// 3//// 4//// 5//// 6//// 8//// ICE /////=
KAQP 11104 99098 71043
43/// /0611 10265 20214 40096 5//// 7//// 8////
222// 04270 2//// 3//// 4//// 5//// 6//// 8//// ICE /////=
WECB 11104 99327 71172
43/// /2702 10131 20110 40208 5//// 7//// 8////
222// 04148 2//// 3//// 4//// 5//// 6//// 8//// ICE /////=
WSQ2674 11104 99327 71172
43/// /2602 10117 2//// 40200 5//// 7//// 8////
222// 04152 2//// 3//// 4//// 5//// 6//// 8//// ICE /////=
0000103000
275
SNVD15 KWNB 111000 RRG
BBXX
41046 11101 99238 70683 46/// /0908 10249 20193 40218 54000 90950
22200 00259 10705 20704 3//// 40803 70026 333 91210 555 11089
22094 30917 40912 60949 093084 092089 089096 089092 088087 085087
80911 90918=
42060 11101 99163 70632 46/// /0709 10259 40159 52004 90950 22200
00267 10604 20603 307// 41002 70018 333 91211 555 11100 22106
30911 40812 60949 067093 068092 077095 076095 072097 067097 80710
90900=
44064 11101 99370 70760 46/// /1405 10109 40156 56027 91000 22200
00070 10301 70004 333 91205 555 11052 22057=
44062 11101 99386 70764 46/// /0102 10030 40150 56036 91000 22200
00030 1//00 70000 333 91202 555 11022 22024=
44063 11101 99390 70764 46/// /0000 10023 40135 58036 91000 22200
00014 1//00 70000 333 91201 555 11006 22006=
44041 11101 99372 70768 46/// /1304 10140 91000 22200 00038 1//00
70000 333 91204 555 11042 22045=
44042 11101 99380 70763 46/// /1707 10101 40140 55028 91000 22200
00039 10201 70003 333 91209 555 11083 22090=
0000005200
276
RRIN23 VIDP 111008
RQRPT 572-613=

0000005200
277
RRIN23 VIDP 111008
RQRPT 792-833=

0000005200
278
RRIN23 VIDP 111009
RQRPT 892-953=

0000011700
279
SACN62 CYVR 102100
METAR CYVR 102100Z 06005KT 15SM FEW035 OVC120 08/05 A2998 RMK SC2AS6
 SLP153=

0000011100
280
SACN62 CYVO 102100
METAR CYVO 102100Z 19010KT 6SM BR OVC008 M06/M07 A2999 RMK ST8
 SLP183=

0000011200
281
SPUS41 KWBC 102105
SPECI
KDOV 102103Z AUTO 08003KT 1SM R01/4500FT -RA BR VV002 04/04 A3032=

0000010100
282
SPUS41 KWBC 102105
SPECI
KGSP 102101Z 02005KT 1 1/4SM -RA BR OVC004 08/08 A3015=

0000012800
283
SACN62 CYVT 102100
METAR CYVT 102100Z 32015KT 12SM -SN DRSN BKN006 OVC080 M09/M12 A2934
 RMK SC6AC2 SLP967=

0000013500
284
SACN62 CYXC 102100
METAR CYXC 102100Z 12007KT 090V160 20SM BKN055 BKN090 05/M03 A2964
 RMK SC5AS2 SH ALQDS SLP064=

0000011800
285
SACN62 CYWG 102100
METAR CYWG 102100Z 18009KT 8SM SCT017 BKN036 M05/M07 A2938 RMK SC3SC3
 SLP966=

0000011900
286
SACN62 CYXE 102100
METAR CYXE 102100Z 23010KT 15SM BKN050 OVC120 M06/M08 A2943 RMK
 SC6AC2 SLP002=

0000011800
287
SACN62 CYXH 102100
METAR CYXH 102100Z 28011KT 30SM FEW130 BKN270 02/M03 A2947 RMK AC1CI6
 SLP004=

0000011500
288
SACN62 CYXL 102100
METAR CYXL 102100Z 17010KT 3SM -SN BR OVC007 M07/M08 A2951 RMK ST8
 SLP019=

0000011900
289
SACN62 CYXJ 102100
METAR CYXJ 102100Z 24008KT 15SM FEW080 BKN140 M07/M12 A2945 RMK
 AC2AC4 SLP024=

0000013300
290
SACN62 CYXP 102100
METAR CYXP 102100Z 00000KT 10SM -SN FEW030 SCT090 BKN210 M18/M21
 A2927 RMK SC1AS3CI3 SLP913=

0000012900
291
SACN62 CYXT 102100
METAR CYXT 102100Z 20010KT 6SM BR FEW005 BKN013 OVC060 02/01 A2972
 RMK SF1SC4SC3 SLP074=

0000012900
292
SACN62 CYWL 102100
METAR CYWL 102100Z 10004KT 15SM FEW070 BKN140 BKN220 M03/M05 A2974
 RMK AC2AC4CI1 SLP110=

00000000