0000011000
306
UANT01 CWAO 110736
ARP BAW23T 5442N03401W 0736 F380 MS58 227/38 KT
GVIIF QXT AOW 110736 F19A
0000013500
307
SNVD17 CWHX 110700
BBXX
44258 11071 99445 70634 46/// /2408 10024 40267 57006
22200 00018 10603 70015 333 91210=

0000055900
308
SAMS31 WMKK 110730
METAR WBGG 110730Z 34010KT 310V020 9999 FEW015CB SCT020 BKN150 27/23
Q1009 NOSIG=
METAR WBKK 110730Z 17002KT 9999 FEW014 FEW017CB BKN130 OVC260 28/24 
Q1009 NOSIG=
METAR WBSB 110730Z 30008KT 9999 SCT016 FEW017CB BKN280 29/25 Q1009
NOSIG=
METAR WMKK 110730Z 23008KT 170V280 9999 SCT018 BKN280 31/25 Q1008 
NOSIG=
METAR WMKP 110730Z 03010KT 350V070 9999 FEW020 BKN140 BKN270 28/23 
Q1009 NOSIG=
METAR WSSL 110730Z NIL=
METAR WSSS 110730Z 03009KT 350V070 9999 VCSH FEW017CB SCT020TCU 29/24
Q1009 TEMPO FM0745 TL0830 4000 SHRA=

0000009300
309
SAIN90 VIDN 110730
METAR VIDN 110730Z 26005KT 6000 FEW030 SCT040 18/07 Q1018=
0000009200
310
SAIN90 VIDP 110730
METAR VIDP 110730Z 30009KT 2200 HZ NSC 16/07 Q1018 NOSIG=
0000009200
311
SAIN90 VABB 110740
METAR VABB 110740Z 28010KT 3000 FU NSC 25/06 Q1014 NOSIG=
0000103700
312
UDAS02 BABJ 110728
AMDAR 1107
ASC CNFPQK 3113N 12120E 110725 F002 PS035 104/009 TB/ S//1=
ASC CNFPQK 3114N 12120E 110725 F011 PS014 118/010 TB/ S//1=
ASC CNFPQK 3114N 12119E 110725 F013 PS009 116/011 TB/ S//1=
DES CNFOZL 3031N 11518E 110723 F151 MS088 248/034 TB/ S//1=
DES CNFOZL 3031N 11513E 110724 F141 MS064 235/034 TB/ S//1=
DES CNFOZL 3034N 11508E 110725 F131 MS059 240/044 TB/ S//1=
DES CNFOZL 3036N 11503E 110726 F121 MS095 250/043 TB/ S//1=
DES CNFPYN 3423N 11349E 110723 F074 MS078 279/014 TB/ S//1=
DES CNFPYN 3424N 11347E 110724 F068 MS065 282/014 TB/ S//1=
DES CNFPYN 3426N 11342E 110725 F055 MS034 314/014 TB/ S//1=
DES CNFPYN 3428N 11338E 110726 F040 MS023 276/010 TB/ S//1=
DES CNFNXM 2517N 10306E 110724 F100 PS040 257/025 TB/ S//1=
DES CNFNXM 2515N 10304E 110725 F096 PS050 256/028 TB/ S//1=
DES CNFNXM 2513N 10302E 110726 F092 PS066 235/014 TB/ S//1=
ASC CNFPQK 3115N 12119E 110726 F015 PS000 103/012 TB/ S//1=
ASC CNFPQK 3116N 12117E 110726 F026 MS015 123/011 TB/ S//1=
0000128500
313
UDAS02 BABJ 110726
AMDAR 1107
DES CNFPYN 3417N 11402E 110720 F080 MS088 261/013 TB/ S//1=
DES CNFPYN 3418N 11401E 110721 F075 MS073 264/013 TB/ S//1=
DES CNFPYN 3420N 11356E 110722 F075 MS075 281/012 TB/ S//1=
DES CNFPYN 3422N 11352E 110723 F075 MS078 276/014 TB/ S//1=
DES CNFNXM 2518N 10315E 110721 F113 MS003 264/029 TB/ S//1=
DES CNFNXM 2520N 10312E 110722 F106 PS024 240/027 TB/ S//1=
DES CNFNXM 2520N 10311E 110722 F106 PS023 227/026 TB/ S//1=
DES CNFNXM 2520N 10308E 110723 F106 PS020 252/026 TB/ S//1=
LVR CNFPYM 3917N 11215E 110722 F246 MS428 269/078 TB/ S//1=
LVR CNFPYM 3913N 11216E 110723 F246 MS430 269/077 TB/ S//1=
LVR CNFPYM 3909N 11217E 110724 F246 MS430 270/075 TB/ S//1=
LVR CNFPYM 3907N 11218E 110724 F246 MS433 269/075 TB/ S//1=
DES CNFPQL 3655N 11619E 110721 F119 MS148 286/034 TB/ S//1=
DES CNFPQL 3657N 11624E 110722 F118 MS145 284/034 TB/ S//1=
DES CNFPQL 3700N 11630E 110723 F108 MS134 288/038 TB/ S//1=
DES CNFPQL 3702N 11636E 110724 F091 MS115 275/029 TB/ S//1=
DES CNFLWR 3040N 12129E 110723 F081 MS031 256/044 TB/ S//1=
DES CNFLWR 3043N 12129E 110724 F072 MS025 248/034 TB/ S//1=
DES CNFLWR 3044N 12129E 110724 F072 MS025 248/034 TB/ S//1=
DES CNFLWR 3047N 12128E 110725 F062 MS016 248/029 TB/ S//1=
0000010300
314
SAER41 OMAM 110726 RRF
METAR OMAM 110730Z 18011KT 9999 FEW040 BKN100 21/10 Q1016 A3000=
0000013600
315
SNVD17 CWVR 110700
BBXX
46036 11071 99484 71339 46/// /2015 10088 49821 57045
22200 00093 10908 70041 333 91219 =

0000024100
316
SOAT10 KWAL 110738
FA8005BC 011073837 OT12 ID:KN-BASS-01 DT:2014 01 11 07 36
:RD -3136 -3106 -3144 -3117 -3117 -3141 -3156 -3149 -3142 -3144
:PR 0554 0497 0502 0564 0575 0559 0571 0558 0512 0453
:B 13.7V
 46+1NN 219E
0000216800
317
SZNZ01 NZKL 110739
CREX++
T000103 A001 D01021 D06025++
-3683144 17478654 AUCT  2014 01 11 07 31 //// 11 07 00 01
04595 3189 04588 3190 04584 3193 04576 3193 04564 3190 04557 3190+
-4402404 -17636748 CHIT  2014 01 11 07 31 //// 11 07 00 01
04306 1949 04280 1923 04305 1948 04325 1967 04297 1939 04287 1928+
-4089929 17623168 CPIT  2014 01 11 07 31 //// 11 07 00 01
03197 2261 03183 2248 03197 2263 03211 2277 03219 2287 03198 2266+
-3618905 17548887 GBIT  2014 01 11 07 31 //// 11 07 00 01
05343 0009 05343 0014 05332 0008 05317 -0002 05302 -0012 05300 -0010+
-3867541 17802288 GIST  2014 01 11 07 31 //// 11 07 00 01
03391 2744 03395 2751 03376 2735 03390 2750 03384 2747 03371 2736+
-4241288 17370277 KAIT  2014 01 11 07 31 //// 11 07 00 01
02618 2196 02610 2189 02624 2202 02635 2213 02631 2208 02641 2218+
-3755040 17815904 LOTT  2014 01 11 07 31 //// 11 07 00 01
02918 0182 02922 0190 02913 0185 02913 0189 02912 0191 02902 0186+
-3704657 17451175 MNKT  2014 01 11 07 31 //// 11 07 00 01
03393 -0111 03363 -0138 03397 -0100 03339 -0154 03357 -0134 03345 -0142+
-3947566 17692007 NAPT  2014 01 11 07 31 //// 11 07 00 01
02315 2016 02347 2049 02329 2033 02349 2054 02322 2029 02333 2041+
-3441483 17304870 NCPT  2014 01 11 07 31 //// 11 07 00 01
-01396 -5582 -01393 -5572 -01364 -5538 -01391 -5559 -01633 -5795 -01468 -5624+
-4581435 17062939 OTAT  2014 01 11 07 31 //// 11 07 00 01
03885 3430 03886 3428 03887 3426 03890 3425 03892 3423 03895 3422+
-2928002 -17789440 RBCT  2014 01 11 07 31 //// 11 07 00 01
05717 2034 05723 2044 05703 2027 05690 2018 05704 2035 05708 2042+
-2925114 -17790384 RFRT  2014 01 11 07 31 //// 11 07 00 01
02638 0233 02633 0231 02623 0225 02617 0222 02600 0209 02616 0228+
-4357010 17277383 SUMT  2014 01 11 07 31 //// 11 07 00 01
01110 1838 01121 1848 01117 1843 01127 1852 01120 1844 01127 1850+
-3764109 17618118 TAUT  2014 01 11 07 31 //// 11 07 00 01
04669 3995 04664 3994 04658 3993 04656 3996 04646 3991 04638 3988+
-4128448 17477985 WLGT  2014 01 11 07 31 //// 11 07 00 01
02582 2029 02575 2022 02574 2021 02571 2017 02576 2021 02572 2017++
7777
0000011000
318
UANT99 KDDL 110737
ARP QTR764 5801N01318W 0737 F330 MS50 257/60 KT
A7BAC QXT AOE 110737 F45A
0000011100
319
UANT99 KDDL 110737
ARP GTI609 5339N02413W 0737 F370 MS55 223/45 KT
N851GT DDL XXF 110737 F50A
0000011100
320
UANT99 KDDL 110737
ARP BAW16PA 4603N01526W 0737 F390 MS56 255/39 KT
GVIIO QXT AOE 110737 F64A
0000010900
321
UANT99 KDDL 110737
ARP BAW98 5346N03256W 0737 F390 MS54 343/34 KT
GZBJC QXT AOW 110737 L69A
0000011000
322
UANT99 KDDL 110737
ARP ETD100 5308N02851W 0737 F330 MS60 191/80 KT
A6ETL QXT AOE 110737 F28A
0000011000
323
UANT99 KDDL 110737
ARP KLM214 5555N01932W 0737 F370 MS59 236/83 KT
PHAOF QXT AOE 110737 J65A
0000014300
324
SNVZ11 SBBR 110700 RRG
BBXX
SHIP 11071 99/// 1//// 36/// /1200 10195 20160 39030 40099
  333 10206 20195 553// 10004 91104=
0000028100
325
SXHW11 KWAL 110739
B14101B2 011073903"
1,140111,06:30:00,1.2,47,2.8,0.0,1016.7,4.66,13.1,
1,140111,06:45:00,2.1,218,5.0,0.0,1016.8,4.66,13.1,
1,140111,07:00:00,1.9,165,4.6,0.0,1016.9,4.66,13.1,
1,140111,07:15:00,3.8,79,4.6,0.0,1016.9,4.66,13.1, 49-0NN  30W
00000000