0000069300
013
SNBX41 EBBR 110500
AAXX 11051
06400 42356 /2005 10039 20030 30147 40155 55005
 333 85/06 87/08 91108 91205=
06431 NIL=
06432 45258 /2104 10037 20031 30087 40160 55006
 333 88/04 91106 91204=
06449 42260 72204 10046 20037 39932 40163 56007 82630
333 82706 86358 91106 91204=
06450 45360 82203 10037 20019 30140 40156 57006
333 88/07 91107 91204=
06458 45957 /2102 10027 20024 30020 40160 57006
 333 87/58 91102 91202=
06465 45258 /1802 10022 20016 30094 40159 58008
 333 81/05 87/59 91103 91202=
06478 42970 71803 10037 20020 39938 40162 57008 8703/
333 87359 91106 91203=
06496 45147 /2002 10020 20020 39488 40170 58008
 333 87/02 91107 91202=
0000010400
014
SMIN90 VIJP 110000
AAXX 11004
42343 31995 03604 10114 20021 40170 70500
  333 58013=
0000005200
015
RRIN23 VIDP 110016
RQRPT 883-904=

0000070900
016
USAA01 NZCM 110000
TTAA 61001 89664
99997 00056 18501 00512 ///// ///// 92601 07158 18518
85255 11341 17017 70716 21114 15006 50514 33959 24513
40666 44759 24520 30855 51765 24023 25975 45585 24514
20124 43786 24513 15318 43586 26009 10592 41586 23504
88320 52361 23026
77999
31313 48008 82219=

0000069700
87361=
0000011200
87368
0000009600
87371
0000035800
87378
0000037300
87381
0000039400
87385=
0000043700
87428
0000047800
87442
0000056100
87461
0000047900
87477
0000056200
87486
0000052100
87514
0000064500
87547
0000052200
87621=
0000058500
88116
0000066800
88374=
0000060800
90580
0000075200
91656
0000060600
017
USAA01 NZCM 110000
TTAA 61001 89664
99997 00056 18501 00512 ///// ///// 92601 07158 18518
85255 11341 17017 70716 21114 15006 50514 33959 24513
40666 44759 24520 30855 51765 24023 25975 45585 24514
20124 43786 24513 15318 43586 26009 10592 41586 23504
88320 52361 23026
77999
31313 48008 82219=

0000069700
87361=
0000011200
87368=
0000015000
87382=
0000030600
87414
0000014800
87423
0000049900
87438=
0000050000
87532=
0000048100
87747
0000060500
87944
0000058500
88151
0000060600
88411=
0000062800
90621
0000071100
91674
0000066800
018
USAA01 NZCM 110000
TTAA 61001 89664
99997 00056 18501 00512 ///// ///// 92601 07158 18518
85255 11341 17017 70716 21114 15006 50514 33959 24513
40666 44759 24520 30855 51765 24023 25975 45585 24514
20124 43786 24513 15318 43586 26009 10592 41586 23504
88320 52361 23026
77999
31313 48008 82219=

0000069700
87361=
0000011200
87368=
0000015000
87382
0000012800
87386
0000045600
87406
0000047700
87410=
0000049900
87467
0000047900
87475
0000047900
87491=
0000056300
87705
0000058400
87804
0000056400
87994
0000058500
88172
0000062700
88422=
0000066900
90579
0000073200
91665
0000064700
019
USAA01 NZCM 110000
TTAA 61001 89664
99997 00056 18501 00512 ///// ///// 92601 07158 18518
85255 11341 17017 70716 21114 15006 50514 33959 24513
40666 44759 24520 30855 51765 24023 25975 45585 24514
20124 43786 24513 15318 43586 26009 10592 41586 23504
88320 52361 23026
77999
31313 48008 82219=

0000069700
87361=
0000011200
87368
0000009600
87371
0000035800
87378
0000037300
87381=
0000039500
87413
0000041600
87422=
0000043800
87504
0000052100
87527
0000058300
87571
0000052200
87616=
0000056500
88102
0000062700
88381=
0000056600
90603
0000069000
91655
0000075100
020
USAA01 NZCM 110000
TTAA 61001 89664
99997 00056 18501 00512 ///// ///// 92601 07158 18518
85255 11341 17017 70716 21114 15006 50514 33959 24513
40666 44759 24520 30855 51765 24023 25975 45585 24514
20124 43786 24513 15318 43586 26009 10592 41586 23504
88320 52361 23026
77999
31313 48008 82219=

0000069700
87361=
0000011200
87368=
0000015000
87382
0000012800
87386
0000045600
87406=
0000047800
87429
0000015700
87445
0000049900
87465
0000054100
87473
0000050000
87488
0000052100
87521
0000054200
87549
0000056300
87594
0000062500
87639
0000070800
87764
0000072900
87952
0000056400
88128
0000064700
88406=
0000069000
90618
0000075300
91666
0000064600
021
SMCH02 SCSC 110000
AAXX 11004
85585 12570 41815 10178 20110 40204 56005 60001 84200
  333 10221 56400 84830=
85586 12960 03605 10146 20100 40146 53002 60001
  333 10204=
85629 12970 01806 10268 20098 40109 53001 60001 333 10303=
85648 NIL=
85672 12980 01806 10252 20046 40138 54000 60001
333   10286=
85682 12962 22311 10193 20101 40155 52004 60001 80001
  333 10233 56005 82070=
85703 NIL=
85732 NIL=
85743 12960 62508 10172 20082 40189 53008 60001 80001
  333 10234 56005 86070=
85766 NIL=
85782 NIL=
85799 12960 11510 10146 20062 40234 53009 60001 81031
  333 10178 56055 81360=
85830 NIL=
0000066800
022
USAA01 NZCM 110000
TTAA 61001 89664
99997 00056 18501 00512 ///// ///// 92601 07158 18518
85255 11341 17017 70716 21114 15006 50514 33959 24513
40666 44759 24520 30855 51765 24023 25975 45585 24514
20124 43786 24513 15318 43586 26009 10592 41586 23504
88320 52361 23026
77999
31313 48008 82219=

0000069700
87361=
0000011200
87368=
0000015000
87382
0000012800
87386
0000045600
87406
0000047700
87410
0000049800
87416
0000051900
87420
0000047800
87441
0000045800
87463
0000047900
87474=
0000054200
87591=
0000054400
88066
0000056500
88350=
0000066900
90526
0000071100
91638
0000070900
023
USAA01 NZCM 110000
TTAA 61001 89664
99997 00056 18501 00512 ///// ///// 92601 07158 18518
85255 11341 17017 70716 21114 15006 50514 33959 24513
40666 44759 24520 30855 51765 24023 25975 45585 24514
20124 43786 24513 15318 43586 26009 10592 41586 23504
88320 52361 23026
77999
31313 48008 82219=

0000069700
87361=
0000011200
87368
0000009600
87371
0000035800
87378
0000037300
87381
0000039400
87385
0000039400
87407
0000041500
87411
0000014600
87417
0000045700
87421=
0000050000
87501
0000056200
87513=
0000060500
87736
0000062600
87931
0000062600
88134
0000056500
88400=
0000066900
90596
0000069000
91652
0000080500
024
SMAA01 SAWB 110000
AAXX 11004
88963 32560 30000 10016 21047 39974 40005 57008 82504 333 10040 20006
 56505 82620 83070 92416 92731 94070 95000=
88968 32565 71110 11015 21062 30001 40016 57013 87500 333 10028 21015
 56100 87620 92417 92733 92851 94070=
89034 11305 80000 11024 21033 39593 49905 51008 60021 77177 886// 333
 1//// 21024 56099 88709 90078 90088 90095 90550 90952 92730 92801
93002=
89053 11360 72712 11003 21030 30022 40037 57004 69901 72272 85620 333
 10027 21014 56630 82708 83630 87545 90007 90104 92427 92851 94076
94469 98560=
89055 32965 73202 11003 21043 39764 40008 57008 82049 333 10052 21005
 56056 57364 82360 85170 95100=
89066 32360 30000 10022 20009 30010 40020 57009 81601 333 10022 20010
 56706 81708 92406 92734 92851 94070 95010=
0000066800
025
USAA01 NZCM 110000
TTAA 61001 89664
99997 00056 18501 00512 ///// ///// 92601 07158 18518
85255 11341 17017 70716 21114 15006 50514 33959 24513
40666 44759 24520 30855 51765 24023 25975 45585 24514
20124 43786 24513 15318 43586 26009 10592 41586 23504
88320 52361 23026
77999
31313 48008 82219=

0000069700
87361=
0000011200
87368=
0000015000
87382
0000012800
87386=
0000045700
87427
0000045800
87444=
0000048000
87537
0000058300
87569
0000050100
87626
0000052200
87673
0000054300
87808
0000056400
87995
0000060600
88173
0000064700
88420=
0000062800
90569
0000064900
91636
0000064700
026
USAA01 NZCM 110000
TTAA 61001 89664
99997 00056 18501 00512 ///// ///// 92601 07158 18518
85255 11341 17017 70716 21114 15006 50514 33959 24513
40666 44759 24520 30855 51765 24023 25975 45585 24514
20124 43786 24513 15318 43586 26009 10592 41586 23504
88320 52361 23026
77999
31313 48008 82219=

0000069700
87361=
0000011200
87368
0000009600
87371
0000035800
87378
0000037300
87381=
0000039500
87413=
0000052000
87479
0000056200
87492
0000045900
87517=
0000054300
87740
0000056400
87934
0000052300
88140
0000066800
88409=
0000069000
90587
0000064900
91676
0000083300
027
USAA01 NZCM 110000
TTAA 61001 89664
99997 00056 18501 00512 ///// ///// 92601 07158 18518
85255 11341 17017 70716 21114 15006 50514 33959 24513
40666 44759 24520 30855 51765 24023 25975 45585 24514
20124 43786 24513 15318 43586 26009 10592 41586 23504
88320 52361 23026
77999
31313 48008 82219=

0000069700
87361=
0000011200
87368
0000009600
87371
0000035800
87378
0000037300
87381
0000039400
87385
0000039400
87407
0000041500
87411
0000014600
87417
0000045700
87421
0000049900
87440
0000052000
87462
0000050000
87472
0000005900
87495
0000058300
87519
0000056300
87548
0000056300
87600=
0000052300
88063
0000060600
88322
0000062700
88587
0000014700
89153
0000079300
89733
0000062800
90599
0000075300
91670
0000073000
028
USAA01 NZCM 110000
TTAA 61001 89664
99997 00056 18501 00512 ///// ///// 92601 07158 18518
85255 11341 17017 70716 21114 15006 50514 33959 24513
40666 44759 24520 30855 51765 24023 25975 45585 24514
20124 43786 24513 15318 43586 26009 10592 41586 23504
88320 52361 23026
77999
31313 48008 82219=

0000069700
87361=
0000011200
87368=
0000015000
87382
0000012800
87386
0000045600
87406
0000047700
87410=
0000049900
87467
0000047900
87475
0000047900
87491=
0000056300
87705
0000058400
87804
0000056400
87994
0000058500
88172
0000062700
88422
0000066800
88653
0000066900
89185
0000064900
89756
0000064900
90619
0000058700
91662
0000069000
029
SMCH01 SCSC 110000
AAXX 11004
85406 12982 09901 10229 20177 40118 53021 60001 333 10257=
85418 12570 21912 10235 20170 40111 52014 60001 82500
  333 10258 56000 82620=
85432 NIL=
85442 12462 51709 10210 20170 40106 53012 60001 85500
  333 10245 56400 85613=
85467 12460 82209 10176 20138 40126 53004 60001 885//
  333 10235 56699 88615=
85469 42565 31010 10247 20182 40194 57009 83800
  333 56200 83820=
85488 12965 02805 10165 20135 40114 56028 60001
333 10213=
85500 NIL=
85556 NIL=
85558 NIL=
85564 NIL=
85574 12960 02014 10250 20065 40107 53007 60001
  333 10316=
85577 12960 02206 10253 20076 39528 40112 53008 60001
  333 10319=
0000060600
030
USAA01 NZCM 110000
TTAA 61001 89664
99997 00056 18501 00512 ///// ///// 92601 07158 18518
85255 11341 17017 70716 21114 15006 50514 33959 24513
40666 44759 24520 30855 51765 24023 25975 45585 24514
20124 43786 24513 15318 43586 26009 10592 41586 23504
88320 52361 23026
77999
31313 48008 82219=

0000069700
87361=
0000011200
87368
0000009600
87371
0000035800
87378
0000037300
87381=
0000039500
87413=
0000052000
87479=
0000056300
87590=
0000058500
87912
0000058500
88099
0000056500
88372=
0000069000
90573
0000066900
91686
0000005500
031
SMAA01 SAWB 110000 RRA
AAXX 11003
NIL
0000066800
032
USAA01 NZCM 110000
TTAA 61001 89664
99997 00056 18501 00512 ///// ///// 92601 07158 18518
85255 11341 17017 70716 21114 15006 50514 33959 24513
40666 44759 24520 30855 51765 24023 25975 45585 24514
20124 43786 24513 15318 43586 26009 10592 41586 23504
88320 52361 23026
77999
31313 48008 82219=

0000069700
87361=
0000011200
87368=
0000015000
87382
0000012800
87386
0000045600
87406
0000047700
87410
0000049800
87416=
0000045800
87478
0000043800
87484
0000050000
87523=
0000054300
87742
0000054300
87936
0000052300
88150
0000054400
88404=
0000064900
90615
0000067000
91660
00000000