0000066100
633
UDAF01 FAPR 110619
AMDAR 1106
DES AFZA09 2529S 02757E 110606 F183 MS060 270/005 TB0 S031 333 F/// VG000=
DES AFZA09 2537S 02759E 110608 F160 MS022 232/014 TB0 S031 333 F/// VG000=
DES AFZA09 2542S 02801E 110609 F146 MS022 253/016 TB0 S031 333 F/// VG000=
DES AFZA09 2545S 02801E 110610 F138 PS000 256/016 TB0 S031 333 F/// VG000=
DES AFZA09 2551S 02803E 110611 F118 PS060 266/015 TB0 S031 333 F/// VG000=
DES AFZA09 2600S 02806E 110612 F099 PS112 238/002 TB0 S031 333 F/// VG000=
DES AFZA09 2612S 02805E 110615 F081 PS159 128/007 TB0 S031 333 F/// VG000=
DES AFZA09 2610S 02814E 110620 F064 PS172 336/008 TB0 S031 333 F/// VG000=
0000066100
634
UDAF01 FAPR 110620
AMDAR 1106
LVR AFZA64 5020N 00120E 110602 F307 MS515 236/056 TB0 S031 333 F/// VG000=
DES AFZA64 5049N 00034E 110608 F184 MS258 267/041 TB0 S031 333 F/// VG000=
DES AFZA64 5052N 00029E 110609 F172 MS232 276/045 TB0 S031 333 F/// VG000=
DES AFZA64 5054N 00026E 110610 F160 MS212 276/037 TB0 S031 333 F/// VG000=
DES AFZA64 5059N 00017E 110611 F139 MS152 287/043 TB0 S031 333 F/// VG000=
DES AFZA64 5106N 00008E 110613 F118 MS112 285/045 TB0 S031 333 F/// VG000=
DES AFZA64 5115N 00004E 110615 F099 MS075 258/035 TB0 S031 333 F/// VG000=
UNS AFZA64 5119N 00012E 110620 F090 MS092 249/032 TB0 S031 333 F/// VG000=
0000066100
635
UDAF01 FAPR 110621
AMDAR 1106
LVR AFZA51 0616S 03308E 110530 F360 MS464 098/042 TB0 S031 333 F/// VG011=
LVR AFZA51 0707S 03314E 110538 F360 MS460 111/030 TB0 S031 333 F/// VG011=
LVR AFZA51 0758S 03320E 110545 F360 MS462 098/027 TB0 S031 333 F/// VG011=
LVR AFZA51 0849S 03326E 110552 F360 MS462 123/031 TB0 S031 333 F/// VG011=
LVR AFZA51 0939S 03315E 110559 F380 MS525 099/025 TB0 S031 333 F/// VG011=
LVR AFZA51 1030S 03301E 110606 F380 MS517 107/029 TB0 S031 333 F/// VG012=
LVR AFZA51 1120S 03248E 110613 F380 MS512 108/028 TB0 S031 333 F/// VG012=
LVR AFZA51 1210S 03234E 110620 F380 MS512 100/031 TB0 S031 333 F/// VG011=
0000066100
636
UDAF01 FAPR 110622
AMDAR 1106
ASC AFZA46 1538S 02829E 110534 F134 PS025 086/014 TB0 S031 333 F/// VG011=
ASC AFZA46 1542S 02829E 110535 F156 MS019 090/006 TB0 S031 333 F/// VG010=
LVR AFZA46 1600S 02829E 110538 F216 MS115 077/009 TB0 S031 333 F/// VG010=
LVR AFZA46 1651S 02829E 110545 F312 MS326 070/010 TB0 S031 333 F/// VG009=
LVR AFZA46 1744S 02828E 110552 F366 MS457 067/005 TB0 S031 333 F/// VG009=
LVR AFZA46 1837S 02827E 110559 F380 MS493 040/005 TB0 S031 333 F/// VG010=
LVR AFZA46 1930S 02827E 110606 F380 MS490 239/006 TB0 S031 333 F/// VG010=
LVR AFZA46 2022S 02826E 110613 F380 MS488 326/007 TB0 S031 333 F/// VG010=
0000050700
637
UDAF01 FAPR 110623
AMDAR 1106
LVR AFZA25 1937N 10924E 110530 F391 MS545 230/043 TB0 S031 333 F/// VG010=
LVR AFZA25 2014N 11013E 110537 F391 MS547 232/042 TB0 S031 333 F/// VG010=
LVR AFZA25 2042N 11107E 110544 F391 MS550 229/042 TB0 S031 333 F/// VG010=
LVR AFZA25 2103N 11205E 110551 F383 MS530 242/040 TB0 S031 333 F/// VG010=
LVR AFZA25 2121N 11300E 110558 F270 MS215 255/039 TB0 S031 333 F/// VG010=
UNS AFZA25 2140N 11343E 110605 F198 MS090 243/051 TB0 S031 333 F/// VG011=
0000026700
638
SMVX11 RJTD 110600
BBXX
SHIP    11064 99321 51700
41497 71431 10219 20141 40107 53010 70222 85141
22243 04224 20407 316// 40706=
SHIP    11064 99054 30845
41/98 30301 10280 20209 40130 50000 70300 82150
22214 04300 336// 40501 5//// 80230=
0000020200
639
SMNZ01 NZKL 110600 RRA
AAXX 11064
93800 16/// /0416 10139 20099 40143 57023 60001=
93805 16/// /3533 10143 20089 40088 57032 60001=
93947 16/// /3210 10102 20097 49944 57027 60031=
0000015400
640
UPSB01 VCCC 110600
PPAA  61051 43413 55285 13511 10515=
PPAA  6106/ 43418 NIL=
PPAA  61051 43466 NIL=
PPAA  61061 43497 55185 11008=
0000119500
641
SMPK40 OPKC 110600
AAXX 11064
41506 02997 03618 10065 21147 48586 60001 333
      58068 60007=
41508 22997 00000 10039 21011 48574 60001 333
      58025 60007=
41523 12997 00000 10090 21022 48561 60001 333
      58033 60007=
41535 12997 00000 10070 21036 48505 60001 333
      58014=
41536 12997 00000 10085 21013 48533 60001 333
      58029 60007=
41573 12997 03608 10050 21098 48525 60001 333
      58028=
41600 01995 03102 10115 20062 39900 40204 60001 70400 333
      58013 60007=
41630 11996 03104 10130 20056 40222 60001 70400 333
      58019=
41678 11996 00000 10130 20056 40230 60001 70400 333
      58020=
41696 12997 02302 10030 21089 38037 48564 60001 333
      58020 60007=
41697 02997 00000 10150 21005 40248 60001 333
      58037 60007=
41700 11995 10000 10140 20056 40203 60001 70400 80001 333
      56009 58016 81070=
41725 02996 20000 10140 20080 40219 60001 80001 333
      56009 58022 60007 82070=
41746 02996 23602 10120 20056 40244 60001 80001 333
      56009 58031 60007 82070=
41759 12996 73604 10165 20020 30221 40227 60001 87030 333
      56090 58012 87360=
41785 02997 00502 10160 20043 40222 60001 333
      58032 60007=
0000069300
642
UDEU02 EGRR 110627
AMDAR 1106
ASC EU1110   5206N 00443E 110602 F096 MS097 268/034 TB0 S031
333 F096 VG001=
ASC EU1110   5202N 00441E 110603 F115 MS135 261/029 TB0 S031
333 F115 VG001=
ASC EU1110   5157N 00440E 110603 F136 MS155 274/027 TB0 S031
333 F136 VG003=
ASC EU1110   5153N 00439E 110604 F157 MS185 278/033 TB0 S031
333 F157 VG003=
ASC EU1110   5151N 00438E 110604 F167 MS205 282/030 TB0 S031
333 F167 VG001=
LVR EU1110   5105N 00430E 110611 F290 MS462 258/045 TB0 S031
333 F290 VG000=
LVR EU1110   5020N 00405E 110618 F281 MS440 260/039 TB0 S031
333 F281 VG005=
LVR EU1110   4944N 00342E 110624 F185 MS232 277/029 TB0 S031
333 F185 VG000=
0000016000
643
SMRS12 RUMS 110600 CCA
AAXX 11061
22917 21368 80104 11066 21078 39891 49902 52033 60062 77173 8872/ 333
21067 48006 88709 91113 92980 93710=
0000139700
644
SMVX01 EDZW 110600
BBXX
62086 11061 99150 10064 46/// /0413 10075 20061 40058 57016
22270 00079=
A8MW8 11064 99347 70588 41297 80208 10145 20091 40315 54000
70300 8/6// 22263 04240 20804 333// 41207 80115=
A8YJ9 11064 99334 50522 41398 39902 10219 20198 40086 56016
70100 82145 22283 04241=
DBBA  11061 99541 10521 46/// ///// 10053 20038 40107 57013
22260 00066=
DBBC  11061 99536 10086 46/// /2006 10058 20050 40108 57013
22240 00064=
DBBI  11061 99535 10099 46/// /2404 10057 20051 40116 57010
22270 00049=
DBBU  11061 99547 10135 46/// /2411 10062 40093 57010 22210
00068=
DBEB  11061 99538 10081 41/// /2211 10064 20052 40101 57017
22200 00064=
DBFH  11061 99539 10087 46/// /2206 10062 20056 40104 57015
22220 00059=
DBFR  11061 99517 10030 46/// /2112 10070 20058 40128 57008
22222 00094=
DBJM  11061 99540 10085 46/// /2111 10062 40095 57017 22230
00063=
DBKV  11061 99543 10102 46/// /2403 10063 20054 40096 57012
22200 00063=
DJBF2 11064 99368 10011 41/98 /2408 10165 20106 40170 52014
70222 22224 00153 2//02=
LXCQ  11064 99219 30608 41/98 30919 10320 20221 40184 58016
70381 82462 22264 04280 2//05=
V2OB9 11064 99307 11225 41395 80406 10085 20006 40283 56020
71022 886// 22200 04180 20402 80050=
ZDKV8 11063 99111 31460 41597 80510 10270 20236 40065 57015
76062 8596/ 22273 04300 20201 313// 40503 80245=
0000190500
645
UDEU02 EGRR 110627 RRA
AMDAR 1106
ASC EU0530   5124N 00244W 110604 F015 PS032 312/019 TB/ S031=
ASC EU0530   5123N 00245W 110604 F022 PS020 315/023 TB/ S031=
ASC EU0530   5122N 00247W 110604 F027 PS005 315/025 TB/ S031=
ASC EU0530   5121N 00248W 110604 F033 PS000 305/026 TB/ S031=
ASC EU0530   5120N 00250W 110604 F041 MS010 306/028 TB/ S031=
ASC EU0530   5120N 00251W 110604 F050 MS025 306/029 TB/ S031=
ASC EU0530   5119N 00253W 110604 F063 MS042 302/029 TB/ S031=
ASC EU0530   5118N 00254W 110604 F074 MS070 309/028 TB/ S031=
ASC EU0530   5117N 00256W 110604 F085 MS100 307/032 TB/ S031=
ASC EU0530   5116N 00258W 110604 F106 MS087 299/048 TB/ S031=
ASC EU0530   5112N 00259W 110605 F122 MS112 280/055 TB/ S031=
ASC EU0530   5109N 00300W 110605 F145 MS167 270/057 TB/ S031=
ASC EU0530   5105N 00302W 110605 F165 MS220 268/058 TB/ S031=
ASC EU0530   5102N 00303W 110606 F182 MS262 272/064 TB/ S031=
ASC EU0530   5058N 00305W 110606 F196 MS305 277/067 TB/ S031=
ASC EU0530   5054N 00306W 110606 F211 MS337 279/065 TB/ S031=
ASC EU0530   5050N 00308W 110607 F226 MS377 277/060 TB/ S031=
ASC EU0530   5046N 00309W 110607 F242 MS415 268/050 TB/ S031=
ASC EU0530   5042N 00311W 110607 F259 MS452 255/056 TB/ S031=
ASC EU0530   5038N 00312W 110608 F268 MS472 264/060 TB/ S031=
ASC EU0530   5034N 00314W 110608 F278 MS495 267/060 TB/ S031=
ASC EU0530   5030N 00315W 110608 F291 MS512 249/053 TB/ S031=
ASC EU0530   5025N 00317W 110609 F301 MS530 251/061 TB/ S031=
ASC EU0530   5021N 00319W 110609 F310 MS552 252/059 TB/ S031=
ASC EU0530   5017N 00320W 110609 F318 MS565 250/062 TB/ S031=
ASC EU0530   5012N 00322W 110610 F327 MS575 251/056 TB/ S031=
ASC EU0530   5008N 00322W 110610 F337 MS565 253/063 TB/ S031=
ASC EU0530   5003N 00323W 110610 F347 MS560 240/058 TB/ S031=
ASC EU0530   4959N 00323W 110611 F352 MS570 253/059 TB/ S031=
0000190500
646
UDEU02 EGRR 110627 RRB
AMDAR 1106
ASC EU7011   5109N 00012W 110606 F013 PS062 286/020 TB/ S031=
ASC EU7011   5110N 00012W 110606 F020 PS045 297/022 TB/ S031=
ASC EU7011   5110N 00012W 110606 F025 PS032 290/019 TB/ S031=
ASC EU7011   5111N 00012W 110606 F030 PS020 287/022 TB/ S031=
ASC EU7011   5111N 00012W 110606 F034 PS017 283/018 TB/ S031=
ASC EU7011   5111N 00012W 110606 F040 PS012 271/022 TB/ S031=
ASC EU7011   5112N 00012W 110606 F045 PS005 264/027 TB/ S031=
ASC EU7011   5112N 00012W 110606 F050 MS010 261/026 TB/ S031=
ASC EU7011   5113N 00012W 110606 F053 MS017 265/032 TB/ S031=
ASC EU7011   5114N 00011W 110606 F060 MS027 264/033 TB/ S031=
ASC EU7011   5115N 00005W 110607 F076 MS057 258/038 TB/ S031=
ASC EU7011   5116N 00000E 110607 F099 MS080 257/036 TB/ S031=
ASC EU7011   5117N 00006E 110607 F121 MS107 288/048 TB/ S031=
ASC EU7011   5118N 00013E 110608 F140 MS150 281/055 TB/ S031=
ASC EU7011   5119N 00020E 110608 F162 MS202 282/048 TB/ S031=
ASC EU7011   5118N 00027E 110608 F180 MS250 273/049 TB/ S031=
ASC EU7011   5118N 00034E 110609 F199 MS287 255/046 TB/ S031=
ASC EU7011   5117N 00041E 110609 F217 MS335 255/047 TB/ S031=
ASC EU7011   5116N 00049E 110609 F233 MS367 247/048 TB/ S031=
ASC EU7011   5116N 00056E 110610 F247 MS397 245/053 TB/ S031=
ASC EU7011   5115N 00104E 110610 F260 MS427 243/057 TB/ S031=
ASC EU7011   5114N 00112E 110610 F272 MS450 240/061 TB/ S031=
ASC EU7011   5113N 00120E 110611 F284 MS480 239/063 TB/ S031=
ASC EU7011   5113N 00128E 110611 F295 MS495 237/067 TB/ S031=
ASC EU7011   5112N 00137E 110611 F305 MS507 236/068 TB/ S031=
ASC EU7011   5111N 00145E 110612 F314 MS530 239/068 TB/ S031=
ASC EU7011   5110N 00154E 110612 F324 MS550 244/070 TB/ S031=
ASC EU7011   5109N 00202E 110612 F337 MS555 237/074 TB/ S031=
ASC EU7011   5108N 00211E 110613 F349 MS580 238/068 TB/ S031=
0000190500
647
UDEU02 EGRR 110627 RRC
AMDAR 1106
ASC EU6270   4615N 00607E 110608 F020 PS042 123/001 TB/ S031=
ASC EU6270   4614N 00606E 110608 F028 PS042 244/003 TB/ S031=
ASC EU6270   4614N 00604E 110608 F036 PS055 205/006 TB/ S031=
ASC EU6270   4613N 00603E 110608 F044 PS087 195/015 TB/ S031=
ASC EU6270   4612N 00601E 110608 F048 PS077 209/021 TB/ S031=
ASC EU6270   4611N 00600E 110608 F052 PS080 211/022 TB/ S031=
ASC EU6270   4610N 00559E 110608 F058 PS065 215/027 TB/ S031=
ASC EU6270   4610N 00557E 110608 F067 PS040 220/029 TB/ S031=
ASC EU6270   4609N 00556E 110608 F078 PS012 221/027 TB/ S031=
ASC EU6270   4608N 00554E 110608 F103 MS050 230/023 TB/ S031=
ASC EU6270   4606N 00550E 110609 F115 MS075 222/016 TB/ S031=
ASC EU6270   4604N 00546E 110609 F134 MS117 226/019 TB/ S031=
ASC EU6270   4602N 00542E 110609 F160 MS162 241/032 TB/ S031=
ASC EU6270   4600N 00537E 110610 F178 MS210 248/036 TB/ S031=
ASC EU6270   4559N 00532E 110610 F197 MS260 250/037 TB/ S031=
ASC EU6270   4559N 00526E 110610 F213 MS287 246/043 TB/ S031=
ASC EU6270   4558N 00521E 110611 F235 MS325 249/053 TB/ S031=
ASC EU6270   4558N 00515E 110611 F246 MS355 245/055 TB/ S031=
ASC EU6270   4558N 00510E 110611 F266 MS400 247/055 TB/ S031=
ASC EU6270   4558N 00504E 110612 F279 MS440 248/054 TB/ S031=
ASC EU6270   4558N 00459E 110612 F280 MS445 246/055 TB/ S031=
ASC EU6270   4557N 00453E 110612 F280 MS442 246/054 TB/ S031=
ASC EU6270   4557N 00448E 110613 F280 MS445 246/055 TB/ S031=
ASC EU6270   4557N 00442E 110613 F280 MS445 246/055 TB/ S031=
ASC EU6270   4557N 00437E 110613 F280 MS445 245/055 TB/ S031=
ASC EU6270   4557N 00431E 110614 F280 MS445 246/055 TB/ S031=
ASC EU6270   4556N 00425E 110614 F280 MS445 246/056 TB/ S031=
ASC EU6270   4556N 00420E 110614 F280 MS445 245/056 TB/ S031=
ASC EU6270   4556N 00414E 110615 F280 MS445 245/056 TB/ S031=
0000212400
648
SMRA15 RUHB 110600
AAXX 11061
21432 41998 02405 11298 21321 30262 40283 52008 70230=
21824 42998 62002 11348 21377 30318 40328 57011 82031=
21908 42999 20000 11438 21457 30198 40292 57001 80002=
21921 42999 00000 11459 21480 30314 40367 57001=
21931 41997 80000 11272 21290 30283 40318 57001 77172 80007=
21946 41498 80304 11225 21237 30230 40315 51001 77872 885// 333
88618=
21978 42998 00000 11319 21350 30248 40256 57004 333 91112=
21982 12998 22701 11252 21284 30176 40206 57016 60002 80001 333 11220
91104=
25042 42998 00000 11326 21361 30239 40259 57001 333 91102=
25044 42999 00000 11332 21362 30255 40262 53005 333 91102=
25051 42998 00000 11330 21367 30256 40264 57004 333 91101=
25062 12999 02303 11347 21359 30248 40252 57019 60002 333 11340
91105=
25123 42996 21501 11388 21405 30235 40272 53004 82070=
25129 42999 80000 11401 21427 30258 40271 53004 83034 333 91100=
25138 42599 41301 11396 21422 30129 40271 53003 82530 333 91101=
25147 42999 02601 11365 21394 39869 40276 57002 333 91105=
25151 NIL=
25173 NIL=
25248 NIL=
25282 12584 23205 11256 21274 30197 40204 57028 60002 82500 333 11256
91108=
25325 NIL=
25335 42998 00000 11437 21456 39855 40284 53002 333 91102=
25356 12999 50000 11247 21302 30088 40196 57017 60002 80004 333 11164
91000=
25399 11459 70107 11195 21228 30120 40130 57004 69902 78583 87900 333
11156 91113=
25428 41956 70000 11424 21448 39876 40263 53004 71011 81031 333
91101=
25469 11999 03101 11207 21247 30145 40170 53002 60002 70230 333 11192
91108=
25551 12998 30202 11201 21250 30140 40173 53002 60002 82041 333 11///
91107=
25561 12999 10502 11236 21268 30164 40175 53003 60002 80001 333 11194
91004=
25563 11970 30413 11173 21199 30054 40136 53004 60002 73730 80001 333
11162 91017 91122=
25594 NIL=
25677 NIL=
25767 NIL=
31054 41997 82901 11370 21404 30058 40371 57001 77172 8802/=
31087 NIL=
31123 NIL=
21535 NIL=
21608 NIL=
21636 NIL=
21711 NIL=
21721 NIL=
21813 NIL=
21821 NIL=
21937 41698 80000 11336 21359 30196 40331 54000 77172 885// 333
88638=
0000003800
649
UKDL01 EDZW 110600
NIL
0000099400
650
UKDL02 EDZW 110600
TTBB ///// 10113 NIL=
TTBB ///// 10184 NIL=
TTBB 11058 10393
00001 03223 11954 03027 22850 04512 33826 04561 44821
04958 55809 05364 66806 05760 77796 05971 88790 06563
99786 06572 11782 06960 22772 07561 33760 07374 44753
06973 55737 07566 66727 06980 77715 06772 88706 07361
99650 13145 11644 13356 22639 12964 33636 12760 44631
10572 55628 10773 66625 10572 77622 10560 88597 13328
99553 17120 11512 20323 22436 29516 33341 44130 44253
57343 55202 65158 66179 57570 77130 54383 88100 57382
21212 00001 23004 11961 27013 22897 28512 33796 27512
44731 29510 55712 31511 66657 30012 77644 30515 88633
28518 99620 28520 11530 27524 22498 28525 33374 27023
44310 26530 55289 28026 66259 27529 77247 29030 88208
28532 99196 29530 11186 28027 22171 29030 33161 30021
44144 29023 55130 31023 66121 30024 77112 31021 88100
31521
31313 48008 80454
41414 35500
51515 11884 28512 22800 27511 33600 29019=
TTBB ///// 10548 NIL=
0000009600
651
SMAL53 EUMS 110600 RRA
AAXX 11064
60662 36/// /0000 10103 21079
  333 20098=
0000009600
652
SMAL52 EUMS 110600 RRA
AAXX 11064
60633 36/// /0310 10089 21032
  333 20078=
00000000