0000016200
053
SMMW01 FWCL 110600 RRA
AAXX 11060
67586 32580 73205 10230 20195 38805 48528 81138 333 20190 50511 55/// 58011 81820 84359 87280 555 10270 7//62=
0000011000
054
UANT99 KDDL 110615
ARP VIR76X 5258N02000W 0615 F370 MS61 226/80 KT
GVROS DDL XXF 110616 F34A
0000011000
055
UANT99 KDDL 110615
ARP DLH457 5603N03736W 0615 F330 MS58 227/20 KT
DABYA QXT AME 110616 F63A
0000011000
056
UANT99 KDDL 110615
ARP QTR722 5527N04632W 0615 F290 MS55 290/84 KT
A7BAB QXT AOW 110616 F14A
0000011100
057
UANT99 KDDL 110616
ARP DAL403 4757N03552W 0615 F350 MS49 234/19 KT
N840MH QXT AOW 110616 F37A
0000011000
058
UANT99 KDDL 110616
ARP FWI541 4529N01105W 0616 F370 MS63 268/46 KT
FOFDF QXS SCQ 110616 J74A
0000011100
059
UANT99 KDDL 110616
ARP UAL909 5604N03257W 0616 F350 MS58 212/47 KT
N652UA DDL XXW 110616 F79A
0000084100
060
SMIN90 VECC 110600 RRA
AAXX 11064
42807 31996 03201 10250 20134 40167 70500
  333 59001=
42708 31996 00203 10234 20154 40175 70500
  333 59001=
42217 31595 80000 10108 20059 38795 48605 70522 887//
  333 58022=
42706 31995 00702 10228 20123 40166 70500
  333 59001=
42403 31995 62904 10180 20118 40191 70511 86050
  333 58017=
43333 31495 70706 10292 20234 40134 70521 86401
  333 56109 58009 83616 84818 86070=
42503 31593 83203 10176 20130 40195 74454 8552/
  333 58013=
42399 21395 80000 10160 20124 40194 76160 8672/
  333 58024 6992/=
42811 32696 23401 10240 20138 40172 81430
  333 59003=
42901 32996 01102 10254 20159 40165
  333 58002=
42806 32996 00000 10244 20162 40170
  333 59002=
42299 21395 80000 10076 20034 38227 48539 72022 8763/
  333 58014 6990/ 81709 86617=
0000019300
061
SMIN90 VANP 110600
AAXX 11064
42867 31595 72305 10246 20165 40151 70544 82577
  333 58007 82625 84360 86270=
42933 32997 32902 10236 20066 40159 80001
  333 58018 83075=
0000011000
062
UANT99 KDDL 110616
ARP ACA888 5103N03948W 0616 F360 MS55 300/29 KT
CGLCA DDL IG1 110616 F39A
0000009400
063
SNAA01 KARS 110600 RRA
AAXX 1106/
89879 46/// ///// 10024 39897 4//// 5////=
0000003900
064
SMVC01 ESWI 110600
NIL=
0000003900
065
SMVJ01 ESWI 110600
NIL=
0000047000
066
SZPA01 AMMC 110618
CREX++
T000103 A001 D01021 D06025++
0136250 17293000 67590 2014 01 11 06 11 3017 11 07 00 01
01510 -0002 01509 0001 01509 0004 01503 0001 01501 0003 01504 0009+
0710610 17137250 67680 2014 01 11 06 11 3013 11 07 00 01
00994 0121 00994 0124 00992 0124 00989 0123 00988 0125 00985 0124+
0698060 15820000 67950 2014 01 11 06 11 3025 11 07 00 01
00746 -0001 00747 0002 00745 0002 00744 0003 00738 -0001 00738 0001++
7777

0000191300
067
SZAU01 AMMC 110618
CREX++
T000103 A001 D01021 D06025++
-1927750 14705860 59260 2014 01 11 06 11 3030 11 07 00 01
02045 0228 02042 0219 02045 0217 02054 0220 02058 0219 02066 0221+
-2316110 15079000 59670 2014 01 11 06 11 3003 11 07 00 01
02824 0084 02833 0084 02854 0096 02864 0098 02874 0097 02889 0104+
-3447330 15091170 60420 2014 01 11 06 11 2950 11 07 00 01
01052 -0016 01040 -0030 01035 -0036 01033 -0039 01034 -0040 01036 -0039+
-4105000 14591500 60910 2014 01 11 06 11 2893 11 07 00 01
01432 -0022 01442 -0024 01463 -0013 01468 -0020 01477 -0021 01478 -0029+
-4254640 14793080 61170 2014 01 11 06 11 2895 11 07 00 01
01262 0072 01269 0078 01275 0083 01274 0081 01274 0080 01272 0077+
-3834390 14161360 61410 2014 01 11 06 11 2905 11 07 00 01
00442 0047 00457 0060 00461 0063 00467 0068 00439 0039 00446 0045+
-3214890 13364170 62000 2014 01 11 06 11 2963 11 07 00 01
01120 0173 01125 0175 01127 0174 01130 0175 01133 0175 01137 0176+
-3387080 12189720 62080 2014 01 11 06 11 2947 11 07 00 01
00798 0099 00800 0101 00803 0103 00802 0101 00800 0099 00804 0102+
-3182560 11573860 62237 2014 01 11 06 11 2970 11 07 00 01
00857 0078 00854 0074 00857 0076 00856 0074 00862 0080 00865 0082+
-2422000 11339750 62385 2014 01 11 06 11 //// 11 07 00 01
01155 -0073 01127 -0103 01174 -0057 01162 -0071 01184 -0051 01149 -0087+
-2181670 11419110 62430 2014 01 11 06 11 //// 11 07 00 01
01718 -0037 01714 -0043 01725 -0034 01722 -0040 01735 -0029 01728 -0038+
-1800080 12221830 62650 2014 01 11 06 11 3043 11 07 00 01
05205 0143 05212 0142 05219 0139 05225 0137 05231 0137 05237 0131+
-1247190 13084580 63230 2014 01 11 06 11 3050 11 07 00 01
05556 0153 05553 0150 05551 0152 05553 0155 05553 0158 05552 0160+
-1386000 13641580 63511 2014 01 11 06 11 3045 11 07 00 01
01541 0082 01544 0083 01545 0082 01546 0082 01547 0082 01548 0082++
7777

0000034100
068
SZIO01 AMMC 110618
CREX++
T000103 A001 D01021 D06025++
-1211670 09689190 46280 2014 01 11 06 11 3015 11 07 00 01
01252 0059 01252 0058 01240 0044 01240 0043 01243 0044 01246 0046+
-1042940 10566940 46290 2014 01 11 06 11 //// 11 07 00 01
01225 0029 01228 0030 01263 0063 01226 0024 01237 0032 01264 0057++
7777

0000179100
069
SZPS01 AMMC 110618
CREX++
T000103 A001 D01021 D06025++
-0204190 14737360 56130 2014 01 11 06 11 3028 11 07 00 01
01090 0065 01089 0066 01086 0064 01087 0066 01083 0064 01081 0063+
-0669280 15640860 56363 2014 01 11 06 11 //// 11 07 00 01
00685 -0086 00681 -0088 00682 -0085 00685 -0079 00684 -0078 00688 -0071+
-0942890 15995560 56670 2014 01 11 06 11 3043 11 07 00 01
00814 -0055 00811 -0057 00810 -0057 00815 -0051 00810 -0055 00809 -0055+
-1072080 16580190 57131 2014 01 11 06 11 //// 11 07 00 01
03381 2693 03379 2694 03379 2697 03378 2700 03380 2705 03380 2709+
-1551560 16718860 57210 2014 01 11 06 11 //// 11 07 00 01
00900 -0084 00890 -0090 00887 -0089 00885 -0087 00873 -0095 00875 -0089+
-1775690 16830030 57320 2014 01 11 06 11 3015 11 07 00 01
01002 -0056 01003 -0052 01002 -0050 00999 -0049 00997 -0048 00993 -0048+
-4397330 16861610 65180 2014 01 11 06 11 2888 11 07 00 01
02142 0355 02133 0342 02132 0336 02138 0338 02156 0352 02156 0347+
-2120470 -15978530 65980 2014 01 11 06 11 3013 11 07 00 01
00689 0016 00660 -0011 00703 0034 00660 -0008 00686 0020 00694 0030+
-2113810 -17518140 66600 2014 01 11 06 11 //// 11 07 00 01
01183 0095 01175 0091 01164 0085 01162 0087 01155 0085 01148 0082+
-1382670 -17176110 66840 2014 01 11 06 11 3010 11 07 00 01
00730 0040 00714 0027 00722 0038 00712 0031 00724 0046 00721 0046+
-1813250 17842750 67050 2014 01 11 06 11 3032 11 07 00 01
01378 0109 01369 0105 01363 0104 01357 0102 01358 0108 01351 0106+
-1760530 17743810 67070 2014 01 11 06 11 3033 11 07 00 01
01394 0018 01389 0018 01384 0019 01377 0017 01372 0017 ///// ////+
-0850250 17919500 67440 2014 01 11 06 11 3030 11 07 00 01
01913 -0010 01918 0000 01916 0002 01912 0002 01905 -0001 01904 0002++
7777

0000010000
070
SMAU40 AMMC 110600 CCA
AAXX 11064
94210 46/// /2212 10310 30073 40079 58022=


0000066000
071
SMMO01 MNUB 110600
AAXX 11060
44214 32998 32706 11127 21255 38337 40426 58013 80008
333 91110 91207=
44231 31998 70000 11137 21244 38792 40417 57013 70421
80009 333 91201=
44259 32997 20306 11153 21243 39387 40356 53018 82030
333 91206=
44277 32999 02001 11130 21273 37857 40458 58012 333
91202=
44288 32999 01602 11103 21163 38226 40409 57011 333
91204=
44292 31995 02504 11198 21247 38791 40476 58007 70400
333 91205=
44304 32999 22906 11102 21165 39056 40354 58008 81041
333 91206=
44354 32999 03104 11067 21207 39194 40367 52001 333
91207=
44373 32699 13105 11098 21189 38622 40395 58006 81100
333 91208=
0000023800
072
SWVD12 LFPW 110600
MMXX 41300 11014 0600/ 71551 05728 00011 15400 20337 30090
11130 0005/ 1024/ 30/// 14054 11174
22227 11307 10001 30422 58586 70022 94714 13728 30816
51207 70605 90603 10405 30404 50501 70201 90100=
00000000