0000056900
873
SADL31 EDZO 102120
METAR EDDF 102120Z VRB02KT 9999 FEW040 BKN250 02/01 Q1019 NOSIG=
METAR EDDH 102120Z 25009KT 9999 BKN016 06/04 Q1013 NOSIG=
METAR EDDK 102120Z 13004KT CAVOK 04/01 Q1018 NOSIG=
METAR EDDL 102120Z 21008KT 9999 FEW040 BKN240 04/02 Q1017 NOSIG=
METAR EDDM 102120Z 08002KT CAVOK M01/M01 Q1020 NOSIG=
METAR EDDN 102120Z 11003KT 9999 SCT036 02/01 Q1019=
METAR EDDS 102120Z 26002KT 9999 FEW024 01/M01 Q1019=
METAR EDDT 102120Z 24011KT 9999 SCT025 SCT050 05/01 Q1014 NOSIG=
METAR EDDV 102120Z 24008KT 9999 FEW035 05/03 Q1015=

0000042700
874
SADL32 EDZO 102120
METAR EDDB 102120Z 24011KT 9999 BKN028 BKN048 05/01 Q1015 NOSIG=
METAR EDDC 102120Z 24006KT 9999 BKN040 04/01 Q1016=
METAR EDDE 102120Z 23008KT CAVOK 02/00 Q1017=
METAR EDDG 102120Z 21006KT 9999 FEW042 05/03 Q1016 NOSIG=
METAR EDDP 102120Z 22010KT CAVOK 04/03 Q1017 NOSIG=
METAR EDDR 102120Z 06002KT CAVOK 01/M00 Q1018 NOSIG=
METAR EDDW 102120Z 23008KT 9999 FEW026 05/03 Q1013=

0000009500
875
SASP40 LEMM 102100 RRA
METAR LEMO 102100Z 00000KT CAVOK 09/09 Q1014
NOSIG=

0000012000
876
SAEU31 BKPR 102130
BKPR 102130Z 00000KT 0300 R17/0225 FG BKN002 M01/M02 Q1022 NOSIG RMK
 17010095 =

0000019300
877
FTCN34 CWAO 102100 AAA
TAF AMD CYEN 102123Z 1021/1024 30010KT 6SM -SN SCT012 OVC025 TEMPO
     1021/1024 2SM -SN BKN008 OVC015
    RMK NXT FCST WILL BE ISSUED AT 111145Z=

0000010100
878
SPKO31 RKSI 102122
SPECI RKSS 102122Z 34001KT 2800 BR SCT030 M09/M12 Q1032 NOSIG =

0000009700
879
SPCN51 CWAO 102122
SPECI CZCP 102122Z AUTO 29022KT 1 1/4SM -SN CLR M32/ A2940=

0000052000
880
SADN31 EKCH 102120
METAR EKCH 102120Z 26013KT 9999 SCT018 BKN040 06/04 Q1007 NOSIG=
METAR EKBI 102120Z 24007KT 9999 FEW017 BKN035 05/04 Q1007=
METAR EKYT 102120Z 25014KT 9999 FEW031 BKN040 07/05 Q1004=
METAR EKRK 102120Z AUTO 26015KT 9999NDV FEW032/// BKN041///
BKN160/// 05/04 Q1007=
METAR EKAH 102120Z AUTO 25011KT 220V300 9999NDV DZ  BKN014///
06/04 Q1006=
METAR EKEB 102120Z AUTO 24012KT 9999NDV BKN034/// 06/04 Q1008=
METAR EKRN 102120Z AUTO 27022KT 9999NDV BKN017/// 06/06 Q1007=

0000016500
881
SADN32 EKCH 102120
METAR EKVJ 102123Z NIL=
METAR EKSB 102123Z NIL=
METAR EKSN 102123Z NIL=
METAR EKVD 102123Z NIL=
METAR EKOD 102123Z NIL=

0000047000
882
SADN34 EKCH 102120
METAR EKHN 102120Z AUTO 25013G23KT 200V270 8000NDV SCT015///
///// Q1010=
METAR EKHR 102120Z AUTO 26017KT 9999NDV FEW016/// 07/05 Q1008=
METAR EKHA 102120Z AUTO 23026KT 9999NDV 07/06 Q1009=
METAR EKHD 102120Z AUTO 23023KT 9999NDV 07/06 Q1005=
METAR EKTE 102120Z AUTO 22021KT 9999NDV FEW007 07/05 Q1008=
METAR EKGC 102120Z AUTO 23028KT 9999NDV 07/06 Q1007=
METAR EKAV 102120Z AUTO 25016KT 9999NDV OVC025/// 06/04 Q1005=

0000009200
883
FTBH31 MZBZ 102125
TAF MZBZ 102125Z 1100/1124 11008KT 9999 SCT022 SCT045=

0000012600
884
SAEU31 BKPR 102130 CCA
BKPR 102130Z 00000KT 0300 R17/0225 FZFG BKN002 M01/M02 Q1022 NOSIG
 RMK 17010095 =

0000016800
885
FTCN36 CWAO 102100 AAA
TAF AMD CYHA 102123Z 1021/1022 27015KT P6SM BKN020 TEMPO 1021/1022
     SCT020
    RMK NXT FCST WILL BE ISSUED AT 111445Z=

0000018200
886
FTCN34 CWAO 102100 AAA
TAF AMD CYPL 102123Z 1021/1102 18008KT 1SM -SN BR OVC003 TEMPO
     1021/1102 3SM -SN OVC007
    RMK NXT FCST WILL BE ISSUED AT 111245Z=

0000043900
887
SAGR32 LGAT 102120
METAR LGAL 102120Z NIL=
METAR LGEL 102120Z NIL=
METAR LGIO 102120Z AUTO 00000KT //// // ////// 07/06 Q1022
     RE//=
METAR LGKV 102120Z NIL=
METAR LGMT 102120Z NIL=
METAR LGPZ 102120Z AUTO VRB03KT //// // ////// 11/10 Q1023
     RE//=
METAR LGRX 102120Z NIL=
METAR LGSK 102120Z NIL=
METAR LGSR 102120Z AUTO 23014KT //// // ////// 15/10 Q1020
     RE//=
METAR LGZA 102120Z NIL=

0000013100
888
SAUK31 EGGY 102120 CCA
METAR COR EGCC 102120Z 19011KT 9999 FEW016 SCT022 BKN027 07/06 Q1008
     TEMPO BKN014=

0000011100
889
SAUK31 EGGY 102120 CCB
METAR COR EGLL 102120Z 20008KT 170V260 9999 FEW011 08/07 Q1013 NOSIG=

0000028100
890
FTCA35 KWBC 102124
TAF
MNPC 102120Z 1100/1124 10010KT 6000 VCRA/DZ BKN016TCU SCT090
      TEMPO 1104/1112 00000KT SCT017
      BECMG 1115/1120 09014KT 5000 DZ SCT022
      TEMPO 1116/1123 7000 -RA=
TAF MZBZ 102125Z 1100/1124 11008KT 9999 SCT022 SCT045=

0000015800
891
FTMX31 KWBC 102124
TAF
MNMG 102120Z 1100/1124 07014KT 9999 FEW025
      TEMPO 1104/1109 00000KT
      BECMG 1115/1120 11016KT SCT021=

0000023800
892
FTUS52 KWBC 102124 AAA
TAF AMD
KTEX 102123Z 1021/1118 32008KT 4SM -SN BKN012 OVC025
      TEMPO 1021/1023 2SM -SN BR OVC012
     FM110300 16005KT P6SM VCSH SCT015 BKN025
     FM111000 VRB03KT P6SM SCT025 BKN060=

00000000