0000054000
373
SANO38 ENMI 102020
METAR ENDR 102020Z AUTO 06031KT M03/M10 Q1001=
METAR ENEK 102020Z NIL=
METAR ENGC 102020Z NIL=
METAR ENHE 102020Z 09026KT 0500 -SHSN BKN011 M03/M05 Q1003 W///S5=
METAR ENOA 102020Z NIL=
METAR ENSL 102020Z AUTO 27020KT 9999NDV -DZ SCT015/// BKN034/// 08/05
           Q1001 W06/S4=
METAR ENFB 102020Z AUTO 08021KT 9999NDV FEW023/// SCT041/// BKN065///
           05/00 Q0998 W///S5=
METAR ENSF 102020Z AUTO 08020KT 9999NDV FEW022/// BKN042/// BKN059///
           05/01 Q0998 W///S5=

0000021800
374
SANO34 ENMI 102020
METAR ENBN 102020Z NIL=
METAR ENBV 102020Z NIL=
METAR ENFG 102020Z NIL=
METAR ENHF 102020Z NIL=
METAR ENRA 102020Z 11010G20KT CAVOK M10/M19 Q1010=
METAR ENSH 102020Z NIL=

0000050600
375
SAAE33 VTBB 111000
METAR VVTS 111000Z 18008KT 140V210 9999 FEW017 BKN040 29/21 Q1011
      NOSIG =
METAR VVNB 111000Z VRB02KT 2900 BR FEW015 BKN060 18/13 Q1020 NOSIG=
METAR VVDN 111000Z 36006KT 6000 FEW015 BKN060 22/19 Q1018 NOSIG=
METAR VVPB 111000Z 03004KT 4000 BR SCT013 BKN040 22/20 Q1018 NOSIG=
METAR VVCR 111000Z 03013KT 7000 FEW017 SCT040 BKN100 25/20 Q1015
NOSIG=
METAR VVCT 111000Z VRB01KT 9999 FEW015 30/21 Q1011 NOSIG=
METAR VVPQ 111000Z 13004KT 090V150 CAVOK 27/21 Q1011 NOSIG=

0000010100
376
SPCN44 CWAO 102025
SPECI CYMJ 102025Z 00000KT 1 3/4SM BR SCT006 OVC090 RMK SC4AC4=

0000009800
377
SPUS31 KWBC 102025
SPECI
KORD 102021Z 14011KT 2SM -RA BR OVC005 02/M01 A2976=

0000009700
378
SPUS41 KWBC 102025
SPECI
KINT 102021Z 05006KT 9SM BKN003 OVC012 04/03 A3022=

0000010500
379
SPCN52 CWAO 102025
SPECI CWFD 102025Z AUTO 22013KT 1/8SM CLR M21/ A2882 RMK ICG INTMT=

0000047100
380
SAFI33 EFHK 102020
EFJO 102020Z AUTO 02012KT 340V060 9999 -SN FEW013 OVC070 M09/M10
Q0993=
EFLP 102020Z 36011G23KT 330V050 4000 -SN FEW008 BKN011 OVC024 M05/M07
Q0989=
EFMI 102020Z AUTO VRB05KT 9999 -SG OVC011 M06/M07 Q0992=
EFSA 102020Z AUTO 35010KT 310V030 9999 -SN FEW014 SCT017 BKN047
OVC065 M08/M10 Q0991=
EFUT 102020Z AUTO 36011KT 330V030 9999 OVC010 M05/M06 Q0990=
EFVR 102020Z AUTO 02011KT 350V050 0600 +SN OVC014 M07/M10 Q0993=

0000084900
381
SAIY31 LIIB 102020
METAR LIEA 102020Z 01004KT 1700 0300W R20/0900VP1500D PRFG NSC
08/08 Q1020=
METAR LIEE 102020Z 18004KT CAVOK 12/12 Q1019=
METAR LIEO 102020Z VRB01KT 9000 4000S R05/1200VP1500D BCFG NSC
05/05 Q1022=
METAR LIMC 102020Z 32001KT 9999 BKN040 08/06 Q1021 NOSIG=
METAR LIME 102020Z 13004KT 2000 BR BKN005 08/07 Q1021=
METAR LIMF 102020Z 06003KT 9999 BKN030 08/05 Q1021=
METAR LIMJ 102020Z 19004KT 9999 SCT020 BKN040 13/10 Q1021=
METAR LIML 102020Z 09005KT 8000 BKN035 09/08 Q1022 NOSIG=
METAR LIRA 102015Z 00000KT 8000 SCT030 BKN070 11/09 Q1022=
METAR LIRF 102020Z 03003KT 9999 BKN030 11/09 Q1022 NOSIG=
METAR LIRN 102020Z 01003KT 340V080 5000 BR BKN030 12/07 Q1022=
METAR LIRP 102015Z 07002KT 9999 FEW030 BKN050 10/08 Q1021 NOSIG=
METAR LIRQ 102020Z VRB02KT 9999 FEW020 BKN035 12/11 Q1022=

0000004200
382
FCSP31 LEMM 102000
NIL=

0000024000
383
FCSP32 LEMM 102000
TAF LEAB 102000Z 1021/1106 15005KT 9999 FEW012 BECMG 1022/1024
BKN012 PROB30 TEMPO 1104/1106 2000 BR BKN008=
TAF LELN 102000Z NIL=
TAF LESA 102000Z 1021/1106 09002KT CAVOK=
TAF LEVS 102000Z NIL=

0000011700
384
FTRH32 LDZM 101700 AAA
TAF AMD LDZD 102025Z 1020/1118 10004KT 9999 BKN055 TX14/1112Z
TN06/1106Z=

0000004200
385
FTSP37 LEMM 102000
NIL=

0000036700
386
FTCR32 LEMM 102000
TAF GCFV 102000Z 1021/1121 34006KT 9999 FEW020 TX21/1112Z
TN13/1107Z=
TAF GCGM 102000Z 1021/1121 VRB04KT CAVOK TX20/1114Z TN15/1107Z=
TAF GCHI 102000Z 1021/1121 02011KT 9999 FEW030 TX21/1114Z
TN17/1107Z PROB40 1111/1116 15012KT=
TAF GCLA 102000Z 1021/1121 31008KT CAVOK TX22/1113Z TN15/1107Z
PROB40 1111/1117 18010KT=

0000016600
387
FTSP38 LEMM 102000
TAF GEML 102000Z 1021/1121 09008KT 9999 BKN010 TX17/1115Z
TN11/1106Z TEMPO 1021/1110 3000 BR BKN005 TEMPO 1110/1118
5000 RA=

0000063300
388
SAIY32 LIIB 102020
METAR LIBD 102020Z 24004KT 8000 NSC 08/08 Q1022=
METAR LIBR 102015Z 23005KT 9999 FEW020 09/08 Q1021 NOSIG=
METAR LICC 102020Z NIL=
METAR LICJ 102020Z 20006KT CAVOK 11/08 Q1022=
METAR LIPE 102020Z VRB02KT 0200 R12/0900V1200D FG VV/// 07/07
Q1022=
METAR LIPH 102015Z /////KT 1700 BR SCT020 SCT035 06/06 Q1021=
METAR LIPQ 102020Z 00000KT 1000 R09/1700 BR SCT008 BKN012 08/06
Q1021=
METAR LIPR 102015Z /////KT 8000 BKN045 10/10 Q1020=
METAR LIPX 102015Z 00000KT 1000 R04/P1500U BR SCT010 BKN045 08/06
      Q1022=
METAR LIPZ 102020Z VRB02KT 2500 BR SCT015 SCT050 08/07 Q1021=

0000004200
389
SAIY33 LIIB 102020
NIL=

0000030200
390
SANT31 KWBC 102000 RRA
METAR
BGBW 102025Z NIL=
BGCO 102025Z NIL=
BGGH 102025Z NIL=
BGJN 102020Z AUTO 10024KT 9999NDV BKN240/// M09/M19 Q0993=
BGKK 102020Z AUTO 06019G30KT 1000NDV -SN VV005/// M01/M02 Q0985
     RESN=
BGSF 102020Z AUTO 07013KT 9999NDV NCD M13/M20 Q0995=

0000008700
391
SAIY32 LIIB 102020 RRA
METAR LICC 102020Z 27005KT CAVOK 10/08 Q1021=

0000012500
392
FTCN33 CWAO 102000 AAA
TAF AMD CYLT 102025Z 1020/1106 FCST CNCLD DUE NO OBS
    RMK NXT FCST BY 110000Z=

00000000