0000169500
373
SAUS73 KWBC 102100
METAR
KABR 102053Z AUTO 29005KT 10SM CLR 01/M04 A2951=
KALN 102050Z 17010G18KT 5SM -RABR OVC007 05/05 A2973=
KALO 102054Z AUTO 12006KT 1SM R12/5000VP6000FT BR OVC004 00/M01
     A2957=
KAPN 102054Z AUTO 17008KT 8SM OVC012 M01/M04 A2994=
KASE 102053Z 33004KT 3SM -SN BR BKN019 M07/M09 A2985=
KATY 102053Z AUTO 21006KT 7SM CLR M02/M03 A2949=
KAXN 102053Z AUTO 18008KT 1/4SM FZFG VV002 M02/M03 A2950=
KAZO 102053Z 15007KT 1SM BR OVC002 02/01 A2987=
KBDE 102053Z AUTO 17009KT 1 3/4SM -SN BR OVC005 M04/M05 A2945=
KBFF 102053Z AUTO 31011KT 10SM CLR 06/M09 A2962=
KBIS 102052Z 25012KT 10SM CLR 02/M06 A2947=
KBJC 102056Z 27028G42KT 60SM SCT070 BKN120 05/M11 A2964=
KBKF 102055Z 31017G27KT 70SM FEW070 FEW110 SCT220 04/M11 A2967=
KBRL 102053Z AUTO 16007KT 3SM -RA BR OVC004 02/02 A2961=
KBTL 102053Z 16010KT 4SM BR OVC004 02/01 A2988=
KCGI 102053Z 14013KT 5SM BR FEW004 SCT036 OVC090 07/06 A2985=
KCID 102052Z 14009KT 1 1/4SM BR OVC002 01/00 A2957=
KCIU 102055Z AUTO 14011KT 3SM OVC006 M02/M02 A2987=
KCMI 102053Z AUTO 16019KT 1 1/2SM RA BR OVC004 04/03 A2978=
KCMX 102053Z AUTO 18005KT 9SM FEW020 M03/M06 A2967=
KCOS 102054Z 31020G34KT 10SM BKN090 04/M16 A2967=
KCOU 102054Z 16015KT 10SM -RA OVC005 07/06 A2958=
KCPR 102053Z 24014KT 10SM CLR 00/M08 A2966=
KCYS 102053Z 31022G35KT 10SM CLR 02/M11 A2962=
KDDC 102052Z AUTO 31027G37KT 10SM CLR 08/M05 A2960=
KDEC 102054Z 16016G22KT 3SM RA BR OVC005 04/04 A2976=
KDEN 102053Z 30021G30KT 10SM FEW070 SCT110 SCT220 05/M09 A2965=
KDET 102053Z 17007KT 4SM BR OVC005 03/01 A3002=
KDLH 102055Z 17009KT 3/4SM R09/5500V6000FT -FZDZSN BR OVC002
     M04/M06 A2956=

0000166900
374
SAUS73 KWBC 102100 RRA
METAR
KDSM 102054Z 02004KT 3/4SM R31/6000VP6000FT -DZ BR OVC002 01/00
     A2954=
KDTW 102053Z 13006KT 1 1/2SM BR OVC006 02/01 A3000=
KEAU 102056Z 14008KT 2 1/2SM BR OVC006 M02/M03 A2963=
KEGE 102050Z 27009KT 5SM -SN BR OVC040 M02/M07 A2989=
KELO 102053Z AUTO 18009KT 7SM OVC009 M05/M06 A2953=
KEVV 102054Z 12004KT 4SM -RA BR OVC010 08/07 A2991=
KFAR 102053Z 19012KT 6SM HZ CLR M02/M04 A2946=
KFNT 102053Z 17008KT 5SM BR OVC008 03/01 A2995=
KFSD 102056Z 26005KT 5SM BR OVC008 01/M02 A2952=
KFWA 102054Z 15011KT 4SM BR OVC030 03/02 A2992=
KGCK 102054Z 31025G33KT 10SM CLR 06/M03 A2964=
KGFK NIL=
KGJT 102053Z 10004KT 10SM BKN060 OVC070 M01/M06 A2996=
KGRB 102053Z 15006KT 2 1/2SM BR OVC007 M01/M02 A2977=
KGRI 102053Z 25007KT 6SM HZ BKN012 OVC050 03/M01 A2953=
KGRR 102053Z 15006KT 5SM BR OVC006 02/00 A2987=
KGYY NIL=
KHIB NIL=
KHON 102055Z AUTO 00000KT 10SM CLR 03/M03 A2952=
KHUF 102053Z 16010KT 5SM -RA BR BKN016 BKN036 OVC090 05/03
     A2987=
KHUT 102052Z 31015KT 10SM FEW030 08/01 A2956=
KICT 102053Z COR 30011KT 10SM FEW026 SCT130 BKN200 07/01 A2958=
KICT 102053Z 30011KT 10SM CLR SCT130 BKN200 07/01 A2958=
KIKK 102055Z AUTO 14004KT 1 1/2SM RA OVC005 03/02 A2979=
KIND 102054Z 15012KT 5SM BR BKN029 OVC039 04/03 A2990=
KINL 102055Z AUTO VRB04KT 2 1/2SM BR OVC006 M06/M07 A2950=
KIRK 102055Z AUTO 15007KT 1/4SM FG VV002 02/02 A2954=
KJAC 102051Z 22014G21KT 10SM VCSH SCT032 BKN055 01/M07 A2981=
KJLN 102053Z 21013G23KT 10SM BKN016 BKN021 OVC036 12/10 A2957=
KJMS 102056Z AUTO 29011KT 10SM CLR 01/M04 A2943=
KJXN 102056Z 16012KT 2SM BR OVC003 02/01 A2992=

0000166500
375
SAUS73 KWBC 102100 RRB
METAR
KLAN 102053Z 15010KT 4SM BR OVC006 02/00 A2992=
KLAR 102053Z AUTO 28025G32KT 10SM OVC085 M03/M08 A2966=
KLBF 102053Z AUTO 32015G21KT 10SM -RA SCT012 BKN017 OVC041 03/01
     A2959=
KLBL 102055Z AUTO 30018G23KT 10SM CLR 11/M09 A2967=
KLEX 102054Z 15011KT 10SM BKN015 12/08 A2999=
KLNK 102054Z 00000KT 8SM OVC019 02/M01 A2955=
KLOU 102053Z 15006KT 10SM OVC013 11/08 A2995=
KLOZ 102053Z AUTO 14006KT 10SM OVC019 14/09 A3001=
KLSE 102053Z 11005KT 1 1/4SM -SN BR BKN009 OVC015 00/M02 A2963=
KMBS 102053Z 16007KT 7SM OVC007 02/M01 A2994=
KMCI 102053Z 24009KT 10SM -DZ OVC004 05/M01 A2953=
KMDW 102051Z 14010KT 1 1/4SM TSRA BR BKN002 BKN005CB OVC026 02/02
     A2977=
KMHK 102052Z 28008KT 7SM OVC008 03/03 A2955=
KMKC 102054Z 22004KT 10SM OVC007 06/04 A2954=
KMKE 102052Z 15011KT 3/4SM R01L/4000V5000FT BR OVC003 01/00
     A2977=
KMKG 102055Z 13009KT 1SM R32/6000VP6000FT BR OVC005 01/M01
     A2985=
KMLI 102052Z 15009KT 2SM RA BR BKN008 OVC037 02/01 A2963=
KMOT NIL=
KMSN 102053Z 14009KT 1 1/2SM R36/4500V6000FT -DZ BR OVC003 01/M01
     A2969=
KMSP 102053Z 15009KT 6SM BR OVC008 M01/M02 A2959=
KOFF 102058Z 18002KT 3SM BR OVC004 01/01 A2954=
KOMA 102052Z 18003KT 2SM BR OVC005 01/00 A2955=
KORD 102051Z 16011KT 3SM -RA BR OVC005 02/00 A2975=
KOSH 102053Z 12007KT 3SM BR OVC006 M01/M02 A2972=
KOTM 102053Z AUTO 15007KT 6SM BR OVC004 02/01 A2954=
KOWB 102056Z 17008KT 7SM -DZ OVC010 08/08 A2992=
KPAH 102053Z 18007KT 9SM OVC100 09/07 A2990=
KPIA 102054Z 18015G21KT 4SM -RA BR OVC004 03/02 A2969=
KPIR 102053Z AUTO 32006KT 10SM FEW090 BKN110 02/M03 A2955=

0000016800
376
SACN62 CYAB 102100
METAR CYAB 102100Z 31002KT 8SM -SN SCT040 M25/M29 A2910 RMK SC3
 -20.5/-25.5/0.6/12 MUCH LOOSE LAST STFD OBS/NXT 111800Z SLP858=

0000012700
377
SACN62 CYBK 102100
METAR CYBK 102100Z 29006KT 220V300 15SM FEW020 SCT210 M30/M34 A2969
 RMK SC2CI1 SLP057=

0000011100
378
SACN62 CYAM 102100
METAR CYAM 102100Z 12005KT 3SM BR OVC008 M02/M04 A2987 RMK SF8
 SLP127=

0000019900
379
FTCN36 CWAO 102100 AAA
TAF AMD CYNA 102104Z 1021/1108 28010KT P6SM -SN SCT015 OVC025 TEMPO
     1021/1108 21/2SM -SN BKN015
    RMK FCST BASED ON AUTO OBS. NXT FCST BY 110200Z=

0000150500
380
SPUS70 KWBC 102104
SPECI
KBAF 102100Z 00000KT 5SM BR BKN020 OVC090 M01/M03 A3035 RMK AO2
     T10111033=
KBDE 102100Z AUTO 17008KT 1SM -SN BR OVC005 M04/M05 A2945 RMK AO2
     P0000 T10391050 TSNO=
KLBF 102101Z AUTO 32015G23KT 10SM -RA FEW011 BKN033 OVC044 03/01
     A2959 RMK AO2 P0000=
KLUK 102100Z VRB06KT 10SM BKN016 OVC055 11/08 A3000 RMK AO2
     T01060078=
KORE 102100Z AUTO 19007KT 10SM OVC013 00/M02 A3034 RMK AO2
     T00001022=
KOSU 102100Z 11007KT 5SM BR OVC006 06/05 A3001 RMK AO2 PRESFR
     T00610050=
KBKL 102101Z 15010KT 7SM SCT009 OVC060 04/03 A3006 RMK AO2=
KBLF 102101Z AUTO VRB03KT 10SM BKN008 OVC044 10/06 A3013 RMK
     AO2=
KCUB 102101Z AUTO VRB04KT 1SM +RA BR SCT007 BKN036 OVC043 09/08
     A3017 RMK AO2 P0005 T00940083 TSNO=
KDHN 102101Z 09005KT 1/2SM FG VV002 14/14 A3008 RMK AO2=
KDKK 102101Z AUTO 19010G19KT 10SM BKN022 OVC049 05/02 A3013 RMK
     AO2 TSNO=
KGRB 102101Z AUTO 15008KT 3SM BR OVC007 M01/M02 A2976 RMK AO2
     T10061017=
KGSP 102101Z 02005KT 1 1/4SM -RA BR OVC004 08/08 A3015 RMK AO2 SFC
     VIS 2 VIS 1 3/4V4 P0001=
KLHQ 102101Z AUTO 14007KT 6SM BR BKN006 BKN009 OVC015 07/06 A3006
     RMK AO2=
KMFI 102101Z AUTO 13009KT 1 1/4SM -FZRA BR OVC003 M02/M03 A2966
     RMK AO2 FZRAB2055 P0000 I1000 T10171033=
KSPW 102101Z AUTO 17010KT 1/4SM FZFG VV003 M01/M02 A2955 RMK AO2
     T10111017=
KUUU 102101Z AUTO 00000KT 1 1/4SM BR BKN003 OVC009 03/03 A3037 RMK
     AO2 T00330028=

0000010200
381
SPUS41 KWBC 102104
SPECI
KBAF 102100Z 00000KT 5SM BR BKN020 OVC090 M01/M03 A3035=

0000009800
382
SPUS41 KWBC 102104
SPECI
KLUK 102100Z VRB06KT 10SM BKN016 OVC055 11/08 A3000=

0000010400
383
SPUS43 KWBC 102104
SPECI
KBDE 102100Z AUTO 17008KT 1SM -SN BR OVC005 M04/M05 A2945=

0000008900
384
SADO31 TDPD 102100
METAR TDCF 102100Z 27004KT 9999 FEW020 27/17 Q1013=

0000009500
385
SAHK31 VHHH 102100
METAR VHHH 102100Z 08005KT 9000 FEW025 15/11 Q1023 NOSIG=

0000011700
386
SACN62 CYBL 102100
METAR CYBL 102100Z 15004KT 12SM BKN035 OVC220 06/05 A2993 RMK SC7CI1
 SLP140=

0000011800
387
SACN62 CYBR 102100
METAR CYBR 102100Z 29012KT 8SM BKN007 OVC012 M09/M10 A2937 RMK ST6SC2
 SLP980=

0000012700
388
SACN62 CYDC 102100
METAR CYDC 102100Z 00000KT 15SM FEW050 SCT060 BKN070 02/00 A2983 RMK
 SC2CU1AC3 SLP124=

0000011700
389
SACN62 CYCD 102100
METAR CYCD 102100Z 01003KT 15SM FEW025 OVC080 07/06 A2998 RMK SF2AC6
 SLP151=

0000011500
390
SACN62 CYCS 102100 CCA
METAR CYCS 102100Z CCA 29018KT 15SM DRSN SKC M32/M35 A2964 RMK
 SLP040=

0000013000
391
SACN62 CYDF 102100
METAR CYDF 102100Z 23014G19KT 8SM -SN DRSN SCT018 BKN028 M06/M10
 A3011 RMK SC3SC4 SLP199=

0000027900
392
SACZ43 LKPW 102100
METAR LKCV 102100Z 24009KT CAVOK 05/01 Q1018 NOSIG=
METAR LKKB 102100Z 24010KT CAVOK 05/00 Q1018 NOSIG=
METAR LKLN 102100Z NIL=
METAR LKNA 102100Z 24006KT 9999 SCT032 BKN050 02/00 Q1019=
METAR LKPD 102100Z 25010KT CAVOK 05/M01 Q1018=

00000000