0000008600
506
SAFC21 OEJD 110600 RRA
METAR
OEMK 110500Z 33002KT CAVOK 18/11 Q1018=
0000008400
507
SASD20 OEJD 110600 RRA
METAR OEMK 110500Z 33002KT CAVOK 18/11 Q1018=
0000106500
508
SAAR20 OEJD 110600
METAR OBBI 110600Z 20005KT 9999 -RA SCT020 16/13 Q1021 TEMPO 5000
SCT010=
METAR OKBK 110600Z 00000KT 3000 -RA FEW040 OVC080 12/11 Q1019 NOSIG=
METAR OMAA 110600Z 17005KT 130V200 CAVOK 18/10 Q1022 A3018 NOSIG=
METAR OMAD 110600Z 14008KT CAVOK 18/11 Q1022 A3019 NOSIG=
METAR OMAL 110600Z NIL=
METAR OMDB 110600Z 11009KT 080V160 CAVOK 20/10 Q1023 NOSIG=
METAR OMFJ 110600Z 26003KT 9999 SCT020 BKN100 19/10 Q1023 A3022=
METAR OMRK 110600Z 13014KT CAVOK 20/10 Q1022 A3020=
METAR OMSJ 110600Z 11008KT 9999 FEW040 19/12 Q1023=
METAR OOBR 110600Z NIL=
METAR OOKB 110600Z NIL=
METAR OOMS 110550Z 09006KT 060V130 9000 FEW020 SCT200 20/05 Q1023
NOSIG=
METAR OOSA 110550Z 09011KT 060V120 9999 SCT025 25/15
Q1019 NOSIG  RH53 RMK03=
METAR OOSH 110600Z NIL=
METAR OOSQ 110600Z NIL=
METAR OOSR 110600Z NIL=
METAR OOTH 110600Z NIL=
METAR OOYB 110600Z NIL=
METAR OTBD 110600Z 03003KT 360V150 7000 -RA FEW015 SCT100 OVC120
17/15 Q1021 NOSIG=
METAR OYAA 110600Z 12015KT 9999 FEW018TCU BKN025 26/18 Q1018=
0000009700
509
SAAR20 OEJD 110600 RRA
METAR OYSN 110600Z 00000KT 9999 FEW030 SCT170 16/08 Q1028=
0000043600
510
SAME31 OEJD 110600
METAR OJAI 110600Z 29007KT 3500 -RA SCT025 BKN030 08/08 Q1023 NOSIG=
METAR OJAM 110600Z 35003KT 0900 FG BKN015 BKN040 07/07 Q1023 NOSIG=
METAR OJAQ 110600Z 00000KT 9999 BKN030 BKN035 11/09 Q1024 NOSIG=
METAR OLBA 110600Z 12005KT 100V180 5000 BR FEW026 13/08 Q1025 NOSIG=
METAR OSAP 110600Z NIL=
METAR OSDI 110600Z 00000KT 0100 FG 00/M01 Q1024=
METAR OSLK 110600Z 06004KT CAVOK 05/01 Q1023=
0000011200
511
SIAR20 OEJD 110300 RRA
AAXX 11034
41268 36/// /3505 10177 20065 30205 48439
333 0E017 58013=
0000226300
512
SMSD20 OEJD 110600
AAXX 11064
40356 41456 83214 10030 20030 39223 48509 71000 8372/ 333 20020 58052 83720 85630 88460 555 04410 50228=
40357 42660 63111 10063 20060 39556 40211 86500 333 20055 58058 86640=
40360 42560 32704 10070 20040 39635 40243 83500 333 20040 58065 83630=
40361 42460 83114 10072 20020 39435 40223 88600 333 20060 58069 84715
85640=
40362 NIL=
40373 42660 33305 10098 20080 39773 40201 83500 333 20073 58004 83635=
40375 41656 40000 10060 20020 39342 40244 70500 84200 333 20036 58068 84840=
40377 42960 03314 10112 20110 39720 40212 333 20087 59018=
40394 42660 63316 10074 20040 39072 48538 86500 333 20040 58060 86645 555 04410 50221=
40400 42560 10106 10158 20090 30186 40214 81200 333 20125 58051 81830=
40401 41959 02306 10112 20030 39516 40230 70600 333 20085 58063=
40405 42960 03412 10110 20080 39457 40205 333 20090 58045=
40416 42660 72505 10155 20120 30173 40193 84550 333 20135 59014 84640 87358=
40417 42660 61813 10158 20110 30195 40210 83570 333 20145 59011 83640 85359=
40420 42760 81707 10140 20120 39992 40203 83520 333 20122 59012 83650 86460=
40430 41957 00206 10130 20000 39494 40227 70500 333 20105 58057=
40435 42960 03310 10100 20040 39150 40187 333 20080 58032=
40437 41958 31707 10123 20100 39490 40207 71022 83040 333 20103 58004 83359=
40439 42960 00000 10153 20090 30185 40195 333 20130 58042=
41024 42660 20310 10210 20110 30172 40192 82500 333 20150 58042 82640=
41030 42960 03302 10184 20110 39903 40181 333 20170 58036=
41036 42460 79902 10094 20070 38595 48543 87700 333 20073 58034 81715 86630 555 04410 50187=
41055 41550 33306 10105 20100 38388 48537 71000 83400 333 20100 58024 83630 555 04410 50192=
41061 NIL=
41084 42560 32806 10134 20100 38891 48540 82430 333 20109 58020 82630 83360 555 04410 50179=
41112 42460 62408 10121 20120 37966 48539 86700 333 20107 58002 83712 83615 555 04410 50199=
41114 42560 52412 10134 20080 37996 48533 85400 333 20106 58003 85620 555 04410 50184=
41128 42560 62404 10166 20020 38825 48529 83450 333 20110 59012 83630 85359 555 04410 50157=
41136 42660 32408 10171 20040 39347 40165 82430 333 20120 59016 82640=
41140 42560 51910 10275 20230 30152 40163 82430 333 20239 58008 82630 84360=
0000140600
513
SMOM66 OOMS 110600
AAXX 11064
41240 36/// /1306 10196 20092 30212 40227
333 0E/// 20163 59018  =
41241 NIL=
41242 NIL=
41244 36/// /1804 10187 20083 39981 49467
333 0E015 20140 59011 =
41246 36/// /1303 10209 20118 30232 40237
333 0E018 20153 59008 =
41250 NIL=
41251 NIL=
41252 NIL=
41253 NIL=
41254 NIL=
41255 36/// /1602 10181 20065 39687 40248
333 0E016 20108 59006 =
41256 31559 50907 10202 20055 30228 40238 70510 81501 333 20126
3/014 59013 81620 84070=
41257 NIL=
41258 36/// /1304 10211 20081 30230 40234
333 0E/// 20178 59010 =
41259 NIL=
41262 NIL=
41263 36/// /1202 10171 20072 39627 40212
333 0E016 20109 59008 =
41265 36/// /1504 10171 20001 39623 40216
333 0E013 20101 59006 =
41267 36/// /3408 10206 20056 30222 40238
333 0E016 20174 58000  =
41268 36/// /0009 10215 20075 30219 48670
333 0E017 20171 59002 =
41270 NIL=
41272 NIL=
41275 NIL=
41280 26/// /0401 10177 20109 30111 40254
333 0E013 20126 59010 70000 =
41287 36/// /0615 10210 20087 30180 40220
333 0E015 20139 59003 =
41288 36/// /0720 10227 20106 30205 40227
333 0E019 20190 59002 =
41291 NIL=
41304 NIL=
41314 32660 39905 10206 20143 39701 40207 81501
  333 20145 59012 81630 83075 =
41315 36/// /1408 10176 20137 39202 42838
333 0E/// 20142 59005  =
41316 36/72 /0911 10247 20142 30169 40194
333 0E020 20199 59003 =
0000011100
514
UANT99 KDDL 110721
ARP AAL206 4517N01759W 0721 F340 MS60 238/60 KT
N391AA DDL XXW 110721 F03A
0000010800
515
UANT99 KDDL 110721
ARP ANZ2 5604N04158W 0721 F330 MS59 286/36 KT
ZKOKQ QXT AME 110721 F23A
0000011100
516
UANT99 KDDL 110721
ARP AWE796 4936N02457W 0721 F380 MS59 197/67 KT
N281AY DDL XXN 110721 J57A
0000011000
517
UANT99 KDDL 110721
ARP AAL50 5339N02432W 0721 F340 MS62 217/92 KT
N726AN DDL XXW 110721 F61A
0000011000
518
UANT99 KDDL 110721
ARP KLM644 5011N04438W 0721 F350 MS63 319/65 KT
PHBFY QXT AOW 110721 F80A
0000011000
519
UANT99 KDDL 110721
ARP TAY010 5502N01941W 0721 F340 MS60 247/58 KT
OOTSC QXT EUA 110721 F07A
0000011000
520
UANT99 KDDL 110721
ARP SWR15X 4854N02123W 0721 F380 MS62 224/68 KT
HBJHK QXT AOE 110722 J39A
0000180000
521
SAIR31 OIII 110600
METAR METAR OIAA 110600Z 17004KT 2500 BR FEW035CB FEW040 OVC090 14/13
Q1019=
METAR OIAG NIL=
METAR  OIAH 110600Z 13006KT 4000 RA FEW035CB SCT040 OVC070 09/06
Q1020=
METAR OIAI NIL=
METAR  OIAM 110600Z 09012KT 8000 SCT010 SCT030CB OVC080 12/11
Q1019=
METAR  OIAW 110600Z 11010KT 7000 FEW030CB SCT035 OVC090 12/10
Q1019=
METAR  OIBA 110550Z 06010KT 4000 SA FEW025CB FEW030CB OVC100
     21/12
Q1021=
METAR  OIBB 110550Z 15010KT 9999 FEW030CB SCT040 OVC090 16/06
     Q1019
A3010 RERA=
METAR  OIBK 110550Z 08018KT 5000 -RA FEW030CB SCT025 OVC080
     13/10
Q1021=
METAR OIBL 110600Z 06010KT 4000 -RA SCT025 OVC080 14/08 Q1022=
METAR OIBS 110600Z 08024KT 9999 SCT035 OVC100 21/13 Q1022=
METAR  OICC 110600Z 09008KT 6000 FEW035CB SCT040 OVC070 M01/M02
Q1020 A3012 RESN TEMPO SN=
METAR OICI 110600Z 13008KT 9999 SCT035 BKN090 04/03 Q1018 A3006=
METAR OICJ NIL=
METAR  OICK 110550Z 13004KT 9999 FEW010 FEW035CB SCT040 OVC080
03/02 Q1020=
METAR  OICS 110600Z 19002KT 4000 BR FEW020 SCT035 BKN080 M03/M04
Q1021=
METAR OIFK NIL=
METAR  OIFM 110600Z 00000KT 0500 FG SCT040 BKN100 M02/M03 Q1021
A3017=
METAR  OIFS 110600Z 00000KT 0800 SN BR FEW030CB SCT035 OVC080
M07/M08 Q1020=
METAR  OIGG 110600Z 00000KT 2500 BR FEW015CB BKN025 BKN090 05/04
Q1018=
METAR OIGK NIL=
METAR OIHH 110600Z 00000KT 2000 BR BKN035 BKN090 M08/M10 Q1021=
METAR OIHM NIL=
METAR  OIIE 110600Z 29008KT 8000 FEW040 SCT100 BKN180 02/M05
     Q1023
A3022 NOSIG=
METAR  OIII 110600Z 23006KT 8000 FEW040 SCT100 BKN200 03/M06
     Q1022
A3019 TEMPO FEW035CB SCT030 BKN100=
METAR OIIK 110552Z 09008KT 4000 HZ FEW035 OVC090 M01/M05 Q1023=
METAR OIIP 110600Z 32008KT 5000 HZ SCT035 BKN090 M02/M07 Q1022=
METAR OIIS NIL=
0000013800
522
FCUZ31 UTTW 110600 CCA
TAF COR UTFA 110300Z 1104/1113 24003MPS 0600 FZFG VV002 TEMPO
1104/1110 VRB02MPS 0050 FZFG VV001=
0000013400
523
FCUZ31 UTTW 110600 CCB
TAF COR UTFF 110300Z 1104/1113 34003MPS 2000 BR NSC TEMPO 1104/1108
VRB02MPS 0500 FZFG VV001=
0000013400
524
FCUZ31 UTTW 110600 CCC
TAF UTFA 110600Z 1107/1116 24003MPS 0600 FZFG VV002 TEMPO 1107/1110
VRB02MPS 0300 FZFG VV001=
0000011300
525
FCUZ31 UTTW 110600 CCD
TAF UTFF 110600Z 1107/1116 34003MPS 3000 BR NSC TEMPO 1107/1110 1000
BR=
00000000