0000044400
813
SMKA02 PTTP 110600
AAXX 11064
91350 32474 80512 10294 20241 30066 40073 5//// 86407
333 561/9 70008 84822 88277 555 91106
91353 32474 80507 10300 20255 30074 40081 5//// 85208
333 561/9 70000 85818 86280 555 91106
91425 11474 60401 10300 20283 30074 40075 5//// 60071 70282 86200
333 561// 70066 86817 555 91106
91434 11474 83603 10294 20249 30055 40056 5//// 60031 70282 882//
333 56899 70091 88817 555 91106

0000057900
814
SMKR01 DKPY 110600
AAXX 11061
47008 42970 01402 11012 21116 30186 40242 54000=
47014 42950 00000 11076 21148 39839 40260 58037=
47016 42970 00000 11059 21138 39377 40284 57043=
47020 42965 00000 11090 21145 39925 40325 57025=
47025 42978 02303 10004 21139 30222 40252 57004=
47035 42970 80000 11003 21101 30263 40273 57032 8803/=
47041 42970 00000 10042 21093 30223 40251 57007=
47055 42970 22706 10033 21150 30229 40275 57021 80001=
47058 42960 52302 10010 21087 30257 40305 57020 80002=
47069 42665 80000 11003 21110 30210 40313 58004 885//=
0000094200
815
SMKR21 DKPY 110600
AAXX 11061
47003 42980 03204 10003 21174 30234 40238 57025=
47005 42980 22303 11121 21183 38609 58018 80002=
47022 42975 03206 11080 21167 38830 57011=
47028 42967 03201 11002 21108 30187 40284 57030=
47031 42970 03204 11090 21219 38948 57018=
47037 42967 01401 11014 21115 30173 40299 58027=
47039 42960 00000 11027 21116 30114 40312 57025=
47046 42969 02303 10017 21092 30235 40258 57004=
47050 42765 60000 11014 21126 30256 40291 57021 86020=
47052 42965 52704 11013 21135 39935 40284 57019 80002=
47060 42960 80903 10002 21026 30240 40300 58027 80002=
47061 42980 03202 10043 21120 30226 40272 57014=
47065 42970 00000 10018 21117 30241 40307 58035=
47067 42965 82503 10010 21135 30203 40336 57031 80001=
47068 42960 81401 10026 21072 30268 40304 57011 80007=
47070 42770 82704 10011 21016 30226 40316 57019 88030=
47075 42980 52303 11011 21109 39998 40443 57009 80001=
0000066900
816
SMKR02 DKPY 110600
AAXX 11061
47101 32970 52508 10032 21170 30201 40299 57025 80001=
47105 369// /2908 10044 21172 30244 40277 57017=
47108 32670 62707 10017 21230 30199 40308 57017 85500=
47115 32670 62306 10018 21075 39996 40275 55009 84501 333 92042=
47133 32662 63404 10034 21058 30225 40312 57020 84501=
47138 32964 22706 10056 21094 30286 40289 57017 80001 333 92022=
47159 32965 62908 10059 21084 30206 40293 57024 80001 333 92023=
47165 32670 43405 10051 21034 30264 40312 57022 84500 333 92022=
47168 32970 42909 10061 21086 30213 40294 57025 80001 333 92023=
47184 32970 20503 10072 21028 30283 40309 57022 80001 333 92032=
0000248300
817
SMKR22 DKPY 110600
AAXX 11061
47090 32970 33603 10047 21152 30249 40272 57018 80001 333 92012=
47095 32970 52306 10010 21195 30107 40301 57022 80001=
47097 329// /2504 10023 21162 30211 40310 57020=
47098 329// /2507 10019 21206 30163 40301 57020=
47099 329// /2305 10012 21167 30272 40310 57016=
47100 32970 42515 11034 21160 39336 40285 55017 80001=
47102 41556 81606 10001 21021 30118 40302 57021 72272 8552/=
47104 329// 43203 10040 21182 30174 40273 57017 80001=
47106 329// /2905 10047 21170 30225 40275 57018=
47112 32970 62504 10009 21132 30221 40308 57015 80002 333 92012=
47114 32968 52705 10014 21131 30117 40305 57021 80001=
47119 32670 62505 10016 21158 30270 40313 57015 86500=
47121 329// /2509 10024 21126 39996 40297 57024=
47127 329// /2703 10020 21150 30166 40312 57019=
47129 32670 62501 10022 21088 30278 40315 57021 82501=
47130 32970 60905 10046 21099 30216 40279 57016 80001 333 92022=
47131 32665 62503 10025 21125 30241 40313 57019 82501=
47135 329// /2708 10014 21095 39998 40305 57018=
47136 32965 62906 10044 21125 30116 40291 57025 80001=
47137 329// /2707 10034 21110 30178 40299 57019=
47140 32661 50000 10035 21035 30281 40310 57024 85500 333 92011=
47143 329// /2904 10056 21098 30226 40306 57022=
47145 32668 62703 10022 21158 30280 40307 57019 83501=
47146 31659 53204 10044 21065 30242 40309 57021 70522 83501=
47150 32961 63202 10035 21057 30289 40309 57023 80001=
47152 32968 33406 10056 21098 30248 40291 57019 80001=
47154 329// /2707 10044 21087 30242 40303 57019=
47155 32965 60504 10050 21088 30248 40295 57024 80001=
47156 32667 32903 10051 21070 30217 40308 57024 83500=
47157 32970 63207 10042 21110 30007 40287 57026 80001=
47162 32966 42904 10051 21070 30258 40299 57023 80001 333 92022=
47169 32670 23405 10053 21043 30213 40309 57023 82500 333 92032=
47170 32970 60207 10046 21066 30261 40305 57025 80001 333 92024=
47171 329// /3403 10038 21062 30254 40310 57020=
47172 329// /2705 10055 21073 30235 40303 57022=
47173 329// /2705 10038 21070 30136 40295 57027=
47174 32665 53607 10038 21076 30089 40295 57022 85500=
47175 32970 62908 10021 21046 39717 40303 57020 80001 333 92023=
47185 32970 63609 10053 21032 30212 40305 57018 81031 333 92034=
47188 32970 53406 10059 21048 30278 40300 57021 81032 333 92022=
47189 32668 41404 10091 20000 30234 40294 57019 81501 333 92022=
47192 32969 52003 10053 21101 30257 40295 57029 82031=
0000294400
818
SMRA17 RUHB 110600
AAXX 11061
24790 42999 20304 11305 21312 39351 40246 53004 80001=
24894 NIL=
24898 41699 20702 11264 21303 39426 40202 53003 70230 81530=
24982 42999 23402 11192 21241 39609 40134 52005 82030=
24988 42999 70102 11134 21242 39849 40108 52012 85031=
25034 NIL=
25378 11998 03608 11139 21233 30139 40169 58008 60002 73630 333 11130
91016 91119=
25503 41999 23001 11306 21330 30112 40254 53009 70270 82030=
25627 41699 60102 11205 21231 39234 40155 57001 70271 82530=
25648 41598 80405 11170 21196 30020 40078 57008 73632 8553/=
25700 42699 20000 11388 21412 39809 40265 57001 81531=
25705 41698 70000 11282 21294 39870 40233 53004 70272 82535=
25707 42999 53403 11256 21281 39762 40240 53005 85070=
25715 41997 80601 11260 21278 39514 40190 53002 77172 83037=
25808 41997 80000 11304 21321 39270 40233 57003 77172 80007=
25820 42699 20306 11139 21190 30081 40097 53008 82500 333 91114=
25904 41999 30502 11240 21296 39488 40188 53003 70230 80001=
25916 41698 70804 11111 21184 39991 40077 52015 71522 87500=
25919 41598 30110 11141 21235 30064 40081 52005 71500 82901 333 91017
91120=
25922 41699 60109 11148 21208 30040 40084 57002 73731 84530 333 91014
91115=
25927 41599 23507 11186 21245 30083 40090 53003 73631 82500 333
91110=
25932 NIL=
25941 41998 20710 11168 21202 30041 40060 53008 73631 82030 333 91014
91114=
31083 42999 10000 11209 21258 39958 40123 52009 80001=
31096 40704 11132 21193 30027 40096 53012 70231 82530 333 91012
91117=
31152 41997 83401 11337 21380 39871 40329 54000 77172 8802/=
31174 41596 83508 11210 21235 30125 40137 57004 77173 885// 333 91013
91116=
31489 42998 21101 11292 21338 30050 40180 55002 80002=
31866 42999 02604 11132 21305 30166 40170 52007 333 91115=
31959 82598 22704 11086 21238 30167 40212 55011 82100 333 91111=
31989 42599 12705 11051 21216 30177 40233 55017 81201 333 91010
91111=
32027 42999 52904 11201 21242 30099 40108 53003 82032 333 91007
91107=
32076 42998 02902 11174 21243 30085 40096 56001 333 91003 91105=
32099 42598 50107 11162 21213 30104 40112 57004 85200 333 91009
91112=
32121 41598 83207 11141 21193 30092 40116 53001 78583 889// 333 91010
91113=
32213 41497 83610 11034 21053 39886 49950 53036 73632 886// 333 91012
91121=
32222 42598 70702 11104 21148 39987 40011 53014 87500=
32287 41496 80207 11081 21091 39973 49983 53016 78583 889// 333 88711
91010 91113 92982=
32333 41598 80608 11056 21104 39996 40008 53019 73632 885// 333 91011
91111=
32408 41597 50105 11077 21090 39950 49980 52010 73683 83530=
32411 42598 61103 11146 21155 39959 49966 51004 85501=
32509 41999 63304 11049 21128 39930 49964 53012 70232 82031=
32519 41596 60000 11054 21079 39946 49966 53009 78582 86900=
32562 41598 80102 11086 21094 39922 49961 53010 70282 883//=
32594 41597 80404 11045 21061 39918 49954 52015 70283 883// 333 91114
92980=
0000039800
819
SWIO40 RJTD 110630
:PRS 1 #1 1706 1684 1714 1702 1700 1692 1686 1715 1685 1717 1711 1688
1739 1696 1717 1705 1717 1711 1717 1720 1715 1729 1722 1727 1743 1714
1742 1721 1749 1736 :RAD 1 #3 6088 6090 6098 6100 6102 6109 6116 6121
6124 6126 :ENC 5 #5 5070 5081 5089 5098 5106 5101 5103 5106 5105 5104
5098 5094 :SW1 30 #60 60 :SW2 60 #60 60 :BAT 14 #15 13.2 :NAME 
0650018E=
0000006100
820
AAUK99 EGRR 110630
Socket stay alive message.
0000015600
821
SMSP01 LEMM 110600 CCA
AAXX 11064
08181 01557 53508 10102 20078 30179 40186 53004 60002 71011 84801
  333 20086 3/003 55000 60007 70000=
0000009200
822
SAIN90 VOML 110630
METAR VOML 110630Z 30005KT 8000 FEW020 30/20 Q1013 NOSIG=
0000007800
823
FTIN90 VECC 110600
TAF VTBD 110600Z NIL=
TAF VTCC 110600Z NIL=
0000362600
824
SMIN31 VECC 110600
AAXX 11064
42042 NIL=
42216 NIL=
42220 32596 63204 10212 20106 40172 81131
  333 58007 81830 85360=
42295 NIL=
42296 NIL=
42299 21395 80000 10076 20034 38227 48539 72022 8763/
  333 58014 6990/ 81709 86617=
42305 NIL=
42309 31596 11102 10218 20159 40164 70500 81400
  333 58002=
42311 NIL=
42312 NIL=
42314 31996 33605 10224 20109 40173 70500 82031
  333 58005 82360=
42316 NIL=
42382 NIL=
42387 NIL=
42390 NIL=
42390 NIL=
42391 NIL=
42393 NIL=
42395 NIL=
42398 NIL=
42399 21395 80000 10160 20124 40194 76160 8672/
  333 58024 6992/=
42403 31995 62904 10180 20118 40191 70511 86050
  333 58017=
42404 31496 70000 10168 20132 40176 70521 83430
  333 59001 83618 86360=
42407 NIL=
42409 NIL=
42410 31995 40204 10222 20172 40185 70542 84030
  333 58013 84360=
42413 NIL=
42414 NIL=
42415 32996 23602 10216 20112 40191 82030
  333 58004 82360=
42419 NIL=
42420 NIL=
42423 31595 10502 10214 20138 40159 70500 81500
  333 58003 82620=
42426 NIL=
42480 NIL=
42487 NIL=
42488 NIL=
42492 21494 81803 10156 20146 40182 76066 8572/
  333 58002 6992/ 85615 88458=
42498 21494 80000 10152 20145 40195 76166 8552/
  333 58035 6001/ 85615 88458=
42499 NIL=
42500 21595 80000 10144 20140 40204 76162 8452/
  333 58022 6002/ 84620 88458=
42503 31593 83203 10176 20130 40195 74454 8552/
  333 58013=
42506 NIL=
42511 NIL=
42514 NIL=
42515 32596 40000 10192 20035 38732 48544 81530
  333 58017=
42516 32396 53203 10144 20038 38432 48528 83430
  333 58008=
42522 NIL=
42523 NIL=
42527 NIL=
42586 NIL=
42587 21994 80902 10164 20157 40175 75062 85520
  333 58006 6003/ 85615 88456=
42588 NIL=
42591 21993 80906 10154 20147 40184 76066 8572/
  333 58001 6002/ 81710 85618 88458=
42595 NIL=
42599 NIL=
42603 NIL=
42618 31996 03204 10224 20150 40169 70540
  333 59008=
42619 31996 00502 10200 20160 40157 70500
  333 59001=
42620 NIL=
42623 31996 01802 10214 20097 39285 40149 70500
  333 58004=
42699 NIL=
42701 31494 83206 10176 20132 39429 40168 74022 8452/
  333 58006 84615 88458=
42703 NIL=
42704 NIL=
42705 NIL=
42707 NIL=
42708 31996 00203 10234 20154 40175 70500
  333 59001=
42709 NIL=
42710 NIL=
42711 NIL=
42714 NIL=
42724 31995 03602 10240 20130 40164 70544
  333 59009=
42727 NIL=
42793 NIL=
42795 NIL=
42798 31994 00504 10234 20126 40158 70400
  333 59003=
42799 NIL=
42802 NIL=
42803 NIL=
42805 NIL=
42807 31996 03201 10250 20134 40167 70500
  333 59001=
42809 31995 00000 10246 20141 40166 70500
  333 59003=
42810 NIL=
42811 32696 23401 10240 20138 40172 81430
  333 59003=
42812 NIL=
42838 31996 00211 10184 20074 40186 70400
  333 58021=
42859 NIL=
42883 32996 02702 10268 20172 40145
  333 59002=
42886 31996 02306 10256 20154 40154 70544
  333 59007=
42891 32596 21402 10260 20148 40159 82500
  333 59003=
42894 NIL=
42900 NIL=
42901 32996 01102 10254 20159 40165
  333 58002=
42903 NIL=
42942 NIL=
42961 NIL=
42963 NIL=
42966 NIL=
42969 NIL=
42970 NIL=
42971 31995 01606 10282 20171 40165 70540
  333 58000=
42976 31995 01402 10258 20164 40169 70500
  333 58000=
42977 NIL=
43049 31596 11402 10268 20201 40166 70500 81100
  333 59001 81825=
43053 32996 00503 10264 20186 40167
222// 20701
  333 58002=
43097 NIL=
43309 NIL=
43310 NIL=
43333 31495 70706 10292 20234 40134 70521 86401
  333 56109 58009 83616 84818 86070=
43364 NIL=
43367 NIL=
43368 NIL=
43382 NIL=
43382 NIL=
43385 NIL=
0000029200
825
SMMC01 GMMC 110600 RRA
AAXX 11064
60096 12960 50503 10147 20134 40164 53001 60024 80002
  333 20141=
60156 17460 62008 10106 20084 40174 53009 69944 70060 83280
  333 20101 83816 85360=
60252 11860 20000 10093 20081 40163 53003 60078 70206 82030
  333 20095 82356=
0000012000
826
SMMC02 GMMC 110600 RRB
AAXX 11064
60318 32550 42302 10113 20100 40165 53002 84500
  333 20110 84620=
0000004600
827
SIVA21 GMMC 110600
BBXX
NIL=
0000004600
828
SIVA22 GMMC 110600
BBXX
NIL=
0000004600
829
SIVA23 GMMC 110600
BBXX
NIL=
0000128800
830
SMLY01 HLMC 110600 RRA
AAXX 11064
62002 32960 42014 10112 20030 39502 48555 51001 84050
  333 20105 50534 55071 84360=
62007 32960 01806 10118 20070 40227 54000 83070
  333 20115 50554 83360=
62008 32960 51808 10110 20079 39422 48551 58008 85050
  333 20110 50544 55086 85360=
62010 32960 51705 10093 20055 40232 52005 85050
  333 20051 50304 55079 85360=
62012 32860 41910 10142 20058 30204 40234 52003 84040
  333 20123 50454 55/// 84358=
62016 32960 61606 10077 20057 40268 53008 80006
  333 20072 50294 55092 86270=
62018 32960 00000 10065 20015 30160 57009
  333 20030=
62019 32960 41708 10105 20085 40249 5//// 84030
  333 20079 50154 55060 84360=
62053 32560 61805 10120 20097 40267 53013 84530
  333 20096 50264 55000 84220 86358=
62062 32960 42608 10130 20101 40254 53021 84050
  333 20124 50204 55/// 84358=
62103 32966 31512 10123 20097 39801 4//// 5//// 83040
  333 20110 50914 55100 83360=
62124 32960 00000 10045 20025 39735 40251 52005
  333 20043 50314 55055=
62131 32962 30000 10052 20028 39953 40279 52008 80006
  333 20052 50324 55097 83270=
62161 32970 00000 10110 20068 40262 53025
  333 20105 50304 55///=
62200 32960 41815 10100 20031 39/// 4//// 5//// 80004
  333 20077 50594 55100 84070=
0000014500
831
SMCD01 FTTJ 110600
AAXX 11064
64700 31914 10158 21001 3//// 4//// 705// 80002
  333 0//00 20147 5//// ///// 55/// 5/// 83075=
0000075000
832
UKBZ03 SBBR 110000 RRA
TTBB 61008 83566 00922 23856 11899 23657 22831 18042 33788
14848 44601 01863 55587 02276 66560 00673 77441 15157 88413
18368 99367 24576 11326 31558 22283 39756 33276 41357 44258
43564 55232 49558 66207 54363 77199 54766 88132 65771 99105
73768 11100 73968 21212 00922 09008 11821 06019 22794 07514
33674 06013 44611 08018 55582 05520 66560 06513 77448 05522
88422 04025 99381 05031 11358 05521 22329 03514 33312 06512
44278 03010 55269 02511 66236 14503 77223 16011 88207 12515
99194 13522 11186 14516 22182 13512 33177 08513 44171 07519
55160 09521 66151 07516 77145 09017 88133 09013 99128 07015
11124 08514 22110 03510 33107 04507 44104 08510 55100 08010
31313 48008 80004 41414 11530=
00000000