0000010700
753
SAIO31 KWBC 102100 RRC
METAR
FMMT 102100Z 32004KT 9999 VCSH FEW017 SCT033 26/25 Q1012=

0000010900
754
SAPA31 KWBC 102100 RRB
METAR
AYPY 102100Z 00000KT 9999 SCT016 SCT030 OVC140 26/25 Q1008=

0000018200
755
FTCN33 CWAO 102100 AAA
TAF AMD CYEV 102115Z 1021/1107 28012KT P6SM -SN DRSN SCT015 BKN030
     TEMPO 1021/1107 2SM -SN DRSN OVC015
    RMK NXT FCST BY 110100Z=

0000009500
756
SPCN42 CWAO 102115
SPECI CYUA 102115Z AUTO 29023KT 3/4SM -SN CLR M25/ A2977=

0000009800
757
SAAB31 LATI 102120
METAR LATI 102120Z 15002KT 5000 BR BKN055 11/09 Q1022 NOSIG=

0000023100
758
SNVD20 KWNB 110500 RRG
BBXX
44039 11051 99411 70727 46/// /0802 10032 20031 90445 333 91203
555 11026 22031=
44060 11051 99413 70721 46/// /0603 10040 20037 40259 90445 22200
00041 333 91203 555 11026 22026=
0000012800
759
SNVD20 KWNB 110500 RRH
BBXX
44022 11051 99409 70737 46/// /0503 10014 20009 90500 333 91204
555 11031 22036=
0000015200
760
SNVD20 KWNB 110400 RRW
BBXX
44029 11041 99425 70706 46/03 /1902 10040 40250 90404 22200 00048
10501 70004 333 91203 555 11023 22025=
0000014400
761
FTPQ31 KWBC 102118
TAF
TAF PGWT 102106Z 1021/1118 06016KT P6SM VCSH SCT020 SCT120
     FM110800 06011KT P6SM VCSH FEW020=

0000014400
762
FTPA31 KWBC 102118
TAF
TAF PGWT 102106Z 1021/1118 06016KT P6SM VCSH SCT020 SCT120
     FM110800 06011KT P6SM VCSH FEW020=

0000039300
763
FTUS52 KWBC 102118 AAA
TAF AMD
KCUB 102115Z 1021/1118 04005KT 3SM -RA BR OVC007
      TEMPO 1021/1023 1 1/2SM +RA OVC003
     FM110200 VRB04KT 1SM -DZ BR OVC005
      TEMPO 1108/1112 1/2SM -DZ FG OVC003
     FM111200 17006KT 5SM BR OVC003
     FM111600 19010G18KT P6SM SCT005 OVC015=
KDMN 102116Z 1021/1118 26020G30KT P6SM SKC
     FM110200 28010KT P6SM SKC=

0000074100
764
FTUS80 KWBC 102118 AAA
TAF AMD
KCUB 102115Z 1021/1118 04005KT 3SM -RA BR OVC007
      TEMPO 1021/1023 1 1/2SM +RA OVC003
     FM110200 VRB04KT 1SM -DZ BR OVC005
      TEMPO 1108/1112 1/2SM -DZ FG OVC003
     FM111200 17006KT 5SM BR OVC003
     FM111600 19010G18KT P6SM SCT005 OVC015=
KDMN 102116Z 1021/1118 26020G30KT P6SM SKC
     FM110200 28010KT P6SM SKC=
KMLI 102115Z 1021/1118 16010KT 3SM -RA BR OVC006
     FM102300 17008KT 1SM -RA BR OVC002
     FM110200 18003KT 1/2SM -RA FG OVC002
     FM110800 26005KT 1SM -FZRASN BR OVC003
     FM111000 28011KT 2SM -SN BR OVC004
     FM111400 28011KT 4SM BR VCSH OVC006=
KTCS 102116Z 1021/1118 20015G25KT P6SM SKC
     FM110100 29008KT P6SM SKC=

0000012400
765
SPCN31 CWAO 102116
SPECI CYYZ 102116Z 13005KT 1 1/2SM BR BKN003 OVC007 01/M00 A3010 RMK
 ST6ST2 SLP203=

0000219100
766
SPUS70 KWBC 102118
SPECI
KACV 102114Z AUTO VRB03KT 1SM R32/2000V4000FT BR OVC002 10/09
     A3024 RMK AO2 T01000089=
KBTL 102114Z 15010KT 4SM BR OVC005 03/01 A2987 RMK AO2
     T00280011=
KEQY 102114Z AUTO 03008KT 5SM RA BR BKN003 OVC019 07/06 A3017 RMK
     AO2 P0002=
KEST 102114Z AUTO 16009KT 1/2SM FZFG OVC002 M01/M02 A2955 RMK AO2
     I1000 T10111017=
KILN 102114Z AUTO 15007KT 8SM OVC004 07/06 A3000 RMK AO2
     T00670061=
KJKL 102114Z AUTO 08003KT 10SM BKN027 BKN055 11/08 A3002 RMK AO2
     T01110083=
KJST 102114Z AUTO 22004KT 9SM BKN005 OVC009 04/04 A3014 RMK AO2
     CIG 004V008 T00390039=
KMVY 102114Z 20011KT 5SM BR BKN010 OVC016 06/04 A3039 RMK AO2 CIG
     008V013 $=
KUZA 102114Z AUTO 36007KT 1 3/4SM RA BR OVC003 06/06 A3019 RMK AO2
     RAB08 P0004 T00610056=
KOGB 102114Z AUTO 04003KT 6SM -RA BR OVC004 17/16 A3012 RMK AO2
     RAE2055B09 P0000 T01720156 TSNO=
PACV 102114Z 00000KT 10SM BKN012 OVC026 01/M01 A2938 RMK AO2 $=
KASE 102115Z 36006KT 2 1/2SM -SN BR BKN021 BKN034 OVC044 M06/M08
     A2984 RMK AO2 P0000 T10611083=
KBEH 102115Z AUTO 13010KT 3/4SM -RA BR OVC006 02/02 A2982 RMK AO2
     UPB08E13RAB13 P0001=
KCUB 102115Z AUTO VRB03KT 1SM +RA BR FEW005 BKN037 OVC049 09/09
     A3016 RMK AO2 P0017 T00940089 TSNO=
KDWH 102115Z 18007G14KT 10SM FEW020 BKN035 OVC070 21/18 A2980 RMK
     AO2=
KFDY 102115Z AUTO 15013KT 2 1/2SM BR OVC003 03/02 A2997 RMK
     AO2=
KIGX 102115Z AUTO 00000KT 3SM -RA BR OVC003 06/05 A3023 RMK AO2
     P0008 T00610050=
KMTW 102115Z AUTO 17012G18KT 2SM UP BR OVC004 01/00 A2977 RMK AO2
     P0000 FZRANO=
KRDG 102115Z 00000KT 3SM HZ OVC013 02/M02 A3032 RMK AO2 SFC VIS
     5=
KRUE 102115Z AUTO 00000KT 3/4SM +RA BR FEW038 BKN046 OVC055 10/09
     A2973 RMK AO2 P0014=
KSMQ 102115Z AUTO 00000KT 1SM BR BKN009 OVC017 01/M01 A3034 RMK
     AO2 T00061006 TSNO=
KSSI 102115Z AUTO 13009KT 10SM FEW005 SCT010 OVC050 18/17 A3011
     RMK AO2 T01780172=
KTDZ 102115Z AUTO 16009KT 4SM BR BKN007 OVC032 03/01 A3000 RMK AO2
     TSNO=
KTQE 102115Z AUTO 20004KT 1 1/2SM -SN BR BKN009 OVC014 02/M01
     A2956 RMK AO2 P0000 T00171006=

0000010200
767
SPUS41 KWBC 102118
SPECI
KBDL 102114Z 00000KT 3SM BR BKN013 OVC085 M01/M02 A3035=

0000009300
768
SPUS43 KWBC 102118
SPECI
KBTL 102114Z 15010KT 4SM BR OVC005 03/01 A2987=

0000010800
769
SASA32 KWBC 102100 RRA
METAR
SCFA 102100Z 20014KT 9999 FEW020 SCT260 23/17 Q1009 NOSIG=

0000019700
770
SAVN42 KWBC 102100 RRA
METAR
SVSE 102100Z NIL=
SVSR 102100Z /////KT CAVOK 32/// Q1011=
SVTM 102100Z NIL=
SVVL 102100Z 25003KT 9999 SCT023 29/16 Q1013=
SVVP 102100Z NIL=

0000010400
771
SAAG05 SABM 102100 RRB
METAR SAOC 102100Z  14015KT 9999  FEW035 SCT100
28/13 Q1009=

0000134600
772
FABX31 EBBR 102100
EBBU GAMET VALID 110000/110600 EBBR-
EBBU BRUSSELS FIR BLW FL100
SECN I
SFC VIS (?=5KM):        4000 M BR IN SE EBBU
SIG CLD:                BKN 400/1500 FT AGL OVER HIGHER GROUNDS
TURB:                   03/06 MOD SFC/FL030 OVER W EBBU
SECN II
PSYS:                   00. H 1023 HPA CENTERED OVER SERBIE.
                        MINOR L 1015 HPA OVER SW FRANCE WITH QUASI
                        FRONTOLYSED WARM FRONT LYING OVER CENTRAL 
                        PART FRANCE, MOVING ENE 15 KT. ADVECTION OF
                        MILD AIR FROM WSW QUITE VERY HUMID IN THE
                        LOWER LEVELS
SFC WSPD (?=30KT):      05-11 KT, 10-15 KT IN COASTAL REGION
WIND/T:                 1000 FT 220/20 KT PS04
                        2000 FT 240/20 KT PS03
                        5000 FT 250/20 KT MS01
                        10000 FT 260/35 KT MS08
SFC VIS (?5KM):         6-10 KM
CLD:                    BKN ST SC 1000/2000 FT AGL
FZLVL:                  4500 FT AGL, 3000 FT AGL OVER HIGHER GROUNDS
MNM QNH:                1014 HPA
OTLK:                   FM 06 TL 12 Z
                        SFC VIS: 3000-5000 M BR RADZ IN SE EBBU
                        SIG CLD: BKN 400/6000 FT AGL OVER SE EBBU
                        TURB: MOD SFC/FL030.

00000000