0000011100
533
UANT01 CWAO 110558
ARP UAL990 5704N03029W 0558 F350 MS58 225/49 KT
N675UA DDL XXW 110558 F15A
0000011000
534
UANT01 CWAO 110558
ARP QTR702 5128N05235W 0558 F310 MS56 293/58 KT
A7BAG QXS YAY 110558 F17A
0000017900
535
SMVD01 PANC 110000 RRO
BBXX
WOSI 11004 99310 70267
41898 82110 10180 20130 40170 54000 70222 8587/
22223 0//// 20202 30704 40403 50201 6//// 80150 ICE /////=
0000126200
536
SMVD01 PANC 110600 RRC
BBXX
C6TZ9 11064 99300 50495
417// 70319 10230 20216 40120 54/// 7//22 87///
22213 00260 2//// 3//// 4//// 5//// 6//// 80220 ICE /////=
WDB5483 11064 99459 70179
41/// /1537 10110 20026 40080 56020 700// 8////
22213 0//// 2//// 6//// 80070 ICE /////=
WBN4113 11064 99611 71463
41798 69900 11017 21033 49920 56029 70211 85/96
22200 0//// 2//// 3//// 4//// 5//// 6//// 82022 ICE /////=
WXJ63 11063 99611 71464
41/97 80000 11033 21061 49909 57/// 702// 8////
222// 00044 2//// 3//// 4//// 5//// 6//// 8//// ICE /////=
C6FN5 11064 99226 70871
41/// /1719 10250 2//// 40130 54000 7//// 8////
22234 04260 2//// 3//// 4//// 5//// 6//// 8//// ICE /////=
WMDK 11063 99254 10358
41798 43519 10210 20128 40200 52030 7//00 83460
22214 00250 20301 332// 40301 5//// 6//// 80160 ICE /////=
ONCE 11064 99032 50378
41898 41022 10260 2023/ 40080 57020 70200 842//
22263 00280 2//// 3//// 4//// 5//// 6//// 80240 ICE /////=
C6RN3 11064 99209 70744
41/98 /0920 10250 20236 40190 5//// 7//// 8////
22274 00270 2//// 3//// 4//// 5//// 6//// 80240 ICE /////=
WDC6644 11064 99486 71226
41/// 81430 10083 20061 40030 5//// 7//// 8////
22200 04094 2//// 3//// 4//// 5//// 6//// 80072 ICE /////=
0000017500
537
SMVC01 KWBC 110600
BBXX
C6TZ9 11064 99300 50495 417// 70319 10230 20216 40120 54/// 7//22
 87/// 22213 00260 2//// 3//// 4//// 5//// 6//// 80220 ICE /////=
0000030600
538
SMVE01 KWBC 110600
BBXX
ELEI6 11063 99054 30784 41397 63211 00/// 10282 2025 40135 54005
 70211 832// 22254 0//// 20201 3//// 4//// 5//// 6//// 80270=
C6SE7 11064 99338 31512 41797 20504 10190 2//// 40180 54/// 70200
 82489 22200 04220 20102 3//// 40102 50102 6//// 8//// ICE /////=
0000042900
539
UDAS02 EGRR 110601
AMDAR 1104
LVR EU0048   2147N 08353E 110404 F390 MS547 270/082 TB/ S031=
LVR EU0048   2108N 08443E 110411 F390 MS535 262/075 TB/ S031=
LVR EU0048   2029N 08532E 110418 F390 MS545 261/073 TB/ S031=
LVR EU0048   1949N 08616E 110425 F410 MS585 262/059 TB/ S031=
LVR EU0048   1909N 08659E 110432 F410 MS587 256/048 TB/ S031=
LVR EU0048   1829N 08741E 110439 F410 MS590 251/041 TB/ S031=
0000035100
540
SMVB01 KWBC 110600
BBXX
46070 11061 99551 11753 46/// ///// 10020 20003 49774 52003 90550
 22200 00037 11208 70040=
52211 11061 99153 11457 46/// ///// 1//// 90548 22200 00281 10705
 20705 305// 41101 70024=
V2OB9 11064 99307 11225 41395 80406 10085 20006 40283 56020 71022
 886// 22200 04180 20402 3//// 4//// 5//// 80050=
0000060100
541
SMVF01 KWBC 110600
BBXX
DK7210 11061 99540 10066 46/// /2213 30068=
WDB5483 11064 99459 70179 41/// /1537 10110 20026 40080 56020
 700// 8//// 22213 0//// 2//// 6//// 80070 ICE /////=
WDC6923 11064 99394 70221 41597 81937 10160 2014/ 40055 57044
 78166 889// 22253 0//// 20705 32630 41106 51606 6//// 80150 ICE
 /////=
A8SO9 11064 99357 10325 41598 52713 10150 20132 40225 52005 70222
 854// 22223 20401 3//// 4//// 5//// 80140=
WDD6126 11064 99433 70240 43398 81840 10145 20110 49935 57100
 7//// 88500 22254 00121 20605 331// 41208 5//// 6//// 80125 ICE
 /////=
0000292200
542
SMVD01 KWBC 110600
BBXX
BAREU13 11064 99522 70366 46/// ///// 4//// 22264=
D5BC6 11064 99542 71634 41697 81319 10040 20020 49840 57100 70352
 874// 22264 00050 20502 31313 40504 50503 80020=
46011 11061 99350 71210 46/// /3307 10142 40215 51009 90550 22200
 00141 11306 20402 332// 41305 70028 333 91209 555 11078 22083
 30548 43309 60549 328072 326071 326066 330065 334060 337060=
46219 11061 99332 71199 46/// ///// 1//// 90540 22200 00143 11305
 20903 330// 41304 70026=
46211 11061 99469 71242 46/// ///// 1//// 90543 22200 00080 11410
 20808 328// 41406 70049=
46014 11061 99394 71240 46/// /2201 10090 40230 54000 90550 22200
 00112 11508 20401 3//// 41508 70041 333 91202 555 11013 22014
 30540 41502 60549 220013 198014 196012 193012 206013 209011=
51206 11061 99198 71550 46/// ///// 1//// 90533 22200 00251 11005
 21004 334// 41403 70025=
46084 11061 99566 71361 46/// /0404 10046 20010 49901 58037 90550
 22200 00074 11206 20401 300// 41206 70032 333 91206 555 11045
 22046 30502 40606 60549 044044 057041 061036 065034 071036 078037
 80405 90550=
46114 11061 99367 71223 46/// ///// 1//// 90538 22200 00125 11306
 21003 329// 41305 70030=
41002 11061 99319 70748 46/// ///// 10228 40224 58016 90550 22200
 00240 10805 70026=
41113 11061 99284 70805 46/// ///// 1//// 90540 22200 00180 10802
 20802 70011=
44100 11061 99363 70756 46/// ///// 1//// 90534 22200 00089 10502
 20502 312// 41101 70010=
44095 11061 99358 70753 46/// ///// 1//// 90547 22200 00124 10604
 20604 306// 41301 70018=
41115 11061 99184 70673 46/// ///// 1//// 90541 22200 10902 20902
 336// 41101 70010=
44022 11061 99409 70737 46/// /0404 10015 20010 90545 333 91204
 555 11036 22036=
44096 11061 99370 70758 46/// ///// 1//// 90547 22200 00070 10602
 20601 312// 40901 70008=
46215 11061 99352 71209 46/// ///// 1//// 90535 22200 00131 11404
 21002 327// 41403 70019=
46232 11061 99325 71174 46/// ///// 1//// 90533 22200 00161 11403
 20802 328// 41402 70015=
46217 11061 99342 71194 46/// ///// 1//// 90539 22200 00152 11303
 20702 328// 41302 70013=
46243 11061 99462 71241 46/// ///// 1//// 90546 22200 00087 10809
 20807 327// 41505 70043=
46251 11061 99338 71196 46/// ///// 1//// 90539 22200 00157 11403
 20902 327// 41402 70013=
44058 11061 99376 70763 46/// /1705 10079 40196 90540 333 91206
 555 11057 22062=
44059 11061 99368 70763 46/// /1603 10141 40185 90540 333 91203
 555 11031 22034=
44041 11061 99372 70768 46/// /1302 10079 90540 333 91204 555
 11024 22026=
44063 11061 99390 70764 46/// /3202 10019 40187 90540 333 91202
 555 11022 22024=
44042 11061 99380 70763 46/// /1702 10072 40189 90540 333 91203
 555 11025 22028=
44062 11061 99386 70764 46/// /3402 10028 40201 90540 333 91203
 555 11023 22025=
44064 11061 99370 70760 46/// /1306 10095 40194 90540 333 91207
 555 11065 22070=
0000069300
543
UDEU02 EGRR 110601
AMDAR 1105
ASC EU1110   5221N 00443E 110557 F000 PS045 199/008 TB0 S031
333 F000 VG011=
ASC EU1110   5221N 00443E 110558 F000 PS045 223/010 TB1 S031
333 F000 VG021=
ASC EU1110   5220N 00443E 110558 F002 PS042 230/012 TB1 S031
333 F002 VG024=
ASC EU1110   5220N 00443E 110558 F004 PS037 216/015 TB0 S031
333 F004 VG012=
ASC EU1110   5220N 00443E 110558 F006 PS030 218/017 TB0 S031
333 F006 VG008=
ASC EU1110   5220N 00443E 110558 F010 PS030 224/021 TB0 S031
333 F010 VG014=
ASC EU1110   5219N 00443E 110558 F013 PS027 236/025 TB0 S031
333 F013 VG018=
ASC EU1110   5219N 00443E 110558 F016 PS022 247/030 TB0 S031
333 F016 VG017=
0000014100
544
SMKA02 PTYA 110600
AAXX 11064
91317 32474 60912 10294 20272 30070 40074 5//// 81202 333
562/9 70015 81818 84080 555 91106
0000013300
545
SMBD01 WBSB 110600
AAXX 11064
96315 31460 73107 10298 20247 40109 71522 83968
333 82816 81917 85278=
96323 NIL=
0000324300
546
SMMX01 MXBA 110600
AAXX 11061
76040 32920 03601 10110 20072 30185 40199 52018 90550 333   
10248 20042 30/// 55092 58034 98620=
76220 31920 00000 10000 2//// 38170 40179 52016 70002 90545 
333   10184 21018 30/// 55087 58032 96122 96126=
76225 32920 02701 10098 21013 38621 40108 52012 90540 333   
10215 20098 30/// 55062 58029=
76243 32970 02202 10138 20121 39843 40133 52010 90540 333   
10230 20096 30/// 55011 59020=
76305 32970 03302 10172 20059 30164 40173 51003 90545 333   
10230 20140 30/// 55069 58///=
76323 32950 23601 10038 21012 38304 40216 52018 80002 90540 
333   10194 20040 30/// 55042 56005 58032 83268=
76342 31840 71801 10180 20042 39444 40131 52002 70222 87070 
90550 333   10275 20090 30/// 55066 2//// 56050 59005 87458 
=
76382 32960 41401 10134 20102 38915 40146 52014 80001 90545 
333   10244 20098 30/// 55046 2//// 56005 58044 84076=
76390 31950 02002 10069 21020 38240 40150 52012 70544 90548 
333   10210 20050 30/// 55097 2//// 58030=
76393 31910 02201 10164 20128 39569 40135 52009 70544 90549 
333   10278 20145 30/// 55078 58000 91102 91401=
76458 32960 03302 10192 20148 30146 40150 52008 90545 333   
10271 20152 30/// 55092 58005=
76548 32460 32960 80601 10194 20188 30140 40140 51011 885// 
90545 333   10282 20168 30/// 55053 56050 59044 88358=
76556 32960 01602 10143 20098 39122 40127 54000 90547 333   
10266 20100 30/// 55098 58004=
76577 32560 40000 10144 20129 38055 40159 52014 84500 90540 
333   10220 20062 30/// 55057 56500 58004 84622=
76581 32960 02601 10127 20112 39058 40147 52016 90550 333   
10280 20180 30/// 55072 58///=
76593 32950 01403 10220 20214 30152 40154 52004 90550 333   
10302 20206 30/// 55053 21046 59023=
76612 32860 32701 10112 20063 38485 40143 52011 83030 90550 
333   10248 20050 30/// 55085 21096 56050 58000 83358=
76658 11558 32701 10220 20199 39656 40154 52013 69931 70540 
82550 90550 333   10312 20150 30/// 55095 58009 82622 81356 
98914=
76683 32965 00000 10102 20064 37836 40139 51010 90545 333   
10216 20055 30/// 50291 55088 21672 59005=
76695 32956 00000 10208 20202 30134 40140 58002 90550 333   
10322 20208 30/// 55074 59030=
SMMX01 MXBA 110600 
AAXX 11061
76726 32968 03301 10186 20093 38396 40082 52008 90545 333   
10272 20152 30/// 55083 58006=
76743 31940 03500 10210 20195 30126 40134 55001 70000 90545 
333   10250 20205 30/// 55/// 59037=
76750 32558 20502 10232 20221 30138 40148 57005 82100 90545 
333   10310 20166 30/// 55063 56300 59016 82820=
76775 32960 00801 10154 20110 38525 40146 52012 90545 333   
10306 20088 30/// 55091 59009=
76845 32930 00000 10104 20101 37953 40170 51004 90548 333   
10225 20070 30/// 55062 59007=
76855 32980 03602 10236 20198 30083 40131 53019 90540 333   
10330 20206 30/// 55105 58/// 92001=
76160 32958 01101 10154 20001 39933 40182 52018 90540 333   
10265 20070 30/// 58032=
76412 32960 01801 10130 20109 30128 40174 52001 90548 333   
10270 20100 30/// 55047 58010=
76525 32960 02302 10085 21029 37479 40141 52005 90540 333   
10138 20065 30/// 55096 22593 58013=
76843 32965 02901 10209 20182 39483 40114 52006 90545 333   
10309 20155 30/// 55108 59026=
0000017900
547
SNVE01 KWBC 110400 RRG
BBXX
9MCY6 11044 99025 11017 41498 11800 10280 20253 40140 54000 7//00
 81/9/ 22200 00290 20400 33535 40400 50400 6//// 80260 ICE /////=
0000010400
548
SMVD80 KWBC 110600
BBXX
WDC6055 11064 99416 70871 43/// /1711 10054 40018 2227/ 00036=
0000195100
549
SNVD01 KWBC 110500 RRN
BBXX
41052 11051 99183 70648 46/// /0808 10260 40175 90510 333 91210
 555 11088 22096=
42085 11051 99179 70665 46/// /0506 10252 40173 90520 333 91207
 555 11067 22073=
42085 11051 99179 70665 46/// /0606 10252 40174 90510 333 91207
 555 11066 22072=
41052 11051 99183 70648 46/// /0808 10260 40172 90530 333 91210
 555 11084 22091=
41052 11051 99183 70648 46/// /0808 10260 40173 90520 333 91210
 555 11086 22093=
42085 11051 99179 70665 46/// /0606 10252 40171 90530 333 91208
 555 11068 22074=
44039 11051 99411 70727 46/// /1103 10033 20032 90530 333 91204
 555 11036 22041=
44060 11051 99413 70721 46/// /0502 10043 20040 40251 90530 22200
 00042 333 91203 555 11026 22026=
46218 11051 99345 71208 46/// ///// 1//// 90529 22200 00134 11306
 21004 330// 41305 70031=
46222 11051 99336 71183 46/// ///// 1//// 90503 22200 00158 11302
 20702 327// 41302 70011=
46216 11051 99343 71198 46/// ///// 1//// 90512 22200 00151 11202
 21002 326// 41202 70012=
46223 11051 99335 71178 46/// ///// 1//// 90518 22200 00157 11301
 21001 327// 41301 70007=
46225 11051 99329 71174 46/// ///// 1//// 90512 22200 00156 11402
 20802 328// 41402 70012=
41053 11051 99185 70661 46/// /0809 10258 40176 90530 333 91213
 555 11096 22104=
41053 11051 99185 70661 46/// /1103 10251 40177 90520 333 91205
 555 11036 22039=
46126 11051 99540 71666 46/// /2501 10037 49826 90518 22200 00045
 1//00 70001 333 91202 555 11010 22011=
46126 11051 99540 71666 46/// /0000 10038 49826 90530 22200 00045
 1//00 70001 333 91201 555 11002 22002=
46126 11051 99540 71666 46/// /2401 10037 49826 90524 22200 00045
 1//00 70001 333 91202 555 11008 22008=
46126 11051 99540 71666 46/// /2501 10037 49826 90520 22200 00045
 1//00 70001 333 91202 555 11010 22011=
46126 11051 99540 71666 46/// /1903 10038 49824 90500 22200 00045
 1//00 70001 333 91203 555 11027 22030=
0000042900
550
UDAS02 EGRR 110602
AMDAR 1104
LVR EU0048   1749N 08822E 110446 F410 MS590 249/035 TB/ S031=
LVR EU0048   1710N 08902E 110453 F410 MS587 255/028 TB/ S031=
LVR EU0048   1630N 08943E 110500 F410 MS590 251/029 TB/ S031=
LVR EU0048   1550N 09023E 110507 F410 MS590 253/031 TB/ S031=
LVR EU0048   1511N 09103E 110514 F410 MS592 233/026 TB/ S031=
LVR EU0048   1433N 09143E 110521 F410 MS592 230/020 TB/ S031=
0000042900
551
UDEU02 EGRR 110602
AMDAR 1105
LVR EU6113   6222N 00735W 110522 F390 MS482 169/015 TB/ S031=
LVR EU6113   6219N 00535W 110529 F390 MS487 210/021 TB/ S031=
LVR EU6113   6214N 00333W 110536 F390 MS480 237/024 TB/ S031=
LVR EU6113   6207N 00130W 110543 F390 MS475 247/019 TB/ S031=
LVR EU6113   6159N 00032E 110550 F390 MS475 292/013 TB/ S031=
LVR EU6113   6148N 00233E 110557 F390 MS475 276/015 TB/ S031=
0000034100
552
SZIO01 AMMC 110600
CREX++
T000103 A001 D01021 D06025++
-1211670 09689190 46280 2014 01 11 05 53 3013 11 07 00 01
01221 0056 01226 0059 01227 0058 01225 0055 01222 0050 01224 0051+
-1042940 10566940 46290 2014 01 11 05 53 //// 11 07 00 01
01187 0033 01215 0059 01188 0030 01211 0050 ///// //// ///// ////++
7777

00000000