0000062700
773
USAA01 NZCM 110000
TTAA 61001 89664
99997 00056 18501 00512 ///// ///// 92601 07158 18518
85255 11341 17017 70716 21114 15006 50514 33959 24513
40666 44759 24520 30855 51765 24023 25975 45585 24514
20124 43786 24513 15318 43586 26009 10592 41586 23504
88320 52361 23026
77999
31313 48008 82219=

0000069700
87361=
0000011200
87368=
0000015000
87382
0000012800
87386
0000045600
87406=
0000047800
87429=
0000005900
87506
0000058300
87508
0000054200
87566=
0000056400
87888
0000058500
88076
0000064700
88361=
0000073200
90638
0000075300
91760
0000060600
774
USAA01 NZCM 110000
TTAA 61001 89664
99997 00056 18501 00512 ///// ///// 92601 07158 18518
85255 11341 17017 70716 21114 15006 50514 33959 24513
40666 44759 24520 30855 51765 24023 25975 45585 24514
20124 43786 24513 15318 43586 26009 10592 41586 23504
88320 52361 23026
77999
31313 48008 82219=

0000069700
87361=
0000011200
87368=
0000015000
87382
0000012800
87386=
0000045700
87427
0000045800
87444
0000047900
87464
0000052000
87476=
0000050100
87588=
0000062600
88115
0000060600
88393=
0000069000
90640
0000069000
91728
0000066800
775
USAA01 NZCM 110000
TTAA 61001 89664
99997 00056 18501 00512 ///// ///// 92601 07158 18518
85255 11341 17017 70716 21114 15006 50514 33959 24513
40666 44759 24520 30855 51765 24023 25975 45585 24514
20124 43786 24513 15318 43586 26009 10592 41586 23504
88320 52361 23026
77999
31313 48008 82219=

0000069700
87361=
0000011200
87368=
0000015000
87382=
0000030600
87414
0000014800
87423
0000049900
87438=
0000050000
87532=
0000048100
87747
0000060500
87944
0000058500
88151
0000060600
88411
0000056500
88680
0000058600
89172
0000066900
89774
0000058700
90626
0000057200
91734
0000064700
776
USAA01 NZCM 110000
TTAA 61001 89664
99997 00056 18501 00512 ///// ///// 92601 07158 18518
85255 11341 17017 70716 21114 15006 50514 33959 24513
40666 44759 24520 30855 51765 24023 25975 45585 24514
20124 43786 24513 15318 43586 26009 10592 41586 23504
88320 52361 23026
77999
31313 48008 82219=

0000069700
87361=
0000011200
87368
0000009600
87371
0000035800
87378
0000037300
87381=
0000039500
87413
0000041600
87422=
0000043800
87504
0000052100
87527=
0000052200
87750
0000060500
87942
0000070900
88146
0000073000
88430=
0000071100
90643
0000073200
91754
0000083300
777
USAA01 NZCM 110000
TTAA 61001 89664
99997 00056 18501 00512 ///// ///// 92601 07158 18518
85255 11341 17017 70716 21114 15006 50514 33959 24513
40666 44759 24520 30855 51765 24023 25975 45585 24514
20124 43786 24513 15318 43586 26009 10592 41586 23504
88320 52361 23026
77999
31313 48008 82219=

0000069700
87361=
0000011200
87368
0000009600
87371
0000035800
87378
0000037300
87381
0000039400
87385
0000039400
87407
0000041500
87411
0000014600
87417
0000045700
87421
0000049900
87440
0000052000
87462
0000050000
87472
0000005900
87495
0000058300
87519
0000056300
87548
0000056300
87600
0000062500
87655
0000054300
87765
0000062600
87953
0000058500
88149
0000060600
88438=
0000062800
90647
0000071100
91762
0000075100
778
USAA01 NZCM 110000
TTAA 61001 89664
99997 00056 18501 00512 ///// ///// 92601 07158 18518
85255 11341 17017 70716 21114 15006 50514 33959 24513
40666 44759 24520 30855 51765 24023 25975 45585 24514
20124 43786 24513 15318 43586 26009 10592 41586 23504
88320 52361 23026
77999
31313 48008 82219=

0000069700
87361=
0000011200
87368=
0000015000
87382
0000012800
87386
0000045600
87406
0000047700
87410
0000049800
87416
0000051900
87420
0000047800
87441
0000045800
87463
0000047900
87474
0000054100
87493=
0000052200
87702=
0000066800
88228
0000062700
88499
0000060700
88774
0000071000
89252
0000071000
89812
0000067000
90691
0000071100
91756
0000041700
779
UDAS02 BABJ 110007
AMDAR 1100
LVR CNFOZN 3732N 11959E 110002 F256 MS418 267/082 TB/ S//1=
LVR CNFOZN 3746N 11948E 110005 F256 MS425 271/077 TB/ S//1=
ASC CNFPTK 3622N 12032E 110004 F146 MS193 278/021 TB/ S//1=
ASC CNFPTK 3625N 12032E 110004 F148 MS195 282/022 TB/ S//1=
ASC CNFPTK 3628N 12033E 110005 F152 MS205 276/023 TB/ S//1=
ASC CNFPTK 3632N 12034E 110005 F170 MS229 269/036 TB/ S//1=
0000029300
780
UDAS02 BABJ 110008
AMDAR 1100
ASC CNFNXP 3619N 11718E 110004 F183 MS236 259/051 TB/ S//1=
ASC CNFNXP 3616N 11718E 110005 F194 MS244 269/051 TB/ S//1=
ASC CNFNXP 3612N 11719E 110006 F208 MS268 271/062 TB/ S//1=
ASC CNFNXP 3608N 11720E 110006 F222 MS303 274/069 TB/ S//1=
0000036100
781
SMGG40 UGGG 110000
AAXX 11001
37279 42994 10001 20011 30030 40179 58003 80001=
37308 429// 00000 11053 21067 39606 40293 52008=
37531 429// 00000 11074 21083 39502 40270 57007=
37553 429// 01801 11008 21074 39558 40226 58019
  333 55///
  555 14106=
37651 16/// ///00 11043 21059 3//// 4//// 5//// 60001
  333 55///=
37492 NIL=
0000083300
782
USAA01 NZCM 110000
TTAA 61001 89664
99997 00056 18501 00512 ///// ///// 92601 07158 18518
85255 11341 17017 70716 21114 15006 50514 33959 24513
40666 44759 24520 30855 51765 24023 25975 45585 24514
20124 43786 24513 15318 43586 26009 10592 41586 23504
88320 52361 23026
77999
31313 48008 82219=

0000069700
87361=
0000011200
87368
0000009600
87371
0000035800
87378
0000037300
87381
0000039400
87385
0000039400
87407
0000041500
87411
0000014600
87417
0000045700
87421=
0000050000
87501
0000056200
87513
0000060400
87556
0000054200
87613
0000052200
87648
0000064600
87794
0000056400
87973
0000064700
88154
0000062700
88443
0000060600
88737
0000077200
89192
0000077200
89732
0000075200
90696
0000062800
91770
0000079200
783
USAA01 NZCM 110000
TTAA 61001 89664
99997 00056 18501 00512 ///// ///// 92601 07158 18518
85255 11341 17017 70716 21114 15006 50514 33959 24513
40666 44759 24520 30855 51765 24023 25975 45585 24514
20124 43786 24513 15318 43586 26009 10592 41586 23504
88320 52361 23026
77999
31313 48008 82219=

0000069700
87361=
0000011200
87368
0000009600
87371
0000035800
87378
0000037300
87381
0000039400
87385
0000039400
87407
0000041500
87411
0000014600
87417
0000045700
87421=
0000050000
87501
0000056200
87513
0000060400
87556
0000054200
87613
0000052200
87648=
0000060600
88245
0000060600
88519
0000058600
88788
0000052400
89253
0000060700
89807
0000071100
90690
0000071100
91767
0000068900
784
USAA01 NZCM 110000
TTAA 61001 89664
99997 00056 18501 00512 ///// ///// 92601 07158 18518
85255 11341 17017 70716 21114 15006 50514 33959 24513
40666 44759 24520 30855 51765 24023 25975 45585 24514
20124 43786 24513 15318 43586 26009 10592 41586 23504
88320 52361 23026
77999
31313 48008 82219=

0000069700
87361=
0000011200
87368=
0000015000
87382
0000012800
87386
0000045600
87406=
0000047800
87429
0000015700
87445
0000049900
87465
0000054100
87473=
0000050100
87586
0000062500
87637
0000052200
87823
0000056400
88019
0000052300
88214
0000070900
88461=
0000075200
90652
0000077300
91765
0000075100
785
USAA01 NZCM 110000
TTAA 61001 89664
99997 00056 18501 00512 ///// ///// 92601 07158 18518
85255 11341 17017 70716 21114 15006 50514 33959 24513
40666 44759 24520 30855 51765 24023 25975 45585 24514
20124 43786 24513 15318 43586 26009 10592 41586 23504
88320 52361 23026
77999
31313 48008 82219=

0000069700
87361=
0000011200
87368
0000009600
87371
0000035800
87378
0000037300
87381
0000039400
87385
0000039400
87407=
0000012000
87430
0000054000
87439=
0000056200
87534=
0000060500
87732
0000056400
87842
0000056400
88013
0000054400
88200
0000070900
88485
0000066800
88710
0000060700
89156
0000073100
89747
0000062800
90644
0000067000
91764
0000073000
786
USAA01 NZCM 110000
TTAA 61001 89664
99997 00056 18501 00512 ///// ///// 92601 07158 18518
85255 11341 17017 70716 21114 15006 50514 33959 24513
40666 44759 24520 30855 51765 24023 25975 45585 24514
20124 43786 24513 15318 43586 26009 10592 41586 23504
88320 52361 23026
77999
31313 48008 82219=

0000069700
87361=
0000011200
87368
0000009600
87371
0000035800
87378
0000037300
87381
0000039400
87385=
0000043700
87428
0000047800
87442
0000056100
87461=
0000021900
87579=
0000050200
87870
0000054300
88010
0000064700
88198
0000060600
88477
0000068900
88745
0000062800
89199
0000071100
89775
0000073100
90669
0000073200
91749
0000015800
787
SMVD15 KWNB 110000 RRH
BBXX
41056 11001 99183 70655 46/// /0608 10260 40175 53014 90000 22200
00267 10703 70016 333 91210 555 11088 22096=
0000073000
788
USAA01 NZCM 110000
TTAA 61001 89664
99997 00056 18501 00512 ///// ///// 92601 07158 18518
85255 11341 17017 70716 21114 15006 50514 33959 24513
40666 44759 24520 30855 51765 24023 25975 45585 24514
20124 43786 24513 15318 43586 26009 10592 41586 23504
88320 52361 23026
77999
31313 48008 82219=

0000069700
87361=
0000011200
87368
0000009600
87371
0000035800
87378
0000037300
87381=
0000039500
87413
0000041600
87422
0000043700
87443
0000045800
87466
0000054100
87469=
0000050100
87581
0000046000
87641=
0000054400
88252
0000056500
88523
0000064800
88790
0000060700
89262
0000058600
89821
0000062800
90720
0000073200
91768
0000062700
789
USAA01 NZCM 110000
TTAA 61001 89664
99997 00056 18501 00512 ///// ///// 92601 07158 18518
85255 11341 17017 70716 21114 15006 50514 33959 24513
40666 44759 24520 30855 51765 24023 25975 45585 24514
20124 43786 24513 15318 43586 26009 10592 41586 23504
88320 52361 23026
77999
31313 48008 82219=

0000069700
87361=
0000011200
87368=
0000015000
87382=
0000030600
87414
0000014800
87423=
0000050000
87499=
0000062500
87711=
0000058500
88238
0000062700
88513
0000052400
88762
0000054500
89225
0000060700
89809
0000079300
90695
0000071100
91772
0000045400
790
SMBJ01 DBBB 110000
AAXX 11004
65306 31940 50604 10230 20049 39797 40126 70522 80002
  333 0//00 58005 85076=
65319 32958 50000 10230 20108 39635 40107 80002
  333 0//00 58000 85076=
65330 31910 50606 10246 20054 39682 40115 70522  80002
  333 0//00 58009 85076=
65335 33956 51404 10261 20209 39894 40115 80002
  333 0//00 58002 85076=
65344 32458 52004 10281 20251 30100 40107 81502
  333 0//00 58002 81611 85076=
/=
0000098400
791
SAAU31 AMMC 110000
METAR YBAS 110000Z 11010KT CAVOK 34/05 Q1016=
METAR YBBN 110000Z 11007KT 9999 FEW030 SCT063 27/16 Q1018
     NOSIG=
METAR YBCS 110000Z 16009KT 9999 FEW010 SCT025 BKN065 29/24 Q1011
     INTER 0100/0300 VRB15G25KT 4000 SHRA BKN020=
METAR YBTL 110000Z 12014KT 9999 VCSH FEW015 SCT021 BKN058 28/23 Q1013
     INTER 0000/0300 4000 SHRA BKN016=
METAR YMML NIL=
METAR YPAD 110000Z 21006KT CAVOK 25/12 Q1019
     NOSIG=
METAR YPCC 110000Z 15010KT 9999 FEW025 BKN037 27/21 Q1012=
METAR YPDN 110000Z 22006KT 9999 FEW020 BKN350 28/24 Q1009
     NOSIG=
METAR YPKU 110000Z AUTO 02004KT 9999 // NCD 31/26 Q1010=
METAR YPLM 110000Z AUTO 18004KT 9999 // NCD 30/20 Q1009=
METAR YPPH 110000Z 06014KT CAVOK 27/11 Q1016
     NOSIG=
METAR YPTN 110000Z AUTO 07009KT 9999 // SCT030 30/23 Q1010=
METAR YPXM 110000Z AUTO 00000KT //// // NCD 25/23 Q1012=
METAR YSSY 110000Z 32006KT 260V010 CAVOK 29/15 Q1017
     FM0100 05010KT CAVOK=
0000064700
792
USAA01 NZCM 110000
TTAA 61001 89664
99997 00056 18501 00512 ///// ///// 92601 07158 18518
85255 11341 17017 70716 21114 15006 50514 33959 24513
40666 44759 24520 30855 51765 24023 25975 45585 24514
20124 43786 24513 15318 43586 26009 10592 41586 23504
88320 52361 23026
77999
31313 48008 82219=

0000069700
87361=
0000011200
87368
0000009600
87371
0000035800
87378
0000037300
87381=
0000039500
87413=
0000052000
87479
0000056200
87492
0000045900
87517=
0000054300
87740=
0000056500
88795
0000058600
89257
0000062800
89793
0000069000
90693
0000060800
91771
00000000