0000014000
573
SAUK39 EGGY 102100
METAR EGUN 102058Z AUTO 22012KT 9999 SCT095 BKN110 08/07 A2988 RMK
      AO2 SLP122 T00810067 57008=

0000011000
574
SAHK31 VHHH 102100 RRA
METAR RPMZ 102100Z 00000KT 9999 -RA FEW018 OVC100 24/23 Q1011 A2987=

0000050500
575
FTBZ31 KWBC 102112
TAF
TAF SBCB 102100Z 1100/1124 07010KT 8000 FEW020 TN24/1106Z
      TX33/1116Z
      BECMG 1104/1106 FEW016
      BECMG 1110/1112 07015KT FEW020
      BECMG 1113/1115 0902 0KT
      BECMG 1119/1121 07015KT RMK PGS=
TAF SBGL 102100Z 1100/1206 10010KT 8000 FEW020 TN24/1108Z
      TX34/1117Z
      BECMG 1109/1111 02005KT
      BECMG 1112/1114 07005KT
      BECMG 1115/1117 14015KT BE CMG 1121/1123 10010KT
      BECMG 1204/1206 07005KT RMK PGS=

0000023500
576
FTUS41 KWBC 102112 AAA
TAF AMD
KBDL 102109Z 1021/1124 18004KT P6SM SCT012 OVC035
     FM110800 00000KT P6SM OVC008
     FM111200 17006KT 1SM -RA OVC008
     FM111500 18009KT 1/2SM -RA FG OVC003 WS020/19045KT=

0000023900
577
FTUS41 KWBC 102112 CCA
TAF COR
KBDL 102110Z 1021/1124 18004KT 4SM BR SCT012 OVC035
     FM110800 00000KT 4SM BR OVC008
     FM111200 17006KT 1SM -RA OVC008
     FM111500 18009KT 1/2SM -RA FG OVC003 WS020/19045KT=

0000022900
578
FTUS31 KWBC 102112 AAA
TAF AMD
KBOS 102109Z 1021/1124 16006KT 3SM BR SCT008 OVC025
     FM110400 20005KT P6SM OVC012
     FM111300 17010G18KT 2SM -RA OVC008
     FM111500 18012G25KT 1/2SM -RA FG OVC003=

0000068700
579
FTUS71 KWBC 102112 AAA
TAF AMD
KBDL 102109Z 1021/1124 18004KT P6SM SCT012 OVC035
     FM110800 00000KT P6SM OVC008
     FM111200 17006KT 1SM -RA OVC008
     FM111500 18009KT 1/2SM -RA FG OVC003 WS020/19045KT=
KBOS 102109Z 1021/1124 16006KT 3SM BR SCT008 OVC025
     FM110400 20005KT P6SM OVC012
     FM111300 17010G18KT 2SM -RA OVC008
     FM111500 18012G25KT 1/2SM -RA FG OVC003=
KMHT 102111Z 1021/1118 18004KT P6SM OVC018
     FM110600 00000KT 4SM BR OVC020
     FM111200 VRB03KT 2SM -FZRA BR OVC008
     FM111300 15004KT 1SM -RA BR OVC008
     FM111500 18005KT 3/4SM -RA BR OVC003
     FM111700 18009KT 3/4SM -RA BR OVC003 WS020/20045KT=

0000023900
580
FTUS71 KWBC 102112 CCA
TAF COR
KBDL 102110Z 1021/1124 18004KT 4SM BR SCT012 OVC035
     FM110800 00000KT 4SM BR OVC008
     FM111200 17006KT 1SM -RA OVC008
     FM111500 18009KT 1/2SM -RA FG OVC003 WS020/19045KT=

0000025800
581
FTUS72 KWBC 102112 AAA
TAF AMD
KCLL 102111Z 1021/1118 20006KT P6SM VCSH OVC006
     FM102200 21007KT P6SM BKN015 BKN250
     FM102330 22008KT P6SM BKN019 OVC027
     FM110800 30005KT P6SM BKN250
     FM111600 35006KT P6SM SCT090=

0000010300
582
SAPA31 KWBC 102100 RRA
METAR
PHMK 102109Z 03007KT 10SM BKN020 24/21 A3000 RMK AO2=

0000028800
583
FTRS34 RUMS 102000 AAB
TAF AMD UWKD 102110Z 1021/1121 15004MPS 1500 BR OVC004 650040 TEMPO
1021/1024 0300 FZDZ FZFG OVC002 640000 BECMG 1100/1102 17006G12MPS
2000 SNRA OVC005 SCT015CB 530001 TEMPO 1102/1106 0700 +SHSNRA VV003
BKN010CB TEMPO 1106/1115 18009G15MPS=

0000025100
584
FTBZ23 SBGL 102101
TAF SBGL 102100Z 1100/1206 10010KT 8000 FEW020
TN24/1108Z TX34/1117Z 
BECMG
 1109/1111 02005KT BECMG 1112/1114 07005KT BECMG 1115/1117
14015KT BE
CMG
 1121/1123 10010KT BECMG 1204/1206 07005KT RMK PGS=

0000039700
585
SAPO31 LPMG 102100
METAR LPBJ 102100Z 16003KT 120V190 9999 FEW040 11/08 Q1014=
METAR LPFR 102100Z 03003KT 350V060 CAVOK 12/09 Q1013=
METAR LPMA 102100Z 01010KT 9999 FEW015 17/12 Q1016 RS21003KT
0501010KT 2336009KT=
METAR LPPR 102100Z 35003KT CAVOK 10/09 Q1015=
METAR LPPS 102100Z 03004KT 9999 FEW014 16/15 Q1016=
METAR LPPT 102100Z 35004KT 320V030 CAVOK 12/10 Q1014=

0000034000
586
SAPO32 LPMG 102100
METAR LPAZ 102100Z 19016KT 9999 -RADZ BKN007 BKN022 16/15 Q1012=
METAR LPFL 102100Z NIL=
METAR LPHR 102100Z 20010KT 9999 SCT007 BKN012 BKN030 14/12 Q1007=
METAR LPLA 102100Z 25012KT 9999 FEW009 SCT018 BKN032 15/13 Q1006=
METAR LPPD 102100Z 19015KT 8000 -SHRA SCT005 BKN010 BKN025 16/16
Q1009=

0000037500
587
SAID31 WIII 102100
METAR WIII 102100Z 00000KT 4100 BR FEW021 SCT100 25/23 Q1008 NOSIG= 
METAR WADD 102100Z VRB01KT 9999 FEW015CB FEW017 25/24 Q1009 NOSIG= 
METAR WAAA 102100Z 08004KT 6000 -RA FEW017CB BKN019 24/24 Q1010 RETS=
METAR WARR 102100Z 00000KT 5000 FEW020 25/23 Q1009= 
METAR WIHH NIL=
METAR WIMM NIL=
METAR WABB NIL=
METAR WIDD NIL=

0000032300
588
SAIO31 KWBC 102100 RRB
METAR
FMMI 102100Z 00000KT 9999 FEW017 BKN230 19/19 Q1021 NOSIG=
WBGG 102100Z 11002KT 8000 -RA FEW000 SCT020 BKN150 22/22 Q1011
     NOSIG=
WBKK 102100Z 09003KT 9999 FEW014 SCT140 BKN270 24/23 Q1010
     NOSIG=
WBSB 102100Z 23002KT 9999 FEW005 BKN280 25/24 Q1011 NOSIG=

0000017900
589
SAID33 WIII 102100
METAR WABP NIL=
METAR WAJJ NIL=
METAR WAKK NIL=
METAR WAPP NIL=
METAR WARS NIL=
METAR WATT NIL=
METAR WALR NIL=
METAR WARQ NIL=

0000034500
590
SAID32 WIII 102100
METAR WADL 102100Z 00000KT 8000 HZ SCT016 25/25 Q1010= 
METAR WALL 102100Z 31005KT 7000 FEW018CB BKN018 25/24 Q1009 NOSIGRMK
CB TO S= 
METAR WIBB 102100Z 00000KT 7000 SCT016 24/23 Q1006 NOSIG= 
METAR WAMM NIL=
METAR WIDN NIL=
METAR WIPT NIL=
METAR WIOO NIL=
METAR WIPP NIL=
METAR WAOO NIL=

0000047000
591
SANM40 FYWW 102100
METAR FYGO 102100Z AUTO 17002KT //// // ////// 23/15 Q1014=
METAR FYKT 102100Z AUTO 19007KT //// // ////// 25/07 Q1017=
METAR FYLZ 102100Z AUTO 16017KT //// // ////// 18/07 Q1013=
METAR FYOA 102100Z AUTO 14001KT //// // ////// 23/04 Q1013=
METAR FYWB 102100Z AUTO 24003KT //// // ////// 17/14 Q1014=
METAR FYWH 102100Z AUTO 23006KT //// // ////// 14/M02 Q1021=
METAR FYWW 102100Z AUTO 20006KT //// // ////// 22/04 Q1021=

0000013300
592
SACN62 CYYB 102100 CCA
METAR CYYB 102100Z CCA 16008KT 8SM -SN OVC008 M04/M05 A3002 RMK ST8
 PCPN VRY LGT SLP190=

00000000