0000036200
486
USAK40 KBWL 110600
TTAA 61061 70027
99008 23325 32013 00069 23915 32013 92644 18918 33522
85275 17764 35023 70709 26111 35025 50508 40162 01028
40657 49342 36032 30841 58164 36038 25956 59568 35037
20095 59173 34030 15277 58577 32034 10532 58579 31054
88272 59766 35538
77999
31313 48108 80530
51515 10164 00008 10194 34021 35525=
0000014400
487
UEAK40 KBWL 110600
TTDD 6106/ 70027
11456 57781
31313 48108 80530=
PPDD 61068 70027
96013 30577 30568 29580 967// 31104=
0000013800
488
ULAK40 KBWL 110600
TTCC 61065 70027
70756 59579 31068 50967 57980 30097
88999
77457 31104 423//
31313 48108 80530=
0000074800
489
SNNO21 ENMI 110700
AAXX 11071
01001 NIL=
01008 46/// /2608 11002 21048 30054 40087 52004=
01010 41689 11106 11054 21120 30150 40167 52002 70300 81100=
01026 NIL=
01055 46/// /2003 11018 21080 30153 40171 54001=
01062 NIL=
01098 46/// /0105 11018 21088 30138 40156 52003=
01115 NIL=
01152 46/// /1207 11078 21174 30111 40128 53011=
01205 46/// /0304 11008 21052 39938 49985 55001=
01212 NIL=
01271 47/84 00904 11122 21161 30022 40044 53005 700//=
01288 46/// /0903 11156 21184 39268 40062 53009=
01300 NIL=
01317 NIL=
01367 46/// /1102 11045 21064 39540 49989 53003=
01384 46550 /0304 11053 21064 51013=
01403 NIL=
01415 47/69 22706 10061 20026 39996 40006 52002 723//=
01482 NIL=
01492 NIL=
0000079000
490
SNNO22 ENMI 110700
AAXX 11071
01003 NIL=
01007 46/// /2001 11014 21060 30071 40081 53003=
01028 NIL=
01047 NIL=
01049 26/// /2102 11163 21180 30196 40200 52005 333 60005=
01078 NIL=
01102 46/// ///// 11063 21115 30044 40064 52001=
01160 NIL=
01218 26/// /1503 11033 21117 39971 49993 52001 333 60005=
01238 46/// /0502 11132 21148 38825 49953 53001=
01241 41486 51011 11077 21122 30013 40025 52006 70322 81772=
01281 46/// /0804 11103 21161 39902 40087 53002=
01338 46/// /2603 10010 21008 39899 49966 57005=
01359 46/// /2305 11009 21039 39045 49953 55003=
01397 46/// /0401 11107 21143 39586 40042 53008=
01400 NIL=
01427 26/// /2910 10061 20031 39993 40009 53002 333 60005=
01447 NIL=
01448 46/// /2705 10057 20042 39997 40007 53003=
0000215200
491
SNRO41 YRBK 110700
AAXX 11071
15015 22598 71901 10003 21019 39603 42803 52011 83509 333 60005 91003
91104
92600=
15020 22597 71300 10027 21026 39996 40199 52020 85570 333 60005 91001
91102=
15090 22597 63001 10020 21007 30108 40203 52020 86500 333 55300 0////
20048
30037 60005 91002 91102 92600=
15108 21/91 92724 11084 21084 38032 48465 52019 74944 333 60005 91034
92723=
15120 22698 62202 11006 21017 39725 40239 52009 86500 333 55300 10060
20009
30009 60005 91003 91104 92611=
15150 22997 20500 11020 21020 39991 40213 52015 81031 333 60005 91001
91103
92600=
15170 22597 72505 10007 21016 39430 42817 52014 87300 333 60005 91008
91109=
15200 22997 81301 10014 20006 30090 40239 52008 8807/ 333 60005 91001
91101=
15230 22598 73400 10001 20001 39951 40256 52008 87500 333 55300 10033
20011
30012 60005 91001 91102=
15260 22599 50901 11009 21035 39696 40252 52009 85500 333 60005 91002
91102
95000=
15280 21093 52724 11124 21156 37469 47004 53018 74141 83570 333 60005
91034=
15292 22598 61501 11002 21004 39949 40255 53008 86500 333 60005 91004
91104
95000=
15310 21995 11802 10010 20008 30134 40223 52020 71000 81030 333 55300
10183
20060 30053 60005 91005 91105 92600=
15335 22997 02502 10057 20003 30212 40218 52018 333 60005 91004
91104=
15346 22997 23503 11010 21050 39940 40242 51017 81041 333 60005 91005
91105
92600 95090=
15350 22997 02503 10029 21022 30101 40224 52017 333 60005 91004
91106=
15360 22997 12306 10024 20015 30199 40214 52020 81040 333 60005 91007
91107=
15410 22997 00502 10009 20005 30141 40240 52007 333 60005 91003
91103=
15420 22997 12301 11028 21031 30117 40234 53017 81040 333 55300 0////
20051
3//// 60005 91002 91103 92600=
15450 22997 31203 10013 21001 39998 40241 52015 82041 333 55300 10183
20036
30016 60005 91005 91105 92600=
15460 22997 22402 10017 20014 30206 40231 52019 81041 333 60005 91003
91103
92600=
15470 22997 22503 11002 21004 30101 40233 51012 80002 333 60005 91004
91105
92611=
15480 21496 62702 10025 20014 30208 40225 52017 71022 83630 333 60005
91003
91103=
0000015700
492
SSVX13 LFPW 110700
ZZYY 13660 11014 0700/ 722270 043931 6113/ 11119 40191 57009 22219
 00244 444 20130 11014 0600/ 50101 80142 80000 9/015=
0000015700
493
SSVX13 LFPW 110700
ZZYY 14527 11014 0700/ 325410 062969 6113/ 11119 40204 57005 22219
 00259 444 20130 11014 0600/ 50101 80148 80024 9/015=
0000015700
494
SSVX13 LFPW 110700
ZZYY 64526 11014 0700/ 766031 008358 6113/ 11119 40033 57001 22219
 00023 444 20130 11014 0600/ 50101 80142 80005 9/015=
0000015700
495
SSVX13 LFPW 110700
ZZYY 14529 11014 0700/ 333373 036082 6113/ 11119 40148 52021 22219
 00229 444 20130 11014 0600/ 50101 80124 80003 9/015=
0000015700
496
SSVX13 LFPW 110700
ZZYY 62516 11014 0700/ 736620 013632 6113/ 11119 40166 57002 22219
 00172 444 20130 11014 0600/ 50101 80140 80018 9/015=
0000015700
497
SSVX13 LFPW 110700
ZZYY 44865 11014 0700/ 735778 016433 6113/ 11119 40165 57004 22219
 00192 444 20130 11014 0600/ 50101 80072 80002 9/015=
0000015700
498
SSVX13 LFPW 110700
ZZYY 16532 11014 0700/ 329383 106353 6113/ 11119 40168 57020 22219
 00219 444 20130 11014 0600/ 50101 80108 80002 9/015=
0000015700
499
SSVX13 LFPW 110700
ZZYY 16622 11014 0700/ 335331 050844 6113/ 11119 40112 57012 22219
 00188 444 20130 11014 0600/ 50101 80152 80026 9/015=
0000015700
500
SSVX13 LFPW 110700
ZZYY 41711 11014 0700/ 717362 050824 6113/ 11119 40168 57009 22219
 00257 444 20130 11014 0600/ 50101 80146 80024 9/015=
0000015700
501
SSVX13 LFPW 110700
ZZYY 14528 11014 0700/ 322175 053187 6113/ 11119 40160 57001 22219
 00269 444 20130 11014 0600/ 50101 80150 80018 9/015=
0000015700
502
SSVX13 LFPW 110700
ZZYY 13662 11014 0700/ 726790 026049 6113/ 11119 40177 57002 22219
 00215 444 20130 11014 0600/ 50101 80142 80013 9/015=
0000014500
503
SSVX13 LFPW 110700
ZZYY 44550 11014 0700/ 752849 014897 6113/ 11119 40136 57003 444
 20130 11014 0600/ 50101 80138 80002 9/015=
0000015700
504
SSVX13 LFPW 110700
ZZYY 44605 11014 0700/ 750475 023822 6113/ 11119 49968 57045 22219
 00110 444 20130 11014 0600/ 50101 80142 80019 9/015=
0000015700
505
SSVX13 LFPW 110700
ZZYY 64664 11014 0700/ 767983 016182 6113/ 11119 40045 52004 22219
 00015 444 20130 11014 0600/ 50101 80148 80006 9/015=
00000000