0000094500
633
SAFR34 LFPW 102030
METAR LFCR 102030Z AUTO 12007KT 9999 NSC 08/02 Q1015=
METAR LFJL 102030Z AUTO 11007KT 9999 NSC 02/01 Q1018=
METAR LFLP 102030Z AUTO VRB02KT 8000 NSC 04/03 Q1019=
METAR LFLS 102030Z AUTO 10007KT 2200 BR NSC 03/03 Q1018=
METAR LFLY 102030Z AUTO 00000KT 2000 BR NSC 05/04 Q1018=
METAR LFMT 102030Z 06006KT 9999 OVC028 12/08 Q1019 NOSIG=
METAR LFMU 102030Z AUTO 08005KT 9999 BKN018 OVC027 12/09 Q1019=
METAR LFOB 102030Z AUTO 18005KT 9999 OVC010 05/04 Q1017=
METAR LFOH 102030Z AUTO 12005KT 7000 SCT004 BKN110 05/03 Q1016=
METAR LFOK 102030Z AUTO 10007KT 7000 FEW001 04/04 Q1018=
METAR LFOP 102030Z AUTO 16006KT 9999 OVC006 05/04 Q1016=
METAR LFPB 102030Z AUTO VRB02KT 8000 OVC008 06/04 Q1018=
METAR LFQA 102030Z AUTO 08003KT 0300 FG BKN002 OVC009 03/03 Q1018=
METAR LFQB 102030Z AUTO 29001KT 0150 FG NSC 01/01 Q1018=
METAR LFSN 102030Z AUTO 00000KT 0450 R03///// FG NSC 01/01 Q1019=

0000010000
634
SAKO31 RKSI 102030
METAR RKSI 102030Z 04006KT 3500 BR SCT030 M04/M05 Q1032 NOSIG=

0000086400
635
SAFR35 LFPW 102030
METAR LFMI 102030Z AUTO 12004KT 9999 OVC025 12/08 Q1019=
METAR LFMK 102030Z AUTO 10011KT 9999 OVC025 11/08 Q1017=
METAR LFOV 102030Z AUTO 08005KT 050V110 0500 FG VV/// 06/06 Q1016=
METAR LFRD 102030Z AUTO 13003KT 110V170 0900 R35///// FG VV///
07/06 Q1015=
METAR LFRI 102030Z AUTO 10004KT 9999 NSC 09/07 Q1015=
METAR LFRM 102030Z AUTO 07005KT 6000 OVC005 07/06 Q1016=
METAR LFRN 102030Z AUTO 11004KT 080V140 3500 BR OVC003 08/07 Q1015=
METAR LFRO 102030Z AUTO 14006KT 9000 NSC 06/05 Q1015=
METAR LFRV 102030Z AUTO 03004KT 3400 BR BKN003/// OVC010/// ///TCU
07/07 Q1015=
METAR LFRZ 102030Z AUTO 05003KT 3400 BR OVC045 08/08 Q1015=
METAR LFSB 102030Z VRB02KT 9999 FEW033 03/01 Q1019 NOSIG=
METAR LFST 102030Z AUTO 00000KT 9999 NSC 02/01 Q1019=
METAR LFTH 102030Z AUTO 00000KT 9999 OVC024 12/09 Q1020=

0000070900
636
SAFR36 LFPW 102030
METAR LFBA 102030Z AUTO 07003KT 9999 NSC 07/06 Q1014=
METAR LFBE 102030Z AUTO 08003KT 5000 BR NSC 05/04 Q1015=
METAR LFGJ 102030Z AUTO 07003KT 9999 NSC 05/03 Q1018=
METAR LFJR 102030Z AUTO 06005KT 010V080 3700 BR NSC 07/07 Q1015=
METAR LFMD 102030Z AUTO VRB02KT 8000 OVC023 10/09 Q1020=
METAR LFMH 102030Z AUTO 13005KT 6000 NSC 07/05 Q1017=
METAR LFOT 102030Z 06007KT 1500 BR OVC001 06/06 Q1016 NOSIG=
METAR LFPN 102030Z AUTO 11004KT 4200 BR OVC003 05/04 Q1017=
METAR LFRC 102030Z AUTO 18010KT 9000 OVC005 06/05 Q1015=
METAR LFRG 102030Z AUTO 20006KT 5000 BR OVC002 05/04 Q1016=
METAR LFRK 102030Z AUTO 15007KT 9000 BKN011 BKN062 OVC100 05/04
Q1016=

0000066700
637
SAFR37 LFPW 102030
METAR LFAQ 102030Z AUTO 19009KT 8000 OVC010 05/04 Q1017=
METAR LFAT 102030Z AUTO 14005KT 8000 FEW012 04/03 Q1017=
METAR LFLN 102030Z AUTO 06005KT 9999 NSC 06/04 Q1017=
METAR LFPM 102030Z AUTO 11004KT 6000 OVC003 06/05 Q1018=
METAR LFPT 102030Z AUTO 19004KT 9999 OVC006 06/04 Q1017=
METAR LFRH 102030Z AUTO 05002KT 8000 OVC005 09/08 Q1015=
METAR LFRQ 102030Z AUTO VRB01KT 0400 R28///// FG OVC003 08/08 Q1015=
METAR LFRT 102030Z AUTO VRB02KT 3300 BR BKN003 OVC015 07/07 Q1015=
METAR LFSD 102030Z AUTO 31002KT 9999 NSC 02/01 Q1018=
METAR LFTW 102030Z AUTO 15002KT 9000 OVC024 10/04 Q1019=
METAR LFBU 102030Z NIL=

0000093500
638
SACI32 ZBBB 111000
METAR ZGKL 111000Z 00000MPS 4000 -DZ BR FEW006 SCT016 OVC036
07/06
Q1026 BECMG FM1200 2500=
METAR ZGNN 111000Z 36003MPS 1600 -DZ BR FEW003 SCT005 OVC026
13/12
Q1022 NOSIG=
METAR ZGOW 111000Z 10003MPS 060V120 7000 NSC 17/12 Q1022 NOSIG=
METAR ZGSZ 111000Z 20003MPS 6000 NSC 17/14 Q1021 NOSIG=
METAR ZLXY 111000Z 24005MPS CAVOK 05/M13 Q1031 NOSIG=
METAR ZMUB 111000Z VRB01MPS 5000NW FU NSC M30/M33 Q1028 NOSIG
RMK
QFE662.8 73 NT=
METAR ZPPP 111000Z 22009MPS CAVOK 14/M03 Q1021 NOSIG=
METAR ZSAM 111000Z 12005MPS CAVOK 17/12 Q1022 NOSIG=
METAR ZSFZ 111000Z 02004MPS 9999 OVC023 14/08 Q1024 NOSIG=
METAR ZSNB 111000Z 33001MPS 1600 -RA BR SCT003 BKN016 OVC040
07/06
Q1029 BECMG TL1130 1400=
METAR ZSQD 111000Z 14002MPS 120V180 3000 FU NSC 01/M05 Q1030 NOSIG=
METAR ZUGY 111000Z 04003MPS 010V080 7000 FEW009 BKN016 OVC033
03/01
Q1024 NOSIG=
METAR ZUUU 111000Z 03003MPS 360V060 8000 NSC 09/M01 Q1027 NOSIG=

0000059300
639
SASP31 LEMM 102030
METAR LEMD 102030Z VRB01KT CAVOK 09/04 Q1015 NOSIG=
METAR LEBL 102030Z 33007KT 290V350 5000 BR SCT020 09/07 Q1019
NOSIG=
METAR LEPA 102030Z 04005KT CAVOK 12/11 Q1018 NOSIG=
METAR LEZL 102030Z 02001KT CAVOK 11/09 Q1014 NOSIG=
METAR LEMG 102030Z 29006KT 9999 FEW020 13/10 Q1015 NOSIG=
METAR LEVC 102030Z VRB01KT 7000 OVC020 11/08 Q1018 NOSIG=
METAR LEAL 102030Z VRB01KT 9000 FEW010 13/11 Q1017 NOSIG=
METAR LEIB 102030Z 00000KT 9000 BKN015 13/11 Q1017 NOSIG=
METAR LEVX 102030Z VRB02KT 6000 2000S FEW005 BKN009 10/09 Q1016
TEMPO 3000 BR=

0000153500
640
SPUS70 KWBC 102034
SPECI
KADF 102029Z AUTO 15004KT 1SM -RA BR OVC005 12/12 A2978 RMK AO2
     CIG 002V007 P0003=
KCEW 102030Z AUTO 07004KT 3/4SM BR OVC001 15/14 A3005 RMK AO2
     T01500144=
KGEZ 102030Z AUTO 14010KT 3SM BR OVC004 05/03 A2994 RMK AO2
     T00500033=
KHLN 102030Z 26009G39KT 210V320 10SM SQ OVC080 05/M06 A2967 RMK
     AO2 PK WND 23039/2023=
KILG 102030Z 06004KT 1 1/2SM BR BKN005 OVC010 03/02 A3035 RMK
     AO2=
KMRB 102030Z 01005KT 2 1/2SM HZ OVC011 03/00 A3028 RMK AO2 CIG
     008V013 T00280000=
KSMQ 102030Z AUTO 00000KT 1 1/2SM BR OVC010 01/M01 A3035 RMK AO2
     T00061006 TSNO=
KTHV 102030Z AUTO 05003KT 2SM BR FEW010 OVC015 02/00 A3031 RMK AO2
     T00220000=
KTXK 102030Z 16006KT 2 1/2SM -RA BR SCT004 BKN014 OVC060 14/14
     A2974 RMK AO2 RAB1954 P0000=
KUIN 102031Z AUTO 17012KT 3SM RA BR BKN006 BKN047 OVC055 05/04
     A2962 RMK AO2 P0007 T00500039=
KHFD 102031Z 00000KT 3SM BR BKN013 OVC055 01/M01 A3037 RMK AO2
     T00111011=
KMIV 102031Z AUTO 00000KT 1 1/4SM -RA BR OVC002 04/04 A3034 RMK
     AO2 RAB22 P0000 T00440044=
KMIW 102031Z AUTO 13005KT 1 1/4SM BR OVC003 00/00 A2956 RMK AO2
     T00000000 TSNO=
KPTK 102031Z 16007KT 2SM BR OVC004 01/01 A2997 RMK AO2=
KPTW 102031Z AUTO 00000KT 5SM BR BKN009 OVC015 02/00 A3035 RMK AO2
     CIG 007V011 T00170000=
PAJZ 102035Z AUTO 31003KT 10SM BKN002 M08/M09 A2954 RMK AO2 PWINO
     TSNO $=
PASO 102031Z AUTO 00000KT 10SM BKN021 OVC028 M01/M02 A2942 RMK AO2
     TSNO=

0000010400
641
SPUS41 KWBC 102034
SPECI
KILG 102030Z 06004KT 1 1/2SM BR BKN005 OVC010 03/02 A3035=

0000012300
642
SPUS42 KWBC 102034
SPECI
KSAV 102030Z 19004KT 3SM R01/4500VP6000FT -RA BR BKN005 OVC010
20/18 A3012=

0000011900
643
SPUS43 KWBC 102034
SPECI
KPIA 102030Z 16015KT 1 1/4SM R13/4500VP6000FT RA BR OVC004 03/02
A2970=

0000010600
644
SPUS44 KWBC 102034
SPECI
KHLN 102030Z 26009G39KT 210V320 10SM SQ OVC080 05/M06 A2967=

0000010000
645
SACA33 KWBC 102000 RRE
METAR
TFFF 102030Z AUTO 07015KT 9999 SCT033 27/20 Q1014=

0000077600
646
SASP32 LEMM 102030
METAR LEAS 102030Z 00000KT 7000 FEW009 SCT012 BKN025 10/10 Q1017
REDZ TEMPO 3000 DZ BKN010=
METAR LEBB 102030Z 34004KT 270V030 9000 SCT014 BKN022 11/09 Q1016
TEMPO 3000 DZ BKN012=
METAR LECO 102030Z 00000KT CAVOK 09/07 Q1017=
METAR LEGE 102030Z 00000KT 6000 BKN017 09/07 Q1018=
METAR LEST 102030Z 00000KT 7000 NSC 07/07 Q1017 NOSIG=
METAR LEZG 102030Z 08005KT 3000 BR BKN002 BKN004 06/06 Q1018=
METAR LESO 102030Z VRB02KT CAVOK 09/08 Q1015=
METAR LEVT 102030Z VRB02KT 7000 NSC 05/04 Q1016=
METAR LERS 102030Z 35004KT 8000 BKN020 11/07 Q1018=
METAR LEMH 102030Z 11003KT 9999 BKN010 12/11 Q1018=
METAR LEAM 102030Z 06003KT 020V100 9999 FEW020 SCT100 14/09 Q1015=
METAR LEGR 102030Z VRB01KT 9999 FEW100 10/06 Q1015=

0000015700
647
SASP33 LEMM 102030
METAR LEVD 102030Z 10002KT CAVOK 03/03 Q1015=
METAR LEVS 102030Z NIL=
METAR LESA 102030Z 00000KT CAVOK 03/02 Q1015=

0000035600
648
SACR31 LEMM 102030
METAR GCLP 102030Z 36009KT 9999 FEW023 18/10 Q1015 NOSIG=
METAR GCXO 102030Z 30013KT 9000 NSC 12/08 Q1016 NOSIG=
METAR GCTS 102030Z 30006KT 9999 FEW030 17/12 Q1015 NOSIG=
METAR GCRR 102030Z 35005KT 340V050 9999 FEW020 15/12 Q1015=
METAR GCFV 102030Z NIL=
METAR GCLA 102030Z 33006KT 300V360 CAVOK 18/06 Q1015=

0000025500
649
SASP34 LEMM 102030
METAR LEDA 102030Z NIL=
METAR LEJR 102030Z 00000KT CAVOK 12/11 Q1013=
METAR LELL 102030Z NIL=
METAR LEPP 102030Z 16004KT 8000 NSC 06/05 Q1016=
METAR LEXJ 102030Z 23004KT 200V260 9999 FEW015 BKN030 12/09 Q1016=

0000008800
650
SASP39 LEMM 102030
METAR LETL 102030Z AUTO 14002KT CAVOK 04/01 Q1017=

0000010000
651
SAUK37 EGGY 102020 RRB
METAR EGPI 102020Z AUTO 33008KT 9999 NCD 04/02 Q1008 RERA=

0000009500
652
SAUK38 EGGY 102020 RRA
METAR EGPU 102020Z AUTO 23006KT 9999 NCD 02/01 Q1006=

00000000