0000191300
373
SZAU01 AMMC 110609
CREX++
T000103 A001 D01021 D06025++
-1927750 14705860 59260 2014 01 11 06 02 3030 11 07 00 01
01988 0222 01989 0217 01999 0222 02003 0220 02006 0218 02019 0225+
-2316110 15079000 59670 2014 01 11 06 02 3002 11 07 00 01
02751 0096 02764 0100 02769 0094 02778 0095 02781 0089 02790 0088+
-3447330 15091170 60420 2014 01 11 06 02 2948 11 07 00 01
01042 -0014 01032 -0025 01030 -0029 01027 -0033 01035 -0027 01040 -0023+
-4105000 14591500 60910 2014 01 11 06 02 2893 11 07 00 01
01334 -0026 01350 -0022 01356 -0025 01372 -0019 01380 -0023 01394 -0019+
-4254640 14793080 61170 2014 01 11 06 02 2895 11 07 00 01
01238 0059 01248 0068 01250 0068 01247 0064 01242 0058 01244 0059+
-3834390 14161360 61410 2014 01 11 06 02 2905 11 07 00 01
00424 0039 00420 0034 00407 0019 00420 0032 00423 0033 00414 0023+
-3214890 13364170 62000 2014 01 11 06 02 2963 11 07 00 01
01097 0174 01099 0174 01104 0176 01105 0174 01108 0174 01108 0172+
-3387080 12189720 62080 2014 01 11 06 02 2948 11 07 00 01
00802 0108 00795 0100 00802 0107 00810 0114 00825 0129 00801 0104+
-3182560 11573860 62237 2014 01 11 06 02 2970 11 07 00 01
00862 0091 00868 0096 00862 0089 00870 0096 00860 0086 00863 0088+
-2422000 11339750 62385 2014 01 11 06 02 //// 11 07 00 01
01169 -0044 01163 -0052 01130 -0086 01109 -0109 01170 -0050 01115 -0106+
-2181670 11419110 62430 2014 01 11 06 02 //// 11 07 00 01
01702 -0032 01697 -0040 01703 -0036 01710 -0031 01709 -0034 01724 -0022+
-1800080 12221830 62650 2014 01 11 06 02 3043 11 07 00 01
05146 0158 05152 0153 05159 0154 05165 0149 05172 0150 05178 0148+
-1247190 13084580 63230 2014 01 11 06 02 3050 11 07 00 01
05556 0135 05557 0138 05556 0138 05557 0141 05555 0142 05556 0143+
-1386000 13641580 63511 2014 01 11 06 02 3045 11 07 00 01
01518 0071 01520 0072 01522 0073 01524 0073 01525 0072 01528 0074++
7777

0000034200
374
SZIO01 AMMC 110609
CREX++
T000103 A001 D01021 D06025++
-1211670 09689190 46280 2014 01 11 06 02 3015 11 07 00 01
01236 0056 01233 0052 01236 0053 01244 0060 01242 0056 01242 0055+
-1042940 10566940 46290 2014 01 11 06 02 //// 11 07 00 01
01153 -0022 01283 0106 01183 0003 01236 0054 01245 0061 01209 0022++
7777

0000047800
375
SZPA01 AMMC 110609
CREX++
T000103 A001 D01021 D06025++
0136250 17293000 67590 2014 01 11 06 02 3017 11 07 00 01
01529 -0014 01533 -0007 01520 -0016 01525 -0007 01518 -0011 01514 -0011+
0710610 17137250 67680 2014 01 11 06 02 3013 11 07 00 01
01007 0111 01000 0107 01007 0116 01008 0120 01001 0115 01003 0120+
0698060 15820000 67950 2014 01 11 06 02 3025 11 07 00 01
00764 -0001 00760 -0004 00760 -0001 00756 -0004 00759 0002 00753 -0002++
7777

0000107100
376
SMBY01 UMMN 110600
AAXX 11061
26554 11460 72906 10020 20007 39819 49981 52030 60022 72162 876//
333 20020 86711 91010 91112 555 90010=
26666 11450 82804 10014 20006 39742 49956 52037 60052 77076 886//
333 20014 88710 91112 555 90011=
26850 11465 67604 10015 21008 39742 40025 52023 60032 70262 875// 333
20012 87616 91110 555 90010=
26863 11460 83011 10024 21006 39742 49977 52025 60022 70282 8657/
333 20019 86619 91015 91118=
26941 32560 72705 10028 20001 39832 40070 52020 87500 333 20028 87624
91011 91113 555 90010=
26951 11470 82908 10024 21003 39853 40053 52025 60012 70262 886// 333
20020 88710 91012 91114 555 90011=
33008 11560 73006 10049 20010 39937 40115 52014 60012 70282 87500 333
20048 87621 91011 91112 555 90010=
33019 11456 82803 10038 20028 39914 40088 52021 60032 71062 886// 333
20037 86712 91110 555 90010=
33036 32565 72504 10033 21014 39822 40052 52026 8657/ 333 20032
91112 555 90012=
33041 11460 72704 10043 21012 39862 40016 52025 60032 70282 879//
333 20036 87619 91010 91112 555 90010=
0000027500
377
SMKA02 PTKK 110600
AAXX 11064
91324 NIL
91329 32474 80410 10300 20272 30105 40108 8443/ 333 56199 70000 
83918 88362 555 91106
91336 NIL
91339 11474 80105 10289 20243 30064 40070 60021 70282 8637/ 333 
56899 70020 86918 88362 555 91106
91320 NIL
0000101800
378
SMUK01 EGRR 110600 RRA
AAXX 11064
03162 15573 /1502 11010 21016 39821 40116 51011 69922
  333 21018 3/105 55000 55300 20000 70082 82/25 83/63=
03257 15971 /2606 10017 21006 30073 40114 53017 69922
  333 20016 3/102 55000 55300 20000 70002 8//99=
03302 17562 /2611 10059 20024 30127 40141 51017 60032 781//
  333 20036 3/101 55001 55300 20000 70056 81/26 87/56=
03414 15974 /2002 10020 20017 30052 40142 51029 60012
  333 20019 3/101 55002 55300 20000 70012 8//99=
03482 17579 /2612 10068 20061 30085 40111 53007 60032 723//
  333 20063 3/004 70030 82/26 85/48=
03502 15583 /2718 10066 20023 39994 40158 51026 60022
  333 20063 3/004 55000 55300 20000 70022 81/24 84/47=
03590 17245 /2311 10071 20067 30006 40116 56003 60022 751//
  333 20066 3/006 55065 55300 20000 70022 87/04=
03746 15981 /2809 10053 20046 39994 40150 53018 60022
  333 20053 3/003 70026 8//99=
03853 15482 /2706 10047 20037 30135 40159 53025 69942
  333 20045 3/001 55009 55300 20000 70006 83/18=
0000409300
379
SMUK42 EGRR 110600
AAXX 11064
03002 15583 /2809 10034 20002 39960 49978 53005 60092
  333 20030 3/001 70092 82/29 90710 91125=
03008 16/// /2923 10046 20028 39935 40009 53006 60022
  333 20043 70024 90710 91137=
03010 46/// /2920 10051 20015 40035 52010
  333 90710 91131=
03031 17310 /2707 10001 21003 39742 40074 52011 69942 772//
  333 21004 3/103 55/// 553// 20000 70008 86/06=
03034 17983 /2610 10037 20011 30055 40069 53009 60052 723//
  333 20015 3/000 70058 83/59 86/64=
03037 17673 /1806 10027 20008 30059 40082 53012 60012 723//
  333 20019 3/000 70030 86/42=
03039 46/// /2917 11026 21032
  333 21029 90710 91126=
03044 17481 /2504 10013 20002 39956 40056 53012 60022 781//
  333 20011 3/101 55/// 553// 20000 70020 81/14 85/50=
03047 17480 /2506 10015 21016 39788 40096 53013 69902 785//
  333 21014 3/104 55/// 553// 20000 70042 82/17 83/31=
03062 17584 /2405 10014 20002 30056 40061 50009 69922 781//
  333 20001 3/104 55/// 553// 20000 70002 83/20 84/58=
03065 46/// ///// 11059 21068
  333 21060=
03068 12784 12518 10020 21005 30049 40058 52003 60002 81530
  333 21014 34107 70000 81650=
03072 46/// /2829 11041 21053
  333 21043 90710 91139 91039=
03080 15982 /3106 10011 21028 39894 40068 53006 60002
  333 21001 3/104 79999 86/59=
03088 15984 /2712 10020 21020 39900 40066 51006 60002
  333 20002 3/103 55/// 553// 20000 79999 8//99=
03105 15666 /2909 10047 20011 30093 40111 52013 60032
  333 20024 3/000 70034 81/45 83/57=
03132 15782 /2611 10041 20022 30106 40120 51014 69922
  333 21011 3/103 70068 87/50=
03144 15384 /2510 10015 20003 30050 40094 53010 69922
  333 20010 3/102 55/// 553// 20000 70012 81/07=
03148 46/// /2716 11014 21016
  333 21015=
03153 15780 /2807 10019 20013 39973 40113 51014 69902
  333 20013 3/103 55/// 553// 20000 70086 81/50 85/57=
03155 16386 /2310 10010 21001 39803 40107 51012 60002
  333 20000 3/102 70056 81/07=
03158 15984 /2612 10017 21005 39952 40091 52008 69942
  333 21006 3/104 55/// 553// 20000 70016 82/62=
03210 16471 /2812 10040 20031 39969 40122 51016 69962
  333 20032 3/102 70068 81/13=
03212 15/74 /2903 10031 20018 30020 40121 51020 60032
  333 20016 3/101 70064=
03214 15982 /3010 10051 20031 30106 40125 51022 60012
  333 20037 3/101 70032 83/61 85/65=
03220 16968 ///// 10008 20008 30080 40115 51019 60022
  333 21004 3/104 70058 8//99=
03224 17/02 /2610 10003 20003 39761 40114 52013 60042 777//
  333 21008 3/101 70100=
03225 16678 /0101 11003 21015 39811 40125 53015 60042
  333 21003 3/103 55/// 553// 20000 70120 81/37=
03226 15580 /3404 10010 20001 39836 40118 53014 60012
  333 20004 3/101 70016 82/23=
03227 46/// /2621 11017 2////
  333 21020 90710 91129=
03230 16977 /3402 11002 21010 39847 40110 53011 60032
  333 21016 3/104 70058 8//99=
03238 17256 /2607 10012 20006 39924 40101 53010 60022 710//
  333 20012 3/100 70024 81/03=
03261 16975 /2706 10020 21007 30076 40118 53021 60002
  333 20015 3/102 70000 81/61=
03265 15982 /2804 10039 20012 30085 40116 52019 69902
  333 20025 3/103 79999 81/62=
03266 16980 /2606 10030 20003 30098 40115 53023 60002
  333 20030 3/000 70000 82/62=
03275 15976 /2610 10028 20006 39910 40105 53015 69922
  333 20028 3/001 70002 82/60=
03281 16/// /3010 10028 20000 69922
  333 20024 70002=
03901 15284 /3201 10003 20000 30052 40143 53020 60022
  333 21002 3/103 55005 55300 20000 70042 82/04=
03904 15380 /1401 10014 20008 30081 40142 53023 60032
  333 20005 3/101 70062 82/06 86/12 85/25=
03907 17463 /2412 10028 20017 30125 40132 53023 69942 782//
  333 20015 3/101 55000 55300 20000 70022 84/18 84/36=
03911 16122 /2908 10005 21001 39864 40145 53022 60022
  333 20003 3/102 70042 86/02=
03915 16680 /2408 10022 20008 30051 40131 53021 69922
  333 20012 3/101 70016 81/31 86/44=
03916 16788 /2804 10015 21005 39934 40128 53021 60002
  333 20013 3/101 55/// 553// 20000 70018 87/50=
03923 17279 /3006 10005 20005 39939 40141 52024 69982 721//
  333 20005 3/103 70030 82/04 83/46=
0000564700
380
SMUK43 EGRR 110600
AAXX 11064
03301 16875 /2604 10038 20029 30068 40143 51016 60002
  333 20008 70000 87/57=
03305 15581 /2510 10045 20017 39879 40145 51020 60082
  333 20032 3/001 70216 82/28 84/44=
03313 16974 /2408 10050 20028 30046 40141 51023 60062
  333 20043 3/002 70064 84/58=
03316 15766 /3007 10060 20043 30121 40132 52018 60032
  333 20045 3/101 70038 81/50 85/63=
03318 16/// /2808 10056 20036 69962
  333 20048 70018=
03321 17980 /2406 10044 20030 30125 40138 53017 60022 723//
  333 20042 3/001 55000 55300 20000 70026 85/61=
03330 17263 /3604 10016 20013 39769 40138 53026 60022 723//
  333 20015 3/101 70024 83/03=
03344 15975 /2704 10022 20004 39798 40121 52018 69982
  333 20022 3/100 70012 8//99=
03346 16/// /2913 10027 20002 69922
  333 20027 3/000 70002=
03351 15471 /2506 10038 20026 30090 40133 53022 69982
  333 20034 55011 55300 20000 70012 82/18=
03373 16782 /3006 10043 20030 30042 40113 53022 60012
  333 20042 3/003 70010 86/50 83/60=
03379 16481 /3010 10055 20040 30039 40117 53020 60012
  333 20055 3/004 70010 85/14=
03382 15983 /2906 10052 20015 30097 40105 52023 69942
  333 20052 3/004 55031 55300 20000 70004 87/58=
03385 46463 /3212 10055 20045 30096 40106 53020
  333 20054 81/12 86/38 90710 91128=
03391 11480 43111 10064 20044 30105 40112 53019 60012 72165 84500
  333 20057 31005 70014 81712 84645=
03392 16469 /2712 10067 20058 30102 40105 53010 60022
  333 20060 3/005 70020 85/12 85/50=
03405 164// /2520 10055 20031 30039 40157 51020 69922
  333 20055 3/004 55/// 553// 20000 70028 82/16 85/50 90710 91126=
03409 16/// /3001 10016 20011 39944 40149 51025 60012
  333 20014 3/100 55000 55300 2//// 70016=
03410 16578 /2708 10018 20003 39703 40146 51022 60022
  333 20015 3/101 55/// 553// 20000 70020 81/23=
03469 17367 /2710 10068 20064 30108 40111 53013 60032 781//
  333 20065 3/005 55/// 553// 20000 70028 82/09 85/39=
03488 17363 /2618 10069 20063 30075 40101 53003 60022 761//
  333 20068 70024 87/06 83/49 90710 91130 91030=
03503 15566 /1501 10042 20036 30077 40155 51028 60032
  333 20041 3/003 70032 82/21 86/50=
03520 16967 /1601 10011 20008 30027 40152 53026 60012
  333 20009 3/103 55/// 553// 20000 70018 8//99=
03522 15673 /2706 10046 20031 30060 40154 53027 60022
  333 20042 3/001 70022 81/34=
03529 15481 /2808 10043 20025 30107 40150 53027 60012
  333 20043 3/002 70010 81/19=
03544 17482 /3109 10052 20036 30005 40137 53029 60012 723//
  333 20052 3/004 55/// 553// 20000 70012 84/12 85/37=
03560 17584 /2810 10062 20046 30023 40127 53020 60012 723//
  333 20062 3/005 55/// 553// 20000 70010 82/22 85/50=
03604 16683 /2908 10053 20027 30111 40165 51024 69942
  333 20040 3/001 70016 81/31=
03605 16972 /3208 10038 20031 30157 40165 51030 60022
  333 20038 70024 8//99=
03609 16/// /2909 10055 20051 30117 40170 53030 60032
  333 20055 3/004 70028=
03628 15975 /2707 10054 20038 30081 40154 53027 60012
  333 20045 3/002 55005 55300 20000 70012 8//99=
03647 16975 /2911 10043 20033 39884 40142 53026 60022
  333 20040 3/001 55/// 553// 20000 70018 8//99=
03658 16482 /2407 10064 20050 30072 40142 53021 60022
  333 20063 3/004 70018 81/11=
03660 17284 /2908 10051 20043 39888 40139 53016 69902 723//
  333 20051 3/003 79999 81/03 85/46=
03672 16574 /2912 10078 20064 30095 40136 53012 60022
  333 20073 3/006 70024 81/22 86/48=
03680 16/// ///// 10063 20045 39978 40135 53015 60022
  333 20063 3/005 55/// 553// 20000 70024=
03684 17261 /2412 10075 20069 30014 40120 53001 60012 751//
  333 20067 3/006 70014 83/04 85/12=
03693 17464 /2309 10083 20072 30125 40127 55003 69962 751//
  333 20075 3/007 70006 82/16 86/26=
03707 15584 /3110 10070 20041 30160 40168 53026 60012
  333 20058 3/003 70012 86/23=
03710 16468 /3107 10019 20017 39739 40169 52024 60052
  333 20015 3/100 55/// 553// 20000 70052 81/16=
03743 16980 /2707 10052 20043 39985 40148 53018 60022
  333 20052 3/003 70026 8//99=
03749 16780 /2909 10061 20045 30037 40148 53018 60022
  333 20061 3/004 70032 82/56=
03761 11682 72710 10070 20051 39998 40143 53014 60022 72162 85532
  333 20069 31005 55040 55300 20000 70032 82638 84647 85072=
03768 16582 /2808 10073 20057 30061 40141 53014 60022
  333 20070 3/006 70018 81/29 83/42 85/50=
03769 17220 /2305 10082 20075 30053 40135 53003 60022 762//
  333 20073 3/006 55032 55300 20000 70056 83/05 87/14=
03770 16/// ///// 10084 20072 60022
  333 20076 3/006 70026=
03781 17244 /2410 10075 20069 39927 40135 53003 60042 782//
  333 20065 3/006 55/// 553// 20000 70050 83/05 86/12=
03784 46/// /2408 10084 20075 30125 40129 53002
  333 20076=
03797 15464 /2111 10079 20055 30073 40133 57005 60002
  333 20067 3/005 55060 55300 20000 70000 81/11 87/43=
03823 15473 /3207 10045 20040 39927 40174 53025 60032
  333 20030 3/000 55/// 553// 20000 70026 87/19=
03839 16/// ///// 10036 20025 69942
  333 20036 55/// 553// 20000 70006=
03857 15980 /3220 10079 20037 30091 40155 53019 60032
  333 20079 3/006 70044 8//99 90710 91127=
03862 15682 /3107 10061 20049 30139 40151 53017 60072
  333 20061 3/004 55006 55300 20000 70080 81/37=
03866 16/// /3112 10082 20064 30120 40144 53009 69942
  333 20082 3/008 70010 90710 91125=
03872 17384 ///// 10085 20066 30137 40142 53007 60012 723//
  333 20084 3/008 55/// 553// 20000 70024 84/08 86/19 91017=
03876 16/// /2615 10092 20084 30136 40139 56002 60002
  333 20079 70002=
03895 42470 72608 10088 20078 40165 53009 878// 333 82812 86632=
03896 16/// ///// 10091 60002
  333 20074 55028=
0000010000
381
SAIN90 VOHS 110610
METAR VOHS 110610Z 14006KT 4000 HZ FEW020 27/14 Q1018 BECMG 5000=
0000130700
382
SMTH01 VTBB 110600
AAXX 11064
48300 31562 20000 10238 20170 39846 40161 57030 70340 82505
  333 58004=
48327 32560 13302 10290 20190 39802 40153 57037 81200
  333 59003=
48331 32560 10000 10285 20165 39929 40157 57035 81100
  333 58010=
48353 31950 00705 10280 20156 39863 40151 57032 70500 
  333 59005=
48356 32662 20303 10276 20161 39964 40160 57032 82100
  333 58000=
48375 31658 10000 10296 20180 39908 40130 57033 70500 81100
  333 58010=
48378 31557 20403 10300 20170 30101 40153 57026 70500 81105
  333 58006=
48381 32560 30603 10286 20162 39942 40157 57027 82205
  333 58002=
48407 32560 20203 10292 20179 30002 40142 57031 81101
  333 59002=
48431 31956 21103 10280 20176 39941 40154 57033 70500 80005
  333 58000=
48456 32560 31008 10305 20178 30128 40142 57025 81101
  333 58003=
48480 32560 30305 10330 20188 30119 40123 57029 82205
  333 58006=
48500 31940 30307 10305 20208 30132 40138 57021 70511 80005
  333 58009=
48551 32560 60305 10305 20236 30119 40127 57021 82256
  333 58005=
48565 32560 30906 10300 20219 30114 40124 57011 81141
  333 58018=
48569 32560 70814 10295 20210 30086 40126 57022 84876
  333 58006 70006=
48583 11457 80611 10262 20225 30123 40129 57020 60011 71062 82846
  333 58004 70079=
0000107500
383
SMTH02 VTBB 110600
AAXX 11064
48303 31560 11404 10248 20167 39717 40158 57028 70344 81100
  333 58007=
48328 31558 10000 10293 20169 39873 40148 57033 70540 81100
  333 59014=
48330 31558 60000 10289 20183 39969 40153 57033 70542 81106
  333 58006=
48351 31556 10000 10300 20158 30078 40151 57028 70500 81100
  333 58004=
48354 32665 21105 10278 20152 39958 40161 57032 81101
  333 58001=
48376 31550 22603 10299 20179 30012 40156 57030 70500 82205
  333 58010=
48377 NIL=
48379 32962 00000 10305 20177 30010 40142 57022 
  333 58006=
48400 31950 20902 10297 20180 30118 40159 57023 70500 80005
  333 58011=
48432 31959 10403 10289 20172 39978 40145 57033 70500 80001
  333 59004=
48455 31559 40000 10324 20186 30139 40144 57022 70511 82205
  333 58003=
48462 NIL=
48475 NIL=
48477 NIL=
48517 31557 50608 10304 20215 30129 40136 57015 70521 81246
  333 58015 70014=
48532 32560 60908 10314 20197 30116 40125 57018 85506
  333 58015=
48567 32560 60510 10310 20196 30096 40114 57024 81136
  333 58002=
0000158800
384
SMTH40 VTBB 110600
AAXX 11064
48310 31558 12703 10271 20174 39696 40148 56033 70540 81100
  333 58003=
48325 NIL=
48329 32560 22502 10284 20188 39816 40151 57023 82100
  333 58006=
48352 31559 11105 10280 20164 39962 40162 57034 70500 81101
  333 58000=
48357 32564 20403 10289 20150 39992 40160 57029 82101
  333 59002=
48380 31640 10701 10298 20187 30064 40158 57026 70500 81100
  333 58004=
48383 32561 20205 10294 20168 39995 40153 57029 82100
  333 58000=
48403 31958 60904 10291 20160 39957 40166 57019 70522 80006
  333 58020=
48405 32560 20303 10285 20159 39987 40149 57030 81205
  333 58004=
48420 31959 40406 10304 20192 30133 40137 57024 70511 80006
  333 58008=
48421 31956 20000 10318 20193 30030 40142 57033 70500 80005
  333 58012=
48425 31958 50505 10299 20191 30142 40152 57024 70511 80006
  333 58004=
48426 32964 20812 10308 20161 30135 40148 57025 80002
  333 59005=
48429 32960 30713 10303 20145 30141 40148 57022 80001
  333 58012=
48430 31956 20805 10328 20191 30134 40141 57029 70500 80005
  333 58003=
48450 31956 00000 10320 20181 30112 40145 52002 70500 
  333 58002=
48459 NIL=
48465 31956 20710 10300 20193 30139 40143 57024 70500 80005
  333 58009=
48550 01458 60605 10284 20250 30125 40132 57016 69901 76022 82846
  333 58010 69905 79999=
48552 32460 70908 10300 20214 30123 40129 57019 83906
  333 58008=
48566 32560 50709 10315 20211 30101 40109 57030 82145
  333 58004=
48568 11459 60808 10287 20224 30123 40131 57019 69901 71062 83836
  333 58007 79999=
0000144500
385
SMTH41 VTBB 110600
AAXX 11064
48315 31957 00000 10276 20165 39891 40159 57034 70540 
  333 58004=
48374 32962 00000 10300 20164 39988 40152 57029 
  333 58001=
48382 32562 10303 10288 20163 39982 40157 56025 81100
  333 58007=
48385 31558 30000 10295 20136 39621 40130 57027 70511 83200
  333 58001=
48390 31450 10810 10296 20159 39997 40157 57030 70540 81101
  333 58003=
48402 32962 33605 10295 20175 30134 40153 57026 82045
  333 58006=
48413 32960 20000 10311 20169 30085 40165 57015 80005
  333 58021=
48416 32560 21804 10295 20177 39997 40144 57032 81506
  333 59004=
48418 32960 20608 10297 20160 30093 40152 57030 80001
  333 58007=
48434 31956 21205 10290 20179 39933 40152 57031 70511 80005
  333 58000=
48436 31958 20403 10288 20182 39944 40150 57028 70500 80005
  333 58010=
48439 32961 20802 10310 20177 30130 40145 57028 80001
  333 58007=
48460 NIL=
48461 32965 23307 10300 20219 30063 40132 57025 80005
  333 58006=
48478 31958 41203 10301 20210 30134 40139 57019 70511 80006
  333 58017=
48501 31557 63003 10307 20243 30120 40125 57020 71021 82531
  333 58009=
48561 32562 43003 10322 20207 30108 40117 57019 82205
  333 58008=
48564 32560 40605 10325 20214 30117 40122 57024 82145
  333 58015=
48570 32560 60804 10302 20209 30107 40113 57021 82246
  333 58003=
48580 32560 60905 10294 20220 30114 40121 57025 82246
  333 58002 70023=
0000171400
386
SMTH42 VTBB 110600
AAXX 11064
48302 31158 31803 10185 20141 38504 40127 57023 71011 81205
  333 58001=
48304 31965 00000 10260 20181 39697 40156 57027 70144 
  333 58009=
48334 32960 00000 10273 20182 39794 40154 57030 
  333 58009=
48360 32662 11307 10274 20160 39896 40156 57024 81100
  333 59006=
48372 NIL=
48373 31950 20000 10291 20180 30093 40155 57027 70500 80005
  333 58016=
48386 31930 03205 10305 20190 30105 40150 57026 70500 
  333 58003=
48387 31558 31006 10233 20157 39195 40147 57019 70500 83500
  333 58017=
48408 32960 20000 10303 20184 39997 40145 57030 80005
  333 58001=
48415 31959 20707 10322 20159 30133 40144 57024 70500 80001
  333 58006=
48433 31958 13102 10287 20179 39984 40148 57034 70500 80005
  333 59002=
48437 32964 03303 10290 20167 39943 40151 57030 
  333 58000=
48440 32560 31103 10310 20183 30091 40140 57028 81105
  333 58004=
48451 32960 30000 10294 20201 30129 40140 57030 80006
  333 59003=
48454 31558 60506 10312 20176 30132 40139 57024 70522 82106
  333 58001=
48457 31558 40408 10267 20189 30128 40145 57021 70511 81105
  333 58007=
48463 31950 63305 10328 20179 30046 40138 57027 70522 80006
  333 58002=
48464 31556 20308 10310 20187 30129 40142 57024 70500 82200
  333 58010=
48479 31956 40000 10310 20177 30082 40133 57024 70511 80006
  333 58013=
48520 31559 60606 10292 20223 30115 40130 57020 71022 83546
  333 58009 70048=
48554 31456 70910 10272 20232 30126 40131 57019 71022 85976
  333 58009 70005=
48563 32560 60803 10300 20219 30082 40117 57025 82248
  333 59004=
48571 11560 42303 10296 20199 30112 40123 57024 69941 70162 82201
  333 58006 70008=
0000150800
387
SMTH43 VTBB 110600
AAXX 11064
48307 32562 10000 10277 20164 39781 40158 57031 81100
  333 59003=
48324 32960 10303 10306 20207 39932 40148 55030 80001
  333 58001=
48333 32960 00000 10285 20155 39857 40156 57033 
  333 58004=
48350 NIL=
48355 32562 10000 10285 20174 39940 40158 57034 81100
  333 59002=
48358 NIL=
48384 31557 10902 10297 20174 39959 40148 56029 70500 81500
  333 58002=
48401 31959 50000 10295 20158 30054 40161 57026 70511 80006
  333 58016=
48404 32562 21204 10293 20159 39971 40147 57032 82105
  333 58005=
48409 32960 00000 10290 20190 30000 40147 57031 
  333 58006=
48419 32460 30805 10320 20223 30137 40145 57026 81545
  333 58002=
48427 31957 80307 10294 20193 30139 40146 57024 70522 80006
  333 58009=
48435 32962 21106 10285 20127 39710 40144 57024 80001
  333 58004=
48453 32560 30805 10308 20192 30139 40142 57023 82105
  333 58006=
48458 32560 20906 10310 20167 30070 40150 57031 81105
  333 58003=
48474 32560 30910 10307 20179 30018 40140 57025 82205
  333 58008=
48481 NIL=
48555 32460 50902 10301 20203 30108 40150 55022 82135
  333 58007 70029=
48556 32562 70000 10305 20236 30109 40125 57020 82106
  333 58010=
48557 32560 60406 10318 20209 30088 40123 57021 83206
  333 58004=
48560 01560 60704 10286 20249 30123 40128 57022 69981 70162 82236
  333 58006 69986 70114=
48574 NIL=
48581 01456 80000 10265 20230 30095 40136 57020 60021 71066 82577
  333 58009 69907 70127=
0000023700
388
SMKU01 NCRG 110600
AAXX 11063
91802 NIL=
91809 36/// /0305 10282 20246 40077 52015=
91831 36/// ///// 10258 20233 40118 52004=
91843 31498 60308 10266 20243 40109 53015 60001 70222 858//   333
561// 83816 85645=
0000136100
389
UAPS01 NZKL 110600
AIREP
THT482 3648S 17542E 0522 F189 MS13 205/08=
ACI331N 1812S 17612E 0516 F237 MS13 236/07=
VOZ1 2842S 16030E 0505 F310 MS40 283/54=
VOZ23 2612S 16354E 0511 F310 MS38 275/57=
VOZ1 2712S 16230E 0520 F310 MS38 274/45=
VOZ1 2612S 16354E 0532 F310 MS36 273/53=
VOZ23 2336S 16706E 0538 F310 MS36 269/42=
VOZ1 2336S 16712E 0558 F310 MS34 268/39=
QFA27 4406S 17618E 0504 F330 MS48 248/31=
QFA93 2218S 16542E 0508 F330 MS38 255/35=
QFA93 2048S 16712E 0522 F330 MS37 276/28=
QFA27 4442S 17936W 0526 F330 MS46 232/36=
QFA11 2700S 16042E 0543 F330 MS44 284/59=
QFA27 4506S 17512W 0547 F330 MS47 224/60=
ANZ709 3624S 17042E 0518 F340 MS52=
UAE419 4306S 16818E 0521 F340 MS51 311/35=
ANZ721 3806S 17042E 0538 F340 MS54=
VOZ194 2206S 17136E 0539 F340 MS38 280/30=
UAE419 4242S 16442E 0542 F340 MS50 287/39=
DAL16 1106S 18000E 0551 F340 MS39 250/17=
ACI331N 2012S 17112E 0557 F340 MS39 293/16=
LAN800 4130S 16800W 0519 F350 MS51 270/64=
ACI143S 2530S 16230E 0537 F350 MS46 269/74=
ACI143S 2406S 16400E 0550 F350 MS45 261/56=
QFA11 2536S 16224E 0557 F350 MS46 273/71=
QFA11 2530S 16236E 0558 F350 MS47 270/75=
ACI143S 2654S 16106E 0523 F361 MS51 273/82=
AVN10 2500S 16300E 0531 F360 MS47 267/77=
FDX77 2006S 16800E 0539 F360 MS44 250/27=
LAN800 4224S 16348W 0540 F360 MS46 293/114=
0000049300
390
UAPS01 NZKL 110600 RRA
AIREP
FDX77 2130S 16642E 0552 F360 MS44 268/28=
THT482 3536S 17854E 0543 F370 MS52 296/30=
ANZ138 3054S 16018E 0539 F380 MS54 283/40=
HAL445 0918S 17718W 0505 F390 MS52 266/15=
FJI412 3342S 17518E 0514 F400 MS55 270/34=
HAL445 1048S 17812W 0519 F390 MS53 321/14=
HAL451 2018S 16348E 0528 F390 MS53 250/44=
HAL445 1224S 17912W 0533 F390 MS52 355/16=
HAL451 2136S 16248E 0542 F390 MS52 252/59=
HAL445 1400S 17948E 0547 F390 MS52 343/14=
0000166500
391
SMNZ01 NZKL 110600
AAXX 11064
93004 16/// /2014 10192 20126 40181 57007 69961=
93023 16/// /3503 10183 20140 40177 57009 60001=
93069 16/// /2407 10199 20128 40175 57009 60001=
93110 17698 /2311 10191 20126 40177 57008 60001=
93186 17/98 /3309 10209 20137 40160 57006 60001=
93196 16/// /3208 10200 20163 40165 57008 60001=
93245 17/98 /2507 10201 20105 40154 57005 60001=
93292 17598 /1006 10194 20127 40166 57001 60001=
93309 17798 /2514 10174 20142 40171 57005 60001=
93339 16/// /2306 10152 20099 39227 57001 60001=
93373 17698 /0609 10193 20110 40168 57001 60001=
93404 17/98 /2709 10203 20133 40160 57003 60001=
93420 17/98 /0213 10187 20137 40156 57008 60001=
93439 17/97 /3413 10201 20133 40147 57010 60001=
93498 16/// /0314 10165 20124 40155 57006 60001=
93515 17498 /2314 10168 20127 40171 57006 60001=
93527 16/// /3109 10198 20144 40148 57013 60001=
93546 17697 /0313 10202 20146 40152 57007 60001=
93597 16/// /0218 10167 20131 40137 57012 60001=
93615 17498 /2906 10165 20127 40169 57006 60001=
93678 16497 /0510 10168 20140 40130 57023 60001=
93709 16/// /2708 10151 20116 40167 57010 60001=
93773 17498 /0708 10166 20116 40113 57019 60001=
93781 17598 /0718 10161 20119 40122 57024 60001=
93800 NIL=
93805 NIL=
93831 17/98 /2608 10226 20008 40084 57008 60001=
93845 17/98 /2605 10162 20118 40082 57029 60001=
93891 17/98 /2303 10186 20117 40087 57029 60001=
93909 16/// /3237 10128 20098 40055 57032 60001=
93929 16/// /3321 10110 20109 49971 57024 60021=
93947 NIL=
93985 17698 /2213 10137 20091 40119 52009 69941=
93994 16/// /1112 10223 20146 40122 54000 69921=
0000014800
392
SMNO01 ENMI 110600 CCA
AAXX 11061
01492 11250 80305 11006 21013 39861 49980 58002 60002 77072 8772/
      333 21007 43002 91107=
00000000