0000009400
026
SNNO22 ENMI 110700 RRC
AAXX 11071
01400 46/// /2908 10066 20009 39992 40053=
0000011000
027
UANT01 CWAO 110714
ARP UAE202 5437N04720W 0713 F360 MS61 295/67 KT
A6EEL DDL XXH 110714 J67A
0000187700
028
SNAU01 AMMC 110700
AAXX 11074
94102 15/// /2516 10312 20273 30045 40054 58031 60001=
94103 45/// /2112 10297 30063 40068 58023=
94200 NIL=
94203 11575 42811 10325 20244 30059 40069 57026 60001 70500 81202=
94206 15/// /1504 10428 20096 39910 40038 56034 60001=
94207 46/// /2711 10295 30066 40074 56017=
94211 NIL=
94212 11980 61206 10392 20063 39573 40035 56030 60001 70122 81432=
94216 17/// /2107 10310 20193 39999 40047 56026 60071 7//44=
94300 15/// /3613 10306 20200 30070 40075 58011 60001=
94302 15/// /0311 10369 20189 30062 40068 58021 60001=
94312 15/// /3114 10349 20263 30058 40067 56019 60001=
94313 11670 10904 10422 21005 39559 40061 57029 60001 70200 81200=
94317 15/// /0912 10420 21168 39501 40069 58017 60001=
94319 15/// /0911 10436 21043 39731 40050 56025 60001=
94403 11980 12118 10393 20089 30029 40063 56014 60001 70200 81200=
94429 15/// /0412 10443 20008 39632 40082 56022 60001=
94430 15/// /0107 10420 20219 39518 40082 58017 60001=
94449 15/// /1107 10394 21009 39610 40125 57022 60001=
94451 11/82 11415 10430 20285 39592 40082 60001 702//=
94601 15/// /1416 10253 20194 30143 40159 57018 60001=
94610 11980 01207 10424 20054 30080 40103 58027 60001 70200=
94637 15/// /0909 10361 20035 39730 40146 56025 60001=
94638 11975 11318 10242 20158 30162 40194 58016 60001 70300 80002=
94642 NIL=
94643 NIL=
94647 15/// /1413 10219 20150 30094 40203 58012 60001=
94802 11980 01016 10261 20152 30102 40185 58020 60001 70200=
95205 15/// /3008 10368 20222 30046 40053 58028 60001=
95448 15/// /0509 10419 21030 39549 40094 56021 60001=
95634 15/// /0308 10406 20016 39733 40124 56026 60001=
95637 15/// /0705 10372 20018 39823 40150 58027 60001=
95641 15/// /1711 10350 20153 30053 40147 56024 60001=
95646 15/// /1315 10327 20082 39989 40173 56016 60001=
96995 NIL=

0000028100
029
SNAU03 AMMC 110700
AAXX 11074
94461 NIL=
94477 NIL=
94651 NIL=
94653 46/// /1721 10219 20146 30165 40183=
94659 NIL=
94672 NIL=
94804 NIL=
94821 NIL=
95458 NIL=
95480 NIL=
95481 NIL=
95666 NIL=
95826 45/// /2011 10174 30209 40211 50000=

0000122000
030
SNAU05 AMMC 110700
AAXX 11074
94691 NIL=
94693 45/// /2008 10373 20055 30072 40133 56012=
94700 NIL=
94703 45/// /1111 10361 20088 39996 40118 56017=
94710 45/// /1810 10349 20086 39879 40126 56018=
94729 45/// /1906 10292 20077 39304 40134 56014=
94750 45/// /0809 10278 20141 30014 40136 58005=
94767 41880 70512 10270 20169 30135 40141 55002 70311 81282=
94776 45/// /0712 10287 20142 30130 40140 56011=
94791 45/// /0312 10248 20174 30152 40159 56008=
94842 45/// /2412 10165 20137 30107 40205 50000=
94865 45/// /1815 10185 20125 30170 40195 53001=
94875 45/// /1917 10344 20121 39992 40125 56014=
94893 45/// /2718 10173 20128 30055 40170 58003=
94907 45/// /2108 10254 20132 30154 40164 53002=
94910 41980 72410 10351 20075 39883 40126 56019 70322 82171=
94926 45/// /0505 10307 20096 39481 40132 56011=
94935 45/// /2012 10207 20148 30133 40159 55000=
94995 455// 80709 10217 20149 30178 40186 56007=
95485 45/// /1415 10367 20059 39918 40116 56017=
95527 45/// /1209 10314 20100 39875 40122 56015=
95719 45/// /1806 10328 20108 39808 40131 56018=
95762 459// 42005 10323 20072 39675 40120 56020=
95839 45/// /2018 10299 20089 30008 40164 55004=

0000110500
031
SNVE21 AMMC 110700
BBXX
VRAE3 11064 99189 31535 41498 31114 10310 20283 40096 57018 70300
82140 22283 04290 20802 311// 40802 80290=
JPAT 11064 99320 31149 41798 11717 10242 20189 40119 57013 70200
81045 22263 00226 10708 20401 320// 40704=
ZM2619 11063 99440 51790 41/98 22219 10145 20117 40129 54000 70211
22222 29901 322// 40805 80120=
VROC 11063 99245 31543 41298 41012 10230 20216 40151 55/// 70311
83144 22200 20201 309// 40303 80220=
VRRD 11063 99211 31540 41598 61422 10290 20224 40105 57014 70222
85280 22243 04280 20406 318// 40405 80245=
VNSZ 11074 99412 31464 46/// /3120 10237 20076 30100 40126 57001
22200 04182 85146=
C6FS9 11074 99238 31512 46/// /1021 10259 20185 30107 40143 57012
22200 04281 85208=
VNAH 11074 99383 31416 46/// /2011 10183 20124 30189 40213 57001
22200 85147=
VNSZ 11064 99412 31464 46/// /3019 10251 20080 30099 40124 57005
22200 04185 85152=
VNAH 11064 99383 31416 46/// /1910 10178 20107 30190 40214 57003
22200 85137=
C6FS9 11064 99238 31512 46/// /1020 10259 20188 30106 40142 57021
22200 04283 85210=

0000004100
032
SNPS01 AMMC 110700
NIL

0000092700
033
SNAU40 AMMC 110700
AAXX 11074
94100 15/// /2205 10354 20209 30013 40040 56035 60001=
94204 15/// /2609 10385 20198 39955 40048 58029 60001=
94213 11/65 80525 10337 20184 39816 40041 60001 70511=
94215 11/64 51801 10356 20199 39612 40035 57035 60001 70311=
94217 179// 61311 10284 20219 39878 40061 57010 60131 7//44=
94303 15/// /3213 10314 20257 30073 40079 56015 60001=
94306 15/// /3212 10366 20224 30054 40067 58018 60001=
94308 15/// /3309 10376 20240 30056 40068 58015 60001=
94309 11/70 13602 10380 20242 30051 40065 57014 60001 70200=
94316 15/// /0615 10437 21071 39601 40061 57018 60001=
94401 11784 22510 10297 20212 30057 40064 60001 70200 81103=
94402 11/84 12504 10332 20229 30066 40077 57006 60001 70300=
94415 11/70 10905 10453 20080 60001 70300=
94417 15/// /3409 10446 21011 39763 40066 58030 60001=
94422 11/83 60000 10453 20058 39740 40058 60001 70311 86000=

0000122700
034
SNAU41 AMMC 110700
AAXX 11074
94444 11/84 10702 10420 20109 39620 40104 60001 70200 81080=
94448 11970 01301 10414 20088 39688 40108 50000 60001 70200=
94450 15/// /1008 10406 21039 39702 40113 56028 60001=
94457 15/// /1117 10414 21034 39589 40092 56023 60001=
94600 15/// /2210 10331 20156 30013 40140 57022 60001=
94602 15/// /1813 10316 20202 30060 40110 58022 60001=
94603 15/// /3204 10438 20040 60001=
94604 15/// /1803 10403 20077 30123 40130 56028 60001=
94605 15/// /2804 10365 20156 30107 40111 57026 60001=
94607 45/// /1913=
94608 15/// /1306 10425 20071 30075 40104 57026 60001=
94609 15/// /0801 10423 20077 30075 40110 58026 60001=
94612 15/// /1308 10429 20048 30035 40097 58031 60001=
94614 15/// /2505 10380 20163 60001=
94615 45/// /0907 10415 20064=
94620 15/// /1105 10398 20010 39822 40129 56027 60001=
94621 11980 01309 10421 20078 60001 70200=
94622 11980 00902 10440 20169 39772 40091 60001 70200=
94625 11970 00902 10394 20072 60001 70200=
94627 11984 00902 10382 20048 60001 70200=
94628 15/// /1309 10369 20016 39788 40155 57026 60001=
94631 15/// /0507 10343 20040 60001=
94632 11882 13604 10425 20207 39709 40111 60001 70300 81100=

0000148800
035
SNAU42 AMMC 110700
AAXX 11074
94640 11970 01325 10244 20189 30157 40160 57024 60001 70200=
94641 15/// /0909 10356 20006 39789 40156 58028 60001=
94644 15/// /1217 10224 20173 30208 40212 56014 60001=
94645 11975 01310 10237 20167 30207 40214 57009 60001 70200=
94801 11970 01125 10222 20166 60001 70200=
95204 15/// /2712 10326 60001=
95214 15/// /0625 10308 20185 30040 40045 56023 60001=
95303 15/// /3010 10313 30053 40080 58014 60001=
95304 15/// /3010 10353 20239 30067 40075 58014 60001=
95305 15/// /3115 10327 20255 30065 40077 56018 60001=
95307 15/// /2913 10353 20261 30061 40068 58019 60001=
95317 15/// /0906 10436 21043 39853 40054 56023 60001=
95402 15/// /2611 10394 20175 30034 40073 58005 60001=
95602 45/// /2905=
95606 11970 01817 10333 20268 30085 40090 60001 70200=
95607 15/// /2010 10294 20208 30107 40114 57022 60001=
95610 15/// /1107 10397 20050 60001=
95611 15/// /0808 10385 20052 30113 40133 57031 60001=
95612 15/// /1111 10426 21004 30011 40097 56031 60001=
95613 11975 01801 10364 20140 39951 40154 56028 60001 70200=
95615 11980 00906 10416 20108 60001 70200=
95616 11984 01302 10395 20057 60001 70200=
95618 11980 00904 10378 20046 60001 70200=
95621 15/// /1305 10381 20038 60001=
95622 11980 01302 10389 20192 60001 70200=
95624 11970 01103 10412 20038 60001 70200=
95625 15/// /1011 10420 20055 39866 40112 58031 60001=
95629 15/// /0306 10426 20046 39726 40090 57028 60001=

0000062700
036
SNAU43 AMMC 110700
AAXX 11074
95101 15/// /2813 10323 20243 39985 40042 56031 60001=
95632 15/// /1005 10370 20017 39939 40146 56031 60001=
95635 15/// /1115 10199 20143 30161 40193 56019 60001=
95636 15/// /1215 10291 20129 39827 40180 56018 60001=
95638 15/// /1319 10289 20154 30021 40187 56021 60001=
95639 15/// /0909 10351 20036 60001=
95640 15/// /0809 10393 20034 60001=
95642 15/// /0808 10349 20071 39862 40162 58029 60001=
95643 11965 01402 10400 20092 60001 70200=
95644 15/// /1215 10298 20159 39927 40182 56020 60001=
95647 15/// /1310 10305 20169 30080 40167 58023 60001=

0000031800
037
SNAU44 AMMC 110700
AAXX 11074
94658 46/// /1819 10226 20142 30162 40196=
94678 46/// /1412 10258 20059 39575 40171=
94681 46/// /1313 10295 20035 39849 40166=
94682 46/// /2110 10349 20027 30117 40152=
94684 46/// /1412 10378 20035 39786 40126=
94690 46/// /2315 10325 20074 30033 40161=

0000048300
038
SNAU45 AMMC 110700
AAXX 11074
94807 46/// /1816 10193 20130=
94808 46/// /1414 10239 20099=
94809 46/// /1617 10205 20145 30191 40199=
94811 46/// /1721 10157 20128 39798 40195=
94813 46/// /1921 10193 20130 30185 40206=
94822 46/// /1616 10179 20144 30145 40211=
95675 46/// /2120=
95678 46/// /1109 10205 20088=
95806 46/// /1616 10221 20145 30148 40200=
95815 46/// /1916 10293 20089 30144 40176=
95816 46/// /1916 10192 20134 30206 40210=

0000008600
039
SAIN90 VOGO 110700
METAR VOGO 110700Z 35005KT 6000 29/17 Q1013 NOSIG=

0000056400
040
SNAU53 AMMC 110700
AAXX 11074
94541 45/// /1004 10281 20115 39386 40125 56012=
94572 45/// /0708 10273 20175 30142 40153 55009=
94573 45/// /0909 10276 20162 30126 40150 55007=
94588 47/// /0909 10198 20135 38996 40139 58002 7//44=
94589 45/// /0707 10252 20200 30127 40159 56008=
94596 45/// /0710 10256 20178 30158 40161 56009=
94598 45/// /0609 10248 20175 30085 40158 56009=
94599 45/// /0908 10277 20222 30048 40161 56009=
94686 45/// /1214 10381 20070 39912 40117 57016=
94702 45/// /2211 10386 20083 30015 40121 58021=

0000048600
041
SNAU54 AMMC 110700
AAXX 11074
94711 45/// /1509 10352 20052 39828 40125 56017=
94712 45/// /2210 10341 20080 39697 40128 56017=
94715 45/// /2204 10326 20128 39870 40133 56017=
94727 45/// /2607 10311 20099 39598 40128 56016=
94743 458// 60804 10256 20114=
94746 459// 11009 10262 20123 39382 40146 56001=
94749 45/// /0107 10233 20192=
94752 45/// /1010 10306 20158 30039 40133 53001=
94754 45/// /0803 10259 20070=
94757 45/// /1107 10295 20167=

0000075900
042
SNAU55 AMMC 110700
AAXX 11074
94755 459// 10908 10302 20151 30047 40133 53001=
94759 45/// /0504 10246 20171=
94760 45/// /1112 10294 20151=
94762 45/// /1411 10280 20159=
94763 45/// /1109 10315 20150=
94765 459// 70710 10283 20149 30128 40137 55000=
94766 45/// /0708 10268 20158=
94768 45/// ///// 10257 20171 30095 40141 56005=
94774 45/// /0711 10227 20180=
94775 45/// /0909 10317 20152=
94780 45/// /0212=
94785 45/// /0610 10261 20166 30137 40153 55004=
94786 45/// /0512 10258 20174 30149 40155 55007=
94838 45/// /2414 10354 20005 30055 40145 56014=
94839 45/// /2009 10344 20040 39990 40144 56008=
94886 45/// /2409 10182 20124 30187 40191 58002=
94908 45/// /1712 10255 20152 39366 40146 56009=

0000129300
043
SNAU56 AMMC 110700
AAXX 11074
94915 45/// /2708 10194 20084=
94919 45/// /2709 10316 20109 39745 40134 56018=
94921 459// 80711 10244 20120 39111 40147 56005=
94925 45/// /1105 10307 20090 39469 40129 56011=
94927 45/// /1209 10256 20102 39396 40145 55000=
94929 47/// /1203 10217 20187 39296 40151 50000 721/4=
94938 45/// /0505 10248 20183 30097 40140 56005=
94939 45/// /1817 10225 20199 30090 40153 51010=
95570 455// 30906 10264 20163 30126 40155 55001=
95695 45/// /2010 10375 20074 30010 40118 57018=
95697 45/// /1310 10375 20083 30003 40118 56020=
95699 45/// /1414 10365 20092 39938 40117 56018=
95705 45/// /3103 10345 20110=
95706 45/// /2305 10345 20097 39964 40130 56020=
95708 45/// /1706 10329 20090 39914 40134 56016=
95709 45/// /2208 10342 20094 39842 40134 56017=
95710 45/// /2008 10329 20120 39887 40132 56018=
95715 459// 41807 10350 20120 39970 40122 56018=
95716 458// 80910 10271 20134 39417 40137 56009=
95717 45/// /2208 10319 20122 39768 40134 56015=
95718 45/// /1305 10334 20088 39918 40124 56018=
95721 45/// /3606 10322 20129 39794 40133 57015=
95722 45/// /2509 10340 20086 39814 40134 56018=
95726 458// 72311 10274 20088 39095 40143 56014=
95827 45/// /1814 10264 20079 39960 40180 55002=

0000143400
044
SNAU57 AMMC 110700
AAXX 11074
94826 45/// /1911 10171 20171 30158 40214 50000=
94827 45/// /2015 10318 20038 39999 40161 56006=
94828 454// 62008 10177 20128 30117 40214 58001=
94829 45/// /1914 10219 20107 39914 40198 54000=
95734 45/// /2107 10322 20114 39863 40122 56020=
95740 45/// /1409 10320 20083 39820 40117 56020=
95747 45/// /1610 10279 20066 39321 40127 56012=
95748 459// 10708 10253 20197 30134 40144 57004=
95749 45/// /0106 10240 20197=
95753 459// 11011 10296 20138 30105 40128 55004=
95754 459// 83002 10304 20123 39703 40128 56016=
95756 45/// /0417=
95758 45/// /1909 10330 20085 39865 40118 56015=
95765 45/// /0806 10280 20172=
95767 45/// /1206 10263 20165 30136 40144 56007=
95770 45/// /0310 10225 20195 30121 40144 56009=
95771 45/// /0911 10320 20117 30055 40125 55009=
95773 459// 30609 10220 20139 38958 40136 56004=
95774 45/// /0907 10265 20161=
95784 45/// /0711 10269 20156 30136 40146 55007=
95822 45/// /1912 10205 20130 30146 40207 56001=
95825 45/// /1910 10241 30039 40192 56001=
95832 45/// /1812 10262 20100=
95869 45/// /2414 10378 20067 30010 40119 56021=
95896 459// 12005 10346 20117 39937 40126 56023=
95909 45/// /2516 10174 20080 38663 40179 57012=
95916 45/// /2410 10211 20097=
95925 45/// /2209 10212 20078=
95929 45/// /0505 10214 20138 30161 40163 53002=
95931 45/// /1406 10221 20142 30114 40163 51008=

0000119700
045
SNAU58 AMMC 110700
AAXX 11074
94830 45/// /2110 10177 20132 30198 40210 58002=
94833 45/// /2112 10169 20088=
94835 45/// /2019 10206 20086=
94836 45/// /1813 10264 20074 39897 40169 55001=
94837 45/// /2113 10173 20124 30124 40209 56001=
94840 45/// /2011 10198 20123 30045 40199 58002=
94843 45/// /2015 10367 20033 30047 40129 56011=
94846 45/// /2016 10189 20131=
94847 46/// /1918=
94852 45/// /1913 10236 20085 39674 40176 55002=
94854 455// 11918 10201 20128 30182 40195 53002=
94855 45/// /2214 10326 20026 39898 40139 56007=
94857 45/// /1915 10192 20122 30180 40196 50000=
94859 45/// /1815 10296 20116=
94860 45/// /1815 10208 20106 39567 40172 56006=
94862 45/// /2610 10370 20111 39971 40119 57024=
94863 45/// /1508 10218 20126 39911 40188 53002=
94864 45/// /1709 10241 20142 30078 40177 56007=
94866 41680 11814 10206 20114 30049 40188 55001 70200 81501=
94868 45/// ///// 10211 20134 30151 40189 55000=
94870 45/// /2116 10193 20137 30175 40190 55004=
94871 45/// /2207 10193 20133=
94872 45/// /1204 10184 20124 39594 40184 55002=
94874 45/// /2116 10289 20106 39978 40142 56006=
94878 45/// /2602 10289 20096=

00000000