0000015700
493
SSVX13 LFPW 111000
ZZYY 13659 11014 1000/ 726147 026931 6113/ 11119 40191 52014 22219
 00219 444 20130 11014 0900/ 50101 80142 80003 9/015=
0000015700
494
SSVX13 LFPW 111000
ZZYY 25619 11014 1000/ 185766 091543 6113/ 11119 40062 52003 22219
 01092 444 20130 11014 0900/ 50101 80138 8//// 9/015=
0000015700
495
SSVX13 LFPW 111000
ZZYY 64665 11014 1000/ 765533 008594 6113/ 11119 40029 52008 22219
 00024 444 20130 11014 0900/ 50101 80148 80031 9/015=
0000014500
496
SSVX13 LFPW 111000
ZZYY 64519 11014 1000/ 163048 007398 6113/ 11119 49986 54000 444
 20130 11014 0600/ 50101 80138 80002 9/015=
0000015700
497
SSVX13 LFPW 110900
ZZYY 44763 11014 0900/ 756231 013089 6113/ 11119 40122 52020 22219
 00104 444 20130 11014 0900/ 50101 80138 80002 9/015=
0000015100
498
SSVX13 LFPW 111000
ZZYY 54936 11014 1000/ 534786 171005 6113/ 11119 54000 22219 00231
 444 20130 11014 0900/ 50101 80132 80005 9/015=
0000014500
499
SSVX13 LFPW 111000
ZZYY 26556 11014 1000/ 778926 014038 6113/ 11119 40008 52011 444
 20130 11014 0900/ 50101 80130 80002 9/015=
0000015700
500
SSVX13 LFPW 111000
ZZYY 44767 11014 1000/ 729401 028251 6113/ 11119 40172 52013 22219
 00219 444 20130 11014 0900/ 50101 80104 80002 9/015=
0000015100
501
SSVX13 LFPW 111000
ZZYY 13661 11014 1000/ 722726 037809 6113/ 11119 54000 22219 00236
 444 20130 11014 0900/ 50101 80050 80000 9/015=
0000015700
502
SSVX13 LFPW 111000
ZZYY 62512 11014 1000/ 736306 022949 6113/ 11119 40087 57004 22219
 00181 444 20130 11014 0900/ 50101 80140 80027 9/015=
0000125800
503
SNNO23 ENMI 111000
AAXX 11101
01015 46/// ///// 11074 21103=
01023 41689 12801 11257 21279 30094 40201 52004 70200 81500=
01033 46/// /1404 11040 21120 30146 40178 53005=
01059 46/// /2101 11161 21176 30182 40192 53002=
01089 46/// /1305 11188 21206 30070 40186 50003=
01167 NIL=
01180 NIL=
01210 46/// /1203 11019 21061 39964 49990 53002=
01228 46/// /1110 11059 21097 30004 40012 57003=
01240 46/// /1010 11064 21103 30008 40028 55000=
01304 46/// /0103 10005 21059 39948 49979 52004=
01311 47882 72804 10050 20027 39915 49976 52005 723//=
01340 46/// /3002 11014 21021 39100 49969 53003=
01355 26/// ///// 10005 2//// 39962 49967 52001 333 69915=
01360 NIL=
01392 46/// /0303 11082 21109 39793 40028 53006=
01406 46/// ///// 10053 20028 39962 49980 51008=
01411 46/// ///// 10060 20026 39971 49998 50002=
01425 26/// /0901 10027 20008 39931 40011 53002 333 69955=
01433 46/// /2808 11028 21038 38718 49972 52002=
01442 26/// /1403 10022 21004 39742 49999 53002 333 60005=
01450 26/// /2903 11031 21045 38831 49976 53004 333 4/051 60005=
01452 46/// /2101 10012 20011 39986 40007 54000=
01473 46/// /1001 11029 21034 39778 49989 52008=
01494 47262 80402 11001 21003 39924 49989 53008 700//=
0000130300
504
SNNO24 ENMI 111000
AAXX 11101
01037 46/// /1101 11187 21202=
01046 46/// /1602 11156 21187 30188 40196 50002=
01058 46/// /0000 11216 21241 39702 40214 52000=
01065 26/// /0000 11276 21305 30036 40219 50004 333 4/016 69925=
01092 46/// /0506 11023 21110=
01107 46/// /0812 11036 21120 30110 40113 50003=
01114 46/// /0706 11056 21215 30096 40107 52004=
01144 46/// /0911 11066 21168=
01199 46/// /0000 11193 21210 39696 40204 53004=
01245 26/// /0805 11131 21166 39280 40019 55001 333 60005=
01259 46/// /0807 11087 21146 30021 40044 55001=
01262 46/// /1117 11063 2////=
01278 NIL=
01293 46/// /1603 11126 21168 39842 40062 58002=
01329 46/// /2106 10040 20024 39909 49970 54001=
01337 46/// /0000 10002 21009 39903 49969 54001=
01344 26/// ///// 11006 21014 333 4/074 60005=
01364 26/// /1008 11070 21083 38842 49977 53005 333 4/047 69915=
01373 26/// /3101 11035 21042 39773 49981 53002 333 69925=
01380 46/// /1004 11128 21147=
01389 26/// /0602 11096 21119 39720 40044 52006 333 69925=
01393 NIL=
01424 46/// ///// 10049 20018 39982 49985 50000=
01431 46/// /2302 10006 21011 39336 40000 52003=
01436 46/// /2909 10056 20023=
01465 26/// /2408 10045 20022 39978 49996 50000 333 60005=
01471 46/// /0000 11051 21058=
01483 NIL=
0000166900
505
SNNO25 ENMI 111000
AAXX 11101
01025 46/71 30000 11129 21144 30176 40188 52004=
01052 26/// /2201 11071 21105 30078 40181 52004 333 60005=
01076 26/// /1501 11194 21215 30145 40189 52005 333 4/067 60005=
01108 26/// /0803 11079 21139 30072 40084 53007 333 60005=
01122 26/// /0504 11094 21179 30018 40113 53008 333 60005=
01132 26/// /1504 11100 21172 39682 40089 53006 333 4/049 60005=
01156 46/// /0705 11055 21133 30146 40157 52007=
01169 26/// ///// 11128 21200 30098 40147 52012 333 4/042 60005=
01203 46/// /2407 11010 21054 39934 49983 52004=
01233 46/// /0705 11105 21137=
01237 26/// /0707 11069 21119 39995 40011 55002 333 60005=
01265 NIL=
01273 46/// /1001 11123 21163 39833 40040 50001=
01307 46/// /3504 10021 20005 39948 49976 53006=
01321 26/// /3301 11039 21055 39726 49984 53004 333 60005=
01327 26/// /2805 10002 20001 39423 49970 52001 333 4/997 60015=
01350 46/// /2907 11033 21049 38564 49955 53005=
01361 26/// /0000 11133 21157 38937 40007 57002 333 4/082 60005=
01375 46/// /1502 11131 21143=
01378 46/// /2002 11078 21099 39712 40014 52005=
01385 26/// /0604 11084 21111 39743 40025 52008 333 69915=
01412 46/// /2810 10057 20029 39981 40011 52001=
01422 46/// /2204 10052 20024=
01440 46/// /0000 11029 21030 38701 49982 54000=
01441 46/// /2304 11007 21032 38986 49966 55000=
01467 46/// /2105 10037 20012 39986 49992 57002=
01469 NIL=
01477 26/// /0701 11023 21030 333 4/003 60005=
01480 26/// /1303 11006 21023 333 60005=
01484 46/// /1102 11044 21066 39844 40004 50009=
01490 46/// /0503 11070 21078=
01495 26/// /3602 10011 21006 39972 49985 51009 333 60005=
0000174400
506
SNNO26 ENMI 111000
AAXX 11101
01082 26/// ///// 11243 21268 30127 40203 50006 333 4/041 60005=
01121 46/// /1015 11058 21160 30085 40098 51017=
01135 26/// /0705 11100 21200 39954 40114 52006 333 4/034 60005=
01143 46/// /1106 11068 21150=
01147 26/// /2202 11140 21213 333 4/021 60005=
01150 26/// /1005 11119 21226 333 4/071 60005=
01192 26/// /1405 11091 21165 333 4/051 60005=
01225 46/// /0707 11048 21086 39996 40001 57002=
01230 26/// /0000 11209 21226 333 4/052 69915=
01232 26/// /1703 11084 21125 39923 40006 54001 333 4/004 60005=
01234 46/// /0605 11083 21099=
01253 26/// /2501 11139 21152 333 4/031 69925=
01254 26/// /1301 11092 21145 333 4/012 60005=
01257 26/// /3502 11121 21163 39867 40038 57001 333 60005=
01277 46/// /0402 11103 21158=
01291 26/// /1004 11109 21161 333 60005=
01314 26/// /1702 10028 20022 333 69925=
01332 NIL=
01345 NIL=
01357 46/// /0902 11058 21065 39015 49977 52005=
01366 46/// /2605 11075 21077 38331 49955 54001=
01370 26/// /0501 11109 21121 38877 40001 52003 333 4/060 60005=
01376 26/// /0501 11016 21034 333 69925=
01383 46/// /3102 11099 21113 39713 40041 52004=
01386 26/// ///// 11076 21107 333 60005=
01416 26/// ///// 10049 20021 333 60005=
01419 26/// /2103 10025 20014 333 69925=
01430 26/// ///// 10047 20010 333 69935=
01434 46/// /1901 11010 21025 39006 49965 56000=
01455 26/// /1803 10022 21018 39675 49984 58002 333 60005=
01460 46/// /0306 10009 2////=
01462 46/// /2801 11031 21033=
01468 46/// /0602 11061 21072=
01470 26/// /3101 11042 21051 39869 49986 50001 333 4/002 60005=
01476 NIL=
01481 26/// /3601 11004 21008 39958 49990 51009 333 60005=
01488 26/// /2601 11047 21071 333 60005=
0000122300
507
UDAS02 BABJ 110958
AMDAR 1109
DES CNFOZL 2305N 11313E 110952 F118 PS025 256/024 TB/ S//1=
DES CNFOZL 2301N 11311E 110953 F118 PS028 255/023 TB/ S//1=
DES CNFOZL 2256N 11311E 110954 F116 PS028 257/022 TB/ S//1=
DES CNFOZL 2251N 11310E 110955 F108 PS050 269/023 TB/ S//1=
LVR CNFNXP 2942N 11712E 110946 F341 MS408 262/148 TB/ S//1=
LVR CNFNXP 3005N 11716E 110949 F341 MS408 260/144 TB/ S//1=
LVR CNFNXP 3028N 11717E 110952 F341 MS410 259/149 TB/ S//1=
LVR CNFNXP 3051N 11719E 110955 F341 MS418 259/145 TB/ S//1=
DES CNFPYN 3622N 10338E 110953 F085 MS125 101/006 TB/ S//1=
DES CNFPYN 3625N 10338E 110954 F075 MS101 141/005 TB/ S//1=
DES CNFPYN 3627N 10337E 110954 F071 MS090 151/002 TB/ S//1=
DES CNFPYN 3628N 10337E 110955 F066 MS078 186/003 TB/ S//1=
DES CNFLWM 2307N 11210E 110953 F235 MS128 262/058 TB/ S//1=
DES CNFLWM 2306N 11217E 110954 F219 MS123 252/062 TB/ S//1=
DES CNFLWM 2305N 11224E 110955 F204 MS108 262/057 TB/ S//1=
ASC CNFPQK 3720N 12119E 110954 F037 MS056 329/003 TB/ S//1=
ASC CNFPQK 3719N 12116E 110954 F049 MS065 337/011 TB/ S//1=
ASC CNFPQK 3720N 12113E 110955 F055 MS075 318/010 TB/ S//1=
ASC CNFPQK 3721N 12111E 110956 F055 MS078 313/010 TB/ S//1=
0000080400
508
SAHK31 VHHH 111000
METAR VHHH 111000Z 14007KT 110V180 9000 FEW035 19/12 Q1021 NOSIG=
METAR RCTP 111000Z 22003KT 9999 FEW025 17/15 Q1021 NOSIG RMK A3016
=
METAR RCKH 111000Z 30008KT 8000 FEW016 SCT050 20/16 Q1021 NOSIG
RMK A3017=
METAR RCSS 111000Z 10010KT 9999 FEW020 19/12 Q1022 NOSIG RMK A3018
=
METAR VMMC 111000Z 11006KT 6000 FEW030 17/13 Q1021 NOSIG=
METAR RPLL 111000Z 08010KT 9999 FEW025 BKN300 26/17 Q1015 NOSIG RMK
A2998=
METAR RPVM 111000Z 35011KT 7000 -RA SCT020 OVC090 24/23 Q1011 A2995=
METAR RPMD 111000Z
36006KT 6000 RA SCT016 OVC090 23/22 Q1009  LIRA CONTUS=
METAR RPLB 111000Z 04016G21KT 9999 FEW030 BKN300 26/21 Q1013 NOSIG=
METAR RPLI 111000Z
009008KT 9999 FEW019 BKN290 25/17 Q1014 NOSIG RMK A2994=
METAR RPMZ 111000Z 00000KT 8000 -RA FEW018 OVC100 26/25 Q1009 A2982=

0000005200
509
RRIN23 VIDP 111006
RQRPT 752-813=

0000005200
510
RRIN23 VIDP 111006
RQRPT 992-053=

0000005200
511
RRIN23 VIDP 111007
RQRPT 132-173=

0000081300
512
SACI41 ZBBB 111000
METAR ZBHH 111000Z 30001MPS 6000 NSC M07/M20 Q1028 NOSIG=
METAR ZGHA 111000Z 36004MPS 2600 -RA BR BKN008 OVC040 04/03 Q1029
NOSIG=
METAR ZHCC 111000Z 20002MPS 170V230 4000 HZ NSC 06/M04 Q1028 NOSIG=
METAR ZHHH 111000Z 21002MPS 170V240 2500 BR SCT016 05/02 Q1030
NOSIG=
METAR ZJHK 111000Z 07005MPS CAVOK 20/17 Q1019 NOSIG=
METAR ZJSY 111000Z 08006MPS 9999 BKN050 23/16 Q1018 NOSIG=
METAR ZLLL 111000Z 15001MPS CAVOK M06/M22 Q1029 NOSIG=
METAR ZSNJ 111000Z 08003MPS 2000 BR SCT011 OVC040 05/03 Q1030 NOSIG=
METAR ZSOF 111000Z 03001MPS 2800 BR BKN023 05/02 Q1030 NOSIG=
METAR ZUCK 111000Z VRB01MPS 2000 BR FEW003 SCT010 OVC046 07/05 Q1028
NOSIG=
METAR ZYCC 111000Z 24003MPS CAVOK M10/M19 Q1024 NOSIG=
METAR ZYHB 111000Z 02007MPS 3000 -SN BR FEW026 M18/M21
Q1024
BECMG TL1130 2500=

00000000