0000056900
866
SNVF21 ENMI 110700
BBXX
LDGJ 11071 99603 10053 43/// /1402 10050 20027 49971 5//// 222/0
      04081 1//// 3//// 4//// 5////=
LF4H 11074 99596 10022 46/// /2820 10061 20016 49987 52003 8////
      90702 22200 06077 10707 70034=
LGWS 11071 99229 30145 43/// /3403 10176 20165 40130 5//// 222/0
      04179 1//// 3//// 4//// 5////=
LJIT 11071 99584 10042 43/// /2812 10066 20014 40017 5//// 222/0
      04069 1//// 3//// 4//// 5////=
LMEL 11071 99603 10053 43/// /1301 10047 20040 49968 5//// 222/0
      04079 1//// 3//// 4//// 5////=
0000012000
867
SMOM10 OOMS 110600 RRC
AAXX 11064
41259 36/// /2508 10091 21237 37147 40030
333 0E/// 20065 58007  =
0000035700
868
SAUK53 EGRR 110700
METAR EGUL 110658Z AUTO 26010KT 9999 OVC016 07/07 A2988 RMK AO2 RAB0556E0610DZE0556
      SLP122 P0000 T00690068=
METAR EGUN 110658Z AUTO 27011KT 9999 OVC016 07/07 A2990 RMK AO2 RAE0603DZB0603E0605
      SLP129 P0000 T00690069=
METAR EGVA 110658Z AUTO 28009KT 9999 CLR 04/04 A2997 RMK AO2 SLP155
      T00440043=
0000313800
869
SNUK42 EGRR 110700
AAXX 11074
03002 47675 /2914 10053 20021 39964 49982 53011 723//
  333 81/48 86/62 90710 91129=
03008 46/// /2720 10052 20015 39941 40015 53011
  333 90710 91132=
03010 46/// /2922 10054 20015 40035 52008
  333 90710 91135=
03014 46/// /2925 40003 53014
  333 90710 91137=
03031 47584 /2813 10003 21005 39748 40081 52015 724//
  333 553// 20000 82/28 83/33=
03034 45683 /2712 10044 20005 30066 40079 53019
  333 81/44 86/50=
03037 47673 /1705 10022 20005 30068 40091 53019 723//
  333 83/33 83/56=
03039 46/// /2912 11028 21034=
03044 47584 /2308 10025 21001 39958 40058 52012 723//
  333 553// 20000 82/24 83/30=
03047 47284 /2505 10010 21017 39794 40103 53015 771//
  333 553// 20000 81/04 84/12=
03062 47443 /2713 10016 20003 30070 40075 53018 782//
  333 553// 20000 82/10 86/61=
03065 46/// ///// 11061 21070=
03068 42984 62516 10021 20002 30061 40070 53015 8603/
  333 86358=
03072 46/// /2831 11043 21056
  333 90710 91141 91041=
03080 45984 /2808 10007 21025 39900 40074 53010
  333 81/62=
03088 45984 /2719 10020 21016 39899 40065 50002
  333 553// 20000 8//99 90710 91130=
03105 47357 /3225 10029 20007 30113 40130 53030 782//
  333 82/08 84/17 90710 91134=
03132 45683 /2613 10041 20021 30121 40135 53023
  333 81/44 87/50 86/75=
03144 45984 /2311 10017 20003 30052 40096 53009
  333 553// 20000 8//99=
03148 46/// /2717 11016 21022=
03153 45775 /3104 10021 20013 39986 40127 53020
  333 553// 20000 81/50 86/59=
03155 46786 /2312 10009 21004 39810 40114 53014
  333 81/50 84/62=
03158 45984 /2408 10021 21006 39960 40099 53015
  333 553// 20000 81/66=
03210 46670 /2820 10046 20032 39977 40130 53019
  333 84/36 84/58 90710 91126=
03212 45/78 /2804 10035 20023 30029 40129 53018=
03214 47880 /2909 10058 20032 30111 40130 51018 781//
  333 87/57=
03220 46974 ///// 10012 20012 30089 40124 52019
  333 82/58=
03224 47/02 /2612 10004 20004 39767 40121 52016 777//=
03225 46980 /2602 10002 21010 39819 40133 52020
  333 553// 20000 87/65=
03226 45975 /3502 10011 20003 39843 40125 51019
  333 8//99=
03227 46/// /2722 11022 2////
  333 90710 91127=
03230 46978 /3403 10000 21007 39852 40115 51015
  333 8//99=
03238 45361 /2610 10017 20011 39928 40105 51015
  333 81/06=
03261 46978 /2606 10013 21008 30085 40127 52026
  333 8//99=
03265 45981 /2603 10009 21017 30095 40126 53024
  333 8//99=
03266 46981 /2606 10018 20002 30106 40124 53023
  333 8//99=
03275 45975 /2611 10027 20005 39916 40112 53018
  333 8//99=
03281 46/// /2913 10021 21001=
03901 45984 /1702 10010 20007 30057 40147 51025
  333 55300 20000 8//99=
03904 47681 /1701 10007 20001 30085 40147 51025 723//
  333 81/35=
03907 47456 /2213 10019 20007 30134 40142 53028 782//
  333 55300 20000 84/10=
03911 46264 /2709 10007 20001 39867 40147 51025
  333 82/04 86/50=
03915 46982 /1802 10009 20001 30060 40141 53026
  333 8//99=
03916 46889 /2505 10012 21003 39941 40136 53025
  333 553// 20000 81/57=
03923 45283 /3007 10008 20007 39943 40145 51021
  333 81/03=
0000401700
870
SNUK43 EGRR 110700
AAXX 11074
03301 46581 /2710 10051 20027 30079 40154 53021
  333 84/26=
03305 47584 /2415 10046 20012 39885 40151 52016 723//
  333 81/25 86/50=
03313 46877 /2407 10045 20024 30051 40146 51020
  333 81/57=
03316 45765 /2815 10069 20038 30126 40138 52018
  333 86/50=
03318 46/// /2809 10065 20039=
03321 45770 /2205 10032 20019 30135 40148 52023
  333 55300 20000 83/50 84/58=
03330 47758 /0204 10014 20011 39776 40145 51026 723//
  333 81/56 84/62=
03344 45965 /2608 10027 20017 39806 40129 51022
  333 8//99=
03346 46/// /2813 10025 20011=
03351 47670 /2506 10042 20030 30097 40140 51025 723//
  333 55300 20000 82/30 85/56=
03373 46777 /2909 10039 20026 30054 40125 53031
  333 81/56=
03379 46780 /2810 10042 20029 30052 40130 53030
  333 81/50=
03382 45980 /2705 10040 20011 30108 40116 53027
  333 55300 20000 81/62=
03385 46873 /2711 10047 20036 30106 40116 53028
  333 85/57 86/61=
03391 42780 32909 10052 20030 30117 40124 53029 81530
  333 81650=
03392 46779 /2908 10053 20040 30114 40118 53025
  333 84/50=
03405 464// /2423 10052 20025 30050 40167 53023
  333 553// 20000 82/17 90710 91129=
03409 46/// /3401 10021 20016 39949 40154 51018
  333 55300 2////=
03410 46580 /2508 10028 20010 39711 40153 52021
  333 553// 20000 81/20 84/50=
03469 47482 /3111 10053 20040 30119 40123 53026 723//
  333 553// 20000 83/11=
03488 47465 /2715 10066 20058 30082 40108 53012 723//
  333 81/10 86/29=
03503 45684 /3007 10062 20031 30084 40162 51024
  333 81/44 86/50=
03520 46566 /0702 10007 20006 30036 40161 51032
  333 553// 20000 82/26=
03522 45966 /3004 10024 20016 30068 40163 51031
  333 8//99=
03529 45982 /2806 10031 20020 30119 40163 52038
  333 8//99=
03544 45770 /2806 10038 20027 30014 40147 53032
  333 553// 20000 81/50=
03560 45483 /2911 10054 20042 30031 40136 51028
  333 553// 20000 82/13=
03604 46982 /3009 10056 20028 30119 40173 52022
  333 82/60=
03605 46978 /3008 10043 20035 30163 40172 51025
  333 8//99=
03609 46/// /2909 10055 20049 30123 40177 51028=
03628 45973 /2605 10045 20035 30091 40164 52030
  333 55300 20000 8//99=
03647 46973 /3011 10032 20023 39895 40154 53030
  333 553// 20000 8//99=
03658 46977 /2409 10058 20045 30081 40152 53028
  333 8//99=
03660 45281 /2909 10052 20048 39897 40148 53025
  333 82/04 86/13=
03672 41582 32908 10067 20054 30106 40147 53024 72161 83500
  333 82625=
03680 46/// ///// 10056 20039 39987 40145 53025
  333 553// 20000=
03684 47683 /2811 10067 20038 30024 40131 53015 781//
  333 82/32 86/46=
03693 47257 /2509 10082 20076 30132 40134 53008 723//
  333 81/05 87/12=
03707 45580 /3108 10064 20039 30169 40176 51027
  333 83/21=
03710 46464 /3004 10013 20011 39748 40179 52026
  333 553// 20000 82/16=
03743 46981 /2706 10040 20028 39999 40163 53027
  333 8//99=
03749 46978 /2907 10048 20035 30050 40162 53029
  333 8//99=
03761 42682 22609 10059 20046 30008 40154 53025 82500
  333 55300 20000 81630=
03768 46682 /2907 10063 20048 30071 40151 53024
  333 81/39 84/50=
03769 47680 /2706 10074 20055 30064 40146 53016 723//
  333 55300 20000 84/30 84/57=
03781 47284 /2913 10069 20058 39939 40147 53017 723//
  333 553// 20000 84/05 86/29=
03784 46/// /2711 10084 20070 30134 40138 53015=
03797 47560 /2211 10079 20058 30077 40137 53001 757//
  333 55300 20000 81/23 85/34 86/47=
03823 45470 /3106 10033 20027 39935 40183 51026
  333 553// 20000 83/18=
03839 46/// ///// 10030 20021
  333 553// 20000=
03857 45980 /3214 10074 20043 30105 40169 53032
  333 8//99 90710 91125=
03862 45983 /3108 10056 20043 30151 40163 53030
  333 55300 20000 8//99=
03866 46/// /3109 10071 20050 30133 40158 53022=
03872 45682 ///// 10069 20054 30149 40154 53020
  333 553// 20000 82/35 83/57 91008=
03876 46/// /3410 10082 20067 30146 40148 53012=
03895 41240 83411 10081 20074 40176 53020 75165 885// 333 83704 87612=
0000008600
871
SPIN90 VIDP 110700
SPECI VIDD 110700Z 29007KT 1000 BR NSC 15/11 Q1019=
0000124100
872
SREW41 EGRR 110700
03002002 03005014 03008000 03017OTR 03026002 03031OTR 03034002
03037002 03044OTR 03047OTR 03062002 03063OTR 03066OTR 03068000
03075000 03080000 03088000 03091000 03100OTR 03105004 03111000
03132000 03134002 03136004 03144000 03153002 03155000 03158000
03162000 03166000 03171000 03204008 03210000 03212000 03214OTR
03220000 03224OTR 03225000 03226000 03230000 03238000 03240000
03257000 03261000 03265000 03266000 03275000 03281000 03292000
03301000 03302OTR 03305004 03313000 03316000 03318000 03321000
03330OTR 03344000 03346000 03351OTR 03354000 03373000 03377000
03379000 03382000 03391000 03392000 03405000 03409000 03410000
03414000 03462000 03469OTR 03482002 03488004 03502000 03503000
03520000 03522000 03529000 03535002 03544000 03560000 03590006
03604000 03605000 03609000 03628000 03647000 03649000 03658000
03660000 03672OTR 03684002 03693002 03707000 03710000 03716002
03740000 03743000 03746000 03749000 03761000 03768000 03769006
03772OTR 03781004 03797OTR 03803000 03808000 03809000 03823000
03827000 03839000 03840000 03853000 03857000 03862000 03866000
03872000 03876006 03882002 03901000 03904OTR 03907004 03911000
03915000 03916000 03917OTR 03923000=
0000122200
873
SAUK63 EGRR 110650 RRB
METAR EGDR 110650Z 35006KT 9999 FEW045 04/02 Q1018=
METAR EGDX 110650Z AUTO 30007KT 9999 NCD 05/04 Q1016=
METAR EGDY 110650Z AUTO 28004KT 9999 NCD 04/03 Q1016=
METAR EGOM 110650Z AUTO 26012KT 0200 SG VV/// 00/00 Q1010=
METAR EGOP 110650Z AUTO 30008KT 9999 // NCD 04/04 Q1017=
METAR EGOS 110650Z AUTO 25008KT 9999 NCD 02/01 Q1014=
METAR EGOV 110650Z AUTO 28019KT 9999 SCT022/// 06/03 Q1015 RERA=
METAR EGQK 110650Z AUTO 24012KT 9999 BKN080/// 02/00 Q1007 REUP=
METAR EGUB 110650Z AUTO 24009KT 9999 // NCD 06/05 Q1015=
METAR EGUW 110650Z AUTO 28010KT 9999 FEW003/// BKN036/// 07/05 Q1012 RERA=
METAR EGVP 110650Z AUTO 29007KT 9999 // NCD 05/04 Q1015=
METAR EGXD 110650Z AUTO 26006KT 9999 // NCD 01/M01 Q1012=
METAR EGXE 110650Z AUTO 25006KT 9999 NCD 02/M00 Q1012=
METAR EGXP 110650Z AUTO 29009KT 9999 // FEW060/// 04/03 Q1012=
METAR EGXS 110650Z AUTO 27011KT 9999 // BKN070/// BKN110/// 05/04 Q1011=
METAR EGXU 110650Z AUTO 26006KT 9999 // NCD 02/00 Q1012=
METAR EGXZ 110650Z AUTO 26003KT 9999 NCD 01/M02 Q1012=
METAR EGYD 110650Z AUTO 28010KT 9999 // FEW050/// 04/03 Q1012=
METAR EGYM 110650Z AUTO 27010KT 9999 SCT026/// SCT048/// 07/06 Q1012 RERA=
0000011000
874
UANT99 KDDL 110708
ARP ETD130 5620N03731W 0708 F330 MS58 214/24 KT
A6EHJ QXT AOW 110709 J40A
0000011000
875
UANT99 KDDL 110709
ARP UAE216 6045N04328W 0709 F350 MS59 212/11 KT
A6EEP QXS UAK 110709 J97A
0000011100
876
UANT99 KDDL 110709
ARP DAL615 5754N02828W 0709 F360 MS57 215/58 KT
N185DN QXT AOE 110709 F22A
0000011100
877
UANT99 KDDL 110709
ARP AWE704 4936N02500W 0709 F360 MS59 200/63 KT
N276AY DDL XXN 110709 J80A
0000011100
878
UANT99 KDDL 110709
ARP RCH570 5010N02849W 0709 F350 MS56 188/46 KT
44132A DDL XXN 110709 F43A
0000011100
879
UANT99 KDDL 110709
ARP NAX7002 5730N03258W 0709 F410 MS56 342/36 KT
EILNC QXT AOW 110709 L15A
0000045500
880
SMVD01 PANC 110600 RRJ
BBXX
C6WK7 11064 99379 10236
417// 21803 10120 2004/ 40230 54/// 7//// 82/85
22200 00100 2//00 3//// 4//// 5//// 6//// 80080 ICE /////=
3EXT8 11064 99261 10507
41297 82414 10155 20130 40220 54000 75052 87920
22200 00150 20000 3//// 40000 50000 6//// 80140 ICE /////=
9V2024 11064 99251 10574
41698 10710 10200 2017/ 40200 54000 70000 81008
22200 00230 2//// 3//// 4//// 5//// 6//// 80180 ICE /////=
0000010900
881
UANT01 CWAO 110709
ARP DAL8 5421N05621W 0709 F330 MS61 277/82 KT
N706DN QXS YHO 110709 F11A
0000052400
882
SNSP20 LEMM 110700
AAXX 11074
08045 46/// /0000 10066 20062 39858 40172 52002
  555 60005=
08181 47/56 /3509 10102 20078 30184 40191 53009 71011
  555 60005=
08221 42970 60204 10051 20039 39500 40195 53012 85042
  555 60005=
08284 46/// /2903 10073 20064 30110 40187 53004
  555 60005=
08306 46/// /3401 10086 20083 30171 40177 53006
  555 60005=
08314 41256 71005 10130 20125 30078 40181 5//// 71022 8667/
  555 60005=
08482 46/// /2906 10109 20095 30165 40174 53003
  555 60005=
0000011800
883
SNVF25 LFPW 110700
BBXX
BATUK01 11074 99581 70062 43/// /3011 10047 21003 40076 53026
22211 04097=
0000454300
884
SNPL40 SOWR 110700
AAXX 11071
12100 42465 82203 10052 20027 30101 40108 54000 885//
  333 91108
  555 57012=
12105 42473 82304 10048 20031 30069 40111 52005 885//
  333 85613
  555 57010=
12115 42472 82508 10056 20039 30081 40095 52004 8557/
  333 91013 91113
  555 57009=
12120 42470 72712 10055 20041 30085 40089 52003 875//
  555 57006=
12125 46/// /2506 10053 20039 30044 40095 52004 =
12135 41470 62805 10048 20038 30085 40088 52008 72522 86800
  333 83816 86636 91111
  555 57005=
12160 41460 72407 10030 20030 39870 40098 53008 72522 872//
  555 57000=
12185 42483 72707 10044 20035 39954 40090 53013 875//
  555 57002=
12195 41484 82706 10030 20024 39851 40080 52017 72582 885//
  555 57005=
12200 42462 72103 10045 20033 30108 40115 56004 8557/
  555 57007=
12205 42560 72205 10038 20025 30120 40128 56002 84508
  555 57009=
12210 46/// /2203 10045 20020 30051 40116 52002=
12215 41/// /9903 10037 20026 39948 40120 52003 7////
  =
12230 42462 82302 10040 20019 30043 40134 53004 875//
  555 57012=
12235 41457 82305 10036 20030 39906 40118 52006 78082 889//
  333 88911 91110
  555 57004=
12250 42469 82403 10044 20026 30042 40131 52007 885//
  333 91107
  555 57011=
12270 42471 72605 10040 20022 39938 40122 53010 875//
  333 87616
  555 57010=
12272 42481 82604 10040 20031 39935 40103 52013 885//
  333 88613 91109
  555 57004=
12280 41461 82705 10041 20037 39939 40097 52016 78088 889//
  333 91109
  555 57001=
12285 41/// /2705 10046 20020 39999 40115 52016 700//=
12295 41460 72605 10038 20032 39913 40098 52016 72582 879//
  333 87912 91111
  555 57002=
12300 42480 82302 10029 20016 30053 40144 55001 885//
  333 88616
  555 57008=
12310 42570 82204 10039 20018 30082 40149 55004 84537
  555 57010=
12330 42565 72403 10035 20014 30042 40152 53003 875//
  555 57012=
12345 42666 72307 10040 20014 30003 40149 53004 83538
  555 57015=
12360 42770 72405 10038 20017 30002 40137 52013 84508
  333 91110
  555 57016=
12375 42670 62605 10045 20008 30008 40140 52011 84532
  333 91010 91112
  555 57022=
12385 42570 72505 10043 20018 39940 40131 53015 879//
  555 57013=
12399 42567 82605 10047 20014 39953 40122 52018 885//
  333 91010 91111
  555 57019=
12400 42980 72303 10023 20011 39920 40160 54000 82088
  555 57007=
12415 42784 72602 10019 21008 30015 40171 54000 81536
  555 57015=
12418 42965 82403 10019 20006 30048 40165 53001 81037
  555 57009=
12424 42699 72204 10030 20001 30021 40176 53002 83532
  555 57013=
12435 42772 72404 10030 20010 39989 40164 53006 83538
  555 57013=
12455 42779 72504 10029 21006 39921 40171 53001 8353/
  555 57017=
12465 42580 72506 10035 20007 39933 40158 53004 875//
  555 57017=
12469 42680 72406 10032 20004 39927 40162 53007 85508
  555 57015=
12488 42580 72504 10043 21001 39994 40150 52012 875//
  555 57026=
12495 42784 72504 10033 21003 39859 40155 53012 875//
  555 57021=
12497 42570 72608 10045 20006 39915 40136 53017 875//
  333 91115
  555 57020=
12500 42684 52101 10011 21020 39758 40185 55001 82504
  555 57017=
12510 41/90 92916 11058 21062 38317 48443 55001 74943
  555 57001 70148 80239=
12520 42580 61904 10013 21008 39752 40196 53002 83508
  333 83620
  555 57013=
12530 42770 72302 10037 20006 39980 40184 53003 82532
  555 57015=
12540 42680 72505 10032 20004 39939 40196 53004 82838
  555 57014=
12550 42670 72203 10020 21011 39814 40180 53002 875//
  555 57015=
12560 42698 72104 10028 21003 39844 40191 52004 875//
  555 57017=
12566 42782 72603 10024 20000 39893 40194 53007 875//
  555 57016=
12570 42673 72504 10025 21008 39853 40177 52009 875//
  555 57015=
12575 42670 62601 10040 21018 39931 40190 52009 86500
  555 57032=
12580 42780 72505 10039 21007 39922 40185 52014 85501
  555 57029=
12585 42768 72406 10035 21005 39902 40173 53012 875//
  333 91012 91112
  555 57020=
12595 NIL=
12600 42684 72206 10039 21019 39704 40193 52005 875//
  555 57025=
12625 42682 82902 10007 21062 39182 42798 53005 885//
  555 57025=
12650 41380 72704 11096 21104 37954 48475 52006 70132 875//
  333 91110
  555 57002 70084 80137=
12660 42570 60101 10033 21035 39832 40198 53005 86500
  555 57032=
12670 42783 72503 10043 21042 39782 40189 53004 84531
  555 57037=
12690 42572 72104 10013 21032 39679 40201 52010 84532
  555 57019=
12695 41/// /2704 10052 21035 39841 40184 52011 700//=
0000064800
885
SNBX43 EBUM 110700
AAXX 11071
06418 46/// /2206 10044 20028 30135 40147 55004 333   91109 91207=
06434 46/// /2304 10042 20028 30142 40163 55001 333   91106 91204=
06439 46/// /2203 10042 20024 30146 40160 56004 333   91105 91203=
06447 46/// /2403 10049 20036 30032 40159 55001 333   91107 91204=
06455 46/// /2302 10046 20035 39869 40156 53004 333   91104 91203=
06464 46/// /2401 10032 20032 30122 40150 55003 333   91103 91202=
06472 46/// ///// 10038 20038 39808 40172 53002=
06477 46/// /0901 11003 21003 30106 40157 56007 333   91101 91201=
06484 46/// /0000 10013 20013 39778 40180 58003 333   91102 91202=
00000000