0000011000
933
UANT99 KDDL 111018
ARP BAW242 5529N04614W 1018 F370 MS57 285/53 KT
GCIVK QXT AOW 111018 F12A
0000013600
934
SNVD17 CWVR 111000
BBXX
46207 11101 99509 71299 46/// /2107 10081 49828 57003
22200 00078 11008 70039 333 91210 =

0000023500
935
SAWD01 OEJD 111000 RRA
METAR LEMD 111000Z 36003KT CAVOK 07/06 Q1020 NOSIG=
METAR UUEE 111000Z 26005MPS 8000 -RA OVC005 02/01 Q0986 75290151
25290151 NOSIG=
METAR VIDP 111000Z 31010KT 3000 HZ NSC 18/07 Q1018 NOSIG=
0000037500
936
SMVA01 KWBC 110600 RRK
BBXX
VRBL4 11063 99051 50303 41797 51119 10260 2019/ 40110 57010 70322
 84963 22213 00200 21001 30910 41502 51502 6//// 80210 ICE /////
 BEST WISHES, CAPT.R.V.RAGHAVAN MASTER M.V.SAGA ADVENTURE=
VRBL4 11063 99051 50303 41797 51119 10260 2019/ 40110 57010 70322
 84963 22213 00200 21001 30910 41502 51502 6//// 80210 ICE /////=
0000066100
937
UDAF01 FAPR 111017
AMDAR 1110
ASC AFZA45 2543S 02811E 110903 F157 MS027 185/009 TB0 S031 333 F/// VG011=
LVR AFZA45 2523S 02806E 110907 F228 MS154 316/019 TB0 S031 333 F/// VG010=
LVR AFZA45 2435S 02756E 110914 F315 MS350 289/022 TB0 S031 333 F/// VG010=
LVR AFZA45 2344S 02745E 110921 F380 MS507 291/026 TB0 S031 333 F/// VG010=
LVR AFZA45 2254S 02733E 110928 F380 MS505 294/016 TB0 S031 333 F/// VG011=
LVR AFZA45 2204S 02720E 110935 F380 MS506 304/011 TB0 S031 333 F/// VG011=
LVR AFZA45 2114S 02708E 110942 F380 MS505 293/011 TB0 S031 333 F/// VG011=
LVR AFZA45 2024S 02655E 110949 F380 MS505 297/004 TB0 S031 333 F/// VG011=
0000066100
938
UDAF01 FAPR 111016
AMDAR 1110
LVR AFZA70 2044S 03246E 110925 F350 MS434 220/004 TB0 S031 333 F/// VG012=
LVR AFZA70 1955S 03306E 110933 F350 MS434 234/005 TB0 S031 333 F/// VG012=
LVR AFZA70 1904S 03320E 110940 F350 MS430 189/009 TB0 S031 333 F/// VG012=
LVR AFZA70 1811S 03327E 110947 F350 MS427 141/007 TB0 S031 333 F/// VG012=
LVR AFZA70 1718S 03332E 110954 F350 MS429 118/005 TB0 S031 333 F/// VG012=
LVR AFZA70 1626S 03337E 111001 F350 MS435 138/011 TB0 S031 333 F/// VG012=
LVR AFZA70 1534S 03347E 111008 F350 MS435 146/013 TB0 S031 333 F/// VG012=
LVR AFZA70 1443S 03333E 111015 F350 MS435 152/022 TB0 S031 333 F/// VG012=
0000066100
939
UDAF01 FAPR 111018
AMDAR 1110
UNS AFZA03 2604S 02814E 111016 F074 PS155 017/010 TB0 S031 333 F/// VG000=
ASC AFZA03 2605S 02812E 111017 F077 PS149 355/016 TB0 S031 333 F/// VG000=
ASC AFZA03 2605S 02812E 111017 F080 PS143 012/015 TB0 S031 333 F/// VG000=
ASC AFZA03 2606S 02811E 111017 F081 PS141 124/018 TB0 S031 333 F/// VG009=
ASC AFZA03 2606S 02810E 111017 F084 PS134 005/014 TB0 S031 333 F/// VG009=
ASC AFZA03 2607S 02810E 111017 F088 PS140 004/011 TB0 S031 333 F/// VG009=
ASC AFZA03 2607S 02808E 111018 F099 PS116 323/009 TB0 S031 333 F/// VG000=
ASC AFZA03 2609S 02806E 111018 F118 PS060 267/012 TB0 S031 333 F/// VG000=
0000066100
940
UDAF01 FAPR 111017
AMDAR 1110
ASC AFZA03 2607S 02815E 111014 F054 PS224 315/010 TB0 S031 333 F/// VG000=
ASC AFZA03 2607S 02815E 111015 F055 PS224 314/007 TB0 S031 333 F/// VG009=
ASC AFZA03 2607S 02815E 111015 F058 PS212 017/014 TB0 S031 333 F/// VG009=
ASC AFZA03 2606S 02815E 111015 F061 PS204 353/013 TB0 S031 333 F/// VG009=
ASC AFZA03 2606S 02815E 111016 F064 PS195 343/014 TB0 S031 333 F/// VG000=
UNS AFZA03 2605S 02815E 111016 F067 PS185 323/008 TB0 S031 333 F/// VG000=
UNS AFZA03 2605S 02815E 111016 F069 PS180 315/013 TB0 S031 333 F/// VG009=
UNS AFZA03 2604S 02815E 111016 F071 PS175 231/012 TB0 S031 333 F/// VG009=
0000021300
941
SNVD15 KWNB 111000 RRL
BBXX
44064 11101 99370 70760 46/// /1405 10107 40153 91010 333 91205
555 11053 22058=
44063 11101 99390 70764 46/// /0000 10023 40134 91010 333 91201
555 11001 22001=
0000015800
942
SNVD19 KWNB 111000 RRC
BBXX
46126 11101 99540 71666 46/// /2105 10048 49808 56009 91000 22200
00045 1//00 70001 333 91207 555 11049 22053=
0000003900
943
SMVA01 AMMC 110600
NIL=
0000003900
944
SMVC01 AMMC 110600
NIL=
0000003900
945
SMVD01 AMMC 110600
NIL=
0000003900
946
SMVF01 AMMC 110600
NIL=
0000009600
947
SMAL51 EUMS 110600 RRA
AAXX 11064
60664 36/// /0000 10059 21056
  333 20055=
0000009200
948
SMAL52 EUMS 110600
AAXX 11064
60667 36/// /0000 10108 20002
  333 20103=
0000009200
949
SMAL56 EUMS 110600
AAXX 11064
60692 36/// ///03 10114 21026
  333 20114=
0000148200
950
SMTS20 DTTA 110600
AAXX 11064
60710 12560 20406 10069 20049 30100 40181 52006 60004 81202
  333 20068 81820=
60714 12958 32502 10057 20057 30183 40189 58001 60004 81082
  333 20050 81360 83070=
60720 13958 30000 10077 20071 30158 40194 53005 60004
  333 20077 83070=
60728 NIL=
60729 02957 20000 10035 20023 30015 40209 53006 60004 80002
  333 10128 20036 30006 59009 5///4 60007 70000 82070 91000 91104=
60731 05960 /2404 10043 20034 30187 40195 53005 69924
  333 10145 20042 3//// 59009 5///4 60007 70002 91005 91110=
60732 13560 30000 10020 21007 39591 40222 51007 60004 83200
  333 20017 83820=
60734 13962 11504 10056 20012 39673 40208 53007 60004 80002
  333 20051 81070=
60738 13960 02804 10083 21100 38959 48519 52008 60004
  333 20080=
60739 13/60 /1909 10038 20014 39381 40226 53005 60004
  333 20038 91011 91116=
60740 12960 31710 10106 20062 30190 40192 53001 60004 82082
  333 20099 82360=
60742 13958 31908 10129 20078 30200 40202 53005 60004 82082
  333 20125 82360=
60764 13960 21104 10047 20022 30158 40212 50002 60004 80002
  333 20041 82070=
60770 13975 03002 10099 20070 30072 40213 53002 60004
  333 20094=
60772 06/// /2408 10127 20065 39957 40214 53005 60004
  333 10166 20119 3/011 59024 60007 70000 91011 91112=
60775 13962 22108 10137 20035 39861 40217 53003 60004 80002
  333 20119 55074 82070=
60780 13960 21406 10096 20054 39915 4//// 53006 60004 80002
  333 20096 82070=
0000045500
951
FTXX31 AYPM 110605
TAF AYNZ 110605Z 1108/1120 09015KT 9999 FEW018 SCT040 BKN140
FM111400 VRB03KT 9999 SCT040 BKN140
Q 1005 1006 1007 1006=
TAF AYMD 110606Z 1108/1120 VRB03KT 9999 -SHRA SCT018 BKN120
Q 1006 1008 1007 1005=
TAF AYWK 110607Z 1108/1120 30008KT 9999 -SHRA SCT018 BKN120
Q 1006 1008 1007 1005=
TAF AYMO 110608Z 1108/1120 35008KT 9999 -SHRA SCT016 BKN120
INTER 1108/1120 4000 +SHRA BKN008
Q 1006 1008 1007 1005=
0000011000
952
UANT01 CWAO 110615
ARP UAE242 5545N04306W 0614 F330 MS58 292/45 KT
A6EEH DDL XXH 110615 J23A
00000000