0000061000
433
SMGO01 FOOL 110600
AAXX 11064
64500 11358 80402 10257 20250 30104 40177 60024 71796 889//
  333 02213 20255 5//// 55012 58015 84608 81920 88630 94947 95837=
64501 12360 82006 10258 20243 30118 40128 60824 885//
  333 02359 2//// 50104 55043 58017 83608 88640=
64550 32460 8//// 10242 20225 30/// 40/// 885//
  333 0//00 20231 50184 55/// 5//// 84610 88623=
64551 32359 80000 10250 20236 3//// 4//// 889//
  333 0//00 20220 50014 55/// 5//// 84606 81915 88623 94942 95832=
64570 31104 81202 10230 20229 39619 40112 74444 885//
  333 0//00 20230 50144 55/// 58009 85702 88613=
0000018000
434
SNVD01 PANC 110400 RRJ
BBXX
VREF5 11043 99119 11126
41697 40421 10300 2025/ 40150 54/// 7//22 84132
222// 00290 20504 3//// 40403 50403 6//// 80260 ICE /////=
0000099600
435
SAAU31 AMMC 110600
METAR YBAS 110600Z 11017KT 100V170 9999 PO NSC 39/03 Q1011=
METAR YBBN 110600Z 07012KT 9999 FEW035 27/18 Q1015
     NOSIG=
METAR YBCS 110600Z 17007KT 9000 -SHRA FEW005 SCT020 BKN070 27/23 Q1008
     INTER 0600/0900 VRB15G25KT 4000 SHRA FEW008 BKN020=
METAR YBTL 110600Z 08018KT 9999 FEW030 BKN220 30/21 Q1009=
METAR YMML 110600Z 18013KT 9999 FEW045 22/11 Q1018
     NOSIG=
METAR YPAD 110600Z 15014KT CAVOK 29/02 Q1017
     NOSIG=
METAR YPCC 110600Z 14011KT 9999 FEW025 BKN039 29/21 Q1010=
METAR YPDN 110600Z AUTO 29011KT 9999 // BKN040 31/24 Q1005=
METAR YPKU 110600Z AUTO 33009KT 0900 // SCT012 BKN053 OVC100 30/22 Q1005=
METAR YPLM 110600Z AUTO 03014KT 9999 // NCD 35/24 Q1007=
METAR YPPH 110600Z 09013KT CAVOK 42/06 Q1011
     NOSIG=
METAR YPTN 110600Z AUTO 16005KT 9999 -SHRA SCT021 SCT030 33/23 Q1004=
METAR YPXM 110600Z AUTO 15005KT 9999 // OVC020 27/22 Q1011=
METAR YSSY 110600Z 06015KT CAVOK 28/15 Q1013
     NOSIG=
0000029300
436
UDAS02 BABJ 110601
AMDAR 1106
ASC CNFOZL 3615N 12023E 110559 F001 PS028 257/003 TB/ S//1=
ASC CNFOZL 3615N 12023E 110600 F004 PS020 247/003 TB/ S//1=
ASC CNFOZL 3614N 12023E 110600 F009 PS006 229/003 TB/ S//1=
ASC CNFPXL 2506N 10257E 110600 F067 PS144 253/012 TB/ S//1=
0000140900
437
UDAS02 BABJ 110600
AMDAR 1106
LVR CNFLWR 2655N 10813E 110557 F247 MS235 255/096 TB/ S//1=
ASC CNFLWR 2656N 10815E 110557 F250 MS240 252/097 TB/ S//1=
LVR CNFLWQ 3345N 10817E 110548 F341 MS523 250/098 TB/ S//1=
LVR CNFLWQ 3328N 10807E 110551 F341 MS520 250/096 TB/ S//1=
LVR CNFLWQ 3309N 10801E 110554 F341 MS520 248/094 TB/ S//1=
LVR CNFLWQ 3250N 10756E 110557 F341 MS516 251/094 TB/ S//1=
LVR CNFPQK 3228N 11917E 110555 F246 MS320 275/066 TB/ S//1=
LVR CNFPQK 3222N 11924E 110556 F246 MS325 276/066 TB/ S//1=
DES CNFPQK 3218N 11928E 110557 F240 MS313 277/067 TB/ S//1=
DES CNFPQK 3216N 11931E 110557 F232 MS298 278/063 TB/ S//1=
LVR CNFPYM 3913N 11216E 110555 F236 MS408 266/071 TB/ S//1=
LVR CNFPYM 3919N 11214E 110556 F236 MS413 264/073 TB/ S//1=
LVR CNFPYM 3923N 11214E 110557 F236 MS410 262/072 TB/ S//1=
LVR CNFPYM 3926N 11213E 110557 F236 MS408 265/073 TB/ S//1=
LVR CNFPQL 2905N 10418E 110548 F351 MS445 253/143 TB/ S//1=
LVR CNFPQL 2928N 10418E 110551 F351 MS446 255/138 TB/ S//1=
LVR CNFPQL 2952N 10418E 110554 F351 MS453 258/125 TB/ S//1=
LVR CNFPQL 3015N 10423E 110557 F351 MS478 259/121 TB/ S//1=
LVR CNFNXM 2759N 11128E 110549 F341 MS408 259/138 TB/ S//1=
LVR CNFNXM 2754N 11111E 110552 F341 MS408 260/138 TB/ S//1=
ASC CNFNXM 2750N 11053E 110555 F356 MS440 262/125 TB/ S//1=
LVR CNFNXM 2746N 11036E 110558 F361 MS455 262/122 TB/ S//1=
0000017700
438
SNVD01 PANC 110700
BBXX
9V9131 11073 99178 31021
41498 81511 10280 2022/ 40140 54000 7//22 8762/
22223 00240 20601 323// 40804 5//// 6//// 80240 ICE /////=
0000013600
439
SMPA20 KWBC 110600
AAXX 11064
91222 NIL=
91245 NIL=
91323 NIL=
91339 NIL=
91343 NIL=
91353 NIL=
91442 NIL=
0000017900
440
SMVC01 KWBC 101800 RRG
BBXX
VRDT7 10184 99044 71035 41397 80913 10260 20246 40110 54000 70322
 8877/ 22233 00280 20204 30909 40204 50204 6//// 80250 ICE /////=
0000059100
441
SMUS01 KWBC 110600
AAXX 11064
72201 NIL=
72202 NIL=
72203 NIL=
72205 NIL=
72206 NIL=
72207 NIL=
72208 NIL=
72211 NIL=
72212 NIL=
72214 NIL=
72217 NIL=
72218 NIL=
72219 NIL=
72220 NIL=
72223 NIL=
72226 NIL=
72231 NIL=
72234 NIL=
72235 NIL=
72240 NIL=
72243 NIL=
72248 NIL=
72250 NIL=
72251 NIL=
72253 NIL=
72254 NIL=
72255 NIL=
72256 NIL=
72259 NIL=
72261 NIL=
72263 NIL=
72265 NIL=
72266 NIL=
72267 NIL=
72268 NIL=
72270 NIL=
72271 NIL=
72274 NIL=
72278 NIL=
72280 NIL=
72290 NIL=
72295 NIL=
0000043000
442
UDAF01 FAPR 110606
AMDAR 1106
UNS AFZA04 5125N 00004W 110556 F064 MS035 251/040 TB1 S031 333 F/// VG020=
DES AFZA04 5130N 00002W 110560 F048 MS005 268/029 TB1 S031 333 F/// VG020=
DES AFZA04 5130N 00010W 110601 F032 PS015 299/024 TB1 S031 333 F/// VG025=
DES AFZA04 5130N 00017W 110603 F018 PS042 300/027 TB1 S031 333 F/// VG026=
DES AFZA04 5129N 00024W 110605 F004 PS070 301/013 TB1 S031 333 F/// VG030=
0000066100
443
UDAF01 FAPR 110606
AMDAR 1106
DES AFZA04 5130N 00015W 110602 F021 PS037 301/026 TB1 S031 333 F/// VG026=
DES AFZA04 5130N 00017W 110603 F018 PS042 300/027 TB1 S031 333 F/// VG026=
DES AFZA04 5130N 00018W 110604 F015 PS052 302/026 TB1 S031 333 F/// VG030=
DES AFZA04 5130N 00019W 110604 F012 PS060 301/023 TB1 S031 333 F/// VG030=
DES AFZA04 5130N 00021W 110604 F009 PS057 295/019 TB1 S031 333 F/// VG030=
DES AFZA04 5129N 00022W 110605 F007 PS062 299/018 TB1 S031 333 F/// VG030=
DES AFZA04 5129N 00024W 110605 F004 PS070 301/013 TB1 S031 333 F/// VG030=
DES AFZA04 5129N 00025W 110605 F001 PS077 301/011 TB1 S031 333 F/// VG032=
0000043500
444
SMUS02 KWBC 110600
AAXX 11064
72302 NIL=
72304 NIL=
72308 NIL=
72310 NIL=
72311 NIL=
72312 NIL=
72314 NIL=
72317 NIL=
72323 NIL=
72324 NIL=
72326 NIL=
72327 NIL=
72334 NIL=
72340 NIL=
72344 NIL=
72351 NIL=
72353 NIL=
72356 NIL=
72360 NIL=
72363 NIL=
72365 NIL=
72370 NIL=
72371 NIL=
72374 NIL=
72376 NIL=
72384 NIL=
72386 NIL=
72387 NIL=
72389 NIL=
72394 NIL=
0000017900
445
SMVC01 KWBC 110000 RRH
BBXX
VRDT7 11004 99035 71028 41397 81413 10260 20232 40110 54000 75255
 8877/ 22233 00280 20204 31515 40204 50204 6//// 80240 ICE /////=
0000103000
446
SMPF01 NTAA 110600
AAXX 11064
91925 06/// /0805 10264 20218 30060 40120 51021 69921
  333 55083 69927 90710 91115
  555 60005 10822 59002=
91929 04456 60720 10258 20223 30124 40127 51020 60022 765//
  333 10313 20258 4//// 55/// 69987 70024 90710 91129
  555 69985=
91938 02570 10703 10262 20214 30126 40128 51016 60002 8180/
  333 10311 20262 30/// 55059 60007 70000 81820 90710 91106
  555 60005 10412 59005=
91943 36/// /0609 10268 20213 30123 40126 51017
  333 20265 59004=
91944 04860 /0816 1//// 2//// 30144 4//// 50011 6///2 700//
  333 1//// 2//// 4//// 55/// 6///7 7//// 90710 91124
  555 6///5=
91948 06/// /0905 10252 20207 30096 40198 52014 60001
  333 55100 60007 90710 91114
  555 60005 11117 58001=
91954 06/// /0610 10258 20221 30158 40161 52016 60002
  333 10296 20253 4//// 55077 60007 70000 90710 91118
  555 60005 10621 59006=
91958 06/// /0911 10244 20227 30212 40214 52015 69901
  333 55014 60007 90710 91127
  555 60005 10728 58003=
91945 NIL=
0000046100
447
SMUS03 KWBC 110600
AAXX 11064
72401 NIL=
72403 NIL=
72407 NIL=
72408 NIL=
72411 NIL=
72412 NIL=
72414 NIL=
72417 NIL=
72421 NIL=
72422 NIL=
72428 NIL=
72432 NIL=
72434 NIL=
72435 NIL=
72438 NIL=
72440 NIL=
72445 NIL=
72446 NIL=
72450 NIL=
72451 NIL=
72456 NIL=
72458 NIL=
72462 NIL=
72464 NIL=
72465 NIL=
72475 NIL=
72476 NIL=
72480 NIL=
72486 NIL=
72488 NIL=
72492 NIL=
72494 NIL=
0000047400
448
SMUS04 KWBC 110600
AAXX 11064
72503 NIL=
72508 NIL=
72509 NIL=
72514 NIL=
72515 NIL=
72518 NIL=
72519 NIL=
72520 NIL=
72524 NIL=
72526 NIL=
72528 NIL=
72530 NIL=
72532 NIL=
72533 NIL=
72537 NIL=
72546 NIL=
72547 NIL=
72552 NIL=
72556 NIL=
72557 NIL=
72562 NIL=
72564 NIL=
72565 NIL=
72567 NIL=
72569 NIL=
72570 NIL=
72572 NIL=
72576 NIL=
72578 NIL=
72583 NIL=
72591 NIL=
72594 NIL=
72597 NIL=
0000038000
449
SMVA01 KWBC 110600
BBXX
BATFR55 11064 99083 30426 44796 20107 10280 20214 40149 51023
 702// 821// 22262 04294 20602 305// 40802 5////=
WMDK 11063 99254 10358 41798 43519 10210 20128 40200 52030 7//00
 83460 22214 00250 20301 332// 40301 5//// 6//// 80160 ICE /////=
D5AH6 11063 99000 70291 41198 20814 10260 40102 55/// 70300 82090
 22255 04250 20503=
0000133700
450
SMVB01 KWBC 110600 RRA
BBXX
CQIV 11064 99242 11184 41696 70315 10180 20121 40250 58010 70211
 87/1/ 22200 04140 20604 80145=
MRSA8 11064 99059 11077 41498 83214 10275 20239 40115 56012 70222
 82264 22254 00250 20304 30400 40304 5//// 80250=
52202 11061 99137 11448 46/// ///// 1//// 90600 22200 00283 10705
 20704 304// 41101 70023=
DIUR2 11064 99059 10879 41398 70911 10295 20260 40120 54000 70322
 8671/ 22263 00300 20502 303// 40904 80270=
DQVJ 11060 99456 11513 41296 62820 11041 40060 52030 71572 867//
 22252 00034 20810 332// 41006 5////=
3FZK3 11064 99369 11409 46/// /3413 10053 21088 40227 55004 7////
 8//// 22200 0//// 2////=
SHIP 11064 99369 11409 46/// /3413 10053 21088 40227 55004 7////
 8//// 22200 0//// 2////=
BATFR10 11064 99233 11228 46/// /1024 10210 20119 40225 56017
 22283 04239=
LAHR7 11064 99269 11693 41199 62013 10240 20196 40180 54000 70222
 8662/ 22233 00200 2//// 318// 41002 5//// 6//// 80210=
C6XC2 11064 99081 11331 41496 80827 10260 20246 40110 54000 78022
 8817/ 22213 00290 20606 30909 40606 50606 6//// 80250 ICE /////=
LXLK 11064 99344 11287 41/// 43220 10050 21026 40290 50000 70211
 84//6 22253 04140 20401 3//// 4//// 5//// 80020=
WDB9948 11064 99539 11786 41498 50619 10040 20014 49700 56010
 70222 857// 22263 00050 20505 80030=
0000011000
451
SMIN90 VAAK 110600
AAXX 11064
42933 32997 32902 10236 20066 40159 80001
  333 58018 83075=
0000048500
452
SMVC01 KWBC 110600 RRA
BBXX
VRDT7 11064 99026 71020 41297 81513 10250 20236 40110 54000 75255
 8877/ 22233 00280 20204 31515 40204 50204 6//// 80240 ICE /////=
VQIB9 11063 99352 50532 41598 30909 10208 20202 40082 58016 70211
 83500 22213 00221 2//// 80204=
32012 11061 99199 50853 46/// ///// 1//// 90550 22200 11204 70019=
ONCE 11064 99032 50378 41898 41022 10260 2023/ 40080 57020 70200
 842// 22263 00280 2//// 3//// 4//// 5//// 6//// 80240 ICE /////=
00000000