0000114600
473
SNCN19 CWAO 110500
OOXX
CMP13 11021 99038 10102 ///// 01281
     26/// /0000 10249 29093 39968 90250 333 60000=
CMP13 11031 99038 10102 ///// 01281
     26/// /0000 10248 29093 39970 90300 333 60000=
CMP13 11031 99038 10102 ///// 01281
     26/// /0000 10248 29094 39969 90310 333 60000=
CMP13 11031 99038 10102 ///// 01281
     26/// /0000 10248 29094 39973 90320 333 60000=
CMP13 11031 99038 10102 ///// 01281
     26/// /0000 10248 29094 39973 90330 333 60000=
CMP13 11031 99038 10102 ///// 01281
     26/// /0000 10247 29094 39975 90340 333 60000=
CMP13 11031 99038 10102 ///// 01281
     26/// /0000 10248 29094 39976 90350 333 60000=
CMP13 11041 99038 10102 ///// 01281
     26/// /0000 10248 29093 39973 90400 333 60000=
CMP13 11041 99038 10102 ///// 01281
     26/// /0000 10248 29093 39976 90410 333 60000=
CMP13 11041 99038 10102 ///// 01281
     26/// /0000 10248 29093 39977 90420 333 60000=
CMP13 11041 99038 10102 ///// 01281
     26/// /0000 10247 29093 39977 90430 333 60000=
CMP13 11041 99038 10102 ///// 01281
     26/// /0000 10247 29093 39978 90440 333 60000=

0000011000
474
SMIN90 VANR 110600
AAXX 11064
42921 32996 21602 10208 20006 40160 80001
  333 58010 82075=
0000009300
475
SAIN90 VOGO 110600
METAR VOGO 110600Z 32006KT 6000 FEW250 28/19 Q1014 NOSIG=

0000033200
476
SAIN33 VECC 110550
METAR VECC 110550Z 06006KT 2300 HZ NSC 23/13 Q1016 NOSIG=
METAR VEPT 110550Z NIL=
METAR VGEG 110550Z 24006KT 4000 HZ NSC 23/12 Q1015 NOSIG=
METAR VGHS 110550Z 32003KT 2800 HZ NSC 19/12 Q1016 BECMG S/VIS 3000M=
METAR VNKT 110550Z 25003KT 3000 HZ FEW020 15/01 Q1020 BECMG FM 0620Z
4000 HZ=
0000022800
477
WSMA31 FIMP 111000
FIMM SIGMET 01 VALID 111000/111400 FIMP
FIMM MAURITIUS FIR EMBD TS OBS AT 0930Z ALONG LINE S1500 E05600 -
S1000 E06000 - S0700 E 06500 - S0600 E07000 - S0800 E07500 TOP
ABV FL390 STNR NC=
0000078900
478
UDAS02 BABJ 111007
AMDAR 1110
DES CNFLWM 2234N 11250E 111002 F111 PS039 280/018 TB/ S//1=
DES CNFLWM 2230N 11253E 111003 F108 PS053 284/019 TB/ S//1=
DES CNFLWM 2226N 11257E 111004 F108 PS050 290/019 TB/ S//1=
DES CNFLWM 2226N 11258E 111004 F108 PS050 288/019 TB/ S//1=
LVR CNFLWR 2818N 11435E 110956 F276 MS283 257/095 TB/ S//1=
LVR CNFLWR 2815N 11414E 110959 F276 MS278 259/097 TB/ S//1=
LVR CNFLWR 2812N 11353E 111002 F276 MS275 261/098 TB/ S//1=
LVR CNFLWR 2809N 11333E 111005 F276 MS278 262/098 TB/ S//1=
LVR CNFPQK 3739N 12026E 111004 F177 MS265 278/047 TB/ S//1=
LVR CNFPQK 3739N 12023E 111005 F177 MS268 278/046 TB/ S//1=
LVR CNFPQK 3738N 12021E 111005 F177 MS265 278/046 TB/ S//1=
LVR CNFPQK 3738N 12019E 111005 F177 MS265 278/046 TB/ S//1=
0000217100
479
SZNZ01 NZKL 111018
CREX++
T000103 A001 D01021 D06025++
-3683144 17478654 AUCT  2014 01 11 10 10 //// 11 07 00 01
03983 3194 03987 3196 03990 3198 03991 3197 03992 3197 03995 3198+
-4402404 -17636748 CHIT  2014 01 11 10 10 //// 11 07 00 01
04749 1997 04747 1992 04750 1990 04757 1994 04767 2000 04779 2008+
-4089929 17623168 CPIT  2014 01 11 10 10 //// 11 07 00 01
03613 2298 03614 2294 03629 2304 03614 2284 03637 2303 03633 2294+
-3618905 17548887 GBIT  2014 01 11 10 10 //// 11 07 00 01
05038 -0014 05034 -0020 05042 -0013 05052 -0005 05057 -0003 05056 -0006+
-3867541 17802288 GIST  2014 01 11 10 10 //// 11 07 00 01
03520 2730 03543 2749 03524 2726 03547 2745 03530 2723 03554 2743+
-4241288 17370277 KAIT  2014 01 11 10 10 //// 11 07 00 01
03203 2250 03216 2257 03220 2255 03219 2249 03224 2249 03230 2249+
-3755040 17815904 LOTT  2014 01 11 10 10 //// 11 07 00 01
02844 0213 02837 0203 02844 0208 02842 0202 02845 0203 02854 0209+
-3704657 17451175 MNKT  2014 01 11 10 10 //// 11 07 00 01
02419 -0138 02405 -0145 02409 -0135 02392 -0145 02396 -0134 02385 -0138+
-3947566 17692007 NAPT  2014 01 11 10 10 //// 11 07 00 01
02659 2067 02667 2071 02671 2070 02676 2070 02702 2091 02674 2058+
-3441483 17304870 NCPT  2014 01 11 10 10 //// 11 07 00 01
-04631 -8214 -04644 -8226 -04631 -8213 -04675 -8256 -04705 -8286 -04712 -8292+
-4581435 17062939 OTAT  2014 01 11 10 10 //// 11 07 00 01
04748 3388 04756 3389 04760 3387 04764 3385 04774 3388 04781 3389+
-2928002 -17789440 RBCT  2014 01 11 10 10 //// 11 07 00 01
05499 2010 05507 2017 05481 1989 05490 1997 05507 2012 05506 2010+
-2925114 -17790384 RFRT  2014 01 11 10 10 //// 11 07 00 01
02416 0202 02404 0190 02414 0198 02413 0195 02402 0183 02404 0183+
-4357010 17277383 SUMT  2014 01 11 10 10 //// 11 07 00 01
01865 1834 01885 1846 01895 1850 01903 1850 01896 1836 01911 1845+
-3764109 17618118 TAUT  2014 01 11 10 10 //// 11 07 00 01
04354 4001 04357 4002 04359 4003 04365 4008 04363 4004 04368 4007+
-4128448 17477985 WLGT  2014 01 11 10 10 //// 11 07 00 01
03023 2022 03021 2016 03022 2012 03035 2021 03033 2015 03041 2018++
7777
0000011000
480
UANT01 CWAO 111015
ARP VJT748 5224N05544W 1015 F410 MS62 108/72 KT
9HVJC DDL YHO 111015 M41A
0000010800
481
UANT01 CWAO 111016
ARP VIR8 5606N03454W 1016 F350 MS58 209/34 KT
GVWIN DDL XXW 111016 J59A
0000077500
482
FTSA85 EGRR 111006
TAF SVBC 111000Z 1112/1212 00000KT 9999 FEW010 SCT090 TX34/18Z
     TN21/11Z
     FM111500 34005KT 9999 SCT010
     PROB30 TEMPO 1122/1203 9000 DZ BKN010=
TAF SVMC 111000Z 1112/1212 09003KT 9999 FEW013 SCT100 TX34/17Z
     TN2/12Z
     FM111430 34008KT 9999 FEW020
     TEMPO 1122/1203 FEW010 SCT090=
TAF SVMG 111000Z 1112/1212 00000KT 9999 FEW010 TX32/19Z TN24/11Z
     FM111430 09012KT 9999 FEW010 SCT080
     BECMG 1122/1202 SCT010 BKN270=
TAF SVMI 111000Z 1112/1212 02005KT 9999 SCT016 TX29/17Z TN22/11Z
     FM11140 02006KT 9999 FEW016
     BECMG 1121/1200 9999 SCT016=
TAF SYCJ 111000Z 1112/1212 07012KT 9999 BKN018
     TEMPO 1120/1122 8000 SHRA BKN017 SCT038
     BECMG 1123/1201 05004KT 9999 SCT016=
0000175000
483
SASA85 EGRR 111000 RRD
METAR SASA 111000Z 36003KT CAVOK 20/16 Q1015=
METAR SAVC 111000Z 29002KT 260V330 CAVOK 13/08 Q1018=
METAR SAVE 111000Z 00000KT CAVOK 07/03 Q1021=
METAR SAWG 111000Z 32009KT 9999 SCT025 BKN040 09/07 Q1010=
METAR SBCT 111000Z 12003KT 9999 FEW020 FEW030TCU SCT100 20/18 Q1019=
METAR SBPB 111000Z 11004KT 9999 FEW017 SCT090 27/24 Q1011=
METAR SBPL 111000Z 09007KT 9999 FEW020 26/19 Q1015=
METAR SBSJ 111000Z 00000KT CAVOK 22/17 Q1017=
METAR SLCA 111000Z 00000KT 9999 SCT033 20/19 Q1013=
METAR SLCO 111000Z 00000KT 9999 OVC070 23/23 Q1010=
METAR SLCP 111000Z 00000KT 9999 OVC004 22/22 Q1014=
METAR SLET 111000Z 31010KT 9999 BKN005 OVC007 23/22 Q1010=
METAR SLMG 111000Z 00000KT 9999 SCT015 FEW023CB BKN080 24/23 Q1011=
METAR SLPO 111000Z 00000KT 9999 NSC 02/01 Q1038=
METAR SLPS 111000Z 00000KT 9999 NSC 23/22 Q1009=
METAR SLRB 111000Z 33006KT 9999 NSC 24/23 Q1013=
METAR SLRI 111000Z 00000KT 9999 SCT020 BKN080 24/24 Q1009=
METAR SLRQ 111000Z 00000KT 0300 FG VV/// 23/23 Q1009=
METAR SLRY 111000Z 00000KT 9999 BKN006 OVC080 24/22 Q1010=
METAR SLSA 111000Z 36003KT 9999 SCT015 SCT070 BKN200 24/24 Q1010=
METAR SLSU 111000Z 00000KT 9999 FEW015 12/12 Q1028=
METAR SLTJ 111000Z 00000KT 9999 FEW030 18/16 Q1018=
METAR SLTR 111000Z 36005KT 9999 SCT015 SCT080 24/23 Q1011=
METAR SLVM 111000Z 36008KT 9999 NSC 21/20 Q1007=
METAR SLYA 111000Z 00000KT 9999 NSC 21/20 Q1009=
METAR SUAA 111000Z 18015KT 9999 FEW026 BKN070 21/15 Q1014=
METAR SUDU 111000Z 21006KT 9999 FEW017 BKN080 20/19 Q1012=
METAR SULS 111000Z 17013KT 9999 BKN015 20/16 Q1013=
METAR SUSO 111000Z 11006KT 9999 FEW030 BKN060 OVC200 22/21 Q1011=
METAR SYCJ 111000Z 00000KT 9999 FEW015 20/20 Q1013 NOSIG=
0000010800
484
SPSA85 EGRR 111009
SPECI SARC 0945Z 20044KT 5000 TSRA BKN035 FEW050CB OVC040 T25/24 Q1010/5=
0000168500
485
SASA85 EGRR 111000 RRE
METAR SAAR 111000Z 14004KT CAVOK 17/10 Q1015=
METAR SAZM 111000Z 20008KT 9999 SCT025 15/08 Q1018=
METAR SBAR 111000Z 12010KT 9999 SCT015 28/20 Q1014=
METAR SBBR 111000Z 00000KT 9999 SCT045 SCT070 21/15 Q1019=
METAR SBCB 111000Z 05014KT 9999 FEW015 27/24 Q1014=
METAR SBCF 111000Z 18004KT CAVOK 21/17 Q1019=
METAR SBCR 111000Z 00000KT CAVOK 23/21 Q1011=
METAR SBCY 111000Z 29004KT 9999 FEW020 SCT100 24/20 Q1011=
METAR SBEG 111000Z 10005KT 9999 SCT010 BKN025 23/20 Q1010=
METAR SBFI 111000Z 12003KT CAVOK 25/22 Q1012=
METAR SBFL 111000Z 29010KT 9999 FEW040 23/21 Q1012=
METAR SBFZ 111000Z 14011KT 9999 SCT020 26/20 Q1012=
METAR SBGL 111000Z 09003KT CAVOK 28/21 Q1013=
METAR SBGO 111000Z 12003KT 9999 FEW045 SCT100 20/17 Q1017=
METAR SBIL 111000Z 27005KT 9999 VCSH SCT025 25/23 Q1015=
METAR SBKG 111000Z 16007KT 9999 SCT020 23/20 Q1015=
METAR SBKP 111000Z 10004KT CAVOK 23/19 Q1017=
METAR SBNT 111000Z 14006KT 9999 BKN023 25/20 Q1012=
METAR SBPV 111000Z 02004KT 5000 -RA SCT006 BKN015 BKN070 23/22 Q1010=
METAR SBRB 111000Z 00000KT 9999 FEW020 SCT100 ///// Q1011=
METAR SKBQ 111000Z 03005KT CAVOK 24/22 A2984=
METAR SKCG 111000Z 00000KT CAVOK 23/22 A2982=
METAR SKCL 111000Z 00000KT 9999 -DZ SCT017 BKN090 20/19 A2995=
METAR SKLT 111000Z 00000KT 9999 BKN009 BKN080 24/24 A2985 RMK AD OPR
      IMC=
METAR SKPE 111000Z VRB02KT 9999 FEW016 SCT070 19/17 A3006=
METAR SKRG 111000Z 00000KT 4000 BCFG BKN008 14/13 A3023 RMK BCFG/S/N=
METAR SLJO 111000Z 00000KT 9999 FEW015 BKN080 24/24 Q1009=
METAR SLOR 111000Z 05005KT 9999 FEW015 05/03 Q1034=
METAR SLSI 111000Z 00000KT 9999 SCT020 22/22 Q1012=
0000157500
486
SASA85 EGRR 111000 RRF
METAR SANT 111000Z 18006KT 4000 -TS /RA BKN010 OVC030 FEW045CB 23/21
      Q1013=
METAR SAOC 111000Z 00000KT CAVOK 14/10 Q1018=
METAR SARC 111000Z 18038G48 008 +TSRA BKN008 OVC040 FEW045CB 25/22
      Q1011=
METAR SARE 111000Z 20019G30KT 0600 +TSRA BKN005 OVC040 FEW056CB 20/20
      Q1013=
METAR SARF 111000Z 02003KT 9999 SCT020 26/23 Q1009=
METAR SASJ 111000Z 05002KT 9999 FEW030 SCT100 23/20 Q1012=
METAR SAZN 111000Z 11004KT CAVOK 15/M00 Q1019=
METAR SBAF 111000Z 01002KT CAVOK 29/22 Q1013=
METAR SBAT 111000Z 00000KT 9999 -RA FEW004 BKN090 22/22 Q1013=
METAR SBBH 111000Z 10008KT CAVOK 23/18 Q1019=
METAR SBBI 111000Z 21001KT 9999 FEW030TCU 21/19 Q1019=
METAR SBBU 111000Z 01003KT CAVOK 26/22 Q1016=
METAR SBGW 111000Z 05002KT CAVOK 22/18 Q1017=
METAR SBHT 111000Z 00000KT 9999 SCT010 BKN090 22/22 Q1012=
METAR SBIH 111000Z 00000KT 9999 FEW008 SCT080 BKN100 24/23 Q1012=
METAR SBIZ 111000Z 00000KT 9999 FEW007 BKN090 23/23 Q1012=
METAR SBJF 111000Z 01008KT 9999 SCT010 21/19 Q1020=
METAR SBJR 111000Z 35003KT CAVOK 29/25 Q1013=
METAR SBME 111000Z 02005KT CAVOK 29/23 Q1015=
METAR SBMK 111000Z 07004KT 9999 BKN025 22/17 Q1018=
METAR SBPC 111000Z 08004KT CAVOK 22/21 Q1022=
METAR SBSC 111000Z 01010KT CAVOK 28/20 Q1013=
METAR SBSM 111000Z 00000KT 9999 FEW025 SCT070 22/21 Q1011=
METAR SBST 111000Z 00000KT CAVOK 26/23 Q1012=
METAR SBTU 111000Z 03005KT CAVOK 22/22 Q1014=
METAR SBUL 111000Z 06008KT CAVOK 21/16 Q1019=
METAR SBUR 111000Z 10006KT 9999 FEW030 SCT100 23/16 Q1018=
0000036700
487
SASA85 EGRR 111000 RRG
METAR SBAN 111000Z 34002KT 9999 FEW030 17/16 Q1020=
METAR SBBQ 111000Z 03009KT CAVOK 21/17 Q1022=
METAR SBCC 111000Z 07005KT 8000 -RA BKN020 20/19 Q1014=
METAR SBCO 111000Z 15002KT 1300 R30/1300 R12/1700 BR SCT008 23/// Q1012=
METAR SBMT 111000Z 13003KT CAVOK 24/18 Q1017=
METAR SBYS 111000Z 35003KT CAVOK 22/19 Q1017=
0000046700
488
SZPA01 AMMC 111018
CREX++
T000103 A001 D01021 D06025++
0136250 17293000 67590 2014 01 11 10 11 3017 11 07 00 01
01439 0065 01424 0047 01443 0064 01434 0053 01449 0064 01439 0052+
0710610 17137250 67680 2014 01 11 10 11 3013 11 07 00 01
00961 0089 00964 0089 00967 0090 00967 0088 00971 0089 00967 0083+
0698060 15820000 67950 2014 01 11 10 11 3023 11 07 00 01
00584 0035 00583 0033 00583 0033 00581 0030 00583 0032 00586 0034++
7777

0000034600
489
SZIO01 AMMC 111018
CREX++
T000103 A001 D01021 D06025++
-1211670 09689190 46280 2014 01 11 10 11 3022 11 07 00 01
01077 0035 01066 0026 01066 0029 01069 0034 01072 0039 01064 0034+
-1042940 10566940 46290 2014 01 11 10 11 //// 11 07 00 01
01323 -0045 01351 -0016 01293 -0073 01355 -0009 01279 -0084 01379 0018++
7777

0000179400
490
SZPS01 AMMC 111018
CREX++
T000103 A001 D01021 D06025++
-0204190 14737360 56130 2014 01 11 10 11 3028 11 07 00 01
00585 0096 00586 0099 00590 0105 00587 0104 00590 0109 00594 0115+
-0669280 15640860 56363 2014 01 11 10 11 //// 11 07 00 01
00379 -0051 00379 -0051 00380 -0050 00384 -0046 00378 -0052 00379 -0052+
-0942890 15995560 56670 2014 01 11 10 11 3043 11 07 00 01
00511 -0041 00510 -0040 00506 -0043 00506 -0042 00504 -0043 00503 -0043+
-1072080 16580190 57131 2014 01 11 10 11 //// 11 07 00 01
00203 -0070 01080 0807 00815 0540 00428 0153 00890 0614 00895 0618+
-1551560 16718860 57210 2014 01 11 10 11 //// 11 07 00 01
00323 -0099 00322 -0100 00325 -0098 00316 -0108 00318 -0107 00328 -0099+
-1775690 16830030 57320 2014 01 11 10 11 3017 11 07 00 01
00328 -0125 00326 -0127 00327 -0125 00329 -0123 00331 -0121 00336 -0116+
-4397330 16861610 65180 2014 01 11 10 11 2887 11 07 00 01
02100 0395 02078 0379 02066 0371 02053 0362 02070 0385 02058 0377+
-2120470 -15978530 65980 2014 01 11 10 11 3010 11 07 00 01
00398 -0027 00416 -0009 00414 -0012 00413 -0013 00410 -0017 00418 -0009+
-2113810 -17518140 66600 2014 01 11 10 11 //// 11 07 00 01
00647 0091 00648 0090 00643 0084 00652 0092 00650 0089 00657 0094+
-1382670 -17176110 66840 2014 01 11 10 11 3013 11 07 00 01
00545 0051 00534 0038 00543 0045 00548 0049 00546 0044 00539 0036+
-1813250 17842750 67050 2014 01 11 10 11 3030 11 07 00 01
00730 0111 00729 0108 00733 0112 00732 0110 00732 0108 00733 0108+
-1760530 17743810 67070 2014 01 11 10 11 3032 11 07 00 01
00703 0044 00704 0043 00707 0045 00707 0044 00710 0045 ///// ////+
-0850250 17919500 67440 2014 01 11 10 11 3028 11 07 00 01
01656 0008 01664 0013 01672 0019 01668 0012 01672 0013 01674 0013++
7777

0000191100
491
SZAU01 AMMC 111018
CREX++
T000103 A001 D01021 D06025++
-1927750 14705860 59260 2014 01 11 10 11 3025 11 07 00 01
02357 0201 02352 0200 02351 0204 02343 0200 02340 0201 02336 0203+
-2316110 15079000 59670 2014 01 11 10 11 3003 11 07 00 01
03245 0239 03232 0234 03219 0227 03208 0223 03191 0212 03183 0210+
-3447330 15091170 60420 2014 01 11 10 11 2952 11 07 00 01
00778 -0012 00776 -0011 00774 -0010 00768 -0014 00765 -0014 00756 -0020+
-4105000 14591500 60910 2014 01 11 10 11 2888 11 07 00 01
02998 -0012 03009 0000 03002 -0006 03006 0000 03002 -0002 03000 -0002+
-4254640 14793080 61170 2014 01 11 10 11 2895 11 07 00 01
01205 0124 01205 0126 01207 0129 01208 0131 01210 0135 01224 0150+
-3834390 14161360 61410 2014 01 11 10 11 2908 11 07 00 01
00659 0010 00674 0025 00665 0015 00691 0040 00664 0012 00706 0054+
-3214890 13364170 62000 2014 01 11 10 11 2960 11 07 00 01
01191 0111 01190 0111 01186 0107 01183 0105 01180 0103 01180 0104+
-3387080 12189720 62080 2014 01 11 10 11 2950 11 07 00 01
00997 0083 00979 0064 00993 0077 00998 0080 01000 0081 00993 0073+
-3182560 11573860 62237 2014 01 11 10 11 2973 11 07 00 01
01052 0098 01040 0086 01033 0078 01027 0072 01027 0072 01020 0065+
-2422000 11339750 62385 2014 01 11 10 11 //// 11 07 00 01
01428 -0080 01392 -0116 01415 -0092 01416 -0091 01450 -0056 01387 -0119+
-2181670 11419110 62430 2014 01 11 10 11 //// 11 07 00 01
02171 -0085 02181 -0075 02183 -0074 02176 -0082 02206 -0052 02177 -0081+
-1800080 12221830 62650 2014 01 11 10 11 3043 11 07 00 01
06965 0076 06967 0076 06967 0074 06963 0069 06961 0065 06958 0061+
-1247190 13084580 63230 2014 01 11 10 11 3050 11 07 00 01
04347 0141 04343 0141 04337 0139 04334 0138 04331 0139 04327 0138+
-1386000 13641580 63511 2014 01 11 10 11 3043 11 07 00 01
01883 0163 01883 0163 01883 0162 01882 0161 01883 0161 01887 0165++
7777

0000011000
492
UANT99 KDDL 111016
ARP DAL10 4948N02226W 1016 F350 MS59 201/79 KT
N174DN QXT AOE 111016 F73A
00000000