0000014400
813
SICS01 MROC 110303
AAXX 11034
78762 32570 11012 10203 20133 39132 40117 52017 81500
333   30/// 56300 59008 81630=



0000010000
814
SICI01 KWBC 110300 RRK
AAXX 11031
58506 41/02 90401 10005 20005 40311 52009 72377=
0000069400
815
SMVD19 KWNB 110600 RRA
BBXX
46126 11061 99540 71666 46/// /3001 10038 49826 90536 22200 00045
1//00 70001 333 91202 555 11010 22011=
46126 11061 99540 71666 46/// /3001 10038 49826 90540 22200 00045
1//00 70001 333 91202 555 11010 22011=
46126 11061 99540 71666 46/// /3401 10038 49826 90542 22200 00045
1//00 70001 333 91201 555 11013 22014=
46126 11061 99540 71666 46/// /3401 10036 49826 90545 22200 00045
1//00 70001 333 91201 555 11013 22014=
46078 11061 99560 71526 46/// /2308 10021 20019 49960 56011 90550
22200 00045 11105 20602 323// 41104 70023 333 91210 555 11085
22089 30535 42412 60549 232082 242087 249073 238080 224075 223075
82410 90536=
0000066100
816
UDAF01 FAPR 110602
AMDAR 1106
LVR AFZA09 1825S 02648E 110513 F390 MS523 147/000 TB0 S031 333 F/// VG000=
LVR AFZA09 1919S 02703E 110520 F390 MS522 006/012 TB0 S031 333 F/// VG000=
LVR AFZA09 2015S 02717E 110527 F390 MS525 336/008 TB0 S031 333 F/// VG000=
LVR AFZA09 2111S 02724E 110534 F390 MS527 313/013 TB0 S031 333 F/// VG000=
LVR AFZA09 2207S 02732E 110541 F390 MS522 295/016 TB0 S031 333 F/// VG000=
UNS AFZA09 2304S 02739E 110548 F390 MS526 302/022 TB0 S031 333 F/// VG000=
LVR AFZA09 2400S 02736E 110555 F390 MS530 303/021 TB0 S031 333 F/// VG000=
LVR AFZA09 2456S 02746E 110602 F271 MS223 307/010 TB0 S031 333 F/// VG000=
0000066100
817
UDAF01 FAPR 110602
AMDAR 1106
LVR AFZA64 4437N 00449E 110513 F400 MS595 253/044 TB0 S031 333 F/// VG000=
LVR AFZA64 4530N 00435E 110520 F400 MS591 240/048 TB0 S031 333 F/// VG000=
LVR AFZA64 4623N 00414E 110527 F400 MS592 244/040 TB0 S031 333 F/// VG000=
LVR AFZA64 4713N 00349E 110534 F400 MS577 258/035 TB0 S031 333 F/// VG000=
LVR AFZA64 4804N 00324E 110541 F400 MS580 247/034 TB0 S031 333 F/// VG000=
LVR AFZA64 4853N 00251E 110548 F400 MS570 251/032 TB0 S031 333 F/// VG000=
LVR AFZA64 4942N 00214E 110555 F400 MS576 231/034 TB0 S031 333 F/// VG000=
/// AFZA64 5016N 00126E 110601 F328 MS553 240/067 TB0 S031 333 F/// VG000=
0000069500
818
SMSQ40 LZIB 110600
AAXX 11061
11841 12775 72902 10011 21010 39829 40215 53003 60002 87500
  333 20005 31101 70002 87650=
11858 12675 81602 10024 21000 30067 40222 53003 60002 885//
  333 21002 31106 70000 88640=
11916 11/02 93207 11092 21096 37944 48456 52013 69902 74944
  333 21095 3//// 44037 70010 89/00 91012 91124 93540=
11927 12765 39901 11011 21015 39944 40215 54000 60002 81501
  333 21011 34104 70000 81650 83070=
11930 11589 33209 11080 21325 37306 47975 53006 69932 70271 81041
  333 21133 3//// 44060 70051 81330 83060 91020 91124
  444 36234=
11993 11256 89901 10001 21000 39994 40218 52011 60002 71022 886//
  333 21017 31105 70007 88704=
0000009500
819
SAIN90 VOMM 110600
METAR VOTK 110600Z 01008KT 6000  FEW020 SCT025  27/21 Q1015=
0000011600
820
SMIN90 VOMM 110600
AAXX 11064
43181 31596 41103 10292 20190 30135 40162 70511 84800
  333 58008=
0000024000
821
SMIN90 VOMM 110600
AAXX 11064
43363 32597 23611 10264 20222 30138 40151 82800
  333 58010=
43348 32597 33402 10290 20222 30146 40153 83400
  333 58010=
43245 32597 30000 10286 20190 30134 40161 82401
  333 58006=
0000042900
822
SMIN90 VOTV 110600
AAXX 11064
43371 32597 30000 10304 20225 30060 40132 83500
  333 58007 83620=
43369 32497 50906 10304 20247 40121 84402
  333 58002 83615=
43311 32597 60505 10320 20249 40135 85401
  333 58013 85620 83075=
43314 32997 23202 10314 20230 40140 80001
  333 58005=
43352 32597 43203 10306 20234 40130 81501
  333 58006=
43315 32997 22302 10318 20218 40136 80001
  333 58002=
0000084100
823
SMSQ50 LZIB 110600
AAXX 11061
11855 11658 41101 11014 21018 30047 40219 54000 60002 71000 84500
  333 21036 34106 70000 84643=
11867 12768 60201 10000 21006 39894 40221 51005 60002 86540
  333 21010 34105 79999 86656=
11880 12662 69901 11023 21023 30044 40223 52002 60002 86500
  333 21033 34106 79999 86643=
11918 12682 72304 10016 21047 39364 42793 53002 60002 8557/
  333 20009 31000 70002 85646=
11933 12480 29902 11048 21072 38647 48460 52001 60002 82540
  333 21055 3/107 42009 70005 81616=
11938 12680 30000 11039 21057 39118 42791 52003 60002 82501
  333 21045 3/106 41998 70000 82636 93501=
11976 11217 89901 10003 21004 39939 40211 52010 60002 71022 886//
  333 21004 32103 70018 88706=
11978 11230 80000 10010 20007 30079 40213 52012 60002 71022 886//
  333 20010 32001 70009 88704=
0000252900
824
SMSQ51 LZIB 110600
AAXX 11061
11812 36/// /3004 10027 21020 39507 42806 57001
  333 20016 3////=
11813 16/// /9901 10044 21012 39857 40211 57001 60002
  333 20030 3/104 70000=
11816 12680 70000 10004 21003 30047 40216 55001 60002 86501
  333 21013 34104 79999 86644 83073=
11819 16/// /0301 11013 21018 39996 40221 52002 60002
  333 21019 3/107 70000=
11826 12965 30000 11036 21053 30015 40224 53002 60002 82041
  333 21037 34106 70000 82359 83070=
11841 12775 72902 10011 21010 39829 40215 53003 60002 87500
  333 20005 31101 70002 87650=
11855 11658 41101 11014 21018 30047 40219 54000 60002 71000 84500
  333 21036 34106 70000 84643=
11856 36/// /0401 10008 21006 39893 40221 54000
  333 21004 3/106=
11858 12675 81602 10024 21000 30067 40222 53003 60002 885//
  333 21002 31106 70000 88640=
11867 12768 60201 10000 21006 39894 40221 51005 60002 86540
  333 21010 34105 79999 86656=
11880 12662 69901 11023 21023 30044 40223 52002 60002 86500
  333 21033 34106 79999 86643=
11900 16/// /0000 11016 21023 39875 40223 52004 60002
  333 21020 3//// 79999=
11903 12770 31802 11018 21028 39827 40222 53004 60002 82530
  333 21018 34105 70000 82656=
11916 11/02 93207 11092 21096 37944 48456 52013 69902 74944
  333 21095 3//// 44037 70010 89/00 91012 91124 93540=
11918 12682 72304 10016 21047 39364 42793 53002 60002 8557/
  333 20009 31000 70002 85646=
11927 12765 39901 11011 21015 39944 40215 54000 60002 81501
  333 21011 34104 70000 81650 83070=
11930 11589 33209 11080 21325 37306 47975 53006 69932 70271 81041
  333 21133 3//// 44060 70051 81330 83060 91020 91124
  444 36234=
11933 12480 29902 11048 21072 38647 48460 52001 60002 82540
  333 21055 3/107 42009 70005 81616=
11934 12684 59901 11034 21067 39364 42793 51004 60002 81501
  333 21038 34106 79999 81640 85070=
11938 12680 30000 11039 21057 39118 42791 52003 60002 82501
  333 21045 3/106 41998 70000 82636 93501=
11952 16/// /9901 11025 21065 39353 42792 52005 60002
  333 21024 3/105 70000=
11958 36/// /2404 11050 21051 3//// 4////
  333 21052 3////=
11968 11006 22901 11036 21036 39925 40219 52007 60002 74244 82600
  333 21038 34107 79999 82701=
11976 11217 89901 10003 21004 39939 40211 52010 60002 71022 886//
  333 21004 32103 70018 88706=
11978 11230 80000 10010 20007 30079 40213 52012 60002 71022 886//
  333 20010 32001 70009 88704=
11993 11256 89901 10001 21000 39994 40218 52011 60002 71022 886//
  333 21017 31105 70007 88704=
0000013800
825
SMJM01 MKJS 110600
AAXX 11064
78388 11570 11508 10251 20183 30150 40159 60001 70500 81100
333 10310 20237 59010 81824=
0000499000
826
SMMX01 MXBA 110600
AAXX 11061
76040 32920 03601 10110 20072 30185 40199 52018 90550 333   
10248 20042 30/// 55092 58034 98620=
76220 31920 00000 10000 2//// 38170 40179 52016 70002 90545 
333   10184 21018 30/// 55087 58032 96122 96126=
76225 32920 02701 10098 21013 38621 40108 52012 90540 333   
10215 20098 30/// 55062 58029=
76243 32970 02202 10138 20121 39843 40133 52010 90540 333   
10230 20096 30/// 55011 59020=
76305 32970 03302 10172 20059 30164 40173 51003 90545 333   
10230 20140 30/// 55069 58///=
76323 32950 23601 10038 21012 38304 40216 52018 80002 90540 
333   10194 20040 30/// 55042 56005 58032 83268=
76342 31840 71801 10180 20042 39444 40131 52002 70222 87070 
90550 333   10275 20090 30/// 55066 2//// 56050 59005 87458 
=
76382 32960 41401 10134 20102 38915 40146 52014 80001 90545 
333   10244 20098 30/// 55046 2//// 56005 58044 84076=
76390 31950 02002 10069 21020 38240 40150 52012 70544 90548 
333   10210 20050 30/// 55097 2//// 58030=
76393 31910 02201 10164 20128 39569 40135 52009 70544 90549 
333   10278 20145 30/// 55078 58000 91102 91401=
76423 32760 80000 10102 21009 38167 40134 52010 83059 90550 
333   10220 21012 30/// 55087 21450 56099 58017 83358 85170 
=
76458 32960 03302 10192 20148 30146 40150 52008 90545 333   
10271 20152 30/// 55092 58005=
76539 32958 03601 10134 20115 38160 40130 52010 90550 333   
10232 20030 30/// 55079 58400=
76548 32460 32960 80601 10194 20188 30140 40140 51011 885// 
90545 333   10282 20168 30/// 55053 56050 59044 88358=
76556 32960 01602 10143 20098 39122 40127 54000 90547 333   
10266 20100 30/// 55098 58004=
76577 32560 40000 10144 20129 38055 40159 52014 84500 90540 
333   10220 20062 30/// 55057 56500 58004 84622=
76581 32960 02601 10127 20112 39058 40147 52016 90550 333   
10280 20180 30/// 55072 58///=
76593 32950 01403 10220 20214 30152 40154 52004 90550 333   
10302 20206 30/// 55053 21046 59023=
76612 32860 32701 10112 20063 38485 40143 52011 83030 90550 
333   10248 20050 30/// 55085 21096 56050 58000 83358=
76625 31570 71802 10151 20069 38151 40107 52005 69901 76025 
85820 90552 333   10228 20078 31/// 55050 56660 58006 83825 
82626 82355=
SMMX01 MXBA 110600 
AAXX 11061
76634 31570 61402 10132 20083 37860 40141 52006 70542 86400 
90550 333   10239 20080 30/// 55055 21216 565// 58001 86634 
=
76658 11558 32701 10220 20199 39656 40154 52013 69931 70540 
82550 90550 333   10312 20150 30/// 55095 58009 82622 81356 
98914=
76662 32660 30601 10152 20091 38473 40126 52008 83400 90545 
333   10260 20058 30/// 55087 21103 56/00 58001 83633=
76683 32965 00000 10102 20064 37836 40139 51010 90545 333   
10216 20055 30/// 50291 55088 21672 59005=
76685 32950 00000 10124 20049 37867 40091 52001 90545 333   
10230 20064 30/// 55105 59025=
76687 32960 02001 10130 20122 38675 40143 52008 90548 333   
10242 20090 30/// 55089 59022=
76692 31520 62001 10219 20204 30127 40146 52012 71042 865// 
90545 333   10279 20179 30/// 55088 563// 59042 86628=
76695 32956 00000 10208 20202 30134 40140 58002 90550 333   
10322 20208 30/// 55074 59030=
76726 32968 03301 10186 20093 38396 40082 52008 90545 333   
10272 20152 30/// 55083 58006=
76737 32980 00000 10140 20124 38766 40130 54004 90545 333   
10242 20140 30/// 55091 59028 91101 91536=
76741 31250 62602 10215 20204 30108 40126 5//// 70542 84230 
90545 333   10277 20188 30/// 55022 56500 59037 84806=
76743 31940 03500 10210 20195 30126 40134 55001 70000 90545 
333   10250 20205 30/// 55/// 59037=
76750 32558 20502 10232 20221 30138 40148 57005 82100 90545 
333   10310 20166 30/// 55063 56300 59016 82820=
76762 32504 21101 10166 20148 38773 40130 52015 81260 90550 
333   10278 20126 30/// 55095 20995 56630 58005 81814 81360 
=
76775 32960 00801 10154 20110 38525 40146 52012 90545 333   
10306 20088 30/// 55091 59009=
76845 32930 00000 10104 20101 37953 40170 51004 90548 333   
10225 20070 30/// 55062 59007=
76848 32450 20000 10125 20099 38383 40083 54000 82500 90545 
333   10243 20117 30/// 55102 56100 59013 82611=
76855 32980 03602 10236 20198 30083 40131 53019 90540 333   
10330 20206 30/// 55105 58/// 92001=
76160 32958 01101 10154 20001 39933 40182 52018 90540 333   
10265 20070 30/// 58032=
76412 32960 01801 10130 20109 30128 40174 52001 90548 333   
10270 20100 30/// 55047 58010=
76525 32960 02302 10085 21029 37479 40141 52005 90540 333   
10138 20065 30/// 55096 22593 58013=
76640 31110 70000 10198 20192 30139 40151 52011 70222 8422/ 
90540 333   10254 20170 30/// 55043 5655/ 59040 84802 83440 
=
76647 32865 61101 10226 20223 30132 40163 58002 8603/ 90550 
333   10307 20209 30/// 55081 5604/ 59023 86358=
76833 32958 03602 10232 2//// 30125 40127 52006 90545 333   
10338 20228 30/// 55097 58/// 92021=
76843 32965 02901 10209 20182 39483 40114 52006 90545 333   
10309 20155 30/// 55108 59026=
0000024600
827
SAKU31 NCRG 110600
METAR NCRG 110600Z
03008KT 9999 SCT016 BKN045 27/24 Q1010=
METAR NCAI 110600Z AUTO
///// //// //// 26/23 Q1011=
METAR NCMH 110600Z AUTO
03005KT //// ////// 28/25 Q1007=
METAR NCPY 110600Z AUTO
NIL=
0000023800
828
SMZM01 NSAP 110600
AAXX 11064
91762 11598 73410 10282 20254 40065 53014 69921 71522 82273 333 56999
 82820
83462 87379=
91759 11498  80412 10282 20258 40064 53013 60061 75052 8787/ 333 5619
/ 83818
84636 88461=
0000042900
829
UDAS02 EGRR 110606
AMDAR 1105
LVR EU0048   1355N 09222E 110528 F410 MS597 245/014 TB/ S031=
LVR EU0048   1316N 09302E 110535 F410 MS597 286/015 TB/ S031=
LVR EU0048   1236N 09341E 110542 F410 MS590 287/010 TB/ S031=
LVR EU0048   1157N 09419E 110549 F410 MS590 135/010 TB/ S031=
LVR EU0048   1122N 09500E 110556 F410 MS590 182/001 TB/ S031=
LVR EU0048   1046N 09541E 110603 F410 MS587 133/001 TB/ S031=
0000030900
830
SMSO01 AMMC 110600
AAXX 11064
91503 01470 70000 10270 20256 40053 56012 60031 78082 8487/
  333 56999 60037 82817 87360=
91517 31475 73405 10311 20252 40042 57009 71522 84976
  333 56999 83818 81919 85360=
91520 31575 42906 10314 20244 40041 56010 71511 84808
  333 56600 83820=

0000028700
831
SXHW11 KWAL 110605
B15017A0 011060503"
1,140111,05:00:00,8.2,93,11.1,11.4,1014.5,6.03,13.0,
1,140111,05:15:00,8.1,95,11.1,11.4,1014.5,6.03,13.0,
1,140111,05:30:00,8.5,93,11.5,11.4,1014.7,6.03,13.0,
1,140111,05:45:00,8.1,88,10.5,11.4,1014.8,6.03,13.0, 42+0NN 210W
0000033600
832
SMFG01 SOCA 110600
AAXX 11064
81401 06/// /1406 10224 20217 30113 40119 60081
  333 55/// 60087 58009 7////
  555 60065=
81408 06/// /2901 10227 20225 30100 40108 60031
  333 55/// 60027 59003 7////
  555 60005=
81415 06/// ///// 10226 20221 39997 40119 60071
  333 55/// 60037 58000 7////
  555 60025=
00000000