0000038300
693
UPTH01 VTBB 110600
PPAA 6106/ 48327 NIL=
PPAA  61061 48354 55385 05508 25506 23024 77999=
PPAA 6106/ 48378 NIL=
PPAA 6106/ 48407 NIL=
PPAA 6106/ 48431 NIL=
PPAA 6106/ 48453 NIL=
PPAA 6106/ 48477 NIL=
PPAA 6106/ 48480 NIL=
PPAA  61061 48500 55185 05522 77999=
PPAA 6106/ 48551 NIL=
PPAA  61061 48565 55285 09034 12505 77999=
PPAA 6106/ 48568 NIL=
0000013000
694
SMRA16 RUHB 110000 RRA
AAXX 11001
30074 11997 00000 11498 21516 30217 40476 51/// 60002 71000 333 21504
47018=
0000011000
695
UANT99 KDDL 110610
ARP AFR083 5603N04158W 0610 F360 MS58 279/26 KT
FGSPO DDL UAK 110610 F17A
0000011000
696
UANT99 KDDL 110610
ARP UAL48 5717N03249W 0610 F330 MS59 213/52 KT
N77014 DDL XXW 110611 F45A
0000011000
697
UANT99 KDDL 110611
ARP DLH413 5212N02832W 0611 F390 MS53 217/57 KT
DAIHN QXT EUA 110611 J87A
0000011000
698
UANT99 KDDL 110611
ARP UAL50 5300N01627W 0611 F340 MS60 241/48 KT
N68061 DDL XXN 110611 F74A
0000012100
699
SMTH02 VTBB 110600 RRC
AAXX 11064
48377 31957 00000 10300 20185 39985 40148 57030 70500 
  333 58006=
0000011800
700
SMIL41 BIRK 110600
AAXX 11064
04053 41457 81708 10015 21002 49951 52030 76822 886// 555 3//12 88716=
0000011200
701
SMVF51 EGRR 110600
BBXX
64046 11064 99605 70042 46/// /3123 10069 20026 49997 333 90710 91132=
0000011600
702
SMVF51 EGRR 110600
BBXX
62303 11064 99516 70051 46/// /2919 10090 20033 40167 22200 10604
70019=
0000011600
703
SMVF51 EGRR 110600
BBXX
62050 11064 99500 70044 46/// /3215 10093 20053 40175 22200 10502
70012=
0000014400
704
SMVF51 EGRR 110600
BBXX
62305 11064 99504 70000 46/// /2318 10096 20075 40151 55001 22200
00109 10601 70006 333 90710 91127=
0000012800
705
SMVF51 EGRR 110600
BBXX
62095 11064 99529 70156 46/// /2304 10078 20014 40133 50004 22200
00099 10907 70036=
0000014400
706
SMVF51 EGRR 110600
BBXX
62170 11064 99514 10020 46/97 /2321 10081 20068 40137 58007 22200
00104 10502 70010 333 90710 91125=
0000031800
707
SAUK39 EGRR 110550 RRC
METAR EGQK 110550Z AUTO 24012KT 9999 NCD 02/M00 Q1006=
METAR EGWU 110550Z AUTO 29012KT 9999 // FEW022/// BKN048/// 08/06 Q1013=
METAR EGXP 110550Z AUTO 30006KT 9999 // BKN050/// SCT100/// 04/03 Q1011=
METAR EGXS 110550Z AUTO 32012KT 9999 // FEW012/// BKN038/// 06/05 Q1010=
0000168700
708
SASA85 EGRR 110600 RRC
METAR SADF 110600Z 16015G25KT CAVOK 20/12 Q1011=
METAR SAEZ 110600Z 16019G30KT CAVOK 18/09 Q1012=
METAR SBCT 110600Z 26006KT 9999 TS FEW010 FEW030CB SCT050 19/18 Q1017=
METAR SBFL 110600Z 09007KT 9999 -TSRA BKN030 FEW040CB 22/21 Q1012=
METAR SBGO 110600Z 35004KT 9999 FEW045 SCT100 19/18 Q1016=
METAR SBGR 110600Z 11002KT CAVOK 20/18 Q1016=
METAR SBJP 110600Z 20004KT CAVOK 22/20 Q1012=
METAR SBLO 110600Z 20001KT CAVOK 24/20 Q1014=
METAR SBMO 110600Z 33003KT 9999 FEW020 21/21 Q1013=
METAR SBMQ 110600Z 33002KT 9999 FEW013 BKN080 24/23 Q1010=
METAR SBPL 110600Z 12006KT 9999 SCT020 25/20 Q1013=
METAR SBSN 110600Z 00000KT 9999 FEW017 BKN100 25/21 Q1010=
METAR SBTE 110600Z 31002KT 9999 SCT030 BKN070 24/23 Q1010=
METAR SCBA 110600Z AUTO 32013KT CAVOK 07/03 Q1020=
METAR SCCI 110600Z 30015KT 9999 SCT030 OVC080 09/05 Q1008 NOSIG=
METAR SCDA 110600Z 00000KT CAVOK 21/17 Q1011=
METAR SCEL 110600Z 00000KT CAVOK 17/06 Q1012 NOSIG=
METAR SCIE 110600Z 23006KT CAVOK 12/09 Q1014=
METAR SCSE 110600Z 26004KT CAVOK 15/14 Q1010=
METAR SCTE 110600Z 18004KT CAVOK 08/06 Q1023 NOSIG=
METAR SEGU 110600Z 24006KT 9999 FEW010 BKN026 BKN100 25/20 Q1010 RMK
      A2984 NOSIG=
METAR SELT 110600Z 15003KT 4000 2000N BCFG FEW005 BKN020 11/11 Q1028=
METAR SLCB 110600Z 00000KT 9999 FEW027 15/08 Q1023=
METAR SLLP 110600Z 12004KT 4000E VCFG FEW003 SCT200 06/04 Q1035=
METAR SLVR 110600Z 35006KT 9999 FEW005 SCT070 23/22 Q1010=
METAR SOCA 110600Z AUTO 25003KT 9999 -RA FEW007 SCT031 OVC098 22/21
      Q1011=
METAR SULS 110600Z 00000KT CAVOK 20/19 Q1009=
METAR SVMI 110600Z 00000KT 9999 FEW016 23/18 Q1014 NOSIG=
0000022000
709
SAIN31 VOMM 110610
METAR VOHS 110610Z 14006KT 4000 HZ FEW020 27/14 Q1018 BECMG 5000=
METAR VOMM 110610Z 03005KT 6000 SCT020 28/19 Q1015 NOSIG=
METAR VOTR 110610Z 04005KT 6000 SCT016 28/19 Q1015 NOSIG=
0000010400
710
SMIN90 VIAG 110600
AAXX 11064
42260 32995 03205 10156 20118 40195 71040
  333 58015=
0000025500
711
FTSA85 EGRR 110606
TAF SAME 110500Z 1106/1206 14005KT 9999 FEW040TCU TN18/1110Z
     TX32/1120Z=
TAF SAVC 110500Z 1106/1206 05015KT 9999 SCT020 TX28/1118Z TN12/1112Z
     BECMG 1106/1109 29010KT FEW090
     BECMG 1115/1118 03015KT=
0000039600
712
SASA85 EGRR 110600 RRD
METAR SABE 110600Z 16021G36KT 140V210 CAVOK 21/12 Q1011=
METAR SARP 110600Z 09004KT CAVOK 25/21 Q1010=
METAR SASA 110600Z 14005KT 9999 FEW025 BKN200 22/17 Q1012=
METAR SAVC 110600Z 23006KT CAVOK 15/04 Q1015=
METAR SAWG 110600Z 29007KT CAVOK 09/06 Q1011=
METAR SAZS 110600Z 00000KT CAVOK 10/05 Q1021=
METAR SBRP 110600Z 20003KT CAVOK 20/19 Q1014=
00000000