0000011100
613
UANT99 KDDL 110623
ARP UAL903 5748N01825W 0623 F350 MS55 240/57 KT
N116UA DDL XXW 110623 F50A
0000157500
614
SMIQ01 KWBC 110600
AAXX 11061
40608 11558 70000 10060 20031 40223 52018 60002 71022 86830 333
20038 82828 84630=
40623 11558 80302 10052 20005 40230 53006 60032 70562 8652/ 333
20020 86622 88460=
40650 11525 71605 10096 20079 40172 52018 60022 71062 87800 333
20082 84830 85633=
40621 11557 80301 10090 20055 40214 52014 60032 76160 888XX 333
20076 84820 84625=
40622 12560 80402 10059 20022 40187 52010 60032 8682/ 333 20037
81820 86624 88460=
40629 12560 83303 10078 20065 40216 52026 60052 72162 8452X 333
20066 84630 88460=
40631 11560 80303 10085 20070 40207 53005 60132 76160 885XX 333
20070 88630=
40637 12560 70802 10105 20100 40182 57022 60112 87800 333 20080
83825 87630=
40642 11556 83605 10040 20014 40223 52020 60012 76052 8452X 333
20020 84625 88460=
40656 12560 80206 10091 20074 40164 52020 60002 885XX 333 20073
88630=
40658 11560 60000 10042 20009 40200 51009 60042 72162 86200 333
20013 86825=
40665 11658 70000 10108 20102 40193 52020 52020 69982 71022 82520
333 20096 82635 85460=
40670 11556 72606 10088 20064 40190 52022 60002 71022 87800 333
20077 82825 85628=
40672 12660 61804 10090 20086 40195 52017 60002 86800 333 20084
82830 84635=
40674 12560 63003 10077 20052 40193 52018 60002 83101 333 20066
83830 831XX=
40676 11540 22803 10092 20070 40204 52027 60002 71000 82500 333
20070 82630=
40680 11550 81404 10119 20109 40183 53006 60042 72162 888XX 333
20095 83830 86633=
40691 11556 80000 10156 20127 40224 52022 60012 71000 8652/ 333
20130 83830 84640 88460=
0000371400
615
SMCI01 KWBC 110600
AAXX 11061
52418 32980 01102 11048 21201 39042 40446 57022 333 00652 21160=
53959 31942 72503 10058 21117 39868 40327 57027 70500 87/// 333
21032=
54374 32970 00000 11075 21171 39799 40299 57034 333 21222=
54843 31939 02002 10053 21048 30274 40303 57030 70500 333 21050=
54909 31956 02204 10083 21048 40301 57037 70500 333 21021=
56029 33/// 92201 11048 21114 36444 57016 333 00454 21130=
52681 32980 13208 11022 21210 38756 40410 57017 81/// 333 00601
21137=
50774 11962 22503 11192 21270 39901 40259 57010 69901 70070 82///
333 21319=
51133 32980 33601 11036 21165 39664 40355 57023 83/// 333 05704
21163=
51573 32965 01402 11063 21171 30418 40465 57014 333 00500 21130=
51709 32970 20000 11041 21109 38764 40447 52001 82/// 333 00551
21113=
51747 32965 02702 11046 21156 39089 40479 57005 333 00501 21230=
52983 32980 83603 11036 21217 38191 57017 88/// 333 00751 21154=
53588 32980 03207 11080 21265 37787 57015 333 21142=
53614 31955 01602 11004 21180 39011 40364 57017 70500 333 00402
21118=
53646 32975 02904 10003 21233 38942 40343 57021 333 00203 21118=
53798 31907 70902 10045 21058 30183 40283 57036 70500 87/// 333
21042=
53845 32975 20703 10012 21205 38924 40350 57021 82/// 333 00403
21119=
54094 42780 72702 11101 21195 39854 40263 57005 87/// 333 21253=
54102 32980 12903 11087 21217 39067 40340 57008 81/// 333 21212=
54161 32970 02504 11077 21163 39951 40264 57018 333 21179=
54292 32980 12905 11058 21185 39918 40255 57010 81/// 333 21148=
54618 31907 70000 11003 21014 30277 40296 57034 74244 87/// 333
21065=
56187 31559 60403 10097 21005 40284 57030 70540 86/// 333 00503
20017=
57083 31913 53402 10080 21038 30163 40304 57034 70540 85/// 333
21016=
57131 32960 71804 10058 21096 40331 57031 87/// 333 21011=
58102 32965 01601 10089 21073 30255 40304 57031 333 20008=
50136 32970 63204 11254 21330 39733 40355 52007 86/// 333 21414=
50468 32970 03204 11242 21330 30042 40280 52003 333 21357=
50745 11964 70202 11178 21224 30077 40281 52002 69911 77070 87///
333 21243 92502=
50788 32970 23203 11202 21258 30149 40244 52002 82/// 333 21280=
51076 32980 02901 11093 21183 39492 40461 57013 333 00007 21232=
51243 32965 02201 11169 21216 39848 40462 57019 333 05102 21244=
51288 32980 72201 11078 21182 38422 57012 87/// 333 00204 21166=
51431 32980 00701 11042 21155 39496 40346 57021 333 05801 21186=
51463 31955 90000 11119 21181 39220 40407 57018 70500 333 05256
21122=
52203 32980 01401 11047 21193 39506 40459 57019 333 00501 21196=
53463 42965 31802 11070 21213 38938 40372 57019 83/// 333 00100
21167=
53513 32980 02505 11033 21215 39084 40378 57010 333 00202 21138=
53564 31943 03601 11020 21199 39279 40365 57031 70500 333 00102
21201=
53772 31958 22502 10027 21159 39356 40316 57030 70500 82/// 333
21101=
54218 32980 02504 11006 21227 39443 40285 57023 333 21168=
54337 32956 70401 10008 21119 30189 40276 57028 87/// 333 21133=
54401 32972 22202 11007 21221 39347 40316 57031 82/// 333 21153=
54423 31959 61401 11018 21202 39752 40296 57032 70500 86/// 333
21166=
54471 42964 02005 10008 21052 30275 40281 57023 333 21135=
54497 32580 71603 11004 21127 30274 40293 57026 87/// 333 21127=
54511 31955 72003 10037 21178 30241 40283 57035 70500 87/// 333
21091=
57127 32961 71602 10067 20004 39689 40314 57032 87/// 333 20021=
57265 32962 52904 10058 20017 30148 40316 57029 85/// 333 20018=
57494 31558 80201 10049 20021 30269 40301 57021 71000 88/// 333
20028=
57816 31455 80902 10022 20015 38841 40281 57031 71060 88/// 333
00651 20002=
58040 31943 01802 10060 21036 30305 40313 57026 70540 333 21042=
0000042900
616
SMVS01 KWBC 110600
AAXX 11061
48808 01440 80000 10138 20127 39927 40219 57024 69993 76062 888//
333 58001 69961 84894 88696 96010 96160=
48830 11440 83601 10138 20119 39901 40216 57025 69903 71062 888//
333 59001 82894 88697=
48839 32997 60504 10225 20193 30133 40199 58025 80008 222// 00198
2//01 333 59003 86299=
48826 31530 81802 10199 20179 30066 40203 58026 71022 888// 333
59003 85895 88697=
0000313000
617
SMCN04 KWBC 110600
AAXX 11064
71893 11332 81517 10063 20062 39932 49963 57070 60201 76366 887//
333 10073 20023 70204 90973 555 10000 20000 31524 40031=
71621 12361 81005 10029 20010 30023 40130 58047 60001 8667/ 333
10029 21098 70014 555 10016 20014=
71828 17/// /2708 11096 21115 39449 40095 53014 60051 7//4/ 333
11094 21210 7////=
71107 17/// /2732 10068 20059 39678 49787 55048 60151 7//4/ 333
10077 20020 70206 555 31354 4003/=
71186 45/// /0603 11104 21126 6///1 333 11104 21235 7////=
71190 45/// /2907 11038 21055 6///1 333 11037 21141 7////=
71228 15/// /2409 11092 21115 60001 333 11012 21160 70011=
71230 15/// /1003 11049 21111 39101 49991 58032 60001 333 7////=
71246 15/// /1202 11176 21190 39344 40021 57012 60001 333 11109
21180 70021=
71285 15/// /2103 11123 21143 60001 333 11019 21171 70000=
71340 15/// /1705 11165 21176 60001 333 11028 21169 70000=
71341 15/// /2516 10021 21047 60001 333 10053 21012 70000 555
32631 40091=
71347 15/// /1002 11177 21195 60001 333 11053 21205 70000=
71374 45/// /2815 11047 6///1 333 11039 21145 7//// 555 32537
4021/=
71421 15/// /2404 11120 21154 39437 40174 53009 60001 333 11118
21248 70002 555 32319 4015/=
71423 15/// /2513 30189 55002 60001 333 70000 555 32431 4017/=
71439 45/// /2008 10031 20021 39812 40032 57063 6///1 333 10031
21031 7////=
71488 15/// /1504 11002 21062 38518 40059 58009 60001 333 10017
21023 70000 555 32430 4007/=
71502 15/// /2912 11263 21294 39997 40013 56003 60001 333 11216
21264 70000 555 33031 4009/=
71506 15/// /0103 11282 21307 39109 40045 56003 60001 333 11249
21297 70000=
71560 15/// /3211 11072 21078 39695 40001 51016 60001 333 11032
21104 70000 555 31721 4013/=
71682 15/// /0000 11209 21234 39807 40044 58011 60001 333 11189
21239 70009=
71683 15/// /2813 11269 21295 39932 40047 55001 60001 333 11224
21269 70000 555 33028 4012/=
71737 15/// /1602 11049 21058 39642 40175 58029 60001 333 11049
21199 70000=
71823 17/// /1912 11073 21082 39713 40098 58002 69921 7//4/ 333
11071 21151 7////=
71829 15/// /2806 11069 21109 30025 40190 58004 60001 333 11056
21189 7////=
71903 17/// /1019 10027 20022 39758 49806 56061 60031 7//4/ 333
10055 20027 70051 555 31137 4006/=
71915 12974 03205 11309 21349 39958 40043 53021 60001 333 11244
21316 70000 555 10000 20000 3//// 4////=
71976 15/// /2713 11271 21295 39399 40052 51028 60001 333 11218
21278 70000 555 32523 4014/=
71990 17/// /0701 11243 21268 38301 49926 56007 60021 7//4/ 333
11154 21243 70031=
71055 45/// /2109 11302 21332 39689 40034 51003 6///1 333 11230
21302 7//// 555 32117 4014/=
71269 15/// /2414 11059 21082 60001 333 11027 21074 70000 555
32420 40071=
71342 45/// /2511 11078 21101 6///1 333 11041 21117 7//// 555
33019 40001=
71344 15/// /2412 11068 21074 60001 333 10002 21084 7////=
71348 15/// /0904 11125 21139 60001 333 11015 21164 70000=
71515 15/// /2409 11070 21070 39337 40046 53005 60001 333 11070
21196 70000=
71743 17/// /0000 11303 21333 39880 40108 51018 69921 7//4/ 333
11156 21309 70004 555 32639 4015/=
0000023300
618
SMVD17 KWNB 110600 RRH
BBXX
51206 11061 99198 71550 46/// ///// 1//// 90603 22200 00251 11005
21004 309// 41103 70024=
46114 11061 99367 71223 46/// ///// 1//// 90608 22200 00125 11406
21003 331// 41405 70028=
0000266700
619
SMCI01 KWBC 110600 RRA
AAXX 11061
58102 32965 01601 10089 21073 30255 40304 57031 333 20008=
58150 31956 21402 10064 21015 30307 40311 57022 70500 82/// 333
21028=
58221 31950 70904 10065 20010 30267 40302 57024 70500 87/// 333
20003=
58238 11425 80702 10048 20027 30259 40305 57022 69921 76060 88///
333 20038=
58251 31955 80402 10057 21004 30306 40312 57019 70500 88/// 333
20010=
58362 11761 80704 10056 20026 30295 40303 57022 60011 76065 88///
333 20044=
58457 11917 80703 10059 20050 30237 40291 57026 60041 76084 88///
333 20040=
58606 11450 80402 10050 20038 30224 40284 57020 60011 76066 88///
333 20047=
58752 31756 82703 10107 20050 30223 40273 57026 70500 88/// 333
20082=
59117 32973 00201 10198 20079 30081 40221 57043 333 20100=
59134 32560 11602 10187 20110 30063 40232 57030 81/// 333 20116=
59287 31961 13201 10211 20105 30132 40218 57039 70500 81/// 333
20099=
59316 32780 60704 10192 20110 30224 40233 57035 86/// 333 20122=
59316 32780 60704 10192 20110 30224 40233 57035 86/// 333 20122=
59431 31629 80402 10142 20104 30075 40223 57028 70500 88/// 333
20118=
59644 11562 70905 10205 20153 30190 40207 57032 69901 70060 87///
333 20163=
59758 32475 60706 10229 20180 30121 40197 57031 86/// 333 20188=
52866 32957 72001 11057 21194 37750 57025 87/// 333 00553 21185=
58847 32666 72902 10157 20080 30149 40253 57031 87/// 333 20096=
50844 32962 20404 11131 21207 40255 57009 82/// 333 21239=
50968 32962 72201 11138 21201 40271 57021 87/// 333 21269=
51379 32980 01601 11040 21139 40417 57021 333 05306 21232=
51467 32980 01101 11081 21234 38316 57027 333 00353 21186=
53480 42967 22704 11052 21241 40339 57016 82/// 333 21193=
53673 31958 01801 10018 21221 40310 57035 70500 333 21109=
53898 31918 01102 10065 21055 40282 57039 70500 333 21033=
54308 32980 03201 10001 21221 40297 57029 333 21191=
54916 31940 01803 10067 21044 30238 40315 57034 70540 333 21047=
57014 32975 62505 10034 21174 40341 57033 86/// 333 21070=
57025 31957 72005 10049 21162 40335 57032 70500 87/// 333 21053=
57046 11922 52709 11062 21110 37973 57017 69911 70074 85/// 333
00352 21077=
50854 32760 70402 11169 21232 30061 40266 57009 87/// 333 21218=
51495 32980 01403 11057 21191 40465 57019 333 00501 21153=
53698 31929 71402 10055 21145 30149 40282 57037 70500 87/// 333
21043=
54602 31923 62203 10044 21109 30254 40277 57044 70500 86/// 333
21104=
54725 31926 02002 10058 21044 40299 57032 70540 333 21100=
54751 31918 72705 10026 21021 40303 57023 70500 87/// 333 21006=
58208 31943 70902 10066 21002 30246 40301 57023 70500 87/// 333
20032=
0000013800
620
SMCI01 KWBC 110000
AAXX 11001
58506 11/07 93601 10005 20005 38918 40306 52010 60042 768// 333
05101 31010 70058 93427=
0000011800
621
SNVD15 KWNB 110500 RRU
BBXX
42022 11051 99275 70837 46/// /1304 10212 40179 90529 555 11047
22051=
0000153100
622
SMVB11 RJTD 110600
BBXX
SHIP    11064 99186 11188
41597 20630 10260 20195 40175 57019 70200 82100
22253 00250 20302 309// 40806 80215=
SHIP    11064 99502 11588
41/96 70916 11010 21071 49890 55005 72077 88/// 90600
22264 00070 1//// 20805 321// 40906 5//// 6//// 81030 /////=
SHIP    11064 99119 11333
41198 70628 10300 20253 40069 57024 70322 877//
22212 04280 20707 307// 40608 80265=
SHIP    11064 99172 11153
41797 63616 10280 20224 40187 56020 70322 85340
22254 00300 20605 305// 40505 80240=
SHIP    11064 99113 11424
41497 80623 10282 20227 40089 55014 70222 82137 9////
22241 06287 20504 304// 40704 5//// 6//// 80242=
SHIP    11064 99322 11333
41598 63119 10150 20054 40279 57021 70301 8521/ 9////
22214 00210 1//// 20302 334// 40402 5//// 6//// 80100 /////NNNN=
SHIP    11064 99117 11503
41697 60616 10280 20224 40126 57010 70211 861/2
22283 00320 20104 304// 40104 80240=
H9XE    11064 99382 11416
41798 33132 10021 21036 40250 52055 70211 83245
22253 00090 20103 30705 40302 50102 80000=
SHIP    11064 99136 11200
41897 60727 10300 20216 40108 56015 70322 85376
22273 00295 20506 301// 40506 80240=
SHIP    11064 99186 11188
41597 20630 10260 20195 40175 57019 70200 82100
22253 00250 20302 309// 40806 80215=
SHIP    11064 99081 11203
41797 80422 10280 20239 40089 57042 70252 8671/
22283 00330 20404 301// 40507 80250=
SHIP    11064 99272 11271
41898 81725 10170 20100 40236 53014 70322 86356
22213 00222 2//02 302// 40203 80130=
0000014200
623
SMRS11 RUMS 110600 RRA
AAXX 11061
26167 11450 83105 11034 21051 39817 49930 52035 60022 78500 887// 333
21034 47001 91111=
0000007000
624
UPSR01 WSSS 110600
PPAA 61067 48698 55185 31019 77999=
0000009400
625
UGSR20 WSSS 110600
PPBB 61067 48698 90/12 02007 35012 33016 9037/ 32018 29519=
0000208000
626
SMCI05 BABJ 110600
AAXX 11061
50353 32970 23405 11249 21323 30029 40282 52006 82/// 333
21419=
50557 32970 00202 11254 21318 39952 40298 52005 333 21386=
50756 32960 22902 11222 21273 39946 40279 57003 82/// 333
21297=
50949 32965 02504 11087 21185 30062 40246 57022 333 21214=
50963 32962 32704 11171 21211 30108 40261 57012 83/// 333
21306=
50978 32972 22708 11121 21209 39882 40248 54000 82/// 333
21222=
51087 32980 00901 11111 21195 39400 40468 57016 333 00005
21254=
51156 32980 00902 11082 21173 38816 40421 57008 333 00051
21164=
51644 32960 32502 11044 21130 39108 40463 57007 83/// 333
00401 21159=
51656 31956 02902 11048 21144 39282 40454 57012 70500 333
00400 21128=
51886 33/// 90000 11074 21245 37154 57010 333 00500 21165=
52602 32980 72201 11096 21255 37312 57014 87/// 333 00553
21235=
52713 32980 72201 11081 21179 36939 57014 87/// 333 00501
21228=
52754 32980 61604 11090 21190 36790 57018 86/// 333 00400
21201=
52818 32680 72902 11062 21230 37282 57014 87/// 333 00552
21143=
52836 32680 72505 11073 21180 36920 57010 87/// 333 00302
21170=
52955 32980 83202 11060 21200 36981 57017 88/// 333 00500
21182=
53068 32966 23604 11075 21237 39146 40363 54000 82/// 333
00200 21192=
53276 32980 72909 11086 21235 38924 40360 57003 87/// 333
21161=
54135 32980 22704 11033 21225 30034 40269 57013 82/// 333
21160=
54236 32980 02503 11009 21205 30157 40269 57026 333 21195=
54539 31916 02503 10037 21074 30276 40289 57027 70500 333
21079=
54662 32960 62203 10041 21071 30176 40294 57023 86/// 333
21019=
54753 31920 02502 10036 21028 30301 40309 57024 70500 333
21043=
54857 31935 22002 10046 21029 30214 40312 57024 70500 82///
333 21003=
57067 11950 70201 10057 21039 39616 40313 57033 69901 70570
87/// 333 21006=
57178 31958 11402 10084 21034 30085 40311 57031 70500 81///
333 20024=
57245 11958 82701 10048 20006 39959 40323 57030 69901 76066
88/// 333 00500 20021=
57297 31945 70403 10071 21029 30160 40305 57023 70500 87///
333 20026=
0000111600
627
SMET01 HAAB 110600
AAXX 11061
63330 31175 51008 10144 20088 37811 40285 7052/ 81630 333 20104 58006
81702 85356=
63331 32880 4//// 10184 20091 38069 40253 84030 333 20110 59001
84358=
63332 32580 62702 10154 20095 38235 40163 86800 333 20100 58002 83824
83625=
63333 32580 10000 10162 20106 38190 40215 81100 333 20102 58000
81826=
63334 11560 10901 10158 20071 37643 40134 69904 7050/ 811000 333
20094 59006 81826=
63340 32880 33401 10150 20109 37967 40195 83200 333 20108 58010
83827=
63402 31565 10000 10136 20133 38410 4//// 7102/ 81100 333 20096 59006
81823=
63403 11960 61802 10160 20118 60044 7052/ 86030 333 20135 86360=
63450 NIL=
63451 NIL=
63453 32980 30802 10200 20155 39103 80004 333 20155 58010 83070=
63460 32980 00000 10190 20084 333 20116=
63471 32580 13001 10218 20143 38888 40160 81101 333 20146 58003
81827=
63474 32980 11502 10156 20038 80001 333 20060 81070=
63478 32980 00908 10262 2//// 39825 40205 7050/ 333 20208 59008=
63500 32980 00000 10234 20156 333 20144=
63533 31970 00203 10209 20115 705// 333 20156=
         NNNN=
0000091300
628
UDAS02 BABJ 110615
AMDAR 1106
ASC CNFPTK 3907N 11721E 110612 F002 PS001 263/006 TB/ S//1=
ASC CNFPTK 3906N 11722E 110612 F007 MS010 270/010 TB/ S//1=
DES CNFPYM 4034N 11211E 110610 F118 MS200 288/034 TB/ S//1=
DES CNFPYM 4038N 11212E 110611 F109 MS183 288/032 TB/ S//1=
DES CNFPYM 4039N 11212E 110612 F102 MS170 287/027 TB/ S//1=
DES CNFPYM 4041N 11213E 110612 F099 MS169 289/026 TB/ S//1=
DES CNFPQK 3127N 12048E 110610 F096 MS050 254/044 TB/ S//1=
DES CNFPQK 3125N 12054E 110611 F084 MS045 251/033 TB/ S//1=
DES CNFPQK 3124N 12058E 110612 F078 MS043 249/027 TB/ S//1=
DES CNFPQK 3123N 12100E 110612 F074 MS043 242/024 TB/ S//1=
ASC CNFLWM 2346N 11300E 110611 F154 MS039 254/041 TB/ S//1=
ASC CNFLWM 2347N 11257E 110612 F165 MS059 249/042 TB/ S//1=
ASC CNFLWM 2349N 11253E 110612 F181 MS095 257/049 TB/ S//1=
ASC CNFLWM 2350N 11250E 110613 F197 MS115 263/056 TB/ S//1=
0000016300
629
SMJD50 OJAM 110600
AAXX 11064
40260 42960 00000 10028 20018 39410 40214 52007=
40265 41956 60000 10060 20025 39412 54000 70500 86030 333 86360=
0000015600
630
SMVD11 RJTD 110600
BBXX
SHIP    11064 99152 71498
41697 80617 10250 20207 40143 52010 703// 8545/
22264 04250 2//04 324// 4//05 80220=
0000026700
631
SMVE11 RJTD 110600
BBXX
SHIP    11064 99321 51700
41497 71431 10219 20141 40107 53010 70222 85141
22243 04224 20407 316// 40706=
SHIP    11064 99054 30845
41/98 30301 10280 20209 40130 50000 70300 82150
22214 04300 336// 40501 5//// 80230=
0000066100
632
UDAF01 FAPR 110621
AMDAR 1106
DES AFZA09 2615S 02806E 110615 F077 PS170 154/001 TB0 S031 333 F/// VG000=
DES AFZA09 2613S 02813E 110619 F074 PS175 144/008 TB0 S031 333 F/// VG000=
DES AFZA09 2612S 02814E 110619 F071 PS182 108/002 TB0 S031 333 F/// VG000=
DES AFZA09 2611S 02814E 110619 F068 PS172 344/005 TB0 S031 333 F/// VG000=
DES AFZA09 2610S 02814E 110620 F064 PS172 336/008 TB0 S031 333 F/// VG000=
DES AFZA09 2609S 02815E 110620 F061 PS181 338/005 TB0 S031 333 F/// VG000=
DES AFZA09 2608S 02815E 110620 F057 PS190 002/005 TB0 S031 333 F/// VG000=
DES AFZA09 2607S 02815E 110621 F054 PS197 354/006 TB0 S031 333 F/// VG000=
00000000