0000015700
506
SSVX13 LFPW 110700
ZZYY 16534 11014 0700/ 335046 055122 6113/ 11119 40183 57009 22219
 00196 444 20130 11014 0600/ 50101 80150 80013 9/015=
0000015700
507
SSVX13 LFPW 110700
ZZYY 64518 11014 0700/ 174783 007061 6113/ 11119 40150 52003 22219
 00036 444 20130 11014 0600/ 50101 80132 80019 9/015=
0000015700
508
SSVX13 LFPW 110700
ZZYY 62520 11014 0700/ 719739 065654 6113/ 11119 40184 57017 22219
 00268 444 20130 11014 0600/ 50101 80104 80002 9/015=
0000015700
509
SSVX13 LFPW 110700
ZZYY 13664 11014 0700/ 726031 026091 6113/ 11119 40179 57001 22219
 00217 444 20130 11014 0600/ 50101 80142 80015 9/015=
0000015700
510
SSVX13 LFPW 110700
ZZYY 64606 11014 0700/ 766255 006852 6113/ 11119 40043 57001 22219
 00036 444 20130 11014 0600/ 50101 80134 80016 9/015=
0000015700
511
SSVX13 LFPW 110700
ZZYY 64668 11014 0700/ 762360 011712 6113/ 11119 49993 52025 22219
 00088 444 20130 11014 0600/ 50101 80152 80013 9/015=
0000015700
512
SSVX13 LFPW 110700
ZZYY 64622 11014 0700/ 766576 009553 6113/ 11119 40042 57001 22219
 00020 444 20130 11014 0600/ 50101 80142 80015 9/015=
0000015700
513
SSVX13 LFPW 110700
ZZYY 64611 11014 0700/ 760974 022861 6113/ 11119 40001 52019 22219
 00084 444 20130 11014 0600/ 50101 80142 80003 9/015=
0000015700
514
SSVX13 LFPW 110700
ZZYY 16642 11014 0700/ 343844 053615 6113/ 11119 40087 57038 22219
 00106 444 20130 11014 0600/ 50101 80150 80013 9/015=
0000015700
515
SSVX13 LFPW 110700
ZZYY 44875 11014 0700/ 732158 029397 6113/ 11119 40122 57042 22219
 00205 444 20130 11014 0600/ 50101 80102 80002 9/015=
0000015700
516
SSVX13 LFPW 110700
ZZYY 64609 11014 0700/ 768936 004395 6113/ 11119 40113 52001 22219
 00048 444 20130 11014 0600/ 50101 80140 80034 9/015=
0000015700
517
SSVX13 LFPW 110700
ZZYY 64621 11014 0700/ 763837 006490 6113/ 11119 49985 52004 22219
 00034 444 20130 11014 0600/ 50101 80140 80018 9/015=
0000015700
518
SSVX13 LFPW 110700
ZZYY 14512 11014 0700/ 317252 069350 6113/ 11119 40131 57010 22219
 00282 444 20130 11014 0600/ 50101 80136 80003 9/015=
0000015700
519
SSVX13 LFPW 110700
ZZYY 41596 11014 0700/ 721492 045033 6113/ 11119 40180 57013 22219
 00246 444 20130 11014 0600/ 50101 80144 80018 9/015=
0000123400
520
UDOC01 NZKL 110700 RRB
AMDAR 1107
ASC NZL061 4232S 17301E 110606 F266 MS316 286/022 TB0 S031
333 F/// VG002=
DES NZL061 3816S 17444E 110645 F267 MS333 322/003 TB0 S031
333 F/// VG002=
ASC NZL061 4222S 17306E 110608 F301 MS410 308/020 TB0 S031
333 F/// VG001=
DES NZL061 3826S 17442E 110644 F301 MS424 021/006 TB0 S031
333 F/// VG003=
LVR NZL020 3822S 16709E 110602 F340 MS517 287/008 TB0 S031
333 F/// VG001=
LVR NZL025 3537S 16302E 110609 F340 MS490 233/018 TB0 S031
333 F/// VG000=
ASC NZL061 4207S 17313E 110610 F340 MS517 306/021 TB0 S031
333 F/// VG001=
LVR NZL020 3829S 16459E 110615 F340 MS507 247/019 TB0 S031
333 F/// VG001=
LVR NZL025 3519S 16055E 110624 F340 MS487 180/033 TB0 S031
333 F/// VG001=
LVR NZL020 3834S 16250E 110629 F340 MS500 219/026 TB0 S031
333 F/// VG001=
LVR NZL025 3459S 15847E 110638 F340 MS493 186/036 TB0 S031
333 F/// VG002=
DES NZL061 3834S 17441E 110642 F340 MS535 045/015 TB0 S031
333 F/// VG003=
LVR NZL020 3836S 16041E 110643 F340 MS485 183/047 TB0 S031
333 F/// VG003=
LVR NZL025 3436S 15637E 110651 F340 MS467 161/075 TB0 S031
333 F/// VG000=
LVR NZL061 4147S 17323E 110613 F370 MS597 331/011 TB0 S031
333 F/// VG003=
0000020700
521
UDOC01 NZKL 110700 RRC
AMDAR 1107
LVR NZL061 4016S 17408E 110627 F370 MS600 040/008 TB0 S031
333 F/// VG000=
LVR NZL061 3844S 17439E 110641 F370 MS593 039/010 TB0 S031
333 F/// VG003=
0000027400
522
SAAE32 VTBB 110700
METAR VLLB 110700Z 18002KT 9999 FEW019 25/18 Q1016 NOSIG=
METAR VLLN 110700Z 22002KT 9000 FEW020 23/18 Q1017 NOSIG=
METAR VLPS 110700Z 22002KT 9999 FEW023 32/18 Q1014 NOSIG=
METAR VLSK 110700Z 04010KT 9000 SCT020 SCT100 29/17 Q1017 NOSIG=

0000015700
523
SSVX13 LFPW 110700
ZZYY 44765 11014 0700/ 746775 035454 6113/ 11119 49995 52017 22219
 00110 444 20130 11014 0600/ 50101 80140 8//// 9/015=
0000015700
524
SSVX13 LFPW 110700
ZZYY 16542 11014 0700/ 346103 069579 6113/ 11119 40146 52005 22219
 00065 444 20130 11014 0600/ 50101 80144 80023 9/015=
0000014500
525
SSVX13 LFPW 110700
ZZYY 26556 11014 0700/ 778926 014038 6113/ 11119 49997 52001 444
 20130 11014 0600/ 50101 80130 80002 9/015=
00000000