0000011000
353
UANT99 KDDL 110607
ARP KLM214 5804N04152W 0607 F370 MS59 249/36 KT
PHAOF QXT AOW 110607 J46A
0001254800
354
SMMX01 MXBA 110600
AAXX 11061
76040 32920 03601 10110 20072 30185 40199 52018 90550 333   
10248 20042 30/// 55092 58034 98620=
76056 06/// /2802 10122 21033 30166 40190 51011 60002 7//// 
8//// 90550 333   0//// 10147 20120 30/// 4//// 50219 54/// 
55000 20090 56/// 57/// 58001 60007 8//// 8//// 8//// 9/=
76109 06/// /0301 10106 21076 38901 40187 53016 60002 7//// 
8//// 90550 333   0//// 10184 20057 30/// 4//// 50319 54/// 
55086 21405 56/// 57/// 58024 60007 8//// 8//// 8//// 9/=
76117 06/// /3502 10082 21039 38912 40112 51019 60002 7//// 
8//// 90550 333   0//// 10228 20025 30/// 4//// 50259 54/// 
55085 21374 56/// 57/// 58027 60007 8//// 8//// 8//// 9/=
76161 06/// /1101 10136 21003 39932 40187 52018 60002 7//// 
8//// 90550 333   0//// 10282 20064 30/// 4//// 50349 54/// 
55087 21418 56/// 57/// 58031 60007 8//// 8//// 8//// 9/=
76219 06/// /0000 11018 21037 38170 40335 52013 60002 7//// 
8//// 90550 333   0//// 10188 21020 30/// 4//// 50219 54/// 
55089 21598 56/// 57/// 58030 60007 8//// 8//// 8//// 9/=
76220 31920 00000 10000 2//// 38170 40179 52016 70002 90545 
333   10184 21018 30/// 55087 58032 96122 96126=
76225 32920 02701 10098 21013 38621 40108 52012 90540 333   
10215 20098 30/// 55062 58029=
76242 06/// /2202 10132 20112 39833 40075 53006 60002 7//// 
8//// 90550 333   0//// 10226 20099 30/// 4//// 50169 54/// 
55028 28410 56/// 57/// 59026 60007 8//// 8//// 8//// 9/=
76243 32970 02202 10138 20121 39843 40133 52010 90540 333   
10230 20096 30/// 55011 59020=
76254 02/// ///// 1//// 2//// 3//// 4//// 5//// 6//// 7//// 
8//// 9//// 333   0//// 1//// 2//// 30/// 4//// 5//// 54/// 
55/// 2//// 56/// 57/// 5//// 6//// 8//// 8//// 8//// 9/=
76255 06/// /3103 10172 20071 30161 40178 52012 60002 7//// 
8//// 90550 333   0//// 10272 20082 30/// 4//// 50369 54/// 
55091 21591 56/// 57/// 58024 60007 8//// 8//// 8//// 9/=
76305 32970 03302 10172 20059 30164 40173 51003 90545 333   
10230 20140 30/// 55069 58///=
76323 32950 23601 10038 21012 38304 40216 52018 80002 90540 
333   10194 20040 30/// 55042 56005 58032 83268=
76324 06/// /0000 10034 21018 38287 40329 51012 60002 7//// 
8//// 90550 333   0//// 10194 20034 30/// 4//// 50229 54/// 
55048 21023 56/// 57/// 58036 60007 8//// 8//// 8//// 9/=
76342 31840 71801 10180 20042 39444 40131 52002 70222 87070 
90550 333   10275 20090 30/// 55066 2//// 56050 59005 87458 
=
76382 32960 41401 10134 20102 38915 40146 52014 80001 90545 
333   10244 20098 30/// 55046 2//// 56005 58044 84076=
76390 31950 02002 10069 21020 38240 40150 52012 70544 90548 
333   10210 20050 30/// 55097 2//// 58030=
76391 06/// /2201 10076 21028 38237 40226 53011 60002 7//// 
8//// 90550 333   0//// 10219 20064 30/// 4//// 50449 54/// 
55093 21855 56/// 57/// 58030 60007 8//// 8//// 8//// 9/=
76392 06/// /2202 10165 20118 39567 40149 52010 60002 7//// 
8//// 90550 333   0//// 10282 20145 30/// 4//// 50309 54/// 
55077 21339 56/// 57/// 58003 60007 8//// 8//// 8//// 9/=
SMMX01 MXBA 110600 
AAXX 11061
76393 31910 02201 10164 20128 39569 40135 52009 70544 90549 
333   10278 20145 30/// 55078 58000 91102 91401=
76405 32840 30502 10186 20118 30145 40167 50003 83040 90550 
333   10237 20140 30/// 55039 2//// 5610 58015 83357=
76413 06/// /0101 10131 20106 30137 40183 5//// 60032 7//// 
8//// 90550 333   0//// 10132 20130 30/// 4//// 50119 54/// 
55000 20090 56/// 57/// 5//// 60037 8//// 8//// 8//// 9/=
76423 32760 80000 10102 21009 38167 40134 52010 83059 90550 
333   10220 21012 30/// 55087 21450 56099 58017 83358 85170 
=
76424 06/// /2302 10097 21036 38167 40235 51010 60002 7//// 
8//// 90550 333   0//// 10219 21017 30/// 4//// 50369 54/// 
55089 21818 56/// 57/// 58016 60007 8//// 8//// 8//// 9/=
76458 32960 03302 10192 20148 30146 40150 52008 90545 333   
10271 20152 30/// 55092 58005=
76490 06/// /2202 10184 20149 39754 40143 51009 60002 7//// 
8//// 90550 333   0//// 10279 20092 30/// 4//// 50289 54/// 
55088 21664 56/// 57/// 59014 60007 8//// 8//// 8//// 9/=
76518 02/// ///// 1//// 2//// 3//// 4//// 5//// 6//// 7//// 
8//// 9//// 333   0//// 1//// 2//// 30/// 4//// 5//// 54/// 
55/// 2//// 56/// 57/// 5//// 6//// 8//// 8//// 8//// 9/=
76527 06/// /2304 10091 21039 37479 40252 50005 60002 7//// 
8//// 90550 333   0//// 10132 20065 30/// 4//// 50469 54/// 
55093 21975 56/// 57/// 58014 60007 8//// 8//// 8//// 9/=
76538 06/// /2501 10128 2//// 38166 40158 51008 60002 7//// 
8//// 90550 333   0//// 10232 20030 30/// 4//// 5///9 54/// 
55076 21618 56/// 57/// 58000 60007 8//// 8//// 8//// 9/=
76539 32958 03601 10134 20115 38160 40130 52010 90550 333   
10232 20030 30/// 55079 58400=
76547 06/// /1201 10188 20181 30125 40139 50008 60002 7//// 
8//// 90550 333   0//// 10280 20176 30/// 4//// 50279 54/// 
55068 21461 56/// 57/// 59043 60007 8//// 8//// 8//// 9/=
76548 32460 32960 80601 10194 20188 30140 40140 51011 885// 
90545 333   10282 20168 30/// 55053 56050 59044 88358=
76556 32960 01602 10143 20098 39122 40127 54000 90547 333   
10266 20100 30/// 55098 58004=
76577 32560 40000 10144 20129 38055 40159 52014 84500 90540 
333   10220 20062 30/// 55057 56500 58004 84622=
76578 06/// /1801 10135 20059 38053 40161 52012 60002 7//// 
8//// 90550 333   0//// 013// 10230 20062 30/// 4//// 50269 
54/// 55041 21141 56/// 57/// 58005 60007 8//// 8//// 8/=
76580 06/// /0000 10172 20125 39040 40150 51013 60002 7//// 
8//// 90550 333   0//// 10283 20129 30/// 4//// 50269 54/// 
55059 21510 56/// 57/// 59022 60007 8//// 8//// 8//// 9/=
76581 32960 02601 10127 20112 39058 40147 52016 90550 333   
10280 20180 30/// 55072 58///=
76592 06/// /1302 10222 20218 30151 40153 51002 60002 7//// 
8//// 90550 333   0//// 10311 20208 30/// 4//// 50339 54/// 
55055 21347 56/// 57/// 59024 60007 8//// 8//// 8//// 9/=
76593 32950 01403 10220 20214 30152 40154 52004 90550 333   
10302 20206 30/// 55053 21046 59023=
SMMX01 MXBA 110600 
AAXX 11061
76611 06/// /0000 10105 2//// 38479 40219 51009 60002 7//// 
8//// 90550 333   0//// 10245 20043 30/// 4//// 5///9 54/// 
55000 21505 56/// 57/// 59001 60007 8//// 8//// 8//// 9/=
76612 32860 32701 10112 20063 38485 40143 52011 83030 90550 
333   10248 20050 30/// 55085 21096 56050 58000 83358=
76625 31570 71802 10151 20069 38151 40107 52005 69901 76025 
85820 90552 333   10228 20078 31/// 55050 56660 58006 83825 
82626 82355=
76634 31570 61402 10132 20083 37860 40141 52006 70542 86400 
90550 333   10239 20080 30/// 55055 21216 565// 58001 86634 
=
76645 06/// /1102 10222 20209 30140 40155 50001 60002 7//// 
8//// 90550 333   0//// 10318 20206 30/// 4//// 50339 54/// 
55059 21465 56/// 57/// 59026 60007 8//// 8//// 8//// 9/=
76648 32865 61201 10225 20218 30122 40153 58002 60002 7//// 
8603/ 90550 333   0//// 10315 20207 30/// 4//// 50219 54/// 
55081 21365 56/// 57/// 59022 60007 86358 8//// 8//// 9/=
76657 06/// /2201 10121 20078 38527 40222 52014 60002 7//// 
8//// 90550 333   0//// 10250 20050 30/// 4//// 50249 54/// 
55000 21758 56/// 57/// 58003 60007 8//// 8//// 8//// 9/=
76658 11558 32701 10220 20199 39656 40154 52013 69931 70540 
82550 90550 333   10312 20150 30/// 55095 58009 82622 81356 
98914=
76659 06/// /0000 10205 20204 3//// 42/// 5//// 69942 7//// 
8//// 90550 333   0//// 10320 20141 30/// 4//// 50349 54/// 
55083 21810 56/// 57/// 5//// 69947 8//// 8//// 8//// 9/=
76662 32660 30601 10152 20091 38473 40126 52008 83400 90545 
333   10260 20058 30/// 55087 21103 56/00 58001 83633=
76663 06/// /1101 10146 20088 38472 40197 51010 60002 7//// 
8//// 90550 333   0//// 10261 20045 30/// 4//// 50339 54/// 
55066 21568 56/// 57/// 58002 60007 8//// 8//// 8//// 9/=
76665 31358 61801 10140 20117 38134 40130 52015 70222 86200 
90555 333   10230 20065 30/// 55054 21301 56300 57832 58007 
86808=
76675 32960 01802 10048 20022 37390 40143 52005 90555 333   
10193 20017 30/// 55068 21165 58003=
76680 31558 20501 10133 20071 37762 40105 52010 70540 82100 
90555 333   10210 20096 30/// 55060 20691 56700 58004 82827 
=
76683 32965 00000 10102 20064 37836 40139 51010 90545 333   
10216 20055 30/// 50291 55088 21672 59005=
76684 06/// /0201 10092 20060 37837 40211 51010 60002 7//// 
8//// 90550 333   0//// 10238 20045 30/// 4//// 50319 54/// 
55093 21956 56/// 57/// 59002 60007 8//// 8//// 8//// 9/=
76685 32950 00000 10124 20049 37867 40091 52001 90545 333   
10230 20064 30/// 55105 59025=
76687 32960 02001 10130 20122 38675 40143 52008 90548 333   
10242 20090 30/// 55089 59022=
76688 06/// /2602 10127 20121 38653 40179 50003 60002 7//// 
8//// 90550 333   0//// 10247 20093 30/// 4//// 50289 54/// 
55077 21763 56/// 57/// 59026 60007 8//// 8//// 8//// 9/=
76692 31520 62001 10219 20204 30127 40146 52012 71042 865// 
90545 333   10279 20179 30/// 55088 563// 59042 86628=
SMMX01 MXBA 110600 
AAXX 11061
76693 06/// /2101 10216 20201 30124 40145 50008 60002 7//// 
8//// 90550 333   0//// 10279 20179 30/// 4//// 50349 54/// 
55090 21826 56/// 57/// 59041 60007 8//// 8//// 8//// 9/=
76695 32956 00000 10208 20202 30134 40140 58002 90550 333   
10322 20208 30/// 55074 59030=
76726 32968 03301 10186 20093 38396 40082 52008 90545 333   
10272 20152 30/// 55083 58006=
76727 06/// /3301 10173 20077 38395 40116 50006 60002 7//// 
8//// 90550 333   0//// 10272 20147 30/// 4//// 50209 54/// 
55000 21513 56/// 57/// 59001 60007 8//// 8//// 8//// 9/=
76737 32980 00000 10140 20124 38766 40130 54004 90545 333   
10242 20140 30/// 55091 59028 91101 91536=
76738 06/// /3301 10133 20124 38766 40186 51002 60002 7//// 
8//// 90550 333   0//// 10252 20083 30/// 4//// 50289 54/// 
55089 21817 56/// 57/// 59025 60007 8//// 8//// 8//// 9/=
76741 31250 62602 10215 20204 30108 40126 5//// 70542 84230 
90545 333   10277 20188 30/// 55022 56500 59037 84806=
76743 31940 03500 10210 20195 30126 40134 55001 70000 90545 
333   10250 20205 30/// 55/// 59037=
76750 32558 20502 10232 20221 30138 40148 57005 82100 90545 
333   10310 20166 30/// 55063 56300 59016 82820=
76751 06/// /0602 10228 20223 30138 40150 58005 60002 7//// 
8//// 90550 333   0//// 10307 20201 30/// 4//// 50339 54/// 
55072 21678 56/// 57/// 59016 60007 8//// 8//// 8//// 9/=
76762 32504 21101 10166 20148 38773 40130 52015 81260 90550 
333   10278 20126 30/// 55095 20995 56630 58005 81814 81360 
=
76775 32960 00801 10154 20110 38525 40146 52012 90545 333   
10306 20088 30/// 55091 59009=
76776 06/// /2001 10144 20117 38510 40157 51013 60002 7//// 
8//// 90550 333   0//// 10314 20090 30/// 4//// 50399 54/// 
55093 21949 56/// 57/// 59009 60007 8//// 8//// 8//// 9/=
76806 06/// /0000 10228 20209 30130 40135 51008 60002 7//// 
8//// 90550 333   0//// 10342 20228 30/// 4//// 50409 54/// 
55092 21877 56/// 57/// 59004 60007 8//// 8//// 8//// 9/=
76834 06/// /3001 10233 20196 30124 40128 50005 60002 7//// 
8//// 90550 333   0//// 10341 20230 30/// 4//// 50629 54/// 
55095 21899 56/// 57/// 59006 60007 8//// 8//// 8//// 9/=
76845 32930 00000 10104 20101 37953 40170 51004 90548 333   
10225 20070 30/// 55062 59007=
76848 32450 20000 10125 20099 38383 40083 54000 82500 90545 
333   10243 20117 30/// 55102 56100 59013 82611=
76855 32980 03602 10236 20198 30083 40131 53019 90540 333   
10330 20206 30/// 55105 58/// 92001=
76902 06/// /0202 10245 20204 39996 40137 50000 60002 7//// 
8//// 90550 333   0//// 10340 20217 30/// 4//// 50439 54/// 
55094 21933 56/// 57/// 58001 60007 8//// 8//// 8//// 9/=
76160 32958 01101 10154 20001 39933 40182 52018 90540 333   
10265 20070 30/// 58032=
76412 32960 01801 10130 20109 30128 40174 52001 90548 333   
10270 20100 30/// 55047 58010=
76525 32960 02302 10085 21029 37479 40141 52005 90540 333   
10138 20065 30/// 55096 22593 58013=
76632 31847 42201 10128 20074 37710 40117 52003 70311 84080 
90545 333   10210 20070 30/// 55049 56050 58002 84359=
76640 31110 70000 10198 20192 30139 40151 52011 70222 8422/ 
90540 333   10254 20170 30/// 55043 5655/ 59040 84802 83440 
=
76647 32865 61101 10226 20223 30132 40163 58002 8603/ 90550 
333   10307 20209 30/// 55081 5604/ 59023 86358=
76833 32958 03602 10232 2//// 30125 40127 52006 90545 333   
10338 20228 30/// 55097 58/// 92021=
76843 32965 02901 10209 20182 39483 40114 52006 90545 333   
10309 20155 30/// 55108 59026=
0000015700
355
SSVX13 LFPW 110600
ZZYY 25624 11014 0600/ 185359 120640 6113/ 11119 40062 52004 22219
 01139 444 20130 11014 0600/ 50101 80134 8//// 9/015=
0000015700
356
SSVX13 LFPW 110000
ZZYY 31718 11014 0000/ 540633 037577 6113/ 11119 40105 57011 22219
 00166 444 20130 11014 0000/ 50101 80142 80005 9/015=
0000011000
357
UANT01 CWAO 110607
ARP BAW116 5107N02914W 0607 F390 MS55 205/61 KT
GVIIH QXT AOW 110607 F17A
0000011000
358
UANT01 CWAO 110607
ARP VIR20V 5804N05847W 0607 F370 MS58 281/68 KT
GVFAB DDL YHO 110607 F47A
0000011000
359
UANT01 CWAO 110607
ARP KLM214 5804N04149W 0607 F370 MS58 250/37 KT
PHAOF QXT AOW 110607 J47A
0000011100
360
UANT01 CWAO 110607
ARP AFR6735 4846N05206W 0607 F370 MS64 302/43 KT
FGUOC DDL YYT 110607 F12A
0000011100
361
UANT01 CWAO 110607
ARP BER7249 5143N05427W 0607 F390 MS69 287/67 KT
DALPD QXS YAY 110607 J68A
0000013900
362
SSVX13 LFPW 110601
ZZYY 41738 11014 0601/ 726608 077016 6113/ 22219 00227 444 20130
 11014 0601/ 50101 80050 80000 9/015=
0000014500
363
SSVX13 LFPW 110600
ZZYY 26556 11014 0600/ 778926 014038 6113/ 11119 49996 54000 444
 20130 11014 0600/ 50101 80130 80002 9/015=
0000015700
364
SSVX13 LFPW 110200
ZZYY 31718 11014 0200/ 540633 037577 6113/ 11119 40092 57018 22219
 00166 444 20130 11014 0000/ 50101 80142 80003 9/015=
0000015700
365
SSVX13 LFPW 110100
ZZYY 31718 11014 0100/ 540633 037577 6113/ 11119 40093 57017 22219
 00166 444 20130 11014 0000/ 50101 80142 80003 9/015=
0000015700
366
SSVX13 LFPW 102200
ZZYY 41636 10014 2200/ 735567 065011 6113/ 11119 40328 54000 22219
 00210 444 20130 10014 2100/ 50101 80086 80002 9/015=
0000015700
367
SSVX13 LFPW 110400
ZZYY 31718 11014 0400/ 540682 037542 6113/ 11119 40084 57010 22219
 00165 444 20130 11014 0300/ 50101 80142 80003 9/015=
0000015700
368
SSVX13 LFPW 110300
ZZYY 31718 11014 0300/ 540682 037542 6113/ 11119 40090 57016 22219
 00166 444 20130 11014 0300/ 50101 80142 80003 9/015=
0000157900
369
SMCZ40 OKPR 110600
AAXX 11061
11406 01456 32001 11012 21015 39597 40202 55004 69902 710//
      81501
  333 21013 34106 60005 70002 81610
  555 398// 50023 60026 70031 80039 90051=
11457 01980 32204 11033 21041 38876 48468 56005 69912 703//
      80004
  333 21034 3/106 48007 60005 70015 83074 93703
  555 394// 50006 60013 70014 80025=
11464 12987 12509 11009 21017 39175 42777 56002 60002 80001
  333 21009 34102 70000 81070 91111
  555 394//=
11520 01980 12103 10015 21004 39822 40198 55002 60002 702//
      80001
  333 20014 31101 60005 70000 81073
  555 387// 50019 60028 70035 80044 90052=
11546 05/75 /1603 11014 21022 39709 40211 56003 6///2
  333 21015 3/104 60005 70001
  555 394// 50027 60034 70042 80056 90058=
11636 01975 21502 11016 21022 39514 42798 53002 60002 700//
      80002
  333 21016 34105 60005 70000 82071
  555 395// 50009 60023 70032 80043 90049=
11679 01470 71502 10013 21003 39702 40200 53003 60002 700//
      84206
  333 20008 34103 60005 70000 84819 87273
  555 389// 50035 60039 70038 80048 90061=
11766 01480 72304 11014 21019 39291 42789 55001 60002 702//
      83106
  333 21016 34103 60005 70006 83810 87267
  555 396// 50012 60016 70023 80038=
11774 01782 61504 10009 21004 39930 40210 53002 60002 703//
      86501
  333 20000 31102 60005 70001 86650
  555 391//=
11787 01186 72907 11043 21047 38645 48462 55001 60002 702//
      87800
  333 21044 3/105 44009 60005 70000 82802 87620 91112 93520
  444 17100
  555 397// 50007 60013 70010 80021=
0000015700
370
SSVX13 LFPW 110500
ZZYY 31718 11014 0500/ 540682 037542 6113/ 11119 40081 57010 22219
 00165 444 20130 11014 0300/ 50101 80142 80003 9/015=
0000012900
371
SMLS01 FXMM 110600
AAXX 11063
68452 NIL=
68454 32989 00606 10192 20107 38415 48/// 5//// 333 20130 555 10274=
0000179300
372
SZPS01 AMMC 110609
CREX++
T000103 A001 D01021 D06025++
-0204190 14737360 56130 2014 01 11 06 02 3028 11 07 00 01
01108 0072 01108 0074 01103 0070 01103 0071 01099 0068 01098 0069+
-0669280 15640860 56363 2014 01 11 06 02 //// 11 07 00 01
00702 -0092 00703 -0088 00698 -0091 00697 -0089 00695 -0089 00691 -0090+
-0942890 15995560 56670 2014 01 11 06 02 3043 11 07 00 01
00824 -0055 00828 -0049 00823 -0054 00820 -0055 00820 -0055 00820 -0054+
-1072080 16580190 57131 2014 01 11 06 02 //// 11 07 00 01
03381 2662 03380 2665 03381 2669 03381 2673 03381 2676 03381 2679+
-1551560 16718860 57210 2014 01 11 06 02 //// 11 07 00 01
00935 -0084 00926 -0089 00946 -0065 00924 -0083 00912 -0091 00915 -0084+
-1775690 16830030 57320 2014 01 11 06 02 3015 11 07 00 01
01018 -0070 01013 -0071 01008 -0073 01006 -0072 01004 -0070 01000 -0071+
-4397330 16861610 65180 2014 01 11 06 02 2888 11 07 00 01
02099 0352 02114 0362 02109 0353 02105 0344 02114 0349 02134 0364+
-2120470 -15978530 65980 2014 01 11 06 02 3013 11 07 00 01
00691 0002 00722 0034 00692 0006 00716 0032 00663 -0019 00718 0037+
-2113810 -17518140 66600 2014 01 11 06 02 //// 11 07 00 01
01228 0101 01217 0094 01213 0095 01208 0094 01199 0089 01197 0092+
-1382670 -17176110 66840 2014 01 11 06 02 3012 11 07 00 01
00764 0046 00764 0049 00758 0046 00750 0041 00751 0045 00735 0033+
-1813250 17842750 67050 2014 01 11 06 02 3032 11 07 00 01
01418 0106 01408 0100 01401 0099 01398 0100 01397 0104 01394 0106+
-1760530 17743810 67070 2014 01 11 06 02 3033 11 07 00 01
01446 0022 01440 0021 01434 0020 01428 0020 01422 0019 ///// ////+
-0850250 17919500 67440 2014 01 11 06 02 3030 11 07 00 01
01957 -0003 01953 -0003 01948 -0004 01946 -0002 01941 -0003 01940 0001++
7777

00000000