0000061500
133
FTUS71 KWBC 102100 AAA
TAF AMD
KCHO 102057Z 1021/1118 00000KT 1 1/2SM -DZ BR OVC002
     FM102300 00000KT 2SM BR OVC003
     FM110100 00000KT 2SM -RA BR OVC003
     FM111000 VRB03KT 1SM BR OVC003 WS020/20035KT
     FM111300 19006KT 1/2SM FG OVC003 WS020/20040KT
     FM111600 19008KT 3/4SM BR OVC003 WS020/20045KT
     FM111700 19008KT 1SM SHRA BR OVC003 WS020/20045KT=
KLCK 102059Z 1021/1118 17009KT P6SM SCT010 BKN035
      TEMPO 1100/1103 BKN015
     FM110300 17010KT 5SM BR VCSH OVC015
     FM110700 17012KT 4SM -RA BR OVC008
     FM111400 23014G23KT P6SM VCSH OVC012=

0000041800
134
FTUS73 KWBC 102100 AAA
TAF AMD
KICT 102059Z 1021/1118 30014KT P6SM FEW020 SCT120
     FM110000 28011KT P6SM BKN120
     FM111600 28013G20KT P6SM SKC=
KTVC 102056Z 1021/1118 16007KT 6SM BR OVC012
      TEMPO 1021/1024 3SM BR OVC008
     FM110000 14008KT 2SM -FZRAPL BR OVC006 WS020/20030KT
     FM110300 14005KT 2SM -RA BR OVC004 WS020/20030KT
     FM111000 20004KT 2SM -DZ BR OVC004=

0000011700
135
SARM31 LUKK 102100
METAR LUKK 102100Z 31010G21KT CAVOK 06/M01 Q1013 R26/CLRD65
TEMPO 30016G30KT=

0000009200
136
SACG20 FCBB 102100
METAR FCBB 102100Z VRB01KT 8000 NSC 25/23 Q1013 NOSIG=

0000069800
137
SATU32 LTAA 102050
METAR LTAG 102050Z 05007KT CAVOK 02/M01 Q1020 NOSIG=
METAR LTAN 102050Z VRB02KT 2500 BR OVC004 M01/M02 Q1022 NOSIG=
METAR LTAP 102050Z 19004KT 140V220 CAVOK M03/M05 Q1021 NOSIG=
METAR LTAT 102050Z 23006KT CAVOK M07/M09 Q1022 NOSIG=
METAR LTAU 102050Z 00000KT 2100 BCFG VV002 M03/M04 Q1023 BECMG 0400
 FZFG=
METAR LTBF 102050Z 00000KT 1200 R36/1300U R18/1400U BR NSC 01/01
 Q1021 BECMG 0300 FZFG VV003=
METAR LTBU 102050Z VRB03KT 4500 BR FEW018 07/07 Q1020=
METAR LTCC 102050Z 26002KT CAVOK M02/M05 Q1021 NOSIG=
METAR LTCE 102050Z 00000KT 1800 BR NSC M26/M28 Q1022 BECMG TL2200
 1200 BCFG=
METAR LTCJ 102050Z 07003KT CAVOK M01/M02 Q1021=

0000050700
138
SACU31 MUHA 102100
METAR
MUHA 102055Z 14006KT 100V190 9000 SCT040 29/17 Q1016=
MUVR 102051Z 03010KT 9000 SCT020 27/21 Q1017=
MUSC 102050Z 08013KT 050V110 9000 SCT020 28/21 Q1016=
MUCC 102050Z 09011KT 060V120 9000 SCT020 28/22 Q1017=
MUCM 102051Z 07016KT 9999 FEW020 28/17 Q1016=
MUHG 102050Z 09015KT 050V120 9999 FEW020 29/18 Q1015=
MUCU 102050Z 13015KT 9999 FEW020 28/20 Q1015=
MUCL 102051Z 11011KT 9999 FEW020 28/23 Q1016=
MUCF 102051Z 22009KT 9999 SCT020 30/22 Q1016=

0000058000
139
SATU33 LTAA 102050
METAR LTAR 102050Z 16004KT CAVOK M05/M09 Q1020=
METAR LTAY 102050Z 00000KT CAVOK M02/M04 Q1021=
METAR LTBR 102050Z 11005KT CAVOK 02/M03 Q1023 NOSIG=
METAR LTBY 102050Z 10007KT 6000 OVC008 M01/M02 Q1023=
METAR LTCA 102050Z 28006KT CAVOK M06/M08 Q1022 NOSIG=
METAR LTCD 102050Z 23002KT CAVOK M12/M13 Q1023 NOSIG=
METAR LTCF 102050Z 00000KT CAVOK M22/M24 Q1022=
METAR LTCI 102050Z 06004KT 6000 FEW040 BKN080 M10/M11 Q1020 NOSIG=
METAR LTDA 102050Z 08004KT CAVOK 03/00 Q1022=
METAR LTFH 102050Z VRB05KT CAVOK 06/M02 Q1016 NOSIG=

0000063400
140
SATU34 LTAA 102050
METAR LTAL 102050Z NIL=
METAR LTAS 102050Z NIL=
METAR LTAW 102050Z NIL=
METAR LTBD 102050Z NIL=
METAR LTBH 102050Z NIL=
METAR LTBO 102050Z NIL=
METAR LTCK 102050Z NIL=
METAR LTCL 102050Z NIL=
METAR LTCM 102050Z NIL=
METAR LTCN 102050Z NIL=
METAR LTCO 102050Z 00000KT 0750 0150N R16/0150N R34/P1500N BCFG
 OVC006 M26/M28 Q1022=
METAR LTCP 102050Z NIL=
METAR LTCR 102050Z 34001KT CAVOK 07/M08 Q1021=
METAR LTCT 102050Z NIL=
METAR LTCU 102050Z NIL=
METAR LTCV 102050Z NIL=
METAR LTFD 102050Z 12003KT 080V160 6000 FEW035 SCT100 06/03 Q1021=
METAR LTFG 102050Z NIL=

0000010000
141
SAAG41 SAVC 102100
METAR SAVC 102100Z  05010KT 9999  SCT040 SCT200
20/02 Q1012=

0000009500
142
SALI20 GLRB 102100
METAR GLRB 102100Z 00000KT 9999 FEW014 26/25 Q1011 NOSIG=

0000133900
143
FTUS80 KWBC 102100 AAA
TAF AMD
KACT 102059Z 1021/1118 22013KT P6SM BKN090
     FM110400 VRB05KT P6SM SCT250
     FM111400 31006KT P6SM SKC=
KCHO 102057Z 1021/1118 00000KT 1 1/2SM -DZ BR OVC002
     FM102300 00000KT 2SM BR OVC003
     FM110100 00000KT 2SM -RA BR OVC003
     FM111000 VRB03KT 1SM BR OVC003 WS020/20035KT
     FM111300 19006KT 1/2SM FG OVC003 WS020/20040KT
     FM111600 19008KT 3/4SM BR OVC003 WS020/20045KT
     FM111700 19008KT 1SM SHRA BR OVC003 WS020/20045KT=
KDAL 102059Z 1021/1118 22015KT P6SM SCT040 BKN100
     FM102300 25014KT P6SM SCT250
     FM110300 32008KT P6SM SKC=
KDFW 102059Z 1021/1124 22015KT P6SM SCT040 BKN100
     FM102300 25014KT P6SM SCT250
     FM110200 32008KT P6SM SKC=
KELY 102058Z 1021/1118 30011KT P6SM SCT060
     FM110200 19006KT P6SM SCT080
     FM111200 18012KT P6SM SCT100=
KFTW 102059Z 1021/1118 22015KT P6SM SCT040 BKN100
     FM102300 25014KT P6SM SCT250
     FM110200 32008KT P6SM SKC=
KICT 102059Z 1021/1118 30014KT P6SM FEW020 SCT120
     FM110000 28011KT P6SM BKN120
     FM111600 28013G20KT P6SM SKC=
KLCK 102059Z 1021/1118 17009KT P6SM SCT010 BKN035
      TEMPO 1100/1103 BKN015
     FM110300 17010KT 5SM BR VCSH OVC015
     FM110700 17012KT 4SM -RA BR OVC008
     FM111400 23014G23KT P6SM VCSH OVC012=

0000047800
144
FTUS80 KWBC 102100 AAB
TAF AMD
KSAN 102059Z 1021/1124 29007KT P6SM SCT250
     FM110200 VRB04KT P6SM FEW250
     FM110400 VRB03KT P6SM SCT005
      TEMPO 1110/1114 6SM BR
     FM112000 26007KT P6SM FEW250=
KTVC 102056Z 1021/1118 16007KT 6SM BR OVC012
      TEMPO 1021/1024 3SM BR OVC008
     FM110000 14008KT 2SM -FZRAPL BR OVC006 WS020/20030KT
     FM110300 14005KT 2SM -RA BR OVC004 WS020/20030KT
     FM111000 20004KT 2SM -DZ BR OVC004=

0000035600
145
SPUS70 KWBC 102100
SPECI
KEQY 102056Z AUTO 01007KT 2SM RA BR BKN003 BKN022 OVC028 07/06
     A3018 RMK AO2 P0001=
KLGA 102056Z 05006KT 1 1/2SM BR BKN010 OVC022 01/M01 A3037 RMK
     AO2=
KLXT 102057Z AUTO 22006KT 1/4SM FG VV002 04/04 A2954 RMK AO2
     T00440039=
KMSP 102057Z 15009KT 6SM BR OVC006 M01/M02 A2959 RMK AO2 $=

0000010500
146
SPUS31 KWBC 102100
SPECI
KLGA 102056Z 05006KT 1 1/2SM BR BKN010 OVC022 01/M01 A3037=

0000009500
147
SAPF20 NTAA 102100
METAR NTAA 102100Z 26003KT 9999 FEW020 30/22 Q1012 NOSIG=

0000012400
148
SAEQ01 SEQU 102100 RRA
METAR SEGU 102100Z 00000KT 9999 VCSH SCT023 OVC100 29/23 Q1007 RMK 
A2974 NOSIG=

0000010000
149
SAAG41 SAEZ 102100
METAR SAEZ 102100Z 21005KT 160V250 9999 FEW050TCU 31/14 Q1007=

0000010400
150
SAAG41 SADF 102100
METAR SADF 102100Z  34007KT 9999  SCT040TCU BKN100
 30/21 Q1006=

0000010400
151
SACN61 CYLW 102100
METAR CYLW 102100Z AUTO 04007KT 9SM OVC055 04/00 A2984 RMK SLP118=

0000011300
152
SACN61 CYMM 102100
METAR CYMM 102100Z AUTO 31006KT 9SM -SN OVC018 M12/M14 A2944 RMK
 SLP999=

00000000