0000179000
773
SZPS01 AMMC 110100
CREX++
T000103 A001 D01021 D06025++
-0204190 14737360 56130 2014 01 11 00 53 3027 11 07 00 01
01054 0156 01060 0161 01059 0159 01063 0162 01066 0165 01071 0169+
-0669280 15640860 56363 2014 01 11 00 53 //// 11 07 00 01
01102 -0053 01105 -0051 01106 -0051 01107 -0051 01111 -0048 01112 -0047+
-0942890 15995560 56670 2014 01 11 00 53 3038 11 07 00 01
01012 -0044 01009 -0046 01010 -0045 01007 -0048 01005 -0050 01006 -0049+
-1072080 16580190 57131 2014 01 11 00 53 //// 11 07 00 01
02098 1009 00962 -0129 00968 -0125 01460 0365 01527 0430 01062 -0036+
-1551560 16718860 57210 2014 01 11 00 53 //// 11 07 00 01
01181 -0118 01198 -0103 01199 -0105 01193 -0113 01196 -0113 01208 -0104+
-1775690 16830030 57320 2014 01 11 00 53 3015 11 07 00 01
01070 -0103 01070 -0106 01072 -0106 01073 -0107 01074 -0109 01076 -0109+
-4397330 16861610 65180 2014 01 11 00 53 2883 11 07 00 01
01185 0365 01194 0377 01185 0370 01179 0367 01165 0355 01163 0355+
-2120470 -15978530 65980 2014 01 11 00 53 3008 11 07 00 01
00816 0054 00763 0000 00778 0013 00790 0023 00837 0069 00783 0013+
-2113810 -17518140 66600 2014 01 11 00 53 //// 11 07 00 01
01402 0070 01412 0076 01409 0069 01412 0069 01419 0072 01428 0077+
-1382670 -17176110 66840 2014 01 11 00 53 3010 11 07 00 01
01147 0061 01155 0067 01160 0069 01175 0082 01169 0074 01165 0068+
-1813250 17842750 67050 2014 01 11 00 53 3032 11 07 00 01
01580 0082 01582 0080 01588 0082 01593 0083 01601 0087 01606 0088+
-1760530 17743810 67070 2014 01 11 00 53 3030 11 07 00 01
01697 0040 01701 0039 01705 0039 01708 0038 01710 0035 ///// ////+
-0850250 17919500 67440 2014 01 11 00 53 3030 11 07 00 01
02522 0029 02518 0022 02519 0020 02526 0025 02532 0028 02536 0030++
7777

0000008700
774
SACN44 CWAO 110100
METAR CWRF 110100Z AUTO ///// M35/ A2928 RMK SLP978=
0000008900
775
SACN51 CWAO 110100
METAR CWLI 110100Z AUTO 29018KT M33/ A2958 RMK SLP037=
0000009600
776
SACN51 CWAO 110100
METAR CWOB 110100Z AUTO 05006KT FEW001 M22/ A2920 RMK SLP948=
0000005200
777
RRIN23 VECC 110059
RQRPT 279-300=

0000155100
778
FCIN31 VECC 110000
TAF VAAH 110000Z NIL=
TAF VANP 110000Z 1103/1112 00000KT 0800 FG VV///
    BECMG 1104 1106 23004KT 2000 BR FEW020
    BECMG 1107 1109 23005KT 4000 HZ FEW100=
TAF VEAT 110000Z 1103/1112 33005KT 1200 BR NSC BECMG 1105/1106
    3000 HZ=
TAF VEBS 110000Z 1103/1112 05004KT 1500 BR FEW020 BECMG
    1106/1108 2000 HZ=
TAF VECC 110000Z 1103/1112 00000KT 0800 FG NSC
     BECMG 1105/1107 1000 MIFG
     BECMG 1110/1112 36005KT 2500 HZ=
TAF VEGT 110000Z 1103/1112 00000KT 1500 BR NSC BEC 1107/1109 05004KT
      3000 HZ FEW018 SCT100 BEC 1110/1112 00000KT 2000 BR SCT100=
TAF VEGY 110000Z 1103/1112 00000KT 0800 FG NSC BECMG 1109/1112 1200
     BR=
TAF VEIM 110000Z 1103/1112 00000KT 1300 BR NSC BEC 1107/1109 07005KT
      2500 HZ FEW018 SCT100 BEC 1110/1112 00000KT 2000 BR SCT100=
TAF VEMN 110000Z NIL=
TAF VEPT 110000Z 1103/1112 00000KT 0800 FG NSC BECMG 1109/1112 1200
     BR=
TAF VERC 110000Z 1103/1112 00000KT 0800 FG NSC BECMG 1109/1112 2000
     HZ=
TAF VGEG 110000Z NIL=
TAF VGHS 110000Z NIL=
TAF VIJP 110000Z 1103/1112 VRB02KT 1000 FU SCT035 SCT100 BECMG
     1105/1107 09004KT 3000 FU/HZ=
TAF VNKT 110000Z NIL=
TAF VOBG 110000Z 1103/1112 09010KT 3000 HZ SCT010 BECMG 1104/1105
    6000 FEW015=
TAF VOHY 110000Z 1103/1112 14008KT 3000 HZ NSC BECMG 1105/1107
    15010KT 5000 HZ FEW020=
TAF VOTV 110000Z 1103/1112 00000KT 4000 HZ FEW015 SCT100
    BECMG 1104/1105 14005KT 5000 HZ 
    TEMPO 1109/1112 2000 TSRA/RA SCT008 SCT012 FEW025CB OVC090=

0000050600
779
SAIN33 VECC 110050
METAR VECC 110050Z 00000KT 0400 R19L/0500 RMID/0600 R01R/0700 FG NSC
     12/11 Q1015 BECMG 0300 HZ=
METAR VEPT 110050Z 09007KT 0400 -TSRA SCT018 FEW030 OVC080 13/13
    Q1016=
METAR VGEG 110050Z 00000KT 0100 FG SCT003 14/13 Q1014 NOSIG=
METAR VGHS 110050Z 00000KT 0400 FG BKN003 14/13 Q1014 TEMPO S/VIS
    0200M=
METAR VNKT 110050Z 17004KT 2500 BR FEW015 SCT025 OVC100 06/03 Q1020
    NOSIG=
METAR VQPR 110050Z 00000KT 9999 SCT040 M05/M07 Q1024 NOSIG=
0000010100
780
SAIN90 VIAR 110100
METAR VIAR 110100Z 00000KT 0800 R34/2000N MIFG FEW100 05/05 Q1018=
0000008900
781
SACN51 CWAO 110100
METAR CWPX 110100Z AUTO 22004KT M29/ A2930 RMK SLP957=
0000010800
782
SACN51 CWAO 110100
METAR CWCA 110100Z 22010G21KT 15SM OVC040 M12/M14 A2979 RMK SC8
SLP089=
0000009200
783
SACN52 CWAO 110100
METAR CWTU 110100Z AUTO 25027G33KT M17/ A2944 RMK SLP037=
0000007800
784
SACN51 CWAO 110100
METAR CWRX 110100Z AUTO 27012KT M25/ A2925=
0000019800
785
UQCN02 CWAO 110000
PPDD  61008 71836 9559/ 28074 27587 97013 27584 28081 26577
978// 27091 98035 26080 26100 26094 99024 25114 24126 24612
99679 24122 24144 24146 100// 24147=

0000017400
786
UECN02 CWAO 110000
TTDD  6100/ 71836 11731 70568 22348 72369 33250 73569 44171
70970 55133 63375 66122 59178 77091 55181 88083 49183 51515
10190 07164=

0000066500
787
UDAS02 BABJ 110050
AMDAR 1100
DES CNFPXL 3153N 11839E 110045 F044 MS045 113/016 TB/ S//1=
DES CNFPXL 3150N 11840E 110046 F043 MS043 108/016 TB/ S//1=
DES CNFPXL 3147N 11841E 110047 F036 MS030 104/016 TB/ S//1=
DES CNFOZN 3955N 11638E 110046 F024 MS053 248/003 TB/ S//1=
DES CNFOZN 3958N 11638E 110047 F016 MS033 310/013 TB/ S//1=
DES CNFOZN 4001N 11637E 110048 F006 MS045 020/002 TB/ S//1=
LVR CNFPYN 2819N 11442E 110047 F236 MS215 259/072 TB/ S//1=
LVR CNFPYN 2818N 11436E 110048 F236 MS215 260/071 TB/ S//1=
LVR CNFPYN 2818N 11434E 110048 F236 MS213 260/071 TB/ S//1=
LVR CNFPYN 2817N 11431E 110049 F236 MS215 261/072 TB/ S//1=
0000078900
788
UDAS02 BABJ 110052
AMDAR 1100
LVR CNFLWQ 2924N 10643E 110041 F351 MS445 260/118 TB/ S//1=
LVR CNFLWQ 2947N 10644E 110044 F351 MS456 262/114 TB/ S//1=
LVR CNFLWQ 3010N 10654E 110047 F351 MS464 261/113 TB/ S//1=
LVR CNFLWQ 3033N 10708E 110050 F351 MS473 259/106 TB/ S//1=
DES CNFNXP 3139N 12014E 110048 F160 MS159 263/059 TB/ S//1=
DES CNFNXP 3135N 12020E 110049 F148 MS124 265/052 TB/ S//1=
DES CNFNXP 3133N 12026E 110049 F145 MS125 267/051 TB/ S//1=
DES CNFNXP 3133N 12027E 110050 F142 MS120 267/049 TB/ S//1=
LVR CNFPYL 2700N 11729E 110040 F256 MS198 258/098 TB/ S//1=
LVR CNFPYL 2712N 11716E 110043 F256 MS200 255/099 TB/ S//1=
LVR CNFPYL 2726N 11702E 110046 F256 MS206 253/097 TB/ S//1=
LVR CNFPYL 2740N 11651E 110049 F256 MS209 252/102 TB/ S//1=
0000016800
789
ULCN02 CWAO 110000
TTCC  61001 71836 70768 70368 27583 50968 70769 27583 30269
72769 27079 20507 71770 26596 10930 54781 24134 88999 66083
24147=

0000016700
790
SOVI10 KWAL 110101
B110070A 011010101"P9751095 B\P~W@@v0ek@1@qd???CyCz>@q_3@FD@@O4D@5DA6bV9HD2?????@"??? ?T@zLBoBoBdBiBiBk:AMPTEMP 28.37C  47-0NN 219E
0000033400
791
SNVD19 KWNB 102000 RRB
BBXX
46126 10201 99540 71666 46/// /1501 10034 49926 91948 22200 00044
333 91202 555 11012 22013=
46126 10201 99540 71666 46/// /1501 10034 49926 91950 22200 00044
333 91202 555 11012 22013=
46126 10201 99540 71666 46/// /1701 10034 49926 91954 22200 00044
333 91202 555 11009 22009=
0000014000
792
SNVD19 KWNB 102000 RRC
BBXX
46126 10201 99540 71666 46/// /1701 10033 49918 92000 22200 00047
333 91201 555 11007 22007=
00000000