0000165000
013
SMTN01 HTDA 110600
AAXX 11064
63729 12480 70000 10205 20174 38890 48/// 60054 8397/
  333 0//69 20171 50391 55304 58002 83617 81919 87358=
63733 12580 10906 10233 20180 38883 48524 69904 81931
  333 0//19 20181 50601 55102 55310 58005 81921=
63756 32580 10000 10225 20172 38890 48527 81900
  333 20186 50501 55084 55310 58007 81821 81922=
63791 32580 10608 10230 20176 39155 48535 81200
  333 20180 51101 55115 55310 58007 81826=
63801 31580 70000 10220 20198 39228 48550 71722 81931
  333 20204 50251 55053 55305 58007 81820 81921 86079=
63832 12480 30000 10210 20195 38849 48514 60124 82230
  333 0//29 20175 50201 55025 55310 58004 82819 83358=
63862 12580 40000 10228 20193 38922 48536 84500
  333 0//37 20182 5///1 55077 55310 58007 70740 84620=
63866 32580 30000 10260 20192 39545 48/// 83100
  333 20219 51101 55111 55310 58011 83824=
63870 32480 50314 10294 20236 30123 40141 85200
  333 20254 50901 55113 55310 58011 85819=
63881 12480 70000 10166 20148 38221 48/// 60044 8117/
  333 0//99 2//// 50031 55/// 553// 58009 81818 87357=
63887 12480 10000 10216 20183 38613 48535 60054 81130
  333 0//19 20172 50331 55047 55310 59008 70053 81818=
63894 32580 53610 10284 20235 30088 40148 85500
  333 20260 50801 55087 553// 58012 83623 85825=
63932 12580 70000 10180 20161 3//// 4//// 69944 8497/
  333 0//19 20135 50241 55/// 553// 5//// 84820 81921 86358=
63962 12470 70000 10207 20195 38978 48536 60744 85930
  333 0//99 20161 50221 55061 55300 58011 85818 81920 86358=
63971 32580 43312 10280 20245 30014 40143 84900
  333 20248 5///1 55112 55308 58017 84823 81924=
0000191300
014
SZAU01 AMMC 110633
CREX++
T000103 A001 D01021 D06025++
-1927750 14705860 59260 2014 01 11 06 26 3030 11 07 00 01
02108 0208 02112 0206 02114 0203 02127 0211 02132 0210 02137 0210+
-2316110 15079000 59670 2014 01 11 06 26 3003 11 07 00 01
02978 0104 02988 0106 02984 0094 02991 0091 02989 0081 02997 0080+
-3447330 15091170 60420 2014 01 11 06 26 2957 11 07 00 01
01055 -0031 01057 -0030 01059 -0029 01057 -0032 01051 -0039 01047 -0044+
-4105000 14591500 60910 2014 01 11 06 26 2892 11 07 00 01
01572 -0043 01582 -0043 01588 -0049 01608 -0039 01621 -0036 01630 -0039+
-4254640 14793080 61170 2014 01 11 06 26 2895 11 07 00 01
01283 0078 01289 0083 01292 0085 01283 0076 01283 0075 01273 0064+
-3834390 14161360 61410 2014 01 11 06 26 2905 11 07 00 01
00481 0068 00493 0079 00475 0060 00451 0035 00460 0043 00474 0056+
-3214890 13364170 62000 2014 01 11 06 26 2963 11 07 00 01
01163 0176 01165 0176 01167 0176 01169 0175 01171 0174 01174 0175+
-3387080 12189720 62080 2014 01 11 06 26 2945 11 07 00 01
00764 0057 00771 0063 00804 0096 00801 0092 00787 0077 00793 0083+
-3182560 11573860 62237 2014 01 11 06 26 2972 11 07 00 01
00840 0048 00846 0053 00839 0045 00850 0055 00849 0053 00853 0056+
-2422000 11339750 62385 2014 01 11 06 26 //// 11 07 00 01
01202 -0051 01190 -0065 01224 -0033 01159 -0099 01200 -0060 01190 -0072+
-2181670 11419110 62430 2014 01 11 06 26 //// 11 07 00 01
01751 -0039 01757 -0035 01760 -0035 01760 -0037 01774 -0025 01770 -0032+
-1800080 12221830 62650 2014 01 11 06 26 3043 11 07 00 01
05306 0117 05315 0114 05323 0115 05332 0118 05340 0114 05349 0116+
-1247190 13084580 63230 2014 01 11 06 26 3050 11 07 00 01
05546 0180 05546 0184 05545 0185 05545 0188 05544 0192 05543 0193+
-1386000 13641580 63511 2014 01 11 06 26 3045 11 07 00 01
01585 0104 01585 0102 01582 0099 01584 0099 01585 0098 01585 0097++
7777

0000046700
015
SZPA01 AMMC 110633
CREX++
T000103 A001 D01021 D06025++
0136250 17293000 67590 2014 01 11 06 26 3017 11 07 00 01
01506 0044 01495 0036 01501 0045 01498 0045 01488 0038 01496 0049+
0710610 17137250 67680 2014 01 11 06 26 3013 11 07 00 01
00960 0122 00956 0121 00958 0125 00955 0124 00950 0121 00948 0122+
0698060 15820000 67950 2014 01 11 06 26 3023 11 07 00 01
00723 0006 00721 0006 00719 0005 00720 0008 00719 0009 00722 0014++
7777

0000178800
016
SZPS01 AMMC 110633
CREX++
T000103 A001 D01021 D06025++
-0204190 14737360 56130 2014 01 11 06 26 3028 11 07 00 01
01072 0069 01068 0066 01070 0070 01066 0067 01064 0067 01071 0075+
-0669280 15640860 56363 2014 01 11 06 26 //// 11 07 00 01
00655 -0081 00660 -0073 00656 -0075 00659 -0070 00651 -0075 00655 -0069+
-0942890 15995560 56670 2014 01 11 06 26 3043 11 07 00 01
00810 -0043 00809 -0043 00809 -0042 00808 -0042 00808 -0041 00812 -0036+
-1072080 16580190 57131 2014 01 11 06 26 //// 11 07 00 01
03380 2742 03380 2745 03380 2748 03381 2753 03380 2755 03380 2758+
-1551560 16718860 57210 2014 01 11 06 26 //// 11 07 00 01
00833 -0092 00846 -0075 00832 -0085 00838 -0075 00821 -0089 00809 -0096+
-1775690 16830030 57320 2014 01 11 06 26 3015 11 07 00 01
00937 -0071 00935 -0069 00933 -0068 00929 -0069 00925 -0069 00921 -0070+
-4397330 16861610 65180 2014 01 11 06 26 2888 11 07 00 01
02220 0371 02221 0368 02220 0363 02221 0360 02208 0343 02242 0374+
-2120470 -15978530 65980 2014 01 11 06 26 3013 11 07 00 01
00653 0007 00654 0010 00657 0015 00673 0033 00622 -0016 00651 0014+
-2113810 -17518140 66600 2014 01 11 06 26 //// 11 07 00 01
01104 0083 01112 0095 01104 0091 01107 0099 01096 0092 01090 0090+
-1382670 -17176110 66840 2014 01 11 06 26 3012 11 07 00 01
00683 0037 00670 0027 00665 0025 00665 0028 00649 0014 00654 0022+
-1813250 17842750 67050 2014 01 11 06 26 3032 11 07 00 01
01301 0105 01298 0106 01293 0106 01287 0105 01287 0109 01278 0105+
-1760530 17743810 67070 2014 01 11 06 26 3033 11 07 00 01
01301 0005 01295 0005 01289 0004 01284 0005 01278 0004 ///// ////+
-0850250 17919500 67440 2014 01 11 06 26 3030 11 07 00 01
01862 0000 01859 0001 01854 0000 01851 0001 01850 0004 01848 0006++
7777

0000034100
017
SZIO01 AMMC 110633
CREX++
T000103 A001 D01021 D06025++
-1211670 09689190 46280 2014 01 11 06 26 3017 11 07 00 01
01258 0045 01262 0048 01256 0041 01257 0041 01256 0039 01258 0039+
-1042940 10566940 46290 2014 01 11 06 26 //// 11 07 00 01
01258 0028 01256 0025 01282 0048 01282 0046 01264 0026 01321 0080++
7777

0000307800
018
SMZA01 FAPR 110600
AAXX 11064
68174 11530 81507 10192 20170 38815 48538 53018 60034 79599 8498/
      333 20189 91011 555 10308 20030 91021=
68191 16/// /1608 10231 20201 39670 48570 53003 60044
      333 20215 91012 555 10369 20042 91018=
68242 32880 21506 10238 20084 38742 48526 52015 82070
      333 20179 91008 555 10350 91019=
68262 36/// /0504 10252 20151 38724 48535 52015
      333 20189 91008 555 10337 91020=
68263 32880 10208 10223 20142 38505 48531 52012 81070
      333 20168 91013 555 10301 91022=
68267 31465 50709 10170 20146 38279 48551 52010 69954 70522 85530
      333 20146 555 10278 20005 91025=
68289 16/// ///// 10216 20178 39184 48557 52006 60114
      333 20191 555 10327 20116 91020=
68350 36/// /0603 10240 2//// 38682 48535 53006
      333 20134 91005 555 10329 91021=
68368 NIL=
68403 36/// /1908 10176 20133 30135 40163 52013
      333 20141 91012 555 10255 91016=
68424 32982 01605 10219 20063 39211 48536 53011
      333 20161 91008 555 10312 91017=
68438 32982 01110 10224 20113 38832 48529 52011
      333 20147 91013 555 10314 91019=
68442 36/// /0505 10210 20114 38671 48525 52013
      333 20136 91008 555 10304 91020=
68461 32480 20708 10189 20142 38349 48536 53011 82500
      333 20148 91013 555 10279 91023=
68512 32982 01202 10184 20070 39035 48531 53006
      333 20126 91003 555 10233 91019=
68538 32982 01112 10189 20115 38748 48532 53010
      333 20140 91016 555 10284 91020=
68587 36/// /2311 10236 20172 30158 40170 53010
      333 20215 91020 555 10264 91017=
68588 16/// /2204 10237 20170 30168 40184 52016 60024
      333 20203 91007 555 10272 20022 91018=
68591 16/// /2109 10229 20160 30003 40182 52012 69924
      333 20211 91013 555 10270 20002 91018=
68592 12670 72205 10229 20183 30053 40176 52015 60034 875//
      333 20205 91007 555 10286 20034 91018=
68618 12980 11113 10184 20098 39064 48530 52003 80001
      333 20092 91017 555 10244 91018=
68633 36/// /2711 10150 20102 38537 48531 53013
      333 20116 91014 555 10269 91022=
68668 32570 71608 10178 20125 39338 48558 53010 875//
      333 20162 91011 555 10247 91020=
68714 36/// /2006 10177 20126 30135 40171 52008
      333 20135 91010 555 10243 91017=
68727 36/// /0411 10174 20098 39151 48533 52007
      333 20136 91016 555 10266 91019=
68752 16/// /2611 10163 20083 39510 48556 5//// 60054
      333 20119 91015 555 10238 20056 91020=
68816 32582 11708 10192 20124 30122 40176 53013 81500 333 20154 91011 555 10235 91017=
68828 12470 39901 10174 20127 39958 40191 53006 60024 83500 333 20127 555 10191 20016 91019=
68842 32980 42612 10200 20129 30116 40186 52010 82078 333 20171 555 10246 91018=
68858 42980 00614 10204 20125 30032 40187 51010 333 20165 555 10248 91018=
68906 NIL=
68994 11597 70707 10087 20063 39965 49994 53033 60054 71122 8657/
      222// 00075 305// 40602
      333 20065 91018 555 10118 20050 90999=
89004 32770 71111 11050 21098 38919 49929 53003 8707/
      333 21061 91012 555 11010 90987=
0000013400
019
SMSD10 OEJD 110600 RRA
AAXX 11064
40362 41657 73310 10074 20060 39671 40197 71000 85470 333 20058 58046 85640 87360=
0000010900
020
UANT01 CWAO 110628
ARP LOT46 5531N05113W 0628 F390 MS61 278/64 KT
SPLRD DDL XXW 110628 L16A
0000011000
021
UANT01 CWAO 110628
ARP UAL17 5108N03455W 0628 F360 MS55 198/31 KT
N48127 DDL IG1 110628 F58A
0000011000
022
UANT01 CWAO 110628
ARP BAW18A 4835N05150W 0627 F330 MS61 290/52 KT
GYMMN QXT AOW 110628 F00A
0000016000
023
SSVX02 LFVW 110632
ZZYY 56957 11014 0625/ 328880 052498 6113/
22219 00243
33311 88872 20000 32427 43307
444 2013/ 11014 0624/ 50101 9/015=
0000144400
024
SSVX08 KARS 110627
ZZYY 13002 10014 1200/ 720444 023132 6112/
33311 88872 20001 32153 43671 20020 32152 20040 32148 43670
20080 32043 20100 31854 20120 31779 20140 31775 20180 31731
20300 31467 20500 31069
444 20120 10014 1140/ 521//=
ZZYY 13002 11014 05004 720444 023135 6111/
11119 00207 10198 29078
22219 00215
444 20110 11014 0547/ 521// 60401=
ZZYY 15007 10014 1200/ 305994 008000 6111/
33311 88872 20020 31811 43576 20040 31711 43580 20060 31655 43575
20080 31622 20100 31591 20120 31562 20140 31535 20180 31472
20300 31130 20500 30742
444 20110 10014 1141/ 521//=
ZZYY 15007 11014 05004 306010 007993 6111/
11119 01807 10262 29074 40111
444 20110 11014 0539/ 521// 60401=
ZZYY 31006 10014 1200/ 704046 022978 6112/
33311 88872 20020 32744 43552 20040 32744 43571 20060 32327 43631
20080 31725 20100 31599 20120 31538 20140 31497 20180 31438
20300 31160 20500 30741
444 20120 10014 1148/ 521//=
ZZYY 31006 11014 05004 704042 022972 6111/
11119 00114 10266 29086
444 20110 11014 0349/ 521// 60401=
ZZYY 13001 10014 1200/ 711462 022996 6112/
33311 88872 20001 32484 43550 20020 32484 43550 20040 32396 43558
20060 31761 43573 20080 31533 20100 31428 20120 31372 20140 31336
20180 31261 20300 31119 20500 30953
444 20120 10014 1146/ 521//=
ZZYY 13001 11014 05004 711460 022985 6111/
11119 00213 10230 29077 40128
22219 00248
444 20110 11014 0534/ 521// 60401=
0000011100
025
UANT01 CWAO 110628
ARP DAL248 5902N03141W 0628 F380 MS55 215/35 KT
N810NW DDL XXW 110628 J43A
0000011000
026
UANT01 CWAO 110628
ARP BAW17V 5230N03255W 0628 F340 MS58 202/49 KT
GYMMT QXT AOW 110628 F13A
0000010900
027
UANT01 CWAO 110629
ARP DAL7 5819N05725W 0629 F340 MS56 280/64 KT
N705DN QXS YHO 110629 F27A
0000011100
028
UANT01 CWAO 110629
ARP UAL924 4548N05119W 0629 F370 MS61 307/50 KT
N778UA DDL YYT 110629 F15A
0000014300
029
UANT01 CWAO 110629
ARP GTI603 5017N04412W 0559 F350 5100N04000W 0620 5300N03000W MS62
 323/62 KT
N850GT DDL H17 110629 F34A
0000011000
030
UANT01 CWAO 110630
ARP UAL77 4929N04756W 0630 F350 MS64 306/57 KT
N14118 DDL YYT 110630 F74A
0000011000
031
UANT01 CWAO 110630
ARP AFR689 4644N04134W 0629 F370 MS54 316/48 KT
FGSPT QXT AOW 110630 F13A
0000013200
032
SMSG01 GOOY 110600 RRA
AAXX 11064
61697 32960 03606 10176 20139 30114 40129
  333 01700 20175 50234 55091 58015=
00000000