0000099900
213
SABZ42 KWBC 102100
METAR
SBJR NIL=
SBLO 102100Z 04007KT 9999 FEW040 32/17 Q1011=
SBMA 102100Z 11003KT 9999 FEW020 29/23 Q1008=
SBME NIL=
SBMN 102100Z 28005KT 9999 VCSH BKN025 FEW030TCU BKN100 27/23 Q1
     008=
SBMO 102100Z 10009KT 9999 SCT018 SCT080 27/22 Q1012=
SBMQ 102100Z 06004KT 9999 FEW017 BKN100 28/22 Q1008=
SBMT NIL=
SBPC NIL=
SBPK 102100Z 35004KT CAVOK 22/21 Q1009=
SBPP 102100Z 00000KT CAVOK 28/19 Q1011=
SBPV 102100Z 00000KT 9999 BKN025 FEW030TCU 31/22 Q1006=
SBRB 102100Z 25001KT 9999 SCT020 FEW025TCU ///// Q1007=
SBRJ 102100Z 20011KT 9999 FEW035TCU 29/22 Q1010=
SBSC NIL=
SBSJ NIL=
SBSM NIL=
SBSP 102100Z 06003KT 010V090 9999 -TSRA FEW011 SCT030 FEW040CB
     BKN100 24/19 Q1016=
SBST NIL=
SBTE 102100Z 05001KT 9999 VCSH SCT030 SCT090 30/21 Q1008=
SBTU NIL=
SBUG 102100Z 10009KT 9999 VCTS SCT020 FEW035CB SCT080 25/20 Q10
     07=
SBUR NIL=
SBVH NIL=
SBVT 102100Z 08008KT 9999 FEW025 28/22 Q1013=
SBYS NIL=

0000061500
214
SABZ43 KWBC 102100
METAR
SBAN NIL=
SBAT NIL=
SBBA NIL=
SBBQ NIL=
SBBW NIL=
SBCC NIL=
SBER NIL=
SBES NIL=
SBGA NIL=
SBIZ NIL=
SBJF NIL=
SBJP 102100Z 13010KT 9999 SCT025 26/21 Q1012=
SBKG NIL=
SBLB NIL=
SBLP NIL=
SBMK NIL=
SBMS NIL=
SBMZ NIL=
SBPB 102100Z 07013KT 9999 FEW020 29/24 Q1009=
SBPJ NIL=
SBPL 102100Z 05004KT 9999 FEW025 29/18 Q1011=
SBPN NIL=
SBQV NIL=
SBRP 102100Z 06004KT 9999 -TSRA FEW040 FEW045CB BKN080 23/19 Q1
     013=
SBTF 102100Z 07009KT 9999 SCT013 SCT017 BKN090 28/25 Q1008=
SBTK NIL=
SBUF NIL=
SBUI NIL=
SBUL NIL=

0000085000
215
SAAK32 KWBC 102100
METAR
PABA NIL=
PABI 102053Z 26003KT 3SM -SN BR BKN048 OVC070 M18/M20 A2950=
PACZ 102055Z AUTO VRB03KT 10SM FEW021 M06/M07 A2944=
PADK 102056Z AUTO 24021G27KT 10SM SCT025 SCT037 BKN050 03/M01
     A2895=
PADL NIL=
PADQ 102053Z 00000KT 10SM SCT040 01/M03 A2946=
PAEH 102055Z AUTO 13022G28KT 5SM -SHRA BKN003 00/00 A2936=
PAFB 102055Z 00000KT 25SM SCT080 M24/M26 A2959=
PAGA 102058Z AUTO 00000KT 10SM CLR M24/M26 A2970=
PAIM 102055Z AUTO VRB03KT 10SM CLR M21/M26 A2959=
PALU 102055Z AUTO 11004KT 10SM BKN011 M19/M21 A3004=
PASV 102055Z AUTO VRB01KT 10SM -SN BKN007 OVC018 M13/M14 A2940=
PASY 102056Z AUTO 02028G36KT 5SM -SN BR BKN012 OVC017 00/00
     A2879=
PATC 102055Z AUTO 03021KT 10SM CLR M18/M19 A2975=
PATL 102055Z AUTO 08004KT 10SM FEW010 BKN120 M15/M16 A2955=
PBTI NIL=

0000055500
216
SACA31 KWBC 102100
METAR
MBJT NIL=
MBPV 102100Z 09010KT 9999 SCT012 28/21 Q1018=
MBSC NIL=
MKJP 102100Z 14023KT 9999 FEW022 29/22 Q1013=
MKJS 102100Z 10012KT 9999 FEW022 28/24 Q1014=
MUCM 102051Z 07016KT 9999 FEW020 28/17 Q1016=
MUCU 102050Z 13015KT 9999 FEW020 28/20 Q1015=
MUHA 102055Z 14006KT 100V190 9000 SCT040 29/17 Q1016=
MUVR 102051Z 03010KT 9000 SCT020 27/21 Q1017=
MWCB NIL=
MWCR NIL=
MYAM NIL=
MYAT NIL=
MYBS NIL=
MYEC NIL=
MYEG NIL=
MYEH NIL=
MYEM NIL=
MYGF NIL=
MYGW NIL=
MYNN NIL=

0000057400
217
SACA33 KWBC 102100
METAR
TBPB 102100Z 06017KT 9999 SCT018 26/20 Q1013 NOSIG=
TDPD 102100Z 10010KT 9999 SCT016 26/20 Q1015=
TDPR NIL=
TFFF 102100Z AUTO 06014KT 020V080 9999 FEW033 27/20 Q1014=
TFFG NIL=
TFFJ NIL=
TFFR 102100Z 08009KT 040V100 9999 SCT036 SCT056 26/19 Q1015
     NOSIG=
TGPY 102100Z 10010KT 9999 SCT018 25/23 Q1012 TEMPO SHRA=
TGPZ NIL=
TLPC NIL=
TLPL NIL=
TNCA NIL=
TNCB NIL=
TNCC NIL=
TNCE NIL=
TNCM NIL=
TTCP NIL=
TTPP NIL=
TVSM NIL=
TVSU NIL=
TVSV 102100Z 08015KT 9999 VCSH BKN018 28/21 Q1014=

0000103200
218
SACA35 KWBC 102100
METAR
MGGI NIL=
MGPB 102100Z 36010KT 9999 SCT018 27/23 Q1012 A2988=
MGSJ 102100Z 20010KT 9000 SKC 30/22 Q1010 A2983=
MHLC 102100Z 36003KT 9999 SCT020 BKN070 26/22 Q1013 A2991
     NOSIG=
MHLM 102100Z 02010KT 9999 SCT030 29/23 Q1012 A2989 NOSIG=
MHTG 102100Z 01006KT 9999 BKN030 25/13 Q1016 A3000 NOSIG=
MNPC NIL=
MPBO 102100Z 32004KT 260V020 9000 SCT018TCU SCT090 Q1012=
MPCH NIL=
MPDA 102100Z 21010KT 9999 SCT020 31/24 Q1007=
MPMG 102100Z 31007KT 9999 FEW020 29/23 Q1008 NOSIG=
MPSA NIL=
MPTO 102100Z 05003KT 9999 SCT020 32/20 Q1007 NOSIG=
MRLB 102100Z 08014KT CAVOK 33/16 A2974=
MRLM 102100Z 06004KT 9999 FEW035 29/22 A2984=
MROC 102100Z 08010G20KT 9999 FEW030 27/11 A2992 NOSIG=
MRPV 102100Z 06014KT 9999 FEW040 25/13 A2994 NOSIG=
MSLP 102050Z 20007KT 150V240 CAVOK 31/18 Q1008 A2979=
MSSS 102050Z 13005KT CAVOK 31/16 Q1012 A299=
MSSS 102050Z 13005KT CAVOK 31/16 Q1012 A2991=
MZBZ 102100Z 05005KT 9999 FEW022 BKN045 26/22 A2992 Q1013
     NOSIG=

0000055300
219
SACA41 KWBC 102100
METAR
MKBK NIL=
MUBA NIL=
MUBY NIL=
MUCA NIL=
MUCL 102051Z 11011KT 9999 FEW020 28/23 Q1016=
MUCM 102051Z 07016KT 9999 FEW020 28/17 Q1016=
MUCU 102050Z 13015KT 9999 FEW020 28/20 Q1015=
MUGM 102056Z 11015KT 9999 FEW030 28/21 A3000 RMK SLP159 T02830206
     55012=
MUGT NIL=
MUHA 102055Z 14006KT 100V190 9000 SCT040 29/17 Q1016=
MUMO NIL=
MUMZ NIL=
MUNG NIL=
MUVR 102051Z 03010KT 9000 SCT020 27/21 Q1017=
MUVT NIL=
MYEF NIL=
MYSM NIL=
TABS NIL=
TAOA NIL=
TBBI NIL=
TDCF NIL=

0000004200
220
SAHA31 KWBC 102100
NIL=

0000083000
221
SAJP31 KWBC 102100
METAR
RJAA 102100Z 36004KT 9999 FEW025 M04/M08 Q1023 NOSIG=
RJAA 102100Z 36004KT 9999 FEW025 M04/M08 Q1023 NOSIG RMK 1CU025
     A3023=
RJAH 102100Z 02002KT 9999 FEW020 M07/M10 Q1023=
RJCC 102100Z 17003KT 9999 -SHSN FEW015 SCT040 M12/M14 Q1017=
RJCC 102100Z 17003KT 9999 -SHSN FEW015 SCT040 M12/M14 Q1017 RMK
     1ST015 3CU040 A3006=
RJCH NIL=
RJFK 102100Z VRB02KT 9999 FEW030 BKN050 M00/M06 Q1029=
RJFT NIL=
RJFU NIL=
RJNN NIL=
RJOO 102100Z 02003KT 340V050 9999 FEW025 00/M06 Q1028=
RJOO 102100Z 02003KT 340V050 9999 FEW025 00/M06 Q1028 RMK 1CU025
     A3038=
RJSS 102100Z 21006KT 9999 FEW030 M02/M08 Q1023=
RJTT 102100Z 32004KT 280V010 9999 FEW060 01/M05 Q1023 NOSIG=
RODN 102058Z AUTO 06007KT 10SM CLR 08/06 A3032 RMK AO2 SLP276
     T00830061 55000=

0000036000
222
SAJP41 KWBC 102100
METAR
RJAF NIL=
RJAI NIL=
RJAK NIL=
RJAM NIL=
RJAO NIL=
RJAT NIL=
RJAW 102100Z 05012G22KT 9999 FEW020 SCT030 17/10 Q1022 RMK 1CU020
     4CU030 A3018=
RJBD NIL=
RJCA NIL=
RJCB NIL=
RJCJ NIL=
RJCK NIL=
RJCM NIL=
RJCN NIL=
RJCO NIL=
RJCR NIL=
RJCT NIL=
RJCW NIL=
RJDB NIL=
RJDC NIL=

0000033400
223
SAJP42 KWBC 102100
METAR
RJDK NIL=
RJDM NIL=
RJDO NIL=
RJDT NIL=
RJEB NIL=
RJEC NIL=
RJEO NIL=
RJER NIL=
RJFA NIL=
RJFC NIL=
RJFE NIL=
RJFG NIL=
RJFM NIL=
RJFN NIL=
RJFO NIL=
RJFR 102100Z 24005KT 9999 FEW025 SCT040 BKN050 04/M02 Q1029=
RJFY NIL=
RJFZ NIL=
RJKA NIL=
RJKB NIL=

0000033700
224
SAJP43 KWBC 102100
METAR
RJKI NIL=
RJKN NIL=
RJNF NIL=
RJNG NIL=
RJNH NIL=
RJNO NIL=
RJNT NIL=
RJNY NIL=
RJOA NIL=
RJOB NIL=
RJOC NIL=
RJOE NIL=
RJOF NIL=
RJOI 102055Z 29006KT 9999 FEW030 BKN070 01/M02 A3039 RMK SLP290
     T00111022 53003=
RJOK NIL=
RJOM NIL=
RJOP NIL=
RJOR NIL=

0000004200
225
SAJP44 KWBC 102100
NIL=

0000022900
226
SAJP45 KWBC 102100
METAR
RJTJ NIL=
RJTK NIL=
RJTL NIL=
RJTO NIL=
RJTQ NIL=
RJTR NIL=
RJTU NIL=
RJTX NIL=
RJTY 102058Z AUTO 28004KT 10SM CLR M04/M08 A3027 RMK AO2 SLP264
     T10411084 53005=

0000121000
227
SASA31 KWBC 102100
METAR
SEGU 102100Z 00000KT 9999 VCSH SCT023 OVC100 29/23 Q1007 RMK A2974
     NOSIG=
SEGU 102100Z NIL=
SEQU NIL=
SKBO 102100Z 28008KT 9999 VCSH FEW020 BKN090 17/10 A3019 RMK
     VCSH/W=
SKBQ NIL=
SKCG NIL=
SKCL NIL=
SKLT NIL=
SKRG NIL=
SKSP NIL=
SMNI NIL=
SMZO 102100Z 04004KT 9999 FEW020 28/21 Q1010 NOSIG=
SMZY NIL=
SOCA 102100Z AUTO VRB02KT 9999 FEW006 OVC100 25/23 Q1009=
SPIM 102100Z 18011KT 9999 FEW009 SCT170 24/19 Q1010 NOSIG RMK
     PP000=
SPQT 102100Z 35007KT 9999 BKN040 26/22 Q1007 NOSIG RMK PP000=
SPQU 102100Z 27012KT 7000NE VCSH BKN022 SCT100 15/10 Q1023 RMK
     PP000=
SPSO 102100Z /////KT 9999 SCT080 SCT230 25/20 Q1009 RMK BIRD
     HAZARD RWY 22/04 PP000=
SPTN 102100Z 21010KT CAVOK 25/16 Q1008 RMK PP000=
SPYL 102100Z 24014KT CAVOK 28/22 Q1007 RMK PP000=
SPZO 102100Z 01010KT 300V080 9999 FEW036TCU SCT060 BKN100 15/06
     Q1025 NOSIG RMK PP000=
SVBC 102100Z 02015KT 9999 FEW010 30/22 Q1011=
SVMC 102100Z NIL=
SVMG 102100Z /////KT 9999 SCT010 28/21 Q1012 NOSIG=
SVMI 102100Z 07004KT 9999 SCT016 27/21 Q1013 NOSIG=
SYCJ 102100Z 04010KT 9999 SCT020 SCT300 28/22 Q1010 NOSIG=
SYTM NIL=

0000022400
228
SASA41 KWBC 102100
METAR
SEMT 102100Z 19009KT 9999 BKN020 28/22 Q1008=
SEPA NIL=
SKBG NIL=
SKMD NIL=
SKPE NIL=
SKSM NIL=
SKVG NIL=
SMJP 102100Z 11007KT 9999 FEW025 SCT035 26/24 Q1010 NOSIG=

0000029600
229
SASA42 KWBC 102100
METAR
SCAC NIL=
SCHA NIL=
SCSE 102100Z 29012KT CAVOK 20/14 Q1012=
SCTC NIL=
SCTI NIL=
SCVD NIL=
SELT 102100Z 03008KT 9999 VCSH BKN030 BKN100 14/12 Q1025=
SUAG NIL=
SUDU 102100Z 04012KT 9999 FEW015 BKN080 26/19 Q1007=
SUPU NIL=
SUTB NIL=

0000041700
230
SAVN42 KWBC 102100
METAR
SVPC 102100Z 08014KT 9999 FEW040 XX/XX Q////=
SVPM 102100Z NIL=
SVPR NIL=
SVSA 102100Z /////KT 9999 FEW020 30/19 Q1012=
SVSE NIL=
SVSO 102100Z NIL=
SVSP 102100Z 04018KT 9999 FEW040 XX/XX Q1012=
SVSR 102100Z /////KT CAVOK 32/XX Q1011=
SVST NIL=
SVSZ 102100Z NIL=
SVTM NIL=
SVVA 102100Z 09007KT 9999 FEW016 32/18 Q1011=
SVVL 102100Z NIL=
SVVP NIL=

0000135900
231
SASA32 KWBC 102100
METAR SCAR 102100Z 21008KT CAVOK 24/17 Q1009=
METAR SCAR 102100Z 21008KT CAVOK 24/17 Q1009=
METAR SCBA 102100Z 31029G40KT 9999 FEW040 BKN200 14/03 Q1015=
METAR SCCF 102100Z 26019KT CAVOK 24/04 Q1021=
METAR SCCH NIL=
METAR SCCI NIL=
METAR SCDA 102100Z 20017KT 9999 FEW022 25/17 Q1009=
METAR SCEL 102100Z 21017KT CAVOK 30/03 Q1012 NOSIG=
METAR SCFA 102100Z NIL=
METAR SCGE NIL=
METAR SCIE 102100Z 23017KT CAVOK 22/09 Q1015=
METAR SCIP 102100Z 10011KT 9999 SCT020 SCT040 26/18 Q1020 NOSIG=
METAR SCTE 102100Z 13013KT 9999 FEW040 BKN200 17/05 Q1022 NOSIG=
METAR SGAS 102100Z 02012KT 9999 FEW040 36/22 Q1005=
METAR SGES 102100Z 33005KT 9999 SCT033 FEW040TCU 32/23 Q1007=
METAR SLCB 102100Z 15008KT 130V200 9999 FEW027 27/08 Q1018=
METAR SLCZ NIL=
METAR SLLP 102100Z 13012KT 9999 FEW017 FEW020CB SCT200 16/M01 Q1032=
METAR SLTJ 102100Z 13012KT 9999 FEW033 30/15 Q1013=
METAR SLTR 102100Z 31008KT 9999 FEW017 30/23 Q1006=
METAR SLVR 102100Z 35011KT 9999 SCT017 30/21 Q1007=
METAR SUAA NIL=
METAR SUCA 102100Z 30006KT 9999 -SHRA SCT030 FEW040CB SCT060 28/17
Q1005=
METAR SULS 102100Z 25007KT 9999 FEW020 29/17 Q1008=
METAR SUMU 102100Z 19005KT CAVOK 27/21 Q1007 NOSIG=
METAR SUPE NIL=
METAR SURV NIL=
METAR SUSO 102100Z 21018KT 9000 TS SCT030 FEW040CB BKN200 28/21
Q1009=

0000015900
232
SAGC31 MWCR 102100
METAR MWCR 102100Z 11008KT 070V150 9999 FEW018 29/24 Q1015 NOSIG=
METAR MWCB 102100Z 12009KT 9999 FEW016CB 28/23 Q1015=

00000000