0000051500
953
SADN34 EKCH 102050
METAR EKGF 102050Z 22020KT CAVOK 07/05 Q1007=
METAR EKHN 102050Z AUTO 25013KT 170V300 8000NDV BKN016/// /////
Q1010=
METAR EKHR 102050Z AUTO 26020KT 9999NDV FEW018/// 07/05 Q1008=
METAR EKHA 102050Z AUTO 23025KT 9999NDV 07/06 Q1009=
METAR EKHD 102050Z AUTO 24026KT 9999NDV 07/05 Q1005=
METAR EKTE 102050Z AUTO 22022KT 9999NDV FEW008 07/05 Q1008=
METAR EKGC 102050Z AUTO 23021KT 9999NDV 07/06 Q1008=
METAR EKAV 102050Z AUTO 26019KT 9999NDV BKN016/// 06/04 Q1005=

0000015800
954
FCNO38 ENMI 102000 CCA
TAF COR ENHE 102000Z 1021/1106 08030KT 9999 FEW009 BKN020 TEMPO
             1021/1106 1500 -SHSN BKN009 FEW015CB=

0000011800
955
SPUS31 KWBC 102053
SPECI
KBWI 102049Z 00000KT 1/2SM R10/3500VP6000FT -RA FG OVC003 02/02
A3032=

0000009700
956
SPUS43 KWBC 102053
SPECI
KPTK 102049Z 16009KT 1 3/4SM BR OVC004 02/00 A2996=

0000040100
957
SAGL31 BGSF 102050
METAR BGSF 102050Z AUTO 07010KT 9999NDV  NCD M12/M21 Q0995=
METAR BGBW 102050Z 05009KT 9999 FEW050 BKN060 BKN070 M08/M18 
Q0995 RMK 1SC 6AC 7AC =
METAR BGGH 102050Z 16016KT 9999 DRSN SCT030 M07/M15 Q0993=
METAR BGJN 102050Z AUTO 10025KT 9999NDV  FEW240/// M09/M19 Q0994=
METAR BGKK 102050Z AUTO 06020G30KT 020V080 0900NDV  -SN VV006/// 
M01/M02 Q0985=

0000010300
958
SABZ20 SBEG 102100
METAR SBEG 102100Z 26009KT 9999 TS SCT018 FEW025CB
28/23 Q1007=

0000012200
959
SAEU31 BKPR 102100
BKPR 102100Z 00000KT 0150 R17/0200 FZFG BKN002 M00/M01 Q1022 NOSIG
 RMK 17010095 =

0000014100
960
SAVN23 SVBC 102100
METAR SVBC 102100Z 02015KT 9999 FEW010 30/22 Q1011=
METAR SVMT 102100Z NIL=
METAR SVHG 102100Z NIL=

0000048500
961
SAUK31 EGGY 102050
METAR EGBB 102050Z 19009KT 9999 -RA FEW038 SCT047 08/06 Q1010=
METAR EGCC 102050Z 18011KT 9999 -RA FEW024 SCT029 BKN034 07/06
    Q1008=
METAR EGKK 102050Z NIL=
METAR EGLL 102050Z 20007KT 9999 FEW011 08/06 Q1013=
METAR EGPF 102050Z 25003KT CAVOK 02/M00 Q1007=
METAR EGPH 102050Z 24006KT CAVOK 02/01 Q1006=
METAR EGPK 102050Z 31002KT 9999 FEW028 03/01 Q1008=
METAR EGSS 102050Z 21011KT 9999 -RA SCT012 SCT032 07/06 Q1013
    RERA=

0000052600
962
SAUK32 EGGY 102050
METAR EGAA 102050Z 22004KT CAVOK 03/02 Q1009=
METAR EGAC 102050Z 27010KT 9999 FEW030 06/02 Q1008=
METAR EGFF 102050Z 21005KT 9999 RA SCT019 BKN030 08/07 Q1012
    REDZ=
METAR EGGW 102050Z 21008KT 9999 DZ BKN008 07/06 Q1012=
METAR EGLC 102050Z 21008KT 9999 FEW012 09/06 Q1013=
METAR EGNM 102050Z 23013KT 200V260 9999 -SHRA FEW010 SCT019 07/06
    Q1006=
METAR EGNX 102050Z 21013KT 9999 -SHRA FEW035 SCT047 07/06 Q1010=
METAR EGPD 102050Z 27005KT CAVOK 04/M00 Q1004 NOSIG=

0000041100
963
SAUK33 EGGY 102050
METAR EGGD 102050Z 20008KT CAVOK 07/06 Q1011=
METAR EGGP 102050Z 19009KT 9999 BKN020 08/06 Q1008=
METAR EGHI 102050Z 20007KT 8000 RA BKN035 07/06 Q1014 =
METAR EGNS 102050Z NIL=
METAR EGNT 102050Z 31005KT 9999 -SHRA FEW007 SCT012 06/05 Q1006=
METAR EGNV 102050Z 18005KT 9999 FEW015 SCT021 08/05 Q1006=
METAR EGPB 102050Z AUTO 25021KT 9999 BKN020/// 06/04 Q0998=

0000029100
964
SAUK34 EGGY 102050
METAR EGHE 102050Z NIL=
METAR EGHK 102050Z NIL=
METAR EGHQ 102050Z 20008KT 5000 -RA SCT003 BKN005 08/07 Q1012=
METAR EGJA 102050Z NIL=
METAR EGJB 102050Z 17008KT 7000 SCT005 SCT010 09/08 Q1015=
METAR EGJJ 102050Z NIL=
METAR EGTE 102050Z NIL=

0000033200
965
SAUK35 EGGY 102050
METAR EGHH 102050Z 21006KT 9999 -RA FEW037 BKN047 08/07 Q1013=
METAR EGKA 102050Z NIL=
METAR EGKB 102050Z NIL=
METAR EGLF 102050Z 19008KT CAVOK 08/07 Q1013=
METAR EGMC 102050Z 21012KT 9999 FEW024 08/06 Q1013=
METAR EGMD 102050Z NIL=
METAR EGMH 102050Z NIL=
METAR EGTC 102050Z NIL=

0000033000
966
SAUK36 EGGY 102050
METAR EGBE 102050Z NIL=
METAR EGBJ 102050Z NIL=
METAR EGCN 102050Z 20013KT 9999 -RA NSC 08/06 Q1009=
METAR EGSC 102050Z 19009KT 160V240 9999 FEW025 08/06 Q1012=
METAR EGSD 102050Z NIL=
METAR EGSH 102050Z 21011KT CAVOK 08/06 Q1012=
METAR EGVN 102050Z NIL=
METAR EGWU 102050Z NIL=

0000040700
967
SAUK37 EGGY 102050
METAR EGAE 102050Z NIL=
METAR EGNC 102050Z NIL=
METAR EGNH 102050Z 30006KT 5000 -RADZ SCT003 BKN008 07/07 Q1008=
METAR EGNJ 102050Z 20013KT 9999 -RA BKN040 07/06 Q1009=
METAR EGNO 102050Z NIL=
METAR EGNR 102050Z 22012KT 180V250 9999 FEW030 09/07 Q1008=
METAR EGPE 102050Z 20009KT 9999 FEW040 03/M01 Q1004=
METAR EGPI 102050Z NIL=
METAR EGPN 102050Z NIL=

0000041100
968
SAUK38 EGGY 102050
METAR EGEC 102050Z NIL=
METAR EGEO 102050Z NIL=
METAR EGPA 102050Z 25013KT 9999 VCSH SCT018 SCT030 05/03 Q1000=
METAR EGPC 102050Z 25011KT CAVOK 03/00 Q1002=
METAR EGPL 102050Z AUTO 24015KT 9999 // NCD 05/01 Q1004=
METAR EGPM 102050Z AUTO 21015KT 9999 FEW023/// 05/03 Q0997=
METAR EGPO 102050Z AUTO 25005KT 9999 FEW017/// 01/M01 Q1003=
METAR EGPU 102050Z NIL=

0000038100
969
SASW32 LSSW 102050
METAR LSGC 102050Z AUTO 00000KT 6000 NCD 00/00 Q1018=
METAR LSGS 102050Z NIL=
METAR LSZG 102050Z AUTO 00000KT CAVOK 02/01 Q1019=
METAR LSZR 102050Z AUTO 22001KT 9999 NCD 04/03 Q1019=
METAR LSZS 102050Z NIL=
METAR LSZC 102050Z AUTO VRB03KT 4600 BR NCD 01/01 Q1019=
METAR LSZL 102050Z AUTO VRB02KT 9999NDV OVC047 07/04 Q1022 RMK WHT=

0000049200
970
SAFI32 EFHK 102050
METAR EFHA 102050Z AUTO 36010KT 9999 OVC007 M05/M06
 Q0994=
EFHF 102050Z AUTO 35011KT 9999 OVC010 M01/M03 Q0991=
METAR EFKA 102050Z AUTO 02010KT 9999 OVC011 M07/M08
 Q0999=
EFKK 102050Z AUTO 03010KT 9999 -SG BKN022 BKN027 M09/M10 Q1001=
EFMA 102050Z AUTO 34010KT 9999 -SN OVC010 M00/M01 Q0998=
METAR EFPO 102050Z AUTO 01008KT 340V050 9999 OVC008/// M04/M05 Q0996 
R12/29//95=
EFSI 102050Z AUTO 01007KT 340V050 9999 OVC006 M06/M07 Q0998=

0000027400
971
SPUS70 KWBC 102056
SPECI
KMEM 102052Z 13006KT 10SM SCT028 BKN049 OVC060 14/09 A2987 RMK
     AO2=
K1B7 102045Z 07003KT 0SM FG OVC002 14/14 A2997=
KISP 102052Z 00000KT 3/4SM R06/4500VP6000FT BR OVC021 03/02 A3035
     RMK AO2 DZE38RAB38E48 P0001=

0000010500
972
SPUS31 KWBC 102056
SPECI
KMEM 102052Z 13006KT 10SM SCT028 BKN049 OVC060 14/09 A2987=

00000000