0000010700
486
SAPK31 OPKC 110600 RRC
METAR OPSK 110600Z 00000KTS 3000 HZ SCT200  13/07 QNH.1023 RH.66 PC=
0000083400
487
SMAJ40 UBBB 110600
AAXX 11061
37661 42998 02701 11004 21069 39414 40193 57012=
37675 42999 00201 10028 21049 39460 40124 57013 57013=
37729 42998 02504 11035 21049
37735 42999 03202 10014 21052 39785 40169 58005=
37740 42999 00901 10005 21061 39370 40194 52017=
37749 42998 00202 10016 21025 30082 40201 57008=
37832 32998 03001 10013 21013 40190 57006
333   21023=
37851 42998 01405 20033 20033 30092 40263 57022
333   91112 555   20026=
37864 32497 21707 10042 20018 40150 58008 82600
333   20037 555   30///=
37905 42997 00001 11027 21040 40214 54000=
37923 42997 02906 11004 21013 40172 57036
333   20001=
37925 42998 03202 10022 21042 30221 40191 57017
333   21026=
37985 41596 80000 10007 21016 30204 40189 53002 71011 885//=
37989 42998 62801 10009 20004 40207 54000 86030=
0000009300
488
SAYE20 OYSN 110600
METAR OYSN 110600Z 00000KT 9999 FEW030 SCT170 16/08 Q1028=
0000042800
489
SAME31 OLBA 110600
METAR OLBA 110600Z 12005KT 100V180 5000 BR FEW026 13/08 Q1025 NOSIG=
METAR OSDI 110600Z 00000KT 0100 FG 00/M01 Q1024=
METAR OSAP NIL=
METAR OSLK 110600Z 06004KT CAVOK 05/01 Q1023=
METAR OJAI 110600Z 29007KT 3500 -RA SCT025 BKN030 08/08 Q1023 NOSIG=
METAR OJAM 110600Z 35003KT 0900 FG BKN015 BKN040 07/07 Q1023 NOSIG=
METAR OJAQ 110600Z 00000KT 9999 BKN030 BKN035 11/09 Q1024 NOSIG=
0000009500
490
SAIQ01 ORBI 110600
METAR ORBI 110600Z 31009KT 1800 BR BKN030 09/08 Q1017 NOSIG=
0000162400
491
SAFC21 OEJD 110600
METAR
OEAB 110600Z 24008KT 9999 SCT012 SCT015 12/12 Q1025 NOSIG=
OEAH 110600Z 17007KT 9999 SCT050 BKN100 14/12 Q1020 RERA  NOSIG=
OEAO 110600Z 23006KT 9000 SKC 11/03 Q1023=
OEBA 110600Z 33006KT 5000 BR SCT030 11/10 Q1023 NOSIG=
OEBH 110600Z 28006KT 9999 FEW030 SCT100 13/10 Q1021 NOSIG=
OEDF 110600Z 18013KT 9999 SCT040 BKN090 16/11 Q1021 NOSIG=
OEDM 110600Z 33010KT CAVOK 10/04 Q1021=
OEDR 110600Z 25005KT 9999 SCT040 BKN080 16/12 Q1019 NOSIG=
OEGN 110600Z 19010KT 9999 FEW030 SCT100 28/23 Q1016 NOSIG=
OEGS 110600Z 34012KT CAVOK 11/08 Q1021=
OEGT 110600Z 27004KT 9999 SCT030 07/04 Q1023 NOSIG=
OEHL 110600Z 33016KT 9999 BKN045 07/04 Q1022 NOSIG=
OEJN 110600Z 03010KT 9999 FEW040 21/11 Q1019 NOSIG=
OEKJ 110600Z 18004KT 7000 FEW040 BKN080 13/10 Q1022=
OEKK 110600Z 33014KT CAVOK 11/11 Q1021 NOSIG=
OEKM 110600Z 24012KT 9999 BKN020 13/08 Q1025 NOSIG=
OEMA 110600Z 02006KT 7000 SKC 13/00 Q1024 NOSIG=
OEMK NIL=
OENG 110600Z 24004KT 9999 SCT030 BKN090 17/02 Q1020 NOSIG=
OEPA 110600Z 33005KT 9999 SCT035 10/08 Q1019 NOSIG=
OERF NIL=
OERK 110600Z 17007KT 8000 NSC 12/10 Q1021 NOSIG=
OERR 110600Z 31011KT 9999 BKN040 06/06 Q1020 NOSIG=
OERY NIL=
OESH 110600Z 24008KT 9999 FEW040 17/04 Q1019 NOSIG=
OESK 110600Z 31014KT 9999 SCT015 BKN040 07/02 Q1021=
OETB 110600Z 00000KT 6000 SCT040 06/02 Q1023 NOSIG=
OETF 110600Z VRB02KT 9999 FEW015 BKN030 09/07 Q1023 NOSIG=
OETR 110600Z 32014KT 6000 SCT020 BKN030 OVC100 03/03 Q1021=
OEWD NIL=
OEWJ 110600Z 01006KT 9999 FEW030 16/09 Q1021 NOSIG=
OEYN 110600Z 00000KT CAVOK 15/09 Q1019 NOSIG=
0000184000
492
SASD20 OEJD 110600
METAR OEAB 110600Z 24008KT 9999 SCT012 SCT015 12/12 Q1025 NOSIG=
METAR OEAH 110600Z 17007KT 9999 SCT050 BKN100 14/12 Q1020 RERA  NOSIG=
METAR OEAO 110600Z 23006KT 9000 SKC 11/03 Q1023=
METAR OEBA 110600Z 33006KT 5000 BR SCT030 11/10 Q1023 NOSIG=
METAR OEBH 110600Z 28006KT 9999 FEW030 SCT100 13/10 Q1021 NOSIG=
METAR OEDF 110600Z 18013KT 9999 SCT040 BKN090 16/11 Q1021 NOSIG=
METAR OEDM 110600Z 33010KT CAVOK 10/04 Q1021=
METAR OEDR 110600Z 25005KT 9999 SCT040 BKN080 16/12 Q1019 NOSIG=
METAR OEGN 110600Z 19010KT 9999 FEW030 SCT100 28/23 Q1016 NOSIG=
METAR OEGS 110600Z 34012KT CAVOK 11/08 Q1021=
METAR OEGT 110600Z 27004KT 9999 SCT030 07/04 Q1023 NOSIG=
METAR OEHL 110600Z 33016KT 9999 BKN045 07/04 Q1022 NOSIG=
METAR OEJN 110600Z 03010KT 9999 FEW040 21/11 Q1019 NOSIG=
METAR OEKJ 110600Z 18004KT 7000 FEW040 BKN080 13/10 Q1022=
METAR OEKK 110600Z 33014KT CAVOK 11/11 Q1021 NOSIG=
METAR OEKM 110600Z 24012KT 9999 BKN020 13/08 Q1025 NOSIG=
METAR OEMA 110600Z 02006KT 7000 SKC 13/00 Q1024 NOSIG=
METAR OEMK 110600Z NIL=
METAR OENG 110600Z 24004KT 9999 SCT030 BKN090 17/02 Q1020 NOSIG=
METAR OEPA 110600Z 33005KT 9999 SCT035 10/08 Q1019 NOSIG=
METAR OERF 110600Z NIL=
METAR OERK 110600Z 17007KT 8000 NSC 12/10 Q1021 NOSIG=
METAR OERR 110600Z 31011KT 9999 BKN040 06/06 Q1020 NOSIG=
METAR OERY 110600Z NIL=
METAR OESH 110600Z 24008KT 9999 FEW040 17/04 Q1019 NOSIG=
METAR OESK 110600Z 31014KT 9999 SCT015 BKN040 07/02 Q1021=
METAR OETB 110600Z 00000KT 6000 SCT040 06/02 Q1023 NOSIG=
METAR OETF 110600Z VRB02KT 9999 FEW015 BKN030 09/07 Q1023 NOSIG=
METAR OETR 110600Z 32014KT 6000 SCT020 BKN030 OVC100 03/03 Q1021=
METAR OEWD 110600Z NIL=
METAR OEWJ 110600Z 01006KT 9999 FEW030 16/09 Q1021 NOSIG=
METAR OEYN 110600Z 00000KT CAVOK 15/09 Q1019 NOSIG=
0000009900
493
SASD32 OEJD 110600
METAR OETF 110600Z VRB02KT 9999 FEW015 BKN030 09/07 Q1023 NOSIG=
0000009700
494
SASD31 OEJD 110600 RRB
METAR OYSN 110600Z 00000KT 9999 FEW030 SCT170 16/08 Q1028=
0000008400
495
SAYE20 OYMB 110600 RRA
METAR OYMB 110600Z 09005KT CAVOK 20/08 Q1017=
0000011400
496
SAAJ31 UBBB 110600
METAR UBBY 110600Z VRB03KT 9999 NSC 02/M02 Q1019
R33/////// NOSIG RMK MT OP =
0000024000
497
SAJD31 OJAI 110600
METAR OJAI 110600Z 29007KT 3500 -RA SCT025 BKN030 08/08 Q1023 NOSIG=
METAR OJAM 110600Z 35003KT 0900 FG BKN015 BKN040 07/07 Q1023 NOSIG=
METAR OJAQ 110600Z 00000KT 9999 BKN030 BKN035 11/09 Q1024 NOSIG=
0000011500
498
SAAJ31 UBBB 110600
METAR UBBG 110600Z 29007KT 250V310 9999 FEW100 02/M04 Q1017
R30/CLRD70 NOSIG =
0000010300
499
SAPK31 OPSK 110553
METAR OPSK 110600Z 00000KTS 3000 HZ SCT200  13/07 QNH.1023 RH.66 PC=
0000159500
500
SAIR31 OIII 110600 RRA
 METAR OIKB 110550Z 07004KT 7000 RA FEW025CB SCT030 OVC080 13/09
 Q1022 A3020 NOSIG=
METAR OIKK 110600Z 30004KT 9999 FEW035 BKN100 M02/M07 Q1023 A3022=
METAR OIKO NIL=
 METAR OIKQ 110550Z 06006KT 8000 -RA FEW025CB SCT030 SCT090 13/07
 Q1023=
METAR OIMB 110600Z 08008KT 9999 FEW040 SCT090 OVC190 04/M12 Q1023=
METAR OIMC NIL=
METAR OIMD NIL=
METAR OIMM 110550Z 08006KT 9999 FEW035 SCT180 05/M11 Q1022 A3020=
METAR OINB NIL=
 METAR OING 110600Z 04004KT 3000 BR FEW030 SCT100 BKN200 07/06
 Q1020=
METAR OINK NIL=
METAR OINN 110600Z VRB02KT CAVOK 11/06 Q1018=
METAR OINR 110600Z 00000KT 9999 SCT040 BKN170 08/05 Q1017=
METAR OISA NIL=
 METAR OISF 110550Z 00000KT 9999 FEW035CB SCT040 OVC090 07/03
 Q1021=
 METAR OISL 110550Z 00000KT 9999 FEW035CB SCT040 OVC090 09/03
 Q1023=
 METAR OISS 110550Z 00000KT 2500 BR FEW030CB FEW035 OVC080 01/00
 Q1024 A3025=
 METAR OISY 110600Z 00000KT 1000 -SN FEW030CB SCT035 OVC080 M00/M01
 Q1022=
 METAR OITL 110550Z 29010KT 9999 FEW030 SCT090 BKN180 M12/M14
 Q1017=
 METAR OITR 110550Z 26004KT 2000 HZ SCT035 BKN160 M09/M13 Q1022
 NOSIG=
METAR OITT 110550Z 07006KT 6000 FEW035 BKN180 M09/M13 Q1023 A3021=
METAR OITU NIL=
 METAR OIYY 110600Z 12004KT 7000 FEW025CB FEW035 BKN100 03/M03
 Q1023=
METAR OIZB 110600Z 11004KT 7000 NSC 05/M01 Q1027=
METAR OIZC NIL=
 METAR OIZH 110600Z 17006KT 9999 FEW035 BKN200 03/M03 Q1024 A3026
 NOSIG=
METAR OIZI 110600Z 08006KT CAVOK 13/M03 Q1025=
 METAR OIZJ 110550Z 03006KT 9999 FEW025CB SCT030 BKN090 17/04
 Q1023=
0000037200
501
SATR31 UTAA 110600
METAR UTAA 110600Z 08002MPS 060V120 9999 BKN230 08/M07 Q1021
30CLRD70 NOSIG=
METAR UTAK 110600Z 13006MPS 9999  FEW033 SCT200 05/M01 Q1018 NOSIG=
METAR UTAV 110600Z 18006MPS CAVOK 07/M07 Q1024 NOSIG=
METAR UTAM 110600Z 21005MPS CAVOK 05/M05 Q1024 NOSIG  RMK  SC07=
METAR UTAT 110600Z VRB01MPS CAVOK M00/M04 Q1023 99CLRD70 NOSIG=
0000076800
502
SAUR31 UKMS 110600
METAR UKLR 110600Z 28010MPS 9999 BKN027 BKN100 04/M00
          Q1011 NOSIG=
METAR UKLI 110600Z 25005MPS CAVOK 03/M04 Q1017
         28090070 NOSIG=
METAR UKON 110600Z 29008MPS CAVOK 03/M03 Q1015 NOSIG=
METAR UKCM 110600Z 25006MPS CAVOK 04/01 Q1011
         19290060 NOSIG=
METAR UKCW 110600Z 25009MPS 9999 SCT020CB BKN040
         04/01  Q1005 2729//60 BECMG 27008G15MPS=
METAR UKLU 110600Z 18001MPS 9999 OVC005 02/01 Q1020
         NOSIG=
METAR UKKK 110600Z 29008G13MPS 9999 SCT017 BKN038
         04/02  Q1007 26250255 TEMPO 27012G18MPS=
METAR UKKM 110600Z 29008MPS 9999 BKN034 05/01 Q1006=
METAR UKKE NIL=
METAR UKLN 110600Z 27007MPS 240V310 CAVOK 05/M06
         Q1017 3309//70 TEMPO 32011G16MPS=
0000008000
503
SAYE20 OYIB 110600
METAR OYIB 110600Z 00000KT CAVOK 18/09 Q1023=
0000038000
504
SAIQ01 ORBI 110600
METAR ORBI 110600Z 13009KT 1800 BR BKN030 09/08 Q1017 NOSIG=
METAR ORMM 110600Z 00000KT 2000 BR SCT030 BKN040 BKN100 12/12 Q1019 NOSIG=
METAR ORBM 110600Z VRB03KT 5000 HZ SCT060 BKN120 07/03 Q1021 NOSIG=
METAR ORNI 110600Z 25015KT 8000 SCT030 SCT060 09/07 Q1018 NOSIG=
METAR ORER 110600Z 31004KT 4000 -RA BKN030 OVC080 06/05 Q1018 NOSIG=
0000102600
505
SAYE20 OYSC 110600
METAR OYAA 110600Z 12015KT 9999 FEW018TCU BKN025 26/18 Q1018=
METAR OYAM 110600Z NIL=
METAR OYAR 110600Z 00000KT SCT040 12/08 Q////=
METAR OYAS 110600Z NIL=
METAR OYAT 110600Z NIL=
METAR OYDM 110600Z 11004KT CAVOK 13/07 Q////=
METAR OYGD 110600Z 10020KT 9999 FEW025 BKN060 25/17 Q1018=
METAR OYHD 110600Z 18007KT 9999 FEW030 25/21 Q1015=
METAR OYHJ 110600Z 00000KT 9999 FEW020 17/10 Q////=
METAR OYIB 110600Z 00000KT CAVOK 18/09 Q1023=
METAR OYKD 110600Z NIL=
METAR OYMB 110600Z 09005KT CAVOK 20/08 Q1017=
METAR OYMK 110600Z 16010KT CAVOK 25/20 Q////=
METAR OYMT 110600Z 00000KT CAVOK 19/11 Q////=
METAR OYRN 110600Z NIL=
METAR OYSD 110600Z 00000KT CAVOK 17/M06 Q////=
METAR OYSH 110600Z 09008KT 8000 SCT030 14/08 Q////=
METAR OYSN 110600Z 00000KT 9999 FEW030 SCT170 16/08 Q1028=
METAR OYSQ 110600Z 09018KT 9999 FEW018 BKN200 25/20 Q1016=
METAR OYSY 110600Z 02004KT 320V090 CAVOK 21/11 Q1020=
METAR OYTZ 110600Z 11006KT 9999 FEW025 SCT200 17/12 Q1023=
00000000