0000011000
533
UANT99 KDDL 110609
ARP SWR15X 4655N03556W 0609 F380 MS48 250/36 KT
HBJHK QXT AOW 110609 J26A
0000011000
534
UANT99 KDDL 110609
ARP AAL86 5400N01949W 0609 F380 MS57 241/74 KT
N775AN DDL XXW 110609 F50A
0000011100
535
UANT99 KDDL 110609
ARP DAL400 4821N02710W 0609 F380 MS54 197/64 KT
N808NW DDL XXW 110609 J77A
0000011000
536
UANT99 KDDL 110609
ARP DAL32 4903N03947W 0609 F390 MS55 283/29 KT
N858NW DDL XXW 110609 J30A
0000144800
537
SMUR11 UKMS 110600
AAXX 11061
33088 11597 82709 10049 20022 39913 40104 52020 69972 70282
885// 333 20044=
33177 12580 82806 10040 21003 39902 40141 52015 69932 889//
333 20034=
33261 11397 82705 10043 20007 39834 40015 53021 69952 70282
889// 333 20031 87709=
33275 11497 82807 10034 20016 39790 40012 53016 60022 78082
8635/ 333 20022 86915=
33301 11597 72810 10035 21002 39845 40129 52017 69942 70282
86550 333 20035 86627=
33325 12597 52805 10048 21005 39833 40098 52019 69932 83530
333 20047=
33377 12597 62605 10041 20007 39866 40059 53019 69902 83640
333 20030=
33415 NIL=
33429 32997 62707 10028 21023 39723 40153 52016 86030 333
20028=
33466 32698 72706 10048 20007 39905 40092 52018 87500 333
20036 87637=
33526 32970 42506 10032 21043 39844 52011 83030 333 10031=
33562 32597 62707 10038 21011 39771 40134 52022 85530 333
20025 85624 91118=
33614 12597 52604 10033 20004 39977 40081 52019 60022 82501
333 20031=
33761 12598 62905 10032 21022 39927 40153 52022 69902 83531
333 20024=
33902 12597 22604 10024 21009 30085 40152 52024 69902 82501
333 20017=
33983 32997 22808 10036 20021 30095 40157 52027 82030 333
20035=
34415 11470 82704 10038 20018 39952 40048 52017 60052 70262
886// 333 20038=
34523 11998 62405 10048 20018 39975 40051 52025 60022 70362
86080 333 20044=
34712 11597 32805 10041 20021 30024 40110 53031 69942 70261
82101 333 20032=
0000078800
538
SMCO01 SKBO 110600
AAXX 11061
80001 01470 20809 10268 20233 30125 40126 69921 72000 82200  333 56399 59010 69927 82817 =
80002 NIL=
80009 NIL=
80022 31962 09901 10250 20220 30098 40100 70500   333 58001  =
80028 31960 00404 10250 20228 30069 40104 70500  333 58007=
80035 NIL=
80036 NIL=
80063 NIL=
80084 NIL=
80091 NIL=
80094 NIL=
80097 NIL=
80099 NIL=
80110 NIL=
80112 11356 60000 10146 20139 37903 69921 74052 85481 333 56000 58003 85608=
80139 NIL=
80144 NIL=
80149 NIL=
80210 NIL=
80211 NIL=
80214 NIL=
80222 31464 70201 10116 20092 37519 70522 85805 333 568/9 59005 85815=
80234 NIL=
80259 NIL=
80315 NIL=
80342 NIL=
80370 NIL=
80398 11364 80000 10244 20241 30020 40115 70252 8557/ 333 5699/ 58003 85609 86358=
0000027000
539
SXHW11 KWAL 110610
B159741A 011061053 
DY DH PC VB
14/01/11 06:00 25.46
14/01/11 05:45 25.46
14/01/11 05:30 25.46
14/01/11 05:15 25.46
14/01/11 05:00 25.46
14/01/11 04:45 25.46
14/01/11 04:30 25.46
14/01/11 04:15 25.46 12.3 40-0NN  16W
0000017000
540
SOVI10 KWAL 110611
B110070A 011061101"P9751095 B\P~W@@F0ekF1@o~???CnCq>@pG3@VC?@u4Cw5C?6bI9JD<BH2?????@"??? iTFHLALAJAEAJADAG:AMPTEMP 26.94C  47-0NN 219E
0000087300
541
SMBY20 UMMN 110600
AAXX 11061
26645 11358 82904 10001 21008 39765 40025 52024 60052 78582 889//
333 20000 88707 91112 555 90010=
26659 11458 82805 10018 20005 39774 49988 60032 76162 8802/ 333
20017 88514 91011 91114 555 90010=
26763 11356 83007 10019 20006 39735 49961 52033 60022 76176 8872/
333 20012 88709 91114 555 90010=
26825 11359 72806 10031 20018 39887 40070 52017 69902 78082 8633/
  333 20028 86707 91113=
26832 11359 82703 10014 20003 39870 40064 52021 60012 78082 883//
333 20013 86707 91010 91112 555 90010=
26887 11597 82507 10021 20002 39760 49964 52024 60022 72162 885// 333
20018 88620 91011 91113 555 90013=
26961 12565 72808 10028 21009 39832 40024 52027 60022 87500 333 20026
87632 91013 91119 555 90011=
33027 11597 82907 10037 20008 39903 40071 53028 69952 78081 86930
333 20032 91016 91116 555 90012=
0000011100
542
UANT01 CWAO 110609
ARP AAL120 4715N03425W 0609 F350 MS48 220/30 KT
N191AN DDL XXW 110609 F66A
0000017500
543
SMIN90 VOMM 110600
AAXX 11064
43361 32597 40906 10280 20214 30148 40154 84200
  333 58006=
43187 32597 20000 10294 20193 30155 40165 82500
  333 58010=
0000011900
544
UGIN90 VOKL 110600
PPBB 61051 43346
90012 04508 03008 03509 9037/ 04510 14511 9125/ 10513
06011=

0000010300
545
SAIN90 VILK 110600
METAR VILK 110600Z 36003KT 0800 R27/1100 FG VV/// 15/13 Q1018 NOSIG=
0000010200
546
SAIN32 VIDP 110600 RRA
METAR VIJP 110600Z VRB05KT 3000 HZ NSC 17/M02 Q1020 BECMG 5000=
0000010400
547
SMIN90 VICH 110600
AAXX 11064
42071 31995 02905 10128 20093 40210 71000
  333 58015=
0000011000
548
UANT01 CWAO 110609
ARP ETD130 5434N05201W 0609 F330 MS62 288/92 KT
A6EHJ QXS YAY 110609 J28A
0000011000
549
UANT01 CWAO 110609
ARP DLH455 5705N03652W 0609 F370 MS56 240/30 KT
DABVM QXT AME 110609 F24A
0000011100
550
UANT01 CWAO 110609
ARP NAX7002 5403N04653W 0609 F410 MS60 284/56 KT
EILNC QXT AOW 110609 L05A
0000011000
551
UANT01 CWAO 110609
ARP AAL54 4856N05017W 0609 F360 MS65 299/53 KT
N185AN DDL XXW 110609 F25A
0000011000
552
UANT01 CWAO 110609
ARP QTR722 5515N04809W 0609 F290 MS55 290/89 KT
A7BAB QXT AOW 110609 F13A
00000000