0000010500
553
SPUS31 KWBC 102108
SPECI
KLGA 102104Z 05006KT 1 1/2SM BR BKN007 OVC022 01/M01 A3036=

0000011100
554
SPUS41 KWBC 102108
SPECI
KBDR 102104Z 00000KT 1 1/2SM BR SCT005 BKN027 OVC033 01/01 A3037=

0000010500
555
SPUS41 KWBC 102108
SPECI
KLWM 102104Z 00000KT 9SM FEW012 BKN050 OVC085 01/M02 A3037=

0000037100
556
SANK31 MNMG 102100
METAR
MNPC  102100Z 09010KT 7000 05HZ BKN016 28/25 Q1010 =
MNRS  102100Z 07004KT 9999 SKC 30/21 Q1008=
MNJG   102100Z 00000KT 9999 BKN020 23/17 Q1010=
MNJU   102100Z 09012KT 9999 SCT020 SCT080 30/22 Q1011 TCU NE=
MNCH  102100Z 36012KT 9999 FEW025 33/16 Q1008 1AC090=
MNBL   102100Z 10006KT 5000 DZ BKN017 28/23 Q1011 72%=

0000010700
557
SABZ42 KWBC 102100 RRA
METAR
SBSJ 102100Z 19002KT 9999 TS SCT025 FEW030CB 25/14 Q1015=

0000015900
558
SACA31 KWBC 102100 RRA
METAR
MWCB 102100Z 12009KT 9999 FEW016CB 28/23 Q1015=
MWCR 102100Z 11008KT 070V150 9999 FEW018 29/24 Q1015 NOSIG=

0000010100
559
SACA33 KWBC 102100 RRA
METAR
TNCA 102100Z 07014KT 9999 FEW018 28/22 Q1012 A2988=

0000009700
560
SASA42 KWBC 102100 RRA
METAR
SCTC 102100Z 25011KT 220V290 CAVOK 23/09 Q1018=

0000076300
561
SACH10 SCSC 102100
METAR SCFA 102100Z NIL=
METAR SCAR 102100Z 21008KT CAVOK 24/17 Q1009=
METAR SCBA 102100Z 31029G40KT 9999 FEW040 BKN200 14/03 Q1015=
METAR SCCF 102100Z 26019KT CAVOK 24/04 Q1021=
METAR SCIE 102100Z 23017KT CAVOK 22/09 Q1015=
METAR SCAT 102100Z 25011KT CAVOK 22/14 Q1012=
METAR SCDA 102100Z 20017KT 9999 FEW022 25/17 Q1009=
METAR SCSE 102100Z 29012KT CAVOK 20/14 Q1012=
METAR SCJO 102100Z 20008KT 150V240 9999 FEW030 SCT200 19/07 Q1021=
METAR SCTE 102100Z 13013KT 9999 FEW040 BKN200 17/05 Q1022 NOSIG=
METAR SCNT 102100Z NIL=
METAR SCEL 102100Z 21017KT CAVOK 30/03 Q1012 NOSIG=
METAR SCIP 102100Z 10011KT 9999 SCT020 SCT040 26/18 Q1020 NOSIG=
METAR SCPQ 102100Z AUTO 15008KT 100V190 CAVOK 16/08 Q1022=

0000009700
562
SASB31 VCRI 102110
METAR VCRI 102110Z 04006KT 9000 FEW016   23/21 Q1011 NOSIG=

0000013100
563
SAZS31 NSTU 102107
METAR NSTU 102053Z 01013KT 12SM BKN017 OVC100 29/25 A2971 RMK SLP063
8/12/ T02940250 51008=

0000009500
564
SPCN42 CWAO 102110
SPECI CYUA 102110Z AUTO 30022KT 3/4SM -SN CLR M25/ A2977=

0000009900
565
SAGQ21 FGSL 102100 RRA
METAR FGBT 102100Z 14004KT 9999 FEW010 26/24 Q1012 NOSIG=

0000011200
566
SPUS41 KWBC 102110
SPECI
KDOV 102108Z AUTO 08004KT 1SM R01/5500FT -RA BR VV002 04/04 A3031=

0000114000
567
SAPR41 KWBC 102100
METAR
SPCL 102100Z 02005KT 9999 SCT025 FEW040TCU SCT100 29/24 Q1006 RMK
     BIRD HAZARD RWY 02/20 PP000=
SPEC NIL=
SPEI NIL=
SPEO NIL=
SPGM 102100Z /////KT 9999 SCT040 OVC100 24/21 Q1011 RMK TX.24.2
     PP000=
SPHI 102100Z 19016KT CAVOK 29/22 Q1008 RMK PP000=
SPHO 102100Z 31008KT 9999 FEW046TCU SCT120 23/13 Q1017 RMK
     PP000=
SPHY 102100Z NIL=
SPJA NIL=
SPJI 102100Z 00000KT 9999 BKN030 33/26 Q1013 RMK T.MAX 33.5
     PP000=
SPJL 102100Z 09009KT 9999 FEW010 SCT080 14/05 Q1031 RMK SH QUAD N
     PP000=
SPJN NIL=
SPJR 102100Z 03005KT 9999 VCSH SCT023 OVC037 16/12 Q1023 RMK
     PP000=
SPME 102100Z 32007KT 9999 FEW022 SCT040 29/23 Q1007 RMK BIRD
     HAZARD RWY 32/14 PP000=
SPMS 102100Z /////KT 8000 VCSH BKN014 BKN100 28/23 Q1008 RMK BIRD
     HAZARD 09/27 PP020=
SPNC NIL=
SPPY NIL=
SPRU 102100Z 19006KT 9999 FEW030 SCT130 24/20 Q1009 RMK PP000=
SPST 102100Z 35006KT 9999 SCT020 SCT100 31/22 Q1005 RMK BIRD
     HAZARD RWY 17/35 PP000=
SPTU 102100Z 36006KT 9999 SCT010 30/25 Q1005 RMK BIRD HAZARD RWY
     01/19 PP000=
SPUR NIL=

0000048700
568
SASA31 KWBC 102100 RRA
METAR
SKBO 102100Z 28008KT 9999 VCSH FEW020 BKN090 17/10 A3019 RMK VC
     SH/W=
SKBQ 102100Z 04015KT CAVOK 30/22 A2977=
SKCG 102100Z 36015KT CAVOK 30/22 A2975=
SKCG 102100Z NIL=
SKCL 102100Z 00000KT 9999 FEW015 BKN100 28/19 A2986=
SKLT 102100Z 00000KT 9999 BKN013 29/26 A2971=
SKRG 102100Z 02004KT 9999 VCSH SCT015 FEW018CB 18/12 A3015 RMK CB
     VCSH/W/NW=
SKRG 102100Z NIL=
SKSP 102100Z 09009KT 9999 FEW018 28/24 A2984=

0000036100
569
SASA41 KWBC 102100 RRA
METAR
SKBG 102100Z 30010KT 9999 SCT017 25/17 A2988=
SKMD 102100Z 14012KT 9999 TS SCT025 SCT030CB 25/15 A2996 RMK
     CB/E/SE=
SKPE 102100Z 10004KT 9999 VCSH SCT020 SCT080 23/17 A3000 RMK
     VCSH/S=
SKSM 102100Z 36006KT 9999 FEW020 34/19 A2971=
SMJP 102100Z 11007KT 9999 FEW025 SCT035 27/24 Q1010 NOSIG=

0000030900
570
SACG21 FCBB 102100
METAR FCBB 102100Z VRB01KT 8000 NSC 25/23 Q1013 NOSIG=
METAR FCPP 102100Z 16007KT 9999 SCT010 OVC023 27/24 Q1012 NOSIG=
METAR FCPD 102100Z 00000KT 9999 BKN020 25/23 Q1014=
METAR FCOU 102100Z 00000KT CAVOK 25/23 Q1011=
METAR FCOI 102100Z VRB02KT CAVOK 24/23 Q1012=

0000008300
571
SAEA20 HKNC 102000 CCA
METAR COR HKEM 102000Z 09010KT SKC 18/12=

0000010600
572
SACN62 CYSJ 102100
METAR CYSJ 102100Z 21009KT 15SM OVC022 M02/M05 A3032 RMK SC8 SLP275=

00000000