0000010500
666
SATR31 UTAA 110700
METAR UTAA 110700Z 10003MPS 9999 BKN230 10/M09 Q1020
30CLRD70 NOSIG=
0000012000
667
SMOM66 OOMS 110600 RRC
AAXX 11064
41259 36/// /2508 10091 21237 37147 40030
333 0E/// 20065 58007  =
0000034900
668
SATR31 UTAA 110700
METAR UTAA 110700Z 10003MPS 9999 BKN230 10/M09 Q1020
30CLRD70 NOSIG=
METAR UTAK 110700Z 13006MPS CAVOK 07/M01 Q1018 NOSIG=
METAR UTAV 110700Z 19008MPS CAVOK 09/M07 Q1023 NOSIG=
METAR UTAM 110700Z 21004MPS CAVOK 08/M05 Q1023 NOSIG  RMK  SC07=
METAR UTAT 110700Z VRB01MPS CAVOK 03/M02 Q1023 99CLRD70 NOSIG=
0000083400
669
SAUR31 UKMS 110700
METAR UKLR 110700Z 27009MPS 9999 BKN028 BKN100 04/00
         Q1012 NOSIG=
METAR UKLI 110700Z 25005MPS CAVOK 05/M04 Q1018
         28090070 NOSIG=
METAR UKON 110700Z 29009MPS 260V330 CAVOK 05/M02
         Q1016 NOSIG=
METAR UKCM 110700Z 25007MPS 9999 SCT016 03/01 Q1011
         19290060 NOSIG=
METAR UKCW 110700Z 25010MPS 9999 SCT019CB BKN040
         03/01  Q1005 2729//60 BECMG 27008G15MPS=
METAR UKLU 110700Z 13003MPS 9999 BKN007 02/01 Q1021
         NOSIG=
METAR UKKK 110700Z 28008MPS 9999 -RA SCT012 OVC038
         04/02  Q1008 26250255 TEMPO 27012G18MPS=
METAR UKKM 110700Z 27008G13MPS 9999 BKN020 05/01
         Q1007  33210250 TEMPO 28012G17MPS=
METAR UKKE NIL=
METAR UKLN 110700Z 26002MPS 210V300 CAVOK 05/M06
         Q1018 3309//70 TEMPO 32011G16MPS=
0000036700
670
SAIQ01 ORBI 110700
METAR ORBI 110700Z 14009KT 1800 BR OVC030 09/08 Q1018 NOSIG=
METAR ORMM 110700Z 22008KT 4000 BR FEW040 BKN100 13/11 Q1019 NOSIG=
METAR ORBM 110700Z VRB03KT 5000 HZ SCT040 BKN080 07/04 Q1021 NOSIG=
METAR ORNI 110700Z 25015KT 8000 BKN020 11/08 Q1018 NOSIG=
METAR ORER 110700Z 33005KT 4000 DZBR BKN030 OVC080 07/06 Q1019 NOSIG=
0000024800
671
SAJD31 OJAI 110700
METAR OJAI 110700Z 28007KT 3500 BR SCT025 BKN030 09/08 Q1024 NOSIG=
METAR OJAM 110700Z 00000KT 0900 FG BKN015 BKN025 SCT040 07/07 Q1023
NOSIG=
METAR OJAQ 110700Z 00000KT 9999 SCT030 SCT035 13/09 Q1025 NOSIG=
0000009200
672
SAIQ01 ORBI 110700
METAR ORNI 110700Z 25015KT 8000 BKN020 11/08 Q1018 NOSIG=
0000011900
673
SMOM66 OOMS 110600 RRD
AAXX 11064
41252 36/// /1005 10194 20086 39844 40214
333 0E016 20144 59002 =
0000010600
674
SAIQ01 ORBI 110700
METAR ORER 110700Z 33005KT 4000 DZBR BKN030 OVC080 07/06 Q1019
NOSIG=
0000114600
675
SAAR20 OEJD 110700
METAR OBBI 110700Z 20004KT 9999 FEW020 17/14 Q1021 NOSIG=
METAR OKBK 110700Z 21010KT 4000 BR FEW040 BKN080 13/12 Q1019 NOSIG=
METAR OMAA 110700Z 18005KT 130V280 9999 SCT045 19/11 Q1022 A3018
                   NOSIG=
METAR OMAD 110700Z 18005KT 140V220 CAVOK 19/11 Q1022 A3019 NOSIG=
METAR OMAL 110700Z 17010KT CAVOK 19/09 Q1023 A3022 BECMG 27008KT=
METAR OMDB 110700Z 10008KT 060V150 CAVOK 20/11 Q1022 NOSIG=
METAR OMFJ 110700Z 18004KT 130V220 9999 SCT020 BKN100 21/10 Q1023
                   A3021=
METAR OMRK 110700Z 15017KT CAVOK 20/11 Q1022 A3018=
METAR OMSJ 110700Z 14007KT 9999 FEW040 20/12 Q1023=
METAR OOBR 110700Z NIL=
METAR OOKB 110700Z NIL=
METAR OOMS 110650Z 09009KT 060V130 9999 FEW020 BKN200 21/07 Q1023
NOSIG=
METAR OOSA 110650Z 11014KT 080V140 9999 SCT025 26/16
Q1018 NOSIG  RH54 RMK01=
METAR OOSH 110700Z NIL=
METAR OOSQ 110700Z NIL=
METAR OOSR 110700Z NIL=
METAR OOTH 110700Z NIL=
METAR OOYB 110700Z NIL=
METAR OTBD 110700Z 16009KT 120V190 9000 -RA SCT015 OOVC120 18/14
Q1022 NOSIG=
METAR OYAA 110700Z 11015KT 9999 FEW018TCU BKN025 26/17 Q1018=
0000009700
676
SAAR20 OEJD 110700 RRA
METAR OYSN 110700Z 17005KT 9999 FEW030 SCT180 19/01 Q1027=
0000009600
677
SAIN34 VOMM 110710 RRA
METAR VOMM 110710Z 16004KT 6000 SCT020 28/19 Q1014 NOSIG=
0000043500
678
SAME31 OEJD 110700
METAR OJAI 110700Z 28007KT 3500 BR SCT025 BKN030 09/08 Q1024 NOSIG=
METAR OJAM 110700Z 00000KT 0900 FG BKN015 BKN025 SCT040 07/07 Q1023
NOSIG=
METAR OJAQ 110700Z 00000KT 9999 SCT030 SCT035 13/09 Q1025 NOSIG=
METAR OLBA 110700Z 10003KT 5000 BR FEW026 14/07 Q1025 NOSIG=
METAR OSAP 110700Z NIL=
METAR OSDI 110700Z 00000KT 0100 FG 01/01 Q1025=
METAR OSLK 110700Z 06004KT CAVOK 12/03 Q1023=
0000010300
679
SAER41 OMAM 110704 RRF
METAR OMAM 110700Z 17011KT 9999 FEW040 BKN100 20/10 Q1016 A3000=
0000088500
680
SAUZ31 UTTW 110700
METAR UTFN 110700Z VRB1MPS 0450 R28/0500N FZFG BKN004 M05/M06 Q1028
R28/CLRD70 NOSIG RMK QBB120=
METAR UTNN 110700Z 00000MPS 9999 FEW043 03/M03 Q1021 R33/CLRD60
NOSIG=
METAR UTNU 110700Z VRB01MPS 8000 NSC 03/M04 Q1021 R31/CLRD60 NOSIG=
METAR UTSA 110700Z 15005MPS 9999 NSC 06/M08 Q1023 R07/CLRD70 NOSIG=
METAR UTSB 110700Z 16005MPS 130V190 4500 BR NSC 04/M04 Q1023
R01/CLRD70 NOSIG=
METAR UTSK 110700Z 19002MPS 190V220 CAVOK 05/M03 Q1023 R16/CLRD70=
METAR UTSS 110700Z 13002MPS 080V170 9999 NSC 08/M10 Q1021 R88/CLRD70
NOSIG=
METAR UTST 110700Z VRB01MPS 5000 BR NSC 07/M02 Q1027 R88/CLRD70
NOSIG=
METAR UTFA 110700Z 00000MPS 0900 R04/0900N FZFG VV004 M05/M06 Q1028
R88/09//70=
METAR UTFF 110700Z 33002MPS 290V350 2500 BR NSC M03/M04 Q1027
R18/CLRD70=
METAR UTTT 110700Z 12002MPS CAVOK 07/M11 Q1023 R08R/CLRD70 NOSIG=
0000175900
681
SAIR31 OIII 110700
 METAR OIAA 110700Z 18014KT 1500 -SHRA SCT035CB FEW040 BKN090 14/13
 Q1019=
METAR OIAG 110700Z 12010KT 9999 SCT030CB BKN035 14/10 Q1021=
 METAR OIAH 110700Z 00000KT 6000 -RA FEW035CB SCT040 OVC090 08/07
 Q1020=
METAR OIAI 110700Z 10006KT 9999 SCT030CB SCT035 OVC070 10/09 Q1019=
 METAR OIAM 110700Z 10014KT 8000 SCT010 SCT030CB OVC090 13/10
 Q1020=
 METAR OIAW 110700Z 11008KT 7000 FEW030CB SCT025 OVC090 12/09
 Q1019=
 METAR OIBA 110650Z 05010KT 4000 HZ FEW025CB FEW030 OVC100 21/13
 Q1021=
 METAR OIBB 110700Z 13004KT 9999 -RA FEW030CB SCT035 OVC090 14/09
 Q1019 A3012=
 METAR OIBK 110700Z 09014KT 7000 -RA FEW030CB FEW025 OVC080 14/12
 Q1021=
METAR OIBL 110700Z 02006KT 4000 -RA SCT025 OVC080 13/10 Q1022=
METAR OIBS 110700Z 07020KT 8000 -RA SCT030CB OVC090 20/14 Q1022=
 METAR OICC 110700Z 14006KT 7000 FEW035CB SCT040 OVC070 M00/M02
 Q1020 A3014 TEMPO SN=
 METAR OICI 110700Z 13006KT 8000 -RA FEW030CB SCT035 BKN090 04/03
 Q1018 A3006=
 METAR OICJ 110650Z 00000KT 3000 -SN FEW030CB SCT035 OVC070 00/M02
 Q1021=
 METAR OICK 110650Z 15004KT 9999 FEW010 FEW035CB SCT040 OVC080
 04/02 Q1020=
 METAR OICS 110700Z 19004KT 3500 -SHSN BR FEW025 FEW035CB SCT035
 BKN080 M03/M04 Q1021=
METAR OIFK 110700Z 00000KT 6000 SCT030 OVC090 03/00 Q1025=
 METAR OIFM 110700Z 33004KT 0800 FG SCT040 OVC100 M01/M01 Q1021
 A3016=
 METAR OIFS 110700Z 00000KT 1000 BR FEW030CB SCT035 OVC090 M05/M07
 Q1020=
 METAR OIGG 110700Z 29004KT 3000 BR FEW015CB SCT025 BKN090 06/05
 Q1018=
METAR OIGK 110650Z 00000KT 9999 FEW035 BKN150 M05/M11 Q1019=
METAR OIHH 110700Z 00000KT 2500 BR BKN040 BKN090 M06/M09
Q1020=
METAR OIHM 110700Z 00000KT 2000 BR SCT035 BKN090 M02/M03 Q1019=
0000177300
682
SAIR31 OIII 110700 RRA
 METAR OIIE 110700Z 34008KT 5000 HZ FEW040 FEW045CB BKN100 BKN180
 03/M05 Q1023 A3023 TEMPO SHRA=
 METAR OIII 110700Z 24008KT 8000 FEW040 SCT100 OVC200 03/M06 Q1023
 A3021 TEMPO FEW035CB SCT030 BKN100 TEMPO FEW035CB SCT030 BKN100=
 METAR COR OIIK 110655Z 08004KT 5000 HZ FEW035CB SCT040 OVC090
 01/M04 Q1022=
 METAR OIIP 110700Z 00000KT 5000 HZ SCT030CB SCT035 OVC090 M02/M07
 Q1022=
METAR OIIS 110700Z 18002KT 9999 FEW035 BKN200 04/M04 Q1022=
 METAR OIKB 110650Z 32004KT 7000 -RA FEW015 FEW025CB SCT030 OVC080
 14/08 Q1023 A3022 NOSIG=
METAR OIKK 110700Z 29004KT 9999 FEW035 OVC100 00/M04 Q1022 A3020=
METAR OIKO 110650Z 00000KT 6000 FEW015 FEW025CB OVC080 17/02 Q1022=
 METAR OIKQ 110700Z 02006KT 8000 -RA FEW025CB SCT030 SCT090 15/07
 Q1022=
METAR OIMB 110700Z 00000KT 9999 FEW040 SCT090 OVC190 06/M11 Q1023=
METAR OIMC 110650Z 21010KT CAVOK 13/M05 Q1022=
METAR OIMD 110650Z 00000KT CAVOK 04/M04 Q1020=
METAR OIMM 110700Z 10006KT 9999 FEW035 SCT180 06/M11 Q1021 A3017=
METAR OINB 110700Z VRB02KT CAVOK 09/05 Q1017=
 METAR OING 110700Z 32004KT 4000 HZ FEW025 SCT090 BKN180 10/06
 Q1019=
METAR OINK 110700Z 00000KT 0500 FG OVC015 06/06 Q1017=
METAR OINN 110700Z VRB02KT CAVOK 11/08 Q1017=
METAR OINR 110700Z VRB02KT 9999 SCT040 BKN170 10/07 Q1017=
METAR OISA 110650Z 00000KT 9999 SCT040TCU 03/M06 Q1020=
METAR OISF 110650Z 00000KT 9999 FEW035CB SCT040 OVC100 08/02 Q1021=
 METAR OISL 110700Z 27004KT 9999 -RA FEW030CB FEW035 OVC080 09/03
 Q1022=
 METAR OISS 110700Z 19004KT 2500 BR FEW030CB FEW035 OVC080 03/00
 Q1023 A3023=
 METAR OISY 110700Z 00000KT 1000 -RA FEW030CB SCT035 OVC080 00/M00
 Q1022=
METAR OITL 110650Z 26018KT 9999 FEW030 SCT080 BKN180 M02/M09 Q1017=
0000060000
683
SAIR31 OIII 110700 RRB
 METAR OITR 110700Z 00000KT 2000 HZ SCT035 BKN170 M06/M10 Q1022
 NOSIG=
METAR OITT 110700Z 02004KT 6000 FEW035 BKN180 M07/M12 Q1023 A3021=
METAR OITU 110650Z 00000KT 3000 BR SKC M14/M14 Q1022=
 METAR OIYY 110700Z 00000KT 6000 FEW025CB FEW035 BKN100 03/M00
 Q1022 REGS=
METAR OIZB 110700Z 13004KT 8000 NSC 08/00 Q1026=
METAR OIZC 110650Z 05006KT CAVOK 19/M06
Q1023 A3022=
 METAR OIZH 110700Z 17008KT 9999 FEW035 BKN200 05/M03 Q1023 A3022
 NOSIG=
METAR OIZI 110700Z 00000KT CAVOK 14/M03 Q1025=
METAR OIZJ 110650Z 12006KT CAVOK 18/08 Q1023=
0000013000
684
SILV20 UMRR 110300 CCA
AAXX 11031
26424 41497 62906 10013 21008 40016 52026 72582 83530 333 55000
91011 91113=
0000009200
685
SAFC21 OEJD 110700 RRA
METAR
OERF 110700Z 36014KT 9999 BKN040 08/04 Q1019=
00000000