0000011000
906
UANT99 KDDL 110658
ARP BAW114 5011N02839W 0658 F350 MS58 181/54 KT
GSTBC QXT AOE 110658 F25A
0000011000
907
UANT99 KDDL 110658
ARP BAW186 4945N03637W 0658 F410 MS51 240/32 KT
GZBJD QXT AOW 110658 L35A
0000009700
908
SAIN90 VOBL 110700
METAR VOBL 110700Z 09005KT 030V160 8000 NSC 29/16 Q1018 NOSIG=
0000042300
909
SASD31 OEJD 110700
METAR OEDF 110700Z 18013KT 9999 SCT040 BKN090 16/11 Q1020 NOSIG=
METAR OEDR 110700Z 20007KT 9999 SCT040 BKN080 16/13 Q1019 NOSIG=
METAR OEJN 110700Z 02012KT 9999 FEW040 23/11 Q1019 NOSIG=
METAR OEMA 110700Z 00000KT 8000 SKC 14/00 Q1024 NOSIG=
METAR OERK 110700Z NIL=
METAR OYAA 110700Z 11015KT 9999 FEW018TCU BKN025 26/17 Q1018=
METAR OYSN 110700Z 17005KT 9999 FEW030 SCT180 19/01 Q1027=

0000011100
910
UANT99 KDDL 110658
ARP AFR6718 6106N01439W 0658 F300 MS49 229/22 KT
FGIUC DDL FAE 110658 F67A
0000011000
911
UANT99 KDDL 110658
ARP UAL17 5209N02846W 0658 F360 MS58 194/74 KT
N48127 DDL IG1 110658 F68A
0000015400
912
SMAG01 SABM 110600 RRD
AAXX 11064
87129 11330 80513 10215 20212 39817 40037 58004 60901 79596 889//
333 56199 57990 83707 86615 83945=
0000010000
913
SMAG03 SABM 110600 RRC
AAXX 11064
87828 32980 03204 10102 20034 30122 40175 57001=
0000010800
914
SMAA01 KWBC 110600
AAXX 11061
89063 41495 80801 11009 21016 30004 40016 57011 77172 886//=
0000137300
915
SMCN04 KWBC 110600
AAXX 11064
71006 15/// /2311 11087 21099 60001 333 11015 21112 70000 555
32818 40200=
71007 15/// ///// 11056 21082 60001 333 10034 21079 70000=
71008 15/// /2511 11120 21133 60001 333 11030 21126 70000 555
32520 40131=
71035 15/// ///// 11101 21109 60001 333 11027 21162 70000=
71051 15/// ///// 11121 21127 60001 333 11027 21152 70000=
71057 15/// ///// 11117 21123 60001 333 10016 21138 70000=
71070 15/// ///// 11055 21075 60001 333 10014 21081 70000=
71089 15/// ///// 11063 21090 60001 333 11027 21118 70000=
71102 15/// ///// 11108 21120 60001 333 11070 21129 70000=
71105 15/// ///// 11116 21136 60001 333 10005 21116 70000=
71409 15/// ///// 11112 21127 60001 333 10041 21112 70000=
71509 15/// /1407 11026 21059 60001 333 10054 21038 70000 555
32533 40081=
71517 15/// /2306 11009 21046 60001 333 10043 21022 70000 555
32637 40152=
71518 15/// /2102 11100 21114 60001 333 10026 21107 70000 555
32626 40101=
71528 45/// /1706 11045 21076 6///1 333 10036 21068 7//// 555
32536 40092=
71789 15/// ///// 11008 21053 60001 333 10051 21047 70000=
71794 15/// ///// 11093 21117 60001 333 11031 21120 70000=
71795 15/// ///// 11087 21104 60001 333 10007 21087 70000=
71796 15/// ///// 11051 21092 60001 333 11029 21114 70000=
71797 15/// ///// 11094 21102 60001 333 11049 21118 70000=
0000103100
916
SASA85 EGRR 110700 RRA
METAR SBAR 110700Z 11009KT 9999 SCT015 26/20 Q1013=
METAR SBCB 110700Z 07008KT 9999 SCT015 25/25 Q1013=
METAR SBCF 110700Z 08004KT 9999 FEW025 SCT100 20/17 Q1017=
METAR SBEG 110700Z 06005KT 9999 SCT010 BKN025 22/20 Q1011=
METAR SBGL 110700Z 06003KT CAVOK 24/20 Q1011=
METAR SBMN 110700Z 06003KT 9999 -RA SCT010 BKN100 22/21 Q1010=
METAR SBNT 110700Z 11004KT 9999 SCT020 25/21 Q1012=
METAR SBPA 110700Z 09004KT CAVOK 20/19 Q1009=
METAR SBPV 110700Z 00000KT 5000 2000S -RA SCT006 BKN012 BKN070 23/21
      Q1010=
METAR SBRF 110700Z 15004KT 9999 SCT022 26/22 Q1011=
METAR SBSP 110700Z 01003KT CAVOK 23/16 Q1016=
METAR SBSV 110700Z 09008KT 9999 SCT017 FEW020TCU 26/23 Q1012=
METAR SKBO 110700Z 07004KT 9999 BKN015 11/09 A3026=
METAR SMJP 110700Z 07004KT 9999 SCT008 SCT025 23/23 Q1012 NOSIG=
METAR SUMU 110700Z 18016G26KT 9999 BKN013 22/19 Q1009 NOSIG=
METAR SVBC 110700Z 00000KT 9999 FEW010 22/20 Q1014=
METAR SVMG 110700Z /////KT 9999 SCT010 24/22 Q1013 NOSIG=
0000006100
917
AAUK99 EGRR 110700
Socket stay alive message.
0000010900
918
UANT01 EGRR 110600 RRA
ARP FWI556 45N013W 0649 F360 46N009W 0712 NEXT 46N008W FR13.3 280/065=
0000018000
919
SNVD01 PANC 110500 RRG
BBXX
LAQJ7 11054 99111 70782
41597 41610 10210 20195 40120 56010 70200 83099
22253 00220 20602 317// 40602 5//// 6//// 80200 ICE /////=
0000059300
920
SNVD01 PANC 110700 RRA
BBXX
C6QM8 11074 99243 70815
41/98 /1521 10245 20230 40190 702// 8////
22265 04262 2//// 80235=
PBKH 11074 99155 31673
41397 61225 10288 20232 40060 54000 70222 8677/
22234 00297 20201 311// 40302=
WYM9567 11074 99605 71457
41798 49900 11006 2//// 49910 57016 70111 84///
22200 0//// 20000 3//// 40000 50000 6//// 8//// ICE /////=
WDC6055 11074 99416 70871
43/// /1712 10052 40008
2227/ 00038=
9HXC9 11074 99261 70789
41597 61222 10250 20207 40190 54/// 7//11 868//
22264 00270 20703 3//// 4//// 5//// 6//// 80220 ICE /////=
0000175600
921
SNVD22 KWNB 110700 RRD
BBXX
46086 11071 99325 71180 46/// /1902 10151 40193 51008 90650 22200
00161 11203 329// 41203 70014 333 91203 555 11024 22024 30600
41703 60649 194023 192023 197019 191019 181023 187026=
46027 11071 99419 71244 46/// /1710 10090 40199 57014 90650 22200
00096 11608 20402 330// 41608 70040 333 91212 555 11106 22112
30609 41714 60649 170100 169102 168105 168107 169105 168098=
46022 11071 99407 71246 46/// /1811 10111 40204 57015 90650 22200
00113 11508 20402 3//// 41508 70040 333 91213 555 11117 22124
30617 41714 60649 174108 172106 171103 172105 172104 172097=
46050 11071 99446 71245 46/// /1915 10098 40092 58029 90650 22200
00092 10809 20808 326// 41405 70045 333 91218 555 11159 22171
60649 189150 189150 188151 189151 189150 190154=
46013 11071 99382 71233 46/// /3003 10097 40232 55000 90650 22200
00108 11206 20401 3//// 41206 70030 333 91205 555 11032 22033
30643 43005 60649 303031 296027 291027 292034 293034 305032=
46087 11071 99485 71247 46/// /2017 10092 20090 49943 58068 90650
22200 00077 11406 20804 327// 41405 70031 333 91221 555 11182
22196 30631 42123 60649 200172 198169 196169 193163 192156 191155=
46028 11071 99357 71219 46/// /3407 10124 40216 51005 90650 22200
00135 333 91209 555 11072 22076 30601 43310 60649 336069 334069
341071 339075 333077 335078=
46015 11071 99428 71248 46/// /1914 10103 40147 58022 90650 22200
00097 11508 20604 330// 41507 70041 333 91217 555 11155 22166
30646 41917 60649 187142 187133 186132 184134 184133 184133=
46042 11071 99368 71225 46/// /3406 10108 40235 51010 90650 22200
00126 11506 20502 331// 41505 70028 333 91207 555 11061 22063
30605 43409 60649 344057 340062 341063 348069 347071 344068=
0000060500
922
SNVD17 KWNB 110700 RRA
BBXX
46002 11071 99426 71305 46/// /2612 10114 40083 53019 90650 22200
00121 10810 20807 3//// 41106 70048 333 91214 555 11125 22133
30608 42816 60649 258115 264119 267128 269122 273133 276130=
46075 11071 99539 71608 46/// /1609 10043 49867 56042 90650 22200
00049 11105 20604 3//// 41103 70025 333 91211 555 11100 22106
30555 41413 60649 155093 153096 148103 143108 142110 143116 81412
90558=
46001 11071 99563 71479 46/// ///// 1//// 49956 54000 90650 22200
00048 11004 70021=
32012 11071 99199 50853 46/// ///// 1//// 90650 22200 11704 70020=
0000328200
923
SNVD15 KWNB 110700 RRB
BBXX
42020 11071 99270 70967 46/// /2107 10198 20198 40123 54000 90650
22200 00206 333 91208 555 11072 22076 30632 42208 60649 213067
213068 216059 213057 214057 209059=
41044 11071 99216 70586 46/// /0709 10243 40202 58014 90650 22200
00257 11005 20604 300// 41003 70025 333 91211 555 11099 22104
30559 40712 60649 069093 064094 069090 065093 065100 064096 80711
90558=
42035 11071 99292 70944 46/// /2205 10148 20148 40113 54000 90650
22200 00120 10602 20401 317// 40602 70009 333 91205 555 11055
22065 30556 42106 60649 215047 204050 202050 204054 207054 212054=
42056 11071 99198 70849 46/// /1308 10273 20227 40157 57006 90650
22200 00275 10903 20603 312// 40902 70016 333 91210 555 11085
22091 30622 41311 60649 124081 126085 129085 128083 127087 122083
81310 90628=
41012 11071 99300 70805 46/// /1606 10193 20193 40186 56016 90650
22200 00173 10803 20502 309// 40803 70017 333 91207 555 11066
22075 30603 41608 60649 161059 163057 162060 162064 159065 158060=
42036 11071 99285 70845 46/// /1506 10212 20207 40165 56016 90650
22200 00206 10501 20501 70004 333 91207 555 11062 22068 30643
41607 60649 152056 152054 150049 152047 148051 147055=
42019 11071 99279 70954 46/// /2207 10213 40124 52004 90650 22200
00205 10603 20603 310// 40902 70015 333 91208 555 11072 22078
30604 42208 60649 224066 219069 217072 215070 213070 213068=
42059 11071 99151 70675 46/// /0909 10265 40155 57015 90650 22200
00270 10805 20805 3//// 41002 70025 333 91211 555 11098 22104
30555 40812 60649 091091 090089 086092 087097 084096 084100 80911
90555=
41049 11071 99275 70629 46/// /0610 10226 40262 56007 90650 22200
00250 10805 20804 302// 41302 70023 333 91212 555 11101 22106
30620 40612 60649 059094 061093 059096 058095 064094 064095 80510
90649=
42058 11071 99149 70749 46/// /0913 10273 20232 40121 58013 90650
22200 00274 10907 20606 309// 40903 70033 333 91215 555 11138
22148 30643 40915 60649 086129 085127 082114 087115 086111 087120
80913 90644=
41041 11071 99143 70461 46/// /0809 10245 20240 40145 56004 90650
22200 00258 10905 20604 306// 40903 70027 333 91211 555 11096
22101 30635 40811 60649 079090 078096 075085 070089 079091 085094
80810 90635=
42012 11071 99301 70876 46/// /1806 10190 20190 40141 58009 90650
22200 00178 10502 20501 320// 40801 70008 333 91208 555 11070
22078 30553 41808 60649 179064 179063 178066 177066 181067 182068=
42002 11071 99258 70937 46/// /2004 10232 20231 40143 50000 90650
22200 00232 10802 20401 310// 40802 70012 333 91205 555 11044
22047 30550 42006 60649 204044 198042 195044 192047 194044 201041=
42040 11071 99292 70882 46/// /1806 10214 40145 57007 90650 22200
00204 333 91207 555 11062 22069 30551 41807 50145 60649 180061
178059 178058 179060 179060 180061 70650 81806 90648=
44064 11071 99370 70760 46/// /1607 10132 40184 90650 333 91210
555 11080 22087=
44062 11071 99386 70764 46/// /0202 10026 40187 90650 333 91202
555 11021 22023=
44063 11071 99390 70764 46/// /3602 10019 40171 90650 333 91203
555 11020 22021=
44041 11071 99372 70768 46/// /1806 10108 90650 333 91209 555
11073 22079=
44042 11071 99380 70763 46/// /1604 10075 40169 90650 333 91205
555 11047 22051=
0000127800
924
SNVD20 KWNB 110700 RRB
BBXX
44027 11071 99443 70673 46/// /2505 10039 20016 40252 56010 90650
22200 00056 10602 20501 3//// 40602 70011 333 91207 555 11054
22057 30613 42507 60649 253053 251053 256050 253054 252051 255051=
41013 11071 99334 70777 46/// /1810 10216 20193 40181 56017 90650
22200 00200 10805 20805 70023 333 91213 555 11112 22122 30551
41715 60649 178104 180100 174099 172102 172102 175118=
44017 11071 99407 70720 46/// /1806 10095 20094 40225 56025 90650
22200 00071 10501 20501 315// 40901 70007 333 91207 555 11071
22081 30601 41808 60649 182064 177067 177068 183068 181070 178068=
44009 11071 99385 70747 46/// ///// 10098 20095 40199 56033 90650
22200 00065 10901 70007=
44014 11071 99366 70748 46/// ///// 10154 20142 40206 58035 90650
22200 10502 70010=
41008 11071 99314 70809 46/// /2103 10157 20157 40174 56017 90650
22200 00146 10803 20401 310// 40803 70015 333 91203 555 11035
22041 30607 42005 60649 212030 208030 202034 197038 195042 195039=
44020 11071 99414 70702 46/// ///// 10048 40244 56018 90650 22200
00018 10401 70003=
44059 11071 99368 70763 46/// /1703 10149 40176 90650 333 91206
555 11039 22043=
44058 11071 99376 70763 46/// /1806 10071 40181 90650 333 91207
555 11069 22075=
0000066100
925
UDAF01 FAPR 110657
AMDAR 1106
LVR AFZA46 2114S 02826E 110619 F379 MS487 292/011 TB0 S031 333 F/// VG010=
LVR AFZA46 2206S 02821E 110627 F380 MS492 268/009 TB0 S031 333 F/// VG010=
LVR AFZA46 2257S 02811E 110634 F380 MS493 279/017 TB0 S031 333 F/// VG010=
LVR AFZA46 2347S 02755E 110641 F380 MS495 286/019 TB0 S031 333 F/// VG010=
LVR AFZA46 2438S 02749E 110648 F359 MS433 294/032 TB0 S031 333 F/// VG010=
LVR AFZA46 2528S 02758E 110655 F210 MS110 326/016 TB0 S031 333 F/// VG009=
DES AFZA46 2537S 02800E 110656 F184 MS070 303/005 TB0 S031 333 F/// VG010=
DES AFZA46 2544S 02801E 110658 F161 MS022 207/011 TB0 S031 333 F/// VG010=
00000000