0000009800
733
SAUS74 KWBC 102000 RRD
METAR
KOTH 102035Z 19010G14KT 10SM OVC012 12/11 A3019=

0000030800
734
SAUS75 KWBC 102000 RRE
METAR
PADK 102036Z AUTO 23020G31KT 8SM FEW022 SCT028 BKN037 04/00
     A2895=
PAGS 102036Z AUTO 13004KT 10SM SCT024 BKN032 OVC048 02/01
     A2950=
PAUN 102036Z AUTO 09018KT 10SM FEW050 M14/M21 A2960=
PAVD 102036Z 10SM FEW010 FEW040 BKN100 M04/M04 A2939=

0000012800
735
SPCN31 CWAO 102037
SPECI CYYZ 102037Z 12004KT 1SM R24R/P6000FT/N BR OVC003 00/M01 A3011
 RMK FG1ST7 SLP205=

0000021000
736
FTMX41 KWBC 102039 AAA
TAF AMD
TAF AMD MMNL 102036Z 1021/1118 13005KT P6SM SCT230
     FM110400 33005KT 5SM HZ SCT015
      TEMPO 1112/1115 3SM BR
     FM111600 33010KT 6SM HZ SCT020=

0000034200
737
FTUS53 KWBC 102039 AAA
TAF AMD
KRIW 102038Z 1021/1118 28015G25KT P6SM SCT200
     FM110300 VRB06KT P6SM BKN070
     FM111600 19010KT P6SM SCT100=
KRWF 102035Z 1021/1118 18013KT 3SM BR OVC006
     FM102300 20007KT 4SM BR SCT006 OVC014
     FM110300 28008KT P6SM SCT250
     FM111300 30010KT P6SM SCT020 BKN040=

0000107400
738
FTUS80 KWBC 102039 AAA
TAF AMD
KCVG 102036Z 1021/1124 16008KT 6SM BR OVC050
      TEMPO 1022/1024 BKN015
     FM110000 15010KT 4SM BR VCSH OVC015
     FM110600 17011KT 4SM -SHRA BR OVC008
     FM111200 22011G20KT P6SM VCSH OVC012
     FM111600 25016G25KT P6SM OVC022
     FM112300 26014KT P6SM BKN025=
KLUK 102038Z 1021/1118 16007KT P6SM OVC012
     FM110000 15007KT 4SM BR VCSH OVC018
     FM110600 17007KT 4SM -SHRA BR OVC009
     FM111300 21010G18KT P6SM VCSH OVC012
     FM111600 25012G22KT P6SM OVC022=
KRIW 102038Z 1021/1118 28015G25KT P6SM SCT200
     FM110300 VRB06KT P6SM BKN070
     FM111600 19010KT P6SM SCT100=
KRWF 102035Z 1021/1118 18013KT 3SM BR OVC006
     FM102300 20007KT 4SM BR SCT006 OVC014
     FM110300 28008KT P6SM SCT250
     FM111300 30010KT P6SM SCT020 BKN040=
KSAV 102038Z 1021/1118 14007KT P6SM -SHRA BKN010 BKN020
      TEMPO 1021/1023 3SM SHRA BR BKN005
     FM102300 15005KT 4SM BR BKN005
     FM110400 18005KT 3/4SM BR OVC003
     FM111500 21012G20KT P6SM VCSH SCT015 BKN040=

0000009200
739
SPUS31 KWBC 102039
SPECI
KMCI 102035Z 24008KT 10SM OVC004 05/M01 A2953=

0000011300
740
SPUS31 KWBC 102039
SPECI
KPHF 102035Z AUTO 07005KT 3SM -RA SCT005 BKN080 OVC100 07/04 A3031=

0000010100
741
SPUS41 KWBC 102039
SPECI
KAVP 102035Z 28003KT 6SM HZ FEW017 OVC039 03/M01 A3028=

0000009300
742
SPUS42 KWBC 102039
SPECI
KNEW 102035Z 11007KT 2SM BR OVC004 15/14 A2996=

0000011900
743
SPUS43 KWBC 102039
SPECI
KMDW 102035Z 13008KT 1 1/4SM R31C/5500FT +TSRA BR OVC003CB 02/02
A2978=

0000021300
744
SAAK31 KWBC 102000 RRB
METAR
PAVD 102036Z 10SM FEW010 FEW040 BKN100 M04/M04 A2939=
PAWG 102036Z 00000KT 10SM FEW010 BKN030 OVC080 04/M01 A2964=
PFYU 102036Z 00000KT 10SM FEW100 M37/ A2969=

0000012300
745
SAAK32 KWBC 102000 RRC
METAR
PADK 102036Z AUTO 23020G31KT 8SM FEW022 SCT028 BKN037 04/00
     A2895=

0000032500
746
FTCN36 CWAO 102000
TAF CYUL 102039Z 1021/1118 VRB03KT P6SM OVC020 TEMPO 1021/1024 P6SM
     -SN
    FM111100 10008KT 5SM -FZDZ BR SCT003 OVC020 PROB40 1111/1113 2SM
     -FZRA BR OVC003
    FM111300 12015KT 11/2SM -RA BR OVC005
    FM111700 16015KT 3SM RA BR OVC012
    RMK NXT FCST BY 110000Z=

0000035400
747
FTCN36 CWAO 102000
TAF CYOW 102039Z 1021/1118 08005KT P6SM OVC015 TEMPO 1021/1024 P6SM
     -SN BKN007 OVC015 PROB30 1021/1024 3SM -FZDZ BR
    FM110900 08008KT 3SM -FZRA BR OVC003
    FM111300 10008KT 3/4SM -RA BR OVC002
    FM111500 10010KT 11/2SM RA BR OVC003
     BECMG 1117/1118 20012G22KT
    RMK NXT FCST BY 110000Z=

0000038100
748
FCFI31 EFHK 102000
TAF EFHA 102040Z NIL=
TAF EFHF 102040Z NIL=
TAF EFKA 102040Z NIL=
TAF EFKK 102040Z NIL=
TAF EFMA 102030Z 1021/1106 33011KT 9999 BKN010 TEMPO 1021/1022
     7000 -SN BKN009 BECMG 1022/1024 BKN015 TEMPO 1101/1106
     7000 -SN=
TAF EFPO 102030Z 1021/1024 02009KT 9999 OVC008 TEMPO 1021/1024
     4000 -SN=
TAF EFSI 102040Z NIL=

0000025600
749
FCFI32 EFHK 102000
TAF EFJO 102040Z NIL=
TAF EFLP 102030Z 1021/1023 02014KT 8000 -SN BKN007 TEMPO
     1021/1023 3000 SHSN SCT007 BKN015=
TAF EFMI 102040Z NIL=
TAF EFSA 102040Z NIL=
TAF EFUT 102040Z NIL=
TAF EFVR 102040Z NIL=

0000020500
750
FCFI33 EFHK 102000
TAF EFET 102040Z NIL=
TAF EFIV 102040Z NIL=
TAF EFKE 102040Z NIL=
TAF EFKI 102040Z NIL=
TAF EFKS 102030Z 1021/1023 05008KT 9999 BKN045=
TAF EFKT 102040Z NIL=

0000038500
751
SAEE31 LOWM 102030
METAR UACK 102030Z 23008MPS 9999 DRSN OVC012CB M07/M10 Q1020
R20/450342 NOSIG RMK QFE741/0989=
METAR UACP 102030Z NIL=
METAR UAII 102030Z 00000MPS 5000 BR BKN100 M07/M10 Q1026
R28/0///70 NOSIG RMK QFE732/0976=
METAR UADD 102030Z NIL=
METAR UASK 102030Z NIL=
METAR UASP 102030Z NIL=
METAR UAOO 102030Z NIL=
METAR UAKD 102030Z NIL=

0000100500
752
FTFI31 EFHK 102000
TAF EFHK 102030Z 1021/1121 35012KT 9999 -SN BKN009 TEMPO
     1022/1115 SCT009 BKN015 PROB40 TEMPO 1112/1115
     4000 -SN BKN013 TEMPO 1115/1121 SCT009 BKN012=
TAF EFJY 102030Z 1021/1121 01010KT 9999 BKN010 TEMPO 1021/1113
     BKN015 TEMPO 1113/1121 7000 -SN BKN015 PROB30
     TEMPO 1113/1121 3000 SN=
TAF EFKU 102030Z 1021/1121 02012KT 9999 BKN016 TEMPO 1021/1103
     6000 -SN BKN011=
TAF EFOU 102030Z 1021/1121 06012KT 9999 BKN035 TEMPO 1021/1106
     4000 -SN=
TAF EFRO 102030Z 1021/1121 04016KT CAVOK TEMPO 1021/1112
     7000 DRSN=
TAF EFTP 102030Z 1021/1121 01009KT 8000 -SN BKN010 TEMPO
     1021/1023 5000 BKN008 BECMG 1023/1101 BKN015 PROB30
     TEMPO 1101/1115 3000 -SN BKN013=
TAF EFTU 102030Z 1021/1121 36009KT 9999 BKN007 TEMPO 1023/1105
     BKN015 BECMG 1105/1108 BKN015=
TAF EFVA 102030Z 1021/1121 03009KT 8000 -SN BKN012 TEMPO
     1021/1024 4000 BECMG 1100/1102 BKN015 PROB30 TEMPO
     1102/1115 3000 -SN=

00000000