0000067100
933
SXXX32 EUMS 110558 RRX
16F152DA
OT12 ID:IR-JASK-09 DT:2014 01 11 05 48
:RAD /1 02811 02785 02789 02777 02775 02774 02777 02766 02769 02762 02757 02759 02758 02758 02752 02743 02745 02735 02728 02715 02717 02716 02710 02707 02700 02691 02676 02660 02648 02640
:PR1 /1 00023 00034 00029 00020 00015 00038 00017 00010 -0002 -0015 -0024 -0003 -0003 -0008 -0008 -0018 -0019 -0037 -0040 -0046 -0057 -0048 -0055 -0061 -0066 -0069 -0082 -0095 -0107 -0113
:PR2 /1 01637 01632 01615 01616 01614 01609 01609 01608 01598 01599 01596 01592 01589 01589 01583 01578 01574 01570 01560 01550 01548 01534 01543 01540 01531 01523 01508 01494 01482 01466
:BAT 13.5V
0000070100
934
SXXX32 EUMS 110558 RRX
223412A2
OT12 ID:IND-SADENG DT:2014 01 11 05 57
:PRS /1 01685 01671 01652 01650 01625 01685 01723 01771 01655 01592 01616 01663 01696 01775 01742 01688 01721 01693 01730 01704 01743 01680 01756 01720 01655 01739 01723 01727 01785 /////
:ENC /1 -13239 -13246 -13276 -13269 -13303 -13256 -13193 -13179 -13249 -13313 -13303 -13259 -13236 -13159 -13193 -13246 -13203 -13239 -13223 -13216 -13173 -13239 -13198 -13209 -13239 -13196 -13203 -13186 -13143 /////
:RAD /1 11408 11414 11378 11335 11352 11400 11441 11467 11470 11351 11354 11389 11415 11489 11494 11435 11467 11442 11416 11420 11508 11428 11470 11452 11440 11420 11463 11478 11529 /////
:BAT 13.0V/
0000037500
935
SXXX32 EUMS 110600
12FD90D0
:PRS 1 /1 1248 1231 1237 1257 1245 1241 1252 1242 1248 1236 1239 1258 :RAD 1 /3 5808 5810 5811 5814 5812 5801 5789 5780 5779 5782 :ENC 3 /6 5542 5543 5543 5517 5509 5534 5514 5479 5471 5463 :RA2 3 /6 4697 4699 4695 4670 4666 4691 4667 4636 4628 4618 :SW1 60 /60 60 :SW2 30 /60 60 :BAT 5 /6 13.5 :WTP 5 /6 28.3 28.3 :NAME 12FD90D0
0000041300
936
SXXX32 EUMS 110600 RRA
262D700E
:PRS 1 /1 2365 2385 2391 2427 2415 2432 2433 2404 2384 2353 2445 2421 2458 2454 2418 2426 2440 2474 2472 2477 2480 2472 2513 2488 2482 2489 2510 2518 2513 2506 :RAD 1 /3 4857 4868 4880 4895 4905 4919 4945 4962 4972 4993 5012 5017 5032 5059 5065 :ENC 5 /5 4954 4983 4994 5035 5049 5092 5096 5150 5147 5192 5228 5226 :SW1 60 /60 15 :BAT 14 /15 14.1 :NAME 262D700E /
0000045100
937
SXXX32 EUMS 110600 RRC
16289262
:PRS 1 /1 2407 2424 2399 2420 2415 2424 2425 2415 2411 2426 2430 2428 2429 2434 2428 2428 2430 2419 2417 2438 2433 2437 2449 2436 2443 2439 2439 2443 2436 2438 :RAD 1 /3 7878 7882 7885 7889 7890 7889 7889 7893 7896 7901 7900 7902 7903 7909 7916 7919 7924 7926 7929 7932 :ENC 5 /5 5249 5262 5259 5265 5270 5272 5275 5277 5289 5289 5300 5301 :SW1 60 /60 0 :SW2 30 /60 0 :BAT 14 /15 13.5 :NAME 16289262 /
0000045700
938
SXXX32 EUMS 110600 RRB
324DF524
:PRS 1 /1 4012 4011 4010 4008 4007 4005 4003 4001 3999 3997 3994 3992 3989 3986 3983 3979 3976 3972 3968 3964 3960 3956 3951 3946 3942 3937 3933 3928 3923 3918 :RAD 1 /3 4049 4043 4038 4028 4017 4002 3988 3974 3959 3942 3923 3906 3893 3877 3858 3838 3817 3797 3774 3750 :ENC 5 /5 2975 2964 2949 2929 2906 2881 2856 2827 2798 2765 2728 2692 :SW1 60 /60 0 0 :SW2 30 /60 60 60 :BAT 14 /15 13.2 :NAME 324DF524 /
0000050500
939
SXXX32 EUMS 110600 RRD
22BF90A6
:PRS 1 // 1646 1240 1244 1652 1246 1243 1238 1237 1241 1236 1249 1243 1246 1249 1237 :RA/ 1 /3 4427 442/ 4424 4024 4020 4419 4420 4418 4415 4415 :SW1 64 /60 60 :WW2 30 /60/6/ :WTP 15 /15 28.7 :BAT 13 /55/13/2 :WAV 10 /10 6.2 6.4 6.6 :DAV 10 '10 150 115 115/:WMX 10 /10 7.8 8.2 7.9 :TPA 15 /15 27.8 :TMN 360//720 27.1 :TMX 3/0 /720 28.1 :HUM 15 /11 78.2 :PRA 15 '15 1015.9/:/AC/59 /60 0.0 /RDQ /9 /60 0 :RIN 59 /60/0.0 :DAC 359///440 /.4 :DDR 359 /1/40 330
0000045100
940
SXXX32 EUMS 110601 RRE
1227146C
:PRS 1 /1 2682 2681 2680 2681 2684 2683 2686 2684 2685 2687 2687 2689 2689 2691 2691 2691 2691 2691 2689 2692 2692 2694 2693 2697 2696 2696 2697 2698 2698 2699 :RAD 3 /3 2681 2674 2669 2677 2699 2682 2685 2684 2685 2689 2684 2694 2705 2706 2719 2729 2732 2723 2737 2738 :ENC 1 /5 3421 3425 3429 3430 3435 3439 3447 3457 3467 3478 3487 3493 :SW1 2 /60 0 :SW2 32 /60 60 :BAT 14 /15 13.5 :NAME 1227146C /
0000042100
941
SXXX32 EUMS 110601 RRF
26CB10AC
:PRS 1 /1 -1338 -1338 -1338 -1338 -1339 -1339 -1339 -1339 -1339 -1339 -1339 -1339 -1338 -1340 -1339 -1339 -1338 -1339 -1338 -1338 -1339 -1339 -1339 -1339 -1339 -1339 -1339 -1339 -1340 -1339 :RAD 3 /3 5967 5976 5982 5992 5994 6004 6008 6012 6017 6025 :RA2 3 /3 5923 5939 5938 5959 5952 5968 5967 5980 5980 5985 :SW1 2 /60 15 :SW2 32 /60 1 :BAT 14 /15 13.2 :NAME 26CB10AC /
0000051600
942
SXXX32 EUMS 110601 RRG
3246B586
:PRS 1 /1 5190 4636 8188 7077 7552 7402 7745 8169 6751 6312 6362 6969 7066 6940 6556 :RAD 3 /3 7294 7289 7272 7271 7275 7275 7279 7281 7278 7269 :ENC 10 /15 5280 5280 :SW1 2 /60 0 :SW2 32 /60 0 :WTP 1 /15 -1.3 :BAT 13 /15 14.2 :WAV 1 /10 6.4 5.7 7.4 :DAV 1 /10 77 89 80 :WMX 1 /10 11.0 9.9 14.9 :TPA 1 /15 28.9 :TMN 361 /720 25.9 :TMX 361 /720 27.6 :HUM 1 /15 72.6 :PRA 1 /15 1011.5 :RAC 1 /60 0.0 :RDU 1 /60 0 :RIN 1 /60 0.0 :DAC 361 /1440 10.9 :DDR 361 /1440 16460
0000025300
943
SMCD01 FTTJ 110600
AAXX 11064
64700 31930 50208 10145 20008 39814 40152 70622 80002
  333 01400 20145 51211 ///// 55105 58007 85075=
64750 32960 70000 10174 20058 39711 40123 80002
  333 01200 20168 51121 ///// 55088 58018 87075=
0000036600
944
SMMC01 GMMC 110600
AAXX 11064
60150 32560 61902 10099 20060 39511 40170 52006 82582
  333 20092 30004 82820 85360=
60155 12565 62004 10140 20086 40155 56001 69914 85530
  333 20131 85626=
60230 12558 70000 10106 20104 40171 53004 60024 872//
  333 20098 87820=
60096 NIL=
60101 NIL=
60115 NIL=
60135 NIL=
60156 NIL=
60252 NIL=
0000091500
945
SMMC02 GMMC 110600
AAXX 11064
60060 12956 01004 10138 20111 40167 5//// 60024
  333 20135 31008=
60105 32550 61204 10120 20093 40152 5//// 82532
  333 20118 30007 82620 84360=
60107 32560 71602 10123 20095 40186 57012 875//
  333 20094 30007 87626 95300=
60127 32560 60000 10092 20057 39578 40181 5/012 86500
  333 20080 30007 86630=
60141 32560 71405 10108 20047 39495 40180 52006 8227/
  333 20082 82830 86360=
60190 12960 60802 10090 20079 40182 52015 60024 82032
  333 20081 31007 82358 85072=
60191 12565 61002 10078 20069 40183 5//// 60024 84270
  333 20070 84826 84360=
60210 12565 60213 10090 20047 38985 48492 58010 60034 83270
  333 20083 83826 85458=
60220 32558 21202 10127 20100 40164 51006 82500
  333 20126 82626=
60265 12560 40702 10050 20037 38866 48484 55005 60064 83202
  333 20049 83830=
60106 NIL=
60185 NIL=
60195 NIL=
60318 NIL=
0000063800
946
SMBU01 LZSO 110600
AAXX 11061
15502 12570 32702 10010 21001 30193 40234 51006 60002 83500 333 10080
20002 55029 70000 555 31102 592// 92600=
15552 12970 33205 10048 20000 30175 40225 52017 60002 83040 222//
0//// 2//00 333 10123 20048 55059 70000 555 30003 571// 92014 92418=
15614 12675 20000 11008 21020 39528 40259 52004 60002 81101 333 10048
21010 55000 70000 555 34108 592// 92602=
15615 11988 12708 11051 21092 37132 47069 53005 60002 70300 80030 333
11043 21065 42999 55052 70000 555 573//=
15730 11/00 90000 10014 21011 39836 40246 52016 60002 74542 333 10073
20010 55033 70000 555 31101 583//=
0000064700
947
SATH40 VTBB 110600
METAR VTCH 110600Z VRB03KT 9999 FEW028  25/16 Q1016 A3002=
METAR VTCP 110600Z 22002KT 8000 FEW025 BKN300 29/16 Q1016=
METAR VTPH 110600Z NIL=
METAR VTPN 110600Z NIL=
METAR VTPP 110600Z 04003KT 7000 FEW025 30/16 Q1015 A2999=
METAR  VTSF   110600Z  09008KT  070V130  9999   FEW016CB  SCT022 
BKN300  28/23  Q1013  A2992  CB-NE=
METAR VTSM 110600Z 02012KT 9000 FEW020TCU BKN300 30/24 Q1014 A2995
TCU SW=
METAR VTUK 110600Z 07007KT 010V130 9999 FEW025 28/17 Q1016 A3002=
METAR VTUL 110600Z 07004KT 5000 HZ NSC 28/15 Q1015 A2998 NOSIG=
METAR VTBS 110600Z 07013KT 030V110 CAVOK 30/15 Q1015 NOSIG=
0000015200
948
SMSC01 FSIA 110600
AAXX 11064
63980 12483 63006 10291 20241 40129 60024 85932
  333 20236 59003 5///0 55027 81914 85816 943// 91113=
0000041700
949
SMIN90 VIDP 110600
AAXX 11064
42131 32996 02702 10154 20064 40208
  333 58025=
42139 31995 00000 10140 20089 40191 70500
  333 58010=
42542 31595 00506 10150 20059 39600 40196 70500
  333 58024=
42542 31595 00506 10150 20059 39600 40196 70500
  333 58024=
42099 31994 03402 10148 20051 40202 70540
  333 58014=
42103 31995 30000 10150 20068 40200 70511 83030
  333 58014 83360=
0000010400
950
SMIN90 VISM 110600
AAXX 11064
42079 32996 00000 10127 20051 39203 48533
  333 58015=
0000011000
951
SMIN90 VIJP 110600
AAXX 11064
42328 32996 30503 10150 20019 40221 83030
  333 58036 83360=
0000010400
952
SMIN90 VIJP 110600
AAXX 11064
42452 31994 00502 10150 20083 40202 70544
  333 58028=
00000000