0000014500
413
SSVX05 CWAO 110600
ZZYY 48509 11014 0600/ 775613 141112 6113/ 11131 
11216 49946 57029 444 20130 11014 0600/ 50400 80132 80001=
0000018500
414
SMPO41 LPMG 110600
AAXX 11061
08530 NIL=
08535 NIL=
08562 42/// /36// 1//// 2//// 3//// 4//// 5////
333  2//// 30/// 5//// 55000 2////=
08568 NIL=
08571 NIL=
0000047000
415
SMPO44 LPMG 110600
AAXX 11060
08532 NIL=
08534 31920 00102 10058 20058 30149 40167 51004 74140 333 20058
      50074  55016=
AAXX 11061
08540 31440 21502 10068 20064 30097 40167 53003 71011 82200 333
      20068 50164 55042 82815=
08544 31108 39901 10044 20040 30143 40164 52007 74651 83600 333
      20040 50124 55072 83702=
08552 NIL=
08561 31050 19901 10046 20039 39934 40174 53006 74000 81600 333
      20046  50184 55018 81701=
0000011000
416
UANT01 CWAO 110617
ARP ACA848 5258N03007W 0617 F350 MS58 214/63 KT
CGFAH DDL XXW 110617 J38A
0000011000
417
UANT01 CWAO 110617
ARP QTR702 5219N04837W 0617 F310 MS57 303/72 KT
A7BAG QXT AOW 110617 F20A
0000010800
418
SMRS20 RUMS 110600
AAXX 11061
28909 41497 81604 11006 21018 39975 40074 58005 70272 8452/=
0000069400
419
SMVF12 ENMI 110600
BBXX
3ERR2 11064 99653 10073 43/// /1124 11031 21083 40036 52002 22200
      10607 70033 333 91131=
LF3F 11064 99643 10078 41597 80719 11041 21086 40024 54000 72687
      88/// 22200 04102 10604 70020 333 91125=
LF3N 11064 99653 10073 41597 61020 11024 21084 40036 57001 70182
      86/// 22200 00083 10607 70037 333 91128=
LF4B 11064 99606 10037 47/98 /0804 10035 49973 52002 781// 22200
      00040 10704 70020 333 91113=
LF4C 11064 99584 10019 41598 62821 10065 20009 40022 702// 89///
      22200 00054 10706 70028 333 91123=
LF5T 11064 99660 10081 41698 81119 11036 21079 40059 57001 77372
      88/// 22200 10606 70028 333 91132=
0000070600
420
UKNO12 ENMI 110600
TTBB 11068 01001 00012 00112 11913 06104 22850 10308 33815 12126
      44794 12563 55784 12173 66740 13177 77630 21161 88559 25968
      99552 25757 11525 25161 22512 23972 33352 43161 44340 44962
      55308 48172 66225 63760 77194 68959 88189 65760 99171 65165
      11129 62376 22100 65975 21212 00012 08004 11003 09507 22963
      12009 33716 15010 44616 10511 55587 12511 66552 11512 77512
      13016 88325 11026 99223 12532 11192 13022 22176 15011 33172
      14510 44167 13012 55159 18014 66142 18012 77134 20010 88130
      21512 99100 22022 31313 48008 80512 41414 58400 51515 11892
      12510 22800 13010 33600 12011=
TTBB 1106/ 01028 NIL=
0000016000
421
SSVX12 KARS 110617
ZZYY 73634 11014 0530/ 365961 144558 6112/
11119 11007 49863 57002
22219 01019
444 20120 11014 0512/ 501// 80140 80000=
0000698000
422
SSVX08 KARS 110617
ZZYY 51307 10014 1200/ 707996 124994 6111/
33311 88870 20020 32716 20040 32700 20060 32432 20080 31859
20100 31404 20120 31260 20140 31194 20180 31113 20300 31000
444 20110 10014 1057/ 521//=
ZZYY 51307 11014 0500/ 707995 124989 6111/
11119 10272 29086
444 20110 11014 0445/ 521//=
ZZYY 23017 10014 1200/ 304016 067235 6111/
33311 88872 20001 32812 20020 32802 20060 32499 43539 20080 32151
20100 31965 20120 31834 20140 31738 20180 31536 20300 31146
20500 30947
444 20110 10014 1148/ 521//=
ZZYY 23017 11014 04004 304016 067233 6112/
11119 02619 10258 29085
22219 00280
444 20120 11014 0354/ 521// 60401=
ZZYY 23017 10014 1200/ 304016 067235 6111/
33311 88872 20001 32812 20020 32802 20060 32499 43539 20080 32151
20100 31965 20120 31834 20140 31738 20180 31536 20300 31146
20500 30947
444 20110 10014 1148/ 521//=
ZZYY 23017 11014 05004 304025 067271 6111/
11119 02710 10258 29087
22219 00280
444 20110 11014 0451/ 521// 60401=
ZZYY 23017 10014 1200/ 304016 067235 6111/
33311 88872 20001 32812 20020 32802 20060 32499 43539 20080 32151
20100 31965 20120 31834 20140 31738 20180 31536 20300 31146
20500 30947
444 20110 10014 1148/ 521//=
ZZYY 23017 11014 04004 304016 067233 6112/
11119 02619 10258 29085
22219 00280
444 20120 11014 0354/ 521// 60401=
ZZYY 14043 10014 1200/ 312203 067249 6111/
33311 88872 20001 32970 43504 20020 32969 20040 32922
20060 32551 43509 20080 32180 20100 31962 20120 31813 20140 31695
20180 31483 20300 31140 20500 30881
444 20110 10014 1144/ 521//=
ZZYY 14043 11014 04004 312203 067253 6111/
11119 01212 10294 29075 40122
22219 00297
444 20110 11014 0444/ 521// 60401=
ZZYY 56053 10014 1200/ 316003 080522 6111/
33311 88872 20001 32839 43483 20020 32837 43485 20040 32776 43486
20060 32703 43482 20080 32607 20100 32357 20120 32243 20140 32145
20180 31894 20300 31471 20500 30994
444 20110 10014 1032/ 521//=
ZZYY 56053 10014 1200/ 316003 080522 6111/
33311 88872 20001 32839 43483 20020 32837 43485 20040 32776 43486
20060 32703 43482 20080 32607 20100 32357 20120 32243 20140 32145
20180 31894 20300 31471 20500 30994
444 20110 10014 1032/ 521//=
ZZYY 56053 11014 0400/ 316019 080514 6111/
11119 10263
22219 00283
444 20110 11014 0442/ 521//=
ZZYY 51015 11014 05004 705071 124961 6112/
11119 01312 10267 29081
444 20120 11014 0444/ 521// 60401=
ZZYY 14042 10014 1200/ 312115 054867 6112/
33311 88872 20001 32895 43493 20020 32890 43496 20040 32831 43501
20060 32667 43500 20080 32517 20100 32301 20120 32122 20140 31954
20180 31707 20500 30944
444 20120 10014 1144/ 521//=
ZZYY 14042 11014 04004 312115 054869 6111/
11119 00812 10278 29082 40114
22219 00289
444 20110 11014 0354/ 521// 60401=
ZZYY 14042 10014 1200/ 312115 054867 6112/
33311 88872 20001 32895 43493 20020 32890 43496 20040 32831 43501
20060 32667 43500 20080 32517 20100 32301 20120 32122 20140 31954
20180 31707 20500 30944
444 20120 10014 1144/ 521//=
ZZYY 14042 11014 05004 312115 054864 6112/
11119 00915 10282 29084 40121
22219 00289
444 20120 11014 0454/ 521// 60401=
ZZYY 14040 10014 1200/ 308084 066939 6112/
33311 88872 20001 32964 43475 20020 32889 43501 20040 32489 43508
20060 32002 43511 20080 31796 20100 31609 20120 31503 20140 31414
20180 31285 20300 31081 20500 30904
444 20120 10014 1146/ 521//=
ZZYY 14040 11014 04004 308083 066940 6111/
11119 01402 10279 29079 40119
22219 00295
444 20110 11014 0354/ 521// 60401=
ZZYY 14040 10014 1200/ 308084 066939 6112/
33311 88872 20001 32964 43475 20020 32889 43501 20040 32489 43508
20060 32002 43511 20080 31796 20100 31609 20120 31503 20140 31414
20180 31285 20300 31081 20500 30904
444 20120 10014 1146/ 521//=
ZZYY 14040 11014 05004 308086 066946 6111/
11119 02102 10278 29083 40120
22219 00295
444 20110 11014 0453/ 521// 60401=
ZZYY 53006 10014 1200/ 311932 080401 6111/
33311 88872 20001 32903 43460 20020 32901 43478 20040 32844 43489
20060 32794 43490 20080 32709 20100 32347 20120 31991 20140 31839
20180 31573 20300 31247 20500 30912
444 20110 10014 1033/ 521//=
ZZYY 53006 11014 04004 311929 080383 6111/
11119 03322 10264 29089 40097
22219 00287
444 20110 11014 0355/ 521// 60401=
ZZYY 53006 10014 1200/ 311932 080401 6111/
33311 88872 20001 32903 43460 20020 32901 43478 20040 32844 43489
20060 32794 43490 20080 32709 20100 32347 20120 31991 20140 31839
20180 31573 20300 31247 20500 30912
444 20110 10014 1033/ 521//=
ZZYY 14041 11014 0400/ 307905 055083 6111/
11119 10277 29082
444 20110 11014 0355/ 521//=
ZZYY 14041 11014 0500/ 307897 055082 6113/
11119 10274 29082
444 20130 11014 0453/ 521//=
ZZYY 23010 10014 1200/ 304025 080469 6112/
33311 88872 20001 32895 20020 32896 43440 20040 32840 43499
20060 32447 43536 20080 32201 20100 31989 20120 31800 20140 31604
20300 31126 20500 30929
444 20120 10014 1035/ 521//=
ZZYY 23010 10014 1200/ 304025 080469 6112/
33311 88872 20001 32895 20020 32896 43440 20040 32840 43499
20060 32447 43536 20080 32201 20100 31989 20120 31800 20140 31604
20300 31126 20500 30929
444 20120 10014 1035/ 521//=
ZZYY 23010 11014 04004 304016 080462 6112/
11119 03510 10284 29080
22219 00289
444 20120 11014 0353/ 521// 60401=
ZZYY 23016 10014 1200/ 301618 066811 6112/
33311 88872 20001 32838 20020 32830 43526 20040 32793
20060 32580 43546 20080 32315 20100 32120 20120 31834 20140 31576
20180 31359 20300 31179 20500 30954
444 20120 10014 1148/ 521//=
ZZYY 23016 11014 05004 301623 066803 6111/
11119 03405 10279 29077
22219 00285
444 20110 11014 0442/ 521// 60401=
ZZYY 23016 10014 1200/ 301618 066811 6112/
33311 88872 20001 32838 20020 32830 43526 20040 32793
20060 32580 43546 20080 32315 20100 32120 20120 31834 20140 31576
20180 31359 20300 31179 20500 30954
444 20120 10014 1148/ 521//=
ZZYY 23016 10014 1200/ 301618 066811 6112/
33311 88872 20001 32838 20020 32830 43526 20040 32793
20060 32580 43546 20080 32315 20100 32120 20120 31834 20140 31576
20180 31359 20300 31179 20500 30954
444 20120 10014 1148/ 521//=
ZZYY 23016 11014 04004 301622 066817 6111/
11119 03104 10280 29077
22219 00284
444 20110 11014 0353/ 521// 60401=
ZZYY 53005 10014 1200/ 307994 080453 6112/
33311 88872 20001 32922 43401 20020 32914 43409 20040 32846 43404
20060 32696 43404 20080 32486 20120 32049 20140 31916 20180 31626
20500 30920
444 20120 10014 1346/ 521//=
ZZYY 53005 11014 04004 307992 080448 6111/
11119 02505 10268 29085 40122
22219 00289
444 20110 11014 0355/ 521// 60401=
ZZYY 23001 10014 1200/ 100066 080606 6111/
33311 88872 20001 32869 43524 20060 32776 43537 20080 32582
20100 32117 20120 31830 20140 31638 20180 31388 20300 31123
20500 31006
444 20110 10014 1035/ 521//=
ZZYY 23001 11014 04004 100075 080603 6112/
11119 01209 10281 29081 40124
22219 00286
444 20120 11014 0353/ 521// 60401=
0000011000
423
UANT01 CWAO 110618
ARP UAE212 5855N04111W 0618 F330 MS61 227/20 KT
A6ECV QXS UAK 110618 F31A
0000013000
424
SMAL20 DAMM 110600 RRA
AAXX 11064
60369 12960 50000 10187 20120 40168 53009 60004 83082 333 20175 83360
91837=
0000077500
425
SMSP61 LEMM 110600
AAXX 11064
08094 11208 83502 10058 20058 39527 40188 51002 60002 74442 886//
  333 20024 55035 70000=
08112 NIL=
08117 NIL=
08157 NIL=
08223 12965 70000 10064 20050 39373 40184 52007 60002 80006
  333 20060 30003 50240 55037 70000=
08233 NIL=
08285 NIL=
08335 NIL=
08359 12962 63102 10074 20060 30075 40176 52003 60002 80006
  333 20074 30007 50104 55017 70000=
08383 NIL=
08391 NIL=
08397 12960 60000 10095 20081 30056 40163 51004 60002 8507/
  333 20091 50094 55000 70000=
08417 NIL=
08429 11540 89901 10091 20086 30091 40183 53/// 60002 710// 886//
  333 20071 50134 55000 70000=
08433 02562 73003 10099 20086 30172 40175 53005 60002 8157/
  333 20095 3/009 50144 55000 60007 70000=
08458 NIL=
0000011000
426
UANT01 CWAO 110618
ARP KAC118 5308N02907W 0618 F330 MS60 205/80 KT
9KAOA QXT AOE 110618 F18A
0000011000
427
UANT01 CWAO 110618
ARP DLH415 4827N04806W 0618 F390 MS60 303/64 KT
DAIKE QXT AME 110618 J79A
0000016000
428
SMMW51 FWCL 110600
AAXX 11061
67586 32580 73205 10230 20195 38805 48528 81138 333 20190 50511 55///
58011 81820 84359 87280 555 10270 7//62=
0000073000
429
SMKZ20 UAAA 110600
AAXX 11061
28978 11495 81103 11087 21106 39717 40226 57005 69960 77273 8377/
333   21112=
28984 11498 81304 11101 21116 39734 40242 58001 69940 77173 8472/
333   21121=
34398 12598 81605 10014 21015 30072 40085 57009 69930 885// 333  
20000=
34798 32997 81703 10019 21012 30167 40137 57002 8805/ 333   20002=
35173 11596 81803 11076 21098 39850 40243 57003 69900 70273 885//
333   21131=
35358 11997 82001 11052 21093 39998 40182 53003 60010 72272 8802/
333   21092=
35576 32698 81803 11095 21146 39809 40275 53001 885// 333   21123=
35699 32999 60203 11152 21165 39556 40367 56004 80004 333   21195=
36686 32998 80905 11118 21162 39905 40363 53004 80004 333   21170=
0000011600
430
SPIN90 VIBN 110400
SPECI VIBN 110400Z 13005KT 0500 TSRA SCT008 SCT020 FEW030CB BKN100
16/15 Q1018=
0000028000
431
SAIN31 VABB 110610
METAR VABB 110610Z 33002KT 3000 FU NSC 23/03 Q1016 NOSIG=
METAR VOHS 110610Z 14006KT 4000 HZ FEW020 27/14 Q1018 BECMG 5000=
METAR VOMM 110610Z 03005KT 6000 SCT020 28/19 Q1015 NOSIG=
METAR VOTR 110610Z 04005KT 6000 SCT016 28/19 Q1015 NOSIG=
0000013400
432
SMIN90 VILK 110600
AAXX 11064
42479 21594 51405 10178 20168 40173 71092 83330
  333 59003 6008/ 83620 81930 84360=
00000000