0000016000
873
SSVX02 CWAO 111000
ZZYY 56502 11014 1000/ 330930 098361 6113/ 11119 
40182 57021 22219 00230 444 20130 11014 1000/ 50101 80144 80016 
9/015=
0000016000
874
SSVX02 CWAO 111000
ZZYY 56516 11014 1000/ 355785 116892 6112/ 11119 
40017 52013 22219 00045 444 20130 11014 1000/ 50101 80148 80026 
9/015=
0000016000
875
SSVX05 CWAO 111000
ZZYY 44690 11014 1000/ 754306 052013 6113/ 11119 
40054 52009 22219 00034 444 20130 11014 1000/ 50101 80142 80001 
9////=
0000016000
876
SSVX02 CWAO 111000
ZZYY 56512 11014 1000/ 333519 102059 6112/ 11119 
40177 57010 22219 00203 444 20130 11014 1000/ 50101 80148 80010 
9/015=
0000015100
877
SSVX02 CWAO 111000
ZZYY 56504 11014 1000/ 317093 093411 6113/ 11119 
40106 57018 22219 00270 444 20130 11014 1000/ 50100 80146 80027=
0000014300
878
SMFI01 EFKL 110600 RRP
AAXX 11061
02866 37999 00304 11169 21202 39934 40095 52009 70021 90600 
333 11124 21169 3/118 4/028=
0000014800
879
SMFI01 EFKL 110600 RRQ
AAXX 11061
02889 37465 10504 11168 21181 39777 40075 52012 77170 81/// 90600
333 11128 21169 3/117 4/053=
0000014800
880
SMFI01 EFKL 110600 RRR
AAXX 11061
02880 17999 00304 11166 21195 30103 40115 52010 69912 700// 90600
333 11127 21167 3//// 4/018=
0000055200
881
SMVF11 BIRK 110600
BBXX
TFBKF 11064 99635 70202 46/// ///// 22200 10605 70025=
TFBLK 11064 99657 70248 46/// ///// 22200 10807 70036=
TFGRS 11064 99663 70182 46/// ///// 22200 10605 70025=
TFGRV 11064 99638 70225 46/// ///// 22200 10905 70027=
TFGSK 11064 99641 70229 46/// ///// 22200 10907 70034=
TFHFN 11064 99642 70152 46/// ///// 22200 10706 70032=
TFKGR 11064 99657 70136 46/// ///// 22200 10710 70049=
TFSRT 11064 99633 70203 46/// ///// 22200 10808 70038=
TFSTD 11064 99664 70234 46/// ///// 22200 10807 70033=
0000015700
882
SSVX13 LFPW 110600
ZZYY 44610 11014 0600/ 750368 040787 6113/ 11119 40079 52010 22219
 00100 444 20130 11014 0600/ 50101 80150 80002 9/015=
0000014300
883
SMFI01 EFKL 110600 RRS
AAXX 11061
02844 37999 03403 11207 21226 30035 40152 52009 70000 90600 
333 11143 21207 3//// 4/049=
0000014300
884
SMFI01 EFKL 110600 RRT
AAXX 11061
02836 37981 03403 11282 21309 39923 40175 52006 70087 90600 
333 11225 21283 3/133 4/064=
0000014800
885
SMFI01 EFKL 110600 RRU
AAXX 11061
02814 37999 50303 11191 21220 39860 40141 52006 70000 85/// 90600
333 11173 21192 3//// 4/046=
0000013700
886
SMFI01 EFKL 110600 RRV
AAXX 11061
02801 32999 00000 11258 21286 39574 40233 52005 700// 
333 11219 21260 3/129 4/093=
0000012600
887
UACN10 CYKA 110603
VR
UA /OV CYXX 090010 /TM 0550 /FLDURC /TP B737 /TB MDT SFC-100 /RM ON DEPARTURE FOR CYYC
0000011000
888
UANT01 CWAO 110604
ARP SWR15X 4642N03657W 0604 F380 MS50 250/38 KT
HBJHK QXT AOW 110604 J25A
0000011100
889
UANT01 CWAO 110604
ARP UAL114 4908N04454W 0604 F370 MS63 321/58 KT
N29129 DDL IG1 110604 F64A
0000011000
890
UANT01 CWAO 110604
ARP BAW172 5231N03257W 0604 F340 MS58 201/46 KT
GCIVZ QXT AOW 110604 F11A
0000016300
891
SSVX13 LFPW 110600
ZZYY 13593 11014 0600/ 738170 018507 6113/ 22219 00169 33300 88872
 20000 43624 444 20130 11014 0556/ 50101 80118 80035 9/015=
0000080600
892
SMCZ10 OKPR 110600
AAXX 11061
11423 01975 02604 11013 21013 39295 42787 55006 60002 702//
  333 21013 34106 60005 79999=
11487 01581 52101 10006 21016 39564 40202 56006 60002 700//
      81501
  333 20005 34105 60005 79999 81628 85072=
11518 02965 12205 10006 21008 39743 40194 56004 60002 81041
  333 20005 31101 60005 70000 81363=
11603 01468 21701 11002 21014 39694 40190 55000 60002 702//
      81501
  333 21004 34104 60005 79999 81616=
11659 01964 21002 11002 21012 39548 40205 53001 60002 701//
      80002
  333 21003 34105 60005 70000 82073=
11723 02770 61201 11002 21018 39904 40212 53002 60002 81502
  333 21008 34103 6///5 70000 81650 86072=
11782 02770 62205 10015 21008 39888 40201 55001 60002 84531
  333 21005 31103 60005 70000 84650 86366=
00000000