0000045100
186
SXXX32 EUMS 110715 RRX
16289262
:PRS 1 /1 2300 2311 2310 2304 2292 2312 2307 2307 2307 2302 2320 2315 2311 2321 2322 2325 2326 2325 2331 2325 2326 2340 2334 2338 2348 2340 2353 2344 2330 2352 :RAD 1 /3 7762 7768 7775 7782 7787 7792 7793 7797 7804 7808 7815 7820 7825 7835 7839 7840 7841 7850 7852 7855 :ENC 5 /5 5136 5147 5157 5161 5174 5179 5186 5197 5206 5216 5228 5232 :SW1 15 /60 0 :SW2 45 /60 0 :BAT 14 /15 13.2 :NAME 16289262 /
0000045700
187
SXXX32 EUMS 110715 RRX
324DF524
:PRS 1 /1 3746 3753 3760 3766 3773 3780 3787 3793 3800 3807 3814 3821 3828 3835 3842 3848 3854 3861 3867 3873 3879 3884 3889 3895 3901 3906 3912 3917 3922 3927 :RAD 1 /3 3812 3832 3851 3872 3896 3917 3933 3949 3969 3986 4001 4012 4024 4034 4042 4046 4052 4060 4062 4064 :ENC 5 /5 2755 2790 2822 2855 2881 2905 2928 2947 2963 2976 2985 2990 :SW1 15 /60 0 0 :SW2 45 /60 60 60 :BAT 14 /15 12.8 :NAME 324DF524 /
0000050200
188
SXXX32 EUMS 110715 RRX
22BF90A6
:TRS 1 /1 1227 1224 1226 1229 1234 1230 122/ 1227 1224 1228 122/ 1225 1231 1632 1228 :RAD 1 /3 4415 441/ 4016 4417 4420 442/ 4426 4421 4417 4415 :SW1 11 /60 60 :WW2 45 /60 60 :STP 15 /15/29.0/:BAT 13 /15 14/1 :WAV/5 /10 6.3 6.0 /.2/:DAV/5 /14 102 101 50/ :SMX 5//10 7.9 7.6/7.5 :TPA 15 /15 27.9 :TMN 435 /720 27.1 :TMX 435 /720 28.1 :HUM 15 /15 78.3 :PRA 15 /15 1015.2 :RAC 14 //0 4.0 :VDU 14 /60 0 :RIN 14 /60 0.0 :/AC 434 /1440 0.4 :DDR/434 /1440 330
0000007800
189
SNAL51 EUMS 110700
AAXX 11074
60612 46/// /0000 10068 21022=
0000007800
190
SNAL54 EUMS 110700
AAXX 11074
60621 46/// /1111 10147 21046=
0000008200
191
SNAL51 EUMS 110700 RRA
AAXX 11074
60664 46/// /0000 10064 21065=
0000007800
192
SNAL56 EUMS 110700
AAXX 11074
60692 46/// ///03 10111 21026=
0000007800
193
SNAL52 EUMS 110700
AAXX 11074
60667 46/// /0000 10116 20003=
0000008200
194
SNAL53 EUMS 110700 RRA
AAXX 11074
60662 46/// /0000 10105 21072=
0000008200
195
SNAL52 EUMS 110700 RRA
AAXX 11074
60633 46/// /0309 10090 21033=
0000015000
196
SMMC02 GMMC 110600 RRC
AAXX 11064
60195 11558 71404 10028 20021 38497 48512 5//// 60134 78082 872//
  333 20024 32002 87830 95560=
0000009600
197
SAIN31 VOMM 110710 RRA
METAR VOTR 110710Z 05008KT 6000 SCT016 29/19 Q1014 NOSIG=
0000009800
198
SAIN32 VIDP 110700 RRB
METAR VIAR 110700Z 30004KT 260V360 3500 HZ NSC 15/10 Q1020=
0000009400
199
SAIN90 VIAR 110700
METAR VIAR 110700Z 30004KT 260V360 3500 HZ NSC 15/10 Q1020=
0000010200
200
SAIN90 VANP 110710
METAR VANP 110710Z 18008KT 4000 HZ FEW025 SCT100 25/17 Q1015 NOSIG=
0000010200
201
SNVX19 LFVW 110700 RRA
BBXX
MINFR00 1107/ 99395 70282 46/// ///// 10128 40041 52039=
0000011000
202
UANT99 KDDL 110716
ARP CFG185 4743N01047W 0716 F360 MS61 280/51 KT
DABUC QXT IGW 110716 F13A
0000011000
203
UANT99 KDDL 110716
ARP DLH447 5500N01944W 0716 F370 MS61 226/66 KT
DABVL QXT EUA 110716 F30A
0000011100
204
UANT99 KDDL 110716
ARP SVA034 5055N02053W 0716 F330 MS60 219/74 KT
HZAK19 QXT EUA 110716 F38A
0000011000
205
UANT99 KDDL 110716
ARP BAW114 5038N02447W 0716 F350 MS61 204/62 KT
GSTBC QXT AOE 110717 F27A
00000000