0000089100
526
SAUZ31 UTTW 110600
METAR UTFN 110600Z 00000MPS 0400 R28/0400 FZFG VV001 M05/M06 Q1029
R28/CLRD70 NOSIG RMK QBB040=
METAR UTNN 110600Z 00000MPS 8000 BKN031 00/M03 Q1022 R33/CLRD60
NOSIG=
METAR UTNU 110600Z VRB01MPS 6000 NSC 01/M05 Q1021 R31/CLRD60 NOSIG=
METAR UTSA 110600Z VRB01MPS 8000 NSC 06/M08 Q1024 R07/CLRD70 NOSIG=
METAR UTSB 110600Z 16005MPS 120V080 4500 BR NSC 02/M04 Q1024
R01/CLRD70 NOSIG=
METAR UTSK 110600Z 15002MPS 110V210 8000 BR NSC 04/M03 Q1024
R16/CLRD70=
METAR UTSS 110600Z 13006G11MPS 100V160 9999 NSC 05/M12 Q1022
R88/CLRD70 NOSIG=
METAR UTST 110600Z VRB01MPS 6000 NSC 05/M02 Q1028 R88/CLRD70 NOSIG=
METAR UTFA 110600Z 00000MPS 0550 R04/0550N FZFG VV003 M05/M06 Q1029
R88/09//70=
METAR UTFF 110600Z 33002MPS 290V350 3100 BR NSC M03/M04 Q1028 R18/
CLRD70=
METAR UTTT 110600Z 07003MPS CAVOK 04/M09 Q1024 R08R/CLRD70 NOSIG=
0000032900
527
FCUZ31 UTTW 110600
TAF UTFA 110600Z 1104/1113 24003MPS 0600 FZFG VV002 TEMPO 1104/1110
VRB02MPS 0050 FZFG VV001=
TAF UTSK 110551Z 1106/1116 16005G10MPS 6000 NSC TEMPO 1106/1116
19008G13MPS 3000 BR SCT033CB BKN100=
TAF UTFF 110600Z 1104/1113 34003MPS 2000 BR NSC TEMPO 1104/1108
VRB02MPS 0500 FZFG VV001=
0000083600
528
WWCN14 CWWG 111024
SEVERE WEATHER BULLETIN
ISSUED BY ENVIRONMENT CANADA
AT 4:24 AM CST SATURDAY 11 JANUARY 2014.
---------------------------------------------------------------------
WATCHES/WARNINGS IN EFFECT FOR NORTHERN SASKATCHEWAN...

SNOWFALL WARNING FOR:
=NEW= ILE A LA CROSSE - BUFFALO NARROWS - BEAUVAL.

      10 TO 15 CM OF SNOW BY SUNDAY MORNING.

---------------------------------------------------------------------
==DISCUSSION==
A LOW PRESSURE SYSTEM WILL TRACK ACROSS CENTRAL SASKATCHEWAN THIS
EVENING AND OVERNIGHT. 10 TO 15 CM OF SNOW IS EXPECTED NORTH OF THE
LOWS TRACK OVER PORTIONS OF NORTHWESTERN SASKATCHEWAN. CONDITIONS
WILL GRADUALLY IMPROVE ON SUNDAY AS THE LOW MOVES INTO MANITOBA.

PLEASE REFER TO THE LATEST PUBLIC FORECASTS FOR FURTHER DETAILS.

END
0000010900
529
SNAL51 DAMM 111000 RRE
AAXX 11104
60593 46/// /1010 10167=
60376 46/// /0000 10183 20103=
0000011000
530
UANT99 KDDL 111028
ARP KLM755 4715N01350W 1028 F370 MS61 266/64 KT
PHBQG QXT AOE 111028 F70A
0000016200
531
SNVX22 EGRR 110800 RRA
BBXX
ZCBU2 11084 99402 31548 41/98 /3026 10200 20184 40118 56011 70122
8/700 22224 04160 20303 333// 40804 5//// 80190=
0000076800
532
SNVX22 EGRR 111000
BBXX
ZCDW9 11104 99266 70481 41298 40312 10216 20201 40233 54000 70211
83202 22255 00230 20102 331// 40304=
ZCEF3 11104 99268 70718 41998 01326 10245 20177 40245 54000 70200
80000 22265 00260 20204 309// 40506=
AMOUK40 1110/ 99643 50658 46/// ///// 11008 21014 49979=
AMOUK20 1110/ 99542 50367 46/// ///// 10021 20019 49924=
AMOUK01 1110/ 99601 50261 46/// ///// 11012 21042 40032=
AMOUK17 1110/ 99134 70914 46/// ///// 10261 20226 40117=
AMOHK01 1110/ 99225 11139 46/// ///// 10184 20123 40212=
ZQAY4 11104 99320 31157 41/97 52010 10380 20304 40090 56005 70211
851// 22200 04255 20401 80320=
9HWT7 11103 99151 50132 41396 71215 10240 20180 40160 54000 76022
85760 22273 06230 20702 332// 41204 5//// 80200=
0000013400
533
SNVE21 AMMC 111000 RRA
BBXX
VNAH 11104 99383 31416 46/// /1908 10164 20114 30197 40221 52008
22200 04176 85135=

0000019800
534
SSVX08 KARS 111027
ZZYY 48400 10014 12004 750144 144847 6111/
11119 01126 10064 29092
22219 00091
33311 88872 20000 30912 20001 30906 43226
444 20110 10014 1218/ 521// 60401=
0000011000
535
UANT01 CWAO 111028
ARP BAW242 5543N04354W 1027 F370 MS58 276/41 KT
GCIVK QXT AOW 111028 F14A
0000043500
536
SNVB20 RJTD 111000
BBXX
JGQH    11104 99307 11370
46/// /3016 10128 20029 40273 53016 8////
22241 00191 1//05 70025=
JPBN    11104 99251 11292
46/// /0715 10179 20100 40253 53012 8////
22271 00237 1//04 70018=
JGQH    11104 99307 11370
46/// /3016 10128 20029 40273 53016 8////
22241 00191 1//05 70025=
JPBN    11104 99251 11292
46/// /0715 10179 20100 40253 53012 8////
22271 00237 1//04 70018=
0000017100
537
FTGD31 TGPY 111030
TAF
TGPY 111030Z 1112/1212 11014KT 9999 SCT019 BECMG 1123/1201 08010KT
SCT018 SCT038 PROB30 TEMPO 1208/1212 5000 SHRA SCT016 BKN036=
0000217100
538
SZNZ01 NZKL 111030
CREX++
T000103 A001 D01021 D06025++
-3683144 17478654 AUCT  2014 01 11 10 22 //// 11 07 00 01
04015 3204 04019 3205 04022 3206 04026 3208 04031 3210 04036 3212+
-4402404 -17636748 CHIT  2014 01 11 10 22 //// 11 07 00 01
04831 2032 04803 2001 04808 2001 04832 2021 04823 2009 04830 2011+
-4089929 17623168 CPIT  2014 01 11 10 22 //// 11 07 00 01
03678 2303 03664 2284 03692 2306 03684 2294 03686 2290 03692 2291+
-3618905 17548887 GBIT  2014 01 11 10 22 //// 11 07 00 01
05073 -0004 05066 -0013 05070 -0011 05077 -0007 05086 -0001 05077 -0012+
-3867541 17802288 GIST  2014 01 11 10 22 //// 11 07 00 01
03593 2753 03595 2750 03604 2756 03607 2755 03622 2765 03609 2748+
-4241288 17370277 KAIT  2014 01 11 10 22 //// 11 07 00 01
03258 2238 03252 2226 03260 2229 03268 2232 03261 2219 03290 2242+
-3755040 17815904 LOTT  2014 01 11 10 22 //// 11 07 00 01
02871 0204 02868 0199 02877 0204 02863 0187 02871 0191 02890 0207+
-3704657 17451175 MNKT  2014 01 11 10 22 //// 11 07 00 01
02333 -0143 02330 -0139 02318 -0144 02319 -0137 02313 -0136 02311 -0131+
-3947566 17692007 NAPT  2014 01 11 10 22 //// 11 07 00 01
02686 2036 02706 2050 02700 2040 02709 2043 02715 2044 02710 2034+
-3441483 17304870 NCPT  2014 01 11 10 22 //// 11 07 00 01
-04740 -8319 -04734 -8312 -04741 -8320 -04730 -8309 -04745 -8324 -04737 -8316+
-4581435 17062939 OTAT  2014 01 11 10 22 //// 11 07 00 01
04822 3388 04827 3387 04835 3389 04842 3390 04848 3390 04855 3392+
-2928002 -17789440 RBCT  2014 01 11 10 22 //// 11 07 00 01
05517 2011 05508 1999 05500 1990 05519 2007 05523 2010 05512 1997+
-2925114 -17790384 RFRT  2014 01 11 10 22 //// 11 07 00 01
02423 0191 02434 0201 02415 0179 02402 0165 02429 0190 02423 0182+
-4357010 17277383 SUMT  2014 01 11 10 22 //// 11 07 00 01
01955 1839 01944 1821 01985 1855 01963 1826 01992 1848 01995 1844+
-3764109 17618118 TAUT  2014 01 11 10 22 //// 11 07 00 01
04386 4013 04389 4013 04391 4013 04392 4012 04398 4016 04400 4016+
-4128448 17477985 WLGT  2014 01 11 10 22 //// 11 07 00 01
03069 2014 03072 2012 03084 2020 03092 2024 03097 2024 03105 2027++
7777
0000037700
539
SNVD15 KWNB 111000 RRN
BBXX
44064 11101 99370 70760 46/// /1405 10115 40150 91020 333 91205
555 11053 22058=
44063 11101 99390 70764 46/// /3001 10024 40132 91020 333 91202
555 11013 22014=
44041 11101 99372 70768 46/// /1304 10141 91020 333 91205 555
11045 22049=
44042 11101 99380 70763 46/// /1706 10089 40140 91020 333 91207
555 11068 22074=
0000066100
540
UDAF01 FAPR 111025
AMDAR 1110
LVR AFZA61 2733S 02150E 110935 F360 MS459 291/049 TB0 S031 333 F/// VG000=
LVR AFZA61 2743S 02053E 110943 F360 MS472 277/024 TB0 S031 333 F/// VG000=
LVR AFZA61 2748S 01955E 110950 F360 MS490 221/028 TB0 S031 333 F/// VG000=
LVR AFZA61 2753S 01855E 110957 F360 MS495 234/018 TB0 S031 333 F/// VG000=
LVR AFZA61 2758S 01755E 111004 F360 MS496 239/013 TB0 S031 333 F/// VG000=
LVR AFZA61 2802S 01654E 111011 F360 MS497 255/011 TB0 S031 333 F/// VG000=
LVR AFZA61 2805S 01553E 111018 F360 MS497 277/007 TB0 S031 333 F/// VG000=
LVR AFZA61 2808S 01452E 111025 F360 MS497 297/011 TB0 S031 333 F/// VG000=
0000031700
541
SNVD01 PANC 111000 RRD
BBXX
C6PT7 11104 99258 70777
41597 21312 10240 20211 40190 53010 70121 828//
22234 00250 20202 3//// 40404 5//// 6//// 80220 ICE /////=
C6FY8 11103 99359 70083
41697 43510 10160 2014/ 40180 52020 70220 83108
22200 0//// 20502 305// 4//// 5//// 6//// 80150 ICE /////=
0000013600
542
SNVD17 CWVR 111000
BBXX
46185 11101 99524 71298 46/// /2307 10079 49808 52016
22200 00074 1//// 70/// 333 91209 =

0000020800
543
SNVD22 KWNB 111000 RRO
BBXX
46087 11101 99485 71247 46/// /2410 10085 20082 49932 91020 22200
00078 333 91211 555 11104 22113 30921 42320 61019 244094 247088
248095 248097 247115 234149=
0000034500
544
SNVD01 KWBC 110800 RRV
BBXX
42887 11081 99282 70885 46/// /1810 10226 20199 90820 22200 10502
 70009 555 11087 22094=
42392 11081 99272 70900 46/// ///// 1//// 90820 22200 10401 70007=
42369 11081 99272 70903 46/// /1902 1//// 90820=
42375 11081 99285 70883 46/// /1610 1//// 90820 22200 10401 70007
 555 11084 22092=
0000019700
545
SNVF01 KWBC 110700 RRG
BBXX
DBFX 11071 99539 10087 46/// /2207 10060 20058 40100 57010 22220
 00071=
DBFC 11071 99544 10136 46/// /2407 10050 20034 40097 57005 22270
 00054=
00000000