0000151700
513
SMTU11 LTAA 110600
AAXX 11064
17026 12570 53107 10097 20095 30182 40221 52031 60002 83550
 333 20066 30001 55000 20511 83625 85360 92428=
17034 12970 40604 10102 21022 30172 40219 52031 60002 84030 333 20076
31004 84360 92428=
17070 12562 72001 10015 21035 39359 40247 52013 60002 87500
 333 21005 31103 50074 55044 20674 87630 91103=
17084 11658 82505 11016 21047 39338 40287 52015 60002 71022 8452/
 333 21036 34103 55028 84635 88460 91111=
17090 12965 00000 11068 21109 38752 48515 52005 60002
 333 21074 34109 55072=
17098 12960 03202 11221 21221 38213 48544 52005 60002
 333 21256 3/126 46006 50004 91104=
17150 11608 40000 10001 20001 30120 40249 52013 60002 74244 84100
 333 21017 31103 50031 55026 20507 84835 91105=
17160 11420 80603 11036 21037 39076 48525 53010 60002 71022 886//
 333 21041 31104 55000 88715 91105=
17184 12660 63201 10032 20016 30131 40246 52013 60002 82101
 333 21001 34102 55066 82840 86070 91103=
17190 11/03 91002 11045 21046 39043 48522 52013 60002 74944
 333 21045 34104 55000 89/04 91105=
17210 NIL=
17234 12670 70804 10054 20011 30168 40238 52012 60002 83270
 333 20039 31004 50094 55089 83840 87360 91111=
17260 12960 00000 11011 21047 39394 40240 52008 60002
 333 21047 34106 50004 55001 21361=
17290 12670 60602 10132 20115 30196 40228 52009 60002 82250
 333 20107 30008 50304 55064 82835 86360 91107 92418=
17370 12965 01702 10106 21019 30225 40229 53013 60002
 333 20088 30003 50204 55053 2//// 92417=
0000152200
514
SMTU12 LTAA 110600
AAXX 11064
17024 12665 82615 10091 20076 30141 40220 52026 60002 8351/
 333 20050 30004 55052 83635 88460 91141 92437=
17056 11/09 93001 10058 20057 30232 40236 52017 60002 74500
 333 20058 32003 55057 20758 89/30 91109 92413=
17067 12970 31402 10047 20018 30210 40233 52016 60002 83030
 333 20047 31004 55000 83360 91109 92408=
17092 11956 20000 11119 21131 38923 48528 52013 60002 71000 82030
 333 21150 34116 50034 55077 21160 82362 91104=
17112 11440 20502 10069 20055 30229 40231 52017 60002 71011 82600
 333 20069 30005 50074 55049 20758 82710 91107 92416=
17115 12960 00000 10005 21013 30183 40236 52013 60002
 333 20003 30000 50044 55057 20804 91106=
17116 12665 20905 10035 21018 30126 40251 52013 60002 82100
 333 20031 30001 55058 20653 82835 91113=
17188 12970 02802 11005 21047 39163 40259 52012 60002
 333 21007 34104 55000 91105=
17202 12960 02404 11067 21077 39209 40293 52011 60002
 333 21097 34///=
17248 11920 02401 11050 21056 39029 48517 51014 60002 72800
 333 21078 34110 55000 2//// 96010=
17292 11970 50000 11015 21016 39472 40254 52002 60002 72841 83031
 333 21019 34103 50074 55022 20540 83360 85070 91103=
17300 12560 53505 10048 20033 30156 40229 52012 69922 81101
 333 20040 30002 50231 55000 20394 70002 81830 85070=
17310 12670 10502 10114 20058 30221 40228 52013 60002 81200 333 20110
30007 55058 81835 91104 92428=
17330 12970 02905 10091 21026 30216 40234 53012 60002
 333 20084 30005 50201 55076=
0000009200
515
SAIN90 VOMM 110610
METAR VOMM 110610Z 03005KT 6000 SCT020 28/19 Q1015 NOSIG=
0000009800
516
SAIN90 VIJP 110600
METAR VIJP 110600Z VRB05KT 3000 HZ NSC 17/M02 Q1020 BECMG 5000=
0000017800
517
SAIN32 VIDP 110600
METAR VIDP 110600Z 30008KT 1300 R28/1800 R29/P2000 HZ NSC 13/07
      Q1019 BECMG 1500=
METAR VIAR 110600Z 29005KT 2600 BR NSC 13/09 Q1021=
0000011000
518
SMIN90 VABP 110600
AAXX 11063
42571 31594 83202 10156 20146 40169 71044 8653/
  333 58005=
0000011600
519
SMIN90 VAAU 110600
AAXX 11064
43014 32996 10000 10230 20062 39500 40148 80001
  333 58011 81075=
0000008300
520
UPIN90 VAAU 110600
PPAA 61051 43014
55392 15003 17503 26515 77999=

0000010200
521
UGIN90 VAAU 110600
PPBB 61051 43014 90037 00000 16003 18504 909// 16005 910// 19512 =

0000008300
522
SAIN90 VAAU 110600
METAR VAAU 110600Z 00000KT 6000 NSC 23/06 Q1017=
0000131500
523
SMTU13 LTAA 110600
AAXX 11064
17042 12670 51215 10102 21071 30169 40209 52036 60002 83250
 333 20090 30008 55050 83835 85360 92428=
17074 11520 80203 11033 21043 39290 40269 52020 60002 71022 8572/
 333 21067 34107 55043 20574 85725 88458 91108=
17086 12670 43003 11031 21054 39530 40276 52018 60002 84500
 333 21039 34106 55071 20892 84635=
17088 12970 01202 11075 21131 38821 48510 57015 60002
 333 21078 3/111 41997 55013 20201=
17140 11901 00000 11053 21062 38736 48513 52013 60002 74844  333
21060 3/106 45998 55022=
17155 11/04 90402 11043 21045 39113 40282 52009 60002 74922
 333 21044 34104 55044 89/03 91104=
17203 12970 30000 11072 21111 38921 48556 52012 60002 80001
 333 21098 34111 55021 2//// 83070=
17237 12670 12201 10041 21005 39731 40247 52012 60002 81100
 333 20030 34102 55065 81840 91104=
17250 12970 00306 11073 21089 38848 48524 52013 60002
 333 21077 34108 55031=
17270 12970 03102 10056 21046 39568 40228 52013 60002
 333 20033 30104 55057=
17295 12960 00506 10049 20038 30230 40237 53008 60002
 333 20040 30004 50234 55001=
17320 12970 33404 10093 20032 30222 40227 54000 60002 83030
 333 20086 30007 50261 55079 83360 92428=
17375 12970 03602 10091 20037 30229 40231 52012 60002
 333 20079 30003 50071 55073 91104 92408=
0000096200
524
SMTU14 LTAA 110600
AAXX 11064
17500 12560 21104 10061 20048 30170 40231 52013 60002 81101
333 20036 30001 50271 55085 20654 81825=
17501 NIL=
17505 NIL=
17507 12560 22308 10113 20047 30128 40244 52012 60002 81101
333 20108 30009 5///1 55/// 2//// 81825=
17510 12560 10000 10127 20074 30187 40197 52005 60002 81100
333 20110 30008 50401 55059 20633 81830 92417=
17515 12560 30000 10050 20029 30073 40256 52012 60002 81101
333 20034 30001 50121 55065 21064 81825 83070=
17521 12560 22506 10084 20048 30092 40234 52017 60002 81101
333 20064 30004 50081 55074 21064 81825=
17530 NIL=
17535 NIL=
17540 12560 12304 10092 20049 30226 40251 52014 60002 81101
333 20062 30002 50291 55/// 2//// 81830 92427=
17547 12560 11108 10124 20084 39980 40225 52011 60002 81101
333 20117 30010 5///1 55/// 2//// 81830 92437=
17550 NIL=
17572 12560 12206 10135 20074 30213 40238 52007 60002 81100
333 20111 30007 81830 92417=
0000012500
525
SMIL02 BIRK 110600
AAXX 11063
04013 41250 82318 10006 21005 49946 52028 76872 82620 555 3//18=
04064 NIL=
0000041900
526
SMGB01 GBYD 110600
AAXX 11064
61701 32960 50306 10165 20127 40126 85030
  333 20163 50541 55090 58015 85360=
61705 NIL=
61707 NIL=
61711 NIL=
61712 32960 03608 10152 20125 4//// 80000
  333 20152 50501 55085 5////=
61717 NIL=
61721 32960 40000 10175 20109 4//// 84070
  333 20170=
61722 NIL=
61731 32960 00904 10200 20109 4//// 80000
  333 20195 50761 55087 5////=
61733 NIL=
0000012600
527
SMTH02 VTBB 110600 RRA
AAXX 11064
48475 31958 20311 10303 20209 30136 40143 57020 70500 80005
  333 58007=
0000087100
528
SMYG10 LYBM 110600
AAXX 11061
13160 31696 71501 10051 20049 30118 40229 55001 71022 87070 333 20014
31101 55000 70002=
13262 11697 60000 10056 20050 30076 40227 56001 69912 70262 86500 333
20056 31002 55013 70010=
13272 32770 40702 10025 20000 30113 40236 53002 84500 333 20018 31101
55000 84650=
13285 31/91 90701 11011 21015 30136 40243 53002 74742 333 21016 31104
55011 70000=
13289 32698 22904 10011 21038 39018 48512 52007 82040 333 21007 31102
55042 70000=
13376 32697 80000 10042 20025 39977 40245 52005 885// 333 20042 31002
55022 70000=
13388 32698 70000 10005 21005 39995 40252 52005 87500 333 20002 31103
55042 70000=
13462 32660 70901 10077 20068 30197 40237 52009 85570 333 20060 31005
55/// 85634 87460=
13473 NIL=
13489 31693 10000 11008 21011 39705 40245 53011 74244 81500 333 21013
31103 55014 70000=
0000134700
529
SMGR01 LGAT 110600
AAXX 11064
16622 11002 69902 10034 20026 30231 40232 52012 60002 74222 86600
      333 20033 30/// 50080 55014 70000 90730 91107 555 10000
      30084 20000 89076 99092 30000 10060 20070 30080 40092 50133
      70000 77F// 7FY//=
16641 12460 60000 10104 20100 30220 40226 53005 60002 84850 333
      20104 30/// 50054 55010 70000 82818 83630 85357 90730 91103
      555 10000 30118 20000 89079 99100 40000 47696 44210 50000
      50102=
16682 12560 51404 10094 20065 30222 40233 50008 60002 81141 333
      20094 30/// 50100 55051 70000 81820 83068 90730 91106 555
      10000 30124 20000 89065 99088 30000 10102 20100 30114 40118
      50122 60184=
16716 NIL=
16734 36/// /9904 10141 20088 30171 40233 52010 333 20140
      90730 91115 555 10000 30156 20000 89059 99096=
16743 36/// /2912 10143 20090 30017 40215 52019 333 20140
      90730 91132 555 10000 30147 20000 89066 99081=
16749 12460 69902 10130 20103 30205 40219 52010 60002 86800 333
      20112 30/// 55068 70000 81818 85640 90730 91105 555 10000
      30130 20000 89066 99081 40000 47688 44230 50000 50116=
16754 12565 41709 10104 20084 30179 40227 52017 60002 81101 333
      20100 30/// 50050 55076 70000 81825 83068 90730 91115 555
      10000 30124 20000 89053 99085 40000 47664 44185 50000 50094=
0000011200
530
UANT99 KDDL 110608
ARP GTI8164 5506N02407W 0608 F360 MS58 222/49 KT
N465MC DDL XXW 110608 F78A
0000011100
531
UANT99 KDDL 110609
ARP AWE796 4705N03936W 0608 F370 MS53 297/41 KT
N281AY DDL XXN 110609 J35A
0000011000
532
UANT99 KDDL 110609
ARP AAL50 5057N04018W 0609 F340 MS56 309/38 KT
N726AN DDL XXW 110609 F46A
00000000