0000008800
913
SMRA11 RUNW 110600 RRO
AAXX 11061
36278 42999 42902 11124 21196 80002=
0000011200
914
SMRA16 RUNW 110600 RRD
AAXX 11061
24807 41998 81502 11299 21330 39864 40333 57005 70272 8803/=
0000011200
915
SMRA16 RUNW 110600 RRE
AAXX 11061
23982 41897 80000 11203 21229 30103 40270 52001 78582 8802/=
0000011200
916
SMRA11 RUNW 110600 RRP
AAXX 11061
29772 41596 70000 11087 21102 39735 40354 52002 77172 8652/=
0000015800
917
SNVD20 KWNB 111000 RRJ
BBXX
41052 11101 99183 70648 46/// /0807 10255 40166 53005 91000 22200
00266 10603 70015 333 91208 555 11076 22082=
0000021300
918
SNVD20 KWNB 111000 RRK
BBXX
41052 11101 99183 70648 46/// /0606 10249 40164 90950 333 91208
555 11071 22078=
41052 11101 99183 70648 46/// /0707 10241 40163 90940 333 91211
555 11075 22081=
0000015200
919
SNVD20 KWNB 111000 RRL
BBXX
41053 11101 99185 70661 46/// /1304 10245 40168 91000 22200 00266
10704 70019 333 91205 555 11046 22050=
0000021300
920
SNVD20 KWNB 111000 RRM
BBXX
41053 11101 99185 70661 46/// /1104 10243 40168 90950 333 91205
555 11048 22052=
41053 11101 99185 70661 46/// /1104 10244 40167 90940 333 91205
555 11046 22050=
0000016000
921
SSVX02 CWAO 111000
ZZYY 56513 11014 1000/ 344541 114462 6112/ 11119 
40121 52005 22219 00116 444 20130 11014 1000/ 50101 80150 80024 
9/015=
0000013900
922
SSVX02 CWAO 111000
ZZYY 64726 11014 1000/ 172070 013034 6113/ 22219 
00064 444 20130 11014 1000/ 50101 80138 80002 9////=
0000013900
923
SSVX02 CWAO 111000
ZZYY 64732 11014 1000/ 765043 003686 6113/ 22219 
00053 444 20130 11014 1000/ 50101 80140 80003 9/015=
0000016000
924
SSVX02 CWAO 111000
ZZYY 55581 11014 1000/ 338712 153606 6113/ 11119 
40143 52010 22219 00195 444 20130 11014 1000/ 50101 80142 80016 
9/015=
0000015100
925
SSVX02 CWAO 111000
ZZYY 55580 11014 1000/ 339629 160707 6113/ 11132 
40164 57004 22219 00180 444 20130 11014 1000/ 50100 80142 80021=
0000011800
926
SIVD15 KWNB 110900 RRU
BBXX
42022 11091 99275 70837 46/// /1205 10215 40167 90929 555 11061
22066=
0000029800
927
SIVD20 KWNB 110900 RRS
BBXX
41053 11091 99185 70661 46/// /1204 10241 40167 90930 333 91205
555 11042 22046=
41053 11091 99185 70661 46/// /1204 10241 40167 90920 333 91205
555 11039 22042=
41053 11091 99185 70661 46/// /1203 10241 40166 90910 333 91205
555 11037 22040=
0000027500
928
SXHW11 KWAL 111022
15D142A4 011102202":PRS 1 #1 1659 1628 1633 1626 1624 1619 1637 1631 1626 1595 :RAD 1 #1 7226 7216 7220 7211 7211 7210 7216 7211 7200 7191 :ENC 2 #5 5117 5110 5103 5099 :SW1 22 #60 0 :SW2 52 #60 0 :BAT 4 #5 13.0 :NAME 15D142A4  33+0NN 216W
0000013800
929
SNVD20 KWNB 111000 RRN
BBXX
44096 11101 99370 70758 46/// ///// 1//// 91017 22200 00070 10402
20402 311// 41001 70010=
0000023300
930
SNVD22 KWNB 111000 RRL
BBXX
46251 11101 99338 71196 46/// ///// 1//// 91009 22200 00155 11303
21002 328// 41302 70013=
46217 11101 99342 71194 46/// ///// 1//// 91009 22200 00153 11303
21002 328// 41302 70013=
0000012600
931
SNVD20 KWNB 111000 RRO
BBXX
44098 11101 99428 70702 46/// ///// 1//// 90951 22200 00058 10501
20501 70006=
0000060500
932
SAER10 OMAM 111000
METAR OMAD 111000Z 21006KT 150V240 9999 FEW045 22/12 Q1018 A3007
                   NOSI G=
METAR OMAH 111000Z 20005KT 7000 -RA OVC080 19/10 Q1019 A3009=
METAR OMAM 111000Z 19011KT 9999NDV BKN100 23/10 Q1017 A3003=
METAR OMDL 111000Z 28004KT 240V310 8000NDV -RA OVC080 19/13 Q1017 A3005=
METAR OMDM 111000Z 15008KT CAVOK 23/10 Q1019=
METAR OMLW 111000Z 18010KT CAVOK 22/11 Q1017=
METAR OMMZ 111000Z AUTO 16007KT /////NDV //// ///// 21/11 Q1018 A3007=
METAR OMSN 111000Z NIL=
METAR OMSW 111000Z NIL=
METAR OMTH 111000Z 13006KT 9999 OVC090 20/08 Q1020=
00000000