0000074900
253
SMCI03 BABJ 110600 RRC
AAXX 11061
51133 32980 33601 11036 21165 39664 40355 57023 83/// 333
05704 21163=
51431 32980 00701 11042 21155 39496 40346 57021 333 05801
21186=
51747 32965 02702 11046 21156 39089 40479 57005 333 00501
21230=
52203 32980 01401 11047 21193 39506 40459 57019 333 00501
21196=
53614 31955 01602 11004 21180 39011 40364 57017 70500 333
00402 21118=
53646 32975 02904 10003 21233 38942 40343 57021 333 00203
21118=
53798 31907 70902 10045 21058 30183 40283 57036 70500 87///
333 21042=
54102 32980 12903 11087 21217 39067 40340 57008 81/// 333
21212=
54161 32970 02504 11077 21163 39951 40264 57018 333 21179=
54292 32980 12905 11058 21185 39918 40255 57010 81/// 333
21148=
0000011800
254
SMCI01 BABJ 110600 RRD
AAXX 11061
51076 32980 02901 11093 21183 39492 40461 57013 333 00007
21232=
0000011800
255
SMCI01 BABJ 110600 CCB
AAXX 11061
54401 32972 22202 11007 21221 39347 40316 57031 82/// 333
21153=
0000011000
256
SMCI02 BABJ 110600 RRD
AAXX 11061
59117 32973 00201 10198 20079 30081 40221 57043 333 20100=
0000011800
257
SMCI02 BABJ 110600 CCB
AAXX 11061
59316 32780 60704 10192 20110 30224 40233 57035 86/// 333
20122=
0000019900
258
SMCI03 BABJ 110600 RRD
AAXX 11061
54423 31959 61401 11018 21202 39752 40296 57032 70500 86///
333 21166=
54618 31907 70000 11003 21014 30277 40296 57034 74244 87///
333 21065=
0000016300
259
SNVB01 KWBC 110400 RRF
BBXX
ELWR2 11043 99188 10726 41597 23603 10230 20078 40180 52020 70200
 80005 2229/ 04230 20101 33635 40201 50201 80144=
0000063100
260
SNVD01 KWBC 110400 RRU
BBXX
42047 11041 99279 70936 46/// /1808 1//// 40128 90430 22200 00215
 333 91209 555 11087 22094=
42047 11041 99279 70936 46/// /1808 1//// 40128 90400 22200 00215
 333 91209 555 11087 22095=
42046 11041 99279 70940 46/// /1808 10208 40128 90430 22200 00216
 333 91209 555 11088 22096=
42046 11041 99279 70940 46/// /1807 10209 40129 90400 22200 00216
 333 91208 555 11085 22092=
42044 11041 99262 70971 46/// /2003 1//// 40125 90430 22200 00144
 333 91203 555 11029 22032=
42044 11041 99262 70971 46/// /2002 1//// 40127 90400 22200 00144
 333 91203 555 11025 22027=
0000031100
261
SNVE01 KWBC 110400 RRH
BBXX
VNAH 11044 99383 31416 46/// /2009 10194 20115 30190 40214 57004
 22200 04175 85147=
C6FS9 11044 99238 31512 46/// /0921 10262 20176 30119 40155 57021
 22200 04281 85204=
VNSZ 11044 99412 31464 46/// /3020 10253 20084 30101 40126 57009
 22200 04194 85155=
0000013200
262
SNVJ01 KWBC 110400 RRC
BBXX
FHZI 11044 99637 31412 46/// /1921 10005 21005 39847 49858 57002
 22243 04005 85001=
0000075700
263
SNVD01 KWBC 110500 RRP
BBXX
42047 11051 99279 70936 46/// /1808 1//// 40127 90500 22200 00215
 333 91209 555 11088 22095=
42047 11051 99279 70936 46/// /1808 1//// 40125 90530 22200 00215
 333 91210 555 11095 22103=
42046 11051 99279 70940 46/// /1808 10208 40123 90530 22200 00216
 333 91210 555 11095 22103=
42046 11051 99279 70940 46/// /1808 10208 40124 90500 22200 00216
 333 91210 555 11095 22104=
42044 11051 99262 70971 46/// /1903 1//// 40126 90500 22200 00144
 333 91204 555 11034 22037=
42044 11051 99262 70971 46/// /1903 1//// 40125 90530 22200 00144
 333 91204 555 11034 22037=
LAVD4 11053 99225 71099 417// 10210 10210 2016/ 40163 51011 7////
 81/// 22273 0//// 20201 3//// 40201 50201 6//// 80180=
0000022200
264
SNVE01 KWBC 110500 RRE
BBXX
C6FS9 11054 99238 31512 46/// /1021 10263 20191 30109 40145 57026
 22200 04282 85213=
VNSZ 11054 99412 31464 46/// /3019 10257 20076 30099 40124 57008
 22200 04194 85153=
0000032900
265
SMCI01 BABJ 110600 RRA
AAXX 11061
51709 32970 20000 11041 21109 38764 40447 52001 82/// 333
00551 21113=
52866 32957 72001 11057 21194 37750 57025 87/// 333 00553
21185=
53772 31958 22502 10027 21159 39356 40316 57030 70500 82///
333 21101=
54471 42964 02005 10008 21052 30275 40281 57023 333 21135=
0000012400
266
SMCI01 BABJ 110600 CCA
AAXX 11061
53463 42965 31802 11070 21213 38938 40372 57019 83/// 333
00100 21167=
0000064700
267
SMCI02 BABJ 110600 RRA
AAXX 11061
56187 31559 60403 10097 21005 40284 57030 70540 86/// 333
00503 20017=
58040 31943 01802 10060 21036 30305 40313 57026 70540 333
21042=
58102 32965 01601 10089 21073 30255 40304 57031 333 20008=
58221 31950 70904 10065 20010 30267 40302 57024 70500 87///
333 20003=
58238 11425 80702 10048 20027 30259 40305 57022 69921 76060
88/// 333 20038=
58251 31955 80402 10057 21004 30306 40312 57019 70500 88///
333 20010=
58457 11917 80703 10059 20050 30237 40291 57026 60041 76084
88/// 333 20040=
58606 11450 80402 10050 20038 30224 40284 57020 60011 76066
88/// 333 20047=
0000011000
268
SMCI02 BABJ 110600 CCA
AAXX 11061
58102 32965 01601 10089 21073 30255 40304 57031 333 20008=
0000047900
269
SMCI03 BABJ 110600 RRA
AAXX 11061
50774 11962 22503 11192 21270 39901 40259 57010 69901 70070
82/// 333 21319=
53564 31943 03601 11020 21199 39279 40365 57031 70500 333
00102 21201=
53845 32975 20703 10012 21205 38924 40350 57021 82/// 333
00403 21119=
54094 42780 72702 11101 21195 39854 40263 57005 87/// 333
21253=
57127 32961 71602 10067 20004 39689 40314 57032 87/// 333
20021=
57131 32960 71804 10058 21096 40331 57031 87/// 333 21011=
0000038400
270
SMCI01 BABJ 110600 RRB
AAXX 11061
50468 32970 03204 11242 21330 30042 40280 52003 333 21357=
52983 32980 83603 11036 21217 38191 57017 88/// 333 00751
21154=
53513 32980 02505 11033 21215 39084 40378 57010 333 00202
21138=
54218 32980 02504 11006 21227 39443 40285 57023 333 21168=
54511 31955 72003 10037 21178 30241 40283 57035 70500 87///
333 21091=
0000093700
271
SMCI02 BABJ 110600 RRB
AAXX 11061
57265 32962 52904 10058 20017 30148 40316 57029 85/// 333
20018=
57494 31558 80201 10049 20021 30269 40301 57021 71000 88///
333 20028=
57816 31455 80902 10022 20015 38841 40281 57031 71060 88///
333 00651 20002=
58150 31956 21402 10064 21015 30307 40311 57022 70500 82///
333 21028=
58362 11761 80704 10056 20026 30295 40303 57022 60011 76065
88/// 333 20044=
58847 32666 72902 10157 20080 30149 40253 57031 87/// 333
20096=
59134 32560 11602 10187 20110 30063 40232 57030 81/// 333
20116=
59287 31961 13201 10211 20105 30132 40218 57039 70500 81///
333 20099=
59316 32780 60704 10192 20110 30224 40233 57035 86/// 333
20122=
59431 31629 80402 10142 20104 30075 40223 57028 70500 88///
333 20118=
59644 11562 70905 10205 20153 30190 40207 57032 69901 70060
87/// 333 20163=
59758 32475 60706 10229 20180 30121 40197 57031 86/// 333
20188=
0000023800
272
SMVD80 KWBC 110600 RRB
BBXX
WYR4481 11064 99458 70871 43/// /1213 10011 49978 2223/ 00003=
WYP8657 11064 99458 70846 43/// /1209 10014 40001 2227/ 00001=
WUR8857 11064 99445 70874 43/// /2016 10013 49974 2221/ 00013=
00000000