0000024100
333
SOAT10 KWAL 110608
FA8005BC 011060837 OT12 ID:KN-BASS-01 DT:2014 01 11 06 06
:RD -3144 -3159 -3169 -3206 -3170 -3143 -3157 -3138 -3151 -3157
:PR 0473 0488 0494 0509 0511 0499 0535 0555 0463 0533
:B 13.7V
 46+0NN 219E
0000018400
334
SMFP01 LFVP 110600
AAXX 11064
71805 04586 82722 11017 21063 30223 40232 56010 60002 700//
  333 11016 21040 3/105 4//// 55/// 60007 70000 90710 91131
  555 60005=
0000005200
335
RRIN23 VECC 110607
RQRPT 187-228=

0000042800
336
SAIN33 VECC 110550
METAR VECC 110550Z 06006KT 2300 HZ NSC 23/13 Q1016 NOSIG=
METAR VEPT 110550Z NIL=
METAR VGEG 110550Z 24006KT 4000 HZ NSC 23/12 Q1015 NOSIG=
METAR VGHS 110550Z 32003KT 2800 HZ NSC 19/12 Q1016 BECMG S/VIS 3000M=
METAR VNKT 110550Z 25003KT 3000 HZ FEW020 15/01 Q1020 BECMG FM 0620Z
4000 HZ=
METAR VQPR 110550Z 15007KT 4000 BR FEW015 SCT100 BKN200 02/M02 Q1026
NOSIG TEMPO LIGHT RA.=
0000009600
337
UGIN90 VAAH 110600
PPBB 61051 42647 90012 04506 06514 06515 
90340 06511 04012=

0000011000
338
SMIN90 VOMM 110600
AAXX 11064
43331 32597 30903 10290 20199 30109 40153 83400
  333 58006=
0000011000
339
SMIN90 VAKJ 110600
AAXX 11064
42567 31/92 92905 10158 20151 40176 74544 89///
  333 58006=
0000008800
340
SAIN90 VAKJ 110600
METAR VAKJ 110600Z 29005KT 0400 FG VV/// 16/15 Q1018=
0000014600
341
SMQT10 OTBD 110600
AAXX 11064 41170 41457 80303 10172 20150 30206 40219 76166 8257/ 333
20169 59011 82615 83360 88462 555 00140=
0000075300
342
SMNO47 ENMI 110600
AAXX 11061
01045 31989 01403 11108 21123 70200 333 21116 44030 70000=
01057 NIL=
01075 NIL=
01207 11680 10803 11040 21056 69902 70280 81100 333 21040 70015=
01298 11X60 80803 11145 21158 69912 78582 8696/ 333 21155 48050
      70005=
01318 11465 80401 11016 21027 69912 77072 886// 333 21025 47997
      70029=
01319 11475 82101 10012 2//// 69962 70282 889// 333 20012 70055=
01322 11160 80301 11016 21016 60022 78582 883// 333 21025 47005
      70078=
01369 13X30 80303 11056 21056 60024 333 21074 47050 70020=
01439 11480 22401 10028 20019 60022 70181 81961 333 20024 70020=
01459 31875 12701 11001 21002 70100 81030 333 21001 70000=
01493 41570 51001 10012 20003 70322 333 20002 91105=
0000213000
343
SMNO48 ENMI 110600
AAXX 11061
01002 46/// /1605 11060 21099 30045 40056 57004 333 21081 91106=
01006 46/// /2207 11024 21055 30063 40079 58006 333 21046 91108=
01009 46/// ///// 11037 2//// 30052 40059 54003 333 21043 91105=
01011 NIL=
01016 NIL=
01017 46/// /2604 11005 2//// 30091 40099 52004 333 21012 91107=
01020 46/// /3106 11006 21033 30093 40104 52007 333 21014 91110=
01024 46/// /2901 11039 21048 30068 40081 54001=
01035 46/// ///// 11168 2//// 333 21188 4/168=
01043 46/// /1201 11076 2//// 333 21076 91102=
01105 46/// /0611 11059 21103 333 21060 91116=
01124 16/// ///// 11123 21177 60002 333 21124 70001=
01133 16/// /1507 11094 21175 60002 333 21099 4/011 70004 91118=
01146 16/// /0406 11075 21147 60002 333 21097 70000 91113=
01148 16/// /1209 11098 21199 60002 333 21105 4/071 70000 91119=
01158 16/// ///// 11094 21206 30124 40134 53003 60002 333 21101
      70000=
01198 16/// ///// 11250 21276 39928 40209 52007 60002 333 21269=
01214 46/// /1302 11030 21065 333 21042 91103=
01221 16/// ///// 11120 21164 69962 333 21120 70020=
01224 NIL=
01239 16/// /1002 11138 21153 69912 333 21149 4/018 70002 91104=
01242 16/// ///// 11088 21143 60002 333 21096 70000=
01287 16/// ///// 11169 21199 60012 333 21169 4/031 70033=
01315 16/// /0000 10003 21001 60032 333 20001 70050 91102=
01326 16/// ///// 10000 21005 6//// 333 21001=
01346 16/// /2707 11038 21047 60002 333 21052 70000 91113=
01352 NIL=
01356 46/// ///// 11100 2//// 49925 51009 333 21100=
01365 16/// /0602 11078 21090 69942 333 21100 4/071 70008 91107=
01414 46/// /2709 10057 2//// 333 20046 91117=
01417 16/// ///// 10036 20014 60092 333 20030 70156=
01418 46/// ///// 10058 2//// 333 20033=
01426 46/// /2812 10060 2//// 333 20057 91116=
01444 16/// /1501 10001 21009 69922 333 21033 70002 91106=
01449 16/// /0901 11022 21025 60002 333 21022 70000 91102=
01453 16/// /1601 11022 21024 60002 333 21023 4/032 70000 91104=
01478 46/// ///// 10054 2////=
01486 16/// ///// 11007 21017 69952 333 21034 70005=
01487 46/// /0505 11017 21024 333 21017 91108=
0000013200
344
SMJD50 OJAM 110600
AAXX 11064
40310 32560 83707 10061 20041 39003 48538 52009 333 88800 20045 30001
84825 84625=
0000094800
345
SMNL50 EHDB 110600
AAXX 11061
06206 46/// /2310 10075 20072 30025 40078 56016
333 20073 91012 91113 91211
555 51113 51211=
06207 47461 62311 10080 20061 30032 40086 56015 75286 8////
333 20079 81/12 84/32 86/36 91012 91114 91212
555 51114 51212=
06239 47162 82510 10074 20074 39993 40054 55013 75186 8////
333 20071 83/03 87/04 88/05 91012 91116 91213
555 51114 51212=
06252 46/// /2213 10085 20074 30043 40089 56014 222// 00096 10605
333 20083 91016 91116 91213
555 51116 51213=
06260 17256 82005 10044 20031 30134 40136 57012 60002 71000 8////
333 20044 3/004 79999 88/06 91007 91110 91207
555 51108 51206 53000=
06270 17240 82107 10056 20047 30107 40107 56012 69962 75885 8////
333 20043 3/004 70006 84/05 88/06 91011 91112 91208
555 51112 51208 53000=
06290 17258 82006 10034 20022 30096 40137 58012 60002 71000 8////
333 20034 3/003 70000 88/06 91008 91109 91206
555 51108 51206 53000=
0000230400
346
SMNL51 EHDB 110600
AAXX 11061
06201 47157 83308 10071 20063 30021 40073 53002 76285 8////
333 20071 81/03 84/10 87/12 91010 91113 91211
555 51111 51209=
06203 47261 8//12 10084 20070 30057 40108 58012 72385 8////
333 20083 83/06 85/07 85/10 91014 91115 91213
555 51114 51212=
06204 47358 82412 10086 20071 30040 40091 56018 76165 8////
333 20083 81/09 84/11 88/13 91015 91116 91214
555 51116 51214=
06205 47473 83308 10070 20051 39996 40055 55000 72385 8////
333 20066 82/15 85/22 88/26 91009 91113 91211
555 51110 51208=
06208 47249 82108 10063 20054 30050 40099 56013 75785 8////
333 20062 85/04 88/05 91011 91112 91210
555 51112 51210=
06211 47139 82411 10072 20068 30022 40078 56011 75186 8////
333 20069 82/03 86/04 87/06 91013 91115 91212
555 51114 51212=
06212 47559 72311 10084 20063 3//// 4//// 5//// 75265 8////
333 20080 83/25 84/29 87/33 91014 91115 91212
555 51115 51212=
06235 17244 82209 10067 20062 30110 40110 56012 60032 75386 8////
333 20065 3/006 70031 84/05 87/06 88/09 91013 91114 91210
555 51113 51210 53000=
06240 17350 82107 10052 20039 30136 40131 56009 60002 71085 8////
333 20051 3/005 70000 87/07 88/08 91009 91112 91209
555 51110 51207 53000=
06251 13/50 /2110 10067 20062 30095 40096 56014 60042
333 20063 3/006 70036 91013 91115 91212
555 51114 51210 53000=
06258 46/// /2112
333 91014 91116 91213
555 51114 51212=
06269 17250 82107 10046 20035 30133 40127 56012 60002 71051 8////
333 20045 3/004 70000 86/06 88/08 91009 91112 91209
555 51112 51209 53000=
06280 17229 82107 10051 20044 30113 40117 56010 69972 75281 8////
333 20039 3/003 70007 85/06 88/07 91010 91110 91208
555 51110 51208 53000=
06310 17236 82109 10045 20035 30133 40143 57009 60002 71011 8////
333 20045 3/004 79999 87/05 88/07 91010 91110 91209
555 51110 51209 53000=
06344 17350 82007 10046 20033 30143 40136 56010 60002 71000 8////
333 20045 3/004 70000 81/07 88/08 91009 91111 91208
555 51109 51207 53000=
06370 17261 82204 10034 20021 30124 40150 56008 60002 70200 8////
333 20030 3/002 70000 87/06 88/07 91005 91108 91206
555 51105 51204 53000=
06380 17969 82005 10031 20020 30016 40158 56009 60002 70200 8////
333 20013 3/001 70000 88/59 91006 91107 91205
555 51106 51205 53000=
0000114600
347
SMNL52 EHDB 110600
AAXX 11061
06210 17356 82106 10052 20038 30132 40132 56009 60002 75110 8////
333 20051 3/005 70000 84/08 86/09 88/11 91008 91111 91207
555 51109 51206 53000=
06225 46/// /2113
333 91015 91117 91214
555 51115 51213=
06242 47359 82209 10073 20066 30098 40100 56013 76185 8////
333 20068 3/006 81/09 83/18 86/32 91011 91116 91214
555 51113 51210=
06257 16/// ///// 10060 20048 69932
333 20059 3/006 70003
555 53000=
06275 17250 82205 10035 20026 30086 40142 56007 60002 71000 8////
333 20035 3/004 70000 88/06 91007 91109 91206
555 51108 51206 53000=
06330 16/// /2109 10049 20037 30122 40136 55009 60002
333 20048 3/005 70000 91011 91113 91209
555 51112 51209 53000=
06340 47256 82303 10035 20024 30129 40148 58006 71010 8////
333 20034 3/003 88/06 91005 91108 91205
555 51106 51204=
06350 17258 82104 10033 20020 30131 40146 58007 60002 71010 8////
333 20032 3/003 70000 87/06 88/07 91006 91108 91206
555 51107 51205 53000=
06375 17259 82404 10032 20022 30125 40150 55006 60002 71000 8////
333 20030 3/002 70000 88/05 91006 91109 91207
555 51107 51206 53000=
0000162900
348
SMNL53 EHDB 110600
AAXX 11061
06248 46/// /2110
333 91012 91113 91211
555 51112 51210=
06249 17/50 /2107 10054 20043 69902 72381
333 20053 3/005 79999 91010 91111 91208
555 51110 51207 53000=
06267 17335 82108 10055 20046 60012 72185 8////
333 20055 3/005 70014 88/07 91011 91111 91209
555 51111 51208 53000=
06273 17/38 /2107 10049 20040 69902 71081
333 20049 3/005 79999 91009 91110 91207
555 51110 51207 53000=
06277 16/// /2109 10059 20053 69932
333 20055 3/005 70003 91012 91113 91210
555 51113 51210 53000=
06278 16/// /2105 10043 20030 60002
333 20043 3/004 70000 91009 91109 91205
555 51109 51205 53000=
06279 17346 82106 10047 20036 30104 40124 58012 69902 72381 8////
333 20047 3/004 79999 88/07 91008 91109 91206
555 51109 51206 53000=
06283 16/// /2104 10029 20021 60002
333 20029 3/003 70000 91007 91109 91206
555 51108 51205 53000=
06286 16/// /2108 10053 20040 69912
333 20040 3/003 70001 91012 91112 91208
555 51112 51208 53000=
06319 13/50 /2104 10038 20029 30148 40150 56005 60002
333 20037 3/003 70000 91005 91109 91207
555 51105 51204 53000=
06348 17/50 /2106 10042 20031 30138 40137 58010 60002 71010
333 20041 3/004 70000 91009 91110 91208
555 51110 51207 53000=
06356 163// 82006 10037 20026 30139 40140 58011 60002 8////
333 20037 3/004 70000 88/07 91007 91109 91206
555 51107 51206 53000=
06377 17958 32202 10007 20003 60002 71010 8////
333 20003 3/102 70000 83/61 91002 91105 91204
555 51103 51203 53000=
06391 16/// /2102 10014 20013 60002
333 20010 3/101 70000 91003 91105 91203
555 51104 51203 53000=
0000047200
349
SMNL54 EHDB 110600
AAXX 11061
06209 NIL=
06285 NIL=
06308 NIL=
06311 NIL=
06312 NIL=
06313 NIL=
06315 NIL=
06316 NIL=
06320 46/56 /2211 10057 20055 30102 40129 56010 222// 00081 10603
333 20056 91013 91114 91212
555 51113 51211=
06321 46/61 /2112 10073 20059 30104 40128 57008 222// 00086 10603
333 20071 91014 91114 91212
555 51114 51212=
06324 NIL=
06331 NIL=
06343 46/// /1908
333 91011 91111 91208
555 51111 51208=
0000010600
350
SICI26 BABJ 110300 CCA
AAXX 11031
58314 41958 80000 10056 20010 40329 52004 76066 88///=
0000019300
351
SMUR10 UKMS 110600 RRA
AAXX 11061
33663 32597 62902 10041 21017 30065 40162 52022 86500 333
20037 86627=
33924 32998 32908 10074 20013 30173 40185 52026 80001 333
20063=
0000011000
352
UANT99 KDDL 110607
ARP UAL38 5719N02839W 0607 F360 MS58 219/52 KT
N41135 DDL IG1 110607 F70A
00000000