0000011000
953
UANT01 CWAO 110615
ARP ACA876 4920N04835W 0615 F340 MS62 302/58 KT
CFIVS DDL XXW 110615 F04A
0000011000
954
UANT01 CWAO 110615
ARP QTR708 5424N04659W 0615 F290 MS55 293/79 KT
A7BAN QXT AOW 110615 F15A
0000011000
955
UANT01 CWAO 110615
ARP DLH465 4541N03655W 0614 F370 MS47 263/34 KT
DABVY QXT AME 110615 F98A
0000016000
956
SMBY40 UMMN 110600 RRA
AAXX 11061
26759 11597 73005 10017 21008 39778 40010 52037
60012 70262 873// 333 20017 87927 91012 91117
555 90010=
0000038500
957
SSVX13 LFPW 110600
ZZYY 61691 11014 0600/ 144463 033018 6113/ 11119 40209 52035 22219
 00095 33300 88870 20000 30952 20011 30960 20013 30946 20016 30956
 20021 30944 20026 30948 20031 30956 20036 30944 20041 30940 20047
 30944 20052 30932 20057 30932 20062 30924 20067 30828 20072 30800
 20077 30780 20082 30796 444 20131 10014 2050/ 50101 80094 80048
 9/015=
0000011100
958
UANT01 CWAO 110615
ARP RCH248 5030N04836W 0615 F330 MS60 307/59 KT
66168A DDL XXW 110615 F37A
0000011000
959
UANT01 CWAO 110615
ARP UAL82 5607N03938W 0615 F320 MS59 276/28 KT
N78008 DDL XXW 110615 F33A
0000014200
960
UENL20 EHDB 110500
TTDD 1105/ 06235
11810 56173
21212 11930 30513 22900 28511 33886 27511 44810 29018
31313 48008 80517=
0000064800
961
UKNL20 EHDB 110500
TTBB 11058 06235
00011 06806 11905 00800 22745 07301 33642 13314 44622
12915 55583 15518 66486 25922 77370 39350 88325 45939
99315 47120 11271 54535 22230 59957 33206 58369 44179
55976 55164 51575 66100 55574
21212 00011 23008 11971 22016 22870 24516 33718 25018
44703 26020 55664 28015 66624 27514 77601 24510 88523
26510 99506 27512 11410 25018 22331 25525 33279 24028
44224 25034 55215 25530 66205 24523 77165 26516 88161
25519 99151 27022 11138 28518 22125 27510 33121 26011
44116 26516 55112 28517 66100 29017
31313 48008 80517
41414 852//
51515 11894 24015 22800 24518 33600 24510=
0000010200
962
ULNL20 EHDB 110500
TTCC 1105/ 06235
70829 /////
88999
77999
31313 48008 80517=
0000033600
963
USNL20 EHDB 110500
TTAA 11051 06235
99011 06806 23008 00092 06008 23011 92727 02000 23516
85405 01300 24517 70929 10309 26020 50547 24318 27512
40706 35142 25018 30900 49334 24527 25017 56950 25033
20158 55973 24524 15342 53575 27022 10603 55574 29017
88230 59957 24534
77224 25034 40312
31313 48008 80517=
0000016000
964
SMVB11 LFPW 110600
BBXX
A8VL6 11064 99257 11204 41597 50225 10140 20114 40230 58010 70211
82164
22213 04160 21404 30201 41404 50802 80125=
0000159300
965
SMIR01 OIII 110600
AAXX 11061
40706 11656 50703 11092 21129 38690 40333 52018 60001 70511 81502
333 3/116 42003 70000 81635 85068 90768 93100 555 11098 29074=
40718 12465 83003 10072 20049 30213 40183 57006 60001 8662/ 222// 
0095 20300 333 30101 50081 70000 86715 88458 555 10062 29085=
40732 12660 70000 10078 20051 30207 40182 55000 60001 84506 333 
30100 50091 70000 84640 87267 555 10066 29083=
40745 12660 50803 10050 21111 39076 40252 51008 60001 81542 333
      30109 70000 81635 83068 555 11002 29030=
40754 11658 72303 10029 21058 38866 40254 53013 60001 70522 
82575 333 30104 5//// 70000 82640 84460 87270 555 11002 29053=
40766 11656 80904 11007 21019 38707 40234 52012 69931 71072 
8432/ 333 3/104 43002 70025 82935 84640 88457 90768 93102 555
11011 29092=
40800 11620 50000 11052 21079 38479 40273 52010 60001 71010 82530
      333 3/109 42004 5///1 70000 82640 84360 90768 93100 555 
      11058 29082=
40811 11557 81105 10120 20096 30170 40197 52006 60071 71062 8637/ 
333 32009 50121 70169 82930 84635 88459 555 10108 29085=
40841 12660 73002 11016 21066 38278 40300 52018 60001 82110 333
      3/114 43006 5///1 70000 82835 87460 90768 93100 555 11032
      29068=
40848 11525 80000 10014 20004 38570 40268 52014 69901 71072 8332/
333 31101 5///1 79999 81930 82635 88458 555 10010 29093=
40856 12662 51703 10034 21033 38695 40275 51019 60001 81576 333
30108 5///1 70000 81635 85270 555 10009 29062=
40875 11557 80702 10130 20094 30219 40231 50008 69931 76262 8535/
      333   31006 50241 70003 82925 83630 88458 555 10112 29079=

0000164500
966
SMSB01 VCCC 110600
AAXX 11064
43400 NIL=
43404 22470 70206 10272 20225 30135 40147 84106 333 58006 60007 70000
84818 87280=
43410 NIL=
43413 22470 13605 10275 20235 30140 40145 81100 333 58008 60007 70000
81818=
43415 22470 50903 10291 20229 30034 40142 85200 333 58007 60007 70000
85818=
43418 22470 73602 10276 20233 3//// 4//// 85336 333 58/// 60007 70000
82818 83920 84280=
43421 21470 63601 10274 20217 30038 40140 70244 86100 333 58006 60007
70000 86818=
43422 22470 60503 10280 20223 30007 40137 86100 333 58008 60007 70000
86818=
43424 22478 43607 10285 20221 30125 40128 84100 333 58005 60007 70000
84818=
43436 22470 43208 10278 20239 30133 40136 83101 333 58004 60007 70000
83818 83080=
43441 22470 20502 10301 20218 39993 40122 82100 333 58010 60007 70000
82818=
43444 22470 11402 10280 20200 39593 40125 81101 333 58008 60007 70000
81818=
43450 22466 13204 10307 20213 30119 40128 81100 333 58011 60007 70000
81816= 
43467 22470 12908 10298 20208 30120 40125 81100 333 58012 60007 70026
81816=
43473 22470 10903 10190 20128 38149 48512 81101 333 58012 60007 70000
81814=
43475 22470 32702 10288 20239 30123 40132 83900 333 58007 60007 70000
83818 81919=
43476 22470 30902 10232 20152 38796 48543 82101 333 58005 60007 70000
82812=
43479 21470 30502 10246 20195 39289 70141 81101 333 58004 60000 70000
81816 83080=
43486 21470 20000 10297 20235 30026 40120 70242 82100 333 58017 60007
70416 82816=
43495 22470 13204 10276 20247 30109 40125 81100 333 58009 60007 70334
81818=
43497 22970 03603 10326 20231 30104 40120 333 58006 60007 70000=
0000011100
967
UANT99 KDDL 110614
ARP AAL104 5140N02430W 0614 F400 MS53 224/70 KT
N778AN DDL XXW 110614 F45A
0000014300
968
UANT99 KDDL 110614
ARP BER7341 4548N01325W 0613 F390 4759N00845W 0640 4759N00800W MS61
 257/38 KT
DABXC QXT AOE 110615 J45A
0000013800
969
SMLY01 HLMC 110600 RRA
AAXX 11064
62012 32860 41910 10142 20058 30204 40234 52003 84040
  333 20123 50454 55/// 84358=
0000012600
970
SMAA19 LFVW 110600 RRA
AAXX 11064
89614 46/// /0935 11040 29001 38977 4//// 5//// 90630
  333 90700 91143=
0000009400
971
SMAA17 LFVW 110600 RRB
AAXX 1106/
89767 46/// ///// 11026 39800 4//// 5////=
0000011100
972
UANT99 KDDL 110615
ARP BER7341 4555N01312W 0614 F390 MS61 253/40 KT
DABXC QXT AOE 110615 J46A
00000000