0000013900
533
SARA35 RUMS 102100
METAR USCM 102100Z 13002MPS 4500 -SN VV011 M07/M08 Q1008 TEMPO 1000
SHSN VV003 19490532 RMK QFE719=

0000052100
534
SARS33 RUMS 102100
METAR ULLI 102100Z 36005MPS 310V050 6000 -SNRA BKN007 OVC028 01/01
Q0983 28////// 78620245 NOSIG RMK 28R/36005G09MPS=
METAR UUBW 102100Z 19005MPS 9999 OVC007 04/02 Q0988 NOSIG=
METAR UUDD 102100Z 22003MPS 190V250 9999 -RA BKN006 OVC016 04/03
Q0988 64290195 NOSIG=
METAR UUDL 102100Z NIL=
METAR UUEE 102100Z 21004MPS 8000 OVC006 04/03 Q0987 75290151 25290151
NOSIG=
METAR UUWW 102100Z 22004MPS 9999 BKN010 OVC100 03/03 Q0987 24290045
NOSIG=
METAR UUMO 102100Z NIL=

0000030000
535
SARS31 RUMS 102100
METAR ULWC 102100Z NIL=
METAR UUBP 102100Z NIL=
METAR UUOB 102100Z 25006G09MPS 4000 -RA BR OVC009 02/02 Q0999
29290050 NOSIG=
METAR UUOK 102100Z NIL=
METAR UWGG 102100Z 17007MPS 4400 -SN OVC006 01/00 Q0994 TEMPO 1000
SHSNRA VV004 18690540 RMK QFE738=

0000055400
536
SARA36 RUMS 102100
METAR UWUU 102100Z 16003MPS 4500 -SN OVC010 M02/M03 Q1007 14650440
TEMPO 1000 SN FZRA BKN003 RMK QFE744/0993 FBL ICE INC=
METAR USCC 102100Z 16003MPS 5000 -SHSN BR BKN010CB OVC070 M05/M06
Q1009 09490350 TEMPO 1100 SHSN BKN005 RMK QFE736=
METAR USNN 102100Z 33002MPS 9999 SCT022 OVC057 M11/M13 Q1017 NOSIG
RMK QFE759 03420242=
METAR USRR 102100Z 07002MPS 7000 SCT011 M27/M30 Q1018 NOSIG RMK
QFE758 07////35=
METAR USSS 102100Z 14002MPS 5000 -SN BKN016 OVC067 M03/M05 Q1008
08590230 NOSIG RMK QFE736=

0000041200
537
SARA33 RUMS 102100
METAR UIAA 102100Z 00000MPS 9999 FEW100 M22/M26 Q1023 NOSIG RMK
QFE708 29CLRD70=
METAR UIBB 102100Z 05001MPS 5000 BR FEW003 M23/M25 Q1028 TEMPO 0300
FG VV002 RMK QFE728/0970 30490530=
METAR UIII 102100Z 18001MPS CAVOK M16/M18 Q1031 NOSIG RMK QFE728/0971
30490340=
METAR UIUU 102100Z 28003MPS 5000 -SN SCT033 OVC100 M13/M15 Q1028
NOSIG RMK QFE726/0968 26490842=

0000012700
538
SARA31 RUMS 102100
METAR UEEE 102100Z 22001MPS 3200 -SN BR OVC200 M44/M48 Q1034 NOSIG
RMK QFE767 23490145=

0000073700
539
SARS36 RUMS 102100
METAR ULAA 102100Z 08008G11MPS 2000 -SN BLSN OVC007 M17/M20 Q1002
TEMPO 0600 SN BLSN OVC003 RMK QFE751/1001 SC050=
METAR ULMM 102100Z 00000MPS 9999 BKN003 M33/M37 Q1017 NOSIG RMK
QBB100 OBST OBSC QFE755 31450239=
METAR ULOO 102100Z 30005MPS 4000 BR OVC003 02/02 Q0983 19290055 NOSIG
RMK QBB100 OBST OBSC QFE733=
METAR ULPB 102100Z AUTO 01005MPS 340V040 1300 NCD M09/M09 Q0989=
METAR UMKK 102100Z 30006G11MPS 270V350 6000 -SHRA SCT010 OVC024CB
04/00 Q1003 R24/29//60 NOSIG RMK QFE751/1002=
METAR UUOO 102100Z 20006G10MPS 7000 -RA OVC004 02/01 Q0997 NOSIG RMK
12290250=
METAR UUYY 102100Z 03004MPS 6000 -SN BKN008 OVC066 M16/M18 Q1005
TEMPO 1000 SN BR 0145//33 RMK QFE744/0993=

0000094800
540
SACI32 ZBBB 102100
METAR ZGKL 102100Z VRB02MPS 1500 -RA BR FEW005 OVC026 07/06 Q1025
NOSIG=
METAR ZGNN 102100Z 06003MPS 2300 -RA BR FEW008 SCT011 OVC020
12/11
Q1021 NOSIG=
METAR ZGOW 102100Z 34001MPS 5000 BR NSC 12/09 Q1025 NOSIG=
METAR ZGSZ 102100Z 06003MPS 4000 BR SCT020 14/10 Q1024 NOSIG=
METAR ZLXY 102100Z 34001MPS 2500 HZ NSC M03/M07 Q1030 NOSIG=
METAR ZMUB 102100Z VRB01MPS 5000NW FU NSC M34/M38 Q1025 NOSIG
RMK
QFE661.0 66 NT=
METAR ZPPP 102100Z 20006MPS CAVOK 05/01 Q1021 NOSIG=
METAR ZSAM 102100Z VRB01MPS 9999 OVC030 13/08 Q1025 NOSIG=
METAR ZSFZ 102100Z 35003MPS 300V050 9999 BKN025 11/05 Q1027 NOSIG=
METAR ZSNB 102100Z 00000MPS 4000 -RA BR NSC 05/03 Q1030 NOSIG=
METAR ZSQD 102100Z 00000MPS 2800 BR NSC M04/M07 Q1033 BECMG TL2230
1400=
METAR ZUGY 102100Z VRB01MPS 6000 -DZ FEW002 BKN009 OVC026
01/00
Q1024 NOSIG=
METAR ZUUU 102100Z 31001MPS 5000 BR SCT050 06/02 Q1027 NOSIG=

0000011100
541
SPUS41 KWBC 102107
SPECI
KHVN 102103Z 00000KT 2 1/2SM BR FEW003 SCT008 OVC031 02/01 A3037=

0000009500
542
SPUS42 KWBC 102107
SPECI
KCHA 102103Z 00000KT 3/4SM BR OVC004 08/07 A3008=

0000038100
543
SAAE33 VTBB 102100
METAR VVTS 102100Z 05003KT 9999 FEW017 SCT040 22/19 Q1012 NOSIG =
METAR VVNB 102100Z 29004KT 2300 BR FEW020 BKN050 15/11 Q1020 NOSIG=
METAR VVDN 102100Z 34004KT 4000 BR SCT013 BKN060 21/19 Q1018 NOSIG=
METAR VVPB 102100Z NIL=
METAR VVCR 102100Z 35007KT 9999 FEW017 24/18 Q1015 NOSIG=
METAR VVCT 102100Z NIL=
METAR VVPQ 102100Z NIL=

0000012100
544
SAUK36 EGGY 102050 RRB
METAR EGWU 102050Z AUTO 22007KT 9999 // FEW011/// BKN043/// 08/06
     Q1013=

0000018200
545
FTPA31 PHFO 102100 AAA
TAF PHNL 102105Z 1021/1124 05011KT P6SM FEW030 SCT045
     FM110800 03005KT P6SM FEW030 SCT050
     FM112100 13008KT P6SM FEW030 SCT050=

0000029300
546
FTPQ31 PGUM 102100 RRA
TAF PGRO 102106Z 1021/1118 06014KT P6SM VCSH SCT015 SCT120
     FM110000 06015KT P6SM VCSH SCT015 SCT120
     FM110800 06011KT P6SM VCSH FEW020=
TAF PGWT 102106Z 1021/1118 06016KT P6SM VCSH SCT020 SCT120
     FM110800 06011KT P6SM VCSH FEW020=

0000009400
547
SAAG41 SAWE 102100
METAR SAWE 102100Z  25020KT 9999  SCT020  13/04
Q1005=

0000028300
548
SANZ31 NZKL 102100
METAR NZAA 102100Z AUTO 20004KT 160V240 9999 BKN043/// 19/12 Q1019
          NOSIG=
METAR NZWN 102100Z AUTO 01007KT 320V070 9999 NCD 19/13 Q1017 NOSIG=
METAR NZCH 102100Z AUTO 08012KT 9999 BKN023/// BKN029/// 17/12 Q1017
          NOSIG=

0000129900
549
SAAG05 SABM 102100
METAR SAAR 102100Z  05008KT 9999  FEW030 SCT100
31/20 Q1006=
METAR SABE 102100Z NIL=
METAR SACO 102100Z  14010KT 9999  SCT030 FEW040CB
28/19 Q1010=
METAR SADF 102100Z  34007KT 9999  SCT040TCU BKN100
 30/21 Q1006=
METAR SAEZ 102100Z 21005KT 160V250 9999 FEW050TCU 31/14 Q1007=
METAR SAME 102100Z 09008KT CAVOK 30/05 Q1009=
METAR SANT 102100Z  20006KT 9999  FEW035 FEW045CB
BKN200  35/23 Q1002=
METAR SAOC 102100Z NIL=
METAR SARC 102100Z  02006KT 9999  FEW040TCU  35/23
Q1005=
METAR SARE 102100Z 02005KT 9999 FEW025TCU 34/24 Q1004=
METAR SARF 102100Z NIL=
METAR SARI 102100Z  00000KT 9999  SCT030  32/24
Q1009=
METAR SARL 102100Z  11012KT 9999 TS FEW015
FEW045CB SCT100 BKN200  25/21 Q1007=
METAR SARP 102100Z  32008KT 9999  FEW030TCU  35/21
Q1008=
METAR SASA 102100Z  05008KT 9999  FEW020TCU BKN200
 30/10 Q1009=
METAR SASJ 102100Z NIL=
METAR SAVC 102100Z  05010KT 9999  SCT040 SCT200
20/02 Q1012=
METAR SAWE 102100Z NIL=
METAR SAWG 102100Z  23020KT 9999  BKN030 SCT060
11/02 Q1010=
METAR SAWH 102100Z 23023G33KT 9999 BKN040 SCT100 08/03 Q1006=
METAR SAZM 102100Z  07010KT 9999  FEW025  22/12
Q1008=
METAR SAZN 102100Z  27007KT CAVOK 28/M04 Q1011=
METAR SAZS 102100Z  29018KT CAVOK 19/01 Q1017=

0000014400
550
FCTA31 RUMS 102000
TAF UTDL 102010Z 1021/1107 07005G10MPS 0800 FZFG SCT004 530009 TEMPO
1021/1107 07007MPS 0500 FZFG VV002=

0000183800
551
SPUS70 KWBC 102108
SPECI
PADU 102104Z 14011KT 8SM -RASN BKN014 BKN020 OVC025 03/00 A2927
     RMK AO2 CIG LWR NE-E P0000=
KALO 102104Z AUTO 13006KT 3/4SM R12/4000V4500FT BR OVC004 00/M01
     A2958 RMK AO2 P0001 T00001006 TSNO=
KBIV 102104Z AUTO 13010KT 1 3/4SM BR OVC004 02/01 A2984 RMK AO2
     PRESFR T00170006=
KBNA 102104Z 18012G18KT 10SM BKN017 OVC026 13/09 A2997 RMK AO2=
KBUY 102104Z AUTO VRB04KT 6SM -RA BR OVC005 03/02 A3023 RMK AO2
     P0000 T00330017=
KCEU 102104Z AUTO 10004KT 1 1/2SM -RA BR BKN003 OVC007 11/08 A3016
     RMK AO2 P0000=
KEET 102104Z AUTO 12004KT 10SM OVC005 11/11 A3004 RMK AO2
     T01110106=
KHAO 102104Z AUTO 11006KT 7SM OVC011 08/07 A2998 RMK AO2
     T00830067=
KLGA 102104Z 05006KT 1 1/2SM BR BKN007 OVC022 01/M01 A3036 RMK
     AO2=
KLWM 102104Z 00000KT 9SM FEW012 BKN050 OVC085 01/M02 A3037 RMK AO2
     T00111022=
KOGB 102104Z AUTO 36005KT 6SM BR BKN005 BKN008 OVC016 17/16 A3012
     RMK AO2 RAE2055 P0000 T01720156 TSNO=
KTDZ 102104Z AUTO 16009KT 4SM BR SCT007 OVC032 03/01 A3000 RMK AO2
     TSNO=
KADF 102104Z AUTO 14007KT 1SM -RA BR VV004 13/13 A2974 RMK AO2
     P0000 PRESFR=
KCMX 102106Z AUTO 19003KT 9SM BKN020 M02/M06 A2966 RMK AO2=
KDUJ 102105Z AUTO 13007KT 2SM BR OVC003 02/01 A3014 RMK AO2=
KEST 102105Z AUTO 16009KT 1SM BR OVC002 M01/M02 A2954 RMK AO2
     T10111017=
KEYE 102105Z AUTO 14007KT 4SM BR BKN007 BKN028 OVC036 05/04 A2989
     RMK AO2 T00500039=
KLSE 102105Z 11005KT 1 1/4SM -SN BR FEW007 OVC013 00/M02 A2962 RMK
     AO2 P0001 T00001017=
KMIV 102105Z AUTO 00000KT 1SM -RA BR OVC002 04/04 A3034 RMK AO2
     P0000 T00440044=
KMKL 102105Z 16007KT 10SM BKN018 OVC110 12/08 A2992 RMK AO2=
PAJZ 102109Z AUTO 31003KT 10SM OVC004 M08/M08 A2954 RMK AO2 PWINO
     TSNO CIG 001V006 $=

0000010100
552
SPUS31 KWBC 102108
SPECI
KBNA 102104Z 18012G18KT 10SM BKN017 OVC026 13/09 A2997=

00000000