0000011000
333
UANT99 KDDL 110522
ARP DLH441 5412N02836W 0522 F380 MS57 214/59 KT
DAIMH QXT EUA 110522 J14A
0000011000
334
UANT99 KDDL 110522
ARP UAL25 5110N02845W 0522 F390 MS55 207/63 KT
N13113 DDL IG1 110522 F24A
0000011000
335
UANT99 KDDL 110522
ARP DLH491 5706N02429W 0522 F370 MS56 225/65 KT
DAIKI QXT EUA 110522 J37A
0000011100
336
UANT99 KDDL 110522
ARP UAL952 5604N03302W 0522 F350 MS58 221/45 KT
N642UA DDL XXW 110522 F39A
0000010700
337
UANT99 KDDL 110523
ARP UAL992 51N020W 0523 F360 MS64 223/64 KT
N673UA DDL XXW 110523 F55A
0000011000
338
UANT99 KDDL 110522
ARP UAL36 5233N03238W 0522 F370 MS56 215/47 KT
N21108 DDL IG1 110523 F78A
0000011000
339
UANT99 KDDL 110522
ARP AFR639 5036N02444W 0523 F340 MS61 219/72 KT
FGZND QXT AOE 110523 F30A
0000011100
340
UANT99 KDDL 110523
ARP DAL142 4730N04255W 0523 F350 MS63 319/63 KT
N825MH QXT AOW 110523 F21A
0000014800
341
SNAL51 DAMM 110500 RRB
AAXX 11051
60373 46/// /2501 10163 20032=
60623 46/// /0000 10104 21038=
60393 46/// /0000 10137 20059=
0000068500
342
UDNT02 EGRR 110526
AMDAR 1104
LVR EU0700   5329N 02608W 110418 F370 MS577 215/063 TB0 S031=
LVR EU0700   5340N 02424W 110425 F370 MS590 220/067 TB0 S031=
LVR EU0700   5349N 02239W 110432 F370 MS570 227/075 TB0 S031=
LVR EU0700   5356N 02052W 110439 F369 MS572 235/075 TB0 S031=
LVR EU0700   5400N 01904W 110446 F370 MS550 245/063 TB0 S031=
LVR EU0700   5401N 01716W 110453 F369 MS545 250/054 TB0 S031=
LVR EU0700   5400N 01530W 110500 F370 MS542 243/045 TB0 S031=
LVR EU0700   5348N 01349W 110507 F370 MS530 243/054 TB0 S031=
LVR EU0700   5331N 01209W 110514 F370 MS537 241/065 TB0 S031=
LVR EU0700   5312N 01028W 110521 F369 MS482 254/066 TB0 S031=
0000074900
343
UDEU02 EGRR 110526
AMDAR 1105
ASC EU2605   5936N 00612E 110512 F269 MS460 264/060 TB/ S031=
ASC EU2605   5932N 00618E 110513 F280 MS477 266/052 TB/ S031=
ASC EU2605   5928N 00624E 110513 F294 MS495 268/049 TB/ S031=
ASC EU2605   5924N 00630E 110514 F305 MS510 262/041 TB/ S031=
ASC EU2605   5920N 00636E 110515 F323 MS525 258/031 TB/ S031=
ASC EU2605   5916N 00642E 110515 F334 MS520 261/042 TB/ S031=
ASC EU2605   5912N 00648E 110516 F342 MS535 266/044 TB/ S031=
ASC EU2605   5909N 00654E 110517 F352 MS547 273/038 TB/ S031=
ASC EU2605   5905N 00700E 110517 F365 MS510 274/027 TB/ S031=
ASC EU2605   5901N 00706E 110518 F370 MS527 274/038 TB/ S031=
ASC EU2605   5857N 00712E 110519 F370 MS532 273/039 TB/ S031=
0000671200
344
SNVF21 EGRR 110500
BBXX
62301 11054 99524 70047 46/// /2715 10087 20044 40151 53025 22200
00098 10503 70015=
62023 11053 99514 70079 46/97 /3113 10073 2//// 4//// 5////
22200 10705 70023 555 70041 81001=
62105 11054 99550 70132 46/// /2419 10054 20013 40117 52013 22200
00108 10808 70041 333 90710 91132=
62001 11054 99452 70050 46/// /3405 10117 20068 40179 52006 22200
00127 10703 70013=
62163 11054 99475 70084 46/// /0410 10103 20064 40177 51017 22200
00121 10805 70027=
64045 11054 99591 70117 46/// /3014 10051 20007 40045 51021 22200
00096 10809 70044 333 90710 91130=
62107 11054 99501 70061 46/// /3313 10090 20027 40181 52026 22200
00104 10904 70022=
PJAI 11054 99581 70014 47498 /2619 10063 20004 40037 52002 700// 22200=
62111 11054 99580 70003 46/// /2822 10059 20008 40054 52003 22200 10605 70023=
63056 11054 99597 10016 47598 /2723 10065 20010 49984 50000 700// 22200 10707 70034=
63109 11054 99596 10015 46/// /2824 10063 20022 49987 50000 22200=
63110 11054 99595 10015 47598 /2721 10064 20025 49996 58001 700// 22200 10706 70032=
MQSY9 11054 99593 10015 47598 /2622 10064 20022 58003 700// 22200=
63057 11054 99592 10015 47998 /2615 10062 20010 49998 56003 700// 22200 10707 70033=
62128 11054 99587 10014 47598 /2723 10059 20010 40015 58002 700// 22200 10706 70030=
62129 11054 99584 10003 46/// /2820 10060 20006 40027 55000 22200=
62113 11054 99584 10002 47598 /2822 10059 20003 40032 55000 700// 22200=
ZQSD5 11054 99583 10008 47698 ///// 10064 20010 40021 57002 700// 22200 1//07 70037=
62114 11054 99583 10000 46/// /2825 10061 20013 40025 55001 22200=
62134 11054 99580 10014 46/// /2920 10064 20014 40033 50000 22200 10605 70026=
62112 11054 99584 70002 47598 /2818 10066 20014 40029 53002 700// 22200=
63055 11054 99606 10016 47598 /2819 10065 20040 49970 50001 762// 22200 10706 70030=
63108 11054 99608 10017 47/97 /3008 10058 20032 49960 58007 761// 22200 10706 70030=
63106 11054 99610 10017 46/// /0914 10024 57003 22200=
63105 11054 99610 10017 47396 /0912 10072 20009 49968 57003 762// 22200=
63113 11054 99610 10017 46/// /0813 10042 20018 49965 57003 22200 10706 70028=
63112 11054 99611 10010 47498 /1012 10040 20026 49959 56003 700// 22200 10706 70030=
63107 11054 99611 10017 46/// /1014 10032 49966 57005 22200=
63101 11054 99612 10009 46/// /0817 10025 20011 49965 55005 22200 10706 70028=
63103 11054 99612 10011 46/// ///// 10026 20017 49956 55004 22200 10706 70028=
63104 11054 99612 10016 47498 /0915 10027 21006 49967 56006 700// 22200 10706 70032=
63117 11054 99613 10011 47498 /0917 49969 55005 700// 22200=
63114 11054 99613 10017 47599 /0816 10021 21018 49967 57006 700// 22200=
63115 11054 99616 10013 47596 /0616 10026 21021 49970 57005 771// 22200 10706 70028=
MWYG6 11054 99603 70040 47998 /2616 40000 52013 700// 22200=
64041 11054 99607 70026 47598 /2920 49982 52006 700// 22200 10908 70040=
62165 11054 99540 10011 47497 /3215 10068 20055 40093 53013 762// 22200 10503 70013=
62123 11054 99563 10022 47998 /3118 10068 20001 40057 53009 700// 22200 1//05 70024=
62132 11054 99564 10020 46/// /3217 10066 20007 40064 53012 22200=
62120 11054 99564 10021 47998 /3117 10062 21005 40057 52007 700// 22200=
62154 11054 99564 10022 46/// /3115 10067 21002 40053 53008 22200=
62152 11054 99570 10018 47998 /3013 10066 21005 40055 52006 700// 22200 10505 70024=
62127 11054 99540 10007 47396 ///// 10064 20034 40092 53010 763// 22200 10502 70012=
62131 11054 99539 10012 46/// /3412 10067 20058 40087 53006 22200=
62149 11054 99537 10011 47296 /2618 10076 20063 40089 53001 762// 22200 10503 70013=
62148 11054 99536 10015 46/// ///// 22200=
62150 11054 99536 10007 47396 /2715 10074 20074 40101 53006 761// 22200 10402 70011=
62121 11054 99535 10027 46/// ///// 10072 20058 40091 57015 22200=
62144 11054 99534 10017 47397 /2322 10074 20058 40096 55002 700// 22200 10503 70016=
62119 11054 99570 10019 47598 /3018 10063 20001 40053 52007 700// 22200 10604 70020=
62145 11054 99531 10028 47397 /2224 10078 20049 40094 57015 761// 22200 10504 70018=
62133 11054 99571 10009 46/// /2917 40052 52004 22200 10504 70022=
62102 11054 99579 10018 47598 /2822 10073 21001 40030 50000 700// 22200 10605 70024=
62117 11054 99579 10000 47598 /2722 10061 20000 40030 50004 700// 22200 10604 70021=
62143 11054 99577 10018 47598 /3011 10063 21006 40047 52003 700// 22200 10605 70023=
62118 11054 99577 10009 47598 /2721 10064 21000 40036 51001 700// 22200 10705 70025=
62155 11054 99577 10007 47598 /2721 10062 20012 40047 52003 700// 22200 10605 70025=
62116 11054 99576 10011 47598 /2917 10063 21006 40041 52002 700// 22200 10605 70025=
62104 11054 99574 10013 47598 /2918 10072 20003 40043 52002 700// 22200=
62153 11054 99573 10020 47698 /2709 40044 52003 700// 22200 10605 70024=
62122 11054 99573 10016 47598 /2918 10065 20001 40046 53005 700// 22200 10604 70021=
62140 11054 99573 10013 46/// ///19 10064 21001 40047 53004 22200=
62146 11054 99572 10021 47598 /2503 10063 20001 40047 52004 700// 22200 10604 70021=
62164 11054 99572 10008 47598 /2815 10067 20000 40052 52004 700// 22200 00084 10605 70024=
62142 11054 99530 10021 47996 /2318 10070 20066 40096 56012 761// 22200 10403 70013=
AMOUK05 1105/ 99524 10028 46/// ///// 10086 20078 40107=
AMOUK06 1105/ 99515 10018 46/// ///// 10099 2//// 40132=
AMOUK13 1105/ 99513 10014 46/// ///// 10084 20066 40135=
AMOUK32 1105/ 99559 70047 46/// ///// 10040 20011 40096=
AMOUK44 1105/ 99546 70059 46/// ///// 1//// 2//// 40127=
AMOUK23 1105/ 99570 70019 46/// ///// 10044 21005 40064=
AMOUK28 1105/ 99576 70072 46/// ///// 1//// 2//// 40068=
AMOUK03 1105/ 99534 10008 46/// ///// 10070 20068 40079=
AMOUK14 1105/ 99535 70034 46/// ///// 10074 20031 40114=
AMOUK43 1105/ 99540 70029 46/// ///// 10061 20043 40127=
AMOUK11 1105/ 99534 70059 46/// ///// 10051 20020=
AMOUK45 11054 99509 70014 46/// /2610 10087 20074 40130 22200   401300099=
AMOUK02 1105/ 99535 70030 46/// ///// 10063 20040 40130=
AMOUK04 1105/ 99533 70062 46/// ///// 10046 20015 40135=
AMOUK34 1105/ 99504 10000 46/// ///// 10091 20079 40143=
AMOUK29 1105/ 99511 70068 46/// ///// 1//// 2//// 40164=
AMOUK42 1105/ 99506 70025 46/// ///// 10080 20055 40151=
AMOUK09 1105/ 99516 10018 46/// ///// 10084 20083 40133=
AMOUK26 1105/ 99499 70051 46/// ///// 10088 20047 40171=
AMOUK33 1105/ 99555 10084 46/// ///// 10070 20058 40061=
64046 11054 99605 70042 46/// /2921 10075 20023 49991 333 90710 91127=
62050 11054 99500 70044 46/// /3215 10092 20052 40167 22200 10503
70013=
62303 11054 99516 70051 46/// /2916 10087 20046 40161 22200 10604
70018=
0000075300
345
UDEU02 EGRR 110526 RRA
AMDAR 1105
ASC EU0162   5814N 00653E 110514 F305 MS520 261/059 TB/ S031=
ASC EU0162   5811N 00659E 110515 F323 MS540 262/053 TB/ S031=
ASC EU0162   5808N 00705E 110515 F330 MS547 261/049 TB/ S031=
ASC EU0162   5805N 00712E 110516 F330 MS550 259/051 TB/ S031=
ASC EU0162   5802N 00718E 110517 F330 MS550 258/051 TB/ S031=
ASC EU0162   5759N 00724E 110517 F330 MS555 258/053 TB/ S031=
ASC EU0162   5756N 00730E 110518 F330 MS555 259/054 TB/ S031=
ASC EU0162   5753N 00737E 110519 F330 MS557 261/053 TB/ S031=
ASC EU0162   5749N 00743E 110519 F330 MS560 265/055 TB/ S031=
ASC EU0162   5746N 00749E 110520 F330 MS562 267/055 TB/ S031=
ASC EU0162   5743N 00755E 110521 F330 MS560 267/058 TB/ S031=
0000120100
346
UDEU02 EGRR 110526 RRB
AMDAR 1105
ASC EU2605   6019N 00513E 110503 F017 PS017 262/016 TB/ S031=
ASC EU2605   6017N 00514E 110503 F026 MS002 269/022 TB/ S031=
ASC EU2605   6016N 00515E 110503 F033 MS020 269/023 TB/ S031=
ASC EU2605   6014N 00516E 110504 F042 MS037 262/026 TB/ S031=
ASC EU2605   6013N 00517E 110504 F054 MS057 270/027 TB/ S031=
ASC EU2605   6012N 00518E 110504 F067 MS072 265/024 TB/ S031=
ASC EU2605   6010N 00520E 110505 F080 MS087 265/024 TB/ S031=
ASC EU2605   6009N 00521E 110505 F092 MS110 272/027 TB/ S031=
ASC EU2605   6007N 00522E 110505 F100 MS137 273/029 TB/ S031=
ASC EU2605   6006N 00523E 110506 F111 MS180 278/029 TB/ S031=
ASC EU2605   6003N 00528E 110507 F135 MS225 270/029 TB/ S031=
ASC EU2605   6000N 00533E 110507 F160 MS240 264/051 TB/ S031=
ASC EU2605   5957N 00538E 110508 F181 MS267 265/052 TB/ S031=
ASC EU2605   5954N 00543E 110509 F199 MS312 262/057 TB/ S031=
ASC EU2605   5950N 00548E 110509 F210 MS337 259/058 TB/ S031=
ASC EU2605   5947N 00554E 110510 F226 MS375 262/065 TB/ S031=
ASC EU2605   5943N 00600E 110511 F242 MS405 263/059 TB/ S031=
ASC EU2605   5940N 00606E 110511 F257 MS435 263/062 TB/ S031=
0000037500
347
SNVD20 KWNB 110500 RRO
BBXX
41053 11051 99185 70661 46/// ///// 1//// 90500 22200 00266=
44096 11051 99370 70758 46/// ///// 1//// 90517 22200 00070 10502
20501 313// 40901 70009=
44099 11051 99369 70757 46/// ///// 1//// 90518 22200 00064 10502
20502 70010=
41029 11051 99328 70796 46/// /1404 1//// 40193 57013 90500 333
91205 555 11049 22052=
0000042300
348
SNVE15 KWNB 110500 RRD
BBXX
51208 11051 99223 71596 46/// ///// 1//// 90507 22200 00243 10906
20905 301// 41103 70031=
51207 11051 99215 71578 46/// ///// 1//// 90511 22200 00243 10903
20903 335// 41301 70016=
51203 11051 99208 71570 46/// ///// 1//// 90510 22200 00254 11301
20901 329// 41301 70006=
51202 11051 99214 71577 46/// ///// 1//// 90507 22200 00245 10904
20903 309// 41102 70020=
0000023300
349
SNVD22 KWNB 110500 RRO
BBXX
46215 11051 99352 71209 46/// ///// 1//// 90505 22200 00131 11304
21002 327// 41303 70019=
46219 11051 99332 71199 46/// ///// 1//// 90510 22200 00143 11205
20804 330// 41204 70026=
0000011800
350
SNVD15 KWNB 110400 RRR
BBXX
42022 11041 99275 70837 46/// /1204 10212 40182 90429 555 11047
22051=
0000023300
351
SNVD17 KWNB 110500 RRJ
BBXX
51206 11051 99198 71550 46/// ///// 1//// 90503 22200 00251 11005
21004 311// 41102 70024=
46114 11051 99367 71223 46/// ///// 1//// 90508 22200 00126 11406
21003 329// 41405 70028=
0000097500
352
UDAS02 BABJ 110516
AMDAR 1105
DES CNFOZN 3736N 12620E 110511 F024 MS076 279/011 TB/ S//1=
DES CNFOZN 3734N 12622E 110512 F017 MS063 291/008 TB/ S//1=
DES CNFOZN 3733N 12623E 110512 F012 MS058 256/002 TB/ S//1=
DES CNFOZN 3732N 12624E 110513 F009 MS048 234/002 TB/ S//1=
ASC CNFPQL 2507N 10256E 110513 F067 PS141 224/016 TB/ S//1=
ASC CNFPQL 2507N 10255E 110513 F070 PS123 234/019 TB/ S//1=
ASC CNFPQL 2506N 10255E 110513 F073 PS111 241/021 TB/ S//1=
ASC CNFPQL 2506N 10254E 110513 F079 PS090 252/021 TB/ S//1=
LVR CNFLWT 3720N 12045E 110505 F291 MS488 264/098 TB/ S//1=
LVR CNFLWT 3743N 12053E 110508 F291 MS485 262/094 TB/ S//1=
LVR CNFLWT 3806N 12100E 110511 F291 MS483 269/089 TB/ S//1=
LVR CNFLWT 3826N 12116E 110514 F291 MS490 264/088 TB/ S//1=
ASC CNFPQL 2505N 10254E 110513 F081 PS083 248/017 TB/ S//1=
ASC CNFPQL 2505N 10254E 110514 F082 PS080 263/017 TB/ S//1=
ASC CNFPQL 2505N 10253E 110514 F083 PS079 230/018 TB/ S//1=
00000000