0000036200
766
SXXX32 EUMS 110651
12FFB3C8
:PRS 1 /1 M 3458 3460 3455 3459 3446 3441 3435 3424 3414 3400 3412 3404 3420 3422 3428 3432 3427 3428 3412 3401 3391 3375 3374 3381 3389 3393 3390 3403 3388 :RAD 1 /3 6387 6371 6356 6356 6359 6348 6330 6323 6325 6314 :ENC 1 /5 -144 -144 -144 -144 -144 -144 :SW1 51 /60 0 :SW2 21 /60 0 :BAT 14 /15 12.7 :NAME 12FFB3C8
0000070100
767
SXXX32 EUMS 110651 RRA
22E7E6D2
OT12 ID:ID-ROTE-11 DT:2014 01 11 06 50
:PRS /1 -10823 -10764 -10785 -10760 -10762 -10763 -10762 -10790 -10789 -10794 -10795 -10789 -10793 -10788 -10792 -10832 -10762 -10790 -10762 -10765 -10764 -10764 -10791 -10793 -10791 -10792 -10789 -10792 -10789 -10793
:PR2 /1 03927 03945 03939 03948 03934 03923 03930 03936 03915 03956 03948 03966 03976 04004 03972 03998 03987 03983 03977 03972 03975 03986 03994 03987 03972 04028 04018 04013 03998 04019
:RAD /1 05504 05488 05560 05504 05492 05524 05520 05504 05524 05512 05516 05544 05536 05540 05556 05543 05532 05552 05528 05536 05544 05568 05564 05560 05580 05596 05568 05600 05640 05604
:BAT 12.8V
0000066700
768
SXXX32 EUMS 110652
32CC9580
OT12 ID:ID-ENGG-07 DT:2014 01 11 06 51
:PRS /1 01797 01818 01801 01825 01790 01811 01823 01801 01813 01783 01843 01797 01849 01827 01786 01831 01854 01855 01809 01813 01845 01871 01862 01852 01831 01844 01863 01832 01854 01834
:PR2 /1 05222 05183 05193 05207 05214 05233 05204 05207 05240 05223 05236 05222 05243 05225 05234 05260 05280 05255 05210 05249 05242 05278 05223 05248 05253 05241 05251 05230 05273 05260
:RAD /1 06102 06115 06098 06115 06113 06144 06131 06120 06153 06113 06157 06134 06145 06133 06132 06153 06150 06178 06126 06152 06145 06173 06161 06141 06142 06138 06153 06150 06165 06186
:BAT 13.5V
0000011100
769
UANT99 KDDL 110653
ARP DAL142 5035N02505W 0653 F350 MS66 206/64 KT
N825MH QXT AOE 110654 F41A
0000011000
770
UANT99 KDDL 110653
ARP QTR708 5520N03728W 0654 F290 MS54 249/15 KT
A7BAN QXT AOW 110654 F22A
0000011000
771
UANT99 KDDL 110654
ARP AAL80 5017N04410W 0654 F380 MS58 303/52 KT
N761AJ DDL XXW 110654 F15A
0000011000
772
UANT99 KDDL 110654
ARP DAL18 5448N04632W 0654 F360 MS62 290/57 KT
N842MH QXT AOW 110654 F41A
0000011000
773
UANT99 KDDL 110654
ARP QTR714 5816N03757W 0654 F330 MS60 231/22 KT
A7BBF QXT AOW 110654 F55A
0000011000
774
UANT99 KDDL 110654
ARP BAW284 5805N04709W 0654 F350 MS56 266/42 KT
GCIVX QXS UAK 110655 F34A
0000011000
775
UANT99 KDDL 110654
ARP BAW214 5159N02020W 0654 F330 MS61 231/66 KT
GCIVN QXT AOE 110655 F24A
0000003800
776
SMVX10 RUMS 110600
NIL
0000009200
777
SAFJ31 NFNA 110700
METAR NFNA 110700Z 18007KT 9999 FEW023 SCT050 27/22 Q1006
0000190100
778
UDEU02 EGRR 110657
AMDAR 1106
ASC EU0446   5553N 00426W 110634 F011 PS025 261/017 TB/ S031=
ASC EU0446   5552N 00426W 110634 F018 PS010 280/024 TB/ S031=
ASC EU0446   5551N 00426W 110634 F023 MS002 288/030 TB/ S031=
ASC EU0446   5549N 00426W 110634 F030 MS020 290/030 TB/ S031=
ASC EU0446   5548N 00426W 110634 F041 MS045 288/028 TB/ S031=
ASC EU0446   5547N 00427W 110634 F057 MS072 287/032 TB/ S031=
ASC EU0446   5545N 00427W 110634 F072 MS115 287/032 TB/ S031=
ASC EU0446   5544N 00427W 110634 F087 MS140 282/032 TB/ S031=
ASC EU0446   5543N 00427W 110634 F102 MS170 281/031 TB/ S031=
ASC EU0446   5541N 00427W 110634 F119 MS215 283/035 TB/ S031=
ASC EU0446   5538N 00424W 110635 F146 MS282 275/039 TB/ S031=
ASC EU0446   5535N 00420W 110635 F172 MS342 259/040 TB/ S031=
ASC EU0446   5531N 00416W 110635 F191 MS387 275/037 TB/ S031=
ASC EU0446   5527N 00412W 110636 F209 MS405 283/034 TB/ S031=
ASC EU0446   5524N 00408W 110636 F229 MS420 268/042 TB/ S031=
ASC EU0446   5520N 00404W 110636 F249 MS440 256/040 TB/ S031=
ASC EU0446   5516N 00400W 110637 F263 MS445 247/044 TB/ S031=
ASC EU0446   5512N 00356W 110637 F277 MS460 254/057 TB/ S031=
ASC EU0446   5508N 00352W 110637 F289 MS467 257/057 TB/ S031=
ASC EU0446   5504N 00347W 110638 F300 MS465 258/061 TB/ S031=
ASC EU0446   5459N 00343W 110638 F309 MS457 264/065 TB/ S031=
ASC EU0446   5455N 00338W 110638 F323 MS455 277/047 TB/ S031=
ASC EU0446   5451N 00334W 110639 F349 MS492 232/033 TB/ S031=
ASC EU0446   5447N 00330W 110639 F357 MS507 229/044 TB/ S031=
ASC EU0446   5442N 00326W 110639 F363 MS500 235/051 TB/ S031=
ASC EU0446   5438N 00322W 110640 F369 MS505 242/052 TB/ S031=
ASC EU0446   5433N 00318W 110640 F370 MS505 245/055 TB/ S031=
ASC EU0446   5429N 00314W 110640 F370 MS497 247/056 TB/ S031=
ASC EU0446   5424N 00310W 110641 F370 MS500 246/056 TB/ S031=
0000016100
779
SOVI10 KWAL 110656
B110070A 011065601 P9751095 B\P~W@@p0ekF1@oO???CmCn>@oQ3@QD@@f5C?6bD2?????@"??? ?TFuL@V@V@S@U@T@U:AMPTEMP 26.57C  45-0NN 219E
0000017700
780
UDEU02 EGRR 110657 RRA
AMDAR 1106
LVR EU1321   5737N 01214E 110645 F065 MS042 267/032 TB/ S031=
LVR EU1321   5746N 01223E 110652 F030 PS012 263/027 TB/ S031=
0000577100
781
SMIN51 VIDP 110600
AAXX 11064
00010 31995 22904 10167 20086 40198 70540 82031
  333 58017=
42027 31595 83201 10016 21017 38494 48579 70522 8452/
  333 58016=
42056 32996 01401 10160 20028 39750
  333 58018=
42071 31995 02905 10128 20093 40210 71000
  333 58015=
42083 32697 30000 10050 20014 4//// 83500
  333 58010 83640=
42101 31995 00000 10140 20071 40200 70500
  333 58013=
42103 31995 30000 10150 20068 40200 70511 83030
  333 58014 83360=
42111 31596 32702 10134 20078 39393 40178 70162 81130
  333 58007 81830 83360=
42123 31995 00000 10160 20062 40215 70500
  333 58018=
42131 32996 02702 10154 20064 40208
  333 58025=
42165 31995 00000 10152 20028 40213 70500
  333 58039=
42170 32996 20502 10162 20048 40209 80001
  333 58030 84070=
42182 31993 02908 10138 20099 40198 71144
  333 58018=
42189 31695 70503 10152 20123 40189 71022 85520
  333 58006 85625 87460=
42260 32995 03205 10156 20118 40195 71040
  333 58015=
42273 21595 80000 10154 20136 40181 70562 8652/
  333 58003 6990/ 86620 88459=
42309 31596 11102 10218 20159 40164 70500 81400
  333 58002=
42314 31996 33605 10224 20109 40173 70500 82031
  333 58005 82360=
42328 32996 30503 10150 20019 40221 83030
  333 58036 83360=
42339 31995 60503 10156 20034 40212 70500 82031
  333 58043 82358 85070=
42348 31996 33605 10170 20012 40193 70500 80001
  333 58029 83070=
42361 31994 03203 10158 20083 40193 71044
  333 58015=
42369 31/93 93603 10146 20128 40186 74544 89///
  333 59001=
42379 21595 82702 10172 20117 40186 72996 8692/
  333 5669/ 58009 6993/ 86620 81925 88458=
42410 31995 40204 10222 20172 40185 70542 84030
  333 58013 84360=
42435 32996 40501 10152 20040 40236 80001
  333 58039 84070=
42452 31994 00502 10150 20083 40202 70544
  333 58028=
42463 31995 03202 10148 20102 40195 70540
  333 58017=
42475 31/93 90904 10174 20167 4//// 74344 89///
  333 58///=
42479 21594 51405 10178 20168 40173 71092 83330
  333 59003 6008/ 83620 81930 84360=
42492 21494 81803 10156 20146 40182 76066 8572/
  333 58002 6992/ 85615 88458=
42542 31995 00506 10150 20059 39600 40196 70500
  333 58024=
42559 32596 63601 10132 20125 40185 83530
  333 58023 83620 86360=
42567 31/92 92905 10158 20151 40176 74544 89///
  333 58006=
42571 31594 83202 10156 20146 40169 71044 8653/
  333 58005=
42591 21993 80906 10154 20147 40184 76066 8572/
  333 58001 6002/ 81710 85618 88458=
42623 31996 01802 10214 20097 39285 40149 70500
  333 58004=
42634 32996 00502 10188 20059 40201
  333 58024=
42647 31995 00206 10190 20096 40188 70400
  333 58024=
42667 31995 00208 10156 20113 39576 40180 71044
  333 58023=
42675 31493 83603 10160 20146 40171 74644 886//
  333 58012 88710=
42701 31494 83206 10176 20132 39429 40168 74022 8452/
  333 58006 84615 88458=
42724 31995 03602 10240 20130 40164 70544
  333 59009=
42737 32996 00712 10176 20041 40193
  333 58014=
42754 31495 40708 10162 20113 39523 40172 70542 83530
  333 58026 83615=
42779 31596 42306 10226 20159 39446 40141 70522 82502
  333 59007 82620 83075=
42798 31994 00504 10234 20126 40158 70400
  333 59003=
42809 31995 00000 10246 20141 40166 70500
  333 59003=
42840 32996 03604 10186 20109 40187
  333 58018=
42867 31595 72305 10246 20165 40151 70544 82577
  333 58007 82625 84360 86270=
42874 31996 12703 10248 20160 40153 70500 80001
  333 58002 81075=
42886 31996 02306 10256 20154 40154 70544
  333 59007=
42895 31995 00902 10260 20143 40166 70500
  333 59001=
42909 32997 00208 10202 20046 40185
222// 20000
  333 58011=
42971 31995 01606 10282 20171 40165 70540
  333 58000=
43003 31995 03604 10240 20030 40163 70400
  333 58015=
43014 32996 10000 10230 20062 39500 40148 80001
  333 58011 81075=
43041 31996 02703 10268 20154 39538 40148 70500
  333 59002=
43063 31996 00000 10234 20093 39521 40145 70500
  333 58009=
43086 32597 81804 10250 20180 39980 40179 8457/
  333 58010=
43110 31996 02906 10256 20097 40156 70544
  333 58009=
43117 32997 01601 10272 20114 40138
  333 59001=
43128 31496 61603 10246 20198 39547 40152 70522 84530
  333 56390 59005 84615 85360=
43150 31596 11402 10280 20187 30094 40169 70511 81500
  333 58008 81620=
43185 31596 51404 10280 20201 30156 40159 70522 82531
  333 58006 82620 84360=
43189 32597 40000 10288 20196 30160 40169 83502
  333 58010=
43192 31596 23204 10284 20169 40150 70510 82400
  333 58013=
43201 32497 12302 10282 20160 39412 40118 81500
  333 58000 81615=
43213 32997 39903 10280 20172 39834 40150 80008
  333 58000=
43233 32597 10703 10274 20165 39334 40131 81500
  333 58004=
43237 32997 41106 10290 20153 39757 40146 80002
  333 58003 84075=
43245 32597 30000 10286 20190 30134 40161 82401
  333 58006=
43279 32497 50702 10280 20197 30149 40161 84401
  333 58012 82618 83825=
43284 31596 23205 10290 20202 30020 40134 70242 81501
  333 58003 81620=
43295 32997 30902 10252 20146 39132 48547 80001
  333 58009 83075=
43311 32597 60505 10320 20249 40135 85401
  333 58013 85620 83075=
43314 32997 23202 10314 20230 40140 80001
  333 58005=
43321 31495 70503 10248 20178 39708 40157 70522 83540
  333 58004 83615 86358=
43329 32597 50702 10290 20214 30140 40154 83501
  333 58008=
43333 31495 70706 10292 20234 40134 70521 86401
  333 56109 58009 83616 84818 86070=
43344 31496 50508 10280 20187 30054 40154 70511 84801
  333 58006 83616=
43353 31995 39903 10308 20216 40138 70500 82011
  333 56099 58005 82458=
43369 32497 50906 10304 20247 40121 84402
  333 58002 83615=
43371 32597 30000 10304 20225 30060 40132 83500
  333 58007 83620=
0000098300
782
FJIN51 VECC 110655

              INDIA METEOROLOGICAL DEPARTMENT
          R/T VOLMET B/C VECC 0655 UTC 11012014

VIDP SIGMET NIL=

VECC SIGMET NIL=

MET/SPECIAL REPORT

VECC 110650Z 030/03KT VIS 2600M HZ NSC T25 DP13 QNH 1015 NOSIG=

VIDP 110600Z 300/08KT VIS 1300M R28/1800 R29/P2000 HZ NSC T13 DP07
     QNH 1019 BECMG VIS 1500M = 
SPECI VIDP 110630Z 290/10KT VIS 1800M R28/1800 R29/P2000 HZ NSC T15 DP07
           QNH 1019 NOSIG=

VGHS 110650Z 310/06KT VIS 3500M HZ NSC T21 DP12 QNH 1015 NOSIG=

VYYY 110430Z 080/04KT VIS 8KM NSC T28 DP25 QNH 1016 = 
VNKT 110650Z 230/03KT VIS 5000M HZ FEW2000FT/600M BKN10000FT/3000M
     T15 DP00 QNH 1019 NOSIG=

FCST VECC 11/09 350/05KT VIS 2500M HZ NSC BECMG 11/12 000/00KT VIS
          1800M BR=

FCST VIDP 11/09 310/08KT VIS 3200M HZ NSC BECMG 11/15 250/03KT VIS
          1200M BR=

TAF VVTS NIL=



    DUTY ASSISTANT                    DUTY OFFICER

0000042900
783
UDAS02 EGRR 110658
AMDAR 1106
LVR EU2200   4814N 13855E 110618 F360 MS432 285/048 TB/ S031=
LVR EU2200   4900N 13817E 110625 F360 MS435 286/039 TB/ S031=
LVR EU2200   4945N 13735E 110632 F360 MS455 280/033 TB/ S031=
LVR EU2200   5032N 13653E 110639 F360 MS445 265/027 TB/ S031=
LVR EU2200   5123N 13622E 110646 F360 MS447 279/023 TB/ S031=
LVR EU2200   5215N 13549E 110653 F360 MS457 281/015 TB/ S031=
0000008100
784
UANT20 CWEG 110655
ARP FWI556  4500N01300W 0649 F360 //// 280/65=
0000009200
785
SAFJ31 NFFN 110700
METAR NFFN 110700Z 15006KT 9999 FEW030 27/21 Q1005 NOSIG=
00000000