0000091500
413
SMVD15 KWNB 110600 RRG
BBXX
41046 11061 99238 70683 46/// /0909 10254 20189 40222 58008 90550
22200 00260 10905 20704 3//// 40903 70025 333 91211 555 11091
22096 30548 40911 60549 090083 086083 091084 093080 084079 086080
80909 90549=
42060 11061 99163 70632 46/// /0708 10260 40163 58011 90550 22200
00267 10604 20603 305// 41102 70019 333 91210 555 11086 22091
30456 40711 60549 067081 069081 067086 064081 065083 061085 80609
90456=
44064 11061 99370 70760 46/// /1304 10090 40190 58037 90600 22200
00065 10301 70005 333 91206 555 11050 22054=
44062 11061 99386 70764 46/// /0101 10025 40196 56034 90600 22200
00028 1//00 70000 333 91202 555 11015 22016=
44063 11061 99390 70764 46/// /3302 10019 40182 56038 90600 22200
00014 1//00 70000 333 91203 555 11024 22026=
44041 11061 99372 70768 46/// /1403 10094 90600 22200 00039 1//00
70001 333 91204 555 11034 22036=
0000007100
414
SMCA01 KWBC 110600
AAXX 11064
78526 NIL=
78543 NIL=
0000095600
415
SMBC01 FBSK 110600
AAXX 11064
68026 32960 23608 10249 20185 48520 5//// 82071 333 2////=
68032 41960 30307 10248 20194 39079 48523 52025 70200 8/002
      333 20213 30/// 5///1 70000=
68038 32960 20510 10258 20191 48527 52013 82070 333 20///=
68040 41/60 23610 10250 20193 39061 48544 52270 70200 82001
      333 20214 30/// 50611 70000 820//=
68054 41760 5//// 10233 20183 39024 48521 52025 70222 84072
      333 20198 32/// 5///1 56/8/ 70095 84456=
68070 41860 30000 10257 20210 39146 48536 52026 702/1 83080
      333 20230 30022 50201 70000 83358=
68148 32960 10000 10265 20187 48533 52016 81081 333 20146=
68151 32960 22190 10258 20166 48524 52016 81081 333 20183=
68320 41960 02307 10265 20098 39009 48541 52017 70200 8/000
      333 20169 30014 50611=
68325 32960 20000 10240 20115 48525 5//// 82070 333 20190=
68328 41/60 11504 10238 20104 39075 48531 52015 7020/ 8/002
      333 20160 30/// 51071=
0000025500
416
SMCA02 KWBC 110600
AAXX 11064
78255 42559 10803 10202 20183 30042 40191 54000 81501 333 81625=
78317 NIL=
78318 NIL=
78325 NIL=
78333 NIL=
78338 NIL=
78348 NIL=
78349 NIL=
78353 NIL=
78360 NIL=
78367 NIL=
78369 NIL=
0000011000
417
UANT99 KDDL 110608
ARP SWR53P 4855N03604W 0608 F370 MS51 243/25 KT
HBJHE QXT AOW 110608 J04A
0000052000
418
SMKY10 UAFF 110600
AAXX 11061
38353 42998 81801 10027 21085 39346 40258 57014 83031 333
21106=
38613 42999 70201 11018 21083 40319 53003 80002 333 21097=
38616 42599 70000 11003 21061 39257 40303 54000 83501 333
21092=
38345 32999 20601 11004 21083 38835 48530 57021 80002 333
21155=
36911 42999 22301 11026 21042 39280 40275 54000 80004 333
21141=
36974 32998 71801 11129 21190 38046 48624 58007 80001 333
21235=
36982 42999 22901 11157 21249 36549 47204 52001 80005 333
21293=
0000011200
419
SMAA01 KWBC 110600
AAXX 11061
89061 36/66 /0202 11008 21027 30003 40009 57013 333 91003 91103=
0000008400
420
SMAK20 KWBC 110600
AAXX 11064
70251 NIL=
70264 NIL=
70341 NIL=
0000017500
421
SMAK31 KWBC 110600
AAXX 11064
70179 NIL=
70194 NIL=
70232 NIL=
70264 NIL=
70267 NIL=
70271 NIL=
70321 NIL=
70333 NIL=
70340 NIL=
70343 NIL=
0000033000
422
SMHK01 KWBC 110600
AAXX 11061
45032 36/// /0704 10210 20105 30199 40216 57001=
45035 36/// /2304 10189 20119 30175 40217 57005=
45039 36/// /1004 10192 20103 30206 40221 57002=
45044 36/// /1108 10187 20115 30125 40220 57002=
45007 12950 12604 10215 20113 30207 40216 56033 60001 80001 333
59012 81080=
0000232300
423
SMMX01 KWBC 110600
AAXX 11061
76741 31250 62602 10215 20204 30108 40126 5//// 70542 84230 90545
333 10277 20188 30/// 55022 56500 59037 84806=
76423 32760 80000 10102 21009 38167 40134 52010 83059 90550 333
10220 21012 30/// 55087 21450 56099 58017 83358 85170=
76539 32958 03601 10134 20115 38160 40130 52010 90550 333 10232
20030 30/// 55079 58400=
76625 31570 71802 10151 20069 38151 40107 52005 69901 76025=
76634 31570 61402 10132 20083 37860 40141 52006 70542 86400 90550
333 10239 20080 30/// 55055 21216 565// 58001 86634=
76640 31110 70000 10198 20192 30139 40151 52011 70222 8422/ 90540
333 10254 20170 30/// 55043 5655/ 59040 84802 83440=
76647 32865 61101 10226 20223 30132 40163 58002 8603/ 90550 333
10307 20209 30/// 55081 5604/ 59023 86358=
76662 32660 30601 10152 20091 38473 40126 52008 83400 90545 333
10260 20058 30/// 55087 21103 56/00 58001 83633=
76685 32950 00000 10124 20049 37867 40091 52001 90545 333 10230
20064 30/// 55105 59025=
76687 32960 02001 10130 20122 38675 40143 52008 90548 333 10242
20090 30/// 55089 59022=
76692 31520 62001 10219 20204 30127 40146 52012 71042 865// 90545
333 10279 20179 30/// 55088 563// 59042 86628=
76737 32980 00000 10140 20124 38766 40130 54004 90545 333 10242
20140 30/// 55091 59028 91101 91536=
76762 32504 21101 10166 20148 38773 40130 52015 81260 90550 333
10278 20126 30/// 55095 20995 56630 58005 81814 81360=
76833 32958 03602 10232 2//// 30125 40127 52006 90545 333 10338
20228 30/// 55097 58/// 92021=
76848 32450 20000 10125 20099 38383 40083 54000 82500 90545 333
10243 20117 30/// 55102 56100 59013 82611=
76680 31558 20501 10133 20071 37762 40105 52010 70540 82100 90555
333 10210 20096 30/// 55060 20691 56700 58004 82827=
76751 06/// /0602 10228 20223 30138 40150 58005 60002 7//// 8////
90550 333 0//// 10307 20201 30/// 4//// 50339 54/// 55072 21678
56/// 57/// 59016 60007 8//// 8//// 8//// 9/=
76405 32840 30502 10186 20118 30145 40167 50003 83040 90550 333
10237 20140 30/// 55039 2//// 5610 58015 83357=
76632 31847 42201 10128 20074 37710 40117 52003 70311 84080 90545
333 10210 20070 30/// 55049 56050 58002 84359=
76665 31358 61801 10140 20117 38134 40130 52015 70222 86200 90555
333 10230 20065 30/// 55054 21301 56300 57832 58007 86808=
0000013300
424
SMVC10 EHDB 110600
BBXX
PBQK 11064 99597 50460 41291 71218 11010 21038 49952 57010 74144
8/6// 22262 20506 81020=
0000025800
425
SMVD10 EHDB 110600
BBXX
DILE 11063 99477 70452 41597 82928 11020 21131 40170 54000 70322
8/8// 22224 00030 20506 332// 40608 81050=
A8IN7 11064 99175 70764 41598 20718 10272 20219 40160 51010 70186
82100 22214 20503 308// 40802 80236=
0000093900
426
SMVF10 EHDB 110600
BBXX
UHOM 11061 99737 10202 41/97 93110 10012 40133 54000 70222 89///
22231 20302=
A8VE2 11064 99360 10351 41699 22312 10161 20051 40240 53010 81260
22274 04202 20301 334// 40501 80104=
PHAW 11060 99398 70130 41/98 11507 10133 20095 40129 52001 70000
8//// 22253 00114 2//// 80112 42898=
UITJ 11061 99619 70008 41497 81018 10060 49970 54001 76062 8872/
22272 00080 20807=
UCSJ 11061 99713 10247 41998 92904 11010 40172 54000 70282 89///
22275 20301=
PHAM 11064 99505 70064 41/98 /2725 10090 20047 40180 52025 70200
8//// 22283 2//// 80069 42898=
UCFT 11061 99735 10184 41595 73108 10040 40026 54000 77072 8672/
22271 20403=
UCAB 11061 99586 10040 41/97 72708 10060 40012 54000 70222 22242
00081 20401=
UBEF5 11061 99588 10020 41/97 92311 10060 40023 54000 70222 8////
22252 00080 20504=
UAEV 11061 99737 10181 41597 73108 10010 40015 54000 70222 8642/
22231 20403=
0000102600
427
SMPA01 KWBC 110600
AAXX 11064
91165 NIL=
91182 NIL=
91190 NIL=
91212 NIL=
91217 NIL=
91285 NIL=
91317 32474 60912 10294 20272 30070 40074 5//// 81202 333 562/9
70015 81818 84080 555 91106=
91334 32474 80312 10290 20256 30063 40066 56015 82171 333 56199
70000 555 91106=
91348 32474 80509 10289 20233 30024 40076 55008 81101 333 561/9
70036 555 91106=
91356 32566 80415 10294 20226 30050 5//// 50057 84276 333 56299
70005 84822 83080 555 91106=
91356 32566 80415 10294 20226 30050 50057 5//// 84276 333 56299
70005 84822 83080 555 91106;=
91366 NIL=
91369 NIL=
91371 NIL=
91376 11474 80413 10280 20230 30056 40059 55002 60021 70282 85808
333 561/9 70023 555 91106=
91408 11473 80705 10272 20241 30037 40075 57022 60041 70282 84308
333 562/9 70196 555 91106=
91413 32469 80714 10296 20247 30059 40084 57019 83871 333 56299
70005 555 91106=
91425 NIL=
91434 NIL=
91765 11466 80407 10282 20247 30059 40063 52015 60051 70282 8487/
333 56199 70137 555 91106=
0000008600
428
SAIN90 VOMM 110610
METAR VOMM 110610Z 03005KT 6000 SCT020 28/19 Q1015=
0000016900
429
FCIN90 VANP 110600
TAF VANP 110600Z 1109/1118 14005KT 3000 HZ FEW020 SCT025
BECMG 11081110 20005KT 4000 HZ
BECMG 11121114 14003KT 3000 HZ FEW025 SCT100=

0000033600
430
SAIN34 VOMM 110600
METAR VOBL 110600Z VRB05KT 8000 NSC 28/16 Q1019 NOSIG=
METAR VOCB 110600Z 05003KT 4000 HZ SCT015 BKN080 25/18 Q1017 NOSIG=
METAR VOCI 110600Z 18003KT 5000 HZ NSC 30/20 Q1013 NOSIG=
METAR VOMD 110600Z 04007KT 4000 HZ FEW020 29/19 Q1016=
METAR VOML 110600Z 32005KT 8000 FEW020 29/20 Q1014 NOSIG=
0000015200
431
SMBR01 TBPB 110600
AAXX 11064
78954 11470 40615 10247 20203 30077 40142 6///1 71582 84800
  333 10282 20226 59003 83816 90914 =
/=
0000062800
432
SABN32 OBBI 110600
METAR OMAA 110600Z 17005KT 130V200 CAVOK 18/10 Q1022 A3018 NOSIG=
METAR OMAD 110600Z 14008KT CAVOK 18/11 Q1022 A3019 NOSIG=
METAR OMAL NIL=
METAR OMDB 110600Z 11009KT 080V160 CAVOK 20/10 Q1023 NOSIG=
METAR OMDW 110600Z 04007KT CAVOK 18/11 Q1024 NOSIG=
METAR OMFJ 110600Z 26003KT 9999 SCT020 BKN100 19/10 Q1023 A3022=
METAR OMRK 110600Z 13014KT CAVOK 20/10 Q1022 A3020=
METAR OMSJ 110600Z 11008KT 9999 FEW040 19/12 Q1023=
METAR OOMS 110550Z 09006KT 060V130 9000 FEW020 SCT200 20/05 Q1023
NOSIG=
METAR OOSA 110550Z 09011KT 060V120 9999 SCT025 25/15
Q1019 NOSIG  RH53 RMK03=
00000000