0000049300
653
SAIR31 OIII 102030
METAR OIAW 102030Z NIL=
METAR OIFM 102030Z 29006KT 1400 BR SCT040 SCT100 BKN200 M02/M03
Q1022 A3021=
METAR OIII 102030Z 27004KT 9999 FEW040 SCT100 BKN200 01/M06 Q1023
 A3023 NOSIG=
METAR OIKB 102030Z 04006KT CAVOK 11/06 Q1022 A3018=
METAR OIKK 102030Z NIL=
METAR OIMM 102030Z 18006KT CAVOK M00/M12 Q1022 A3019=
METAR OISS 102030Z 00000KT 7000 FEW035CB SCT040 OVC100 02/M02 Q1023
A3023=
METAR OITT 102030Z NIL=
METAR OIZH 102030Z NIL=

0000030900
654
SAIR32 OIII 102030
METAR OIAA 102030Z NIL=
METAR OIBK 102030Z NIL=
METAR OICC 102030Z NIL=
METAR OIGG 102030Z NIL=
METAR OIIE 102030Z NIL=
METAR OITR 102030Z 27002KT 3000 BR FEW035 BKN170 M09/M12 Q1023=
METAR OIYY 102030Z NIL=
METAR OAKN 102030Z NIL=
METAR OAKB 102030Z NIL=

0000010700
655
SAAL31 DAAA 102000 RRA
METAR DAOO 102000Z 00000KT 9999 FEW023 SCT100 BKN233 14/08 Q1015=

0000012100
656
SPCN49 CWAO 102035
SPECI CYLU 102035Z 24010G15KT 1/4SM -SN +BLSN OVC025 RMK SN6SC2 VIS
VERB 1/4-3/4=

0000015000
657
SPCN31 CWAO 102032
SPECI CYZF 102032Z 30003KT 3SM -SN FEW008 SCT016 OVC040 M22/M25 A2949
 RMK SF1SC3SC5 SF TR VIS VRB 2-4 SLP013=

0000010200
658
SPIN90 VOHS 110510
SPECI VOHS 110510Z 14005KT 4000 HZ FEW020 SCT200 25/16 Q1019 NOSIG=
0000034100
659
FCNO38 ENMI 102000
TAF ENEK 102000Z 1021/1106 24025KT 9999 FEW008 BKN020 TEMPO 1021/1102
         4000 RADZ BKN008 BECMG 1100/1102 33020KT=
TAF ENSL 102000Z NIL=
TAF ENNE 102000Z NIL=
TAF ENHM 102000Z NIL=
TAF ENHE 102000Z 1021/1106 08030KT 9999 FEW010 BKN030 PROB40 TEMPO
         1021/1106 1500 -SHSN BKN012=

0000020500
660
FCNO34 ENMI 102000
TAF ENBN 102000Z NIL=
TAF ENBV 102000Z NIL=
TAF ENFG 102000Z NIL=
TAF ENHF 102000Z 1021/1106 VRB05KT 9999 FEW020=
TAF ENRA 102000Z NIL=
TAF ENSH 102000Z NIL=

0000009900
661
SAQB31 LQBK 102030 RRA
METAR LQBK 102030Z 30002KT 1200 BR NSC 06/06 Q1021 NOSIG=

0000004200
662
SASP36 LEMM 102030
NIL=

0000012200
663
SPUS31 KWBC 102035
SPECI
KORF 102031Z AUTO 02005KT 2 1/2SM -RA BR SCT006 BKN041 OVC095
05/04 A3031=

0000024000
664
FCNO35 ENMI 102000
TAF ENRM 102000Z NIL=
TAF ENSO 102000Z NIL=
TAF ENVD 102000Z 1021/1024 28008KT 9999 FEW010 SCT020 TEMPO 1021/1024
         05010KT 1500 SHSN BKN005=
TAF ENNO 102000Z NIL=
TAF ENSN 102000Z NIL=

0000028400
665
SABY31 UMMN 102030
METAR UMBB 102030Z NIL=
METAR UMGG 102030Z NIL=
METAR UMII 102030Z NIL=
METAR UMMG 102030Z NIL=
METAR UMMM 102030Z NIL=
METAR UMMS 102030Z 28007G11MPS 230V320 9999 -SHRA BKN012CB
03/01 Q0992 R31/290060 NOSIG=
METAR UMOO 102030Z NIL=

0000027300
666
SATA31 RUMS 102030
METAR UTDD 102030Z VRB01MPS M0050 R09/M0050N FZFG VV001 M07/M08 Q1028
09CLRD70 NOSIG RMK QBB030 QFE703/0937=
METAR UTDL 102030Z 08008G11MPS 0900 R08/1300D FZFG OVC004 M05/M06
Q1028 TEMPO 0700 FZFG RMK QFE732/0976 QBB120 8819//65=

0000020600
667
SAKY31 RUMS 102030
METAR UCFM 102030Z 16002MPS 0900 R08/1900 FZFG FU SKC M11/M16 Q1027
R08/CLRD70 TEMPO 0600 FZFG=
METAR UCFO 102030Z 17004MPS 8000 NSC M06/M11 Q1028 R12/CLRD70 NOSIG=

0000013100
668
FCNO32 ENMI 102000
TAF ENAL 102000Z NIL=
TAF ENCN 102000Z NIL=
TAF ENHD 102000Z NIL=
TAF ENRO 102000Z NIL=

0000081800
669
SAKZ31 RUMS 102030
METAR UAAA 102030Z 20003MPS 0600 R23R/1900N R23L/1600N BR FU FEW200
M16/M19 Q1029 8891//60 NOSIG=
METAR UACC 102030Z 18007MPS 9999 -SN DRSN OVC024 M11/M13 Q1025
R22/8/0055 NOSIG RMK QFE737/0983=
METAR UAKK 102030Z 19008MPS CAVOK M14/M17 Q1028 R23/850555 NOSIG RMK
QFE723/0965=
METAR UAOO 102030Z NIL=
METAR UARR 102030Z NIL=
METAR UATE 102030Z 15003MPS 0450 R12/0600V1200U FZFG NSC M03/M03
Q1020 R12/0///70 NOSIG RMK QFE763/1017=
METAR UATG 102030Z 29006MPS 5000 BR OVC015 02/02 Q1016 R14/19//65
NOSIG RMK QFE764/1019=
METAR UATT 102030Z 21002MPS 190V250 9999 -SN OVC007 M01/M01 Q1009
R13/491040 NOSIG RMK QFE737/0983=
METAR UAUU 102030Z 18007MPS 1500 R15/1700U SHSN BLSN OVC019CB M08/M10
Q1014 TEMPO 19012MPS 1000 SHSN BLSN BKN005CB RMK QFE744/0993=

0000020600
670
SAAY31 RUMS 102030
METAR UDYZ 102030Z 00000MPS 2300 BR BKN008 M09/M11 Q1028 R09/000070
NOSIG=
METAR UDSG 102030Z VRB01MPS M0075 R02/0250N FZFG FEW007 M22/M24 Q1022
R02/CLRD70 NOSIG=

0000031100
671
FCNO33 ENMI 102000
TAF ENAT 102000Z 1021/1024 17005KT 8000 SCT008 PROB40 1021/1024
         BKN004=
TAF ENBL 102000Z NIL=
TAF ENEV 102000Z 1021/1101 09008KT CAVOK TEMPO 1021/1101 08015G25KT=
TAF ENFL 102000Z NIL=
TAF ENKB 102000Z NIL=
TAF ENKR 102000Z NIL=
TAF ENML 102000Z NIL=

0000023300
672
SANZ31 NZKL 102030
METAR NZAA 102030Z AUTO 19005KT 9999 OVC042/// 19/13 Q1019 NOSIG=
METAR NZWN 102030Z AUTO 35008KT 9999 NCD 18/12 Q1017 NOSIG=
METAR NZCH 102030Z AUTO 06012KT 9999 BKN022/// 17/12 Q1017 NOSIG=

00000000