0000005200
313
RRIN23 VIDP 110607
RQRPT 667-688=

0000010400
314
SMIN90 VIDP 110600
AAXX 11064
42181 31994 02906 10128 20075 40199 70500
  333 58012=
0000047700
315
SXXX32 EUMS 110604
262AD2C2
OT12 ID:PK-ORMA-10 DT:2014 01 11 06 03
:PRS /1 07098 07078 07091 07080 07097 07079 07076 07072 07067 07041 07055 07055 07051 07058 07052 07036 07041 07043 07017 07015 06989 06992 06980 06986 06980 06976 06980 06984 06966 06967
:RAD /1 ///// ///// ///// ///// ///// ///// ///// ///// ///// ///// ///// ///// ///// ///// ///// ///// ///// ///// ///// ///// ///// ///// ///// ///// ///// ///// ///// ///// ///// /////
:BAT 13.3V
0000261800
316
UDFR01 LFPW 110607
AMDAR 1105
ASC EU0951 4335N 00359E 110551 F001 PS092 /// 027/008 TB1 S031
333 F001 VG022=
ASC EU0951 4334N 00400E 110551 F010 PS092 /// 173/006 TB1 S031
333 F010 VG045=
ASC EU0951 4334N 00401E 110551 F017 PS075 /// 179/009 TB0 S031
333 F017 VG001=
UNS EU0951 4334N 00402E 110552 F024 PS062 /// 215/009 TB1 S031
333 F024 VG023=
ASC EU0951 4335N 00403E 110552 F028 PS052 /// 175/013 TB1 S031
333 F028 VG051=
ASC EU0951 4336N 00403E 110552 F030 PS045 /// 168/013 TB0 S031
333 F030 VG006=
ASC EU0951 4337N 00404E 110553 F031 PS045 /// 175/014 TB1 S031
333 F031 VG018=
UNS EU0951 4338N 00404E 110553 F038 PS032 /// 170/015 TB1 S031
333 F038 VG026=
ASC EU0951 4340N 00406E 110553 F048 PS012 /// 207/011 TB0 S031
333 F048 VG002=
ASC EU0951 4341N 00407E 110554 F059 PS047 /// 226/028 TB2 S031
333 F059 VG045=
UNS EU0951 4342N 00409E 110554 F066 PS045 /// 242/026 TB1 S031
333 F066 VG031=
ASC EU0951 4343N 00409E 110554 F075 PS030 /// 243/021 TB0 S031
333 F075 VG004=
ASC EU0951 4345N 00410E 110555 F086 PS010 /// 239/021 TB1 S031
333 F086 VG012=
ASC EU0951 4347N 00410E 110555 F094 MS012 /// 231/023 TB1 S031
333 F094 VG011=
ASC EU0951 4349N 00411E 110555 F102 MS030 /// 225/024 TB2 S031
333 F102 VG043=
ASC EU0951 4350N 00411E 110556 F106 MS042 /// 226/022 TB0 S031
333 F106 VG000=
ASC EU0951 4352N 00412E 110556 F110 MS050 /// 224/020 TB0 S031
333 F110 VG001=
ASC EU0951 4354N 00413E 110556 F113 MS057 /// 225/019 TB0 S031
333 F113 VG002=
ASC EU0951 4356N 00413E 110557 F115 MS065 /// 222/019 TB0 S031
333 F115 VG001=
ASC EU0951 4358N 00414E 110557 F118 MS072 /// 229/018 TB1 S031
333 F118 VG024=
ASC EU0951 4401N 00414E 110557 F126 MS087 /// 234/020 TB1 S031
333 F126 VG014=
ASC EU0951 4403N 00416E 110558 F133 MS105 /// 233/020 TB1 S031
333 F133 VG007=
ASC EU0951 4405N 00416E 110558 F140 MS125 /// 228/020 TB0 S031
333 F140 VG002=
ASC EU0951 4408N 00417E 110558 F146 MS137 /// 224/024 TB0 S031
333 F146 VG003=
ASC EU0951 4410N 00418E 110559 F151 MS152 /// 220/025 TB0 S031
333 F151 VG004=
ASC EU0951 4413N 00419E 110559 F157 MS167 /// 222/027 TB0 S031
333 F157 VG001=
ASC EU0951 4415N 00419E 110559 F164 MS185 /// 228/025 TB0 S031
333 F164 VG003=
ASC EU0951 4417N 00420E 110600 F171 MS207 /// 231/026 TB0 S031
333 F171 VG002=
ASC EU0951 4420N 00421E 110600 F175 MS200 /// 230/033 TB2 S031
333 F175 VG028=
ASC EU0951 4422N 00422E 110600 F183 MS215 /// 238/035 TB2 S031
333 F183 VG027=
ASC EU0951 4425N 00423E 110601 F196 MS235 /// 241/000 TB3 S031
333 F196 VG///=
0000015000
317
SMSQ50 LZIB 110600 CCA
AAXX 11061
11933 12480 29902 11048 21072 38647 48460 52001 69902 82540
  333 21055 3/107 42009 70005 81616=
0000015000
318
SMSQ51 LZIB 110600 CCA
AAXX 11061
11933 12480 29902 11048 21072 38647 48460 52001 69902 82540
  333 21055 3/107 42009 70005 81616=
0000172400
319
SOVX05 LFPW 110608
KKYY 09014 0800/ 759682 039740 88871 ///99 20010 30441 43490 20025
30444 43491 20040 30443 43489 20090 30446 43490 20230 30450 43492
20310 30440 43493 20390 30418 43499 20470 30403 43495 20550 30397
43490 20630 30384 43488 20740 30373 43492 20870 30374 43489 99999
44478=
KKYY 09014 1200/ 759682 039740 88871 ///99 20010 30441 43489 20025
30444 43491 20040 30440 43488 20090 30444 43490 20230 30450 43492
20310 30451 43492 20390 30428 43499 20470 30410 43495 20550 30393
43490 20630 30389 43488 20740 30374 43492 20870 30372 43489 99999
44478=
KKYY 09014 1600/ 759682 039740 88871 ///99 20010 30440 43489 20025
30444 43491 20040 30441 43488 20090 30442 43489 20230 30450 43492
20310 30441 43492 20390 30428 43499 20470 30413 43496 20550 30402
43490 20630 30390 43488 20740 30377 43492 20870 30373 43489 99999
44478=
KKYY 09014 0400/ 759682 039740 88871 ///99 20010 30441 43489 20025
30444 43491 20040 30446 43490 20090 30446 43491 20230 30450 43492
20310 30445 43493 20390 30424 43499 20470 30402 43495 20550 30395
43489 20630 30392 43489 20740 30380 43493 20870 30379 43490 99999
44478=
KKYY 10014 0000/ 759682 039740 88871 ///99 20010 30439 43490 20025
30444 43491 20040 30440 43488 20090 30447 43491 20230 30450 43492
20310 30450 43493 20390 30427 43499 20470 30415 43496 20550 30405
43491 20630 30398 43489 20740 30380 43492 20870 30381 43490 99999
44478=
KKYY 09014 2000/ 759682 039740 88871 ///99 20010 30440 43490 20025
30444 43492 20040 30441 43488 20090 30448 43491 20230 30451 43493
20310 30437 43493 20390 30423 43499 20470 30412 43496 20550 30404
43491 20630 30391 43489 20740 30378 43492 20870 30378 43489 99999
44478=
0000038700
320
SMVD15 KWNB 110600 RRF
BBXX
41108 11061 99337 70780 46/// ///// 1//// 90559 22200 00120 10704
20704 70018=
42099 11061 99273 70843 46/// ///// 1//// 90552 22200 00221 10501
20501 70006=
41114 11061 99276 70802 46/// ///// 1//// 90555 22200 00229 10803
20803 306// 41401 70014=
41112 11061 99307 70813 46/// ///// 1//// 90552 22200 00118 10803
20803 70014=
0000023300
321
SMVD17 KWNB 110600 RRF
BBXX
51205 11061 99210 71564 46/// ///// 1//// 90551 22200 00249 11005
21004 332// 41403 70023=
46239 11061 99363 71221 46/// ///// 1//// 90559 22200 00132 11405
21003 329// 41404 70027=
0000011500
322
SMTV01 NGFU 110600
AAXX 11064
91648 11599 72808 10298 20258 40038 60001 70222 83202 333
568/9=

---
0000014100
323
SMNU01 TNCA 110600
AAXX 11064
78982 01480 40911 10247 20229 30132 40137 57003 60011 72500 84200
   333 58000 60017 84818=
0000012600
324
SMAA01 RJTD 110600
AAXX 11064
89532 41/60 70702 11004 21026 39914 49941 53003
70272 8757/ 333 55165 23200=
0000064100
325
SMMS31 WMKK 110600
AAXX 11064
48600 11562 70408 10306 20211 30105 40113 60001 70522 82142 333 82822 84364 87077=
48602 11560 70608 10282 20233 30107 40110 6///1 71522 83832 333 82820 85364 87077=
48603 11565 70709 10282 20218 30113 40118 60001 70522 81158 333 81820 85364 87276=
48618 11358 81902 10248 20237 30120 40127 60071 76166 8457/ 333 82708 84622 88469=
48625 11464 70407 10282 20233 30062 40109 69941 70562 83572 333 81916 85363 86078=
48632 NIL=
48674 11530 83512 10254 20248 30059 40109 60121 78186 84548 333 83820 84364 88276=
48679 12480 70109 10316 20249 30053 40095 60001 83242 333 83818 86078=
0000105200
326
SAUK39 EGRR 110550 RRB
METAR EGDM 110550Z AUTO 28009KT 9999 NCD 05/05 Q1014=
METAR EGDX 110550Z AUTO 30007KT 9999 NCD 05/04 Q1015=
METAR EGDY 110550Z AUTO 27006KT 9999 SCT018/// 05/04 Q1015=
METAR EGOM 110550Z AUTO 26010KT 0250 SG VV/// 00/00 Q1009=
METAR EGOP 110550Z AUTO 32008KT 9999 // NCD 04/03 Q1016=
METAR EGOS 110550Z AUTO 20002KT 9999 NCD 02/02 Q1013=
METAR EGOV 110550Z AUTO 26011KT 9999 -SHRA FEW026/// BKN060/// 06/02 Q1014=
METAR EGUB 110550Z AUTO 24007KT 9999 // FEW011/// 06/05 Q1014=
METAR EGUW 110550Z AUTO 23011KT 4500 -DZ BKN004/// 07/07 Q1011=
METAR EGVP 110550Z AUTO 29009KT 9999 // FEW060/// 06/05 Q1014=
METAR EGXD 110550Z AUTO 27006KT 9999 // FEW110/// 02/M01 Q1011=
METAR EGXE 110550Z AUTO 26006KT 9999 NCD 02/M01 Q1011=
METAR EGXU 110550Z AUTO 26006KT 9999 // FEW120/// 03/00 Q1011=
METAR EGXZ 110550Z AUTO 28004KT 9999 FEW120/// 04/01 Q1011=
METAR EGYD 110550Z AUTO 30010KT 9999 // BKN014/// 06/04 Q1011=
METAR EGYM 110550Z AUTO 26012KT 9999 FEW026/// BKN048/// 07/06 Q1011 RERA=
0000215900
327
SZNZ01 NZKL 110609
CREX++
T000103 A001 D01021 D06025++
-3683144 17478654 AUCT  2014 01 11 06 01 //// 11 07 00 01
05285 3108 05278 3109 05269 3108 05262 3110 05254 3110 05247 3111+
-4402404 -17636748 CHIT  2014 01 11 06 01 //// 11 07 00 01
04425 1966 04412 1955 04404 1949 04423 1971 04421 1971 04412 1965+
-4089929 17623168 CPIT  2014 01 11 06 01 //// 11 07 00 01
03494 2312 03485 2307 03476 2302 03473 2303 03465 2300 03444 2283+
-3618905 17548887 GBIT  2014 01 11 06 01 //// 11 07 00 01
05870 0041 05864 0041 05876 0058 05874 0062 05862 0055 05848 0047+
-3867541 17802288 GIST  2014 01 11 06 01 //// 11 07 00 01
03727 2728 03730 2736 03711 2722 03701 2718 03711 2732 03699 2725+
-4241288 17370277 KAIT  2014 01 11 06 01 //// 11 07 00 01
02782 2202 02773 2197 02775 2202 02755 2186 02757 2191 02758 2196+
-3755040 17815904 LOTT  2014 01 11 06 01 //// 11 07 00 01
03394 0216 03391 0218 03395 0228 03386 0224 03385 0229 03383 0232+
-3704657 17451175 MNKT  2014 01 11 06 01 //// 11 07 00 01
03455 -0120 03437 -0140 03456 -0122 03448 -0132 03476 -0105 03433 -0150+
-3947566 17692007 NAPT  2014 01 11 06 01 //// 11 07 00 01
02685 2075 02675 2070 02667 2067 02641 2046 02660 2070 02640 2055+
-3441483 17304870 NCPT  2014 01 11 06 01 //// 11 07 00 01
01900 -2791 01786 -2900 01809 -2872 01863 -2813 01784 -2887 01709 -2957+
-4581435 17062939 OTAT  2014 01 11 06 01 //// 11 07 00 01
03780 3426 03780 3428 03777 3427 03775 3425 03774 3426 03776 3428+
-2928002 -17789440 RBCT  2014 01 11 06 01 //// 11 07 00 01
06069 2037 06071 2043 06088 2065 06072 2053 06056 2041 06050 2038+
-2925114 -17790384 RFRT  2014 01 11 06 01 //// 11 07 00 01
02990 0222 02992 0229 03010 0251 02992 0237 02966 0215 02980 0234+
-4357010 17277383 SUMT  2014 01 11 06 01 //// 11 07 00 01
01214 1811 01212 1812 01212 1816 01207 1814 01204 1816 01207 1822+
-3764109 17618118 TAUT  2014 01 11 06 01 //// 11 07 00 01
05170 4002 05167 4004 05165 4008 05155 4004 05151 4006 05144 4004+
-4128448 17477985 WLGT  2014 01 11 06 01 //// 11 07 00 01
02775 2096 02771 2095 02763 2090 02757 2087 02765 2098 02758 2093++
7777
0000014800
328
SMIE01 EIDB 110600 CCA
AAXX 11061
03969 31370 62708 10021 20013 30049 40156 53023 70161 866//
333 20016 31101 55000 83707 85708=
0000014200
329
SMIE01 EIDB 110600 CCB
AAXX 11061
03973 12780 11802 11004 21004 39893 40156 51021 60022 81500
333 21006 34103 55020 81650=
0000011100
330
UANT99 KDDL 110606
ARP AWE734 5112N02835W 0603 F380 MS55 207/66 KT
N286AY DDL XXN 110606 J43A
0000011100
331
UANT99 KDDL 110606
ARP GTI609 5013N04422W 0606 F370 MS60 317/59 KT
N851GT DDL XXH 110606 F30A
0000011100
332
UANT99 KDDL 110607
ARP DAL410 5102N01719W 0605 F350 MS63 236/55 KT
N195DN QXT AOW 110607 F64A
00000000