0000063600
053
SNSP21 LEMM 111000
AAXX 11104
08084 46/// /2601 10057 20048 39783 40224 53018
  555 60005=
08184 46/// /0000 10108 20084 30050 40206 51018
  555 60005=
08202 46/// /0000 10048 20024 39265 42808 53016
  555 60005=
08360 46/// /2202 10113 20082 30165 40202 51022
  555 60005=
08373 46/// /0000 10146 20125 30174 40195 53020
  555 60005=
08410 46/// /0000 10098 20079 30089 40201 53022
  555 60005=
08419 47/62 /0000 10101 20079 39529 40199 51020 71011
  555 69915=
08451 46/// /0000 10128 20123 30163 40196 53029
  555 60005=
08487 46/// /3203 10140 20088 30172 40197 53021
  555 60005=
0000026400
054
SIGW20 GGOV 110900
AAXX 11094
61766 42960 83604 10188 20094 30100 40145 85051
333 58016 85360 83075=
61769 42960 63605 10204 20140 3//// 4//// 86030
333 5//// 86360=
61781 42960 8//// 10184 20120 30031 40056 83031
333 58005 83360 85075=
0000105200
055
SIMI20 GABS 110900
AAXX 11094
61202 NIL=
61214 NIL=
61223 NIL=
61226 NIL=
61230 42960 63604 10206 20013 3//// 4//// 83042
  333 5//// 83365 85075=
61233 42960 70000 10240 20077 39842 40138 87072
  333 58011 87365=
61235 42960 70806 10270 20030 30024 40137 87040
  333 58024 87365=
61240 NIL=
61250 NIL=
61257 42960 72606 10225 20086 30084 40140 87040
  333 58020 87365=
61265 41956 51014 10270 21028 39826 40131 70622 80002
  333 58009 85075=
61270 42960 30000 10238 20119 39761 40133 82042
  333 58020 82365=
61272 42960 20404 10250 20074 39807 40132 80002
  333 58002 82075=
61277 42960 10000 10241 20065 39819 40141 80002
  333 58014 81075=
61285 41958 50000 10215 20108 39994 40144 70622 84072
  333 58020 84365=
61291 42960 10606 10260 20048 39709 40116 80002
  333 58006 81075=
61293 42960 00804 10240 20072 39716 40120
  333 58015=
61296 42970 51802 10245 20111 39731 40122 80002
  333 58003 85075=
61297 42960 50606 10250 20059 39665 40118 80002
  333 58026 85075=
0000011000
056
UANT01 CWAO 111011
ARP AFR022 5107N02308W 1010 F360 MS61 202/74 KT
FGSPC QXT AOE 111011 F17A
0000015400
057
SSVX02 LFVW 111011
ZZYY 23598 11014 0850/ 114611 083040 6111/
11119 40148 57029
22219 00268
444 20110 11014 0811/ 503// 80108 80010=
0000093200
058
SNEO40 EEMH 111000
AAXX 11101
26029 27/63 /2403 11001 21013 39973 40002 52007 78188
 333  10014 21010 60007
 555  21010 50010=
26046 27371 83403 11028 21040 39902 49994 52020 70070 88///
 333  11011 21030 60007 88/09 91108
 555  21030 51009=
26124 27253 82502 10001 20000 39976 40007 52008 77170 88///
 333  10010 21004 60007 88/05
 555  1/001 21004 3/001 50008 52101=
26128 27269 72503 10010 20004 30008 40010 52008 78580 87///
 333  10024 20007 60007 87/06 91108
 555  1/002 20007 3/000 50023=
26145 27461 83202 11020 21034 39959 49999 52022 72288 88///
 333  10001 21020 60007 88/10 91108
 555  1/100 21020 3/101 51001 52102=
26233 27481 82702 11004 21016 39900 40007 51015 78088 88///
 333  10010 21009 69937 88/12
 555  1/001 21009 3/100 50012 52101=
26249 27217 82803 11002 21012 39902 40004 52021 78587 88///
 333  10013 21003 60007 88/06 91108
 555  1/000 21003 3/000 50018 52101=
0000371200
059
SNPL40 SOWR 111000
AAXX 11101
12100 42465 72104 10053 20031 30100 40107 58001 875//
  333 91110=
12105 42561 82105 10049 20029 30066 40108 57003 885//
  333 91110=
12115 42470 82407 10057 20032 30082 40096 52001 8655/
  333 91012 91112=
12120 42470 82610 10055 20033 30087 40091 50002 885//=
12125 46/// /2405 10053 20031 30047 40098 52003 =
12135 42470 72603 10057 20043 30089 40092 50004 878//=
12160 41465 72307 10036 20036 39875 40103 50005 72522 873//=
12185 42480 72607 10046 20031 39964 40100 51010 875//
  333 91112=
12195 41456 82707 10036 20036 39864 40093 51013 78088 889//=
12200 42460 72103 10053 20038 30104 40111 58004 8551/=
12205 42464 72306 10052 20030 30115 40123 58005 8553/=
12210 46/// /2104 10046 20026 30046 40110 57005=
12215 41/// /9904 10042 20021 39948 40120 54000 7////
  =
12230 42565 82304 10047 20021 30040 40131 58003 875//=
12235 42463 82306 10038 20026 39908 40120 52002 885//
  333 88610=
12250 42/62 72403 10052 20025 30044 40133 50002 83108
  333 91109=
12270 42462 72506 10042 20027 39947 40131 51009 875//
  333 87612=
12272 42470 72304 10043 20030 39944 40112 51009 875//
  333 87611=
12280 42470 72605 10042 20029 39950 40108 51011 86508=
12285 41/// /2504 10053 20022 30008 40124 52009 700//=
12295 42575 82605 10044 20024 39927 40112 51014 885//=
12300 42575 72603 10054 20027 30049 40139 58004 8213/=
12310 42980 62305 10053 20016 30080 40147 55002 85059=
12330 42465 82304 10039 20016 30040 40150 58002 875//=
12345 42661 72305 10045 20019 30006 40152 50003 82538=
12360 42465 82406 10045 20019 30005 40140 50003 86507
  333 86616=
12375 42470 62604 10048 20013 30017 40149 51009 83502
  333 83616 91009 91111=
12385 42568 72505 10051 20019 39950 40141 51010 84508=
12399 42569 62605 10057 20014 39965 40134 52012 82550=
12400 42781 32404 10048 20013 39918 40156 58002 81541=
12415 42982 51801 10068 20011 30012 40165 58003 81046=
12418 42980 22305 10059 20016 30045 40160 58003 82031=
12424 42999 22204 10067 20014 30019 40172 58002 81032=
12435 42668 72305 10050 20022 39987 40160 58002 82538=
12455 42671 72405 10041 21001 39925 40174 50004 875//=
12465 42565 72406 10047 20012 39937 40161 51004 878//=
12469 42580 72206 10043 20015 39931 40165 50004 875//=
12488 42580 72604 10051 20010 30003 40159 51009 875//=
12495 42781 72505 10042 20002 39867 40163 51008 875//=
12497 42570 72506 10051 20007 39925 40146 51010 81108=
12500 42967 71602 10050 21004 39752 40173 58006 80008=
12510 41/91 62915 11049 21053 38322 48447 51005 74843 82534
  444 26005=
12520 42575 72104 10042 20002 39752 40191 50000 85508
  333 85620=
12530 42970 32103 10067 20004 39980 40182 50000 81032=
12540 42780 32307 10056 20008 39938 40193 58001 81532=
12550 42670 72404 10055 21001 39816 40178 50002 8255/=
12560 42965 42205 10054 20004 39846 40190 50002 83031=
12566 42780 72507 10054 20006 39893 40190 50000 875//=
12570 42571 72505 10045 20004 39855 40177 50002 875//
  333 91109=
12575 42670 72402 10062 21012 39929 40186 58002 8457/=
12580 42780 72506 10058 21005 39924 40186 50002 875//=
12585 42678 72505 10050 20000 39906 40176 50004 875//=
12595 46/70 /2607 10046 21004 39891 40168 52008 =
12600 42970 22403 10059 21025 39706 40191 50002 81032=
12625 42681 52703 10016 21065 39182 42798 50000 83508
  333 91008 91108=
12650 42484 62207 11093 21101 37954 48474 50000 81538=
12660 42984 62305 10063 21036 39832 40194 50000 81036=
12670 42969 82103 10025 21017 39789 40199 50007 83037=
12690 42678 72304 10023 21026 39684 40204 51005 84538
  333 91009 91109=
12695 41/// /9904 10058 21025 39845 40188 52004 700//=
0000217000
060
SZNZ01 NZKL 111012
CREX++
T000103 A001 D01021 D06025++
-3683144 17478654 AUCT  2014 01 11 10 04 //// 11 07 00 01
03974 3193 03975 3193 03977 3193 03978 3193 03980 3194 03982 3194+
-4402404 -17636748 CHIT  2014 01 11 10 04 //// 11 07 00 01
04733 2005 04730 1998 04751 2015 04741 2001 04739 1995 04748 2000+
-4089929 17623168 CPIT  2014 01 11 10 04 //// 11 07 00 01
03600 2315 03586 2296 03591 2296 03588 2288 03598 2293 03602 2293+
-3618905 17548887 GBIT  2014 01 11 10 04 //// 11 07 00 01
05025 -0017 05006 -0037 05015 -0030 05037 -0010 05054 0005 05048 -0002+
-3867541 17802288 GIST  2014 01 11 10 04 //// 11 07 00 01
03505 2738 03510 2738 03517 2742 03523 2744 03529 2746 03527 2740+
-4241288 17370277 KAIT  2014 01 11 10 04 //// 11 07 00 01
03167 2246 03172 2245 03157 2225 03169 2232 03189 2247 03195 2247+
-3755040 17815904 LOTT  2014 01 11 10 04 //// 11 07 00 01
02809 0194 02811 0193 02803 0182 02812 0189 02827 0201 02826 0198+
-3704657 17451175 MNKT  2014 01 11 10 04 //// 11 07 00 01
02447 -0152 02459 -0133 02424 -0161 02432 -0146 02426 -0145 02418 -0146+
-3947566 17692007 NAPT  2014 01 11 10 04 //// 11 07 00 01
02630 2067 02654 2085 02659 2086 02658 2080 02670 2088 02650 2063+
-3441483 17304870 NCPT  2014 01 11 10 04 //// 11 07 00 01
-04663 -8251 -04675 -8262 -04665 -8251 -04668 -8253 -04658 -8242 -04645 -8229+
-4581435 17062939 OTAT  2014 01 11 10 04 //// 11 07 00 01
04710 3388 04718 3389 04726 3390 04731 3389 04738 3390 04745 3391+
-2928002 -17789440 RBCT  2014 01 11 10 04 //// 11 07 00 01
05485 2002 05483 2000 05501 2016 05487 2001 05489 2002 05493 2004+
-2925114 -17790384 RFRT  2014 01 11 10 04 //// 11 07 00 01
02403 0198 02398 0191 02396 0189 02393 0184 02409 0199 02399 0187+
-4357010 17277383 SUMT  2014 01 11 10 04 //// 11 07 00 01
01820 1831 01839 1843 01846 1842 01824 1814 01859 1841 01861 1837+
-3764109 17618118 TAUT  2014 01 11 10 04 //// 11 07 00 01
04342 3997 04347 4001 04344 3997 04351 4002 04352 4002 04353 4001+
-4128448 17477985 WLGT  2014 01 11 10 04 //// 11 07 00 01
02988 2014 03003 2025 03002 2020 03004 2017 03010 2019 03015 2019++
7777
0000014500
061
SSVX02 CWAO 111000
ZZYY 63544 11014 1000/ 179789 004839 6113/ 11122 
40050 57134 444 20130 11014 1000/ 50101 80136 80001 9////=
0000015500
062
SNVD20 EHDB 111000 RRA
BBXX
PHSG 11104 99063 71333 41/98 71124 10250 20235 40090 57010 70292
87/// 22214 00250 20203 323// 40306 80240=
0000012700
063
SSVX02 CWAO 111000
ZZYY 47573 11014 1000/ 770970 100709 6113/ 444 
20130 11014 1000/ 50101 80134 80001 9////=
0000012700
064
SSVX02 CWAO 111000
ZZYY 47537 11014 1000/ 783290 048075 6113/ 444 
20130 11014 1000/ 50001 80136 80001 9////=
0000015100
065
SSVX02 CWAO 111000
ZZYY 26535 11014 1000/ 187300 040489 6113/ 11119 
11134 49998 57006 444 20130 11014 1000/ 50101 80134 80001 9////=
0000012700
066
SSVX05 CWAO 111000
ZZYY 47550 11014 1000/ 770787 069468 6113/ 444 
20130 11014 1000/ 50101 80134 80001 9////=
0000215900
067
SZNZ01 NZKL 110518
CREX++
T000103 A001 D01021 D06025++
-3683144 17478654 AUCT  2014 01 11 05 10 //// 11 07 00 01
05699 3146 05693 3147 05686 3146 05680 3146 05672 3145 05663 3142+
-4402404 -17636748 CHIT  2014 01 11 05 10 //// 11 07 00 01
04649 2034 04629 2017 04609 2000 04620 2016 04625 2024 04613 2015+
-4089929 17623168 CPIT  2014 01 11 05 10 //// 11 07 00 01
03679 2252 03686 2263 03682 2265 03664 2252 03655 2248 03646 2244+
-3618905 17548887 GBIT  2014 01 11 05 10 //// 11 07 00 01
06130 0032 06140 0047 06140 0052 06131 0048 06122 0044 06116 0043+
-3867541 17802288 GIST  2014 01 11 05 10 //// 11 07 00 01
03979 2711 03940 2678 03953 2696 03941 2689 03924 2678 03944 2703+
-4241288 17370277 KAIT  2014 01 11 05 10 //// 11 07 00 01
03000 2200 02964 2169 02987 2197 02954 2169 02962 2182 02968 2192+
-3755040 17815904 LOTT  2014 01 11 05 10 //// 11 07 00 01
03666 0214 03658 0211 03675 0234 03664 0228 03662 0230 03669 0242+
-3704657 17451175 MNKT  2014 01 11 05 10 //// 11 07 00 01
03269 -0150 03289 -0134 03294 -0133 03285 -0147 03290 -0146 03303 -0137+
-3947566 17692007 NAPT  2014 01 11 05 10 //// 11 07 00 01
02916 2037 02928 2053 02901 2032 02902 2039 02865 2008 02868 2016+
-3441483 17304870 NCPT  2014 01 11 05 10 //// 11 07 00 01
02154 -2744 02146 -2749 02148 -2744 02125 -2764 02177 -2708 02207 -2675+
-4581435 17062939 OTAT  2014 01 11 05 10 //// 11 07 00 01
03928 3444 03925 3444 03921 3445 03917 3444 03915 3446 03912 3446+
-2928002 -17789440 RBCT  2014 01 11 05 10 //// 11 07 00 01
06273 2048 06259 2037 06284 2066 06277 2062 06261 2050 06254 2046+
-2925114 -17790384 RFRT  2014 01 11 05 10 //// 11 07 00 01
03213 0242 03191 0224 03170 0206 03185 0225 03174 0218 03183 0231+
-4357010 17277383 SUMT  2014 01 11 05 10 //// 11 07 00 01
01506 1848 01470 1818 01472 1826 01460 1820 01452 1818 01427 1799+
-3764109 17618118 TAUT  2014 01 11 05 10 //// 11 07 00 01
05426 3999 05420 3998 05418 4000 05419 4005 05412 4003 05407 4003+
-4128448 17477985 WLGT  2014 01 11 05 10 //// 11 07 00 01
02875 2017 02866 2012 02865 2015 02866 2019 02859 2017 02862 2024++
7777
0000011000
068
UANT99 KDDL 110515
ARP UAL19 5057N02042W 0515 F340 MS65 243/70 KT
N76054 DDL XXN 110515 F82A
0000011000
069
UANT99 KDDL 110515
ARP BAW116 4858N04012W 0515 F390 MS53 285/32 KT
GVIIH QXT AOW 110516 F07A
0000005200
070
RRIN23 VECC 110516
RQRPT 580-621=

0000011000
071
UANT99 KDDL 110515
ARP VIR46C 5339N02415W 0515 F390 MS54 224/54 KT
GVWOW DDL XXN 110516 F99A
0000010900
072
UANT99 KDDL 110516
ARP SIA25 4949N03631W 0516 F390 MS53 236/31 KT
9VSKR QXT AME 110516 J45A
00000000