0000010600
093
SACN61 CYHU 102100
METAR CYHU 102100Z AUTO 00000KT 9SM OVC020 M03/M06 A3028 RMK SLP254=

0000012900
094
SACN62 CYKY 102100
METAR CYKY 102100Z 29006KT 15SM SCT030 BKN090 OVC240 M09/M11 A2943
 RMK SC4AC2CI2 SLP010=

0000010100
095
SAIO31 KWBC 102000 RRG
METAR
FMMT 102000Z 32006KT 9999 FEW017 BKN033 28/25 1013=

0000031100
096
SAMX31 KWBC 102045 RRE
METAR
MMGL 102048Z 32010KT 10SM SCT030TCU BKN080 23/02 A3008 RMK SLP117
     57026 964 8/230=
MMMZ 102043Z 22009KT 15SM SCT210 25/11 A2988 RMK SLP118 57027 953
     8/004 ISOL CC=
MMPR 102046Z 20007KT 15SM FEW120 25/17 A2990 RMK SLP118 57025 952
     8/080=

0000011500
097
SAPR01 SPIM 102100
METAR SPIM 102100Z 18011KT 9999 FEW009 SCT170 24/19 Q1010 NOSIG RMK 
PP000=

0000010500
098
SAID31 WIII 102100
METAR WIII 102100Z 00000KT 4100 BR FEW021 SCT100 25/23 Q1008 NOSIG=

0000010300
099
SAMJ41 LWSK 102100
METAR LWSK 102100Z 00000KT 2600 BR OVC003 02/01 Q1024 TEMPO 1500=

0000008800
100
SPCN48 CWAO 102058
SPECI CYOY 102058Z AUTO 20002KT 5SM M09/M11 A3025=

0000008900
101
SABZ19 SBCJ 102100
METAR SBCJ 102100Z 00000KT 9999 FEW027 24/21 Q1012=

0000009500
102
SAQB31 LQBK 102100
METAR LQBK 102100Z 11002KT 0400 FG NSC 05/05 Q1021 NOSIG=

0000015200
103
SPUS70 KWBC 102058
SPECI
KXFL 102050Z 13007KT 7SM CLR 23/19 A3009=
KHVN 102055Z 00000KT 5SM BR FEW008 OVC029 01/00 A3036 RMK AO2=

0000011700
104
SPUS41 KWBC 102058
SPECI
KCAE 102053Z 04004KT 1 3/4SM +RA BR FEW005 BKN031 OVC070 09/08
A3015=

0000009800
105
SABZ19 SBMQ 102100
METAR SBMQ 102100Z 06004KT 9999 FEW017 BKN100 28/22
Q1008=

0000012100
106
SAUK36 EGGY 102050 RRA
METAR EGVN 102050Z 21007KT 9999 -RA FEW030 BKN045 08/06 Q1012 TEMPO
    7000=

0000067700
107
SAGR31 LGAT 102050
METAR LGAD 102050Z 00000KT 9999 SCT020 11/09 Q1022=
METAR LGAV 102050Z 26003KT CAVOK 10/07 Q1019  NOSIG=
METAR LGIR 102050Z 17009KT CAVOK 12/09 Q1021 NOSIG=
METAR LGKL 102050Z 00000KT 9999 SCT080 08/07 Q1022=
METAR LGKO 102050Z 13005KT 9999 SCT025 10/08 Q1021=
METAR LGKR 102050Z 00000KT 9999 SCT018 BKN070 11/10 Q1022 NOSIG=
METAR LGLM 102050Z AUTO 01004KT 320V030 //// // //////
     11/09 Q1019 RE//=
METAR LGRP 102050Z 00000KT 9999 FEW018 13/08 Q1021 NOSIG=
METAR LGSA 102050Z 26012KT 9999 FEW020 14/10 Q1021=
METAR LGSM 102050Z NIL=
METAR LGTS 102050Z 00000KT 8000 FEW010 SCT025 BKN180 06/05 Q1020
      NOSIG=

0000030800
108
SAHO31 MHTG 102100
METAR MHRO 102100Z 35005KT 9999 SCT020 27/22 Q1012 A2989 NOSIG=
METAR MHLC 102100Z 36003KT 9999 SCT020 BKN070 26/22 Q1013 A2991
NOSIG=
METAR MHLM 102100Z 02010KT 9999 SCT030 29/23 Q1012 A2989 NOSIG=
METAR MHTG 102100Z 01006KT 9999 BKN030 25/13 Q1016 A3000 NOSIG=

0000011000
109
SABH31 MZBZ 102100
METAR MZBZ 102100Z 05005KT 9999 FEW022 BKN045 26/22 A2992 Q1013
NOSIG=

0000080500
110
SANL33 EHDB 102055
METAR EHAK 102055Z AUTO 22025KT 9999 FEW007/// 07/06 Q1007=
METAR EHDV 102055Z AUTO 23017KT 9999 NSC 08/06 Q1009=
METAR EHFD 102055Z AUTO 24025KT 9999 FEW006/// BKN008/// BKN009///
07/06 Q1008=
METAR EHFZ 102055Z AUTO 23022KT //// // ///////// 08/06 Q1010 RE//=
METAR EHJA 102055Z AUTO 22023KT 9999 NSC 08/06 Q1010=
METAR EHJR 102055Z NIL=
METAR EHKV 102055Z AUTO 23025KT 9999 FEW017/// SCT041/// BKN047///
10/07 Q1012=
METAR EHMA 102055Z AUTO 22017KT 9999 FEW018/// 07/05 Q1012=
METAR EHMG 102055Z AUTO 23022KT 9999 FEW014/// 09/06 Q1011=
METAR EHPG 102055Z AUTO ///28KT 9999 FEW007/// SCT012/// BKN015///
09/07 Q1012=
METAR EHQE 102055Z AUTO 22025KT 9999 FEW018/// SCT033/// 09/07 Q////=
METAR EHSA 102055Z NIL=
METAR EHSC 102055Z NIL=

0000056600
111
SAGR32 LGAT 102050
METAR LGAL 102050Z 32008KT 9999 FEW020 SCT200 07/05 Q1020=
METAR LGEL 102050Z 00000KT CAVOK 09/07 Q1019=
METAR LGIO 102050Z AUTO VRB01KT //// // ////// 06/05 Q1022
     RE//=
METAR LGKV 102050Z NIL=
METAR LGMT 102050Z VRB03KT 9999 BKN020 14/11 Q1020=
METAR LGPZ 102050Z AUTO VRB03KT //// // ////// 11/10 Q1023
     RE//=
METAR LGRX 102050Z 00000KT 9999 BKN050 10/08 Q1022 NOSIG=
METAR LGSK 102050Z NIL=
METAR LGSR 102050Z AUTO 23011KT 190V260 //// // //////
     15/10 Q1020 RE//=
METAR LGZA 102050Z NIL=

0000012300
112
SABZ18 SBGR 102100
METAR SBGR 102100Z 11003KT 9999 -TSRA SCT030
FEW040CB BKN100 23/19 Q
1016 RERAGR=

00000000