0000009900
493
SAIN31 VOMM 110640 RRA
METAR VOTV 110640Z 18005KT 5000 HZ FEW018 30/23 Q1012 NOSIG=
0000026100
494
SMVA01 DEMS 110600 RRA
BBXX
OZCZ2 11064 99253 10550 41297 71415 10200 20109 40210 7//// 877//
22200 00200 2//// 80150=
9V2004 11064 99006 30586 41698 60212 10310 20242 40127 50003 70300
84442 22244 04270 20302 30403 40802 50802 80260=

0000009200
495
SAIN90 VECC 110650
METAR VECC 110650Z 03003KT 2600 HZ NSC 25/13 Q1015 NOSIG=
0000022600
496
SAXX31 VQPR 110650
METAR VQPR 110650Z 00000KT 4000 SN BKN015 BKN070 SCT200 00/M01 Q1026
NOSIG=TREND VIS BECMG 3000M.
SAXX31 VQPRYMYX 250220
METAR VQPRYMYX 250220Z 12005KT 6000 SCT006 FEW030 19/14 Q1023 NO SIG=

0000011000
497
UANT01 CWAO 110648
ARP AFR689 4728N03800W 0648 F370 MS50 285/31 KT
FGSPT QXT AOW 110648 F16A
0000034300
498
SNVD15 KWNB 110500 RRV
BBXX
42369 11051 99272 70903 46/// /1506 1//// 90440=
42375 11051 99285 70883 46/// /1410 1//// 90440 22200 10401 70007
555 11084 22091=
42392 11051 99272 70900 46/// ///// 1//// 90440 22200 10502 70008=
42887 11051 99282 70885 46/// /1709 10225 20191 90440 22200 10602
70009 555 11074 22080=
0000094200
499
SMKR11 BABJ 110600
AAXX 11061
47003 42980 03204 10003 21174 30234 40238 57025=
47005 42980 22303 11121 21183 38609 58018 80002=
47022 42975 03206 11080 21167 38830 57011=
47028 42967 03201 11002 21108 30187 40284 57030=
47031 42970 03204 11090 21219 38948 57018=
47037 42967 01401 11014 21115 30173 40299 58027=
47039 42960 00000 11027 21116 30114 40312 57025=
47046 42969 02303 10017 21092 30235 40258 57004=
47050 42765 60000 11014 21126 30256 40291 57021 86020=
47052 42965 52704 11013 21135 39935 40284 57019 80002=
47060 42960 80903 10002 21026 30240 40300 58027 80002=
47061 42980 03202 10043 21120 30226 40272 57014=
47065 42970 00000 10018 21117 30241 40307 58035=
47067 42965 82503 10010 21135 30203 40336 57031 80001=
47068 42960 81401 10026 21072 30268 40304 57011 80007=
47070 42770 82704 10011 21016 30226 40316 57019 88030=
47075 42980 52303 11011 21109 39998 40443 57009 80001=
0000031700
500
SMGN01 GUCY 110600
AAXX 11064
61802 33965 20404 10185 20112 3//// 3//// 80002
  333 20102 5//// 82075
61809 NIL
61811 NIL
61816 NIL
61818 NIL
61820 NIL
61829 NIL
61832 32960 00504 10233 20224 39073 40099
  33 20230 50364 55/// 58000
61833 NIL
61834 NIL
61847 NIL
61849 NIL=
0000179100
501
SMSU01 HSSS 110600
AAXX 11064
62600 32970 00405 10135 20065 30040 40264 333 10200 20110 58035=
62640 32970 00210 10140 20030 39827 40199 333 10235 20090 58036=
62641 32970 03412 10207 20083 30156 40206 333 10272 20178 58046=
62650 32970 03508 10098 20012 39972 40258 333 10220 20073 58014=
62660 31968 03612 10123 20036 39901 40214 70700 333 10230 20080
58017=
62680 32970 53408 10130 20020 39784 40199 80004 333 10245 20115
56009 58016 85075=
62721 32970 73618 10135 20020 39720 40188 80007 333 10245 20130
56009 58002 87275=
62730 32970 73204 10160 21020 39620 40203 80004 333 10305 20135
56009 58005 87275=
62733 32970 03605 10150 20110 39620 40140 333 10310 20110 59007=
62750 32970 73606 10165 20025 39725 40165 80007 333 10260 20150
56009 58012 87275=
62752 32970 73605 10180 20000 39476 40167 80007 333 10308 20112
56009 58046 87275=
62760 32970 70403 10106 20006 39353 40206 80007 333 10255 20095
56009 58017 87275=
62762 32970 73604 10142 20034 39673 40165 80007 333 10284 20106
56009 58008 87275=
62770 31962 70513 10130 21020 39274 40202 70722 80007 333 10255
20110 56009 58007 87275=
62771 32970 73610 10130 20000 39526 40197 80007 333 10245 20118
56009 58024 87275=
62772 32970 73606 10160 20000 39746 40193 80007 333 10265 20148
56009 58024 87275=
62781 32970 73603 10145 20025 39492 40143 80007 333 10265 20095
56009 58022 87275=
6290 32970 70-514 10140 21015 39458 40207 80007 333 10262 20118
56009 58079 87275=
62795 32970 70410 10185 21030 39655 40168 82037 333 10315 20150
56019 58013 82365 87275=
62805 32970 73605 10177 20006 39603 40149 80007 333 10320 20140
56009 58001 87275=
62809 32970 70407 10262 20004 39663 40190 80007 333 10276 20154
56009 58010 87275=
//END PART 01//=
0000011000
502
UANT99 KDDL 110647
ARP DLH413 5300N01952W 0647 F390 MS56 242/62 KT
DAIHN QXT EUA 110647 J91A
0000011000
503
UANT99 KDDL 110647
ARP VIR20V 5804N04733W 0647 F370 MS57 271/44 KT
GVFAB DDL XXW 110647 F57A
0000011000
504
UANT99 KDDL 110648
ARP DLH465 4656N03013W 0647 F370 MS48 200/50 KT
DABVY QXT AME 110648 F09A
0000011000
505
UANT99 KDDL 110648
ARP AZA65F 4733N04232W 0648 F390 MS56 297/51 KT
EIEJG QXT AOW 110648 J38A
0000011000
506
UANT99 KDDL 110648
ARP UAE206 4529N04303W 0648 F350 MS58 316/66 KT
A6EGP DDL XXW 110648 F34A
0000011000
507
UANT99 KDDL 110648
ARP UAE212 5945N03315W 0648 F330 MS57 228/31 KT
A6ECV DDL XXW 110648 F36A
0000011000
508
UANT99 KDDL 110648
ARP ETH500 5552N01908W 0648 F320 MS59 265/92 KT
ETAPX QXT AOE 110648 F15A
0000010800
509
UANT99 KDDL 110648
ARP SWR9 5502N02833W 0648 F390 MS55 215/59 KT
HBJHB QXT AOE 110648 J31A
0000010000
510
SMAG03 SABM 110600 RRB
AAXX 11064
87648 32960 01614 10138 20087 30130 40142 54000=
0000014000
511
SMAG01 SABM 110600 RRC
AAXX 11064
87328 31780 11805 10193 20118 39454 40077 56009 71300 81900 333 56000 57980 81950 95090=
0000049100
512
SMCN04 KWBC 110600
AAXX 11064
71048 15/// /2911 11056 21079 60001 333 11020 21127 70000 555
32925 40221=
71354 15/// /2308 11099 21118 60001 333 11012 21104 70000=
71692 45/// /2712 11021 21069 30172 40206 57011 6///1 333 11021
21097 7////=
71981 17/// /2103 11075 21105 69951 7//4/ 333 10025 21086 70005
555 32622 40071=
71982 15/// /0102 11044 21088 60001 333 10025 21111 7////=
71986 15/// /1507 11115 21117 60001 333 11035 21129 70000 555
32817 40210=
00000000