0000119300
553
SINR20 DRRN 110900
AAXX 11094
61017 42960 50000 10188 20011 39801 40220 80002
  333 58002 85080=
61024 41932 11027 10203 20026 39625 40200 70700 80002
  333 58008 81080=
61036 41958 71406 10236 20013 39919 40158 70522 80008
  333 58006 87280=
61043 41912 71016 10206 21006 39727 40173 70722 80008
  333 58000 87280=
61045 41907 70806 10190 21015 39683 40187 7064/ 80008
  333 58003 87280=
61049 42960 70804 10200 20220 39862 40186 80008
  333 58004 87280=
61052 41930 50814 10230 21017 39911 40168 70722 80002
  333 58007 85080=
61053 41925 70812 10226 21023 39/// 4//// 7062/ 80008
  333 5//// 87280=
61075 41956 61008 10223 20016 39869 40179 70622 80008
  333 58007 86280=
61080 41908 71006 10195 21018 39762 40190 70642 80008
  333 58008 87280=
61085 41956 50808 10206 20029 39833 40259 70642 80002
  333 59010 85080=
61090 41910 70612 10190 21015 39673 40191 70644 80008
  333 58042 87280=
61091 41920 70810 10194 20028 39740 40204 7062/ 80008
  333 58004 87280=
61096 41945 70608 10204 21004 39802 40189 70522 80008
  333 58000 87280=
61099 41940 70616 10240 20008 39916 40145 70722 80008
  333 58012 87280=
?=
0000019800
554
UAPA01 KWBC 111012
ARP DAL1298 2755N 13851W 1003 F370 MS47 265/040KT=
ARP AWE693 2221N 15153W 1006 F360 MS46 232/080KT TB SMTH=
ARP UAL1452 2957N 14023W 1006 F340 MS43 258/042KT=
0000011000
555
UANT01 CWAO 111012
ARP SVA061 5308N03435W 1011 F360 MS53 224/27 KT
HZAKI QXT AOE 111012 F60A
0000077500
556
SNBX40 EBBR 111000
AAXX 11101
06407 41348 82206 10058 20041 30157 40164 53011 76022 877//
333 82708 86709 91108 91206=
06428 47241 /2204 10053 20048 30127 40170 53012 71010
 333 85/04 87/06 91107 91205=
06447 NIL=
06451 42360 72406 10056 20037 30100 40168 53012 875//
333 84708 86656 91108 91206=
06456 42480 52304 10061 20043 39835 40182 53017 83531
 333 81619 83648 91108 91205=
06476 47365 82301 10036 20024 39516 40187 53016 70065
333 81/07 88/50 91103 91202=
06479 42359 72305 10049 20041 30090 40165 53008 878//
 333 81706 83708 85616 91108 91205=
06490 47582 72404 10049 2//// 39604 4//// 53015 700//
333 82/30 83/45 87/56 91108 91205=
06590 41635 72502 10027 20024 39727 40188 52013 71022 875//
333 87646 91102 91201=
0000073500
557
SNBX41 EBBR 111000
AAXX 11101
06400 41335 72604 10060 20055 30162 40170 53016 76022 875//
 333 81708 83614 87618 91108 91205=
06431 NIL=
06432 45250 /2306 10050 20042 30105 40177 53013
 333 85/04 87/06 91109 91206=
06449 42365 72306 10063 20044 39948 40178 53016 86532
333 85709 84622 91109 91206=
06450 42356 72305 10053 20032 30146 40162 51009 876//
333 87708 91108 91205=
06458 45362 /2306 10061 20048 30030 40169 51011
 333 87/08 91109 91206=
06465 45359 /2102 10055 20044 30102 40167 53008
 333 87/07 91105 91202=
06478 42470 52205 10064 20040 39952 40173 53015 84532
333 82717 84638 91108 91206=
06496 47560 /2403 10035 20027 39500 40180 53010 75254
 333 81/30 87/50 91107 91203=
0000136100
558
FQDN45 EKMI 111010
Marine Forecast valid to Sunday noon, issued at 10.35.



Southern Baltic:
West and southwest, 8 to 13 m/s, locally up to gale, 15 m/s.
Gradually rain from northwest with moderate visibility. This
night up to gale from west and northwest, 10 to 15 m/s, Sunday
morning up to 18 m/s. Improving visibility from northwest,
apart from a few showers.


Western Baltic:
Southwest, 8 to 13 m/s. Rain from northwest with moderate
visibility. This evening west, increasing up to gale, 10 to 15
m/s, this night becoming west and northwest. Improving
visibility from northwest, apart from a few showers.


The Belt and the Sound:
The Belts:
around southwest, 5 to 10 m/s, locally 13 m/s. Rain with
moderate visibility. This evening west, 8 to 13 m/s, this night
west and northwest up to gale, 10 to 15 m/s. Improving
visibility, apart from showers.

The Sound:
west and southwest, 5 to 10 m/s, locally 13 m/s, this evening
becoming west, this night west and northwest, up to gale, 10 to
15 m/s. Rain with moderate visibility, this evening improving
visibility apart from a few showers.


Kattegat:
Around southwest, 8 to 13 m/s, this evening becoming west. This
night gale from west later northwest, 13 to 18 m/s. At first
rain with moderate visibility, later good visibility apart from
a few showers.
0000010000
559
SNNO22 ENMI 111000 RRB
AAXX 11101
01447 46/// /0000 11031 21036 39312 49989 52002=
0000082500
560
SNEO41 EEMH 111000
AAXX 11101
26134 27330 72802 11011 21012 39941 40007 52013 78587 87///
 333  10002 21012 60007 87/07
 555  1/000 21012 3/100 50001 52101=
26144 27/56 /3204 11012 21015 39913 40000 51017 77187
 333  10004 21015 69917 91109
 555  21015 50006 52102=
26214 27139 82204 10008 20001 30001 40008 58001 76787 88///
 333  10027 20006 60017 88/02 91109
 555  1/000 20006 3/000 50027=
26218 27357 82306 10022 20011 30010 40013 58003 76160 88///
 333  10027 20009 60007 88/08 91110
 555  1/002 20009 3/000 50028=
26226 27483 72608 10020 20002 30012 40016 51011 72180 86///
 333  10028 20013 60007 86/14 91010 91111
 555  1/002 20013 3/100 50027=
26227 27378 82307 10017 20001 30019 40021 51008 72380 88///
 333  10030 20014 60007 88/10 91010 91111
 555  1/002 20014 3/000 50029=
0000428800
561
SNCZ64 OKPR 111000
AAXX 11101
11406 21130 82203 11002 21007 39598 40200 55000 71022 886//
  333 60005 88703
  555 397// 50020 60022 70029 80038 90051=
11414 21975 62701 10017 20006 39454 42784 58002 72842 86050
  333 60005 86360
  555 392// 50019 60018 70026 80034=
11423 22884 32403 10006 21001 39294 42786 57003 83051
  333 60005 83358
  555 395// 50016 60020 70026 80035=
11438 22980 69901 10048 20029 39784 40182 55001 86070
  333 60005 83362 85463
  555 388// 50023 60027 70033 80048 90053=
11450 22961 69901 10035 21001 39738 40192 58007 81041
  333 60005 81363 86070
  555 12404 377// 50018 60020 70028 80037=
11457 22984 72405 10010 21022 38875 48472 58004 83058
  333 60005 83359 86268 93701 9512/
  555 379// 50005 60012 70012 80024=
11464 42375 52305 10012 21004 39176 42777 55001 81101
  333 81806 85070
  555 389//=
11487 22986 50000 10027 21006 39562 40195 57006 81048
  333 60005 81362 85272
  555 379// 50017 60019 70021 80031 90044=
11502 22470 69901 10025 21015 39719 40183 55002 81649
  333 60005 81710 85171 9512/
  555 375// 50015 60021 70029 80039 90052=
11509 22982 69901 10054 20007 39987 40184 58001 80001
  333 60005 86071
  555 372// 50021 60024 70030 80041 90055=
11518 22975 42005 10038 20005 39740 40186 58002 81042
  333 60005 81363 84070
  555 379//=
11519 22980 32004 10041 21001 39878 40191 58002 81042
  333 60005 81365
  555 374//=
11520 22980 42003 10046 20004 39817 40189 58003 81041
  333 60005 81363 84073
  555 373// 50017 60024 70031 80044 90052=
11538 22980 61402 10028 20000 39581 40198 58006 80001
  333 60005 86070
  555 382// 51001 60023 70030 80042=
11546 25/74 /1502 10038 20004 39703 40195 57009
  333 60005
  555 378// 50024 60030 70039 80054 90058=
11567 22970 52105 10040 20009 39834 40184 58003 80002
  333 60005 85074
  555 380// 50027=
11603 22468 21104 10035 21001 39691 40180 58001 81501
  333 60005 81613
  555 376// 50028 60035 70040 80050 90057=
11624 22975 32105 10055 20011 39899 40193 57002 80001
  333 60005 83073
  555 373// 50026=
11628 22964 31803 10036 21008 39549 40193 58004 80002
  333 60005 83070
  555 373// 50017 60023 70029 80040 90048=
11636 22973 79901 10020 21010 39511 42799 58004 80002
  333 60005 87071
  555 381// 50005 60020 70029 80042 90048=
11643 22470 71904 10002 21023 39206 42782 52001 85502
  333 60005 85611 85072
  555 13608 384// 50011 60014 70017=
11652 22970 60000 10057 20001 39910 40192 57004 80004
  333 60005 86074
  555 367// 50030=
11653 26/// ///// 11050 21053 3//// 4//// 5////
  333 6///5 91180
  555 398//=
11659 22968 41902 10024 21009 39549 40200 50000 80002
  333 60005 84073
  555 378// 50006 60024 70026 80035 90044=
11669 21258 82105 10001 20000 39297 42785 50000 71022 886//
  333 60005 88704
  555 399// 50014 60028 70029 80039 90051=
11679 22570 72001 10039 21006 39702 40195 55002 875//
  333 60005 87631
  555 372// 50032 60037 70037 80047 90061=
11683 22470 62203 10014 21016 39308 42791 58003 81502
  333 60005 81616 86070
  555 1//04 381// 50019 60017 70025 80036=
11692 22980 62202 10036 20000 39620 40202 58004 80001
  333 60005 86072
  555 378// 50014=
11693 22982 62701 10041 21019 39714 40204 58004 80008
  333 60005 86273
  555 12305 365// 50025 60033 70036 80054 90059=
11698 22980 39901 10032 21036 39791 40207 58004 80002
  333 60005 83072
  555 361// 50029 60033 70046 80056 90065=
11710 22982 42502 10049 21022 39573 40193 50000 80002
  333 60005 84072
  555 360// 50027 60031 70037 80050=
11723 22975 71701 10031 21005 39905 40209 58003 80004
  333 6///5 87072
  555 377// 50020 60024 70039 80052=
11730 21/02 92509 11037 21050 38630 48449 55006 74944
  333 60005 89/01 91014 91117 93616
  555 391//=
11766 22483 12405 10012 21017 39292 42790 58002 81102
  333 60005 81812
  555 381// 50010 60014 70021 80037=
11774 22983 61604 10045 21004 39933 40209 50001 81046
  333 60005 81361 86074
  555 370//=
11782 22780 22307 10052 21004 39889 40198 58004 81531 91011
  333 60005 81650
  555 367//=
11787 22084 32607 11026 21050 38651 48469 52002 82801
  333 60005 81801 83069 91113 93520
  555 384// 50006 60012 70009 80021=
0000014400
562
SNVF51 EGRR 111000
BBXX
62304 11104 99512 10018 46/98 /2927 10081 20049 40167 53026 22200
00102 10501 70004 333 90710 91134=
0000014400
563
SNVF51 EGRR 111000
BBXX
62305 11104 99504 70000 46/// /3117 10088 20044 40191 52038 22200
00109 10502 70009 333 90710 91127=
0000012800
564
SNVF51 EGRR 111000
BBXX
62103 11104 99499 70029 46/99 /3312 10087 20039 40213 52034 22200
00111 10802 70011=
0000012600
565
SNVF51 EGRR 111000
BBXX
62304 11104 99512 10018 46/// /2927 10081 20049 40167 22200 00102 333
90710 91134=
0000011200
566
SNVF51 EGRR 111000
BBXX
64046 11104 99605 70042 46/// /2823 10068 20021 40015 333 90710 91130=
0000011600
567
SNVF51 EGRR 111000
BBXX
62050 11104 99500 70044 46/// /3610 10093 20045 40213 22200 10502
70011=
0000011600
568
SNVF51 EGRR 111000
BBXX
62303 11104 99516 70051 46/// /3313 10079 20018 40207 22200 10603
70017=
0000012800
569
SNVF51 EGRR 111000
BBXX
62095 11104 99529 70156 46/// /1619 10094 20029 40129 58004 22200
00097 11007 70033=
0000014400
570
SNVF51 EGRR 111000
BBXX
62170 11104 99514 10020 46/98 /2727 10085 20051 40163 53022 22200
00104 10501 70006 333 90710 91133=
0000334900
571
SNVZ11 SBBR 111000 RRB
BBXX
SHIP 11101 99/// 1//// 36/// /2300 10196 20176 39332 40209 52///
  333 10197 20183 553// 00318 91102=
SHIP 11101 99/// 1//// 36/// /3603 10279 20214 30118 40129 52///
  333 10280 20252 553// 00834 91106=
SHIP 11101 99/// 1//// 36/// /0800 10239 20175 39265 40149
  333 10239 20219 553// 00679 91103=
SHIP 11101 99/// 1//// 36/// /0302 10204 20171 39137 40160
  333 10204 20188 553// 00326 91103=
SHIP 11101 99/// 1//// 36/// /0405 10258 20214 30120 40157 52///
  333 10258 20241 553// 00840 91109=
SHIP 11101 99/// 1//// 36/// /0300 10234 20176 39278 40086
  333 10234 20213 553// 00444 91104=
SHIP 11101 99/// 1//// 36/// /1000 10213 20180 38973 40077
  333 10213 20168 553// 00687 91101=
SHIP 11101 99/// 1//// 36/// /0701 10208 20177 38771 49852
  333 10208 20156 553// 00781 91104=
SHIP 11101 99/// 1//// 36/// /2100 10229 20190 39492 40138
  333 10229 20199 91101=
SHIP 11101 99/// 1//// 36/// /1600 10238 20215 39635 40135
  333 10239 20215 553// 00531 91103=
SHIP 11101 99/// 1//// 36/// /0702 10249 20203 39483 40175
  333 10249 20224 553// 00900 91105=
SHIP 11101 99/// 1//// 36/// /2302 10208 20189 39313 40146
  333 10208 20203 553// 00224 91104=
SHIP 11101 99/// 1//// 36/// /0503 10248 20212 39912 40151
  333 10249 20230 553// 00525 91105=
SHIP 11101 99/// 1//// 36/// /0701 10252 20217 39891 40156
  333 10253 20227 553// 00728 91103=
SHIP 11101 99/// 1//// 36/// /0700 10207 20180 39634 40130
  333 10207 20199 553// 00147 91100=
SHIP 11101 99/// 1//// 36/// /1001 10225 20186 39343 40156
  333 10225 20197 553// 00660 91102=
SHIP 11101 99/// 1//// 36/// /0604 10178 20160 38689 49772
  333 10179 20175 553// 00152 91107=
SHIP 11101 99/// 1//// 36/// /0103 10231 20182 39618 40138
  333 10231 20205 553// 00368 91105=
SHIP 11101 99/// 1//// 36/// /2400 10246 20218 39935 40120
  333 10246 20236 553// 00251 91102=
SHIP 11101 99/// 1//// 36/// /1404 10248 20189 39751 40141
  333 10249 20239 553// 00704 91107=
SHIP 11101 99/// 1//// 36/// /0200 10250 20223 30016 40090
  333 10250 20236 553// 00325 91101=
SHIP 11101 99/// 1//// 36/// /2900 10226 20218 39954 40125
  333 10226 20222 553// 00085 91100=
SHIP 11101 99/// 1//// 36/// /3500 10238 20211 39944 40120
  333 10238 20230 553// 00244 91101=
SHIP 11101 99/// 1//// 36/// /3203 10239 20185 39388 40134
  333 10239 20232 553// 00265 91107=
SHIP 11101 99/// 1//// 16/// /1402 10221 20207 39652 40155 6992/
  333 10234 20221 553// 00072 91104=
SHIP 11101 99/// 1//// 36/// /3300 10169 20128 38623 49701
  333 10174 20149 553// 00359 91103=
SHIP 11101 99/// 1//// 36/// /1101 10211 20179 39534 40155
  333 10211 20184 553// 00493 91102=
SHIP 11101 99/// 1//// 36/// /0300 10252 20209 39732 40113
  333 10252 20236 553// 00275 91100=
SHIP 11101 99/// 1//// 36/// /1201 10213 20203 39862 40137
  333 10213 20210 553// 00102 91101=
SHIP 11101 99/// 1//// 36/// /1303 10263 20228 30142 40170
  333 10263 20256 91105=
SHIP 11101 99/// 1//// 36/// /0702 10226 20207 39895 40138 54///
  333 10227 20226 553// 00007 91104=
SHIP 11101 99/// 1//// 36/// /2301 10221 20213 39995 40118
  333 10221 20218 553// 00030 91102=
SHIP 11101 99/// 1//// 36/// /2101 10264 20213 30052 40126
  333 10266 20231 553// 00967 91102=
0000020900
572
SNVD01 KWBC 110500 RRJ
BBXX
44041 11051 99372 70768 46/// /2201 10067 90510 333 91202 555
 11013 22014=
44062 11051 99386 70764 46/// /0801 10029 40204 90510 333 91201
 555 11007 22008=
00000000