0000049800
366
SNDL49 EDZW 110700 RRA
AAXX 11071
10771 41110 81102 11019 21020 39689 40211 55002 71022 886//
  333 88702=
10837 41/01 99901 11010 21012 39527 40202 55005 74944
  333 89/00=
10853 41/03 90701 11021 21024 39723 40206 57008 74344
  333 89/00=
10856 46/59 /9901 11026 21030 39514 40207 5/007=
10857 42989 71602 10003 21003 39439 40199 57009 8707/
  333 83359 87468=
10860 46/59 /0602 11031 21032 39750 40208 5/007=
10954 46/// /2701 11001 21002 39289 48462 5/006=
0000011100
367
UANT01 CWAO 110704
ARP UAL938 4850N05146W 0704 F350 MS64 299/47 KT
N651UA DDL YYT 110704 F98A
0000011000
368
UANT01 CWAO 110704
ARP KLM644 4927N04810W 0704 F350 MS65 307/50 KT
PHBFY QXS YYT 110704 F75A
0000010900
369
UANT01 CWAO 110704
ARP LOT46 5812N04307W 0704 F390 MS59 264/32 KT
SPLRD QXS UAK 110704 L24A
0000010500
370
UAJP71 RJFF 110704
PIREP
FDA307 OVER OKC AT 0703 F370 SMTH OTP 270/150KT MS45KT BY E170
0000015700
371
SSVX13 LFPW 110700
ZZYY 62508 11014 0700/ 745921 006070 6113/ 11119 40194 52014 22219
 00130 444 20130 11014 0655/ 50101 80104 80031 9/015=
0000015700
372
SSVX13 LFPW 110700
ZZYY 62507 11014 0700/ 747358 011757 6113/ 11119 40171 57011 22219
 00119 444 20130 11014 0656/ 50101 80104 80031 9/015=
0000012800
373
SSVX13 LFVW 110705
ZZYY 16551 11014 0700/ 321946 060417 6113/
11119 40176 57009
444 50101 80074 80000 9/015=
0000018400
374
SSVX13 LFPW 110700
ZZYY 41800 11014 0700/ 725892 035872 6110/ 11119 40184 57011 22219
 00230 33300 88872 20000 43748 444 20100 11014 0700/ 50101 80148
 80069 9/015=
0000018400
375
SSVX13 LFPW 110700
ZZYY 62503 11014 0700/ 745981 002461 6113/ 11119 40182 52016 22219
 00134 33300 88872 20000 43543 444 20130 11014 0600/ 50101 80100
 80000 9/015=
0000016900
376
SSVX13 LFPW 110700
ZZYY 41737 11014 0700/ 725761 037010 6113/ 11119 40188 57007 33300
 88872 20000 43753 444 20130 11014 0600/ 50101 80148 80065 9/015=
0000030300
377
SNQB50 LQSM 110700
AAXX 11071
14543 NIL=
14549 46/// /1802 10027 2//// 39822 40247 70000=
14554 41850 31403 10054 20045 39945 40227 71044 82041 333 82357=
14650 41408 61601 10036 20030 39130 48553 74444 86800 333 83817 85619
=
14657 46/// /1101 10098 21017 30219 40219 52012=
0000036200
378
SNQB45 LQSM 110700
AAXX 11071
14528 42770 33401 10068 20051 39923 40224 82130 333 82850=
14537 41602 30000 10020 20018 30034 40232 74644 82401 333 82643=
14544 42670 70000 10012 21006 39572 40259 87500 333 87643=
14557 41958 10202 10038 20031 39869 40245 710// 81030 333 81360=
14640 41/01 91801 10040 20033 39399 48541 74544 333 89///=
0000031500
379
SNQB40 LQSM 110700
AAXX 11071
14654 42770 71002 10061 20029 39483 40235 87500 333 87650=
14648 42665 82701 10083 20073 30117 40238 8257/ 333 82646 88461=
14652 42082 42313 11014 21028 37953 48519 83501 333 83601=
14542 41620 30000 10032 20023 30038 40233 52005 71021 82501 333 82640
95990=
0000011000
380
UANT99 KDDL 110704
ARP BAW116 5201N01535W 0704 F390 MS53 247/51 KT
GVIIH QXT AOW 110704 F23A
0000042900
381
SNAU06 AMMC 110700
AAXX 11074
94850 454// 82417 10164 20133 30150 40195 58005=
94951 45/// /0416 10181 20138 30102 40117 58012=
94954 45/// /2422 10154 20129 30072 40182 58005=
94956 454// 83010 10169 20126 30151 40177 58004=
94975 41781 21606 10252 20063 30080 40112 58013 70511 81101=
94983 45/// /3616 10178 20143 30104 40128 58014=
94998 41570 72831 10062 20030 39852 49862 51008 72582 86809=

0000046700
382
SZPA01 AMMC 110706
CREX++
T000103 A001 D01021 D06025++
0136250 17293000 67590 2014 01 11 06 59 3017 11 07 00 01
01437 0071 01424 0061 01434 0073 01423 0065 01434 0078 01422 0069+
0710610 17137250 67680 2014 01 11 06 59 3013 11 07 00 01
00877 0103 00873 0101 00868 0097 00865 0096 00861 0093 00858 0092+
0698060 15820000 67950 2014 01 11 06 59 3023 11 07 00 01
00679 0021 00683 0027 00681 0027 00684 0031 00682 0031 00680 0031++
7777

0000179400
383
SZPS01 AMMC 110706
CREX++
T000103 A001 D01021 D06025++
-0204190 14737360 56130 2014 01 11 06 59 3027 11 07 00 01
01024 0078 01021 0077 01019 0077 01019 0079 01017 0079 01015 0079+
-0669280 15640860 56363 2014 01 11 06 59 //// 11 07 00 01
00582 -0080 00584 -0076 00584 -0074 00586 -0069 00592 -0061 00588 -0063+
-0942890 15995560 56670 2014 01 11 06 59 3043 11 07 00 01
00779 -0036 00781 -0033 00781 -0031 00778 -0033 00777 -0033 00777 -0032+
-1072080 16580190 57131 2014 01 11 06 59 //// 11 07 00 01
03379 2846 03381 2851 03381 2854 03381 2857 03381 2860 03381 2864+
-1551560 16718860 57210 2014 01 11 06 59 //// 11 07 00 01
00716 -0080 00705 -0087 00714 -0074 00709 -0076 00704 -0077 00701 -0076+
-1775690 16830030 57320 2014 01 11 06 59 3015 11 07 00 01
00818 -0075 00815 -0074 00811 -0075 00807 -0076 00804 -0075 00802 -0074+
-4397330 16861610 65180 2014 01 11 06 59 2888 11 07 00 01
02334 0374 02315 0353 02316 0351 02331 0364 02332 0362 02333 0360+
-2120470 -15978530 65980 2014 01 11 06 59 3013 11 07 00 01
00554 -0031 00599 0015 00580 -0002 00596 0016 00566 -0013 00562 -0015+
-2113810 -17518140 66600 2014 01 11 06 59 //// 11 07 00 01
00968 0087 00969 0091 00961 0087 00962 0093 00955 0089 00958 0097+
-1382670 -17176110 66840 2014 01 11 06 59 3010 11 07 00 01
00579 0021 00581 0025 00578 0025 00577 0026 00577 0029 00574 0028+
-1813250 17842750 67050 2014 01 11 06 59 3032 11 07 00 01
01149 0109 01149 0113 01147 0116 01141 0114 01131 0108 01129 0111+
-1760530 17743810 67070 2014 01 11 06 59 3033 11 07 00 01
01125 0004 01119 0003 01112 0000 01108 0002 01104 0003 ///// ////+
-0850250 17919500 67440 2014 01 11 06 59 3030 11 07 00 01
01734 -0006 01736 -0001 01742 0008 01729 -0001 01731 0004 01724 0000++
7777

0000034100
384
SZIO01 AMMC 110706
CREX++
T000103 A001 D01021 D06025++
-1211670 09689190 46280 2014 01 11 06 59 3020 11 07 00 01
01287 0044 01282 0039 01281 0037 01287 0042 01286 0041 01281 0035+
-1042940 10566940 46290 2014 01 11 06 59 //// 11 07 00 01
01308 0012 01365 0067 01314 0014 01352 0050 01330 0026 01327 0021++
7777

0000032800
385
SNVD22 KWNB 110700 RRJ
BBXX
46213 11071 99403 71247 46/// ///// 1//// 90654 22200 00118 11508
21004 330// 41507 70040=
46231 11071 99327 71174 46/// ///// 1//// 90644 22200 00154 11302
20802 328// 41302 70012=
46224 11071 99332 71175 46/// ///// 1//// 90642 22200 00154 11301
20701 324// 41301 70006=
00000000