0000048900
793
SMNV01 NVVV 110600
AAXX 11063

91551 11498 70000 10296 20277 40050 56008 60011 70288 878//

333  563// 60011 84818 87640=

91553 NIL=

91554 31598 40815 10300 20248 40055 56008 70222 84900

333  563// 84820 81925=

91555 11598 61310 10282 20245 40064 56005 60011 72522 86900

333  563// 60011 84820 81925 86645=

91557 31598 60811 10283 20217 40075 56009 70222 86800

333  563// 86825=

91565 31598 41303 10280 20205 40082 56003 70222 84200

333  563// 84825=

91568 NIL=


0000040900
794
SMVS01 VNNN 110600
AAXX 11061
48918 32470 70905 10264 20216 30124 40135 57021 85208 222// 00253 2//03 333 58006 82894 83895 87299=
48894 32598 79903 10316 20192 30118 40122 57030 83848 333 58003 81895 83399 87299=
48914 32598 70703 10311 20186 30122 40124 57025 81208 333 58004 81895 87299=
48917 32598 73604 10294 20201 30123 40129 57019 82208 222// 00294 2//00 333 58005 82895 87299=
0000133500
795
SMLA01 VLIV 110600
AAXX 11061
48921 31456 40901 10175 20140 38649 48151 57020 71044 84200
 333 58017=
48924 31558 33602 10205 20181 39530 40160 57026 71044 83100
 333 58012=
48925 32459 30401 10243 20159 39416 40138 57034 83200
 333 58004=
48926 31557 20000 10262 20181 39700 40167 57024 70544 82100
 333 58008=
48927 31450 70403 10160 20131 39185 48653 57019 71044 878//
 333 58007=
48928 31458 83201 10159 20126 39104 48574 57015 71044 888//
 333 58011=
48930 32460 23601 10230 20170 39824 40175 57029 82100
 333 58007=
48935 32468 23201 10212 20111 39038 48538 57026 82200
 333 58009=
48938 31559 12201 10236 20147 39840 40176 57018 70544 81100
 333 58016= 
48940 31457 32202 10274 20169 39961 40156 57029 70544 83200
 333 59001=
48941 NIL=
48944 31460 13603 10235 20153 39532 40115 57003 70544 81500
 333 58000=
48945 NIL=
48946 31557 30402 10288 20245 39984 40148 57026 70544 82200
 333 59005=
48947 32459 30904 10290 20179 30004 40168 57006 83230
 333 58003=
48948 NIL=
48952 31558 10902 10296 20195 39943 40132 57019 70544 81100
 333 58002=
48953 32560 22703 10310 20189 39949 40110 57027 82140
 333 58000=
48955 32560 12202 10305 20179 30021 40136 57029 81100
 333 58002=
48957 32565 23601 10320 20208 30003 40109 57050 82101
 333 59011=
0000009400
796
UPCD01 FTTJ 110600
PPAA 61051 64700 55185 07018 77999=
PPAA 61051 64750 NIL=
0000011000
797
UANT01 CWAO 110611
ARP AFR689 4606N04504W 0611 F370 MS59 325/58 KT
FGSPT QXT AOW 110611 F11A
0000098500
798
SMIN90 VEGT 110600
AAXX 11064
42410 31995 40204 10222 20172 40185 70542 84030
  333 58013 84360=
42516 32396 53203 10144 20038 38432 48528 83430
  333 58008=
42220 32596 63204 10212 20106 40172 81131
  333 58007 81830 85360=
42512 31596 33203 10196 20091 48539 70540 82530
  333 59001 82620 83360=
42619 31996 00502 10200 20160 40157 70500
  333 59001=
42415 32996 23602 10216 20112 40191 82030
  333 58004 82360=
42404 31496 70000 10168 20132 40176 70521 83430
  333 59001 83618 86360=
42623 31996 01802 10214 20097 39285 40149 70500
  333 58004=
42423 31595 10502 10214 20138 40159 70500 81500
  333 58003 82620=
42515 32596 40000 10192 20035 38732 48544 81530
  333 58017=
42309 31596 11102 10218 20159 40164 70500 81400
  333 58002=
42314 31996 33605 10224 20109 40173 70500 82031
  333 58005 82360=
42724 31995 03602 10240 20130 40164 70544
  333 59009=
42618 31996 03204 10224 20150 40169 70540
  333 59008=
0000012800
799
SMIN90 VOMM 110600
AAXX 11064
43185 31596 51404 10280 20201 30156 40159 70522 82531
  333 58006 82620 84360=
0000372700
800
SMCN04 KWBC 110600 RRG
AAXX 11064
71899 11466 81121 10032 20026 3//// 4//// 57072 60021 76162 887XX
333 10056 20028 70036 90942 555 31131 40051=
71911 459// 02010 11329 39937 49996 53008 6///1 333 11324 21371
7//// 555 33022 40090=
71917 13974 80304 11202 21251 39874 49888 53001 60001 8807/ 333
11160 21308 79999 555 19999 29999=
71925 11466 31908 11276 21318 39897 49940 56015 69901 70271 83500
333 11272 21338 42014 79999 90923 555 19999 29999=
71928 15/// /1204 11134 21151 38883 40066 58017 60001 333 11028
21174 70000=
71112 17/// ///// 60171 7//4/ 333 70178=
71115 15/// /0908 10011 20005 39473 40052 57049 60001 333 10016
21022 70024=
71118 15/// /2510 11074 21105 39229 40068 51008 60001 333 11034
21145 70000 555 32918 4001/=
71133 15/// /2710 11068 21086 39315 40023 51016 60001 333 11015
21091 70000 555 32720 4002/=
71136 15/// /3012 11084 21094 39519 40036 51019 60001 333 11069
21181 70000 555 33117 4006/=
71139 15/// /3403 11061 21078 38618 40080 51015 60001 333 11001
21062 70000 555 32924 4010/=
71147 15/// /3008 11074 21089 60001 333 11016 21142 70007=
71149 15/// /1803 11132 21146 60001 333 11084 21168 70000=
71250 15/// /2815 11045 21088 30053 40192 55005 60001 333 11044
21120 70000 555 33034 4009/=
71265 17748 80709 10026 20019 30004 40098 58053 69981 761// 333
10028 21050 70028=
71271 15/// ///// 11061 21098 60001 333 11017 21075 70000=
71350 15/// /2204 11059 21065 30173 40240 55003 60001 333 11034
21187 70000 555 32118 4018/=
71352 17/// /1108 10019 20015 39626 40080 58053 60051 7//4/ 333
10023 21084 70060=
71355 15/// /3002 11109 21179 39859 49944 51022 60001 333 11053
21323 70002 555 32239 4002/=
71356 15/// /1307 11303 21336 39991 40061 55003 60001 333 11284
21344 70000 555 33225 4012/=
71361 15/// /2803 11275 21307 39833 40050 53004 60001 333 11198
21283 70018=
71364 15/// /2907 11263 21291 39929 40068 58004 60001 333 11224
21271 70000 555 32921 4012/=
71368 17120 81007 10017 20016 39693 40082 58054 60061 7614/ 333
10018 21083 70065=
71511 45/// /2509 11091 21097 39401 40047 53017 6///1 333 11052
21143 7////=
71512 15/// /2705 11069 21089 30168 40182 55000 60001 333 11069
21172 70000=
71519 15/// /1304 11106 21113 60001 333 10041 21118 70000 555
32619 40080=
71525 15/// /2307 11108 21114 60001 333 10027 21117 70000 555
32624 40091=
71552 45/// /3009 11074 21085 6///1 333 11045 21092 7////=
71559 15/// /2604 11071 21082 39351 40057 53016 60001 333 11026
21073 70000 555 32818 4019/=
71569 15/// /2711 11085 21094 39335 40043 52017 60001 333 11064
21147 70004 555 32917 4019/=
71577 45/// ///// 11076 21093 6///1 333 11048 21146 7////=
71634 15/// /0000 11156 21173 30074 40233 50001 60001 333 11022
21242 70005=
71742 15/// /2414 11065 21096 39984 40174 55009 60001 333 11055
21159 70000 555 32829 4008/=
71747 15/// /2102 11045 21052 39505 49980 58015 60001 333 11044
21091 70000=
71752 17/// /1604 10045 20035 39872 40089 56051 69931 7//4/ 333
10051 21066 70016=
71753 15/// /2404 10004 21007 30224 40254 56008 60001 333 10007
21206 70002 555 32117 4018/=
71766 17/// /1314 10064 20057 39892 49962 57075 60131 7//4/ 333
10075 20035 70146 555 31324 4006/=
71767 17/// /1411 10028 20027 39784 40044 58063 60051 7//4/ 333
10029 21035 70055 555 31517 4006/=
71768 15/// /2402 10012 21002 39513 40059 58044 60001 333 10034
21012 70000=
71779 17/// /1312 11011 21018 39309 49965 58081 60021 7//4/ 333
10004 21082 70041 555 31519 4006/=
71786 15/// /2613 11067 21073 38244 40062 58020 60001 333 11045
21073 70000 555 32524 4000/=
71840 15/// /3011 11066 21082 60001 333 11011 21102 70005 555
33117 4002/=
0000373300
801
SMCN04 KWBC 110600 RRI
AAXX 11064
71924 11758 82108 11316 21347 39799 49891 52021 69941 77177 885//
333 11275 21318 48004 70004 90983 555 10004 20004 33328 40092=
71934 11774 13103 11242 21268 39780 40048 51012 69901 70271 81500
333 11176 21242 47025 70004 90943 555 10016 20004=
71946 11974 83206 11237 21253 39840 40064 55006 69901 70372 8801/
333 11182 21261 48053 70002 90922 555 10004 20002=
71062 15/// /1806 11059 21082 38957 40042 58017 60001 333 10007
21095 70000=
71097 45/// /2905 11204 39502 49985 53022 6///1 333 11172 21220
7////=
71098 17/// /1506 10009 20008 39557 40082 58046 60201 7//4/ 333
10011 21093 70336=
71099 17566 80707 11141 21158 30020 40041 58006 60001 771// 333
11116 21197 70000=
71152 15/// /2819 11025 21047 30203 40216 55010 60001 333 11025
21098 70000 555 32840 4003/=
71157 45/// ///// 11075 21086 6///1 333 11001 21126 7////=
71159 15/// /2709 11032 21074 30133 40207 55005 60001 333 11030
21088 70000 555 32823 4009/=
71163 45/// /3002 11256 21280 39687 40043 58001 6///1 333 11233
21284 7////=
71167 15966 63501 11106 21114 38931 40033 58023 60001 333 10006
21128 70000 555 33026 40221=
71168 15/// /2807 11059 21065 39442 40032 51003 60001 333 11003
21072 70000 555 31825 4007/=
71170 15/// /2713 11081 21094 60001 333 11070 21184 70000=
71171 17/// /0000 10015 20004 39988 40085 56049 69941 7//4/ 333
10039 21067 70014=
71176 45/// /2526 11222 39301 40002 53029 6///1 333 11194 21225
7//// 555 32357 40093=
71178 15/// /2525 11047 21085 30143 40176 55009 60001 333 11047
21121 70000 555 33045 4010/=
71179 45/// /2909 11141 39192 40039 50009 6///1 333 11140 21250
7//// 555 32544 40031=
71183 15/// /0107 11059 21079 30152 40193 56036 60001 333 11040
21133 70000=
71184 45/// /0406 11076 21089 6///1 333 11076 21183 7////=
71187 17148 81103 10045 20045 39985 40032 58056 60061 76144 333
10091 20024 70223 555 32838 40131=
71192 17448 81513 11006 21017 39310 49966 58082 60021 7714/ 333
10004 21073 70053 555 31422 4006/=
71199 15/// /1402 11086 21091 39095 49929 58023 60001 333 11062
21146 70000=
71357 17/// /2301 11212 21232 39950 49957 52020 69931 7//4/ 333
11173 21265 70010=
71365 17/// /3307 11241 21265 39838 40061 56007 69921 7//4/ 333
11187 21274 70006=
71369 15966 01203 11137 21139 39317 40036 58006 60001 333 11076
21172 70000=
71618 15966 03306 11278 21308 30029 40069 58003 60001 333 11193
21284 70000 555 33324 40081=
71638 17/// /1114 10063 20039 39884 49988 58069 60131 7//4/ 333
10071 20026 70133 555 31228 4004/=
71751 45/// /1904 11015 21022 39716 49973 58031 6///1 333 11012
21049 7//// 555 32120 4020/=
71754 17/// /3107 11084 21099 39388 40061 53014 60011 7//4/ 333
11072 21156 70018=
71756 17/// /0102 11008 21009 38907 49985 58055 60071 7//4/ 333
10009 21015 70070=
71769 17/// /1135 10066 20057 39953 49969 56071 60141 7//4/ 333
10078 20061 70148 555 31145 4005/=
71770 17/// /2202 10023 20014 39344 40114 58016 69921 7//4/ 333
10068 21010 70028 555 32020 4022/=
71772 17/// /1232 10070 20058 39971 49977 56070 60121 7//4/ 333
10077 20061 70124 555 31241 4006/=
71775 17/// /0311 10043 20030 30008 40014 58067 60141 7//4/ 333
10076 20030 70162 555 30317 4006/=
71868 15/// /2204 11101 21114 39558 40003 51012 60001 333 11051
21141 70002=
71887 13483 81014 10013 21009 39614 40034 57058 60001 8157/ 333
10015 21030 79999 555 19999 29999 30921 40060=
71949 15/// /1701 11172 21191 39071 49949 56012 60001 333 11071
21177 70000=
71964 43374 83503 11132 21152 39077 49938 55013 6///1 333 11102
21172=
71111 17448 80823 10032 20020 39794 49802 56072 60171 76144 333
10059 20011 70183 555 31043 40043=
0000373800
802
SMCN04 KWBC 110600 RRJ
AAXX 11064
71121 15964 02306 11070 21119 39218 40046 58006 60001 333 11007
21103 70000=
71127 15/// /2207 11056 21093 39130 40046 58007 60001 333 10002
21068 70000 555 32922 4023/=
71144 45/// /3206 11096 21111 6///1 333 11062 21129 7////=
71251 15/// /0504 11096 21117 39169 40104 51001 60001 333 10033
21111 70000 555 32426 40070=
71252 15/// /0000 11107 21134 38482 40076 58033 60001 333 10002
21128 70000 555 33517 4021/=
71255 17/// ///// 11153 21177 69921 7//4/ 333 11114 21169 70014=
71268 17/// /1303 11041 21046 39301 49918 58062 60011 7//4/ 333
11025 21078 70010=
71284 15/// ///// 11098 21117 60001 333 11006 21115 70006=
71291 17/// /1502 11019 21025 39696 49984 58032 69921 7//4/ 333
11017 21056 70002 555 31823 4019/=
71292 15966 12411 11079 21094 39407 40021 50003 60001 333 11054
21147 70000 555 32917 4002/=
71296 17/// /1307 10015 20012 39781 40088 58050 60011 7//4/ 333
10017 21102 70026=
71384 15/// /2603 11040 21063 30213 40221 58018 60001 333 11040
21142 70000=
71392 15/// /0000 11063 21076 60001 333 11062 21218 70000=
71516 15/// /2913 11069 21098 39157 40064 51029 60001 333 11012
21071 70000 555 32625 4010/=
71526 15/// /2009 11088 21093 60001 333 11027 21096 70000=
71575 15/// /2911 11236 21268 39950 40017 53023 60001 333 11160
21238 70000 555 33025 4021/=
71576 15/// /2003 11240 21267 39844 49930 53015 60001 333 11194
21268 70008=
71581 15/// /1601 10001 21002 39624 40109 58047 60001 333 10002
70000=
71582 17558 81308 10043 20039 39792 49844 56071 60121 76244 333
10050 20007 70153 555 33127 4007/=
71590 15/// /3301 11172 21194 30033 40232 58004 60001 333 11061
21264 70000=
71681 45/// /0901 11014 21022 6///1 333 11000 21058 7////=
71688 17/// /0000 11004 21006 38968 49989 58054 60151 7//44 333
10014 21017 70198=
71691 15466 33301 11093 21120 30171 40199 58004 60001 333 11062
21176 70000 555 32521 40211=
71697 17764 80807 10027 20014 39929 40101 58056 60001 761// 333
10028 21085 70013=
71734 15/// /1509 11034 21034 39701 40096 58037 60001 333 11029
21110 70000 555 32120 40070=
71744 15/// /2307 11088 21140 30188 40230 56008 60001 333 11044
21180 70000 555 32221 4018/=
71773 15/// /3303 11113 21120 39073 49930 56012 60001 333 11087
21148 70000=
71776 17/// /2102 10012 20007 39459 40100 58024 60021 7//4/ 333
10034 21001 70037=
71777 17/// ///// 10001 20000 39757 40005 58059 60081 7//4/ 333
10020 20001 70084=
71780 17/// /0603 10082 20071 39952 49979 56071 60241 7//4/ 333
10086 20063 70272 555 32738 4014/=
71782 15/// /1706 10013 21031 38767 40085 58011 60001 333 10031
21030 70000 555 31925 4020/=
71785 17/// /0504 10060 20047 30003 40019 58065 60121 7//4/ 333
10094 20059 70136=
71819 15566 32807 11093 21128 30097 40139 53016 60001 333 11089
21207 70000 555 32434 40202=
71833 45/// /1004 10013 20013 6///1 333 10022 21086 7////=
71878 11974 01904 11094 21101 38990 40078 58009 69901 70171 333
11013 21168 47061 79999 90951 555 19999 29999=
71886 15/// /2410 11079 21095 39410 40024 50005 60001 333 11053
21148 70000=
71945 13874 63102 11178 21205 39540 40023 56013 60001 86040 333
11148 21184 79999 555 10010 20010=
71116 15/// /3508 11054 21082 38992 40097 50009 60001 333 10008
21078 70000 555 32723 4007/=
71132 17666 80805 11242 21278 39707 40034 55008 60001 771// 333
11215 21273 70000=
71231 15/// /1507 11101 21122 60001 333 10043 21104 70000 555
32825 40071=
71370 45/// /0403 11088 21105 30066 40207 58028 6///1 333 11088
21220 7////=
71371 17559 80206 11060 21077 30162 40197 57036 60001 710// 333
11028 21165 70000=
71373 15/// /1405 10007 21022 60001 333 10007 21160 70011=
0000372500
803
SMCN04 KWBC 110600 RRK
AAXX 11064
71375 45/// /2819 11043 21085 6///1 333 11042 21126 7//// 555
32931 4007/=
71377 15/// /0305 11065 21082 30139 40189 56038 60001 333 11057
21184 70000=
71378 15/// /1903 11072 21081 39989 40204 58025 60001 333 11071
21285 70000=
71379 15/// /1713 11054 21077 39989 40163 58016 60001 333 11051
21296 70010 555 31917 4005/=
71395 11162 82209 10004 21002 30081 40264 57007 69901 77182 887//
333 10004 21143 43004 79999 90966 555 19999 29999 32422 40181=
71398 15666 81810 11008 21034 30039 40050 58021 60001 333 11004
21061 70000 555 32227 40111=
71543 15/// /0104 11118 21141 60001 333 11025 21150 70000 555
32520 40001=
71554 15/// /1809 11059 21086 30204 40210 58004 60001 333 11058
21144 70000 555 32020 40150=
71578 15/// /3402 60001 333 70000=
71586 17/// /3009 11089 21104 39541 40008 51021 69931 7//4/ 333
11052 21089 70020=
71668 15/// /3403 11116 21123 30208 40253 56006 60001 333 11019
21238 70004=
71679 17/// /0705 11031 21038 38903 49902 58079 60051 7//4/ 333
10006 21058 70057 555 32419 4018/=
71687 17/// ///// 10001 20001 39222 49994 58056 60071 7//4/ 333
10024 20001 70075=
71781 45/// /1145 10066 20054 39909 49933 56090 6///1 333 10081
20062 7//// 555 31153 4006/=
71787 15/// /2609 11058 21065 39747 40247 58004 60001 333 11025
21162 70000 555 32328 4018/=
71832 15/// /1706 11021 21029 39692 40016 58030 60001 333 10003
21066 70000 555 32123 4011/=
71851 15/// /2806 11077 21089 39672 40011 53017 60001 333 11064
21167 70000=
71867 11374 82102 11080 21087 39656 49993 52004 69901 77122 887//
333 11080 21099 47031 70006 90942 555 10008 20006=
71883 45/// /0000 11026 21029 39243 40064 58036 6///1 333 10021
21046 7//// 555 32417 4020/=
71892 11448 80815 10057 20047 30003 40009 57066 60181 76366 8572/
333 10079 20031 70188 90973 555 10000 20000 30825 40061=
71914 17/// /0205 10064 20057 39762 49979 56067 60081 7//4/ 333
10076 20056 70096 555 30723 4006/=
71918 45/// ///// 11345 39558 49998 53005 6///1 333 11317 21356
7////=
71927 17/// /1901 10066 20065 39933 49990 56075 60021 7//4/ 333
10105 20050 70076 555 32519 4010/=
71936 11074 03005 11302 21332 39767 40040 52007 69901 70277 333
11224 21302 48032 70032 90961 555 10046 20032=
71940 13982 61004 11076 21105 39196 40004 58028 60001 86070 333
11009 21117 70000 555 10000 20000 32626 40001=
71941 17116 81510 11039 21040 39699 40121 58034 60001 710// 333
11039 21106 70000=
71947 17258 81809 11036 21044 39750 40100 58030 60001 710// 333
11034 21094 70000 555 31925 4014/=
71966 15/// /0000 11282 21315 39542 40021 56011 60001 333 11180
21283 70000=
71968 47/19 03021 11252 30013 40080 55002 6///1 771// 333 11222
21252 7//// 555 33042 40102=
71059 45/// ///// 11313 39873 49967 56001 6///1 333 11236 21313
7////=
71254 15/// /2206 11069 21083 60001 333 11008 21179 70000=
71263 11416 80507 10011 20005 39799 40089 58049 69961 78022 885//
333 10025 21077 43008 70028 90920 555 10022 20022=
71264 15/// /2308 10019 20010 30240 40272 56009 60001 333 10019
21122 70000 555 32219 4019/=
71270 15/// /1514 10021 20012 39851 40071 56058 60001 333 10021
21083 70000 555 31521 4006/=
71272 15966 00202 11299 21336 39716 40090 53030 60001 333 11181
21312 70000=
71279 15/// /3103 11092 21119 30124 40192 53007 60001 333 11090
21197 70000=
71288 17/// /2008 11272 21300 39907 49933 56014 69951 7//4/ 333
11271 21334 70005=
71358 15/// /3202 11292 21326 39883 49919 53016 60001 333 11226
21312 70000=
71372 15/// /1610 10002 21026 60001 333 10002 21177 70000 555
31817 40150=
71388 45/// /1103 11081 21109 30008 40202 57009 6///1 333 11079
21313 7////=
0000373800
804
SMCN04 KWBC 110600 RRL
AAXX 11064
71670 15/// ///// 11082 60001 333 70000=
71750 15/// /1603 11001 21008 39760 49992 58038 60001 333 10009
21034 70000 555 32023 4010/=
71758 15/// /2214 11011 21029 30169 40248 55010 60001 333 11011
21118 70000 555 32525 4017/=
71765 15/// /2206 10038 20022 39730 40001 58064 60001 333 10077
20010 70000 555 32334 4010/=
71774 17/// ///// 10047 20041 39551 49983 56062 60211 7//4/ 333
10065 20041 70220=
71783 17/// /1605 10074 20064 39917 49989 56066 60111 7//4/ 333
10085 20068 70120 555 32326 4007/=
71920 15/// /2213 10031 20024 30270 40276 58013 60001 333 10031
21076 70002 555 32323 4022/=
71056 15/// /3006 11178 21199 39749 40056 51009 60001 333 11159
21196 70009=
71061 15/// /2203 11112 21131 39248 40043 58006 60001 333 10005
21144 70000=
71064 45/// /2511 11301 39717 49940 56008 6///1 333 11293 21319
7//// 555 32922 40121=
71072 17424 83301 11035 21038 39740 49986 58029 60001 771// 333
11028 21063 70000=
71096 45/// /2202 11222 39197 49938 53019 6///1 333 11191 21231
7//// 555 33321 40081=
71153 15/// /2205 10014 21053 60001 333 10049 21045 70000 555
32729 40131=
71154 15/// /2313 10020 21051 60001 333 10036 21024 70000 555
32242 40102=
71172 17/// ///// 10019 20013 39848 40065 58055 69991 7//4/ 333
10019 21108 70009=
71180 15/// /2618 11021 21058 30193 40233 55009 60001 333 11017
21075 70000 555 32733 4007/=
71189 45/// /0000 11102 6///1 333 11095 21259 7////=
71191 15/// ///// 11042 60001 333 70000=
71198 45/// /0307 11078 21097 6///1 333 11078 21183 7////=
71299 15/// /1409 11020 21033 39762 40033 58037 60001 333 11018
21079 70000 555 31925 4018/=
71382 15/// ///// 11086 21091 39238 40200 58014 60001 333 11084
21212 70018=
71666 15/// /2310 11067 21085 30193 40239 55002 60001 333 11031
21166 70000 555 32425 4018/=
71684 17116 81316 11023 21023 39778 40081 58049 60001 747// 333
11021 21131 70000 555 32122 40091=
71686 15666 60703 11124 21132 38981 49932 56036 60001 333 11042
21126 70000=
71694 17/// /1303 10016 20012 39736 40100 58053 60061 7//4/ 333
10017 21132 70065=
71933 17/// /0502 11029 21036 39140 49965 57053 69931 7//4/ 333
11026 21112 70003=
71253 45/// /0603 11186 21202 6///1 333 11144 21240 7////=
71256 45/// /0000 11066 21106 39091 40027 58016 6///1 333 10008
21088 7//// 555 33018 4022/=
71261 17/// /1511 10043 20035 39782 40041 58056 60041 7//4/ 333
10049 21061 70049 555 31621 4005/=
71267 15966 61305 11049 21070 38985 40081 58007 60001 333 10043
21050 70000 555 32643 40093=
71273 15/// /3005 11061 21083 39376 40039 53016 60001 333 11017
21130 7////=
71282 45/// /1011 10019 20010 39817 40087 58056 6///1 333 10021
21131 7//// 555 31317 4006/=
71290 17466 81603 11052 21060 39160 49993 56044 60001 771// 333
11028 21138 70000=
71294 15/// ///// 11002 21002 39718 40124 58043 60001 333 11002
21154 70000=
71295 17/// /1402 11056 21064 39522 49967 58009 60021 7//4/ 333
11055 21082 70036=
71385 45/// /2321 11033 21048 6///1 333 11033 21113 7//// 555
32232 4001/=
71672 45/// /0803 10006 20000 39849 40115 58047 6///1 333 10013
21144 7////=
71675 17528 81104 11079 21090 39708 49988 58019 69951 7714/ 333
11071 21115 70005=
71685 17224 81406 10004 20000 39544 40082 57037 60021 7714/ 333
10011 20000 70043 555 31718 4012/=
71689 15666 30701 11172 21191 39571 40037 58002 60001 333 11111
21181 70000=
71696 15/// /3206 11278 21305 30027 40066 58003 60001 333 11193
21285 70000 555 33022 4007/=
71784 17/// /0708 10057 20039 39809 40013 58064 60191 7//4/ 333
10067 20042 70207 555 30418 4005/=
71876 15966 03008 11082 21089 39389 40063 53014 60001 333 11074
21149 70000=
0000034500
805
SMCH03 SCSC 110600
AAXX 11064
85834 12997 01713 10102 20075 40272 54002 60001=
85930 11496 80030 10100 20094 40113 54004 60131 75155 887//
  333 56800 88716 91140 91500=
85972 12597 83314 10064 20042 40045 57019 60001 885//
  333 56699 88630=
89057 12860 52410 11008 21043 40020 57010 60001 85001
  333 56009 85057=
0000059700
806
SMMK01 KWBC 110600
AAXX 11061
13457 32770 80000 10091 20085 30227 40234 52008 8357/ 333 20059
31005 55/// 83650 85360=
13462 32660 70901 10077 20068 30197 40237 52009 85570 333 20060
31005 55/// 85634 87460=
13463 32660 80000 10092 20060 30177 40238 52009 8257/ 333 20081
31/// 55000=
13461 32670 80902 10114 20102 30229 40236 53008 888// 333 20113
31007 55000 83834 86650 92312 92428 92514=
13363 31/01 91401 11014 21014 39321 48518 53006 74540 333 21024
31106 55039=
13459 32670 60201 10012 20012 39481 40242 52009 83870 333 21001
31102 55000 83696 84498=
0000063200
807
UENO12 ENMI 110000 RRA
TTDD 1100/ 01001 11765 70971 22688 69571 33430 74369 44306 72370
      55249 76970 21212 11707 25031 22591 25027 33542 25037 44524
      25034 55330 26553 66292 27547 77281 26552 88249 26041 31313
      48008 82321=
TTDD 1100/ 01028 11843 74566 22790 71367 33528 78364 44364 81963
      55280 76365 66237 81564 77198 77765 21212 11949 34516 22889
      35021 33799 33525 44758 35029 55710 34523 66667 34030 77606
      33023 88541 33531 99515 32535 11477 32528 22428 32035 33375
      32529 44344 31542 55310 31544 66264 32535 77222 31557 88198
      32046 31313 48008 82318=
0000010900
808
UANT01 CWAO 110023
ARP VIR17 5642N04159W 0023 F400 MS59 256/33 KT
GVSXY DDL XXH 110023 J50A
0000011200
809
SNVF25 LFPW 110100
BBXX
BAREU71 11014 99385 70111 46/// /0215 10135 29072 40179 52014
22264=
0000009700
810
SAGU31 MGGT 110100
METAR
MGGT 110100Z 00000KT 8000 FEW014 19/16 Q1023 A3021 HZ=
0000033700
811
SAGU31 MGGT 110100
METAR
METAR MGMM 110100Z 00000KT CAVOK 23/21 Q1014 A2994=
METAR MGHT 110100Z 00000KT CAVOK 18/10 QFE 814.8 SCT200=
METAR MGPB 110100Z 00000KT 9999 FEW016 SCT080 23/22 Q1013 A2991=
METAR MGGT 110100Z 00000KT 8000 FEW014 19/16 Q1023 A3021 HZ=
METAR MGSJ 110100Z 00000KT CAVOK 25/22 Q1011 A2985=
0000053200
812
UEDL03 EDZW 110000 RRA
TTDD 1023/ 10618
11806 54184 22649 57582 33394 52985 44361 55784 55175
53784 66162 50586 77137 53185 88106 51586 99083 55184
11058 53385
21212 11953 30515 22918 29018 33887 30523 44815 29519
55754 31014 66717 29517 77649 31022 88617 29519 99555
32518 11537 31515 22506 29519 33491 30522 44472 31519
55426 31515 66405 30521 77377 32519 88350 31024 99327
32526 11254 31026 22179 33039 33135 32543 44118 33540
55111 33547 66097 33040 77059 32566 88058 33064
31313 48008 82245=
00000000