0000011000
873
UANT99 KDDL 111007
ARP SAS936 5852N01802W 1007 F330 MS58 249/73 KT
LNRKF DDL XXW 111007 J62A
0000011000
874
UANT99 KDDL 111007
ARP AFR439 5505N03720W 1007 F370 MS58 259/31 KT
FGITJ QXT AOW 111007 F12A
0000036700
875
SXXX32 EUMS 111006 RRO
12FFB3C8
:PRS 1 /1 M 3452 3450 3460 3444 3442 3445 3459 3449 3457 3484 3476 3482 3482 3478 3471 3472 3469 3476 3474 3475 3500 3494 3501 3514 3502 3507 3495 3501 3483 :RAD 1 /3 6394 6399 6411 6420 6419 6424 6437 6446 6443 6444 :ENC 1 /5 -144 -144 -144 -144 -144 -144 :SW1 6 /60 0 :SW2 36 /60 0 :BAT 14 /15 13.6 :NAME 12FFB3C8 /
0000007800
876
SNAL54 EUMS 111000
AAXX 11104
60645 46/// /0000 10217 21031=
0000005200
877
RRIN23 VIDP 111007
RQRPT 272-313=

0000005200
878
RRIN23 VIDP 111007
RQRPT 372-453=

0000064700
879
SAJP32 RJTD 111000
METAR RJFF 111000Z VRB04KT 9999 FEW035 BKN/// 05/M02 Q1029=
METAR RJCC 111000Z 24006KT 9999 FEW020 M10/M15 Q1020=
METAR RJFK 111000Z 34006KT 9999 SCT040 BKN050 06/M03 Q1027=
METAR RJSN 111000Z 30011KT 9999 FEW010 SCT020 BKN040 03/M04 Q1026=
METAR RJFT 111000Z VRB02KT 9999 FEW040 SCT050 BKN130 05/M01 Q1028=
METAR RJFU 111000Z 12004KT CAVOK 05/01 Q1029=
METAR RJCH 111000Z 32005KT 9999 -SHSN FEW010 BKN025 BKN060 M07/M10
           Q1022=
METAR RJSS 111000Z 24005KT 9999 FEW020 00/M06 Q1024=
METAR RJOA 111000Z 34007KT 9999 FEW040 BKN/// 02/M05 Q1027=
METAR RJOB 111000Z 30003KT 9999 FEW040 SCT160 01/M04 Q1027=

0000009100
880
SPUS31 KWBC 102049
SPECI
KLOU 102045Z 14007KT 10SM OVC013 11/08 A2996=

0000009400
881
SPUS42 KWBC 102049
SPECI
KBRO 102045Z 18023G28KT 10SM SCT027 26/18 A2983=

0000034700
882
SASW31 LSSW 102050
METAR LSZH 102050Z 36001KT 3000 0500N R14/0650N R16/0750N R28/P2000N
    R34/P2000N PRFG FEW002 SCT230 01/01 Q1019 BECMG 0800 VV002=
METAR LSGG 102050Z 00000KT CAVOK 03/02 Q1019 NOSIG=
METAR LSZB 102050Z VRB01KT CAVOK 00/00 Q1019 NOSIG=
METAR LSZA 102050Z VRB01KT 9999 FEW038 BKN042 08/06 Q1021 NOSIG=

0000027700
883
SASW39 LSSW 102050
METAR LSMA 102050Z NIL=
METAR LSMD 102050Z NIL=
METAR LSME 102050Z NIL=
METAR LSMM 102050Z AUTO VRB01KT 2200NDV BR NCD 00/M00 Q1019 RMK YLO=
METAR LSMP 102050Z NIL=
METAR LSMS 102050Z AUTO VRB02KT 9999NDV NCD 04/02 Q1019 RMK BLU=

0000038400
884
SAMX31 KWBC 102045 RRB
METAR
MMCZ 102049Z 14008KT 8SM SCT015TCU 25/22 A2996 RMK SLP153 52014
     973 8/200=
MMMD 102049Z 13012KT 7SM BKN025TCU 29/19 A2990 RMK SLP122 57033
     990 8/200=
MMTP 102041Z 24011KT 10SM SCT250 30/21 A2984 RMK SLP119 57003 966
     8/002=
MMUN 102044Z 13013KT 7SM BKN015TCU 28/23 A2996 RMK SLP141 57020
     970 8/200 CI=

0000011500
885
SPCN42 CWAO 102050
SPECI CYCQ 102050Z 22015G28KT 35SM DRSN FEW045 SCT100 BKN200 RMK
SC1AC2CI1=

0000011200
886
SANK31 MNMG 102100
METAR  
MNMG 102100Z 11016KT 9999 FEW025 33/18 Q1008 A2977 1AC070 NOSIG=

0000010600
887
SAIS32 LLBG 102050
METAR LLBG 102050Z 15005KT 9999 FEW040 12/10 Q1021 NOSIG RMK BKN065=

0000011400
888
SAPH41 RPLC 102100
METAR RPLC 102100Z
31004KT 9999 FEW042 SCT300 20/16 Q1017 A3003 RMK NOSIG=

0000018400
889
SALV32 EVRA 102050
METAR EVLA 102050Z AUTO 30011G21KT 9999 SCT013 BKN020 OVC035 03/01 
Q0999=
METAR EVVA 102050Z AUTO 32016KT 9000 -RA BKN013 OVC021 03/02 Q0997=

0000016500
890
SAIS31 LLBG 102050
METAR LLET 102050Z NIL=
METAR LLHA 102050Z NIL=
METAR LLIB 102050Z NIL=
METAR LLOV 102050Z NIL=
METAR LLSD 102050Z NIL=

0000015700
891
SADN33 EKCH 102050
METAR EKKA 102050Z 25012KT 9999 FEW012 BKN036 06/05 Q1006=
METAR EKSP 102050Z 25009KT 9999 SCT018 BKN040 06/03 Q1008=

0000164500
892
SPUS70 KWBC 102052
SPECI
KAND 102048Z AUTO 07006KT 3SM -RA BR BKN006 OVC012 09/09 A3015 RMK
     AO2 P0003=
KBAF 102048Z 22003KT 3SM BR SCT018 OVC090 M01/M03 A3035 RMK AO2
     SNE1954 P0000=
KCMI 102048Z 16017KT 1 3/4SM RA BR OVC004 04/03 A2978 RMK AO2 TWR
     VIS 2 1/2 P0006=
KDVN 102048Z AUTO 17010KT 2SM RA BR OVC004 02/01 A2964 RMK AO2
     UPB37E40RAB40 P0002=
KIOW 102048Z AUTO 13009KT 1 1/2SM BR OVC002 01/01 A2960 RMK AO2
     PRESFR=
KMTW 102048Z AUTO 18009KT 1 3/4SM UP BR OVC006 01/M01 A2980 RMK
     AO2 UPB39 P0000 FZRANO=
KPNS 102048Z 00000KT 2SM BR OVC003 16/14 A3002 RMK AO2=
KSTJ 102048Z 22007KT 5SM BR OVC005 03/02 A2954 RMK AO2=
KTYR 102048Z 23011KT 3/4SM +RA BR SCT009 OVC015 17/16 A2976 RMK
     AO2 P0022=
KAHN 102049Z 05005KT 1 3/4SM BR OVC003 08/07 A3014 RMK AO2
     P0001=
KBKL 102049Z 15009KT 7SM SCT011 OVC060 04/03 A3007 RMK AO2=
KBWI 102049Z 00000KT 1/2SM R10/3500VP6000FT -RA FG OVC003 02/02
     A3032 RMK AO2 P0002=
KLSE 102050Z 10005KT 1 1/4SM -SN BR BKN008 OVC015 00/M02 A2963 RMK
     AO2 UPB40E42SNB42 P0000=
KPTK 102049Z 16009KT 1 3/4SM BR OVC004 02/00 A2996 RMK AO2=
KELD 102049Z AUTO 14012KT 5SM BR OVC006 13/13 A2979 RMK AO2
     RAB06E27 CIG 003V008 PRESFR P0001 TSNO=
KMEI 102049Z 14003KT 10SM OVC010 14/11 A2999 RMK AO2 CIG
     009V014=
KPIL 102049Z AUTO 20013G21KT 8SM BKN028 OVC033 27/19 A2983 RMK AO2
     PK WND 18030/2004=
KSHN 102048Z AUTO 19005KT 2 1/2SM -RA BR BKN013 BKN021 OVC026
     08/07 A3003 RMK AO2 RAB1957E07B39 P0000 TSNO=
KVTA 102049Z AUTO 16003KT 9SM SCT007 OVC014 07/04 A3007 RMK
     AO2=

00000000