0000114600
433
SNCN19 CWAO 110921
OOXX
USP77 11071 99193 11666 ///// 00061
     26/// /0304 10266 29100 30093 90704 333 60000=
USP77 11071 99193 11666 ///// 00061
     26/// /0304 10266 29100 30092 90714 333 60000=
USP77 11071 99193 11666 ///// 00061
     26/// /0404 10266 29100 30092 90724 333 60000=
USP77 11071 99193 11666 ///// 00061
     26/// /0304 10265 29100 30093 90734 333 60000=
USP77 11071 99193 11666 ///// 00061
     26/// /0404 10267 29100 30094 90744 333 60000=
USP77 11071 99193 11666 ///// 00061
     26/// /0404 10268 29100 30094 90754 333 60000=
USP77 11081 99193 11666 ///// 00061
     26/// /0404 10267 29100 30096 90804 333 60000=
USP77 11081 99193 11666 ///// 00061
     26/// /0304 10264 29100 30096 90814 333 60000=
USP77 11081 99193 11666 ///// 00061
     26/// /0404 10265 29100 30096 90824 333 60000=
USP77 11081 99193 11666 ///// 00061
     26/// /0404 10266 29100 30096 90834 333 60000=
USP77 11081 99193 11666 ///// 00061
     26/// /0304 10263 29100 30096 90844 333 60000=
USP77 11081 99193 11666 ///// 00061
     26/// /0304 10263 29100 30096 90854 333 60000=

0000114600
434
SNCN19 CWAO 110931
OOXX
PGP51 11071 99026 31508 ///// 00401
     26/// /0000 10279 29078 30057 90730 333 60000=
PGP51 11071 99026 31508 ///// 00401
     26/// /0000 10280 29077 30059 90740 333 60000=
PGP51 11071 99026 31508 ///// 00401
     26/// /0000 10280 29078 30063 90750 333 60000=
PGP51 11081 99026 31508 ///// 00401
     26/// /0000 10269 29085 30065 90800 333 60000=
PGP51 11081 99026 31508 ///// 00401
     26/// /0000 10266 29088 30067 90810 333 69920=
PGP51 11081 99026 31508 ///// 00401
     26/// /0000 10259 29087 30069 90820 333 69940=
PGP51 11081 99026 31508 ///// 00401
     26/// /0000 10258 29089 30071 90830 333 69960=
PGP51 11081 99026 31508 ///// 00401
     26/// /0000 10258 29090 30070 90840 333 69980=
PGP51 11081 99026 31508 ///// 00401
     26/// /0000 10258 29089 30073 90850 333 69920=
PGP51 11091 99026 31508 ///// 00401
     26/// /0000 10260 29089 30075 90900 333 60000=
PGP51 11091 99026 31508 ///// 00401
     26/// /0000 10258 29088 30075 90910 333 60000=
PGP51 11091 99026 31508 ///// 00401
     26/// /0000 10259 29087 30077 90920 333 60000=

0000010300
435
SAIN90 VOHS 111010
METAR VOHS 111010Z 22005KT 210V290 5000 HZ SCT020 29/10 Q1014 NOSIG=
0000009300
436
SASB31 VCBI 111010
METAR VCBI 111010Z 32009KT 9999 SCT016 29/23 Q1009 NOSIG=

0000013100
437
SACN62 CYQL 102100
METAR CYQL 102100Z 26011G18KT 40SM FEW060 SCT140 BKN270 04/M03 A2949
 RMK SC1AC2CI4 SLP014=

0000019300
438
SASP40 LEMM 102100
METAR LEGA 102100Z NIL=
METAR LEGT 102100Z NIL=
METAR LEMO 102100Z NIL=
METAR LERI 102100Z NIL=
METAR LERT 102100Z VRB01KT CAVOK 12/10 Q1014 NOSIG=

0000010600
439
SACN62 CYTE 102100
METAR CYTE 102100Z 28023KT 15SM BKN013 M22/M25 A2928 RMK SC5 SLP921=

0000020300
440
SASP41 LEMM 102100
METAR LEAO 102100Z NIL=
METAR LEBT 102100Z NIL=
METAR LECV 102100Z NIL=
METAR LEEC 102100Z NIL=
METAR LELO 102100Z 00000KT 0500 R29/1200U FG NSC 04/04 Q1017=

0000011500
441
SACN62 CYUT 102100
METAR CYUT 102100Z 30012KT 25SM FEW040 M28/M33 A2944 RMK SC1 SC TR
 SLP973=

0000012200
442
SACN62 CYRA 102100
METAR CYRA 102100Z 16003KT 15SM IC FEW045 BKN220 M26/M29 A2952 RMK
 SC2CI4 SLP027=

0000012200
443
SACN62 CYQU 102100
METAR CYQU 102100Z 26015G20KT 25SM FEW060 BKN210 M01/M09 A2949 RMK
 SC1CI4 SLP023=

0000013300
444
SACN62 CYSB 102100
METAR CYSB 102100Z 16010KT 1/8SM R22/1000FT/N -FZDZ FZFG VV001
 M04/M04 A2997 RMK FG8 SLP171=

0000033700
445
SAAP32 FAPR 102100
METAR FABL 102100Z AUTO 22005KT //// // ////// 22/02 Q1017=
METAR FACT 102100Z 17013KT 9999 FEW035 18/12 Q1019 NOSIG=
METAR FALE 102100Z 19004KT 9999 -RA SCT025 23/20 Q1015 NOSIG=
METAR FAOR 102100Z 18007KT 150V230 CAVOK 19/08 Q1021 NOSIG=
METAR FQBR 102100Z 07007KT 9999 FEW020 28/24 Q1009=

0000026400
446
SAIY33 LIIB 102100
METAR LIMA 102100Z NIL=
METAR LIMG 102100Z NIL=
METAR LIMP 102050Z 05004KT 5000 BR FEW030 SCT050 08/08 Q1023=
METAR LIMS 102100Z NIL=
METAR LIMW 102100Z NIL=
METAR LIMZ 102050Z VRB02KT 9000 SCT025 SCT040 05/05 Q1021=

0000008900
447
SAJM31 MKJS 102100
METAR MKJS 102100Z 10012KT 9999 FEW022 28/24 Q1014=

0000067400
448
FTUS51 KWBC 102103 AAA
TAF AMD
KMRB 102059Z 1021/1118 02005KT 2SM BR OVC009
     FM110200 VRB03KT 3SM -RA BR OVC008
     FM110500 14004KT 2SM -RA BR OVC008
     FM110800 16005KT 3SM BR OVC008 WS020/20035KT
     FM111300 17007KT 3SM BR OVC003 WS020/20040KT
     FM111500 17010KT 2SM -SHRA BR OVC003 WS020/20040KT
     FM111700 18011KT 1SM SHRA BR OVC003 WS020/20045KT=
KPNE 102101Z 1021/1118 05003KT 1 1/2SM BR BKN004 BKN015
      TEMPO 1021/1024 3SM BR BKN008 BKN015
     FM110200 14005KT 1SM BR BKN005 OVC015
     FM110600 16005KT 2SM -RA BR BKN004 OVC010 WS020/20050KT
     FM111500 19013KT 1SM RA BR BKN003 OVC010 WS020/21050KT=

0000017600
449
FTUS53 KWBC 102103 AAA
TAF AMD
KCOU 102101Z 1021/1118 18015KT P6SM OVC005
     FM110600 25011KT 5SM BR OVC010
     FM111500 26014KT P6SM SCT015 BKN250=

0000013400
450
FTUS54 KWBC 102103 AAA
TAF AMD
KBTM 102101Z 1021/1118 30015G25KT P6SM BKN090
     FM110200 30005KT P6SM BKN090=

0000146200
451
FTUS80 KWBC 102103 AAA
TAF AMD
KBTM 102101Z 1021/1118 30015G25KT P6SM BKN090
     FM110200 30005KT P6SM BKN090=
KCOU 102101Z 1021/1118 18015KT P6SM OVC005
     FM110600 25011KT 5SM BR OVC010
     FM111500 26014KT P6SM SCT015 BKN250=
KEET 102101Z 1021/1118 12006KT 5SM -DZ BR BKN006 OVC012
      TEMPO 1021/1023 SCT007 BKN015
     FM110400 16011G18KT 2SM -RA BR OVC003=
KILG 102102Z 1021/1118 09003KT 1 1/2SM BR BKN004 BKN015
      TEMPO 1021/1024 3SM BR BKN008 BKN015
     FM110200 14005KT 1SM BR BKN005 OVC015
     FM110600 16005KT 2SM -RA BR BKN004 OVC010 WS020/20050KT
     FM111500 19013KT 1SM RA BR BKN003 OVC010 WS020/21050KT=
KMRB 102059Z 1021/1118 02005KT 2SM BR OVC009
     FM110200 VRB03KT 3SM -RA BR OVC008
     FM110500 14004KT 2SM -RA BR OVC008
     FM110800 16005KT 3SM BR OVC008 WS020/20035KT
     FM111300 17007KT 3SM BR OVC003 WS020/20040KT
     FM111500 17010KT 2SM -SHRA BR OVC003 WS020/20040KT
     FM111700 18011KT 1SM SHRA BR OVC003 WS020/20045KT=
KMSO 102100Z 1021/1118 03003KT P6SM VCSH BKN050 OVC090
     FM102300 29012KT P6SM VCSH BKN050 OVC090
     FM110100 VRB05KT P6SM OVC090
     FM111000 12009KT P6SM BKN060=
KPHL 102101Z 1021/1124 10003KT 2SM BR BKN004 BKN015
      TEMPO 1021/1024 1SM BR
     FM110200 14005KT 1SM BR BKN005 OVC015
     FM110600 16005KT 2SM -RA BR BKN004 OVC010 WS020/20050KT
     FM111500 19013KT 1SM RA BR BKN003 OVC010 WS020/21050KT=

0000118100
452
FTUS80 KWBC 102103 AAB
TAF AMD
KPNE 102101Z 1021/1118 05003KT 1 1/2SM BR BKN004 BKN015
      TEMPO 1021/1024 3SM BR BKN008 BKN015
     FM110200 14005KT 1SM BR BKN005 OVC015
     FM110600 16005KT 2SM -RA BR BKN004 OVC010 WS020/20050KT
     FM111500 19013KT 1SM RA BR BKN003 OVC010 WS020/21050KT=
KSEA 102101Z 1021/1124 19012KT P6SM BKN014 BKN020 OVC100
     FM102300 17012KT 3SM RA BR OVC012
      TEMPO 1100/1104 2SM +RA BR OVC012
     FM110600 19018G30KT 5SM -RA BR OVC015
     FM110800 20025G40KT 5SM -RA BR OVC015
     FM111400 20018G32KT P6SM -RA OVC025
     FM111900 20024G38KT P6SM -SHRA BKN035 BKN060=
KSFO 102102Z 1021/1124 33005KT P6SM FEW006 SCT200
     FM110300 29006KT P6SM FEW012 BKN250
      TEMPO 1103/1105 BKN012
     FM110500 27004KT P6SM OVC010
     FM111700 23012KT P6SM BKN100
     FM111900 26008KT P6SM OVC060 PROB30 1119/1124 -RA=
KTTN 102101Z 1021/1118 07003KT 1 1/2SM BR BKN004 BKN015
      TEMPO 1021/1024 3SM BR BKN008 BKN015
     FM110200 14005KT 1SM BR BKN005 OVC015
     FM110600 16005KT 2SM -RA BR BKN004 OVC010 WS020/20050KT
     FM111500 19013KT 1SM RA BR BKN003 OVC010 WS020/21050KT=

00000000