0000192500
333
SMRA12 RUNW 110600
AAXX 11061
28049 41999 71103 11049 21056 39940 40107 52005 70272 87070 333
21058=
28144 41497 83101 11040 21046 39942 40102 52005 77172 8872/ 333 87710
93402=
28319 41496 81202 11036 21044 39894 40059 57008 77172 8802/=
28321 41496 81103 11044 21050 39853 40059 57010 71022 886//=
28334 41998 81801 11034 21048 39782 40088 57003 70272 8807/=
28434 42599 81002 11026 21044 39828 40086 57002 885//=
28552 41597 81703 11068 21094 30030 40145 52007 70272 885// 333
21072=
28666 41598 61705 11068 21091 39998 40178 52004 70273 86020=
28825 41496 81902 11009 21023 39926 40098 52004 77072 8572/=
29111 41597 81602 11050 21063 30126 40215 58001 78582 889//=
29209 NIL=
29551 41497 82306 11061 21104 30115 40303 52008 78583 86302=
29602 42998 81905 11082 21105 30119 40265 52005 8805/=
29636 41496 82102 11072 21106 30086 40312 51007 77173 8872/=
29654 41396 81805 11086 21105 39686 40325 52006 78583 8795/ 333 84709
91110=
29712 41998 81905 11077 21099 30145 40293 52006 70273 8807/=
29724 41599 82106 11082 21098 30097 40308 52004 78583 8533/ 333
91110=
29726 41496 82103 11072 21093 30142 40316 50005 78583 883// 333
88916=
29814 41499 82005 11076 21109 30152 40303 52004 70283 8237/=
29827 41697 82004 11073 21111 30169 40329 52002 70283 885//=
29923 42/// /1805 11069 21105 30053 40339 51004 333 91110=
29939 41998 82402 11062 21101 30070 40364 54001 70173 8807/=
35026 41/93 92002 11031 21034 39481 40122 52009 74942=
36021 41999 71503 11090 21127 30141 40330 57004 70282 83042=
36022 41998 81804 11090 21135 30070 40344 50001 70272 81044=
36038 41999 61705 11033 21154 39893 40346 53002 70283 82041=
36058 42999 81502 11002 21119 39822 40349 57003 8807/=
36064 42699 81203 11012 21083 39750 40351 58001 81538=
36229 42599 61301 11101 21145 39182 40410 58008 84930=
36259 42699 21901 11261 21286 38318 48606 58001 81501=
0000199600
334
SMRA11 RUNW 110600
AAXX 11061
23909 41294 81203 11050 21050 39798 40049 57009 72842 886//=
24918 NIL=
28044 41498 83602 11079 21094 39943 40111 53002 77172 887// 333
21080=
28116 41496 81403 11054 21064 39824 40059 57004 71022 885// 333
21054=
28240 41598 81502 11044 21051 39776 40103 52005 70382 889//=
28522 41496 81805 11024 21032 39820 40079 57002 77172 8802/=
28621 42498 81403 11023 21031 39842 40075 50001 889//=
28719 41498 82003 11038 21043 39652 40095 52003 70242 886//=
29023 41496 82002 11120 21133 30130 40231 52014 78582 8795/ 333
85646=
29122 41496 81601 11056 21065 30154 40227 51006 78582 883// 333
85615=
29328 41598 81904 11071 21095 30122 40266 52011 73683 889//=
29348 41596 72004 11068 21084 30130 40279 51010 78583 84936=
29393 NIL=
29405 42497 81803 11059 21079 30095 40246 52006 883// 333 88915=
29418 42998 81905 11065 21089 30099 40263 52005 8802/=
29430 41598 81901 11071 21088 30110 40292 51008 72682 8495/ 333
21075=
29524 41498 82103 11078 21100 30110 40279 52010 70283 889//=
29578 NIL=
29580 NIL=
29587 41896 70000 11104 21123 39996 40328 54000 77172 82035=
29605 42598 71904 11084 21104 30112 40260 52004 87500=
29631 41496 82105 11074 21087 30111 40304 52007 78583 889//=
29645 41594 81803 11077 21099 30131 40325 51008 78682 889// 333
88920=
29664 NIL=
29706 41698 82005 11080 21104 30134 40285 52003 70282 885//=
29736 41497 82003 11079 21102 30071 40332 52003 78583 883//=
29768 NIL=
29771 NIL=
29772 NIL=
29874 NIL=
29876 NIL=
29937 41597 32005 11069 21136 30121 40351 58002 70281 82501=
29974 NIL=
30127 NIL=
30323 NIL=
30526 NIL=
30637 NIL=
30714 NIL=
35037 41/92 91501 11021 21026 39699 40123 52011 74542=
36034 41998 81905 11080 21157 30064 40351 58006 70283 80002=
36073 NIL=
36078 NIL=
36083 NIL=
36090 NIL=
36091 NIL=
36092 NIL=
36096 41996 80101 11206 21246 39635 40488 58007 77177 8807/ 333
95090=
36104 NIL=
36278 NIL=
0000015200
335
SMCA01 TNCC 110600
78988 22481 21112 10258 20220 30133 40144 52010 60001 82100
  333 59002 60007 82818=
78873 NIL=
78990 NIL=
/=
0000014300
336
SMAL50 DAMM 110600 RRA
AAXX 11064
60677 36/// /0000 10073 21035
  333 20070=
60679 36/// /3402 10109 21240
  333 20063=
0000009000
337
SMAL51 DAMM 110600 RRA
AAXX 11064
60595 36/// /0000 11451
  333 21451=
0000243700
338
SMRS17 RUMS 110600
AAXX 11061
34357 41498 82503 10041 20027 39837 49989 55004 78086 889// 333 91010
91112=
34363 41/93 91910 10011 20008 39854 40005 56029 76164 333 91014 91115
96045=
34461 41497 82005 10042 20032 39953 40007 56022 72162 885// 333
91111=
34545 41498 82708 10041 20026 39934 40045 53021 72586 883// 333 91013
91116=
34579 42998 71907 10031 21017 30042 40085 57011 8705/ 333 91010
91111=
34772 32998 71905 10022 20003 30095 40098 57014 87070=
34838 41497 82606 10061 20043 30029 40125 53031 72582 889// 333 91013
91113=
34868 42998 82702 10025 20005 39985 40125 53020 83035 333 91112=
34871 41696 81803 10015 20005 30119 40109 55006 71022 885//=
34927 41496 82603 10073 20052 30117 40154 53036 78082 889// 333
91111=
34949 42998 62805 10052 21030 39580 40123 53026 86030 333 91113=
34954 42498 80501 10013 21000 39950 40125 53019 885// 333 21005=
34958 42498 72501 10000 21010 39923 40126 53014 87500 333 21019=
34975 41596 61504 10011 20011 30108 40102 57017 70910 86530 333
21008=
34984 41996 61506 10044 20034 30153 40126 57009 71011 80002=
37001 42597 63002 10069 20032 30129 40170 53041 86500 333 20069=
37021 42698 72404 10102 21026 39874 40137 53038 83530 333 91112
91112=
37031 42997 82806 10067 20019 39929 40123 51027 8805/ 333 91110=
37036 42998 71401 11005 21018 39712 40135 53026 80020=
37058 42598 73101 11005 21044 39751 40108 55002 87500 333 21027=
37061 41595 73102 10001 21007 39950 40118 53004 71011 84571=
37085 42598 71407 10043 20026 30143 40115 57009 87500 333 91011
91112=
37107 42670 83401 10012 21035 39515 40205 53012 885//=
37126 42599 82606 10020 21154 37880 48441 53008 85931=
37144 42998 81902 11006 21030 39863 40113 55006 80009=
37163 41596 61307 10023 20012 30123 40118 55007 71011 86530 333
91113=
37171 119// /0703 10061 21015 30173 40187 52023 333 20016=
37193 42898 82106 10079 21098 38629 48450 53020 8437/ 333 91013
91114=
37212 42998 82104 10079 21107 39596 40102 55004 80031=
37218 43998 73001 10034 21046 39324 40114 56008 80009=
37228 42999 60000 10021 21086 39279 40117 56009 86070=
37235 42998 52301 11007 21028 39797 40115 56012 80004=
37244 42998 42001 11012 21031 30020 40115 56006 80004=
37463 32999 00000 10016 21134 38530 57012 333 21025=
37470 42598 80000 10059 20024 30136 40114 57016 885//=
37663 42999 02906 10075 21135 38964 48449 57006 333 91010 91112=
0000013200
339
SMAL02 DAMM 110600 RRB
AAXX 11064
60559 12958 5//// 10054 20045 40218 51006 60004 80004
  333 0//00 20046 85073=
0000011200
340
SMRA11 RUNW 110600 RRA
AAXX 11061
29580 41498 72504 11067 21095 39859 40318 58001 78582 86901=
0000010000
341
SMRA11 RUNW 110600 RRB
AAXX 11061
29768 43/// /1603 11029 21093 30007 40332 52010=
0000010600
342
SMRA11 RUNW 110600 RRC
AAXX 11061
36073 42897 80000 11081 21095 39471 40378 5//// 8807/=
0000011200
343
SMRA11 RUNW 110600 RRD
AAXX 11061
29771 41595 82003 11091 21102 39341 40354 52001 78683 889//=
0000011200
344
SMRA11 RUNW 110600 RRE
AAXX 11061
29874 41598 61601 11049 21085 39938 40350 58001 70282 82902=
0000008100
345
UPTH01 VTBB 110600 RRA
PPAA  61061 48453 55285 06509 19503 77999=
0000014200
346
UGTH20 VTBB 110600 RRA
PPBB  61061 48453 90/12 08003 07008 09010 90357 08011 06509 09506
91025 19004 22501 17505 916// 17507=
0000018300
347
UAAK04 KAWN 110600
SCC UA /OV SCC/TM 0603/FLUNKN/TP B737/RM LNDD RY23 BA GOOD=
ELV UA /OV SSR270045/TM 0608/FL340/TP B737/TA M55/WV 22072KT/TB
 NEG/RM AWC-WEB/ASA=
0000010200
348
SAIN90 VERC 110510
METAR VERC 110500Z 32004KT 1500 BR SCT020 BKN100 19/13 Q1020 NOSIG=
0000040300
349
FCIN90 VEPT 110622
TAF VEPT 110600Z 1109/1118 24006KT 1500 BR/-RA SCT015 BKN100 BECMG 1116/1118 1000 MIFG=
TAF VEGY 110600Z 1109/1118 24006KT 1500 BR/-RA SCT015 BKN100 BECMG 1116/1118 1000 MIFG=
TAF VERC 110600Z 1109/1118 32006KT 1000 MIFG/-RA SCT015 BKN100 BECMG 1116/1118 1500 BR/-RA=
TAF VEJS 110600Z 1109/1118 32006KT 1000 MIFG/-RA SCT015 BKN100 BECMG 1116/1118 1500 BR/-RA=

0000011100
350
UANT99 KDDL 110619
ARP AAL120 4737N03225W 0619 F350 MS48 212/39 KT
N191AN DDL XXW 110619 F67A
0000011100
351
UANT99 KDDL 110619
ARP BAW2036 4821N01348W 0619 F390 MS55 243/43 KT
GVIIR QXT AOE 110619 F64A
0000011000
352
UANT99 KDDL 110620
ARP KAC118 5311N02839W 0620 F330 MS59 207/80 KT
9KAOA QXT AOE 110620 F19A
00000000