0000009500
893
SAMF20 TFFR 102130
METAR TFFR 102130Z 08009KT 9999 SCT034 26/19 Q1015 NOSIG=

0000026300
894
FTUS51 KWBC 102127 AAA
TAF AMD
KBLF 102125Z 1021/1118 15005KT P6SM -DZ BKN008 OVC035
      WS020/21035KT
     FM110300 16010G20KT P6SM OVC012 WS010/20042KT
     FM110900 18016G25KT P6SM OVC025
     FM111500 22015G25KT 4SM SHRA OVC018=

0000035000
895
FTUS52 KWBC 102127 AAA
TAF AMD
KMKL 102125Z 1021/1118 17010G16KT P6SM SCT020 BKN100
      TEMPO 1021/1022 BKN020
     FM110000 16012G20KT P6SM VCSH BKN025
     FM110300 18014G22KT 4SM -RA BR VCTS OVC007CB
     FM111000 22014KT P6SM BKN012 OVC080
     FM111200 26012KT P6SM SCT020
     FM111500 27012G18KT P6SM SCT025=

0000124800
896
FTUS80 KWBC 102127 AAA
TAF AMD
KBLF 102125Z 1021/1118 15005KT P6SM -DZ BKN008 OVC035
      WS020/21035KT
     FM110300 16010G20KT P6SM OVC012 WS010/20042KT
     FM110900 18016G25KT P6SM OVC025
     FM111500 22015G25KT 4SM SHRA OVC018=
KFLL 102124Z 1021/1118 14013KT P6SM SCT020 BKN250
     FM110000 13008KT P6SM SCT020 BKN150
     FM111500 17015G22KT P6SM SCT025 BKN050=
KMKL 102125Z 1021/1118 17010G16KT P6SM SCT020 BKN100
      TEMPO 1021/1022 BKN020
     FM110000 16012G20KT P6SM VCSH BKN025
     FM110300 18014G22KT 4SM -RA BR VCTS OVC007CB
     FM111000 22014KT P6SM BKN012 OVC080
     FM111200 26012KT P6SM SCT020
     FM111500 27012G18KT P6SM SCT025=
KSSI 102124Z 1021/1118 13010KT P6SM VCSH SCT005 OVC050
      TEMPO 1021/1024 6SM -RA BR BKN005 OVC050
     FM110200 14005KT 3SM BR BKN005 OVC010
     FM110600 15005KT 1SM BR BKN003 OVC006
     FM111400 19010G15KT P6SM VCSH BKN010 OVC020=
PAGK 102125Z 1021/1118 00000KT 4SM BR OVC035
      TEMPO 1021/1024 1SM -SN BR BKN015
     FM110000 00000KT P6SM BKN025
     FM110900 00000KT P6SM BKN012 BKN040=
PAHO 102124Z 1021/1118 24002KT P6SM VCSH BKN070
      TEMPO 1021/1024 BKN010
     FM110200 VRB03KT P6SM SCT025 BKN200=

0000010900
897
SPUS43 KWBC 102127
SPECI
KDSM 102123Z 07004KT 1SM R31/P6000FT -DZ BR OVC002 01/00 A2953=

0000013200
898
FTAP32 FAPR 102100
TAF FBSK 102100Z 1100/1206 15006KT CAVOK
    BECMG 1112/1114 FEW030CB BECMG 1120/1122 CAVOK=

0000032900
899
SASG21 GOOY 102100
METAR GOOK 102100Z 04008KT 8000 NSC 24/11 Q1013=
METAR GOSS 102100Z 36004KT CAVOK 17/15 Q1014=
METAR GOSM 102100Z 30004KT CAVOK 23/12 Q1014=
METAR GOOG 102100Z 04002KT 8000 NSC 21/11 Q////=
METAR GOTT 102100Z 34008KT CAVOK 27/11 Q1012=
METAR GOGG 102100Z 34004KT CAVOK 23/15 Q1013=

0000019200
900
SANL32 EHDB 102125
METAR EHEH 102125Z AUTO 21009KT 9999 OVC012 05/03 Q1016 
GRN 22008KT BKN011=
METAR EHKD 102125Z AUTO 21017KT 8000 BR FEW006 SCT110 07/07 Q1013 
BLU=

0000020900
901
FTFR36 LFPW 101700 AAB
TAF AMD LFLY 102127Z 1021/1118 VRB02KT CAVOK PROB30 TEMPO 1021/1109
2000 BR BKN003 TEMPO 1021/1106 0300 BCFG OVC002 BECMG 1106/1109
18012KT BECMG 1116/1118 OVC009=

0000010900
902
UANT99 KDDL 111008
ARP SWR39 5705N04612W 1008 F350 MS58 276/48 KT
HBJMO QXS UAK 111009 J48A
0000056900
903
SNVF21 ENMI 111000
BBXX
LDGJ 11101 99603 10053 43/// /1501 10051 20022 49974 5//// 222/0
      04078 1//// 3//// 4//// 5////=
LF4H 11104 99596 10022 46/// /3122 10057 20019 40001 52014 8////
      91002 22200 06077 10606 70031=
LGWS 11101 99229 30145 43/// /2903 10195 20183 40127 5//// 222/0
      04172 1//// 3//// 4//// 5////=
LJIT 11101 99585 10046 43/// /2817 10049 20012 40016 5//// 222/0
      04071 1//// 3//// 4//// 5////=
LMEL 11101 99603 10053 43/// /1401 10049 20037 49972 5//// 222/0
      04077 1//// 3//// 4//// 5////=
0000015600
904
UAPA01 KWBC 111009
ARP ASA864 3500N 14221W 1001 F360 MS57 260/061KT TB LGT CHOP=
ARP AWE683 2221N 15153W 1002 F370 MS48 231/085KT TB SMTH=
0000010000
905
SIAG02 SABM 110900 RRD
AAXX 11094
87509 42970 01803 10137 20067 39316 40151 53004=
0000051800
906
SNSP20 LEMM 111000
AAXX 11104
08045 46/// /2005 10076 20070 39876 40189 51018
  555 60005=
08181 47/59 /3406 10123 20090 30202 40209 53018 71011
  555 60005=
08221 42967 73504 10067 20049 39518 40211 53018 85017
  555 60005=
08284 46/// /2902 10105 20075 30132 40208 5////
  555 60005=
08306 46/// /0000 10138 20124 30187 40193 51016
  555 60005=
08314 47/// /1308 10148 2//// 3//// 4//// 5//// 721//
  555 69905=
08482 46/// /0000 10136 20109 30194 40202 51029
  555 60005=
0000011800
907
SNVF25 LFPW 111000
BBXX
BATUK01 11104 99578 70062 43/// /2715 10057 21003 40097 53021
22242 04094=
0000018000
908
SMVD01 PANC 110600 RRO
BBXX
VRBL4 11063 99051 50303
41797 51119 10260 2019/ 40110 57010 70322 84963
22213 00200 21001 30910 41502 51502 6//// 80210 ICE /////=
0000117000
909
SNEO21 EEMH 111000
AAXX 11101
26038 27217 82402 11013 21015 39963 40004 51012 78588 88///
 333  10000 21016 60007 88/04
 555  1/100 21016 3/101 50001 52102=
26045 27367 83206 11018 21032 39993 49996 52016 78085 88///
 333  10003 21018 60007 88/10 91109
 555  21018 50002=
26058 27470 83304 11028 21048 39950 49985 52020 78587 80///
 333  11006 21034 69927 80/13
 555  21034 51011=
26115 27124 82504 10006 20006 39997 40005 50002 77176 88///
 333  10021 20003 69987 88/03
 555  1/000 20003 3/100 50020=
26135 27484 82902 11008 21028 39930 40005 52013 72270 88///
 333  10005 21012 60007 88/12
 555  1/100 21012 3/101 50007 52101=
26141 27247 83204 11027 21030 39848 49999 52017 77188 88///
 333  11010 21027 60007 88/07
 555  1/101 21027 3/102 51012 52103=
26231 27384 82903 10012 20005 39998 40013 52013 78087 88///
 333  10018 20002 69927 88/10
 555  1/002 20002 3/000 50018=
26242 27484 83002 11006 21023 39916 40003 52018 72477 88///
 333  10012 21011 60007 88/17 91109
 555  1/000 21011 3/100 50014 52101=
26247 27/60 /2703 10007 20007 39931 40011 52019 77177
 333  10016 20001 60007
 555  1/001 20001 3/000 50019=
0000032800
910
SNMK10 LYPG 111000
AAXX 11101
13463 42665 61801 10114 20064 30185 40245 53003 83870=
13459 42670 72502 10066 20066 39482 40243 58002 83830 333 83646 86399
=
13461 42670 71602 10159 20106 30236 40243 50003 87800 333 82840 86650
92312 92428=
13363 41658 42002 10034 20030 39323 48533 50003 71042 82530=
0000011000
911
UANT01 CWAO 111009
ARP BAW242 5513N04825W 1009 F370 MS59 283/62 KT
GCIVK QXT AOW 111009 F08A
0000027000
912
SXHW11 KWAL 111010
B159741A 011101053 
DY DH PC VB
14/01/11 10:00 25.48
14/01/11 09:45 25.48
14/01/11 09:30 25.48
14/01/11 09:15 25.48
14/01/11 09:00 25.48
14/01/11 08:45 25.46
14/01/11 08:30 25.46
14/01/11 08:15 25.46 12.3 40-0NN  16W
00000000