0000066800
633
USAA01 NZCM 110000
TTAA 61001 89664
99997 00056 18501 00512 ///// ///// 92601 07158 18518
85255 11341 17017 70716 21114 15006 50514 33959 24513
40666 44759 24520 30855 51765 24023 25975 45585 24514
20124 43786 24513 15318 43586 26009 10592 41586 23504
88320 52361 23026
77999
31313 48008 82219=

0000069700
87361=
0000011200
87368=
0000015000
87382
0000012800
87386
0000045600
87406
0000047700
87410
0000049800
87416=
0000045800
87478
0000043800
87484
0000050000
87523
0000054200
87562
0000060400
87623=
0000056400
88113
0000058500
88394=
0000058700
90637
0000060800
91720
0000070900
634
USAA01 NZCM 110000
TTAA 61001 89664
99997 00056 18501 00512 ///// ///// 92601 07158 18518
85255 11341 17017 70716 21114 15006 50514 33959 24513
40666 44759 24520 30855 51765 24023 25975 45585 24514
20124 43786 24513 15318 43586 26009 10592 41586 23504
88320 52361 23026
77999
31313 48008 82219=

0000069700
87361=
0000011200
87368
0000009600
87371
0000035800
87378
0000037300
87381=
0000039500
87413
0000041600
87422
0000043700
87443=
0000052100
87539
0000048000
87564
0000056300
87614=
0000062600
88120
0000060600
88395
0000066800
88685
0000068900
89190
0000077200
89731
0000062800
90636
0000071100
91718
0000373900
635
SMCN04 KWBC 110000
AAXX 11004
71003 17466 82212 11073 21094 39711 40098 51013 60001 771// 333
11073 21150 70000=
71009 15/// /0000 11071 21086 60001 333 11022 21192 70000=
71062 15/// /2706 11040 21079 38971 40061 53031 60001 333 10007
21088 70000=
71084 45/// /2316 11317 39939 49989 51008 6///1 333 11285 21334
7////=
71085 15866 82516 10023 21049 38686 40057 53023 60001 333 10042
21019 70000=
71099 17556 80202 11150 21171 30031 40052 51007 60001 771// 333
11116 21166 70000=
71218 17/// /0701 10014 20009 39698 40127 50002 69941 7//4/ 333
10022 20003 70078=
71236 45/// /2915 10023 21066 6///1 333 10041 21027 7////=
71260 13348 81106 11019 21033 39872 40111 58016 60001 333 11017
21085 70002=
71401 15/// /1607 10028 20010 39447 40132 53012 60001 333 10033
7////=
71607 15/// /0000 11035 21060 30235 40269 55000 60001 333 10000
21237 70000=
71609 13474 82408 11008 21038 30129 40270 56006 60001 888// 333
11008 21228 70000=
71623 43132 71612 10017 20014 39823 40165 58025 6///1 333 10017
21059=
71625 17125 81305 11042 21050 30042 40208 57012 69951 7004/ 333
11042 21212 70005=
71670 15/// ///// 11067 60001 333 70000=
71686 15666 82403 11065 21065 39039 49989 58006 60001 333 11042
21095 70000=
71705 13774 32206 11050 21081 30168 40259 53002 60001 82501 333
11022 21172 70000=
71706 13574 82007 11035 21063 30201 40264 57006 60001 885// 333
11034 21176 70000=
71731 11269 81506 11032 21045 39713 40175 57014 69901 77172 886//
333 11032 21123 48036 79999 90942 93100=
71751 45/// /1202 11030 21038 39772 40031 58011 6///1 333 11030
21049 7////=
71753 15/// /2403 11008 21045 30243 40273 58007 60001 333 11008
21206 70002=
71766 17/// /1208 10062 20054 30033 40104 58042 69951 7//4/ 333
10075 20035 70019=
71770 15/// /2402 10022 20004 39354 40128 53026 60001 333 10068
21010 70026=
71773 15/// /0000 11118 21128 39099 49961 58012 60001 333 11087
21135 70000=
71776 15/// /2707 10033 20015 39481 40123 53021 60001 333 10034
21001 70013=
71777 15/// ///// 10014 20009 39869 40119 58016 60001 333 10020
20001 70037=
71779 15/// /0000 11031 21032 39430 40093 58007 60001 333 11001
21082 70047=
71782 15/// /2006 10025 21039 38760 40080 53031 60001 333 10031
21030 70000=
71785 17/// /1003 10073 20056 30123 40139 58023 60021 7//4/ 333
10094 20070 70028=
71803 13580 72418 11079 21121 39999 40192 58012 60001 81570 333
11054 21160 70000=
71809 11562 8//// 11062 21091 30165 40193 55007 69901 78577 8757/
333 11054 21150 48085 70026 90983=
71819 17624 82518 11089 21104 30088 40131 58002 60001 771// 333
11089 21207 70000=
71835 15/// /1806 11077 21087 39523 40005 57012 60001 333 11075
21089 70002=
71849 47/// /2404 11052 21067 39675 49975 50006 6///1 7//4/ 333
11046 21100 7////=
71893 11256 81311 10064 20056 30066 40097 57045 69921 76162 886//
333 10073 20023 70002 90921=
71899 12574 81506 10038 20017 3//// 4//// 57065 60001 8452X 333
10056 20028 70012=
71906 11774 12608 11194 21246 30004 40056 51031 69901 70171 81500
333 11138 21195 44022 70022 90927=
71917 12974 70000 11261 21311 39875 49889 50002 60001 87050 333
11187 21308 79999=
71922 11469 82905 11056 21068 39509 49976 52019 69901 77177 885//
333 11051 21077 48051 70020 90973 93100=
71928 15/// /0701 11041 21056 38892 40075 53028 60001 333 11028
21174 70000=
71001 17266 82903 11155 21169 38998 49988 56007 60001 771// 333
11153 21243 70000=
71002 15666 82409 11121 21147 39547 40105 55000 60001 333 11121
21234 79999=
71005 15/// ///// 11048 21062 60001 333 11038 21157 70000=
71603 11266 82209 10019 20015 30236 40291 56007 69981 76187 8272/
333 10019 21126 42001 70008 90916 93101=
0000370100
636
SMCN04 KWBC 110000 RRA
AAXX 11004
71610 15566 80502 11054 21072 39950 40260 58006 60001 333 11047
21220 70000=
71621 12561 81605 10021 21010 30099 40207 55019 60001 886// 333
10021 21098 70014=
71624 11256 8//// 10018 20008 39971 40187 58016 60001 71022 886//
333 10018 21081 70020=
71022 15966 31006 10034 20013 39958 40001 58057 60001 333 10049
20028 70018=
71028 15/// /1511 10024 21084 39049 40084 58018 60001 333 10031
21102 70000=
71033 17/// /1005 11171 21192 39359 40000 51013 69971 7//4/ 333
11145 21171 70020=
71040 45/// /0000 11113 21137 30007 40218 51001 6///1 333 11084
21300 7////=
71061 15/// /2506 11024 21078 39251 40038 51031 60001 333 10005
21144 70000=
71123 11774 63010 11030 21077 39180 40060 52029 69901 70277 81571
333 11010 21174 48040 79999 90960=
71148 15/// /2905 11068 21074 39400 49983 51016 60001 333 11011
21129 70002=
71222 17/// /2402 11065 21072 39040 40004 58005 69921 7//4/ 333
11044 21097 70004=
71230 45/// /2611 11024 21104 39144 40038 52015 6///1 333 7////=
71231 15/// /3503 11024 21074 60001 333 10043 21049 70000=
71238 15/// /2803 11036 21067 60001 333 10014 21158 70000=
71239 15/// /3009 11079 21090 39520 49989 51020 60001 333 11027
21138 70000=
71247 15966 63603 11029 21082 39199 40057 53041 60001 333 10021
21081 70000=
71350 15/// /1906 11045 21067 30187 40255 56005 60001 333 11035
21187 70000=
71397 11469 82109 11001 21009 30241 40277 57008 69901 78522 885//
333 11001 21186 44030 79999 90942=
71407 15/// /2320 11330 21367 39958 49980 53015 60001 333 11296
21331 70000=
71474 15664 40000 11020 21057 38866 40109 58008 60001 333 11009
21052 70000=
71612 15/// /3401 11051 21077 30151 40245 56008 60001 333 11031
21108 70000=
71618 15966 33106 11276 21315 30035 40075 51011 60001 333 11259
21283 70000=
71628 11466 80606 11054 21079 30082 40228 57014 69901 70272 885//
333 11053 21131 44026 70002 90947=
71638 17/// /0905 10059 20037 30014 40119 58029 69931 7//4/ 333
10071 20026 70014=
71666 15/// /2304 11067 21118 30206 40253 53001 60001 333 11031
21166 70000=
71671 15/// /0000 11004 21029 30206 40269 56006 60001 333 11004
21157 70007=
71679 15/// /1707 11000 21048 39029 40039 58025 60001 333 10006
21058 70016=
71687 15/// ///// 10018 20014 39330 40111 58020 60001 333 10024
20001 70036=
71689 17466 82710 11119 21141 39566 40029 51028 60001 771// 333
11118 21138 70000=
71694 15/// /1403 11004 21010 39819 40189 58016 60001 333 11004
21132 70002=
71696 15/// /2905 11276 21312 30033 40072 51011 60001 333 11261
21283 70000=
71715 15/// /2108 11057 21088 30038 40226 55001 60001 333 11054
21133 70000=
71727 12574 60000 11108 21129 30016 40224 52001 60001 86500 333
11067 21271 79999=
71730 11/12 /1713 11025 21026 39725 40159 56011 69901 75655 333
11025 21095 43030 79999 90973=
71739 41474 81910 11021 21048 39757 40125 55003 6///1 77177 885//
333 11013 21112 90983=
71783 17/// /1001 10069 20055 30046 40119 58033 60011 7//4/ 333
10085 20068 70028=
71801 13574 12614 11063 21099 30041 40221 58005 60001 81500 333
11062 21128 70000=
71812 15966 61917 10069 20021 39827 40098 56009 60001 333 10078
20012 70000=
71813 17/// /2611 11074 21087 30162 40177 50000 69921 7//4/ 333
11073 21195 70002=
71833 45/// /1605 10008 20008 6///1 333 10008 21086 7////=
71876 17959 12602 11103 21112 39352 40026 51018 60001 710// 333
11074 21149 70000=
71027 15/// /1206 11034 21084 30237 40250 53005 60001 333 11033
21112 70005=
71046 45/// /2722 11255 30087 40105 53001 6///1 333 11244 21256
7////=
71064 45/// /2105 11296 39742 49965 58006 6///1 333 11295 21319
7////=
0000367700
637
SMCN04 KWBC 110000 RRB
AAXX 11004
71075 15/// /0502 11252 21285 39396 40024 51004 60001 333 11219
21252 70000=
71096 45/// /1105 11217 39163 49901 51021 6///1 333 11198 21219
7////=
71122 15/// /2806 11005 21155 38472 40069 53035 60001 333 10004
21048 70000=
71135 15/// /2812 11048 21078 38940 40026 52023 60001 333 11010
21079 70000=
71140 11258 83011 11099 21110 39490 40000 52019 60001 71022 8467/
333 11090 21187 70000 93100=
71200 17/// /0904 10067 20055 69981 7//4/ 333 10081 20067 70026=
71203 15566 80803 10022 20007 39611 40132 51012 60001 333 10038
21010 70003=
71213 15/// /1609 11028 21029 39845 40151 55012 60001 333 11027
21133 70000=
71235 15/// /0205 11009 21097 60001 333 10025 21017 70000=
71411 15/// /2216 10009 20001 30281 40294 56008 60001 333 10010
21131 70000=
71616 17/// /0101 11067 21079 30134 40260 58006 60011 7//4/ 333
11057 21229 70010=
71633 11356 81509 10010 21001 39880 40155 57021 60001 71022 886//
333 10011 21080 70002=
71634 15/// /2402 11107 21144 30085 40247 52003 60001 333 11022
21242 70023=
71667 15/// /0703 11036 21041 39792 40039 58011 60001 333 11029
21060 70000=
71672 45/// /1301 10001 20001 39926 40196 56015 6///1 333 10001
21144 7////=
71714 15/// /2201 11089 21104 30175 40254 58009 60001 333 11082
21258 70000=
71718 13983 32112 11059 21131 30145 40213 58006 60001 333 11048
21143 70000=
71726 15/// /2105 11068 21083 39651 40208 55005 60001 333 11067
21139 70000=
71750 15/// /1909 10004 21012 39828 40062 56012 60001 333 10005
21034 70002=
71756 15/// /0000 11000 21002 39013 40104 58020 60001 333 10009
21015 70016=
71758 15/// /2212 11073 21110 30189 40269 58007 60001 333 11044
21118 70000=
71767 15/// /1505 11000 21003 39885 40149 58020 60001 333 10004
21035 70002=
71769 17/// /1120 10068 20054 30089 40105 58038 69941 7//4/ 333
10078 20063 70006=
71774 17/// ///// 10046 20036 39671 40108 58029 60011 7//4/ 333
10065 20044 70030=
71775 17/// /0603 10069 20058 30125 40131 58024 69921 7//4/ 333
10076 20030 70123=
71780 17/// /3602 10068 20055 30086 40113 58038 60021 7//4/ 333
10083 20068 70070=
71810 15/// /2514 11050 21079 30122 40190 58002 60001 333 11049
21121 70000=
71814 15/// /2411 11076 21109 30157 40167 58001 60001 333 11074
21194 70000=
71851 15/// /3006 11089 21095 39642 49981 52015 60001 333 11064
21167 70000=
71894 45/// /0917 10060 30049 40058 56073 6///1 333 10072 20060
7////=
71897 11462 81420 10053 20038 3//// 4//// 57016 60041 761XX 888XX
333 10068 20050 70088 90922=
71902 12974 72711 11126 21171 30017 40026 55002 60001 87030 333
11116 21189 70000=
71911 455// 42210 11351 39927 49986 51011 6///1 333 11340 21371
7////=
71912 11658 80706 11208 21243 39852 40041 52011 69981 77177 885//
333 11149 21208 47019 70018 90983 93101=
71924 11674 82607 11290 21327 39764 49855 52017 69901 77177 885//
333 11275 21293 48005 79999 90983=
71926 13574 11202 11328 21364 30040 40065 53008 60001 81500 333
11294 21328 79999=
71023 15364 82809 11062 21079 39229 40003 53025 60001 333 11043
21118 70005=
71024 15/// /3301 11174 21188 60001 333 11144 21213 70006=
71032 15/// /2704 10047 21013 39292 40121 53004 60001 333 10058
21057 70005=
71036 17566 82910 11062 21083 39613 49993 53016 60001 771// 333
11061 21167 70000=
71041 15666 82209 11039 21072 30135 40284 58002 60001 333 11033
21174 70000=
71047 15/// ///// 11043 21068 60001 333 11013 21127 70000=
71063 15/// /0505 11056 21073 30126 40229 56013 60001 333 11056
21131 70004=
71114 17/// /2611 10071 20043 30091 40139 56004 60051 7//4/ 333
10095 20024 70208=
0000371900
638
SMCN04 KWBC 110000 RRC
AAXX 11004
71120 12874 62708 11064 21076 39351 40016 52024 60001 86031 333
11056 21171 70004=
71137 15/// /2601 11043 21070 39086 40033 52021 60001 333 11025
21079 70000=
71145 11140 80000 11083 21088 39701 49997 55000 69901 77177 886//
333 11083 21128 48034 70014 90983=
71185 15911 0//// 11048 21076 30145 40169 58003 60001 333 11043
21136 70000=
71202 15/// ///// 11077 21087 60001 333 11012 21137 70000=
71207 17/// /0101 10039 20034 30058 40122 58024 69941 7//4/ 333
10044 20009 70071=
71212 15/// /1602 11098 21104 39403 40243 56001 60001 333 11081
21270 70003=
71215 15/// /0201 10031 20000 39783 40128 53011 60001 333 10050
21004 70000=
71217 15/// /0209 11045 21105 60001 333 10012 21105 70000=
71220 45/// /1113 10045 6///1 333 10055 20034 7////=
71233 15/// /3101 11046 21062 60001 333 10005 21103 70000=
71234 15/// /3006 11028 21070 38871 40057 53028 60001 333 10044
21036 70000=
71237 45/// /2301 11108 21142 39225 40063 53021 6///1 333 11060
21214 7////=
71242 17/// /2204 11072 21077 69941 7//4/ 333 11022 21147 70004=
71248 15/// /0000 11071 21099 38759 40083 53035 60001 333 11025
21151 70000=
71430 15/// /1512 10014 21005 30108 40206 56020 60001 333 10014
21018 70017=
71431 15/// /0907 10019 20006 30094 40191 56021 60001 333 10019
21047 70017=
71432 15/// /1401 10018 20000 30084 40182 58019 60001 333 10031
21063 70020=
71443 15/// /2111 11079 21091 39569 49984 50011 60001 333 11068
21107 70002=
71444 15/// /3003 11070 21076 39221 49985 51019 60001 333 11062
21176 70000=
71447 17/// /3104 11060 21075 39454 40001 51024 69921 7//4/ 333
11020 21091 70002=
71538 11558 81608 10027 20026 39905 40137 58031 60001 71022 885//
333 10039 21029 70012=
71605 17/// /3403 10049 20043 39975 40125 58024 60021 7//4/ 333
10066 20032 70128=
71614 15/// /1404 11027 21058 30164 40232 56011 60001 333 11024
21192 70000=
71619 15/// /2906 11088 21125 30171 40233 51002 60001 333 11074
21171 70000=
71622 15/// ///// 10017 20012 39822 40164 58024 60001 333 10019
21058 70026=
71639 11156 81404 10013 20011 39941 40187 58016 60001 71042 886//
333 10013 21090 70024=
71754 15/// /2502 11110 21128 39352 40026 51019 60001 333 11076
21156 70009=
71765 15/// /1915 10069 20023 39826 40098 57008 60001 333 10077
20011 70000=
71772 17/// /1313 10072 20052 30108 40114 57032 69921 7//4/ 333
10077 20061 70002=
71781 45/// /1118 10067 20048 30072 40096 58045 6///1 333 10074
20064 7////=
71860 13783 62712 11043 21114 38668 40076 52035 60001 81571 333
10001 21062=
71029 15/// /2709 11301 21332 39876 49916 58001 60001 333 11251
21305 70002=
71078 17524 80608 11195 21220 39564 40017 5/012 60001 771// 333
70000=
71088 45/// /2812 11255 6///1 333 11220 21259 7////=
71097 452// 80507 11215 39457 49939 53021 6///1 333 11187 21215
7////=
71129 13774 52910 11088 21104 39196 40037 53027 60001 81571 333
11077 21142 70000=
71188 13974 52710 11066 21138 30163 40207 55003 60001 80006 333
11055 21159 44036 70000=
71201 17/// ///// 10068 20051 69901 7//4/ 333 10074 20047 70063=
71219 45/// /1109 10053 20004 39988 49998 58059 6///1 333 10054
20029 7////=
71232 15/// /2608 10004 21148 38554 40040 51033 60001 333 10018
21013 70000=
71240 15/// /2309 11075 21098 39194 40047 51030 60001 333 11050
21122 70000=
71352 15/// /1608 10015 20011 39712 40173 58017 60001 333 10015
21084 70015=
71412 15/// /2212 11032 21064 30255 40265 56005 60001 333 11031
21163 70000=
71441 45/// /1903 11027 21048 39661 49970 51008 6///1 333 11026
21116 7////=
71510 15/// /2708 11064 21070 39312 40030 53027 60001 333 11057
21139 70002=
0000369100
639
SMCN04 KWBC 110000 RRD
AAXX 11004
71611 15/// /0304 11049 21073 60001 333 11045 21212 70000=
71627 11566 80206 11070 21094 30200 40246 56009 69901 70272 885//
333 11045 21142 43015 79999 90942 93100=
71642 12270 81806 11037 21046 39562 40114 56009 60001 886// 333
11037 21100 79999=
71675 17466 80902 11076 21088 39737 40018 58002 60001 771// 333
11071 21115 70000=
71681 45/// /1402 11006 21023 6///1 333 11000 21058 7////=
71684 17240 81510 11029 21032 39847 40154 55012 60001 710// 333
11028 21131 70000=
71685 15266 81505 10006 20002 39588 40129 53013 60001 333 10011
20000 70028=
71691 15466 62609 11089 21107 30176 40204 58006 60001 333 11062
21176 70000=
71697 17459 81106 10017 20007 30019 40193 56017 60001 710// 333
10017 21085 70013=
71709 13074 02313 11039 21064 30230 40244 50001 60001 333 11039
21104=
71725 15/// /1708 11047 21069 39750 40178 58010 60001 333 11047
21108 70000=
71738 11348 82008 11020 21027 39740 40096 57011 69901 77122 885//
333 11020 21066 44040 70002 90941=
71752 15/// /1705 10032 20019 39965 40185 56017 60001 333 10033
21066 70018=
71768 15/// /3004 10027 20001 39575 40124 50007 60001 333 10034
21012 70000=
71784 17/// /0302 10055 20039 39924 40131 58024 69941 7//4/ 333
10067 20042 70078=
71786 15/// /2611 11063 21074 38265 40088 53031 60001 333 11045
21073 70000=
71820 15/// /1406 10007 21010 30099 40215 56015 60001 333 10007
21070 70004=
71826 17/// /1701 11184 21221 39891 49934 51025 69921 7//4/ 333
11170 21197 70002=
71840 15/// /2808 11053 21061 60001 333 11011 21102 70005=
71896 15966 01709 11023 21039 39251 40084 58003 60001 333 11009
21069 70033=
71030 15/// /2509 10009 21014 30174 40274 56007 60001 333 10010
21173 70000=
71039 17/// /0000 11188 21207 39314 49986 58006 69941 7//4/ 333
11123 21188 70029=
71059 45/// ///// 11284 39870 49963 51005 6///1 333 11237 21284
7////=
71060 15/// /3103 11020 21097 38518 40043 53033 60001 333 10034
21039 7////=
71072 17332 80803 11036 21040 39794 40041 58011 60001 710// 333
11032 21063 70000=
71098 17/// /1708 11003 21003 39633 40166 58016 60071 7//4/ 333
11003 21093 70132=
71125 13574 72610 11052 21085 39406 49994 53019 60001 87572 333
11040 21118 93100=
71131 15/// /3006 11056 21081 38777 40040 53024 60001 333 11037
21100 70000=
71152 15/// /2722 11040 21058 30223 40237 58004 60001 333 11040
21098 70000=
71170 15/// /2910 11087 21098 60001 333 11075 21184 70000=
71179 45/// /2522 11178 39189 40043 58006 6///1 333 11178 21250
7////=
71209 45/// /1512 10069 20054 6///1 333 10093 20041 7////=
71251 15/// /3304 11044 21088 39140 40071 53038 60001 333 10033
21044 70000=
71288 15/// /2605 11290 21320 39937 49963 58004 60001 333 11290
21334 70000=
71295 17/// /1303 11057 21066 39542 49989 58007 60021 7//4/ 333
11056 21082 70021=
71356 15/// /3001 11329 21369 39993 40063 50007 60001 333 11301
21331 70000=
71358 15/// /2807 11248 21277 39856 49891 51012 60001 333 11226
21312 70000=
71365 15/// /3304 11247 21271 39844 40066 53017 60001 333 11220
21274 70013=
71371 15561 80205 11070 21090 30210 40245 58009 60001 333 11028
21165 70000=
71373 15/// /1603 11015 21044 60001 333 11013 21160 70011=
71378 15/// /1906 11086 21111 30025 40244 56004 60001 333 11073
21285 70000=
71389 45/// /0000 11095 21119 6///1 333 11085 21263 7////=
71390 45/// /2609 11060 6///1 333 11053 21176 7////=
71406 45/// /2626 11059 21089 30123 40133 50001 6///1 333 11054
21161 7////=
71410 17240 80801 11097 21106 39707 49989 50005 60001 771// 333
11093 21123 70000=
71419 45/// /2211 11013 6///1 333 11013 21129 7////=
0000371000
640
SMCN04 KWBC 110000 RRE
AAXX 11004
71446 15/// /2814 11044 21089 39041 40019 53023 60001 333 11021
21064 70000=
71600 15564 82615 11005 21071 30310 40316 58003 60001 333 11005
21059 70010=
71617 15/// /1302 11102 21135 30049 40226 54000 60001 333 11064
21258 70000=
71688 17/// /1502 10005 21001 39073 40104 58023 60011 7//4/ 333
10014 21017 70107=
71707 12974 42410 11070 21114 30190 40270 58006 60001 84070 333
11047 21120 70004=
71728 12682 62105 11067 21109 39979 40208 56006 60001 86500 333
11049 21139 70000=
71787 15/// /2311 11034 21048 39758 40264 56003 60001 333 11025
21162 70000=
71799 11469 81405 10071 20062 30102 40126 58028 69981 76122 885//
333 10099 20071 70010 90910=
71815 12574 72618 11039 21067 30191 40223 58004 60001 87500 333
11039 21087 70022=
71831 11466 81713 11020 21037 39815 40098 55009 69901 70272 885//
333 11019 21077 48074 79999 90953=
71845 11256 81806 11078 21090 39534 40012 57012 69901 77177 885//
333 11074 21090 44037 90983=
71886 15/// /3006 11058 21061 39395 40009 51017 60001 333 11053
21148 70000=
71925 11456 82705 11294 21333 39926 49969 58005 69901 77177 88500
333 11292 21338 42014 79999 90983=
71934 11569 70000 11182 21209 39756 40022 53016 69941 77177 85570
333 11176 21213 47025 70004 90973 93101=
71945 13774 53203 11152 21184 39553 40035 52015 60001 85500 333
11148 21184 70018=
71154 15/// /2413 10025 21066 60001 333 10036 21024 70000=
71156 15/// /2903 11030 21085 38953 40052 53030 60001 333 10009
21100 70000=
71158 17/// /2602 11070 21079 39701 49978 53007 69991 7//4/ 333
11060 21105 70009=
71163 45/// /3304 11264 21289 39674 40031 52011 6///1 333 11233
21264 7////=
71167 15966 03006 11046 21103 38956 40058 53031 60001 333 10006
21095 70000=
71178 15/// /2423 11064 21107 30158 40191 57011 60001 333 11048
21121 70000=
71183 15/// /0107 11070 21093 30204 40245 56008 60001 333 11040
21133 70000=
71189 45/// /0802 11118 6///1 333 11115 21259 7////=
71196 15/// /1204 11049 21053 30000 40205 57012 60001 333 11048
21221 70004=
71198 45/// /3604 11096 21115 6///1 333 11095 21183 7////=
71252 15/// /0902 11058 21111 38539 40139 50008 60001 333 10002
21128 70000=
71256 45/// /2304 11041 21074 39105 40047 53021 6///1 333 10008
21088 7////=
71261 15/// /1509 10020 20015 39880 40143 56026 60001 333 10021
21061 70006=
71268 15/// /1705 11036 21054 39410 40032 58024 60001 333 11030
21078 70002=
71271 15/// ///// 11039 21075 60001 333 11017 21075 70000=
71272 15966 03604 11310 21347 39683 40056 56024 60001 333 11270
21310 70000=
71279 15/// /2902 11105 21124 30124 40193 53002 60001 333 11090
21197 70000=
71290 15966 01708 11043 21063 39233 40072 56001 60001 333 11028
21138 70000=
71294 15/// ///// 11017 39786 40198 57013 60001 333 11017 21154
70000=
71355 17/// /2130 11083 21128 39827 49913 56001 69921 7//4/ 333
11053 21323 70002=
71363 15/// /2203 11316 21350 39925 49982 53006 60001 333 11315
21368 70000=
71364 15/// /2807 11251 21279 39938 40076 51002 60001 333 11229
21271 70000=
71368 17/12 /1610 10014 20013 39779 40175 58019 60001 710// 333
10015 21083 70013=
71369 17566 83604 11081 21085 39328 40046 53022 60001 771// 333
11081 21172 70000=
71375 45/// /2914 11060 21087 6///1 333 11059 21126 7////=
71377 15/// /0104 11071 21094 30192 40242 56011 60001 333 11057
21184 70000=
71382 15/// ///// 11097 21102 39255 40243 56001 60001 333 11084
21212 70018=
71384 15/// /2706 11055 21081 30237 40245 58008 60001 333 11052
21142 70000=
71385 45/// /2222 11046 21074 6///1 333 11046 21113 7////=
71391 45/// ///// 11058 21068 6///1 333 11056 21143 7////=
0000009300
641
SAIN90 VIDN 110530
METAR VIDN 110530Z 33005KT 6000 SCT040 SCT080 15/10 Q1018=
0000075000
642
SSVX08 KARS 110530
ZZYY 13002 10014 1200/ 720444 023132 6112/
33311 88872 20001 32153 43671 20020 32152 20040 32148 43670
20080 32043 20100 31854 20120 31779 20140 31775 20180 31731
20300 31467 20500 31069
444 20120 10014 1140/ 521//=
ZZYY 43001 10014 1200/ 708036 110173 6112/
33311 88872 20001 32703 43345 20040 32525 20060 31562 20080 31344
20100 31278 20120 31229 20140 31181 20300 31016 20500 30776
444 20120 10014 1054/ 521//=
ZZYY 43001 11014 0400/ 708038 110177 6112/
11119 10268 29080
22219 00270
444 20120 11014 0351/ 521//=
ZZYY 32319 10014 1200/ 507990 110070 6113/
33311 88870 20020 32450 20080 32383 20100 32026 20120 31803
20180 31291 20300 31109 20500 30831
444 20130 10014 1310/ 521//=
0000010900
643
UANT01 CWAO 110531
ARP VIR2C 5015N04425W 0531 F380 MS57 317/49 KT
GVROC DDL XXW 110531 F92A
0000011100
644
UANT01 CWAO 110531
ARP DAL411 4736N05205W 0531 F360 MS65 291/42 KT
N1501P QXS YYT 110531 F53A
0000011000
645
UANT01 CWAO 110531
ARP DLH457 5601N04859W 0531 F330 MS61 284/78 KT
DABYA QXT AME 110531 F53A
0000011100
646
UANT01 CWAO 110531
ARP AWE796 4545N04645W 0531 F370 MS60 311/60 KT
N281AY DDL XXN 110531 J26A
0000040000
647
SMRO48 YRBK 110000 CCE
AAXX 11001
15123 02/// /2004 10013 20009 39730 40227 52009 6///1 333 4//// 55300
0////
20000 3//// 55000 0//// 20106 3//// 6///7 91005 91106 555 6////=
15124 02/// /2301 10016 20012 39666 40222 51010 60001 333 55000 60007
91002
91104 555 60000=
15238 03/// /3001 10019 21005 39579 42805 51009 6///1 333 4//// 55013
6///7
91002 91104 555 6////=
0000015400
648
SMRO46 YRBK 110000 CCB
AAXX 11001
15337 03/// /3107 10043 20023 39966 40175 51018 6///1 333 4//// 55000
6///7
91009 91113 555 6////=
0000014800
649
SSVX13 LFVW 110531
ZZYY 13577 11014 0520/ 724355 048310 6112/
11119 40214
33311 88872 20000 41500
444 50101 80070 80008 9/015=
0000028800
650
SSVX02 LFVW 110531
ZZYY 41647 11014 0527/ 724135 048663 6111/
22219 00244
33311 88872 20000 32445 43668
444 2011/ 11014 0523/ 50101 9/015=
ZZYY 41650 11014 0527/ 723294 049616 6111/
22219 00247
33311 88872 20000 32468 43746
444 2011/ 11014 0523/ 50101 9/015=
0000397000
651
SXPA01 KWNB 110500
ZZYY 51021 11014 05001 701900 154900 6113/ 11119 01007 22219
00265 33311 88872 20001 32650 43508 20025 32647 20050 32642 20075
32631 20100 32602 20125 32510 20150 32389 20200 31249 20250 31182
20300 31113 20500 30931 444 20130 11014 0500/ 34684 40500 521//
60401=
ZZYY 52002 11014 05001 302000 164900 6113/ 11119 10271 29087
22219 00301 33311 88872 20001 33007 43510 20025 33014 20050 33002
20075 32971 20100 32938 20125 32871 20150 32703 20200 32119 20250
31330 20300 31149 20500 30841 444 20130 11014 0500/ 34957 40500
521// 60401=
ZZYY 52316 11014 05001 507900 179800 6113/ 11119 10281 22219
00295 33311 88872 20001 32953 43494 20025 32955 20050 32959 20075
32883 20125 32675 20150 32455 20200 32156 20250 31695 20500 30845
444 20130 11014 0500/ 34946 40500 521// 60401=
ZZYY 52001 11014 05001 101900 165100 6113/ 11119 00207 10290
29075 33311 88872 20025 32907 20050 32904 20075 32898 20100 32851
20125 32778 20150 32486 20200 31857 20250 31191 20300 31122 20500
30881 444 20130 11014 0500/ 34955 40500 521// 60401=
ZZYY 51007 11014 05001 705000 139900 6113/ 11119 01306 444 20130
11014 0500/ 521// 60401=
ZZYY 51306 11014 05001 502100 170000 6113/ 11119 00808 10270
22219 00281 33311 88872 20001 32810 43580 444 20130 11014 0500/
521// 60401=
ZZYY 52312 11014 05001 502000 179800 6113/ 11119 00707 10278 444
20130 11014 0500/ 521// 60401=
ZZYY 51018 11014 05001 505000 124800 6113/ 11119 01407 33311
88872 20020 32554 20060 32495 20080 32473 20100 32302 20120 31773
20140 31501 20180 31317 20300 31211 20500 30892 444 20130 11014
0500/ 34985 40500 521// 60401=
ZZYY 51006 11014 05001 708900 140200 6113/ 11119 00810 33311
88872 20040 31679 20080 31255 20100 31202 20140 31139 20180 31090
20500 30799 444 20130 11014 0500/ 34990 40500 521// 60401=
ZZYY 51010 11014 05001 500000 170000 6113/ 11119 00807 40066
22219 00273 33311 88872 20001 32726 43561 20005 32726 43284 20010
32726 43569 20025 32722 43570 20125 32476 43551 20150 32046 20200
31439 20250 31282 20300 31104 20500 30847 444 20130 11014 0500/
34983 40500 521// 60401=
ZZYY 51308 11014 05001 507900 124900 6113/ 11119 22219 00263
33311 88872 20001 32629 43468 20020 32619 20040 32616 20060 32616
20080 32603 20100 32580 20140 32187 20300 31044 20500 30795 444
20130 11014 0500/ 35006 40500 521// 60401=
ZZYY 51310 11014 05001 508000 169900 6113/ 11119 10283 33311
88872 20025 32943 20050 32935 20075 32935 20100 32878 20125 32692
20200 32160 20250 31608 20300 31230 20500 30772 444 20130 11014
0500/ 35008 40500 521// 60401=
ZZYY 51023 11014 05001 700000 154900 6113/ 11119 01106 10254
22219 00254 33311 88872 20001 32541 43521 20025 32540 20050 32523
20075 32496 20100 32442 20125 32289 20150 31936 20200 31528 20250
31343 20300 31237 20500 30819 444 20130 11014 0500/ 34925 40500
521// 60401=
ZZYY 52003 11014 05001 105100 164900 6113/ 11119 00409 10286
29091 22219 00294 33311 88872 20001 32941 43400 20025 32941 20050
32938 20075 32941 20100 32911 20125 32627 20150 32192 20200 31363
20250 31053 20300 30958 20500 30766 444 20130 11014 0500/ 35037
40500 521// 60401=
ZZYY 32316 11014 05001 702000 110000 6113/ 11119 10229 22219
00251 33311 88872 20001 32512 43394 444 20130 11014 0500/ 521//
60401=
ZZYY 52006 11014 05001 108000 165100 6113/ 11119 00407 10284
29089 22219 00290 33311 88872 20001 32900 43410 20025 32900 20050
32896 20075 32896 20100 32849 20125 32630 20150 32409 20200 31374
20250 31063 20300 31007 20500 30827 444 20130 11014 0500/ 35015
40500 521// 60401=
ZZYY 51014 11014 05001 505000 139900 6113/ 11119 10262 444 20130
11014 0500/ 521// 60401=
ZZYY 51019 11014 05001 504900 154900 6113/ 11119 00607 22219
00274 33311 88872 20001 32738 43555 20025 32727 20050 32723 20075
32723 20100 32723 20125 32727 20150 32615 20200 31632 20250 31205
20300 31105 20500 30847 444 20130 11014 0500/ 34928 40500 521//
60401=
0000179400
652
SZPS01 AMMC 110533
CREX++
T000103 A001 D01021 D06025++
-0204190 14737360 56130 2014 01 11 05 26 3028 11 07 00 01
01162 0094 01165 0098 01163 0096 01160 0094 01164 0099 01160 0095+
-0669280 15640860 56363 2014 01 11 05 26 //// 11 07 00 01
00814 -0068 00809 -0071 00800 -0077 00799 -0076 00797 -0075 00792 -0078+
-0942890 15995560 56670 2014 01 11 05 26 3042 11 07 00 01
00870 -0041 00869 -0042 00870 -0040 00869 -0040 00868 -0040 00867 -0040+
-1072080 16580190 57131 2014 01 11 05 26 //// 11 07 00 01
03379 2540 03380 2545 03380 2548 03380 2551 03380 2555 03380 2558+
-1551560 16718860 57210 2014 01 11 05 26 //// 11 07 00 01
01086 -0067 01075 -0075 01075 -0071 01073 -0070 01078 -0061 01073 -0062+
-1775690 16830030 57320 2014 01 11 05 26 3015 11 07 00 01
01139 -0056 01138 -0054 01136 -0053 01134 -0053 01133 -0051 01132 -0049+
-4397330 16861610 65180 2014 01 11 05 26 2890 11 07 00 01
01907 0339 01920 0346 01927 0348 01933 0348 01923 0333 01929 0334+
-2120470 -15978530 65980 2014 01 11 05 26 3013 11 07 00 01
00770 0018 00745 -0005 00758 0009 00739 -0008 00737 -0008 00779 0035+
-2113810 -17518140 66600 2014 01 11 05 26 //// 11 07 00 01
01359 0078 01360 0083 01352 0078 01351 0082 01347 0082 01343 0082+
-1382670 -17176110 66840 2014 01 11 05 26 3012 11 07 00 01
00882 0050 00885 0056 00875 0049 00872 0050 00871 0052 00859 0043+
-1813250 17842750 67050 2014 01 11 05 26 3033 11 07 00 01
01572 0095 01564 0090 01563 0094 01564 0100 01554 0094 01545 0089+
-1760530 17743810 67070 2014 01 11 05 26 3033 11 07 00 01
01616 0005 01614 0008 01608 0007 01605 0010 01600 0009 ///// ////+
-0850250 17919500 67440 2014 01 11 05 26 3030 11 07 00 01
02105 -0009 02109 -0001 02097 -0009 02104 0003 02096 -0001 02093 0000++
7777

00000000