0000108200
893
SMAB11 ZATI 110600
AAXX 11064
13600 12960 02702 10080 20059 30183 40236 52008 60002 333 20064
     30///=
13601 12665 83202 10114 20092 30104 40205 52005 60002 885// 333
     20110 30/// 88636=
13602 NIL=
13610 12960 41806 10056 20028 39805 40237 54002 60002 84030 333
     20050 30/// 84360=
13611 12660 71404 10116 20079 30102 40193 54000 60002 85530 333
     20100 30/// 85633=
13619 12660 70000 10020 20017 39467 42843 54000 60002 87500 333
     20010 30/// 87640=
13622 12665 60000 10114 20084 30209 40217 54000 60002 86500 333
     20096 30/// 86640=
13623 12960 80000 10062 20059 30219 40225 54000 60002 8802/ 333
     20060 30/// 88460=
13624 12960 71404 10064 20051 30192 40232 52006 60002 87030 333
     20052 30/// 87360=
13625 NIL=
13629 12966 01406 10038 20038 39868 42411 52006 60002 333 20020
     30///=
13631 NIL=
13632 12660 70000 10090 20071 30090 40257 52011 60002 87500 333
     20085 30/// 87636=
13633 12963 70902 10120 20078 30177 40215 52005 60002 87030 333
     20097 30/// 87360=
0000252800
894
SMIY01 LIIB 110600
AAXX 11064
16008 12560 70000 10010 21011 38548 48506 58002 60002 87200 333 20010
      44042 55/// 2//// 87625 92865=
16084 11/02 90101 10078 20072 30051 40220 54000 60002 74544 333 20076
      31/// 55064 20469 89/01=
16088 11625 80000 10070 20067 30103 40223 5//// 60002 710// 8623/ 333
      20068 30/// 55/// 2//// 86645=
16110 11596 80000 10086 20074 30215 40219 53004 60002 71022 886// 333
      20086 30/// 55000 20050 88720 555 0////=
16134 12980 03015 10040 21037 37847 48520 53002 60002 333 20030 44046
      55079 2//// 92845 95187 444 56164=
16153 12598 70107 10110 20060 39940 40206 56008 60002 83530 333 20104
      30/// 55034 2//// 83623 84357 555 0////=
16158 12560 69902 10080 20068 30212 40220 54001 60002 86800 333 20075
      30/// 55005 2//// 82825 85650=
16206 12570 40507 10046 20028 30212 40220 53000 60002 81131 333 20044
      30/// 55/// 2//// 81820=
16219 NIL=
16252 12961 30000 10068 20038 39277 42831 53004 60002 80008 333 20060
      31/// 55057 2////=
16280 12597 70102 10114 20098 39990 40213 54000 60002 87500 333 20112
      30/// 55000 2//// 87630 555 0////=
16310 42998 00204 10100 20081 39991 40215 53002 6///2 333 20096 30///
      55063 555 0////=
16320 12560 32702 10062 20045 30214 40227 53006 60002 81230 333 20056
      31002 55015 20499 55300 81820 555 0000/=
16325 11995 50000 10082 20082 30204 40219 5//// 60002 71011 85020 333
      20078 31/// 55/// 2//// 85459 98020 555 0100/=
16360 12997 00206 10104 20093 30084 40221 53004 60002 333 20102 30///
      55019 2//// 555 0000/=
16400 12498 51308 10126 20094 39929 40220 54001 60002 84270 333 20126
      30/// 55072 2//// 55300 84819 83358 555 0213/=
16420 12997 52803 10102 20063 30145 40211 53001 60002 82036 333 20100
      30/// 55083 2//// 82359 555 0100/=
16429 12966 61313 10130 20111 30190 40201 53005 60002 83034 333 20110
      31/// 55074 2//// 55300 83360=
16470 12962 32117 10146 20131 39960 40195 54000 60002 80001 333 20144
      30/// 55085 2//// 55300 22/// 95000=
16480 12997 33502 10138 20130 30152 40213 53003 60002 80001 333 20138
      30/// 55088 2//// 55300 555 0100/=
16522 12998 20503 10108 20089 39950 40196 56001 60002 80001 333 20108
      30/// 55073 2//// 555 0////=
16539 12897 71210 10108 20091 30074 40190 56002 60002 82031 333 20104
      31/// 55/// 2//// 82357 555 0////=
16550 12598 63108 10120 20075 30031 40212 54004 60002 82870 333 20110
      30/// 55068 2//// 82830 83646 555 0////=
0000276000
895
SMIY02 LIIB 110600
AAXX 11064
16021 11/02 93604 11022 21060 37972 48494 58000 60002 74544 333 21042
      44182 55/// 2//// 89/02 92888=
16022 11680 32111 10010 21068 37862 48499 51003 60002 70340 82501 333
      21021 48111 55042 2//// 82640 92865 444 86191=
16033 11557 70000 10006 21013 38819 48520 54000 60002 710// 87600 333
      21014 47042 55/// 2//// 87720 92842=
16040 13865 60000 10036 20030 39288 42811 5//// 60002 86050 333 20034
      31/// 55/// 2//// 86357=
16052 NIL=
16061 12562 73602 10060 20060 39371 42816 58001 60002 87500 333 20060
      30/// 55010 2//// 87623=
16098 11715 70000 10070 20052 30170 40222 54000 60002 71022 87030 333
      20054 31/// 55/// 2//// 87356=
16138 11308 80000 10054 20034 30209 40220 54001 60002 744// 886// 333
      20054 31/// 55/// 2//// 88707=
16148 11715 73201 10080 20056 30212 40225 53004 60002 71042 87200 333
      20072 30/// 55044 2//// 55300 87650=
16168 12875 21903 10064 20051 39470 42823 54000 60002 81031 333 20064
      31/// 81357=
16172 11550 60000 10068 20061 39927 40231 53001 60002 71022 86500 333
      20064 30/// 55/// 2//// 86620=
16179 12575 80000 10090 20046 39531 42820 54000 60002 8213/ 333 20090
      30/// 82824 86358=
16224 11/00 90303 10058 20037 39891 40216 55001 60002 74544 333 20058
      31/// 55000 2//// 89/00=
16232 11596 52002 10100 20081 30164 40218 53003 60002 71011 84501 333
      20098 30/// 55027 20306 84626 555 0////=
16245 12560 50403 10076 20076 30198 40225 55005 60002 82250 333 20072
      30/// 55/// 2//// 82620 83356=
16253 11835 30305 10052 20035 30206 40218 53004 60002 71011 83040 333
      20052 30/// 55000 20214 83358=
16258 11/01 91906 10060 20053 39216 42817 53004 60002 74740 333 20056
      31/// 55/// 2//// 89/00=
16263 12975 01606 10074 21015 38952 48517 56001 60002 333 20058 31///
      55/// 2//// 444 67061=
16294 11596 8//02 10110 20099 30022 40217 5//// 60002 71011 8553/ 333
      20110 30/// 85620 83356 555 0////=
16337 42998 22604 10098 20012 39645 40220 52003 6///2 80001 333 20088
      30/// 55/// 2//// 555 0100/=
16344 42980 02508 10060 21103 38340 48521 54000 6///2 333 20052 43020
      55085 21493 95000 95100=
16434 13970 31811 10080 20027 39019 48520 55001 60002 80001 333 20068
      30/// 55/// 2//// 95000 95100=
16450 11962 43011 10080 20048 39046 48513 56003 60002 70341 82031 333
      20058 30/// 82359=
16459 12960 52903 10068 20061 30196 40232 53006 60002 80001 333 20068
      30/// 55/// 2////=
16546 11256 33201 10044 20024 30160 40189 55001 60002 71011 82601 333
      20044 30/// 55/// 2//// 82703=
16564 12598 50615 10142 20104 30053 40194 53001 60002 84401 333 20126
      30/// 55/// 2//// 84625 555 0////=
0000027200
896
SMAY01 UGEE 110600
AAXX 11061
37682 32997 10000 11151 21164 38133 48547 58027 80004 333 21177 70000=
37717 32599 22001 11078 21100 38073 48509 57001 82501 333 21107 70000=
37788 41394 81501 11101 21115 39277 40353 52003 77172 886// 333 21103
85707=
0000011000
897
UANT01 CWAO 110604
ARP AAL54 4844N05111W 0604 F360 MS65 297/52 KT
N185AN DDL XXW 110604 F23A
0000011000
898
UANT01 CWAO 110604
ARP BAW284 5704N06041W 0604 F350 MS60 281/83 KT
GCIVX QXS YHO 110604 F23A
0000010900
899
UANT01 CWAO 110605
ARP LOT46 5335N05556W 0604 F390 MS64 283/70 KT
SPLRD QXS YAY 110605 L12A
0000011000
900
UANT01 CWAO 110605
ARP BAW292 4642N05148W 0604 F370 MS64 302/46 KT
GVIIC QXS YYT 110605 F02A
0000011100
901
UANT01 CWAO 110605
ARP GTI603 5010N04450W 0556 F350 MS63 323/67 KT
N850GT DDL H04 110605 F33A
0000015700
902
SSVX13 LFPW 110600
ZZYY 62507 11014 0600/ 747353 011770 6113/ 11119 40177 57001 22219
 00119 444 20130 11014 0555/ 50101 80104 80031 9/015=
0000008400
903
SAIN90 VOBM 110600
METAR VOBM 110600Z 02002KT 8000 NSC 27/08 Q1019=

0000011600
904
SMIN90 VOMD 110600
AAXX 11064
43360 31596 10508 10288 20186 39999 40147 70500 81400
  333 58006=
0000011000
905
SMIN90 VOMM 110600
AAXX 11064
43220 32597 30904 10280 20197 30150 40157 83400
  333 58009=
0000011000
906
SMIN90 VOMM 110600
AAXX 11064
43221 32597 41602 10288 20189 30140 40153 84800
  333 58002=
0000010400
907
SMIN90 VECC 110600
AAXX 11064
42809 31995 00000 10246 20141 40166 70500
  333 59003=
0000042100
908
SMCY01 LCLK 110600
AAXX 11064
17600 12565 50504 10112 20079 30229 40239 53016 60002 83802
  333 10118 20094 30006 50431 55083 70000 81630 83836 92428=
17601 12681 33303 10084 21002 30204 40236 52017 60002 81502
  90550 333 20060 30000 55064 55304 2//// 70000 81635 83075=
17607 NIL=
17609 12565 13004 10103 20065 30233 40237 52018 60002 81501
  333 10120 20089 30006 50261 55061 70000 81625=
0000068500
909
UDAF02 EGRR 110607
AMDAR 1101
LVR EU2454   2839N 03605E 110101 F359 MS532 295/054 TB0 S031=
LVR EU2454   2856N 03511E 110108 F359 MS547 309/062 TB0 S031=
LVR EU2454   2909N 03415E 110115 F360 MS550 305/061 TB0 S031=
LVR EU2454   2924N 03320E 110122 F359 MS565 304/056 TB0 S031=
LVR EU2454   2939N 03224E 110129 F359 MS557 308/045 TB0 S031=
LVR EU2454   3000N 03131E 110136 F359 MS557 312/048 TB0 S031=
LVR EU2454   3036N 03049E 110143 F359 MS557 316/049 TB0 S031=
LVR EU2454   3109N 03005E 110150 F360 MS565 315/056 TB0 S031=
LVR EU2454   3143N 02922E 110157 F360 MS565 333/060 TB0 S031=
LVR EU2454   3219N 02843E 110204 F359 MS562 340/076 TB0 S031=
0000069300
910
UDEU02 EGRR 110607
AMDAR 1105
ASC EU1110   5219N 00443E 110558 F020 PS032 254/031 TB0 S031
333 F020 VG014=
ASC EU1110   5218N 00444E 110559 F022 PS032 258/030 TB0 S031
333 F022 VG011=
ASC EU1110   5218N 00444E 110559 F024 PS027 259/028 TB0 S031
333 F024 VG008=
ASC EU1110   5217N 00444E 110559 F027 PS022 260/029 TB0 S031
333 F027 VG006=
ASC EU1110   5217N 00444E 110559 F030 PS015 260/028 TB0 S031
333 F030 VG010=
ASC EU1110   5214N 00445E 110600 F046 MS015 249/030 TB0 S031
333 F046 VG004=
ASC EU1110   5211N 00444E 110601 F062 MS045 259/028 TB0 S031
333 F062 VG001=
ASC EU1110   5209N 00444E 110601 F078 MS065 257/028 TB0 S031
333 F078 VG001=
0000036900
911
UDEU02 EGRR 110607 RRA
AMDAR 1105
LVR EU0700   5252N 00848W 110528 F370 MS482 249/058 TB0 S031=
LVR EU0700   5230N 00710W 110535 F369 MS487 255/061 TB0 S031=
LVR EU0700   5211N 00532W 110542 F370 MS480 252/040 TB0 S031=
LVR EU0700   5153N 00357W 110549 F369 MS512 240/042 TB0 S031=
LVR EU0700   5134N 00230W 110556 F237 MS412 257/061 TB0 S031=
0000013700
912
SMVX01 EDZW 110600
BBXX
DBLK 11061 99770 50342 41498 70202 11037 21054 49924 52004
71582 878// 22260 05018 ICE 38892=
00000000