0000212100
093
SMMO02 MNUB 110600
AAXX 11061
44203 32999 42501 11329 21367 38494 40637 57010 82049
333 91201=
44207 32999 71406 11156 21216 38373 40442 58006 87070
333 91112 91210=
44212 32999 80000 11239 21290 39296 40571 57008 86010
333 91200=
44213 32999 72601 11252 21286 38920 40568 57006 87010
333 91202=
44215 32998 40000 11222 21244 38496 40547 52002 82081
333 91202=
44218 31996 83202 11223 21245 38706 40539 58011 70421
83046 333 91202=
44225 32998 70000 11299 21336 38365 40654 57013 80008=
44230 32998 10102 11201 21257 38880 40493 57007 80004
333 91204=
44232 32999 00000 11214 21254 39211 40456 57009=
44237 32999 10000 11109 21193 38550 40370 58009 80001=
44239 32999 13301 11176 21233 38872 40427 56014 80001=
44241 32999 01802 11191 21221 39376 40445 58012 333
91203=
44256 32999 23204 11208 21241 39434 40367 53013 82040
333 91204=
44265 32999 70000 11125 21197 38966 40454 57020 80006
333 91200=
44272 32998 20000 11200 21260 38313 40547 57013 80008=
44275 32998 00801 11151 21267 37775 40471 57013 333
91202=
44282 32999 02903 11108 21250 38351 40376 58013 333
91205=
44284 32999 10000 11197 21276 37812 40512 57006 80004
333 91202=
44285 32999 03104 11118 21239 38387 40404 58013 333
91204=
44287 32999 03404 11119 21276 38185 40436 58013 333
91205=
44294 32998 03306 11153 21219 38630 40429 57005 333
91206=
44298 32999 03205 11132 21226 38787 40381 58005 333
91206=
44302 32599 33206 11112 21210 39176 40353 51003 82104
333 91211=
44305 32999 03205 11124 21202 39108 40326 51001 333
91206=
44313 41999 23607 11192 21225 39442 40348 52024 70171
82080 333 91207=
44314 32698 53607 11141 21184 39192 40345 52009 82180
333 91207=
44317 32998 13206 11135 21217 38980 40348 52002 80001
333 91206=
44336 32999 02606 11094 21217 38786 40423 57012 333
91206=
44341 32999 03106 11112 21217 38683 40411 54000 333
91208=
44347 32999 02906 11095 21208 38807 40421 57007 333
91207=
44352 32999 03207 11137 21198 38969 40347 51003 333
91207=
44358 32998 23604 11075 21242 39140 40350 54000 82040=
0000212100
094
SMMO02 MNUB 110600
AAXX 11060
44203 32999 42501 11329 21367 38494 40637 57010 82049
333 91201=
44207 32999 71406 11156 21216 38373 40442 58006 87070
333 91112 91210=
44212 32999 80000 11239 21290 39296 40571 57008 86010
333 91200=
44213 32999 72601 11252 21286 38920 40568 57006 87010
333 91202=
44215 32998 40000 11222 21244 38496 40547 52002 82081
333 91202=
44218 31996 83202 11223 21245 38706 40539 58011 70421
83046 333 91202=
44225 32998 70000 11299 21336 38365 40654 57013 80008=
44230 32998 10102 11201 21257 38880 40493 57007 80004
333 91204=
44232 32999 00000 11214 21254 39211 40456 57009=
44237 32999 10000 11109 21193 38550 40370 58009 80001=
44239 32999 13301 11176 21233 38872 40427 56014 80001=
44241 32999 01802 11191 21221 39376 40445 58012 333
91203=
44256 32999 23204 11208 21241 39434 40367 53013 82040
333 91204=
44265 32999 70000 11125 21197 38966 40454 57020 80006
333 91200=
44272 32998 20000 11200 21260 38313 40547 57013 80008=
44275 32998 00801 11151 21267 37775 40471 57013 333
91202=
44282 32999 02903 11108 21250 38351 40376 58013 333
91205=
44284 32999 10000 11197 21276 37812 40512 57006 80004
333 91202=
44285 32999 03104 11118 21239 38387 40404 58013 333
91204=
44287 32999 03404 11119 21276 38185 40436 58013 333
91205=
44294 32998 03306 11153 21219 38630 40429 57005 333
91206=
44298 32999 03205 11132 21226 38787 40381 58005 333
91206=
44302 32599 33206 11112 21210 39176 40353 51003 82104
333 91211=
44305 32999 03205 11124 21202 39108 40326 51001 333
91206=
44313 41999 23607 11192 21225 39442 40348 52024 70171
82080 333 91207=
44314 32698 53607 11141 21184 39192 40345 52009 82180
333 91207=
44317 32998 13206 11135 21217 38980 40348 52002 80001
333 91206=
44336 32999 02606 11094 21217 38786 40423 57012 333
91206=
44341 32999 03106 11112 21217 38683 40411 54000 333
91208=
44347 32999 02906 11095 21208 38807 40421 57007 333
91207=
44352 32999 03207 11137 21198 38969 40347 51003 333
91207=
44358 32998 23604 11075 21242 39140 40350 54000 82040=
0000072700
095
UDAS02 BABJ 110607
AMDAR 1106
DES CNFPXL 2500N 10251E 110602 F096 PS034 244/024 TB/ S//1=
DES CNFPXL 2458N 10250E 110603 F096 PS036 230/018 TB/ S//1=
ASC CNFPXL 2456N 10250E 110603 F108 PS001 257/022 TB/ S//1=
ASC CNFPXL 2453N 10252E 110604 F123 MS035 280/024 TB/ S//1=
ASC CNFLWM 2324N 11317E 110604 F002 PS181 194/009 TB/ S//1=
ASC CNFLWM 2325N 11317E 110605 F008 PS171 197/007 TB/ S//1=
ASC CNFLWM 2325N 11318E 110605 F012 PS164 212/007 TB/ S//1=
ASC CNFOZL 3602N 12014E 110604 F095 MS119 280/020 TB/ S//1=
ASC CNFOZL 3600N 12013E 110604 F107 MS133 271/025 TB/ S//1=
ASC CNFOZL 3557N 12011E 110605 F121 MS153 280/023 TB/ S//1=
ASC CNFOZL 3555N 12008E 110605 F136 MS168 287/024 TB/ S//1=
0000171900
096
UDAS02 BABJ 110609
AMDAR 1106
ASC CNFLWM 2326N 11318E 110605 F020 PS144 185/009 TB/ S//1=
ASC CNFLWM 2326N 11317E 110605 F025 PS133 166/007 TB/ S//1=
ASC CNFLWM 2328N 11317E 110606 F034 PS128 167/011 TB/ S//1=
ASC CNFPXL 2452N 10253E 110604 F128 MS044 275/039 TB/ S//1=
ASC CNFPXL 2451N 10255E 110605 F132 MS033 276/054 TB/ S//1=
ASC CNFPXL 2451N 10258E 110605 F147 MS050 279/058 TB/ S//1=
ASC CNFPXL 2452N 10302E 110606 F163 MS091 268/060 TB/ S//1=
LVR CNFNXQ 3802N 10940E 110557 F236 MS400 266/060 TB/ S//1=
LVR CNFNXQ 3804N 10919E 110600 F236 MS400 267/063 TB/ S//1=
DES CNFNXQ 3808N 10900E 110603 F212 MS340 274/059 TB/ S//1=
LVR CNFNXQ 3810N 10840E 110606 F197 MS308 269/058 TB/ S//1=
DES CNFPQK 3142N 12011E 110604 F148 MS135 261/055 TB/ S//1=
DES CNFPQK 3138N 12017E 110605 F148 MS131 259/058 TB/ S//1=
DES CNFPQK 3135N 12020E 110606 F145 MS121 262/053 TB/ S//1=
DES CNFPQK 3134N 12023E 110606 F142 MS113 259/051 TB/ S//1=
DES CNFPYM 4010N 11211E 110604 F173 MS296 275/056 TB/ S//1=
DES CNFPYM 4015N 11211E 110605 F167 MS290 277/051 TB/ S//1=
DES CNFPYM 4017N 11211E 110606 F164 MS285 279/049 TB/ S//1=
DES CNFPYM 4019N 11211E 110606 F160 MS275 278/046 TB/ S//1=
ASC CNFOZL 3553N 12007E 110606 F148 MS196 279/026 TB/ S//1=
ASC CNFOZL 3552N 12006E 110606 F154 MS214 276/025 TB/ S//1=
ASC CNFOZL 3550N 12004E 110607 F173 MS224 264/047 TB/ S//1=
ASC CNFOZL 3547N 12002E 110607 F193 MS244 266/062 TB/ S//1=
ASC CNFPXL 2455N 10304E 110606 F174 MS120 257/059 TB/ S//1=
ASC CNFPXL 2458N 10307E 110607 F186 MS111 256/060 TB/ S//1=
ASC CNFPXL 2500N 10309E 110607 F192 MS106 254/064 TB/ S//1=
ASC CNFPXL 2501N 10310E 110608 F197 MS123 254/066 TB/ S//1=
0000012000
097
SMLJ50 LJLM 110600 CCA
AAXX 11061
14006 12/70 43600 10000 29099 48/// 69904
  333 4/095 79999 93197=
0000011600
098
SMNO47 ENMI 110600 RRA
AAXX 11061
01057 31489 40000 11301 21330 70200 83630 333 21329 48045 70000=
0000078900
099
SMCI03 BABJ 110600
AAXX 11061
50136 NIL=
50745 NIL=
50774 NIL=
50788 NIL=
51133 NIL=
51431 NIL=
51747 NIL=
52203 NIL=
52418 32980 01102 11048 21201 39042 40446 57022 333 00652
21160=
52681 32980 13208 11022 21210 38756 40410 57017 81/// 333
00601 21137=
53564 NIL=
53614 NIL=
53646 NIL=
53798 NIL=
53845 NIL=
53959 31942 72503 10058 21117 39868 40327 57027 70500 87///
333 21032=
54094 NIL=
54102 NIL=
54161 NIL=
54292 NIL=
54374 32970 00000 11075 21171 39799 40299 57034 333 21222=
54423 NIL=
54618 NIL=
54843 31939 02002 10053 21048 30274 40303 57030 70500 333
21050=
54909 31956 02204 10083 21048 40301 57037 70500 333 21021=
56029 33/// 92201 11048 21114 36444 57016 333 00454 21130=
57127 NIL=
57131 NIL=
0000355100
100
SMIR03 OIII 110600
AAXX 11061
40701 11956 00000 11174 21181 38627 40369 54000 60001 71000 333
3/124 47012 70000 90768 93100 555 11172 29094=
40704 12670 72808 11030 21091 38610 40232 51005 60001 81231 333
3/111 48006 70000 81840 85358 90768 93100 555 11047 29063=
40708 12865 71811 11012 21070 38663 40219 52007 60001 82076 333 3/106 48009 70000 82358 87268 555 11030 29065=
40710 12667 72602 11134 21155 38334 40348 53006 60001 83570 333
3/120 47007 70000 83635 87458 90768 93100 555 11135 29084=
40713 11410 80000 11066 21078 38699 40310 51009 60001 71044 886//
333 3/113 43005 70000 88711 90768 93100 555 11067 29091=
40719 11425 70000 10046 20041 30195 40184 58006 60001 71020 86370
333 30102 50091 70000 81915 85725 87359 555 10044 29097=
40731 11640 81004 11007 21044 38776 40278 52020 60001 70522 8252/  
333 34108 5//// 70000 82635 88459 555 11019 29076=
40738 11530 60402 10066 20061 30205 40207 55002 60001 71021 81132
      333 31102 50261 70000 81830 84360 85070 555 10064 29096=
40740 12960 30902 11006 21084 38751 40243 51004 60001 80001 333
      31112 70000 83070 555 11030 29056=
40747 11540 71902 11028 21039 38659 40264 53007 69991 71072 84720 333 3/107 47005 70043 82725 84635 86458 90768 93105 555 11031 29092=
40757 12660 70901 10036 21042 38941 40257 53009 60001 82506 333
30103 70000 82635 86270 555 10008 29057=
40763 12665 30903 10050 21067 38972 40275 52012 60001 83500 333
      30105 5///1 70000 83635 555 10010 29042=
40782 11460 81302 10028 20018 38893 40215 53005 60091 70272 8532/ 
333 31106 5///1 70125 81710 81935 84640 88458 555 10024 29093= 
40783 11502 80000 11022 21030 37988 40224 52019 60031 77387 8732/
333 3/104 47007 5///1 70043 83930 84635 88556 90768 93104 555 11024
29094=
40789 12960 10000 10044 21020 39246 40246 53007 60001 81030 333
      31101 5///1 70000 81360 555 10020 29063=
40798 11508 80000 11068 21083 37966 40293 53011 69991 77072 8432/
      333   3/115 43018 70009 81930 83635 88558 90768 93102 555
      11070 29089=
40818 12662 40000 11018 21075 37980 40257 51007 60001 83530 333
3/111 42002 5///1 70000 83640 90768 93100 555 11036 29065=
40827 12665 80603 10025 21039 38878 40269 51013 60001 8211/ 333
31103 70000 82835 88460 555 10002 29062=
40836 11510 80000 11002 21007 38216 40262 53002 60051 77177 8132/
333 3/111 44001 70053 81930 84635 88558 90768 93192 555 
11004 29096=
40851 12660 81206 10050 21002 38299 40242 53014 60001 8442/ 333
      30103 5///1 70000 84640 88460 555 10028 29069=
40853 11665 82403 10016 21065 37781 40274 52018 69941 70272 83410
      333 3/108 43012 5///1 70004 83640 87460 555 11014 29055=
40854 12665 80902 10054 21024 38989 40230 53002 60001 81576 333
      30100 50091 70000 81635 86358 88270 555 10024 29057=
40857 11558 81403 10156 20094 30193 40203 52020 69921 76062 8332/ 
222// 00156 318// 40502 333 31013 50161 70005 81925 83635 88459 
555 10124 29067=
40859 12660 80000 10070 20030 38754 40212 53013 60001 8532/ 333
31003 50081 70000 82935 83640 88459 555 10052 29076=
40878 12965 53103 10061 21078 38912 40295 51012 60001 80006 333
31104 5///1 70000 85270 555 10014 29036=
40879 12962 80803 10126 21027 39563 40261 51012 60001 81037 
333 30003 50331 70000 81360 88270 555 10065 29034=
40883 11540 80605 10136 20079 30203 40226 51016 60021 76062 8352/
      222// 0//// 2//// 333   31010 50451 70015 83625 88558 555 
      10108 29068=
40898 12965 60903 10170 21062 30231 40241 51021 60001 80006 222//
      00223 10700 333 30008 50311 70000 86269 555 10083 29020=

0000017600
101
SMCZ50 OKPR 110600 RRA
AAXX 11061
11692 02670 52302 11003 21012 39622 40212 55000 60002 81501
  333 21005 34104 60005 70000 81640 85070
  555 394// 50015=
0000146700
102
SMMO40 MNUB 110600
AAXX 11061
44210 32999 42001 11170 21245 38607 56009 84080 333
91202=
44216 32599 70000 11265 21293 39154 40587 56001 85582
333 91202=
44217 32998 12601 11149 21257 37892 40479 57009 80001
333 91202=
44219 32998 41405 11182 21246 38721 40505 57019 80008
333 91208=
44221 32998 60000 11287 21301 38706 40591 58012 80008=
44224 32998 20000 11246 21271 38128 40588 57011 80004=
44229 32999 02705 11189 21238 37980 40463 58013 333
91207=
44242 32998 00000 11204 21253 39436 40434 57005 333
91200=
44243 32999 60000 11220 21275 39532 40453 57010 82048
333 91200=
44254 32698 33603 11122 21217 39085 40346 51007 82104
333 91205=
44257 31698 33208 11119 21208 39027 40342 50002 73630
82704 333 91115 91210=
44263 32998 33203 11182 21250 38140 40513 58017 80009
333 91202=
44266 32999 10000 11148 21246 37814 40404 58009 80001
333 91202=
44286 32998 02704 11144 21209 38717 40409 57010 333
91206=
44291 31995 00000 11228 21266 38821 40490 58008 70400=
44325 32999 00000 11065 21148 38961 40395 58007 333
91200=
44329 32998 02702 11116 21257 37820 40399 58010 333
91203=
44338 32999 10204 11109 21221 38566 40437 58010 80004
333 91204=
44348 32997 03204 11114 21218 38771 40396 54000=
44374 32999 00102 11102 21252 38338 40430 57003 333
91207=
44385 32999 23204 11075 21203 38981 40342 58009 80001
333 91204=
44386 32999 23206 11087 21221 39126 40376 52002 82040=
0000055300
103
SMCR60 GCLP 110600
AAXX 11064
60001 06/// /2904 1//// 2//// 3//// 4//// 5//// 60004
  333 0//// 2//// 55084 60007=
60005 06/// /2903 10168 20028 30115 40152 55000 60004
  333 0//// 20157 55086 60007=
60007 NIL=
60010 NIL=
60015 02975 02807 10108 20068 39458 40178 53001 60004
  333 008// 20087 55077 60007=
60025 02575 43608 10153 20115 30077 40168 50000 60004 845//
  333 012// 20138 55066 60007 924/8=
60035 02560 23303 10130 20107 30136 40172 53004 69904 82800
  333 010// 20127 55072 60007 92406=
60320 NIL=
0000023700
104
SNVD15 KWNB 110100 RRW
BBXX
42047 11011 99279 70936 46/// /1808 1//// 40128 90130 22200 00215
333 91210 555 11094 22102=
42047 11011 99279 70936 46/// /1709 1//// 40127 90100 22200 00215
333 91211 555 11101 22109=
0000008200
105
UPIN90 VEAT 110600
PPAA 61061 42724
55392 31504 24508 23009 77999=
0000010400
106
SMIN90 VEPT 110600
AAXX 11064
42798 31994 00504 10234 20126 40158 70400
  333 59003=
0000024500
107
SMVS02 VNNN 110600
AAXX 11061
48808 01440 80000 10138 20127 39927 40219 57024 69993 76062 888// 333 58001 69961 84894 88696 96010 96160=
48830 11440 83601 10138 20119 39901 40216 57025 69903 71062 888// 333 59001 82894 88697=
0000022100
108
SMVS01 VNNN 110600
AAXX 11061
48839 32997 60504 10225 20193 30133 40199 58025 80008 222// 00198 2//01 333 59003 86299=
48826 31530 81802 10199 20179 30066 40203 58026 71022 888// 333 59003 85895 88697=
0000398100
109
SMKZ01 UAAA 110600
AAXX 11061
28676 11597 81805 11059 21086 30072 40202 53004 69920 78582 889//
333   21067=
28766 11997 82006 11070 21091 39994 40189 53008 69940 73673 8802/
333   21086=
28867 11996 81803 11072 21097 39904 40182 53004 69920 77073 8802/
333   21096=
28879 11996 81706 11078 21096 39921 40218 57004 69950 77177 8802/
333   21083=
28952 11599 81610 11071 21109 39970 40166 53005 60020 73673 885//
333   21080=
28966 11597 81706 11063 21082 39919 40210 53009 60010 77173 8802/
333   21095=
29802 12997 81804 11092 21126 30141 40291 52003 69900 80001 333  
21089=
29807 32597 61504 11119 21150 30160 40285 52002 86500 333   21086=
34691 32998 81802 10020 21011 30123 40111 57013 8807/ 333   21011=
35067 11596 81604 11058 21076 39911 40193 57004 69980 77173 8802/
333   21090=
35078 11698 61505 11077 21091 39835 40225 57003 69940 70273 8453/
333   21095=
35085 32498 81705 11080 21098 39758 40249 57005 886// 333   21125=
35108 31597 81904 11003 21015 30045 40091 57010 70272 885// 333  
21005=
35188 11496 81904 11071 21096 39815 40263 57006 69900 77173 8802/
333   21126=
35217 31498 81906 11006 21021 30080 40121 54000 72272 887// 333  
21002=
35229 11596 82502 11006 21015 39862 40135 52013 69990 71042 885//
333   21016=
35302 11596 81805 10002 21004 30084 40103 57008 69900 71072 886//
333   21006=
35357 31597 81807 11080 21102 39797 40247 57002 73673 885// 333  
21163=
35394 11998 71403 11116 21167 39600 40312 57006 69900 70272 87070
333   21134=
35406 11597 81803 10007 20002 30125 40127 57003 69900 70252 885//
333   20001=
35416 11496 82203 11004 21013 30031 40151 52012 69950 77172 8802/
333   21007=
35426 11494 82503 11012 21022 39860 40152 53019 60020 71022 886//
333   21006=
35497 32998 81403 11119 21161 39479 40318 57006 8801/ 333   21169=
35532 31/92 92303 11014 21025 39665 40157 52014 60030 74747 333  
21032=
35671 11596 81204 11078 21096 39800 40243 57008 69940 71072 885//
333   21110=
35700 32598 82004 10018 21010 30176 40152 57001 885// 333   20013=
35746 11/92 92004 11021 21024 69950 74742 333   21072=
35796 32998 80406 11142 21172 39880 40344 57012 80006 333   21198=
35849 32998 82404 11025 21047 30115 40201 53015 8807/ 333   21075=
35925 NIL=
35953 32599 81806 11037 21062 30077 40210 53005 885// 333   21085=
35969 32999 31101 11101 21145 30072 40253 57005 83050 333   21151=
36003 12698 71802 11092 21137 30151 40309 58005 69940 82570 333  
21098=
36152 32998 71103 11145 21172 30137 40338 57005 83032 333   21124=
36177 32997 70904 11086 21152 30100 40357 57007 80001 333   21126=
36208 32999 60501 11065 21149 39356 40366 58007 83031 333   21137=
36397 32999 51616 11111 21188 39777 40368 57001 82043 333   21148
91020 91120=
36428 32999 50000 11153 21206 39886 40422 57012 82041 333   21236
95000=
36535 32999 00000 11162 21209 39752 40432 57007 333   21227=
36639 32999 60000 11084 21179 39716 40345 57015 83031 333   21258=
36821 32999 70000 11106 21126 39800 40314 57013 80002 333   21204=
36859 32999 31302 11032 21144 39523 40323 57024 83040 333   21166=
36864 32998 80000 11044 21057 39372 40288 57014 80007 333   21188=
36870 32997 80000 11021 21126 39242 40271 57011 80001 333   21105=
38001 NIL=
38062 32999 22003 11022 21061 30055 40221 57004 82080 333   21043=
38069 32998 01703 11008 21077 333   21071=
38196 32698 82301 10012 21136 39265 40252 57004 83532 333   21033=
38198 32997 61104 11049 21094 30000 40269 57004 86030 333   21132=
38222 32998 61601 11104 21167 39707 40297 57010 86030 333   21171=
38232 NIL=
38328 32999 00000 10020 21107 39525 40261 53004 333   21060=
38334 32998 00803 11004 21117 39290 40267 54000 333   21060=
38341 32699 31702 10002 21087 39471 40267 57003 82540 333   21123=
38343 32998 23201 11015 21083 39408 40266 57005 80001 333   21134=
38439 31996 01306 10008 21025 39917 40262 53005 71011 333   21056=
0000019900
110
SMMZ01 FQMA 101800
AAXX 10184
67201 11470 83602 10206 20196 39/// 48/// 60492 72162 8657/ 333 10280
5//// 94358=
67273 32570 50401 10266 20258 40062 82230 333 10/// 58012 94320=
0000173100
111
SMRA10 RUHB 110600
AAXX 11061
30372 41999 00000 11367 21388 39470 40485 58002 70240=
30433 42999 20403 11247 21303 39764 40425 52003 80001=
30554 41998 11601 11299 21337 39215 40453 58005 70240 80001=
30635 42999 01202 11184 21234 39778 40398 54000=
30673 41999 83604 11256 21321 39517 40368 52012 70231 82046 333
91110=
30692 41999 53406 11240 21306 39763 40307 52006 70272 85020=
30758 42999 00501 11222 21289 39512 40417 52005=
30802 42799 82602 11090 21198 38756 48536 58003 81531=
30823 41999 82001 11125 21160 39705 40379 52001 70172 82032=
30879 42999 03104 11260 21324 39515 40359 52019=
30935 41697 82402 11138 21165 39384 40376 52001 78587 8497/=
30949 42999 63303 11125 21187 39189 40337 52005 83031=
30965 41999 03506 11256 21296 39474 40391 51016 73630 333 91110=
31168 41996 82204 11261 21318 30115 40123 58006 77173 8802/ 333 91011
91113=
31285 42999 22002 11273 21320 30136 40222 54000 80005=
31300 42999 83602 11228 21294 39937 40253 52007 84032=
31329 41998 80000 11319 21357 39493 40243 57005 77071 80007=
31369 41994 82908 11219 21244 30008 40099 57001 77387 8802/ 333 91013
91113=
31416 41998 80000 11284 21331 30069 40172 57006 77174 85027=
31484 42999 32703 11239 21329 39805 40171 55002 80008=
31512 429// 33103 11237 21313 30086 40269 53003 80001=
31538 NIL=
31561 42999 81303 11279 21331 30158 40186 55003 80005=
31683 42999 02703 11188 21278 30068 40147 54000=
31707 42999 03402 11192 21250 30140 40239 57003=
31733 41999 02605 11208 21285 30115 40195 57002 70230 333 91111=
31735 41997 22607 11216 21292 30109 40206 54000 73036 80001 333 91010
91112=
31770 42999 32908 11174 21278 30106 40138 53001 80001 333 91012
91112=
0000023200
112
SMMD01 LPMG 110600
AAXX 11061
08521 32460 13402 10139 20118 30097 40167 56003 81100
333 20132 30/// 55071 81815=
08524 11970 00000 10111 20108 30069 40168 57001 69912 70250
333  20108 30009 5//// 55058 21164=
00000000