0000009000
686
SASD20 OEJD 110700 RRA
METAR OERF 110700Z 36014KT 9999 BKN040 08/04 Q1019=
0000012900
687
SPBY31 UMMN 110700
SPECI UMII 110715Z 29007G12MPS 6000 -SHRA OVC011CB 01/00
Q0995 R23/290150 TEMPO 2000 BKN005=
0000009300
688
SAPK31 OPMT 110700
METAR OPMT 110655Z 00000KTS 5000 HZ NSC 17/01 Q2033 NOSIG=
0000062000
689
SAER10 OMAM 110700
METAR OMAD 110700Z 18005KT 140V220 CAVOK 19/11 Q1022 A3019 NOSIG=
METAR OMAH 110700Z 12008KT 7000 NSC 19/12 Q1021 A3015=
METAR OMAM 110700Z 17011KT 9999NDV FEW040 BKN100 20/10 Q1020 A3014=
METAR OMDL 110700Z 10013KT 8000NDV -RA OVC080 20/15 Q1019 A3010=
METAR OMDM 110700Z 12007KT CAVOK 20/10 Q1022=
METAR OMLW 110700Z 17009KT CAVOK 19/10 Q1020=
METAR OMMZ 110700Z AUTO 15010KT /////NDV //// ///// 19/09 Q1021 A3016=
METAR OMSN 110700Z AUTO 12012KT /////NDV //// ///// 20/12 Q1021 A3016=
METAR OMSW 110700Z NIL=
METAR OMTH 110700Z 10012KT 9999 -RA BKN090 19/10 Q1023=
0000011000
690
UANT01 CWAO 110722
ARP DAL84 4618N04402W 0721 F350 MS62 324/67 KT
N841MH QXT AOW 110722 F39A
0000011100
691
UANT01 CWAO 110722
ARP NAX7002 5800N02954W 0721 F410 MS56 346/36 KT
EILNC QXT AOW 110722 L20A
0000011100
692
UANT01 CWAO 110722
ARP DAL469 6057N05303W 0722 F340 MS57 252/23 KT
N665US QXS UAK 110722 F26A
0000011000
693
UANT01 CWAO 110722
ARP QTR722 5700N03008W 0722 F290 MS56 224/95 KT
A7BAB QXT AOW 110722 F28A
0000098100
694
SNGL61 EKMI 110700
AAXX 11074
04211 45/80 /1813 11060 21137 39807 49967 52013 =
04213 46/// /2606 11079 21219 39840 49951 52004 =
04220 45984 51602 11098 21145 39899 49952 57004
  333 55300 20004 81/65 85/69 =
04221 45984 70907 11100 21209 39909 49947 57003
  333 87/62 =
04224 45984 62202 11106 21173 39916 49950 57003
  333 86/64 =
04231 45984 70406 11175 21239 39889 49966 57001
  333 85/64 87/70 =
04234 45/84 /1207 11079 21190 39929 49940 52006 =
04241 45984 71011 11087 21158 39906 49946 52005
  333 85/67 87/73 =
04250 45984 10710 11083 21155 39821 49927 52002
  333 55300 20000 81/67 =
04260 45883 31213 11094 21169 39887 49935 57004
  333 81/57 83/64 =
04270 45/84 /0705 11116 21199 39921 49961 52008 =
04272 45984 53405 11091 21132 39878 49952 52003
  333 85/66 =
04320 45/83 02610 11130 21192 30018 40034 52012
  333 55300 20011 =
04339 NIL =
04360 NIL =
04390 45/84 02411 11056 21162 39832 49927 52007 =
0000021100
695
SNNO49 ENMI 110700 RRA
AAXX 11071
01342 26/// ///// 10010 20003 333 60055=
01371 26/// ///// 11075 21085 333 69965=
01381 26/// ///// 11078 21091 333 60015=
01485 46/// /0103 10002 21006=
0000011000
696
UANT01 CWAO 110722
ARP BAW18A 5047N04108W 0722 F330 MS59 324/62 KT
GYMMN QXT AOW 110722 F07A
0000083500
697
AXIN90 VEBS 110712
FROM M C BHUBANESWAR
TO ACWC KOL/ CWC VSK/ CDR PDP 

MORNING INFERENCE FOR ORISSA STATE ON  11 .01.2014.AAA 
----------------------------------------------------
AN U/A TROUGH RUNS FROM SHWB TO GUJURAT REGION ACROSS BHR,E-MP,W-MP,
WITH EMBEDED CYCIR OVER E-MP AS WELL AS GUJURAT REGION EXTENDING UPTO 
1.5 KM ASL.

	THE HIGHEST MAX.TEMP. 31.0 DEG. CEL. AND THE LOWEST 
MIN.TEMP. OF 10.6 DEG.CEL. WERE RECORDED AT MALAKANAGIRI AND 
PHULBANI RESPECTIVELY IN THE PLAINS OF ODISHA AAA

F/ C VALID FOR NEXT 24 HRS:-LIGHT RAIN OR THUNDERSHOWER MAY OCCUR AT
ONE OR TWO PLACES OVER NORTH ODISHA.WEATHER WILL BE MAINLY DRY
OVER SOUTH ODISHA. 


WARNING:- MODERATE FOG MAY OCCUR AT SOME PLACES OVER ODISHA DURING
NEXT 48 HRS. AAA 

TOO:   11 / 0710     UTC




0000078100
698
AXIN90 VEBS 110712
FROM M C BHUBANESWAR
TO ACWC KOL/ CWC VSK/ CDR PDP 

MORNING INFERENCE FOR ORISSA STATE ON  11 .01.2014.AAA 
----------------------------------------------------
AN U/A TROUGH RUNS FROM SHWB TO GUJURAT REGION ACROSS BHR,E-MP,W-MP,
WITH EMBEDED CYCIR OVER E-MP AS WELL AS GUJURAT REGION EXTENDING UPTO 
1.5 KM ASL.

 THE HIGHEST MAX.TEMP. 31.0 DEG. CEL. AND THE LOWEST 
MIN.TEMP. OF 10.6 DEG.CEL. WERE RECORDED AT MALAKANAGIRI AND 
PHULBANI RESPECTIVELY IN THE PLAINS OF ODISHA AAA

F/ C VALID FOR NEXT 24 HRS:-LIGHT RAIN OR THUNDERSHOWER MAY OCCUR AT
ONE OR TWO PLACES OVER NORTH ODISHA.WEATHER WILL BE MAINLY DRY
OVER SOUTH ODISHA. 


WARNING:- MODERATE FOG MAY OCCUR AT SOME PLACES OVER ODISHA DURING
NEXT 48 HRS. AAA 

TOO:   11 / 0710     UTC
0000005200
699
RRIN23 VECC 110722
RQRPT 300-341=

0000011000
700
UANT01 CWAO 110722
ARP KLM644 5014N04423W 0722 F350 MS63 319/61 KT
PHBFY QXT AOW 110722 F81A
0000012200
701
SNVX21 EDZW 110700
BBXX
DBBH 11071 99180 30117 41/98 /1510 10179 20157 40144 52015
7//// 22282 04177 =
0000009200
702
SAFC21 OEJD 110700 RRB
METAR
OEKK 110700Z 32017KT CAVOK 12/12 Q1021 NOSIG=
0000009000
703
SASD20 OEJD 110700 RRB
METAR OEKK 110700Z 32017KT CAVOK 12/12 Q1021 NOSIG=
0000020400
704
SZSR01 WSSS 110724
CREX++
T000103 A001 D01021 D06025++
0126166 10385160 00044 2014 01 11 06 42 //// 11 07 00 06
01075 0055 01086 0056 01097 0057 01110 0060 01122 0062 01133 0053++
7777
0000216800
705
SZNZ01 NZKL 110724
CREX++
T000103 A001 D01021 D06025++
-3683144 17478654 AUCT  2014 01 11 07 16 //// 11 07 00 01
04707 3177 04702 3180 04689 3175 04681 3176 04673 3176 04664 3176+
-4402404 -17636748 CHIT  2014 01 11 07 16 //// 11 07 00 01
04294 1938 04293 1938 04271 1916 04273 1918 04288 1933 04275 1920+
-4089929 17623168 CPIT  2014 01 11 07 16 //// 11 07 00 01
03230 2276 03229 2276 03240 2288 03241 2291 03233 2285 03227 2279+
-3618905 17548887 GBIT  2014 01 11 07 16 //// 11 07 00 01
05393 -0016 05386 -0018 05387 -0012 05394 0001 05391 0003 05387 0004+
-3867541 17802288 GIST  2014 01 11 07 16 //// 11 07 00 01
03380 2693 03396 2712 03404 2723 03398 2720 03393 2718 03391 2718+
-4241288 17370277 KAIT  2014 01 11 07 16 //// 11 07 00 01
02630 2207 02621 2199 02618 2195 02617 2195 02617 2196 02614 2193+
-3755040 17815904 LOTT  2014 01 11 07 16 //// 11 07 00 01
02992 0195 02977 0184 02982 0194 02975 0191 02970 0190 02969 0193+
-3704657 17451175 MNKT  2014 01 11 07 16 //// 11 07 00 01
03427 -0120 03411 -0133 03409 -0133 03406 -0133 03407 -0130 03412 -0122+
-3947566 17692007 NAPT  2014 01 11 07 16 //// 11 07 00 01
02413 2083 02385 2058 02368 2042 02366 2043 02390 2069 02378 2059+
-3441483 17304870 NCPT  2014 01 11 07 16 //// 11 07 00 01
-01118 -5391 -01241 -5508 -01289 -5551 -01094 -5349 -00913 -5163 -01230 -5474+
-4581435 17062939 OTAT  2014 01 11 07 16 //// 11 07 00 01
03838 3429 03840 3429 03844 3430 03847 3430 03851 3431 03856 3433+
-2928002 -17789440 RBCT  2014 01 11 07 16 //// 11 07 00 01
05773 2039 05763 2032 05759 2032 05754 2030 05761 2040 05753 2036+
-2925114 -17790384 RFRT  2014 01 11 07 16 //// 11 07 00 01
02689 0230 02681 0226 02672 0220 02659 0210 02674 0230 02675 0234+
-4357010 17277383 SUMT  2014 01 11 07 16 //// 11 07 00 01
01102 1840 01091 1830 01111 1849 01101 1838 01105 1842 01109 1845+
-3764109 17618118 TAUT  2014 01 11 07 16 //// 11 07 00 01
04749 3998 04743 3997 04738 3997 04735 4000 04727 3996 04724 3999+
-4128448 17477985 WLGT  2014 01 11 07 16 //// 11 07 00 01
02577 2023 02582 2029 02583 2030 02587 2034 02589 2036 02594 2041++
7777
00000000