0000015100
473
SSVX05 CWAO 110500
ZZYY 48593 11014 0500/ 771656 176522 6113/ 11119 
40200 57022 22291 01093 444 20130 11014 0500/ 50400 80138 80001=
0000012700
474
SSVX05 CWAO 110500
ZZYY 47550 11014 0500/ 770787 069468 6113/ 444 
20130 11014 0500/ 50101 80134 80001 9////=
0000010900
475
SASA85 EGRR 110500 RRF
METAR SARL 110500Z 05009KT 9999 TS SCT020 FEW045CB OVC100 22/20 Q1008=
0000013900
476
SSVX02 CWAO 110500
ZZYY 64711 11014 0500/ 766758 002861 6113/ 22219 
00043 444 20130 11014 0500/ 50101 80130 80003 9/015=
0000019000
477
SMRO48 YRBK 110000 CCD
AAXX 11001
15215 03/// /2203 10017 21014 39595 42804 51007 6///1 333 55300 0////
20000
3//// 55011 0//// 20258 3//// 6///7 91004 91105 555 6////=
0000014800
478
SMRO50 YRBK 110000 CCD
AAXX 11001
15416 02/// /2101 10007 21022 39944 40208 51017 60001 333 55034 60007
91003
91105 555 60000=
0000013300
479
UAPA01 KWBC 110527
ARP WJA1877 42N 135W 0520 F370 MS51 242/127KT=
ARP ASA892 2700N 13812W 0523 F350 MS43 290/032KT=
0000008200
480
UANT01 KWBC 110527
ARP TCV691 3630N 045W 0520 F340 MS55 280/075KT=
0000011100
481
UANT01 CWAO 110527
ARP UAL903 5805N03359W 0526 F350 MS56 216/38 KT
N116UA DDL XXW 110527 F36A
0000011000
482
UANT01 CWAO 110527
ARP QTR764 5521N04724W 0527 F290 MS55 290/87 KT
A7BAC QXT AOW 110527 F17A
0000011100
483
UANT01 CWAO 110527
ARP UAL909 5539N04421W 0527 F350 MS61 295/37 KT
N652UA DDL XXW 110527 F71A
0000011100
484
UANT01 CWAO 110527
ARP UPS208 6141N02556W 0527 F310 MS55 213/34 KT
N331UP QXS REK 110527 F27A
0000011000
485
UANT01 CWAO 110527
ARP UAL48 5428N04207W 0527 F330 MS59 306/43 KT
N77014 DDL XXW 110527 F37A
0000011100
486
UANT01 CWAO 110527
ARP UAL114 4741N05140W 0527 F370 MS65 307/48 KT
N29129 DDL YYT 110527 F57A
0000011000
487
UANT01 CWAO 110528
ARP SWR15X 4520N04349W 0527 F380 MS56 310/57 KT
HBJHK QXT AOW 110528 J18A
0000022300
488
SAIN31 VOMM 111010
METAR VOHS 111010Z 22005KT 210V290 5000 HZ SCT020 29/10 Q1014 NOSIG=
METAR VOMM 111010Z 07008KT 8000 FEW020 29/19 Q1012 NOSIG=
METAR VOTR 111010Z 08007KT 7000 FEW016 30/20 Q1011 NOSIG=
0000009500
489
SAIN90 VANP 111010
METAR VANP 111010Z 23006KT 4000 HZ FEW020 27/16 Q1013 NOSIG=
0000079000
490
SNPO41 LPMG 110500
AAXX 11051
08533 42/// /36// 1//// 2//// 3//// 4//// 5////
555 60005=
08535 NIL=
08541 42/// /1001 10110 20081 30040 40160 52004
555 60005=
08545 NIL=
08548 42/// /0901 10081 20081 39960 40168 52002
555 60005=
08554 42/// /0503 10115 20068 30151 40161 52007
333  91105
555 60005=
08560 42/// /36// 10066 20064 39407 40170 52001
555 60005=
08562 42/// /36// 1//// 2//// 3//// 4//// 5////
555 60005=
08567 42/// /0000 10050 20046 39504 40178 52005
555 60005=
08568 42/// /36// 1//// 2//// 3//// 4//// 5////
555 60005=
08570 42/// /9901 10065 20027 39707 40171 52008
555 60005=
08571 NIL=
08575 42/// /0000 10020 20016 39359 40189 52006
555 60005=
08579 42/// /0901 10089 20085 30038 40164 52005
555 60005=
0000043500
491
SNVB20 RJTD 110500
BBXX
JGQH    11054 99313 11370
46/// /3211 10116 20039 40253 55023 8////
22242 00192 10603 70016=
JPBN    11054 99248 11297
46/// /0519 10182 20098 40243 58019 8////
22271 00239 10703 70017=
JGQH    11054 99313 11370
46/// /3211 10116 20039 40253 55023 8////
22242 00192 10603 70016=
JPBN    11054 99248 11297
46/// /0519 10182 20098 40243 58019 8////
22271 00239 10703 70017=
0000016600
492
SSVX13 LFVW 110527
ZZYY 13577 11014 0350/ 724386 048325 6111/
11119 40220
33311 88872 20000 41500
444 20110 11014 0342/ 50101 80070 80008 9/015=
00000000