0000191100
133
FQIO20 FMEE 110517


MARINE METEOROLOGICAL BULLETIN

FROM METEO-FRANCE/LA REUNION

ON AREA ACK (AMSTERDAM-CROZET-KERGUELEN)



DATE: 14/01/11 AT 0500UTC

AVERAGED WIND SPEED ON BEAUFORT SCALE. (WIND GUSTS MAY BE ABOUT 40%
STRONGER THAN THE AVERAGES GIVEN HERE.).

PART 1:  WARNING :

NIL.

PART 2:   GENERAL SYNOPSYS, 14/01/11 AT 0000 UTC :



- HIGH 1027 HPA NEAR 35S/67E, MOVING NORTH-EASTWARD 10/15 KT.

- POST TROPICAL LOW 995 HPA NEAR 32.9S/43.0E, MOVING SOUTH-EASTWARD
14 KT WITH CONVERGENCE LINE AXIS : 27S/46E, 38S/47E, 39S/42E.

- COLD FRONT AXIS : 48S/44E, 53S/40E, WARM FRONT AXIS : 53S/40E,
52S/58E, ASSOCIATED LOW 983 HPA NEAR 49S/39E, MOVING
EAST-SOUTH-EASTWARD 15/20 KT.



PAGE 1/2

PART 3: FORECAST FOR 24 HOURS FROM 14/01/11 AT 0600 UTC TO 14/01/12
AT 0600UTC :



WAM (30S/40S,50E/65E) :



SQUALLS, RAINS OR SHOWERS BY WESTERN AREA.

WIND : NORTHERLY 3/5 INCREASING 5/7 AHEAD FRONT SETTING UP
NORTH-WESTERLY THEN SW 4/6 BEHIND.

SEA : MODERATE TO VERY ROUGH. ARRIVAL MODERATE NORTHERLY SWELL OVER
WESTERN AREA

VISI : POOR IN PRECIPITATIONS.



 AMS (30S/40S,65E/80E) :

SCATTERED SHOWERS.

WIND : ANTICLOCKWISE 3/5.

SEA : SLIGHT TO MODERATE. MODERATE SW SWELL ABATING.

VISI : GOOD.



 CRO (40S/50S,50E/65E) :

SHOWERS THEN FRONTAL RAINS AND SHOWERS.

WIND : ANTICLOCKWISE 3/5 OVER EASTERN AREA THEN NORTHERLY 5/7 AHEAD
FRONT BACKING SW 5/7 BEHIND.

SEA : MODERATE TO VERY ROUGH. ARRIVAL MODERATE NORTHERLY SWELL

VISI : POOR IN PRECIPITATIONS.



KER (40S/50S,65E/80E) :

SHOWERS THEN FRONTAL RAINS AND SHOWERS OVER WESTERN AREA.

WIND : SW 5/7 SETTING UP NORTH-WESTERLY 6/7 AHEAD FRONT AT END.

SEA : MODERATE TO VERY ROUGH. MODERATE SW SWELL.

VISI : POOR IN PRECIPITATIONS.

PAGE 2/2=
0000011100
134
UANT01 CWAO 110517
ARP AAL104 4942N03703W 0517 F400 MS52 249/35 KT
N778AN DDL XXW 110517 F33A
0000011000
135
UANT01 CWAO 110517
ARP DLH437 5505N03503W 0517 F370 MS57 216/38 KT
DAIGV QXT AOW 110517 J41A
0000016200
136
SNRO41 YRBK 101000 CCA
AAXX 10101
15230 23595 81501 10018 20018 39869 40169 51006 71044 886// 333 55300
00164
20473 30465 6///5 91001 91104=
0000013800
137
SNRO41 YRBK 102200 RRA
AAXX 10221
15230 23/// /2603 10046 20017 39935 40234 52012 333 55300 10169 20000
3////
6///5=
0000010100
138
UAUS31 KWBC 110518
ARP UAL1516 3720N 10548W 0515 F280 MS35 339/097KT TB MOD SK CLEAR=
0000010200
139
UAPA01 KWBC 110518
ARP WJA1863 3948N 13807W 0511 F370 MS51 241/116KT TB CONT LGT CHOP=
0000011000
140
UANT01 CWAO 110518
ARP UAL29 5145N03640W 0518 F390 MS53 240/31 KT
N78004 DDL XXW 110518 F36A
0000203400
141
FQIO21 FMEE 110518


BULLETIN METEOROLOGIQUE MARINE DE METEO-FRANCE/LA REUNION POUR LA
ZONE ACK (AMSTERDAM-CROZET-KERGUELEN)

LE SAMEDI 11/01/14 A 0500 UTC

VITESSE DU VENT MOYEN EN BEAUFORT. (LES RAFALES PEUVENT EXCEDER
D'ENVIRON 40% LA VALEUR INDIQUEE).

PARTIE 1:   AVIS

NEANT.

PARTIE 2:   SITUATION GENERALE, LE 11/01/14 A 0000UTC :



 - ANTICYCLONE 1027 HPA VERS 35S/67E, DEPLACEMENT NORD-EST 10/15 KT.

- DEPRESSION POST-TROPICALE 995HPA VERS 32.9S/43.0E, DEPLACEMENT
SUD-EST 14KT AVEC LIGNE DE CONVERGENCE AXEE : 27S/46E, 38S/47E,
39S/42E.

- FRONT FROID AXE : 48S/44E, 53S/40E, FRONT CHAUD AXE : 53S/40E,
52S/58E, DEPRESSION ASSOCIEE 983 HPA VERS 49S/39E, DEPLACEMENT
EST-SUD-EST 15/20 KT.

PAGE 1/2

PARTIE 3:  PREVISIONS VALABLES 24 HEURES DU 11/01/14 A 0600 UTC AU
12/01/14 A 0600 UTC :



WAM (30S/40S,50E/65E) :

PLUIES, GRAINS OU AVERSES PAR OUEST ZONE.

VENT : SECTEUR NORD 3/5 FRAICHISSANT 5/7 A L'AVANT DU FRONT EN
S'ORIENTANT NORD-OUEST PUIS SUD-OUEST 4/6 A L'ARRIERE

MER : AGITEE A TRES FORTE. ARRIVEE D'UNE HOULE MODEREE DE SECTEUR
NORD SUR OUEST ZONE.

VISI : MAUVAISE SOUS PRECIPITATIONS.



AMS (30S/40S,65E/80E) :

AVERSES EPARSES.

VENT : ANTICYCLONIQUE 3/5.

MER : PEU AGITEE A AGITEE. HOULE MODEREE DE SUD-OUEST S'AMORTISSANT.

VISI : BONNE



CRO (40S/50S,50E/65E) :

AVERSES PUIS PLUIES ET AVERSES FRONTALES.

VENT :  ANTICYCLONIQUE 3/5 SUR EST ZONE PUIS SECTEUR NORD 5/7 A
L'AVANT DU FRONT REVENANT SUD-OUEST 5/7 A L'ARRIERE.

MER : AGITEE A TRES FORTE. ARRIVEE D'UNE HOULE MODEREE DE SECTEUR
NORD

VISI : MAUVAISE SOUS PRECIPITATIONS.



KER (40S/50S,65E/80E) :

AVERSES PUIS PLUIES ET AVERSES FRONTALES SUR OUEST ZONE.

VENT : SUD-OUEST 5/7 S'ORIENTANT NORD-OUEST 6/7 A L'AVANT DU FRONT EN
FIN DE PERIODE.

MER : AGITEE A TRES FORTE. HOULE MODEREE DE SUD-OUEST.

VISI : MAUVAISE SOUS PRECIPITATIONS.

PAGE 2/2=
0000011600
142
SNVF51 EGRR 110500
BBXX
62303 11054 99516 70051 46/// /2916 10087 20046 40161 22200 10604
70018=
0000128600
143
SASA85 EGRR 110500 RRE
METAR SAAR 110500Z 18006KT CAVOK 22/20 Q1010=
METAR SAOC 110500Z 00000KT CAVOK 20/14 Q1014=
METAR SARC 110500Z 05005KT CAVOK 28/24 Q1006=
METAR SARF 110500Z 02007KT CAVOK 29/22 Q1007=
METAR SASJ 110500Z 32008KT 9999 FEW030 SCT100 25/18 Q1009=
METAR SAWH 110500Z VRB04KT 9999 VCSH SCT038 BKN045 BKN080 06/04 Q1006=
METAR SAZN 110500Z 09005KT CAVOK 20/M04 Q1016=
METAR SAZS 110500Z 00000KT CAVOK 11/05 Q1022=
METAR SBAF 110500Z 06002KT CAVOK 26/22 Q1012=
METAR SBAN 110500Z 16004KT 9999 SCT030 FEW040TCU 19/16 Q1018=
METAR SBAT 110500Z 00000KT 9999 SCT015 BKN090 23/22 Q1012 RETS=
METAR SBBH 110500Z 11006KT CAVOK 21/17 Q1017=
METAR SBBU 110500Z 03005KT CAVOK 27/21 Q1015=
METAR SBDN 110500Z 06006KT CAVOK 26/18 Q1013=
METAR SBIL 110500Z 10011KT 7000 VCSH SCT015 BKN025 BKN070 25/23 Q1013=
METAR SBKG 110500Z 11006KT 5000 BR SCT007 BKN010 21/21 Q1014=
METAR SBME 110500Z 04005KT CAVOK 24/23 Q1013=
METAR SBPV 110500Z 34005KT 8000 -TSRA SCT008 SCT015 FEW025CB BKN070
      24/23 Q1010=
METAR SBSC 110500Z 050023KT CAVOK 25/23 Q1011=
METAR SBUL 110500Z 08007KT CAVOK 20/16 Q1017=
METAR SBUR 110500Z 01005KT CAVOK 20/17 Q1016=
METAR SKLT 110500Z 00000KT 9999 BKN009 BKN080 24/24 A2987 RMK AD OPR
      IMC=
0000024700
144
FTSA85 EGRR 110518 RRB
TAF SOCA 110500Z 1106/1206 VRB03KT 9999 SCT010 BKN035
     TEMPO 1106/1206 3000 RA SCT003 BKN015 OVC040
     PROB30 TEMPO 1112/1124 2000 +RA
     BECMG 1 112/1115 07010KT
     BECMG 1121/1124 VRB03KT=
0000137900
145
SNVZ11 SBBR 110500 RRC
BBXX
SHIP 11051 99/// 1//// 16/// /2900 10173 20167 39042 40171 57/// 6994/
  333 10176 20171 553// 10004 91100=
SHIP 11051 99/// 1//// 36/// /0301 10228 20191 39602 40124 57///
  333 10233 20228 553// 10004 91103=
SHIP 11051 99/// 1//// 36/// /0800 10227 20193 39489 40136
  333 10233 20219 553// 10004 91102=
SHIP 11051 99/// 1//// 36/// /0203 10174 20165 39347 40130
  333 10176 20174 553// 10003 91107=
SHIP 11051 99/// 1//// 36/// /0904 10233 20187 39996 40092 57///
  333 10234 20227 553// 10003 91110=
SHIP 11051 99/// 1//// 36/// /0500 10224 20194 39587 40151
  333 10232 20224 553// 10002 91102=
SHIP 11051 99/// 1//// 36/// /0702 10187 20151 38809 49903
  333 10189 20184 553// 10004 91103=
SHIP 11051 99/// 1//// 36/// /1900 10240 20185 39462 40105 57///
  333 10242 20239 553// 10003 91100=
SHIP 11051 99/// 1//// 36/// /2401 10220 20209 30045 40113
  333 10223 20218 553// 10003 91103=
SHIP 11051 99/// 1//// 36/// /0804 10169 20154 39064 40140
  333 10172 20168 553// 10002 91109=
SHIP 11051 99/// 1//// 36/// /0502 10255 20214 39652 40107 57///
  333 10256 20252 553// 10003 91104=
SHIP 11051 99/// 1//// 36/// /2501 10223 20214 39970 40149
  333 10225 20220 553// 10003 91102=
SHIP 11051 99/// 1//// 36/// /0301 10244 20202 39801 40128
  333 10251 20244 553// 10004 91102=
0000021300
146
SNVD20 KWNB 110500 RRK
BBXX
42085 11051 99179 70665 46/// /0506 10253 40176 90450 333 91208
555 11071 22078=
42085 11051 99179 70665 46/// /0506 10253 40177 90440 333 91208
555 11070 22076=
0000015800
147
SNVD20 KWNB 110500 RRJ
BBXX
42085 11051 99179 70665 46/// /0506 10253 40175 57005 90500 22200
00267 10703 70016 333 91207 555 11065 22070=
0000021300
148
SNVD15 KWNB 110500 RRJ
BBXX
41056 11051 99183 70655 46/// /0607 10254 40176 90450 333 91208
555 11076 22082=
41056 11051 99183 70655 46/// /0606 10251 40178 90440 333 91208
555 11066 22072=
0000015200
149
SNVD20 KWNB 110400 RRX
BBXX
42085 11041 99179 70665 46/// /0608 10255 40179 90400 22200 00267
10703 70016 333 91210 555 11086 22093=
0000010200
150
SAIN90 VERC 110510
METAR VERC 110510Z 32004KT 1500 BR SCT020 BKN100 19/13 Q1020 NOSIG=
0000068500
151
UDNA02 EGRR 110521
AMDAR 1100
LVR EU3815   3559N 06914W 110032 F349 MS552 284/105 TB0 S031=
LVR EU3815   3637N 06811W 110039 F349 MS570 285/106 TB0 S031=
LVR EU3815   3715N 06708W 110046 F349 MS577 288/116 TB0 S031=
LVR EU3815   3752N 06604W 110053 F349 MS585 290/119 TB0 S031=
UNS EU3815   3829N 06459W 110100 F349 MS597 293/125 TB/ S031=
LVR EU3815   3854N 06341W 110107 F349 MS600 299/125 TB0 S031=
LVR EU3815   3918N 06225W 110114 F349 MS572 298/101 TB0 S031=
LVR EU3815   3940N 06108W 110121 F349 MS575 296/093 TB0 S031=
LVR EU3815   4003N 05950W 110128 F349 MS555 293/080 TB0 S031=
LVR EU3815   4029N 05835W 110135 F349 MS575 293/073 TB0 S031=
0000042900
152
UDEU02 EGRR 110521
AMDAR 1104
LVR EU6113   6204N 01936W 110440 F390 MS512 179/040 TB/ S031=
LVR EU6113   6211N 01737W 110447 F390 MS495 179/043 TB/ S031=
LVR EU6113   6217N 01538W 110454 F390 MS485 188/043 TB/ S031=
LVR EU6113   6221N 01337W 110501 F390 MS477 195/021 TB/ S031=
LVR EU6113   6223N 01135W 110508 F390 MS475 194/019 TB/ S031=
LVR EU6113   6223N 00934W 110515 F390 MS480 184/016 TB/ S031=
00000000