0000069600
853
SASN32 ESWI 102120
METAR ESKN 102120Z 30008KT 270V330 9999 BKN013 M03/M05 Q1002
R26/710195=
METAR ESOE 102120Z AUTO 12004KT 9999NDV OVC012/// M02/M04 Q1001=
METAR ESOK 102120Z 13009KT 9999 FEW007 OVC014 M01/M02 Q0999=
METAR ESOW 102120Z 34004KT 9999 BKN013 M04/M07 Q1002 R01/750184=
METAR ESSA 102120Z 30010KT 9999 BKN008 M04/M05 Q1001 R01L/19//71
R08/19//58 R01R/19//68 BECMG BKN010=
METAR ESSB 102120Z AUTO 29009KT 9999NDV OVC009/// M04/M05 Q1001=
METAR ESSD 102120Z AUTO 08002KT 2800 -SN FEW001/// OVC017/// M06/M09
Q1001=
METAR ESSP 102120Z 32006KT 9999 BKN013 M02/M04 Q1003 R27/19//95=
METAR ESSV 102120Z AUTO 31011KT 9999NDV OVC009/// M01/M02 Q1002=

0000070300
854
SASN33 ESWI 102120
METAR ESNG 102120Z AUTO 04010KT 9999 NCD M16/M19 Q1011=
METAR ESNK 102120Z AUTO 34013KT 9999 SG FEW017/// SCT023///
OVC032/// M10/M14 Q1004=
METAR ESNN 102120Z AUTO 32009KT 9999NDV IC BKN024/// OVC035///
M10/M13 Q1004 RESG R16/49/79=
METAR ESNO 102120Z AUTO 36012KT 9999 -SN OVC020/// M12/M15 Q1003=
METAR ESNQ 102120Z AUTO 00000KT 9999NDV BKN014/// M19/M21 Q1011=
METAR ESNS 102120Z 35012KT 1500 SN VV008 M12/M13 Q1005=
METAR ESNU 102120Z 34015KT 3300 -SN SCT016 OVC033 M11/M14 Q1004
R14/49//50=
METAR ESNZ 102120Z 06003KT 3100 -SN VV020 M15/M16 Q1002=
METAR ESUT 102120Z AUTO 08024G38KT 050V120 9999 FEW074/// SCT100///
M13/M18 Q1003 RESG=

0000019800
855
FTUS31 KWBC 102124 AAA
TAF AMD
KMIA 102123Z 1021/1118 12013KT P6SM SCT020 BKN060 BKN250
     FM110000 12007KT P6SM SCT020 BKN150
     FM111500 15015G22KT P6SM SCT025 BKN050=

0000019800
856
FTUS72 KWBC 102124 AAA
TAF AMD
KMIA 102123Z 1021/1118 12013KT P6SM SCT020 BKN060 BKN250
     FM110000 12007KT P6SM SCT020 BKN150
     FM111500 15015G22KT P6SM SCT025 BKN050=

0000023100
857
FTUS75 KWBC 102124 AAA
TAF AMD
PAEN 102123Z 1021/1118 VRB03KT 2SM BR BKN006 OVC015
      TEMPO 1021/1024 1/4SM FZFG BKN002
     FM110000 02004KT 6SM BR SCT008 BKN025
     FM110900 36003KT 3/4SM BR BKN005=

0000050300
858
SASN34 ESWI 102120
METAR ESCF 102120Z AUTO VRB01KT 9999NDV SCT011/// OVC018/// M03/M03 
Q1002=
METAR ESDF 102120Z AUTO 24002KT 9999NDV -DZ VV033/// 01/00 Q1004=
METAR ESIB 102120Z AUTO 21007KT 9999NDV FEW018/// 00/M01 Q1000=
METAR ESMV 102120Z NIL=
METAR ESPA 102120Z 03009KT 360V060 2500 -SN VV008 M13/M15 Q1008=
METAR ESPE 102120Z AUTO 01009KT 330V040 9999NDV -IC FEW100/// 
M14/M17 Q1009=
METAR ESSL 102120Z 04004KT 9999 OVC020 M03/M04 Q1002 RESG RESN
R29/19//95=

0000040500
859
SASN35 ESWI 102120
METAR ESGR 102120Z NIL=
METAR ESKM 102120Z NIL=
METAR ESNL 102120Z AUTO 34007KT 9999NDV BKN023/// OVC037///
M13/M17 Q1006=
METAR ESNX 102120Z AUTO 02009KT 6000NDV -SN FEW015/// SCT026///
OVC066/// M15/M18 Q1006=
METAR ESNY 102120Z NIL=
METAR ESSF 102120Z NIL=
METAR ESSK 102120Z NIL=
METAR ESUD 102120Z AUTO 36003KT 7000 -SN OVC027/// M14/M17 Q1006=

0000009700
860
SAUK31 EGGY 102120 RRA
METAR EGKK 102120Z 21008KT 9999 -RA BKN009 08/07 Q1014=

0000020200
861
FTAU34 YBBN 102100 AAC
TAF AMD YBHM 102124Z 1021/1106
10021KT 9999 -SHRA SCT014 BKN025
FM102200 11018KT 9999 -SHRA SCT018 BKN025
FM110000 09021KT 9999 -SHRA SCT020 BKN025
RMK=

0000009300
862
SAUK35 EGGY 102120 RRA
METAR EGMC 102120Z 21012KT 9999 FEW024 08/06 Q1013=

0000032100
863
SAAF17 LFPW 102100 RRA
METAR HEAX 102100Z 32005KT 9999 FEW020 16/10 Q1022 NOSIG=
METAR HEGN 102100Z 32009KT CAVOK 14/08 Q1021 NOSIG=
METAR HELX 102100Z 16003KT CAVOK 13/08 Q1022 NOSIG=
METAR HEMM 102100Z 24005KT 9999 SCT020 12/09 Q1025 NOSIG=
METAR HESN 102100Z 27004KT CAVOK 12/01 Q1022 NOSIG=

0000038300
864
SABX31 EBBR 102120
METAR EBAW 102120Z 22011KT 9000 OVC009 05/03 Q1017 NOSIG=
METAR EBBR 102120Z 22010KT 9999 BKN011 05/03 Q1017 NOSIG=
METAR EBCI 102120Z 20007KT 9999 SCT010 04/02 Q1017 NOSIG=
METAR EBLG 102120Z 20010KT CAVOK 04/02 Q1017 NOSIG=
METAR EBOS 102120Z 20011KT 9999 FEW012 04/02 Q1016 NOSIG=
METAR ELLX 102120Z 22001KT CAVOK 02/01 Q1018 NOSIG=

0000006100
865
SAOS32 LOWM 102120
METAR LOXZ 102120Z NIL=

0000049000
866
SAOS31 LOWM 102120
METAR LOWW 102120Z 25005KT CAVOK 03/M01 Q1021 NOSIG=
METAR LOWL 102120Z VRB02KT CAVOK M00/M01 Q1021 NOSIG=
METAR LOWS 102120Z 12005KT 9999 SCT035 BKN080 03/02 Q1020 NOSIG=
METAR LOWI 102120Z VRB01KT 6000 SCT003 BKN007 03/03 Q1020 R08/29//75
NOSIG=
METAR LOWG 102120Z VRB02KT 6000 2000S BR SCT003 BKN006 03/03 Q1021
R17/29//95 BECMG 2000 BKN003=
METAR LOWK 102120Z VRB01KT 0600 R10/1000N R28/0800N FG VV002 02/02
Q1021 R10L/19//95 NOSIG=

0000048900
867
SAFI33 EFHK 102120
EFJO 102120Z AUTO 02014KT 340V060 9999 -SN FEW014 OVC065 M09/M10
Q0993=
EFLP 102120Z 35011KT 340V040 4000 -SN FEW009 BKN012 OVC022 M06/M07
Q0989=
EFMI 102120Z AUTO 36007KT 260V070 9999 -SG OVC011 M06/M08 Q0993=
EFSA 102120Z AUTO 34010KT 310V040 9999 -SN FEW014 SCT017 BKN038
OVC050 M08/M10 Q0992=
EFUT 102120Z AUTO 35013KT 320V020 9999 -SG OVC011 M05/M06 Q0991=
EFVR 102120Z AUTO 01008KT 320V050 0500 +SN BKN014 OVC019 M07/M09
Q0994=

0000021700
868
SANO36 ENMI 102120
METAR ENBS 102120Z NIL=
METAR ENHK 102120Z NIL=
METAR ENHV 102120Z NIL=
METAR ENLK 102120Z NIL=
METAR ENMH 102120Z NIL=
METAR ENNK 102120Z NIL=
METAR ENNM 102120Z NIL=

0000030700
869
SANO35 ENMI 102120
METAR ENMS 102120Z NIL=
METAR ENRM 102120Z 08012KT CAVOK M07/M14 Q1005=
METAR ENRS 102120Z NIL=
METAR ENSK 102120Z NIL=
METAR ENSO 102120Z NIL=
METAR ENST 102120Z VRB04G14KT CAVOK M08/M16 Q1008 RMK WIND 300FT
           VRB08G19KT=
METAR ENVD 102120Z NIL=

0000021500
870
SADL33 EDZO 102120
METAR EDFE 102120Z NIL=
METAR EDFH 102120Z 24005KT CAVOK 02/00 Q1017=
METAR EDFM 102120Z NIL=
METAR EDLV 102120Z 23008KT 9999 BKN011 06/03 Q1016=
METAR EDVK 102120Z NIL=

0000065200
871
SAFI31 EFHK 102120
METAR EFHK 102120Z 33013KT 9999 BKN009 M02/M03 Q0992 NOSIG=
METAR EFJY 102120Z AUTO 36008KT 9999 OVC011 M06/M08
 Q0995=
METAR EFKU 102120Z AUTO 01013KT 9999 -SN OVC016 
M07/M09 Q0996=
METAR EFOU 102120Z AUTO 05007KT 010V100 8000 -SN FEW017/// BKN024/// 
OVC045/// M11/M13 Q1004 12420581=
METAR EFRO 102120Z AUTO 03013KT CAVOK M17/M19 
Q1008=
METAR EFTP 102120Z AUTO 36010KT 9999 SCT007 OVC009 
M03/M04 Q0995=
METAR EFTU 102120Z AUTO 02008KT 340V040 9999 OVC005/// M01/M02 Q0995 
R08/19//80=
METAR EFVA 102120Z AUTO 03007KT 9999 SG SCT014/// SCT024/// BKN027///
M07/M09 Q1000 R16/450162=

0000079700
872
SASN31 ESWI 102120
METAR ESGG 102120Z 23008KT 9999 OVC004 03/03 Q1001 R21/29//95=
METAR ESGJ 102120Z 19005KT 9999 BKN014 00/M00 Q1001 R01/720068=
METAR ESGP 102120Z 22006KT 9999 BKN018 05/03 Q1001 R19/19//95=
METAR ESGT 102120Z NIL=
METAR ESMK 102120Z AUTO 27011KT 5000NDV -RA FEW010/// SCT014///
BKN018/// 06/05 Q1005 REDZ=
METAR ESMQ 102120Z AUTO VRB02KT 9999 OVC016/// 02/M00 Q1004=
METAR ESMS 102120Z 26015KT 9999 BKN009 BKN020 05/05 Q1006
R17/29//95=
METAR ESMT 102120Z AUTO 25010KT 9999 FEW007/// SCT008/// BKN010///
06/04 Q1004=
METAR ESMX 102120Z VRB02KT 9999 FEW012 OVC022 01/M00 Q1003=
METAR ESTA 102120Z AUTO 26015KT 9999 BKN010/// OVC017/// 06/04
Q1005=
METAR ESTL 102120Z AUTO 26016KT 9999NDV FEW009/// BKN018///
OVC025/// 06/06 Q1005=

00000000