0000037400
826
FCIN90 VABP 110600
TAF VABP 110600 11091118 05010KT 2500 HZ FEW020 SCT100 BECMG 11131115 1500   BR FEW020 SCT100=
TAF VAID 110600 11091118 05010KT 2500 HZ FEW020 SCT100 BECMG 11131115 1500   BR FEW020 SCT100=
TAF VAKJ 110600 11091118 32005KT 0800 FG SCT020 BKN100 TEMPO 11091118  1000 -RA/TSRA FEW030CB=
TAF VIGR 110600 11091118 32005KT 1500 BR SCT020=
0000054100
827
UDAS02 BABJ 110649
AMDAR 1106
DES CNFNXL 3659N 11707E 110644 F022 MS019 213/010 TB/ S//1=
DES CNFNXL 3701N 11708E 110645 F017 MS005 214/011 TB/ S//1=
DES CNFNXL 3702N 11711E 110646 F016 PS000 230/017 TB/ S//1=
DES CNFNXL 3700N 11713E 110647 F016 PS000 237/009 TB/ S//1=
DES CNFNXP 2427N 11429E 110644 F240 MS158 258/072 TB/ S//1=
DES CNFNXP 2422N 11428E 110645 F232 MS133 262/076 TB/ S//1=
DES CNFNXP 2421N 11427E 110645 F230 MS128 262/075 TB/ S//1=
DES CNFNXP 2418N 11422E 110646 F219 MS150 260/073 TB/ S//1=
0000011900
828
SNHE40 EGRR 110700
AAXX 11074
61901 469// /1309 10184 20173 39668 40174 53017 333 8//99 555
 7/090=
0000046700
829
SZPA01 AMMC 110657
CREX++
T000103 A001 D01021 D06025++
0136250 17293000 67590 2014 01 11 06 50 3015 11 07 00 01
01462 0071 01470 0082 01449 0064 01455 0073 01448 0069 01442 0065+
0710610 17137250 67680 2014 01 11 06 50 3013 11 07 00 01
00895 0106 00899 0112 00894 0108 00891 0107 00883 0101 00881 0101+
0698060 15820000 67950 2014 01 11 06 50 3023 11 07 00 01
00693 0020 00690 0019 00689 0019 00687 0019 00688 0022 00687 0023++
7777

0000191300
830
SZAU01 AMMC 110657
CREX++
T000103 A001 D01021 D06025++
-1927750 14705860 59260 2014 01 11 06 50 3030 11 07 00 01
02215 0189 02213 0183 02222 0186 02227 0187 02233 0187 02243 0193+
-2316110 15079000 59670 2014 01 11 06 50 3003 11 07 00 01
03162 0098 03171 0100 03193 0116 03193 0108 03215 0123 03212 0114+
-3447330 15091170 60420 2014 01 11 06 50 2963 11 07 00 01
01100 -0004 01093 -0012 01095 -0010 01086 -0019 01078 -0028 01075 -0031+
-4105000 14591500 60910 2014 01 11 06 50 2890 11 07 00 01
01837 -0033 01856 -0024 01862 -0030 01863 -0038 01874 -0037 01882 -0041+
-4254640 14793080 61170 2014 01 11 06 50 2895 11 07 00 01
01295 0073 01299 0077 01305 0082 01315 0092 01322 0098 01331 0106+
-3834390 14161360 61410 2014 01 11 06 50 2905 11 07 00 01
00467 0027 00484 0043 00444 0002 00473 0030 00464 0020 00450 0004+
-3214890 13364170 62000 2014 01 11 06 50 2963 11 07 00 01
01208 0164 01207 0161 01210 0161 01206 0155 01212 0158 01211 0156+
-3387080 12189720 62080 2014 01 11 06 50 2945 11 07 00 01
00796 0075 00790 0068 00797 0074 00795 0072 00790 0066 00808 0083+
-3182560 11573860 62237 2014 01 11 06 50 2972 11 07 00 01
00877 0063 00878 0063 00868 0053 00870 0054 00861 0044 00855 0037+
-2422000 11339750 62385 2014 01 11 06 50 //// 11 07 00 01
01233 -0061 01229 -0067 01135 -0163 01242 -0057 01192 -0109 01208 -0095+
-2181670 11419110 62430 2014 01 11 06 50 //// 11 07 00 01
01817 -0032 01809 -0042 01822 -0033 01818 -0039 01831 -0029 01842 -0020+
-1800080 12221830 62650 2014 01 11 06 50 3043 11 07 00 01
05495 0085 05502 0084 05509 0078 05516 0078 05525 0074 05532 0073+
-1247190 13084580 63230 2014 01 11 06 50 3050 11 07 00 01
05509 0231 05507 0233 05504 0236 05499 0235 05495 0237 05491 0235+
-1386000 13641580 63511 2014 01 11 06 50 3045 11 07 00 01
01613 0097 01613 0096 01615 0096 01618 0097 01619 0097 01622 0098++
7777

0000034100
831
SZIO01 AMMC 110657
CREX++
T000103 A001 D01021 D06025++
-1211670 09689190 46280 2014 01 11 06 50 3018 11 07 00 01
01281 0045 01278 0041 01277 0039 01284 0045 01288 0048 01285 0045+
-1042940 10566940 46290 2014 01 11 06 50 //// 11 07 00 01
01281 0002 01335 0054 01288 0005 01354 0069 01291 0004 01348 0059++
7777

0000179100
832
SZPS01 AMMC 110657
CREX++
T000103 A001 D01021 D06025++
-0204190 14737360 56130 2014 01 11 06 50 3028 11 07 00 01
01034 0071 01038 0077 01038 0078 01034 0076 01029 0073 01032 0078+
-0669280 15640860 56363 2014 01 11 06 50 //// 11 07 00 01
00604 -0077 00599 -0080 00593 -0084 00587 -0087 00591 -0081 00587 -0083+
-0942890 15995560 56670 2014 01 11 06 50 3043 11 07 00 01
00791 -0035 00788 -0037 00791 -0032 00787 -0035 00787 -0034 00785 -0035+
-1072080 16580190 57131 2014 01 11 06 50 //// 11 07 00 01
03380 2819 03380 2823 03380 2826 03381 2830 03380 2832 03380 2835+
-1551560 16718860 57210 2014 01 11 06 50 //// 11 07 00 01
00757 -0074 00748 -0079 00739 -0084 00729 -0090 00727 -0088 00734 -0077+
-1775690 16830030 57320 2014 01 11 06 50 3015 11 07 00 01
00855 -0070 00851 -0070 00846 -0071 00842 -0072 00837 -0073 00832 -0075+
-4397330 16861610 65180 2014 01 11 06 50 2888 11 07 00 01
02292 0359 02296 0359 02287 0348 02285 0343 02293 0348 02297 0349+
-2120470 -15978530 65980 2014 01 11 06 50 3013 11 07 00 01
00594 -0008 00599 -0001 00634 0036 00610 0013 00587 -0007 00572 -0021+
-2113810 -17518140 66600 2014 01 11 06 50 //// 11 07 00 01
01002 0083 00998 0084 01000 0089 00992 0086 00994 0092 00986 0088+
-1382670 -17176110 66840 2014 01 11 06 50 3010 11 07 00 01
00612 0032 00607 0029 00607 0032 00616 0043 00593 0023 00611 0043+
-1813250 17842750 67050 2014 01 11 06 50 3032 11 07 00 01
01192 0109 01188 0110 01179 0106 01176 0108 01176 0112 01170 0111+
-1760530 17743810 67070 2014 01 11 06 50 3033 11 07 00 01
01172 0003 01166 0003 01161 0003 01156 0003 01150 0003 ///// ////+
-0850250 17919500 67440 2014 01 11 06 50 3030 11 07 00 01
01779 0008 01770 0002 01767 0003 01768 0007 01760 0003 01759 0005++
7777

0000027600
833
SXHW11 KWAL 110657
15D142A4 011065702 :PRS 1 #1 1311 1326 1318 1299 1325 1308 1316 1324 1321 1307 :RAD 1 #1 6901 6904 6900 6897 6903 6901 6902 6902 6902 6895 :ENC 2 #5 4803 4801 4806 4797 :SW1 57 #60 0 :SW2 27 #60 57 :BAT 4 #5 13.0 :NAME 15D142A4  35+0NN 216W
0000159100
834
SMBW40 VGDC 110600 RRB
AAXX 11064
41858 31420 83605 10180 20120 30138 40185 70542 8452/
333 56199 58010 70000 84615 88458=
41863 31356 82702 10165 20120 30149 40194 70522 8562/
333 56699 58023 70000 83710 85618 88458=
41886 31940 00000 10225 20120 30152 40173 70544 333
58015 70000=
41895 31457 53605 10219 20130 30155 40178 70142 83530
333 56890 58003 70000 83616 84362=
41915 31950 02702 10225 20160 30141 40167 70240 333
59008 70000=
41926 31950 03302 10232 20120 30158 40150 70500 333
59003 70000=
41929 31950 03202 10236 20140 30159 40168 70540 333
59003 70000=
41933 31950 00000 10234 20110 30153 40162 70500 333
59007 70000=
41939 31950 00000 10235 20150 40176 70544 333 58001
70000=
41941 32956 03603 10237 20160 30159 40165 333 59005
70000=
41946 32956 03601 10240 20120 30155 40159 333 59007
70000=
41947 31950 00000 10245 20140 30167 40169 70544 333
58002 70000=
41951 32950 01001 10256 20150 30155 40160 333 59004
70000=
41953 31950 00000 10250 20140 30153 40159 70500 333
59003 70000=
41960 31950 03602 10255 20120 30166 40167 70544 333
58001 70000=
41963 31940 03601 10260 20150 30163 40166 70500 333
58004 70000=
41964 32950 00000 10250 20160 30156 40159 333 59001
70000=
41965 32959 00000 10275 20160 30149 40157 333 59002
70000=
41966 31940 00401 10234 20150 30083 40163 70540 333
59008 70000=
41984 32958 00000 10245 20130 30155 40157 333 59001
70000=
41989 32950 00000 10250 20160 30156 40159 333 59001
70000=
41998 32956 02901 10282 20180 30146 40152 333 58002
70000=
0000011000
835
UANT99 KDDL 110656
ARP KAC118 5400N01938W 0656 F330 MS58 248/63 KT
9KAOA QXT AOE 110656 F23A
0000011000
836
UANT99 KDDL 110656
ARP VIR10K 5021N04347W 0656 F390 MS60 306/50 KT
GVKSS DDL XXH 110656 J97A
0000011000
837
UANT99 KDDL 110656
ARP AZA611 4753N03600W 0656 F390 MS50 255/42 KT
EIEJJ QXT AOW 110656 J43A
0000012200
838
SSVX07 KARS 110655
ZZYY 48536 11014 0650/ 175233 148559 6112/
11119 11237
444 20120 11014 0605/ 504//=
0000011000
839
UANT01 CWAO 110656
ARP AZA65F 4749N04058W 0656 F390 MS54 301/33 KT
EIEJG QXT AOW 110656 J40A
0000011100
840
UANT01 CWAO 110656
ARP FIN1990 5704N02950W 0656 F380 MS58 212/56 KT
OHLQE QXT AOE 110656 J94A
0000011100
841
UANT01 CWAO 110656
ARP UAL932 5010N04445W 0656 F370 MS63 318/56 KT
N224UA DDL XXW 110656 F21A
0000011100
842
UANT01 CWAO 110656
ARP NAX7006 5514N04255W 0656 F410 MS56 271/40 KT
EILNB QXT AOW 110656 L47A
0000008400
843
UAPA01 KWBC 110657
ARP DAL649 1734N 14350E 0650 F400 MS55 248/013KT=
0000010800
844
UANT01 CWAO 110657
ARP ANZ2 5603N04822W 0656 F330 MS59 282/80 KT
ZKOKQ QXT AME 110657 F20A
0000011000
845
UANT01 CWAO 110657
ARP ETD150 5556N05926W 0657 F305 MS58 283/93 KT
A6ETQ QXS YHO 110657 F09A
00000000