0000010900
533
UANT01 CWAO 110649
ARP BAW98 5239N04418W 0648 F390 MS57 298/46 KT
GZBJC QXT AOW 110649 L62A
0000011000
534
UANT01 CWAO 110649
ARP AFR377 5035N03730W 0649 F350 MS54 281/23 KT
FGLZU QXT AOW 110649 J02A
0000035600
535
SSVX07 KARS 110648
ZZYY 48733 11014 0640/ 772964 152376 6111/
11119 11256 40058=
ZZYY 48508 11014 0640/ 772719 159203 6111/
11119 11260 40088=
ZZYY 48507 11014 0640/ 773076 135090 6112/
11119 11283 49968
444 20120 11014 0600/ 504//=
ZZYY 48731 11014 0640/ 774137 154957 6113/
11119 11233 40057
444 20130 11014 0602/ 504//=
0000015500
536
SAIN34 VOMM 110640
METAR VOMM 110640Z 04005KT 6000 SCT020 29/19 Q1014 NOSIG=
METAR VOTV 110640Z 18005KT 5000 HZ FEW018 30/23 Q1012 NOSIG=
0000032000
537
SSVX08 KARS 110648
ZZYY 48400 10014 12004 750144 144847 6111/
11119 01126 10064 29092
22219 00091
33311 88872 20000 30912 20001 30906 43226
444 20110 10014 1218/ 521// 60401=
ZZYY 48400 11014 06004 750115 144845 6111/
11119 03427 10070 29077
22219 00090
444 20110 11014 0557/ 521// 60401=
0000014000
538
SSVX12 KARS 110648
ZZYY 48600 11014 0630/ 173742 173978 6113/
11119 40219 57006
444 20130 11014 0603/ 501// 80140 80000=
0000011000
539
UANT01 CWAO 110649
ARP AZA611 4734N03727W 0649 F390 MS51 267/37 KT
EIEJJ QXT AOW 110649 J42A
0000011100
540
UANT01 CWAO 110649
ARP UAL924 4630N04751W 0647 F370 MS63 311/54 KT
N778UA DDL YYT 110649 F21A
0000009600
541
SAIN34 VOMM 111010 RRA
METAR VOMM 111010Z 07008KT 8000 FEW020 29/19 Q1012 NOSIG=
0000041100
542
SAIN31 VABB 111010
METAR VAAH 111010Z 04007KT 3000 FU NSC 22/11 Q1015 BECMG 4000=
METAR VABB 111010Z 31012KT 4000 FU NSC 24/08 Q1013 NOSIG=
METAR VANP 111010Z 23006KT 4000 HZ FEW020 27/16 Q1013 NOSIG=
METAR VOHS 111010Z 22005KT 210V290 5000 HZ SCT020 29/10 Q1014 NOSIG=
METAR VOMM 111010Z 07008KT 8000 FEW020 29/19 Q1012 NOSIG=
METAR VOTR 111010Z 08007KT 7000 FEW016 30/20 Q1011 NOSIG=
0000011000
543
UANT01 CWAO 110649
ARP AFR065 5600N03928W 0649 F390 MS57 253/26 KT
FHPJA QXT AOW 110649 J45A
0000011000
544
UANT01 CWAO 110649
ARP AFR083 5603N03223W 0649 F360 MS55 220/49 KT
FGSPO QXT AOW 110649 F24A
0000054100
545
UDAS02 BABJ 110641
AMDAR 1106
LVR CNFNXP 2602N 11454E 110630 F321 MS358 264/103 TB/ S//1=
LVR CNFNXP 2542N 11447E 110633 F321 MS360 266/097 TB/ S//1=
DES CNFNXP 2522N 11442E 110636 F317 MS349 264/092 TB/ S//1=
DES CNFNXP 2501N 11437E 110639 F278 MS250 259/084 TB/ S//1=
LVR CNFPYL 3352N 10949E 110630 F291 MS450 259/062 TB/ S//1=
LVR CNFPYL 3342N 11015E 110633 F291 MS448 259/066 TB/ S//1=
LVR CNFPYL 3333N 11041E 110636 F291 MS448 262/066 TB/ S//1=
LVR CNFPYL 3323N 11107E 110639 F291 MS448 262/068 TB/ S//1=
0000029300
546
UDAS02 BABJ 110639
AMDAR 1106
DES CNFNXL 3624N 11702E 110635 F107 MS138 286/030 TB/ S//1=
DES CNFNXL 3627N 11702E 110636 F102 MS133 281/032 TB/ S//1=
DES CNFNXL 3632N 11702E 110637 F088 MS111 280/028 TB/ S//1=
DES CNFNXL 3636N 11702E 110638 F074 MS085 279/021 TB/ S//1=
0000094200
547
SMKO04 RKSL 110600
AAXX 11061
47003 42980 03204 10003 21174 30234 40238 57025=
47005 42980 22303 11121 21183 38609 58018 80002=
47022 42975 03206 11080 21167 38830 57011=
47028 42967 03201 11002 21108 30187 40284 57030=
47031 42970 03204 11090 21219 38948 57018=
47037 42967 01401 11014 21115 30173 40299 58027=
47039 42960 00000 11027 21116 30114 40312 57025=
47046 42969 02303 10017 21092 30235 40258 57004=
47050 42765 60000 11014 21126 30256 40291 57021 86020=
47052 42965 52704 11013 21135 39935 40284 57019 80002=
47060 42960 80903 10002 21026 30240 40300 58027 80002=
47061 42980 03202 10043 21120 30226 40272 57014=
47065 42970 00000 10018 21117 30241 40307 58035=
47067 42965 82503 10010 21135 30203 40336 57031 80001=
47068 42960 81401 10026 21072 30268 40304 57011 80007=
47070 42770 82704 10011 21016 30226 40316 57019 88030=
47075 42980 52303 11011 21109 39998 40443 57009 80001=
0000015500
548
SMVA01 VHHH 110600
BBXX
VRFU8 11064 99100 10675 41698 30818 10265 20208 40150
52010 70200 83876 22274 00265 20202 302// 40302 80225=

0000048800
549
SMVB01 VHHH 110600
BBXX
VRCI9 11064 99091 10702 41297 40916 10270 20243 40160
51010 72582 8479/ 22274 00299 20403 3//// 80250=
VRLQ3 11064 99353 11310 41598 53116 10050 21059 40296
54000 70210 8517/ 22254 00140 20203 336// 40203 80010=
VRGO6 11064 99305 11291 41498 70210 10170 20079 40301
56010 70222 87460 22254 00220 20602 335// 40603 80120=
VRCG8 11064 99248 11197 41797 70233 10195 20144 40200
56050 70222 87/2/ 22214 00160 20607 301// 40909 80163=

0000010400
550
SMBM01 VBRR 110600 RRD
AAXX 11064
48042 31956 03601 10255 20155 40163 70500 333 58018=
0000057900
551
SMKO02 RKSL 110600
AAXX 11061
47008 42970 01402 11012 21116 30186 40242 54000=
47014 42950 00000 11076 21148 39839 40260 58037=
47016 42970 00000 11059 21138 39377 40284 57043=
47020 42965 00000 11090 21145 39925 40325 57025=
47025 42978 02303 10004 21139 30222 40252 57004=
47035 42970 80000 11003 21101 30263 40273 57032 8803/=
47041 42970 00000 10042 21093 30223 40251 57007=
47055 42970 22706 10033 21150 30229 40275 57021 80001=
47058 42960 52302 10010 21087 30257 40305 57020 80002=
47069 42665 80000 11003 21110 30210 40313 58004 885//=
0000015500
552
SMVD01 VHHH 110600
BBXX
VRGO3 11064 99542 71616 41497 81228 10040 20010 49830
57060 70226 88/// 22264 00071 2//// 3//// 4//// 80030=

00000000