0000407200
153
SMRS11 RUMS 110600
AAXX 11061
20107 12997 82503 11005 21059 39998 40093 52003 60002 886// 333 21017
44134 86707 91006=
22003 11496 82308 11060 21091 30154 40164 52002 60032 78583 889// 333
21093 48030 91010 91112=
22004 11980 00000 11217 21243 30066 40193 53002 69902 77670 333 21241
47004 93508=
22100 12/98 50000 11350 21387 30049 40217 5//// 60002 333 21382
47039=
22140 12/// /0811 11095 21117 30130 40146 55002 60002 333 21116 91015
91115=
22113 11959 62003 11286 21321 30117 40189 54001 69942 71022 80001 333
21286 48032 91004 93548=
22193 42998 01502 11209 21226 30181 40192 52002=
22212 11571 73201 11227 21260 39994 40175 54001 69902 70281 84930 333
21262 48049 91002 93510=
22213 12584 12601 11297 21327 39969 40158 53001 60002 81500 333 21308
47049 91002 93503=
22217 12984 00303 11186 21212 30109 40143 54000 60002 333 21217 43042
91006=
22235 12983 30603 11186 21204 39929 40140 54001 60002 80001 333 21201
48050 91005=
22249 12999 20704 11166 21188 39931 40132 54001 60002 80030 333 21176
47045 91008 91111=
22312 11978 10506 11142 21179 30097 40121 54001 60002 73630 80001 333
21151 44051 91014 91114=
22334 43/// /0410 11150 21196 30078 40085 5//// 333 91014=
22349 11/93 90516 11129 21142 30060 40072 57006 60012 73983 333 21131
47013 91021 91123 92993=
22361 NIL=
22383 42997 61004 11256 21303 30141 40160 53006 80001=
22408 11584 30104 11153 21180 39912 40072 52005 69942 73673 83500 333
21156 47052 91110=
22429 41395 80508 11077 21093 30000 40010 57002 78583 8697/ 333 83916
91017 91121 92982=
22456 41496 80702 11178 21196 39956 40050 57005 77172 8802/=
22481 NIL=
22546 41496 80504 11168 21192 30000 40011 56004 77173 8372/ 333
91110=
22602 11459 80206 11120 21140 39779 40015 52010 69952 77073 885// 333
21122 47017 88614 91010 91111=
22619 11480 80405 11115 21150 39813 49980 52004 60032 73673 885// 333
21121 47011 88613 91010 91113=
22638 41497 80307 11171 21213 39728 49967 5//// 77773 8802/ 333
21171=
22671 41395 80504 11164 21184 39920 40004 57007 77377 8872/ 333
86707=
22721 11498 73602 11138 21173 39856 49962 53007 60042 77073 87020 333
21138 47021 87515 93625=
22749 41345 80404 11121 21133 39775 49904 52003 77172 8872/ 333 21121
88709=
22802 11584 73604 11085 21117 39918 49942 52008 69962 70281 82930 333
21088 47001 91010 91111=
22820 11215 80103 11124 21130 39790 49934 52014 60122 77372 8872/ 333
21125 47008 87705 93703=
22869 41313 80803 11004 21004 39729 49875 57012 77573 8872/ 333
21004=
22876 41425 80806 11058 21059 39853 49928 56022 78583 889// 333
88914=
22889 41496 80906 11031 21033 39861 49947 57021 77173 8872/ 333
92982=
22951 41250 80803 11004 21004 39571 49846 57005 77172 8872/ 333 21004
88704=
22983 41430 81204 10000 21003 39830 49924 57018 77372 8872/ 333 91007
91108=
26059 11596 83204 11035 21056 39927 49952 52032 60022 77172 8872/ 333
21038 47001 87517 91110=
26063 12497 80104 11048 21072 39924 49932 52028 69962 885// 333 21048
46997 88615=
26094 11456 83304 11023 21029 39798 49873 52046 60022 77176 8872/ 333
21023 47000 88713 93402=
26157 12597 73305 11017 21041 39910 49960 52027 60012 87300 333 21018
91010 91111=
26167 NIL=
26258 11498 83104 11005 21026 39904 49959 52033 60022 70282 889// 333
21005 42997 91115=
26298 11496 83005 10009 20006 39624 49850 53020 69932 72162 886// 333
20008 42997 91012 91112=
26359 11460 83104 10002 21009 39823 49957 52035 60052 78582 889// 333
21002 43001 91112=
26456 11596 82703 10009 21008 39843 49964 52033 60022 76362 8872/ 333
20005=
26702 11496 82903 10044 20037 30049 40076 52008 69952 78082 889// 333
20041 91007 91107=
26711 12597 82403 10040 20020 30022 40060 52011 60002 885// 333 20024
91005 91106=
26781 11396 82904 10007 20002 39643 49934 52012 60032 77176 887// 333
20005 43997 87708 91112=
27208 11494 82602 10019 20019 39664 49837 53008 60022 76187 8872/ 333
20005=
27402 11497 82101 10013 20007 39671 49847 52009 60022 76162 8872/ 333
20013 88714=
0000128000
154
SMTA10 UTDD 110600
AAXX 11061
38598 41996 60910 11021 21036 40324 52008 71012 83031=
38599 31996 80709 10005 21082 39766 40297 50002 71011 80001 333  
21051=
38705 42698 80203 10038 20004 39030 48500 56018 82574=
38713 32999 81601 10046 21076 39057 48520 56004 80004 333   21079=
38715 NIL=
38718 NIL=
38719 42999 51804 11116 21240 47110 54000 80001=
38725 42999 70000 11068 21225 48580 52002 80002=
38734 42699 50504 11078 21177 47080 57003 82503=
38744 NIL=
38836 32999 30202 10050 21065 39340 40292 56001 80003 333   21094=
38838 41998 20000 11041 21050 39620 40326 57001 70241 80002=
38844 NIL=
38846 42999 61802 11046 21093 38554 48520 58008 82033=
38847 NIL=
38851 41999 81208 11061 21147 48610 53008 73641=
38856 42998 50000 11003 21085 48620 51002 80001=
38869 42999 20000 11170 21229 47160 51010 80001=
38875 42999 12702 11209 21234 47/// 5//// 81500=
38878 42999 00000 11160 21187 47140 51008=
38932 NIL=
38933 31996 21802 10012 21020 39791 40323 53015 71000 80002 333  
21044=
38944 32998 20000 10005 21009 39701 40253 80001 333   21065=
38947 NIL=
38951 42997 00907 11025 21185 48640 52021=
38954 32999 00000 11062 21176 38062 48670 52023 333   21105=
38957 42998 00000 11091 21153 47870 52008=
0000011100
155
UANT99 KDDL 110617
ARP DAL142 4936N03224W 0617 F350 MS56 201/47 KT
N825MH QXT AOW 110617 F31A
0000011000
156
UANT99 KDDL 110617
ARP QTR708 5428N04617W 0617 F290 MS55 295/82 KT
A7BAN QXT AOW 110617 F16A
0000011000
157
UANT99 KDDL 110617
ARP ACA864 5301N01604W 0618 F370 MS57 264/81 KT
CGHLM DDL BLY 110618 J32A
0000011000
158
UANT99 KDDL 110617
ARP DLH465 4549N03619W 0618 F370 MS47 252/29 KT
DABVY QXT AME 110618 F99A
0000011100
159
UANT99 KDDL 110618
ARP UAL972 5605N02357W 0618 F370 MS60 224/59 KT
N777UA DDL XXW 110618 F32A
0000011000
160
UANT99 KDDL 110618
ARP QTR714 5804N04725W 0618 F330 MS58 266/54 KT
A7BBF QXS UAK 110618 F47A
0000011000
161
UANT99 KDDL 110618
ARP BAW214 5110N02851W 0618 F330 MS59 186/63 KT
GCIVN QXT AOE 110618 F20A
0000011000
162
UANT99 KDDL 110618
ARP UAE242 5549N04210W 0618 F330 MS58 288/37 KT
A6EEH DDL XXH 110618 J24A
0000011000
163
UANT99 KDDL 110618
ARP AFR377 4924N04332W 0618 F350 MS61 323/60 KT
FGLZU QXT AOW 110618 J96A
0000011100
164
UANT99 KDDL 110618
ARP DAL411 4928N04316W 0618 F360 MS61 321/56 KT
N1501P QXT AOW 110618 F65A
0000072500
165
SMZW01 FVHA 110600
AAXX 11064
67765 NIL=
67775 12480 50806 10219 20193 38531 48536 6//// 83132 333 20174
      58021 83810 83359=
67779 12480 50602 10241 20211 39067 48524 69944 81132 333 20189
      58017 81814 85360=
67853 NIL=
67861 11950 70301 10193 20185 38733 48516 60074 74264 8707/ 333
      20187 58016 87459=
67867 32980 40000 10228 20181 38599 48528 83032 333 20185 58022
      83359=
67881 NIL=
67965 NIL=
67975 NIL=
67977 32580 11605 10280 20239 39677 48566 81502 333 20226 58030
      81620=
67983 31435 51303 10237 20209 38904 48534 74011 81102 333 20195
      58034 81701 85080=
67991 32680 41202 10278 20196 39593 48513 83132 333 20210 58037
      83840=
0000114900
166
SMAG01 SABM 110600
AAXX 11064
87022 NIL=
87046 32562 43208 10254 20188 39050 48457 57016 82570 333
56090 82630 84360=
87047 32565 51405 10216 20166 38738 48463 58023 82105 333 56206
82825 85270=
87097 32970 60505 10237 20228 39782 40084 57016 80008 333 56006
86270=
87121 31662 81812 10240 20207 39570 40061 52032 70292 885// 333
56499 88640=
87129 NIL=
87148 31670 40209 10278 20224 39941 40044 58009 71300 81976 333
56555 57950 81935 83270=
87155 NIL=
87162 32970 03605 10276 20219 39993 40059 57009=
87166 31760 50705 10282 20236 39984 40053 58015 71311 81906 333
56505 57959 81950 85270=
87217 NIL=
87222 11660 83204 10229 20219 39557 40055 51007 60061 71798 889//
333 57980 87635 81950=
87257 11256 80708 10220 20208 39985 40084 50013 60471 79599 8692/
333 56669 57910 82706 86550 82957 94970=
87289 11450 82709 10220 20205 30010 40092 55004 60091 79599 8492/ 333
 56560 57900 84615 88535 81945=
87311 32965 22312 10246 20098 39443 40101 50003 82070 333 56000
82360=
87320 11670 60000 10227 20217 39577 40086 51020 69941 71796 86900 333 56200
57926 86635 81938=
87328 NIL=
0000030400
167
SMAG01 SABM 110600 RRA
AAXX 11063
87007 32970 10000 10096 21015 36728 47121 57011 80005 333 56000
81270=
87178 31970 40904 10254 20207 39941 40082 58013 70290 80001 333
56000 84070=
87270 41565 80924 10253 20219 30033 40093 53020 71792 8297/ 333
56669 57900 81630 81945 88550=
0000005100
168
SMBZ02 SBBR 110600
AAXX 11064
NIL
0000005100
169
SMBZ01 SBBR 110600
AAXX 11064
NIL
0000146400
170
SMBZ06 SBBR 110600
AAXX 11064
82022 32970 00806 10240 20181 30009 40105 333 58002=
82193 32970 41004 10238 20225 30082 40100 84030 333 59014=
82281 32470 30804 10258 20207 30040 40102 83500 333 59001=
82332 22470 40605 10221 20211 30015 40109 83530 333 58008 60151=
82398 32570 40912 10263 20202 30074 40103 84500 333 59004=
82400 NIL=
82579 21570 73102 10244 20229 30021 40097 72161 83550 333 59001
 69931=
82917 41570 60905 1//// 2//// 39877 4//// 72992 83230 333 59002=
82965 21458 80000 10226 20219 39789 40114 76096 8577/ 333 58013
 60011=
82993 32570 23303 10214 20205 39992 40128 82100 333 58007=
83208 NIL=
83349 21458 60908 10261 20225 30134 40140 71562 87830 333 58008
 60011=
83362 32570 43203 10230 20206 39885 40099 81130 333 59001=
83378 32570 30000 10207 20145 38956 48520 84200 333 58006=
83460 32570 20000 10230 20217 30080 40139 82200 333 58002=
83497 NIL=
83566 32570 60905 10207 20172 39217 48540 82130 333 59007=
83599 NIL=
83612 32870 20106 10230 20178 39478 48530 57012 82030=
83649 32970 03102 10236 20222 30141 40146 55013=
83650 NIL=
83780 32970 00303 10229 20126 39236 48540 56010=
83827 32970 00000 10244 20221 39816 40085 58016=
83840 21470 42606 10192 20181 39123 48530 53009 71792 85900
 333 69901=
83899 21570 60907 10221 20208 30118 40124 58009 79596 86900
 333 60091=
83925 NIL=
83970 NIL=
83971 22970 03602 10216 20197 30091 40095 57009 333 69911=
0000005100
171
SMBZ04 SBBR 110600
AAXX 11064
NIL
0000005500
172
SMBZ06 SBBR 110600 RRA
AAXX 11063
NIL
00000000