0000012400
573
SMVS02 VNNN 110600
AAXX 11061
48852 12598 70701 10237 20196 30168 40178 57029 60013 872// 333 58000 87895=
0000041500
574
SMLY01 HLMC 110600
AAXX 11064
62271 33/// /0604 10076 20033 39789 40319 51017
  333 20066 55072=
62002 NIL=
62007 NIL=
62008 NIL=
62010 NIL=
62012 NIL=
62014 NIL=
62016 NIL=
62018 NIL=
62019 NIL=
62053 NIL=
62055 NIL=
62056 NIL=
62059 NIL=
62062 NIL=
62103 NIL=
62120 NIL=
62124 NIL=
62131 NIL=
62161 NIL=
62176 NIL=
62200 NIL=
62212 NIL=
62259 NIL=
0000138300
575
SMLY01 HLMC 110600
AAXX 11064
62002 32960 42014 10112 20030 39502 48555 51001 84050
  333 20105 50534 55071 84360=
62007 32960 01806 10118 20070 40227 54000 83070
  333 20115 50554 83360=
62008 32960 51808 10110 20079 39422 48551 58008 85050
  333 20110 50544 55086 85360=
62010 32960 51705 10093 20055 40232 52005 85050
  333 20051 50304 55079 85360=
62012 NIL=
62014 NIL=
62016 32960 61606 10077 20057 40268 53008 80006
  333 20072 50294 55092 86270=
62018 32960 00000 10065 20015 30160 57009
  333 20030=
62019 32960 41708 10105 20085 40249 5//// 84030
  333 20079 50154 55060 84360=
62053 32560 61805 10120 20097 40267 53013 84530
  333 20096 50264 55000 84220 86358=
62055 NIL=
62056 NIL=
62059 NIL=
62062 32960 42608 10130 20101 40254 53021 84050
  333 20124 50204 55/// 84358=
62103 32966 31512 10123 20097 39801 4//// 5//// 83040
  333 20110 50914 55100 83360=
62120 NIL=
62124 32960 00000 10045 20025 39735 40251 52005
  333 20043 50314 55055=
62131 32962 30000 10052 20028 39953 40279 52008 80006
  333 20052 50324 55097 83270=
62161 32970 00000 10110 20068 40262 53025
  333 20105 50304 55///=
62176 NIL=
62200 32960 41815 10100 20031 39/// 4//// 5//// 80004
  333 20077 50594 55100 84070=
62212 NIL=
62259 NIL=
62271 32960 00705 10068 20032 40309 53012
  333 20066 5//// 55///=
0000072300
576
SMPL01 SOWR 110600
AAXX 11061
12120 12470 72711 10054 20044 30083 40087 50002 69992 875//
  333 10058 20050 31004 55003 70010 91116 93000=
12250 12476 72402 10044 20024 30039 40128 52007 69902 878//
  333 10064 20044 31004 70001 82813 91110 93000=
12295 11456 82604 10038 20034 39908 40093 53015 69952 78082 889//
  333 10048 20035 31003 70005 88910 91113 93093=
12330 12565 72204 10035 20012 30039 40149 54000 60002 875//
  333 10060 20035 31003 55012 79999 93000=
12375 12680 72606 10049 20008 30002 40134 52009 69902 875//
  333 10061 20043 31003 55003 79999 91011 91115 93000=
12424 12999 62203 10026 21002 30018 40174 55001 60002 83032
  333 10069 20025 31101 55003 79999 93000=
0000037100
577
SMTG01 DXXX 110600
AAXX 11064
65352 31920 70406 10207 20024 3//// 4//// 70522 80002
  333 20205 5//// 87076=
65361 32958 70000 10190 20070 3//// 4//// 80002
  333 20185 5//// 87076=
65376 32957 72204 10230 20212 39657 40114 80002
  333 20219 58003 87076=
65387 31435 73602 10255 20246 30079 40096 71022 84502
  333 20/// 59002 84610 87073=
0000019700
578
SAAU31 AMMC 110600 CCA
METAR YPDN 110600Z 29011KT //// // ////// 31/24 Q1005 RENOSIG VIS:9999
     WX1:NOSIG RE1:NOSIG
     TEMPO 0630/0830 VRB25G45KT 1000 TSRA BKN010 SCT020CB=
0000194400
579
SMNL21 EHDB 110600
AAXX 11061
06201 47157 83308 10071 20063 30021 40073 53002 76285 8////
333 20071 81/03 84/10 87/12 91010 91113 91211=
06203 47261 8//12 10084 20070 30057 40108 58012 72385 8////
333 20083 83/06 85/07 85/10 91014 91115 91213=
06204 47358 82412 10086 20071 30040 40091 56018 76165 8////
333 20083 81/09 84/11 88/13 91015 91116 91214=
06205 47473 83308 10070 20051 39996 40055 55000 72385 8////
333 20066 82/15 85/22 88/26 91009 91113 91211=
06208 47249 82108 10063 20054 30050 40099 56013 75785 8////
333 20062 85/04 88/05 91011 91112 91210=
06211 47139 82411 10072 20068 30022 40078 56011 75186 8////
333 20069 82/03 86/04 87/06 91013 91115 91212=
06212 47559 72311 10084 20063 3//// 4//// 5//// 75265 8////
333 20080 83/25 84/29 87/33 91014 91115 91212=
06235 17244 82209 10067 20062 30110 40110 56012 60032 75386 8////
333 20065 3/006 70031 84/05 87/06 88/09 91013 91114 91210=
06240 17350 82107 10052 20039 30136 40131 56009 60002 71085 8////
333 20051 3/005 70000 87/07 88/08 91009 91112 91209=
06251 13/50 /2110 10067 20062 30095 40096 56014 60042
333 20063 3/006 70036 91013 91115 91212=
06258 46/// /2112
333 91014 91116 91213=
06269 17250 82107 10046 20035 30133 40127 56012 60002 71051 8////
333 20045 3/004 70000 86/06 88/08 91009 91112 91209=
06280 17229 82107 10051 20044 30113 40117 56010 69972 75281 8////
333 20039 3/003 70007 85/06 88/07 91010 91110 91208=
06310 17236 82109 10045 20035 30133 40143 57009 60002 71011 8////
333 20045 3/004 79999 87/05 88/07 91010 91110 91209=
06344 17350 82007 10046 20033 30143 40136 56010 60002 71000 8////
333 20045 3/004 70000 81/07 88/08 91009 91111 91208=
06370 17261 82204 10034 20021 30124 40150 56008 60002 70200 8////
333 20030 3/002 70000 87/06 88/07 91005 91108 91206=
06380 17969 82005 10031 20020 30016 40158 56009 60002 70200 8////
333 20013 3/001 70000 88/59 91006 91107 91205=
0000003800
580
UETH01 VTBB 110600
NIL
0000003800
581
UKTH01 VTBB 110600
NIL
0000003800
582
ULTH01 VTBB 110600
NIL
0000003800
583
USTH01 VTBB 110600
NIL
0000011000
584
UANT99 KDDL 110609
ARP AFR011 4607N03929W 0609 F390 MS51 278/48 KT
FGZCM QXT AOW 110610 J71A
0000011000
585
UANT99 KDDL 110610
ARP BAW17V 5143N03653W 0609 F340 MS57 244/23 KT
GYMMT QXT AOW 110610 F09A
0000011000
586
UANT99 KDDL 110610
ARP BAW116 5112N02834W 0610 F390 MS54 210/66 KT
GVIIH QXT AOW 110610 F18A
0000011000
587
UANT99 KDDL 110610
ARP AFR457 4445N01323W 0609 F360 MS62 281/69 KT
FGSQL QXT AOW 110610 F78A
0000215900
588
SZNZ01 NZKL 110612
CREX++
T000103 A001 D01021 D06025++
-3683144 17478654 AUCT  2014 01 11 06 04 //// 11 07 00 01
05262 3110 05254 3110 05247 3111 05239 3112 05231 3112 05221 3111+
-4402404 -17636748 CHIT  2014 01 11 06 04 //// 11 07 00 01
04423 1971 04421 1971 04412 1965 04413 1968 04429 1987 04429 1989+
-4089929 17623168 CPIT  2014 01 11 06 04 //// 11 07 00 01
03473 2303 03465 2300 03444 2283 03456 2298 03433 2280 03431 2282+
-3618905 17548887 GBIT  2014 01 11 06 04 //// 11 07 00 01
05874 0062 05862 0055 05848 0047 05828 0033 05819 0030 05809 0026+
-3867541 17802288 GIST  2014 01 11 06 04 //// 11 07 00 01
03701 2718 03711 2732 03699 2725 03703 2734 03685 2721 03676 2717+
-4241288 17370277 KAIT  2014 01 11 06 04 //// 11 07 00 01
02755 2186 02757 2191 02758 2196 02750 2191 02749 2193 02738 2186+
-3755040 17815904 LOTT  2014 01 11 06 04 //// 11 07 00 01
03386 0224 03385 0229 03383 0232 03356 0211 03359 0220 03349 0214+
-3704657 17451175 MNKT  2014 01 11 06 04 //// 11 07 00 01
03448 -0132 03476 -0105 03433 -0150 03469 -0115 03438 -0148 03482 -0105+
-3947566 17692007 NAPT  2014 01 11 06 04 //// 11 07 00 01
02641 2046 02660 2070 02640 2055 02627 2046 02651 2075 02632 2060+
-3441483 17304870 NCPT  2014 01 11 06 04 //// 11 07 00 01
01863 -2813 01784 -2887 01709 -2957 01718 -2943 01772 -2884 01802 -2849+
-4581435 17062939 OTAT  2014 01 11 06 04 //// 11 07 00 01
03775 3425 03774 3426 03776 3428 03776 3430 03776 3430 03775 3430+
-2928002 -17789440 RBCT  2014 01 11 06 04 //// 11 07 00 01
06072 2053 06056 2041 06050 2038 06058 2051 06059 2056 06055 2056+
-2925114 -17790384 RFRT  2014 01 11 06 04 //// 11 07 00 01
02992 0237 02966 0215 02980 0234 02965 0222 02969 0231 02969 0235+
-4357010 17277383 SUMT  2014 01 11 06 04 //// 11 07 00 01
01207 1814 01204 1816 01207 1822 01212 1831 01212 1834 01192 1818+
-3764109 17618118 TAUT  2014 01 11 06 04 //// 11 07 00 01
05155 4004 05151 4006 05144 4004 05140 4005 05145 4016 05130 4006+
-4128448 17477985 WLGT  2014 01 11 06 04 //// 11 07 00 01
02757 2087 02765 2098 02758 2093 02759 2097 02756 2097 02760 2103++
7777
0000009200
589
SAIN90 VOTR 110610
METAR VOTR 110610Z 04005KT 6000 SCT016 28/19 Q1015 NOSIG=
0000010700
590
SAIN32 VIDP 110600 RRB
METAR VILK 110600Z 36003KT 0800 R27/1100 FG VV/// 15/13 Q1018 NOSIG=
0000011600
591
SMIN90 VEMN 110600
AAXX 11064
42314 31996 33605 10224 20109 40173 70500 82031
  333 58005 82360=
0000011100
592
FCIN90 VEMN 110600
TAF VEMN 110600Z 1109/1118 05005KT 5000 HZ FEW100 BECMG 1110/1112
3000 HZ=
00000000