0000092600
966
SNEO40 EEMH 110700
AAXX 11071
26029 27/70 /2603 11005 21010 39966 49995 53016 76765
 333  10022 21010 69927
 555  21010 50012=
26046 27350 83404 11028 21037 39883 49974 53027 77777 88///
 333  10009 21030 69947 88/09 91110
 555  21030 51004=
26124 27276 82903 11003 21003 39968 49999 52016 77177 88///
 333  10018 21004 69937 88/06
 555  1/001 21004 3/001 50011 52101=
26128 27457 73005 10009 20004 39999 40002 52016 78586 87///
 333  10030 20007 60007 87/15 91112
 555  1/001 20007 3/001 50027=
26145 27358 83302 11019 21032 39937 49977 52026 78588 88///
 333  10010 21019 60007 88/09
 555  1/101 21019 3/101 50003 52102=
26233 27338 82902 11006 21013 39884 49992 52024 77187 88///
 333  10014 21007 60007 88/09
 555  1/100 21007 3/100 50018 52101=
26249 27470 73003 11003 21015 39881 49983 52027 77177 87///
 333  10034 21003 60007 87/11 91109
 555  1/000 21003 3/000 50025 52101=
0000083700
967
SNEO41 EEMH 110700
AAXX 11071
26134 27484 83102 11010 21011 39929 49994 52019 72270 88///
 333  10013 21010 60007 88/16
 555  1/100 21010 3/100 50005 52101=
26144 27/84 /3304 11014 21024 39896 49983 52025 72288
 333  10014 21014 60007 91110
 555  21014 50009 52101=
26214 27484 72705 10015 21015 30002 40009 52005 72288 87///
 333  10034 20012 60007 87/18 91008 91112
 555  1/001 20012 3/000 50031=
26218 27481 72806 10015 21006 30013 40016 51010 72488 87///
 333  10034 20009 60007 87/14 91009 91112
 555  1/001 20009 3/000 50031=
26226 27483 52909 10013 20002 30001 40005 52017 78188 85///
 333  10032 20014 60007 85/13 91012 91113
 555  1/000 20014 3/000 50031=
26227 27371 72706 10017 20004 30010 40013 53015 78185 87///
 333  10034 20016 60007 87/09 91009 91112
 555  1/001 20016 3/000 50033=
0000032800
968
SNMK10 LYPG 110700
AAXX 11071
13463 42665 81101 10091 20060 30181 40242 52012 8257/=
13459 42670 70202 10022 20020 39484 40245 52010 84870 333 84696 86498
=
13461 42670 70702 10122 20100 30233 40240 52012 86830 333 82834 85650
92312 92428=
13363 41608 70000 11010 21010 39326 48543 52011 74342 83570=
0000010000
969
SNNO22 ENMI 110700 RRB
AAXX 11071
01447 46/// /0000 11078 21084 39310 40000 50000=
0000072100
970
SNBX40 EBBR 110700
AAXX 11071
06407 41240 72005 10036 20018 30146 40153 55003 71022 876//
333 82705 86707 91108 91206=
06428 45250 /2204 10035 20030 30114 40157 55000
 333 87/04 88/06 91107 91205=
06447 NIL=
06451 42358 82304 10048 20033 30088 40157 55004 876//
333 87707 91106 91204=
06456 42770 72003 10043 20034 39818 40167 52003 875//
 333 87656 91105 91204=
06476 45763 82202 10030 20022 39499 40171 55001
333 88/50 91106 91203=
06479 42959 39901 10006 20005 30082 40159 55004 81601
 333 85367 91102 91201=
06490 45863 81805 10033 2//// 39589 4//// 56003
333 88/57 91108 91205=
06590 41650 80000 10022 20021 39714 40175 57003 76166 875//
333 83640 87658 91101 91201=
0000076500
971
SNBX41 EBBR 110700
AAXX 11071
06400 41350 72005 10043 20035 30147 40155 55000 71022 875//
 333 83707 83709 86657 91107 91205=
06431 NIL=
06432 47256 /2204 10040 20036 30090 40162 54000 70040
 333 87/04 88/06 91107 91205=
06449 41260 72105 10047 20037 39932 40163 55001 76022 875//
333 82705 86656 91107 91205=
06450 42360 82304 10041 20023 30137 40153 57005 876//
333 87707 91107 91204=
06458 45960 /2302 10043 20037 30019 40159 57003
 333 88/59 91104 91203=
06465 47345 /9901 10015 20012 30092 40159 55005 71010
 333 83/07 85/09 87/62 91102 91202=
06478 42870 71905 10049 20029 39937 40159 56005 87032
333 87358 91107 91205=
06496 47131 /9901 10017 20016 39489 40172 55001 71010
 333 83/02 85/25 87/57 91106 91203=
0001044800
972
SNSW23 LSSW 110700
AAXX 11074
06686 23/// /1307 10052 20023 39597 40196 57007
  333 55300 20000 60005 91112 91207=
06623 23/// /2802 10022 20022 39332 48467 55003
  333 55300 20029 60005 91106 91203=
06624 23/// /0000 11001 21001 39687 40206 55004
  333 55300 20004 60005 91101 91201=
06602 23/// /1003 10002 20002 39657 40198 53001
  333 55300 20007 60005 91104 91203=
06693 23/// /0000 10001 20001 39445 48461 55003
  333 55300 20043 60005 91101 91201=
06682 23/// /1602 10036 20008 39071 48484 57003
  333 55300 20000 60005 91106 91204=
06675 23/// /2701 10021 20021 39119 48476 56003
  333 55300 20000 60005 91103 91202=
06637 23/// /3002 10006 20003 39486 40204 57002
  333 55300 20011 60005 91104 91202=
06627 23/// /0301 10031 21003 38994 48486 55001
  333 55300 20000 60005 91105 91203=
06625 23/// /0701 11003 21003 39417 48459 53001
  333 55300 20004 60005 91103 91202=
06608 23/// /2603 10042 20018 38871 48483 53001
  333 55300 20000 60005 91106 91204=
06638 23/// /2501 10013 20013 39308 48471 53000
  333 55300 20000 60005 91102 91201=
06635 23/// /1901 10002 21003 39611 40207 53001
  333 55300 20000 60005 91103 91201=
06728 23/// ///// 10041 21052 38389 48499 53001
  333 55300 20000 60005=
06725 23/// /0301 10006 21022 38460 48501 52001
  333 55300 20007 60005 91104 91203=
06758 23/// /3604 10053 20050 39831 40227 52004
  333 55300 20007 60005 91105 91204=
06796 23/// /2104 11006 21011 38635 48510 55001
  333 55300 20007 60005 91107 91205=
06784 23/// /2002 10003 21014 38400 48501 55001
  333 55300 20000 60005 91103 91202=
06786 23/// /2103 10043 20018 39536 40207 57007
  333 55300 20000 60005 91114 91208=
06794 23/// /0302 10002 21013 38971 48510 53000
  333 55300 20000 60005 91105 91204=
06792 23/// /1902 11056 21067 38294 48517 52002
  333 55300 20000 60005 91103 91202=
06798 23/// /0000 11008 21027 38718 48507 53001
  333 55300 20004 60005 91103 91202=
06702 23/// /2424 10052 21041 38313 48489 55000
  333 55300 20000 60005 91132 91224=
06610 23/// /1903 10011 20007 39605 40205 53000
  333 55300 20000 60005 91104 91202=
06730 43/// /3306 11084 21116 36557 47065 55001
  333 55300 20000 91115 91206=
06643 23/// /2103 10014 20014 39685 40205 55001
  333 55300 20000 60005 91105 91203=
06680 23/// /2622 11010 21049 37507 47049 52000
  333 55300 20000 60005 91133 91224=
06990 23/// /1406 10070 20024 39639 40188 57007
  333 55300 20000 60005 91113 91207=
06712 23/// /0202 10021 20016 39737 40207 53007
  333 55300 20011 60005 91105 91203=
06609 23/// /2511 10045 21051 38010 48489 53002
  333 55300 20000 60005 91126 91213=
06616 23/// /2301 10048 20023 39466 40180 52003
  333 55300 20004 60005 91104 91202=
06724 23/// /0505 10044 21033 38576 48497 55000
  333 55300 20011 60005 91107 91206=
06748 23/// /2202 10010 21053 38356 48502 57002
  333 55300 20011 60005 91103 91203=
06605 23/// /2414 10054 21032 38388 48487 53002
  333 55300 20000 60005 91124 91220=
06659 23/// /2009 10031 21044 37884 48489 53000
  333 55300 20000 60005 91123 91209=
06672 23/// /1703 10030 20030 39659 40195 55001
  333 55300 20000 60005 91103 91202=
06745 23/// /0701 11025 21032 38661 48496 57001
  333 55300 20007 60005 91104 91203=
06753 23/// /0801 10019 20005 39069 48511 52006
  333 55300 20000 60005 91103 91201=
06770 23/// /0000 10078 20063 39862 40227 52007
  333 55300 20000 60005 91103 91202=
06639 23/// /2208 10075 21029 38585 48487 54002
  333 55300 20000 60005 91112 91209=
06720 23/// /2102 10010 20006 39620 40212 53000
  333 55300 20000 60005 91104 91202=
06762 23/// /3101 10058 20043 39977 40229 52006
  333 55300 20000 60005 91103 91202=
06604 23/// /2101 10025 20025 39612 40203 53002
  333 55300 20000 60005 91102 91201=
06771 23/// /2301 10062 20056 39800 40229 52005
  333 55300 20000 60005 91102 91201=
06734 23/// /2202 10015 20015 39497 40199 55003
  333 55300 20014 60005 91104 91202=
06782 NIL=
06681 23/// /0902 10059 20017 39264 48476 55003
  333 55300 20000 60005 91103 91202=
06685 23/// /0000 10030 20022 39569 40196 57006
  333 55300 20000 60005 91100 91200=
06700 23/// /2701 10025 20011 39703 40208 52006
  333 55300 20000 60005 91105 91203=
06670 23/// /3201 10014 20014 39675 40200 55002
  333 55300 20000 60005 91104 91202=
06750 23/// /1510 10011 21070 37715 48501 52000
  333 55300 20000 60005 91114 91210=
06711 23/// /0601 10045 20036 39648 40201 53006
  333 55300 20014 60005 91103 91202=
06717 23/// /2804 11019 21076 37528 47063 55001
  333 55300 20000 60005 91110 91206=
06735 23/// /1802 10064 21028 38671 48490 55000
  333 55300 20014 60005 91107 91201=
06727 23/// /2902 10002 21003 39435 48469 52001
  333 55300 20000 60005 91103 91202=
06612 23/// /2302 10024 20012 38999 48477 53002
  333 55300 20000 60005 91103 91202=
06645 23/// /0804 10016 20012 39450 48458 55002
  333 55300 20007 60005 91107 91205=
06633 23/// /1903 10025 20020 39724 40200 55002
  333 55300 20000 60005 91105 91203=
06650 23/// /3201 10027 20022 39643 40198 55000
  333 55300 20004 60005 91104 91202=
06655 23/// /0905 10047 20001 38981 48484 55001
  333 55300 20000 60005 91107 91205=
06620 23/// /1502 10006 20006 39663 40204 55003
  333 55300 20000 60005 91104 91202=
06660 23/// /1201 10011 20011 39521 40199 55001
  333 55300 20000 60005 91106 91203=
06783 23/// /2601 11024 21031 38367 48515 52005
  333 55300 20000 60005 91103 91201=
06780 23/// /2008 11014 21081 37352 47063 53000
  333 55300 20000 60005 91113 91209=
06791 23/// /2310 11063 21100 36794 47068 53001
  333 55300 20000 60005 91119 91210=
06601 23/// /1104 10032 20020 39793 40183 57002
  333 55300 20000 60005 91112 91206=
06705 23/// /3003 10025 20014 39645 40206 53006
  333 55300 20000 60005 91103 91203=
06619 23/// /2702 10079 21017 38798 48490 53003
  333 55300 20011 60005 91105 91202=
06631 23/// /2401 11002 21004 39530 40208 53001
  333 55300 20000 60005 91103 91202=
06621 23/// /2103 10013 20013 39658 40199 57005
  333 55300 20007 60005 91105 91203=
06626 23/// /2603 10024 20020 39732 40200 55001
  333 55300 20014 60005 91105 91203=
06673 23/// /0000 10019 20017 39604 40197 55001
  333 55300 20000 60005 91103 91202=
06679 23/// /1501 10003 20003 39542 40201 55002
  333 55300 20007 60005 91101 91201=
06664 23/// /1501 10016 20016 39654 40199 55002
  333 55300 20000 60005 91103 91201=
06760 23/// /3401 10075 20041 39776 40228 52007
  333 55300 20000 60005 91103 91202=
06646 23/// /1201 10018 20018 39794 40197 57005
  333 55300 20000 60005 91103 91202=
06636 23/// /3101 10007 20005 39616 40206 53002
  333 55300 20004 60005 91102 91201=
06759 23/// /1701 11004 21004 38344 48514 52006
  333 55300 20000 60005 91105 91202=
06722 23/// /0603 10034 21073 38164 48500 53002
  333 55300 20000 60005 91107 91204=
06666 23/// /0603 10010 20010 39776 40199 57004
  333 55300 20000 60005 91106 91203=
06744 23/// /1912 10017 21065 38032 48502 55001
  333 55300 20000 60005 91119 91213=
06756 23/// /3304 10049 20024 39538 40231 53006
  333 55300 20011 60005 91106 91204=
06669 43/// /19// 10049 20025 39189 48477 55002
  333 55300 20007 91109 91208=
06689 23/// /2107 10085 21016 38872 48487 55002
  333 55300 20000 60005 91111 91208=
06628 23/// /2903 10069 21002 38973 48487 53002
  333 55300 20004 60005 91105 91203=
06751 23/// /0401 11010 21045 38101 48511 53002
  333 55300 20000 60005 91107 91204=
06747 43/// /1204 11030 21127 37159 47065 53000
  333 55300 20014 91107 91204=
06709 43/// /3404 10057 20042 39747 40202 53006
  333 91108 91206=
06740 43/// /2411 11047 21093 36970 47060 52001
  333 55300 20000 91125 91217=
06641 23/// /1114 10023 20022 39768 40193 57003
  333 55300 20000 60005 91120 91215=
06618 23/// /2302 10017 20017 39673 40210 53003
  333 55300 20011 60005 91104 91203=
06706 43/// /2603 1//// 2//// 3//// 5////
  333 91106 91205=
06787 23/// /3302 10002 21008 39051 48489 57004
  333 55300 20000 60005 91103 91201=
06754 43/// /1002 10014 21060 37811 48503 51001
  333 553// 20000 91106 91204=
06683 43/// /2803 1//// 2//// 39699 55///
  333 91105 91203=
06778 23/// /1101 11080 21091 38026 48521 52001
  333 55300 20011 60005 91105 91202=
06733 23/// /0000 10000 20000 39224 48471 55001
  333 55300 20000 60005 91102 91201=
06731 23/// /2301 10000 20000 39510 40207 53001
  333 55300 20000 60005 91103 91202=
06632 23/// /2403 10012 20012 39679 40209 57///
  333 55300 20025 60005 91104 91203=
06644 23/// /1403 10016 20016 39644 40199 57002
  333 55300 20000 60005 91105 91203=
06752 23/// /3502 10056 20024 39720 40232 52006
  333 55300 20004 60005 91106 91204=
06606 23/// /1902 10015 20015 39678 40209 53001
  333 55300 20000 60005 91103 91202=
06688 43/// /2706 11002 21078 37525 47057 52000
  333 55300 20007 91109 91206=
06777 23/// /1906 10005 20005 38409 48515 52005
  333 55300 20000 60005 91110 91207=
06704 23/// /0000 10013 20013 39382 48472 53004
  333 55300 20004 60005 91102 91201=
06708 23/// /1905 10027 20027 39215 48477 53004
  333 55300 20000 60005 91107 91205=
06617 23/// /2503 11015 21024 38965 48473 53003
  333 553// 20050 60005 91104 91203=
06648 23/// /3001 11004 21006 39563 40204 57003
  333 55300 20011 60005 91104 91202=
06671 43/// /2304 1//// 2//// 39712 5////
  333 91106 91204=
06656 23/// /0000 1//// 2//// 39510 57002
  333 60005 91103 91202=
06651 23/// /2202 10013 20009 39304 48465 57005
  333 55300 20000 60005 91105 91203=
06687 43/// /0702 1//// 2//// 39683 57///
  333 91104 91202=
06793 23/// /1906 10011 20004 38425 48499 50002
  333 55300 20000 60005 91110 91208=
06795 23/// /2209 10007 21091 37356 47069 52000
  333 55300 20000 60005 91115 91209=
06799 43/// /2611 10007 21079 37626 47085 53003
  333 55300 20000 91116 91212=
06723 43/// /1909 11019 21096 37292 47058 55001
  333 55300 20000 91113 91209=
06749 43/// /1907 11040 21124 36943 47065 50001
  333 55300 20000 91116 91210=
06739 43/// /3106 11031 21091 37153 47066 52000
  333 55300 20000 91111 91207=
06657 23/// /0000 11001 2//// 39625 40205 55///
  333 553// 20000 60005 91103 91202=
06788 23/// /0501 10008 20001 38959 48511 52006
  333 55300 20032 60005 91103 91201=

0000426600
973
SNCZ64 OKPR 110700
AAXX 11071
11406 21956 22002 11014 21016 39598 40203 55001 71000 80001
  333 60005 82070
  555 398// 50022 60025 70030 80039 90051=
11414 21115 41501 11019 21025 39456 42783 55000 71011 83601
  333 60005 83702
  555 396// 50021 60020 70028 80034=
11423 22062 12504 11015 21015 39297 42788 55000 81601
  333 60005 81701
  555 300// 50018 60022 70028 80035=
11438 22980 19902 10004 20000 39785 40189 55000 80002
  333 60005 81073
  555 397// 50026 60031 70036 80049 90055=
11450 21940 52301 11014 21018 39745 40208 53003 71011 80004
  333 60005 85070
  555 12304 397// 50021 60024 70032 80039=
11457 22984 72205 11026 21036 38879 48471 55000 80006
  333 60005 87275 93703
  555 393// 50006 60013 70013 80025=
11464 42985 32704 11005 21019 39177 42779 53001 80004
  333 83070 9513/
  555 390//=
11487 21619 72401 11009 21016 39568 40210 53002 74022 81502
  333 60005 81633 87070
  555 394// 50020 60021 70023 80032 90045=
11502 22970 29901 10000 21014 39721 40189 55001 80002
  333 60005 82068 9512/
  555 391// 50019 60024 70032 80041 90054=
11509 22981 30801 11008 21015 39988 40190 55000 80001
  333 60005 83070
  555 395// 50024 60028 70034 80042 90055=
11518 22975 12105 10006 21009 39742 40193 56002 81041
  333 60005 81363
  555 390//=
11519 22980 31704 10017 21001 39880 40195 50000 80002
  333 60005 83069
  555 388//=
11520 22980 32102 10008 21008 39820 40197 58001 80001
  333 60005 83073
  555 389// 50018 60027 70034 80045 90052=
11538 22980 61402 11002 21012 39587 40211 53001 83041
  333 60005 83360 86070
  555 393// 50002 60026 70033 80043=
11546 25/74 /1602 11018 21026 39712 40215 53002
  333 60005
  555 394// 50026 60033 70041 80056 90058=
11567 22965 31802 11002 21010 39837 40193 50000 80002
  333 60005 83074
  555 394// 50028=
11603 22464 11602 11010 21019 39692 40190 50000 81501
  333 60005 81615
  555 394// 50032 60038 70042 80050 90058=
11624 22975 32002 10013 20000 39901 40199 52004 80002
  333 60005 83073
  555 391// 50029=
11628 22970 11802 11006 21019 39553 40207 53001 80001
  333 60005 81070
  555 391// 50019 60026 70031 80041 90048=
11636 22480 31402 11018 21022 39515 42799 53003 81531
  333 60005 81613
  555 397// 50008 60023 70031 80043 90049=
11643 22470 62102 11011 21021 39205 42781 53003 83531
  333 60005 83615 85073
  555 13603 393// 50013 60015 70018=
11652 22970 31102 11012 21024 39914 40203 52006 80001
  333 60005 83070
  555 391// 50028=
11653 26/// ///// 11055 21058 3//// 4//// 5////
  333 6///5 91121
  555 398//=
11659 22968 11003 11005 21013 39549 40207 52004 80002
  333 60005 81073
  555 394// 50009 60026 70027 80035 90044=
11669 21/03 92304 11004 21005 39297 42785 52003 74744
  333 60005 89/01
  555 399// 50014 60029 70029 80039 90051=
11679 22575 61602 11004 21017 39704 40205 52007 85202
  333 60005 85822
  555 391// 50034 60039 70037 80047 90061=
11683 22563 72103 11015 21026 39311 42793 52006 87502
  333 60005 87623
  555 1//03 392// 50021 60018 70027 80038=
11692 22370 32502 11006 21014 39624 40215 52004 81131
  333 60005 81809 83073
  555 394// 50014=
11693 22981 32703 10002 21015 39718 40215 52004 81042
  333 60005 81363 83070
  555 12708 388// 50026 60034 70038 80055 90059=
11698 22970 33201 10001 21015 39795 40216 52004 80002
  333 60005 83072
  555 389// 50032 60037 70048 80057 90066=
11710 22982 32403 10000 21024 39573 40205 53005 80002
  333 60005 83069
  555 384// 50029 60034 70041 80051=
11723 22775 10301 11004 21021 39908 40216 52007 81501
  333 6///5 81650
  555 388// 50021 60026 70041 80053=
11730 21/00 92507 11040 21053 38636 48454 53002 74944
  333 60005 89/00 91114 93612
  555 391//=
11766 22481 52304 11012 21020 39294 42791 53004 81108
  333 60005 81812 85267
  555 395// 50011 60016 70024 80038=
11774 22784 41404 10005 21006 39932 40212 53004 81541
  333 60005 81650 83072
  555 393//=
11782 22770 62505 10014 21006 39893 40207 53004 86531
  333 60005 86650
  555 387//=
11787 22186 72807 11041 21046 38649 48466 52005 85802
  333 60005 81802 85621 93520
  444 17120
  555 397// 50006 60013 70010 80021=
0000009200
974
SAIN90 VABB 110710
METAR VABB 110710Z VRB04KT 3000 FU NSC 25/02 Q1015 NOSIG=
0000003800
975
SNVF20 EHDB 110700
NIL
0000013800
976
SMCR60 GCLP 110600 RRA
AAXX 11064
60007 03/// /2809 10157 20117 39909 40167 54000 60004
  333 0//// 20147 55088 60007=
0000014000
977
SNVD15 KWNB 110700 RRH
BBXX
41051 11071 99183 70650 46/// /0808 10256 90700 22200 10402 70012
333 91209 555 11086 22093=
0000020100
978
SNVD15 KWNB 110700 RRI
BBXX
41051 11071 99183 70650 46/// /0807 10256 90650 333 91209 555
11081 22089=
41051 11071 99183 70650 46/// /0908 10257 90640 333 91210 555
11093 22101=
0000024100
979
SOAT10 KWAL 110713
FA8005BC 011071337 OT12 ID:KN-BASS-01 DT:2014 01 11 07 11
:RD -3141 -3140 -3139 -3121 -3131 -3130 -3129 -3122 -3124 -3129
:PR 0504 0570 0447 0507 0497 0519 0520 0525 0512 0500
:B 13.7V
 46+1NN 219E
0000016200
980
SMCY01 LCLK 110600 CCA
AAXX 11064
17609 12565 13004 10103 20065 30233 40237 52018 60002 81501
  333 10120 20087 30003 50261 55061 70000 81625=
0000011100
981
UANT99 KDDL 110711
ARP DAL468 4457N03048W 0711 F330 MS48 217/56 KT
N666US DDL IG1 110712 F56A
0000011000
982
UANT99 KDDL 110712
ARP UAL77 5100N03955W 0711 F350 MS55 323/32 KT
N14118 DDL IG1 110712 F84A
0000011100
983
UANT99 KDDL 110712
ARP DAL142 5054N02115W 0712 F350 MS68 222/65 KT
N825MH QXT AOE 110712 F42A
0000011000
984
UANT99 KDDL 110712
ARP QTR708 5547N03304W 0712 F290 MS56 209/88 KT
A7BAN QXT AOW 110712 F25A
0000011000
985
UANT99 KDDL 110712
ARP AAL80 5057N04022W 0712 F380 MS57 306/33 KT
N761AJ DDL XXW 110712 F17A
00000000