0000010200
266
SAUZ31 UTTW 111000 CCA
METAR UTNU 111000Z 06002MPS AVOK 07/M02 Q1020 R31/CLRD60 NOSIG=
0000009400
267
SICH02 SCSC 110900 RRC
AAXX 11094
85743 42960 09901 10069 20049 40179 56011=
0000013900
268
FTKB31 NFFN 111000
TAF NGTA 111026Z 1112/1212
10008KT 9999 -SHRA BKN015 OVC100
TEMPO 1112/1212 3000 +TSRA BKN015 FEW018CB
0000016100
269
SOVI10 KWAL 111026
B110070A 011102601 P9751095 B\P~W@@R0ekJ1@mT???C[Cf>@mQ3@aC?AN5DA6bM2?????@"??? ?TJWKB\BYB_B_BZBW:AMPTEMP 25.85C  44+0NN 219E
0000015700
270
SSVX13 LFPW 110700
ZZYY 61687 11014 0700/ 144704 029814 6113/ 11119 40232 52020 22219
 00074 444 20131 11014 0657/ 50101 80090 80011 9/015=
0000015700
271
SSVX13 LFPW 110700
ZZYY 61688 11014 0700/ 144055 029452 6113/ 11119 40235 52017 22219
 00087 444 20131 11014 0657/ 50101 80090 80006 9/015=
0000038500
272
SSVX13 LFPW 110700
ZZYY 61690 11014 0700/ 142796 029445 6113/ 11119 40241 52021 22219
 00093 33300 88870 20000 30930 20011 30936 20013 30928 20016 30924
 20021 30928 20026 30932 20030 30936 20035 30936 20040 30942 20045
 30936 20050 30876 20055 30800 20060 30784 20065 30784 20070 30784
 20075 30788 20080 30796 444 20131 11014 0657/ 50101 80102 80021
 9/015=
0000015700
273
SSVX13 LFPW 110700
ZZYY 62687 11014 0700/ 166062 001450 6113/ 11119 40054 52004 22219
 00076 444 20130 11014 0657/ 50101 80098 80000 9/015=
0000015700
274
SSVX13 LFPW 110700
ZZYY 44747 11014 0700/ 758632 045331 6113/ 11119 49958 57004 22219
 00046 444 20130 11014 0700/ 50101 80154 80000 9/015=
0000015700
275
SSVX13 LFPW 110700
ZZYY 44762 11014 0700/ 751180 006199 6113/ 11119 40182 52021 22219
 00106 444 20130 11014 0657/ 50101 80096 80000 9/015=
0000389700
276
SNFR30 LFPW 110700
AAXX 11074
07005 22557 71905 10047 20041 30074 40166 53005 875//
  333 60005 87626 90710 91106 93100=
07015 21130 82007 10043 20040 30103 40161 53003 71022 886//
  333 60005 88702 90710 91110 93100=
07020 26/// /3315 10094 20063 30155 40182 53024
  333 69905 90710 91139=
07027 21250 82807 10061 20057 30095 40178 53016 72842 876//
  333 60005 87704 90710 91112 93100=
07037 21/02 92403 10048 20047 39989 40176 53008 74544
  333 60005 90710 91105 93100=
07072 24659 80000 10033 20032 30053 40171 55000 760//
  333 69905 90710 91102=
07110 21468 80104 10076 20073 30072 40188 53024 72165 885//
  333 69925 82713 88623 90710 91110 93100=
07117 26/// /3404 10084 20075 30115 40186 53027
  333 69925 90710 91118=
07130 24/05 93103 10065 20064 30132 40185 53021 745//
  333 60005 90710 91108=
07139 24/02 90000 10039 20038 30001 40179 53014 745//
  333 60005 90710 91107=
07149 21235 81802 10058 20052 30062 40173 53005 71022 875//
  333 60005 82703 87650 90710 91103 93100=
07168 21757 81602 10035 20035 30025 40171 52008 76062 8357/
  333 69905 83656 87359 90710 91105 93100=
07181 24733 80402 10026 20023 39757 40177 53001 710//
  333 60005 90710 91105=
07190 24246 83403 10015 20014 39993 40182 55004 710//
  333 69905 90710 91105=
07207 26/// /0304 10054 20048 30135 40188 53018
  333 60005 90710 91108=
07222 21120 73205 10074 20071 30152 40184 53022 71022 876//
  333 60005 85703 87613 90710 91109=
07240 24119 80000 10058 20052 30039 40177 53018 710//
  333 60005 90710 91100=
07255 21458 82602 10059 20045 39974 40178 53013 72162 8657/
  333 69925 86616 87361 90710 91104 93100=
07280 24262 80000 10035 20026 39905 40185 53007 700//
  333 60005 90710 91104=
07299 22960 71905 10034 20021 39847 40182 54001 85031
  333 60005 85361 87071 90710 91108 93100=
07314 26/// /3213 10100 20088 30153 40181 53017
  333 60005 90710 91118=
07335 212// 81905 10073 20070 30034 40181 53018 71022 886//
  333 60005 88705 90710 91108 93100=
07434 223// 81910 10075 20066 39704 40187 52013 886//
  333 60005 88707 90710 91120 93100=
07460 22984 63402 10067 20024 39789 40183 53019 8605/
  333 60005 84361 84368 90710 91109 93100=
07471 24970 81504 10048 20015 39219 48806 53014 700//
  333 60005 90710 91111=
07481 24575 81916 10098 20056 39897 40186 53009 700//
  333 60005 91026 90710 91126=
07510 214// 82202 10091 20086 30129 40188 53016 71022 875//
  333 60005 87618 90710 91104=
07535 24466 81303 10069 20057 39881 40198 53013 700//
  333 60005 90710 91108=
07558 24/69 /1208 10065 20054 39360 40201 51010 700//
  333 60005 90710 91112=
07577 22556 81604 10090 20073 30119 40210 53007 878//
  333 60005 81820 87630 90710 91105 93100=
07591 24/// /0604 10027 21011 39190 4//// 53006 700//
  333 60005 90710 91109=
07607 24449 80000 10090 20082 30120 40192 53012 710//
  333 60005 90710 91103=
07621 24456 81804 10076 20064 39759 40197 52008 700//
  333 60005 90710 91105=
07627 22462 80902 10056 20042 39704 40206 51008 8757/
  333 60005 87616 87360 90710 91107 93100=
07630 21456 81704 10082 20073 30016 40199 53011 70052 876//
  333 69905 87716 90710 91110 93100=
07643 22560 80205 10104 20080 30197 40207 53010 885//
  333 60005 83623 87641 90710 91108=
07650 22570 70908 10119 20078 30168 40207 53006 878//
  333 60005 81826 87636 90710 91110 93100=
07661 26/// /0510 10110 20084 30046 40208 53004
  333 60005 90710 91118=
07690 22580 73309 10097 20045 30185 40217 53006 875//
  333 60005 83631 87643 90710 91112 93100=
07747 22560 82904 10086 20069 30147 40201 53013 8357/
  333 60005 83630 87365 90710 91106=
07761 22980 70509 10059 20047 30197 40208 52008 85086
  333 60005 85369 86076 90710 91111 93100=
07790 22570 82203 10093 20066 30200 40215 53005 875//
  333 60005 88633 90710 91110 93100=
0000153300
277
SNFR31 LFPW 110700
AAXX 11074
07024 24269 83007 10078 20074 30009 40176 53022 700//
  333 69965 90710 91118=
07031 24256 82504 10056 20053 30003 40179 53014 700//
  333 60005 90710 91106=
07100 26/// /0116 10090 20042 30104 40187 53025
  333 60005 90710 91121=
07103 26/// /0307 10084 20078 30081 40180 53015
  333 60005 90710 91127=
07107 26/// /3515 10099 20055 30167 40189 53027
  333 60005 90710 91120=
07118 24261 83506 10080 20076 30081 40188 53024 700//
  333 69925 90710 91116=
07120 24469 /2607 10064 20055 30017 40183 53020 700//
  333 60005 90710 91111=
07125 24656 72305 10043 20040 30109 40181 53019 700//
  333 60005 90710 91106=
07134 24432 83203 10046 20046 30061 40185 53023 710//
  333 60005 90710 91104=
07200 26/// /2807 10102 20091 30158 40181 53017
  333 60005 90710 91108=
07201 24403 80000 10066 20063 30070 40186 53017 744//
  333 60005 90710 91102=
07203 26/// /3503 10066 20063
  333 60005 90710 91107=
07205 24/01 90201 10047 20044 30135 40190 53020 745//
  333 60005 90710 91103=
07217 24365 /3304 10073 20066 30184 40188 53024 700//
  333 60005 90710 91109=
07230 21/02 90000 10062 20061 30121 40180 53019 74744
  333 60005 90710 91102 93100=
07235 21620 52302 10060 20054 30115 40179 53018 71022 85500
  333 60005 85643 90710 91103 93100=
07300 26/// /3307 10086 20074 30147 40186 53021
  333 60005 90710 91113=
07306 21330 83204 10076 20072 30072 40181 53020 72842 86602
  333 60005 86707 86076 90710 91107 93100=
0000122600
278
SNFR32 LFPW 110700
AAXX 11074
07140 24150 80102 10056 20052 30020 40176 53013 700//
  333 69925 90710 91104=
07143 24122 81501 10053 20049 39984 40175 53009 710//
  333 69905 90710 91104=
07145 21727 70000 10054 20054 39958 40171 53004 72162 83531
  333 69905 83656 84368 87076 90710 91102 93100=
07146 21725 70000 10054 20050 39975 40173 53006 72162 84531
  333 69905 83650 84656 87073 90710 91101 93100=
07150 24650 80000 10054 20051 30111 40172 53004 751//
  333 69905 90710 91104=
07153 24535 /3102 10053 20046 30059 40173 53004 710//
  333 60005 90710 91104=
07156 24/31 /1701 10066 20060 30074 40170 53003 710//
  333 69905 90710 91102=
07157 21150 80303 10053 20047 30032 40170 53003 72162 8752/
  333 69925 81702 83636 87457 90710 91104 93100=
07245 24/19 /0000 10051 20050 30022 40176 52020 710//
  333 60005 90710 91105=
07247 24927 70000 10029 20023 30073 40178 53020 710//
  333 60005 90710 91102=
07249 24123 80103 10053 20052 30021 40175 53013 760//
  333 69905 90710 91105=
07257 24458 82202 10066 20051 39960 40176 53013 700//
  333 60005 90710 91106=
07354 22468 82408 10089 20070 39985 40175 53018 885//
  333 60005 88615 90710 91111 93100=
0000049600
279
SNFR33 LFPW 110700
AAXX 11074
07093 24733 80202 10018 20011 39863 40182 53002 750//
  333 69925 90710 91107=
07180 21245 73601 10018 20018 39916 40180 53001 72162 875//
  333 69905 81703 87656 90710 91105 93100=
07288 22960 70000 10035 20028 39807 40187 53007 8707/
  333 60005 87360 90710 91103 93100=
07292 24463 80601 10035 20015 39850 40186 53010 700//
  333 60005 90710 91104=
07386 24958 /0703 10029 20023 39942 40183 53006 700//
  333 60005 90710 91107=
0000122500
280
SNFR34 LFPW 110700
AAXX 11074
07260 24956 81201 10040 20034 39959 40177 53014 700//
  333 60005 90710 91103=
07266 24931 62304 10035 20029 39986 40175 53011 710//
  333 60005 90710 91108=
07374 24/56 /1602 10036 20030 39882 40191 53020 700//
  333 60005 90710 91108=
07379 24942 81602 10027 20017 39889 40190 53019 710//
  333 60005 90710 91102=
07385 22960 61602 10061 20052 39921 40186 53017 86030
  333 60005 86359 90710 91105 93100=
07475 24969 81710 10083 20023 39706 40187 53023 700//
  333 60005 90710 91122=
07480 24972 82010 10098 20050 39949 40188 53015 700//
  333 60005 90710 91118=
07482 24/70 /1710 10097 20059 39888 40191 53015 700//
  333 60005 90710 91121=
07486 24569 82507 10081 20052 39737 40200 53012 700//
  333 60005 90710 91120=
07487 26/// /0000 10013 20010 39933 40207 53013
  333 60005 90710 91102=
07491 24519 82002 10018 20015 39917 40209 53012 710//
  333 60005 90710 91103=
07497 26/// /3603 10030 21001 39180 48488 53005
  333 60005 90710 91104=
07549 21984 31007 10045 20013 39441 40206 53011 700// 80001
  333 60005 83075 90710 91110 93100=
07570 24/20 /0000 10071 20070 39887 40228 53009 710//
  333 69925 90710 91102=
0000151000
281
SNFR35 LFPW 110700
AAXX 11074
07316 24242 83207 10092 20084 30158 40180 53018 710//
  333 60005 90710 91111=
07330 21625 71503 10070 20070 30108 40183 53018 71022 875//
  333 60005 87640 90710 91105 93100=
07361 24/70 /1911 10084 20048 39739 40176 51015 700//
  333 60005 90710 91120=
07412 24125 81703 10083 20077 30147 40185 53016 710//
  333 60005 90710 91105=
07438 24/56 /0000 10051 20045 30057 40202 53014 700//
  333 60005 90710 91102=
07500 26/// /2003 10110 20101 30152 40186 53013
  333 60005 90710 91103=
07503 265// 81301 10114 20101 30140 40187 53013
  333 60005 90710 91103=
07524 24456 81003 10076 20073 30108 40193 53014 700//
  333 60005 90710 91104=
07530 24445 80906 10070 20069 30124 40188 51011 710//
  333 60005 90710 91109=
07540 24/43 /1803 10079 20068 30069 40200 53012 710//
  333 60005 90710 91106=
07552 24968 81304 10037 20019 39512 40209 53012 700//
  333 60005 90710 91106=
07600 26/// /1803 10101 20080 30141 40193 53007
  333 60005 90710 91105=
07602 22465 81402 10108 20091 30105 40191 53007 885//
  333 60005 82616 85623 88640 90710 91103 93100=
07603 26658 81402 10096 20088 30152 40190 53010
  333 60005 90710 91103=
07610 22559 70702 10084 20072 39973 40195 53010 875//
  333 60005 82620 86635 90710 91106 93100=
07622 22456 71703 10089 20077 30040 40196 52012 875//
  333 60005 85711 87615 90710 91104 93100=
07632 24/57 /2602 10051 20047 39995 40206 53018 700//
  333 60005 90710 91103=
0000193000
282
SNFR36 LFPW 110700
AAXX 11074
07554 24370 81402 10048 20035 39121 4//// 52011 700//
  333 60005 90710 91105=
07560 26/// /1918 10014 20014 38435 4//// 53012
  333 69925 90710 91127=
07563 24683 81503 10109 20064 30152 40210 53007 700//
  333 60005 90710 91110=
07579 24556 80000 10085 20071 30146 40214 53008 700//
  333 60005 90710 91106=
07586 26/// /1202 10106 20058 30082 40211 53006
  333 60005 90710 91106=
07588 24570 81005 10054 20029 39668 40225 53007 700//
  333 60005 90710 91113=
07635 24464 81403 10100 20078 30047 40201 53014 700//
  333 69905 90710 91107=
07638 24561 80304 10108 20084 30185 40205 53013 700//
  333 60005 90710 91107=
07641 26/// /0107 10109 20085 30112 40206 53014
  333 60005 90710 91111=
07646 24561 81004 10099 20053 30080 40208 53009 700//
  333 60005 90710 91106=
07647 24581 80804 10110 20073 30178 40206 53008 700//
  333 60005 90710 91106=
07648 24570 80704 10103 20066 30138 40210 53007 700//
  333 60005 90710 91107=
07666 26/// /2903 10111 20090 30147 40196 53011
  333 60005 90710 91107=
07667 24680 80504 10118 20086 30201 40206 55000 700//
  333 60005 90710 91108=
07675 24/49 /0000 10077 20066 30111 40212 50001 710//
  333 60005 90710 91102=
07684 24678 80203 10098 20074 30208 40213 53004 700//
  333 60005 90710 91106=
07749 26/// /3108 10111 20072 30095 40201 53014
  333 60005 90710 91111=
07754 22575 51703 10065 20053 30136 40208 53005 81128
  333 60005 81820 84467 85271 90710 91108 93100=
07765 24586 82703 10118 20077 30197 40218 53008 700//
  333 60005 90710 91106=
07770 26/// /0613 10124 20105 30072 40212 53010
  333 60005 90710 91118=
07775 26/// /2308 10120 20081 30125 40215 53005
  333 60005 90710 91110=
07780 24586 80709 10122 20092 30184 40212 53008 700//
  333 60005 90710 91116=
07785 26/// /1716 10128 20072 30071 40207 53001
  333 60005 90710 91125=
0000111800
283
SNFR37 LFPW 110700
AAXX 11074
07002 26/// /2212 10077 20063 30069 40152 55001
  333 60005 90710 91119=
07003 24458 82105 10071 20062 30135 40160 53001 700//
  333 60005 90710 91111=
07010 26/// /2009 10052 20040 30129 40149 56002
  333 60005 90710 91115=
07028 26/// /2207 10072 20066 30046 40173 53015
  333 60005 90710 91114=
07038 24/01 92503 10045 20045 30006 40176 53009 745//
  333 60005 90710 91104=
07040 26/// /1907 10062 20055 30119 40168 53010
  333 60005 90710 91115=
07046 24156 82409 10072 20060 30059 40174 53015 700//
  333 60005 90710 91113=
07055 21008 81502 10045 20041 30033 40170 53002 74642 886//
  333 60005 88701 90710 91104 93100=
07057 24610 /1302 10042 20038 30059 40168 53002 710//
  333 60005 90710 91103=
07061 24/03 /1603 10039 20039 30047 40169 53002 745//
  333 60005 90710 91103=
07075 24750 81801 10037 20028 39993 40176 53005 700//
  333 60005 90710 91104=
07169 24863 81104 10047 20038 30002 40172 53007 760//
  333 69905 90710 91105=
07283 24/08 91914 10047 20044 39608 40170 56001 751//
  333 69905 90710 91125=
0000003900
284
USSP01 LEMM 110600
NIL=
0000003900
285
UKSP01 LEMM 110600
NIL=
00000000