0000189700
333
SMIN41 VOMM 110600
AAXX 11064
43086 32597 81804 10250 20180 39980 40179 8457/
  333 58010=
43105 32597 50904 10280 20211 30159 40166 84401
  333 58009=
43128 31496 61603 10246 20198 39547 40152 70522 84530
  333 56390 59005 84615 85360=
43149 31496 51106 10278 20205 30162 40165 70500 84830
  333 56290 58008 84618=
43150 31596 11402 10280 20187 30094 40169 70511 81500
  333 58008 81620=
43185 31596 51404 10280 20201 30156 40159 70522 82531
  333 58006 82620 84360=
43189 32597 40000 10288 20196 30160 40169 83502
  333 58010=
43198 32996 00203 10270 20083 39316 40130
  333 58005=
43201 32497 12302 10282 20160 39412 40118 81500
  333 58000 81615=
43213 32997 39903 10280 20172 39834 40150 80008
  333 58000=
43233 32597 10703 10274 20165 39334 40131 81500
  333 58004=
43237 32997 41106 10290 20153 39757 40146 80002
  333 58003 84075=
43245 32597 30000 10286 20190 30134 40161 82401
  333 58006=
43279 32497 50702 10280 20197 30149 40161 84401
  333 58012 82618 83825=
43284 31596 23205 10290 20202 30020 40134 70242 81501
  333 58003 81620=
43295 32997 30902 10252 20146 39132 48547 80001
  333 58009 83075=
43311 32597 60505 10320 20249 40135 85401
  333 58013 85620 83075=
43314 32997 23202 10314 20230 40140 80001
  333 58005=
43321 31495 70503 10248 20178 39708 40157 70522 83540
  333 58004 83615 86358=
43329 32597 50702 10290 20214 30140 40154 83501
  333 58008=
43344 31496 50508 10280 20187 30054 40154 70511 84801
  333 58006 83616=
43346 32597 30506 10278 20215 30142 40149 82501
  333 58009 82620=
43353 31995 39903 10308 20216 40138 70500 82011
  333 56099 58005 82458=
43361 32597 40906 10280 20214 30148 40154 84200
  333 58006=
43369 32497 50906 10304 20247 40121 84402
  333 58002 83615=
43371 32597 30000 10304 20225 30060 40132 83500
  333 58007 83620=
0000324300
334
SMIN42 VOMM 110600
AAXX 11064
42812 NIL=
43081 32597 20902 10260 20181 39722 40150 82500
  333 58010=
43086 32597 81804 10250 20180 39980 40179 8457/
  333 58010=
43105 32597 50904 10280 20211 30159 40166 84401
  333 58009=
43121 32597 00902 10220 20205 39635 40145 81500
  333 58001=
43128 31496 61603 10246 20198 39547 40152 70522 84530
  333 56390 59005 84615 85360=
43147 32597 30000 10282 20207 30146 40167 82530
  333 58009=
43150 31596 11402 10280 20187 30094 40169 70511 81500
  333 58008 81620=
43161 NIL=
43169 NIL=
43177 NIL=
43181 31596 41103 10292 20190 30135 40162 70511 84800
  333 58008=
43182 NIL=
43185 31596 51404 10280 20201 30156 40159 70522 82531
  333 58006 82620 84360=
43189 32597 40000 10288 20196 30160 40169 83502
  333 58010=
43201 32497 12302 10282 20160 39412 40118 81500
  333 58000 81615=
43205 NIL=
43213 32997 39903 10280 20172 39834 40150 80008
  333 58000=
43220 32597 30904 10280 20197 30150 40157 83400
  333 58009=
43221 32597 41602 10288 20189 30140 40153 84800
  333 58002=
43225 32997 13202 10286 20208 30148 40153 81030
  333 58009=
43226 32997 00902 10300 20200 30122 40152
  333 58008=
43233 32597 10703 10274 20165 39334 40131 81500
  333 58004=
43237 32997 41106 10290 20153 39757 40146 80002
  333 58003 84075=
43245 32597 30000 10286 20190 30134 40161 82401
  333 58006=
43263 NIL=
43271 NIL=
43275 31596 39902 10276 20182 30035 40153 70511 81502
  333 58006=
43278 32597 51802 10284 20205 30153 40160 84401
  333 58009=
43279 32497 50702 10280 20197 30149 40161 84401
  333 58012 82618 83825=
43284 31596 23205 10290 20202 30020 40134 70242 81501
  333 58003 81620=
43287 NIL=
43291 NIL=
43295 32997 30902 10252 20146 39132 48547 80001
  333 58009 83075=
43301 NIL=
43302 NIL=
43303 32597 50503 10276 20171 39911 40152 83502
  333 58010=
43311 32597 60505 10320 20249 40135 85401
  333 58013 85620 83075=
43314 32997 23202 10314 20230 40140 80001
  333 58005=
43317 NIL=
43318 NIL=
43321 31495 70503 10248 20178 39708 40157 70522 83540
  333 58004 83615 86358=
43325 NIL=
43329 32597 50702 10290 20214 30140 40154 83501
  333 58008=
43330 NIL=
43331 32597 30903 10290 20199 30109 40153 83400
  333 58006=
43339 NIL=
43341 NIL=
43342 NIL=
43344 31496 50508 10280 20187 30054 40154 70511 84801
  333 58006 83616=
43346 32597 30506 10278 20215 30142 40149 82501
  333 58009 82620=
43347 32597 30502 10280 20224 30139 40150 82501
  333 58010=
43348 32597 33402 10290 20222 30146 40153 83400
  333 58010=
43349 NIL=
43352 32597 43203 10306 20234 40130 81501
  333 58006=
43353 31995 39903 10308 20216 40138 70500 82011
  333 56099 58005 82458=
43354 NIL=
43356 NIL=
43360 31596 10508 10288 20186 39999 40147 70500 81400
  333 58006=
43361 32597 40906 10280 20214 30148 40154 84200
  333 58006=
43363 32597 23611 10264 20222 30138 40151 82800
  333 58010=
43369 32497 50906 10304 20247 40121 84402
  333 58002 83615=
43371 32597 30000 10304 20225 30060 40132 83500
  333 58007 83620=
43376 NIL=
43377 31996 00216 10280 20201 30092 40133 70500
  333 58009=
43379 NIL=
0000015700
335
SMVX12 RJTD 110600
BBXX
SHIP    11063 99043 11429
41697 51510 10290 20263 40131 54000 703 00 82261
22243 00310 20201 333// 40603 80270=
0000179200
336
SZPS01 AMMC 110645
CREX++
T000103 A001 D01021 D06025++
-0204190 14737360 56130 2014 01 11 06 38 3028 11 07 00 01
01062 0078 01062 0079 01056 0075 01057 0078 01058 0081 01052 0076+
-0669280 15640860 56363 2014 01 11 06 38 //// 11 07 00 01
00651 -0057 00652 -0053 00648 -0055 00642 -0059 00641 -0058 00639 -0058+
-0942890 15995560 56670 2014 01 11 06 38 3043 11 07 00 01
00804 -0036 00807 -0032 00803 -0035 00802 -0034 00800 -0035 00799 -0035+
-1072080 16580190 57131 2014 01 11 06 38 //// 11 07 00 01
03380 2781 03381 2785 03381 2788 03381 2792 03380 2794 03380 2797+
-1551560 16718860 57210 2014 01 11 06 38 //// 11 07 00 01
00782 -0096 00782 -0092 00788 -0082 00774 -0092 00772 -0090 00766 -0092+
-1775690 16830030 57320 2014 01 11 06 38 3015 11 07 00 01
00896 -0070 00893 -0070 00891 -0069 00889 -0067 00887 -0065 00885 -0064+
-4397330 16861610 65180 2014 01 11 06 38 2888 11 07 00 01
02280 0386 02287 0390 02285 0384 02281 0377 02266 0359 02271 0360+
-2120470 -15978530 65980 2014 01 11 06 38 3013 11 07 00 01
00656 0032 00622 0000 00599 -0021 00615 -0003 00623 0007 00664 0050+
-2113810 -17518140 66600 2014 01 11 06 38 //// 11 07 00 01
01047 0077 01042 0076 01039 0078 01033 0076 01032 0080 01026 0078+
-1382670 -17176110 66840 2014 01 11 06 38 3010 11 07 00 01
00650 0038 00655 0045 00645 0038 00654 0050 00636 0035 00634 0035+
-1813250 17842750 67050 2014 01 11 06 38 3032 11 07 00 01
01246 0107 01238 0103 01233 0104 01236 0111 01226 0106 01221 0106+
-1760530 17743810 67070 2014 01 11 06 38 3033 11 07 00 01
01238 0006 01232 0006 01228 0007 01223 0007 01218 0007 ///// ////+
-0850250 17919500 67440 2014 01 11 06 38 3030 11 07 00 01
01819 0004 01810 -0002 01807 -0001 01810 0006 01796 -0004 01799 0002++
7777

0000046700
337
SZPA01 AMMC 110645
CREX++
T000103 A001 D01021 D06025++
0136250 17293000 67590 2014 01 11 06 38 3017 11 07 00 01
01479 0054 01482 0060 01471 0052 01467 0050 01463 0050 01464 0054+
0710610 17137250 67680 2014 01 11 06 38 3013 11 07 00 01
00928 0116 00927 0117 00928 0120 00921 0115 00919 0115 00916 0114+
0698060 15820000 67950 2014 01 11 06 38 3023 11 07 00 01
00715 0020 00706 0013 00702 0011 00699 0010 00695 0008 00692 0006++
7777

0000034200
338
SZIO01 AMMC 110645
CREX++
T000103 A001 D01021 D06025++
-1211670 09689190 46280 2014 01 11 06 38 3018 11 07 00 01
01270 0044 01263 0036 01263 0035 01267 0038 01259 0029 01269 0038+
-1042940 10566940 46290 2014 01 11 06 38 //// 11 07 00 01
01343 0088 01241 -0016 01342 0083 01263 0002 01336 0073 01269 0004++
7777

0000191300
339
SZAU01 AMMC 110645
CREX++
T000103 A001 D01021 D06025++
-1927750 14705860 59260 2014 01 11 06 38 3030 11 07 00 01
02165 0201 02172 0202 02173 0198 02176 0196 02189 0205 02186 0196+
-2316110 15079000 59670 2014 01 11 06 38 3003 11 07 00 01
03079 0106 03090 0109 03100 0111 03101 0105 03107 0102 03101 0089+
-3447330 15091170 60420 2014 01 11 06 38 2962 11 07 00 01
01082 -0015 01081 -0016 01081 -0017 01079 -0020 01080 -0020 01080 -0020+
-4105000 14591500 60910 2014 01 11 06 38 2890 11 07 00 01
01729 -0014 01744 -0010 01754 -0010 01759 -0017 01760 -0026 01775 -0021+
-4254640 14793080 61170 2014 01 11 06 38 2895 11 07 00 01
01276 0062 01279 0064 01279 0063 01278 0062 01287 0070 01289 0071+
-3834390 14161360 61410 2014 01 11 06 38 2905 11 07 00 01
00435 0009 00496 0069 00484 0056 00502 0072 00496 0065 00467 0035+
-3214890 13364170 62000 2014 01 11 06 38 2963 11 07 00 01
01192 0176 01193 0175 01198 0177 01196 0173 01197 0171 01200 0172+
-3387080 12189720 62080 2014 01 11 06 38 2945 11 07 00 01
00799 0085 00794 0079 00805 0090 00802 0086 00805 0089 00801 0084+
-3182560 11573860 62237 2014 01 11 06 38 2972 11 07 00 01
00885 0082 00875 0071 00882 0077 00878 0072 00875 0068 00868 0060+
-2422000 11339750 62385 2014 01 11 06 38 //// 11 07 00 01
01261 -0013 01193 -0083 01153 -0124 01178 -0101 01201 -0080 01188 -0094+
-2181670 11419110 62430 2014 01 11 06 38 //// 11 07 00 01
01789 -0030 01791 -0031 01786 -0038 01792 -0035 01783 -0046 01796 -0036+
-1800080 12221830 62650 2014 01 11 06 38 3043 11 07 00 01
05407 0109 05415 0108 05424 0110 05430 0103 05438 0104 05445 0098+
-1247190 13084580 63230 2014 01 11 06 38 3050 11 07 00 01
05534 0210 05533 0211 05531 0213 05529 0216 05527 0217 05525 0221+
-1386000 13641580 63511 2014 01 11 06 38 3045 11 07 00 01
01595 0097 01597 0097 01599 0098 01601 0098 01604 0100 01605 0099++
7777

0000012200
340
SXHK40 VHHH 110600
AAXX 11061
45045 16/59 /0807 10177 20114 30148 40219 57035 60001 222//
00163 80142=
0000011000
341
UANT01 CWAO 110643
ARP VIR20V 5803N04841W 0643 F370 MS58 269/50 KT
GVFAB DDL XXW 110643 F56A
0000011100
342
UANT01 CWAO 110644
ARP AFR6735 5009N04444W 0643 F370 MS62 319/52 KT
FGUOC QXT AOW 110644 F17A
0000011100
343
UANT01 CWAO 110644
ARP BER7249 5345N04647W 0644 F390 MS62 292/62 KT
DALPD QXT AOW 110644 J79A
0000032400
344
USCZ10 OKPR 110600
TTAA 11061 11520
99982 01619 21503 00159 ///// ///// 92790 01826 26011
85466 03157 29508 70987 06794 28514 50555 21171 28020
40715 33968 28026 30911 49562 27524 25027 57960 25521
20166 60769 26521 15347 57778 29019 10603 57179 31018
88210 63163 26518
77999
31313 48008 80530=
0000016000
345
SSVX02 LFVW 110644
ZZYY 56957 11014 0639/ 328884 052492 6111/
22219 00243
33311 88872 20000 32425 43307
444 2011/ 11014 0637/ 50101 9/015=
0000010900
346
UANT01 CWAO 110644
ARP VIR2C 5312N02836W 0644 F380 MS55 214/52 KT
GVROC DDL XXN 110644 F09A
0000011000
347
UANT01 CWAO 110644
ARP DLH457 5600N03032W 0644 F330 MS60 218/65 KT
DABYA QXT AME 110644 F69A
0000011100
348
UANT01 CWAO 110644
ARP AWE796 4834N03235W 0644 F370 MS48 210/49 KT
N281AY DDL XXN 110644 J39A
0000011100
349
UANT01 CWAO 110644
ARP DAL411 5024N03820W 0644 F360 MS54 282/23 KT
N1501P QXT AOW 110644 F71A
0000003800
350
UEGR01 LGAT 110600
NIL
0000003800
351
UKGR01 LGAT 110600
NIL
0000015600
352
SMSP01 LEMM 110600 RRC
AAXX 11064
08027 12475 41502 10092 20081 39875 40187 51004 60002 84500
  333 20085 30006 50464 55053 70000 924/8=
00000000