0000014700
733
ULHK01 VHHH 110000
TTCC 11002 45004
70857 75364 27511 50057 65777 31505 30373 58581 09010 20631
52783 10515
88999
77999=

0000059700
734
UEHK01 VHHH 110000
TTDD 1100/ 45004
11946 79160 22823 82559 33605 69770 44484 65577 55195 51983
66144 50984 77134 51383
21212 11960 23016 22904 27511 33880 28009 44867 26508 55838
24011 66757 26014 77728 28514 88712 29011 99682 26011 11662
26508 22650 24005 33643 22506 44625 21507 55611 23506 66592
21007 77561 22009 88542 27508 99526 27507 11501 31005 22481
00000 33416 22006 44405 25506 55397 31006 66376 03006 77362
02006 88327 07510 99301 09009 11280 10022 22268 11019 33250
09519 44205 12012 55199 10016 66182 10521 77172 10019 88158
12017 99135 10017=

0000015100
735
UPHK01 VHHH 110000
PPAA 11008 45004
44385 22502 25505 26523 44340 26028 25028 25027 44320 25529
24029 23016
77182 24532 40604=

0000058500
736
UKKZ12 UAAA 110000
TTBB  11003 36003 00016 07930 11961 09729 22914 06724 33856
10913 44767 11513 55749 10159 66737 10159 77707 11959 88691
14958 99628 19122 11604 20120 22566 22716 33514 28314 44473
32117 55460 32515 66439 36715 77393 42919 88375 45922 99367
47721 11310 55327 22270 62330 33241 68534 44202 73136 55184
69337 66109 65139 21212 00016 22503 11998 23006 22971 26510
33868 23008 44843 24511 55707 26012 66668 24514 77612 26512
88546 25513 99514 26512 11380 26513 22355 26514 33248 28022
44174 26516 55162 25520 31313 58803 82330 41414 35530=
0000012700
737
ULKZ12 UAAA 110000
TTCC  11003 36003 70770 64943 24538 50975 63948 24041 30286
65550 23052 88999 66228 22069=
0000009500
738
UEKZ12 UAAA 110000
TTDD  1100/ 36003 11221 64156 21212 11307 23051 22228 22069=
0000026600
739
UERO01 YRBK 110000
TTDD ///// 15120 NIL=
TTDD  1100/ 15420 11727 65575 22667 61177 33650 62377 44522
57580 55465 60979 66346 52383 77254 56581 21212 11827 32022
22651 31032 33570 31036 44528 31530 55380 32544 66341 33033
77301 32039 88255 33042=
0000081500
740
UKRO01 YRBK 110000
TTBB ///// 15120 NIL=
TTBB  11006 15420 00009 02611 11003 04423 22998 08056 33991
08860 44922 04664 55887 02842 66831 00048 77810 01364 88803
01175 99781 00088 11683 07389 22672 06796 33547 18987 44529
18569 55506 20765 66455 26968 77440 27376 88420 29173 99292
49369 11264 55760 22234 61530 33220 63342 44212 64346 55201
64956 66183 64562 77175 61167 88161 64569 99151 64970 11138
62573 22116 64574 33100 58578 21212 00009 31502 11986 35508
22949 36010 33894 00505 44877 34503 55856 30005 66794 29513
77746 29012 88703 31509 99578 29018 11472 28525 22441 29529
33268 28030 44210 30035 55189 28530 66177 30028 77154 29533
88146 31534 99143 32033 11138 31027 22132 30030 33123 30535
44100 31529 31313 48006 82304 41414 00900 51515 11893 00505
22800 29512 33600 29516=
0000015600
741
ULRO01 YRBK 110000
TTCC ///// 15120 NIL=
TTCC  11003 15420 70819 64175 31030 50028 58980 31533 30353
54782 32039 88999 77380 32544 40310=
0000035100
742
USRO01 YRBK 110000
TTAA ///// 15120 NIL=
TTAA  11001 15420 99009 02611 31502 00170 06633 33005 92812
04861 36009 85497 01044 29506 70038 06586 32009 50559 21366
29024 40720 32175 29529 30917 48171 29030 25034 58150 29033
20172 64556 29533 15348 64770 30034 10598 58378 31529 88212
64346 30035 88161 64569 29531 77123 30535 40605=
0000015900
743
SMVB01 AMMC 110000 RRA
BBXX
9VPY5 11003 99282 11275 41597 70517 10153 20100 40294 50004 70311
86564 22213 00240 20306 324// 40306 80123=

0000060500
744
SNVD17 KWNB 110100 RRB
BBXX
46002 11011 99426 71305 46/// /2112 10131 40101 56039 90050 22200
00122 11409 20605 3//// 41407 70045 333 91215 555 11128 22138
30027 42116 60049 206118 205119 205119 205118 206117 206115=
46075 11011 99539 71608 46/// /1708 10044 49939 58025 90050 22200
00051 11106 20603 3//// 41105 70030 333 91209 555 11080 22084
30031 41710 60049 165077 166081 161073 163068 168072 174076 81709
90032=
46001 11011 99563 71479 46/// ///// 1//// 49968 56010 90050 22200
00048 11006 70030=
32012 11011 99199 50853 46/// ///// 1//// 90050 22200 11203 70016=
0000005200
745
RRIN23 VIDP 110058
RQRPT 983-024=

0000005200
746
RRIN23 VIDP 110058
RQRPT 223-244=

0000332400
747
SNVD15 KWNB 110100 RRB
BBXX
42020 11011 99270 70967 46/// /1907 10206 20206 40109 53008 90050
22200 00207 10703 20702 310// 40901 70013 333 91209 555 11076
22080 32359 41810 60049 187070 186074 183080 180083 178084 180082=
41044 11011 99216 70586 46/// /0709 10249 40217 52018 90050 22200
00258 10805 20805 300// 41002 70027 333 91211 555 11095 22100
30020 40711 60049 070088 070089 066092 072086 072085 073087 80710
90026=
42035 11011 99292 70944 46/// /1607 10161 20158 40103 56006 90050
22200 00122 10602 20602 316// 40901 70008 333 91208 555 11078
22091 30043 41608 60049 161068 156062 155057 156061 153067 151061=
42056 11011 99198 70849 46/// /1208 10274 20232 40152 53010 90050
22200 00276 10603 20602 312// 40802 70015 333 91209 555 11080
22085 30049 41209 60049 121075 122071 119073 118071 115074 115072
81208 90049=
41012 11011 99300 70805 46/// /1604 10195 20195 40201 53012 90050
22200 00174 10904 20401 308// 40904 70020 333 91205 555 11050
22059 30027 41505 60049 156043 153045 152046 156046 161044 159045=
42036 11011 99285 70845 46/// /1204 10204 20200 40180 51005 90050
22200 00207 10401 20401 317// 40401 70005 333 91204 555 11038
22039 30010 41205 60049 116036 111035 112038 114039 118041 118040=
42019 11011 99279 70954 46/// /2005 10213 40114 53008 90050 22200
00205 10603 20402 317// 40603 70016 333 91207 555 11059 22066
30001 42009 60049 205055 206057 204060 204064 202072 195058=
42059 11011 99151 70675 46/// /0908 10268 40169 53018 90050 22200
00272 10905 20704 3//// 40904 70027 333 91211 555 11090 22095
30003 40911 60049 090083 088088 086097 091093 089093 086094 80810
90028=
41049 11011 99275 70629 46/// /0609 10228 40269 51010 90050 22200
00236 10904 20804 308// 40902 70022 333 91210 555 11096 22101
30000 40512 60049 059090 059092 056093 063095 057098 056094 80510
90001=
41041 11011 99143 70461 46/// /0808 10251 20236 40168 51029 90050
22200 00258 10906 20703 305// 40904 70028 333 91209 555 11081
22085 30011 40710 60049 079077 078081 076083 074083 070070 067057
80809 90029=
42012 11011 99301 70876 46/// /1504 10191 20191 40157 54000 90050
22200 00177 10601 20401 315// 40601 70007 333 91205 555 11050
22058 30049 41505 60049 148044 147042 140037 112036 084039 075042=
42058 11011 99149 70749 46/// /0812 10273 20229 40126 53012 90050
22200 00273 10906 20805 309// 40903 70029 333 91214 555 11131
22140 32350 40816 60049 080123 081120 085121 081126 077116 079118
80813 90019=
42040 11011 99292 70882 46/// /1607 10212 40152 55000 90050 22200
00206 333 91208 555 11069 22075 30007 41609 50150 60049 158069
159066 156066 155071 156074 158069 72351 81608 90002=
42002 11011 99258 70937 46/// /1807 10232 20231 40130 53003 90050
22200 00232 10803 20502 311// 40802 70015 333 91208 555 11066
22070 32359 41810 60049 177066 180076 182074 181077 178078 180076=
44064 11011 99370 70760 46/// /1305 10066 40239 90050 333 91206
555 11053 22058=
44062 11011 99386 70764 46/// /0104 10021 40253 90050 333 91205
555 11047 22051=
44063 11011 99390 70764 46/// /3403 10015 40245 90050 333 91203
555 11030 22033=
44041 11011 99372 70768 46/// /1303 10049 90050 333 91204 555
11030 22033=
44042 11011 99380 70763 46/// /0804 10044 40237 90050 333 91204
555 11042 22045=
0000010100
748
UHHK01 VHHH 110000
PPCC 11008 45004
44370 27511 31505 09010 44120 10515
77999=

0000064300
749
SABN32 OBBI 110100
METAR OMAA 110100Z 08004KT CAVOK 15/09 Q1018 A3006 NOSIG=
METAR OMAD 110100Z 04003KT 360V110 CAVOK 17/10 Q1018 A3007 NOSIG=
METAR OMAL 110100Z 11006KT 080V140 CAVOK 16/08 Q1020 A3012 NOSIG=
METAR OMDB 110100Z 06007KT 040V100 CAVOK 18/10 Q1020 NOSIG=
METAR OMDW 110100Z 03006KT CAVOK 13/10 Q1020 NOSIG=
METAR OMFJ 110100Z 29005KT CAVOK 15/10 Q1020 A3013=
METAR OMRK 110100Z 07007KT CAVOK 15/09 Q1020 A3013=
METAR OMSJ 110100Z 08007KT CAVOK 17/10 Q1020=
METAR OOMS 110050Z 13003KT CAVOK 14/10 Q1021 NOSIG=
METAR OOSA 110050Z 32004KT 280V350 9999 FEW025 SCT090
20/16 Q1017 NOSIG  RMK01 RH74=
0000014600
750
SNVD01 PANC 110100 RRB
BBXX
OZHS2 11014 99181 71060
41/98 40310 10240 20194 40129 70211 83180
22273 00270 20302 30000 80210=
0000018000
751
SNVD01 PANC 102200 RRH
BBXX
9VAH9 10223 99457 11512
41191 82844 11020 21092 49983 51053 77577 88727
22252 00030 20918 32927 40714 50612 63011 81040 ICE /////=
0000017900
752
SNVB01 KWBC 102200 RRE
BBXX
9VAH9 10223 99457 11512 41191 82844 11020 21092 49983 51053 77577
 88727 22252 00030 20918 32927 40714 50612 63011 81040 ICE /////=
00000000