0000011000
513
SMSD12 OEJD 110600 RRA
AAXX 11064
41061 42960 01410 10180 20100 39464 40170 333 20100 58002=
0000010500
514
SAIN90 VEPT 110520
METAR VEPT 110520Z 11010KT 0500 -RA BKN015 OVC080 15/14
Q1017 NOSIG=
0000216000
515
SZNZ01 NZKL 110624
CREX++
T000103 A001 D01021 D06025++
-3683144 17478654 AUCT  2014 01 11 06 16 //// 11 07 00 01
05168 3117 05160 3118 05153 3119 05147 3122 05138 3121 05129 3120+
-4402404 -17636748 CHIT  2014 01 11 06 16 //// 11 07 00 01
04418 1993 04407 1984 04396 1975 04383 1964 04394 1977 04393 1978+
-4089929 17623168 CPIT  2014 01 11 06 16 //// 11 07 00 01
03403 2282 03391 2274 03395 2282 03376 2267 03374 2268 03371 2268+
-3618905 17548887 GBIT  2014 01 11 06 16 //// 11 07 00 01
05782 0038 05781 0043 05763 0031 05738 0012 05717 -0004 05716 0001+
-3867541 17802288 GIST  2014 01 11 06 16 //// 11 07 00 01
03630 2704 03616 2695 03609 2693 03617 2706 03622 2715 03617 2716+
-4241288 17370277 KAIT  2014 01 11 06 16 //// 11 07 00 01
02700 2170 02712 2185 02718 2194 02707 2186 02709 2191 02702 2187+
-3755040 17815904 LOTT  2014 01 11 06 16 //// 11 07 00 01
03303 0207 03306 0215 03290 0205 03287 0207 03284 0210 03280 0211+
-3704657 17451175 MNKT  2014 01 11 06 16 //// 11 07 00 01
03484 -0111 03442 -0154 03465 -0132 03445 -0152 03472 -0126 03463 -0136+
-3947566 17692007 NAPT  2014 01 11 06 16 //// 11 07 00 01
02591 2051 02610 2075 02576 2045 02603 2077 02574 2052 02590 2073+
-3441483 17304870 NCPT  2014 01 11 06 16 //// 11 07 00 01
01092 -3523 01163 -3447 00868 -3736 00735 -3864 00844 -3749 00515 -4074+
-4581435 17062939 OTAT  2014 01 11 06 16 //// 11 07 00 01
03768 3428 03767 3428 03767 3428 03769 3430 03768 3430 03769 3431+
-2928002 -17789440 RBCT  2014 01 11 06 16 //// 11 07 00 01
06005 2034 06002 2035 06021 2058 06010 2051 05994 2039 05976 2025+
-2925114 -17790384 RFRT  2014 01 11 06 16 //// 11 07 00 01
02937 0232 02921 0221 02911 0215 02916 0224 02930 0242 02933 0250+
-4357010 17277383 SUMT  2014 01 11 06 16 //// 11 07 00 01
01193 1842 01191 1844 01206 1862 01196 1854 01194 1855 01191 1855+
-3764109 17618118 TAUT  2014 01 11 06 16 //// 11 07 00 01
05088 4003 05082 4004 05075 4002 05070 4003 05065 4003 05056 4000+
-4128448 17477985 WLGT  2014 01 11 06 16 //// 11 07 00 01
02721 2082 02721 2084 02714 2080 02715 2084 02710 2081 02716 2089++
7777
0000010600
516
SMTA10 UTDD 110600 RRC
AAXX 11061
38744 42999 40000 11128 21180 38105 48640 58001 80001=
0000009400
517
SMTA10 UTDD 110600 RRD
AAXX 11061
38715 42999 01810 11100 21226 47040 53004=
0000011200
518
SMRS13 RUMS 110600 RRA
AAXX 11061
23205 41992 10601 11406 21449 30185 40201 54001 74674 81030=
0000011000
519
SMRS13 RUMS 110600 RRB
AAXX 11061
23219 32998 00000 11457 21492 30100 40228 52002 333 47064=
0000014000
520
SMMN01 TNCM 110600
AAXX 11064
78866 01575 10909 10248 20198 30174 40179 57013 60021 70181 81400
  333 59004 69957 81821=
0000013000
521
SMAG01 SABM 110600 RRB
AAXX 11064
87155 31965 73604 10271 20241 39998 40057 55007 70422 80006 333
56004 87270=
0000011100
522
UANT99 KDDL 110621
ARP AWE734 5139N02432W 0621 F380 MS58 213/72 KT
N286AY DDL XXN 110621 J46A
0000064500
523
SMMA01 FIMP 110600
AAXX 11064
61974 11470 70804 10303 20239 40126 69924 71522 85946
  333 0//19 20226 58006 819// 82817 83650 86275 94329=
61986 11475 70907 10296 20253 40136 60024 70282 82806
  333 0//12 20261 59001 82819 85275 94321=
61988 11475 40916 10289 20239 40163 69934 70182 84802
  333 0//12 20257 50542 58014 84818 91128=
61989 11462 61115 10292 20247 40171 69904 71582 86802
  333 0//12 20258 58014 86817=
61990 12475 51011 10294 20235 40166 60004 84802
  333 02300 20252 50602 58014 83818 94322=
61995 12475 51206 10255 20225 39682 69934 85200
  333 02119 20222 50432 58007 85818 91116 94323=
0000011000
524
UANT99 KDDL 110621
ARP CFG185 4535N02141W 0621 F360 MS62 214/87 KT
DABUC QXT IGW 110621 F05A
0000024100
525
SOAT10 KWAL 110623
FA8005BC 011062337 OT12 ID:KN-BASS-01 DT:2014 01 11 06 21
:RD -3136 -3191 -3182 -3198 -3131 -3145 -3151 -3151 -3156 -3174
:PR 0485 0520 0527 0502 0444 0566 0505 0473 0497 0463
:B 13.7V
 46+1NN 219E
0000009600
526
SMAL50 DAMM 110600 RRB
AAXX 11064
60689 36/// /1205 10162 21038
  333 20152=
0000014300
527
SMAL51 DAMM 110600 RRB
AAXX 11061
60381 36/// /1902 10145 20049
  333 20130=
60639 46/// /0403 10098 20000
  333 20090=
0000014500
528
SMAL02 DAMM 110600 RRC
AAXX 11064
60602 11660 41012 10137 20036 40137 56006 60004 700// 83230
   333 0//00 20136 83843 95990=
0000011100
529
UANT99 KDDL 110622
ARP SVA034 4934N03230W 0622 F330 MS51 195/41 KT
HZAK19 QXT AME 110622 F27A
0000010600
530
SMRA11 RUNW 110600 RRF
AAXX 11061
24918 42999 71302 11355 21390 39976 40408 57016 80001=
0000011200
531
SMRA11 RUNW 110600 RRG
AAXX 11061
29393 41597 80000 11202 21228 30020 40321 57006 78587 8593/=
0000083500
532
SMPK20 OPKC 110600
AAXX 11064
41515 02997 00916 10056 21173 38610 48569 60001 333
      58043 60007=
41560 22696 31303 11010 21070 38261 48505 60001 82430 333
      59002 60007=
41571 11995 00000 10120 20035 39631 40229 60001 70500 333
      58021=
41594 31996 02304 10160 21005 39989 40208 70500 333
      58015=
41685 32997 23102 10095 21167 38971 48541 82020 333
      56090 58033 82460=
41710 02997 20000 10085 21094 39450 40254 60001 80001 333
      56009 58003 60007 82070=
41718 11995 00000 10155 20075 30116 40222 60001 70400 333
      58025=
41739 02997 23612 10040 21027 39110 48538 60001 82030 333
      56090 58013 60007 82360=
41744 12996 00000 10070 21019 38795 48511 60001 333
      58002=
41749 01996 53604 10150 20043 30199 40232 60001 70400 82031 333
      58028 60007 82360 83070=
00000000