0000302900
233
SMUS04 KWBC 110600 RRA
AAXX 11064
72503 11124 80705 10011 20000 30210 40221 58035 69981 761// 90551
333 10017 21027 96010 555 91106=
72508 11112 83103 10006 21006 30161 40234 58027 69981 761// 90551
333 10011 21110 4/003 96010 555 91106=
72509 31104 90000 10011 20006 30239 40244 58023 741// 90554 333
10028 21077 555 91106=
72514 17220 80904 10011 20000 39983 40186 58041 69901 761// 90554
333 10011 21032 96010 555 91106=
72515 17004 91510 10017 20017 39580 40175 58045 69981 730// 90553
333 10017 21060 555 91106=
72518 32366 81904 10011 21011 30106 40217 56024 90551 333 10011
21117 4/005 555 91106=
72519 32466 80708 10022 20006 30007 40158 56043 90554 333 10033
21071 555 91106=
72520 32766 81303 10067 20050 39677 40110 58042 90551 333 10067
21005 555 91106=
72524 12766 81814 10089 20061 39788 40069 58040 69951 90551 333
10089 21005 4/008 91021 555 91106=
72526 15766 61622 10083 20039 39808 40075 56048 69901 90551 333
10083 21005 91029 555 91106=
72528 11566 81409 10061 20033 39815 40087 58064 69931 761// 90554
333 10061 21055 4/015 555 91106=
72530 11261 82110 10044 20022 39751 49991 56019 60091 761// 90551
333 10044 21027 4/008 555 91106=
72532 17108 /2108 10039 20033 39752 49995 58013 60011 761// 90554
333 10044 21010 96030 555 91106=
72533 11248 81712 10044 20039 39731 40028 58043 60091 761// 90554
333 10044 21016 4/010 96010 555 91106=
72537 11112 81509 10039 20033 39806 40042 58059 60101 761// 90553
333 10039 21043 96010 555 91106=
72546 11358 82907 10006 21006 39660 40015 58001 69901 710// 90554
333 10011 21049 4/003 555 91106=
72547 17132 82707 10006 20006 39592 49984 58010 69931 710// 90553
333 10006 21055 555 91106=
72552 35866 42808 11028 21056 39399 40067 51016 90553 333 10017
21028 555 91106=
72556 35966 02709 11028 21056 39483 40045 51011 90556 333 10000
21028 555 91106=
72557 31956 03104 11050 21061 39627 40038 53009 710// 90552 333
10006 21078 555 91106=
72562 35966 63105 11078 21100 39092 40087 51017 90553 333 11006
21089 555 91106=
72564 35966 03122 11006 21083 38055 40116 53022 90553 333 11006
21050 91033 555 91106=
72565 32966 41905 11044 21094 38294 40124 53020 90553 333 10017
21056 555 91106=
72567 35766 82808 10006 21044 39136 40059 51007 90552 333 10028
21039 555 91106=
72569 35966 0//// 11050 21100 38310 40141 51024 90553 333 11017
21072 555 91106=
72570 35666 82511 10000 21061 38106 40225 53026 90553 333 10000
21144 555 91106=
72572 32766 81307 10050 21022 38757 40218 53014 90553 333 10056
21016 4/015 555 91106=
72578 35666 82319 10028 21022 38662 40210 53009 90553 333 10033
21021 91026 555 91106=
72583 35966 01909 10044 21011 38738 40223 58000 90556 333 10089
20022 555 91106=
72591 35966 03004 10067 20017 30098 40222 56003 90554 333 10172
20022 555 91106=
72594 37948 01103 10072 20061 30191 40220 58002 710// 90553 333
10111 20072 555 91106=
72597 37256 20000 10050 20039 39720 40194 56012 710// 90553 555
91106=
0000093800
234
SMVA01 KWBC 110600 RRA
BBXX
C6CU6 11064 99212 70234 41497 33103 10210 20180 40166 56001 70000
 8246/ 22212 00224 21203 334// 41605 5//// 80190=
C6YM7 11064 99067 30108 41298 51813 10270 20213 40140 54000 70121
 83885 22200 00270 20402 320// 41203 5//// 6//// 80230 ICE /////=
A8OF6 11064 99350 30120 41/99 72314 10185 20098 40205 52010 70222
 87/7/ 22264 04200 20301 322// 40504 80135=
PFBE 11063 99287 70223 41/98 /9902 10185 20136 40165 55011 70200
 8//// 22263 04205 2//// 80155 42898=
A8SW3 11064 99169 70177 41/98 13615 10190 20159 40150 54000 70200
 8//// 22243 04210 20101 80170=
LGWS 11061 99228 30144 43/// /0204 10168 20156 40127 5//// 222/0
 04149 1//// 3//// 4//// 5////=
PHAC 11063 99047 30023 41498 41505 10250 20208 40128 52016 70200
 81162 22233 20500 315// 41202 80221 42898=
A8HS3 11063 99139 10517 41797 60917 10265 20223 40190 53005 70222
 83562 22224 04253 20605 80235=
0000116600
235
SMVB01 KWBC 110600 RRB
BBXX
9VKQ2 11063 99374 11433 41497 33225 10050 21170 40210 51010 70211
 832// 22254 00060 20503 33128 40607 50606 6//// 81010 ICE /////=
A8RL3 11061 99251 11197 41697 40311 10160 20108 40220 58020 70111
 83545 22253 04190 20606 303// 40605 5//// 80130=
MHMZ8 11064 99330 11281 41298 83609 10070 20059 40299 57021 70222
 81107 22253 00172 20303 333// 40401 80065=
SLKR 11064 99435 11474 43/97 72824 11049 40012 53019 22253 00047
 2//// 4////=
A8VL6 11064 99257 11204 41597 50225 10140 20114 40230 58010 70211
 82164 22213 04160 21404 30201 41404 50802 80125=
DGWD2 11064 99225 11202 41998 03008 10237 20141 40208 56031 70200
 80000 22200 00230 20202 399// 40302=
DFKP2 11063 99291 11298 41298 80311 10099 20048 40265 58020 70522
 887// 22274 00170 20201 30000 80076=
9V7952 11064 99284 11400 41397 30219 10150 20116 40260 56010 7//00
 82299 22224 04190 20402 30601 40503 50402 6//// 80130 ICE 0////=
ATSJ 11063 99131 10736 43697 50110 10240 20204 40121 51003 70312
 84931 22233=
VRGW3 11064 99086 10713 41597 70420 10290 20235 40119 50002 75022
 8577/ 22224 04300 20305 311// 40504 80250=
0000047400
236
SMVC01 KWBC 110600 RRB
BBXX
A8MX4 11064 99043 70473 41297 70513 10241 20233 40100 58010 70322
 87160 22233 20903 306// 41003 5//// 80235=
DDSD2 11064 99301 50724 41598 31934 10165 20128 40120 54000 70300
 838// 22244 00171 20707 80143=
DGOH2 11064 99073 50902 41498 21312 10249 20207 40115 50005 70200
 821// 22274 00250 2//02 3//// 4//// 5//// 80220=
PBQK 11064 99597 50460 41291 71218 11010 21038 49952 57010 74144
 8/6// 22262 20506 81020=
0000370400
237
SMVD01 KWBC 110600 RRH
BBXX
VRBK5 11064 99355 70603 41797 33013 10140 20085 40320 54000 7//11
 83133 22224 0//// 21402 330// 41402 5//// 6//// 80110 ICE /////=
WRTF 11063 99581 71439 41698 12920 10032 2100/ 49905 57030 70111
 811// 22283 00060 2//// 3//// 4//// 5//// 6//// 80018 ICE /////=
VREO9 11064 99216 70598 41594 50726 10240 20210 40231 58002 78161
 84724 22214 06310 20405 307// 41206 80220=
KABP 11063 99247 70804 43598 41313 10260 20232 40190 5//// 7////
 8/2// 22254 00260 20702 3//// 4//// 5//// 6//// 80240 ICE /////=
WPAJ 11064 99588 71507 41/98 42720 10033 20007 49950 5//// 70311
 838// 22233 0//// 2//// 3//// 4//// 5//// 6//// 80022 ICE /////=
3EBL5 11063 99251 70797 418// 41226 10260 20232 40173 54020 7////
 838/1 22274 04280 20802 30608 40602 50502 6//// 85240 ICE /////=
46126 11061 99540 71666 46/// /0801 10036 49826 90548 22200 00045
 1//00 70001 333 91202 555 11010 22011=
46126 11061 99540 71666 46/// /0801 10036 49826 90550 22200 00045
 1//00 70001 333 91202 555 11010 22011=
46126 11061 99540 71666 46/// /1302 10036 49826 90554 22200 00045
 1//00 70001 333 91202 555 11017 22019=
44150 11061 99425 70640 46/// /2403 1//// 40296 57011 22200 00045
 10802 70010 333 91203=
9V8797 11064 99371 70541 43/98 80408 10110 40329 55004 22223 00193
 2//// 4////=
SKUN 11063 99491 70468 43/97 82730 11029 40140 53052 22253 00045
 2//// 4////=
44139 11061 99442 70571 46/// /2409 10007 40287 57015 22200 00015
 10705 70023 333 91211=
44040 11061 99410 70736 46/// /0603 10015 20015 90545 22200 1//00
 70000 333 91204 555 11036 22046=
41300 11064 99159 70575 46/// /0617 10254 20203 40152 57014 22200
 00260 10906 70032=
WDJK 11064 99347 71586 41598 43409 10142 20105 40326 51020 70200
 841// 22283 00160 2//// 3//// 4//// 5//// 6//// 80121 ICE /////=
WDE5381 11064 99235 70868 414// 31419 10256 20224 40140 54100
 7//11 8/1// 22233 0//// 2//// 3//// 4//// 5//// 6//// 80233 ICE
 /////=
J8NX 11063 99263 70787 41699 21419 10248 20233 40190 54000 7//00
 82009 22233 00248 20504 31409 40704 50704 6//// 80237 ICE /////=
WCY7054 11063 99256 70852 41598 61413 10230 2//// 40158 54///
 70321 8/2// 22273 0//// 20302 336// 40402 5//// 6//// 8//// ICE
 /////=
A8IP3 11064 99191 70745 41599 31810 10260 20218 40163 54000 70200
 8114/ 22254 00270 20503 307// 40803 5//// 80230=
C6QM8 11064 99244 70813 41/98 /1421 10250 40200 7//// 8//// 22265
 2////=
KABL 11063 99284 70892 41798 71616 10230 20201 40230 54000 7//22
 87/// 22215 00200 2//// 3//// 4//// 5//// 6//// 80210 ICE 0////=
44022 11061 99409 70737 46/// /0404 10015 20010 90600 333 91205
 555 11041 22041=
44060 11061 99413 70721 46/// /0603 10043 20041 40248 90545 22200
 00042 333 91203 555 11026 22031=
44039 11061 99411 70727 46/// /1003 10034 20033 90545 333 91203
 555 11036 22041=
A8IN7 11064 99175 70764 41598 20718 10272 20219 40160 51010 70186
 82100 22214 20503 308// 40802 80236=
DILE 11063 99477 70452 41597 82928 11020 21131 40170 54000 70322
 8/8// 22224 00030 20506 332// 40608 81050=
46053 11061 99343 71199 46/// /1003 10146 40190 52012 90550 22200
 00153 11403 20401 327// 41403 70017 333 91204 555 11028 22029
 30549 41004 60549 097027 042024 054018 072012 038023 030022=
WSQ2674 11064 99327 71172 43/// /2802 10126 2//// 40195 5////
 7//// 8//// 222// 04152 2//// 3//// 4//// 5//// 6//// 8//// ICE
 /////=
WECB 11064 99327 71172 43/// /3202 10137 20099 40202 5//// 7////
 8//// 222// 04150 2//// 3//// 4//// 5//// 6//// 8//// ICE /////=
KGTX 11064 99540 71646 41296 82019 10052 20043 49832 55000 70262
 885// 22224 00052 20303 3//// 4//// 5//// 6//// 80048 ICE /////=
0000226900
238
SMUS05 KWBC 110600 RRA
AAXX 11064
72606 35661 80000 11011 21028 30229 40249 56018 90551 333 11011
21161 555 91106=
72617 32566 81711 10022 21022 30073 40204 56034 90554 333 10022
21099 555 91106=
72635 17258 81809 10050 20039 39719 40007 56035 60141 761// 90553
333 10056 21043 96010 555 91106=
72636 17258 81913 10044 20033 39768 49997 58022 60131 762// 90555
333 10061 21049 91022 96010 555 91106=
72637 17366 81711 10044 20028 39742 40022 58061 60061 761// 90553
333 10044 21043 555 91106=
72638 17262 81907 10028 20022 39583 40004 56045 60111 761// 90553
333 10028 21094 555 91106=
72639 17366 81511 10017 20011 39752 40007 58063 60081 761// 90554
333 10017 21106 555 91106=
72640 12264 82111 10033 20028 39737 49987 56018 60051 90552 333
10039 21043 4/018 555 91106=
72641 11116 82003 10022 20017 39667 49981 58015 60021 710// 90553
333 10022 21055 555 91106=
72644 17256 82908 11017 21033 39510 49995 56007 60011 710// 90554
333 11011 21083 555 91106=
72645 11116 81904 10011 20011 39722 49970 56029 60071 710// 90553
333 10017 21049 555 91106=
72651 32964 0//// 11072 21083 39504 40029 50005 90556 333 11006
21094 4/008 555 91106=
72654 35966 02904 11067 21094 39554 40028 53005 90555 333 11028
21067 555 91106=
72658 11102 92604 11017 21017 39672 49992 58012 69901 741// 90553
333 11006 21089 4/015 555 91106=
72659 35966 01604 11133 21150 39536 40027 53008 90553 333 11056
21133 555 91106=
72662 35966 03114 10022 21028 38951 40066 51021 90552 333 10039
21028 555 91106=
72666 35766 83220 10028 21050 38727 40108 51028 90553 333 10039
21082 555 91106=
72677 32966 62407 10033 21061 38855 40113 53023 90553 333 10050
21021 4/003 555 91106=
72681 32766 81709 10033 20000 39180 40201 55002 90553 333 10061
20011 555 91106=
72683 15766 80704 10017 20006 38748 40197 58012 69901 90553 333
10044 20000 555 91106=
72688 15766 82111 10100 20017 39581 40115 58030 69901 90553 333
10100 20061 555 91106=
72693 32666 61713 10111 20056 30002 40140 58025 90554 333 10111
20083 555 91106=
72694 35966 01813 10128 20050 30044 40116 58025 90556 333 10128
20094 91020 555 91106=
72698 12566 81305 10111 20050 30106 40114 58031 69901 90553 333
10122 20094 555 91106=
0000149300
239
SMVD01 KWBC 110600 RRI
BBXX
C6FZ8 11064 99259 70782 41798 51426 10240 20211 40180 56015 70321
 8443/ 22233 00236 2//// 3//// 4//// 5//// 6//// 80220 ICE /////=
46077 11061 99579 71543 46/// /3002 10016 49941 56014 90550 22200
 00043 10701 20301 3//// 40701 70007 333 91203 555 11018 22019
 30459 43006 60549 304018 313019 315022 312025 303036 304040 83006
 90500=
44041 11061 99372 70768 46/// /1403 10094 90600 22200 00039 1//00
 70001 333 91204 555 11034 22036=
44063 11061 99390 70764 46/// /3302 10019 40182 56038 90600 22200
 00014 1//00 70000 333 91203 555 11024 22026=
44062 11061 99386 70764 46/// /0101 10025 40196 56034 90600 22200
 00028 1//00 70000 333 91202 555 11015 22016=
44064 11061 99370 70760 46/// /1304 10090 40190 58037 90600 22200
 00065 10301 70005 333 91206 555 11050 22054=
42060 11061 99163 70632 46/// /0708 10260 40163 58011 90550 22200
 00267 10604 20603 305// 41102 70019 333 91210 555 11086 22091
 30456 40711 60549 067081 069081 067086 064081 065083 061085 80609
 90456=
41046 11061 99238 70683 46/// /0909 10254 20189 40222 58008 90550
 22200 00260 10905 20704 3//// 40903 70025 333 91211 555 11091
 22096 30548 40911 60549 090083 086083 091084 093080 084079 086080
 80909 90549=
44059 11061 99368 70763 46/// /1603 10138 40180 58038 90600 22200
 00075 333 91203 555 11030 22033=
44058 11061 99376 70763 46/// /1805 10077 40190 58033 90600 22200
 00042 10301 70003 333 91205 555 11052 22057=
0000051800
240
SMVD11 KWBC 110600 RRA
BBXX
C6FR3 11063 99152 70942 414// 43602 10250 2//// 40130 54/// 70200
 84//5 22233 00250 2//// 3//// 4//// 5//// 6//// 8//// ICE /////=
SHIP 11063 99178 71032 41998 10311 10250 20207 40138 51014 70100
 81030 9//// 22233 00280 2//// 3//// 4//// 5//// 6//// 80220=
SHIP 11064 99102 70962 41598 60916 10250 20222 40127 51010 70222
 8343/ 22264 06293 20501 309// 40903 80230=
DHBN 11064 99136 70945 41998 00605 10265 20240 40132 52/// 70222
 80000 22274 00260 2////=
0000123000
241
SMVE01 KWBC 110600 RRB
BBXX
OWKI2 11061 99048 31128 41398 70206 10265 20237 40088 56025 72052
 8/71/ 22263 00280 2//// 80245=
SJCD 11061 99189 31551 43/98 21312 10269 40097 58024 22284 00273=
C6FS9 11064 99238 31512 46/// /1020 10259 20188 30106 40142 57021
 22200 04283 85210=
VRRD 11063 99211 31540 41598 61422 10290 20224 40105 57014 70222
 85280 22243 04280 20406 318// 40405 80245=
VNSZ 11064 99412 31464 46/// /3019 10251 20080 30099 40124 57005
 22200 04185 85152=
VRAE3 11064 99189 31535 41498 31114 10310 20283 40096 57018 70300
 82140 22283 04290 20802 311// 40802 80290=
ONBF 11064 99019 31188 41597 70513 10270 20235 40130 57025 7//22
 87148 22253 00290 20502 302// 40503 5//// 6//// 80245 ICE /////=
MFLM9 11063 99014 31422 41397 82309 10255 20255 40072 53021 76562
 887// 22272 00296 20301 327// 40505 5//// 80255=
A8UT6 11063 99158 31174 41998 02808 10320 20240 40092 56012 700//
 80000 22243 06298 20301 325// 40906 80261=
ZMKA 11063 99399 31774 41599 11208 10180 20134 40171 54000 70300
 81540 22253 20201 316// 40605 80154=
KAOU 11064 99061 31057 43/// /2508 10274 20245 40094 5//// 7////
 8//// 222// 04301 2//// 3//// 4//// 5//// 6//// 8//// ICE /////=
0000217800
242
SMVF01 KWBC 110600 RRB
BBXX
SBLI 11061 99352 70337 43/98 32909 10143 40150 50006 22223 00186
 2//// 4////=
SBHI 11060 99586 10197 41/98 /2304 11002 21057 40018 58012 7//77
 8//// 22281 00065 2//// 81019=
WDF3296 11063 99380 70310 41598 33224 10110 20015 40082 52017
 70111 835// 22223 00211 20305 331// 41007 80070=
SHIP 11064 99362 10155 41698 62112 10160 20127 40250 54005 70222
 855// 22274 00170 2//// 3//// 4//// 80140=
62023 11063 99514 70079 46/97 /3108 10072 2//// 4//// 5//// 22200
 10704 70021 555 70037 81006=
PDWZ 11063 99374 10065 41299 39902 10155 20147 40175 54000 70211
 8314/ 22263 299// 30000 80150 42898=
DPGZ 11063 99374 70308 41/// 73030 10130 40105 53005 703// 8////
 22224 20808=
A8AC4 11063 99489 70053 41798 33514 10096 20045 40178 51021 70111
 831// 22214 04117 20501 330// 42004 80071=
LJIT 11061 99583 10041 43/// /2912 10067 20006 40017 5//// 222/0
 04069 1//// 3//// 4//// 5////=
LMEL 11061 99603 10053 43/// /1302 10047 20039 49966 5//// 222/0
 04079 1//// 3//// 4//// 5////=
LDGJ 11061 99603 10053 43/// /1402 10050 20026 49969 5//// 222/0
 04080 1//// 3//// 4//// 5////=
LF4H 11064 99596 10022 46/// /2721 10060 20021 49987 52001 8////
 22200 06077 10606 70032 333 91132=
UAEV 11061 99737 10181 41597 73108 10010 40015 54000 70222 8642/
 22231 20403=
UBEF5 11061 99588 10020 41/97 92311 10060 40023 54000 70222 8////
 22252 00080 20504=
UCFT 11061 99735 10184 41595 73108 10040 40026 54000 77072 8672/
 22271 20403=
UCAB 11061 99586 10040 41/97 72708 10060 40012 54000 70222 22242
 00081 20401=
UCSJ 11061 99713 10247 41998 92904 11010 40172 54000 70282 89///
 22275 20301=
PHAM 11064 99505 70064 41/98 /2725 10090 20047 40180 52025 70200
 8//// 22283 2//// 80069 42898=
A8VE2 11064 99360 10351 41699 22312 10161 20051 40240 53010 81260
 22274 04202 20301 334// 40501 80104=
UHOM 11061 99737 10202 41/97 93110 10012 40133 54000 70222 89///
 22231 20302=
PHAW 11060 99398 70130 41/98 11507 10133 20095 40129 52001 70000
 8//// 22253 00114 2//// 80112 42898=
UITJ 11061 99619 70008 41497 81018 10060 49970 54001 76062 8872/
 22272 00080 20807=
0000131100
243
SMUS06 KWBC 110600 RRA
AAXX 11064
72712 35466 82303 11083 21128 39994 40239 55005 90554 333 11078
21189 555 91106=
72745 11104 /2304 11033 21044 39458 49985 58014 69931 741// 90555
333 11028 21100 96041 555 91106=
72747 17132 81703 11033 21044 39533 49973 58013 69901 710// 90555
333 11033 21100 555 91106=
72753 32466 82507 11039 21067 39658 49995 53007 90553 333 11033
21089 91030 555 91106=
72764 32966 83005 11044 21072 39435 40040 51023 90552 333 11022
21083 555 91106=
72767 35966 02106 11061 21089 39362 40064 53021 90552 333 10006
21100 555 91106=
72768 35966 03206 11067 21083 39260 40096 53030 90553 333 11017
21083 555 91106=
72772 35666 22406 10044 21050 38770 40142 51007 90553 333 10050
21027 555 91106=
72773 32766 80503 10028 21011 39014 40156 58005 90553 333 10033
21016 555 91106=
72776 32966 02312 10017 21050 38809 40103 50007 90553 333 10022
21011 555 91106=
72777 35866 82404 11011 21050 39171 40102 51021 90553 333 10017
21028 555 91106=
72781 32966 22705 10033 21006 39709 40096 58025 90553 333 10111
21016 555 91106=
72793 11566 81411 10094 20072 39886 40053 58055 60041 761// 90553
333 10094 20083 555 91106=
72797 17216 81708 10106 20089 39929 49992 56033 60501 762// 90553
333 10106 20083 91029 96010 555 91106=
0000023100
244
SMUS22 KWBC 110600 RRA
AAXX 11064
72241 15162 82309 10189 20183 30105 40112 53007 60081 90553 333
10200 20128 555 91106=
72297 31432 20303 10128 20100 30180 40193 53013 705// 90553 333
10183 20078 555 91106=
0000063100
245
SNVD01 KWBC 110100 RRW
BBXX
42047 11011 99279 70936 46/// /1709 1//// 40127 90100 22200 00215
 333 91211 555 11101 22109=
42047 11011 99279 70936 46/// /1808 1//// 40128 90130 22200 00215
 333 91210 555 11094 22102=
42046 11011 99279 70940 46/// /1908 10204 40126 90130 22200 00216
 333 91209 555 11088 22095=
42046 11011 99279 70940 46/// /2010 10205 40124 90100 22200 00216
 333 91214 555 11118 22129=
42044 11011 99262 70971 46/// /1703 1//// 40113 90100 22200 00144
 333 91203 555 11031 22034=
42044 11011 99262 70971 46/// /1603 1//// 40115 90130 22200 00144
 333 91204 555 11035 22038=
0000063100
246
SNVD01 KWBC 110200 RRX
BBXX
42047 11021 99279 70936 46/// /1909 1//// 40130 90230 22200 00215
 333 91211 555 11106 22115=
42047 11021 99279 70936 46/// /1808 1//// 40131 90200 22200 00215
 333 91210 555 11095 22104=
42046 11021 99279 70940 46/// /1708 10207 40122 90200 22200 00216
 333 91209 555 11092 22099=
42046 11021 99279 70940 46/// /1709 10207 40124 90230 22200 00216
 333 91211 555 11104 22113=
42044 11021 99262 70971 46/// /1703 1//// 40118 90200 22200 00144
 333 91204 555 11034 22037=
42044 11021 99262 70971 46/// /1703 1//// 40120 90230 22200 00144
 333 91204 555 11031 22034=
0000063100
247
SIVD30 KWBC 110300 RRV
BBXX
42047 11031 99279 70936 46/// /1810 1//// 40128 90300 22200 00215
 333 91210 555 11112 22122=
42047 11031 99279 70936 46/// /1708 1//// 40125 90330 22200 00215
 333 91210 555 11096 22104=
42046 11031 99279 70940 46/// /1809 10208 40125 90300 22200 00216
 333 91210 555 11098 22107=
42046 11031 99279 70940 46/// /1808 10209 40126 90330 22200 00216
 333 91210 555 11095 22103=
42044 11031 99262 70971 46/// /1802 1//// 40124 90300 22200 00144
 333 91203 555 11027 22029=
42044 11031 99262 70971 46/// /1902 1//// 40126 90330 22200 00143
 333 91203 555 11024 22026=
0000027400
248
SMCI03 BABJ 110600 RRB
AAXX 11061
50136 32970 63204 11254 21330 39733 40355 52007 86/// 333
21414=
50745 11964 70202 11178 21224 30077 40281 52002 69911 77070
87/// 333 21243 92502=
50788 32970 23203 11202 21258 30149 40244 52002 82/// 333
21280=
0000008900
249
SPIN90 VABP 110600
SPECI VAID 110600Z 07008KT 2000 HZ SCT015 16/11 Q1019=
0000014200
250
SMCI32 BABJ 110000 CCA
AAXX 11001
58506 11/07 93601 10005 20005 38918 40306 52010 60042 768//
333 05101 31010 70058 93427=
0000059900
251
SMCI01 BABJ 110600 RRC
AAXX 11061
51243 32965 02201 11169 21216 39848 40462 57019 333 05102
21244=
51288 32980 72201 11078 21182 38422 57012 87/// 333 00204
21166=
51463 31955 90000 11119 21181 39220 40407 57018 70500 333
05256 21122=
51573 32965 01402 11063 21171 30418 40465 57014 333 00500
21130=
53588 32980 03207 11080 21265 37787 57015 333 21142=
54337 32956 70401 10008 21119 30189 40276 57028 87/// 333
21133=
54497 32580 71603 11004 21127 30274 40293 57026 87/// 333
21127=
57083 31913 53402 10080 21038 30163 40304 57034 70540 85///
333 21016=
0000012400
252
SMCI02 BABJ 110600 RRC
AAXX 11061
58752 31756 82703 10107 20050 30223 40273 57026 70500 88///
333 20082=
00000000