0000034100
153
SZIO01 AMMC 110639
CREX++
T000103 A001 D01021 D06025++
-1211670 09689190 46280 2014 01 11 06 32 3018 11 07 00 01
01258 0038 01260 0039 01269 0047 01269 0046 01271 0047 01270 0045+
-1042940 10566940 46290 2014 01 11 06 32 //// 11 07 00 01
01246 0004 01317 0073 01255 0008 01309 0060 01307 0056 01261 0008++
7777

0000012000
154
SAIR32 OIII 110630 RRA
METAR OIYY 110630Z 00000KT 5000 -SHGS SCT025CB FEW035 BKN100
      03/M01 Q1022=

0000144200
155
SMIN51 DEMS 110600
AAXX 11064
42027 31595 83201 10016 21017 38494 48579 70522 8452/
  333 58016=
42182 31993 02908 10138 20099 40198 71144
  333 58018=
42299 21395 80000 10076 20034 38227 48539 72022 8763/
  333 58014 6990/ 81709 86617=
42348 31996 33605 10170 20012 40193 70500 80001
  333 58029 83070=
42369 31/93 93603 10146 20128 40186 74544 89///
  333 59001=
42410 31995 40204 10222 20172 40185 70542 84030
  333 58013 84360=
42492 21494 81803 10156 20146 40182 76066 8572/
  333 58002 6992/ 85615 88458=
42516 32396 53203 10144 20038 38432 48528 83430
  333 58008=
42623 31996 01802 10214 20097 39285 40149 70500
  333 58004=
42647 31995 00206 10190 20096 40188 70400
  333 58024=
42667 31995 00208 10156 20113 39576 40180 71044
  333 58023=
42724 31995 03602 10240 20130 40164 70544
  333 59009=
42807 31996 03201 10250 20134 40167 70500
  333 59001=
42867 31595 72305 10246 20165 40151 70544 82577
  333 58007 82625 84360 86270=
42971 31995 01606 10282 20171 40165 70540
  333 58000=
43063 31996 00000 10234 20093 39521 40145 70500
  333 58009=
43128 31496 61603 10246 20198 39547 40152 70522 84530
  333 56390 59005 84615 85360=
43278 32597 51802 10284 20205 30153 40160 84401
  333 58009=
43295 32997 30902 10252 20146 39132 48547 80001
  333 58009 83075=
43371 32597 30000 10304 20225 30060 40132 83500
  333 58007 83620=
43057 NIL=
0000064500
156
SMIN60 DEMS 110600
AAXX 11064
07149 01245 70202 10057 20051 30054 40165 57002 60022 71062 875//
  333 10059 20055 32005 55000 60017 70018 83704 87649 90710 91103
93100=
03772 NIL=
06240 NIL=
06451 NIL=
06670 NIL=
06700 NIL=
10384 NIL=
10637 NIL=
16235 NIL=
27612 NIL=
40180 NIL=
41194 NIL=
41571 NIL=
41640 NIL=
41780 NIL=
41923 NIL=
43466 NIL=
44454 NIL=
45007 NIL=
47007 NIL=
47108 NIL=
47662 NIL=
48455 NIL=
48647 NIL=
48698 NIL=
54511 NIL=
62366 NIL=
63740 NIL=
71628 NIL=
72295 NIL=
72405 NIL=
72494 NIL=
72503 NIL=
94610 NIL=
94767 NIL=
94866 NIL=
0000064500
157
SMIN61 DEMS 110600
AAXX 11064
07149 01245 70202 10057 20051 30054 40165 57002 60022 71062 875//
  333 10059 20055 32005 55000 60017 70018 83704 87649 90710 91103
93100=
03772 NIL=
06240 NIL=
06451 NIL=
06670 NIL=
06700 NIL=
10384 NIL=
10637 NIL=
16235 NIL=
27612 NIL=
40180 NIL=
41194 NIL=
41571 NIL=
41640 NIL=
41780 NIL=
41923 NIL=
43466 NIL=
44454 NIL=
45007 NIL=
47007 NIL=
47108 NIL=
47662 NIL=
48455 NIL=
48647 NIL=
48698 NIL=
54511 NIL=
62366 NIL=
63740 NIL=
71628 NIL=
72295 NIL=
72405 NIL=
72494 NIL=
72503 NIL=
94610 NIL=
94767 NIL=
94866 NIL=
0000011500
158
UGIN21 DEMS 110600 RRA
PPBB 61061 42182
90012 27006 31005 30006 9037/ 31007 32509 910// 33512=

0000022800
159
UPIN02 DEMS 110600 RRA
PPAA 61061 42182 55392 30507 32005 33512 77999=
PPAA     61061    43150     55392    16004    22503    24527   55150
   30033    77999=
PPAA 6106/ 43333 NO ASCENT DUE TO LOW CLOUD=

0000010000
160
SNVF25 LFPW 110100
BBXX
BAREU66 11014 99368 70016 46/// ///// 40163 57011
22255=
0000018400
161
SSVX13 LFPW 110100
ZZYY 41734 11014 0100/ 705361 039215 6113/ 11119 40142 52011 22219
 00264 33300 88872 20000 43603 444 20130 11014 0100/ 50101 80118
 80021 9/015=
0000011800
162
SNVF25 LFPW 110100
BBXX
BATFR16 11014 99433 70178 46/// /1222 10110 20050 40141 58015
22214 00137=
0000015700
163
SSVX13 LFPW 110100
ZZYY 41970 11014 0100/ 730908 058818 6113/ 11119 40302 52012 22219
 00216 444 20130 11014 0100/ 50101 80118 80060 9/015=
0000010000
164
SNVF25 LFPW 110100
BBXX
BATEU10 11014 99491 70041 46/// /2023 40135 51006
22255=
0000011200
165
SNVF25 LFPW 110100
BBXX
BATFR66 11014 99430 10079 46/// /0109 10129 20075 40203 50003
22224=
0000015700
166
SSVX13 LFPW 110100
ZZYY 62684 11014 0100/ 174686 004525 6113/ 11119 40155 52004 22219
 00011 444 20130 11014 0100/ 50101 80076 80005 9/015=
0000018400
167
SSVX13 LFPW 110100
ZZYY 41736 11014 0100/ 711939 040277 6113/ 11119 40156 52001 22219
 00257 33300 88872 20000 43602 444 20130 11014 0100/ 50101 80112
 80024 9/015=
0000015700
168
SSVX13 LFPW 110100
ZZYY 44773 11014 0100/ 742208 029131 6113/ 11119 49994 57037 22219
 00146 444 20130 11014 0100/ 50101 80118 80010 9/015=
0000011800
169
SNVF25 LFPW 110100
BBXX
BATFR33 11014 99430 10084 46/// /2905 10130 20089 40202 58001
22224 00142=
0000011800
170
SNVF25 LFPW 110100
BBXX
BATFR31 11014 99426 10066 46/// /0808 10132 20090 40204 50///
22274 00139=
0000016300
171
SSVX13 LFPW 110100
ZZYY 13592 11014 0100/ 728830 053555 6113/ 22219 00237 33300 88872
 20000 43657 444 20130 11014 0100/ 50101 80112 80010 9/015=
0000320400
172
SMCI01 KWBC 110600 RRA
AAXX 11061
56586 11462 80202 10000 21035 38078 57027 69901 70070 88/// 333
00756 21024=
56671 32780 01806 10171 21042 38198 57035 333 00200 20013=
56748 32973 02504 10179 21009 38372 57029 333 00100 20026=
56763 32980 02501 10243 21001 40106 57041 333 00251 20078=
56768 32680 02507 10172 21041 38187 57028 333 00200 20035=
56838 31670 01802 10170 20104 40198 57031 70040 333 00100 20074=
56886 32678 02207 10187 20025 38304 57034 333 00201 20041=
56946 32680 03601 10208 20071 40181 57036 333 00151 20045=
56959 32765 10701 10236 20140 40163 57040 81/// 333 00151 20116=
56969 31580 22001 10250 20156 40163 57038 70040 82/// 333 00101
20134=
57378 32960 83602 10057 20009 30230 40314 57022 88/// 333 20032=
57426 11525 82001 10066 20039 40288 57026 69961 76064 88/// 333
00500 20046=
57476 32960 83604 10057 21001 40308 57023 88/// 333 20032=
57584 11858 83603 10045 20024 40305 57022 69931 71060 88/// 333
20031=
57598 11660 83602 10046 20039 30109 40295 57021 69931 70060 88///
333 20036=
57655 32860 80401 10046 20007 40312 57025 88/// 333 20033=
57731 32670 83201 10065 20020 40292 57030 88/// 333 20037=
57766 11458 80402 10042 20035 40297 57026 69971 76060 88/// 333
20038=
57776 11/01 93605 11023 21027 38801 40296 57021 69941 74964 333
21032 93434=
57845 11758 80401 10043 20028 40289 57030 69921 76066 88/// 333
20036=
57853 11440 80401 10047 20038 40296 57029 69941 76066 88/// 333
20040=
57916 32563 81101 10099 20045 40259 57036 88/// 333 20073=
57922 32568 83603 10037 20013 39075 40279 57029 88/// 333 20011=
57932 11358 80000 10066 20044 39931 40285 57033 69911 76060 88///
333 20052=
58321 11650 80201 10050 20025 40306 57021 69911 71060 88/// 333
20033=
58338 11450 80201 10047 20040 40288 57024 60021 76066 88/// 333
20041=
58437 11/00 92506 11009 21010 38183 57018 60041 77474 333 21045=
58556 11543 80000 10060 20051 40292 57023 60041 76064 88/// 333
20041=
58569 11409 83606 10070 20067 30120 40281 57022 60021 76066 88///
333 20057=
58646 31642 82001 10100 20052 30196 40271 57024 70500 88/// 333
20078=
58715 11730 83403 10068 20050 40274 57022 69911 76060 88/// 333
20061=
58730 32756 80000 10110 20051 40262 57026 88/// 333 20076=
58731 31656 82901 10110 20049 40263 57023 70500 88/// 333 20071=
58754 32672 83601 10122 20044 30224 40270 57025 88/// 333 20085=
58911 32662 50902 10187 20081 40231 57036 85/// 333 20076=
58931 31270 72703 10093 20076 38400 57020 70040 87/// 333 20011=
59007 32667 80202 10112 20086 38793 40214 57032 88/// 333 20060=
59046 11431 83403 10081 20067 30134 40255 57025 60011 76066 88///
333 20080=
59058 11823 83404 10091 20071 30024 40248 57025 69901 71060 88///
333 20091=
59072 31758 80205 10128 20066 30086 40247 57028 70500 88/// 333
20095=
59087 32962 03402 10210 20086 40221 57040 333 20078=
59209 11467 83602 10131 20108 40215 57029 69921 76066 88/// 333
20095=
59254 31756 73602 10176 20114 40223 57036 70500 87/// 333 20139=
59632 11956 20201 10204 20154 40212 57030 69901 70560 82/// 333
20147=
59855 11470 70903 10238 20182 40193 57030 69921 70080 87/// 333
20204=
00000000