0000004200
613
SAJP43 KWBC 102030
NIL=

0000004200
614
SAJP44 KWBC 102030
NIL=

0000004200
615
SAJP45 KWBC 102030
NIL=

0000071300
616
SACI31 ZBBB 102030
METAR ZBAA 102030Z 18001MPS 6000 NSC M10/M20 Q1032 NOSIG=
ZBSJ NIL=
METAR ZBTJ 102030Z 18001MPS 1000 R16R/P2000N BR NSC M07/M09 Q1032
NOSIG=
METAR ZBYN 102030Z 18001MPS CAVOK M10/M20 Q1028 NOSIG=
METAR ZGGG 102030Z 08002MPS 050V160 5000 HZ BKN050 13/08 Q1024
NOSIG=
METAR ZSHC 102030Z 00000MPS 6000 -RA SCT030 05/02 Q1031 NOSIG=
METAR ZSPD 102030Z 08004MPS 010V110 CAVOK 06/00 Q1031 NOSIG=
METAR ZSSS 102030Z 09004MPS CAVOK 06/00 Q1031 NOSIG=
ZWSH NIL=
METAR ZWWW 102030Z 30001MPS 0700 R25/1100N FZFG NSC M18/M21 Q1038
NOSIG=
METAR ZYTL 102030Z 00000MPS 3000 BR SCT033 M06/M09 Q1031 NOSIG=
METAR ZYTX 102030Z 13002MPS 6000 NSC M16/M21 Q1031 NOSIG=

0000009500
617
SALI20 GLRB 102030
METAR GLRB 102030Z 00000KT 9999 FEW014 26/25 Q1011 NOSIG=

0000023200
618
SALJ31 LJLJ 102030
METAR LJLJ 102030Z 30004KT 9999 SCT030 BKN050 06/05 Q1021 NOSIG=
METAR LJMB 102030Z 35006KT 0600 R32/0800U FG VV002 03/03 Q1021=
METAR LJPZ 102030Z 19001KT 2000 BR BKN010 OVC015 10/09 Q1022=

0000011200
619
SALJ32 LJLJ 102030
METAR LJCE 102030Z AUTO 00000KT 0550 FG FEW047/// BKN083///
04/04 Q1021=

0000010800
620
SAIO31 KWBC 102000 RRD
METAR
FMMI 102030Z 06002KT 9999 FEW017 BKN230 19/19 Q1021 NOSIG=

0000011000
621
SANT31 KWBC 102000 RRB
METAR
BIKF 102030Z 26016KT 9999 FEW029 BKN055 OVC070 02/M02 Q0990=

0000022000
622
SAFR21 LFPW 102030
METAR LFOA 102030Z AUTO 08006KT 9999 NSC 05/04 Q1016=
METAR LFPC 102030Z AUTO 15004KT 110V180 9000 OVC006 05/03 Q1018=
METAR LFPV 102030Z AUTO VRB02KT 3700 BR OVC003 05/04 Q1017=

0000032300
623
SARO31 LROM 102030
METAR LRBS 102030Z 22003KT CAVOK 04/03 Q1016 NOSIG=
METAR LRCK 102030Z 27012KT 2000 BR SCT005 03/02 Q1016 NOSIG=
METAR LROP 102030Z 22006KT CAVOK 04/03 Q1016 8829//95 NOSIG=
METAR LRSB 102030Z NIL=
METAR LRTR 102030Z 07004KT 0600 R11/0700N FZFG BKN000 M02/M02 Q1022
11190095=

0000044600
624
SAFR22 LFPW 102030
METAR LFBC 102030Z AUTO 36001KT 3800 BR NSC 07/06 Q1014=
METAR LFBG 102030Z AUTO 34004KT 8000 NSC 09/07 Q1015=
METAR LFBM 102030Z AUTO 08003KT 9999 NSC 06/05 Q1014=
METAR LFKS 102030Z AUTO 27003KT 230V300 9999 OVC024 13/09 Q1021=
METAR LFMO 102030Z AUTO 08002KT 5000 BR OVC023 08/07 Q1020=
METAR LFMY 102030Z AUTO 00000KT 9000 OVC023 10/08 Q1019=
METAR LFBY 102030Z NIL=
METAR LFMC 102030Z NIL=

0000025200
625
SARO32 LROM 102030
METAR LRAR 102030Z NIL=
METAR LRBM 102030Z NIL=
METAR LRCL 102030Z 30004KT 5000 BR BKN046 00/00 Q1019=
METAR LROD 102030Z AUTO 20008KT 9000 NCD 01/00 Q1020=
METAR LRSM 102030Z NIL=
METAR LRTM 102030Z NIL=

0000038500
626
SAFR23 LFPW 102030
METAR LFOC 102030Z AUTO 06007KT 360V080 0650 R28/1500D FG VV///
06/05 Q1017=
METAR LFOE 102030Z AUTO 15005KT 7000 OVC004 05/05 Q1017=
METAR LFOJ 102030Z AUTO 07005KT 0800 R25/2000D FG VV/// 06/06 Q1017=
METAR LFRJ 102030Z AUTO 19006KT 7000 NSC 07/06 Q1015=
METAR LFRL 102030Z AUTO 18003KT 0200 R23/0600D R05/0700D // VV///
07/07 Q1015=

0000019500
627
SARO33 LROM 102030
METAR LRBC 102030Z NIL=
METAR LRCV 102030Z AUTO 27014KT 9999 NCD 05/01 Q1019=
METAR LRIA 102030Z NIL=
METAR LRSV 102030Z NIL=
METAR LRTC 102030Z NIL=

0000028100
628
SAFR24 LFPW 102030
METAR LFSI 102030Z AUTO 09003KT 9999 FEW048 SCT190 BKN210 04/03
Q1018=
METAR LFSO 102030Z AUTO 14005KT 9999 NSC 03/02 Q1018=
METAR LFSX 102030Z AUTO 08003KT 2100 BR NSC 03/02 Q1018=
METAR LFYR 102030Z AUTO 03001KT 9999 NSC 02/02 Q1016=

0000048900
629
SAFR31 LFPW 102030
METAR LFLL 102030Z 14007KT 1500 R18R/1300U BR NSC 06/05 Q1018 NOSIG=
METAR LFMN 102030Z 33007KT 9999 OVC027 10/07 Q1021 NOSIG=
METAR LFPG 102030Z VRB02KT 4000 BR BKN003 05/03 Q1018 BECMG 3000 BR=
METAR LFPO 102030Z 10002KT 9999 OVC005 06/05 Q1018 TEMPO BKN003.=
METAR LFQQ 102030Z 20011KT 9999 OVC009 05/03 Q1017 NOSIG=
METAR LFRB 102030Z 19004KT 2000 BR FEW006 BKN150 07/06 Q1015 NOSIG=
METAR LFRS 102030Z 09004KT CAVOK 09/08 Q1015 NOSIG=

0000070100
630
SAFR32 LFPW 102030
METAR LFBD 102030Z AUTO 00000KT 9999 NSC 09/08 Q1014=
METAR LFBH 102030Z AUTO 11010KT 9999 NSC 10/08 Q1014=
METAR LFBI 102030Z AUTO VRB02KT 9999 NSC 08/06 Q1015=
METAR LFBL 102030Z AUTO 07004KT 9999 NSC 09/06 Q1014=
METAR LFBO 102030Z AUTO 14013KT 9999 NSC 10/07 Q1015=
METAR LFBP 102030Z AUTO VRB01KT 7000 NSC 06/05 Q1014=
METAR LFBT 102030Z AUTO 16004KT 9999 NSC 05/04 Q1014=
METAR LFBZ 102030Z AUTO 26008KT 230V290 9999 SCT008 BKN240 11/10
Q1015=
METAR LFLB 102030Z AUTO 00000KT 7000 NSC 03/02 Q1019=
METAR LFLX 102030Z AUTO 08005KT 9999 NSC 07/06 Q1015=
METAR LFML 102030Z 13004KT 9999 BKN024 13/08 Q1019 NOSIG=
METAR LFCK 102030Z NIL=

0000010600
631
SPPR00 SPIM 102033
SPECI SPZO 102033Z 05011KT 9999 FEW036TCU SCT060 BKN100 15/06 Q1025=

0000046900
632
SAFR33 LFPW 102030
METAR LFKB 102030Z 00000KT 9999 FEW020 OVC029 12/09 Q1021 NOSIG=
METAR LFKF 102030Z AUTO 08006KT 9999 NCD 11/09 Q1021=
METAR LFKJ 102030Z 05007KT 9999 BKN010 08/07 Q1020 NOSIG=
METAR LFLC 102030Z 25002KT CAVOK 04/02 Q1016 NOSIG=
METAR LFMP 102030Z AUTO 00000KT 7000 NSC 09/06 Q1018=
METAR LFMV 102030Z AUTO VRB02KT 9000 OVC024 10/07 Q1020=
METAR LFSL 102030Z AUTO 00000KT 9999 NSC 05/04 Q1014=
METAR LFKC 102030Z NIL=

00000000