0000011100
573
UANT01 CWAO 110650
ARP UAL985 5133N03738W 0650 F360 MS53 268/24 KT
N674UA DDL XXW 110650 F23A
0000011000
574
UANT01 CWAO 110650
ARP ACA888 5227N03307W 0650 F360 MS55 217/41 KT
CGLCA DDL IG1 110650 F44A
0000039400
575
SSVX08 KARS 110649
ZZYY 23004 10014 12004 100061 090182 6111/
11119 00702 10291 29068
22219 00297
33311 88872 20000 32965 20001 32930 43404 20080 32865 20100 32838
20120 31960 20180 31439 20300 31155 20500 30972
444 20110 10014 1216/ 521// 60401=
ZZYY 23004 11014 06004 100068 090187 6112/
11119 01906 10285 29080
22219 00289
444 20120 11014 0625/ 521// 60401=
0000011000
576
UANT01 CWAO 110650
ARP DAL89 5559N03951W 0650 F330 MS59 271/18 KT
N172DZ QXT AOW 110650 F53A
0000011000
577
UANT01 CWAO 110650
ARP AFL151 5936N03818W 0650 F370 MS59 241/20 KT
VQBBF QXT AME 110650 J95A
0000179000
578
SMSU01 HSSS 110600
AAXX 11064
62600 32970 00405 10135 20065 30040 40264 333 10200 20110 58035=
62640 32970 00210 10140 20030 39827 40199 333 10235 20090 58036=
62641 32970 03412 10207 20083 30156 40206 333 10272 20178 58046=
62650 32970 03508 10098 20012 39972 40258 333 10220 20073 58014=
62660 31968 03612 10123 20036 39901 40214 70700 333 10230 20080
58017=
62680 32970 53408 10130 20020 39784 40199 80004 333 10245 20115
56009 58016 85075=
62721 32970 73618 10135 20020 39720 40188 80007 333 10245 20130
56009 58002 87275=
62730 32970 73204 10160 21020 39620 40203 80004 333 10305 20135
56009 58005 87275=
62733 32970 03605 10150 20110 39620 40140 333 10310 20110 59007=
62750 32970 73606 10165 20025 39725 40165 80007 333 10260 20150
56009 58012 87275=
62752 32970 73605 10180 20000 39476 40167 80007 333 10308 20112
56009 58046 87275=
62760 32970 70403 10106 20006 39353 40206 80007 333 10255 20095
56009 58017 87275=
62762 32970 73604 10142 20034 39673 40165 80007 333 10284 20106
56009 58008 87275=
62770 31962 70513 10130 21020 39274 40202 70722 80007 333 10255
20110 56009 58007 87275=
62771 32970 73610 10130 20000 39526 40197 80007 333 10245 20118
56009 58024 87275=
62772 32970 73606 10160 20000 39746 40193 80007 333 10265 20148
56009 58024 87275=
62781 32970 73603 10145 20025 39492 40143 80007 333 10265 20095
56009 58022 87275=
6290 32970 70-514 10140 21015 39458 40207 80007 333 10262 20118
56009 58079 87275=
62795 32970 70410 10185 21030 39655 40168 82037 333 10315 20150
56019 58013 82365 87275=
62805 32970 73605 10177 20006 39603 40149 80007 333 10320 20140
56009 58001 87275=
62809 32970 70407 10262 20004 39663 40190 80007 333 10276 20154
56009 58010 87275=
//END PART 01//
0000075100
579
SAIN33 VIDP 110630
METAR VEBD 110630Z VRB01KT 2800 RABR SCT025 BKN080 16/14 Q1019 NOSIG=
METAR VEGK 110630Z VRB02KT 1500 BR SCT025 BKN090 17/15 Q1017 TEMPO
     RA=
METAR VIAG 110630Z 30004KT 3000 HZ SKC 17/12 Q1019 BECMG 4000=
METAR VIAL 110630Z 07007KT 1800 BR SCT010 SCT015 FEW025TCU BKN090
     18/18 Q1016 TEMPO TSRA=
METAR VICG 110630Z 30005KT 3500 HZ SCT090 17/08 Q1020 BECMG 5000=
METAR VIGR 110630Z 30008KT 2500 HZ SKC 17/08 Q1019 BECMG 3000=
METAR VIJU 110630Z 23003KT 5000 BR SKC 16/15 Q1019 NOSIG=
METAR VILH 110630Z VRB01KT 6000 SCT060 M02/M16 Q1026 NOSIG=
METAR VISR 110630Z 31004KT 4000 HZ SCT015 SCT040 02/M03 Q1027 BECMG
     5000=
METAR VITX 110630Z VRB02KT 6000 SCT070 M02/M16 Q1028 NOSIG=

0000152800
580
SMBW40 VGDC 110600 RRA
AAXX 11064
41858 31420 83605 10180 20120 30138 40185 70542 8452/
333 56199 58010 70000 84615 88458=
41863 31356 82702 10165 20120 30149 40194 70522 8562/
333 56699 58023 70000 83710 85618 88458=
41886 31940 00000 10225 20120 30152 40173 70544 333
58015 70000=
41895 31457 53605 10219 20130 30155 40178 70142 83530
333 56890 58003 70000 83616 84362=
41915 31950 02702 10225 20160 30141 40167 70240 333
59008 70000=
41926 31950 03302 10232 20120 30158 40500 70500 333
59003 70000=
41929 31950 03202 10236 20140 30159 40168 70540 333
59003 70000=
41933 31950 00000 10234 20110 30153 40162 70500 333
59007 70000=
41939 31950 00000 10235 20150 40176 70544 333 58001
70000=
41941 32956 03603 10237 20160 30159 40165 333 59005
70000=
41946 32956 03601 10240 20120 30155 40159 333 59007
70000=
41947 31950 00000 10245 20140 30167 40169 70544 333
58002 70000=
41953 31950 00000 10250 20140 30153 40159 70500 333
59003 70000=
41960 31950 03602 10255 20120 30166 40167 70544 333
58001 70000=
41963 31940 03601 10260 20150 30163 40166 70500 333
58004 70000=
41964 32956 03601 10266 20170 30168 40171 333 59003
70000=
41965 32959 00000 10275 20160 30149 40157 333 59002
70000=
41966 31940 00401 10234 20150 30083 40163 70540 333
59008 70000=
41984 32958 00000 10245 20130 30155 40157 333 59001
70000=
41989 32950 00000 10250 20160 30156 40159 333 59001
70000=
41998 32956 02901 10282 20180 30146 40152 333 58002
70000=
0000068500
581
UDNA02 EGRR 110652
AMDAR 1105
LVR EU0902   5145N 06855W 110539 F349 MS655 280/079 TB0 S031=
LVR EU0902   5212N 06721W 110546 F349 MS662 285/086 TB0 S031=
LVR EU0902   5237N 06546W 110553 F349 MS647 286/081 TB0 S031=
LVR EU0902   5301N 06408W 110600 F349 MS645 287/075 TB0 S031=
LVR EU0902   5323N 06230W 110607 F349 MS655 283/075 TB0 S031=
LVR EU0902   5344N 06048W 110614 F349 MS667 281/076 TB0 S031=
LVR EU0902   5404N 05905W 110621 F349 MS657 280/080 TB0 S031=
LVR EU0902   5423N 05719W 110628 F349 MS655 278/086 TB0 S031=
LVR EU0902   5439N 05529W 110635 F349 MS642 285/095 TB0 S031=
LVR EU0902   5447N 05336W 110642 F349 MS652 284/097 TB0 S031=
0000055700
582
UDEU02 EGRR 110652
AMDAR 1102
LVR EU3075   4039N 03758E 110248 F359 MS617 326/039 TB0 S031=
LVR EU3075   4059N 03655E 110255 F360 MS625 311/040 TB0 S031=
LVR EU3075   4119N 03552E 110302 F359 MS627 297/040 TB0 S031=
LVR EU3075   4137N 03449E 110309 F359 MS627 305/051 TB0 S031=
LVR EU3075   4155N 03347E 110316 F359 MS620 306/052 TB0 S031=
LVR EU3075   4212N 03243E 110323 F359 MS617 301/045 TB0 S031=
LVR EU3075   4228N 03139E 110330 F359 MS617 302/058 TB0 S031=
LVR EU3075   4244N 03035E 110337 F359 MS617 306/058 TB0 S031=
0000068900
583
UDEU02 EGRR 110652 RRA
AMDAR 1105
ASC EU0083   5424N 01113E 110544 F337 MS578 269/066 TB/ S031=
LVR EU0083   5354N 01017E 110551 F350 MS583 273/065 TB/ S031=
LVR EU0083   5322N 00921E 110558 F350 MS583 263/056 TB/ S031=
LVR EU0083   5249N 00826E 110605 F350 MS586 259/046 TB/ S031=
LVR EU0083   5216N 00732E 110612 F350 MS588 254/037 TB/ S031=
LVR EU0083   5142N 00638E 110619 F350 MS588 252/033 TB/ S031=
LVR EU0083   5107N 00545E 110626 F350 MS590 252/032 TB/ S031=
LVR EU0083   5032N 00454E 110633 F350 MS593 257/036 TB/ S031=
LVR EU0083   4956N 00403E 110640 F350 MS595 254/042 TB/ S031=
LVR EU0083   4922N 00315E 110647 F350 MS595 249/042 TB/ S031=
0000068500
584
UDAS02 EGRR 110652
AMDAR 1101
LVR EU3075   3642N 04829E 110138 F340 MS620 178/028 TB0 S031=
LVR EU3075   3703N 04725E 110145 F339 MS625 166/027 TB0 S031=
LVR EU3075   3721N 04618E 110152 F339 MS612 130/010 TB0 S031=
LVR EU3075   3739N 04512E 110159 F339 MS615 056/023 TB0 S031=
LVR EU3075   3806N 04409E 110206 F339 MS610 051/023 TB0 S031=
LVR EU3075   3833N 04307E 110213 F339 MS597 032/021 TB0 S031=
LVR EU3075   3901N 04206E 110220 F339 MS590 011/026 TB0 S031=
LVR EU3075   3928N 04105E 110227 F340 MS597 352/025 TB0 S031=
LVR EU3075   3953N 04003E 110234 F340 MS592 331/021 TB0 S031=
LVR EU3075   4018N 03902E 110241 F340 MS592 320/026 TB0 S031=
0000017000
585
SOVI10 KWAL 110651
B110070A 011065101"P9751095 B\P~W@@p0ekF1@oO???CmCn>@oQ3@QD@@f4Cv5C?6bD9JJ<BM2?????@"??? nTFpL@U@X@T@[@V@U:AMPTEMP 26.57C  46-0NN 219E
0000062100
586
UDAC02 EGRR 110653
AMDAR 1105
LVR EU5478   6811N 01650E 110543 F380 MS538 053/017 TB/ S031=
LVR EU5478   6724N 01549E 110550 F380 MS523 030/027 TB/ S031=
LVR EU5478   6637N 01453E 110557 F380 MS525 359/017 TB/ S031=
LVR EU5478   6550N 01401E 110604 F380 MS500 323/016 TB/ S031=
LVR EU5478   6503N 01316E 110611 F380 MS513 282/020 TB/ S031=
LVR EU5478   6416N 01234E 110618 F380 MS513 291/019 TB/ S031=
LVR EU5478   6329N 01155E 110625 F380 MS513 294/025 TB/ S031=
LVR EU5478   6241N 01117E 110632 F380 MS515 305/029 TB/ S031=
LVR EU5478   6153N 01048E 110639 F380 MS526 300/019 TB/ S031=
0000069300
587
UDEU02 EGRR 110653
AMDAR 1106
ASC EU0093   5212N 00441E 110634 F065 MS042 265/032 TB0 S031
333 F065 VG005=
ASC EU0093   5212N 00439E 110635 F079 MS067 276/030 TB0 S031
333 F079 VG005=
ASC EU0093   5213N 00434E 110636 F097 MS095 265/024 TB0 S031
333 F097 VG003=
ASC EU0093   5211N 00425E 110637 F116 MS132 278/028 TB0 S031
333 F116 VG003=
ASC EU0093   5210N 00419E 110637 F136 MS157 281/035 TB0 S031
333 F136 VG006=
ASC EU0093   5208N 00412E 110638 F158 MS187 264/031 TB0 S031
333 F158 VG001=
LVR EU0093   5202N 00342E 110641 F231 MS362 257/045 TB0 S031
333 F231 VG001=
LVR EU0093   5148N 00239E 110648 F240 MS380 247/050 TB0 S031
333 F240 VG001=
0000034100
588
SZIO01 AMMC 110651
CREX++
T000103 A001 D01021 D06025++
-1211670 09689190 46280 2014 01 11 06 44 3018 11 07 00 01
01273 0041 01277 0045 01275 0042 01276 0042 01268 0033 01279 0043+
-1042940 10566940 46290 2014 01 11 06 44 //// 11 07 00 01
01339 0072 01282 0013 01301 0030 01322 0049 01299 0024 01320 0043++
7777

0000191200
589
SZAU01 AMMC 110651
CREX++
T000103 A001 D01021 D06025++
-1927750 14705860 59260 2014 01 11 06 44 3030 11 07 00 01
02193 0198 02194 0194 02195 0189 02199 0189 02207 0191 02211 0190+
-2316110 15079000 59670 2014 01 11 06 44 3003 11 07 00 01
03110 0091 03106 0078 03118 0084 03123 0081 03139 0090 03144 0087+
-3447330 15091170 60420 2014 01 11 06 44 2963 11 07 00 01
01083 -0018 01087 -0014 01095 -0007 01099 -0004 01103 0000 01098 -0005+
-4105000 14591500 60910 2014 01 11 06 44 2890 11 07 00 01
01782 -0026 01788 -0030 01797 -0030 01793 -0046 01803 -0046 01818 -0041+
-4254640 14793080 61170 2014 01 11 06 44 2895 11 07 00 01
01292 0074 01300 0081 01298 0078 01296 0076 01297 0076 01295 0074+
-3834390 14161360 61410 2014 01 11 06 44 2905 11 07 00 01
00456 0023 00471 0037 00492 0057 00474 0038 00488 0051 00475 0036+
-3214890 13364170 62000 2014 01 11 06 44 2963 11 07 00 01
01202 0171 01202 0169 01202 0167 01199 0161 01198 0158 01199 0157+
-3387080 12189720 62080 2014 01 11 06 44 2945 11 07 00 01
00802 0084 00820 0102 00794 0075 00792 0072 00791 0071 00802 0081+
-3182560 11573860 62237 2014 01 11 06 44 2972 11 07 00 01
00868 0060 00866 0057 00871 0061 00867 0056 00873 0061 00872 0059+
-2422000 11339750 62385 2014 01 11 06 44 //// 11 07 00 01
01174 -0110 01166 -0120 01176 -0111 01223 -0066 01189 -0102 01247 -0046+
-2181670 11419110 62430 2014 01 11 06 44 //// 11 07 00 01
01795 -0039 01806 -0031 01802 -0037 01809 -0033 01812 -0032 01805 -0042+
-1800080 12221830 62650 2014 01 11 06 44 3043 11 07 00 01
05453 0099 05461 0098 05469 0095 05475 0094 05482 0092 05488 0087+
-1247190 13084580 63230 2014 01 11 06 44 3050 11 07 00 01
05523 0222 05521 0222 05519 0225 05516 0226 05515 0228 05513 0233+
-1386000 13641580 63511 2014 01 11 06 44 3045 11 07 00 01
01610 0103 01613 0104 01613 0103 01614 0102 01615 0102 01613 0098++
7777

0000046700
590
SZPA01 AMMC 110651
CREX++
T000103 A001 D01021 D06025++
0136250 17293000 67590 2014 01 11 06 44 3017 11 07 00 01
01468 0060 01462 0058 01461 0059 01467 0068 01471 0075 01462 0069+
0710610 17137250 67680 2014 01 11 06 44 3013 11 07 00 01
00918 0118 00919 0120 00910 0114 00908 0114 00907 0114 00899 0108+
0698060 15820000 67950 2014 01 11 06 44 3023 11 07 00 01
00693 0009 00693 0011 00692 0012 00690 0012 00691 0014 00690 0015++
7777

0000179200
591
SZPS01 AMMC 110651
CREX++
T000103 A001 D01021 D06025++
-0204190 14737360 56130 2014 01 11 06 44 3028 11 07 00 01
01049 0075 01049 0077 01049 0079 01040 0071 01043 0076 01045 0080+
-0669280 15640860 56363 2014 01 11 06 44 //// 11 07 00 01
00635 -0059 00629 -0063 00623 -0067 00621 -0067 00617 -0068 00609 -0074+
-0942890 15995560 56670 2014 01 11 06 44 3043 11 07 00 01
00794 -0039 00797 -0035 00797 -0034 00791 -0038 00791 -0037 00794 -0033+
-1072080 16580190 57131 2014 01 11 06 44 //// 11 07 00 01
03380 2800 03380 2804 03380 2807 03380 2810 03380 2813 03380 2816+
-1551560 16718860 57210 2014 01 11 06 44 //// 11 07 00 01
00764 -0090 00759 -0091 00760 -0087 00762 -0080 00750 -0089 00758 -0077+
-1775690 16830030 57320 2014 01 11 06 44 3015 11 07 00 01
00881 -0064 00877 -0065 00873 -0065 00870 -0065 00865 -0067 00861 -0067+
-4397330 16861610 65180 2014 01 11 06 44 2888 11 07 00 01
02271 0357 02280 0362 02290 0369 02281 0357 02280 0353 02291 0361+
-2120470 -15978530 65980 2014 01 11 06 44 3013 11 07 00 01
00610 -0003 00597 -0014 00591 -0018 00652 0045 00625 0019 00600 -0004+
-2113810 -17518140 66600 2014 01 11 06 44 //// 11 07 00 01
01031 0087 01010 0071 01020 0085 01010 0078 01012 0085 01012 0089+
-1382670 -17176110 66840 2014 01 11 06 44 3010 11 07 00 01
00633 0037 00617 0024 00615 0024 00627 0039 00615 0030 00613 0030+
-1813250 17842750 67050 2014 01 11 06 44 3032 11 07 00 01
01216 0105 01217 0111 01213 0112 01198 0101 01193 0101 01201 0114+
-1760530 17743810 67070 2014 01 11 06 44 3033 11 07 00 01
01206 0006 01201 0006 01194 0005 01188 0004 01182 0004 ///// ////+
-0850250 17919500 67440 2014 01 11 06 44 3030 11 07 00 01
01797 0004 01792 0003 01788 0002 01791 0009 01777 -0001 01782 0007++
7777

0000042800
592
SMAA01 LIIB 110600
AAXX 11064
89625 46/// /1505 11262 29074 36529 4//// 5//// 90600=
89646 46/// /1005 11154 29078 37664 4//// 5////=
89648 46/// /1704 11202 29070 37233 4//// 5////=
89659 46/// /2807 11167 29068 37748 4//// 5////=
89661 46/// /2104 11037 29082 39346 4//// 5////=
89662 42584 20904 10012 21066 39883 49995 57003 82170 222 ICE 17680=
89666 46/// /1405 11014 29060 39808 4//// 5////=
00000000