0000009400
113
SMST01 EGRR 110600 RRA
AAXX 11064
88883 46/// /2013 10044 20025 40071 52013=
0000013700
114
SMPO01 LPMG 110600 RRA
AAXX 11061
08560 32/// /36// 10065 20062 39409 40173 52003
333  20065 30003 5//// 55057 20787=
0000017600
115
SMIY01 LIIB 110600 CCA
AAXX 11064
16325 11995 50000 10082 20082 30204 40219 53004 60002 71011 85020 333
      20078 31/// 55/// 2//// 85459 98020 555 0100/=
0000036400
116
SXXX32 EUMS 110612
22E595B6
:PRS 1 /1 M 3540 3594 3599 3576 3565 3559 3560 3578 3556 3532 3564 3529 3554 3527 3518 3544 3538 3545 3506 3507 3532 3556 3526 3505 3501 3504 3466 3464 3452 :RAD 1 /3 6751 6739 6729 6718 6706 6695 6685 6667 6649 6640 :ENC 2 /5 4878 4857 4839 4829 4813 4774 :SW1 12 /60 59 :SW2 42 /60 60 :BAT 14 /15 13.8 :NAME 22E595B6
0000044600
117
SXXX32 EUMS 110613
32BD7124
:PRS 1 /1 2159 2158 2158 2156 2151 2150 2147 2146 2148 2148 2145 2142 2134 2132 2128 2126 2128 2131 2136 2131 2121 2116 2113 2109 2105 2101 2096 2092 2088 2085 :RAD 3 /3 7941 7935 7928 7924 7918 7915 7903 7894 7882 7873 7867 7862 7857 7857 7855 7853 7845 7832 7828 7814 :ENC 3 /5 4936 4927 4915 4910 4891 4871 4864 4856 4852 4849 4831 4816 :SW1 14 /60 0 :SW2 44 /60 60 :BAT 14 /15 13.4 :NAME 32BD7124
0000069900
118
SXXX32 EUMS 110613 RRA
223412A2
OT12 ID:IND-SADENG DT:2014 01 11 06 12
:PRS /1 01688 01721 01693 01730 01704 01743 01680 01756 01720 01655 01739 01723 01727 01785 01764 01731 01764 01774 01785 01761 01735 01719 01824 01777 01794 01771 01810 01812 ///// /////
:ENC /1 -13246 -13203 -13239 -13223 -13216 -13173 -13239 -13198 -13209 -13239 -13196 -13203 -13186 -13143 -13186 -13193 -13179 -13123 -13149 -13149 -13179 -13178 -13113 -13143 -13139 -13143 -13116 -13106 ///// /////
:RAD /1 11435 11467 11442 11416 11420 11508 11428 11470 11452 11440 11420 11463 11478 11529 11501 11469 11416 11522 11516 11544 11499 11513 11567 11549 11498 11513 11520 11532 ///// /////
:BAT 12.6V
0000012800
119
SNVD20 KWNB 111000 RRI
BBXX
44058 11101 99376 70763 46/// /1807 10097 40150 91010 333 91208
555 11079 22085=
0000059800
120
SICI01 KWBC 110900 RRI
AAXX 11091
58968 32575 21102 10210 20124 30206 40214 53005 82500=
58974 32581 61406 10196 20136 30107 40231 55001 86400=
59158 31956 03403 10183 20143 30112 40214 55001 71000=
59358 31950 30304 10202 20148 30183 40215 54000 70500 83030=
59559 32567 50404 10207 20150 30191 40220 55003 85100=
59562 11565 80202 10186 20161 30221 40233 53001 6995/ 70362 885//=
59567 11560 70104 10177 20133 39841 40224 55001 6995/ 70262 875//=
59792 12460 60607 10221 20193 30189 40194 55002 6991/ 84470=
59997 32460 50506 10284 20237 30113 40121 57009 83208=
0000032700
121
SNMK01 KWBC 111000
AAXX 11101
13363 41658 42002 10034 20030 39323 48533 50003 71042 82530=
13459 42670 72502 10066 20066 39482 40243 58002 83830 333 83646
86399=
13461 42670 71602 10159 20106 30236 40243 50003 87800 333 82840
86650 92312 92428=
13463 42665 61801 10114 20064 30185 40245 53003 83870=
0000043100
122
SNVD01 PANC 111000 RRC
BBXX
PHSG 11104 99063 71333
41/98 71124 10250 20235 40090 57010 70292 87///
22214 00250 20203 323// 40306 80240=
C6TX6 11104 99231 70868
41298 51614 10260 20223 40160 54/// 7//11 854//
22285 00300 2//// 3//// 4//// 5//// 6//// 80234 ICE /////=
C6WK7 11104 99379 10236
41898 21803 10169 2//// 40230 54/// 7//22 82//7
22200 00170 2//// 3//// 4//// 5//// 6//// 8//// ICE /////=
0000063100
123
SNVD01 KWBC 110800 RRU
BBXX
42047 11081 99279 70936 46/// /2107 1//// 40125 90800 22200 00215
 333 91209 555 11084 22091=
42047 11081 99279 70936 46/// /2206 1//// 40130 90830 22200 00215
 333 91208 555 11070 22077=
42046 11081 99279 70940 46/// /2207 10206 40132 90800 22200 00215
 333 91208 555 11078 22085=
42046 11081 99279 70940 46/// /2206 10206 40130 90830 22200 00215
 333 91208 555 11074 22080=
42044 11081 99262 70971 46/// /2402 1//// 40131 90800 22200 00142
 333 91203 555 11025 22028=
42044 11081 99262 70971 46/// /2102 1//// 40126 90830 22200 00141
 333 91203 555 11027 22030=
0000101700
124
SIVD30 KWBC 110900 RRP
BBXX
42085 11091 99179 70665 46/// /0405 10245 40161 90900 22200 00266
 10703 70013 333 91206 555 11052 22057=
42047 11091 99279 70936 46/// /2106 1//// 40130 52008 90900 22200
 00215 333 91207 555 11070 22076=
42047 11091 99279 70936 46/// /2306 1//// 40132 90930 22200 00215
 333 91207 555 11067 22073=
42044 11091 99262 70971 46/// /2002 1//// 40132 52008 90900 22200
 00141 333 91202 555 11020 22022=
42044 11091 99262 70971 46/// /2202 1//// 40135 90930 22200 00140
 333 91203 555 11028 22030=
42046 11091 99279 70940 46/// /2305 10205 40133 90930 22200 00215
 333 91206 555 11056 22060=
42046 11091 99279 70940 46/// /2306 10205 40131 52003 90900 22200
 00215 333 91207 555 11069 22075=
41051 11091 99183 70650 46/// /0706 10254 90930 333 91208 555
 11066 22072=
41051 11091 99183 70650 46/// /0706 10254 90920 333 91207 555
 11067 22073=
41051 11091 99183 70650 46/// /0706 10255 90900 22200 10502 70012
 333 91207 555 11065 22070=
0000014400
125
SNVA01 KWBC 111000 RRA
BBXX
LGWS 11101 99229 30145 43/// /2903 10195 20183 40127 5//// 222/0
 04172 1//// 3//// 4//// 5////=
0000015100
126
SIVF30 KWBC 110900 RRI
BBXX
OZCX2 11094 99363 10221 41598 43016 10170 20115 40250 54000 70300
 84145 22223 06160 20502 30000 80140=
0000369300
127
SNVD01 KWBC 111000 RRG
BBXX
46207 11101 99509 71299 46/// /2107 10081 49828 57003 22200 00078
 11008 70039 333 91210=
41002 11101 99319 70748 46/// ///// 10230 40204 58015 90950 22200
 00240 10804 70022=
41056 11101 99183 70655 46/// /0606 10253 40165 90950 333 91207
 555 11065 22070=
41056 11101 99183 70655 46/// /0606 10253 40166 55000 91000 22200
 00266 10703 70014 333 91207 555 11068 22074=
41056 11101 99183 70655 46/// /0606 10252 40164 90940 333 91207
 555 11064 22069=
41300 11104 99159 70575 46/// /0717 10251 20198 40158 52008 22200
 00261 10906 70028=
46126 11101 99540 71666 46/// /2301 10040 49811 90948 22200 00046
 1//00 70001 333 91202 555 11007 22007=
46126 11101 99540 71666 46/// /2301 10040 49811 90950 22200 00046
 1//00 70001 333 91202 555 11007 22007=
46126 11101 99540 71666 46/// /2003 10040 49811 90954 22200 00046
 1//00 70001 333 91204 555 11030 22033=
42085 11101 99179 70665 46/// /0606 10248 40163 54000 91000 22200
 00266 10703 70013 333 91208 555 11070 22076=
42085 11101 99179 70665 46/// /0606 10248 40163 90950 333 91208
 555 11071 22078=
42085 11101 99179 70665 46/// /0606 10247 40162 90940 333 91207
 555 11065 22070=
44150 11101 99425 70640 46/// /2003 1//// 40281 57014 22200 00042
 10602 70010 333 91204=
44139 11101 99442 70571 46/// /2309 10015 40286 57001 22200 00016
 10904 70019 333 91210=
J8NY 11103 99227 70841 41797 71419 10240 20211 40165 5//// 70322
 86263 22253 0//// 20304 31314 40304 50304 6//// 80220 ICE /////=
41051 11101 99183 70650 46/// /0707 10251 90950 333 91209 555
 11078 22085=
41051 11101 99183 70650 46/// /0706 10255 90940 333 91209 555
 11069 22075=
C6TX6 11104 99231 70868 41298 51614 10260 20223 40160 54/// 7//11
 854// 22285 00300 2//// 3//// 4//// 5//// 6//// 80234 ICE /////=
44097 11101 99410 70711 46/// ///// 1//// 90955 22200 00068 10502
 20502 70009=
44056 11101 99362 70757 46/// ///// 1//// 90953 22200 00088 10703
 20703 70014=
44042 11101 99380 70763 46/// /1707 10101 40140 55028 91000 22200
 00039 10201 70003 333 91209 555 11083 22090=
46053 11101 99343 71199 46/// /0902 10146 40200 52005 90950 22200
 00149 11403 20301 330// 41403 70015 333 91203 555 11018 22018
 30938 40703 60949 089017 071016 039011 043010 064010 042009=
44041 11101 99372 70768 46/// /1304 10140 91000 22200 00038 1//00
 70000 333 91204 555 11042 22045=
46077 11101 99579 71543 46/// /0301 10009 49920 57016 90950 22200
 00041 11001 20301 3//// 41001 70007 333 91202 555 11006 22006
 30850 43602 60949 029006 048003 020006 021007 350011 345011 83502
 90851=
44063 11101 99390 70764 46/// /0000 10023 40135 58036 91000 22200
 00014 1//00 70000 333 91201 555 11006 22006=
41046 11101 99238 70683 46/// /0908 10249 20193 40218 54000 90950
 22200 00259 10705 20704 3//// 40803 70026 333 91210 555 11089
 22094 30917 40912 60949 093084 092089 089096 089092 088087 085087
 80911 90918=
44064 11101 99370 70760 46/// /1405 10109 40156 56027 91000 22200
 00070 10301 70004 333 91205 555 11052 22057=
42060 11101 99163 70632 46/// /0709 10259 40159 52004 90950 22200
 00267 10604 20603 307// 41002 70018 333 91211 555 11100 22106
 30911 40812 60949 067093 068092 077095 076095 072097 067097 80710
 90900=
44062 11101 99386 70764 46/// /0102 10030 40150 56036 91000 22200
 00030 1//00 70000 333 91202 555 11022 22024=
WECB 11104 99327 71172 43/// /2702 10131 20110 40208 5//// 7////
 8//// 222// 04148 2//// 3//// 4//// 5//// 6//// 8//// ICE /////=
WSQ2674 11104 99327 71172 43/// /2602 10117 2//// 40200 5////
 7//// 8//// 222// 04152 2//// 3//// 4//// 5//// 6//// 8//// ICE
 /////=
0000017900
128
SNVD01 KWBC 111000 RRH
BBXX
C6FT7 11104 99237 70855 41698 41508 10261 2//// 40161 5//// 70211
 8488/ 22283 00280 2//// 3//// 4//// 5//// 6//// 8//// ICE /////=
0000017300
129
SNVD80 KWBC 111000 RRA
BBXX
WUR8857 11104 99436 70876 43/// /2312 10017 49957 2221/ 00002=
WYP8657 11104 99458 70846 43/// /1510 10020 49954 2227/ 00001=
0000017800
130
SNVE01 KWBC 111000 RRA
BBXX
KAOU 11104 99055 31061 43/// /2914 10268 20241 40089 5//// 7////
 8//// 222// 04304 2//// 3//// 4//// 5//// 6//// 8//// ICE /////=
0000029100
131
SNVD11 KWBC 111000 RRA
BBXX
PHSG 11104 99063 71333 41/98 71124 10250 20235 40090 57010 70292
 87/// 22214 00250 20203 323// 40306 80240=
KAQP 11104 99098 71043 43/// /0611 10265 20214 40096 5//// 7////
 8//// 222// 04270 2//// 3//// 4//// 5//// 6//// 8//// ICE /////=
0000076300
132
SNVF01 KWBC 111000 RRB
BBXX
C6WK7 11104 99379 10236 41898 21803 10169 2//// 40230 54/// 7//22
 82//7 22200 00170 2//// 3//// 4//// 5//// 6//// 8//// ICE /////=
62023 11103 99514 70079 46/97 /10// 10094 2//// 4//// 5//// 22200
 10804 70022 555 70032 81005=
LMEL 11101 99603 10053 43/// /1401 10049 20037 49972 5//// 222/0
 04077 1//// 3//// 4//// 5////=
LJIT 11101 99585 10046 43/// /2817 10049 20012 40016 5//// 222/0
 04071 1//// 3//// 4//// 5////=
LF4H 11104 99596 10022 46/// /3122 10057 20019 40001 52014 8////
 91002 22200 06077 10606 70031=
LDGJ 11101 99603 10053 43/// /1501 10051 20022 49974 5//// 222/0
 04078 1//// 3//// 4//// 5////=
BATUK01 11104 99578 70062 43/// /2715 10057 21003 40097 53021
 22242 04094=
00000000