0000009300
606
SAYE20 OYSN 110700
METAR OYSN 110700Z 17005KT 9999 FEW030 SCT180 19/01 Q1027=
0000009200
607
SAPK31 OPPS 110655
METAR OPPS 110700Z SW-04KT 5000 HZ FEW200 16/M03 Q1022.5=
0000009700
608
SAPK31 OPST 110655
METAR OPST 110700Z 31004KT 4000 HZ NSC 15/04 Q1020 NOSIG RH48=
0000009300
609
SAYE20 OYGD 110700
METAR OYGD 110700Z 09020KT 9999 SCT025 BKN060 25/18 Q1017=
0000012600
610
SNVA01 KWBC 111000 RRB
BBXX
DBBH 11101 99178 30117 41/97 /1708 10187 20161 40151 51007 7////
 22281 04177=
0000015900
611
SNVE01 KWBC 111000 RRB
BBXX
TBWUK15 11104 99189 30733 41298 70439 10272 20272 40094 57013
 70222 84762 22263 04270 20805 314// 41005 80272=
0000037900
612
SNVB01 KWBC 111000 RRB
BBXX
JPBN 11104 99251 11292 46/// /0715 10179 20100 40253 53012 8////
 22271 00237 1//04 70018=
JGQH 11104 99307 11370 46/// /3016 10128 20029 40273 53016 8////
 22241 00191 1//05 70025=
9V7962 11104 99482 11588 41798 40120 00/// 11002 2102/ 49960 54000
 70222 84400 22214 01010 20804 32726 40704 50603 64001 81010 ICE
 /////=
0000364900
613
SNVD01 KWBC 111000 RRI
BBXX
46204 11101 99514 71288 46/// /2208 10080 49837 52006 22200 0////
 10806 70030 333 91209=
46131 11101 99499 71250 46/// /1713 10086 49868 57055 22200 00079
 10604 70020 333 91215=
46145 11101 99544 71324 46/// /0511 10029 49784 57017 22200 00068
 10604 70022 333 91213=
C6PT7 11104 99258 70777 41597 21312 10240 20211 40190 53010 70121
 828// 22234 00250 20202 3//// 40404 5//// 6//// 80220 ICE /////=
46147 11101 99518 71312 46/// /2409 10074 49799 52005 22200 00079
 11007 70035 333 91214=
44039 11101 99411 70727 46/// /1604 10057 20056 91000 333 91204
 555 11046 22057=
41029 11101 99328 70796 46/// /2201 1//// 40166 57013 91000 333
 91202 555 11015 22016=
46211 11101 99469 71242 46/// ///// 1//// 91013 22200 00084 11011
 21009 323// 41105 70053=
44060 11101 99413 70721 46/// /1503 10062 20060 40203 91000 22200
 00042 333 91204 555 11041 22046=
44099 11101 99369 70757 46/// ///// 1//// 91018 22200 00065 10502
 20502 70010=
44022 11101 99409 70737 46/// /0304 10024 20021 91000 333 91205
 555 11046 22046=
46215 11101 99352 71209 46/// ///// 1//// 91005 22200 00128 11304
 21003 327// 41303 70021=
46219 11101 99332 71199 46/// ///// 1//// 91010 22200 00142 11305
 20903 329// 41304 70026=
44095 11101 99358 70753 46/// ///// 1//// 91017 22200 00133 10805
 20805 314// 41101 70026=
44100 11101 99363 70756 46/// ///// 1//// 91004 22200 00088 10704
 20704 312// 41101 70021=
41115 11101 99184 70673 46/// ///// 1//// 91011 22200 10902 20902
 301// 41101 70010=
41113 11101 99284 70805 46/// ///// 1//// 91010 22200 00179 10802
 20802 70011=
46114 11101 99367 71223 46/// ///// 1//// 91008 22200 00125 11406
 21003 330// 41405 70029=
51206 11101 99198 71550 46/// ///// 1//// 91003 22200 00248 11005
 21004 309// 41103 70025=
46222 11101 99336 71183 46/// ///// 1//// 90933 22200 00157 11402
 21001 328// 41401 70009=
46216 11101 99343 71198 46/// ///// 1//// 90942 22200 00150 11402
 21002 327// 41402 70012=
46213 11101 99403 71247 46/// ///// 1//// 90954 22200 00118 11408
 21003 330// 41407 70039=
46223 11101 99335 71178 46/// ///// 1//// 90948 22200 00156 11401
 21001 328// 41401 70006=
46225 11101 99329 71174 46/// ///// 1//// 90942 22200 00154 11302
 20702 329// 41302 70011=
46217 11101 99342 71194 46/// ///// 1//// 91009 22200 00153 11303
 21002 328// 41302 70013=
44098 11101 99428 70702 46/// ///// 1//// 90951 22200 00058 10501
 20501 70006=
46251 11101 99338 71196 46/// ///// 1//// 91009 22200 00155 11303
 21002 328// 41302 70013=
44096 11101 99370 70758 46/// ///// 1//// 91017 22200 00070 10402
 20402 311// 41001 70010=
41053 11101 99185 70661 46/// /1104 10243 40168 90950 333 91205
 555 11048 22052=
41053 11101 99185 70661 46/// /1104 10244 40167 90940 333 91205
 555 11046 22050=
41053 11101 99185 70661 46/// /1304 10245 40168 91000 22200 00266
 10704 70019 333 91205 555 11046 22050=
41052 11101 99183 70648 46/// /0707 10241 40163 90940 333 91211
 555 11075 22081=
41052 11101 99183 70648 46/// /0606 10249 40164 90950 333 91208
 555 11071 22078=
41052 11101 99183 70648 46/// /0807 10255 40166 53005 91000 22200
 00266 10603 70015 333 91208 555 11076 22082=
44064 11101 99370 70760 46/// /1405 10107 40153 91010 333 91205
 555 11053 22058=
44058 11101 99376 70763 46/// /1807 10097 40150 91010 333 91208
 555 11079 22085=
46126 11101 99540 71666 46/// /2105 10048 49808 56009 91000 22200
 00045 1//00 70001 333 91207 555 11049 22053=
44063 11101 99390 70764 46/// /0000 10023 40134 91010 333 91201
 555 11001 22001=
0000013600
614
SMRS40 RUMS 110000 CCA
AAXX 11001
26531 /1470 82906 10033 20020 39897 49973 52037 72586 885// 333 86714
91011 91114=
0000368100
615
SNVF01 KWBC 111000 RRC
BBXX
DBFH 11101 99539 10087 46/// /2207 10054 20048 40098 57004 22220
 00060=
DBJM 11101 99542 10079 46/// /2115 10061 40073 57013 22272 00075=
DBEA 11101 99540 10082 46/// /2215 10058 20053 40086 57004 22210
 00066=
DBFR 11101 99521 10039 46/// /2212 10069 20063 40130 57002 22213
 00082=
DBKV 11101 99543 10102 46/// /2304 10060 20052 40088 57005 22230
 00063=
DBBU 11101 99545 10136 46/// /2505 10057 20052 40095 52004 22241
 00066=
MINUK03 1110/ 99525 10046 46/// ///// 10063 40114 57006=
62107 11104 99501 70061 46/// /0104 10094 20032 40213 51021 22200
 00104 11005 70023=
62301 11104 99524 70047 46/// /3013 10070 20019 40199 53032 22200
 00096 10503 70016=
62170 11104 99514 10020 46/98 /2727 10085 20051 40163 53022 22200
 00104 10501 70006 333 90710 91133=
OXVE2 11104 99365 70085 41598 30308 10160 20143 40179 52020 70100
 83400 22263 00170 20401 309// 40502 80150=
62303 11104 99516 70051 46/// /3313 10079 20018 40207 22200 10603
 70017=
64046 11104 99605 70042 46/// /2823 10068 20021 40015 333 90710
 91130=
62095 11104 99529 70156 46/// /1619 10094 20029 40129 58004 22200
 00097 11007 70033=
62050 11104 99500 70044 46/// /3610 10093 20045 40213 22200 10502
 70011=
62304 11104 99512 10018 46/// /2927 10081 20049 40167 22200 00102
 333 90710 91134=
62304 11104 99512 10018 46/98 /2927 10081 20049 40167 53026 22200
 00102 10501 70004 333 90710 91134=
62103 11104 99499 70029 46/99 /3312 10087 20039 40213 52034 22200
 00111 10802 70011=
62305 11104 99504 70000 46/// /3117 10088 20044 40191 52038 22200
 00109 10502 70009 333 90710 91127=
AMOUK33 1110/ 99555 10084 46/// ///// 10066 20060 40045=
AMOUK09 1110/ 99516 10018 46/// ///// 10078 20077 40164=
AMOUK26 1110/ 99498 70032 46/// ///// 10088 20043 40205=
AMOUK34 1110/ 99511 10017 46/// ///// 10087 20050 40157=
AMOUK32 1110/ 99559 70047 46/// ///// 10039 20014 40139=
AMOUK42 1110/ 99506 70025 46/// ///// 10082 20044 40206=
AMOUK16 1110/ 99522 70060 46/// ///// 10057 20042 40200=
AMOUK11 1110/ 99534 70055 46/// ///// 10047 20023=
AMOUK45 11104 99509 70014 46/// /3206 10057 20030 40187 22200
 401870105=
AMOUK14 1110/ 99533 70060 46/// ///// 10044 20012 40179=
AMOUK44 1110/ 99547 70056 46/// ///// 1//// 2//// 40170=
AMOUK28 1110/ 99576 70064 46/// ///// 1//// 2//// 40093=
AMOUK03 1110/ 99537 70003 46/// ///// 10073 20039 40147=
AMOUK13 1110/ 99512 10014 46/// ///// 10078 20044 40169=
AMOUK43 1110/ 99539 70032 46/// ///// 10051 20027 40164=
AMOUK04 1110/ 99534 70060 46/// ///// 10053 20018 40184=
AMOUK23 1110/ 99576 70016 46/// ///// 10032 21004 40078=
AMOUK29 1110/ 99507 70078 46/// ///// 1//// 2//// 40204=
AMOUK02 1110/ 99535 70031 46/// ///// 10056 20029 40165=
AMOUK05 1110/ 99519 10041 46/// ///// 10055 2//// 40135=
AMOUK06 1110/ 99512 10015 46/// ///// 10092 20089 40171=
62120 11104 99564 10021 47598 /2919 10061 20005 40075 52014 700//
 22200=
62154 11104 99564 10022 46/// /2916 10062 21001 40074 52015 22200=
62152 11104 99570 10018 47598 /2915 10065 20002 40074 52013 700//
 22200 10505 70024=
62119 11104 99570 10019 47598 /2922 10069 21001 40073 52013 700//
 22200 10605 70023=
62133 11104 99571 10009 46/// /3020 40070 52014 22200 10504 70022=
62143 11104 99577 10018 47497 /3014 10055 20011 40064 52010 700//
 22200 10606 70028=
62164 11104 99572 10008 47598 /2821 10081 20019 40070 53014 700//
 22200 00084 10605 70024=
62155 11104 99577 10007 47598 /2925 10060 20019 40065 52013 762//
 22200 10605 70027=
62118 11104 99577 10009 47598 /2824 10062 20014 40054 52013 700//
 22200 10606 70028=
0000375000
616
SNVF01 KWBC 111000 RRD
BBXX
62116 11104 99576 10011 47598 /2823 10059 20013 40054 52009 700//
 22200 10605 70027=
62153 11104 99573 10020 47598 /2709 40059 52010 700// 22200 10605
 70025=
62104 11104 99574 10013 47598 /2821 10066 20008 40060 52012 700//
 22200=
62122 11104 99573 10016 47598 /2921 10062 21001 40064 52012 700//
 22200 10605 70024=
62146 11104 99572 10021 47998 /2303 10059 20003 40067 52011 700//
 22200 10605 70025=
62140 11104 99573 10013 46/// ///21 10058 20006 40065 52012 22200=
62132 11104 99564 10020 46/// /3019 10065 21000 40088 52019 22200=
MWYG6 11104 99603 70040 47598 /2723 40026 52019 700// 22200=
62123 11104 99563 10022 47598 /2921 10066 20005 40077 52014 700//
 22200 1//05 70023=
62165 11104 99540 10011 47598 /2915 10067 20017 40142 52032 700//
 22200 10503 70016=
62131 11104 99539 10012 46/// /3116 10068 20020 40136 52032 22200=
62127 11104 99540 10007 47999 ///// 10062 20006 40139 52030 700//
 22200 10503 70016=
62149 11104 99537 10011 47998 /2915 10082 20025 40144 52037 700//
 22200 10503 70013=
62150 11104 99536 10007 47998 /2716 10066 20018 40155 52033 700//
 22200 10603 70013=
62148 11104 99536 10015 46/// ///// 22200=
62121 11104 99535 10027 46/// ///// 10072 20032 40123 52032 22200=
62144 11104 99534 10017 47598 /2917 10066 20017 40145 52043 700//
 22200 10503 70013=
62142 11104 99530 10021 47997 /3120 10069 20052 40136 52034 700//
 22200 10403 70013=
62145 11104 99531 10028 47497 /3120 10067 20041 40140 53040 700//
 22200 10504 70018=
63101 11104 99612 10009 46/// /0707 10025 21000 49995 52018 22200
 10706 70029=
63103 11104 99612 10011 46/// ///// 10026 20004 49985 52016 22200
 10806 70030=
64041 11104 99607 70026 47598 /2824 40006 53012 700// 22200 10908
 70040=
63112 11104 99611 10010 47498 /0908 10035 20010 49989 52021 700//
 22200 10706 70028=
63113 11104 99610 10017 46/// /0609 10042 20005 49989 52016 22200
 10706 70031=
63107 11104 99611 10017 46/// /0709 10038 49989 52013 22200=
63106 11104 99610 10017 46/// /0610 10028 52014 22200=
63105 11104 99610 10017 47499 /0707 10041 21019 49992 52014 700//
 22200=
63108 11104 99608 10017 47/99 /0710 10030 20005 49984 53017 700//
 22200 10706 70028=
62112 11104 99584 70002 47598 /2813 10071 20023 40049 53012 700//
 22200=
63055 11104 99606 10016 47598 /0808 10046 20012 49987 53014 762//
 22200 10706 70030=
PJAI 11104 99581 70014 47598 /2820 10058 20001 40064 52021 700//
 22200=
63117 11104 99613 10011 47498 /0909 49997 52016 700// 22200=
62111 11104 99580 70003 46/// /2926 10057 20009 40076 52016 22200
 10605 70027=
63104 11104 99612 10016 47498 /0710 10025 21008 49992 53011 700//
 22200 10706 70029=
62102 11104 99579 10018 47598 /2822 10067 20010 40044 53011 700//
 22200 10605 70027=
63114 11104 99613 10017 47499 /0608 10014 21023 49991 53009 700//
 22200=
62134 11104 99580 10014 46/// /2923 10059 20016 40048 52011 22200
 10606 70029=
62114 11104 99583 10000 46/// /2825 10059 20021 40046 53014 22200=
62113 11104 99584 10002 47598 /2826 10058 20012 40052 53012 700//
 22200=
ZQSD5 11104 99583 10008 47598 ///// 10066 20028 40038 52014 700//
 22200 1//07 70035=
62128 11104 99587 10014 47498 /2924 10048 20020 40038 53015 700//
 22200 10607 70033=
63057 11104 99592 10015 47598 /3022 10059 20012 40013 53013 700//
 22200 10706 70031=
62129 11104 99584 10003 46/// /2723 10059 20012 40046 53014 22200=
62001 11104 99452 70050 46/// /0607 10120 20071 40215 53027 22200
 00128 10803 70016=
62105 11104 99550 70132 46/// /2508 10077 21011 40143 53014 22200
 00107 10808 70040=
MQSY9 11104 99593 10015 47498 /2921 10062 20016 53012 700// 22200=
0000083800
617
SNVF01 KWBC 111000 RRE
BBXX
63110 11104 99595 10015 47598 /2920 10057 20020 40013 53014 700//
 22200 10606 70031=
63109 11104 99596 10015 46/// /3023 10057 20020 40002 53013 22200=
63056 11104 99597 10016 47498 /2921 10051 20012 40002 53015 771//
 22200 10606 70031=
63115 11104 99616 10013 47498 /0508 10026 21012 49993 53008 700//
 22200 10806 70030=
62117 11104 99579 10000 47598 /2723 10058 20006 40047 53005 700//
 22200 10605 70023=
62163 11104 99475 70084 46/// /0818 10105 20071 40195 52013 22200
 00121 10806 70031 333 90710 91125=
64045 11104 99591 70117 46/// /2917 10062 20001 40081 51024 22200
 00096 10909 70045 333 90710 91126=
MINUK05 1110/ 99602 70011 46/// ///// 10058 40012 52018=
LF4B 11104 99606 10037 47/98 /0212 10024 49989 52014 700// 91010
 22200 00037 10804 70022=
0000011800
618
SNAU44 AMMC 111000 CCB
AAXX 11104
94658 15/// /1511 10186 20135 30178 40212 53017 60001 91030=


0000011800
619
SNAU44 AMMC 111000 CCC
AAXX 11104
94684 15/// /1716 10315 20051 39808 40149 53023 60001 91030=


0000011800
620
SNAU45 AMMC 111000 CCA
AAXX 11104
94809 15/// /1720 10178 20143 30201 40209 53013 60001 91030=


0000011800
621
SNAU45 AMMC 111000 CCB
AAXX 11104
95806 15/// /1517 10178 20141 30161 40213 53013 60001 91030=


0000011800
622
SNAU45 AMMC 111000 CCC
AAXX 11104
94822 15/// /1617 10171 20151 30153 40219 51009 60001 91030=


0000010000
623
SNAU45 AMMC 111000 CCD
AAXX 11104
94807 15/// /1614 10159 20136 60001 91030=


0000011800
624
SNAU44 AMMC 111000 CCD
AAXX 11104
94681 15/// /1807 10192 20083 39870 40188 53021 60001 91030=


0000010000
625
SNAU45 AMMC 111000 CCE
AAXX 11104
95678 15/// /1110 10123 20105 60001 91030=


00000000