0000009600
926
UAJP71 RJFK 110705
PIREP
PPSN OVR MOMPA AT 0703 F350 CLR AND SMTH COND BY B735
0000011000
927
UANT01 CWAO 110711
ARP UAE206 4618N03843W 0710 F350 MS50 304/36 KT
A6EGP DDL XXW 110711 F38A
0000011000
928
UANT01 CWAO 110711
ARP QTR714 5843N03344W 0711 F350 MS56 230/39 KT
A7BBF QXT AOW 110711 F61A
0000015100
929
SNNO23 ENMI 110700 RRA
AAXX 11071
01180 46/// /2202 11078 21133 30107 40167 52004=
01340 46/// /2903 11018 21025 39097 49967 55005=
0000020200
930
SNNO24 ENMI 110700 RRA
AAXX 11071
01199 46/// /2701 11203 21221 39692 40202 52004=
01329 46/// /2204 10035 20019 39908 49969 55003=
01393 46/// /1302 11174 21194 39210 40064 52006=
0000010700
931
SASB31 VCRI 110710 RRA
METAR VCRI 110710Z 06008KT 030V130 9000 SCT016   32/21 Q1011 NOSIG=

0000020200
932
SNNO25 ENMI 110700 RRA
AAXX 11071
01265 46/// /2402 11137 21152 39434 40047 52010=
01440 46/// /0000 11031 21032 38701 49983 54001=
01469 46/// /3503 11025 21037 39816 49990 53008=
0000010000
933
SNNO26 ENMI 110700 RRA
AAXX 11071
01476 46/// /2406 10039 20018 39975 49982 53002=
0000011000
934
UANT01 CWAO 110711
ARP AFR009 4434N04730W 0711 F370 MS61 312/48 KT
FGSPY QXT AOW 110711 F36A
0000011000
935
UANT01 CWAO 110711
ARP QTR702 5447N03635W 0711 F310 MS57 195/27 KT
A7BAG QXT AOW 110711 F27A
0000014100
936
UAPA01 KWBC 110712
ARP ASA859 3003N 14905W 0705 F350 MS51 236/060KT=
ARP DAL297 1734N 14350E 0705 F380 MS48 310/007KT TB 0=
0000012700
937
SSVX02 CWAO 110700
ZZYY 47573 11014 0700/ 770970 100709 6113/ 444 
20130 11014 0700/ 50101 80134 80001 9////=
0000015100
938
SSVX02 CWAO 110700
ZZYY 26535 11014 0700/ 187289 040485 6113/ 11131 
11135 40003 57008 444 20130 11014 0700/ 50101 80134 80001 9////=
0000013900
939
SSVX02 CWAO 110700
ZZYY 47571 11014 0700/ 771334 104399 6113/ 11119 
49924 444 20130 11014 0700/ 50401 80129 80001 9////=
0000013900
940
SSVX02 CWAO 110700
ZZYY 55086 11014 0700/ 334163 172143 6113/ 11119 
40189 57001 444 20130 11014 0700/ 50100 80142 80001=
0000013900
941
SSVX02 CWAO 110700
ZZYY 47564 11014 0700/ 767165 028074 6113/ 11122 
49947 54000 444 20130 11014 0700/ 50400 80138 80001=
0000012700
942
SSVX02 CWAO 110700
ZZYY 47537 11014 0700/ 783290 048074 6113/ 444 
20130 11014 0700/ 50001 80136 80001 9////=
0000020800
943
SMTV01 NGFU 110600 RRA
AAXX 10004
91636 11599 62610 10311 20261 40060 60001 71422 83208 333
20269 566/9 70034=
91648 11498 73018 10281 20262 40054 60071 71486 8337/ 333
20261 5679/ 70606=

---
0000020800
944
SMTV01 NGFU 110600 RRA
AAXX 09124
91636 11598 72606 10267 20241 40064 60001 71422 8327/ 333
10315 5669/=
91648 11498 82818 10270 20256 40052 60631 72568 8432/ 333
10304 5659/=

---
0000018400
945
SMTV01 NGFU 110600 RRA
AAXX 09184
91636 11599 62611 10277 20238 40061 60001 71422 83208 333
566/9=
91648 11498 72916 10277 20259 40053 69911 71482 8337/ 333
5669/=

---
00000000