0000011100
373
UANT99 KDDL 110644
ARP NAX7006 5427N04538W 0644 F410 MS58 282/50 KT
EILNB QXT AOW 110644 L45A
0000068500
374
UDEU02 EGRR 110647
AMDAR 1106
ASC EU0324   5129N 00027W 110643 F003 PS075 278/009 TB/ S031=
ASC EU0324   5129N 00027W 110643 F006 PS072 281/017 TB/ S031=
ASC EU0324   5129N 00028W 110643 F009 PS070 290/018 TB/ S031=
ASC EU0324   5129N 00028W 110643 F012 PS067 291/019 TB/ S031=
ASC EU0324   5129N 00029W 110643 F014 PS062 288/019 TB/ S031=
ASC EU0324   5129N 00029W 110643 F017 PS055 293/023 TB/ S031=
ASC EU0324   5129N 00030W 110644 F018 PS052 293/024 TB/ S031=
ASC EU0324   5129N 00030W 110644 F020 PS045 295/024 TB/ S031=
UNS EU0324   5129N 00032W 110644 F023 PS035 298/022 TB/ S031=
UNS EU0324   5129N 00032W 110644 F026 PS025 303/026 TB/ S031=
0000190500
375
UDEU02 EGRR 110647 RRA
AMDAR 1106
ASC EU0228   5321N 00251W 110627 F012 PS040 283/018 TB/ S031=
ASC EU0228   5319N 00252W 110627 F019 PS022 287/017 TB/ S031=
ASC EU0228   5318N 00253W 110627 F024 PS005 290/018 TB/ S031=
ASC EU0228   5317N 00254W 110627 F029 MS007 290/020 TB/ S031=
ASC EU0228   5316N 00255W 110627 F037 MS025 287/022 TB/ S031=
ASC EU0228   5315N 00256W 110627 F043 MS042 290/023 TB/ S031=
ASC EU0228   5314N 00257W 110627 F050 MS057 289/023 TB/ S031=
ASC EU0228   5313N 00258W 110627 F064 MS077 286/028 TB/ S031=
ASC EU0228   5312N 00259W 110627 F079 MS112 280/033 TB/ S031=
ASC EU0228   5310N 00300W 110627 F104 MS165 278/029 TB/ S031=
ASC EU0228   5306N 00259W 110628 F126 MS215 280/035 TB/ S031=
ASC EU0228   5303N 00259W 110628 F146 MS245 282/047 TB/ S031=
ASC EU0228   5259N 00258W 110628 F163 MS257 286/071 TB/ S031=
ASC EU0228   5255N 00257W 110629 F178 MS290 287/072 TB/ S031=
ASC EU0228   5250N 00256W 110629 F192 MS312 280/087 TB/ S031=
ASC EU0228   5246N 00255W 110629 F210 MS345 276/077 TB/ S031=
ASC EU0228   5242N 00254W 110630 F225 MS377 273/074 TB/ S031=
ASC EU0228   5238N 00253W 110630 F245 MS417 257/065 TB/ S031=
ASC EU0228   5233N 00253W 110630 F260 MS462 250/066 TB/ S031=
ASC EU0228   5229N 00252W 110631 F273 MS485 249/077 TB/ S031=
ASC EU0228   5225N 00253W 110631 F283 MS490 250/079 TB/ S031=
ASC EU0228   5221N 00253W 110631 F291 MS487 257/077 TB/ S031=
ASC EU0228   5216N 00253W 110632 F296 MS490 265/071 TB/ S031=
ASC EU0228   5211N 00254W 110632 F308 MS502 252/064 TB/ S031=
ASC EU0228   5207N 00254W 110632 F328 MS555 247/074 TB/ S031=
ASC EU0228   5203N 00254W 110633 F330 MS535 256/073 TB/ S031=
ASC EU0228   5158N 00255W 110633 F332 MS530 255/073 TB/ S031=
ASC EU0228   5153N 00255W 110633 F339 MS515 256/074 TB/ S031=
ASC EU0228   5149N 00255W 110634 F345 MS517 262/077 TB/ S031=
0000068900
376
UDEU02 EGRR 110647 RRB
AMDAR 1106
ASC EU1790   6328N 01102E 110639 F024 MS130 182/006 TB/ S031=
ASC EU1790   6328N 01107E 110639 F039 MS133 180/023 TB/ S031=
ASC EU1790   6326N 01109E 110640 F051 MS150 136/016 TB/ S031=
ASC EU1790   6324N 01110E 110640 F064 MS158 104/008 TB/ S031=
ASC EU1790   6321N 01110E 110641 F083 MS191 141/013 TB/ S031=
ASC EU1790   6319N 01111E 110642 F102 MS234 130/023 TB/ S031=
ASC EU1790   6316N 01111E 110642 F108 MS246 119/021 TB/ S031=
ASC EU1790   6313N 01112E 110643 F114 MS220 130/005 TB/ S031=
ASC EU1790   6310N 01113E 110643 F127 MS231 265/005 TB/ S031=
ASC EU1790   6306N 01111E 110644 F140 MS245 293/011 TB/ S031=
0000068500
377
UDAS02 EGRR 110647
AMDAR 1100
LVR EU3075   3042N 05615E 110028 F320 MS472 253/082 TB0 S031=
LVR EU3075   3112N 05526E 110035 F319 MS467 240/097 TB0 S031=
LVR EU3075   3141N 05437E 110042 F320 MS467 241/111 TB0 S031=
LVR EU3075   3218N 05354E 110049 F320 MS477 243/095 TB0 S031=
LVR EU3075   3300N 05315E 110056 F320 MS487 243/091 TB0 S031=
LVR EU3075   3342N 05235E 110103 F320 MS495 241/091 TB0 S031=
LVR EU3075   3425N 05155E 110110 F319 MS505 241/088 TB0 S031=
LVR EU3075   3506N 05114E 110117 F319 MS517 239/084 TB0 S031=
LVR EU3075   3542N 05025E 110124 F320 MS545 228/059 TB0 S031=
LVR EU3075   3611N 04929E 110131 F320 MS565 193/022 TB0 S031=
0000261200
378
SMID01 WIIX 110600
AAXX 11064
96009 11457 81204 10272 20236 30088 40123 57016 69907 70262 8392/
  333 56009 57903 81915 82617 87460 80965=
96011 32460 71406 10294 20236 30094 40120 57023 84932
  333 56000 57904 82919 82619 80959=
96035 32456 73509 10286 20247 30101 40111 57023 84876
  333 56000 57802 84817 80850=
96073 32560 70000 10320 20218 30084 40096 56025 83222
  333 56000 57802 83820 80860=
96091 32460 73507 10306 20247 30087 40110 57016 85231
  333 56800 57881 85817 80860=
96109 32460 73607 10309 20233 30051 40092 57025 85231
  333 56600 57861 85815 80840=
96145 32457 10289 20244 30101 40104 58012 85231
  333 56800 57882 85816 80857=
96147 32457 63615 10274 20229 30111 40118 56016 83531
  333 56800 83615 84360=
96163 32560 62604 10304 20237 30095 40102 57011 82278
  333 56000 57802 81820 80830=
96179 32460 73206 10306 20236 30069 40106 57009 85208
  333 56000 57802 85817 85273 80850=
96195 32462 73108 10286 20229 30069 40107 57015 84231
  333 56000 57803 84815 80845=
96221 01458 80000 10249 20243 30098 40102 57014 60071 76166 8592/
  333 56799 57993 60047 85615 81920 88260 80890=
96237 01456 82702 10270 20241 30057 40099 57020 60061 79596 8492/
  333 56009 57902 60067 82917 82816 88460 80980=
96249 01458 70208 10268 20247 30032 40093 57018 69901 72162 85932
  333 56800 57981 57881 69907 81917 84820 80981 80863=
96253 11460 73006 10281 20241 30067 40088 57017 69901 70162 85372
  333 56700 57901 57871 81915 83820 80982 80865=
96295 32460 80208 10304 20237 39989 40094 56022 8521/
  333 56009 57800 85815 88462 80800=
96509 32459 73307 10299 20241 30086 40098 56028 84271
  333 56000 57802 84815 85461 80858=
96581 32460 60000 10316 20236 30090 40097 57020 85231
  333 56000 57802 85811 83361 80865=
96633 32459 71803 10291 20242 30083 40088 57025 82972
  333 56000 57904 81918 82818 84359 80980=
96645 32459 73006 10312 20258 30059 40091 57027 85372
  333 56000 57802 85813 80858=
96655 31457 80906 10305 20234 30078 40109 57030 71522 86373
  333 56800 57902 82980 84812 80970=
96685 32560 63305 10304 20244 30063 40084 57032 85511
  333 56000 85620=
96749 32560 60208 10328 20238 30072 40085 58021 83921
  333 56000 57954 57844 81920 82821 85460 80980 80859=
96781 NIL=
96805 32561 61208 10316 20230 30096 40105 56015 82271
  333 56000 57801 82820 84460 80860=
96839 32458 73507 10306 20246 30079 40083 57020 84332
  333 56000 57902 57802 81918 83819 80980 80860=
96935 31460 70407 10302 20254 30086 40093 57025 71791 84931
  333 56000 57901 82920 83818 80980=
0000010200
379
SAIN90 VANP 110640
METAR VANP 110640Z 21006KT 3000 HZ FEW025 SCT100 24/16 Q1015 NOSIG=
0000015100
380
UGIN21 DEMS 110600 RRB
PPBB 61051 43003
90012 36004 36006 01003 90345 35505 05003 19508 907// 26505 91259
 30019
30018 31016 =

0000010300
381
UPIN02 DEMS 110600 RRB
PPAA 61051 43003
55392 01503 19507 26017 55150 31518 77999=

0000003800
382
ULGR01 LGAT 110600
NIL
0000111200
383
SMCI08 BABJ 110600
AAXX 11061
55228 32780 23201 11080 21301 36014 52005 82/// 333 00400
21160=
55578 32780 71102 10008 21245 36357 57011 87/// 333 00053
21107=
55664 32880 43402 11045 21183 35977 57014 84/// 333 05155
21162=
55773 31670 72005 11070 21121 35996 57010 78580 87/// 333
00057 21156=
56116 32680 83202 11012 21174 36317 57022 88/// 333 00252
21118=
56137 32680 73401 10068 21207 36770 57030 87/// 333 00251
21090=
56172 32680 12904 10099 21097 37294 57050 81/// 333 00301
21068=
56247 32967 00901 10117 21168 37388 57056 333 00251 21019=
56312 11580 71403 10053 21079 37085 57026 69901 72600 87///
333 00001 21012=
56462 32680 01803 10118 21201 37099 57044 333 00351 21060=
56651 32680 22504 10133 21074 37640 57025 82/// 333 00201
20049=
56691 11463 83201 11013 21021 37790 57027 69901 72466 88///
333 00660 21036 93427=
56985 32575 03404 10222 21032 38714 40132 57035 333 00005
20113=
57633 32465 81102 10031 21004 39300 40299 57029 88/// 333
00402 20005=
57902 32570 80903 10035 20006 38672 40256 57032 88/// 333
00656 20022=
0000003800
384
SMCI09 BABJ 110600
NIL
0000111000
385
SMCI38 BABJ 110600
AAXX 11061
55279 32668 82505 11075 21321 35671 57014 88/// 333 00053
21155=
55472 32780 72705 11068 21324 35707 57010 87/// 333 00054
21135=
55696 32680 62206 10035 21207 36318 57032 86/// 333 00002
21144=
56079 11780 83602 11051 21082 36667 57018 69951 77070 88///
333 00555 21107=
56106 32780 82904 11026 21312 36189 57017 88/// 333 00255
21119=
56257 32680 03403 10030 21228 36252 57019 333 00251 21093=
56374 11580 30907 11001 21095 37415 57036 69911 70080 83///
333 00502 21061=
56385 11/02 90701 11077 21084 37009 57021 69951 77074 333
00501 21112=
56954 32577 12202 10225 20086 40180 57039 81/// 333 00100
20052=
56966 32765 03202 10197 20112 40178 57043 333 00353 20127=
57237 32965 63406 10073 21035 40291 57032 86/// 333 20013=
57306 31955 70901 10092 20025 39818 40287 57030 70500 87///
333 20048=
57604 31730 81801 10068 20067 40289 57027 72160 88/// 333
20058=
57707 11470 80401 10021 21017 38540 57028 69931 70060 88///
333 00601 21001 93427=
57832 31764 83602 10026 20007 40301 57028 70060 88/// 333
20014=
0000003800
386
SMCI39 BABJ 110600
NIL
0000003800
387
USGR01 LGAT 110600
NIL
0000336800
388
SMID02 WIIX 110600
AAXX 11064
97014 01459 72406 10271 20238 39982 40080 57023 69961 72162 84871
  333 56600 57863 69967 84818 80860=
97028 NIL=
97048 22456 71803 10282 20235 30039 40063 57025 84722
  333 56000 57801 60047 84817 80860=
97072 01459 82605 10266 20242 30010 40110 57022 60021 76066 8452/
  333 56809 60027 84617 86458=
97086 01458 72104 10298 20253 30047 40073 57025 60011 72122 83271
  333 56000 57808 60017 83819 80856=
97096 01460 83502 10280 20248 30108 40129 53003 60061 72162 8432/
  333 56009 57901 57802 60067 81915 83816 86460 80970 80860=
97120 32462 72909 10304 20243 30048 40081 57029 83231
  333 56000 57801 83818 85360 80860=
97146 31459 61604 10318 20243 30008 40069 57025 71521 84871
  333 56000 57801 83814 80860=
97180 11460 73106 10313 20234 30079 40098 57022 69901 70162 82231
  333 56000 82819 84460=
97192 01450 61805 10258 20238 30047 40111 57016 60111 72196 85971
  333 56600 57962 60117 81916 84616 80957=
97230 01430 72905 10276 20251 30085 40090 57021 60051 79596 85911
  333 56000 57901 57801 60057 81915 84816 80980 80858=
97260 32464 73110 20244 30078 40084 57023 84931
  333 56000 57902 82917 83080 80980=
97270 31357 73606 10318 20237 30083 40087 58020 71792 85921
  333 56000 57901 81915 83817 85460 80980=
97300 32458 60000 10318 20253 30053 40089 57022 83271
  333 56600 57861 83817 83360 80857=
97340 32570 83509 10318 20248 30066 40079 57025 81102
  333 56000 81820 88080=
97372 01458 71803 10246 20237 39970 40096 57010 60381 76096 85971
  333 56000 60387 81915 85816 83459=
97430 01459 73006 10284 20237 30041 40080 58020 60011 71562 84932
  333 56700 57971 57871 60017 81915 83818 80980 80860=
97460 11458 72804 10295 20244 30041 40055 57018 60031 71562 84376
  333 56600 57962 81917 83818 80958=
97502 32459 33007 10313 20248 30053 40053 57022 82231
  333 56000 57803 82812 80850=
97530 32460 61405 10332 20264 30046 40050 57024 84853
  333 56000 57803 83814 84360 80833=
97560 32460 80000 10307 20258 30042 40057 56019 83947
  333 56000 57901 57803 81917 82818 85361 88279 80980 80860=
97580 01460 70000 10256 20244 30060 40067 52022 60071 72122 84832
  333 56000 57802 60077 84818 84361 80858=
97600 32560 52405 10322 20248 30059 40065 57020 83271
  333 56000 57802 83820 80860=
97686 31462 71415 10252 20173 38299 40007 57038 71622 85836
  333 56000 57802 84814 85361 80860=
97690 01420 83303 10258 20246 39954 40049 55010 60261 76196 83777
  333 56000 60267 83815 88279=
97724 01459 72015 10298 20246 30041 40062 57024 69901 76022 85972
  333 56600 57961 57861 69907 82917 83818 80974 80860=
97748 31457 72418 10308 20258 30061 40063 57020 70522 84232
  333 56600 57861 84815 80850=
97760 01450 73402 10247 20245 30053 40062 57019 60301 76266 8492/
  333 56009 57901 60307 81915 83617 80980=
97796 32460 72809 10322 20229 30011 40061 57022 84232
  333 56000 57801 84815 85362 80860=
97810 11462 72810 10316 20257 30042 40049 56017 60111 70262 85832
  333 56600 57861 84819 80850=
97876 32460 63603 10314 20245 30011 40044 56035 85831
  333 56000 57801 83810 82612 80858=
97900 11566 82110 10293 20254 30022 40052 57026 60021 70262 8327/
  333 56500 57851 83820 87430 80850=
97980 11460 73005 10296 20254 30033 40040 57027 60051 71566 85842
  333 56000 82816 83620=
0000276200
389
SMID20 WIIX 110600
AAXX 11064
96001 31456 80812 10276 20244 39985 40133 56019 71422 84522
  333 56200 84619=
96015 32462 62204 10304 20251 30107 40114 58015 82272
  333 56000 57802 82818 80858=
96033 11457 73607 10300 20236 30107 40112 57021 69901 70562 83927
  333 56000 57903 69907 81920 83617 80980=
96075 NIL=
96087 32460 63307 10301 20240 30069 40102 56020 86218
  333 56700 57872 86814 80859=
96171 32456 72805 10288 20245 30077 40101 57013 86522
  333 56000 85613=
96207 01450 73108 10258 20194 39218 40145 57026 72162 84972
  333 56000 57900 81915 83080=
96505 01460 61203 10268 20217 39063 40350 57037 69901 72162 86231
  333 56000 69907 86817 80860=
96525 32460 81612 10314 20235 30087 40094 57029 8427/
  333 56009 84615 86460=
96529 32460 63506 10310 20238 30082 40116 57023 83121
  333 56000 83818 84080=
96535 32460 50308 10308 20233 30092 40113 58017 82231
  333 56600 57864 82814 83362 80860=
96557 32460 62803 10298 20228 30060 40109 57015 85321
  333 56600 57962 57861 81912 84813 85460 80980 80857=
96559 NIL=
96565 32458 63304 10314 20248 30056 40107 57029 83231
  333 56000 57802 83810 80850=
96595 32460 70000 10290 20242 30052 40104 57027 84826
  333 56000 57802 81817 83612 80859=
96607 32460 83604 10311 20244 30082 40096 57024 8422/
  333 56000 84817 88460=
96615 32460 73608 10312 20223 30090 40104 57020 82234
  333 56000 57802 82815 85050 80858=
96695 32458 61505 10298 20243 30082 40087 58025 83111
  333 56000 57802 83814 84460 80859=
96737 31450 80000 10320 20236 30046 40075 57021 70522 85221
  333 56000 85818 84460 80860=
96739 01450 70000 10265 20250 30035 40092 57019 60111 72162 85920
  333 56000 57900 60117 81918 84618 80980=
96741 32559 63605 10324 20245 30087 40091 57019 82211
  333 56000 57803 82820 85460 80858=
96745 32560 63509 10324 20247 30095 40099 57023 83521
  333 56000 83620 86460=
96751 01559 70000 10235 20216 39027 40114 57009 60051 72162 86210
  333 56600 57862 60057 82820 84620 80875=
96791 31458 71403 10272 20237 30046 40121 50002 71792 85971
  333 56000 82918 83818=
96797 32562 60610 10308 20245 30083 40089 57021 81231
  333 56000 57804 81820 85080 80860=
96837 NIL=
96925 01565 62204 10295 20258 30082 40087 57022 60041 70262 85272
  333 56000 57800 60047 85820 80860=
96933 32460 50808 10318 20237 30086 40089 57027 84911
  333 56600 57961 81914 83814 80970=
96937 01560 60608 10316 20237 30084 40088 57027 69901 70262 84231
  333 56000 57801 69907 84820 80872=
96973 01462 61803 10309 20252 30081 40088 57030 60021 70262 83976
  333 56000 57902 69907 81919 80977 82820 80850=
96987 32460 40208 10308 20239 30037 40092 57033 83231
  333 56000 57801 83818 80860=
0000198300
390
SMID21 WIIX 110600
AAXX 11064
97008 01458 82803 10254 20239 30052 40063 58016 60121 76162 8522/
  333 56009 60027 84818 84859=
97016 01463 72507 10298 20226 30068 40070 57020 69981 72162 85972
  333 56000 57901 57801 69987 81919 84820 80982 80860=
97126 32459 73204 10310 20250 30028 40089 57029 84921
  333 56000 57901 57802 81916 84816 85460 80980 80860=
97142 32560 42505 10326 20241 30059 40073 58027 82231
  333 56000 57802 82820 80860=
97182 32568 73205 10306 20260 30093 40095 56022 83831
  333 56000 57802 82820 85360 80869=
97240 01440 70513 10252 20232 39979 40094 57023 69951 79596 86931
  333 56000 57901 69957 81915 85816 80980 80860=
97284 01458 73005 10218 20209 38860 40099 57023 69901 76062 85231
  333 56000 57801 69907 85812 80837=
97310 32564 72706 10328 20261 30053 40065 57025 83221
  333 56000 57803 83820 86460 80856=
97320 32565 50209 10324 20251 30053 40066 57018 83221
  333 56000 57801 83820 80850=
97378 32560 73606 10256 20214 39931 40094 56005 83212
  333 56700 83820 83080=
97380 32464 42807 10318 20259 30058 40080 57024 81102
  333 56600 81819 84080=
97406 31457 82009 10286 20246 30014 40038 57026 71522 85871
  333 56000 57802 85802 87460 80860=
97570 NIL=
97630 32460 62105 10296 20235 39913 40074 57024 84932
  333 56000 57901 81910 83812 80976=
97682 01458 70000 10276 20259 30038 40045 58019 60011 76162 85871
  333 56000 57801 60017 85815 80860=
97698 11457 81808 10292 20249 30048 40056 53017 69901 71582 8697/
  333 56000 57900 57800 82914 84815 87460=
97700 31460 40208 10306 20240 30042 40058 57019 71522 83932
  333 56000 57903 82918 80965=
97722 01460 62004 10299 20253 30055 40070 57024 69911 72582 84932
  333 56600 57961 57861 69917 81917 83818 80972 80858=
97780 32459 72207 10234 20129 38209 40145 57026 84271
  333 56000 57802 84813 85361 80865=
97790 32462 72509 10298 20256 30036 40057 57026 83870
  333 56600 57862 82819 86458 80858=
0000017000
391
SOVI10 KWAL 110646
B110070A 011064601 P9751095 B\P~W@@j0ekF1@oQ???ClCo>@oT3@MD@@Y4Cv5C?6bE9JI<BM2?????@"??? nTFkL@U@V@V@X@T@V:AMPTEMP 26.57C  45-0NN 219E
0000167200
392
UPID01 WIIX 110600
PPAA 61061 96009 55185 07006 77999=
PPAA 61061 96011 55185 22028 77999=
PPAA 61061 96035 55185 33004 77999=
PPAA 61061 96073 55185 18002 26012 77999=
PPAA 61061 96091 55185 31012 77999=
PPAA 61061 96109 55185 34007 77999=
PPAA 61061 96145 NIL=
PPAA 61061 96147 55285 30005 30008 77999=
PPAA 61061 96163 55285 23005 23009 77999=
PPAA 61061 96179 55185 02007 77999=
PPAA 61061 96195 NIL=
PPAA 61061 96221 NIL=
PPAA 61061 96237 NIL=
PPAA 61061 96249 NIL=
PPAA 61061 96253 NIL=
PPAA 61061 96295 NIL=
PPAA 61061 96509 NIL=
PPAA 61061 96581 55185 28012 77999=
PPAA 61061 96633 NIL=
PPAA 61061 96645 NIL=
PPAA 61061 96655 55185 24008 77999=
PPAA 61061 96685 55185 32010 77999=
PPAA 61061 96749 NIL=
PPAA 61064 96805 55285 07002 36003 77999=
PPAA 61061 96839 55185 03008=
PPAA 61061 96935 55185 03005 77999=
PPAA 61061 97014 NIL=
PPAA 61061 97028 NIL=
PPAA 61061 97048 NIL=
PPAA 61061 97072 NIL=
PPAA 61061 97086 NIL=
PPAA 61061 97096 NIL=
PPAA 61061 97180 55285 34010 13009 77999=
PPAA 61061 97192 NIL=
PPAA 61061 97230 NIL=
PPAA 61061 97260 NIL=
PPAA 61061 97270 55185 01504 77999=
PPAA 61061 97300 NIL=
PPAA 61061 97340 55385 30003 36011 03011 77999=
PPAA 61061 97372 NIL=
PPAA 61061 97430 NIL=
PPAA 61061 97460 NIL=
PPAA 61061 97502 NIL=
PPAA 61061 97530 NIL=
PPAA 61061 97560 55185 25015 77999=
PPAA 61061 97600 NIL=
PPAA 61061 97686 NIL=
PPAA 61061 97690 NIL=
PPAA 61061 97724 55185 26014 77999=
PPAA 61061 97748 55185 25023 77999=
PPAA 61061 97760 NIL=
PPAA 61061 97810 NIL=
PPAA 61061 97900 NIL=
PPAA 61061 97980 55185 19023 77999=
00000000