0000015400
313
SMRO50 YRBK 110000 CCC
AAXX 11001
15333 03/// /1302 11019 21019 30166 40186 52017 60001 333 4//// 55002
60007
91003 91103 555 60000=
0000098100
314
SNGL61 EKMI 110500
AAXX 11054
04211 45/79 /1817 11060 21135 39797 49956 52006 =
04213 46/// /1706 11076 21203 39836 49947 57008 =
04220 45984 71105 11099 21172 39900 49952 57002
  333 55300 20004 87/69 =
04221 45984 50806 11094 21216 39909 49948 57009
  333 85/65 =
04224 45984 71204 11094 21192 39916 49950 57001
  333 87/68 =
04231 45984 70505 11169 21242 39885 49962 57011
  333 87/68 =
04234 45/84 /0908 11082 21201 39927 49938 52002 =
04241 47684 70912 11082 21151 39902 49942 52001 70075
  333 81/43 87/50 =
04250 45684 70403 11070 21158 39818 49925 57005
  333 55300 20000 87/40 =
04260 47683 81409 11098 21149 39889 49937 57010 70087
  333 88/43 =
04270 45884 30602 11118 21199 39916 49956 54000
  333 81/57 83/60 =
04272 45/84 03105 11094 21146 39876 49949 57003 =
04320 45/84 03013 11154 21190 30009 40025 57002
  333 55300 20007 =
04339 NIL =
04360 NIL =
04390 45/84 02414 11054 21155 39826 49920 57003 =
0000068400
315
SNNO49 ENMI 110500 RRA
AAXX 11051
01027 26/// ///// 11106 21128 333 60005=
01084 26/// /3101 11230 21255 333 60005=
01117 26/// /0905 11079 21160 333 60005=
01153 26/// ///// 11080 21173 333 60005=
01270 26/// ///// 11099 21156 333 60005=
01272 26/// ///// 11095 21139 333 60005=
01308 26/// ///// 10001 21006 333 69915=
01342 26/// ///// 10022 20012 333 60015=
01371 26/// ///// 11076 21086 333 69925=
01381 26/// ///// 11070 21090 333 69915=
01382 26/// ///// 11056 21090 333 69915=
01387 26/// ///// 11048 21096 333 60005=
01413 26/// ///// 10051 20022 333 60005=
01464 26/// /2801 10003 21002 333 60005=
01485 46/// /0105 11001 21009=
0000011100
316
UANT01 CWAO 110522
ARP UAL990 5758N03923W 0522 F350 MS59 230/32 KT
N675UA DDL XXW 110522 F94A
0000013000
317
SNIY21 LIIB 110500 RRA
AAXX 11054
16098 41715 70000 10070 20052 30170 40222 56002 71022 87030 333
      87356=
0000011100
318
UANT01 CWAO 110522
ARP SVA022 4829N03749W 0520 F330 MS52 290/23 KT
HZAK17 QXT AME 110522 F32A
0000011100
319
UANT01 CWAO 110523
ARP UAL987 5505N03511W 0522 F330 MS60 219/36 KT
N646UA DDL XXW 110523 F52A
0000011000
320
UANT01 CWAO 110523
ARP AFR007 4823N03334W 0522 F380 MS50 219/42 KT
FHPJD QXT AOW 110523 J79A
0000003800
321
SIAN40 FNLU 110300
NIL
0000024100
322
SOAT10 KWAL 110523
FA8005BC 011052337 OT12 ID:KN-BASS-01 DT:2014 01 11 05 21
:RD -3182 -3194 -3166 -3201 -3213 -3198 -3203 -3200 -3190 -3189
:PR 0475 0519 0482 0477 0474 0488 0451 0549 0528 0509
:B 13.7V
 46+1NN 219E
0000024900
323
SNHK22 VHHH 110515
AAXX 11051
45032 36/// /0704 10206 20099 30205 40222 57003=
45035 36/// /2106 10201 20121 30183 40225 54000=
45039 36/// /1003 10193 20101 30212 40227 57004=
45044 36/// /1109 10190 20114 30131 40225 57002=
0000010300
324
SAIN35 VIDP 110500 RRA
METAR VAUD 110500Z 06005KT 2000 HZ SCT030 BKN080 14/07 Q1021=

0000005200
325
RRIN23 VIDP 110522
RQRPT 220-261=

0000005200
326
RRIN23 VIDP 110522
RQRPT 460-481=

0000023800
327
SWVD12 LFPW 110500
MMXX 41300 11014 0500/ 71551 05728 00011 15400 20321 30101
11130 0005/ 1024/ 30/// 14054 11174
22227 12506 10001 30526 52300 75855 93125 11815 31109
50911 70807 90304 10404 30203 50302 70101 90100=
0000013700
328
UAAK04 KAWN 110500
SCC UA /OV SCC/TM 0505/FLUNKN/TP B737/RM DURD FM W RNAV23 PICKED
 UP LGTS AT 012 ON FA BA FAIR-GOOD=
0000034100
329
SZIO01 AMMC 110524
CREX++
T000103 A001 D01021 D06025++
-1211670 09689190 46280 2014 01 11 05 17 3010 11 07 00 01
01141 0044 01136 0037 01142 0041 01144 0041 01146 0041 01154 0047+
-1042940 10566940 46290 2014 01 11 05 17 //// 11 07 00 01
01074 0006 01166 0096 01095 0022 01134 0059 01129 0051 01123 0044++
7777

0000179400
330
SZPS01 AMMC 110524
CREX++
T000103 A001 D01021 D06025++
-0204190 14737360 56130 2014 01 11 05 17 3028 11 07 00 01
01164 0091 01159 0087 01162 0090 01164 0093 01161 0090 01164 0094+
-0669280 15640860 56363 2014 01 11 05 17 //// 11 07 00 01
00844 -0059 00844 -0057 00843 -0056 00837 -0059 00832 -0062 00836 -0055+
-0942890 15995560 56670 2014 01 11 05 17 3042 11 07 00 01
00877 -0042 00874 -0044 00877 -0040 00878 -0039 00880 -0036 00872 -0043+
-1072080 16580190 57131 2014 01 11 05 17 //// 11 07 00 01
03378 2511 03380 2516 03380 2519 03380 2522 03379 2524 03379 2528+
-1551560 16718860 57210 2014 01 11 05 17 //// 11 07 00 01
01108 -0077 01113 -0069 01107 -0072 01112 -0063 01101 -0071 01099 -0069+
-1775690 16830030 57320 2014 01 11 05 17 3015 11 07 00 01
01153 -0066 01148 -0068 01147 -0066 01149 -0062 01149 -0060 01146 -0060+
-4397330 16861610 65180 2014 01 11 05 17 2890 11 07 00 01
01886 0365 01869 0343 01871 0339 01889 0352 01914 0371 01902 0354+
-2120470 -15978530 65980 2014 01 11 05 17 3013 11 07 00 01
00793 0026 00762 -0003 00757 -0006 00766 0004 00762 0002 00766 0007+
-2113810 -17518140 66600 2014 01 11 05 17 //// 11 07 00 01
01410 0092 01400 0087 01408 0098 01391 0085 01392 0091 01386 0088+
-1382670 -17176110 66840 2014 01 11 05 17 3012 11 07 00 01
00931 0070 00915 0058 00920 0066 00906 0055 00904 0056 00896 0051+
-1813250 17842750 67050 2014 01 11 05 17 3033 11 07 00 01
01602 0085 01600 0088 01594 0086 01587 0083 01595 0096 01589 0094+
-1760530 17743810 67070 2014 01 11 05 17 3033 11 07 00 01
01664 0010 01659 0010 01655 0010 01650 0010 01645 0010 ///// ////+
-0850250 17919500 67440 2014 01 11 05 17 3030 11 07 00 01
02145 -0008 02141 -0008 02133 -0012 02133 -0008 02130 -0006 02132 0000++
7777

0000047300
331
SZPA01 AMMC 110524
CREX++
T000103 A001 D01021 D06025++
0136250 17293000 67590 2014 01 11 05 17 3015 11 07 00 01
01703 -0004 01695 -0008 01689 -0010 01682 -0013 01680 -0011 01673 -0015+
0710610 17137250 67680 2014 01 11 05 17 3013 11 07 00 01
01082 0059 01073 0053 01072 0055 01076 0062 01065 0054 01064 0056+
0698060 15820000 67950 2014 01 11 05 17 3022 11 07 00 01
00877 0021 00874 0020 00872 0019 00865 0015 00865 0016 00862 0015++
7777

0000191300
332
SZAU01 AMMC 110524
CREX++
T000103 A001 D01021 D06025++
-1927750 14705860 59260 2014 01 11 05 17 3030 11 07 00 01
01714 0207 01720 0207 01724 0205 01734 0210 01739 0210 01748 0212+
-2316110 15079000 59670 2014 01 11 05 17 3000 11 07 00 01
02365 0137 02385 0147 02391 0144 02403 0147 02414 0148 02415 0141+
-3447330 15091170 60420 2014 01 11 05 17 2955 11 07 00 01
00944 -0027 00949 -0024 00949 -0026 00955 -0022 00957 -0022 00961 -0021+
-4105000 14591500 60910 2014 01 11 05 17 2893 11 07 00 01
00903 -0031 00912 -0030 00912 -0038 00924 -0035 00944 -0023 00956 -0019+
-4254640 14793080 61170 2014 01 11 05 17 2895 11 07 00 01
01187 0075 01189 0075 01193 0078 01199 0082 01202 0083 01202 0082+
-3834390 14161360 61410 2014 01 11 05 17 2905 11 07 00 01
00356 0019 00356 0018 00340 0001 00374 0034 00379 0038 00365 0023+
-3214890 13364170 62000 2014 01 11 05 17 2963 11 07 00 01
00929 0129 00935 0133 00940 0135 00944 0136 00948 0137 00954 0141+
-3387080 12189720 62080 2014 01 11 05 17 2948 11 07 00 01
00806 0128 00802 0123 00835 0156 00803 0124 00816 0137 00818 0138+
-3182560 11573860 62237 2014 01 11 05 17 2970 11 07 00 01
00795 0064 00812 0080 00806 0074 00816 0083 00821 0087 00836 0101+
-2422000 11339750 62385 2014 01 11 05 17 //// 11 07 00 01
01077 -0068 01027 -0119 01114 -0033 01088 -0061 01073 -0077 01018 -0134+
-2181670 11419110 62430 2014 01 11 05 17 //// 11 07 00 01
01627 -0018 01629 -0017 01625 -0023 01634 -0016 01623 -0029 01631 -0023+
-1800080 12221830 62650 2014 01 11 05 17 3043 11 07 00 01
04915 0223 04922 0224 04926 0223 04930 0221 04934 0221 04938 0217+
-1247190 13084580 63230 2014 01 11 05 17 3050 11 07 00 01
05460 0049 05463 0049 05467 0053 05471 0054 05476 0057 05479 0059+
-1386000 13641580 63511 2014 01 11 05 17 3045 11 07 00 01
01452 0068 01453 0068 01454 0068 01455 0067 01456 0067 01458 0067++
7777

00000000