0000039800
353
SWIO40 RJTD 110645
:PRS 1 #1 1700 1684 1707 1696 1693 1709 1678 1699 1690 1697 1709 1684
1688 1707 1686 1706 1684 1714 1702 1700 1692 1686 1715 1685 1717 1711
1688 1739 1696 1717 :RAD 1 #3 6082 6084 6084 6085 6085 6088 6090 6098
6100 6102 :ENC 5 #5 5066 5068 5071 5070 5081 5089 5098 5106 5101 5103
5106 5105 :SW1 45 #60 60 :SW2 15 #60 60 :BAT 14 #15 13.3 :NAME 
0650018E=
0000009400
354
SAIN90 VIAR 110630
METAR VIAR 110630Z 31003KT 270V050 3500 HZ NSC 13/10 Q1020=
0000009200
355
SAIN35 VIDP 110630
METAR VIGG 110630Z 21004KT 5000 HZ FEW035 16/03 Q1020=

0000009800
356
SAIN32 VIDP 110630 RRA
METAR VIAR 110630Z 31003KT 270V050 3500 HZ NSC 13/10 Q1020=
0000009700
357
UPIN90 VABB 110600

PPAA 61051 43003

55392 01503 19507 26017 55150 31518 77999=

0000014000
358
UGIN90 VABB 110600

PPBB 61051 43003

90012 36004 36006 01003 90345 35505 05003 19508 907// 26505 91259 30019
30018 31016 =

0000003800
359
UEDL01 EDZW 110600
NIL
0000056200
360
UEDL02 EDZW 110600
TTDD ///// 10113 NIL=
TTDD ///// 10184 NIL=
TTDD 1105/ 10393
11886 59181 22812 60181 33702 56382 44600 60781 55487
54782 66430 58181 77354 56782 88304 59581 99277 56382
11159 59781 22131 57382 33120 60381 44094 58381
21212 11888 30521 22825 31520 33775 31524 44731 33530
55696 32520 66672 31524 77583 31530 88554 32535 99505
33527 11484 32525 22467 32029 33428 33030 44365 31539
55334 32536 66312 31036 77285 32037 88217 33051 99196
33045 11157 32054 22094 33076
31313 48008 80454=
TTDD ///// 10548 NIL=
0000003800
361
ULDL01 EDZW 110600
NIL
0000062400
362
UEDL03 EDZW 110600
TTDD 1105/ 10238
11642 59776 22544 54577 33468 57777
21212 11917 31515 22844 32018 33809 30517 44768 30525
55694 30017 66644 31025 77585 32524 88551 31520 99510
30524 11468 32025
31313 48008 80446=
TTDD 1105/ 10618
11754 57967 22260 53767 33203 55967
21212 11810 29018 22781 31018 33731 30520 44677 31513
55666 30512 66637 29018 77615 30522 88596 32018 99571
31014 11516 29521 22485 33017 33455 29011 44424 31519
55397 31519 66378 29018 77357 32023 88348 33023 99322
32518 11301 32029 22253 33031 33215 32033 44203 32533
31313 48008 80450=
TTDD ///// 10771 NIL=
0000020600
363
ULDL02 EDZW 110600
TTCC 11051 10393
70822 56382 33020 50034 56382 33527 30356 59381 31538
20612 57182 33045 10048 58981 33071
88886 59181 30521
66094 33076 409//
31313 48008 80454=
0000028800
364
ULDL03 EDZW 110600
TTCC 11055 10238
70826 58175 30018 50039 56179 30523
88999
77999
31313 48008 80446=
TTCC 11053 10618
70832 57166 31517 50046 56166 31018 30371 54967 32029
20630 /////
88999
77215 32033 406//
31313 48008 80450=
TTCC ///// 10771 NIL=
0000011000
365
UANT99 KDDL 110643
ARP KLM214 5722N03245W 0643 F370 MS58 217/44 KT
PHAOF QXT AOW 110643 J52A
0000011000
366
UANT99 KDDL 110643
ARP AAL54 5025N04332W 0643 F360 MS61 321/60 KT
N185AN DDL XXW 110643 F36A
0000011000
367
UANT99 KDDL 110643
ARP UAL38 5903N01934W 0643 F360 MS54 242/48 KT
N41135 DDL VEY 110643 F76A
0000011000
368
UANT99 KDDL 110643
ARP EIN124 5233N03234W 0643 F370 MS54 212/42 KT
EIEDY DDL XXW 110644 J14A
0000010900
369
UANT99 KDDL 110643
ARP VIR2C 5311N02840W 0643 F380 MS55 215/52 KT
GVROC DDL XXN 110644 F08A
0000011100
370
UANT99 KDDL 110643
ARP FIN1990 5618N03244W 0643 F380 MS56 227/52 KT
OHLQE QXT AOW 110644 J89A
0000011100
371
UANT99 KDDL 110644
ARP BAW2152 4808N01432W 0644 F380 MS54 261/49 KT
GVIIU QXT AOE 110644 F48A
0000011000
372
UANT99 KDDL 110644
ARP DAL89 5555N04113W 0644 F330 MS60 289/31 KT
N172DZ QXT AOW 110644 F50A
00000000