0000015700
433
SSVX13 LFPW 111000
ZZYY 44771 11014 1000/ 754852 023031 6113/ 11119 40023 57023 22219
 00089 444 20130 11014 0900/ 50101 80138 80011 9/015=
0000015700
434
SSVX13 LFPW 111000
ZZYY 16537 11014 1000/ 334998 054659 6113/ 11119 40156 57019 22219
 00193 444 20130 11014 0900/ 50101 80144 80011 9/015=
0000015700
435
SSVX13 LFPW 111000
ZZYY 64606 11014 1000/ 766272 006871 6113/ 11119 40048 52005 22219
 00035 444 20130 11014 0900/ 50101 80134 80029 9/015=
0000015700
436
SSVX13 LFPW 111000
ZZYY 31868 11014 1000/ 529165 031762 6113/ 11119 40219 52009 22219
 00248 444 20130 11014 0900/ 50101 80142 80010 9/015=
0000015700
437
SSVX13 LFPW 111000
ZZYY 62695 11014 1000/ 743196 019517 6113/ 11119 40032 57017 22219
 00135 444 20130 11014 0900/ 50101 80140 80016 9/015=
0000015700
438
SSVX13 LFPW 111000
ZZYY 62553 11014 1000/ 761195 021348 6113/ 11119 40025 52018 22219
 00089 444 20130 11014 0900/ 50101 80140 80003 9/015=
0000015700
439
SSVX13 LFPW 111000
ZZYY 33956 11014 1000/ 544733 042813 6113/ 11119 40021 52006 22219
 00125 444 20130 11014 0900/ 50101 80142 80044 9/015=
0000015700
440
SSVX13 LFPW 111000
ZZYY 16536 11014 1000/ 338569 059184 6113/ 11119 40196 57023 22219
 00170 444 20130 11014 0900/ 50101 80142 80011 9/015=
0000015700
441
SSVX13 LFPW 111000
ZZYY 14512 11014 1000/ 317228 069296 6113/ 11119 40115 57016 22219
 00283 444 20130 11014 0900/ 50101 80136 80003 9/015=
0000015700
442
SSVX13 LFPW 111000
ZZYY 16620 11014 1000/ 337143 122812 6113/ 11119 40228 57005 22219
 00197 444 20130 11014 0900/ 50101 80110 80006 9/015=
0000015700
443
SSVX13 LFPW 111000
ZZYY 16545 11014 1000/ 339723 086074 6113/ 11119 40149 57002 22219
 00143 444 20130 11014 0900/ 50101 80144 80027 9/015=
0000015700
444
SSVX13 LFPW 111000
ZZYY 16619 11014 1000/ 334331 073559 6113/ 11119 40259 57006 22219
 00201 444 20130 11014 0900/ 50101 80150 80008 9/015=
0000015700
445
SSVX13 LFPW 111000
ZZYY 44869 11014 1000/ 728670 024149 6113/ 11119 40192 52020 22219
 00214 444 20130 11014 0900/ 50101 80106 80015 9/015=
0000015700
446
SSVX13 LFPW 111000
ZZYY 64615 11014 1000/ 762127 010978 6113/ 11119 40027 52029 22219
 00091 444 20130 11014 0900/ 50101 80148 80013 9/015=
0000015700
447
SSVX13 LFPW 111000
ZZYY 41636 11014 1000/ 735542 065085 6113/ 11119 40315 57001 22219
 00209 444 20130 11014 0900/ 50101 80086 80002 9/015=
0000015700
448
SSVX13 LFPW 111000
ZZYY 62514 11014 1000/ 762828 012664 6113/ 11119 40008 52025 22219
 00084 444 20130 11014 0900/ 50101 80138 80011 9/015=
0000015700
449
SSVX13 LFPW 111000
ZZYY 33701 11014 1000/ 545170 048276 6113/ 11119 40027 52015 22219
 00137 444 20130 11014 0900/ 50101 80140 80016 9/015=
0000070700
450
SNIY21 LIIB 111000
AAXX 11104
16022 42782 52313 10020 21054 37871 48506 53007 85030 333 55303 85356
      92865 444 86191=
16052 42680 32106 11066 21139 36640 47074 53004 83030 333 55306 83340
      444 36202=
16061 42562 83403 10064 20064 39382 42826 52011 885// 333 55300
      88620=
16098 41730 80000 10076 20054 30182 40234 52010 71022 885// 333
      88650=
16179 42980 31902 10100 20060 39537 42827 51005 80009=
16224 41/00 93503 10060 20037 39908 40234 52014 74544 333 55300
      89/00=
16258 41265 51705 10076 20056 39223 42824 52004 70341 83601 333
      83706=
16344 42870 62512 10074 21099 38352 48532 51012 86050 333 55300 86356
      95000 95100=
0000015700
451
SSVX13 LFPW 111000
ZZYY 16534 11014 1000/ 335051 055126 6113/ 11119 40164 57019 22219
 00196 444 20130 11014 0900/ 50101 80150 80011 9/015=
0000015700
452
SSVX13 LFPW 111000
ZZYY 64607 11014 1000/ 769212 004644 6113/ 11119 40125 52008 22219
 00046 444 20130 11014 0900/ 50101 80134 80023 9/015=
00000000