0000010200
773
SPUS41 KWBC 102119
SPECI
KWRI 102116Z AUTO 02003KT 1 1/4SM BR OVC003 02/02 A3033=

0000012700
774
SPUS42 KWBC 102119
SPECI
KSAV 102115Z 14007KT 1 3/4SM R01/4000VP6000FT -RA BR BKN005 OVC010
21/19 A3012=

0000011000
775
SPUS42 KWBC 102119
SPECI
KSSI 102115Z AUTO 13009KT 10SM FEW005 SCT010 OVC050 18/17 A3011=

0000010500
776
SPCN41 CWAO 102119
SPECI CYGE 102119Z 00000KT 30SM FEW010 BKN075 BKN110 RMK ST1AC4AS1=

0000009200
777
SAIN90 VABB 111010
METAR VABB 111010Z 31012KT 4000 FU NSC 24/08 Q1013 NOSIG=
0000063000
778
SAUK20 EGGY 102120
METAR EGRE 102120Z AUTO 06021KT 9999 RA BKN031/// 05/M02 Q0998
     W///S5=
METAR EGRK 102120Z AUTO 26022KT 9999 FEW015/// SCT034/// 07/03 Q0999
     RESN W///S4=
METAR EGRM 102120Z AUTO 27024KT 9999 NCD 07/05 Q1001 W///S4=
METAR EGRO 102120Z AUTO 26022KT //// // ///////// 08/05 Q1002 W///S4=
METAR EGRP 102120Z AUTO 25016KT 170V290 9999 FEW012/// SCT039///
     ///// Q1003 W///S4=
METAR EGRS 102120Z AUTO 26020KT 9999 SCT035/// 08/06 Q1004 W///S4=
METAR EGRV 102120Z AUTO 23025KT 9999 NCD 08/06 Q1008 W///S4=
METAR EGRW 102120Z AUTO 22023KT 9999 NCD 08/06 Q1010 W///S3=

0000046400
779
SAUK21 EGGY 102120
METAR EGRF 102120Z AUTO 27019KT 9000 FEW011/// SCT018/// 06/02 Q0997
     RERA W///S5=
METAR EGRG 102120Z AUTO 10020KT 9999 BKN016/// 05/01 Q0997 W///S5=
METAR EGRI 102120Z AUTO 24028KT 9999 NCD 08/00 Q0997=
METAR EGRL 102120Z AUTO 26014G25KT 9999 FEW021/// 07/04 Q1000 W///S4=
METAR EGRN 102120Z AUTO 25026KT 9999 SCT011/// BKN023/// 08/06 Q1004=
METAR EGRT 102120Z AUTO /////KT 9999 FEW029/// 07/05 Q1009 W///S3=

0000012100
780
SALV31 EVRA 102120
METAR EVRA 102120Z 31013KT 270V350 9999 -RA OVC007 03/03 Q0993 
R36/290158 NOSIG=

0000015200
781
SAFA31 EKCH 102120
METAR EKVG 102120Z AUTO VRB01KT 9999NDV -SHRA  FEW017/// BKN025///
03/02 Q0995 RMK BKN028/// WIND 850FT 28007KT=

0000011100
782
SALT32 EYVI 102120
METAR EYKA 102120Z 28014KT 250V330 9999 OVC015 03/M00 Q0998
R08/290095=

0000131200
783
SPUS70 KWBC 102120
SPECI
KPYM 102116Z AUTO 18003KT 2 1/2SM BR OVC004 02/01 A3037 RMK AO2
     CIG 002V007 T00220011=
KBDE 102116Z AUTO 17008KT 3/4SM -SN BR OVC007 M04/M05 A2945 RMK
     AO2 P0000 T10391050 TSNO=
KCEU 102116Z AUTO 07004KT 2SM BR OVC005 11/08 A3016 RMK AO2 RAE16
     P0000=
KDVN 102116Z AUTO 15011KT 3SM -RA BR OVC004 02/01 A2961 RMK AO2
     P0004=
KFOE 102116Z 20004KT 6SM BR FEW003 BKN013 OVC025 04/03 A2953 RMK
     AO2 T00440033=
K1B7 102108Z 03003KT 0SM FG OVC002 14/14 A2997 RMK LAST=
KNSE 102110Z 11004KT 2SM -DZ OVC002 16/14 A3002 RMK AO2 P0000
     T01560144 $=
PAMB 102117Z AUTO 04008KT 9SM FEW006 OVC015 M04/M04 A2944 RMK AO2
     TSNO $=
KDCA 102117Z 05006KT 1 1/2SM R01/6000FT -RA BR OVC006 03/02 A3032
     RMK AO2 P0002=
KDIJ 102117Z AUTO 20006KT 10SM OVC027 M01/M07 A2988 RMK AO2=
KEVW 102117Z AUTO 26023G30KT 10SM FEW020 BKN029 OVC041 M01/M06
     A2995 RMK AO2 PK WND 26030/2117 SNB2056E11 P0000
     T10111056=
KINT 102117Z 02004KT 2SM -RA BR OVC003 04/03 A3023 RMK AO2
     P0001=
KLNS 102117Z 00000KT 3SM BR OVC009 02/00 A3031 RMK AO2=
KOSU 102117Z 14008KT 1SM BR OVC007 06/05 A3001 RMK AO2
     T00610050=
KOVS 102117Z AUTO VRB04KT 1SM -RA BR OVC006 01/M01 A2962 RMK AO2
     RAB04 P0000 T00111006=

0000010600
784
SPUS43 KWBC 102120
SPECI
KBDE 102116Z AUTO 17008KT 3/4SM -SN BR OVC007 M04/M05 A2945=

0000010100
785
SACA33 KWBC 102100 RRD
METAR
TNCC 102100Z 10009KT 9999 FEW024 27/22 Q1012 NOSIG=

0000012200
786
SAEO31 EETN 102120
METAR EETN 102120Z 35009KT 9999 -SN OVC009 00/M01 Q0991 R08/290195 
TEMPO 2000 SN=

0000033500
787
SASW31 LSSW 102120
METAR LSZH 102120Z 00000KT 2000 0500N R14/1000U R16/0450D R28/P2000N
    R34/P2000N PRFG FEW002 00/M00 Q1019 BECMG 0400 VV001=
METAR LSGG 102120Z 00000KT CAVOK 03/02 Q1019 NOSIG=
METAR LSZB 102120Z 00000KT CAVOK M01/M01 Q1019 NOSIG=
METAR LSZA 102120Z AUTO VRB01KT 9999 OVC042 08/07 Q1021=

0000021700
788
FTCN33 CWAO 102100 AAA
TAF AMD CYTE 102121Z 1021/1107 28018KT P6SM BKN012 TEMPO 1021/1101
     5SM -SN BLSN
    FM110100 27010KT P6SM SCT012 TEMPO 1101/1107 BKN012
    RMK NXT FCST BY 110100Z=

0000019300
789
FCEE31 LOWM 102000 CCA
TAF COR UAII 102122Z 1021/1107 VRB01MPS 5000 FU BR BKN100
     TEMPO 1007/1004 14004MPS 2000
     TEMPO 1104/1107 18003G08MPS 7000 SCT050CB BKN100=

0000645300
790
UGIN50 VECC 110000
PPBB 61008 42182 90/12 00000 34019 34527 90345 33018 32018 33519
     90789 32517 33012 01008 91023 33521 32020 32015 91456 30010
     31532 30044 9179/ 29046 29554 9209/ 29054 29091 9336/ 29137
     28617 94036 28640 28123 27626 948// 28116 9534/ 26578 27586
    =
PPBB 11001 42314 NIL=
PPBB 61008 42339
90/23 00000 01014 35514 90457 01515 34517 35019 
91024 35014 35020 32534 9238/ 31061 30123 938//
28624 9417/ 28644 27119 9523/ 28095 28070=
PPBB 61023 42348
90023 00000 01006 02016 907// 33012 9125/ 27016 30544=
PPBB 11001 42361 NIL=
PPBB 11001 42369 NIL=
PPBB 11001 42379 NIL=
PPBB 11001 42397 NIL=
PPBB 11001 42410 NIL=
PPBB 11001 42475 NIL=
PPBB 61008 42492 90/12 36000 08516 07509 90345 06506 03506 04007
     90678 07505 12002 21503 909// 29502 91012 25007 26014 24525
     91345 24030 24036 25039 91678 25544 25552 26057 919// 26058
     92012 25557 25553 25553 92345 25553 26051 26551 92678 26565
     27081 27080 929// 27592 93012 28120 28131 28130 93345 27633
     27633 27633 93678 27629 27637 27642 939// 27641 94012 27145
     27145 26649 94345 27146 27143 27638 94678 28129 28109 28595
     949// 27581 95012 27079 25579 25077 90012 36000 08516 07509
     90345 06506 03506 04007 90678 07505 12002 21503 909// 29502
     9101/ 25007 26014 91234 24525 24030 24036 91567 25039 25544
     25552 9189/ 26057 26058 920// 25557 92123 25553 25553 25553
     92456 26051 26551 26565 92789 27081 27080 27592 93012 28120
     28131 28130 93345 27633 27633 27633 93678 27629 27637 27642
     939// 27641 9401/ 27145 27145 94234 26649 27146 27143 94567
     27638 28129 28109 9489/ 28595 27581 950// 27079 9512/ 25579
     25077=
PPBB 11001 42498 NIL=
PPBB 11001 42591 NIL=
PPBB 11001 42623 NIL=
PPBB 61008 42647 90012 31504 01520 01019 90345 01016 02018
01517 90678 01013 30011 29521 909// 28027 91012 29029 28531 
28031 91345 29532 30535 30539 91678 30546 30055 29552 919// 
29547 92012 31048 31049 30051 92345 31063 30578 30582 92678 
29584 29084 29083 929// 29079 93012 28579 28577 28077 93345 
28579 28582 28578 93678 27572 27072 27574 939// 27576 94012 
28078 27577 27578 94345 27576 27578 27080 94678 27078 26581 
26580 949// 26079 95012 25582 27081 28081 95345 28074 27071 
27566=
PPBB 61008 42667 90/12 05004 ///// 04506 90345 01508 34010
25511 90678 23027 23031 23531 909// 23538 91012 24035 25040 
25543 91345 26047 26547 27049 91678 28052 29052 28555 919// 
28555 92012 28563 29059 30565 92345 30582 30087 30093 92678 
29594 29593 29090 929// 28590 93012 28588 28589 29089 93345 
28589 28593 28092 93678 28094 28095 27595 939// 27594 94012 
27594 27096 27097 94345 26600 26601 26102 94678 26099 25598 
26101 949// 27096 95012 28089 28584 28075 95345 27569 27062 
26559=
PPBB 11001 42675 NIL=
PPBB 61011 42706 90012 00000 01005 01506 9034/ 03009 03009=
PPBB 11001 42724 NIL=
PPBB 11001 42798 NIL=
PPBB 61008 42809 90012 00000 06506 02007 90345 22503 15503 14003
     90678 14505 22513 22015 909// 21518 91012 22020 24527 25529
     91345 25539 25042 24542 91678 25042 24545 24547 919// 25043
     92012 26051 26056 26558 92345 26553 28060 28575 92678 29098
     28597 27593 929// 27594 93012 27094 27093 27093 93345 27097
     27100 27098 93678 26598 26098 26598 939// 26598 94012 26097
     25597 26097 94345 26599 26099 25597 94678 25595 26584 27579
     949// 28073 95012 27562 26051 26051 95345 25552 26556 26057
    =
PPBB 11001 42867 NIL=
PPBB 11001 42875 NIL=
PPBB 11001 42909 NIL=
PPBB 61008 42971
90/12 04002 17508 20007 90345 16508 19511 22510 90678 
24011 24509 27515 909// 27516 91012 27519 26523 26524 
91345 26028 25527 25035 91678 25033 25036 26543 919// 
27544 92012 27049 26547 27548 92345 29057 30072 29572 
92678 29572 28567 28568 929// 28069 93012 28069 28071 
27572 93345 27573 27572 27069 93678 26568 27068 27069 
939// 26573 94012 26572 26071 25568 94345 25566 26069 
26570 94678 26070 26070 26565 949// 27052 95012 28050 
29048 28540 95345 27036 26036 25035=
PPBB 61023 43003
90012 36003 01009 00510 9037/ 33506 27511 9125/ 30020
30528 920// 31043=
PPBB 11001 43014 NIL=
PPBB 61011 43049
90012 31504 30002 24001 9037/ 19003 20010 9125/ 27516
26519=
PPBB 60231 43110 90012 36006 35015 32008 9037/ 32508 26513 9123/
     35512 23514=
PPBB 61008 43128
90012 00000 ///// 13008 90345 14522 14514 31503 90678 
29511 29015 28017 909// 27519 91012 25518 24518 25519 
91345 26024 26023 28024 91678 30026 30535 29536 919// 
30529 92012 32034 31540 31538 92345 30535 29533 29535 
92678 31036 31540 31044 929// 30038 93012 28535 27533 
26032 93345 26034 27540 27544 93678 27546 28545 28550 
939// 28048 94012 27548 27041 26035 94345 27037 27033 
25029 94678 26030 26030 25531 949// 25536 95012 25038 
26038 26535 95345 28033 28028 25524=
PPBB 61008 43150
90012 31504 07003 10003 90345 09503 31500 18007 90678 
22008 21019 23019 909// 23020 91012 24017 26516 26022 
91345 24527 25027 25026 91678 26528 28030 28533 919// 
28030 92012 30534 31045 30042 92345 29039 29039 29041 
92678 29041 30043 30043 929// 30551 93012 29547 29042 
28038 93345 27537 26535 25534 93678 26537 27546 27547 
939// 27547 94012 27043 28045 27542 94345 26539 27039 
27541 94678 27542 27041 27043 949// 26543 95012 27043 
26538 26031 95345 27529 26022 23524=
PPBB 11001 43185 NIL=
PPBB 11001 43237 NIL=
PPBB 61008 43279
90012 00000 08508 08511 90345 08510 04006 08007 90678 
10009 14007 14507 909// 15008 91012 17009 17510 15008 
91345 14002 33010 32512 91678 32010 34011 32509 919// 
33513 92012 34023 36025 35031 92345 34524 34523 34517 
92678 33010 33006 33511 929// 34014 93012 34516 35515 
01008 93345 01004 35003 30006 93678 29508 28005 26006 
939// 27011 94012 26511 25511 25005 94345 28508 27509 
25010 94678 24512 24013 26013 949// 28020 950// 29518=
PPBB 11001 43295 NIL=
PPBB 61008 43353
90012 00000 12506 16006 90367 14507 06013 10509 91045
14009 02514 00523 919// 05514 9229/ 02527 08511 93456
03007 35004 15002 9389/ 12504 01501 94016 34502 13501
00502 947// 29004 95012 28004 36006 34507 9534/ 34509
00506=
PPBB 61008 43371
90012 04506 25002 25001 90345 13004 11004 11002 90678 
16506 12012 12513 909// 10514 91012 09515 08513 07009 
91345 07509 04019 03522 91678 03025 04521 05522 919// 
05526 92012 04527 05525 05020 92345 05524 04524 04025 
92678 05518 06516 06520 929// 05517 93012 07515 06515 
06015 93345 05512 06508 05506 93678 07005 06505 11003 
939// 11505 94012 08004 12005 13512 94345 13520 13526 
13027 94678 12018 09014 05008 949// 02003 95012 00511 
31507 35514 95345 32513 31007 25006=

0000025200
791
SAPA31 KWBC 102100 RRC
METAR
PKWA 102120Z AUTO 06016G21KT 10SM SCT026 SCT045 28/22 A2984 RMK
     AO2 T02840215=
PTYA 102055Z 07009G18KT 12SM SCT016TCU BKN130 OVC300 27/24 A2981
     RMK TCU VC W SLP095 8/272 T02720240 52014=

0000019800
792
SALV32 EVRA 102120
METAR EVLA 102120Z AUTO 30009G19KT 270V330 9999 SCT015 BKN023 OVC033 
03/00 Q1000=
METAR EVVA 102120Z AUTO 32016KT 9999 SCT014 BKN025 OVC038 03/02 
Q0998=

00000000