0000010800
653
SPUS41 KWBC 102112
SPECI
KBVY 102108Z 16004KT 5SM BR FEW009 BKN050 OVC085 01/M01 A3036=

0000010500
654
SAAG31 KWBC 102100 RRA
METAR
SABE 102100Z 05006KT 9999 SCT030 SCT045TCU 29/21 Q1006=

0000073500
655
SABZ41 KWBC 102100 RRA
METAR
SBAF 102100Z 15002KT 9999 FEW025 32/21 Q1014=
SBBH 102100Z 08011KT 9999 SCT030 FEW035TCU 27/17 Q1015=
SBBI 102100Z 32004KT 9999 SCT030 FEW035TCU 30/15 Q1015=
SBBU 102100Z 12007KT 9999 VCSH SCT045 FEW050TCU SCT070 31/22 Q
     1012=
SBCO 102100Z 21004KT 9999 TS VCSH BKN047 FEW050CB BKN080 25///
     Q1012=
SBDN 102100Z 09007KT 9999 FEW050TCU 32/16 Q1009=
SBGW 102100Z 03003KT 9999 BKN030 26/19 Q1013=
SBHT 102100Z 11003KT 9999 SCT020 BKN100 28/23 Q1008=
SBIH 102100Z 17003KT 9999 FEW022 FEW023TCU 28/22 Q1008=
SBIL 102100Z 08006KT 8000 VCSH SCT015 SCT025TCU BKN090 25/23 Q1
     013=
SBIL 102100Z 08006KT 8000 VCSH SCT015 SCT025TCU BKN090 25/23
     Q1013=

0000096400
656
SABZ42 KWBC 102100 RRB
METAR
SBJR 102100Z 14010KT 9999 FEW030TCU 31/23 Q1010=
SBME 102100Z 08014KT CAVOK 26/23 Q1013=
SBMN 102100Z 28005KT 9999 VCSH BKN025 FEW030TCU BKN100 27/23
     Q1008=
SBMT 102100Z 16008KT 8000 -TSRA SCT045 FEW050CB BKN100 23/19
     Q1015=
SBPC 102100Z 05002KT 9999 FEW020 28/18 Q1018=
SBSC 102100Z 15005KT 9999 FEW030 31/20 Q1010=
SBSM 102100Z 12010KT 5000 TSRA BKN007 SCT030 FEW040CB BKN100 22
     /21 Q1012=
SBSM 102100Z 12010KT 5000 TSRA BKN007 SCT030 FEW040CB BKN100 22/21
     Q1012=
SBST 102100Z 14004KT 9999 SCT025 SCT070 30/24 Q1010=
SBTU 102100Z 00000KT 9999 FEW020 SCT070 25/25 Q1010=
SBUR 102100Z 12012KT 9999 -TSRA FEW030 FEW050CB OVC100 21/16
     Q1015=
SBVH 102100Z 33005KT 9999 -TSRA SCT015 FEW020CB BKN090 22/21 Q1
     011=
SBVH 102100Z 33005KT 9999 -TSRA SCT015 FEW020CB BKN090 22/21
     Q1011=
SBYS 102100Z 12004KT 9999 FEW040 FEW045TCU BKN080 28/18 Q1013=

0000010500
657
SABZ42 KWBC 102100 CCA
METAR
SBPP 102100Z 00000KT 9999 SCT025 FEW030TCU 28/19 Q1011=

0000108700
658
SABZ43 KWBC 102100 RRA
METAR
SBAN 102100Z 30002KT 4000 -TSRA FEW009 SCT030 FEW040CB 20/17
     Q1015=
SBAN 102100Z 30002KT 4000 -TSRA FEW009 SCT030 FEW040CB 20/17 Q1
     015=
SBAT 102100Z 00000KT 9999 FEW022 30/22 Q1008=
SBBQ 102100Z 10009KT CAVOK 25/16 Q1019=
SBBW 102100Z 00000KT 9999 SCT020 BKN100 24/19 Q1010=
SBES 102100Z 07018KT 9999 FEW010 27/22 Q1012=
SBIZ 102100Z 23004KT 9999 FEW017 SCT030 30/23 Q1008=
SBJF 102100Z 10002KT 9999 SCT025 26/19 Q1017=
SBKG 102100Z 11010KT CAVOK 28/18 Q1013=
SBLP 102100Z 12005KT 9999 SCT030 BKN100 28/21 Q1011=
SBMK 102100Z 08009KT CAVOK 28/15 Q1014=
SBMS 102100Z 03011KT 9999 FEW025 29/23 Q1009=
SBPJ 102100Z 09003KT 9999 FEW020 SCT040 24/20 Q1010=
SBPN 102100Z 03005KT CAVOK 24/22 Q1009=
SBQV 102100Z 12010KT 9999 FEW020 BKN070 23/18 Q1017=
SBRP 102100Z 06004KT 9999 -TSRA FEW040 FEW045CB BKN080 23/19
     Q1013=
SBTK 102100Z 02004KT 9999 FEW025 FEW030TCU SCT100 29/24 Q1007=
SBUF 102100Z 09012KT 9999 SCT020 32/19 Q1011=
SBUL 102100Z 06007KT 9999 -RA FEW045TCU 23/17 Q1015 RETS=

0000010200
659
SACA31 KWBC 102100 RRB
METAR
MYGF 102110Z 15008KT 9999 SCT015 BKN200 26/22 A3009=

0000017700
660
SACA33 KWBC 102100 RRC
METAR
TLPL 102100Z 07013KT 9999 FEW023 27/21 Q1014 NOSIG=
TNCM 102100Z 07013KT 050V110 9999 FEW019 27/19 Q1016 A3002 NOSI
     G=

0000018500
661
FTFR32 LFPW 101700 AAA
TAF AMD LFRB 102107Z 1021/1124 18006KT 1000 BR SCT005 BKN020 TEMPO
1021/1106 0500 FG BKN001 BECMG 1106/1109 BKN030 BECMG 1109/1112
08012KT=

0000051900
662
FTUS31 KWBC 102109 AAA
TAF AMD
KDEN 102107Z 1021/1124 30018G28KT P6SM FEW080 SCT120 SCT200
     FM110100 27010KT P6SM FEW100 SCT140 BKN200
     FM110300 24011KT P6SM SCT140 BKN200
     FM111600 28014G22KT P6SM FEW090 SCT120 BKN180=
KPHX 102108Z 1021/1118 27005KT P6SM FEW250
     FM110500 10005KT P6SM FEW250=
KPIT 102106Z 1021/1124 15005KT P6SM BKN015 OVC025
     FM110900 18010KT 5SM -RA OVC015
     FM111300 18010KT 4SM -RA OVC009
     FM111800 20009KT P6SM VCSH BKN015 OVC025=

0000085000
663
FTUS71 KWBC 102109 AAA
TAF AMD
KACY 102106Z 1021/1118 13004KT 1 1/2SM -SHRA BR BKN003 OVC025
      TEMPO 1021/1024 3SM BR SCT003 BKN025
     FM110200 16007KT 1SM BR BKN005 OVC015
     FM110600 16010KT 2SM -RA BR BKN004 OVC010 WS020/19050KT
     FM111500 18015KT 1SM RA BR BKN003 OVC010 WS020/21050KT=
KAND 102106Z 1021/1118 06006KT 3SM BR OVC006
      TEMPO 1021/1024 2SM -RADZ BR OVC003
     FM110000 03005KT 1SM -RADZ BR OVC003
     FM110600 04003KT 2SM SHRA BR OVC004 WS020/20030KT
     FM111500 14005KT 4SM SHRA BR OVC005 WS020/20045KT=
KLBE 102106Z 1021/1118 13004KT P6SM BKN015 OVC025
     FM110800 18008KT 6SM -RA OVC015=
KPIT 102106Z 1021/1124 15005KT P6SM BKN015 OVC025
     FM110900 18010KT 5SM -RA OVC015
     FM111300 18010KT 4SM -RA OVC009
     FM111800 20009KT P6SM VCSH BKN015 OVC025=

0000041500
664
FTUS73 KWBC 102109 AAA
TAF AMD
KCMX 102107Z 1021/1118 18009KT P6SM SCT030
     FM102300 18009KT P6SM BKN030
     FM110400 16005KT 5SM -SN BKN015
     FM111400 28010KT P6SM BKN020=
KDEN 102107Z 1021/1124 30018G28KT P6SM FEW080 SCT120 SCT200
     FM110100 27010KT P6SM FEW100 SCT140 BKN200
     FM110300 24011KT P6SM SCT140 BKN200
     FM111600 28014G22KT P6SM FEW090 SCT120 BKN180=

0000013100
665
FTUS74 KWBC 102109 AAA
TAF AMD
KPHX 102108Z 1021/1118 27005KT P6SM FEW250
     FM110500 10005KT P6SM FEW250=

0000035300
666
FTUS75 KWBC 102109
TAF
TAF AMD PAED 1021/1202 VRB06KT 9999 BKN002 OVC009 620109
      QNH2920INS
      TEMPO 1021/1103 3200 -SN BR SCT002 OVC005
      BECMG 1114/1115 VRB06KT 9999 BKN005 OVC010 620105
      QNH2912INS
      BECMG 1200/1201 VRB06KT 9999 OVC010 QNH2907INS
      TXM02/1102Z
      TNM11/1110Z AMD 102105=

0000008800
667
SPCN51 CWAO 102106
SPECI CWOB 102106Z AUTO 16002KT OVC013 M19/ A2912=

0000017300
668
SAUS72 KWBC 102100 RRD
METAR
TJPS 102050Z 11010G15KT 10SM FEW030 30/22 A3000=
TNCM 102100Z 07013KT 050V110 9999 FEW019 27/19 Q1016 A3002
     NOSIG=

0000081700
669
SACI41 ZBBB 102100
METAR ZBHH 102100Z 05002MPS CAVOK M20/M26 Q1027 NOSIG=
METAR ZGHA 102100Z 01002MPS 1700 -RA BR SCT003 BKN006 OVC033
05/04
Q1028 NOSIG=
METAR ZHCC 102100Z 28002MPS 1200 R12/1300V1400N BR NSC
M01/M03
Q1032 NOSIG=
METAR ZHHH 102100Z 03002MPS 350V060 3500 -RA BR SCT015 03/02 Q1030
NOSIG=
METAR ZJHK 102100Z 06002MPS 6000 SCT033 17/16 Q1020 NOSIG=
METAR ZJSY 102100Z 06004MPS 9999 BKN066 21/16 Q1019 NOSIG=
METAR ZLLL 102100Z VRB01MPS CAVOK M18/M25 Q1026 NOSIG=
METAR ZSNJ 102100Z 06003MPS 4000 BR NSC 04/00 Q1031 NOSIG=
METAR ZSOF 102100Z 06003MPS 2500 BR NSC 03/00 Q1030 NOSIG=
METAR ZUCK 102100Z 00000MPS 4000 BR FEW030 06/04 Q1026 NOSIG=
METAR ZYCC 102100Z 23004MPS CAVOK M18/M24 Q1026 NOSIG=
METAR ZYHB 102100Z 26003MPS CAVOK M20/M24 Q1024 NOSIG=

0000028700
670
FTPA31 KWBC 102109
TAF
PGRO 102106Z 1021/1118 06014KT P6SM VCSH SCT015 SCT120
     FM110000 06015KT P6SM VCSH SCT015 SCT120
     FM110800 06011KT P6SM VCSH FEW020=
PGWT 102106Z 1021/1118 06016KT P6SM VCSH SCT020 SCT120
     FM110800 06011KT P6SM VCSH FEW020=

0000028700
671
FTPQ31 KWBC 102109
TAF
PGRO 102106Z 1021/1118 06014KT P6SM VCSH SCT015 SCT120
     FM110000 06015KT P6SM VCSH SCT015 SCT120
     FM110800 06011KT P6SM VCSH FEW020=
PGWT 102106Z 1021/1118 06016KT P6SM VCSH SCT020 SCT120
     FM110800 06011KT P6SM VCSH FEW020=

0000084300
672
FTUS51 KWBC 102109 AAA
TAF AMD
KACY 102106Z 1021/1118 13004KT 1 1/2SM -SHRA BR BKN003 OVC025
      TEMPO 1021/1024 3SM BR SCT003 BKN025
     FM110200 16007KT 1SM BR BKN005 OVC015
     FM110600 16010KT 2SM -RA BR BKN004 OVC010 WS020/19050KT
     FM111500 18015KT 1SM RA BR BKN003 OVC010 WS020/21050KT=
KAND 102106Z 1021/1118 06006KT 3SM BR OVC006
      TEMPO 1021/1024 2SM -RADZ BR OVC003
     FM110000 03005KT 1SM -RADZ BR OVC003
     FM110600 04003KT 2SM SHRA BR OVC004 WS020/20030KT
     FM111500 14005KT 4SM SHRA BR OVC005 WS020/20045KT=
KHLG 102107Z 1021/1118 16007KT P6SM BKN025
     FM110800 18008KT 5SM -RA OVC015
     FM111300 18012KT 2SM -RA OVC009
     FM111700 22012KT P6SM VCSH BKN015 OVC025=
KLBE 102106Z 1021/1118 13004KT P6SM BKN015 OVC025
     FM110800 18008KT 6SM -RA OVC015=

00000000