0000029500
973
SXHW11 KWAL 110606
B1507246 011060602"
1,140111,05:00:00,13.6,59,17.8,20.7,1015.1,13.07,13.0,
1,140111,05:15:00,13.5,56,17.1,20.6,1015.2,13.07,13.0,
1,140111,05:30:00,13.3,51,17.9,20.3,1015.3,13.07,13.0,
1,140111,05:45:00,13.4,54,19.6,20.3,1015.5,13.07,13.0, 42-0NN 210W
0000040300
974
SABN31 OBBI 110600
METAR OBBI 110600Z 20005KT 9999 -RA SCT020 16/13 Q1021 TEMPO 5000
SCT010=
METAR OEDF 110600Z 18013KT 9999 SCT040 BKN090 16/11 Q1021 NOSIG=
METAR OEDR 110600Z 25005KT 9999 SCT040 BKN080 16/12 Q1019 NOSIG=
METAR OTBD 110600Z 03003KT 360V150 7000 -RA FEW015 SCT100 OVC120
17/15 Q1021 NOSIG=
METAR OKBK 110600Z 00000KT 3000 -RA FEW040 OVC080 12/11 Q1019 NOSIG=
0000047700
975
SZPA01 AMMC 110606
CREX++
T000103 A001 D01021 D06025++
0136250 17293000 67590 2014 01 11 05 59 3017 11 07 00 01
01542 -0011 01537 -0013 01537 -0009 01529 -0014 01533 -0007 01520 -0016+
0710610 17137250 67680 2014 01 11 05 59 3013 11 07 00 01
01008 0104 01005 0104 01014 0116 01007 0111 01000 0107 01007 0116+
0698060 15820000 67950 2014 01 11 05 59 3023 11 07 00 01
00774 0002 00771 0001 00764 -0004 00764 -0001 00760 -0004 00760 -0001++
7777

0000179300
976
SZPS01 AMMC 110606
CREX++
T000103 A001 D01021 D06025++
-0204190 14737360 56130 2014 01 11 05 59 3028 11 07 00 01
01116 0077 01113 0075 01108 0071 01108 0072 01108 0074 01103 0070+
-0669280 15640860 56363 2014 01 11 05 59 //// 11 07 00 01
00707 -0094 00706 -0092 00705 -0091 00702 -0092 00703 -0088 00698 -0091+
-0942890 15995560 56670 2014 01 11 05 59 3043 11 07 00 01
00827 -0054 00829 -0051 00827 -0052 00824 -0055 00828 -0049 00823 -0054+
-1072080 16580190 57131 2014 01 11 05 59 //// 11 07 00 01
03381 2652 03381 2656 03381 2659 03381 2662 03380 2665 03381 2669+
-1551560 16718860 57210 2014 01 11 05 59 //// 11 07 00 01
00957 -0073 00960 -0067 00945 -0078 00935 -0084 00926 -0089 00946 -0065+
-1775690 16830030 57320 2014 01 11 05 59 3015 11 07 00 01
01041 -0056 01032 -0062 01025 -0066 01018 -0070 01013 -0071 01008 -0073+
-4397330 16861610 65180 2014 01 11 05 59 2888 11 07 00 01
02078 0344 02100 0362 02106 0364 02099 0352 02114 0362 02109 0353+
-2120470 -15978530 65980 2014 01 11 05 59 3013 11 07 00 01
00738 0043 00691 -0002 00685 -0006 00691 0002 00722 0034 00692 0006+
-2113810 -17518140 66600 2014 01 11 05 59 //// 11 07 00 01
01240 0099 01237 0101 01227 0095 01228 0101 01217 0094 01213 0095+
-1382670 -17176110 66840 2014 01 11 05 59 3012 11 07 00 01
00775 0048 00779 0055 00769 0048 00764 0046 00764 0049 00758 0046+
-1813250 17842750 67050 2014 01 11 05 59 3032 11 07 00 01
01421 0095 01422 0100 01417 0100 01418 0106 01408 0100 01401 0099+
-1760530 17743810 67070 2014 01 11 05 59 3033 11 07 00 01
01462 0022 01457 0022 01452 0022 01446 0022 01440 0021 ///// ////+
-0850250 17919500 67440 2014 01 11 05 59 3030 11 07 00 01
01968 -0005 01973 0004 01968 0004 01957 -0003 01953 -0003 01948 -0004++
7777

0000191300
977
SZAU01 AMMC 110606
CREX++
T000103 A001 D01021 D06025++
-1927750 14705860 59260 2014 01 11 05 59 3030 11 07 00 01
01961 0213 01973 0219 01978 0218 01988 0222 01989 0217 01999 0222+
-2316110 15079000 59670 2014 01 11 05 59 3002 11 07 00 01
02725 0098 02729 0093 02745 0099 02751 0096 02764 0100 02769 0094+
-3447330 15091170 60420 2014 01 11 05 59 2950 11 07 00 01
01041 -0010 01045 -0008 01044 -0010 01042 -0014 01032 -0025 01030 -0029+
-4105000 14591500 60910 2014 01 11 05 59 2893 11 07 00 01
01312 -0017 01320 -0019 01328 -0022 01334 -0026 01350 -0022 01356 -0025+
-4254640 14793080 61170 2014 01 11 05 59 2895 11 07 00 01
01233 0058 01235 0058 01242 0064 01238 0059 01248 0068 01250 0068+
-3834390 14161360 61410 2014 01 11 05 59 2905 11 07 00 01
00382 0000 00397 0014 00420 0036 00424 0039 00420 0034 00407 0019+
-3214890 13364170 62000 2014 01 11 05 59 2963 11 07 00 01
01089 0174 01094 0177 01094 0174 01097 0174 01099 0174 01104 0176+
-3387080 12189720 62080 2014 01 11 05 59 2948 11 07 00 01
00797 0104 00807 0113 00790 0096 00802 0108 00795 0100 00802 0107+
-3182560 11573860 62237 2014 01 11 05 59 2970 11 07 00 01
00861 0093 00859 0090 00862 0092 00862 0091 00868 0096 00862 0089+
-2422000 11339750 62385 2014 01 11 05 59 //// 11 07 00 01
01089 -0119 01124 -0086 01142 -0070 01169 -0044 01163 -0052 01130 -0086+
-2181670 11419110 62430 2014 01 11 05 59 //// 11 07 00 01
01692 -0036 01702 -0028 01708 -0024 01702 -0032 01697 -0040 01703 -0036+
-1800080 12221830 62650 2014 01 11 05 59 3043 11 07 00 01
05127 0161 05133 0156 05139 0157 05146 0158 05152 0153 05159 0154+
-1247190 13084580 63230 2014 01 11 05 59 3050 11 07 00 01
05553 0128 05554 0131 05555 0132 05556 0135 05557 0138 05556 0138+
-1386000 13641580 63511 2014 01 11 05 59 3045 11 07 00 01
01509 0066 01512 0068 01514 0069 01518 0071 01520 0072 01522 0073++
7777

0000034200
978
SZIO01 AMMC 110606
CREX++
T000103 A001 D01021 D06025++
-1211670 09689190 46280 2014 01 11 05 59 3013 11 07 00 01
01234 0059 01235 0058 01233 0055 01236 0056 01233 0052 01236 0053+
-1042940 10566940 46290 2014 01 11 05 59 //// 11 07 00 01
01216 0048 01189 0019 01277 0104 01153 -0022 01283 0106 01183 0003++
7777

0000011200
979
SIRA25 RUNW 110300 CCC
AAXX 11031
30309 41997 81602 11168 21187 39787 40343 58010 77172 80007=
0000045400
980
SMQB50 LQSM 110600
AAXX 11061
14543 NIL=
14549 16/// /1902 10037 2//// 39816 40239 53005 60002 70000 333 20037
3/002 55000 70000=
14554 11810 20000 10054 20045 39945 40227 56005 60003 71044 82040 333
10110 20040 31002 55008 70013 82357=
14650 11408 82301 10044 20036 39129 48554 52005 60003 74642 885// 333
10081 20042 31002 55013 70000 88617=
14657 16/// /1400 10095 21015 30217 40217 52009 60002 333 20081 3////
70000=
0000006700
981
UPIN90 VOTV 110600
PPAA 61051 43371 55192 27503=

0000011000
982
SMIN90 VOMM 110600
AAXX 11064
43081 32597 20902 10260 20181 39722 40150 82500
  333 58010=
0000017000
983
FCIN90 VOVZ 110600
TAF VOVZ 110600Z 1109/1118 11010KT 5000 HZ SCT018 
BECMG 1111/1112 4000 HZ
BECMG 1113/1114 3000 BR 
BECMG 1114/1115 VRB02KT 2000 BR = 

0000009200
984
SAIN90 VOCI 110600
METAR VOCI 110600Z 18003KT 5000 HZ NSC 30/20 Q1013 NOSIG=
0000008700
985
UPIN90 VECC 110600
PPAA 61051 42809
     55392 01003 00002 34006 77999=
0000058200
986
SMQB40 LQSM 110600
AAXX 11061
14528 12770 23401 10070 20051 39923 40224 54000 60003 82100 333 10134
20065 30005 55001 70000 82850=
14537 11605 20000 10023 20021 30026 40223 54000 60003 74644 82400 333
10092 20023 31001 55008 70000 82643=
14544 12665 70000 10010 21005 39566 40253 56001 60003 87500 333 10122
20005 31102 55001 70000 87643=
14557 11958 20202 10048 20041 39867 40241 54000 60002 710// 82030 333
10099 20044 31002 55023 70001 82360=
14640 11/01 90000 10042 20036 39399 48542 53006 60003 74544 333 10076
20040 31002 55000 70000 89///=
0000037200
987
SMQB15 LQSM 110600
AAXX 11061
14648 12665 72701 10082 20072 30113 40234 53002 60002 82570 333 20080
31008 55003 70000 82646 87461=
14652 12382 82309 11005 21021 37953 48517 54000 60002 885// 333 21015
3//// 42009 55032 70000 88606=
14542 11650 60000 10052 20042 30033 40227 54000 60002 71022 84570 333
20052 31004 55001 70000 84640 82458 95910=
0000014400
988
SMQB10 LQSM 110600
AAXX 11061
14654 12770 71201 10057 20025 39476 40228 52003 60002 87500 333 20055
30004 55034 70000 87650=
0000014800
989
SMFI01 EFKL 110600 RRW
AAXX 11061
02805 37780 72701 11288 21316 30051 40201 54002 70000 87/// 90600
333 11287 21318 3/132 4/044=
0000014800
990
SMFI01 EFKL 110600 RRX
AAXX 11061
02835 37260 71101 11248 21276 30026 40198 53003 785// 86/// 90600
333 11248 21286 3/129 4/033=
0000242600
991
SMFI02 EFKL 110600
AAXX 11061
02790 47215 83303 11010 21012 39962 49990 54001 77187 88/// 90539
333 10005 21010 3////=
02807 47156 82402 11290 21320 39993 40201 700// 88/// 90600 
333 11287 21326 3////=
02823 37980 03201 11335 21365 39866 40206 52004 700// 
333 11182 21339 3/137 4/056=
02862 47860 50410 11154 21198 30098 40103 52010 70072 85/// 90539
333 11118 21154 3////=
02863 46/// /0513 11127 21170 30069 40091 52012 90539 
333 11098 21131 3////=
02873 47761 80609 11132 21167 30076 40085 52013 77770 81/// 90600
333 11106 21133 3////=
02897 47483 50507 11139 21163 39860 40053 700// 85/// 90600 
333 11099 21139 3////=
02907 46/// /0614 11091 21106 30051 40058 52008 90600 
333 11066 21094 3////=
02910 NIL=
02913 47458 80506 11087 21111 39965 40019 771// 88/// 
333 11065 21087 3////=
02917 47559 83604 11097 21116 39887 40015 771// 88/// 90600 
333 11069 21097 3////=
02920 46/// /0608 11091 21113 30011 40036 52005 90539 
333 11064 21095 3////=
02944 47375 80403 11049 21057 39847 49997 700// 88/// 90600 
333 11023 21049 3////=
02947 17/72 ///// 11068 21089 39861 49989 52016 69922 778// 90600
333 11057 21069 3//// 4/998=
02958 47475 83606 11064 21087 39834 49968 785// 88/// 90600 
333 11038 21065 3////=
02963 37282 80302 11043 21051 39860 49992 52010 70084 88/// 
333 11010 21043 3/104 4/002=
02965 47483 80103 11051 21068 39884 49983 52016 70074 88/// 90539
333 11024 21051 3/105 4/998=
02967 47429 73508 11040 21047 39953 49959 52020 77187 87/// 90539
333 10003 21040 3////=
02974 32399 83606 11040 21055 39922 49989 52019 700// 88/// 
333 11004 21041 3/104=
02976 46/// /3508 11041 21047 39950 49966 52021 90539 
333 10002 21042 3////=
02979 46/// /3003 10000 21011 39980 40000 57002 90539 
333 10016 21003 3////=
02980 47357 70102 11007 2//// 39985 49998 57002 77187 87/// 90539
333 10010 21008 3////=
02982 46/// /3105 11009 21024 39982 49990 52012 90539 
333 10021 21010 3////=
02984 47399 80105 11022 21035 39973 49988 52016 70000 88/// 90539
333 10016 21022 3////=
02987 46/// /3408 11026 21102 39947 49976 52022 90539 
333 10013 21027 3////=
02991 46/// /3408 11036 21048 39943 49977 52020 90539 
333 10002 21036 3////=
02992 46/// /3510 11031 21046 39970 49974 52022 90600 
333 10005 21032 3////=
02993 46/// /3505 11014 21024 39979 49998 57002 90539 
333 10005 21015 3////=
0000015700
992
SSVX13 LFPW 110600
ZZYY 62508 11014 0600/ 745922 006074 6113/ 11119 40186 52010 22219
 00130 444 20130 11014 0555/ 50101 80104 80031 9/015=
00000000