0000011200
833
SABW31 VGHS 102120
METAR VGHS 102120Z 00000KT 0500 FG BKN005 14/13 Q1014 TEMPO S/VIS
0300M=

0000010700
834
SPCN31 CWAO 102124
SPECI CYQG 102124Z 16009KT 5SM BR FEW008 SCT020 OVC070 RMK SF2SC2AC4=

0000009300
835
SAEA20 HKNC 102000 RRD
METAR HKNC 102000Z 10008KT 9999 BKN019 18/13 Q1023=

0000041700
836
SAFI34 EFHK 102120
EFET 102120Z AUTO 00000KT 9999 -SHSN FEW004 M30/M33 Q1013=
EFIV 102120Z AUTO 25001KT 9999 OVC004 M31/M35 Q1016=
EFKE 102120Z AUTO 03014KT 360V060 4500 -SN BR OVC043 M13/M15 Q1007=
EFKI 102120Z AUTO 06013KT 020V090 9999 -SN SCT019 BKN051 M10/M13
Q1000=
EFKS 102120Z AUTO 04007KT 350V100 9999 BKN018 M17/M19 Q1006=
EFKT 102120Z AUTO 03006KT 350V070 CAVOK M19/M22 Q1013=

0000030400
837
SANT31 KWBC 102100 RRB
METAR
BGBW 102125Z NIL=
BGCO 102125Z NIL=
BGGH 102125Z NIL=
BGJN 102120Z AUTO 11024KT 9999NDV NCD M09/M19 Q0994=
BGKK 102120Z AUTO 05020G44KT 010V120 0900NDV -SN VV006/// M01/M03
     Q0984 RESN=
BGSF 102120Z AUTO 06011KT 9999NDV NCD M14/M21 Q0996=

0000009100
838
SPCN44 CWAO 102124
SPECI CYSM 102124Z 23003KT 2SM -SN OVC080 RMK SN5AC3=

0000066800
839
SAGR31 LGAT 102120
METAR LGAD 102120Z 00000KT 9999 SCT020 11/09 Q1022=
METAR LGAV 102120Z 01004KT 280V050 CAVOK 10/07 Q1019 NOSIG=
METAR LGIR 102120Z 17007KT CAVOK 12/09 Q1021 NOSIG=
METAR LGKL 102120Z AUTO VRB03KT //// // ////// 10/08 Q1022
     RE//=
METAR LGKO 102120Z NIL=
METAR LGKR 102120Z 00000KT 9999 SCT018 BKN070 11/10 Q1022 NOSIG=
METAR LGLM 102120Z AUTO 35005KT //// // ////// 12/09 Q1020
     RE//=
METAR LGRP 102120Z 00000KT 9999 FEW018 13/08 Q1021 NOSIG=
METAR LGSA 102120Z 26012KT 9999 FEW020 14/10 Q1021=
METAR LGSM 102120Z NIL=
METAR LGTS 102120Z 24004KT 8000 FEW010 SCT025 BKN180 07/06 Q1020
      NOSIG=

0000046700
840
SAUK31 EGGY 102120
METAR EGBB 102120Z VRB09G23KT 9999 -RA SCT040 BKN047 08/06 Q1010=
METAR EGCC 102120Z 19011KT 9999 FEW016 SCT022 BKN027 07/06 Q1008=
METAR EGKK 102120Z NIL=
METAR EGLL 102120Z 20008KT 170V260 9999 FEW011 08/07 Q1013=
METAR EGPF 102120Z 27003KT CAVOK 02/00 Q1007=
METAR EGPH 102120Z 24005KT CAVOK 01/00 Q1007=
METAR EGPK 102120Z 00000KT 9999 FEW028 02/00 Q1008=
METAR EGSS 102120Z 21011KT 9999 -RA BKN009 08/06 Q1013=

0000009500
841
SPCN42 CWAO 102122
SPECI CYFO 102122Z 11002KT 15SM BKN006 OVC011 RMK SC5SC2=

0000054300
842
SAUK32 EGGY 102120
METAR EGAA 102120Z 23006KT CAVOK 02/02 Q1009=
METAR EGAC 102120Z NIL=
METAR EGFF 102120Z 19006KT 9999 -RA SCT023 BKN035 08/07 Q1012
    RERA=
METAR EGGW 102120Z 20008KT 9999 FEW006 07/06 Q1012 REDZ=
METAR EGLC 102120Z 21008KT 170V240 9999 -SHRA FEW010 SCT028
    BKN040 09/07 Q1013=
METAR EGNM 102120Z 23012KT 200V260 9999 -SHRA FEW010 SCT019 07/06
    Q1006=
METAR EGNX 102120Z 21015KT 9999 -SHRA FEW035 SCT044 07/06 Q1009=
METAR EGPD 102120Z 28009KT 240V300 CAVOK 04/M01 Q1004 NOSIG=

0000045200
843
SAUK33 EGGY 102120
METAR EGGD 102120Z 20009KT 9999 FEW023 SCT032 07/06 Q1011=
METAR EGGP 102120Z 21006KT 170V230 9999 VCSH SCT008 BKN012 09/06
    Q1008=
METAR EGHI 102120Z 19006KT 160V220 8000 RA FEW017 BKN030 07/06 Q1014
    =
METAR EGNS 102120Z NIL=
METAR EGNT 102120Z NIL=
METAR EGNV 102120Z 20008KT 9999 FEW017 SCT042 08/05 Q1007=
METAR EGPB 102120Z AUTO 25024KT 9999 -SHRA SCT015/// SCT019///
    06/04 Q0998=

0000024900
844
SAUK34 EGGY 102120
METAR EGHE 102120Z NIL=
METAR EGHK 102120Z NIL=
METAR EGHQ 102120Z NIL=
METAR EGJA 102120Z NIL=
METAR EGJB 102120Z NIL=
METAR EGJJ 102120Z NIL=
METAR EGTE 102120Z 21008KT 9999 -RA SCT045 09/08 Q1012=

0000030400
845
SAUK35 EGGY 102120
METAR EGHH 102120Z 25002KT 9999 -RA FEW021 SCT040 08/07 Q1013=
METAR EGKA 102120Z NIL=
METAR EGKB 102120Z NIL=
METAR EGLF 102120Z 20009KT CAVOK 08/07 Q1013=
METAR EGMC 102120Z NIL=
METAR EGMD 102120Z NIL=
METAR EGMH 102120Z NIL=
METAR EGTC 102120Z NIL=

0000030400
846
SAUK36 EGGY 102120
METAR EGBE 102120Z 20009KT 9999 -RA SCT040 08/06 Q1011=
METAR EGBJ 102120Z NIL=
METAR EGCN 102120Z 20013KT 9999 -RA NSC 08/06 Q1009=
METAR EGSC 102120Z NIL=
METAR EGSD 102120Z NIL=
METAR EGSH 102120Z NIL=
METAR EGVN 102120Z NIL=
METAR EGWU 102120Z NIL=

0000039700
847
SAUK37 EGGY 102120
METAR EGAE 102120Z NIL=
METAR EGNC 102120Z NIL=
METAR EGNH 102120Z 31005KT 9999 -RA FEW007 BKN013 07/07 Q1008=
METAR EGNJ 102120Z 19014KT 9999 -RA OVC045 07/06 Q1009=
METAR EGNO 102120Z NIL=
METAR EGNR 102120Z NIL=
METAR EGPE 102120Z 19009KT 9999 FEW040 03/M01 Q1004=
METAR EGPI 102120Z NIL=
METAR EGPN 102120Z 30002KT 9999 FEW011 03/02 Q1006=

0000042000
848
SAUK38 EGGY 102120
METAR EGEC 102120Z NIL=
METAR EGEO 102120Z NIL=
METAR EGPA 102120Z 24017KT 9999 VCSH SCT018 05/02 Q1001=
METAR EGPC 102120Z AUTO 25012KT 9999 NCD 03/M00 Q1002=
METAR EGPL 102120Z AUTO 26017KT 9999 // FEW031/// 05/M01 Q1004=
METAR EGPM 102120Z AUTO 22013KT 9999 FEW019/// 05/03 Q0997=
METAR EGPO 102120Z AUTO 22007KT 9999 FEW031/// 02/M00 Q1003=
METAR EGPU 102120Z NIL=

0000008100
849
SAEA20 HKNC 102100 RRA
METAR HKKS 102100Z 00000KT CAVOK 18/13=

0000036400
850
SASW32 LSSW 102120
METAR LSGC 102120Z AUTO 00000KT 6000 NCD M00/M00 Q1018=
METAR LSGS 102120Z NIL=
METAR LSZG 102120Z AUTO 21001KT 6000 NCD 01/01 Q1019=
METAR LSZR 102120Z AUTO 20001KT 1200 R10/1300U BR BKN004 03/02
    Q1019=
METAR LSZS 102120Z NIL=
METAR LSZC 102120Z AUTO VRB01KT 4000 BR NCD 02/02 Q1019=
METAR LSZL 102120Z NIL=

0000051600
851
SAFI32 EFHK 102120
METAR EFHA 102120Z AUTO 01012KT 9999 OVC007 M06/M06
 Q0995=
EFHF 102120Z AUTO 34014KT 310V020 9999 OVC011 M01/M03 Q0992=
METAR EFKA 102120Z AUTO 03008KT 9999 -SG OVC011 
M07/M08 Q0999=
EFKK 102120Z AUTO 03008KT 9999 FEW014 SCT029 BKN055 BKN085 M09/M11
Q1001=
EFMA 102120Z AUTO 34011KT 9999 -SN OVC012 M00/M01 Q0998=
METAR EFPO 102120Z AUTO 01007KT 340V040 9999 OVC009/// M04/M05 Q0997 
R12/29//95=
EFSI 102120Z AUTO 01009KT 340V040 9999 OVC007 M06/M07 Q0998=

0000010800
852
SAIO31 KWBC 102100 RRD
METAR
VRMM 102100Z 07014KT 9999 FEW018 BKN280 28/24 Q1011 NOSIG=

00000000