0000027500
973
SXHW11 KWAL 110632
15D142A4 011063202":PRS 1 #1 1314 1303 1313 1318 1307 1309 1307 1313 1315 1320 :RAD 1 #1 6896 6893 6897 6899 6895 6894 6894 6897 6899 6899 :ENC 2 #5 4797 4798 4796 4792 :SW1 32 #60 0 :SW2 2 #60 57 :BAT 4 #5 13.0 :NAME 15D142A4  35+0NN 216W
0000011100
974
UANT01 CWAO 110626
ARP DAL411 4942N04151W 0626 F360 MS60 319/46 KT
N1501P QXT AOW 110626 F67A
0000011100
975
UANT01 CWAO 110626
ARP AWE796 4751N03614W 0626 F370 MS48 243/30 KT
N281AY DDL XXN 110626 J36A
0000065400
976
SMIN90 VOMM 110600
AAXX 11064
43295 32997 30902 10252 20146 39132 48547 80001
  333 58009 83075=
43226 32997 00902 10300 20200 30122 40152
  333 58008=
43233 32597 10703 10274 20165 39334 40131 81500
  333 58004=
43198 32996 00203 10270 20083 39316 40130
  333 58005=
43201 32497 12302 10282 20160 39412 40118 81500
  333 58000 81615=
43284 31596 23205 10290 20202 30020 40134 70242 81501
  333 58003 81620=
43225 32997 13202 10286 20208 30148 40153 81030
  333 58009=
43121 32597 00902 10220 20205 39635 40145 81500
  333 58001=
43296 31996 31108 10246 20130 39161 48548 70511 80001
  333 58003 83075=
0000010400
977
SMIN90 VOMM 110600
AAXX 11064
43257 32997 00902 10280 20197 39408 40126
  333 58004=
0000016900
978
SACY31 LCLK 110630
METAR LCLK 110630Z 28003KT 9999 FEW035 13/07 Q1023 NOSIG=
METAR LCPH 110630Z 05004KT 9999 SCT036 13/09 Q1024=
METAR LCNC 110630Z NIL=

0000036700
979
SAHK31 VHHH 110630
METAR VHHH 110630Z 27010KT 5000 NSC 22/12 Q1021 NOSIG=
METAR RCTP 110630Z 36008KT 9999 FEW025 23/14 Q1021 NOSIG RMK A3015
=
METAR RCKH 110630Z 29009KT 220V330 9999 FEW022 24/15 Q1021 NOSIG
RMK A3015=
METAR RCSS 110630Z 13010KT 9999 FEW025 24/12 Q1021 NOSIG RMK A3015
=
METAR VMMC 110630Z 11006KT 080V150 7000 NSC 18/12 Q1021 NOSIG=

0000011000
980
UANT01 CWAO 110626
ARP DLH457 5605N03506W 0626 F330 MS58 207/34 KT
DABYA QXT AME 110626 F65A
0000016300
981
SSVX13 LFPW 110630
ZZYY 13595 11014 0630/ 730273 019477 6113/ 22219 00198 33300 88872
 20000 43682 444 20130 11014 0630/ 50101 80108 80029 9/015=
0000012000
982
SMMC23 GMMC 110000 RRA
AAXX 11004
60340 42556 42602 10097 20088 40163 50005 81202
  333 81820 83070=
0000011000
983
UANT01 CWAO 110627
ARP UAL46 5000N04533W 0626 F370 MS62 319/59 KT
N78002 DDL XXW 110627 F42A
0000011100
984
UANT01 CWAO 110627
ARP AAL120 4752N03054W 0627 F350 MS50 195/48 KT
N191AN DDL XXW 110627 F69A
0000039000
985
SMVJ01 EGRR 110600
BBXX
ZDLP 11063 99644 50659 41297 83007 11001 21001 40011 56007 78522
8/7// 22222 04019 2//// 82001 ICE //1//=
ZDLS1 11063 99600 50244 41599 71106 11012 21020 40082 54000 70222
874// 22263 04016 20300 318// 40601 82014 ICE 0/150=
AMOUK40 1106/ 99644 50649 46/// ///// 11009 21016 40009=
AMOUK01 1106/ 99600 50244 46/// ///// 11020 21049 40068=
0000011000
986
UANT01 CWAO 110627
ARP ETD130 5519N04734W 0627 F330 MS61 288/80 KT
A6EHJ QXT AOW 110627 J33A
0000011000
987
UANT01 CWAO 110627
ARP AAL54 4946N04645W 0627 F360 MS64 309/65 KT
N185AN DDL XXW 110627 F28A
0000011000
988
UANT01 CWAO 110627
ARP DLH455 5704N03215W 0627 F370 MS57 210/42 KT
DABVM QXT AME 110627 F27A
0000011100
989
UANT01 CWAO 110627
ARP NAX7002 5514N04256W 0627 F410 MS57 266/36 KT
EILNC QXT AOW 110627 L08A
0000011000
990
UANT01 CWAO 110627
ARP QTR722 5545N04330W 0627 F290 MS55 295/42 KT
A7BAB QXT AOW 110627 F15A
0000011000
991
UANT01 CWAO 110627
ARP VIR20V 5806N05342W 0625 F370 MS57 275/55 KT
GVFAB DDL XXW 110627 F50A
0000215900
992
SZNZ01 NZKL 110633
CREX++
T000103 A001 D01021 D06025++
-3683144 17478654 AUCT  2014 01 11 06 25 //// 11 07 00 01
05096 3122 05088 3123 05081 3124 05073 3125 05065 3127 05058 3128+
-4402404 -17636748 CHIT  2014 01 11 06 25 //// 11 07 00 01
04393 1985 04386 1980 04398 1994 04402 1999 04389 1989 04377 1978+
-4089929 17623168 CPIT  2014 01 11 06 25 //// 11 07 00 01
03347 2259 03366 2282 03350 2269 03332 2255 03352 2278 03315 2244+
-3618905 17548887 GBIT  2014 01 11 06 25 //// 11 07 00 01
05696 0004 05686 0000 05701 0021 05708 0033 05697 0028 05670 0007+
-3867541 17802288 GIST  2014 01 11 06 25 //// 11 07 00 01
03580 2697 03591 2712 03571 2697 03563 2693 03571 2705 03570 2710+
-4241288 17370277 KAIT  2014 01 11 06 25 //// 11 07 00 01
02695 2190 02699 2197 02694 2194 02697 2201 02702 2207 02681 2190+
-3755040 17815904 LOTT  2014 01 11 06 25 //// 11 07 00 01
03255 0208 03252 0209 03241 0204 03237 0205 03239 0213 03227 0205+
-3704657 17451175 MNKT  2014 01 11 06 25 //// 11 07 00 01
03453 -0148 03468 -0133 03457 -0144 03461 -0141 03465 -0137 03449 -0153+
-3947566 17692007 NAPT  2014 01 11 06 25 //// 11 07 00 01
02557 2057 02561 2065 02554 2063 02575 2088 02546 2062 02527 2047+
-3441483 17304870 NCPT  2014 01 11 06 25 //// 11 07 00 01
01044 -3523 01104 -3457 01002 -3553 00825 -3726 00400 -4145 00214 -4325+
-4581435 17062939 OTAT  2014 01 11 06 25 //// 11 07 00 01
03778 3440 03779 3441 03781 3442 03782 3444 03784 3445 03783 3444+
-2928002 -17789440 RBCT  2014 01 11 06 25 //// 11 07 00 01
05968 2034 05969 2039 05960 2034 05958 2036 05963 2045 05949 2035+
-2925114 -17790384 RFRT  2014 01 11 06 25 //// 11 07 00 01
02886 0221 02885 0223 02882 0224 02893 0239 02884 0235 02865 0221+
-4357010 17277383 SUMT  2014 01 11 06 25 //// 11 07 00 01
01185 1861 01176 1854 01162 1842 01153 1836 01156 1842 01146 1834+
-3764109 17618118 TAUT  2014 01 11 06 25 //// 11 07 00 01
05030 3997 05024 3996 05017 3995 05025 4009 05010 3999 05003 3998+
-4128448 17477985 WLGT  2014 01 11 06 25 //// 11 07 00 01
02712 2094 02714 2098 02716 2102 02716 2105 02710 2101 02708 2101++
7777
00000000