0000019600
493
SMTV01 NGFU 110600 RRA
AAXX 10124
91636 11598 72709 10266 20267 40066 60001 71522 8337/ 333
10316 5669/=
91648 11498 73210 10284 20265 40054 60001 71422 8337/ 333
10307 5679/=

---
0000112600
494
SMPK01 OPKC 110600
AAXX 11064
41529 12997 00000 10139 20013 39842 40226 60001 333
      58023=
41598 11996 03102 10145 20020 39926 40203 60001 70500 333
      58011=
41620 32997 02305 10035 21094 38/// 48/// 333
      58///=
41624 02997 00000 10145 21034 30019 40224 60001 333
      58026 60007=
41640 01996 03106 10145 20035 39963 40218 60001 70506 333
      58023 60007=
41660 11996 13104 10000 21042 38487 48577 60001 70500 81001 333
      56009 58017 81172=
41675 11996 20000 10140 20028 30080 40224 60001 70500 82030 333
      56090 58024 82362=
41712 12997 30504 10050 21014 39287 48557 60001 80008 333
      56009 58005 83270=
41715 01996 33102 10150 20028 30169 40236 60001 70500 80001 333
      56009 58034 60007 83070=
41756 02996 53604 10150 21024 30165 40231 60001 85030 333
      56090 59003 60007 85358=
41764 31996 40410 10160 20028 30175 40226 60001 70400 80001 333
      56009 58030 60007 84070=
41768 02996 40504 10180 20058 30216 40223 60001 80001 333
      56009 58024 60007 84070=
41780 02996 60504 10185 21036 40229 60001 80001 333
      56009 58027 60007 86070=
0000094500
495
SMGL02 EKMI 110600
AAXX 11064
04203 46/// /1614 11120 21145 39917 49935 =
04205 45/84 /1018 11070 21197 39927 49949 52018
  333 11039 21107 =
04208 46/// /1911 11056 21098 39913 49959 =
04213 46/// /2205 11070 21215 39840 49950 52001
  333 11056 21081 91220 =
04214 46/// /1415 11056 21156 39918 49951 =
04224 45984 71706 11105 21182 39915 49949 57003
  333 11081 21112 87/64 =
04228 46/// /1802 11060 21149 39929 49942 =
04242 46/// /0612 11078 21132 39928 49944 =
04253 46/// /1015 11085 21146 39906 49933 =
04266 46/// /1010 11065 21081 39897 49935 =
04285 46/// /3207 11051 21110 39928 49947 =
04301 46/// ///// 11203 21233 39942 49947 =
04313 NIL =
04330 46/// /1403 11156 21179 30061 40079 =
04351 46/// /0421 11012 21029 39968 49984
  333 91039 =
04373 46/// /1524 11079 21099 39796 49889 =
04382 46/// /0302 11096 21133 39849 49898 =
04416 46/// ///// 11398 21412 36594 54000 =
0000078000
496
SMRA20 RUNW 110600
AAXX 11061
28216 42698 81401 11052 21066 39769 40055 57011 885//=
28428 41596 81704 11026 21032 39889 40076 57001 71022 885//=
28451 41996 81201 11062 21074 39964 40127 52006 71172 8801/ 333
21063=
28655 41998 81904 11076 21095 39917 40145 52001 70272 8802/=
28756 41998 81905 11074 21093 30015 40167 52004 73673 8807/ 333
91110=
29557 41598 82406 11058 21114 30036 40310 51009 70283 8337/ 333 91010
91112=
29625 41498 82204 11077 21097 30113 40298 52004 70282 88900 333
83919=
29813 41599 82005 11076 21105 30104 40290 50004 70282 8445/=
29822 41996 82204 11078 21105 30155 40326 50004 77172 8802/=
29915 41998 81904 11085 21120 30153 40319 50000 70283 8805/=
36020 42498 71705 11082 21114 30127 40336 58011 83930=
0000045900
497
SMRA21 RUNW 110600
AAXX 11061
28383 41958 81803 11056 21078 30112 40199 52006 71022 8802/=
28586 42998 71905 11064 21088 30076 40229 52004 87070=
28588 41957 81804 11068 21088 30049 40213 52004 77172 8802/ 333
21071=
28688 41998 81903 11069 21102 30056 40221 52004 70272 8801/=
28696 41959 71902 11087 21116 30108 40253 52004 70472 87050 333
21087=
28791 41496 81905 11078 21096 30087 40237 52001 77172 8802/ 333 21081
88511=
0000030500
498
SMAZ41 LPMG 110600
AAXX 11061
08506 12/// /3105 10118 20058 39997 40068 52037 69972
333  20117 30012 5//// 55020 20525 91009 91111
555 60005=
08511 12/// /3007 10131 20114 39922 40029 57007 69992
333  20130 31011 5//// 55015 20454 91014 91116
555 69925 90408 91523 90405 91528=
0000011100
499
UANT01 CWAO 110619
ARP DAL403 4805N03512W 0619 F350 MS48 232/23 KT
N840MH QXT AOW 110619 F39A
0000011000
500
UANT01 CWAO 110619
ARP SWR19R 4708N04456W 0619 F370 MS61 317/62 KT
HBJHL QXT AOW 110619 J89A
0000011000
501
UANT01 CWAO 110619
ARP ACA844 5701N04127W 0619 F350 MS60 261/30 KT
CGHKX DDL XXW 110619 J25A
0000010800
502
UANT01 CWAO 110619
ARP SWR9 5505N03523W 0619 F390 MS56 221/34 KT
HBJHB QXT AOW 110619 J23A
0000011000
503
UANT01 CWAO 110619
ARP DAL32 4932N03747W 0619 F390 MS53 261/29 KT
N858NW DDL XXW 110619 J31A
0000011000
504
UANT01 CWAO 110620
ARP AZA65F 4626N04805W 0620 F390 MS61 304/60 KT
EIEJG QXT AOW 110620 J33A
0000011100
505
UANT01 CWAO 110620
ARP FIN1990 5445N03752W 0620 F380 MS58 245/35 KT
OHLQE QXT AOW 110620 J85A
0000011100
506
UANT01 CWAO 110620
ARP AWE797 5916N04809W 0620 F340 MS57 262/35 KT
N282AY DDL XXW 110620 J47A
0000011000
507
UANT01 CWAO 110620
ARP BAW214 5113N02829W 0620 F330 MS59 191/66 KT
GCIVN QXT AOE 110620 F21A
0000011100
508
UANT01 CWAO 110620
ARP UAL932 4833N05158W 0620 F370 MS66 300/50 KT
N224UA DDL YYT 110620 F14A
0000011100
509
UANT01 CWAO 110620
ARP NAX7006 5251N05042W 0620 F410 MS59 294/62 KT
EILNB QXS YAY 110620 L38A
0000048900
510
FKIO20 FMEE 110622
TC ADVISORY
DTG: 20140111/0600Z
TCAC: REUNION
TC:COLIN
NR:6
PSN: S1604  E08010
MOV: SW 11 KT
C: 986 HPA
MAX WIND: 50 KT
FCST PSN +06HR: 11/1200Z S1634  E07945
FCST MAX WIND +06HR: 58 KT
FCST PSN +12HR: 11/1800Z S1702  E07917
FCST MAX WIND +12HR: 65 KT
FCST PSN +18HR: 12/0000Z S1729  E07843
FCST MAX WIND +18HR: 73 KT
FCST PSN +24HR: 12/0600Z S1801  E07801
FCST MAX WIND +24HR: 80 KT
RMK : NIL
NXT MSG: 20140111/1200Z=
0000013300
511
SMMD41 LPMG 110600
AAXX 11061
08522 32/// /9901 10155 20089 30098 40167 57002
333  20153 30010 5//// 55082 21150=
0000015300
512
SMMN01 TNCM 110600
AAXX 11064
78866 01575 10909 10248 20198 30174 40179 57013 60021 70181 81400
  333 59004 69957 81821=




00000000