0000005100
173
SMBZ03 SBBR 110600
AAXX 11064
NIL
0000005100
174
SMBZ05 SBBR 110600
AAXX 11064
NIL
0000148100
175
SMAK01 KWBC 110600 RRA
AAXX 11064
70133 32966 00103 11200 21250 30065 40070 58008 90553 333 11156
21206 555 91106=
70174 32966 00000 11356 39802 40067 58006 90553 333 11250 21356
4/061 555 91106=
70200 31566 40317 11122 21206 30015 40022 58014 738// 90553 333
11078 21139 555 91106=
70219 32966 00311 11139 21150 39894 49952 56013 90553 333 11078
21144 555 91106=
70231 15966 00000 11206 21233 39878 40010 56009 69901 90553 333
11117 21211 555 91106=
70261 32166 40000 11306 21344 39844 40028 55003 90553 333 11167
21311 555 91106=
70267 12466 80000 11200 21217 39521 40031 58003 69901 90553 333
11156 21200 555 91106=
70271 17648 83304 11122 21144 39351 49948 56011 69931 771// 90553
333 11083 21128 96010 555 91106=
70273 12266 83404 11050 21067 39879 49937 56010 69901 90553 333
11017 21050 555 91106=
70316 17466 81423 10028 20006 39827 49862 58039 69931 761// 90553
333 10033 20017 91029 555 91106=
70326 32266 43404 11074 21077 39930 49942 56012 90554 333 4/008
555 91106=
70340 32266 63607 11067 21067 39898 49961 56010 90553 333 11028
21067 555 91106=
70350 32666 42505 11044 21067 39909 49949 56006 90553 333 10028
21044 555 91106=
70361 37240 80000 11006 21006 39901 49911 58014 771// 90553 333
10017 21006 96010 555 91106=
70381 12466 81104 10006 20000 39912 49921 56031 69901 90553 333
10028 20006 555 91106=
70414 35464 83420 10000 21006 39748 49783 51021 90556 333 10006
21006 555 91106=
0000013400
176
SMCA01 KWBC 110600 RRA
AAXX 11064
78526 32666 41203 10244 20211 30159 40182 58015 90556 333 10261
20244 555 91106=
0000046000
177
SMPA01 KWBC 110600 RRA
AAXX 11064
91165 32466 80520 10230 20210 30108 90603 333 91026 555 91106=
91182 12566 20304 10233 20178 30130 40134 53015 69901 90553 333
10261 20194 555 91106=
91190 32566 20606 10222 20178 30121 40139 53013 90554 333 10267
20211 555 91106=
91212 32566 60514 10294 20222 31364 40100 56015 90554 333 10306
20256 555 91106=
91285 32966 02103 10206 20194 30131 40144 53017 90553 333 10267
20178 555 91106=
0000037700
178
SMVD15 KWNB 110600 RRH
BBXX
44064 11061 99370 70760 46/// /1405 10098 40188 90610 333 91206
555 11057 22062=
44062 11061 99386 70764 46/// /0201 10025 40194 90610 333 91202
555 11014 22015=
44063 11061 99390 70764 46/// /3302 10018 40181 90610 333 91203
555 11028 22030=
44041 11061 99372 70768 46/// /1504 10094 90610 333 91206 555
11051 22055=
0000005100
179
SMBZ35 SBBR 110600
AAXX 11064
NIL
0000005100
180
SMBZ31 SBBR 110600
AAXX 11064
NIL
0000034300
181
SMBZ36 SBBR 110600
AAXX 11064
82143 NIL=
82599 32570 51204 10251 20207 30060 40120 85100 333 58017=
82824 21250 50608 10233 20217 30003 40104 79196 884// 333 58002
 60011=
82899 32570 21305 10259 20210 30107 40119 82200 333 58000=
83117 NIL=
83248 32470 40808 10263 20226 30104 40126 85200 333 58005=
83746 NIL=
0000005100
182
SMBZ34 SBBR 110600
AAXX 11064
NIL
0001192700
183
KSMI06 SBBR 110600
CREX++
T000113 A000 D07086++
 82 022 BOA VISTA            1 2014 01 11 06 00 0283333 -06070000 01400 00015 10009 10105 //// // 0002 ///// ///// 00150 2400 1810 /// ///// 2000 ///// ///// ///// 000 62 // 0000 // // // 0000 0000 // // ///// //// ////// / /// /// ////// /// /// /////// // /// // /// /// ////////// /// /// 508 -0006 10 10  -0024 //// -0001 //// /////  -0001 00000 //// ///// 00150 -0012 0000 //// -0012 0000 //// ///// 03 02 -0010 080 0031 //  -0010 /// //// //// /// //// ///// -0024 // ////  -0001 //// //// ///// ///// ///// ///// -0024 //// //// ///// ///// ///// /////+
 82 193 BELEM                1 2014 01 11 06 00 -0145000 -04846667 00100 00015 10082 10100 //// // -0014 ///// ///// 00150 2380 2250 /// ///// 2000 ///// ///// ///// 050 08 04 0250 30 23 10 0000 0000 // // ///// //// ////// / /// /// ////// /// /// /////// // /// // /// /// ////////// /// /// 508 -0006 10 10  -0024 //// -0001 //// /////  -0001 00000 //// ///// 00150 -0012 0000 //// -0012 0000 //// ///// 03 02 -0010 100 0021 //  -0010 /// //// //// /// //// ///// -0024 // ////  -0001 //// //// ///// ///// ///// ///// -0024 //// //// ///// ///// ///// /////+
 82 281 SAO LUIS             1 2014 01 11 06 00 -0253333 -04430000 00510 00015 10040 10102 //// // -0001 ///// ///// 00150 2580 2070 /// ///// 2000 ///// ///// ///// 038 07 03 0045 35 20 10 0000 0000 // // ///// //// ////// / /// /// ////// /// /// /////// // /// // /// /// ////////// /// /// 508 -0006 10 10  -0024 //// -0001 //// /////  -0001 00000 //// ///// 00150 -0012 0000 //// -0012 0000 //// ///// 03 02 -0010 080 0021 //  -0010 /// //// //// /// //// ///// -0024 // ////  -0001 //// //// ///// ///// ///// ///// -0024 //// //// ///// ///// ///// /////+
 82 332 MANAUS               1 2014 01 11 06 00 -0315000 -05998333 00840 00015 10015 10109 //// // 0008 ///// ///// 00150 2210 2110 /// ///// 2000 ///// ///// ///// 050 07 03 0045 35 23 10 0000 0000 // // ///// //// ////// / /// /// ////// /// /// /////// // /// // /// /// ////////// /// /// 508 -0006 10 10  -0024 //// -0001 //// /////  //// ///// -0006 00150 00150 -0012 0000 //// -0012 0000 //// ///// 03 02 -0010 060 0026 //  -0010 /// //// //// /// //// ///// -0024 // ////  -0001 //// //// ///// ///// ///// ///// -0024 //// //// ///// ///// ///// /////+
 82 398 FORTALEZA (AEROPORTO 1 2014 01 11 06 00 -0378000 -03853000 ///// ///// 10074 10103 //// // -0004 ///// ///// ///// 2630 2020 /// ///// 2000 ///// ///// ///// 050 07 04 0080 35 20 10 0000 0000 // // ///// //// ////// / /// /// ////// /// /// /////// // /// // /// /// ////////// /// /// 508 -0006 10 10  -0024 //// -0001 //// /////  -0001 00000 //// ///// ///// -0012 0000 //// -0012 0000 //// ///// 03 02 -0010 090 0062 //  -0010 /// //// //// /// //// ///// -0024 // ////  -0001 //// //// ///// ///// ///// ///// -0024 //// //// ///// ///// ///// /////+
 82 579 TERESINA (AEROPORTO) 1 2014 01 11 06 00 -0505000 -04281000 ///// ///// 10021 10097 //// // -0001 ///// ///// ///// 2440 2290 /// ///// 2000 ///// ///// ///// 088 07 03 0080 35 25 10 0000 0000 // // ///// //// ////// / /// /// ////// /// /// /////// // /// // /// /// ////////// /// /// 021 -0006 06 01  -0024 //// -0001 //// /////  //// ///// -0006 00003 ///// -0012 0000 //// -0012 0000 //// ///// 03 02 -0010 310 0010 //  -0010 /// //// //// /// //// ///// -0024 // ////  -0001 //// //// ///// ///// ///// ///// -0024 //// //// ///// ///// ///// /////+
 82 917 RIO BRANCO           1 2014 01 11 06 00 -1000000 -06780000 01430 00015 09877 ///// //// // -0002 ///// ///// 00150 //// //// /// ///// 2000 ///// ///// ///// 075 07 03 0080 32 23 10 0000 0000 // // ///// //// ////// / /// /// ////// /// /// /////// // /// // /// /// ////////// /// /// 029 -0006 09 02  -0024 //// -0001 //// /////  //// ///// //// ///// 00150 -0012 0000 //// -0012 0000 //// ///// 03 02 -0010 090 0026 //  -0010 /// //// //// /// //// ///// -0024 // ////  -0001 //// //// ///// ///// ///// ///// -0024 //// //// ///// ///// ///// /////+
 82 965 ALTA FLORESTA        1 2014 01 11 06 00 -0986667 -05610000 02880 00015 09789 10114 //// // 0013 ///// ///// 00150 2260 2190 /// ///// 0800 ///// ///// ///// 100 07 05 0045 37 27 60 0000 0000 // // ///// //// ////// / /// /// ////// /// /// /////// // /// // /// /// ////////// /// /// 060 -0006 09 06  -0024 //// -0001 //// /////  //// ///// -0006 00010 00150 -0012 0000 //// -0012 0000 //// ///// 03 02 -0010 000 0000 //  -0010 /// //// //// /// //// ///// -0024 // ////  -0001 //// //// ///// ///// ///// ///// -0024 //// //// ///// ///// ///// /////+
 82 993 MACEIO (AEROPORTO)   1 2014 01 11 06 00 -0951000 -03578000 ///// ///// 09992 10128 //// // 0007 ///// ///// ///// 2140 2050 /// ///// 2000 ///// ///// ///// 025 07 02 0080 31 20 10 0000 0000 // // ///// //// ////// / /// /// ////// /// /// /////// // /// // /// /// ////////// /// /// 508 -0006 10 10  -0024 //// -0001 //// /////  -0001 00000 //// ///// ///// -0012 0000 //// -0012 0000 //// ///// 03 02 -0010 330 0015 //  -0010 /// //// //// /// //// ///// -0024 // ////  -0001 //// //// ///// ///// ///// ///// -0024 //// //// ///// ///// ///// /////+
 83 349 ILHEUS (AEROPORTO)   1 2014 01 11 06 00 -1481000 -03903000 ///// ///// 10134 10140 //// // 0008 ///// ///// ///// 2610 2250 /// ///// 0800 ///// ///// ///// 075 07 07 0045 38 23 10 0000 0000 // // ///// //// ////// / /// /// ////// /// /// /////// // /// // /// /// ////////// /// /// 015 -0006 06 02  -0024 //// -0001 //// /////  //// ///// -0006 00010 ///// -0012 0000 //// -0012 0000 //// ///// 03 02 -0010 090 0041 //  -0010 /// //// //// /// //// ///// -0024 // ////  -0001 //// //// ///// ///// ///// ///// -0024 //// //// ///// ///// ///// /////+
 83 362 CUIABA               1 2014 01 11 06 00 -1565000 -05610000 01857 00015 09885 10099 //// // -0001 ///// ///// 00150 2300 2060 /// ///// 2000 ///// ///// ///// 050 07 01 0080 31 23 10 0000 0000 // // ///// //// ////// / /// /// ////// /// /// /////// // /// // /// /// ////////// /// /// 508 -0006 10 10  -0024 //// -0001 //// /////  -0001 00000 //// ///// 00150 -0012 0000 //// -0012 0000 //// ///// 03 02 -0010 320 0015 //  -0010 /// //// //// /// //// ///// -0024 // ////  -0001 //// //// ///// ///// ///// ///// -0024 //// //// ///// ///// ///// /////+
 83 378 BRASILIA             1 2014 01 11 06 00 -1586667 -04791667 10600 00015 08956 ///// //// // 0006 08500 01520 00150 2070 1450 /// ///// 2000 ///// ///// ///// 038 07 04 0080 32 20 10 0000 0000 // // ///// //// ////// / /// /// ////// /// /// /////// // /// // /// /// ////////// /// /// 508 -0006 10 10  -0024 //// -0001 //// /////  -0001 00000 //// ///// 00150 -0012 0000 //// -0012 0000 //// ///// 03 02 -0010 000 0000 //  -0010 /// //// //// /// //// ///// -0024 // ////  -0001 //// //// ///// ///// ///// ///// -0024 //// //// ///// ///// ///// /////+
 83 460 //////////////////// 1 2014 01 11 06 00 /////// //////// ///// ///// 10080 10139 //// // 0002 ///// ///// ///// 2300 2170 /// ///// 2000 ///// ///// ///// 025 07 02 0080 32 20 10 0000 0000 // // ///// //// ////// / /// /// ////// /// /// /////// // /// // /// /// ////////// /// /// 508 -0006 10 10  -0024 //// -0001 //// /////  -0001 00000 //// ///// ///// -0012 0000 //// -0012 0000 //// ///// 03 02 -0010 000 0000 //  -0010 /// //// //// /// //// ///// -0024 // ////  -0001 //// //// ///// ///// ///// ///// -0024 //// //// ///// ///// ///// /////+
 83 566 CONFINS              1 2014 01 11 06 00 -1985000 -04395000 07861 00015 09217 ///// //// // -0007 08500 01540 00150 2070 1720 /// ///// 2000 ///// ///// ///// 075 07 02 0080 31 23 10 0000 0000 // // ///// //// ////// / /// /// ////// /// /// /////// // /// // /// /// ////////// /// /// 508 -0006 10 10  -0024 //// -0001 //// /////  -0001 00000 //// ///// 00150 -0012 0000 //// -0012 0000 //// ///// 03 02 -0010 090 0026 //  -0010 /// //// //// /// //// ///// -0024 // ////  -0001 //// //// ///// ///// ///// ///// -0024 //// //// ///// ///// ///// /////+
 83 612 CAMPO GRANDE         1 2014 01 11 06 00 -2046667 -05466667 05670 00015 09478 ///// -0012 07 //// 08500 01530 00150 2300 1780 /// ///// 2000 ///// ///// ///// 025 08 02 0225 30 23 10 0000 0000 // // ///// //// ////// / /// /// ////// /// /// /////// // /// // /// /// ////////// /// /// 508 -0006 10 10  -0024 //// -0001 //// /////  -0001 00000 //// ///// 00150 -0012 0000 //// -0012 0000 //// ///// 03 02 -0010 010 0031 //  -0010 /// //// //// /// //// ///// -0024 // ////  -0001 //// //// ///// ///// ///// ///// -0024 //// //// ///// ///// ///// /////+
 83 649 VITORIA (AEROPORTO)  1 2014 01 11 06 00 -2026000 -04028000 ///// ///// 10141 10146 -0013 05 //// ///// ///// ///// 2360 2220 /// ///// 2000 ///// ///// ///// 000 62 // 0000 // // // 0000 0000 // // ///// //// ////// / /// /// ////// /// /// /////// // /// // /// /// ////////// /// /// 508 -0006 10 10  -0024 //// -0001 //// /////  -0001 00000 //// ///// ///// -0012 0000 //// -0012 0000 //// ///// 03 02 -0010 310 0010 //  -0010 /// //// //// /// //// ///// -0024 // ////  -0001 //// //// ///// ///// ///// ///// -0024 //// //// ///// ///// ///// /////+
 83 780 SAO PAULO (AEROPORTO 1 2014 01 11 06 00 -2361000 -04665000 ///// ///// 09236 ///// -0010 06 //// 08500 01540 ///// 2290 1260 /// ///// 2000 ///// ///// ///// 000 62 // 0000 // // // 0000 0000 // // ///// //// ////// / /// /// ////// /// /// /////// // /// // /// /// ////////// /// /// 508 -0006 10 10  -0024 //// -0001 //// /////  -0001 00000 //// ///// ///// -0012 0000 //// -0012 0000 //// ///// 03 02 -0010 030 0015 //  -0010 /// //// //// /// //// ///// -0024 // ////  -0001 //// //// ///// ///// ///// ///// -0024 //// //// ///// ///// ///// /////+
 83 827 FOZ DO IGUACU        1 2014 01 11 06 00 -2551667 -05458333 01800 00015 09816 10085 -0016 08 //// ///// ///// 00150 2440 2210 /// ///// 2000 ///// ///// ///// 000 62 // 0000 // // // 0000 0000 // // ///// //// ////// / /// /// ////// /// /// /////// // /// // /// /// ////////// /// /// 508 -0006 10 10  -0024 //// -0001 //// /////  -0001 00000 //// ///// 00150 -0012 0000 //// -0012 0000 //// ///// 03 02 -0010 000 0000 //  -0010 /// //// //// /// //// ///// -0024 // ////  -0001 //// //// ///// ///// ///// ///// -0024 //// //// ///// ///// ///// /////+
 83 840 CURITIBA             1 2014 01 11 06 00 -2551667 -04916667 09080 00015 09123 ///// 0009 03 //// 08500 01530 00150 1920 1810 /// ///// 2000 ///// ///// ///// 050 07 05 0045 39 20 10 0000 0000 // // ///// //// ////// / /// /// ////// /// /// /////// // /// // /// /// ////////// /// /// 017 -0006 09 02  -0024 //// -0001 //// /////  //// ///// -0006 -00001 00150 -0012 0000 //// -0012 0000 //// ///// 03 02 -0010 260 0031 //  -0010 /// //// //// /// //// ///// -0024 // ////  -0001 //// //// ///// ///// ///// ///// -0024 //// //// ///// ///// ///// /////+
 83 899 FLORIANOPOLIS        1 2014 01 11 06 00 -2792167 -04905000 00050 00015 10118 10124 -0009 08 //// ///// ///// 00150 2210 2080 /// ///// 2000 ///// ///// ///// 075 07 06 0080 39 20 10 0000 0000 // // ///// //// ////// / /// /// ////// /// /// /////// // /// // /// /// ////////// /// /// 095 -0006 09 06  -0024 //// -0001 //// /////  //// ///// -0006 00090 00150 -0012 0000 //// -0012 0000 //// ///// 03 02 -0010 090 0036 //  -0010 /// //// //// /// //// ///// -0024 // ////  -0001 //// //// ///// ///// ///// ///// -0024 //// //// ///// ///// ///// /////+
 83 971 PORTO ALEGRE         1 2014 01 11 06 00 -3001667 -05121667 00470 00015 10091 10095 -0009 07 //// ///// ///// 00150 2160 1970 /// ///// 2000 ///// ///// ///// 000 62 // 0000 // // // 0000 0000 // // ///// //// ////// / /// /// ////// /// /// /////// // /// // /// /// ////////// /// /// 508 -0006 10 10  -0024 //// -0001 //// /////  //// ///// -0006 00001 00150 -0012 0000 //// -0012 0000 //// ///// 03 02 -0010 360 0010 //  -0010 /// //// //// /// //// ///// -0024 // ////  -0001 //// //// ///// ///// ///// ///// -0024 //// //// ///// ///// ///// /////++
7777
0000005100
184
SMBZ32 SBBR 110600
AAXX 11064
NIL
0000005100
185
SMBZ33 SBBR 110600
AAXX 11064
NIL
0000370800
186
SMCN04 KWBC 110600
AAXX 11064
71893 11332 81517 10063 20062 39932 49963 57070 60201 76366 887//
333 10073 20023 70204 90973 555 10000 20000 31524 40031=
71862 11/04 92404 11073 21076 39351 40058 52016 60001 74511 333
11025 21075 79999 555 19999 29999 33118 40230=
71015 15/// ///// 11005 60001 333 10014 21039 70000=
71018 17/// /2113 11317 21348 39792 49881 53020 69921 7//4/ 333
11268 21317 70006 555 33429 4009/=
71303 45/// ///// 10052 20047 39829 40043 56055 6///1 333 10055
21016 7////=
71332 15/// /2616 11304 21343 39951 49981 55002 60001 333 11223
21309 70000 555 32923 4021/=
71362 15/// /2504 11231 21258 39775 40040 51013 60001 333 11175
21232 70002=
71363 15/// /1901 11327 21362 39929 49986 55000 60001 333 11315
21368 70000=
71381 45/// /1804 11039 21057 6///1 333 11037 21299 7////=
71386 15/// /1603 11140 21161 39996 40209 58004 60001 333 11065
21223 70000=
71387 15/// /1906 11049 21077 39798 40179 58013 60001 333 11049
21178 70002 555 32018 4017/=
71551 17/// /2808 11089 21100 39399 40072 53016 69951 7//4/ 333
11033 21122 70008 555 32718 4022/=
71571 15/// /2109 11060 21098 38784 49973 58026 60001 333 11029
21067 70000 555 32420 4001/=
71572 17/// /0606 11198 21219 39775 40010 50001 60021 7//4/ 333
11122 21198 70041=
71585 15/// /0000 11203 21223 60001 333 11110 21209 70017=
71589 15/// /2508 11065 21103 30042 40178 56008 60001 333 11056
21157 70000 555 32725 4017/=
71631 17/// /1507 10026 20026 39568 40067 58054 60021 7//4/ 333
10027 21081 70029 555 31617 4003/=
71707 11566 82412 11013 21033 30170 40249 55010 69901 77171 885//
333 11012 21120 44046 79999 90910 555 19999 29999 32624 40160=
71771 45/// /1117 10034 20024 39785 49805 56068 6///1 333 10067
20028 7//// 555 31341 4003/=
71862 11/04 92404 11073 21076 39331 40058 52016 60001 74511 333
11025 21075 79999 555 19999 29999 33118 40230=
71019 45/// /2003 11083 21115 39922 40233 55007 6///1 333 11074
21183 7////=
71020 45/// /2002 11208 21231 39768 40031 58009 6///1 333 11186
21212 7////=
71021 45/// /1206 11194 21239 39663 40023 58011 6///1 333 11172
21194 7////=
71044 45/// /0000 11419 21467 39758 40105 56004 6///1 333 11360
21428 7////=
71069 15/// ///// 11144 60001 333 11078 21183 70000=
71087 45/// /2001 11287 21321 39848 40063 53004 6///1 333 11197
21291 7////=
71110 15/// /2618 11032 21069 30156 40217 55005 60001 333 11030
21091 70000 555 32833 4007/=
71151 17/// /1904 11046 21049 39463 49965 58002 69921 7//4/ 333
11046 21094 70010 555 31718 4014/=
71155 15/// ///// 11128 21133 60001 333 11008 21182 70000=
71158 17/// /2906 11092 21102 39709 49986 53009 69941 7//4/ 333
11060 21128 70014=
71160 15/// /3005 11260 21289 39784 40006 53006 60001 333 11195
21346 79999=
71161 15/// /1103 10008 21005 30000 40150 58038 60001 333 10013
21102 70018=
71162 15/// /3315 11261 21290 39805 40023 51003 60001 333 11203
21263 70009 555 33118 4004/=
71164 45/// /0705 11314 21348 30004 40089 55000 6///1 333 11268
21347 7////=
71216 17/// /1505 10002 20002 39467 40083 58034 60011 7//4/ 333
10021 21001 70101=
71317 15/// /2307 11014 21022 30208 40256 56009 60001 333 11013
21201 70002=
71404 45/// /3008 11175 21204 39750 40022 51008 6///1 333 11163
21193 7//// 555 30624 40111=
71407 15/// /2412 11312 21347 39983 40005 51013 60001 333 11284
21333 70000 555 32637 4020/=
71434 15/// /0704 11109 21121 39966 40033 58011 60001 333 11095
21133 70002=
71472 17/// /1018 10040 20019 39746 49763 56065 60021 7//4/ 333
10065 20039 70026 555 31041 4005/=
71501 15/// /3019 11252 21277 30064 40066 58008 60001 333 11219
21252 70006 555 33239 4007/=
0000368000
187
SMUS01 KWBC 110600 RRA
AAXX 11064
72201 35466 2//03 10233 20222 30176 40183 58001 90553 333 10239
20206 555 91106=
72202 32466 41204 10239 20222 30179 40190 58007 90553 333 10250
20222 555 91106=
72203 32466 41505 10242 20223 30179 40187 58009 90553 333 10244
20167 555 91106=
72205 32866 61405 10217 20194 30158 40190 58008 90553 333 10222
20200 555 91106=
72206 31148 40000 10156 20156 30171 40180 56017 710// 90556 333
10189 20150 555 91106=
72207 37116 91804 10172 20161 30162 40177 58016 710// 90553 333
10183 20133 555 91106=
72208 32466 61506 10183 20167 30163 40179 56022 90556 333 10183
20122 555 91106=
72211 35666 61104 10217 20194 30172 40184 58012 90553 333 10239
20200 555 91106=
72212 35/// /0000 30165 40180 57014 90553 555 91106=
72214 17108 90000 10178 20167 30150 40169 58013 69901 730// 90553
333 10194 20144 555 91106=
72217 37104 90000 10106 20106 30031 40161 58026 730// 90553 333
10106 20061 555 91106=
72218 17108 90000 10100 20094 30119 40171 58021 60081 730// 90553
333 10100 20078 555 91106=
72219 11104 /1206 10089 20083 39775 40152 58031 60041 751// 90552
333 10089 20039 96041 555 91106=
72220 37112 91608 10183 20172 30159 40165 58010 710// 90553 555
91106=
72223 17120 81711 10189 20189 30055 40134 58008 60021 710// 90556
333 10189 20083 555 91106=
72226 17466 81608 10161 20156 30056 40130 58020 60031 791// 90553
333 10161 20078 555 91106=
72231 11108 91911 10183 20183 30119 40126 56013 60031 741// 90553
333 10194 20100 555 91106=
72234 15161 81813 10167 20167 39992 40096 58032 69951 90558 333
10167 20061 555 91106=
72235 17362 81815 10189 20172 39975 40077 56034 69951 791// 90554
333 10189 20050 91024 96061 555 91106=
72240 17116 92109 10172 20172 30108 40117 53005 60131 710// 90553
333 10194 20106 555 91106=
72243 12466 42104 10194 20178 30068 40110 50003 69901 90553 333
10206 20139 555 91106=
72248 12466 62308 10178 20161 39985 40078 50001 60021 90556 333
10183 20106 555 91106=
72250 31112 90000 10183 20183 30126 40129 50003 710// 90553 333
10228 20167 555 91106=
72251 32966 41805 10139 20128 30106 40124 51008 90551 333 10211
20139 555 91106=
72253 32966 22608 10156 20133 39830 40106 51008 90551 333 10211
20150 555 91106=
72254 37959 00000 10144 20122 39890 40110 51014 710// 90551 333
10200 20139 555 91106=
72255 37004 92104 10167 20156 30081 40116 51001 730// 90551 333
10222 20167 555 91106=
72256 32662 60000 10094 20083 39921 40097 50016 90551 333 10178
20083 555 91106=
72259 32966 60000 10106 20022 39894 40096 51013 90553 333 10189
20078 555 91106=
72261 35961 00000 10094 20072 39755 40118 51009 90553 333 10178
20089 555 91106=
72263 35966 02710 10144 21050 39440 40110 53022 90551 333 10194
20083 555 91106=
72265 35966 02909 10072 21061 39140 40122 53034 90553 333 10178
20072 555 91106=
72266 32966 00204 10072 21022 39481 40112 53025 90552 333 10183
20044 555 91106=
72267 32966 03007 10000 21089 39002 40126 53033 90553 333 10128
20000 555 91106=
72268 35966 03003 10072 21106 38890 40128 53036 90551 333 10167
21043 555 91106=
72270 32966 02608 10128 21083 38816 40143 53015 90551 333 10161
20089 91020 555 91106=
72271 35966 03211 10106 21111 38540 40152 51026 90553 333 10156
20022 91016 555 91106=
72274 32966 01806 10067 21050 39301 40205 51017 90553 333 10178
20028 555 91106=
72278 32966 00000 10111 21006 39803 40196 51016 90551 333 10189
20067 555 91106=
72290 31958 00000 10144 20100 30185 40199 51012 710// 90551 333
10189 20100 555 91106=
72295 32964 00000 10150 20117 30140 40194 51012 90553 333 10172
20094 555 91106=
0000371600
188
SMUS04 KWBC 110600
AAXX 11064
72297 31432 20303 10128 20100 30180 40193 53013 705// 90553 333
10183 20078 555 91106=
72387 35966 01004 10056 21039 39060 40208 53014 90552 333 10167
20028 555 91106=
72389 31956 40000 10083 20044 30115 40240 53007 705// 90553 333
10161 20056 555 91106=
72570 35666 82511 10000 21061 38106 40225 53026 90553 333 10000
21144 555 91106=
72594 37948 01103 10072 20061 30191 40220 58002 710// 90553 333
10111 20072 555 91106=
72605 35461 80000 11044 21067 30112 40243 58026 90551 333 11044
21189 555 91106=
72677 32966 62407 10033 21061 38855 40113 53023 90553 333 10050
21021 4/003 555 91106=
72767 35966 02106 11061 21089 39362 40064 53021 90552 333 10006
21100 555 91106=
72777 35866 82404 11011 21050 39171 40102 51021 90553 333 10017
21028 555 91106=
72791 17456 81923 10111 20094 30060 40064 58035 60061 761// 90555
333 10111 20094 91040 96010 555 91106=
72295 32964 00000 10150 20117 30140 40194 51012 90553 333 10172
20094 555 91106=
72302 15466 61808 10200 20178 3//// 40187 58018 69901 90553 333
10211 20061 555 91106=
72314 11104 80203 10056 20056 39917 40182 58024 60031 751// 90552
333 10067 20033 96010 555 91106=
72370 35966 00000 10028 21061 39035 40193 51011 90551 333 10161
21027 555 91106=
72374 35966 00505 10011 21056 38547 40221 51017 90556 333 10128
21061 555 91106=
72376 35966 02506 11017 21106 38321 40218 51020 90553 333 10067
21039 555 91106=
72383 35966 03418 10100 21017 38672 40205 53005 90548 333 10128
20050 555 91106=
72384 32962 00606 10089 20033 30052 40232 53005 90554 333 10161
20056 555 91106=
72386 32966 42107 10100 21022 39461 40202 51015 90556 333 10156
20056 555 91106=
72405 11204 83505 10039 20022 30178 40199 58032 60021 741// 90552
333 10039 21021 555 91106=
72486 35966 01707 11028 21044 38141 40247 51019 90553 333 10056
21028 555 91106=
72583 35966 01909 10044 21011 38738 40223 58000 90556 333 10089
20022 555 91106=
72681 32766 81709 10033 20000 39180 40201 55002 90553 333 10061
20011 555 91106=
72683 15766 80704 10017 20006 38748 40197 58012 69901 90553 333
10044 20000 555 91106=
72688 15766 82111 10100 20017 39581 40115 58030 69901 90553 333
10100 20061 555 91106=
72693 32666 61713 10111 20056 30002 40140 58025 90554 333 10111
20083 555 91106=
72768 35966 03206 11067 21083 39260 40096 53030 90553 333 11017
21083 555 91106=
72772 35666 22406 10044 21050 38770 40142 51007 90553 333 10050
21027 555 91106=
72776 32966 02312 10017 21050 38809 40103 50007 90553 333 10022
21011 555 91106=
72783 12766 81911 10083 20011 39620 40140 56018 69901 90556 333
10094 20056 555 91106=
72785 12566 81812 10039 20006 39254 40116 58014 69901 90553 333
10039 20006 91019 555 91106=
72311 17120 80704 10072 20072 39872 40166 58021 60081 710// 90551
333 10078 20033 555 91106=
72315 17066 81603 10072 20067 39384 40162 58028 60031 761// 90554
333 10072 20011 555 91106=
72371 35966 01105 10061 21056 38732 40202 51021 90553 333 10106
20011 555 91106=
72406 11002 90000 10022 20011 30122 40194 56036 60031 741// 90554
333 10028 21016 555 91106=
72408 11112 80405 10028 20011 30184 40206 58042 60041 710// 90554
333 10028 21016 555 91106=
72412 35866 81614 10167 20078 39253 40130 56027 90551 333 10167
20022 555 91106=
72421 11432 82008 10106 20100 39750 40067 55021 60041 765// 90552
333 10111 20006 96010 555 91106=
72451 35966 02810 11011 21061 39185 40103 51016 90552 333 10033
21028 555 91106=
72458 15966 02809 10006 20000 39532 40063 51018 60011 90555 333
10017 20000 555 91106=
72475 35966 01804 11011 21039 3//// 40235 53016 90552 333 10072
21061 555 91106=
0000022000
189
SAIN34 VOMM 110610
METAR VOHS 110610Z 14006KT 4000 HZ FEW020 27/14 Q1018 BECMG 5000=
METAR VOMM 110610Z 03005KT 6000 SCT020 28/19 Q1015 NOSIG=
METAR VOTR 110610Z 04005KT 6000 SCT016 28/19 Q1015 NOSIG=
0000372300
190
SMUS04 KWBC 110600 RRA
AAXX 11064
72492 35962 01203 10072 20039 30218 40230 51005 90555 333 10156
20050 555 91106=
72509 31104 90000 10011 20006 30239 40244 58023 741// 90554 333
10028 21077 555 91106=
72518 32366 81904 10011 21011 30106 40217 56024 90551 333 10011
21117 4/005 555 91106=
72572 32766 81307 10050 21022 38757 40218 53014 90553 333 10056
21016 4/015 555 91106=
72591 35966 03004 10067 20017 30098 40222 56003 90554 333 10172
20022 555 91106=
72597 37256 20000 10050 20039 39720 40194 56012 710// 90553 555
91106=
72659 35966 01604 11133 21150 39536 40027 53008 90553 333 11056
21133 555 91106=
72792 17466 81916 10100 20078 39978 40049 56047 60081 761// 90554
333 10100 20072 91025 555 91106=
72797 17216 81708 10106 20089 39929 49992 56033 60501 762// 90553
333 10106 20083 91029 96010 555 91106=
72274 32966 01806 10067 21050 39301 40205 51017 90553 333 10178
20028 555 91106=
72278 32966 00000 10111 21006 39803 40196 51016 90551 333 10189
20067 555 91106=
72290 31958 00000 10144 20100 30185 40199 51012 710// 90551 333
10189 20100 555 91106=
72310 11112 90000 10100 20094 30085 40174 58020 60021 710// 90556
333 10100 20078 555 91106=
72334 11232 82614 10144 20133 39951 40053 55013 60351 765// 90554
333 10144 20072 91026 96010 555 91106=
72394 35966 02805 10117 20056 30114 40206 51007 90551 333 10189
20111 555 91106=
72407 12766 81610 10100 20094 30164 40208 58040 60021 90554 333
10100 21049 555 91106=
72488 32966 60000 10039 21011 38718 40242 50004 90555 333 10128
20000 555 91106=
72494 32966 22906 10094 20072 30202 40231 50005 90556 333 10139
20094 555 91106=
72504 17128 80000 10022 20017 30221 40230 56023 60011 761// 90552
333 10022 21049 96010 555 91106=
72508 11112 83103 10006 21006 30161 40234 58027 69981 761// 90551
333 10011 21110 4/003 96010 555 91106=
72513 17440 80000 10022 20011 39833 40185 58047 69931 710// 90554
333 10022 21049 555 91106=
72515 17004 91510 10017 20017 39580 40175 58045 69981 730// 90553
333 10017 21060 555 91106=
72517 11108 80806 10011 20000 30066 40207 58042 60051 761// 90551
333 10011 21032 96010 555 91106=
72521 32666 81510 10083 20068 39628 40078 58043 8/5// 90551 333
10083 21010 555 91106=
72528 11566 81409 10061 20033 39815 40087 58064 69931 761// 90554
333 10061 21055 4/015 555 91106=
72578 35666 82319 10028 21022 38662 40210 53009 90553 333 10033
21021 91026 555 91106=
72617 32566 81711 10022 21022 30073 40204 56034 90554 333 10022
21099 555 91106=
72694 35966 01813 10128 20050 30044 40116 58025 90556 333 10128
20094 91020 555 91106=
72698 12566 81305 10111 20050 30106 40114 58031 69901 90553 333
10122 20094 555 91106=
72773 32766 80503 10028 21011 39014 40156 58005 90553 333 10033
21016 555 91106=
72781 32966 22705 10033 21006 39709 40096 58025 90553 333 10111
21016 555 91106=
72793 11566 81411 10094 20072 39886 40053 58055 60041 761// 90553
333 10094 20083 555 91106=
72202 32466 41204 10239 20222 30179 40190 58007 90553 333 10250
20222 555 91106=
72207 37116 91804 10172 20161 30162 40177 58016 710// 90553 333
10183 20133 555 91106=
72208 32466 61506 10183 20167 30163 40179 56022 90556 333 10183
20122 555 91106=
72217 37104 90000 10106 20106 30031 40161 58026 730// 90553 333
10106 20061 555 91106=
72218 17108 90000 10100 20094 30119 40171 58021 60081 730// 90553
333 10100 20078 555 91106=
72220 37112 91608 10183 20172 30159 40165 58010 710// 90553 555
91106=
72223 17120 81711 10189 20189 30055 40134 58008 60021 710// 90556
333 10189 20083 555 91106=
72226 17466 81608 10161 20156 30056 40130 58020 60031 791// 90553
333 10161 20078 555 91106=
0000375500
191
SMUS04 KWBC 110600 RRB
AAXX 11064
72235 17362 81815 10189 20172 39975 40077 56034 69951 791// 90554
333 10189 20050 91024 96061 555 91106=
72240 17116 92109 10172 20172 30108 40117 53005 60131 710// 90553
333 10194 20106 555 91106=
72241 15162 82309 10189 20183 30105 40112 53007 60081 90553 333
10200 20128 555 91106=
72243 12466 42104 10194 20178 30068 40110 50003 69901 90553 333
10206 20139 555 91106=
72251 32966 41805 10139 20128 30106 40124 51008 90551 333 10211
20139 555 91106=
72254 37959 00000 10144 20122 39890 40110 51014 710// 90551 333
10200 20139 555 91106=
72256 32662 60000 10094 20083 39921 40097 50016 90551 333 10178
20083 555 91106=
72261 35961 00000 10094 20072 39755 40118 51009 90553 333 10178
20089 555 91106=
72266 32966 00204 10072 21022 39481 40112 53025 90552 333 10183
20044 555 91106=
72268 35966 03003 10072 21106 38890 40128 53036 90551 333 10167
21043 555 91106=
72270 32966 02608 10128 21083 38816 40143 53015 90551 333 10161
20089 91020 555 91106=
72306 11158 80000 10078 20072 30030 40185 58019 60061 761// 90551
333 10078 20039 96010 555 91106=
72308 17466 61604 10156 20139 30176 40191 58036 60021 761// 90551
333 10156 20011 555 91106=
72312 17148 80505 10078 20072 39822 40162 58024 60021 761// 90553
333 10083 20028 96010 555 91106=
72317 11108 /0704 10033 20028 39848 40179 58032 60041 761// 90554
333 10056 20017 96041 555 91106=
72323 12366 81613 10128 20117 39868 40091 58034 60021 90553 333
10128 20067 555 91106=
72324 11232 81905 10100 20089 39875 40126 58038 69981 710// 90553
333 10100 20056 555 91106=
72327 32466 81816 10144 20117 39812 40059 58040 90553 333 10144
20072 91022 555 91106=
72344 12966 02803 10039 20022 39908 40075 50005 60011 90553 333
10117 20017 555 91106=
72363 32966 03004 10011 21128 38886 40125 51025 90553 333 10111
20011 555 91106=
72401 11220 80404 10050 20044 30119 40185 58036 69951 710// 90554
333 10056 20006 555 91106=
72403 11256 80804 10017 20017 30081 40193 58035 60031 710// 90552
333 10017 21010 555 91106=
72414 32766 60000 10122 20094 39736 40101 56031 90554 333 10122
20011 555 91106=
72429 11759 81810 10094 20083 39695 40056 56033 60011 761// 90556
333 10100 20006 96010 555 91106=
72502 11116 80205 10017 20011 30211 40219 58036 60021 761// 90551
333 10017 21032 96010 555 91106=
72514 17220 80904 10011 20000 39983 40186 58041 69901 761// 90554
333 10011 21032 96010 555 91106=
72520 32766 81303 10067 20050 39677 40110 58042 90551 333 10067
21005 555 91106=
72566 35866 82908 10000 21067 38732 40102 53019 90553 333 10039
21005 555 91106=
72606 35661 80000 11011 21028 30229 40249 56018 90551 333 11011
21161 555 91106=
72712 35466 82303 11083 21128 39994 40239 55005 90554 333 11078
21189 555 91106=
74740 35962 03003 10067 20044 39516 40107 53020 90551 333 10183
20067 555 91106=
72206 31148 40000 10156 20156 30171 40180 56017 710// 90556 333
10189 20150 555 91106=
72234 15161 81813 10167 20167 39992 40096 58032 69951 90558 333
10167 20061 555 91106=
72428 32566 81608 10106 20072 39776 40071 58036 90551 333 10106
20006 555 91106=
72445 17259 82708 10044 20039 39698 40021 53006 69901 710// 90554
333 10072 20006 555 91106=
72446 12364 82905 10017 20006 39658 40038 51012 69901 90553 333
10039 21010 555 91106=
72464 35966 00000 11017 21117 38527 40122 51015 90553 333 10056
21033 555 91106=
72465 35966 02712 11028 21072 38830 40113 53019 90553 333 10006
21061 555 91106=
72530 11261 82110 10044 20022 39751 49991 56019 60091 761// 90551
333 10044 21027 4/008 555 91106=
72533 11248 81712 10044 20039 39731 40028 58043 60091 761// 90554
333 10044 21016 4/010 96010 555 91106=
0000370100
192
SMUS04 KWBC 110600 RRC
AAXX 11064
72539 11266 81712 10039 20033 39700 40017 56050 60101 761// 90553
333 10039 21055 555 91106=
72543 11124 81806 10017 20017 39726 49991 55013 60051 751// 90554
333 10028 21038 4/023 96010 555 91106=
72546 11358 82907 10006 21006 39660 40015 58001 69901 710// 90554
333 10011 21049 4/003 555 91106=
72548 12362 82905 10000 21006 39677 49996 58002 69901 90554 333
10000 21066 555 91106=
72550 31956 00000 11033 21039 39664 40038 53006 710// 90552 333
10011 21039 555 91106=
72551 37956 00000 11044 21056 39614 40052 53009 710// 90554 333
10006 21067 555 91106=
72569 35966 0//// 11050 21100 38310 40141 51024 90553 333 11017
21072 555 91106=
72637 17366 81711 10044 20028 39742 40022 58061 60061 761// 90553
333 10044 21043 555 91106=
72639 17366 81511 10017 20011 39752 40007 58063 60081 761// 90554
333 10017 21106 555 91106=
72641 11116 82003 10022 20017 39667 49981 58015 60021 710// 90553
333 10022 21055 555 91106=
72654 35966 02904 11067 21094 39554 40028 53005 90555 333 11028
21067 555 91106=
72658 11102 92604 11017 21017 39672 49992 58012 69901 741// 90553
333 11006 21089 4/015 555 91106=
72672 15966 02818 10011 21072 38269 40127 52023 69901 90553 333
10017 21067 555 91106=
72753 32466 82507 11039 21067 39658 49995 53007 90553 333 11033
21089 91030 555 91106=
72201 35466 2//03 10233 20222 30176 40183 58001 90553 333 10239
20206 555 91106=
72203 32466 41505 10242 20223 30179 40187 58009 90553 333 10244
20167 555 91106=
72205 32866 61405 10217 20194 30158 40190 58008 90553 333 10222
20200 555 91106=
72212 35/// /0000 30165 40180 57014 90553 555 91106=
72219 11104 /1206 10089 20083 39775 40152 58031 60041 751// 90552
333 10089 20039 96041 555 91106=
72231 11108 91911 10183 20183 30119 40126 56013 60031 741// 90553
333 10194 20100 555 91106=
72250 31112 90000 10183 20183 30126 40129 50003 710// 90553 333
10228 20167 555 91106=
72253 32966 22608 10156 20133 39830 40106 51008 90551 333 10211
20150 555 91106=
72259 32966 60000 10106 20022 39894 40096 51013 90553 333 10189
20078 555 91106=
72265 35966 02909 10072 21061 39140 40122 53034 90553 333 10178
20072 555 91106=
72267 32966 03007 10000 21089 39002 40126 53033 90553 333 10128
20000 555 91106=
72353 32966 62906 10044 21056 39636 40096 51021 90552 333 10094
20017 555 91106=
72360 35966 03012 10006 21128 38435 40117 51012 90555 333 10067
21011 555 91106=
72365 32966 0//04 10061 21100 38394 40188 51031 90552 333 10117
21021 555 91106=
72411 11112 80000 10033 20028 39757 40192 58036 60011 710// 90554
333 10033 20006 555 91106=
72417 15966 01609 10111 20078 39428 40140 56033 69981 90551 333
10122 20017 555 91106=
72462 35966 0//// 11144 21167 37694 40243 51025 90552 333 11033
21211 555 91106=
72480 35966 03408 10078 21028 38804 40212 51018 90556 333 10200
20044 555 91106=
72503 11124 80705 10011 20000 30210 40221 58035 69981 761// 90551
333 10017 21027 96010 555 91106=
72507 11108 80000 10017 20011 30224 40244 58022 60021 761// 90551
333 10017 21099 96041 555 91106=
72524 12766 81814 10089 20061 39788 40069 58040 69951 90551 333
10089 21005 4/008 91021 555 91106=
72526 15766 61622 10083 20039 39808 40075 56048 69901 90551 333
10083 21005 91029 555 91106=
72529 32966 81310 10039 20017 39900 40118 58055 90554 333 10050
21055 4/003 555 91106=
72547 17132 82707 10006 20006 39592 49984 58010 69931 710// 90553
333 10006 21055 555 91106=
72564 35966 03122 11006 21083 38055 40116 53022 90553 333 11006
21050 91033 555 91106=
72764 32966 83005 11044 21072 39435 40040 51023 90552 333 11022
21083 555 91106=
00000000