0000011000
353
UANT99 KDDL 110554
ARP UAE212 5819N04730W 0554 F330 MS59 269/49 KT
A6ECV QXS UAK 110554 F27A
0000010800
354
UANT99 KDDL 110554
ARP SWR9 5502N04120W 0554 F390 MS59 271/34 KT
HBJHB QXT AOW 110554 J18A
0000010900
355
UANT99 KDDL 110554
ARP BAW94 5500N01930W 0554 F360 MS58 236/70 KT
GYMMB QXT AOE 110554 F27A
0000011000
356
UANT99 KDDL 110554
ARP ACA830 5150N02212W 0554 F370 MS62 216/85 KT
CGFAF DDL XXW 110554 J84A
0000009800
357
SACY41 EGRR 110550
METAR LCRA 110550Z 33003KT 9999 FEW035 SCT250 08/M00 Q1023 BLU=
0000011000
358
UANT01 CWAO 110554
ARP UAL46 4845N05206W 0554 F370 MS66 300/46 KT
N78002 DDL YYT 110554 F33A
0000011100
359
UANT01 CWAO 110554
ARP SVA034 4827N03800W 0554 F330 MS51 303/23 KT
HZAK19 QXT AME 110554 F23A
0000011000
360
UANT01 CWAO 110554
ARP AFR065 5547N05344W 0554 F390 MS62 285/68 KT
FHPJA QXS YHO 110554 J35A
0000011000
361
UANT01 CWAO 110554
ARP UAE226 6327N05607W 0554 F330 MS60 222/14 KT
A6EGH DDL XXW 110554 F20A
0000011000
362
UANT01 CWAO 110555
ARP AFR083 5605N04600W 0554 F360 MS59 279/50 KT
FGSPO DDL UAK 110555 F16A
0000011000
363
UANT01 CWAO 110555
ARP AZA611 4527N04800W 0554 F390 MS59 308/53 KT
EIEJJ QXT AOW 110555 J32A
0000033000
364
SAGU31 MGGT 110600
METAR
METAR MGMM 110600Z 00000KT CAVOK 21/20 Q1016 A3000=
METAR MGHT 110600Z 00000KT CAVOK 10/08 QFE817.0=
METAR MGPB 110600Z 00000KT 9999 FEW016 BKN080 23/22 Q1014 A2994=
METAR MGGT 110600Z 36010KT 7000  BKN010 15/13 Q1026 A3030 BR=
METAR MGSJ 110600Z 00000KT CAVOK 23/21 Q1013 A2991=
0000011000
365
UANT01 CWAO 110555
ARP AFR377 4826N04807W 0554 F350 MS63 306/63 KT
FGLZU DDL YYT 110555 J91A
0000011000
366
UANT01 CWAO 110555
ARP UAL83 6208N05529W 0555 F360 MS58 255/20 KT
N76021 DDL XXN 110555 F33A
0000011000
367
UANT01 CWAO 110555
ARP BAW188 4954N04027W 0555 F400 MS53 278/27 KT
GZBJA QXT AOW 110555 L10A
0000011000
368
UANT01 CWAO 110555
ARP BAW114 4745N04135W 0555 F340 MS57 329/60 KT
GSTBC QXT AOW 110555 F09A
0000011000
369
UANT01 CWAO 110555
ARP ACA846 5051N04056W 0555 F360 MS57 307/36 KT
CGFAJ DDL XXW 110555 J89A
0000014200
370
SMMZ01 FQMA 110600
AAXX 11063
67295 32480 60000 10254 20222 39378 48552 83201 333 20166
50610 55124 58033 94320 555 10000=
0000013000
371
SMAA01 NZSP 110600
AAXX 11064
89664 31561 70908 11024 21089 39949 49990 56002 71522 84570 333
56880 81620 83645=
0000013000
372
SMKA01 PTYA 110600
AAXX 11064
91413 32469 80714 10296 20247 30059 40084 57019 83871 333 56299
70005 555 91106=
00000000