0000098600
686
SNOS41 LOWM 110700
AAXX 11071
11001 36/// /0902 10007 21004 39460 40211 57004 333 55300=
11024 36/// /2003 11006 21028 39074 48480 58001 333 55300=
11030 36/// /0000 11024 21029 39998 40223 53001 333 55300=
11053 36/// /0000 11027 21029 39681 40216 55005 333 55300=
11105 36/// /1501 10023 20020 39662 40195 55007 333 55300=
11110 36/// /2604 10037 21058 37899 48491 55002 333 55300=
11112 36/// /0000 10006 20003 39260 40229 55002 333 55300=
11127 36/// /1901 10008 21056 38054 48504 53002 333 55300=
11136 36/// /0000 11007 21010 39030 48490 55001 333 55300=
11142 NIL=
11147 36/// /0000 11007 21007 39197 40231 57001 333 55300=
11148 36/// /0000 11027 21035 38989 48493 53003 333 55300=
11153 36/// /3201 10002 20001 39622 40215 56005 333 55300=
11165 NIL=
11180 36/// /3004 10008 21023 38429 48491 53003 333 55300=
11229 36/// /0101 10012 20006 39741 40240 52004 333 55300=
11232 36/// /2001 11002 21006 39587 40240 53003 333 55300=
0000126500
687
SNOS44 LOWM 110700
AAXX 11071
11137 36/// /1401 10007 20001 39278 40232 57001 333 55300=
11173 36/// /0201 10005 21022 38992 48486 51002 333 55300=
11302 36/// /0000 10015 20015 39695 40195 55005 333 55300=
11308 36/// /2201 10027 21011 38522 48491 55004 333 55300=
11310 36/// /3401 10018 21080 37692 47072 55001 333 55300=
11340 36/// /3106 10002 21040 38029 48494 53002 333 55300=
11345 36/// /2601 10013 20006 39327 40229 55000 333 55300=
11346 36/// /2001 11016 21021 39107 48488 52002 333 55300=
11348 36/// /3601 11035 21036 38879 48495 55000 333 55300=
11350 36/// /0000 11002 21004 39687 40204 56008 333 55300=
11351 36/// /0301 11002 21010 38804 48491 55000 333 55300=
11354 36/// /1001 10002 21008 39604 40222 58002 333 55300=
11355 36/// /1001 11014 21018 39485 40219 55004 333 55300=
11356 36/// /0000 11002 21003 39325 40222 58001 333 55300=
11357 36/// /1001 10007 20006 39548 40211 56006 333 55300=
11358 36/// /0000 11018 21018 39258 40230 52001 333 55300=
11370 36/// /0000 11014 21024 39612 40237 55001 333 55300=
11380 36/// /0000 11010 21018 39626 40229 57001 333 55300=
11382 36/// /0000 11026 21035 39513 40237 57001 333 55300=
11384 36/// /1902 10001 21018 38678 48486 53003 333 55300=
0000123000
688
SNOS42 LOWM 110700
AAXX 11071
11008 36/// /1801 11040 21042 39482 40228 58002 333 55300=
11015 36/// ///// 11053 21057 39549 40235 55000 333 55300=
11020 36/// /0000 11051 21055 39599 40232 54000 333 55300=
11021 36/// /0000 11030 21030 39534 40221 50001 333 55300=
11032 36/// /2501 11024 21031 39959 40220 52005 333 55300=
11078 36/// /2303 10004 21018 39374 40216 55002 333 55300=
11129 36/// /2005 11003 21011 38649 48508 55000 333 55300=
11135 NIL=
11138 36/// /0303 10009 21067 37677 47056 55000 333 55300=
11141 36/// /1901 10014 20011 39560 40228 50000 333 55300=
11144 36/// /1701 10014 20008 3//// 4//// 5//// 333 55300=
11154 36/// /0101 11009 21020 39686 40213 55003 333 55300=
11170 36/// /0000 11031 21036 39479 40235 55001 333 55300=
11174 NIL=
11182 36/// /2502 11008 21022 39869 40220 54000 333 55300=
11192 36/// /0000 10036 20032 39887 40216 53001 333 55300=
11194 36/// /0601 10017 20001 30026 40213 53005 333 55300=
11213 36/// /3602 10003 21002 39630 40239 54000 333 55300=
11225 36/// /2701 11029 21033 39378 40252 53002 333 55300=
11241 36/// /2502 10024 21023 38556 48492 50002 333 55300=
11261 36/// /3001 10001 21016 39262 40238 57001 333 55300=
0000130400
689
SNOS40 LOWM 110700
AAXX 11071
11010 31710 69901 11025 21025 39828 40222 57003 74141 333 82650
85075=
11012 36/// /0000 11013 21018 39733 40219 55002 333 55300=
11022 36/// /2301 10007 21022 39814 40211 53004 333 55300=
11035 32680 22401 10001 21005 39955 40216 53003 82500 333 82640=
11036 32682 71703 11001 21013 39989 40220 52003 333 87635=
11101 36/// /0000 10025 20022 39663 40197 55003 333 55300=
11120 31125 82302 10013 20012 39508 40231 55001 71022 333 83702
86704=
11126 36/// /3003 10008 21053 37744 48497 53001 333 55300=
11130 36/// /2203 10029 20017 39616 40215 55000 333 55300=
11146 NIL=
11150 31135 63202 11004 21005 39659 40210 57007 74022 333 81702
86080=
11155 36/// /2907 10022 21019 38358 48485 52001 333 55300 91119=
11157 36/// /0301 11014 21016 39438 40236 52002 333 55300=
11171 36/// /1102 11031 21039 39186 40235 55001 333 55300=
11190 36/// /0102 10022 20013 39988 40215 53007 333 55300=
11204 36/// /0000 11043 21049 39434 40261 50001 333 55300=
11212 NIL=
11231 31150 80102 10010 20010 39653 40239 53001 71022 333 82702
88705=
11240 32368 79901 10021 20009 39774 40222 52003 333 84709 87359=
11244 36/// /0101 10042 20034 39885 40219 52007 333 55300=
11389 36/// /3601 11013 21019 39884 40222 57001 333 55300=
0000139300
690
SNOS43 LOWM 110700
AAXX 11071
11018 36/// /0801 11021 21022 39889 40222 52001 333 55300=
11019 36/// /2403 11016 21028 39477 40222 50001 333 55300=
11034 36/// /2102 10023 20002 39993 40215 53002 333 55300=
11040 36/// /2401 11009 21028 39970 40221 52003 333 55300=
11051 36/// /1102 11017 21020 39727 40211 57005 333 55300=
11055 36/// /3602 11017 21020 39824 40216 55006 333 55300=
11060 36/// /2201 11007 21014 39891 40220 55001 333 55300=
11070 36/// /0000 11037 21044 39964 40224 55000 333 55300=
11075 36/// /3002 11026 21033 39958 40224 54000 333 55300=
11082 36/// /0000 10000 21013 39938 40215 53002 333 55300=
11149 36/// /0000 10024 21031 38244 48495 53003 333 55300=
11152 36/// /0000 11011 21015 39590 40213 55005 333 55300=
11185 36/// /0000 10002 21005 39038 48485 53001 333 55300=
11248 36/// /2001 10044 20043 39952 40219 52004 333 55300=
11252 36/// /2701 11014 21025 38840 48505 50003 333 55300=
11255 36/// /0000 10000 21004 39377 40239 50002 333 55300=
11270 36/// /0301 11037 21042 39485 40262 50004 333 55300=
11275 36/// /0802 11002 21015 39170 40239 54000 333 55300=
11280 36/// /2901 11019 21026 39260 40248 53003 333 55300=
11292 36/// /0000 10016 20012 39575 40220 55000 333 55300=
11343 36/// /2908 11055 21097 36949 47057 51008 333 55300 91120=
11385 36/// /2001 10011 20011 39101 48483 54000 333 55300=
0000010000
691
SNNO22 ENMI 110700 RRA
AAXX 11071
01003 46/// /2806 11004 21052 30089 40103 52005=
0000095600
692
SACI32 ZBBB 110700
METAR ZGKL 110700Z 06002MPS 030V090 2800 -RA BR FEW006
SCT016
OVC036 07/06 Q1026 BECMG FM0800 3200 -RA BR=
METAR ZGNN 110700Z 06004MPS 2500 BR SCT015 OVC026 15/11 Q1021 NOSIG=
METAR ZGOW 110700Z 18003MPS 110V240 6000 NSC 20/11 Q1021 NOSIG=
METAR ZGSZ 110700Z 23003MPS 3500 HZ NSC 20/13 Q1021 NOSIG=
METAR ZLXY 110700Z 21005MPS 5000 HZ NSC 07/M11 Q1029 NOSIG=
METAR ZMUB 110700Z VRB01MPS 2000NW FU NSC M23/M26 Q1028 NOSIG
RMK
QFE662.4 71 NW MO=
METAR ZPPP 110700Z 22011MPS CAVOK 16/M04 Q1021 NOSIG=
METAR ZSAM 110700Z 07003MPS 9999 FEW040 20/12 Q1022 NOSIG=
METAR ZSFZ 110700Z 02005MPS 340V040 9999 OVC026 15/08 Q1024 NOSIG=
METAR ZSNB 110700Z VRB01MPS 2200 -RA BR SCT004 BKN020 OVC050
07/07
Q1028 NOSIG=
METAR ZSQD 110700Z 24002MPS 200V280 3000 FU NSC 05/M06 Q1030 NOSIG=
METAR ZUGY 110700Z 04003MPS 360V090 8000 FEW009 BKN015 OVC033
04/01
Q1024 NOSIG=
METAR ZUUU 110700Z 03005MPS 360V070 9999 FEW030 10/M01 Q1026 NOSIG=

0000059700
693
SAMS31 WMKK 110700
METAR WBGG 110700Z 35009KT 300V040 9999 FEW015CB SCT020 BKN150 28/23
Q1009 NOSIG=
METAR WBKK 110700Z 15003KT 9999 FEW013 FEW017CB BKN130 OVC260 27/24 
Q1009 NOSIG=
METAR WBSB 110700Z 32008KT 9999 SCT016 FEW017CB BKN280 30/25 Q1010
NOSIG=
METAR WMKK 110700Z 30005KT 230V350 9999 SCT018 BKN280 32/24 Q1009 
NOSIG=
METAR WMKP 110700Z 04010KT 350V060 9999 FEW020 BKN140 BKN270 28/23 
Q1010 NOSIG=
METAR WSSL 110700Z 35009KT 9999 VCSH FEW015 SCT017TCU FEW018CB BKN300
32/24 Q1009=
METAR WSSS 110700Z 04009KT 320V080 9999 FEW017CB FEW020TCU BKN300 
30/25 Q1009 NOSIG=

0000003900
694
UAIN31 VABB 110655
NIL=
0000042000
695
SAJP31 RJTD 110700
METAR RJAA 110700Z VRB02KT 9999 FEW030 07/M09 Q1022 BECMG 31005KT=
METAR RJBB 110700Z 29012KT 9999 FEW025 07/M06 Q1027 NOSIG=
METAR RJTT 110700Z 12004KT 9999 FEW025 07/M06 Q1022 NOSIG=
METAR RJOO 110700Z 32005KT 280V340 9999 FEW030 SCT050 08/M05 Q1026=
METAR ROAH 110700Z 10008KT 050V130 9999 FEW035 BKN050 19/08 Q1024=
METAR RJGG 110700Z 33017KT 9999 FEW025 SCT045 07/01 Q1025 NOSIG=

0000048800
696
SAMS32 WMKK 110700
METAR WBGG 110700Z 35009KT 300V040 9999 FEW015CB SCT020 BKN150 28/23
Q1009 NOSIG=
METAR WBKK 110700Z 15003KT 9999 FEW013 FEW017CB BKN130 OVC260 27/24 
Q1009 NOSIG=
METAR WMKJ 110700Z 36009KT 9999 FEW017CB SCT018 BKN280 32/25 Q1009=
METAR WMKK 110700Z 30005KT 230V350 9999 SCT018 BKN280 32/24 Q1009 
NOSIG=
METAR WMKP 110700Z 04010KT 350V060 9999 FEW020 BKN140 BKN270 28/23 
Q1010 NOSIG=
METAR WMSA 110700Z 30005KT 9999 SCT020 SCT140 BKN280 32/23 Q1008=

0000121600
697
SNNO48 ENMI 110700
AAXX 11071
01002 46/// /1606 11078 21121 30048 40059 50001=
01006 46/// /2107 11029 21058 30062 40078 54002=
01009 46/// /2302 11031 2//// 30054 40061 54001=
01011 46/// /1002 11065 21071 30069 40080 54001=
01016 46/// /1701 11058 21064 30070 40086 54003=
01017 46/// /2504 11002 2//// 30092 40100 52004=
01020 46/// /2804 11011 21032 30096 40106 52006=
01024 46/// /3501 11031 21042 30070 40083 54003=
01035 46/// ///// 11165 2//// 333 4/166=
01043 46/// /1101 11075 2////=
01105 46/// /0612 11058 21105=
01124 NIL=
01133 26/// /1307 11100 21178 333 4/011 60005=
01146 26/// /0403 11083 21173 333 60005=
01148 26/// /1205 11099 21200 333 4/071 60005=
01158 NIL=
01198 26/// ///// 11252 21280 39929 40210 52010 333 60005=
01214 46/// /1303 11031 21062=
01221 46/// ///// 11124 21168=
01224 NIL=
01239 NIL=
01242 46/// ///// 11092 21149=
01287 46/// ///// 11172 21201 333 4/031=
01315 NIL=
01326 NIL=
01346 NIL=
01352 NIL=
01356 NIL=
01365 NIL=
01414 NIL=
01417 NIL=
01418 NIL=
01426 NIL=
01444 NIL=
01449 NIL=
01453 NIL=
01478 NIL=
01486 26/// ///// 11007 21018 333 69935=
01487 46/// /0505 11030 21040=
0000175500
698
SNNO49 ENMI 110700
AAXX 11071
01027 NIL=
01044 46/// /0902 11059 21078 30171 40180 50002=
01068 46/// /2004 11054 21077 30156 40175 55001=
01074 46/// /1602 11046 21068 30156 40171 53004=
01083 46/// /2304 11044 21050 30153 40170 52006=
01084 NIL=
01086 46/// /2302 11080 21122 39974 40167 52003=
01088 46/// /2406 11054 21070 30114 40164 52005=
01099 46/// /0107 11022 21090 30138 40154 52002=
01112 46/// /0905 11063 21133 30064 40074 55001=
01116 46/// /3604 11069 21149 30062 40083 55001=
01117 NIL=
01139 46/// /0913 11032 21095 30119 40125 53005=
01151 46/// /1202 11093 21207 30036 40127 51007=
01153 NIL=
01161 46/// /0708 11054 21100 30138 40149 52005=
01162 46/// /0805 11053 21134 30149 40154 52006=
01183 46/// /1304 11075 21148 30130 40164 52005=
01193 46/// /0505 11081 21131 30126 40164 52006=
01209 46/// /3501 11078 21090 39896 49990 53003=
01217 46/// /0203 11039 21068 39989 49993 52003=
01220 NIL=
01223 46/// /1103 11044 21071 39921 49999 52003=
01250 NIL=
01270 NIL=
01272 NIL=
01282 46/// /1108 11074 21141 30057 40063 53004=
01290 46/// /0806 11102 21155 30067 40069 53011=
01308 NIL=
01310 46/// /0703 11006 21021 39962 49976 55000=
01320 46/// /2301 11012 21037 39904 49978 55000=
01323 46/// /0000 11024 21029 39577 49967 55001=
01342 NIL=
01347 46/// /0601 11025 21027 39365 49966 57004=
01358 NIL=
01362 NIL=
01368 46/// /0803 11079 21094 39000 49991 53001=
01371 NIL=
01381 NIL=
01382 NIL=
01387 NIL=
01408 46/// /2911 10052 20034 39962 49994 53001=
01413 NIL=
01463 26/// ///// 11015 2//// 333 60005=
01464 NIL=
01466 46/// /0205 11033 21043 39860 49995 53008=
01485 NIL=
01489 26/// ///// 11037 2//// 333 69985=
0000010900
699
UANT01 CWAO 110707
ARP DAL8 5408N05644W 0707 F330 MS61 279/75 KT
N706DN QXS YHO 110707 F09A
0000011000
700
UANT01 CWAO 110707
ARP UAL90 4744N04139W 0707 F350 MS57 323/61 KT
N77012 DDL XXW 110707 F29A
0000010900
701
UANT01 CWAO 110707
ARP THY12 5108N05313W 0707 F330 MS60 291/58 KT
TCJJO QXS YAY 110707 F07A
0000011000
702
UANT01 CWAO 110707
ARP DAL18 5523N04337W 0707 F360 MS60 287/44 KT
N842MH QXT AOW 110707 F43A
0000014500
703
SSVX13 LFPW 110700
ZZYY 32693 11014 0700/ 517132 143058 6113/ 11119 40144 52014 444
 20130 11014 0600/ 50101 80124 80002 9/015=
0000015700
704
SSVX13 LFPW 110708
ZZYY 13665 11014 0708/ 717276 059132 6113/ 11119 40169 57014 22219
 00265 444 20130 11014 0600/ 50101 80142 80002 9/015=
0000010900
705
UANT99 KDDL 110707
ARP MGSIX 4755N01403W 0707 F450 MS49 237/29 KT
MGSIX QXT AOE 110707 A01A
00000000