0000044700
693
SMAJ01 UBBB 110600
AAXX 11061
37575 42999 20202 11010 21032 39613 40218 56012 82050=
37675 42999 00201 10028 21049 39460 40124 57013=
37735 42999 03202 10014 21052 39785 40169 58005=
37749 42998 00202 10016 21025 30082 40201 57008=
37756 42999 02705 11023 21042 39276 40220 57029=
37864 32497 21707 10042 20018 40150 58008 82600 333   20037 555   
30///=
37985 41596 80000 10007 21016 30204 40189 53002 71011 885//=
0000010800
694
UANT01 CWAO 110601
ARP SWR9 5500N03935W 0601 F390 MS57 259/25 KT
HBJHB QXT AOW 110601 J20A
0000011000
695
UANT01 CWAO 110601
ARP DAL32 4847N04123W 0601 F390 MS54 311/28 KT
N858NW DDL XXW 110601 J28A
0000011000
696
UANT01 CWAO 110601
ARP AZA65F 4601N05135W 0601 F390 MS60 299/59 KT
EIEJG DDL YYT 110601 J27A
0000011100
697
UANT01 CWAO 110602
ARP FIN1990 5331N04128W 0602 F380 MS58 287/41 KT
OHLQE QXT AOW 110602 J80A
0000011100
698
UANT01 CWAO 110602
ARP AWE797 5943N04359W 0601 F340 MS59 230/18 KT
N282AY DDL XXW 110602 J45A
0000016000
699
SSVX02 LFVW 110602
ZZYY 41649 11014 0552/ 733907 031698 6112/
22219 00200
33311 88872 20000 31997 43631
444 2012/ 11014 0531/ 50101 9/015=
0000009300
700
SAGD31 TGPY 110600
METAR TGPY 110600Z 06010KT 9999 SCT018 SCT038 25/21 Q1014=
0000013100
701
SNIY20 LIIB 110500 RRC
AAXX 11054
16280 42597 70103 10116 20100 39990 40213 54000 87500 333 87630 555
      0////=
0000011000
702
UANT01 CWAO 110602
ARP BAW214 5037N03223W 0602 F330 MS54 183/50 KT
GCIVN QXT AOW 110602 F14A
0000011100
703
UANT01 CWAO 110602
ARP NAX7006 5148N05435W 0602 F390 MS67 287/58 KT
EILNB QXS YAY 110602 L33A
0000011100
704
UANT01 CWAO 110602
ARP GTI603 5010N04450W 0556 F350 MS63 323/67 KT
N850GT DDL H04 110602 F33A
0000014200
705
UANT01 CWAO 110602
ARP KAC118 5233N03243W 0602 F330 5300N03000W 0614 5400N02000W MS57
 205/50 KT
9KAOA QXT AOW 110602 F14A
0000011800
706
SMVB11 LFPW 110600
BBXX
BATFR10 11064 99233 11228 46/// /1024 10210 20119 40225 56017
22283 04239=
0000029900
707
FTSA85 EGRR 110558 RRE
TAF AMD SBBR 110545Z 1106/1206 17003KT 9999 TS SCT020 FEW035CB TN19/1
     108Z TX30/1118Z
     BECMG 1106/1108 06008KT SCT020
     BECMG 1114/1116 SCT030 FEW040TCU
     PROB30 1118/1121 TS FEW030CB
     BECMG 1122/1124 05005KT SCT030
     RMK PDC=
0000092100
708
SASA85 EGRR 110600 RRA
METAR SBAR 110600Z 12009KT 9999 SCT015 26/21 Q1012=
METAR SBBE 110600Z 10004KT CAVOK 24/23 Q1010=
METAR SBCF 110600Z 09005KT 9999 FEW025 SCT100 21/17 Q1017=
METAR SBCY 110600Z 32003KT 9999 FEW020 SCT100 23/21 Q1010=
METAR SBEG 110600Z 10007KT 9999 -RA SCT009 BKN025 22/20 Q1013=
METAR SBGL 110600Z 09004KT CAVOK 25/20 Q1011=
METAR SBMN 110600Z 06005KT 9999 SCT010 SCT100 22/21 Q1011=
METAR SBNT 110600Z 12004KT 9999 BKN023 25/21 Q1012=
METAR SBPA 110600Z 36002KT CAVOK 22/20 Q1009=
METAR SBPK 110600Z 00000KT CAVOK 20/19 Q1008=
METAR SBRF 110600Z 13005KT 9999 FEW023 26/21 Q1011=
METAR SBSJ 110600Z 00000KT CAVOK 21/18 Q1015=
METAR SKBO 110600Z VRB02KT 9999 BKN015 12/09 A3028=
METAR SMJP 110600Z 11002KT 9999 FEW010 SCT045 23/23 Q1012 NOSIG=
METAR SVBC 110600Z 00000KT 9999 FEW010 23/22 Q1014=
METAR SVMG 110600Z /////KT 9999 SCT010 24/22 Q1014 NOSIG=
0000009000
709
SASA85 EGRR 110500 RRI
METAR SANT 110500Z 18015KT 9999 OVC040 24/21 Q1009=
0000012700
710
SPSA85 EGRR 110600
SPECI SBPV 110555Z 07009KT 5000 -RA SCT006 BKN012 FEW025TCU BKN070
      24/22 Q1010 RETS=
0000167800
711
SASA85 EGRR 110600 RRB
METAR SBBR 110600Z 00000KT 9999 SCT030 FEW040TCU 21/15 Q1017=
METAR SBFI 110600Z 00000KT CAVOK 24/22 Q1009=
METAR SBFZ 110600Z 09012KT 9999 SCT020 26/20 Q1010=
METAR SBKP 110600Z 12006KT CAVOK 21/18 Q1015=
METAR SBMA 110600Z 30001KT 9999 -RA NSC 22/22 Q1011=
METAR SBPV 110600Z 06008KT 5000 -RA SCT006 BKN012 FEW025TCU BKN070
      23 /22 Q1010 RETS=
METAR SBRB 110600Z 09005KT 9999 FEW020 FEW025TCU SCT100 ///// Q1010
      R ETS=
METAR SBSV 110600Z 08008KT 9999 SCT017 FEW020TCU 26/23 Q1012=
METAR SBVT 110600Z 31002KT CAVOK 24/22 Q1014=
METAR SKBQ 110600Z 04008KT CAVOK 26/23 A2983=
METAR SKCL 110600Z 00000KT 9999 FEW020 BKN090 21/19 A2996 REDZ=
METAR SKPE 110600Z 10006KT 9999 FEW015 SCT080 19/16 A3009=
METAR SKRG 110600Z 00000KT 6000 VCFG BKN008 15/14 A3025 RMK VCFG/S/N=
METAR SKSP 110600Z 08018KT 9999 FEW017 27/23 A2990 REDZ=
METAR SPCL 110600Z 01003KT 340V050 9999 SCT017 BKN060 25/24 Q1010 RMK
      PP000=
METAR SPHI 110600Z 18009KT CAVOK 22/21 Q1011 RMK PP000=
METAR SPIM 110600Z 15012KT CAVOK 22/19 Q1011 NOSIG RMK BKN170 PP000=
METAR SPQT 110600Z 00000KT 9999 SCT020 BKN100 24/23 Q1009 NOSIG RMK
      PP000=
METAR SPQU 110600Z 04005KT 9999 SCT015 SCT040 12/10 Q1024 RMK PPP000=
METAR SPRU 110600Z 13006KT 8000 FEW005 20/19 Q1011 RMK BR PP000=
METAR SPSO 110600Z /////KT 9999 FEW100 21/19 Q1011 RMK PP000=
METAR SPTN 110600Z VRB02KT 9999 BKN050 20/16 Q1010 RMK PP000=
METAR SPZO 110600Z 00000KT 9999 FEW025 SCT043 BKN070 10/07 Q1030 RMK
      PP000=
METAR SUMU 110600Z 28003KT 9999 FEW046 20/18 Q1009 NOSIG=
METAR SYCJ 110600Z 00000KT 8000 SCT015 21/20 Q1012 NOSIG=
0000012800
712
SNVF51 EGRR 110500
BBXX
62095 11054 99529 70156 46/// /2410 10082 20013 40137 52007 22200
00100 10907 70037=
00000000