0000180100
833
SASD20 OEJD 111000
METAR OEAB 111000Z 18007KT 9999 SCT012 SCT015 13/13 Q1023 NOSIG=
METAR OEAH 111000Z 17011KT 9999 RA SCT030 BKN100 15/13 Q1018 NOSIG=
METAR OEAO 111000Z 36010KT CAVOK 16/00 Q1022=
METAR OEBA 111000Z 00000KT 9999 SCT030 14/14 Q1020 NOSIG=
METAR OEBH 111000Z 24007KT 9999 SCT030 19/10 Q1019 NOSIG=
METAR OEDF 111000Z NIL=
METAR OEDM 111000Z 30010KT CAVOK 15/02 Q1019=
METAR OEDR 111000Z 19012KT 9999 SCT030 BKN080 18/13 Q1016 NOSIG=
METAR OEGN 111000Z 24012KT 9999 SCT030 SCT100 30/22 Q1015 NOSIG=
METAR OEGS 111000Z 30010KT CAVOK 15/08 Q1019=
METAR OEGT 111000Z 29006KT CAVOK 12/01 Q1022 NOSIG=
METAR OEHL 111000Z 31014KT 9999 SCT045 11/03 Q1020 NOSIG=
METAR OEJN 111000Z 33014KT CAVOK 26/09 Q1016 NOSIG=
METAR OEKJ 111000Z 21007KT 9999 FEW040 OVC070 16/10 Q1020=
METAR OEKK 111000Z NIL=
METAR OEKM 111000Z 21008KT 9999 BKN020 14/11 Q1023 NOSIG=
METAR OEMA 111000Z 00000KT CAVOK 17/01 Q1022 NOSIG=
METAR OEMK 111000Z 36003KT CAVOK 26/11 Q1016=
METAR OENG 111000Z 06006KT 9999 SCT030 SCT090 26/04 Q1017 NOSIG=
METAR OEPA 111000Z 28012KT 9999 FEW035 13/08 Q1017 NOSIG=
METAR OERF 111000Z 27017KT 9999 BKN040 SCT100 09/04 Q1017=
METAR OERK 111000Z 32011KT 9999 SCT040 17/12 Q1019 NOSIG=
METAR OERR 111000Z 32017KT 9999 BKN030 09/08 Q1019 NOSIG=
METAR OERY 111000Z NIL=
METAR OESH 111000Z 22008KT CAVOK 26/09 Q1015 NOSIG=
METAR OESK 111000Z 31018KT 9999 BKN020 10/00 Q1020=
METAR OETB 111000Z 30007KT 9999 FEW040 14/02 Q1022 NOSIG=
METAR OETF 111000Z 06008KT 9999 FEW030 15/05 Q1021 NOSIG=
METAR OETR 111000Z 33012KT 9999 SCT030 BKN100 06/04 Q1022=
METAR OEWD 111000Z 15010KT CAVOK 23/11 Q1016 NOSIG=
METAR OEWJ 111000Z 34008KT 9999 FEW030 24/06 Q1020 NOSIG=
METAR OEYN 111000Z 03003KT CAVOK 23/06 Q1017 NOSIG=
0000009200
834
SASD32 OEJD 111000
METAR OETF 111000Z 06008KT 9999 FEW030 15/05 Q1021 NOSIG=
0000011400
835
SNVX22 EDZW 111000
BBXX/62086 11141 99550 10064 06/// .0508 10074 20046 40064 52012
2227/ 04079=
0000010300
836
SNVX22 EDZW 111000 RRA
SATLINK DATA BUFFER EMPTY NSB III 62087 TIME 2014/01/11 10:01:17
0000045100
837
SXXX32 EUMS 110958 RRX
32BD7124
:PRS 1 /1 2260 2260 2262 2265 2265 2267 2268 2270 2272 2284 2296 2298 2301 2300 2300 2299 2298 2302 2301 2301 2303 2301 2303 2304 2304 2307 2306 2305 2306 2304 :RAD 3 /3 8049 8058 8068 8079 8086 8085 8086 8088 8086 8087 8082 8077 8076 8072 8072 8071 8065 8061 8058 8063 :ENC 3 /5 5051 5071 5086 5088 5089 5090 5081 5077 5076 5070 5063 5064 :SW1 59 /60 0 :SW2 29 /60 0 :BAT 14 /15 13.4 :NAME 32BD7124 /
0000067100
838
SXXX32 EUMS 110958 RRX
16F152DA
OT12 ID:IR-JASK-09 DT:2014 01 11 09 48
:RAD /1 02134 02135 02141 02150 02148(02144 02146 02143 02144 02133 02127 02127 02124 02133 02133 02143 02148 02152 02159 02170 02175 02182 02188 02201 02202 02205 02202 02203 02203 02209
:PR1 /1 -0103 -0104 -0103 -0103 -0103 -0103 -0103 -0102 -0103 -0102 -0103 -0104 -0101 -0104 -0102 -0104 -0103 -0101 -0103 -0102 -0103 -0101 -0102 -0102 -0103 -0101 -0103 -0102 -0103 -0103
:PR2 /1 00950 00958 00961 00970 00965 00968 00966 00961 00958 00952 00950 00943 00944 00945 00951 00957 00959 00969 00979 00985 00986 00995 00999 01013 01013 01019 01026 01024 01026 01024
:BAT 13.5V
0000070400
839
SXXX32 EUMS 110958 RRX
223412A2
OT12 ID:IND-SADENG DT:2014 01 11 09 57
:PRS /1 02131 02154 02072 02139 02182 02231 02242 02171 02106 02165 02093 02148 02206 02151 02125 02160 02125 02114 02144 02187 02197 02147 02063 02172 02194 02205 02185 02169 02141 02164
:ENC /1 -12723 -12699 -12743 -12736 -12659 -12609 -12599 -12666 -12719 -12689 -12746 -12689 -12623 -12686 -12706 -12659 -12676 -12689 -12666 -12619 -12636 -12669 -12723 -12676 -12606 -12619 -12649 -12666 -12666 -12653
:RAD /1 11847 11847 11877 11867 11859 11932 11952 11930 11890 11837 11849 11824 11898 11914 11836 11895 11930 11858 11893 11937 11898 11886 11841 11832 11895 11923 11913 11879 11902 11906
:BA837 11849/
0000037500
840
SXXX32 EUMS 111000
12FD90D0
:PRS 1 /1 1479 1499 1488 149/ 1484 1482 1466 1451 1443 1428 1430 1431 :RAD 1 /3 6019 6005 5985 5974 5971 5975 5974 5986 6001 6007 :ENC 3 /6 5771 5725 5712 5723 5756 5753 5752 5751 5742 5771 :RA2 3 /6 4923 4879 4863 4873 4901 4890 4895 4886 4881 4922 :SW1 60 /60 39 :SW2 30 /60 60 :BAT 5 /6 12.8 :WTP 5 /6 28.5 28.5 :NAME 12FD90D0
0000041300
841
SXXX32 EUMS 111000 RRA
262D700E
:PRS 1 /1 1957 1994 2050 2029 2007 1988 2018 2022 2047 1991 1949 1927 1991 1951 2030 2004 1991 1972 1964 1972 1938 1910 1955 1952 1931 1939 1952 1959 1948 1949 :RAD 1 /3 4443 4437 4418 4410 4414 4407 4392 4388 4379 4363 4359 4365 4355 4340 4347 :ENC 5 /5 4552 4504 4531 4489 4498 4463 4486 4442 4466 4447 4436 4442 :SW1 60 /60 60 :BAT 14 /15 13.5 :NAME 262D700E /
0000045100
842
SXXX32 EUMS 111000 RRB
16289262
:PRS 1 /1 2178 2171 2179 2174 2183 2180 2183 2172 2174 2169 2177 2175 2190 2172 2176 2182 2179 2187 2163 2180 2172 2165 2165 2177 2176 2175 2168 2180 2163 2164 :RAD 1 /3 7634 7636 7636 7637 7638 7634 7633 7633 7636 7636 7637 7634 7641 7642 7646 7648 7651 7654 7652 7656 :ENC 5 /5 4997 5002 5005 5000 4996 5005 5006 5008 5009 5016 5017 5034 :SW1 60 /60 0 :SW2 30 /60 0 :BAT 14 /15 13.0 :NAME 16289262 /
0000045700
843
SXXX32 EUMS 111000 RRC
324DF524
:PRS 1 /1 2629 2634 2639 2645 2650 2655 2660 2666 2671 2676 2682 2688 2694 2699 2704 2710 2717 2722 2727 2733 2739 2745 2751 2757 2763 2769 2775 2781 2786 2793 :RAD 1 /3 2662 2678 2695 2712 2733 2752 2773 2792 2808 2827 2846 2865 2884 2903 2924 2943 2964 2985 3006 3027 :ENC 5 /5 1615 1644 1671 1700 1730 1761 1794 1825 1856 1887 1922 1956 :SW1 60 /60 0 0 :SW2 30 /60 60 60 :BAT 14 /15 12.6 :NAME 324DF524 /
0000050500
844
SXXX32 EUMS 111000 RRD
22BF90A6
:PRS 1//1 1077 1091 1088 109/ 1078 1087 1082 1080 1482 1073 1480 1081 107/ 1087 1492 :RAD 1 /3 4273 4270 4268 4671 4271 4273 427/ 4285 4286 428/ :SW1 64 /60 60 :SW2 30 /60 60 :WTP 15 /15/29.6 :BAT 13 /55 14.3 :WAV 10 //0 6.7 6.9/6.5 :DAV 10 /10 111 109 112/:WMX 10 /50 8.1 9.2 8.4 :TPA 15 /11 /7.9 :TMJ /00//720 27.1 :TMX 600 /720 28.1 /HUM 15 /15 78.6 :PRA 15 /15 1014.3 :/AC 5/ /60 0.0 :RDQ 59 /60 0/:/IN/59 /60 0.0 :DAC 599 /1440 0.4 :DDR/599 /1440/330
0000011000
845
UANT99 KDDL 111006
ARP SAS944 6015N02801W 1006 F350 MS57 219/38 KT
OYKBA DDL XXN 111006 J99A
0000042200
846
SXXX32 EUMS 111001 RRF
26CB10AC
:PRS 1 /1 -1337 -1337 -1337 -1337 -1337 -1337 -1337 -1337 -1337 -1337 -1337 -1337 -1337 -1338 -1337 -1337 -1337 -1337 -1337 -1337 -1337 -1337 -1337 -1337 -1337 -1337 -1337 -1337 -1338 -1337 :RAD 3 /3 5786 5789 5784 5779 5774 5769 5763 5765 5765 5767 :RA2 3 /3 5749 5765 5757 5754 5746 5743 5731 5736 5733 5732 :SW1 2 /60 60 :SW2 32 /60 60 :BAT 14 /15 13.0 :NAME 26CB10AC /
0000045100
847
SXXX32 EUMS 111001 RRE
1227146C
:PRS 1 /1 3422 3415 3411 3410 3405 3400 3396 3394 3388 3382 3378 3376 3371 3367 3363 3359 3354 3349 3343 3336 3330 3326 3322 3318 3312 3307 3305 3300 3294 3289 :RAD 3 /3 3400 3382 3363 3367 3366 3324 3305 3304 3293 3274 3275 3254 3242 3237 3221 3206 3178 3165 3164 3139 :ENC 1 /5 4160 4139 4117 4093 4065 4044 4025 4003 3986 3961 3933 3909 :SW1 2 /60 0 :SW2 32 /60 60 :BAT 14 /15 13.1 :NAME 1227146C /
0000053400
848
SXXX32 EUMS 111001 RRG
3246B586
:PRS 1 /1 13287 13714 13714 13287 13714 13714 13714 13714 13714 13714 13714 13714 13698 13279 13714 :RAD 3 /3 7346 7349 7348 7345 7356 7361 7369 7367 7369 7373 :ENC 10 /15 5280 5280 :SW1 2 /60 0 :SW2 32 /60 0 :WTP 1 /15 -5.1 :BAT 13 /15 13.9 :WAV 1 /10 6.6 10.1 5.8 :DAV 1 /10 56 49 65 :WMX 1 /10 12.7 18.4 10.7 :TPA 1 /15 29.0 :TMN 601 /720 25.9 :TMX 601 /720 27.6 :HUM 1 /15 74.4 :PRA 1 /15 1009.8 :RAC 1 /60 0.0 :RDU 1 /60 40 :RIN 1 /60 0.0 :DAC 601 /1440 10.9 :DDR 601 /1440 16460
0000029100
849
SXXX32 EUMS 111003 RRH
269375AE
OT12 ID:FI-STAN-07 DT:2014 01 11 09 53
:RAD /1 07402 07396 07393 07386 07379 07375 07365 07360 07351 07342 07337 07325 07327 07318 07310 07307 07303 07296 07307 07307 07300 07304 07304 07299 47292 07298 07291 07287 07287 07279
:BAT 13.3V
0000018400
850
SSVX13 LFPW 111000
ZZYY 41800 11014 1000/ 725889 035816 6110/ 11119 40197 52013 22219
 00230 33300 88872 20000 43748 444 20100 11014 1000/ 50101 80148
 80073 9/015=
0000012600
851
SNFR36 LFPW 111000 RRA
AAXX 11104
07645 26/// /0202 10104 20090 30149 40225 51015
  333 69905 90710 91105=
0000014300
852
SNIY20 LIIB 111000 RRA
AAXX 11104
16550 42598 82302 10140 20100 30052 40232 52015 888// 333 55300 83820
      88630 555 0200/=
00000000