0000044900
226
SXXX32 EUMS 110715 RRA
16289262
:PRS 1 /1 2300 2311 2310 2304 2292 2312 2307 2307 2307 2302 2320 2315 2311 2321 2322 2325 2326 2325 2331 2325 2326 2340 2334 2338 2348 2340 2353 2344 2330 2352 :RAD 1 /3 7762 7768 7775 7782 7787 7792 7793 7797 7804 7808 7815 7820 7825 7835 7839 7840 7841 7850 7852 7855 :ENC 5 /5 5136 5147 5157 5161 5174 5179 5186 5197 5206 5216 5228 5232 :SW1 15 /60 0 :SW2 45 /60 0 :BAT 14 /15 13.2 :NAME 16289262
0000045500
227
SXXX32 EUMS 110715 RRB
324DF524
:PRS 1 /1 3746 3753 3760 3766 3773 3780 3787 3793 3800 3807 3814 3821 3828 3835 3842 3848 3854 3861 3867 3873 3879 3884 3889 3895 3901 3906 3912 3917 3922 3927 :RAD 1 /3 3812 3832 3851 3872 3896 3917 3933 3949 3969 3986 4001 4012 4024 4034 4042 4046 4052 4060 4062 4064 :ENC 5 /5 2755 2790 2822 2855 2881 2905 2928 2947 2963 2976 2985 2990 :SW1 15 /60 0 0 :SW2 45 /60 60 60 :BAT 14 /15 12.8 :NAME 324DF524
0000041700
228
SXXX32 EUMS 110716
26CB10AC
:PRS 1 /1 -1338 -1338 -1338 -1338 -1338 -1338 -1338 -1338 -1338 -1338 -1338 -1338 -1338 -1339 -1338 -1338 -1338 -1338 -1338 -1338 -1338 -1338 -1338 -1338 -1338 -1338 -1338 -1338 -1339 -1338 :RAD 3 /3 5832 5837 5837 5835 5842 5849 5855 5866 5871 5876 :RA2 3 /3 5793 5799 5802 5795 5799 5810 5808 5829 5829 5839 :SW1 17 /60 60 :SW2 47 /60 52 :BAT 14 /15 13.4 :NAME 26CB10AC
0000045000
229
SXXX32 EUMS 110716 RRA
1227146C
:PRS 1 /1 2767 2765 2765 2760 2756 2753 2751 2748 2743 2737 2734 2733 2732 2730 2726 2723 2722 2722 2720 2716 2714 2713 2714 2712 2709 2708 2709 2707 2707 2709 :RAD 3 /3 2761 2751 2738 2729 2712 2718 2702 2707 2692 2691 2695 2696 2678 2682 2677 2676 2668 2672 2671 2669 :ENC 1 /5 3500 3484 3469 3458 3451 3448 3444 3437 3429 3424 3418 3417 :SW1 17 /60 0 :SW2 47 /60 60 :BAT 14 /15 13.5 :NAME 1227146C
0000011000
230
UANT99 KDDL 110716
ARP BAW186 5032N03240W 0716 F410 MS53 336/44 KT
GZBJD QXT AOW 110717 L38A
0000011000
231
UANT99 KDDL 110716
ARP UAL17 5236N02456W 0716 F360 MS62 201/80 KT
N48127 DDL IG1 110717 F69A
0000011000
232
UANT99 KDDL 110717
ARP UAL82 6003N02519W 0717 F320 MS55 238/41 KT
N78008 DDL KEF 110717 F45A
0000011100
233
UANT99 KDDL 110717
ARP DAL248 5853N01830W 0717 F380 MS52 229/55 KT
N810NW DDL VEY 110717 J53A
0000011100
234
UANT99 KDDL 110717
ARP UAL932 5056N04022W 0717 F370 MS55 315/29 KT
N224UA DDL XXW 110717 F24A
0000050800
235
SASA85 EGRR 110700 RRD
METAR SARP 110700Z 09004KT CAVOK 26/21 Q1010=
METAR SAWG 110700Z 34007KT CAVOK 09/06 Q1011=
METAR SAZS 110700Z 18004KT CAVOK 10/05 Q1021=
METAR SBJP 110700Z 21004KT 9999 FEW020 22/20 Q1012=
METAR SBMA 110700Z 00000KT CAVOK 23/23 Q1010=
METAR SBVT 110700Z 31002KT 9999 FEW015 23/22 Q1015=
METAR SLCB 110700Z 00000KT 9999 FEW027 14/08 Q1023=
METAR SLLP 110700Z VRB02KT 4000E VCFG FEW002 SCT200 06/05 Q1035=
METAR SLVR 110700Z 25006KT 9999 NSC 23/22 Q1009=
0000107200
236
SASA85 EGRR 110700 RRE
METAR SAAR 110700Z 14015KT CAVOK 20/13 Q1011=
METAR SAOC 110700Z 27005KT 9000 NSC 17/14 Q1014=
METAR SARC 110700Z 05004KT 9999 FEW050CB SCT100 BKN200 28/24 Q1007=
METAR SARF 110700Z 36006KT CAVOK 27/22 Q1007=
METAR SASJ 110700Z 32003KT 9999 FEW030 SCT100 25/19 Q1009=
METAR SAVC 110700Z 27003KT CAVOK 13/07 Q1016=
METAR SBAF 110700Z 11002KT CAVOK 25/22 Q1012=
METAR SBAN 110700Z 04007KT 4000 -TSRA FEW010 SCT030 FEW040CB 16/15
      Q1019=
METAR SBBH 110700Z 00000KT CAVOK 20/17 Q1017=
METAR SBBU 110700Z 00000KT CAVOK 25/21 Q1014=
METAR SBDN 110700Z 12003KT CAVOK 23/19 Q1012=
METAR SBIL 110700Z 10013KT 8000 VCSH SCT015 SCT025 BKN070 23/22 Q1013=
METAR SBKG 110700Z 12004KT 6000 BKN015 20/20 Q1014=
METAR SBME 110700Z 03002KT CAVOK 23/22 Q1013=
METAR SBMK 110700Z 11002KT 9999 SCT030 19/17 Q1016=
METAR SBSC 110700Z 03003KT CAVOK 25/23 Q1011=
METAR SBSM 110700Z 22005KT 9999 FEW020 SCT070 22/20 Q1008=
METAR SBUL 110700Z 09007KT CAVOK 19/15 Q1016=
METAR SBUR 110700Z 05005KT CAVOK 20/17 Q1016=
0000009700
237
SACY41 EGRR 110650 CCB
METAR LCRA 110650Z 31003KT 9999 FEW035 SCT250 12/01 Q1023=
0000014200
238
SNCY40 EGRR 110700 CCA
AAXX 11074
17601 46981 33103 10121 20011 30208 40240 52015
  333 55307 2//// 81635 83075 555 7/090=
0000003900
239
SMVB13 RJTD 110600
NIL=
0000168500
240
SNVZ11 SBBR 110700 RRD
BBXX
SHIP 11071 99/// 1//// 16/// /0500 10165 20160 39037 40168 6992/
  333 10170 20165 553// 10004 91100=
SHIP 11071 99/// 1//// 36/// /0800 10216 20196 39602 40126 57///
  333 10226 20216 553// 10004 91103=
SHIP 11071 99/// 1//// 36/// /0600 10216 20196 39487 40136 57///
  333 10222 20210 553// 10004 91103=
SHIP 11071 99/// 1//// 36/// /0504 10171 20163 39339 40122
  333 10172 20170 553// 10004 91108=
SHIP 11071 99/// 1//// 36/// /0100 10193 20171 39610 40107
  333 10194 20187 553// 10003 91100=
SHIP 11071 99/// 1//// 36/// /0603 10226 20189 39994 40090 57///
  333 10231 20226 553// 10003 91107=
SHIP 11071 99/// 1//// 36/// /1200 10231 20221 39998 40115 57///
  333 10231 20230 553// 10002 91100=
SHIP 11071 99/// 1//// 36/// /0401 10222 20190 39589 40154
  333 10227 20220 553// 10002 91102=
SHIP 11071 99/// 1//// 36/// /0802 10178 20152 38812 49910
  333 10185 20178 553// 10004 91104=
SHIP 11071 99/// 1//// 36/// /0902 10236 20179 39468 40112
  333 10240 20236 553// 10004 91104=
SHIP 11071 99/// 1//// 36/// /1901 10218 20210 30049 40117 57///
  333 10223 20218 553// 10003 91103=
SHIP 11071 99/// 1//// 36/// /0601 10165 20150 39077 40156
  333 10169 20165 553// 10003 91102=
SHIP 11071 99/// 1//// 36/// /0702 10254 20210 39652 40107
  333 10258 20254 553// 10004 91104=
SHIP 11071 99/// 1//// 36/// /0404 10247 20226 30137 40141
  333 10248 20247 553// 10004 91107=
SHIP 11071 99/// 1//// 36/// /1700 10214 20205 39972 40151 57///
  333 10223 20214 553// 10003 91101=
SHIP 11071 99/// 1//// 36/// /1001 10223 20197 39801 40130
  333 10236 20223 553// 10004 91102=
0000021300
241
SNVD20 KWNB 110700 RRK
BBXX
42085 11071 99179 70665 46/// /0506 10249 40161 90650 333 91207
555 11068 22074=
42085 11071 99179 70665 46/// /0507 10250 40163 90640 333 91208
555 11073 22079=
0000021300
242
SNVD15 KWNB 110700 RRK
BBXX
41056 11071 99183 70655 46/// /0606 10250 40164 90650 333 91207
555 11064 22069=
41056 11071 99183 70655 46/// /0606 10250 40165 90640 333 91207
555 11065 22070=
0000009200
243
SAIN90 VECC 110720
METAR VECC 110720Z 35006KT 2700 HZ NSC 25/13 Q1015 NOSIG=
0000011000
244
UANT01 CWAO 110717
ARP BAW282 5603N04832W 0717 F370 MS59 284/58 KT
GCIVY QXT AOW 110717 F40A
0000011000
245
UANT01 CWAO 110717
ARP BAW292 4936N03727W 0717 F370 MS53 280/24 KT
GVIIC QXT AOW 110717 F12A
00000000