0000008800
126
SAIN90 VILK 110700
METAR VIRB 110700Z 36003KT 0800 FG VV/// 16/14 Q1016=
0000082400
127
SAHK31 VHHH 110700
METAR VHHH 110700Z 27008KT 5000 NSC 20/12 Q1021 WS R07R NOSIG=
METAR RCTP 110700Z 01008KT 340V040 9999 FEW025 23/13 Q1020 NOSIG
RMK A3014=
METAR RCKH 110700Z 27009KT 210V320 9999 FEW022 23/16 Q1021 NOSIG
RMK A3015=
METAR RCSS 110700Z 11012KT 9999 FEW025 23/12 Q1021 NOSIG RMK A3015
=
METAR VMMC 110700Z 11010KT 7000 NSC 18/12 Q1021 NOSIG=
METAR RPLL 110700Z 09013KT 060V140 9999 FEW023 SCT300 29/17 Q1013
NOSIG RMK A2992=
METAR RPVM 110700Z 36012KT 9999 FEW020 OVC090 25/23 Q1010 A2985=
METAR RPMD 110700Z
36004KT 6000 SCT016 BKN090 OVC29 23/22 Q1008 LGT RA CONS LOW CLDS
MVNG S=
METAR RPLB 110700Z 04012KT 9999 FEW030 BKN300 29/24 Q1012 NOSIG=
METAR RPLI 110700Z
09010KT 9999 FEW019 BKN290 30/15 Q1013 NOSIG RMK A2991=
METAR RPMZ 110700Z 00000KT 8000 -RA FEW018 OVC100 27/24 Q1008 A2979=

0000011800
128
SNVF25 LFPW 110700
BBXX
BATFR54 11074 99472 70022 46/// /3511 10069 20062 40186 53007
22213 04097=
0000003900
129
USCR01 GCXO 110600
NIL=
0000003900
130
UKCR01 GCXO 110600
NIL=
0000028800
131
SXHW11 KWAL 110702
B15997E8 011070233"
1,140111,06:00:02,6.6,31,13.6,21.6,1014.0,0.02,13.3,
1,140111,06:15:02,9.1,38,19.2,22.1,1013.9,0.02,13.3,
1,140111,06:30:02,11.3,46,22.5,22.8,1014.0,0.02,13.3,
1,140111,06:45:02,9.6,48,17.7,23.0,1014.2,0.02,13.3, 46+0NN  30W
0000216500
132
SZNZ01 NZKL 110703
CREX++
T000103 A001 D01021 D06025++
-3683144 17478654 AUCT  2014 01 11 06 55 //// 11 07 00 01
04867 3156 04859 3157 04851 3158 04844 3159 04835 3159 04828 3161+
-4402404 -17636748 CHIT  2014 01 11 06 55 //// 11 07 00 01
04324 1957 04320 1954 04337 1972 04324 1960 04327 1963 04357 1994+
-4089929 17623168 CPIT  2014 01 11 06 55 //// 11 07 00 01
03271 2274 03257 2262 03272 2279 03259 2269 03269 2281 03272 2287+
-3618905 17548887 GBIT  2014 01 11 06 55 //// 11 07 00 01
05533 0012 05518 0002 05515 0004 05519 0013 05527 0027 05526 0031+
-3867541 17802288 GIST  2014 01 11 06 55 //// 11 07 00 01
03516 2758 03507 2752 03511 2760 03503 2756 03488 2744 03483 2743+
-4241288 17370277 KAIT  2014 01 11 06 55 //// 11 07 00 01
02626 2183 02646 2205 02633 2193 02626 2187 02617 2179 02642 2206+
-3755040 17815904 LOTT  2014 01 11 06 55 //// 11 07 00 01
03104 0210 03090 0201 03099 0215 03077 0198 03065 0191 03066 0196+
-3704657 17451175 MNKT  2014 01 11 06 55 //// 11 07 00 01
03455 -0132 03471 -0115 03462 -0122 03468 -0114 03454 -0127 03477 -0103+
-3947566 17692007 NAPT  2014 01 11 06 55 //// 11 07 00 01
02454 2066 02435 2050 02422 2041 02443 2065 02422 2046 02418 2046+
-3441483 17304870 NCPT  2014 01 11 06 55 //// 11 07 00 01
-01762 -6159 -01501 -5892 -01375 -5760 -00970 -5349 -01019 -5392 -01012 -5379+
-4581435 17062939 OTAT  2014 01 11 06 55 //// 11 07 00 01
03804 3441 03805 3441 03807 3441 03809 3440 03811 3441 03812 3440+
-2928002 -17789440 RBCT  2014 01 11 06 55 //// 11 07 00 01
05843 2029 05846 2036 05842 2035 05842 2039 05819 2020 05826 2031+
-2925114 -17790384 RFRT  2014 01 11 06 55 //// 11 07 00 01
02781 0240 02756 0219 02749 0216 02742 0212 02742 0217 02761 0240+
-4357010 17277383 SUMT  2014 01 11 06 55 //// 11 07 00 01
01154 1885 01144 1876 01136 1869 01142 1876 01120 1855 01127 1862+
-3764109 17618118 TAUT  2014 01 11 06 55 //// 11 07 00 01
04875 4011 04868 4010 04863 4009 04859 4011 04852 4009 04847 4010+
-4128448 17477985 WLGT  2014 01 11 06 55 //// 11 07 00 01
02642 2074 02643 2076 02641 2074 02642 2076 02639 2075 02641 2078++
7777
0000011800
133
SNVE25 LFPW 110700
BBXX
BATFR28 11074 99030 11051 46/// /0017 10290 20230 40103 56023
22243 04277=
0000011800
134
SNVD25 LFPW 110700
BBXX
BATEU06 11074 99470 70579 46/// /2622 11011 21043 40231 53003
22224 04022=
0000011200
135
SNVD25 LFPW 110700
BBXX
BATEU01 11074 99463 70545 46/// /2829 10000 21068 40225 55004
22264=
0000011100
136
UANT99 KDDL 110701
ARP GTI609 5231N03245W 0701 F370 MS54 209/41 KT
N851GT DDL XXH 110701 F40A
0000010900
137
UANT99 KDDL 110701
ARP BAW98 5253N04123W 0701 F390 MS54 288/44 KT
GZBJC QXT AOW 110701 L63A
0000011000
138
UANT99 KDDL 110701
ARP ETD100 5145N03639W 0701 F330 MS55 224/14 KT
A6ETL QXT AOW 110701 F20A
0000011000
139
UANT99 KDDL 110701
ARP KLM214 5654N02825W 0701 F370 MS58 226/57 KT
PHAOF QXT AOE 110701 J60A
0000010900
140
UANT99 KDDL 110701
ARP VIR78 4809N01422W 0701 F380 MS53 257/46 KT
GVAST DDL BYT 110701 F14A
0000011000
141
UANT99 KDDL 110701
ARP AAL54 5102N03951W 0701 F360 MS57 308/25 KT
N185AN DDL XXW 110702 F41A
0000011000
142
UANT99 KDDL 110701
ARP UAL38 5937N01444W 0702 F360 MS48 235/33 KT
N41135 DDL FAE 110702 F78A
0000029100
143
SXHW11 KWAL 110702
B159A272 011070243"
1,140111,05:59:52,15.0,76,23.0,22.4,1015.0,0.00,13.4,
1,140111,06:14:52,11.0,78,15.6,22.1,1014.9,0.00,13.4,
1,140111,06:29:52,12.6,66,18.2,22.7,1014.9,0.00,13.4,
1,140111,06:44:52,12.8,71,19.2,22.9,1015.2,0.00,13.4, 46+0NN  30W
0000024400
144
SNVD17 KWNB 110700 RRC
BBXX
46060 11071 99606 71468 46/// /2302 11001 49901 58013 90650 22200
00049 11101 321// 41101 70007 333 91202 555 11015 22016 30613
41902 60649 224014 210009 193014 187015 181013 179011 82502 90645=
0000034100
145
SZIO01 AMMC 110703
CREX++
T000103 A001 D01021 D06025++
-1211670 09689190 46280 2014 01 11 06 56 3018 11 07 00 01
01279 0038 01281 0040 01281 0039 01287 0044 01282 0039 01281 0037+
-1042940 10566940 46290 2014 01 11 06 56 //// 11 07 00 01
01312 0021 ///// //// ///// //// 01308 0012 01365 0067 01314 0014++
7777

00000000