0000010600
533
SMRA11 RUNW 110600 RRH
AAXX 11061
30637 42598 32501 11160 21220 39772 40386 58002 81902=
0000010600
534
SMRA11 RUNW 110600 RRI
AAXX 11061
30526 42998 21001 11290 21321 39547 40451 58006 80001=
0000008600
535
UPIN90 VEAT 110600

PPAA 61061 42724 

55392 31504 24508 23009 =
0000009300
536
UPIN90 VABP 110600
PPAA 6106/ 42667 ASCENT SUSPENDED DUE TO OTHER REASON=	

0000013200
537
UGIN90 VEAT 110600

PPBB 61061 42724 

90012 00000 32502 32003 90370 29505 20510 91258 24009

24511 25504=
0000009800
538
UGIN90 VIGR 110600
PPBB 61051 42361 90012 31503 32506 33511 90340 34011 33009=	

0000015500
539
UGIN90 VANP 110600
PPBB 61051 42361
90012 31503 32506 33511 9034/ 34011 33009=
PPBB 61051 43041
90023 22506 20506 23004 9078/ 30010 35518=

0000011300
540
UPIN90 VANP 110600
PPAA 61051 42361 55192 34011 77999=
PPAA 61051 43041 55292 21005 27506 77999=

0000013600
541
UXIN90 VANP 110600
PPAA 6106/ 42867 NO ASCENT AS TUEODOLITE U/S=
PPAA 6106/ 42667 ASCENT SUSPENDED DUE TO OTHER REASON=

0000011200
542
SMRA11 RUNW 110600 RRJ
AAXX 11061
30127 41999 60000 11357 21387 39791 40427 58013 70272 80008=
0000010600
543
SMRA11 RUNW 110600 RRK
AAXX 11061
30714 42698 80000 11141 21184 39400 40375 58012 81549=
0000011200
544
SMRA11 RUNW 110600 RRL
AAXX 11061
30323 41996 80000 11358 21394 39963 40440 58016 77171 80007=
0000011000
545
UANT99 KDDL 110622
ARP UAL17 5053N03607W 0622 F360 MS54 202/20 KT
N48127 DDL IG1 110622 F56A
0000011000
546
UANT99 KDDL 110622
ARP BAW114 4853N03613W 0622 F350 MS52 260/18 KT
GSTBC QXT AOW 110622 F17A
0000011000
547
UANT99 KDDL 110622
ARP AFR007 4956N02045W 0621 F380 MS62 229/78 KT
FHPJD QXT AOE 110622 J90A
0000011000
548
UANT99 KDDL 110622
ARP BAW186 4814N04420W 0622 F410 MS58 311/53 KT
GZBJD QXT AOW 110622 L29A
0000024900
549
SNHK22 VHHH 110615
AAXX 11061
45032 36/// /0703 10208 20103 30196 40213 57003=
45035 36/// /2304 10190 20118 30174 40216 57001=
45039 36/// /1104 10192 20105 30204 40218 57002=
45044 36/// /1109 10187 20115 30122 40216 57003=
0000201800
550
SMCI04 BABJ 110600
AAXX 11061
56146 32780 52705 10063 21210 36690 57029 85/// 333 00251
21098=
56444 32980 00704 10046 21159 36806 57022 333 00200 21073=
56492 11760 82901 10088 20036 39870 40289 57031 69901 72160
88/// 333 00602 20062=
56571 32980 01601 10162 21044 38376 57046 333 00453 20031=
57799 11443 83602 10063 20049 30190 40282 57023 69901 76060
88/// 333 20057=
57866 11459 83603 10053 20050 30079 40294 57024 60031 76066
88/// 333 20051=
57957 11459 80202 10069 20046 30064 40269 57025 60021 76066
88/// 333 20062=
57993 31957 73202 10140 20071 30080 40249 57028 70500 87///
333 20087=
58027 31955 00401 10076 21065 30254 40308 57032 70500 333
21026=
58141 31945 61101 10073 21038 40309 57028 70500 86/// 333
21015=
58265 11955 80903 10061 20002 30299 40305 57023 69901 76060
88/// 333 20031=
58472 11963 80405 10064 20007 30192 40293 57024 69901 76060
88/// 333 20052=
58477 11456 80703 10071 20056 30243 40289 57022 69971 76066
88/// 333 20031=
58527 11227 80401 10058 20052 30202 40281 57020 60051 76066
88/// 333 20050=
58633 11628 80902 10056 20049 30180 40284 57022 60051 76060
88/// 333 20051=
58666 32668 83606 10092 20078 30164 40272 57025 88/// 333
20077=
58725 32770 83401 10132 20054 39988 40254 57029 88/// 333
20076=
58921 32961 00401 10177 20080 39986 40235 57041 333 20096=
59082 31956 42902 10170 20062 30085 40234 57040 70500 84///
333 20069=
59211 11458 80202 10124 20103 30021 40234 57022 60021 76066
88/// 333 20115=
59265 31856 73401 10190 20116 30084 40223 57035 70500 87///
333 20126=
59293 32968 02501 10207 20096 30129 40215 57043 333 20084=
59501 32761 61103 10185 20093 30202 40223 57037 86/// 333
20131=
59663 31658 20401 10198 20123 30102 40211 57037 70500 82///
333 20141=
59838 32580 03204 10233 20188 30175 40185 57030 333 20180=
59948 32380 70710 10208 20174 39701 40188 57028 87/// 333
20176=
59981 32580 30404 10260 20208 30163 40170 57027 83/// 333
20225=
0000077700
551
SMIL61 BIRK 110600
AAXX 11064
04104 26/// /2217 10014 21006 49954 52020 333 10015 20010 69987=
04115 26/// /2312 10008 21006 49944 52028 333 10008 20005 69917=
04123 NIL=
04127 36/// /0709 10028 21014 49931 52011 333 10030 20024=
04130 26/// /2606 10013 21016 49968 52020 333 10014 20013 69917=
04137 26/// /2006 10011 21027 49962 52002 333 10011 20009 69907=
04145 26/// /1312 10017 21014 49941 52016 333 10017 20016 69907=
04146 26/// /2708 10030 21046 49977 52023 333 10031 20029 69907=
04156 26/// /2110 11026 21042 49949 52017 333 11025 21027 60017=
04165 36/// /1422 10018 21019 49986 52009 333 10018 20017=
04176 26/// /3613 11031 21032 49942 52001 333 11030 21031 69927=
04197 26/// /1118 10017 49970 57005 333 10018 20016 60017=
0000068700
552
SMGL61 EKMI 110600
AAXX 11064
04211 45/80 /1813 11061 21138 39803 49963 52013
  333 11042 21068 91127 =
04213 46/// /2205 11070 21215 39840 49950 52001
  333 11056 21081 91220 =
04224 45984 71706 11105 21182 39915 49949 57003
  333 11081 21112 87/64 =
04234 45/84 /0909 11086 21208 39928 49939 52006
  333 11046 21092 =
04241 45784 50914 11088 21156 39903 49943 52001
  333 11066 21088 85/50 =
04254 45/82 /0609 11086 21171 39823 49939 52001
  333 11062 21091 =
04341 465// 71802 11079 21101 30096 40112 52001
  333 11072 21108 81/22 87/32 =
04361 45781 81007 11032 21101 39896 49949 52032
  333 11003 21046 88/// 91199 00241 91299 00196 =
00000000