0000011100
226
UANT99 KDDL 110703
ARP DAL400 4900N01529W 0703 F380 MS56 255/59 KT
N808NW DDL XXW 110703 J91A
0000011000
227
UANT99 KDDL 110703
ARP SWR15X 4835N02506W 0703 F380 MS59 202/60 KT
HBJHK QXT AOE 110703 J38A
0000010600
228
SICI01 KWBC 110300 RRM
AAXX 11031
58506 41902 80701 10005 20005 40311 52009 76074 88///=
0000018100
229
SMCI01 KWBC 110600
AAXX 11061
50548 32980 13205 11194 21320 40285 57013 81/// 333 21368=
58506 11904 82201 10011 20011 40285 57020 69971 74576 88/// 333
21026=
0000024400
230
SNVD17 KWNB 110700 RRE
BBXX
51101 11071 99243 71621 46/// /0715 10213 20193 40159 52004 90650
22200 00237 11109 20806 305// 41106 70043 333 91219 555 11159
22169 30556 40619 60649 066149 055138 056130 058137 058138 059145=
0000069400
231
SNVD19 KWNB 110700 RRA
BBXX
46126 11071 99540 71666 46/// /1603 10044 49821 90636 22200 00047
1//00 70001 333 91206 555 11037 22040=
46126 11071 99540 71666 46/// /1603 10044 49821 90640 22200 00047
1//00 70001 333 91206 555 11037 22040=
46126 11071 99540 71666 46/// /1703 10044 49821 90642 22200 00047
1//00 70001 333 91204 555 11030 22033=
46126 11071 99540 71666 46/// /1703 10043 49820 90645 22200 00046
1//00 70001 333 91204 555 11030 22033=
46078 11071 99560 71526 46/// /2307 10030 20020 49955 56013 90650
22200 00045 11105 20502 323// 41104 70023 333 91210 555 11077
22081 30642 42310 60649 233075 233075 234072 227065 223071 222075
82309 90642=
0000024400
232
SNVD15 KWNB 110700 RRD
BBXX
41009 11071 99285 70802 46/// /1606 10244 20216 40193 56011 90650
22200 00240 10803 20502 307// 40803 70017 333 91207 555 11064
22069 30613 41607 60649 161059 160062 159060 160062 158059 158058=
0000022600
233
SNVD20 KWNB 110700 RRE
BBXX
44013 11071 99423 70707 46/// /1503 10039 20039 40243 56021 90650
22200 00046 10301 70003 333 91203 555 11028 22029 30616 41603
60649 152027 154024 158027 161028 162025 169026=
0000023200
234
SNVD22 KWNB 110700 RRF
BBXX
46088 11071 99483 71232 46/// /1412 10090 20069 49957 58074 90650
22200 00074 10502 20502 70012 333 91214 555 11125 22136 30625
41416 60649 138115 133124 137126 138125 133122 135118=
0000023800
235
SNVE15 KWNB 110700 RRA
BBXX
51004 11071 99175 71524 46/// /1007 10249 40139 53017 90650 22200
00249 11005 20602 312// 41004 70024 333 91209 555 11079 22084
30606 42810 60649 101075 277077 279079 278081 279080 278077=
0000009100
236
SACY41 EGRR 110650
METAR LCRA 110650Z AUTO 31003KT //// // NCD 12/01 Q1023=
0000012800
237
SNGI21 EGRR 110700
AAXX 11074
08495 42460 70605 10142 20123 30168 40174 53005 84632
  333 82712 85360 87072=
0000013200
238
SNCY40 EGRR 110700
AAXX 11074
17601 469// /3103 10121 20011 30208 40240 52015
  333 55307 2//// 8//99 555 7/090=
0000010000
239
SNAA14 EGRR 110500 RRA
AAXX 11054
89013 46/// /0209 11201 21234 37708 49755 52012=
0000010000
240
SNST41 EGRR 110400 RRC
AAXX 11044
88903 45/// /1300 10007 2//// 39926 49926 5////=
0000030900
241
SNST41 EGRR 110700
AAXX 11074
61901 469// /1309 10184 20173 39668 40174 53017 333 8//99 555
 7/090=
88878 46/// /1915 10052 20009 40055 52017=
88883 46/// /2008 10044 20021 40075 52009=
88889 41579 72022 10039 21023 39968 40054 53016 72582 878//
 333 82829 87633 91029 90710 91130=
0000352500
242
SNUK41 EGRR 110700
AAXX 11074
03005 41472 73010 10036 20005 39896 49997 52014 72582 8793/
  333 55300 20000 81916 85641 90710 91131=
03017 47584 /2811 10041 20020 30002 40034 52010 781//
  333 55300 20000 83/26=
03026 47481 /2817 10023 20001 30052 40071 53018 781//
  333 55300 20000 83/10 90710 91125=
03063 47984 /2203 10003 21019 39803 40086 53014 721//
  333 55300 20000 8//99=
03066 47986 /2412 10022 20001 30068 40074 53016 721//
  333 55300 20000 87/58=
03075 45977 /2412 10012 21004 30002 40047 52013
  333 8//99=
03091 45982 /2504 10022 21027 39988 40069 53013
  333 55300 20000 86/63=
03100 47676 /2815 10046 20006 30087 40103 52019 723//
  333 55300 20000 81/37 83/56=
03111 46678 /2619 10050 20013 30109 40121 53020
  333 81/47 90710 91127=
03134 47683 /2706 10026 20006 30037 40110 53017 723//
  333 55300 20000 81/31=
03136 47480 /2510 10050 20021 30085 40118 53017 723//
  333 55300 20000 81/14 87/64=
03162 45976 /2406 10000 21007 39827 40122 52015
  333 55300 20000 83/59=
03166 45983 /2409 10021 21002 30031 40102 53012
  333 55300 20000 8//99=
03171 42681 22517 10008 21006 30074 40087 53009 81530
  333 55300 20000 81645 92600=
03204 41460 82910 10046 20027 30122 40142 53022 76186 885//
  333 55300 20000 83619 85625 88650=
03240 45984 /2705 10040 21006 30071 40100 51018
  333 55300 20000 86/63=
03257 45972 /2506 10022 21005 30081 40123 52023
  333 55300 20000 8//99=
03292 469// /3007 10041 20010 30091 40110 53024
  333 81/59 83/62=
03302 47570 /2819 10059 20025 30140 40154 53022 723//
  333 55300 20000 84/22=
03354 45979 /2604 10035 20018 39996 40141 52033
  333 55300 20000 81/58=
03377 42775 32806 10048 20031 30043 40129 53031 83500
  333 55300 20000 83656=
03414 45981 /2508 10018 20009 30063 40153 51030
  333 55300 20000 8//99=
03462 45784 /2811 10046 20029 30043 40133 53028
  333 55300 20000 81/56=
03482 47579 /2710 10065 20055 30096 40122 53020 723//
  333 83/26 83/48=
03502 45573 /2819 10063 20020 30003 40167 52023
  333 55300 20000 82/21 90710 91125=
03535 45964 /2606 10032 20025 30029 40149 52036
  333 553// 20000 8//99=
03590 47286 /2810 10065 20052 30016 40127 53012 723//
  333 55300 20000 82/03 87/36=
03649 42681 13005 10049 20027 30053 40155 53031 81500
  333 55300 2//// 81630=
03680 46/// ///// 10056 20039 39987 40145 53025
  333 553// 20000=
03716 45966 /3007 10045 20039 30106 40167 51028
  333 55300 20000 8//99=
03740 469// /2805 10027 20022 39985 40166 53030
  333 55300 2//// 8//99=
03746 42682 12808 10043 20032 30006 40163 53027 81500
  333 81640=
03772 47683 /2809 10075 20056 30117 40147 53023 723//
  333 55300 20000 81/41 84/50=
03796 46/// /2414 10082 20071 39997 40140 55000=
03803 45984 /3307 10069 20032 30150 40188 51017
  333 8//99=
03808 42568 53407 10068 20018 30079 40187 52023 81508
  333 55300 20000 81625 85269=
03809 42680 13506 10039 20022 30090 40185 51020 81500
  333 81645=
03827 45973 /2903 10038 20028 30119 40182 52026
  333 8//99=
03840 45980 /3009 10038 20029 39864 40175 53027
  333 8//99=
03853 45973 /2804 10043 20034 30145 40169 53028
  333 55300 20000 8//99=
03874 46/// /3008 10067 20053 30145 40156 53025=
03882 47239 /2308 10086 20077 30079 40143 53006 782//
  333 55300 20000 87/05=
03894 41470 73209 10083 20061 40179 53022 76065 875//
  333 83614 86635=
03917 47284 /2307 10012 20009 30070 40149 53025 723//
  333 55300 20000 83/03 85/46=
0000010000
243
SIFJ20 NFFN 102100 RRA
AAXX 10204
91660 14/// /1305 10264 20237 30000 40061 52017=
0000010000
244
SIFJ20 NFFN 102100 CCA
AAXX 10214
91660 14/// /1305 10298 20242 30001 40062 50011=
0000010000
245
SMFJ01 NFFN 110000 RRB
AAXX 10234
91660 14/// /1404 10322 20249 39998 40058 50002=
00000000