0000009200
653
SPIN90 VEAT 110048
SPECI VEAT 110048Z 00000KT 0700 FG NSC 08/08 Q1015 NOSIG=
0000018000
654
UQCN01 CWAO 110000
PPDD  61008 71815 9538/ 28066 27081 96489 26068 25597 25090
9705/ 25093 24104 9826/ 23651 22138 9907/ 22135 22120 10039
23130 22642 22622=

0000039600
655
UECN01 CWAO 110000
TTDD  6100/ 71815 11935 611// 22686 641// 33577 607// 44463
631// 55418 579// 66382 603// 77343 509// 88312 537// 99287
467// 11276 465// 22222 429// 33202 381// 44185 407// 55170
395// 66167 357// 77136 463// 88132 411// 99123 381// 11109
367// 22087 421// 33085 359// 44083 347// 55082 349// 66078
275// 77073 299// 88068 273// 51515 10168 00007=

0000014600
656
SMMR01 TFFF 110600
AAXX 11064
78925 14586 80712 10235 20202 40157 58011 60041 700//
  333 10288 20209 55080 21864 59004 70066=
0000027500
657
SXHW11 KWAL 110602
15D142A4 011060202":PRS 1 #1 1303 1300 1298 1292 1293 1305 1296 1296 1293 1303 :RAD 1 #1 6884 6881 6881 6879 6878 6882 6879 6878 6879 6882 :ENC 2 #5 4783 4785 4781 4774 :SW1 2 #60 0 :SW2 32 #60 50 :BAT 4 #5 13.0 :NAME 15D142A4  35+0NN 216W
0000013900
658
SMSR01 WSSS 110600
AAXX 11064
48698 01566 70208 10305 20237 30084 40102 60001 70522 84232 
333 60007 81820 83824 87080=
0000007100
659
UPBD01 WBSB 110600
PPAA  61061 96315 55185 06510 77999=
0000012000
660
SMBH01 MZBZ 110600
AAXX 11064
78583 12670 21104 10238 20228 40145 60001 82500 333 0/300 59025
82650=
0000010600
661
SMVJ11 LFPW 110600
BBXX
BATEU00 11064 99690 30277 46/// /0912 11012 21015 49893
22241=
0000036600
662
SMCE01 FEFF 110600
AAXX 11064
64600 31958 80406 10167 20127 39468 40115 71022 8803/
  333 0//00 20161 55100 58005 88365=
64601 32960 83621 10165 20030 39009 48519 80002
  333 01600 20160 58003 88080=
64605 NIL=
64610 NIL=
64654 NIL=
64655 NIL=
64656 NIL=
64658 NIL=
64659 NIL=
64660 NIL=
64661 NIL=
64662 NIL=
64665 NIL=
0000013200
663
SMMJ01 LWOH 110600
AAXX 11061
13579 31135 80201 10000 21008 39414 40279 5//// 7104/ 886// 333
21016 31/// 88701=
0000011800
664
SMVJ11 LFPW 110600
BBXX
OSCFR05 11064 99608 50525 46/// /2009 11025 21073 40016 56003
22251 05002=
0000012600
665
SMRM11 LUKK 110600
AAXX 11061
33815 32997 32903 10034 21026 39975 40186 52018 83040 333   20032 555   80013=
0000065800
666
SMHU01 HABP 110600
AAXX 11061
12772 31981 20000 11003 21045 30005 40211 51007 70300 81042
  333 21003 4/000 55017=
12822 36/// /1601 10029 20016 30070 40217 55000
  333 20000 55043=
12843 31670 72001 10019 20004 30047 40222 53003 70211 875//
  333 20002 4/000 55022 87643=
12882 31675 51904 11004 21015 30084 40221 52007 70311 85500
  333 21014 4/000 55000 85640=
12925 36/// /0000 10030 20024 30045 40221 53002 333 21018=
12942 31680 60702 10040 20033 39972 40222 55001 70122 86500
  333 20034 4/000 55000 70001 86640=
12982 31636 71701 10024 20017 30125 40229 53002 71022 875//
  333 21021 4/000 55000 70001 87640=
0000019000
667
SMRE15 FMEE 110600
AAXX 11064
61998 11575 72314 10066 20011 30025 40062 55000 69924 701// 8583/
  333 005// 20048 55025 58029 81820 85640 86359 90710 91119
  555 60005=
0000011000
668
UANT99 KDDL 110600
ARP ACA844 5704N04601W 0601 F350 MS59 269/43 KT
CGHKX DDL UAK 110601 J21A
0000010600
669
SMAA01 ENMI 110600
AAXX 11061
89504 43/// /1907 11061 21142 38453 49926 54000 333 21061=
0000011000
670
UANT99 KDDL 110601
ARP EIN10X 5312N02836W 0601 F380 MS56 219/55 KT
EIEAV DDL XXW 110601 J63A
0000012700
671
UANT99 KDDL 110601
ARP BAW246 4521N01218W 0601 F380 SEPAL 0621 LAPEX MS61 264/38 KT
GBYGF QXT AOE 110601 F20A
0000011000
672
UANT99 KDDL 110601
ARP BAW81V 5442N02402W 0601 F350 MS58 233/49 KT
GCIVM QXT AOE 110601 F14A
00000000