0001388500
713
SMMX01 MXBA 110600
AAXX 11061
76040 32920 03601 10110 20072 30185 40199 52018 90550 333   
10248 20042 30/// 55092 58034 98620=
76041 06/// /0101 10098 20028 30184 40200 51015 60002 7//// 
8//// 90550 333   0//// 10250 20041 30/// 4//// 50199 54/// 
55083 21222 56/// 57/// 58032 60007 8//// 8//// 8//// 9/=
76056 06/// /2802 10122 21033 30166 40190 51011 60002 7//// 
8//// 90550 333   0//// 10147 20120 30/// 4//// 50219 54/// 
55000 20090 56/// 57/// 58001 60007 8//// 8//// 8//// 9/=
76109 06/// /0301 10106 21076 38901 40187 53016 60002 7//// 
8//// 90550 333   0//// 10184 20057 30/// 4//// 50319 54/// 
55086 21405 56/// 57/// 58024 60007 8//// 8//// 8//// 9/=
76117 06/// /3502 10082 21039 38912 40112 51019 60002 7//// 
8//// 90550 333   0//// 10228 20025 30/// 4//// 50259 54/// 
55085 21374 56/// 57/// 58027 60007 8//// 8//// 8//// 9/=
76161 06/// /1101 10136 21003 39932 40187 52018 60002 7//// 
8//// 90550 333   0//// 10282 20064 30/// 4//// 50349 54/// 
55087 21418 56/// 57/// 58031 60007 8//// 8//// 8//// 9/=
76219 06/// /0000 11018 21037 38170 40335 52013 60002 7//// 
8//// 90550 333   0//// 10188 21020 30/// 4//// 50219 54/// 
55089 21598 56/// 57/// 58030 60007 8//// 8//// 8//// 9/=
76220 31920 00000 10000 2//// 38170 40179 52016 70002 90545 
333   10184 21018 30/// 55087 58032 96122 96126=
76225 32920 02701 10098 21013 38621 40108 52012 90540 333   
10215 20098 30/// 55062 58029=
76226 06/// /0901 10094 21029 38624 40179 50009 60002 7//// 
8//// 90550 333   0//// 10222 20086 30/// 4//// 50279 54/// 
55085 21562 56/// 57/// 58027 60007 8//// 8//// 8//// 9/=
76242 06/// /2202 10132 20112 39833 40075 53006 60002 7//// 
8//// 90550 333   0//// 10226 20099 30/// 4//// 50169 54/// 
55028 28410 56/// 57/// 59026 60007 8//// 8//// 8//// 9/=
76243 32970 02202 10138 20121 39843 40133 52010 90540 333   
10230 20096 30/// 55011 59020=
76254 02/// ///// 1//// 2//// 3//// 4//// 5//// 6//// 7//// 
8//// 9//// 333   0//// 1//// 2//// 30/// 4//// 5//// 54/// 
55/// 2//// 56/// 57/// 5//// 6//// 8//// 8//// 8//// 9/=
76255 06/// /3103 10172 20071 30161 40178 52012 60002 7//// 
8//// 90550 333   0//// 10272 20082 30/// 4//// 50369 54/// 
55091 21591 56/// 57/// 58024 60007 8//// 8//// 8//// 9/=
76304 06/// /3203 10172 20055 30170 40178 50006 60002 7//// 
8//// 90550 333   0//// 10248 20133 30/// 4//// 50259 54/// 
55065 21336 56/// 57/// 58028 60007 8//// 8//// 8//// 9/=
76305 32970 03302 10172 20059 30164 40173 51003 90545 333   
10230 20140 30/// 55069 58///=
76323 32950 23601 10038 21012 38304 40216 52018 80002 90540 
333   10194 20040 30/// 55042 56005 58032 83268=
76324 06/// /0000 10034 21018 38287 40329 51012 60002 7//// 
8//// 90550 333   0//// 10194 20034 30/// 4//// 50229 54/// 
55048 21023 56/// 57/// 58036 60007 8//// 8//// 8//// 9/=
76342 31840 71801 10180 20042 39444 40131 52002 70222 87070 
90550 333   10275 20090 30/// 55066 2//// 56050 59005 87458 
=
76382 32960 41401 10134 20102 38915 40146 52014 80001 90545 
333   10244 20098 30/// 55046 2//// 56005 58044 84076=
SMMX01 MXBA 110600 
AAXX 11061
76390 31950 02002 10069 21020 38240 40150 52012 70544 90548 
333   10210 20050 30/// 55097 2//// 58030=
76391 06/// /2201 10076 21028 38237 40226 53011 60002 7//// 
8//// 90550 333   0//// 10219 20064 30/// 4//// 50449 54/// 
55093 21855 56/// 57/// 58030 60007 8//// 8//// 8//// 9/=
76392 06/// /2202 10165 20118 39567 40149 52010 60002 7//// 
8//// 90550 333   0//// 10282 20145 30/// 4//// 50309 54/// 
55077 21339 56/// 57/// 58003 60007 8//// 8//// 8//// 9/=
76393 31910 02201 10164 20128 39569 40135 52009 70544 90549 
333   10278 20145 30/// 55078 58000 91102 91401=
76403 06/// /0000 10126 20118 30115 40176 51013 60002 7//// 
8//// 90550 333   0//// 10300 20096 30/// 4//// 50309 54/// 
55080 21601 56/// 57/// 58015 60007 8//// 8//// 8//// 9/=
76405 32840 30502 10186 20118 30145 40167 50003 83040 90550 
333   10237 20140 30/// 55039 2//// 5610 58015 83357=
76413 06/// /0101 10131 20106 30137 40183 5//// 60032 7//// 
8//// 90550 333   0//// 10132 20130 30/// 4//// 50119 54/// 
55000 20090 56/// 57/// 5//// 60037 8//// 8//// 8//// 9/=
76423 32760 80000 10102 21009 38167 40134 52010 83059 90550 
333   10220 21012 30/// 55087 21450 56099 58017 83358 85170 
=
76424 06/// /2302 10097 21036 38167 40235 51010 60002 7//// 
8//// 90550 333   0//// 10219 21017 30/// 4//// 50369 54/// 
55089 21818 56/// 57/// 58016 60007 8//// 8//// 8//// 9/=
76458 32960 03302 10192 20148 30146 40150 52008 90545 333   
10271 20152 30/// 55092 58005=
76490 06/// /2202 10184 20149 39754 40143 51009 60002 7//// 
8//// 90550 333   0//// 10279 20092 30/// 4//// 50289 54/// 
55088 21664 56/// 57/// 59014 60007 8//// 8//// 8//// 9/=
76518 02/// ///// 1//// 2//// 3//// 4//// 5//// 6//// 7//// 
8//// 9//// 333   0//// 1//// 2//// 30/// 4//// 5//// 54/// 
55/// 2//// 56/// 57/// 5//// 6//// 8//// 8//// 8//// 9/=
76527 06/// /2304 10091 21039 37479 40252 50005 60002 7//// 
8//// 90550 333   0//// 10132 20065 30/// 4//// 50469 54/// 
55093 21975 56/// 57/// 58014 60007 8//// 8//// 8//// 9/=
76538 06/// /2501 10128 2//// 38166 40158 51008 60002 7//// 
8//// 90550 333   0//// 10232 20030 30/// 4//// 5///9 54/// 
55076 21618 56/// 57/// 58000 60007 8//// 8//// 8//// 9/=
76539 32958 03601 10134 20115 38160 40130 52010 90550 333   
10232 20030 30/// 55079 58400=
76547 06/// /1201 10188 20181 30125 40139 50008 60002 7//// 
8//// 90550 333   0//// 10280 20176 30/// 4//// 50279 54/// 
55068 21461 56/// 57/// 59043 60007 8//// 8//// 8//// 9/=
76548 32460 32960 80601 10194 20188 30140 40140 51011 885// 
90545 333   10282 20168 30/// 55053 56050 59044 88358=
76556 32960 01602 10143 20098 39122 40127 54000 90547 333   
10266 20100 30/// 55098 58004=
76577 32560 40000 10144 20129 38055 40159 52014 84500 90540 
333   10220 20062 30/// 55057 56500 58004 84622=
76578 06/// /1801 10135 20059 38053 40161 52012 60002 7//// 
8//// 90550 333   0//// 013// 10230 20062 30/// 4//// 50269 
54/// 55041 21141 56/// 57/// 58005 60007 8//// 8//// 8/=
SMMX01 MXBA 110600 
AAXX 11061
76580 06/// /0000 10172 20125 39040 40150 51013 60002 7//// 
8//// 90550 333   0//// 10283 20129 30/// 4//// 50269 54/// 
55059 21510 56/// 57/// 59022 60007 8//// 8//// 8//// 9/=
76581 32960 02601 10127 20112 39058 40147 52016 90550 333   
10280 20180 30/// 55072 58///=
76592 06/// /1302 10222 20218 30151 40153 51002 60002 7//// 
8//// 90550 333   0//// 10311 20208 30/// 4//// 50339 54/// 
55055 21347 56/// 57/// 59024 60007 8//// 8//// 8//// 9/=
76593 32950 01403 10220 20214 30152 40154 52004 90550 333   
10302 20206 30/// 55053 21046 59023=
76611 06/// /0000 10105 2//// 38479 40219 51009 60002 7//// 
8//// 90550 333   0//// 10245 20043 30/// 4//// 5///9 54/// 
55000 21505 56/// 57/// 59001 60007 8//// 8//// 8//// 9/=
76612 32860 32701 10112 20063 38485 40143 52011 83030 90550 
333   10248 20050 30/// 55085 21096 56050 58000 83358=
76625 31570 71802 10151 20069 38151 40107 52005 69901 76025 
85820 90552 333   10228 20078 31/// 55050 56660 58006 83825 
82626 82355=
76634 31570 61402 10132 20083 37860 40141 52006 70542 86400 
90550 333   10239 20080 30/// 55055 21216 565// 58001 86634 
=
76645 06/// /1102 10222 20209 30140 40155 50001 60002 7//// 
8//// 90550 333   0//// 10318 20206 30/// 4//// 50339 54/// 
55059 21465 56/// 57/// 59026 60007 8//// 8//// 8//// 9/=
76648 32865 61201 10225 20218 30122 40153 58002 60002 7//// 
8603/ 90550 333   0//// 10315 20207 30/// 4//// 50219 54/// 
55081 21365 56/// 57/// 59022 60007 86358 8//// 8//// 9/=
76657 06/// /2201 10121 20078 38527 40222 52014 60002 7//// 
8//// 90550 333   0//// 10250 20050 30/// 4//// 50249 54/// 
55000 21758 56/// 57/// 58003 60007 8//// 8//// 8//// 9/=
76658 11558 32701 10220 20199 39656 40154 52013 69931 70540 
82550 90550 333   10312 20150 30/// 55095 58009 82622 81356 
98914=
76659 06/// /0000 10205 20204 3//// 42/// 5//// 69942 7//// 
8//// 90550 333   0//// 10320 20141 30/// 4//// 50349 54/// 
55083 21810 56/// 57/// 5//// 69947 8//// 8//// 8//// 9/=
76662 32660 30601 10152 20091 38473 40126 52008 83400 90545 
333   10260 20058 30/// 55087 21103 56/00 58001 83633=
76663 06/// /1101 10146 20088 38472 40197 51010 60002 7//// 
8//// 90550 333   0//// 10261 20045 30/// 4//// 50339 54/// 
55066 21568 56/// 57/// 58002 60007 8//// 8//// 8//// 9/=
76665 31358 61801 10140 20117 38134 40130 52015 70222 86200 
90555 333   10230 20065 30/// 55054 21301 56300 57832 58007 
86808=
76675 32960 01802 10048 20022 37390 40143 52005 90555 333   
10193 20017 30/// 55068 21165 58003=
76680 31558 20501 10133 20071 37762 40105 52010 70540 82100 
90555 333   10210 20096 30/// 55060 20691 56700 58004 82827 
=
76683 32965 00000 10102 20064 37836 40139 51010 90545 333   
10216 20055 30/// 50291 55088 21672 59005=
76684 06/// /0201 10092 20060 37837 40211 51010 60002 7//// 
8//// 90550 333   0//// 10238 20045 30/// 4//// 50319 54/// 
55093 21956 56/// 57/// 59002 60007 8//// 8//// 8//// 9/=
SMMX01 MXBA 110600 
AAXX 11061
76685 32950 00000 10124 20049 37867 40091 52001 90545 333   
10230 20064 30/// 55105 59025=
76687 32960 02001 10130 20122 38675 40143 52008 90548 333   
10242 20090 30/// 55089 59022=
76688 06/// /2602 10127 20121 38653 40179 50003 60002 7//// 
8//// 90550 333   0//// 10247 20093 30/// 4//// 50289 54/// 
55077 21763 56/// 57/// 59026 60007 8//// 8//// 8//// 9/=
76692 31520 62001 10219 20204 30127 40146 52012 71042 865// 
90545 333   10279 20179 30/// 55088 563// 59042 86628=
76693 06/// /2101 10216 20201 30124 40145 50008 60002 7//// 
8//// 90550 333   0//// 10279 20179 30/// 4//// 50349 54/// 
55090 21826 56/// 57/// 59041 60007 8//// 8//// 8//// 9/=
76695 32956 00000 10208 20202 30134 40140 58002 90550 333   
10322 20208 30/// 55074 59030=
76726 32968 03301 10186 20093 38396 40082 52008 90545 333   
10272 20152 30/// 55083 58006=
76727 06/// /3301 10173 20077 38395 40116 50006 60002 7//// 
8//// 90550 333   0//// 10272 20147 30/// 4//// 50209 54/// 
55000 21513 56/// 57/// 59001 60007 8//// 8//// 8//// 9/=
76737 32980 00000 10140 20124 38766 40130 54004 90545 333   
10242 20140 30/// 55091 59028 91101 91536=
76738 06/// /3301 10133 20124 38766 40186 51002 60002 7//// 
8//// 90550 333   0//// 10252 20083 30/// 4//// 50289 54/// 
55089 21817 56/// 57/// 59025 60007 8//// 8//// 8//// 9/=
76741 31250 62602 10215 20204 30108 40126 5//// 70542 84230 
90545 333   10277 20188 30/// 55022 56500 59037 84806=
76742 06/// /2602 10215 20204 30109 40129 50006 60002 7//// 
8//// 90550 333   0//// 10271 20189 30/// 4//// 50279 54/// 
55046 21067 56/// 57/// 59036 60007 8//// 8//// 8//// 9/=
76743 31940 03500 10210 20195 30126 40134 55001 70000 90545 
333   10250 20205 30/// 55/// 59037=
76750 32558 20502 10232 20221 30138 40148 57005 82100 90545 
333   10310 20166 30/// 55063 56300 59016 82820=
76751 06/// /0602 10228 20223 30138 40150 58005 60002 7//// 
8//// 90550 333   0//// 10307 20201 30/// 4//// 50339 54/// 
55072 21678 56/// 57/// 59016 60007 8//// 8//// 8//// 9/=
76762 32504 21101 10166 20148 38773 40130 52015 81260 90550 
333   10278 20126 30/// 55095 20995 56630 58005 81814 81360 
=
76772 06/// /0000 10142 20098 38427 40199 51009 60002 7//// 
8//// 90550 333   0//// 10298 20065 30/// 4//// 50349 54/// 
55084 21850 56/// 57/// 59002 60007 8//// 8//// 8//// 9/=
76775 32960 00801 10154 20110 38525 40146 52012 90545 333   
10306 20088 30/// 55091 59009=
76776 06/// /2001 10144 20117 38510 40157 51013 60002 7//// 
8//// 90550 333   0//// 10314 20090 30/// 4//// 50399 54/// 
55093 21949 56/// 57/// 59009 60007 8//// 8//// 8//// 9/=
76806 06/// /0000 10228 20209 30130 40135 51008 60002 7//// 
8//// 90550 333   0//// 10342 20228 30/// 4//// 50409 54/// 
55092 21877 56/// 57/// 59004 60007 8//// 8//// 8//// 9/=
SMMX01 MXBA 110600 
AAXX 11061
76834 06/// /3001 10233 20196 30124 40128 50005 60002 7//// 
8//// 90550 333   0//// 10341 20230 30/// 4//// 50629 54/// 
55095 21899 56/// 57/// 59006 60007 8//// 8//// 8//// 9/=
76845 32930 00000 10104 20101 37953 40170 51004 90548 333   
10225 20070 30/// 55062 59007=
76848 32450 20000 10125 20099 38383 40083 54000 82500 90545 
333   10243 20117 30/// 55102 56100 59013 82611=
76855 32980 03602 10236 20198 30083 40131 53019 90540 333   
10330 20206 30/// 55105 58/// 92001=
76856 06/// /3504 10234 20195 30076 40126 50006 60002 7//// 
8//// 90550 333   0//// 10321 20126 30/// 4//// 50429 54/// 
55096 21982 56/// 57/// 58000 60007 8//// 8//// 8//// 9/=
76902 06/// /0202 10245 20204 39996 40137 50000 60002 7//// 
8//// 90550 333   0//// 10340 20217 30/// 4//// 50439 54/// 
55094 21933 56/// 57/// 58001 60007 8//// 8//// 8//// 9/=
76160 32958 01101 10154 20001 39933 40182 52018 90540 333   
10265 20070 30/// 58032=
76412 32960 01801 10130 20109 30128 40174 52001 90548 333   
10270 20100 30/// 55047 58010=
76525 32960 02302 10085 21029 37479 40141 52005 90540 333   
10138 20065 30/// 55096 22593 58013=
76632 31847 42201 10128 20074 37710 40117 52003 70311 84080 
90545 333   10210 20070 30/// 55049 56050 58002 84359=
76640 31110 70000 10198 20192 30139 40151 52011 70222 8422/ 
90540 333   10254 20170 30/// 55043 5655/ 59040 84802 83440 
=
76647 32865 61101 10226 20223 30132 40163 58002 8603/ 90550 
333   10307 20209 30/// 55081 5604/ 59023 86358=
76833 32958 03602 10232 2//// 30125 40127 52006 90545 333   
10338 20228 30/// 55097 58/// 92021=
76843 32965 02901 10209 20182 39483 40114 52006 90545 333   
10309 20155 30/// 55108 59026=
0000030000
714
SMBO01 SLLP 110600
AAXX 11064
85201 31140 41204 10059 20044 36294 57005 74011 81631
333 56000 58005 81703 84070=
85223 32584 10000 10146 20082 37504 47125 57000 81500
333 56000 58007 81627=
85244 32265 33506 10232 20218 39660 40089 56005 81630
333 56780 58007 81705 83357=
0000012400
715
SNAU44 AMMC 110400 RRD
AAXX 11044
94663 11983 01814 10234 20131 30137 40199 56010 60001 70200 90430=


0000078300
716
SMBW01 VGDC 110600
AAXX 11064
41859 31440 80502 10194 20110 30141 40180 70522 8662/
333 56199 58008 70000 83710 84618 88458=
41883 31930 72702 10205 20145 30154 40175 70540 87010
333 56090 58003 70000 87458=
41891 31950 01302 10234 20110 30121 40160 70510 333
59006 70000=
41907 31940 03604 10230 20120 30152 40168 70544 333
58004 70000=
41923 31932 00000 10243 20090 30158 40168 70500 333
59005 70000=
41936 31918 00000 10248 20160 30160 40167 70500 333
59003 70000=
41943 31940 00000 10253 20120 30152 40159 70500 333
59001 70000=
41950 31930 00000 10243 20120 30161 40163 70540 333
58001 70000=
41978 31940 02406 10228 20120 30152 40158 70542 333
59004 70000=
41992 31935 00000 10272 20140 30142 40144 70500 333
59007 70000=
0000024100
717
SOAT10 KWAL 111018
FA8005BC 011101837 OT12 ID:KN-BASS-01 DT:2014 01 11 10 16
:RD -3118 -3094 -3104 -3104 -3092 -3081 -3086 -3066 -3077 -3093
:PR 0542 0594 0582 0596 0602 0595 0591 0538 0589 0550
:B 13.7V
 46+1NN 219E
0000117300
718
SNVZ11 SBBR 111000 RRD
BBXX
SHIP 11101 99/// 1//// 36/// /0300 10227 20194 39619 40142 52///
  333 10227 20216 553// 00184 91104=
SHIP 11101 99/// 1//// 36/// /0800 10240 20196 39508 40153 52///
  333 10240 20210 553// 00588 91102=
SHIP 11101 99/// 1//// 16/// /0503 10192 20174 39358 40137 52/// 6992/
  333 10192 20177 553// 00446 91105=
SHIP 11101 99/// 1//// 36/// /2903 10222 20198 30014 40110 52///
  333 10227 20222 553// 00009 91107=
SHIP 11101 99/// 1//// 36/// /0602 10231 20186 39609 40173
  333 10231 20224 553// 00255 91103=
SHIP 11101 99/// 1//// 36/// /0703 10197 20166 38830 49923
  333 10197 20182 553// 00345 91105=
SHIP 11101 99/// 1//// 36/// /2201 10232 20222 30076 40144
  333 10237 20228 553// 00189 91105=
SHIP 11101 99/// 1//// 36/// /0701 10179 20159 39096 40171
  333 10180 20158 553// 00540 91102=
SHIP 11101 99/// 1//// 36/// /0402 10263 20212 39674 40129
  333 10263 20251 553// 00598 91104=
SHIP 11101 99/// 1//// 36/// /0600 10239 20229 39993 40171
  333 10239 20226 553// 00478 91101=
SHIP 11101 99/// 1//// 36/// /3000 10244 20210 39820 40147
  333 10244 20227 553// 00293 91102=
0000021300
719
SNVD15 KWNB 111000 RRK
BBXX
41056 11101 99183 70655 46/// /0606 10253 40165 90950 333 91207
555 11065 22070=
41056 11101 99183 70655 46/// /0606 10252 40164 90940 333 91207
555 11064 22069=
0000013200
720
SNVD15 KWNB 111000 RRI
BBXX
41002 11101 99319 70748 46/// ///// 10230 40204 58015 90950 22200
00240 10804 70022=
0000015800
721
SNVD15 KWNB 111000 RRJ
BBXX
41056 11101 99183 70655 46/// /0606 10253 40166 55000 91000 22200
00266 10703 70014 333 91207 555 11068 22074=
0000015200
722
SIVD20 KWNB 110900 RRR
BBXX
42085 11091 99179 70665 46/// /0405 10245 40161 90900 22200 00266
10703 70013 333 91206 555 11052 22057=
0000011100
723
UANT01 CWAO 111017
ARP UAL930 5902N04127W 1017 F370 MS57 247/29 KT
N228UA DDL UAK 111017 F47A
0000011000
724
UANT01 CWAO 111017
ARP BAW274 5458N05038W 1016 F370 MS59 279/65 KT
GCIVT QXT AOW 111017 F68A
0000011000
725
UANT01 CWAO 111017
ARP UAL22 5302N01642W 1017 F350 MS65 239/77 KT
N17126 DDL BLY 111017 F36A
0000006200
726
SNBX41 EBBR 111000 RRA
AAXX 11101
06431 NIL=
0000006200
727
SNBX40 EBBR 111000 RRA
AAXX 11101
06447 NIL=
0000013300
728
UAPA01 KWBC 111018
ARP WJA1875 2443N 15516W 1010 F360 MS55 228/041KT=
ARP ASA871 30N 156W 1013 F350 MS55 220/026KT=
0000011100
729
UANT01 CWAO 111018
ARP UPS218 4948N04048W 1018 F320 MS58 329/73 KT
N360UP QXT IGW 111018 F43A
0000011100
730
UANT01 CWAO 111018
ARP DAL177 5400N01944W 1018 F340 MS64 225/83 KT
N1604R QXT AOE 111018 F82A
0000007900
731
UAJP71 RJFF 111017
PIREP
ANA169 HGE AT 1016 F280 SMTH BY B735
0000017200
732
SSVD50 LFPW 110840 RRA
ZZYY 31217 11014 0840/ 704937 052194 22219 10500 20050 21001=
ZZYY 41097 11014 0840/ 714548 061097 22219 00268 10301 20030
21003=
00000000