0000201100
353
SNVD01 KWBC 111000 RRF
BBXX
41049 11101 99275 70629 46/// /0609 10228 40262 55000 90950 22200
 00250 10805 20805 305// 41202 70026 333 91211 555 11099 22104
 30916 40612 60949 057094 058094 058092 056100 053100 058100 80611
 90900=
42019 11101 99279 70954 46/// /2406 10211 40131 53007 90950 22200
 00205 10603 20502 314// 40602 70014 333 91207 555 11063 22069
 30945 42407 60949 240058 238053 237053 238054 239054 237056=
42058 11101 99149 70749 46/// /1012 10270 20235 40123 55000 90950
 22200 00274 10906 20605 309// 40904 70032 333 91214 555 11129
 22137 30901 40916 60949 095119 093123 093121 090122 087125 084120
 80914 90938=
42036 11101 99285 70845 46/// /1606 10213 20208 40158 58007 90950
 22200 00205 10401 20401 70006 333 91207 555 11063 22070 30917
 41608 60949 162057 158058 160060 159064 160059 160061=
42035 11101 99292 70944 46/// /2306 10133 20133 40116 52003 90950
 22200 00116 10602 20501 318// 40601 70009 333 91207 555 11070
 22079 30850 42408 60949 227062 224060 227059 226058 228063
 230063=
41044 11101 99216 70586 46/// /0710 10245 40205 53003 90950 22200
 00257 10805 20805 300// 41102 70026 333 91212 555 11103 22109
 30945 40712 60949 071097 069094 069096 065097 065096 065092 80711
 90917=
41012 11101 99300 70805 46/// /1704 10192 20192 40172 56014 90950
 22200 00169 10803 20401 308// 40803 70017 333 91205 555 11049
 22058 30858 41606 60949 168042 161044 157044 164045 165050
 165051=
42020 11101 99270 70967 46/// /2207 10185 20185 40133 51010 90950
 22200 00206 10702 20401 310// 40702 70011 333 91208 555 11074
 22077 30850 42308 60949 220070 222061 227063 221063 227063
 244062=
42056 11101 99198 70849 46/// /1307 10270 20221 40152 56005 90950
 22200 00274 10703 20502 311// 40702 70017 333 91208 555 11072
 22076 30931 41209 60949 128067 125070 123067 120071 123071 125069
 81308 90931=
C6QM8 11104 99241 70826 41999 01714 10260 20253 40185 57015 702//
 80000 22265 04244 20402 80255=
0000067600
354
SNVD80 KWBC 111000
BBXX
WYQ4356 11104 99461 70840 43/// /1504 10019 49954 2227/ 00001=
VOPM 11104 99430 70879 46/// /2204 10041 20028 4//// 5//// 7////
 8//// 22200 0//// 2////=
SHIP 11104 99429 70824 46/// /2013 10055 20064 49989 58032 7////
 8//// 22200 0//// 2////=
SHIP 11104 99430 70879 46/// /2204 10041 20028 4//// 5//// 7////
 8//// 22200 0//// 2////=
VCBZ 11104 99429 70824 46/// /2013 10055 20064 49989 58032 7////
 8//// 22200 0//// 2////=
SHIP 11104 99433 70798 46/// /0304 10026 20027 40029 56050 7////
 8//// 22200 0//// 2////=
CG2350 11104 99433 70798 46/// /0304 10026 20027 40029 56050 7////
 8//// 22200 0//// 2////=
0000010900
355
SAMS38 WMKK 111000 RRA
METAR WBKW 111000Z 34003KT 9999 -RA FEW017 SCT027 BKN160 25/23 Q1010=

0000026800
356
SAIN34 VOMM 111000
METAR VOBL 111000Z 14005KT 080V240 CAVOK 32/12 Q1015 NOSIG=
METAR VOCB 111000Z 09007KT 5000 HZ NSC 29/14 Q1013 NOSIG=
METAR VOCL 111000Z 28007KT 8000 FEW015 31/22 Q1010 NOSIG=
METAR VOMD 111000Z 06008KT 7000 FEW020 31/16 Q1011=
0000036000
357
SANG31 YBBN 111000
SPECI AYPY 111000Z VRB02KT 9999 -RA SCT005 FEW019CB SCT020 OVC130
25/25 Q1007   RMKS: RETS/CB TO N/NE   SPECI CEASES==
METAR AYWK 111000Z NIL=
METAR AYVN 111000Z NIL=
METAR AYNZ 111000Z NIL=
METAR AYMH 111000Z NIL=
METAR AYGN 111000Z NIL=
METAR AYMO 111000Z NIL=
METAR AGGH 111000Z 14003KT 9999 HZ SCT017 SCT040 27/25 Q1006=

0000169100
358
SAUS71 KWBC 102100 RRA
METAR
KCAK 102051Z 19006KT 1/8SM FG VV003 05/05 A3009=
KCAR 102054Z AUTO 15004KT 10SM CLR M09/M17 A3023=
KCEF 102058Z AUTO 21002KT 10SM FEW020 BKN090 00/M01 A3034=
KCHO 102053Z 00000KT 1 3/4SM BR OVC002 02/01 A3028=
KCHS 102056Z 15012G19KT 10SM SCT015 BKN030 BKN250 22/18 A3015=
KCKB 102053Z 04003KT 10SM CLR 10/07 A3011=
KCLE 102051Z 16011KT 5SM BR OVC008 04/02 A3009=
KCLT 102052Z 02005KT 10SM OVC003 07/06 A3020=
KCMH 102051Z 14008KT 3SM SCT010 OVC033 07/04 A3006=
KCRW 102054Z 12005KT 10SM FEW075 SCT240 BKN300 12/09 A3008=
KCVG 102052Z 15013G20KT 10SM FEW010 BKN120 OVC180 09/08 A2998=
KDAN 102053Z AUTO 07005KT 10SM -RA OVC014 03/02 A3026=
KDAY 102056Z 14010KT 1/4SM R06L/2400V4000FT FG OVC002 06/05
     A2998=
KDCA 102052Z 05005KT 2 1/2SM -RA BR OVC006 04/02 A3032=
KDUJ 102056Z AUTO 12006KT 3SM BR OVC003 02/01 A3014=
KECG 102054Z 11006KT 10SM OVC095 13/11 A3029=
KEKN 102051Z AUTO 00000KT 10SM CLR 10/07 A3013=
KELM 102053Z 21004KT 9SM OVC020 04/M01 A3022=
KERI 102051Z 16009KT 10SM FEW012 OVC049 05/02 A3010=
KEWB 102053Z 00000KT 1SM R05/3000VP6000FT BR OVC004 03/03
     A3037=
KEWN 102054Z 12006KT 10SM FEW028 OVC110 19/13 A3025=
KEWR 102051Z 02003KT 1SM -DZ BR BKN005 OVC010 01/00 A3037=
KFAY 102053Z AUTO 02005KT 2 1/2SM BR BKN035 BKN075 OVC100 13/13
     A3018=
KFLO 102053Z 15008KT 10SM BKN024 OVC038 21/17 A3015=
KFRG 102053Z 00000KT 1 1/4SM BR BKN004 OVC020 02/02 A3037=
KFVE 102053Z AUTO 17004KT 10SM CLR M07/M16 A3018=
KGFL 102053Z AUTO 00000KT 9SM OVC028 M02/M04 A3032=
KGON 102056Z AUTO 00000KT 1/2SM R05/4000V5000FT -RA FG BKN009
     BKN021 OVC035 02/02 A3038=

0000170600
359
SAUS71 KWBC 102100 RRB
METAR
KGSO 102054Z 05006KT 5SM -DZ BR OVC004 03/02 A3021=
KGSP 102053Z 04006KT 3SM -RA BR OVC004 08/08 A3015=
KHFD 102053Z 00000KT 3SM BR OVC010 01/M01 A3037=
KHKY 102053Z AUTO 06004KT 2 1/2SM -RA BR OVC003 08/06 A3018=
KHPN 102056Z 00000KT 1 1/4SM -DZ BR OVC007 01/M01 A3034=
KHTS 102051Z 00000KT 10SM OVC035 10/08 A3006=
KHVN 102053Z 00000KT 2 1/2SM BR OVC029 01/00 A3036=
KHYA 102056Z 17005KT 10SM OVC011 03/02 A3038=
KIAD 102052Z 05003KT 1 1/4SM R01R/5000VP6000FT -RA BR OVC005 02/01
     A3030=
KIAG 102053Z 16004KT 9SM OVC016 03/00 A3012=
KILG 102051Z 05003KT 1 1/2SM -RA BR OVC005 03/02 A3035=
KILM 102053Z AUTO 15009G16KT 10SM CLR 22/15 A3021=
KINT 102054Z 06005KT 10SM -RA BKN003 OVC009 04/03 A3022=
KIPT 102054Z 08004KT 5SM HZ OVC018 01/M02 A3029=
KISP 102056Z 00000KT 3/4SM R06/4500VP6000FT BR FEW010 OVC021 03/02
     A3035=
KJFK 102051Z 05003KT 1SM R04R/6000VP6000FT -DZ BR FEW005 OVC017
     03/01 A3038=
KJST 102054Z AUTO 17007KT 10SM OVC004 04/04 A3014=
KLBE 102050Z 00000KT 10SM SCT014 BKN030 08/07 A3016=
KLCK 102055Z AUTO 11005KT 10SM SCT009 BKN035 OVC070 08/05
     A3004=
KLEB 102053Z 02003KT 9SM OVC028 M02/M06 A3030=
KLGA 102051Z 07006KT 1 1/2SM BR SCT010 OVC022 00/M01 A3036=
KLUK 102053Z 16008KT 10SM BKN011 OVC055 11/08 A3000=
KLWM 102054Z 00000KT 8SM BKN012 BKN050 OVC085 01/M02 A3037=
KLYH 102054Z 03003KT 1 3/4SM R04/5000VP6000FT -RA BR BKN003 OVC007
     02/02 A3026=
KMDT 102056Z 00000KT 2 1/2SM HZ OVC009 01/M02 A3031=
KMFD 102052Z 16013KT 1SM BR OVC002 03/03 A3004=
KMGW 102053Z 00000KT 10SM SCT019 10/07 A3013=
KMHT 102053Z 17004KT 10SM BKN018 OVC070 00/M02 A3033=

0000167800
360
SAUS71 KWBC 102100 RRC
METAR
KMIV 102054Z AUTO 00000KT 3/4SM -RA BR OVC002 04/04 A3033=
KMMU NIL=
KMRB 102053Z 02005KT 2SM HZ OVC009 03/00 A3027=
KMSS 102053Z AUTO 00000KT 9SM OVC018 00/M03 A3026=
KMTN NIL=
KMYR NIL=
KNKT 102054Z COR 14009KT 10SM FEW030 SCT045 BKN120 20/13 A3026=
KNKT 102054Z 14009KT 10SM FEW030 FEW045 OVC120 20/13 A3026=
KOQU 102050Z 00000KT 2SM BR OVC009 M01/M01 A3039=
KORF 102051Z AUTO 01007KT 3SM -RA BR FEW004 BKN080 OVC100 05/04
     A3031=
KORH 102054Z 21007KT 9SM OVC005 01/00 A3031=
KPHF 102054Z AUTO 06006KT 3SM HZ BKN005 BKN080 OVC100 07/04
     A3031=
KPHL 102054Z 09004KT 1 1/4SM -RA BR OVC006 02/01 A3036=
KPIT 102051Z 14005KT 10SM FEW023 SCT050 BKN250 08/05 A3012=
KPKB 102053Z AUTO 16005KT 10SM OVC025 11/07 A3012=
KPLB NIL=
KPOU 102053Z 17003KT 7SM OVC017 01/M03 A3035=
KPQI 102055Z AUTO 15007KT 10SM CLR M08/M19 A3025=
KPSM 102058Z 21005KT 10SM FEW019 BKN023 OVC070 M01/M01 A3036=
KPVD 102051Z 00000KT 1 1/4SM BR BKN012 BKN019 OVC023 00/M01
     A3038=
KPWM 102051Z 21006KT 10SM BKN075 M01/M05 A3036=
KRDG 102054Z 00000KT 3SM HZ OVC015 02/M02 A3033=
KRDU 102051Z 04005KT 1 1/2SM -RA BR OVC004 07/06 A3023=
KRIC 102054Z 06004KT 2 1/2SM -RA BR OVC004 04/03 A3030=
KROA 102054Z 09003KT 1SM BR OVC007 03/03 A3025=
KROC 102054Z 14003KT 10SM OVC026 04/M01 A3017=
KRWI 102053Z AUTO 03006KT 3SM BR FEW070 OVC085 09/09 A3024=
KSAV 102053Z 16006KT 3SM BR BKN005 OVC010 20/18 A3012=
KSBY 102054Z 10005KT 3SM -RA BR OVC003 07/06 A3033=
KSCH NIL=
KSLK 102051Z AUTO 23006KT 8SM OVC013 M03/M04 A3017=
KSWF NIL=
KSYR 102054Z 12004KT 10SM SCT044 OVC070 03/M01 A3022=

0000038700
361
SAUS71 KWBC 102100 RRD
METAR
KTEB 102051Z 00000KT 1 1/2SM BR OVC007 01/M01 A3036=
KTOL 102052Z 13006KT 10SM BKN009 OVC031 03/01 A2999=
KTTN 102053Z 05003KT 1 1/4SM UP BR OVC004 01/00 A3035=
KUCA NIL=
KWRI 102058Z AUTO 01002KT 1 3/4SM BR OVC003 02/02 A3033=
KYNG 102051Z 16005KT 3SM BR OVC004 04/03 A3011=
KZZV 102053Z AUTO 15004KT 7SM OVC007 07/06 A3009=

0000166800
362
SAUS72 KWBC 102100
METAR
KABI 102052Z 27020G25KT 10SM CLR 22/M05 A2971=
KABQ 102052Z 31014KT 10SM FEW070 11/M09 A2991=
KABY 102053Z 06004KT 3SM BR OVC004 14/14 A3011=
KACT 102051Z AUTO 20012KT 10SM CLR 22/16 A2973=
KAEX 102053Z 17005KT 2 1/2SM BR BKN014 OVC019 17/16 A2986=
KAFW 102053Z 23017KT 10SM FEW035 BKN180 BKN300 18/14 A2967=
KAHN 102051Z 05005KT 1 1/2SM -RA BR OVC003 08/07 A3014=
KALI 102053Z AUTO 22012G19KT 10SM SCT045 27/15 A2979=
KAMA 102053Z 33009KT 10SM CLR 12/M11 A2973=
KANB 102053Z AUTO 07007KT 7SM FEW008 OVC014 11/08 A3006=
KAPF 102053Z 17008KT 10SM SCT040 27/22 A3005=
KATL 102052Z 10008KT 1/4SM R09R/5500VP6000FT BR OVC002 09/08
     A3010=
KAUS 102053Z 20016G22KT 10SM FEW020 BKN150 BKN200 21/17 A2977=
KBFM 102053Z 00000KT 10SM OVC011 17/13 A3002=
KBHM 102053Z 11006KT 3SM BR OVC005 11/09 A3006=
KBNA 102053Z 17014G19KT 10SM BKN014 OVC026 13/09 A2997=
KBPT 102053Z 18012KT 10SM FEW027 BKN037 OVC049 21/16 A2986=
KBQK 102055Z AUTO 11005KT 2 1/2SM OVC003 19/19 A3012=
KBRO 102053Z 19019KT 10SM FEW025 26/19 A2983=
KBTR 102053Z 11007KT 10SM BKN014 OVC047 19/14 A2993=
KCEW 102053Z AUTO 07004KT 1/2SM FG OVC001 15/14 A3004=
KCHA 102053Z 00000KT 1 1/2SM BR OVC004 08/07 A3008=
KCLL 102053Z 20006KT 10SM OVC006 18/18 A2979=
KCNM 102053Z AUTO 25023G29KT 10SM CLR 19/M12 A2980=
KCRP 102051Z 18013KT 10SM SCT032 SCT044 24/20 A2980=
KCSG 102051Z 08007KT 2SM BR OVC003 11/11 A3007=
KCSV 102053Z AUTO 16006KT 10SM OVC004 09/08 A3002=
KDAB 102053Z VRB03KT 10SM FEW020 SCT075 SCT150 24/19 A3009=
KDAL 102053Z 21008G16KT 9SM FEW020 SCT033 BKN095 BKN150 OVC250
     19/15 A2968=

0000169600
363
SAUS72 KWBC 102100 RRA
METAR
KDFW 102053Z 21015KT 10SM FEW010 SCT035 BKN100 BKN180 19/16
     A2967=
KDHN 102053Z 09004KT 1/4SM FG VV002 14/14 A3009=
KDLF 102058Z AUTO VRB01KT 10SM BKN170 17/11 A2983=
KDMN 102053Z AUTO 26021G30KT 10SM CLR 15/M09 A2996=
KELP 102051Z 26020G26KT 10SM CLR 17/M10 A2994=
KESF 102053Z AUTO VRB05KT 4SM -RA OVC012 18/15 A2987=
KEYW 102053Z 12008KT 10SM CLR 26/22 A3003=
KFLL 102053Z 13011KT 10SM SCT021 SCT055 SCT065 24/22 A3007=
KFSM 102053Z AUTO 14003KT 10SM -RA OVC075 12/11 A2965=
KFTW 102053Z 24009G19KT 10SM FEW025 19/16 A2968=
KFTY 102053Z 06004KT 1 1/2SM BR OVC003 09/09 A3010=
KGGG 102053Z 19012G21KT 10SM BKN034 OVC044 21/14 A2973=
KGLS 102052Z 16013KT 10SM BKN040 OVC050 18/17 A2985=
KGNV 102053Z VRB05KT 10SM FEW027 SCT037 SCT060 26/19 A3007=
KGPT 102053Z 12010KT 1 1/4SM -RA BR OVC003 16/15 A2998=
KGUP 102053Z AUTO 28020G24KT 10SM CLR 10/M09 A3001=
KGWO 102053Z AUTO 16011KT 10SM OVC048 16/10 A2990=
KHOT 102053Z AUTO 13005KT 3SM -RA BR OVC004 12/11 A2974=
KHOU 102053Z 18011KT 10SM -RA SCT020 BKN031 OVC060 21/17 A2982=
KHRL 102052Z 18022KT 10SM CLR 27/18 A2980=
KHRO 102053Z AUTO 15011KT 3SM -RA BR BKN075 OVC090 10/09 A2970=
KHSV 102053Z COR 16010KT 10SM BKN014 OVC022 12/08 A3001=
KHSV 102053Z 16010KT 10SM BKN014 OVC022 12/08 A3001=
KIAH 102053Z 17009KT 10SM BKN018 BKN050 OVC065 21/18 A2981=
KINK 102053Z AUTO 25020G24KT 10SM -RA CLR 21/M10 A2980=
KJAN 102054Z 15010KT 10SM OVC043 16/12 A2993=
KJAX 102056Z 13010KT 10SM FEW030 SCT055 23/19 A3008=
KJBR 102053Z AUTO 16006KT 6SM -RA BR FEW032 BKN042 OVC085 08/07
     A2980=
KLBB 102053Z 29026G31KT 9SM CLR 17/M10 A2972=

0000011800
364
SACN62 CYQK 102100
METAR CYQK 102100Z 17012G18KT 1SM -SN BR OVC005 M05/M06 A2943 RMK SC8
 SLP990=

0000011900
365
SACN62 CYBW 102100
METAR CYBW 102100Z 28011KT 30SM FEW060 BKN120 M00/M09 A2947 RMK
 SC1AC5 SLP028=

0000011200
366
SACN62 CYHZ 102100
METAR CYHZ 102100Z 21011G17KT 15SM OVC030 M02/M07 A3037 RMK SC8
 SLP294=

0000013000
367
SACN62 CYCG 102100
METAR CYCG 102100Z 20014G20KT 15SM FEW030 BKN061 BKN200 03/01 A2982
 RMK SC1SC5CI1 SLP113=

0000010400
368
SACN62 CYSN 102100
METAR CYSN 102100Z 17005KT 15SM OVC018 03/01 A3012 RMK SC8 SLP203=

0000013500
369
SACN62 CYQU 102100 CCA
METAR CYQU 102100Z CCA 26015G20KT 25SM DRSN FEW060 BKN210 M01/M09
 A2949 RMK SC1CI4 SLP023=

0000010300
370
SAUK37 EGGY 102050 RRB
METAR EGPI 102050Z AUTO 27009KT 250V310 9999 NCD 05/02 Q1007=

0000169700
371
SAUS72 KWBC 102100 RRB
METAR
KLCH 102053Z 17006KT 10SM OVC038 18/16 A2988=
KLFT 102053Z 18010G19KT 10SM BKN018 BKN022 OVC029 21/17 A2991=
KLIT 102053Z 14006KT 1SM RA BR OVC005 09/09 A2978=
KLRD 102056Z 00000KT 10SM CLR 24/13 A2985=
KLRU 102055Z AUTO 26017G24KT 10SM CLR 15/M10 A2996=
KMAF 102053Z 28020G26KT 10SM CLR 20/M08 A2979=
KMCN 102053Z 07003KT 1 1/2SM BR OVC004 11/11 A3012=
KMCO 102053Z 15006KT 10SM SCT040 BKN050 BKN250 25/19 A3009=
KMEI 102058Z 11003KT 10SM OVC010 14/11 A2999=
KMEM 102054Z 13006KT 10SM SCT028 BKN049 OVC060 14/09 A2987=
KMFE 102053Z 18004KT 10SM CLR 27/16 A2981=
KMGM 102053Z 07006KT 10SM OVC004 12/11 A3006=
KMIA 102053Z 12011KT 10SM SCT021 SCT050 BKN200 26/21 A3007=
KMKL 102053Z 17006KT 10SM SCT016 OVC110 11/08 A2993=
KMLB 102053Z 14006KT 10SM SCT020 24/21 A3009=
KMLC 102053Z AUTO 19009G16KT 10SM FEW027 16/13 A2961=
KMLU 102053Z 15005KT 10SM OVC016 17/13 A2985=
KMOB 102056Z 11006KT 5SM BR OVC008 15/14 A3000=
KMSL 102053Z AUTO 17005KT 10SM OVC014 13/08 A3000=
KMSY 102053Z 13008KT 8SM OVC008 18/16 A2995=
KNEW 102053Z 11012KT 3SM BR OVC004 15/13 A2996=
KNGP 102056Z 18013KT 10SM FEW035 BKN045 23/19 A2980=
KOKC 102052Z 31015KT 10SM FEW250 14/M01 A2964=
KPBI 102053Z 13010KT 10SM SCT022 BKN030 BKN070 22/21 A3008=
KPDK 102053Z 00000KT 1 1/4SM BR OVC003 08/07 A3011=
KPFN NIL=
KPIE 102053Z 14009KT 10SM CLR 26/19 A3007=
KPNS 102053Z 07003KT 2SM R17/5500VP6000FT BR OVC003 16/14
     A3002=
KROW 102051Z 29015KT 10SM CLR 19/M13 A2979=
KRSW 102053Z 12006KT 10SM SCT030 26/20 A3006=
KSAT 102051Z 24011KT 10SM SCT032 BKN250 22/15 A2981=
KSFB 102053Z 12005KT 10SM FEW080 26/21 A3007=

0000142300
372
SAUS72 KWBC 102100 RRC
METAR
KSHV 102056Z 17012G22KT 10SM SCT070 BKN150 OVC270 19/14 A2976=
KSJT 102051Z 26023G31KT 10SM CLR 23/M02 A2976=
KSRQ 102053Z 19010KT 10SM FEW032 BKN120 26/19 A3005=
KSSI 102053Z AUTO 14009KT 10SM BKN005 OVC010 18/17 A3012=
KTCC 102053Z AUTO 26014KT 10SM CLR 16/M11 A2969=
KTCL 102053Z 13007KT 10SM SCT014 OVC032 13/09 A3002=
KTCS 102053Z AUTO 18013G18KT 10SM CLR 14/M11 A2991=
KTLH 102053Z 16005KT 2SM -DZ BR OVC003 21/19 A3006=
KTPA 102053Z 22006KT 10SM FEW030 BKN210 BKN250 24/19 A3007=
KTRI 102053Z 00000KT 10SM SCT050 BKN250 14/08 A3009=
KTUL 102053Z 24008KT 10SM BKN035 BKN180 14/09 A2957=
KTUP 102053Z 20009KT 10SM OVC005 11/ A2997=
KTXK 102053Z 17007KT 3SM -RA BR FEW004 BKN047 OVC060 15/14
     A2973=
KTYR 102053Z 22012KT 1SM +RA BR SCT009 OVC015 17/16 A2977=
KTYS 102053Z 06003KT 10SM SCT042 BKN050 OVC250 11/07 A3006=
KVCT 102051Z 20009KT 10SM FEW013 BKN030 OVC065 22/19 A2982=
KVLD 102053Z 17004KT 10SM OVC024 23/19 A3008=
KVRB 102053Z 13006KT 8SM -RA FEW028 BKN037 OVC047 24/22 A3009=
TIST 102053Z AUTO 07011KT 10SM BKN065 26/20 A3003=
TISX 102053Z 08013G19KT 10SM SCT029 25/21 A3002=
TJBQ 102050Z 09019G27KT 10SM SCT020 SCT060 31/ A3005=
TJMZ 102050Z 07011KT 10SM SCT040 27/20 A3001=
TJPS NIL=
TJSJ 102056Z 07015KT 10SM SCT029 SCT041 28/21 A3004=
TKPK 102100Z 03012KT 9999 FEW021 SCT044 25/21 Q1016=
TNCM NIL=

00000000