0000013600
566
SMZW21 FVHA 110600 RRA
AAXX 11064
67969 31970 60000 10262 20204 3//// 48/// 70522 80002 333 20207
      5//// 86080=
0000164600
567
SMRS42 RUMS 110600
AAXX 11061
22003 11496 82308 11060 21091 30154 40164 52002 60032 78583 889// 333
21093 48030 91010 91112=
22004 11980 00000 11217 21243 30066 40193 53002 69902 77670 333 21241
47004 93508=
22012 12598 53607 11119 21155 30152 40165 52006 60002 82501 333 21119
48013 91007=
22100 12/98 50000 11350 21387 30049 40217 5//// 60002 333 21382
47039=
22101 12398 80000 11240 21263 30053 40194 53003 60002 886// 333 21297
47038 88709 93508=
22105 11998 00101 11302 21332 30066 40194 53002 60002 77600 333 21318
47019 91002=
22133 NIL=
22140 12/// /0811 11095 21117 30130 40146 55002 60002 333 21116 91015
91115=
22213 12584 12601 11297 21327 39969 40158 53001 60002 81500 333 21308
47049 91002 93503=
22249 12999 20704 11166 21188 39931 40132 54001 60002 80030 333 21176
47045 91008 91111=
22305 NIL=
22413 11463 80406 11025 21160 39967 40072 52002 60022 77173 8572/ 333
21160 48045 91011 91114=
22717 11256 80105 11113 21133 39745 49946 52011 60012 77173 8872/ 333
21114 47007 86706 91111=
22805 115// 80105 11078 21100 39925 49945 52024 60032 73683 885// 333
21078 47004 91010 91111 93703=
22829 11450 80000 11074 21081 39836 49887 52020 60082 77173 8672/ 333
21074 47003=
22891 11496 83402 11069 21086 39851 49940 52035 60042 78582 889// 333
21072 47005 86711 91110=
22897 11471 83502 11054 21090 39933 49947 52022 69932 70272 886// 333
21056 88714=
26067 11497 73303 11058 21076 39778 49940 52028 69942 70282 87900 333
21059 47002 86918 91110=
26080 11484 83305 11041 21060 39864 49897 52040 60022 72272 885// 333
21041 47000 88618 91010 91113=
0000239600
568
SMRS40 RUMS 110600
AAXX 11061
22212 11571 73201 11227 21260 39994 40175 54001 69902 70281 84930 333
21262 48049 91002 93510=
22312 11978 10506 11142 21179 30097 40121 54001 60002 73630 80001 333
21151 44051 91014 91114=
22912 11963 80205 11106 21126 39896 49912 52023 60022 77173 8807/ 333
21109 47004 91112=
22913 11496 80104 11088 21117 39872 49902 52024 60032 77172 8872/ 333
21088 47003 86711 91110=
22925 11469 80105 11074 21104 39743 49884 52020 60022 77172 8872/ 333
21074 47005 86715 91110=
26072 11570 73403 11046 21059 39904 49924 52032 60032 77172 87500 333
21046 47006 87523 93703=
26157 12597 73305 11017 21041 39910 49960 52027 60012 87300 333 21018
91010 91111=
26359 11460 83104 10002 21009 39823 49957 52035 60052 78582 889// 333
21002 43001 91112=
26029 27/21 /3102 11008 21013 39962 49991 52018 77165 333 10025 21009
60007 91109=
26045 27329 83408 11014 21021 39970 49973 53023 77177 88/// 333 10023
21016 60007 88/08 91010 91111=
26046 27364 83406 11027 21037 39874 49966 52026 77177 88/// 333 10010
21030 69987 88/10 91010 91110=
26058 27456 83405 11032 21049 39920 49955 52026 78588 80/// 333 10012
21034 60007 80/13 91009 91109=
26124 27217 83002 11004 21004 39963 49994 52016 77177 88/// 333 10019
21004 69947 88/06=
26134 27255 83102 11010 21010 39923 49988 53018 77177 88/// 333 10015
21010 60007 88/05=
26135 27484 73302 11009 21024 39909 49983 52021 72487 87/// 333 10016
21009 60007 87/12=
26141 01483 83304 11027 21029 39826 49976 53025 60012 78587 889// 333
10003 21027 47004 60007 88910 91108=
26145 27381 83203 11018 21033 39929 49969 53027 77187 88/// 333 10010
21018 60007 88/10 91110=
26229 NIL=
26233 27357 83002 11005 21016 39877 49984 53022 78087 88/// 333 10014
21006 60007 88/10=
26238 NIL=
26314 NIL=
26318 NIL=
26324 NIL=
26326 NIL=
26335 NIL=
26425 NIL=
26531 11570 82805 10010 21004 40028 52024 69982 72682 885// 333 20009
32/// 88623 91010 91111=
26633 11561 82804 10006 21011 39902 40033 52029 60032 77176 8802/ 333
20006 32/// 88523 91009 91112=
26643 11570 62907 10021 21004 39836 49997 52031 60022 72065 86500 333
20018 86622 91014 91114=
26653 11459 82905 10022 20012 39812 49974 52034 60052 76166 8872/ 333
20020 88711 91011 91112=
26668 11465 82706 10021 20008 39756 49971 60042 70262 887// 333 20015
88712 91013 91116=
0000062100
569
SMRS41 RUMS 110600
AAXX 11061
22525 11495 80707 11082 21094 39994 40007 54001 60022 77373 8802/ 333
21095 48016 91013 91114=
22727 11961 83604 11125 21160 39892 49942 52012 60052 77173 8807/ 333
21126 48003 91112 92980=
26069 11599 73205 11057 21075 39815 49928 52029 60022 87500 333 21055
43997 87621 91110=
26099 11496 80000 10000 20000 39632 49845 52018 60022 77172 8572/ 333
21001 43008=
26179 11496 83307 11026 21052 39873 49905 52046 60022 77175 8802/ 333
21026 47997 88517 91113=
26268 11596 82905 11013 21030 39852 49933 52036 60032 77172 8802/ 333
21013 47001 91011 91111=
0000011600
570
SMRS40 RUMS 110600 RRA
AAXX 11061
26229 33/// /3006 10018 20001 40000 52020 333 20014 91010 91113=
0000010400
571
SMRS40 RUMS 110600 RRB
AAXX 11061
26238 33/// /2905 10002 21007 49993 52022 333 20001=
0000013600
572
SMRS40 RUMS 110600 RRC
AAXX 11061
26314 11497 62704 10012 21002 40029 52006 60012 78582 86900 333 20010
84710 91112=
0000011600
573
SMRS40 RUMS 110600 RRD
AAXX 11061
26335 13/// /3005 10003 21003 49999 52024 60022 333 20003 91111=
0000011000
574
SMRS40 RUMS 110600 RRE
AAXX 11061
26425 33/// /2902 10010 21005 40028 52020 333 20009 91110=
0000011600
575
SMRS40 RUMS 110600 RRF
AAXX 11061
26318 13/// /2705 10000 21008 40028 52012 60012 333 20000 91111=
0000010400
576
SMRS40 RUMS 110600 RRG
AAXX 11061
26324 33/// /2704 10007 21001 40020 52015 333 20005=
0000011000
577
SMRS40 RUMS 110600 RRH
AAXX 11061
26326 33/// /3105 10027 21005 40009 52021 333 20020 91115=
0000009900
578
SAFC21 OEJD 110600 RRC
METAR
OERF 110600Z 33010KT 7000 BKN040 BKN100 07/06 Q1019=
0000009700
579
SASD20 OEJD 110600 RRC
METAR OERF 110600Z 33010KT 7000 BKN040 BKN100 07/06 Q1019=
0000013400
580
SMSD20 OEJD 110600 RRB
AAXX 11064
40362 41657 73310 10074 20060 39671 40197 71000 85470 333 20058 58046 85640 87360=
0000015400
581
SMRS40 RUMS 110600 CCA
AAXX 11061
26072 11570 73403 11046 21059 39904 49924 52032 60032 77172 87500 333
21046 47006 87523 91111 93703=
0000053200
582
SAIR31 OIII 110630
METAR OIAW 110630Z 11008KT 7000 FEW030CB SCT025 OVC090 12/10
Q1019=
METAR OIFM 110630Z 29004KT 0800 FG SCT040 BKN100 M02/M02 Q1021
      A3017=
METAR OIII 110630Z 24006KT 8000 FEW040 SCT100 BKN200 03/M06 Q1023
 A3021 TEMPO FEW035CB SCT030 BKN100=
METAR OIKB 110630Z NIL=
METAR OIKK 110630Z NIL=
METAR OIMM 110630Z NIL=
METAR OISS 110630Z NIL=
METAR OITT 110630Z 04006KT 6000 FEW035 BKN180 M08/M12 Q1023 A3021=
METAR OIZH 110630Z 17008KT 9999 FEW035 BKN200 03/M03 Q1024 A3025=
0000048000
583
SAIR32 OIII 110630
METAR OIAA 110630Z NIL=
METAR OIBK 110630Z 06016KT 7000 -RA FEW030CB SCT025 OVC080 14/11
Q1021=
METAR OICC 110630Z 12006KT 4000 BR FEW035CB SCT040 OVC070
 M00/M02 Q1020 A3013 TEMPO SN=
METAR OIGG 110630Z 00000KT 2500 BR FEW015CB BKN025
BKN090 05/04 Q1018=
METAR OIIE 110630Z NIL=
METAR OITR 110630Z 26004KT 2000 HZ SCT035 BKN160 M07/M13 Q1022
NOSIG=
METAR OIYY 110630Z NIL=
METAR OAKN 110630Z NIL=
METAR OAKB 110630Z NIL=
0000031500
584
SAIR33 OIII 110630
METAR OIBB 110630Z NIL=
METAR OIBP 110630Z NIL=
METAR OICK 110630Z NIL=
METAR OICS 110630Z 19004KT 4500 BR FEW025 SCT035 BKN080 M03/M04
Q1021=
METAR OIHH 110630Z NIL=
METAR OINZ 110630Z NIL=
METAR OISR 110630Z NIL=
METAR OITL 110630Z NIL=
METAR OIZC 110630Z NIL=
0000032700
585
SMSY20 OSDI 110600
AAXX 11061
40009 NIL=
40016 NIL=
40022 32965 00802 10090 21001 40221 53017 222// 20000 333 20072
30///=
40030 31960 00000 10016 20000 40243 52014 71000 333 20000 34/// 50034
55004=
40039 NIL=
40066 32970 00000 10080 21019 40222 52012 333 20072 30///=
40072 NIL=
40083 NIL=
00000000