0000010000
673
SPUS43 KWBC 102036
SPECI
KMLI 102032Z 17008KT 1 1/2SM RA BR OVC006 02/01 A2965=

0000026800
674
FTCN31 CWAO 102000 AAA
TAF AMD CYQZ 102037Z 1020/1106 VRB03KT 1/2SM FZFG VV002
     BECMG 1021/1023 P6SM NSW SCT002 SCT070
    FM110300 13006KT P6SM -SN BKN050 TEMPO 1103/1106 2SM -SN BKN009
    RMK FCST BASED ON AUTO OBS. NXT FCST BY 110100Z=

0000010800
675
SPUS31 KWBC 102037
SPECI
KRDU 102033Z 36004KT 1 1/2SM -RA BR BKN004 OVC035 07/06 A3023=

0000052100
676
SAMS31 WMKK 102030
METAR WBGG 102030Z 00000KT 7000 -RA FEW000 SCT020 BKN150 22/22 Q1011
NOSIG=
METAR WBKK 102030Z 10003KT 9999 FEW014 SCT140 BKN280 24/23 Q1010
NOSIG=
METAR WBSB 102030Z 15002KT 9999 FEW005 BKN280 24/24 Q1011 NOSIG=
METAR WMKK 102030Z 35004KT 300V060 8000 FEW030 SCT140 BKN280 24/23
Q1010 NOSIG=
METAR WMKP 102030Z 33001KT 8000 FEW025 SCT140 BKN260 25/24 Q1011
NOSIG=
METAR WSSL 102030Z NIL=
METAR WSSS 102030Z 36003KT 330V050 9999 FEW018 BKN300 24/23 Q1010
NOSIG=

0000015700
677
SAIO31 KWBC 102000 RRE
METAR
FMCZ 102030Z NIL=
FMEE 102030Z AUTO 11011KT 9999 NSC 25/22 Q1015=
VYMD 102030Z NIL=
VYYY 102030Z NIL=

0000044300
678
SARA33 RUMS 102030
METAR UIAA 102030Z VRB01MPS 9999 FEW050CB SCT100 M22/M26 Q1022 NOSIG
RMK QFE708 29CLRD70=
METAR UIBB 102030Z 08002MPS 5000 BR FEW003 M23/M25 Q1028 TEMPO 0300
FG VV002 RMK QFE728/0970 30490530=
METAR UIII 102030Z 03001MPS 9999 FEW050CB SCT100 OVC200 M16/M18 Q1031
NOSIG RMK QFE728/0971 30490340=
METAR UIUU 102030Z 30003MPS 5000 -SN SCT033 OVC100 M13/M15 Q1028
NOSIG RMK QFE726/0968 26490842=

0000012700
679
SARA31 RUMS 102030
METAR UEEE 102030Z 22001MPS 5000 -SN BR OVC200 M44/M48 Q1034 NOSIG
RMK QFE767 23490145=

0000094900
680
SARA34 RUMS 102030
METAR UNAA 102030Z 22006MPS CAVOK M04/M10 Q1029 NOSIG RMK QFE749
20090040=
METAR UNBB 102030Z 21006MPS 8000 -SN DRSN SCT008 BKN020 M08/M10 Q1030
NOSIG RMK QFE749/0999 24424042=
METAR UNEE 102030Z 19005MPS 2700 -SN OVC008 M08/M09 Q1026 NOSIG RMK
QFE746 23451050=
METAR UNKL 102030Z 21003MPS 9999 -SHSN SCT023CB BKN083 M08/M12 Q1026
NOSIG RMK QFE743 29////55=
METAR UNNT 102030Z 22006MPS 9000 -SHSN DRSN FEW017 OVC047CB M07/M09
Q1027 25390139 16390136 NOSIG RMK QFE760/1014=
METAR UNOO 102030Z 22005MPS 8000 SCT016 BKN033CB M06/M08 Q1022
25390137 NOSIG RMK QFE758=
METAR UNTT 102030Z 21008MPS 1500 SHSN FEW008 SCT019CB OVC066 M07/M08
Q1023 NOSIG RMK QFE752=
METAR USTR 102030Z 17004MPS 9999 -SHSN BKN011 OVC018CB M04/M04 Q1012
TEMPO 1500 SHSN BKN005 RMK QFE749/0999 21390045 12750029=
METAR USHH 102030Z 03002MPS 9999 SCT015 OVC080 M22/M25 Q1016 TEMPO
BKN007 RMK QFE758 06////37=

0000056200
681
SARA36 RUMS 102030
METAR UWUU 102030Z 16002MPS 140V200 4500 -SN OVC010 M02/M03 Q1007
14650440 TEMPO 1000 SN FZRA BKN003 RMK QFE745/0993 FBL ICE INC=
METAR USCC 102030Z 16004MPS 5000 -SHSN BR BKN010CB OVC070 M05/M06
Q1009 09490350 TEMPO 1100 SHSN BKN005 RMK QFE736=
METAR USNN 102030Z 32001MPS 9999 SCT022 OVC061 M11/M13 Q1016 NOSIG
RMK QFE758 03420242=
METAR USRR 102030Z 06001MPS 7000 SCT045 M26/M29 Q1017 NOSIG RMK
QFE758 07////35=
METAR USSS 102030Z 15002MPS 4500 -SN BKN014 OVC067 M03/M05 Q1008
08590230 NOSIG RMK QFE736=

0000062400
682
SARA32 RUMS 102030
METAR UHBB 102030Z 25001MPS CAVOK M34/M36 Q1022 NOSIG RMK QFE749/0998
36410160=
METAR UHHH 102030Z 24007G10MPS CAVOK M26/M32 Q1018 NOSIG RMK
QFE757/1009 23090060=
METAR UHMA 102030Z NIL=
METAR UHMD 102030Z NIL=
METAR UHMM 102030Z 03004MPS 9999 FEW200 M18/M28 Q1007 NOSIG RMK
QFE740 88820555=
METAR UHPP 102030Z 15002MPS 9999 BKN032 BKN100 M06/M11 Q0992 NOSIG
RMK QFE741/0988 SC05 055 055=
METAR UHSS 102030Z 00000MPS 6000 SCT036 M22/M24 Q1013 NOSIG RMK
QFE758/1011 01810366=
METAR UHWW 102030Z 00000MPS 9999 SCT200 M26/M30 Q1027 NOSIG RMK
QFE769/1025 25CLRD70=

0000050200
683
SARS33 RUMS 102030
METAR ULLI 102030Z 35004MPS 300V040 7000 -RASN BKN008 OVC018 01/01
Q0983 28////// 78620245 NOSIG=
METAR UUBW 102030Z 19005MPS 9999 OVC007 04/02 Q0988 NOSIG=
METAR UUDD 102030Z 19005MPS 9999 -RA BKN004 OVC016 03/03 Q0988
64290195 14290194 NOSIG=
METAR UUDL 102030Z NIL=
METAR UUEE 102030Z 20004MPS 8000 OVC007 04/03 Q0987 75290151 25290151
NOSIG=
METAR UUWW 102030Z 21005MPS 9999 BKN013 OVC023 03/03 Q0987 24290045
NOSIG=
METAR UUMO 102030Z NIL=

0000025100
684
SARS31 RUMS 102030
METAR ULWC 102030Z NIL=
METAR UUBP 102030Z NIL=
METAR UUOB 102030Z NIL=
METAR UUOK 102030Z NIL=
METAR UWGG 102030Z 16006MPS 3300 -SN OVC005 01/00 Q0994 TEMPO 1000
SHSNRA VV004 18690540 RMK QBB160 QFE739=

0000084100
685
SARS35 RUMS 102030
METAR USPP 102030Z 14002MPS 5000 IC FEW026 SCT086 M06/M07 Q1007
21290250 NOSIG RMK QFE745/0993=
METAR UWKD 102030Z 14004MPS 0800 R11/P1500 FZFG VV002 M00/M00 Q1004
R11/2/0050 TEMPO 0500 FZFG RMK QBB080 QFE743/0990=
METAR UWKE 102030Z 00000MPS 4500 BR OVC004 M04/M05 Q1005 TEMPO 0500
FZFG VV002 RMK  QBB120 QFE737/0983 21420542=
METAR UWKS 102030Z 17005MPS 1200 R24/P1500U BR OVC002 00/M00 Q1001
NOSIG RMK QBB070 QFE737 24290250=
METAR UWLW 102030Z NIL=
METAR UWOR 102030Z NIL=
METAR UWOO 102030Z 00000MPS 3200 BR OVC004 M02/M03 Q1008 08590332
TEMPO 1000 SN RMK QBB120 QFE746/0994=
METAR UWSS 102030Z 17004MPS 6000 OVC006 01/00 Q1008 1219//55 NOSIG
RMK   QFE744=
METAR UWWW 102030Z 20002MPS 4800 BR BKN011 OVC100 M00/M01 Q1007
23520540 33//99// NOSIG RMK QFE744/0992 650000=

0000013900
686
SARA35 RUMS 102030
METAR USCM 102030Z 14003MPS 4500 -SN VV006 M07/M08 Q1008 TEMPO 1000
SHSN VV003 19490532 RMK QFE719=

0000074600
687
SARS32 RUMS 102030
METAR URKA 102030Z NIL=
METAR URKK 102030Z 18002MPS CAVOK 02/01 Q1012 NOSIG RMK QFE756 SC065=
METAR URML 102030Z NIL=
METAR URMM 102030Z 00000MPS 9999 SKC M03/M03 Q1014 12CLRD70 NOSIG RMK
QFE732/0976=
METAR URMN 102030Z NIL=
METAR URMO 102030Z NIL=
METAR URMT 102030Z 18005MPS CAVOK 01/M01 Q1012 NOSIG RMK QFE721
SC0.60=
METAR URRR 102030Z 21006MPS 9999 FEW008 OVC016 07/05 Q1009 22290045
NOSIG=
METAR URSS 102030Z 05005MPS 9999 BKN230 04/M00 Q1017 NOSIG RMK
R06/08006MPS QFE761 02000070 06//////=
METAR URWA 102030Z 22003MPS 9999 OVC040 04/00 Q1016 NOSIG RMK
QFE764/1019 SC055=
METAR URWI 102030Z NIL=
METAR URWW 102030Z 20006MPS 9999 OVC031 02/00 Q1010 NOSIG RMK
29190060=

0000058900
688
SARS36 RUMS 102030
METAR ULAA 102030Z 08008G12MPS 9999 DRSN OVC025 M17/M20 Q1003 NOSIG
RMK QFE751/1002 SC050=
METAR ULMM 102030Z 00000MPS 9999 BKN003 M32/M36 Q1017 NOSIG RMK
QBB090 OBST OBSC QFE755 31450239=
METAR ULOO 102030Z NIL=
METAR ULPB 102030Z NIL=
METAR UMKK 102030Z 31006MPS 270V350 6000 -SHRA SCT010 OVC023CB 04/00
Q1003 R24/29//60 NOSIG RMK QFE751/1002=
METAR UUOO 102030Z 21006MPS 7000 -RA OVC004 02/01 Q0998 NOSIG RMK
12290250=
METAR UUYY 102030Z 03003MPS 4000 -SN BKN008 OVC066 M16/M18 Q1005
TEMPO 1000 SN BR 0145//33 RMK QFE745/0993=

0000189300
689
SPUS70 KWBC 102038
SPECI
KAKR 102034Z AUTO 16006KT 1 3/4SM BR OVC004 04/03 A3010 RMK AO2
     TSNO=
KDTW 102034Z 14007KT 1 1/2SM BR OVC006 02/01 A3001 RMK AO2 SFC VIS
     2 1/2=
KMAI 102034Z AUTO 05003KT 1 3/4SM BR OVC002 16/15 A3005 RMK
     AO2=
KMCW 102033Z AUTO 15006KT 1/4SM FZFG M01/M01 A2958 RMK AO2
     T10111011 TSNO $=
KMVY 102034Z 22008KT 9SM FEW009 OVC015 06/04 A3039 RMK AO2 RAE04
     P0000 $=
KSTJ 102034Z 22007KT 5SM BR OVC004 03/02 A2954 RMK AO2
     T00280022=
KY50 102034Z AUTO 11005KT 2SM BR OVC004 M01/ A2973 RMK AO2 TSNO
     $=
KRUE 102034Z AUTO 08004KT 1 1/4SM +RA BR FEW010 BKN017 OVC026
     09/09 A2975 RMK AO2 P0027=
KMFI 102034Z AUTO 14007KT 1 1/4SM BR OVC003 M02/M04 A2969 RMK AO2
     I1002 T10221039=
KCUB 102035Z AUTO VRB03KT 2 1/2SM RA BR OVC007 09/08 A3019 RMK AO2
     CIG 004V010 P0005 T00940083 TSNO=
KEYE 102035Z AUTO 15007KT 4SM BR BKN006 BKN037 04/03 A2990 RMK AO2
     T00440033=
KFCI 102036Z AUTO 00000KT 1 3/4SM OVC003 04/M01 A3031 RMK AO1
     P0002=
KFSM 102035Z AUTO 10007KT 3SM -RA BR OVC070 10/09 A2967 RMK AO2
     P0006 TSNO=
KPHF 102035Z AUTO 07005KT 3SM -RA SCT005 BKN080 OVC100 07/04 A3031
     RMK AO2 P0000 TSNO=
KPSX 102035Z AUTO 17011KT 9SM FEW016 SCT025 OVC060 19/18 A2983 RMK
     AO2 RAE20 P0000 T01940183=
KSRC 102035Z AUTO 18004KT 1SM RA BR FEW001 OVC011 08/08 A2982 RMK
     AO2 TSNO P0008=
KIOW 102035Z AUTO 13009KT 1SM BR OVC002 01/01 A2962 RMK AO2=
KMCI 102035Z 24008KT 10SM OVC004 05/M01 A2953 RMK AO2
     T00501006=
KMDW 102035Z 13008KT 1 1/4SM R31C/5500FT +TSRA BR OVC003CB 02/02
     A2978 RMK AO2 TSB34RAB03 OCNL LTGIC OHD TS OHD MOV NE P0012
     $=
KMGJ 102035Z AUTO 18003KT 10SM SCT010 OVC080 00/M03 A3033 RMK AO2
     T00001028 TSNO=
KNEW 102035Z 11007KT 2SM BR OVC004 15/14 A2996 RMK AO2 PRESFR
     T01500139=

0000009700
690
SPUS31 KWBC 102038
SPECI
KDTW 102034Z 14007KT 1 1/2SM BR OVC006 02/01 A3001=

0000010200
691
SPUS41 KWBC 102038
SPECI
KAKR 102034Z AUTO 16006KT 1 3/4SM BR OVC004 04/03 A3010=

0000035100
692
FTCN37 CWAO 102000
TAF CYHZ 102038Z 1021/1118 22012KT P6SM BKN030 OVC130 TEMPO 1021/1104
     P6SM -SHSN BKN020
    FM110400 22012KT 11/2SM -SN -FZDZ BR BKN004 OVC015
    FM110800 22010KT 1SM -SN -FZDZ BR OVC003
    FM111300 20012KT 3/4SM -DZ BR OVC002
    FM111700 20015KT 1SM -RA BR OVC003
    RMK NXT FCST BY 110000Z=

00000000