0000011800
066
SNVA25 LFPW 110700
BBXX
BATFR55 11074 99083 30424 46/// /3609 10280 20219 40147 50007
22262 04294=
0000172300
067
SNSQ51 LZIB 110700
AAXX 11071
11812 46/// /3003 10028 21009 39508 42807=
11813 46/// /9901 10031 21009 39859 40215=
11816 42682 79901 10012 20005 30050 40218 86501
  333 86641=
11819 46/// /3503 11012 21018 39995 40219=
11826 42665 30000 11030 21044 30014 40223 82541
  333 82640 83070=
11841 42780 72401 10009 21010 39831 40217 87500
  333 87650=
11855 41659 59901 11011 21016 30050 40222 71011 84501
  333 84643=
11856 46/// /1702 11011 21024 39895 40225=
11858 42675 71502 10024 20001 30067 40222 875//
  333 87640=
11867 42770 60000 11007 21014 39897 40225 86500
  333 81650 86656=
11880 42665 59901 11026 21026 30047 40226 82501
  333 82646 84070=
11900 46/// /0000 11021 21025 39880 40228=
11903 42770 49901 11019 21027 39832 40227 83531
  333 82650=
11916 41/02 93307 11092 21096 37945 48457 74944
  333 89/00 93540=
11918 42685 72503 10008 21035 39368 42796 875//
  333 87643=
11927 42770 59901 11016 21020 39951 40223 82531
  333 82650 84070=
11930 42589 63211 11073 21361 37308 47978 81041
  333 81330 86060 91019 91122
  444 36215=
11933 42589 79902 11052 21072 38651 48464 82542
  333 82626 87070=
11934 42684 79901 11041 21070 39367 42795 82544
  333 81640 87074=
11938 42682 30000 11041 21061 39120 42793 81502
  333 81636 83070 93501=
11952 46/// /1302 11028 21056 39356 42794=
11958 46/// /2105 11046 21048 3//// 4////=
11968 41180 52901 11027 21027 39929 40222 72844 82601
  333 82703 85070=
11976 41217 82002 10004 21003 39943 40215 71022 886//
  333 88706=
11978 41230 80902 10010 20007 30080 40214 71022 886//
  333 88705=
11993 41250 71002 10005 20002 39996 40219 71022 87600
  333 83706 87710=
0000011100
068
UANT99 KDDL 110700
ARP NWS3518 6014N04259W 0700 F360 MS57 246/29 KT
VPBJB QXS UAK 110700 F58A
0000011000
069
UANT99 KDDL 110700
ARP DLH415 5002N03950W 0700 F390 MS55 304/29 KT
DAIKE QXT AME 110700 J88A
0000011000
070
UANT99 KDDL 110700
ARP UAL90 4729N04306W 0700 F350 MS60 327/63 KT
N77012 DDL XXW 110700 F28A
0000011000
071
UANT99 KDDL 110700
ARP ACA848 5358N02020W 0700 F350 MS62 239/60 KT
CGFAH DDL XXW 110700 J45A
0000011000
072
UANT99 KDDL 110700
ARP QTR764 5745N02325W 0700 F330 MS58 236/72 KT
A7BAC QXT AOE 110700 F37A
0000011000
073
UANT99 KDDL 110700
ARP DLH455 5630N02357W 0700 F370 MS59 223/64 KT
DABVM QXT EUA 110700 F36A
0000010400
074
SPIN90 VERC 110700
SPECI VERC 110700Z 06007KT 1200 MIFG SCT015 OVC080 17/13 Q1018 NOSIG=
0000008900
075
SAIN90 VOMD 110700
METAR VOMD 110700Z 08007KT 5000 HZ FEW020 29/19 Q1014=
0000052800
076
SMIN52 VIDP 110600
AAXX 11063
42027 31595 83201 10016 21017 38494 48579 70522 8452/
  333 58016=
42044 32595 80000 10024 21023 38352 48595 8352/
  333 58064=
42045 32696 13603 10046 21069 38426 48558 81100
  333 58046=
42056 32996 01401 10160 20028 39750
  333 58018=
42071 31995 02905 10128 20093 40210 71000
  333 58015=
42081 32496 31802 10094 20028 38964 48535 83700
  333 56400 58002 83715=
42083 32697 30000 10050 20014 4//// 83500
  333 58010 83640=
42182 31993 02908 10138 20099 40198 71144
  333 58018=

0000009200
077
SAIN90 VOCI 110700
METAR VOCI 110700Z 00000KT 5000 HZ NSC 31/19 Q1012 NOSIG=
0000011200
078
SMCN38 CWAO 110600 RRC
AAXX 11064
71857 15/// ///// 11115 21123 60001
333 11059 21154 70000=
0000019100
079
SMCN33 CWAO 110600 RRG
AAXX 11064
71360 15/// ///// 11069 21095 60001
333 11047 21146 70000=
71380 15/// /1506 11063 21071 60001
333 10005 21150 70004 555 33020 40210=
0000017500
080
SMCN24 CWAO 110600 RRF
AAXX 11064
71413 15/// ///// 11097 21103 60001
333 11043 21153 70000=
71440 15/// ///// 11056 21077 60001
333 11014 21088 70000=
0000011200
081
SMCN30 CWAO 110600 RRG
AAXX 11064
71065 15/// ///// 11102 21114 60001
333 11030 21180 70000=
0000024400
082
SMCN25 CWAO 110600 RRG
AAXX 11064
71540 17/// /1105 11114 21122 69941 7//4/
333 11019 21166 70004=
71544 15/// ///// 11075 21111 60001
333 11004 21081 70000=
71548 15/// ///// 11068 21088 60001
333 11021 21078 70000=
0000011200
083
SMCN37 CWAO 110600 RRF
AAXX 11064
71791 45/// /2510 11088 21107 6///1
333 11043 21149 7////=
0000012800
084
SMCN34 CWAO 110600 RRF
AAXX 11064
71498 15/// /2009 11091 21097 60001
333 11030 21110 70000 555 32117 40090=
0000023100
085
SNVD20 KWNB 110700 RRD
BBXX
44022 11071 99409 70737 46/// /0504 10016 20011 90645 333 91205
555 11041 22041=
44040 11071 99410 70736 46/// /0703 10017 20017 90645 22200 1//00
70000 333 91204 555 11041 22046=
00000000