0000011800
233
SNVF25 LFPW 110100
BBXX
BATFR34 11014 99473 70061 46/// /2409 10132 20079 40160 51004
22231 04135=
0000011200
234
SNVF25 LFPW 110100
BBXX
BATFR20 11014 99400 10076 46/// /0904 10140 20109 40191 55///
22243=
0000011800
235
SNVF25 LFPW 110100
BBXX
BATFR22 11014 99422 10073 46/// /0908 10125 20074 40204 50///
22234 04142=
0000011800
236
SNVF25 LFPW 110100
BBXX
BATFR54 11014 99474 70037 46/// /3203 10097 20079 40173 50002
22232 04120=
0000011800
237
SNVF25 LFPW 110100
BBXX
BATFR52 11014 99495 70004 46/// /2011 10069 20052 40164 58001
22283 04099=
0000011800
238
SNVF25 LFPW 110100
BBXX
BATFR09 11014 99413 70101 46/// /0112 10114 20055 40176 53002
22242 04149=
0000010000
239
SNVD25 LFPW 110100
BBXX
BAREU12 11014 99405 70715 46/// ///// 40269 57020
22264=
0000011200
240
SNVE25 LFPW 110100
BBXX
BATFR36 11014 99174 51466 46/// /1017 10277 20229 40108 56013
22222=
0000011800
241
SNVA25 LFPW 110100
BBXX
BATFR55 11014 99087 30434 46/// /3610 10277 20222 40114 55008
22262 04295=
0000008600
242
SAMA20 FIMP 110100
METAR FIMP 110100Z 09003KT 9999 FEW017 26/23 Q1015=
0000010800
243
SACN49 CWAO 110100
METAR CYGW 110100Z 00000KT 5SM -SN OVC014 M12/M12 A2976 RMK SC8
SLP078=
0000008600
244
SAIN90 VAAU 110100
METAR VAAU 110100Z 00000KT 3000 BR NSC 12/09 Q1015=
0000008600
245
SAIN90 VAID 110100
METAR VAID 110100Z 00000KT 2000 BR NSC 08/05 Q1016=
0000008600
246
SAIN90 VABO 110100
METAR VABO 110100Z 05002KT 3500 HZ NSC 12/05 Q1015=
0000012000
247
SPIN90 VEGY 110100
SPECI VEGY 110100Z 29008KT 0300  TSRA FEW010 SCT017 FEW030CB  OVC080 15/15 Q1016 =

0000011500
248
SPIN90 VILK 110100
SPECI VILK 110100Z 00000KT 0800 R27/1500 MIFG SCT020 OVC090
13/13 Q1014 NOSIG=
0000035200
249
SAMC31 GMMC 110100
METAR GMFF 110100Z 000//KT 9999 FEW030 BKN100 10/04 Q1016 NOSIG=
METAR GMME 110100Z VRB02KT 5000 SCT020 BKN100 14/12 Q1014 NOSIG=
METAR GMMN 110100Z 22010KT 9999 SCT016 BKN100 14/12 Q1016 NOSIG=
METAR GMMX 110100Z 20008KT 8000 SCT023 SCT100 13/09 Q1016 NOSIG=
METAR GMAD 110100Z NIL=
METAR GMTT 110100Z NIL=
0000049800
250
SAMC32 GMMC 110100
METAR GMFF 110100Z 000//KT 9999 FEW030 BKN100 10/04 Q1016 NOSIG=
METAR GMMZ 110100Z 00000KT 9999 BKN030 07/04 Q1017=
METAR GMTN 110100Z AUTO VRB02KT 1600NDV /// 13/11 Q1015=
METAR GMAG 110100Z NIL=
METAR GMAT 110100Z NIL=
METAR GMFK 110100Z NIL=
METAR GMFM 110100Z NIL=
METAR GMFO 110100Z NIL=
METAR GMMC 110100Z NIL=
METAR GMMH 110100Z NIL=
METAR GMMI 110100Z NIL=
METAR GMML 110100Z NIL=
METAR GMMW 110100Z NIL=
METAR GMTA 110100Z NIL=
0000009800
251
SMKN01 HKNC 110000 RRB
AAXX 11003
63723 32980 00000 10248 20202 40111 333 58004=
0000011500
252
SMCN22 CWAO 110000 RRF
AAXX 11004
71249 15/// /2608 11057 21069 60001
333 11024 21162 70000=

00000000