0000050900
993
SASA85 EGRR 110500 RRD
METAR SABE 110500Z 20020G33KT CAVOK 22/13 Q1010=
METAR SACO 110500Z 16009KT 9999 SCT018 BKN100 23/17 Q1015=
METAR SARP 110500Z 09004KT CAVOK 26/21 Q1010=
METAR SASA 110500Z 36005KT 9999 SCT020 FEW045CB BKN100 22/16 Q1012=
METAR SAVC 110500Z 00000KT CAVOK 16/04 Q1015=
METAR SAWG 110500Z 29008KT CAVOK 08/06 Q1012=
METAR SBRP 110500Z 00000KT 9000 NSC 20/19 Q1015=
METAR SCSE 110500Z 26003KT CAVOK 15/14 Q1011=
METAR SULS 110500Z 00000KT CAVOK 21/20 Q1010=
0000012800
994
SNVF51 EGRR 110500
BBXX
62163 11054 99475 70084 46/// /0410 10103 20064 40177 51017 22200
00121 10805 70027=
0000036200
995
SXXX32 EUMS 110506
12FFB3C8
:PRS 1 /1 M 3203 3214 3210 3218 3224 3219 3218 3218 3206 3226 3207 3219 3215 3201 3208 3182 3190 3188 3166 3174 3162 3152 3140 3146 3135 3122 3124 3127 3121 :RAD 1 /3 6155 6157 6151 6144 6128 6110 6093 6076 6070 6075 :ENC 1 /5 -144 -144 -144 -144 -144 -144 :SW1 6 /60 0 :SW2 36 /60 55 :BAT 14 /15 12.7 :NAME 12FFB3C8
0000011000
996
UANT99 KDDL 110511
ARP ACA848 5025N04324W 0511 F350 MS61 326/52 KT
CGFAH DDL XXW 110511 J26A
0000070100
997
SXXX32 EUMS 110506 RRA
22E7E6D2
OT12 ID:ID-ROTE-11 DT:2014 01 11 05 05
:PRS /1 -10804 -10756 -10776 -10746 -10746 -10749 -10748 -10770 -10776 -10778 -10780 -10775 -10776 -10776 -10773 -10811 -10759 -10778 -10750 -10750 -10752 -10753 -10770 -10779 -145/)//10778 -10785 -10782 -10783 -10776
:PR2 /1 03753 03775 03746 03763 03779 03761 03765 03773 03766 03740 03793 03739 03765 03778 03785 03755 03762 03795 03769 03779 03797 03759 03770 03791 03747 03791 03803 03777 03765 03772
:RAD /1 05334 05315 05352 05316 05352 05348 05352 05368 05376 05324 05328 05344 05340 05344 05348 05347 05364 05336 05388 05371 05352 053/8 05364 05339 05384 05360 05343 05356 05396 05364
:BAT 12.6V
0000066700
998
SXXX32 EUMS 110507
32CC9580
OT12 ID:ID-ENGG-07 DT:2014 01 11 05 06
:PRS /1 01619 01641 01562 01617 01560 01585 01553 01605 01583 01590 01613 01615 01595 01596 01639 01622 01657 01571 01615 01617 01643 01633 01644 01638 01651 01635 01663 01604 01631 01639
:PR2 /1 05078 05041 05013 05060 05045 05048 04990 05047 05057 05054 05084 05051 05026 05052 05048 05054 05078 05038 05052 05052 05064 05079 05076 05068 05090 05067 05091 05032 05086 05076
:RAD /1 05899 05946 05917 05914 05915 05935 05892 05910 05927 05918 05946 05932 05921 05918 05954 05940 05957 05935 05939 05937 05937 05954 05960 05945 05962 05958 05962 05943 05935 05961
:BAT 13.5V
0000044600
999
SXXX32 EUMS 110509
224AD678
:PRS 2 /1 1853 1853 1854 1857 1861 1863 1862 1862 1862 1861 1862 1864 1864 1865 1865 1865 1866 1868 1870 1873 1876 1875 1874 1873 1873 1874 1878 1882 1883 1884 :RAD 4 /3 4676 4680 4680 4682 4683 4685 4690 4691 4695 4700 4702 4703 4705 4708 4711 4717 4720 4720 4721 4727 :ENC 4 /5 8206 8212 8216 8216 8222 8226 8232 8234 8233 8246 8252 8253 :SW1 9 /60 60 :SW2 39 /60 60 :BAT 14 /15 13.3 :NAME 224AD678
0000011000
000
UANT99 KDDL 110512
ARP MSR986 5000N01639W 0512 F330 MS60 255/54 KT
SUGDP QXT AOE 110512 F31A
0000020100
001
SNVD15 KWNB 110500 RRH
BBXX
41051 11051 99183 70650 46/// /0807 10249 90450 333 91208 555
11074 22080=
41051 11051 99183 70650 46/// /0808 10250 90440 333 91210 555
11084 22091=
0000009400
002
SNNO21 ENMI 110400 RRB
AAXX 11041
01300 46/// /0707 10027 21018 39873 49971=
0000009400
003
SNNO21 ENMI 110500 RRA
AAXX 11051
01300 46/// /0806 10027 21018 39874 49972=
0000009400
004
SNNO22 ENMI 110400 RRC
AAXX 11041
01400 46/// /3008 10070 20021 39983 40044=
0000014500
005
SNNO22 ENMI 110500 RRB
AAXX 11051
01400 46/// /3008 10069 20020 39984 40045=
01447 46/// /0000 11065 21071 39312 49998 55001=
0000415600
006
SNCZ64 OKPR 110500
AAXX 11051
11406 27/50 /9901 11011 21014 39597 40201 57007 71011
  333 60005
  555 398// 50024 60027 70032 80039 90051=
11414 21104 52702 11021 21028 39455 42782 56008 74642 85504
  333 60005 82703 84615
  555 395// 50023 60022 70028 80034=
11423 27/56 /2605 11009 21010 39295 42787 57010 71011
  333 60005
  555 300// 50019 60023 70028 80035=
11438 21970 09902 11004 21011 39784 40190 56009 702//
  333 60005
  555 395// 50028 60033 70037 80049 90055=
11450 27/50 /3401 11008 21014 39741 40203 56007 71010
  333 60005
  555 12502 396// 50024 60026 70033 80039=
11457 21980 12305 11030 21037 38876 48468 57009 702// 80001
  333 60005 81073 93703
  555 395// 50006 60013 70014 80025=
11464 42987 32606 11006 21017 39175 42777 57008 80004
  333 83069
  555 392//=
11487 25570 /2202 10014 21013 39565 40202 57006
  333 60005 81/28
  555 382// 50021 60022 70024 80032 90045=
11502 25965 /2402 10003 21012 39719 40187 57010
  333 60005 87/68
  555 390// 50021 60026 70032 80041 90054=
11509 27970 /1403 10007 21008 39987 40188 56005 70011
  333 60005 87/68
  555 390// 50027 60030 70035 80042 90055=
11518 22970 42205 10006 21007 39743 40194 57007 82042
  333 60005 82363 83076
  555 391//=
11519 25970 /1101 10021 20004 39880 40195 56007
  333 60005 87/69
  555 389//=
11520 25970 /9902 10021 20001 39820 40195 56007
  333 60005 85/69
  555 386// 50019 60029 70036 80044 90052=
11538 21980 11502 11003 21015 39585 40209 57006 701// 80001
  333 60005 81067
  555 392// 50004 60028 70034 80043=
11546 25/75 /1703 11012 21020 39711 40212 55003
  333 60005
  555 394// 50028 60035 70043 80056 90058=
11567 22962 42204 10018 20007 39838 40191 55006 80001
  333 60005 84074
  555 392// 50031=
11603 25970 /1302 10003 21011 39692 40187 55004
  333 60005
  555 390// 50034 60039 70043 80050 90058=
11624 22965 32202 10013 20000 39897 40195 57006 80004
  333 60005 83073
  555 391// 50032=
11628 21970 42303 10011 21011 39551 40201 57006 702// 80002
  333 60005 84069
  555 386// 50021 60027 70032 80041 90048=
11636 27970 /1601 11005 21016 39511 42797 56004 70011
  333 60005 87/71
  555 392// 50009 60024 70032 80043 90049=
11643 25470 /9901 11004 21020 39202 42779 55004
  333 60005 85/17
  555 13604 389// 50013 60015 70018=
11652 22970 30000 10021 21008 39909 40195 55006 80002
  333 60005 83074
  555 381// 50032=
11653 26/// ///// 11055 21058 3//// 4//// 5////
  333 6///5 91116
  555 398//=
11659 27970 /1201 10004 21009 39547 40203 55002 70011
  333 60005 87/71
  555 391// 50011 60028 70028 80036 90044=
11669 21/04 92404 11003 21004 39294 42782 57004 74774
  333 69905 89/02
  555 399// 50014 60030 70030 80038 90051=
11679 27470 /1602 10009 21009 39698 40197 56003 70011
  333 60005 83/19 87/69
  555 388// 50036 60040 70038 80048 90061=
11683 25/70 /2504 11013 21028 39307 42790 55003
  333 60005
  555 1//04 390// 50021 60020 70028 80038=
11692 22670 71902 11003 21012 39621 40211 55002 82504
  333 60005 82640 86073
  555 394// 50017=
11693 21970 72802 10002 21011 39715 40212 55002 703// 80002
  333 60005 87071
  555 12708 391// 50027 60035 70039 80055 90059=
11698 27970 /3402 10009 21011 39791 40211 56004 70011
  333 60005 85/71
  555 386// 50033 60038 70049 80058 90066=
11710 27970 /2404 10003 21022 39567 40198 57003 70011
  333 60005 87/67
  555 383// 50031 60036 70042 80052=
11723 22770 10501 11001 21018 39903 40211 55001 81500
  333 6///5 81650
  555 388// 50023 60028 70042 80053=
11730 27028 /2707 11044 21058 38631 48449 58004 77177
  333 69905 81/01 85/64 87/71 91111
  555 390//=
11766 27/70 /2503 11010 21021 39288 42786 58003 70011
  333 60005
  555 393// 50012 60017 70023 80038=
11774 25770 /1403 10005 21011 39928 40208 55000
  333 60005 81/50
  555 389//=
11782 22770 82303 10018 21004 39887 40200 57003 885//
  333 60005 88650
  555 386//=
11787 21183 73007 11042 21047 38645 48462 55000 701// 87800
  333 60005 81802 87618 91111 93520
  555 397// 50007 60013 70010 80021=
0000083700
007
SNEO41 EEMH 110500
AAXX 11051
26134 27363 83304 11009 21009 39917 49983 53019 72277 88///
 333  10015 21009 60007 88/09
 555  1/100 21009 3/000 50006 52101=
26144 27/80 /3204 11011 21021 39878 49965 52021 78588
 333  10014 21012 60007 91109
 555  21012 50011 52101=
26214 27369 73108 10018 20001 30000 40007 53009 78188 87///
 333  10037 20014 60007 87/09 91012 91112
 555  1/001 20014 3/001 50034=
26218 27467 72908 10017 21005 30009 40011 52011 78188 87///
 333  10035 20016 60007 87/17 91011 91113
 555  1/001 20016 3/000 50034=
26226 27484 73007 10019 20001 39989 49993 52017 78185 87///
 333  10032 20016 60007 87/15 91011 91114
 555  1/001 20016 3/001 50033=
26227 27484 72805 10017 21004 30000 40002 51015 70000 87///
 333  10034 20016 60007 87/12 91010 91112
 555  1/001 20016 3/000 50035=
0000013800
008
SNVF22 EIDB 110500
BBXX
62023 11053 99514 70079 46/97 /3113 10073 2//// 4//// 5////
22200 10705 70023 555 70041 81001=
0000011100
009
UANT01 CWAO 110512
ARP DAL615 5804N05833W 0512 F350 MS59 283/69 KT
N185DN QXS YHO 110512 F87A
0000011600
010
UACN10 CYKA 110513
VR
UA /OV CYKA /TM 0513 /FLDURD /TP DH8C /TB MDT 030 - 060 /RM
ON APCH RWY 08
0001044800
011
SNSW23 LSSW 110500
AAXX 11054
06686 23/// /1303 10045 20022 39598 40198 58013
  333 55300 20000 60005 91110 91205=
06623 23/// /3301 10022 20022 39332 48467 57011
  333 55300 20029 60005 91104 91202=
06624 23/// /0201 11005 21007 39686 40206 57011
  333 55300 20000 60005 91102 91201=
06602 23/// /1101 10003 20003 39655 40196 56009
  333 55300 20007 60005 91102 91201=
06693 23/// /0000 10001 20001 39444 48460 58015
  333 55300 20043 60005 91102 91201=
06682 23/// /1802 10031 20013 39072 48484 57009
  333 55300 20000 60005 91106 91204=
06675 23/// /0000 10016 20016 39119 48474 56013
  333 55300 20000 60005 91102 91201=
06637 23/// /3501 10002 21002 39487 40206 56010
  333 55300 20011 60005 91103 91202=
06627 23/// /0801 10032 21003 38994 48486 57006
  333 55300 20000 60005 91103 91201=
06625 23/// /2501 10004 20004 39416 48461 57006
  333 55300 20004 60005 91103 91202=
06608 23/// /2905 10039 20020 38869 48481 57006
  333 55300 20000 60005 91106 91205=
06638 23/// /0000 10010 20010 39306 48469 57010
  333 55300 20000 60005 91103 91202=
06635 23/// /2203 10005 21002 39609 40204 57009
  333 55300 20000 60005 91104 91203=
06728 23/// ///// 10046 21042 38388 48498 57005
  333 55300 20000 60005=
06725 23/// /0402 10020 21020 38458 48499 57006
  333 55300 20007 60005 91104 91203=
06758 23/// /3501 10047 20046 39829 40226 55005
  333 55300 20007 60005 91104 91202=
06796 23/// /2204 11003 21003 38632 48508 58003
  333 55300 20007 60005 91107 91204=
06784 23/// /0000 11006 21015 38398 48499 57003
  333 55300 20000 60005 91102 91201=
06786 23/// /1903 10038 20016 39539 40211 57009
  333 55300 20000 60005 91107 91204=
06794 23/// /0201 10018 21005 38966 48508 58004
  333 55300 20000 60005 91104 91203=
06792 23/// /1602 11052 21059 38290 48513 58002
  333 55300 20000 60005 91104 91202=
06798 23/// /2702 11006 21020 38714 48504 58001
  333 55300 20000 60005 91103 91202=
06702 23/// /2218 10051 21038 38310 48486 57006
  333 55300 20000 60005 91128 91222=
06610 23/// /1201 10004 20001 39602 40203 57008
  333 55300 20000 60005 91103 91202=
06730 43/// /3107 11080 21122 36558 47066 57003
  333 55300 20000 91119 91209=
06643 23/// /1902 10019 20018 39683 40202 58010
  333 55300 20000 60005 91103 91202=
06680 23/// /2523 11012 21054 37507 47049 50001
  333 55300 20000 60005 91131 91227=
06990 23/// /1205 10068 20024 39639 40189 57014
  333 55300 20000 60005 91111 91206=
06712 23/// /1101 10015 20012 39729 40199 57003
  333 55300 20011 60005 91103 91202=
06609 23/// /2611 10048 21047 38008 48486 57003
  333 55300 20000 60005 91127 91214=
06616 23/// /1701 10040 20026 39464 40180 57005
  333 55300 20004 60005 91102 91201=
06724 23/// /0505 10048 21029 38575 48496 57005
  333 55300 20007 60005 91107 91205=
06748 23/// /2202 10021 21039 38356 48501 57006
  333 55300 20011 60005 91103 91202=
06605 23/// /2224 10061 21033 38386 48485 57006
  333 55300 20000 60005 91127 91224=
06659 23/// /2010 10028 21048 37882 48488 56006
  333 55300 20000 60005 91129 91215=
06672 23/// /1102 10025 20023 39656 40192 56017
  333 55300 20000 60005 91104 91202=
06745 23/// /0000 11020 21025 38662 48497 57006
  333 55300 20007 60005 91103 91202=
06753 23/// /1101 10019 20006 39061 48504 57009
  333 55300 20000 60005 91104 91203=
06770 23/// /1601 10080 20061 39855 40220 57005
  333 55300 20000 60005 91104 91202=
06639 23/// /2606 10059 21021 38584 48486 57007
  333 55300 20000 60005 91110 91208=
06720 23/// /0903 10022 20016 39618 40207 57006
  333 55300 20000 60005 91104 91202=
06762 23/// /1201 10054 20044 39971 40223 57006
  333 55300 20000 60005 91103 91202=
06604 23/// /1201 10022 20022 39608 40199 57009
  333 55300 20000 60005 91102 91201=
06771 23/// /0000 10063 20056 39794 40223 57003
  333 55300 20000 60005 91103 91202=
06734 23/// /1201 10005 20005 39497 40201 57010
  333 55300 20014 60005 91103 91202=
06782 NIL=
06681 23/// /1901 10040 20023 39264 48472 57012
  333 55300 20000 60005 91104 91202=
06685 23/// /1201 10028 20018 39571 40199 58013
  333 55300 20000 60005 91105 91203=
06700 23/// /2801 10016 20005 39695 40201 57002
  333 55300 20000 60005 91103 91202=
06670 23/// /3604 10020 20018 39674 40197 56012
  333 55300 20000 60005 91105 91204=
06750 23/// /1610 10013 21070 37714 48500 57005
  333 55300 20000 60005 91113 91210=
06711 23/// /0702 10044 20030 39640 40193 57005
  333 55300 20014 60005 91103 91202=
06717 23/// /2903 11012 21075 37526 47062 58006
  333 55300 20000 60005 91105 91202=
06735 23/// /3401 10063 21023 38670 48489 57007
  333 55300 20014 60005 91103 91202=
06727 23/// /1202 10025 20012 39433 48475 57009
  333 55300 20000 60005 91106 91202=
06612 23/// /2402 10016 20008 38995 48472 57009
  333 55300 20000 60005 91104 91202=
06645 23/// /0704 10027 20020 39448 48460 57012
  333 55300 20004 60005 91106 91204=
06633 23/// /1902 10024 20021 39722 40198 57012
  333 55300 20000 60005 91104 91203=
06650 23/// /3302 10033 20030 39641 40195 57012
  333 55300 20004 60005 91103 91202=
06655 23/// /0503 10039 20002 38980 48481 58011
  333 55300 20000 60005 91107 91203=
06620 23/// /2904 10002 20000 39663 40205 57010
  333 55300 20000 60005 91105 91204=
06660 23/// /0501 10022 20022 39519 40194 57013
  333 55300 20000 60005 91103 91201=
06783 23/// /1402 11027 21037 38362 48510 57007
  333 55300 20000 60005 91106 91202=
06780 23/// /2007 11016 21083 37350 47061 58002
  333 55300 20000 60005 91112 91208=
06791 23/// /2306 11063 21100 36791 47064 58002
  333 55300 20000 60005 91115 91211=
06601 23/// /1006 10037 20023 39793 40182 57010
  333 55300 20000 60005 91113 91207=
06705 23/// /2901 10025 20015 39637 40197 57004
  333 55300 20000 60005 91103 91201=
06619 23/// /3001 10063 21011 38794 48485 57006
  333 55300 20011 60005 91102 91201=
06631 23/// /1701 11003 21007 39527 40205 57009
  333 55300 20000 60005 91102 91201=
06621 23/// /2601 10018 20018 39660 40200 57011
  333 55300 20007 60005 91103 91203=
06626 23/// /2402 10026 20024 39730 40198 56011
  333 55300 20011 60005 91103 91202=
06673 23/// /2804 10019 20019 39601 40194 57014
  333 55300 20000 60005 91106 91204=
06679 23/// /0000 10000 21001 39542 40202 57011
  333 55300 20007 60005 91102 91200=
06664 23/// /3601 10024 20024 39653 40196 57012
  333 55300 20000 60005 91103 91202=
06760 23/// /0301 10081 20039 39769 40220 57006
  333 55300 20000 60005 91102 91201=
06646 23/// /0401 10019 20019 39796 40199 57011
  333 55300 20000 60005 91102 91201=
06636 23/// /0000 10009 20007 39612 40201 57009
  333 55300 20004 60005 91102 91200=
06759 23/// /2503 11001 21007 38339 48509 57006
  333 55300 20000 60005 91106 91204=
06722 23/// /0102 10037 21067 38162 48498 57006
  333 55300 20000 60005 91105 91203=
06666 23/// /1003 10015 20015 39776 40199 56013
  333 55300 20000 60005 91106 91204=
06744 23/// /1911 10020 21060 38032 48502 57003
  333 55300 20000 60005 91119 91212=
06756 23/// /0201 10039 20015 39532 40227 57007
  333 55300 20011 60005 91105 91204=
06669 43/// /20// 10051 20026 39188 48477 56010
  333 55300 20007 91110 91209=
06689 23/// /2109 10073 21007 38871 48485 58009
  333 55300 20000 60005 91111 91210=
06628 23/// /0000 10068 21001 38970 48484 57007
  333 55300 20004 60005 91103 91202=
06751 23/// /1601 11023 21032 38099 48510 57005
  333 55300 20000 60005 91105 91202=
06747 43/// /0804 11030 21126 37158 47064 57005
  333 55300 20014 91108 91204=
06709 43/// /1301 10043 20037 39739 40196 57005
  333 91103 91201=
06740 43/// /2615 11047 21091 36968 47058 58005
  333 55300 20000 91127 91218=
06641 23/// /1112 10026 20024 39768 40192 57011
  333 55300 20000 60005 91118 91212=
06618 23/// /1401 10007 20007 39669 40208 57006
  333 55300 20007 60005 91102 91201=
06706 43/// /3002 1//// 2//// 3//// 5////
  333 91104 91203=
06787 23/// /0701 10010 21002 39051 48491 57004
  333 55300 20000 60005 91106 91202=
06754 43/// /0703 10019 21063 37809 48500 57004
  333 553// 20000 91108 91206=
06683 43/// /2705 1//// 2//// 39694 57///
  333 91106 91205=
06778 23/// /1102 11074 21084 38022 48516 50000
  333 55300 20007 60005 91106 91202=
06733 23/// /2301 10002 20002 39223 48470 57008
  333 55300 20000 60005 91102 91201=
06731 23/// /0000 11008 21008 39507 40206 57009
  333 55300 20000 60005 91103 91201=
06632 23/// /2202 10015 20015 39676 40205 57///
  333 55300 20025 60005 91103 91202=
06644 23/// /0403 10020 20020 39644 40198 57012
  333 55300 20000 60005 91104 91203=
06752 23/// /0203 10049 20025 39715 40228 57005
  333 55300 20004 60005 91106 91203=
06606 23/// /1901 10018 20018 39675 40205 57008
  333 55300 20000 60005 91103 91202=
06688 43/// /2304 11003 21074 37523 47055 58003
  333 55300 20007 91108 91205=
06777 23/// /1603 10004 20004 38403 48509 57005
  333 55300 20000 60005 91107 91203=
06704 23/// /3601 10013 20012 39376 48467 57005
  333 55300 20004 60005 91103 91202=
06708 23/// /1404 10029 20029 39210 48473 57007
  333 55300 20000 60005 91106 91204=
06617 23/// /0801 11019 21027 38961 48469 57009
  333 553// 20050 60005 91102 91201=
06648 23/// /0000 10001 21001 39563 40203 57011
  333 55300 20011 60005 91101 91201=
06671 43/// /2602 1//// 2//// 39713 5////
  333 91104 91202=
06656 23/// /1002 1//// 2//// 39511 57010
  333 60005 91103 91202=
06651 23/// /2202 10011 20007 39304 48464 58013
  333 55300 20000 60005 91106 91204=
06687 43/// /0101 1//// 2//// 39686 57///
  333 91105 91203=
06793 23/// /1606 10004 20004 38423 48497 58005
  333 55300 20000 60005 91109 91206=
06795 23/// /2206 11006 21095 37354 47064 57003
  333 55300 20000 60005 91113 91209=
06799 43/// /2611 10004 21077 37621 47079 58001
  333 55300 20000 91116 91212=
06723 43/// /1807 11021 21092 37292 47058 57005
  333 55300 20000 91110 91209=
06749 43/// /2005 11038 21121 36943 47065 57005
  333 55300 20000 91110 91206=
06739 43/// /2610 11031 21085 37152 47065 57004
  333 55300 20000 91116 91211=
06657 23/// /2601 11003 2//// 39621 40201 58///
  333 553// 20000 60005 91102 91201=
06788 23/// /2301 10002 21005 38952 48503 57006
  333 55300 20029 60005 91106 91204=

0000073300
012
SNBX40 EBBR 110500
AAXX 11051
06407 42256 72006 10038 20019 30148 40154 57006 876//
333 83704 86706 91108 91206=
06428 45257 /2104 10034 20028 30114 40157 57005
 333 85/05 87/07 91107 91205=
06447 NIL=
06451 42462 82103 10036 20021 30088 40157 58010 8363/
333 83711 87359 91104 91203=
06456 42270 59901 10035 20030 39816 40165 56008 83631
 333 81705 83708 91101 91201=
06476 47762 81802 10029 20021 39497 40169 57010 70051
333 88/50 91105 91202=
06479 45356 /2303 10022 20019 30082 40159 57010
 333 88/06 91105 91203=
06490 45862 81705 10029 2//// 39590 4//// 57009
333 88/58 91107 91205=
06590 41235 70000 10018 20017 39716 40178 57012 71022 84631
333 81705 84656 85070 91101 91200=
00000000