0000005200
813
RRIN23 VECC 110510
RQRPT 140-161=

0000018300
814
FTUS53 KWBC 102121 AAA
TAF AMD
KBFF 102119Z 1021/1118 30012KT P6SM SCT250=
KLAR 102118Z 1021/1118 28025G32KT P6SM BKN080
     FM110200 28021G30KT P6SM SCT250=

0000026800
815
FTUS80 KWBC 102121 AAA
TAF AMD
KBFF 102119Z 1021/1118 30012KT P6SM SCT250=
KLAR 102118Z 1021/1118 28025G32KT P6SM BKN080
     FM110200 28021G30KT P6SM SCT250=
KSNY 102119Z 1021/1118 32022G30KT P6SM FEW200
     FM110200 29015KT P6SM BKN250=

0000009700
816
SPUS41 KWBC 102121
SPECI
KINT 102117Z 02004KT 2SM -RA BR OVC003 04/03 A3023=

0000016500
817
SAAK31 KWBC 102100 RRA
METAR
PAVD 102116Z 10SM FEW020 SCT040 BKN100 M02/M04 A2939=
PAWG 102116Z 09010KT 10SM FEW012 BKN030 OVC080 04/00 A2963=

0000012500
818
SAAK32 KWBC 102100 RRA
METAR
PADK 102116Z AUTO 23020G24KT 10SM FEW037 BKN060 OVC075 03/M01
     A2895=

0000012200
819
SALT31 EYVI 102120
METAR EYVI 102120Z 28014KT 7000 BKN011CB OVC018 02/01 Q0996
     R20/2/0295 NOSIG=

0000009700
820
SPCN44 CWAO 102124
SPECI CYMJ 102124Z 00000KT 3SM BR FEW006 BKN100 RMK SC2AC6=

0000074000
821
SANO39 ENMI 102120
METAR ENNE 102120Z NIL=
METAR ENQR 102120Z AUTO 08009KT 040V130 9999NDV OVC044/// 05/M04
           Q0998 W///S/=
METAR ENSE 102120Z AUTO 07019KT 9999NDV FEW031/// BKN043/// 04/M03
           Q0998 W///S5=
METAR ENQC 102120Z AUTO 05012KT 010V070 9999NDV FEW023/// 05/00 Q0998
           W///S5=
METAR ENQA 102120Z AUTO 06015KT 9999NDV FEW018/// BKN032/// OVC049///
           04/01 Q0999 W05/S5=
METAR ENHM 102120Z AUTO 25020KT 9999NDV FEW044/// SCT072/// 07/05
           Q0999 W08/S4=
METAR ENVH 102120Z AUTO 24024KT 9999NDV FEW013/// BKN034/// BKN110///
           07/06 Q1005 W///S4=
METAR ENLA 102120Z AUTO 26024KT 9999NDV -SHRA BKN012/// 08/07 Q1003
           W///S4=

0000054500
822
SANO32 ENMI 102120
METAR ENAL 102120Z 05011KT 9999 VCSH BKN032 M01/M05 Q1000=
METAR ENCN 102120Z VRB01KT 9999 FEW018 BKN025 00/00 Q1001=
METAR ENHD 102120Z 26008KT 9999 FEW010 BKN029 06/05 Q0999=
METAR ENRO 102120Z AUTO 07006KT 340V090 9999NDV -SN BKN008///
           OVC011/// M14/M17 Q0997=
METAR ENRY 102120Z 20007KT CAVOK 02/M00 Q0998=
METAR ENSB 102120Z NIL=
METAR ENTC 102120Z 15003KT 110V180 CAVOK M11/M13 Q1017 NOSIG RMK WIND
           2600FT 11011KT=
METAR ENTO 102120Z 23006KT CAVOK 00/M01 Q0997=

0000087200
823
SAIY31 LIIB 102120
METAR LIEA 102120Z 01002KT 4000 0150NW R20/0550V0750/ BCFG NSC
07/07 Q1020=
METAR LIEE 102120Z 16005KT 9999 MIFG NSC 11/11 Q1019=
METAR LIEO 102120Z 22003KT 7000 R05/0700VP1500N NSC 06/06 Q1021=
METAR LIMC 102120Z 07004KT 030V180 9999 BKN040 09/06 Q1022 NOSIG=
METAR LIME 102120Z 15003KT 120V200 2500 BR BKN010 08/07 Q1022=
METAR LIMF 102120Z 00000KT 9999 BKN030 08/05 Q1021=
METAR LIMJ 102120Z VRB02KT 9999 SCT018 BKN040 13/11 Q1021=
METAR LIML 102120Z 10005KT 070V130 5000 BR SCT004 BKN035 08/08
Q1022 NOSIG=
METAR LIRA 102115Z 00000KT 8000 SCT030 BKN070 11/09 Q1022=
METAR LIRF 102120Z 07005KT 9999 BKN030 11/09 Q1022 NOSIG=
METAR LIRN 102120Z 33004KT 5000 BR BKN030 11/07 Q1022=
METAR LIRP 102115Z 07003KT 9999 FEW030 BKN050 10/08 Q1021 NOSIG=
METAR LIRQ 102120Z 08002KT 9999 FEW020 BKN035 12/11 Q1022=

0000063400
824
SAIY32 LIIB 102120
METAR LIBD 102120Z 23005KT 8000 NSC 07/07 Q1022=
METAR LIBR 102115Z 24005KT 8000 FEW020 08/07 Q1021 NOSIG=
METAR LICC 102120Z NIL=
METAR LICJ 102120Z 22009KT CAVOK 13/10 Q1021=
METAR LIPE 102120Z VRB02KT 0200 R12/0900V1400D FG VV/// 07/07
Q1022=
METAR LIPH 102115Z /////KT 1300 R07/1600 BR SCT020 SCT035 06/05 Q1021
=
METAR LIPQ 102120Z VRB02KT 2000 BR SCT009 BKN015 08/06 Q1021=
METAR LIPR 102115Z /////KT 8000 BKN040 09/09 Q1020=
METAR LIPX 102115Z 00000KT 1000 R04/P1500D BR SCT010 BKN045 08/06
      Q1022=
METAR LIPZ 102120Z VRB01KT 2500 BR SCT020 BKN050 08/07 Q1022=

0000004200
825
SAIY33 LIIB 102120
NIL=

0000052000
826
SANO38 ENMI 102120
METAR ENDR 102120Z AUTO 06027KT M04/M08 Q1001=
METAR ENEK 102120Z NIL=
METAR ENGC 102120Z NIL=
METAR ENHE 102120Z 09022KT 9000 BKN013 M03/M04 Q1003 W///S5=
METAR ENOA 102120Z NIL=
METAR ENSL 102120Z AUTO 27023KT 9999NDV FEW014/// BKN043/// BKN093///
           08/06 Q1001 W06/S4=
METAR ENFB 102120Z AUTO 08021KT 9999NDV FEW023/// BKN033/// 04/00
           Q0998 W///S5=
METAR ENSF 102120Z AUTO 08020KT 9999NDV BKN024/// OVC042/// 05/00
           Q0998 W///S5=

0000019900
827
SADL34 EDZO 102120
METAR EDLP 102120Z 22006KT CAVOK 02/M00 Q1016=
METAR EDQM 102120Z AUTO 23010KT 9999NDV FEW031/// 02/M00 Q1017=
METAR EDSB 102120Z VRB01KT CAVOK 01/M00 Q1019=

0000021800
828
SANO34 ENMI 102120
METAR ENBN 102120Z NIL=
METAR ENBV 102120Z NIL=
METAR ENFG 102120Z NIL=
METAR ENHF 102120Z NIL=
METAR ENRA 102120Z 13009G19KT CAVOK M10/M19 Q1010=
METAR ENSH 102120Z NIL=

0000021700
829
SANO37 ENMI 102120
METAR ENNO 102120Z NIL=
METAR ENOV 102120Z NIL=
METAR ENSD 102120Z NIL=
METAR ENSG 102120Z NIL=
METAR ENSN 102120Z NIL=
METAR ENSR 102120Z NIL=
METAR ENSS 102120Z NIL=

0000008700
830
SAIY32 LIIB 102120 RRA
METAR LICC 102120Z 28006KT CAVOK 10/07 Q1021=

0000058100
831
SANO33 ENMI 102120
METAR ENAT 102120Z NIL=
METAR ENBL 102120Z NIL=
METAR ENEV 102120Z 07014KT CAVOK M08/M16 Q1015 RMK WIND 1400FT
           07019KT=
METAR ENFL 102120Z 02006KT 9999 FEW050 01/M02 Q0999 =
METAR ENKB 102120Z VRB02KT 9999 FEW019 SCT024 BKN030 M04/M07 Q1000=
METAR ENKR 102120Z 16008KT 3000 IC BR SCT030 BKN080 M21/M23 Q1016
           SEASMOKE NORTH OF THE FIELD RMK WIND 775FT 28008KT=
METAR ENML 102120Z 35005KT CAVOK M04/M08 Q1000=
METAR ENNA 102120Z 19003KT 9999 VCFG BKN007 M14/M15 Q1018 RMK WIND
           1800FT 34004KT=

0000051700
832
SANO31 ENMI 102120
METAR ENAN 102120Z NIL=
METAR ENBR 102120Z VRB02KT 9999 -RADZ FEW005 SCT018 BKN045 03/02
           Q0998 RMK WIND 1200FT 05003KT=
METAR ENBO 102120Z 10022KT CAVOK M07/M18 Q1011 NOSIG=
METAR ENDU 102120Z NIL=
METAR ENGM 102120Z 18002KT 9999 BKN005 M01/M01 Q0996 TEMPO BKN012=
METAR ENOL 102120Z NIL=
METAR ENVA 102120Z 06008KT 010V090 9999 BKN027 M08/M14 Q1002 RMK WIND
           670FT 10012KT=
METAR ENZV 102120Z 25010KT 9999 FEW010 SCT014 BKN026 07/05 Q1001=

00000000