0000015700
466
SSVX13 LFPW 110700
ZZYY 15548 11014 0700/ 522344 011298 6113/ 11119 40199 52017 22219
 00236 444 20130 11014 0600/ 50101 80144 80016 9/015=
0000015700
467
SSVX13 LFPW 110700
ZZYY 16619 11014 0700/ 334342 073574 6113/ 11119 40265 57001 22219
 00199 444 20130 11014 0600/ 50101 80150 80010 9/015=
0000015700
468
SSVX13 LFPW 110700
ZZYY 31734 11014 0700/ 525077 030156 6113/ 11119 40204 52001 22219
 00264 444 20130 11014 0600/ 50101 80142 80019 9/015=
0000015700
469
SSVX13 LFPW 110700
ZZYY 15547 11014 0700/ 527072 014534 6113/ 11119 40230 52014 22219
 00247 444 20130 11014 0600/ 50101 80142 80008 9/015=
0000015700
470
SSVX13 LFPW 110700
ZZYY 64520 11014 0700/ 766796 002778 6113/ 11119 40065 57001 22219
 00041 444 20130 11014 0600/ 50101 80140 80023 9/015=
0000015700
471
SSVX13 LFPW 110700
ZZYY 44726 11014 0700/ 750064 002970 6113/ 11119 40170 52029 22219
 00115 444 20130 11014 0600/ 50101 80102 80006 9/015=
0000014500
472
SSVX13 LFPW 110700
ZZYY 62686 11014 0700/ 165733 004454 6113/ 11119 40045 52001 444
 20130 11014 0600/ 50101 80094 80005 9/015=
0000015700
473
SSVX13 LFPW 110700
ZZYY 16613 11014 0700/ 342436 080194 6113/ 11119 40132 57003 22219
 00125 444 20130 11014 0600/ 50101 80148 80018 9/015=
0000015700
474
SSVX13 LFPW 110700
ZZYY 14511 11014 0700/ 331665 088970 6113/ 11119 40222 57002 22219
 00215 444 20130 11014 0600/ 50101 80080 80003 9/015=
0000015700
475
SSVX13 LFPW 110700
ZZYY 14526 11014 0700/ 329146 067487 6113/ 11119 40250 57009 22219
 00229 444 20130 11014 0600/ 50101 80148 80026 9/015=
0000015700
476
SSVX13 LFPW 110700
ZZYY 62553 11014 0700/ 761179 021366 6113/ 11119 40007 52014 22219
 00089 444 20130 11014 0600/ 50101 80140 80003 9/015=
0000015700
477
SSVX13 LFPW 110700
ZZYY 14530 11014 0700/ 330403 053532 6113/ 11119 40172 52004 22219
 00234 444 20130 11014 0600/ 50101 80150 80018 9/015=
0000015700
478
SSVX13 LFPW 110700
ZZYY 64665 11014 0700/ 765533 008558 6113/ 11119 40022 52002 22219
 00024 444 20130 11014 0600/ 50101 80148 80035 9/015=
0000015700
479
SSVX13 LFPW 110700
ZZYY 64623 11014 0700/ 170161 010572 6113/ 11119 40160 52006 22219
 00059 444 20130 11014 0600/ 50101 80140 80015 9/015=
0000015700
480
SSVX13 LFPW 110700
ZZYY 25619 11014 0700/ 185759 091434 6113/ 11119 40059 52003 22219
 01091 444 20130 11014 0600/ 50101 80138 8//// 9/015=
0000015700
481
SSVX13 LFPW 110700
ZZYY 64663 11014 0700/ 767255 015283 6113/ 11119 40039 52003 22219
 00030 444 20130 11014 0600/ 50101 80148 80013 9/015=
0000143000
482
SNIY20 LIIB 110700
AAXX 11074
16008 42560 80000 10010 21012 38549 48507 55001 887// 333 88722
      92865=
16088 41420 83102 10069 20066 30104 40224 5//// 71022 882// 333 83710
      86645=
16110 41596 80000 10086 20074 30215 40220 51003 71022 886// 333 88720
      555 0000/=
16134 42984 32914 10040 21033 37849 48522 53005 80009 333 55300 92845
      95187 444 66164=
16153 42598 60107 10110 20055 39947 40214 53002 83530 333 83623 84357
      555 0213/=
16206 42575 40505 10042 20024 30216 40225 53004 81131 333 81820=
16219 NIL=
16280 42597 70202 10114 20098 39990 40213 54000 87500 333 55300 87630
      555 0100/=
16310 42998 03503 10100 20081 39991 40216 53001 555 0100/=
16360 42597 20406 10104 20093 30086 40223 50006 82100 333 55300 82820
      555 0000/=
16400 42498 71207 10128 20093 39929 40219 54003 86270 333 55300 86819
      83358 555 0213/=
16420 42498 62604 10108 20078 30152 40218 53010 81536 333 55300 81618
      83359 555 0100/=
16429 42968 71311 10132 20116 30193 40204 52009 85034 333 55300
      85360=
16470 42968 22117 10146 20128 39963 40198 52002 80001 333 55300 22///
      95000=
16480 42897 60202 10138 20130 30159 40220 53010 83031 333 55300 83358
      555 0100/=
16522 42997 50000 10120 20077 39952 40197 53001 80002 333 55300 555
      0100/=
16550 42598 81204 10130 20093 30037 40218 52003 885// 333 55300 88630
      555 0200/=
0000011000
483
UANT01 CWAO 110705
ARP TAY010 5502N01620W 0705 F340 MS60 262/60 KT
OOTSC QXT EUA 110705 F06A
0000011100
484
UANT01 CWAO 110705
ARP UAL924 4714N04422W 0705 F370 MS62 316/64 KT
N778UA DDL XXW 110705 F22A
0000085400
485
UKAK40 KBWL 110600
TTBB 61068 70027
00008 23325 11985 24508 22961 20305 33927 18917 44925
18918 55915 18928 66909 18761 77906 18761 88905 18963
99892 18371 11876 18161 22857 17563 33836 17769 44821
18169 55815 18558 66796 19367 77769 20965 88741 22720
99734 23140 11693 26706 22668 27523 33588 33356 44573
34326 55564 34956 66560 35169 77530 37968 88521 38570
99502 40164 11491 41131 22462 43369 33448 44758 44439
45766 55429 46763 66424 46931 77413 48140 88408 48559
99393 50331 11378 51366 22322 56963 33272 59766 44210
59372 55100 58579
31313 48108 80530=
PPBB 61068 70027
90012 32013 33020 33522 90346 34022 35525 35524 90789
35524 35025 35025 91234 01024 01525 00527 9169/ 00531
36028 92056 00527 36039 36042 93056 35538 35037 35036
937// 32533 94158 33539 31041 33042 949// 31044 9501/
31551 31054=
00000000