0000011100
953
UANT99 KDDL 110510
ARP DAL270 5036N02507W 0510 F360 MS62 205/60 KT
N183DN QXT AOE 110510 F05A
0000011000
954
UANT99 KDDL 110510
ARP AFR347 5158N02020W 0510 F380 MS56 243/75 KT
FGLZS QXT AOE 110510 J52A
0000011100
955
UANT99 KDDL 110510
ARP UAL903 5803N03805W 0510 F350 MS58 219/35 KT
N116UA DDL XXW 110510 F34A
0000011100
956
UANT99 KDDL 110510
ARP AAL106 5139N02440W 0511 F350 MS63 215/76 KT
N717AN DDL XXN 110511 F46A
0000005200
957
RRIN23 VIDP 110510
RQRPT 060-081=

0000005200
958
RRIN23 VIDP 110511
RQRPT 280-341=

0000009600
959
SAIN90 VAAH 110510
METAR VAAH 110510Z 04008KT 2500 FU NSC 17/07 Q1019 BECM 3000=
0000011100
960
UANT99 KDDL 110511
ARP AWE797 6004N03140W 0510 F340 MS56 203/32 KT
N282AY DDL XXW 110511 J40A
0000011100
961
UANT99 KDDL 110511
ARP DAL410 5009N02850W 0510 F350 MS58 179/62 KT
N195DN QXT AOW 110511 F56A
0000011100
962
UANT99 KDDL 110511
ARP UAL161 5232N03238W 0511 F370 MS57 214/47 KT
N34137 DDL IG1 110511 F57A
0000011100
963
UANT99 KDDL 110511
ARP UAL907 5145N03643W 0511 F360 MS56 224/23 KT
N776UA DDL XXW 110511 F18A
0000011000
964
UANT99 KDDL 110511
ARP SWR23C 4809N02846W 0511 F390 MS54 204/65 KT
HBJHD QXT AOE 110511 J73A
0000371500
965
SNPL40 SOWR 110500
AAXX 11051
12100 41/// /2504 10053 20029 30104 40106 54000 7////
  =
12105 42470 82505 10052 20035 30066 40108 54000 885//
  333 88613=
12115 42475 72609 10057 20043 30079 40093 52003 875//
  333 91112=
12120 42570 72711 10054 20040 30084 40088 52005 875//
  333 91116=
12125 46/// /2506 10053 20035 30042 40093 52004 =
12135 41470 72806 10054 20045 30080 40083 52005 72522 878//
  333 83816 87636 91011 91111=
12160 41460 72507 10035 20035 39862 40090 51007 72522 873//=
12185 41484 82905 10039 20030 39944 40080 52009 78022 889//=
12195 42462 72806 10031 20022 39839 40068 52010 875//=
12200 42465 42103 10043 20030 30110 40117 57004 84500=
12205 42563 72305 10042 20025 30121 40129 58001 875//=
12210 46/// /2403 10047 20024 30049 40113 57002=
12215 41/// /2504 10040 20028 39943 40115 57002 7////
  =
12230 42462 82402 10043 20025 30037 40128 58002 875//=
12235 41460 82405 10039 20029 39901 40113 52003 72522 889//
  333 88913=
12250 42680 72403 10048 20022 30036 40125 53003 875//
  333 91107=
12270 42574 72607 10043 20025 39930 40113 52008 873//=
12272 42482 82505 10042 20036 39925 40093 52007 885//
  333 88610 91110=
12280 41356 82903 10039 20036 39926 40084 52008 78188 889//=
12285 41/// /2606 10048 20024 39986 40102 52009 700//=
12295 41484 72703 10036 20030 39901 40086 53009 72522 875//
  333 87611=
12300 42565 32603 10031 20013 30051 40142 57004 83500=
12310 42980 82304 10036 20016 30081 40148 58006 80007=
12330 42570 72504 10044 20012 30039 40148 51001 875//=
12345 42675 72306 10046 20014 30000 40145 53004 875//=
12360 42680 72506 10051 20014 39993 40127 52007 875//
  333 91011 91113=
12375 42580 72605 10049 20010 30000 40132 53007 878//=
12385 41672 72506 10045 20015 39928 40119 51010 72522 879//
  333 91111=
12399 41580 72706 10049 20014 39939 40108 52011 72522 879//
  333 91112=
12400 42584 72303 10027 20011 39920 40159 58003 82508
  333 91110=
12415 42984 72603 10024 21004 30015 40171 57002 80008
  333 91111=
12418 42580 72304 10030 20012 30045 40161 57002 84506=
12424 42699 22203 10034 20008 30017 40172 57004 82500=
12435 42783 72406 10038 20012 39983 40157 51003 875//=
12455 42778 72504 10029 21002 39918 40168 50000 875//=
12465 42770 72605 10040 20003 39927 40151 50003 875//=
12469 42682 72506 10035 20000 39921 40155 52006 875//=
12488 42583 72505 10051 20001 39986 40142 53008 875//=
12495 42784 82606 10042 20000 39849 40144 52006 885//=
12497 42570 82608 10047 20006 39902 40123 53009 885//
  333 91114=
12500 42684 22202 10009 21022 39757 40184 58003 82500=
12510 41/90 93013 11060 21064 38317 48443 57003 77043 =
12520 42575 82403 10022 21004 39746 40188 57005 81507=
12530 42770 72502 10043 20006 39975 40178 58005 875//=
12540 42680 72305 10030 20002 39933 40190 58002 8653/=
12550 46/98 /2303 10018 21015 39812 40178 54000=
12560 42698 72203 10027 21008 39841 40188 55000 875//=
12566 42782 72505 10034 21006 39887 40186 52003 875//=
12570 42784 72405 10029 21006 39846 40169 52007 875//=
12575 42780 52801 10046 21023 39924 40182 52003 85500=
12580 42780 72607 10048 21017 39912 40174 52006 875//=
12585 42683 82406 10040 21006 39891 40161 52005 885//=
12595 NIL=
12600 42582 72406 10036 21008 39701 40190 55001 875//=
12625 42682 82702 10006 21056 39178 42795 55000 885//=
12650 41/08 83007 11093 21101 37949 48469 52001 74143 885//
  333 91012 91112=
12660 42598 72102 10037 21038 39826 40191 50002 875//=
12670 42784 72404 10043 21035 39778 40185 51003 875//=
12690 42583 32404 10023 21034 39673 40193 53005 83500=
12695 41/// /2605 10050 21034 39832 40174 52005 700//=
0000094400
966
SNEO40 EEMH 110500
AAXX 11051
26029 27/57 /0003 11008 21015 39957 49986 52018 75185
 333  10027 21008 60007 91111
 555  21008 50014=
26046 27341 83405 11029 21037 39865 49957 53024 77177 88///
 333  10010 21030 60017 88/07 91110
 555  21030 51000=
26124 27221 82903 11002 21002 39958 49989 53016 77170 88///
 333  10019 21002 69947 88/06
 555  1/001 21002 3/001 50013 52100=
26128 27465 83106 10018 20001 39988 49990 52014 76160 88///
 333  10030 20014 60007 88/14 91009 91113
 555  1/002 20014 3/002 50030=
26145 27465 83102 11016 21031 39919 49959 53023 78587 88///
 333  10010 21016 60007 88/11 91110
 555  1/100 21016 3/101 50005 52102=
26233 27349 73002 11006 21013 39869 49976 53022 77187 87///
 333  10014 21006 60007 87/08
 555  1/100 21006 3/100 50021 52101=
26249 27458 82903 11003 21015 39865 49966 53029 77777 88///
 333  10035 21003 60007 88/13 91109
 555  1/000 21003 3/000 50029 52101=
0000011100
967
UANT01 CWAO 110510
ARP DAL408 4715N03420W 0510 F350 MS48 218/34 KT
N172DN QXT AOW 110510 F17A
0000011000
968
UANT01 CWAO 110510
ARP BAW172 5015N04424W 0510 F340 MS61 328/78 KT
GCIVZ QXT AOW 110510 F02A
0000011100
969
UANT01 CWAO 110510
ARP DAL142 4704N04513W 0510 F350 MS66 319/67 KT
N825MH QXT AOW 110510 F17A
0000011000
970
UANT01 CWAO 110511
ARP QTR764 5435N05159W 0508 F290 MS53 285/85 KT
A7BAC QXT AOW 110511 F15A
0000011000
971
UANT01 CWAO 110511
ARP AFR011 4354N05032W 0511 F380 MS58 300/60 KT
FGZCM QXT AOW 110511 J41A
0000011100
972
UANT01 CWAO 110511
ARP UAL952 5605N03542W 0511 F350 MS58 218/38 KT
N642UA DDL XXW 110511 F38A
00000000