0000011900
073
SACN62 CYEK 102100
METAR CYEK 102100Z 35011KT 15SM FEW099 FEW250 M31/M35 A2969 RMK
 AS1CI1 SLP057=

0000010200
074
SASR31 WSSS 102100
METAR WSSS 102100Z VRB02KT 9999 FEW018 BKN300 24/23 Q1010 NOSIG=

0000040200
075
FTUS51 KWBC 102100 AAA
TAF AMD
KCHO 102057Z 1021/1118 00000KT 1 1/2SM -DZ BR OVC002
     FM102300 00000KT 2SM BR OVC003
     FM110100 00000KT 2SM -RA BR OVC003
     FM111000 VRB03KT 1SM BR OVC003 WS020/20035KT
     FM111300 19006KT 1/2SM FG OVC003 WS020/20040KT
     FM111600 19008KT 3/4SM BR OVC003 WS020/20045KT
     FM111700 19008KT 1SM SHRA BR OVC003 WS020/20045KT=

0000016700
076
FTUS54 KWBC 102100 AAA
TAF AMD
KELY 102058Z 1021/1118 30011KT P6SM SCT060
     FM110200 19006KT P6SM SCT080
     FM111200 18012KT P6SM SCT100=

0000029300
077
FTUS53 KWBC 102100 AAA
TAF AMD
KTVC 102056Z 1021/1118 16007KT 6SM BR OVC012
      TEMPO 1021/1024 3SM BR OVC008
     FM110000 14008KT 2SM -FZRAPL BR OVC006 WS020/20030KT
     FM110300 14005KT 2SM -RA BR OVC004 WS020/20030KT
     FM111000 20004KT 2SM -DZ BR OVC004=

0000016800
078
FCTA31 RUMS 102000
TAF UTDD 102000Z NIL=
TAF UTDL 102010Z 1021/1107 07005G10MPS 0800 FZFG SCT004 530009 TEMPO
1021/1107 07007MPS 0500 FZFG VV002=

0000057400
079
FCKZ31 RUMS 102000
TAF UAOO 102053Z 1022/1107 18010MPS 5000 -SN BR OVC010 TEMPO
1022/1107 2000 BR OVC005=
TAF UARR 102054Z 1022/1107 26005MPS 2000 -FZDZ BR OVC005 TEMPO
1022/1101 0800 FZFG VV002 TEMPO 1101/1107 0500 FZFG VV002=
TAF UATE 102050Z 1022/1107 VRB02MPS 0800 FZFG NSC TEMPO 1023/1102
0300 VV001 BECMG 1102/1104 5000 BR BKN006=
TAF UATG 102051Z 1022/1107 25007MPS 3000 BR OVC010 TEMPO 1023/1103
0400 DZ FG VV002=
TAF UAUU 102100Z 1022/1107 17006MPS 3000 -SHSN BLSN SCT006 BKN010CB
TEMPO 1022/1106 16010MPS 0800 +SHSN BLSN VV003=

0000013400
080
FCTA31 RUMS 102000 RRA
TAF UTDD 102055Z 1022/1110 VRB03MPS 0200 FZFG VV002 BECMG 1105/1107
1500 BR SCT010 BKN040=

0000024700
081
SAPM31 MPTO 102100
METAR
MPBO 102100Z 32004KT 260V020 9000 SCT018TCU SCT090 Q1012=
MPDA 102100Z 21010KT 9999 SCT020 31/24 Q1007=
MPMG 102100Z 31007KT 9999 FEW020 29/23 Q1008 NOSIG=
MPPA 102100Z 35009KT 9999 SCT030 Q1008=

0000057000
082
SABO41 SLLP 102100
METAR SLLP 102100Z 13012KT 9999 FEW017 FEW020CB SCT200 16/M01 
Q1032= 
METAR SLVR 102100Z 35011KT 9999 SCT017 30/21 Q1007=
METAR SLCB 102100Z 15008KT 130V200 9999 FEW027 27/08 Q1018=
METAR SLTJ 102100Z 13012KT 9999 FEW033 30/15 Q1013= 
METAR SLTR 102100Z 31008KT 9999 FEW017 30/23 Q1006= 
METAR SLPS 102100Z 00000KT 9999 SCT020 FEW025TCU 33/24 Q1005= 
METAR SLCO 102100Z 31010KT 9999 FEW017 BKN200 29/22 Q1007=
METAR SLSU 102100Z 07009KT 9999 FEW023 23/08 Q1024=
METAR SLET 102100Z 33010KT 9999 SCT017 29/22 Q1006=

0000011700
083
SACN62 CYEV 102100
METAR CYEV 102100Z 27010KT 2SM -SN DRSN OVC016 M25/M29 A2973 RMK SC8
 SLP077=

0000013400
084
SACN61 CYDQ 102100
METAR CYDQ 102100Z AUTO 26012G17KT 9SM CLR M00/M09 A2947 RMK MAX WND
 26017KT AT 2002Z SLP020=

0000010300
085
SACN61 CYFC 102100
METAR CYFC 102100Z AUTO 21007KT 9SM CLR M05/M09 A3031 RMK SLP265=

0000012000
086
SACN61 CYGV 102100
METAR CYGV 102100Z AUTO 29008KT 9SM -SN FEW065 OVC078 M09/M11 A3007
 RMK SLP186=

0000014500
087
SACN62 CYEG 102100
METAR CYEG 102100Z 28006KT 15SM FEW035 BKN100 BKN150 BKN240 M02/M04
 A2947 RMK SC1AC5AC1CI1 SC TR SLP023=

0000008900
088
SABZ24 SBCT 102100
METAR SBCT 102100Z 27005KT 9999 FEW040 30/12 Q1015=

0000011000
089
SACI44 ZSJN 102100
METAR ZSJN 102100Z 00000MPS 1400 R19/1300N BR NSC M07/M08 Q1033
NOSIG=

0000066300
090
SPUS70 KWBC 102102
SPECI
KAMG 102058Z AUTO 11003KT 7SM SCT007 BKN030 OVC040 22/19 A3008 RMK
     AO2 T02170194=
KBAZ 102058Z 22010KT 10SM FEW021 21/17 A2978 RMK AO2=
KFCI 102100Z AUTO 03003KT 2SM OVC003 04/M01 A3030 RMK AO1=
KGRI 102100Z 27008KT 7SM OVC048 03/M01 A2953 RMK AO2 T00281006=
KMDH 102059Z AUTO 18012G20KT 9SM -RA OVC009 07/06 A2985 RMK AO2
     P0000 T00720061=
KPPF 102059Z AUTO 25011G18KT 10SM FEW019 BKN028 BKN032 12/08 A2956
     RMK AO2 T01170083=
KUTS 102059Z AUTO 17006KT 3SM -RA BR BKN009 OVC015 18/17 A2978 RMK
     AO2 CIG 006V012 P0000=
KTZR 102100Z 13007KT 10SM SCT007 BKN035 OVC065 06/05 A3003=

0000011500
091
SACN61 CYHD 102100
METAR CYHD 102100Z AUTO 18010G15KT 3SM BR OVC006 M06/M07 A2947 RMK
 SLP010=

0000012900
092
SACN61 CYKL 102100
METAR CYKL 102100Z AUTO /////KT 3SM -SN FEW025 OVC039 M11/M14 A2956
 RMK WND MISG SLP058=

00000000