0000032600
693
FTBZ23 SBGL 102101
TAF SBSJ 102100Z 1100/1124 16010KT 8000 SCT020
TN19/1108Z TX33/1117Z 
PROB30
 1100/1102 TSRA BKN016 FEW030CB BECMG 1103/1105 00000KT 6000
SCT016 B
ECMG
 1108/1110 02005KT 8000 FEW020 BECMG 1112/1114 33010KT SCT020
PROB30 
1118/1123
 30010KT TSRA BKN016 FEW030CB RMK PGS=

0000024700
694
FTBZ23 SBGL 102101
TAF SBCP 102100Z 1100/1124 04010KT 8000 FEW020
TN24/1108Z TX33/1116Z 
BECMG
 1108/1110 SCT016 BECMG 1113/1115 06015KT SCT020 BECMG 1116/1118
0602
0KT
 FEW020 BECMG 1121/1123 04010KT FEW020 RMK PGS=

0000064800
695
SAEE31 LOWM 102100
METAR UACK 102100Z 21009MPS 8000 -SHSN BLSN OVC013CB M07/M09
Q1020 R20/450342 NOSIG RMK QFE741/0988=
METAR UACP 102100Z NIL=
METAR UAII 102100Z 11002MPS 5000 BR BKN100 M07/M11 Q1026
R28/0///70 NOSIG RMK QFE732/0976=
METAR UADD 102100Z 20006MPS 9999 NSC M07/M13 Q1026 NOSIG RMK
QFE712/0949=
METAR UASK 102100Z 15005MPS 9999 BKN053 OVC120 M07/M15 Q1036
R12/820350 NOSIG RMK QFE751/1002=
METAR UASP 102100Z 20003MPS 9999 -SHSN BKN025CB M08/M11
Q1030 R21/451045 NOSIG RMK QFE761/1014=
METAR UAOO 102100Z 16006MPS 3300 BR BKN160 M06/M07 Q1025
NOSIG RMK QFE756/1009=
METAR UAKD 102100Z NIL=

0000011000
696
UANT99 KDDL 110510
ARP BAW5CA 5400N01943W 0510 F340 MS59 254/54 KT
GVIIY QXT AOW 110510 F24A
0000011000
697
UANT99 KDDL 110510
ARP DLH535 4436N01808W 0510 F360 MS62 258/79 KT
DAIHF QXT AOE 110510 J93A
0000016600
698
SAAF18 LFPW 102100 RRC
METAR FMMT 102100Z 32004KT 9999 VCSH FEW017 SCT033 26/25 Q1012=
METAR FMNM 102100Z 28004KT 9999 FEW020 SCT230 25/24 Q1011=

0000068500
699
SAEA20 HKNC 102100
METAR HKJK 102100Z 04007KT 9999 FEW021 18/11 Q1023 NOSIG=
METAR HKML 102100Z 07010KT 9999 SCT021 26/23 Q1012=
METAR HKNK 102100Z 00000KT CAVOK 14/12=
METAR HKEL 102100Z NIL=
METAR HKEM 102100Z NIL=
METAR HKGA 102100Z NIL=
METAR HKKG 102100Z NIL=
METAR HKKI 102100Z NIL=
METAR HKKR 102100Z NIL=
METAR HKKS 102100Z NIL=
METAR HKKT 102100Z NIL=
METAR HKLU 102100Z NIL=
METAR HKMA 102100Z NIL=
METAR HKME 102100Z NIL=
METAR HKMO 102100Z NIL=
METAR HKMU 102100Z NIL=
METAR HKMY 102100Z NIL=
METAR HKNC 102100Z NIL=
METAR HKNI 102100Z NIL=
METAR HKNW 102100Z NIL=
METAR HKVO 102100Z NIL=
METAR HKWJ 102100Z NIL=

0000009700
700
SPCN51 CWAO 102114
SPECI CZCP 102114Z AUTO 29022KT 1 1/4SM -SN CLR M32/ A2940=

0000010100
701
SAZA31 FAPR 102100 RRA
METAR FALW 102100Z AUTO 23006KT //// // ////// 15/11 Q1017=

0000015600
702
SAAP32 FAPR 102100 RRA
METAR FBSK 102100Z 15002KT CAVOK 26/05 Q1014 NOSIG=
METAR FYWH 102100Z AUTO 23006KT //// // ////// 14/M02 Q1021=

0000028900
703
FTUS43 KWBC 102115 AAA
TAF AMD
KOMA 102113Z 1021/1118 18011KT 2SM BR OVC006
      TEMPO 1022/1023 3SM RASN BKN012
     FM102300 34005KT 3SM -SN BR OVC012
      TEMPO 1023/1101 1 1/2SM -SN
     FM110300 31008KT 5SM BR OVC012
     FM110700 30009KT P6SM SCT100=

0000053700
704
FTUS41 KWBC 102115 AAA
TAF AMD
KCAE 102114Z 1021/1118 04005KT 3SM -RA BR OVC007
      TEMPO 1021/1023 1 1/2SM +RA OVC003
     FM110200 VRB04KT 1SM -DZ BR OVC005
      TEMPO 1108/1112 1/2SM -DZ FG OVC003
     FM111200 17007KT 5SM BR OVC003
     FM111600 19012G20KT P6SM SCT005 OVC015=
KPVD 102112Z 1021/1118 21005KT 1 1/2SM BR SCT015 OVC035
     FM102300 20004KT 1 1/2SM BR BKN015
     FM110800 18005KT 2SM BR OVC010
     FM111300 17009KT 2SM -RA OVC008
     FM111500 18013G28KT 1SM -RA BR OVC003=

0000053700
705
FTUS71 KWBC 102115 AAA
TAF AMD
KCAE 102114Z 1021/1118 04005KT 3SM -RA BR OVC007
      TEMPO 1021/1023 1 1/2SM +RA OVC003
     FM110200 VRB04KT 1SM -DZ BR OVC005
      TEMPO 1108/1112 1/2SM -DZ FG OVC003
     FM111200 17007KT 5SM BR OVC003
     FM111600 19012G20KT P6SM SCT005 OVC015=
KPVD 102112Z 1021/1118 21005KT 1 1/2SM BR SCT015 OVC035
     FM102300 20004KT 1 1/2SM BR BKN015
     FM110800 18005KT 2SM BR OVC010
     FM111300 17009KT 2SM -RA OVC008
     FM111500 18013G28KT 1SM -RA BR OVC003=

0000074800
706
FTUS73 KWBC 102115 AAA
TAF AMD
KALO 102112Z 1021/1118 11007KT 1SM -FZDZ BR OVC004
      TEMPO 1021/1024 1/2SM -FZDZ FZFG
     FM110200 27008KT 4SM -SN BR BKN004 OVC012
     FM110800 27006KT 5SM BR OVC015
     FM111600 28014KT P6SM OVC080=
KLNK 102112Z 1021/1118 VRB04KT P6SM SCT008 OVC020
      TEMPO 1021/1022 3SM RASN BKN012
     FM102200 32005KT 2SM -SN BR OVC010
      TEMPO 1022/1024 3/4SM -SN
     FM110300 30006KT P6SM OVC015
     FM110600 30006KT P6SM SCT100=
KOMA 102113Z 1021/1118 18011KT 2SM BR OVC006
      TEMPO 1022/1023 3SM RASN BKN012
     FM102300 34005KT 3SM -SN BR OVC012
      TEMPO 1023/1101 1 1/2SM -SN
     FM110300 31008KT 5SM BR OVC012
     FM110700 30009KT P6SM SCT100=

0000050000
707
SAPS31 NFFN 102100
METAR NCRG 102100Z NIL=
METAR NFFN 102100Z 13008KT 9999 FEW028 SCT048 28/23 Q1006 NOSIG=
METAR NFNA 102100Z 17008KT 9999 BKN020 29/23 Q1006=
METAR NGFU 102100Z 33009KT 9999 SCT017TCU BKN310 29/26 Q1006=
METAR NGTA 102100Z NIL=
METAR NIUE 102100Z NIL=
METAR NSFA 102100Z NIL=
METAR NSTU 102100Z NIL=
METAR NTAA 102100Z 26003KT 9999 FEW020 30/22 Q1012 NOSIG=
METAR NWWW 102100Z AUTO 10004KT 030V200 9999 NSC 27/15 Q1013=
METAR PLCH 102100Z NIL=

0000022600
708
SAPS32 NFFN 102100
METAR NFTF 102100Z 13007KT 9999 BKN016 BKN270 28/26 Q1002=
METAR NFTL 102100Z NIL=
METAR NFTV 102100Z NIL=
METAR NLWW 102100Z NIL=
METAR NVSS 102100Z NIL=
METAR NVVV 102100Z NIL=

0000022600
709
SANM40 FYWW 102100 RRA
METAR FYGB 102100Z AUTO 21001KT //// // ////// 21/07 Q1019=
METAR FYOO 102100Z AUTO 25004KT //// // ////// 24/M00 Q1015=
METAR FYOW 102100Z AUTO 14002KT //// // ////// 21/01 Q1017=

0000009800
710
SPUS42 KWBC 102117
SPECI
KHOU 102113Z 19009KT 10SM BKN020 OVC030 21/17 A2982=

0000026600
711
FTCN35 CWAO 102100 AAA
TAF AMD CYXU 102117Z 1021/1118 18010KT 1/4SM FG VV001 TEMPO 1021/1104
     4SM BR OVC005
    FM110400 18012KT 1/2SM -RA FG VV002 TEMPO 1104/1106 2SM BR OVC004
     BECMG 1109/1111 20012KT
    RMK NXT FCST BY 110000Z=

0000015800
712
FTLJ31 LJLJ 102000 AAA
TAF AMD LJMB 102116Z 1021/1121 36004KT 0500 FG VV002 TEMPO
1021/1110 3500 BR BKN017 BECMG 1111/1114 20005KT CAVOK=

00000000