0000066100
066
UDAF01 FAPR 110713
AMDAR 1107
LVR AFZA62 1154S 01952E 110623 F410 MS615 087/014 TB0 S031 333 F/// VG000=
LVR AFZA62 1243S 02013E 110630 F410 MS610 085/020 TB0 S031 333 F/// VG000=
LVR AFZA62 1332S 02033E 110637 F410 MS607 074/019 TB0 S031 333 F/// VG000=
LVR AFZA62 1422S 02054E 110644 F410 MS611 079/019 TB0 S031 333 F/// VG000=
LVR AFZA62 1511S 02114E 110651 F410 MS609 062/017 TB0 S031 333 F/// VG000=
LVR AFZA62 1602S 02136E 110658 F410 MS600 043/013 TB0 S031 333 F/// VG000=
LVR AFZA62 1652S 02158E 110705 F410 MS600 034/009 TB0 S031 333 F/// VG000=
LVR AFZA62 1743S 02220E 110712 F410 MS590 041/015 TB0 S031 333 F/// VG000=
0000059400
067
SMCI01 KWBC 110600
AAXX 11061
58968 32675 11103 10239 20147 30201 40209 57029 81100=
58974 32581 21006 10189 20148 30108 40233 57026 82400=
59158 31656 13303 10210 20145 30113 40214 57024 70500 81100=
59358 31950 03203 10233 20147 30183 40215 57029 70500=
59559 32567 60504 10217 20158 30194 40222 57030 82430=
59562 11565 60802 10217 20150 30220 40231 57027 69901 71562 84830=
59567 11460 70305 10182 20155 39842 40225 57018 69951 70262 875//=
59792 11460 80608 10217 20192 30191 40196 57030 69911 8442/=
59997 32460 50507 10296 20239 30122 40130 57024 84408=
0000094900
068
SNVZ11 SBBR 110700 RRC
BBXX
SHIP 11071 99/// 1//// 36/// /0100 10190 20179 39320 40198
  333 10194 20189 553// 10004 91102=
SHIP 11071 99/// 1//// 36/// /1903 10214 20167 39116 40147
  333 10219 20213 553// 10004 91108=
SHIP 11071 99/// 1//// 36/// /1101 10172 20158 38757 49850
  333 10177 20153 553// 10004 91104=
SHIP 11071 99/// 1//// 36/// /1102 10236 20187 39965 40138
  333 10246 20236 553// 10004 91105=
SHIP 11071 99/// 1//// 36/// /3100 10237 20216 39999 40074
  333 10240 20236 553// 10004 91101=
SHIP 11071 99/// 1//// 36/// /1000 10199 20176 39554 40115
  333 10201 20197 553// 10004 91100=
SHIP 11071 99/// 1//// 36/// /1801 10235 20194 39633 40132 57///
  333 10237 20235 553// 10002 91105=
SHIP 11071 99/// 1//// 36/// /3501 10212 20202 39843 40117
  333 10219 20212 553// 10003 91103=
SHIP 11071 99/// 1//// 36/// /1601 10166 20151 38991 40358
  333 10173 20164 553// 10004 91102=
0000101300
069
SAAU31 AMMC 110700
METAR YBAS 110700Z 16014KT 100V170 CAVOK 38/03 Q1010=
METAR YBBN 110700Z 06013KT 9999 FEW038 26/18 Q1015
     FM0730 10010KT 9999 FEW035=
METAR YBCS 110700Z 18008KT 9999 -SHRA SCT020 BKN070 27/23 Q1008
     INTER 0730/1000 VRB15G25KT 4000 SHRA FEW008 BKN020=
METAR YBTL 110700Z 09017KT 9999 FEW030 SCT180 31/21 Q1009=
METAR YMML 110700Z 18014KT 9999 FEW045 21/11 Q1019
     NOSIG=
METAR YPAD 110700Z 16019KT CAVOK 28/08 Q1017
     FM0800 14012KT CAVOK=
METAR YPCC 110700Z 14012KT 9999 FEW026 SCT039 30/22 Q1009=
METAR YPDN 110700Z 31013KT 9999 -SHRA SCT042 BKN350 30/24 Q1004
     TEMPO 0900/1000 VRB25G45KT 1000 TSRA BKN010 SCT020CB=
METAR YPKU 110700Z AUTO 21007KT 9999 // NCD 31/19 Q1005=
METAR YPLM 110700Z AUTO 03011KT 9999 // NCD 37/19 Q1006=
METAR YPPH 110700Z 12007KT CAVOK 42/05 Q1010
     NOSIG=
METAR YPTN 110700Z AUTO 12011KT 9999 // SCT066 35/21 Q1004=
METAR YPXM NIL=
METAR YSSY 110700Z 05012KT CAVOK 27/17 Q1014
     NOSIG=
0000012700
070
SICH01 SCSC 110900 RRH
AAXX 11094
85469 12570 11005 10213 20181 40203 58015 60001 81100
  333 56200  81820=
0000013600
071
SNVD17 CWVR 111000
BBXX
46131 11101 99499 71250 46/// /1713 10086 49868 57055
22200 00079 10604 70020 333 91215 =

0000078900
072
UDAS02 BABJ 111019
AMDAR 1110
LVR CNFLWR 2806N 11312E 111008 F276 MS278 262/099 TB/ S//1=
LVR CNFLWR 2805N 11251E 111011 F276 MS280 261/098 TB/ S//1=
LVR CNFLWR 2806N 11230E 111014 F276 MS265 264/104 TB/ S//1=
LVR CNFLWR 2806N 11209E 111017 F276 MS265 264/103 TB/ S//1=
ASC CNFPQL 3656N 12058E 111015 F202 MS299 272/058 TB/ S//1=
ASC CNFPQL 3655N 12057E 111016 F210 MS315 278/068 TB/ S//1=
ASC CNFPQL 3652N 12055E 111016 F226 MS354 274/071 TB/ S//1=
ASC CNFPQL 3650N 12052E 111017 F241 MS369 274/087 TB/ S//1=
ASC CNFLWN 2634N 10654E 111016 F086 MS003 238/033 TB/ S//1=
ASC CNFLWN 2633N 10657E 111016 F102 PS014 245/039 TB/ S//1=
ASC CNFLWN 2632N 10701E 111017 F119 MS020 258/046 TB/ S//1=
ASC CNFLWN 2631N 10704E 111018 F137 MS064 272/047 TB/ S//1=
0000010700
073
UDAS02 BABJ 111018
AMDAR 1110
DES CNFLWM 2248N 11335E 111016 F037 PS145 232/004 TB/ S//1=
0000029100
074
SXHW11 KWAL 111027
15DEF7B8 011102753"
1,140111,09:15:02,15.8,115,21.9,20.0,965.5,0.00,13.0,
1,140111,09:30:02,16.6,117,22.8,20.1,965.4,0.00,13.0,
1,140111,09:45:02,16.2,118,24.3,20.2,965.5,0.00,13.0,
1,140111,10:00:02,15.9,113,22.1,20.1,965.5,0.00,13.0, 43-0NN  30W
0000053900
075
FTSA85 EGRR 111018 RRA
TAF SGAS 111011Z 1112/1212 05004KT 9999 SCT030 FEW040TCU TX33/1119Z
     TN22/1210Z
     BECMG 1113/1114 20012KT 9999 TS BKN027 FEW040CB
     PROB40 TEMPO 1115/1120 27015G30KT 5000 TSRA OVC020
     FEW040CB=
TAF SGES 111011Z 1112/1212 12008KT 9999 SCT030 TX34/1119Z TN21/1210Z
     BECMG 1113/1115 VRB03KT 9999 BKN027 FEW040TCU
     BECMG 1116/1117 9999 TS BKN027 FEW040CB
     PROB40 TEMPO 1118/1124 27015G30KT 3000 TSRA OVC017 FEW040CB
     BECMG 1202/1204 19010KT 8000 RA BKN020=
0000024300
076
SASA85 EGRR 111000 RRH
METAR SARP 111000Z 09002KT CAVOK 26/21 Q1012=
METAR SAWE 111000Z 32008KT FEW025 SCT 050 08/07 Q1006=
METAR SBDN 111000Z 09003KT CAVOK 25/19 Q1015=
METAR SKSP 111000Z 08016KT 9999 SCT017 27/24 A2988=
0000033800
077
SPSA85 EGRR 111021 RRA
SPECI SARE 111015Z 20012KT 2000 +TSRA SCT005 OVC040 FEW056CB 20/20
      Q1013=
SPECI SBBW 111015Z 00000KT 9999 SCT020 BKN090 22/21 Q1016=
SPECI SBMS 111015Z 13006KT CAVOK 28/21 Q1013=
SPECI SBPP 111015Z 00000KT CAVOK 25/19 Q1015=
SPECI SBVH 111015Z 34004KT 9999 FEW003 BKN090 20/20 Q1014=
0000014400
078
FTTV31 NFFN 111000
TAF NGFU 111028Z 1112/1212
32010KT 9999 -SHRA SCT018 BKN040 
PROB30 TEMPO 1118/1206 7000 SHRA BKN018 BKN040
0000009000
079
SAER41 OMAM 111016 RRF
METAR OMAM 111000Z 19011KT CAVOK 23/10 Q1017 A3003=
0000003800
080
SNVA21 AMMC 110700
NIL
0000003800
081
SNVB21 AMMC 110700
NIL
0000003800
082
SNVC21 AMMC 110700
NIL
0000003800
083
SNVD21 AMMC 110700
NIL
0000003800
084
SNVF21 AMMC 110700
NIL
0000023100
085
SNVJ21 AMMC 110700
BBXX
UCKZ 11061 99660 30953 41598 71009 10014 21017 49825 52005 70282
86830 22261 01003 20402 ICE 0/2/0=
FHZI 11064 99641 31410 46/// /1721 11001 21002 39864 49875 52016
22243 04010 86001=
00000000