0000023600
393
WAHU41 LHBM 111000
LHCC AIRMET 03 VALID 111000/111600 LHBP-
     LHCC BUDAPEST FIR BKN/OVC CLD 200-800/1000-2000 FT AGL OBS
     W OF LINE N4559 E01717 - N4640 E01810 - N4713 E01810 -
     N4725 E01636 MOV NNE WKN=
0000020300
394
WSZR31 FZAA 111000
FZZA SIGMET C1 VALID 110930/111300 FZAA-
FZZA KINSHASA FIR/UIR EMBD TS OBS AT 0900Z WI OO3O EO26OO-OO3O EO27OO
     SO1OO EO2700-SO1OO EO2600-0030 E026OO MOV INTSF=
0000021200
395
WSFG20 TFFF 111001
SOOO SIGMET 2 VALID 111000/111200 TFFF-
SOOO ROCHAMBEAU FIR/UIR EMBD TS FCST AT 1000Z WI N0630 W03945 - N0515
 W04345 - N0545 W04630 - N0830 W03930 TOP FL440 MOV NE 10KT NC=
0000013200
396
SPBY31 UMMN 111000
SPECI UMII 111000Z 28008G14MPS P6000 OVC012CB 02/M01
Q0998 R23/290150 TEMPO 2000 SHSNRA BKN005=
0000011600
397
SPBY31 UMMN 111000
SPECI UMMG 111000Z 27005G08MPS 9999 BKN011 OVC066 04/02
Q1009 R35/290060 NOSIG=
0000010500
398
SATR31 UTAA 111000
METAR UTAA 111000Z 11004MPS 9999 BKN200 12/M06 Q1017
12CLRD70 NOSIG=
0000023200
399
SAGG31 UGTB 111000
METAR UGTB 111000Z 32026G36KT CAVOK 10/M07 Q1016 R31L/CLRD80 NOSIG=
METAR UGKO 111000Z 29007KT CAVOK 12/01 Q1020 R07/09//70 NOSIG=
METAR UGSB 111000Z 20008KT CAVOK 13/03 Q1023 R13/CLRD70 NOSIG=
0000011300
400
SAAJ31 UBBB 111000
METAR UBBY 111000Z 27005KT 9999 NSC 10/M04 Q1016
R33/CLRD70 NOSIG RMK MT OP=
0000009400
401
SAPK31 OPMT 111000
METAR OPMT 110955Z 31004KTS 6000  FEW120 20/00 Q1019 NOSIG=
0000013800
402
SNVD22 KWNB 111000 RRH
BBXX
46237 11101 99378 71226 46/// ///// 1//// 91001 22200 00109 11404
21002 328// 41404 70022=
0000032800
403
SNVD22 KWNB 111000 RRG
BBXX
46244 11101 99409 71244 46/// ///// 1//// 90951 22200 00109 11408
20903 329// 41407 70039=
46240 11101 99366 71219 46/// ///// 1//// 90951 22200 00127 11303
21001 336// 41302 70013=
46236 11101 99368 71219 46/// ///// 1//// 90952 22200 00124 11304
21002 329// 41303 70019=
0000034700
404
SNVD17 KWNB 111000 RRF
BBXX
46076 11101 99595 71480 46/// /2802 10028 49894 56011 90950 22200
00062 11103 20401 3//// 41103 70017 333 91204 555 11024 22024
30858 43105 60949 278022 281019 296022 296022 312022 306032 83204
90858=
52202 11101 99137 11448 46/// ///// 1//// 91000 22200 00282 10704
20704 303// 41101 70021=
0000035800
405
SAME31 OLBA 111000
METAR OLBA 111000Z 24005KT 210V270 8000 FEW026 17/07 Q1024=
METAR OSDI 111000Z 00000KT CAVOK 11/04 Q1023=
METAR OSAP NIL=
METAR OSLK 111000Z 24004KT 9999 FEW030 18/04 Q1023=
METAR OJAI NIL=
METAR OJAM 111000Z 31008KT 5000 HZ BKN025TCU 11/06 Q1023 NOSIG=
METAR OJAQ 111000Z 00000KT 9999 FEW030 17/08 Q1024 NOSIG=
0000042300
406
SNVD22 KWNB 111000 RRI
BBXX
46229 11101 99438 71246 46/// ///// 1//// 90949 22200 00092 10809
20807 329// 41506 70047=
46231 11101 99327 71174 46/// ///// 1//// 90944 22200 00154 11403
20802 328// 41402 70013=
46218 11101 99345 71208 46/// ///// 1//// 90959 22200 00134 11305
20703 329// 41304 70025=
46224 11101 99332 71175 46/// ///// 1//// 90942 22200 00154 11301
20801 326// 41301 70005=
0000015700
407
SSVX13 LFPW 111000
ZZYY 16542 11014 1000/ 346103 069579 6113/ 11119 40145 57002 22219
 00066 444 20130 11014 0600/ 50101 80144 80019 9/015=
0000015700
408
SSVX13 LFPW 111000
ZZYY 44865 11014 1000/ 735802 016412 6113/ 11119 40179 52013 22219
 00192 444 20130 11014 0900/ 50101 80072 80002 9/015=
0000015700
409
SSVX13 LFPW 111000
ZZYY 16548 11014 1000/ 346169 059444 6113/ 11119 40120 57023 22219
 00086 444 20130 11014 0900/ 50101 80146 80000 9/015=
0000015700
410
SSVX13 LFPW 111000
ZZYY 44725 11014 1000/ 727834 021136 6113/ 11119 40191 52025 22219
 00212 444 20130 11014 0900/ 50101 80132 80003 9/015=
0000015700
411
SSVX13 LFPW 111000
ZZYY 64664 11014 1000/ 767998 016186 6113/ 11119 40053 52008 22219
 00014 444 20130 11014 0900/ 50101 80148 80010 9/015=
0000015700
412
SSVX13 LFPW 111000
ZZYY 44770 11014 1000/ 749216 017881 6113/ 11119 40075 57027 22219
 00117 444 20130 11014 0900/ 50101 80138 80005 9/015=
00000000