0000029500
233
SATH33 VTBB 102100
METAR VTBO 102100Z NIL=
METAR VTUD 102100Z NIL=
METAR VTUI 102100Z NIL=
METAR VTUK 102100Z NIL=
METAR VTUL 102100Z NIL=
METAR VTUO 102100Z NIL=
METAR VTUQ 102100Z NIL=
METAR VTUU 102100Z NIL=
METAR VTUV 102100Z NIL=
METAR VTUW 102100Z NIL=

0000010700
234
SAIY32 LIIB 102050 CCA
METAR COR LIPZ 102050Z VRB02KT 2500 BR SCT020 SCT050 08/07 Q1022=

0000037200
235
SANK31 MNMG 102100
METAR 
MNPC  102100Z 09010KT 7000 05HZ BKN016 28/25 Q1010 =
MNRS  102100Z 07004KT 9999 SKC 30/21 Q1008=
MNJG   102100Z 00000KT 9999 BKN020 23/17 Q1010=
MNJU   102100Z 09012KT 9999 SCT020 SCT080 30/22 Q1011 TCU NE=
MNCH  102100Z 36012KT 9999 FEW025 33/16 Q1008 1AC090=
MNBL   102100Z 10006KT 5000 DZ BKN017 28/23 Q1011 72?=

0000024300
236
SATH31 VTBB 102100
METAR VTCH 102100Z NIL=
METAR VTCL 102100Z NIL=
METAR VTCN 102100Z NIL=
METAR VTCP 102100Z NIL=
METAR VTCT 102100Z NIL=
METAR VTPH 102100Z NIL=
METAR VTPO 102100Z NIL=
METAR VTPP 102100Z NIL=

0000054600
237
SAMS31 WMKK 102100
METAR WBGG 102100Z 11002KT 8000 -RA FEW000 SCT020 BKN150 22/22 Q1011
NOSIG=
METAR WBKK 102100Z 09003KT 9999 FEW014 SCT140 BKN270 24/23 Q1010
NOSIG=
METAR WBSB 102100Z 23002KT 9999 FEW005 BKN280 25/24 Q1011 NOSIG=
METAR WMKK 102100Z 36004KT 300V050 8000 FEW030 SCT140 BKN280 24/23
Q1010 NOSIG=
METAR WMKP 102100Z 06003KT 8000 FEW025 SCT140 BKN260 25/24 Q1011
NOSIG=
METAR WSSL 102100Z 33003KT 9999 FEW018 BKN300 25/24 Q1010=
METAR WSSS 102100Z VRB02KT 9999 FEW018 BKN300 24/23 Q1010 NOSIG=

0000024300
238
SATH32 VTBB 102100
METAR VTSB 102100Z NIL=
METAR VTSC 102100Z NIL=
METAR VTSF 102100Z NIL=
METAR VTSG 102100Z NIL=
METAR VTSH 102100Z NIL=
METAR VTSM 102100Z NIL=
METAR VTSR 102100Z NIL=
METAR VTST 102100Z NIL=

0000048800
239
SAMS32 WMKK 102100
METAR WBGG 102100Z 11002KT 8000 -RA FEW000 SCT020 BKN150 22/22 Q1011
NOSIG=
METAR WBKK 102100Z 09003KT 9999 FEW014 SCT140 BKN270 24/23 Q1010
NOSIG=
METAR WMKJ 102100Z 34002KT 9999 FEW022 SCT140 BKN300 23/22 Q1010=
METAR WMKK 102100Z 36004KT 300V050 8000 FEW030 SCT140 BKN280 24/23
Q1010 NOSIG=
METAR WMKP 102100Z 06003KT 8000 FEW025 SCT140 BKN260 25/24 Q1011
NOSIG=
METAR WMSA 102100Z 33004KT 280V030 8000 FEW008 BKN270 24/22 Q1010=

0000077900
240
SAMS33 WMKK 102100
METAR WMAU 102100Z 30005KT 8000 FEW000 BKN140 BKN270 24/23 Q////
QFF1010=
METAR WMBA 102100Z 04001KT 8000 -RA FEW005 SCT028 BKN260 24/23 Q1010=
METAR WMKA 102100Z 00000KT 9999 FEW030 SCT140 BKN280 24/23 Q1011=
METAR WMKB 102100Z 08003KT 8000 FEW025 SCT140 BKN270 24/24 Q1011
NOSIG=
METAR WMKC 102100Z 07014KT 9000 FEW010 SCT020 OVC200 26/22 Q1011=
METAR WMKD 102100Z 36003KT 9999 FEW012 SCT160 BKN260 23/21 Q1011
NOSIG=
METAR WMKE 102100Z NIL=
METAR WMKI 102100Z 03006KT 7000 -RA FEW005 SCT028 BKN260 23/23 Q1011=
METAR WMKL 102100Z 08005KT 9999 FEW025 SCT140 BKN280 27/22 Q1011=
METAR WMKM 102100Z 04004KT 9999 FEW028 SCT140 BKN270 24/23 Q1010=
METAR WMKN 102100Z 04004KT 7000 -RA FEW005 SCT022 OVC190 23/23 Q1011=

0000020500
241
SAIY34 LIIB 102100
METAR LIPC 102055Z /////KT 4000 BR BKN050 08/06 Q1022=
METAR LIPF 102100Z NIL=
METAR LIPO 102100Z NIL=
METAR LIPY 102050Z 17003KT 9999 FEW010 BKN045 12/09 Q1021=

0000037000
242
SAIY35 LIIB 102100
METAR LIQN 102100Z NIL=
METAR LIQW 102100Z NIL=
METAR LIRG 102100Z NIL=
METAR LIRH 102100Z NIL=
METAR LIRL 102100Z NIL=
METAR LIRM 102055Z 35002KT 4000 BR SCT015 BKN060 11/10 Q1021=
METAR LIRS 102055Z /////KT 9999 FEW020 SCT030 11/09 Q1022=
METAR LIRU 102050Z VRB01KT 0750 FG NSC 05/05 Q1023=
METAR LIRV 102100Z NIL=

0000030100
243
SAIY36 LIIB 102100
METAR LIBC 102050Z 02007KT 6000 SCT010 11/11 Q1021=
METAR LIBF 102100Z NIL=
METAR LIBG 102100Z NIL=
METAR LIBP 102050Z VRB02KT 5000 BR NSC 06/04 Q1022=
METAR LIRI 102100Z NIL=
METAR LIRJ 102100Z NIL=
METAR LIRZ 102050Z VRB02KT 9000 BKN050 09/08 Q1022=

0000026500
244
SAIY37 LIIB 102100
METAR LICA 102050Z 09004KT 9999 FEW025 07/06 Q1022=
METAR LICD 102050Z 20014KT CAVOK 16/13 Q1022=
METAR LICG 102100Z NIL=
METAR LICR 102050Z 36012KT CAVOK 13/09 Q1021=
METAR LICT 102055Z 00000KT 9999 FEW020 12/11 Q1021=

0000009200
245
SAMT20 GQPP 102100
METAR GQPP 102100Z 25003KT 8000 NSC 17/15 Q1016 NOSIG=

0000020600
246
SAKY31 RUMS 102100
METAR UCFM 102100Z 18002MPS 0900 R08/1900 FZFG FU SKC M11/M16 Q1027
R08/CLRD70 TEMPO 0600 FZFG=
METAR UCFO 102100Z 18003MPS 7000 NSC M06/M11 Q1028 R12/CLRD70 NOSIG=

0000020600
247
SAAY31 RUMS 102100
METAR UDYZ 102100Z VRB01MPS 2300 BR BKN010 M09/M11 Q1028 R09/000070
NOSIG=
METAR UDSG 102100Z VRB01MPS 0800 R02/P1500N FZFG FEW001 M21/M23 Q1022
R02/CLRD70 NOSIG=

0000093800
248
SAKZ31 RUMS 102100
METAR UAAA 102100Z 16002MPS 0750 R23R/P2000D R23L/1800N BR FU FEW200
M15/M18 Q1029 8891//60 NOSIG=
METAR UACC 102100Z 18008MPS 9000 -SN DRSN OVC027 M10/M12 Q1025
R22/8/0055 NOSIG RMK QFE737/0983=
METAR UAKK 102100Z 18008MPS CAVOK M15/M18 Q1027 R23/850555 NOSIG RMK
QFE723/0964=
METAR UAOO 102100Z 16006MPS 3300 BR BKN160 M06/M07 Q1025 NOSIG RMK
QFE756/1009=
METAR UARR 102100Z 27004MPS 9999 BKN011 OVC026 01/M01 Q1010
R22/650340 TEMPO 2000 BR BKN004 RMK QFE754/1006=
METAR UATE 102100Z 14003MPS 0350 R12/0900D FZFG NSC M04/M04 Q1020
R12/0///70 NOSIG RMK QFE763/1017=
METAR UATG 102100Z 27004MPS 5000 BR OVC015 01/01 Q1016 R14/19//65
NOSIG RMK QFE764/1019=
METAR UATT 102100Z 23002MPS 9999 OVC007 M01/M01 Q1009 R13/491040
NOSIG RMK QFE737/0983=
METAR UAUU 102100Z 18006MPS 2900 -SHSN BLSN OVC024CB M08/M10 Q1014
TEMPO 19012MPS 1000 SHSN BLSN BKN005CB RMK QFE744/0993=

0000027100
249
SATA31 RUMS 102100
METAR UTDD 102100Z VRB01MPS M0050 R09/M0050N FZFG VV001 M07/M08 Q1028
09CLRD70 NOSIG RMK QBB030 QFE703/0937=
METAR UTDL 102100Z 07007G10MPS 1100 R08/1500N BR OVC004 M05/M06 Q1028
TEMPO 0700 FZFG RMK QFE732/0976 QBB140 8819//65=

0000009500
250
SAVN22 SVMI 102100
METAR SVMI 102100Z 07004KT 9999 SCT016 27/21 Q1013 NOSIG=

0000012200
251
SACN62 CYVC 102100
METAR CYVC 102100Z 23005KT 8SM -SN BKN008 OVC012 M06/M07 A2933 RMK
 SC6SC2 SLP956=

0000013500
252
SACN62 CYUX 102100
METAR CYUX 102100Z 32014KT 5SM IC DRSN BKN140 BKN220 M30/M33 A2925
 RMK AS5CS2 WND ESTD SLP906=

00000000