0000127000
593
SAAU32 YBBN 102100
METAR YAMB 102100Z AUTO 00000KT 9999 // NCD 22/19 Q1019=
METAR YMAV 102100Z AUTO 26008KT 9999 // OVC013 17/14 Q1019=
METAR YBRM 102100Z AUTO 25009KT 9999 // SCT020 29/25 Q1008=
METAR YCIN 102100Z AUTO 31004KT //// // BKN023 27/25 Q1009=
METAR YSDU 102100Z AUTO 13006KT 9999 // NCD 21/18 Q1020=
METAR YFRT 102100Z AUTO 14008KT //// // ////// 16/16 Q1020=
METAR YGEL 102100Z AUTO 14003KT 9999 // NCD 18/16 Q1010=
METAR YPGV 102100Z 14006KT 9999 VCSH FEW007 BKN120 OVC150 25/24 Q1007
RMK SHRA TO NORTH=
METAR YBHM 102100Z AUTO 11018KT //// // ////// 27/22 Q1013=
METAR YMHB 102100Z 32002KT 9999 FEW013 BKN250 17/14 Q1014=
METAR YPKG 102100Z AUTO 12007KT 9999 // NCD 19/10 Q1020=
METAR YMLT 102100Z AUTO 15005KT 9999 // NCD 18/14 Q1014=
METAR YBMA 102100Z AUTO 16011KT 9999 // NCD 29/17 Q1011=
METAR YSNF 102100Z 11007KT 9999 FEW028 BKN060 21/11 Q1019=
METAR YPEA 102100Z AUTO 10016KT 9999 // NCD 25/10 Q1014=
METAR YPPD 102100Z AUTO 31008KT 9999 // NCD 28/26 Q1007=
METAR YSRI 102100Z AUTO 04001KT 9999 // NCD 19/17 Q1019=
METAR YBRK 102100Z 13008KT 9999 FEW017 BKN300 24/20 Q1015=
METAR YWLM 102100Z AUTO 01005KT 9999 // NCD 22/17 Q1018=
METAR YPWR 102100Z AUTO 15011KT 9999 // NCD 23/10 Q1017=

0000133300
594
SAAU31 YBBN 102100
METAR YPAD 102100Z 11004KT 9999 FEW018 20/09 Q1019
NOSIG=
METAR YBAS 102100Z 31005KT CAVOK 22/M07 Q1015=
METAR YBBN 102100Z 17005KT CAVOK 23/17 Q1018
RMK 5SC068=
METAR YBCS 102100Z 17011KT 8000 -SHRA FEW005 SCT023 BKN050 25/23
Q1010=
METAR YSCB 102100Z 13004KT CAVOK 19/13 Q1021
RMK 1AC140 4CI240=
METAR YPXM 102100Z AUTO 23003KT //// // ////// 23/22 Q1010=
METAR YPCC 102100Z AUTO 16009KT 9999 // ////// 26/22 Q1010=
METAR YCFS 102100Z AUTO 01004KT 9999 // NCD 22/18 Q1019=
METAR YPDN 102100Z 11005KT 9999 FEW020 BKN350 24/24 Q1007=
METAR YBCG 102100Z AUTO 21003KT 9999 // SCT055 21/19 Q1019=
METAR YHID 102100Z AUTO 08008KT //// // ////// 29/25 Q1007=
METAR YPJT 102100Z AUTO 09014G25KT 9999 // NCD 23/10 Q1016=
METAR YPKU 102100Z AUTO 00000KT 9999 // NCD 26/25 Q1008=
METAR YPLM 102100Z AUTO 19008KT 9000 // NCD 26/23 Q1006=
METAR YMML 102100Z 18006KT 8000 OVC009 17/14 Q1019
FM2100 18008KT 9999 BKN008
FM2330 18012KT 9999 SCT015 BKN020=
METAR YPPH 102100Z 08014KT CAVOK 24/11 Q1015=
METAR YSSY 102100Z 31007KT CAVOK 23/17 Q1018
NOSIG=
METAR YSTW 102100Z AUTO 00000KT 9999 // BKN115 21/14 Q1020=
METAR YPTN 102100Z AUTO 17004KT 9999 // NCD 24/22 Q1008=
METAR YBTL 102100Z 14009KT 9999 FEW014 SCT030 BKN073 26/22 Q1012
RMK DISTANT SHOWERS=

0000009200
595
SAIN90 VOTR 111010
METAR VOTR 111010Z 08007KT 7000 FEW016 30/20 Q1011 NOSIG=
0000114600
596
SNCN19 CWAO 110923
OOXX
TZP64 11071 99068 30392 ///// 01041
     26/// /1002 10295 29062 30030 90720 333 60000=
TZP64 11071 99068 30392 ///// 01041
     26/// /1003 10294 29064 30027 90730 333 60000=
TZP64 11071 99068 30392 ///// 01041
     26/// /0902 10303 29060 30028 90740 333 60000=
TZP64 11071 99068 30392 ///// 01041
     26/// /1003 10299 29060 30028 90750 333 60000=
TZP64 11081 99068 30392 ///// 01041
     26/// /1202 10291 29059 30028 90800 333 60000=
TZP64 11081 99068 30392 ///// 01041
     26/// /1002 10296 29058 30029 90810 333 60000=
TZP64 11081 99068 30392 ///// 01041
     26/// /1002 10297 29060 30027 90820 333 60000=
TZP64 11081 99068 30392 ///// 01041
     26/// /1102 10294 29060 30027 90830 333 60000=
TZP64 11081 99068 30392 ///// 01041
     26/// /1203 10290 29062 30025 90840 333 60000=
TZP64 11081 99068 30392 ///// 01041
     26/// /1103 10298 29059 30023 90850 333 60000=
TZP64 11091 99068 30392 ///// 01041
     26/// /1204 10296 29058 30022 90900 333 60000=
TZP64 11091 99068 30392 ///// 01041
     26/// /1103 10302 29058 30020 90910 333 60000=

0000114600
597
SNCN19 CWAO 110956
OOXX
AUP07 11071 99545 31589 ///// 00121
     26/// ///// 1//// 29/// 3//// 90755 333 6///0=
AUP07 11081 99545 31589 ///// 00121
     26/// ///// 1//// 29/// 3//// 90805 333 6///0=
AUP07 11081 99545 31589 ///// 00121
     26/// ///// 1//// 29/// 3//// 90815 333 6///0=
AUP07 11081 99545 31589 ///// 00121
     26/// ///// 1//// 29/// 3//// 90825 333 6///0=
AUP07 11081 99545 31589 ///// 00121
     26/// ///// 1//// 29/// 3//// 90835 333 6///0=
AUP07 11081 99545 31589 ///// 00121
     26/// ///// 1//// 29/// 3//// 90845 333 6///0=
AUP07 11081 99545 31589 ///// 00121
     26/// ///// 1//// 29/// 3//// 90855 333 6///0=
AUP07 11091 99545 31589 ///// 00121
     26/// ///// 1//// 29/// 3//// 90905 333 6///0=
AUP07 11091 99545 31589 ///// 00121
     26/// ///// 1//// 29/// 3//// 90915 333 6///0=
AUP07 11091 99545 31589 ///// 00121
     26/// ///// 1//// 29/// 3//// 90925 333 6///0=
AUP07 11091 99545 31589 ///// 00121
     26/// ///// 1//// 29/// 3//// 90935 333 6///0=
AUP07 11091 99545 31589 ///// 00121
     26/// ///// 1//// 29/// 3//// 90945 333 6///0=

0000012000
598
SICH02 SCSC 110900 RRB
AAXX 11094
85799 42360 22102 10088 20073 40223 56009 82100
  333 56400 82807=
0000072700
599
UDAS02 BABJ 111000
AMDAR 1110
ASC CNFPQK 3723N 12108E 110956 F055 MS078 313/010 TB/ S//1=
ASC CNFPQK 3724N 12106E 110957 F058 MS081 310/012 TB/ S//1=
ASC CNFPQK 3726N 12103E 110957 F078 MS110 291/020 TB/ S//1=
DES CNFOZL 2249N 11310E 110955 F108 PS050 269/023 TB/ S//1=
DES CNFOZL 2246N 11310E 110956 F107 PS053 275/021 TB/ S//1=
DES CNFOZL 2241N 11310E 110957 F096 PS053 244/017 TB/ S//1=
DES CNFOZL 2236N 11310E 110958 F088 PS038 257/008 TB/ S//1=
DES CNFLWM 2303N 11230E 110956 F191 MS090 262/053 TB/ S//1=
LVR CNFLWM 2258N 11233E 110957 F187 MS079 264/047 TB/ S//1=
LVR CNFLWM 2254N 11237E 110958 F186 MS080 263/046 TB/ S//1=
DES CNFLWM 2253N 11237E 110958 F185 MS080 262/046 TB/ S//1=
0000011500
600
SAIR31 OIII 111000 RRA
 METAR OICJ 110950Z 00000KT 2000 -SN FEW030CB SCT035 OVC070 01/M01
 Q1018=
0000011500
601
SAIR77 OIII 111000 RRA
 METAR OICJ 110950Z 00000KT 2000 -SN FEW030CB SCT035 OVC070 01/M01
 Q1018=
0000011500
602
SAIR78 OIII 111000 RRA
 METAR OICJ 110950Z 00000KT 2000 -SN FEW030CB SCT035 OVC070 01/M01
 Q1018=
0000019300
603
SICD20 FTTJ 110900
AAXX 11094
64700 41956 40616 10220 20004 39827 40164 70600 80002
  333 58003 83075=
64750 42965 70401 10273 20019 39733 40142 80002
  333 58014 87075=
0000088500
604
SICD20 FTTJ 110900
AAXX 11094
64701 41960 00417 10200 20064 3//// 4//// 70700
  333 5////=
64702 42960 21812 10245 21061 3//// 4//// 80002
  333 5//// 82075=
64706 42960 50404 10242 21010 39679 40154 82032
  333 58008 82365 84075=
64709 41930 50206 10220 21001 3//// 4//// 70544 80002
  333 5//// 85075=
64710 42960 60406 10222 20119 3//// 4//// 80002
  333 5//// 86075=
64713 42960 71806 10251 21009 3//// 4//// 80002
  333 5//// 87075=
64722 42960 50404 10250 20050 3//// 4//// 80002
  333 5//// 85075=
64753 41957 00416 10125 20010 3//// 4//// 70700
  333 5////=
64754 42960 50408 10260 20027 3//// 4//// 80002
  333 5//// 85075=
64757 41956 00816 10201 20065 3//// 4//// 70700
  333 5////=
64758 42962 42810 10225 20030 3//// 4//// 80002
  333 5//// 84075=
64761 42960 20812 10205 20113 3//// 4////
  333 5//// 82075=
0000029900
605
SAUK53 EGRR 111000
METAR EGUL 110958Z AUTO 28007KT 9999 CLR 05/04 A3000 RMK AO2 SLP163
      T00540037=
METAR EGUN 110958Z AUTO 29009KT 9999 CLR 05/05 A3001 RMK AO2 SLP166
      T00530047=
METAR EGVA 110958Z AUTO 26005KT 9999 CLR 04/04 A3007 RMK AO2 SLP189
      T00360036=
0000013200
606
SNUK41 EGRR 111000 RRA
AAXX 11104
03017 45588 /3110 10037 20019 30025 40057 53023
  333 55300 20037 82/20 83/68=
0000306100
607
SNUK42 EGRR 111000
AAXX 11104
03002 45675 /2719 10059 20010 39979 49998 53015
  333 81/32 87/64 90710 91127=
03008 46/// /2918 10043 20022 39958 40032 51017
  333 90710 91129=
03010 46/// /2718 10063 20009 40061 53027
  333 90710 91130=
03031 47280 /2811 10000 21004 39775 40110 53027 771//
  333 553// 20032 81/04 85/07=
03034 45780 /2308 10041 20019 30090 40104 53025
  333 82/56=
03037 47776 /2608 10032 20012 30095 40118 53027 723//
  333 83/50=
03039 46/// /2816 11019 21024
  333 90710 91125=
03044 47584 /0103 10017 20001 39984 40085 51026 723//
  333 553// 20059 85/28 84/57=
03047 47575 /3502 10002 21013 39819 40129 51025 781//
  333 553// 20051 82/28 83/46=
03062 47584 /2210 10017 21002 30089 40094 53020 721//
  333 553// 20079 83/20=
03065 46/// ///// 11060 21069=
03068 42582 12512 10024 21008 30085 40094 53023 81930
  333 81920 92600=
03072 46/// /2839 11038 21064
  333 90710 91158 91058=
03080 45983 /2608 10024 21026 39925 40098 53025
  333 8//99=
03088 45984 /2812 10022 21026 39931 40097 51031
  333 553// 20148 8//99=
03105 45570 /3013 10057 20024 30131 40148 53019
  333 81/29 83/35=
03132 45982 /3011 10039 20021 30148 40161 53026
  333 8//99=
03144 45984 /2410 10020 21003 30079 40122 52026
  333 553// 20063 8//99=
03148 46/// /2718 11018 21020
  333 90710 91126=
03153 45483 /3012 10025 20013 30013 40154 52027
  333 553// 20164 81/12=
03155 46989 /2313 10011 21003 39839 40144 51028
  333 81/63=
03158 45984 /2411 10025 21005 39982 40122 53022
  333 553// 20136 8//99=
03210 46471 /2915 10041 20032 30005 40159 51028
  333 84/10=
03212 45/80 /3007 10039 20017 30057 40158 52029=
03214 47983 /3012 10045 20026 30141 40160 51030 723//
  333 8//99=
03220 46980 ///// 10027 20026 30117 40152 52028
  333 8//99=
03224 45165 /2714 10004 20004 39793 40148 52026
  333 82/02=
03225 46681 /2705 10028 20000 39845 40157 51026
  333 553// 20233 81/30=
03226 45483 /3402 10017 20008 39868 40150 51025
  333 85/15=
03227 46/// /2928 11018 2////
  333 90710 91137=
03230 46980 /2903 10016 20003 39877 40139 52025
  333 81/65=
03238 45980 /2715 10021 20009 39953 40129 53024
  333 8//99 90710 91125=
03261 46980 /2806 10030 20003 30111 40152 53026
  333 87/61=
03265 45974 /3304 10020 20003 30119 40151 52025
  333 87/62=
03266 46781 /2707 10049 20007 30133 40150 53027
  333 85/50=
03275 45975 /2614 10029 20006 39942 40138 52025
  333 81/60=
03281 46/// /2713 10026 21002=
03901 45966 /1505 11003 21006 30081 40173 53025
  333 55307 20169 8//99=
03904 47567 /1402 10007 20003 30108 40170 53023 723//
  333 83/20 84/43=
03907 45983 /2111 10025 20011 30153 40160 53018
  333 55302 20099 8//99=
03911 46080 /2702 10004 20000 39891 40173 53025
  333 81/01 85/10=
03915 46980 /1406 10009 20002 30083 40164 52023
  333 8//99=
03916 46787 /2404 10012 21002 39966 40161 52025
  333 553// 20054 81/50=
03923 47070 /2408 11002 21002 39970 40173 51026 720//
  333 86/01=
0000393600
608
SNUK43 EGRR 111000
AAXX 11104
03301 46481 /2706 10046 20028 30112 40187 53033
  333 81/17=
03305 45584 /2813 10040 21001 39923 40191 52038
  333 86/22 85/29 90710 91129=
03313 46581 /2709 10045 20021 30085 40181 52034
  333 81/20 87/24=
03316 47470 /3009 10052 20041 30159 40171 51033 723//
  333 85/16 85/34 90710 91125=
03318 46/// /3007 10047 20032=
03321 45682 /2708 10055 20020 30166 40178 52031
  333 55303 20207 87/34=
03330 47266 /3006 10019 20017 39805 40174 52029 723//
  333 87/04=
03344 47384 /2806 10014 20005 39834 40159 52028 723//
  333 82/06 83/43=
03346 46/// /2713 10022 20013=
03351 47458 /2806 10037 20032 30128 40172 53031 762//
  333 55300 20062 81/10 87/12=
03373 46674 /2507 10043 20028 30088 40159 52034
  333 82/39=
03379 42480 12712 10042 20022 30085 40163 51032 81801
  333 81818=
03382 45973 /2609 10040 20021 30137 40146 53030
  333 55304 20199 81/58 83/62=
03385 46970 /2508 10046 20027 30138 40148 51031
  333 8//99=
03391 42980 12709 10048 20019 30152 40159 51035 81030
  333 81364=
03392 46975 /2709 10044 20030 30149 40153 51035
  333 81/63=
03405 464// /2814 10052 20023 30082 40200 53032
  333 553// 20247 85/16=
03409 46/// /2511 10042 20008 39982 40185 53032
  333 55303 2////=
03410 46583 /2708 10030 21005 39737 40180 52026
  333 553// 20221 81/21=
03469 45981 /2709 10047 20026 30156 40160 51037
  333 553// 20340 8//99=
03488 45981 /2712 10055 20035 30125 40151 51042
  333 8//99=
03503 45583 /3109 10055 20020 30114 40192 53029
  333 81/22 85/26=
03520 46576 /2407 10048 20028 30064 40187 51027
  333 553// 20333 81/22=
03522 45967 /2203 10039 20038 30098 40193 51029
  333 8//99=
03529 45980 /3201 10047 20025 30148 40192 53029
  333 8//99=
03544 45682 /2304 10042 20027 30046 40179 53032
  333 553// 20382 81/30=
03560 45981 /2808 10045 20028 30070 40176 51039
  333 553// 20373 8//99=
03604 46983 /3206 10057 20018 30147 40202 51029
  333 8//99=
03605 46981 /3403 10044 20030 30193 40201 52029
  333 8//99=
03609 46/// /2809 10056 20043 30151 40204 51027=
03628 45968 /2606 10050 20036 30123 40197 53032
  333 55310 20366 8//99=
03647 46980 /1903 10047 20031 39924 40184 53029
  333 553// 20378 8//99=
03658 42480 11603 10051 20035 30117 40188 51035 81600
  333 81712=
03660 45978 /3005 10042 20024 39933 40185 51035
  333 8//99=
03672 42584 13106 10059 20032 30142 40183 52035 81500
  333 81620=
03680 46/// ///// 10046 20031 30022 40181 52035
  333 553// 20382=
03684 45980 /2907 10056 20027 30062 40170 52038
  333 8//99=
03693 45984 /2910 10069 20043 30168 40170 52035
  333 8//99=
03707 45581 /3307 10074 20038 30197 40205 52028
  333 81/27=
03710 46575 /3207 10043 20037 39778 40205 53029
  333 553// 20331 81/20=
03743 46979 /2603 10049 20034 30031 40195 51032
  333 8//99=
03749 46976 /2906 10046 20030 30082 40195 53033
  333 8//99=
03761 42982 02707 10053 20029 30043 40190 52035
  333 55310 20410=
03768 46982 /2905 10057 20035 30107 40188 51035
  333 8//99=
03769 45980 /3005 10063 20035 30099 40182 51036
  333 55310 20308 8//99=
03770 46/// ///// 10067 20036=
03781 45382 /2907 10051 20037 39974 40184 52035
  333 553// 20392 82/06=
03784 46/// /2808 10070 20042 30171 40174 52037=
03797 45981 /2916 10070 20037 30110 40171 53033
  333 55309 20436 8//99=
03823 45584 /3404 10071 20043 39959 40205 52024
  333 553// 20388 83/27=
03839 46/// ///// 10042 20026
  333 553// 20382=
03857 45974 /3317 10077 20046 30135 40199 52030
  333 8//99=
03862 45969 /3004 10061 20047 30185 40198 52034
  333 55307 20357 8//99=
03866 46/// /2907 10068 20039 30170 40195 51037=
03872 45980 ///// 10063 20041 30185 40190 51036
  333 553// 20396 8//99 91012=
03876 46/// /0108 10072 20040 30183 40186 51037=
03895 42484 13606 10087 20047 40200 52030 81801 333 81818=
0000004800
609
SREW41 EGRR 110900 RRA
03044004=
0000125000
610
SREW41 EGRR 111000
03002000 03005000 03008002 03017000 03026002 03031OTR 03034000
03037OTR 03044006 03047OTR 03062OTR 03063OTR 03066000 03068000
03075002 03080000 03088000 03091000 03100000 03105000 03111000
03132000 03134000 03136OTR 03144000 03153000 03155002 03158002
03162999 03166000 03171000 03204000 03210000 03212000 03214002
03220000 03224000 03225004 03226000 03230000 03238000 03240000
03257000 03261000 03265000 03266000 03275000 03281000 03292000
03301000 03302000 03305000 03313000 03316010 03318000 03321000
03330002 03344002 03346000 03351014 03354000 03373000 03377000
03379000 03382000 03391000 03392000 03405000 03409000 03410000
03414000 03462000 03469000 03482000 03488000 03502000 03503000
03520000 03522000 03529000 03535000 03544000 03560000 03590000
03604000 03605000 03609000 03628000 03647000 03649000 03658000
03660000 03672000 03684002 03693000 03707000 03710000 03716000
03740002 03743000 03746000 03749000 03761000 03768000 03769000
03770000 03772000 03781000 03797000 03803000 03808000 03809000
03823000 03827000 03839000 03840000 03853000 03857000 03862000
03866000 03872000 03876000 03882000 03901000 03904OTR 03907000
03911000 03915000 03916000 03917000 03923000=
0000096300
611
SAUK63 EGRR 110950 RRB
METAR EGDY 110950Z AUTO 25003KT 9999 NCD 05/04 Q1019=
METAR EGOM 110950Z AUTO 27014KT 9999 FEW002/// 00/00 Q1013=
METAR EGOP 110950Z AUTO 34003KT 9999 // NCD 04/03 Q1020=
METAR EGOS 110950Z AUTO 25007KT 9999 NCD 03/02 Q1017=
METAR EGOV 110950Z AUTO 30011KT 9999 FEW016/// SCT019/// 05/03 Q1018=
METAR EGQK 110950Z AUTO 25016KT 9999 FEW050/// 03/M00 Q1009=
METAR EGUW 110950Z AUTO 30010KT 9999 NCD 05/03 Q1015=
METAR EGVP 110950Z AUTO 29006KT 9999 // NCD 05/03 Q1019=
METAR EGXD 110950Z AUTO 28006KT 9999 // BKN110/// 03/00 Q1015=
METAR EGXE 110950Z AUTO 34003KT 9999 FEW026/// SCT130/// 03/01 Q1014=
METAR EGXP 110950Z AUTO 25007KT 9999 // FEW039/// 04/03 Q1015=
METAR EGXS 110950Z AUTO 25008KT 9999 // NCD 05/03 Q1014=
METAR EGXU 110950Z AUTO 27007KT 9999 // BKN050/// 05/01 Q1015=
METAR EGXZ 110950Z AUTO 33004KT 9999 BKN120/// 02/00 Q1014=
METAR EGYM 110950Z AUTO 29008KT 9999 NCD 05/03 Q1016=
0000078400
612
SDTH20 VTBB 111000
FFBB 1110/ 48300 NIL=
FFBB 1110/ 48303 00000=
FFBB  1110/ 48327 00000=
FFBB  1110/ 48356 00000=
FFBB  1110/ 48378 00000=
FFBB 1110/ 48381 00000=
FFBB 1110/ 48407 00000=
FFBB 1110/ 48413 NIL=
FFBB 1110/ 48417 0/0/0=
FFBB 1110/ 48432 0/0/0=
FFBB 1110/ 48456 NIL=
FFBB 1110/ 48475 NIL=
FFBB 1110/ 48478 00000=
FFBB 1110/ 48517 654/3 664/3 675/3 754/5 61616 654 663 751=
FFBB  1110/ 48551 0/0/0=
FFBB 1110/ 48565 375/3 575/3 585/3 61616 370=
FFBB 1110/ 48567 NIL=
FFBB 1110/ 48568 155/3 235/5 255/3 265/3 335/3 346/5 355/3 365/3
436/5 447/5 456/5 665/5 675/5 744/3 755/5 765/5 775/5 845/3 855/5
865/5 61616 1512 2324 254 263 334 3434 35234 3623 432 4412 4512 6634
673 744 75234 8424 86123=
FFBB 1110/ 48583 NIL=
00000000