0000179100
146
SZPS01 AMMC 110703
CREX++
T000103 A001 D01021 D06025++
-0204190 14737360 56130 2014 01 11 06 56 3027 11 07 00 01
01029 0077 01027 0077 01026 0078 01024 0078 01021 0077 01019 0077+
-0669280 15640860 56363 2014 01 11 06 56 //// 11 07 00 01
00589 -0079 00583 -0083 00583 -0081 00582 -0080 00584 -0076 00584 -0074+
-0942890 15995560 56670 2014 01 11 06 56 3043 11 07 00 01
00784 -0034 00784 -0033 00782 -0034 00779 -0036 00781 -0033 00781 -0031+
-1072080 16580190 57131 2014 01 11 06 56 //// 11 07 00 01
03380 2838 03381 2842 03381 2845 03379 2846 03381 2851 03381 2854+
-1551560 16718860 57210 2014 01 11 06 56 //// 11 07 00 01
00727 -0081 00715 -0089 00723 -0077 00716 -0080 00705 -0087 00714 -0074+
-1775690 16830030 57320 2014 01 11 06 56 3015 11 07 00 01
00828 -0076 00825 -0075 00821 -0075 00818 -0075 00815 -0074 00811 -0075+
-4397330 16861610 65180 2014 01 11 06 56 2888 11 07 00 01
02316 0365 02308 0354 02307 0350 02334 0374 02315 0353 02316 0351+
-2120470 -15978530 65980 2014 01 11 06 56 3013 11 07 00 01
00606 0015 00607 0018 00593 0006 00554 -0031 00599 0015 00580 -0002+
-2113810 -17518140 66600 2014 01 11 06 56 //// 11 07 00 01
00979 0085 00980 0090 00974 0088 00968 0087 00969 0091 00961 0087+
-1382670 -17176110 66840 2014 01 11 06 56 3010 11 07 00 01
00600 0035 00587 0024 00597 0037 00579 0021 00581 0025 00578 0025+
-1813250 17842750 67050 2014 01 11 06 56 3032 11 07 00 01
01163 0109 01159 0109 01156 0111 01149 0109 01149 0113 01147 0116+
-1760530 17743810 67070 2014 01 11 06 56 3033 11 07 00 01
01139 0002 01135 0003 01130 0003 01125 0004 01119 0003 ///// ////+
-0850250 17919500 67440 2014 01 11 06 56 3030 11 07 00 01
01758 0008 01752 0005 01751 0007 01734 -0006 01736 -0001 01742 0008++
7777

0000191300
147
SZAU01 AMMC 110703
CREX++
T000103 A001 D01021 D06025++
-1927750 14705860 59260 2014 01 11 06 56 3030 11 07 00 01
02244 0189 02253 0193 02260 0195 02264 0194 02270 0196 02270 0191+
-2316110 15079000 59670 2014 01 11 06 56 3003 11 07 00 01
03224 0118 03222 0110 03225 0107 03225 0100 03231 0099 03240 0102+
-3447330 15091170 60420 2014 01 11 06 56 2963 11 07 00 01
01072 -0034 01073 -0034 01074 -0033 01080 -0028 01087 -0020 01093 -0015+
-4105000 14591500 60910 2014 01 11 06 56 2890 11 07 00 01
01906 -0026 01926 -0016 01940 -0013 01947 -0016 01956 -0016 01975 -0009+
-4254640 14793080 61170 2014 01 11 06 56 2895 11 07 00 01
01334 0109 01332 0106 01333 0107 01331 0105 01331 0104 01330 0103+
-3834390 14161360 61410 2014 01 11 06 56 2905 11 07 00 01
00465 0018 00488 0040 00460 0011 00461 0011 00473 0022 00480 0028+
-3214890 13364170 62000 2014 01 11 06 56 2963 11 07 00 01
01212 0155 01211 0151 01212 0150 01209 0145 01221 0155 01214 0146+
-3387080 12189720 62080 2014 01 11 06 56 2945 11 07 00 01
00795 0070 00810 0084 00810 0084 00807 0080 00803 0075 00815 0087+
-3182560 11573860 62237 2014 01 11 06 56 2972 11 07 00 01
00855 0036 00854 0034 00853 0032 00859 0037 00853 0030 00852 0029+
-2422000 11339750 62385 2014 01 11 06 56 //// 11 07 00 01
01226 -0078 01203 -0103 01187 -0121 01216 -0093 01230 -0082 01190 -0123+
-2181670 11419110 62430 2014 01 11 06 56 //// 11 07 00 01
01841 -0024 01833 -0034 01844 -0026 01833 -0039 01843 -0032 01862 -0016+
-1800080 12221830 62650 2014 01 11 06 56 3043 11 07 00 01
05542 0076 05551 0072 05559 0073 05569 0073 05579 0072 05589 0072+
-1247190 13084580 63230 2014 01 11 06 56 3050 11 07 00 01
05487 0235 05483 0238 05480 0239 05476 0238 05473 0242 05469 0240+
-1386000 13641580 63511 2014 01 11 06 56 3045 11 07 00 01
01622 0097 01622 0095 01623 0095 01625 0096 01626 0095 01626 0094++
7777

0000046700
148
SZPA01 AMMC 110703
CREX++
T000103 A001 D01021 D06025++
0136250 17293000 67590 2014 01 11 06 56 3017 11 07 00 01
01450 0076 01432 0061 01443 0074 01437 0071 01424 0061 01434 0073+
0710610 17137250 67680 2014 01 11 06 56 3013 11 07 00 01
00881 0102 00874 0097 00871 0096 00877 0103 00873 0101 00868 0097+
0698060 15820000 67950 2014 01 11 06 56 3023 11 07 00 01
00683 0020 00673 0012 00671 0012 00679 0021 00683 0027 00681 0027++
7777

0000011800
149
SNVF25 LFPW 110700
BBXX
BATFR12 11074 99486 70064 46/// /0406 10097 20029 40190 51019
22261 04149=
0000010600
150
SNVF25 LFPW 110700
BBXX
BATEU08 11074 99641 70228 46/// /2714 29052 49974 53024
22213=
0000011500
151
SNVF25 LFPW 110700
BBXX
FVNM 11074 99477 70034 46/// /3301 10057 20049 40177 53020
22200 04087=
0000011800
152
SNVF25 LFPW 110700
BBXX
BATFR62 11074 99495 70007 46/// /2314 10080 20067 40171 53013
22213 04120=
0000011000
153
UANT01 CWAO 110701
ARP VIR20V 5806N04345W 0701 F370 MS58 271/26 KT
GVFAB DDL XXW 110701 F59A
0000011100
154
UANT01 CWAO 110702
ARP AFR6735 5049N04056W 0702 F370 MS56 307/42 KT
FGUOC QXT AOW 110702 F19A
0000009500
155
SMGL02 EKMI 110600 RRA
AAXX 11064
04313 46/// ///// 11267 21303 39975 49987 =
0000009500
156
SNAA21 ENMI 110700
AAXX 11071
89504 43/// /2006 11049 21133 38451 49918 57003=
0000015700
157
SSVX13 LFPW 110700
ZZYY 44610 11014 0700/ 750354 040774 6113/ 11119 40079 52010 22219
 00099 444 20130 11014 0700/ 50101 80150 80002 9/015=
0000015700
158
SSVX13 LFPW 110700
ZZYY 64667 11014 0700/ 763149 029221 6113/ 11119 49968 52017 22219
 00063 444 20130 11014 0700/ 50101 80154 80000 9/015=
0000011100
159
UANT01 CWAO 110702
ARP BER7249 5434N04241W 0702 F390 MS59 283/42 KT
DALPD QXT AOW 110702 J82A
0000041600
160
SSVX07 KARS 110701
ZZYY 48508 11014 0650/ 772717 159219 6112/
11119 11259 40090
444 20120 11014 0643/ 504//=
ZZYY 48732 11014 0650/ 774495 131072 6113/
11119 11147 49887
444 20130 11014 0602/ 504//=
ZZYY 48731 11014 0650/ 774135 154960 6113/
11119 11233 40055
444 20130 11014 0644/ 504//=
ZZYY 48733 11014 0650/ 772964 152377 6113/
11119 11256 40058
444 20130 11014 0644/ 504//=
0000011100
161
UANT01 CWAO 110702
ARP AWE796 4909N02851W 0702 F370 MS51 200/48 KT
N281AY DDL XXN 110702 J46A
0000011100
162
UANT01 CWAO 110702
ARP DAL411 5111N03446W 0702 F360 MS54 219/33 KT
N1501P QXT AOW 110702 F74A
0000011000
163
UANT01 CWAO 110702
ARP AFL152 6316N02417W 0702 F360 MS56 158/26 KT
VQBBG QXS REK 110702 J60A
0000008400
164
UAPA01 KWBC 110703
ARP N400ES 3304N 12431W 0654 F360 MS56 307/047KT=
0000044700
165
SAIN33 VECC 110650
METAR VECC 110650Z 03003KT 2600 HZ NSC 25/13 Q1015 NOSIG=
METAR VEPT 110650Z 11007KT 1400 -RA SCT015 BKN090 16/14
Q1016 NOSIG=
METAR VGEG 110650Z 25006KT 4000 HZ NSC 23/11 Q1014 NOSIG=
METAR VGHS 110650Z 31006KT 3500 HZ NSC 21/12 Q1015 NOSIG=
METAR VNKT 110650Z 23003KT 5000 HZ FEW020 BKN100 15/00 Q1019 NOSIG=
METAR VQPR 110650Z 00000KT 4000 SN BKN015 BKN070 SCT200 00/M01 Q1026
 VIS BECMG 3000M.=
00000000