0000371800
193
SMUS04 KWBC 110600 RRD
AAXX 11064
74486 11108 /0704 10039 20028 30212 40223 58035 60021 761// 90551
333 10039 21038 96041 555 91106=
72255 37004 92104 10167 20156 30081 40116 51001 730// 90551 333
10222 20167 555 91106=
72263 35966 02710 10144 21050 39440 40110 53022 90551 333 10194
20083 555 91106=
72320 17261 81303 10100 20094 39899 40126 58038 60021 791// 90553
333 10100 20039 96061 555 91106=
72326 11116 80503 10078 20072 39764 40122 58034 69981 710// 90553
333 10094 20028 555 91106=
72332 17256 82113 10133 20000 39949 40073 56033 60041 791// 90553
333 10133 20078 91020 96062 555 91106=
72356 32966 02707 10050 21028 39826 40071 53015 90553 333 10089
20022 555 91106=
72422 32966 21816 10122 20094 39707 40060 56048 90554 333 10128
20033 555 91106=
72423 11456 81904 10111 20100 39887 40061 58016 60081 90556 333
10128 20022 555 91106=
72425 32566 81804 10117 20083 39794 40094 58024 90551 333 10117
20011 555 91106=
72432 15866 81708 10100 20083 39898 40038 58032 60141 90554 333
10100 20017 555 91106=
72435 17658 81711 10106 20094 39894 40032 56037 60221 762// 90553
333 10106 20022 91019 96010 555 91106=
72440 12964 02404 10022 20006 39585 40046 50003 60051 90552 333
10100 20011 555 91106=
72450 12764 62809 10011 20006 39589 40073 51016 69901 90553 333
10050 21006 555 91106=
72476 35866 80806 11061 21078 38573 40244 51026 90553 333 11033
21122 555 91106=
72519 32466 80708 10022 20006 30007 40158 56043 90554 333 10033
21071 555 91106=
72525 12666 81511 10078 20050 39661 40090 56045 69981 8/5// 90551
333 10078 21016 555 91106=
72532 17108 /2108 10039 20033 39752 49995 58013 60011 761// 90554
333 10044 21010 96030 555 91106=
72535 12264 82014 10050 20039 39734 40019 58019 60101 90554 333
10061 21032 555 91106=
72536 11240 81708 10050 20050 39786 40038 56053 60111 761// 90552
333 10050 21043 96010 555 91106=
72537 11112 81509 10039 20033 39806 40042 58059 60101 761// 90553
333 10039 21043 96010 555 91106=
72544 17258 82305 10022 20017 39766 49988 58006 69951 710// 90552
333 10044 21021 555 91106=
72557 31956 03104 11050 21061 39627 40038 53009 710// 90552 333
10006 21078 555 91106=
72562 35966 63105 11078 21100 39092 40087 51017 90553 333 11006
21089 555 91106=
72565 32966 41905 11044 21094 38294 40124 53020 90553 333 10017
21056 555 91106=
72635 17258 81809 10050 20039 39719 40007 56035 60141 761// 90553
333 10056 21043 96010 555 91106=
72636 17258 81913 10044 20033 39768 49997 58022 60131 762// 90555
333 10061 21049 91022 96010 555 91106=
72638 17262 81907 10028 20022 39583 40004 56045 60111 761// 90553
333 10028 21094 555 91106=
72640 12264 82111 10033 20028 39737 49987 56018 60051 90552 333
10039 21043 4/018 555 91106=
72645 11116 81904 10011 20011 39722 49970 56029 60071 710// 90553
333 10017 21049 555 91106=
72651 32964 0//// 11072 21083 39504 40029 50005 90556 333 11006
21094 4/008 555 91106=
72662 35966 03114 10022 21028 38951 40066 51021 90552 333 10039
21028 555 91106=
72745 11104 /2304 11033 21044 39458 49985 58014 69931 741// 90555
333 11028 21100 96041 555 91106=
72747 17132 81703 11033 21044 39533 49973 58013 69901 710// 90555
333 11033 21100 555 91106=
72211 35666 61104 10217 20194 30172 40184 58012 90553 333 10239
20200 555 91106=
72214 17108 90000 10178 20167 30150 40169 58013 69901 730// 90553
333 10194 20144 555 91106=
72248 12466 62308 10178 20161 39985 40078 50001 60021 90556 333
10183 20106 555 91106=
72271 35966 03211 10106 21111 38540 40152 51026 90553 333 10156
20022 91016 555 91106=
72351 32966 62805 10061 21011 39738 40099 51016 90552 333 10100
20033 555 91106=
0000013400
194
SMAK20 KWBC 110600 RRA
AAXX 11064
70251 35566 80000 11078 21100 39804 49938 56013 90553 333 11033
21078 555 91106=
0000062600
195
SMAK31 KWBC 110600 RRA
AAXX 11064
70232 35466 80303 11150 21180 39948 57010 90556 333 11080 21160
555 91106=
70267 12466 80000 11200 21217 39521 40031 58003 69901 90553 333
11156 21200 555 91106=
70271 17648 83304 11122 21144 39351 49948 56011 69931 771// 90553
333 11083 21128 96010 555 91106=
70321 31248 80307 11060 21060 39925 710// 90545 555 91106=
70333 35766 40000 11030 21080 39891 57020 90556 333 10020 21040
555 91106=
70340 32266 63607 11067 21067 39898 49961 56010 90553 333 11028
21067 555 91106=
70343 32566 42712 10010 20000 39888 57017 90556 333 10030 20010
555 91106=
0000292100
196
SMCN04 KWBC 110600 RRA
AAXX 11064
71503 45/// /2706 11262 21292 39781 40063 58004 6///1 333 11229
21309 7////=
71508 17/// ///// 10040 20025 39963 40101 58053 69941 7//4/ 333
10041 21040 70020=
71522 45/// /2202 11077 21089 39685 40185 58007 6///1 333 11077
21195 7////=
71748 15/// /3108 11077 21094 39705 49995 53016 60001 333 11057
21177 70000=
71808 12774 42714 11105 21143 30094 40142 53004 60001 81530 333
11099 21210 79999 555 19999 29999 32520 40181=
71835 17/// /1704 11077 21088 39493 49973 58016 60011 7//4/ 333
11075 21089 70015=
71837 15/// ///// 11003 60001 333 10027 21031 7////=
71839 15/// ///// 11001 60001 333 10044 21066 70000=
71846 17/// /2502 11071 21080 39679 49995 58021 69991 7//4/ 333
11064 21088 70011=
71874 15/// /2609 11248 21286 39963 49970 53002 60001 333 11198
21271 70000 555 32317 4002/=
71893 11332 81517 10063 20062 39932 49963 57070 60201 76366 887//
333 10073 20023 70204 90973 555 1//// 2//// 31524 40031=
71909 15759 80000 11255 21291 39963 40008 52021 60001 333 11177
21288 70000=
71916 45/// ///// 11366 21406 39822 49879 57015 6///1 333 11322
21398 7////=
71959 15/// ///// 11008 21032 60001 333 11008 21102 70000=
71970 15/// /2810 11063 21087 39449 40042 52017 60001 333 11037
21116 70000 555 32920 4004/=
71974 15/// /2620 11306 21339 39804 49848 56027 60001 333 11306
21435 7////=
71977 45/// /2302 11311 39325 40078 56006 6///1 333 11287 21362
7////=
71980 45/// /0000 11285 21318 6///1 333 11198 21300 7////=
71983 45/// /2007 11321 21358 39835 49856 55000 6///1 333 11308
21358 7////=
71074 15/// /0000 11333 21366 39767 49846 53009 60001 333 7////=
71297 17/// /2201 10002 21001 39962 40088 56050 60021 7//4/ 333
10003 21076 70032=
71298 17/// /1611 10034 20031 39811 40041 58058 60081 7//4/ 333
10042 21023 7////=
71465 45/// /1208 10024 20020 39838 40054 58051 6///1 333 10027
21025 7////=
71476 15/// /0530 10043 20006 39823 49834 56082 60001 333 10057
20030 70026 555 30538 4005/=
71478 17/// /2131 10086 20084 39701 49833 58019 60091 7//4/ 333
10086 20029 70144 555 31573 4003/=
71479 17/// /1524 10084 39751 49859 55022 60151 7//4/ 333 10084
20037 70174 555 31178 4001/=
71480 17/// /3202 11255 21284 39949 40076 58004 69921 7//4/ 333
11238 21312 70004=
71482 45/// /0327 10025 20014 39821 49852 56062 6///1 333 10063
20024 7//// 555 30544 4003/=
71484 17/// /0607 10026 39771 49789 56110 60071 7//4/ 333 10064
20018 70076 555 31629 4002/=
71667 17/// /3601 11032 21035 39738 49983 58029 69921 7//4/ 333
11029 21060 70002=
71671 15/// /0000 10006 20000 30192 40253 55008 60001 333 10007
21157 70007=
71680 45/// /3106 11289 21317 39531 40018 53015 6///1 333 11227
21289 7////=
71885 15/// ///// 11012 60001 333 10044 21072 70000=
71978 15/// /2204 11301 21342 39747 40073 56009 60001 333 11224
21315 70002 555 33124 4016/=
0000119700
197
SMLA01 KWBC 110600
AAXX 11061
48921 31456 40901 10175 20140 38649 48151 57020 71044 84200 333
58017=
48924 31558 33602 10205 20181 39530 40160 57026 71044 83100 333
58012=
48925 32459 30401 10243 20159 39416 40138 57034 83200 333 58004=
48926 31557 20000 10262 20181 39700 40167 57024 70544 82100 333
58008=
48927 31450 70403 10160 20131 39185 48653 57019 71044 878// 333
58007=
48928 31458 83201 10159 20126 39104 48574 57015 71044 888// 333
58011=
48930 32460 23601 10230 20170 39824 40175 57029 82100 333 58007=
48935 32468 23201 10212 20111 39038 48538 57026 82200 333 58009=
48938 31559 12201 10236 20147 39840 40176 57018 70544 81100 333
58016=
48940 31457 32202 10274 20169 39961 40156 57029 70544 83200 333
59001=
48944 31460 13603 10235 20153 39532 40115 57003 70544 81500 333
58000=
48946 31557 30402 10288 20245 39984 40148 57026 70544 82200 333
59005=
48947 32459 30904 10290 20179 30004 40168 57006 83230 333 58003=
48952 31558 10902 10296 20195 39943 40132 57019 70544 81100 333
58002=
48955 32560 12202 10305 20179 30021 40136 57029 81100 333 58002=
48957 32565 23601 10320 20208 30003 40109 57050 82101 333 59011=
0000015800
198
SMVD19 KWNB 110600 RRC
BBXX
46126 11061 99540 71666 46/// /1602 10039 49822 56015 90600 22200
00046 1//00 70001 333 91203 555 11017 22019=
0000066100
199
UDAF01 FAPR 110616
AMDAR 1106
LVR AFZA62 0511S 01753E 110527 F390 MS557 096/039 TB0 S031 333 F/// VG000=
LVR AFZA62 0602S 01808E 110534 F390 MS566 100/035 TB0 S031 333 F/// VG000=
LVR AFZA62 0653S 01822E 110541 F390 MS564 105/034 TB0 S031 333 F/// VG000=
LVR AFZA62 0743S 01837E 110548 F390 MS560 098/040 TB0 S031 333 F/// VG000=
LVR AFZA62 0833S 01852E 110555 F390 MS562 103/037 TB0 S031 333 F/// VG000=
LVR AFZA62 0923S 01907E 110602 F390 MS564 106/029 TB0 S031 333 F/// VG000=
LVR AFZA62 1014S 01921E 110609 F410 MS615 110/024 TB0 S031 333 F/// VG000=
LVR AFZA62 1104S 01936E 110616 F410 MS612 119/021 TB0 S031 333 F/// VG000=
0000066100
200
UDAF01 FAPR 110616
AMDAR 1106
LVR AFZA22 2615N 03752W 110526 F360 MS517 261/052 TB0 S031 333 F/// VG012=
LVR AFZA22 2642N 03838W 110534 F360 MS528 272/057 TB0 S031 333 F/// VG012=
LVR AFZA22 2709N 03924W 110541 F360 MS515 262/062 TB0 S031 333 F/// VG012=
LVR AFZA22 2735N 04010W 110548 F360 MS505 260/073 TB0 S031 333 F/// VG012=
LVR AFZA22 2800N 04057W 110555 F360 MS517 267/072 TB0 S031 333 F/// VG012=
LVR AFZA22 2823N 04142W 110602 F360 MS523 273/077 TB0 S031 333 F/// VG012=
LVR AFZA22 2846N 04227W 110609 F360 MS544 281/080 TB0 S031 333 F/// VG012=
LVR AFZA22 2908N 04311W 110616 F360 MS557 286/095 TB0 S031 333 F/// VG011=
0000066100
201
UDAF01 FAPR 110618
AMDAR 1106
ASC AFZA46 1519S 02828E 110529 F036 PS195 275/008 TB1 S031 333 F/// VG024=
ASC AFZA46 1519S 02828E 110530 F036 PS190 290/012 TB1 S031 333 F/// VG030=
ASC AFZA46 1519S 02829E 110530 F039 PS195 292/010 TB1 S031 333 F/// VG028=
ASC AFZA46 1520S 02829E 110530 F042 PS201 290/009 TB1 S031 333 F/// VG028=
UNS AFZA46 1520S 02829E 110530 F045 PS197 288/011 TB1 S031 333 F/// VG030=
UNS AFZA46 1520S 02830E 110531 F048 PS191 309/014 TB1 S031 333 F/// VG030=
UNS AFZA46 1521S 02830E 110531 F052 PS180 318/012 TB1 S031 333 F/// VG021=
ASC AFZA46 1521S 02830E 110531 F055 PS175 348/007 TB1 S031 333 F/// VG027=
0001161200
202
KSMI06 SBBR 110600
CREX++
T000113 A000 D07080++
 82 022 BOA VISTA            1 2014 01 11 06 00 0283333 -06070000 01400 00015 10009 10105 //// // 0002 ///// ///// 00150 2400 1810 /// ///// 2000 ///// ///// ///// 000 62 // 0000 // // // 0000 0000  07 /// 08 /// 09 /// // ///// ///// // ///// ///// // ///// //// 508 -0006 10 10  -0024 //// -0001 //// /////  -0001 00000 //// ///// 00150 -0012 0000 //// -0012 0000 //// ///// 03 02 -0010 080 0031 //  -0010 /// //// //// /// //// ///// -0024 // ////  -0001 //// //// ///// ///// ///// ///// -0024 //// //// ///// ///// ///// ///// //// 0000 //+
 82 193 BELEM                1 2014 01 11 06 00 -0145000 -04846667 00100 00015 10082 10100 //// // -0014 ///// ///// 00150 2380 2250 /// ///// 2000 ///// ///// ///// 050 08 04 0250 30 23 10 0000 0000  07 /// 08 /// 09 /// // ///// ///// // ///// ///// // ///// //// 508 -0006 10 10  -0024 //// -0001 //// /////  -0001 00000 //// ///// 00150 -0012 0000 //// -0012 0000 //// ///// 03 02 -0010 100 0021 //  -0010 /// //// //// /// //// ///// -0024 // ////  -0001 //// //// ///// ///// ///// ///// -0024 //// //// ///// ///// ///// ///// //// 0000 //+
 82 281 SAO LUIS             1 2014 01 11 06 00 -0253333 -04430000 00510 00015 10040 10102 //// // -0001 ///// ///// 00150 2580 2070 /// ///// 2000 ///// ///// ///// 038 07 03 0045 35 20 10 0000 0000  07 /// 08 /// 09 /// // ///// ///// // ///// ///// // ///// //// 508 -0006 10 10  -0024 //// -0001 //// /////  -0001 00000 //// ///// 00150 -0012 0000 //// -0012 0000 //// ///// 03 02 -0010 080 0021 //  -0010 /// //// //// /// //// ///// -0024 // ////  -0001 //// //// ///// ///// ///// ///// -0024 //// //// ///// ///// ///// ///// //// 0000 //+
 82 332 MANAUS               1 2014 01 11 06 00 -0315000 -05998333 00840 00015 10015 10109 //// // 0008 ///// ///// 00150 2210 2110 /// ///// 2000 ///// ///// ///// 050 07 03 0045 35 23 10 0000 0000  07 /// 08 /// 09 /// // ///// ///// // ///// ///// // ///// //// 508 -0006 10 10  -0024 //// -0001 //// /////  //// ///// -0006 00150 00150 -0012 0000 //// -0012 0000 //// ///// 03 02 -0010 060 0026 //  -0010 /// //// //// /// //// ///// -0024 // ////  -0001 //// //// ///// ///// ///// ///// -0024 //// //// ///// ///// ///// ///// //// 0000 //+
 82 398 FORTALEZA (AEROPORTO 1 2014 01 11 06 00 -0378000 -03853000 00250 ///// 10074 10103 //// // -0004 ///// ///// ///// 2630 2020 /// ///// 2000 ///// ///// ///// 050 07 04 0080 35 20 10 0000 0000  07 /// 08 /// 09 /// // ///// ///// // ///// ///// // ///// //// 508 -0006 10 10  -0024 //// -0001 //// /////  -0001 00000 //// ///// ///// -0012 0000 //// -0012 0000 //// ///// 03 02 -0010 090 0062 //  -0010 /// //// //// /// //// ///// -0024 // ////  -0001 //// //// ///// ///// ///// ///// -0024 //// //// ///// ///// ///// ///// //// 0000 //+
 82 579 TERESINA (AEROPORTO) 1 2014 01 11 06 00 -0505000 -04281000 00690 ///// 10021 10097 //// // -0001 ///// ///// ///// 2440 2290 /// ///// 2000 ///// ///// ///// 088 07 03 0080 35 25 10 0000 0000  07 /// 08 /// 09 /// // ///// ///// // ///// ///// // ///// //// 021 -0006 06 01  -0024 //// -0001 //// /////  //// ///// -0006 00003 ///// -0012 0000 //// -0012 0000 //// ///// 03 02 -0010 310 0010 //  -0010 /// //// //// /// //// ///// -0024 // ////  -0001 //// //// ///// ///// ///// ///// -0024 //// //// ///// ///// ///// ///// //// 0000 //+
 82 917 RIO BRANCO           1 2014 01 11 06 00 -1000000 -06780000 01430 00015 09877 ///// //// // -0002 ///// ///// 00150 //// //// /// ///// 2000 ///// ///// ///// 075 07 03 0080 32 23 10 0000 0000  07 /// 08 /// 09 /// // ///// ///// // ///// ///// // ///// //// 029 -0006 09 02  -0024 //// -0001 //// /////  //// ///// //// ///// 00150 -0012 0000 //// -0012 0000 //// ///// 03 02 -0010 090 0026 //  -0010 /// //// //// /// //// ///// -0024 // ////  -0001 //// //// ///// ///// ///// ///// -0024 //// //// ///// ///// ///// ///// //// 0000 //+
 82 965 ALTA FLORESTA        1 2014 01 11 06 00 -0986667 -05610000 02880 00015 09789 10114 //// // 0013 ///// ///// 00150 2260 2190 /// ///// 0800 ///// ///// ///// 100 07 05 0045 37 27 60 0000 0000  07 /// 08 /// 09 /// // ///// ///// // ///// ///// // ///// //// 060 -0006 09 06  -0024 //// -0001 //// /////  //// ///// -0006 00010 00150 -0012 0000 //// -0012 0000 //// ///// 03 02 -0010 000 0000 //  -0010 /// //// //// /// //// ///// -0024 // ////  -0001 //// //// ///// ///// ///// ///// -0024 //// //// ///// ///// ///// ///// //// 0000 //+
 82 993 MACEIO (AEROPORTO)   1 2014 01 11 06 00 -0951000 -03578000 01170 ///// 09992 10128 //// // 0007 ///// ///// ///// 2140 2050 /// ///// 2000 ///// ///// ///// 025 07 02 0080 31 20 10 0000 0000  07 /// 08 /// 09 /// // ///// ///// // ///// ///// // ///// //// 508 -0006 10 10  -0024 //// -0001 //// /////  -0001 00000 //// ///// ///// -0012 0000 //// -0012 0000 //// ///// 03 02 -0010 330 0015 //  -0010 /// //// //// /// //// ///// -0024 // ////  -0001 //// //// ///// ///// ///// ///// -0024 //// //// ///// ///// ///// ///// //// 0000 //+
 83 349 ILHEUS (AEROPORTO)   1 2014 01 11 06 00 -1481000 -03903000 00040 ///// 10134 10140 //// // 0008 ///// ///// ///// 2610 2250 /// ///// 0800 ///// ///// ///// 075 07 07 0045 38 23 10 0000 0000  07 /// 08 /// 09 /// // ///// ///// // ///// ///// // ///// //// 015 -0006 06 02  -0024 //// -0001 //// /////  //// ///// -0006 00010 ///// -0012 0000 //// -0012 0000 //// ///// 03 02 -0010 090 0041 //  -0010 /// //// //// /// //// ///// -0024 // ////  -0001 //// //// ///// ///// ///// ///// -0024 //// //// ///// ///// ///// ///// //// 0000 //+
 83 362 CUIABA               1 2014 01 11 06 00 -1565000 -05610000 01857 00015 09885 10099 //// // -0001 ///// ///// 00150 2300 2060 /// ///// 2000 ///// ///// ///// 050 07 01 0080 31 23 10 0000 0000  07 /// 08 /// 09 /// // ///// ///// // ///// ///// // ///// //// 508 -0006 10 10  -0024 //// -0001 //// /////  -0001 00000 //// ///// 00150 -0012 0000 //// -0012 0000 //// ///// 03 02 -0010 320 0015 //  -0010 /// //// //// /// //// ///// -0024 // ////  -0001 //// //// ///// ///// ///// ///// -0024 //// //// ///// ///// ///// ///// //// 0000 //+
 83 378 BRASILIA             1 2014 01 11 06 00 -1586667 -04791667 10600 00015 08956 ///// //// // 0006 08500 01520 00150 2070 1450 /// ///// 2000 ///// ///// ///// 038 07 04 0080 32 20 10 0000 0000  07 /// 08 /// 09 /// // ///// ///// // ///// ///// // ///// //// 508 -0006 10 10  -0024 //// -0001 //// /////  -0001 00000 //// ///// 00150 -0012 0000 //// -0012 0000 //// ///// 03 02 -0010 000 0000 //  -0010 /// //// //// /// //// ///// -0024 // ////  -0001 //// //// ///// ///// ///// ///// -0024 //// //// ///// ///// ///// ///// //// 0000 //+
 83 460 //////////////////// 1 2014 01 11 06 00 /////// //////// ///// ///// 10080 10139 //// // 0002 ///// ///// ///// 2300 2170 /// ///// 2000 ///// ///// ///// 025 07 02 0080 32 20 10 0000 0000  07 /// 08 /// 09 /// // ///// ///// // ///// ///// // ///// //// 508 -0006 10 10  -0024 //// -0001 //// /////  -0001 00000 //// ///// ///// -0012 0000 //// -0012 0000 //// ///// 03 02 -0010 000 0000 //  -0010 /// //// //// /// //// ///// -0024 // ////  -0001 //// //// ///// ///// ///// ///// -0024 //// //// ///// ///// ///// ///// //// 0000 //+
 83 566 CONFINS              1 2014 01 11 06 00 -1985000 -04395000 07861 00015 09217 ///// //// // -0007 08500 01540 00150 2070 1720 /// ///// 2000 ///// ///// ///// 075 07 02 0080 31 23 10 0000 0000  07 /// 08 /// 09 /// // ///// ///// // ///// ///// // ///// //// 508 -0006 10 10  -0024 //// -0001 //// /////  -0001 00000 //// ///// 00150 -0012 0000 //// -0012 0000 //// ///// 03 02 -0010 090 0026 //  -0010 /// //// //// /// //// ///// -0024 // ////  -0001 //// //// ///// ///// ///// ///// -0024 //// //// ///// ///// ///// ///// //// 0000 //+
 83 612 CAMPO GRANDE         1 2014 01 11 06 00 -2046667 -05466667 05670 00015 09478 ///// -0012 07 //// 08500 01530 00150 2300 1780 /// ///// 2000 ///// ///// ///// 025 08 02 0225 30 23 10 0000 0000  07 /// 08 /// 09 /// // ///// ///// // ///// ///// // ///// //// 508 -0006 10 10  -0024 //// -0001 //// /////  -0001 00000 //// ///// 00150 -0012 0000 //// -0012 0000 //// ///// 03 02 -0010 010 0031 //  -0010 /// //// //// /// //// ///// -0024 // ////  -0001 //// //// ///// ///// ///// ///// -0024 //// //// ///// ///// ///// ///// //// 0000 //+
 83 649 VITORIA (AEROPORTO)  1 2014 01 11 06 00 -2026000 -04028000 00040 ///// 10141 10146 -0013 05 //// ///// ///// ///// 2360 2220 /// ///// 2000 ///// ///// ///// 000 62 // 0000 // // // 0000 0000  07 /// 08 /// 09 /// // ///// ///// // ///// ///// // ///// //// 508 -0006 10 10  -0024 //// -0001 //// /////  -0001 00000 //// ///// ///// -0012 0000 //// -0012 0000 //// ///// 03 02 -0010 310 0010 //  -0010 /// //// //// /// //// ///// -0024 // ////  -0001 //// //// ///// ///// ///// ///// -0024 //// //// ///// ///// ///// ///// //// 0000 //+
 83 780 SAO PAULO (AEROPORTO 1 2014 01 11 06 00 -2361000 -04665000 08030 ///// 09236 ///// -0010 06 //// 08500 01540 ///// 2290 1260 /// ///// 2000 ///// ///// ///// 000 62 // 0000 // // // 0000 0000  07 /// 08 /// 09 /// // ///// ///// // ///// ///// // ///// //// 508 -0006 10 10  -0024 //// -0001 //// /////  -0001 00000 //// ///// ///// -0012 0000 //// -0012 0000 //// ///// 03 02 -0010 030 0015 //  -0010 /// //// //// /// //// ///// -0024 // ////  -0001 //// //// ///// ///// ///// ///// -0024 //// //// ///// ///// ///// ///// //// 0000 //+
 83 827 FOZ DO IGUACU        1 2014 01 11 06 00 -2551667 -05458333 01800 00015 09816 10085 -0016 08 //// ///// ///// 00150 2440 2210 /// ///// 2000 ///// ///// ///// 000 62 // 0000 // // // 0000 0000  07 /// 08 /// 09 /// // ///// ///// // ///// ///// // ///// //// 508 -0006 10 10  -0024 //// -0001 //// /////  -0001 00000 //// ///// 00150 -0012 0000 //// -0012 0000 //// ///// 03 02 -0010 000 0000 //  -0010 /// //// //// /// //// ///// -0024 // ////  -0001 //// //// ///// ///// ///// ///// -0024 //// //// ///// ///// ///// ///// //// 0000 //+
 83 840 CURITIBA             1 2014 01 11 06 00 -2551667 -04916667 09080 00015 09123 ///// 0009 03 //// 08500 01530 00150 1920 1810 /// ///// 2000 ///// ///// ///// 050 07 05 0045 39 20 10 0000 0000  07 /// 08 /// 09 /// // ///// ///// // ///// ///// // ///// //// 017 -0006 09 02  -0024 //// -0001 //// /////  //// ///// -0006 -00001 00150 -0012 0000 //// -0012 0000 //// ///// 03 02 -0010 260 0031 //  -0010 /// //// //// /// //// ///// -0024 // ////  -0001 //// //// ///// ///// ///// ///// -0024 //// //// ///// ///// ///// ///// //// 0000 //+
 83 899 FLORIANOPOLIS        1 2014 01 11 06 00 -2792167 -04905000 00050 00015 10118 10124 -0009 08 //// ///// ///// 00150 2210 2080 /// ///// 2000 ///// ///// ///// 075 07 06 0080 39 20 10 0000 0000  07 /// 08 /// 09 /// // ///// ///// // ///// ///// // ///// //// 095 -0006 09 06  -0024 //// -0001 //// /////  //// ///// -0006 00090 00150 -0012 0000 //// -0012 0000 //// ///// 03 02 -0010 090 0036 //  -0010 /// //// //// /// //// ///// -0024 // ////  -0001 //// //// ///// ///// ///// ///// -0024 //// //// ///// ///// ///// ///// //// 0000 //+
 83 971 PORTO ALEGRE         1 2014 01 11 06 00 -3001667 -05121667 00470 00015 10091 10095 -0009 07 //// ///// ///// 00150 2160 1970 /// ///// 2000 ///// ///// ///// 000 62 // 0000 // // // 0000 0000  07 /// 08 /// 09 /// // ///// ///// // ///// ///// // ///// //// 508 -0006 10 10  -0024 //// -0001 //// /////  //// ///// -0006 00001 00150 -0012 0000 //// -0012 0000 //// ///// 03 02 -0010 360 0010 //  -0010 /// //// //// /// //// ///// -0024 // ////  -0001 //// //// ///// ///// ///// ///// -0024 //// //// ///// ///// ///// ///// //// 0000 //++
7777
0000096500
203
SMUS04 KWBC 110600 RRE
AAXX 11064
72402 15566 81909 10128 20111 30186 40199 58036 69931 90554 333
10133 21005 555 91106=
72434 12562 82206 10072 20056 39805 40012 58014 60021 90551 333
10078 20011 4/005 555 91106=
72438 11224 81608 10050 20050 39738 40027 58030 60051 761// 90554
333 10050 21005 4/010 96010 555 91106=
72456 17258 82707 10017 20000 39731 40053 53015 69901 710// 90553
333 10028 20000 555 91106=
72552 35866 42808 11028 21056 39399 40067 51016 90553 333 10017
21028 555 91106=
72556 35966 02709 11028 21056 39483 40045 51011 90556 333 10000
21028 555 91106=
72567 35766 82808 10006 21044 39136 40059 51007 90552 333 10028
21039 555 91106=
72592 35966 03303 10056 20022 30034 40220 56002 90553 333 10167
20000 555 91106=
72644 17256 82908 11017 21033 39510 49995 56007 60011 710// 90554
333 11011 21083 555 91106=
72666 35766 83220 10028 21050 38727 40108 51028 90553 333 10039
21082 555 91106=
0000226900
204
KSME36 SBBR 110600
CREX++
T000113 A000 D07080++
 82 599 NATAL                1 2014 01 11 06 00 -0591667 -03525000 00520 00015 10060 10120 //// // 0017 ///// ///// 00150 2510 2070 /// ///// 2000 ///// ///// ///// 062 07 05 0080 31 20 10 0000 0000  07 /// 08 /// 09 /// // ///// ///// // ///// ///// // ///// //// 508 -0006 10 10  -0024 //// -0001 //// /////  -0001 00000 //// ///// 00150 -0012 0000 //// -0012 0000 //// ///// 03 02 -0010 120 0021 //  -0010 /// //// //// /// //// ///// -0024 // ////  -0001 //// //// ///// ///// ///// ///// -0024 //// //// ///// ///// ///// ///// //// 0000 //+
 82 824 PORTO VELHO          1 2014 01 11 06 00 -0876667 -06391667 01020 00015 10003 10104 //// // 0002 ///// ///// 00150 2330 2170 /// ///// 0500 ///// ///// ///// 062 07 08 0015 34 61 60 0000 0000  07 /// 08 /// 09 /// // ///// ///// // ///// ///// // ///// //// 091 -0006 09 06  -0024 //// -0001 //// /////  //// ///// -0006 00010 00150 -0012 0000 //// -0012 0000 //// ///// 03 02 -0010 060 0041 //  -0010 /// //// //// /// //// ///// -0024 // ////  -0001 //// //// ///// ///// ///// ///// -0024 //// //// ///// ///// ///// ///// //// 0000 //+
 82 899 RECIFE (AEROPORTO)   1 2014 01 11 06 00 -0806000 -03485000 00190 ///// 10107 10119 //// // 0000 ///// ///// ///// 2590 2100 /// ///// 2000 ///// ///// ///// 025 07 02 0080 32 20 10 0000 0000  07 /// 08 /// 09 /// // ///// ///// // ///// ///// // ///// //// 508 -0006 10 10  -0024 //// -0001 //// /////  -0001 00000 //// ///// ///// -0012 0000 //// -0012 0000 //// ///// 03 02 -0010 130 0026 //  -0010 /// //// //// /// //// ///// -0024 // ////  -0001 //// //// ///// ///// ///// ///// -0024 //// //// ///// ///// ///// ///// //// 0000 //+
 83 248 SALVADOR (AEROPORTO) 1 2014 01 11 06 00 -1290000 -03833000 00060 ///// 10104 10126 //// // 0005 ///// ///// ///// 2630 2260 /// ///// 2000 ///// ///// ///// 050 07 05 0045 32 20 10 0000 0000  07 /// 08 /// 09 /// // ///// ///// // ///// ///// // ///// //// 508 -0006 10 10  -0024 //// -0001 //// /////  -0001 00000 //// ///// ///// -0012 0000 //// -0012 0000 //// ///// 03 02 -0010 080 0041 //  -0010 /// //// //// /// //// ///// -0024 // ////  -0001 //// //// ///// ///// ///// ///// -0024 //// //// ///// ///// ///// ///// //// 0000 //++
7777
0000232900
205
KSME36 SBBR 110600
CREX++
T000113 A000 D07086++
 82 599 NATAL                1 2014 01 11 06 00 -0591667 -03525000 00520 00015 10060 10120 //// // 0017 ///// ///// 00150 2510 2070 /// ///// 2000 ///// ///// ///// 062 07 05 0080 31 20 10 0000 0000 // // ///// //// ////// / /// /// ////// /// /// /////// // /// // /// /// ////////// /// /// 508 -0006 10 10  -0024 //// -0001 //// /////  -0001 00000 //// ///// 00150 -0012 0000 //// -0012 0000 //// ///// 03 02 -0010 120 0021 //  -0010 /// //// //// /// //// ///// -0024 // ////  -0001 //// //// ///// ///// ///// ///// -0024 //// //// ///// ///// ///// /////+
 82 824 PORTO VELHO          1 2014 01 11 06 00 -0876667 -06391667 01020 00015 10003 10104 //// // 0002 ///// ///// 00150 2330 2170 /// ///// 0500 ///// ///// ///// 062 07 08 0015 34 61 60 0000 0000 // // ///// //// ////// / /// /// ////// /// /// /////// // /// // /// /// ////////// /// /// 091 -0006 09 06  -0024 //// -0001 //// /////  //// ///// -0006 00010 00150 -0012 0000 //// -0012 0000 //// ///// 03 02 -0010 060 0041 //  -0010 /// //// //// /// //// ///// -0024 // ////  -0001 //// //// ///// ///// ///// ///// -0024 //// //// ///// ///// ///// /////+
 82 899 RECIFE (AEROPORTO)   1 2014 01 11 06 00 -0806000 -03485000 ///// ///// 10107 10119 //// // 0000 ///// ///// ///// 2590 2100 /// ///// 2000 ///// ///// ///// 025 07 02 0080 32 20 10 0000 0000 // // ///// //// ////// / /// /// ////// /// /// /////// // /// // /// /// ////////// /// /// 508 -0006 10 10  -0024 //// -0001 //// /////  -0001 00000 //// ///// ///// -0012 0000 //// -0012 0000 //// ///// 03 02 -0010 130 0026 //  -0010 /// //// //// /// //// ///// -0024 // ////  -0001 //// //// ///// ///// ///// ///// -0024 //// //// ///// ///// ///// /////+
 83 248 SALVADOR (AEROPORTO) 1 2014 01 11 06 00 -1290000 -03833000 ///// ///// 10104 10126 //// // 0005 ///// ///// ///// 2630 2260 /// ///// 2000 ///// ///// ///// 050 07 05 0045 32 20 10 0000 0000 // // ///// //// ////// / /// /// ////// /// /// /////// // /// // /// /// ////////// /// /// 508 -0006 10 10  -0024 //// -0001 //// /////  -0001 00000 //// ///// ///// -0012 0000 //// -0012 0000 //// ///// 03 02 -0010 080 0041 //  -0010 /// //// //// /// //// ///// -0024 // ////  -0001 //// //// ///// ///// ///// ///// -0024 //// //// ///// ///// ///// /////++
7777
0000009400
206
SMAU40 AMMC 110600 CCB
AAXX 11064
94210 46/// /2212 10310 30073 40079=


0000096400
207
SMVS01 KWBC 110600
AAXX 11061
48914 32598 70703 10311 20186 30122 40124 57025 81208 333 58004
81895 87299=
48916 32698 70000 10287 20227 30084 40131 57009 875// 333 58005
87696=
48917 32598 73604 10294 20201 30123 40129 57019 82208 222// 00294
2//00 333 58005 82895 87299=
48918 32470 70905 10264 20216 30124 40135 57021 85208 222// 00253
2//03 333 58006 82894 83895 87299=
48919 32498 70509 10259 20237 30104 40126 57024 84208 22200 02260
2//04 333 58006 82894 84895 87299=
48870 01470 73603 10250 20202 30158 40165 58019 69933 70262 878//
333 59001 69901 83894 87696=
48920 12598 63604 10280 20251 30116 40119 58024 60083 868// 222//
00290 2//01 333 58005 82895 8469 7=
48877 32570 70506 10263 20210 30148 40153 58026 878// 333 59005
81895 87697=
48887 32572 70906 10275 20220 30115 40121 58030 84808 333 58003
81895 83697 85299=
48892 32598 60706 10302 20240 30115 40120 58028 83208 333 59002
83895 86299=
0000010000
208
SMAU40 AMMC 110600 CCC
AAXX 11064
94210 46/// /2212 10310 30073 40079 58022=


0000011000
209
UANT01 CWAO 110616
ARP QTR714 5803N04755W 0616 F330 MS59 261/53 KT
A7BBF QXS UAK 110616 F46A
0000257900
210
SMIR04 OIII 110600
AAXX 11061
40700 12960 32509 10018 21080 30104 40195 57011 60001 80005 333
30109 70000 83267 555 11012 29048=
40723 12960 60000 11008 21058 38995 40266 58007 60001 81046 333
30107 70000 81361 86267 555 11024 29069=
40726 11620 80000 11054 21068 38687 40298 52012 60011 77372 8352/
333 3/111 47010 70011 83635 88557 90768 93101 555 11056 29090=
40727 11550 70000 11060 21077 38501 40297 53007 60031 71077 86770 333
3/110 47012 5//// 70029 83720 83635 87459 90768 93106 555 11063
29088=
40734 12960 79901 10106 20063 30212 40186 56006 60001 82036 333 
31101 50091 70000 82360 87268 555 10086 29075=
40737 12560 61502 10078 20025 30173 40192 58005 60001 82536 333
30002 50171 70000 82630 84267 555 10056 29069=
40741 12960 40000 10097 21036 39904 40244 54000 60001 80001 333 
      30101 70000 84070 555 10048 29039=
40780 12660 71304 10036 20032 38682 40189 52011 60001 83570 333
32001 5//// 70102 83635 87459 555 10034 29097=
40791 12662 41502 10052 21026 39415 40262 51008 60001 82501 333
30103 50101 70000 82640 555 10023 29057=
40792 12970 40703 10020 21066 38760 40262 52011 60001 81032 333
31104 70000 81360 84070 555 11010 29053=
40794 11656 80904 10104 20096 30113 40213 51011 60111 76166 
8532/ 333 32010 50051 70298 82935 83640 88557 555 10100 
29095=
40812 11540 82302 10096 20096 39819 40202 53010 60221 76466 8432/ 
333 32007 50081 70273 83930 83635 88557 555 10096 29100=
40829 11957 41102 10049 21006 39697 40296 51012 60001 70510 80006
333 31108 5///1 70000 84269 555 10028 29068=
40833 11560 81207 10124 20101 30180 40212 53005 60211 72598 883// 
333 32010 50201 70275 83930 85635 555 10112 29086=
40835 11640 81303 10086 20061 39379 40207 52015 60041 76262 85320
333 32004 50121 70078 82935 83840 88557 555 10074 29084=
40845 11560 81207 10150 20128 30200 40205 52015 60143 72162 8592/
333 30014 50101 70139 82925 83640 88459 555 10138 29087=
40882 11550 80809 10132 20097 30183 40219 51008 60041 76186 8532/
      333 31011 50081 70044 81930 84725 88558 555 10114 29079=
40889 12660 80812 10206 20128 30226 40231 52030 60003 8342/ 222//
      00225 20604 333   30018 50571 70000 555 10162 29061=
40890 11540 80605 10206 20124 30212 40220 51023 60003 70522 8237/
      222// 00200 20303 333 30017 50381 70000 555 10160 29059=
40893 12560 70303 10172 20044 30230 40237 52020 60001 84470 222//
      00160 20501 30013 50501 70000 81925 84630 87359 555 10112
      29043=
40897 15960 50606 10176 21043 30231 40246 52032
60001 83036 333 30008 50321 70000 83358 85067= 

0000017200
211
SSVF50 LFPW 110350 RRA
ZZYY 62078 11014 0350/ 747239 002787 22219 00072 10802 20080
21008=
ZZYY 62067 11014 0350/ 746833 002295 22219 10602 20061 21008=
0000018000
212
SSVF50 LFPW 110410 RRA
ZZYY 61431 11014 0410/ 143411 004163 22219 00119 10401 20040
21003=
ZZYY 62068 11014 0410/ 748717 003961 22219 00109 11000 20100
21002=
00000000