0000050900
273
FTUS73 KWBC 102027 AAA
TAF AMD
KAPN 102023Z 1020/1118 15010KT 6SM BR OVC015
     FM110000 16009KT 3SM -SNPL BR OVC008
     FM110200 15009KT 2SM -FZRAPL BR OVC008 WS020/20040KT
     FM110500 14009KT 2SM -RA BR OVC005 WS020/20040KT
     FM111100 18005KT 3SM -DZ BR OVC005=
KPLN 102023Z 1020/1118 15008KT 5SM BR OVC012
     FM110100 13005KT 1SM -SNPL BR OVC005 WS020/20030KT
     FM110700 13006KT 2SM -FZRAPL BR OVC005 WS020/20030KT
     FM111000 16004KT 2SM -SNDZ BR OVC005=

0000032100
274
SANL31 EHDB 102025
METAR EHAM 102025Z 21014KT 9000 FEW009 BKN012 07/05 Q1014 NOSIG=
METAR EHBK 102025Z AUTO 22009KT 9999 NSC 04/02 Q1017 NOSIG=
METAR EHGG 102025Z AUTO 21008KT 9999 SCT011/// 05/04 Q1013 BECMG
7000=
METAR EHRD 102025Z AUTO 20013KT 170V240 7000 BKN009 OVC010 06/05
Q1015 NOSIG=

0000010500
275
SASN31 ESWI 102020 CCA
METAR COR ESMX 102020Z 27003KT 9999 FEW008 BKN019 01/M00 Q1002=

0000010100
276
SPCN44 CWAO 102025
SPECI CYTH 102025Z 08005KT 1/2SM R06/5500FT/D SN VV010 RMK SN8=

0000013300
277
SAAJ31 UBBB 102030
METAR UBBN 102030Z 25005KT 2700 BR OVC007 M09/M10 Q1027
R14R/CLRD60 NOSIG RMK MT OBSC QFE694=

0000013100
278
SAAE32 VTBB 111000
METAR VLLB 111000Z NIL=
METAR VLLN 111000Z NIL=
METAR VLPS 111000Z NIL=
METAR VLSK 111000Z NIL=

0000008600
279
SAIN90 VABO 111000
METAR VABO 111000Z 04009KT 4000 FU NSC 25/10 Q1013=
0000018800
280
FTUS52 KWBC 102027 AAA
TAF AMD
KANB 102025Z 1020/1118 08007KT 4SM -DZ BR BKN007 OVC015
      TEMPO 1020/1023 SCT007 BKN015
     FM110400 14010KT 2SM -RA BR OVC004=

0000025900
281
FTUS53 KWBC 102027 AAA
TAF AMD
KPLN 102023Z 1020/1118 15008KT 5SM BR OVC012
     FM110100 13005KT 1SM -SNPL BR OVC005 WS020/20030KT
     FM110700 13006KT 2SM -FZRAPL BR OVC005 WS020/20030KT
     FM111000 16004KT 2SM -SNDZ BR OVC005=

0000014000
282
FTUS54 KWBC 102027 AAA
TAF AMD
KSNA 102025Z 1020/1118 22006KT 5SM HZ FEW250
     FM110700 VRB03KT 4SM HZ VCFG SCT005=

0000073900
283
FTUS80 KWBC 102027 AAA
TAF AMD
KANB 102025Z 1020/1118 08007KT 4SM -DZ BR BKN007 OVC015
      TEMPO 1020/1023 SCT007 BKN015
     FM110400 14010KT 2SM -RA BR OVC004=
KAPN 102023Z 1020/1118 15010KT 6SM BR OVC015
     FM110000 16009KT 3SM -SNPL BR OVC008
     FM110200 15009KT 2SM -FZRAPL BR OVC008 WS020/20040KT
     FM110500 14009KT 2SM -RA BR OVC005 WS020/20040KT
     FM111100 18005KT 3SM -DZ BR OVC005=
KPLN 102023Z 1020/1118 15008KT 5SM BR OVC012
     FM110100 13005KT 1SM -SNPL BR OVC005 WS020/20030KT
     FM110700 13006KT 2SM -FZRAPL BR OVC005 WS020/20030KT
     FM111000 16004KT 2SM -SNDZ BR OVC005=
KSNA 102025Z 1020/1118 22006KT 5SM HZ FEW250
     FM110700 VRB03KT 4SM HZ VCFG SCT005=

0000010500
284
SPUS41 KWBC 102027
SPECI
KBED 102023Z 20003KT 7SM SCT012 BKN031 OVC038 01/M01 A3036=

0000011600
285
SPUS41 KWBC 102027
SPECI
KDOV 102023Z AUTO 06003KT 1/4SM R01/3500FT -RA FG VV002 04/04
A3033=

0000010200
286
SAMF20 TFFR 102030
METAR TFFR 102030Z 09013KT 9999 SCT036 SCT056 27/19 Q1015 NOSIG=

0000009800
287
SACA32 KWBC 102000 RRC
METAR
TKPN 102000Z 11017KT 9999 FEW019TCU 27/22 Q1015=

0000020100
288
SANL32 EHDB 102025
METAR EHEH 102025Z AUTO 22014KT 9999 OVC013 06/03 Q1016 
GRN 22008KT BKN011=
METAR EHKD 102025Z AUTO 22015KT 9000 BR SCT005 BKN007 OVC008 08/07
Q1013 
YLO=

0000010200
289
SPPR00 SPIM 102030
SPECI SPZA 102030Z 21012KT 160V270 8000 BLDU SCT120 31/19 Q1010=

0000023700
290
FTAU32 YBBN 102000 AAA
TAF AMD YBTL 102024Z 1020/1118
13012KT 9999 -SHRA FEW015 SCT030
FM110100 07016KT 9999 -SHRA SCT025 BKN045
FM111000 12012KT 9999 -SHRA SCT020 BKN040
INTER 1020/1110 4000 SHRA BKN016
RMK=

0000018600
291
SAUK31 EGGY 102020 CCA
METAR COR EGCC 102020Z 18012KT 9999 -RA FEW025 SCT033 BKN043 07/05
     Q1008 NOSIG=
METAR COR EGLL 102020Z 20008KT CAVOK 08/06 Q1013 NOSIG=

0000022500
292
FTUS51 KWBC 102024 AAA
TAF AMD
KBFD 102023Z 1020/1118 19007KT 3/4SM BR VCSH OVC002
     FM110400 16009KT 4SM -RA BR BKN006 OVC009 WS019/21048KT
     FM111100 17014G27KT 2SM RA BR OVC009 WS012/19049KT=

00000000