0000015800
073
SMCA01 TNCC 110600
78988 22481 21112 10258 20220 30133 40144 52010 60001 82100 
  333 59002 60007 82818=
78873 NIL=
78990 NIL=



0000012400
074
SMVS02 VNNN 110600
AAXX 11061
48892 32598 60706 10302 20240 30115 40120 58028 83208 333 59002 83895 86299=
0000138900
075
SMPO01 LPMG 110600
AAXX 11061
08501 12/// /3006 10097 20031 30036 40072 52026 60042
333  20096 31007 5//// 55027 20579 91010 91116=
08505 NIL=
08509 11459 83109 10132 20120 39965 40030 55005 69942 76086 8587/

  333 20127 50134 55000 83816 84636 86460 91016 91117=
08512 11370 72408 10159 20155 39955 40046 57011 60292 72586 878//
333  20139 30014 5//// 55010 20453 81708 84814 86635 91115=
08515 11260 82507 10157 20150 39955 40068 57016 60252 72065 888//
333  20140 31013 5//// 55015 20399 84706 87632 91012 91115=
08533 42/// /36// 1//// 2//// 3//// 4//// 5////
333  2//// 30/// 5//// 55000 2////=
08541 32/// /1003 10093 20074 30040 40160 57001
333  20084 30003 5//// 55034 20736=
08545 NIL=
08548 32/// /1401 10080 20080 39964 40171 52004
333  20080 30004 5//// 55042 20766=
08554 31565 40402 10123 20075 30154 40164 52006  70300 84530
333  20092 30012 5//// 55021 20587 84624=
08558 32/// /0102 10053 2//// 39869 40169 52003
333  20050 30001 5//// 55006 20731=
08560 NIL=
08567 32/// /0000 10049 20047 39507 40182 52006
333  20045 30003 5//// 55063 20812=
08570 32/// /0701 10070 20032 39711 40175 52007
333  20058 30000 5//// 55036 20646=
08575 32/// /3201 10018 20013 39363 40194 52009
333  20016 30101 5//// 55067 20806=
08579 32/// /9901 10089 20088 30039 40166 52004
333  20087 30007 5//// 55037 20696=
0000142500
076
SMJP01 RJTD 110600
AAXX 11064
47401 11/10 83009 11106 21134 30134 40149 53011 60031 78582 883//=
47412 11/65 42910 11062 21149 30155 40189 53011 69901 78588 84200=
47420 15/70 /2609 11043 21150 30110 40145 56002 60001=
47426 17/70 /2920 11036 21123 30121 40170 55001 69951 72470=
47582 11/60 73115 11001 21067 30211 40239 53005 60011 78582 873//=
47590 11/60 22911 10017 21052 30178 40233 53009 69901 72600 82301=
47600 17/70 /0103 10023 21001 30255 40264 53002 60021 76760=
47648 12/82 13304 10078 21056 30195 40230 56006 60001 81130=
47662 12/80 11103 10080 21081 30183 40228 55008 60001 81100=
47678 15/70 /2709 10081 21004 30053 40244 55009 60001=
47740 17/70 /3407 10055 20009 30241 40276 56004 69901 76160=
47778 15/70 /3209 10090 21049 30172 40257 55011 60001=
47807 12/75 23304 10071 21040 30276 40295 56015 60001 82201=
47827 12/65 71303 10108 20011 30237 40276 56023 60001 81830=
47843 15/67 /3610 10074 21001 30259 40292 56017 60001=
47893 12/75 21304 10098 21035 30260 40266 56015 60001 82130=
47909 12/65 60304 10154 20064 30262 40272 56015 60001 86230=
47918 12/80 20910 10217 20114 30214 40231 56023 60001 82400=
47936 12/80 50909 10192 20094 30193 40252 56017 60001 85400=
47945 12/70 60507 10171 20060 30231 40256 56014 60001 86830=
47971 12/70 73606 10158 20065 30227 40237 55002 60001 878//=
47991 16/// /0111 10223 20134 30161 40171 53004 60001=
0000197700
077
SMJP02 RJTD 110600
AAXX 11064
47407 11/20 62616 11079 21112 39987 40169 53008 60031 78588 86200=
47409 11/58 73006 11071 21120 30092 40148 53007 69901 78582 873//=
47418 12/70 62821 11035 21167 30103 40154 53002 60001 86200=
47421 17/36 /3114 11064 21121 30158 40204 53008 60011 77170=
47430 11/60 42913 11058 21106 30151 40208 53014 60021 78588 84300=
47570 17/70 /2708 10008 21042 39982 40250 53002 69901 72470=
47575 11/60 72708 11031 21074 30218 40223 53008 60021 72682 873//=
47584 11/65 32509 11009 21073 30024 40221 53003 69901 70281 83300=
47604 12/75 73208 10026 21039 30251 40258 55000 60001 872//=
47605 11/60 72007 10028 20005 30223 40266 53002 60061 72582 872//=
47610 11/75 70509 10018 21058 39731 40248 55000 69901 72681 872//=
47624 12/80 43605 10068 21091 30084 40225 55006 60001 84800=
47629 12/80 12706 10081 21093 30187 40225 55009 60001 81100=
47636 11/65 53212 10065 21019 30188 40258 55008 69901 70281 85830=
47651 12/75 73108 10075 21049 30237 40260 55007 60001 87200=
47655 15/70 /2717 10078 21025 30176 40234 55011 60001=
47675 15/70 /2004 10080 21007 30133 40226 55005 60001=
47741 11/75 72207 10041 20003 30261 40289 55000 69901 78082 872//=
47746 11/65 71309 10030 20009 30264 40284 56004 69901 78082 87200=
47750 17/70 /2709 10045 20008 30252 40281 55000 69901 76760=
47765 12/75 23509 10083 21048 30217 40284 56014 60001 82200=
47772 12/75 23105 10085 21050 30167 40269 55009 60001 82800=
47800 15/68 /3307 10059 21043 30289 40294 56020 60001=
47815 12/70 20107 10092 21009 30266 40283 56016 60001 81130=
47817 12/65 73303 10076 21019 30243 40288 56021 60001 878//=
47830 12/70 11307 10101 21010 30256 40274 56018 60001 81800=
47887 12/65 32905 10075 21036 30244 40287 56012 60001 83200=
47891 12/70 43107 10077 21038 30265 40282 56010 60001 84200=
47895 12/80 22910 10080 21048 30265 40273 56011 60001 82200=
47927 12/80 31209 10209 20104 30188 40237 56021 60001 82230=
0000015000
078
SMSP01 LEMM 110600 RRB
AAXX 11064
08023 12560 71304 10113 20110 30112 40183 51005 60002 8357/
  333 20113 30011 50153 55022 70000=
0000014700
079
SMCA01 TNCC 110600
78988 22481 21112 10258 20220 30133 40144 52010 60001 82100
  333 59002 60007 82818=
78873 NIL=
78990 NIL=
0000091800
080
SMIR05 OIII 110600
AAXX 11061
40716 12960 70000 11054 21090 38952 40284 52005 60001 80002 333
30110 70000 87068 555 11062 29076=
40719 11425 70000 10046 20041 30195 40184 58006 60001 71020 86370
333 30102 50091 70000 81915 85725 87359 555 10044 29097=
40721 12960 61411 10102 21080 39652 40200 56002 60001 80002 333
      30005 50621 70000 86070 555 10040 29027=
40858 11580 81505 10158 20063 30186 40197 52012 69921 72162 8492/
333 31008 50641 70014 81930 83640 88459 555 10112 29053=
40872 11558 81208 10180 20118 30207 40212 51021 69941 72162
8592/ 222// 00/// 20302 333 32010 50171 70006 82925 83630
88459 555 10146 29067=
40877 12660 70000 10102 20039 39657 40216 52019 60001 83420 333
      31003 50181 70000 83640 85459 555 10074 29065=
40898 12965 60903 10170 21062 30231 40241 51021 60001 80006 222//
      00223 10700 333 30008 50311 70000 86269 555 10083 29020=
0000011100
081
UANT99 KDDL 110616
ARP DAL264 5717N03739W 0616 F350 MS58 240/38 KT
N803NW DDL XXW 110617 J40A
0000016300
082
FCIN90 VIDP 110600
TAF VIDP 110600Z 1109/1118 31008KT 3200 HZ NSC
     BECMG 1115/1117 25003KT 1200 BR
     BECMG 1119/1121 VRB02KT 0400 FG=

0000010800
083
SMIN90 VEPT 110600 RRB
AAXX 11064
42798 31994 00504 10234 20126 40158 70400
  333 59003=
0000009500
084
SAIN90 VEGT 110600
METAR VEGT 110600Z 02004KT 2000 HZ SCT100 22/14 Q1017 NOSIG=
0000011100
085
UANT99 KDDL 110617
ARP UAL952 5600N01925W 0616 F350 MS58 234/64 KT
N642UA DDL XXW 110617 F53A
0000010900
086
UANT99 KDDL 110617
ARP EDW5L 4755N03557W 0616 F380 MS51 238/37 KT
HBJHQ QXT AOW 110617 J64A
0000011000
087
UANT99 KDDL 110617
ARP UAL25 5201N01633W 0616 F390 MS53 245/47 KT
N13113 DDL IG1 110617 F37A
0000011000
088
UANT99 KDDL 110617
ARP ACA846 5149N03629W 0617 F360 MS55 228/28 KT
CGFAJ DDL XXW 110617 J93A
0000011000
089
UANT99 KDDL 110617
ARP UAL36 5358N02024W 0617 F370 MS61 231/73 KT
N21108 DDL IG1 110617 F90A
0000036400
090
SMCM01 FKKD 110600
AAXX 11064
64860 32960 70000 10160 20058 39874 40148 80002
  333 00800 20154 50871 55/// 58005 87080=
64861 NIL=
64870 NIL=
64871 NIL=
64892 NIL=
64893 NIL=
64894 NIL=
64910 31415 70000 10248 20244 30105 40114 71022 81502
  333 02300 20231 50301 55/// 58003 81616 87080=
64911 NIL=
64950 NIL=
64851 NIL=
0000024100
091
SOAT10 KWAL 110618
FA8005BC 011061837 OT12 ID:KN-BASS-01 DT:2014 01 11 06 16
:RD -3166 -3172 -3137 -3144 -3122 -3136 -3191 -3182 -3198 -3131
:PR 0491 0557 0507 0547 0495 0485 0520 0527 0502 0444
:B 13.7V
 46+1NN 219E
0000066000
092
SMMO01 MNUB 110600
AAXX 11061
44214 32998 32706 11127 21255 38337 40426 58013 80008
333 91110 91207=
44231 31998 70000 11137 21244 38792 40417 57013 70421
80009 333 91201=
44259 32997 20306 11153 21243 39387 40356 53018 82030
333 91206=
44277 32999 02001 11130 21273 37857 40458 58012 333
91202=
44288 32999 01602 11103 21163 38226 40409 57011 333
91204=
44292 31995 02504 11198 21247 38791 40476 58007 70400
333 91205=
44304 32999 22906 11102 21165 39056 40354 58008 81041
333 91206=
44354 32999 03104 11067 21207 39194 40367 52001 333
91207=
44373 32699 13105 11098 21189 38622 40395 58006 81100
333 91208=
00000000