0000010200
893
SPUS41 KWBC 102052
SPECI
KBAF 102048Z 22003KT 3SM BR SCT018 OVC090 M01/M03 A3035=

0000009300
894
SPUS42 KWBC 102052
SPECI
KPNS 102048Z 00000KT 2SM BR OVC003 16/14 A3002=

0000054800
895
SADR31 MDSD 102100
METAR
METAR MDPP 102100Z 09014KT 9999 SCT020 28/22 Q1017=
METAR MDST 102100Z 16006KT 9999 SCT018 24/22 Q1018 RERA=
METAR MDPC 102100Z 10012KT 9999 FEW022 SCT080 26/22 Q1017=
METAR MDBH 102100Z 13015KT 9999 FEW022 29/22 Q1015= 
METAR MDJB 102100Z 06010KT 9999 SCT020 29/22 Q1017 NOSIG=
METAR MDSD 102100Z 08010KT 9999 SCT022 31/24 Q1015=
METAR MDLR 102100Z 05018KT 9999 SCT022 27/20 Q1016=
METAR MDCY 102100Z 09010KT 9999 SCT018 27/23 Q1017=
METAR MDAB 102100Z 13005KT 9999 SCT020 27/24 Q1017=

0000009800
896
SAPM31 MPTO 102100
METAR 
MPTO 102100Z 05003KT 9999 SCT020 32/20 Q1007 NOSIG=

0000010100
897
SPKO31 RKSI 102048
SPECI RKTU 102048Z 07001KT 4000 BR BKN040 M07/M08 Q1032 NOSIG =

0000017300
898
SAVN24 SVMG 102100
METAR SVMG 102100Z /////KT 9999 SCT010 28/21 Q1012 NOSIG=
METAR SVCU 102100Z NIL=
METAR SVCP 102100Z NIL=
METAR SVGI 102100Z NIL=

0000009900
899
SPCN48 CWAO 102051
SPECI CYBX 102051Z 27010KT 15SM -SN SCT050 BKN100 RMK SC4AC3=

0000109600
900
SAMX45 MMMY 102052
METAR MMMY 102043Z 09006KT 7SM  FEW160 SCT250 25/12 A2981 
      RMK SLP097 58029 992 8/072 HZY=
METAR MMAN 102042Z 12009KT 7SM  FEW200 27/15 A2985 
      RMK SLP076 57024 993 8/001 HZY=
METAR MMMA 102040Z 16014G24KT 7SM  FEW020 25/19 A2985 
      RMK SLP149 56024 984 8/100 BLDU=
METAR MMIO 101940Z 26008KT 10SM SKC 27/14 A3006 RMK PRESFR=
METAR MMRX 102041Z 21010KT 10SM  SKC 27/14 A2981 
      RMK SLP096 57030 983 HZY FU=
METAR MMNL 102040Z 31006KT 10SM  BKN230 25/12 A2984 
      RMK SLP130 58031 992 8/002=
METAR MMCV 102042Z 18009G19KT 8SM  SKC 26/14 A2978 
      RMK SLP084 57038 992 HZY BLDU CU W ISOL AC CI=
METAR MMTC 102043Z 00000KT 10SM SCT120 BKN250 22/M04 A2998
      RMK SLP114 55027 964 8/072=
METAR MMMV 102040Z 25015KT 8SM BKN080 26/// A2986 RMK 8/070 HZY=
METAR MMCU 102040Z 22005KT 10SM SCT200 20/M01 A3001 RMK
      SLP108 57042 960 8/001=
METAR MMPG 102040Z 00000KT 8SM SCT100 BKN200 21/13 A2985
      RMK 8/071 HZY=
METAR MMCS 102040Z 27010KT 10SM SKC 17/M01 A2996 RMK SLP086 57022
      073=

0000011100
901
SABW31 VGHS 102050
METAR VGHS 102050Z 00000KT 0500 FG BKN005 14/12 1014 TEMPO S/VIS
0300M=

0000069100
902
SAUK20 EGGY 102050
METAR EGRE 102050Z AUTO 07020KT 9999 FEW027/// SCT032/// BKN041///
     05/M02 Q0998 W///S5=
METAR EGRK 102050Z AUTO 25019KT 9999 RA FEW014/// SCT035/// 07/03
     Q0999 RESN W///S4=
METAR EGRM 102050Z AUTO 26024KT 9999 SCT019/// 07/05 Q1001 W///S4=
METAR EGRO 102050Z AUTO 27022KT //// // ///////// 08/05 Q1002 W///S4=
METAR EGRP 102050Z AUTO 25019G29KT 210V310 9999 SCT011/// BKN017///
     ///// Q1003 RERA W///S4=
METAR EGRS 102050Z AUTO 26023KT 9999 SCT012/// BKN028/// BKN038///
     08/06 Q1004 W///S4=
METAR EGRV 102050Z AUTO 23026KT 9999 NCD 07/06 Q1009 W///S4=
METAR EGRW 102050Z AUTO 21025KT 9999 NCD 08/06 Q1010 W///S3=

0000052200
903
SAUK21 EGGY 102050
METAR EGRF 102050Z AUTO 27027KT 9999 FEW017/// BKN025/// 06/02 Q0996
     RERA W///S5=
METAR EGRG 102050Z AUTO 09020KT 9999 BKN015/// 05/02 Q0997 RERA
     W///S5=
METAR EGRI 102050Z AUTO 25023KT 9999 FEW027/// 08/02 Q0997=
METAR EGRL 102050Z AUTO 26015G26KT 190V120 9999 FEW016/// SCT042///
     07/04 Q1000 W///S4=
METAR EGRN 102050Z AUTO 25026KT 9999 SCT008/// SCT024/// 08/06 Q1004
     RERA=
METAR EGRT 102050Z AUTO /////KT 9999 RA FEW029/// 07/04 Q1009 W///S4=

0000012400
904
SALV31 EVRA 102050
METAR EVRA 102050Z 31015G25KT 270V350 9999 -RA OVC009 03/02 Q0993 
R36/290158 NOSIG=

0000016300
905
SAFA31 EKCH 102050
METAR EKVG 102050Z AUTO 00000KT 9999NDV SCT029/// BKN085///
02/02 Q0995 RMK SCT030/// BKN094/// WIND 850FT 20005KT 160V230=

0000011800
906
SAEO31 EETN 102050
METAR EETN 102050Z 35012KT 320V020 9999 OVC009 01/M01 Q0991 
R08/290195 NOSIG=

0000009600
907
SPCN43 CWAO 102047
SPECI CYEN 102047Z 31014KT 5SM -SN BR DRSN OVC015 RMK SC8=

0000004600
908
SAMX31 KWBC 102045 RRA
NIL=

0000011100
909
SALT32 EYVI 102050
METAR EYKA 102050Z 28018KT 250V310 9999 OVC015 03/M00 Q0997
R08/290095=

0000008900
910
SABZ24 SBFI 102100
METAR SBFI 102100Z 33003KT 9999 FEW040 30/22 Q1009=

0000013100
911
SAAU32 YBBN 102030 RRA
METAR YPGV 102030Z 13007KT 9999 VCSH FEW010 SCT120 OVC150 25/24 Q1007
RMK SHAR TO EAST=

0000009300
912
SAAI41 FHAW 102050
METAR FHAW 102050Z 13011KT 9999 FEW022 24/19 Q1014 BLU=

00000000