0000047300
553
SZPA01 AMMC 110600
CREX++
T000103 A001 D01021 D06025++
0136250 17293000 67590 2014 01 11 05 53 3015 11 07 00 01
01547 -0027 01554 -0017 01555 -0012 01554 -0010 01539 -0021 01552 -0005+
0710610 17137250 67680 2014 01 11 05 53 3013 11 07 00 01
01019 0100 01026 0109 01016 0102 01016 0104 01022 0113 01017 0111+
0698060 15820000 67950 2014 01 11 05 53 3023 11 07 00 01
00785 0001 00788 0006 00785 0005 00782 0004 00782 0006 00781 0007++
7777

0000179500
554
SZPS01 AMMC 110600
CREX++
T000103 A001 D01021 D06025++
-0204190 14737360 56130 2014 01 11 05 53 3028 11 07 00 01
01129 0084 01121 0077 01123 0080 01121 0079 01118 0077 01115 0075+
-0669280 15640860 56363 2014 01 11 05 53 //// 11 07 00 01
00731 -0085 00725 -0088 00722 -0089 00717 -0091 00713 -0093 00712 -0091+
-0942890 15995560 56670 2014 01 11 05 53 3043 11 07 00 01
00837 -0050 00837 -0049 00835 -0050 00837 -0047 00835 -0049 00829 -0053+
-1072080 16580190 57131 2014 01 11 05 53 //// 11 07 00 01
03381 2632 03379 2633 03380 2638 03378 2639 03381 2646 03381 2649+
-1551560 16718860 57210 2014 01 11 05 53 //// 11 07 00 01
00987 -0066 00970 -0080 00972 -0073 00972 -0070 00955 -0083 00970 -0064+
-1775690 16830030 57320 2014 01 11 05 53 3015 11 07 00 01
01070 -0046 01068 -0045 01064 -0046 01059 -0048 01053 -0050 01049 -0051+
-4397330 16861610 65180 2014 01 11 05 53 2888 11 07 00 01
02046 0342 02056 0346 02057 0343 02054 0335 02069 0345 02076 0348+
-2120470 -15978530 65980 2014 01 11 05 53 3013 11 07 00 01
00739 0033 00694 -0010 00760 0058 00669 -0031 00706 0008 00713 0016+
-2113810 -17518140 66600 2014 01 11 05 53 //// 11 07 00 01
01261 0095 01265 0103 01251 0093 01254 0101 01244 0095 01239 0094+
-1382670 -17176110 66840 2014 01 11 05 53 3012 11 07 00 01
00788 0042 00781 0038 00787 0047 00779 0043 00782 0049 00775 0045+
-1813250 17842750 67050 2014 01 11 05 53 3032 11 07 00 01
01458 0104 01449 0099 01440 0094 01438 0098 01440 0104 01437 0105+
-1760530 17743810 67070 2014 01 11 05 53 3033 11 07 00 01
01491 0018 01486 0019 01480 0018 01476 0019 01470 0019 ///// ////+
-0850250 17919500 67440 2014 01 11 05 53 3030 11 07 00 01
01995 -0003 01984 -0010 01982 -0008 01980 -0005 01980 -0001 01975 -0002++
7777

0000009200
555
SAIN90 VOML 110600
METAR VOML 110600Z 32005KT 8000 FEW020 29/20 Q1014 NOSIG=
0000008100
556
SAIN90 VOHB 110600
METAR VOHB 110600Z 10005KT CAVOK 26/16 Q1019=

0000012200
557
SMIN90 VOBL 110600
AAXX 11064
43293 32496 01405 10277 20163 39170 48555
  333 58005 81015 8/0// 8/1//=
0000011000
558
SMIN90 VOMM 110600
AAXX 11064
43278 32597 51802 10284 20205 30153 40160 84401
  333 58009=
0000013400
559
SMIN90 VOHY 110600
AAXX 11064
43128 31496 61603 10246 20198 39547 40152 70522 84530
  333 56390 59005 84615 85360=
0000010000
560
SAIN90 VIPT 110600
METAR VIPT 110600Z 09002KT 5000 HZ FEW020 BKN090 16/11 Q1019 =

0000191300
561
SZAU01 AMMC 110600
CREX++
T000103 A001 D01021 D06025++
-1927750 14705860 59260 2014 01 11 05 53 3030 11 07 00 01
01922 0208 01943 0223 01939 0214 01941 0210 01947 0210 01954 0211+
-2316110 15079000 59670 2014 01 11 05 53 3002 11 07 00 01
02675 0105 02681 0102 02689 0101 02694 0096 02703 0095 02710 0094+
-3447330 15091170 60420 2014 01 11 05 53 2953 11 07 00 01
01018 -0024 01020 -0023 01023 -0022 01026 -0020 01033 -0015 01035 -0015+
-4105000 14591500 60910 2014 01 11 05 53 2893 11 07 00 01
01256 -0012 01268 -0009 01275 -0014 01279 -0019 01288 -0020 01303 -0016+
-4254640 14793080 61170 2014 01 11 05 53 2895 11 07 00 01
01222 0054 01226 0057 01231 0061 01231 0059 01235 0062 01237 0063+
-3834390 14161360 61410 2014 01 11 05 53 2905 11 07 00 01
00388 0013 00400 0024 00430 0052 00398 0019 00460 0080 00383 0002+
-3214890 13364170 62000 2014 01 11 05 53 2963 11 07 00 01
01073 0175 01075 0174 01079 0175 01081 0175 01081 0172 01085 0173+
-3387080 12189720 62080 2014 01 11 05 53 2948 11 07 00 01
00798 0108 00797 0106 00799 0108 00796 0104 00785 0093 00778 0085+
-3182560 11573860 62237 2014 01 11 05 53 2970 11 07 00 01
00873 0110 00878 0114 00877 0112 00867 0102 00867 0101 00864 0097+
-2422000 11339750 62385 2014 01 11 05 53 //// 11 07 00 01
01141 -0058 01145 -0055 01159 -0043 01155 -0048 01106 -0099 01125 -0082+
-2181670 11419110 62430 2014 01 11 05 53 //// 11 07 00 01
01683 -0032 01684 -0033 01693 -0026 01677 -0044 01694 -0029 01698 -0028+
-1800080 12221830 62650 2014 01 11 05 53 3043 11 07 00 01
05095 0174 05100 0169 05106 0169 05110 0165 05115 0162 05121 0161+
-1247190 13084580 63230 2014 01 11 05 53 3050 11 07 00 01
05550 0119 05548 0118 05551 0122 05552 0123 05552 0126 05549 0123+
-1386000 13641580 63511 2014 01 11 05 53 3045 11 07 00 01
01492 0058 01495 0059 01498 0061 01501 0063 01504 0064 01506 0065++
7777

0000015400
562
SMFG01 SOCA 110600
AAXX 11064
81405 04361 82503 10222 20212 30103 40112 60021 761//
  333 3/023 55013 60027 58002 70117
  555 60025=
0000021900
563
SMGY01 SYCJ 110600
AAXX 11060 
81001 NIL=
81002 11458 30000 10206 20203 40122 60001 83202 333
       31/// 59007 83815=
81005 NIL=
81006 NIL=
81010 NIL=
81058 NIL=
81080 NIL=
81100 NIL=
0000340100
564
SMDL01 EDZW 110600
AAXX 11061
10004 NIL=
10015 01241 82309 10068 20058 30080 40090 56014 69902 71062 886//
  222// 06070
  333 10073 20065 31006 55010 55300 20000 30000 69907 79999 88705
      91115 91211=
10020 05259 72309 10072 20066 30035 40067 56017 69912
  333 10073 20062 3/005 55000 55300 20000 30000 69917 70004 86/03
      87/07 87/25 91113=
10035 01240 82407 10063 20053 30028 40087 57012 60012 71062 877//
  333 10065 20051 31005 55006 55300 20000 30000 41230 69907 70014
      87706 91113=
10055 01350 82307 10059 20052 30082 40092 56012 69902 75162 877//
  333 10061 20053 31004 55026 55300 20000 30000 69907 79999 87707=
10147 01356 82206 10057 20043 30095 40114 56013 69902 72162 876//
  333 10063 20055 31004 55002 55300 20000 30000 41231 69907 70012
      87709 96010=
10162 17344 72205 10048 20037 30037 40110 56012 69912 71000
  333 10056 20043 3/003 55005 55300 20000 30000 70014 87/09=
10184 11459 72303 10047 20031 30101 40109 56007 69942 70282 875//
  333 10063 20045 31003 55000 55300 20000 30000 70007 85614 83633=
10200 07338 82106 10058 20047 30110 40108 56012 69902 75765
  333 10068 20053 3/004 55034 55300 20000 30000 69907 79999 88/07=
10224 01459 82105 10052 20039 30113 40119 57014 69902 72162 886//
  333 10060 20037 31002 55014 55300 20000 30000 69907 70002 87710=
10270 16960 82103 10043 20026 30084 40140 58009 60002
  222// 06039
  333 10057 20032 3/001 55001 55300 70002 88/64 88/66=
10338 12968 42203 10040 20025 30066 40140 56013 60002 81031
  333 10065 20038 31002 55006 55300 20000 30000 79999 81361 84077=
10361 12975 62102 10033 20014 30044 40150 56010 60002 85031
  333 10056 20028 31100 55020 55300 20000 30000 70001 85362=
10393 12670 42304 10035 20017 30020 40149 57004 60002 84500
  333 10062 20033 31002 55001 55300 20000 30000 79999 84646=
10400 12981 21605 10020 20007 30105 40156 57013 60002 80001
  333 10057 20015 31102 55048 55300 20000 30000 70000 82074=
10469 12786 51805 10017 20003 39998 40167 56008 60002 85501
  333 10043 20016 31000 55040 55300 70000 85656=
10488 12782 22305 10028 20001 39888 40175 55005 69902 81501
  333 10052 20023 31100 55001 55300 20000 30000 40912 79999 81650=
10506 12178 72003 10029 20023 39575 40166 57010 60002 8487/
  333 10029 20006 31101 55016 55300 20000 30000 70001 82803 83650
      87358=
10548 11/02 91502 11001 21002 39631 40188 57006 60002 74940
  333 10041 21011 31102 55027 55300 20000 30000 79999=
10637 11005 81901 10001 21002 30036 40178 58010 60002 74844 8665/
  333 10059 21017 31104 55037 55300 70000 86701 87361=
10685 12962 62202 10007 21002 39493 40182 56006 69902 80004
  333 10027 20003 31101 55009 55300 20000 30000 79999 86080=
10738 11562 71401 11013 21014 39709 40195 56009 60002 71111 8157/
  333 10037 21023 31106 55059 55300 70000 81630 83358 85362=
10763 11975 01202 11021 21021 39801 40199 56007 60002 71100
  333 10046 21031 31104 55016 55300 20000 30000 79999=
10788 17941 00702 11025 21025 39765 40215 56005 60002 71030
  333 10031 21035 3/106 55035 55300 20000 30000 79999=
10852 17933 81401 11019 21019 39615 40205 58009 60002 72030
  333 10016 21025 3/105 55026 55300 20000 30000 70000 84/62 86/69
      88/72=
10946 17977 71301 10021 20021 39347 40192 56011 69902 70030
  333 10030 21011 3/102 55005 55300 20000 30000 70004 84/59 87/61=
0000011100
565
UANT99 KDDL 110558
ARP UAL952 5605N02359W 0558 F350 MS58 230/61 KT
N642UA DDL XXW 110558 F49A
0000011100
566
UANT99 KDDL 110558
ARP DAL264 5650N04207W 0558 F350 MS61 278/27 KT
N803NW DDL XXW 110558 J34A
0000011000
567
UANT99 KDDL 110558
ARP DLH441 5501N01920W 0558 F380 MS55 245/69 KT
DAIMH QXT EUA 110558 J21A
0000010900
568
UANT99 KDDL 110558
ARP EDW5L 4707N03926W 0558 F380 MS53 290/38 KT
HBJHQ QXT AOW 110559 J62A
0000011000
569
UANT99 KDDL 110558
ARP DLH491 5606N01528W 0558 F370 MS53 245/66 KT
DAIKI QXT EUA 110559 J47A
0000011000
570
UANT99 KDDL 110559
ARP ACA846 5059N04010W 0559 F360 MS56 293/27 KT
CGFAJ DDL XXW 110559 J90A
0000011000
571
UANT99 KDDL 110559
ARP AFR639 5059N01617W 0559 F350 MS63 245/62 KT
FGZND DDL BYT 110559 F36A
0000011000
572
UANT99 KDDL 110559
ARP UAL36 5338N02434W 0559 F370 MS58 219/57 KT
N21108 DDL IG1 110559 F89A
00000000