0000011100
173
UANT99 KDDL 111016
ARP DAL177 5401N01923W 1016 F340 MS64 228/84 KT
N1604R QXT AOE 111016 F81A
0000072700
174
UDAS02 BABJ 111008
AMDAR 1110
LVR CNFNXP 3115N 11720E 110958 F341 MS428 260/141 TB/ S//1=
LVR CNFNXP 3138N 11721E 111001 F341 MS436 259/134 TB/ S//1=
LVR CNFNXP 3200N 11721E 111004 F341 MS454 262/123 TB/ S//1=
LVR CNFNXP 3222N 11720E 111007 F341 MS463 262/117 TB/ S//1=
DES CNFOZL 2206N 11310E 111004 F046 PS120 079/008 TB/ S//1=
DES CNFOZL 2204N 11311E 111005 F041 PS133 081/009 TB/ S//1=
DES CNFOZL 2159N 11311E 111006 F036 PS144 084/007 TB/ S//1=
DES CNFOZL 2155N 11311E 111007 F030 PS120 062/006 TB/ S//1=
DES CNFLWM 2226N 11304E 111005 F107 PS056 281/019 TB/ S//1=
DES CNFLWM 2227N 11310E 111006 F097 PS063 262/015 TB/ S//1=
DES CNFLWM 2228N 11315E 111007 F087 PS041 216/004 TB/ S//1=
0000011100
175
UANT99 KDDL 110605
ARP UAL987 5505N02530W 0603 F330 MS59 238/78 KT
N646UA DDL XXW 110605 F68A
0000011100
176
UANT99 KDDL 110605
ARP UAL161 5358N02004W 0605 F370 MS61 233/77 KT
N34137 DDL IG1 110605 F68A
0000014500
177
SSVX05 CWAO 110600
ZZYY 48506 11014 0600/ 785698 128095 6113/ 11131 
11150 49960 52002 444 20130 11014 0600/ 50000 80140 80001=
0000014500
178
SSVX05 CWAO 110600
ZZYY 48529 11014 0600/ 775096 151475 6113/ 11119 
11301 40030 444 20130 11014 0600/ 50101 89990 80001 9////=
0000013900
179
SSVX05 CWAO 110600
ZZYY 48739 11014 0600/ 771703 171912 6113/ 11119 
11247 40161 444 20130 11014 0600/ 50400 89990 80001=
0000014500
180
SSVX05 CWAO 110600
ZZYY 48726 11014 0600/ 775909 126062 6113/ 11133 
11229 49822 57029 444 20130 11014 0600/ 50000 80140 80001=
0000014500
181
SSVX05 CWAO 110600
ZZYY 48730 11014 0600/ 780684 140472 6113/ 11119 
11263 49906 57022 444 20130 11014 0600/ 50000 80140 80001=
0000039100
182
SMVD15 KWNB 110600 RRE
BBXX
41036 11061 99342 70769 46/// /1811 10221 20200 40186 58025 90550
22200 00209 10805 20805 312// 41202 70025 333 91214 555 11122
22132 30511 41715 60549 180114 181118 176111 171120 174117 184107=
41043 11061 99211 70650 46/// ///10 1//// 40199 58011 90550 22200
00264 11005 20704 309// 41003 70027 333 91212 555 11109 22117
8//12 90511=
0000013200
183
SMCS01 MROC 110603
AAXX 11064
78762 32970 00910 10295 20132 39127 40108 57005
333   10281 20196 30/// 58002=
=
0000034300
184
SNVD15 KWNB 110400 RRT
BBXX
42369 11041 99272 70903 46/// /1506 1//// 90400=
42375 11041 99285 70883 46/// /1410 1//// 90400 22200 10401 70007
555 11084 22091=
42392 11041 99272 70900 46/// ///// 1//// 90400 22200 10502 70008=
42887 11041 99282 70885 46/// /1707 10223 20208 90400 22200 10602
70009 555 11062 22067=
0000027500
185
SXHW11 KWAL 110607
15D142A4 011060702 :PRS 1 #1 1305 1292 1300 1295 1290 1303 1300 1298 1292 1293 :RAD 1 #1 6884 6880 6880 6877 6878 6884 6881 6881 6879 6878 :ENC 2 #5 4783 4783 4785 4781 :SW1 7 #60 0 :SW2 37 #60 50 :BAT 4 #5 13.0 :NAME 15D142A4  35+0NN 216W
0000034700
186
SMVD17 KWNB 110600 RRE
BBXX
46076 11061 99595 71480 46/// /3203 10023 49908 56014 90550 22200
00062 11004 20401 3//// 41004 70018 333 91204 555 11028 22028
30528 43205 60549 319029 322033 303037 287034 277034 271032 83205
90529=
52202 11061 99137 11448 46/// ///// 1//// 90600 22200 00283 10705
20704 304// 41101 70023=
0000013300
187
SMTV01 NGFU 110600
AAXX 11064
91648 11498 83009 10290 20255 40048 54003 60001 70222 83207 333
567/9 83819 88460=

---
0000011200
188
SMKB02 NGTT 110600
AAXX 11064
91490 11599 21114 10261 2022/ 40087 60001 70250 82100 333 562//=


0000067100
189
SAAE31 VTBB 110600
METAR VTBS 110600Z 07013KT 030V110 CAVOK 30/15 Q1015 NOSIG=
METAR VTBD 110600Z 10008KT 070V130 9999 FEW030 SCT300 31/18 Q1014
NOSIG=
METAR VTCC 110600Z 18006KT 9000 FEW040 28/16 Q1018 A3006 NOSIG=
METAR VTBU 110600Z 23008KT 8000 FEW025 SCT300 31/19 Q1013 A2993=
METAR VTSS 110600Z 08014KT 9999 SCT018 BKN120 BKN300 30/21 Q1012
           A2990 NOSIG=
METAR VTSP 110600Z 09013KT 9999 FEW025 SCT300 31/20 Q1012 A2988
           NOSIG=
METAR VLVT 110600Z NIL=
METAR VYMD 110600Z NIL=
METAR VYYY 110600Z NIL=
METAR VDPP 110600Z 02012KT CAVOK 31/16 Q1011=
METAR VDSR 110600Z 22004KT 180V270 CAVOK 30/18 Q1012 NOSIG=
0000009300
190
SAAE31 VTBB 110600 RRA
METAR VLVT 110600Z 22004KT 7000 NSC 27/17 Q1016 NOSIG=
0000015700
191
SMBR01 TBPB 110600
AAXX 11064
78954 11470 40615 10247 20203 30077 40142 6///1 71582 84800
  333 10282 20226 59003 83816 90914 =



0000013800
192
SNVD22 KWNB 110500 RRW
BBXX
46242 11051 99332 71174 46/// ///// 1//// 90527 22200 00153 11101
20701 324// 41101 70006=
00000000