0000052400
186
SAKO31 RKSI 110700
METAR RKSI 110700Z 21005KT 9999 SCT040 BKN180 01/M12 Q1031 NOSIG=
METAR RKSS 110700Z 28003KT 9999 FEW030 BKN200 02/M20 Q1031 NOSIG =
METAR RKPC 110700Z 03003KT 9999 FEW030 06/M06 Q1030 NOSIG =
METAR RKPK 110700Z 28006KT CAVOK 06/M08 Q1029 NOSIG =
METAR RKTU 110700Z 25007KT 9999 SCT040 BKN230 02/M14 Q1031 NOSIG =
METAR RKTN 110700Z 32008KT CAVOK 05/M09 Q1029 NOSIG =
METAR RKJB 110700Z 35007KT 9999 FEW035 SCT180 04/M05 Q1031 NOSIG =
METAR RKNY 110700Z 26014KT CAVOK 03/M18 Q1026 NOSIG =

0000011100
187
UGIN90 VOMM 110600
PPBB 61061 43185 90012 13506 12509 11513
9037/ 11515 11009 912// 09003=

0000008900
188
SAIN90 VOMM 110700
METAR VOBZ 110700Z 18002KT 4000 HZ SCT020 30/19 Q1014=
0000011500
189
UGIN21 DEMS 110600 RRC
PPBB 61061 43185 90012 13506 12509 11513
9037/ 11515 11009 912// 09003=

0000008900
190
UPIN02 DEMS 110600 RRD
PPAA 61061 43185 55392 11515 12513 10511 77999=

0000068600
191
SAIR31 OIII 110700
METAR OIAW 110700Z 11008KT 7000 FEW030CB SCT025 OVC090 12/09
 Q1019=
METAR OIFM 110700Z 33004KT 0800 FG SCT040 OVC100 M01/M01 Q1021
      A3016=
METAR OIII 110700Z 24008KT 8000 FEW040 SCT100 OVC200 03/M06 Q1023
 A3021 TEMPO FEW035CB SCT030 BKN100=
METAR OIKB 110700Z 32004KT 7000 -RA FEW015 FEW025CB SCT030 OVC080
14/08 Q1023 A3022 NOSIG=
METAR OIKK 110700Z NIL=
METAR OIMM 110700Z 10006KT 9999 FEW035 SCT180 06/M11 Q1021 A3017=
METAR OISS 110700Z 19004KT 2500 BR FEW030CB FEW035 OVC080 03/00
Q1023 A3023=
METAR OITT 110700Z 02004KT 6000 FEW035 BKN180 M07/M12 Q1023 A3021=
METAR OIZH 110700Z 17008KT 9999 FEW035 BKN200 05/M03 Q1023 A3022
      NOSIG=

0000058100
192
SAIR32 OIII 110700
METAR OIAA 110700Z 18014KT 1500 -SHRA SCT035CB FEW040 
BKN090 14/13 Q1019=
METAR OIBK 110700Z 09014KT 7000 -RA FEW030CB FEW025 OVC080 14/12
Q1021=
METAR OICC 110700Z 14006KT 7000 FEW035CB SCT040 OVC070
 M00/M02 Q1020 A3014 TEMPO SN=
METAR OIGG 110700Z NIL=
METAR OIIE 110700Z 34008KT 5000 HZ FEW040 FEW045CB BKN100 BKN180 
03/M05 Q1023 A3023 TEMPO SHRA=
METAR OITR 110700Z 00000KT 2000 HZ SCT035 BKN170 M06/M10 Q1022
NOSIG=
METAR OIYY 110700Z 00000KT 6000 FEW025CB FEW035 BKN100 03/M00
Q1022 REGS=
METAR OAKN 110700Z NIL=
METAR OAKB 110700Z NIL=

0000052000
193
SAIR33 OIII 110700
METAR OIBB 110700Z 13004KT 9999 -RA FEW030CB SCT035 OVC090 14/09
Q1019 A3012=
METAR OIBP 110700Z 02004KT 8000 SCT025 OVC090 15/11 
Q1021 A3015=
METAR OICK 110700Z NIL=
METAR OICS 110700Z 19004KT 3500 -SHSN BR FEW025 FEW035CB SCT035
BKN080 M03/M04 Q1021=
METAR OIHH 110700Z 00000KT 2500 BR BKN040 BKN090 M06/M09
Q1020=
METAR OINZ 110700Z VRB02KT CAVOK 10/05 Q1018=
METAR OISR 110700Z 12006KT 3000 VCRA FEW030CB SCT035 OVC080 11/09
Q1024=
METAR OITL 110700Z NIL=
METAR OIZC 110700Z NIL=

0000063300
194
SAIR34 OIII 110700
METAR OIAG 110700Z 12010KT 9999 SCT030CB BKN035 14/10 Q1021=
METAR OIAM 110700Z 10014KT 8000 SCT010 SCT030CB OVC090 13/10 Q1020=
METAR OICI 110700Z  13006KT 8000 -RA FEW030CB SCT035 BKN090 04/03
 Q1018 A3006=
METAR OIKQ 110700Z  02006KT 8000 -RA FEW025CB SCT030 SCT090 15/07
 Q1022=
METAR OINN 110700Z VRB02KT CAVOK 11/08 Q1017=
METAR OINR 110700Z VRB02KT 9999 SCT040 BKN170 10/07 Q1017=
METAR OISL 110700Z  27004KT 9999 -RA FEW030CB FEW035 OVC080 09/03
 Q1022=
METAR OISY 110700Z  00000KT 1000 -RA FEW030CB SCT035 OVC080 00/M00
 Q1022=
METAR OITZ 110700Z 17014KT 9999 BKN035 OVC080 M01/M06 Q1018=

0000047500
195
SAIR35 OIII 110700
METAR OIAD 110700Z NIL=
METAR OIBJ 110700Z 09008KT 9999 BKN035 OVC090 10/08 Q1023=
METAR OIBS 110700Z 07020KT 8000 -RA SCT030CB OVC090 20/14 Q1022=
METAR OIHR 110700Z NIL=
METAR OIKM 110700Z NIL=
METAR OIKR 110700Z  18006KT 9999 FEW035CB SCT040 BKN100 03/M03
 Q1022 A3020=
METAR OING 110700Z  32004KT 4000 HZ FEW025 SCT090 BKN180 10/06
 Q1019=
METAR OIZB 110700Z 13004KT 8000 NSC 08/00 Q1026=
METAR OIZI 110700Z 00000KT CAVOK 14/M03 Q1025=

0000053900
196
SAIR36 OIII 110700
METAR OIBA 110700Z  05010KT 4000 HZ FEW025CB FEW030 OVC100 21/13
 Q1021=
METAR OIBV 110700Z 10008KT 6000 -RA SCT30 OVC080 15/12 Q1022 RERA=
METAR OIFS 110700Z  00000KT 1000 BR FEW030CB SCT035 OVC090 M05/M07
 Q1020=
METAR OIIP 110700Z  00000KT 5000 HZ SCT030CB SCT035 OVC090 M02/M07
 Q1022=
METAR OIMB 110700Z 00000KT 9999 FEW040 SCT090 OVC190 06/M11 Q1023=
METAR OIMN 110700Z 00000KT CAVOK 02/M06 Q1020 A3015=
METAR OIMS 110700Z NIL=
METAR OIMT 110700Z NIL=
METAR OIZJ 110700Z 12006KT CAVOK 18/08 Q1023=

0000048400
197
SAIR37 OIII 110700
METAR OIBL 110700Z 02006KT 4000 -RA SCT025 OVC080 13/10 Q1022=
METAR OIBQ 110700Z  12012KT 2000 +RA FEW025CB SCT040 OVC080 14/13
 Q1020=
METAR OIIK 110700Z AUTO 00000KT //// // ////// 00/M04 Q1022=
METAR OIMC 110700Z 21010KT CAVOK 13/M05 Q1022=
METAR OIMD 110700Z 00000KT CAVOK 04/M04 Q1020=
METAR OIMQ 110700Z NIL=
METAR OINE 110700Z 21004KT 0200 FG NSC 04/04 Q1016=
METAR OITK 110700Z NIL=
METAR OITM 110700Z VRB02KT 1000 BR OVC011 M06/M07 Q1022=

0000011800
198
SAIR35 OIII 110700 RRA
METAR OIAD 110700Z  10004KT 3000 RA FEW035CB SCT040 OVC080 11/10
 Q1020 A3012=

0000009200
199
SAIR37 OIII 110700 RRA
METAR OIMQ 110700Z 15010KT 9999 SCT035 06/M05 Q1023=

0000008600
200
SAIN90 VIDN 110700
METAR VIDN 110700Z 34003KT 6000 SCT040 17/07 Q1018=
0000009100
201
SASD31 OEJD 110700 RRA
METAR OERK 110700Z 17003KT CAVOK 15/10 Q1021 NOSIG=

0000011000
202
UANT01 CWAO 110703
ARP UAL46 5127N03802W 0703 F370 MS54 275/21 KT
N78002 DDL XXW 110703 F48A
0000011000
203
UANT01 CWAO 110703
ARP DAL40 5449N05309W 0703 F330 MS62 285/96 KT
N827MH QXS YAY 110703 F07A
0000011000
204
UANT01 CWAO 110703
ARP ETD130 5610N03846W 0703 F330 MS60 262/19 KT
A6EHJ QXT AOW 110703 J39A
0000013700
205
UANT01 CWAO 110703
ARP UPS208 5905N04939W 0703 F310 5900N05000W 0705 LOACH MS56 252/39
 KT
N331UP QXS UAK 110703 F44A
00000000