0000012800
046
SNVF41 LFPW 110700
BBXX
61002 11074 99421 10047 46/// /1308 10129 20047 40194 52010
22200 00129 10401 70006=
0000011000
047
UANT01 CWAO 110700
ARP UAE216 6030N04555W 0700 F350 MS58 224/22 KT
A6EEP QXS UAK 110700 J96A
0000011000
048
UANT01 CWAO 110700
ARP AFR011 4804N02927W 0700 F390 MS51 211/55 KT
FGZCM QXT AOE 110700 J81A
0000011000
049
UANT01 CWAO 110700
ARP BAW23T 5350N04236W 0700 F370 MS60 290/43 KT
GVIIF QXT AOW 110700 F09A
0000011000
050
UANT01 CWAO 110700
ARP ETD100 5142N03651W 0700 F330 MS56 223/15 KT
A6ETL QXT AOW 110700 F19A
0000016000
051
SSVX13 LFVW 110700
ZZYY 17572 11014 0700/ 537949 171870 6110/
11119 40153 52008
22219 00205
444 20100 11014 0656/ 50101 80110 80000 9/015=
0000008700
052
SAMA20 FIMP 110700
METAR FIMP 110700Z 08009KT 9999 SCT020 29/25 Q1016=

0000008900
053
SAIN90 VOBZ 110700
METAR VOBZ 110700Z 18002KT 4000 HZ SCT020 30/19 Q1014=
0000016300
054
SSVX13 LFPW 110700
ZZYY 13595 11014 0700/ 730274 019475 6113/ 22219 00199 33300 88872
 20000 43682 444 20130 11014 0700/ 50101 80108 80026 9/015=
0000009800
055
SNVF25 LFPW 110700
BBXX
12050 11074 99336 10319 46/// ///// 40246 52013
22200=
0000016700
056
SOVI10 KWAL 110701
B110070A 011070101"P9751095 B\P~W@@v0ekF1@oK???CmCo>@oO3@DD@@L4Cv5C~6bD9JK2?????@"??? ?TFzL@c@[@X@V@N@V:AMPTEMP 26.57C  46-0NN 219E
0000040900
057
SNVD20 KWNB 110700 RRC
BBXX
44065 11071 99404 70737 46/// /1406 10075 40205 58040 90650 22200
00053 333 91206 555 11063 22073 30646 41406 60649 142056 147049
148049 150050 147048 144048=
44007 11071 99435 70701 46/// /2202 10020 20003 40244 58016 90650
22200 00044 10602 20401 315// 40601 70008 333 91202 555 11016
22017 30556 42404 60649 223016 225016 234019 245021 241028 236032=
0000003900
058
UAPF01 NTAA 110700
NIL=
0000013100
059
SMCN22 CWAO 110600 RRF
AAXX 11064
71249 15/// /2014 11079 21087 60001
333 11024 21162 70000 555 33318 40191=

0000010300
060
SMCN20 CWAO 110600 RRF
AAXX 11064
71014 45/// /1605 11076 21097 6///1
333 7////=

0000013100
061
SMCN23 CWAO 110600 RRD
AAXX 11064
71346 15/// /1705 11052 21072 60001
333 10050 21072 70000 555 32529 40071=

0000011800
062
SNVD25 LFPW 110700
BBXX
BATFR43 11074 99070 70805 46/// /2403 10277 20242 40088 58022
22264 04282=
0000011200
063
SNVD25 LFPW 110700
BBXX
BATFR18 11074 99121 70472 46/// /1021 10247 40135 53001
22213 04264=
0000015400
064
SNVB25 LFPW 110700
BBXX
V7EG5 11074 99168 11088 41/97 70513 10260 20254 40160 57030 70542
879//
22283 00240 20504 306// 40704 80256=
0000011800
065
SNVD25 LFPW 110700
BBXX
BATFR15 11074 99158 70615 46/// /0717 10254 20214 40157 58001
22284 04267=
00000000