0000053100
473
SAKO31 RKSI 102100
METAR RKSI 102100Z 05004KT 4500 BR SCT030 M04/M05 Q1032 NOSIG=
METAR RKSS 102100Z 33003KT 3500 BR SCT030 M08/M11 Q1032 NOSIG =
METAR RKPC 102100Z 36007KT 9999 BKN040 05/M05 Q1033 NOSIG =
METAR RKPK 102100Z 32003KT 9000 NSC M03/M07 Q1031 NOSIG =
METAR RKTU 102100Z 06001KT 4000 BR BKN040 M07/M08 Q1032 NOSIG =
METAR RKTN 102100Z 00000KT CAVOK M06/M09 Q1032 NOSIG =
METAR RKJB 102100Z 16001KT 6000 SCT030 M02/M04 Q1033 NOSIG =
METAR RKNY 102100Z 26011KT CAVOK M02/M11 Q1029 NOSIG =

0000069700
474
SAFR37 LFPW 102100
METAR LFAQ 102100Z AUTO 19007KT 6000 OVC009 05/04 Q1017=
METAR LFAT 102100Z AUTO 13005KT 5000 BR FEW016 04/03 Q1017=
METAR LFLN 102100Z AUTO 09003KT 050V140 9999 NSC 06/04 Q1016=
METAR LFPM 102100Z AUTO 11004KT 4200 BR OVC003 06/05 Q1017=
METAR LFPT 102100Z AUTO VRB02KT 9999 OVC006 05/04 Q1017=
METAR LFRH 102100Z AUTO 00000KT 4100 -RA BR OVC006 08/08 Q1015=
METAR LFRQ 102100Z AUTO 10002KT 0800 R28///// FG OVC002 08/08 Q1015=
METAR LFRT 102100Z AUTO VRB02KT 4000 BR SCT004 BKN015 OVC026 07/06
Q1015=
METAR LFSD 102100Z AUTO 33003KT 9999 NSC 03/02 Q1018=
METAR LFTW 102100Z AUTO 14002KT 8000 OVC025 10/05 Q1019=
METAR LFBU 102100Z NIL=

0000010300
475
SACN61 CYXS 102100
METAR CYXS 102100Z AUTO 18008KT 9SM CLR M02/M05 A2969 RMK SLP086=

0000009500
476
SAAF13 LFPW 102100
METAR GLRB 102100Z 00000KT 9999 FEW014 26/25 Q1011 NOSIG=

0000014700
477
SAAF17 LFPW 102100
METAR HLLB 102045Z
00000KT 9999 SCT020 BKN080 15/11 Q1025 =
METAR HLLT 102050Z 13005KT CAVOK 11/08 Q1024=

0000010100
478
SAAF18 LFPW 102100
METAR FIMP 102100Z 09005KT 9999 VCSH SCT016 SCT050 26/24 Q1016=

0000010200
479
SAAF27 LFPW 102100
METAR FGSL 102100Z 23005KT 6000 FEW012 BKN130 26/23 Q1012 NOSIG=

0000058500
480
SASP31 LEMM 102100
METAR LEMD 102100Z 00000KT CAVOK 09/04 Q1015 NOSIG=
METAR LEBL 102100Z 33007KT 5000 BR SCT020 09/06 Q1019 NOSIG=
METAR LEPA 102100Z 06003KT CAVOK 11/11 Q1018 NOSIG=
METAR LEZL 102100Z 02002KT CAVOK 11/09 Q1014 NOSIG=
METAR LEMG 102100Z 29007KT 9999 FEW020 13/10 Q1015 NOSIG=
METAR LEVC 102100Z VRB01KT 7000 OVC020 12/08 Q1018 NOSIG=
METAR LEAL 102100Z VRB02KT 9000 FEW015 12/11 Q1017 NOSIG=
METAR LEIB 102100Z 00000KT 9000 BKN015 13/11 Q1017 NOSIG=
METAR LEVX 102100Z 02005KT 350V050 6000 FEW005 SCT008 09/09 Q1016
TEMPO 3000 BR=

0000076300
481
SASP32 LEMM 102100
METAR LEAS 102100Z VRB01KT 7000 FEW009 SCT015 BKN030 10/10 Q1017
REDZ TEMPO 3000 DZ BKN010=
METAR LEBB 102100Z 35003KT 300V030 9000 SCT014 BKN022 11/09 Q1016
TEMPO 3000 DZ BKN012=
METAR LECO 102100Z VRB02KT CAVOK 08/07 Q1017=
METAR LEGE 102100Z 00000KT 6000 OVC017 09/07 Q1019=
METAR LEST 102100Z 00000KT 6000 NSC 07/07 Q1017 TEMPO 3000 BR=
METAR LEZG 102100Z 10003KT 070V130 3000 BR OVC005 06/06 Q1018=
METAR LESO 102100Z NIL=
METAR LEVT 102100Z 25003KT 210V290 7000 NSC 05/03 Q1016=
METAR LERS 102100Z 36004KT 8000 BKN021 10/07 Q1018=
METAR LEMH 102100Z 11004KT 9999 SCT010 11/10 Q1018=
METAR LEAM 102100Z 00000KT 9999 FEW020 SCT100 14/09 Q1015=
METAR LEGR 102100Z 00000KT 9999 FEW100 09/06 Q1015=

0000013500
482
SASP33 LEMM 102100
METAR LEVD 102100Z NIL=
METAR LEVS 102100Z NIL=
METAR LESA 102100Z 00000KT CAVOK 02/02 Q1015=

0000026300
483
SASP34 LEMM 102100
METAR LEDA 102100Z NIL=
METAR LEJR 102100Z 00000KT CAVOK 12/11 Q1014=
METAR LELL 102100Z NIL=
METAR LEPP 102100Z 14003KT 120V250 8000 NSC 06/06 Q1017=
METAR LEXJ 102100Z 24004KT 210V280 9999 FEW018 BKN022 12/09 Q1016=

0000037300
484
SACR31 LEMM 102100
METAR GCLP 102100Z 35009KT 9999 FEW023 17/10 Q1015 NOSIG=
METAR GCXO 102100Z 30012KT CAVOK 11/09 Q1016 NOSIG=
METAR GCTS 102100Z 32007KT 9999 FEW030 17/12 Q1016 NOSIG=
METAR GCRR 102100Z 35004KT 9999 FEW020 15/11 Q1016=
METAR GCFV 102100Z 32004KT 9999 FEW020 15/12 Q1016=
METAR GCLA 102100Z 34006KT 300V030 CAVOK 19/09 Q1015=

0000026800
485
SASP35 LEMM 102100
METAR LEAB 102100Z 15007KT 9999 FEW019 08/06 Q1017 NOSIG=
METAR LEBZ 102100Z NIL=
METAR LELC 102100Z 02008KT 9000 FEW014 OVC017 13/11 Q1017 NOSIG=
METAR LELN 102100Z NIL=
METAR LETO 102100Z 00000KT CAVOK 09/05 Q1016 NOSIG=

0000004200
486
SACR32 LEMM 102100
NIL=

0000008800
487
SASP39 LEMM 102100
METAR LETL 102100Z AUTO VRB02KT CAVOK 05/01 Q1017=

0000011400
488
SAAF13 LFPW 102100 CCA
METAR COR GLRB 102100Z 00000KT 9000 FEW014 26/25 Q1011 NOSIG
RMK BRVC=

0000008900
489
SABZ19 SBMA 102100
METAR SBMA 102100Z 11003KT 9999 FEW020 29/23 Q1008=

0000011200
490
SACN61 CYYL 102100
METAR CYYL 102100Z AUTO 06007KT 1SM -SN VV020 M19/M21 A2943 RMK
 SLP006=

0000010300
491
SACN61 CYZY 102100
METAR CYZY 102100Z AUTO 18004KT 9SM CLR M05/M07 A2962 RMK SLP069=

0000009500
492
SAAT31 TAPA 102103
METAR TAPA 102100Z 08009KT 9999 FEW019 26/19 Q1016 NOSIG=

00000000