0000268200
053
SMRA13 RUHB 110600
AAXX 11061
30455 429// 01201 11333 21363 38956 48468 51008=
30669 42999 01001 11212 21269 39420 40360 52007=
30731 42999 50601 11130 21191 39733 40378 54000 80001=
30739 42999 10000 11186 21235 39505 40387 52004 81040=
30741 42998 02604 11192 21233 38742 48526 52027=
30745 42999 00000 11286 21310 39155 40441 52003=
30764 41999 01901 11227 21303 39530 40401 58001 70240=
30829 42999 60000 11186 21227 39664 40408 58008 82041=
30838 41598 60000 11162 21181 39340 40386 58002 70231 82902=
30846 41999 20703 11199 21277 39417 40400 51008 70283 80003=
30859 42999 03202 11215 21292 39483 40394 51008=
30862 42999 13306 11235 21348 39580 40390 52005 80001=
30957 41699 23603 11170 21220 39412 40368 51011 70181 82300=
30975 42899 33306 11230 21287 39637 40344 51003 82033=
24076 41498 80704 11233 21258 39919 40312 53002 70272 886// 333
88710=
24194 42998 80000 11221 21232 30246 40304 54000 8801/=
24219 42999 01301 11455 21472 39972 40332 57008=
24261 41999 70000 11349 21370 39633 40332 53001 77177 87030=
24263 42999 20000 11453 21471 30032 40359 53004 81031=
24322 42998 02001 11326 21342 39620 40325 58007=
24338 42999 02301 11431 21450 39894 40351 54000=
24361 41998 80000 11399 21422 30040 40339 54000 77071 8807/=
24371 42999 60000 11435 21457 39952 40365 57002 86030=
24449 42999 20000 11473 21494 30265 40381 53001 80009=
24462 42899 80000 11324 21355 39265 40335 52001 8801/=
24477 42999 80000 11406 21438 39388 40358 53003 86077=
24525 42999 00000 11475 21500 30011 40399 58002=
24538 42999 20000 11464 21485 30164 40380 58005 80001=
24557 42999 00000 11473 21501 30248 40381 53003=
24585 41999 00000 11421 21448 39572 40332 53004 70271=
24588 41999 00000 11404 21421 39474 40324 53006 70271=
24643 42999 70000 11431 21444 30264 40383 58002 80005=
24644 42999 20000 11425 21448 30218 40394 57003 80001=
24668 42999 00000 11458 21486 30237 40378 52004=
24679 41999 50502 11273 21292 38574 48350 54000 70272 85020=
24684 41998 80000 11339 21356 39221 40293 58005 77171 8802/=
24691 42999 00000 11434 21457 39189 40339 58001=
24725 42999 01801 11401 21441 30022 40410 57010=
24726 41995 22703 11388 21431 39880 40406 58004 71041 80001=
24737 41996 00000 11454 21476 30202 40417 57005 71000=
24739 42999 01801 11420 21444 39939 40401 58005=
24753 42998 02601 11433 21461 30249 40387 52005=
24758 42999 20000 11420 21455 30053 40402 53003 80001=
24763 42999 00000 11456 21486 30209 40386 52006=
24771 42999 00501 11435 21463 39944 40380 52005=
24826 42999 22302 11377 21412 39910 40431 58006 80009=
24843 42999 00000 11411 21432 30109 40409 53002=
0000063400
054
SMRA18 RUHB 110600
AAXX 11061
31825 42/// /3102 11177 21323 39952 40173 58018 333 91113=
31845 42999 62803 11167 21247 30054 40228 56008 80070=
31878 42998 82402 11123 21218 30111 40242 55003 82031=
31915 42599 52807 11094 21215 39959 40243 53002 82209 333 91012
91114=
31921 42598 62803 11085 21223 30137 40240 53004 82109=
31969 82998 02907 11036 21198 30196 40246 56016 333 91013 91113=
31981 42599 82603 11088 21221 30000 40245 55004 83801 333 91110=
31987 42699 53003 11079 21225 39976 40245 55010 84801 333 91111=
32069 41598 72904 11182 21215 30121 40126 53001 72682 87900 333 91006
91107=
0000015600
055
SMSP02 LEMM 110600 CCA
AAXX 11064
08084 01103 80000 10042 20042 39762 40206 51005 60002 74544 886//
  333 20029 3/003 55024 60007 70000=
0000109600
056
SMRA12 RUHB 110600
AAXX 11061
30499 41999 60203 11276 21338 39608 40335 52011 73632 83035 333
91112=
30683 41999 83303 11248 21304 39624 40336 52009 72272 85045=
30695 42999 63306 11234 21333 39937 40303 53004 82044 333 91010
91112=
31253 41999 82001 11289 21328 39750 40258 52003 70242 86037=
31295 42999 63104 11245 21344 39780 40279 52010 80001=
31348 NIL=
31418 42/// /0101 11294 21337 39894 40176 55001=
31439 41597 82301 11255 21287 30085 40133 54000 77172 8357/=
31442 41998 83102 11263 21309 39870 40259 52008 77171 80007=
31445 42999 83202 11259 21315 39977 40257 52008 80001=
31474 NIL=
31521 42978 22902 11280 21335 39940 40263 52008 80001=
31527 42998 02903 11276 21359 39916 40252 53007=
31534 42999 22502 11281 21319 39869 40251 57005 80001=
31587 42998 03002 11255 21320 30111 40272 52001=
31632 NIL=
31702 42998 22502 11270 21332 39891 40260 53006 82040=
31713 42999 02902 11197 21320 30102 40211 56005=
31725 42998 02203 11218 21309 30136 40205 55003=
31801 NIL=
31832 42999 82101 11169 21259 30138 40230 55004 83041=
0000015000
057
SMAL01 DAMM 110600 RRC
AAXX 11064
60490 11565 70000 10132 20093 40158 55000 69924 70161 8453/
  333 00513 20103 84630 84360 95990=
0000011100
058
UANT99 KDDL 110632
ARP BER7341 4722N01008W 0632 F380 MS59 250/47 KT
DABXC QXT AOE 110633 J56A
0000011100
059
UANT99 KDDL 110633
ARP DAL615 5804N03736W 0633 F360 MS58 250/35 KT
N185DN QXT AOW 110633 F11A
0000011100
060
UANT99 KDDL 110633
ARP RCH570 4901N03533W 0633 F350 MS51 228/24 KT
44132A DDL XXN 110633 F32A
0000011100
061
UANT99 KDDL 110633
ARP AWE704 4835N03226W 0633 F360 MS49 208/42 KT
N276AY DDL XXN 110633 J71A
0000011100
062
UANT99 KDDL 110633
ARP NAX7002 5535N04135W 0633 F410 MS56 265/29 KT
EILNC QXT AOW 110633 L09A
0000003800
063
SMKZ21 UAAA 110600
NIL
0000010800
064
SMMC23 GMMC 110600 RRA
AAXX 11064
60340 42958 02103 10092 20084 40178 53012
  333 20080=
0000009000
065
SAIN90 VECC 110600 RRA
METAR VEJS 110600Z 05004KT 1500 FU NSC 23/13 Q1016=
0000011100
066
UANT01 CWAO 110631
ARP SVA034 4951N03044W 0630 F330 MS53 185/49 KT
HZAK19 QXT AME 110631 F29A
0000011000
067
UANT01 CWAO 110631
ARP AFR377 4949N04105W 0631 F350 MS58 322/49 KT
FGLZU QXT AOW 110631 J98A
0000011000
068
UANT01 CWAO 110631
ARP AFR065 5605N04408W 0631 F390 MS59 267/41 KT
FHPJA QXT AOW 110631 J43A
0000011000
069
UANT01 CWAO 110631
ARP AZA611 4649N04100W 0631 F390 MS52 298/42 KT
EIEJJ QXT AOW 110631 J39A
0000011000
070
UANT01 CWAO 110631
ARP AFR083 5604N03656W 0631 F360 MS57 247/34 KT
FGSPO QXT AOW 110631 F21A
0000011000
071
UANT01 CWAO 110631
ARP UAL90 4622N04832W 0631 F350 MS64 311/49 KT
N77012 DDL YYT 110631 F26A
0000011000
072
UANT01 CWAO 110631
ARP DAL18 5339N05133W 0631 F360 MS66 295/81 KT
N842MH QXS YAY 110631 F34A
00000000