0000047100
673
FTUS53 KWBC 102109 AAA
TAF AMD
KCMX 102107Z 1021/1118 18009KT P6SM SCT030
     FM102300 18009KT P6SM BKN030
     FM110400 16005KT 5SM -SN BKN015
     FM111400 28010KT P6SM BKN020=
KDBQ 102107Z 1021/1118 14008KT 1SM -RA BR OVC002
     FM110100 18003KT 1/4SM -RA FG OVC001
     FM110500 26005KT 1SM -FZRASN BR OVC002
     FM110700 29010KT 1SM -SN BR OVC002
     FM111300 29012KT 2SM BR VCSH OVC004
     FM111600 29012KT 6SM BR OVC020=

0000013400
674
FTUS54 KWBC 102109 AAA
TAF AMD
KBIH 102107Z 1021/1118 34015G25KT P6SM SCT250
     FM110300 32005KT P6SM SCT250=

0000146700
675
FTUS80 KWBC 102109 AAA
TAF AMD
KACY 102106Z 1021/1118 13004KT 1 1/2SM -SHRA BR BKN003 OVC025
      TEMPO 1021/1024 3SM BR SCT003 BKN025
     FM110200 16007KT 1SM BR BKN005 OVC015
     FM110600 16010KT 2SM -RA BR BKN004 OVC010 WS020/19050KT
     FM111500 18015KT 1SM RA BR BKN003 OVC010 WS020/21050KT=
KAND 102106Z 1021/1118 06006KT 3SM BR OVC006
      TEMPO 1021/1024 2SM -RADZ BR OVC003
     FM110000 03005KT 1SM -RADZ BR OVC003
     FM110600 04003KT 2SM SHRA BR OVC004 WS020/20030KT
     FM111500 14005KT 4SM SHRA BR OVC005 WS020/20045KT=
KBIH 102107Z 1021/1118 34015G25KT P6SM SCT250
     FM110300 32005KT P6SM SCT250=
KCMX 102107Z 1021/1118 18009KT P6SM SCT030
     FM102300 18009KT P6SM BKN030
     FM110400 16005KT 5SM -SN BKN015
     FM111400 28010KT P6SM BKN020=
KDBQ 102107Z 1021/1118 14008KT 1SM -RA BR OVC002
     FM110100 18003KT 1/4SM -RA FG OVC001
     FM110500 26005KT 1SM -FZRASN BR OVC002
     FM110700 29010KT 1SM -SN BR OVC002
     FM111300 29012KT 2SM BR VCSH OVC004
     FM111600 29012KT 6SM BR OVC020=
KDEN 102107Z 1021/1124 30018G28KT P6SM FEW080 SCT120 SCT200
     FM110100 27010KT P6SM FEW100 SCT140 BKN200
     FM110300 24011KT P6SM SCT140 BKN200
     FM111600 28014G22KT P6SM FEW090 SCT120 BKN180=
KHLG 102107Z 1021/1118 16007KT P6SM BKN025
     FM110800 18008KT 5SM -RA OVC015
     FM111300 18012KT 2SM -RA OVC009
     FM111700 22012KT P6SM VCSH BKN015 OVC025=

0000040200
676
FTUS80 KWBC 102109 AAB
TAF AMD
KLBE 102106Z 1021/1118 13004KT P6SM BKN015 OVC025
     FM110800 18008KT 6SM -RA OVC015=
KPHX 102108Z 1021/1118 27005KT P6SM FEW250
     FM110500 10005KT P6SM FEW250=
KPIT 102106Z 1021/1124 15005KT P6SM BKN015 OVC025
     FM110900 18010KT 5SM -RA OVC015
     FM111300 18010KT 4SM -RA OVC009
     FM111800 20009KT P6SM VCSH BKN015 OVC025=

0000010500
677
SPUS41 KWBC 102109
SPECI
KPVD 102105Z 00000KT 1 1/4SM BR SCT012 OVC036 00/M01 A3038=

0000022800
678
SAIN32 VIDP 111000
METAR VIDP 111000Z 31010KT 3000 HZ NSC 18/07 Q1018 NOSIG=
METAR VILK 111000Z 09004KT 1200 R27/1300 BKN020 BKN100 18/14 Q1015
    NOSIG=
METAR VIAR 111000Z 26008KT 5000 HZ NSC 17/10 Q1019=
0000009800
679
SPUS42 KWBC 102109
SPECI
KHSV 102105Z 15010KT 10SM FEW014 OVC022 12/08 A3001=

0000011000
680
SPUS42 KWBC 102109
SPECI
KPNS 102106Z 09003KT 1SM R17/2800VP6000FT BR OVC003 16/14 A3001=

0000009700
681
SPUS43 KWBC 102109
SPECI
KCMX 102106Z AUTO 19003KT 9SM BKN020 M02/M06 A2966=

0000034600
682
FTCN37 CWAO 102100 AAA
TAF AMD CYQM 102109Z 1021/1118 22012KT P6SM FEW100
    FM102200 22012KT P6SM BKN030 TEMPO 1022/1109 OVC020
    FM110900 21006KT P6SM -SN BKN015
    FM111200 16007KT 4SM -SN BR OVC006 PROB30 1112/1116 2SM -FZDZ BR
     OVC004
    FM111600 18012KT 4SM -RA BR OVC006
    RMK NXT FCST BY 110000Z=

0000018800
683
FTCN37 CWAO 102100 AAA
TAF AMD CYYG 102109Z 1021/1106 20012KT P6SM FEW030 BKN250
    FM102300 VRB03KT P6SM BKN030 TEMPO 1023/1106 OVC020
    RMK NXT FCST BY 110000Z=

0000015100
684
SAMX41 MMMX 102109
METAR MMIT 102100Z 36008KT 7SM SKC 31/21 A2983 RMK FU NW =
METAR MMTB 102045Z 00000KT 7SM SKC 30/18 A2982 RMK =

0000010900
685
SABZ24 SBPP 102100 CCA
METAR COR SBPP 102100Z 00000KT 9999 SCT025
FEW030TCU 28/19 Q1011=

0000010400
686
SAAG41 SABE 102100
METAR SABE 102100Z  05006KT 9999  SCT030 SCT045TCU
 29/21 Q1006=

0000015900
687
SATH33 VTBB 102100 RRA
METAR VTUK 102100Z 34003KT CAVOK 17/17 Q1016 A3001=
METAR VTUL 102100Z 00000KT 2000 BR NSC 16/14 Q1016 A3003 NOSIG=

0000020000
688
SAIN31 EGGY 102100
METAR VOBL 102100Z NIL=
METAR VOCB 102100Z NIL=
METAR VOCI 102100Z 00000KT 5000 HZ FEW020 FEW025CB 22/21 Q1012 TEMPO
    VIS 4000 HZ=
METAR VOCL 102100Z NIL=
0000004100
689
SACZ41 LKPW 102100
NIL

0000065400
690
FCEE31 LOWM 102000
TAF UAII 102000Z NIL=
TAF UASP 102100Z 1022/1107 21006MPS 3100 -SHSN BKN011CB
TEMPO 1023/1106 23010MPS 0600 +SHSN BLSN VV002=
TAF UADD 102045Z 1022/1107 20002G07MPS 5000 BR NSC=
TAF UASK 102053Z 1022/1107 16005G10MPS 6000 BKN020 OVC100 TEMPO
1022/1104 20005G10MPS 3100 -SN BR SCT004 SCT011=
TAF UACK 102100Z 1022/1107 20008MPS 4000 -SHSN DRSN BKN006
BKN010CB TEMPO 1022/1101 19012G17MPS 1000 SHSN BLSN
BKN004CB TEMPO 1101/1107 18014MPS 0800 +SHSN BLSN VV003=
TAF UACP 102000Z NIL=
TAF UAOO 102053Z 1022/1107 18010MPS 5000 -SN BR OVC010 TEMPO
 1022/1107
2000 BR OVC005=
TAF UAKD 102000Z NIL=

0000014700
691
FTBZ23 SBGL 102101
TAF SBRJ 102100Z 1100/1112 14010KT 8000 FEW020
TN25/1108Z TX29/1111Z 
BECMG
 1104/1106 01005KT RMK PGS=

0000023300
692
FTBZ23 SBGL 102101
TAF SBCB 102100Z 1100/1124 07010KT 8000 FEW020
TN24/1106Z TX33/1116Z 
BECMG
 1104/1106 FEW016 BECMG 1110/1112 07015KT FEW020 BECMG 1113/1115
0902
0KT
 BECMG 1119/1121 07015KT RMK PGS=

00000000