0000012900
273
FCIN90 VIDP 110600 CCA
TAF VIDP 110600Z 1109/1118 31008KT 3200 HZ NSC
     BECMG 1115/1117 25003KT 1200 BR =

0000026000
274
SAIN90 VABP 110600
METAR VABP 110600Z 02008KT 2000 BR NSC 16/11 Q1019 NO SIG=
METAR VAKJ 110600Z 29005KT 0400 FG VV/// 16/15 Q1018=
METAR VIGR 110600Z 32003KT 1000M BR NSC 16/08 Q1019=
METAR VAJB 110600Z 36003KT 800 FG OVC010 16/15 Q1018=
0000009200
275
UPIN90 VABP 110600
PPAA 6106/ 42667 ASCENT SUSPENDED DUE TO OTHER REASON=

0000063100
276
SMUS23 KWBC 110600 RRA
AAXX 11064
72306 11158 80000 10078 20072 30030 40185 58019 60061 761// 90551
333 10078 20039 96010 555 91106=
72315 17066 81603 10072 20067 39384 40162 58028 60031 761// 90554
333 10072 20011 555 91106=
72320 17261 81303 10100 20094 39899 40126 58038 60021 791// 90553
333 10100 20039 96061 555 91106=
72332 17256 82113 10133 20000 39949 40073 56033 60041 791// 90553
333 10133 20078 91020 96062 555 91106=
72375 35966 02403 10000 21067 37903 40206 53011 90557 333 10083
21032 555 91106=
72383 35966 03418 10100 21017 38672 40205 53005 90548 333 10128
20050 555 91106=
0000069800
277
SMUS24 KWBC 110600 RRA
AAXX 11064
72402 15566 81909 10128 20111 30186 40199 58036 69931 90554 333
10133 21005 555 91106=
72405 11204 83505 10039 20022 30178 40199 58032 60021 741// 90552
333 10039 21021 555 91106=
72406 11002 90000 10022 20011 30122 40194 56036 60031 741// 90554
333 10028 21016 555 91106=
72423 11456 81904 10111 20100 39887 40061 58016 60081 90556 333
10128 20022 555 91106=
72425 32566 81804 10117 20083 39794 40094 58024 90551 333 10117
20011 555 91106=
72429 11759 81810 10094 20083 39695 40056 56033 60011 761// 90556
333 10100 20006 96010 555 91106=
72486 35966 01707 11028 21044 38141 40247 51019 90553 333 10056
21028 555 91106=
0000148600
278
SMUS25 KWBC 110600 RRA
AAXX 11064
72502 11116 80205 10017 20011 30211 40219 58036 60021 761// 90551
333 10017 21032 96010 555 91106=
72504 17128 80000 10022 20017 30221 40230 56023 60011 761// 90552
333 10022 21049 96010 555 91106=
72507 11108 80000 10017 20011 30224 40244 58022 60021 761// 90551
333 10017 21099 96041 555 91106=
72513 17440 80000 10022 20011 39833 40185 58047 69931 710// 90554
333 10022 21049 555 91106=
72521 32666 81510 10083 20068 39628 40078 58043 8/5// 90551 333
10083 21010 555 91106=
72529 32966 81310 10039 20017 39900 40118 58055 90554 333 10050
21055 4/003 555 91106=
72535 12264 82014 10050 20039 39734 40019 58019 60101 90554 333
10061 21032 555 91106=
72536 11240 81708 10050 20050 39786 40038 56053 60111 761// 90552
333 10050 21043 96010 555 91106=
72539 11266 81712 10039 20033 39700 40017 56050 60101 761// 90553
333 10039 21055 555 91106=
72543 11124 81806 10017 20017 39726 49991 55013 60051 751// 90554
333 10028 21038 4/023 96010 555 91106=
72544 17258 82305 10022 20017 39766 49988 58006 69951 710// 90552
333 10044 21021 555 91106=
72548 12362 82905 10000 21006 39677 49996 58002 69901 90554 333
10000 21066 555 91106=
72551 37956 00000 11044 21056 39614 40052 53009 710// 90554 333
10006 21067 555 91106=
72566 35866 82908 10000 21067 38732 40102 53019 90553 333 10039
21005 555 91106=
72592 35966 03303 10056 20022 30034 40220 56002 90553 333 10167
20000 555 91106=
0000012000
279
SMPF01 NTAA 110600 RRA
AAXX 11064
91945 36/// ///// 10266 20235 30152 40157 53018
  555 59001 69964=
0000013400
280
SMUS26 KWBC 110600 RRA
AAXX 11064
72605 35461 80000 11044 21067 30112 40243 58026 90551 333 11044
21189 555 91106=
0000044900
281
SMUS27 KWBC 110600 RRA
AAXX 11064
72783 12766 81911 10083 20011 39620 40140 56018 69901 90556 333
10094 20056 555 91106=
72785 12566 81812 10039 20006 39254 40116 58014 69901 90553 333
10039 20006 91019 555 91106=
72791 17456 81923 10111 20094 30060 40064 58035 60061 761// 90555
333 10111 20094 91040 96010 555 91106=
72792 17466 81916 10100 20078 39978 40049 56047 60081 761// 90554
333 10100 20072 91025 555 91106=
0000021500
282
SMFA40 EKMI 110600
AAXX 11064
06005 NIL =
06009 47/59 /2428 10043 20021 39858 49982 52006 71086
  333 10062 20035 91039 91146 =
06012 46/// ///// 10054 39885 49952 57003
  333 10055 20013 =
0000135600
283
SMVD01 PANC 110600 RRE
BBXX
WDD6126 11063 99434 70240
41397 72640 10120 20083 49940 57050 72052 877//
22264 00123 20508 3//// 4//// 5//// 6//// 80100 ICE /////=
C6FR3 11063 99152 70942
414// 43602 10250 2//// 40130 54/// 70200 84//5
22233 00250 2//// 3//// 4//// 5//// 6//// 8//// ICE /////=
3EBL5 11063 99251 70797
418// 41226 10260 20232 40173 54020 7//// 838/1
22274 04280 20802 30608 40602 50502 6//// 85240 ICE /////=
WRTF 11063 99581 71439
41698 12920 10032 2100/ 49905 57030 70111 811//
22283 00060 2//// 3//// 4//// 5//// 6//// 80018 ICE /////=
WDJK 11064 99347 71586
41598 43409 10142 20105 40326 51020 70200 841//
22283 00160 2//// 3//// 4//// 5//// 6//// 80121 ICE /////=
ONBF 11064 99019 31188
41597 70513 10270 20235 40130 57025 7//22 87148
22253 00290 20502 302// 40503 5//// 6//// 80245 ICE /////=
C6QM8 11064 99244 70813
41/98 /1421 10250 40200 7//// 8////
22265 2////=
WCY7054 11063 99256 70852
41598 61413 10230 2//// 40158 54/// 70321 8/2//
22273 0//// 20302 336// 40402 5//// 6//// 8//// ICE /////=
9V7952 11064 99284 11400
41397 30219 10150 20116 40260 56010 7//00 82299
22224 04190 20402 30601 40503 50402 6//// 80130 ICE 0////=
ONGA 11064 99303 30386
41797 61909 10230 2019/ 40140 54/// 70311 868//
22222 00250 20406 3//// 4//// 5//// 6//// 80200 ICE /////=
0000017900
284
SMVD01 PANC 110000 RRQ
BBXX
ONGA 11004 99306 30377
41898 62009 10220 2017/ 40120 54/// 70311 862//
22222 00250 20306 3//// 4//// 5//// 6//// 80190 ICE /////=
0000056500
285
SMVB01 LFPW 110600
BBXX
BATFR10 11064 99233 11228 46/// /1024 10210 20119 40225 56017
22283 04239=
DIUR2 11064 99059 10879 41398 70911 10295 20260 40120 54000 70322
8671/
22263 00300 20502 303// 40904 80270=
CQIV 11064 99242 11184 41696 70315 10180 20121 40250 58010 70211
87/1/
22200 04140 20604 80145=
DFKP2 11063 99291 11298 41298 80311 10099 20048 40265 58020 70522
887//
22274 00170 20201 30000 80076=
A8VL6 11064 99257 11204 41597 50225 10140 20114 40230 58010 70211
82164
22213 04160 21404 30201 41404 50802 80125=
0000162400
286
SMVF01 LFPW 110600
BBXX
BAREU71 11064 99384 70126 46/// /0908 10139 29078 40183 52003
22263=
BAREU51 11064 99406 10114 46/// ///// 10143 29080 40220 52005
22275=
61002 11064 99421 10047 46/// /1211 10129 20049 40190 52002
22200 00128 10401 70007=
BAREU65 11064 99322 70144 46/// ///// 40157 52000
22243=
BATEU10 11064 99473 70050 46/// /2606 40177 52026
22245=
BATFR16 11064 99442 70160 46/// /1425 10109 20077 40125 56012
22214 00144=
BATFR24 11064 99433 10054 46/// /0904 10129 20077 40202 55003
22281 00132=
BAREU66 11064 99362 70036 46/// ///// 40169 52007
22265=
FVNM 11064 99477 70034 46/// /3402 10062 20055 40168 53012
22200 04089=
12050 11064 99336 10319 46/// ///// 40243 52017
22200=
BATFR20 11064 99388 10084 46/// /1027 10147 20114 40177 58011
22233=
BATFR22 11064 99413 10090 46/// /0821 10137 20104 40197 55003
22234 04149=
BATFR44 11064 99479 70039 46/// /0304 10077 20069 40184 53013
22200 04114=
PBEO 11063 99359 70055 41597 50505 10170 20137 40179 54000 70322
8457/
22262 02169 20201 30000 80150=
BATFR54 11064 99471 70025 46/// /3008 10077 20072 40176 53001
22222 04097=
BATFR52 11064 99507 70010 46/// /2929 10082 20054 40148 55006
22274 04092=
BATFR27 11064 99487 70021 46/// /2208 10079 20059 40169 53028
22233 04112=
BATFR12 11064 99486 70064 46/// /3613 10097 20037 40185 52021
22200 04149=
BATFR21 11064 99427 10089 46/// /2109 10129 20099 40204 55002
22224=
BATEU08 11064 99639 70229 46/// /2716 29049 49964 53019
22283=
BATUK01 11064 99581 70063 43/// /2718 10045 21011 40062 51021
22200 04097=
0000018500
287
SMVJ01 LFPW 110600
BBXX
BATEU00 11064 99690 30277 46/// /0912 11012 21015 49893
22241=
OSCFR05 11064 99608 50525 46/// /2009 11025 21073 40016 56003
22251 05002=
0000110200
288
SSWB19 RKSL 110600
ZZYY 21229 11014 06001 13746/ 13111/ 
11109 03103 10041 40293 5//// 
22209 00131 10703 20071 21013= 
ZZYY 22101 11014 06001 13724/ 12602/ 
11109 01502 10015 40310 5//// 
22209 00054 10501 20053 21004= 
ZZYY 22102 11014 06001 13479/ 12578/ 
11109 03602 10041 40311 5//// 
22209 00074 10501 20046 21006= 
ZZYY 22103 11014 06001 13400/ 12750/ 
11109 03305 10041 40307 5//// 
22209 00143 10302 20026 21010= 
ZZYY 22104 11014 06001 13477/ 12890/ 
11109 03406 10046 40301 5//// 
22209 00152 10601 20064 21006= 
ZZYY 22105 11014 06001 13754/ 13000/ 
11109 02906 10030 40280 5//// 
22209 00121 10502 20053 21011= 
ZZYY 22106 11014 06001 13635/ 12978/ 
11109 02806 10044 40283 5//// 
22209 00114 10702 20071 21010= 
ZZYY 22107 11014 06001 13308/ 12603/ 
11109 00205 10079 40308 5//// 
22209 00162 10402 20043 21008= 
ZZYY 22108 11014 06001 13625/ 12575/ 
11109 02903 10038 40311 5//// 
22209 00067 10602 20058 21008= 
ZZYY 22183 11014 06001 13473/ 12624/ 
11109 00303 10041 40316 5//// 
22209 00076 10400 20040 21001= 
0000015200
289
SMCN04 CWAO 110600 CCA
AAXX 11064
71621 12361 81005 10029 20010 30023 40130 58047 60001 8667/ 333
10029 21098 70014 555 10016 20014=
0000145200
290
SMAL01 DAMM 110600
AAXX 11064
60360 12965 42205 10077 20052 40173 53007 60004 80002
  333 00200 20068 84073 95990=
60390 12575 61603 10107 20081 40175 53005 60004 82830
  333 00600 20095 81830 84360 95990=
60402 12960 32612 10148 20055 40183 53003 60004 80002
  333 00500 20125 83073 95990=
60419 12960 42203 10041 20012 40215 53003 60004 80001
  333 05000 20033 84073 95990=
60475 12960 31404 10011 21016 39254 48507 58016 60004 80002
  333 05300 21016 83073 95990=
60490 NIL=
60525 12960 3//// 10070 20047 40203 53002 60004 83002
  333 00200 20065 83073 95900=
60531 12565 82412 10154 20039 40158 53004 60004 8257/
  333 01000 20131 82630 87460 95990=
60566 12960 49902 10081 20053 40221 55001 60004 82032
  333 00500 20075 82360 83073=
60571 11558 60804  10113 20076 39244 48505 52004 69904 72162 83280
  333 0//11 2////  83833 83360 95990=
60580 NIL=
60590 12660 5//// 10097 20072 40212 53004 60004 85500
  333 00700 20094 85640=
60611 12960 30806 10079 20017 40227 58006 60004 80001
333 00500 20072 83070=
60620 11757 61317 10145 21042 40149 55006 60004 70700 82232
  333 0//00 20138 82850 83365=
60630 12970 40810 10118 21010 40183 58003 60004 82032 333 00700 20100
 82362 83075=
60656 12960 30208 10086 20006 40151 53005 60004 82032
  333 00600 20085 82360=
60670 NIL=
60680 12970 51604 10104 21036 38673 48545 53010 60004 82032
333 00900 20101 82362 84073 95900=
0000104900
291
SMAL02 DAMM 110600
AAXX 11064
60351 12960 30000 10114 20063 40170 53007 60004 80002
  333 00500 20084 83070 95990=
60355 12960 02204 10132 20036 40174 53004 60004
  333 0//00 20130 94990=
60445 12965 63003 10033 21006 39044 48518 53002 60004 82032
  333 05400 20002 82360 85073 95990=
60468 12960 2//// 11004 21018 39262 48520 53002 60004 80002
  333 05400 21009 82070 95900=
60507 NIL=
60511 NIL=
60535 11958 3//// 10045 20034 38853 48516 58002 60004 700// 83030
  333 00100 20020 83360 95990=
60536 NIL=
60549 NIL=
60550 12560 62004 10075 20019 38685 48524 58003 60004 82502
  333 00500 20062 82630 85073 95990=
60555 12965 43605 10056 20042 40223 53002 60004 82032
  333 00300 20056 82360 83073=
60559 NIL=
60581 12960 30000 10072 20056 40211 53003 60004 83032
   333 00200 20070 83360=
60602 NIL=
60607 12960 41009 10105 20033 40166 56004 60004 82032
333 0//00 20104 82362 83075=
60640 12960 50000 10095 21002 40200 53009 60004 82032
  333 00700 20087 82360 83073=
60690 NIL=
0000119200
292
SMAL03 DAMM 110600
AAXX 11064
60395 12965 8//// 10110 20090 40167 53003 60004 84074
  333 00900 20106 84360 85073 95990=
60421 11660 32404 10044 20015 39168 48511 58002 60004 700// 83500
  333 05100 20014 83640 95990=
60423 11965 1//// 10073 20049 39207 48482 58003 60004 700// 81030
  333 0//00 20066 81360 95990=
60430 11970 50000 10115 20040 40195 53012 60004 700// 85030
  333 00600 20115 85360 95990=
60437 11965 50000 10100 20059 38984 48493 53002 60004 700// 80002
  333 00500 20080 85070 95990=
60444 12960 60000 10053 20038 39106 48519 55002 60004 80002
  333 00300 20042 86073 95990=
60452 NIL=
60457 NIL=
60514 11560 70000 10060 20038 39310 48544 53022 60004 700// 8357/
  333 00200 20060 83626 84460 95990=
60518 11560 72412 10175 20052 40139 51004 60004 700// 83532
  222// 20000
  333 01200 20163 83620 84360 91806 95990=
60520 11960 41706 10143 20039 40162 55000 60004 700// 83082
  333 00900 20122 83360 95990=
60540 11560 71404 10085 20063 39019 48490 56003 60004 700// 8553/
  333 00500 20084 85630 83360 95990=
60560 11660 70308 10090 20034 38953 48537 58015 69924 700// 85282
  333 0//59 20090 85833 95990=
00000000