0000013400
586
SMIY40 LIIB 110600 RRA
AAXX 11064
16124 41/00 90000 10042 20042 39008 48509 54000 6///2 760// 333 20040 32/// 89/00=
0000026200
587
SMSY20 OSDI 110600
AAXX 11061
40022 32965 00802 10090 21001 40221 53017 222// 20000 333 20072
30///=
40030 31960 00000 10016 20000 40243 52014 71000 333 20000 34/// 50034
55004=
40066 32970 00000 10080 21019 40222 52012 333 20072 30///=
0000044500
588
SABY31 UMMN 110630
METAR UMBB 110630Z 27009G14MPS 9999 OVC023CB 05/01 Q1011 R29/290050
NOSIG=
METAR UMGG 110630Z NIL=
METAR UMII 110630Z NIL=
METAR UMMG 110630Z 28006G09MPS 9999 BKN007CB OVC066 03/02
Q1006 R35/290060 NOSIG=
METAR UMMM 110630Z 29008G11MPS 9999 OVC020CB 01/M01
Q1002 R30/190060 NOSIG RMK QFE732 =
METAR UMMS 110630Z 30009G14MPS 9999 BKN024 01/M02 Q1001
R31/290060 NOSIG=
METAR UMOO 110630Z NIL=
0000012300
589
SABY31 UMMN 110630 RRA
METAR UMGG 110630Z 28011G15MPS 9999 BKN031CB BKN100 04/M00 Q1001
R28/290050 NOSIG=
0000013400
590
SAAJ31 UBBB 110630
METAR UBBN 110630Z 24002KT 2500 -SN BR OVC007 M09/M11 Q1026
R14R/490050 NOSIG RMK MT OBSC QFE694=
0000009700
591
SAAJ31 UBBB 110630
METAR UBBB 110630Z 19021KT CAVOK 06/01 Q1015 88CLRD70
NOSIG=
0000082100
592
SAUR30 UKMS 110630
METAR UKBB 110630Z 28008MPS 9999 BKN024 05/01 Q1007
         88290060 TEMPO    27011G16MPS -SHRA SCT015CB=
METAR UKHH 110630Z 27009MPS 9999 BKN017 04/01 Q1002
         25290050  TEMPO 28011G17MPS 2100 -SHRA=
METAR UKOO 110630Z 24004MPS CAVOK 02/M02 Q1019
         34190058 NOSIG=
METAR UKDE 110630Z 29008MPS CAVOK 04/02 Q1010
         20290356 NOSIG=
METAR UKDD 110630Z 28009MPS 260V340 CAVOK 03/01 Q1009
          26210358 TEMPO 29010G17MPS=
METAR UKFF 110630Z 25004MPS CAVOK 03/01 Q1019
         19010070 NOSIG=
METAR UKLL 110630Z 26007MPS 9999 BKN046 04/M04 Q1016
         31CLRD80 NOSIG=
METAR UKCC 110630Z 25008MPS 9999 OVC009 02/02 Q1007
         26190060 TEMPO 28012G17MPS=
METAR UKDR 110630Z 26008MPS CAVOK 02/M00 Q1011
         1819//60 NOSIG=
0000010700
593
SAAJ31 UBBB 110630
METAR UBBG 110630Z 31010KT 9999 FEW100 03/M04 Q1016
R30/CLRD70 NOSIG =
0000023100
594
SAGG31 UGTB 110630
METAR UGTB 110630Z 30018KT CAVOK 03/M06 Q1019 R31L/CLRD80 NOSIG=
METAR UGSB 110630Z 15013KT CAVOK 08/M03 Q1022 R13/CLRD70 NOSIG=
METAR UGKO 110630Z VRB02KT CAVOK 07/M03 Q1020 R07/09//70 NOSIG=
0000010600
595
SAER41 OMAM 110627 RRF
METAR OMAM 110630Z 17010KT 9999NDV FEW040 BKN100 19/10 Q1021 A3016=
0000010300
596
SAER41 OMAM 110630 RRF
METAR OMAM 110630Z 17010KT 9999 FEW040 BKN100 19/10 Q1021 A3016=
0000013000
597
SMZW21 FVHA 110600 RRB
AAXX 11064
67767 32975 70000 10271 20226 3//// 48/// 8707/ 333 20225 5////
      87460=
0000068200
598
SAUR31 UKMS 110630
METAR UKLR 110630Z 28010MPS 9999 BKN028 BKN100 04/00
         Q1012 NOSIG=
METAR UKLI 110630Z 27005MPS CAVOK 04/M03 Q1017
         28090070 NOSIG=
METAR UKON 110630Z 29009MPS CAVOK 04/M02 Q1015 NOSIG=
METAR UKCM 110630Z 24006MPS 5000 BR SCT016 04/01
         Q1011  19290060 NOSIG=
METAR UKCW 110630Z 24009MPS 9999 SCT020CB BKN040
         04/01  Q1005 2729//60 BECMG 27008G15MPS=
METAR UKLU NIL=
METAR UKKK 110630Z 27008MPS 9999 SCT014 BKN038 04/02
         Q1007  26250255 TEMPO 27012G18MPS=
METAR UKKM NIL=
METAR UKKE NIL=
METAR UKLN 110630Z 26004MPS 220V290 CAVOK 05/M06
         Q1017 3309//70 TEMPO 32011G16MPS=
0000010900
599
SPUR30 UKMS 110637
SPECI UKDE 110637Z 29008G13MPS 250V320 CAVOK 04/01
Q1010 20290356 NOSIG=
0000089200
600
SAUZ31 UTTW 110630
METAR UTFN 110630Z 00000MPS 050 R28/0550N FZFG BKN003 M05/M06 Q1028
R28/CLRD70 NOSIG RMK QBB110=
METAR UTNN 110630Z 00000MPS 9999 BKN033 03/M03 Q1022 R33/CLRD60
NOSIG=
METAR UTNU 110630Z VRB01MPS 7000 NSC 02/M04 Q1022 R31/CLRD60 NOSIG=
METAR UTSA 110630Z 16004MPS 9999 NSC 06/M09 Q1023 R07/CLRD70 NOSIG=
METAR UTSB 110630Z 17005MPS 130V200 4500 BR NSC 03/M04 Q1024
R01/CLRD70 NOSIG=
METAR UTSK 110630Z 18002MPS 120V230 CAVOK 04/M02 Q1024 R16/CLRD70=
METAR UTSS 110630Z 18004MPS 120V230 9999 NSC 06/M11 Q1022 R88/CLRD70
NOSIG=
METAR UTST 110630Z 36002MPS 6000 NSC 06/M01 Q1027 R88/CLRD70 NOSIG=
METAR UTFA 110630Z 00000MPS M0700 R04/M0700N FZFG VV004 M05/M06 Q1029
R88/09//70=
METAR UTFF 110630Z 32002MPS 280V340 2300 BR NSC M03/M04 Q1027
R18/CLRD70=
METAR UTTT 110630Z 04002MPS 010V070 CAVOK 06/M10 Q1024 R08R/CLRD70
NOSIG=
0000052700
601
SAER10 OMAM 110630
METAR OMAD 110630Z NIL=
METAR OMAH 110630Z 11010KT 7000 NSC 19/12 Q1021 A3015=
METAR OMAM 110630Z 17010KT 9999NDV FEW040 BKN100 19/10 Q1021 A3016=
METAR OMDL 110630Z 09015KT 8000NDV -RA OVC080 20/16 Q1019 A3011=
METAR OMDM 110630Z 10007KT CAVOK 19/10 Q1023=
METAR OMLW 110630Z 16008KT CAVOK 18/09 Q1021=
METAR OMMZ 110630Z AUTO 14008KT /////NDV //// ///// 18/07 Q1022 A3018=
METAR OMSN 110630Z NIL=
METAR OMSW 110630Z NIL=
METAR OMTH 110630Z 10010KT 9999 BKN090 19/10 Q1023=
0000003800
602
SAER50 OMAE 110650
NIL
0000011900
603
SAYE20 OYAA 110700
METAR OYAA 110700Z 11015KT 9999 FEW018TCU BKN025 26/17 Q1018=
METAR OYSQ 110700Z =
0000008800
604
SAYE20 OYSY 110700
METAR OYSY 110700Z 06007KT 010V110 CAVOK 22/10 Q1020=
0000006600
605
SAYE20 OYAA 110700 CCA
METAR COR OYSQ 110700Z NIL=
00000000