0000015700
233
SSVX13 LFPW 110600
ZZYY 64611 11014 0600/ 760974 022861 6113/ 11119 49992 52008 22219
 00084 444 20130 11014 0600/ 50101 80142 80003 9/015=
0000015700
234
SSVX13 LFPW 110600
ZZYY 25619 11014 0600/ 185759 091434 6113/ 11119 40057 52007 22219
 01090 444 20130 11014 0600/ 50101 80138 8//// 9/015=
0000015700
235
SSVX13 LFPW 110600
ZZYY 64666 11014 0600/ 765090 011145 6113/ 11119 49995 52004 22219
 00040 444 20130 11014 0600/ 50101 80148 80008 9/015=
0000015700
236
SSVX13 LFPW 110600
ZZYY 64526 11014 0600/ 766031 008358 6113/ 11119 40034 57005 22219
 00023 444 20130 11014 0600/ 50101 80142 80005 9/015=
0000015700
237
SSVX13 LFPW 110600
ZZYY 64662 11014 0600/ 766873 021644 6113/ 11119 49952 52005 22219
 00034 444 20130 11014 0600/ 50101 80150 80029 9/015=
0000015700
238
SSVX13 LFPW 110600
ZZYY 64606 11014 0600/ 766255 006852 6113/ 11119 40043 57005 22219
 00036 444 20130 11014 0600/ 50101 80134 80018 9/015=
0000015700
239
SSVX13 LFPW 110600
ZZYY 64623 11014 0600/ 170161 010572 6113/ 11119 40153 57002 22219
 00060 444 20130 11014 0600/ 50101 80140 80016 9/015=
0000015700
240
SSVX13 LFPW 110600
ZZYY 16616 11014 0600/ 549967 163183 6113/ 11119 49915 52030 22219
 00123 444 20130 11014 0600/ 50101 80072 80013 9/015=
0000015700
241
SSVX13 LFPW 110600
ZZYY 16550 11014 0600/ 343691 087561 6113/ 11119 40072 57004 22219
 00103 444 20130 11014 0600/ 50101 80148 80021 9/015=
0000015700
242
SSVX13 LFPW 110600
ZZYY 31734 11014 0600/ 525077 030156 6113/ 11119 40202 57008 22219
 00264 444 20130 11014 0600/ 50101 80142 80023 9/015=
0000015700
243
SSVX13 LFPW 110600
ZZYY 63642 11014 0600/ 170860 002861 6113/ 11119 40160 52001 22219
 00064 444 20130 11014 0600/ 50101 80108 80003 9/015=
0000015700
244
SSVX13 LFPW 110600
ZZYY 16537 11014 0600/ 334987 054643 6113/ 11119 40181 57006 22219
 00193 444 20130 11014 0600/ 50101 80144 80015 9/015=
0000275800
245
SMFI40 EFKL 110600
AAXX 11061
02720 47/99 /0102 11231 21251 39912 40181 700// 90600 
333 11178 21247 3//// 555 784// 0/202=
02721 47458 70612 11090 21110 30033 40041 52005 77170 87/// 90539
333 11061 21091 3//// 555 785// 0/113=
02737 46/// /0405 11121 21145 39933 40043 52010 90600 
333 11087 21121 3/112 555 61123 7833/ 0/206=
02748 47410 83604 11078 21108 39884 49995 771// 88/// 90600 
333 11069 21078 3//// 555 779// 80518 0/606=
02751 47350 80702 11043 21054 39990 49996 54001 77174 88/// 90539
333 11027 21043 3/104 555 7922/ 0/604=
02757 47381 83204 11020 21031 39961 49989 52017 78587 88/// 90539
333 10015 21021 3//// 555 792// 0/606=
02759 37499 83505 11039 21056 39953 49982 52019 70072 88/// 90600
333 11005 21041 3/104 555 61043 7880/ 0/508=
02777 37280 83301 11041 21048 39838 49990 52011 70000 88/// 90600
333 11005 21041 3/104 555 7940/ 80120 0/505=
02795 47482 83407 11026 21036 39975 49983 52020 70087 88/// 90539
333 10012 21027 3//// 222// 00030 555 793// 0/509=
02816 37959 03602 11281 21305 39845 40192 52007 77787 90600 
333 11173 21309 3/134 4/065 555 7796/ 0/602=
02824 369// 03404 11202 21222 39719 40189 52005 90600 
333 11199 21236 3//// 4/076 555 784// 0/204=
02834 37558 70304 11135 21156 39773 40043 52016 771// 87/// 90600
333 11093 21135 3/114 4/009 555 7846/ 80630 0/406=
02864 47/99 /0206 11159 21196 30083 40108 700// 90600 
333 11124 21160 3//// 555 773// 0/607=
02869 47/99 /0304 11169 21206 39759 40109 700// 90600 
333 11153 21177 3//// 555 773// 0/305=
02872 47/65 /0508 11132 21163 30066 40068 52013 77770 90539 
333 11100 21133 3/113 555 7783/ 0/409=
02874 16/// /0506 11134 21174 69982 90600 
333 11106 21135 3/114 4/002 555 77158 0/508=
02881 37999 00304 11183 21211 39896 40114 53008 700// 90600 
333 11138 21183 3//// 4/038 555 61184 779// 0/605=
02903 47760 80506 11108 21125 30007 40041 771// 88/// 90600 
333 11081 21108 3//// 555 787// 81524 0/206=
02929 47458 73605 11083 21098 39830 49985 771// 87/// 90600 
333 11077 21091 3//// 555 789// 80366 0/507=
02942 31470 80403 11058 21072 39847 40000 52005 70292 8662/ 
333 11040 21058 3/106 4/998 555 61060 7885/=
02945 47475 83603 11071 21083 39816 40000 785// 88/// 
333 11045 21071 3//// 555 791// 80427 0/404=
02948 47470 83404 11074 21092 39857 49978 771// 88/// 90600 
333 11074 21082 3//// 555 787// 80518 0/405=
02966 47482 83506 11064 21079 39848 49974 700// 88/// 90600 
333 11033 21064 3//// 555 61067 789// 0/207=
02970 47550 80000 11016 21017 39992 49998 771// 83/// 90600 
333 10001 21016 3//// 555 799// 0//02=
02998 37399 73104 11034 21055 39955 49987 52020 70087 87/// 90600
333 10002 21036 3/104 555 7855/ 0/606=
89014 NIL=
0000003800
246
USIL01 BIRK 110600
NIL
0000007100
247
SMMC23 GMMC 110600
AAXX 11064
60285 NIL=
60340 NIL=
0000015400
248
SMVB11 LFPW 110600
BBXX
DIUR2 11064 99059 10879 41398 70911 10295 20260 40120 54000 70322
8671/
22263 00300 20502 303// 40904 80270=
0000119800
249
SSVX08 KARS 110605
ZZYY 51307 10014 1200/ 707996 124994 6111/
33311 88870 20020 32716 20040 32700 20060 32432 20080 31859
20100 31404 20120 31260 20140 31194 20180 31113 20300 31000
444 20110 10014 1057/ 521//=
ZZYY 51307 11014 0500/ 707995 124989 6111/
11119 10272 29086
444 20110 11014 0445/ 521//=
ZZYY 51307 10014 1200/ 707996 124994 6111/
33311 88870 20020 32716 20040 32700 20060 32432 20080 31859
20100 31404 20120 31260 20140 31194 20180 31113 20300 31000
444 20110 10014 1057/ 521//=
ZZYY 48400 10014 12004 750144 144847 6111/
11119 01126 10064 29092
22219 00091
33311 88872 20000 30912 20001 30906 43226
444 20110 10014 1218/ 521// 60401=
ZZYY 48400 11014 05004 750120 144828 6111/
11119 03430 10069 29082
22219 00090
444 20110 11014 0456/ 521// 60401=
ZZYY 48400 10014 12004 750144 144847 6111/
11119 01126 10064 29092
22219 00091
33311 88872 20000 30912 20001 30906 43226
444 20110 10014 1218/ 521// 60401=
ZZYY 51015 11014 05004 705071 124961 6112/
11119 01312 10267 29081
444 20120 11014 0444/ 521// 60401=
ZZYY 51015 11014 05004 705071 124961 6112/
11119 01312 10267 29081
444 20120 11014 0444/ 521// 60401=
0000022400
250
SSVX07 KARS 110605
ZZYY 48733 11014 0540/ 772964 152382 6113/
11119 11255 40064
444 20130 11014 0504/ 504//=
ZZYY 48508 11014 0540/ 772722 159216 6113/
11119 11262 40094
444 20130 11014 0503/ 504//=
0000011000
251
UANT01 CWAO 110606
ARP AFR011 4557N04015W 0605 F390 MS52 285/42 KT
FGZCM QXT AOW 110606 J69A
0000010900
252
UANT01 CWAO 110606
ARP EDW5L 4727N03806W 0605 F380 MS50 279/34 KT
HBJHQ QXT AOW 110606 J63A
00000000