0000067200
433
SXXX32 EUMS 110552 RRX
32CC9580
OT12 ID:ID-ENGG-07 DT:2014 01 11 05 51
:PRS /1 01717 01638 01682 01656 01688 01672 01660 01667 01683 01726 01671 01666 01664 01681 01665 01686 01736 01711 01723 01725 01706 01758 01682 01723 01695 01728 01764 01754 01735 01701
:PR2 /1 05115 05088 05086 05088 05078 05108 05073 05106 05118 05152 05087 05104 05087 05129 05096 05126 05115 05155 05138 05128 05129 05143 05116 05152 05129 05157 05145 05133 05139 05113
:RAD /1 06018 05981 06003 05982 05976 06011 05970 06013 06012 06030 06027 06000 05997 06014 06009 06008 06032 06051 06056 06025 06020 06035 06015 06044 06033 06058 06085 06039 06043 06031
:BAT 13.5V/
0000070400
434
SXXX32 EUMS 110552 RRX
26BED7DE

ST TRISTAN
DT 11/01/14 11/01/14
TM 05:45:00 05:15:00
RD 00000 00000 00000 00000 00000 00000 00000 00000 00000 00000 00000 00000 00000 00000 00000 00000 00000 00000 00000 00000 00000 00000 00000 00000 00000 00000 00000 00000 00000 00000
P1 00000 00000 00000 00000 00000 00000 00000 00000 00000 00000 00000 00000 00000 00000 00000 00000 00000 00000 00000 00000 00000 00000 00000 00000 00000 00000 00000 00000 00000 00000
P2 00000 00000 00000 00000 00000 00000 00000 00000 00000 00000 00000 00000 00000 00000 00000 00000 00000 00000 00000 00000 00000 00000 00000 00000 00000 00000 00000 00000 00000 00000
T1 00.0 00.0
T2 00.0 00.0
VB 12.8
0000029100
435
SXXX32 EUMS 110554 RRX
166AC436
OT12 ID:IC-COMI-10 DT:2014 01 11 05 53
:RAD /1 05324 05289 05297 05313 05304 05304 05314 05263 05317 05321 05321 05303 05332 05326 05344 05357 05319 05323 05348 05337 05341 05344 05360 05348 05347 05359 05366 05346 05349 05371
:BAT 13.8V
0000012900
436
FCIN90 VEAT 110600
TAF VEAT 110600Z 1109/1118 33006KT 3000 HZ NSC BECMG 1111/1113
00000Z 1500 BR FEW020 SCT100 =

0000009200
437
SAIN90 VEBS 110600
METAR VEBS 110600Z 14004KT 2000 HZ NSC 28/18 Q1017 NOSIG=
0000037900
438
SXXX32 EUMS 110554 RRX
12FD90D0
:PRS 1 /1 1252 1242 1248 1236 1239 1258 1251 1262 1263 1263 1253 1253 :RAD 1 /3 5811 5814 5812 5801 5789 5780 5779 5782 5795 5794 :ENC 3 /6 5543 5543 5517 5509 5534 5514 5479 5471 5463 5467 :RA2 3 /6 4699 4695 4670 4666 4691 4667 4636 4628 4618 4627 :SW1 54 /60 60 :SW2 24 /60 60 :BAT 5 /6 13.4 :WTP 5 /6 28.3 28.3 :NAME 12FD90D0
0000045300
439
SXXX32 EUMS 110554 RRX
224AD678
:PRS 2 /1 1859 1860 1863 1863 1862 1862 1861 1863 1861 1861 1860 1857 1859 1856 1854 1854 1855 1859 1863 1863 1861 1860 1856 1853 1853 1853 1853 1855 1857 1854 :RAD 4 /3 4676 4677 4677 4672 4674 4677 4673 4665 4665 4667 4671 4673 4671 4672 4674 4676 4680 4680 4682 4683 :ENC 4 /5 8209 8210 8208 8208 8205 8201 8203 8206 8204 8206 8212 8216 :SW1 54 /60 60 :SW2 24 /60 60 :BAT 14 /15 13.3 :NAME 224AD678 /
0000069800
440
SXXX32 EUMS 110554 RRX
229C0324
OT12 ID:MZ-NIH2-09 DT:2014 81 11 05 44
:RAD /1 05841 05844 05843 05842 05841(05844 05843 05841 0=844 05844 05846 05845 05845 05845 05848 05845 05846 05847 0=849 05847 05850 05851 05852 05853 05851 05854 05855 05856 05856 05858
:PR9 /1 /////(///// ///'/ ///// ///// ///// ///// ///// ///// ///// ///// ///// ///// ///// ///// ///// ///// ///// ///// ///// ///// ///// ///// ///// ///// ///// ///// ///// ///// /'///
:PR2 /1 ///// ///// ///// ///'/ ///// ///// '//// ///// ///// ///// ///// ///// ///// ///// ///// ///// ///// ///// ///// ///// ///// ///// ///// ///// ///// ///// ///// ///// ///// /////
:TM1 /15 /// /// /// ///
:BAT 13.7V
0000011100
441
UANT99 KDDL 110556
ARP UPS210 6011N01519W 0555 F320 MS47 234/23 KT
N359UP QXT IGW 110556 F13A
0000011100
442
UANT99 KDDL 110556
ARP DAL408 4834N02517W 0556 F350 MS58 205/59 KT
N172DN QXT AOE 110556 F28A
0000011100
443
UANT99 KDDL 110556
ARP AAL104 5111N02839W 0556 F400 MS53 212/68 KT
N778AN DDL XXW 110556 F43A
0000011000
444
UANT99 KDDL 110556
ARP AAL56 4433N02826W 0555 F350 MS50 214/54 KT
N724AN DDL XXW 110556 F83A
0000005000
445
BMRR01 DEMS 110522
VRMM
SQN 054=
0000009200
446
SAFJ31 NFFN 110600
METAR NFFN 110600Z 16009KT 9999 FEW030 28/22 Q1004 NOSIG=
0000009400
447
SACY42 EGRR 110550
METAR LCRA 110550Z 33003KT 9999 FEW035 SCT250 08/M00 Q1023=
0000040600
448
SAUK39 EGRR 110550
METAR EGQL 110550Z 25012KT 9999 FEW045 01/M01 Q1008 BLU=
METAR EGQM 110550Z AUTO 27012KT 9999 NCD 04/M01 Q1009=
METAR EGVN 110550Z 26005KT 9999 FEW030 05/04 Q1013 BLU NOSIG=
METAR EGXT 110550Z AUTO 29011KT 9999 FEW050/// 06/05 Q1011 RERA=
METAR EGXV 110550Z AUTO 29006KT 9999 BKN080/// 05/02 Q1010=
METAR EGXW 110550Z 32007KT 9999 FEW020 BKN060 05/04 Q1011 BLU=
0000319900
449
UDFR01 LFPW 110557
AMDAR 1105
ASC EU5735 4434N 02608E 110542 F009 PS050 /// 261/006 TB0 S031
333 F009 VG001=
UNS EU5735 4435N 02610E 110543 F025 PS020 /// 269/013 TB0 S031
333 F025 VG009=
UNS EU5735 4435N 02610E 110543 F032 PS002 /// 237/004 TB1 S031
333 F032 VG029=
UNS EU5735 4437N 02610E 110543 F037 MS009 /// 351/003 TB0 S031
333 F037 VG012=
ASC EU5735 4437N 02608E 110544 F042 MS019 /// 001/012 TB0 S031
333 F042 VG001=
ASC EU5735 4438N 02607E 110544 F048 MS007 /// 341/012 TB1 S031
333 F048 VG019=
ASC EU5735 4438N 02605E 110544 F057 PS002 /// 291/020 TB1 S031
333 F057 VG033=
ASC EU5735 4440N 02604E 110545 F070 MS009 /// 283/018 TB1 S031
333 F070 VG022=
ASC EU5735 4440N 02602E 110545 F080 MS024 /// 290/020 TB0 S031
333 F080 VG002=
ASC EU5735 4441N 02600E 110545 F090 MS052 /// 277/021 TB1 S031
333 F090 VG020=
ASC EU5735 4442N 02558E 110546 F101 MS067 /// 295/026 TB1 S031
333 F101 VG030=
ASC EU5735 4443N 02557E 110546 F109 MS089 /// 294/027 TB1 S031
333 F109 VG010=
ASC EU5735 4444N 02555E 110546 F113 MS099 /// 295/029 TB0 S031
333 F113 VG001=
ASC EU5735 4444N 02553E 110547 F117 MS109 /// 299/028 TB0 S031
333 F117 VG001=
ASC EU5735 4446N 02551E 110547 F120 MS117 /// 304/026 TB0 S031
333 F120 VG004=
ASC EU5735 4447N 02549E 110547 F124 MS117 /// 311/025 TB0 S031
333 F124 VG002=
ASC EU5735 4448N 02546E 110548 F130 MS114 /// 320/025 TB0 S031
333 F130 VG007=
ASC EU5735 4449N 02544E 110548 F138 MS119 /// 302/031 TB1 S031
333 F138 VG010=
ASC EU5735 4450N 02541E 110548 F148 MS147 /// 298/032 TB0 S031
333 F148 VG003=
ASC EU5735 4452N 02538E 110549 F155 MS169 /// 296/034 TB0 S031
333 F155 VG004=
ASC EU5735 4453N 02537E 110549 F163 MS179 /// 302/034 TB1 S031
333 F163 VG014=
ASC EU5735 4454N 02534E 110549 F170 MS184 /// 308/034 TB1 S031
333 F170 VG008=
ASC EU5735 4455N 02531E 110550 F176 MS202 /// 305/035 TB1 S031
333 F176 VG010=
ASC EU5735 4456N 02528E 110550 F184 MS214 /// 307/037 TB1 S031
333 F184 VG019=
ASC EU5735 4458N 02526E 110550 F190 MS227 /// 306/039 TB0 S031
333 F190 VG002=
ASC EU5735 4458N 02523E 110551 F197 MS237 /// 306/041 TB0 S031
333 F197 VG003=
ASC EU5735 4500N 02521E 110551 F203 MS254 /// 302/042 TB0 S031
333 F203 VG002=
ASC EU5735 4501N 02518E 110551 F209 MS269 /// 302/042 TB0 S031
333 F209 VG002=
ASC EU5735 4502N 02516E 110552 F215 MS284 /// 305/043 TB0 S031
333 F215 VG006=
ASC EU5735 4504N 02513E 110552 F221 MS294 /// 301/047 TB0 S031
333 F221 VG001=
ASC EU5735 4505N 02510E 110552 F226 MS312 /// 301/046 TB0 S031
333 F226 VG005=
ASC EU5735 4506N 02507E 110553 F230 MS324 /// 301/046 TB0 S031
333 F230 VG002=
ASC EU5735 4507N 02505E 110553 F235 MS337 /// 303/046 TB0 S031
333 F235 VG000=
ASC EU5735 4508N 02502E 110553 F239 MS349 /// 306/047 TB0 S031
333 F239 VG004=
ASC EU5735 4510N 02459E 110554 F244 MS359 /// 306/047 TB1 S031
333 F244 VG010=
ASC EU5735 4511N 02456E 110554 F248 MS367 /// 309/046 TB1 S031
333 F248 VG007=
ASC EU5735 4512N 02454E 110554 F252 MS372 /// 311/046 TB0 S031
333 F252 VG001=
ASC EU5735 4514N 02451E 110555 F256 MS379 /// 307/046 TB1 S031
333 F256 VG006=
0000010000
450
SMVC11 LFPW 110600
BBXX
BAREU08 11064 99302 50725 46/// ///// 40111 57018
22243=
0000011100
451
UANT99 KDDL 110556
ARP DAL615 5805N04645W 0556 F360 MS59 274/32 KT
N185DN QXS UAK 110556 F04A
0000011100
452
UANT99 KDDL 110556
ARP BER7341 4432N01611W 0556 F400 MS57 255/43 KT
DABXC QXT AOE 110557 J28A
00000000