0000010000
913
SAGI32 EGRR 110550
METAR LXGB 110550Z 03001KT 9999 FEW013 SCT025 BKN100 14/13 Q1016=
0000027300
914
SAUK63 EGRR 110550 RRA
METAR EGDR 110550Z 33007KT 9999 FEW035 04/02 Q1017=
METAR EGQS 110550Z 25018KT CAVOK 02/M00 Q1005=
METAR EGVO 110550Z 27010KT 9999 FEW038 SCT047 BKN220 07/05 Q1013 RERA=
METAR EGXC 110550Z 31011KT 9999 FEW012 SCT045 06/04 Q1011=
0000010000
915
SNST41 EGRR 110400 RRB
AAXX 11044
88900 45/// /0307 10031 20024 39928 49930 58012=
0000015100
916
SNST41 EGRR 110500 RRA
AAXX 11054
88900 45/// /0404 10029 20023 39923 49925 57019=
88903 42/// /2300 10004 21005 39925 49925 56017=
0000010200
917
SNUK42 EGRR 110500 RRB
AAXX 11054
03014 46/// /2828 49997 52011
  333 90710 91135=
0000176400
918
SMNO01 ENMI 110600
AAXX 11061
01001 11462 41902 11001 21011 30126 40138 57002 69942 72681 84800
      333 21005 47999 70005 91109=
01008 11580 72508 11003 21056 30052 40086 52003 60002 70222 875//
      333 21012 79999 91112=
01010 11989 01106 11059 21125 30151 40168 52004 69902 70200 333
      21067 79999 91109=
01026 11589 11201 11120 21133 30033 40184 52005 69912 70200 81100
      333 21130 43061 70001 91103=
01055 46/// /2205 11023 21073 30154 40172 54000 333 21039 91107=
01062 11475 72204 11017 21036 30088 40101 53003 69932 70272 878//
      333 21021 44999 70006 91106=
01098 11475 70105 11021 21099 30137 40155 54000 69902 70122 875//
      333 21043 47999 70025 91110=
01115 11989 00906 11051 21132 30075 40097 52003 60002 70200 333
      21055 70000=
01152 11989 01110 11074 21168 30106 40122 53002 60002 70200 333
      21081 91114=
01205 46/// /0404 11004 21053 39937 49983 55005 333 21009 91109=
01212 16/// /1003 11024 21070 39971 49989 56004 69912 333 21027
      70002 91106=
01271 17/84 00704 11110 21164 30020 40042 53002 6//// 700// 333
      21113 91107=
01288 11440 80703 11162 21187 39264 40060 53003 69942 77072 887//
      333 21172 47025 70034 91108=
01300 NIL=
01317 11375 21602 10041 20019 39953 49968 56009 60042 7020/ 82700
      333 20025 70082 91107=
01367 16/// /0000 11054 21064 39535 49986 57002 6//// 333 21066
      91106=
01384 11226 80703 11039 21048 53007 69932 77172 8772/ 333 70003=
01403 11575 62813 10058 20028 39923 49991 57003 6//// 70282 86900
      333 20052 91118=
01415 17568 22905 10051 20018 39996 40007 55000 6//// 700// 333
      20051 91110=
01482 46/// /2511 10056 20038 39961 49970 55007 333 20046 91113=
01492 NIL=
0000012000
919
SMAA41 KPAL 110600
AAXX 11061 
89061 36/66 /0202 11008 21027 30003 40009 57013    
333  91003 91103=
0000145200
920
SMNO02 ENMI 110600
AAXX 11061
01003 NIL=
01007 11589 82502 11015 21057 30068 40077 57001 60002 70222 885//
      333 21033 47042 70000 91106=
01028 11670 22401 11016 21027 30110 40130 52004 60022 72682 82800
      333 21030 70025 91110=
01047 41984 00000 11289 21308 39792 40184 54000 70210 333 21319
      48060=
01049 16/// /2002 11158 21175 30197 40200 53004 60002 333 21160
      70000 91104=
01078 11385 60504 11021 21072 30156 40166 55001 60052 70382 85340
      333 21073 70084 91108=
01102 46/// ///// 11062 21111 30043 40063 55002 333 21064 91121=
01160 41989 00709 11056 21130 30125 40143 52003 70200 333 21057
      91116=
01218 NIL=
01238 11482 52701 11136 21149 38824 49951 56002 60002 70121 82640
      333 21146 70004 91103=
01241 11486 21008 11085 21127 30011 40023 53003 69902 70370 81772
      333 21092 47003 70003 91111=
01281 16/// /2901 11115 21159 39902 40087 54001 60002 333 21116
      70000 91109=
01338 16/// /3003 10009 21004 39899 49966 57008 69972 333 20005
      70050 91109=
01359 11680 52404 11006 21048 39042 49950 55008 69992 72682 85200
      333 21028 48045 70010 91110=
01397 16/// /3302 11105 21135 39583 40039 53005 60042 333 21105
      70079 91104=
01400 NIL=
01427 11570 42808 10064 20047 39991 40006 56003 60002 70282 84900
      333 20058 70004 91110=
01447 NIL=
01448 46/// /2705 10056 20041 39995 40004 55001 333 20052 91113=
0000028700
921
SXHW11 KWAL 110605
B150314C 011060523"
1,140111,05:00:00,3.3,179,4.4,21.2,1014.8,0.00,13.6,
1,140111,05:15:00,3.0,171,4.3,21.1,1014.9,0.00,13.6,
1,140111,05:30:00,3.1,172,4.3,20.9,1015.1,0.00,13.6,
1,140111,05:45:00,3.0,171,4.6,20.9,1015.3,0.00,13.6, 48+0NN 210W
0000028300
922
SXHW11 KWAL 110605
B15047DC 011060533"
1,140111,05:00:00,1.0,2,1.0,19.5,1019.2,45.88,13.1,
1,140111,05:15:00,1.0,2,1.0,19.6,1019.3,45.88,13.1,
1,140111,05:30:00,1.0,2,1.0,19.6,1019.4,45.88,13.1,
1,140111,05:45:00,1.0,2,1.0,19.0,1019.5,45.88,13.1, 43+0NN 210W
0000003800
923
UKIL01 BIRK 110600
NIL
0000012200
924
SNVX21 EDZW 110400
BBXX
DBLK 11041 99770 50340 41497 /0505 11032 21045 49920 52005
7//// 22221 05019 =
0000012600
925
SMAB01 LATI 110600
AAXX 11061
13615 45761 /0701 10101 20078 30190 40236 53007 8//// 333 10125
20093 88/50=
0000012200
926
SNVX21 EDZW 110500
BBXX
DBLK 11051 99770 50340 41697 /0206 11033 21043 49923 52006
7//// 22221 05019 =
0000067100
927
SXXX32 EUMS 110555 RRX
366C76AC
OT12 ID:IR-CHAB-07 DT:2014 01 11 05 54
:RAD /1 01163 01161 01148 01136 01133 01126 01110 01106 01101 01104 01100 01093 01083 01070 01067 01055 01044 01041 01022 01012 01018 01019 01017 01019 01012 01003 00998 00985 00978 00976
:PR1 /1 01585 01594 01585 01569 01560 01549 01542 01540 01531 01527 01523 01511 01492 01497 01484 01484 01476 01456 01451 01449 01447 01443 01447 01445 01437 01431 01419 01422 01412 01399
:PR2 /1 01161 01152 01142 01136 01123 01115 01110 01105 01095 01097 01091 01087 01077 01060 01057 01047 01037 01033 01024 01016 01019 01015 01016 01016 01005 01004 00991 00975 00980 00968
:BAT 13.4V
0000010000
928
SAIN90 VEAT 110600
METAR VEAT 110600Z 31005KT 2800 HZ NSC 24/13 Q1015 BECMG 3000 HZ=
0000039700
929
SXXX32 EUMS 110557 RRX
16590056
:PRS 1 /1 2703 2706 2706 2706 2708 2715 2711 2710 2718 2722 2722 2722 :RAD 1 /1 7016 7020 7021 7021 7021 7028 7026 7026 7032 7034 7038 7038 7043 7042 7039 7040 7043 7038 :ENC 6 /6 5248 5259 5248 5229 5243 5262 5243 5232 5214 5231 :ENB 6 /6 5244 5254 5243 5225 5239 5257 5239 5229 5212 5227 :SW1 57 /60 0 :SW2 24 /60 0 :BAT 5 /6 13.0 :NAME 16590056
0000037000
930
SXXX32 EUMS 110557 RRX
22E595B6
:PRS 1 /1 M 3544 3538 3545 3506 3507 3532 3556 3526 3505 3501 3504 3466 3464 3452 3478 3498 3469 3466 3398 3412 3473 3462 3455 3444 3409 3432 3427 3383 3397 :RAD 1 /3 6695 6685 6667 6649 6640 6622 6612 6602 6586 6577 :ENC 2 /5 4829 4813 4774 4746 4738 4706 :SW1 57 /60 60 :SW2 27 /60 60 :BAT 14 /15 13.8 :NAME 22E595B6 /
0000065100
931
SXXX32 EUMS 110557 RRX
16AF741C
OT12 ID:SA-MAIS-07 DT:2014 01 11 05 47
:RAD /1 08780 08786 08916 08868 08934 08870 08856 08904 08832 08972 08817 08895 08911 08945 08928 08836 08792 08994 08855 08980 09000 08893 08824 08866 08843 08751 08820 08808 08819 08868 08848 08915 08892 08847 08774 08883 08890 08876 08756 08875 08879 08901 08852 08892 08738 08884 08909 08892 08888 08759 08992 08797 08887 08830 08853 08752 08890 08788 08767 08813 08732 08827 09091 08814 08907 08845 08842 08906 08838 08805 08768 08893 08829 08760 08787 08830 08818 08844 08795 08841 08798 08849 08710 08829 08835 08705 08731 08816 08807 08810
:BAT 13.0V
0000045200
932
SXXX32 EUMS 110558 RRX
32BD7124
:PRS 1 /1 2126 2128 2131 2136 2131 2121 2116 2113 2109 2105 2101 2096 2092 2088 2085 2082 2082 2080 2082 2085 2080 2079 2073 2073 2074 2072 2073 2071 2070 2069 :RAD 3 /3 7915 7903 7894 7882 7873 7867 7862 7857 7857 7855 7853 7845 7832 7828 7814 7812 7803 7803 7799 7800 :ENC 3 /5 4910 4891 4871 4864 4856 4852 4849 4831 4816 4803 4799 4798 :SW1 59 /60 0 :SW2 29 /60 60 :BAT 14 /15 13.2 :NAME 32BD7124 /
00000000