0000011000
793
SMIN90 VISM 110600
AAXX 11064
42083 32697 30000 10050 20014 4//// 83500
  333 58010 83640=
0000010400
794
SMIN90 VIDD 110600
AAXX 11064
42182 31993 02908 10138 20099 40198 71144
  333 58018=
0000020300
795
SAIN35 VIDP 111000
METAR VAUD 111000Z 06007KT 3000 HZ NSC 18/04 Q1018=
METAR VIDN 111000Z 23008KT 6000 SCT025 BKN040 18/09 Q1018=
METAR VILD 111000Z 27002KT 5000 HZ NSC 19/3 Q1019=

0000011000
796
SMIN90 VIJP 110600
AAXX 11064
42343 31995 10204 10150 20006 40191 70500 80001
  333 58017=
0000012100
797
FCIN90 VEBS 110600
TAF VEBS 110600Z 1109/1118 12005 KT 2500 HZ NSC BECMG 1112/1114  14003 KT 2000 HZ =

0000011800
798
SPIN90 VIDP 110530
SPECI VIDP 110530Z 29006KT 0800 R28/1500 R29/1500 HZ NSC 12/07
      Q1019 NOSIG=
0000171100
799
SMVD15 KWNB 110600 RRC
BBXX
42055 11061 99222 70940 46/// /1605 10232 40141 51005 90550 22200
00228 10902 20501 306// 40902 70010 333 91206 555 11057 22062
30451 41408 60549 162053 157059 156065 151067 150066 147071 81507
90453=
42003 11061 99260 70856 46/// /1506 10254 40165 58006 90550 22200
00250 10602 20501 313// 40601 70010 333 91207 555 11065 22070
30516 41408 60549 145060 143062 146060 143061 142061 143058 81507
90535=
42057 11061 99170 70815 46/// /0907 10268 20231 40151 54000 90550
22200 00275 10805 20603 310// 40804 70024 333 91209 555 11075
22079 30452 40910 60549 085071 085067 088072 094071 094079 095081
80909 90452=
41047 11061 99275 70715 46/// /1207 10243 20232 40239 57008 90550
22200 00255 10804 20703 309// 40803 70022 333 91209 555 11076
22080 30523 41110 60549 117073 118078 116080 121078 119078 115077
81109 90523=
42039 11061 99288 70860 46/// /1607 10216 20216 40164 58010 90550
22200 00212 10501 20501 70007 333 91208 555 11070 22076 30532
41508 60549 157066 152065 150065 145063 147063 149064 81507 90527=
41048 11061 99320 70695 46/// /1308 10204 20153 40276 58012 90550
22200 00213 10803 20503 311// 40802 70017 333 91210 555 11087
22092 30501 41311 60549 126082 123083 126081 118083 129086 124080
81309 90501=
44066 11061 99396 70726 46/// /1506 10122 20117 40233 58026 90550
22200 00111 10402 20401 316// 40901 70008 333 91207 555 11063
22070 60549 155057 160057 161059 162059 161060 158062=
41040 11061 99145 70530 46/// /0708 10244 20202 40147 56012 90550
22200 00262 10806 20704 307// 40804 70028 333 91210 555 11089
22094 30500 40612 60549 071083 063093 068084 075086 079091 068098
80710 90500=
0000046700
800
SMVD17 KWNB 110600 RRC
BBXX
46078 11061 99560 71526 46/// /2308 10021 20019 49960 56011 90550
22200 00045 11105 20602 323// 41104 70023 333 91210 555 11085
22089 30535 42412 60549 232082 242087 249073 238080 224075 223075
82410 90536=
46066 11061 99528 71550 46/// /1809 10047 49978 56022 90550 22200
00054 11105 20602 324// 41104 70025 333 91211 555 11095 22100
30543 41711 60549 179089 176088 178088 173084 174078 180077 81810
90543=
0000036700
801
SMST01 EGRR 110600
AAXX 11064
61901 169// /1310 10181 20166 39659 40165 53006 69962 333 20179
 3/017 70006 8//99 555 7/090=
61902 32480 11312 10234 20189 40126 81100 333 20232 59007 81818=
88878 46/// /2113 10050 20017 40051 52021=
88889 11583 72122 10037 21019 39962 40048 51016 69901 70282 878//
 333 70020 82824 87638 91030 90710 91131=
0000391400
802
SMUK01 EGRR 110600
AAXX 11064
03005 11462 82711 10039 20015 39893 49994 53010 60032 72782 889//
  333 20034 31001 55005 55300 20000 70042 81916 83818 85638=
03017 15589 /2714 10045 20025 39998 40030 52008 60022
  333 20021 3/000 55003 55300 20000 70020 81/25 83/31=
03023 NIL=
03026 15984 /2409 10019 21006 30044 40062 52017 69942
  333 20012 3/101 55030 55300 20000 70022 8//99=
03063 17986 /2105 10003 21013 39795 40078 52009 69902 724//
  333 21018 3/105 55005 55300 20000 70002 8//99=
03066 15985 /2412 10024 21004 30058 40065 53009 60002
  333 20006 3/106 55009 55300 20000 79999 8//99=
03075 15574 /2408 10006 21012 39999 40044 53012 60002
  333 20004 3/101 70008 81/26=
03091 15982 /2709 10027 21030 39979 40060 55000 60002
  333 20006 3/104 55001 55300 20000 79999 81/69=
03100 17773 /2710 10034 20012 30079 40095 51014 60042 723//
  333 20014 3/101 55028 55300 20000 70054 83/56 90710 91131=
03111 16475 /2621 10047 20023 30100 40113 53014 69922
  333 20041 3/002 70050 81/14 86/60 90710 91127=
03134 17684 /2509 10026 20013 30026 40099 52010 69962 721//
  333 20005 3/103 55000 55300 20000 70054 81/33=
03136 15780 /2410 10046 20022 30074 40108 52012 69922
  333 20014 3/102 55000 55300 20000 70076 84/50 87/62=
03162 NIL=
03166 15983 /2408 10021 20000 30023 40094 51007 69922
  333 20020 3/100 55005 55300 20000 70022 8//99=
03171 12681 22512 10009 21006 30070 40082 52006 60002 81530
  333 21006 31106 55001 55300 20000 79999 81645=
03204 11565 82811 10055 20022 30111 40131 53015 69902 78081 8783/
  333 20035 31102 55000 55300 20000 70014 82820 87650 88362=
03240 15984 /2712 10037 21007 30065 40093 53009 69942
  333 20017 3/102 55001 55300 20000 70004 8//99=
03257 NIL=
03292 169// /2907 10047 20019 30080 40099 53018 69922
  333 20047 3/004 70002 88/58=
03302 NIL=
03354 15880 /2805 10048 20026 39985 40129 53026 60022
  333 20045 3/003 55013 55300 20000 70024 87/57=
03377 11575 63207 10053 20035 30029 40114 53021 60022 72162 865//
  333 20053 31004 55015 55300 20000 70018 81620 86656=
03414 NIL=
03462 17783 /2911 10059 20045 30031 40121 53020 60012 723//
  333 20059 3/005 55023 55300 20000 70010 81/50=
03482 NIL=
03502 NIL=
03535 17670 /3005 10044 20031 30018 40137 53029 60012 723//
  333 20044 3/002 55/// 553// 20000 70012 83/36=
03590 NIL=
03649 11681 12605 10054 20044 30041 40142 53024 69982 70265 81500
  333 20053 31003 55016 55300 2//// 70010 81630=
03680 16/// ///// 10063 20045 39978 40135 53015 60022
  333 20063 3/005 55/// 553// 20000 70024=
03716 15978 /3007 10049 20042 30097 40158 51028 60012
  333 20049 3/003 55003 55300 20000 70010 8//99=
03740 169// /2608 10046 20041 39974 40153 53023 69942
  333 20046 3/003 55012 55300 2//// 70006 8//99=
03746 NIL=
03772 17481 /2711 10081 20067 30106 40137 53011 60022 781//
  333 20072 3/007 55039 55300 20000 70018 81/10 85/41=
03796 46/// /2314 10081 20067 39994 40137 57003
  333 20073=
03803 15984 /3308 10069 20029 30146 40184 51021 69982
  333 20069 3/004 70010 8//99=
03808 12567 13308 10068 20028 30072 40179 52024 60022 81500
  333 20067 31004 55004 55300 20000 70026 81625=
03809 11680 13307 10041 20024 30085 40179 51024 60022 70160 81500
  333 20038 31100 70022 81635=
03827 15581 /3405 10041 20025 30111 40174 53024 60012
  333 20041 3/101 70012 81/26=
03840 15980 /3010 10040 20028 39852 40163 53021 60012
  333 20038 3/001 70010 8//99=
03853 NIL=
03874 46/// /3110 10077 20063 30134 40145 53014
  333 20077 90710 91129=
03882 17359 /2209 10085 20073 30075 40138 56003 60002 704//
  333 20069 3/005 55020 55300 20000 70002 87/07 84/14=
03894 11260 83209 10079 20071 40169 53014 69922 75865 885//
  333 20078 31006 82705 87613=
03917 17276 /2407 10016 20013 30061 40140 53023 69962 741//
  333 20003 3/102 55000 55300 20000 70044 84/04 86/50=
0000020000
803
SMFR01 LFPW 110600 CCA
AAXX 11064
07027 01/05 60000 10038 20034 30087 40170 53008 69982 74442 80001
  333 10059 20028 32000 55025 69907 70008 86074 90710 91104 93100
  555 60005=
0000029700
804
SMMH02 PKMR 110600
AAXX  11064
91258 11474 60910 10283 20256 30074 40077 60021 70282 86200 333
562// 86815 70005 555 91106
91367 32474 40713 10289 20259 84100 333 562// 84815 70000 555 91106
91369 32474 20915 10300 20250 30065 40068 82100 333 562// 82815
70000 555 91106=
0000252900
805
SMSQ01 LZIB 110600
AAXX 11061
11812 36/// /3004 10027 21020 39507 42806 57001
  333 20016 3////=
11813 16/// /9901 10044 21012 39857 40211 57001 60002
  333 20030 3/104 70000=
11816 12680 70000 10004 21003 30047 40216 55001 60002 86501
  333 21013 34104 79999 86644 83073=
11819 16/// /0301 11013 21018 39996 40221 52002 60002
  333 21019 3/107 70000=
11826 12965 30000 11036 21053 30015 40224 53002 60002 82041
  333 21037 34106 70000 82359 83070=
11841 12775 72902 10011 21010 39829 40215 53003 60002 87500
  333 20005 31101 70002 87650=
11855 11658 41101 11014 21018 30047 40219 54000 60002 71000 84500
  333 21036 34106 70000 84643=
11856 36/// /0401 10008 21006 39893 40221 54000
  333 21004 3/106=
11858 12675 81602 10024 21000 30067 40222 53003 60002 885//
  333 21002 31106 70000 88640=
11867 12768 60201 10000 21006 39894 40221 51005 60002 86540
  333 21010 34105 79999 86656=
11880 12662 69901 11023 21023 30044 40223 52002 60002 86500
  333 21033 34106 79999 86643=
11900 16/// /0000 11016 21023 39875 40223 52004 60002
  333 21020 3//// 79999=
11903 12770 31802 11018 21028 39827 40222 53004 60002 82530
  333 21018 34105 70000 82656=
11916 11/02 93207 11092 21096 37944 48456 52013 69902 74944
  333 21095 3//// 44037 70010 89/00 91012 91124 93540=
11918 12682 72304 10016 21047 39364 42793 53002 60002 8557/
  333 20009 31000 70002 85646=
11927 12765 39901 11011 21015 39944 40215 54000 60002 81501
  333 21011 34104 70000 81650 83070=
11930 11589 33209 11080 21325 37306 47975 53006 69932 70271 81041
  333 21133 3//// 44060 70051 81330 83060 91020 91124
  444 36234=
11933 12480 29902 11048 21072 38647 48460 52001 60002 82540
  333 21055 3/107 42009 70005 81616=
11934 12684 59901 11034 21067 39364 42793 51004 60002 81501
  333 21038 34106 79999 81640 85070=
11938 12680 30000 11039 21057 39118 42791 52003 60002 82501
  333 21045 3/106 41998 70000 82636 93501=
11952 16/// /9901 11025 21065 39353 42792 52005 60002
  333 21024 3/105 70000=
11958 36/// /2404 11050 21051 3//// 4////
  333 21052 3////=
11968 11006 22901 11036 21036 39925 40219 52007 60002 74244 82600
  333 21038 34107 79999 82701=
11976 11217 89901 10003 21004 39939 40211 52010 60002 71022 886//
  333 21004 32103 70018 88706=
11978 11230 80000 10010 20007 30079 40213 52012 60002 71022 886//
  333 20010 32001 70009 88704=
11993 11256 89901 10001 21000 39994 40218 52011 60002 71022 886//
  333 21017 31105 70007 88704=
0000054400
806
SMSQ10 LZIB 110600
AAXX 11061
11816 12680 70000 10004 21003 30047 40216 55001 60002 86501
  333 21013 34104 79999 86644 83073=
11826 12965 30000 11036 21053 30015 40224 53002 60002 82041
  333 21037 34106 70000 82359 83070=
11903 12770 31802 11018 21028 39827 40222 53004 60002 82530
  333 21018 34105 70000 82656=
11934 12684 59901 11034 21067 39364 42793 51004 60002 81501
  333 21038 34106 79999 81640 85070=
11968 11006 22901 11036 21036 39925 40219 52007 60002 74244 82600
  333 21038 34107 79999 82701=
0000010600
807
SMAA01 KWBC 110600
AAXX 11061
89504 43/// /1907 11061 21142 38453 49926 54000 333 21061=
0000024600
808
SMCU01 KWBC 110600
AAXX 11061
78229 32559 20803 10228 20212 30117 40192 54000 82202 333 82830=
78255 42559 10803 10202 20183 30042 40191 54000 81501 333 81625=
78264 32560 23403 10213 20179 30103 40177 52010 82200 333 82820=
0000304500
809
SMMX01 KWBC 110600
AAXX 11061
76040 32920 03601 10110 20072 30185 40199 52018 90550 333 10248
20042 30/// 55092 58034 98620=
76160 32958 01101 10154 20001 39933 40182 52018 90540 333 10265
20070 30/// 58032=
76220 31920 00000 10000 2//// 38170 40179 52016 70002 90545 333
10184 21018 30/// 55087 58032 96122 96126=
76225 32920 02701 10098 21013 38621 40108 52012 90540 333 10215
20098 30/// 55062 58029=
76243 32970 02202 10138 20121 39843 40133 52010 90540 333 10230
20096 30/// 55011 59020=
76305 32970 03302 10172 20059 30164 40173 51003 90545 333 10230
20140 30/// 55069 58///=
76323 32950 23601 10038 21012 38304 40216 52018 80002 90540 333
10194 20040 30/// 55042 56005 58032 83268=
76342 31840 71801 10180 20042 39444 40131 52002 70222 87070 90550
333 10275 20090 30/// 55066 2//// 56050 59005 87458=
76382 32960 41401 10134 20102 38915 40146 52014 80001 90545 333
10244 20098 30/// 55046 2//// 56005 58044 84076=
76390 31950 02002 10069 21020 38240 40150 52012 70544 90548 333
10210 20050 30/// 55097 2//// 58030=
76393 31910 02201 10164 20128 39569 40135 52009 70544 90549 333
10278 20145 30/// 55078 58000 91102 91401=
76412 32960 01801 10130 20109 30128 40174 52001 90548 333 10270
20100 30/// 55047 58010=
76458 32960 03302 10192 20148 30146 40150 52008 90545 333 10271
20152 30/// 55092 58005=
76525 32960 02302 10085 21029 37479 40141 52005 90540 333 10138
20065 30/// 55096 22593 58013=
76548 32460 32960 10194 20188 30140 40140 51011 80601 885// 90545
333 10282 20168 30/// 55053 56050 59044 88358=
76556 32960 01602 10143 20098 39122 40127 54000 90547 333 10266
20100 30/// 55098 58004=
76577 32560 40000 10144 20129 38055 40159 52014 84500 90540 333
10220 20062 30/// 55057 56500 58004 84622=
76581 32960 02601 10127 20112 39058 40147 52016 90550 333 10280
20180 30/// 55072 58///=
76593 32950 01403 10220 20214 30152 40154 52004 90550 333 10302
20206 30/// 55053 21046 59023=
76612 32860 32701 10112 20063 38485 40143 52011 83030 90550 333
10248 20050 30/// 55085 21096 56050 58000 83358=
76658 11558 32701 10220 20199 39656 40154 52013 69931 70540=
76683 32965 00000 10102 20064 37836 40139 51010 90545 333 10216
20055 30/// 50291 55088 21672 59005=
76695 32956 00000 10208 20202 30134 40140 58002 90550 333 10322
20208 30/// 55074 59030=
76726 32968 03301 10186 20093 38396 40082 52008 90545 333 10272
20152 30/// 55083 58006=
76743 31940 03500 10210 20195 30126 40134 55001 70000 90545 333
10250 20205 30/// 55/// 59037=
76750 32558 20502 10232 20221 30138 40148 57005 82100 90545 333
10310 20166 30/// 55063 56300 59016 82820=
76775 32960 00801 10154 20110 38525 40146 52012 90545 333 10306
20088 30/// 55091 59009=
76843 32965 02901 10209 20182 39483 40114 52006 90545 333 10309
20155 30/// 55108 59026=
76845 32930 00000 10104 20101 37953 40170 51004 90548 333 10225
20070 30/// 55062 59007=
76855 32980 03602 10236 20198 30083 40131 53019 90540 333 10330
20206 30/// 55105 58/// 92001=
0000024400
810
SMVD17 KWNB 110600 RRD
BBXX
51101 11061 99243 71621 46/// /0613 10227 20191 40158 51008 90550
22200 00237 11110 20406 305// 41108 70049 333 91216 555 11139
22148 30503 40517 60549 057132 053137 051132 055133 055136 056133=
0000024400
811
SMVD15 KWNB 110600 RRD
BBXX
41009 11061 99285 70802 46/// /1606 10244 20214 40198 56011 90550
22200 00241 10804 20501 306// 40803 70018 333 91207 555 11061
22066 30456 41609 60549 157057 154066 152069 152069 152071 151072=
0000013400
812
SICS01 MROC 110303
AAXX 11034
78762 32570 11012 10203 20133 39132 40117 52017 81500
333   30/// 56300 59008 81630=
00000000