0000125700
513
FTUS80 KWBC 102033 AAC
TAF AMD
KLGA 102031Z 1021/1118 06005KT 2SM BR SCT008 OVC015
      TEMPO 1021/1024 1SM -DZ BR BKN008
     FM110000 06005KT 1SM BR FEW005 BKN008 OVC012
      TEMPO 1102/1105 -RA
     FM110500 15007KT 3/4SM -RA BR BKN005 OVC008 WS020/19040KT
     FM110800 15011KT 3/4SM -RA BR OVC004 WS020/19055KT
     FM111400 17016KT 1SM -RA BR OVC004 WS015/19060KT=
KLOZ 102030Z 1021/1118 VRB03KT P6SM OVC022
     FM102100 20005KT P6SM SCT015 OVC050
     FM110000 20005KT P6SM VCSH SCT015 OVC050
     FM110700 18010KT 4SM -RA BR OVC020
     FM111000 20006KT P6SM -RA OVC015
     FM111500 24009G17KT P6SM OVC015
     FM111700 25015G22KT 4SM BR OVC035=
KMCW 102030Z 1021/1118 15010KT 1SM -FZDZ BR OVC002
      TEMPO 1021/1024 1/4SM FZFG
     FM110100 20006KT 1SM BR OVC010
     FM110500 26009KT 5SM BR OVC025
     FM111100 29011KT P6SM SCT025 BKN080
     FM111600 30015G22KT P6SM OVC100=
KSME 102029Z 1020/1118 VRB03KT P6SM SCT020 OVC029
     FM102100 20005KT P6SM SCT015 OVC050
     FM110000 20006KT P6SM VCSH SCT015 OVC050
     FM110600 18010KT 4SM -RA BR OVC020
     FM111000 20006KT P6SM -RA OVC015
     FM111500 24009G17KT P6SM OVC015
     FM111700 25015G22KT 4SM BR OVC035=

0000075800
514
FTUS80 KWBC 102033 AAD
TAF AMD
KSWF 102031Z 1021/1124 VRB02KT 5SM BR OVC015
     FM110000 VRB02KT 2SM BR FEW006 BKN012 OVC025
      TEMPO 1102/1105 -DZ BKN006 OVC015
     FM110500 14004KT 3/4SM -RA BR BKN006 OVC010
     FM110800 16008KT 1/2SM -RA FG OVC004
     FM111400 17010KT 1/2SM -RA FG OVC004 WS015/19050KT
     FM111900 17014KT 1SM RA OVC004 WS015/19050KT AMD NOT SKED=
KTEB 102031Z 1021/1118 VRB03KT 3SM BR SCT008 OVC020
      TEMPO 1021/1024 1SM -DZ BR BKN008
     FM110000 VRB02KT 1SM BR SCT006 OVC012
      TEMPO 1102/1105 -RA BKN006 OVC012
     FM110500 15003KT 3/4SM -RA BR BKN005 OVC008
     FM110800 15007KT 3/4SM -RA BR OVC004 WS020/19050KT
     FM111400 17009KT 1SM -RA BR OVC004 WS015/19050KT=

0000010400
515
SPUS41 KWBC 102033
SPECI
KBDR 102029Z 13003KT 1 3/4SM BR BKN028 OVC033 01/00 A3037=

0000010100
516
SPUS43 KWBC 102033
SPECI
KOMA 102029Z 14004KT 1 3/4SM -SN BR OVC005 01/00 A2955=

0000012300
517
SPBZ18 SBGR 102029
SPECI SBGR 102029Z 20003KT 8000 -TSRA BKN030
FEW040CB BKN100 22/17 Q
1016 RERAGR=

0000010100
518
SPPR00 SPIM 102030
SPECI SPJR 102030Z 04006KT 9999 VCSH SCT023 OVC037 17/12 Q1023=

0000010300
519
SASG20 GOOY 102030
METAR GOOY 102030Z 01011KT 9999  FEW010 BKN130 20/13 Q1013 NOSIG=

0000019000
520
FTRA32 RUMS 102000 CCA
TAF COR UHPP 101950Z 1021/1203 36005G12MPS 9999 BKN020CB OVC100
650200 550009 TEMPO 1021/1023 1000 SHSN BKN003 TEMPO 1023/1110 2000
SHSN BKN004=

0000005900
521
FCOS32 LOWM 102000
TAF LOXZ 102000Z NIL=

0000054300
522
FTSW31 LSSW 102000
TAF LSZH 102025Z 1021/1203 VRB03KT 9999 BCFG FEW035 SCT230
     TX08/1115Z TN02/1106Z BECMG 1021/1023 4000 BECMG 1022/1101 1000
     PRFG PROB40 TEMPO 1022/1106 0300 FG VV001 BECMG 1108/1111 8000
     BKN110 BECMG 1115/1118 6000 BKN020 TEMPO 1117/1124 -RA BKN010=
TAF LSGG 102025Z 1021/1203 VRB03KT CAVOK TX09/1113Z TN02/1103Z
     PROB40 1103/1110 5000 BR OVC005 PROB30 1102/1105 1500 BCFG
     SCT003 PROB40 TEMPO 1110/1115 24007KT TEMPO 1115/1120 9999
     BKN090 BECMG 1119/1121 04006KT=

0000009700
523
SPAU32 AMMC 102029
SPECI YMAV 102030Z AUTO 26008KT 9999 // OVC013 17/13 Q1018=

0000049100
524
SARH31 LDZM 102030
METAR LDSP 102030Z 00000KT 9999 FEW020 SCT035 12/09 Q1022 NOSIG =
METAR LDPL 102030Z 10005KT 9999 FEW020 OVC055 11/09 Q1021 NOSIG =
METAR LDDU 102030Z 07004KT 9999 SCT020 BKN033 11/09 Q1022 NOSIG =
METAR LDZA 102030Z 04004KT 010V070 0600 R05/0375V0600D R23/0325V0650D
BCFG FEW004 05/05 Q1021 TEMPO 0300 =
METAR LDZD 102030Z 14003KT 9999 BKN060 08/08 Q1022 NOSIG =
METAR LDRI 102030Z NIL=
METAR LDOS 102030Z 07006KT 0700 FG NSC 04/04 Q1022=

0000029600
525
FCRO32 LROM 102000
TAF LRAR 102000Z NIL=
TAF LRBM 102000Z NIL=
TAF LRCL 102000Z 1021/1106 VRB02KT 5000 BR BKN045 TEMPO 1100/1106
1500 BR=
TAF LROD 102000Z NIL=
TAF LRSM 102000Z NIL=
TAF LRTM 102000Z 1021/1106 VRB04KT 3000 BR SCT010 TEMPO 1100/1106
1500 BR BKN005=

0000019900
526
FCRO33 LROM 102000
TAF LRBC 102000Z NIL=
TAF LRCV 102000Z NIL=
TAF LRIA 102000Z 1021/1106 25005KT CAVOK TEMPO 1100/1106 3000 BR=
TAF LRSV 102000Z NIL=
TAF LRTC 102000Z NIL=

0000083700
527
SATU31 LTAA 102020
METAR LTAC 102020Z VRB02KT 4500 BR OVC007 M03/M03 Q1022 BECMG TL2100
 1200 BCFG OVC003=
METAR LTAF 102020Z 06003KT 5000 BR NSC 06/01 Q1021 NOSIG=
METAR LTAI 102020Z 35005KT 6000 NSC 06/05 Q1022 NOSIG=
METAR LTAJ 102020Z VRB01KT CAVOK M01/M06 Q1021 NOSIG=
METAR LTAZ 102020Z 00000KT 9999 BKN009 M01/M02 Q1023=
METAR LTBA 102020Z 27004KT 230V320 6000 NSC 10/08 Q1020 BECMG
 21012KT=
METAR LTBJ 102020Z 00000KT 6000 NSC 04/03 Q1021 NOSIG=
METAR LTBS 102020Z 05004KT CAVOK 08/06 Q1022 NOSIG=
METAR LTCG 102020Z VRB01KT 4900 FU NSC 06/00 Q1016 BECMG TL2120 9999
 NSW=
METAR LTCS 102020Z 05003KT 350V090 CAVOK 04/M06 Q1021=
METAR LTFC 102020Z NIL=
METAR LTFE 102020Z 11002KT 6000 FEW035 BKN120 08/07 Q1022 NOSIG=
METAR LTFJ 102020Z 22004KT 180V260 6000 NSC 09/07 Q1020 NOSIG=

0000059000
528
SATU32 LTAA 102020
METAR LTAG 102020Z 04008KT CAVOK 03/M01 Q1020 NOSIG=
METAR LTAN 102020Z NIL=
METAR LTAP 102020Z 00000KT CAVOK M03/M05 Q1021 NOSIG=
METAR LTAT 102020Z 21007KT CAVOK M07/M08 Q1022 NOSIG=
METAR LTAU 102020Z VRB01KT 1200 R25/P1500D R07/P1500D BCFG VV002
 M03/M04 Q1023 NOSIG=
METAR LTBF 102020Z NIL=
METAR LTBU 102020Z VRB01KT 4000 BR SCT018 08/07 Q1020=
METAR LTCC 102020Z 00000KT CAVOK M01/M05 Q1021 NOSIG=
METAR LTCE 102020Z 04002KT 2500 BR NSC M26/M28 Q1022 BECMG TL2200
 1200 BCFG=
METAR LTCJ 102020Z 04006KT CAVOK M02/M03 Q1021=

0000008900
529
SATU35 LTAA 102020
METAR LCEN 102020Z 29008KT CAVOK 07/03 Q1021 NOSIG=

0000013900
530
SANO31 ENMI 102020 RRA
METAR ENOL 102020Z 08011KT 9999 -SN FEW007 BKN009 M07/M10 Q1001 TEMPO
           1500 SN VV005=

0000011700
531
SPCN49 CWAO 102028
SPECI CYLU 102028Z 24015G23KT 1/4SM -SN +BLSN VV007 RMK SN8 VIS VERB
1/4-3/4=

0000016300
532
SAXX69 EGRR 102000 RRB
METAR KQTZ 101955Z 12003G24KT 3200 BR FEW010 SCT015 OVC030 10/08 A3003
      RMK SLP170 WND DATA ESTMD ALSTG/SLP ESTMD=

00000000