0000009600
653
SMAL53 EUMS 110600 RRB
AAXX 11064
60660 36/// /1502 10177 21044
  333 20129=
0000009600
654
SMAL51 EUMS 110600 RRB
AAXX 11064
60672 36/// /0000 10116 21121
  333 20114=
0000009600
655
SMAL54 EUMS 110600 RRA
AAXX 11064
60677 36/// /0000 10073 21035
  333 20070=
0000009200
656
SMAL55 EUMS 110600
AAXX 11064
60679 36/// /3402 10109 21240
  333 20063=
0000011100
657
UANT01 CWAO 110622
ARP UPS208 6059N04005W 0621 F310 MS59 229/26 KT
N331UP QXT IGW 110622 F41A
0000011000
658
UANT01 CWAO 110622
ARP BAW172 5310N02847W 0622 F340 MS59 205/77 KT
GCIVZ QXT AOE 110622 F18A
0000011000
659
UANT01 CWAO 110623
ARP BAW284 5735N05546W 0623 F350 MS57 275/64 KT
GCIVX QXS YHO 110623 F26A
0000011000
660
UANT01 CWAO 110623
ARP BAW292 4724N04817W 0623 F370 MS65 317/56 KT
GVIIC QXS YYT 110623 F06A
0000011100
661
UANT01 CWAO 110623
ARP DAL142 4947N03116W 0623 F350 MS59 198/51 KT
N825MH QXT AOW 110623 F33A
0000014400
662
SMMW21 FWCL 110600 RRA
AAXX 11060
67690 32580 70801 10268 20236 83378 333 20230 5//// 55/// 81920 84454 81280 555 10290 7//92=
0000051700
663
SMIS01 LLBD 110600
AAXX 11064
40153 11658 33508 10055 20034 39144 48531 52024 69912 71000 83400 333   20045
      70001 =
40179 11559 71002 10114 20107 30200 40238 52024 60032 71062 333   20103 50051
      55038 70043 =
40180 11560 51004 10116 20102 30194 40244 52025 60022 70262 85100 333   20109
      70016 =
40190 16/// /0000 10096 20091 39908 40246 52022 69952 333   20073 70021 =
40199 11660 70402 10108 20091 30226 40253 52024 60002 70560 85663 333   20098
      50411 70000 =
0000010700
664
SAIN90 VILK 110630
METAR VILK 110630Z 01003KT 1000 R27/1300 MIFG VV/// 15/13
Q1017 NOSIG=
0000047600
665
FTIN90 VEGT 110600
TAF VEGT 110600Z 1109/1118 03005KT 3000 HZ SCT018 BKN100 BEC
1112/1114 00000KT 2500 HZ BEC 1116/1118 2000 BR=
VELR 110600Z 1109/1118 04006KT 3000 HZ SCT018 BKN100 BEC
1112/1114 00000KT 2500 HZ BEC 1116/1118 2000 BR=
VEKU 110600Z 1109/1118 05005KT 4000 HZ SCT018 BKN100 BEC
1112/1114 00000KT 2500 HZ BEC 1116/1118 2000 BR=
VEIM 110600Z 1109/1118 03006KT 3000 HZ SCT018 BKN100 BEC
1112/1114 00000KT 2000 BR BEC 1116/1118 1500=

0000009200
666
SMIN90 VISM 110600
AAXX 11064
42066 32595 20502 10010 21017 82100
  333=
0000009400
667
UXIN90 VABP 110600
PPAA 6106/ 42667
ASCENT SUSPENDED DUE TO OTHER REASON=

0000012100
668
SMIS42 LLBD 110600
AAXX 11064
40183 13/// /3110 10086 20071 39295 48546 52023 60022 333   20075 70016 =
0000012400
669
SMRS13 RUMS 110600 RRC
AAXX 11061
22292 42195 21303 11335 21372 30182 40187 53001 71000 80001 333
21340=
0000013000
670
SMRS13 RUMS 110600 RRD
AAXX 11061
22446 41156 80506 11169 21188 39922 40025 50003 78583 889// 333 87703
91115=
0000757400
671
SMVF01 EGRR 110600
BBXX
62027 11064 99491 70022 46/// /2409 1//// 2//// 40164
53010 22200 0//// 10902 334// 70009=
2AUO5 11063 99606 10017 41397 82826 10060 49961 57011 70222 882//
22251 20503 334// 41006=
62163 11064 99475 70084 46/// /0313 10101 20065 40181 51015 22200
00121 10905 70026=
62105 11064 99550 70132 46/// /2519 10073 20018 40121 52015 22200
00108 10910 70051 333 90710 91129=
62301 11064 99524 70047 46/// /2818 10082 20036 40157 51025 22200
00098 10503 70016=
62001 11064 99452 70050 46/// /3503 10116 20066 40185 53010 22200
00127 10703 70013=
62107 11064 99501 70061 46/// /3215 10090 20025 40187 51024 22200
00104 10804 70021=
62304 11064 99512 10018 46/96 /1819 10073 20063 40139 57008 22200
00101 10501 70004 333 90710 91129=
64045 11064 99591 70117 46/// /2818 10054 20006 40051 51019 22200
00097 10808 70039=
62103 11064 99499 70029 46/// /3422 10093 20049 40167 53022 22200
00112 10702 70011 333 90710 91126=
62305 11064 99504 70000 46/// /23// 10096 20075 40151 55002 22200
00109 10601 70006=
62129 11064 99584 10003 46/// /2822 10060 20006 40028 53002 22200=
62128 11064 99587 10014 47998 /2723 10052 20015 40017 55004 700// 22200 10706 70031=
63057 11064 99592 10015 47598 /2617 10063 20014 49999 56001 700// 22200 10706 70032=
MQSY9 11064 99593 10015 47598 /2724 10064 20023 58008 700// 22200=
63110 11064 99595 10015 47598 /2820 10063 20024 49998 55001 700// 22200 10706 70032=
63109 11064 99596 10015 46/// /2722 10062 20017 49988 55001 22200=
63056 11064 99597 10016 47598 /2722 10064 20013 49986 55001 700// 22200 10707 70033=
62113 11064 99584 10002 47598 /2823 10059 20006 40034 53002 700// 22200=
ZQSD5 11064 99583 10008 47598 ///// 10064 20015 40024 53003 700// 22200 1//07 70036=
62114 11064 99583 10000 46/// /2824 10061 20014 40027 53003 22200=
64041 11064 99607 70026 47698 /2821 49987 53009 700// 22200 10908 70040=
MWYG6 11064 99603 70040 47598 /2717 40005 53011 700// 22200=
62111 11064 99580 70003 46/// /2823 10060 20011 40056 53004 22200 10605 70024=
PJAI 11064 99581 70014 47598 /2718 10062 20005 40040 53005 700// 22200=
62112 11064 99584 70002 47598 /2817 10072 20020 40029 53002 700// 22200=
63055 11064 99606 10016 47598 /2718 10067 20034 49970 56003 700// 22200 10706 70029=
63108 11064 99608 10017 47/99 /3408 10052 20026 49960 56009 700// 22200 10706 70029=
63106 11064 99610 10017 46/// /0814 10023 55001 22200=
63105 11064 99610 10017 47398 /0811 10063 21005 49969 54000 700// 22200=
63113 11064 99610 10017 46/// /0814 10042 20018 49964 58001 22200 10706 70032=
63112 11064 99611 10010 47498 /1010 10040 20024 49963 53002 700// 22200 10706 70031=
63107 11064 99611 10017 46/// /0914 10039 49966 55002 22200=
63101 11064 99612 10009 46/// /0814 10026 20008 49969 53002 22200 10706 70030=
63103 11064 99612 10011 46/// ///// 10026 20017 49960 53002 22200 10706 70030=
63104 11064 99612 10016 47498 /0813 10027 21007 49972 53001 700// 22200 10706 70030=
63117 11064 99613 10011 47498 /0815 49974 53004 700// 22200=
63114 11064 99613 10017 47498 /0712 10018 21012 49974 53003 762// 22200=
63115 11064 99616 10013 47494 /0613 10020 21015 49976 53003 771// 22200 10806 70029=
62127 11064 99540 10007 47998 ///// 10066 20027 40100 53017 700// 22200 10502 70012=
62165 11064 99540 10011 47498 /3214 10067 20044 40097 52017 700// 22200 10502 70012=
62123 11064 99563 10022 47998 /3018 10068 21005 40061 52011 700// 22200 1//05 70023=
62132 11064 99564 10020 46/// /3216 10067 20003 40067 52013 22200=
62120 11064 99564 10021 47598 /3017 10063 21007 40059 52007 700// 22200=
62131 11064 99539 10012 46/// /3310 10064 20055 40095 53014 22200=
62149 11064 99537 10011 47397 /3221 10068 20055 40098 53011 762// 22200 10502 70012=
62148 11064 99536 10015 46/// ///// 22200=
62150 11064 99536 10007 47497 /3403 10060 20060 40109 53014 761// 22200 10502 70010=
62121 11064 99535 10027 46/// ///// 10072 20060 40090 57012 22200=
62144 11064 99534 10017 47196 /2619 10069 20060 40099 53003 700// 22200 10503 70015=
62145 11064 99531 10028 47296 /2223 10076 20052 40094 56012 700// 22200 10503 70017=
62142 11064 99530 10021 47995 /2417 10069 20066 40097 56006 752// 22200 10403 70013=
62154 11064 99564 10022 46/// /3114 10066 21010 40057 53010 22200=
62152 11064 99570 10018 47698 /2914 10066 21007 40059 52007 700// 22200 10505 70024=
62134 11064 99580 10014 46/// /2921 10063 20012 40035 53001 22200 10605 70026=
62102 11064 99579 10018 47598 /2821 10072 21003 40032 53001 700// 22200 10605 70026=
62117 11064 99579 10000 47598 /2620 10061 20006 40030 50001 700// 22200 10504 70021=
62143 11064 99577 10018 47598 /3015 10063 20001 40051 52006 700// 22200 10605 70024=
62118 11064 99577 10009 47598 /2720 10061 20006 40039 53002 700// 22200 10605 70026=
62155 11064 99577 10007 47598 /2721 10059 20010 40049 53004 700// 22200 10605 70025=
62116 11064 99576 10011 47598 /2819 10059 20007 40042 53002 700// 22200 10605 70026=
62104 11064 99574 10013 47598 /2818 10067 20002 40045 53003 700// 22200=
62153 11064 99573 10020 47598 /2709 40046 53004 700// 22200 10604 70022=
62122 11064 99573 10016 47598 /2919 10064 21004 40048 52005 700// 22200 10605 70023=
62140 11064 99573 10013 46/// ///20 10062 21006 40050 52005 22200=
62146 11064 99572 10021 47598 /1902 10062 20004 40052 53008 700// 22200 10604 70022=
62164 11064 99572 10008 47598 /2819 10073 20007 40053 52002 700// 22200 00084 10605 70023=
62133 11064 99571 10009 46/// /2916 40053 52003 22200 10504 70021=
62119 11064 99570 10019 47698 /3018 10063 21009 40056 53007 700// 22200 10604 70021=
AMOUK05 1106/ 99522 10032 46/// ///// 10078 2//// 40107=
AMOUK06 1106/ 99514 10017 46/// ///// 10101 2//// 40134=
AMOUK13 1106/ 99513 10014 46/// ///// 10086 20068 40134=
AMOUK32 1106/ 99559 70047 46/// ///// 10042 20013 40100=
AMOUK04 1106/ 99533 70062 46/// ///// 10037 20011 40145=
AMOUK23 1106/ 99571 70018 46/// ///// 10046 21012 40066=
AMOUK28 1106/ 99576 70072 46/// ///// 1//// 2//// 40074=
AMOUK11 1106/ 99533 70062 46/// ///// 10031 20009=
AMOUK14 1106/ 99536 70039 46/// ///// 10075 20025 40120=
AMOUK43 1106/ 99540 70029 46/// ///// 10061 20036 40130=
AMOUK03 1106/ 99535 10005 46/// ///// 10058 20043 40093=
AMOUK44 1106/ 99546 70059 46/// ///// 1//// 2//// 40136=
AMOUK29 1106/ 99510 70069 46/// ///// 1//// 2//// 40172=
AMOUK02 1106/ 99535 70030 46/// ///// 10066 20037 40136=
AMOUK45 1106/ 99509 70014 46/// ///// 10074 20050 40138 22200   401380102=
AMOUK34 1106/ 99504 10005 46/// ///// 10094 20081 40146=
AMOUK09 1106/ 99516 10018 46/// ///// 10087 20086 40131=
AMOUK26 1106/ 99499 70047 46/// ///// 10086 20050 40176=
AMOUK42 1106/ 99506 70025 46/// ///// 10074 20045 40162=
AMOUK33 1106/ 99555 10084 46/// ///// 10069 20059 40059=
62303 11064 99516 70051 46/// /2919 10090 20033 40167 22200 10604
70019=
64046 11064 99605 70042 46/// /3123 10069 20026 49997 333 90710 91132=
62305 11064 99504 70000 46/// /2318 10096 20075 40151 55001 22200
00109 10601 70006 333 90710 91127=
62050 11064 99500 70044 46/// /3215 10093 20053 40175 22200 10502
70012=
62095 11064 99529 70156 46/// /2304 10078 20014 40133 50004 22200
00099 10907 70036=
62170 11064 99514 10020 46/97 /2321 10081 20068 40137 58007 22200
00104 10502 70010 333 90710 91125=
VRKZ7 11061 99307 70114 41998 03203 10171 20118 40166 54000 70200
80000 22213 00183 2//// 80142=
UASX 11060 99691 10351 41993 01704 11190 2//// 40210 54000 77744
80000 22200 20801=
0000137900
672
SMCD01 FTTJ 110600
AAXX 11064
64701 33960 00410 10141 20030 3//// 4////
  333 0//00 2//// 51754 ///// 55/// 5////=
64702 33960 31814 10224 20071 3//// 4//// 80002
  333 0//00 2//// 5//// ///// 55/// 5//// 83075=
64705 31958 70000 10125 20024 3//// 4//// 705// 80002
  333 0//00 2//// 50624 55/// ///// 5//// 87075=
64706 33960 53608 10181 21010 39671 40047 82032
  333 01500 20160 51244 55100 58010 82365 84075=
64708 NIL=
64709 NIL=
64710 33960 50000 10130 20022 3//// 4//// 80002
  333 0//00 20120 50954 ///// 55/// 5//// 85075=
64713 33960 70000 10150 20046 3//// 4//// 80002
  333 0//00 20144 50604 ///// 55/// 5//// 87075=
64722 33960 40000 10170 20074 3//// 4//// 80002
  333 0//00 20145 50604 5//// 55/// ///// 84075=
64751 33960 40404 10130 21014 3//// 4//// 80002
  333 0//00 20104 51654 ///// 55/// 5//// 84075=
64753 33960 00408 10140 20000 3//// 4////
  333 0//00 29125 50884 ///// 55/// 5////=
64754 33960 50404 10172 20021 3//// 4//// 80002
  333 0//00 20125 50634 ///// 55/// 5//// 85075=
64756 33960 51015 10153 20043 39541 4//// 80002
  333 0//00 20145 5//// ///// 55098 58017 85075=
64757 31958 10408 10138 20046 3//// 4//// 705// 80001
  333 0//00 20112 51564 55095 5//// 81075=
64758 33960 30000 10150 20045 3//// 4//// 80002
  333 0//00 20135 51554 ///// 55/// 5//// 83075=
64761 NIL=
00000000