0000042900
913
UDEU02 EGRR 111012
AMDAR 1110
ASC EU0498   5215N 00450E 111003 F026 PS037 260/044 TB/ S011=
ASC EU0498   5215N 00452E 111004 F032 PS030 267/043 TB/ S011=
ASC EU0498   5214N 00502E 111005 F048 MS002 271/040 TB/ S011=
ASC EU0498   5214N 00507E 111006 F064 MS032 267/043 TB/ S011=
ASC EU0498   5214N 00512E 111006 F080 MS065 262/040 TB/ S011=
UNS EU0498   5213N 00518E 111007 F099 MS100 255/040 TB/ S111=
0000190500
914
UDEU02 EGRR 111012 RRA
AMDAR 1109
ASC EU0446   5554N 00425W 110953 F011 PS020 256/025 TB/ S031=
ASC EU0446   5553N 00427W 110953 F018 PS002 269/027 TB/ S031=
ASC EU0446   5552N 00429W 110953 F024 MS012 267/026 TB/ S031=
ASC EU0446   5551N 00430W 110953 F031 MS027 274/024 TB/ S031=
ASC EU0446   5550N 00432W 110953 F036 MS045 281/026 TB/ S031=
ASC EU0446   5549N 00434W 110953 F047 MS065 284/029 TB/ S031=
ASC EU0446   5548N 00436W 110953 F060 MS087 286/035 TB/ S031=
ASC EU0446   5547N 00437W 110953 F074 MS102 276/035 TB/ S031=
ASC EU0446   5546N 00439W 110953 F085 MS122 286/026 TB/ S031=
ASC EU0446   5545N 00441W 110953 F107 MS182 286/029 TB/ S031=
ASC EU0446   5541N 00441W 110954 F122 MS212 276/037 TB/ S031=
ASC EU0446   5538N 00437W 110954 F140 MS260 275/043 TB/ S031=
ASC EU0446   5534N 00433W 110954 F159 MS307 285/045 TB/ S031=
ASC EU0446   5531N 00429W 110955 F173 MS322 299/057 TB/ S031=
ASC EU0446   5527N 00425W 110955 F186 MS327 301/073 TB/ S031=
ASC EU0446   5523N 00420W 110955 F199 MS342 303/082 TB/ S031=
ASC EU0446   5519N 00415W 110956 F212 MS372 304/090 TB/ S031=
ASC EU0446   5514N 00410W 110956 F227 MS410 305/092 TB/ S031=
ASC EU0446   5510N 00405W 110956 F242 MS442 305/089 TB/ S031=
ASC EU0446   5505N 00400W 110957 F257 MS470 302/086 TB/ S031=
ASC EU0446   5501N 00355W 110957 F272 MS487 296/091 TB/ S031=
ASC EU0446   5456N 00351W 110957 F292 MS505 304/075 TB/ S031=
ASC EU0446   5452N 00346W 110958 F308 MS505 283/058 TB/ S031=
ASC EU0446   5448N 00342W 110958 F313 MS507 273/063 TB/ S031=
ASC EU0446   5443N 00339W 110958 F322 MS517 275/074 TB/ S031=
ASC EU0446   5439N 00336W 110959 F330 MS495 282/059 TB/ S031=
ASC EU0446   5434N 00333W 110959 F330 MS490 286/057 TB/ S031=
ASC EU0446   5430N 00330W 110959 F330 MS495 288/055 TB/ S031=
ASC EU0446   5425N 00327W 111000 F330 MS487 288/055 TB/ S031=
0000043300
915
UDEU02 EGRR 111012 RRB
AMDAR 1109
LVR EU0030   4022N 01554W 110912 F320 MS517 268/054 TB/ S031=
LVR EU0030   4114N 01535W 110919 F320 MS520 264/058 TB/ S031=
LVR EU0030   4205N 01515W 110926 F320 MS525 266/054 TB/ S031=
LVR EU0030   4256N 01454W 110933 F330 MS552 267/059 TB/ S031=
LVR EU0030   4347N 01433W 110940 F330 MS555 267/063 TB/ S031=
LVR EU0030   4438N 01411W 110947 F330 MS552 267/067 TB/ S031=
0000043300
916
UDEU02 EGRR 111012 RRC
AMDAR 1109
LVR EU0036   4944N 00222W 110933 F330 MS580 259/056 TB/ S031=
LVR EU0036   4901N 00254W 110940 F330 MS577 261/050 TB/ S031=
LVR EU0036   4818N 00325W 110947 F330 MS587 270/055 TB/ S031=
LVR EU0036   4734N 00357W 110954 F330 MS585 275/050 TB/ S031=
LVR EU0036   4649N 00427W 111001 F330 MS572 280/040 TB/ S031=
LVR EU0036   4603N 00458W 111008 F330 MS572 283/031 TB/ S031=
0000068900
917
UDEU02 EGRR 111012 RRD
AMDAR 1109
ASC EU0514   5849N 01626E 110906 F386 MS529 297/038 TB/ S031=
LVR EU0514   5809N 01531E 110913 F400 MS540 297/046 TB/ S031=
LVR EU0514   5728N 01438E 110920 F400 MS531 294/045 TB/ S031=
LVR EU0514   5646N 01346E 110927 F400 MS526 297/040 TB/ S031=
LVR EU0514   5602N 01255E 110934 F400 MS548 295/031 TB/ S031=
LVR EU0514   5516N 01212E 110941 F400 MS530 289/036 TB/ S031=
LVR EU0514   5431N 01132E 110948 F400 MS529 275/042 TB/ S031=
LVR EU0514   5346N 01054E 110955 F400 MS535 270/045 TB/ S031=
LVR EU0514   5301N 01017E 111002 F400 MS538 265/045 TB/ S031=
LVR EU0514   5216N 00941E 111009 F410 MS548 259/035 TB/ S031=
0000017000
918
SOVI10 KWAL 111011
B110070A 011101101"P9751095 B\P~W@@F0ekJ1@mF???CgCi>@l{3@XC~@z4Cp5DC6bI9Kl<BH2?????@"??? iTJHKBMBOBMBGBABB:AMPTEMP 25.85C  44+0NN 219E
0000010900
919
UDEU02 EGRR 111013
AMDAR 1110
DES EU0515   5320N 00248W 111005 F005 PS032 280/019 TB/ S031=
0000190500
920
UDEU02 EGRR 111013 RRA
AMDAR 1109
ASC EU0776   4737N 00731E 110953 F016 PS050 281/010 TB/ S031=
ASC EU0776   4737N 00732E 110953 F022 PS065 283/015 TB/ S031=
ASC EU0776   4737N 00732E 110953 F026 PS060 303/018 TB/ S031=
ASC EU0776   4738N 00732E 110953 F029 PS055 311/013 TB/ S031=
ASC EU0776   4738N 00733E 110953 F038 PS055 257/009 TB/ S031=
ASC EU0776   4738N 00733E 110953 F050 PS032 252/020 TB/ S031=
ASC EU0776   4739N 00734E 110953 F061 PS027 270/016 TB/ S031=
ASC EU0776   4739N 00734E 110953 F073 PS000 264/019 TB/ S031=
ASC EU0776   4739N 00734E 110953 F080 MS012 249/023 TB/ S031=
ASC EU0776   4740N 00735E 110953 F098 MS050 241/031 TB/ S031=
ASC EU0776   4741N 00739E 110954 F109 MS077 247/039 TB/ S031=
ASC EU0776   4742N 00744E 110954 F111 MS080 246/039 TB/ S031=
ASC EU0776   4744N 00749E 110954 F128 MS117 246/039 TB/ S031=
ASC EU0776   4745N 00754E 110955 F145 MS157 252/044 TB/ S031=
ASC EU0776   4746N 00759E 110955 F163 MS197 263/040 TB/ S031=
ASC EU0776   4747N 00804E 110955 F178 MS225 265/047 TB/ S031=
ASC EU0776   4749N 00810E 110956 F193 MS260 264/047 TB/ S031=
ASC EU0776   4750N 00815E 110956 F207 MS297 256/049 TB/ S031=
ASC EU0776   4752N 00821E 110956 F215 MS320 250/051 TB/ S031=
ASC EU0776   4753N 00827E 110957 F221 MS337 250/051 TB/ S031=
ASC EU0776   4755N 00833E 110957 F228 MS355 249/053 TB/ S031=
ASC EU0776   4756N 00840E 110957 F236 MS362 255/058 TB/ S031=
ASC EU0776   4759N 00845E 110958 F247 MS385 258/063 TB/ S031=
ASC EU0776   4803N 00847E 110958 F260 MS415 260/062 TB/ S031=
ASC EU0776   4807N 00849E 110958 F271 MS437 257/054 TB/ S031=
ASC EU0776   4811N 00850E 110959 F283 MS462 258/054 TB/ S031=
ASC EU0776   4816N 00852E 110959 F296 MS490 268/042 TB/ S031=
ASC EU0776   4820N 00854E 110959 F309 MS520 286/034 TB/ S031=
ASC EU0776   4824N 00855E 111000 F321 MS550 298/033 TB/ S031=
0000011000
921
UANT99 KDDL 111009
ARP KLM755 4606N01722W 1009 F370 MS63 240/70 KT
PHBQG QXT AOE 111010 F67A
0000009700
922
SADL34 EDZO 102120 RRA
METAR EDNY 102120Z AUTO VRB02KT 6000 2800/ 02/01 Q1019=

0000009800
923
SAID31 WIII 102130
METAR WIII 102130Z 21003KT 2700 BR FEW020 25/23 Q1009 NOSIG=

0000011300
924
SIOM20 OOMS 110300 RRJ
AAXX 11034
41270 36/70 /0312 10188 20082 30160 40211
333 0E017 58010 =
0000009700
925
SAIR31 OIII 110500 RRA
METAR OIBS 110450Z 06024KT 9999 FEW035 OVC100 21/14 Q1022=
0000009700
926
SAIR77 OIII 110500 RRA
METAR OIBS 110450Z 06024KT 9999 FEW035 OVC100 21/14 Q1022=
0000215900
927
SZNZ01 NZKL 110512
CREX++
T000103 A001 D01021 D06025++
-3683144 17478654 AUCT  2014 01 11 05 04 //// 11 07 00 01
05745 3156 05736 3153 05730 3153 05722 3150 05714 3149 05707 3148+
-4402404 -17636748 CHIT  2014 01 11 05 04 //// 11 07 00 01
04696 2059 04689 2056 04686 2056 04663 2037 04629 2007 04635 2016+
-4089929 17623168 CPIT  2014 01 11 05 04 //// 11 07 00 01
03742 2283 03726 2272 03728 2280 03715 2271 03715 2277 03712 2280+
-3618905 17548887 GBIT  2014 01 11 05 04 //// 11 07 00 01
06171 0045 06157 0037 06164 0048 06162 0050 06146 0039 06131 0029+
-3867541 17802288 GIST  2014 01 11 05 04 //// 11 07 00 01
03994 2695 03985 2690 03985 2696 03971 2687 03981 2703 03951 2678+
-4241288 17370277 KAIT  2014 01 11 05 04 //// 11 07 00 01
03005 2175 03001 2176 03007 2187 03007 2192 03000 2190 02997 2192+
-3755040 17815904 LOTT  2014 01 11 05 04 //// 11 07 00 01
03713 0230 03707 0230 03691 0219 03698 0231 03689 0227 03686 0229+
-3704657 17451175 MNKT  2014 01 11 05 04 //// 11 07 00 01
03244 -0148 03262 -0134 03252 -0149 03264 -0142 03267 -0143 03280 -0134+
-3947566 17692007 NAPT  2014 01 11 05 04 //// 11 07 00 01
02954 2041 02952 2044 02932 2030 02901 2005 02905 2015 02906 2021+
-3441483 17304870 NCPT  2014 01 11 05 04 //// 11 07 00 01
02181 -2736 02172 -2741 02225 -2685 02180 -2728 02207 -2698 02195 -2707+
-4581435 17062939 OTAT  2014 01 11 05 04 //// 11 07 00 01
03959 3451 03954 3451 03949 3450 03944 3448 03938 3447 03933 3445+
-2928002 -17789440 RBCT  2014 01 11 05 04 //// 11 07 00 01
06298 2053 06299 2057 06292 2054 06278 2043 06294 2062 06305 2077+
-2925114 -17790384 RFRT  2014 01 11 05 04 //// 11 07 00 01
03199 0206 03200 0211 03213 0227 03196 0214 03208 0230 03203 0229+
-4357010 17277383 SUMT  2014 01 11 05 04 //// 11 07 00 01
01532 1838 01536 1848 01533 1851 01534 1858 01498 1828 01496 1832+
-3764109 17618118 TAUT  2014 01 11 05 04 //// 11 07 00 01
05451 3998 05445 3996 05439 3995 05434 3994 05429 3993 05428 3997+
-4128448 17477985 WLGT  2014 01 11 05 04 //// 11 07 00 01
02905 2022 02903 2025 02900 2025 02896 2026 02889 2022 02880 2017++
7777
0000025800
928
FCGG31 UGTB 110500
TAF UGKO 110500Z 1106/1115 VRB03KT 9999 SCT030CB OVC100 TEMPO
    1113/1115 24018KT=
TAF UGSB 110500Z 1106/1115 14011KT 9999 SCT060 BECMG 1108/1110
    21011KT TEMPO 1110/1115 17018G28KT TEMPO 1113/1115 SHRA BKN040CB=
0000079600
929
SAUR31 UKMS 110500
METAR UKLR 110500Z 27011MPS 9999 SCT026 OVC100 04/M00
          Q1011 NOSIG=
METAR UKLI 110500Z 26006MPS 9999 SCT040 BKN100 04/M04
          Q1016 28090070 NOSIG=
METAR UKON 110500Z 28008MPS CAVOK 03/M02 Q1014 NOSIG=
METAR UKCM 110500Z 27007MPS 9999 BKN017 04/02 Q1009
         19290060 NOSIG=
METAR UKCW 110500Z 26008MPS 9999 SCT014 BKN027CB
         04/02  Q1004 2729//60 TEMPO 27010G18MPS=
METAR UKLU 110500Z 13002MPS 9999 OVC006 02/01 Q1020
         NOSIG=
METAR UKKK 110500Z 27009MPS 9999 BKN022 05/02 Q1005
         26250255  TEMPO 27012G18MPS=
METAR UKKM 110500Z 30009G14MPS 9999 -RA OVC030 05/00
         Q1005=
METAR UKKE NIL=
METAR UKLN 110500Z 27006MPS 230V310 CAVOK 05/M06
         Q1016 33////// TEMPO 32011G16MPS=
0000010300
930
SAPK31 OPSK 110453
METAR OPSK 110500Z 00000KTS 3000 HZ SCT200  09/04 QNH.1022 RH.73 PC=
0000019600
931
SAJD31 OJAI 110500
METAR OJAI 110500Z 27006KT 2500 BR SCT200 08/07 Q1022 NOSIG=
METAR OJAM 110500Z VRB02KT 0900 DZ FG BKN012 BKN030 06/05 Q1022
NOSIG=
METAR OJAQ 110500Z NIL=
0000037100
932
SATR31 UTAA 110500
METAR UTAA 110500Z 11002MPS 9999 BKN230 05/M06 Q1021
30CLRD70 NOSIG=
METAR UTAK 110500Z 13004MPS 9999 SCT021 BKN200 03/M01 Q1018 NOSIG=
METAR UTAV 110500Z 17006MPS CAVOK 04/M06 Q1024 NOSIG=
METAR UTAM 110500Z 22005MPS 6000 OVC230 02/M06 Q1024 NOSIG  RMK
 SC07=
METAR UTAT 110500Z VRB02MPS CAVOK M04/M07 Q1023 99CLRD70 NOSIG=
00000000