0000010900
973
UANT01 CWAO 110511
ARP EDW5L 4524N04818W 0511 F380 MS61 304/53 KT
HBJHQ QXT AOW 110511 J53A
0000015100
974
SNVF20 EHDB 110500
BBXX
PJKV 11053 99469 70178 41/98 51623 10106 20024 40116 56024 70322
8//// 22224 04110 20603 329// 41207 80071=
0000011100
975
UANT01 CWAO 110511
ARP AWE704 4525N04814W 0511 F360 MS64 304/52 KT
N276AY DDL XXN 110511 J57A
0000011000
976
UANT01 CWAO 110511
ARP AAL50 4840N05146W 0511 F340 MS63 287/53 KT
N726AN DDL YYT 110511 F37A
0000015300
977
UAPA01 KWBC 110512
ARP ASA826 3317N 13337W 0505 F360 MS51 253/041KT TB OCNL LGT CHOP=
ARP ASA848 3317N 13337W 0508 F350 MS52 235/043KT=
0000009700
978
SAIR78 OIII 110500 RRA
METAR OIBS 110450Z 06024KT 9999 FEW035 OVC100 21/14 Q1022=
0000014200
979
SNNL51 EHDB 110500 CCA
AAXX 11051
06251 41/59 /2109 10069 20061 30100 40101 57012 7//88
333 91012 91114 91211
555 53000=
0000016300
980
SAIN31 VOMM 110510
METAR VOHS 110510Z /////KT 5000 HZ NSC ///// Q//// NOSIG=
METAR VOTR 110510Z 03008KT 4000 HZ SCT016 27/19 Q1016 BECMG 5000 HZ=
0000012400
981
SIBW40 VGDC 110300 RRB
AAXX 11034
41929 31950 00000 10180 20150 30167 40177 70544 333
20102 59010 70000=
0000077600
982
FQBW21 VGDC 110400
FLEET  FORECAST  FOR  AREA C-90  VALID  FOR 12 HOURS COMMENCING 1000 
U.T.C  OF 11.01.2014:
--------------------------------------------------------------------
-
PART ONE       :  NO STORM WARNING.
PART TWO       :  TROUGH OF LOW LIES OVER NORTH -EAST BAY.
PART THREE:

WEATHER       :TEMPORARY   PARTLY CLOUDY OVER  AREA C-90.

WIND          :NORTH/NORTH-EASTERLY, 08-12 KTS.

VISIBILITY    :03-05 KMS. REDUCING TO 1000 METER OR  LESS IN         
MIST/FOG.

               OUTLOOK FOR SUBSEQUENT 12 HOURS: LITTLE CHANGE.

               MEAN SEA LEVEL PRESSURE OF DHAKA AT 11,0000 U.T.C:
               -------------------------------------------------
                            DHAKA= 1015.5  HPA.=
0000049500
983
FPBW20 VGDC 110400
COMPOUND OBSERVATION  GENERAL INFERENCE OF BANGLADESH AT 11,0300UTC:
-----------------------------------------------------
PART ONE       :  NO STORM WARNING.

PART TWO       :  TROUGH OF LOW LIES OVER NORTH -EAST BAY.
        
PART THREE: 

WEATHER     :  TEMPORARY PARTLY CLOUDY OVER NORTH BAY. 

WIND        :  NORTH/NORTH-EASTERLY 08-12 KTS.

VISIBILITY  :  03-05 KMS. REDUCING TO 1000 METAR OR LESS IN
                 MIST/FOG.=
0000118800
984
SAAU31 YBBN 111000
METAR YPAD 111000Z 14011KT 9999 FEW030 20/10 Q1019
FM1000 MOD TURB BLW 3000FT=
METAR YBAS 111000Z AUTO 13009KT 9999 // NCD 36/03 Q1011=
METAR YBBN 111000Z 07008KT 9999 FEW023 SCT035 24/19 Q1016=
METAR YBCS 111000Z 19010KT 8000 -SHRA FEW020 BKN035 26/23 Q1010=
METAR YSCB 111000Z AUTO 13007KT 9999 // NCD 24/10 Q1017=
METAR YPXM 111000Z NIL=
METAR YPCC 111000Z 14012KT 9999 FEW026 SCT036 29/22 Q1008=
METAR YCFS 111000Z AUTO 36006KT 9999 // NCD 23/18 Q1017=
METAR YPDN 111000Z 24008KT 9999 FEW025 OVC350 29/25 Q1005=
METAR YBCG 111000Z AUTO 13004KT 9999 // NCD 22/17 Q1017=
METAR YHID 111000Z AUTO 17004KT 9999 // ////// 27/25 Q1006=
METAR YPJT 111000Z AUTO 19009KT 9999 // NCD 41/09 Q1009=
METAR YPKU 111000Z AUTO 02005KT 9999 // NCD 29/24 Q1005=
METAR YPLM 111000Z AUTO 29013KT 9999 // NCD 37/17 Q1006=
METAR YMML 111000Z 19011KT 9999 BKN017 16/12 Q1021
FM1030 19009KT 9000 -DZ HZ BKN014=
METAR YPPH 111000Z 11011KT CAVOK 42/03 Q1008=
METAR YSSY 111000Z 03013KT CAVOK 24/19 Q1015
RMK 5AC120 3CI280
NOSIG=
METAR YSTW 111000Z AUTO 11005KT 9999 // NCD 26/09 Q1016=
METAR YPTN 111000Z NIL=
METAR YBTL 111000Z 10012KT 9999 FEW025 SCT090 BKN140 28/22 Q1011=

0000012800
985
SNVF51 EGRR 110400
BBXX
62305 11044 99504 70000 46/// /2216 10093 20071 40149 57006 22200
00109 10601 70007=
0000012800
986
SNVF51 EGRR 110400
BBXX
62095 11044 99529 70156 46/// /2314 10072 20027 40137 52010 22200
00100 10807 70036=
0000014400
987
SNVF51 EGRR 110400
BBXX
62170 11044 99514 10020 46/97 /2221 10082 20065 40143 57006 22200
00105 10501 70007 333 90710 91125=
0000012800
988
SNVF51 EGRR 110500
BBXX
62301 11054 99524 70047 46/// /2715 10087 20044 40151 53025 22200
00098 10503 70015=
0000014400
989
SNVF51 EGRR 110500
BBXX
62105 11054 99550 70132 46/// /2419 10054 20013 40117 52013 22200
00108 10808 70041 333 90710 91132=
0000012800
990
SNVF51 EGRR 110500
BBXX
62001 11054 99452 70050 46/// /3405 10117 20068 40179 52006 22200
00127 10703 70013=
0000168900
991
SASA85 EGRR 110500 RRC
METAR SAEZ 110500Z 19015G25KT CAVOK 19/11 Q1011=
METAR SARI 110500Z 05006KT CAVOK 24/23 Q1011=
METAR SBGR 110500Z 07004KT CAVOK 20/17 Q1016=
METAR SBJP 110500Z 21004KT 9999 FEW020 23/20 Q1012=
METAR SBKP 110500Z 12006KT CAVOK 22/17 Q1015=
METAR SBLO 110500Z 22002KT CAVOK 25/20 Q1014=
METAR SBPL 110500Z 12004KT 9999 SCT020 25/20 Q1013=
METAR SBSN 110500Z 15003KT 9999 SCT017 BKN100 26/21 Q1010=
METAR SBSV 110500Z 09010KT 9999 SCT017 26/22 Q1012=
METAR SBTE 110500Z 29005KT 9999 SCT035 BKN070 25/22 Q1010=
METAR SBVT 110500Z 33003KT CAVOK 24/23 Q1014=
METAR SCAR 110500Z 18003KT 9999 OVC045 23/18 Q1012=
METAR SCBA 110500Z AUTO 33011KT 290V350 CAVOK 08/03 Q1020=
METAR SCCI 110500Z 30012KT 9999 SCT030 OVC090 08/05 Q1008 NOSIG=
METAR SCDA 110500Z 18005KT CAVOK 22/17 Q1012=
METAR SCEL 110500Z 16004KT CAVOK 19/06 Q1013 NOSIG=
METAR SCFA 110500Z 19004KT 9999 SCT014 20/16 Q1011 NOSIG=
METAR SCIE 110500Z 22005KT CAVOK 12/09 Q1015=
METAR SCTE 110500Z 15004KT CAVOK 09/07 Q1023 NOSIG=
METAR SLCB 110500Z 13006KT 9999 FEW027 16/08 Q1023=
METAR SLLP 110500Z 09004KT 4000E VCFG FEW003 SCT200 07/05 Q1035=
METAR SLVR 110500Z 36005KT 9999 FEW070 23/22 Q1010=
METAR SMJP 110500Z 11003KT 9999 SCT012 23/23 Q1012 NOSIG=
METAR SOCA 110500Z AUTO VRB02KT 9999 -RA BKN005 BKN032 OVC045 22/21
      Q1012=
METAR SPRU 110500Z 14006KT 9000 NSC 21/19 Q1012 RMK BR PP000=
METAR SPSO 110500Z /////KT 9999 FEW100 21/19 Q1011 RMK PP000=
METAR SPTN 110500Z 00000KT 9999 BKN050 20/16 Q1011 RMK PP000=
METAR SVMI 110500Z 00000KT 9999 FEW016 23/18 Q1014 NOSIG=
METAR SYCJ 110500Z 00000KT 9999 SCT015 21/20 Q1012 NOSIG=
0000027300
992
FTSA85 EGRR 110506 RRA
TAF SPRU 110430Z 1106/1206 15006KT 8000 TX25/1119Z TN19/1109Z
     FM110900 14004KT 5000 BR SCT002 OVC004
     TEMPO 1110/1114 2000 BR OVC003
     PROB30 TEMPO 1112/1113 0500 FG OVC002
     FM111600 16009KT 9000 FEW023 OVC040=
00000000