0000009500
333
SAQB31 LQSM 102030
METAR LQSA 102030Z 00000KT 9999 BKN060 07/04 Q1021 NOSIG=

0000045600
334
SAUK31 EGGY 102020
METAR EGBB 102020Z 19008KT 9999 -RA BKN048 08/06 Q1010=
METAR EGCC 102020Z 18012KT 9999 -RA FEW025 SCT033 BKN043 07/05
    Q1008=
METAR EGKK 102020Z NIL=
METAR EGLL 102020Z 20008KT CAVOK 08/06 Q1013=
METAR EGPF 102020Z VRB03KT CAVOK 03/00 Q1007=
METAR EGPH 102020Z 25006KT CAVOK 03/02 Q1006=
METAR EGPK 102020Z 31002KT 9999 FEW028 04/02 Q1007=
METAR EGSS 102020Z 22011KT 9999 BKN013 BKN032 08/06 Q1013=

0000052400
335
SAUK32 EGGY 102020
METAR EGAA 102020Z VRB03KT 9999 MIFG NSC 03/03 Q1008=
METAR EGAC 102020Z 27009KT 9999 FEW030 06/02 Q1008=
METAR EGFF 102020Z 20006KT 9999 DZ SCT021 BKN028 09/07 Q1012=
METAR EGGW 102020Z 21009KT 9999 FEW010 07/06 Q1012=
METAR EGLC 102020Z 21008KT CAVOK 09/06 Q1014=
METAR EGNM 102020Z 23013G24KT 200V270 9999 -SHRA FEW015 SCT035
    07/05 Q1006=
METAR EGNX 102020Z 21011KT 9999 -SHRA FEW035 SCT047 07/06 Q1010=
METAR EGPD 102020Z 26006KT 180V290 CAVOK 05/00 Q1004 NOSIG=

0000050600
336
SAUK33 EGGY 102020
METAR EGGD 102020Z 20009KT 9999 FEW046 08/06 Q1011=
METAR EGGP 102020Z 18008KT 9999 BKN023 08/06 Q1008=
METAR EGHI 102020Z 20007KT 8000 SHRA SCT020 SCT035 07/06 Q1014 =
METAR EGNS 102020Z 31005KT 9999 FEW035 07/04 Q1008 NOSIG=
METAR EGNT 102020Z 29008KT 260V330 9999 -SHRA FEW007 SCT012 07/06
    Q1006=
METAR EGNV 102020Z 18007KT 9999 FEW015 SCT018 08/05 Q1006=
METAR EGPB 102020Z AUTO 23019KT 9999 -SHRA FEW010/// SCT018///
    BKN023/// 06/04 Q0998=

0000035000
337
SAUK34 EGGY 102020
METAR EGHE 102020Z NIL=
METAR EGHK 102020Z NIL=
METAR EGHQ 102020Z 20007KT 9999 -RA SCT010 SCT026 07/07 Q1012=
METAR EGJA 102020Z NIL=
METAR EGJB 102020Z 18009KT 9999 SCT005 SCT010 09/08 Q1015=
METAR EGJJ 102020Z 18010KT 4000 BR BKN003 08/07 Q1015 NOSIG=
METAR EGTE 102020Z 18008KT CAVOK 09/07 Q1012=

0000039700
338
SAUK35 EGGY 102020
METAR EGHH 102020Z 23008KT 5000 -RA FEW022 BKN031 08/07 Q1014=
METAR EGKA 102020Z NIL=
METAR EGKB 102020Z 21009KT 9999 BKN008 07/06 Q1014 =
METAR EGLF 102020Z 19009KT CAVOK 08/07 Q1013=
METAR EGMC 102020Z 21013KT 9999 FEW021 08/06 Q1013=
METAR EGMD 102020Z NIL=
METAR EGMH 102020Z 21010KT 9999 FEW016 SCT019 08/06 Q1015 =
METAR EGTC 102020Z NIL=

0000036200
339
SAUK36 EGGY 102020
METAR EGBE 102020Z 20010KT 9999 -RA FEW045 08/05 Q1011=
METAR EGBJ 102020Z NIL=
METAR EGCN 102020Z 19010KT 9999 -RA NSC 08/06 Q1009=
METAR EGSC 102020Z 20008KT 170V240 9999 FEW025 08/06 Q1012=
METAR EGSD 102020Z NIL=
METAR EGSH 102020Z 21010KT CAVOK 08/06 Q1012=
METAR EGVN 102020Z NIL=
METAR EGWU 102020Z NIL=

0000039400
340
SAUK37 EGGY 102020
METAR EGAE 102020Z NIL=
METAR EGNC 102020Z NIL=
METAR EGNH 102020Z NIL=
METAR EGNJ 102020Z 20014KT 9999 -RA BKN040 07/06 Q1009=
METAR EGNO 102020Z NIL=
METAR EGNR 102020Z 21011KT 170V250 9999 FEW030 10/07 Q1008=
METAR EGPE 102020Z 19010KT 9999 FEW040 03/M00 Q1004=
METAR EGPI 102020Z NIL=
METAR EGPN 102020Z 32002KT 9999 FEW011 04/03 Q1005=

0000042800
341
SAUK38 EGGY 102020
METAR EGEC 102020Z NIL=
METAR EGEO 102020Z NIL=
METAR EGPA 102020Z 25012KT 9999 -SHRA SCT016 SCT028 05/03 Q1000=
METAR EGPC 102020Z 26015KT 9999 FEW030 02/01 Q1002=
METAR EGPL 102020Z AUTO 26018KT 9999 // NCD 05/01 Q1004=
METAR EGPM 102020Z AUTO 21008KT 9999 FEW023/// SCT036/// 04/02 Q0997=
METAR EGPO 102020Z AUTO 22005KT 9999 FEW024/// 02/M01 Q1003=
METAR EGPU 102020Z NIL=

0000015700
342
SSVX13 LFPW 111000
ZZYY 16533 11014 1000/ 314398 112933 6113/ 11119 40076 57005 22219
 00306 444 20130 11014 0900/ 50101 80126 80039 9/015=
0000069000
343
SAAE31 VTBB 111000
METAR VTBS 111000Z 07008KT 010V120 9999 FEW025 SCT300 31/14 Q1013
NOSIG=
METAR VTBD 111000Z 33008KT 250V020 9999 FEW030 SCT300 31/18 Q1012
NOSIG=
METAR VTCC 111000Z 15004KT 9999 FEW040 29/11 Q1016 A3001 NOSIG=
METAR VTBU 111000Z 33006KT 7000 FEW025 SCT300 32/17 Q1011 A2987=
METAR VTSS 111000Z 06010KT 9999 FEW020 SCT120 BKN300 29/21 Q1011
           A2986 NOSIG=
METAR VTSP 111000Z 30007KT 9999 FEW022 BKN300 29/22 Q1011 A2986
           NOSIG=
METAR VLVT 111000Z 14004KT 7000 FEW020 28/17 Q1014 NOSIG=
METAR VYMD 111000Z NIL=
METAR VYYY 111000Z NIL=
METAR VDPP 111000Z 33007KT 9999 SCT017 31/18 Q1010=
METAR VDSR 111000Z NIL=
0000010200
344
SAIQ01 ORBI 111000
METAR ORMM 111000Z 29012KT 6000 BR SCT040 OVC100 13/12 Q1017 NOSIG=
0000123000
345
UDOC01 NZKL 111000
AMDAR 1110
DES NZL045 4330S 17231E 110939 F004 PS139 068/017 TB0 S031
333 F/// VG015=
DES NZL045 4331S 17230E 110939 F006 PS132 050/015 TB0 S031
333 F/// VG011=
DES NZL045 4332S 17229E 110938 F009 PS124 066/019 TB0 S031
333 F/// VG014=
DES NZL045 4332S 17228E 110938 F012 PS118 063/019 TB0 S031
333 F/// VG009=
DES NZL045 4333S 17228E 110937 F015 PS111 056/024 TB0 S031
333 F/// VG008=
DES NZL045 4334S 17227E 110937 F018 PS107 053/025 TB0 S031
333 F/// VG008=
DES NZL045 4335S 17226E 110936 F021 PS117 050/023 TB1 S031
333 F/// VG022=
DES NZL045 4336S 17224E 110936 F024 PS141 013/021 TB1 S031
333 F/// VG028=
DES NZL045 4336S 17223E 110935 F026 PS139 354/015 TB0 S031
333 F/// VG006=
DES NZL045 4335S 17222E 110935 F029 PS136 344/018 TB0 S031
333 F/// VG005=
DES NZL045 4335S 17221E 110935 F032 PS135 336/021 TB1 S031
333 F/// VG027=
DES NZL045 4334S 17220E 110934 F035 PS142 316/018 TB1 S031
333 F/// VG022=
DES NZL045 4332S 17220E 110934 F038 PS138 329/018 TB0 S031
333 F/// VG004=
DES NZL045 4330S 17221E 110933 F045 PS124 327/012 TB0 S031
333 F/// VG003=
DES NZL045 4331S 17221E 110934 F042 PS129 325/015 TB0 S031
333 F/// VG005=
0000123400
346
UDOC01 NZKL 111000 RRA
AMDAR 1110
DES NZL045 4328S 17222E 110933 F048 PS117 328/009 TB0 S031
333 F/// VG007=
DES NZL045 4322S 17224E 110932 F064 PS107 298/016 TB0 S031
333 F/// VG008=
DES NZL045 4314S 17227E 110930 F081 PS079 294/022 TB0 S031
333 F/// VG007=
DES NZL045 4307S 17230E 110929 F099 PS033 289/010 TB1 S031
333 F/// VG010=
DES NZL045 4257S 17234E 110927 F118 MS012 272/016 TB1 S031
333 F/// VG010=
DES NZL045 4251S 17236E 110926 F138 MS068 278/018 TB0 S031
333 F/// VG002=
DES NZL045 4245S 17239E 110925 F159 MS096 280/020 TB0 S031
333 F/// VG001=
DES NZL045 4238S 17242E 110924 F183 MS130 280/034 TB0 S031
333 F/// VG000=
DES NZL045 4231S 17244E 110923 F208 MS181 285/029 TB0 S031
333 F/// VG001=
DES NZL045 4223S 17248E 110921 F236 MS251 302/023 TB0 S031
333 F/// VG002=
DES NZL045 4214S 17251E 110920 F266 MS332 304/024 TB0 S031
333 F/// VG001=
DES NZL021 4232S 17059E 110958 F266 MS336 299/034 TB0 S031
333 F/// VG001=
DES NZL021 4222S 17048E 110957 F300 MS416 309/038 TB0 S031
333 F/// VG004=
DES NZL045 4203S 17256E 110919 F301 MS424 315/024 TB0 S031
333 F/// VG002=
LVR NZL021 3555S 16721E 110903 F330 MS482 280/022 TB0 S031
333 F/// VG002=
0000083900
347
UDOC01 NZKL 111000 RRB
AMDAR 1110
LVR NZL021 3736S 16806E 110917 F330 MS492 302/016 TB0 S031
333 F/// VG002=
LVR NZL021 3919S 16853E 110931 F330 MS495 298/023 TB0 S031
333 F/// VG000=
LVR NZL021 4102S 16943E 110945 F330 MS500 308/028 TB0 S031
333 F/// VG002=
DES NZL045 4152S 17300E 110917 F340 MS527 321/029 TB0 S031
333 F/// VG003=
LVR NZL045 4103S 17319E 110911 F360 MS574 000/016 TB0 S031
333 F/// VG002=
LVR NZL023 3836S 15724E 110900 F370 MS540 179/052 TB0 S031
333 F/// VG001=
LVR NZL023 3838S 15934E 110914 F370 MS540 169/063 TB0 S031
333 F/// VG000=
LVR NZL023 3838S 16143E 110928 F370 MS540 169/064 TB0 S031
333 F/// VG001=
LVR NZL023 3835S 16354E 110942 F370 MS539 217/024 TB0 S031
333 F/// VG002=
LVR NZL023 3828S 16613E 110956 F370 MS540 243/018 TB0 S031
333 F/// VG001=
0000014500
348
SSVX05 CWAO 111000
ZZYY 48529 11014 1000/ 775081 151434 6113/ 11119 
11262 40006 444 20130 11014 1000/ 50101 89990 80001 9////=
0000587400
349
VIUK02 EGRR 111007
 R ]ko87X`:7~vz #ۯ7_ڢm]Kvߗw}b,Fw[qXU,>mIuO#/rY.բ~^|T,K?JX(UH#__ӓn_>OGIwyttbԽ<",dǛc{5x0>l7,G鳋\~OWTD,"~\rK`j6|7o]t!?^Ҁ]$^qg$bC'Bi&w.lzƧ[rC, r] QTlF߳˶O\7?hxԟwzO[xspIgk]ދ4Qk0!MgwFOwɷߙԹn]~tAu/y|Lڝfgp}Qo䂔V>.pe>qG_{;}q<	$RA\#q%&:MDD>Ir?9B''5hf2'Qθ%Ao4/~|Uy!ȿ$Ot"42nZyyj(?-ʙ]v[R
]Md,:v!^$_䖂pFKo;?D?pI\*ՠp\"+hB.hd3{WUQ f^X7Lh͢~za%dŕ|A퓛꺺1sO^3`#ߥ}tJ0*˟PFcܻ$ߛ4iޣ&R̞4Ĝ̄]!ʯ>fFŌl|GӦ{-I"W8H}8jFw4ZލT&q+>i^;=j]I}zDI3</k%P7=_H$Y&I(ř/$YxG/?}iq9h (O=Y( L!+o<y+%ģy>a%XE`EȔ1GKтKH\4|ǃlxy']xP\"B&Ub> AD¤./RHZ,DTLʒ㕉44D̩pw.~C<4|1m,4ocwdh '^qh|x&x4ML(5!}*4Lʎ!٨!! >55nXiS4Vϸ/)ꩍi8}d}l}i3.BFJ|ՆrF"G-_I5TSA8QcL}>@x>h]!9Ӝhpqp͢'G&khtG=\hq1])8 (#(WBr}Oݨ3<J\1:<uyfϣ8hͱq|}>cCLJ`7߀04H|3	##JÎȸyAy|EM"J&vceM7L.z'}b>Hl)X8_ilBx^Xdb]CV 0d6d@B&]R-ڤ=Lgl|,`4$J&f;}<*eH Fr91
D\L7.JYޡ;i	iIB&6VP 4<̗
#ӊMBp3EbyLhCZdjS=-"t	Zz!d"	b	%G*ƖCsh9̥|e"j[wz4JYd^K9K6of$=ӌr.FvM5KjErs	dAiE!8JwgumRBPI]L}>>cK\d/V>Yr "f15hz7AQF=cj{ˇr(ɔl^dDdLdVl߀i8o&ѭ`IzQJf~1i{jI4fƎ)'yXRR
^ *d&ٔv-T_hB\etd,i4]PR ()p#n%ӼMRR]"I5D29.E('=13/Lvӝ6@;A;3$?zs&Ul$EM]5650ɤefA16x|י/YE2*Oupyc,OLHljC1e⾊fSjc1ʘd"Dlj2k6?4\x!'J)oZ}'$dz<LR8YQA==2Z]@d2FKc:6.F4jAΘA?앉V͒5`^
浱!ͣA
il)\0:4J%8JW͏CQ6jiƜ1GΉBR%	Zwk
Hhp``kIddkA@ڴȖnbMf7j[&K5O?}}}zTe[&\rjmMM&W23~TZ4zL-[tS,i;nv\Kw巏s՘NtIqi_1ɯT%2%_E~t |Au]HWmȶ5 9sLdt._k3ޜ𕎋G!)ԍgf#o_+E{&Iݰt_J.< 	#(L/h_h\]f'&2㾛}=,.1$u9
ɖ'V:͹EOWWj@RmH2do;b!=:}TLLF_ZU2]^&j0aB}ɔ<"OjUqs՗^8d%B+FO9Ϩ̘ml!mWFkI6o9m/!e>UK-$3j0_~q}H0uG:)5 ٶ#I5|)D7G3߽Ew}<r9__cyߝ>>Qԥ&蟻g>@5썀/kݍ|//J}OBMќ6h5#7tV2y7qS>5v HF>gjD
e
AyOD@$HB7Yun) MƪsݹRQ \=g[ͦhգ11H*lJo#@L&1QզѐvGCe1{if߀@4|3	d.xɅ?mCͧbKicɴ٠ǢM}k	
>JD*2yhL!<o:&aRa3z`RVVnr@0?)t莟Y_[}&gL3ηvfQ 16xєʙU0n Xi&ZIW9ZiNj0&uujHi|f$Ad&̄}*VBnuFGk5۔GJ[=0i梙s9)Omb}&gLx}g댇ԛ (ؠ%eOϵ-Tc&7@WtE^Ux	s64^Z] = X.ߦc0mc6TyVb}ttG@w|XwPt2̋dA!(NՑ	rr&F')ch+8D0^
ZV%Q PVjs&smW-ٌQ٪s=Q),:qGY)żֿA-jj?Yªc8ɘtlJƤb:	r3 R
|5g_,ZmTk"]\K\o=4*JV	Z]Teפ2Lu"CU%䌀jD#R1)S:]1iVuMӣKצiVmn(hk" A1yGFŊU:zZW2&6A~;K}ւgNb;i:DNM5ď)ئ8b#$ߩxR"VEbytX'|ŔNn 1?zdΊ6q[wvvhTZ.6`JVˡE/:BLqnANLu~rYhS 9vcz3Jza[4,\1eB1adjAU]TTUwQƳ; G ؔrgy0fz)w?j5Ǜ'e>C3T54E9Zɣhg)3]>WO;TXlչjlSȵk][H6eaj&xinb\|c"Hj?bfRlU(E6piD&6_1	*-и'iS?o { `gtSr*88~!X?@cGcV5K:$sџ(NGV{xY82Tzo 9f<jݹG{\07Kr*XH̨3?ku;Cqh#(Ţ-Q4Fs:kvU[W_whuqyѸ~b(?ѲF/kA"^$S:m_i=õRV]}*}*}2O_4VɱAg0Kli4p0fs<?gTsjV']!zѿ.x!ahvTEwp1Vi0KD^C>&䡩@yeP=MF-2MoݿF\Gpmc"S!_Z?h&I ;g,bTGuܐX76$/RPx-@54glRaE/S:
b_^+c/g|XsTRhBXRP[_ޯ `<0%dUy<^a6-W)U
2i_zbxEg26єHߗvzY5,N$6%$06kV+)4^ӌ$)4L[-ﾍL	 `AYxB	EÆ:0
4njr4R{SZDN:=սq hwLNfCHQ\NJ`u=Eǽh^gO̼y͗l2k@tDKQVKf;A.wsXwn@[E?4mvh 3l?UF]F(cmdӂ)774SOV'쎀h5e&Ց"܃i@`tMw*@_)t\dW8kQb^)OB3ݒ?^2KzB:NP:=@$y9ztжQ5ZRW6.j'Lk;tzH-e5k/]t}{c@]!נ\BRFh^Bs66|3W1
          ?E   
0000014500
350
SSVX05 CWAO 111000
ZZYY 48726 11014 1000/ 775903 126058 6113/ 11133 
11248 49796 57019 444 20130 11014 1000/ 50000 80140 80001=
0000014500
351
SSVX05 CWAO 111000
ZZYY 48730 11014 1000/ 780662 140556 6113/ 11119 
11265 49914 52009 444 20130 11014 1000/ 50000 80140 80001=
0000013900
352
SSVX05 CWAO 111000
ZZYY 48739 11014 1000/ 771681 171889 6113/ 11119 
11239 40136 444 20130 11014 1000/ 50400 89990 80001=
00000000