0000014700
313
UPNF01 AMMC 110600
PPAA 61053 94996 44385 03505 11506 26514 44340 29029 28040 28545
44320 28061 29083 28531 77145 28585 42036=

0000022700
314
UGNF21 AMMC 110600
PPBB 61053 94996 90/12 11509 12514 13017 90346 12016 10010 01010
907// 01011 91249 10001 22006 26010 9259/ 29029 27037 9358/ 29048
28545 947// 28585 95124 28549 29055 27542 955// 28531=

0000010000
315
SMRA10 RUHB 110600 RRA
AAXX 11061
31538 42999 02202 11258 21322 39746 40228 57007=
0000003900
316
UPTS01 DTTA 110600
NIL=
0000035700
317
SMBW40 VGDC 110600
AAXX 1106/
41858 NIL=
41863 NIL=
41886 NIL=
41895 NIL=
41909 NIL=
41915 NIL=
41926 NIL=
41929 NIL=
41933 NIL=
41939 NIL=
41941 NIL=
41946 NIL=
41947 NIL=
41951 NIL=
41953 NIL=
41958 NIL=
41960 NIL=
41963 NIL=
41964 NIL=
41965 NIL=
41966 NIL=
41984 NIL=
41989 NIL=
41998 NIL=
0000017000
318
SOVI10 KWAL 110621
B110070A 011062101"P9751095 B\P~W@@R0ekF1@oz???CnCp>@pA3@JD@@a4Cw5C~6bG9JD<BM2?????A"??? nTFRLADAEAB@}AFAE:AMPTEMP 26.57C  47-0NN 219E
0000027200
319
SMKB01 NGTT 110600
AAXX 11064
91487 NIL=
91533 NIL=
91601 NIL=
91610 11498 71118 10263 20243 40045 53010 60051 72528 833/8 333 562/9
83915 87280 =
91612 NIL=
91629 NIL=
91701 11499 29903 10270 2024/ 40071 60001 70200 82100 333 569// 82819 =
0000013000
320
SMOS01 LOWM 110600 CCA
AAXX 11061
11101 36/// /0401 10029 20025 39663 40196 55008 333 10047 20015
3/102 55300=
0000125700
321
SMAL20 DAMM 110600
AAXX 11064
60353 11970 7//// 10128 20071 40176 53009 60004 700// 83082 333 00500
20114 83360 86070 91818 95990=
60367 11965 0//// 10079 20035 40163 5//// 60004 700// 333 0//00 20075
=
60369 NIL=
60401 NIL=
60403 11960 20000 10046 20024 40194 53006 60004 700// 81032 333 05100
20040 81360 95990=
60425 NIL=
60461 11970 41810 10166 20083 40164 56001 60004 700// 82032 222//
20000 333 20154 82360 83073 91808 95990=
60467 11960 40000 10080 20058 40213 53002 60004 700// 84030 333 00500
20074 84360 95990=
60492 11560 71404 10138 20104 40176 53008 60004 700// 872// 333 00800
20122 87830 95990=
60515 11960 60000 10060 20049 40219 51002 60004 700// 83032 333 00200
20047 83360 83070 95990=
60517 11960 32802 10161 20134 40168 52012 60004 700// 80002 333 0//00
20156 83073 95990=
60522 11960 40000 10140 20032 40165 53011 60004 700// 83032 333 01100
20140 83360 95990=
60557 11965 71810 10079 20026 38861 48510 56001 60004 700// 82082 333
00600 20074 82360 86073 95990=
60563 12960 50000 10061 20059 39325 48526 52008 60004 83032 333 00100
20050 83360 83073=
60603 NIL=
60638 11660 5//// 10093 20009 40210 53003 60004 700// 81101 333 00300
20084 81840 85073=
60686 NIL=
0000197100
322
SMSP60 LEMM 110600
AAXX 11064
08008 NIL=
08011 02462 71503 10096 20091 30026 40183 53003 69982 877//
  333 20093 3/009 55038 60007 70021=
08014 11557 80000 10107 20098 30167 40175 54000 69942 710// 8517/
  333 20102 32008 50134 55058 70004=
08021 01357 80000 10114 20105 30182 40184 51006 69902 75052 886//
  333 20114 31010 55025 69907 79999=
08025 02562 81502 10103 20091 30139 40187 51005 60002 888//
  333 20094 3/009 55026 60007 70000=
08029 12462 71702 10098 20081 30178 40188 52005 60002 87500
  333 20092 31008 50084 55042 70000=
08042 01235 61002 10039 20039 39735 40183 50000 69902 71040 86500
  333 20005 30000 55010 69907 79999=
08044 11965 00402 10062 20055 30030 40163 54000 60002 700/0
  333 20062 50104 55024 70000=
08048 11461 80000 10081 20072 39986 40165 53001 60002 702// 886//
  333 20067 30005 50104 55024 70000=
08053 11670 63002 10045 20038 39526 40186 52004 60002 702// 865//
  333 20035 31003 55070 70000=
08080 01430 80000 10017 20016 39586 40208 51006 60002 71011 886//
  333 21011 30102 55069 60007 70000=
08085 01001 80000 10023 20023 39655 40208 51010 60002 74542 886//
  333 20014 3/001 55040 60007 70000=
08130 NIL=
08140 11905 01003 10000 20000 39188 48465 52009 60002 74440
  333 21001 55019 70000=
08148 NIL=
08175 02560 70104 10107 20079 30093 40186 53002 60002 87400
  333 20097 3//// 55000 60007 70000=
08210 NIL=
08213 12970 21302 10065 20000 39015 48485 53004 60002 80008
  333 20058 30004 55034 70000=
08215 11965 30106 10036 21006 38100 48495 52004 60002 70211 80005
  333 20031 30002 50404 55039 70000 95000=
08224 11857 80000 10072 20050 39452 40182 52005 60002 71022 84077
  333 20065 55041 70000=
08226 11858 60000 10060 20040 39320 40173 53004 60002 71022 86055
  333 20060 30006 50184 55053 70000=
08232 NIL=
08272 11858 71105 10072 20058 39564 40180 52008 60002 710// 83078
  333 20072 30007 50124 55056 70000=
08286 NIL=
0000011000
323
UANT01 CWAO 110617
ARP UAL49 6356N05214W 0617 F360 MS57 195/24 KT
N77019 DDL SFJ 110617 F55A
0000034100
324
SZIO01 AMMC 110621
CREX++
T000103 A001 D01021 D06025++
-1211670 09689190 46280 2014 01 11 06 14 3015 11 07 00 01
01240 0043 01243 0044 01246 0046 01244 0043 01240 0037 01250 0046+
-1042940 10566940 46290 2014 01 11 06 14 //// 11 07 00 01
01226 0024 01237 0032 01264 0057 01230 0021 01259 0047 01264 0050++
7777

0000016300
325
SAIN34 VOMM 111010
METAR VOHS 111010Z 22005KT 210V290 5000 HZ SCT020 29/10 Q1014 NOSIG=
METAR VOTR 111010Z 08007KT 7000 FEW016 30/20 Q1011 NOSIG=
0000019800
326
FTIN90 VOMM 110900 CCB
TAF VOMD 110900Z 1112/1218 07010KT 4000 HZ SCT020
     BECMG 1200/1203 00000KT 3000 HZ
     BECMG 1205/1206 07010KT 6000
     BECMG 1212/1213 4000 HZ=

0000011600
327
SMIN90 VABP 110600
AAXX 11064
42675 31493 83603 10160 20146 40171 74644 886//
  333 58012 88710=
0000046800
328
SZPA01 AMMC 110621
CREX++
T000103 A001 D01021 D06025++
0136250 17293000 67590 2014 01 11 06 14 3017 11 07 00 01
01503 0001 01501 0003 01504 0009 01512 0020 01522 0034 01522 0037+
0710610 17137250 67680 2014 01 11 06 14 3013 11 07 00 01
00989 0123 00988 0125 00985 0124 00984 0126 00982 0126 00977 0123+
0698060 15820000 67950 2014 01 11 06 14 3025 11 07 00 01
00744 0003 00738 -0001 00738 0001 00737 0002 00737 0004 00733 0002++
7777

0000179100
329
SZPS01 AMMC 110621
CREX++
T000103 A001 D01021 D06025++
-0204190 14737360 56130 2014 01 11 06 14 3028 11 07 00 01
01087 0066 01083 0064 01081 0063 01081 0065 01077 0062 01078 0064+
-0669280 15640860 56363 2014 01 11 06 14 //// 11 07 00 01
00685 -0079 00684 -0078 00688 -0071 00680 -0077 00679 -0076 00672 -0080+
-0942890 15995560 56670 2014 01 11 06 14 3043 11 07 00 01
00815 -0051 00810 -0055 00809 -0055 00812 -0051 00810 -0052 00811 -0050+
-1072080 16580190 57131 2014 01 11 06 14 //// 11 07 00 01
03378 2700 03380 2705 03380 2709 03380 2712 03380 2715 03380 2719+
-1551560 16718860 57210 2014 01 11 06 14 //// 11 07 00 01
00885 -0087 00873 -0095 00875 -0089 00878 -0082 00878 -0078 00882 -0071+
-1775690 16830030 57320 2014 01 11 06 14 3015 11 07 00 01
00999 -0049 00997 -0048 00993 -0048 00988 -0050 00982 -0053 00975 -0056+
-4397330 16861610 65180 2014 01 11 06 14 2888 11 07 00 01
02138 0338 02156 0352 02156 0347 02178 0365 02173 0356 02161 0340+
-2120470 -15978530 65980 2014 01 11 06 14 3013 11 07 00 01
00660 -0008 00686 0020 00694 0030 00661 -0001 00647 -0014 00671 0013+
-2113810 -17518140 66600 2014 01 11 06 14 //// 11 07 00 01
01162 0087 01155 0085 01148 0082 01145 0083 01140 0083 01138 0085+
-1382670 -17176110 66840 2014 01 11 06 14 3012 11 07 00 01
00712 0031 00724 0046 00721 0046 00720 0048 00713 0044 00714 0048+
-1813250 17842750 67050 2014 01 11 06 14 3032 11 07 00 01
01357 0102 01358 0108 01351 0106 01353 0113 01341 0106 01337 0106+
-1760530 17743810 67070 2014 01 11 06 14 3033 11 07 00 01
01377 0017 01372 0017 01366 0017 01360 0016 01354 0016 ///// ////+
-0850250 17919500 67440 2014 01 11 06 14 3030 11 07 00 01
01912 0002 01905 -0001 01904 0002 01902 0004 01902 0008 01898 0008++
7777

0000191200
330
SZAU01 AMMC 110621
CREX++
T000103 A001 D01021 D06025++
-1927750 14705860 59260 2014 01 11 06 14 3030 11 07 00 01
02054 0220 02058 0219 02066 0221 02068 0218 02080 0224 02084 0222+
-2316110 15079000 59670 2014 01 11 06 14 3003 11 07 00 01
02864 0098 02874 0097 02889 0104 02894 0100 02907 0104 02909 0097+
-3447330 15091170 60420 2014 01 11 06 14 2950 11 07 00 01
01033 -0039 01034 -0040 01036 -0039 01043 -0033 01050 -0027 01054 -0025+
-4105000 14591500 60910 2014 01 11 06 14 2893 11 07 00 01
01468 -0020 01477 -0021 01478 -0029 01482 -0037 01506 -0023 01526 -0013+
-4254640 14793080 61170 2014 01 11 06 14 2895 11 07 00 01
01274 0081 01274 0080 01272 0077 01275 0079 01280 0083 01284 0086+
-3834390 14161360 61410 2014 01 11 06 14 2905 11 07 00 01
00467 0068 00439 0039 00446 0045 00455 0053 00458 0055 00481 0077+
-3214890 13364170 62000 2014 01 11 06 14 2963 11 07 00 01
01130 0175 01133 0175 01137 0176 01138 0175 01140 0175 01144 0176+
-3387080 12189720 62080 2014 01 11 06 14 2947 11 07 00 01
00802 0101 00800 0099 00804 0102 00814 0112 00810 0107 00807 0104+
-3182560 11573860 62237 2014 01 11 06 14 2970 11 07 00 01
00856 0074 00862 0080 00865 0082 00865 0081 00872 0087 00869 0083+
-2422000 11339750 62385 2014 01 11 06 14 //// 11 07 00 01
01162 -0071 01184 -0051 01149 -0087 01249 0011 01173 -0066 01162 -0080+
-2181670 11419110 62430 2014 01 11 06 14 //// 11 07 00 01
01722 -0040 01735 -0029 01728 -0038 01726 -0043 01739 -0032 01732 -0041+
-1800080 12221830 62650 2014 01 11 06 14 3043 11 07 00 01
05225 0137 05231 0137 05237 0131 05244 0131 05250 0129 05256 0125+
-1247190 13084580 63230 2014 01 11 06 14 3050 11 07 00 01
05553 0155 05553 0158 05552 0160 05552 0162 05551 0162 05551 0166+
-1386000 13641580 63511 2014 01 11 06 14 3045 11 07 00 01
01546 0082 01547 0082 01548 0082 01551 0083 01555 0086 01558 0087++
7777

0000016700
331
SMAA01 EGRR 110600
AAXX 11064
89022 46/// /2806 11043 21051 39892 49930 52011 333 55000=
89062 46/// /3504 10001 21036 39948 49989 57014 333 55079=
0000166900
332
SMRA10 RUNW 110600
AAXX 11061
23914 41496 81302 11051 21055 39811 40072 53002 71042 8872/=
23921 41444 83602 11145 21166 30011 40136 53006 77177 8802/ 333 21145
88516=
23955 41497 81202 11084 21091 30139 40203 51001 78582 883// 333 84913
84633=
23966 41597 70000 11104 21117 30092 40224 52016 70282 82530=
28138 41599 81202 11057 21061 39519 40096 52001 70282 885// 333 21057
93662=
28224 41496 81402 11044 21051 39856 40072 58002 77122 8802/=
28255 41699 82001 11047 21059 39992 40123 52008 70272 8357/=
28440 41496 81302 11055 21064 39758 40113 53009 71022 8802/ 333
21057=
28541 42598 70701 11057 21068 39615 40115 53006 84530 333 21068=
28645 42497 81602 11056 21069 39830 40127 52004 883//=
28661 41997 81604 11067 21091 30070 40165 53006 77172 8802/=
28722 82697 81702 11009 21024 39952 40083 54001 885//=
28748 42997 81602 11061 21079 39893 40137 51007 8807/=
28838 42997 81601 11055 21065 39649 40130 52008 8807/=
29149 41596 82103 11054 21068 30114 40249 52011 77172 8802/ 333
88523=
29203 41499 81803 11038 21046 30099 40203 52005 70272 883// 333
85611=
29231 41397 82102 11056 21067 30150 40248 52016 78582 889// 333
88707=
29313 41497 81704 11064 21080 30119 40244 52008 77772 886// 333
88710=
29332 41598 82004 11068 21090 30116 40263 52014 70283 8237/ 333
91110=
29612 42997 81905 11080 21104 30121 40279 52007 8807/=
29638 41561 81905 11076 21090 30140 40315 51005 78582 889//=
29838 41997 82103 11075 21104 30100 40342 54001 77072 8802/=
29846 41597 82108 11072 21101 39950 40350 51003 78583 8595/ 333
91110=
36061 41598 80000 11059 21086 39943 40366 51002 70272 83531=
00000000