0000013600
993
SMAL01 DAMM 110600 RRB
AAXX 11064
60580 12958 33306 10069 20058 40212 53002 60004 83030
      333 00400 20068 83360=
0000004500
994
UAIO01 FMMI 110600
AIREP NIL=
0000090700
995
SMHV01 DFFD 110600
AAXX 11064
65501 32960 70000 10185 20005 39622 40137 80002
  333 01300 20171 50844 55099 58005 87076=
65502 32960 60604 10192 21002 39746 40123 80002
  333 01400 20192 51104 55102 58013 86076=
65503 32960 50606 10186 20056 39779 40123 80002
  333 013// 20185 50900 55099 51703 58005 85076=
65505 32960 50406 10203 20046 39781 40117 80002
  333 01600 20198 51014 55101 58002 85076=
65507 32960 70604 10205 20025 39775 40122 80002
  333 01100 20198 50814 55093 58002 87076=
65510 32960 50804 10210 20089 39595 40104  80002
  333 01400 20208 50990 55100 58002 85076=
65516 32960 70000 10188 20048 39810 40115 80002
  333 01600 20184 50994 55101 58001 87076=
65518 32960 73604 10224 21036 39744 40104 80002
  333 01500 20216 51004 55098 58003 87076=
65522 32960 70000 10174 20087 39782 40109 80002
  333 01400 20174 50844 55094 59006 87076=
0000011000
996
UANT99 KDDL 110631
ARP BAW188 5132N03238W 0631 F400 MS53 340/46 KT
GZBJA QXT AOW 110631 L15A
0000011000
997
UANT99 KDDL 110631
ARP UAL29 5358N01938W 0631 F390 MS53 237/60 KT
N78004 DDL XXW 110631 F57A
0000047000
998
UEBZ03 SBBR 110000 RRA
TTDD 6100/ 83566 11858 79365 22754 74964 33698 76564 44608
73366 55570 67369 66479 63380 77394 66379 88309 61780 21212
11967 10012 22906 08511 33881 13004 44844 11510 55818 09012
66754 13017 77713 11521 88683 07520 99650 08525 11619 07528
22608 07027 33570 08521 44533 06524 55489 10016 66449 05517
77441 06013 88433 11010 99429 13012 11420 14015 22394 11015
33377 11512 44346 09514 55332 09528 66320 11530 77309 10032=
0000193900
999
KUSI03 SBBR 110000 RRA
CREX++
T000113 A002 D09052++
 83 566 ///////// 080 // /// 07 18 2014 01 11 00 00 00 -1985000 -04395000 07861 00015 ////// // // // //// // // // // ///// 0028 ///// 000100 00967 ///// /////// //////// //// //// 100 0062 ///// 000100 00906 ///// /////// //////// //// //// 085 0057 ///// 000100 00881 ///// /////// //////// //// //// 130 0021 ///// 000020 00858 ///// /////// //////// -7930 -9430 /// //// ///// 000100 00844 ///// /////// //////// //// //// 115 0051 ///// 000100 00818 ///// /////// //////// //// //// 090 0062 ///// 000120 00754 ///// /////// //////// -7490 -8890 130 0087 ///// 000100 00713 ///// /////// //////// //// //// 115 0108 ///// 000020 00698 ///// /////// //////// -7650 -9050 /// //// ///// 000100 00683 ///// /////// //////// //// //// 075 0103 ///// 000100 00650 ///// /////// //////// //// //// 085 0129 ///// 000100 00619 ///// /////// //////// //// //// 075 0144 ///// 000120 00608 ///// /////// //////// -7330 -8930 070 0139 ///// 000120 00570 ///// /////// //////// -6730 -8630 085 0108 ///// 000100 00533 ///// /////// //////// //// //// 065 0123 ///// 000100 00489 ///// /////// //////// //// //// 100 0082 ///// 000020 00479 ///// /////// //////// -6330 -9330 /// //// ///// 000100 00449 ///// /////// //////// //// //// 055 0087 ///// 000100 00441 ///// /////// //////// //// //// 060 0067 ///// 000100 00433 ///// /////// //////// //// //// 110 0051 ///// 000100 00429 ///// /////// //////// //// //// 130 0062 ///// 000100 00420 ///// /////// //////// //// //// 140 0077 ///// 000120 00394 ///// /////// //////// -6630 -9530 110 0077 ///// 000100 00377 ///// /////// //////// //// //// 115 0062 ///// 000100 00346 ///// /////// //////// //// //// 095 0072 ///// 000100 00332 ///// /////// //////// //// //// 095 0144 ///// 000100 00320 ///// /////// //////// //// //// 115 0154 ///// 000120 00309 ///// /////// //////// -6170 -9170 100 0165 0000++
7777
0000070900
000
SMIN03 DEMS 110600
AAXX 11064
42559 32596 63601 10132 20125 40185 83530
  333 58023 83620 86360=
42667 31995 00208 10156 20113 39576 40180 71044
  333 58023=
42675 31493 83603 10160 20146 40171 74644 8860/
  333 58012 88705=
42754 31495 40708 10162 20113 39523 40172 70542 83530
  333 58026 83615=
42779 31596 42306 10226 20159 39446 40141 70522 82502
  333 59007 82620 83075=
42867 31595 72305 10246 20165 40151 70544 82577
  333 58007 82625 84360 86270=
42874 31996 12703 10248 20160 40153 70500 80001
  333 58002 81075=
42933 32997 32902 10236 20066 40159 80001
  333 58018 83075=
43041 31996 02703 10268 20154 39538 40148 70500
  333 59002=
42571 NIL=
0000011000
001
SMIN03 DEMS 110600
AAXX 11063
42571 31594 83202 10156 20146 40169 71044 8653/
  333 58005=
0000006500
002
UXIN90 VOMM 110600
PPAA 1106/ 43295 NO ASCENT=

0000007900
003
UPIN90 VOPB 110600
PPAA 6106/ 43333 NO ASCENT DUE TO LOW CLOUD=
0000478800
004
SXPA01 KWNB 110600
ZZYY 51022 11014 06001 501900 154900 6113/ 11119 22219 00269
33311 88872 20001 32694 43547 20025 32694 20050 32694 20075 32689
20100 32685 20125 32540 20150 31903 20200 31244 20250 31147 20300
31099 20500 30868 444 20130 11014 0600/ 34904 40500 521// 60401=
ZZYY 51021 11014 06001 701900 154900 6113/ 11119 01006 22219
00265 33311 88872 20001 32649 43507 20025 32649 20050 32641 20075
32623 20100 32549 20125 32486 20150 32030 20200 31239 20250 31184
20300 31114 20500 30899 444 20130 11014 0600/ 34647 40500 521//
60401=
ZZYY 52002 11014 06001 302000 164900 6113/ 11119 10273 29084
22219 00301 33311 88872 20001 33012 43520 20025 33014 20050 33010
20075 32977 20100 32946 20125 32890 20150 32776 20200 32274 20250
31353 20300 31151 20500 30850 444 20130 11014 0600/ 34945 40500
521// 60401=
ZZYY 52316 11014 06001 507900 179800 6113/ 11119 10284 22219
00295 33311 88872 20001 32953 43495 20025 32957 20050 32958 20075
32882 20125 32690 20150 32481 20200 32171 20250 31722 20500 30843
444 20130 11014 0600/ 34936 40500 521// 60401=
ZZYY 52001 11014 06001 101900 165100 6113/ 11119 00208 10288
29075 33311 88872 20025 32907 20050 32905 20075 32900 20100 32855
20125 32788 20150 32535 20200 31943 20250 31197 20300 31122 20500
30889 444 20130 11014 0600/ 34984 40500 521// 60401=
ZZYY 51007 11014 06001 705000 139900 6113/ 11119 00404 444 20130
11014 0600/ 521// 60401=
ZZYY 51306 11014 06001 502100 170000 6113/ 11119 00708 10269
22219 00281 33311 88872 20001 32806 43580 444 20130 11014 0600/
521// 60401=
ZZYY 52312 11014 06001 502000 179800 6113/ 11119 00707 10276 444
20130 11014 0600/ 521// 60401=
ZZYY 51018 11014 06001 505000 124800 6113/ 11119 01307 33311
88872 20020 32557 20060 32495 20080 32479 20100 32305 20120 31896
20140 31553 20180 31312 20300 31199 20500 30900 444 20130 11014
0600/ 34997 40500 521// 60401=
ZZYY 51006 11014 06001 708900 140200 6113/ 11119 00810 33311
88872 20040 31731 20080 31255 20100 31202 20140 31135 20180 31084
20500 30800 444 20130 11014 0600/ 34997 40500 521// 60401=
ZZYY 51014 11014 06001 505000 139900 6113/ 11119 10262 444 20130
11014 0600/ 521// 60401=
ZZYY 51301 11014 06001 707900 155000 6113/ 11119 00607 10275
29080 22219 00281 33311 88872 20001 32807 43469 20025 32808 20050
32802 20075 32662 20100 32093 20125 31602 20150 31248 20200 31071
20250 31015 20300 30970 20500 30805 444 20130 11014 0600/ 35013
40500 521// 60401=
ZZYY 51010 11014 06001 500000 170000 6113/ 11119 00809 40072
22219 00272 33311 88872 20001 32724 43561 20005 32725 43274 20010
32725 43569 20025 32723 43571 20125 32550 43558 20150 32261 20200
31464 20250 31282 20300 31102 20500 30832 444 20130 11014 0600/
34985 40500 521// 60401=
ZZYY 51308 11014 06001 507900 124900 6113/ 11119 22219 00263
33311 88872 20001 32626 43468 20020 32624 20040 32617 20060 32616
20080 32605 20100 32591 20140 32245 20300 31070 20500 30794 444
20130 11014 0600/ 35004 40500 521// 60401=
ZZYY 51020 11014 06001 704900 154900 6113/ 11119 00906 10274
22219 00281 33311 88872 20001 32810 43506 20025 32805 20075 32773
20100 32767 20125 32646 20150 32273 20200 31371 20250 31059 20300
30985 20500 30812 444 20130 11014 0600/ 34942 40500 521// 60401=
ZZYY 51310 11014 06001 508000 169900 6113/ 11119 10286 33311
88872 20025 32939 20050 32935 20075 32936 20100 32847 20125 32690
20200 32258 20250 31503 20300 31189 20500 30775 444 20130 11014
0600/ 35005 40500 521// 60401=
ZZYY 51023 11014 06001 700000 154900 6113/ 11119 01106 10253
22219 00254 33311 88872 20001 32540 43521 20025 32539 20050 32523
20075 32494 20100 32437 20125 32250 20150 31931 20200 31542 20250
31351 20300 31239 20500 30816 444 20130 11014 0600/ 34936 40500
521// 60401=
ZZYY 52003 11014 06001 105100 164900 6113/ 11119 00409 10277
29096 22219 00294 33311 88872 20001 32940 43400 20025 32941 20050
32941 20075 32941 20100 32909 20125 32614 20150 32177 20200 31288
20250 31030 20300 30948 20500 30747 444 20130 11014 0600/ 35032
40500 521// 60401=
ZZYY 32316 11014 06001 702000 110000 6113/ 11119 10244 22219
00251 33311 88872 20001 32510 43394 444 20130 11014 0600/ 521//
60401=
ZZYY 52006 11014 06001 108000 165100 6113/ 11119 00408 10283
29086 22219 00290 33311 88872 20001 32898 43410 20025 32897 20050
32896 20075 32896 20100 32843 20125 32646 20150 32310 20200 31255
20250 31079 20300 31011 20500 30817 444 20130 11014 0600/ 35011
40500 521// 60401=
ZZYY 51019 11014 06001 504900 154900 6113/ 11119 00807 22219
00274 33311 88872 20001 32737 43556 20025 32737 20050 32727 20075
32726 20100 32727 20125 32731 20150 32628 20200 31610 20250 31192
20300 31088 20500 30833 444 20130 11014 0600/ 34943 40500 521//
60401=
0000029400
005
UPMG01 FMMI 110600
PPAA 61051 67009 NIL=
PPAA 61051 67012 NIL=
PPAA 61051 67025 NIL=
PPAA 61051 67027 55385 25007 20006 19034 77999=
PPAA 61051 67083 55285 17002 07010 77999=
PPAA 61051 67095 NIL=
PPAA 61051 67113 NIL=
PPAA 61051 67152 NIL=
PPAA 61051 67197 NIL=
0000008000
006
UPMG02 FMMI 110600
PPAA 61051 67023 NIL=
PPAA 61051 67037 NIL=
0000028200
007
UPMI01 GABS 110600
PPAA 61051 61202 NIL=
PPAA 61051 61214 NIL=
PPAA 61051 61223 NIL=
PPAA 61051 61226 NIL=
PPAA 61051 61233 NIL=
PPAA 61051 61257 NIL=
PPAA 61051 61265 55285 11006 01007 77999=
PPAA 61051 61272 NIL=
PPAA 61051 61291 55185 18007 77999=
0000140400
008
SMCI33 BABJ 110600
AAXX 11061
51711 32980 00902 11074 21193 38103 57004 333 00451 21148=
51730 31957 02001 11036 21156 39193 40471 57005 70500 333
00501 21183=
52112 32961 42902 11087 21211 40447 57020 84/// 333 00401
21186=
52737 32979 72502 11065 21191 37107 57015 87/// 333 00402
21167=
52787 32980 73608 11126 21251 37045 57010 87/// 333 00655
21196=
53352 42964 62707 11080 21246 40376 57005 86/// 333 21164=
53593 32959 00902 11009 21223 39190 40323 57030 333 21171=
53705 32976 33404 11002 21205 38954 40392 57017 83/// 333
00651 21113=
53863 31958 22703 10045 21207 40321 57026 70500 82/// 333
21104=
53975 31934 01402 10040 21097 40300 57038 70500 333 21041=
54273 32962 02507 11054 21174 39924 40275 57025 333 21250=
54324 32970 71803 10001 21197 40273 57031 87/// 333 21169=
54405 32972 02907 10011 21220 39580 40298 57034 333 21114=
54436 32965 72504 10025 21208 39951 40279 57033 87/// 333
21151=
54808 31942 02004 10072 21042 40292 57038 70500 333 21041=
54826 32963 02205 11046 21150 38503 57023 333 21083=
54836 31940 02202 10052 21070 40308 57032 70540 333 21063=
54863 31941 72203 10042 21045 40309 57024 70500 87/// 333
21038=
56018 33/// 92202 11043 21214 36151 57022 333 00353 21114=
56021 32980 70701 11080 21237 36050 57015 87/// 333 00354
21154=
57071 32960 02502 10084 21073 39887 40300 57035 333 21011=
0000184300
009
UDAS02 BABJ 110622
AMDAR 1106
LVR CNFNXL 2836N 11559E 110523 F331 MS393 256/132 TB/ S//1=
LVR CNFNXL 2858N 11607E 110526 F341 MS400 257/130 TB/ S//1=
LVR CNFNXL 2915N 11632E 110529 F341 MS409 254/133 TB/ S//1=
LVR CNFNXL 2932N 11658E 110532 F341 MS410 255/136 TB/ S//1=
LVR CNFNXL 2952N 11716E 110535 F341 MS395 255/140 TB/ S//1=
ASC CNFOZM 1818N 10925E 110620 F000 PS248 084/008 TB/ S//1=
LVR CNFNXL 3016N 11717E 110538 F341 MS413 252/138 TB/ S//1=
LVR CNFNXL 3039N 11718E 110541 F341 MS414 255/136 TB/ S//1=
LVR CNFNXL 3103N 11719E 110544 F341 MS413 256/134 TB/ S//1=
LVR CNFNXL 3125N 11720E 110547 F341 MS438 256/123 TB/ S//1=
ASC CNFPTK 3858N 11806E 110619 F148 MS225 275/044 TB/ S//1=
ASC CNFPTK 3858N 11807E 110619 F148 MS225 276/044 TB/ S//1=
ASC CNFPTK 3858N 11811E 110619 F148 MS228 279/043 TB/ S//1=
ASC CNFPTK 3857N 11815E 110620 F148 MS230 281/043 TB/ S//1=
LVR CNFNXL 3149N 11721E 110550 F341 MS443 259/125 TB/ S//1=
LVR CNFNXL 3212N 11720E 110553 F341 MS453 257/124 TB/ S//1=
LVR CNFNXL 3230N 11713E 110556 F341 MS458 256/118 TB/ S//1=
DES CNFNXL 3245N 11701E 110559 F299 MS423 264/097 TB/ S//1=
DES CNFNXL 3305N 11708E 110602 F257 MS360 286/075 TB/ S//1=
LVR CNFNXL 3323N 11717E 110605 F256 MS358 286/078 TB/ S//1=
LVR CNFNXL 3342N 11716E 110608 F256 MS360 286/078 TB/ S//1=
LVR CNFNXL 3400N 11716E 110611 F256 MS360 286/082 TB/ S//1=
ASC CNFOZM 1818N 10926E 110620 F010 PS209 094/015 TB/ S//1=
LVR CNFPYN 2752N 11740E 110611 F321 MS358 259/123 TB/ S//1=
LVR CNFPYN 2812N 11734E 110614 F321 MS364 259/128 TB/ S//1=
LVR CNFPYN 2833N 11728E 110617 F321 MS360 259/129 TB/ S//1=
LVR CNFPYN 2854N 11722E 110620 F321 MS363 257/132 TB/ S//1=
ASC CNFOZM 1818N 10927E 110620 F017 PS184 077/014 TB/ S//1=
ASC CNFOZM 1818N 10927E 110621 F018 PS178 069/015 TB/ S//1=
0000277300
010
UDAS02 BABJ 110624
AMDAR 1106
LVR CNFLWR 2740N 11047E 110612 F291 MS293 263/121 TB/ S//1=
LVR CNFLWR 2748N 11119E 110615 F291 MS295 264/117 TB/ S//1=
LVR CNFLWR 2756N 11151E 110618 F291 MS300 264/113 TB/ S//1=
LVR CNFLWR 2800N 11222E 110621 F291 MS298 264/112 TB/ S//1=
LVR CNFLWQ 3118N 10719E 110612 F341 MS490 257/093 TB/ S//1=
LVR CNFLWQ 3100N 10710E 110615 F341 MS480 259/097 TB/ S//1=
LVR CNFLWQ 3042N 10702E 110618 F341 MS473 259/100 TB/ S//1=
LVR CNFLWQ 3023N 10654E 110621 F341 MS458 259/115 TB/ S//1=
DES CNFPQK 3105N 12114E 110619 F035 MS014 182/012 TB/ S//1=
DES CNFPQK 3103N 12115E 110620 F023 MS009 110/009 TB/ S//1=
DES CNFPQK 3102N 12116E 110621 F016 PS003 081/012 TB/ S//1=
DES CNFPQK 3102N 12118E 110621 F014 PS008 095/010 TB/ S//1=
DES CNFPYM 4054N 11203E 110619 F065 MS133 298/015 TB/ S//1=
DES CNFPYM 4053N 11200E 110620 F058 MS116 264/010 TB/ S//1=
DES CNFPYM 4053N 11158E 110621 F052 MS129 203/004 TB/ S//1=
DES CNFPYM 4053N 11157E 110621 F049 MS123 201/007 TB/ S//1=
LVR CNFOZL 3523N 11941E 110613 F276 MS415 279/093 TB/ S//1=
LVR CNFOZL 3509N 11927E 110616 F276 MS413 283/101 TB/ S//1=
LVR CNFOZL 3458N 11911E 110619 F266 MS390 287/095 TB/ S//1=
LVR CNFOZL 3445N 11858E 110622 F266 MS389 289/094 TB/ S//1=
LVR CNFNXP 2828N 11552E 110606 F341 MS405 258/132 TB/ S//1=
LVR CNFNXP 2810N 11545E 110609 F341 MS413 260/133 TB/ S//1=
LVR CNFNXP 2752N 11538E 110612 F341 MS410 263/127 TB/ S//1=
LVR CNFNXP 2734N 11531E 110615 F341 MS408 262/119 TB/ S//1=
ASC CNFPTK 3856N 11820E 110621 F148 MS230 280/044 TB/ S//1=
ASC CNFPTK 3855N 11825E 110621 F148 MS230 279/044 TB/ S//1=
ASC CNFPTK 3854N 11830E 110622 F164 MS250 275/047 TB/ S//1=
ASC CNFPTK 3854N 11832E 110622 F171 MS266 277/046 TB/ S//1=
LVR CNFNXM 2722N 10910E 110613 F361 MS470 259/127 TB/ S//1=
LVR CNFNXM 2717N 10853E 110616 F361 MS470 259/127 TB/ S//1=
LVR CNFNXM 2711N 10836E 110619 F361 MS470 257/129 TB/ S//1=
LVR CNFNXM 2706N 10820E 110622 F361 MS473 256/130 TB/ S//1=
ASC CNFPXL 2533N 10343E 110613 F293 MS303 262/098 TB/ S//1=
ASC CNFPXL 2550N 10404E 110616 F322 MS355 259/113 TB/ S//1=
LVR CNFPXL 2608N 10427E 110619 F351 MS448 252/106 TB/ S//1=
LVR CNFPXL 2625N 10449E 110622 F351 MS448 252/112 TB/ S//1=
ASC CNFOZM 1819N 10928E 110621 F021 PS171 081/014 TB/ S//1=
ASC CNFOZM 1819N 10930E 110621 F034 PS140 076/016 TB/ S//1=
ASC CNFOZM 1820N 10932E 110622 F050 PS113 002/010 TB/ S//1=
ASC CNFOZM 1822N 10933E 110622 F066 PS088 326/006 TB/ S//1=
LVR CNFNXL 3419N 11715E 110614 F256 MS363 288/084 TB/ S//1=
LVR CNFNXL 3438N 11716E 110617 F256 MS370 288/081 TB/ S//1=
LVR CNFNXL 3456N 11712E 110620 F256 MS375 286/082 TB/ S//1=
DES CNFNXL 3512N 11708E 110623 F250 MS368 282/076 TB/ S//1=
0000070900
011
SMMG20 FMMD 110600
AAXX 11064
67017 NIL=
67020 32582 52206 10302 20233 30099 40126 51004 81802
  333 02300 10354 20251 50524 55/// 81823 84073
  555 81633=
67022 NIL=
67023 11575 61612 10310 20254 30117 40123 51003 69924 71561 86900
  333 02115 10334 20216 50504 55/// 86820 81920 94971/2 95831/2=
67037 NIL=
67067 32575 50000 10251 20200 39278 48/// 51008 82832
  333 01100 10/// 20200 50334 55/// 81823
  555 82630 82360 81073=
67107 32581 42802 10212 20131 38512 48550 52008 83206
  333 0//00 10242 20139 50074 55/// 83823 84273=
67131 12582 50406 10/// 20/// 30121 40126 52012 60214 82802
  333 0//69 10/// 20/// 50//4 55/// 82820 83073
  555 81640 RR 20.5=
0000022500
012
SMLJ21 LJLM 110600 CCA
AAXX 11061
14015 11220 61902 10066 20061 39857 40219 52005 60002 71022 86500
  333 20066 31000 55000 20177 30176 553// 20000 30000 58055 79999 82703 86626 8/7// 8/6// 90705 91
104=
00000000