0000012200
253
SACN62 CYVM 102100
METAR CYVM 102100Z 21006KT 15SM IC FEW085 BKN120 M21/M23 A2920 RMK
 AC2AC5 SLP889=

0000011800
254
SACN62 CYUY 102100
METAR CYUY 102100Z 19011G17KT 2 1/2SM BR OVC007 M05/M06 A2997 RMK SF8
 SLP170=

0000010600
255
SACN62 CYVQ 102100
METAR CYVQ 102100Z 29003KT 25SM BKN080 M25/M28 A2975 RMK AC7 SLP084=

0000012600
256
WSAU21 AMMC 111007
YBBB SIGMET H03 VALID 111007/111030 YMMC-
YBBB BRISBANE FIR CNL SIGMET H02 110630/111030=
0000012700
257
WSAU21 AMMC 111008
YMMM SIGMET F03 VALID 111006/111030 YMMC-
YMMM MELBOURNE FIR CNL SIGMET F02 110630/111030=
0000031900
258
SABN31 OBBI 111000
METAR OBBI 111000Z 18006KT 9999 FEW020 17/14 Q1018 NOSIG=
METAR OEDF NIL=
METAR OEDR 111000Z 19012KT 9999 SCT030 BKN080 18/13 Q1016 NOSIG=
METAR OTBD 111000Z 20005KT 150V250 7000 -RA FEW018 SCT090 OVC120
17/15 Q1019 NOSIG=
METAR OKBK 111000Z 32012KT CAVOK 15/09 Q1016 NOSIG=
0000008600
259
UAJP71 RJFF 111003
PIREP
ANA231 CLOVE 1003 F320 CLR AND SMTH BY B735
0000010000
260
SNNO22 ENMI 111000 RRA
AAXX 11101
01003 46/// /2806 10000 21048 30099 40113 52008=
0000167800
261
SNNO48 ENMI 111000
AAXX 11101
01002 46/// /2007 11046 21087 30053 40064 52005=
01006 46/// /2308 11048 21072 30066 40082 52003=
01009 46/// /2504 11026 2//// 30062 40069 53007=
01011 46/// /1202 11055 21061 30071 40082 54002=
01016 46/// /1704 11048 21054 30071 40087 54001=
01017 46/// /2505 11001 2//// 30101 40110 52009=
01020 46/// /2806 11008 21035 30104 40115 52009=
01024 46/// /0000 11033 21044 30078 40091 53008=
01035 46/// ///// 11150 2//// 333 4/167=
01043 46/// /1201 11071 2////=
01105 46/// /0710 11057 21098=
01124 26/// ///// 11110 21173 333 60005=
01133 26/// /1805 11102 21177 333 4/011 60005=
01146 26/// /0605 11092 21177 333 60005=
01148 26/// /1206 11107 21207 333 4/071 60005=
01158 26/// ///// 11085 21214 30136 40146 51012 333 60005=
01198 26/// ///// 11260 21288 39933 40215 50009 333 60005=
01214 46/// /1103 11034 21069=
01221 46/// ///// 11137 21183=
01224 NIL=
01239 26/// /1002 11148 21165 333 4/022 69915=
01242 46/// ///// 11092 21149=
01287 46/// ///// 11172 21201 333 4/031=
01315 26/// /0000 10005 20001 333 69915=
01326 46/// ///// 10002 21004=
01346 26/// /2709 11036 21047 333 60005=
01352 NIL=
01356 46/// ///// 11107 2//// 49932 57001=
01365 26/// /1003 11101 21113 333 4/074 69925=
01414 46/// /2810 10065 2////=
01417 26/// ///// 10049 20029 333 60005=
01418 46/// ///// 10048 2////=
01426 46/// /2712 10060 2////=
01444 26/// /2204 10018 21008 333 60005=
01449 26/// /1302 11012 21015 333 60005=
01453 26/// /1803 11005 21007 333 60005=
01478 46/// ///// 10022 2////=
01486 26/// ///// 11035 21055 333 60005=
01487 46/// /0505 11043 21061=
0000188500
262
SNNO49 ENMI 111000
AAXX 11101
01027 NIL=
01044 46/// /1002 11057 21074 30177 40186 52005=
01068 46/// /2204 11043 21065 30163 40181 51006=
01074 46/// /1604 11063 21083 30162 40178 52007=
01083 46/// /2204 11045 21056 30159 40176 52006=
01084 NIL=
01086 46/// /1902 11071 21120 39980 40172 51006=
01088 46/// /2605 11087 21115 30120 40171 52006=
01099 46/// /3609 11029 21050 30142 40158 50004=
01112 46/// /0708 11060 21126 30071 40081 53007=
01116 46/// /2704 11069 21165 30074 40095 53012=
01117 NIL=
01139 46/// /0812 11032 21095 30127 40132 52007=
01151 46/// /1403 11104 21203 30047 40138 53010=
01153 NIL=
01161 46/// /0708 11052 21101 30143 40155 52006=
01162 46/// /0405 11067 21143 30156 40161 52007=
01183 46/// /1206 11074 21149 30136 40170 52006=
01193 46/// /0605 11079 21129 30132 40170 52006=
01209 46/// /1001 11076 21088 39899 49994 53003=
01217 46/// /0907 11046 21076 39990 49994 55001=
01220 46/// /1101 11143 21156 333 4/114=
01223 46/// /1102 11055 21088 39920 49998 57000=
01250 46/// ///// 11132 21151=
01270 NIL=
01272 NIL=
01282 46/// /1008 11079 21144 30064 40070 52006=
01290 46/// /0707 11097 21148 30067 40069 55000=
01308 NIL=
01310 46/// /0501 11011 21022 39965 49979 52003=
01320 46/// /2903 11009 21055 39908 49982 52004=
01323 46/// /0000 11025 21030 39581 49971 52004=
01342 NIL=
01347 46/// /0701 11023 21025 39366 49967 52001=
01358 46/// ///// 11054 21060 39244 49977 52006=
01362 46/// /2416 11100 21113 49932 50001 333 4/051=
01368 46/// /0702 11093 21105 39006 40003 53006=
01371 NIL=
01381 NIL=
01382 NIL=
01387 NIL=
01408 46/// /2711 10064 20029 39963 49995 54001=
01413 NIL=
01463 26/// ///// 11016 21022 333 60005=
01464 NIL=
01466 46/// /0404 11045 21063 39868 40004 51008=
01485 NIL=
01489 26/// ///// 11063 2//// 333 60005=
0000015700
263
SSVX13 LFPW 111008
ZZYY 15548 11014 1008/ 522343 011301 6113/ 11119 40210 57255 22219
 00236 444 20130 11014 0900/ 50101 80142 80013 9/015=
0000015700
264
SSVX13 LFPW 111000
ZZYY 25624 11014 1000/ 185364 120853 6113/ 11119 40074 52010 22219
 01137 444 20130 11014 0900/ 50101 80134 8//// 9/015=
0000011100
265
UANT01 CWAO 111008
ARP BAW9172 4919N04351W 1008 F410 MS56 302/48 KT
GZBJB QXT AOW 111008 L30A
0000064800
266
SNBX43 EBUM 111000
AAXX 11101
06418 46/// /2209 10060 20045 30144 40156 53009 333   91113 91210=
06434 46/// /2205 10056 20044 30153 40173 53011 333   91108 91206=
06439 46/// /2304 10055 20035 30156 40170 53010 333   91108 91205=
06447 46/// /2404 10053 20040 30044 40171 53012 333   91109 91206=
06455 46/// /2402 10068 20047 39886 40172 53017 333   91105 91203=
06464 46/// /2505 10053 20053 30127 40155 53005 333   91108 91205=
06472 46/// ///// 10059 20059 39823 40186 53015=
06477 46/// /2402 10039 20039 30118 40169 53012 333   91103 91202=
06484 46/// /2101 10031 20031 39795 40195 53017 333   91102 91201=
0000025200
267
SNBX42 EBUM 111000
AAXX 11101
06414 46/// /2204 10059 20040 30132 40165 53013 333   91109 91205=
06459 46/// /2505 10063 20062 39987 40181 53015 333   91108 91205=
06494 46/// /2405 10029 20025 39369 40176 53012 333   91108 91205=
0000076800
268
SNNL50 EHDB 111000
AAXX 11101
06206 47/// /3011 10074 20053 30050 40103 53024 7//00
333 91014 91114 91211=
06207 47369 33108 10073 20050 30040 40094 53011 76165 8////
333 81/09 83/38 91011 91117 91212=
06239 47470 83208 10074 20053 30019 40081 53022 70265 8////
333 81/14 83/25 87/57 91009 91109 91208=
06252 46/// /2910 10072 20023 30078 40124 53033 222// 00096 10604
333 91013 91116 91212=
06260 47347 82106 10047 20034 30133 40135 58003 75181 8////
333 85/07 87/09 88/10 91009 91110 91206
555 53014=
06270 47229 82210 10058 20050 30097 40097 56009 78185 8////
333 85/05 88/07 91014 91114 91210
555 53006=
06290 47257 82005 10034 20021 30096 40137 56003 72210 8////
333 84/06 86/08 87/09 91007 91108 91205
555 53021=
0000181800
269
SNNL51 EHDB 111000
AAXX 11101
06201 47568 73111 10074 20029 30058 40111 53029 70265 8////
333 81/23 87/63 87/68 91013 91114 91212=
06203 47480 8//12 10084 20053 30074 40125 53016 72386 8////
333 82/12 83/15 86/24 91015 91115 91212=
06204 47371 83109 10076 20036 30063 40114 53018 75865 8////
333 81/09 83/14 85/25 91011 91111 91209=
06205 45573 73108 10070 20021 30024 40083 53023 8////
333 82/25 84/28 85/33 91011 91111 91210=
06208 47236 82110 10063 20056 30039 40088 56009 76166 8////
333 83/04 87/05 88/07 91013 91113 91210=
06211 47774 52911 10075 20027 30059 40115 53031 70186 8////
333 82/56 85/62 91014 91114 91212=
06212 47465 83110 10077 20058 3//// 4//// 5//// 75765 8////
333 82/11 84/13 86/15 91012 91115 91213=
06235 47459 82608 10077 20069 30111 40111 53002 76185 8////
333 85/12 87/15 87/21 91010 91114 91211
555 53006=
06240 47241 82108 10057 20049 30131 40126 55004 72385 8////
333 84/06 87/07 88/10 91011 91111 91209
555 53010=
06251 41/57 /2809 10072 20062 30092 40093 55002 7//00
333 91012 91119 91213
555 53007=
06258 46/// /2114
333 91016 91117 91214=
06269 47244 82108 10050 20041 30127 40121 58007 75286 8////
333 83/06 86/07 87/08 91011 91111 91208
555 53015=
06280 47230 82107 10052 20045 30103 40107 58008 75855 8////
333 83/05 87/06 88/08 91010 91111 91207
555 53007=
06310 47450 82209 10063 20054 30141 40151 53006 72380 8////
333 83/10 84/14 86/26 91011 91111 91209
555 53012=
06344 47350 82107 10059 20048 30143 40136 55001 72385 8////
333 85/09 88/10 91010 91111 91208
555 53015=
06370 45360 72105 10052 20033 30127 40153 53001 8////
333 85/07 86/08 86/10 91007 91108 91206
555 53041=
06380 45479 42306 10061 20042 30028 40170 53012 8////
333 81/15 83/37 91008 91108 91206
555 53018=
0000090000
270
SNNL52 EHDB 111000
AAXX 11101
06210 47350 82207 10062 20049 30130 40130 55001 72350 8////
333 82/08 86/09 88/11 91011 91111 91207
555 53014=
06225 46/// /2215
333 91018 91118 91215=
06242 47257 83010 10070 20063 30101 40103 53004 76165 8////
333 81/06 84/29 87/33 91013 91116 91213=
06257 46/// ///// 10065 20056
555 53006=
06275 47358 82105 10041 20028 30083 40139 58001 78151 8////
333 84/07 85/09 86/10 91007 91108 91206
555 53020=
06330 46/// /2211 10061 20053 30124 40138 53004
333 91014 91114 91211
555 53008=
06340 47350 82205 10049 20038 30135 40154 53005 72210 8////
333 86/07 87/09 88/31 91008 91109 91205=
06350 47358 82205 10050 20031 30136 40151 51006 71000 8////
333 81/08 83/32 85/37 91007 91108 91205
555 53036=
06375 47258 82106 10053 20033 30123 40148 50000 71010 8////
333 82/06 83/08 88/50 91009 91109 91206
555 53066=
0000117900
271
SNNL53 EHDB 111000
AAXX 11101
06248 46/// /2111
333 91014 91114 91211=
06249 47/36 /2209 10060 20052 78185
333 91012 91112 91209
555 53009=
06267 47230 82210 10059 20049 78185 8////
333 84/06 88/07 91013 91113 91210
555 53008=
06273 47/35 /2109 10049 20043 78185
333 91012 91112 91209
555 53012=
06277 46/// /2110 10060 20055
333 91014 91115 91211
555 53007=
06278 46/// /2105 10045 20031
333 91007 91109 91205
555 53015=
06279 47233 82106 10043 20036 30099 40119 58005 75181 8////
333 82/05 87/06 88/07 91009 91110 91206
555 53010=
06283 46/// /2004 10035 20026
333 91006 91107 91204
555 53021=
06286 46/// /2108 10049 20040
333 91010 91111 91209
555 53014=
06319 41/41 /2206 10056 20045 30156 40158 52007 7//00
333 91008 91110 91207
555 53018=
06348 47/30 /2107 10050 20041 30137 40136 58001 75181
333 91010 91110 91207
555 53018=
06356 463// 72206 10046 20036 30141 40142 52001 8////
333 81/07 84/23 85/29 91008 91108 91206
555 53020=
06377 47362 82305 10053 20043 70331 8////
333 88/07 91007 91108 91205
555 53032=
06391 46/// /2205 10041 20035
333 91010 91110 91205
555 53016=
0000040600
272
SNNL54 EHDB 111000
AAXX 11101
06209 NIL=
06285 NIL=
06308 NIL=
06311 NIL=
06312 NIL=
06313 NIL=
06315 NIL=
06316 NIL=
06320 46/67 /2810 10087 20074 30112 40139 53008 222// 00081 10504
333 91013 91115 91213=
06321 46/77 /2913 10088 20057 30118 40142 53012 222// 00086 10504
333 91015 91115 91213=
06324 NIL=
06331 NIL=
06343 46/// /2208
333 91013 91113 91208=
00000000