0000011000
193
SMIN90 VOMM 110600
AAXX 11064
43147 32597 30000 10282 20207 30146 40167 82530
  333 58009=
0000019300
194
SMIN90 VOMM 110600
AAXX 11064
43150 31596 11402 10280 20187 30094 40169 70511 81500
  333 58008 81620=
43237 32997 41106 10290 20153 39757 40146 80002
  333 58003 84075=
0000011100
195
UGIN90 VECC 110600
PPBB 61051 42809 90012 00000 01003 01003 9037/ 00502 36006 911//
     34506=
0000008600
196
SAIN90 VIAR 110600
METAR VIAR 110600Z 29005KT 2600 BR NSC 13/09 Q1021=
0000037100
197
SMIN90 VIDN 110600
AAXX 11064
42111 31596 32702 10134 20078 39393 40178 70162 81130
  333 58007 81830 83360=
42148 21596 60902 10160 20108 39913 70552 83420
  333 58007 6990/ 82620 86459=
42147 21092 80503 11004 21004 37763 77297 887//
  333 59008 6003/ 88700=
42114 31195 51401 10064 20026 38119 70542 83730
  333 58001 81701 83605 85346=
0000014000
198
SMIN90 VEGK 110600
AAXX 11064
42379 21595 82702 10172 20117 40186 72996 8692/
  333 5669/ 58009 6993/ 86620 81925 88458=
0000007900
199
UXIN90 VEGK 110600
PPAA 6106/ 42379
NO ASCENT DUE TO RAIN=

0000008600
200
SAIN90 VIDN 110600
METAR VIDN 110530Z 25006KT 6000 SCT040 15/08 Q1019=
0000009100
201
SPIN90 VIGG 110600
SPECI VIGG 110600Z 20002KT 5000 HZ FEW035 16/03 Q1020

0000129000
202
SMMS01 WMKK 110600
AAXX 11064
48601 11559 70207 10288 20232 30107 40111 6///1 70522 82242 333 82820 85364 87077=
48615 11357 80811 10262 20228 30121 40127 60051 76066 84547 333 82708 84620 88270=
48620 11565 72402 10301 20250 30098 40107 69921 70562 83846 333 81820 83364 85276=
48647 11468 73306 10322 20229 30075 40099 60001 70522 82242 333 82819 83364 87078=
48650 11462 73203 10309 20237 30083 40101 60001 70522 82142 333 82818 83364 86078=
48657 11465 70105 10240 20221 30102 40120 60001 71522 83548 333 81712 85366=
48665 11568 70105 10309 20244 30097 40107 60001 70522 83142 333 83821 83365 86078=
96413 11462 70209 10278 20230 30081 40107 6///1 72582 85931 333 81915 85820 86365=
96421 12480 73610 10297 20226 30069 40104 6///1 84131 333 84818 85365=
96441 12480 73208 10283 20240 30081 40108 60071 84231 333 84814 86365=
96449 11465 72909 10259 20228 30091 40110 60101 71598 8427/ 333 84814 87365=
96465 12478 73405 10299 20257 30067 40100 60001 83942 333 82812 81915 87079=
96471 11465 81003 10265 20224 30099 40102 6///1 76062 84947 333 82813 81917 83635 88276=
96481 11460 73405 10262 20240 30071 40090 60021 76162 8497/ 333 81916 84625 86364=
96491 11450 80308 10252 20246 30082 40094 69921 76062 84947 333 83814 81916 83640 88276=
0000013300
203
SMHK01 VHHH 110600
AAXX  11061
45007 12950 12604 10215 20113 30207 40216 56033 60001
80001  333  59012 81080 =

0000014700
204
SMBR01 TBPB 110600
AAXX 11064
78954 11470 40615 10247 20203 30077 40142 6///1 71582 84800
  333 10282 20226 59003 83816 90914 =
0000013000
205
SMNO01 ENMI 110600 RRA
AAXX 11061
01492 16/// /0305 11006 21013 39861 49980 58002 6//// 333 21007
      91107=
0000014200
206
SMNO02 ENMI 110600 RRA
AAXX 11061
01003 11562 82905 11003 21054 30088 40102 52004 69902 77075 875//
      333 44009 70003=
0000108100
207
SMIE01 EIDB 110600
AAXX 11061
03951 16/// /0901 10039 20022 30149 40176 52015 69912
333 20031 3/103=
03953 15681 /0602 10016 21008 30141 40172 53012 60012 81///
333 20013 3/103 81/43=
03955 11482 12903 10029 20008 39974 40176 51017 69902 70281 81830
333 20019 31103 55019 81816 92600=
03956 15984 /2704 10025 20005 30086 40165 52018 69912 80///
333 20019 3/101 81/70=
03962 11670 22302 10021 20015 30145 40170 52017 60012 70281 82500
333 20013 3/102 55017 82638 92600=
03963 17769 /2607 10070 20008 30125 40154 52012 69972 7038/ 83///
333 20045 3/001 83/50 85/74=
03966 17979 /2003 11005 21012 30071 40167 52021 69952 7028/
333 21007 3/105=
03967 11470 12405 10013 20005 30042 40159 53024 69952 70181 81600
333 20010 31002 55000 81710=
03969 NIL=
03973 16/// /1802 11004 21006 39893 40156 51021 60022
333 21006 3/103=
03976 17467 /3004 10035 20002 30132 40144 52016 60052 78084 86///
333 20031 3/001 82/18 84/43 84/50=
03980 17677 /2006 10027 20009 30098 40124 52019 60032 78185 86///
333 20025 3/100 83/36 85/46 86/56=
0000031100
208
SMRE01 FMEE 110600
AAXX 11064
61980 12565 11020 10300 20206 40155 69924 81800
  333 02319 20250 55119 58013 81826 90710 91128 92437
  555 60005=
67005 02570 62403 10299 20231 30132 40140 51014 60002 81834
  333 10299 20261 30024 55000 60007 70000 81821 86080 90710 91105
  555 60005=
0000129300
209
SMUR10 UKMS 110600
AAXX 11061
33135 12697 82708 10036 20013 39887 40032 52023 69902 885//
333 20023=
33317 12497 62710 10038 20007 39790 40128 52016 69932 86500
333 20033=
33345 32498 82904 10047 20017 39871 40075 53026 885// 333
20037 88718=
33393 12660 72805 10042 21028 39778 40173 52011 69902 87500
333 20042 87646=
33506 12597 82708 10034 21001 39858 40054 52014 60032 885//
333 20025=
33587 32997 62603 10028 21014 39866 40132 52021 86030 333
20026 555 34101=
33631 32297 81801 10018 20010 30065 40215 52010 886// 333
20014 88705=
33663 NIL=
33658 32784 52605 10053 21055 39884 40186 52017 85500 333
20045 85650=
33711 12997 02808 10020 21008 39906 40118 52019 69982 82030
333 20018=
33791 12997 22608 10019 21003 39966 40119 52018 69992 82030
333 20016=
33837 32983 22503 10035 21018 30133 40186 53026 80001 333
20021=
33924 NIL=
33946 32760 82604 10026 20002 39974 40199 52031 82501 333
20002=
34300 11497 72507 10038 20015 39841 40030 53014 60032 72522
87300 333 20031 84916=
34504 12997 32807 10024 20005 39913 40093 52018 60022 83030
333 20011=
34519 11460 82507 10024 20011 39804 40082 52027 60022 70286
886// 333 20024 88710=
34601 12960 62708 10031 20010 39969 40106 52020 60022 86050
333 20022=
0000011100
210
UANT99 KDDL 110605
ARP UAL907 5340N02420W 0605 F360 MS57 222/58 KT
N776UA DDL XXW 110605 F29A
0000011000
211
UANT99 KDDL 110605
ARP SWR23C 4901N01718W 0605 F390 MS57 248/61 KT
HBJHD QXT AOE 110605 J83A
0000011000
212
UANT99 KDDL 110606
ARP ACA848 5234N03233W 0606 F350 MS57 214/50 KT
CGFAH DDL XXW 110606 J35A
00000000