0000013500
313
SACN62 CYYC 102100
METAR CYYC 102100Z 03007KT 40SM FEW038 FEW120 BKN300 M00/M09 A2947
 RMK CU1AC2CI3 CU TR SLP022=

0000163600
314
SAPA31 KWBC 102100
METAR
AGGG NIL=
AGGH 102100Z 18002KT 9999 FEW017 27/24 Q1008=
ANAU NIL=
AYPY NIL=
PGNT NIL=
PGRO 102050Z 07015KT 7SM SCT015 SCT120 25/23 A2993=
PGSN 102054Z 04015G22KT 10SM FEW018 26/23 A2992 RMK AO2 SLP152
     T02560228 53006=
PGUA 102058Z AUTO 05017KT 10SM FEW022 26/22 A2992 RMK AO2 SLP122
     T02560224 52017 ?=
PGUM 102054Z 06010KT 10SM CLR 26/22 A2992 RMK AO2 SLP124 T02560217
     53015=
PGWT 102055Z 08015G20KT 7SM FEW015 SCT150 SCT180 26/23 A2991 RMK
     WIND DATA ESTIMATED=
PHJH 102050Z 02010KT 15SM -SHRA FEW015 SCT030 23/20 A3000=
PHJR 102053Z VRB03KT 10SM FEW033 26/18 A3001 RMK AO2 SLP167
     T02610178 58004=
PHMK 102054Z 05009KT 10SM SCT018 24/21 A3001 RMK AO2 SLP164
     T02390211 58000=
PJON NIL=
PKMJ 102055Z 05015KT 15SM SCT015 BKN300 29/23 A2978=
PKMR 102052Z 04014KT 15SM SCT015 BKN300 29/23 A2979 RMK SLP088
     8/101 T02850226 52015=
PKWA 102100Z AUTO 06016G21KT 10SM SCT026 SCT045 28/22 A2984 RMK
     AO2 T02800215=
PLCH 102100Z 09018KT 9999 FEW020 29/22 Q1009=
PMDY 102056Z AUTO 10014KT 7SM BKN041 OVC048 21/15 A3026 RMK AO2
     TSNO 51009 T02050150 BKN V SCT SLP558 ?=
PTKK 102053Z VRB05KT 15SM FEW014 BKN120 OVC280 28/24 A2982 RMK
     SLP101 8/171 T02760236 52014=
PTKR 102051Z 10010KT 12SM SCT016CB BKN110 OVC290 26/24 A2978 RMK
     SHRAE35 CB NE-SE-S SLP084 60010 8/378 T02560239 53017=
PTPN NIL=
PTRO NIL=
PTSA NIL=
PTTP 102050Z 08012KT 15SM SCT018 BKN130 OVC300 28/24 A2984 RMK
     SLP103 8/171 T02820235 52020=
PTYA NIL=
PWAK 102055Z 09008KT 10SM FEW025 26/26 A3001 RMK AO2A=

0000012800
315
SACN62 CYYF 102100
METAR CYYF 102100Z 18002KT 15SM BKN080 BKN120 BKN200 03/M01 A2985 RMK
 AC5AC1CI1 SLP120=

0000105100
316
SANT31 KWBC 102100
METAR
BGBW 102050Z 05009KT 9999 FEW050 BKN060 BKN070 M08/M18 Q0995 RMK
     1SC 6AC 7AC=
BGCO 102050Z AUTO VRB01KT //// BKN009/// OVC034/// M08/M09
     Q1010=
BGGH 102050Z 16016KT 9999 DRSN SCT030 M07/M15 Q0993=
BGJN 102050Z AUTO 10025KT 9999NDV FEW240/// M09/M19 Q0994=
BGKK 102050Z AUTO 06020G30KT 020V080 0900NDV -SN VV006/// M01/M02
     Q0985=
BGSF 102050Z AUTO 07010KT 9999NDV NCD M12/M21 Q0995=
BGTL 102058Z AUTO 11015KT 9999 SCT028 M11/M14 A2911 RMK AO2 SLP846
     T11091139 53002=
BIAR 102100Z 15006KT 110V180 9999 -SN BKN030 OVC039 02/M02
     Q0996=
BIEG 102100Z 10035G45KT 4000 -SNRA SCT012 OVC018 01/M00 Q0995 RMK
     R04/790193 RWY SANDED=
BIKF 102100Z 27015KT 9999 FEW029 SCT042 BKN049 02/M03 Q0991=
BIRK 102100Z 27013KT 6000 -SNRA BKN007 OVC018 01/M01 Q0991=
GVAC 102100Z 03008KT 9999 SCT014 BKN200 20/15 Q1015 NOSIG=
GVPR NIL=
LPBJ NIL=
LPLA 102100Z 25012KT 9999 FEW009 SCT018 BKN032 15/13 Q1006=
TXKF 102055Z 07013KT 9999 FEW030 BKN300 18/11 Q1030=

0000012900
317
SACN62 CYYD 102100
METAR CYYD 102100Z VRB02KT 25SM FEW060 SCT080 BKN210 M05/M05 A2965
 RMK SC2AC1CI4 SLP065=

0000010600
318
SACN62 CYYY 102100
METAR CYYY 102100Z 22008KT 15SM SCT100 M06/M13 A3016 RMK AC3 SLP218=

0000012800
319
SACN62 CYYZ 102100
METAR CYYZ 102100Z 13004KT 1SM R24R/P6000FT/N BR OVC003 01/M00 A3010
 RMK FG1ST7 SLP203=

0000012400
320
SACN62 CYXU 102100
METAR CYXU 102100Z 17008KT 5/8SM R15/P6000FT/D BR VV002 01/01 A3006
 RMK FG8 SLP191=

0000012900
321
SACN62 CYYG 102100
METAR CYYG 102100Z 20008KT 15SM FEW030 FEW110 BKN250 M04/M08 A3032
 RMK SC1AC1CI3 SLP270=

0000010600
322
SACN62 CYYE 102100
METAR CYYE 102100Z 34007KT 30SM BKN040 M15/M18 A2948 RMK SC7 SLP019=

0000012600
323
SACN62 CYYB 102100
METAR CYYB 102100Z 16008KT 15SM -SN OVC008 M04/M05 A3002 RMK ST8 PCPN
 VRY LGT SLP190=

0000015000
324
SACN62 CYZF 102100
METAR CYZF 102100Z 32004KT 3SM -SN FEW008 SCT016 OVC057 M22/M26 A2948
 RMK SF1SC3SC5 SF TR VIS VRB 2-4 SLP012=

0000010200
325
SPUS41 KWBC 102105
SPECI
KWRI 102101Z AUTO 01003KT 1 1/2SM BR OVC003 02/02 A3033=

0000010000
326
SPUS43 KWBC 102105
SPECI
KGRB 102101Z AUTO 15008KT 3SM BR OVC007 M01/M02 A2976=

0000022600
327
SAIE32 EIDB 102100
METAR EICM 102100Z NIL=
METAR EIDL 102100Z NIL=
METAR EIKY 102100Z NIL=
METAR EIME 102100Z 23010KT 9999 FEW020 SCT043 03/03 Q1010=
METAR EISG 102100Z NIL=
METAR EIWF 102100Z NIL=

0000013400
328
SACN62 CYZT 102100
METAR CYZT 102100Z 13006KT 15SM FEW011 BKN044 OVC090 06/04 A2984 RMK
 SF1SC5AC2 PRESFR SLP105=

0000011500
329
SACN62 CZBF 102100
METAR CZBF 102100Z 00000KT 15SM FEW220 M12/M16 A3022 RMK CI1 CI TR
 SLP239=

0000013800
330
SACN62 CZFA 102100
METAR CZFA 102100Z 27002KT 30SM FEW060 SCT080 SCT140 M13/M14 A2929
 RMK SC1AC2AC1 WND ESTD SLP975=

0000009400
331
SAAG41 SARI 102100
METAR SARI 102100Z  00000KT 9999  SCT030  32/24
Q1009=

0000040500
332
SAJP31 RJTD 102100
METAR RJAA 102100Z 36004KT 9999 FEW025 M04/M08 Q1023 NOSIG=
METAR RJBB 102100Z 29009KT 9999 FEW025 04/M05 Q1028 NOSIG=
METAR RJTT 102100Z 32004KT 280V010 9999 FEW060 01/M05 Q1023 NOSIG=
METAR RJOO 102100Z 02003KT 340V050 9999 FEW025 00/M06 Q1028=
METAR ROAH 102100Z 04008KT 9999 FEW045 14/07 Q1026=
METAR RJGG 102100Z 27018KT 9999 FEW020 04/M03 Q1026 NOSIG=

00000000