0000008700
993
SAIY32 LIIB 102050 RRA
METAR LICC 102050Z 30004KT CAVOK 10/07 Q1021=

0000010800
994
SACV20 GVNP 102100
METAR GVNP 102100Z /////KT EST 9999 SCT020 BKN200 XX/XX Q////
NOSIG=

0000041000
995
SANO36 ENMI 102050
METAR ENBS 102050Z 20003KT 9000 -SHSN FEW010 SCT030 BKN055 M08/M12
           Q1014 =
METAR ENHK 102050Z NIL=
METAR ENHV 102050Z 25005KT 9999 -SN FEW033 SCT048 M06/M08 Q1017=
METAR ENLK 102050Z 06011KT 9999 SCT040 M06/M14 Q1013=
METAR ENMH 102050Z 16005KT 7000-SHSN VV015 M06/M07 Q1016=
METAR ENNK 102050Z NIL=
METAR ENNM 102050Z 06015KT CAVOK M09/M15 Q1005=

0000039300
996
SANO35 ENMI 102050
METAR ENMS 102050Z VRB11KT CAVOK M09/M17 Q1008 RMK WIND 412FT
           VRB06KT=
METAR ENRM 102050Z NIL=
METAR ENRS 102050Z NIL=
METAR ENSK 102050Z NIL=
METAR ENSO 102050Z NIL=
METAR ENST 102050Z 05011KT 020V080 CAVOK M07/M16 Q1008 RMK WIND 300FT
           04013G23KT 010V070=
METAR ENVD 102050Z 28006KT 9999 FEW015 SCT040 M10/M12 Q1015=

0000040800
997
FTNO38 ENMI 102000
TAF ENGC 102000Z 1021/1121 05015KT 9999 FEW012 BKN025 TEMPO 1021/1121
         4000 RADZ BKN008 BECMG 1109/1112 VRB08KT BECMG 1112/1115
         28025KT PROB40 1112/1118 28035KT=
TAF ENOA 102000Z 1021/1121 VRB08KT 9999 -RA SCT009 BKN015 BECMG
         1021/1024 28020KT TEMPO 1021/1121 4000 RADZ BKN008 BECMG
         1100/1103 29030KT BECMG 1115/1118 30040KT=

0000065000
998
SANO33 ENMI 102050
METAR ENAT 102050Z 21008KT 9999 -SN OVC003 M14/M16 Q1019 RMK WIND
           700FT 19007KT=
METAR ENBL 102050Z NIL=
METAR ENEV 102050Z 08013KT CAVOK M07/M16 Q1015 RMK WIND 1400FT
           08020KT=
METAR ENFL 102050Z 33009KT 9999 FEW025 01/M03 Q0998 =
METAR ENKB 102050Z 03003KT 360V060 9999 SCT020 BKN035 M04/M07 Q1000=
METAR ENKR 102050Z 17009KT 4000 IC BR VV005 M21/M23 Q1016 SEASMOKE
           NORTH OF THE FIELD RMK WIND 775FT 25006KT=
METAR ENML 102050Z 34006KT 9999 FEW025 M03/M07 Q1000=
METAR ENNA 102050Z VRB02KT 9999 VCFG BKN007 M14/M16 Q1018 RMK WIND
           1800FT 34006KT=

0000037300
999
SANO37 ENMI 102050
METAR ENNO 102050Z NIL=
METAR ENOV 102050Z NIL=
METAR ENSD 102050Z NIL=
METAR ENSG 102050Z NIL=
METAR ENSN 102050Z NIL=
METAR ENSR 102050Z 26002KT 9999 6000N BCFG FEW001 M17/M19 Q1018 RMK
           WIND 1119FT 15006KT=
METAR ENSS 102050Z 04011KT 9999 VCSH FEW030 SCT055 M03/M10 Q1015 RMK
           WIND 500FT 05013KT=

0000056900
000
FTNO31 ENMI 102000
TAF ENBR 102000Z 1021/1121 VRB05KT 9999 -RA SCT008 BKN015 TEMPO
         1021/1121 4000 RADZ BKN007 BECMG 1100/1103 28012KT=
TAF ENGM 102000Z 1021/1121 15005KT 9999 BKN012 TEMPO 1021/1121 2000
         -SN BR BKN004=
TAF ENVA 102000Z 1021/1121 08008KT 9999 SCT015 BKN025 PROB30 TEMPO
         1021/1024 3000 -SN VV012 PROB40 1112/1121 3000 -SN VV012=
TAF ENZV 102000Z 1021/1121 25012KT 9999 FEW012 BKN025 TEMPO 1021/1103
         4000 RADZ BKN007 TEMPO 1103/1121 4000 SHRA BKN012CB BECMG
         1112/1115 31020KT=

0000063300
001
SANO38 ENMI 102050
METAR ENDR 102050Z AUTO 05029G40KT M03/M08 Q1001=
METAR ENEK 102050Z 24023KT 9999 FEW010 BKN030 08/07 Q1004 W08/S4=
METAR ENGC 102050Z NIL=
METAR ENHE 102050Z 09026KT 5000 -SHSN BKN009 M04/M04 Q1003 W///S5=
METAR ENOA 102050Z 08011KT 9999 SCT009 SCT010 BKN018 05/03 Q0998
           W///S4=
METAR ENSL 102050Z AUTO 27021KT 9999NDV FEW013/// SCT034/// BKN087///
           08/05 Q1001 W06/S4=
METAR ENFB 102050Z AUTO 08020KT 9999NDV BKN022/// OVC041/// 05/00
           Q0999 W///S5=
METAR ENSF 102050Z AUTO 07020KT 9999NDV FEW023/// BKN042/// 05/00
           Q0998 W///S5=

0000067300
002
SANO31 ENMI 102050
METAR ENAN 102050Z 11015KT CAVOK M06/M15 Q1016 NOSIG=
METAR ENBR 102050Z VRB02KT 9999 -RADZ FEW005 SCT014 BKN025 03/03
           Q0999 RMK WIND 1200FT 03003KT=
METAR ENBO 102050Z 09018KT CAVOK M07/M16 Q1011 NOSIG=
METAR ENDU 102050Z VRB02KT 9999 FEW040 M23/M25 Q1017=
METAR ENGM 102050Z 16004KT 140V200 9999 -SN BKN004 M01/M01 Q0996
           TEMPO BKN008=
METAR ENOL 102050Z 07011KT 9999 -SG FEW007 SCT010 BKN040 M07/M10
           Q1001 TEMPO 1500 SN VV005=
METAR ENVA 102050Z 07009KT 020V110 9999 -SN BKN027 M08/M13 Q1002 RMK
           WIND 670FT 10013KT=
METAR ENZV 102050Z 26009KT 9999 BKN010 07/06 Q1001=

0000073300
003
SANO39 ENMI 102050
METAR ENNE 102050Z NIL=
METAR ENQR 102050Z AUTO 08008G20KT 9999NDV OVC031/// 05/M03 Q0999
           W///S/=
METAR ENSE 102050Z AUTO 07020KT 9999NDV FEW027/// BKN042/// 04/M02
           Q0999 W///S5=
METAR ENQC 102050Z AUTO 04011KT 010V080 9999NDV FEW020/// BKN043///
           BKN071/// 05/00 Q0998 W///S5=
METAR ENQA 102050Z AUTO 05014KT 9999NDV FEW017/// OVC025/// 04/01
           Q0999 W05/S5=
METAR ENHM 102050Z AUTO 25019KT 9999NDV SCT062/// BKN100/// 07/05
           Q0999 W08/S4=
METAR ENVH 102050Z AUTO 24023KT 9999NDV BKN038/// BKN140/// 07/06
           Q1005 W///S4=
METAR ENLA 102050Z AUTO 25025KT 9999NDV -RA BKN010/// 08/07 Q1003
           W///S4=

0000034500
004
SANO34 ENMI 102050
METAR ENBN 102050Z 07014KT CAVOK M06/M12 Q1006=
METAR ENBV 102050Z 23010KT 9999 VCSH FEW015 BKN047 M05/M06 Q1016=
METAR ENFG 102050Z NIL=
METAR ENHF 102050Z VRB02KT CAVOK M10/M12 Q1016 RMK WIND 1254FT
           VRB02KT=
METAR ENRA 102050Z 11010G24KT CAVOK M10/M19 Q1010=
METAR ENSH 102050Z NIL=

0000062500
005
SANO32 ENMI 102050
METAR ENAL 102050Z 04010KT 9999 -SN FEW017 SCT042 M01/M04 Q1000=
METAR ENCN 102050Z VRB02KT 9999 FEW013 BKN024 M01/M01 Q1001=
METAR ENHD 102050Z 27011KT 9999 SCT012 06/05 Q0999=
METAR ENRO 102050Z AUTO 09012KT 6000NDV -SG FEW007/// BKN011///
           OVC017/// M13/M16 Q0996=
METAR ENRY 102050Z 20007KT CAVOK 02/00 Q0997=
METAR ENSB 102050Z 22008KT 9999 -SNRA FEW020 BKN025 M01/M05 Q1007 RMK
           WIND 1400FT 22018KT=
METAR ENTC 102050Z VRB02KT 9999 FEW015 M12/M13 Q1017 NOSIG RMK WIND
           2600FT 10012KT=
METAR ENTO 102050Z 22005KT CAVOK 00/M01 Q0998=

0000120100
006
SAMX41 MMMX 102054
METAR MMMX 102043Z 19013KT 12SM BKN025TCU 20/04 A3019
      NOSIG RMK SLP065 57027 970 8/200 CI=
METAR MMAA 102042Z 21006KT 10SM SKC 31/20 A2983 RMK SLP108 57030 900=
METAR MMBT 102040Z 18008KT 7SM FEW060 31/24 A2986 RMK 8/100=
METAR MMCB 102045Z 00000KT 10SM SCT030 SCT070 27/10 A3001 RMK 8/170=
METAR COR MMOX 102043Z 21010KT 15SM SCT030 26/05 A3005 RMK SLP071
      58041 975 8/100=
METAR MMPA 102042Z 00000KT 6SM  FEW120 26/16 A2988 
      RMK SLP064 57045 996 8/030 HZY RTS=
METAR MMPB 102041Z 18011G25KT 8SM  SCT020 21/05 A3022 RMK 8/100 HZY=
METAR MMPS 102041Z 27012KT 15SM SKC 30/21 A2996
      RMK SLP127 57025 969 CU N=
METAR MMQT 102045Z 23009KT 8SM SCT020 BKN060 BKN280 22/08 A3017 RMK
8/804=
METAR MMTM 102052Z 15003KT 5SM  BKN070 BKN200 25/18 A2985 
      RMK SLP109 57061 992 8/031 HZY=
METAR MMTO 102046Z 17011KT 7SM  BKN020TCU 15/05 A3027 
      RMK SLP156 52022 926 8/200=
METAR MMVR 102046Z 09012KT 7SM  SKC 27/17 A2985 
      RMK SLP098 57040 992 HZY DSNT CU 4 QUAD=
METAR MMZH 102045Z 18009KT 7SM SCT020TCU SCT250 30/23 A2984 RMK M M M
      8/202=
METAR MMIT 102057Z NIL=
METAR MMTB 102057Z NIL=

0000015400
007
FTCN36 CWAO 102000 AAA
TAF AMD CYOY 102055Z 1018/1021 FCST CNCLD DUE END OF FLYING PROGRAM
    RMK NXT FCST WILL BE ISSUED AT 131515=

0000011200
008
SPUS31 KWBC 102055
SPECI
KPHF 102051Z AUTO 06004KT 3SM HZ BKN005 BKN080 OVC100 07/04 A3031=

0000011900
009
SAFK41 EGYP 102050
METAR EGYP 102050Z 21025G36KT 9999 -SHRA FEW012 SCT020 BKN045 05/01
 Q0997 WHT=

0000009700
010
SAUK36 EGGY 102050 CCA
METAR COR EGSH 102050Z 21011KT CAVOK 08/06 Q1012 NOSIG=

0000012500
011
SABZ24 SBPA 102100
METAR SBPA 102100Z 20008KT 9999 TS VCSH SCT016
BKN040 FEW048CB OVC080
 24/20 Q1011=

0000042100
012
SAFI34 EFHK 102050
EFET 102050Z AUTO 10004KT 050V150 CAVOK M29/M31 Q1013=
EFIV 102050Z AUTO 23004KT 8000 OVC005 M32/M35 Q1016=
EFKE 102050Z AUTO 02013KT 5000 -SN OVC042 M13/M15 Q1007=
EFKI 102050Z 05014KT 020V090 9999 -SN BKN022 BKN048 M10/M13 Q1000=
EFKS 102050Z 04008KT 360V080 9999 -SG SCT016 SCT037 BKN063 M16/M19
Q1005 R12/72//95=
EFKT 102050Z AUTO 04006KT 350V070 CAVOK M19/M21 Q1013=

00000000