0000010500
466
SAIQ01 ORBI 110600
METAR ORER 110600Z 31004KT 4000 -RA BKN030 OVC080 06/05 Q1018
NOSIG=
0000023100
467
SAGG31 UGTB 110600
METAR UGTB 110600Z 31015KT CAVOK 01/M06 Q1019 R31L/CLRD80 NOSIG=
METAR UGSB 110600Z 14016KT CAVOK 08/M03 Q1022 R13/CLRD70 NOSIG=
METAR UGKO 110600Z 23003KT CAVOK 04/M02 Q1019 R07/09//70 NOSIG=
0000009600
468
SAPK31 OPMT 110600
METAR OPMT 110555Z 00000KTS 4000 HZ FEW120 14/03 Q1022 NOSIG=
0000011300
469
SATR31 UTAA 110600
METAR UTAA 110600Z 08002MPS 060V120 9999 BKN230 08/M07 Q1021
30CLRD70 NOSIG=
0000012100
470
SPBY31 UMMN 110600
SPECI UMII 110600Z 29006G09MPS 4900 -SHRASN  OVC007CB 01/00
Q0994 TEMPO 2000 BKN005=
0000084700
471
SAUR30 UKMS 110600
METAR UKBB 110600Z 29008G13MPS 9999 BKN024 05/01
         Q1006 88290060 TEMPO    27011G16MPS -SHRA
         SCT015CB=
METAR UKHH 110600Z 27008MPS 9999 SCT017CB OVC026
         04/01 Q1002  25290050 TEMPO 28011G17MPS 2100
         -SHRA=
METAR UKOO 110600Z 26004MPS CAVOK 01/M02 Q1018
         34190058 NOSIG=
METAR UKDE 110600Z 28007MPS CAVOK 03/01 Q1010
         20290356 NOSIG=
METAR UKDD 110600Z 28009MPS CAVOK 02/01 Q1008
         26210358  TEMPO 29010G17MPS=
METAR UKFF 110600Z 24005MPS CAVOK 03/01 Q1019
         19010070 NOSIG=
METAR UKLL 110600Z 26006MPS 9999 BKN046 04/M03 Q1015
         31CLRD80 NOSIG=
METAR UKCC 110600Z 26008MPS 9999 OVC010 03/02 Q1007
         26290055 TEMPO 28012G17MPS=
METAR UKDR 110600Z 26008MPS CAVOK 02/M00 Q1011
         1819//60 NOSIG=
0000009700
472
SAAJ31 UBBB 110600
METAR UBBB 110600Z 18016KT CAVOK 05/02 Q1015 88CLRD70
NOSIG=
0000070200
473
SAIR31 OIII 110600
METAR OIAW 110600Z 11010KT 7000 FEW030CB SCT035 OVC090 12/10 Q1019=
METAR OIFM 110600Z 00000KT 0500 FG SCT040 BKN100 M02/M03 Q1021
      A3017=
METAR OIII 110600Z 23006KT 8000 FEW040 SCT100 BKN200 03/M06 Q1022
 A3019 TEMPO FEW035CB SCT030 BKN100=
METAR OIKB 110600Z 07004KT 7000 RA FEW025CB SCT030 OVC080 13/09
Q1022 A3020 NOSIG=
METAR OIKK 110600Z NIL=
METAR OIMM 110600Z 08006KT 9999 FEW035 SCT180 05/M11 Q1022 A3020=
METAR OISS 110600Z 00000KT 2500 BR FEW030CB FEW035 OVC080 01/00
Q1024 A3025=
METAR OITT 110600Z 07006KT 6000 FEW035 BKN180 M09/M13 Q1023 A3021=
METAR OIZH 110600Z 17006KT 9999 FEW035 BKN200 03/M03 Q1024 A3026
      NOSIG=
0000064200
474
SAIR32 OIII 110600
METAR OIAA 110600Z 17004KT 2500 BR  FEW035CB FEW040
BKN090 14/13 Q1019=
METAR OIBK 110600Z 08018KT 5000 -RA FEW030CB SCT025 OVC080 13/10
Q1021=
METAR OICC 110600Z 09008KT 6000 FEW035CB SCT040 OVC070
 M01/M02 Q1020 A3012 RESN TEMPO SN=
METAR OIGG 110600Z 00000KT 2500 BR FEW015CB BKN025
BKN090 05/04 Q1018=
METAR OIIE 110600Z 29008KT 8000 FEW040 SCT100 BKN180 02/M05
Q1023 A3022 NOSIG=
METAR OITR 110600Z 26004KT 2000 HZ SCT035 BKN160 M09/M13 Q1022
NOSIG=
METAR OIYY 110600Z 12004KT 7000 FEW025CB FEW035 BKN100 03/M03
      Q1023=
METAR OAKN 110600Z NIL=
METAR OAKB 110600Z NIL=
0000052900
475
SAIR33 OIII 110600
METAR OIBB 110600Z 15010KT RA 9999 FEW030CB SCT040 OVC090 16/06 Q1019
A3010=
METAR OIBP 110600Z 03004KT 8000 SCT025 OVC090 13/11
Q1021 A3016=
METAR OICK 110600Z NIL=
METAR OICS 110600Z 19004KT 4000 BR FEW025 SCT035 BKN080 M03/M04
Q1021=
METAR OIHH 110600Z 00000KT 2000 BR BKN035 BKN090 M08/M10
Q1021=
METAR OINZ 110600Z 00000KT CAVOK 08/04 Q1018=
METAR OISR 110600Z 18004KT 7000 FEW030CB SCT035 OVC080 10/08
Q1024  RERA=
METAR OITL 110600Z NIL=
METAR OIZC 110600Z NIL=
0000061600
476
SAIR34 OIII 110600
METAR OIAG 110600Z NIL=
METAR OIAM 110600Z  09012KT 8000 SCT010 SCT030CB OVC080 12/11
 Q1019=
METAR OICI 110600Z 13008KT 9999 SCT035 BKN090 04/03 Q1018 A3006=
METAR OIKQ 110600Z  06006KT 8000 -RA FEW025CB SCT030 SCT090 13/07
 Q1023=
METAR OINN 110600Z VRB02KT CAVOK 11/06 Q1018=
METAR OINR 110600Z 00000KT 9999 SCT040 BKN170 08/05 Q1017=
METAR OISL 110600Z  00000KT 9999 FEW035CB SCT040 OVC090 09/03
 Q1023=
METAR OISY 110600Z  00000KT 1000 -SN FEW030CB SCT035 OVC080 M00/M01
 Q1022=
METAR OITZ 110600Z  14018KT 9000 FEW030CB SCT035 OVC090 M02/M04
 Q1018=
0000048100
477
SAIR35 OIII 110600
METAR OIAD 110600Z NIL=
METAR OIBJ 110600Z 09006KT 8000 BKN035 OVC090 09/08 Q1023 RERA=
METAR OIBS 110600Z 08024KT 9999 SCT035 OVC100 21/13 Q1022=
METAR OIHR 110600Z NIL=
METAR OIKM 110600Z NIL=
METAR OIKR 110600Z 16006KT 9999 FEW040 BKN100 02/M03 Q1022 A3020=
METAR OING 110600Z  04004KT 3000 BR FEW030 SCT100 BKN200 07/06
 Q1020=
METAR OIZB 110600Z 11004KT 7000 NSC 05/M01 Q1027=
METAR OIZI 110600Z 08006KT CAVOK 13/M03 Q1025=
0000053500
478
SAIR36 OIII 110600
METAR OIBA 110600Z  06010KT 4000 SA FEW025CB FEW030CB OVC100 21/12
 Q1021=
METAR OIBV 110600Z NIL=
METAR OIFS 110600Z 00000KT 0800 SN BR FEW030CB SCT035 OVC080
 M07/M08 Q1020=
METAR OIIP 110600Z 32008KT 5000 HZ SCT035 BKN090 M02/M07 Q1022=
METAR OIMB 110600Z 08008KT 9999 FEW040 SCT090 OVC190 04/M12 Q1023=
METAR OIMN 110600Z 00000KT CAVOK M01/M06 Q1022 A3018=
METAR OIMS 110600Z NIL=
METAR OIMT 110600Z NIL=
METAR OIZJ 110600Z  03006KT 9999 FEW025CB SCT030 BKN090 17/04
 Q1023=
0000045900
479
SAIR37 OIII 110600
METAR OIBL 110600Z 06010KT 4000 -RA SCT025 OVC080 14/08 Q1022=
METAR OIBQ 110600Z  12014KT 9999 FEW025CB SCT040 OVC090 15/13 Q1020
 RERA=
METAR OIIK 110600Z 09008KT 4000 HZ FEW035 OVC090 M01/M05 Q1023=
METAR OIMC 110600Z NIL=
METAR OIMD 110600Z NIL=
METAR OIMQ 110600Z NIL=
METAR OINE 110600Z 00000KT 0150 FG NSC 02/02 Q1018=
METAR OITK 110600Z NIL=
METAR OITM 110600Z 00000KT 1000 BR OVC011 M07/M08 Q1022=
0000024000
480
SAJD20 OJAI 110600
METAR OJAI 110600Z 29007KT 3500 -RA SCT025 BKN030 08/08 Q1023 NOSIG=
METAR OJAM 110600Z 35003KT 0900 FG BKN015 BKN040 07/07 Q1023 NOSIG=
METAR OJAQ 110600Z 00000KT 9999 BKN030 BKN035 11/09 Q1024 NOSIG=
0000024000
481
SAJD20 OJAM 110600
METAR OJAI 110600Z 29007KT 3500 -RA SCT025 BKN030 08/08 Q1023 NOSIG=
METAR OJAM 110600Z 35003KT 0900 FG BKN015 BKN040 07/07 Q1023 NOSIG=
METAR OJAQ 110600Z 00000KT 9999 BKN030 BKN035 11/09 Q1024 NOSIG=
0000333300
482
SAIR31 OIII 110600
 METAR OIAA 110600Z 17004KT 2500 BR FEW035CB FEW040 OVC090 14/13
 Q1019=
METAR OIAG NIL=
 METAR OIAH 110600Z 13006KT 4000 RA FEW035CB SCT040 OVC070 09/06
 Q1020=
METAR OIAI NIL=
 METAR OIAM 110600Z 09012KT 8000 SCT010 SCT030CB OVC080 12/11
 Q1019=
 METAR OIAW 110600Z 11010KT 7000 FEW030CB SCT035 OVC090 12/10
 Q1019=
 METAR OIBA 110550Z 06010KT 4000 SA FEW025CB FEW030CB OVC100 21/12
 Q1021=
 METAR OIBB 110550Z 15010KT 9999 FEW030CB SCT040 OVC090 16/06 Q1019
 A3010 RERA=
 METAR OIBK 110550Z 08018KT 5000 -RA FEW030CB SCT025 OVC080 13/10
 Q1021=
METAR OIBL 110600Z 06010KT 4000 -RA SCT025 OVC080 14/08 Q1022=
METAR OIBS 110600Z 08024KT 9999 SCT035 OVC100 21/13 Q1022=
 METAR OICC 110600Z 09008KT 6000 FEW035CB SCT040 OVC070 M01/M02
 Q1020 A3012 RESN TEMPO SN=
METAR OICI 110600Z 13008KT 9999 SCT035 BKN090 04/03 Q1018 A3006=
METAR OICJ NIL=
 METAR OICK 110550Z 13004KT 9999 FEW010 FEW035CB SCT040 OVC080
 03/02 Q1020=
 METAR OICS 110600Z 19002KT 4000 BR FEW020 SCT035 BKN080 M03/M04
 Q1021=
METAR OIFK NIL=
 METAR OIFM 110600Z 00000KT 0500 FG SCT040 BKN100 M02/M03 Q1021
 A3017=
 METAR OIFS 110600 00000KT 0800 SN BR FEW030CB SCT035 OVC080
 M07/M08 Q1020=
 METAR OIGG 110600Z 00000KT 2500 BR FEW015CB BKN025 BKN090 05/04
 Q1018=
METAR OIGK NIL=
METAR OIHH 110600Z 00000KT 2000 BR BKN035 BKN090 M08/M10 Q1021=
METAR OIHM NIL=
 METAR OIIE 110600Z 29008KT 8000 FEW040 SCT100 BKN180 02/M05 Q1023
 A3022 NOSIG=
 METAR OIII 110600Z 23006KT 8000 FEW040 SCT100 BKN200 03/M06 Q1022
 A3019 TEMPO FEW035CB SCT030 BKN100=
METAR OIIK 110552Z 09008KT 4000 HZ FEW035 OVC090 M01/M05 Q1023=
METAR OIIP 110600Z 32008KT 5000 HZ SCT035 BKN090 M02/M07 Q1022=
METAR OIIS NIL=
 METAR OIKB 110550Z 07004KT 7000 RA FEW025CB SCT030 OVC080 13/09
 Q1022 A3020 NOSIG=
METAR OIKK 110600Z 30004KT 9999 FEW035 BKN100 M02/M07 Q1023 A3022=
METAR OIKO NIL=
 METAR OIKQ 110550Z 06006KT 8000 -RA FEW025CB SCT030 SCT090 13/07
 Q1023=
METAR OIMB 110600Z 08008KT 9999 FEW040 SCT090 OVC190 04/M12 Q1023=
METAR OIMC NIL=
METAR OIMD NIL=
METAR OIMM 110550Z 08006KT 9999 FEW035 SCT180 05/M11 Q1022 A3020=
METAR OINB NIL=
 METAR OING 110600Z 04004KT 3000 BR FEW030 SCT100 BKN200 07/06
 Q1020=
METAR OINK NIL=
METAR OINN 110600Z VRB02KT CAVOK 11/06 Q1018=
METAR OINR 110600Z 00000KT 9999 SCT040 BKN170 08/05 Q1017=
METAR OISA NIL=
 METAR OISF 110550Z 00000KT 9999 FEW035CB SCT040 OVC090 07/03
 Q1021=
 METAR OISL 110550Z 00000KT 9999 FEW035CB SCT040 OVC090 09/03
 Q1023=
 METAR OISS 110550Z 00000KT 2500 BR FEW030CB FEW035 OVC080 01/00
 Q1024 A3025=
 METAR OISY 110600Z 00000KT 1000 -SN FEW030CB SCT035 OVC080 M00/M01
 Q1022=
 METAR OITL 110550Z 29010KT 9999 FEW030 SCT090 BKN180 M12/M14
 Q1017=
 METAR OITR 110550Z 26004KT 2000 HZ SCT035 BKN160 M09/M13 Q1022
 NOSIG=
METAR OITT 110550Z 07006KT 6000 FEW035 BKN180 M09/M13 Q1023 A3021=
METAR OITU NIL=
 METAR OIYY 110600Z 12004KT 7000 FEW025CB FEW035 BKN100 03/M03
 Q1023=
METAR OIZB 110600Z 11004KT 7000 NSC 05/M01 Q1027=
METAR OIZC NIL=
 METAR OIZH 110600Z 17006KT 9999 FEW035 BKN200 03/M03 Q1024 A3026
 NOSIG=
METAR OIZI 110600Z 08006KT CAVOK 13/M03 Q1025=
 METAR OIZJ 110550Z 03006KT 9999 FEW025CB SCT030 BKN090 17/04
 Q1023=
0000344000
483
SAIR77 OIII 110600
METAR AZUH NIL=
METAR KHME 110550Z AUTO 08008KT //// // ////// 04/M08 Q1007=
 METAR OIAA 110600Z 17004KT 2500 BR FEW035CB FEW040 OVC090 14/13
 Q1019=
METAR OIAG NIL=
 METAR OIAH 110600Z 13006KT 4000 RA FEW035CB SCT040 OVC070 09/06
 Q1020=
METAR OIAI NIL=
 METAR OIAM 110600Z 09012KT 8000 SCT010 SCT030CB OVC080 12/11
 Q1019=
 METAR OIAW 110600Z 11010KT 7000 FEW030CB SCT035 OVC090 12/10
 Q1019=
 METAR OIBA 110550Z 06010KT 4000 SA FEW025CB FEW030CB OVC100 21/12
 Q1021=
 METAR OIBB 110550Z 15010KT 9999 FEW030CB SCT040 OVC090 16/06 Q1019
 A3010 RERA=
 METAR OIBK 110550Z 08018KT 5000 -RA FEW030CB SCT025 OVC080 13/10
 Q1021=
METAR OIBL 110600Z 06010KT 4000 -RA SCT025 OVC080 14/08 Q1022=
METAR OIBS 110600Z 08024KT 9999 SCT035 OVC100 21/13 Q1022=
 METAR OICC 110600Z 09008KT 6000 FEW035CB SCT040 OVC070 M01/M02
 Q1020 A3012 RESN TEMPO SN=
METAR OICI 110600Z 13008KT 9999 SCT035 BKN090 04/03 Q1018 A3006=
METAR OICJ NIL=
 METAR OICK 110550Z 13004KT 9999 FEW010 FEW035CB SCT040 OVC080
 03/02 Q1020=
 METAR OICS 110600Z 19002KT 4000 BR FEW020 SCT035 BKN080 M03/M04
 Q1021=
METAR OIFK NIL=
 METAR OIFM 110600Z 00000KT 0500 FG SCT040 BKN100 M02/M03 Q1021
 A3017=
 METAR OIFS 110600 00000KT 0800 SN BR FEW030CB SCT035 OVC080
 M07/M08 Q1020=
 METAR OIGG 110600Z 00000KT 2500 BR FEW015CB BKN025 BKN090 05/04
 Q1018=
METAR OIGK NIL=
METAR OIHM NIL=
 METAR OIIE 110600Z 29008KT 8000 FEW040 SCT100 BKN180 02/M05 Q1023
 A3022 NOSIG=
 METAR OIII 110600Z 23006KT 8000 FEW040 SCT100 BKN200 03/M06 Q1022
 A3019 TEMPO FEW035CB SCT030 BKN100=
METAR OIIK 110552Z 09008KT 4000 HZ FEW035 OVC090 M01/M05 Q1023=
METAR OIIP 110600Z 32008KT 5000 HZ SCT035 BKN090 M02/M07 Q1022=
METAR OIIS NIL=
 METAR OIKB 110550Z 07004KT 7000 RA FEW025CB SCT030 OVC080 13/09
 Q1022 A3020 NOSIG=
METAR OIKK 110600Z 30004KT 9999 FEW035 BKN100 M02/M07 Q1023 A3022=
METAR OIKO NIL=
 METAR OIKQ 110550Z 06006KT 8000 -RA FEW025CB SCT030 SCT090 13/07
 Q1023=
METAR OIMB 110600Z 08008KT 9999 FEW040 SCT090 OVC190 04/M12 Q1023=
METAR OIMC NIL=
METAR OIMD NIL=
METAR OIMM 110550Z 08006KT 9999 FEW035 SCT180 05/M11 Q1022 A3020=
METAR OIMN 110600Z 00000KT CAVOK M01/M06 Q1022 A3018=
METAR OINB NIL=
 METAR OING 110600Z 04004KT 3000 BR FEW030 SCT100 BKN200 07/06
 Q1020=
METAR OINK NIL=
METAR OINN 110600Z VRB02KT CAVOK 11/06 Q1018=
METAR OINR 110600Z 00000KT 9999 SCT040 BKN170 08/05 Q1017=
METAR OISA NIL=
 METAR OISF 110550Z 00000KT 9999 FEW035CB SCT040 OVC090 07/03
 Q1021=
 METAR OISL 110550Z 00000KT 9999 FEW035CB SCT040 OVC090 09/03
 Q1023=
 METAR OISS 110550Z 00000KT 2500 BR FEW030CB FEW035 OVC080 01/00
 Q1024 A3025=
 METAR OISY 110600Z 00000KT 1000 -SN FEW030CB SCT035 OVC080 M00/M01
 Q1022=
 METAR OITL 110550Z 29010KT 9999 FEW030 SCT090 BKN180 M12/M14
 Q1017=
 METAR OITR 110550Z 26004KT 2000 HZ SCT035 BKN160 M09/M13 Q1022
 NOSIG=
METAR OITT 110550Z 07006KT 6000 FEW035 BKN180 M09/M13 Q1023 A3021=
METAR OITU NIL=
 METAR OIYY 110600Z 12004KT 7000 FEW025CB FEW035 BKN100 03/M03
 Q1023=
METAR OIZB 110600Z 11004KT 7000 NSC 05/M01 Q1027=
METAR OIZC NIL=
 METAR OIZH 110600Z 17006KT 9999 FEW035 BKN200 03/M03 Q1024 A3026
 NOSIG=
METAR OIZI 110600Z 08006KT CAVOK 13/M03 Q1025=
 METAR OIZJ 110550Z 03006KT 9999 FEW025CB SCT030 BKN090 17/04
 Q1023=
METAR SESG NIL=
METAR YAYT NIL=
0000333000
484
SAIR78 OIII 110600
METAR AZUH NIL=
METAR KHME 110550Z AUTO 08008KT //// // ////// 04/M08 Q1007=
 METAR OIAA 110600Z 17004KT 2500 BR FEW035CB FEW040 OVC090 14/13
 Q1019=
METAR OIAG NIL=
 METAR OIAH 110600Z 13006KT 4000 RA FEW035CB SCT040 OVC070 09/06
 Q1020=
METAR OIAI NIL=
 METAR OIAM 110600Z 09012KT 8000 SCT010 SCT030CB OVC080 12/11
 Q1019=
 METAR OIAW 110600Z 11010KT 7000 FEW030CB SCT035 OVC090 12/10
 Q1019=
 METAR OIBA 110550Z 06010KT 4000 SA FEW025CB FEW030CB OVC100 21/12
 Q1021=
 METAR OIBB 110550Z 15010KT 9999 FEW030CB SCT040 OVC090 16/06 Q1019
 A3010 RERA=
 METAR OIBK 110550Z 08018KT 5000 -RA FEW030CB SCT025 OVC080 13/10
 Q1021=
METAR OIBL 110600Z 06010KT 4000 -RA SCT025 OVC080 14/08 Q1022=
METAR OIBS 110600Z 08024KT 9999 SCT035 OVC100 21/13 Q1022=
 METAR OICC 110600Z 09008KT 6000 FEW035CB SCT040 OVC070 M01/M02
 Q1020 A3012 RESN TEMPO SN=
METAR OICI 110600Z 13008KT 9999 SCT035 BKN090 04/03 Q1018 A3006=
METAR OICJ NIL=
 METAR OICK 110550Z 13004KT 9999 FEW010 FEW035CB SCT040 OVC080
 03/02 Q1020=
 METAR OICS 110600Z 19002KT 4000 BR FEW020 SCT035 BKN080 M03/M04
 Q1021=
METAR OIFK NIL=
 METAR OIFM 110600Z 00000KT 0500 FG SCT040 BKN100 M02/M03 Q1021
 A3017=
 METAR OIFS 110600 00000KT 0800 SN BR FEW030CB SCT035 OVC080
 M07/M08 Q1020=
 METAR OIGG 110600Z 00000KT 2500 BR FEW015CB BKN025 BKN090 05/04
 Q1018=
METAR OIGK NIL=
METAR OIHH 110600Z 00000KT 2000 BR BKN035 BKN090 M08/M10 Q1021=
METAR OIHM NIL=
 METAR OIIE 110600Z 29008KT 8000 FEW040 SCT100 BKN180 02/M05 Q1023
 A3022 NOSIG=
 METAR OIII 110600Z 23006KT 8000 FEW040 SCT100 BKN200 03/M06 Q1022
 A3019 TEMPO FEW035CB SCT030 BKN100=
METAR OIIK 110552Z 09008KT 4000 HZ FEW035 OVC090 M01/M05 Q1023=
METAR OIIS NIL=
 METAR OIKB 110550Z 07004KT 7000 RA FEW025CB SCT030 OVC080 13/09
 Q1022 A3020 NOSIG=
METAR OIKK 110600Z 30004KT 9999 FEW035 BKN100 M02/M07 Q1023 A3022=
METAR OIKO NIL=
 METAR OIKQ 110550Z 06006KT 8000 -RA FEW025CB SCT030 SCT090 13/07
 Q1023=
METAR OIMB 110600Z 08008KT 9999 FEW040 SCT090 OVC190 04/M12 Q1023=
METAR OIMC NIL=
METAR OIMD NIL=
METAR OIMM 110550Z 08006KT 9999 FEW035 SCT180 05/M11 Q1022 A3020=
METAR OIMN 110600Z 00000KT CAVOK M01/M06 Q1022 A3018=
METAR OINB NIL=
 METAR OING 110600Z 04004KT 3000 BR FEW030 SCT100 BKN200 07/06
 Q1020=
METAR OINN 110600Z VRB02KT CAVOK 11/06 Q1018=
METAR OINR 110600Z 00000KT 9999 SCT040 BKN170 08/05 Q1017=
METAR OISA NIL=
 METAR OISF 110550Z 00000KT 9999 FEW035CB SCT040 OVC090 07/03
 Q1021=
 METAR OISL 110550Z 00000KT 9999 FEW035CB SCT040 OVC090 09/03
 Q1023=
 METAR OISS 110550Z 00000KT 2500 BR FEW030CB FEW035 OVC080 01/00
 Q1024 A3025=
 METAR OISY 110600Z 00000KT 1000 -SN FEW030CB SCT035 OVC080 M00/M01
 Q1022=
 METAR OITR 110550Z 26004KT 2000 HZ SCT035 BKN160 M09/M13 Q1022
 NOSIG=
METAR OITT 110550Z 07006KT 6000 FEW035 BKN180 M09/M13 Q1023 A3021=
METAR OITU NIL=
 METAR OIYY 110600Z 12004KT 7000 FEW025CB FEW035 BKN100 03/M03
 Q1023=
METAR OIZB 110600Z 11004KT 7000 NSC 05/M01 Q1027=
METAR OIZC NIL=
 METAR OIZH 110600Z 17006KT 9999 FEW035 BKN200 03/M03 Q1024 A3026
 NOSIG=
METAR OIZI 110600Z 08006KT CAVOK 13/M03 Q1025=
 METAR OIZJ 110550Z 03006KT 9999 FEW025CB SCT030 BKN090 17/04
 Q1023=
METAR YAYT NIL=
0000009700
485
SAPK31 OPKC 110600 RRB
METAR OPKC 110555Z 04007KT 7000 SCT200 19/M06 Q1023 NOSIG=
00000000