0000099600
733
SAAU31 AMMC 111000
METAR YBAS 111000Z AUTO 13009KT 9999 // NCD 36/03 Q1011=
METAR YBBN 111000Z 07008KT 9999 FEW023 SCT035 24/19 Q1016
     NOSIG=
METAR YBCS 111000Z 19010KT 8000 -SHRA FEW020 BKN035 26/23 Q1010
     INTER 1000/1300 VRB15G25KT 4000 SHRA FEW008 BKN020=
METAR YBTL 111000Z 10012KT 9999 FEW025 SCT090 BKN140 28/22 Q1011=
METAR YMML 111000Z 19011KT 9999 BKN017 16/12 Q1021
     FM1030 19009KT 9000 -DZ HZ BKN014=
METAR YPAD 111000Z 14011KT 9999 FEW030 20/10 Q1019
     FM1000 MOD TURB BLW 3000FT=
METAR YPCC 111000Z 14012KT 9999 FEW026 SCT036 29/22 Q1008=
METAR YPDN 111000Z 24008KT 9999 FEW025 OVC350 29/25 Q1005
     NOSIG=
METAR YPKU 111000Z AUTO 02005KT 9999 // NCD 29/24 Q1005=
METAR YPLM 111000Z AUTO 29013KT 9999 // NCD 37/17 Q1006=
METAR YPPH 111000Z 11011KT CAVOK 42/03 Q1008
     NOSIG=
METAR YPTN 111003Z AUTO 07007KT 8000 // SCT089 28/23 Q1007=
METAR YPXM NIL=
METAR YSSY 111000Z 03013KT CAVOK 24/19 Q1015
     NOSIG=
0000003800
734
SNVA21 AMMC 111000
NIL
0000003800
735
SNVB21 AMMC 111000
NIL
0000003800
736
SNVC21 AMMC 111000
NIL
0000014400
737
SMVF51 EGRR 110600
BBXX
62304 11064 99512 10018 46/96 /1819 10073 20063 40139 57008 22200
00101 10501 70004 333 90710 91129=
0000014400
738
SMVF51 EGRR 110600
BBXX
62103 11064 99499 70029 46/// /3422 10093 20049 40167 53022 22200
00112 10702 70011 333 90710 91126=
0000012800
739
SMVF51 EGRR 110600
BBXX
62305 11064 99504 70000 46/// /23// 10096 20075 40151 55002 22200
00109 10601 70006=
0000191300
740
SZAU01 AMMC 110603
CREX++
T000103 A001 D01021 D06025++
-1927750 14705860 59260 2014 01 11 05 56 3030 11 07 00 01
01941 0210 01947 0210 01954 0211 01961 0213 01973 0219 01978 0218+
-2316110 15079000 59670 2014 01 11 05 56 3002 11 07 00 01
02694 0096 02703 0095 02710 0094 02725 0098 02729 0093 02745 0099+
-3447330 15091170 60420 2014 01 11 05 56 2952 11 07 00 01
01026 -0020 01033 -0015 01035 -0015 01041 -0010 01045 -0008 01044 -0010+
-4105000 14591500 60910 2014 01 11 05 56 2893 11 07 00 01
01279 -0019 01288 -0020 01303 -0016 01312 -0017 01320 -0019 01328 -0022+
-4254640 14793080 61170 2014 01 11 05 56 2895 11 07 00 01
01231 0059 01235 0062 01237 0063 01233 0058 01235 0058 01242 0064+
-3834390 14161360 61410 2014 01 11 05 56 2905 11 07 00 01
00398 0019 00460 0080 00383 0002 00382 0000 00397 0014 00420 0036+
-3214890 13364170 62000 2014 01 11 05 56 2963 11 07 00 01
01081 0175 01081 0172 01085 0173 01089 0174 01094 0177 01094 0174+
-3387080 12189720 62080 2014 01 11 05 56 2948 11 07 00 01
00796 0104 00785 0093 00778 0085 00797 0104 00807 0113 00790 0096+
-3182560 11573860 62237 2014 01 11 05 56 2970 11 07 00 01
00867 0102 00867 0101 00864 0097 00861 0093 00859 0090 00862 0092+
-2422000 11339750 62385 2014 01 11 05 56 //// 11 07 00 01
01155 -0048 01106 -0099 01125 -0082 01089 -0119 01124 -0086 01142 -0070+
-2181670 11419110 62430 2014 01 11 05 56 //// 11 07 00 01
01677 -0044 01694 -0029 01698 -0028 01692 -0036 01702 -0028 01708 -0024+
-1800080 12221830 62650 2014 01 11 05 56 3043 11 07 00 01
05110 0165 05115 0162 05121 0161 05127 0161 05133 0156 05139 0157+
-1247190 13084580 63230 2014 01 11 05 56 3050 11 07 00 01
05552 0123 05552 0126 05549 0123 05553 0128 05554 0131 05555 0132+
-1386000 13641580 63511 2014 01 11 05 56 3045 11 07 00 01
01501 0063 01504 0064 01506 0065 01509 0066 01512 0068 01514 0069++
7777

0000034100
741
SZIO01 AMMC 110603
CREX++
T000103 A001 D01021 D06025++
-1211670 09689190 46280 2014 01 11 05 56 3013 11 07 00 01
01225 0055 01222 0050 01224 0051 01234 0059 01235 0058 01233 0055+
-1042940 10566940 46290 2014 01 11 05 56 //// 11 07 00 01
01211 0050 ///// //// ///// //// 01216 0048 01189 0019 01277 0104++
7777

0000179400
742
SZPS01 AMMC 110603
CREX++
T000103 A001 D01021 D06025++
-0204190 14737360 56130 2014 01 11 05 56 3028 11 07 00 01
01121 0079 01118 0077 01115 0075 01116 0077 01113 0075 01108 0071+
-0669280 15640860 56363 2014 01 11 05 56 //// 11 07 00 01
00717 -0091 00713 -0093 00712 -0091 00707 -0094 00706 -0092 00705 -0091+
-0942890 15995560 56670 2014 01 11 05 56 3043 11 07 00 01
00837 -0047 00835 -0049 00829 -0053 00827 -0054 00829 -0051 00827 -0052+
-1072080 16580190 57131 2014 01 11 05 56 //// 11 07 00 01
03378 2639 03381 2646 03381 2649 03381 2652 03381 2656 03381 2659+
-1551560 16718860 57210 2014 01 11 05 56 //// 11 07 00 01
00972 -0070 00955 -0083 00970 -0064 00957 -0073 00960 -0067 00945 -0078+
-1775690 16830030 57320 2014 01 11 05 56 3015 11 07 00 01
01059 -0048 01053 -0050 01049 -0051 01041 -0056 01032 -0062 01025 -0066+
-4397330 16861610 65180 2014 01 11 05 56 2888 11 07 00 01
02054 0335 02069 0345 02076 0348 02078 0344 02100 0362 02106 0364+
-2120470 -15978530 65980 2014 01 11 05 56 3013 11 07 00 01
00669 -0031 00706 0008 00713 0016 00738 0043 00691 -0002 00685 -0006+
-2113810 -17518140 66600 2014 01 11 05 56 //// 11 07 00 01
01254 0101 01244 0095 01239 0094 01240 0099 01237 0101 01227 0095+
-1382670 -17176110 66840 2014 01 11 05 56 3012 11 07 00 01
00779 0043 00782 0049 00775 0045 00775 0048 00779 0055 00769 0048+
-1813250 17842750 67050 2014 01 11 05 56 3032 11 07 00 01
01438 0098 01440 0104 01437 0105 01421 0095 01422 0100 01417 0100+
-1760530 17743810 67070 2014 01 11 05 56 3033 11 07 00 01
01476 0019 01470 0019 01466 0020 01462 0022 01457 0022 ///// ////+
-0850250 17919500 67440 2014 01 11 05 56 3030 11 07 00 01
01980 -0005 01980 -0001 01975 -0002 01968 -0005 01973 0004 01968 0004++
7777

0000016300
743
SMIN90 VEAT 110600
AAXX 11064
42724 31995 03602 10240 20130 40164 70544
  333 59009=
42618 31996 03204 10224 20150 40169 70540
  333 59008=
0000009800
744
SMIN90 VIHS 110600
AAXX 11064
42131 32996 02702 10154 20064 40208
  333 58025=
0000010400
745
SMIN90 VICH 110600
AAXX 11064
42099 31994 03402 10148 20051 40202 70540
  333 58014=
0000011600
746
SMIN90 VICH 110600
AAXX 11064
42103 31995 30000 10150 20068 40200 70511 83030
  333 58014 83360=
0000013400
747
SMIN90 VOMM 110600
AAXX 11064
43128 31496 61603 10246 20198 39547 40152 70522 84530
  333 56390 59005 84615 85360=
0000011600
748
SMIN90 VOBZ 110600
AAXX 11064
43181 31596 41103 10292 20190 30135 40162 70511 84800
  333 58008=
0000009900
749
SAIN90 VOVZ 110600
METAR VOVZ 110600Z 13005KT 4500 HZ SCT018 28/21 Q1016 NOSIG =

0000047400
750
SZPA01 AMMC 110603
CREX++
T000103 A001 D01021 D06025++
0136250 17293000 67590 2014 01 11 05 56 3015 11 07 00 01
01554 -0010 01539 -0021 01552 -0005 01542 -0011 01537 -0013 01537 -0009+
0710610 17137250 67680 2014 01 11 05 56 3013 11 07 00 01
01016 0104 01022 0113 01017 0111 01008 0104 01005 0104 01014 0116+
0698060 15820000 67950 2014 01 11 05 56 3023 11 07 00 01
00782 0004 00782 0006 00781 0007 00774 0002 00771 0001 00764 -0004++
7777

0000013900
751
SMJM01 MKJP 110600
AAXX 11064
78397 11570 13603 10245 20211 30156 40158 60001 70500 81801
3333 10322 20234 59008 81824=
0000010100
752
UGBD20 WBSB 110600
PPBB  61061 96315 90/12 31008 35012 36004 90378 02505 33502 27005=
00000000