0000009800
573
SPUS41 KWBC 102028
SPECI
KAGC 102024Z 15008KT 10SM SCT008 OVC043 08/06 A3013=

0000009100
574
SPUS43 KWBC 102028
SPECI
KLEX 102024Z 15008KT 10SM BKN014 12/08 A3001=

0000067100
575
SAMS31 WMKK 111000
METAR WBGG 111000Z 36006KT 300V050 9999 FEW020 BKN300 28/22 Q1009
NOSIG=
METAR WBKK 111000Z 09001KT 9999 FEW014 SCT130 OVC260 27/24 Q1010 
NOSIG=
METAR WBSB 111000Z 20011KT 2000 +SHRA FEW003 FEW015CB SCT018 BKN140
25/25 Q1011 TEMPO 1000 +SHRA=
METAR WMKK 111000Z 27008KT 220V320 9999 FEW017CB SCT140 BKN280 31/25 
Q1008 NOSIG=
METAR WMKP 111000Z 04009KT 9999 FEW020 BKN140 BKN270 28/24 Q1009 
NOSIG=
METAR WSSL 111000Z 01009KT 8000 VCTS FEW012 SCT015TCU FEW017CB 28/26 
Q1009=
METAR WSSS 111000Z 04009KT 350V070 9999 VCTS FEW012 FEW015CB 
FEW017TCU SCT150 27/24 Q1010 WS R02C TEMPO TL1030 VRB10G25KT 4000 
TSRA BECMG FM1040 TL1100 NSW=

0000019600
576
SAIN32 VIDP 110500
METAR VIDP 110500Z 27008KT 0700 R28/1000 R29/1000 MIFG NSC 10/07
      Q1019 BECMG 0800=
METAR VILK 110500Z 30007KT 0700 R27/1000 FG VV/// 14/12 Q1018 NOSIG=
0000012200
577
SPUS43 KWBC 102028
SPECI
KPIA 102024Z 17015G22KT 1 3/4SM R13/4500VP6000FT RA BR OVC005
03/02 A2970=

0000009700
578
SPCN44 CWAO 102028
SPECI CYMJ 102028Z 00000KT 2SM BR SCT006 OVC090 RMK SC3AC5=

0000063900
579
SAGR31 LGAT 102020
METAR LGAD 102020Z NIL=
METAR LGAV 102020Z VRB02KT CAVOK 10/07 Q1019 NOSIG=
METAR LGIR 102020Z 17009KT CAVOK 12/09 Q1021 NOSIG=
METAR LGKL 102020Z AUTO VRB03KT //// // ////// 09/08 Q1022
     RE//=
METAR LGKO 102020Z NIL=
METAR COR LGKR 102020Z 00000KT 9999 SCT018 SCT070 BKN180 11/10 Q1021
 NOSIG=
METAR LGLM 102020Z AUTO 01005KT 330V040 //// // //////
     11/09 Q1019 RE//=
METAR LGRP 102020Z 20003KT 9999 FEW018 13/10 Q1021 NOSIG=
METAR LGSA 102020Z 26012KT 9999 FEW020 14/10 Q1021=
METAR LGSM 102020Z NIL=
METAR LGTS 102020Z 00000KT 8000 FEW010 SCT080 06/05 Q1020 NOSIG=

0000025700
580
SADL36 EDZO 102020
METAR ETMN 102020Z 25011KT 9999 FEW011 BKN250 05/04 Q1012
      BLU+=
METAR ETNL 102020Z 25009KT 9999 SCT016 05/03 Q1011 RERA
      BLU+=
METAR ETSI 102020Z AUTO 14001KT 4100 // ////// M01/M01 Q1020
      ///=

0000055200
581
SAGR32 LGAT 102020
METAR LGAL 102020Z 34008KT 9999 FEW020 SCT200 08/06 Q1020=
METAR COR LGEL 102020Z 00000KT CAVOK 10/08 Q1019=
METAR LGIO 102020Z AUTO VRB01KT //// // ////// 06/05 Q1022
     RE//=
METAR LGKV 102020Z NIL=
METAR LGMT 102020Z /////KT 9999 BKN020 13/09 Q1020 RMK R32 14006KT=
METAR LGPZ 102020Z AUTO VRB03KT //// // ////// 11/10 Q1023
     RE//=
METAR LGRX 102020Z NIL=
METAR LGSK 102020Z NIL=
METAR LGSR 102020Z AUTO 25007KT 180V270 //// // //////
     15/10 Q1020 RE//=
METAR LGZA 102020Z NIL=

0000025500
582
SAPK31 OPKC 102030
METAR OPGD 102030Z NIL=
METAR OPKC 102030Z NIL=
METAR OPLA 102025Z 28004KT KT 4000 FU NSC 07/04 Q1018 A30.05=
METAR OPNH 102030Z NIL=
METAR OPPS 102030Z NIL=
METAR OPRN 102030Z NIL=
METAR OPSK 102030Z NIL=

0000079300
583
SANL33 EHDB 102025
METAR EHAK 102025Z AUTO 22024KT 9999 FEW007/// SCT009/// 07/06 Q1007=
METAR EHDV 102025Z AUTO 23019KT 9999 NSC 08/06 Q1009=
METAR EHFD 102025Z AUTO 24026KT 9999 FEW007/// SCT010/// 07/06 Q1008=
METAR EHFZ 102025Z AUTO 22022KT //// // ///////// 08/06 Q1010 RE//=
METAR EHJA 102025Z AUTO 22022KT 9999 NSC 08/06 Q1010=
METAR EHJR 102025Z NIL=
METAR EHKV 102025Z AUTO 23024KT 9999 FEW021/// 10/06 Q1012=
METAR EHMA 102025Z AUTO 22013KT 9999 FEW025/// 07/05 Q1012=
METAR EHMG 102025Z AUTO 23022KT 9999 FEW014/// 09/06 Q1011=
METAR EHPG 102025Z AUTO ///25KT 9999 FEW009/// SCT016/// BKN044///
09/07 Q1012=
METAR EHQE 102025Z AUTO 22021KT 9999 FEW018/// BKN038/// BKN043///
09/07 Q////=
METAR EHSA 102025Z NIL=
METAR EHSC 102025Z NIL=

0000009200
584
SPCN51 CWAO 102028
SPECI CWOB 102028Z AUTO 15002KT -SN OVC001 M19/ A2910=

0000044000
585
SAGR33 LGAT 102020
METAR LGBL 102020Z NIL=
METAR LGHI 102020Z NIL=
METAR LGKC 102020Z NIL=
METAR LGKF 102020Z AUTO VRB02KT //// // ////// 13/10 Q1022
     RE//=
METAR LGKP 102020Z NIL=
METAR LGKZ 102020Z AUTO VRB01KT //// // ////// 08/M02 Q1019
     RE//=
METAR LGMK 102020Z NIL=
METAR LGNX 102020Z NIL=
METAR LGPA 102020Z AUTO 18006KT //// // ////// 15/13 Q1019
     RE//=
METAR LGSO 102020Z NIL=

0000009300
586
SAGR31 LGAT 102020 RRA
METAR LGAD 102020Z 00000KT 9999 SCT020 10/08 Q1022=

0000026100
587
FTMX64 MMMX 102029 AMD
TAF AMD MMCE 102029Z 1020/1118 18005KT 6SM HZ SCT005 
         FM102200 14010KT 6SM HZ SCT010 
         FM110400 15005KT 6SM HZ SCT010 
         TEMPO 1112/1115 3SM BR SCT005 
         FM111800 14010KT P6SM SKC=

0000010500
588
SAID31 WIII 102030
METAR WIII 102030Z 00000KT 4000 BR FEW021 SCT100 25/23 Q1008 NOSIG=

0000009700
589
SPUS42 KWBC 102029
SPECI
KCHA 102025Z 34003KT 1 1/2SM BR OVC004 08/07 A3009=

0000009500
590
SANO34 ENMI 101950 RRY
METAR ENSH 101950Z 06019KT 9999 FEW035 M05/M13 Q1014=

0000044800
591
SAUR31 UKMS 102030
METAR UKLR NIL=
METAR UKLI 102030Z 24008MPS 9999 BKN040 06/M03 Q1013
         28090070 NOSIG=
METAR UKON NIL=
METAR UKCM NIL=
METAR UKCW 102030Z 22011MPS 9999 -DZ OVC007 05/04
         Q1005 2709//70 TEMPO 23010G18MPS 3100 BR
         OVC005=
METAR UKLU NIL=
METAR UKKK 102030Z 27008MPS 9999 FEW035 04/01 Q1003
         26290250  NOSIG=
METAR UKKM NIL=
METAR UKKE NIL=
METAR UKLN NIL=

0000009800
592
SANL33 EHDB 102025 RRA
METAR EHJR 102025Z AUTO 21027G32KT  09/07 Q1011 W10/H18=

00000000