0000157300
613
SMCN08 CWAO 110600
AAXX 11064
71893 NIL=
71894 45/// /1020 10085 39908 49916 56060 6///1
333 10085 20049 7//// 555 31039 4004/=
71896 17520 80503 11028 21032 39149 49976 58060 60001 771//
333 11001 21069 70020=
71897 11232 81425 10048 20042 3//// 4//// 57038 60081 76362 886XX   333
10062 20044 70168 90963=
71898 NIL=
71899 11466 81121 10032 20026 3//// 4//// 57072 60021 76162 887XX   333
10056 20028 70036 90942 555 31131 40051=
71902 NIL=
71905 NIL=
71906 12974 02007 11247 21286 30050 40103 53025 60001 333 11138 21247
70018 555 11018 20018 32730 40181=
71907 NIL=
71909 NIL=
71911 459// 02010 11329 39937 49996 53008 6///1
333 11324 21371 7//// 555 33022 40090=
71912 11424 80604 11216 21253 39843 40032 57004 60011 77177
885// 333 11149 21221 47021 70030 90983 93101 555 10032 20030=
71915 NIL=
71917 13974 80304 11202 21251 39874 49888 53001 60001 8807/
333 11160 21308 79999 555 19999 29999=
71922 11348 82813 11089 21108 39542 40012 52021 69941 77172 885//
333 11051 21089 48051 70024 90927 93100
555 10027 20024 32719 40060=
71924 11758 82108 11316 21347 39799 49891 52021 69941 77177
885// 333 11275 21318 48004 70004 90983 555 10004 20004 33328 40092=
71925 11466 31908 11276 21318 39897 49940 56015 69901 70271
83500 333 11272 21338 42014 79999 90923 555 19999 29999=
71926 11374 61408 11299 21329 30037 40062 58003 69901 7717/ 86500
333 11270 21335 48010 79999 90931
555 19999 29999 33030 40131=
71928 15/// /1204 11134 21151 38883 40066 58017 60001
333 11028 21174 70000=
0000013900
614
SSVX02 CWAO 110600
ZZYY 55086 11014 0600/ 334163 172143 6113/ 11119 
40185 57009 444 20130 11014 0600/ 50100 80142 80001=
0000156700
615
SMCN07 CWAO 110600
AAXX 11064
71864 NIL=
71865 15/// /2612 11071 21083 39344 40030 52013 60001
333 11057 21107 70010 555 32618 4006/=
71867 11374 82102 11080 21087 39656 49993 52004 69901 77122
887// 333 11080 21099 47031 70006 90942 555 10008 20006=
71868 15/// /2204 11101 21114 39558 40003 51012 60001
333 11051 21141 70002=
71869 13574 82606 11061 21082 39493 40022 51015 60001 885//
333 11061 21132 70004
555 10008 20004=
71871 469// 02811 11082 21101 39242 40058 53010 6///1
333 11036 21098
555 32718 4005/=
71877 13974 21908 11059 21083 38802 40079 57009 60001 81031
333 10022 21077 70000
555 10000 20000 32724 40151=
71878 11974 01904 11094 21101 38990 40078 58009 69901 70171 
333 11013 21168 47061 79999 90951 555 19999 29999=
71879 15964 02005 11077 21132 39242 40052 58005 60001
333 10002 21131 70000=
71880 11580 81905 10019 21017 38997 40106 58010 69901 70372 885//
333 10053 21093 47012 79999 90941
555 19999 29999 31817 40070=
71882 17/// /1405 10004 21001 39546 40082 56037 60021 7//4/
333 10015 21000 70046 555 31817 4007/=
71883 45/// /0000 11026 21029 39243 40064 58036 6///1
333 10021 21046 7//// 555 32417 4020/=
71887 13483 81014 10013 21009 39614 40034 57058 60001 8157/
333 10015 21030 79999
555 19999 29999 30921 40060=
71889 13774 81408 10022 21009 39645 40062 58048 60001 8257/
333 10033 20010 70000
555 10000 20000 31826 40151=
71892 11448 80815 10057 20047 30003 40009 57066 60181 76366 8572/
333 10079 20031 70188 90973
555 10000 20000 30825 40061=
0000163100
616
SMCN06 CWAO 110600
AAXX 11064
71816 12974 72520 11090 21162 30049 40112 53002 60001 86071 333
11089 21208 70000 555 10000 20000 32629 40141=
71818 11874 22108 11114 21128 30069 40088 50003 69901 70171
82030 333 11107 21225 48024 79999 90940 555 19999 29999 32129 40131=
71821 45/// /1708 11036 21039 39753 40104 58029 6///1
333 11034 21095 7//// 555 31923 4014/=
71822 NIL=
71825 11674 82408 11105 21141 39453 40143 52012 69901 77177 885//
333 11105 21233 48089 70018 90983
555 10038 20024 32221 40071=
71827 11156 51506 11057 21067 39822 40068 58014 69941 77155 85600
333 11053 21105 47016 70040 90983
555 10038 20038 32223 40181=
71828 NIL=
71831 12474 81308 11020 21037 39762 40042 58036 60001 885//
333 11019 21077 48074 79999 555 19999 29999 31823 40151=
71832 15/// /1706 11021 21029 39692 40016 58030 60001
333 10003 21066 70000 555 32123 4011/=
71834 11216 80000 11027 21030 39567 49993 58033 69901 77172
887// 333 11026 21061 44033 79999 90916 555 19999 29999 31821 40221=
71841 NIL=
71842 11559 81705 11063 21070 39503 49975 58013 69921 77177 885//
333 11063 21092 47042 70004 90983
555 10004 20004 32017 40070=
71844 NIL=
71845 NIL=
71850 11/06 /1903 11048 21055 39473 49973 55001 69901 75677
333 11048 21094 48047 70018 90983 93100
555 10018 20018 31719 40180=
71854 NIL=
71856 15/// /2405 11049 21086 39922 40177 55000 60001
333 11048 21142 70002 555 32321 4002/=
71858 15/// /2502 11091 21102 39710 49993 50000 60001
333 11091 21110 70000=
71861 15/// /2201 11094 21105 39301 40036 51007 60001
333 11069 21166 70000=
71862 NIL=
0000009800
617
SMIN90 VECC 110600
AAXX 11064
42901 32996 01102 10254 20159 40165
  333 58002=
0000015800
618
SMCN08 CWAO 110600 CCA
AAXX 11064
71906 12974 02007 11247 21286 30050 40103 53025 60001 333 11138 21247
70018 555 10018 20018 32730 40181=
0000165600
619
SMCN09 CWAO 110600
AAXX 11064
71930 NIL=
71931 45/// /2512 11069 21112 30140 40152 55003 6///1
333 11058 21153 7//// 555 32931 4009/=
71934 11774 13103 11242 21268 39780 40048 51012 69901 70271
81500 333 11176 21242 47025 70004 90943 555 10016 20004=
71935 12974 10000 11274 21326 39843 40061 50002 60001 80001
333 11274 21326 48026 70006 555 10016 20006=
71936 11074 03005 11302 21332 39767 40040 52007 69901 70277
333 11224 21302 48032 70032 90961
555 10046 20032=
71937 NIL=
71938 11966 02617 11299 21368 39960 49991 57002 69901 77677
333 11210 21313 46029 79999 90977 555 19999 29999=
71940 13982 61004 11076 21105 39196 40004 58028 60001 86070
333 11009 21117 70000
555 10000 20000 32626 40001=
71943 13974 72006 11057 21105 39147 49992 52029 60001 87070
333 11036 21182 70000
555 10000 20000 33519 40070=
71945 13874 63102 11178 21205 39540 40023 56013 60001 86040
333 11148 21184 79999
555 10010 20010=
71946 11974 83206 11237 21253 39840 40064 55006 69901 70372
8801/ 333 11182 21261 48053 70002 90922 555 10004 20002=
71948 47956 02816 11327 39864 49982 56004 6///1 771//
333 11241 21336 7//// 555 32530 40071=
71949 15/// /1701 11172 21191 39071 49949 56012 60001
333 11071 21177 70000=
71951 11424 83616 11003 21003 39622 49884 57078 69901 77152 885//
333 10019 21003 41997 79999 90921
555 19999 29999 33623 40061=
71964 43374 83503 11132 21152 39077 49938 55013 6///1
333 11102 21172=
71966 15/// /0000 11282 21315 39542 40021 56011 60001
333 11180 21283 70000=
71968 47/19 03021 11252 30013 40080 55002 6///1 771//
333 11222 21252 7//// 555 33042 40102=
0000012700
620
SSVX02 CWAO 110600
ZZYY 47537 11014 0600/ 783290 048077 6113/ 444 
20130 11014 0600/ 50001 80136 80001 9////=
0000014500
621
SSVX02 CWAO 110600
ZZYY 63544 11014 0600/ 179726 004767 6113/ 11132 
40178 52135 444 20130 11014 0600/ 50101 80138 80001 9////=
0000013900
622
SSVX02 CWAO 110600
ZZYY 47571 11014 0600/ 771334 104399 6113/ 11119 
49925 444 20130 11014 0600/ 50401 80129 80001 9////=
0000012700
623
SSVX02 CWAO 110600
ZZYY 47573 11014 0600/ 770970 100709 6113/ 444 
20130 11014 0600/ 50101 80134 80001 9////=
0000015100
624
SSVX02 CWAO 110600
ZZYY 47565 11014 0600/ 767390 028767 6113/ 11119 
49943 52005 22219 01005 444 20130 11014 0600/ 50400 80138 80001=
0000013900
625
SSVX02 CWAO 110600
ZZYY 47564 11014 0600/ 767165 028074 6113/ 11122 
49945 52003 444 20130 11014 0600/ 50400 80138 80001=
0000169400
626
SMCN39 CWAO 110600
AAXX 11064
71950 17/12 /1304 11041 21042 39299 49925 60001 771//=
71952 17/// /0000 11061 21068 39085 49938 58065 60021 7//4/
333 11039 21158 70017=
71954 45/// /0000 11080 21087 39614 49992 50003 6///1
333 11080 21099 7////=
71956 17/// /1516 10019 20014 39791 40022 58061 60101 7//4/
333 10020 21057 70095 555 31622 4006/=
71959 NIL=
71960 45/// /2811 11333 39892 40031 55004 6///1
333 11229 21339 7//// 555 32836 40102=
71962 17/// /1904 11034 21041 39553 49974 58012 69971 7//4/
333 11034 21106 70007 555 31919 4015/=
71963 NIL=
71965 13080 03202 11253 21285 39358 49999 57008 60001
333 11126 21253 70018
555 10000 20000=
71967 15/// ///// 11029 21051 30107 40216 58028 60001
333 11027 21185 70000=
71970 NIL=
71971 17/// /1402 11207 21226 39850 49895 51050 60031 7//4/
333 11102 21231 70051 555 31435 4017/=
71972 45/// /2817 39533 53030 6///1
333 7//// 555 32142 40092=
71973 15/// /2309 11050 21078 30005 40197 55007 60001
333 11049 21122 70000 555 33324 4020/=
71974 NIL=
71975 45/// /2623 11213 39205 49944 53013 6///1
333 11187 21217 7//// 555 32630 40101=
71976 NIL=
71977 NIL=
71978 NIL=
71979 NIL=
71980 NIL=
71981 NIL=
71982 NIL=
71983 NIL=
71984 15/// /2816 11310 21340 39994 40003 58003 60001
333 11226 21321 70007 555 32330 4013/=
71985 45/// /2712 11288 21319 30031 40037 56005 6///1
333 11213 21295 7//// 555 32940 40101=
71986 NIL=
71987 15/// /2412 11071 21091 30219 40229 55006 60001
333 11058 21137 70000 555 32327 4017/=
71988 NIL=
71989 NIL=
71990 NIL=
71999 17/// ///// 10027 20014 39689 49979 58072 69961 7//4/
333 10049 21004 70006=

0000188300
627
SMCN24 CWAO 110600
AAXX 11064
71401 17/// /1904 10014 20011 39421 40105 58026 60031 7//4/
333 10033 7//// 555 31518 4022/=
71402 15/// /2522 11047 21084 30036 40153 55004 60001
333 11046 21137 70000 555 32743 4008/=
71404 NIL=
71405 NIL=
71406 45/// /2721 11060 21092 30128 40138 53009 6///1
333 11054 21161 7//// 555 32838 4023/=
71407 NIL=
71408 NIL=
71409 NIL=
71410 17358 83304 11100 21108 39708 49990 50003 60001 710//
333 11093 21123 70000=
71413 NIL=
71414 17/// ///// 11125 21137 69941 7//4/
333 11035 21171 70004=
71415 15/// /2403 11004 21019 30242 40245 56009 60001
333 11002 21141 70000 555 32718 4019/=
71417 NIL=
71418 NIL=
71419 45/// /2216 10004 6///1
333 10004 21129 7//// 555 33028 4007/=
71423 NIL=
71424 45/// /2306 6///1
333 7//// 555 32225 40201=
71425 15/// /1710 11088 21125 30162 40199 53006 60001
333 11051 21154 70000 555 31419 4010/=
71426 15/// /2121 11026 21036 60001
333 11025 21098 70000 555 32133 4000/=
71427 15/// /2619 11033 21054 30186 40194 50002 60001
333 11030 21123 70000 555 32539 40123=
71428 15/// /1907 11074 21107 30204 40210 51009 60001
333 11053 21136 70000 555 32021 40071=
71429 15/// /2708 11077 21123 30186 40206 55002 60001
333 11053 21152 70000 555 32327 40181=
71434 NIL=
71436 17759 80704 10014 20007 39879 40116 58048 60021 71044
333 10019 21149 70046=
71437 45/// /3505 10021 20013 39996 40092 56049 6///1
333 10025 21067 7////=
71438 NIL=
71439 NIL=
71440 NIL=
71442 15/// /3106 11106 21120 39688 40006 53017 60001
333 11071 21167 70000=
71445 NIL=
71446 15/// /2813 11071 21091 39093 40079 51016 60001
333 11021 21091 70000 555 32822 4010/=
71448 15/// /3505 11061 21069 39649 49980 51010 60001
333 11032 21085 70017=
71449 17/// /2503 11045 21054 39573 49975 51004 69961 7//4/
333 11016 21135 70011=

0000253300
628
SMCN23 CWAO 110600
AAXX 11064
71300 15/// /0902 11011 21027 30037 40161 56034 60001
333 10001 21127 70020=
71301 15/// ///// 11027 21027 39674 40074 58048 60001
333 11027 21119 70000=
71302 17/// /0503 11028 21033 39160 49973 58060 69941 7//4/
333 11002 21069 70033 555 31918 4007/=
71303 NIL=
71304 15/// /2210 10016 21054 38616 40053 58013 60001
333 10031 21024 70000 555 32538 4018/=
71305 15566 83107 11177 21199 39743 40042 51009 60001
333 11158 21192 70000=
71306 15966 00403 11270 21293 30067 40101 52016 60001
333 11159 21283 70000
555 32537 40072=
71307 17/// /1411 10038 20033 39811 40060 58053 60101 7//4/
333 10039 21029 70104 555 31518 4001/=
71308 15/// /2211 11001 21015 30175 40261 55008 60001
333 10000 21145 70000 555 32121 4003/=
71309 17/// /1705 11008 21031 30038 40049 58022 69921 7//4/
333 11004 21062 70013 555 32119 4009/=
71310 15/// /2307 11023 21035 30211 40249 55004 60001
333 11023 21167 70002 555 32421 4017/=
71311 15/// /1907 11008 21024 30220 40245 56006 60001
333 10001 21192 70000 555 32020 4019/=
71312 15/// /2707 11066 21083 39545 40005 51013 60001
333 11064 21161 70026=
71314 17/// /1306 10011 39743 40096 58051 69931 7//4/
333 10012 21122 70014=
71315 15/// /2805 11119 21157 30171 40227 50003 60001
333 11064 21252 70007 555 32917 4018/=
71316 15/// /2101 11113 21119 39342 40033 58006 60001
333 11035 21130 70000 555 33217 4021/=
71317 NIL=
71318 NIL=
71319 45/// ///// 11069 21074 39316 40198 58009 6///1
333 11068 21169 7////=
71320 NIL=
71321 17/// /3501 11254 21276 39980 40025 53021 69931 7//4/
333 11176 21289 70006=
71322 17/// /3307 11327 21357 30057 40070 56002 69921 7//4/
333 11286 21329 70002 555 33120 4007/=
71323 NIL=
71331 17/// /0104 11143 21170 39624 49997 51012 69951 7//4/
333 11085 21143 70038=
71332 NIL=
71334 17/// /3602 11300 21331 39709 40056 58004 69921 7//4/
333 11181 21314 70002=
71335 NIL=
71336 45/// /2723 11031 21066 30133 40156 55012 6///1
333 11029 21121 7//// 555 33139 4008/=
71337 45/// /2706 11055 21089 39901 40143 53003 6///1
333 11055 21167 7//// 555 32628 4018/=
71338 15466 82701 11210 21235 39949 49957 51019 60001
333 11171 21253 70000=
71339 15966 82506 11111 21164 30099 40113 53004 60001
333 11101 21233 70000
555 32522 4013/=
71340 NIL=
71341 NIL=
71342 NIL=
71343 NIL=
71344 NIL=
71345 NIL=
71346 NIL=
71347 NIL=
71348 NIL=
71349 15/// ///// 11092 21106 60001
333 11039 21125 70000=

0000268600
629
SMCN34 CWAO 110600
AAXX 11064
71450 15/// /2510 11100 21114 39336 40065 51021 60001
333 11051 21162 70002=
71451 17/// /0202 11180 21202 39584 40020 51010 69921 7//4/
333 11092 21191 70037=
71452 15/// /2403 11104 21112 39336 40056 51013 60001
333 11054 21111 70002 555 33117 4019/=
71453 15/// /2606 11026 21059 39181 40097 51014 60001
333 10016 21059 70000 555 32818 4009/=
71454 15/// /3208 11062 21075 39321 40014 53016 60001
333 11021 21120 70000 555 33117 4005/=
71455 15/// /2716 11084 21097 39265 40071 51019 60001
333 11047 21109 70000 555 32819 4006/=
71456 15/// /2710 11066 21084 39423 40025 51020 60001
333 11057 21120 70009=
71457 15/// /2003 11115 21126 39186 40088 51002 60001
333 10006 21124 70000 555 32617 4007/=
71458 45/// /2308 11103 21126 39274 40054 50001 6///1
333 11015 21181 7////=
71459 15/// /2613 11060 21080 39270 40092 51016 60001
333 11046 21149 70002 555 33018 4022/=
71460 45/// /1218 10006 20000 39812 40053 58065 6///1
333 10006 21058 7//// 555 31421 4004/=
71461 NIL=
71462 NIL=
71463 45/// /0703 10040 20023 39867 40091 56054 6///1
333 10041 21056 7////=
71464 NIL=
71465 NIL=
71466 NIL=
71468 NIL=
71470 NIL=
71471 15966 60604 11050 21094 39198 49985 58029 60001
333 10001 21169 70000
555 32625 40221=
71473 17/// /1722 10079 20064 39960 49989 56070 60061 7//4/
333 10090 20072 70074 555 31735 4004/=
71475 17/// /2701 10012 20008 39881 49974 57064 60281 7//4/
333 10063 20005 70300=
71476 NIL=
71477 17/// /0524 10029 20020 39816 49824 56080 60061 7//4/
333 10054 20013 70063 555 30833 4005/=
71478 NIL=
71479 NIL=
71480 NIL=
71481 15/// /1705 11093 21119 60001
333 10003 21109 70000=
71482 NIL=
71483 NIL=
71484 NIL=
71485 17/// /1246 10050 20043 39835 49852 56050 60021 7//4/
333 10070 20045 70040 555 31263 4004/=
71486 15/// /1803 11052 21075 38831 40029 58030 60001
333 10004 21056 70000 555 31617 4021/=
71487 15/// /2814 11086 21108 39201 40078 53025 60001
333 11018 21087 70000 555 33020 4006/=
71488 NIL=
71489 15/// /2807 11111 21125 39256 40063 51011 60001
333 11060 21149 70000=
71490 NIL=
71491 45/// /2706 11304 21336 6///1
333 11218 21304 7////=
71492 NIL=
71493 15/// /2602 10006 21006 30215 40254 55005 60001
333 10011 21206 70000=
71494 15/// /2004 11044 21062 39680 40213 58018 60001
333 11043 21204 70002=
71495 NIL=
71496 15/// /2709 11127 21139 39428 40051 53016 60001
333 11063 21136 70000=
71497 45/// /0706 11194 21229 39771 40045 58015 6///1
333 11163 21204 7////=
71498 NIL=
71499 15566 82402 11173 21191 39377 40019 53006 60001
333 11118 21177 70000=

0000266200
630
SMCN22 CWAO 110600
AAXX 11064
71201 17/// ///// 10063 20049 60161 7//4/
333 10074 20047 70166=
71202 15/// ///// 11088 21105 60001
333 11012 21137 70000=
71203 17466 80201 10007 21003 39544 40062 58044 60001 761//
333 10038 21010 70003=
71204 15/// /3413 11057 21084 39083 40072 51026 60001
333 11015 21071 70000 555 33026 4004/=
71208 17/// /1005 11077 21088 39712 49991 58019 60011 7//4/
333 11071 21114 70015=
71209 45/// /1224 10063 20059 6///1
333 10093 20041 7//// 555 31433 4006/=
71211 47/// /3516 10037 20024 39995 40001 58061 6///1 7//4/
333 10071 20037 7//// 555 33420 4006/=
71212 15/// /0000 11089 21091 39384 40210 58018 60001
333 11081 21270 70003=
71213 15/// /1315 11022 21022 39776 40078 58049 60001
333 11020 21133 70000 555 32120 4009/=
71214 NIL=
71215 15/// /1702 10024 21001 39728 40072 57036 60001
333 10050 21004 70000=
71216 NIL=
71217 NIL=
71218 17/// /2002 10005 20003 39634 40061 58052 69951 7//4/
333 10022 20002 70053=
71219 45/// /0303 10042 21002 39813 49823 56092 6///1
333 10060 20029 7//// 555 31225 4002/=
71220 45/// /0411 10040 6///1
333 10057 20034 7////=
71221 NIL=
71222 15/// /0703 11128 21140 38981 49947 56037 60001
333 11044 21132 70002=
71223 NIL=
71224 NIL=
71225 NIL=
71226 NIL=
71227 NIL=
71228 NIL=
71229 NIL=
71230 NIL=
71231 15/// /1507 11101 21122 60001
333 10043 21104 70000 555 32825 40071=
71232 15/// /2405 10006 21117 38546 40030 56016 60001
333 10018 21013 70000 555 33026 4023/=
71233 15/// /1304 11078 21099 60001
333 10005 21103 70000=
71234 15/// /1401 11064 21091 38883 40076 58012 60001
333 10044 21068 70000 555 32522 4015/=
71235 15/// /1906 11046 21068 60001
333 10025 21056 70000 555 32824 4009/=
71236 45/// /3012 10014 21052 6///1
333 10041 21027 7//// 555 32938 4022/=
71237 45/// /1605 11103 21114 39242 40077 53002 6///1
333 11060 21214 7////=
71238 15/// /0000 11085 21112 60001
333 10014 21158 70000=
71239 15/// /2910 11067 21081 39552 40015 53017 60001
333 11027 21138 70000=
71240 15/// /2412 11066 21108 39225 40084 51009 60001
333 11047 21122 70000 555 32618 4020/=
71242 15/// /1803 11117 21123 60001
333 11022 21147 70004=
71243 15/// /1303 11039 21074 39009 40093 58005 60001
333 10062 21041 70000 555 32632 40091=
71244 15/// /3002 11063 21083 38855 40086 58002 60001
333 10033 21089 70000 555 32726 4020/=
71245 NIL=
71246 NIL=
71247 15966 02106 11092 21105 39242 40106 50010 60001
333 10021 21098 70000
555 32419 4009/=
71248 15/// /0000 11145 21164 38749 40070 58015 60001
333 11025 21170 70000=
71249 NIL=

0000250800
631
SMCN20 CWAO 110600
AAXX 11064
71001 17366 83403 11170 21184 38974 49964 56014 60001 771//
333 11153 21243 70000=
71002 15666 82505 11109 21136 39566 40121 53013 60001
333 11108 21234 79999
555 32520 4001/=
71003 17566 82111 11072 21086 39714 40100 58002 60001 771//
333 11071 21150 70000
555 32229 40111=
71005 15/// ///// 11095 21114 60001
333 11038 21157 70000=
71006 NIL=
71007 NIL=
71008 NIL=
71009 15/// /0101 11107 21113 60001
333 11022 21192 70000=
71010 NIL=
71011 NIL=
71012 NIL=
71013 NIL=
71014 NIL=
71015 NIL=
71016 NIL=
71017 NIL=
71018 NIL=
71019 NIL=
71020 NIL=
71021 NIL=
71022 17666 80205 10039 21007 39786 49829 56093 60001 761//
333 10051 20028 70015
555 32319 4012/=
71023 15264 82903 11096 21103 39262 40037 51013 60001
333 11043 21118 70005 555 32818 40210=
71024 15/// /1903 11207 21225 60001
333 11144 21213 70006=
71026 15/// /2307 11096 21114 39234 40096 50009 60001
333 10026 21098 70000 555 32618 4009/=
71027 15/// /2103 11014 21062 30221 40234 55007 60001
333 11012 21112 70000 555 32431 4022/=
71028 17/// /1708 11006 21011 38902 49927 56086 60041 7//4/
333 10031 21102 70042 555 31624 4023/=
71029 17/// /2811 11341 21377 39882 49923 53002 69921 7//4/
333 11251 21358 70004 555 32517 4019/=
71030 15/// /2403 10004 21013 30161 40259 56009 60001
333 10010 21173 70000 555 32718 4023/=
71032 15/// /2902 10003 21001 39208 40029 58050 60001
333 10058 21057 70000=
71033 17/// /2401 11174 21194 39376 40020 53006 69921 7//4/
333 11119 21179 70022=
71035 NIL=
71036 15866 62717 11072 21084 39624 40003 50001 60001
333 11061 21167 70000
555 32621 40061=
71038 15/// /3001 11153 21168 30184 40239 55002 60001
333 11035 21215 70000 555 32318 4019/=
71039 17/// /0000 11165 21180 39289 49961 57013 69921 7//4/
333 11114 21189 70013=
71040 45/// /0501 11068 21092 39992 40197 57013 6///1
333 11065 21300 7////=
71041 15466 82410 11007 21020 30110 40255 56013 60001
333 11007 21174 70000
555 32424 4001/=
71042 17/// /0902 10053 20049 30004 40008 58065 60181 7//4/
333 10086 20008 70184=
71044 NIL=
71046 45/// /2719 11252 30064 40082 58009 6///1
333 11214 21257 7//// 555 32947 40083=
71047 15/// ///// 11066 21100 60001
333 11013 21127 70000=
71048 NIL=
71049 NIL=
71060 15/// /2902 11061 21123 38495 40024 58025 60001
333 10034 21073 7////=
71063 15/// /0505 11046 21062 30072 40173 56033 60001
333 11046 21131 70004=

0000159500
632
SMCN26 CWAO 110600
AAXX 11064
71604 NIL=
71605 17/// /3607 10026 20022 39867 40015 57057 60271 7//4/
333 10066 20024 70303=
71608 17/// /0812 10056 20046 39996 49999 58068 60171 7//44
333 10083 20032 70179 555 30721 4006/=
71611 15/// /0503 11043 21061 60001
333 11043 21212 70000=
71612 15/// /3501 11042 21065 30102 40195 58034 60001
333 11031 21108 70000=
71614 15/// /1306 11005 21035 30111 40178 58040 60001
333 11005 21192 70000=
71616 15/// /0602 11068 21077 30097 40220 58025 60001
333 11057 21229 70010=
71617 15/// /1103 11088 21118 30034 40208 58011 60001
333 11064 21258 70000=
71618 15966 03306 11278 21308 30029 40069 58003 60001
333 11193 21284 70000
555 33324 40081=
71619 15/// /2905 11091 21134 30157 40218 58003 60001
333 11074 21171 70000 555 32719 40180=
71622 17/// ///// 10027 20023 39731 40068 58056 60071 7//4/
333 10035 21058 70083=
71629 NIL=
71632 17/// /0303 11240 21267 39568 40022 50001 69941 7//4/
333 11112 21240 70047=
71634 15/// /0000 11156 21173 30074 40233 50001 60001
333 11022 21242 70005=
71636 NIL=
71637 15/// /2310 11107 21122 39219 40055 51003 60001
333 11037 21154 70002=
71638 17/// /1114 10063 20039 39884 49988 58069 60131 7//4/
333 10071 20026 70133 555 31228 4004/=
71639 11648 81004 10017 20016 39858 40101 57050 60011 76152
885// 333 10019 21090 43019 70034 90916 555 10028 20024=
71640 15/// /1403 11034 21037 39510 40002 58050 60001
333 11029 21082 70000=
71642 NIL=
71644 15/// ///// 10011 21002 39515 40062 58044 60001
333 10041 20005 70000=

00000000