0000010600
553
SAAJ31 UBBB 102030
METAR UBBB 102030Z 17009KT 9999 OVC010 05/03 Q1021 88CLRD70
NOSIG=

0000044100
554
FCPL32 EPWA 102000
TAF EPBY 102030Z 1021/1106 26015KT 9999 BKN025
    PROB40 TEMPO 1021/1024 26020G32KT=
TAF EPKT 102030Z 1021/1106 24015KT 9999 BKN040=
TAF EPLB 102000Z NIL=
TAF EPMO 102030Z 1021/1106 26015KT 9999 BKN030
    TEMPO 1021/1101 26020G30KT SCT020CB=
TAF EPSC 102030Z 1021/1106 26012KT 9999 BKN025=
TAF EPWR 102030Z 1021/1106 26008KT 9999 SCT040=
TAF EPZG 102030Z 1021/1106 25008KT 9999 SCT040=

0000025200
555
FTMX41 KWBC 102030 AAA
TAF AMD
TAF AMD MMCE 102029Z 1020/1118 18005KT 6SM HZ SCT005
     FM102200 14010KT 6SM HZ SCT010
     FM110400 15005KT 6SM HZ SCT010
      TEMPO 1112/1115 3SM BR SCT005
     FM111800 14010KT P6SM SKC=

0000024900
556
FTUS53 KWBC 102030 AAA
TAF AMD
KSLN 102027Z 1020/1118 29011KT P6SM OVC025
     FM102300 29010KT P6SM SCT020 OVC050
      TEMPO 1023/1103 5SM -SN BKN020
     FM110400 28008KT P6SM SCT030
     FM111500 28014G21KT P6SM SKC=

0000084500
557
FTUS80 KWBC 102030 AAA
TAF AMD
KBLI 102029Z 1020/1118 17010KT P6SM SCT025 OVC050
      TEMPO 1021/1023 4SM -RA OVC025
     FM102300 16010KT 4SM -RA BR OVC015
     FM110000 15014G22KT 4SM RA BR OVC012
      TEMPO 1104/1108 2SM +RA BR OVC012
     FM110800 17025G35KT 5SM -RA BR OVC015=
KGLS 102027Z 1020/1118 16012KT P6SM SCT040 BKN045 OVC060
     FM102300 15010KT 6SM BR BKN030
     FM110000 14010KT 3SM BR SCT015
      TEMPO 1100/1103 1SM BR VV003
     FM110300 17010KT 1/2SM FG VV002
     FM110700 18010KT 4SM BR SCT003 BKN015
     FM111100 27008KT 6SM BR SCT009
     FM111300 31008KT P6SM SCT250=
KSLN 102027Z 1020/1118 29011KT P6SM OVC025
     FM102300 29010KT P6SM SCT020 OVC050
      TEMPO 1023/1103 5SM -SN BKN020
     FM110400 28008KT P6SM SCT030
     FM111500 28014G21KT P6SM SKC=

0000010200
558
SPUS41 KWBC 102030
SPECI
KBAF 102027Z 21003KT 3SM BR BKN018 OVC095 M01/M03 A3035=

0000010900
559
SPUS43 KWBC 102030
SPECI
KMDW 102026Z 13008KT 1SM R31C/5500FT +RA BR OVC003 02/02 A2979=

0000009100
560
SANC01 NWWW 102030
METAR NWWW 102030Z AUTO VRB02KT 9999 NSC 25/16 Q1013=

0000021700
561
SABU31 LBSM 102030
METAR LBSF 102030Z VRB02MPS 3000 BR NSC 00/00 Q1021 NOSIG=
METAR LBWN 102030Z 27006MPS CAVOK 08/04 Q1017 NOSIG=
METAR LBBG 102030Z 27003MPS 250V320 7000 NSC 04/04 Q1018 NOSIG=

0000011100
562
SAAJ31 UBBB 102030
METAR UBBG 102030Z 29006KT 9999 FEW100 M01/M02 Q1022
R30/CLRD70 NOSIG =

0000088900
563
SAUR30 UKMS 102030
METAR UKBB 102030Z 26005MPS 9999 FEW022 04/01 Q1003
         88290060 NOSIG=
METAR UKHH 102030Z 27006MPS 9999 -RA BKN007 OVC020
         05/03  Q1001 25290050 TEMPO 24011G16MPS 1200=
METAR UKOO 102030Z 31006MPS CAVOK 05/03 Q1012
         34290054 NOSIG=
METAR UKDE 102030Z 25006MPS 210V270 1100 R20/P2000D
         RA BR OVC003 06/05 Q1005 20290356 NOSIG=
METAR UKDD 102030Z 28008MPS 1300 R26/P2000N -RA BR
         OVC004 05/05 Q1004 26220356 NOSIG=
METAR UKFF 102030Z 22010MPS 9999 SCT017 OVC100 07/05
         Q1010 19010070 NOSIG=
METAR UKLL 102030Z 27009G14MPS 9999 SCT033CB BKN100
         05/M01  Q1012 31220365 TEMPO 27010G17MPS=
METAR UKCC 102030Z 22009MPS 2500 -RA BR OVC004 05/05
         Q1005 26090070 TEMPO 0500 FG BKN002=
METAR UKDR 102030Z 30004MPS 9999 -RA OVC010 05/04
         Q1006 3619//60 NOSIG=

0000008900
564
SAHU31 LHBM 102030
METAR LHBP 102030Z VRB02KT CAVOK 02/00 Q1021 NOSIG=

0000015500
565
FCOS43 LOWM 102000
TAF LOXA 102000Z NIL=
TAF LOXE 102000Z NIL=
TAF LOXN 102000Z NIL=
TAF LOXT 102000Z NIL=
TAF LOXZ 102000Z NIL=

0000010500
566
SPUS31 KWBC 102031
SPECI
KMIA 102027Z 12010KT 10SM BKN021 BKN060 BKN200 27/22 A3008=

0000010100
567
SPUS41 KWBC 102031
SPECI
KCAE 102027Z 33005KT 2 1/2SM +RA BR OVC010 09/08 A3017=

0000012200
568
SAFG20 SOCA 102030
METAR SOCA 102030Z AUTO 13003KT 100V160 9999 -RA FEW007 SCT048
BKN066 25/23 Q1009=

0000023800
569
SAGG31 UGTB 102030
METAR UGTB 102030Z 06004KT 9000 NSC M02/M06 Q1024 R31L/CLRD80 NOSIG=
METAR UGSB 102030Z 13019KT CAVOK 06/M02 Q1018 R13/CLRD70 NOSIG=
METAR UGKO 102030Z 10005KT CAVOK 02/M03 Q1017 R07/09//70 NOSIG=

0000011200
570
SASR31 WSSS 102030
METAR WSSS 102030Z 36003KT 330V050 9999 FEW018 BKN300 24/23 Q1010
NOSIG=

0000009800
571
SAMJ41 LWSK 102030
METAR LWSK 102030Z 24002KT 3200 BR OVC004 02/02 Q1023 NOSIG=

0000178900
572
SPUS70 KWBC 102028
SPECI
KTDR 102021Z AUTO 15007KT 6SM BR OVC004 18/19 A3006 RMK AO2=
PAMB 102024Z AUTO 05010KT 10SM BKN008 OVC013 M04/M04 A2944 RMK AO2
     TSNO $=
KAGC 102024Z 15008KT 10SM SCT008 OVC043 08/06 A3013 RMK AO2=
KAHN 102024Z 06006KT 1 1/2SM BR OVC003 08/07 A3014 RMK AO2=
KCFV 102024Z AUTO 21013KT 10SM FEW015 SCT024 BKN032 12/09 A2955
     RMK AO2 T01220094=
KDNL 102024Z AUTO 32005KT 4SM -RA BR OVC003 09/08 A3015 RMK AO2
     CIG 002V006 P0003 T00890083 TSNO=
KDYL 102024Z AUTO 00000KT 5SM BR OVC004 00/00 A3034 RMK AO2
     T00000000=
KELD 102024Z AUTO 15011KT 4SM -RA BR OVC004 13/13 A2982 RMK AO2
     RAB06 CIG 003V008 P0001 T01330128 TSNO=
KFFC 102024Z AUTO 11005KT 1 1/2SM BR OVC003 09/09 A3011 RMK AO2
     T00940094=
KFIT 102024Z AUTO VRB04KT 10SM SCT017 BKN050 OVC085 03/M01 A3035
     RMK AO2 T00331006=
KHGR 102024Z 32004KT 4SM HZ BKN023 OVC110 03/01 A3028 RMK AO2
     T00330006=
KHKY 102024Z 08004KT 1 1/4SM -RA BR OVC003 08/06 A3019 RMK AO2
     P0001=
KSBY 102024Z 09004KT 3SM -RA BR BKN003 OVC048 07/05 A3033 RMK AO2
     P0000=
KTOP 102024Z 23004KT 7SM SCT006 OVC028 05/03 A2955 RMK AO2
     T00500028=
KAND 102025Z AUTO 06005KT 2 1/2SM -RA BR OVC004 09/08 A3016 RMK
     AO2 P0002=
KDPA 102025Z 15010KT 3SM -RA BR OVC004 02/01 A2975 RMK AO2
     P0001=
KEYE 102025Z AUTO 15007KT 4SM BR SCT006 SCT028 BKN039 04/03 A2990
     RMK AO2 T00440033=
KGFL 102025Z AUTO 00000KT 9SM OVC028 M01/M04 A3032 RMK AO2=
KHUF 102025Z 16009KT 7SM -RA BKN016 OVC036 05/03 A2987 RMK AO2
     RAB14 P0000=
KSBM 102025Z AUTO 17011KT 3SM BR OVC003 00/00 A2980 RMK AO2
     T00000000=
PACV 102025Z 00000KT 1SM R27/2600VP6000FT -SN BR BKN007 OVC016
     M01/M01 A2938 RMK AO2 P0005 $=

00000000