0000019500
073
UAPA01 KWBC 110548
ARP UAL328 3329N 12235W 0538 F360 MS55 300/035KT=
ARP DAL1219 2600N 14610W 0538 F340 MS42 250/070KT TB 0=
ARP DAL2237 3500N 14221W 0540 F300 MS43 250/060KT=
0000010900
074
UANT01 CWAO 110547
ARP EDW5L 4644N04133W 0547 F380 MS52 307/46 KT
HBJHQ QXT AOW 110547 J60A
0000012600
075
SIGO20 FOOL 110300 RRB
AAXX 11034
64501 42360 61906 10255 20242 30096 40106 86500
  333 58012 83608 86626=
0000012600
076
SIGO20 FOOL 110300 RRA
AAXX 11034
64501 42360 61906 10255 20242 30096 40106 86500
  333 58012 83608 86626=
0000011100
077
UANT99 KDDL 111012
ARP UAL970 5600N01552W 1012 F370 MS62 247/72 KT
N643UA DDL XXW 111012 F36A
0000011100
078
UANT99 KDDL 111013
ARP BAW9172 4930N04252W 1013 F410 MS57 304/48 KT
GZBJB QXT AOW 111013 L31A
0000010900
079
UANT99 KDDL 111013
ARP SIA26 5401N01605W 1013 F390 MS57 256/58 KT
9VSKS DDL BYT 111013 J73A
0000112400
080
SAAR20 OEJD 111000
METAR OBBI 111000Z 18006KT 9999 FEW020 17/14 Q1018 NOSIG=
METAR OKBK 111000Z 32012KT CAVOK 15/09 Q1016 NOSIG=
METAR OMAA 111000Z 15010KT 130V200 CAVOK 22/11 Q1017 A3005 NOSIG=
METAR OMAD 111000Z 21006KT 150V240 9999 FEW045 22/12 Q1018 A3007
                   NOSI G=
METAR OMAL 111000Z 17005KT 130V210 CAVOK 21/09 Q1019 A3011 BECMG
                   27008KT=
METAR OMDB 111000Z 15012KT CAVOK 22/09 Q1018 NOSIG=
METAR OMFJ 111000Z 14007KT 120V180 9999 SCT020 BKN100 20/09 Q1019
                   A3009=
METAR OMRK 111000Z 13011KT CAVOK 21/10 Q1019 A3009=
METAR OMSJ 111000Z 16011KT CAVOK 22/11 Q1019=
METAR OOBR 111000Z NIL=
METAR OOKB 111000Z NIL=
METAR OOMS 110950Z 05014KT 9999 FEW025 BKN200 22/09 Q1020 NOSIG=
METAR OOSA 110950Z 13013KT 9999 SCT025 26/14 Q1016
NOSIG  RH50 RMK01=
METAR OOSH 111000Z NIL=
METAR OOSQ 111000Z NIL=
METAR OOSR 111000Z NIL=
METAR OOTH 111000Z NIL=
METAR OOYB 111000Z NIL=
METAR OTBD 111000Z 20005KT 150V250 7000 -RA FEW018 SCT090 OVC120
17/15 Q1019 NOSIG=
METAR OYAA 111000Z 13014KT 9999 SCT020 27/18 Q1015=
0000010600
081
SAAR20 OEJD 111000 RRA
METAR OYSN 111000Z 20010KT 160V230 9999 SCT030 SCT180 24/M05 Q1024=
0000037400
082
SAME31 OEJD 111000
METAR OJAI 111000Z NIL=
METAR OJAM 111000Z 31008KT 5000 HZ BKN025TCU 11/06 Q1023 NOSIG=
METAR OJAQ 111000Z 00000KT 9999 FEW030 17/08 Q1024 NOSIG=
METAR OLBA 111000Z 24005KT 210V270 8000 FEW026 17/07 Q1024=
METAR OSAP 111000Z NIL=
METAR OSDI 111000Z 00000KT CAVOK 11/04 Q1023=
METAR OSLK 111000Z 24004KT 9999 FEW030 18/04 Q1023=
0000078900
083
UDAS02 BABJ 111002
AMDAR 1110
LVR CNFPXL 3346N 11849E 110949 F217 MS275 280/055 TB/ S//1=
LVR CNFPXL 3405N 11852E 110952 F226 MS300 282/060 TB/ S//1=
LVR CNFPXL 3424N 11855E 110955 F226 MS303 282/062 TB/ S//1=
LVR CNFPXL 3441N 11904E 110958 F226 MS304 283/069 TB/ S//1=
ASC CNFPQK 3727N 12101E 110958 F095 MS130 280/026 TB/ S//1=
ASC CNFPQK 3728N 12058E 110958 F098 MS135 279/027 TB/ S//1=
ASC CNFPQK 3730N 12055E 110959 F098 MS133 280/027 TB/ S//1=
ASC CNFPQK 3731N 12053E 111000 F098 MS133 280/027 TB/ S//1=
LVR CNFPYM 3502N 11718E 110951 F246 MS348 264/074 TB/ S//1=
LVR CNFPYM 3443N 11712E 110954 F246 MS343 268/073 TB/ S//1=
LVR CNFPYM 3424N 11708E 110957 F246 MS343 266/070 TB/ S//1=
LVR CNFPYM 3404N 11708E 111000 F246 MS348 263/064 TB/ S//1=
0000333600
084
SAWD01 OEJD 111000
METAR DAAG 111000Z 20003KT 150V230 CAVOK 18/11 Q1020=
METAR DTTA 111000Z NIL=
METAR EBBR 110950Z 24011KT 9999 SCT008 06/04 Q1016 TEMPO BKN008=
METAR EDDH 110950Z 22015KT 6000 -RA BKN008 05/04 Q1010 TEMPO 4000=
METAR EFHK 110950Z 33005KT 9999 OVC008 M04/M05 Q0999 NOSIG=
METAR EGLL 110950Z 29005KT CAVOK 07/04 Q1018 NOSIG=
METAR EHAM 110955Z 21016KT 4000 BR FEW006 BKN008 BKN011 06/05 Q1012
BECMG FM1015 31018G28KT 9999 NSW SCT010=
METAR EIDW 111000Z 25008KT 9999 FEW008 02/01 Q1018 BECMG SCT010=
METAR EKCH 110950Z 23016KT 8000 -RA BKN011 07/05 Q1005 BECMG
BKN007=
METAR ELLX 110950Z 24004KT 200V270 3500 BKN046 03/02 Q1017 NOSIG=
METAR ENFB 110950Z AUTO 06013KT 9999NDV OVC020/// 02/M01 Q0999
           W///S5=
METAR EPWA 111000Z 26013KT 9999 SCT016 04/02 Q1014 NOSIG=
METAR ESSA 110950Z 01010KT 9999 SCT009 SCT074 BKN140 M03/M04 Q1001
R01L/520170 R08/510165 R01R/////// NOSIG=
METAR ETBS 111000Z NIL=
METAR GMME 111000Z 19005KT 5000 SCT020 BKN100 15/10 Q1019 NOSIG=
METAR GQNN 111000Z 04011KT 8000 NSC 18/14 Q1017 NOSIG=
METAR HAAS 111000Z NIL=
METAR HCMM 111000Z NIL=
METAR HECA 111000Z 34005KT CAVOK 18/07 Q1025 NOSIG=
METAR HLLT 110950Z
21008KT 160V240 CAVOK 19/08 Q1024=
METAR HSSS 111000Z 03018KT 8000M SA 23/M01 Q1018 NOSIG=
METAR KBOS 110954Z 09003KT 1/4SM R04R/1800FT UP FG VV002 02/01 A3013=
METAR KIAD 110952Z 00000KT 1/2SM R01R/P6000FT FG VV003 02/02 A2994=
METAR KJFH 111000Z NIL=
METAR KWBS 111000Z NIL=
METAR LEMD 111000Z NIL=
METAR LFPO 111000Z 29004KT 6000 FEW003 SCT066 BKN160 07/07 Q1020
TEMPO BKN003=
METAR LGAV 110950Z 05005KT 9999 FEW020 14/09 Q1023 NOSIG=
METAR LIRF 110950Z 10006KT 060V130 9000 NSC 11/08 Q1023 NOSIG=
METAR LOWW 110950Z VRB02KT 9999 FEW055 SCT140 BKN280 04/01 Q1020
NOSIG=
METAR LSGG 110950Z 00000KT 8000 FEW020 BKN180 06/04 Q1021 NOSIG=
METAR LTAC 110950Z VRB02KT 8000 OVC009 M02/M03 Q1023 BECMG TL1100
 SCT040=
METAR OAKB 110950Z 18004KT 7000 NSC 04/M16 Q1024 NOSIG RMK WHT WHT=
METAR OBBI 111000Z 18006KT 9999 FEW020 17/14 Q1018 NOSIG=
METAR OJAM 111000Z 31008KT 5000 HZ BKN025TCU 11/06 Q1023 NOSIG=
METAR OKBK 111000Z 32012KT CAVOK 15/09 Q1016 NOSIG=
METAR OLBA 111000Z 24005KT 210V270 8000 FEW026 17/07 Q1024=
METAR OMAA 111000Z 15010KT 130V200 CAVOK 22/11 Q1017 A3005 NOSIG=
METAR OOMS 110950Z 05014KT 9999 FEW025 BKN200 22/09 Q1020 NOSIG=
METAR OPKC 111000Z NIL=
METAR OPRN 111000Z 27020KT 6000 SKC 17/M02 Q1020.1/30.12=
METAR ORBB 111000Z NIL=
METAR OSDI 111000Z 00000KT CAVOK 11/04 Q1023=
METAR OTBD 111000Z 20005KT 150V250 7000 -RA FEW018 SCT090 OVC120
17/15 Q1019 NOSIG=
METAR OYAA 111000Z 13014KT 9999 SCT020 27/18 Q1015=
METAR OYSN 111000Z 20010KT 160V230 9999 SCT030 SCT180 24/M05 Q1024=
METAR RKSS 111000Z 27002KT 9999 SCT030 BKN150 01/M16 Q1030 NOSIG=
METAR UUEE 111000Z NIL=
METAR VCBI 111010Z 32009KT 9999 SCT016 29/23 Q1009 NOSIG=
METAR VGZR 111000Z NIL=
METAR VHHH 111000Z 14007KT 110V180 9000 FEW035 19/12 Q1021 NOSIG=
METAR VIDP 111000Z NIL=
METAR WIIH 111000Z NIL=
METAR WMKK 111000Z 27008KT 220V320 9999 FEW017CB SCT140 BKN280 31/25
Q1008 NOSIG=
METAR WSSS 111000Z 04009KT 350V070 9999 VCTS FEW012 FEW015CB
FEW017TCU SCT150 27/24 Q1010 WS R02C TEMPO TL1030 VRB10G25KT 4000
TSRA BECMG FM1040 TL1100 NSW=
0000047900
085
UDAS02 BABJ 111005
AMDAR 1110
DES CNFOZL 2220N 11310E 111001 F061 PS079 035/006 TB/ S//1=
DES CNFOZL 2217N 11310E 111002 F057 PS090 078/006 TB/ S//1=
DES CNFOZL 2208N 11310E 111004 F047 PS120 085/008 TB/ S//1=
ASC CNFPQK 3737N 12040E 111002 F151 MS220 276/038 TB/ S//1=
ASC CNFPQK 3738N 12037E 111003 F165 MS248 280/038 TB/ S//1=
ASC CNFPQK 3739N 12034E 111003 F177 MS263 276/047 TB/ S//1=
LVR CNFPQK 3739N 12030E 111004 F177 MS265 278/046 TB/ S//1=
0000128500
086
UDAS02 BABJ 111004
AMDAR 1110
LVR CNFNXM 2803N 11334E 110952 F291 MS300 265/111 TB/ S//1=
LVR CNFNXM 2808N 11405E 110955 F291 MS303 266/111 TB/ S//1=
LVR CNFNXM 2812N 11436E 110958 F291 MS310 266/106 TB/ S//1=
LVR CNFNXM 2816N 11506E 111001 F291 MS309 266/105 TB/ S//1=
DES CNFLWM 2249N 11240E 110959 F171 MS065 263/034 TB/ S//1=
DES CNFLWM 2244N 11243E 111000 F150 MS023 274/032 TB/ S//1=
DES CNFLWM 2240N 11247E 111001 F131 PS003 278/026 TB/ S//1=
DES CNFLWM 2239N 11247E 111001 F131 PS004 277/025 TB/ S//1=
DES CNFOZL 2234N 11310E 110958 F085 PS013 333/009 TB/ S//1=
DES CNFOZL 2231N 11310E 110959 F080 PS025 333/009 TB/ S//1=
DES CNFOZL 2227N 11310E 111000 F072 PS048 359/007 TB/ S//1=
DES CNFOZL 2222N 11310E 111001 F064 PS069 014/007 TB/ S//1=
ASC CNFPQK 3732N 12050E 111000 F106 MS148 280/029 TB/ S//1=
ASC CNFPQK 3734N 12047E 111001 F115 MS160 284/035 TB/ S//1=
ASC CNFPQK 3735N 12044E 111001 F130 MS180 282/041 TB/ S//1=
ASC CNFPQK 3737N 12041E 111002 F148 MS216 278/039 TB/ S//1=
LVR CNFOZN 3115N 12240E 110953 F361 MS458 262/151 TB/ S//1=
LVR CNFOZN 3103N 12228E 110956 F361 MS458 260/145 TB/ S//1=
LVR CNFOZN 3045N 12225E 110959 F361 MS453 259/140 TB/ S//1=
LVR CNFOZN 3026N 12221E 111002 F361 MS460 260/139 TB/ S//1=
0000155200
087
SNAU01 AMMC 111000
AAXX 11104
94102 47/// /1610 10281 20245 30062 40071 51017 7//44=
94103 45/// /2312 10295 30066 40071 53003=
94200 NIL=
94203 41470 61808 10306 20251 30076 40086 53017 70511 82232=
94206 45/// /1606 10405 20098 39907 40035 55003=
94207 46/// /2411 10294 30067 40075 53001=
94212 45/// /1205 10370 20062 39575 40038 53002=
94216 45/// /0205 10291 20239 39999 40047 55000=
94300 45/// /2607 10285 20221 30086 40091 53016=
94302 45/// /2913 10368 20167 30053 40059 56009=
94312 45/// /3117 10312 20263 30052 40061 55006=
94313 NIL=
94317 45/// /1011 10400 21180 39495 40063 56006=
94319 45/// /1010 10414 21058 39729 40048 55002=
94403 45/// /1514 10348 20118 30045 40079 53016=
94429 45/// /0608 10431 21001 39623 40072 56009=
94430 45/// /1010 10417 20205 39509 40073 56009=
94449 45/// /0910 10388 20003 39605 40120 55005=
94601 45/// /1316 10225 20194 30128 40144 56015=
94610 41980 01312 10420 20027 30062 40085 56018 70200=
94637 45/// /1009 10361 20019 39718 40134 56012=
94638 41968 11216 10219 20157 30153 40185 55009 70500 80002=
94642 NIL=
94647 45/// /1311 10193 20156 30094 40203 55000=
94802 45/// /1016 10223 20160 30095 40178 56007=
95205 45/// /3412 10329 20261 30051 40058 53005=
95448 45/// /1210 10407 21039 39544 40088 55005=
95634 45/// /1407 10402 20013 39719 40109 56014=
95637 45/// /1217 10349 20093 39812 40139 56011=
95641 45/// /1613 10269 20162 30048 40142 56005=
95646 45/// /1318 10256 20102 39998 40182 53009=
96995 NIL=

0000028100
088
SNAU03 AMMC 111000
AAXX 11104
94461 NIL=
94477 NIL=
94651 NIL=
94653 46/// /1716 10192 20151 30171 40189=
94659 NIL=
94672 NIL=
94804 NIL=
94821 NIL=
95458 NIL=
95480 NIL=
95481 NIL=
95666 NIL=
95826 45/// /1909 10165 30218 40220 53009=

0000135200
089
SNAU05 AMMC 111000
AAXX 11104
94691 NIL=
94693 15/// /2008 10333 20008 30086 40147 53014 60001=
94700 NIL=
94703 15/// /1005 10311 20104 30009 40131 53013 60002=
94710 15/// /1607 10319 20088 39889 40136 53010 60002=
94729 159// 11807 10257 20095 39317 40148 53013 69922=
94750 159// 71406 10236 20164 30037 40159 53023 60002=
94767 11980 60313 10241 20192 30151 40157 53016 60001 70311 85032=
94776 159// 10608 10239 20180 30144 40154 51014 60002=
94791 15/// /3606 10225 20175 30167 40174 53015 60002=
94842 15/// /2313 10155 20130 30116 40214 53009 60002=
94865 154// 81813 10169 20124 30187 40212 53017 60002=
94875 15/// /1814 10255 20062 30019 40152 53027 60002=
94893 15/// /2625 10155 20126 30059 40174 50004 60002=
94907 15/// /2711 10195 20062 30179 40189 53025 60002=
94910 11975 21103 10293 20107 39888 40131 53005 60001 70211 82031=
94926 15/// /1307 10241 20104 39502 40155 53021 60002=
94935 15/// /2409 10185 20113 30151 40177 53018 60002=
94995 15/// /1604 10193 20146 30189 40197 53011 60002=
95485 15/// /0912 10334 20088 39928 40127 53010 60002=
95527 15/// /0000 10277 20126 39887 40134 53012 60002=
95719 15/// /2107 10274 20144 39818 40141 53010 60002=
95762 15/// /1105 10255 20089 39692 40138 53017 60002=
95839 15/// /2016 10225 20086 30028 40184 53020 60002=

0000004100
090
SNPS01 AMMC 111000
NIL

0000046200
091
SNAU40 AMMC 111000
AAXX 11104
94100 47/// /1205 10242 20221 30045 40072 51032 7//44=
94204 45/// /2910 10350 20243 39959 40052 53004=
94217 459// 12705 10300 20226 39870 40053 55008=
94303 45/// /3015 10297 20265 30062 40068 56011=
94306 45/// /3010 10322 20263 30051 40064 55003=
94308 45/// /3110 10344 20237 30049 40061 55007=
94316 45/// /0907 10418 21055 39594 40054 56007=
94417 45/// /3603 10437 21017 39749 40051 56014=

0000081300
092
SNAU41 AMMC 111000
AAXX 11104
94450 45/// /1011 10401 21022 39696 40107 55006=
94457 45/// /1312 10393 21010 39588 40091 55001=
94600 45/// /2108 10325 20168 39998 40125 56015=
94602 45/// /1820 10282 20197 30039 40089 56021=
94603 45/// /1604 10432 20035=
94604 45/// /1505 10395 20071 30106 40113 56017=
94605 45/// /2010 10366 20114 30093 40097 56014=
94607 45/// /1819=
94608 45/// /2108 10386 20109 30057 40086 56018=
94609 45/// /1909 10405 20094 30058 40093 56017=
94612 45/// /1411 10430 20049 30019 40081 56016=
94614 45/// /1912 10365 20099=
94615 45/// /1107 10397 20061=
94617 45/// /1207 10351 20046 39811 40140 56013=
94620 45/// /1307 10393 20006 39808 40115 56014=
94628 45/// /1317 10325 20105 39780 40146 56008=
94631 45/// /1110 10313 20111=

00000000