0000375800
733
SMCN04 KWBC 110000 RRJ
AAXX 11004
71869 13874 72402 11082 21096 39468 49997 51016 60001 87071 333
11062 21124 70004=
71879 15964 02909 11017 21102 39236 40046 53030 60001 333 10002
21131 70000=
71880 13580 72407 10032 21030 38996 40106 53031 60001 82571 333
10053 21093 79999=
71935 11974 62603 11252 21301 39833 40050 53021 69901 70272 81071
333 11199 21254 48026 70006 90963=
71951 11262 80403 10009 20006 39768 40034 57039 69901 75152 886//
333 10019 21002 41000 70004 90915=
71043 11880 73104 11260 21292 39993 40090 51006 69901 77172 85071
333 11238 21292 48015 70004 90917=
71068 11774 72108 11126 21141 39332 40038 51011 69901 70277 86570
333 11119 21172 47042 70004 90922=
71076 15/// /0000 11215 21244 39619 40024 53005 60001 333 11175
21218 70000=
71077 15/// /3110 11103 21122 39464 40007 51024 60001 333 11060
21103 70005=
71091 45/// /0904 11270 39700 49913 52025 6///1 333 7////=
71093 45/// /2522 11229 39389 49889 51017 6///1 333 11194 21238
7////=
71095 17648 81707 11234 21259 39813 49894 51030 69901 7714/ 333
11201 21242 70003=
71101 45/// /1320 10050 20034 39955 49963 56071 6///1 333 10059
20009 7////=
71104 13874 81208 11024 21047 38986 40100 58009 60001 8807/ 333
11008 21069 70006=
71300 15/// /1304 11011 21029 30094 40220 56013 60001 333 11008
21127 70020=
71301 15/// ///// 11034 21035 39742 40147 55006 60001 333 11031
21119 70000=
71306 15966 02708 11238 21257 30036 40069 51024 60001 333 11170
21241 70000=
71307 15/// /1410 10024 20016 39901 40154 56035 60001 333 10030
21029 70014=
71312 15/// /2604 11150 21163 39522 49985 53012 60001 333 11078
21161 70026=
71316 15/// /3007 11061 21085 39328 40014 51023 60001 333 11035
21106 70000=
71319 45/// ///// 11093 21102 39328 40220 51001 6///1 333 11075
21169 7////=
71321 15/// /3604 11275 21300 39934 49979 51026 60001 333 11205
21283 70003=
71322 15/// /3507 11326 21356 30064 40078 53020 60001 333 11307
21327 70000=
71323 15/// /1703 11093 21147 39958 40255 56004 60001 333 11082
21263 70000=
71512 15/// /3004 11086 21097 30176 40191 50000 60001 333 11076
21172 70000=
71516 15/// /2804 11062 21085 39116 40019 53022 60001 333 11015
21066 70000=
71524 15/// /0203 11098 21125 30233 40261 57009 60001 333 11098
21211 70000=
71525 15/// /0502 11050 21081 60001 333 10027 21098 70000=
71534 15109 81407 10001 20001 39900 40176 58019 60001 333 10001
21111 70010=
71554 15/// /2011 11064 21118 30209 40215 58008 60001 333 11058
21144 70000=
71555 15/// /3013 10005 21124 38502 40059 53026 60001 333 10026
21034 70000=
71560 15/// /1505 11036 21052 39670 49975 51004 60001 333 11032
21104 70000=
71569 15/// /3105 11072 21079 39300 40005 51018 60001 333 11064
21147 70006=
71572 17/// /0807 11156 21171 39775 40009 51012 60021 7//4/ 333
11122 21156 70025=
71577 45/// ///// 11059 21069 6///1 333 11048 21146 7////=
71868 15/// /2105 11082 21085 39541 49987 51012 60001 333 11051
21141 70002=
71871 15966 02712 11066 21083 39210 40022 53019 60001 333 11036
21098 70000=
71877 13586 70503 11043 21086 38797 40077 52038 60001 81171 333
10022 21049 70000=
71887 11783 81002 10003 21015 39702 40128 58001 69901 70282 8457/
333 10015 21030 47011 79999 90942=
71889 13674 71904 10020 21006 39713 40133 53012 60001 81570 333
10033 20014 70004=
71112 17/// ///// 69961 7//4/ 333 70110=
71115 17/// /1007 10009 20008 39544 40128 53005 60021 7//4/ 333
10016 21022 70076=
71116 15/// /3117 11006 21046 38947 40042 53025 60001 333 10008
21078 70000=
71132 15866 10906 11272 21307 39716 40044 51006 60001 333 11234
21272 70000=
71136 15/// /3110 11098 21107 39489 40007 51022 60001 333 11090
21181 70000=
0000060600
734
USAA01 NZCM 110000
TTAA 61001 89664
99997 00056 18501 00512 ///// ///// 92601 07158 18518
85255 11341 17017 70716 21114 15006 50514 33959 24513
40666 44759 24520 30855 51765 24023 25975 45585 24514
20124 43786 24513 15318 43586 26009 10592 41586 23504
88320 52361 23026
77999
31313 48008 82219=

0000069700
87361=
0000011200
87368=
0000015000
87382
0000012800
87386=
0000045700
87427
0000045800
87444
0000047900
87464=
0000052100
87578=
0000056400
87893
0000058500
88065
0000058500
88359=
0000071100
90629
0000071100
91722
0000082000
735
SMCH03 SCSC 110000
AAXX 11004
85864 12680 72405 10124 20040 40217 52023 60001 84244
  333 10177 56666 84840 84070=
85874 32984 /3121 10106 20027 39565 40188 53024
  333 10153=
85934 12560 82316 10089 20033 40096 50005 60001 8452/
  333 10112 56660 84630 88460=
89054 31462 82611 11002 21008 40026 57004 72272 888//
  333 21008 56099 88817 96222=
89056 11460 72613 11008 21037 40031 57006 60004 70182 87500
  333 10002 21015 56600 83612 86615=
89057 11560 82410 10002 21027 40040 54000 69904 70272 8672/
  333 10015 21003 56559 86624 88524 93199=
89058 11370 82512 10003 21036 30014 40035 57003 69901 77000 885//=
89059 12460 72209 11006 21025 40013 56032 60004 876//
  333 10010 21002 75599 87716=
89251 32468 82713 11004 21021 40010 57010 69902 77077 8552/
  333 10000=
0000171100
736
SMCO01 KWBC 110000
AAXX 11001
80002 32470 30704 10272 20228 82101 333 10290 563/0 82818=
80035 32/70 01204 10283 20168 30111 40116 333 10340 59008=
80091 31460 20000 10286 20222 70500 82800 333 10342 569// 82615
555 18000 3267/ 4//442=
80099 32966 00000 10260 20209 39895 40040 80001 333 10335 56//9
59003 81070=
80112 31465 80803 10166 20147 37890 70522 85881 333 10214 56999
58001 85812 83358=
80211 31570 60000 10218 20171 70522 84930 333 10264 5688/ 57981
84923 83360 555 19010 3193/ 4//32=
80222 31562 72903 10134 20095 37508 70522 83875 333 10201 56699
59003 83820 83358=
80001 32470 30807 10272 20234 30112 40113 83200 333 10287 56399
59010 83818=
80009 31560 00203 10290 20183 30072 40077 70500 80000 333 10346
56999 58001=
80028 31960 00104 10260 20229 30055 40090 70500 333 10318 59003=
80036 31968 00404 10346 20130 70500 333 10360=
80063 31565 13204 10286 20240 70511 81400 333 10344 567// 81620
555 18000 3297/=
80097 32570 42702 10252 20210 3//// 4//// 82841 333 10293 56999
5//// 82823=
80144 31560 40000 10270 20240 70511 84200 333 10310 56009 84820=
80210 31460 50000 10210 20180 38649 70522 82876 333 10250 56699
57894 59010 82817 83070=
80259 31560 73604 10244 20185 39032 70522 82839 333 10280 56849
59005 82820 84360=
80315 32665 70000 10272 20226 39562 40056 81150 333 10298 5608/
59008 81840 87362=
80022 31966 00303 10274 20218 30083 40085 70500 333 10310 58000=
80094 31464 52602 10217 20185 38788 70500 84131 333 10258 56999
59004 84815=
80214 31460 70000 10228 20202 70522 83670 333 10264 5677/ 83617
85457=
80398 12470 40000 10250 20242 39986 40081 60071 82831 333 10308
56999 59013 82816 83358=
0000071900
737
SMMX01 KWBC 110000
AAXX 11001
76393 31910 11103 10234 20116 39532 40097 52012 70540 80008 92345
333 10278 20145 30/// 50191 56008 59039 70000 91106 91403=
76845 32460 62802 10168 20138 37931 40141 51003 82340 86600 333
10225 20070 30/// 50151 56300 59018 70000 86712=
76680 31558 72303 10189 20054 37733 40072 52006 70544 86820 92355
333 10210 20096 30/// 50281 56550 57891 59011 70000 83625=
76805 32570 12502 10296 20209 30101 40107 53004 81200 92350 333
10351 20238 30/// 50521 563// 59007 70000 81830=
76751 06/// /0902 10240 20207 30131 40143 51005 60001 7//// 8////
92350 333 0//// 10307 20201 30/// 4//// 50329 54/// 56/// 57///
59023 60007 70004 8//// 8//// 8//// 9//// 9/=
0000075100
738
USAA01 NZCM 110000
TTAA 61001 89664
99997 00056 18501 00512 ///// ///// 92601 07158 18518
85255 11341 17017 70716 21114 15006 50514 33959 24513
40666 44759 24520 30855 51765 24023 25975 45585 24514
20124 43786 24513 15318 43586 26009 10592 41586 23504
88320 52361 23026
77999
31313 48008 82219=

0000069700
87361=
0000011200
87368=
0000015000
87382
0000012800
87386
0000045600
87406
0000047700
87410
0000049800
87416
0000051900
87420
0000047800
87441=
0000045900
87536
0000052100
87559=
0000054300
87869
0000068800
88016
0000068800
88209
0000066800
88489
0000068900
88771
0000071000
89204
0000071100
89740
0000060700
90630
0000064900
91725
0000066800
739
USAA01 NZCM 110000
TTAA 61001 89664
99997 00056 18501 00512 ///// ///// 92601 07158 18518
85255 11341 17017 70716 21114 15006 50514 33959 24513
40666 44759 24520 30855 51765 24023 25975 45585 24514
20124 43786 24513 15318 43586 26009 10592 41586 23504
88320 52361 23026
77999
31313 48008 82219=

0000069700
87361=
0000011200
87368=
0000015000
87382
0000012800
87386=
0000045700
87427
0000045800
87444=
0000048000
87537
0000058300
87569
0000050100
87626=
0000052300
88110
0000064700
88385
0000062700
88681
0000068900
89178
0000073100
89778
0000062800
90633
0000064900
91726
0000070900
740
USAA01 NZCM 110000
TTAA 61001 89664
99997 00056 18501 00512 ///// ///// 92601 07158 18518
85255 11341 17017 70716 21114 15006 50514 33959 24513
40666 44759 24520 30855 51765 24023 25975 45585 24514
20124 43786 24513 15318 43586 26009 10592 41586 23504
88320 52361 23026
77999
31313 48008 82219=

0000069700
87361=
0000011200
87368
0000009600
87371
0000035800
87378
0000037300
87381=
0000039500
87413=
0000052000
87479
0000056200
87492=
0000046000
87710
0000056400
87802
0000060500
87978
0000058500
88163
0000060600
88449
0000058600
88738
0000066900
89218
0000060700
89773
0000069000
90659
0000083500
91740
0000079200
741
USAA01 NZCM 110000
TTAA 61001 89664
99997 00056 18501 00512 ///// ///// 92601 07158 18518
85255 11341 17017 70716 21114 15006 50514 33959 24513
40666 44759 24520 30855 51765 24023 25975 45585 24514
20124 43786 24513 15318 43586 26009 10592 41586 23504
88320 52361 23026
77999
31313 48008 82219=

0000069700
87361=
0000011200
87368
0000009600
87371
0000035800
87378
0000037300
87381=
0000039500
87413
0000041600
87422
0000043700
87443
0000045800
87466
0000054100
87469
0000050000
87483
0000045900
87525
0000058300
87572
0000060400
87624
0000058400
87661=
0000060600
88227
0000062700
88498
0000071000
88765
0000062800
89212
0000069000
89746
0000079300
90664
0000083500
91738
0000300200
742
SMCN04 KWBC 110000 RRK
AAXX 11004
71142 15966 62815 11046 21084 39052 40021 53023 60001 333 11025
21063 70000=
71147 15/// /2906 11042 21056 60001 333 11016 21142 70007=
71168 15/// /2704 11012 21016 39436 40022 51005 60001 333 11003
21041 70000=
71176 45/// /2631 11207 39251 49948 53018 6///1 333 11194 21218
7////=
71184 45/// /0405 11088 21105 6///1 333 11087 21183 7////=
71193 15/// /1911 11021 21042 39757 40125 55003 60001 333 11013
21113 70000=
71255 17/// ///// 11126 21146 69921 7//4/ 333 11126 21140 70016=
71282 45/// /1507 10003 20000 39904 40179 56014 6///1 333 10003
21131 7////=
71370 45/// /0502 11106 21125 30105 40249 57007 6///1 333 11106
21220 7////=
71379 15/// /1707 11067 21090 30003 40180 56009 60001 333 11051
21296 70010=
71388 45/// /1502 11125 21151 30022 40222 55000 6///1 333 11080
21313 7////=
71424 45/// /2211 6///1 333 7////=
71429 15/// /2616 11064 21108 30191 40211 55003 60001 333 11053
21152 70000=
71442 15/// /3302 11077 21091 39660 49978 50008 60001 333 11071
21167 70004=
71448 17/// /2102 11034 21040 39637 49967 51001 60011 7//4/ 333
11032 21085 70017=
71455 15/// /2811 11055 21076 39222 40022 53026 60001 333 11047
21109 70000=
71456 15/// /2409 11063 21074 39397 49997 52011 60001 333 11063
21120 70009=
71457 15/// /3505 11062 21092 39152 40051 51031 60001 333 10006
21116 70000=
71463 45/// /1908 10033 20014 39963 40190 56017 6///1 333 10033
21056 7////=
71465 45/// /1109 10013 20009 39925 40144 58037 6///1 333 10020
21025 7////=
71477 15/// /1222 10053 20036 39974 49982 58057 60001 333 10054
20013 70008=
71496 15/// /2505 11065 21072 39398 40016 53019 60001 333 11063
21136 70000=
71499 17656 80904 11170 21188 39360 40000 51014 60001 771// 333
11144 21170 70000=
71704 17359 81712 10024 20017 39918 40141 58027 60111 71044 333
10024 21047 70155=
71716 17/64 /0000 11093 21114 30037 40256 58007 69951 7714/ 333
11078 21294 70005=
71723 15/// /0502 11091 21106 30239 40249 56008 60001 333 11091
21185 70000=
71742 15/// /2417 11080 21115 30000 40192 56012 60001 333 11055
21159 70000=
71748 15/// /2503 11061 21071 39682 49974 50004 60001 333 11057
21177 70000=
71816 12974 82620 11113 21193 30044 40107 57007 60001 88030 333
11111 21208 70000=
71832 15/// /1805 11007 21029 39738 40064 55004 60001 333 10003
21066 70000=
71834 11374 81912 11031 21041 39618 40047 57006 69901 73672 886//
333 11028 21061 44033 70004 90951=
71854 11340 31305 11064 21075 39509 49984 57005 60021 77177 835//
333 11064 21086 48048 90987=
71858 15/// /0902 11096 21108 39702 49986 50009 60001 333 11091
21110 70002=
71918 45/// ///// 11355 39530 49969 51014 6///1 333 11329 21356
7////=
71944 15/// /1608 11043 21063 39226 40068 56001 60001 333 11029
21130 70000=
71975 45/// /2617 11202 39177 49911 51020 6///1 333 11196 21217
7////=
71985 45/// /2912 11284 21314 30043 40049 50007 6///1 333 11237
21290 7////=
0000066800
743
USAA01 NZCM 110000
TTAA 61001 89664
99997 00056 18501 00512 ///// ///// 92601 07158 18518
85255 11341 17017 70716 21114 15006 50514 33959 24513
40666 44759 24520 30855 51765 24023 25975 45585 24514
20124 43786 24513 15318 43586 26009 10592 41586 23504
88320 52361 23026
77999
31313 48008 82219=

0000069700
87361=
0000011200
87368=
0000015000
87382=
0000030600
87414
0000014800
87423=
0000050000
87499=
0000062500
87711
0000054300
87791
0000060500
87985
0000068800
88189
0000073000
88467
0000066800
88730
0000071000
89211
0000083400
89738
0000069000
90666
0000064900
91733
0000085400
744
USAA01 NZCM 110000
TTAA 61001 89664
99997 00056 18501 00512 ///// ///// 92601 07158 18518
85255 11341 17017 70716 21114 15006 50514 33959 24513
40666 44759 24520 30855 51765 24023 25975 45585 24514
20124 43786 24513 15318 43586 26009 10592 41586 23504
88320 52361 23026
77999
31313 48008 82219=

0000069700
87361=
0000011200
87368
0000009600
87371
0000035800
87378
0000037300
87381
0000039400
87385
0000039400
87407=
0000012000
87430
0000054000
87439
0000049900
87460
0000047900
87470
0000052100
87487
0000054200
87520
0000052100
87554
0000050100
87606
0000058400
87669
0000060500
87776
0000066700
87962
0000062600
88147
0000070900
88431
0000068900
88725
0000060700
89193
0000066900
89762
0000077300
90679
0000077300
91741
0000075100
745
USAA01 NZCM 110000
TTAA 61001 89664
99997 00056 18501 00512 ///// ///// 92601 07158 18518
85255 11341 17017 70716 21114 15006 50514 33959 24513
40666 44759 24520 30855 51765 24023 25975 45585 24514
20124 43786 24513 15318 43586 26009 10592 41586 23504
88320 52361 23026
77999
31313 48008 82219=

0000069700
87361=
0000011200
87368
0000009600
87371
0000035800
87378
0000037300
87381=
0000039500
87413
0000041600
87422
0000043700
87443
0000045800
87466=
0000054200
87540
0000048000
87567
0000050100
87610
0000056300
87645=
0000064700
88246
0000066800
88521
0000060600
88791
0000060700
89246
0000073100
89783
0000069000
90668
0000071100
91748
0000066800
746
USAA01 NZCM 110000
TTAA 61001 89664
99997 00056 18501 00512 ///// ///// 92601 07158 18518
85255 11341 17017 70716 21114 15006 50514 33959 24513
40666 44759 24520 30855 51765 24023 25975 45585 24514
20124 43786 24513 15318 43586 26009 10592 41586 23504
88320 52361 23026
77999
31313 48008 82219=

0000069700
87361=
0000011200
87368
0000009600
87371
0000035800
87378
0000037300
87381=
0000039500
87413
0000041600
87422
0000043700
87443
0000045800
87466=
0000054200
87540=
0000048100
87746=
0000050300
88800
0000064800
89261
0000069000
89804
0000071100
90688
0000064900
91752
0000075100
747
USAA01 NZCM 110000
TTAA 61001 89664
99997 00056 18501 00512 ///// ///// 92601 07158 18518
85255 11341 17017 70716 21114 15006 50514 33959 24513
40666 44759 24520 30855 51765 24023 25975 45585 24514
20124 43786 24513 15318 43586 26009 10592 41586 23504
88320 52361 23026
77999
31313 48008 82219=

0000069700
87361=
0000011200
87368=
0000015000
87382
0000012800
87386
0000045600
87406=
0000047800
87429
0000015700
87445=
0000050000
87538
0000054200
87552
0000066600
87599
0000058400
87652
0000058400
87779
0000056400
87980
0000062600
88161
0000064700
88444
0000062700
88735
0000069000
89220
0000069000
89764
0000075200
90682
0000073200
91755
0000073000
748
USAA01 NZCM 110000
TTAA 61001 89664
99997 00056 18501 00512 ///// ///// 92601 07158 18518
85255 11341 17017 70716 21114 15006 50514 33959 24513
40666 44759 24520 30855 51765 24023 25975 45585 24514
20124 43786 24513 15318 43586 26009 10592 41586 23504
88320 52361 23026
77999
31313 48008 82219=

0000069700
87361=
0000011200
87368=
0000015000
87382
0000012800
87386
0000045600
87406
0000047700
87410=
0000049900
87467
0000047900
87475
0000047900
87491
0000056200
87512
0000054200
87550
0000058400
87597
0000062500
87670
0000054300
87796
0000062600
87990
0000058500
88183
0000064700
88425=
0000075200
90660
0000064900
91751
0000066800
749
USAA01 NZCM 110000
TTAA 61001 89664
99997 00056 18501 00512 ///// ///// 92601 07158 18518
85255 11341 17017 70716 21114 15006 50514 33959 24513
40666 44759 24520 30855 51765 24023 25975 45585 24514
20124 43786 24513 15318 43586 26009 10592 41586 23504
88320 52361 23026
77999
31313 48008 82219=

0000069700
87361=
0000011200
87368
0000009600
87371
0000035800
87378
0000037300
87381
0000039400
87385
0000039400
87407=
0000012000
87430
0000054000
87439
0000049900
87460
0000047900
87470=
0000052200
87585=
0000060600
88100
0000060600
88383=
0000075200
90634
0000062800
91753
0000009400
750
UPCG01 FCBB 110000
PPAA ///// 64400 NIL=
PPAA 60231 64450 55185 07005 77999=
0000003800
751
SMMW21 FWCL 110000
NIL
0000073000
752
USAA01 NZCM 110000
TTAA 61001 89664
99997 00056 18501 00512 ///// ///// 92601 07158 18518
85255 11341 17017 70716 21114 15006 50514 33959 24513
40666 44759 24520 30855 51765 24023 25975 45585 24514
20124 43786 24513 15318 43586 26009 10592 41586 23504
88320 52361 23026
77999
31313 48008 82219=

0000069700
87361=
0000011200
87368
0000009600
87371
0000035800
87378
0000037300
87381=
0000039500
87413=
0000052000
87479
0000056200
87492
0000045900
87517
0000054200
87560
0000060400
87620
0000064600
87679=
0000058500
88249
0000062700
88520
0000052400
88761
0000071000
89230
0000060700
89781
0000060700
90642
0000077300
91737
00000000