0000011100
493
UANT99 KDDL 111017
ARP RCH944 4827N02630W 1017 F330 MS53 196/81 KT
00221A DDL XXN 111017 F73A
0000009200
494
SAIN90 VEBS 110600
METAR VEBS 110600Z 16006KT 2000 HZ NSC 28/17 Q1016 NOSIG=
0000114600
495
SNCN19 CWAO 110518
OOXX
KWP40 11031 99293 10479 ///// 00211
     26/// /1901 10136 29100 30091 90303 333 60000=
KWP40 11031 99293 10479 ///// 00211
     26/// /1901 10136 29100 30094 90313 333 60000=
KWP40 11031 99293 10479 ///// 00211
     26/// /1702 10135 29100 30095 90323 333 60000=
KWP40 11031 99293 10479 ///// 00211
     26/// /2001 10135 29100 30095 90333 333 60000=
KWP40 11031 99293 10479 ///// 00211
     26/// /1801 10135 29100 30096 90343 333 60000=
KWP40 11031 99293 10479 ///// 00211
     26/// /1901 10134 29100 30097 90353 333 60000=
KWP40 11041 99293 10479 ///// 00211
     26/// /2101 10133 29100 30100 90403 333 60000=
KWP40 11041 99293 10479 ///// 00211
     26/// /1801 10133 29100 30100 90413 333 60000=
KWP40 11041 99293 10479 ///// 00211
     26/// /1701 10133 29100 30101 90423 333 60000=
KWP40 11041 99293 10479 ///// 00211
     26/// /2001 10133 29100 30105 90433 333 60000=
KWP40 11041 99293 10479 ///// 00211
     26/// /2203 10133 29100 30107 90443 333 60000=
KWP40 11041 99293 10479 ///// 00211
     26/// /2204 10132 29100 30109 90453 333 60000=

0000114600
496
SNCN19 CWAO 110537
OOXX
FJP26 11031 99178 31775 ///// 00311
     26/// /1706 10315 29055 30015 90330 333 60000=
FJP26 11031 99178 31775 ///// 00311
     26/// /1707 10311 29057 30015 90340 333 60000=
FJP26 11031 99178 31775 ///// 00311
     26/// /1606 10312 29058 30014 90350 333 60000=
FJP26 11041 99178 31775 ///// 00311
     26/// /1506 10308 29059 30013 90400 333 60000=
FJP26 11041 99178 31775 ///// 00311
     26/// /1606 10308 29059 30013 90410 333 60000=
FJP26 11041 99178 31775 ///// 00311
     26/// /1606 10306 29060 30014 90420 333 60000=
FJP26 11041 99178 31775 ///// 00311
     26/// /1707 10302 29061 30013 90430 333 60000=
FJP26 11041 99178 31775 ///// 00311
     26/// /1607 10303 29061 30015 90440 333 60000=
FJP26 11041 99178 31775 ///// 00311
     26/// /1506 10300 29062 30015 90450 333 60000=
FJP26 11051 99178 31775 ///// 00311
     26/// /1606 10298 29063 30017 90500 333 60000=
FJP26 11051 99178 31775 ///// 00311
     26/// /1606 10296 29063 30018 90510 333 60000=
FJP26 11051 99178 31775 ///// 00311
     26/// /1605 10295 29064 30020 90520 333 60000=

0000114600
497
SNCN19 CWAO 110531
OOXX
PGP51 11031 99026 31508 ///// 00401
     26/// /0000 10289 29080 30059 90330 333 60000=
PGP51 11031 99026 31508 ///// 00401
     26/// /0000 10291 29077 30059 90340 333 60000=
PGP51 11031 99026 31508 ///// 00401
     26/// /0000 10290 29076 30057 90350 333 60000=
PGP51 11041 99026 31508 ///// 00401
     26/// /0000 10288 29077 30054 90400 333 60000=
PGP51 11041 99026 31508 ///// 00401
     26/// /0000 10282 29080 30053 90410 333 60000=
PGP51 11041 99026 31508 ///// 00401
     26/// /0000 10260 29086 30056 90420 333 69980=
PGP51 11041 99026 31508 ///// 00401
     26/// /0000 10255 29089 30055 90430 333 60020=
PGP51 11041 99026 31508 ///// 00401
     26/// /0000 10252 29091 30055 90440 333 60060=
PGP51 11041 99026 31508 ///// 00401
     26/// /0000 10253 29091 30055 90450 333 60040=
PGP51 11051 99026 31508 ///// 00401
     26/// /0000 10252 29091 30053 90500 333 60030=
PGP51 11051 99026 31508 ///// 00401
     26/// /0000 10252 29091 30051 90510 333 60020=
PGP51 11051 99026 31508 ///// 00401
     26/// /0000 10254 29091 30049 90520 333 60020=

0000114600
498
SNCN19 CWAO 110523
OOXX
PAP50 11031 99090 70795 ///// 00901
     26/// /3402 10246 29000 30008 90320 333 60000=
PAP50 11031 99090 70795 ///// 00901
     26/// /3303 10245 29000 30009 90330 333 60000=
PAP50 11031 99090 70795 ///// 00901
     26/// /3403 10245 29000 30012 90340 333 60000=
PAP50 11031 99090 70795 ///// 00901
     26/// /3403 10245 29000 30011 90350 333 60000=
PAP50 11041 99090 70795 ///// 00901
     26/// /3403 10246 29000 30010 90400 333 60000=
PAP50 11041 99090 70795 ///// 00901
     26/// /3502 10245 29000 30010 90410 333 60000=
PAP50 11041 99090 70795 ///// 00901
     26/// /3402 10246 29000 30010 90420 333 60000=
PAP50 11041 99090 70795 ///// 00901
     26/// /3303 10244 29000 30010 90430 333 60000=
PAP50 11041 99090 70795 ///// 00901
     26/// /3303 10244 29000 30010 90440 333 60000=
PAP50 11041 99090 70795 ///// 00901
     26/// /3402 10243 29000 30010 90450 333 60000=
PAP50 11051 99090 70795 ///// 00901
     26/// /3403 10244 29000 30008 90500 333 60000=
PAP50 11051 99090 70795 ///// 00901
     26/// /3403 10244 29000 30008 90510 333 60000=

0000114600
499
SNCN19 CWAO 110543
OOXX
CKP23 11031 99212 51598 ///// 00051
     26/// /0305 10277 29083 30081 90340 333 60000=
CKP23 11031 99212 51598 ///// 00051
     26/// /0306 10277 29083 30082 90350 333 60000=
CKP23 11041 99212 51598 ///// 00051
     26/// /0305 10276 29083 30083 90400 333 60000=
CKP23 11041 99212 51598 ///// 00051
     26/// /0306 10275 29082 30084 90410 333 60000=
CKP23 11041 99212 51598 ///// 00051
     26/// /0406 10273 29082 30085 90420 333 60000=
CKP23 11041 99212 51598 ///// 00051
     26/// /0406 10272 29082 30086 90430 333 60000=
CKP23 11041 99212 51598 ///// 00051
     26/// /0406 10271 29083 30087 90440 333 60000=
CKP23 11041 99212 51598 ///// 00051
     26/// /0505 10270 29083 30088 90450 333 60000=
CKP23 11051 99212 51598 ///// 00051
     26/// /0405 10269 29084 30090 90500 333 60000=
CKP23 11051 99212 51598 ///// 00051
     26/// /0405 10269 29084 30089 90510 333 60000=
CKP23 11051 99212 51598 ///// 00051
     26/// /0405 10268 29085 30090 90520 333 60000=
CKP23 11051 99212 51598 ///// 00051
     26/// /0405 10268 29085 30091 90530 333 60000=

0000114600
500
SNCN19 CWAO 110528
OOXX
PHP52 11031 99146 11214 ///// 06421
     26/// /0000 10231 29058 39441 90330 333 60000=
PHP52 11031 99146 11214 ///// 06421
     26/// /0000 10227 29059 39440 90340 333 60000=
PHP52 11031 99146 11214 ///// 06421
     26/// /0000 10228 29060 39438 90350 333 60000=
PHP52 11041 99146 11214 ///// 06421
     26/// /0000 10232 29061 39437 90400 333 60000=
PHP52 11041 99146 11214 ///// 06421
     26/// /0000 10235 29060 39438 90410 333 60000=
PHP52 11041 99146 11214 ///// 06421
     26/// /0000 10232 29060 39434 90420 333 60000=
PHP52 11041 99146 11214 ///// 06421
     26/// /0000 10234 29060 39435 90430 333 60000=
PHP52 11041 99146 11214 ///// 06421
     26/// /0000 10234 29059 39432 90440 333 60000=
PHP52 11041 99146 11214 ///// 06421
     26/// /0000 10235 29060 39432 90450 333 60000=
PHP52 11051 99146 11214 ///// 06421
     26/// /0000 10233 29060 39431 90500 333 60000=
PHP52 11051 99146 11214 ///// 06421
     26/// /0000 10233 29063 39431 90510 333 60000=
PHP52 11051 99146 11214 ///// 06421
     26/// /0000 10237 29061 39429 90520 333 60000=

0000030100
501
UDEU02 EGRR 110612
AMDAR 1102
LVR EU2454   3254N 02804E 110211 F360 MS547 335/079 TB0 S031=
LVR EU2454   3329N 02724E 110218 F359 MS545 335/080 TB0 S031=
LVR EU2454   3404N 02645E 110225 F360 MS547 326/081 TB0 S031=
LVR EU2454   3443N 02613E 110232 F359 MS550 326/082 TB0 S031=
0000248300
502
SMKO03 RKSL 110600
AAXX 11064
47090 32970 33603 10047 21152 30249 40272 57018 80001 333 92012=
47095 32970 52306 10010 21195 30107 40301 57022 80001=
47097 329// /2504 10023 21162 30211 40310 57020=
47098 329// /2507 10019 21206 30163 40301 57020=
47099 329// /2305 10012 21167 30272 40310 57016=
47100 32970 42515 11034 21160 39336 40285 55017 80001=
47102 41556 81606 10001 21021 30118 40302 57021 72272 8552/=
47104 329// 43203 10040 21182 30174 40273 57017 80001=
47106 329// /2905 10047 21170 30225 40275 57018=
47112 32970 62504 10009 21132 30221 40308 57015 80002 333 92012=
47114 32968 52705 10014 21131 30117 40305 57021 80001=
47119 32670 62505 10016 21158 30270 40313 57015 86500=
47121 329// /2509 10024 21126 39996 40297 57024=
47127 329// /2703 10020 21150 30166 40312 57019=
47129 32670 62501 10022 21088 30278 40315 57021 82501=
47130 32970 60905 10046 21099 30216 40279 57016 80001 333 92022=
47131 32665 62503 10025 21125 30241 40313 57019 82501=
47135 329// /2708 10014 21095 39998 40305 57018=
47136 32965 62906 10044 21125 30116 40291 57025 80001=
47137 329// /2707 10034 21110 30178 40299 57019=
47140 32661 50000 10035 21035 30281 40310 57024 85500 333 92011=
47143 329// /2904 10056 21098 30226 40306 57022=
47145 32668 62703 10022 21158 30280 40307 57019 83501=
47146 31659 53204 10044 21065 30242 40309 57021 70522 83501=
47150 32961 63202 10035 21057 30289 40309 57023 80001=
47152 32968 33406 10056 21098 30248 40291 57019 80001=
47154 329// /2707 10044 21087 30242 40303 57019=
47155 32965 60504 10050 21088 30248 40295 57024 80001=
47156 32667 32903 10051 21070 30217 40308 57024 83500=
47157 32970 63207 10042 21110 30007 40287 57026 80001=
47162 32966 42904 10051 21070 30258 40299 57023 80001 333 92022=
47169 32670 23405 10053 21043 30213 40309 57023 82500 333 92032=
47170 32970 60207 10046 21066 30261 40305 57025 80001 333 92024=
47171 329// /3403 10038 21062 30254 40310 57020=
47172 329// /2705 10055 21073 30235 40303 57022=
47173 329// /2705 10038 21070 30136 40295 57027=
47174 32665 53607 10038 21076 30089 40295 57022 85500=
47175 32970 62908 10021 21046 39717 40303 57020 80001 333 92023=
47185 32970 63609 10053 21032 30212 40305 57018 81031 333 92034=
47188 32970 53406 10059 21048 30278 40300 57021 81032 333 92022=
47189 32668 41404 10091 20000 30234 40294 57019 81501 333 92022=
47192 32969 52003 10053 21101 30257 40295 57029 82031=
0000045100
503
SAUK53 EGRR 110600
METAR EGUL 110558Z AUTO 27009KT 9999 -RA FEW003 OVC038 07/07 A2985
      RMK AO2 RAE0542DZB0507E0511B0542 SLP112 P0004 60010
      T00720072 10079 20072 53008=
METAR EGUN 110558Z AUTO 27007KT 9999 -RA FEW007 SCT033 OVC044 07/07
      A2987 RMK AO2 SLP118 P0002 60007 T00710071 10079 20071 53008=
METAR EGVA 110558Z AUTO 28007KT 9999 CLR 04/04 A2995 RMK AO2 SLP148
      60001 T00400040 10081 20032 52024=
0000010200
504
SNUK42 EGRR 110400 RRB
AAXX 11044
03014 46/// /2828 49988 52003
  333 90710 91135=
0000125000
505
SREW41 EGRR 110600
03002000 03005002 03008000 03017000 03026000 03031OTR 03034010
03037OTR 03044004 03047OTR 03062002 03063OTR 03066000 03068000
03075000 03080000 03088000 03091000 03100002 03105000 03111000
03132000 03134OTR 03136000 03144000 03153000 03155000 03158000
03162000 03166000 03171000 03204OTR 03210000 03212000 03214000
03220000 03224OTR 03225000 03226000 03230000 03238002 03240000
03257000 03261000 03265000 03266000 03275000 03281000 03292000
03301000 03302OTR 03305000 03313000 03316000 03318000 03321002
03330OTR 03344000 03346000 03351000 03354000 03373000 03377OTR
03379000 03382000 03391002 03392004 03405000 03409000 03410000
03414000 03462OTR 03469004 03482006 03488012 03502000 03503000
03520000 03522000 03529000 03535OTR 03544OTR 03560OTR 03590OTR
03604000 03605002 03609000 03628000 03647000 03649000 03658002
03660OTR 03672004 03684002 03693OTR 03707000 03710000 03716000
03740000 03743000 03746000 03749000 03761002 03768004 03769006
03770004 03772002 03781010 03797000 03803000 03808000 03809000
03823000 03827000 03839000 03840000 03853000 03857000 03862000
03866002 03872008 03876000 03882000 03901000 03904000 03907002
03911002 03915002 03916000 03917002 03923OTR=
0000029600
506
SMNO23 ENMI 110600 RRA
AAXX 11061
01180 11982 02201 11080 21134 30107 40167 52004 60002 70200 333
      21097 70000 91105=
01411 16/// ///// 10061 20026 39970 49997 56002 6//// 333 20058=
01442 16/// /1703 10015 20003 39736 49994 57002 60002 333 20009
      70000 91107=
0000015400
507
SMNO24 ENMI 110600 RRA
AAXX 11061
01393 11235 21001 11169 21189 39210 40062 53006 60042 77071 82600
      333 21169 47036 70079 91103=
0000013600
508
SMNO24 ENMI 110600 CCA
AAXX 11061
01380 11120 80803 11112 21130 69922 77272 886// 333 21113 49086
      70027 91106=
0000021700
509
SMNO25 ENMI 110600 RRA
AAXX 11061
01265 16/// /2502 11133 21147 39431 40043 53004 60012 333 70057
      91104=
01469 16/// /0203 11022 21031 39812 49986 53004 60012 333 21038
      70010 91105=
0000017700
510
SMNO26 ENMI 110600 RRA
AAXX 11061
01476 46/// /2307 10042 20022 39974 49980 57002 333 20023 91111=
01488 16/// /1101 11022 21041 60012 333 21026 70011 91102=
0000049700
511
SMIL01 BIRK 110600
AAXX 11064
04005 42888 60504 10034 21023 49933 51007 86800 555 3/310=
04018 42681 22609 10006 21050 49964 52018 82100 555 3//14 82839=
04030 42582 72706 10011 21025 49964 52021 70182 83870 555 3//12 81820 83648 87460=
04048 NIL=
04063 41450 81404 10008 21020 49967 58002 78572 8572/ 555 3//09=
04077 NIL=
04082 41560 80717 10036 20021 49909 57006 76166 8772/ 555 3//17 87726 88556=
04097 41560 81217 10034 20002 49988 57006 76176 8572/ 555 3/418=
0000163200
512
SMTU10 LTAA 110600
AAXX 11064
17022 12965 42502 10088 20048 30067 40234 52013 60002 80008
 333 20088 30007 55033 84270 91113 92427=
17031 12670 60901 10056 21021 30213 40220 52040 60002 81101
 333 20011 30000 81836 86070 91110=
17038 12970 02204 10119 21043 30155 40207 52035 60002
 333 20051 30/// 91114 92428=
17050 11/01 92301 10013 20012 30180 40244 52018 60002 74544
 333 20012 31002 55000 70002 89/00 91103=
17060 11956 02804 10076 20056 30197 40238 52017 60002 71000
 333 20066 30002 50101 55001 20904 91109=
17096 11902 00000 11258 21267 38263 48550 52009 60002 74844
 333 21285 3/128 47005 50014 55001 20310=
17124 11256 80000 11017 21027 39325 40282 52010 60002 71022 886//
 333 21017 34102 50014 20063 88706 91106=
17128 11356 83003 11038 21041 39137 40290 52013 60002 71022 886//
 333 21043 34104 50014 20054 79999 88708=
17170 11656 20703 11074 21083 38343 48520 52005 60002 71000 82500
 333 21116 3//// 44003 82640=
17195 11111 80404 11050 21053 39027 48528 52012 60002 74142 886//
 333 21051 34107 50034 55030 20846 88702 91106=
17197 12960 02206 11033 21062 39130 40247 52010 60002
 333 21053 34108=
17219 11932 40000 10052 20037 30086 40236 53011 60002 71000 84030 333
20028 30001 55073 20354 84360=
17240 12970 00000 11041 21058 39083 40280 52010 60002
 333 21047 34106 55085 20712 91104=
17244 11/03 90000 11030 21030 39050 48528 52013 60002 74922
 333 21033 34/// 89/02=
17280 12970 00000 10005 21053 39421 40240 52012 60002
 333 21071 30110 50111 55011 20314=
17350 12960 03403 10037 21016 30148 40229 52017 60002
 333 20008 30///=
00000000