0000011000
193
UANT99 KDDL 111008
ARP BAW204 4759N01844W 1008 F370 MS66 227/89 KT
GVIID QXT AOW 111008 F64A
0000008800
194
SAAL31 DAAA 102100 RRA
METAR DAAT 102100Z 07002KT CAVOK 15/M03 Q1024=

0000165200
195
SAUS75 KWBC 102100
METAR
PABA NIL=
PABE 102053Z 03009KT 10SM OVC006 M11/M12 A2948=
PABI 102053Z 26003KT 3SM -SN BR BKN048 OVC070 M18/M20 A2950=
PABR 102053Z 31012KT 10SM SCT006 BKN120 M25/M28 A2991=
PABT 102053Z 00000KT 10SM FEW045 SCT150 M32/M34 A2967=
PACV 102053Z 00000KT 8SM FEW014 OVC023 00/M01 A2938=
PACZ 102055Z AUTO VRB03KT 10SM FEW021 M06/M07 A2944=
PADK 102056Z AUTO 24021G27KT 10SM SCT025 SCT037 BKN050 03/M01
     A2895=
PADL NIL=
PADU 102056Z 13012KT 8SM -RASN SCT014 BKN020 OVC026 03/00
     A2927=
PAEH 102055Z AUTO 13022G28KT 5SM -SHRA BKN003 00/00 A2936=
PAEI 102058Z AUTO 00000KT 10SM OVC080 M18/M20 A2957=
PAEN 102053Z 00000KT 1/4SM FZFG VV006 M03/M04 A2944=
PAFA 102053Z 00000KT 10SM SCT080 BKN110 M22/M25 A2959=
PAFB 102055Z 00000KT 25SM SCT080 M24/M26 A2959=
PAGA 102058Z AUTO 00000KT 10SM CLR M24/M26 A2970=
PAGK 102053Z AUTO 00000KT 3SM BR OVC085 M09/M11 A2934=
PAGS 102056Z AUTO 14007KT 10SM FEW018 SCT024 BKN031 02/01
     A2950=
PAGY 102053Z AUTO 20018G26KT 10SM BKN080 OVC095 04/00 A2943=
PAHO 102053Z 02003KT 10SM SCT010 BKN075 M01/M04 A2943=
PAIL 102053Z 00000KT 10SM OVC020 M03/M03 A2949=
PAJN 102053Z 06006KT 10SM -RA FEW011 BKN034 OVC055 03/01 A2952=
PAKN 102054Z 36005KT 10SM SCT004 BKN025 M03/M03 A2946=
PAKT 102053Z 16003KT 10SM BKN018 OVC030 03/02 A2967=
PALU 102055Z AUTO 11004KT 10SM BKN011 M19/M21 A3004=
PAMC 102053Z 00000KT 10SM OVC024 M16/M18 A2958=
PANC 102053Z 33003KT 6SM -SN BR BKN005 OVC010 M03/M04 A2942=
PANT 102053Z 12003KT 10SM FEW020 BKN030 OVC150 03/03 A2966=
PAOM 102053Z 05006KT 10SM SCT090 BKN200 M12/M18 A2966=

0000145500
196
SAUS75 KWBC 102100 RRA
METAR
PAOR 102053Z 31003KT 9SM -SN SCT022 BKN027 BKN060 M16/M18
     A2940=
PAOT 102053Z 04008KT 10SM CLR M19/M24 A2979=
PAPG NIL=
PASC 102053Z 24013KT 10SM FEW026 BKN060 OVC075 M30/M33 A2989=
PASI 102053Z 07003KT 10SM -RA SCT019 BKN034 OVC043 03/01 A2956=
PASN 102053Z COR 18006KT 10SM SCT015 BKN022 00/M01 A2918=
PASN 102053Z 18006KT 10SM BKN019 00/M01 A2918=
PATA 102052Z 00000KT 10SM CLR M33/M36 A2967=
PATC 102055Z AUTO 03021KT 10SM CLR M18/M19 A2975=
PATK 102053Z 00000KT 10SM OVC016 M07/M09 A2941=
PAUN 102056Z AUTO 09019G24KT 10SM CLR M14/M21 A2960=
PAVD 102056Z 10SM FEW020 SCT040 BKN100 M03/M07 A2939=
PAYA 102053Z 00000KT 3SM PLRA SCT012 BKN020 OVC040 01/01 A2943=
PGRO 102050Z 07015KT 7SM SCT015 SCT120 25/23 A2993=
PGUA 102058Z AUTO 05017KT 10SM FEW022 26/22 A2992=
PGUM 102054Z 06010KT 10SM CLR 26/22 A2992=
PHJH 102050Z 02010KT 15SM -SHRA FEW015 SCT030 23/20 A3000=
PHLI 102103Z 05014KT 10SM BKN023 BKN029 BKN035 25/21 A3005=
PHLI 102053Z 05015KT 10SM SCT025 BKN035 24/21 A3005=
PHMK 102054Z 05009KT 10SM SCT018 24/21 A3001=
PHNL 102053Z 07007G14KT 10SM FEW026 SCT037 SCT042 26/17 A3000=
PHNY 102056Z AUTO 04015KT 10SM CLR 24/18 A3003=
PHOG 102054Z 35008KT 10SM FEW028 SCT050 26/21 A2999=
PHTO 102053Z 02008KT 10SM FEW030 FEW050 26/19 A2999=
PMDY 102056Z AUTO 10014KT 7SM BKN041 OVC048 21/15 A3026=
PWAK 102055Z 09008KT 10SM FEW025 26/26 A3001=

0000018800
197
FTHW31 KWBC 102106 AAA
TAF AMD
PHNL 102105Z 1021/1124 05011KT P6SM FEW030 SCT045
     FM110800 03005KT P6SM FEW030 SCT050
     FM112100 13008KT P6SM FEW030 SCT050=

0000165800
198
SPUS70 KWBC 102106
SPECI
KTDR 102101Z AUTO 13006KT 12SM OVC005 18/19 A3007 RMK AO2=
KADG 102102Z AUTO 16006KT 3SM BR OVC006 02/01 A2996 RMK AO2
     TSNO=
KAKR 102102Z AUTO 15003KT 3/4SM BR OVC002 04/03 A3009 RMK AO2
     TSNO=
KAVL 102102Z 18006KT 2SM BR OVC003 09/08 A3014 RMK AO2=
KDDH 102102Z AUTO 22003KT 10SM SCT028 BKN045 02/M03 A3028 RMK
     AO2=
KEQY 102102Z AUTO 03008KT 4SM RA BR SCT003 BKN021 OVC028 07/06
     A3017 RMK AO2 P0001=
KIJD 102102Z AUTO 00000KT 3SM BR OVC007 M01/M02 A3037 RMK AO2
     T10061017=
KLWV 102102Z AUTO 19009KT 1SM RA BR BKN008 BKN017 OVC065 05/05
     A2990 RMK AO2 P0001 T00500050=
KMDW 102102Z 14008KT 1 3/4SM -RA BR SCT002 BKN005 OVC026 03/02
     A2977 RMK AO2 TSE00 P0002 $=
KMLI 102102Z 14007KT 3SM RA BR SCT008 BKN011 OVC028 02/01 A2962
     RMK AO2 PRESFR P0003=
KTAN 102102Z AUTO 00000KT 3/4SM BR OVC010 02/00 A3037 RMK AO2
     T00220000=
KTQE 102102Z AUTO 17004KT 3SM -SN OVC014 02/M01 A2956 RMK AO2
     P0000 T00221006=
KTXK 102102Z 17006KT 1 3/4SM -RA BR BKN045 BKN060 OVC075 15/14
     A2973 RMK AO2 P0000=
KVPZ 102102Z AUTO 16008KT 3/4SM +RA BR OVC004 02/02 A2982 RMK AO2
     P0012 T00220022 TSNO=
PAPB 102020Z AUTO 00000KT 10SM SCT015 BKN022 M03/M03 A2919 RMK
     T10281033 TSNO VIA AUTODIAL=
KACV 102103Z AUTO 27003KT 1/4SM R32/1600V2800FT FG VV002 10/09
     A3024 RMK AO2 T01000089=
KBEH 102103Z AUTO 13009KT 1SM BR OVC006 02/02 A2983 RMK AO2=
KHVN 102103Z 00000KT 2 1/2SM BR FEW003 SCT008 OVC031 02/01 A3037
     RMK AO2=
KM19 102103Z AUTO 19003KT 1 3/4SM RA BR SCT009 OVC014 06/06 A2981
     RMK AO2 P0002=

0000125300
199
SAAK31 KWBC 102100
METAR
PABR 102053Z 31012KT 10SM SCT006 BKN120 M25/M28 A2991=
PACD 102053Z 17004KT 10SM FEW040 04/M02 A2936=
PAED 102058Z 00000KT 6SM BR BKN002 OVC010 M04/M04 A2941=
PAEI 102058Z AUTO 00000KT 10SM OVC080 M18/M20 A2957=
PAEN 102053Z 00000KT 1/4SM FZFG VV006 M03/M04 A2944=
PAFA 102053Z 00000KT 10SM SCT080 BKN110 M22/M25 A2959=
PAFR NIL=
PAFS 102056Z AUTO 00000KT 10SM OVC029 M15/M18 A2956=
PAFY NIL=
PAJN 102053Z 06006KT 10SM -RA FEW011 BKN034 OVC055 03/01 A2952=
PAKN 102054Z 36005KT 10SM SCT004 BKN025 M03/M03 A2946=
PAKT 102053Z 16003KT 10SM BKN018 OVC030 03/02 A2967=
PANC 102053Z 33003KT 6SM -SN BR BKN005 OVC010 M03/M04 A2942=
PAOM 102053Z 05006KT 10SM SCT090 BKN200 M12/M18 A2966=
PAOR 102053Z 31003KT 9SM -SN SCT022 BKN027 BKN060 M16/M18
     A2940=
PAOT 102053Z 04008KT 10SM CLR M19/M24 A2979=
PARY 102056Z AUTO 00000KT 10SM CLR M21/M23 A2961=
PASC 102053Z 24013KT 10SM FEW026 BKN060 OVC075 M30/M33 A2989=
PASG NIL=
PASI 102053Z 07003KT 10SM -RA SCT019 BKN034 OVC043 03/01 A2956=
PATQ 102056Z AUTO 26006KT 10SM OVC006 M30/M33 A2995=
PAVD 102056Z 10SM FEW020 SCT040 BKN100 M03/M07 A2939=
PAWG 102056Z 00000KT 10SM FEW012 BKN030 OVC080 04/M01 A2964=
PFYU NIL=

0000098700
200
SABO41 KWBC 102100
METAR
SLCA 102100Z 15010KT 9999 SCT036 32/19 Q1008=
SLCN NIL=
SLCO 102100Z 31010KT 9999 FEW017 BKN200 29/22 Q1007=
SLCP 102100Z 00000KT 9999 SCT017 26/23 Q1010=
SLJE 102100Z 36004KT 9999 FEW017 32/24 Q1008=
SLJO 102100Z 32005KT 9999 FEW017 28/24 Q1007=
SLMG 102100Z 30004KT 9999 FEW017 FEW023CB 30/24 Q1008=
SLOR 102100Z 11012KT 9999 FEW015 19/02 Q1031=
SLPO 102100Z 06010KT 9999 FEW020 16/M01 Q1035=
SLPS 102100Z 00000KT 9999 SCT020 FEW025TCU 33/24 Q1005=
SLRB 102100Z 34008KT 9999 FEW020 32/24 Q1009=
SLRI 102100Z 34010KT 9999 SCT017 FEW020CB BKN200 32/23 Q1006=
SLRQ 102100Z 36004KT 9999 SCT017 SCT200 30/26 Q1005=
SLRY 102100Z 34004KT 9999 SCT017 31/24 Q1007=
SLSA 102100Z 32010KT 9999 SCT020 31/23 Q1006=
SLSI 102100Z 00000KT 9999 SCT017 30/23 Q1008=
SLSU 102100Z 07009KT 9999 FEW023 23/08 Q1024=
SLVG NIL=
SLVM 102100Z 36010KT 9999 NSC 35/24 Q1002=
SLYA 102100Z 36006KT 9999 NSC 33/24 Q1004=
SLZO NIL=

0000069200
201
SABZ41 KWBC 102100
METAR
SBAA NIL=
SBAF NIL=
SBAR 102100Z 11012KT 9999 SCT015 27/22 Q1012=
SBBG 102100Z 11005KT CAVOK 21/20 Q1010=
SBBH NIL=
SBBI NIL=
SBBU NIL=
SBCJ 102100Z 00000KT 9999 FEW027 24/21 Q1012=
SBCO NIL=
SBCR 102100Z 05006KT 9999 SCT030 33/21 Q1006=
SBCT 102100Z 27005KT 9999 FEW040 30/12 Q1015=
SBCV NIL=
SBCY 102100Z 16002KT 9999 SCT020 32/21 Q1007=
SBCZ 102100Z 09002KT 5000 -RA BKN025 SCT100 27/25 Q1006=
SBDN NIL=
SBFL 102100Z 34010KT 9999 FEW030 FEW035TCU 28/24 Q1009=
SBFN 102100Z 11012KT 9999 SCT019 25/20 Q1012=
SBGO 102100Z 29004KT 9999 FEW030 FEW035TCU 28/16 Q1012=
SBGW NIL=
SBHT NIL=
SBIH NIL=
SBIL NIL=

0000031100
202
FTUS51 KWBC 102106 AAA
TAF AMD
KMIV 102103Z 1021/1118 08003KT 3SM BR BKN004
      TEMPO 1021/1024 1SM -SHRA BR BKN002
     FM110200 14005KT 1SM BR BKN005 OVC015
     FM110600 16005KT 2SM -RA BR BKN004 OVC010 WS020/20050KT
     FM111500 19013KT 1SM RA BR BKN003 OVC010 WS020/21050KT=

0000070600
203
FTUS52 KWBC 102106 AAA
TAF AMD
KCPS 102102Z 1021/1118 17015KT 5SM -RA BR OVC007
     FM110300 20012KT 4SM BR OVC007
     FM110700 25011KT 5SM BR OVC012
     FM111500 27013KT P6SM SCT015 BKN250=
KDRO 102105Z 1021/1118 31025G35KT P6SM SCT040
     FM110100 02009KT P6SM VCSH BKN050
     FM111200 24005KT P6SM VCSH SCT050 BKN090=
KTUP 102104Z 1021/1118 18010KT P6SM OVC005
     FM102200 18010KT P6SM SCT007 BKN020
      TEMPO 1022/1023 BKN007
     FM110000 18010G15KT P6SM SCT015 BKN035
     FM110200 19015G25KT P6SM VCSH SCT010 BKN025
     FM110600 21014KT 3SM -RA BR VCTS OVC005CB
     FM111100 25010KT P6SM BKN012 OVC100
     FM111300 30012G18KT P6SM SCT020=

0000022500
204
FTUS54 KWBC 102106 AAA
TAF AMD
KIDA 102104Z 1021/1118 22015G25KT P6SM SCT020
     FM110200 21012G20KT P6SM VCSH OVC035
     FM110600 21014KT 6SM -SN OVC008
     FM111700 21020G30KT P6SM VCSH OVC015=

0000043700
205
FTUS53 KWBC 102106 AAA
TAF AMD
KMSN 102104Z 1021/1118 14009KT 1 1/2SM -FZRA BR OVC004
     FM102300 14006KT 3SM -RA BR OVC005
     FM110500 21004KT 2SM -DZ OVC004
     FM111000 28007KT 3SM -SN OVC006
     FM111600 29009G18KT P6SM BKN012=
KUIN 102102Z 1021/1118 17015KT 5SM -RA BR OVC007
     FM110000 19011KT 4SM BR OVC007
     FM110600 26012KT 5SM BR OVC008
     FM111500 26012KT P6SM SCT015 BKN250=

0000135700
206
FTUS80 KWBC 102106 AAA
TAF AMD
KCLT 102103Z 1021/1118 02006KT P6SM OVC003
      TEMPO 1021/1024 5SM -RA BR
     FM110000 04006KT 4SM -RADZ OVC003
     FM110300 03003KT 2SM -RADZ BR OVC003 WS020/20035KT
     FM110800 14004KT 3SM SHRA BR OVC004 WS020/20035KT
     FM111400 18010KT 4SM SHRA BR OVC005 WS020/20040KT=
KCPS 102102Z 1021/1118 17015KT 5SM -RA BR OVC007
     FM110300 20012KT 4SM BR OVC007
     FM110700 25011KT 5SM BR OVC012
     FM111500 27013KT P6SM SCT015 BKN250=
KDRO 102105Z 1021/1118 31025G35KT P6SM SCT040
     FM110100 02009KT P6SM VCSH BKN050
     FM111200 24005KT P6SM VCSH SCT050 BKN090=
KIDA 102104Z 1021/1118 22015G25KT P6SM SCT020
     FM110200 21012G20KT P6SM VCSH OVC035
     FM110600 21014KT 6SM -SN OVC008
     FM111700 21020G30KT P6SM VCSH OVC015=
KMEM 102105Z 1021/1118 16010KT P6SM SCT025 BKN050
     FM102300 17012G18KT P6SM VCSH BKN035
     FM110200 18015G22KT 4SM -RA BR VCTS OVC009CB
     FM110800 24014KT P6SM BKN012 OVC100
     FM111100 26010KT P6SM SCT020
     FM111500 28012G20KT P6SM SCT025=
KMIV 102103Z 1021/1118 08003KT 3SM BR BKN004
      TEMPO 1021/1024 1SM -SHRA BR BKN002
     FM110200 14005KT 1SM BR BKN005 OVC015
     FM110600 16005KT 2SM -RA BR BKN004 OVC010 WS020/20050KT
     FM111500 19013KT 1SM RA BR BKN003 OVC010 WS020/21050KT=

0000025800
207
FTUS80 KWBC 102106
TAF
TAF KLCK 102059Z 1021/1118 17009KT P6SM SCT010 BKN035
      TEMPO 1100/1103 BKN015
     FM110300 17010KT 5SM BR VCSH OVC015
     FM110700 17012KT 4SM -RA BR OVC008
     FM111400 23014G23KT P6SM VCSH OVC012=

0000140100
208
FTUS80 KWBC 102106 AAB
TAF AMD
KMKE 102104Z 1021/1124 15010KT 1 1/2SM -FZRA BR OVC004
     FM102300 14010KT 2SM -RA BR OVC005
     FM110300 21008KT 2SM -RA BR OVC006
     FM110800 25007KT 3SM -DZ BR OVC004
     FM111400 27010G19KT 4SM -SN OVC008
     FM111800 17013G22KT P6SM BKN012=
KMSN 102104Z 1021/1118 14009KT 1 1/2SM -FZRA BR OVC004
     FM102300 14006KT 3SM -RA BR OVC005
     FM110500 21004KT 2SM -DZ OVC004
     FM111000 28007KT 3SM -SN OVC006
     FM111600 29009G18KT P6SM BKN012=
KPDX 102105Z 1021/1118 18011KT P6SM -RA SCT025 OVC060
     FM110100 19014G24KT 6SM -RA BR SCT020 OVC040
     FM110700 19018G30KT 5SM -RA BR SCT015 OVC035
     FM111400 22020G35KT 4SM RA BR BKN015 OVC030=
KTUP 102104Z 1021/1118 18010KT P6SM OVC005
     FM102200 18010KT P6SM SCT007 BKN020
      TEMPO 1022/1023 BKN007
     FM110000 18010G15KT P6SM SCT015 BKN035
     FM110200 19015G25KT P6SM VCSH SCT010 BKN025
     FM110600 21014KT 3SM -RA BR VCTS OVC005CB
     FM111100 25010KT P6SM BKN012 OVC100
     FM111300 30012G18KT P6SM SCT020=
KUIN 102102Z 1021/1118 17015KT 5SM -RA BR OVC007
     FM110000 19011KT 4SM BR OVC007
     FM110600 26012KT 5SM BR OVC008
     FM111500 26012KT P6SM SCT015 BKN250=
PHNL 102105Z 1021/1124 05011KT P6SM FEW030 SCT045
     FM110800 03005KT P6SM FEW030 SCT050
     FM112100 13008KT P6SM FEW030 SCT050=

0000010000
209
SPUS41 KWBC 102106
SPECI
KAKR 102102Z AUTO 15003KT 3/4SM BR OVC002 04/03 A3009=

0000011700
210
SPUS43 KWBC 102106
SPECI
KMDW 102102Z 14008KT 1 3/4SM -RA BR SCT002 BKN005 OVC026 03/02
A2977=

0000011000
211
SPUS43 KWBC 102106
SPECI
KMLI 102102Z 14007KT 3SM RA BR SCT008 BKN011 OVC028 02/01 A2962=

0000009700
212
SPUS43 KWBC 102106
SPECI
KTOL 102102Z 13004KT 9SM SCT009 OVC028 03/01 A2998=

00000000