0000009600
446
SAPK31 OPKC 110600 RRA
METAR OPPS 110600Z SW-04KT 5000 HZ FEW200 14/M02 Q1022.7=
0000011100
447
SAIQ01 ORBI 110600
METAR ORMM 110600Z 00000KT 2000 BR SCT030 BKN040 BKN100 12/12 Q1019
NOSIG=
0000009300
448
SAYE20 OYGD 110600
METAR OYGD 110600Z 10020KT 9999 FEW025 BKN060 25/17 Q1018=
0000012400
449
SPBY31 UMMN 110530
SPECI UMMG 110547Z 29006G09MPS 9000 -SHRA BKN009CB OVC066 03/01
Q1006 R35/290060 NOSIG=
0000062100
450
SAUR31 UKMS 110530
METAR UKLR 110530Z 27011MPS 9999 BKN027 BKN100 04/M00
          Q1011 NOSIG=
METAR UKLI 110530Z 23005MPS CAVOK 03/M04 Q1017
         28090070 NOSIG=
METAR UKON 110530Z 28008MPS CAVOK 03/M02 Q1014 NOSIG=
METAR UKCM NIL=
METAR UKCW 110530Z 26007MPS 9999 SCT020CB BKN040
         04/02  Q1004 2729//60 TEMPO 27010G18MPS=
METAR UKLU NIL=
METAR UKKK 110530Z 28009MPS 9999 -RA SCT014 OVC025
         04/02  Q1006 26250255 TEMPO 27012G18MPS=
METAR UKKM NIL=
METAR UKKE NIL=
METAR UKLN 110530Z 27006MPS 230V320 CAVOK 05/M05
         Q1017 3309//70 TEMPO 32011G16MPS=
0000012700
451
SPBY31 UMMN 110530
SPECI UMII 110535Z 28007G12MPS 3400 -SHRASN  OVC004CB 02/M01
Q0993 TEMPO 2000  RMK QBB140=
0000086200
452
SAUZ31 UTTW 110530
METAR UTFN 110530Z 00000MPS 100 R28/0100N FZFG VV001 M07/M08 Q1029
R28/CLRD70 NOSIG RMK QBB030=
METAR UTNN 110530Z 19001MPS 8000 BKN032 M01/M04 Q1022 R33/CLRD60
NOSIG=
METAR UTNU 110530Z 00000MPS 6000 NSC 01/M05 Q1021 R31/CLRD60 NOSIG=
METAR UTSA 110530Z 00000MPS 9000 NSC 04/M07 Q1024 R07/CLRD70 NOSIG=
METAR UTSB 110530Z 14004MPS 3500 BR NSC 01/M04 Q1024 R01/CLRD70
NOSIG=
METAR UTSK 110530Z VRB01MPS 5000 BR NSC 02/M03 Q1024 R16/CLRD70=
METAR UTSS 110530Z 11004MPS 080V160 9999 SCT200 05/M11 Q1022
R88/CLRD70 NOSIG=
METAR UTST 110530Z 02001MPS 7000 NSC 03/M01 Q1028 R88/CLRD70 NOSIG=
METAR UTFA 110530Z 00000MPS M0550 R04/M0550N FZFG VV002 M06/M07 Q1029
R88/09//70=
METAR UTFF 110530Z 30002MPS 6000 NSC M03/M04 Q1028 R18/CLRD70=
METAR UTTT 110530Z 09003MPS CAVOK 03/M09 Q1024 R08R/CLRD70 NOSIG=
0000011000
453
SPBY31 UMMN 110530
SPECI UMMS 110553Z 30009G16MPS 9999 BKN019 02/M01 Q1000
R31/290060 NOSIG=
0000015700
454
SAYE20 OYAA 110600
METAR OYAA 110600Z 12015KT 9999 FEW018TCU BKN025 26/18 Q1018=
METAR OYSQ 110600Z 09018KT 9999 FEW018 BKN200 25/20 Q1016=
0000016700
455
SASD31 OEJD 110600 RRA
METAR OEDF 110600Z 18013KT 9999 SCT040 BKN090 16/11 Q1021 NOSIG=
METAR OYAA 110600Z 12015KT 9999 FEW018TCU BKN025 26/18 Q1018=
0000010600
456
SAER41 OMAM 110557 RRF
METAR OMAM 110600Z 16010KT 9999NDV FEW040 BKN100 18/10 Q1021 A3016=
0000010300
457
SAER41 OMAM 110559 RRF
METAR OMAM 110600Z 16010KT 9999 FEW040 BKN100 18/10 Q1021 A3015=
0000064200
458
SABY31 UMMN 110600
METAR UMBB 110600Z 27009G14MPS 9999 OVC023CB 05/01 Q1010 R29/290050
NOSIG=
METAR UMGG 110600Z 28011G15MPS 9999 BKN029CB BKN100 04/M00 Q1000
R28/290050 NOSIG=
METAR UMII 110600Z 29006G09MPS 4900 -SHRASN OVC007CB 01/00 Q0994
TEMPO 2000 BKN005=
METAR UMMG 110600Z 28006G09MPS 9000 -SHRA BKN007CB OVC066 03/02 Q1006
R35/290060 NOSIG=
METAR UMMM 110600Z 29007G10MPS 9999 -SHRASN OVC017CB 01/M01 Q1001
R30/190060 NOSIG RMK QFE732 =
METAR UMMS 110600Z 30009G16MPS 270V330 9999 BKN023 02/M02 Q1001
R31/290060 NOSIG=
METAR UMOO 110600Z 29012G18MPS 9999 BKN019 02/M01 Q0997 R31/290067
NOSIG=
0000012000
459
SAQT31 OTBD 110600
METAR OTBD 110600Z 03003KT 360V150 7000 -RA FEW015 SCT100 OVC120
17/15 Q1021 NOSIG=
0000009900
460
SAIQ01 ORBI 110600
METAR ORNI 110600Z 25015KT 8000 SCT030 SCT060 09/07 Q1018 NOSIG=
0000013400
461
SAAJ31 UBBB 110600
METAR UBBN 110600Z 28004KT 2600 -SN BR OVC004 M09/M11 Q1026
R14R/490050 NOSIG RMK MT OBSC QFE694=
0000012100
462
SAAJ31 UBBB 110600
METAR UBBL 110600Z 00000KT 5000 BR SCT200 03/02 Q1019
R33/CLRD70 NOSIG RMK MT OBSC =
0000011700
463
SAAJ31 UBBB 110600
METAR UBBQ 110600Z 36009KT 5000 BR NSC M00/M03 Q1016
R16/CLRD70 NOSIG RMK MT OP=
0000010200
464
SAIQ01 ORBI 110600
METAR ORBM 110600Z VRB03KT 5000 HZ SCT060 BKN120 07/03 Q1021 NOSIG=
0000010500
465
SAAH10 OAKB 110550
METAR OAKB 110550Z 32005KT 8000 NSC M01/M15 Q1027 NOSIG RMK BLU+ BLU+=
00000000