0000070100
146
SXXX32 EUMS 111028 RRA
223412A2
OT12 ID:IND-SADENG DT:2014 01 11 10 27
:PRS /1 02095 02079 02138 02161 02206 02109 02130 02018 02140 02211 02161 02141 02157 02103 02138 02082 02068 02129 02088 02107 02184 02145 02085 02114 02184 02006 02138 02148 02129 02088
:ENC /1 -12716 -12716 -12679 -12643 -12619 -12696 -12696 -12763 -12679 -12636 -12639 -12683 -12673 -12696 -12676 -12729 -12733 -12693 -12719 -12696 -12633 -12673 -12713 -12693 -12649 -12749 -12699 -12673 -12689 -12699
:RAD /1 11843 11844 11785 11883 11942 11868 11836 11794 11821 11872 11852 11930 11863 11836 11898 11800 11798 11846 11851 11822 11876 11906 11848 11840 11837 11805 11847 11855 11871 11830
:BAT 12.1V
0000011100
147
UANT99 KDDL 111029
ARP UAL930 5903N03803W 1029 F370 MS57 234/28 KT
N228UA DDL UAK 111029 F52A
0000191300
148
SZAU01 AMMC 110733
CREX++
T000103 A001 D01021 D06025++
-1927750 14705860 59260 2014 01 11 07 26 3030 11 07 00 01
02371 0183 02377 0186 02374 0179 02380 0181 02387 0184 02385 0178+
-2316110 15079000 59670 2014 01 11 07 26 3003 11 07 00 01
03383 0109 03386 0108 03399 0117 03407 0121 03428 0137 03430 0135+
-3447330 15091170 60420 2014 01 11 07 26 2957 11 07 00 01
01081 -0025 01081 -0024 01079 -0026 01082 -0023 01080 -0024 01078 -0026+
-4105000 14591500 60910 2014 01 11 07 26 2888 11 07 00 01
02216 -0012 02224 -0012 02239 -0008 02249 -0007 02265 -0001 02268 -0006+
-4254640 14793080 61170 2014 01 11 07 26 2895 11 07 00 01
01306 0074 01304 0072 01316 0084 01318 0086 01319 0087 01319 0087+
-3834390 14161360 61410 2014 01 11 07 26 2907 11 07 00 01
00559 0078 00518 0036 00553 0070 00560 0076 00553 0068 00543 0057+
-3214890 13364170 62000 2014 01 11 07 26 2965 11 07 00 01
01244 0131 01244 0129 01246 0130 01245 0127 01242 0123 01240 0120+
-3387080 12189720 62080 2014 01 11 07 26 2945 11 07 00 01
00824 0080 00834 0089 00843 0098 00874 0128 00858 0111 00843 0096+
-3182560 11573860 62237 2014 01 11 07 26 2973 11 07 00 01
00900 0055 00897 0051 00901 0054 00908 0060 00912 0063 00912 0062+
-2422000 11339750 62385 2014 01 11 07 26 //// 11 07 00 01
01226 -0130 01270 -0087 01240 -0119 01244 -0117 01261 -0101 01317 -0047+
-2181670 11419110 62430 2014 01 11 07 26 //// 11 07 00 01
01918 -0026 01900 -0046 01918 -0031 01900 -0051 01918 -0037 01914 -0043+
-1800080 12221830 62650 2014 01 11 07 26 3043 11 07 00 01
05829 0066 05838 0064 05847 0063 05856 0064 05865 0060 05873 0060+
-1247190 13084580 63230 2014 01 11 07 26 3050 11 07 00 01
05368 0269 05363 0272 05358 0271 05353 0271 05348 0273 05342 0271+
-1386000 13641580 63511 2014 01 11 07 26 3045 11 07 00 01
01677 0108 01682 0112 01687 0116 01691 0118 01690 0116 01690 0114++
7777

0000179700
149
SZPS01 AMMC 110733
CREX++
T000103 A001 D01021 D06025++
-0204190 14737360 56130 2014 01 11 07 26 3027 11 07 00 01
01000 0111 01001 0114 00998 0113 00993 0110 00991 0110 00992 0114+
-0669280 15640860 56363 2014 01 11 07 26 //// 11 07 00 01
00534 -0074 00530 -0076 00540 -0064 00539 -0063 00538 -0062 00537 -0061+
-0942890 15995560 56670 2014 01 11 07 26 3043 11 07 00 01
00751 -0030 00748 -0031 00745 -0033 00744 -0032 00740 -0035 00743 -0031+
-1072080 16580190 57131 2014 01 11 07 26 //// 11 07 00 01
03376 2921 03376 2924 03377 2928 03375 2929 03375 2931 03375 2934+
-1551560 16718860 57210 2014 01 11 07 26 //// 11 07 00 01
00617 -0078 00611 -0081 00607 -0081 00619 -0065 00610 -0071 00592 -0085+
-1775690 16830030 57320 2014 01 11 07 26 3015 11 07 00 01
00720 -0080 00716 -0081 00711 -0082 00706 -0084 00702 -0085 00699 -0084+
-4397330 16861610 65180 2014 01 11 07 26 2888 11 07 00 01
02383 0365 02378 0358 02400 0379 02398 0376 02385 0361 02409 0384+
-2120470 -15978530 65980 2014 01 11 07 26 3013 11 07 00 01
00514 -0025 00534 -0003 00521 -0015 00537 0003 00524 -0008 00507 -0024+
-2113810 -17518140 66600 2014 01 11 07 26 //// 11 07 00 01
00871 0093 00862 0088 00863 0092 00865 0098 00860 0096 00852 0092+
-1382670 -17176110 66840 2014 01 11 07 26 3010 11 07 00 01
00532 0033 00533 0036 00532 0037 00530 0037 00519 0027 00524 0034+
-1813250 17842750 67050 2014 01 11 07 26 3030 11 07 00 01
01032 0111 01027 0109 01025 0111 01024 0115 01018 0113 01008 0107+
-1760530 17743810 67070 2014 01 11 07 26 3035 11 07 00 01
00997 0009 00994 0010 00990 0011 00987 0013 00982 0012 ///// ////+
-0850250 17919500 67440 2014 01 11 07 26 3028 11 07 00 01
01655 -0003 01648 -0008 01647 -0006 01649 -0001 01637 -0011 01648 0003++
7777

0000004000
150
SMGL06 EKMI 110600
NIL =
0000011000
151
UANT01 CWAO 110732
ARP UAE202 5528N04305W 0732 F360 MS60 284/43 KT
A6EEL DDL XXH 110732 J72A
0000011000
152
UANT01 CWAO 110732
ARP SWR19R 4953N03037W 0732 F390 MS53 207/52 KT
HBJHL QXT AOE 110732 J12A
0000011000
153
UANT01 CWAO 110732
ARP AZA65F 4920N03345W 0732 F390 MS50 223/37 KT
EIEJG QXT AOW 110732 J46A
0000008100
154
UAPA01 KWBC 110733
ARP WJA1864 29N 155W 0725 F340 MS52 249/034KT=
0000024100
155
SOAT10 KWAL 110733
FA8005BC 011073337 OT12 ID:KN-BASS-01 DT:2014 01 11 07 31
:RD -3131 -3162 -3151 -3142 -3138 -3136 -3106 -3144 -3117 -3117
:PR 0535 0513 0575 0531 0554 0554 0497 0502 0564 0575
:B 13.7V
 46+1NN 219E
0000011100
156
UANT99 KDDL 110731
ARP AAL120 4902N01756W 0732 F350 MS62 236/63 KT
N191AN DDL XXW 110732 F86A
0000011000
157
UANT99 KDDL 110732
ARP UAE202 5529N04305W 0732 F360 MS60 284/43 KT
A6EEL DDL H07 110732 J73A
0000010900
158
UANT99 KDDL 110732
ARP VIR6J 4715N01853W 0732 F390 MS62 243/65 KT
GVRAY DDL XXF 110733 J52A
0000011000
159
UANT99 KDDL 110732
ARP VIR10K 5149N03626W 0732 F390 MS55 255/25 KT
GVKSS DDL XXH 110733 J04A
0000010100
160
SAKO31 RKSI 110730
METAR RKSI 110730Z 20005KT 9999 SCT030 BKN180 01/M13 Q1031 NOSIG=

0000009500
161
SAIN90 VEIM 110730
METAR VEIM 110730Z 24003KT 5000 HZ FEW020 23/09 Q1017 NOSIG=
0000057400
162
SAIR31 OIII 110730
METAR OIAW 110730Z 11008KT 7000 FEW030CB SCT035 OVC090 12/09 
Q1019=
METAR OIFM 110730Z 03004KT 1300 BR SCT040 BKN100 M00/M01 Q1020
      A3014=
METAR OIII 110730Z 24006KT 5000 HZ FEW040 OVC100 03/M06 Q1022
 A3020 TEMPO FEW035CB SCT030 BKN100=
METAR OIKB 110730Z NIL=
METAR OIKK 110730Z NIL=
METAR OIMM 110730Z NIL=
METAR OISS 110730Z 00000KT 2500 BR FEW030CB FEW035 OVC080 03/00
Q1023 A3022=
METAR OITT 110730Z 08004KT 6000 FEW035 BKN180 M06/M11 Q1023 A3021=
METAR OIZH 110730Z 14010KT 9999 FEW035 SCT090 BKN190 05/M06 Q1023
      A3021=

0000011400
163
SIIN31 VECC 110300 RRD
AAXX 11034
42527 32595 32302 10134 20033 38613 41464 82100
  333 20034=
0000009300
164
SAIN90 VIBN 110730
METAR VIBN 110730Z 14007KT BR SCT020 FEW030CB 19/17 Q1015=
0000009200
165
SAIN90 VIGG 110730
METAR VIGG 110730Z 22003KT 5000 HZ FEW035 17/03 Q1019=

00000000