0000764500
593
SOVD02 CWOW 111021
KKYY  10014 2355/ 734433 068825 88870 86564
20004 32092 20005 32092 20006 32093 20007 32092 20008      
32093 20009 32093 20010 32092 20012 32093 20013 32092      
20014 32092 20015 32091 20016 32091 20017 32089 20018      
32087 20020 32085 20021 32084 20022 32084 20023 32085      
20024 32083 20025 32081 20026 32081 20027 32081 20028      
32081 20029 32081 20030 32081 20031 32081 20032 32081      
20034 32081 20035 32081 20036 32081 20037 32081 20038      
32081 20039 32081 20040 32081 20041 32081 20042 32081      
20043 32081 20044 32081 20046 32081 20047 32081 20048      
32080 20049 32081 20050 32080 20051 32080 20052 32081      
20053 32080 20054 32081 20055 32081 20056 32081 20057      
32081 20058 32081 20059 32081 20060 32081 20061 32081      
20062 32081 20063 32081 20065 32081 20066 32081 20067      
32081 20069 32081 20070 32081 20071 32081 20072 32081      
20073 32081 20074 32081 20075 32081 20077 32081 20078      
32081 20079 32081 20080 32081 20081 32081 20082 32080      
20084 32080 20085 32080 20086 32080 20087 32080 20088      
32080 20090 32080 20091 32080 20092 32080 20093 32080      
20094 32080 20095 32080 20097 32080 20098 32080 20102      
32080 20104 32080 20107 32080 20109 32080 20112 32080      
20114 32080 20117 32080 20119 32080 20122 32080 20124      
32080 20127 32080 20129 32080 20132 32080 20134 32080      
20136 32080 20139 32080 20141 32080 20144 32080 20146      
32080 20149 32081 20151 32081 20154 32080 20156 32080      
20159 32080 20161 32080 20164 32080 20166 32078 20169      
32050 20171 32035 20174 32027 20176 32018 20179 32005      
20181 31992 20184 31985 20186 31980 20189 31971 20191      
31954 20194 31953 20196 31950 20198 31948 20201 31946      
20203 31937 20206 31930 20208 31923 20211 31919 20213      
31914 20216 31909 20218 31905 20221 31902 20223 31897      
20226 31895 20228 31894 20231 31888 20233 31884 20236      
31881 20238 31879 20241 31877 20243 31874 20246 31871      
20248 31869 20251 31866 20253 31865 20255 31864 20258      
31861 20260 31860 20263 31860 20265 31860 20268 31857      
20270 31855 20273 31853 20275 31851 20278 31850 20280      
31849 20283 31847 20285 31847 20288 31846 20290 31846      
20293 31845 20295 31844 20298 31842 20300 31841 20303      
31840 20305 31840 20308 31839 20310 31838 20313 31837      
20315 31837 20318 31836 20320 31834 20322 31833 20325      
31831 20327 31829 20330 31828 20332 31826 20335 31825      
20337 31825 20340 31823 20342 31821 20345 31819 20347      
31817 20350 31816 20352 31815 20355 31813 20357 31811      
20360 31810 20362 31809 20365 31808 20367 31806 20370      
31804 20372 31803 20374 31802 20377 31800 20379 31800      
20382 31800 20384 31798 20387 31796 20389 31794 20392      
31792 20394 31792 20397 31790 20399 31787 20402 31786      
20404 31785 20407 31783 20409 31783 20412 31782 20414      
31782 20417 31780 20419 31779 20422 31779 20424 31777      
20426 31775 20429 31774 20431 31773 20434 31772 20436      
31769 20439 31768 20441 31767 20444 31765 20446 31764      
20449 31763 20451 31762 20454 31762 20456 31760 20459      
31757 20461 31755 20464 31752 20466 31750 20469 31747      
20471 31745 20474 31742 20476 31738 20478 31735 20481      
31730 20483 31726 20486 31723 20488 31720 20491 31718      
20493 31716 20496 31712 20501 31705 20506 31696 20511      
31687 20516 31677 20521 31672 20526 31666 20531 31656      
20535 31647 20540 31642 20545 31636 20550 31624 20555      
31617 20560 31611 20565 31603 20570 31588 20575 31577      
20580 31567 20585 31557 20590 31552 20595 31544 20600      
31530 20605 31523 20610 31515 20615 31510 20620 31500      
20625 31489 20629 31477 20634 31470 20639 31462 20644      
31451 20649 31441 20654 31433 20659 31422 20664 31409      
20669 31403 20674 31384 20679 31366 20684 31355 20689      
31341 20694 31323 20699 31309 20704 31303 20709 31288      
20714 31270 20719 31259 20723 31249 20728 31238 20733      
31223 20738 31212 20743 31197 20748 31184 20753 31178      
20768 31134 20773 31116 20778 31100 20783 31081 20788      
31064 20793 31052 20798 31039 20803 31030 20808 31014      
20812 30997 20817 30987 20822 30976 20827 30969 20832      
30966 20837 30958 20842 30947 20847 30938 20852 30930      
20857 30923 20862 30916 20867 30909 20872 30900 20877      
30894 20882 30881 20887 30872 20892 30852 20897 30844      
20901 30840 20906 30830 20911 30820 20916 30810 20921      
30801 20926 30798 20931 30795 20936 30788 20941 30784      
20946 30777 20951 30768 20956 30757 20961 30749 20966      
30740 20971 30728 20976 30719 20981 30712 20986 30708      
20991 30705 20995 30693 21000 30686 21005 30679 21010      
30673 21015 30666 21020 30656 21025 30646 21030 30644      
21035 30637 21040 30628 21045 30622 21050 30617 21055      
30615 21060 30611 21064 30606 21069 30603 21074 30597      
21079 30591 21084 30588 21089 30588 21094 30585 21099      
30583 21104 30581 21109 30580 21114 30577 21119 30576      
21124 30574 21129 30570 21134 30561 21139 30555 21144      
30554 21148 30554 21153 30555 21158 30553 21163 30547      
21168 30544 21173 30538 21178 30535 21183 30532 21188      
30529 21193 30524 21198 30521 21203 30519 21208 30517      
21213 30515 21218 30514 21223 30511 21227 30509 21232      
30508 21237 30506 21242 30504 21247 30502 21252 30500      
21257 30498 21262 30495 21267 30494 21272 30492 21277      
30492 21282 30490 21287 30489 21292 30487 21297 30486      
21301 30484 21306 30483 21311 30482 21316 30481 21321      
30480 21326 30479 21331 30478 21336 30477 21341 30476      
21346 30476 21351 30475 21356 30473 21361 30471 21366      
30471 21371 30469 21375 30468 21380 30467 21385 30466      
21390 30465 21395 30463 21400 30462 21405 30461 21410      
30461 21415 30461 21420 30459 21425 30458 21430 30458      
21435 30457 21440 30456 21444 30454 21449 30453 21454      
30453 21459 30452 21464 30451 21469 30450 21474 30449      
21479 30448 21484 30447 21489 30446 21494 30445 21499      
30444 21504 30444 21509 30443 21513 30442 21518 30441      
21523 30440 21528 30439 21533 30437 21538 30437 21543      
30436 21548 30436 21553 30436 21558 30435 21563 30435      
21568 30434 21573 30432 21578 30432 21582 30431 21587      
30430 21592 30429 21597 30429 21602 30429 21607 30429      
21612 30428 21617 30428 21622 30427 21627 30427 21632      
30426 21637 30426 21642 30425 21646 30425 21651 30424      
21656 30424 21661 30423 21666 30423 21671 30422 21676      
30422 21681 30422 21686 30421 21691 30421 21696 30420      
21701 30420 21705 30419 21711 30418 21715 30417 21720      
30417 21725 30416 21730 30415 21735 30415 21740 30414      
21745 30414 21750 30414 21755 30413 21760 30413 21765      
30412 21770 30411 21775 30411 21779 30410 21784 30410      
21789 30410 21794 30409 21799 30409 21804 30409 21809      
30408 21814 30408 21819 30407 21824 30407 21829 30406      
21834 30405 21838 30402 21843 30400 21848 30399 21853      
30399 21858 30400 21863 30399 21868 30398 21873 30398      
21878 30397 21883 30397 21888 30397 21893 30396 21898      
30395 21902 30394 21907 30390 21912 30388 21917 30388      
21922 30389 21927 30388 21932 30387 21937 30388 21942      
30386 21947 30385 21952 30385 21957 30384 21961 30382      
21966 30381 21971 30380 21976 30380 21981 30380 21986      
30379 21991 30379 21997 30379 Q4901755=                    

0000068900
594
UDEU02 EGRR 111023 RRG
AMDAR 1109
ASC EU0646   5218N 00428E 110951 F095 MS097 255/040 TB/ S031=
LVR EU0646   5206N 00333E 110958 F239 MS395 241/075 TB0 S031=
LVR EU0646   5152N 00230E 111005 F231 MS387 269/078 TB0 S031=
DES EU0646   5146N 00200E 111008 F182 MS267 268/081 TB/ S031=
DES EU0646   5144N 00151E 111009 F159 MS222 267/062 TB/ S031=
DES EU0646   5140N 00132E 111012 F145 MS190 273/064 TB/ S031=
DES EU0646   5137N 00120E 111013 F137 MS172 282/064 TB/ S031=
DES EU0646   5130N 00059E 111016 F117 MS127 284/062 TB/ S031=
DES EU0646   5126N 00051E 111017 F098 MS080 281/055 TB/ S031=
UNS EU0646   5122N 00044E 111019 F086 MS055 286/049 TB/ S031=
0000007600
595
SNAL51 DAMM 111000 RRA
AAXX 11104
60595 46/// /0000 11451=
0000068500
596
UDNA02 EGRR 111023
AMDAR 1109
LVR EU3874   5523N 07251W 110915 F350 MS650 265/088 TB0 S031=
LVR EU3874   5547N 07104W 110922 F350 MS655 265/085 TB0 S031=
LVR EU3874   5608N 06914W 110929 F350 MS655 273/093 TB0 S031=
LVR EU3874   5629N 06723W 110936 F350 MS645 277/091 TB0 S031=
LVR EU3874   5647N 06531W 110943 F350 MS640 284/087 TB0 S031=
LVR EU3874   5657N 06334W 110950 F350 MS630 286/083 TB0 S031=
LVR EU3874   5705N 06137W 110957 F370 MS602 283/074 TB0 S031=
LVR EU3874   5710N 05941W 111004 F370 MS607 285/076 TB0 S031=
LVR EU3874   5712N 05743W 111011 F370 MS595 282/072 TB0 S031=
LVR EU3874   5712N 05545W 111018 F370 MS602 284/067 TB0 S031=
0000014200
597
UANT01 CWAO 110622
ARP UAE216 5856N05600W 0622 F350 6000N05000W 0645 6100N04000W MS56
 278/50 KT
A6EEP DDL XXH 110622 J85A
0000053100
598
SMVB10 RJTD 110600
BBXX
JGQH    11064 99312 11370
41/97 73216 10118 20052 40257 55006 70282 86230
22241 00192 1//04 20301 331// 40802 70021=
JGQH    11064 99312 11370
41/97 73216 10118 20052 40257 55006 70282 86230
22241 00192 1//04 20301 331// 40802 70021=
JPBN    11064 99249 11295
41/98 70518 10175 20102 40240 55015 70222 86230
22271 00241 1//04 20503 301// 40804 70020=
JPBN    11064 99249 11295
41/98 70518 10175 20102 40240 55015 70222 86230
22271 00241 1//04 20503 301// 40804 70020=
0000101500
599
SMRA11 RUHB 110600
AAXX 11061
29998 42799 22101 11205 21263 38689 48540 58013 82500=
30385 42999 63601 11325 21348 39807 40437 58006 80005=
30636 42998 00701 11257 21312 39739 40415 52004=
30650 42999 02001 11263 21318 39185 40423 51002=
30664 41999 00000 11298 21355 39322 40434 52002 70240=
30781 42999 20000 11342 21367 39851 40369 52016 80001=
30777 42998 22605 11262 21309 39664 40387 52005 8000/=
30822 42599 71001 11079 21130 39757 40357 58002 84902=
30844 41699 32903 11145 21188 39340 40372 52007 70171 83200=
30925 42999 63601 11154 21214 39361 40394 58007 80005=
31371 41999 03204 11239 21295 39986 40276 52004 73631=
31388 41999 51901 11313 21358 39962 40257 52006 70274 80001=
31478 42999 82501 11325 21355 39015 40233 54000 80007=
31532 41999 80503 11356 21390 39867 40260 57006 77171 80000=
31594 42997 02401 11274 21328 30075 40267 53004=
31624 NIL=
31655 42998 01903 11223 21324 30139 40190 54000=
31754 42999 02001 11221 21309 39663 40204 57003=
0000012400
600
SMRS15 RUMS 110600 RRA
AAXX 11061
22282 42998 21108 11214 21239 30169 40078 54000 82070 333 21214
91110=
0000137900
601
SMTR10 UTAA 110600
AAXX 11061
38388 32998 00000 10016 21009 30151 40223 53004 333 21058=
38392 32998 29901 11003 21036 30124 40230 52006 82030 333 21070=
38507 32698 41304 10044 21023 30096 40200 57003 82501 333 20020=
38511 32998 71301 10036 20018 30066 40209 58005 87030 333 21038=
38545 32998 21302 10016 21058 30062 40241 53012 82080 333 21042=
38647 32997 71104 10017 21008 30157 40200 57004 80006 333 21025=
38656 32998 20000 10015 21047 30119 40231 52006 80002 333 21048=
38687 32997 71806 10065 21066 30003 40240 53002 80001 333 20000=
38750 31993 00702 10051 20051 30231 40202 57002 74444 333 20015=
38763 32998 30802 11010 21026 30108 40217 57003 80001 333 21036=
38774 32998 41101 10062 21038 30035 40233 53008 80001 333 21005=
38799 32997 71805 10030 21031 30004 40240 52005 80003 333 20007=
38806 32997 71607 10052 21049 39987 40251 53001 80002 333 21009=
38880 32997 60702 10078 21060 39971 40228 51005 80001 333 21009=
38886 32997 60000 10085 21060 30002 40231 53007 80008 333 21004=
38895 32996 62103 10036 21034 39956 40252 52015 80006 333 21028=
38911 32997 31609 10058 21022 39957 40256 53004 80001 333 20005=
38915 32997 41009 10081 21094 39933 40260 53009 80001 333 20018=
38974 32998 61602 10106 20002 39899 40232 53003 80002 333 20023=
38987 32996 52502 10022 21038 39512 40274 52003 83072 333 21030=
0000084500
602
FCIN90 VAAH 110600
TAF VAAH 110600Z 1109/1118 34006KT 5000 FU FEW100 BECMG 1112/1114
32004KT 4000 FU/HZ=
TAF VABO 110600Z 1109/1118 34006KT 5000 FU FEW100 BECMG 1112/1114
32004KT 4000 FU/HZ=
TAF VABJ 110600Z 1109/1118 34006KT 5000 FU FEW100 BECMG 1112/1114
32004KT 4000 FU/HZ=
TAF VARK 110600Z 1109/1118 34006KT 5000 FU FEW100 BECMG 1112/1114
32004KT 4000 FU/HZ=
TAF VABV 110600Z 1109/1118 34006KT 5000 FU FEW100 BECMG 1112/1114
32004KT 4000 FU/HZ=
TAF VADU 110600Z 1109/1118 34006KT 5000 FU FEW100 BECMG 1112/1114
32004KT 4000 FU/HZ=
TAF VAPR 110600Z 1109/1118 34006KT 5000 FU FEW100 BECMG 1112/1114
32004KT 4000 FU/HZ=
TAF VAJM 110600Z 1109/1118 34006KT 5000 FU FEW100 BECMG 1112/1114
32004KT 4000 FU/HZ=
TAF VASU 110600Z 1109/1118 34006KT 5000 FU FEW100 BECMG 1112/1114
32004KT 4000 FU/HZ=

0000010400
603
SAIN90 VEPT 110627
METAR VEPT 110620Z 09006KT 1000 -RA BKN015 OVC080 16/14 Q1017  NOSIG=
0000034100
604
SMLB01 OLBA 110600
AAXX 11064
40100 13/// /0901 10141 20091 30207 40239 52026 69984 906// 333 20102
4//// 55002 20267 92416=
40101 12957 01001 10023 20007 39150 48529 53021 60004 906// 333 20008
31/// 50104 55000 20332=
40103 32958 01602 10077 20061 40239 52021 333 20067 30/// 50204 20482
555 10143=
40102 NIL=
0000009400
605
SMTA10 UTDD 110600 CCA
AAXX 11061
38715 429// 01412 11162 21254 47050 54000=
0000014200
606
SMAL01 DAMM 110600 RRA
AAXX 11064
60670 12970 53505 10061 21018 39122 48555 53010 60004 85052
333 00300 20056 85360 95900=
0000011000
607
UANT99 KDDL 110622
ARP AFR941 4747N01011W 0622 F360 MS59 278/46 KT
FGITE DDL BES 110622 F74A
0000011000
608
UANT99 KDDL 110622
ARP UAL82 5639N03805W 0622 F320 MS60 226/15 KT
N78008 DDL XXW 110622 F34A
0000011100
609
UANT99 KDDL 110622
ARP SVA022 5036N02449W 0622 F330 MS60 212/73 KT
HZAK17 QXT EUA 110622 F49A
0000011000
610
UANT99 KDDL 110622
ARP BAW192 5606N02332W 0622 F310 MS57 240/97 KT
GBYGE QXT AOE 110623 F88A
0000011000
611
UANT99 KDDL 110622
ARP BAW172 5310N02847W 0622 F340 MS59 205/77 KT
GCIVZ QXT AOE 110623 F19A
0000011100
612
UANT99 KDDL 110623
ARP DAL248 5904N03303W 0622 F380 MS57 226/33 KT
N810NW DDL XXW 110623 J42A
00000000