0000011000
653
UANT01 CWAO 110610
ARP UAL17 5022N03826W 0610 F360 MS54 284/16 KT
N48127 DDL IG1 110610 F55A
0000048600
654
SSVX08 KARS 110610
ZZYY 48400 10014 12004 750144 144847 6111/
11119 01126 10064 29092
22219 00091
33311 88872 20000 30912 20001 30906 43226
444 20110 10014 1218/ 521// 60401=
ZZYY 48400 10014 12004 750144 144847 6111/
11119 01126 10064 29092
22219 00091
33311 88872 20000 30912 20001 30906 43226
444 20110 10014 1218/ 521// 60401=
ZZYY 48400 11014 05004 750120 144828 6111/
11119 03430 10069 29082
22219 00090
444 20110 11014 0456/ 521// 60401=
0000119200
655
SSVX07 KARS 110610
ZZYY 25605 11014 0604/ 182526 136047 6113/
11119 49980 52005
22219 01207
444 20130 11014 0601/ 504// 80100 80000=
ZZYY 48733 11014 0610/ 772964 152376 6113/
11119 11255 40062
444 20130 11014 0601/ 504//=
ZZYY 48733 11014 0550/ 772964 152376 6113/
11119 11255 40062
444 20130 11014 0601/ 504//=
ZZYY 48508 11014 0610/ 772717 159231 6111/
11119 11262 40091
444 20110 11014 0601/ 504//=
ZZYY 48508 11014 0550/ 772721 159211 6111/
11119 11262 40094=
ZZYY 48536 11014 0600/ 175228 148558 6111/
11119 11235
444 20110 11014 0602/ 504//=
ZZYY 48536 11014 0550/ 175233 148561 6112/
11119 11234
444 20120 11014 0551/ 504//=
ZZYY 48732 11014 0610/ 774495 131072 6113/
11119 11147 49895
444 20130 11014 0602/ 504//=
ZZYY 48732 11014 0550/ 774497 131073 6113/
11119 11147 49899=
ZZYY 48507 11014 0550/ 773077 135086 6112/
11119 11291 49976=
ZZYY 48507 11014 0610/ 773076 135090 6112/
11119
444 20120 11014 0600/ 504//=
ZZYY 48731 11014 0550/ 774137 154957 6113/
11119 11233 40061
444 20130 11014 0602/ 504//=
ZZYY 48731 11014 0610/ 774137 154957 6113/
11119 11233 40061
444 20130 11014 0602/ 504//=
0000379500
656
SMRO50 YRBK 110600
AAXX 11061
15261 02597 40101 11025 21049 39404 42839 52013 60002 82360 333 10046
21025
34102 55300 0//// 20000 3//// 60007 70000 91002 91105 95000 555
60000=
15284 01/93 93213 11065 21068 38340 48484 51010 60002 74544 333 11024
21065
34/// 60007 70000 91017 91118 555 60000=
15285 02998 03102 10006 21075 39193 42801 52014 60002 333 10053 20005
30///
55300 0//// 20000 3//// 60007 70000 91005 91105 555 60000=
15301 02998 20504 11035 21068 38642 48514 52014 60002 80001 333 10032
21045
3//// 41998 60007 70000 92600 95000=
15302 02998 10201 11022 21070 38945 48490 52008 60002 80001 333 10028
21023
3/107 41998 55300 0//// 20000 3//// 60007 70000 91004 91106 95000 555
60000=
15307 02997 20000 10010 21039 30027 40221 5//// 60002 82040 333 10103
20000
34103 60007 70000=
15324 02997 00000 11009 21071 39411 42817 5//// 60002 333 10040 21016
34105
60007 70000=
15325 02997 30102 11054 21082 38476 48489 53010 60002 83040 333 10029
21057
3//// 41998 60007 70000 91005 91111 95000 555 60000=
15328 02997 03604 10050 21044 39878 40227 5//// 60002 333 10098 20025
31101
60007 70000=
15333 01492 81702 11019 21019 30197 40217 52015 60002 7464/ 886// 333
10028
21022 34102 60007 70000 91003 91104 92600 555 60000=
15345 02997 00000 10012 21072 39565 42820 5//// 60002 333 10056 20001
34103
60007 70000 92600=
15347 02999 00000 10020 21125 39673 40225 5//// 60002 333 10106 20016
34102
60007 70000=
15349 02998 22802 10032 21076 39651 40219 53012 60002 81041 333 10071
20003
34/// 55300 0//// 20000 3//// 60007 70000 91005 91107 555 60000=
15373 02997 13401 10005 21049 39825 40222 52018 60002 81040 333 10092
20002
34102 60007 70000 91002 91102 555 60000=
15375 02999 13203 11039 21056 39852 40232 51016 60002 81040 333 10082
21062
34105 60007 70000 91004 91104 92600 555 60000=
15377 02998 13101 11046 21053 39997 40226 52020 60002 81040 333 10050
21053
34106 60007 70000 91002 91102 92600 555 32000 42000 50000 60000
70000=
15402 02997 03401 11017 21031 30142 40220 52019 60002 333 10044 21017
34105
55300 0//// 20000 3//// 60007 70000 91002 91104 92600 555 60000=
15405 01996 02701 11010 21010 30157 40222 5//// 60002 7100/ 333 10035
21012
30102 60007 70000 92610=
15416 01996 22602 11014 21040 39968 40234 52012 60002 710// 82040 333
10081
21016 34102 60007 70000 91003 91103 92611 555 60000=
15419 02997 02603 11026 21044 30029 40234 52013 60002 333 10073 21045
34105
60007 70000 91004 91104 92600 555 60000=
15421 02997 22801 11001 21024 30119 40235 52015 60002 80001 333 10066
21016
34/// 55300 0//// 20000 3//// 6///7 70000 92600 555 60000=
15422 02997 02201 11013 21013 30122 40228 52014 60002 333 10037 21016
34101
55300 60007 70000 91003 91103 92600 92611 555 60000=
15425 01996 02304 11020 21026 30157 40225 52020 60002 71000 333 10041
21023
34101 60007 70000 91005 91105 92611 555 32000 42000 50010 60000
71010=
15444 01996 22002 11009 21009 30153 40231 5//// 60002 710// 81041 333
10027
21009 34102 60007 70000 92600=
15455 02997 22702 10002 21009 30085 40221 5//// 60002 82040 333 10077
21003
31102 60007 79999 92611=
15475 02997 22702 10030 20012 30197 40217 5//// 60002 80001 333 10052
20020
31001 60007 70000=
15489 02997 02203 10007 20001 30135 40233 53015 60002 333 10077 20004
31000
60007 79999 91005 91105 92600 555 60000=
15490 02997 20000 10000 21015 30200 40240 5//// 60002 80001 333 10088
21002
3/000 60007 70001 92600=
15491 02997 32003 10002 21002 30199 40231 52013 60002 83040 333 10063
20002
31101 60007 70000 91004 91105 555 60000=
15498 01996 02503 10016 21001 30190 40234 52015 60002 71000 333 10091
20016
31100 60007 70000 91004 91105 555 60000=
0000009400
657
SNNO21 ENMI 110500 RRB
AAXX 11051
01300 46/// /0806 10022 21017 39877 49975=
0000059000
658
SMIN90 VEBS 110600
AAXX 11064
42971 31995 01606 10282 20171 40165 70540
  333 58000=
42973 31995 00000 10268 20157 40173 70500
  333 59003=
42891 32596 21402 10260 20148 40159 82500
  333 59003=
42886 31996 02306 10256 20154 40154 70544
  333 59007=
42976 31995 01402 10258 20164 40169 70500
  333 58000=
42895 31995 00902 10260 20143 40166 70500
  333 59001=
43053 32996 00503 10264 20186 40167
222// 20701
  333 58002=
43049 31596 11402 10268 20201 40166 70500 81100
  333 59001 81825=
42883 32996 02702 10268 20172 40145
  333 59002=
0000011000
659
SMIN90 VICH 110600
AAXX 11064
42071 31995 02905 10128 20093 40210 40210 71000
  333 58015=
0000009100
660
UPIN90 VEBS 110600
PPAA 61061 42971 55392 19505 19009 23517=





0000052400
661
SMIN90 VECC 110600
AAXX 11064
43333 31495 70706 10292 20234 40134 70521 86401
  333 56109 58009 83616 84818 86070=
42503 31593 83203 10176 20130 40195 74454 8552/
  333 58013=
42399 21395 80000 10160 20124 40194 76160 8672/
  333 58024 6992/=
42811 32696 23401 10240 20138 40172 81430
  333 59003=
42901 32996 01102 10254 20159 40165
  333 58002=
42806 32996 00000 10244 20162 40170
  333 59002=
42299 21395 80000 10076 20034 38227 48539 72022 8763/
  333 58014 6990/ 81709 86617=
0000008200
662
UPIN90 VEBS 110600
PPAA 61061 42971
55392 19505 19009 23517 77999=
0000009800
663
SMIN90 VECC 110600
AAXX 11064
42806 32996 00000 10244 20162 40170
  333 59002=
0000013300
664
UGIN90 VEBS 110600
PPBB 61061 42971 90012 13504 12506 19003 90378 17507 20010 21511 
91023 23521 25008 23507=


0000009400
665
SNNO22 ENMI 110500 RRC
AAXX 11051
01400 46/// /2909 10067 20015 39989 40050=
0000441200
666
SMSN01 ESWI 110600
AAXX 11061
02019 05/99 /1402 11160 21177 39514 40165 53005 60002 8/000
  333 11129 21172 60005 70000 90760 91104=
02081 07/99 /2201 11268 21299 39756 40189 53010 69912 70087 8/000
  333 11247 21312 60005 70002 90760 91104=
02095 05/99 /3402 11303 21333 39945 40165 52008 60002 8/000
  333 11178 21313 60005 70000 90760 91103=
02101 47/64 /1206 11127 21192 39515 40086 58007 785// 8//// 333
11122 21136 81/13 83/19=
02119 05/99 /2201 11274 21303 39756 40169 53005 60002 8/000
  333 11177 21274 60005 70004 90760 91103=
02124 05999 /0304 11163 21202 39581 40130 53003 60002
  333 11145 21164 60005 70000 82/61 90760 91107=
02126 07857 /3503 11143 21169 39754 40106 53008 69972 77177
  333 11139 21144 69925 70008 88/57 90760 91105=
02151 35984 03203 11193 21207 39794 40148 53005 60002 
  333 11147 21205 60005 70000 91004 90710 91104 90710 91203=
02186 17984 00204 11154 21190 30088 40114 53010 60022 72275 
  333 11123 21155 60005 70017 91009 90710 91109 90710 91205=
02197 05/99 /0206 11159 21196 30093 40113 52010 69932 8/000
  333 11123 21160 60005 70007 90760 91111=
02207 07880 /1004 11162 21183 39318 40041 53001 69962 70087
  333 11142 21169 60005 70039 82/57 90760 91107=
02219 07/64 /1102 11154 21178 39386 40078 54001 60012 72275 8/000
  333 11144 21169 69915 70016 90760 91106=
02226 47/50 /0301 11147 21166 39599 40070 53005 771// 8//// 333
11142 21158 89/26=
02243 07/60 /0302 11130 21162 39795 40074 53002 69902 70010 8/000
  333 11130 21134 60005 70028 90760 91106=
02269 07/57 /0107 11104 21124 69982 77187 8/000
  333 11100 21109 69915 70016 90760 91112=
02287 07408 /0413 11058 21065 30032 40041 53005 60032 77277
  333 11058 21082 69955 70034 89/15 90760 91118=
02297 07/12 /0516 11072 21082 30016 40062 52006 69972 77177 8/000
  333 11063 21076 69905 70013 90760 91119=
02308 07250 /1301 11175 21197 39156 40048 53005 60032 77177
  333 11148 21178 69905 70051 86/04 88/12 90760 91102=
02327 07/66 /2801 11183 21198 39607 40061 53007 60032 77177 8/000
  333 11114 21189 69905 70053 90760 91102=
02355 07218 /3411 11072 21081 30023 40036 53005 69932 77177
  333 11061 21080 69905 70005 82/03 88/12 90760 91114=
02366 47535 /3205 11103 21118 30047 40053 53004 771// 8//// 333
11093 21103 83/23=
02407 07460 /0602 11102 21114 39651 40030 53008 60062 77174
  333 11065 21102 69905 70067 88/19 90760 91106=
02418 47/64 /0405 11016 21016 39859 49991 53008 754// 8//// 333
10002 21024 88/03=
02435 47/42 /0103 11079 21096 39839 40031 53008 771// 8//// 333
11063 21080 83/01 88/10=
02440 07257 /3001 11097 21112 60042 77177
  333 11076 21097 69925 70043 81/06 88/12 90760 91103=
02452 07431 /0704 11049 21051 60012 77187
  333 11039 21049 69945 70016 88/14 90760 91108=
02456 07363 /3502 11038 21045 39972 40015 55003 60032 72487
  333 11032 21056 69915 70093 85/09 87/11 88/35 90760 91105=
02469 07/17 /0401 11034 21044 60012 77170 8/000
  333 11033 21037 69965 70016 90760 91102=
02498 07204 /2904 11016 21020 39989 40005 55003 69992 77387
  333 10011 21016 69975 70022 89/05 90760 91107=
02518 464// /2310 10059 20048
  333 10060 20046 85/11 90760 91113=
02520 07469 82103 10049 20038 39926 49993 58003 69902 72286 
  333 10057 21005 69905 70005 81/15 83/20 88/56 91005 90710 91107 
90710 91206=
02550 47/66 /2305 10039 20034 39735 40009 54001 781// 8//// 333
10041 21005 81/09 83/15 87/56=
02562 17481 82304 10025 20022 39879 49994 55007 69902 74080 
  333 10025 21027 60005 70002 87/14 88/23 91006 90710 91106 90710 
91205=
02563 07581 /2304 10019 20011 39971 49993 56019 69942 72387
  333 10019 21022 69915 70004 84/20 86/37 88/65 90760 91107=
02565 07566 /2403 10043 20036 39896 40015 56008 69942 70087
  333 10043 21002 60005 70004 85/27 88/32 90760 91105=
02589 05499 /2104 11002 21016 39986 40007 56016 69922
  333 10008 21011 60005 70042 88/11 90760 91107=
02590 47256 /2003 10011 20008 39952 40014 56018 782// 8//// 333
10011 21011 84/06 85/10 88/19=
02618 07/56 /2306 10047 20041 39865 40029 57011 60032 76186 8/000
  333 10050 20004 69995 90760 91111=
02664 17477 82404 10048 20035 39980 40052 56003 69912 70086 
  333 10049 20007 60005 70001 86/15 88/65 91006 90710 91106 90710 
91204=
02679 07180 /2506 10041 20040 39983 40027 56012 69922 72387
  333 10041 21003 69915 70007 82/02 88/15 90760 91109=
0000055300
667
SMSN02 ESWI 110600
AAXX 11061
02464 47211 /3501 11036 21041 39991 40009 55003 772// 8//// 333
11032 21037 81/04=
02500 07962 /2408 10057 20045 39931 49973 58006 69902 72386
  333 10058 20041 69905 70000 85/58 88/61 90760 91111=
02513 46/// /2105 10064 20052 30005 40009 57010 8/000
  333 10066 20036 90760 91109=
02615 05468 /2409 10061 20052 30068 40073 57009 69932
  333 10063 20055 60005 70005 85/12 86/34 87/65 90760 91111=
02635 07/61 /2403 10059 20051 69912 70060 8/000
  333 10061 20050 60005 70046 90760 91110=
0000273300
668
SMPL40 SOWR 110600
AAXX 11061
12100 11465 72103 10052 20030 30104 40111 52001 69902 702// 875//
  333 10064 20052 31004 55/// 20060 70028 91109 93097=
12115 12475 72608 10057 20042 30078 40092 50000 60032 875//
  333 10061 20054 32005 70038 91115 93000=
12125 16/// /2605 10052 20037 30043 40094 52004 60022
  333 10059 20051 70079 93096 =
12135 11462 72806 10052 20043 30084 40087 53008 60032 78082 873//
  333 10057 20047 32003 70047 87916 91113 93002=
12185 11479 82705 10035 20031 39949 40085 53010 60012 72522 885//
  333 10041 20034 31003 70059 91109 93096=
12200 11465 52103 10043 20030 30109 40116 58003 69902 70381 85500
  333 10060 20043 31003 70004 91108 93097=
12215 11/// /2504 10039 20027 39947 40119 54000 60052 7////
333 10053 20039 3/004 70083  =
12272 11470 82405 10041 20034 39934 40102 52013 60072 70282 885//
  333 10044 20034 31003 70111 88611 91111 93003=
12285 11/// /2706 10049 20021 39993 40109 52013 60012 700//
333 10070 20044 3/004 55000 70022=
12345 11666 72306 10042 20014 30001 40147 51005 69902 70182 8453/
  333 10060 20042 31004 55014 70001 91113 93097=
12360 11672 72506 10046 20016 39995 40130 52007 69922 70282 875//
  333 10065 20046 32004 55005 70012 91011 91113 93097=
12385 11473 72504 10041 20016 39934 40125 53012 69902 70282 879//
  333 10060 20041 31004 70002 91114 93097=
12415 12984 72704 10027 21004 30015 40171 56002 60002 81038
  333 10063 20022 32000 55/// 20300 79999 91112 93000=
12455 12578 72504 10031 21004 39920 40170 52002 60002 875//
  333 10054 20024 31002 55004 79999 93000=
12497 12570 72609 10044 20005 39908 40129 53013 69942 875//
  333 10054 20042 32004 55003 70006 91116 93000=
12500 12684 32704 10023 21015 39757 40182 56003 60002 83500
  333 10051 20004 31102 55002 70007 93000=
12510 11/90 92916 11060 21064 38316 48442 57003 69992 74973
  333 11056 21066 3//// 49032 70020 93001=
12520 12481 81802 10018 21009 39750 40193 52001 60002 82507
  333 10045 20014 32101 55018 79999 82619 93000=
12550 11670 72402 10020 21013 39813 40179 53001 60002 700// 875//
  333 10056 20017 31001 55010 79999 93000=
12575 12670 72802 10047 21018 39929 40187 53008 60002 875//
  333 10066 20044 31003 55024 79999 91108 93000=
12585 12681 62405 10036 21004 39895 40166 52008 60002 86500
  333 10055 20035 31003 55010 79999 91111 93000=
12595 NIL=
12600 12682 72405 10037 21015 39702 40191 53001 60002 875//
  333 10047 20034 31003 79999 93000=
12650 11060 83105 11095 21103 37952 48472 53003 69912 73843 885//
  333 11083 21096 3//// 48025 55011 70010 91115 93000=
12660 12581 72402 10036 21037 39828 40193 52004 60002 875//
  333 10058 20036 31001 55024 70003 93000=
0000144600
669
SMPL50 SOWR 110600
AAXX 11061
12210 11597 82403 10047 20022 30051 40120 57001 69902 702// 885//
  333 10062 20046 31004 70025 93097=
12230 11460 82303 10041 20018 30040 40131 53001 69902 70282 875//
  333 10059 20041 31004 70003 93097=
12310 12980 82304 10037 20017 30080 40147 57008 60002 82037
  333 10066 20035 31002 70002 93000=
12399 11577 72607 10049 20014 39947 40116 52016 69942 70182 875//
  333 10058 20048 31004 55007 70017 91115 93097=
12418 12570 82303 10029 20011 30045 40161 57001 60002 82507
  333 10060 20026 31002 55015 79999 93000=
12469 12681 72406 10033 20002 39923 40158 52006 60002 875//
  333 10055 20033 31003 79999 93000=
12488 12583 72504 10048 21002 39989 40145 52010 69902 875//
  333 10067 20048 31004 55002 79999 91111 93000=
12540 12675 72505 10032 20004 39933 40190 56003 60002 878//
  333 10044 20006 32101 55026 93000=
12560 12698 72203 10030 21006 39843 40190 53002 60002 875//
  333 10054 20018 31000 55002 70001 93000=
12625 12684 82502 10007 21060 39180 42796 53003 60002 885//
  333 10015 20005 34100 55012 20188 70004 93000=
12670 12784 72404 10043 21040 39780 40187 52006 60002 875//
  333 10057 20042 31004 55008 70027 91109 93000=
12690 12580 62304 10015 21030 39675 40196 52007 60002 84530
  333 10040 20015 32001 55009 70040 91109 93000=
12695 11/// /9904 10050 21035 39838 40180 52010 60002 700//
333 10075 20049 3/003 55009 70009=
0000043000
670
SMCR01 GCLP 110600
AAXX 11064
60020 11965 03102 10153 20094 30119 40164 55000 60004 702//
  333 20152 55087 924/7=
60030 02560 13307 10149 20111 30107 40163 51007 60004 81800
  333 012// 20139 55076 60007 924/6=
60040 02581 13307 10128 20094 30147 40172 53001 60004 81800
  333 011// 20120 55063 60007 924/8=
60338 12462 82406 10140 20118 30102 40167 52018 60004 82717
 333 20132 55002 82712 92427=
0000014500
671
SSVX05 CWAO 110600
ZZYY 48505 11014 0600/ 783962 123489 6113/ 11119 
11289 49940 52007 444 20130 11014 0600/ 50000 80136 80001=
0000012100
672
SSVX05 CWAO 110600
ZZYY 48524 11014 0600/ 772307 179100 6113/ 444 
20130 11014 0600/ 50400 80140 80001=
00000000