0000211500
633
SMCN27 CWAO 110600
AAXX 11064
71700 15966 12304 11137 21150 30226 40253 57007 60001
333 11018 21247 70000=
71701 12974 22602 11077 21090 30188 40252 57007 60001 82070 333
11020 21208 44027 70000 555 10000 20000=
71702 15/// /2407 11067 21083 30221 40237 58006 60001
333 11028 21176 70000 555 32526 4018/=
71703 NIL=
71704 17259 81613 10034 20033 39823 40043 58061 60081 7614/
333 10036 21047 70228
555 31721 4003/=
71710 15/// /2513 11048 21087 30218 40228 55003 60001
333 11033 21102 70000 555 32431 40211=
71712 15/// /0606 11030 21044 30116 40179 58042 60001
333 11027 21193 70000=
71713 15/// /2113 11018 21048 30171 40211 56006 60001
333 11017 21135 70000 555 32132 4022/=
71716 15/50 /0402 11071 21089 30007 40220 58021 60001
333 11068 21294 70005=
71717 17456 81110 11034 21042 38680 49978 58066 60001 771//
333 11003 21093 70000
555 31520 4005/=
71720 17/// ///// 10049 20037 39812 49963 56075 60141 7//4/
333 10060 20007 70150=
71721 15/// /1503 11033 21033 39911 40162 56036 60001
333 11033 21193 70000=
71723 15/// /0507 11076 21090 30195 40205 58030 60001
333 11075 21185 70000=
71724 45/// /0204 11079 21097 30205 40213 58028 6///1
333 11079 21180 7////=
71732 15/// /1704 11008 21012 60001
333 11008 21095 70000=
71733 17/// /1310 11013 21017 39632 40061 58058 60021 7//4/
333 11013 21096 70015=
71734 15/// /1509 11034 21034 39701 40096 58037 60001
333 11029 21110 70000 555 32120 40070=
71736 15/// /2413 10014 21051 38700 40070 58014 60001
333 10038 21019 70000 555 32537 4018/=
71737 NIL=
71741 15/// /1013 10017 21001 39610 40029 58058 60001
333 10018 21029 70003 555 30818 4006/=
71742 15/// /2414 11065 21096 39984 40174 55009 60001
333 11055 21159 70000 555 32829 4008/=
71743 NIL=
71744 15/// /2307 11088 21140 30188 40230 56008 60001
333 11044 21180 70000 555 32221 4018/=
71745 NIL=
71746 17/// /1611 10036 20028 39821 40040 58060 60071 7//4/
333 10038 21046 70092 555 31618 4005/=
71747 15/// /2102 11045 21052 39505 49980 58015 60001
333 11044 21091 70000=
71748 NIL=

0000156600
634
SMCN21 CWAO 110600
AAXX 11064
71102 NIL=
71105 NIL=
71107 NIL=
71110 NIL=
71111 17448 80823 10032 20020 39794 49802 56072 60171 76144
333 10059 20011 70183
555 31043 40043=
71112 17/// ///// 60171 7//4/
333 70178=
71113 17/// /0000 10051 20043 30005 40028 58055 60071 7//4/
333 10097 20028 70111 555 32619 4016/=
71115 15/// /0908 10011 20005 39473 40052 57049 60001
333 10016 21022 70024=
71116 15/// /3508 11054 21082 38992 40097 50009 60001
333 10008 21078 70000 555 32723 4007/=
71118 15/// /2510 11074 21105 39229 40068 51008 60001
333 11034 21145 70000 555 32918 4001/=
71121 15964 02306 11070 21119 39218 40046 58006 60001
333 11007 21103 70000=
71127 15/// /2207 11056 21093 39130 40046 58007 60001
333 10002 21068 70000 555 32922 4023/=
71130 15566 82407 11063 21078 39549 40010 51013 60001
333 11061 21154 70000=
71132 17666 80805 11242 21278 39707 40034 55008 60001 771//
333 11215 21273 70000=
71133 15/// /2710 11068 21086 39315 40023 51016 60001
333 11015 21091 70000 555 32720 4002/=
71136 15/// /3012 11084 21094 39519 40036 51019 60001
333 11069 21181 70000 555 33117 4006/=
71139 15/// /3403 11061 21078 38618 40080 51015 60001
333 11001 21062 70000 555 32924 4010/=
71141 NIL=
71142 15966 12616 11078 21092 39104 40082 51016 60001
333 11025 21089 70000
555 32824 40111=
71144 45/// /3206 11096 21111 6///1
333 11062 21129 7////=
71147 15/// /3008 11074 21089 60001
333 11016 21142 70007=
71149 15/// /1803 11132 21146 60001
333 11084 21168 70000=

0000070200
635
SMCN28 CWAO 110600
AAXX 11064
71812 17466 82106 10038 20020 39732 40003 58063 60001 761//
333 10078 20012 70000
555 31934 40111=
71819 15566 32807 11093 21128 30097 40139 53016 60001
333 11089 21207 70000
555 32434 40202=
71820 15/// /1503 10004 21009 30031 40147 58041 60001
333 10016 21070 70004 555 32021 4009/=
71823 NIL=
71824 NIL=
71826 NIL=
71829 NIL=
71833 45/// /1004 10013 20013 6///1
333 10022 21086 7////=
71835 NIL=
71837 NIL=
71839 NIL=
71840 15/// /3011 11066 21082 60001
333 11011 21102 70005 555 33117 4002/=
71846 NIL=
71847 NIL=
71848 NIL=
71849 15/// /2909 11092 21103 39703 40004 51018 60001
333 11046 21100 7////=

0000193900
636
SMCN25 CWAO 110600
AAXX 11064
71500 NIL=
71501 NIL=
71502 NIL=
71503 NIL=
71504 NIL=
71505 45/// /0000 11245 21272 39207 49951 57011 6///1
333 11147 21245 7////=
71506 NIL=
71507 15/// /3503 11199 21213 60001
333 11128 21219 70000=
71508 NIL=
71509 NIL=
71511 45/// /2509 11091 21097 39401 40047 53017 6///1
333 11052 21143 7////=
71512 15/// /2705 11069 21089 30168 40182 55000 60001
333 11069 21172 70000=
71513 15566 82907 11064 21082 30159 40175 55004 60001
333 11054 21196 70000
555 32919 4009/=
71514 15/// /2807 11075 21091 39351 40058 51019 60001
333 11075 21160 70000=
71515 NIL=
71516 15/// /2913 11069 21098 39157 40064 51029 60001
333 11012 21071 70000 555 32625 4010/=
71517 NIL=
71518 NIL=
71519 15/// /1304 11106 21113 60001
333 10041 21118 70000 555 32619 40080=
71520 NIL=
71521 NIL=
71522 NIL=
71523 NIL=
71524 15/// /0303 11086 21106 30187 40215 56032 60001
333 11086 21211 70000=
71525 15/// /2307 11108 21114 60001
333 10027 21117 70000 555 32624 40091=
71526 15/// /2009 11088 21093 60001
333 11027 21096 70000=
71527 17116 82007 11055 21055 39466 49972 58011 60001 710//
333 11055 21094 70000
555 31919 4017/=
71528 NIL=
71529 45/// /2301 11256 21288 39779 40015 52008 6///1
333 11202 21267 7////=
71532 17128 81309 10012 20009 39749 40095 58053 69931 7614/
333 10012 21122 70003=
71534 17125 91407 10016 20016 39817 40089 58050 69951 7614/
333 10016 21111 70015=
71535 NIL=
71536 NIL=
71537 NIL=
71539 15/// /2814 11075 21096 39363 40067 51019 60001
333 11050 21155 70005 555 32819 4005/=
71540 NIL=
71541 NIL=
71542 17/// /0000 11207 21228 69941 7//4/
333 11146 21210 70010=
71543 15/// /0104 11118 21141 60001
333 11025 21150 70000 555 32520 40001=
71544 NIL=
71545 45/// ///// 11109 21125 6///1
333 11010 21155 7////=
71546 NIL=
71547 NIL=
71548 NIL=
71549 NIL=

0000273700
637
SMCN33 CWAO 110600
AAXX 11064
71350 15/// /2204 11059 21065 30173 40240 55003 60001
333 11034 21187 70000 555 32118 4018/=
71351 NIL=
71352 17/// /1108 10019 20015 39626 40080 58053 60051 7//4/
333 10023 21084 70060=
71353 NIL=
71354 NIL=
71355 15/// /3002 11109 21179 39859 49944 51022 60001
333 11053 21323 70002 555 32239 4002/=
71356 15/// /1307 11303 21336 39991 40061 55003 60001
333 11284 21344 70000 555 33225 4012/=
71357 17/// /2301 11212 21232 39950 49957 52020 69931 7//4/
333 11173 21265 70010=
71358 15/// /3202 11292 21326 39883 49919 53016 60001
333 11226 21312 70000=
71359 NIL=
71360 NIL=
71361 15/// /2803 11275 21307 39833 40050 53004 60001
333 11198 21283 70018=
71362 NIL=
71363 NIL=
71364 15/// /2907 11263 21291 39929 40068 58004 60001
333 11224 21271 70000 555 32921 4012/=
71365 17/// /3307 11241 21265 39838 40061 56007 69921 7//4/
333 11187 21274 70006=
71366 15966 02712 11234 21268 39952 40016 53023 60001
333 11158 21236 70000
555 32926 40211=
71367 15/// /2408 11052 21081 39973 40182 53006 60001
333 11052 21149 70007 555 32528 4003/=
71368 17120 81007 10017 20016 39693 40082 58054 60061 7614/
333 10018 21083 70065=
71369 15966 01203 11137 21139 39317 40036 58006 60001
333 11076 21172 70000=
71370 45/// /0403 11088 21105 30066 40207 58028 6///1
333 11088 21220 7////=
71371 17559 80206 11060 21077 30162 40197 57036 60001 710//
333 11028 21165 70000=
71372 15/// /1610 10002 21026 60001
333 10002 21177 70000 555 31817 40150=
71373 15/// /1405 10007 21022 60001
333 10007 21160 70011=
71374 NIL=
71375 45/// /2819 11043 21085 6///1
333 11042 21126 7//// 555 32931 4007/=
71376 NIL=
71377 15/// /0305 11065 21082 30139 40189 56038 60001
333 11057 21184 70000=
71378 15/// /1903 11072 21081 39989 40204 58025 60001
333 11071 21285 70000=
71379 15/// /1713 11054 21077 39989 40163 58016 60001
333 11051 21296 70010 555 31917 4005/=
71380 NIL=
71381 NIL=
71382 15/// ///// 11086 21091 39238 40200 58014 60001
333 11084 21212 70018=
71383 NIL=
71384 15/// /2603 11040 21063 30213 40221 58018 60001
333 11040 21142 70000=
71385 45/// /2321 11033 21048 6///1
333 11033 21113 7//// 555 32232 4001/=
71386 NIL=
71387 NIL=
71388 45/// /1103 11081 21109 30008 40202 57009 6///1
333 11079 21313 7////=
71389 NIL=
71390 NIL=
71391 NIL=
71392 15/// /0000 11063 21076 60001
333 11062 21218 70000=
71393 NIL=
71395 11162 82209 10004 21002 30081 40264 57007 69901 77182 887//
333 10004 21143 43004 79999 90966
555 19999 29999 32422 40181=
71398 15666 81810 11008 21034 30039 40050 58021 60001
333 11004 21061 70000
555 32227 40111=
71399 NIL=

0000278400
638
SMCN35 CWAO 110600
AAXX 11064
71550 15/// /2615 11072 21086 39625 40003 50002 60001
333 11062 21172 70000 555 32520 4005/=
71551 NIL=
71552 45/// /3009 11074 21085 6///1
333 11045 21092 7////=
71553 15/// /2305 11095 21105 39357 40032 50006 60001
333 11075 21174 70000=
71554 15/// /1809 11059 21086 30204 40210 58004 60001
333 11058 21144 70000 555 32020 40150=
71555 15/// /1202 11031 21104 38509 40070 58011 60001
333 10026 21042 70000 555 32631 40110=
71556 17/// /2909 11082 21087 39439 40052 51017 69931 7//4/
333 11077 21138 70011=
71557 45/// /0907 10036 21013 6///1
333 10070 21022 7//// 555 30717 4006/=
71558 15/// ///// 11095 21128 30094 40132 53015 60001
333 11089 21206 70000=
71559 15/// /2604 11071 21082 39351 40057 53016 60001
333 11026 21073 70000 555 32818 4019/=
71560 NIL=
71564 15/// /3107 11068 21086 39635 40006 51014 60001
333 10004 21125 70005=
71565 NIL=
71566 NIL=
71567 NIL=
71568 47/// /1311 10014 20002 39935 49947 58062 6///1 7//4/
333 10070 20013 7//// 555 32932 4014/=
71569 15/// /2711 11085 21094 39335 40043 52017 60001
333 11064 21147 70004 555 32917 4019/=
71570 15/// /3004 11059 21072 39671 49984 51008 60001
333 11041 21075 70032=
71571 NIL=
71572 NIL=
71573 17/// /0803 10030 20024 39788 40069 58051 60051 7//4/
333 10040 21067 70065=
71574 13074 02403 11201 21229 30153 40230 50002 60001
333 11094 21289 79999
555 19999 29999=
71575 15/// /2911 11236 21268 39950 40017 53023 60001
333 11160 21238 70000 555 33025 4021/=
71576 15/// /2003 11240 21267 39844 49930 53015 60001
333 11194 21268 70008=
71577 45/// ///// 11076 21093 6///1
333 11048 21146 7////=
71578 15/// /3402 60001
333 70000=
71579 15/// /3004 11086 21100 39708 49993 51017 60001
333 11039 21090 70000=
71580 11674 62003 11333 21366 39948 49986 51009 69901 77677
86530 333 11309 21378 44017 79999 90983 555 19999 29999=
71581 15/// /1601 10001 21002 39624 40109 58047 60001
333 10002 70000=
71582 17558 81308 10043 20039 39792 49844 56071 60121 76244
333 10050 20007 70153
555 33127 4007/=
71584 15966 62711 11077 21111 30128 40177 55002 60001
333 11077 21173 70000
555 32820 4020/=
71585 NIL=
71586 17/// /3009 11089 21104 39541 40008 51021 69931 7//4/
333 11052 21089 70020=
71587 17632 80903 11080 21089 39608 49968 58010 60001 771//
333 11068 21109 70000=
71588 15/// /2506 11040 60001
333 70000=
71589 NIL=
71590 15/// /3301 11172 21194 30033 40232 58004 60001
333 11061 21264 70000=
71592 NIL=
71593 NIL=
71597 17956 62308 11325 21361 39925 49990 55000 60001 704//
333 11313 21367 70000
555 32922 40081=
71598 17/// /2305 11115 21165 30219 40225 58001 69921 7//4/
333 11095 21182 70009=
71599 NIL=

0000301400
639
SMCN37 CWAO 110600
AAXX 11064
71744 NIL=
71750 15/// /1603 11001 21008 39760 49992 58038 60001
333 10009 21034 70000 555 32023 4010/=
71751 45/// /1904 11015 21022 39716 49973 58031 6///1
333 11012 21049 7//// 555 32120 4020/=
71752 17/// /1604 10045 20035 39872 40089 56051 69931 7//4/
333 10051 21066 70016=
71753 15/// /2404 10004 21007 30224 40254 56008 60001
333 10007 21206 70002 555 32117 4018/=
71754 17/// /3107 11084 21099 39388 40061 53014 60011 7//4/
333 11072 21156 70018=
71756 17/// /0102 11008 21009 38907 49985 58055 60071 7//4/
333 10009 21015 70070=
71758 15/// /2214 11011 21029 30169 40248 55010 60001
333 11011 21118 70000 555 32525 4017/=
71760 NIL=
71761 NIL=
71762 NIL=
71763 NIL=
71765 15/// /2206 10038 20022 39730 40001 58064 60001
333 10077 20010 70000 555 32334 4010/=
71766 17/// /1314 10064 20057 39892 49962 57075 60131 7//4/
333 10075 20035 70146 555 31324 4006/=
71767 17/// /1411 10028 20027 39784 40044 58063 60051 7//4/
333 10029 21035 70055 555 31517 4006/=
71768 15/// /2402 10012 21002 39513 40059 58044 60001
333 10034 21012 70000=
71769 17/// /1135 10066 20057 39953 49969 56071 60141 7//4/
333 10078 20061 70148 555 31145 4005/=
71770 17/// /2202 10023 20014 39344 40114 58016 69921 7//4/
333 10068 21010 70028 555 32020 4022/=
71771 NIL=
71772 17/// /1232 10070 20058 39971 49977 56070 60121 7//4/
333 10077 20061 70124 555 31241 4006/=
71773 15/// /3303 11113 21120 39073 49930 56012 60001
333 11087 21148 70000=
71774 17/// ///// 10047 20041 39551 49983 56062 60211 7//4/
333 10065 20041 70220=
71775 17/// /0311 10043 20030 30008 40014 58067 60141 7//4/
333 10076 20030 70162 555 30317 4006/=
71776 17/// /2102 10012 20007 39459 40100 58024 60021 7//4/
333 10034 21001 70037=
71777 17/// ///// 10001 20000 39757 40005 58059 60081 7//4/
333 10020 20001 70084=
71778 45/// /0410 10070 20060 39950 49954 56062 6///1
333 10088 20069 7//// 555 32545 4016/=
71779 17/// /1312 11011 21018 39309 49965 58081 60021 7//4/
333 10004 21082 70041 555 31519 4006/=
71780 17/// /0603 10082 20071 39952 49979 56071 60241 7//4/
333 10086 20063 70272 555 32738 4014/=
71781 45/// /1145 10066 20054 39909 49933 56090 6///1
333 10081 20062 7//// 555 31153 4006/=
71782 15/// /1706 10013 21031 38767 40085 58011 60001
333 10031 21030 70000 555 31925 4020/=
71783 17/// /1605 10074 20064 39917 49989 56066 60111 7//4/
333 10085 20068 70120 555 32326 4007/=
71784 17/// /0708 10057 20039 39809 40013 58064 60191 7//4/
333 10067 20042 70207 555 30418 4005/=
71785 17/// /0504 10060 20047 30003 40019 58065 60121 7//4/
333 10094 20059 70136=
71786 15/// /2613 11067 21073 38244 40062 58020 60001
333 11045 21073 70000 555 32524 4000/=
71787 15/// /2609 11058 21065 39747 40247 58004 60001
333 11025 21162 70000 555 32328 4018/=
71788 NIL=
71789 NIL=
71791 NIL=
71792 NIL=
71793 NIL=
71794 NIL=
71795 NIL=
71796 NIL=
71797 NIL=

0000109700
640
SMCN29 CWAO 110600
AAXX 11064
71900 45/// /3011 11109 21156 30060 40073 53023 6///1
333 11096 21188 7//// 555 32634 4007/=
71903 NIL=
71904 NIL=
71914 17/// /0205 10064 20057 39762 49979 56067 60081 7//4/
333 10076 20056 70096 555 30723 4006/=
71916 NIL=
71918 45/// ///// 11345 39558 49998 53005 6///1
333 11317 21356 7////=
71920 15/// /2213 10031 20024 30270 40276 58013 60001
333 10031 21076 70002 555 32323 4022/=
71921 16564 8//// 11094 21119 39443 40093 51014 60001
333 11093 21208 79999=
71923 NIL=
71927 17/// /1901 10066 20065 39933 49990 56075 60021 7//4/
333 10105 20050 70076 555 32519 4010/=
71932 15/// /1309 10025 20021 39710 40105 58055 60001
333 10026 21078 70014=
71933 17/// /0502 11029 21036 39140 49965 57053 69931 7//4/
333 11026 21112 70003=
71941 17116 81510 11039 21040 39699 40121 58034 60001 710//
333 11039 21106 70000=
71944 15/// /1602 11051 21060 39154 49989 56043 60001
333 11029 21130 70000=
71947 17258 81809 11036 21044 39750 40100 58030 60001 710//
333 11034 21094 70000
555 31925 4014/=

0000278400
641
SMCN31 CWAO 110600
AAXX 11064
71150 45/// /3008 11077 21087 39332 40020 51016 6///1
333 11074 21193 7//// 555 33217 4004/=
71151 NIL=
71152 15/// /2819 11025 21047 30203 40216 55010 60001
333 11025 21098 70000 555 32840 4003/=
71153 15/// /2205 10014 21053 60001
333 10049 21045 70000 555 32729 40131=
71154 15/// /2313 10020 21051 60001
333 10036 21024 70000 555 32242 40102=
71155 NIL=
71156 17/// /0000 11118 21133 38927 40028 58024 69921 7//4/
333 10009 21121 70002 555 32822 4023/=
71157 45/// ///// 11075 21086 6///1
333 11001 21126 7////=
71158 NIL=
71159 15/// /2709 11032 21074 30133 40207 55005 60001
333 11030 21088 70000 555 32823 4009/=
71160 NIL=
71161 NIL=
71162 NIL=
71163 45/// /3002 11256 21280 39687 40043 58001 6///1
333 11233 21284 7////=
71164 NIL=
71165 NIL=
71166 NIL=
71167 15966 63501 11106 21114 38931 40033 58023 60001
333 10006 21128 70000
555 33026 40221=
71168 15/// /2807 11059 21065 39442 40032 51003 60001
333 11003 21072 70000 555 31825 4007/=
71170 15/// /2713 11081 21094 60001
333 11070 21184 70000=
71171 17/// /0000 10015 20004 39988 40085 56049 69941 7//4/
333 10039 21067 70014=
71172 17/// ///// 10019 20013 39848 40065 58055 69991 7//4/
333 10019 21108 70009=
71174 15166 83207 11327 21363 30057 40071 55001 60001
333 11287 21330 70000
555 33022 40071=
71175 NIL=
71176 45/// /2526 11222 39301 40002 53029 6///1
333 11194 21225 7//// 555 32357 40093=
71177 45/// ///// 11238 38952 49983 51025 6///1
333 11177 21238 7//// 555 32139 40172=
71178 15/// /2525 11047 21085 30143 40176 55009 60001
333 11047 21121 70000 555 33045 4010/=
71179 45/// /2909 11141 39192 40039 50009 6///1
333 11140 21250 7//// 555 32544 40031=
71180 15/// /2618 11021 21058 30193 40233 55009 60001
333 11017 21075 70000 555 32733 4007/=
71181 NIL=
71183 15/// /0107 11059 21079 30152 40193 56036 60001
333 11040 21133 70000=
71184 45/// /0406 11076 21089 6///1
333 11076 21183 7////=
71186 NIL=
71187 17148 81103 10045 20045 39985 40032 58056 60061 76144
333 10091 20024 70223
555 32838 40131=
71189 45/// /0000 11102 6///1
333 11095 21259 7////=
71190 NIL=
71191 15/// ///// 11042 60001
333 70000=
71192 17448 81513 11006 21017 39310 49966 58082 60021 7714/
333 10004 21073 70053
555 31422 4006/=
71193 15/// /1407 11018 21026 39690 40053 58043 60001
333 11013 21113 70000 555 31819 4015/=
71195 45/// ///// 11171 21185 38983 49960 57014 6///1
333 11157 21249 7////=
71196 15/// /1208 11026 21030 39935 40137 58043 60001
333 11026 21221 70004=
71197 NIL=
71198 45/// /0307 11078 21097 6///1
333 11078 21183 7////=
71199 15/// /1402 11086 21091 39095 49929 58023 60001
333 11062 21146 70000=

0000276500
642
SMCN32 CWAO 110600
AAXX 11064
71250 15/// /2815 11045 21088 30053 40192 55005 60001
333 11044 21120 70000 555 33034 4009/=
71251 15/// /0504 11096 21117 39169 40104 51001 60001
333 10033 21111 70000 555 32426 40070=
71252 15/// /0000 11107 21134 38482 40076 58033 60001
333 10002 21128 70000 555 33517 4021/=
71253 45/// /0603 11186 21202 6///1
333 11144 21240 7////=
71254 15/// /2206 11069 21083 60001
333 11008 21179 70000=
71255 17/// ///// 11153 21177 69921 7//4/
333 11114 21169 70014=
71256 45/// /0000 11066 21106 39091 40027 58016 6///1
333 10008 21088 7//// 555 33018 4022/=
71257 NIL=
71258 NIL=
71259 NIL=
71261 17/// /1511 10043 20035 39782 40041 58056 60041 7//4/
333 10049 21061 70049 555 31621 4005/=
71263 11416 80507 10011 20005 39799 40089 58049 69961 78022 885//
333 10025 21077 43008 70028 90920
555 10022 20022=
71264 15/// /2308 10019 20010 30240 40272 56009 60001
333 10019 21122 70000 555 32219 4019/=
71265 17748 80709 10026 20019 30004 40098 58053 69981 761//
333 10028 21050 70028=
71266 NIL=
71267 15966 61305 11049 21070 38985 40081 58007 60001
333 10043 21050 70000
555 32643 40093=
71268 17/// /1303 11041 21046 39301 49918 58062 60011 7//4/
333 11025 21078 70010=
71269 NIL=
71270 15/// /1514 10021 20012 39851 40071 56058 60001
333 10021 21083 70000 555 31521 4006/=
71271 15/// ///// 11061 21098 60001
333 11017 21075 70000=
71272 15966 00202 11299 21336 39716 40090 53030 60001
333 11181 21312 70000=
71273 15/// /3005 11061 21083 39376 40039 53016 60001
333 11017 21130 7////=
71274 NIL=
71275 NIL=
71276 NIL=
71277 NIL=
71278 NIL=
71279 15/// /3103 11092 21119 30124 40192 53007 60001
333 11090 21197 70000=
71281 NIL=
71282 45/// /1011 10019 20010 39817 40087 58056 6///1
333 10021 21131 7//// 555 31317 4006/=
71283 NIL=
71284 15/// ///// 11098 21117 60001
333 11006 21115 70006=
71285 NIL=
71286 NIL=
71287 NIL=
71288 17/// /2008 11272 21300 39907 49933 56014 69951 7//4/
333 11271 21334 70005=
71289 NIL=
71290 17466 81603 11052 21060 39160 49993 56044 60001 771//
333 11028 21138 70000=
71291 17/// /1502 11019 21025 39696 49984 58032 69921 7//4/
333 11017 21056 70002 555 31823 4019/=
71292 15966 12411 11079 21094 39407 40021 50003 60001
333 11054 21147 70000
555 32917 4002/=
71293 NIL=
71294 15/// ///// 11002 21002 39718 40124 58043 60001
333 11002 21154 70000=
71295 17/// /1402 11056 21064 39522 49967 58009 60021 7//4/
333 11055 21082 70036=
71296 17/// /1307 10015 20012 39781 40088 58050 60011 7//4/
333 10017 21102 70026=
71297 NIL=
71298 NIL=
71299 15/// /1409 11020 21033 39762 40033 58037 60001
333 11018 21079 70000 555 31925 4018/=

0000135900
643
SMCN30 CWAO 110600
AAXX 11064
71051 NIL=
71055 NIL=
71056 15/// /3006 11178 21199 39749 40056 51009 60001
333 11159 21196 70009=
71057 NIL=
71059 45/// ///// 11313 39873 49967 56001 6///1
333 11236 21313 7////=
71061 15/// /2203 11112 21131 39248 40043 58006 60001
333 10005 21144 70000=
71062 15/// /1806 11059 21082 38957 40042 58017 60001
333 10007 21095 70000=
71064 45/// /2511 11301 39717 49940 56008 6///1
333 11293 21319 7//// 555 32922 40121=
71065 NIL=
71067 NIL=
71070 NIL=
71072 17424 83301 11035 21038 39740 49986 58029 60001 771//
333 11028 21063 70000=
71073 NIL=
71074 NIL=
71075 NIL=
71078 17966 00306 11242 21268 39567 40025 69931 771//
333 70003=
71084 45/// /1909 11284 39921 49970 56010 6///1
333 11284 21334 7//// 555 32623 40201=
71085 15766 12414 10015 21050 38698 40067 58014 60001
333 10042 21019 70000
555 32738 40182=
71087 NIL=
71088 45/// /3213 11282 6///1
333 11220 21283 7//// 555 32120 40110=
71089 NIL=
71096 45/// /2202 11222 39197 49938 53019 6///1
333 11191 21231 7//// 555 33321 40081=
71097 45/// /2905 11204 39502 49985 53022 6///1
333 11172 21220 7////=
71098 17/// /1506 10009 20008 39557 40082 58046 60201 7//4/
333 10011 21093 70336=
71099 17566 80707 11141 21158 30020 40041 58006 60001 771//
333 11116 21197 70000=

0000058200
644
SMCN38 CWAO 110600
AAXX 11064
71851 15/// /2806 11077 21089 39672 40011 53017 60001
333 11064 21167 70000=
71857 NIL=
71860 NIL=
71872 NIL=
71874 NIL=
71876 15966 03008 11082 21089 39389 40063 53014 60001
333 11074 21149 70000=
71884 17/// /2111 10035 20029 30215 40260 58012 69921 7//4/
333 10036 21120 70005 555 32021 4019/=
71885 NIL=
71886 15/// /2410 11079 21095 39410 40024 50005 60001
333 11053 21148 70000=
71888 NIL=
71890 15/// /3301 11097 21120 30170 40199 58004 60001
333 11060 21176 70000 555 32620 4020/=
71895 NIL=

0000209500
645
SMCN36 CWAO 110600
AAXX 11064
71660 15/// /2003 10016 21016 39004 40097 58011 60001
333 10054 21067 70000=
71663 15/// /2611 11087 21103 39271 40060 53016 60001
333 11053 21103 70000=
71664 15966 62209 11058 21097 39217 40043 58007 60001
333 10002 21143 70000=
71665 NIL=
71666 15/// /2310 11067 21085 30193 40239 55002 60001
333 11031 21166 70000 555 32425 4018/=
71667 NIL=
71668 15/// /3403 11116 21123 30208 40253 56006 60001
333 11019 21238 70004=
71669 NIL=
71670 15/// ///// 11082 60001
333 70000=
71671 NIL=
71672 45/// /0803 10006 20000 39849 40115 58047 6///1
333 10013 21144 7////=
71673 NIL=
71674 NIL=
71675 17528 81104 11079 21090 39708 49988 58019 69951 7714/
333 11071 21115 70005=
71678 17640 80703 11080 21087 39628 49974 58014 60001 771//
333 11069 21114 70000=
71679 17/// /0705 11031 21038 38903 49902 58079 60051 7//4/
333 10006 21058 70057 555 32419 4018/=
71680 NIL=
71681 45/// /0901 11014 21022 6///1
333 11000 21058 7////=
71682 NIL=
71683 NIL=
71684 17116 81316 11023 21023 39778 40081 58049 60001 747//
333 11021 21131 70000
555 32122 40091=
71685 17224 81406 10004 20000 39544 40082 57037 60021 7714/
333 10011 20000 70043
555 31718 4012/=
71686 15666 60703 11124 21132 38981 49932 56036 60001
333 11042 21126 70000=
71687 17/// ///// 10001 20001 39222 49994 58056 60071 7//4/
333 10024 20001 70075=
71688 17/// /0000 11004 21006 38968 49989 58054 60151 7//44
333 10014 21017 70198=
71689 15666 30701 11172 21191 39571 40037 58002 60001
333 11111 21181 70000=
71690 NIL=
71691 15466 33301 11093 21120 30171 40199 58004 60001
333 11062 21176 70000
555 32521 40211=
71692 NIL=
71693 NIL=
71694 17/// /1303 10016 20012 39736 40100 58053 60061 7//4/
333 10017 21132 70065=
71695 NIL=
71696 15/// /3206 11278 21305 30027 40066 58003 60001
333 11193 21285 70000 555 33022 4007/=
71697 17764 80807 10027 20014 39929 40101 58056 60001 761//
333 10028 21085 70013=
71699 15/// /3001 11014 30246 40254 56012 60001
333 10009 21148 70000=

0000012700
646
SSVX05 CWAO 110600
ZZYY 47550 11014 0600/ 770787 069468 6113/ 444 
20130 11014 0600/ 50101 80134 80001 9////=
0000015100
647
SSVX05 CWAO 110600
ZZYY 48593 11014 0600/ 771650 176504 6113/ 11119 
40194 57019 22291 01093 444 20130 11014 0600/ 50400 80138 80001=
0000015100
648
SSVX05 CWAO 110600
ZZYY 48510 11014 0600/ 778982 129243 6113/ 11122 
11223 49812 57023 444 20130 11014 0600/ 50100 80132 80001 9////=
0000130000
649
SMBY40 UMMN 110600
AAXX 11061
26643 11570 62907 10021 21004 39836 49997 52031 60022 72065 86500
333 20018 86622 91014 91114 555 90010=
26653 11459 82905 10022 20012 39812 49974 52034 60052 76166 8872/
333 20020 88711 91011 91112 555 90010=
26657 11470 72807 10014 21008 39773 40010 60022 875// 333 20011
86710 91012 91117 555 90010=
26668 11465 82706 10021 20008 39756 49971 60042 70262 887// 333
20015 88712 91013 91116 555 90010=
26759 NIL=
26774 11458 83006 10016 20005 39713 49963 52026 60032 76176 887// 333
20015 88710 91011 91114 555 90010=
26853 11560 82705 10028 21014 39822 40010 52029 60032 70282 883// 333
20025 88925 91011 91115 555 90010=
26855 12564 42807 10017 21019 39825 40042 52028 69972 84500 333 20015
91011 91114 555 90010=
26864 12563 72809 10028 20002 39824 40014 52030 69982 875// 333 20026
87627 91013 91115 555 90012=
26878 11597 72710 10028 21005 39774 49979 52028 60022 72582 875// 333
20028 87623 91013 91117 555 90020=
26966 11970 72506 10032 21009 39844 40018 52028 60022 70182 87050
333 20030 91012 91113 555 90011=
33038 11570 82606 10041 21021 39868 40041 52031 60022 70282 885//
333 20039 88623 91011 91114 555 90010=
33124 32568 72907 10046 20018 39903 40045 87500 333 20035
87629 91115 555 90050=
0000011000
650
UANT01 CWAO 110610
ARP BAW17V 5144N03650W 0610 F340 MS57 243/26 KT
GYMMT QXT AOW 110610 F10A
0000010900
651
UANT01 CWAO 110610
ARP LOT46 5357N05448W 0610 F390 MS64 289/74 KT
SPLRD QXS YHO 110610 L15A
0000011000
652
UANT01 CWAO 110610
ARP DLH413 5211N02845W 0610 F390 MS54 216/61 KT
DAIHN QXT EUA 110610 J86A
00000000