0000015600
546
SIVA30 KWBC 110900 RRF
BBXX
D5B9 11094 99039 30433 41597 43413 10300 20260 40130 52/// 70300
 84/61 22223 00280 20102 304// 40102 80270=
0000037700
547
SIVD30 KWBC 110900 RRQ
BBXX
41053 11091 99185 70661 46/// /1203 10241 40166 90910 333 91205
 555 11037 22040=
41053 11091 99185 70661 46/// /1204 10241 40167 90920 333 91205
 555 11039 22042=
41053 11091 99185 70661 46/// /1204 10241 40167 90930 333 91205
 555 11042 22046=
42022 11091 99275 70837 46/// /1205 10215 40167 90929 555 11061
 22066=
0000011000
548
SPBY31 UMMN 110600
SPECI UMMS 110609Z 30007G14MPS 9999 BKN024 02/M02 Q1001
R31/290060 NOSIG=
0000020900
549
SAWD01 OEJD 110600 RRA
METAR UUEE 110600Z 22005MPS 9999 OVC007 02/01 Q0984 75290151 25290151
NOSIG=
METAR VIDP 110600Z 30008KT 1300 R28/1800 R29/P2000 HZ NSC 13/07
      Q1019 BECMG 1500=
0000026100
550
SMOM66 OOMS 110600 RRA
AAXX 11064
41241 36/// /1104 10204 20095 30189 40227
333 0E018 20164 59018  =
41251 36/// /2102 10107 20020 38061 49940
333 0E005 20053 58003 =
41254 36/// /1402 10129 21008 38077 40271
333 0E002 20040 58002  =
0000052700
551
SMIY40 LIIB 110600
AAXX 11064
16036 11735 71003 10074 20060 30073 40217 5//// 60002 710// 87500 333
      20066 31/// 55/// 2//// 87650=
16114 13760 62001 10062 20039 39552 42822 5//// 60002 86040 333 20054
      30/// 55/// 2//// 86356=
16119 NIL=
16124 NIL=
16146 NIL=
16239 11458 20501 10044 20040 30093 40224 53001 60002 71011 82600
     333 20044 31/// 55000 2//// 82710 96722=
16312 11007 69902 10026 20026 39787 40218 53004 60002 74244 83601 333
      20026 31/// 55/// 2//// 83701=
0000099700
552
SMIY60 LIIB 110600
AAXX 11064
16064 NIL=
16099 11520 80000 10070 20064 30192 40221 53001 60002 71022 8467/ 333
      20056 31/// 55000 2//// 83720 85356=
16125 NIL=
16197 11/06 91806 10102 20097 39725 40197 54000 60002 747// 333 20096
      31/// 55000 2//// 55300 89/00=
16204 NIL=
16214 13997 40000 10086 20071 30219 40224 55001 60002 80001 333 20086
      30/// 55/// 2//// 555 0////=
16216 11001 70305 10028 20018 39844 40223 58002 69922 7444/ 87600 333
      20012 31/// 55000 20142 87701=
16234 NIL=
16243 12562 52502 10078 20064 30189 40222 53005 60002 84110 333 20078
      30/// 55/// 2//// 84830=
16244 11450 81003 10070 20043 30000 40227 54000 60002 7102/ 882// 333
      20068 30/// 55/// 2//// 83710 86615=
16316 13964 30000 10058 20035 39179 42833 55000 60002 80001 333 20054
      31/// 55/// 2//// 95000=
16332 11101 51403 10058 20057 30155 40221 53001 60002 7444/ 85600 333
      20056 31/// 85703=
16541 NIL=
16542 NIL=
0000103000
553
SMGR20 LGAT 110600
AAXX 11064
16643 12560 50705 10114 20092 30241 40242 52009 60002 82250 333
      20102 30/// 70000 82825 85358 90730 91108 555 10000 30119
      20000 89043 99092=
16648 11301 50000 10010 20010 30145 40236 52018 60002 74442 85600
      333 20004 30/// 50100 55067 70000 90730 91104 555 10000
      30068 20000 89055 99100 30000 10056 20058 3//// 40080 50120
      60104 70000 77F// 7FY//=
16650 11350 70000 10118 20102 30221 40222 52001 60002 71022 87600
      333 20104 30/// 55058 70000 84709 87620 90730 91104 555
      10000 30126 20000 89076 99095 30000 10100 20100 30100 40100
      50110 60130 70000 77Y// 7/Y//=
16684 12460 70000 10124 20080 30197 40208 52014 60002 86605 333
      20098 30/// 55070 70000 81712 86625 90730 91113 555 10000
      30127 20000 89073 99092=
16732 11462 60000 10114 20094 30200 40212 52014 60002 703// 82206
      333 20114 31/// 55062 70000 82815 86068 90730 91106 555
      10000 30155 20000 89060 99086 70000 77/I/ 7/I//=
0000151100
554
SMGR21 LGAT 110600
AAXX 11064
16614 12970 20000 10006 20005 39460 40265 53015 60002 80001 333
      21002 30/// 55039 70000 90730 91105 555 10000 30101 20000
      89028 99100=
16627 12960 00000 10014 20003 30238 40242 52020 60002 333 20014
      31/// 50060 55000 70000 90730 91105 555 10000 30092 20000
      89082 99100 30000 10026 20042 30062 40082 50092 6//// 40000
      47708 44210 50000 50010=
16667 12560 51904 10126 20090 30216 40222 51005 60002 85500 333
      20108 30/// 50184 55063 70000 90730 91105 555 10000 30136
      20000 89065 99088 30000 20090 40000 47695 44220 50000 50108
      70000 77/I/ 7/I//=
16675 36/// /9903 10063 2//// 30219 40233 52021 333 20033
      90730 91107 555 10000 30078 20000 89/// 99100=
16710 11758 30000 10010 20008 39470 40269 52011 60002 71000 81041
      333 21001 34/// 50010 55073 70000 90730 91103 555 10000
      30048 20000 89040 99098 30000 10028 20034 30040 40056 50074
      60096 70000 77Y// 7/Y//=
16723 12560 80000 10130 20091 30203 40219 53013 60002 8221/ 333
      20120 30/// 55000 70000 82820 88458 90730 91104 555 10000
      30130 20000 89065 99097 40000 47688 44240 50000 50110=
16738 36/// /9904 10124 20105 30019 40219 52019 333 20121
      90730 91107 555 10000 30146 20000 89061 99///=
16746 12560 32615 10136 20093 30036 40219 52011 60002 81241 333
      20136 30/// 55076 70000 81820 83067 90730 91122 555 10000
      30144 20000 89063 99092 40000 47559 44200 50000 50114=
0000009200
555
SAFC21 OEJD 110600 RRB
METAR
OEWD 110600Z 14010KT CAVOK 18/10 Q1019 NOSIG=
0000009000
556
SASD20 OEJD 110600 RRB
METAR OEWD 110600Z 14010KT CAVOK 18/10 Q1019 NOSIG=
0000008400
557
SAYE20 OYAT 110600 RRA
METAR OYAT 110600Z 14014KT CAVOK 18/08 Q1021=
0000011000
558
SMSD20 OEJD 110600 RRA
AAXX 11064
41061 42960 01410 10180 20100 39464 40170 333 20100 58002=
0000026000
559
SMOM66 OOMS 110600 RRB
AAXX 11064
41257 36/// /1102 10178 20038 39746 40241
333 0E011 20109 59013  =
41262 36/// /1311 10185 20076 30024 40225
333 0E017 20096 58003 =
41270 36/70 /0415 10207 20075 30179 40230
333 0E017 20170 58001 =
0000059300
560
SAER10 OMAM 110600
METAR OMAD 110600Z 14008KT CAVOK 18/11 Q1022 A3019 NOSIG=
METAR OMAH 110600Z AUTO 10006KT /////NDV //// ///// 18/12 Q1021 A3017=
METAR OMAM 110600Z 16010KT 9999NDV FEW040 BKN100 18/10 Q1021 A3016=
METAR OMDL 110600Z 09015KT 8000NDV -RA OVC080 20/16 Q1019 A3011=
METAR OMDM 110600Z 08005KT CAVOK 19/10 Q1023=
METAR OMLW 110600Z 15009KT CAVOK 17/09 Q1021=
METAR OMMZ 110600Z AUTO 12006KT /////NDV //// ///// 17/05 Q1022 A3018=
METAR OMSN 110600Z NIL=
METAR OMSW 110600Z NIL=
METAR OMTH 110600Z 11011KT 9999NDV FEW025 BKN090 18/10 Q1023 A3023=
0000015200
561
SMZW21 FVHA 110600
AAXX 11064
67767 NIL=
67843 12980 73603 10233 20186 38966 48525 86031 333 20198 58023
      86359=
67969 NIL=
0000130200
562
FAAJ31 UBBB 110600
UBBB GAMET VALID 110600/111200
UBBA BAKU FIR BLW FL 150
SECN 1
SFC WSPD:  NIL
SFC VIS:   LOC 06/09 4000M BR SECTOR 3,4,5,6,7,8,11,
SIGWX:     NIL
MT OBSC:   SECTOR 4,7,8,11
SIG CLD:   NIL
TURB:      MOD SECTOR 2,12,13
ICE:       MOD ON SURFACE SECTOR 5,10,11
SIGMETS APPLICABLE:NIL
SECN II
PSYS    06 L 1010HPA SECTOR 1,8 MOV SE 10KT INTSF
WIND/T: 2000FT 230/60KMH PS02 5000FT 250/70KMH MS04 10000FT
        270/80KMH MS08 SECTOR 2,12,13
        2000FT 300/25KMH M01 5000FT 320/35KMH MS06 10000FT
        350/45KMH MS08 SECTOR 1,7,8,9
        2000FT 290/25KMH PS01 5000FT 310/35KMH MS06 10000FT
        330/45KMH MS07 SECTOR 3,4,6
        2000FT 160/25KMH MS11 5000FT 190/45KMH MS15 10000FT
        230/50KMH MS19 SECTOR 5,10,11
CLD: SCT ST 800/1200FT BKN SC 1500/3000FT BKN 10000FT AGL SECTOR
 2,12,13
     BKN SC 2000/5000FT BKN 10000FT AGL SECTOR 3,4,6
     BKN SC 3000/6000FT BKN 10000FT AMSL SECTOR 1,5,7,8,9,10,11
FZ LVL: 3000FT SECTOR 2,12,13 1000FT SECTOR 1,7,8,9
        2000FT SECTOR 3,4,6 AGL ON SURFACE SECTOR 5,10,11
MNM QNH: 1013 HPA SECTOR 2,12,13
         1016 HPA SECTOR 1,7,8,9,10
         1018 HPA SECTOR 3,6
         1019 HPA SECTOR 4,5
         1025 HPA SECTOR 11
SEA: T09 HGL 3,0 M
0000179400
563
SAIR31 OIII 110600
METAR OIAA 110600Z 17004KT 2500 BR FEW035CB FEW040 OVC090 14/13
Q1019=
METAR OIAG NIL=
METAR  OIAH 110600Z 13006KT 4000 RA FEW035CB SCT040 OVC070 09/06
Q1020=
METAR OIAI NIL=
METAR  OIAM 110600Z 09012KT 8000 SCT010 SCT030CB OVC080 12/11
Q1019=
METAR  OIAW 110600Z 11010KT 7000 FEW030CB SCT035 OVC090 12/10
Q1019=
METAR  OIBA 110550Z 06010KT 4000 SA FEW025CB FEW030CB OVC100
     21/12
Q1021=
METAR  OIBB 110550Z 15010KT 9999 FEW030CB SCT040 OVC090 16/06
     Q1019
A3010 RERA=
METAR  OIBK 110550Z 08018KT 5000 -RA FEW030CB SCT025 OVC080
     13/10
Q1021=
METAR OIBL 110600Z 06010KT 4000 -RA SCT025 OVC080 14/08 Q1022=
METAR OIBS 110600Z 08024KT 9999 SCT035 OVC100 21/13 Q1022=
METAR  OICC 110600Z 09008KT 6000 FEW035CB SCT040 OVC070 M01/M02
Q1020 A3012 RESN TEMPO SN=
METAR OICI 110600Z 13008KT 9999 SCT035 BKN090 04/03 Q1018 A3006=
METAR OICJ NIL=
METAR  OICK 110550Z 13004KT 9999 FEW010 FEW035CB SCT040 OVC080
03/02 Q1020=
METAR  OICS 110600Z 19002KT 4000 BR FEW020 SCT035 BKN080 M03/M04
Q1021=
METAR OIFK NIL=
METAR  OIFM 110600Z 00000KT 0500 FG SCT040 BKN100 M02/M03 Q1021
A3017=
METAR  OIFS 110600Z 00000KT 0800 SN BR FEW030CB SCT035 OVC080
M07/M08 Q1020=
METAR  OIGG 110600Z 00000KT 2500 BR FEW015CB BKN025 BKN090 05/04
Q1018=
METAR OIGK NIL=
METAR OIHH 110600Z 00000KT 2000 BR BKN035 BKN090 M08/M10 Q1021=
METAR OIHM NIL=
METAR  OIIE 110600Z 29008KT 8000 FEW040 SCT100 BKN180 02/M05
     Q1023
A3022 NOSIG=
METAR  OIII 110600Z 23006KT 8000 FEW040 SCT100 BKN200 03/M06
     Q1022
A3019 TEMPO FEW035CB SCT030 BKN100=
METAR OIIK 110552Z 09008KT 4000 HZ FEW035 OVC090 M01/M05 Q1023=
METAR OIIP 110600Z 32008KT 5000 HZ SCT035 BKN090 M02/M07 Q1022=
METAR OIIS NIL=
0000204800
564
SMAR20 OEJD 110600
AAXX 11064
40582 41630 80000 10121 20107 40197 51024 76062 82570
  333 55300 00119 10000 20200 30035 41284 51328 60235 55407 40165
82400 88458 90400 91009 91113 91209 91305=
41150 NIL=
41168 NIL=
41170 41457 80303 10172 20150 30206 40219 76166 8257/ 333
20169 59011 82615 83360 88462 555 00140=
41176 NIL=
41184 42960 61314 10199 20102 40227 82034 333 20142 59010 82358
      86070=
41194 12960 81109 10199 20104 30230 40235 60001 88020 333 20174
      59001 88465=
41196 42660 61108 10194 20115 30193 40233 81530 333 20159 30014
      59005 81640 86362=
41198 42560 72603 10191 20101 40235 83530 333 20153 59008 83620
      85360=
41210
37960 01608 10170 20091 30070 40216 52029 700//
333 10128 20249=
41216 42960 71408 10184 20106 30220 40224 8703/ 333 20166 58002
      87366=
41217 42960 71705 10177 20102 30192 40222 8707/ 333 20153 30014
      58003 83366 84368=
41218 NIL=
41226 NIL=
41244 36/// /1804 10187 20083 39981 49467
333 0E015 20140 59011=
41246 36/// /1303 10209 20118 30232 40237
333 0E018 20153 59008=
41254 36/// /1402 10129 21008 38077 40271
333 0E002 20040 58002=
41256 31559 50907 10202 20055 30228 40238 70510 81501 333 20126
3/014 59013 81620 84070=
41258 36/// /1304 10211 20081 30230 40234
333 0E/// 20178 59010=
41268 36/// /0009 10215 20075 30219 48670
333 0E017 20171 59002=
41312 NIL=
41314 32660 39905 10206 20143 39701 40207 81501
  333 20145 59012 81630 83075=
41316 36/72 /0911 10247 20142 30169 40194
333 0E020 20199 59003=
41404 42560 50000 10161 20084 37891 48549 82501 333 20087 3////
58002 82630 83068=
41407 42960 00905 10195 20084 38954 48513 90711 333 20130 30///
59007=
41431 42560 21807 10250 20211 30143 40156 82400 333 20210 30///
58006 82630=
41466 41560 31106 10171 20115 38595 48493 70144 81502 333 20136 30/// 59001 81625 83070=
41477 42960 01610 10246 20198 333 20216 30///=
41480 42460 61215 10259 20178 30183 40186 86200 333 20240 30///
58002 82818 85625=
0000026600
565
SMME20 OEJD 110600
AAXX 11061
40007 NIL=
40022 32965 00802 10090 21001 40221 53017 222// 20000 333 20072
30///=
40080 31501 20000 10004 21007 39514 40249 52025 74010 83100 333
21014 83830=
40100 NIL=
40270 NIL=
40272 NIL=
40340 NIL=
00000000