0000011000
513
UANT99 KDDL 110510
ARP AFL103 5819N02401W 0510 F330 MS56 233/55 KT
VQBPK QXT EUA 110510 J38A
0000011000
514
UANT99 KDDL 110510
ARP BAW192 5551N04217W 0510 F350 MS59 300/26 KT
GBYGE QXT AOW 110510 F64A
0000051300
515
SAMS34 WMKK 102100
METAR WBGB 102100Z 07001KT 9999 SCT016 BKN150 24/24 Q1011=
METAR WBGR 102100Z 18003KT 9999 SCT014 SCT150 BKN300 24/23 Q1010=
METAR WBGS 102100Z 29003KT 9999 SCT018 BKN154 23/22 Q1011=
METAR WBGY 102100Z 00000KT 9999 -RA FEW004 SCT020 OVC160 23/23 Q1012=
METAR WBKL 102100Z 21001KT 9999 FEW010 BKN290 25/24 Q1010=
METAR WBKS 102100Z NIL=
METAR WBKT 102100Z 10007KT 9999 FEW008 SCT033 BKN260 26/24 Q1011=
METAR WBKW 102100Z 34003KT 9999 FEW017 BKN140 24/22 Q1010=

0000013900
516
SAAE32 VTBB 102100
METAR VLLB 102100Z NIL=
METAR VLLN 102100Z NIL=
METAR VLPS 102100Z NIL=
METAR VLSK 102100Z NIL=

0000009500
517
SAAF18 LFPW 102100 RRA
METAR FMEE 102100Z AUTO 11012KT 9999 NSC 26/21 Q1015=

0000017200
518
SAAF20 LFPW 102100 RRA
METAR FABL 102100Z AUTO 22005KT //// // ////// 22/02 Q1017=
METAR FAGG 102100Z AUTO 28003KT 180V320 9999 -RA OVC019 16/13 Q1020=

0000009800
519
SACA32 KWBC 102100 RRA
METAR
TJPS 102050Z 11010G15KT 10SM FEW030 30/22 A3000=

0000016500
520
SATH41 VTBB 102100
METAR VTPB 102100Z NIL=
METAR VTPM 102100Z NIL=
METAR VTSE 102100Z NIL=
METAR VTSK 102100Z NIL=
METAR VTUJ 102100Z NIL=

0000027800
521
SAAF21 LFPW 102100 RRA
METAR FALA 102100Z AUTO 20006KT //// // 22/10 Q1018=
METAR FAMM 102100Z AUTO 23005KT //// // ////// 24/07 Q1017=
METAR FAPE 102100Z 24015KT 9999 FEW018 19/14 Q1017 NOSIG=
METAR FAUP 102100Z AUTO 20005KT //// // ////// 23/04 Q1016=

0000022000
522
SAIO31 KWBC 102100 RRA
METAR
FMCZ 102100Z NIL=
FMEE 102100Z AUTO 11012KT 9999 NSC 26/21 Q1015=
FSIA 102100Z 30005KT 9999 FEW014CB BKN080 25/23 Q1012 NOSIG=
VYMD 102100Z NIL=
VYYY 102100Z NIL=

0000058500
523
SAMS38 WMKK 102100
METAR WBGB 102100Z 07001KT 9999 SCT016 BKN150 24/24 Q1011=
METAR WBGR 102100Z 18003KT 9999 SCT014 SCT150 BKN300 24/23 Q1010=
METAR WBGS 102100Z 29003KT 9999 SCT018 BKN154 23/22 Q1011=
METAR WBKL 102100Z 21001KT 9999 FEW010 BKN290 25/24 Q1010=
METAR WBKS 102100Z NIL=
METAR WBKW 102100Z 34003KT 9999 FEW017 BKN140 24/22 Q1010=
METAR WMKD 102100Z 36003KT 9999 FEW012 SCT160 BKN260 23/21 Q1011
NOSIG=
METAR WMKL 102100Z 08005KT 9999 FEW025 SCT140 BKN280 27/22 Q1011=
METAR WMKM 102100Z 04004KT 9999 FEW028 SCT140 BKN270 24/23 Q1010=

0000010300
524
SANT31 KWBC 102100 RRA
METAR
LPBJ 102100Z 16003KT 120V190 9999 FEW040 11/08 Q1014=

0000023700
525
FCRS36 RUMS 102000 AAA
TAF AMD ULOO 102106Z 1021/1106 29006MPS 3000 -RA BR BKN006 OVC020
TM01/1101Z TEMPO 1021/1024 1500 SHRASN BKN003 BKN015CB BECMG
1100/1102 33007G12MPS TEMPO 1100/1106 1000 SHSN BKN003 BKN015CB=

0000009600
526
SAIY34 LIIB 102100 RRA
METAR LIPO 102050Z 06003KT 4000 BR BKN030 08/07 Q1022=

0000009100
527
SAFP20 LFVP 102100
METAR LFVP 102100Z 26022KT 9999 SCT026 M04/M10 Q1025=

0000068700
528
SARA32 RUMS 102100
METAR UHBB 102100Z VRB02MPS CAVOK M33/M35 Q1022 NOSIG RMK QFE749/0998
36410160=
METAR UHHH 102100Z 24008G11MPS CAVOK M26/M32 Q1018 NOSIG RMK
QFE757/1009 23090060=
METAR UHMA 102100Z 28005MPS 9999 BKN080 M14/M21 Q1012 NOSIG RMK
QFE755/1007=
METAR UHMD 102100Z NIL=
METAR UHMM 102100Z 04005MPS 9999 FEW200 M17/M28 Q1006 NOSIG RMK
QFE740 88820555=
METAR UHPP 102100Z 00000MPS 9999 BKN032 BKN100 M06/M11 Q0993 NOSIG
RMK MT OBSC QFE741/0988 SC05 055 055=
METAR UHSS 102100Z 03002MPS 6000 SCT040 M23/M26 Q1013 NOSIG RMK
QFE758/1011 01810366=
METAR UHWW 102100Z 00000MPS 9999 SCT200 M26/M30 Q1027 NOSIG RMK
QFE769/1025 25CLRD70=

0000096000
529
SARS35 RUMS 102100
METAR USPP 102100Z 13003MPS 6000 FEW029 BKN086 M05/M06 Q1007 21350139
NOSIG RMK QFE745/0993=
METAR UWKD 102100Z 16005MPS 0600 R11/P1500N FZFG VV002 M00/M00 Q1004
R11/2/0050 TEMPO 0500 FZFG RMK QBB070 QFE743/0990=
METAR UWKE 102100Z 00000MPS 7000 OVC004 M04/M05 Q1005 NOSIG RMK 
QBB120 QFE737/0983 21420542=
METAR UWKS 102100Z 17005MPS 2700 BR OVC002 00/M00 Q1001 NOSIG RMK
QBB080 QFE736 24290250=
METAR UWLW 102100Z 19004MPS 5000 BR OVC008 00/00 Q1006 20820550 NOSIG
RMK QFE749=
METAR UWOR 102100Z 18004MPS 9999 OVC015 M02/M03 Q1009 25450245 NOSIG
RMK QFE733/0978=
METAR UWOO 102100Z 09001MPS 0450 R08/1400VP1500D FZFG OVC003 M02/M02
Q1008 08590332 TEMPO 0500 FZFG VV002 RMK QBB100 QFE746/0994=
METAR UWSS 102100Z 18004MPS 6000 OVC006 01/M00 Q1008 1219//55 NOSIG
RMK   QFE744=
METAR UWWW 102100Z 17002MPS 4300 BR BKN010 OVC100 M01/M02 Q1007
23520540 33//99// NOSIG RMK QFE744/0992 650000=

0000097600
530
SARA34 RUMS 102100
METAR UNAA 102100Z 22006MPS CAVOK M05/M10 Q1029 NOSIG RMK QFE749
20090040=
METAR UNBB 102100Z 21006MPS 7000 -SN DRSN SCT008 BKN020 M09/M11 Q1030
NOSIG RMK QFE750/1000 24424042=
METAR UNEE 102100Z 18005MPS 1200 R23/P1500 SN OVC007 M08/M09 Q1026
NOSIG RMK QFE747 23451050=
METAR UNKL 102100Z 21003MPS 9999 SCT030CB BKN083 M08/M12 Q1026 NOSIG
RMK QFE743 29////55=
METAR UNNT 102100Z 22007MPS 7000 -SHSN DRSN FEW017 OVC047CB M07/M10
Q1027 25390139 16390136 NOSIG RMK QFE760/1014=
METAR UNOO 102100Z 22005MPS 8000 SCT020 BKN033CB M06/M08 Q1022
25390137 NOSIG RMK QFE758=
METAR UNTT 102100Z 22008MPS 1600 SHSN FEW008 SCT020CB OVC066 M06/M08
Q1023 NOSIG RMK QFE752 21390032=
METAR USTR 102100Z 18004MPS 4500 -SHSN BKN012 OVC016CB M04/M04 Q1012
TEMPO 1500 SHSN BKN005 RMK QFE750/1000 21390050 12750029=
METAR USHH 102100Z 03002G05MPS 350V060 9999 -SN SCT014 OVC080 M22/M24
Q1016 TEMPO BKN007 RMK QFE758 06////37=

0000090400
531
SARS32 RUMS 102100
METAR URKA 102100Z 19008G13MPS 9999 BKN019 09/06 Q1012 RMK
QFE755/1006=
METAR URKK 102100Z 20003MPS CAVOK 05/02 Q1011 NOSIG RMK QFE755 SC065=
METAR URML 102100Z 18004MPS 9999 SKC M00/M01 Q1017 NOSIG RMK
QFE763/1017 SC070=
METAR URMM 102100Z 00000MPS 7000 SKC M03/M03 Q1013 12CLRD70 NOSIG RMK
QFE732/0976=
METAR URMN 102100Z 21002MPS 9999 SCT260 01/M05 Q1014 NOSIG RMK QFE723
SC06=
METAR URMO 102100Z NIL=
METAR URMT 102100Z 19005MPS CAVOK 01/M00 Q1012 NOSIG RMK QFE720
SC0.60=
METAR URRR 102100Z 22008G11MPS 9999 OVC016 07/05 Q1009 22290045
NOSIG=
METAR URSS 102100Z 05005MPS 9999 SCT230 03/M01 Q1016 NOSIG RMK
R06/08006MPS QFE761 02000070 06//////=
METAR URWA 102100Z 21003MPS 9999 OVC040 03/00 Q1016 NOSIG RMK
QFE764/1019 SC055=
METAR URWI 102100Z NIL=
METAR URWW 102100Z 20006MPS 9999 OVC018 02/01 Q1010 NOSIG RMK
29190060=

0000079600
532
SACI31 ZBBB 102100
METAR ZBAA 102100Z VRB01MPS 6000 NSC M11/M19 Q1032 NOSIG=
METAR ZBSJ 102100Z 19001MPS 1800 FU NSC M07/M14 Q1032 NOSIG=
METAR ZBTJ 102100Z 09001MPS 0900 R16R/P2000N FZFG NSC M08/M10 Q1032
NOSIG=
METAR ZBYN 102100Z 02001MPS CAVOK M10/M19 Q1028 NOSIG=
METAR ZGGG 102100Z 05002MPS 5000 BR BKN050 12/08 Q1024 NOSIG=
METAR ZSHC 102100Z VRB01MPS 5000 -RA BR SCT030 05/03 Q1031
NOSIG=
METAR ZSPD 102100Z 08003MPS CAVOK 06/01 Q1032 NOSIG=
METAR ZSSS 102100Z 10004MPS CAVOK 06/00 Q1031 NOSIG=
METAR ZWSH 102100Z AUTO 32004MPS //// M09/M13 Q1033=
METAR ZWWW 102100Z 00000MPS 0700 R25/1100N FZFG NSC M19/M21 Q1037
NOSIG=
METAR ZYTL 102100Z 26001MPS 3000 BR SCT033 M07/M10 Q1031 NOSIG=
METAR ZYTX 102100Z 14002MPS 6000 NSC M17/M21 Q1030 NOSIG=

00000000