0000011000
193
UANT01 CWAO 110639
ARP QTR764 5707N02912W 0639 F290 MS56 231/95 KT
A7BAC QXT AOE 110639 F30A
0000100200
194
SMVD01 PANC 110600 RRG
BBXX
C6DM2 11064 99054 11003
41798 70616 10290 20235 40110 57010 7//22 8717/
22200 0//// 2//// 3//// 4//// 5//// 6//// 80250 ICE /////=
OVYQ2 11063 99508 11583
41393 80313 11020 2//// 49960 52020 7//77 889//
22253 04040 2//01 320// 4//02 5//// 6//// 8//// ICE /////=
WZZF 11063 99159 70179
41999 00124 10200 20135 40132 56002 70200 80000
22284 00240 20105 3//// 4//// 5//// 6//// 80160 ICE /////=
KGTY 11064 99241 71748
41598 40720 10228 20177 40168 57020 70200 842//
22264 00228 208// 3//// 411// 508// 6//// 80194 ICE /////=
VRDR8 11063 99330 30575
41596 40332 10230 20201 40200 54000 7//11 842//
22213 0//// 20805 305// 4//// 5//// 6//// 80210 ICE /////=
WDB7815 11063 99588 71442
41298 42716 10033 20026 49914 57008 70242 81230
22233 00056 2//// 3//// 4//// 5//// 6//// 80030 ICE /////=
YJVM9 11064 99260 70920
41598 31704 10220 20205 40130 54/// 7//00 831//
22200 00220 20402 309// 40402 5//// 6//// 80210 ICE /////=
0000035200
195
SMVF01 EGRR 110600 RRA
BBXX
DIJY2 11064 99468 70075 41/98 72808 10124 20071 40174 52009 70222
8672/ 22254 04119 20603 327// 40804=
62169 11064 99614 10014 41/96 /0825 10015 20015 49951 58010 77077
8//// 22200 20605 305// 41005 5//// 80015=
DGUG2 11063 99479 70093 41/98 20211 10089 20008 40180 7//// 8////
22254 04130 21002=
0000010900
196
UANT01 CWAO 110639
ARP ANZ2 5549N05320W 0638 F330 MS59 280/102 KT
ZKOKQ QXT AME 110639 F18A
0000011100
197
UANT01 CWAO 110639
ARP UPS208 6015N04423W 0639 F310 MS58 226/29 KT
N331UP QXS UAK 110639 F42A
0000221400
198
SMPH01 RPMM 110600
AAXX 11061
98134 32465 40705 10239 20168 30004 40196 58029 84201
333 56299 84819 =
98223 31462 50905 10286 20171 40139 57035 70544 81108
333 56999 81819 85279 =
98232 31570 60902 10266 20234 40242 50020 71542 83270
222// 20100 333 56299 83820 86358 =
98325 31462 61802 10290 20214 40148 58019 70544 82208
333 56999 82817 86279 =
98328 31460 71102 10184 20113 38531 40132 57022 74044
85208 333 56999 85813 84278 =
98330 31475 70405 10281 20242 30115 40147 57033 70544
82208 333 56/// 82818 87275 =
98336 11470 70406 20220 20218 30178 40183 53020 60061
71582 8357/ 333 56199 83615 87356 =
98429 32560 50907 40300 20163 40136 57032 83801 333
56999 83823 83080 =
98430 31558 80403 10282 20205 40133 57033 70544 82807
333 56999 82620 88080 =
98431 31470 70603 10288 20237 30092 40139 57023 70544
83230 333 56999 83818 87360 =
98440 31462 80707 10258 20220 30145 40150 58033 71544
84237 333 56199 84815 88277 =
98444 11465 80405 10262 20209 30109 40128 58034 69901
78082 83377 333 56899 81918 82820 86459 88270 =
98526 32575 81801 10/// 20/// 40108 58028 83277 333
56999 83820 85358 88274 98315 =
98531 31570 62302 10317 20254 30106 40110 58021 70544
81432 333 56699 81820 86075 =
98536 11470 80405 10250 20217 39927 40127 57021 69901
70584 8327/ 222// 20101 333 56199 83818 88357 =
98543 11475 83603 10260 20234 30108 40119 58017 69961
71482 83207 333 56999 83818 88272 =
98550 NIL=
98618 32480 70706 10304 20222 40109 58029 82271 333
56999 82819 87358 =
98630 32475 80205 10300 20264 40095 5//// 84207 222//
2//03 333 56199 84818 88275 =
98637 NIL=
98646 11558 80206 10240 20230 30072 40100 57025 60241
76066 8382/ 333 56899 83820 88458 =
98653 11460 80904 10238 20227 30045 40090 57020 60591
76166 8222/ 333 56299 82817 88457 =
98741 11465 80402 10252 20241 40098 57019 60651 78086
8292/ 333 56199 82917 88457 =
98747 NIL=
98753 11456 83603 10241 20226 40083 57026 60081 76066
83227 333 56899 83816 86459 88279 =
98755 11458 83606 10258 20231 40078 57036 60311 76066
8452/ 333 56199 84616 88458 =
98836 11458 80000 10267 20246 40085 58026 60021 76186
8262/ 333 56999 82718 88462 =
0000010400
199
SMBM01 VBRR 110600 RRC
AAXX 11064
48042 31956 03601 10255 20155 40163 70500 333 58018=
0000190100
200
UDEU02 EGRR 110642
AMDAR 1106
ASC EU0756   5558N 00323W 110622 F014 PS005 266/024 TB/ S031=
ASC EU0756   5557N 00324W 110622 F021 MS002 278/029 TB/ S031=
ASC EU0756   5556N 00326W 110622 F024 MS012 275/030 TB/ S031=
ASC EU0756   5555N 00328W 110622 F029 MS022 277/031 TB/ S031=
ASC EU0756   5554N 00330W 110622 F038 MS035 282/032 TB/ S031=
ASC EU0756   5553N 00332W 110622 F049 MS057 284/032 TB/ S031=
ASC EU0756   5552N 00333W 110622 F059 MS080 285/031 TB/ S031=
ASC EU0756   5551N 00335W 110622 F070 MS100 285/034 TB/ S031=
ASC EU0756   5550N 00337W 110622 F081 MS120 287/031 TB/ S031=
ASC EU0756   5549N 00339W 110622 F100 MS165 286/029 TB/ S031=
ASC EU0756   5546N 00342W 110623 F111 MS200 286/029 TB/ S031=
ASC EU0756   5542N 00341W 110623 F121 MS220 289/040 TB/ S031=
ASC EU0756   5538N 00339W 110623 F144 MS262 269/035 TB/ S031=
ASC EU0756   5534N 00337W 110624 F160 MS312 265/033 TB/ S031=
ASC EU0756   5530N 00335W 110624 F172 MS347 272/039 TB/ S031=
ASC EU0756   5526N 00334W 110624 F188 MS382 274/043 TB/ S031=
ASC EU0756   5522N 00332W 110625 F205 MS400 271/041 TB/ S031=
ASC EU0756   5518N 00330W 110625 F220 MS407 258/044 TB/ S031=
ASC EU0756   5514N 00328W 110625 F231 MS425 261/044 TB/ S031=
ASC EU0756   5509N 00326W 110626 F242 MS427 261/041 TB/ S031=
ASC EU0756   5505N 00324W 110626 F252 MS427 254/045 TB/ S031=
ASC EU0756   5501N 00322W 110626 F263 MS445 251/051 TB/ S031=
ASC EU0756   5456N 00320W 110627 F271 MS460 253/055 TB/ S031=
ASC EU0756   5452N 00317W 110627 F278 MS467 256/053 TB/ S031=
ASC EU0756   5447N 00315W 110627 F285 MS470 258/055 TB/ S031=
ASC EU0756   5443N 00313W 110628 F295 MS487 252/054 TB/ S031=
ASC EU0756   5438N 00311W 110628 F302 MS502 252/056 TB/ S031=
ASC EU0756   5433N 00309W 110628 F305 MS495 261/061 TB/ S031=
ASC EU0756   5429N 00306W 110629 F312 MS485 264/063 TB/ S031=
0000023900
201
UPPK01 OPKC 110600
PPAA 61061 41529 55385 27003 32008 33516 77999= 
PPAA 6105/ 41594 NIL=
PPAA 6105/ 41661 NIL=
PPAA 61051 41675 55285 04014 01518 77999= 
PPAA 6105/ 41756 NIL=
PPAA 61051 41780 55285 05513 32016 77999=
0000092000
202
USDL03 EDZW 110600
TTAA 11051 10238
99005 05017 20002 00111 04621 21503 92741 02007 26014
85419 02306 27512 70945 07157 23007 50548 25160 25014
40707 35164 25020 30902 48149 25521 25019 56749 27025
20158 61760 27524 15341 54176 27519 10600 55175 30519
88207 63960 27027
77999
31313 48008 80446=
TTAA 11051 10618
99972 02105 27001 00145 ///// ///// 92776 03450 23007
85460 01875 26511 70999 07302 25519 50554 23734 25529
40713 34734 24029 30908 50938 24530 25024 58158 24021
20164 58365 26516 15347 54567 27511 10606 55767 30013
88238 59560 24520
77308 24531 40405
31313 48008 80450=
TTAA 11051 10771
99969 02502 11002 00163 ///// ///// 92790 02245 22006
85468 00962 25507 70000 04168 29027 50556 22559 27020
40716 34150 25523 30911 49945 26022 25028 60144 26020
20167 59775 26023 15348 57785 26515 10605 57586 30019
88232 63742 25522
77999
31313 48008 80506=
0000219100
203
SMMG01 FMMD 110600
AAXX 11064
67002 32580 53406 10300 20236 30110 40145 83881
  333 0//00 20246 55115 58015 81822 83073 92418=
67009 12582 21410 10305 20256 30004 40122 51015 60094 82932
  333 02119 10338 20210 50184 55075 82820 81920 94972 94973
      95812 95813  RR 9.0=
67012 12582 52208 10294 20230 30104 40115 51001 60014 83230
  333 0//// 10330 20240 50314 55/// 83820 83360 RR 1.2=
67019 NIL=
67025 NIL=
67027 32582 32604 10298 20220 30110 40131 51011 81202
  333 02000 10319 20243 50144 55108 81820 83073=
67045 NIL=
67072 12480 72804 10/// 30143 40146 51008 60202 86202
  333 02400 10326 20254 50314 5//// 86817 92418
  555 82075=
67073 12582 60000 10282 20248 30112 40138 51012 61094 82933
  333 0//39 10270 20235 50//4 55/// 81823 81923 83273 94965 94966
94967 95835 95836 RR 108.9=
67083 32580 70000 10226 20186 38770 48544 51007 83808
  333 01400 10267 20172 50264 55051 81820 83623 86273=
67085 31570 709// 10230 20185 38731 48540 51011 70422 81805
  333 01700 10259 20190 50324 55/// 81820 87275
  333 81633=
67095 11470 63604 10300 20264 30136 40143 51008 69934 71562 85802
  333 02115 10321 20239 50264 55104 84817  =
67113 12575 6//// 10300 20251 30/// 40/// 5//// 69974 84832
  333 0//15 10326 20264 50//4 55/// 84820 83073
  555 81640 81360=
67117 32582 50404 10285 20/// 30136 40145 52011 81832
  333 0//00 10268 20227 50//4 55/// 81820 84073
  333 555 81640 81360=
67137 11475 40000 10258 20216 38917 48525 51010 60034 71022 83802
  333 0//19 10286 20192 50254 55/// 83817   RR 2.8=
67143 32582 50406 10295 20230 30131 40138 51009 85802
  333 02200 10310 20244 50024 55/// 82820 83633 92438=
67152 11580 43602 10229 20207 39233 48538 52012 60044 70141 84230
  333 01618 10222 20185 50//4 55/// 84820
  555 81360 RR 3.5=
67157 32580 6//// 10/// 20/// 30155 40162 53009 86800
  333 0//00 10/// 20/// 50//4 55/// 83820 85640=
67161 32582 43002 10/// 20/// 30133 40142 51011 84802
  333 0//00 10/// 20/// 50//4 55/// 83817 555 81640 81073=
67194 NIL=
67197 12581 20000 10287 20241 30139 40149 54011 60054 81202
  333 01919 10330 20244 50174 55041 81820 83073 RR 5.0=
0000011100
204
UANT99 KDDL 110638
ARP UAL985 5102N03948W 0638 F360 MS56 301/23 KT
N674UA DDL XXW 110639 F22A
0000240400
205
UKDL03 EDZW 110600
TTBB 11058 10238
00005 05017 11950 01402 22927 02004 33760 07337 44749
06581 55744 06390 66743 06590 77728 05562 88639 13120
99602 14722 11524 22302 22520 21304 33505 24116 44504
24357 55494 25761 66481 26967 77442 29565 88333 44561
99330 44144 11322 45334 22265 54931 33207 63960 44187
55971 55147 52976 66137 56176 77112 56775 88100 55375
21212 00005 20002 11996 22505 22930 26014 33811 28013
44767 28011 55728 26508 66706 23506 77417 25523 88370
24517 99326 24020 11256 27024 22193 27024 33185 28027
44169 29522 55143 28014 66134 30019 77125 28516 88100
30519
31313 48008 80446
41414 763//
51515 11888 26513 22800 27512 33600 24513=
TTBB 11058 10618
00972 02105 11966 00901 22963 01802 33958 02002 44957
02003 55934 03847 66911 03056 77903 03263 88868 01858
99858 02076 11840 01873 22827 01061 33792 01169 44789
01166 55780 01960 66773 02364 77714 07311 88709 07302
99684 08102 11580 17314 22418 32356 33397 34929 44333
44756 55276 55734 66269 57143 77238 59560 88227 58762
99142 53768 11110 56967 22100 55767
21212 00972 27001 11944 20505 22930 23006 33882 23506
44861 26007 55830 27513 66718 25016 77569 26530 88550
25533 99369 23528 11308 24531 22244 24021 33230 26017
44221 25015 55203 26518 66194 25017 77190 25520 88175
28017 99166 26015 11153 28510 22146 26012 33130 28014
44109 27020 55101 31015 66100 30013
31313 48008 80450
41414 861//
51515 11859 26008 22800 27012 33600 26027=
TTBB 11058 10771
00969 02502 11965 02904 22956 01902 33954 00002 44933
02639 55892 00150 66753 05377 77730 05192 88721 05392
99720 05579 11716 05164 22711 04384 33702 03969 44678
05762 55650 07365 66606 12358 77594 12763 88537 18746
99516 21140 11501 22559 22488 24131 33483 24557 44474
25736 55438 28757 66414 32157 77385 36532 88341 42166
99289 52125 11268 56738 22232 63742 33228 63336 44218
58966 55210 58772 66135 56386 77122 58585 88111 55586
99100 57586
21212 00969 11002 11946 23005 22935 22007 33911 23005
44899 21007 55874 25007 66835 27509 77788 27010 88692
29028 99542 27521 11457 27522 22406 25523 33347 27023
44239 25518 55227 26026 66186 26520 77174 28519 88164
26515 99158 29014 11154 28514 22148 26517 33140 29017
44135 28521 55123 28515 66114 29024 77110 31022 88103
29017 99100 30019
31313 48008 80506
41414 761//
51515 11855 25507 22800 27510 33600 28025=
0000011000
206
UANT99 KDDL 110639
ARP AFR689 4703N03943W 0639 F370 MS51 308/43 KT
FGSPT QXT AOW 110639 F15A
0000065200
207
AABM23 VAAH 110635
FROM : C W C AHMEDABAD 
TO   : M O MUMBAI (ATTN DUTY OFFICER/RPT ACWC MUMBAI) 
 
DAILY ONE COASTAL BLTN FOR N & S GUJARAT COASTS VALID FOR NEXT 12 HRS 
FROM 1000 UTC DATED 11.01.2014 TO BE PASSED TO 
NAVAL MET OFFICE MUMBAI FOLLOWS AAA  

TO :(1) F.O.B.    (2) NAVAL MET OFFICE MUMBAI  

SYNOPTIC SITUATION :-NIL               

WIND :N GUJ:- MAINLY NE'LY 10-15 KTS          
      S GUJ :-MAINLY NE'LY 10-15 KTS      

WX :  N.GUJ:- FAIR 
  S.GUJ:- FAIR 

VIS :- N GUJ :- GOOD
       S GUJ :- GOOD

SEA :- N GUJ :- SMOOTH TO SLIGHT 
       S.GUJ :- SMOOTH TO SLIGHT

PORT WARNING :- NIL 
SIGNALS      :- NIL 

ENDS=

0000011500
208
SAIR34 OIII 110630 RRA
METAR OICI 110630Z  12006KT 9999 FEW030CB SCT035 BKN090 04/03 Q1018
 A3006=

0000060600
209
USAA01 NZCM 110000
TTAA 61001 89664
99997 00056 18501 00512 ///// ///// 92601 07158 18518
85255 11341 17017 70716 21114 15006 50514 33959 24513
40666 44759 24520 30855 51765 24023 25975 45585 24514
20124 43786 24513 15318 43586 26009 10592 41586 23504
88320 52361 23026
77999
31313 48008 82219=

0000069700
87361=
0000011200
87368=
0000015000
87382
0000012800
87386
0000045600
87406=
0000047800
87429=
0000005900
87506
0000058300
87508=
0000054300
87745
0000060500
87947
0000064700
88126
0000066800
88401
0000058500
88628=
0000081200
210
USAA01 NZCM 110000
TTAA 61001 89664
99997 00056 18501 00512 ///// ///// 92601 07158 18518
85255 11341 17017 70716 21114 15006 50514 33959 24513
40666 44759 24520 30855 51765 24023 25975 45585 24514
20124 43786 24513 15318 43586 26009 10592 41586 23504
88320 52361 23026
77999
31313 48008 82219=

0000069700
87361=
0000011200
87368
0000009600
87371
0000035800
87378
0000037300
87381
0000039400
87385
0000039400
87407
0000041500
87411
0000014600
87417
0000045700
87421
0000049900
87440
0000052000
87462
0000050000
87472
0000005900
87495
0000058300
87519
0000056300
87548
0000056300
87600
0000062500
87655
0000054300
87765=
0000056500
88814
0000064800
89278
0000060700
89865
0000066900
90807
0000062600
211
USAA01 NZCM 110000
TTAA 61001 89664
99997 00056 18501 00512 ///// ///// 92601 07158 18518
85255 11341 17017 70716 21114 15006 50514 33959 24513
40666 44759 24520 30855 51765 24023 25975 45585 24514
20124 43786 24513 15318 43586 26009 10592 41586 23504
88320 52361 23026
77999
31313 48008 82219=

0000069700
87361=
0000011200
87368
0000009600
87371
0000035800
87378
0000037300
87381=
0000039500
87413=
0000052000
87479
0000056200
87492
0000045900
87517
0000054200
87560=
0000060500
87886
0000060600
88053
0000064700
88357
0000052400
88617=
0000068800
212
USAA01 NZCM 110000
TTAA 61001 89664
99997 00056 18501 00512 ///// ///// 92601 07158 18518
85255 11341 17017 70716 21114 15006 50514 33959 24513
40666 44759 24520 30855 51765 24023 25975 45585 24514
20124 43786 24513 15318 43586 26009 10592 41586 23504
88320 52361 23026
77999
31313 48008 82219=

0000069700
87361=
0000011200
87368
0000009600
87371
0000035800
87378
0000037300
87381
0000039400
87385=
0000043700
87428
0000047800
87442
0000056100
87461=
0000021900
87579
0000050100
87604
0000052200
87650
0000054300
87784
0000056400
87976
0000056400
88162
0000060600
88419
0000073000
88657=
00000000