0000015400
313
SMAU40 AMMC 110600 RRA
AAXX 11064
94289 46/// /1219 10283 30067 40074 56013 90615=
94379 46/// /1318 10262 30111 40120 56014 90626=

0000216700
314
SZNZ01 NZKL 110645
CREX++
T000103 A001 D01021 D06025++
-3683144 17478654 AUCT  2014 01 11 06 37 //// 11 07 00 01
05009 3141 05001 3142 04994 3143 04986 3144 04979 3145 04970 3145+
-4402404 -17636748 CHIT  2014 01 11 06 37 //// 11 07 00 01
04357 1969 04358 1971 04373 1988 04400 2017 04385 2002 04375 1994+
-4089929 17623168 CPIT  2014 01 11 06 37 //// 11 07 00 01
03344 2297 03331 2286 03328 2286 03337 2299 03332 2296 03318 2286+
-3618905 17548887 GBIT  2014 01 11 06 37 //// 11 07 00 01
05622 -0001 05604 -0013 05612 0000 05621 0015 05629 0029 05617 0022+
-3867541 17802288 GIST  2014 01 11 06 37 //// 11 07 00 01
03581 2750 03561 2734 03561 2739 03569 2752 03555 2742 03578 2768+
-4241288 17370277 KAIT  2014 01 11 06 37 //// 11 07 00 01
02663 2188 02665 2192 02670 2199 02644 2175 02665 2198 02643 2178+
-3755040 17815904 LOTT  2014 01 11 06 37 //// 11 07 00 01
03179 0195 03193 0214 03169 0195 03168 0199 03164 0200 03156 0198+
-3704657 17451175 MNKT  2014 01 11 06 37 //// 11 07 00 01
03478 -0123 03452 -0149 03457 -0143 03452 -0149 03469 -0131 03451 -0148+
-3947566 17692007 NAPT  2014 01 11 06 37 //// 11 07 00 01
02499 2047 02495 2048 02484 2040 02467 2027 02480 2044 02472 2040+
-3441483 17304870 NCPT  2014 01 11 06 37 //// 11 07 00 01
-00618 -5118 -00904 -5399 -01004 -5492 -01347 -5830 -01541 -6018 -01864 -6336+
-4581435 17062939 OTAT  2014 01 11 06 37 //// 11 07 00 01
03780 3437 03780 3437 03781 3437 03782 3437 03782 3437 03783 3436+
-2928002 -17789440 RBCT  2014 01 11 06 37 //// 11 07 00 01
05926 2041 05926 2045 05918 2041 05922 2048 05906 2036 05906 2041+
-2925114 -17790384 RFRT  2014 01 11 06 37 //// 11 07 00 01
02834 0218 02841 0230 02816 0209 02834 0231 02843 0244 02828 0233+
-4357010 17277383 SUMT  2014 01 11 06 37 //// 11 07 00 01
01148 1852 01148 1853 01150 1857 01142 1852 01157 1868 01164 1876+
-3764109 17618118 TAUT  2014 01 11 06 37 //// 11 07 00 01
04960 3995 04954 3995 04949 3995 04944 3996 04940 3998 04937 4000+
-4128448 17477985 WLGT  2014 01 11 06 37 //// 11 07 00 01
02689 2095 02688 2095 02680 2089 02679 2089 02675 2088 02664 2078++
7777
0000074100
315
SMVD15 KWNB 110600 RRO
BBXX
41037 11061 99340 70774 46/// /1911 10197 40186 90600 333 91213
555 11127 22139=
42360 11061 99267 70905 46/// /1603 10223 40145 56005 90600 22200
00227 10702 70009 333 91204 555 11034 22037=
44064 11061 99370 70760 46/// /1507 10124 40187 90630 333 91208
555 11080 22087=
44062 11061 99386 70764 46/// /3503 10026 40193 90630 333 91204
555 11032 22035=
44063 11061 99390 70764 46/// /3301 10018 40177 90630 333 91202
555 11014 22015=
44041 11061 99372 70768 46/// /1505 10099 90630 333 91206 555
11052 22057=
44042 11061 99380 70763 46/// /1605 10075 40174 90630 333 91205
555 11052 22057=
41051 11061 99183 70650 46/// /0908 10258 90610 333 91210 555
11090 22098=
0000110900
316
SMCN04 KWBC 110600
AAXX 11064
71277 15/// /1310 11088 21119 60001 333 11012 21090 70000 555
32618 40210=
71408 45/// /2630 11020 21068 30123 40204 55010 6///1 333 11019
21088 7//// 555 32954 4007/=
71417 15/// /2918 11046 21059 30100 40135 53005 60001 333 11046
21164 70000 555 32847 4009/=
71418 45/// /2629 11016 21045 30182 40215 55010 6///1 333 11015
21086 7//// 555 32546 4022/=
71462 45/// /1619 10024 20022 39787 40009 58061 6///1 333 10024
21054 7//// 555 31624 4006/=
71464 45/// /1405 10045 20032 39862 40075 56050 6///1 333 10056
21028 7//// 555 31318 4001/=
71490 17/// ///// 11275 21300 39686 40023 56015 69921 7//4/ 333
11273 21340 70004=
71592 15/// /3310 11288 21324 39919 49932 53034 60001 333 11180
21293 70011 555 31424 4012/=
71761 45/// ///// 11092 21111 6///1 333 11040 21153 7////=
71841 17/// /1502 11052 21063 39581 49978 58023 69901 7//4/ 333
11046 21087 70002=
71923 15/// ///// 11311 21341 39576 40046 58011 60001 333 11310
21345 70003=
71963 17/// /1609 11251 21277 39571 49990 57020 60011 7//4/ 333
11251 21357 70011=
0000215100
317
SMPH01 KWBC 110600
AAXX 11061
98134 32465 40705 10239 20168 30004 40196 58029 84201 333 56299
84819=
98223 31462 50905 10286 20171 40139 57035 70544 81108 333 56999
81819 85279=
98232 31570 60902 10266 20234 40242 50020 71542 83270 222// 20100
333 56299 83820 86358=
98325 31462 61802 10290 20214 40148 58019 70544 82208 333 56999
82817 86279=
98328 31460 71102 10184 20113 38531 40132 57022 74044 85208 333
56999 85813 84278=
98330 31475 70405 10281 20242 30115 40147 57033 70544 82208 333
56/// 82818 87275=
98336 11470 70406 20218 20220 30178 40183 53020 60061 71582 8357/
333 56199 83615 87356=
98429 32560 50907 20163 40136 40300 57032 83801 333 56999 83823
83080=
98430 31558 80403 10282 20205 40133 57033 70544 82807 333 56999
82620 88080=
98431 31470 70603 10288 20237 30092 40139 57023 70544 83230 333
56999 83818 87360=
98440 31462 80707 10258 20220 30145 40150 58033 71544 84237 333
56199 84815 88277=
98444 11465 80405 10262 20209 30109 40128 58034 69901 78082 83377
333 56899 81918 82820 86459 88270=
98526 32575 81801 10/// 20/// 40108 58028 83277 333 56999 83820
85358 88274 98315=
98531 31570 62302 10317 20254 30106 40110 58021 70544 81432 333
56699 81820 86075=
98536 11470 80405 10250 20217 39927 40127 57021 69901 70584 8327/
222// 20101 333 56199 83818 88357=
98543 11475 83603 10260 20234 30108 40119 58017 69961 71482 83207
333 56999 83818 88272=
98618 32480 70706 10304 20222 40109 58029 82271 333 56999 82819
87358=
98630 32475 80205 10300 20264 40095 5//// 84207 222// 2//03 333
56199 84818 88275=
98646 11558 80206 10240 20230 30072 40100 57025 60241 76066 8382/
333 56899 83820 88458=
98653 11460 80904 10238 20227 30045 40090 57020 60591 76166 8222/
333 56299 82817 88457=
98741 11465 80402 10252 20241 40098 57019 60651 78086 8292/ 333
56199 82917 88457=
98753 11456 83603 10241 20226 40083 57026 60081 76066 83227 333
56899 83816 86459 88279=
98755 11458 83606 10258 20231 40078 57036 60311 76066 8452/ 333
56199 84616 88458=
98836 11458 80000 10267 20246 40085 58026 60021 76186 8262/ 333
56999 82718 88462=
0000011100
318
UANT99 KDDL 110642
ARP UAL990 5651N01909W 0642 F350 MS54 235/66 KT
N675UA DDL XXW 110643 F29A
0000011100
319
UANT99 KDDL 110643
ARP GTI609 5144N03644W 0643 F370 MS55 221/25 KT
N851GT DDL XXH 110643 F37A
0000010900
320
UANT99 KDDL 110643
ARP BAW98 5231N04539W 0643 F390 MS58 299/44 KT
GZBJC QXT AOW 110643 L60A
0000010900
321
UANT99 KDDL 110643
ARP VIR78 4631N01730W 0643 F380 MS62 250/70 KT
GVAST DDL XXF 110643 F07A
0000011000
322
UANT99 KDDL 110643
ARP ETD100 5055N04021W 0643 F330 MS56 318/46 KT
A6ETL QXT AOW 110643 F17A
0000066100
323
UDAF01 FAPR 110643
AMDAR 1106
LVR AFZA48 1716S 03513E 110547 F360 MS450 138/013 TB0 S031 333 F/// VG011=
LVR AFZA48 1803S 03450E 110555 F361 MS455 114/008 TB0 S031 333 F/// VG011=
LVR AFZA48 1850S 03426E 110602 F380 MS502 163/006 TB0 S031 333 F/// VG011=
LVR AFZA48 1937S 03403E 110609 F380 MS493 194/010 TB0 S031 333 F/// VG011=
LVR AFZA48 2024S 03339E 110616 F380 MS497 236/008 TB0 S031 333 F/// VG011=
LVR AFZA48 2110S 03315E 110623 F380 MS495 257/008 TB0 S031 333 F/// VG011=
LVR AFZA48 2157S 03251E 110630 F380 MS497 050/001 TB0 S031 333 F/// VG011=
LVR AFZA48 2238S 03215E 110637 F380 MS495 291/004 TB0 S031 333 F/// VG011=
0000066100
324
UDAF01 FAPR 110643
AMDAR 1106
DES AFZA41 2616S 02810E 110639 F078 PS161 069/004 TB0 S031 333 F/// VG015=
DES AFZA41 2614S 02811E 110640 F075 PS167 059/006 TB0 S031 333 F/// VG015=
DES AFZA41 2614S 02811E 110640 F071 PS170 027/013 TB0 S031 333 F/// VG015=
DES AFZA41 2612S 02811E 110640 F068 PS161 239/012 TB0 S031 333 F/// VG015=
DES AFZA41 2611S 02812E 110641 F064 PS170 353/012 TB0 S031 333 F/// VG015=
DES AFZA41 2610S 02812E 110641 F061 PS175 353/013 TB1 S031 333 F/// VG022=
DES AFZA41 2609S 02812E 110642 F058 PS182 352/013 TB1 S031 333 F/// VG022=
DES AFZA41 2608S 02813E 110642 F054 PS195 356/014 TB1 S031 333 F/// VG022=
0000066100
325
UDAF01 FAPR 110640
AMDAR 1106
LVR AFZA26 2308N 03207W 110549 F356 MS504 271/051 TB0 S031 333 F/// VG013=
LVR AFZA26 2338N 03250W 110557 F360 MS515 261/054 TB0 S031 333 F/// VG013=
LVR AFZA26 2407N 03334W 110604 F360 MS515 266/051 TB0 S031 333 F/// VG013=
LVR AFZA26 2436N 03419W 110611 F360 MS510 256/045 TB0 S031 333 F/// VG013=
LVR AFZA26 2506N 03505W 110618 F360 MS512 251/050 TB0 S031 333 F/// VG013=
LVR AFZA26 2534N 03550W 110625 F360 MS518 264/053 TB0 S031 333 F/// VG013=
LVR AFZA26 2602N 03636W 110632 F360 MS519 263/049 TB0 S031 333 F/// VG013=
LVR AFZA26 2630N 03722W 110639 F360 MS514 259/053 TB0 S031 333 F/// VG013=
0000066100
326
UDAF01 FAPR 110641
AMDAR 1106
UNS AFZA44 2603S 02816E 110639 F076 PS160 310/002 TB0 S031 333 F/// VG017=
UNS AFZA44 2602S 02815E 110640 F080 PS151 176/004 TB0 S031 333 F/// VG015=
ASC AFZA44 2601S 02814E 110640 F082 PS145 108/002 TB0 S031 333 F/// VG013=
ASC AFZA44 2601S 02814E 110640 F083 PS141 142/002 TB1 S031 333 F/// VG020=
ASC AFZA44 2601S 02813E 110640 F085 PS137 145/001 TB1 S031 333 F/// VG028=
UNS AFZA44 2600S 02812E 110640 F094 PS110 046/004 TB0 S031 333 F/// VG012=
ASC AFZA44 2558S 02810E 110641 F112 PS070 265/017 TB0 S031 333 F/// VG010=
ASC AFZA44 2557S 02809E 110641 F114 PS061 264/017 TB0 S031 333 F/// VG019=
0000058400
327
UDAF01 FAPR 110642
AMDAR 1106
DES AFZA41 2649S 02740E 110630 F181 MS062 254/008 TB0 S031 333 F/// VG011=
DES AFZA41 2642S 02746E 110632 F162 MS026 228/013 TB0 S031 333 F/// VG010=
DES AFZA41 2637S 02750E 110633 F140 MS005 286/025 TB0 S031 333 F/// VG010=
DES AFZA41 2630S 02757E 110635 F119 PS050 275/015 TB0 S031 333 F/// VG010=
DES AFZA41 2624S 02802E 110636 F099 PS100 337/003 TB0 S031 333 F/// VG010=
DES AFZA41 2617S 02809E 110639 F082 PS152 028/002 TB0 S031 333 F/// VG012=
DES AFZA41 2611S 02812E 110641 F064 PS170 353/012 TB0 S031 333 F/// VG015=
0000014600
328
SNVD20 KWNB 110500 RRX
BBXX
44040 11051 99410 70736 46/// /0604 10015 20015 90519 22200 1//00
70000 333 91204 555 11041 22051=
0000012100
329
SASA85 EGRR 110600 RRG
METAR SOCA 110630Z AUTO VRB02KT 9999 -RA SCT003 SCT025 BKN030 22/21
      Q1011=
0000026100
330
SMVB12 RJTD 110600
BBXX
TBWUK69 11064 99369 11259
41/97 81405 10080 21072 40301 57100 70322 8/7//
22200 00100 20201 80030=
SHIP    11064 99310 11342
41797 50316 10120 20061 40331 57007 701// 84242
22213 00190 20702 335// 40702 80090=
0000003900
331
SMVD12 RJTD 110600
NIL=
0000015700
332
SMVE12 RJTD 110600
BBXX
SHIP    11063 99043 11429
41697 51510 10290 20263 40131 54000 703 00 82261
22243 00310 20201 333// 40603 80270=
00000000