0000081700
093
AAWF50 VOMM 110635
FROM : ACWC CHENNAI (DR S.R.RAMANAN, DIR)
TO   : DDGM (WF) PUNE (SUNITHA DEVI, DIRECTOR)

WW-670 DATED 11.01.2014 AAA REFER T/P DATED 27.06.1994 AAA ITEMWISE
INFORMATION IN RESPECT OF STATIONS UNDER THIS R.M C FOLLOWS :-

S.NO/STNS/MAX TEMP/MIN TEMP/RH/R/F SSL TTL/ANL TTL

1. BANGALORE          30/17/85/0/0/0
2. GADAG              31/16/90/0/0/0
3. KANYAKUMARI        31/23/83/0/85/9
4. HYDERABAD AP       29/19/86/0/0/0
5. CHENNAI AP         31/20/80/0/1/tr
6. MADURAI AP         31/22/74/0/10/1
. MANGALORE           33/22/90/0/0/0
8.TIRUCHIRAPALLI AP   30/20/80/0/tr/tr
9 THIRUVANANTHAPURAM  32/22/91/0/13/1
10.VISAKHAPATNAM AP   29/19/86/0/0/0
11.MINICOY            31/26/87/0/2/tr

(AUTHORISED FOR IMMEDIATE CLEARANCE)

ENDS AAA

0000010500
094
SAIR33 OIII 110630 RRA
METAR OIBP 110634Z 04004KT 8000 SCT025 OVC090 14/11 
Q1021 A3015=

0000045500
095
SAAE33 VTBB 110630
METAR VVTS 110630Z VRB03KT 4000 HZ FEW017 SCT040 32/19 Q1011 NOSIG
      =
METAR VVNB 110630Z 27005KT 2700 BR FEW008 BKN060 17/13 Q1020 NOSIG=
METAR VVDN 110630Z 08007KT 8000 FEW015 BKN060 24/20 Q1018 NOSIG=
METAR VVPB 110630Z 05005KT 6000 FEW013 BKN060 24/20 Q1018 NOSIG=
METAR VVCR 110630Z 04015KT 8000 FEW020 BKN100 27/20 Q1015 NOSIG=
METAR VVCT 110630Z VRB03KT 9999 FEW015 30/20 Q1012 NOSIG=
METAR VVPQ 110630Z NIL=

0000171200
096
SMCI01 KWBC 110600
AAXX 11061
55299 32880 72003 11068 21266 35823 57019 87/// 333 00154 21184=
55591 32667 72706 10034 21216 36495 57018 87/// 333 00153 21061=
56739 32580 12503 10169 20005 38335 57025 81/// 333 00101 20014=
56951 32980 03203 10216 21010 38522 57034 333 00101 20048=
56964 32580 22502 10218 20076 38735 40175 57028 82/// 333 00200
20074=
57328 11823 80901 10080 20023 39864 40288 57026 69901 76060 88///
333 20055=
57411 31558 73402 10099 20041 39907 40287 57029 70500 87/// 333
20053=
57447 11962 82201 10055 20023 39737 40298 57026 69911 76066 88///
333 20043=
57662 11858 83403 10042 20024 30118 40309 57026 69911 71060 88///
333 20023=
57745 31757 80404 10043 20020 39962 40303 57030 71000 88/// 333
20030=
57972 11440 83401 10062 20044 30057 40289 57023 69901 76060 88///
333 20060=
58203 31941 00203 10083 20000 30261 40304 57026 70500 333 20017=
58314 11960 80000 10051 20005 30238 40349 52020 69931 70060 88///
333 20001=
58424 11338 80204 10030 20023 30215 40295 57022 69991 72185 88///
333 20024=
59023 11450 80402 10079 20071 39941 40261 57028 60011 76066 88///
333 20075=
59417 11440 81801 10132 20116 30062 40219 57029 69931 76060 88///
333 20117=
59985 11580 40404 10261 20213 30165 40171 57029 69911 70080 84///
333 20230=
51711 32980 00902 11074 21193 38103 57004 333 00451 21148=
52737 32979 72502 11065 21191 37107 57015 87/// 333 00402 21167=
53863 31958 22703 10045 21207 40321 57026 70500 82/// 333 21104=
54836 31940 02202 10052 21070 40308 57032 70540 333 21063=
56021 32980 70701 11080 21237 36050 57015 87/// 333 00354 21154=
57071 32960 02502 10084 21073 39887 40300 57035 333 21011=
0000003900
097
USSB01 VCCC 110600
NIL=
0000028300
098
SMVD15 KWNB 110600 RRM
BBXX
41009 11061 99285 70802 46/// /1606 10244 20214 40197 90620 22200
00240 333 91207 555 11067 22072 30525 41508 60619 160062 158059
158058 157057 154066 152069=
42365 11061 99282 70891 46/// /2206 10222 20209 90630 555 11048
22051=
0000107900
099
SMCI37 BABJ 110600
AAXX 11061
50658 33/// 93604 11206 21315 40281 57005 333 21342=
50888 11965 60000 11174 21197 40246 52005 69901 77070 86///
333 21271=
50983 32970 72503 11142 21195 30105 40248 52001 87/// 333
21268=
51053 32980 00905 11122 21194 40435 57015 333 05203 21184=
51542 32980 00901 11320 21358 37643 57011 333 00152 21397=
52436 32979 02703 11039 21215 38593 40429 57020 333 00601
21131=
52908 32680 72004 11117 21274 35731 57013 87/// 333 00200
21223=
52996 32980 73608 11096 21228 37609 57013 87/// 333 00654
21147=
53083 32968 03405 11120 21226 40369 57002 333 00201 21227=
53764 32970 03403 10009 21214 39183 40349 57028 333 21110=
53787 32966 02001 10035 21215 40309 57028 333 21112=
54096 32570 72906 11133 21211 40258 52004 87/// 333 21229=
54226 32672 63204 11014 21227 39762 40281 57018 86/// 333
21203=
54259 32980 02704 11038 21192 39985 40283 57031 333 21218=
54527 31930 01802 10023 21058 30285 40291 57037 70500 333
21081=
54534 31913 02503 10029 21084 30256 40288 57029 70540 333
21128=
0000047900
100
SMVD19 KWNB 110600 RRD
BBXX
46126 11061 99540 71666 46/// /1504 10039 49822 90606 22200 00046
1//00 70001 333 91205 555 11039 22043=
46126 11061 99540 71666 46/// /1504 10039 49822 90610 22200 00046
1//00 70001 333 91205 555 11039 22043=
46126 11061 99540 71666 46/// /1404 10039 49822 90612 22200 00046
1//00 70001 333 91205 555 11045 22048=
46126 11061 99540 71666 46/// /1404 10041 49822 90615 22200 00047
1//00 70001 333 91205 555 11045 22048=
0000003900
101
UKSB01 VCCC 110600
NIL=
0000204300
102
SMCU20 MUHV 110600
AAXX 11061
78325 11930 00000 10230 20219 30119 40176 57005 60001 70400 333
10303 20218 30/// 56000 59014=
78355 12560 10703 10210 20193 30045 40185 58003 60001 81200 333
10308 20207 30/// 56900 59008 81820=
78310 12502 30501 10229 20227 30164 40174 58002 60001 83200 333
10287 20214 30/// 56900 59011 83820 92012=
78315 12564 10000 10209 20204 30106 40171 58001 60001 81100 333
10289 20205 30/// 56900 59013 81820=
78318 12556 11601 10203 20193 30171 40175 58001 60001 81100 333
10283 20203 32/// 56900 59011 81820=
78333 12910 00103 10214 20209 30169 40176 58003 60001 333 10290
20191 30/// 59012=
78349 12450 20000 10219 20200 30079 40188 58003 60001 82500 333
10311 20190 30/// 56900 59012 81819=
78358 12930 01104 10241 20209 30160 40175 58004 60001 333 10297
20236 30/// 59011=
78360 12/60 11107 10267 20206 30157 40168 56006 60001 81800 333
10300 20199 30/// 56900 59009 818// 92034=
78369 12464 30709 10263 20212 30165 40174 58003 60001 83200 333
10294 20258 30/// 56900 57860 59009 83818=
78324 12900 01401 10242 20219 30155 40166 58010 60001 333 10290
20228 30/// 59020=
78328 11/60 21305 10242 20234 30175 40/// 58005 60001 71000 82200
333 10275 20235 30/// 56900 59015 828//=
78344 12950 00603 10221 20204 30125 40173 58003 60001 333 10309
20207 30/// 56000 59011=
78345 12565 10000 10207 20195 30177 40180 58003 60001 81500 333
10328 20184 30/// 56900 59010 81623=
78348 11456 41601 10225 20210 30129 40181 50000 60001 70500 84800
333 10280 20211 30/// 56300 59010 83819 555 11202=
78351 12550 10000 10204 20194 30168 40170 58002 60001 81500 333
10320 20196 30/// 56900 59008 81626=
78353 02550 20904 10255 20218 30165 40187 58001 60011 82800 333
10300 20240 30/// 56900 58000 60017 70010 81820=
78363 12956 01201 10187 20167 30046 40160 58004 60001 70200 333
10321 20171 30/// 59009=
78365 12550 40909 10260 20230 30174 40178 58005 60001 84200 333
10278 20250 30/// 56200 57864 59003 84820 92045 555 10903=
78322 NIL=
0000216300
103
SZNZ01 NZKL 110636
CREX++
T000103 A001 D01021 D06025++
-3683144 17478654 AUCT  2014 01 11 06 28 //// 11 07 00 01
05073 3125 05065 3127 05058 3128 05050 3129 05045 3132 05038 3134+
-4402404 -17636748 CHIT  2014 01 11 06 28 //// 11 07 00 01
04402 1999 04389 1989 04377 1978 04401 2003 04390 1994 04352 1958+
-4089929 17623168 CPIT  2014 01 11 06 28 //// 11 07 00 01
03332 2255 03352 2278 03315 2244 03337 2270 03332 2268 03328 2267+
-3618905 17548887 GBIT  2014 01 11 06 28 //// 11 07 00 01
05708 0033 05697 0028 05670 0007 05651 -0006 05645 -0007 05656 0010+
-3867541 17802288 GIST  2014 01 11 06 28 //// 11 07 00 01
03563 2693 03571 2705 03570 2710 03584 2727 03572 2720 03577 2730+
-4241288 17370277 KAIT  2014 01 11 06 28 //// 11 07 00 01
02697 2201 02702 2207 02681 2190 02695 2206 02701 2214 02695 2211+
-3755040 17815904 LOTT  2014 01 11 06 28 //// 11 07 00 01
03237 0205 03239 0213 03227 0205 03232 0216 03212 0202 03207 0201+
-3704657 17451175 MNKT  2014 01 11 06 28 //// 11 07 00 01
03461 -0141 03465 -0137 03449 -0153 03462 -0140 03459 -0143 03465 -0137+
-3947566 17692007 NAPT  2014 01 11 06 28 //// 11 07 00 01
02575 2088 02546 2062 02527 2047 02538 2063 02523 2052 02532 2064+
-3441483 17304870 NCPT  2014 01 11 06 28 //// 11 07 00 01
00825 -3726 00400 -4145 00214 -4325 00168 -4366 -00246 -4774 -00360 -4883+
-4581435 17062939 OTAT  2014 01 11 06 28 //// 11 07 00 01
03782 3444 03784 3445 03783 3444 03783 3444 03783 3443 03782 3442+
-2928002 -17789440 RBCT  2014 01 11 06 28 //// 11 07 00 01
05958 2036 05963 2045 05949 2035 05952 2042 05938 2032 05942 2040+
-2925114 -17790384 RFRT  2014 01 11 06 28 //// 11 07 00 01
02893 0239 02884 0235 02865 0221 02864 0224 02857 0221 02844 0212+
-4357010 17277383 SUMT  2014 01 11 06 28 //// 11 07 00 01
01153 1836 01156 1842 01146 1834 01131 1821 01138 1830 01132 1827+
-3764109 17618118 TAUT  2014 01 11 06 28 //// 11 07 00 01
05025 4009 05010 3999 05003 3998 05000 4001 04995 4001 04988 4000+
-4128448 17477985 WLGT  2014 01 11 06 28 //// 11 07 00 01
02716 2105 02710 2101 02708 2101 02706 2100 02705 2102 02690 2088++
7777
0000051200
104
SMVD01 EGRR 110600
BBXX
DANR 11063 99525 71479 41598 73312 10045 20034 40000 52010 70322
85465 22223 20502 313// 40806 80040=
PHBO 11063 99154 70602 41598 20816 10260 20207 40163 58014 70222
82100 22254 20402 80225=
AMOUK17 1106/ 99134 70914 46/// ///// 10274 20216 40125=
ZCDM6 11064 99261 70786 41598 51220 10260 20196 40201 53002 70222
8427/ 22264 00270 20302 311// 40503 80218=
DGWF2 11063 99523 71379 41/// 80532 10040 20017 49760 51010 76366
8//// 22223 04080 2//// 80030=
0000062900
105
SASA85 EGRR 110600 RRF
METAR SBUL 110600Z 05004KT CAVOK 19/16 Q1017=
METAR SVBI 110600Z 05005KT CSVOK 25/14 Q1012=
METAR SVBM 110600Z 07004KT 9999 SCT016 19/16 Q1017=
METAR SVBS 110600Z 09003KT CAVOK 21/17 Q1016=
METAR SVCB 110600Z 09006KT CAVOK 23/// Q1012=
METAR SVCL 110600Z 09006KT CAVOK ///// Q1012=
METAR SVCR 110600Z /////KT CAVOK 25/25 Q1015=
METAR SVCU 110600Z 09006KT CAVOK 24/18 Q1015=
METAR SVGU 110600Z 00000KT CAVOK 22/20 Q1011=
METAR SVMD 110600Z 02003KT 9000 VCBR BKN027 15/11 Q1020=
METAR SVSR 110600Z /////KT CAVOK 23/// Q1012=
METAR SVVA 110600Z 02002KT CAVOK 22/19 Q1015=
0000011100
106
SPSA85 EGRR 110622 RRA
SPECI SBAN 110612Z 06015KT 2000 TSRA SCT010 SCT030 FEW040CB 18/16 Q1019=
0000004600
107
SMVX01 VCCC 110600
BBXX
NIL=
0000049800
108
SZIO40 AMMC 110636
DART 56001P 011063608


D$1I 01/11/2014 00:15:00 1394142 5642702 5642687 5642672 5642659  1* 36
D$1I 01/11/2014 01:15:00 1394142 5642650 5642644 5642641 5642638  1* 39
D$1I 01/11/2014 02:15:00 1394142 5642635 5642637 5642640 5642651  1* 33
D$1I 01/11/2014 03:15:00 1394142 5642663 5642679 5642697 5642719  1* 3C
D$1I 01/11/2014 04:15:00 1394142 5642743 5642772 5642804 5642836  1* 34
D$1I 01/11/2014 05:15:00 1394142 5642868 5642904 5642941 5642980  1* 30
0000270100
109
UDFR01 LFPW 110635
AMDAR 1106
ASC EU3670 4326N 00513E 110618 F000 PS112 /// 067/005 TB0 S031
333 F000 VG013=
UNS EU3670 4325N 00513E 110619 F009 PS102 /// 083/005 TB0 S031
333 F009 VG004=
UNS EU3670 4325N 00516E 110619 F023 PS065 /// 168/008 TB0 S031
333 F023 VG013=
UNS EU3670 4326N 00517E 110620 F028 PS052 /// 203/010 TB1 S031
333 F028 VG039=
ASC EU3670 4328N 00516E 110620 F042 PS027 /// 161/014 TB1 S031
333 F042 VG026=
ASC EU3670 4330N 00516E 110621 F054 PS067 /// 210/017 TB1 S031
333 F054 VG016=
ASC EU3670 4331N 00515E 110621 F066 PS050 /// 215/017 TB0 S031
333 F066 VG006=
ASC EU3670 4333N 00514E 110621 F078 PS025 /// 235/020 TB1 S031
333 F078 VG030=
ASC EU3670 4334N 00514E 110622 F091 MS002 /// 242/021 TB0 S031
333 F091 VG001=
ASC EU3670 4336N 00513E 110622 F103 MS025 /// 239/024 TB2 S031
333 F103 VG034=
ASC EU3670 4337N 00512E 110622 F110 MS045 /// 233/019 TB0 S031
333 F110 VG004=
ASC EU3670 4339N 00511E 110623 F114 MS055 /// 230/016 TB1 S031
333 F114 VG013=
ASC EU3670 4343N 00510E 110623 F131 MS092 /// 234/014 TB0 S031
333 F131 VG004=
ASC EU3670 4345N 00510E 110624 F141 MS117 /// 225/016 TB1 S031
333 F141 VG009=
ASC EU3670 4349N 00508E 110624 F160 MS162 /// 215/019 TB1 S031
333 F160 VG014=
ASC EU3670 4351N 00507E 110625 F170 MS185 /// 223/020 TB1 S031
333 F170 VG016=
ASC EU3670 4353N 00507E 110625 F179 MS202 /// 221/024 TB2 S031
333 F179 VG031=
ASC EU3670 4355N 00506E 110625 F186 MS222 /// 223/029 TB0 S031
333 F186 VG001=
ASC EU3670 4357N 00505E 110626 F194 MS230 /// 225/035 TB0 S031
333 F194 VG004=
ASC EU3670 4359N 00504E 110626 F202 MS240 /// 223/037 TB1 S031
333 F202 VG010=
ASC EU3670 4404N 00503E 110627 F218 MS280 /// 233/033 TB0 S031
333 F218 VG005=
ASC EU3670 4405N 00502E 110627 F227 MS300 /// 235/032 TB0 S031
333 F227 VG007=
ASC EU3670 4408N 00501E 110627 F233 MS317 /// 232/034 TB0 S031
333 F233 VG002=
ASC EU3670 4410N 00500E 110628 F239 MS337 /// 230/035 TB1 S031
333 F239 VG008=
ASC EU3670 4412N 00459E 110628 F246 MS352 /// 227/035 TB0 S031
333 F246 VG001=
UNS EU3670 4414N 00459E 110628 F252 MS372 /// 225/034 TB0 S031
333 F252 VG006=
ASC EU3670 4417N 00459E 110629 F258 MS387 /// 227/037 TB0 S031
333 F258 VG006=
ASC EU3670 4419N 00458E 110629 F264 MS405 /// 229/039 TB0 S031
333 F264 VG004=
ASC EU3670 4429N 00458E 110630 F291 MS477 /// 234/039 TB0 S031
333 F291 VG001=
ASC EU3670 4431N 00458E 110631 F299 MS497 /// 237/041 TB0 S031
333 F299 VG004=
ASC EU3670 4434N 00458E 110631 F306 MS517 /// 238/041 TB0 S031
333 F306 VG001=
ASC EU3670 4436N 00458E 110631 F314 MS535 /// 243/047 TB1 S031
333 F314 VG017=
0000190100
110
UDEU02 EGRR 110637
AMDAR 1106
ASC EU0147   5110N 00012W 110614 F013 PS052 289/020 TB/ S031=
ASC EU0147   5109N 00013W 110614 F020 PS035 291/025 TB/ S031=
ASC EU0147   5108N 00014W 110614 F024 PS022 289/024 TB/ S031=
ASC EU0147   5108N 00015W 110614 F030 PS017 287/021 TB/ S031=
ASC EU0147   5107N 00017W 110614 F037 PS007 276/019 TB/ S031=
ASC EU0147   5107N 00018W 110614 F049 MS002 270/030 TB/ S031=
ASC EU0147   5106N 00019W 110614 F060 MS020 262/031 TB/ S031=
ASC EU0147   5105N 00021W 110614 F070 MS045 251/033 TB/ S031=
ASC EU0147   5105N 00022W 110614 F080 MS072 258/033 TB/ S031=
ASC EU0147   5104N 00024W 110614 F094 MS075 267/035 TB/ S031=
ASC EU0147   5101N 00022W 110615 F107 MS090 274/036 TB/ S031=
ASC EU0147   5057N 00019W 110615 F113 MS100 293/040 TB/ S031=
ASC EU0147   5053N 00017W 110615 F129 MS122 285/047 TB/ S031=
ASC EU0147   5049N 00014W 110616 F146 MS165 288/049 TB/ S031=
ASC EU0147   5045N 00011W 110616 F164 MS210 286/046 TB/ S031=
ASC EU0147   5041N 00008W 110616 F181 MS255 278/046 TB/ S031=
ASC EU0147   5037N 00005W 110617 F198 MS282 267/045 TB/ S031=
ASC EU0147   5033N 00001W 110617 F212 MS322 264/045 TB/ S031=
ASC EU0147   5029N 00002E 110617 F226 MS350 254/046 TB/ S031=
ASC EU0147   5025N 00005E 110618 F238 MS382 251/047 TB/ S031=
ASC EU0147   5021N 00009E 110618 F249 MS402 251/051 TB/ S031=
ASC EU0147   5017N 00012E 110618 F259 MS432 251/053 TB/ S031=
ASC EU0147   5013N 00016E 110619 F260 MS432 249/052 TB/ S031=
ASC EU0147   5009N 00020E 110619 F260 MS430 246/051 TB/ S031=
ASC EU0147   5005N 00024E 110619 F260 MS427 245/048 TB/ S031=
ASC EU0147   5001N 00026E 110620 F260 MS430 247/047 TB/ S031=
ASC EU0147   4956N 00029E 110620 F260 MS430 248/045 TB/ S031=
ASC EU0147   4952N 00032E 110620 F272 MS447 244/053 TB/ S031=
ASC EU0147   4948N 00035E 110621 F286 MS472 243/057 TB/ S031=
0000020200
111
SMAA01 KARS 110600 RRA
AAXX 1106/
89869 46/// ///// 11021 39924 4//// 5//// 90610=
89828 46/// ///// 11208 36552 4//// 5//// 90610=
89879 46/// ///// 10019 39896 4//// 5//// 90610=
0000049800
112
SZIO41 AMMC 110636
DART 56003P 011063617


D$1I 01/11/2014 00:15:00 1434126 5662865 5662836 5662806 5662774  1* 30
D$1I 01/11/2014 01:15:00 1434126 5662746 5662717 5662689 5662662  1* 3C
D$1I 01/11/2014 02:15:00 1434126 5662638 5662616 5662601 5662588  1* 30
D$1I 01/11/2014 03:15:00 1434126 5662585 5662585 5662587 5662597  1* 3E
D$1I 01/11/2014 04:15:00 1434126 5662611 5662631 5662657 5662687  1* 37
D$1I 01/11/2014 05:15:00 1434126 5662721 5662759 5662803 5662848  1* 39
00000000