0000033400
033
SANL31 EHDB 102055
METAR EHAM 102055Z 21015KT 9000 FEW009 BKN012 OVC020 07/05 Q1014
NOSIG=
METAR EHBK 102055Z AUTO 22010KT 9999 NSC 04/02 Q1017 NOSIG=
METAR EHGG 102055Z AUTO 21008KT 9999 SCT009 OVC010 06/05 Q1013 BECMG
7000=
METAR EHRD 102055Z AUTO 21015KT 170V240 8000 BKN008 OVC010 06/04
Q1015 NOSIG=

0000022000
034
FTUS31 KWBC 102057 AAA
TAF AMD
KSTL 102054Z 1021/1124 16015KT 3SM -RA BR OVC007
     FM110300 20013KT 4SM BR OVC007
     FM110700 25012KT 5SM BR OVC012
     FM111500 27013KT P6SM SCT015 BKN250=

0000026400
035
FTUS41 KWBC 102057 AAA
TAF AMD
KCMH 102055Z 1021/1118 17009KT 6SM BR SCT010 OVC035
      TEMPO 1100/1103 BKN015
     FM110300 17010KT 5SM BR VCSH OVC015
     FM110700 17012KT 4SM -RA BR OVC008
     FM111400 23014G23KT P6SM VCSH OVC012=

0000013100
036
FTUS42 KWBC 102057 AAA
TAF AMD
KAMA 102054Z 1021/1118 32010G20KT P6SM SCT250
     FM102300 28008KT P6SM SKC=

0000021300
037
FTUS71 KWBC 102057
TAF
TAF KECG 102047Z 1021/1118 15007KT P6SM OVC090
      TEMPO 1021/1024 3SM -RA OVC030
     FM110500 18008KT 4SM -DZ BR OVC010
     FM111400 18015G22KT 4SM BR BKN010=

0000026400
038
FTUS71 KWBC 102057 AAA
TAF AMD
KCMH 102055Z 1021/1118 17009KT 6SM BR SCT010 OVC035
      TEMPO 1100/1103 BKN015
     FM110300 17010KT 5SM BR VCSH OVC015
     FM110700 17012KT 4SM -RA BR OVC008
     FM111400 23014G23KT P6SM VCSH OVC012=

0000013100
039
FTUS72 KWBC 102057 AAA
TAF AMD
KAMA 102054Z 1021/1118 32010G20KT P6SM SCT250
     FM102300 28008KT P6SM SKC=

0000022000
040
FTUS73 KWBC 102057 AAA
TAF AMD
KSTL 102054Z 1021/1124 16015KT 3SM -RA BR OVC007
     FM110300 20013KT 4SM BR OVC007
     FM110700 25012KT 5SM BR OVC012
     FM111500 27013KT P6SM SCT015 BKN250=

0000011500
041
FCRO32 LROM 101700 AAA
TAF AMD LRAR 102100Z 1021/1103 CNL=
TAF AMD LROD 102100Z 1021/1103 CNL=

0000007700
042
FCRO33 LROM 101700 AAA
TAF AMD LRBC 102100Z 1021/1103 CNL=

0000008900
043
SATU35 LTAA 102050
METAR LCEN 102050Z 29009KT CAVOK 07/03 Q1021 NOSIG=

0000017700
044
SAUS71 KWBC 102000 RRI
METAR
KMMU 102045Z 00000KT 2 1/2SM BR OVC007 00/M01 A3037=
KMYR 102045Z 13011G16KT 7SM -RA FEW014 SCT022 BKN035 19/16
     A3017=

0000012800
045
SANO38 ENMI 102050 RRA
METAR ENGC 102050Z 07017KT 9999 FEW025 BKN050 BKN065 05/M01 Q0999
           W07/S5=

0000008700
046
SARH32 LDZM 102100
METAR LDLO 102100Z NIL=
METAR LDSB 102100Z NIL=

0000050100
047
SARH31 LDZM 102100
METAR LDSP 102100Z 04004KT 340V080 9999 FEW028 SCT044 12/09 Q1022
     NOSIG =
METAR LDPL 102100Z 08006KT 9999 FEW020 BKN057 11/09 Q1021 NOSIG =
METAR LDDU 102100Z 07003KT 030V100 9999 FEW025 BKN040 10/09 Q1022
NOSIG =
METAR LDZA 102100Z VRB02KT 0400 R05/0275V0375N R23/0300N FG FEW004
04/04 Q1021 BECMG 0200 =
METAR LDZD 102100Z 11005KT 9999 BKN060 09/08 Q1022 NOSIG =
METAR LDRI 102100Z NIL=
METAR LDOS 102100Z 08005KT 0700 FG NSC 04/04 Q1022=

0000009600
048
SAUS74 KWBC 102000 RRE
METAR
KSBD 102049Z 26006KT 10SM FEW200 23/M02 A3005=

0000013200
049
SANO37 ENMI 102050 RRA
METAR ENOV 102050Z VRB02KT 9999 FEW030 M03/M06 Q0999 RMK WIND 2175FT
           36007KT=

0000014300
050
SAVN31 SVVA 102100
METAR SVVA 102100Z 09007KT 9999 FEW016 32/18 Q1011=
METAR SVPC 102100Z 08014KT 9999 FEW040 XX/XX Q////=

0000106300
051
SAPR76 SPIM 102100
METAR SPCL 102100Z 02005KT 9999 SCT025 FEW040TCU SCT100 29/24 Q1006 
RMK BIRD HAZARD RWY 02/20 PP000=
METAR SPGM 102100Z /////KT 9999 SCT040 OVC100 24/21 Q1011
RMK TX.24.2 PP000=
METAR SPHO 102100Z 31008KT 9999 FEW046TCU SCT120 23/13 Q1017 RMK
PP000=
METAR SPHY 102100Z NIL=
METAR SPJI 102100Z 00000KT 9999 BKN030 33/26 Q1013 RMK T.MAX 33.5
PP000=
METAR SPJL 102100Z 09009KT 9999 FEW010 SCT080 14/05 Q1031 RMK SH QUAD
N PP000=
METAR SPJR 102100Z 03005KT 9999 VCSH SCT023 OVC037 16/12 Q1023 RMK
PP000=
METAR SPLO 102100Z 14007KT CAVOK 25/21 Q1008 RMK TMAX 26.6 PP000=
METAR SPME 102100Z 32007KT 9999 FEW022 SCT040 29/23 Q1007
RMK BIRD HAZARD RWY 32/14 PP000=
METAR SPMS 102100Z /////KT 8000 VCSH BKN014 BKN100 28/23 Q1008 RMK
BIRD HAZARD 09/27 PP020=
METAR SPST 102100Z 35006KT 9999 SCT020 SCT100 31/22 Q1005 
RMK BIRD HAZARD RWY 17/35 PP000=
METAR SPTU 102100Z 36006KT 9999 SCT010 30/25 Q1005 RMK BIRD HAZARD
RWY 01/19 PP000=
METAR SPYL 102100Z 24014KT CAVOK 28/22 Q1007 RMK PP000=

0000029500
052
SAVN27 SVBM 102100
METAR SVBM 102100Z 09007KT 9999 FEW016 30/17 Q1014=
METAR SVSP 102100Z 04018KT 9999 FEW040 XX/XX Q1012=
METAR SVAC 102100Z 00000KT CAVOK 32/17 Q1011=
METAR SVBI 102100Z NIL=
METAR SVGU 102100Z NIL=
METAR SVSO 102100Z NIL=
METAR SVVL 102100Z NIL=

00000000