0000028700
713
SAHK31 VHHH 102030
METAR VHHH 102030Z 08007KT 9000 FEW025 15/11 Q1023 NOSIG=
METAR RCTP 102030Z 10003KT 050V160 9999 FEW020 16/12 Q1023 NOSIG
RMK A3022=
METAR RCKH 102030Z NIL=
METAR RCSS 102030Z NIL=
METAR VMMC 102030Z 01008KT 6000 SCT025 15/12 Q1023 NOSIG=

0000010400
714
SPUS43 KWBC 102040
SPECI
KBDE 102036Z AUTO 18010KT 2 1/2SM BR OVC005 M04/M06 A2945=

0000179300
715
SPUS70 KWBC 102042
SPECI
KAHN 102038Z 06006KT 2SM BR OVC003 08/07 A3013 RMK AO2 P0001=
KENW 102038Z 15009KT 1/4SM -RA FG OVC002 01/M01 A2976 RMK AO2
     RAB05 P0001 T00111006=
KEQY 102038Z AUTO 05005KT 3SM RA BR BKN003 BKN028 OVC036 07/06
     A3018 RMK AO2 P0018=
KGEZ 102038Z AUTO 13009KT 2 1/2SM BR OVC004 05/04 A2993 RMK AO2
     T00500039=
KICT 102038Z 32015KT 10SM SCT026 BKN130 BKN200 07/01 A2958 RMK
     AO2=
KMDH 102039Z AUTO 18012KT 10SM -RA BKN010 BKN015 OVC055 07/06
     A2985 RMK AO2 RAE20B36 CIG 007V013 P0000 T00720061=
KRHI 102039Z AUTO 17005KT 1 1/2SM BR OVC004 M05/M06 A2968 RMK AO2
     T10501056=
KTHV 102038Z AUTO 05003KT 2SM BR OVC014 02/00 A3031 RMK AO2
     T00220000=
PACM 102038Z AUTO 00000KT 10SM OVC014 M12/M14 A2955 RMK AO2 TSNO
     OVC V BKN $=
PACM 102038Z AUTO 00000KT 10SM OVC014 M12/M14 A2955 RMK AO2 TSNO
     OVC V BKN $=
KBRL 102039Z AUTO 15007KT 2 1/2SM -RA BR OVC004 02/02 A2961 RMK
     AO2 CIG 003V009 P0008 I1000 T00220017=
KBWI 102039Z 00000KT 1SM R10/5500VP6000FT -RA BR OVC003 02/01
     A3032 RMK AO2 P0002=
KDTO 102039Z 22018G22KT 10SM SCT019 18/15 A2968 RMK AO2=
KHVN 102039Z 15003KT 2 1/2SM BR FEW003 SCT010 OVC027 02/01 A3037
     RMK AO2=
KIAD 102039Z 00000KT 1 1/4SM -RA BR OVC005 02/01 A3031 RMK AO2 TWR
     VIS 1 1/2 DZE01RAB01 P0001=
KJKL 102039Z AUTO 09003KT 10SM BKN025 11/08 A3004 RMK AO2
     T01110078=
KLBF 102039Z AUTO 31017G21KT 10SM -RA BKN015 OVC036 03/00 A2958
     RMK AO2 RAB06 P0000=
KLNK 102039Z 20004KT 7SM SCT012 OVC019 02/00 A2955 RMK AO2
     T00170000=
KMEM 102039Z 13005KT 10SM SCT028 BKN034 OVC050 14/09 A2988 RMK
     AO2=
KTXK 102039Z 17005KT 3SM -RA BR FEW004 BKN033 OVC075 14/14 A2974
     RMK AO2 RAB1954 P0000=

0000009800
716
SPUS42 KWBC 102042
SPECI
KSAT 102038Z 24009KT 10SM SCT032 BKN250 22/15 A2981=

0000010500
717
SPUS43 KWBC 102042
SPECI
KICT 102038Z 32015KT 10SM SCT026 BKN130 BKN200 07/01 A2958=

0000016900
718
SACA33 KWBC 102000 RRG
METAR
TNCB 102000Z 09012KT 060V120 9999 SCT019 27/23 Q1012 RERA
     NOSIG=
TNCE 102000Z 05014KT 9999 SCT020 26/22 Q1016=

0000031400
719
SAJP31 KWBC 102030 RRB
METAR
RJAA 102030Z 35003KT 9999 FEW025 M03/M08 Q1023 NOSIG RMK 1CU025
     A3023=
RJCC 102030Z 23003KT 9999 -SHSN FEW015 SCT045 BKN070 M09/M12 Q1018
     RMK 1ST015 3CU045 7AC070 A3006=
RJTT 102030Z 28005KT 9999 FEW030 01/M06 Q1023 NOSIG RMK 1CU030
     A3022=

0000010200
720
SPCN46 CWAO 102042
SPECI CYBN 102042Z AUTO 14009KT 5SM OVC013 OVC054 M00/M02 A3007=

0000010100
721
SPCN44 CWAO 102042
SPECI CYMJ 102042Z 34002KT 2 1/4SM BR SCT006 OVC090 RMK SC3AC5=

0000011600
722
SPUS41 KWBC 102041
SPECI
KDOV 102038Z AUTO 06002KT 1/2SM R01/3500FT -RA FG VV002 04/04
A3032=

0000054400
723
FTUS41 KWBC 102042
TAF
TAF AMD KCEF 1020/1201 VRB06KT 9999 SCT007 OVC050 620509
      QNH3030INS
      BECMG 1022/1023 VRB06KT 9999 OVC008 620089 QNH3029INS
      TEMPO 1100/1103 4800 -FZDZ 660001
      BECMG 1102/1103 10006KT 4800 -FZDZ OVC008
      WS020/20040KT
      660001 620307 QNH3010INS
      BECMG 1107/1108 15006KT 4800 -RA BR OVC008
      WS020/20040KT
      QNH3002INS
      BECMG 1110/1111 17010KT 2400 -RA BR OVC008
      WS020/20050KT
      QNH2941INS T12/1121Z T00/1102Z AMD 102037=

0000054400
724
FTUS71 KWBC 102042
TAF
TAF AMD KCEF 1020/1201 VRB06KT 9999 SCT007 OVC050 620509
      QNH3030INS
      BECMG 1022/1023 VRB06KT 9999 OVC008 620089 QNH3029INS
      TEMPO 1100/1103 4800 -FZDZ 660001
      BECMG 1102/1103 10006KT 4800 -FZDZ OVC008
      WS020/20040KT
      660001 620307 QNH3010INS
      BECMG 1107/1108 15006KT 4800 -RA BR OVC008
      WS020/20040KT
      QNH3002INS
      BECMG 1110/1111 17010KT 2400 -RA BR OVC008
      WS020/20050KT
      QNH2941INS T12/1121Z T00/1102Z AMD 102037=

0000013200
725
SAPA31 KWBC 102000 RRE
METAR
PKWA 102040Z AUTO 06016KT 10SM SCT026 SCT032 28/21 A2983 RMK AO2
     T02760214=

0000010700
726
SANT31 KWBC 102000 RRC
METAR
GVAC 102030Z NIL=
LPBJ 102030Z NIL=
LPLA 102030Z NIL=

0000009800
727
SPCN42 CWAO 102041
SPECI CYUA 102041Z AUTO 29023G28KT 3/4SM -SN CLR M25/ A2977=

0000009900
728
SAUS72 KWBC 102000 RRH
METAR
KBQK 102035Z AUTO 13006KT 3SM OVC003 20/19 A3012=

0000010600
729
SAUS73 KWBC 102000 RRG
METAR
KIKK 102035Z AUTO 13003KT 1 1/4SM RA OVC005 02/02 A2981=

0000015900
730
SAUS71 KWBC 102000 RRF
METAR
KLCK 102035Z AUTO 13006KT 10SM BKN009 OVC035 08/05 A3006=
KPQI 102035Z AUTO 15007KT 10SM CLR M08/M19 A3025=

0000010100
731
SAUS72 KWBC 102000 RRG
METAR
KLRU 102035Z AUTO 26020G24KT 10SM CLR 15/M10 A2997=

0000021200
732
SAUS73 KWBC 102000 RRF
METAR
KCIU 102035Z AUTO 14012KT 3SM OVC006 M02/M02 A2987=
KELO 102032Z AUTO 18008KT 5SM BR OVC009 M05/M06 A2953=
KLBL 102035Z AUTO 31015G21KT 10SM CLR 11/M09 A2967=

00000000