0000010200
593
SANL33 EHDB 102025 RRB
METAR EHSC 102025Z AUTO 22024G27KT 9999 07/06 Q1014 W08/H16=

0000010200
594
SANL33 EHDB 102025 RRC
METAR EHSA 102025Z AUTO 21025G28KT 9999 08/06 Q1014 W09/H17=

0000145100
595
FTUS73 KWBC 102036 AAA
TAF AMD
KAXN 102034Z 1021/1118 17012KT 1/2SM FZFG OVC002
     FM102200 18009KT 2SM BR BKN006 OVC015
     FM110000 20006KT 5SM BR SCT012 BKN100
     FM110300 27006KT P6SM SCT200
     FM111000 31010KT P6SM SCT025 BKN040
     FM111600 30010KT P6SM SCT250=
KDET 102034Z 1021/1118 16010KT 5SM BR OVC006
     FM110000 16014KT 2SM -RA BR OVC004 WS020/19043KT
      TEMPO 1106/1110 2SM RA BR OVC004
     FM111200 18010KT 2SM SHRA BR OVC004
     FM111700 24012G20KT 6SM BR OVC010=
KDTW 102034Z 1021/1124 16010KT 4SM BR OVC006
     FM110000 16014KT 2SM -RA BR OVC004 WS020/19043KT
      TEMPO 1105/1109 2SM RA BR OVC004
     FM111200 18010KT 2SM SHRA BR OVC004
     FM111700 24012G20KT 6SM BR OVC010=
KFNT 102034Z 1021/1118 16010KT 4SM BR OVC006
     FM110000 16014KT 2SM -RA BR OVC004 WS020/19044KT
      TEMPO 1106/1110 2SM RA BR OVC004
     FM111200 20010KT 2SM SHRA BR OVC004
     FM111700 24012G20KT 5SM BR OVC010=
KMBS 102034Z 1021/1118 17010KT 6SM BR OVC008
     FM110000 16014KT 2SM -RA BR OVC004 WS020/20040KT
      TEMPO 1103/1107 2SM RA BR OVC004
     FM111200 20010KT 2SM SHRA BR OVC004
     FM111700 25012G20KT 5SM BR OVC010=
KYIP 102034Z 1021/1118 16010KT 2SM BR OVC006
     FM110000 16014KT 2SM -RA BR OVC004 WS020/19043KT
      TEMPO 1105/1109 2SM RA BR OVC004
     FM111200 18010KT 2SM SHRA BR OVC004
     FM111700 24012G20KT 6SM BR OVC010=

0000073600
596
FTUS43 KWBC 102036 AAA
TAF AMD
KDET 102034Z 1021/1118 16010KT 5SM BR OVC006
     FM110000 16014KT 2SM -RA BR OVC004 WS020/19043KT
      TEMPO 1106/1110 2SM RA BR OVC004
     FM111200 18010KT 2SM SHRA BR OVC004
     FM111700 24012G20KT 6SM BR OVC010=
KFNT 102034Z 1021/1118 16010KT 4SM BR OVC006
     FM110000 16014KT 2SM -RA BR OVC004 WS020/19044KT
      TEMPO 1106/1110 2SM RA BR OVC004
     FM111200 20010KT 2SM SHRA BR OVC004
     FM111700 24012G20KT 5SM BR OVC010=
KMBS 102034Z 1021/1118 17010KT 6SM BR OVC008
     FM110000 16014KT 2SM -RA BR OVC004 WS020/20040KT
      TEMPO 1103/1107 2SM RA BR OVC004
     FM111200 20010KT 2SM SHRA BR OVC004
     FM111700 25012G20KT 5SM BR OVC010=

0000027800
597
FTUS31 KWBC 102036 AAA
TAF AMD
KDTW 102034Z 1021/1124 16010KT 4SM BR OVC006
     FM110000 16014KT 2SM -RA BR OVC004 WS020/19043KT
      TEMPO 1105/1109 2SM RA BR OVC004
     FM111200 18010KT 2SM SHRA BR OVC004
     FM111700 24012G20KT 6SM BR OVC010=

0000009300
598
SPUS43 KWBC 102035
SPECI
KPTK 102031Z 16007KT 2SM BR OVC004 01/01 A2997=

0000037000
599
SAAL31 DAAA 102030
METAR DAAG 102030Z VRB01KT 9999 FEW030 BKN090 12/08 Q1018=
METAR DAAT 102030Z NIL=
METAR COR DABB 102030Z 14002KT CAVOK 12/11 Q1017=
METAR DABC 102030Z 25008KT CAVOK 08/01 Q1020=
METAR DAON 102030Z NIL=
METAR DAOO 102030Z 06004KT 9999 FEW023 SCT100 13/08 Q1015=
METAR DAUH 102030Z 03004KT 9999 FEW040 SCT100 16/08 Q1021=

0000023200
600
SAIE32 EIDB 102030
METAR EICM 102030Z NIL=
METAR EIDL 102030Z NIL=
METAR EIKY 102030Z NIL=
METAR EIME 102030Z NIL=
METAR EISG 102030Z NIL=
METAR EIWF 102030Z 33007KT 290V010 CAVOK 04/03 Q1011 R03/1/////=

0000033700
601
SAAE33 VTBB 102030
METAR VVTS 102030Z 06003KT 9999 FEW017 SCT040 22/19 Q1012 NOSIG =
METAR VVNB 102030Z 30005KT 2300 BR FEW020 BKN050 15/11 Q1020 NOSIG=
METAR VVDN 102030Z NIL=
METAR VVPB 102030Z NIL=
METAR VVCR 102030Z 36006KT 9999 FEW017 24/18 Q1015 NOSIG=
METAR VVCT 102030Z NIL=
METAR VVPQ 102030Z NIL=

0000010200
602
SAGQ20 FGSL 102030
METAR FGSL 102030Z 23006KT 6000 FEW012 BKN130 26/23 Q1012 NOSIG=

0000021400
603
FTMX65 MMMX 102036 AMD
TAF AMD MMNL 102036Z 1021/1118 13005KT P6SM SCT230 
         FM110400 33005KT 5SM HZ SCT015 
         TEMPO 1112/1115 3SM BR 
         FM111600 33010KT 6SM HZ SCT020=

0000022500
604
SACA31 TNCC 102000
METAR TNCC 102000Z 10010KT 9999 FEW024 28/22 Q1012 NOSIG=
METAR TNCE 102000Z 05014KT 9999 SCT020 26/22 Q1016=
METAR TNCB 102000Z 09012KT 060V120 9999 SCT019 27/23 Q1012 
RERA NOSIG=

0000022700
605
FTMX41 KWBC 102036 AAA
TAF AMD
TAF AMD MMMA 102032Z 1021/1118 15015G25KT 6SM BLDU SCT020
     FM110200 16010G20KT 6SM HZ SCT015
      TEMPO 1112/1115 1SM BR BKN005
     FM111800 15015KT 6SM HZ SCT020=

0000030600
606
FTUS53 KWBC 102036 AAA
TAF AMD
KAXN 102034Z 1021/1118 17012KT 1/2SM FZFG OVC002
     FM102200 18009KT 2SM BR BKN006 OVC015
     FM110000 20006KT 5SM BR SCT012 BKN100
     FM110300 27006KT P6SM SCT200
     FM111000 31010KT P6SM SCT025 BKN040
     FM111600 30010KT P6SM SCT250=

0000122200
607
FTUS80 KWBC 102036 AAA
TAF AMD
KAXN 102034Z 1021/1118 17012KT 1/2SM FZFG OVC002
     FM102200 18009KT 2SM BR BKN006 OVC015
     FM110000 20006KT 5SM BR SCT012 BKN100
     FM110300 27006KT P6SM SCT200
     FM111000 31010KT P6SM SCT025 BKN040
     FM111600 30010KT P6SM SCT250=
KDET 102034Z 1021/1118 16010KT 5SM BR OVC006
     FM110000 16014KT 2SM -RA BR OVC004 WS020/19043KT
      TEMPO 1106/1110 2SM RA BR OVC004
     FM111200 18010KT 2SM SHRA BR OVC004
     FM111700 24012G20KT 6SM BR OVC010=
KDTW 102034Z 1021/1124 16010KT 4SM BR OVC006
     FM110000 16014KT 2SM -RA BR OVC004 WS020/19043KT
      TEMPO 1105/1109 2SM RA BR OVC004
     FM111200 18010KT 2SM SHRA BR OVC004
     FM111700 24012G20KT 6SM BR OVC010=
KFNT 102034Z 1021/1118 16010KT 4SM BR OVC006
     FM110000 16014KT 2SM -RA BR OVC004 WS020/19044KT
      TEMPO 1106/1110 2SM RA BR OVC004
     FM111200 20010KT 2SM SHRA BR OVC004
     FM111700 24012G20KT 5SM BR OVC010=
KMBS 102034Z 1021/1118 17010KT 6SM BR OVC008
     FM110000 16014KT 2SM -RA BR OVC004 WS020/20040KT
      TEMPO 1103/1107 2SM RA BR OVC004
     FM111200 20010KT 2SM SHRA BR OVC004
     FM111700 25012G20KT 5SM BR OVC010=

0000126700
608
SPUS70 KWBC 102036
SPECI
KBIV 102032Z AUTO 14009KT 2 1/2SM BR OVC005 02/01 A2986 RMK AO2
     T00170006=
KBLF 102032Z AUTO 15010G16KT 10SM SCT008 OVC048 10/06 A3013 RMK
     AO2=
KHUF 102032Z 16010KT 7SM -RA FEW016 BKN036 OVC070 05/03 A2987 RMK
     AO2 RAB14 P0000=
KMLI 102032Z 17008KT 1 1/2SM RA BR OVC006 02/01 A2965 RMK AO2
     UPB05E22RAB08 P0002=
KSET 102032Z AUTO 15008KT 2 1/2SM RA BR OVC008 04/04 A2971 RMK AO2
     CIG 007V012 P0005 T00440044 TSNO=
KTTD 102032Z 23008KT 10SM BKN025 BKN070 OVC090 12/07 A3013 RMK AO2
     T01170067=
PABA 102032Z AUTO 27021KT 2SM HZ M26/M28 A2986 RMK AO2 VIS 1 3/4V3
     FZRANO=
PAFS 102032Z AUTO 00000KT 10SM -SN FEW001 SCT015 OVC029 M15/M18
     A2956 RMK AO2 TSNO UPE20SNB20 P0000 $=
PATO 102032Z AUTO 28004KT 10SM OVC015 M02/M03 A2941 RMK AO2
     T10171028 TSNO=
KGMU 102033Z 06004KT 2 1/2SM -RA BR OVC004 08/07 A3017 RMK AO2
     P0002=
KGRD 102033Z AUTO 03005KT 1 1/2SM BR OVC003 08/07 A3018 RMK
     AO2=
KRDU 102033Z 36004KT 1 1/2SM -RA BR BKN004 OVC035 07/06 A3023 RMK
     AO2 SFC VIS 2 1/2 P0002=
KTCL 102033Z 12006KT 10SM BKN014 OVC030 12/09 A3002 RMK AO2=
PABA 102032Z AUTO 27021KT 2SM HZ M26/M28 A2986 RMK AO2 VIS 1 3/4V3
     FZRANO=

0000004200
609
SAHA31 KWBC 102030
NIL=

0000004200
610
SAJP31 KWBC 102030
NIL=

0000004200
611
SAJP41 KWBC 102030
NIL=

0000004200
612
SAJP42 KWBC 102030
NIL=

00000000