0000054900
013
SMIN90 VEPT 110600
AAXX 11064
42492 21494 81803 10156 20146 40182 76066 8572/
  333 58002 6992/ 85615 88458=
42591 21993 80906 10154 20147 40184 76066 8572/
  333 58001 6002/ 81710 85618 88458=
42498 21494 80000 10152 20145 40195 76166 8552/
  333 58035 6001/ 85615 88458=
42500 21595 80000 10144 20140 40204 76162 8452/
  333 58022 6002/ 84620 88458=
42701 31494 83206 10176 20132 39429 40168 74022 8452/
  333 58006 84615 88458=
42587 21994 80902 10164 20157 40175 75062 85520
  333 58006 6003/ 85615 88456=
0000055300
014
SMIN90 VEPT 110600 RRA
AAXX 11064
42492 21494 81803 10156 20146 40182 76066 8572/
  333 58002 6992/ 85615 88458=
42591 21993 80906 10154 20147 40184 76066 8572/
  333 58001 6002/ 81710 85618 88458=
42498 21494 80000 10152 20145 40195 76166 8552/
  333 58035 6001/ 85615 88458=
42500 21595 80000 10144 20140 40204 76162 8452/
  333 58022 6002/ 84620 88458=
42701 31494 83206 10176 20132 39429 40168 74022 8452/
  333 58006 84615 88458=
42587 21994 80902 10164 20157 40175 75062 85520
  333 58006 6003/ 85615 88456=
0000008400
015
SMIN90 VISM 110600
AAXX 11064
42066 32595 20502 10010 21017 82100=
0000069500
016
SMIN90 VIJP 110600
AAXX 11064
42328 32996 30503 10150 20019 40221 83030
  333 58036 83360=
42170 32996 20502 10162 20048 40209 80001
  333 58030 84070=
42123 31995 00000 10160 20062 40215 70500
  333 58018=
42339 31995 60503 10156 20034 40212 70500 82031
  333 58043 82358 85070=
42452 31994 00502 10150 20083 40202 70544
  333 58028=
42435 32996 40501 10152 20040 40236 80001
  333 58039 84070=
42542 31995 00506 10150 20059 39600 40196 70500
  333 58024=
42348 31996 33605 10170 20012 40193 70500 80001
  333 58029 83070=
42343 31995 10204 10150 20006 40191 70500 80001
  333 58017=
42165 31995 00000 10152 20028 40213 70500
  333 58039=
0000012200
017
SMIN90 VOMM 110600
AAXX 11064
43353 31995 39903 10308 20216 40138 70500 82011
  333 56099 58005 82458=
0000011000
018
SMIN90 VAGO 110600
AAXX 11064
43192 31596 23204 10284 20169 40150 70510 82400
  333 58013=
0000034000
019
SMCN28 CWAO 110600 RRA
AAXX 11064
71835 17/// /1704 11077 21088 39493 49973 58016 60011 7//4/
333 11075 21089 70015=
71837 15/// ///// 11003 60001
333 10027 21031 7////=
71839 15/// ///// 11001 60001
333 10044 21066 70000=
71846 17/// /2502 11071 21080 39679 49995 58021 69991 7//4/
333 11064 21088 70011=

0000022600
020
SMCN32 CWAO 110600 RRA
AAXX 11064
71297 17/// /2201 10002 21001 39962 40088 56050 60021 7//4/
333 10003 21076 70032=
71298 17/// /1611 10034 20031 39811 40041 58058 60081 7//4/
333 10042 21023 7////=

0000071100
021
SMCN34 CWAO 110600 RRA
AAXX 11064
71465 45/// /1208 10024 20020 39838 40054 58051 6///1
333 10027 21025 7////=
71476 15/// /0530 10043 20006 39823 49834 56082 60001
333 10057 20030 70026 555 30538 4005/=
71478 17/// /2131 10086 20084 39701 49833 58019 60091 7//4/
333 10086 20029 70144 555 31573 4003/=
71479 17/// /1524 10084 39751 49859 55022 60151 7//4/
333 10084 20037 70174 555 31178 4001/=
71480 17/// /3202 11255 21284 39949 40076 58004 69921 7//4/
333 11238 21312 70004=
71482 45/// /0327 10025 20014 39821 49852 56062 6///1
333 10063 20024 7//// 555 30544 4003/=
71484 17/// /0607 10026 39771 49789 56110 60071 7//4/
333 10064 20018 70076 555 31629 4002/=

0000038200
022
SMCN36 CWAO 110600 RRA
AAXX 11064
71667 17/// /3601 11032 21035 39738 49983 58029 69921 7//4/
333 11029 21060 70002=
71671 15/// /0000 10006 20000 30192 40253 55008 60001
333 10007 21157 70007=
71680 45/// /3106 11289 21317 39531 40018 53015 6///1
333 11227 21289 7////=
71693 15/// /1202 11138 21145 39319 40037 58006 60001
333 11078 21183 70000=

0000020600
023
SMCN38 CWAO 110600 RRA
AAXX 11064
71874 15/// /2609 11248 21286 39963 49970 53002 60001
333 11198 21271 70000 555 32317 4002/=
71885 15/// ///// 11012 60001
333 10044 21072 70000=

0000027600
024
SXHW11 KWAL 110617
15D142A4 011061702 :PRS 1 #1 1312 1309 1306 1297 1304 1314 1306 1297 1292 1304 :RAD 1 #1 6894 6891 6888 6887 6890 6889 6885 6881 6881 6884 :ENC 2 #5 4792 4787 4783 4783 :SW1 17 #60 0 :SW2 47 #60 50 :BAT 4 #5 13.0 :NAME 15D142A4  35+0NN 216W
0000037000
025
SMVD19 KWNB 110600 RRB
BBXX
46126 11061 99540 71666 46/// /0801 10036 49826 90548 22200 00045
1//00 70001 333 91202 555 11010 22011=
46126 11061 99540 71666 46/// /0801 10036 49826 90550 22200 00045
1//00 70001 333 91202 555 11010 22011=
46126 11061 99540 71666 46/// /1302 10036 49826 90554 22200 00045
1//00 70001 333 91202 555 11017 22019=
0000013200
026
SMSB20 VCCC 110600
AAXX 11064
43466 22470 40504 10300 20214 30110 40122 82101 333 58010 60007 79999
82818 83080=
0000015100
027
SSVX02 CWAO 110600
ZZYY 26535 11014 0600/ 187289 040485 6113/ 11131 
11135 40002 57018 444 20130 11014 0600/ 50101 80134 80001 9////=
0000016000
028
SSVX02 CWAO 110600
ZZYY 55582 11014 0600/ 334257 154527 6112/ 11132 
40171 57009 22219 00225 444 20130 11014 0600/ 50101 80148 80008 
9/015=
0000013900
029
SSVX02 CWAO 110600
ZZYY 64735 11014 0600/ 765575 000663 6113/ 22219 
00058 444 20130 11014 0600/ 50101 80140 80008 9/015=
0000013900
030
SSVX02 CWAO 110600
ZZYY 64726 11014 0600/ 172085 013016 6113/ 22219 
00067 444 20130 11014 0600/ 50101 80138 80002 9////=
0000013900
031
SSVX02 CWAO 110600
ZZYY 64739 11014 0600/ 766031 013007 6112/ 22219 
00041 444 20130 11014 0600/ 50101 80148 80029 9/015=
0000013900
032
SSVX02 CWAO 110600
ZZYY 64711 11014 0600/ 766763 002910 6113/ 22219 
00043 444 20130 11014 0600/ 50101 80130 80003 9/015=
00000000