0000026200
453
FTUS80 KWBC 102103
TAF
TAF AMD KLCK 102059Z 1021/1118 17009KT P6SM SCT010 BKN035
      TEMPO 1100/1103 BKN015
     FM110300 17010KT 5SM BR VCSH OVC015
     FM110700 17012KT 4SM -RA BR OVC008
     FM111400 23014G23KT P6SM VCSH OVC012=

0000024200
454
SALJ31 LJLJ 102100
METAR LJLJ 102100Z 24003KT 210V280 9999 SCT030 BKN050 06/05
Q1021 NOSIG=
METAR LJMB 102100Z 33006KT 0800 R32/0800N FG VV002 03/03 Q1021=
METAR LJPZ 102100Z 00000KT 2500 BR SCT010 OVC017 10/09 Q1022=

0000011200
455
SALJ32 LJLJ 102100
METAR LJCE 102100Z AUTO VRB01KT 0500 FG FEW040/// SCT065///
04/03 Q1021=

0000011000
456
SALI20 GLRB 102100 COR
METAR GLRB 102100Z 00000KT 9000 FEW014 26/25 Q1011 NOSIG
RMK BRVC=

0000022800
457
SAFR21 LFPW 102100
METAR LFOA 102100Z AUTO 08007KT 9999 NSC 06/04 Q1016=
METAR LFPC 102100Z AUTO 16003KT 110V180 6000 OVC005 05/03 Q1017=
METAR LFPV 102100Z AUTO 13003KT 100V170 3300 BR OVC002 05/04 Q1017=

0000047100
458
SAFR22 LFPW 102100
METAR LFBC 102100Z AUTO 00000KT 1800 BR NSC 06/05 Q1014=
METAR LFBG 102100Z AUTO 05004KT 7000 NSC 09/07 Q1014=
METAR LFBM 102100Z AUTO 08003KT 9000 NSC 06/06 Q1014=
METAR LFBY 102100Z AUTO 26003KT 8000 // ////// 07/07 Q1015=
METAR LFKS 102100Z AUTO 27002KT 9999 OVC023 13/09 Q1021=
METAR LFMO 102100Z AUTO VRB01KT 6000 OVC023 08/07 Q1020=
METAR LFMY 102100Z AUTO 00000KT 9000 OVC023 10/08 Q1020=
METAR LFMC 102100Z NIL=

0000038800
459
SAFR23 LFPW 102100
METAR LFOC 102100Z AUTO 06007KT 360V080 0100 R28/0800N FG VV///
06/05 Q1016=
METAR LFOE 102100Z AUTO 16006KT 4600 BR OVC003 05/05 Q1017=
METAR LFOJ 102100Z AUTO 07005KT 0900 R25///// FG OVC002 06/06 Q1016=
METAR LFRJ 102100Z AUTO 21004KT 6000 NSC 07/06 Q1015=
METAR LFRL 102100Z AUTO 19004KT 0150 R23/0600N R05/0700D // VV///
07/07 Q1015=

0000026200
460
SAFR24 LFPW 102100
METAR LFSI 102100Z AUTO 09003KT 9999 NSC 02/02 Q1018=
METAR LFSO 102100Z AUTO 13005KT 9999 NSC 03/02 Q1018=
METAR LFSX 102100Z AUTO 07004KT 4400 BR NSC 03/02 Q1018=
METAR LFYR 102100Z AUTO 00000KT 9999 NSC 03/02 Q1016=

0000036800
461
SARO31 LROM 102100
METAR LRBS 102100Z 26003KT CAVOK 05/04 Q1017 NOSIG=
METAR LRCK 102100Z 27010KT 2500 BR NSC 03/02 Q1017 NOSIG=
METAR LROP 102100Z 27004KT 230V320 CAVOK 03/03 Q1016 8829//95 NOSIG=
METAR LRSB 102100Z 28012KT 9999 SCT040 04/M02 Q1020 NOSIG=
METAR LRTR 102100Z 08005KT 0200 R11/0225V0300N FZFG BKN000 M01/M02
Q1022 11190095=

0000047100
462
SAFR31 LFPW 102100
METAR LFLL 102100Z 15005KT 2000 BR NSC 06/06 Q1018 NOSIG=
METAR LFMN 102100Z 33007KT 9999 OVC028 10/06 Q1020 NOSIG=
METAR LFPG 102100Z 14003KT 110V170 3000 BR BKN003 05/04 Q1018=
METAR LFPO 102100Z VRB03KT 9000 OVC004 06/05 Q1017 TEMPO BKN003=
METAR LFQQ 102100Z 20009KT 9999 OVC009 05/03 Q1017 NOSIG=
METAR LFRB 102100Z 18005KT 1200 BR FEW006 BKN120 07/06 Q1015 NOSIG=
METAR LFRS 102100Z 06004KT CAVOK 10/08 Q1015 NOSIG=

0000043400
463
SARO32 LROM 102100
METAR LRAR 102100Z AUTO 17004KT 3400 R09////// R27/P2000 NCD /////
Q1022=
METAR LRBM 102100Z AUTO 08002KT 5000 BR FEW009 SCT014 BKN029 03/03
Q1019=
METAR LRCL 102100Z VRB04KT 7000 BKN050 M00/M00 Q1019=
METAR LROD 102100Z AUTO 20010KT 9999 NCD 02/01 Q1020=
METAR LRSM 102100Z AUTO 25004KT 9999 NCD 02/01 Q1019=
METAR LRTM 102100Z 25006KT 2700 BR FEW010 BKN044 00/00 Q1020
0729//95=

0000033200
464
SARO33 LROM 102100
METAR LRBC 102100Z 12004KT 070V210 CAVOK 03/03 Q1016 1619//95=
METAR LRCV 102100Z AUTO 30010KT 9999 NCD 05/01 Q1019=
METAR LRIA 102100Z 25004KT 210V310 9999 SCT045 04/02 Q1015 1529//95=
METAR LRSV 102100Z 28016KT CAVOK 05/M03 Q1014=
METAR LRTC 102100Z AUTO 32012KT 9999 NCD 05/03 Q1016=

0000009400
465
SAVG31 TVSV 102100
METAR TVSV 102100Z 08015KT 9999 VCSH BKN018 28/21 Q1014=

0000075300
466
SAFR32 LFPW 102100
METAR LFBD 102100Z AUTO 21002KT 8000 0450 R23///// R05/1100D
R29///// BCFG NSC 09/07 Q1014=
METAR LFBH 102100Z AUTO 12006KT 9999 NSC 10/08 Q1014=
METAR LFBI 102100Z AUTO VRB02KT 9999 NSC 08/06 Q1015=
METAR LFBL 102100Z AUTO 09005KT 9999 NSC 09/06 Q1014=
METAR LFBO 102100Z AUTO 14012KT 9999 FEW014 SCT210 10/07 Q1015=
METAR LFBP 102100Z AUTO VRB01KT 8000 NSC 06/05 Q1014=
METAR LFBT 102100Z AUTO 16006KT 9999 NSC 07/04 Q1014=
METAR LFBZ 102100Z AUTO 26010KT 220V290 9999 BKN005 12/11 Q1015=
METAR LFLB 102100Z AUTO 20002KT 5000 BR NSC 03/02 Q1019=
METAR LFLX 102100Z AUTO 08007KT 9999 NSC 07/06 Q1015=
METAR LFML 102100Z 13004KT 090V160 9999 BKN025 13/08 Q1019 NOSIG=
METAR LFCK 102100Z NIL=

0000011300
467
SACN61 CYTL 102100
METAR CYTL 102100Z AUTO 18005KT 9SM -SN OVC016 M07/M09 A2953 RMK
 SLP020=

0000049500
468
SAFR33 LFPW 102100
METAR LFKB 102100Z 00000KT 9999 FEW020 OVC028 12/09 Q1021 NOSIG=
METAR LFKF 102100Z AUTO 08006KT 9999 FEW023/// 11/09 Q1021=
METAR LFKJ 102100Z 04007KT 9999 SCT010 08/07 Q1020 NOSIG=
METAR LFLC 102100Z 00000KT CAVOK 05/03 Q1016 NOSIG=
METAR LFMP 102100Z AUTO 15003KT 110V170 6000 FEW028 BKN210 08/06
Q1018=
METAR LFMV 102100Z AUTO 00000KT 8000 OVC024 10/07 Q1020=
METAR LFSL 102100Z AUTO 00000KT 9999 NSC 05/04 Q1014=
METAR LFKC 102100Z NIL=

0000098300
469
SAFR34 LFPW 102100
METAR LFCR 102100Z AUTO 11005KT 9999 NSC 09/03 Q1015=
METAR LFJL 102100Z AUTO 12006KT 9999 NSC 02/01 Q1018=
METAR LFLP 102100Z AUTO 05002KT 8000 NSC 04/03 Q1019=
METAR LFLS 102100Z AUTO 10006KT 3200 BR NSC 03/02 Q1018=
METAR LFLY 102100Z AUTO 00000KT 0450 R34/1500D FG NSC 04/03 Q1018=
METAR LFMT 102100Z 07005KT 9999 OVC030 12/08 Q1019 NOSIG=
METAR LFMU 102100Z AUTO 06005KT 9999 BKN022 OVC029 12/09 Q1019=
METAR LFOB 102100Z AUTO 16004KT 130V190 9999 OVC009 05/04 Q1017=
METAR LFOH 102100Z AUTO 14007KT 7000 BKN004 05/03 Q1016=
METAR LFOK 102100Z AUTO 07004KT 0400 0350 R10/1200U R28///// FG
VV/// 02/02 Q1018=
METAR LFOP 102100Z AUTO 17005KT 9999 OVC005 05/04 Q1017=
METAR LFPB 102100Z AUTO 14003KT 090V200 7000 OVC006 05/04 Q1018=
METAR LFQA 102100Z AUTO 08002KT 0300 FG BKN002 OVC008 04/03 Q1018=
METAR LFQB 102100Z AUTO 00000KT 0150 FG NSC 01/01 Q1018=
METAR LFSN 102100Z AUTO VRB02KT 1500 BR NSC 01/00 Q1018=

0000086600
470
SAFR35 LFPW 102100
METAR LFMI 102100Z AUTO 14004KT 9999 OVC025 12/08 Q1019=
METAR LFMK 102100Z AUTO 10014KT 9999 SCT015 BKN021 OVC027 11/08
Q1017=
METAR LFOV 102100Z AUTO 08004KT 0450 FG VV/// ///CB 06/06 Q1015=
METAR LFRD 102100Z AUTO 00000KT 0400 R35/1900D FG VV/// 07/06 Q1015=
METAR LFRI 102100Z AUTO VRB03KT 9999 NSC 09/07 Q1015=
METAR LFRM 102100Z AUTO VRB03KT 6000 -RA OVC005 07/06 Q1016=
METAR LFRN 102100Z AUTO 11006KT 3700 BR OVC003 08/07 Q1015=
METAR LFRO 102100Z AUTO 16005KT 7000 NSC 06/06 Q1015=
METAR LFRV 102100Z AUTO 03004KT 2800 BR BKN002 BKN013 BKN018 07/07
Q1015=
METAR LFRZ 102100Z AUTO VRB02KT 2800 BR BKN044 OVC066 08/08 Q1015=
METAR LFSB 102100Z VRB02KT 9999 FEW033 02/01 Q1019 NOSIG=
METAR LFST 102100Z AUTO 00000KT 9999 NSC 02/02 Q1019=
METAR LFTH 102100Z AUTO VRB01KT 9999 OVC025 12/09 Q1020=

0000070300
471
SAFR36 LFPW 102100
METAR LFBA 102100Z AUTO 08003KT 9999 NSC 07/06 Q1015=
METAR LFBE 102100Z AUTO 07004KT 4700 BR NSC 05/04 Q1015=
METAR LFGJ 102100Z AUTO 09002KT 9999 NSC 04/03 Q1018=
METAR LFJR 102100Z AUTO 06006KT 3700 -RA BR NSC 07/07 Q1015=
METAR LFMD 102100Z AUTO VRB02KT 9000 OVC024 10/09 Q1020=
METAR LFMH 102100Z AUTO 11003KT 5000 BR NSC 07/05 Q1017=
METAR LFOT 102100Z 07005KT 3000 BR BKN002 BKN150 06/06 Q1015 NOSIG=
METAR LFPN 102100Z AUTO 12005KT 3100 BR OVC002 05/05 Q1017=
METAR LFRC 102100Z AUTO 18009KT 8000 OVC005 06/06 Q1015=
METAR LFRG 102100Z AUTO 20010KT 6000 OVC003 05/05 Q1016=
METAR LFRK 102100Z AUTO 14008KT 7000 BKN009 OVC062 05/05 Q1016=

0000011400
472
SADL34 EDZO 102050 RRA
METAR EDNY 102050Z AUTO 05002KT 1200 0500/ R24/1300U BCFG 02/01
Q1019=

00000000