0000019200
293
FTUS52 KWBC 102024 AAA
TAF AMD
KTCL 102020Z 1020/1118 12007KT P6SM SCT007 BKN015 OVC030
      TEMPO 1020/1023 SCT015 BKN030
     FM110300 18013G20KT 2SM -RA BR OVC004=

0000045400
294
FTUS53 KWBC 102024 AAA
TAF AMD
KCNU 102020Z 1020/1118 23013KT 6SM BR SCT005 OVC010
      TEMPO 1020/1021 BKN005
     FM102100 24013KT P6SM OVC015
     FM110000 27009KT P6SM SCT020 OVC100
     FM111000 28011KT P6SM SKC=
KRSL 102022Z 1020/1118 30015KT P6SM SCT025 BKN050
      TEMPO 1022/1102 6SM -SN BKN025
     FM110200 29008KT P6SM SCT025 BKN100
     FM110400 27008KT P6SM SCT030
     FM111500 27015G22KT P6SM SKC=

0000022100
295
FTUS54 KWBC 102024 AAA
TAF AMD
KSTS 102021Z 1020/1118 23007KT P6SM FEW030 SCT250
     FM110300 VRB03KT P6SM FEW030 BKN200
     FM110700 VRB03KT P6SM BKN010
     FM111700 19005KT P6SM -RA OVC030=

0000094500
296
FTUS80 KWBC 102024 AAA
TAF AMD
KBFD 102023Z 1020/1118 19007KT 3/4SM BR VCSH OVC002
     FM110400 16009KT 4SM -RA BR BKN006 OVC009 WS019/21048KT
     FM111100 17014G27KT 2SM RA BR OVC009 WS012/19049KT=
KCNU 102020Z 1020/1118 23013KT 6SM BR SCT005 OVC010
      TEMPO 1020/1021 BKN005
     FM102100 24013KT P6SM OVC015
     FM110000 27009KT P6SM SCT020 OVC100
     FM111000 28011KT P6SM SKC=
KRSL 102022Z 1020/1118 30015KT P6SM SCT025 BKN050
      TEMPO 1022/1102 6SM -SN BKN025
     FM110200 29008KT P6SM SCT025 BKN100
     FM110400 27008KT P6SM SCT030
     FM111500 27015G22KT P6SM SKC=
KSTS 102021Z 1020/1118 23007KT P6SM FEW030 SCT250
     FM110300 VRB03KT P6SM FEW030 BKN200
     FM110700 VRB03KT P6SM BKN010
     FM111700 19005KT P6SM -RA OVC030=
KTCL 102020Z 1020/1118 12007KT P6SM SCT007 BKN015 OVC030
      TEMPO 1020/1023 SCT015 BKN030
     FM110300 18013G20KT 2SM -RA BR OVC004=

0000138000
297
SPUS70 KWBC 102024
SPECI
KFIG 102020Z AUTO 01005KT 2SM BR OVC009 00/00 A3020 RMK AO2
     T00000000=
KLXT 102020Z AUTO 20005KT 3/4SM BR VV003 04/04 A2954 RMK AO2
     T00440039=
KTHV 102020Z AUTO 05003KT 1 3/4SM BR SCT008 OVC015 02/00 A3032 RMK
     AO2 T00220000=
KBOK 102021Z AUTO 16007KT 130V190 1/4SM FG OVC002 09/09 A3027 RMK
     AO2 $=
KBRL 102021Z AUTO 16009KT 4SM -RA BR OVC004 02/02 A2963 RMK AO2
     P0007 T00170017=
KEQY 102021Z AUTO 01004KT 1 1/4SM +RA BR OVC003 07/06 A3019 RMK
     AO2 P0009=
KFCI 102022Z AUTO 00000KT 2 1/2SM OVC003 04/M02 A3031 RMK AO1
     P0001=
KFDY 102021Z AUTO 15011KT 4SM BR BKN005 OVC031 03/02 A3000 RMK
     AO2=
KINT 102021Z 05006KT 9SM BKN003 OVC012 04/03 A3022 RMK AO2 RAE15
     P0001=
KORD 102021Z 14011KT 2SM -RA BR OVC005 02/M01 A2976 RMK AO2
     RAB1952 P0005 T00171006 $=
KPOU 102021Z 00000KT 6SM HZ BKN017 OVC085 00/M03 A3035 RMK AO2=
KRKS 102021Z AUTO 29024G32KT 10SM SCT026 OVC035 M01/M06 A2982 RMK
     AO2 PK WND 29035/2000 T10061061=
KTCL 102021Z 10003KT 10SM SCT012 OVC030 12/09 A3003 RMK AO2=
KTVC 102021Z 15006KT 6SM HZ OVC011 01/M02 A2987 RMK AO2
     T00061022=
PAGK 102021Z AUTO 00000KT 3SM BR OVC080 M09/M11 A2934 RMK AO2
     SNE10 P0000 T10891106 TSNO=
PATO 102021Z AUTO 28004KT 10SM OVC014 M02/M03 A2941 RMK AO2
     T10171028 TSNO=

0000012500
298
SPUR30 UKMS 102023
SPECI UKDD 102023Z 27007MPS 1200 R26/P2000D -RA BR
OVC004 05/05 Q1004 26220356 NOSIG=

0000009500
299
SASN32 ESWI 102020 RRA
METAR ESOK 102020Z 12004KT 9999 OVC014 M02/M02 Q1000=

0000004600
300
FCDL33 EDZO 102000
TAF NIL=

0000020200
301
FCBX31 EBBR 102000
TAF EBAW 102020Z 1021/1106 22009KT 9999 BKN009
    PROB30 TEMPO 1021/1106 BKN012 =
TAF EBCI 102020Z 1021/1106 21010KT 9999 BKN010
    TEMPO 1021/1106 BKN006 =

0000007300
302
FCDL35 EDZO 102000
TAF AMD EDTL 102011Z 1021/1024 CNL=

0000009700
303
SAUK36 EGGY 102020 CCA
METAR COR EGSH 102020Z 21010KT CAVOK 08/06 Q1012 NOSIG=

0000038300
304
SABX31 EBBR 102020
METAR EBAW 102020Z 21008KT 9000 OVC009 06/03 Q1017 NOSIG=
METAR EBBR 102020Z 22010KT 9999 BKN011 05/03 Q1017 NOSIG=
METAR EBCI 102020Z 21010KT 9999 BKN010 05/03 Q1017 NOSIG=
METAR EBLG 102020Z 20011KT CAVOK 04/02 Q1017 NOSIG=
METAR EBOS 102020Z 19010KT 9999 SCT012 05/03 Q1016 NOSIG=
METAR ELLX 102020Z 24004KT CAVOK 03/01 Q1018 NOSIG=

0000014000
305
FTCN37 CWAO 102000 AAA
TAF AMD CYCX 102024Z 1018/1106 FCST CNCLD DUE END OF FLYING PROGRAM
    RMK NXT FCST BY 131115Z=

0000049300
306
SAOS31 LOWM 102020
METAR LOWW 102020Z 25007KT CAVOK 04/M00 Q1021 NOSIG=
METAR LOWL 102020Z 24005KT 9999 FEW050 03/00 Q1021 NOSIG=
METAR LOWS 102020Z 15003KT 9999 SCT035 BKN070 03/02 Q1020 NOSIG=
METAR LOWI 102020Z 33003KT 280V020 7000 SCT003 BKN008 03/03 Q1020
R08/29//75 NOSIG=
METAR LOWG 102020Z 33003KT 6000 FEW005 BKN006 03/03 Q1021 R17/29//95
BECMG BKN004=
METAR LOWK 102020Z VRB02KT 0500 R10/0900N R28/0800N FG VV002 02/02
Q1021 R10L/19//95 TEMPO 0600=

0000050200
307
SAFI32 EFHK 102020
METAR EFHA 102020Z AUTO 35011KT 9999 OVC008 M05/M06
 Q0994=
EFHF 102020Z AUTO 34013KT 9999 OVC011 M01/M03 Q0991=
METAR EFKA 102020Z AUTO 02009KT 9999 OVC011 M07/M08
 Q0999=
EFKK 102020Z AUTO 02009KT 9999 -SHSN FEW019 BKN025 M09/M10 Q1000=
EFMA 102020Z AUTO 33010KT 300V360 9999 -SN OVC010 M00/M00 Q0997=
METAR EFPO 102020Z AUTO 01006KT 340V050 9999 OVC008/// M04/M05 Q0996 
R12/29//95=
EFSI 102020Z AUTO 36007KT 330V040 9999 OVC006 M06/M07 Q0997=

0000006100
308
SAOS32 LOWM 102020
METAR LOXZ 102020Z NIL=

0000029300
309
SANO35 ENMI 102020
METAR ENMS 102020Z NIL=
METAR ENRM 102020Z NIL=
METAR ENRS 102020Z NIL=
METAR ENSK 102020Z NIL=
METAR ENSO 102020Z NIL=
METAR ENST 102020Z 07006KT 010V150 CAVOK M08/M16 Q1007 RMK WIND 300FT
           01007KT 310V070=
METAR ENVD 102020Z NIL=

0000021700
310
SANO36 ENMI 102020
METAR ENBS 102020Z NIL=
METAR ENHK 102020Z NIL=
METAR ENHV 102020Z NIL=
METAR ENLK 102020Z NIL=
METAR ENMH 102020Z NIL=
METAR ENNK 102020Z NIL=
METAR ENNM 102020Z NIL=

0000079700
311
FTSP32 LEMM 102000
TAF LEAS 102000Z 1021/1121 26005KT 7000 SCT015 BKN025 TX13/1114Z
TN08/1106Z TEMPO 1021/1103 3000 -RA BR BKN010 TEMPO 1021/1103
1500 DZ BCFG BKN006 BECMG 1109/1111 09010KT PROB40 TEMPO
1115/1118 09015G25KT=
TAF LECO 102000Z 1021/1121 VRB03KT 9999 FEW020 TX13/1115Z
TN06/1106Z PROB40 TEMPO 1021/1109 BKN012 PROB40 TEMPO 1100/1109
0700 BCFG=
TAF LEGR 102000Z 1021/1121 VRB03KT 9999 SCT020 SCT080 TX16/1115Z
TN04/1106Z TEMPO 1105/1118 BKN040=
TAF LEPP 102000Z 1021/1121 VRB03KT 8000 SCT015 TX10/1115Z
TN00/1106Z PROB40 TEMPO 1021/1112 3000 BR BKN012 PROB40
TEMPO 1100/1109 0700 BCFG BKN005=
TAF LEXJ 102000Z 1021/1121 25005KT 9999 SCT015 BKN025 TX14/1113Z
TN08/1107Z PROB40 TEMPO 1021/1109 3000 -RADZ BR BKN012 BECMG
1109/1111 06010KT=

0000067500
312
FTSP36 LEMM 102000
TAF LEAM 102000Z 1021/1121 02012KT 9999 FEW020 SCT080 TX16/1115Z
TN11/1106Z BECMG 1110/1112 22012KT TEMPO 1110/1121 SCT020
BKN080 PROB30 TEMPO 1106/1116 RA=
TAF LEIB 102000Z 1021/1121 05006KT 9999 FEW012 TX17/1113Z
TN08/1106Z TEMPO 1021/1109 BKN010 PROB30 TEMPO 1104/1109
4000 BR BKN008=
TAF LEMH 102000Z 1021/1121 08005KT 9999 FEW016 TX16/1113Z
TN09/1106Z PROB30 TEMPO 1021/1108 4000 BR BKN006=
TAF LERS 102000Z 1021/1121 12005KT 8000 SCT016 TX16/1114Z
TN07/1107Z BECMG 1021/1024 35006KT PROB30 TEMPO 1021/1109
3000 BR BKN006 TEMPO 1111/1117 12007KT=
TAF LEZL 102000Z 1021/1121 VRB02KT CAVOK TX17/1115Z TN09/1108Z=

00000000