0000019900
153
UDAF01 FAPR 110544
AMDAR 1105
DES AFZA61 2619S 02812E 110540 F081 PS150 277/000 TB0 S031 333 F/// VG012=
DES AFZA61 2614S 02815E 110543 F064 PS175 352/014 TB0 S031 333 F/// VG017=
0000066100
154
UDAF01 FAPR 110549
AMDAR 1105
ASC AFZA46 1521S 02830E 110530 F055 PS174 238/006 TB1 S031 333 F/// VG027=
ASC AFZA46 1522S 02830E 110531 F058 PS165 005/005 TB0 S031 333 F/// VG018=
ASC AFZA46 1523S 02830E 110531 F062 PS157 021/009 TB0 S031 333 F/// VG016=
ASC AFZA46 1524S 02830E 110532 F065 PS155 040/008 TB0 S031 333 F/// VG015=
ASC AFZA46 1525S 02830E 110532 F068 PS150 039/009 TB0 S031 333 F/// VG014=
ASC AFZA46 1527S 02830E 110532 F076 PS130 051/009 TB0 S031 333 F/// VG013=
ASC AFZA46 1529S 02830E 110533 F095 PS095 058/011 TB0 S031 333 F/// VG013=
ASC AFZA46 1534S 02829E 110534 F114 PS058 073/012 TB0 S031 333 F/// VG011=
0000062400
155
SNAU53 AMMC 111000
AAXX 11104
94541 15/// /0505 10231 20132 39410 40151 51024 60002=
94572 15/// /0608 10232 20174 30157 40168 51015 60002=
94573 15/// /1007 10222 20165 30143 40167 53017 60002=
94588 17/// /0806 10172 20145 39012 40157 51016 60082 7//44=
94589 15/// /0505 10233 20197 30140 40172 53013 60002=
94596 15/// /0403 10213 20169 30170 40173 52012 60002=
94598 15/// /0205 10213 20173 30098 40171 53013 60002=
94599 15/// /0611 10225 20206 30059 40172 53011 60002=
94686 15/// /1309 10356 20068 39922 40127 53010 60002=
94702 15/// /2107 10341 20087 30023 40129 53008 60002=

0000054600
156
SNAU54 AMMC 111000
AAXX 11104
94711 15/// /1406 10316 20073 39839 40136 53011 60002=
94712 15/// /2206 10284 20081 39705 40136 53008 60002=
94715 15/// /3006 10257 20184 39875 40138 53005 60002=
94727 15/// /0000 10251 20123 39610 40140 53012 60002=
94743 159// 40705 10198 20137 60002=
94746 159// 50602 10215 20137 39402 40167 53020 60002=
94749 15/// /0508 10217 20193 60002=
94752 15/// /1203 10253 20150 30062 40157 52023 60001=
94754 15/// /0804 10219 20073 60001=
94757 15/// /1202 10237 20162 60002=

0000085500
157
SNAU55 AMMC 111000
AAXX 11104
94755 159// 10904 10246 20155 30071 40158 52024 60002=
94759 15/// /0405 10211 20179 60001=
94760 15/// /1203 10239 20143 60001=
94762 15/// /1703 10236 20168 60002=
94763 15/// /1403 10260 20160 60001=
94765 15/// /0704 10248 20160 30149 40158 53021 60002=
94766 15/// /0505 10231 20176 60002=
94768 15/// ///// 10235 20188 30111 40158 52016 60002=
94774 15/// /0708 10216 20182 60001=
94775 15/// /1106 10267 20161 60002=
94780 45/// /0210=
94785 15/// /0604 10213 20167 30155 40171 52018 60002=
94786 15/// /0207 10226 20177 30165 40171 51016 60002=
94838 15/// /1815 10286 20083 30076 40166 53021 60001=
94839 15/// /1612 10261 20081 30013 40167 53023 60002=
94886 15/// /2408 10165 20136 30200 40204 51013 60001=
94908 15/// /1811 10174 20123 39395 40178 53029 60002=

0000071400
158
SNVE21 AMMC 111000
BBXX
ZMGB 11094 99415 31756 41/98 10515 10158 20144 40150 57011 70200
81/// 22253 00170 20202 319// 40903 80150=
VNSZ 11104 99407 31461 46/// /3223 10161 20121 30110 40136 52010
22276 04164 85137=
C6FS9 11104 99239 31514 46/// /1321 10256 20197 30116 40152 52009
22232 04274 85215=
VNSZ 11094 99411 31464 46/// /3221 10194 20083 30096 40122 57003
22276 04166 85132=
C6FS9 11094 99238 31512 46/// /1219 10257 20201 30114 40150 52008
22232 04275 85218=
VNAH 11094 99383 31416 46/// /1909 10175 20124 30195 40219 52005
22200 04177 85144=
JPAT 11094 99325 31145 41898 11719 10244 20196 40106 57103 70200
81035 22253 00230 10707 20402 31916 40505 50403=

0000144300
159
SNAU56 AMMC 111000
AAXX 11104
94915 15/// /2704 10162 20087 60001=
94919 15/// /1803 10245 20134 39752 40141 53007 60002=
94921 158// 10307 10185 20108 39124 40161 53013 60002=
94925 15/// /1005 10251 20106 39492 40154 53023 60002=
94927 15/// /1303 10196 20119 39417 40168 51021 60001=
94929 17/// /1304 10164 20129 39317 40174 53021 60071 7//44=
94938 15/// /2010 10216 20206 30125 40168 51028 60001=
94939 15/// /1912 10210 20176 30109 40172 52019 60001=
95570 15/// /0801 10217 20166 30145 40174 53019 60002=
95695 15/// /1206 10333 20073 30018 40126 53008 60002=
95697 15/// /1605 10339 20078 30011 40126 53008 60002=
95699 15/// /0907 10338 20104 39945 40124 53007 60002=
95705 15/// /3603 10310 20119 60001=
95706 15/// /3502 10300 20105 39968 40134 53004 60002=
95708 15/// /0201 10274 20173 39920 40140 53006 60002=
95709 15/// /2505 10281 20099 39848 40140 53006 60002=
95710 15/// /2004 10275 20148 39897 40142 53010 60002=
95715 15/// /1706 10289 20096 39986 40138 53016 60002=
95716 15/// /0606 10235 20131 39437 40159 52020 60002=
95717 15/// /2003 10259 20141 39776 40143 53008 60002=
95718 15/// /0000 10277 20143 39929 40136 53011 60002=
95721 15/// /3605 10252 20121 39802 40141 53008 60002=
95722 15/// /2503 10279 20087 39821 40141 53007 60002=
95726 15/// /2305 10228 20115 39107 40156 53012 60002=
95827 15/// /1710 10194 20109 39980 40201 53020 60002=

0000160800
160
SNAU57 AMMC 111000
AAXX 11104
94826 15/// /1908 10160 2//// 30167 40223 53009 60002=
94827 15/// /1715 10252 20087 30020 40182 53021 60002=
94828 154// 81906 10156 20129 30126 40223 53009 60002=
94829 154// 71712 10154 20118 39933 40217 53019 60002=
95734 15/// /0000 10271 20116 39874 40134 53011 60002=
95740 15/// /1903 10269 20093 39833 40130 53013 60002=
95747 15/// /1006 10242 20078 39336 40144 53015 60002=
95748 159// 20804 10233 20199 30152 40162 53018 60002=
95749 15/// /3605 10226 20201 60001=
95753 15/// /1206 10254 20136 30129 40152 51024 60002=
95754 15/// /0605 10253 20125 39716 40142 53013 60002=
95756 45/// /0412=
95758 15/// /1506 10269 20093 39882 40135 53017 60002=
95765 15/// /0505 10243 20173 60002=
95767 15/// /0000 10225 20172 30150 40158 53014 60001=
95770 15/// /0312 10218 20190 30133 40156 51012 60001=
95771 15/// /1505 10255 20120 30076 40147 51021 60002=
95773 15/// /0907 10180 20141 38973 40153 53015 69922=
95774 15/// /0903 10224 20155 60001=
95784 15/// /0606 10212 20166 30150 40160 52014 60002=
95822 15/// /1909 10169 20136 30161 40222 53015 60001=
95825 15/// /1911 10162 30059 40212 53020 60002=
95832 15/// /1810 10202 20117 60001=
95869 15/// /2112 10315 20035 30026 40135 53016 60002=
95896 15/// /0503 10297 20122 39939 40128 53002 60002=
95909 15/// /2313 10154 20079 38672 40190 53009 60002=
95916 15/// /2305 10188 20082 60002=
95925 15/// /2306 10163 20078 60002=
95929 15/// /3004 10203 20144 30173 40175 53012 60002=
95931 15/// /1801 10195 20134 30129 40178 53015 60002=

0000134100
161
SNAU58 AMMC 111000
AAXX 11104
94830 15/// /1907 10165 20140 30208 40220 53010 60001=
94833 15/// /2020 10117 20072 60001=
94835 15/// /1921 10137 20083 60002=
94836 15/// /1708 10194 20093 39919 40192 53022 60002=
94837 15/// /2006 10159 20128 30134 40219 53010 60002=
94840 15/// /1708 10156 20131 30063 40218 51018 60001=
94843 15/// /1909 10311 20025 30065 40148 53018 60002=
94846 15/// /2015 10157 20125 60001=
94847 46/// /2018 6///0=
94852 15/// /1912 10169 20105 39694 40197 53020 60002=
94854 154// 71914 10171 20128 30199 40212 51017 60002=
94855 15/// /1614 10216 20127 39928 40169 53030 60002=
94857 15/// /1912 10165 20127 30196 40212 52016 60001=
94859 15/// /1909 10175 20118 60001=
94860 15/// /1814 10134 20118 39583 40189 52016 60002=
94862 15/// /2012 10312 20121 39983 40131 53012 60001=
94863 15/// /1407 10152 20116 39931 40208 51020 60001=
94864 15/// /1507 10170 20129 30104 40203 52026 60002=
94866 11480 71911 10160 20118 30071 40210 53022 60001 70311 876//=
94868 15/// ///// 10179 20129 30170 40208 53019 60002=
94870 15/// /2014 10167 20125 30194 40209 53019 60002=
94871 45/// /2005 10168 20119=
94872 15/// /1303 10130 20111 39608 40199 53014 60001=
94874 15/// /2013 10208 20109 30002 40166 53024 60002=
94878 15/// /2602 10239 20087 60001=

0000141600
162
SNAU59 AMMC 111000
AAXX 11104
94881 15/// /2515 10185 20090 60001=
94889 15/// /2211 10302 20097 39955 40131 53010 60002=
94891 15/// /2316 10170 20115 30127 40194 53019 60002=
94892 15/// /2307 10165 20132 30192 40209 52014 60001=
94894 15/// /2310 10150 20106 60002=
94898 15/// /2108 10164 20126 30193 40209 51016 60001=
94903 15/// /0000 10164 20093 38276 40171 53004 60002=
94905 15/// /2008 10156 20125 38755 40187 53012 60002=
94906 15/// /1805 10139 20103 60002=
94911 15/// /2511 10164 20129 30181 40197 51014 60001=
94912 15/// /0406 10173 20132 30131 40190 53019 60002=
94913 15/// /2206 10150 20120 39325 40178 53023 60002=
94914 15/// /0000 10157 20100 39455 40179 53018 60001=
94930 15/// /2601 10152 20108 60001=
94933 15/// /2321 10184 20148 30160 40177 53018 60002=
94949 15/// /2636 30031 40169 51008 60002=
95704 15/// /0506 10297 20098 39978 40133 53004 60002=
95728 15/// /1507 10254 20097 39424 40142 53011 60002=
95831 15/// /2010 10312 20015 60001=
95833 15/// /1912 10240 20103 60002=
95835 15/// /2012 10227 20105 60001=
95836 15/// /1716 10243 20070 60002=
95837 15/// /0000 10285 20124 60002=
95840 15/// /1811 10155 20121 39946 40211 53020 60001=
95845 15/// /1413 10143 20143 39900 40205 53020 60001=
95864 45/// /1920=
95866 154// 41912 10166 20128 30116 40209 53021 60002=
95867 15/// /1507 10171 20118 60001=

0000046600
163
SNAU60 AMMC 111000
AAXX 11104
95872 46/// /1719=
95874 15/// /2108 10166 20126 30128 40206 52022 60002=
95880 NIL=
95890 15/// /2613 10170 20127 30168 40190 51017 60002=
95901 15/// /2310 10111 21007 60002=
95913 15/// /1603 10170 20117 60001=
95918 15/// /0000 10160 20135 30118 40192 51018 60001=
95937 15/// /2005 10224 20105 30168 40173 53019 60002=
95940 15/// /0000 10221 20206 30067 40165 53025 60002=
95995 45/// /0000=

0000095400
164
SNAU61 AMMC 111000
AAXX 11104
94953 15/// /2314 10148 20116 30168 40179 53005 60002=
94954 15/// /2422 10142 20124 30076 40186 53004 60002=
94955 15/// /2805 10163 20080 3//// 4//// 5//// 60001=
94957 15/// /2706 10177 20063 30032 40140 53003 60002=
94959 15/// /2608 10120 20065 60001=
94960 15/// /2508 10152 20049 39594 40128 51003 60002=
94962 15/// /3246 10135 20107 39938 40113 53002 60002=
94964 15/// ///// 10180 20050 60002=
94969 15/// /3406 10218 20080 60001=
94970 15/// /3212 10199 20044 30058 40118 53009 60002=
94972 15/// /0000 10159 20138 39893 40125 53001 60002=
94977 15/// /2825 10099 20061 60002=
94980 154// 12818 10166 20139 30144 40155 53006 60002=
94987 15/// /0403 10151 20128 30053 40119 58004 60001=
95952 45/// /2514 10063 20062 38901 40164 53002 6///1=
95956 15/// /2113 60002=
95957 15/// /2712 10164 20096 30143 40157 51009 60002=
95958 15/// /3030 10123 20080 60002=

0000085200
165
SNAU62 AMMC 111000
AAXX 11104
95954 153// 82417 10144 20124 30080 40190 52004 60002=
95959 15/// /2515 10131 20050 38953 40139 52002 60002=
95960 15/// /2916 10186 20104 30129 40140 51015 60002=
95962 15/// /2611 10124 20062 60002=
95964 15/// /2824 10182 20126 30126 40130 51010 60002=
95966 15/// /2809 10218 20065 39925 40123 53012 60002=
95967 15/// /2923 10169 20081 30042 40114 53006 60002=
95969 15/// /1806 10197 20074 60002=
95972 15/// /2506 10193 20068 60002=
95974 15/// /0202 10160 20126 60002=
95977 15/// /1806 10172 20057 60002=
95979 15/// /2431 10093 20041 60001=
95981 15/// /1404 10164 20137 30062 40119 55000 60002=
95985 15/// /3012 10172 20155 30111 40129 56006 60001=
95986 15/// /2905 10135 20132 39836 40119 53002 60001=
95988 15/// /3614 10159 20143 30081 40114 56005 60001=

0000176900
166
SAIR31 OIII 111000
METAR OIAA 111000Z 27008KT 4000 BR SCT040 BKN100 14/10 Q1017=
METAR OIAG 110952Z 14010KT 4000 SHRA SCT030TCU BKN035 12/11 Q1018=
 METAR OIAH 111000Z 00000KT 4000 RA FEW030CB SCT040 OVC070 08/07
 Q1017=
 METAR OIAI 111000Z 24006KT 9999 SCT030CB SCT035 OVC070 11/09
 Q1019=
METAR OIAM 111000Z 12010KT 9999 BKN030CB SCT035 12/11 Q1017=
METAR OIAW 111000Z 12010KT 9999 FEW025CB SCT025 BKN080 14/10 Q1016=
 METAR OIBA 111000Z 12010KT 5000 FEW025CB FEW030 OVC090 21/12
 Q1018=
 METAR OIBB 111000Z 12008KT 8000 TSRA FEW030CB SCT035 OVC080 12/10
 Q1017 A3004=
 METAR OIBK 111000Z 07008KT 6000 -RA FEW030CB SCT025 OVC080 15/13
 Q1019=
 METAR OIBL 111000Z 35012KT 3000 RA FEW020CB SCT025 OVC080 14/12
 Q1019=
METAR OIBS 111000Z 06020KT 9999 SCT035 OVC100 20/15 Q1019=
 METAR OICC 111000Z 13006KT 0800 SN FEW035CB SCT040 OVC060 M01/M01
 Q1019 A3010 TEMPO SN=
 METAR OICI 111000Z 00000KT 8000 -RA FEW015 FEW025CB SCT035 OVC090
 03/03 Q1016 A3002=
METAR OICJ NIL=
 METAR OICK 110950Z 00000KT 9999 FEW010 FEW030CB BKN035 OVC080
 03/03 Q1019 RERA=
 METAR OICS 111000Z 03006KT 6000 FEW030 SCT035 BKN080 01/M04 Q1018=
METAR OIFK 111000Z 33004KT 4000 -SN BKN020 OVC070 01/00 Q1023=
 METAR OIFM 111000Z 06004KT 2000 HZ SCT040 OVC100 02/M03 Q1018
 A3006=
 METAR OIFS 111000Z 00000KT 4000 BR FEW025CB SCT030 BKN080 M02/M05
 Q1018=
METAR OIGG 111000Z 32004KT 3000 BR SCT025 BKN100 10/07
Q1014=
METAR OIGK 110950Z 34006KT 9999 FEW035 BKN150 M02/M07 Q1017=
METAR OIHH 111000Z 00000KT 2000 BR BKN035 SCT090 M03/M06
Q1018=
METAR OIHM 111000Z 31010KT 0500 +SN SCT035 OVC080 M02/M03 Q1017=
 METAR OIIE 111000Z 21006KT 2600 -SHSN BR FEW025 SCT035CB SCT045
 OVC080 01/M00 Q1020 A3014 NOSIG=
0000217000
167
SZNZ01 NZKL 111015
CREX++
T000103 A001 D01021 D06025++
-3683144 17478654 AUCT  2014 01 11 10 07 //// 11 07 00 01
03978 3193 03980 3194 03982 3194 03983 3194 03987 3196 03990 3198+
-4402404 -17636748 CHIT  2014 01 11 10 07 //// 11 07 00 01
04741 2001 04739 1995 04748 2000 04749 1997 04747 1992 04750 1990+
-4089929 17623168 CPIT  2014 01 11 10 07 //// 11 07 00 01
03588 2288 03598 2293 03602 2293 03613 2298 03614 2294 03629 2304+
-3618905 17548887 GBIT  2014 01 11 10 07 //// 11 07 00 01
05037 -0010 05054 0005 05048 -0002 05038 -0014 05034 -0020 05042 -0013+
-3867541 17802288 GIST  2014 01 11 10 07 //// 11 07 00 01
03523 2744 03529 2746 03527 2740 03520 2730 03543 2749 03524 2726+
-4241288 17370277 KAIT  2014 01 11 10 07 //// 11 07 00 01
03169 2232 03189 2247 03195 2247 03203 2250 03216 2257 03220 2255+
-3755040 17815904 LOTT  2014 01 11 10 07 //// 11 07 00 01
02812 0189 02827 0201 02826 0198 02844 0213 02837 0203 02844 0208+
-3704657 17451175 MNKT  2014 01 11 10 07 //// 11 07 00 01
02432 -0146 02426 -0145 02418 -0146 02419 -0138 02405 -0145 02409 -0135+
-3947566 17692007 NAPT  2014 01 11 10 07 //// 11 07 00 01
02658 2080 02670 2088 02650 2063 02659 2067 02667 2071 02671 2070+
-3441483 17304870 NCPT  2014 01 11 10 07 //// 11 07 00 01
-04668 -8253 -04658 -8242 -04645 -8229 -04631 -8214 -04644 -8226 -04631 -8213+
-4581435 17062939 OTAT  2014 01 11 10 07 //// 11 07 00 01
04731 3389 04738 3390 04745 3391 04748 3388 04756 3389 04760 3387+
-2928002 -17789440 RBCT  2014 01 11 10 07 //// 11 07 00 01
05487 2001 05489 2002 05493 2004 05499 2010 05507 2017 05481 1989+
-2925114 -17790384 RFRT  2014 01 11 10 07 //// 11 07 00 01
02393 0184 02409 0199 02399 0187 02416 0202 02404 0190 02414 0198+
-4357010 17277383 SUMT  2014 01 11 10 07 //// 11 07 00 01
01824 1814 01859 1841 01861 1837 01865 1834 01885 1846 01895 1850+
-3764109 17618118 TAUT  2014 01 11 10 07 //// 11 07 00 01
04351 4002 04352 4002 04353 4001 04354 4001 04357 4002 04359 4003+
-4128448 17477985 WLGT  2014 01 11 10 07 //// 11 07 00 01
03004 2017 03010 2019 03015 2019 03023 2022 03021 2016 03022 2012++
7777
0000176500
168
SAIR31 OIII 111000 RRA
 METAR OIII 111000Z 19006KT 0800 +SN SCT025 OVC080 01/M01 Q1019
 A3010 TEMPO 0800 SN FEW035CB SCT030 BKN100 TEMPO 0800 SN FEW035CB
SCT030 BKN100=
 METAR OIIK 111000Z 000Z 14006KT 5000 HZ FEW035CB SCT040 OVC090
 01/M03 Q1020=
 METAR OIIP 111000Z 12006KT 1200 SN BR SCT030CB SCT035 OVC080
 00/M01 Q1018=
METAR OIIS 111000Z 27008KT 5000 -SN SCT030 OVC080 04/M04 Q1020=
 METAR OIKB 111000Z 06010KT 7000 -RA FEW025CB SCT030 OVC090 16/06
 Q1020 A3013 NOSIG=
METAR OIKK 111000Z 00000KT 9999 SCT035 OVC100 04/M04 Q1019 A3010=
 METAR OIKO 110950Z 30008KT 7000 FEW020 FEW025CB SCT080 17/02
 Q1021=
 METAR OIKQ 111000Z 34010KT 8000 -RA FEW025CB SCT030 SCT090 14/08
 Q1020=
METAR OIMB 111000Z 08006KT 9999 FEW040 SCT100 BKN190 07/M14 Q1019=
METAR OIMC 111000Z 12010KT 9999 FEW040 BKN170 14/M07 Q1018=
METAR OIMD 111000Z 09006KT CAVOK 07/M04 Q1016=
METAR OIMM 111000Z 07004KT 9999 FEW040 BKN170 10/M11 Q1018 A3008=
METAR OINB 111000Z 00000KT CAVOK 11/07 Q1015=
METAR OING 111000Z 27008KT 5000 HZ SCT030 BKN090 12/07 Q1016=
METAR OINK 111000Z 28004KT 7000 FEW030 SCT035 11/05 Q1014=
METAR OINN 111000Z 09004KT CAVOK 11/10 Q1014=
METAR OINR 111000Z 12004KT 8000 FEW045 OVC160 11/07 Q1014=
METAR OISA 110950Z 00000KT 9999 SCT040TCU FEW200 08/M01 Q1017=
METAR OISF 110950Z 00000KT 9999 FEW030CB SCT035 OVC090 08/02 Q1019=
 METAR OISL 111000Z 00000KT 9999 FEW025 FEW035CB OVC090 08/04
 Q1020=
 METAR OISS 111000Z 00000KT 1500-RA FEW030CB SCT035 OVC070 03/02
 Q1020 A3012=
 METAR OISY 111000Z 00000KT 0500 RA FEW030CB SCT035 OVC070 01/01
 Q1019=
METAR OITL 110950Z 21021KT 9999 BKN090 BKN190 01/M04 Q1014=
 METAR OITR 111000Z 12004KT 2000 HZ SCT035 BKN170 M05/M09 Q1019
 NOSIG=
0000049100
169
SAIR31 OIII 111000 RRB
 METAR OITT 111000Z 00000KT 6000 FEW035 BKN180 M04/M10 Q1021 A3015=
METAR OITU 110950Z 00000KT 3000 BR SKC M12/M12 Q1021=
METAR OIYY 111000Z 33004KT 8000 FEW035 09/M03 Q1018=
METAR OIZB 111000Z 09008KT CAVOK 10/M02 Q1023=
METAR OIZC NIL=
 METAR OIZH 111000Z 11010KT 9999 VCRA SCT035 FEW040CB BKN090 07/M07
 Q1020 A3013 TEMPO SHRA=
METAR OIZI 111000Z 13006KT 9999 FEW020 OVC090 15/M05 Q1021=
METAR OIZJ 111000Z 11004KT CAVOK 20/06 Q1020=
0000011400
170
SPUR30 UKMS 111002
SPECI UKDE 111002Z 28010G16MPS 9999 FEW020 SCT100
07/01 Q1011 02290356 NOSIG=
0000036200
171
SATR31 UTAA 111000
METAR UTAA 111000Z 11004MPS 9999 BKN200 12/M06 Q1017
12CLRD70 NOSIG=
METAR UTAK 111000Z 14008MPS 9999 FEW016 BKN100  09/02 Q1015 NOSIG=
METAR UTAV 111000Z 20005MPS CAVOK 11/M06 Q1021 NOSIG=
METAR UTAM 111000Z 17003MPS CAVOK 13/M06 Q1020 NOSIG  RMK  SC07=
METAR UTAT 111000Z VRB02MPS CAVOK 07/M00 Q1021 99CLRD70 NOSIG=
0000084600
172
SAUR31 UKMS 111000
METAR UKLR 111000Z 28009MPS 9999 SCT030 BKN100 04/00
         Q1013 NOSIG=
METAR UKLI 111000Z 25007MPS 220V300 CAVOK 07/M04
         Q1018  28090070 NOSIG=
METAR UKON 111000Z 29011MPS 250V320 CAVOK 08/M02
         Q1016 NOSIG=
METAR UKCM 111000Z 26010MPS 9999 BKN022 06/01 Q1012
         19290060 NOSIG=
METAR UKCW 111000Z 25011MPS 9999 SCT014 SCT025CB
         05/01  Q1006 2719//65 BECMG 25012G20MPS=
METAR UKLU 111000Z 15004MPS 9999 OVC006 02/00 Q1021
         10190065 NOSIG=
METAR UKKK 111000Z 28009MPS 9999 -RA BKN020 05/03
         Q1009  26290250 TEMPO 27012G18MPS=
METAR UKKM 111000Z 28007G12MPS 9999 FEW023CB BKN030
         05/01  Q1009 33210250 TEMPO 28012G17MPS=
METAR UKKE NIL=
METAR UKLN 111000Z 28004MPS CAVOK 06/M04 Q1018
         3309//70 TEMPO 32011G16MPS=
00000000