0000021700
933
FTUS51 KWBC 102051
TAF
TAF AMD KECG 102047Z 1021/1118 15007KT P6SM OVC090
      TEMPO 1021/1024 3SM -RA OVC030
     FM110500 18008KT 4SM -DZ BR OVC010
     FM111400 18015G22KT 4SM BR BKN010=

0000021700
934
FTUS80 KWBC 102051
TAF
TAF AMD KECG 102047Z 1021/1118 15007KT P6SM OVC090
      TEMPO 1021/1024 3SM -RA OVC030
     FM110500 18008KT 4SM -DZ BR OVC010
     FM111400 18015G22KT 4SM BR BKN010=

0000018500
935
SAJP32 RJTD 111000 RRA
METAR RJOT 111000Z 17005KT 150V210 9999 FEW050 SCT150 BKN/// 03/M04
           Q1027=
METAR RJFO 111000Z 30005KT 9999 FEW035 BKN150 06/M02 Q1028=

0000003900
936
UAIN31 VABB 110955
NIL=
0000105600
937
FTUS80 KWBC 102051 AAA
TAF AMD
KACV 102049Z 1021/1118 24005KT P6SM OVC005
     FM110000 20009KT P6SM VCSH SCT005 BKN015
     FM110700 16012G22KT 4SM -RA BR OVC015=
KIAD 102049Z 1021/1124 VRB03KT 1SM RA BR OVC005
     FM110000 00000KT 2SM BR OVC003
     FM110200 00000KT 1SM -RA BR OVC003
     FM111000 18006KT 1SM BR OVC003 WS020/20050KT
     FM111400 18009KT 1/2SM FG OVC003 WS020/20055KT
     FM111500 18009KT 1SM BR OVC003 WS020/20055KT
     FM111700 18010KT 2SM SHRA BR OVC003 WS020/20045KT
     FM112100 21011KT 2SM SHRA BR OVC025=
KLAX 102048Z 1021/1124 24004KT 6SM HZ FEW150 SCT250
     FM102200 26008KT P6SM SCT250
     FM110300 VRB04KT 6SM HZ SKC
     FM110600 VRB02KT 5SM BR FEW001 SCT007
     FM111600 VRB03KT P6SM SKC
     FM112100 26007KT P6SM SCT250=
KMSP 102049Z 1021/1124 15010KT 4SM BR OVC008
     FM110100 19005KT 2SM BR OVC005
     FM110600 24005KT 5SM BR BKN009
     FM110900 28008KT P6SM SCT015
     FM111200 29012KT P6SM SCT250
     FM111600 28012KT P6SM SCT025 BKN040=

0000010500
938
SPUS31 KWBC 102051
SPECI
KMIA 102047Z 13010KT 10SM SCT021 SCT060 BKN200 27/22 A3007=

0000013200
939
SPUS41 KWBC 102051
SPECI
KGON 102047Z AUTO 00000KT 3/4SM R05/3500V5000FT BR BKN009 BKN021
OVC035 02/02 A3038=

0000010300
940
SAAK32 KWBC 102000 RRD
METAR
PADL 102045Z 01008KT 3SM SCT012 OVC018 M03/M03 A2949=

0000027000
941
SXHW11 KWAL 110510
B159741A 011051053 
DY DH PC VB
14/01/11 05:00 25.46
14/01/11 04:45 25.46
14/01/11 04:30 25.46
14/01/11 04:15 25.46
14/01/11 04:00 25.46
14/01/11 03:45 25.46
14/01/11 03:30 25.46
14/01/11 03:15 25.46 12.3 40-0NN  16W
0000017000
942
SOVI10 KWAL 110511
B110070A 011051101"P9751095 B\P~W@@F0ekE1@pp???CpCs>@pt3@LC?@Z4Cu5DA6bP9JK<BH2?????@"??? iTEHLAzAzAyAzAzAv:AMPTEMP 26.94C  47-0NN 219E
0000066700
943
SAFI31 EFHK 102050
METAR EFHK 102050Z 34014KT 9999 BKN009 M01/M03 Q0992 BECMG BKN010=
METAR EFJY 102050Z AUTO 01009KT 9999 OVC011 M06/M08
 Q0995=
METAR EFKU 102050Z AUTO 02012KT 9999 -SN OVC017 
M07/M09 Q0996=
METAR EFOU 102050Z AUTO 06010KT 010V100 7000 -SN FEW019/// BKN028/// 
OVC032/// M11/M14 Q1004 12420581=
METAR EFRO 102050Z AUTO 03012KT CAVOK M16/M18 
Q1008=
METAR EFTP 102050Z AUTO 36009KT 9999 -SHSN BKN009 
OVC011 M03/M04 Q0995=
METAR EFTU 102050Z AUTO 36007KT 330V040 9999 OVC006/// M01/M02 Q0995 
R08/19//95=
METAR EFVA 102050Z AUTO 03008KT 9000 -SN SCT014/// BKN025/// 
OVC030/// M07/M09 Q1000 R16/450162=

0000077000
944
SASN31 ESWI 102050
METAR ESGG 102050Z 23010KT 9999 BKN006 OVC009 03/03 Q1001
R21/29//95=
METAR ESGJ 102050Z 19005KT 9999 BKN014 00/M00 Q1001 R01/720068=
METAR ESGP 102050Z NIL=
METAR ESGT 102050Z NIL=
METAR ESMK 102050Z AUTO 26009KT 9999NDV DZ FEW018/// BKN034///
06/05 Q1004 RERA=
METAR ESMQ 102050Z AUTO 26002KT 9999 OVC018/// 02/M00 Q1003=
METAR ESMS 102050Z 27014KT 9999 BKN008 06/05 Q1006 R17/29//95=
METAR ESMT 102050Z AUTO 25010KT 9999 FEW007/// SCT009/// OVC010///
06/04 Q1004=
METAR ESMX 102050Z AUTO VRB02KT 9999 FEW013/// SCT017/// OVC021///
01/M00 Q1002=
METAR ESTA 102050Z AUTO 25013KT 9999 BKN010/// OVC014/// 06/04
Q1004=
METAR ESTL 102050Z AUTO 26013KT 9999NDV FEW011/// SCT019///
BKN024/// 06/06 Q1005=

0000060700
945
SADL31 EDZO 102050
METAR EDDF 102050Z 17003KT 9999 FEW040 BKN250 03/02 Q1019 NOSIG=
METAR EDDH 102050Z 26008KT 230V290 9999 BKN016 06/04 Q1012 NOSIG=
METAR EDDK 102050Z 14005KT 9999 FEW046 BKN320 04/02 Q1017 NOSIG=
METAR EDDL 102050Z 22008KT 9999 FEW040 BKN240 04/02 Q1017 NOSIG=
METAR EDDM 102050Z VRB01KT 9999 FEW040 M01/M02 Q1020 NOSIG=
METAR EDDN 102050Z 09002KT 9999 SCT042 02/01 Q1019 NOSIG=
METAR EDDS 102050Z 25003KT 9999 FEW024 01/M00 Q1019 NOSIG=
METAR EDDT 102050Z 25010KT 9999 BKN044 05/01 Q1014 NOSIG=
METAR EDDV 102050Z 24007KT 9999 FEW035 06/03 Q1015 NOSIG=

0000044600
946
SADL32 EDZO 102050
METAR EDDB 102050Z 23011KT 9999 FEW028 BKN046 05/01 Q1015 NOSIG=
METAR EDDC 102050Z 25006KT 9999 FEW030 BKN044 04/00 Q1016 NOSIG=
METAR EDDE 102050Z 22010KT CAVOK 03/01 Q1017 NOSIG=
METAR EDDG 102050Z 21006KT CAVOK 06/03 Q1015 NOSIG=
METAR EDDP 102050Z 22009KT CAVOK 04/03 Q1017 NOSIG=
METAR EDDR 102050Z 08002KT CAVOK 01/M00 Q1018 NOSIG=
METAR EDDW 102050Z 23008KT 9999 FEW024 04/03 Q1013 NOSIG=

0000009900
947
SAQB31 LQMO 102100
METAR LQMO 102100Z 17003KT 3000 BR FEW040 BKN065 07/06 Q1022=

0000012200
948
SAMO31 ZMUB 102100
METAR ZMUB 102100Z VRB01MPS 5000NW FU NSC M34/M38 Q1025 NOSIG RMK
 QFE661.0 66 NT=

0000010600
949
SAMX44 MMMD 102052
METAR MMCE 102049Z 14006KT 6SM SKC 26/21 A2987 RMK SLP116 57033 991=

0000011400
950
SASN31 ESWI 102050 CCA
METAR COR ESMX 102050Z VRB02KT 9999 FEW008 SCT012 BKN018 01/M00
Q1002=

0000055100
951
SADN31 EKCH 102050
METAR EKCH 102050Z 26013KT 9999 FEW010 BKN015 BKN036 06/04 Q1007
NOSIG=
METAR EKBI 102050Z 23006KT 9999 FEW025 BKN035 05/03 Q1007=
METAR EKYT 102050Z 25014KT 9999 FEW015 BKN025 BKN035 06/05 Q1003=
METAR EKRK 102050Z AUTO 26014KT 9999NDV FEW031/// BKN037///
05/04 Q1007=
METAR EKAH 102050Z AUTO 25010KT 220V280 9999NDV OVC030/// 06/04
Q1006=
METAR EKEB 102050Z AUTO 24012KT 9999NDV BKN039/// BKN140///
06/05 Q1008=
METAR EKRN 102050Z AUTO 27017KT 5000NDV -SHRA   BKN012/// 06/06
Q1007 RESHRA=

0000020000
952
SADN32 EKCH 102050
METAR EKVJ 102053Z NIL=
METAR EKSB 102050Z 23008KT 9999 FEW040 BKN130 06/03 Q1009=
METAR EKSN 102053Z NIL=
METAR EKVD 102053Z NIL=
METAR EKOD 102053Z NIL=

00000000