0000010000
946
SNVF25 LFPW 110700
BBXX
BAREU65 11074 99320 70145 46/// ///// 40158 52001
22243=
0000011000
947
UANT01 CWAO 110659
ARP AAL80 5028N04314W 0658 F380 MS59 309/49 KT
N761AJ DDL XXW 110659 F16A
0000011000
948
UANT01 CWAO 110659
ARP BAW284 5806N04600W 0659 F350 MS57 262/34 KT
GCIVX QXS UAK 110659 F35A
0000011000
949
UANT01 CWAO 110659
ARP BAW292 4849N04106W 0659 F370 MS55 316/49 KT
GVIIC QXT AOW 110659 F09A
0000011000
950
UANT01 CWAO 110659
ARP BAW282 5549N05322W 0659 F370 MS63 279/75 KT
GCIVY QXS YHO 110659 F38A
0000031500
951
SMVD01 PANC 110600 RRI
BBXX
WGAE 11063 99258 70589
41598 50916 10220 2019/ 40230 54000 7//22 854//
22263 0//// 20304 334// 40708 5//// 6//// 80200 ICE /////=
KTDQ 11063 99096 51698
41398 30410 10267 20244 40069 5//// 70110 8311/
22200 0//// 2//// 3//// 4//// 5//// 6//// 80250 ICE /////=
0000034100
952
SZIO01 AMMC 110700
CREX++
T000103 A001 D01021 D06025++
-1211670 09689190 46280 2014 01 11 06 53 3018 11 07 00 01
01284 0045 01288 0048 01285 0045 01279 0038 01281 0040 01281 0039+
-1042940 10566940 46290 2014 01 11 06 53 //// 11 07 00 01
01354 0069 01291 0004 01348 0059 01312 0021 ///// //// ///// ////++
7777

0000009800
953
SAPK31 OPKC 110700 RRB
METAR OPLA 110700Z 28005KT 4000 HZ NSC 14/03 Q1020 NO SIG=

0000078200
954
SMIN52 VIDP 110600
AAXX 11063
42027 31595 83201 10016 21017 38494 48579 70522 8452/
  333 58016=
42028 32596 20000 11010 21050 37912 82400 333 58057=
42031 32596 21401 10042 21004 38418 82100 333 58031=
42044 32595 80000 10024 21023 38352 48595 8352/
  333 58064=
42045 32696 13603 10046 21069 38426 48558 81100
  333 58046=
42054 32996 01801 10136 20022 39245 333 58014=
42056 32996 01401 10160 20028 39750
  333 58018=
42071 31995 02905 10128 20093 40210 71000
  333 58015=
42081 32496 31802 10094 20028 38964 48535 83700
  333 56400 58002 83715=
42083 32697 30000 10050 20014 4//// 83500
  333 58010 83640=
42105 31996 23201 10170 20070 40197 70540 80001 333 58014=
42182 31993 02908 10138 20099 40198 71144
  333 58018=

0000027600
955
AAIN23 VIDP 110700

ATTENTION: MET Operator

The Palam Observation Station Report
COMPILED by Weatherman monitor AT 07:00:01 ON 11/01/2014

42111 (Observation Time = 110600) SMIN NOT RECEIVED
42165 (Observation Time = 110600) SMIN NOT RECEIVED

0000157200
956
FCIN31 VECC 110600
TAF VAAH 110600Z 1109/1118 34006KT 5000 FU FEW100 BECMG 1112/1114
    32004KT 4000 FU/HZ=
TAF VANP 110600Z 1109/1118 14005KT 3000 HZ FEW020 SCT025
    BECMG 11081110 20005KT 4000 HZ
    BECMG 11121114 14003KT 3000 HZ FEW025 SCT100=
TAF VEAT 110600Z 1109/1118 33006KT 3000 HZ NSC BECMG 1111/1113
    00000KT 1500 BR FEW020 SCT100=
TAF VEBS 110600Z 1109/1118 12005KT 2500 HZ NSC
    BECMG 1112/1114 14003KT 2000 HZ=
TAF VECC 110600Z 1109/1118 35005KT 2500 HZ NSC
     BECMG 1112/1114 00000KT 1800 BR=
TAF VEGT 110600Z 1109/1118 03005KT 3000 HZ SCT018 BKN100 BEC
    1112/1114 00000KT 2500 HZ  BEC 1116/1118 2000 BR=
TAF VEGY 110600Z 1109/1118 24006KT 1500 BR/-RA SCT015 BKN100
     BECMG 1116/1118 1000 MIFG=
TAF VEIM 110600Z 1109/1118 03006KT 3000 HZ SCT018 BKN100 BEC
    1112/1114 00000KT 2000 BR BEC 1116/1118 1500=
TAF VEMN 110600Z 1109/1118 05005KT 5000 HZ FEW100 BECMG 1110/1112
    3000 HZ=
TAF VEPT 110600Z 1109/1118 24006KT 1500 BR/-RA SCT015 BKN100
     BECMG 1116/1118 1000 MIFG=
TAF VERC 110600Z 1109/1118 32006KT 1000 MIFG/-RA SCT015 BKN100
     BECMG 1116/1118 1500 BR/-RA=
TAF VGEG 110600Z NIL=
TAF VGHS 110600Z NIL=
TAF VIJP 110600Z NIL=
TAF VNKT 110600Z NIL=
TAF VOBG 110600Z 1109/1118 09010KT 8000 FEW015=
TAF VOHY 110600Z 1109/1118 14010KT 5000 HZ FEW020 BECMG 1112/1113
    12005KT 4000 HZ NSC=
TAF VOTV 110600Z 1109/1118 14005KT 5000 HZ FEW015 SCT100
    TEMPO 1109/1112 2000 TSRA/RA SCT008 SCT012 FEW025CB OVC090 BECMG
    1117/1118 00000KT 4000 HZ=

0000046700
957
SZPA01 AMMC 110700
CREX++
T000103 A001 D01021 D06025++
0136250 17293000 67590 2014 01 11 06 53 3017 11 07 00 01
01455 0073 01448 0069 01442 0065 01450 0076 01432 0061 01443 0074+
0710610 17137250 67680 2014 01 11 06 53 3013 11 07 00 01
00891 0107 00883 0101 00881 0101 00881 0102 00874 0097 00871 0096+
0698060 15820000 67950 2014 01 11 06 53 3023 11 07 00 01
00687 0019 00688 0022 00687 0023 00683 0020 00673 0012 00671 0012++
7777

0000178900
958
SZPS01 AMMC 110700
CREX++
T000103 A001 D01021 D06025++
-0204190 14737360 56130 2014 01 11 06 53 3028 11 07 00 01
01034 0076 01029 0073 01032 0078 01029 0077 01027 0077 01026 0078+
-0669280 15640860 56363 2014 01 11 06 53 //// 11 07 00 01
00587 -0087 00591 -0081 00587 -0083 00589 -0079 00583 -0083 00583 -0081+
-0942890 15995560 56670 2014 01 11 06 53 3043 11 07 00 01
00787 -0035 00787 -0034 00785 -0035 00784 -0034 00784 -0033 00782 -0034+
-1072080 16580190 57131 2014 01 11 06 53 //// 11 07 00 01
03381 2830 03380 2832 03380 2835 03380 2838 03381 2842 03381 2845+
-1551560 16718860 57210 2014 01 11 06 53 //// 11 07 00 01
00729 -0090 00727 -0088 00734 -0077 00727 -0081 00715 -0089 00723 -0077+
-1775690 16830030 57320 2014 01 11 06 53 3015 11 07 00 01
00842 -0072 00837 -0073 00832 -0075 00828 -0076 00825 -0075 00821 -0075+
-4397330 16861610 65180 2014 01 11 06 53 2888 11 07 00 01
02285 0343 02293 0348 02297 0349 02316 0365 02308 0354 02307 0350+
-2120470 -15978530 65980 2014 01 11 06 53 3013 11 07 00 01
00610 0013 00587 -0007 00572 -0021 00606 0015 00607 0018 00593 0006+
-2113810 -17518140 66600 2014 01 11 06 53 //// 11 07 00 01
00992 0086 00994 0092 00986 0088 00979 0085 00980 0090 00974 0088+
-1382670 -17176110 66840 2014 01 11 06 53 3010 11 07 00 01
00616 0043 00593 0023 00611 0043 00600 0035 00587 0024 00597 0037+
-1813250 17842750 67050 2014 01 11 06 53 3032 11 07 00 01
01176 0108 01176 0112 01170 0111 01163 0109 01159 0109 01156 0111+
-1760530 17743810 67070 2014 01 11 06 53 3033 11 07 00 01
01156 0003 01150 0003 01145 0003 01139 0002 01135 0003 ///// ////+
-0850250 17919500 67440 2014 01 11 06 53 3030 11 07 00 01
01768 0007 01760 0003 01759 0005 01758 0008 01752 0005 01751 0007++
7777

0000191300
959
SZAU01 AMMC 110700
CREX++
T000103 A001 D01021 D06025++
-1927750 14705860 59260 2014 01 11 06 53 3030 11 07 00 01
02227 0187 02233 0187 02243 0193 02244 0189 02253 0193 02260 0195+
-2316110 15079000 59670 2014 01 11 06 53 3003 11 07 00 01
03193 0108 03215 0123 03212 0114 03224 0118 03222 0110 03225 0107+
-3447330 15091170 60420 2014 01 11 06 53 2963 11 07 00 01
01086 -0019 01078 -0028 01075 -0031 01072 -0034 01073 -0034 01074 -0033+
-4105000 14591500 60910 2014 01 11 06 53 2890 11 07 00 01
01863 -0038 01874 -0037 01882 -0041 01906 -0026 01926 -0016 01940 -0013+
-4254640 14793080 61170 2014 01 11 06 53 2895 11 07 00 01
01315 0092 01322 0098 01331 0106 01334 0109 01332 0106 01333 0107+
-3834390 14161360 61410 2014 01 11 06 53 2905 11 07 00 01
00473 0030 00464 0020 00450 0004 00465 0018 00488 0040 00460 0011+
-3214890 13364170 62000 2014 01 11 06 53 2963 11 07 00 01
01206 0155 01212 0158 01211 0156 01212 0155 01211 0151 01212 0150+
-3387080 12189720 62080 2014 01 11 06 53 2945 11 07 00 01
00795 0072 00790 0066 00808 0083 00795 0070 00810 0084 00810 0084+
-3182560 11573860 62237 2014 01 11 06 53 2972 11 07 00 01
00870 0054 00861 0044 00855 0037 00855 0036 00854 0034 00853 0032+
-2422000 11339750 62385 2014 01 11 06 53 //// 11 07 00 01
01242 -0057 01192 -0109 01208 -0095 01226 -0078 01203 -0103 01187 -0121+
-2181670 11419110 62430 2014 01 11 06 53 //// 11 07 00 01
01818 -0039 01831 -0029 01842 -0020 01841 -0024 01833 -0034 01844 -0026+
-1800080 12221830 62650 2014 01 11 06 53 3043 11 07 00 01
05516 0078 05525 0074 05532 0073 05542 0076 05551 0072 05559 0073+
-1247190 13084580 63230 2014 01 11 06 53 3050 11 07 00 01
05499 0235 05495 0237 05491 0235 05487 0235 05483 0238 05480 0239+
-1386000 13641580 63511 2014 01 11 06 53 3045 11 07 00 01
01618 0097 01619 0097 01622 0098 01622 0097 01622 0095 01623 0095++
7777

0000039800
960
SWIO40 RJTD 110700
:PRS 1 #1 1705 1693 1688 1709 1683 1693 1692 1693 1684 1713 1671 1690
1718 1688 1702 1700 1684 1707 1696 1693 1709 1678 1699 1690 1697 1709
1684 1688 1707 1686 :RAD 1 #3 6084 6082 6084 6083 6084 6082 6084 6084
6085 6085 :ENC 5 #5 5064 5067 5070 5066 5068 5071 5070 5081 5089 5098
5106 5101 :SW1 60 #60 60 :SW2 30 #60 60 :BAT 14 #15 13.2 :NAME 
0650018E=
0000014400
961
SNVF51 EGRR 110700
BBXX
62301 11074 99524 70047 46/// /2919 10080 20034 40169 52026 22200
00097 10503 70017 333 90710 91126=
0000012800
962
SNVF51 EGRR 110700
BBXX
62105 11074 99550 70132 46/// /2616 10065 20007 40131 53017 22200
00108 10908 70041=
0000012800
963
SNVF51 EGRR 110700
BBXX
62001 11074 99452 70050 46/// /3504 10116 20066 40189 52010 22200
00128 10703 70014=
0000014400
964
SNVF51 EGRR 110700
BBXX
64045 11074 99591 70117 46/// /2618 10049 20011 40059 52017 22200
00097 10809 70047 333 90710 91130=
0000012800
965
SNVF51 EGRR 110700
BBXX
62163 11074 99475 70084 46/// /0515 10103 20067 40183 52010 22200
00121 10906 70031=
00000000