0000059900
206
SATH40 VTBB 110700
METAR VTCH 110700Z 18003KT 9999 SCT028  28/15 Q1015 A2998=
METAR VTCP 110700Z NIL=
METAR VTPH 110700Z NIL=
METAR VTPN 110700Z NIL=
METAR VTPP 110700Z 28004KT 7000 FEW025 30/17 Q1014 A2995=
METAR   VTSF   110700Z  06004KT  5000  RA  FEW017  SCT022  BKN100 
24/23  Q1012   A2990=
METAR VTSM 110700Z 02010KT 9000 FEW020TCU BKN300 30/23 Q1012 A2991
TCU SE=
METAR VTUK 110700Z 03006KT 310V120 9999 SCT025 30/17 Q1015 A2998=
METAR VTUL 110700Z 33004KT 7000 HZ NSC 28/13 Q1013 A2993 NOSIG=
METAR VTBS 110700Z 06011KT 020V110 CAVOK 31/13 Q1013 NOSIG=
0000031000
207
SNDL48 EDZW 110500 CCA
AAXX 11051
10646 47001 83401 11029 21029 39767 40194 58011 73533
  333 55300 88/00=
10733 47931 80802 11012 21012 39890 40191 56010 71000
  333 55300 20000 30000 84/61 88/69 88/74=
10736 45958 72201 11027 21030 39887 40194 56010
  333 55300 85/59 86/62 87/69=
0000032800
208
SNDL48 EDZW 110700 CCA
AAXX 11071
10646 47001 80402 11026 21026 39765 40191 55007 73530
  333 55300 83/00 85/59 88/61=
10733 47932 71201 11013 21013 39886 40187 56006 71000
  333 55300 20000 30000 85/58 85/62 87/80=
10736 47544 70501 11007 21010 39880 40185 57009 72565
  333 55300 81/28 86/56 87/58=
0000011100
209
UANT01 CWAO 110716
ARP UPS208 5812N05149W 0716 F310 MS55 271/56 KT
N331UP QXS UAK 110716 F47A
0000011000
210
UANT01 CWAO 110716
ARP AAL54 5144N03653W 0716 F360 MS55 253/23 KT
N185AN DDL XXW 110716 F42A
0000011000
211
UANT01 CWAO 110717
ARP AAL80 5109N03926W 0717 F380 MS55 301/24 KT
N761AJ DDL XXW 110717 F20A
0000011100
212
UANT01 CWAO 110717
ARP UAL114 5154N03032W 0716 F370 MS55 202/47 KT
N29129 DDL IG1 110717 F75A
0000156200
213
SSVX02 LFVW 110717
ZZYY 41652 11014 0714/ 724028 037284 6111/
22219 00235
33311 88872 20000 32349 43599
444 2011/ 11014 0711/ 50101 9/015=
ZZYY 41725 11014 0715/ 722293 050303 6111/
22219 00246
33311 88872 20000 32456 43646
444 2011/ 11014 0041/ 50101 9/015=
ZZYY 41644 11014 0714/ 730949 039737 6111/
22219 00217
33311 88872 20000 32172 43645
444 2011/ 11014 0710/ 50101 9/015=
ZZYY 41647 11014 0714/ 724156 048673 6111/
22219 00244
33311 88872 20000 32442 43668
444 2011/ 11014 0705/ 50101 9/015=
ZZYY 41651 11014 0713/ 729224 048574 6111/
22219 00///
33311 88872 20000 41496
444 2011/ 11014 0705/ 50101 9/015=
ZZYY 41646 11014 0715/ 729252 061091 6111/
22219 00234
33311 88872 20000 32339 43668
444 2011/ 11014 0712/ 50101 9/015=
ZZYY 41653 11014 0715/ 722212 048617 6111/
22219 00246
33311 88872 20000 32460 43733
444 2011/ 11014 0706/ 50101 9/015=
ZZYY 41648 11014 0714/ 725621 043565 6111/
22219 00233
33311 88872 20000 32335 43740
444 2011/ 11014 0533/ 50101 9/015=
ZZYY 13984 11014 0715/ 724355 072630 6111/
22219 00259
33311 88872 20000 32591 43602
444 2011/ 11014 0706/ 50101 9/015=
ZZYY 41649 11014 0715/ 733901 031695 6113/
22219 00200
33311 88872 20000 31996 43633
444 2013/ 11014 0710/ 50101 9/015=
ZZYY 41645 11014 0715/ 727988 040105 6112/
22219 00226
33311 88872 20000 32258 43719
444 2012/ 11014 0712/ 50101 9/015=
ZZYY 41650 11014 0713/ 723300 049616 6111/
22219 00247
33311 88872 20000 32467 43746
444 2011/ 11014 0706/ 50101 9/015=
0000128500
214
UDAS02 BABJ 110707
AMDAR 1107
DES CNFPYL 3140N 11357E 110703 F186 MS170 255/030 TB/ S//1=
DES CNFPYL 3138N 11400E 110703 F176 MS146 252/024 TB/ S//1=
DES CNFPYL 3136N 11402E 110704 F170 MS128 244/026 TB/ S//1=
DES CNFPYL 3131N 11407E 110705 F157 MS093 244/025 TB/ S//1=
DES CNFPYN 3305N 11533E 110702 F219 MS273 270/047 TB/ S//1=
LVR CNFPYN 3307N 11531E 110703 F217 MS265 271/048 TB/ S//1=
LVR CNFPYN 3311N 11525E 110704 F217 MS268 272/048 TB/ S//1=
LVR CNFPYN 3315N 11519E 110705 F217 MS268 271/047 TB/ S//1=
LVR CNFOZN 3712N 12549E 110657 F276 MS455 267/103 TB/ S//1=
LVR CNFOZN 3718N 12531E 110700 F276 MS460 269/106 TB/ S//1=
LVR CNFOZN 3724N 12513E 110703 F276 MS460 264/104 TB/ S//1=
LVR CNFOZN 3723N 12453E 110706 F276 MS463 264/103 TB/ S//1=
LVR CNFOZL 3138N 11705E 110703 F236 MS300 274/051 TB/ S//1=
LVR CNFOZL 3134N 11659E 110704 F236 MS295 275/055 TB/ S//1=
DES CNFOZL 3132N 11653E 110705 F227 MS280 273/045 TB/ S//1=
DES CNFOZL 3130N 11647E 110706 F217 MS255 278/040 TB/ S//1=
DES CNFLWQ 2616N 10656E 110704 F102 PS018 251/039 TB/ S//1=
DES CNFLWQ 2613N 10656E 110705 F091 MS011 247/034 TB/ S//1=
DES CNFLWQ 2613N 10653E 110706 F083 PS009 241/032 TB/ S//1=
ASC CNFPYM 4051N 11149E 110706 F032 MS070 230/002 TB/ S//1=
0000179700
215
SZPS01 AMMC 110718
CREX++
T000103 A001 D01021 D06025++
-0204190 14737360 56130 2014 01 11 07 11 3027 11 07 00 01
01017 0095 01014 0094 01015 0097 01017 0101 01009 0095 01012 0101+
-0669280 15640860 56363 2014 01 11 07 11 //// 11 07 00 01
00573 -0064 00571 -0064 00566 -0067 00567 -0064 00559 -0070 00561 -0066+
-0942890 15995560 56670 2014 01 11 07 11 3043 11 07 00 01
00766 -0034 00762 -0037 00764 -0033 00763 -0033 00762 -0033 00763 -0031+
-1072080 16580190 57131 2014 01 11 07 11 //// 11 07 00 01
03381 2884 03382 2888 03382 2891 03382 2894 03381 2896 03383 2901+
-1551560 16718860 57210 2014 01 11 07 11 //// 11 07 00 01
00670 -0080 00670 -0077 00676 -0067 00667 -0072 00663 -0072 00650 -0082+
-1775690 16830030 57320 2014 01 11 07 11 3015 11 07 00 01
00775 -0076 00770 -0078 00765 -0079 00762 -0079 00758 -0080 00755 -0079+
-4397330 16861610 65180 2014 01 11 07 11 2888 11 07 00 01
02386 0397 02369 0377 02364 0371 02370 0374 02364 0366 02354 0354+
-2120470 -15978530 65980 2014 01 11 07 11 3013 11 07 00 01
00570 0006 00566 0003 00543 -0018 00542 -0017 00544 -0014 00552 -0004+
-2113810 -17518140 66600 2014 01 11 07 11 //// 11 07 00 01
00911 0077 00909 0079 00905 0079 00889 0066 00891 0073 00886 0071+
-1382670 -17176110 66840 2014 01 11 07 11 3010 11 07 00 01
00565 0035 00565 0037 00557 0031 00551 0027 00556 0035 00550 0031+
-1813250 17842750 67050 2014 01 11 07 11 3030 11 07 00 01
01096 0109 01088 0106 01083 0106 01082 0109 01072 0103 01067 0102+
-1760530 17743810 67070 2014 01 11 07 11 3035 11 07 00 01
01069 0008 01064 0008 01058 0007 01053 0007 01046 0005 ///// ////+
-0850250 17919500 67440 2014 01 11 07 11 3030 11 07 00 01
01698 -0003 01694 -0005 01692 -0003 01690 -0002 01688 -0001 01681 -0006++
7777

0000191300
216
SZAU01 AMMC 110718
CREX++
T000103 A001 D01021 D06025++
-1927750 14705860 59260 2014 01 11 07 11 3030 11 07 00 01
02317 0192 02319 0190 02323 0189 02324 0186 02329 0186 02326 0179+
-2316110 15079000 59670 2014 01 11 07 11 3003 11 07 00 01
03312 0114 03309 0105 03315 0106 03324 0110 03336 0116 03349 0124+
-3447330 15091170 60420 2014 01 11 07 11 2962 11 07 00 01
01101 -0008 01096 -0013 01097 -0012 01095 -0014 01091 -0018 01091 -0017+
-4105000 14591500 60910 2014 01 11 07 11 2890 11 07 00 01
02081 -0004 02085 -0009 02095 -0008 02101 -0013 02113 -0010 02118 -0014+
-4254640 14793080 61170 2014 01 11 07 11 2895 11 07 00 01
01331 0101 01324 0094 01327 0096 01329 0098 01322 0091 01320 0089+
-3834390 14161360 61410 2014 01 11 07 11 2905 11 07 00 01
00515 0051 00531 0066 00487 0021 00518 0051 00499 0031 00553 0084+
-3214890 13364170 62000 2014 01 11 07 11 2965 11 07 00 01
01232 0144 01228 0138 01233 0142 01232 0139 01233 0138 01237 0140+
-3387080 12189720 62080 2014 01 11 07 11 2947 11 07 00 01
00824 0089 00826 0091 00802 0066 00814 0078 00820 0083 00807 0069+
-3182560 11573860 62237 2014 01 11 07 11 2972 11 07 00 01
00872 0040 00879 0046 00884 0050 00883 0048 00887 0051 00880 0043+
-2422000 11339750 62385 2014 01 11 07 11 //// 11 07 00 01
01198 -0132 01229 -0103 01264 -0069 01262 -0073 01280 -0057 01240 -0099+
-2181670 11419110 62430 2014 01 11 07 11 //// 11 07 00 01
01875 -0029 01876 -0031 01881 -0028 01892 -0020 01886 -0028 01885 -0032+
-1800080 12221830 62650 2014 01 11 07 11 3043 11 07 00 01
05682 0067 05693 0068 05704 0068 05714 0070 05724 0070 05734 0069+
-1247190 13084580 63230 2014 01 11 07 11 3050 11 07 00 01
05434 0257 05430 0257 05426 0259 05423 0261 05419 0260 05415 0264+
-1386000 13641580 63511 2014 01 11 07 11 3045 11 07 00 01
01650 0103 01655 0106 01657 0107 01661 0110 01659 0106 01659 0105++
7777

0000046700
217
SZPA01 AMMC 110718
CREX++
T000103 A001 D01021 D06025++
0136250 17293000 67590 2014 01 11 07 11 3017 11 07 00 01
01405 0069 01407 0073 01408 0076 01402 0073 01400 0073 01404 0079+
0710610 17137250 67680 2014 01 11 07 11 3013 11 07 00 01
00852 0096 00854 0099 00855 0102 00855 0103 00855 0104 00853 0103+
0698060 15820000 67950 2014 01 11 07 11 3022 11 07 00 01
00673 0035 00675 0038 00671 0036 00675 0042 00675 0043 00670 0040++
7777

0000034200
218
SZIO01 AMMC 110718
CREX++
T000103 A001 D01021 D06025++
-1211670 09689190 46280 2014 01 11 07 11 3020 11 07 00 01
01283 0034 01283 0034 01279 0029 01279 0029 01285 0035 01284 0033+
-1042940 10566940 46290 2014 01 11 07 11 //// 11 07 00 01
01331 0013 01383 0063 01327 0006 01362 0039 01378 0053 01307 -0019++
7777

0000024100
219
SOAT10 KWAL 110718
FA8005BC 011071837 OT12 ID:KN-BASS-01 DT:2014 01 11 07 16
:RD -3130 -3129 -3122 -3124 -3129 -3146 -3142 -3151 -3129 -3155
:PR 0519 0520 0525 0512 0500 0512 0567 0516 0559 0430
:B 13.7V
 46+1NN 219E
0000036400
220
SXXX32 EUMS 110712
22E595B6
:PRS 1 /1 M 3876 3879 3852 3837 3834 3809 3820 3778 3782 3763 3745 3734 3734 3702 3723 3714 3682 3700 3686 3680 3700 3672 3714 3694 3717 3680 3700 3694 3720 :RAD 1 /3 6998 6952 6916 6897 6886 6877 6878 6888 6894 6906 :ENC 2 /5 5142 5075 5021 4994 5002 5025 :SW1 12 /60 12 :SW2 42 /60 60 :BAT 14 /15 12.7 :NAME 22E595B6
0000229700
221
FCIN32 VABB 110600
TAF VAAH 110600Z 1109/1118 34006KT 5000 FU FEW100 BECMG 1112/1114
    32004KT 4000 FU/HZ=
TAF VAAU 110600Z 1109/1118 09005KT 3000 FU NSC
     BECMG 1118/1115 32005KT 3000 FU
     BECMG 1116/1118 00000KT 2000 FU=
TAF VABB 110600Z 1109/1118 27008KT 3000 FU/HZ FEW100
     BECMG 1113/1115 33007KT 2500 FU/HZ NSC=
TAF VABM 110600Z NIL=
TAF VABO 110600Z 1109/1118 34006KT 5000 FU FEW100 BECMG 1112/1114
     32004KT 4000 FU/HZ=
TAF VABP 110600Z NIL=
TAF VABV 110600Z 1109/1118 34006KT 5000 FU FEW100 BECMG 1112/1114
     32004KT 4000 FU/HZ=
TAF VAGN 110600Z NIL=
TAF VAGO 110600Z NIL=
TAF VAID 110600Z NIL=
TAF VAJB 110600Z NIL=
TAF VAJM 110600Z 1109/1118 34006KT 5000 FU FEW100 BECMG 1112/1114
     32004KT 4000 FU/HZ=
TAF VAKJ 110600Z NIL=
TAF VANP 110600Z 1109/1118 14005KT 3000 HZ FEW020 SCT025
    BECMG 11081110 20005KT 4000 HZ
    BECMG 11121114 14003KT 3000 HZ FEW025 SCT100=
TAF VAPO 110600Z NIL=
TAF VARK 110600Z 1109/1118 34006KT 5000 FU FEW100 BECMG 1112/1114
     32004KT 4000 FU/HZ=
TAF VARP 110600Z 1109/1118 21005KT 5000 HZ SCT025 BECMG 1113/1115
     VRB02KT 3000 HZ FEW025 SCT100=
TAF VCBI 110600Z NIL=
TAF VEVZ 110600Z NIL=
TAF VIGR 110600Z NIL=
TAF VOBG 110600Z 1109/1118 09010KT 8000 FEW015=
TAF VOBZ 110600Z 1109/1118 09005KT 4000 HZ FEW020 SCT100 1112/1113
    00000KT 3000 HZ=
TAF VOCB 110600Z 1109/1118 09005KT 6000 FEW015 SCT080=
TAF VOCC 110600Z NIL=
TAF VOCI 110600Z 1109/1118 22005KT 5000 HZ FEW015 SCT100
    TEMPO 1109/1112 FEW025CB BECMG 1117/1118 00000KT 4000 HZ=
TAF VOCL 110600Z 1109/1118 25005KT 5000 HZ FEW015 SCT100
    TEMPO 1109/1112 FEW025CB BECMG 1117/1118 00000KT 4000 HZ=
TAF VOHY 110600Z 1109/1118 14010KT 5000 HZ FEW020 BECMG 1112/1113
    12005KT 4000 HZ NSC=
TAF VOMD 110600Z 1109/1118 05010KT 4000 HZ FEW020 BECMG 1115/1116
    VRB02KT 3000 HZ=
TAF VOML 110600Z 1109/1118 29010KT 6000 FEW015=
TAF VOMM 110600Z 1109/1118 04010G20KT 6000 SCT020 BECMG 1112/1113
    04005KT 4000 HZ=
TAF VOTP 110600Z 1109/1118 09010KT 5000 HZ SCT020 BECMG 1112/1113
    05005KT 4000 HZ=
TAF VOTR 110600Z 1109/1118 07010KT 5000 HZ FEW020 SCT080
    BECMG 1115/1116 04005KT 3000 HZ=
TAF VOTV 110600Z 1109/1118 14005KT 5000 HZ FEW015 SCT100
    TEMPO 1109/1112 2000 TSRA/RA SCT008 SCT012 FEW025CB OVC090 BECMG
    1117/1118 00000KT 4000 HZ=

0000315400
222
FCIN35 VABB 110600
TAF VAAH 110600Z 1109/1118 34006KT 5000 FU FEW100 BECMG 1112/1114
    32004KT 4000 FU/HZ=
TAF VAAU 110600Z 1109/1118 09005KT 3000 FU NSC
     BECMG 1118/1115 32005KT 3000 FU
     BECMG 1116/1118 00000KT 2000 FU=
TAF VABB 110600Z 1109/1118 27008KT 3000 FU/HZ FEW100
     BECMG 1113/1115 33007KT 2500 FU/HZ NSC=
TAF VABO 110600Z 1109/1118 34006KT 5000 FU FEW100 BECMG 1112/1114
     32004KT 4000 FU/HZ=
TAF VABP 110600Z NIL=
TAF VABV 110600Z 1109/1118 34006KT 5000 FU FEW100 BECMG 1112/1114
     32004KT 4000 FU/HZ=
TAF VAGN 110600Z NIL=
TAF VAGO 110600Z NIL=
TAF VAID 110600Z NIL=
TAF VAJB 110600Z NIL=
TAF VAJM 110600Z 1109/1118 34006KT 5000 FU FEW100 BECMG 1112/1114
     32004KT 4000 FU/HZ=
TAF VAKJ 110600Z NIL=
TAF VANP 110600Z 1109/1118 14005KT 3000 HZ FEW020 SCT025
    BECMG 11081110 20005KT 4000 HZ
    BECMG 11121114 14003KT 3000 HZ FEW025 SCT100=
TAF VAPO 110600Z NIL=
TAF VARK 110600Z 1109/1118 34006KT 5000 FU FEW100 BECMG 1112/1114
     32004KT 4000 FU/HZ=
TAF VARP 110600Z 1109/1118 21005KT 5000 HZ SCT025 BECMG 1113/1115
     VRB02KT 3000 HZ FEW025 SCT100=
TAF VAUD 110600Z 1109/1118 34005KT 5000 HZ SCT030 SCT100 BECMG
     1112/1114 VRB02KT 3000 HZ=
TAF VEAT 110600Z 1109/1118 33006KT 3000 HZ NSC BECMG 1111/1113
    00000KT 1500 BR FEW020 SCT100=
TAF VEBD 110600Z NIL=
TAF VEBI 110600Z NIL=
TAF VEBS 110600Z 1109/1118 12005KT 2500 HZ NSC
    BECMG 1112/1114 14003KT 2000 HZ=
TAF VECC 110600Z 1109/1118 35005KT 2500 HZ NSC
     BECMG 1112/1114 00000KT 1800 BR=
TAF VEGT 110600Z 1109/1118 03005KT 3000 HZ SCT018 BKN100 BEC
    1112/1114 00000KT 2500 HZ  BEC 1116/1118 2000 BR=
TAF VEHX 110600Z NIL=
TAF VEIM 110600Z 1109/1118 03006KT 3000 HZ SCT018 BKN100 BEC
    1112/1114 00000KT 2000 BR BEC 1116/1118 1500=
TAF VEJS 110600Z 1109/1118 32006KT 1000 MIFG/-RA SCT015 BKN100
     BECMG 1116/1118 1500 BR/-RA=
TAF VEKU 110600Z 1109/1118 05005KT 4000 HZ SCT018 BKN100 BEC
    1112/1114 00000KT 2500 HZ BEC 1116/1118 2000 BR=
TAF VELR 110600Z 1109/1118 04006KT 3000 HZ SCT018 BKN100 BEC
    1112/1114 00000KT 2500 HZ BEC 1116/1118 2000 BR=
TAF VEMN 110600Z 1109/1118 05005KT 5000 HZ FEW100 BECMG 1110/1112
    3000 HZ=
TAF VEMR 110600Z NIL=
TAF VEPT 110600Z 1109/1118 24006KT 1500 BR/-RA SCT015 BKN100
     BECMG 1116/1118 1000 MIFG=
TAF VERC 110600Z 1109/1118 32006KT 1000 MIFG/-RA SCT015 BKN100
     BECMG 1116/1118 1500 BR/-RA=
TAF VETZ 110600Z NIL=
TAF VEVZ 110600Z NIL=
TAF VIBN 110600Z 1109/1118 05004KT 2000 BR/HZ SCT020 BKN100 BECMG
     1113/1115 VRB02KT 0500 MIFG/BR TEMPO 1109/1115 0800 RA/TSRA
     FEW030CB BECMG 1116/1118 0800 MIFG=
TAF VIDP 110600Z 1109/1118 31008KT 3200 HZ NSC
     BECMG 1115/1117 25003KT 1200 BR =
TAF VIGR 110600Z NIL=
TAF VIJO 110600Z 1109/1118 36005KT 3000 HZ FEW035 SCT100 BECMG
     1112/1114 VRB02KT 3000 HZ=
TAF VIJP 110600Z 1109/1118 05005KT 3000 HZ FEW035 SCT100 BECMG
     1112/1114 VRB02KT 1500 FU=
TAF VILK 110600Z 1109/1118 05004KT 2000 BR/HZ SCT020 BKN100 BECMG
     1113/1115 VRB02KT 0500 MIFG/BR TEMPO 1109/1115 0800 RA/TSRA
     FEW030CB BECMG 1116/1118 0800 MIFG=
TAF VOHY 110600Z 1109/1118 14010KT 5000 HZ FEW020 BECMG 1112/1113
    12005KT 4000 HZ NSC=

0000044500
223
SXXX32 EUMS 110713
32BD7124
:PRS 1 /1 2278 2275 2275 2274 2275 2276 2273 2272 2269 2268 2266 2265 2264 2257 2256 2252 2247 2246 2241 2234 2225 2222 2222 2222 2220 2218 2217 2216 2216 2219 :RAD 3 /3 8058 8055 8058 8048 8037 8026 8011 8003 7999 7999 7989 7972 7959 7954 7951 7950 7950 7951 7949 7945 :ENC 3 /5 5058 5057 5044 5020 5003 4999 4981 4957 4948 4948 4949 4943 :SW1 14 /60 0 :SW2 44 /60 7 :BAT 14 /15 13.6 :NAME 32BD7124
0000070300
224
SXXX32 EUMS 110713 RRA
223412A2
OT12 ID:IND-SADENG DT:2014 01 11 07 12
:PRS /1 01845 01867 01876 01886 01894 01939 01853 01892 01942 01893 01910 01899 01905 01960 01963 01977 01936 01893 01947 01959 02004 01977 01980 01982 01919 01889 01895 01986 02051 02064
:ENC /1 -13059 -13059 -13063 -13043 -13013 -13009 -13073 -13036 -13013 -13006 -13026 -13033 -13033 -12956 -12966 -12953 -12993 -13039 -13016 -12966 -12949 -12946 -12949 -12936 -12989 -13039 -13056 -12969 -12926 -12869
:RAD /1 11597 11606 11600 11612 11641 11657 11607 11568 11649 11634 11668 11642 11612 11699 11667 11663 11707 11628 11622 11673 11685 11707 11706 11769 11722 11668 11607 11629 11692 11816
:BA634 11668
0000040700
225
SXXX32 EUMS 110715
262D700E
:PRS 1 /1 2045 2012 2076 2089 2115 2080 2073 2119 2102 2071 2015 2098 2147 2084 2102 2076 2123 2113 2118 2136 2166 2140 2133 2135 2132 2142 2199 2204 2205 2174 :RAD 1 /3 4527 4531 4533 4542 4557 4573 4587 4601 4617 4622 4626 4643 4658 4671 4690 :ENC 5 /5 4628 4633 4660 4682 4713 4718 4738 4758 4801 4797 4834 4851 :SW1 15 /60 60 :BAT 14 /15 14.0 :NAME 262D700E
00000000