0000057300
553
SMVF11 ENMI 110600
BBXX
LDGJ 11061 99603 10053 43/// /1402 10050 20026 49969 5//// 222/0
      04080 1//// 3//// 4//// 5////=
LF4H 11064 99596 10022 46/// /2721 10060 20021 49987 52001 8////
      22200 06077 10606 70032 333 91132=
LGWS 11061 99228 30144 43/// /0204 10168 20156 40127 5//// 222/0
      04149 1//// 3//// 4//// 5////=
LJIT 11061 99583 10041 43/// /2912 10067 20006 40017 5//// 222/0
      04069 1//// 3//// 4//// 5////=
LMEL 11061 99603 10053 43/// /1302 10047 20039 49966 5//// 222/0
      04079 1//// 3//// 4//// 5////=
0000011100
554
UANT01 CWAO 110610
ARP DAL248 5904N03628W 0609 F380 MS59 226/35 KT
N810NW DDL XXW 110610 J41A
0000012800
555
SSVX13 LFVW 110610
ZZYY 16551 11014 0600/ 321952 060424 6113/
11119 40180 57001
444 50101 80074 80000 9/015=
0000003800
556
SMAA01 EFKL 110600
NIL
0000015000
557
SMSP01 LEMM 110600 RRA
AAXX 11064
08141 11740 30000 10004 20004 39316 40201 52008 60002 71040 82031
  333 20004 31102 55027 70000=
0000156800
558
SMSP02 LEMM 110600
AAXX 11064
08055 12965 03603 10007 21003 39115 48471 52008 60002
  333 20007 30102 55078 70000=
08075 11/02 90208 10006 20006 39140 48472 52005 60002 7454/
  333 20000 55039 70000 89/01=
08084 06/// /0000 10042 20042 39762 40206 51005 60002
  333 20029 3/003 55024 60007 70000=
08171 NIL=
08184 02557 80102 10084 20073 30030 40187 53007 60002 885//
  333 20076 3/007 55001 60007 70000=
08202 02765 40000 11017 21020 39245 42790 52005 60002 81046
  333 21020 3/105 55041 60007 70000=
08235 NIL=
08238 11320 81602 10100 20083 30118 40179 53003 60002 71022 882//
  333 20099 55000 70000=
08280 11257 89902 10072 20060 39354 40182 51004 60002 71022 886//
  333 20072 50234 55048 70000=
08330 11903 00000 10052 20051 39939 40175 52009 60002 74144
  333 20051 30004 50164 55002 70000=
08348 11330 71501 10055 20051 39437 40185 52005 60002 71022 84646
  333 20055 50114 55045 70000=
08360 02960 82804 10086 20066 30137 40175 53002 60002 80007
  333 20068 30009 5///4 55001 60007 70000=
08373 02462 10000 10097 20090 30149 40171 51005 60002 81600
  333 20096 3/010 55023 60007 70000=
08410 02958 61002 10080 20072 30060 40172 53003 60002 86080
  333 20077 31007 55038 60007 70000=
08419 02558 70000 10060 20056 39505 40184 50001 69952 8277/
  333 20057 3/005 55029 69957 70005=
08451 01768 83603 10114 20114 30127 40160 53003 69952 76062 84875
  333 20103 3/010 55002 69907 70005=
08487 02570 40203 10117 20084 30143 40169 53009 60002 82871
  333 20114 3/012 55/// 60007 70000=
0000014200
559
SMNO01 ENMI 110600 RRB
AAXX 11061
01300 44806 20706 10024 21014 49977 52001 8//// 22200 02058 10806
      70029 333 91109=
0000015400
560
SMNO01 ENMI 110600 CCB
AAXX 11061
01367 11310 80000 11054 21064 39535 49986 57002 60012 77322 887//
      333 21066 43030 70018 91106=
0000014800
561
SMNO02 ENMI 110600 RRC
AAXX 11061
01400 41598 33009 10066 20008 40050 52009 70162 81530 22200 06075
      10504 70020 333 91110=
0000202800
562
SMBM01 VBRR 110600
AAXX 11064
48001 32450 50000 10140 20124 40182 83520 333 56110
58005=
48004 32562 11201 10210 20143 81500 333 56900=
48008 31958 00401 10215 20136 40183 333 58009=
48010 32058 00000 10230 20163 40178 70144 333 58009=
48018 32960 01402 10238 20124 40170 70244 333 59001=
48019 32960 00401 10230 20134 40174 333 58008=
48020 32258 30403 10245 20167 70122 83400 333 56500=
48025 31440 33201 10242 20155 40180 83800 333 56500
58006=
48035 31958 02702 10242 20095 40137 70500 333 58005=
48037 32960 03601 10249 20150 40168 333 58019=
48042 31956 03601 10255 20155 40163 70500 333 58018=
48045 32562 11802 10188 20118 81100 333 56500=
48048 32958 00401 10246 20167 40170 333 58010=
48051 /2959 03103 10262 20140 70200 333=
48053 32950 03602 10270 20154 40155 333 58008=
48060 NIL=
48062 32960 00403 10246 20220 40162 333 58011=
48071 31960 00503 10260 20203 40161 70500 333 58005=
48075 32558 20000 10250 20150 40158 82100 333 56500
58009=
48077 32959 00000 10284 20158 40159 333 58011=
48078 32956 20902 10272 20163 40162 80001 333 56009
58019=
48080 32562 33103 10301 20223 40154 81836 333 56999
58002=
48085 32958 20401 10304 20203 40144 80006 333 56009
58007=
48095 32960 20402 10290 20215 70311 80002 333 56009=
48108 32996 50503 10330 20172 40145 80005 333 56009
58010=
48109 32497 20401 10306 20254 40146 82500 333 56900
58009=
48110 31996 31304 10330 20206 40137 70511 80006 333
56009 58010=
48112 32597 80403 10305 20230 40129 83876 333 56199
58010=
48030 32960 02204 10192 29016 333=
48072 32960 01304 10265 20240 333=
48087 32960 20403 10295 20207 80001 333 56009=
48099 32458 20000 10310 20203 40145 82800 333 56900
58010=
48101 32960 30401 10302 20207 70322 80006 333 56009=
48103 31456 10401 10313 20189 40145 70144 81500 333
56100 58012=
48057 32960 02202 10222 20045 333=
48094 32960 00404 10300 20220 40154 333 58011=
48097 32957 21303 10310 20189 40153 70211 80006 333
56009 58014=
0000012600
563
SMTH43 VTBB 110600 RRB
AAXX 11064
48358 31560 20904 10300 20184 39982 40155 57033 70500 82101
  333 59002=
0000012600
564
SMTH02 VTBB 110600 RRB
AAXX 11064
48462 31557 20307 10314 20195 30090 40145 57033 70500 82200
  333 58005=
0000011300
565
SIOM20 OOMS 110300 RRK
AAXX 11034
41268 36/// /3505 10177 20065 30205 48439
333 0E017 58013 =
0000012400
566
SMVS02 VNNN 110600
AAXX 11061
48806 32460 80000 10183 20139 39417 40194 58027 888// 333 58007 85894 88696=
0000012400
567
SMVS01 VNNN 110600
AAXX 11061
48825 32497 83203 10168 20143 30200 40209 57022 888// 333 59002 82894 88696=
0000011600
568
SMIN90 VECC 110600
AAXX 11064
42399 21395 80000 10160 20124 40194 76160 8672/
  333 58024 6992/=
0000011800
569
SMVS02 VNNN 110600
AAXX 11061
48823 32697 73402 10196 20155 30198 40201 57026 875// 333 58000 87696=
0000012400
570
SMVS01 VNNN 110600
AAXX 11061
48845 32498 83401 10206 20170 30188 40195 57024 888// 333 59010 83894 88697=
0000012400
571
SMVS02 VNNN 110600
AAXX 11061
48840 32498 80000 10212 20166 30187 40193 57024 888// 333 59009 83894 88696=
0000023000
572
SMVS01 VNNN 110600
AAXX 11061
48855 32560 70502 10245 20197 30173 40181 57026 878// 333 58000 83895 87697=
48848 01497 83603 10199 20176 30184 40192 57025 60023 76062 888// 333 59002 60011 84894 88697 9616
0=
00000000