0000011100
593
UANT99 KDDL 110530
ARP UAL990 5749N03722W 0530 F350 MS58 233/35 KT
N675UA DDL XXW 110530 F95A
0000011000
594
UANT99 KDDL 110530
ARP DLH475 5506N02411W 0530 F370 MS58 221/66 KT
DAIKQ QXT EUA 110530 J12A
0000011000
595
UANT99 KDDL 110530
ARP DLH493 5652N01915W 0530 F370 MS52 233/55 KT
DAIHE QXT AOE 110530 J52A
0000016200
596
SNVC20 EHDB 110400 RRA
BBXX
C6JE2 11044 99031 50373 41498 51019 10270 20226 40104 58010 70322
83242 22273 06275 21004 336// 41502 5//// 80240=
0000015900
597
FTXX90 KWBC 110530
TAF
TAF RJFR 110520Z 1106/1212 32009KT 9999 FEW030 SCT045
      BECMG 1113/1115 25005KT
      BECMG 1200/1203 28012KT=
0000158900
598
SIBW40 VGDC 110500
AAXX 11034
41858 31412 70902 10156 20140 30138 40186 71042 83520
333 20107 56290 59002 70000 83618 85460=
41863 31456 60501 10150 20120 30138 40183 70522 82530
333 20110 56990 59002 70000 82618 86362=
41886 31915 00000 10140 20130 30159 40181 71044 333
20100 58004 70000=
41895 31430 73501 10152 20130 30159 40183 70542 82550
333 20104 56990 59002 70000 82616 86362=
41909 31940 03202 10146 20140 30148 40161 70540 333
20106 59014 70000=
41915 31/01 93501 10128 20130 30155 40182 74744 89///
333 20088 59004 70000=
41926 31950 00000 10138 20130 30163 40177 70500 333
20097 59007 70000=
41929 NIL=
41933 31940 00000 10144 20130 30160 40169 70500 333
20110 59012 70000=
41939 31940 00000 10138 20130 40171 70544 333 20100
59009 70000=
41941 31950 00000 10177 20160 30171 40177 70520 333
20121 59011 70000=
41946 31950 00000 10170 20140 30158 40163 70500 333
20116 59009 70000=
41947 31920 00000 10156 20150 30172 40174 71044 333
20117 58000 70000=
41951 NIL=
41953 31940 00302 10185 20150 30157 40163 70500 333
20135 59008 70000=
41958 NIL=
41960 NIL=
41963 31930 03601 10185 20170 30158 40161 71000 333
20114 59011 70000=
41964 31956 00000 10190 20170 30169 40171 70500 333
20117 58007 70000=
41965 31950 00000 10195 20170 30155 40163 70500 333
20095 59007 70000=
41966 NIL=
41984 32958 00000 10172 20150 30159 40162 333 59005
70000=
41989 31930 00000 10180 20140 30159 40162 70500 333
20148 58000 70000=
41998 32956 00000 10201 20160 30157 40163 333 20096
58002 70000=
0000014200
599
UANT01 CWAO 110530
ARP AFL151 5229N05217W 0530 F370 5300N05000W 0541 5900N04000W MS69
 295/64 KT
VQBBF QXS YAY 110530 J87A
0000011000
600
UANT01 CWAO 110530
ARP AAL50 4927N04807W 0530 F340 MS62 308/63 KT
N726AN DDL YYT 110530 F42A
0000144200
601
SSVX08 KARS 110529
ZZYY 13009 10014 1200/ 707921 038091 6112/
444 20120 10014 1149/ 521//=
ZZYY 13009 11014 0500/ 707926 038099 6111/
444 20110 10014 2340/ 521//=
ZZYY 41139 10014 12004 720011 037854 6111/
11119 00712 10215 29077 40201
22219 00240
33311 88872 20000 32402 20001 32404 43696 20020 32402 43706
20040 32402 43702 20060 32404 43704 20080 32410 20100 32351
20120 32230 20140 32151 20180 31985 20300 31610 20500 31215
444 20110 10014 1145/ 521// 60401=
ZZYY 41139 11014 05004 720010 037838 6111/
11119 00708 10218 29077 40173
22219 00240
444 20110 11014 0523/ 521// 60401=
ZZYY 13002 10014 1200/ 720444 023132 6112/
33311 88872 20001 32153 43671 20020 32152 20040 32148 43670
20080 32043 20100 31854 20120 31779 20140 31775 20180 31731
20300 31467 20500 31069
444 20120 10014 1140/ 521//=
ZZYY 41026 10014 1200/ 711497 037983 6112/
33311 88872 20001 32570 43597 20060 32563 20080 32137 20100 31693
20120 31445 43565 20140 31329 20180 31230 20300 31062 20500 30906
444 20120 10014 1148/ 521//=
ZZYY 13008 10014 1200/ 714994 038020 6111/
33311 88872 20001 32512 43618 20020 32513 43661 20040 32513 43629
20060 32516 43626 20080 32353 20100 32087 20120 31912 20140 31785
20180 31541 20300 31159 20500 30887
444 20110 10014 1146/ 521//=
ZZYY 13008 11014 05004 715003 038028 6111/
11119 00710 10234 29072 40152
22219 00251
444 20110 11014 0344/ 521// 60401=
0000011100
602
UANT01 CWAO 110530
ARP GTI609 4846N05145W 0530 F370 MS64 300/45 KT
N851GT DDL YYT 110530 F21A
0000011100
603
UANT01 CWAO 110530
ARP DAL615 5806N05337W 0530 F360 MS57 281/51 KT
N185DN QXT AOW 110530 F96A
0000011000
604
UANT01 CWAO 110531
ARP BAW116 4942N03705W 0531 F390 MS53 250/33 KT
GVIIH QXT AOW 110531 F09A
0000011000
605
UANT01 CWAO 110531
ARP KLM214 5808N05117W 0531 F370 MS58 264/49 KT
PHAOF QXS UAK 110531 J37A
0000009200
606
SPIN90 VOCI 110530
SPECI VOCI 110530Z 14003KT 5000 HZ NSC 29/20 Q1014 NOSIG=
0000011400
607
SPIN90 VEGY 110530
SPECI VEGY 110530Z 06004KT 0800 -RA FEW010 BKN018 OVC080 15/15 Q1019 NOSIG =

0000011100
608
UANT01 CWAO 110531
ARP DAL264 5606N04903W 0531 F350 MS61 282/65 KT
N803NW DDL XXW 110531 J27A
0000010900
609
UANT01 CWAO 110531
ARP SIA25 5028N03316W 0531 F390 MS52 210/44 KT
9VSKR QXT EUA 110531 J47A
0000010000
610
SNAA17 LFVW 110500 RRA
AAXX 11054
89507 46/89 /3108 11257 29070 36886 4//// 5////=
0000016400
611
SNCZ64 OKPR 110500 CCA
AAXX 11051
11450 27/50 /3401 11008 21014 39741 40203 57007 71010
  333 60005
  555 12502 396// 50024 60026 70033 80039=
0000011000
612
SNBX40 EBBR 110500 CCA
AAXX 11051
06479 42960 02303 10022 20019 40159 57010 333 91105 91203=
00000000