0000003900
166
UECR01 GCXO 110600
NIL=
0000003900
167
ULCR01 GCXO 110600
NIL=
0000013400
168
SNRE20 FMEE 110700
AAXX 11074
61980 22565 11020 10307 20215 40151 81800
  333 58007 60005 81826 90710 91129 92437=
0000011800
169
SAOM32 OOMS 110700 RRA
METAR OOSA 110650Z 11014KT 080V140 9999 SCT025 26/16
Q1018 NOSIG  RH54 RMK01=
0000015700
170
SNVD03 CWAO 110700
BBXX
CFL24 11074 99438 70606 47499 62517 10028 21006 40285 56005 7//// 83/// 222// 0//// 10603 70017 333 83/14 83/33=

0000016200
171
SAUK39 EGRR 110650 RRA
METAR EGWU 110650Z 29008KT 9999 FEW025 07/05 Q1014 BLU NOSIG=
METAR EGXV 110650Z AUTO 27005KT 9999 FEW120/// 04/01 Q1011=
0000024100
172
SOAT10 KWAL 110703
FA8005BC 011070337 OT12 ID:KN-BASS-01 DT:2014 01 11 07 01
:RD -3162 -3135 -3156 -3130 -3151 -3133 -3145 -3143 -3144 -3154
:PR 0560 0508 0526 0552 0506 0496 0512 0502 0543 0480
:B 13.7V
 46+1NN 219E
0000012300
173
SMAG01 SABM 110600 RRE
AAXX 11064
87022 32960 20000 10260 20199 39542 40028 50001 82070 333  56050 82360=
0000075000
174
SABN32 OBBI 110700
METAR OMAA 110700Z 18005KT 130V280 9999 SCT045 19/11 Q1022 A3018
                   NOSIG=
METAR OMAD 110700Z 18005KT 140V220 CAVOK 19/11 Q1022 A3019 NOSIG=
METAR OMAL 110700Z 17010KT CAVOK 19/09 Q1023 A3022 BECMG 27008KT=
METAR OMDB 110700Z 10008KT 060V150 CAVOK 20/11 Q1022 NOSIG=
METAR OMDW 110700Z 11006KT 070V140 CAVOK 20/11 Q1023 NOSIG=
METAR OMFJ 110700Z 18004KT 130V220 9999 SCT020 BKN100 21/10 Q1023
                   A3021=
METAR OMRK 110700Z 15017KT CAVOK 20/11 Q1022 A3018=
METAR OMSJ 110700Z 14007KT 9999 FEW040 20/12 Q1023=
METAR OOMS 110650Z 09009KT 060V130 9999 FEW020 BKN200 21/07 Q1023
NOSIG=
METAR OOSA 110650Z 11014KT 080V140 9999 SCT025 26/16
Q1018 NOSIG  RH54 RMK01=
0000011000
175
UANT99 KDDL 110702
ARP EIN124 5310N02834W 0702 F380 MS56 221/52 KT
EIEDY DDL XXW 110702 J30A
0000011100
176
UANT99 KDDL 110702
ARP FIN1990 5730N02835W 0702 F380 MS57 215/61 KT
OHLQE QXT AOE 110702 J96A
0000010900
177
UANT99 KDDL 110702
ARP VIR2C 5340N02421W 0702 F380 MS57 220/45 KT
GVROC DDL XXN 110702 F11A
0000011000
178
UANT99 KDDL 110702
ARP AFR083 5557N02919W 0701 F360 MS59 220/59 KT
FGSPO QXT AOE 110702 F29A
0000011000
179
UANT99 KDDL 110702
ARP DAL89 5604N03707W 0702 F330 MS59 227/24 KT
N172DZ QXT AOW 110702 F54A
0000011100
180
UANT99 KDDL 110702
ARP NAX7006 5535N04135W 0702 F410 MS55 271/33 KT
EILNB QXT AOW 110702 L48A
0000011000
181
UANT99 KDDL 110702
ARP SWR53P 5037N02501W 0702 F370 MS59 202/64 KT
HBJHE QXT AOE 110702 J17A
0000074900
182
SNVD22 KWNB 110700 RRE
BBXX
46025 11071 99337 71191 46/// /1502 10150 20130 40189 51010 90650
22200 00154 11402 324// 41402 70010 333 91203 555 11022 22022
30550 41505 60649 150022 139029 143033 140034 151035 148038=
46054 11071 99343 71205 46/// /3310 10150 40190 52006 90650 22200
00139 11306 20603 331// 41305 70029 333 91212 555 11104 22113
30639 43212 60649 329097 327100 327101 327097 326092 328089=
46029 11071 99462 71245 46/// /1817 10102 20098 40031 57040 90650
22200 00093 10810 20809 326// 41404 70050 333 91221 555 11182
22196 30646 41921 60649 184170 185168 185166 184165 185166 184165=
46026 11071 99378 71228 46/// ///03 10090 90650 22200 11505 20401
327// 41505 70024 333 91204 555 11035 22037=
0000009200
183
SAMV31 VRMG 110700
METAR VRMG 110700Z 04004KT 9999 FW018 BKN260 30/25 Q1012=
0000046700
184
SNVD17 KWNB 110700 RRD
BBXX
46078 11071 99560 71526 46/// /2307 10030 20020 49955 56013 90650
22200 00045 11105 20502 323// 41104 70023 333 91210 555 11077
22081 30642 42310 60649 233075 233075 234072 227065 223071 222075
82309 90642=
46066 11071 99528 71550 46/// /1810 10050 49971 58020 90650 22200
00054 11105 20702 325// 41105 70026 333 91212 555 11110 22117
30644 41812 60649 175102 172097 175098 173093 172091 180083 81811
90626=
0000170500
185
SNVD15 KWNB 110700 RRC
BBXX
41047 11071 99275 70715 46/// /1108 10239 20231 40236 90650 22200
00255 10904 20603 311// 40903 70021 333 91209 555 11084 22088
30618 41011 60649 113080 108082 111077 108076 114073 117078 81109
90641=
42057 11071 99170 70815 46/// /0808 10268 20233 40147 58007 90650
22200 00275 10905 20503 311// 40904 70025 333 91209 555 11080
22084 30607 40910 60649 075075 078076 081075 083077 085076 087070
80709 90639=
42003 11071 99260 70856 46/// /1607 10255 40164 56007 90650 22200
00250 10702 20402 311// 40701 70011 333 91208 555 11073 22079
30621 41509 60649 156067 153067 153069 151066 151067 148064 81508
90623=
42055 11071 99222 70940 46/// /2104 10231 40143 54000 90650 22200
00228 10802 20401 306// 40802 70010 333 91205 555 11043 22048
30553 41706 60649 205040 200038 192039 180044 169046 168050 81705
90553=
41040 11071 99145 70530 46/// /0709 10249 20203 40142 57013 90650
22200 00262 10806 20804 307// 41005 70031 333 91211 555 11099
22104 30617 40814 60649 068093 073089 076098 073092 070085 068079
80812 90622=
41048 11071 99320 70695 46/// /1309 10205 20154 40273 56012 90650
22200 00213 11004 20703 313// 41002 70018 333 91210 555 11092
22097 30625 41410 60649 128087 128082 131083 124081 124083 124080
81309 90623=
44066 11071 99396 70726 46/// /1506 10123 20118 40222 58028 90650
22200 00112 10902 20501 317// 40901 70008 333 91207 555 11069
22076 60649 149063 149063 151062 150062 154062 153059=
42039 11071 99288 70860 46/// /1606 10215 20215 40162 56011 90650
22200 00212 10402 20402 70008 333 91207 555 11069 22074 30619
41608 60649 159063 160061 161064 161063 156063 160066 81607 90556=
00000000