0000199800
293
SMOS01 LOWM 110600
AAXX 11061
11010 31757 49901 11026 21026 39828 40223 57006 71141 333 21029
34106 83650=
11012 12260 21301 11012 21017 39733 40218 55004 60002 81541 333 10046 21012
3/103 55300 92601=
11022 12560 31701 10012 21020 39812 40209 55000 60002 83100 333 10045 20004
3/104 55300 83825=
11035 32680 51602 10004 21003 39954 40215 55002 81131 333 10066 20004
81640 84080=
11036 32682 41803 11014 21025 39989 40221 55001 333 21024 34104
83636=
11101 16/// /0401 10029 20025 39663 40196 50008 60002 333 10047 20015 3/102
55300=
11120 31125 82502 10014 20012 39504 40226 57005 71022 333 20014
34001 83702 86704=
11126 16/// /2903 10008 21053 37742 48495 57001 60002 333 10008 21030 55300=
11130 31430 82203 10031 20022 39615 40213 57003 71022 886// 333 10039
20030 88710 555 10061 6994/=
11146 32650 22812 11059 21096 36947 47055 53009 69902 82035 333 21090 49255
82335 91124=
11150 31862 69901 11001 21001 39659 40209 57006 71111 333 21006
31103 82358 85080=
11155 12588 42809 10020 21023 38355 48482 58002 69902 81141 333 10020 21038
3/105 48025 55300 81830 83075 91119 444 17053=
11157 32465 69901 11006 21009 39435 40228 57002 8554/ 333 21017 31104
81718 85657=
11171 16/// /1103 11027 21036 39186 40233 57002 60002 333 11007 21041 3/106
55300=
11190 12665 60601 10015 20000 39985 40213 50001 60002 865// 333 10054 20008
3/102 55300 86838=
11204 32670 30000 11050 21054 39436 40266 53002 81531 333 11006 21058
47020 81635 83080 555 10054 6000/=
11212 31/84 72513 11018 21061 37830 48500 51005 70243 81502 333 21045 44137
816// 87071 91115 92610 93199 444 26189 36072=
11231 31145 83303 10011 20010 39652 40238 52002 71022 333 20010
31001 82702 88703=
11240 31475 79901 10019 20005 39773 40222 53001 70242 333 21011
31104 84710 87359=
11244 16/// /0000 10043 20035 39884 40217 53002 60002 333 10047 20010 55300=
11389 12960 02003 11014 21019 39884 40222 56003 60002 333 10040 21015 3/103
55300=
0000234300
294
SMRO44 YRBK 110600
AAXX 11061
15000 02997 82506 10040 20040 39862 40183 52017 60002 8807/ 333 10049
20025
34101 55300 60007 70000 91008 91112 555 60000=
15007 02998 12303 11018 21050 39712 40201 52011 60002 81040 333 10049
21028
34103 60007 70000 91004 91104 555 60000=
15023 02998 42602 11002 21029 39738 40178 52012 60002 84070 333 10049
21007
34102 60007 70000 91002 91103 92600 555 60000=
15025 02597 62708 10035 21038 30042 40181 52015 60002 86500 333 10039
20014
31101 60007 70000 91010 91111 555 60000=
15056 02997 22606 10039 2//// 39832 40190 52012 60002 82040 333 10067
20034
31101 55300 0//// 20000 3//// 60007 70011 91007 91107 555 60000=
15069 02597 72205 11014 21027 39107 42800 53009 60002 84570 333 11003
21015
3/103 42998 60007 70000 91009 91109 555 60000=
15073 02598 22302 10001 21041 39721 40205 52011 60002 82500 333 10062
21021
34103 60007 70000 91003 91103 92600 555 60000=
15088 01/91 93212 11092 21092 37930 48369 53008 60002 74944 333 11067
21092
3//// 46004 60007 70000 91018 92723 92843=
15094 02997 22301 10036 21070 39712 40190 5//// 69902 82040 333 10042
20017
34101 60007 79999=
15109 02598 12802 10050 21045 39750 40192 53009 60002 81500 333 10076
20048
31100 60007 70000 91006 91106 555 32000 42000 50000 60000 70000=
15111 03/// /2603 10001 21026 39921 40194 53012 6///2 333 10050 21015
3////
4//// 6///7 7//// 91005 91105 555 6////=
15113 02597 20000 11016 21032 30044 40211 5//// 60002 81540 333 10058
21018
34105 60007 70000 92600=
15154 02997 13401 11025 21025 30049 40198 52012 60002 81030 333 10049
21030
34105 60007 70000 91002 91103 92611 555 60000=
15194 01597 12905 10058 21036 39905 40204 52009 60002 703// 81500 333
10096
20037 31102 60007 70000 91008 91111 555 60000=
15197 02997 02703 10023 21025 39989 40206 53012 60002 333 10048 20000
34103
55300 0//// 20000 3//// 60007 70000 92600 555 60000=
15219 02998 03106 10052 21010 30066 40193 52008 60002 333 10064 20012
31102
553// 60007 70000 91011 91112 555 60000=
15264 02997 02801 11012 21027 30146 40220 52021 60002 333 10125 21017
34105
60007 70000 91003 91103 92600 555 60000=
15265 02997 01804 10000 21020 30133 40211 53017 60002 333 10069 21001
34103
55300 0//// 20000 3//// 60007 70000 91007 91107 92600 555 60000=
0000080400
295
SMNL10 EHDB 110600
AAXX 11061
06206 46/// /2310 10075 20072 30025 40078 56016
333 20073 91012 91113 91211=
06207 47461 62311 10080 20061 30032 40086 56015 75286 8////
333 20079 81/12 84/32 86/36 91012 91114 91212=
06239 47162 82510 10074 20074 39993 40054 55013 75186 8////
333 20071 83/03 87/04 88/05 91012 91116 91213=
06252 46/// /2213 10085 20074 30043 40089 56014 222// 00096 10605
333 20083 91016 91116 91213=
06260 17256 82005 10044 20031 30134 40136 57012 60002 71000 8////
333 20044 3/004 79999 88/06 91007 91110 91207=
06270 17240 82107 10056 20047 30107 40107 56012 69962 75885 8////
333 20043 3/004 70006 84/05 88/06 91011 91112 91208=
06290 17258 82006 10034 20022 30096 40137 58012 60002 71000 8////
333 20034 3/003 70000 88/06 91008 91109 91206=
0000040700
296
SXXX32 EUMS 110600
262D700E
:PRS 1 /1 2365 2385 2391 2427 2415 2432 2433 2404 2384 2353 2445 2421 2458 2454 2418 2426 2440 2474 2472 2477 2480 2472 2513 2488 2482 2489 2510 2518 2513 2506 :RAD 1 /3 4857 4868 4880 4895 4905 4919 4945 4962 4972 4993 5012 5017 5032 5059 5065 :ENC 5 /5 4954 4983 4994 5035 5049 5092 5096 5150 5147 5192 5228 5226 :SW1 60 /60 15 :BAT 14 /15 14.1 :NAME 262D700E
0000045500
297
SXXX32 EUMS 110600 RRA
324DF524
:PRS 1 /1 4012 4011 4010 4008 4007 4005 4003 4001 3999 3997 3994 3992 3989 3986 3983 3979 3976 3972 3968 3964 3960 3956 3951 3946 3942 3937 3933 3928 3923 3918 :RAD 1 /3 4049 4043 4038 4028 4017 4002 3988 3974 3959 3942 3923 3906 3893 3877 3858 3838 3817 3797 3774 3750 :ENC 5 /5 2975 2964 2949 2929 2906 2881 2856 2827 2798 2765 2728 2692 :SW1 60 /60 0 0 :SW2 30 /60 60 60 :BAT 14 /15 13.2 :NAME 324DF524
0000041500
298
SXXX32 EUMS 110601
26CB10AC
:PRS 1 /1 -1338 -1338 -1338 -1338 -1339 -1339 -1339 -1339 -1339 -1339 -1339 -1339 -1338 -1340 -1339 -1339 -1338 -1339 -1338 -1338 -1339 -1339 -1339 -1339 -1339 -1339 -1339 -1339 -1340 -1339 :RAD 3 /3 5967 5976 5982 5992 5994 6004 6008 6012 6017 6025 :RA2 3 /3 5923 5939 5938 5959 5952 5968 5967 5980 5980 5985 :SW1 2 /60 15 :SW2 32 /60 1 :BAT 14 /15 13.2 :NAME 26CB10AC
0000044900
299
SXXX32 EUMS 110601 RRA
1227146C
:PRS 1 /1 2682 2681 2680 2681 2684 2683 2686 2684 2685 2687 2687 2689 2689 2691 2691 2691 2691 2691 2689 2692 2692 2694 2693 2697 2696 2696 2697 2698 2698 2699 :RAD 3 /3 2681 2674 2669 2677 2699 2682 2685 2684 2685 2689 2684 2694 2705 2706 2719 2729 2732 2723 2737 2738 :ENC 1 /5 3421 3425 3429 3430 3435 3439 3447 3457 3467 3478 3487 3493 :SW1 2 /60 0 :SW2 32 /60 60 :BAT 14 /15 13.5 :NAME 1227146C
0000044400
300
SXXX32 EUMS 110603
22856700
:PRS 1 /1 3516 3511 3506 3503 3498 3498 3496 3490 3483 3484 3484 3482 3478 3476 3474 3467 3468 3476 3472 3462 3457 3461 3452 3444 3443 3436 3431 3431 3431 3429 :RAD 1 /3 7002 6991 6983 6976 6966 6960 6951 6938 6925 6918 6910 6905 6897 6886 6881 6873 6862 6851 6841 6836 :ENC 3 /5 5198 5183 5171 5164 5141 5125 5115 5101 5085 5074 5058 5038 :SW1 3 /60 0 :SW2 33 /60 0 :BAT 14 /15 13.1 :NAME 22856700
0000045000
301
SXXX32 EUMS 110603 RRA
32D8A2BE
:PRS 1 /1 2011 2010 2020 2010 2016 2019 2016 2019 2015 2021 2017 2019 2026 2013 2026 2032 2029 2019 2028 2029 2025 2024 2025 2032 2033 2031 2029 2030 2030 2038 :RAD 1 /3 7592 7595 7590 7592 7595 7600 7606 7606 7616 7618 7619 7611 7610 7615 7618 7610 7610 7612 7612 7615 :ENC 3 /5 5022 5021 5026 5030 5034 5032 5036 5039 5041 5040 5041 5043 :SW1 3 /60 15 :SW2 33 /60 33 :BAT 14 /15 13.4 :NAME 32D8A2BE
0000010200
302
SAIN90 VOCB 110600
METAR VOCB 110600Z 05003KT 4000 HZ SCT015 BKN080 25/18 Q1017 NOSIG=
0000012700
303
UXIN90 VOTV 110600
PPAA 1106/ 43369 ASCENT NOT COMPUTED LOW CLOUDS=
PPAA 1106/ 43311 NO ASCENT LOW CLOUDS=

0000011000
304
SMIN90 VOHY 110600
AAXX 11064
43081 32597 20902 10260 20181 39722 40150 82500
  333 58010=
0000011000
305
SMIN90 VOMM 110600
AAXX 11064
43377 31996 00216 10280 20201 30092 40133 70500
  333 58009=
0000075900
306
SMIN90 VAAH 110600
AAXX 11064
42647 31995 00206 10190 20096 40188 70400
  333 58024=
42539 32996 03605 10166 20064 40198
  333 58029=
42748 31996 20508 10200 20071 40178 70400 80001
  333 58022 82070=
42840 32996 03604 10186 20109 40187
  333 58018=
42737 32996 00712 10176 20041 40193
  333 58014=
42838 31996 00211 10184 20074 40186 70400
  333 58021=
42830 32996 00914 10206 20021 40199
  333 58014=
42909 32997 00208 10202 20046 40185
222// 20000
  333 58011=
42731 32596 23608 10206 20063 40202 82500
222// 20000
  333 58012=
42730 32996 00905 10194 20072 40212
222// 20000
  333 58016=
42634 32996 00502 10188 20059 40201
  333 58024=
42631 32997 00708 10186 20061 40212
  333 58023=
0000011000
307
SMIN90 VABB 110600
AAXX 11064
43111 32997 12006 10212 20076 38652 48533 80001
  333 59001=
0000007100
308
UPIN90 VAAH 110600
PPAA 61051 42647 55192 06514 77999=

0000008700
309
SAIN90 VOMY 110600
METAR VOMY 110600Z 090/06KT 6000 FEW015 28/17 Q1017=
0000013600
310
SMIN90 VOPB 110600
AAXX 11064 43333
31495 70706 10292 20234 40134 70521 86401 333  56109  58009  83616 84818 86070=

0000012200
311
SXIN90 VISM 110600
AAXX 11064
42000 AMS KNG 31696 12302 10158 20031 39318 40203 70500 81100 333
58003=
0000012900
312
SXIN90 VISM 110600
AAXX 11064
42000 AMS KNG RECTIV 31696 12302 10158 20031 39318 40203 70500 81100
333 58008=
00000000