0000134600
033
SMMI01 GABS 110600
AAXX 11064
61202 NIL=
61214 NIL=
61223 NIL=
61226 NIL=
61230 32960 63604 10194 20043 3//// 4//// 83042
  333 01400 20174 50744 55059 5//// 83365 85075=
61233 32960 70000 10235 20074 39821 40115 87072
  333 01300 20235 50654 55095 58011 87365=
61235 32960 70000 10230 20052 39996 40108 83042
  333 01500 20225 50904 55070 59015 83365 85075=
61240 NIL=
61250 NIL=
61257 32960 42804 10222 20090 30057 40113 84040
  333 0//00 20219 50804 55060 58020 84365=
61265 32960 40606 10184 20053 39810 40115 81042
  333 01100 20155 50981 55100 58005 81365 84075=
61270 32960 00000 10199 20099 39742 40113
  333 01300 20193 50944 55069 58008=
61272 32960 30000 10224 20081 39795 40116 80002
  333 01400 20222 50743 55094 58013 83075=
61277 32960 00000 10196 20068 39800 40121
  333 01800 20190 50831 55097 58009=
61285 32960 60000 10207 20098 39969 40119 85072
  333 01200 20203 50724 55079 58016 85365 83075=
61291 32960 20204 10175 20097 39692 40101 81042
  333 01900 20175 50921 55095 58005 81362=
61293 32960 00000 10185 20103 39694 40098
  333 01600 20185 50930 55090 58002=
61296 32960 60000 10192 20126 39709 40099 80002
  333 01700 20173 50680 55088 58001 86075=
61297 32960 31202 10206 20094 39639 40095 80002
  333 01800 20197 50991 55102 58000 83075=
0000011000
034
UANT99 KDDL 110631
ARP VIR16B 4442N03108W 0631 F380 MS48 218/52 KT
GVROM DDL XXH 110631 F77A
0000010900
035
UANT99 KDDL 110631
ARP MGSIX 4442N02026W 0630 F450 MS52 250/40 KT
MGSIX QXT AOE 110631 A92A
0000011000
036
UANT99 KDDL 110631
ARP AAL56 4638N02126W 0631 F350 MS59 217/74 KT
N724AN DDL XXN 110632 F88A
0000011100
037
UANT99 KDDL 110632
ARP UPS210 6131N02413W 0632 F320 MS54 221/25 KT
N359UP QXS REK 110632 F25A
0000011100
038
UANT99 KDDL 110632
ARP DAL408 4901N01753W 0632 F350 MS64 238/59 KT
N172DN QXT AOE 110632 F37A
0000011000
039
UANT99 KDDL 110632
ARP ETD130 5529N04614W 0632 F330 MS61 292/73 KT
A6EHJ QXT AOW 110632 J34A
0000011100
040
UANT99 KDDL 110632
ARP AAL104 5200N02009W 0632 F400 MS52 245/50 KT
N778AN DDL XXW 110632 F46A
0000024100
041
SOAT10 KWAL 110633
FA8005BC 011063337 OT12 ID:KN-BASS-01 DT:2014 01 11 06 31
:RD -3159 -3151 -3136 -3155 -3190 -3173 -3203 -3162 -3164 -3156
:PR 0538 0523 0469 0499 0483 0537 0463 0483 0512 0553
:B 13.7V
 46+1NN 219E
0000013600
042
UPBZ03 SBBR 110000 RRA
PPAA 61008 83566 44385 06514 06512 05518 44340 04026 06014
06508 44320 13017 07517 08010 77999=
0000257300
043
FXCI02 BABJ 110624
SHAI OBSY SYNOPTIC SITUATION 110000Z
COLD FRONT FROM 47N 108E PASSING 40N 106E TO 35N 99E
HIGH 1068HPA AT 46N 97E MOVING SE 5 KTS
HIGH 1053HPA AT 56N 115E MOVING SE 5 KTS
HIGH 1035HPA AT 34N 121E MOVING ELY 5 KTS
24 HOUR WEATHER FORECAST FROM 110800Z
BOHAI SEA X CLOUDY X W TO SW WINDS FORCE 5 TO 6 BECOMING N TO
NE WINDS FORCE 7 TO 8 TONIGHT X SEA SLIGHT TO MODERATE BECOMING SEA
ROUGH TO VERY ROUGH X
BOHAI STRAITS X CLOUDY X NW WINDS FORCE 5 TO 6 BECOMING NLY
WINDS FORCE 6 TO 7 IN THE AFTER MIDNIGHT X SEA SLIGHT TO MODERATE
BECOMING
SEA ROUGH X
NORTH HUANGHAI SEA X CLOUDY X N TO NW WINDS FORCE 5 TO 6 BECOMING
NLY WINDS FORCE 6 TO 7 IN THE AFTER MIDNIGHT X SEA MODERATE BECOMING
SEA ROUGH X
CENTRAL HUANGHAI SEA X CLOUDY X NW WINDS FORCE 5 TO 6 BECOMING
NLY WINDS FORCE 6 TO 7 TOMORROW FORENOON X SEA MODERATE BECOMING SEA
ROUGH X
SOUTH HUANGHAI SEA X OVERCAST WITH LOCAL SHOWER BECOMING CLOUDY
X NE WINDS FORCE 5 TO 6 BECOMING NLY WINDS FORCE 6 TO 7 TOMORROW
FORENOON
X SEA MODERATE BECOMING SEA MODERATE TO ROUGH X
SHANGHAI HARBOUR X OVERCAST WITH SHOWER X ELY WINDS BACKING
TO NE WINDS TONIGHT FORCE 3 TO 4 SEA SMOOTH INSIDE HARBOUR X
ELY WINDS
FORCE 3 TO 4 BECOMING NE WINDS FORCE 4 TO 5 TONIGHT SEA SMOOTH
BECOMING
SEA SLIGHT OUTSIDE HARBOUR X
NORTH DONGHAI SEA X OVERCAST WITH SHOWER X N TO NE WINDS FORCE
5 TO 6 BECOMING NLY WINDS FORCE 6 TO 7 TOMORROW FORENOON X SEA
MODERATE
BECOMING SEA ROUGH X
SOUTH DONGHAI SEA X OVERCAST WITH SHOWER X NE WINDS FORCE 5
TO 6 BECOMING NLY WINDS FORCE 6 TO 7 TOMORROW FORENOON X SEA MODERATE
BECOMING SEA ROUGH X
NORTH TAIWAN X OVERCAST WITH SHOWER X NE WINDS FORCE 6 TO 7
X SEA MODERATE TO ROUGH X
TAIWAN STRAITS X CLOUDY X NE WINDS FORCE 6 TO 7 INCREASING TO
7 TO 8 TOMORROW AFTERNOON X SEA ROUGH BECOMING SEA ROUGH TO
VERY ROUGH X
EAST TAIWAN X OVERCAST WITH SHOWER X ELY WINDS BACKING TO NE
TO E WINDS TOMORROW FORENOON FORCE 6 X SEA MODERATE TO ROUGH X
CHEJU X CLOUDY X NW WINDS FORCE 5 TO 6 INCREASING TO 6 TO 7
TOMORROW FORENOON X SEA MODERATE BECOMING SEA MODERATE TO ROUGH X
NAGASAKI X OVERCAST WITH SHOWER X NLY WINDS FORCE 5 TO 6 INCREASING
TO 6 TO 7 TOMORROW AFTERNOON X SEA MODERATE BECOMING SEA ROUGH X
KAGOSHIMA X OVERCAST WITH SHOWER X NLY WINDS FORCE 5 TO 6 INCREASING
TO 6 TO 7 TOMORROW AFTERNOON X SEA MODERATE BECOMING SEA ROUGH X
RYUKYU X OVERCAST WITH SHOWER X ELY WINDS FORCE 5 TO 6 BECOMING
NE TO E WINDS FORCE 6 TOMORROW AFTERNOON X SEA MODERATE TO ROUGH X
STOP=
0000076700
044
SMIN04 DEMS 110600
AAXX 11064
42634 32996 00502 10188 20059 40201
  333 58024=
42647 31995 00206 10190 20096 40188 70400
  333 58024=
42737 32996 00712 10176 20041 40193
  333 58014=
42840 32996 03604 10186 20109 40187
  333 58018=
42909 32997 00208 10202 20046 40185
222// 20000
  333 58011=
42921 32996 21602 10208 20006 40160 80001
  333 58010 82075=
43003 31995 03604 10240 20030 40163 70400
  333 58015=
43014 32996 10000 10230 20062 39500 40148 80001
  333 58011 81075=
43063 31996 00000 10234 20093 39521 40145 70500
  333 58009=
43110 31996 02906 10256 20097 40156 70544
  333 58009=
43117 32997 01601 10272 20114 40138
  333 59001=
43192 31596 23204 10284 20169 40150 70510 82400
  333 58013=
0000009300
045
SAIN90 VECC 110600 RRA
METAR VECO 110600Z 29004KT 5000 HZ BKN100 18/12 Q1019=
0000144900
046
SMCI35 BABJ 110600
AAXX 11061
50548 NIL=
50564 32965 00000 11239 21306 40272 57003 333 21359=
51334 11923 72501 11188 21227 40468 57016 69901 70570 87///
333 05151 21255=
51818 32965 02001 11020 21132 38773 40431 57002 333 00500
21135=
52378 32980 92909 11061 21217 40427 57013 333 00602 21136=
53487 32976 22906 11008 21222 40330 57029 82/// 333 21202=
53502 32963 02906 11019 21225 40401 57018 333 00403 21160=
53923 32980 73203 11003 21211 40346 57023 87/// 333 21069=
54049 32970 02906 11066 21202 40259 57015 333 21171=
54115 32980 93206 11061 21249 40304 57007 333 21203=
54157 32958 02005 11045 21148 30043 40262 57025 333 21184=
54186 32970 72903 11075 21191 40268 57018 87/// 333 21205=
54311 32969 92906 11030 21217 40299 57024 333 21199=
54346 32969 02703 11003 21194 30039 40282 57029 333 21165=
54377 32970 01101 11052 21158 30004 40302 57032 333 21200=
54386 32970 01105 11069 21236 39290 40289 57030 333 21255=
54493 32972 02504 11024 21172 40298 57025 333 21187=
54587 NIL=
54715 31962 82004 10058 21033 40294 57034 70040 88/// 333
21076=
54929 31931 21801 10061 21058 30154 40310 57031 70500 82///
333 21037=
54945 31957 01402 10052 21026 40312 57027 70500 333 21016=
56065 32975 72702 11068 21211 36612 57020 87/// 333 00654
21191=
57193 32960 21102 10091 21063 40306 57031 82/// 333 20003=
57290 31955 63602 10072 21031 40310 57027 70500 86/// 333
20011=
0000024900
047
SMAA14 EGRR 110600
AAXX 11064
89257 46/// /2704 11107 21124 39844 49916 57005=
89262 46/// /3106 11081 21093 39925 49970 57011=
89266 46/// /2709 11027 21096 39792 49931 57009=
89272 46/// /0210 11215 21259 38109 49822 57009=
0000016800
048
SMUK01 EGRR 110600 CCA
AAXX 11064
03171 12681 22512 10009 21006 30070 40082 52006 60002 81530
  333 21006 31106 55001 55300 20000 79999 81645 92600=
0000059800
049
SMVA01 EGRR 110600
BBXX
OZCZ2 11064 99253 10550 41297 71415 10200 20109 40210 7//// 877//
22200 00200 2//// 80150=
ZDLS1 11063 99600 50244 41599 71106 11012 21020 40082 54000 70222
874// 22263 04016 20300 318// 40601 82014 ICE 0/150=
VRKJ7 11063 99130 50350 41498 31008 10260 20212 40125 57006 70122
831// 22244 00300 20301 80228=
AMOUK01 1106/ 99600 50244 46/// ///// 11020 21049 40068=
OVSB2 11060 99184 70177 41498 20106 10182 20147 40154 57005 70200
821// 22244 04198 20102 336// 41303 5//// 80160=
UCJP 11061 99002 70200 41/98 91713 10230 40113 54000 70022=
0000044200
050
SMVB01 EGRR 110600
BBXX
DCPY2 11063 99303 11245 41298 83306 10131 20093 40290 54000 70322
8/700 22263 00160 20502 334// 40803 80110=
AMOHK01 1106/ 99225 11139 46/// ///// 10194 20112 40218=
S6TV 11061 99063 10781 41197 32213 10250 20250 40114 51/// 75055
82222 2229/ 04290 20604 3//// 4//// 5//// 80250=
MCCN6 11064 99124 11011 41598 60905 10281 20208 40140 58019 70511
81106 22200 00295 20100 311// 40703 80232=
0000019900
051
SMVC01 EGRR 110600
BBXX
VRKJ7 11063 99130 50350 41498 31008 10260 20212 40125 57006 70122
831// 22244 00300 20301 80228=
AMOUK20 1106/ 99542 50367 46/// ///// 10019 20010 49924=
0000255400
052
SMZA02 FAPR 110600
AAXX 11064
68183 32575 71810 10223 20191 39465 48557 53007 84570
      333 20221 91016 555 10341 91018=
68188 16/// /2104 10214 20184 39235 48563 53013 60104
      333 20204 91008 555 10333 20106 91021=
68268 16/// /0214 10205 20183 39091 48726 52020 60014
      333 20205 91023 555 10365 20012 60105 91042=
68272 16/// /2603 10221 20195 39103 48550 56001 60144
      333 20195 91005 555 10366 20142 91020=
68296 16/// /1904 10240 20215 39845 48567 52012 69964
      333 20215 91009 555 10395 20006 91015=
68322 32982 01506 10236 20052 39157 48535 52012
      333 20151 91009 555 10346 91017=
68338 32880 21405 10247 20052 38792 48540 52011 81075
      333 20129 91010 555 10325 91020=
68345 16/// /0711 10223 20147 38689 48533 52012 60014
      333 20160 91015 555 10308 20012 91021=
68362 36/// /0607 10197 20134 38533 48536 52005
      333 20121 91013 555 10303 91022=
68400 32780 31906 10272 20178 30085 40157 52007 82545
      333 20232 91014 555 10346 91016=
68408 32/// /1407 10179 20132 30153 40162 52005
      333 20127 91010 555 10235 91016=
68416 32984 01405 10194 20056 39056 48531 52007
      333 20139 91010 555 10287 91018=
68478 12470 80803 10177 20153 38865 48518 53005 60144 885//
      333 20163 91007 555 10328 20148 91018=
68488 12/// /2002 10201 20131 39305 48556 52007 69924
      333 20173 91004 555 10293 20002 91020=
68494 36/// /2103 10226 20162 30050 40180 53013
      333 20206 91007 555 10295 91018=
68524 32986 01106 10215 20104 39080 48539 52011
      333 20159 91011 555 10303 91019=
68546 36/// /1704 10202 20115 38680 48530 52007
      333 20129 91009 555 10293 91020=
68558 16/// /2302 10165 20104 38215 48530 52005 69924
      333 20089 91003 555 10248 20002 91023=
68570 NIL=
68580 12452 83603 10167 20159 38993 48552 52007 60024 886//
      333 20151 91005 555 10244 20026 91022=
68614 32980 10000 10197 20128 30123 40172 52006 80004
      333 20128 91002 555 10277 91017=
68624 32982 00603 10178 20090 38768 48529 52005
      333 20123 91006 555 10268 91020=
68674 NIL=
68712 32970 11813 10162 20129 30106 40180 52011 80004
      333 20137 91017 555 10208 91018=
68718 NIL=
68722 NIL=
68814 NIL=
68832 36/// /0302 10180 20092 39227 48547 52003
      333 20123 91004 555 10218 91020=
68916 36/// /0708 10164 20126 39916 40185 53006
      333 20154 91016 555 10225 91018=
68920 NIL=
68928 36/// /2003 10189 20142 30022 40182 53005
      333 20157 91007 555 10223 91018=
00000000