0000010600
253
SAUS73 KWBC 102000 RRE
METAR
KIKK 102015Z AUTO 22003KT 1 1/4SM RA OVC005 02/02 A2982=

0000030900
254
SAUS75 KWBC 102000 RRD
METAR
PADK 102016Z AUTO 22018G30KT 10SM SCT022 BKN029 BKN034 03/01
     A2895=
PAGS 102016Z AUTO 10007KT 10SM SCT016 BKN024 BKN033 02/01
     A2950=
PAUN 102016Z AUTO 09018KT 10SM BKN048 M14/M21 A2960=
PAVD 102016Z 10SM FEW010 FEW040 BKN100 M04/M06 A2939=

0000140500
255
FTTH32 VTBB 101700 RRA
TAF VTSB 101700Z 1018/1118 00000KT 4000 BR FEW020 BKN300
    BECMG 1101/1103 05010KT 9999 NSW 
    BECMG 1114/1116 00000KT 5000BR=
TAF VTSM 101700Z 1018/1118 00000KT 7000 FEW020 BKN300
    BECMG 1101/1103 12010KT 9999
    BECMG 1114/1116 00000KT 7000=
TAF VTSC 101700Z 1018/1118 00000KT 7000 FEW020 BKN300
    TEMPO 1020/1102 VRB10KT 4000 SHRA SCT016 BKN110
    BECMG 1101/1103 13008KT 9999 SCT020 BKN300 
    TEMPO 1106/1112 VRB15KT 4000 SHRA FEW016CB BKN020 OVC110
    BECMG 1114/1116 00000KT 8000 FEW020 BKN300=
TAF VTSK 101700Z 1018/1118 00000KT 8000 FEW020 BKN300
    TEMPO 1020/1102 VRB10KT 4000 SHRA SCT016 BKN110
    BECMG 1101/1103 12008KT 9999 SCT020 BKN300 
    TEMPO 1109/1115 VRB15KT 4000 SHRA FEW016CB BKN020 OVC110
    BECMG 1114/1116 00000KT 9000 FEW020 BKN300=
TAF VTSF 101700Z 1018/1118 00000KT 4000 BR FEW020 BKN300
    BECMG 1101/1103 08012KT 9999 NSW SCT020 BKN300
    BECMG 1114/1116 00000KT 8000 FEW020 BKN300=
TAF VTSH 101700Z 1018/1118 00000KT 8000 FEW020 BKN300
    TEMPO 1020/1102 VRB10KT 4000 SHRA SCT016 BKN110
    BECMG 1101/1103 06008KT 9999 NSW
    TEMPO 1109/1115 VRB15KT 4000 SHRA FEW016CB BKN020 OVC110
    BECMG 1114/1116 00000KT=
TAF VTSE 101700Z 1018/1118 00000KT 4000 BR FEW020
    BECMG 1101/1103 12008KT 7000 NSW FEW020 SCT300
    BECMG 1114/1116 00000KT 5000 BR FEW020=

0000012000
256
SPCN31 CWAO 102020
SPECI CYZX 102020Z 21008KT 10SM -SHSN OVC024 RMK SC8 WNDY HILL UNAVBL
VIS LWR W=

0000013300
257
SAMP31 LMMM 102030
METAR HLLT NIL=
METAR HLLB NIL=
METAR LMML 102015Z 22004KT 170V260 CAVOK 14/11 Q1023 NOSIG=

0000021000
258
SAHK31 VHHH 102000 RRA
METAR RPLL 102000Z 07004KT 040V120 9999 FEW023 SCT100 22/19 Q1015   
              NOSIG RMK A2998=
METAR RPVM 102000Z 02012KT 9999 SCT020 OVC090 26/22 Q1011 A2986=

0000013100
259
SALT31 EYVI 102020
METAR EYVI 102020Z 28017G28KT 7000 -SHRA BKN010 OVC017CB 02/01 Q0995
     R20/2/0295 NOSIG=

0000010000
260
SAUK31 EGGY 102020 RRA
METAR EGKK 102020Z 21008KT 9999 BKN007 OVC010 08/07 Q1014=

0000009700
261
SPCN42 CWAO 102025
SPECI CYUA 102025Z AUTO 29021KT 1 1/4SM -SN CLR M25/ A2977=

0000032100
262
SAAF17 LFPW 102000 RRA
METAR HEAX 102000Z 33005KT 9999 FEW020 16/10 Q1022 NOSIG=
METAR HEGN 102000Z 30010KT CAVOK 14/09 Q1021 NOSIG=
METAR HELX 102000Z 14004KT CAVOK 13/08 Q1022 NOSIG=
METAR HEMM 102000Z 27006KT 9999 BKN020 13/09 Q1024 NOSIG=
METAR HESN 102000Z 33003KT CAVOK 13/02 Q1022 NOSIG=

0000008500
263
SPCN51 CWAO 102026
SPECI CWOB 102026Z AUTO 14002KT CLR M19/ A2910=

0000142300
264
SPUS70 KWBC 102026
SPECI
KBTL 102022Z 17012KT 3SM BR OVC003 02/01 A2990 RMK AO2
     T00220006=
KGVL 102022Z AUTO 07005KT 1SM BR OVC003 09/08 A3014 RMK AO2=
KMCB 102022Z AUTO 16011KT 10SM BKN012 OVC045 18/14 A2995 RMK AO2
     T01780139=
KOFP 102022Z AUTO 00000KT 2 1/2SM -RA BR OVC004 04/03 A3033 RMK
     AO2 P0001 T00390033=
KPPF 102021Z AUTO 21011KT 10SM FEW010 SCT016 BKN026 12/09 A2956
     RMK AO2 T01170089=
KSPW 102022Z AUTO 16011KT 3/4SM BR OVC002 M01/M02 A2955 RMK AO2
     T10111017=
KUIN 102022Z AUTO 16010KT 2 1/2SM RA BR BKN006 OVC055 04/03 A2962
     RMK AO2 P0006 T00440033=
KABY 102023Z 05005KT 3SM BR OVC004 14/13 A3011 RMK AO2=
KBED 102023Z 20003KT 7SM SCT012 BKN031 OVC038 01/M01 A3036 RMK
     AO2=
KCMI 102023Z 17018G24KT 2 1/2SM -RA BR OVC004 04/03 A2979 RMK AO2
     P0002=
KDAN 102023Z AUTO 05005KT 7SM -RA SCT005 OVC010 03/02 A3026 RMK
     AO2 P0001=
KIOW 102023Z AUTO 14008KT 1 1/4SM BR OVC002 01/01 A2963 RMK
     AO2=
KLEB 102023Z 00000KT 9SM OVC029 M02/M06 A3031 RMK AO2
     T10171061=
KLWV 102023Z AUTO 17010KT 1 1/2SM -RA BR BKN040 OVC050 06/05 A2991
     RMK AO2 P0002 T00560050=
KOSH 102023Z 14009KT 3SM BR OVC007 M01/M02 A2976 RMK AO2 I1000
     T10061022=
KOWD 102023Z 17003KT 2 1/2SM BR OVC023 02/01 A3038 RMK AO2
     T00170011=
KYIP 102023Z 15011KT 2 1/2SM HZ OVC006 04/01 A3000 RMK AO2
     P0002=

0000009300
265
SPUS43 KWBC 102026
SPECI
KBTL 102022Z 17012KT 3SM BR OVC003 02/01 A2990=

0000010200
266
SANO36 ENMI 102020 RRA
METAR ENNM 102020Z 06015KT 9999 FEW045 SCT080 M08/M14 Q1005=

0000012200
267
SAMO31 ZMUB 102030
METAR ZMUB 102030Z VRB01MPS 5000NW FU NSC M33/M36 Q1025 NOSIG RMK
 QFE660.8 71 NT=

0000010600
268
SAUK37 EGGY 102020 RRA
METAR EGNH 102020Z 25006KT 5000 -RADZ SCT003 BKN008 08/07 Q1008=

0000040500
269
SAFI34 EFHK 102020
EFET 102020Z AUTO 00000KT CAVOK M30/M33 Q1013=
EFIV 102020Z AUTO 24003KT 9000 OVC005 M31/M34 Q1016=
EFKE 102020Z AUTO 02014KT 5000 -SN OVC036 M13/M15 Q1007=
EFKI 102020Z 05014KT 9999 -SN BKN022 BKN048 M10/M13 Q0999=
EFKS 102020Z 05006KT 360V090 9999 -SG SCT016 SCT037 BKN063 M16/M19
Q1005 R12/72//95=
EFKT 102020Z AUTO 03006KT 350V080 CAVOK M19/M21 Q1013=

0000029900
270
FTUS43 KWBC 102027 AAA
TAF AMD
KAPN 102023Z 1020/1118 15010KT 6SM BR OVC015
     FM110000 16009KT 3SM -SNPL BR OVC008
     FM110200 15009KT 2SM -FZRAPL BR OVC008 WS020/20040KT
     FM110500 14009KT 2SM -RA BR OVC005 WS020/20040KT
     FM111100 18005KT 3SM -DZ BR OVC005=

0000018800
271
FTUS72 KWBC 102027 AAA
TAF AMD
KANB 102025Z 1020/1118 08007KT 4SM -DZ BR BKN007 OVC015
      TEMPO 1020/1023 SCT007 BKN015
     FM110400 14010KT 2SM -RA BR OVC004=

0000014000
272
FTUS74 KWBC 102027 AAA
TAF AMD
KSNA 102025Z 1020/1118 22006KT 5SM HZ FEW250
     FM110700 VRB03KT 4SM HZ VCFG SCT005=

00000000