0000011000
346
UANT99 KDDL 110704
ARP QTR702 5425N03811W 0704 F310 MS56 236/18 KT
A7BAG QXT AOW 110704 F26A
0000011000
347
UANT99 KDDL 110704
ARP TAY010 5501N01602W 0703 F340 MS60 260/62 KT
OOTSC QXT EUA 110704 F04A
0000032800
348
SNVD22 KWNB 110700 RRH
BBXX
46244 11071 99409 71244 46/// ///// 1//// 90651 22200 00109 11407
21004 331// 41406 70036=
46240 11071 99366 71219 46/// ///// 1//// 90651 22200 00126 11302
21001 335// 41302 70012=
46236 11071 99368 71219 46/// ///// 1//// 90652 22200 00124 11304
21002 329// 41303 70020=
0000013500
349
SNVD02 CWAO 110700
BBXX
SHIP 11074 99497 70556 46/// /1001 11036 21087 40148 58003 7//// 8//// 22261 00016 2//// =

0000008900
350
UABZ22 SBBS 110704
ARP GLO1833 R021 CNF 120NM 0658 FL400 MS57 191/17 =

0000013800
351
SNVD22 KWNB 110700 RRI
BBXX
46237 11071 99378 71226 46/// ///// 1//// 90701 22200 00109 11404
21002 328// 41404 70020=
0000011100
352
UANT99 KDDL 110704
ARP RCH248 5302N03953W 0704 F330 MS57 310/34 KT
66168A DDL XXN 110704 F51A
0000011100
353
UANT99 KDDL 110704
ARP AFR6735 5053N04030W 0704 F370 MS55 315/31 KT
FGUOC QXT AOW 110704 F20A
0000011000
354
UANT99 KDDL 110704
ARP BAW292 4858N04005W 0704 F370 MS53 309/40 KT
GVIIC QXT AOW 110704 F10A
0000011000
355
UANT99 KDDL 110704
ARP AFR011 4811N02837W 0704 F390 MS52 216/64 KT
FGZCM QXT AOE 110704 J84A
0000011000
356
UANT99 KDDL 110704
ARP BAW17V 5338N02432W 0704 F340 MS59 219/82 KT
GYMMT QXT AOE 110704 F20A
0000011000
357
UANT99 KDDL 110704
ARP CRL925 4529N01100W 0704 F390 MS64 255/48 KT
FHZEN QXS SCQ 110704 J05A
0000008600
358
UABZ01 SBBR 110704
ARP GLO1833 R021 CNF 120NM 0658 FL400 MS57 191/17 =
0000012000
359
SNDL22 EDZW 110700 RRA
AAXX 11071
10439 42359 62502 10016 20006 39945 40171 57005 86600
  333 86708=
0000013800
360
SNDL44 EDZW 110500 CCA
AAXX 11051
10150 47358 72306 10061 20050 30071 40105 58013 72365
  333 55300 20000 30000 87/07=
0000033700
361
SNDL44 EDZW 110700 RRA
AAXX 11071
10033 42358 82308 10068 20057 30037 40078 56009 876//
  333 87707 91013 91114=
10037 46/40 /2308 10063 20050 30058 40089 5/010=
10126 41350 82207 10054 20044 30094 40110 56008 76166 877//
  333 87707=
10136 41338 82406 10056 20045 30065 40105 56009 75862 886//
  333 88707=
0000038200
362
SNDL45 EDZW 110700 RRA
AAXX 11071
10172 41456 82203 10049 20035 30040 40113 56008 71022 876//
  333 87710=
10238 42358 81903 10047 20030 30039 40135 57010 875//
  333 85709 87612 91008=
10246 42458 82405 10048 20037 30023 40132 55011 886//
  333 88710=
10304 46/58 /2105 10042 20022 30078 40129 5/007=
10306 46/// ///// 1//// 2//// 3//// 4//// 5////=
0000024800
363
SNDL46 EDZW 110700 RRA
AAXX 11071
10334 46/65 /2105 10034 20010 30050 40136 5/010=
10335 42570 12105 10039 20006 30048 40141 57009 81530
  333 81620=
10343 42765 62303 10042 20019 30073 40138 55007 83531
  333 83656 84364=
0000028600
364
SNDL47 EDZW 110700 RRA
AAXX 11071
10476 42675 72104 10022 20005 30034 40161 56006 8355/
  333 83640 87364=
10502 42582 71502 10021 20010 39993 40160 57005 8157/
  333 81630 87359=
10516 42160 61402 10011 20006 30054 40177 56006 84510
  333 81703 84657 86462=
0000026000
365
SNDL48 EDZW 110700 RRA
AAXX 11071
10613 46/39 /2405 10017 20016 39583 40174 5/005=
10618 41440 83002 11011 21014 39719 40187 55004 77922 885//
  333 85710 88630=
10743 42880 51502 10007 21011 39607 40186 57010 85071
  333 82358 84071=
00000000