0000014000
753
SMVJ01 SBBR 110600
BBXX
PWPM 11064 99621 50568 41494 83120 11004 21038 40010 57009 7022/ 8766/
22200 20401 81010 00600 =
0000014000
754
SMAA01 LFPW 110600
AAXX 11064
89642 41768 71115 10032 21055 39853 49905 57002 70172 875//
  333 55004 21908 87650 91126=
0000011800
755
SAOM32 OOMS 110600 RRA
METAR OOSA 110550Z 09011KT 060V120 9999 SCT025 25/15
Q1019 NOSIG  RH53 RMK03=
0000013000
756
SMBE01 TXKF 110600
AAXX 11064 78016 32564 50812 10174 20117 30310 40314 56006
85801 333 10188 20166 79999 =
/=
0000017800
757
SMRE15 FMEE 110600
AAXX 11064
61996 06/// /2519 10183 20091 30187 40222 53005 60002
  333 10190 20113 3/009 4//// 55082 60007 70002 90710 91129
  555 60005=
0000003900
758
SMCE01 FEFF 110600
NIL=
0000011000
759
UANT99 KDDL 110601
ARP AFR055 5059N01556W 0601 F400 MS53 243/50 KT
FHPJF DDL BYT 110601 J64A
0000011000
760
UANT99 KDDL 110601
ARP KAC118 5232N03249W 0601 F330 MS58 204/49 KT
9KAOA QXT AOW 110602 F13A
0000011000
761
UANT99 KDDL 110601
ARP AZA605 4936N02447W 0602 F390 MS56 215/75 KT
EIEJP QXT AOE 110602 J56A
0000011000
762
UANT99 KDDL 110602
ARP DLH437 5505N02423W 0602 F370 MS58 217/60 KT
DAIGV QXT AOE 110602 J51A
0000005700
763
UHBD01 WBSB 110600
PPCC  61061 96315 NIL=
0000011200
764
SMBA01 MYNN 110559
AAXX 11064
78073 12465 11205 10239 20218 40203 60001 81100 333 59007 81818=
0000015000
765
SMGD01 TGPY 110600
AAXX 11064
78958 11468 60610 10245 20212 30133 40143 69901 70581 86800
333 10280 20228 58005 84818 83638 90940=
0000029800
766
SMMH02 PKMR 110600
AAXX  11064
91258 11474 60910 10283 20256 30074 40077 60021 70282 86200 333 
562// 86815 70005 555 91106
91367 32474 40713 10289 20259 84100 333 562// 84815 70000 555 91106
91369 32474 20915 10300 20250 30065 40068 82100 333 562// 82815 
70000 555 91106
0000013800
767
SMTD01 TTPP 110603
AAXX 11064
78970 12470 10000 10216 20205 30111 40136 60001 81140 333
00290 10306 20215 59001 81815=
0000017700
768
SNVD21 KHAF 110400
BBXX VREF5 11043 99119 11126
41697 40421 10300 2025/
40150 54/// 7//22 84132
222// 00290 20504 3//// 40403
50403 6//// 80260 ICE /////
0000024100
769
SOAT10 KWAL 110603
FA8005BC 011060337 OT12 ID:KN-BASS-01 DT:2014 01 11 06 01
:RD -3165 -3146 -3152 -3165 -3150 -3144 -3159 -3169 -3206 -3170
:PR 0559 0526 0483 0495 0494 0473 0488 0494 0509 0511
:B 13.7V
 46+1NN 219E
0000005700
770
UQBD20 WBSB 110600
PPDD  61061 96315 NIL=
0000097500
771
UDAS02 BABJ 110554
AMDAR 1105
ASC CNFPYN 2520N 11810E 110550 F229 MS134 256/079 TB/ S//1=
ASC CNFPYN 2524N 11809E 110551 F236 MS145 257/079 TB/ S//1=
LVR CNFPYN 2528N 11809E 110551 F236 MS145 258/080 TB/ S//1=
LVR CNFPYN 2532N 11808E 110552 F236 MS143 257/081 TB/ S//1=
DES CNFLWT 4141N 12339E 110550 F030 MS085 260/020 TB/ S//1=
DES CNFLWT 4142N 12337E 110551 F016 MS055 227/011 TB/ S//1=
DES CNFLWT 4142N 12334E 110552 F013 MS046 236/010 TB/ S//1=
LVR CNFNXN 3711N 11058E 110543 F341 MS553 269/097 TB/ S//1=
LVR CNFNXN 3703N 11039E 110546 F341 MS548 265/097 TB/ S//1=
LVR CNFNXN 3656N 11019E 110549 F341 MS538 265/100 TB/ S//1=
LVR CNFNXN 3649N 11000E 110552 F341 MS533 264/098 TB/ S//1=
LVR CNFLWR 2643N 10721E 110551 F177 MS118 264/055 TB/ S//1=
ASC CNFLWR 2644N 10726E 110551 F181 MS115 259/059 TB/ S//1=
ASC CNFLWR 2645N 10731E 110552 F193 MS129 259/060 TB/ S//1=
ASC CNFLWR 2646N 10733E 110552 F199 MS138 257/064 TB/ S//1=
0000011800
772
UPCG01 FCBB 110600
PPAA 61061 64400 NIL=
PPAA 61051 64450 55185 03008 77999=
PPAA 61061 64458 NIL=
00000000