0000011100
893
UANT99 KDDL 110613
ARP UPS210 6057N01940W 0614 F320 MS52 221/31 KT
N359UP QXS REK 110614 F19A
0000011100
894
UANT99 KDDL 110614
ARP DAL408 4853N02138W 0614 F350 MS63 216/60 KT
N172DN QXT AOE 110614 F29A
0000012500
895
SMVA01 FAPR 110600
BBXX
ZSNO 11064 99640 50026 41396 82117 10003 21010 49908 52011 77122 8362/ 22231 00001=
0000012600
896
SMTH40 VTBB 110600 RRB
AAXX 11064
48325 31558 30000 10240 20176 39921 40166 57022 71042 82505
  333 58016=
0000014000
897
SMMW01 FWCL 110600
AAXX 11060
67693 32580 71203 10255 20205 39281 48531 8113/ 333 20215 58017 81825 87359 555 10301 7//92=
0000016400
898
SMCN06 CWAO 110600 CCA
AAXX 11064
71862 11/04 92404 11073 21076 39351 40058 52016 60001
74511 333 11025 21075 79999 555 19999 29999 33118 40230=
0000023700
899
SNVD15 KWNB 110100 RRV
BBXX
42046 11011 99279 70940 46/// /1908 10204 40126 90130 22200 00216
333 91209 555 11088 22095=
42046 11011 99279 70940 46/// /2010 10205 40124 90100 22200 00216
333 91214 555 11118 22129=
0000023700
900
SNVD15 KWNB 110200 RRU
BBXX
42046 11021 99279 70940 46/// /1709 10207 40124 90230 22200 00216
333 91211 555 11104 22113=
42046 11021 99279 70940 46/// /1708 10207 40122 90200 22200 00216
333 91209 555 11092 22099=
0000023700
901
SNVD15 KWNB 110500 RRT
BBXX
42047 11051 99279 70936 46/// /1808 1//// 40125 90530 22200 00215
333 91210 555 11095 22103=
42047 11051 99279 70936 46/// /1808 1//// 40127 90500 22200 00215
333 91209 555 11088 22095=
0000023700
902
SIVD15 KWNB 110300 RRX
BBXX
42047 11031 99279 70936 46/// /1708 1//// 40125 90330 22200 00215
333 91210 555 11096 22104=
42047 11031 99279 70936 46/// /1810 1//// 40128 90300 22200 00215
333 91210 555 11112 22122=
0000023700
903
SNVD15 KWNB 110400 RRW
BBXX
42047 11041 99279 70936 46/// /1808 1//// 40128 90430 22200 00215
333 91209 555 11087 22094=
42047 11041 99279 70936 46/// /1808 1//// 40128 90400 22200 00215
333 91209 555 11087 22095=
0000023700
904
SNVD15 KWNB 110200 RRV
BBXX
42047 11021 99279 70936 46/// /1909 1//// 40130 90230 22200 00215
333 91211 555 11106 22115=
42047 11021 99279 70936 46/// /1808 1//// 40131 90200 22200 00215
333 91210 555 11095 22104=
0000017000
905
SOVI10 KWAL 110616
B110070A 011061601 P9751095 B\P~W@@L0ekF1@pA???CnCq>@o~3@NC?@_4Cw5C~6bH9J@<BM2?????@"??? nTFMLAEAFAKAIAGAL:AMPTEMP 26.57C  46-0NN 219E
0000010700
906
SMVE01 ESWI 110600
BBXX
SJCD 11061 99189 31551 43/98 21312 10269 40097 58024 22284 00273=
0000003800
907
SMVC01 ESWI 110600
NIL
0000093100
908
SMCI01 BABJ 110600
AAXX 11061
50468 NIL=
50953 32965 70202 11141 21218 30098 40257 57019 87/// 333
21246=
51076 NIL=
51243 NIL=
51288 NIL=
51463 NIL=
51573 NIL=
51709 NIL=
52533 32980 01401 11020 21219 38646 40424 57022 333 00602
21152=
52652 32980 00402 11051 21211 38670 40469 57021 333 00701
21211=
52866 NIL=
52983 NIL=
53463 42965 31802 11070 21213 38938 40372 57019 83/// 333
00100 21167=
53513 NIL=
53588 NIL=
53772 NIL=
53915 32979 73405 10003 21233 38756 40356 57022 87/// 333
00651 21082=
54218 NIL=
54337 NIL=
54342 32968 62203 11008 21189 30209 40274 57028 86/// 333
21183=
54401 NIL=
54471 NIL=
54497 NIL=
54511 NIL=
54823 31958 02204 10062 21078 30085 40301 57031 70500 333
21028=
56080 32970 70401 11057 21187 37152 57026 87/// 333 00652
21173=
56096 32775 82501 10059 21066 39027 40301 57026 88/// 333
00601 20011=
57083 NIL=
0000062900
909
SMCI02 BABJ 110600
AAXX 11061
56187 NIL=
56778 32580 02208 10176 21044 38125 57028 333 00200 20024=
57265 NIL=
57461 31940 82901 10047 20015 39988 40310 57026 71000 88///
333 20017=
57494 NIL=
57516 11521 82901 10082 20055 39965 40284 57028 69911 76085
88/// 333 20067=
57687 11462 82903 10041 20026 30217 40304 57023 69921 76066
88/// 333 20040=
57816 NIL=
58040 NIL=
58102 NIL=
58150 NIL=
58221 NIL=
58238 NIL=
58251 NIL=
58362 NIL=
58457 NIL=
58606 NIL=
58752 NIL=
58847 NIL=
59117 NIL=
59134 NIL=
59287 NIL=
59316 NIL=
59431 NIL=
59644 NIL=
59758 NIL=
0000010200
910
SMAA01 EDZW 110600
AAXX 11064
89002 42999 51709 11056 21078 39859 49913 52005 83031=
0000020800
911
SAIN35 VIDP 110600
METAR VAUD 110600Z 05005KT 2000 HZ NSC 15/06 Q1020=
METAR VIDN 110600Z 25006KT 6000 SCT040 15/08 Q1019=
METAR VIPT 110600Z 09002KT 5000 HZ FEW020 BKN090 16/11 Q1019 =

0000017500
912
SMIN90 VICH 110600
AAXX 11064
00010 31995 22904 10167 20086 40198 70540 82031
  333 58017=
42105 31996 23201 10170 20070 40197 70540 80001
  333 58014=
00000000