0000011100
906
UANT01 CWAO 110727
ARP RCH248 5404N03519W 0727 F330 MS57 212/38 KT
66168A DDL XXN 110727 F55A
0000010800
907
UANT01 CWAO 110727
ARP LOT4 5839N05718W 0727 F390 MS58 283/59 KT
SPLRA DDL YHO 110727 L22A
0000011100
908
UANT01 CWAO 110727
ARP NWS3518 6105N03605W 0726 F360 MS59 201/26 KT
VPBJB QXT AOW 110727 F63A
0000052200
909
SNNO49 ENMI 110700 RRB
AAXX 11071
01027 26/// ///// 11105 21124 333 60005=
01084 26/// /2701 11225 21250 333 60005=
01117 26/// /1005 11074 21159 333 60005=
01153 26/// ///// 11086 21179 333 60005=
01270 26/// ///// 11107 21169 333 60005=
01272 26/// ///// 11103 21152 333 60005=
01308 26/// ///// 10001 21006 333 60005=
01382 26/// ///// 11067 21094 333 69955=
01387 26/// ///// 11056 21080 333 60005=
01413 26/// ///// 10050 20016 333 60005=
01464 26/// /2401 10012 20007 333 60005=
0000079000
910
SNPO41 LPMG 110700
AAXX 11071
08533 42/// /36// 1//// 2//// 3//// 4//// 5////
555 60005=
08535 NIL=
08541 42/// /1003 10093 20076 30046 40167 52006
555 60005=
08545 NIL=
08548 42/// /1201 10078 20078 39967 40175 52006
555 60005=
08554 42/// /0603 10126 20085 30157 40166 52005
333  91105
555 60005=
08560 42/// /36// 10056 20053 39409 40176 52003
555 60005=
08562 42/// /36// 1//// 2//// 3//// 4//// 5////
555 60005=
08567 42/// /0000 10048 20047 39510 40185 52009
555 60005=
08568 42/// /36// 1//// 2//// 3//// 4//// 5////
555 60005=
08570 42/// /0802 10067 20035 39713 40178 52007
555 60005=
08571 NIL=
08575 42/// /0000 10021 20019 39368 40199 52010
555 60005=
08579 42/// /9901 10089 20082 30041 40168 52002
555 60005=
0000043500
911
SNVB20 RJTD 110700
BBXX
JGQH    11074 99309 11370
46/// /3314 10122 20054 40257 53003 8////
22242 00191 1//04 70022=
JPBN    11074 99250 11294
46/// /0522 10178 20114 40241 55006 8////
22272 00240 10603 70016=
JGQH    11074 99309 11370
46/// /3314 10122 20054 40257 53003 8////
22242 00191 1//04 70022=
JPBN    11074 99250 11294
46/// /0522 10178 20114 40241 55006 8////
22272 00240 10603 70016=
0000008200
912
SNAL51 DAMM 110700 RRD
AAXX 11071
60376 46/// /0000 10147 20069=
0000011000
913
UANT99 KDDL 110727
ARP ETD130 5647N03311W 0727 F330 MS60 218/49 KT
A6EHJ QXT AOW 110727 J43A
0000162700
914
FPIN90 VAPO 110300
==================
 IWB 11TH JANUARY 2014 MNG
 ============================
  THE WESTERN DISTURBANCE AS AN UPPER AIR CYCLONIC CIRCULATION
 OVER JAMMU & KASHMIR AND NEIGHBOURHOOD IS MOVING AWAY
 NORTHEASTWARDS (.)

 THE WESTERN DISTURBANCE AS A TROUGH IN MID & UPPER
 TROPOSPHERIC WESTERLIES HAS MOVED AWAY NORTHEASTWARDS (.)

 A FRESH WESTERN DISTURBANCE AS A TROUGH IN MID & UPPER
 TROPOSPHERIC WESTERLIES WITH ITS AXIS AT 5.8 KMS A.S.L. RUNS
 ROUGHLY ALONG LONG. 62 DEG E TO THE NORTH OF LAT. 35 DEG N (.)

 SYSTEM WOULD MOVE EASTNORTHEASTWARDS (.)

 THE UPPER AIR CYCLONIC CIRCULATION OVER HARYANA AND ADJOINING
 NORTHEAST RAJASTHAN NOW LIES OVER EAST MADHYA PRADESH AND
 NEIGHBOURHOOD AND EXTENDS UPTO 0.9 KMS A.S.L. (.)

 A TROUGH EXTENDS FROM EAST UTTAR PRADESH TO WEST MADHYA PRADESH
 BETWEEN 1.5 AND 3.1 KMS A.S.L(.)

 THE TROUGH OF LOW AT MEAN SEA LEVEL OVER SOUTH ANDAMAN SEA AND
 ADJOINING SOUTHEAST BAY OF BENGAL NOW LIES OVER SOUTHEAST BAY
  OF BENGAL AND ADJOINING EQUATORIAL INDIAN OCEAN (.)

  COLD DAY CONDITIONS PREVAILED IN SOME PARTS OF WEST UTTAR
 PRADESH (.)
 FORECAST: RAIN OR SNOW WOULD OCCUR AT ISOLATED PLACES IN
 UTTARAKHAND AND HIMACHAL PRADESH (.)
 RAIN OR THUNDERSHOWERS WOULD OCCUR AT A FEW PLACES IN SUB-
 HIMALAYAN WEST BENGAL & SIKKIM AND BIHAR AND AT ISOLATED
 PLACES IN ANDAMAN & NICOBAR ISLANDS, ARUNACHAL PRADESH, ASSAM
 & MEGHALAYA, JHARKHAND, EAST UTTAR PRADESH, EAST MADHYA
 PRADESH AND NORTH CHHATTISGARH (.)
 MAINLY DRY WEATHER WOULD PREVAIL OVER THE REST OF THE COUNTRY (.) =
0000011100
915
UANT99 KDDL 110727
ARP DAL615 5730N02357W 0727 F360 MS56 220/57 KT
N185DN QXT AOE 110727 F23A
0000011100
916
UANT99 KDDL 110727
ARP AWE704 4955N02109W 0727 F360 MS63 219/64 KT
N276AY DDL XXN 110727 J81A
0000011100
917
UANT99 KDDL 110727
ARP RCH570 5034N02525W 0727 F350 MS60 198/65 KT
44132A DDL XXN 110727 F45A
0000011100
918
UANT99 KDDL 110727
ARP NAX7002 5822N02827W 0727 F410 MS55 347/45 KT
EILNC QXT AOE 110727 L22A
0000034300
919
SNVD15 KWNB 110500 RRX
BBXX
42369 11051 99272 70903 46/// /1506 1//// 90520=
42375 11051 99285 70883 46/// /1509 1//// 90520 22200 10401 70007
555 11073 22079=
42392 11051 99272 70900 46/// ///// 1//// 90520 22200 10402 70008=
42887 11051 99282 70885 46/// /1808 10224 20205 90520 22200 10502
70008 555 11068 22074=
0000013200
920
SASA85 EGRR 110700 RRF
METAR SGAS 110700Z 05003KT CAVOK 26/22 Q1007=
METAR SGES 110700Z 08004KT CAVOK 24/21 Q1008=
0000015400
921
SPSA85 EGRR 110719
SPECI SBIZ 110715Z 00000KT 9999 FEW007 23/23 Q1010=
SPECI SPQT 110715Z 24005KT 8000 FEW004 SCT040 OVC100 24/23 Q1009=
0000008400
922
SPSA85 EGRR 110725 RRA
SPECI SBRJ 110720Z 02005KT CAVOK 26/22 Q1012=
0000049900
923
UPAU01 AMMC 110600
PPAA 61053 94120 44385 15507 12538 21503 44340 18012 07002 18506
44320 09010 03027 11017 77999=
PPAA 61053 94150 44385 10013 06009 35013 44340 32509 32504 11506
44120 09510 77999=
PPAA 61053 94203 44385 18004 09012 10012 44340 14503 26510 26518
44120 29524 77999=
PPAA 61053 94212 44385 08014 11012 12005 44340 14009 30005 28524
44220 29021 29525 77999=
PPAA 61053 94294 44385 10524 10016 26016 44340 29520 28040 28550
44220 27046 27537 77999=

0000101700
924
UGAU01 AMMC 110600
PPBB 61053 94120 90/12 29008 00000 00000 90357 00000 14510 12526
91024 12538 12035 13023 9189/ 11510 16001 92345 17010 16011 18013
92789 14513 13014 11012 938// 15003 94026 07510 09010 03522 95135
04548 05046 11017=
PPBB 61053 94150 90/12 10516 10023 10020 90367 10019 09514 11010
909// 09006 9124/ 03509 35512 9226/ 35013 30508 9339/ 24502 08505
94346 10511 10010 04515=
PPBB 61053 94203 90/12 26509 27009 26009 9037/ 23009 12505 91023
08010 10014 10014 91456 10015 10019 09516 918// 12014 92027 09010
08503 17012 93023 26010 25010 28514 937// 26018 946// 33033=
PPBB 61053 94212 90/23 05007 06010 06015 90467 07016 08516 09016
909// 11012 91024 10512 13012 16010 916// 11003 9235/ 13010 14010
93369 32010 28522 30021 941// 28518 950// 31025=
PPBB 61053 94294 90/12 08018 08520 10020 90367 11021 10525 11519
91245 10015 17510 17510 91789 21505 25510 25514 92136 29021 27023
30020 929// 30028 93068 28033 29049 27552 9439/ 26039 28535 952//
26528=

0000007900
925
UHAU01 AMMC 110600
PPCC 61053 94120 44270 13509 03509 77999=

00000000