0000010100
113
SABZ22 SBBR 102100
METAR SBBR 102100Z 06010KT 9999 SCT030 FEW045TCU
27/14 Q1015=

0000048100
114
SAGR33 LGAT 102050
METAR LGBL 102050Z 27005KT 9999 FEW020 SCT180 06/04 Q1019 NOSIG=
METAR LGHI 102050Z NIL=
METAR LGKC 102050Z NIL=
METAR LGKF 102050Z AUTO VRB02KT //// // ////// 14/09 Q1022
     RE//=
METAR LGKP 102050Z NIL=
METAR LGKZ 102050Z AUTO VRB01KT //// // ////// 08/M02 Q1019
     RE//=
METAR LGMK 102050Z NIL=
METAR LGNX 102050Z NIL=
METAR LGPA 102050Z AUTO 17005KT //// // ////// 15/14 Q1020
     RE//=
METAR LGSO 102050Z NIL=

0000010200
115
SAAG41 SACO 102100
METAR SACO 102100Z  14010KT 9999  SCT030 FEW040CB
28/19 Q1010=

0000008900
116
SABZ21 SBFZ 102100
METAR SBFZ 102100Z 07012KT 9999 FEW020 27/21 Q1009=

0000010100
117
SABZ24 SBFL 102100
METAR SBFL 102100Z 34010KT 9999 FEW030 FEW035TCU
28/24 Q1009=

0000011900
118
SACN61 CYZE 102100
METAR CYZE 102100Z AUTO 18010G15KT 9SM BKN011 OVC049 M00/M02 A2995
 RMK SLP153=

0000008900
119
SASG20 GOOY 102100
METAR GOOY 102100Z 01011KT CAVOK 20/13 Q1013 NOSIG=

0000011600
120
SPUS41 KWBC 102059
SPECI
KDOV 102053Z AUTO 06003KT 3/4SM R01/4500FT -RA BR VV002 04/04
A3032=

0000010000
121
SPUS41 KWBC 102059
SPECI
KHVN 102055Z 00000KT 5SM BR FEW008 OVC029 01/00 A3036=

0000009500
122
SABR31 TBPB 102100
METAR TBPB 102100Z 06017KT 9999 SCT018 26/20 Q1013 NOSIG=

0000011900
123
SACN61 CYBC 102100
METAR CYBC 102100Z AUTO 27011G18KT 9SM BKN021 BKN150 M06/M10 A3014
 RMK SLP210=

0000013000
124
SACN61 CYPQ 102100
METAR CYPQ 102100Z AUTO 16007KT 4SM BR OVC005 00/M00 A3014 RMK PCPN
 0.5MM PAST HR SLP218=

0000009700
125
SPAU32 AMMC 102059
SPECI YMAV 102100Z AUTO 26008KT 9999 // OVC013 17/14 Q1019=

0000020700
126
SAEQ01 SEQU 102100
METAR SEQM 102100Z NIL=
METAR SEGU 102100Z NIL=
METAR SEMT 102100Z 19009KT 9999 BKN020 28/22 Q1008=
METAR SELT 102100Z 03008KT 9999 VCSH BKN030 BKN100 14/12 Q1025=

0000085400
127
SATU31 LTAA 102050
METAR LTAC 102050Z 30004KT 270V330 4400 BR OVC006 M03/M03 Q1022 BECMG
 1200 BCFG OVC003=
METAR LTAF 102050Z 06003KT 5000 HZ NSC 05/M01 Q1021 NOSIG=
METAR LTAI 102050Z 34004KT 6000 NSC 06/05 Q1022 NOSIG=
METAR LTAJ 102050Z 00000KT CAVOK M01/M06 Q1021 NOSIG=
METAR LTAZ 102050Z NIL=
METAR COR LTBA 102050Z 28003KT 240V320 6000 NSC 09/07 Q1020 BECMG
 21012KT=
METAR LTBJ 102050Z 00000KT 6000 NSC 05/04 Q1021 NOSIG=
METAR LTBS 102050Z 04004KT CAVOK 07/06 Q1022 NOSIG=
METAR LTCG 102050Z VRB02KT 3800 FU NSC 07/01 Q1016 BECMG TL2150 9999
 NSW=
METAR LTCS 102050Z 05004KT CAVOK 05/M06 Q1021=
METAR LTFC 102050Z 00000KT 0300 R05/0400U R23/0400U FZFG VV001
 M03/M03 Q1023=
METAR LTFE 102050Z 14004KT 6000 FEW035 BKN120 08/07 Q1022 NOSIG=
METAR LTFJ 102050Z 23005KT 6000 NSC 09/07 Q1021 NOSIG=

0000035600
128
FTUS31 KWBC 102100 AAA
TAF AMD
KDFW 102059Z 1021/1124 22015KT P6SM SCT040 BKN100
     FM102300 25014KT P6SM SCT250
     FM110200 32008KT P6SM SKC=
KSAN 102059Z 1021/1124 29007KT P6SM SCT250
     FM110200 VRB04KT P6SM FEW250
     FM110400 VRB03KT P6SM SCT005
      TEMPO 1110/1114 6SM BR
     FM112000 26007KT P6SM FEW250=

0000029300
129
FTUS42 KWBC 102100 AAA
TAF AMD
KDAL 102059Z 1021/1118 22015KT P6SM SCT040 BKN100
     FM102300 25014KT P6SM SCT250
     FM110300 32008KT P6SM SKC=
KFTW 102059Z 1021/1118 22015KT P6SM SCT040 BKN100
     FM102300 25014KT P6SM SCT250
     FM110200 32008KT P6SM SKC=

0000017400
130
FTUS43 KWBC 102100 AAA
TAF AMD
KICT 102059Z 1021/1118 30014KT P6SM FEW020 SCT120
     FM110000 28011KT P6SM BKN120
     FM111600 28013G20KT P6SM SKC=

0000023400
131
FTUS74 KWBC 102100 AAA
TAF AMD
KSAN 102059Z 1021/1124 29007KT P6SM SCT250
     FM110200 VRB04KT P6SM FEW250
     FM110400 VRB03KT P6SM SCT005
      TEMPO 1110/1114 6SM BR
     FM112000 26007KT P6SM FEW250=

0000053000
132
FTUS72 KWBC 102100 AAA
TAF AMD
KACT 102059Z 1021/1118 22013KT P6SM BKN090
     FM110400 VRB05KT P6SM SCT250
     FM111400 31006KT P6SM SKC=
KDAL 102059Z 1021/1118 22015KT P6SM SCT040 BKN100
     FM102300 25014KT P6SM SCT250
     FM110300 32008KT P6SM SKC=
KDFW 102059Z 1021/1124 22015KT P6SM SCT040 BKN100
     FM102300 25014KT P6SM SCT250
     FM110200 32008KT P6SM SKC=
KFTW 102059Z 1021/1118 22015KT P6SM SCT040 BKN100
     FM102300 25014KT P6SM SCT250
     FM110200 32008KT P6SM SKC=

00000000