0000017200
213
SSVF50 LFPW 110420 RRA
ZZYY 62078 11014 0420/ 747239 002787 22219 00072 10802 20080
21008=
ZZYY 62067 11014 0420/ 746833 002295 22219 10602 20057 21008=
0000017200
214
SSVF50 LFPW 110435 RRA
ZZYY 62066 11014 0435/ 743532 001615 22219 00123 10902 20090
21012=
ZZYY 62064 11014 0435/ 744653 001447 22219 11003 20100 21013=
0000060400
215
SSVF50 LFPW 110440 RRA
ZZYY 62074 11014 0440/ 747285 003285 22219 00100 10902 20090
21011=
ZZYY 61289 11014 0440/ 143208 005230 22219 00141 10301 20030
21003=
ZZYY 62069 11014 0440/ 748290 004968 22219 00110 10804 20080
21018=
ZZYY 62068 11014 0440/ 748717 003961 22219 00109 11000 20100
21002=
ZZYY 62059 11014 0440/ 749695 001620 22219 10501 20050 21003=
ZZYY 62079 11014 0440/ 743403 001674 22219 00126 10902 20090
21010=
ZZYY 61431 11014 0440/ 143411 004163 22219 00120 10401 20040
21003=
ZZYY 61191 11014 0440/ 142917 003125 22219 00124 10401 20040
21003=
0000010800
216
SSVD50 LFPW 110440 RRA
ZZYY 41097 11014 0440/ 714548 061097 22219 00270 10301 20030
21004=
0000018000
217
SSVD50 LFPW 110510 RRA
ZZYY 41097 11014 0510/ 714548 061097 22219 00269 10301 20030
21004=
ZZYY 44050 11014 0510/ 746700 056183 22219 00002 10706 20070
21028=
0000010800
218
SSVD50 LFPW 110540 RRA
ZZYY 44050 11014 0540/ 746700 056183 22219 00002 10706 20070
21029=
0000017200
219
SSVF50 LFPW 110505 RRA
ZZYY 62066 11014 0505/ 743532 001615 22219 00123 10802 20080
21010=
ZZYY 62064 11014 0505/ 744653 001447 22219 11002 20100 21012=
0000046000
220
SSVF50 LFPW 110510 RRA
ZZYY 62074 11014 0510/ 747285 003285 22219 00100 10902 20090
21011=
ZZYY 62079 11014 0510/ 743403 001674 22219 00126 11002 20100
21011=
ZZYY 61289 11014 0510/ 143208 005230 22219 00141 10301 20030
21004=
ZZYY 62069 11014 0510/ 748290 004968 22219 00110 10903 20090
21017=
ZZYY 61191 11014 0510/ 142917 003125 22219 00124 10401 20040
21003=
ZZYY 62059 11014 0510/ 749695 001620 22219 10501 20050 21003=
0000010800
221
SSVF50 LFPW 110535 RRA
ZZYY 61188 11014 0535/ 142490 003168 22219 00128 10500 20050
21002=
0000010800
222
SSVF50 LFPW 110605 RRA
ZZYY 61188 11014 0605/ 142490 003168 22219 00128 10501 20050
21003=
0000146700
223
SMMO40 MNUB 110600
AAXX 11060
44210 32999 42001 11170 21245 38607 56009 84080 333
91202=
44216 32599 70000 11265 21293 39154 40587 56001 85582
333 91202=
44217 32998 12601 11149 21257 37892 40479 57009 80001
333 91202=
44219 32998 41405 11182 21246 38721 40505 57019 80008
333 91208=
44221 32998 60000 11287 21301 38706 40591 58012 80008=
44224 32998 20000 11246 21271 38128 40588 57011 80004=
44229 32999 02705 11189 21238 37980 40463 58013 333
91207=
44242 32998 00000 11204 21253 39436 40434 57005 333
91200=
44243 32999 60000 11220 21275 39532 40453 57010 82048
333 91200=
44254 32698 33603 11122 21217 39085 40346 51007 82104
333 91205=
44257 31698 33208 11119 21208 39027 40342 50002 73630
82704 333 91115 91210=
44263 32998 33203 11182 21250 38140 40513 58017 80009
333 91202=
44266 32999 10000 11148 21246 37814 40404 58009 80001
333 91202=
44286 32998 02704 11144 21209 38717 40409 57010 333
91206=
44291 31995 00000 11228 21266 38821 40490 58008 70400=
44325 32999 00000 11065 21148 38961 40395 58007 333
91200=
44329 32998 02702 11116 21257 37820 40399 58010 333
91203=
44338 32999 10204 11109 21221 38566 40437 58010 80004
333 91204=
44348 32997 03204 11114 21218 38771 40396 54000=
44374 32999 00102 11102 21252 38338 40430 57003 333
91207=
44385 32999 23204 11075 21203 38981 40342 58009 80001
333 91204=
44386 32999 23206 11087 21221 39126 40376 52002 82040=
0000008100
224
UAPA01 KWBC 110618
ARP UAL1004 21N 150W 0610 F330 MS38 250/065KT=
0000015800
225
SMRH10 LDZM 110600 RRA
AAXX 11061
14445 12670 60602 10122 20079 30078 40233 50012 60002 86500
222// 00140
  333 20115 31006 86696 92311=
0000110900
226
SMRH50 LDZM 110600
AAXX 11061
14235 12960 0//// 10042 20040 39047 48498 54001 60002
  333 20040 31///=
14246 11404 82801 10044 20042 30011 40218 53005 69902 74454 886//
  333 20005 31103 79999=
14314 12668 61803 10126 20117 30156 40220 53007 60002 86800
  333 20118 30010 70000 92311 92417=
14323 12668 83501 10132 20101 30183 40217 53005 60022 886//
  333 20117 31010 70016 92311 92417=
14324 11/00 92705 10020 20020 38421 48523 54000 60002 74544
  333 20008 31000 41998 70000=
14328 NIL=
14330 12560 71501 10072 20060 39551 40225 53001 60002 87500
  333 20063 32002 70000=
14370 11/01 90000 10002 20000 30107 40220 53005 60002 74740
  333 20000 31102 70011=
14438 12675 71002 10116 20084 30132 40223 53007 60002 87800
222// 00155
  333 20098 31007 79999 92311=
14443 32697 816// 10122 20100 30133 40226 52/// 887//
  333 20120 92301=
14447 11580 81001 10134 20100 30195 40225 52/// 69922 70262 8527/
222// 00156
  333 20127 31012 70002 92311=
14472 12670 23401 10107 20059 30169 40234 53008 60002 82200
222// 00152
  333 20107 30/// 92301=
0000012200
227
SMRH75 LDZM 110600
AAXX 11061
14444 33770 63401 10101 20085 30208 40237 52010 83530
  333 20090 30///=
0000259700
228
SMUS02 KWBC 110600 RRA
AAXX 11064
72302 15466 61808 10200 20178 3//// 40187 58018 69901 90553 333
10211 20061 555 91106=
72308 17466 61604 10156 20139 30176 40191 58036 60021 761// 90551
333 10156 20011 555 91106=
72310 11112 90000 10100 20094 30085 40174 58020 60021 710// 90556
333 10100 20078 555 91106=
72311 17120 80704 10072 20072 39872 40166 58021 60081 710// 90551
333 10078 20033 555 91106=
72312 17148 80505 10078 20072 39822 40162 58024 60021 761// 90553
333 10083 20028 96010 555 91106=
72314 11104 80203 10056 20056 39917 40182 58024 60031 751// 90552
333 10067 20033 96010 555 91106=
72317 11108 /0704 10033 20028 39848 40179 58032 60041 761// 90554
333 10056 20017 96041 555 91106=
72323 12366 81613 10128 20117 39868 40091 58034 60021 90553 333
10128 20067 555 91106=
72324 11232 81905 10100 20089 39875 40126 58038 69981 710// 90553
333 10100 20056 555 91106=
72326 11116 80503 10078 20072 39764 40122 58034 69981 710// 90553
333 10094 20028 555 91106=
72327 32466 81816 10144 20117 39812 40059 58040 90553 333 10144
20072 91022 555 91106=
72334 11232 82614 10144 20133 39951 40053 55013 60351 765// 90554
333 10144 20072 91026 96010 555 91106=
72344 12966 02803 10039 20022 39908 40075 50005 60011 90553 333
10117 20017 555 91106=
72351 32966 62805 10061 21011 39738 40099 51016 90552 333 10100
20033 555 91106=
72353 32966 62906 10044 21056 39636 40096 51021 90552 333 10094
20017 555 91106=
72356 32966 02707 10050 21028 39826 40071 53015 90553 333 10089
20022 555 91106=
72360 35966 03012 10006 21128 38435 40117 51012 90555 333 10067
21011 555 91106=
72363 32966 03004 10011 21128 38886 40125 51025 90553 333 10111
20011 555 91106=
72365 32966 0//04 10061 21100 38394 40188 51031 90552 333 10117
21021 555 91106=
72370 35966 00000 10028 21061 39035 40193 51011 90551 333 10161
21027 555 91106=
72371 35966 01105 10061 21056 38732 40202 51021 90553 333 10106
20011 555 91106=
72374 35966 00505 10011 21056 38547 40221 51017 90556 333 10128
21061 555 91106=
72376 35966 02506 11017 21106 38321 40218 51020 90553 333 10067
21039 555 91106=
72384 32962 00606 10089 20033 30052 40232 53005 90554 333 10161
20056 555 91106=
72386 32966 42107 10100 21022 39461 40202 51015 90556 333 10156
20056 555 91106=
72387 35966 01004 10056 21039 39060 40208 53014 90552 333 10167
20028 555 91106=
72389 31956 40000 10083 20044 30115 40240 53007 705// 90553 333
10161 20056 555 91106=
72394 35966 02805 10117 20056 30114 40206 51007 90551 333 10189
20111 555 91106=
0000296100
229
SMUS03 KWBC 110600 RRA
AAXX 11064
72401 11220 80404 10050 20044 30119 40185 58036 69951 710// 90554
333 10056 20006 555 91106=
72403 11256 80804 10017 20017 30081 40193 58035 60031 710// 90552
333 10017 21010 555 91106=
72407 12766 81610 10100 20094 30164 40208 58040 60021 90554 333
10100 21049 555 91106=
72408 11112 80405 10028 20011 30184 40206 58042 60041 710// 90554
333 10028 21016 555 91106=
72411 11112 80000 10033 20028 39757 40192 58036 60011 710// 90554
333 10033 20006 555 91106=
72412 35866 81614 10167 20078 39253 40130 56027 90551 333 10167
20022 555 91106=
72414 32766 60000 10122 20094 39736 40101 56031 90554 333 10122
20011 555 91106=
72417 15966 01609 10111 20078 39428 40140 56033 69981 90551 333
10122 20017 555 91106=
72421 11432 82008 10106 20100 39750 40067 55021 60041 765// 90552
333 10111 20006 96010 555 91106=
72422 32966 21816 10122 20094 39707 40060 56048 90554 333 10128
20033 555 91106=
72428 32566 81608 10106 20072 39776 40071 58036 90551 333 10106
20006 555 91106=
72432 15866 81708 10100 20083 39898 40038 58032 60141 90554 333
10100 20017 555 91106=
72434 12562 82206 10072 20056 39805 40012 58014 60021 90551 333
10078 20011 4/005 555 91106=
72435 17658 81711 10106 20094 39894 40032 56037 60221 762// 90553
333 10106 20022 91019 96010 555 91106=
72438 11224 81608 10050 20050 39738 40027 58030 60051 761// 90554
333 10050 21005 4/010 96010 555 91106=
72440 12964 02404 10022 20006 39585 40046 50003 60051 90552 333
10100 20011 555 91106=
72445 17259 82708 10044 20039 39698 40021 53006 69901 710// 90554
333 10072 20006 555 91106=
72446 12364 82905 10017 20006 39658 40038 51012 69901 90553 333
10039 21010 555 91106=
72450 12764 62809 10011 20006 39589 40073 51016 69901 90553 333
10050 21006 555 91106=
72451 35966 02810 11011 21061 39185 40103 51016 90552 333 10033
21028 555 91106=
72456 17258 82707 10017 20000 39731 40053 53015 69901 710// 90553
333 10028 20000 555 91106=
72458 15966 02809 10006 20000 39532 40063 51018 60011 90555 333
10017 20000 555 91106=
72462 35966 0//// 11144 21167 37694 40243 51025 90552 333 11033
21211 555 91106=
72464 35966 00000 11017 21117 38527 40122 51015 90553 333 10056
21033 555 91106=
72465 35966 02712 11028 21072 38830 40113 53019 90553 333 10006
21061 555 91106=
72475 35966 01804 11011 21039 3//// 40235 53016 90552 333 10072
21061 555 91106=
72476 35866 80806 11061 21078 38573 40244 51026 90553 333 11033
21122 555 91106=
72480 35966 03408 10078 21028 38804 40212 51018 90556 333 10200
20044 555 91106=
72486 35966 01707 11028 21044 38141 40247 51019 90553 333 10056
21028 555 91106=
72488 32966 60000 10039 21011 38718 40242 50004 90555 333 10128
20000 555 91106=
72492 35962 01203 10072 20039 30218 40230 51005 90555 333 10156
20050 555 91106=
72494 32966 22906 10094 20072 30202 40231 50005 90556 333 10139
20094 555 91106=
0000065400
230
SMIN90 VABP 110600
AAXX 11064
42571 31594 83202 10156 20146 40169 71044 8653/
  333 58005=
42763 21595 70000 10154 20140 39829 40183 70522 83530
  333 58028=
42671 31995 00502 10180 20125 39538 40168 70542
  333 58014=
42559 32596 63601 10132 20125 40185 83530
  333 58023 83620 86360=
42567 31/92 92905 10158 20151 40176 74544 89///
  333 58006=
42754 31495 40708 10162 20113 39523 40172 70542 83530
  333 58026 83615=
42667 31995 00208 10156 20113 39576 40180 71044
  333 58023=
42361 31994 03203 10158 20083 40193 71044
  333 58015=
42675 31493 83603 10160 20146 40171 74644 8860/
  333 58012 88705=
0000010600
231
UGIN90 VIJP 110600
PPBB 61051 42339
90012 04504 05512 04515 9037/ 04511 03020 911// 00522=
0000097000
232
SMCI01 KWBC 110600
AAXX 11061
50953 32965 70202 11141 21218 30098 40257 57019 87/// 333 21246=
52533 32980 01401 11020 21219 38646 40424 57022 333 00602 21152=
52652 32980 00402 11051 21211 38670 40469 57021 333 00701 21211=
53463 42965 31802 11070 21213 38938 40372 57019 83/// 333 00100
21167=
53915 32979 73405 10003 21233 38756 40356 57022 87/// 333 00651
21082=
54342 32968 62203 11008 21189 30209 40274 57028 86/// 333 21183=
54823 31958 02204 10062 21078 30085 40301 57031 70500 333 21028=
56080 32970 70401 11057 21187 37152 57026 87/// 333 00652 21173=
56096 32775 82501 10059 21066 39027 40301 57026 88/// 333 00601
20011=
56778 32580 02208 10176 21044 38125 57028 333 00200 20024=
57461 31940 82901 10047 20015 39988 40310 57026 71000 88/// 333
20017=
57516 11521 82901 10082 20055 39965 40284 57028 69911 76085 88///
333 20067=
57687 11462 82903 10041 20026 30217 40304 57023 69921 76066 88///
333 20040=
00000000