0000029800
322
SARS31 RUMS 110930
METAR ULWC 110930Z NIL=
METAR UUBP 110930Z NIL=
METAR UUOB 110930Z 27007MPS 9999 -SHRA BKN016CB 03/02 Q1000 29290050
NOSIG=
METAR UUOK 110930Z NIL=
METAR UWGG 110930Z 20002MPS 9000 -SN OVC007 01/01 Q0987 TEMPO 1000
SHSNRA VV004 18650537 RMK QFE733=

0000093100
323
SARA34 RUMS 110930
METAR UNAA 110930Z 21004MPS CAVOK M03/M08 Q1031 NOSIG RMK QFE751
20090040=
METAR UNBB 110930Z 18002MPS 9999 SCT033 BKN100 M06/M10 Q1031 NOSIG
RMK QFE751/1001 24452045=
METAR UNEE 110930Z 17004MPS 2800 -SHSN OVC010CB M08/M10 Q1030 NOSIG
RMK QFE749 23452045=
METAR UNKL 110930Z 23003MPS 210V270 9999 SCT040CB BKN083 M05/M10
Q1028 NOSIG RMK QFE745 29////55=
METAR UNNT 110930Z 19003MPS 4000 -SN BKN038 OVC083 M07/M09 Q1030
25490142 16490150 NOSIG RMK QFE762/1017=
METAR UNOO 110930Z 18005MPS 4500 BR BKN066 M09/M11 Q1022 25390137
NOSIG RMK QFE759=
METAR UNTT 110930Z 20005MPS 9999 SCT020 OVC100 M07/M09 Q1028 NOSIG
RMK QFE756 21390130=
METAR USTR 110930Z 17003MPS 130V210 9999 SCT012CB OVC021 M06/M08
Q1013 NOSIG RMK QFE750/1001 21350055 12750029=
METAR USHH 110930Z 04003MPS 2500 -SN BKN005 OVC080 M17/M19 Q1015
TEMPO 0600 +SN OVC002 RMK QBB150 QFE758 06////40=

0000086900
324
SARS35 RUMS 110930
METAR USPP 110930Z 15005MPS 7000 OVC009 M02/M03 Q1004 21610145 NOSIG
RMK QFE742/0990=
METAR UWKD 110930Z 15009G12MPS 1100 SNRA OVC004 M00/M00 Q0994
R11/7/0240 NOSIG RMK QFE735/0980=
METAR UWKE 110930Z 18010G13MPS 9999 DRSN OVC008 M02/M03 Q0999 NOSIG
RMK  QFE733/0977 21420542=
METAR UWKS 110930Z 16007MPS 1000 R24/1200N SHSN OVC003CB M01/M01
Q0990 TEMPO 0800 +SHSN VV004 RMK QBB110 QFE728 24590532=
METAR UWLW 110930Z NIL=
METAR UWOR 110930Z NIL=
METAR UWOO 110930Z 21006MPS 5000 -SG OVC016 M01/M02 Q1011 26830336
TEMPO 2000 SN OVC005 RMK QFE748/0997=
METAR UWSS 110930Z 21004G07MPS 3000 -RASN BR BKN006 OVC013 01/01
Q0995 12250355 NOSIG RMK QFE734=
METAR UWWW 110930Z 16009G12MPS 1100 R23/1100D SNRA OVC005 00/M01
Q0997 23////38 33//99// TEMPO 16016MPS 0800 +SHSNRA OVC004 SCT010CB
RMK QFE737/0983=

0000063200
325
SARS33 RUMS 110930
METAR ULLI 110930Z 32007MPS 9999 DRSN BKN011 OVC013 M05/M07 Q0996
88510545 NOSIG=
METAR UUBW 110930Z 24004MPS 9999 BKN010 03/01 Q0986 NOSIG=
METAR UUDD 110930Z 25005MPS 210V290 6000 -SHRA BKN008CB 03/01 Q0986
32290095 82290095 NOSIG=
METAR UUDL 110930Z 19003MPS 7000 OVC004 02/01 Q0984 NOSIG RMK QBB140
QFE729 23690532=
METAR UUEE 110930Z 24005MPS 9999 -RA OVC006 02/01 Q0986 25290151
75290151 NOSIG=
METAR UUWW 110930Z 26006MPS 9999 -RA BKN007 OVC016 02/01 Q0986
24290045 NOSIG=
METAR UUMO 110930Z 26005MPS 9999 BKN008 OVC016 02/02 Q0986 NOSIG RMK
QFE725/0967 26250550=

0000111800
326
SARS32 RUMS 110930
METAR URKA 110930Z 28008G11MPS 9999 SCT020 SCT120 08/03 Q1018 NOSIG
RMK QFE758/1011 SC070=
METAR URKK 110930Z 26008G11MPS 9999 FEW022 08/04 Q1016 NOSIG RMK
QFE759 SC060=
METAR URML 110930Z VRB01MPS 9999 BKN017 07/04 Q1009 NOSIG RMK
QFE757/1009 SC070=
METAR URMM 110930Z 30008G11MPS 9999 SCT036 BKN120 07/M00 Q1012
30CLRD70 TEMPO 31012G17MPS RMK QFE731/0975=
METAR URMN 110930Z 32003MPS 9999 SCT033 OVC100 09/M05 Q1012 TEMPO
32008G13MPS RMK QFE722 SC07=
METAR URMO 110930Z 34002MPS 9999 SCT050 BKN150 03/M00 Q1011 NOSIG RMK
QFE714/0953 SC070=
METAR URMT 110930Z 30011G14MPS 9999 -SHRA SCT008 BKN016 OVC100 05/03
Q1012 NOSIG RMK QFE720 SC0.50=
METAR URRR 110930Z 25010G14MPS 9999 BKN016 OVC100 04/03 Q1010
22290043 TEMPO 26015G20MPS=
METAR URSS 110930Z 14005G08MPS 8000 -SHRA OVC026CB 08/04 Q1019 NOSIG
RMK R06/14004G07MPS MT OBSC QFE763 02290055 06//////=
METAR URWA 110930Z 22007MPS 9999 OVC018 06/03 Q1012 NOSIG RMK
QFE761/1014 SC055=
METAR URWI 110930Z NIL=
METAR URWW 110930Z 26011G14MPS 9999 BKN026CB 04/02 Q1003 NOSIG RMK
29290054=

0000012000
327
SARA35 RUMS 110930
METAR USCM 110930Z 15003MPS 6000 OVC024 M05/M06 Q1009 NOSIG 19420150
RMK QFE719=

0000052500
328
SARA32 RUMS 110930
METAR UHBB 110930Z 32003MPS 280V350 CAVOK M26/M33 Q1025 NOSIG RMK
QFE751/1001 36410160=
METAR UHHH 110930Z 24006MPS CAVOK M24/M30 Q1019 NOSIG RMK QFE758/1011
23090060=
METAR UHMA 110930Z NIL=
METAR UHMD 110930Z NIL=
METAR UHMM 110930Z NIL=
METAR UHPP 110930Z NIL=
METAR UHSS 110930Z 36003MPS 0800 R19/1200D +SHSN VV003 M15/M17 Q1013
NOSIG RMK QBB090 MT OBSC QFE758/1011 19490540=
METAR UHWW 110930Z VRB02MPS 9999 FEW100 M12/M21 Q1024 NOSIG RMK
QFE767/1023 25CLRD70=

0000060100
329
SARA36 RUMS 110930
METAR UWUU 110930Z 17005G08MPS 140V220 9999 BKN007 OVC014 M01/M03
Q1007 14620342 TEMPO 1000 SN FZRA BKN003 RMK QBB220 QFE744/0993 MOD
ICE INC=
METAR USCC 110930Z 15004MPS 5000 BR FU BKN023 OVC070 M05/M07 Q1011
09490350 TEMPO 1100 BR FU BKN005 RMK QFE737=
METAR USNN 110930Z 07003MPS 2000 SN OVC033 M10/M11 Q1018 NOSIG RMK
QFE760 03490432=
METAR USRR 110930Z 08004MPS 3500 -SN SCT028 OVC070 M17/M20 Q1017
TEMPO 1500 SN BKN007 RMK OBST OBSC QFE758 07////35=
METAR USSS 110930Z 15003MPS 7000 BKN009 OVC033 M05/M07 Q1009 0829//37
NOSIG RMK QFE737=

0000076500
330
SARS36 RUMS 110930
METAR ULAA 110930Z 07007G11MPS 040V100 3600 -SN BLSN OVC008 M16/M19
Q1000 BECMG 2000 SN BLSN OVC005 RMK QFE749/0999 SC050=
METAR ULMM 110930Z 00000MPS CAVOK M34/M38 Q1018 NOSIG RMK QFE756
31450239=
METAR ULOO 110930Z 31006MPS 4000 -SHSNRA BKN007 BKN011CB OVC015
M00/M02 Q0997 NOSIG RMK QFE743=
METAR ULPB 110930Z 36005MPS 2300 SHSN BLSN BKN003 BKN010CB M13/M14
Q0994 NOSIG RMK QBB100 OBST OBSC QFE741/0989=
METAR UMKK 110930Z 27006MPS 240V300 8000 -SHRA BKN013CB OVC100 05/03
Q1008 R24/29//60 NOSIG RMK QFE755/1007=
METAR UUOO 110930Z 26007G12MPS 9999 OVC009 03/02 Q0995 NOSIG RMK
30290250=
METAR UUYY 110930Z 04003MPS 1700 SHSN BKN008 OVC013CB M09/M10 Q0999
TEMPO 0700 +SHSN 01490535 RMK QFE740/0986=

0000023300
331
FTCN32 CWAO 110900
TAF CYKJ 110938Z 1110/1122 28005KT P6SM BKN025 BKN060 TEMPO 1110/1116
     4SM -SN OVC015
    FM111600 VRB03KT P6SM BKN012 BKN040 OVC220
    RMK FCST BASED ON AUTO OBS. NXT FCST BY 111300Z=

0000020800
332
FTCN38 CWAO 110900
TAF CYMH 110938Z 1110/1122 26012KT P6SM OVC090
    FM111200 26012G22KT P6SM FEW090
     BECMG 1118/1120 26008KT
    RMK FCST BASED ON AUTO OBS. NXT FCST BY 111400Z=

0000051300
333
FTBZ31 KWBC 110939
TAF
TAF SBFZ 110930Z 1112/1212 08009KT 9999 SCT020 TX30/1114Z
      TN26/1204Z
      BECMG 1113/1114 10015KT RMK PDG=
TAF SBNT 110930Z 1112/1212 12015KT 9999 BKN020 TX30/1115Z
      TN23/1208Z RMK PDG=
TAF SBPS 110930Z 1112/1212 08010KT 9999 SCT020 TX27/1115Z
      TN21/1208Z RMK PDG=
TAF SBRF 110930Z 1112/1212 12010KT 9999 SCT023 TX30/1114Z
      TN22/1206Z RMK PDG=
TAF SBSV 110930Z 1112/1212 08010KT 9999 SCT017 TX28/1114Z
      TN25/1208Z RMK PDG=

0000024900
334
FTUS42 KWBC 110939 AAA
TAF AMD
KCRP 110938Z 1110/1206 23004KT 5SM BR SCT003 BKN250
      TEMPO 1110/1112 2SM BR BKN003
     FM111300 29005KT 5SM BR SCT005
     FM111500 35011KT P6SM FEW250
     FM120000 07010KT P6SM SKC=

0000036900
335
FTUS71 KWBC 110939 AAA
TAF AMD
KAND 110938Z 1110/1206 VRB04KT 3SM TSRA BR SCT003 OVC012CB
      WS020/21045KT
      TEMPO 1110/1111 2SM -SHRA BR OVC003
     FM111100 15006KT 2SM SHRA BR OVC003 WS020/20035KT
     FM111500 20013G21KT 1SM SHRA BR VCTS OVC004CB
     FM111900 24012G18KT P6SM BKN030
     FM112200 25008KT P6SM FEW040 SCT250=

0000066800
336
FTUS72 KWBC 110939 AAA
TAF AMD
KALI 110937Z 1110/1206 26004KT P6SM BKN250
     FM111100 VRB03KT 5SM BR SCT250
      TEMPO 1111/1112 2SM BR SCT005
     FM111300 31005KT P6SM FEW005
     FM111500 34010KT P6SM SKC
     FM120000 07007KT P6SM SKC=
KCRP 110938Z 1110/1206 23004KT 5SM BR SCT003 BKN250
      TEMPO 1110/1112 2SM BR BKN003
     FM111300 29005KT 5SM BR SCT005
     FM111500 35011KT P6SM FEW250
     FM120000 07010KT P6SM SKC=
KVCT 110936Z 1110/1206 VRB05KT 3SM BR SCT003
      TEMPO 1110/1112 3/4SM BR BKN003
     FM111300 33008KT 4SM BR SCT005
     FM111600 01010KT P6SM FEW250
     FM120100 07005KT P6SM SKC=

0000026900
337
FTCN37 CWAO 110900
TAF CZBF 110938Z 1110/1122 VRB03KT P6SM SCT020 TEMPO 1114/1117 BKN020
    FM111700 15007KT 11/2SM -SN -PL OVC015 TEMPO 1117/1119 6SM -FZRA
     BR
    FM111900 17006KT 4SM -FZRA BR BKN008 OVC012
    RMK NXT FCST BY 111400Z=

0000024500
338
FTUS73 KWBC 110939
TAF
TAF KRFD 110926Z 1109/1206 26010KT 2SM BR OVC005
      TEMPO 1109/1110 1/2SM FG VV002
     FM111030 27010KT 5SM BR OVC007
     FM111600 27014G22KT P6SM OVC015
     FM112200 27010KT P6SM SCT015=

0000010000
339
SAHW31 KWBC 110900 RRB
METAR
PHTO 110934Z AUTO 19004KT 10SM OVC030 19/19 A2998=

0000219700
340
SPUS70 KWBC 110938
SPECI
KCEU 110934Z AUTO 00000KT 2SM -RA BR BKN014 BKN019 OVC028 09/08
     A2993 RMK AO2 LTG DSNT NE-S TSE27 P0022=
KRAC 110934Z AUTO 22007KT 1 1/4SM BR OVC002 03/03 A2940 RMK AO2
     T00280028=
KSGH 110934Z AUTO 19007KT 3SM -RA BR SCT006 BKN020 OVC048 09/09
     A2959 RMK AO2 CIG 015V026 P0005=
KGGG 110934Z AUTO 00000KT 1 3/4SM BR CLR 07/06 A2985 RMK AO2=
KGMU 110934Z AUTO VRB03KT 2 1/2SM VCTS +RA BR OVC004 08/07 A2993
     RMK AO2 LTG DSNT ALQDS TSB32 P0008=
KHKY 110934Z AUTO 00000KT 2SM -RA BR FEW002 OVC010 06/05 A2992 RMK
     AO2 PRESFR P0002=
KLEB 110934Z AUTO 00000KT 1 3/4SM UP BR OVC005 M02/M04 A3007 RMK
     AO2 UPB09 P0001 T10171039=
KLOZ 110934Z AUTO 17012G20KT 10SM OVC029 14/11 A2963 RMK AO2 LTG
     DSNT SW-N T01440111=
PATQ 110934Z AUTO 29007KT 2 1/2SM -SN OVC006 M21/M24 A2977 RMK AO2
     TSNO VIS 2V4 P0000=
PATQ 110934Z AUTO 29007KT 2 1/2SM -SN OVC006 M21/M24 A2977 RMK AO2
     TSNO VIS 2V4 P0000=
KAUW 110934Z AUTO 31005KT 2SM -SN BR BKN031 OVC055 M03/M04 A2935
     RMK AO2 P0001 T10281039=
KHFF 110926Z 18008KT 2 1/2SM BR BKN002 16/15 A2997 RMK AO2
     SLP148=
KMCB 110934Z AUTO 25016G23KT 2 1/2SM VCTS +RA BR SCT007 BKN020
     OVC036 19/19 A2982 RMK AO2 VIS 1 3/4V4 LTG DSNT S AND W
     TSB0854E09 P0036 T01940189=
KMRB 110934Z AUTO 34003KT 1/4SM FG VV001 01/00 A2993 RMK AO2
     T00110000 TSNO=
KACK 110935Z AUTO 16010KT 3/4SM R24/3000V3500FT BR VV001 06/05
     A3019 RMK AO2 RAB18E31 P0000 TSNO=
KAMW 110935Z AUTO 29006KT 5SM BR SCT008 M02/M03 A2956 RMK AO2
     T10171028 $=
KATY 110935Z AUTO 32006KT 10SM SCT007 M08/M10 A2955 RMK AO2=
KDEC 110935Z AUTO 26011KT 2SM BR OVC002 06/05 A2949 RMK AO2=
KIPT 110935Z AUTO 06007KT 3SM BR SCT012 BKN018 OVC028 02/01 A2991
     RMK AO2=
KLWV 110935Z AUTO 21007KT 1/2SM FG OVC003 07/ A2954 RMK AO2 T0067
     $=
KMCW 110936Z AUTO 30010KT 3SM BR OVC002 M02/M03 A2951 RMK AO2
     T10221028 TSNO=
KMEB 110935Z AUTO 18009KT 9SM BKN006 BKN020 OVC039 16/16 A2996 RMK
     AO2 T01610161=
KMQY 110935Z AUTO 12/12 RMK AO2 PWINO PNO TSNO RAEMM $=
KTYR 110935Z 00000KT 3SM BR CLR 09/08 A2988 RMK AO2=

0000025100
341
SAJP31 KWBC 110930 RRA
METAR
RJAA 110930Z 17003KT 140V210 9999 FEW030 BKN/// 01/M05 Q1024
     NOSIG=
RJCC 110930Z 24005KT 9999 FEW020 M09/M16 Q1019=
RJTT 110930Z 00000KT 9999 FEW025 SCT/// 07/M05 Q1024 BECMG
     12006KT=

00000000