0000066100
513
UDAF01 FAPR 110625
AMDAR 1106
LVR AFZA23 2839S 02526E 110600 F370 MS470 287/081 TB0 S031 333 F/// VG011=
LVR AFZA23 2802S 02618E 110608 F370 MS474 288/072 TB0 S031 333 F/// VG011=
LVR AFZA23 2723S 02702E 110615 F268 MS245 287/044 TB0 S031 333 F/// VG011=
DES AFZA23 2658S 02728E 110620 F181 MS077 262/011 TB0 S031 333 F/// VG011=
DES AFZA23 2651S 02736E 110621 F159 MS020 243/011 TB0 S031 333 F/// VG012=
DES AFZA23 2648S 02739E 110622 F153 MS015 267/015 TB0 S031 333 F/// VG013=
DES AFZA23 2642S 02744E 110623 F137 MS002 290/028 TB0 S031 333 F/// VG013=
DES AFZA23 2636S 02750E 110625 F117 PS052 287/019 TB0 S031 333 F/// VG013=
0000375200
514
SMCI01 KWBC 110600
AAXX 11061
56146 32780 52705 10063 21210 36690 57029 85/// 333 00251 21098=
56444 32980 00704 10046 21159 36806 57022 333 00200 21073=
56492 11760 82901 10088 20036 39870 40289 57031 69901 72160 88///
333 00602 20062=
56571 32980 01601 10162 21044 38376 57046 333 00453 20031=
57799 11443 83602 10063 20049 30190 40282 57023 69901 76060 88///
333 20057=
57866 11459 83603 10053 20050 30079 40294 57024 60031 76066 88///
333 20051=
57957 11459 80202 10069 20046 30064 40269 57025 60021 76066 88///
333 20062=
57993 31957 73202 10140 20071 30080 40249 57028 70500 87/// 333
20087=
58027 31955 00401 10076 21065 30254 40308 57032 70500 333 21026=
58141 31945 61101 10073 21038 40309 57028 70500 86/// 333 21015=
58265 11955 80903 10061 20002 30299 40305 57023 69901 76060 88///
333 20031=
58472 11963 80405 10064 20007 30192 40293 57024 69901 76060 88///
333 20052=
58477 11456 80703 10071 20056 30243 40289 57022 69971 76066 88///
333 20031=
58527 11227 80401 10058 20052 30202 40281 57020 60051 76066 88///
333 20050=
58633 11628 80902 10056 20049 30180 40284 57022 60051 76060 88///
333 20051=
58666 32668 83606 10092 20078 30164 40272 57025 88/// 333 20077=
58725 32770 83401 10132 20054 39988 40254 57029 88/// 333 20076=
58921 32961 00401 10177 20080 39986 40235 57041 333 20096=
59082 31956 42902 10170 20062 30085 40234 57040 70500 84/// 333
20069=
59211 11458 80202 10124 20103 30021 40234 57022 60021 76066 88///
333 20115=
59265 31856 73401 10190 20116 30084 40223 57035 70500 87/// 333
20126=
59293 32968 02501 10207 20096 30129 40215 57043 333 20084=
59501 32761 61103 10185 20093 30202 40223 57037 86/// 333 20131=
59663 31658 20401 10198 20123 30102 40211 57037 70500 82/// 333
20141=
59838 32580 03204 10233 20188 30175 40185 57030 333 20180=
59948 32380 70710 10208 20174 39701 40188 57028 87/// 333 20176=
59981 32580 30404 10260 20208 30163 40170 57027 83/// 333 20225=
54401 32972 22202 11007 21221 39347 40316 57031 82/// 333 21153=
50353 32970 23405 11249 21323 30029 40282 52006 82/// 333 21419=
50557 32970 00202 11254 21318 39952 40298 52005 333 21386=
50756 32960 22902 11222 21273 39946 40279 57003 82/// 333 21297=
50949 32965 02504 11087 21185 30062 40246 57022 333 21214=
50963 32962 32704 11171 21211 30108 40261 57012 83/// 333 21306=
50978 32972 22708 11121 21209 39882 40248 54000 82/// 333 21222=
51087 32980 00901 11111 21195 39400 40468 57016 333 00005 21254=
51156 32980 00902 11082 21173 38816 40421 57008 333 00051 21164=
51644 32960 32502 11044 21130 39108 40463 57007 83/// 333 00401
21159=
51656 31956 02902 11048 21144 39282 40454 57012 70500 333 00400
21128=
51886 33/// 90000 11074 21245 37154 57010 333 00500 21165=
52602 32980 72201 11096 21255 37312 57014 87/// 333 00553 21235=
52713 32980 72201 11081 21179 36939 57014 87/// 333 00501 21228=
52754 32980 61604 11090 21190 36790 57018 86/// 333 00400 21201=
52818 32680 72902 11062 21230 37282 57014 87/// 333 00552 21143=
52836 32680 72505 11073 21180 36920 57010 87/// 333 00302 21170=
52955 32980 83202 11060 21200 36981 57017 88/// 333 00500 21182=
53068 32966 23604 11075 21237 39146 40363 54000 82/// 333 00200
21192=
53276 32980 72909 11086 21235 38924 40360 57003 87/// 333 21161=
54135 32980 22704 11033 21225 30034 40269 57013 82/// 333 21160=
54236 32980 02503 11009 21205 30157 40269 57026 333 21195=
54539 31916 02503 10037 21074 30276 40289 57027 70500 333 21079=
54662 32960 62203 10041 21071 30176 40294 57023 86/// 333 21019=
54753 31920 02502 10036 21028 30301 40309 57024 70500 333 21043=
54857 31935 22002 10046 21029 30214 40312 57024 70500 82/// 333
21003=
0000370200
515
SMCI01 KWBC 110600 RRA
AAXX 11061
57067 11950 70201 10057 21039 39616 40313 57033 69901 70570 87///
333 21006=
57178 31958 11402 10084 21034 30085 40311 57031 70500 81/// 333
20024=
57245 11958 82701 10048 20006 39959 40323 57030 69901 76066 88///
333 00500 20021=
57297 31945 70403 10071 21029 30160 40305 57023 70500 87/// 333
20026=
50434 32980 03204 11275 21338 39338 40367 52008 333 21451=
50527 32974 03204 11292 21325 39477 40375 52019 333 21322=
50603 32980 03406 11191 21304 39626 40374 52023 333 21225=
50632 32980 43207 11221 21304 39313 40300 52006 84/// 333 21272=
50915 32980 03404 11121 21209 39257 40344 52004 333 21224=
51716 32963 01401 11041 21118 39067 40455 57004 333 00551 21144=
51765 32980 02202 11047 21157 39387 40470 57009 333 00501 21185=
51777 32970 03201 11037 21173 39338 40466 57005 333 00501 21158=
51811 32962 01102 11030 21133 38935 40445 57001 333 00551 21133=
51828 32965 73402 11040 21102 38774 40437 57003 87/// 333 00500
21102=
52267 42980 03204 11056 21208 39245 40431 57010 333 00601 21146=
52323 32980 02905 11057 21221 38327 57017 333 00601 21197=
52495 32980 03407 11053 21223 38789 40424 57010 333 00501 21188=
53149 32978 23208 11091 21251 38853 40370 57003 82/// 333 00252
21166=
53192 32974 22904 11104 21229 38942 40368 57005 82/// 333 21218=
53231 32976 02705 11117 21235 38571 57004 333 00453 21179=
53336 32980 22907 11077 21223 38800 40392 57003 82/// 333 00300
21165=
53391 42967 52908 11082 21227 38534 40337 57012 85/// 333 00000
21180=
53529 42964 32711 11035 21222 38696 40359 57024 83/// 333 00200
21132=
53543 32980 02902 11046 21226 38595 40346 57016 333 21108=
54012 32980 03205 11134 21218 39062 40335 52001 333 21171=
54026 32572 12906 11051 21221 39923 40271 57014 81/// 333 21180=
54027 32980 03603 11047 21213 39656 40279 57007 333 21202=
54208 32980 72904 11068 21215 38790 40329 57014 87/// 333 21200=
54776 31947 71802 10035 21067 30245 40307 57024 70500 87/// 333
21003=
56004 32980 71401 11112 21257 35793 57019 87/// 333 00254 21201=
56046 32980 82203 11057 21147 36233 57018 88/// 333 00554 21134=
56196 32963 80701 10087 20002 40295 57026 88/// 333 00503 20024=
56287 11558 80701 10090 20009 40288 57035 69901 70560 88/// 333
00502 20044=
56977 31569 22501 10217 20114 40176 57028 70040 82/// 333 00102
20111=
57259 11461 82701 10039 20026 40324 57026 69931 70070 88/// 333
20008=
57279 31957 83202 10072 20002 40314 57028 70500 88/// 333 20029=
57793 11630 82701 10062 20052 40283 57025 60031 76066 88/// 333
20050=
58345 11424 80903 10049 20039 40293 57028 60031 76066 88/// 333
20042=
59096 32968 01602 10214 20093 40215 57043 333 20070=
59102 32970 00701 10202 20095 39859 40220 57037 333 20051=
59493 32966 00402 10213 20111 40214 57038 333 20128=
59658 31459 70904 10184 20131 30145 40210 57029 70500 87/// 333
20160=
59845 32575 60702 10253 20164 40188 57036 86/// 333 20183=
50727 11531 63206 11207 21247 39023 40318 52010 69921 77077 86///
333 21225=
53723 32963 22905 11017 21223 38744 40366 57017 82/// 333 00401
21114=
56033 32980 72202 11120 21199 35993 57014 87/// 333 00455 21197=
56684 32963 00704 10074 21026 37819 57040 333 00457 21028=
56751 32780 10907 10160 21016 38025 57030 81/// 333 00251 20080
91117 91525=
56786 32580 02204 10176 21021 38101 57035 333 00300 20048=
57348 32862 70901 10113 20015 39917 40284 57033 87/// 333 20060=
57399 11958 82501 10049 20024 40299 57016 69961 71060 88/// 333
20027=
57554 31857 80000 10051 20010 40308 57029 70500 88/// 333 20024=
58506 11/04 90201 10011 20011 38907 40285 57020 69971 74576 333
21026=
0000048800
516
SMCI01 KWBC 110600 RRB
AAXX 11061
58813 31957 83603 10106 20056 40258 57022 70500 88/// 333 20092=
58834 32966 70402 10156 20076 30063 40249 57036 87/// 333 20099=
58926 32975 02202 10191 20069 40236 57043 333 20105=
58944 32569 43604 10155 20090 40245 57027 84/// 333 20091=
59278 31959 53601 10194 20090 40220 57039 70500 85/// 333 20124=
59456 32865 72701 10214 20133 40208 57037 87/// 333 20145=
59673 32566 00704 10193 20123 30185 40212 57034 333 20153=
0000016300
517
UAPA01 KWBC 110627
ARP WJA1852 36N 150W 0620 F350 MS59 331/028KT TB CONT LGT CHOP
    OCNL MOD=
ARP ANG54 500N 14542E 0622 F380 MS50 115/025KT=
0000011100
518
UANT01 CWAO 110625
ARP DAL264 5732N03528W 0625 F350 MS57 221/36 KT
N803NW DDL XXW 110625 J42A
0000011000
519
UANT01 CWAO 110625
ARP KLM214 5748N03711W 0625 F370 MS58 245/30 KT
PHAOF QXT AOW 110625 J50A
0000011100
520
UANT01 CWAO 110625
ARP AFR6735 4921N04824W 0625 F370 MS67 306/51 KT
FGUOC QXS YYT 110625 F16A
0000035600
521
SMAA10 RUML 110600
AAXX 11064
89050 41398 82712 11005 21029 40025 57005 885//=
89512 12898 71220 10021 21073 39746 49893 52002 60002 87050 333
21001=
89574 42998 00712 10066 21028 39871 49889 52009 333 91131=
89592 42598 60908 10020 21023 49830 52006 85500 333 91110=
89606 41998 61812 11230 21288 36360 47703 57005 73673 80001=
0000003800
522
SMAA11 RUML 110600
NIL
0000013400
523
SMVJ01 AMMC 110600 RRA
BBXX
FHZI 11064 99641 31410 46/// /1721 11001 21002 39864 49875 52016
22243 04010 86001=

0000014900
524
SMPO60 LPMG 110600 RRA
AAXX 11061
08568 42/// /36// 1//// 2//// 3//// 4//// 5////
333  2//// 30/// 5//// 55000 2////
555 60005=
0000019700
525
SIVF30 KWBC 110300 RRJ
BBXX
DBFC 11031 99544 10136 46/// /2607 10056 20039 40106 54000 22270
 00054=
DBFX 11031 99539 10087 46/// /2106 10066 20060 40115 57008 22220
 00071=
0000034500
526
SNVD01 KWBC 110400 RRV
BBXX
42375 11041 99285 70883 46/// /1410 1//// 90420 22200 10401 70007
 555 11084 22091=
42887 11041 99282 70885 46/// /1707 10223 20208 90420 22200 10602
 70009 555 11061 22066=
42392 11041 99272 70900 46/// ///// 1//// 90420 22200 10402 70008=
42369 11041 99272 70903 46/// /1506 1//// 90420=
0000011900
527
SNVD01 KWBC 110500 RRQ
BBXX
42022 11051 99275 70837 46/// /1304 10212 40179 90529 555 11047
 22051=
0000081500
528
SMVA01 KWBC 110600 RRB
BBXX
DFUM2 11064 99255 10355 41398 40217 10200 20096 40210 52020 703//
 83560 22274 04230 21004 301// 40806 80140=
C6TQ6 11063 99295 70145 415// 51804 10180 2015/ 40180 55/// 70211
 85/// 22233 00190 20403 32830 40402 50302 6//// 80160 ICE /////=
SHIP 11063 99123 10439 41/98 51218 10260 20202 40197 50021 83743
 22224 04240 20303 312// 40403 80220=
LXCQ 11064 99219 30608 41/98 30919 10320 20221 40184 58016 70381
 82462 22264 04280 2//05=
62086 11061 99150 10064 46/// /0413 10075 20061 40058 57016 22270
 00079=
DBBH 11061 99180 30117 41698 21611 10180 20157 40138 52012 70111
 81508 22282 04178 20503 321// 40903=
ONGA 11064 99303 30386 41797 61909 10230 2019/ 40140 54/// 70311
 868// 22222 00250 20406 3//// 4//// 5//// 6//// 80200 ICE /////=
0000229700
529
SMVB01 KWBC 110600 RRC
BBXX
WDG4379 11064 99314 11666 41497 63133 10167 20108 40152 52030
 78162 862// 22263 00172 20905 331// 41307 5//// 6//// 80133 ICE
 /////=
V2OB9 11064 99307 11225 41395 80406 10085 20006 40283 56020 71022
 886// 22200 04180 20402 80050=
SHIP 11064 99272 11271 41898 81725 10170 20100 40236 53014 70322
 86356 22213 00222 2//02 302// 40203 80130=
SHIP 11064 99081 11203 41797 80422 10280 20239 40089 57042 70252
 8671/ 22283 00330 20404 301// 40507 80250=
SHIP 11064 99136 11200 41897 60727 10300 20216 40108 56015 70322
 85376 22273 00295 20506 301// 40506 80240=
H9XE 11064 99382 11416 41798 33132 10021 21036 40250 52055 70211
 83245 22253 00090 20103 30705 40302 50102 80000=
SHIP 11064 99117 11503 41697 60616 10280 20224 40126 57010 70211
 861/2 22283 00320 20104 304// 40104 80240=
SHIP 11064 99322 11333 41598 63119 10150 20054 40279 57021 70301
 8521/ 9//// 22214 00210 1//// 20302 334// 40402 5//// 6//// 80100
 /////NNNN=
SHIP 11064 99119 11333 41198 70628 10300 20253 40069 57024 70322
 877// 22212 04280 20707 307// 40608 80265=
SHIP 11064 99172 11153 41797 63616 10280 20224 40187 56020 70322
 85340 22254 00300 20605 305// 40505 80240=
SHIP 11064 99186 11188 41597 20630 10260 20195 40175 57019 70200
 82100 22253 00250 20302 309// 40806 80215=
SHIP 11064 99502 11588 41/96 70916 11010 21071 49890 55005 72077
 88/// 90600 22264 00070 1//// 20805 321// 40906 5//// 6//// 81030
 /////=
SHIP 11064 99113 11424 41497 80623 10282 20227 40089 55014 70222
 82137 9//// 22241 06287 20504 304// 40704 5//// 6//// 80242=
JGQH 11064 99312 11370 41/97 73216 10118 20052 40257 55006 70282
 86230 22241 00192 1//04 20301 331// 40802 70021=
JPBN 11064 99249 11295 41/98 70518 10175 20102 40240 55015 70222
 86230 22271 00241 1//04 20503 301// 40804 70020=
ZCAS2 11063 99166 11314 41497 80423 10253 20203 40147 57030 70222
 887// 22243 00277 20807 307// 41004 80220=
MPMM5 11064 99372 11413 41697 33607 10050 21037 40229 51005 70100
 8/1// 22244 00120 2//// 3//// 4//// 5//// 80020=
AUFI 11063 99098 10749 41397 50410 10270 20243 40193 54111 71212
 84822 22223 00250=
DFHA 11063 99054 10841 41498 50520 10290 20242 40110 58005 70222
 84216 22224 00290 20503 306// 40805 80255=
0000029400
530
SMVC01 KWBC 110600 RRC
BBXX
A8YJ9 11064 99334 50522 41398 39902 10219 20198 40086 56016 70100
 82145 22283 04241=
ZIPR7 11063 99348 50728 41/97 12127 10152 20130 40119 56015 70200
 8//// 22253 00150 2//// 80140=
BAREU08 11064 99302 50725 46/// ///// 40111 57018 22243=
0000375600
531
SMVD01 KWBC 110600 RRJ
BBXX
46185 11061 99524 71298 46/// /1812 10082 49786 57073 22200 00074
 1//// 70/// 333 91216=
46204 11061 99514 71288 46/// /1417 10060 49818 57040 22200 0////
 10909 70046 333 91220=
46131 11061 99499 71250 46/// /1513 10067 49948 57073 22200 00078
 10603 70017 333 91215=
42085 11061 99179 70665 46/// /0606 10252 40170 90540 333 91208
 555 11071 22078=
42085 11061 99179 70665 46/// /0606 10252 40167 90550 333 91207
 555 11070 22076=
46145 11061 99544 71324 46/// /0614 10036 49816 57067 22200 00067
 11205 70026 333 91218=
WCX8812 11064 99392 71409 41/98 42725 10144 20087 40225 52015
 70311 847// 22234 00170 2//// 32827 4//// 5//// 6//// 80113 ICE
 /////=
SHIP 11064 99314 70502 41/97 20311 10170 20100 40258 56010 70100
 8/135 90603 22253 00220 80130=
3FNX5 11063 99284 70881 41/97 61721 10219 20166 40148 55012 7//11
 8//// 22200 00240 20503=
WDD3826 11064 99441 70425 41598 72930 10040 20017 40195 57010
 70222 877// 22214 00130 2//// 3//// 4//// 5//// 6//// 80030 ICE
 /////=
A8MW8 11064 99347 70588 41297 80208 10145 20091 40315 54000 70300
 8/6// 22263 04240 20804 333// 41207 80115=
46147 11061 99518 71312 46/// /2511 10082 49792 57010 22200 00077
 11009 70044 333 91215=
42085 11061 99179 70665 46/// /0607 10252 40166 57015 90600 22200
 00267 10703 70015 333 91208 555 11076 22082=
41053 11061 99185 70661 46/// /0906 10247 40173 57016 90600 22200
 00266 10904 70019 333 91208 555 11070 22076=
41053 11061 99185 70661 46/// /0911 10242 40177 90540 333 91214
 555 11121 22131=
41053 11061 99185 70661 46/// /0807 10240 40175 90550 333 91208
 555 11074 22080=
41052 11061 99183 70648 46/// /0808 10260 40170 90540 333 91210
 555 11093 22101=
41052 11061 99183 70648 46/// /0808 10260 40167 58014 90600 22200
 00267 10703 70016 333 91210 555 11086 22093=
41052 11061 99183 70648 46/// /0908 10260 40169 90550 333 91210
 555 11092 22099=
46215 11061 99352 71209 46/// ///// 1//// 90605 22200 00131 11304
 21002 327// 41303 70019=
46219 11061 99332 71199 46/// ///// 1//// 90610 22200 00143 11305
 21003 330// 41304 70025=
46211 11061 99469 71242 46/// ///// 1//// 90613 22200 00080 11409
 20807 328// 41406 70047=
44060 11061 99413 70721 46/// /0602 10044 20042 40245 58026 90600
 22200 00042 333 91203 555 11026 22031=
51206 11061 99198 71550 46/// ///// 1//// 90603 22200 00251 11005
 21004 309// 41103 70024=
46114 11061 99367 71223 46/// ///// 1//// 90608 22200 00125 11406
 21003 331// 41405 70028=
44099 11061 99369 70757 46/// ///// 1//// 90618 22200 00064 10502
 20502 70009=
44039 11061 99411 70727 46/// /0903 10036 20035 90615 333 91203
 555 11036 22041=
44096 11061 99370 70758 46/// ///// 1//// 90617 22200 00070 10902
 20501 312// 40901 70008=
KIYI 11064 99563 71419 41798 23112 10030 20006 49914 57010 7//00
 828// 22275 0//// 20702 327// 41104 5//// 6//// 80020 ICE /////=
WJBJ 11063 99186 70665 41498 40813 10240 2021/ 40170 57005 71521
 843// 22263 00270 20503 309// 40404 5//// 6//// 80220 ICE /////=
44095 11061 99358 70753 46/// ///// 1//// 90617 22200 00126 10704
 20704 310// 41301 70021=
41113 11061 99284 70805 46/// ///// 1//// 90610 22200 00181 10802
 20802 70011=
44100 11061 99363 70756 46/// ///// 1//// 90604 22200 00089 10502
 20502 70011=
41115 11061 99184 70673 46/// ///// 1//// 90611 22200 10802 20802
 336// 41101 70010=
ZCEG4 11064 99344 70630 41/98 20605 10160 20108 40300 54000 70100
 81//4 22214 00220 20101 336// 40101 80130=
46222 11061 99336 71183 46/// ///// 1//// 90532 22200 00158 11302
 20702 327// 41301 70011=
46216 11061 99343 71198 46/// ///// 1//// 90542 22200 00152 11302
 20902 326// 41302 70012=
0000193700
532
SMVD01 KWBC 110600 RRK
BBXX
46223 11061 99335 71178 46/// ///// 1//// 90548 22200 00157 11201
 20701 327// 41201 70006=
46225 11061 99329 71174 46/// ///// 1//// 90542 22200 00156 11302
 20801 328// 41302 70011=
46246 11061 99500 71451 46/// ///// 1//// 90614 22200 00089 11013
 21009 324// 41308 70064=
46243 11061 99462 71241 46/// ///// 1//// 90616 22200 00087 11509
 20807 327// 41506 70047=
46251 11061 99338 71196 46/// ///// 1//// 90609 22200 00156 11403
 21002 327// 41402 70013=
46232 11061 99325 71174 46/// ///// 1//// 90603 22200 00161 11403
 20802 328// 41402 70015=
46246 11061 99500 71451 46/// ///// 1//// 90544 22200 00089 10913
 20910 323// 41307 70065=
PCKU 11060 99105 70680 41/97 /0707 10233 20203 40145 56005 700//
 8//// 22200 00248 2//// 80212 42898=
PDHW 11063 99469 70522 41397 82728 11030 21061 40204 53010 70211
 887// 22254 20710 332// 40904 81040=
41056 11061 99183 70655 46/// /0707 10249 40171 90550 333 91208
 555 11074 22080=
41056 11061 99183 70655 46/// /0706 10249 40169 58015 90600 22200
 00266 10703 70014 333 91208 555 11070 22076=
41056 11061 99183 70655 46/// /0707 10250 40173 90540 333 91208
 555 11073 22079=
46207 11061 99509 71299 46/// /2412 10082 49829 57006 22200 00078
 11009 70047 333 91215=
44058 11061 99376 70763 46/// /1905 10075 40187 90610 333 91206
 555 11060 22065=
44059 11061 99368 70763 46/// /1702 10142 40180 90610 333 91203
 555 11027 22029=
44064 11061 99370 70760 46/// /1405 10098 40188 90610 333 91206
 555 11057 22062=
44041 11061 99372 70768 46/// /1504 10094 90610 333 91206 555
 11051 22055=
44062 11061 99386 70764 46/// /0201 10025 40194 90610 333 91202
 555 11014 22015=
44063 11061 99390 70764 46/// /3302 10018 40181 90610 333 91203
 555 11028 22030=
46126 11061 99540 71666 46/// /1602 10039 49822 56015 90600 22200
 00046 1//00 70001 333 91203 555 11017 22019=
00000000