0000024500
233
SMSO02 AMMC 110600
AAXX 11063
91502 11470 73204 10288 20258 40051 55009 69921 71582 84977
  333 56799 82815 81916 84630 87280=
91507 31480 22704 10325 20260 40044 5//// 70500 81902
  333 56000 81817 81918=
91541 NIL=

0000009600
234
SMMR41 EUMS 110600
AAXX 11064
78922 46/// /0924 10223 20198 30117 40162 58008=
0000012000
235
SMMC02 GMMC 110600 RRA
AAXX 11064
60106 32560 70000 10085 20076 40179 53005 872//
  333 20080 87820=
0000012200
236
SMIN90 VABB 110600 RRA
AAXX 11063
43109 31996 00000 10228 20135 40161 70544
222// 20000
  333 58013=
0000008700
237
SAIN90 VIGR 110600
METAR VIGR 110600Z 32003KT 1000M BR NSC 16/08 Q1019=
0000016800
238
SNVX22 EGRR 110500 RRC
BBXX
LAVD4 11053 99225 71099 417// 10210 10210 2016/ 40163 51011 7////
81/// 22273 0//// 20201 3//// 40201 50201 6//// 80180=
0000114200
239
SMAU02 AMMC 110600
AAXX 11064
94299 46/// /1219 10288 20239 30063 40073=
94300 46/// /3612 10309 20216 30069 40079=
94302 46/// /0314 10345 20235 30071 40077=
94312 46/// /3214 10347 20271 30063 40072=
94313 NIL=
94317 46/// /1011 10422 21167 39507 40076=
94319 46/// /1011 10428 21048 39737 40059=
94324 NIL=
94326 46/// /1117 10392 20033 39475 40073=
94327 46/// /0812 1//// 2//// 39699 40062=
94332 46/// /1621 10341 20130 39676 40051=
94333 NIL=
94341 46/// /1714 10303 20193 39830 40059=
94346 46/// /0908 10365 20149 39865 40079=
94363 46/// /0708 10318 20161 39897 40110=
94366 NIL=
94367 46/// /1110 10271 20214 30075 40115=
94374 46/// /0711 10282 20163 30109 40125=
94388 NIL=
94393 46/// /1218 10266 30093 40105 56016=
94394 46/// /0817 10256 30118 40126 56015=
94403 46/// /2217 10418 20078 30026 40066=
94429 46/// /0311 10429 21002 39640 40088=
94430 46/// /0709 10418 20222 39524 40089=
94449 46/// /0708 10394 21009 39617 40133=
94451 NIL=
94461 46/// /1513 10397 21130 39439 40090=
94462 46/// /1011 10408 21017 39550 40089=
94477 NIL=
94488 NIL=

0000150900
240
SMAU03 AMMC 110600
AAXX 11064
94500 NIL=
94510 46/// /1814 10297 20155 39773 40112=
94515 46/// /0706 10306 20125 39781 40122=
94552 46/// /1209 10293 20123 39674 40131=
94578 46/// /0712 10267 20176 30143 40154=
94584 46/// /1419 10254 20165 30037 40146=
94601 46/// /1417 10251 20190 30148 40165=
94610 46/// /0913 10417 20055 30090 40113=
94637 46/// /0910 10355 20050 39737 40153=
94638 46/// /1315 10239 20163 30168 40200=
94642 NIL=
94643 NIL=
94647 46/// /1413 10224 20153 30099 40208=
94651 46/// /1621 10233 20156 30122 40198=
94653 46/// /1822 10222 20141 30169 40187=
94659 46/// /1511 10383 20048 39941 40131=
94672 46/// /1514 10291 20023 30169 40179=
94691 46/// /1810 10391 20067 39815 40134=
94693 46/// /2011 10392 20048 30073 40134=
94700 NIL=
94703 46/// /1205 10347 20084 30000 40122=
94710 46/// /1911 10342 20080 39883 40129=
94729 46/// /2011 10298 20082 39307 40137=
94750 46/// /0610 10291 20156 30015 40137=
94767 46/// /0615 10280 20152 30132 40138=
94776 46/// /1111 10303 20143 30129 40139=
94791 NIL=
94802 46/// /1016 10272 20152 30109 40190=
94804 46/// /1724 10195 20145 30166 40204=
94807 46/// /1815 10207 20127=
94821 46/// /1916 10216 20120 30125 40207=
94842 46/// /2411 10171 20128 30108 40207=
94847 NIL=
94850 46/// /2415 10163 20143 30152 40197=
94865 46/// /1713 10204 20131 30167 40191=
94866 46/// /1813 10217 20108 30046 40185=
94875 46/// /1609 10363 20090 39991 40122=

0000270100
241
UDFR01 LFPW 110613
AMDAR 1105
ASC EU6550 4843N 00220E 110558 F003 PS047 /// 036/007 TB1 S031
333 F003 VG051=
ASC EU6550 4843N 00219E 110558 F011 PS062 /// 017/004 TB0 S031
333 F011 VG009=
ASC EU6550 4843N 00217E 110558 F019 PS057 /// 313/004 TB0 S031
333 F019 VG002=
ASC EU6550 4842N 00217E 110559 F028 PS050 /// 294/006 TB0 S031
333 F028 VG003=
ASC EU6550 4841N 00216E 110559 F035 PS045 /// 287/009 TB0 S031
333 F035 VG010=
ASC EU6550 4841N 00214E 110559 F040 PS040 /// 276/012 TB0 S031
333 F040 VG008=
ASC EU6550 4841N 00213E 110600 F045 PS025 /// 261/013 TB0 S031
333 F045 VG003=
ASC EU6550 4840N 00212E 110600 F052 PS007 /// 256/016 TB1 S031
333 F052 VG013=
UNS EU6550 4839N 00210E 110600 F062 MS007 /// 243/019 TB0 S031
333 F062 VG009=
ASC EU6550 4838N 00209E 110601 F072 MS022 /// 257/024 TB2 S031
333 F072 VG031=
ASC EU6550 4837N 00208E 110601 F080 MS037 /// 256/026 TB2 S031
333 F080 VG035=
UNS EU6550 4835N 00207E 110601 F091 MS057 /// 249/019 TB0 S031
333 F091 VG005=
ASC EU6550 4834N 00207E 110602 F105 MS084 /// 254/041 TB3 S031
333 F105 VG086=
ASC EU6550 4832N 00208E 110602 F114 MS104 /// 247/048 TB1 S031
333 F114 VG017=
ASC EU6550 4831N 00208E 110602 F123 MS117 /// 242/048 TB1 S031
333 F123 VG022=
UNS EU6550 4829N 00208E 110603 F128 MS124 /// 245/046 TB0 S031
333 F128 VG001=
UNS EU6550 4828N 00208E 110603 F132 MS132 /// 248/046 TB2 S031
333 F132 VG036=
UNS EU6550 4826N 00207E 110603 F141 MS147 /// 248/039 TB1 S031
333 F141 VG018=
UNS EU6550 4824N 00207E 110604 F150 MS172 /// 252/033 TB1 S031
333 F150 VG014=
ASC EU6550 4822N 00208E 110604 F160 MS192 /// 255/034 TB0 S031
333 F160 VG005=
ASC EU6550 4820N 00208E 110604 F171 MS204 /// 266/025 TB2 S031
333 F171 VG022=
ASC EU6550 4818N 00208E 110605 F179 MS219 /// 277/024 TB0 S031
333 F179 VG000=
ASC EU6550 4814N 00209E 110605 F197 MS252 /// 284/022 TB1 S031
333 F197 VG009=
ASC EU6550 4810N 00209E 110606 F216 MS292 /// 281/028 TB0 S031
333 F216 VG003=
ASC EU6550 4808N 00209E 110606 F225 MS317 /// 285/032 TB1 S031
333 F225 VG008=
ASC EU6550 4803N 00208E 110607 F241 MS352 /// 284/033 TB0 S031
333 F241 VG005=
ASC EU6550 4801N 00208E 110607 F252 MS369 /// 277/036 TB0 S031
333 F252 VG000=
ASC EU6550 4756N 00208E 110608 F271 MS422 /// 275/034 TB1 S031
333 F271 VG010=
ASC EU6550 4754N 00208E 110608 F281 MS439 /// 267/034 TB1 S031
333 F281 VG009=
ASC EU6550 4749N 00208E 110609 F302 MS492 /// 259/031 TB2 S031
333 F302 VG025=
ASC EU6550 4743N 00208E 110610 F321 MS537 /// 264/033 TB1 S031
333 F321 VG011=
ASC EU6550 4738N 00208E 110611 F334 MS572 /// 270/033 TB0 S031
333 F334 VG002=
0000163100
242
SMAU04 AMMC 110600
AAXX 11064
94893 46/// /2821 10177 20122 30057 40172=
94907 46/// /2712 10285 20122 30149 40159=
94910 46/// /2314 10354 20072 39890 40132=
94926 46/// /3307 10300 20095 39481 40135=
94935 46/// /2011 10215 20144 30131 40157=
94951 46/// /0419 10185 20138 30107 40122=
94954 46/// /2321 10162 20130 30075 40185=
94956 46/// /3008 10173 20124 30154 40181=
94975 46/// /1508 10221 20097 30085 40117=
94983 46/// /3513 10181 20140 30111 40136=
94995 46/// /0910 10217 20157 30177 40185=
94996 46/// /1210 10212 20128 30037 40165=
94997 NIL=
94998 46/// /2933 10067 20030 39850 49860=
95111 46/// /2907 10329 20244 30020 40056=
95205 46/// /2606 10372 20220 30057 40064=
95322 NIL=
95448 46/// /0407 10429 21047 39555 40101=
95458 46/// /1315 10405 21001 39865 40120=
95480 46/// /1903 10401 20095 30060 40117=
95481 46/// /1213 10400 20094 30061 40104=
95482 46/// /1509 10405 20043 30030 40084=
95485 46/// /1414 10367 20068 39922 40120=
95492 46/// /1109 10352 20122 39964 40113=
95527 46/// /1011 10310 20109 39881 40128=
95634 46/// /0708 10397 20024 39741 40132=
95637 46/// /1010 10364 20024 39833 40160=
95646 46/// /1413 10332 20072 39991 40176=
95666 NIL=
95719 46/// /1909 10322 20139 39812 40134=
95762 46/// /2306 10328 20089 39676 40121=
95826 46/// /1910 10176 30209 40211=
95839 46/// /1912 10313 20049 30007 40162=
95864 46/// /1918=
95909 NIL=
95954 NIL=
95966 46/// /3517 10265 20110 39916 40113=
96995 46/// /1505 10272 20224 39802 40096=
96996 41562 51411 10294 20212 30105 40109 57018 70222 85800=

0000039600
243
SXXX32 EUMS 110603 RRH
16590056
:PRS 1 /1 2723 2724 2715 2712 2706 2703 2703 2706 2706 2706 2708 2715 :RAD 1 /1 7040 7039 7029 7026 7021 7018 7016 7020 7021 7021 7021 7028 7026 7026 7032 7034 7038 7038 :ENC 6 /6 5238 5248 5259 5248 5229 5243 5262 5243 5232 5214 :ENB 6 /6 5234 5244 5254 5243 5225 5239 5257 5239 5229 5212 :SW1 3 /60 0 :SW2 30 /60 0 :BAT 5 /6 12.9 :NAME 16590056
0000045000
244
SXXX32 EUMS 110603 RRI
22856700
:PRS 1 /1 3516 3511 3506 3503 3498 3498 3496 3490 3483 3484 3484 3482 3478 3476 3474 3467 3468 3476 3472 3462 3457 3461 3452 3444 3443 3436 3431 3431 3431 3429 :RAD 1 /3 7002 6991 6983 6976 6966 6960 6951 6938 6925 6918 6910 6905 6897 6886 6881 6873 6862 6851 6841 6836 :ENC 3 /5 5198 5183 5171 5164 5141 5125 5115 5101 5085 5074 5058 5038 :SW1 3 /60 0 :SW2 33 /60 0 :BAT 14 /15 13.1 :NAME 22856700 /
0000045200
245
SXXX32 EUMS 110603 RRJ
32D8A2BE
:PRS 1 /1 2011 2010 2020 2010 2016 2019 2016 2019 2015 2021 2017 2019 2026 2013 2026 2032 2029 2019 2028 2029 2025 2024 2025 2032 2033 2031 2029 2030 2030 2038 :RAD 1 /3 7592 7595 7590 7592 7595 7600 7606 7606 7616 7618 7619 7611 7610 7615 7618 7610 7610 7612 7612 7615 :ENC 3 /5 5022 5021 5026 5030 5034 5032 5036 5039 5041 5040 5041 5043 :SW1 3 /60 15 :SW2 33 /60 33 :BAT 14 /15 13.4 :NAME 32D8A2BE /
0000004100
246
SMPS01 AMMC 110600
NIL

0000048200
247
SXXX32 EUMS 110604 RRK
262AD2C2
OT12 ID:PK-ORMA-10 DT:2014 01 11 06 03
:PRS /1 07098 07078 07091 07080 07097 07079 07076 07072 07067 07041 07055 07055 07051 07058 07052 07036 07041 07043 07017 07015 06989 06992 06980 06986 06980 06976 06980 06984 06966 06967
:RAD /1 ///// ///// ///// ///// ///// ///// ///// ///// ///// ///// ///// ///// ///// ///// ///// ///// ///// ///// ///// ///// ///// ///// ///// ///// ///// ///// ///// ///// ///// /////
:BAT 13.3V/
0000014800
248
SMVS40 VNNN 110600
AAXX 11061
48863 01495 83602 10234 20214 30164 40175 57024 60073 78182 882// 333 59002 60051 82894 88895 96164=
0000011800
249
SMVS40 VNNN 110600
AAXX 11061
48907 32598 30703 10290 20215 30127 40130 57022 82201 333 58007 82895=
0000003800
250
SMVA01 AMMC 110600
NIL
0000003800
251
SMVB01 AMMC 110600
NIL
0000128800
252
SMUZ10 UTTW 110600
AAXX 11061
38141 32598 80000 10012 21059 30062 40224 53018 885// 333 20002=
38149 41996 00000 10015 21051 30139 40217 53011 71000 333 21058=
38178 42998 22003 11038 21117 39934 40231 53008 80001 333 21058=
38262 32998 00000 10014 21057 30163 40246 53016 333 21086=
38264 41596 70000 10002 21035 30130 40225 52012 71022 87500 333 21053
87631=
38396 42996 09901 10006 21048 30102 40230 52009 333 21074=
38403 42997 02702 11007 21081 30088 40212 53001 333 21027=
38413 42998 01905 10048 21043 39946 40240 57002 333 20017=
38457 32999 21101 10052 21106 39659 40252 57001 81041 333 21041=
38462 NIL=
38565 32998 00000 10008 21045 39652 40250 53008 333 21053=
38579 32999 60201 10054 21063 39817 40239 57004 81041 333 21024=
38583 31996 21101 10010 21013 39935 40265 57001 71000 80001 333
21055=
38611 41/93 90000 11063 21071 39738 40344 52001 74944 333 21092
8019/=
38618 32997 63101 11011 21047 39591 40305 57002 80009 333 21090=
38683 41996 81604 10022 21038 39971 40254 53009 71011 80001 333
21032=
38696 32999 61101 10044 20005 39388 40254 54000 82044 333 21049=
38812 41996 61802 10035 21015 39774 40236 57010 71011 80008 333
21045=
38927 31956 60601 10038 21035 39908 40293 54000 71011 80001 333
21057=
00000000