0000161700
493
SMNR01 DRRN 110600
AAXX 11064
61017 32960 50000 10086 20006 39789 40211 80002
  333 00200 20040 50334 55098 58013 85080=
61024 32960 31206 10115 20011 39604 40184 80002
  333 01000 20115 51231 55104 58008 83080=
61036 32960 70604 10194 20013 39898 40137 80008
  333 01800 20190 51021 51004 55046 58008 87280=
61043 31935 71010 10156 21013 39712 40158 7062/ 80008
  333 01300 20146 51494 51401 55083 58007 87280=
61045 31905 70804 10140 21012 39670 40176 70644 80008
  333 01200 20140 5//// 50914 55077 59006 87280=
61049 32960 70000 10120 20020 39850 40177 80008
  333 00900 20100 50881 50704 55092 58007 87280=
61052 31945 70808 10194 21009 39887 40143 70611 80008
  333 01400 20170 51041 55091 59003 87280=
61053 31940 70806 10177 20003 39/// 4//// 7062/ 80008
  333 01600 20175 51101 51004 55092 5//// 87280=
61075 31958 61006 10175 21011 39842 40152 70622 80008
  333 01600 20175 51291 50694 55095 58001 86280=
61080 31920 70804 10155 21022 39741 40167 7062/ 80008
  333 01300 20155 50981 50954 55067 58006 87280=
61085 31905 50808 10140 20017 39817 40253 7064/ 80002
  333 01300 20135 50744 58002 85080=
61090 31906 70410 10155 21022 39652 40169 70644 80008
  333 01400 20150 50931 50864 55057 58021 87280=
61091 31935 70802 10135 20021 39716 40178 7062/ 80008
  333 00900 20134 50671 50384 55065 58009 87280=
61096 31918 70408 10146 20006 39785 40174 70522 80008
  333 01300 20145 50774 55098 58001 87280=
61099 31956 70806 10200 20051 39895 40124 7062/ 80008
  333 01600 20196 51081 51004 55091 58007 87280=





NNNN
/=
0000009600
494
SMAL51 DAMM 110600 RRE
AAXX 11061
60376 36/// /0000 10140 20067
  333 20135=
0000027400
495
SAPK31 OPKC 110630
METAR OPGD 110630Z NIL=
METAR OPKC 110625Z 03007KT 7000 SCT200 20/M06 Q1023 NOSIG=
METAR OPLA 110627Z 35006KT 4000 FU NSC 12/02 Q1020/A30.12 =
METAR OPNH 110630Z NIL=
METAR OPPS 110630Z NIL=
METAR OPRN 110630Z NIL=
METAR OPSK 110630Z NIL=

0000009700
496
SAIN90 VOBL 110630
METAR VOBL 110630Z 16006KT 070V240 8000 NSC 28/16 Q1019 NOSIG=
0000195000
497
SMRA14 RUHB 110600
AAXX 11061
21802 42999 01305 11388 21410 30236 40264 57007=
24125 42998 01102 11439 21456 39989 40321 57004=
24136 42999 20000 11484 21499 30224 40346 57003 80001=
24143 42999 00000 11467 21502 30303 40363 57004=
24266 42999 20000 11460 21481 30152 40363 52004 82030=
24329 42999 00000 11474 21496 30012 40375 57002=
24343 41496 60000 11477 21500 30228 40372 58004 71022 82032=
24382 41997 80000 11287 21305 30036 40315 52004 77172 86037=
24639 42999 22203 11424 21455 30221 40403 54000 80001=
24641 42999 82501 11435 21474 30221 40391 58003 80001=
24652 42998 00000 11470 21496 30240 40389 52003=
24656 42999 02701 11459 21486 30269 40392 53007=
24671 41998 81603 11403 21426 39746 40335 53003 72673 86071=
24688 41999 00000 11432 21456 39275 40344 54000 77611=
24724 41999 02305 11407 21432 39779 40401 56005 73673=
24738 42999 01801 11413 21438 30205 40413 57003=
24768 42998 12501 11437 21469 30112 40391 52003 80001=
24923 41998 62301 11437 21469 30085 40454 57010 77171 83035=
24944 41996 80000 11440 21470 30098 40448 57006 77171 80007=
24951 41998 02605 11425 21456 30228 40428 58003 73633=
24661 41998 00000 11476 21505 30062 40385 52012 74000=
24959 42998 02701 11413 21451 30235 40388 53001=
24962 41995 60000 11455 21472 30174 40399 53002 71011 82031=
24966 41998 80000 11398 21434 30117 40371 54000 77172 8802/=
24967 42999 22702 11383 21409 30158 40416 57004 80001=
25206 41998 80000 11374 21388 30246 40277 54000 77172 82037=
25400 41597 83502 11292 21315 30220 40282 53003 77173 8372/=
30054 41993 60000 11444 21476 30185 40477 57010 74441 80001=
30089 42999 10000 11447 21470 30213 40484 58012 80001=
30393 42999 33003 11365 21388 39235 40441 52003 80001=
30493 41999 80202 11340 21375 39196 40387 52016 70273 84051=
31004 42999 20000 11340 21368 39475 40432 52005 80001=
31137 41999 82904 11323 21346 39197 40361 52001 70272 8805/=
0000011000
498
UANT99 KDDL 110627
ARP DAL32 4953N03610W 0627 F390 MS53 247/34 KT
N858NW DDL XXW 110627 J32A
0000011000
499
UANT99 KDDL 110628
ARP QTR702 5251N04614W 0627 F310 MS58 302/79 KT
A7BAG QXT AOW 110628 F21A
0000011000
500
UANT99 KDDL 110628
ARP AFR011 4655N03556W 0628 F390 MS48 243/32 KT
FGZCM QXT AOW 110628 J73A
0000011000
501
UANT99 KDDL 110628
ARP BAW17V 5230N03258W 0628 F340 MS58 202/49 KT
GYMMT QXT AOW 110628 F12A
0000011000
502
UANT99 KDDL 110628
ARP AFR457 4544N01000W 0627 F360 MS61 287/42 KT
FGSQL DDL SCQ 110628 F84A
0000011000
503
UANT99 KDDL 110628
ARP BAW116 5140N02422W 0628 F390 MS56 217/81 KT
GVIIH QXT AOW 110628 F20A
0000010900
504
UANT99 KDDL 110628
ARP SIA25 5200N02004W 0628 F390 MS53 243/65 KT
9VSKR QXT EUA 110628 J58A
0000215900
505
SZNZ01 NZKL 110630
CREX++
T000103 A001 D01021 D06025++
-3683144 17478654 AUCT  2014 01 11 06 22 //// 11 07 00 01
05121 3122 05112 3121 05104 3121 05096 3122 05088 3123 05081 3124+
-4402404 -17636748 CHIT  2014 01 11 06 22 //// 11 07 00 01
04381 1968 04375 1964 04397 1987 04393 1985 04386 1980 04398 1994+
-4089929 17623168 CPIT  2014 01 11 06 22 //// 11 07 00 01
03377 2278 03374 2279 03359 2268 03347 2259 03366 2282 03350 2269+
-3618905 17548887 GBIT  2014 01 11 06 22 //// 11 07 00 01
05730 0021 05736 0033 05717 0020 05696 0004 05686 0000 05701 0021+
-3867541 17802288 GIST  2014 01 11 06 22 //// 11 07 00 01
03593 2696 03574 2682 03582 2694 03580 2697 03591 2712 03571 2697+
-4241288 17370277 KAIT  2014 01 11 06 22 //// 11 07 00 01
02715 2202 02699 2189 02694 2187 02695 2190 02699 2197 02694 2194+
-3755040 17815904 LOTT  2014 01 11 06 22 //// 11 07 00 01
03275 0212 03263 0204 03277 0224 03255 0208 03252 0209 03241 0204+
-3704657 17451175 MNKT  2014 01 11 06 22 //// 11 07 00 01
03467 -0132 03462 -0138 03459 -0141 03453 -0148 03468 -0133 03457 -0144+
-3947566 17692007 NAPT  2014 01 11 06 22 //// 11 07 00 01
02584 2072 02572 2064 02569 2065 02557 2057 02561 2065 02554 2063+
-3441483 17304870 NCPT  2014 01 11 06 22 //// 11 07 00 01
00480 -4103 00638 -3939 00908 -3664 01044 -3523 01104 -3457 01002 -3553+
-4581435 17062939 OTAT  2014 01 11 06 22 //// 11 07 00 01
03771 3433 03773 3435 03776 3438 03778 3440 03779 3441 03781 3442+
-2928002 -17789440 RBCT  2014 01 11 06 22 //// 11 07 00 01
05985 2039 05997 2055 05991 2053 05968 2034 05969 2039 05960 2034+
-2925114 -17790384 RFRT  2014 01 11 06 22 //// 11 07 00 01
02894 0215 02884 0209 02891 0221 02886 0221 02885 0223 02882 0224+
-4357010 17277383 SUMT  2014 01 11 06 22 //// 11 07 00 01
01179 1846 01189 1859 01176 1849 01185 1861 01176 1854 01162 1842+
-3764109 17618118 TAUT  2014 01 11 06 22 //// 11 07 00 01
05049 3999 05041 3996 05041 4002 05030 3997 05024 3996 05017 3995+
-4128448 17477985 WLGT  2014 01 11 06 22 //// 11 07 00 01
02715 2091 02711 2089 02718 2098 02712 2094 02714 2098 02716 2102++
7777
0000046200
506
SMVD15 KWNB 110600 RRL
BBXX
44064 11061 99370 70760 46/// /1406 10107 40185 90620 333 91207
555 11065 22070=
44062 11061 99386 70764 46/// /3502 10025 40194 90620 333 91203
555 11025 22028=
44063 11061 99390 70764 46/// /3302 10018 40179 90620 333 91203
555 11025 22028=
44041 11061 99372 70768 46/// /1605 10092 90620 333 91206 555
11060 22065=
44042 11061 99380 70763 46/// /1604 10070 40177 90620 333 91205
555 11042 22045=
0000086200
507
SMCN04 KWBC 110600
AAXX 11064
71915 12974 03205 11309 21349 39958 40043 53021 60001 333 11244=
71224 15/// /2005 11023 21065 60001 333 10020 21041 70000 555
32741 40143=
71289 15/// /2109 11093 21108 60001 333 11019 21120 70000=
71345 15/// /2106 11056 21073 60001 333 10038 21069 70000 555
32630 40221=
71535 15/// /1607 11061 21079 60001 333 10048 21076 70000 555
32429 40071=
71907 45/// /0202 11283 21312 30069 40100 52016 6///1 333 7////=
71225 15/// /1506 11078 21095 60001 333 10045 21078 70000 555
32728 40221=
71276 15/// /2206 11093 21112 60001 333 11020 21113 70000 555
32819 40020=
71343 17/// /1510 11049 21077 60011 7//4/ 333 10037 21062 70014
555 32630 40071=
71537 15/// /2005 11157 21169 60001 333 11028 21186 70000=
71979 15/// ///// 11110 21136 38334 49987 58034 60001 333 11033
21125 70000=
0000012600
508
SMVS01 KWBC 110600
AAXX 11061
48803 32460 80000 10179 20123 30091 40207 57031 888// 333 58001
83894 88696=
0000066100
509
UDAF01 FAPR 110627
AMDAR 1106
DES AFZA25 2136N 11337E 110613 F159 MS027 246/026 TB0 S031 333 F/// VG014=
DES AFZA25 2133N 11344E 110616 F137 PS000 271/022 TB0 S031 333 F/// VG014=
DES AFZA25 2130N 11333E 110619 F130 PS020 270/023 TB0 S031 333 F/// VG014=
DES AFZA25 2140N 11339E 110622 F117 PS047 265/022 TB0 S031 333 F/// VG013=
DES AFZA25 2146N 11347E 110624 F098 PS059 266/016 TB0 S031 333 F/// VG013=
DES AFZA25 2151N 11348E 110625 F080 PS040 200/005 TB0 S031 333 F/// VG014=
DES AFZA25 2155N 11346E 110626 F063 PS070 282/003 TB0 S031 333 F/// VG014=
DES AFZA25 2159N 11345E 110627 F047 PS118 335/010 TB0 S031 333 F/// VG015=
0000066100
510
UDAF01 FAPR 110629
AMDAR 1106
ASC AFZA45 3359S 02536E 110628 F001 PS185 228/010 TB1 S031 333 F/// VG027=
ASC AFZA45 3359S 02536E 110628 F003 PS178 246/006 TB1 S031 333 F/// VG032=
ASC AFZA45 3359S 02535E 110628 F006 PS171 265/008 TB1 S031 333 F/// VG031=
ASC AFZA45 3359S 02535E 110629 F009 PS164 251/011 TB1 S031 333 F/// VG031=
ASC AFZA45 3400S 02535E 110629 F012 PS155 269/011 TB1 S031 333 F/// VG031=
ASC AFZA45 3400S 02535E 110629 F014 PS147 265/008 TB1 S031 333 F/// VG031=
ASC AFZA45 3400S 02534E 110629 F017 PS138 255/012 TB1 S031 333 F/// VG031=
ASC AFZA45 3400S 02534E 110629 F018 PS136 254/010 TB1 S031 333 F/// VG038=
0000017800
511
SMVA01 KWBC 110000 RRL
BBXX
ONGA 11004 99306 30377 41898 62009 10220 2017/ 40120 54/// 70311
 862// 22222 00250 20306 3//// 4//// 5//// 6//// 80190 ICE /////=
0000066100
512
UDAF01 FAPR 110629
AMDAR 1106
DES AFZA25 2136N 11337E 110613 F159 MS027 246/026 TB0 S031 333 F/// VG014=
DES AFZA25 2133N 11344E 110616 F137 PS000 271/022 TB0 S031 333 F/// VG014=
DES AFZA25 2130N 11333E 110619 F130 PS020 270/023 TB0 S031 333 F/// VG014=
DES AFZA25 2140N 11339E 110622 F117 PS047 265/022 TB0 S031 333 F/// VG013=
DES AFZA25 2146N 11347E 110624 F098 PS059 266/016 TB0 S031 333 F/// VG013=
DES AFZA25 2151N 11348E 110625 F080 PS040 200/005 TB0 S031 333 F/// VG014=
DES AFZA25 2155N 11346E 110626 F063 PS070 282/003 TB0 S031 333 F/// VG014=
DES AFZA25 2159N 11345E 110627 F047 PS118 335/010 TB0 S031 333 F/// VG015=
00000000