0000125700
453
SZIO42 AMMC 110628
DART 53046S 011062835

D$0 01/11/2014 01:13:08 1106.9520 S 06025.5687 E 039* 0A
D$0 01/11/2014 01:13:08 1106.9520 S 06025.5687 E 039* 4C
D$MI
WIND 01/11/2014 00:32:00 00:20:00
-00.0 -00.0 000.0 000.0 -00.0 -00.0 -00.0 -00.0 -00.0 -00.0 
-00.0 -00.0 -00.0 -00.0 000.0 000.0 -00.0 -00.0 -00.0 -00.0 
000.0 000.0 -00.0 -00.0 -00.0 -00.0 000.0 000.0 -00.0 -00.0 
-00.0 -00.0 000.0 000.0 -00.0 -00.0 
SST 01/11/2014 00:30:00 00:20:00
99.999 99.999 99.999 99.999 99.999 99.999 
99.999 99.999 99.999 99.999 99.999 99.999 
99.999 99.999 99.999 99.999 99.999 99.999 
BARO 01/11/2014 00:32:00 00:20:00
1010.11 1010.33 1010.45 1010.72 1010.94 1011.37 
1011.57 1012.20 1012.09 1012.13 1012.15 1012.31 
1012.41 1012.10 1012.56 1012.62 1012.50 1012.27 
LOAD 01/11/2014 00:32:00 00:20:00
-018 0004 -024 -005 -017 0004 -028 -005 
-018 0004 -024 -005 -018 0004 -024 -005 
-018 0004 -024 -005 -017 0004 -024 -005 
-017 0004 -028 -002 -018 0004 -028 -005 
-017 0004 -024 -002 -018 0004 -028 -005 
-017 0004 -024 -005 -017 0004 -028 -005 
-018 0004 -024 -005 -017 0004 -024 -005 
-018 0004 -024 -005 -017 0004 -024 -005 
-018 0004 -024 -002 -017 0004 -024 -005 
BATT 01/11/2014 01:19:00 24:00:00
9.93 0.00 26.22 0
0000061600
454
SZOC41 AMMC 110628
DART 55015S 011062837

D$0 01/11/2014 01:13:11 4650.8427 S 16016.2438 E 041* 4F

D$1I 01/11/2014 00:15:00 1364142 5019558 5019508 5019467 5019430  1* 3B
D$1I 01/11/2014 01:15:00 1364142 5019399 5019373 5019352 5019337  1* 3A
D$1I 01/11/2014 02:15:00 1364142 5019328 5019328 5019333 5019347  1* 3D
D$1I 01/11/2014 03:15:00 1364142 5019366 5019392 5019422 5019456  1* 37
D$1I 01/11/2014 04:15:00 1364142 5019496 5019539 5019583 5019632  1* 35
D$1I 01/11/2014 05:15:00 1364142 5019684 5019737 5019785 5019834  1* 35
D$MI
BATT 01/11/2014 01:19:00 24:00:00
16.28 10.29 44.82
0000017800
455
SMGE01 FAGE 110602
AAXX 11064
68906 11498 72313 10136 20125 30102 40167 53016 60084 72055 876//
      222// 00138 333 20136 91018 555 10201 20083 69945 91016=
0000028600
456
SXHW11 KWAL 110627
15DEF7B8 011062753"
1,140111,05:15:02,10.3,94,14.6,20.1,965.0,0.00,13.1,
1,140111,05:30:02,9.6,94,14.7,19.9,965.2,0.00,13.0,
1,140111,05:45:02,10.3,92,16.9,19.8,965.2,0.00,13.1,
1,140111,06:00:02,10.2,84,14.7,19.9,965.3,0.00,13.1, 43-0NN  30W
0000014400
457
SMMC01 GMMC 110600 CCA
AAXX 11064
60135 11550 61703 10118 20100 40160 53003 69914 70262 83530
  333 20117 31004 83620 86360=
0000208100
458
SMMG01 FMMI 110600
AAXX 11064
67002 32580 53406 10300 20236 30110 40145 83881
  333 0//00 20246 55115 58015 81822 83073 92418=
67009 12582 21410 10305 20256 30004 40122 51015 60094 82932
  333 02119 10338 20210 50184 55075 82820 81920 94972 94973 95812
  95813
  555 81360 81075=
67012 12582 52208 10294 20230 30104 40115 51001 60014 83230
  333 0//// 10330 20240 50314 55/// 83820 83360=
67025 NIL=

67027 32582 32604 10298 20220 30110 40131 51011 81202
  333 02000 10319 20243 50144 55108 81820 83073=
67045 NIL=

67072 12480 72804 10/// 30143 40146 51008 60202 86202
  333 02400 10326 20254 50314 5//// 86817 92418
  555 82075=
67073 12582 60000 10282 20248 30112 40138 51012 61094 82933
  333 0//39 10270 20235 50//4 55/// 81823 81923 83273 94965 94966
94967 95835 95836
  555 82633 81360=
67083 32580 70000 10226 20186 38770 48544 51007 83808
  333 01400 10267 20172 50264 55051 81820 83623 86273=
67095 11470 63604 10300 20264 30136 40143 51008 69934 71562 85802
  333 02115 10321 20239 50264 55104 84817 555 82633 82073=
67113 12575 6//// 10300 20251 30/// 40/// 5//// 69974 84832
  333 0//16 10326 20264 50//4 55/// 84820 83073
  555 81640 81360=
67117 32582 50404 10285 20/// 30136 40145 52011 81832
  333 0//00 10268 20227 50//4 55/// 81820 84073
  555 81640 82360=
67137 11475 40000 10258 20216 38917 48525 51010 60034 71022 83802
  333 0//19 10286 20192 50254 55/// 83817
  555 81620 81073=
67143 32582 50406 10295 20230 30131 40138 51009 85802
  333 02200 10310 20244 50024 55/// 82820 83633 92438
  555 81073=
67152 11580 43602 10229 20207 39233 48538 52012 60044 70141 84230
  333 01618 10222 20185 50//4 55/// 84820
  555 81360=
67157 32580 6//// 10/// 20/// 30155 40162 53009 86800
  333 0//00 10/// 20/// 50//4 55/// 83820 85640=
67161 32582 43002 10/// 20/// 30133 40142 51011 84802
  333 0//00 10/// 20/// 50//4 55/// 83817
  555 81640 81073=
67197 22581 20000 10287 20241 30139 40149 54011 60054 81202
  333 01919 10330 20244 50174 55041 81820 83073=
0000011200
459
UANT99 KDDL 110626
ARP GTI8164 5500N01940W 0626 F360 MS60 223/67 KT
N465MC DDL XXW 110626 F80A
0000011100
460
UANT99 KDDL 110627
ARP UAL987 5501N02057W 0621 F330 MS60 256/64 KT
N646UA DDL XXN 110627 F69A
0000011100
461
UANT99 KDDL 110627
ARP AWE796 4754N03603W 0627 F370 MS50 240/25 KT
N281AY DDL XXN 110627 J37A
0000011000
462
UANT99 KDDL 110627
ARP AAL50 5148N03637W 0627 F340 MS57 240/24 KT
N726AN DDL XXW 110627 F50A
0000011100
463
UANT99 KDDL 110627
ARP DAL400 4844N02326W 0627 F380 MS60 217/65 KT
N808NW DDL XXW 110627 J80A
0000011000
464
UANT99 KDDL 110627
ARP SWR15X 4736N03222W 0627 F380 MS49 221/44 KT
HBJHK QXT AOW 110627 J29A
0000024100
465
SOAT10 KWAL 110628
FA8005BC 011062837 OT12 ID:KN-BASS-01 DT:2014 01 11 06 26
:RD -3145 -3151 -3151 -3156 -3174 -3159 -3151 -3136 -3155 -3190
:PR 0566 0505 0473 0497 0463 0538 0523 0469 0499 0483
:B 13.7V
 46+1NN 219E
0000126100
466
SMIN02 DEMS 110600
AAXX 11064
42309 31596 11102 10218 20159 40164 70500 81400
  333 58002=
42314 31996 33605 10224 20109 40173 70500 82031
  333 58005 82360=
42410 31995 40204 10222 20172 40185 70542 84030
  333 58013 84360=
42415 32996 23602 10216 20112 40191 82030
  333 58004 82360=
42492 21494 81803 10156 20146 40182 76066 8572/
  333 58002 6992/ 85615 88458=
42587 21994 80902 10164 20157 40175 75062 85520
  333 58006 6003/ 85615 88456=
42591 21993 80906 10154 20147 40184 76066 8572/
  333 58001 6002/ 81710 85618 88458=
42623 31996 01802 10214 20097 39285 40149 70500
  333 58004=
42701 31494 83206 10176 20132 39429 40168 74022 8452/
  333 58006 84615 88458=
42706 31995 00702 10228 20123 40166 70500
  333 59001=
42724 31995 03602 10240 20130 40164 70544
  333 59009=
42798 31994 00504 10234 20126 40158 70400
  333 59003=
42809 31995 00000 10246 20141 40166 70500
  333 59003=
42886 31996 02306 10256 20154 40154 70544
  333 59007=
42895 31995 00902 10260 20143 40166 70500
  333 59001=
42971 31995 01606 10282 20171 40165 70540
  333 58000=
43333 31495 70706 10292 20234 40134 70521 86401
  333 56109 58009 83616 84818 86070=
42398 NIL=
42977 NIL=
43368 NIL=
0000124100
467
UGIN21 DEMS 110600
PPBB 61051 42339
90012 04504 05512 04515 9037/ 04515 03020 911// 00522=
PPBB 61051 42361 90012 31503 32506 33511 90340 34011 33009=
PPBB 61051 42647 90012 04506 06514 06515
90340 06511 04012=
PPBB 61061 42724
90012 00000 32502 32003 9037/ 29505 20510 91258 24009
24511 25504=
PPBB 61051 42809 90012 00000 01003 01003 9037/ 00502 36006 911//
     34506=
PPBB 61061 42971 90012 13504 12506 19003 90378 17507 20010 21511
91023 23521 25008 23507=
PPBB 61051 43014 90037 00000 16003 18504 909// 16005 910// 19512 =
PPBB 61051 43041 90023 22506 20506 23004 90780 30010 35518=
PPBB 61051 43128
90023 18004 16511 16508 907// 17512=
PPBB 61051 43346
90012 04508 03008 03509 9037/ 04510 14511 9125/ 10513
06011=
PPBB 61051 43371
90012 00000 26004 25004 903// 29505=
PPBB 6106/ 42182 NIL=
PPBB 6106/ 42314 NIL=
PPBB 6106/ 42369 NIL=
PPBB 6106/ 42379 NIL=
PPBB 6106/ 42410 NIL=
PPBB 6106/ 42591 NIL=
PPBB 6106/ 42623 NIL=
PPBB 6106/ 42667 NIL=
PPBB 6106/ 42867 NIL=
PPBB 6106/ 43003 NIL=
PPBB 6106/ 43150 NIL=
PPBB 6106/ 43185 NIL=
PPBB 6106/ 43279 NIL=
PPBB 6106/ 43295 NIL=
PPBB 6106/ 43311 NIL=
PPBB 6106/ 43333 NIL=
PPBB 6106/ 43369 NIL=

0000053900
468
UGIN40 DEMS 110600
PPBB 6106/ 42103 NIL=
PPBB 6106/ 42111 NIL=
PPBB 6106/ 42165 NIL=
PPBB 6106/ 42189 NIL=
PPBB 6106/ 42273 NIL=
PPBB 6106/ 42348 NIL=
PPBB 6106/ 42382 NIL=
PPBB 6106/ 42475 NIL=
PPBB 6106/ 42498 NIL=
PPBB 6106/ 42542 NIL=
PPBB 6106/ 42634 NIL=
PPBB 6106/ 42675 NIL=
PPBB 6106/ 42798 NIL=
PPBB 6106/ 42874 NIL=
PPBB 6106/ 42886 NIL=
PPBB 6106/ 42909 NIL=
PPBB 6106/ 43049 NIL=
PPBB 6106/ 43063 NIL=
PPBB 6106/ 43201 NIL=
PPBB 6106/ 43237 NIL=
PPBB 6106/ 43344 NIL=

0000070700
469
UHIN02 DEMS 110600
PPCC 6106/ 42182 NIL=
PPCC 6106/ 42314 NIL=
PPCC 6106/ 42339 NIL=
PPCC 6106/ 42361 NIL=
PPCC 6106/ 42369 NIL=
PPCC 6106/ 42379 NIL=
PPCC 6106/ 42410 NIL=
PPCC 6106/ 42591 NIL=
PPCC 6106/ 42623 NIL=
PPCC 6106/ 42647 NIL=
PPCC 6106/ 42667 NIL=
PPCC 6106/ 42724 NIL=
PPCC 6106/ 42809 NIL=
PPCC 6106/ 42867 NIL=
PPCC 6106/ 42971 NIL=
PPCC 6106/ 43003 NIL=
PPCC 6106/ 43014 NIL=
PPCC 6106/ 43041 NIL=
PPCC 6106/ 43128 NIL=
PPCC 6106/ 43150 NIL=
PPCC 6106/ 43185 NIL=
PPCC 6106/ 43279 NIL=
PPCC 6106/ 43295 NIL=
PPCC 6106/ 43311 NIL=
PPCC 6106/ 43333 NIL=
PPCC 6106/ 43346 NIL=
PPCC 6106/ 43369 NIL=
PPCC 6106/ 43371 NIL=

0000056300
470
UHIN40 DEMS 110600
PPCC 6106/ 42103 NIL=
PPCC 6106/ 42111 NIL=
PPCC 6106/ 42165 NIL=
PPCC 6106/ 42189 NIL=
PPCC 6106/ 42273 NIL=
PPCC 6106/ 42348 NIL=
PPCC 6106/ 42382 NIL=
PPCC 6106/ 42475 NIL=
PPCC 6106/ 42498 NIL=
PPCC 6106/ 42542 NIL=
PPCC 6106/ 42634 NIL=
PPCC 6106/ 42675 NIL=
PPCC 6106/ 42704 NIL=
PPCC 6106/ 42798 NIL=
PPCC 6106/ 42874 NIL=
PPCC 6106/ 42886 NIL=
PPCC 6106/ 42909 NIL=
PPCC 6106/ 43049 NIL=
PPCC 6106/ 43063 NIL=
PPCC 6106/ 43201 NIL=
PPCC 6106/ 43237 NIL=
PPCC 6106/ 43344 NIL=

0000097100
471
UPIN02 DEMS 110600
PPAA 61051 42339
55392 04514 03509 03014 77999=
PPAA 61051 42361 55192 34011 77999=
PPAA 61051 42647 55192 06514 77999=
PPAA 6106/ 42667 ASCENT SUSPENDED DUE TO OTHER REASON=
PPAA 61061 42724
55392 31504 24508 23009 77999=
PPAA 61051 42809
     55392 01003 00002 34006 77999=
PPAA 61061 42971 55392 19505 19009 23517=
PPAA 61051 43014
55392 15003 17503 26515 77999=
PPAA 61051 43041 55292 21005 27506 77999=
PPAA 61051 43128
55185 17009=
PPAA 61051 43346
55392 04010 09010 13506 77999=
PPAA 61051 43371 55192 27503=
PPAA 6106/ 42182 NIL=
PPAA 6106/ 42314 NIL=
PPAA 6106/ 42369 NIL=
PPAA 6106/ 42379 NIL=
PPAA 6106/ 42410 NIL=
PPAA 6106/ 42591 NIL=
PPAA 6106/ 42623 NIL=
PPAA 6106/ 42867 NIL=
PPAA 6106/ 43003 NIL=
PPAA 6106/ 43150 NIL=
PPAA 6106/ 43185 NIL=
PPAA 6106/ 43279 NIL=
PPAA 6106/ 43295 NIL=
PPAA 6106/ 43311 NIL=
PPAA 6106/ 43333 NIL=
PPAA 6106/ 43369 NIL=

0000070700
472
UQIN21 DEMS 110600
PPDD 6106/ 42182 NIL=
PPDD 6106/ 42314 NIL=
PPDD 6106/ 42339 NIL=
PPDD 6106/ 42361 NIL=
PPDD 6106/ 42369 NIL=
PPDD 6106/ 42379 NIL=
PPDD 6106/ 42410 NIL=
PPDD 6106/ 42591 NIL=
PPDD 6106/ 42623 NIL=
PPDD 6106/ 42647 NIL=
PPDD 6106/ 42667 NIL=
PPDD 6106/ 42724 NIL=
PPDD 6106/ 42809 NIL=
PPDD 6106/ 42867 NIL=
PPDD 6106/ 42971 NIL=
PPDD 6106/ 43003 NIL=
PPDD 6106/ 43014 NIL=
PPDD 6106/ 43041 NIL=
PPDD 6106/ 43128 NIL=
PPDD 6106/ 43150 NIL=
PPDD 6106/ 43185 NIL=
PPDD 6106/ 43279 NIL=
PPDD 6106/ 43295 NIL=
PPDD 6106/ 43311 NIL=
PPDD 6106/ 43333 NIL=
PPDD 6106/ 43346 NIL=
PPDD 6106/ 43369 NIL=
PPDD 6106/ 43371 NIL=

00000000