0000015800
433
WSMS31 WMKK 110627
WBFC SIGMET A02 VALID 110630/111030 WBKK -
WBFC KOTA KINABALU FIR EMBD TS OBS NW OF LINE N03
E115  N06 E117 STNR INTSF=
0000004100
434
UPSO01 AMMC 110000
NIL

0000004100
435
UHSO01 AMMC 110000
NIL

0000004100
436
UGSO21 AMMC 110000
NIL

0000004100
437
UQSO21 AMMC 110000
NIL

0000030200
438
UPMS01 WMKK 110000
PPAA  61008 48601
55385 13503 18007 07504 55340 07501 03520 07521 55120
08023
77999=
PPAA 6100/ 48615 NIL=
PPAA 6100/ 48620 NIL=
PPAA  61008 48650
55385 27511 23016 20510 55340 22517 01010 02520 55320
05526 10041 22513
77999=
PPAA 6100/ 48657 NIL=
0000106100
439
UAFJ01 NFFN 110100
AIREP
UPS34 0202S17904E 0011 F340 MS39 356/009=
JST4 0911S17705E 0012 F360 MS44 304/012=
SOL701 ABM 1400S 15825E 0010 F370 MS47 225/030=
JST2 1613S17117E 0015 F380 MS49 304/020=
ACI330W 1633S17914E 0021 F294 MS27 270/015=
UPS34 0332S17750E 0025 F340 MS38 310/019=
ACI330W 1609S17947E 0025 F335 MS38 274/016=
JST4 1033S17551E 0026 F380 MS50 306/006=
JST2 1736S17007E 0029 F380 MS48 262/017=
ACI330W 1528S17915W 0034 F350 MS41 288/007=
ANZ783 2323S16653E 0036 F253 MS21 270/025=
UPS34 0502S17638E 0038 F340 MS39 262/007=
QFA4 0000 00000 0035 F340 MS38 020/002=
JST4 1200S17443E 0040 F380 MS50 316/009=
ACI330W 1453S17825W 0042 F350 MS41 288/013=
JST2 1858S16856E 0043 F380 MS48 278/027=
JST2 1448S17227E 0001 F380 MS49 287/011=
ACI330W 1719S17740E 0007 F139 PS05 182/003=
ACI330W 1425S17744W 0048 F309 MS31 254/011=
ANZ783 2451S16745E 0049 F350 MS43 271/053=
UPS34 0636S17534E 0052 F340 MS38 342/009=
JST4 1327S17333E 0054 F380 MS50 277/008=
JST2 2019S16745E 0057 F400 MS53 273/032=
0000216500
440
SZNZ01 NZKL 110100
CREX++
T000103 A001 D01021 D06025++
-3683144 17478654 AUCT  2014 01 11 00 52 //// 11 07 00 01
05234 3155 05242 3155 05254 3159 05263 3160 05270 3159 05278 3159+
-4402404 -17636748 CHIT  2014 01 11 00 52 //// 11 07 00 01
05415 2129 05421 2135 05425 2138 05433 2145 05408 2120 05406 2117+
-4089929 17623168 CPIT  2014 01 11 00 52 //// 11 07 00 01
04372 2253 04362 2242 04368 2245 04356 2231 04366 2240 04355 2226+
-3618905 17548887 GBIT  2014 01 11 00 52 //// 11 07 00 01
06010 0022 06014 0020 06020 0021 06028 0024 06032 0024 06037 0024+
-3867541 17802288 GIST  2014 01 11 00 52 //// 11 07 00 01
04442 2702 04455 2712 04438 2692 04459 2710 04465 2713 04465 2710+
-4241288 17370277 KAIT  2014 01 11 00 52 //// 11 07 00 01
03818 2147 03830 2158 03828 2155 03844 2170 03819 2144 03834 2158+
-3755040 17815904 LOTT  2014 01 11 00 52 //// 11 07 00 01
03800 0203 03827 0225 03801 0195 03817 0207 03818 0203 03818 0199+
-3704657 17451175 MNKT  2014 01 11 00 52 //// 11 07 00 01
01840 -0217 01848 -0211 01844 -0216 01851 -0211 01855 -0209 01865 -0201+
-3947566 17692007 NAPT  2014 01 11 00 52 //// 11 07 00 01
03479 1983 03501 2002 03505 2004 03486 1982 03484 1978 03488 1978+
-3441483 17304870 NCPT  2014 01 11 00 52 //// 11 07 00 01
-03885 -8229 -03891 -8241 -03995 -8350 -04065 -8425 -04159 -8525 -04156 -8528+
-4581435 17062939 OTAT  2014 01 11 00 52 //// 11 07 00 01
05229 3424 05229 3425 05221 3419 05218 3418 05217 3420 05216 3421+
-2928002 -17789440 RBCT  2014 01 11 00 52 //// 11 07 00 01
06164 1969 06177 1979 06191 1989 06176 1970 06173 1964 06192 1979+
-2925114 -17790384 RFRT  2014 01 11 00 52 //// 11 07 00 01
03118 0152 03135 0166 03137 0164 03137 0161 03149 0169 03146 0163+
-4357010 17277383 SUMT  2014 01 11 00 52 //// 11 07 00 01
02744 1841 02717 1815 02739 1836 02741 1838 02742 1838 02725 1822+
-3764109 17618118 TAUT  2014 01 11 00 52 //// 11 07 00 01
05239 3981 05242 3979 05247 3979 05249 3976 05252 3974 05259 3976+
-4128448 17477985 WLGT  2014 01 11 00 52 //// 11 07 00 01
03652 2082 03658 2087 03657 2086 03651 2079 03654 2080 03655 2081++
7777
0000010300
441
SAQT31 OTBD 110100
METAR OTBD 110100Z 10011KT 9999 -RA SCT100 OVC120 19/16 Q1019 NOSIG=
0000037900
442
SABN31 OBBI 110100
METAR OBBI 110100Z 16007KT 5000 RA SCT020 17/15 Q1017 TEMPO VRB30KT
TSRA SCT040CB=
METAR OEDF 110100Z 14008KT 6000 SCT040 OVC090  15/13 Q1017 NOSIG=
METAR OEDR 110100Z 00000KT 8000 SCT040 BKN080 16/12 Q1016 NOSIG=
METAR OTBD 110100Z 10011KT 9999 -RA SCT100 OVC120 19/16 Q1019 NOSIG=
METAR OKBK 110100Z 16009KT CAVOK 11/09 Q1016 NOSIG=
0000138700
443
SMCN04 KWBC 110000
AAXX 11004
71006 15/// /2809 11041 21053 60001 333 11015 21112 70000=
71007 15/// ///// 11031 21076 60001 333 10034 21079 70000=
71008 15/// /3014 11072 21095 60001 333 11030 21103 70000=
71035 15/// ///// 11072 21091 60001 333 11027 21162 70000=
71051 15/// ///// 11075 21087 60001 333 11027 21152 70000=
71057 15/// ///// 11069 21105 60001 333 10016 21071 70000=
71070 15/// ///// 10008 21032 60001 333 10014 21081 70000=
71089 15/// ///// 11043 21059 60001 333 11027 21118 70000=
71102 15/// ///// 11072 21080 60001 333 11070 21129 70000=
71105 15/// ///// 11080 21108 60001 333 10005 21108 70000=
71409 15/// ///// 11027 21064 60001 333 10041 21051 70000=
71509 15/// /3307 10028 21036 60001 333 10054 21008 70000=
71517 15/// /2721 10030 21040 60001 333 10043 21010 70000=
71518 15/// /3307 11045 21082 60001 333 10026 21046 70000=
71528 45/// /3607 11015 21052 6///1 333 10036 21046 7////=
71789 15/// ///// 10012 21059 60001 333 10051 21023 70000=
71791 15/// /2608 11063 21071 60001 333 11043 21149 7////=
71794 15/// ///// 11061 21068 60001 333 11031 21120 70000=
71795 15/// ///// 11036 21079 60001 333 10007 21050 70000=
71796 15/// ///// 11041 21053 60001 333 11029 21114 70000=
71797 15/// ///// 11077 21085 60001 333 11049 21118 70000=
71824 45/// /2005 11066 21078 6///1 333 11066 21130 7////=
0000012000
444
SMAA01 KWBC 110000
AAXX 11001
89063 42698 62202 11005 21021 30021 40033 57007 82550 333 10002
21009=
0000025900
445
SMVA01 KWBC 110000 RRF
BBXX
VRJV2 11003 99186 10656 41698 30219 10230 20126 40152 5//// 701//
 821/8 22274 00260 20604 301// 40905 80170=
A8LW6 11003 99156 10667 41597 33512 10230 20165 40195 54000 70311
 8/1// 22233 04260 299// 80190=
0000041900
446
FCIN90 VEPT 110600 RRA
TAF VEPT 110600Z 1109/1118 24006KT 1500 BR/-RA SCT015 BKN100
     BECMG 1116/1118 1000 MIFG=
TAF VEGY 110600Z 1109/1118 24006KT 1500 BR/-RA SCT015 BKN100
     BECMG 1116/1118 1000 MIFG=
TAF VERC 110600Z 1109/1118 32006KT 1000 MIFG/-RA SCT015 BKN100
     BECMG 1116/1118 1500 BR/-RA=
TAF VEJS 110600Z 1109/1118 32006KT 1000 MIFG/-RA SCT015 BKN100
     BECMG 1116/1118 1500 BR/-RA=

0000011000
447
UANT99 KDDL 110626
ARP DAL89 5533N04523W 0626 F330 MS61 295/63 KT
N172DZ QXT AOW 110626 F47A
0000011000
448
UANT99 KDDL 110626
ARP SWR53P 4936N03226W 0626 F370 MS49 205/47 KT
HBJHE QXT AOW 110626 J08A
0000209700
449
SMCI07 BABJ 110600
AAXX 11061
50434 32980 03204 11275 21338 39338 40367 52008 333 21451=
50527 32974 03204 11292 21325 39477 40375 52019 333 21322=
50603 32980 03406 11191 21304 39626 40374 52023 333 21225=
50632 32980 43207 11221 21304 39313 40300 52006 84/// 333
21272=
50727 11531 63206 11207 21247 39023 40318 52010 69921 77077
86/// 333 21225=
50915 32980 03404 11121 21209 39257 40344 52004 333 21224=
51716 32963 01401 11041 21118 39067 40455 57004 333 00551
21144=
51765 32980 02202 11047 21157 39387 40470 57009 333 00501
21185=
51777 32970 03201 11037 21173 39338 40466 57005 333 00501
21158=
51811 32962 01102 11030 21133 38935 40445 57001 333 00551
21133=
51828 32965 73402 11040 21102 38774 40437 57003 87/// 333
00500 21102=
52267 42980 03204 11056 21208 39245 40431 57010 333 00601
21146=
52323 32980 02905 11057 21221 38327 57017 333 00601 21197=
52495 32980 03407 11053 21223 38789 40424 57010 333 00501
21188=
53149 32978 23208 11091 21251 38853 40370 57003 82/// 333
00252 21166=
53192 32974 22904 11104 21229 38942 40368 57005 82/// 333
21218=
53231 32976 02705 11117 21235 38571 57004 333 00453 21179=
53336 32980 22907 11077 21223 38800 40392 57003 82/// 333
00300 21165=
53391 42967 52908 11082 21227 38534 40337 57012 85/// 333
00000 21180=
53529 42964 32711 11035 21222 38696 40359 57024 83/// 333
00200 21132=
53543 32980 02902 11046 21226 38595 40346 57016 333 21108=
53723 32963 22905 11017 21223 38744 40366 57017 82/// 333
00401 21114=
54012 32980 03205 11134 21218 39062 40335 52001 333 21171=
54026 32572 12906 11051 21221 39923 40271 57014 81/// 333
21180=
54027 32980 03603 11047 21213 39656 40279 57007 333 21202=
54208 32980 72904 11068 21215 38790 40329 57014 87/// 333
21200=
54776 31947 71802 10035 21067 30245 40307 57024 70500 87///
333 21003=
56004 32980 71401 11112 21257 35793 57019 87/// 333 00254
21201=
56033 32980 72202 11120 21199 35993 57014 87/// 333 00455
21197=
56046 32980 82203 11057 21147 36233 57018 88/// 333 00554
21134=
0000182000
450
SMCI32 BABJ 110600
AAXX 11061
56193 NIL=
56196 32963 80701 10087 20002 40295 57026 88/// 333 00503
20024=
56287 11558 80701 10090 20009 40288 57035 69901 70560 88///
333 00502 20044=
56684 32963 00704 10074 21026 37819 57040 333 00457 21028=
56751 32780 10907 10160 21016 38025 57030 81/// 333 00251
20080 91117 91525=
56786 32580 02204 10176 21021 38101 57035 333 00300 20048=
56977 31569 22501 10217 20114 40176 57028 70040 82/// 333
00102 20111=
57259 11461 82701 10039 20026 40324 57026 69931 70070 88///
333 20008=
57279 31957 83202 10072 20002 40314 57028 70500 88/// 333
20029=
57348 32862 70901 10113 20015 39917 40284 57033 87/// 333
20060=
57399 11958 82501 10049 20024 40299 57016 69961 71060 88///
333 20027=
57554 31857 80000 10051 20010 40308 57029 70500 88/// 333
20024=
57793 11630 82701 10062 20052 40283 57025 60031 76066 88///
333 20050=
58345 11424 80903 10049 20039 40293 57028 60031 76066 88///
333 20042=
58506 11/04 90201 10011 20011 38907 40285 57020 69971 74576
333 21026=
58813 31957 83603 10106 20056 40258 57022 70500 88/// 333
20092=
58834 32966 70402 10156 20076 30063 40249 57036 87/// 333
20099=
58926 32975 02202 10191 20069 40236 57043 333 20105=
58944 32569 43604 10155 20090 40245 57027 84/// 333 20091=
59096 32968 01602 10214 20093 40215 57043 333 20070=
59102 32970 00701 10202 20095 39859 40220 57037 333 20051=
59278 31959 53601 10194 20090 40220 57039 70500 85/// 333
20124=
59456 32865 72701 10214 20133 40208 57037 87/// 333 20145=
59493 32966 00402 10213 20111 40214 57038 333 20128=
59658 31459 70904 10184 20131 30145 40210 57029 70500 87///
333 20160=
59673 32566 00704 10193 20123 30185 40212 57034 333 20153=
59845 32575 60702 10253 20164 40188 57036 86/// 333 20183=
0000014200
451
UPSG01 GOOY 110600
PPAA 61051 61600 NIL=
PPAA 61051 61641 55185 21012 77999=
PPAA 61051 61687 NIL=
PPAA 61051 61695 NIL=
0000007400
452
UPSG01 GOOY 110600 RRA
PPAA 61051 61641 55185 21012 77999=
00000000