0000011100
393
UANT99 KDDL 110624
ARP UAL907 5359N01957W 0623 F360 MS61 231/71 KT
N776UA DDL XXW 110624 F32A
0000011100
394
UANT99 KDDL 110624
ARP GTI609 5053N04032W 0624 F370 MS56 307/36 KT
N851GT DDL XXH 110625 F34A
0000011000
395
UANT99 KDDL 110625
ARP DLH447 5605N03307W 0622 F370 MS56 212/40 KT
DABVL QXT AME 110625 F16A
0000011000
396
UANT99 KDDL 110625
ARP KLM214 5748N03714W 0625 F370 MS57 243/33 KT
PHAOF QXT AOW 110625 J49A
0000011000
397
UANT99 KDDL 110625
ARP ETD100 5017N04404W 0625 F330 MS61 324/82 KT
A6ETL QXT AOW 110625 F15A
0000010900
398
UANT99 KDDL 110625
ARP VIR78 4442N02025W 0625 F380 MS64 238/78 KT
GVAST DDL XXF 110625 F01A
0000010200
399
SMAA72 EUMS 110600
AAXX 11064
89002 42999 51709 11056 21078 39859 49913 52005 83031=
0000013200
400
SMMC01 GMMC 110000 RRC
AAXX 11004
60101 11456 81105 10132 20100 40150 51009 69901 70262 8428/
  333 84816 86360=
0000008900
401
SPIN90 VOMD 110630
SPECI VOMD 110630Z 06008KT 5000 HZ FEW020 29/18 Q1015=
0000008500
402
SEIN90 VOVZ 110600
EARTHQUAKE REPORT DATED 11-01-2014: NIL RPT NIL

0000013200
403
SMMC01 GMMC 110000 RRD
AAXX 11004
60156 17460 61606 10134 20113 40162 52011 60001 70060 83280
  333 83816 85360=
0000012000
404
SMMC01 GMMC 110000 RRE
AAXX 11004
60115 32560 62120 10163 20034 40141 53007 83270
  333 83823 84360=
0000010000
405
SMMC02 GMMC 110000 RRA
AAXX 11004
60318 16/// /1902 10132 20116 40156 53007 60001=
0000003900
406
UPSG01 GOOY 110600
NIL=
0000011800
407
SMCN08 CWAO 110600 RRC
AAXX 11064
71907 45/// /0202 11283 21312 30069 40100 52016 6///1
333 7////=
0000015100
408
SSVX02 CWAO 110500
ZZYY 48598 11014 0500/ 774856 145109 6112/ 11121 
01500 11292 21326 40000 444 20130 11014 0500/ 50400 89990 80001=
0000015100
409
SSVX02 CWAO 110501
ZZYY 48597 11014 0501/ 184374 164445 6112/ 11121 
01900 11288 21320 40090 444 20130 11014 0501/ 50400 89990 80001=
0000011200
410
SMRA15 RUHB 110600 RRH
AAXX 11061
31123 41999 81701 11390 21418 30023 40402 58003 70272 80007=
0000021000
411
SMCN22 CWAO 110600 RRC
AAXX 11064
71224 15/// /2005 11023 21065 60001
333 10020 21041 70000 555 32741 40143=
71225 15/// /1506 11078 21095 60001
333 10045 21078 70000 555 32728 40221=

0000019400
412
SMCN32 CWAO 110600 RRC
AAXX 11064
71276 15/// /2206 11093 21112 60001
333 11020 21113 70000 555 32819 40020=
71289 15/// /2109 11093 21108 60001
333 11019 21120 70000=

00000000