0000147900
193
WWCN12 CWTO 110610
SEVERE WEATHER BULLETIN
ISSUED BY ENVIRONMENT CANADA
AT 1:10 AM EST SATURDAY 11 JANUARY 2014.
---------------------------------------------------------------------
WATCHES/WARNINGS IN EFFECT FOR NORTHERN ONTARIO...
FREEZING RAIN WARNING FOR:
=NEW= KIRKLAND LAKE - ENGLEHART
      GREATER SUDBURY AND VICINITY
      NEW LISKEARD - TEMAGAMI
      ESPANOLA - KILLARNEY
      NORTH BAY - WEST NIPISSING.
      SOME FREEZING RAIN LIKELY OVERNIGHT.
      A STRENGTHENING LOW PRESSURE SYSTEM WILL TRACK THROUGH
      NORTHEASTERN ONTARIO TODAY REACHING SOUTHERN JAMES BAY BY THIS
      EVENING.
      PRECIPITATION WITH THIS LOW HAS BEGUN AS SNOW WITH A FEW
      CENTIMETRES POSSIBLE.  THE SNOW IS EXPECTED TO TRANSITION INTO
      FREEZING RAIN OVERNIGHT AND LAST A COUPLE OF HOURS BEFORE
      CHANGING TO RAIN AS TEMPERATURES RISE ABOVE FREEZING EARLY THIS
      MORNING.  PERIODS OF RAIN WILL CONTINUE LATER TODAY.
      ALTHOUGH THE AIR TEMPERATURE IS EXPECTED TO RISE ABOVE ZERO
      EARLY THIS MORNING, UNTREATED SURFACES MAY STILL BE QUITE ICY
      AS THE GROUND TEMPERATURE IS STILL VERY COLD FROM THE RECENT
      COLD SPELL.
      MOTORISTS AND PEDESTRIANS ARE ADVISED TO EXERCISE CAUTION
      ESPECIALLY ON UNTREATED SURFACES.
---------------------------------------------------------------------
==DISCUSSION==
REFER TO YOUR LOCAL PUBLIC FORECAST FOR FURTHER DETAILS.
END/OSPC
0000011000
194
UANT01 CWAO 110611
ARP UAL77 4842N05124W 0611 F350 MS65 300/53 KT
N14118 DDL YYT 110611 F66A
0000008400
195
UAPA01 KWBC 110612
ARP ASA840 3317N 13337W 0603 F370 MS49 263/049KT=
0000030000
196
SMAA19 LFVW 110600
AAXX 11064
89646 46/// /1005 11154 29078 37664 4//// 5////=
89661 46/// /2104 11037 29082 39346 4//// 5////=
89648 46/// /1704 11202 29070 37233 4//// 5////=
89659 46/// /2807 11167 29068 37748 4//// 5////=
89666 46/// /1405 11014 29060 39808 4//// 5////=
0000008400
197
SMAA17 LFVW 110600
AAXX 1106/
89003 46/// ///// 39088 4//// 5////=
0000019000
198
SMAA17 LFVW 110600 RRA
AAXX 11064
89577 46/// /1905 11286 35904 4//// 5////=
89507 46/89 /3108 11249 29070 36886 4//// 5////=
89578 46/// /0611 11309 36968 4//// 5////=
0000010900
199
UANT01 CWAO 110612
ARP BAW98 5140N05245W 0612 F390 MS63 288/64 KT
GZBJC QXS YAY 110612 L51A
0000164600
200
SMLJ21 LJLM 110600
AAXX 11061
14112 12/60 62301 10074 20055 48/// 69912
  333 20071 31006 70016 90705 91104=
14026 12265 80201 10023 20016 39894 40223 51004 60002 886//
  333 20011 31102 55027 20330 30228 553// 20000 30000 58071 70000 85703 88710 8/7// 8/7// 90705 91101=
14121 11730 71900 10050 20045 39940 40211 52006 60002 71042 87500
  333 20050 31003 55000 20078 30077 553// 20000 30000 58066 70001 87650 8/6// 90705 91101=
14008 12689 42811 11009 21085 37489 47051 52006 60002 81032
  333 21039 49200 55014 20604 30467 553// 20000 30000 58045 70000 90705 91119
  444 76205=
14122 13/04 90801 10025 20022 30021 40223 52006 60002 745// 89///
  333 20022 31/// 58068 70001 89/// 90705 91101=
14105 11230 81201 10088 20085 30219 40223 52005 60002 71022 885//
  333 20087 31008 50020 55000 20077 30077 553// 20000 30000 58040 70000 82703 88650 8/7// 8/6// 90705 91102=
14023 11/03 92602 10007 20003 39923 40227 53004 60002 74740 89///
  333 21009 31103 55033 20438 553// 20000 58068 70000 89/// 90705 91102=
14106 11/06 90902 10068 20066 30150 40219 51006 69912 74344 89///
  333 20067 31005 55000 20059 30057 553// 20000 30000 58044 70035 89/// 90705 91102=
14031 11920 82702 10046 20046 39988 40219 52004 60002 71022 8807/
  333 20010 31102 55022 20254 30153 553// 20000 30000 58061 70000 90705 91103=
14015 11220 61902 10066 20061 39857 40219 52005 60002 71022 86500
  333 20068 31000 55000 20177 30176 553// 20000 30000 58055 79999 82703 86626 8/7// 8/6// 90705 91104=
14024 42470 52507 10052 20034 39108 48505 5/005 83541
  333 20044 30002 58056 70000 90705 91113
  444 47052=
0000079700
201
SMLJ50 LJLM 110600
AAXX 11061
14118 12/60 83600 10046 29091 48/// 69912
  333 20039 3/102 70001=
14010 12/70 73300 10056 20034 39604 40216 5/002 60004
  333 20040 31004 55/// 20517 553// 20000 58052 70000 90705 91103=
14120 12/// 83600 10075 20072 30023 40216 5/004 60002
  333 20070 31004 55/// 20081 553// 20000 58067 79999 90705 91101=
14009 12/80 53600 10032 29090 48/// 69994
  333 20025 70009=
14012 12/// 72703 10076 29060 48/// 60004
  333 20070 70000=
14007 12670 80100 10006 20001 39213 48507 57000 60002 885//
  333 21006 3/105 41/// 55027 20488 553// 20000 58049 70000 90705 91101=
14021 11/03 90901 10006 20000 39694 40257 54000 60002 74744 89///
  333 20005 31001 55040 20537 553// 20000 70000 89/// 90705 91102=
14006 46/// ///// 48///=
0000011100
202
UANT01 CWAO 110612
ARP SVA034 4913N03425W 0612 F330 MS51 206/28 KT
HZAK19 QXT AME 110612 F26A
0000015600
203
SMSP01 LEMM 110600 AAB
AAXX 11064
08231 11664 82302 10054 20041 39083 48485 53002 69902 70265 8807/
  333 20054 31005 50264 55050 79999=
0000011000
204
UANT01 CWAO 110613
ARP AFR377 4911N04439W 0612 F350 MS63 322/68 KT
FGLZU QXT AOW 110613 J95A
0000011000
205
UANT01 CWAO 110613
ARP AFR065 5601N04854W 0612 F390 MS60 277/53 KT
FHPJA QXT AOW 110613 J39A
0000011000
206
UANT01 CWAO 110613
ARP AZA611 4611N04433W 0613 F390 MS56 305/63 KT
EIEJJ QXT AOW 110613 J33A
0000011000
207
UANT01 CWAO 110613
ARP AFR083 5602N04125W 0613 F360 MS59 273/28 KT
FGSPO DDL UAK 110613 F18A
0000011800
208
SMVS40 VNNN 110600
AAXX 11061
48846 32798 73602 10207 20162 30186 40189 57027 875// 333 59010 87697=
0000022100
209
SMVS02 VNNN 110600
AAXX 11061
48916 32698 70000 10287 20227 30084 40131 57009 875// 333 58005 87696=
48919 32498 70509 10259 20237 30104 40126 57024 84208 22200 02260 2//04 333 58006 82894 84895 87299=
0000013200
210
SMTH43 VTBB 101200 CCA
AAXX 10124
48358 31958 10902 10219 20172 39991 40170 52019 71000 80001
  333 10296 58010=
0000011800
211
SMKZ01 UAAA 110000 CCA
AAXX 11001
38196 32698 82301 10012 21136 39265 40252 57004 83532 333   21033=
0000011800
212
SMKZ01 UAAA 110000 CCB
AAXX 11001
38198 32997 61104 11049 21094 30000 40269 57004 86030 333   21132=
00000000