0000011200
213
SMKZ01 UAAA 110000 CCC
AAXX 11001
38334 32998 00803 11004 21117 39290 40267 54000 333   21060=
0000063500
214
SMIN90 VISR 110600
AAXX 11064
42027 31595 83201 10016 21017 38494 48579 70522 8452/
  333 58016=
42056 32996 01401 10160 20028 39750
  333 58018=
42045 32696 13603 10046 21069 38426 48558 81100
  333 58046=
42044 32595 80000 10024 21023 38352 48595 8352/
  333 58064=
42043 32996 03203 10050 21010 38470
  333 58030=
42054 32996 01801 10136 20022 39245
  333 58014=
42048 32996 00000 10052 21018 38425
  333 58035=
42028 32596 20000 11010 21050 37912 82400
  333 58057=
42031 32596 21401 10042 21004 38418 82100
  333 58031=
42046 32596 70702 10004 21028 38170 87500
  333 58059=
0000010400
215
SMIN90 VIGR 110600
AAXX 11064
42361 31994 03203 10158 20083 40193 71044
  333 58015=
0000011800
216
SMKZ01 UAAA 110000 CCB
AAXX 11001
38196 32698 82301 10012 21136 39265 40252 57004 83532 333   21033=
0000011200
217
SMKZ01 UAAA 110000 CCD
AAXX 11001
38328 32999 00000 10020 21107 39525 40261 53004 333   21060=
0000011800
218
SMKZ01 UAAA 110000 CCE
AAXX 11001
38439 31996 01306 10008 21025 39917 40262 53005 71011 333   21056=
0000011800
219
SMKZ01 UAAA 110000 CCC
AAXX 11001
38198 32997 61104 11049 21094 30000 40269 57004 86030 333   21132=
0000011200
220
SMKZ01 UAAA 110000 CCE
AAXX 11001
38334 32998 00803 11004 21117 39290 40267 54000 333   21060=
0000011200
221
SMKZ01 UAAA 110000 CCF
AAXX 11001
38328 32999 00000 10020 21107 39525 40261 53004 333   21060=
0000011800
222
SMKZ01 UAAA 110000 CCG
AAXX 11001
38439 31996 01306 10008 21025 39917 40262 53005 71011 333   21056=
0000015600
223
SNVD21 KHAF 110400
BBXX ELWR2 11043 99188 10726 41597 23603 10230 20078 40180 52020
70200 80005 2229/ 04230 20101 33635 40201 50201 80144=
0000158900
224
SMOM10 OOMS 110600
AAXX 11064
41241 NIL=
41242 NIL=
41244 36/// /1804 10187 20083 39981 49467
333 0E015 20140 59011 =
41246 36/// /1303 10209 20118 30232 40237
333 0E018 20153 59008 =
41249 36/// /1106 10172 20075 39487 40177
333 0E013 20115 58001 =
41252 NIL=
41253 NIL=
41254 NIL=
41255 36/// /1602 10181 20065 39687 40248
333 0E016 20108 59006 =
41256 31559 50907 10202 20055 30228 40238 70510 81501 333 20126
3/014 59013 81620 84070=
41257 NIL=
41258 36/// /1304 10211 20081 30230 40234
333 0E/// 20178 59010 =
41259 NIL=
41262 NIL=
41263 36/// /1202 10171 20072 39627 40212
333 0E016 20109 59008 =
41265 36/// /1504 10171 20001 39623 40216
333 0E013 20101 59006 =
41267 36/// /3408 10206 20056 30222 40238
333 0E016 20174 58000  =
41268 36/// /0009 10215 20075 30219 48670
333 0E017 20171 59002 =
41270 NIL=
41272 NIL=
41275 NIL=
41276 36/// /0819 10192 20073 30071 40230
333 0E014 20127 59000 =
41280 26/// /0401 10177 20109 30111 40254
333 0E013 20126 59010 70000 =
41287 36/// /0615 10210 20087 30180 40220
333 0E015 20139 59003 =
41288 36/// /0720 10227 20106 30205 40227
333 0E019 20190 59002 =
41291 NIL=
41293 36/// /2302 10169 20062 39871 40226
333 0E015 20083 59004 =
41295 36/// /0813 10196 20112 30034 40218
333 0E016 20124 59001 =
41304 NIL=
41314 32660 39905 10206 20143 39701 40207 81501
  333 20145 59012 81630 83075 =
41315 36/// /1408 10176 20137 39202 42838
333 0E/// 20142 59005  =
41316 36/72 /0911 10247 20142 30169 40194
333 0E020 20199 59003 =
0000104600
225
SMAU01 AMMC 110600
AAXX 11064
94102 46/// /2516 10315 20280 30057 40066=
94103 46/// /2011 10300 30071 40076=
94120 46/// /2911 10313 20241 30008 40048=
94122 46/// /2006 10324 20244 30045 40053=
94131 46/// /1605 10326 20227 39889 40039=
94132 NIL=
94147 NIL=
94150 46/// /1016 10283 20238 39981 40040=
94151 46/// /0914 10266 20244 30032 4////=
94170 46/// /0404 10303 20257 30025 40047=
94200 NIL=
94203 46/// /2810 10324 20249 30068 40078=
94206 46/// /3006 10425 20140 39921 40049=
94207 46/// /2911 10295 30069 40077 58018=
94211 NIL=
94212 46/// /1105 10399 20065 39583 40045=
94216 46/// /3309 10298 20221 30000 40050=
94236 NIL=
94238 46/// /0608 10378 20120 39632 40045=
94248 46/// /1720 10245 20236 30066 40080=
94255 46/// /1209 10363 20137 39797 40053=
94268 46/// /0305 10327 20228 30038 40050=
94287 46/// /1707 10268 20233 30081 40090=
94290 NIL=
94294 46/// /0818 10304 20211 30087 40097=
94296 NIL=
94298 46/// /1218 10274 30088 40094 56017=
95641 NIL=

0000004100
226
SMNG01 AMMC 110600
NIL

0000032800
227
SMAA01 AMMC 110600
AAXX 11064
89564 41981 31323 10055 21023 39869 49889 53012 70200 83030=
89570 NIL=
89571 41980 13507 10071 21040 39854 49883 53007 70200 81038=
89573 NIL=
89610 NIL=
89611 41675 70736 10036 21030 39773 49825 53018 70222 8157/=
89614 NIL=
89615 NIL=
89807 NIL=
89809 NIL=

0000100000
228
SMAA80 AMMC 110600
AAXX 11064
61997 06/// /3325 10079 20078 39859 40034 58019 60102
  333 10091 20061 3/006 4//// 55/// 60097 70096 91037 90710 91143=
61998 11575 72314 10066 20011 30025 40062 55000 69924 701// 8583/
  333 005// 20048 55025 58029 81820 85640 86359 90710 91119=
68994 11597 70707 10087 20063 39965 49994 53033 60054 71122 8657/
222// 00075 305// 40602
  333 20065 91018=
89009 41261 70510 11223 36917 55002 70342 81606
  333 81704 86249=
89532 41/60 70702 11004 21026 39914 49941 53003 70272 8757/
  333 55165 23200=
89542 NIL=
89564 41981 31323 10055 21023 39869 49889 53012 70200 83030=
89570 NIL=
89571 41980 13507 10071 21040 39854 49883 53007 70200 81038=
89573 NIL=
89592 NIL=
89606 NIL=
89610 NIL=
89611 41675 70736 10036 21030 39773 49825 53018 70222 8157/=
89614 NIL=
89642 41768 71115 10032 21055 39853 49905 57002 70172 875//
  333 55004 21908 87650 91126=
89762 NIL=
89807 NIL=
89809 NIL=
89813 NIL=

0000004100
229
SMSO03 AMMC 110600
NIL

0000088600
230
SMVE01 AMMC 110600
BBXX
VRAE3 11064 99189 31535 41498 31114 10310 20283 40096 57018 70300
82140 22283 04290 20802 311// 40802 80290=
VNSZ 11044 99412 31464 46/// /3020 10253 20084 30101 40126 57009
22200 04194 85155=
C6FS9 11044 99238 31512 46/// /0921 10262 20176 30119 40155 57021
22200 04281 85204=
VNAH 11044 99383 31416 46/// /2009 10194 20115 30190 40214 57004
22200 04175 85147=
VNSZ 11054 99412 31464 46/// /3019 10257 20076 30099 40124 57008
22200 04194 85153=
C6FS9 11054 99238 31512 46/// /1021 10263 20191 30109 40145 57026
22200 04282 85213=
VRRD 11063 99211 31540 41598 61422 10290 20224 40105 57014 70222
85280 22243 04280 20406 318// 40405 80245=
VNSZ 11064 99412 31464 46/// /3019 10251 20080 30099 40124 57005
22200 04185 85152=
C6FS9 11064 99238 31512 46/// /1020 10259 20188 30106 40142 57021
22200 04283 85210=

0000064900
231
SMSY01 OSDI 110600
AAXX 11061
40001 NIL=
40007 NIL=
40025 32960 00602 10050 20009 40231 52019 333 20043 30///=
40045 NIL=
40061 32570 30101 10032 20011 40211 52017 81550 333 20032 32///
81630 83360=
40080 31501 20000 10004 21007 39514 40249 52025 74010 83100 333
21014 83830=
40087 NIL=
40095 NIL=
SMSY20 OSDI 110600
AAXX 11061
40009 NIL=
40016 NIL=
40022 32965 00802 10090 21001 40221 53017 222// 20000 333 20072
30///=
40030 31960 00000 10016 20000 40243 52014 71000 333 20000 34///
50034 55004=
40039 NIL=
40066 32970 00000 10080 21019 40222 52012 333 20072 30///=
40072 NIL=
40083 NIL=
0000004100
232
SMNG02 AMMC 110600
NIL

00000000