0000087200
273
SMTS01 DTTA 110600
AAXX 11064
60715 11440 50001 10080 20071 30183 40190 53007 60004 71011 83702
  333 20063 59008 82710 83820 91003 91105=
60723 13970 20000 10023 20023 30016 40213 53008 60004 80002
  333 20024 82070=
60725 11930 00000 10041 20041 30021 40198 52004 60004 71011
  333 20033=
60735 12962 32002 10093 20043 30122 40195 53005 60004 80002
  333 20087 83070=
60745 12558 22404 10083 20041 39837 40215 53003 60004
  333 20072 82630=
60748 12960 21404 10084 20046 39782 40208 53003 60004 82040
  333 20068 82360=
60750 12960 32205 10072 20053 30182 40208 53002 60004 80002
  333 20069 83070=
60760 12560 32706 10083 20038 30109 40216 53004 60004 82202
  333 20079 59018 5///3 60007 7//// 82830 91007 91108=
60765 NIL=
60767 NIL=
60769 12556 31806 10090 20071 30199 40203 58001 60004 82502
  333 20090 82623=
0000045200
274
SXXX32 EUMS 110609 RRV
224AD678
:PRS 2 /1 1847 1849 1848 1854 1850 1850 1849 1852 1856 1857 1856 1855 1856 1855 1857 1859 1860 1863 1863 1862 1862 1861 1863 1861 1861 1860 1857 1859 1856 1854 :RAD 4 /3 4670 4671 4673 4674 4671 4676 4677 4677 4672 4674 4677 4673 4665 4665 4667 4671 4673 4671 4672 4674 :ENC 4 /5 8202 8201 8206 8209 8210 8208 8208 8205 8201 8203 8206 8204 :SW1 9 /60 60 :SW2 39 /60 60 :BAT 14 /15 13.5 :NAME 224AD678 /
0000045600
275
SXXX32 EUMS 110610 RRW
366C76AC
OT12 ID:IR-CHAB-07 DT:2014 01 11 06 09
:RAD /1 01055 01044 01041 01022 01012 01018 01019 01017 01019 01012 01003 00998 00985 00978 00976 00975 00970 00972 00973 00969 00970 00963 00961 00948 00933 00948 00944 00938 00929 00921
:PR1 /1 01484 01476 01456 01451 01449 01447 01443 01447 01445 01437 01431 01419 01422 01412 01399 01403 01403 01403 01407 01403 01403 01397 01388 01298 01362 01367 01370 01367
0000011000
276
UANT99 KDDL 110612
ARP ACA830 5201N01757W 0612 F370 MS60 243/89 KT
CGFAF DDL XXW 110612 J92A
0000012600
277
SMTH40 VTBB 110600 RRA
AAXX 11064
48459 31958 10706 10326 20183 30125 40127 57033 70500 80001
  333 59002=
0000011000
278
UANT99 KDDL 110612
ARP UAL29 5340N02405W 0612 F390 MS55 230/64 KT
N78004 DDL XXW 110613 F54A
0000003800
279
SMVC01 AMMC 110600
NIL
0000011000
280
UANT99 KDDL 110613
ARP DLH425 5259N01555W 0613 F390 MS54 245/54 KT
DAIHY QXT EUA 110613 J23A
0000029600
281
SMCH01 SCSC 110600
AAXX 11064
85406 NIL=
85418 NIL=
85432 NIL=
85442 NIL=
85467 NIL=
85469 NIL=
85488 NIL=
85500 NIL=
85556 NIL=
85558 12997 01202 10142 20114 40115 57025 60001=
85564 NIL=
85574 NIL=
85577 12960 00000 10160 20079 39519 40120 57014 60001=
0000005100
282
SMAA01 SAWB 110600
AAXX 11064
NIL
0000027200
283
SMCH02 SCSC 110600
AAXX 11064
85585 NIL=
85586 NIL=
85629 NIL=
85648 NIL=
85672 NIL=
85682 NIL=
85703 NIL=
85732 12997 01820 10135 20104 40160 57011 60001
  333 91133 91518=
85743 NIL=
85766 NIL=
85782 NIL=
85799 NIL=
85830 NIL=
0000005500
284
SMAA01 SAWB 110600 RRA
AAXX 11063
NIL
0000375100
285
SMCN04 KWBC 110600 RRA
AAXX 11064
71960 45/// /2811 11333 39892 40031 55004 6///1 333 11229 21339
7//// 555 32836 40102=
71962 17/// /1904 11034 21041 39553 49974 58012 69971 7//4/ 333
11034 21106 70007 555 31919 4015/=
71967 15/// ///// 11029 21051 30107 40216 58028 60001 333 11027
21185 70000=
71972 45/// /2817 39533 53030 6///1 333 7//// 555 32142 40092=
71973 15/// /2309 11050 21078 30005 40197 55007 60001 333 11049
21122 70000 555 33324 4020/=
71975 45/// /2623 11213 39205 49944 53013 6///1 333 11187 21217
7//// 555 32630 40101=
71985 45/// /2712 11288 21319 30031 40037 56005 6///1 333 11213
21295 7//// 555 32940 40101=
71050 17/// /0608 11025 21043 38865 49936 56079 60011 7//4/ 333
11024 21180 70020=
71068 12874 62602 11134 21145 39306 40010 58017 60001 86070 333
11110 21173 70004 555 19999 29999=
71090 15966 /3102 11283 21320 39882 49918 53016 60001 333 11220
21307 70000=
71093 45/// /2516 11234 39434 49938 53019 6///1 333 11194 21238
7//// 555 32527 40011=
71104 11466 71017 11025 21038 38871 49973 57079 60031 77122 87700
333 11008 21069 48053 70032 90952 93104 555 10044 20032 31125
40061=
71114 17/// /1003 10045 20043 39990 40038 58056 60061 7//4/ 333
10095 20024 70203 555 32733 4013/=
71120 12474 72305 11090 21105 39386 40052 52011 60001 87500 333
11056 21171 48032 79999 555 19999 29999=
71122 15/// /2606 11016 21089 38461 40059 58015 60001 333 10004
21048 70000 555 32520 4000/=
71131 15/// /2905 11086 21098 38828 40101 51023 60001 333 11034
21103 70000 555 32722 4008/=
71135 15/// /3011 11070 21091 38984 40078 51028 60001 333 11010
21079 70000 555 32725 4008/=
71137 15/// /2203 11112 21133 39141 40101 51033 60001 333 11011
21112 70000 555 32723 4007/=
71188 13974 23206 11093 21138 30165 40209 53003 60001 82030 333
11055 21159 70000 555 10000 20000 32719 40170=
71200 17/// /1508 10070 20061 60101 7//4/ 333 10081 20065 70112
555 32439 4007/=
71260 13306 40807 11003 21006 39768 40003 58056 60051 333 11003
21085 70053=
71312 15/// /2707 11066 21083 39545 40005 51013 60001 333 11064
21161 70026=
71315 15/// /2805 11119 21157 30171 40227 50003 60001 333 11064
21252 70007 555 32917 4018/=
71316 15/// /2101 11113 21119 39342 40033 58006 60001 333 11035
21130 70000 555 33217 4021/=
71321 17/// /3501 11254 21276 39980 40025 53021 69931 7//4/ 333
11176 21289 70006=
71322 17/// /3307 11327 21357 30057 40070 56002 69921 7//4/ 333
11286 21329 70002 555 33120 4007/=
71338 15466 82701 11210 21235 39949 49957 51019 60001 333 11171
21253 70000=
71401 17/// /1904 10014 20011 39421 40105 58026 60031 7//4/ 333
10033 7//// 555 31518 4022/=
71402 15/// /2522 11047 21084 30036 40153 55004 60001 333 11046
21137 70000 555 32743 4008/=
71427 15/// /2619 11033 21054 30186 40194 50002 60001 333 11030
21123 70000 555 32539 40123=
71538 11112 81609 10039 20039 39810 40039 58065 60071 76142 887//
333 10040 21029 42005 70068 90952 555 10010 20002=
71609 13574 82003 11040 21059 30118 40256 57007 60001 885// 333
11007 21228 70000 555 10000 20000=
71610 15566 80703 11039 21055 39915 40218 58025 60001 333 11038
21220 70000=
71628 13562 80607 11046 21069 30030 40174 57033 60001 885// 333
11046 21131 70002 555 10008 20002=
71725 15/// /1510 11040 21053 39701 40125 58034 60001 333 11040
21108 70000 555 31920 4016/=
71731 11116 41210 11004 21007 39637 40092 58046 60041 76675 847//
333 11004 21123 44035 70038 90973 93101 555 10010 20010=
71739 41369 81508 11018 21031 39690 40053 57044 6///1 77177 885//
333 11013 21112 90983 555 32021 40090=
71801 13974 52625 11049 21085 30012 40190 57016 60001 85070 333
11048 21128 70000 555 10000 20000 33140 40112=
0000375800
286
SMCN04 KWBC 110600
AAXX 11064
71079 11458 80506 11184 21189 39727 40014 50003 69981 77177 885//
333 11107 21184 47050 70064 90983 555 10066 20064=
71083 11074 03603 11323 21359 30028 40073 51004 69901 77677 333
11293 21334 44035 79999 90983 93100 555 19999 29999 33527 40131=
71091 45/// /0104 11263 39741 49955 53025 6///1 333 7////=
71095 17666 81804 11234 21261 39847 49929 53015 60001 771// 333
11192 21261 70003=
71108 11548 8//// 10046 39948 40020 5/063 60121 76166 885// 333
10088 20046 70124 90973 555 10000 20000=
71140 13374 32914 11087 21098 39520 40030 51020 60001 81670 333
11070 21187 70000 93100 555 10000 20000 32920 40001=
71415 15/// /2403 11004 21019 30242 40245 56009 60001 333 11002
21141 70000 555 32718 4019/=
71950 17/12 /1304 11041 21042 39299 49925 60001 771//=
71984 15/// /2816 11310 21340 39994 40003 58003 60001 333 11226
21321 70007 555 32330 4013/=
71043 11880 62805 11251 21285 39986 40083 58003 69941 77177 86070
333 11238 21292 48015 70006 90973 555 10006 20006 32821 40151=
71045 15/// /0000 11152 21167 39070 49935 56020 60001 333 11074
21154 70000=
71066 15966 03503 11189 21212 39591 40024 58012 60001 333 11159
21212 70000=
71076 17/// /2303 11215 21238 39629 40035 53007 69941 7//4/ 333
11175 21218 70004=
71077 15/// /3106 11120 21142 39504 40050 51016 60001 333 11049
21120 70003 555 33220 4003/=
71092 45456 71906 11278 39275 49960 53022 6///1 333 11227 21293
7//// 555 31423 40151=
71094 45964 01807 11220 38996 49903 53015 6///1 333 11179 21231
7//// 555 31924 40201=
71101 45/// /0917 10030 20019 39791 49799 56073 6///1 333 10059
20009 7//// 555 31135 4005/=
71109 11489 81125 10041 20035 39853 49879 56060 60161 76166 885//
333 10069 20038 70192 90973 555 10000 20000 31041 40032=
71123 13974 61809 11111 21134 39184 40059 56007 60001 80008 333
11010 21174 79999 555 19999 29999=
71145 11459 70000 11093 21101 39684 49980 58006 60021 77177 82570
333 11082 21128 48036 70026 90983 93102 555 10026 20026=
71148 15/// /3018 11071 21082 39430 40012 53015 60001 333 11011
21129 70002 555 33022 4006/=
71207 17/// /0302 10020 20015 39948 40012 58058 60131 7//4/ 333
10047 20009 70161=
71406 45/// /2721 11060 21092 30128 40138 53009 6///1 333 11054
21161 7//// 555 32838 4023/=
71410 17358 83304 11100 21108 39708 49990 50003 60001 710// 333
11093 21123 70000=
71414 17/// ///// 11125 21137 69941 7//4/ 333 11035 21171 70004=
71419 45/// /2216 10004 6///1 333 10004 21129 7//// 555 33028
4007/=
71424 45/// /2306 6///1 333 7//// 555 32225 40201=
71426 15/// /2121 11026 21036 60001 333 11025 21098 70000 555
32133 4000/=
71428 15/// /1907 11074 21107 30204 40210 51009 60001 333 11053
21136 70000 555 32021 40071=
71429 15/// /2708 11077 21123 30186 40206 55002 60001 333 11053
21152 70000 555 32327 40181=
71436 17759 80704 10014 20007 39879 40116 58048 60021 71044 333
10019 21149 70046=
71603 11224 82211 10034 20033 30214 40268 56012 69901 75162 886//
333 10034 21126 70008 90914 555 10008 20008 32320 40190=
71607 15/// /0000 11071 21075 30220 40254 56014 60001 333 10000
21237 70000 555 32218 4019/=
71621 12361 81005 10029 20010 30023 40130 58047 60001 8667/ 333
10029 21098 70014 555 10014 20014=
71623 43124 61110 10024 20023 39732 40069 57056 6///1 333 10029
21059=
71624 11548 80702 10022 20013 39886 40099 57049 60011 76122 885//
333 10027 21081 44009 70030 90910 555 10018 20018=
71625 15227 81207 11020 21027 39976 40139 58043 60001 333 11020
21212 70005=
71627 13566 80106 11059 21079 30148 40194 57037 60001 885// 333
11045 21142 79999 555 19999 29999=
71952 17/// /0000 11061 21068 39085 49938 58065 60021 7//4/ 333
11039 21158 70017=
0000364800
287
SMCN04 KWBC 110600 RRC
AAXX 11064
71723 15/// /0507 11076 21090 30195 40205 58030 60001 333 11075
21185 70000=
71809 11574 72212 11044 21084 30161 40189 55003 69901 70288 86570
333 11043 21150 48085 70022 90953 555 10022 20022 32230 40001=
71815 12574 42616 11032 21070 30180 40211 55006 60001 84500 333
11029 21087 70016 555 10020 20016 32630 40001=
71023 15264 82903 11096 21103 39262 40037 51013 60001 333 11043
21118 70005 555 32818 40210=
71026 15/// /2307 11096 21114 39234 40096 50009 60001 333 10026
21098 70000 555 32618 4009/=
71032 15/// /2902 10003 21001 39208 40029 58050 60001 333 10058
21057 70000=
71036 15866 62717 11072 21084 39624 40003 50001 60001 333 11061
21167 70000 555 32621 40061=
71046 45/// /2719 11252 30064 40082 58009 6///1 333 11214 21257
7//// 555 32947 40083=
71129 13974 12808 11083 21112 39235 40081 51016 60001 80001 333
11077 21142 70000 555 10000 20000 32918 40030=
71185 17448 82320 11037 21069 30142 40166 55003 69951 7//4/ 333
11036 21136 70005 555 32733 40121=
71209 45/// /1224 10063 20059 6///1 333 10093 20041 7//// 555
31433 4006/=
71215 15/// /1702 10024 21001 39728 40072 57036 60001 333 10050
21004 70000=
71218 17/// /2002 10005 20003 39634 40061 58052 69951 7//4/ 333
10022 20002 70053=
71219 45/// /0303 10042 21002 39813 49823 56092 6///1 333 10060
20029 7//// 555 31225 4002/=
71220 45/// /0411 10040 6///1 333 10057 20034 7////=
71301 15/// ///// 11027 21027 39674 40074 58048 60001 333 11027
21119 70000=
71334 17/// /3602 11300 21331 39709 40056 58004 69921 7//4/ 333
11181 21314 70002=
71337 45/// /2706 11055 21089 39901 40143 53003 6///1 333 11055
21167 7//// 555 32628 4018/=
71397 11359 80000 10000 21005 30229 40264 55005 69941 78585 887//
333 10010 21186 44030 70004 90967 555 10004 20004=
71425 15/// /1710 11088 21125 30162 40199 53006 60001 333 11051
21154 70000 555 31419 4010/=
71431 15/// /0910 10024 20007 30010 40106 58050 60001 333 10031
21047 70017 555 31017 4006/=
71435 17/// /2002 11053 21056 39385 49978 58020 69951 7//4/ 333
11053 21097 70007=
71443 15/// /2311 11096 21115 39589 40005 53009 60001 333 11054
21107 70002 555 32319 4005/=
71446 15/// /2813 11071 21091 39093 40079 51016 60001 333 11021
21091 70000 555 32822 4010/=
71447 15/// /2705 11075 21084 39493 40041 52025 60001 333 11020
21091 70002 555 33120 4021/=
71457 15/// /2003 11115 21126 39186 40088 51002 60001 333 10006
21124 70000 555 32617 4007/=
71485 17/// /1246 10050 20043 39835 49852 56050 60021 7//4/ 333
10070 20045 70040 555 31263 4004/=
71493 15/// /2602 10006 21006 30215 40254 55005 60001 333 10011
21206 70000=
71510 15/// /2710 11099 21109 39349 40068 51013 60001 333 11057
21139 70000=
71633 11356 81613 10040 20033 39782 40053 57056 69961 76162 8672/
333 10042 21080 44057 70008 90931 555 10002 20002=
71700 15966 12304 11137 21150 30226 40253 57007 60001 333 11018
21247 70000=
71701 12974 22602 11077 21090 30188 40252 57007 60001 82070 333
11020 21208 44027 70000 555 10000 20000=
71704 17259 81613 10034 20033 39823 40043 58061 60081 7614/ 333
10036 21047 70228 555 31721 4003/=
71718 13874 42114 11052 21088 30139 40206 58003 60001 84/4/ 333
11048 21143 70000 555 10000 20000 32324 40180=
71720 17/// ///// 10049 20037 39812 49963 56075 60141 7//4/ 333
10060 20007 70150=
71727 11574 80904 11077 21109 30002 40206 57011 69901 70282 885//
333 11067 21217 49054 79999 90921 555 19999 29999=
71730 11116 81413 11016 21017 39637 40065 57058 69971 77976 887//
333 11016 21095 43030 70007 90983 555 10006 20003 31620 40000=
0000370100
288
SMCN04 KWBC 110600 RRF
AAXX 11064
71825 11674 82408 11105 21141 39453 40143 52012 69901 77177 885//
333 11105 21233 48089 70018 90983 555 10038 20024 32221 40071=
71877 13974 21908 11059 21083 38802 40079 57009 60001 81031 333
10022 21077 70000 555 10000 20000 32724 40151=
71896 17520 80503 11028 21032 39149 49976 58060 60001 771// 333
11001 21069 70020=
71906 12974 02007 11247 21286 30050 40103 53025 60001 333 11138
21247 70018 555 11018 20018 32730 40181=
71926 11374 61408 11299 21329 30037 40062 58003 69901 7717/ 86500
333 11270 21335 48010 79999 90931 555 19999 29999 33030 40131=
71002 15666 82505 11109 21136 39566 40121 53013 60001 333 11108
21234 79999 555 32520 4001/=
71024 15/// /1903 11207 21225 60001 333 11144 21213 70006=
71060 15/// /2902 11061 21123 38495 40024 58025 60001 333 10034
21073 7////=
71235 15/// /1906 11046 21068 60001 333 10025 21056 70000 555
32824 4009/=
71237 45/// /1605 11103 21114 39242 40077 53002 6///1 333 11060
21214 7////=
71243 15/// /1303 11039 21074 39009 40093 58005 60001 333 10062
21041 70000 555 32632 40091=
71248 15/// /0000 11145 21164 38749 40070 58015 60001 333 11025
21170 70000=
71452 15/// /2403 11104 21112 39336 40056 51013 60001 333 11054
21111 70002 555 33117 4019/=
71453 15/// /2606 11026 21059 39181 40097 51014 60001 333 10016
21059 70000 555 32818 4009/=
71456 15/// /2710 11066 21084 39423 40025 51020 60001 333 11057
21120 70009=
71460 45/// /1218 10006 20000 39812 40053 58065 6///1 333 10006
21058 7//// 555 31421 4004/=
71463 45/// /0703 10040 20023 39867 40091 56054 6///1 333 10041
21056 7////=
71471 15966 60604 11050 21094 39198 49985 58029 60001 333 10001
21169 70000 555 32625 40221=
71473 17/// /1722 10079 20064 39960 49989 56070 60061 7//4/ 333
10090 20072 70074 555 31735 4004/=
71477 17/// /0524 10029 20020 39816 49824 56080 60061 7//4/ 333
10054 20013 70063 555 30833 4005/=
71481 15/// /1705 11093 21119 60001 333 10003 21109 70000=
71486 15/// /1803 11052 21075 38831 40029 58030 60001 333 10004
21056 70000 555 31617 4021/=
71487 15/// /2814 11086 21108 39201 40078 53025 60001 333 11018
21087 70000 555 33020 4006/=
71489 15/// /2807 11111 21125 39256 40063 51011 60001 333 11060
21149 70000=
71496 15/// /2709 11127 21139 39428 40051 53016 60001 333 11063
21136 70000=
71505 45/// /0000 11245 21272 39207 49951 57011 6///1 333 11147
21245 7////=
71532 17128 81309 10012 20009 39749 40095 58053 69931 7614/ 333
10012 21122 70003=
71555 15/// /1202 11031 21104 38509 40070 58011 60001 333 10026
21042 70000 555 32631 40110=
71564 15/// /3107 11068 21086 39635 40006 51014 60001 333 10004
21125 70005=
71573 17/// /0803 10030 20024 39788 40069 58051 60051 7//4/ 333
10040 21067 70065=
71617 15/// /1103 11088 21118 30034 40208 58011 60001 333 11064
21258 70000=
71622 17/// ///// 10027 20023 39731 40068 58056 60071 7//4/ 333
10035 21058 70083=
71639 11648 81004 10017 20016 39858 40101 57050 60011 76152 885//
333 10019 21090 43019 70034 90916 555 10028 20024=
71712 15/// /0606 11030 21044 30116 40179 58042 60001 333 11027
21193 70000=
71715 15/// /2009 11043 21063 30028 40214 56007 60001 333 11042
21133 70000 555 31920 4014/=
71732 15/// /1704 11008 21012 60001 333 11008 21095 70000=
71858 15/// /2502 11091 21102 39710 49993 50000 60001 333 11091
21110 70000=
71861 15/// /2201 11094 21105 39301 40036 51007 60001 333 11069
21166 70000=
71869 13574 82606 11061 21082 39493 40022 51015 60001 885// 333
11061 21132 70004 555 10008 20004=
71897 11232 81425 10048 20042 3//// 4//// 57038 60081 76362 886XX
333 10062 20044 70168 90963=
0000362100
289
SMCN04 KWBC 110600 RRD
AAXX 11064
71799 11259 81411 10074 20070 39972 49995 58070 60171 76366 885//
333 10099 20068 70178 90973 555 10000 20000 32331 40071=
71803 13580 72415 11065 21102 39982 40174 55009 60001 81530 333
11054 21160 70000 555 10000 20000 32833 40081=
71814 15/// /2511 11060 21093 30151 40161 55000 60001 333 11059
21194 70000 555 32627 4013/=
71987 15/// /2412 11071 21091 30219 40229 55006 60001 333 11058
21137 70000 555 32327 4017/=
71222 15/// /0703 11128 21140 38981 49947 56037 60001 333 11044
21132 70002=
71232 15/// /2405 10006 21117 38546 40030 56016 60001 333 10018
21013 70000 555 33026 4023/=
71233 15/// /1304 11078 21099 60001 333 10005 21103 70000=
71240 15/// /2412 11066 21108 39225 40084 51009 60001 333 11047
21122 70000 555 32618 4020/=
71242 15/// /1803 11117 21123 60001 333 11022 21147 70004=
71247 15966 02106 11092 21105 39242 40106 50010 60001 333 10021
21098 70000 555 32419 4009/=
71411 15/// /2110 10021 20018 30260 40273 58008 60001 333 10021
21131 70000 555 32222 4021/=
71437 45/// /3505 10021 20013 39996 40092 56049 6///1 333 10025
21067 7////=
71449 17/// /2503 11045 21054 39573 49975 51004 69961 7//4/ 333
11016 21135 70011=
71450 15/// /2510 11100 21114 39336 40065 51021 60001 333 11051
21162 70002=
71474 15048 81605 11030 21070 38763 49991 58066 60001 333 11009
21052 70000=
71494 15/// /2004 11044 21062 39680 40213 58018 60001 333 11043
21204 70002=
71507 15/// /3503 11199 21213 60001 333 11128 21219 70000=
71513 15566 82907 11064 21082 30159 40175 55004 60001 333 11054
21196 70000 555 32919 4009/=
71527 17116 82007 11055 21055 39466 49972 58011 60001 710// 333
11055 21094 70000 555 31919 4017/=
71545 45/// ///// 11109 21125 6///1 333 11010 21155 7////=
71557 45/// /0907 10036 21013 6///1 333 10070 21022 7//// 555
30717 4006/=
71574 13074 02403 11201 21229 30153 40230 50002 60001 333 11094
21289 79999 555 19999 29999=
71584 15966 62711 11077 21111 30128 40177 55002 60001 333 11077
21173 70000 555 32820 4020/=
71605 17/// /3607 10026 20022 39867 40015 57057 60271 7//4/ 333
10066 20024 70303=
71719 15/// /2310 11111 21143 30217 40223 55002 60001 333 11099
21149 70000 555 32423 4012/=
71736 15/// /2413 10014 21051 38700 40070 58014 60001 333 10038
21019 70000 555 32537 4018/=
71813 15/// /2707 11065 21081 30155 40170 55003 60001 333 11054
21195 70002=
71816 12974 72520 11090 21162 30049 40112 53002 60001 86071 333
11089 21208 70000 555 10000 20000 32629 40141=
71820 15/// /1503 10004 21009 30031 40147 58041 60001 333 10016
21070 70004 555 32021 4009/=
71821 45/// /1708 11036 21039 39753 40104 58029 6///1 333 11034
21095 7//// 555 31923 4014/=
71827 11156 51506 11057 21067 39822 40068 58014 69941 77155 85600
333 11053 21105 47016 70040 90983 555 10038 20038 32223 40181=
71831 12474 81308 11020 21037 39762 40042 58036 60001 885// 333
11019 21077 48074 79999 555 19999 29999 31823 40151=
71842 11559 81705 11063 21070 39503 49975 58013 69921 77177 885//
333 11063 21092 47042 70004 90983 555 10004 20004 32017 40070=
71849 15/// /2909 11092 21103 39703 40004 51018 60001 333 11046
21100 7////=
71871 469// 02811 11082 21101 39242 40058 53010 6///1 333 11036
21098 555 32718 4005/=
71882 17/// /1405 10004 21001 39546 40082 56037 60021 7//4/ 333
10015 21000 70046 555 31817 4007/=
71889 13774 81408 10022 21009 39645 40062 58048 60001 8257/ 333
10033 20010 70000 555 10000 20000 31826 40151=
71894 45/// /1020 10085 39908 49916 56060 6///1 333 10085 20049
7//// 555 31039 4004/=
0000369100
290
SMCN04 KWBC 110600 RRB
AAXX 11064
71954 45/// /0000 11080 21087 39614 49992 50003 6///1 333 11080
21099 7////=
71956 17/// /1516 10019 20014 39791 40022 58061 60101 7//4/ 333
10020 21057 70095 555 31622 4006/=
71971 17/// /1402 11207 21226 39850 49895 51050 60031 7//4/ 333
11102 21231 70051 555 31435 4017/=
71999 17/// ///// 10027 20014 39689 49979 58072 69961 7//4/ 333
10049 21004 70006=
71001 17366 83403 11170 21184 38974 49964 56014 60001 771// 333
11153 21243 70000=
71003 17566 82111 11072 21086 39714 40100 58002 60001 771// 333
11071 21150 70000 555 32229 40111=
71009 15/// /0101 11107 21113 60001 333 11022 21192 70000=
71022 17666 80205 10039 21007 39786 49829 56093 60001 761// 333
10051 20028 70015 555 32319 4012/=
71028 17/// /1708 11006 21011 38902 49927 56086 60041 7//4/ 333
10031 21102 70042 555 31624 4023/=
71029 17/// /2811 11341 21377 39882 49923 53002 69921 7//4/ 333
11251 21358 70004 555 32517 4019/=
71030 15/// /2403 10004 21013 30161 40259 56009 60001 333 10010
21173 70000 555 32718 4023/=
71033 17/// /2401 11174 21194 39376 40020 53006 69921 7//4/ 333
11119 21179 70022=
71039 17/// /0000 11165 21180 39289 49961 57013 69921 7//4/ 333
11114 21189 70013=
71040 45/// /0501 11068 21092 39992 40197 57013 6///1 333 11065
21300 7////=
71041 15466 82410 11007 21020 30110 40255 56013 60001 333 11007
21174 70000 555 32424 4001/=
71063 15/// /0505 11046 21062 30072 40173 56033 60001 333 11046
21131 70004=
71202 15/// ///// 11088 21105 60001 333 11012 21137 70000=
71203 17466 80201 10007 21003 39544 40062 58044 60001 761// 333
10038 21010 70003=
71212 15/// /0000 11089 21091 39384 40210 58018 60001 333 11081
21270 70003=
71213 15/// /1315 11022 21022 39776 40078 58049 60001 333 11020
21133 70000 555 32120 4009/=
71300 15/// /0902 11011 21027 30037 40161 56034 60001 333 10001
21127 70020=
71304 15/// /2210 10016 21054 38616 40053 58013 60001 333 10031
21024 70000 555 32538 4018/=
71306 15966 00403 11270 21293 30067 40101 52016 60001 333 11159
21283 70000 555 32537 40072=
71307 17/// /1411 10038 20033 39811 40060 58053 60101 7//4/ 333
10039 21029 70104 555 31518 4001/=
71308 15/// /2211 11001 21015 30175 40261 55008 60001 333 10000
21145 70000 555 32121 4003/=
71412 15/// /2306 11020 21036 30233 40243 55008 60001 333 11019
21163 70000 555 32320 4018/=
71430 15/// /1413 10019 20007 30035 40132 58046 60001 333 10019
21018 70017 555 32123 4008/=
71441 45/// /3111 11066 21081 39686 49996 51014 6///1 333 11026
21116 7//// 555 33220 4003/=
71444 15/// /2402 11095 21102 39250 40014 51018 60001 333 11061
21176 70000=
71448 15/// /3505 11061 21069 39649 49980 51010 60001 333 11032
21085 70017=
71454 15/// /3208 11062 21075 39321 40014 53016 60001 333 11021
21120 70000 555 33117 4005/=
71497 45/// /0706 11194 21229 39771 40045 58015 6///1 333 11163
21204 7////=
71600 15464 82514 10020 21010 30283 40289 56013 60001 333 10020
21059 70000 555 33125 40071=
71702 15/// /2407 11067 21083 30221 40237 58006 60001 333 11028
21176 70000 555 32526 4018/=
71706 13474 52303 11043 21047 30185 40247 58004 60001 85600 333
11025 21176 70000 555 10000 20000 32219 40180=
71710 15/// /2513 11048 21087 30218 40228 55003 60001 333 11033
21102 70000 555 32431 40211=
71713 15/// /2113 11018 21048 30171 40211 56006 60001 333 11017
21135 70000 555 32132 4022/=
71714 15/// /0000 11075 21089 30144 40221 58021 60001 333 11075
21258 70000=
71716 15/50 /0402 11071 21089 30007 40220 58021 60001 333 11068
21294 70005=
71721 15/// /1503 11033 21033 39911 40162 56036 60001 333 11033
21193 70000=
0000374400
291
SMCN04 KWBC 110600 RRE
AAXX 11064
71922 11348 82813 11089 21108 39542 40012 52021 69941 77172 885//
333 11051 21089 48051 70024 90927 93100 555 10027 20024 32719
40060=
71935 12974 10000 11274 21326 39843 40061 50002 60001 80001 333
11274 21326 48026 70006 555 10016 20006=
71938 11966 02617 11299 21368 39960 49991 57002 69901 77677 333
11210 21313 46029 79999 90977 555 19999 29999=
71943 13974 72006 11057 21105 39147 49992 52029 60001 87070 333
11036 21182 70000 555 10000 20000 33519 40070=
71948 47956 02816 11327 39864 49982 56004 6///1 771// 333 11241
21336 7//// 555 32530 40071=
71951 11424 83616 11003 21003 39622 49884 57078 69901 77152 885//
333 10019 21003 41997 79999 90921 555 19999 29999 33623 40061=
71005 15/// ///// 11095 21114 60001 333 11038 21157 70000=
71027 15/// /2103 11014 21062 30221 40234 55007 60001 333 11012
21112 70000 555 32431 4022/=
71047 15/// ///// 11066 21100 60001 333 11013 21127 70000=
71201 17/// ///// 10063 20049 60161 7//4/ 333 10074 20047 70166=
71238 15/// /0000 11085 21112 60001 333 10014 21158 70000=
71239 15/// /2910 11067 21081 39552 40015 53017 60001 333 11027
21138 70000=
71302 17/// /0503 11028 21033 39160 49973 58060 69941 7//4/ 333
11002 21069 70033 555 31918 4007/=
71305 15566 83107 11177 21199 39743 40042 51009 60001 333 11158
21192 70000=
71309 17/// /1705 11008 21031 30038 40049 58022 69921 7//4/ 333
11004 21062 70013 555 32119 4009/=
71310 15/// /2307 11023 21035 30211 40249 55004 60001 333 11023
21167 70002 555 32421 4017/=
71311 15/// /1907 11008 21024 30220 40245 56006 60001 333 10001
21192 70000 555 32020 4019/=
71314 17/// /1306 10011 39743 40096 58051 69931 7//4/ 333 10012
21122 70014=
71319 45/// ///// 11069 21074 39316 40198 58009 6///1 333 11068
21169 7////=
71331 17/// /0104 11143 21170 39624 49997 51012 69951 7//4/ 333
11085 21143 70038=
71339 15966 82506 11111 21164 30099 40113 53004 60001 333 11101
21233 70000 555 32522 4013/=
71349 15/// ///// 11092 21106 60001 333 11039 21125 70000=
71403 45/// /2318 10012 20012 30245 40265 55006 6///1 333 10012
21114 7////=
71432 17/// /0308 10014 20008 39996 40093 56048 69931 7//4/ 333
10032 21063 70017=
71442 15/// /3106 11106 21120 39688 40006 53017 60001 333 11071
21167 70000=
71451 17/// /0202 11180 21202 39584 40020 51010 69921 7//4/ 333
11092 21191 70037=
71455 15/// /2716 11084 21097 39265 40071 51019 60001 333 11047
21109 70000 555 32819 4006/=
71458 45/// /2308 11103 21126 39274 40054 50001 6///1 333 11015
21181 7////=
71459 15/// /2613 11060 21080 39270 40092 51016 60001 333 11046
21149 70002 555 33018 4022/=
71475 17/// /2701 10012 20008 39881 49974 57064 60281 7//4/ 333
10063 20005 70300=
71491 45/// /2706 11304 21336 6///1 333 11218 21304 7////=
71499 15566 82402 11173 21191 39377 40019 53006 60001 333 11118
21177 70000=
71611 15/// /0503 11043 21061 60001 333 11043 21212 70000=
71616 15/// /0602 11068 21077 30097 40220 58025 60001 333 11057
21229 70010=
71705 13074 02206 11078 21087 30155 40245 55005 60001 333 11022
21172 70000 555 10000 20000 32224 40201=
71724 45/// /0204 11079 21097 30205 40213 58028 6///1 333 11079
21180 7////=
71726 15/// /1703 11050 21059 39613 40164 58027 60001 333 11049
21139 70000 555 32419 4008/=
71728 12580 81304 11052 21080 39958 40184 58015 60001 885// 333
11048 21139 70000 555 10000 20000 32328 40080=
71800 15/// /2730 11036 30184 40218 55010 60001 333 11022 21110
70000 555 32739 40042=
71807 15/// /2522 11020 21054 30196 40215 56005 60001 333 11019
21084 70000 555 32635 4020/=
71810 15/// /2712 11043 21070 30117 40185 53002 60001 333 11037
21121 70000 555 32727 4021/=
0000373200
292
SMCN04 KWBC 110600 RRH
AAXX 11064
71865 15/// /2612 11071 21083 39344 40030 52013 60001 333 11057
21107 70010 555 32618 4006/=
71880 11580 81905 10019 21017 38997 40106 58010 69901 70372 885//
333 10053 21093 47012 79999 90941 555 19999 29999 31817 40070=
71900 45/// /3011 11109 21156 30060 40073 53023 6///1 333 11096
21188 7//// 555 32634 4007/=
71931 45/// /2512 11069 21112 30140 40152 55003 6///1 333 11058
21153 7//// 555 32931 4009/=
71113 17/// /0000 10051 20043 30005 40028 58055 60071 7//4/ 333
10097 20028 70111 555 32619 4016/=
71130 15566 82407 11063 21078 39549 40010 51013 60001 333 11061
21154 70000=
71142 15966 12616 11078 21092 39104 40082 51016 60001 333 11025
21089 70000 555 32824 40111=
71234 15/// /1401 11064 21091 38883 40076 58012 60001 333 10044
21068 70000 555 32522 4015/=
71236 45/// /3012 10014 21052 6///1 333 10041 21027 7//// 555
32938 4022/=
71244 15/// /3002 11063 21083 38855 40086 58002 60001 333 10033
21089 70000 555 32726 4020/=
71514 15/// /2807 11075 21091 39351 40058 51019 60001 333 11075
21160 70000=
71524 15/// /0303 11086 21106 30187 40215 56032 60001 333 11086
21211 70000=
71529 45/// /2301 11256 21288 39779 40015 52008 6///1 333 11202
21267 7////=
71534 17125 91407 10016 20016 39817 40089 58050 69951 7614/ 333
10016 21111 70015=
71539 15/// /2814 11075 21096 39363 40067 51019 60001 333 11050
21155 70005 555 32819 4005/=
71542 17/// /0000 11207 21228 69941 7//4/ 333 11146 21210 70010=
71550 15/// /2615 11072 21086 39625 40003 50002 60001 333 11062
21172 70000 555 32520 4005/=
71553 15/// /2305 11095 21105 39357 40032 50006 60001 333 11075
21174 70000=
71556 17/// /2909 11082 21087 39439 40052 51017 69931 7//4/ 333
11077 21138 70011=
71558 15/// ///// 11095 21128 30094 40132 53015 60001 333 11089
21206 70000=
71570 15/// /3004 11059 21072 39671 49984 51008 60001 333 11041
21075 70032=
71579 15/// /3004 11086 21100 39708 49993 51017 60001 333 11039
21090 70000=
71580 11674 62003 11333 21366 39948 49986 51009 69901 77677 86530
333 11309 21378 44017 79999 90983 555 19999 29999=
71587 17632 80903 11080 21089 39608 49968 58010 60001 771// 333
11068 21109 70000=
71588 15/// /2506 11040 60001 333 70000=
71598 17/// /2305 11115 21165 30219 40225 58001 69921 7//4/ 333
11095 21182 70009=
71612 15/// /3501 11042 21065 30102 40195 58034 60001 333 11031
21108 70000=
71614 15/// /1306 11005 21035 30111 40178 58040 60001 333 11005
21192 70000=
71619 15/// /2905 11091 21134 30157 40218 58003 60001 333 11074
21171 70000 555 32719 40180=
71632 17/// /0303 11240 21267 39568 40022 50001 69941 7//4/ 333
11112 21240 70047=
71741 15/// /1013 10017 21001 39610 40029 58058 60001 333 10018
21029 70003 555 30818 4006/=
71746 17/// /1611 10036 20028 39821 40040 58060 60071 7//4/ 333
10038 21046 70092 555 31618 4005/=
71812 17466 82106 10038 20020 39732 40003 58063 60001 761// 333
10078 20012 70000 555 31934 40111=
71818 11874 22108 11114 21128 30069 40088 50003 69901 70171 82030
333 11107 21225 48024 79999 90940 555 19999 29999 32129 40131=
71834 11216 80000 11027 21030 39567 49993 58033 69901 77172 887//
333 11026 21061 44033 79999 90916 555 19999 29999 31821 40221=
71850 11/06 /1903 11048 21055 39473 49973 55001 69901 75677 333
11048 21094 48047 70018 90983 93100 555 10018 20018 31719 40180=
71879 15964 02005 11077 21132 39242 40052 58005 60001 333 10002
21131 70000=
71906 12974 02007 11247 21286 30050 40103 53025 60001 333 11138
21247 70018 555 10018 20018 32730 40181=
71912 11424 80604 11216 21253 39843 40032 57004 60011 77177 885//
333 11149 21221 47021 70030 90983 93101 555 10032 20030=
00000000