0000070800
333
WOIN90 VABB 110300
FROM: MET COLABA
TO: ALL CONCERN

MUMBAI MORNING INFERENCE 11.01.2014:
===================================
ARABIAN SEA INFERENCE:
YESTERDAY'S UPPER AIR CYCIR OVER LKD AND NEIGHBOURHOOD MOVED AWAY
WESTWARD AAA
WEATHER SEASONAL ARABIAN SEA AAA

REGIONAL INFERENCE:
YESTERDAY'S UPPER AIR CYCIR OVER LKD AND NEIGHBOURHOOD MOVED AWAY
WESTWARD AAA
WEATHER SEASONAL ARABIAN SEA AAA

GENERALLY NORTHEASTERLY WINDS PREVAIL IN THE LOWER LEVELS OVER THE
REGION AAA

05 DEG C RECORDED AT NALIYA WAS THE LOWEST MINIMUM TEMPERATURE OVER
THE REGION AAA

FORECAST:
WEATHER WOULD BE MAINLY DRY OVER THE REGION AAA

WARNING: NIL AAA

ENDS=
0000099700
334
WTIN20 DEMS 110600
           TROPICAL WEATHER OUTLOOK
DEMS-RSMC TROPICAL CYCLONES NEW DELHI  DATED   11-01-2014

TROPICAL WEATHER OUTLOOK FOR NORTH INDIAN OCEAN
(THE BAY OF BENGAL AND ARABIAN SEA)
 VALID FOR NEXT 24 HOURS ISSUED AT 0600 UTC.



BAY OF BENGAL & ANDAMAN SEA :-

BROKEN  LOW/MEDIUM  CLOUDS WITH EMBEDDED  MODERATE  TO INTENSE
 CONVECTION  OVER SOUTHEAST BAY OF BENGAL  ADJOINING  INDIAN OCEAN
 BETWEEN  LATITUDE  2.0ON TO 10.0ON LONGITUDE  87.0OE TO 93.0OE IN
 ASSOCIATION WITH  LOW LEVEL CIRCULATION  OVER THE AREA.

SCATTERED  LOW/MEDIUM  CLOUDS WITH EMBEDDED  ISOLATED  WEAK
CONVECTION  OVER REST SOUTH  BAY OF BENGAL.

ARABIAN SEA :- SCATTERED  LOW/MEDIUM  CLOUDS WITH EMBEDDED
 ISOLATED  WEAK TO MODERATE CONVECTION OVER SOUTH EAST  ARABIAN
SEA BETWEEN  LATITUDE  5.0ON TO 10.0ON LONGITUDE  64.0OE TO 70.0OE.




RIDGE LINE:-


RIDGE LINE AT 200 HPA RUNS ALONG LATITUDE 11.0ON OVER THE INDIAN
REGION.=
0000006100
335
BBTC16 VECC 110620
SVC LR YRC333 EXP YRC1138

0000161100
336
SMIQ01 ORBI 110615
AAXX 11061
40650 11525 71605 10096 20079 40172 52018 60022 71062 87800 333 20082
84830 85633=
40608 11558 70000 10060 20031 40223 52018 60002 71022 86830 333 20038
82828 84630=
40621 11557 80301 10090 20055 40214 52014 60032 76160 888xx 333 20076
84820 84625=
40622 12560 80402 10059 20022 40187 52010 60032 8682/ 333 20037 81820
86624 88460=        
40623 11558 80302 10052 20005 40230 53006 60032 70562 8652/ 333 20020
86622 88460=           
40629 12560 83303 10078 20065 40216 52026 60052 72162 8452x 333 20066
84630 88460=
40631 11560 80303 10085 20070 40207 53005 60132 76160 885XX 333 20070
88630=
40637 12560 70802 10105 20100 40182 57022 60112 87800 333 20080 83825
87630=
40642 11556 83605 10040 20014 40223 52020 60012 76052 8452x 333 20020
84625 88460=
40656 12560 80206 10091 20074 40164 52020 60002 885xx 333 20073
88630=
40658 11560 60000 10042 20009 40200 51009 60042 72162 86200 333 20013
86825=
40665 11658 70000 10108 20102 40193 52020 52020 69982 71022 82520 333
20096 82635 85460=
40670 11556 72606 10088 20064 40190 52022 60002 71022 87800 333 20077
82825 85628=
40672 12660 61804 10090 20086 40195 52017 60002 86800 333 20084 82830
84635=
40674 12560 63003 10077 20052 40193 52018 60002 83101 333 20066 83830
831xx=
40676 11540 22803 10092 20070 40204 52027 60002 71000 82500 333 20070
82630=
40680 11550 81404 10119 20109 40183 53006 60042 72162 888xx 333 20095
83830 86633=
40691 11556 80000 10156 20127 40224 52022 60012 71000 8652/ 333 20130
83830 84640 88460=
0000068500
337
UDNT02 EGRR 110622
AMDAR 1104
LVR EU3815   4659N 03003W 110402 F369 MS510 206/052 TB0 S031=
LVR EU3815   4711N 02835W 110409 F369 MS535 201/046 TB0 S031=
LVR EU3815   4722N 02708W 110416 F369 MS555 211/048 TB0 S031=
LVR EU3815   4732N 02540W 110423 F369 MS585 210/051 TB0 S031=
LVW EU3815   4741N 02410W 110430 F369 MS607 212/064 TB0 S031=
LVR EU3815   4749N 02240W 110437 F369 MS625 222/063 TB0 S031=
LVR EU3815   4755N 02108W 110444 F369 MS647 232/073 TB0 S031=
LVR EU3815   4800N 01933W 110451 F369 MS647 241/075 TB0 S031=
LVR EU3815   4801N 01758W 110458 F369 MS642 251/073 TB0 S031=
LVR EU3815   4801N 01622W 110505 F369 MS622 257/074 TB0 S031=
0000068900
338
UDNT02 EGRR 110622 RRA
AMDAR 1105
LVR EU8000   5058N 02020W 110512 F370 MS642 228/081 TB0 S031=
LVR EU8000   5101N 01846W 110519 F369 MS625 238/088 TB0 S031=
LVR EU8000   5101N 01711W 110526 F369 MS632 247/079 TB0 S031=
LVR EU8000   5100N 01535W 110533 F369 MS610 256/075 TB0 S031=
LVR EU8000   5102N 01400W 110540 F370 MS597 267/069 TB0 S031=
LVR EU8000   5113N 01228W 110547 F369 MS562 274/054 TB0 S031=
LVR EU8000   5124N 01056W 110554 F369 MS565 259/043 TB0 S031=
LVR EU8000   5133N 00923W 110601 F370 MS552 264/059 TB0 S031=
LVR EU8000   5141N 00748W 110608 F370 MS540 259/057 TB0 S031=
LVR EU8000   5144N 00611W 110615 F370 MS520 228/081 TB0 S031=
0000068900
339
UDNT02 EGRR 110622 RRB
AMDAR 1102
LVR EU3815   4414N 04425W 110252 F369 MS535 300/063 TB0 S031=
LVR EU3815   4430N 04301W 110259 F369 MS520 300/054 TB0 S031=
LVR EU3815   4444N 04135W 110306 F369 MS495 291/056 TB0 S031=
LVR EU3815   4458N 04009W 110313 F369 MS485 284/048 TB0 S031=
LVR EU3815   4518N 03845W 110320 F369 MS492 271/043 TB0 S031=
LVR EU3815   4537N 03720W 110327 F369 MS487 251/041 TB0 S031=
LVR EU3815   4556N 03554W 110334 F369 MS472 253/042 TB0 S031=
LVR EU3815   4614N 03427W 110341 F369 MS487 234/037 TB0 S031=
LVR EU3815   4630N 03259W 110348 F369 MS480 223/051 TB0 S031=
LVR EU3815   4645N 03131W 110355 F369 MS487 221/048 TB0 S031=
0000028700
340
SXHW11 KWAL 110620
B14036D2 011062013"
1,140111,05:15:00,12.7,57,15.4,0.0,1014.9,0.00,13.2,
1,140111,05:30:00,12.5,54,14.8,0.0,1015.0,0.00,13.2,
1,140111,05:45:00,13.3,54,15.6,0.0,1015.1,0.00,13.2,
1,140111,06:00:00,11.7,56,14.2,0.0,1015.2,0.00,13.2, 48-0NN  30W
0000028300
341
SXHW11 KWAL 110620
B1404042 011062023"
1,140111,05:15:00,5.7,62,10.3,0.0,1014.2,2.99,11.8,
1,140111,05:30:00,6.2,69,11.3,0.0,1014.4,2.99,11.8,
1,140111,05:45:00,6.3,70,12.4,0.0,1014.5,2.99,11.8,
1,140111,06:00:00,6.6,69,12.1,0.0,1014.5,2.99,11.8, 44-0NN  30W
0000012800
342
SMIN90 VANP 110600
AAXX 11064
42867 31595 72305 10246 20165 40151 70544 82577
  333 58007 82625 84360 86270=
0000008000
343
UXIN90 VANP 110600
PPAA 6106/ 42867 NO ASCENT AS TUEODOLITE U/S=
0000026000
344
SMOM10 OOMS 110600 RRB
AAXX 11064
41257 36/// /1102 10178 20038 39746 40241
333 0E011 20109 59013  =
41262 36/// /1311 10185 20076 30024 40225
333 0E017 20096 58003 =
41270 36/70 /0415 10207 20075 30179 40230
333 0E017 20170 58001 =
0000068500
345
UDAF02 EGRR 110622
AMDAR 1104
UNS EU3859   0331S 02603E 110445 F349 MS382 151/030 TB/ S031=
LVR EU3859   0429S 02609E 110452 F349 MS407 127/029 TB0 S031=
LVR EU3859   0523S 02619E 110459 F369 MS395 131/043 TB0 S031=
LVR EU3859   0618S 02629E 110506 F369 MS495 114/036 TB0 S031=
LVR EU3859   0713S 02639E 110513 F369 MS492 116/036 TB0 S031=
LVR EU3859   0807S 02649E 110520 F369 MS485 120/033 TB0 S031=
LVR EU3859   0901S 02659E 110527 F369 MS485 121/038 TB0 S031=
LVR EU3859   0955S 02709E 110534 F369 MS482 124/029 TB0 S031=
LVR EU3859   1049S 02719E 110541 F369 MS490 137/026 TB0 S031=
LVR EU3859   1143S 02729E 110548 F369 MS490 124/014 TB0 S031=
0000010400
346
SMBM01 VBRR 110600 RRA
AAXX 11064
48042 31956 03601 10255 20155 40163 70500 333 58018=
0000325400
347
SMRS14 RUMS 110600
AAXX 11061
22165 42998 20104 11187 21210 30111 40177 54000 82030 333 21198=
22676 41496 81105 11162 21181 39923 40006 57007 77173 8872/ 333
91110=
22954 41221 80902 11003 21006 39595 49839 57003 77372 8872/ 333 21003
86703=
23112 42998 02303 11353 21388 30199 40209 52005=
23114 42997 02302 11394 21429 30204 40214 53005 333 21401=
23503 42998 83601 11282 21313 3//// 4//// 57/// 8805/=
23405 42968 80000 11286 21316 30054 40167 57002 80007=
23412 42999 00203 11336 21372 30074 40187 57001=
23708 41464 80503 11150 21165 39906 40065 57011 77172 8772/ 333 21176
87710=
23803 42999 81002 11185 21204 39879 40071 56006 8802/=
23812 41496 80301 11214 21236 39924 40100 57005 77172 8672/ 333
86714=
27020 41396 80000 10001 21002 39675 49822 53001 77387 8872/ 333 20001
88708=
27066 41295 81403 10001 21002 39708 49883 57015 77372 8872/ 333 20001
88706=
27083 41424 81304 11008 21008 39721 49941 57024 77373 8802/ 333 91005
91110=
27113 41127 80000 10006 20003 39684 49827 53002 77175 8872/ 333
86702=
27242 41446 81501 10001 20001 39721 49847 57016 78582 889// 333
20001=
27277 41294 81403 10002 21001 39731 49897 56013 77172 8872/ 333 88706
91007 91109=
27283 41456 81405 11008 21021 39789 49945 57020 77173 8872/ 333 88711
91008 91111=
27296 41459 81505 11025 21034 39767 49987 57023 71022 886// 333 21026
91009 91112=
27329 41456 82002 10013 20008 39724 49847 56002 76322 8872/=
27355 41496 81603 11000 21002 39704 49865 56006 77172 8872/ 333
21001=
27373 41296 81507 11004 21007 39693 49908 57013 77187 8872/ 333 21004
91011 91114 92982=
27453 41495 81402 10001 21002 39749 49876 57008 77373 8802/ 333 20000
88517 91004 91106=
27485 41294 81705 11004 21013 39792 49940 57021 77372 8872/ 333 91010
91112=
27491 41448 81504 11006 21010 39780 49957 57020 78582 889// 333 21007
91009 91111=
27577 41496 81804 10006 20003 39756 49909 57019 77176 887// 333 88711
91007 91109=
27593 41596 81506 11011 21017 39796 49985 56024 71022 885// 333 21016
88623 91011 91111=
27643 42497 82003 10004 20001 39724 49863 57038 70272 885// 333 88610
91004 91105=
27653 41497 81502 10002 21004 39740 49892 57014 77176 8802/ 333 88513
91003 91105=
27665 41496 81603 10000 21008 39644 49910 57012 77373 8872/ 333 86712
91007 91108=
27697 41596 81409 11018 21018 39785 49980 56023 71073 8552/ 333 21018
91014 91118=
27752 41496 81802 10002 21004 39736 49907 57013 72272 8872/ 333 91002
91105=
27756 41496 81803 10002 21001 39693 49923 57010 77172 8872/ 333 88710
91004 91106=
27760 41294 81908 10002 21004 39703 49948 57005 77172 8872/ 333 91009
91110=
27835 41450 81901 10012 20007 39753 49908 57005 71072 886// 333
88713=
28009 41257 81503 11024 21040 39814 40025 57007 71022 886// 333 21024
91007 91109=
28411 41396 81504 11054 21064 39856 40054 57013 77172 8872/ 333 21056
91006 91108=
28418 41457 81704 11048 21058 39894 40063 57004 75652 886// 333 21050
88710 91006 91107 93400=
28502 42496 81305 11023 21032 39910 40015 57021 8802/ 333 91006
91108=
28517 41497 81403 11043 21045 39907 40048 58014 70272 886// 333
88712=
28612 41498 71503 11029 21029 39954 40054 57010 70244 875// 333
87616=
0000337300
348
SMRS15 RUMS 110600
AAXX 11061
22282 NIL=
22438 NIL=
22471 41295 80609 11192 21225 30065 40091 54000 77373 8872/ 333 86704
91013 91113=
22563 41396 80604 11172 21194 39990 40027 57004 77173 8672/ 333 86708
91110=
22641 41397 80603 11161 21186 39965 49981 54000 77173 8672/ 333 21161
84707=
22695 41995 80706 11172 21192 39882 40045 57012 77373 8802/=
22867 41396 80802 10002 21004 39750 49860 57007 77172 8872/ 333 20002
86708=
22939 41396 80000 11001 21004 39675 49834 53005 77172 8872/ 333 21001
84707=
22996 41495 81304 11003 21011 39779 49962 56018 78582 8592/=
23324 42981 00403 11431 21461 30115 40208 58001=
27051 41395 81202 10000 21001 39688 49851 57008 77372 8652/ 333
85707=
27225 41430 81701 10017 20017 39707 49834 54000 76142 8872/=
27252 41456 81403 11002 21002 39676 49858 57009 77177 8672/ 333 21002
86513=
27333 41222 82003 10003 20001 39694 49848 57002 76176 887// 333
88704=
27369 41595 81503 10002 21001 39753 49889 57013 77172 8872/ 333 88795
91005 91108=
27393 41496 81404 11020 21026 39817 49984 57022 77173 8872/ 333 21021
91008 91113=
27479 41430 81404 11002 21005 39789 49921 57019 77372 8872/ 333 21002
88710 91006 91110=
27532 41295 82003 10014 20013 39656 49859 57003 71074 886// 333 20003
88703=
27648 41395 82403 10007 20007 39728 49893 56003 71072 8872/=
27675 41496 81407 10000 21008 39762 49929 57019 77172 8872/ 333 21001
91007 91111=
27679 41494 81506 11002 21005 39733 49955 57010 78583 889// 333 91010
91110=
27776 41496 81503 10002 21002 39822 49944 56020 77372 8872/=
27799 42597 81604 11001 21010 39921 40034 56021 885// 333 21006 88625
91111=
27858 41297 82004 11003 21004 39607 49924 57012 77173 8872/ 333
21003=
27872 41596 81606 11001 21004 39736 49950 57022 77172 8872/ 333
91113=
27894 41212 81707 11009 21011 39821 40000 57028 77172 887// 333 88704
91010 91114 93400=
27955 41297 82103 11001 21003 39681 49932 57013 77377 8872/ 333 21002
88506=
27972 41496 81706 11002 21003 39652 49961 57027 77173 8872/ 333 88511
91113=
27981 41596 81604 10006 21002 39860 49982 57031 78582 889// 333
88924=
28214 41597 81304 11050 21060 39825 40040 57012 77172 8872/ 333 91006
91108=
28705 41397 81707 11011 21018 39834 40031 57017 73632 886// 333 88709
91012 91113=
28806 41397 81904 11011 21025 39954 40074 58004 73673 886// 333 88708
91110=
28908 41498 81707 11009 21026 39956 40069 57009 70272 886// 333 21009
88710 91010 91113=
28916 41596 81803 11025 21030 39865 40107 53007 71022 886// 333 21028
88720=
34056 41597 82104 10003 20001 39682 49938 56018 78682 889// 333
88921=
34072 41/93 91605 11006 21007 39605 49971 58028 77374 333 96045=
34083 41295 81807 10002 20001 39890 49971 57027 77175 8872/ 333 88706
91011 91113=
34098 42599 82006 10008 21001 39979 40024 57025 885// 333 88620 91012
91114=
34199 41496 81806 10000 21002 39935 40065 57012 72842 88600 333 91011
91111=
34273 41294 81806 10018 20014 39945 40006 57029 76166 8872/ 333 88704
91010 91112=
35001 42499 81605 11002 21010 39975 40056 57013 8860/ 333 88713
91111=
35007 41296 81806 11002 21006 39971 40062 58017 71052 886// 333 88704
91011 91112 93401=
35127 42498 82502 11010 21011 39951 40133 52013 886// 333 88717=
35138 41295 82302 11008 21012 39778 40132 52014 71042 886// 333 88703
93503=
0000284000
349
SMRS16 RUMS 110600
AAXX 11061
34240 41397 82604 10024 20010 39846 49981 53008 78082 8697/ 333
91110=
34253 41497 82106 10028 20022 39804 49966 56018 76166 8872/ 333
91111=
34254 41596 82704 10034 20022 39859 49977 55000 78088 889// 333 91010
91110=
34262 41497 82004 10032 20025 39833 49975 56026 76162 8872/ 333
91111=
34267 41496 82004 10029 20023 39854 49980 56022 76162 8872/ 333
91112=
34321 11582 82704 10040 20017 39872 40009 53009 60062 70262 885// 333
20031 88622=
34344 41498 82604 10036 20022 39919 40006 56032 70262 885// 333
91113=
34356 41496 82006 10035 20030 39844 49990 56020 76165 8872/ 333 91010
91113=
34373 42597 81506 10019 20016 39985 40029 58026 885// 333 91011
91112=
34438 41397 72505 10030 20023 39848 40038 56021 72582 8637/ 333 20025
91113=
34445 41497 82606 10032 20017 39907 40020 53021 76165 8671/ 333 91010
91114=
34476 42598 81710 10033 20012 30045 40053 58024 8493/ 333 91014
91114=
34535 41598 72605 10049 20016 39985 40056 52037 70262 87900 333
91113=
34555 41496 82210 10049 20034 39945 40035 55014 78078 889// 333 91014
91114=
34560 41497 82111 10030 20017 39859 40023 57024 72586 8637/ 333 86916
91013 91113=
34578 42997 81708 10035 20009 30071 40078 57012 8805/ 333 91013
91113=
34644 41496 82706 10053 20036 39999 40075 53026 71082 883// 333 91012
91112=
34646 41598 82507 10056 20052 39978 40059 53011 78082 889// 333 91011
91114=
34655 41497 82108 10048 20025 39997 40056 55009 76162 8872/ 333 20032
91012 91112=
34662 41498 72005 10048 20012 30046 40058 57018 72582 82570 333
91010=
34720 41597 72502 10028 20017 30059 40099 51034 70262 87500 333
20027=
34727 41497 62305 10038 20026 30115 40119 52034 70288 86400 333
20037=
34730 41497 72606 10047 20031 39999 40091 52033 70182 85530 333 20041
85618 91117=
34740 41496 82606 10065 20044 30001 40096 53022 78082 889// 333 91013
91114=
34743 42497 82306 10060 20039 3//// 4//// 5//// 886// 333 91010
91112=
34759 41496 81804 10029 20002 39964 40095 50005 71022 86531 333 20018
91110=
34785 42998 81703 10023 20005 30144 40121 55004 8807/=
34824 41596 82704 10043 20027 30131 40136 52036 71082 883// 333 20040
91010 91110=
34845 41497 82304 10060 20026 39992 40098 53011 78082 8637/=
34858 41996 81903 10031 21002 30007 40115 53022 71011 8807/=
34861 42597 82104 10018 21008 39868 40111 56022 885// 333 20010
91111=
34866 82998 71905 10023 20005 30121 40112 53004 8003/ 333 20014=
34880 41696 81403 10025 20008 30152 40125 57006 71022 8357/ 333
20013=
34887 42998 81403 10028 20024 30143 40124 57010 82037=
37018 41597 82105 10102 20067 30089 40163 51022 70282 889// 333 91011
91114=
37054 42698 82504 11030 21038 39741 40135 53013 885// 333 21063=
37472 42997 01303 10040 20011 30139 40117 56015=
0000034800
350
ASSB20 VCCC 110000
ANALYSIS
10001 33388 01100 99922 44012 20495 20791 30988 31086 30983 30882
30779 31077 31275 31373 30970 30768 30665 44012 81465 81570 81476
81278 30879 80580 80482 80787 71019 71195 44014 21495 21393 31589
31686 31483 31381 31480 31579 31681 31782 31881 32082 44014 32075
31671 31370 30968 30865 19191=
0000003800
351
UEIL01 BIRK 110600
NIL
0000010000
352
SMVC01 LFPW 110600
BBXX
BAREU08 11064 99302 50725 46/// ///// 40111 57018
22243=
00000000