0000026900
449
NOUK32 EGGY 110411
SADIS GATEWAY MONITOR
INTERNAL ALARM MESSAGE
AERODROME NOT RECEIVED

OSDI FT LAST RECEIVED AT 101700Z
SKBO FT LAST RECEIVED AT 101000Z
VABB FT LAST RECEIVED AT 100300Z
ZSPD FT LAST RECEIVED AT 102124Z
END OF MESSAGE

0000010600
450
SACN62 CYYC 110400
METAR CYYC 110400Z 18004KT 15SM FEW180 M07/M09 A2965 RMK AC2 SLP090=

0000021500
451
SAIY37 LIIB 110400
METAR LICA 110350Z 08006KT 9999 FEW025 04/03 Q1022=
METAR LICD 110400Z NIL=
METAR LICG 110400Z NIL=
METAR LICR 110400Z NIL=
METAR LICT 110355Z 13008KT CAVOK 13/11 Q1019=

0000010600
452
SACN62 CYXJ 110400
METAR CYXJ 110400Z 24013KT 15SM BKN220 M04/M10 A2943 RMK CI7 SLP015=

0000010300
453
SPCN43 CWAO 110404
SPECI CWHN 110404Z AUTO 29005KT 260V320 9SM FEW010 M10/M11 A2949=

0000009500
454
SAUK37 EGGY 110350 RRA
METAR EGPI 110350Z AUTO 26015KT 9999 NCD 05/03 Q1009=

0000010000
455
SAUK38 EGGY 110350 RRA
METAR EGPU 110350Z AUTO 30016KT 9999 NCD 04/00 Q1008 RERA=

0000012400
456
SACN62 CYYZ 110400
METAR CYYZ 110400Z 10005KT 12SM FEW014 OVC120 03/01 A2990 RMK ST2AS6
 PRESFR SLP132=

0000011300
457
SACN61 CYYL 110400
METAR CYYL 110400Z AUTO 07007KT 9SM -SN OVC050 M21/M24 A2947 RMK
 SLP020=

0000011200
458
SACN62 CYYQ 110400
METAR CYYQ 110400Z 30005KT 15SM IC SCT270 M28/M31 A2972 RMK CI3
 SLP070=

0000011200
459
SACN62 CYYT 110400
METAR CYYT 110400Z 26020G26KT 15SM FEW220 M06/M09 A3009 RMK CI1
 SLP200=

0000011600
460
SACN61 CYZY 110400
METAR CYZY 110400Z AUTO VRB02KT 9SM OVC015 M04/M06 A2947 RMK PRESFR
 SLP023=

0000011200
461
SACN62 CYYY 110400
METAR CYYY 110400Z 21011G16KT 15SM SCT080 M06/M10 A3014 RMK AC4
 SLP212=

0000028700
462
SACZ43 LKPW 110400
METAR LKCV 110400Z 24006KT CAVOK 02/00 Q1018 NOSIG=
METAR LKKB 110400Z 23006KT CAVOK 02/00 Q1017=
METAR LKLN 110400Z NIL=
METAR LKNA 110400Z 23005KT 9999 FEW042 00/M01 Q1018 NOSIG=
METAR LKPD 110400Z 26003KT 230V320 CAVOK 02/M01 Q1018 NOSIG=

0000015100
463
SAKY31 RUMS 110400
METAR UCFM 110400Z NIL=
METAR UCFO 110400Z 19002MPS 4700 BR FU NSC M03/M09 Q1026 R12/CLRD70
TEMPO 1000 BR FU=

0000009800
464
SANL33 EHDB 110355 RRA
METAR EHJR 110355Z AUTO 21028G31KT  08/07 Q1009 W10/H22=

0000010200
465
SANL33 EHDB 110355 RRB
METAR EHSC 110355Z AUTO 22024G27KT 9000 06/06 Q1013 W08/H14=

0000021600
466
SAAY31 RUMS 110400
METAR UDYZ 110400Z VRB02MPS 2000 -SN BR BKN007 OVC016 M10/M11 Q1026
R09/490440 NOSIG=
METAR UDSG 110400Z 00000MPS M0075 R02/0125N FZFG VV001 M18/M20 Q1020
R02/CLRD70 NOSIG=

0000010200
467
SANL33 EHDB 110355 RRC
METAR EHSA 110355Z AUTO 22024G28KT 9999 07/06 Q1013 W09/H18=

0000024400
468
SATA31 RUMS 110400
METAR UTDD 110400Z 00000MPS 0100 R09/0100V0350N FZFG VV002 M08/M09
Q1027 09CLRD70 NOSIG RMK QBB060 QFE702/0936=
METAR UTDL 110400Z 06007MPS 3400 BR OVC210 M03/M07 Q1027 NOSIG RMK
QFE731/0974 8809//70=

00000000