0000030400
549
NOUK32 EGGY 110441
SADIS GATEWAY MONITOR
INTERNAL ALARM MESSAGE
AERODROME NOT RECEIVED

OSDI FT LAST RECEIVED AT 101700Z
SKBO FT LAST RECEIVED AT 101000Z
VABB FT LAST RECEIVED AT 100300Z
WMKK FT LAST RECEIVED AT 102300Z
ZSPD FT LAST RECEIVED AT 102124Z
END OF MESSAGE

0000209200
550
SPUS70 KWBC 110436
SPECI
KAKH 110432Z AUTO 02004KT 4SM -RA BR OVC002 06/06 A3008 RMK AO2
     P0005=
KARR 110432Z 18011KT 1 1/2SM -RA OVC002 A2952 RMK AO2 RAE00B28
     P0000 $=
KBAF 110432Z 00000KT 1 1/2SM BR OVC005 M01/M02 A3025 RMK AO2
     T10061017=
KCEC 110432Z AUTO 15011KT 8SM BKN019 BKN025 OVC046 10/09 A3015 RMK
     AO2 T01000089=
KCQX 110432Z AUTO VRB04KT 7SM FEW003 OVC041 04/03 A3030 RMK AO2
     T00440033=
KMMK 110432Z AUTO 00000KT 3/4SM BR VV004 01/00 A3026 RMK AO2
     UPE0354RAB0354E28 P0000 T00110000 TSNO=
KMRY 110432Z 09005KT 1/2SM FG VV002 10/09 A3020 RMK AO2=
KNSE 110426Z 17013KT 6SM BR OVC006 20/19 A2997 RMK AO2 T2 SET
     T02000189 $=
KTDR 110432Z AUTO 14012G18KT 5SM BR OVC002 17/ A3005 RMK AO2 $=
KGWO 110433Z AUTO 18019KT 10SM BKN016 OVC022 17/15 A2975 RMK AO2
     PK WND 17027/0355 T01720150 TSNO=
KIJD 110433Z AUTO 00000KT 1/2SM FG VV003 01/00 A3028 RMK AO2
     FZRAE33 P0001 I1001 T00060000 $=
KIMT 110433Z AUTO 00000KT 1SM -SN BR BKN004 OVC011 M01/M02 A2944
     RMK AO2 P0002=
KISP 110433Z 00000KT 1/4SM R06/1800V2000FT -RA FG OVC003 04/04
     A3024 RMK AO2 RAB23 P0000=
KJEF 110433Z AUTO 29011G18KT 10SM SCT008 BKN016 OVC023 07/04 A2958
     RMK AO2 RAE00 P0000=
KLSE 110433Z AUTO 31005KT 2 1/2SM BR BKN005 OVC014 M01/M02 A2948
     RMK AO2 T10061022 PWINO FZRANO $=
KMIC 110434Z 00000KT 3/4SM BR OVC003 M01/M02 A2949 RMK AO2=
KMSS 110433Z AUTO 07006KT 7SM SCT029 OVC050 M03/M06 A3010 RMK
     AO2=
KSET 110433Z AUTO 10004KT 1 3/4SM BR BKN005 BKN049 OVC110 04/04
     A2955 RMK AO2 RAE14 CIG 001V008 P0001 T00440039 TSNO=
KASX 110433Z AUTO 00000KT 4SM -SN BR SCT027 BKN033 OVC060 M03/M04
     A2950 RMK AO2 SNB11 P0000=
KCDW 110433Z 00000KT 1SM -RA BR OVC002 01/M01 A3023 RMK AO2
     P0002=
KTXK 110433Z AUTO 27012G28KT 7SM RA FEW008 SCT016 OVC060 14/11
     A2977 RMK AO2 PK WND 28034/0423 RAB26 P0002=
KVRB 110433Z 13006KT 9SM SCT018 BKN024 21/21 A3011 RMK AO2=
KY50 110433Z AUTO 00000KT 1SM BR OVC002 00/ A2945 RMK AO2 TSNO
     UPE24 P0000 $=

0000077100
551
SACI31 ZBBB 110430
METAR ZBAA 110430Z VRB02MPS CAVOK 02/M25 Q1029 NOSIG=
ZBSJ NIL=
METAR ZBTJ 110430Z 19003MPS 0700 R16R/0800N HZ NSC 00/M06
Q1030
BECMG TL0530
0800=
METAR ZBYN 110430Z 22002MPS 170V260 4000 HZ NSC 01/M20 Q1027 NOSIG=
METAR ZGGG 110430Z 00000MPS 5000 HZ NSC 19/09 Q1023 NOSIG=
METAR ZSHC 110430Z 10003MPS 070V130 2500 -RA BR SCT006
BKN020
06/04 Q1029 NOSIG=
METAR ZSPD 110430Z 04006MPS 9999 -RA NSC 07/02 Q1031 NOSIG=
METAR ZSSS 110430Z 10004G10MPS 060V130 9999 -RA SCT020 07/02 Q1030
NOSIG=
ZWSH NIL=
METAR ZWWW 110430Z 28002MPS 0500 R25/0650N FZFG FEW006 M20/M22 Q1036
NOSIG=
METAR ZYTL 110430Z 29006MPS 4000 HZ NSC 05/M11 Q1029 NOSIG=
METAR ZYTX 110430Z 20004MPS 150V230 CAVOK M01/M19 Q1028 NOSIG=

0000011100
552
SATH31 VTBB 110400 RRB
METAR VTCH 110400Z VRB02KT 9999 FEW028 22/15 Q1019 
A3010
INFO:E=

0000012300
553
SAUK37 EGGY 110420 RRA
METAR EGPI 110420Z AUTO 29013KT 9999 FEW029/// BKN039/// 05/02 Q1010
     RERA=

0000010100
554
SAUK38 EGGY 110420 RRA
METAR EGPU 110420Z AUTO 29014KT 9999 NCD 04/M00 Q1008 RERA=

0000012700
555
SASW31 LSSW 110420 CCA
METAR COR LSZB 110420Z 00000KT 3500 MIFG BR FEW001 SCT130 M01/M01
     Q1017 NOSIG=

0000019300
556
FTLT31 EYVI 110500
TAF EYVI 110500Z 1106/1206 26012KT 7000 OVC012 TEMPO 1106/1110 5000
SNRA BKN006 BECMG 1110/1112 4000 RA BR OVC005 TEMPO 1200/1206 1500
SHSNRA BKN012CB=

0000004200
557
SASP36 LEMM 110430
NIL=

0000009500
558
SAFI32 EFHK 110420 CCA
EFMA 110434Z 29002KT 8000 -SHSN OVC021 M01/M01 Q0999=

0000011200
559
SPCN31 CWAO 110432
SPECI CYHZ 110432Z 22008KT 4SM -SG OVC004 M00/M01 A3030 RMK ST8
 SLP270=

0000095400
560
SAKZ31 RUMS 110430
METAR UAAA 110430Z VRB01MPS 0450 R23R/0500V1100D R23L/0450N BR FU
FEW100 BKN200 M08/M13 Q1024 8891//60 NOSIG=
METAR UACC 110430Z 17007MPS 9999 -SN DRSN OVC017 M08/M11 Q1023
R22/8/0040 NOSIG RMK QFE736/0981=
METAR UAKK 110430Z 17010MPS 9999 DRSN SCT023 OVC210 M14/M17 Q1025
R23/850555 NOSIG RMK QFE722/0962=
METAR UAOO 110430Z 18005MPS 3300 BR BKN130 M05/M08 Q1022 R24/3///55
NOSIG RMK QFE754/1006=
METAR UARR 110430Z 17006MPS 9999 OVC013 M01/M01 Q1009 R22/750245
TEMPO 2000 -SNRA -FZRA BR OVC003 RMK QFE753/1005=
METAR UATE 110430Z 12005MPS 7000 OVC019 00/00 Q1017 R12/3///65 NOSIG
RMK QFE760/1014=
METAR UATG 110430Z 19005MPS 5000 BR OVC030 02/02 Q1015 R14/19//65
NOSIG RMK QFE763/1018=
METAR UATT 110430Z 25004MPS 4500 BR OVC002 M01/M01 Q1011 R13/390135
NOSIG RMK QBB060 QFE739/0986=
METAR UAUU 110430Z 18007MPS 9999 BKN033CB OVC100 M08/M10 Q1014
R15/CLRD60 NOSIG RMK QFE744/0992=

0000013200
561
SAKY31 RUMS 110430
METAR UCFM 110430Z NIL=
METAR UCFO 110430Z 18002MPS 6000 NSC M02/M09 Q1026 R12/CLRD70 NOSIG=

0000023600
562
SATA31 RUMS 110430
METAR UTDD 110430Z 01001MPS 0500 R09/0500N FZFG SCT170 M06/M07 Q1027
09CLRD70 NOSIG RMK QFE702/0936=
METAR UTDL 110430Z 06008G11MPS 3600 BR OVC210 M02/M06 Q1027 NOSIG RMK
QFE731/0975 8809//70=

0000021600
563
SAAY31 RUMS 110430
METAR UDYZ 110430Z 00000MPS 2000 -SN BR BKN007 OVC016 M10/M11 Q1026
R09/490440 NOSIG=
METAR UDSG 110430Z 00000MPS M0075 R02/0075N FZFG VV001 M18/M20 Q1020
R02/CLRD70 NOSIG=

0000014300
564
SACN31 CWAO 110400 CCA
METAR CYQQ 110400Z CCA 16019G27KT 3SM RA BR SCT008 OVC015 06/05 A2957
RMK SF3SC5 PRESFR R10 SLP013=

0000022600
565
SARE20 FMEE 110430
METAR FMCZ 110430Z 27005KT 9999 FEW021 BKN300 29/24 Q1013 NOSIG=
METAR FMEE 110430Z 10017KT 9999 FEW026 29/22 Q1015 NOSIG=
METAR FMEP 110430Z AUTO 21003KT 170V260 9999 NCD 28/23 Q1015=

0000009700
566
SPCN46 CWAO 110436
SPECI CYBN 110436Z AUTO 17007KT 1 3/4SM OVC004 01/01 A2986=

0000010200
567
SPCN51 CWAO 110436
SPECI CWCL 110436Z AUTO 18005KT 3SM OVC002 OVC068 M03/M07 A2950=

0000039800
568
SAAO33 DRRN 110425
METAR DBBB 110430Z 00000KT 4000 BR SCT008 BKN200 26/26 Q1010 TEMPO
2500 BR=
METAR DFFD 110430Z VRB03KT CAVOK 20/03 Q1014 NOSIG=
METAR DGAA 110425Z NIL=
METAR DNKN 110425Z NIL=
METAR DNMM 110425Z NIL=
METAR DRRN 110430Z 06004KT 4000 DU NSC 19/00 Q1014 BECMG 2500=
METAR DXXX 110430Z 35001KT 8000 FEW011 26/25 Q1011 NOSIG=
METAR FTTJ 110425Z NIL=

00000000