0000020800
609
FTFK41 EGYP 110200
TAF EGYP 110424Z 1106/1124 21022G32KT 9999 FEW020 BKN030
TEMPO 1106/1115 SCT020 BECMG 1109/1112 24018KT BECMG
1115/1118 29014KT BKN020 TEMPO 1118/1124 7000 RA SCT010=

0000169500
610
FTAL34 DAAA 110400
TAF DAAG 110500Z 1106/1206 18010KT 9999 FEW030 BKN100 BECMG
                 1110/1112 VRB02KT BECMG 1114/1116 28010KT BECMG
                 1117/1120 VRB02KT=
TAF DAAT 110500Z 1106/1206 06010KT 9999 FEW053 BECMG 1108/1110
                 32012KT BECMG 1112/1114 12014KT 6000 BECMG
                 1120/1122 02010KT BECMG 1200/1204 VRB02KT=
TAF DABB 110500Z 1106/1206 14008KT 9999 FEW033 SCT200 BECMG
         1108/1112 32012KT BECMG 1118/1122 SCT033 SCT100 TEMPO
         1200/1206 7000 -RA SCT023 FEW026TCU BKN030=
TAF DABC 110500Z 1106/1206 20006KT 9999 FEW040 SCT220 BECMG
         1108/1112 32010KT BECMG 1118/1122 SCT033 SCT100 TEMPO
         1122/1206 7000 -RA SCT026 FEW30TCU BKN033=
TAF DABS 110500Z 1106/1206 20006KT 9999 FEW046 SCT220 BECMG
         1108/1112 34010KT BECMG 1118/1122 SCT033 SCT100 TEMPO
         1200/1206 7000 -RA SCT030 FEW33TCU BKN040=
TAF DAOI 110400Z NIL=
TAF DAON 110400Z NIL=
TAF DAOO 110400Z NIL=
TAF DAUG 110500Z 1106/1206 02010KT 9999 FEW040 BECMG 1108/1110
                 32010KT BECMG 1112/1114 04010KT BECMG 1120/1122
                 12010KT BECMG 1202/1204 02010KT=
TAF DAUH 110500Z 1106/1206 VRB02KT 9999 FEW040 BECMG 1110/1112
                 02012KT BECMG 1122/1124 08012KT BECMG 1204/1206
                 34010KT=
TAF DAUI 110500Z 1106/1206 06012KT 9999 FEW046 BECMG 1108/1110
                 12012KT BECMG 1112/1114 20014KT BECMG 1117/1120
                 VRB02KT BECMG 1122/1124 28012KT=
TAF DAUZ 110500Z 1106/1206 10012KT 9999 FEW046 BECMG 1112/1114
                 16012KT BECMG 1118/1120 12012KT BECMG 1203/1206
                 02010KT=

0000012000
611
SAMR20 TFFF 110430
METAR TFFF 110430Z AUTO 07010G23KT 3800 +RA HZ SCT027 SCT032
BKN047 24/20 Q1016=

0000009500
612
SAEG31 HECA 110430
METAR HECA 110430Z 00000KT 2000 BR NSC 10/08 Q1024 NOSIG=

0000009200
613
SARM31 LUKK 110430
METAR LUBL 110430Z AUTO 25013KT 9999 NCD 02/M03 Q1016=

0000020400
614
FTAG41 SAEZ 110500
TAF SAEZ 110500Z 1106/1206 19010KT CAVOK TX26/1118Z TN14/1109Z BECMG
1106/1109 16010G20KT 9999 SCT030 BECMG 1114/1117 16015KT 9999 SCT040
BECMG 1122/1201 10010KT=

0000021100
615
SASQ31 LZIB 110430
METAR LZIB 110430Z 00000KT CAVOK 01/M01 Q1020=
METAR LZKZ 110430Z 00000KT 0250 R01/0450D FZFG BKN001 M03/M03 Q1019=
METAR LZTT 110430Z VRB02KT 9999 FEW046 M03/M07 Q1017=

0000021300
616
SASQ41 LZIB 110430
METAR LZPP 110430Z AUTO VRB02KT 9999 // SCT095/// M02/M03 Q1020=
METAR LZSL 110430Z VRB02KT 9999 FEW055 M01/M03 Q1019=
METAR LZZI 110430Z VRB02KT 9999 BKN057 01/M01 Q1019=

0000021000
617
SABU31 LBSM 110430
METAR LBSF 110430Z 15001MPS 4100 BR NSC M04/M04 Q1023 NOSIG=
METAR LBWN 110430Z 29002MPS CAVOK 02/M00 Q1021 NOSIG=
METAR LBBG 110430Z 33003MPS CAVOK 03/M01 Q1021 NOSIG=

0000009400
618
SANC01 NWWW 110430
METAR NWWW 110430Z AUTO 14021KT 9999 FEW064 29/16 Q1009=

0000009600
619
SAHU31 LHBM 110430
METAR LHBP 110430Z VRB03KT 9999 BKN043 00/M01 Q1021 NOSIG=

0000011600
620
SAMF20 TFFR 110430
METAR TFFR 110430Z AUTO 08002KT 9999 SCT029/// BKN034/// ///TCU
23/20 Q1017=

0000011400
621
SAFG20 SOCA 110430
METAR SOCA 110430Z AUTO 27002KT 9999 -RA FEW003 BKN034 BKN043
23/22 Q1012=

0000018600
622
FTMC33 GMMC 110400 RRA
TAF GMME 110400Z 1106/1212 22010KT 5000 SCT015 BKN100 TEMPO
     1106/1112 4000 RA BKN010 BKN015 BECMG 1118/1120
     16005KT SCT020 SCT100=

0000051600
623
FTSA41 KWBC 110430
TAF
TAF SKBG 110400Z 1106/1206 VRB02KT 9999 FEW017 SCT200 PROB30
      TEMPO 1110/1112 7000 MIFG SCT010
      TEMPO 1117/1123 32006KT FEW018 PROB40 1120/1123 SCT015
      TX25/1118Z TN18/1111Z=
TAF SKPE 110400Z 1106/1206 VRB02KT 9999 SCT015 SCT090
      TEMPO 1108/1112 8000 VCFG SCT010 PROB30 1110/1113 3000 BR
      SCT008
      TEMPO 1115/1118 BKN015
      TEMPO 1119/1123 25006KT SCT018TCU PROB40 1119/1122 8000 DZRA
      SCT017CB TX25/1119Z TN17/1111Z=

0000147000
624
SPUS70 KWBC 110430
SPECI
KNSE 110426Z 17013KT 6SM BR OVC006 20/19 A2997 RMK AO2 T2 SET
     T02000189 $=
KISW 110426Z AUTO 00000KT 1 1/2SM BR OVC004 M01/M01 A2945 RMK AO2
     T10061006=
KMMV 110426Z AUTO 17013KT 10SM BKN029 OVC035 12/08 A2991 RMK AO2
     RAE0356 P0000 T01170083=
KPQL 110426Z AUTO 17005KT 1/2SM FG VV002 18/18 A2995 RMK AO2
     T01830183 TSNO=
KSUX 110427Z 30006KT 3SM BR CLR M06/M06 A2959 RMK AO2
     T10561061=
KFFC 110426Z AUTO 12003KT 3SM BR OVC003 09/09 A3003 RMK AO2
     RAB11E22 P0000 T00890089=
KPDK 110426Z AUTO 34004KT 2SM BR OVC002 08/07 A3003 RMK AO2 RAE26
     P0001=
KDAN 110427Z AUTO 00000KT 7SM BKN004 OVC007 04/03 A3013 RMK AO2
     RAE04 P0000=
KEQY 110427Z AUTO 05004KT 1 3/4SM BR OVC002 07/06 A3008 RMK
     AO2=
KEST 110428Z AUTO 28011KT 4SM BR OVC005 M01/M02 A2951 RMK AO2
     T10111017=
KLNS 110427Z AUTO 05004KT 2SM -RA BR OVC004 02/01 A3014 RMK AO2
     P0001=
KMRH 110427Z AUTO 12008G24KT 3/4SM +RA BR FEW004 BKN009 OVC014
     19/19 A3013 RMK AO2 P0056 T01940189 TSNO=
KPNS 110427Z AUTO 17009KT 5SM BR OVC004 20/19 A2998 RMK AO2 CIG
     003V007 T02000189=
KRAC 110427Z AUTO 20009KT 4SM -RA BR SCT007 BKN015 OVC034 04/03
     A2952 RMK AO2 P0003 T00390033=
KTOI 110427Z AUTO 16007KT 2SM VCTS BR OVC003 17/16 A2999 RMK AO2
     LTG DSNT SW AND NW T01670156=
KVPC 110427Z AUTO VRB03KT 5SM HZ OVC004 17/08 A3002 RMK AO2
     RAB08E25 P0007=

0000011700
625
SPUS41 KWBC 110430
SPECI
KDOV 110427Z AUTO 08002KT 3/4SM R01/1800FT -RA BR FEW090 04/04
A3016=

0000009800
626
SPUS42 KWBC 110430
SPECI
KPDK 110426Z AUTO 34004KT 2SM BR OVC002 08/07 A3003=

0000019900
627
SASA31 KWBC 110400 RRA
METAR
SKBO 110400Z 00000KT 7000 BKN015 13/11 A3031 RMK HZ=
SKBQ 110400Z 03008KT CAVOK 26/23 A2984=
SKLT 110400Z 00000KT 9999 BKN010 BKN080 24/24 A2988=

0000008700
628
SASA41 KWBC 110400 RRA
METAR
SKMD 110400Z NIL=
SKSM 110400Z NIL=

00000000