0000011100
189
UANT01 CWAO 111539
ARP UAL951 5039N04504W 1539 F370 MS62 284/56 KT
N777UA DDL XXN 111539 F56A
0000011100
190
UANT01 CWAO 111539
ARP DHK973 5317N05644W 1539 F330 MS59 300/105 KT
GDHLG DDL YHO 111539 F40A
0000011000
191
UANT01 CWAO 111539
ARP AFR474 4907N02315W 1539 F320 MS50 191/86 KT
FGSPN QXT AOE 111539 F18A
0000011000
192
UANT01 CWAO 111539
ARP EIN125 6104N03031W 1539 F320 MS60 212/73 KT
EIEDY DDL XXN 111539 J81A
0000011000
193
UANT01 CWAO 111539
ARP AAL39 4905N02703W 1539 F360 MS47 195/60 KT
N778AN DDL XXN 111539 F24A
0000010900
194
UANT01 CWAO 111539
ARP SWR86 5401N02004W 1539 F370 MS61 215/69 KT
HBJHE QXT AOE 111539 J56A
0000011000
195
UANT01 CWAO 111539
ARP AFR688 5007N02307W 1539 F350 MS53 192/77 KT
FGSPT QXT AOE 111539 F10A
0000011000
196
UANT01 CWAO 111540
ARP FDX32 5418N04733W 1539 F350 MS58 291/76 KT
N580FE QXT AOW 111540 F37A
0000011000
197
UANT01 CWAO 111540
ARP XLF066 4845N03349W 1540 F360 MS52 297/25 KT
FHXLF DDL XXN 111540 J49A
0000186000
198
SSVX02 KARS 111538
ZZYY 23907 11014 1400/ 114655 085881 6112/
22219 00262
444 2012/ 11014 1307/ 50101 80091 80027 9/015=
ZZYY 56552 11014 1400/ 312963 085121 6112/
11119 40117 52020
22219 00285
444 2012/ 11014 1317/ 50101 80111 80001 9/015=
ZZYY 56607 11014 1449/ 311275 125603 6112/
22219 00305
444 20120 11014 1405/ 50101 80104 80041 9/015=
ZZYY 51667 11014 1447/ 312943 127082 6111/
22219 00304
444 20110 11014 1404/ 50101 80106 9/015=
ZZYY 53604 11014 1400/ 310359 083582 6112/
11119 40114 52019
22219 00288
444 2012/ 11014 1317/ 50101 80082 80001 9/015=
ZZYY 14919 11014 1400/ 100507 085341 6113/
11119 40112 52024
22219 00291
444 2013/ 11014 1315/ 50101 80116 80002 9/015=
ZZYY 53566 11014 1455/ 107109 105701 6111/
22219 00248
444 20110 11014 1408/ 50101 80088 80018 9/015=
ZZYY 56904 11014 1450/ 316041 119843 6112/
22219 00297
444 20120 11014 1441/ 50101 80104 80040 9/015=
ZZYY 56903 11014 1448/ 318941 119856 6111/
22219 00300
444 20110 11014 1440/ 50101 80104 80012 9/015=
ZZYY 22583 11014 1400/ 100820 105406 6113/
22219 00278
444 2013/ 11014 1357/ 50101 80076 80024 9/015=
ZZYY 22704 11014 1400/ 303676 111489 6113/
444 2013/ 11014 0955/ 50101 80079 80024 9/015=
ZZYY 53519 11014 1451/ 117348 113020 6112/
22219 00246
444 20120 11014 1412/ 50101 80042 80027 9/015=
ZZYY 56911 11014 1400/ 314552 084250 6111/
11119 40113 52021
22219 00283
444 2011/ 11014 1316/ 50101 80110 80027 9/015=
ZZYY 53590 11014 1400/ 101445 080603 6112/
11119 40115 52022
22219 00289
444 2012/ 11014 1316/ 50101 80114 80002 9/015=
ZZYY 53572 11014 1200/ 302356 093230 6112/
11119 40096 52012
22219 00289
444 2012/ 11014 1151/ 50101 80117 80013 9/015=
ZZYY 61652 11014 1529/ 139207 002489 6111/
22219 00149
444 20110 11014 1526/ 50101 80104 80017 9/015=
0000011000
199
UANT01 CWAO 111540
ARP AAL81 5916N02704W 1540 F380 MS61 213/56 KT
N776AN DDL XXN 111540 F52A
0000011000
200
UANT01 CWAO 111540
ARP DAL79 5258N03050W 1540 F370 MS54 193/36 KT
N858NW DDL XXW 111540 J92A
0000016000
201
SSVX02 LFVW 111542
ZZYY 41646 11014 1535/ 729277 061173 6112/
22219 00235
33311 88872 20000 32347 43663
444 2012/ 11014 1531/ 50101 9/015=
0000013600
202
SIVD17 CWHX 111500
BBXX
44141 11151 99430 70580 46/// /2504 10065 40294 57009
22200 00093 10803 70013 333 91206 =

0000098400
203
FTIN90 VECC 111500
TAF VECC 111500Z 1118/1224 00000KT 1800 HZ NSC
     BECMG 1122/1124 1000 MIFG
     BECMG 1200/1202 0500 FG
     BECMG 1203/1205 36006KT 1800 BR
     BECMG 1206/1208 2500 HZ/FU
     BECMG 1215/1217 1400 BR=
TAF VECC 111500Z 1118/1203 00000KT 1800 HZ NSC
     BECMG 1122/1124 1000 MIFG
     BECMG 1200/1202 0500 FG=
TAF VEPT 111500Z 1118/1203 05003KT 1600 BR /-RA FEW018 SCT100 BECMG
1200/1202 00000KT 0800 FG FEW020 SCT100=
TAF VEGY 111500Z 1118/1203 05003KT 1600 BR /-RA FEW018 SCT100 BECMG
1200/1202 00000KT 0800 FG FEW020 SCT100=
TAF VEGT 111500Z 1118/1224 00000KT 2000 HZ SCT018 BKN090 BECMG
1200/1202 0700 FG BECMG 1203/1204 05005KT 2000 HZ BECMG 1204/1206
3000 HZ BECMG 1206/1208 4000 HZ BECMG 1210/1212 00000KT 3000 HZ BECMG
1215/1217 2000 HZ TEMPO 1118/1224 1500 -RA FEW025CB OVC080=
TAF VEGT 111500Z 1118/1203 00000KT 2000 HZ SCT018 BKN090 BECMG
1200/1202 0700 FG TEMPO 1118/1203 1500 -RA FEW025CB OVC080=
0000027500
204
SAIN31 VOMM 111540
METAR VOHS 111540Z 11003KT 5000 HZ SCT020 21/15 Q1018 NOSIG=
METAR VOMM 111540Z 08005KT 6000 NSC 23/19 Q1015 NOSIG=
METAR VOTR 111540Z 09009KT 5000 HZ NSC 24/20 Q1015 NOSIG=
METAR VOTV 111540Z 00000KT 4000 HZ FEW015 27/23 Q1013 NOSIG=
0000167800
205
WWCN11 CWTO 111539
SEVERE WEATHER BULLETIN
ISSUED BY ENVIRONMENT CANADA
AT 10:39 AM EST SATURDAY 11 JANUARY 2014.
---------------------------------------------------------------------
WATCHES/WARNINGS IN EFFECT FOR SOUTHERN ONTARIO...
FREEZING RAIN WARNING FOR:
      MERRICKVILLE-WOLFORD - KEMPTVILLE
      CITY OF OTTAWA
      GATINEAU
      PRESCOTT AND RUSSELL
      CORNWALL - MORRISBURG
      SMITHS FALLS - PERTH - EASTERN LANARK COUNTY
      RENFREW - PEMBROKE - BARRY'S BAY
      DEEP RIVER - WHITNEY - EASTERN ALGONQUIN PARK.
      FREEZING RAIN THIS MORNING AND EARLY AFTERNOON.
---------------------------------------------------------------------
WATCHES/WARNINGS ENDED FOR SOUTHERN ONTARIO...
FREEZING RAIN WARNING ENDED FOR:
      BANCROFT - HASTINGS HIGHLANDS - DENBIGH
      GANANOQUE - MALLORYTOWN
      BROCKVILLE - PRESCOTT
      WESTPORT - CHARLESTON LAKE
      PLEVNA - SHARBOT LAKE - WESTERN LANARK COUNTY
      WESTERN ALGONQUIN PARK - LAKE OF TWO RIVERS.
---------------------------------------------------------------------
==DISCUSSION==
AN AREA OF FREEZING RAIN ASSOCIATED WITH A WARM FRONT IS MOVING
ACROSS EASTERN ONTARIO.  IT IS EXPECTED TO MOVE OUT OF THE AREA BY
EARLY AFTERNOON AT WHICH POINT TEMPERATURES ARE EXPECTED TO RISE WELL
ABOVE THE FREEZING MARK.  THE ESTIMATE FOR ICE ACCUMULATION ON
SURFACES IS A RANGE OF 2 TO 8 MILLIMETRES.
MOTORISTS AND PEDESTRIANS ARE ADVISED TO EXERCISE CAUTION ESPECIALLY
ON UNTREATED SURFACES.  LOCAL POWER OUTAGES ARE POSSIBLE DUE TO THE
ICE ACCUMULATION.
REFER TO YOUR LOCAL PUBLIC FORECAST FOR FURTHER DETAILS.
END/OSPC
0000021800
206
SOAT10 KWAL 111543
14022214 011154311    +6.313   +6.291   +6.280   +6.268   +6.282   +6.292   +6.282   +6.267   +6.288   +6.291        +7      +8.8     +26.2       +63   +1019.0  +655.350  49-0NN  79E
0000021800
207
SOBR10 KWAL 111543
14004206 011154331       N/M      N/M      N/M      N/M      N/M      N/M      N/M      N/M      N/M      N/M        +5     +16.0  +25666.0    +96577     +29.7       N/M  45+0NN  79E
0000024100
208
SOAT10 KWAL 111543
FA8005BC 011154337 OT12 ID:KN-BASS-01 DT:2014 01 11 15 41
:RD -3063 -3038 -3068 -3050 -3056 -3080 -3024 -3060 -3035 -3057
:PR 0581 0654 0607 0586 0593 0576 0612 0557 0603 0536
:B 13.7V
 46+1NN 219E
00000000