0000011500
709
SAES20 MSLP 110500
METAR MSLP 110350Z 04005KT CAVOK 21/18 Q1012 A2990=
METAR MSSS 110350Z NIL=

0000082700
710
FALV10 EVRA 110400
EVRR GAMET VALID 110600/111200 EVRA-
EVRR RIGA FIR BLW FL100
SECN I
SIG SFC VIS:09/12 LCA 3000M RASN FOR NORTH OF S 1 2
SIG CLD:LCA BKN-OVC LYR 800/ABV 10000FT AGL
ICE:MOD INC ABV 800-1200FT AMSL
SIGMET APPLICABLE:NIL
SECN II
PSYS:NO MAJOR WX SYSTEM
SFC WIND:WSW 09-14KT FOR S AND WEST OF 1
W 07-12KT FOR 2 3 AND EAST OF 1
WIND/T:
1000FT 290/20KT MS01
2000FT 290/25KT MS03
5000FT 310/30KT MS06
10000FT 310/30KT MS16
SFC VIS:8-10KM
CLD:BKN/OVC LYR 1200/ABV 10000FT AGL FOR 2 3 AND 06/08 FOR 1
SCT-BKN CU SC 2000/7000FT AGL FOR S AND 08/12 FOR 1
FZLVL:800FT AMSL FOR S
500FT AMSL FOR 1 2 3
MNM QNH:
06/09 1001HPA FOR S 1,999HPA FOR 2
995HPA FOR 3
09/12 1000HPA FOR S 1 2, 998HPA FOR 3
SEA:T06 HGT 1.0M
OTLK:111200/111500 SAME HAZARDOUS WX=

0000021000
711
SADR31 MDSD 110500
METAR
METAR MDST 110500Z 00000KT 9999 BKN015 21/21 Q1019 RERA=
METAR MDPC 110500Z 09015KT 9999 FEW018 25/19 Q1019=
METAR MDSD 110500Z 02004KT 9999 FEW018 21/20 Q1018=

0000010200
712
SAIS32 LLBG 110450
METAR LLBG 110450Z VRB01KT 9999 SCT030 BKN040 11/10 Q1023 NOSIG=

0000034700
713
FTCM20 FKKD 110500
TAF FKKD 110500Z 1106/1212 VRB03KT 8000 SCT016 FEW020CB
TEMPO 1106/1108 2000 BR BKN013 FEW020CB PROB30 0900 FG  
TEMPO 1109/1116 5000 HZ
TEMPO 1204/1206 2000 BR=
TAF FKYS 110500Z  1106/1206 VRB04KT 8000 BKN006
TEMPO 1106/1107 1200 BR PROB40 0700 FG
BECMG 1107/1109 BKN016
BECMG 1120/1122 BKN006=

0000036300
714
SASW31 LSSW 110450
METAR LSZH 110450Z 34003KT 0500 R14/0900U R16/0800N R28/0800U
    R34/0800N FG VV001 02/02 Q1018 TEMPO 0800 PRFG VV002=
METAR LSGG 110450Z 00000KT 9999 MIFG NSC 01/00 Q1018 NOSIG=
METAR LSZB 110450Z 31002KT 3500 MIFG BR FEW001 BKN110 M00/M00 Q1017
    NOSIG=
METAR LSZA 110450Z AUTO VRB01KT 9999 OVC044 07/06 Q1021=

0000023500
715
SASW39 LSSW 110450
METAR LSMA 110450Z NIL=
METAR LSMD 110450Z NIL=
METAR LSME 110450Z NIL=
METAR LSMM 110450Z NIL=
METAR LSMP 110450Z NIL=
METAR LSMS 110450Z AUTO VRB02KT 6000NDV FEW160 03/02 Q1018 RMK GRN=

0000009700
716
SPCN51 CWAO 110451
SPECI CZCP 110451Z AUTO 28024KT 2 1/2SM -SN CLR M33/ A2943=

0000024300
717
SAIS31 LLBG 110450
METAR LLET 110450Z VRB01KT 9999 FEW050 10/08 Q1025 RMK SCT090=
METAR LLHA 110450Z NIL=
METAR LLIB 110450Z NIL=
METAR LLOV 110450Z NIL=
METAR LLSD 110450Z 11004KT 9999 SCT030 13/11 Q1022 RMK SCT060=

0000020200
718
FTAG59 SACO 110500
TAF SACO 110500Z 1106/1206 14015KT 9999 BKN030 FEW040CB
TX30/1118Z TN19/1110Z PROB30 1105/1110 5000 TS SHRA
BKN020 FEW040CB BECMG 1110/1112 14010KT 9999 SCT030=

0000015600
719
FTPA31 KWBC 110451
TAF
TAF AGGH 110211Z 1106/1206 34006KT 9999 -SHRA SCT016 BKN120 T 29
      27
      26 26 Q 1006 1008 1007 1005=

0000015600
720
FTMX41 KWBC 110451
TAF
TAF MMBT 110448Z 1106/1206 00000KT P6SM SCT070
     FM111800 18010KT P6SM SKC
      BECMG 1201/1202 00000KT=

0000016000
721
FTMX42 KWBC 110451
TAF
TAF MMZH 110448Z 1106/1206 00000KT P6SM SCT100
     FM111800 24010KT P6SM SCT020
     FM120100 00000KT P6SM SKC=

0000024900
722
FTUS53 KWBC 110451 AAA
TAF AMD
KCMI 110449Z 1105/1124 22008KT 1SM BR OVC003
     FM110700 22012KT 1SM BR OVC003
     FM111400 26012G18KT P6SM OVC015
     FM111800 27014G22KT P6SM BKN025
     FM112200 27014KT P6SM SCT250=

0000024900
723
FTUS80 KWBC 110451 AAA
TAF AMD
KCMI 110449Z 1105/1124 22008KT 1SM BR OVC003
     FM110700 22012KT 1SM BR OVC003
     FM111400 26012G18KT P6SM OVC015
     FM111800 27014G22KT P6SM BKN025
     FM112200 27014KT P6SM SCT250=

0000009600
724
SPUS41 KWBC 110451
SPECI
KALB 110445Z COR 00000KT 10SM OVC009 01/M02 A3020=

0000009800
725
SPUS41 KWBC 110451
SPECI
KLWM 110447Z AUTO 00000KT 4SM BR OVC009 02/00 A3029=

0000018300
726
SALV32 EVRA 110450
METAR EVLA 110450Z AUTO 29005KT 9999 BKN015 OVC021 02/M00 Q1003=
METAR EVVA 110450Z AUTO 28010KT 8000 RASN SCT012 BKN018 OVC025 01/00 
Q1002=

0000008900
727
SABZ21 SBAR 110500
METAR SBAR 110500Z 10008KT 9999 SCT015 26/20 Q1012=

0000015700
728
SADN33 EKCH 110450
METAR EKKA 110450Z 22011KT 3500 -DZ BR FEW004 BKN008 07/06 Q1004=
METAR EKSP 110450Z 24015KT 9999 BKN007 07/06 Q1007=

00000000