0000179300
849
SZPS01 AMMC 111545
CREX++
T000103 A001 D01021 D06025++
-0204190 14737360 56130 2014 01 11 15 38 3025 11 07 00 01
00636 0149 00636 0147 00636 0145 00635 0143 00636 0142 00636 0140+
-0669280 15640860 56363 2014 01 11 15 38 //// 11 07 00 01
00689 -0042 00690 -0041 00691 -0040 00690 -0041 00687 -0044 00683 -0048+
-0942890 15995560 56670 2014 01 11 15 38 3038 11 07 00 01
00554 -0039 00559 -0036 00556 -0039 00561 -0036 00562 -0036 00560 -0039+
-1072080 16580190 57131 2014 01 11 15 38 //// 11 07 00 01
02163 1323 02983 2142 03360 2520 02624 1784 02299 1459 02348 1508+
-1551560 16718860 57210 2014 01 11 15 38 //// 11 07 00 01
01087 -0127 01092 -0123 01104 -0111 01094 -0122 01105 -0111 01098 -0118+
-1775690 16830030 57320 2014 01 11 15 38 3015 11 07 00 01
01075 -0040 01073 -0044 01073 -0045 01075 -0045 01076 -0045 01080 -0043+
-4397330 16861610 65180 2014 01 11 15 38 2885 11 07 00 01
01420 0457 01398 0430 01393 0422 01391 0416 01413 0434 01423 0440+
-2120470 -15978530 65980 2014 01 11 15 38 3008 11 07 00 01
00817 0033 00823 0039 00845 0061 00819 0034 00809 0024 00819 0034+
-2113810 -17518140 66600 2014 01 11 15 38 //// 11 07 00 01
01519 0081 01526 0088 01530 0091 01531 0092 01523 0084 01520 0081+
-1382670 -17176110 66840 2014 01 11 15 38 3010 11 07 00 01
01109 0059 01110 0061 01106 0058 01105 0058 01114 0069 01105 0061+
-1813250 17842750 67050 2014 01 11 15 38 3030 11 07 00 01
01646 0074 01646 0074 01650 0077 01647 0074 01646 0073 01643 0069+
-1760530 17743810 67070 2014 01 11 15 38 3030 11 07 00 01
01787 0030 01788 0031 01790 0032 01790 0032 01791 0033 ///// ////+
-0850250 17919500 67440 2014 01 11 15 38 3027 11 07 00 01
02374 -0017 02372 -0018 02363 -0026 02367 -0020 02363 -0022 02368 -0016++
7777

0000039800
850
SWIO40 RJTD 111545
:PRS 1 #1 1864 1897 1860 1859 1856 1858 1873 1858 1870 1865 1850 1859
1848 1856 1835 1848 1840 1842 1836 1822 1838 1831 1830 1831 1824 1818
1815 1823 1813 1816 :RAD 1 #3 6241 6241 6238 6227 6223 6218 6210 6207
6200 6197 :ENC 5 #5 5238 5230 5215 5203 5195 5190 5179 5176 5179 5185
5189 5193 :SW1 45 #60 53 :SW2 15 #60 39 :BAT 14 #15 12.7 :NAME 
0650018E=
0000011600
851
SXHK40 VHHH 111500
AAXX 11151
45045 46/58 /0509 10161 20138 30166 40239 52012 222//
00163 80148=
0000140700
852
FPHK20 VHHH 111520

DATE/MONTH 12/1 (SUNDAY)
WIND: NORTHEAST FORCE 4 TO 5, BECOMING NORTH FORCE 4 TO 5.
WEATHER: CLOUDY PERIODS AT FIRST. FINE AND DRY APART FROM
RELATIVELY LOW VISIBILITY IN SOME AREAS DURING THE DAY.
TEMP RANGE: 15 - 20 C
R.H. RANGE: 60 - 85 PER CENT

DATE/MONTH 13/1 (MONDAY)
WIND: NORTH TO NORTHEAST FORCE 4 TO 5.
WEATHER: RATHER COOL IN THE MORNING. SUNNY PERIODS DURING
THE DAY. ONE OR TWO RAIN PATCHES OVERNIGHT.
TEMP RANGE: 14 - 18 C
R.H. RANGE: 65 - 85 PER CENT

DATE/MONTH 14/1 (TUESDAY)
WIND: NORTH FORCE 4 TO 5, FORCE 6 OFFSHORE.
WEATHER: DRY WITH SUNNY PERIODS. COLD IN THE MORNING AND AT
NIGHT.
TEMP RANGE: 12 - 16 C
R.H. RANGE: 50 - 75 PER CENT

DATE/MONTH 15/1 (WEDNESDAY)
WIND: NORTH TO NORTHEAST FORCE 4 TO 5.
WEATHER: FINE AND DRY. COLD IN THE MORNING AND AT NIGHT.
TEMP RANGE: 10 - 15 C
R.H. RANGE: 45 - 65 PER CENT

DATE/MONTH 16/1 (THURSDAY)
WIND: NORTHEAST FORCE 4 TO 5.
WEATHER: FINE AND DRY. COLD IN THE MORNING.
TEMP RANGE: 11 - 16 C
R.H. RANGE: 45 - 65 PER CENT

DATE/MONTH 17/1 (FRIDAY)
WIND: NORTHEAST FORCE 4.
WEATHER: FINE AND DRY. COLD IN THE MORNING.
TEMP RANGE: 12 - 17 C
R.H. RANGE: 45 - 65 PER CENT

DATE/MONTH 18/1 (SATURDAY)
WIND: NORTHEAST FORCE 4 TO 5.
WEATHER: FINE AND DRY. COLD IN THE MORNING.
TEMP RANGE: 12 - 17 C
R.H. RANGE: 45 - 65 PER CENT
0000058400
853
FTBU31 LBSM 110500
TAF LBSF 110439Z 1106/1206 VRB02MPS 1500 BR SCT010 TEMPO 1106/1108
0500 FZFG BKN002 BECMG 1108/1110 5000 BR  SCT030 BECMG 1120/1122
2000 BR NSC=
TAF LBWN 110435Z 1106/1206 27004MPS CAVOK BECMG 1116/1118 VRB02MPS
6000 SCT040 TEMPO 1202/1206 3000 BR SCT015=
TAF LBBG 110441Z 1106/1206 24004MPS CAVOK BECMG 1111/1112 12005MPS
BECMG 1118/1120 VRB02MPS 5000 BR TEMPO 1200/1206 2000 BR SCT010=
TAF LBPD 110433Z 1106/1206 28004MPS CAVOK TEMPO 1202/1203 5000 BR
SCT070=
TAF LBGO 110437Z 1106/1206 VRB02MPS CAVOK BECMG 1120/1122 2000 BR=

0000011200
854
SAOS32 LOWM 110450
METAR LOXZ 110450Z VRB01KT 10KM FEW001ST SCT080SC M03/M04 Q1019 RMK
SCT=

0000051800
855
SAOS31 LOWM 110450
METAR LOWW 110450Z 20006KT 9999 FEW040 SCT054 M02/M03 Q1020 NOSIG=
METAR LOWL 110450Z 02004KT 6000 BKN050 M02/M02 Q1020 TEMPO 0800
FZBCFG=
METAR LOWS 110450Z VRB01KT 9999 MIFG SCT080 BKN300 00/00 Q1018 NOSIG=
METAR LOWI 110450Z VRB02KT 2000 BR SCT002 BKN004 02/01 Q1020
R08/29//75 NOSIG=
METAR LOWG 110450Z 34003KT 9999 BKN008 BKN100 02/00 Q1020 R17/19//95
BECMG SCT010 BKN100=
METAR LOWK 110450Z 33003KT 5000 BR FEW002 OVC004 01/01 Q1021
R10L/19//95 TEMPO 4000=

0000008700
856
SANM40 FYWW 110400 RRA
METAR FYKM 110400Z 00000KT CAVOK 21/19 Q1016=

0000009500
857
SABW31 VGEG 110450
METAR VGEG 110450Z 09004KT 3500 HZ NSC 21/12 Q1016 NOSIG=

0000028400
858
SAEO32 EETN 110450
METAR EEKA 110450Z 30007KT 9999 OVC013 01/M01 Q0999=
METAR EEKE 110450Z AUTO 31006KT 270V340 8000NDV -SN SCT006 BKN012 
BKN016 01/01 Q1000=
METAR EETU 110450Z 29008KT 260V330 9999 -SN BKN007 SCT023 M00/M02
Q0995=
METAR EEPU 110450Z NIL=

0000026000
859
SADL33 EDZO 110450
METAR EDFE 110450Z NIL=
METAR EDFH 110450Z 17007KT 9999 BCFG FEW010 BKN090 M01/M01 Q1015=
METAR EDFM 110450Z NIL=
METAR EDLV 110450Z 19006KT CAVOK 02/01 Q1015=
METAR EDVK 110450Z 13004KT 100V170 CAVOK 00/M01 Q1015=

0000009200
860
SADL35 EDZO 110450
METAR COR EDJA 110450Z 21002KT 7000 NSC M01/M01 Q1017=

0000026800
861
SADL34 EDZO 110450
METAR EDLP 110450Z 18008KT CAVOK 03/M02 Q1014=
METAR EDLW 110450Z 19009KT 170V230 CAVOK 02/M00 Q1015=
METAR EDQM 110450Z AUTO 22012KT 9000NDV BR NCD 01/M01 Q1016=
METAR EDSB 110450Z 16002KT 4000 BCFG BR SCT002 M01/M01 Q1017=

0000066300
862
SANO33 ENMI 110450
METAR ENAT 110450Z 22004KT 9999 -SN OVC003 M16/M17 Q1019 RMK WIND
           700FT 16004KT=
METAR ENBL 110450Z NIL=
METAR ENEV 110450Z AUTO 17001KT 9999NDV NCD M08/M16 Q1015 RMK WIND
           1400FT 07009KT=
METAR ENFL 110450Z NIL=
METAR ENKB 110450Z AUTO 07005KT 040V110 9999NDV BKN018/// M05/M07
           Q0999=
METAR ENKR 110450Z AUTO 17006KT 4000NDV -SN FEW002/// SCT011///
           BKN019/// M20/M23 Q1016 SEASMOKE NORTH OF THE FIELD RMK
           WIND 775FT 24012KT=
METAR ENML 110450Z NIL=
METAR ENNA 110450Z 20003KT 9999 FEW002 BKN064 M19/M21 Q1018 RMK WIND
           1800FT 04003KT=

0000021700
863
SANO37 ENMI 110450
METAR ENNO 110450Z NIL=
METAR ENOV 110450Z NIL=
METAR ENSD 110450Z NIL=
METAR ENSG 110450Z NIL=
METAR ENSN 110450Z NIL=
METAR ENSR 110450Z NIL=
METAR ENSS 110450Z NIL=

0000011000
864
UANT01 CWAO 111546
ARP AFR650 4822N03354W 1546 F320 MS51 309/36 KT
FGZNG QXT AOE 111546 F31A
0000011100
865
UANT01 CWAO 111546
ARP DAL271 5206N02652W 1546 F340 MS54 172/61 KT
N185DN QXT AOE 111546 F61A
0000598900
866
AXPZ20 KNHC 111546
TWDEP

TROPICAL WEATHER DISCUSSION
NWS NATIONAL HURRICANE CENTER MIAMI FL
1605 UTC SAT JAN 11 2014

TROPICAL WEATHER DISCUSSION FOR THE EASTERN PACIFIC OCEAN FROM
THE EQUATOR TO 32N...EAST OF 140W. THE FOLLOWING INFORMATION IS
BASED ON SATELLITE IMAGERY...WEATHER OBSERVATIONS...RADAR...AND
METEOROLOGICAL ANALYSIS.

BASED ON 1200 UTC SURFACE ANALYSIS AND SATELLITE IMAGERY THROUGH
1545 UTC.

...INTERTROPICAL CONVERGENCE ZONE/MONSOON TROUGH...
THE MONSOON TROUGH EXTENDS WSW FROM THE COAST OF COLOMBIA AT
08N78W TO 07N91W WHERE SCATTEROMETER WINDS INDICATE A TRANSITION
TO AN ITCZ. THE ITCZ CONTINUES SW TO 05N105W...THEN TURNS WNW TO
07N127W...THEN W TO BEYOND 06N140W. ISOLATED MODERATE CONVECTION
IS NOTED WITHIN 240 NM S OF THE MONSOON TROUGH TO THE E OF 83W.
SCATTERED MODERATE CONVECTION IS OBSERVED ALONG THE ITCZ WITHIN
30 NM EITHER SIDE OF LINES FROM 08N97W TO 05N104W AND FROM
05N114W TO 06N121W. SCATTERED MODERATE ISOLATED STRONG
CONVECTION IS NOTED ALONG THE ITCZ WITHIN 90 NM EITHER SIDE OF A
LINE FROM 07N123W TO 07N134W TO 06N140W.

SCATTERED MODERATE ISOLATED STRONG CONVECTION IS NOTED WELL N OF
THE ITCZ WITHIN 75 NM OF 12N113W...ENHANCED BY UPPER DIFFLUENCE
DESCRIBED BELOW.

...DISCUSSION...
ALOFT...AN UPPER CYCLONE IS CENTERED OVER THE SOUTHERN TIP OF
THE BAJA CALIFORNIA PENINSULA WITH AN UPPER TROUGH EXTENDING S
TO A BASE 07N113W. AN UPPER SHORTWAVE RIDGE DOMINATES THE
WESTERN PORTION OF DISCUSSION AREA WITH THE RIDGE AXIS ROUGHLY
FROM 08N125W TO 30N135W. UPPER MOISTURE IS NOTED WITHIN 270 NM
EITHER SIDE OF THIS UPPER RIDGE AXIS. A UPPER TROUGH IS NOTED NW
OF THE DISCUSSION AREA AND IS ADVANCING SE. DENSE UPPER MOISTURE
IS NOTED WITHIN 300 NM SE OF THIS APPROACHING TROUGH...WITH THE
UPPER SOUTHWESTERLY FLOW TAPPING THE MOISTURE ALONG THE NORTHERN
PORTION OF THE UPPER RIDGE...RESULTING IN A VERY DENSE PLUME
ADVECTED NE ACROSS CENTRAL CALIFORNIA. SOME OF THE MOISTURE IS
JUST BEGINNING TO RETURN SE ACROSS THE NORTHERN BAJA PENINSULA
IN RESPONSE TO THE UPPER CYCLONE PREVIOUSLY DESCRIBED.

WEAK UPPER DIFFLUENCE ALONG THE SOUTHERN PORTION OF THE UPPER
RIDGE IS IN PHASE WITH THE LOWER LEVEL ITCZ AND IS ENHANCING THE
PREVIOUSLY MENTIONED CONVECTION ALONG THE ITCZ. THE DEBRIS
MOISTURE IS ADVECTED E ALONG THE BASE OF THE UPPER TROUGH...THEN
TURNS NE TAPPING THE DEBRIS MOISTURE FROM THE CONVECTIVE CLUSTER
NEAR 12N113W...CONCENTRATING INTO 180 NM WIDE TROPICAL PLUME
THAT CONTINUES NE ACROSS CENTRAL OLD MEXICO...THEN TURNING NE
ACROSS THE GULF MEXICO AND EVENTUALLY FEEDING INTO AN INTENSE
LINE OF FRONTAL CONVECTION ADVANCING E ACROSS MISSISSIPPI AND NW
GEORGIA.

AN LARGE UPPER ANTICYCLONE IS OBSERVED OVER THE CARIBBEAN AT
16N75W WITH ITS ANTICYCLONIC ENVELOPE DOMINATING THE DISCUSSION
AREA E OF 100W...AND SUPPRESSING CONVECTION ALONG THE MONSOON
TROUGH AND ITCZ EXCEPT AS PREVIOUSLY NOTED.

THE UPPER CYCLONE OVER THE SOUTHERN TIP OF THE BAJA PENINSULA
WILL DRIFT SLOWLY E TONIGHT...THEN LIFT QUICKLY NE ON SUN LOSING
IDENTITY IN A DEEP LAYERED TROUGH THAT WILL DOMINATE CENTRAL N
AMERICA EARLY NEXT WEEK. THE UPPER SHORTWAVE RIDGE CURRENTLY
OVER THE WESTERN PORTION WILL AMPLIFY NE INTO A LONGWAVE RIDGE
THAT WILL SHIFT E OVER THE EASTERN N PACIFIC IN THE WAKE OF THE
LONGWAVE TROUGH SETTING UP OVER THE CENTRAL N AMERICA. THE
CARIBBEAN ANTICYCLONE WILL DISSOLVE INTO A BROAD ANTICYCLONE
THAT WILL CONTINUE TO DOMINATE THE EASTERN PORTION OF THE
DISCUSSION AREA.

AT LOWER LEVELS...A 1027 MB HIGH IS CENTERED AT 32N130W WITH A
RIDGE EXTENDING SE TO 17N105W. NE-E 20-25 KT TRADES ARE ENHANCED
SW OF THE RIDGE FROM 09-12N BETWEEN 130-135W WITH SEAS 7-10 FT.
MIXING LONG PERIOD NW AND CROSS EQUATORIAL SE TRADE WILL
ADDITIONALLY MIX WITH NE WIND WAVES RESULTING IN COMBINED SEAS
OF 7-10 FT ACROSS THE AREA N OF THE ITCZ AND TO W OF 117W. A
COLD FRONT WILL SWEEP E ACROSS THE WATERS JUST N OF THE
DISCUSSION AREA AND JUST DIP INTO THE NE CORNER TONIGHT...THEN
PASS THROUGH THE NORTHERN GULF OF CALIFORNIA ON SUN. POST-
FRONTAL HIGH PRESSURE WILL INCREASE NE WINDS TO 20-25 KT ACROSS
THE WATERS N OF 25N W OF 117W ON SUN INTO EARLY MON...WITH SEAS
OF 8-14 FT FROM 25-32N. THE GRADIENT WILL BEGIN TO RELAX ON MON
AFTERNOON.

GULF OF CALIFORNIA...NORTHERLY 10-15 KT WINDS WILL PERSIST TILL
LATE TONIGHT...THEN BECOME NORTHERLY 5-10 KT S OF 29N AND
SOUTHERLY 5 KT ACROSS THE WATERS N OF 29N. EXPECT ONLY A 10 KT
SW-W-NW WIND SHIFT WITH THE COLD FRONT PASSAGE ON SUN AND SUN
NIGHT. STRENGTHENING POST-FRONTAL HIGH PRESSURE WILL INCREASE
THE NW FLOW TO 20-25 KT ACROSS THE GULF WATERS N OF 29N BY LATE
SUN NIGHT...WITH THESE CONDITIONS SPREADING SE ACROSS THE ENTIRE
GULF BY LATE MON. LITTLE CHANGE EXPECTED THROUGH LATE TUE NIGHT
AS SEAS BUILD TO 7 FT IN LONG NW-SE FETCH ACROSS THE CENTRAL
WATERS. THE GRADIENT WILL RELAX SUPPORTING 10-1 5KT AGAIN BY
EARLY THU.

GAP WINDS...
GULF OF TEHUANTEPEC...LIGHT NORTHERLY WINDS THIS MORNING WILL
BECOME LIGHT AND VARIABLE LATE THIS AFTERNOON. A NORTHERLY
DRAINAGE SURGE OF 20-30 KT IS EXPECTED AGAIN BRIEFLY LATE
TONIGHT INTO EARLY SUN MORNING...HEN GRADUALLY DIMINISHING TO 10-
15 KT BY LATE SUN AFTERNOON. THE DIURNAL MAXIMUM DRAINAGE SHOULD
ONLY BE 15-20 KT LATE SUN NIGHT. THE POST-FRONTAL GRADIENT WILL
SUPPORT 20-30 KT BEGINNING MON NIGHT...INCREASING TO MINIMAL
GALE BY SUNRISE TUE...AND AT LEAST STRONG GALE WINDS IF NOT
MINIMAL STORM CONDITIONS BY LATE WED. BEST GUESS FOR NOW IS THIS
NEXT GALE EVENT WILL PERSIST THROUGH MIDDAY ON THU BEFORE
DIMINISHING BELOW GALE FORCE.

GULF OF PAPAGAYO...FRESH EASTERLY TRADES ACROSS THE WESTERN
CARIBBEAN ARE SPILLING ACROSS CENTRAL AMERICA MAINTAINING LATE
NIGHT NE-E SURGES OF 20-25 KT THROUGH...AND DOWNSTREAM OF THE
GULF OF PAPAGAYO. LITTLE CHANGE EXPECTED THROUGH LATE THU NIGHT.

$$
NELSON
0000012800
867
SSVX08 KARS 111546
ZZYY 28401 11014 15004 132222 144594 6111/
11119 03012
444 20110 11014 1534/ 521// 60401=
0000011000
868
UANT01 CWAO 111546
ARP SAS925 6120N05204W 1546 F360 MS57 278/20 KT
LNRKG DDL UAK 111546 J47A
00000000