0000072600
829
SAFR32 LFPW 110400
METAR LFBD 110400Z AUTO 25004KT 6000 BKN014 09/09 Q1017=
METAR LFBH 110400Z AUTO 18003KT 3600 BR BKN009 OVC082 09/08 Q1016=
METAR LFBI 110400Z AUTO 18002KT 1700 BCFG NSC 06/05 Q1015=
METAR LFBL 110400Z AUTO 21004KT 9999 BKN018 BKN160 06/05 Q1016=
METAR LFBO 110400Z AUTO 18005KT 9999 FEW019 BKN026 BKN180 08/06
Q1018=
METAR LFBP 110400Z AUTO 21003KT 7000 OVC029 10/08 Q1018=
METAR LFBT 110400Z AUTO 25004KT 5000 BR FEW009 OVC021 09/07 Q1018=
METAR LFBZ 110400Z AUTO VRB01KT 9999 BKN023 OVC029 12/09 Q1018=
METAR LFLB 110400Z AUTO 00000KT 1700 BR NSC 02/02 Q1018=
METAR LFLX 110400Z AUTO 23007KT 9999 NSC 08/06 Q1015=
METAR LFCK 110400Z NIL=
METAR LFML 110400Z NIL=

0000050000
830
SAFR33 LFPW 110400
METAR LFKB 110400Z 21003KT 170V230 9999 OVC030 12/08 Q1020 NOSIG=
METAR LFKF 110400Z AUTO 07009KT 010V110 9999 FEW027/// BKN230///
12/09 Q1020=
METAR LFKJ 110400Z AUTO 04005KT 9999 NCD 06/05 Q1019=
METAR LFLC 110400Z 12008KT CAVOK 05/03 Q1015 NOSIG=
METAR LFMP 110400Z AUTO 32004KT 9999 NSC 09/08 Q1018=
METAR LFMV 110400Z AUTO 13003KT 080V170 9999 OVC029 11/07 Q1020=
METAR LFSL 110400Z AUTO 14001KT 9000 NSC 05/04 Q1017=
METAR LFKC 110400Z NIL=

0000102500
831
SAFR34 LFPW 110400
METAR LFCR 110400Z AUTO 11006KT 9999 NSC 07/04 Q1017=
METAR LFJL 110400Z AUTO VRB02KT 6000 NSC 01/00 Q1016=
METAR LFLP 110400Z AUTO VRB01KT 4700 BR NSC 02/02 Q1018=
METAR LFLS 110400Z AUTO 23006KT 190V260 9999 OVC015 08/06 Q1018=
METAR LFLY 110400Z AUTO 17011KT 9999 NSC 09/06 Q1017=
METAR LFMT 110400Z 04005KT 9999 OVC040 11/08 Q1019=
METAR LFMU 110400Z AUTO 04007KT 9999 FEW021 BKN034 OVC040 11/08
Q1019=
METAR LFOB 110400Z AUTO 17002KT 3900 BR OVC003 05/04 Q1016=
METAR LFOH 110400Z AUTO 17005KT 140V200 8000 SCT006 SCT011 OVC017
07/05 Q1015=
METAR LFOK 110400Z AUTO VRB02KT 7000 NSC 02/02 Q1016=
METAR LFOP 110400Z AUTO 17003KT 0200 R22/0900N FG VV/// 05/05 Q1016=
METAR LFPB 110400Z AUTO 00000KT 6000 -RA SCT004/// BKN048///
BKN058/// ///TCU 05/05 Q1016=
METAR LFQA 110400Z AUTO VRB02KT 8000 -RA ///TCU 02/02 Q1016=
METAR LFQB 110400Z AUTO 33003KT 2000 BR NSC 02/02 Q1015=
METAR LFSN 110400Z AUTO VRB02KT 1800 BR FEW002 BKN064 OVC088 00/00
Q1016=

0000088400
832
SAFR35 LFPW 110400
METAR LFMI 110400Z AUTO 09008KT 9999 OVC033 11/08 Q1019=
METAR LFMK 110400Z AUTO 10006KT 9999 BKN019 OVC024 10/08 Q1018=
METAR LFOV 110400Z AUTO 36003KT 0100 FG FEW001 05/05 Q1015=
METAR LFRD 110400Z AUTO 19003KT 0050 R35/0375N FG VV/// 05/05 Q1015=
METAR LFRI 110400Z AUTO 16001KT 5000 BR SCT008 BKN150 BKN170 08/07
Q1015=
METAR LFRM 110400Z AUTO VRB03KT 6000 FEW006 BKN068 BKN080 07/06
Q1015=
METAR LFRN 110400Z AUTO VRB02KT 2000 BR FEW004 BKN009 BKN014 07/07
Q1016=
METAR LFRO 110400Z AUTO 22005KT 9999 BKN030 BKN040 07/06 Q1016=
METAR LFRV 110400Z AUTO 35005KT 3500 BR VV/// 06/06 Q1016=
METAR LFRZ 110400Z AUTO VRB03KT 2100 BR OVC003 08/08 Q1016=
METAR LFSB 110400Z VRB02KT CAVOK 04/02 Q1017 NOSIG=
METAR LFST 110400Z AUTO VRB01KT 8000 NSC M00/M01 Q1017=
METAR LFTH 110400Z AUTO 02003KT 9999 OVC029 11/09 Q1020=

0000076300
833
SAFR36 LFPW 110400
METAR LFBA 110400Z AUTO 00000KT 7000 OVC013 07/07 Q1017=
METAR LFBE 110400Z AUTO 07003KT 2900 BR BKN025 OVC180 04/04 Q1017=
METAR LFGJ 110400Z AUTO 09004KT 7000 FEW017 SCT160 02/02 Q1016=
METAR LFJR 110400Z AUTO VRB02KT 1300 R26/2000D BCFG OVC002 06/06
Q1016=
METAR LFMD 110400Z AUTO VRB03KT 9999 OVC037 11/07 Q1020=
METAR LFMH 110400Z AUTO 15008KT 9999 NSC 06/04 Q1015=
METAR LFOT 110400Z 09002KT 4000 BR FEW043 BKN100 06/05 Q1015 NOSIG=
METAR LFPN 110400Z AUTO 07001KT 2000 -DZ BR OVC002 06/05 Q1016=
METAR LFRC 110400Z AUTO 19009KT 6000 BKN005 BKN050 07/06 Q1014=
METAR LFRG 110400Z AUTO 22004KT 6000 BKN022 OVC074 06/05 Q1015=
METAR LFRK 110400Z AUTO 00000KT 6000 FEW021 BKN030 OVC072 06/05
Q1015=

0000098300
834
SAKZ31 RUMS 110400
METAR UAAA 110400Z VRB01MPS 0400 R23R/0500N R23L/0400N BR FU FEW100
BKN200 M10/M14 Q1025 8891//60 NOSIG=
METAR UACC 110400Z 18007MPS 9999 -SN DRSN OVC027 M08/M10 Q1023
R22/8/0040 NOSIG RMK QFE736/0981=
METAR UAKK 110400Z 18010MPS 9999 DRSN BKN027 OVC210 M14/M17 Q1026
R23/850555 NOSIG RMK QFE722/0963=
METAR UAOO 110400Z 18005MPS 3300 BR BKN130 M06/M08 Q1022 R24/3///55
NOSIG RMK QFE754/1006=
METAR UARR 110400Z 18005MPS 2300 SN BKN006 OVC019 M01/M01 Q1009
R22/750245 TEMPO 2000 -SNRA -FZRA BR OVC004 RMK QBB200 QFE753/1005=
METAR UATE 110400Z 12005MPS 5000 BR SCT002 OVC017 00/00 Q1017
R12/3///65 NOSIG RMK QBB070 QFE760/1014=
METAR UATG 110400Z 19006MPS 5000 BR OVC026 02/02 Q1015 R14/19//65
NOSIG RMK QFE763/1018=
METAR UATT 110400Z 25004MPS 2000 BR OVC002 M01/M01 Q1011 R13/390135
NOSIG RMK QBB060 QFE739/0985=
METAR UAUU 110400Z 17006MPS 9999 BKN033CB OVC100 M08/M10 Q1014
R15/CLRD60 NOSIG RMK QFE744/0992=

0000010600
835
SACN62 CYBW 110400
METAR CYBW 110400Z 18008KT 15SM SCT120 M10/M11 A2963 RMK AC3 SLP095=

0000010600
836
SACN62 CYMA 110400
METAR CYMA 110400Z VRB02KT 20SM BKN045 M21/M24 A2936 RMK SC7 SLP999=

0000014000
837
SACN62 CYCD 110400
METAR CYCD 110400Z 14005KT 6SM -RA BR FEW006 SCT011 OVC018 06/05
 A2963 RMK SF2SC2SC4 PRESFR SLP034=

0000010600
838
SACN62 CYPA 110400
METAR CYPA 110400Z 27005KT 15SM BKN085 M07/M09 A2948 RMK AC7 SLP014=

0000013300
839
SACN62 CYTS 110400
METAR CYTS 110400Z 16008KT 12SM -SN OVC008 M02/M04 A2972 RMK SC8 PCPN
 VRY LGT PRESFR SLP083=

0000011100
840
UANT01 CWAO 111543
ARP UAL949 6255N03922W 1543 F330 MS61 181/30 KT
N663UA DDL KUS 111543 F42A
0000011100
841
UANT01 CWAO 111543
ARP AAL173 5046N04058W 1543 F340 MS61 297/59 KT
N349AN DDL XXN 111543 F51A
0000010900
842
UANT01 CWAO 111543
ARP OKKKF 5359N02016W 1543 F400 MS54 214/52 KT
OKKKF QXT EUA 111543 A15A
0000070400
843
SSVX08 KARS 111543
ZZYY 32322 10014 12004 501979 095188 6112/
11119 01810 10237 29087
22219 00237
33311 88872 20000 32366 20001 32383 43474 20020 32334 20040 32268
20060 32002 20080 31522 20100 31416 20120 31396 20140 31380
20500 30816
444 20120 10014 1253/ 521// 60401=
ZZYY 32322 11014 15004 501973 095196 6111/
11119 01508 10243 29088
22219 00240
444 20110 11014 1401/ 521// 60401=
ZZYY 32319 10014 1200/ 507990 110070 6113/
33311 88870 20020 32450 20080 32383 20100 32026 20120 31803
20180 31291 20300 31109 20500 30831
444 20130 10014 1310/ 521//=
ZZYY 32319 11014 15004 507980 110070 6112/
11119 01213 10242 29073
444 20120 11014 1505/ 521// 60401=
0000011100
844
UANT01 CWAO 111544
ARP DAL231 4951N04736W 1543 F370 MS64 300/52 KT
N817NW DDL XXW 111544 J45A
0001148000
845
SSVX02 KARS 111541
ZZYY 54906 11014 1400/ 561334 156970 6113/
11119 40013 57002
22219 00009
444 2013/ 11014 1302/ 50101 80119 80007 9/015=
ZZYY 72834 11014 1400/ 561703 160967 6112/
11119 40006 57003
22219 00013
444 2012/ 11014 1303/ 50101 80119 80007 9/015=
ZZYY 54904 11014 1400/ 560155 164026 6113/
11119 49990 52003
22219 00026
444 2013/ 11014 1302/ 50101 80118 80008 9/015=
ZZYY 17677 11014 1430/ 517550 014263 6111/
11119 30176 40176 57003
22219 00240
444 20110 11014 1456/ 50101 80090 80000 9/015=
ZZYY 54907 11014 1400/ 560213 159261 6112/
11119 49999 54000
22219 00015
444 2012/ 11014 1303/ 50101 80118 80007 9/015=
ZZYY 72826 11014 1400/ 563567 155581 6112/
11119 40010 57001
22219 00006
444 2012/ 11014 1345/ 50101 80120 80006 9/015=
ZZYY 31547 11014 1451/ 518343 036439 6111/
22219 00273
444 20110 11014 1147/ 50101 80115 80006 9/015=
ZZYY 51898 11014 1406/ 115138 178819 6113/
22219 00270
444 20130 11014 0950/ 50101 80096 80026 9/015=
ZZYY 51514 11014 1407/ 111867 167031 6112/
22219 00275
444 20120 11014 1356/ 50101 80099 80015 9/015=
ZZYY 33663 11014 1410/ 546783 025441 6112/
11119 30095 40095 57033
22219 00088
444 20120 11014 1442/ 50101 80090 80006 9/015=
ZZYY 71575 11014 1300/ 556405 006894 6112/
11119 40054
22219 00005
444 2012/ 11014 1258/ 50101 80104 80021 9/015=
ZZYY 51869 11014 1405/ 116489 172263 6113/
22219 00268
444 20130 11014 1355/ 50101 80099 80017 9/015=
ZZYY 33587 11014 1410/ 559454 027315 6113/
11119 39945 49945 57034
22219 01004
444 20130 11014 1438/ 50101 80110 80006 9/015=
ZZYY 17681 11014 1400/ 535461 032325 6112/
11119 30199 40199 52006
22219 00209
444 20120 11014 1445/ 50101 80090 80000 9/015=
ZZYY 51897 11014 1406/ 115192 168022 6113/
22219 00275
444 20130 11014 1357/ 50101 80102 80015 9/015=
ZZYY 31912 11014 1400/ 704245 014603 6113/
22219 00284
444 20130 11014 1319/ 50101 80118 80005 9/015=
ZZYY 31902 11014 1300/ 704972 018674 6111/
22219 00279
444 20110 11014 0956/ 50101 80116 80007 9/015=
ZZYY 33549 11014 1300/ 537720 027644 6111/
11119 30209 40209 57002
22219 00183
444 20110 11014 1443/ 50101 80145 80012 9/015=
ZZYY 33549 11014 1200/ 537724 027687 6111/
11119 30210 40210 52002
22219 00183
444 20110 11014 1050/ 50101 80145 80011 9/015=
ZZYY 33549 11014 1100/ 537724 027687 6111/
11119 30209 40209 57004
22219 00182
444 20110 11014 1050/ 50101 80145 80012 9/015=
ZZYY 33549 11014 1400/ 537720 027644 6111/
11119 30210 40210 52001
22219 00184
444 20110 11014 1443/ 50101 80145 80017 9/015=
ZZYY 51666 11014 1407/ 509853 160150 6112/
22219 00292
444 20120 11014 1409/ 50101 80104 80022 9/015=
ZZYY 33572 11014 1350/ 557206 046072 6112/
11119 39911 49911 52011
22219 00020
444 20120 11014 1319/ 50101 80145 80008 9/015=
ZZYY 33556 11014 1400/ 538924 040710 6112/
11119 30101 40101 52021
22219 00173
444 20120 11014 1227/ 50101 80145 80010 9/015=
ZZYY 31534 11014 1240/ 525666 040252 6111/
11119 30170 40170 52010
22219 00265
444 20110 11014 1126/ 50101 80145 80011 9/015=
ZZYY 31533 11014 1420/ 521619 035759 6111/
11119 30196 40196 52002
22219 00268
444 20110 11014 1448/ 50101 80145 80007 9/015=
ZZYY 31533 11014 1330/ 521619 035759 6111/
11119 30197 40197 52008
22219 00267
444 20110 11014 1448/ 50101 80145 80006 9/015=
ZZYY 17514 11014 1452/ 528985 012298 6112/
22219 00255
444 20120 11014 1446/ 50101 80110 80000 9/015=
ZZYY 33518 11014 1300/ 553414 021807 6111/
11119 40015
22219 00029
444 2011/ 11014 1152/ 50101 80106 80021 9/015=
ZZYY 33518 11014 1200/ 553414 021807 6111/
11119 40025
22219 00029
444 2011/ 11014 1152/ 50101 80106 80018 9/015=
ZZYY 33531 11014 1200/ 551725 036614 6113/
11119 49925
22219 00038
444 2013/ 11014 1152/ 50101 80106 80014 9/015=
ZZYY 33531 11014 1400/ 551709 036619 6111/
11119 49925
22219 00040
444 2011/ 11014 1439/ 50101 80106 80018 9/015=
ZZYY 33535 11014 1200/ 548797 032034 6111/
11119 49969
22219 00071
444 2011/ 11014 1135/ 50101 80108 80016 9/015=
ZZYY 33535 11014 1400/ 548781 031971 6111/
11119 49967
22219 00072
444 2011/ 11014 1440/ 50101 80108 80016 9/015=
ZZYY 17523 11014 1451/ 529291 018390 6112/
22219 00266
444 20120 11014 1446/ 50101 80112 80000 9/015=
ZZYY 51637 11014 1414/ 513232 178626 6111/
22219 00297
444 20110 11014 1411/ 50101 80133 80015 9/015=
ZZYY 21968 11014 1400/ 132581 173566 6113/
22219 00184
444 2013/ 11014 1351/ 50101 80089 80022 9/015=
ZZYY 33667 11014 1452/ 526565 014420 6112/
22219 00247
444 20120 11014 1446/ 50101 80112 80000 9/015=
ZZYY 51527 11014 1400/ 713104 175792 6113/
22219 00268
444 2013/ 11014 1357/ 50101 80088 80018 9/015=
ZZYY 51527 11014 1100/ 713111 175776 6113/
22219 00268
444 2013/ 11014 1223/ 50101 80088 80019 9/015=
ZZYY 51623 11014 1400/ 312626 170395 6113/
22219 00302
444 2013/ 11014 1410/ 50101 80110 80026 9/015=
ZZYY 51644 11014 1403/ 123722 178048 6113/
22219 00250
444 20130 11014 1356/ 50101 80103 80018 9/015=
ZZYY 52676 11014 1403/ 118987 159272 6112/
22219 00274
444 20120 11014 1358/ 50101 80098 80021 9/015=
ZZYY 15669 11014 1454/ 700698 028241 6112/
22219 00272
444 20120 11014 1500/ 50101 80086 80004 9/015=
ZZYY 33905 11014 1400/ 547537 014249 6113/
11119 30219 40219 57004
22219 00070
444 20130 11014 1441/ 50101 80090 80004 9/015=
ZZYY 33880 11014 1430/ 550073 023405 6113/
11119 30050 40050
444 20130 11014 1439/ 50101 80100 80020 9/015=
ZZYY 33880 11014 1330/ 550073 023405 6113/
11119 30064 40064
444 20130 11014 1439/ 50101 80100 80020 9/015=
ZZYY 33880 11014 1230/ 550056 023454 6112/
11119 30076 40076
444 20120 11014 1147/ 50101 80100 80019 9/015=
ZZYY 33582 11014 1430/ 554090 046482 6112/
11119 39891 49891 52022
22219 00038
444 20120 11014 1338/ 50101 80090 80020 9/015=
ZZYY 33629 11014 1140/ 552888 025877 6111/
11119 39971 49971
22219 00020
444 20110 11014 1149/ 50101 80070 80002 9/015=
ZZYY 33581 11014 1220/ 547952 035102 6113/
11119 39975 49975 52007
22219 00067
444 20130 11014 1151/ 50101 80100 80021 9/015=
ZZYY 33581 11014 1420/ 547944 035085 6111/
11119 39980 49980 52012
22219 00069
444 20110 11014 1440/ 50101 80100 80017 9/015=
ZZYY 54858 11014 1400/ 558909 165539 6112/
11119 49973 52007
22219 00035
444 2012/ 11014 1302/ 50101 80119 80010 9/015=
ZZYY 51642 11014 1403/ 721824 169340 6112/
22219 00244
444 20120 11014 1356/ 50101 80094 80019 9/015=
ZZYY 17668 11014 1300/ 342148 006092 6112/
11119 40153 52014
22219 00115
444 20120 11014 1012/ 50101 80114 80010 9/015=
ZZYY 33590 11014 1300/ 552057 030321 6113/
11119 49922 57019
22219 00025
444 20130 11014 1151/ 50101 80116 80007 9/015=
ZZYY 33590 11014 1400/ 552057 030321 6113/
11119 49919 57017
22219 00025
444 20130 11014 1151/ 50101 80116 80007 9/015=
ZZYY 15636 11014 1200/ 327619 001664 6111/
11119 40228 57003
22219 00212
444 20110 11014 0950/ 50101 80111 80007 9/015=
ZZYY 54560 11014 1400/ 559168 165255 6111/
11119 49974 52006
22219 00031
444 2011/ 11014 1302/ 50101 80118 80011 9/015=
ZZYY 17667 11014 1300/ 548830 001276 6111/
11119 40126 52038
22219 00055
444 50101 80113 80020 9/015=
ZZYY 17652 11014 1300/ 344940 011161 6112/
11119 40073 57014
22219 00082
444 50101 80104 80013 9/015=
ZZYY 15634 11014 1300/ 324879 002638 6113/
11119 40213 57006
22219 00215
444 20130 11014 1302/ 50101 80109 80006 9/015=
ZZYY 17673 11014 1200/ 344239 008620 6112/
11119 40077 52005
22219 00096
444 20120 11014 1301/ 50101 80112 80009 9/015=
ZZYY 31982 11014 1300/ 705194 019348 6113/
22219 00278
444 20130 11014 1133/ 50101 80121 80006 9/015=
ZZYY 31511 11014 1300/ 703465 024066 6113/
22219 00273
444 20130 11014 1132/ 50101 80121 80008 9/015=
ZZYY 17670 11014 1447/ 342697 000044 6111/
11119 40225 52033
22219 00122
444 20110 11014 1442/ 50101 80112 80009 9/015=
ZZYY 31509 11014 1300/ 703630 024312 6113/
22219 00274
444 20130 11014 1132/ 50101 80121 80007 9/015=
ZZYY 31510 11014 1300/ 703643 024337 6113/
22219 00274
444 20130 11014 1132/ 50101 80121 80008 9/015=
ZZYY 71566 11014 1400/ 564833 025938 6112/
11119 40035 57008
444 20120 11014 1339/ 50101 80107 80003 9/015=
ZZYY 71567 11014 1400/ 564119 022539 6111/
11119 40042 57006
444 20110 11014 1338/ 50101 80110 80008 9/015=
ZZYY 15623 11014 1454/ 523789 030052 6112/
22219 00267
444 20120 11014 1448/ 50101 80100 80003 9/015=
ZZYY 15618 11014 1459/ 704102 010272 6111/
22219 00287
444 20110 11014 1501/ 50101 80102 80002 9/015=
ZZYY 15937 11014 1453/ 527046 023932 6113/
22219 00269
444 20130 11014 1447/ 50101 80096 80009 9/015=
ZZYY 15616 11014 1456/ 517184 025805 6113/
22219 00255
444 50101 80096 80043 9/015=
ZZYY 15638 11014 1455/ 524626 028091 6113/
22219 00267
444 50101 80100 80003 9/015=
ZZYY 32618 11014 1407/ 711473 177132 6112/
22219 00272
444 20120 11014 1408/ 50101 80094 80007 9/015=
ZZYY 15632 11014 1452/ 525436 035777 6112/
22219 00266
444 20120 11014 1447/ 50101 80094 80007 9/015=
ZZYY 15508 11014 1458/ 513971 034773 6111/
22219 00276
444 50101 80094 80008 9/015=
ZZYY 15631 11014 1451/ 513808 031473 6112/
22219 00270
444 20120 11014 1457/ 50101 80094 80016 9/015=
ZZYY 15630 11014 1452/ 511322 031463 6113/
22219 00271
444 20130 11014 1456/ 50101 80102 80010 9/015=
ZZYY 15629 11014 1455/ 522142 029515 6112/
22219 00265
444 20120 11014 1449/ 50101 80100 80003 9/015=
ZZYY 15621 11014 1451/ 519950 005002 6111/
22219 00228
444 20110 11014 1448/ 50101 80094 80056 9/015=
ZZYY 51661 11014 1403/ 705888 170060 6113/
22219 00281
444 20130 11014 1357/ 50101 80118 80022 9/015=
ZZYY 15913 11014 1454/ 306702 007978 6111/
22219 00278
444 20110 11014 1304/ 50101 80102 80039 9/015=
ZZYY 15624 11014 1455/ 514042 038304 6111/
22219 00281
444 50101 80068 80010 9/015=
ZZYY 15622 11014 1456/ 520924 027100 6113/
22219 00262
444 50101 80098 80009 9/015=
ZZYY 52677 11014 1404/ 121876 159480 6112/
22219 00263
444 20120 11014 1356/ 50101 80080 80003 9/015=
ZZYY 15666 11014 1455/ 519793 037256 6112/
22219 00274
444 20120 11014 1449/ 50101 80092 80015 9/015=
ZZYY 31507 11014 1300/ 704006 019657 6112/
22219 00252
444 20120 11014 1132/ 50101 80120 80008 9/015=
ZZYY 15902 11014 1455/ 521875 032498 6113/
22219 00267
444 20130 11014 1449/ 50101 80100 80013 9/015=
ZZYY 31508 11014 1300/ 705209 026171 6111/
22219 00274
444 20110 11014 1458/ 50101 80121 80003 9/015=
ZZYY 15661 11014 1454/ 522903 035609 6111/
22219 00275
444 20110 11014 1449/ 50101 80096 80020 9/015=
ZZYY 13599 11014 1300/ 709097 024439 6111/
22219 00262
444 20110 11014 1115/ 50101 80120 80009 9/015=
ZZYY 46585 11014 1406/ 112501 160588 6111/
22219 00281
444 20110 11014 1358/ 50101 80084 80026 9/015=
ZZYY 31549 11014 1300/ 519965 035119 6112/
444 20120 11014 1308/ 50101 80121 80009 9/015=
ZZYY 31549 11014 1400/ 519965 035119 6112/
444 20120 11014 1308/ 50101 80121 80009 9/015=
ZZYY 31550 11014 1300/ 518835 034201 6112/
22219 00270
444 20120 11014 1126/ 50101 80120 80007 9/015=
ZZYY 51899 11014 1408/ 509610 176419 6113/
22219 00293
444 20130 11014 1411/ 50101 80103 80028 9/015=
ZZYY 51649 11014 1413/ 523274 167174 6112/
22219 00274
444 20120 11014 1411/ 50101 80075 80014 9/015=
0000192000
846
SZAU01 AMMC 111545
CREX++
T000103 A001 D01021 D06025++
-1927750 14705860 59260 2014 01 11 15 38 3023 11 07 00 01
00803 0217 00808 0220 00811 0221 00813 0221 00813 0218 00825 0228+
-2316110 15079000 59670 2014 01 11 15 38 2998 11 07 00 01
01430 0201 01443 0209 01445 0205 01443 0196 01449 0197 01446 0188+
-3447330 15091170 60420 2014 01 11 15 38 2945 11 07 00 01
00818 -0060 00821 -0060 00827 -0058 00833 -0056 00843 -0050 00855 -0042+
-4105000 14591500 60910 2014 01 11 15 38 2888 11 07 00 01
00931 -0076 00941 -0064 00951 -0051 00937 -0063 00941 -0058 00928 -0068+
-4254640 14793080 61170 2014 01 11 15 38 2903 11 07 00 01
01272 0059 01266 0051 01273 0056 01278 0058 01269 0047 01273 0049+
-3834390 14161360 61410 2014 01 11 15 38 2908 11 07 00 01
00778 0036 00753 0011 00772 0031 00729 -0012 00751 0010 00755 0015+
-3214890 13364170 62000 2014 01 11 15 38 2957 11 07 00 01
01584 0093 01583 0093 01582 0092 01580 0091 01578 0089 01574 0086+
-3387080 12189720 62080 2014 01 11 15 38 2948 11 07 00 01
00930 0019 00924 0014 00922 0014 00925 0018 00921 0016 00914 0010+
-3182560 11573860 62237 2014 01 11 15 38 2973 11 07 00 01
00705 0043 00712 0051 00708 0048 00711 0053 00707 0050 00706 0050+
-2422000 11339750 62385 2014 01 11 15 38 //// 11 07 00 01
00813 -0090 00820 -0081 00859 -0040 00836 -0062 00882 -0014 00855 -0039+
-2181670 11419110 62430 2014 01 11 15 38 //// 11 07 00 01
01446 -0103 01421 -0125 01426 -0117 01421 -0120 01427 -0111 01435 -0100+
-1800080 12221830 62650 2014 01 11 15 38 3043 11 07 00 01
05017 0198 05010 0199 05005 0203 04999 0204 04994 0209 04988 0210+
-1247190 13084580 63230 2014 01 11 15 38 3050 11 07 00 01
04973 -0113 04975 -0115 04976 -0118 04979 -0118 04982 -0120 04985 -0120+
-1386000 13641580 63511 2014 01 11 15 38 3043 11 07 00 01
01772 0090 01769 0089 01767 0089 01766 0089 01764 0089 01763 0090++
7777

0000046700
847
SZPA01 AMMC 111545
CREX++
T000103 A001 D01021 D06025++
0136250 17293000 67590 2014 01 11 15 38 3017 11 07 00 01
01954 0031 01936 0016 01942 0023 01943 0027 01928 0014 01932 0019+
0710610 17137250 67680 2014 01 11 15 38 3013 11 07 00 01
01229 0033 01218 0024 01222 0030 01226 0037 01217 0030 01210 0025+
0698060 15820000 67950 2014 01 11 15 38 3023 11 07 00 01
00842 0167 00842 0167 00843 0169 00849 0175 00846 0172 00849 0176++
7777

0000034200
848
SZIO01 AMMC 111545
CREX++
T000103 A001 D01021 D06025++
-1211670 09689190 46280 2014 01 11 15 38 3020 11 07 00 01
00655 0018 00652 0014 00655 0017 00656 0017 00653 0014 00652 0012+
-1042940 10566940 46290 2014 01 11 15 38 //// 11 07 00 01
00709 0042 00660 -0006 00710 0045 00677 0013 00689 0026 00676 0015++
7777

00000000