0000032000
929
SAIN34 VOMM 111530
METAR VOBL 111530Z 13006KT 8000 NSC 25/14 Q1019 NOSIG=
METAR VOCI 111530Z 00000KT 4000 HZ NSC 25/22 Q1013 NOSIG=
METAR VOCL 111530Z 00000KT 6000 NSC 26/22 Q1013 NOSIG=
METAR VOMD 111530Z 11004KT 5000 HZ FEW020 26/18 Q1015=
METAR VOML 111530Z 34006KT 6000 NSC 25/21 Q1013 NOSIG=
0000010000
930
SPCN42 CWAO 110336
SPECI CYUA 110336Z AUTO 29020G26KT 2 3/4SM -SN CLR M24/ A2975=

0000009400
931
SPUS31 KWBC 110335
SPECI
KSEA 110331Z 17012KT 10SM RA OVC029 09/06 A2980=

0000010600
932
SPUS41 KWBC 110335
SPECI
KBAF 110332Z 00000KT 2 1/2SM BR FEW006 OVC011 M01/M02 A3029=

0000010900
933
SPUS42 KWBC 110335
SPECI
KNEW 110331Z AUTO 18013KT 1SM +RA BR BKN002 OVC016 16/15 A2995=

0000014000
934
SPCN31 CWAO 110334
SPECI CYYJ 110334Z 14009KT 6SM -RA BR FEW008 BKN013 OVC018 07/07
 A2969 RMK SC2SC5SC1 PRESFR SLP053=

0000012300
935
SPCN31 CWAO 110331
SPECI CYXX 110331Z 05006KT 3SM RA OVC025 05/ A2975 RMK SC8 DP 4.2 VIA
 CYXC SLP076=

0000012100
936
SAUK37 EGGY 110320 RRA
METAR EGPI 110320Z AUTO 24008KT 200V300 9999 FEW045/// 05/03 Q1009
     RERA=

0000010100
937
SAUK38 EGGY 110320 RRA
METAR EGPU 110320Z AUTO 29012KT 9999 -SHRA NCD 04/01 Q1008=

0000015200
938
SIBW20 VGDC 111500 RRA
AAXX 11034
41907 21310 83601 10162 20140 30145 40161 76122 8672/ 333 56899 
58011 6002/ 70018 85708 88458=

0000029100
939
SXXX32 EUMS 111533 RRX
269375AE
OT12 ID:FI-STAN-07 DT:2014 01 11 15 23
:RAD /1 06983 06983 06986 06989 06994 06998 07002 07006 07009 07010 07012 07016 07016 07022 07020 07023 07021 07029 07027 07031 07026 07032 07028 07029 07036 07034 07033 07035 07038 07039
:BAT 13.3V
0000039900
940
SXXX32 EUMS 111533 RRX
16590056
:PRS 1 /1 2480 2485 2492 2490 2484 2478 2475 2467 2461 2453 2450 2448 :RAD 1 /1 6676 6681 6688 6685 6679 6674 6671 6662 6657 6649 6648 6644 6638 6636 6631 6626 6623 6622 :ENC 6 /6 4876 4849 4847 4871 4842 4831 4827 4820 4813 4807 :ENB 6 /6 4874 4847 4848 4870 4840 4830 4828 4820 4812 4805 :SW1 33 /60 12 :SW2 60 /60 60 :BAT 5 /6 12.5 :NAME 16590056
0000045200
941
SXXX32 EUMS 111533 RRX
32D8A2BE
:PRS 1 /1 1923 1923 1917 1917 1916 1920 1913 1913 1916 1913 1903 1909 1902 1904 1907 1903 1902 1896 1896 1901 1899 1892 1888 1892 1888 1886 1885 1885 1872 1881 :RAD 1 /3 7496 7492 7484 7486 7483 7477 7473 7465 7456 7447 7439 7434 7428 7421 7420 7411 7404 7400 7396 7391 :ENC 3 /5 4921 4913 4910 4902 4894 4880 4866 4857 4850 4842 4834 4824 :SW1 33 /60 60 :SW2 3 /60 60 :BAT 14 /15 12.4 :NAME 32D8A2BE /
0000045100
942
SXXX32 EUMS 111533 RRX
22856700
:PRS 1 /1 3141 3143 3146 3148 3156 3162 3164 3166 3172 3178 3178 3182 3183 3185 3190 3199 3207 3209 3210 3212 3217 3223 3223 3221 3224 3233 3239 3240 3241 3247 :RAD 1 /3 6661 6675 6687 6698 6709 6721 6730 6740 6753 6766 6780 6792 6804 6816 6829 6841 6853 6863 6876 6888 :ENC 3 /5 4848 4869 4887 4909 4924 4946 4971 4988 5013 5032 5051 5073 :SW1 33 /60 0 :SW2 3 /60 14 :BAT 14 /15 12.5 :NAME 22856700 /
0000022900
943
SIZW21 FVHA 111500 RRA
AAXX 11154
67965 41765 71805 10228 20177 38679 48503 71798 81273 333 58025
      81945 87459=
67969 41680 72205 10237 20196 3//// 48/// 79598 84203 333 5////
      81925 84830 85080=
0000269600
944
SIRA23 RUNW 111500
AAXX 11151
20046 41498 72403 11077 21082 30074 40103 57005 70232 875//=
20069 41563 82106 11191 21208 30128 40147 57013 77173 8452/ 333
84622=
20087 41998 31601 11290 21319 30183 40195 58005 70271 80001 333
93535=
20292 42998 01401 11318 21341 30184 40205 57006=
20353 46/// /1301 11176 21454 30166 40170 57007=
20471 42998 20501 11350 21388 30153 40172 57001 80001 333 93584=
20476 42998 51301 11351 21387 30160 40176 52003 80001=
20667 42998 03205 11288 21316 30183 40191 52006=
20674 NIL=
20744 12998 00000 11256 21321 30216 40236 52004 60002 333 11246=
20871 42998 01103 11370 21397 30159 40167 53009=
20891 41997 82204 11332 21350 30151 40198 52011 77872 82037=
20946 NIL=
20967 12998 03204 11336 21368 30155 40181 52023 69922 333 11270=
20978 41898 81402 11330 21360 30102 40144 53002 70283 82027=
23022 12997 02401 11316 21336 30157 40230 52006 60002 333 11276=
23032 NIL=
23058 12998 02903 11358 21393 30157 40162 52021 60002 333 11277=
23174 41897 81807 11309 21338 77173 8807/ 333 91010 91110=
23179 NIL=
23256 11996 82408 11334 21369 30147 40187 52007 60002 73832 80006 333
11318 91011 91111=
23330 11993 20000 11418 21443 30200 40225 52008 60002 70400 80001 333
11383=
23345 12997 02403 11364 21394 30211 40222 52006 60002 333 11334=
23376 42/// /0000 11351 21388 30099 40246 54001=
23445 12997 01302 11397 21443 30198 40228 52003 60002 333 11350=
23463 NIL=
23527 11557 80102 11225 21243 30147 40187 53004 60012 78587 8497/ 333
11225=
23552 11996 01701 11361 21390 30200 40240 57001 60002 70411 333
11355=
23631 11497 80303 11209 21243 30139 40184 57002 69922 77171 8352/ 333
11209 83619=
23662 12998 80000 11299 21330 30196 40246 57005 60002 80001 333
11299=
23724 12998 83601 11209 21234 30092 40162 58001 69982 8807/ 333
11209=
23734 11996 80601 11158 21177 30065 40162 53002 69942 77172 8802/ 333
11158=
23774 NIL=
23776 419// 81401 11169 21188 30186 40253 52005 77172 80007=
23849 41617 80803 11167 21190 30102 40182 57002 77372 8452/ 333 11167
84649=
23867 11996 81802 11074 21083 30124 40198 57013 60022 77172 8801/ 333
11074=
23933 11996 80301 11154 21180 30104 40164 53004 60022 77172 8802/ 333
11154=
28064 12598 81702 11049 21062 30049 40138 52004 60042 885// 333
11035=
28275 11597 81503 11055 21085 30111 40172 52005 69902 70282 889// 333
11009=
28493 11597 81804 11073 21098 30128 40222 54000 69902 73673 885// 333
11053 88624=
28698 12997 71802 11105 21125 30081 40243 54000 60002 87030 333
11077=
29059 415// 80000 11074 21091 30136 40271 52009 70282 889//=
29558 42698 80901 11075 21111 39922 40336 52003 85531=
0000011000
945
UANT01 CWAO 111536
ARP AFR006 5202N01608W 1536 F380 MS58 233/66 KT
FHPJA DDL BLY 111536 J99A
0000011100
946
UANT01 CWAO 111536
ARP DAL467 5817N05800W 1536 F330 MS59 286/80 KT
N197DN QXS YHO 111536 F69A
0000011100
947
UANT01 CWAO 111536
ARP AFR968 4702N02016W 1536 F340 MS58 198/107 KT
FGITF QXT AOW 111536 F02A
0000011100
948
UANT01 CWAO 111537
ARP AWE705 4710N04935W 1536 F360 MS61 299/57 KT
N270AY DDL XXN 111537 J26A
00000000