0000009700
549
SAIL31 BICC 110430
METAR BIKF 110430Z 25013KT 9999 FEW049 BKN100 01/M01 Q0995=

0000020100
550
FTUS42 KWBC 110433 AAA
TAF AMD
KMGM 110431Z 1105/1124 10005KT 1SM -RA BR VCTS OVC003CB
      TEMPO 1113/1117 22010KT 2SM -TSRA BR OVC002CB
     FM111700 27012G19KT P6SM BKN100=

0000061800
551
FTUS71 KWBC 110433
TAF
TAF AMD KWRI 1104/1208 11006KT 2000 -RA BR BKN003 OVC030
      WS010/19035KT 620901 QNH3020INS
      BECMG 1108/1109 17014KT 1200 -RA BR BKN002 OVC040
      WS020/19050KT QNH2991INS
      BECMG 1113/1114 18010G20KT 1200 -SHRA BR OVC002
      WS020/20060KT
      QNH2979INS
      BECMG 1116/1117 18015G25KT 6000 -SHRA OVC002
      QNH2951INS
      TEMPO 1118/1122 18025G35KT 3200 -TSRA OVC002CB
      BECMG 1205/1206 26012G18KT 6000 BR SCT005 QNH2951INS
      BECMG 1207/1208 27015G25KT 9999 NSW BKN009 QNH2955INS
      T16/1121Z T03/1104Z AMD 110422=

0000020100
552
FTUS72 KWBC 110433 AAA
TAF AMD
KMGM 110431Z 1105/1124 10005KT 1SM -RA BR VCTS OVC003CB
      TEMPO 1113/1117 22010KT 2SM -TSRA BR OVC002CB
     FM111700 27012G19KT P6SM BKN100=

0000047900
553
SAYG31 LYBM 110430
METAR LYBE 110430Z 14008KT CAVOK 04/01 Q1022 NOSIG=
METAR LYBT 110430Z 13003KT CAVOK 01/01 Q1023 NOSIG=
METAR LYKV 110430Z 26002KT 9999 SCT040 03/02 Q1023 NOSIG=
METAR LYNI 110430Z 12003KT CAVOK 00/M00 Q1024=
METAR LYPG 110430Z 11002KT 9999 FEW040 BKN100 08/07 Q1023 NOSIG=
METAR LYPR 110430Z NIL=
METAR LYTV 110430Z 08002KT 9999 SCT050 09/08 Q1022=
METAR LYUZ 110430Z VRB01KT 9999 BKN020 03/03 Q1021=
METAR LYVR 110430Z NIL=

0000030900
554
FTUS73 KWBC 110433 AAA
TAF AMD
KMKG 110431Z 1105/1124 16010KT 6SM -RA BR OVC007
     FM110800 18011KT 1 1/2SM -RA BR OVC003
     FM111000 20008KT 2SM -RA BR OVC004
     FM111200 22007KT 2SM -DZ BR OVC004
     FM111600 27009KT 2SM -SN BR OVC008
     FM112300 28013KT P6SM OVC025=

0000040700
555
SAPL31 EPWA 110430
METAR EPGD 110430Z 28012KT 9999 -SHRA BKN011 FEW015TCU
    04/03 Q1008 =
METAR EPKK 110430Z 25009KT 9999 BKN046 04/M01 Q1017 =
METAR EPLL 110430Z 26010KT CAVOK 04/00 Q1014 =
METAR EPPO 110430Z 25011KT 9999 BKN022 04/01 Q1014
    R10/19//95 =
METAR EPRZ 110430Z 26016KT CAVOK 05/M02 Q1016 =
METAR EPWA 110430Z 26012KT 230V300 9999 BKN046 04/02 Q1012 NOSIG=

0000039800
556
SAPL32 EPWA 110430
METAR EPBY 110430Z 23009KT 9999 BKN048 05/03 Q1012 =
METAR EPKT 110430Z 22008KT 9999 BKN042 02/M01 Q1016 =
METAR EPLB 110430Z NIL=
METAR EPMO 110430Z 26013KT 9999 FEW022 OVC048 04/02 Q1012=
METAR EPSC 110430Z 23007KT 9999 BKN015 05/02 Q1012 =
METAR EPWR 110430Z 24004KT 9999 SCT040 05/00 Q1017 =
METAR EPZG 110430Z 23007KT 9999 SCT029 02/01 Q1015 =

0000026200
557
SAIE31 EIDB 110430
METAR EIDW 110430Z 25013KT 9999 SCT013 BKN017 BKN023 03/02 Q1013
     NOSIG=
METAR EINN 110430Z VRB02KT 9999 FEW020 02/01 Q1016 NOSIG=
METAR EICK 110430Z 28005KT 9999 FEW016 03/01 Q1015 NOSIG=
METAR EIKN 110430Z NIL=

0000015300
558
FTKR31 ZKPY 110410
TAF ZKPY 110410Z 1106/1206 23004MPS CAVOK BECMG 1112/1114 6000
 SCT010 BKN027 
TEMPO 1118/1124 2000 -SN OVC023=

0000023000
559
FTAG31 KWBC 110433
TAF
TAF SAEZ 110500Z 1106/1206 19010KT CAVOK TX26/1118Z TN14/1109Z
      BECMG 1106/1109 16010G20KT 9999 SCT030
      BECMG 1114/1117 16015KT 9999 SCT040
      BECMG 1122/1201 10010KT=

0000043600
560
FTUS52 KWBC 110433 AAA
TAF AMD
KPSF 110432Z 1105/1124 20006KT 1SM BR OVC002
      TEMPO 1105/1107 3/4SM -FZDZ BR SCT002 OVC006
     FM110700 20006KT 3SM -FZRAPL BR SCT008 OVC030
      TEMPO 1107/1109 BKN008 OVC030
     FM110900 15005KT 4SM -SHRA BR BKN008 OVC040
      TEMPO 1109/1112 1SM -FZRA BR OVC010
     FM111200 18006KT 3SM -RA BR OVC010
     FM111600 18012KT 3SM -SHRA BR OVC010 WS020/19040KT=

0000030900
561
FTUS53 KWBC 110433 AAA
TAF AMD
KMKG 110431Z 1105/1124 16010KT 6SM -RA BR OVC007
     FM110800 18011KT 1 1/2SM -RA BR OVC003
     FM111000 20008KT 2SM -RA BR OVC004
     FM111200 22007KT 2SM -DZ BR OVC004
     FM111600 27009KT 2SM -SN BR OVC008
     FM112300 28013KT P6SM OVC025=

0000084800
562
FTUS80 KWBC 110433 AAA
TAF AMD
KMGM 110431Z 1105/1124 10005KT 1SM -RA BR VCTS OVC003CB
      TEMPO 1113/1117 22010KT 2SM -TSRA BR OVC002CB
     FM111700 27012G19KT P6SM BKN100=
KMKG 110431Z 1105/1124 16010KT 6SM -RA BR OVC007
     FM110800 18011KT 1 1/2SM -RA BR OVC003
     FM111000 20008KT 2SM -RA BR OVC004
     FM111200 22007KT 2SM -DZ BR OVC004
     FM111600 27009KT 2SM -SN BR OVC008
     FM112300 28013KT P6SM OVC025=
KPSF 110432Z 1105/1124 20006KT 1SM BR OVC002
      TEMPO 1105/1107 3/4SM -FZDZ BR SCT002 OVC006
     FM110700 20006KT 3SM -FZRAPL BR SCT008 OVC030
      TEMPO 1107/1109 BKN008 OVC030
     FM110900 15005KT 4SM -SHRA BR BKN008 OVC040
      TEMPO 1109/1112 1SM -FZRA BR OVC010
     FM111200 18006KT 3SM -RA BR OVC010
     FM111600 18012KT 3SM -SHRA BR OVC010 WS020/19040KT=

0000009500
563
SPUS31 KWBC 110433
SPECI
KMSP 110429Z 23003KT 3SM BR OVC006 M02/M02 A2950=

0000011200
564
SPUS41 KWBC 110433
SPECI
KILG 110429Z AUTO 04003KT 3/4SM R01/P6000FT BR OVC002 03/03 A3019=

0000011700
565
SPUS41 KWBC 110433
SPECI
KRIC 110429Z 01004KT 1 1/4SM -RA BR SCT002 BKN020 OVC085 05/04
A3014=

0000011800
566
SPUS43 KWBC 110433
SPECI
KFNT 110429Z AUTO 16011KT 6SM -RA BR SCT009 SCT021 OVC049 04/02
A2967=

0000064300
567
SAGR31 LGAT 110420
METAR LGAD 110420Z 14004KT 9999 SCT020 11/08 Q1022=
METAR LGAV 110420Z VRB01KT CAVOK 07/05 Q1021 NOSIG=
METAR LGIR 110420Z 17010KT 9999 FEW025 11/09 Q1021 NOSIG=
METAR LGKL 110420Z 00000KT 9999 SCT080 10/08 Q1022=
METAR LGKO 110420Z NIL=
METAR LGKR 110420Z 20002KT 9999 FEW014 SCT018 BKN070 11/10 Q1022
 NOSIG=
METAR LGLM 110420Z 01004KT 9999 BKN018 12/10 Q1021=
METAR LGRP 110420Z 00000KT 9999 FEW018 12/08 Q1021 NOSIG=
METAR LGSA 110420Z 26014KT 9999 FEW020 14/09 Q1020=
METAR LGSM 110420Z NIL=
METAR LGTS 110420Z 10004KT 0100 R16/0350 R34/0350 FG OVC001 05/05
      Q1022 NOSIG=

0000053900
568
SAGR32 LGAT 110420
METAR LGAL 110420Z VRB03KT 9999 FEW018 03/02 Q1022=
METAR LGEL 110420Z 00000KT CAVOK 07/06 Q1020=
METAR LGIO 110420Z AUTO VRB01KT //// // ////// 06/06 Q1022
     RE//=
METAR LGKV 110420Z 00000KT CAVOK 05/05 Q1021=
METAR LGMT 110420Z 00000KT 9999 SCT018 BKN025 12/09 Q1021=
METAR LGPZ 110420Z 07004KT 9999 SCT025 BKN080 11/10 Q1023 NOSIG=
METAR LGRX 110420Z NIL=
METAR LGSK 110420Z NIL=
METAR LGSR 110420Z AUTO 24008KT //// // ////// 15/11 Q1020
     RE//=
METAR LGZA 110420Z NIL=

00000000