0000056200
449
SASN34 ESWI 110420
METAR ESCF 110420Z AUTO 21006KT 9999NDV BKN013/// OVC017/// 01/01 
Q0999=
METAR ESDF 110420Z AUTO 23006KT 9000NDV -SHRA SCT012/// BKN016/// 
OVC026/// 05/04 Q1005=
METAR ESIB 110420Z AUTO 24012KT 9999NDV FEW016/// BKN066/// 
OVC094/// 05/04 Q0999=
METAR ESMV 110420Z NIL=
METAR ESPA 110420Z AUTO 02008KT 350V050 9999NDV -IC NCD M15/M18 
Q1010=
METAR ESPE 110420Z AUTO 01006KT 9999NDV SCT056/// M16/M19 Q1011=
METAR ESSL 110420Z AUTO 22006KT 9999NDV FEW012/// SCT017///
BKN019/// 02/01 Q0999 R29/19//95=

0000041200
450
SASN35 ESWI 110420
METAR ESGR 110420Z NIL=
METAR ESKM 110420Z NIL=
METAR ESNL 110420Z AUTO 35006KT 8000NDV SG BKN025/// OVC036///
M13/M16 Q1006=
METAR ESNX 110420Z AUTO 01011KT 4300NDV -SN ///037 M16/M19 Q1007
RESG=
METAR ESNY 110420Z NIL=
METAR ESSF 110420Z NIL=
METAR ESSK 110420Z NIL=
METAR ESUD 110420Z AUTO VRB03KT 6000 -SN FEW011/// SCT034///
BKN048/// M14/M17 Q1007=

0000014100
451
SAUK31 EGGY 110420 RRA
METAR EGPH 110420Z AUTO 25009KT 5000 -RA FEW018/// SCT023///
    BKN034/// //////TCU 02/00 Q1009=

0000037100
452
FTCN35 CWAO 110400 AAA
TAF AMD CYYB 110423Z 1104/1114 12008KT 1SM -FZDZ BR OVC002 TEMPO
     1104/1106 3SM -SN BR OVC004
    FM110600 12008KT 1SM -SN BR OVC002 TEMPO 1106/1109 3SM -SN BR
     OVC004 PROB40 1106/1109 2SM -FZRA -PL BR
    FM110900 12012KT 1SM -RA BR OVC004 TEMPO 1109/1114 1/2SM -RA FG
     VV002
    RMK NXT FCST BY 110800Z=

0000052600
453
SAFI32 EFHK 110420
METAR EFHA 110420Z AUTO 36009KT 9999 BKN010 M07/M08
 Q0998=
EFHF 110420Z AUTO 35011KT 310V020 9999 OVC010 M03/M05 Q0997=
METAR EFKA 110420Z AUTO 04010KT 6000 -SN OVC019 
M08/M10 Q1001=
EFKK 110420Z AUTO 04009KT 9999 -SN FEW025 SCT031 BKN043 BKN050
M10/M11 Q1003=
EFMA 110420Z 30001KT 9999 -SHSN OVC021 M01/M01 Q0999=
METAR EFPO 110420Z AUTO 05005KT 020V080 9999 OVC008/// M04/M06 Q0999 
REUP R12/29//95=
EFSI 110420Z AUTO 05008KT 360V080 9999 -SG OVC016 M07/M09 Q1000=

0000014600
454
FCSN34 ESWI 110200 RRB
TAF ESPA 110430Z 1105/1112 03010KT 9999 -SN BKN025 PROB40 1105/1112
4000 -SN VV014 RMK ISSUED BY ESSA=

0000049200
455
SAMX45 MMMY 110424
METAR MMMY 110340Z 29005KT 12SM  SKC 16/12 A2996=
METAR MMAN 110340Z 27004KT 12SM  SKC 15/12 A3000 RMK ISOL AC=
METAR MMMA 110340Z 00000KT 8SM  SKC 19/17 A2992 RMK FU N=
METAR MMIO 110340Z 00000KT 10SM SKC 12/06 A3015=
METAR MMRX 110340Z 16005KT 7SM  SKC 18/17 A2992 RMK HZY FU=
METAR MMTC 110340Z 00000KT 10SM BKN250 15/01 A3010 RMK 8/002=
METAR MMCU 110340Z 18007KT 10SM SKC 06/M05 A3012=
METAR MMCS 110343Z 30010KT 10SM SKC 13/M02 A3000=

0000041500
456
SABX31 EBBR 110420
METAR EBAW 110420Z AUTO 22008KT 9999 OVC007/// 04/02 Q1015=
METAR EBBR 110420Z 20005KT 9999 BKN011 03/02 Q1015 NOSIG=
METAR EBCI 110420Z 21007KT 9999 SCT006 05/04 Q1015 NOSIG=
METAR EBLG 110420Z 16007KT CAVOK 04/02 Q1015 NOSIG=
METAR EBOS 110420Z 20009KT 6000 SCT004 BKN006 04/02 Q1015 TEMPO
     BKN004=
METAR ELLX 110420Z 00000KT 2500 BR FEW005 02/02 Q1015 NOSIG=

0000053000
457
SAOS31 LOWM 110420
METAR LOWW 110420Z 21004KT 140V260 9999 FEW055 SCT300 M02/M03 Q1020
NOSIG=
METAR LOWL 110420Z 34002KT 2400 0350E R26/0350V0550N FZBCFG FEW001
SCT240 M03/M03 Q1020 TEMPO BKN002=
METAR LOWS 110420Z 30002KT 9999 BKN080 01/00 Q1019 NOSIG=
METAR LOWI 110420Z 22003KT 190V260 2000 BR SCT002 BKN004 02/01 Q1020
R08/29//75 NOSIG=
METAR LOWG 110420Z 36003KT 9999 OVC008 03/01 Q1020 R17/19//95 NOSIG=
METAR LOWK 110420Z 34004KT 3000 BR FEW002 OVC004 01/01 Q1021
R88/////// TEMPO 5000=

0000006100
458
SAOS32 LOWM 110420
METAR LOXZ 110420Z NIL=

0000035700
459
SANO35 ENMI 110420
METAR ENMS 110420Z VRB07G19KT 9999 FEW040 M09/M18 Q1009 RMK WIND
           412FT VRB06KT=
METAR ENRM 110420Z NIL=
METAR ENRS 110420Z NIL=
METAR ENSK 110420Z NIL=
METAR ENSO 110420Z NIL=
METAR ENST 110420Z 01011KT 300V110 CAVOK M08/M16 Q1008 RMK WIND 300FT
           VRB09G22KT=
METAR ENVD 110420Z NIL=

0000009300
460
SAGR31 LGAT 110350 RRA
METAR LGKO 110350Z 13005KT 9999 BKN025 10/07 Q1020=

0000019200
461
SANL32 EHDB 110425
METAR EHEH 110425Z AUTO 21007KT 9999 OVC006 03/02 Q1015 
YLO=
METAR EHKD 110425Z AUTO 21020KT 5000 -RADZ BKN005 OVC006 07/06 Q1011
RERA REDZ 
YLO=

0000011100
462
SADL34 EDZO 110420 RRA
METAR EDNY 110420Z AUTO VRB02KT 0200 R24/0600N FG BKN001 02/01 Q1018=

0000010700
463
SPCN31 CWAO 110426
SPECI CYZX 110426Z 21003KT 8SM -SHSN OVC007 RMK SF8 WNDY HILL UNAVBL=

0000009700
464
SPCN51 CWAO 110427
SPECI CZCP 110427Z AUTO 28022KT 1 1/4SM -SN CLR M33/ A2943=

0000011700
465
SPCN42 CWAO 110425
SPECI CYUA 110425Z AUTO 30020KT 1 1/4SM CLR M24/ A2974 RMK VSBY VRBL
0.8V7.0=

0000010000
466
SAAL41 DAMM 110400 RRC
METAR DAOR 110400Z 06004KT 8000 SCT033 SCT100 12/07 Q1017=

0000032400
467
FTAN40 FNLU 110400 RRA
TAF FNLU 110400Z 1106/1212 VRB03KT 9999 FEW018 BKN025
                 BECMG 1108/1110 21005KT SCT020 BKN030
                 BECMG 1112/1114 28010KT FEW025 SCT060
                 BECMG 1118/1120 18005KT
                PROB30 TEMPO 1120/1124 VRB03KT 8000 DZ SCT018 BKN023=

0000027800
468
FTUS71 KWBC 110427 AAA
TAF AMD
KMIV 110426Z 1104/1124 13005KT 1/2SM FG SCT003 OVC070
      TEMPO 1104/1107 2SM -SHRA BR OVC003
     FM110700 16005KT 2SM -RA BR BKN004 OVC010 WS020/20050KT
     FM111500 19013G24KT 1SM RA BR BKN003 OVC010 WS020/21050KT=

00000000