0000011000
180
UANT99 KDDL 111555
ARP AFR474 4907N02631W 1555 F320 MS46 198/51 KT
FGSPN QXT AOE 111556 F20A
0000010000
181
SACY42 EGRR 111550
METAR LCRA 111550Z 30011KT 9999 FEW045 BKN200 16/09 Q1022 NOSIG==
0000011600
182
SNGI21 EGRR 111600
AAXX 11164
08495 42560 21205 10162 20133 30186 40192 55001 81233
  333 81825=
0000079000
183
SAUK39 EGRR 111550
METAR EGDM 111550Z 29003KT CAVOK 06/02 Q1021 BLU=
METAR EGDX 111550Z 34002KT CAVOK 06/02 Q1021 BLU=
METAR EGQL 111550Z 27013KT 9999 FEW030 04/M01 Q1015 BLU NOSIG=
METAR EGQM 111550Z AUTO 27013KT 9999 NCD 04/00 Q1016=
METAR EGQS 111550Z 25018KT 9999 FEW020CB 03/M00 Q1013 BLU=
METAR EGUB 111550Z 28003KT 9999 FEW025 06/01 Q1021 BLU NOSIG=
METAR EGVN 111550Z 28002KT 9999 FEW025 05/01 Q1021 BLU NOSIG=
METAR EGVO 111550Z 29004KT CAVOK 07/01 Q1021 BLU=
METAR EGWU 111550Z 31005KT 9999 FEW025 06/00 Q1021 BLU NOSIG=
METAR EGXC 111550Z 27005KT CAVOK 06/01 Q1020 BLU=
METAR EGXT 111550Z AUTO 29009KT 9999 NCD 05/01 Q1020=
METAR EGXV 111550Z AUTO 26006KT 9999 NCD 05/01 Q1018=
METAR EGXW 111550Z 27006KT 9999 FEW025 05/00 Q1020 BLU NOSIG=
0000010900
184
UANT01 CWAO 111554
ARP DAL2 5355N03136W 1554 F320 MS56 158/43 KT
N842MH QXT AOE 111554 F28A
0000011100
185
UANT01 CWAO 111554
ARP AAL101 5034N04523W 1554 F340 MS61 288/60 KT
N726AN DDL XXW 111554 F71A
0000011100
186
UANT01 CWAO 111554
ARP AWE701 5207N02639W 1554 F360 MS52 195/52 KT
N276AY DDL XXN 111554 J17A
0000011100
187
UANT01 CWAO 111554
ARP AAL113 4528N04206W 1554 F330 MS59 304/48 KT
N393AN DDL XXN 111554 F77A
0000011200
188
SNVF25 LFPW 111600
BBXX
BAREU67 11164 99440 10096 46/// ///// 10141 29070 40206 57003
22233=
0000011000
189
UANT01 CWAO 111555
ARP AFR968 4707N02339W 1555 F370 MS47 208/64 KT
FGITF QXT AOW 111555 F11A
0000011000
190
UANT01 CWAO 111555
ARP AFR006 5201N01943W 1555 F380 MS56 213/65 KT
FHPJA QXT AOE 111555 J03A
0000011000
191
UANT01 CWAO 111555
ARP VIR21G 5057N04401W 1555 F360 MS62 295/58 KT
GVGBR DDL XXH 111555 J82A
0000011200
192
UANT01 CWAO 111555
ARP UAL993 4617N05437W 1555 F360 MS64 321/131 KT
N668UA QXS YYT 111555 F40A
0000016500
193
SAGU31 MGGT 111600
METAR
MGGT 111600Z  36004KT CAVOK 21/12 Q1027 A3033 VOL. PACAYA CON VA A
9000FT CON DIRECCION S-SSW A UNA DISTANCIA DE 6-10KM=
0000010600
194
SIAU40 AMMC 111500 CCA
AAXX 11154
95961 35/// /2922 10141 20111 30132 40174 53003=


0000054100
195
UDAS02 BABJ 111547
AMDAR 1115
DES CNFNZK 2433N 11800E 111542 F039 PS088 347/010 TB/ S//1=
DES CNFNZK 2431N 11758E 111543 F030 PS098 039/008 TB/ S//1=
DES CNFNZK 2428N 11758E 111544 F022 PS121 055/012 TB/ S//1=
DES CNFNZK 2428N 11801E 111545 F020 PS128 055/011 TB/ S//1=
LVR CNFPTK 3329N 12130E 111537 F266 MS375 257/079 TB/ S//1=
LVR CNFPTK 3345N 12122E 111540 F266 MS369 257/085 TB/ S//1=
LVR CNFPTK 3401N 12114E 111543 F266 MS376 262/084 TB/ S//1=
LVR CNFPTK 3417N 12107E 111546 F266 MS383 264/082 TB/ S//1=
0000029300
196
UDAS02 BABJ 111549
AMDAR 1115
DES CNFOZN 3517N 12040E 111544 F161 MS195 275/048 TB/ S//1=
DES CNFOZN 3521N 12039E 111545 F149 MS185 261/035 TB/ S//1=
DES CNFOZN 3526N 12037E 111546 F130 MS178 273/023 TB/ S//1=
DES CNFOZN 3532N 12036E 111547 F112 MS143 290/027 TB/ S//1=
0000024100
197
SOAT10 KWAL 111558
FA8005BC 011155837 OT12 ID:KN-BASS-01 DT:2014 01 11 15 56
:RD -3031 -3066 -3074 -3045 -3079 -3030 -3021 -3047 -3058 -3104
:PR 0708 0598 0611 0644 0609 0602 0560 0587 0633 0643
:B 13.7V
 46+1NN 219E
0000009400
198
SNVD25 LFPW 111600
BBXX
BAREU13 11164 99512 70405 46/// ///// 4////
22254=
0000010000
199
SNVC25 LFPW 111600
BBXX
BAREU08 11164 99328 50717 46/// ///// 40138 52005
22243=
00000000