0000009900
009
SPCN51 CWAO 110454
SPECI CWCL 110454Z AUTO 16004KT 1 1/4SM OVC002 M03/M07 A2948=

0000039300
010
SANO35 ENMI 110450
METAR ENMS 110450Z VRB05G16KT 9999 FEW040 SCT075 M10/M17 Q1009 RMK
           WIND 412FT VRB07KT=
METAR ENRM 110450Z NIL=
METAR ENRS 110450Z NIL=
METAR ENSK 110450Z NIL=
METAR ENSO 110450Z NIL=
METAR ENST 110450Z VRB06G16KT CAVOK M08/M16 Q1008 RMK WIND 300FT
           VRB10KT=
METAR ENVD 110450Z 01004KT 9999 SCT012 BKN060 M07/M10 Q1015=

0000043500
011
SAFI33 EFHK 110450
EFJO 110450Z AUTO 02012KT 350V090 9999 -SN SCT016 BKN024 BKN030
M08/M10 Q0996=
EFLP 110450Z 36010KT 320V040 9999 -SHSN OVC013 M06/M08 Q0994=
EFMI 110450Z AUTO VRB05KT 9999 -SG OVC013 M07/M08 Q0997=
EFSA 110450Z AUTO 35007KT 280V030 9999 -SN OVC016 M07/M09 Q0996=
EFUT 110450Z AUTO 35011KT 9999 OVC012 M06/M08 Q0996=
EFVR 110450Z AUTO 36010KT 340V040 2500 -SHSN BR OVC014 M07/M10 Q0997=

0000056400
012
SANO38 ENMI 110450
METAR ENDR 110450Z AUTO 07026KT M04/M09 Q1001=
METAR ENEK 110450Z 31020KT 9999 FEW020 BKN090 07/03 Q1003 W08/S4=
METAR ENGC 110450Z NIL=
METAR ENHE 110450Z 10030KT 9999 BKN032 M02/M07 Q1002 W///S5=
METAR ENOA 110450Z 29019KT 9999 -SHRA BKN012 05/03 Q0995 W///S4=
METAR ENSL 110450Z AUTO 29028KT 9999NDV FEW029/// 06/01 Q1001
           W05/S4=
METAR ENFB 110450Z AUTO 08021KT 9999NDV BKN017/// 03/00 Q0996
           W///S5=
METAR ENSF 110450Z AUTO 09021KT 9999NDV OVC020/// 03/M01 Q0996
           W///S5=

0000031500
013
SANO36 ENMI 110450
METAR ENBS 110450Z NIL=
METAR ENHK 110450Z NIL=
METAR ENHV 110450Z NIL=
METAR ENLK 110450Z 08014KT 9999 FEW030 M06/M013 Q1013=
METAR ENMH 110450Z 15006KT 9000 -SHSN VV025 M06/M08 Q1016=
METAR ENNK 110450Z NIL=
METAR ENNM 110450Z 08009KT 040V140 CAVOK M10/M16 Q1005=

0000069700
014
FAGR31 LGAT 110500
LGGG GAMET 110600/111200
ATHINAI FIR/1 BLW FL150
SECN I
SFC WSPD    : HAZARDOUS WX NIL
SFC VIS     : (06-09)LOC 1000-5000M BR OR LESS THAN 1000M FOG
SIGWX       : HAZARDOUS WX NIL
MT OBSC     : LOC MT PASSES
SIG CLD(AGL): LOC BKN ST 0300-1500FT
MTW         : HAZARDOUS WX NIL
TURB        : HAZARDOUS WX NIL
ICE         : HAZARDOUS WX NIL
SIGMET APPLICABLE:
SECN II
PSYS        :
WIND/T(MSL) : 2000FT VRB05KT PS09,
              5000FT 27010KT PS07,
              10000FT 29020KT PS00
CLD (AGL)   : LOC SCT AC 8000-14000FT,
              SCT CU 2000-7000FT
FZLVL       : 10000FT
MNM QNH     : 1022HPA
VA          : NIL

0000067100
015
FAGR34 LGAT 110500
LGGG GAMET 110600/111200
ATHINAI FIR/4 BLW FL150
SECN I
SFC WSPD    : HAZARDOUS WX NIL
SFC VIS     : (06-09)LOC 1000-5000M BR
SIGWX       : HAZARDOUS WX NIL
MT OBSC     : LOC MT PASSES
SIG CLD(AGL): HAZARDOUS WX NIL
MTW         : HAZARDOUS WX NIL
TURB        : HAZARDOUS WX NIL
ICE         : HAZARDOUS WX NIL
SIGMET APPLICABLE:
SECN II
PSYS        :
WIND/T(MSL) : 2000FT  29020KT PS10
              5000FT  30015KT PS08,
              10000FT 30020KT PS02
CLD (AGL)   : LOC SCT CU 1800-7000FT
              LOC SCT ST 0200-1200FT
FZLVL       : 10500FT
MNM QNH     : 1020HPA
VA          : NIL

0000066200
016
FAGR33 LGAT 110500
LGGG GAMET 110600/111200
ATHINAI FIR/3 BLW FL150
SECN I
SFC WSPD    : HAZARDOUS WX NIL
SFC VIS     : (06-09)LOC 1000-5000M BR OR LESS THAN 1000M FOG
SIGWX       : HAZARDOUS WX NIL
MT OBSC     : LOC MT PASSES
SIG CLD(AGL): LOC BKN ST 0300-1500FT
MTW         : HAZARDOUS WX NIL
TURB        : HAZARDOUS WX NIL
ICE         : HAZARDOUS WX NIL
SIGMET APPLICABLE:
SECN II
PSYS        :
WIND/T(MSL) : 2000FT  27015KT PS11,
              5000FT  29015KT PS08,
              10000FT 29018KT PS01
CLD (AGL)   : FEW/SCT CU 2000-7000FT
FZLVL       : 10500FT
MNM QNH     : 1022HPA
VA          : NIL

0000071300
017
FAGR32 LGAT 110500
LGGG GAMET 110600/111200
ATHINAI FIR/2 BLW FL150
SECN I
SFC WSPD    : HAZARDOUS WX NIL
SFC VIS     : LOC 1000-5000M BR OR LESS THAN 1000M FOG
SIGWX       : HAZARDOUS WX NIL
MT OBSC     : LOC MT PASSES
SIG CLD(AGL): LOC BKN ST 0300-1500FT
MTW         : HAZARDOUS WX NIL
TURB        : HAZARDOUS WX NIL
ICE         : HAZARDOUS WX NIL
SIGMET APPLICABLE:
SECN II
PSYS        :
WIND/T(MSL) : 2000FT  VRB10KT PS08
              5000FT  29010KT PS04,
              10000FT 30020KT MS01
CLD (AGL)   : SCT AC 8000-14000FT(E PART),
              SCT LOC BKN(OVER MARE) CU 1800-7000FT
FZLVL       : 9500FT
MNM QNH     : 1019HPA
VA          : NIL

0000075600
018
FTCZ43 LKMW 110500
TAF LKCV 110500Z 1106/1206 19005KT CAVOK BECMG 1114/1116 25008KT 9999
         SCT030 TEMPO 1116/1123 7000 RA BKN020 TEMPO 1120/1205
         27015G25KT=
TAF LKKB 110500Z 1106/1206 23010KT CAVOK TEMPO1105/1108 5000 BR TEMPO
         1115/1119 7000 -RA BKN025 OVC040 BECMG 1119/1121 27014G28KT=
TAF LKNA 110500Z 1106/1206 23006KT 9999 FEW040 TEMPO 1106/1108 4000
         BR NSC BECMG1110/1112 9999 SCT030 TEMPO 1116/1124 4000
         RA OVC012 BECMG 1200/1202 27014G28KT=
TAF LKPD 110500Z 1106/1206 VRB02KT CAVOK BECMG 1112/1114 25008KT
 BECMG
         1115/1117 SCT035 BKN060 BKN100 TEMPO 1118/1124 5000 RA
         SCT012 BKN025 OVC050 TEMPO 1121/1124 25020KT BECMG 1200/1202
 28016G28K
T=

0000008300
019
SABZ24 SBPA 110500
METAR SBPA 110500Z 30003KT CAVOK 22/20 Q1009=

0000059100
020
SANO31 ENMI 110450
METAR ENAN 110450Z 12011KT CAVOK M06/M13 Q1016=
METAR ENBR 110450Z 25009KT 9999 -DZ FEW010 SCT018 BKN025 05/03 Q0996
           RMK WIND 1200FT 25016KT=
METAR ENBO 110450Z 11018KT CAVOK M08/M17 Q1011=
METAR ENDU 110450Z 25001KT CAVOK M25/M28 Q1017=
METAR ENGM 110450Z 04007KT 9999 -SN BKN008 M03/M04 Q0997 TEMPO 2000
           SN BKN004=
METAR ENOL 110450Z 08013KT 9999 FEW010 M09/M13 Q1002=
METAR ENVA 110450Z 10007KT CAVOK M11/M15 Q1003 RMK WIND 670FT
           11008KT=
METAR ENZV 110450Z 27012KT 9999 FEW020 SCT050 07/03 Q1000=

0000072300
021
SANO39 ENMI 110450
METAR ENNE 110450Z NIL=
METAR ENQR 110450Z AUTO 09008G19KT 9999NDV -RA FEW023/// OVC025///
           03/M02 Q0996 W///S/=
METAR ENSE 110450Z AUTO 08020KT 9999NDV SCT024/// BKN032/// OVC037///
           02/M03 Q0997 W///S5=
METAR ENQC 110450Z AUTO 06008KT 340V080 9999NDV BKN016/// 03/00 Q0996
           W///S4=
METAR ENQA 110450Z AUTO 06011KT 9999NDV FEW010/// BKN015/// BKN022///
           03/02 Q0996 W04/S4=
METAR ENHM 110450Z AUTO 26028KT 9999NDV FEW026/// 06/02 Q0998
           W08/S5=
METAR ENVH 110450Z AUTO 31020KT 9999NDV BKN037/// 07/03 Q1004
           W///S4=
METAR ENLA 110450Z AUTO 29020KT 9999NDV SCT029/// 07/02 Q1003
           W///S4=

0000031700
022
SANO34 ENMI 110450
METAR ENBN 110450Z 08015KT CAVOK M07/M13 Q1007=
METAR ENBV 110450Z NIL=
METAR ENFG 110450Z NIL=
METAR ENHF 110450Z 00000KT CAVOK M10/M12 Q1016 RMK WIND 1254FT
           22004KT=
METAR ENRA 110450Z NIL=
METAR ENSH 110450Z 07013G24KT 050V100 9999 FEW030 M06/M12 Q1014=

0000009800
023
SABZ19 SBMQ 110500
METAR SBMQ 110500Z 31002KT 9999 FEW013 BKN080 34/23
Q1010=

0000064400
024
SANO32 ENMI 110450
METAR ENAL 110450Z 12006KT 9999 BKN029 M03/M07 Q0998=
METAR ENCN 110450Z 19004KT 9999 FEW030 03/02 Q0999=
METAR ENHD 110450Z AUTO 26020KT 9999NDV FEW035/// 06/02 Q0999=
METAR ENRO 110450Z AUTO 08007KT 050V120 9999NDV SCT019/// M17/M20
           Q0998=
METAR ENRY 110450Z AUTO VRB01KT 9999NDV BKN068/// OVC088/// 01/M01
           Q0997=
METAR ENSB 110450Z 26015KT 9999 FEW018 BKN025 M01/M05 Q1008 RMK WIND
           1400FT 21020KT=
METAR ENTC 110450Z 16003KT 140V230 9999 FEW010 M12/M14 Q1017 RMK WIND
           2600FT 12007KT=
METAR ENTO 110450Z 28003KT 240V320 CAVOK 01/00 Q0997=

0000064400
025
FASN52 ESWI 110400
ESAA GAMET VALID 110500/111100 ESSA- 
SWEDEN FIR/C BLW FL125 
SECN I 
SFC WSPD: NIL 
SFC VIS: 05/11 ?1500 M SN 
SIGWX: NIL 
SIG CLD: 05/09 BKN SFC/500 FT AGL 09/11 BKN 500/1000 FT AGL 
ICE: 05/09 MOD 1000FT AGL/ABV FL125 
TURB: NIL 
MTW: NIL 
SIGMET APPLICABLE: AT TIME OF ISSUE NIL 
SECN II 
PSYS: SEE SIGNIFICANT WEATHER CHARTS 
WIND/T: 05/08 2000 FT 050/25 KT MS16 FL050 070/15 KT MS18 FL100 
170/15 KT MS21 
08/11 2000 FT 040/20 KT MS16 FL050 050/15 KT MS18 FL100 130/10 KT 
MS21 
CLD: SEE SIGNIFICANT WEATHER CHARTS 
FZLVL: 05/11 SFC 
MNM QNH: 1003 HPA 
VA: NIL

0000079700
026
SAIY31 LIIB 110450
METAR LIEA 110450Z 00000KT 9000 MIFG NSC 06/06 Q1019=
METAR LIEE 110450Z VRB02KT CAVOK 06/06 Q1019=
METAR LIEO 110450Z 00000KT 0800 R05/0800VP1500U FG NSC 03/03 Q1021=
METAR LIMC 110450Z 14002KT 7000 BKN030 07/06 Q1021 NOSIG=
METAR LIME 110450Z 23005KT 3000 BR BKN010 08/06 Q1021=
METAR LIMF 110450Z 33002KT 7000 BKN030 07/05 Q1021=
METAR LIMJ 110450Z VRB02KT 9999 FEW018 BKN040 12/10 Q1021=
METAR LIML 110450Z 22003KT 6000 SCT005 BKN030 08/07 Q1021 NOSIG=
METAR LIRA 110445Z 00000KT CAVOK 05/04 Q1021=
METAR LIRF 110450Z 07003KT 5000 BR NSC 05/05 Q1022 NOSIG=
METAR LIRN 110450Z 00000KT 5000 BR SCT030 08/06 Q1022=
METAR LIRP 110445Z 11005KT 9999 BKN045 08/07 Q1021 NOSIG=
METAR LIRQ 110450Z 00000KT 5000 BR FEW020 BKN040 11/10 Q1022=

0000027800
027
SAMX34 MMMD 110500
METAR MMCZ 110442Z 00000KT 7SM  FEW015 20/20 A3001 RMK 8/500=
METAR MMMD 110443Z 11007KT 7SM  SKC 22/20 A2997=
METAR MMTP 110441Z 00000KT 8SM  SCT200 26/22 A2993 RMK 8/002=
METAR MMUN 110447Z 15010KT 7SM  SCT015 25/23 A3001 RMK 8/500=

0000047600
028
SAMX42 MMGL 110455
METAR MMAS 110440Z 06005KT 10SM  SKC 10/02 A3026 RMK ISOL AC=
METAR MMGL 110449Z 00000KT 10SM  BKN030 13/06 A3020 RMK 8/500=
METAR MMLO 110446Z 00000KT 8SM  BKN030 BKN220 14/07 A3024 RMK 8/502=
METAR MMMM 110447Z 00000KT 7SM  BKN030 BKN070 14/08 A3024 RMK 8/530=
METAR MMPR 110444Z 36006KT 10SM  SKC 19/17 A2996=
METAR MMSP 110445Z 00000KT 10SM  SCT025 12/04 A3022 RMK 8/500=
METAR MMZC 110440Z 14007KT 10SM  SKC 09/M02 A3028=

00000000