0000018200
669
SACY31 LCLK 110430
METAR LCLK 110430Z 30006KT 9999 FEW025 10/06 Q1022 NOSIG=
METAR LCPH 110430Z 02007KT 9999 SCT026 SCT040 10/07 Q1023=
METAR LCNC 110430Z NIL=

0000010000
670
SPIS31 LLBG 110430
SPECI LLET 110430Z VRB02KT 9999 FEW050 10/08 Q1025 RMK SCT090=

0000275700
671
SPUS70 KWBC 110432
SPECI
KBGM 110428Z 16010KT 1/4SM FG VV001 01/01 A3008 RMK AO2 RVRNO=
KBRD 110428Z AUTO 25003KT 1 1/2SM HZ OVC002 06/M04 A2946 RMK
     AO2=
KCRE 110428Z 20004KT 1SM BR VV003 16/16 A3011 RMK AO2=
KDYL 110428Z AUTO 02004KT 1 3/4SM UP BR OVC002 00/00 A3019 RMK AO2
     P0005 I1000 T00000000 $=
KEAU 110429Z AUTO 00000KT 1 3/4SM -SN BR FEW010 OVC028 M03/M03
     A2948 RMK AO2 SNB0359 P0000 T10281033=
KGLS 110428Z AUTO 22008KT 1/4SM FG VV002 16/16 A2988 RMK AO2=
KGMU 110428Z AUTO 06007KT 2 1/2SM -RA BR BKN004 OVC010 08/07 A3007
     RMK AO2 P0003=
KIND 110428Z 16007KT 2SM -RA BR FEW003 BKN010 OVC030 04/04 A2967
     RMK AO2 P0003 $=
KJKL 110428Z AUTO VRB04KT 10SM BKN023 OVC036 12/09 A2987 RMK AO2
     T01220089=
KLFK 110428Z AUTO 22006KT 9SM BKN008 19/17 A2982 RMK AO2 CIG
     006V011 $=
KOWB 110428Z AUTO 27004KT 1SM -TSRA BR FEW007 SCT013 OVC023 08/08
     A2975 RMK AO2 LTG DSNT SW TSB0357E0359B01 P0004=
KRSW 110428Z 10004KT 3SM BR FEW015 20/19 A3010 RMK AO2 TWR VIS 10
     T02000194=
KRWI 110428Z AUTO VRB04KT 3SM RA BR BKN005 OVC021 16/15 A3011 RMK
     AO2 P0007 T01560150=
KSET 110428Z AUTO 11004KT 3SM BR BKN005 BKN049 OVC080 04/04 A2956
     RMK AO2 RAE14 CIG 001V008 P0001 T00440044 TSNO=
KUNO 110429Z AUTO 24008KT 10SM SCT009 BKN012 OVC033 08/08 A2965
     RMK AO2 T00830078=
KBUY 110429Z AUTO 31003KT 3/4SM BR VV002 04/03 A3012 RMK AO2
     T00390028=
KCPS 110429Z AUTO 10004KT 1/4SM FG BKN011 OVC016 04/04 A2959 RMK
     AO2 RAE20 P0003=
KHIB 110429Z AUTO 22004KT 2 1/2SM BR OVC003 M03/M04 A2944 RMK
     AO2=
KILG 110429Z AUTO 04003KT 3/4SM R01/P6000FT BR OVC002 03/03 A3019
     RMK AO2 RAE10 P0001=
KIPT 110429Z AUTO 07007KT 1 3/4SM BR BKN006 OVC012 01/M01 A3013
     RMK AO2=
KIXD 110429Z AUTO 26005KT 7SM SCT008 OVC024 02/01 A2964 RMK AO2
     T00170006=
KMIE 110429Z AUTO 18012KT 8SM -RA BKN011 BKN033 OVC080 07/06 A2966
     RMK AO2 P0001 T00670061 TSNO=
KMIV 110429Z AUTO 14005KT 10SM OVC065 09/09 A3018 RMK AO2
     T00890089=
KMRB 110429Z AUTO 00000KT 3/4SM BR OVC003 02/01 A3013 RMK AO2
     T00220006 TSNO=
KMSP 110429Z 23003KT 3SM BR OVC006 M02/M02 A2950 RMK AO2 FZDZE29
     P0000 $=
KTOP 110429Z AUTO 28006KT 5SM UP BR BKN010 OVC018 03/01 A2965 RMK
     AO2 UPB07 CIG 008V012 P0000 T00280011=
KTXK 110429Z AUTO 28013G34KT 9SM -RA SCT008 BKN013 OVC055 16/11
     A2977 RMK AO2 PK WND 28034/0423 RAB26 PRESRR P0002=
KVIH 110429Z AUTO 22009KT 10SM FEW005 BKN011 OVC046 07/07 A2956
     RMK AO2 CIG 009V013 T00670067 $=
KNSE 110426Z 17013KT 6SM BR OVC006 20/19 A2997 RMK AO2 T2 SET
     T02000189 $=
PANW 110426Z AUTO 00000KT 1SM BR OVC001 M07/M08 A2943 RMK AO2 TSNO
     $=

0000043300
672
UDEU02 EGRR 111546 RRC
AMDAR 1115
LVR EU0064   3439N 01009W 111506 F380 MS607 309/052 TB/ S031=
LVR EU0064   3521N 00931W 111513 F380 MS612 308/062 TB/ S031=
LVR EU0064   3606N 00858W 111520 F390 MS542 319/047 TB/ S031=
LVR EU0064   3654N 00831W 111527 F400 MS562 325/035 TB/ S031=
LVR EU0064   3741N 00804W 111534 F400 MS562 323/038 TB/ S031=
LVR EU0064   3828N 00736W 111541 F400 MS580 327/036 TB/ S031=
0000069700
673
UDEU02 EGRR 111546 RRD
AMDAR 1115
ASC EU0103   5210N 00444E 111526 F078 MS110 293/037 TB0 S031
333 F078 VG005=
UNS EU0103   5209N 00445E 111526 F096 MS152 285/036 TB0 S031
333 F096 VG007=
ASC EU0103   5206N 00445E 111526 F105 MS175 286/033 TB0 S031
333 F105 VG001=
ASC EU0103   5204N 00444E 111527 F115 MS190 300/037 TB0 S031
333 F115 VG002=
ASC EU0103   5201N 00443E 111527 F135 MS227 297/048 TB0 S031
333 F135 VG004=
ASC EU0103   5158N 00442E 111528 F157 MS232 299/077 TB0 S031
333 F157 VG003=
LVR EU0103   5123N 00430E 111533 F290 MS502 279/095 TB0 S031
333 F290 VG000=
LVR EU0103   5040N 00410E 111540 F290 MS522 272/080 TB0 S031
333 F290 VG001=
0000010300
674
SIAU21 AMMC 111500 RRA
AAXX 11154
94290 46/// /1320 10274 30083 40092 58017 91524=

0000016800
675
SIAA21 AMMC 111500 RRA
AAXX 11154
89614 46/// /0922 11018 29001 39024 4//// 5////
  333 90700 91126=
89615 46/// /0923 11031 21064 39004 51014=

0000068400
676
FTNV01 NVVV 110600
TAF NVSC 110430Z 1106/1206 14005KT 9999 SCT020
PROB30 INTER 1106/1112 9000 -SHRA SCT018=
TAF NVSS 110430Z 1106/1206 09013KT 9999 SCT020
INTER 1106/1112 9000 -SHRA SCT018=
TAF NVSG 110430Z 1106/1206 12010KT 9999 BKN020 OVC040
INTER 1106/1112 9000 SHRA BKN018 OVC035=
TAF NVSL 110430Z 1106/1206 13010KT 9999 BKN020 OVC040
INTER 1106/1112 9000 SHRA BKN018 OVC035=
TAF NVVV 110430Z 1106/1206 11013KT 9999 SCT020
INTER 1106/1112 9000 -SHRA SCT018=
TAF NVVW 110430Z 1106/1206 13005KT 9999 SCT025
PROB30 INTER 1106/1112 9000 -SHRA SCT020=
TAF NVVA 110430Z 1106/1206 15008KT 9999 SCT025
PROB30 INTER 1106/1112 9000 -SHRA SCT018=

0000040000
677
FTZA32 FAPR 110300 RRB
TAF FAUP 110400Z 1106/1206 16005KT CAVOK
    BECMG 1109/1111 22010KT 
    TX37/1113ZTN14/1204Z=
TAF FYKT 110400Z 1106/1212 18008KT CAVOK BECMG 1108/1110 04010KT =
TAF FYWB 110400Z 1106/1212 02005KT 9999 OVC010 BECMG 1107/1109
         34007KT 9999 BKN015 FM111000 30008KT CAVOK =
TAF FYWH 110400Z 1106/1212 20005KT CAVOK BECMG 1108/1110 04008KT =

0000009800
678
SANL33 EHDB 110425 RRA
METAR EHJR 110425Z AUTO 21029G34KT  09/07 Q1009 W10/H20=

0000010200
679
SANL33 EHDB 110425 RRB
METAR EHSC 110425Z AUTO 22023G26KT 8000 06/06 Q1013 W08/H14=

0000010200
680
SANL33 EHDB 110425 RRC
METAR EHSA 110425Z AUTO 21025G28KT 9999 07/06 Q1013 W09/H18=

0000010700
681
SPUS31 KWBC 110435
SPECI
KMEM 110431Z 19012KT 8SM RA FEW006 SCT024 OVC075 13/12 A2971=

0000009700
682
SPUS31 KWBC 110435
SPECI
KMSY 110431Z 17013KT 2 1/2SM BR OVC003 19/19 A2991=

0000011200
683
SPUS41 KWBC 110435
SPECI
KDOV 110432Z AUTO 08003KT 3/4SM R01/1600FT -RA BR CLR 04/04 A3015=

0000009700
684
SPUS42 KWBC 110435
SPECI
KFTY 110431Z 06003KT 3SM -RA BR OVC005 09/08 A3002=

0000011700
685
SPUS43 KWBC 110435
SPECI
KCMX 110432Z AUTO 07003KT 1 1/2SM -SN BR SCT002 OVC018 M03/M04
A2948=

0000018400
686
FTUS41 KWBC 110436 AAA
TAF AMD
KMDT 110434Z 1105/1124 00000KT 3/4SM -SHRA BR OVC004 WS020/19045KT
     FM111500 17014G24KT 3SM RA BR BKN009 OVC016 WS012/19047KT=

0000035200
687
FTUS43 KWBC 110436 AAA
TAF AMD
KGRR 110434Z 1105/1124 16016KT P6SM -RA OVC008
     FM110700 19013KT 5SM -RA BR OVC005
     FM110800 20011KT 1 1/2SM -RA BR OVC003
     FM111000 20008KT 2SM -RA BR OVC004
     FM111200 22007KT 2SM -DZ BR OVC004
     FM111600 27012G22KT 2SM -SN BR OVC008
     FM112300 28013KT P6SM OVC025=

0000024400
688
FTUS44 KWBC 110436 AAA
TAF AMD
KCTB 110434Z 1105/1124 28008KT P6SM BKN100
     FM110600 23012KT P6SM BKN090
     FM111400 24028G35KT P6SM BKN250
     FM112000 25040G50KT P6SM BKN120
      TEMPO 1120/1124 25045G58KT=

00000000