0000012100
049
SAAG41 KWBC 110300 RRB
METAR
SARL 110300Z 09008KT 9999 TS BKN018 FEW045CB OVC100 21/20
     Q1009=

0000024200
050
SAJP31 KWBC 110330 RRA
METAR
RJAA 110330Z 34007KT 300V010 9999 FEW030 07/M08 Q1022 NOSIG=
RJCC 110330Z 34006KT 9999 -SHSN FEW020 BKN040 BKN070 M06/M12
     Q1017=
RJTT 110330Z 07006KT 9999 FEW030 06/M05 Q1022 NOSIG=

0000121700
051
SAAU31 YBBN 110330
METAR YPAD 110330Z 22016KT CAVOK 26/14 Q1018
NOSIG=
METAR YBAS 110330Z 12012KT 090V170 9999 VCPO NSC 38/06 Q1013=
METAR YBBN 110330Z 11009KT 9999 SCT035 28/17 Q1016=
METAR YBCS 110330Z 17011KT 8000 -SHRA SCT025 BKN050 BKN110 27/22
Q1010=
METAR YSCB 110330Z 30008KT 9999 SCT050 SCT240 32/09 Q1017=
METAR YPXM 110330Z NIL=
METAR YPCC 110330Z 14011KT 9999 BKN037 29/22 Q1012=
METAR YCFS 110330Z AUTO 06014KT 9999 // NCD 26/18 Q1017=
METAR YPDN 110330Z 01005KT 9999 FEW036 BKN350 31/23 Q1007=
METAR YBCG 110330Z AUTO 10010KT 9999 // NCD 27/16 Q1017=
METAR YHID 110330Z AUTO 31009KT 9999 // ////// 29/25 Q1006=
METAR YPJT 110330Z AUTO 09012KT 9999 // NCD 38/10 Q1014=
METAR YPKU 110330Z AUTO 16006KT 9999 // NCD 35/22 Q1008=
METAR YPLM 110330Z AUTO 04008KT 9999 // NCD 34/21 Q1009=
METAR YMML 110330Z 13010KT 9999 FEW024 SCT260 20/12 Q1019
NOSIG=
METAR YPPH 110330Z 10015KT CAVOK 37/09 Q1013=
METAR YSSY 110330Z 04014KT CAVOK 30/16 Q1014
NOSIG=
METAR YSTW 110330Z AUTO 19008G19KT 9999 // SCT069 SCT115 32/10 Q1016=
METAR YPTN 110330Z AUTO 15008KT 9999 // NCD 33/22 Q1007=
METAR YBTL 110330Z AUTO 10015KT 9999 // SCT032 SCT120 31/21 Q1010=

0000014200
052
SAAK31 KWBC 110300 RRB
METAR
PAVD 110336Z 10SM FEW025 BKN150 M07/M08 A2930=
PAWG 110336Z 10008KT 10SM CLR 02/M01 A2936=

0000121100
053
SAAU32 YBBN 110330
METAR YAMB 110330Z AUTO 35005KT 9999 // SCT077 SCT089 29/15 Q1015=
METAR YMAV 110330Z AUTO 17012KT 9999 // NCD 22/13 Q1019=
METAR YBRM 110330Z 27009KT 9999 FEW024 SCT400 32/24 Q1009=
METAR YCIN 110330Z NIL=
METAR YSDU 110330Z AUTO 09003KT 9999 // BKN068 30/13 Q1017=
METAR YFRT 110330Z AUTO 09011KT //// // ////// 30/08 Q1020=
METAR YGEL 110330Z 03012KT CAVOK 44/M03 Q1008=
METAR YPGV 110330Z 10014KT 9999 VCSH BKN018 SCT120 29/24 Q1006
RMK SHRA TO SW=
METAR YBHM 110330Z AUTO 11019KT 9999 // ////// 29/23 Q1012=
METAR YMHB 110330Z 14012KT 9999 FEW050 SCT220 23/09 Q1012=
METAR YPKG 110330Z AUTO 07011KT 9999 // NCD 32/06 Q1019=
METAR YMLT 110330Z AUTO 32010KT 9999 // SCT069 26/09 Q1012=
METAR YBMA 110330Z AUTO 11013KT 9999 // SCT084 37/15 Q1009=
METAR YSNF 110330Z 13014KT 9999 FEW033 SCT220 BKN280 22/12 Q1017=
METAR YPEA 110330Z NIL=
METAR YPPD 110330Z AUTO 34010KT 9999 // NCD 35/27 Q1009=
METAR YSRI 110330Z AUTO 03006KT 9999 // NCD 33/13 Q1013=
METAR YBRK 110330Z AUTO 07010KT 9999 // SCT039 SCT089 29/19 Q1014=
METAR YWLM 110330Z AUTO 13011KT 9999 // NCD 32/15 Q1015=
METAR YPWR 110330Z AUTO 19008KT 9999 // NCD 38/05 Q1015=

0000009500
054
SAFR32 LFPW 110330 RRA
METAR LFCK 110330Z AUTO 13011KT 9999 NSC 11/06 Q1018=

0000016100
055
FTBZ42 KWBC 110339
TAF
TAF SBRJ 110300Z 1106/1118 04005KT 9999 FEW020 TN25/1108Z
      TX33/1116Z
      BECMG 1114/1116 15010KT RMK PGZ=

0000132200
056
FTSA32 KWBC 110339
TAF
TAF SGAS 110320Z 1106/1206 07003KT CAVOK TX31/1119Z TN23/1110Z
      BECMG 1112/1114 20010KT 9999 TS SCT027 FEW040CB PROB40
      TEMPO 1116/1121 6000 TSRA BKN020 FEW040CB=
TAF SGES 110320Z 1106/1206 10005KT 9999 FEW040 TX34/1119Z
      TN21/1110Z
      BECMG 1108/1109 VRB05KT 999 SCT027
      BECMG 1110/1112 9999 TS BKN027 FEW040CB PROB40
      TEMPO 1114/1116 5000 TSRA OVC020 FEW040CB=
TAF SUAA 110345Z 1106/1206 17010KT 9999 FEW023 TX22/1118Z
      TN18/1109Z
      BECMG 1110/1112 17015G25KT 9999 BKN015=
TAF SUCA 110345Z 1106/1206 17010KT 9999 FEW023 TX22/1118Z
      TN18/1109Z
      BECMG 1110/1112 17015G25KT 9999 BKN015=
TAF SULS 110345Z 1106/1206 17010KT 9999 FEW023 TX22/1118Z
      TN18/1109Z
      BECMG 1110/1112 17015G25KT 9999 BKN015=
TAF SUMU 110345Z 1106/1206 17010KT 9999 FEW023 TX22/1118Z
      TN18/1109Z
      BECMG 1110/1112 17015G25KT 9999 BKN015=
SURV 100345Z 1106/1206 16005KT 9999 SCT023 BKN080 TX26/1118Z
      TN20/1109Z
      TEMPO 1106/1118 23020G30KT 5000 TSRA BKN015 FEW040CB OVC060
      BECMG 1112/1114 22010KT=
SUSO 100345Z 1106/1206 16005KT 9999 SCT023 BKN080 TX26/1118Z
      TN20/1109Z
      TEMPO 1106/1118 23020G30KT 5000 TSRA BKN015 FEW040CB OVC060
      BECMG 1112/1114 22010KT=

0000026300
057
FTUS52 KWBC 110339 AAA
TAF AMD
KLFT 110337Z 1104/1124 18012G18KT P6SM VCTS OVC008CB
      TEMPO 1104/1105 2SM SHRA OVC004
     FM110500 19012KT 4SM -SHRA BR OVC004
     FM111000 27009KT 1SM BR OVC002
     FM111600 33010KT P6SM SCT006=

0000034100
058
FTUS53 KWBC 110339 AAA
TAF AMD
KCOU 110337Z 1104/1124 25011KT 6SM BR OVC009
     FM110900 27010KT 6SM BR OVC012
     FM111500 27014G21KT P6SM SCT020 BKN250=
KSBN 110336Z 1104/1124 16014KT 5SM -RA BR OVC006 WS020/20050KT
     FM111000 22012KT 4SM -SHRA OVC008
     FM111500 25015G23KT 3SM BR VCSH BKN008 OVC015=

0000013400
059
FTUS54 KWBC 110339 AAA
TAF AMD
KTPH 110338Z 1104/1124 34006KT P6SM BKN200
     FM112000 21011G18KT P6SM SCT150=

0000125200
060
FTUS80 KWBC 110339 AAA
TAF AMD
KCOU 110337Z 1104/1124 25011KT 6SM BR OVC009
     FM110900 27010KT 6SM BR OVC012
     FM111500 27014G21KT P6SM SCT020 BKN250=
KDSM 110337Z 1104/1124 29006KT 6SM BR OVC003
     FM110600 28009KT 4SM BR BKN012 BKN024
     FM110900 28011KT P6SM SCT012 BKN035
     FM111600 29016G21KT P6SM BKN070=
KLFT 110337Z 1104/1124 18012G18KT P6SM VCTS OVC008CB
      TEMPO 1104/1105 2SM SHRA OVC004
     FM110500 19012KT 4SM -SHRA BR OVC004
     FM111000 27009KT 1SM BR OVC002
     FM111600 33010KT P6SM SCT006=
KMSY 110336Z 1104/1124 19008KT 5SM -RA BR BKN004 OVC006
      TEMPO 1105/1109 2SM TSRA OVC006CB
     FM110900 21012KT 3SM -RA OVC008
     FM111300 25012KT 5SM BR OVC015
     FM111600 30010KT P6SM SCT250=
KSAV 110338Z 1104/1124 16004KT 3/4SM BR OVC004
      TEMPO 1104/1106 1/4SM FG VV002
     FM111200 19009KT 4SM BR OVC004
     FM111700 21014G22KT 6SM SHRA SCT015 BKN040
     FM112300 26012G17KT P6SM SCT040 SCT120=
KSBN 110336Z 1104/1124 16014KT 5SM -RA BR OVC006 WS020/20050KT
     FM111000 22012KT 4SM -SHRA OVC008
     FM111500 25015G23KT 3SM BR VCSH BKN008 OVC015=
KTPH 110338Z 1104/1124 34006KT P6SM BKN200
     FM112000 21011G18KT P6SM SCT150=

0000025800
061
FTUS80 KWBC 110339 CCA
TAF COR
KNEW 110336Z 1104/1124 18010KT 1SM RA BR OVC002
      TEMPO 1105/1109 2SM TSRA OVC006CB
     FM110900 22015KT 3SM -RA BR OVC002
     FM111200 27013KT 2SM BR OVC003
     FM111600 30012KT P6SM SCT250=

0000011200
062
SPUS31 KWBC 110339
SPECI
KBOS 110335Z 14005KT 1/2SM R04R/1600V5000FT FG OVC004 01/01 A3031=

0000011100
063
SPUS31 KWBC 110339
SPECI
KSTL 110335Z 20006KT 5SM -RA BR BKN009 BKN014 OVC055 07/06 A2961=

0000012800
064
SPUS42 KWBC 110339
SPECI
KPNS 110335Z AUTO 17008KT 1 3/4SM R17/4000VP6000FT BR BKN006
OVC010 19/18 A2998=

0000010300
065
SAAG05 SABM 110300 RRC
METAR SAWE 110300Z
25006 KT 9999 FEW020 SCT056 08/05 Q1008=

0000012500
066
SAAK32 KWBC 110300 RRB
METAR
PADK 110336Z AUTO 21027G36KT 10SM FEW019 BKN031 OVC045 03/M01
     A2877=

0000024700
067
FTCN31 CWAO 110300 AAA
TAF AMD CYWL 110340Z 1103/1113 12012KT 3/4SM -SN VV007 TEMPO
     1103/1109 3SM -SN OVC020
    FM110900 14015G25KT P6SM SCT020 SCT070 BKN120 TEMPO 1109/1113
     BKN020
    RMK NXT FCST BY 110700Z=

0000019300
068
FTBZ31 KWBC 110339
TAF
TAF SBCB 110300Z 1106/1206 07010KT 9999 FEW020 TN24/1107Z
      TX31/1116Z
      BECMG 1113/1115 08017KT
      BECMG 1121/1123 07010KT RMK PGZ=

00000000