0000016100
409
FTBZ21 SBRF 110403
TAF SBVT 110400Z 1106/1206 35005KT 9999 SCT020
TN24/1107Z TX30/1115Z 
PROB30
 TEMPO 1110/1113 4000 RA SCT006 RMK PDG=

0000073000
410
SAFR37 LFPW 110400
METAR LFAQ 110400Z AUTO 19008KT 0200 R27/1100U FG VV/// 04/04 Q1015=
METAR LFAT 110400Z AUTO 15004KT 4000 BR BKN004 OVC009 04/03 Q1015=
METAR LFLN 110400Z AUTO VRB01KT 8000 NSC 04/02 Q1016=
METAR LFPM 110400Z AUTO 34001KT 5000 -RA BR BKN003/// ///TCU 05/05
Q1016=
METAR LFPT 110400Z AUTO VRB01KT 2100 BR OVC003 05/05 Q1016=
METAR LFRH 110400Z AUTO VRB01KT 0200 0150 R25/0650N R07/0650N FG
VV/// 07/07 Q1016=
METAR LFRQ 110400Z AUTO 00000KT 0300 R28/0900U FG VV/// 06/06 Q1016=
METAR LFRT 110400Z AUTO 21003KT 9999 NSC 06/05 Q1015=
METAR LFSD 110400Z AUTO 00000KT 9000 OVC012 02/01 Q1016=
METAR LFTW 110400Z AUTO 09004KT 9000 OVC034 10/06 Q1019=
METAR LFBU 110400Z NIL=

0000053400
411
SAKO31 RKSI 110400
METAR RKSI 110400Z 16005KT 9999 FEW040 BKN200 02/M13 Q1032 NOSIG=
METAR RKSS 110400Z 25003KT CAVOK 02/M21 Q1032 NOSIG =
METAR RKPC 110400Z 03004KT 9999 FEW030 SCT180 06/M06 Q1032 NOSIG =
METAR RKPK 110400Z 33008KT CAVOK 05/M08 Q1030 NOSIG =
METAR RKTU 110400Z 24004KT 9999 FEW040 SCT200 01/M11 Q1032 NOSIG =
METAR RKTN 110400Z 29010KT CAVOK 03/M09 Q1030 NOSIG =
METAR RKJB 110400Z 31005KT 9999 FEW035 BKN180 05/M05 Q1032 NOSIG =
METAR RKNY 110400Z 26013KT CAVOK 02/M16 Q1027 NOSIG =

0000010600
412
SACN61 CYMM 110400
METAR CYMM 110400Z AUTO 00000KT 9SM FEW038 M15/M16 A2955 RMK SLP041=

0000010600
413
SACN61 CYNE 110400
METAR CYNE 110400Z AUTO 31003KT 9SM OVC008 M10/M10 A2945 RMK SLP993=

0000010600
414
SACN61 CYMO 110400
METAR CYMO 110400Z AUTO 20012KT 9SM OVC031 M00/M03 A2974 RMK SLP070=

0000084400
415
FTUS53 KWBC 110403 AAA
TAF AMD
KCMI 110402Z 1104/1124 16014KT 2SM -RADZ BR OVC003
     FM110700 22012KT 1SM BR OVC003
     FM111400 26012G18KT P6SM OVC015
     FM111800 27014G22KT P6SM BKN025
     FM112200 27014KT P6SM SCT250=
KDEC 110401Z 1104/1124 22010KT 6SM -RADZ BR OVC003
     FM110700 24012KT 2SM BR OVC003
     FM111400 26012G18KT P6SM OVC015
     FM111800 27014G22KT P6SM BKN025
     FM112200 27014KT P6SM SCT250=
KLOZ 110400Z 1104/1124 19008KT P6SM VCSH OVC020 WS020/20040KT
     FM110700 19009KT 4SM -RA OVC015 WS020/19035KT
     FM111500 24009G17KT 6SM -RA BR OVC015
     FM111700 25015G22KT 6SM BR OVC035=
KPAH 110402Z 1104/1124 17010KT 6SM -RA BR FEW007 OVC070
      TEMPO 1104/1107 4SM RA BR SCT007 OVC018
     FM110700 23011KT P6SM BKN015
     FM111200 27012KT P6SM SCT040=

0000034800
416
FTUS54 KWBC 110403 AAA
TAF AMD
KAST 110402Z 1104/1124 18020G35KT 6SM -RA BR OVC015 WS015/22055KT
     FM110700 19027G42KT 4SM -RA BR SCT007 OVC015 WS015/22060KT
     FM111000 20025G45KT 2SM RA BR BKN008 OVC018
     FM111400 24020G35KT 5SM -SHRA BR SCT012 OVC028
     FM111900 24020G35KT P6SM -SHRA SCT012 BKN025 OVC045=

0000139300
417
FTUS80 KWBC 110403 AAA
TAF AMD
KAST 110402Z 1104/1124 18020G35KT 6SM -RA BR OVC015 WS015/22055KT
     FM110700 19027G42KT 4SM -RA BR SCT007 OVC015 WS015/22060KT
     FM111000 20025G45KT 2SM RA BR BKN008 OVC018
     FM111400 24020G35KT 5SM -SHRA BR SCT012 OVC028
     FM111900 24020G35KT P6SM -SHRA SCT012 BKN025 OVC045=
KBMI 110400Z 1104/1124 19016KT 1/4SM FG VCSH OVC001
     FM110900 24012KT 1/2SM FG OVC002
     FM111200 26012G18KT P6SM OVC015
     FM111800 28014G22KT P6SM BKN025
     FM112200 27012KT P6SM SCT250=
KCMI 110402Z 1104/1124 16014KT 2SM -RADZ BR OVC003
     FM110700 22012KT 1SM BR OVC003
     FM111400 26012G18KT P6SM OVC015
     FM111800 27014G22KT P6SM BKN025
     FM112200 27014KT P6SM SCT250=
KDEC 110401Z 1104/1124 22010KT 6SM -RADZ BR OVC003
     FM110700 24012KT 2SM BR OVC003
     FM111400 26012G18KT P6SM OVC015
     FM111800 27014G22KT P6SM BKN025
     FM112200 27014KT P6SM SCT250=
KDEN 110402Z 1104/1206 23007KT P6SM FEW100 SCT140 BKN200
     FM111500 28014G22KT P6SM FEW090 SCT120 BKN180
     FM111800 29018G30KT P6SM FEW090 SCT120 BKN180
     FM120000 29014KT P6SM SCT120 SCT180=
KGEG 110401Z 1104/1124 19010KT 6SM -RA SCT008 OVC030
     FM110700 19015KT 6SM RA BKN010 OVC020 WS015/21040KT
     FM111100 20025G35KT P6SM -RA BKN010 OVC030
     FM112100 21032G42KT P6SM -RA BKN019 BKN040=

0000022000
418
FTUS80 KWBC 110403
TAF
TAF KLCK 110351Z 1104/1124 16009KT P6SM BKN035
     FM110500 17010KT 6SM BR VCSH OVC020
     FM110800 17012KT 4SM -RA BR OVC008
     FM111400 23014G23KT P6SM VCSH OVC012=

0000116500
419
FTUS80 KWBC 110403 AAB
TAF AMD
KLOZ 110400Z 1104/1124 19008KT P6SM VCSH OVC020 WS020/20040KT
     FM110700 19009KT 4SM -RA OVC015 WS020/19035KT
     FM111500 24009G17KT 6SM -RA BR OVC015
     FM111700 25015G22KT 6SM BR OVC035=
KPAH 110402Z 1104/1124 17010KT 6SM -RA BR FEW007 OVC070
      TEMPO 1104/1107 4SM RA BR SCT007 OVC018
     FM110700 23011KT P6SM BKN015
     FM111200 27012KT P6SM SCT040=
KPIA 110400Z 1104/1124 19013KT 1/4SM FG VV002
     FM110900 25011KT 2SM BR OVC003
     FM111400 26012G18KT 4SM BR OVC015
     FM111700 28013G22KT P6SM BKN025
     FM112100 27012KT P6SM SCT250=
KSFF 110401Z 1104/1124 20008KT P6SM -RA SCT020 OVC060
     FM110700 20010KT 5SM RA OVC015 WS020/21040KT
     FM111100 20025G35KT P6SM -RA BKN010 OVC030
     FM112100 21030G42KT P6SM -RA BKN019 BKN040=
PADL 110401Z 1104/1124 02008KT P6SM VCSH BKN015
      TEMPO 1104/1106 3SM -SHSN
     FM110600 36011KT P6SM FEW015 BKN100
     FM111500 35015KT P6SM OVC060
     FM112300 35017KT 6SM -SN OVC030=
PAEN 110400Z 1104/1124 VRB03KT P6SM OVC006
     FM111800 04008KT P6SM BKN015
     FM112100 03008KT P6SM BKN035=

0000016300
420
FTVN42 KWBC 110403
TAF
TAF SVSA 110400Z 1106/1206 00000KT 9999 SCT020 SCT070 TX32/17Z
      TN18/12Z
     FM110900 00000KT 9000 DZ BKN020=

0000053000
421
SPUS70 KWBC 110402
SPECI
KOWB 110358Z AUTO 25007KT 1 3/4SM +VCTSRA BR FEW008 BKN018 OVC027
     08/08 A2976 RMK AO2 LTG DSNT S AND SW TSB57 P0001=
KRSW 110358Z 00000KT 1 3/4SM BR CLR 20/19 A3011 RMK AO2 VIS 3/4V5
     T02000194=
KMKL 110358Z AUTO 30018G24KT 10SM FEW009 OVC014 13/11 A2977 RMK
     AO2 LTG DSNT SW-N PRESRR=
KNSE 110349Z COR 17012KT 6SM BR BKN004 OVC015 19/19 A2998 RMK T2
     SET AO2 T01940189 $=
KAGS 110359Z AUTO 00000KT 1SM BR VV005 10/09 A3009 RMK AO2 P0001
     RVRNO=

0000009400
422
SPUS42 KWBC 110402
SPECI
KRSW 110358Z 00000KT 1 3/4SM BR CLR 20/19 A3011=

0000010600
423
SACN62 CYMX 110400
METAR CYMX 110400Z 05004KT 20SM OVC022 M08/M11 A3017 RMK SC8 SLP223=

0000010600
424
SACN62 CYKY 110400
METAR CYKY 110400Z 31011KT 15SM SCT240 M09/M10 A2960 RMK CI4 SLP070=

0000012900
425
SACN62 CYOJ 110400
METAR CYOJ 110400Z 34004KT 15SM SCT047 BKN075 OVC085 M17/M20 A2953
 RMK SC3AC2AC3 SLP037=

0000013900
426
SACN62 CYLL 110400
METAR CYLL 110400Z 26011KT 15SM FEW070 M08/M10 A2954 RMK AC1 LAST
 STFD OBS/NEXT 111400 UTC SLP047=

0000009500
427
SAAF11 LFPW 110400
METAR FCPP 110400Z VRB02KT 7000 SCT010 25/24 Q1010 NOSIG=

0000014700
428
SAAF17 LFPW 110400
METAR HLLB 110345Z
00000KT 8000 SCT020 BKN080 10/08 Q1025 =
METAR HLLT 110350Z 18002KT CAVOK 10/05 Q1022=

00000000