0000004200
489
SAIY33 LIIB 110420
NIL=

0000008700
490
SAIY32 LIIB 110420 RRA
METAR LICC 110420Z 23005KT CAVOK 06/03 Q1021=

0000036300
491
SANT31 KWBC 110400 RRC
METAR
BGBW 110425Z NIL=
BGCO 110425Z NIL=
BGGH 110420Z AUTO 09006KT 9999NDV FEW180/// SCT200/// M08/M16
     Q0993=
BGJN 110420Z AUTO 10009KT 9999NDV BKN160/// M09/M19 Q0994=
BGKK 110420Z AUTO 08009KT 050V130 9999NDV SCT050/// M04/M09
     Q0993=
BGSF 110420Z AUTO 06006KT 9999NDV BKN190/// M16/M23 Q0995=

0000035600
492
SAFI34 EFHK 110420
EFET 110420Z AUTO 24002KT CAVOK M32/M35 Q1014=
EFIV 110420Z AUTO 24003KT 9999 -SG OVC004 M29/M32 Q1016=
EFKE 110420Z AUTO 02010KT CAVOK M15/M19 Q1010=
EFKI 110420Z 04010KT 010V070 9999 BKN018 M14/M16 Q1002=
EFKS 110420Z AUTO 03008KT 330V090 CAVOK M17/M21 Q1006=
EFKT 110420Z AUTO VRB01KT CAVOK M22/M24 Q1013=

0000085800
493
SASN31 ESWI 110420
METAR ESGG 110420Z 23014KT 8000 DZ OVC005 05/04 Q1000 R21/29//95=
METAR ESGJ 110420Z AUTO 24010KT 8000 BR FEW009/// SCT012///
OVC015/// 04/04 Q1000 RESHUP RERA=
METAR ESGP 110420Z 22012KT 4000 -RA FEW005 SCT008 BKN011 06/05
Q1001 REUP REDZ R19/19//95=
METAR ESGT 110420Z NIL=
METAR ESMK 110420Z AUTO 25012KT 9999NDV FEW015/// SCT039/// 06/04
Q1005=
METAR ESMQ 110420Z AUTO 22007KT 9999 FEW024/// BKN028/// 04/03
Q1003=
METAR ESMS 110420Z 24011KT 9999 OVC008 05/04 Q1007 R17/29//95=
METAR ESMT 110420Z AUTO 23016KT 9999 FEW008/// OVC034/// 06/04
Q1004=
METAR ESMX 110420Z AUTO 24009KT 9999 FEW007/// SCT009/// BKN011///
04/03 Q1002=
METAR ESTA 110420Z AUTO 25016KT 9999 BKN009/// BKN010/// OVC096///
06/04 Q1005=
METAR ESTL 110420Z AUTO 25012KT 9999NDV BKN012/// OVC017/// 06/05
Q1005=

0000068800
494
SADL31 EDZO 110420
METAR EDDF 110420Z VRB01KT 0400 R25L/0325V0500N R25C/0325V0500N
     R25R/P2000N FZFG BKN001 M01/M01 Q1017 TEMPO 0300=
METAR EDDH 110420Z 22011KT 9999 BKN010 06/04 Q1011 NOSIG=
METAR EDDK 110420Z 11003KT CAVOK 01/00 Q1016 NOSIG=
METAR EDDL 110420Z 15009KT CAVOK 02/00 Q1016 NOSIG=
METAR EDDM 110420Z 35001KT 5000 1000NW R26R/1200D R26L/0800V1500U
     BCFG NSC M04/M04 Q1018 TEMPO 1200 BCFG=
METAR EDDN 110420Z 10004KT CAVOK M02/M02 Q1017=
METAR EDDS 110420Z VRB01KT 9000 BCFG MIFG NSC M01/M01 Q1017=
METAR EDDT 110420Z 25009KT 9999 SCT025 BKN040 05/01 Q1014 NOSIG=
METAR EDDV 110420Z 24007KT 9999 BKN014 05/03 Q1014 TEMPO BKN009=

0000045200
495
SADL32 EDZO 110420
METAR EDDB 110420Z 22009KT 9999 BKN040 BKN260 04/02 Q1014 NOSIG=
METAR EDDC 110420Z 22007KT 9999 FEW035 SCT230 03/00 Q1016=
METAR EDDE 110420Z 23012KT CAVOK 02/M00 Q1016=
METAR EDDG 110420Z 20007KT 9999 BKN012 04/02 Q1014 NOSIG=
METAR EDDP 110420Z 20009KT 9999 SCT040 03/01 Q1016 NOSIG=
METAR EDDR 110420Z 05004KT CAVOK 01/M00 Q1016=
METAR EDDW 110420Z 22011KT 8000 -RA BKN010 05/04 Q1012 TEMPO BKN008=

0000012200
496
SAEU31 BKPR 110430
BKPR 110430Z 00000KT 0200 R17/0175 FZFG BKN002 M01/M02 Q1023 NOSIG
 RMK 17010095 =

0000063800
497
SAFI31 EFHK 110420
METAR EFHK 110420Z 33012KT 9999 OVC009 M04/M05 Q0997 NOSIG=
METAR EFJY 110420Z AUTO 35008KT 9999 -SN OVC014 
M08/M10 Q0998=
METAR EFKU 110420Z AUTO 36008KT 8000 -SN OVC019 
M10/M11 Q0999=
METAR EFOU 110420Z AUTO 05008KT 020V100 9999 FEW048/// OVC070/// 
M14/M17 Q1006 12410587=
METAR EFRO 110420Z AUTO 04013KT CAVOK M18/M21 
Q1010=
METAR EFTP 110420Z AUTO 01005KT 9999 SCT007 OVC009 
M04/M05 Q0998=
METAR EFTU 110420Z AUTO 35004KT 330V030 5000 -SN OVC006/// M03/M04 
Q0998 R08/690166=
METAR EFVA 110420Z AUTO 04008KT 6000 -SN FEW014/// OVC030/// M08/M10 
Q1001 R16/420195=

0000209600
498
SPUS70 KWBC 110422
SPECI
KAFN 110418Z AUTO 00000KT 3/4SM BR OVC002 M01/M01 A3023 RMK AO2
     T10061011=
KBFD 110418Z AUTO 15009G21KT 1 3/4SM BR OVC002 02/ A2996 RMK AO2
     T0022 TSNO $=
KEKQ 110418Z AUTO 17009KT 10SM FEW018 BKN049 13/11 A2987 RMK
     AO2=
KESF 110418Z AUTO 25009KT 4SM RA BR FEW008 BKN017 OVC034 19/18
     A2980 RMK AO2 LTG DSNT NE TSE12 P0026=
KFCI 110419Z AUTO 00000KT 2SM OVC003 04/M01 A3015 RMK AO1=
KHGR 110418Z AUTO 00000KT 1SM BR OVC006 01/01 A3014 RMK AO2
     RAB01E18 P0001 T00060006=
KJEF 110418Z AUTO 29015G18KT 10SM SCT008 BKN012 OVC028 07/06 A2959
     RMK AO2 RAE00 P0000=
KMCW 110419Z AUTO 28007KT 3SM BR OVC002 M01/M02 A2951 RMK AO2
     T10111017 TSNO=
KTDZ 110418Z AUTO 15008KT 1/2SM -RA FG OVC004 03/03 A2974 RMK AO2
     P0002 TSNO=
KYIP 110418Z AUTO 16006KT 2 1/2SM BR OVC004 04/02 A2972 RMK AO2
     P0004 TSNO=
PAOH 110418Z AUTO 00000KT 3SM BR SCT004 BKN034 OVC042 M01/M01
     A2934 RMK AO2 TSNO $=
PATO 110418Z AUTO 27009KT 10SM BKN010 OVC014 M02/M03 A2933 RMK AO2
     CIG 007V013 T10221033 TSNO=
KBGM 110419Z 15009KT 1/4SM FG VV002 01/01 A3007 RMK AO2 PRESFR
     RVRNO=
KBHM 110419Z VRB06KT 4SM BR OVC003 12/12 A2995 RMK AO2=
KDMO 110419Z AUTO 25007KT 9SM BKN010 OVC027 05/03 A2960 RMK AO2
     T00500033=
KHIE 110419Z AUTO 00000KT 9SM BKN028 OVC055 M05/M07 A3020 RMK AO2
     T10501067=
KIMT 110419Z AUTO 00000KT 1 1/4SM -SN BR FEW006 OVC011 M01/M02
     A2945 RMK AO2 P0002=
KLWV 110419Z AUTO 17014KT 2 1/2SM -RA BKN004 BKN011 OVC070 07/
     A2966 RMK AO2 P0001 T0067 $=
KOJC 110419Z AUTO 28006KT 5SM BR OVC005 02/01 A2962 RMK AO2 CIG
     003V007 T00170011=
KOWB 110419Z AUTO 24004KT 2 1/2SM -VCTSRA BR SCT007 BKN011 OVC020
     08/08 A2976 RMK AO2 LTG DSNT SW TSB0357E0359B01 P0003=
KRWI 110419Z AUTO 00000KT 1 1/2SM +RA BR SCT005 OVC022 16/15 A3010
     RMK AO2 P0004 T01560150=
PAIL 110419Z 36005KT 10SM OVC008 M05/M06 A2941 RMK AO2=
KCLM 110419Z AUTO 00000KT 6SM -RA BR BKN005 BKN060 OVC080 06/06
     A2961 RMK AO2 P0003 T00610056=

0000011700
499
SPCN31 CWAO 110420
SPECI CYHZ 110420Z 22010G16KT 5SM -SHSN OVC006 M00/M01 A3030 RMK ST8
 SLP270=

0000014500
500
SAMO31 ZMUB 110430
METAR ZMUB 110430Z VRB01MPS 1000NW 2000SE R14/0650N FG NSC M26/M30
 Q1028 NOSIG RMK QFE662.7 72 NW SE MO=

0000029100
501
FTNM40 FYWW 110400
TAF FYWH 110400Z 1106/1212 20005KT CAVOK BECMG 1108/1110 04008KT=
TAF FYKT 110400Z 1106/1212 18008KT CAVOK BECMG 1108/1110 04010KT=
TAF FYWB 110400Z 1106/1212 02005KT 9999 OVC010 BECMG 1107/1109
         34007KT 9999 BKN015 FM111000 30008KT CAVOK=

0000057100
502
SADN31 EKCH 110420
METAR EKCH 110420Z 25012KT 9999 SCT015 BKN150 06/04 Q1007 NOSIG=
METAR EKBI 110420Z 23010KT 200V270 9999 SCT009 BKN015 06/05
Q1006=
METAR EKYT 110420Z 23015KT 9999 -RA FEW005 SCT010 BKN060 07/06
Q1002=
METAR EKRK 110420Z AUTO 25011KT 220V280 9999NDV FEW023/// SCT027///
BKN140/// 06/04 Q1007=
METAR EKAH 110420Z AUTO 22005KT 170V270 9999NDV OVC015/// 06/04
Q1005=
METAR EKEB 110420Z AUTO 22011KT 9999NDV BKN010/// BKN058///
07/06 Q1006=
METAR EKRN 110420Z AUTO 26019KT 9999NDV FEW007/// BKN040///
06/06 Q1008=

0000016500
503
SADN32 EKCH 110420
METAR EKVJ 110423Z NIL=
METAR EKSB 110423Z NIL=
METAR EKSN 110423Z NIL=
METAR EKVD 110423Z NIL=
METAR EKOD 110423Z NIL=

0000051800
504
SADN34 EKCH 110420
METAR EKHN 110420Z AUTO VRB07G18KT 8000NDV BKN009/// BKN046///
BKN091/// ///// Q1008=
METAR EKHR 110420Z AUTO 24021KT 9000NDV -SHRA  FEW010/// BKN034///
08/07 Q1006=
METAR EKHA 110420Z AUTO 23023KT 2600NDV 07/07 Q1006=
METAR EKHD 110420Z AUTO 30017KT 9999NDV 07/06 Q1003=
METAR EKTE 110420Z AUTO 23018KT 2400NDV -RA BR BKN003 BKN006 07/06 
Q1005=
METAR EKGC 110420Z AUTO 24021KT 9999NDV 07/07 Q1005=
METAR EKAV 110420Z AUTO 22018KT 9999NDV OVC031/// 06/04 Q1005=

0000029400
505
FTZW20 FVHA 110400 RRA
TAF FVFA 110400Z 1106/1212 10008KT CAVOK BECMG 1107/1109
             SCT030 SCT090 BECMG 1110/1112 FEW030CB 
             BKN035 TEMPO 1111/1118 8000 -TSRA BKN080 
             BECMG 1118/1120 CAVOK BECMG 1207/1209 
             SCT030 SCT090=

0000009300
506
SPUS31 KWBC 110423
SPECI
KBHM 110419Z VRB06KT 4SM BR OVC003 12/12 A2995=

0000009200
507
SAIN90 VABB 111540
METAR VABB 111540Z 04007KT 3000 FU NSC 21/06 Q1016 NOSIG=
0000011000
508
UANT99 KDDL 111544
ARP BAW273 5426N01554W 1544 F320 MS57 228/82 KT
GYMMC QXT AOE 111544 F04A
00000000