0000011000
989
UANT99 KDDL 111539
ARP DAL79 5259N03034W 1539 F370 MS54 194/37 KT
N858NW DDL XXW 111539 J91A
0000011000
990
UANT99 KDDL 111539
ARP AFR796 4802N01248W 1539 F340 MS59 243/69 KT
FGSQR DDL BYT 111539 F05A
0000011000
991
UANT99 KDDL 111539
ARP AAL81 5913N02651W 1539 F380 MS60 216/53 KT
N776AN DDL XXN 111539 F51A
0000010600
992
UANT99 KDDL 111539
ARP AAL41 63N030W 1540 F320 MS60 223/45 KT
N39356 DDL KEF 111539 F99A
0000013600
993
SIVD17 CWHX 111500
BBXX
44137 11151 99423 70620 46/// /1607 10083 40275 57015
22200 00077 10602 70009 333 91208 =

0000009500
994
SPIN90 VILK 111511
SPECI VILK 111511Z 04003KT 0600 R27/1600 FG NSC 12/12 Q1019=
0000017900
995
SAIN32 VIDP 111530
METAR VIDP 111530Z 00000KT 1000 R28/P2000 R29/P2000 BR NSC 11/09
      Q1020 BECMG 0800=
METAR VIAR 111530Z 00000KT 3000 BR NSC 12/10 Q1021=
0000008900
996
SAIN90 VOMM 111540
METAR VOMM 111540Z 08005KT 6000 NSC 23/19 Q1015 NOSIG=
0000009500
997
SAIN90 VOTV 111540
METAR VOTV 111540Z 00000KT 4000 HZ FEW015 27/23 Q1013 NOSIG=
0000029200
998
FCIN90 VIDP 111500
TAF VIDP 111500Z 1118/1203 00000KT 0800 MIFG NSC
     BECMG 1200/1201 0300 FG=
TAF VIAR 111500Z 1118/1203 00000KT 2000 BR NSC
     BECMG 1200/1201 0800 MIFG=
TAF VICG 111500Z 1118/1203 VRB02KT 2500 BR NSC
     BECMG 1200/1201 00000KT 0800 MIFG=

0000012200
999
SAIN90 VERC 111500
METAR VERC 111500Z 07003KT 0800 TSRS SCT015 FEW030CB OVC080 14/11
Q1019 NOSIG
CB-S=
0000024700
000
WSCN05 CWAO 111531
CZUL SIGMET J4 VALID 111530/111930 CWUL-
CZUL MONTREAL FIR SEV ICG OBS WTN 30 NM OF LINE N4512 W07554 - N4634
W07332 -
N4708 W07018 - N4816 W07055 - N4739 W06728 - N4523 W06639 SFC/FL025
MOV NE 20KT
NC=
0000024600
001
WSCN06 CWAO 111531
CZQM SIGMET R1 VALID 111530/111930 CWUL-
CZQM MONCTON FIR SEV ICG OBS WTN 30 NM OF LINE N4512 W07554 - N4634
W07332 -
N4708 W07018 - N4816 W07055 - N4739 W06728 - N4523 W06639 SFC/FL025
MOV NE 20KT
NC=
0000039600
002
WSCN25 CWAO 111531
CZUL SIGMET J4 VALID 111530/111930 CWUL-
CZUL MONTREAL FIR SEV ICG OBS WTN 30 NM OF LINE /N4512 W07554/10 SW
CYOW -
/N4634 W07332/45 W CYRQ - /N4708 W07018/45 NE CYQB - /N4816 W07055/5
SE CYBG -
/N4739 W06728/30 NE CYSL - /N4523 W06639/30 S CYFC SFC/FL025 MOV NE
20KT NC
RMK GFACN34 GFACN33/CZQM MONCTON FIR SIGMET R1 CZYZ TORONTO FIR
SIGMET P5=
0000039400
003
WSCN26 CWAO 111531
CZQM SIGMET R1 VALID 111530/111930 CWUL-
CZQM MONCTON FIR SEV ICG OBS WTN 30 NM OF LINE /N4512 W07554/10 SW
CYOW - /N4634
W07332/45 W CYRQ - /N4708 W07018/45 NE CYQB - /N4816 W07055/5 SE CYBG
- /N4739
W06728/30 NE CYSL - /N4523 W06639/30 S CYFC SFC/FL025 MOV NE 20KT NC
RMK GFACN34 GFACN33/CZUL MONTREAL FIR SIGMET J4 CZYZ TORONTO FIR
SIGMET P5=
0000012400
004
WSCN04 CWAO 111531
CZYZ SIGMET P5 VALID 111530/111740 CWUL-
CZYZ TORONTO FIR CNCL SIGMET P4 111340/111740=
0000020300
005
WSCN24 CWAO 111531
CZYZ SIGMET P5 VALID 111530/111740 CWUL-
CZYZ TORONTO FIR CNCL SIGMET P4 111340/111740
RMK GFACN34 GFACN33/CZUL MONTREAL FIR SIGMET J4 CZQM MONCTON FIR
SIGMET R1=
0000010700
006
SAAJ31 UBBB 111530
METAR UBBG 111530Z 31017KT 9999 SCT100 10/M08 Q1013
R30/CLRD70 NOSIG =
0000078200
007
SAUR30 UKMS 111530
METAR UKBB 111530Z 27005MPS 9999 BKN038 04/01 Q1011
         88290060 NOSIG=
METAR UKHH 111530Z 29005MPS 9999 BKN030 04/M00 Q1007
         250///65 TEMPO 24008G17MPS=
METAR UKOO 111530Z 27003MPS CAVOK 05/M03 Q1019
         34190058 NOSIG=
METAR UKDE 111530Z 28007MPS 250V330 9999 BKN033 06/00
          Q1013 02290565 NOSIG=
METAR UKDD 111530Z 28010MPS CAVOK 05/01 Q1012
         26210370  TEMPO 29013G18MPS=
METAR UKFF 111530Z 22004MPS CAVOK 03/01 Q1020
         19010070 NOSIG=
METAR UKLL 111530Z 22003MPS CAVOK 04/M03 Q1016
         31CLRD80  NOSIG=
METAR UKCC 111530Z 26008MPS 9999 BKN030 04/02 Q1011
         26190055 TEMPO 28012G17MPS=
METAR UKDR 111530Z 28008MPS CAVOK 06/M01 Q1014
         1809//65 NOSIG=
0000028200
008
SAGG31 UGTB 111530
METAR UGTB 111530Z 30031G41KT CAVOK 08/00 Q1017 R31L/CLRD80 NOSIG=
METAR UGSB 111530Z 24013KT 9999 -SHRA SCT016 BKN020CB 10/08 Q1025
    R13/CLRD70 NOSIG=
METAR UGKO 111530Z 24008KT 9999 -SHRA SCT023CB OVC045 08/07 Q1022
 R25/29//50 NOSIG=
00000000