0000004200
189
SASP37 LEMM 110400
NIL=

0000034100
190
SAAP32 FAPR 110400
METAR FABL 110400Z 05004KT CAVOK 15/11 Q1019 NOSIG=
METAR FACT 110400Z 20009KT 9999 FEW030 17/12 Q1017 NOSIG=
METAR FALE 110400Z 23004KT 9999 BKN040 22/18 Q1016 NOSIG=
METAR FAOR 110400Z 03007KT 010V080 CAVOK 17/09 Q1022 NOSIG=
METAR FQMA 110400Z 20009KT 5000 DZ SCT010 OVC025 23/22 Q1015 NOSIG=

0000012300
191
SACN62 CYVQ 110400
METAR CYVQ 110400Z 28004KT 20SM -SN BKN080 BKN270 M25/M28 A2975 RMK
 AC6CI1 SLP086=

0000011700
192
SACN61 CYTL 110400
METAR CYTL 110400Z AUTO 10004KT 1 1/4SM -SN OVC022 M08/M09 A2948 RMK
 SLP001=

0000012900
193
SACN62 CYVR 110400
METAR CYVR 110400Z 08016KT 3SM RA BR BKN012 OVC018 06/05 A2968 RMK
 ST6SC2 PRESFR SLP052=

0000012300
194
SACN62 CYWK 110400
METAR CYWK 110400Z 24007KT 12SM -SN FEW022 OVC047 M11/M14 A2979 RMK
 SC2SC6 SLP134=

0000012900
195
SACN62 CYSJ 110400
METAR CYSJ 110400Z 24002KT 15SM FEW001 BKN065 OVC100 M04/M05 A3028
 RMK SF2SC4AC2 SLP262=

0000010600
196
SACN62 CYVC 110400
METAR CYVC 110400Z 29012KT 15SM OVC010 M07/M08 A2945 RMK SC8 SLP997=

0000023300
197
SASP40 LEMM 110400
METAR LEGA 110400Z NIL=
METAR LEGT 110400Z NIL=
METAR LEMO 110400Z 00000KT CAVOK 09/08 Q1016
NOSIG=
METAR LERI 110400Z NIL=
METAR LERT 110400Z 10006KT 9999 -RA SCT058 13/11 Q1015 NOSIG=

0000004200
198
SASP41 LEMM 110400
NIL=

0000011700
199
SATD31 TTPP 110400
METAR
TTPP 110400Z 00000KT 9999 FEW016 22/21 Q1014=
METAR TTCP 110400Z NIL=

0000011200
200
SPUS42 KWBC 110404
SPECI
KNEW 110400Z AUTO 16010KT 2SM BR BKN002 BKN015 OVC031 17/16 A2993=

0000024700
201
SAIY33 LIIB 110400
METAR LIMA 110400Z NIL=
METAR LIMG 110400Z NIL=
METAR LIMP 110400Z NIL=
METAR LIMS 110355Z 28001KT 0200 R30/0375 R12/0375 FG VV001 08/07
      Q1021=
METAR LIMW 110400Z NIL=
METAR LIMZ 110400Z NIL=

0000023600
202
SAIY34 LIIB 110400
METAR LIPC 110355Z /////KT 1500 BR BKN050 08/05 Q1022=
METAR LIPF 110400Z NIL=
METAR LIPO 110350Z 00000KT 4000 BR BKN040 07/07 Q1022=
METAR LIPY 110350Z VRB01KT 8000 FEW015 SCT045 09/09 Q1022=

0000030000
203
SAIY35 LIIB 110400
METAR LIQN 110400Z NIL=
METAR LIQW 110400Z NIL=
METAR LIRG 110400Z NIL=
METAR LIRH 110400Z NIL=
METAR LIRL 110400Z NIL=
METAR LIRM 110355Z 02004KT 3000 BR SCT070 06/05 Q1021=
METAR LIRS 110400Z NIL=
METAR LIRU 110400Z NIL=
METAR LIRV 110400Z NIL=

0000024500
204
SAIY36 LIIB 110400
METAR LIBC 110400Z NIL=
METAR LIBF 110400Z NIL=
METAR LIBG 110400Z NIL=
METAR LIBP 110350Z 19905KT 5000 BR NSC 03/01 Q1022=
METAR LIRI 110400Z NIL=
METAR LIRJ 110400Z NIL=
METAR LIRZ 110400Z NIL=

0000013300
205
SACN62 CYXU 110400
METAR CYXU 110400Z 13011KT 2SM -RA BR BKN004 OVC014 02/02 A2983 RMK
 FG1SF6SC1 PRESFR SLP110=

0000010600
206
SACN62 CYXE 110400
METAR CYXE 110400Z 25008KT 15SM FEW250 M11/M12 A2955 RMK CI2 SLP047=

0000013000
207
SACN62 CYXT 110400
METAR CYXT 110400Z 36010KT 6SM BR FEW005 SCT025 OVC055 01/M00 A2934
 RMK SF2SC1SC5 SLP945=

0000012400
208
SACN61 CYXS 110400
METAR CYXS 110400Z AUTO 18012KT 2 1/4SM -SN OVC042 M02/M04 A2950 RMK
 PRESFR SLP024=

00000000