0000027300
169
SATH41 VTBB 110400
METAR VTPB 110400Z NIL=
METAR VTPM 110400Z VRB03KT 5000 HZ SKC 25/17 Q1018 A3006
RMK/RWY27 INFO E=
METAR VTSE 110400Z 03008KT 6000 FEW024 SCT300 30/24
Q1015 A2999 RMK /RWY 06=
METAR VTSK 110400Z NIL=
METAR VTUJ 110400Z NIL=

0000025500
170
SANZ31 NZKL 110400
METAR NZAA 110400Z AUTO 23010KT 9999 FEW032/// BKN047/// 20/13 Q1017
          NOSIG=
METAR NZWN 110400Z AUTO 34012KT 9999 NCD 22/13 Q1015 NOSIG=
METAR NZCH 110400Z AUTO 06016KT 9999 OVC019/// 17/12 Q1013 NOSIG=

0000011300
171
SPCZ40 LKKV 110405
SPECI LKKV 110405Z 21002KT 4000 BR SCT002 M01/M01 Q1016 RMK REG QNH
1014=

0000009700
172
SASB31 VCRI 110410
METAR VCRI 110410Z 03009KT 8000 FEW016   29/21 Q1013 NOSIG=

0000087800
173
SACI41 ZBBB 110400
METAR ZBHH 110400Z 20002MPS 160V240 7000 NSC M09/M21 Q1027 NOSIG=
METAR ZGHA 110400Z 32003MPS 290V360 2500 -DZ BR SCT004
BKN006
OVC040 05/03 Q1030 NOSIG=
METAR ZHCC 110400Z 20002MPS 140V230 1500 HZ NSC 06/M03 Q1031 NOSIG=
METAR ZHHH 110400Z VRB01MPS 3500 BR SCT016 05/02 Q1031 NOSIG=
METAR ZJHK 110400Z 06006MPS 9999 BKN020 22/18 Q1022 NOSIG=
METAR ZJSY 110400Z 10006MPS 050V140 9999 SCT020 26/17 Q1020 NOSIG=
METAR ZLLL 110400Z VRB01MPS CAVOK M07/M22 Q1030 NOSIG=
METAR ZSNJ 110400Z 09005MPS 2500 -RA BR SCT012 OVC040 05/03 Q1031
NOSIG=
METAR ZSOF 110400Z 10002MPS 030V160 3800 -RA HZ SCT030 07/01 Q1030
NOSIG=
METAR ZUCK 110400Z 00000MPS 1800 -RA BR FEW005 SCT014 OVC050
06/04
Q1029 NOSIG=
METAR ZYCC 110400Z 22007MPS CAVOK M09/M18 Q1025 NOSIG=
METAR ZYHB 110400Z 00000MPS 6000 NSC M15/M21 Q1024
NOSIG=

0000049500
174
SAAE33 VTBB 110400
METAR VVTS 110400Z VRB03KT 5000 HZ FEW017 SCT040 30/20 Q1013 NOSIG
      =
METAR VVNB 110400Z 30005KT 270V360 2400 R11R/1800N BR FEW015 BKN050
16/12 Q1023 NOSIG=
METAR VVDN 110400Z 03007KT 8000 FEW015 BKN060 23/20 Q1020 NOSIG=
METAR VVPB 110400Z 29005KT 6000 FEW013 BKN050 22/19 Q1021 NOSIG=
METAR VVCR 110400Z NIL=
METAR VVCT 110400Z 03006KT 350V060 9999 FEW015 28/20 Q1014 NOSIG=
METAR VVPQ 110400Z 02008KT 350V080 CAVOK 29/19 Q1014 NOSIG=

0000127300
175
SAAK31 KWBC 110400
METAR
PABR 110353Z 30011KT 6SM BR OVC006 M23/M25 A2983=
PACD 110353Z AUTO 14017KT 10SM BKN040 OVC100 03/M01 A2920=
PAED 110358Z 25004KT 10SM OVC010 M04/M05 A2935=
PAEI 110355Z 00000KT 10SM FEW007 M28/M32 A2955=
PAEN 110353Z 36003KT 10SM OVC006 M04/M04 A2937=
PAFA 110353Z 00000KT 10SM SCT090 M30/M34 A2957=
PAFR NIL=
PAFS 110356Z AUTO 00000KT 10SM -SN CLR M19/M22 A2952=
PAFY NIL=
PAJN 110353Z 07005KT 10SM BKN040 OVC055 02/00 A2935=
PAKN 110354Z 34004KT 10SM FEW004 SCT025 BKN130 M05/M05 A2937=
PAKT 110353Z 00000KT 10SM BKN037 02/01 A2928=
PANC 110353Z 34004KT 10SM FEW006 BKN014 OVC025 M04/M06 A2935=
PAOM 110353Z 03012KT 10SM BLSN FEW032 SCT100 M14/M20 A2963=
PAOM 110353Z COR 03012KT 10SM DRSN FEW032 SCT100 M14/M20 A2963=
PAOR 110353Z 00000KT 2SM -SN OVC022 M17/M19 A2934=
PAOT 110353Z 03005KT 10SM CLR M19/M25 A2975=
PARY 110356Z AUTO 00000KT 10SM CLR M24/M26 A2957=
PASC 110353Z 24018KT 3/4SM R05/P6000FT -SN BR OVC008 M28/M31
     A2982=
PASG NIL=
PASI 110353Z 10004KT 10SM CLR 01/00 A2932=
PATQ 110356Z AUTO 27008KT 10SM BKN008 BKN030 M28/M31 A2986=
PAVD 110356Z 10SM BKN150 M06/M09 A2930=
PAWG 110356Z 08005KT 10SM CLR 02/M01 A2935=
PFYU 110356Z 00000KT 10SM FEW100 A2969=

0000012300
176
SACN62 CYXX 110400
METAR CYXX 110400Z 03008KT 3SM RA OVC025 05/ A2972 RMK SC8 DP 3.9 VIA
 CYXC SLP067=

0000056300
177
SAMS31 WMKK 110400
METAR WBGG 110400Z 36008KT 9999 FEW015CB BKN020 BKN150 27/24 Q1012
NOSIG=
METAR WBKK 110400Z 30003KT 9999 FEW015 SCT140 BKN270 31/26 Q1012
NOSIG=
METAR COR WBSB 110400Z 33007KT 9999 SCT016 FEW017CB BKN280 30/25
Q1012
NOSIG=
METAR WMKK 110400Z 36003KT 9999 FEW018 SCT140 BKN280 29/24 Q1012
NOSIG=
METAR WMKP 110400Z 02006KT 9000 FEW020 BKN140 BKN270 27/23 Q1012
NOSIG=
METAR WSSL 110400Z 35009KT 9999 SCT018 BKN300 30/25 Q1011=
METAR WSSS 110400Z 36006KT 280V090 9999 SCT020 BKN300 30/24 Q1011
NOSIG=

0000047100
178
SAMS32 WMKK 110400
METAR WBGG 110400Z 36008KT 9999 FEW015CB BKN020 BKN150 27/24 Q1012
NOSIG=
METAR WBKK 110400Z 30003KT 9999 FEW015 SCT140 BKN270 31/26 Q1012
NOSIG=
METAR WMKJ 110400Z 01010KT 290V040 9999 SCT018 BKN280 30/25 Q1011=
METAR WMKK 110400Z 36003KT 9999 FEW018 SCT140 BKN280 29/24 Q1012
NOSIG=
METAR WMKP 110400Z 02006KT 9000 FEW020 BKN140 BKN270 27/23 Q1012
NOSIG=
METAR WMSA 110400Z 30004KT 9999 FEW020 BKN280 31/23 Q1012=

0000080600
179
SAMS33 WMKK 110400
METAR WMAU 110400Z 02008KT 9999 FEW020 SCT140 BKN270 26/25 Q////
QFF1012=
METAR WMBA 110400Z 36002KT 9999 FEW017CB SCT140 BKN260 28/24 Q1012=
METAR WMKA 110400Z 07006KT 9999 FEW020 SCT140 BKN260 27/22 Q1013=
METAR WMKB 110400Z 07008KT 030V100 9999 FEW020 BKN140 BKN270 26/23
Q1012 NOSIG=
METAR WMKC 110400Z 07015KT 6000 -RA FEW008 SCT020 OVC200 26/24 Q1014=
METAR WMKD 110400Z 01003KT 9999 FEW018 SCT160 BKN270 25/23 Q1013
NOSIG=
METAR WMKE 110400Z NIL=
METAR WMKI 110400Z 04008KT 010V070 9999 FEW010 BKN140 BKN260 26/23
Q1013=
METAR WMKL 110400Z 05008KT 340V100 9999 FEW022 BKN140 BKN270 29/21
Q1013=
METAR WMKM 110400Z 03009KT 320V070 9999 FEW021 BKN280 30/24 Q1012=
METAR WMKN 110400Z 19001KT 7000 -RA SCT008 SCT022 OVC190 24/23 Q1014=

0000058400
180
SAMS34 WMKK 110400
METAR WBGB 110400Z 33007KT 9999 FEW008 SCT014 BKN150 29/25 Q1013=
METAR WBGR 110400Z 29010KT 9999 TSRA SCT014 FEW015CB BKN150 25/24
Q1013=
METAR WBGS 110400Z 35006KT 9999 BKN018 BKN150 29/23 Q1012=
METAR WBGY 110400Z 36003KT 9999 FEW016 BKN150 28/23 Q1012=
METAR WBKL 110400Z 30002KT 9999 FEW012 SCT140 BKN290 29/25 Q1012=
METAR WBKS 110400Z 06009KT 010V090 9999 SCT015 SCT140 OVC260 29/25
Q1011=
METAR WBKT 110400Z 21002KT 9999 FEW013 SCT033 BKN270 27/24 Q1012=
METAR WBKW 110400Z 02008KT 9999 FEW017 SCT140 BKN280 31/23 Q1010=

0000033900
181
SAAF17 LFPW 110400 RRA
METAR HEAX 110400Z 00000KT CAVOK       12/09 Q1023 NOSIG=
METAR HEGN 110400Z 30012KT CAVOK       13/08 Q1023 NOSIG=
METAR HELX 110400Z 17002KT CAVOK       08/05 Q1023 NOSIG=
METAR HEMM 110400Z 24006KT 9999 BKN020 11/09 Q1024 NOSIG=
METAR HESN 110400Z 36003KT CAVOK       10/04 Q1023 NOSIG=

0000015400
182
SAAF18 LFPW 110400 RRA
METAR FIMR 110400Z  10014KT 9999 BKN017 29/24 Q1017=
METAR FMEE 110404Z 10016KT 9999 FEW026 29/21 Q1015 NOSIG=

0000019500
183
SAAF20 LFPW 110400 RRA
METAR FABL 110400Z 05004KT CAVOK 15/11 Q1019 NOSIG=
METAR FAEL 110400Z 26011KT CAVOK 17/12 Q1018=
METAR FAGG 110400Z 31003KT 9999 FEW045 13/11 Q1018=

0000025500
184
SAAF21 LFPW 110400 RRA
METAR FALA 110400Z 00000KT CAVOK 18/10 Q1020 NOSIG=
METAR FAMM 110400Z 18006KT CAVOK 18/08 Q1018 NOSIG=
METAR FAPE 110400Z 25011KT CAVOK 18/13 Q1017 NOSIG=
METAR FAUP 110400Z 20002KT CAVOK 17/06 Q1016 NOSIG=

0000067800
185
SAMS38 WMKK 110400
METAR WBGB 110400Z 33007KT 9999 FEW008 SCT014 BKN150 29/25 Q1013=
METAR WBGR 110400Z 29010KT 9999 TSRA SCT014 FEW015CB BKN150 25/24
Q1013=
METAR WBGS 110400Z 35006KT 9999 BKN018 BKN150 29/23 Q1012=
METAR WBKL 110400Z 30002KT 9999 FEW012 SCT140 BKN290 29/25 Q1012=
METAR WBKS 110400Z 06009KT 010V090 9999 SCT015 SCT140 OVC260 29/25
Q1011=
METAR WBKW 110400Z 02008KT 9999 FEW017 SCT140 BKN280 31/23 Q1010=
METAR WMKD 110400Z 01003KT 9999 FEW018 SCT160 BKN270 25/23 Q1013
NOSIG=
METAR WMKL 110400Z 05008KT 340V100 9999 FEW022 BKN140 BKN270 29/21
Q1013=
METAR WMKM 110400Z 03009KT 320V070 9999 FEW021 BKN280 30/24 Q1012=

0000010000
186
SPUS42 KWBC 110404
SPECI
KPDK 110400Z AUTO 00000KT 3/4SM BR OVC002 08/07 A3004=

0000084700
187
SAZA31 FAPR 110400
METAR FABL 110400Z 05004KT CAVOK 15/11 Q1019 NOSIG=
METAR FACT 110400Z 20009KT 9999 FEW030 17/12 Q1017 NOSIG=
METAR FAEL 110400Z 26011KT CAVOK 17/12 Q1018=
METAR FAGG 110400Z 31003KT 9999 FEW045 13/11 Q1018=
METAR FAKN 110400Z 02003KT 4000 BCFG BKN003 OVC006 19/16 Q1019 NOSIG=
METAR FALA 110400Z 00000KT CAVOK 18/10 Q1020 NOSIG=
METAR FALE 110400Z 23004KT 9999 BKN040 22/18 Q1016 NOSIG=
METAR FALW 110400Z AUTO 23004KT //// // ////// 13/11 Q1016=
METAR FAMM 110400Z 18006KT CAVOK 18/08 Q1018 NOSIG=
METAR FAOR 110400Z 03007KT 010V080 CAVOK 17/09 Q1022 NOSIG=
METAR FAPE 110400Z 25011KT CAVOK 18/13 Q1017 NOSIG=
METAR FAPN 110400Z AUTO 29002KT //// // ////// 19/08 Q1016=
METAR FAPP 110400Z AUTO 04004KT //// // ////// 19/16 Q1019=
METAR FAUP 110400Z 20002KT CAVOK 17/06 Q1016 NOSIG=

0000004200
188
SASP36 LEMM 110400
NIL=

00000000