0000080300
689
FTUS71 KWBC 110436 AAA
TAF AMD
KAOO 110434Z 1105/1124 VRB03KT 1SM BR VCSH OVC003 WS019/21040KT
     FM111300 17013G27KT 3SM RA BR BKN009 OVC016 WS012/19045KT=
KBFD 110434Z 1105/1124 15007G19KT 3SM -SHRA BR OVC003
     FM110700 16009KT 2SM -RA BR BKN006 OVC009 WS019/21048KT
     FM111100 17014G27KT 2SM RA BR OVC009 WS012/19049KT=
KIPT 110434Z 1105/1124 06009KT 1SM BR VCSH BKN006 OVC015
     FM110600 09005KT 3SM -DZ BR OVC013 WS020/19045KT
     FM111500 17012G24KT 3SM RA BR BKN009 OVC016 WS012/19045KT=
KJST 110434Z 1105/1124 17010KT 1/4SM FG VV002 WS019/21040KT
     FM111100 17016G32KT 2SM RA BR BKN009 OVC016 WS012/19049KT=
KMDT 110434Z 1105/1124 00000KT 3/4SM -SHRA BR OVC004 WS020/19045KT
     FM111500 17014G24KT 3SM RA BR BKN009 OVC016 WS012/19047KT=

0000035200
690
FTUS73 KWBC 110436 AAA
TAF AMD
KGRR 110434Z 1105/1124 16016KT P6SM -RA OVC008
     FM110700 19013KT 5SM -RA BR OVC005
     FM110800 20011KT 1 1/2SM -RA BR OVC003
     FM111000 20008KT 2SM -RA BR OVC004
     FM111200 22007KT 2SM -DZ BR OVC004
     FM111600 27012G22KT 2SM -SN BR OVC008
     FM112300 28013KT P6SM OVC025=

0000024400
691
FTUS74 KWBC 110436 AAA
TAF AMD
KCTB 110434Z 1105/1124 28008KT P6SM BKN100
     FM110600 23012KT P6SM BKN090
     FM111400 24028G35KT P6SM BKN250
     FM112000 25040G50KT P6SM BKN120
      TEMPO 1120/1124 25045G58KT=

0000041200
692
SAAL31 DAAA 110430
METAR DAAG 110430Z VRB01KT 9999 FEW030 BKN100 10/08 Q1017=
METAR DAAT 110430Z 19002KT CAVOK 11/M04 Q1022=
METAR DABB 110430Z 20004KT CAVOK 07/06 Q1016=
METAR DABC 110430Z  20006KT CAVOK 04/00 Q1019=
METAR DAON 110430Z 20004KT 9999 FEW030 BKN100 15/04 Q1016=
METAR DAOO 110430Z 05002KT 9999 FEW026 BKN100 12/09 Q1016=
METAR DAUH 110430Z 00000KT CAVOK 09/06 Q1020=

0000019100
693
SAIE32 EIDB 110430
METAR EICM 110430Z NIL=
METAR EIDL 110430Z NIL=
METAR EIKY 110430Z NIL=
METAR EIME 110430Z NIL=
METAR EISG 110430Z NIL=
METAR EIWF 110430Z NIL=

0000048400
694
SAAE33 VTBB 110430
METAR VVTS 110430Z VRB02KT 6000 FEW017 SCT040 31/21 Q1013 NOSIG =
METAR VVNB 110430Z 31006KT 290V350 2300 R11R/1700N BR FEW020 BKN050
16/12 Q1022 NOSIG=
METAR VVDN 110430Z NIL=
METAR VVPB 110430Z 32005KT 6000 FEW013 BKN050 23/20 Q1020 NOSIG=
METAR VVCR 110430Z 02012KT 8000 FEW017 BKN060 27/20 Q1017 NOSIG=
METAR VVCT 110430Z 35006KT 310V020 9999 FEW015 28/20 Q1014 NOSIG=
METAR VVPQ 110430Z 03007KT 350V060 CAVOK 30/19 Q1014 NOSIG=

0000028200
695
FTPA32 KWBC 110436
TAF
TAF NCRG 110435Z 1106/1206 05005KT 9999 -SHRA SCT020 SCT045
      BECMG 1121/1123 05012KT
      BECMG 1204/1206 05005KT=
TAF NFFN 110434Z 1106/1206 16008KT 9999 FEW030
      BECMG 1122/1124 17015KT
      BECMG 1204/1206 17005KT=

0000085900
696
FTUS51 KWBC 110436 AAA
TAF AMD
KAOO 110434Z 1105/1124 VRB03KT 1SM BR VCSH OVC003 WS019/21040KT
     FM111300 17013G27KT 3SM RA BR BKN009 OVC016 WS012/19045KT=
KBFD 110434Z 1105/1124 15007G19KT 3SM -SHRA BR OVC003
     FM110700 16009KT 2SM -RA BR BKN006 OVC009 WS019/21048KT
     FM111100 17014G27KT 2SM RA BR OVC009 WS012/19049KT=
KIPT 110434Z 1105/1124 06009KT 1SM BR VCSH BKN006 OVC015
     FM110600 09005KT 3SM -DZ BR OVC013 WS020/19045KT
     FM111500 17012G24KT 3SM RA BR BKN009 OVC016 WS012/19045KT=
KJST 110434Z 1105/1124 17010KT 1/4SM FG VV002 WS019/21040KT
     FM111100 17016G32KT 2SM RA BR BKN009 OVC016 WS012/19049KT=
KUNV 110434Z 1105/1124 00000KT 1SM BR VCSH OVC004 WS015/20040KT
     FM110800 16007G15KT 6SM -DZ BR OVC012 WS015/20040KT
     FM111300 17013G27KT 3SM RA BR BKN009 OVC016 WS012/19045KT=

0000028000
697
FTUS52 KWBC 110436 AAA
TAF AMD
KLNS 110434Z 1105/1124 VRB04KT 1SM -RA BR OVC004 WS020/19045KT
      TEMPO 1105/1108 3/4SM -RA BR OVC004
     FM110800 15005KT 2SM -RA BR OVC010 WS016/19045KT
     FM111500 17014G24KT 3SM RA BR BKN009 OVC016 WS012/19047KT=

0000139700
698
FTUS80 KWBC 110436 AAA
TAF AMD
KAOO 110434Z 1105/1124 VRB03KT 1SM BR VCSH OVC003 WS019/21040KT
     FM111300 17013G27KT 3SM RA BR BKN009 OVC016 WS012/19045KT=
KBFD 110434Z 1105/1124 15007G19KT 3SM -SHRA BR OVC003
     FM110700 16009KT 2SM -RA BR BKN006 OVC009 WS019/21048KT
     FM111100 17014G27KT 2SM RA BR OVC009 WS012/19049KT=
KCTB 110434Z 1105/1124 28008KT P6SM BKN100
     FM110600 23012KT P6SM BKN090
     FM111400 24028G35KT P6SM BKN250
     FM112000 25040G50KT P6SM BKN120
      TEMPO 1120/1124 25045G58KT=
KGRR 110434Z 1105/1124 16016KT P6SM -RA OVC008
     FM110700 19013KT 5SM -RA BR OVC005
     FM110800 20011KT 1 1/2SM -RA BR OVC003
     FM111000 20008KT 2SM -RA BR OVC004
     FM111200 22007KT 2SM -DZ BR OVC004
     FM111600 27012G22KT 2SM -SN BR OVC008
     FM112300 28013KT P6SM OVC025=
KIPT 110434Z 1105/1124 06009KT 1SM BR VCSH BKN006 OVC015
     FM110600 09005KT 3SM -DZ BR OVC013 WS020/19045KT
     FM111500 17012G24KT 3SM RA BR BKN009 OVC016 WS012/19045KT=
KJST 110434Z 1105/1124 17010KT 1/4SM FG VV002 WS019/21040KT
     FM111100 17016G32KT 2SM RA BR BKN009 OVC016 WS012/19049KT=
KLNS 110434Z 1105/1124 VRB04KT 1SM -RA BR OVC004 WS020/19045KT
      TEMPO 1105/1108 3/4SM -RA BR OVC004
     FM110800 15005KT 2SM -RA BR OVC010 WS016/19045KT
     FM111500 17014G24KT 3SM RA BR BKN009 OVC016 WS012/19047KT=

0000037500
699
FTUS80 KWBC 110436 AAB
TAF AMD
KMDT 110434Z 1105/1124 00000KT 3/4SM -SHRA BR OVC004 WS020/19045KT
     FM111500 17014G24KT 3SM RA BR BKN009 OVC016 WS012/19047KT=
KUNV 110434Z 1105/1124 00000KT 1SM BR VCSH OVC004 WS015/20040KT
     FM110800 16007G15KT 6SM -DZ BR OVC012 WS015/20040KT
     FM111300 17013G27KT 3SM RA BR BKN009 OVC016 WS012/19045KT=

0000035300
700
FTVN42 KWBC 110436
TAF
TAF SVVA 110430Z 1106/1206 18005KT 9999 FEW016
      TEMPO 1111/1113 05002KT 9999 FEW016
      TEMPO 1116/1118 11005KT 9999 FEW016 TX 31/19Z TN 21/08Z=
SVVA 110430Z 1106/1206 18005KT 9999 FEW016
      TEMPO 1111/1113 05002KT 9999 FEW016
      TEMPO 1116/1118 11005KT 9999 FEW016 TX 31/19Z TN 21/08Z=

0000013100
701
FTLT32 EYVI 110500
TAF EYKA 110500Z 1106/1118 26012KT 9000 BKN012 TEMPO 1109/1115
3000 SHRASN SCT005 BKN015CB=

0000009900
702
SPUS41 KWBC 110436
SPECI
KBAF 110432Z 00000KT 1 1/2SM BR OVC005 M01/M02 A3025=

0000004200
703
SAHA31 KWBC 110430
NIL=

0000004200
704
SAJP31 KWBC 110430
NIL=

0000004200
705
SAJP41 KWBC 110430
NIL=

0000004200
706
SAJP42 KWBC 110430
NIL=

0000004200
707
SAJP43 KWBC 110430
NIL=

0000004200
708
SAJP44 KWBC 110430
NIL=

00000000