0000010400
669
SPUS43 KWBC 110444
SPECI
KSTP 110440Z AUTO 00000KT 2 1/2SM BR OVC006 M02/M02 A2951=

0000038700
670
FTNG31 YBBN 110400
TAF AYPY 110210Z 1106/1206 34006KT 9999 -SHRA SCT016 BKN140
INTER 1106/1112 4000 TSRA BKN008 FEW018CB=
TAF ANYN 110212Z 1106/1206 07008KT 9999 -SHRA SCT016 SCT030 BKN120
INTER 1106/1206 4000 +SHRA BKN010
T 26 24 24 27 Q 1005 1007 1006 1004=
TAF AGGH 110211Z 1106/1206 34006KT 9999 -SHRA SCT016 BKN120
T 29 27 26 26 Q 1006 1008 1007 1005=

0000063400
671
FASN53 ESWI 110400
ESAA GAMET VALID 110500/111100 ESSA- 
SWEDEN FIR/E BLW FL125 
SECN I 
SFC WSPD: NIL 
SFC VIS: 07/11 3000-5000 M RA BR 
SIGWX: NIL 
SIG CLD: 05/11 BKN 500/1000 FT AGL 
ICE: 07/11 MOD 3500FT AGL/ABV FL125 
TURB: NIL 
MTW: NIL 
SIGMET APPLICABLE: AT TIME OF ISSUE NIL 
SECN II 
PSYS: SEE SIGNIFICANT WEATHER CHARTS 
WIND/T: 05/08 2000 FT 260/35 KT PS01 FL050 280/30 KT MS02 FL100 
280/40 KT MS10 
08/11 2000 FT 260/30 KT PS02 FL050 280/30 KT MS02 FL100 270/35 KT 
MS10 
CLD: SEE SIGNIFICANT WEATHER CHARTS 
FZLVL: 05/11 3000 FT AGL 
MNM QNH: 1001 HPA 
VA: NIL

0000009800
672
SACV20 GVNP 110500
METAR GVNP 110500Z /////KT 9999 BKN020  XX/XX Q////
NOSIG=

0000024700
673
FTID32 WAMM 110500
TAF WAMM 110500Z 1106/1212 33010KT 9999 SCT022
TEMPO 1106/1110 25015G25KT 4000 RA BKN017
BECMG 1111/1112 SCT020
TEMPO 1113/1117 5000 RA SCT018
BECMG 1200/1202 30010KT 
TEMPO 1204/1208 4000 RA BKN017=

0000115600
674
SPUS70 KWBC 110450
SPECI
KAHN 110446Z AUTO 11004KT 3SM -RA BR OVC003 08/07 A3005 RMK AO2
     RAB10 P0030 400830033=
KAKH 110446Z AUTO 01004KT 1 3/4SM BR OVC002 06/06 A3008 RMK AO2
     RAE34 P0005=
KGNV 110446Z AUTO 00000KT 3/4SM BR FEW021 BKN026 OVC045 19/19
     A3009 RMK AO2 T01940189=
KLGB 110446Z 00000KT 2 1/2SM HZ CLR 14/11 A3009 RMK AO2=
KOGB 110446Z AUTO 00000KT 1 1/4SM BR OVC003 13/12 A3008 RMK AO2
     T01330122 TSNO=
KOWB 110446Z AUTO 17009KT 3/4SM VCTSRA BR SCT020 SCT025 OVC035
     08/08 A2973 RMK AO2 LTG DSNT NE AND E TSB0357E0359B01
     P0007=
KSLK 110447Z AUTO 00000KT 4SM BR BKN014 M03/M04 A3005 RMK AO2
     410111239=
KTDZ 110446Z AUTO 14011KT 2 1/2SM -RA BR BKN004 BKN029 OVC039
     04/03 A2969 RMK AO2 PRESFR P0003 TSNO=
KDAW 110447Z AUTO 00000KT 5SM BR SCT019 BKN025 OVC039 M02/M03
     A3026 RMK AO2=
KLWM 110447Z AUTO 00000KT 4SM BR OVC009 02/00 A3029 RMK AO2
     T00170000=
KMDH 110447Z AUTO 18008KT 10SM SCT009 SCT030 BKN070 08/07 A2962
     RMK AO2 RAB28E40 P0000=
KMTO 110448Z AUTO 17012KT 2 1/2SM HZ OVC002 06/M01 A2958 RMK AO2
     RAE08 P0000 TSNO=

0000011500
675
SACA35 KWBC 110400 RRB
METAR
MSLP 110350Z 04005KT CAVOK 21/18 Q1012 A2990=
MSSS 110350Z NIL=

0000024900
676
FTUS73 KWBC 110451 AAA
TAF AMD
KCMI 110449Z 1105/1124 22008KT 1SM BR OVC003
     FM110700 22012KT 1SM BR OVC003
     FM111400 26012G18KT P6SM OVC015
     FM111800 27014G22KT P6SM BKN025
     FM112200 27014KT P6SM SCT250=

0000010000
677
SALT33 EYVI 110450
METAR EYPA 110450Z VRB04KT 9999 BKN016 02/00 Q1005 R01/2///95=

0000008700
678
SAAL40 DAMM 110400 RRA
METAR DAUZ 110400Z 07008KT CAVOK 08/01 Q1021=

0000008500
679
SPCN45 CWAO 110449
SPECI CYFS 110449Z 31003KT 15SM BKN100 RMK AC3=

0000010200
680
SACV20 GVSV 110500
METAR GVSV 110500Z 07005KT 9999 FEW023 BKN200 18/16 Q1015 NOSIG=

0000018200
681
FTAH10 OAKB 110505
TAF OAKB 110505 1106/1206 VRB05KT 8000 NSC
BECMG 1111/1113 4000 HZ
TEMPO 1115/1122 2000
BECMG 1200/1202 BKN100
BECMG 1204/1206 7000 NSW=

0000036300
682
FTNC20 NWWM 110500
TAF NWWL 110500Z 1106/1206 12012KT 9999 FEW033=
TAF NWWM 110500Z 1106/1206 13020KT 9999 FEW040 BECMG 1110/1112
07010KT BECMG 1120/1122 13015KT=
TAF NWWR 110500Z 1106/1206 12010KT 9999 SCT035 PROB30 TEMPO 1109/1121
 4000 SHRA=
TAF NWWU 110500Z 1106/1206 10013KT 9999 SCT025 BKN050 PROB30 TEMPO
1112/1118 4000 SHRA=

0000009800
683
SPUS41 KWBC 110450
SPECI
KAVP 110446Z AUTO 00000KT 3SM BR OVC010 02/01 A3012=

0000011000
684
SPUS41 KWBC 110450
SPECI
KWRI 110446Z AUTO 00000KT 3/4SM R06/1800FT BR VV002 04/04 A3017=

0000018300
685
FTAH10 OAKB 110505
TAF OAKB 110505Z 1106/1206 VRB05KT 8000 NSC
BECMG 1111/1113 4000 HZ
TEMPO 1115/1122 2000
BECMG 1200/1202 BKN100
BECMG 1204/1206 7000 NSW=

0000008900
686
SAMP31 LMMM 110500 RRA
METAR HLLT 110450Z
18005KT CAVOK 10/05 Q1022=

0000012400
687
SALT34 EYVI 110450
METAR EYSA 110450Z 27011KT 9999 BKN011 OVC019 00/M01 Q1003 
R14L/2///95 R14R/2///95=

0000009600
688
SAPM31 MPTO 110500
METAR 
MPTO 110500Z 00000KT C A V O K 24/20 Q1010 NOSIG=

00000000