0000012900
689
SALT31 EYVI 110450
METAR EYVI 110450Z 29014KT 260V320 7000 BKN014 OVC022 01/M02 Q1003
     R20/2/0195 NOSIG=

0000068900
690
FASN50 ESWI 110400
ESAA GAMET VALID 110500/111100 ESSA- 
SWEDEN FIR/A BLW FL125 
SECN I 
SFC WSPD: NIL 
SFC VIS: 05/11 3000-5000 M RA RA DZ 
SIGWX: NIL 
SIG CLD: 05/11 BKN SFC/500 FT AGL 
ICE: 05/11 MOD 500FT AGL/ABV FL125 
TURB: 05/11 MOD SFC/3000FT AGL 
MTW: NIL 
SIGMET APPLICABLE: AT TIME OF ISSUE NIL 
SECN II 
PSYS: SEE SIGNIFICANT WEATHER CHARTS 
WIND/T: 05/08 2000 FT 260/30 KT PS01 FL050 280/30 KT MS04 FL100 
280/40 KT MS14 
08/11 2000 FT 260/25 KT PS00 FL050 270/25 KT MS04 FL100 270/35 KT 
MS14 
CLD: SEE SIGNIFICANT WEATHER CHARTS 
FZLVL: 05/08 1000 FT AGL-1500 FT AGL 08/11 SFC-2000 FT AGL 
MNM QNH: 997 HPA 
VA: NIL

0000069100
691
FASN51 ESWI 110400
ESAA GAMET VALID 110500/111100 ESSA- 
SWEDEN FIR/B BLW FL125 
SECN I 
SFC WSPD: NIL 
SFC VIS: 05/11 3000-5000 M RA 1500-3000 M RASN ?1500 M SN 
SIGWX: NIL 
SIG CLD: 05/11 BKN SFC/500 FT AGL 
ICE: 05/11 MOD 500FT AGL/ABV FL125 
TURB: 07/11 MOD SFC/3000FT AGL 
MTW: NIL 
SIGMET APPLICABLE: AT TIME OF ISSUE NIL 
SECN II 
PSYS: SEE SIGNIFICANT WEATHER CHARTS 
WIND/T: 05/08 2000 FT 250/20 KT MS01 FL050 280/25 KT MS05 FL100 
280/30 KT MS14 
08/11 2000 FT 260/30 KT PS00 FL050 280/30 KT MS04 FL100 280/40 KT 
MS14 
CLD: SEE SIGNIFICANT WEATHER CHARTS 
FZLVL: 05/08 SFC 08/11 SFC-1000 FT AGL 
MNM QNH: 997 HPA 
VA: NIL

0000054500
692
FTCA31 KWBC 110448
TAF
TAF MKJP 110445Z 1106/1206 34006KT 9999 FEW025
      BECMG 1114/1116 13020KT FEW022
      BECMG 1201/1203 36006KT FEW025=
MKJP 110445Z 1106/1206 34006KT 9999 FEW025
      BECMG 1114/1116 13020KT FEW022
      BECMG 1201/1203 36006KT FEW025=
TAF MKJS 110445Z 1106/1206 12003KT 9999 FEW025
      BECMG 1114/1116 07015KT FEW022
      BECMG 1201/1203 12005KT FEW025=
MKJS 110445Z 1106/1206 12003KT 9999 FEW025
      BECMG 1114/1116 07015KT FEW022
      BECMG 1201/1203 12005KT FEW025=

0000020000
693
FTMX31 KWBC 110448
TAF
TAF MMMZ 110447Z 1106/1212 36005KT P6SM SCT250 TX25/1118Z
      TN12/1112Z
     FM111600 23010KT P6SM SCT020 SCT100
     FM120300 02005KT P6SM SCT100=

0000051500
694
FTMX41 KWBC 110448
TAF
TAF MMCL 110447Z 1106/1206 00000KT P6SM SKC
     FM111800 03010KT P6SM SCT250
     FM120100 00000KT P6SM SKC=
TAF MMHO 110447Z 1106/1206 00000KT P6SM SKC
     FM111800 24010KT P6SM SKC
     FM120100 00000KT P6SM SKC=
TAF MMLP 110447Z 1106/1206 03005KT P6SM SCT100
     FM111600 18010KT P6SM SCT020 BKN100
     FM120200 02005KT P6SM SCT100=
TAF MMML 110447Z 1106/1206 30005KT P6SM SCT200
     FM111500 30010KT P6SM SKC
     FM120200 30005KT P6SM SKC=

0000019100
695
FTMX42 KWBC 110448
TAF
TAF MMTJ 110447Z 1106/1212 00000KT 5SM HZ SKC TX21/1121Z
      TN08/1112Z
     FM111500 30010KT P6SM SKC
     FM120300 30005KT 5SM HZ SCT010=

0000033800
696
FTUS51 KWBC 110448 AAA
TAF AMD
KRWI 110445Z 1105/1124 VRB02KT 3SM -RADZ BR BKN005 OVC020
      TEMPO 1105/1106 1SM RADZ OVC005
     FM110600 VRB02KT 1/2SM -DZ FG VV002 WS010/18035KT
     FM111200 18010KT 6SM BR OVC008
     FM111400 19013G24KT P6SM BKN009 OVC020
     FM111700 20017G28KT 5SM -SHRA BR BKN012=

0000024000
697
FTUS52 KWBC 110448 AAA
TAF AMD
KTXK 110447Z 1105/1124 29012G18KT P6SM VCSH SCT015 OVC060
      TEMPO 1105/1106 27015G30KT 4SM SHRA BR BKN010 OVC020
     FM110700 27010KT P6SM SKC
     FM111600 28012G20KT P6SM SKC=

0000016600
698
FTUS54 KWBC 110448 AAA
TAF AMD
KSNS 110444Z 1105/1124 VRB03KT 3SM BR OVC002
      TEMPO 1106/1109 1/2SM FG
     FM111700 13006KT P6SM SCT060=

0000064600
699
FTUS80 KWBC 110448 AAA
TAF AMD
KRWI 110445Z 1105/1124 VRB02KT 3SM -RADZ BR BKN005 OVC020
      TEMPO 1105/1106 1SM RADZ OVC005
     FM110600 VRB02KT 1/2SM -DZ FG VV002 WS010/18035KT
     FM111200 18010KT 6SM BR OVC008
     FM111400 19013G24KT P6SM BKN009 OVC020
     FM111700 20017G28KT 5SM -SHRA BR BKN012=
KSNS 110444Z 1105/1124 VRB03KT 3SM BR OVC002
      TEMPO 1106/1109 1/2SM FG
     FM111700 13006KT P6SM SCT060=
KTXK 110447Z 1105/1124 29012G18KT P6SM VCSH SCT015 OVC060
      TEMPO 1105/1106 27015G30KT 4SM SHRA BR BKN010 OVC020
     FM110700 27010KT P6SM SKC
     FM111600 28012G20KT P6SM SKC=

0000172000
700
SPUS70 KWBC 110448
SPECI
KAHN 110444Z AUTO 10005KT 1 3/4SM -RA BR OVC003 08/07 A3005 RMK
     AO2 VIS 3/4V4 RAB10 P0030=
KDXR 110444Z AUTO 00000KT 1SM BR VV003 01/M01 A3024 RMK AO2
     UPE09RAB09E43 P0001 FZRANO=
KELM 110444Z AUTO 00000KT 7SM OVC009 03/M01 A3006 RMK AO2=
KGON 110444Z 00000KT 1SM R05/P6000FT -RA BR VV003 03/03 A3026 RMK
     AO2 P0000=
KIJD 110444Z AUTO 00000KT 1/2SM -FZRA FG VV004 01/00 A3027 RMK AO2
     P0001 I1001 T00060000 $=
KMRY 110444Z 10005KT 1/2SM FG VV001 09/09 A3020 RMK AO2=
KPIL 110444Z AUTO 20006KT 2SM BR BKN003 19/18 A2991 RMK AO2=
KPNE 110444Z AUTO 04004KT 3/4SM -RA BR OVC002 03/02 A3020 RMK AO2
     P0002 RVRNO=
KRXE 110444Z AUTO 21007KT 10SM SCT022 BKN080 M03/M05 A3005 RMK AO2
     T10331050=
KSET 110444Z AUTO 11003KT 1 1/4SM BR SCT005 BKN065 OVC110 04/04
     A2955 RMK AO2 RAE14 P0001 T00390039 TSNO=
PAAQ 110444Z AUTO 00000KT 2 1/2SM BR OVC005 M04/M05 A2933 RMK AO2
     TSNO=
PATO 110444Z AUTO 28007KT 10SM OVC008 M02/M03 A2933 RMK AO2 CIG
     007V011 T10221028 TSNO=
KCPS 110446Z AUTO 10006KT 1/2SM -RA FG BKN008 BKN014 OVC070 04/04
     A2957 RMK AO2 RAE20B44 P0003=
KENW 110445Z AUTO 20010KT 1 3/4SM -RA BR OVC006 04/03 A2950 RMK
     AO2 P0004 T00440028=
KGZH 110445Z AUTO 16005KT 3SM -RA BR OVC003 17/16 A2996 RMK AO2
     LTG DSNT E AND W AND NW RAB02E19B37 P0000 T01720161=
KJST 110445Z AUTO 17013KT 1/2SM FG VV002 02/02 A2997 RMK AO2
     T00220022=
KMIE 110445Z AUTO 19010G18KT 7SM -RA OVC009 07/06 A2967 RMK AO2
     CIG 007V013 P0001 T00670061 TSNO=
KTOI 110445Z AUTO 16009KT 1SM +TSRA BR BKN002 OVC007 17/16 A3001
     RMK AO2 LTG DSNT N AND SW RAB28 TSB36 P0013 T01670156=

0000010800
701
SPUS41 KWBC 110448
SPECI
KGON 110444Z 00000KT 1SM R05/P6000FT -RA BR VV003 03/03 A3026=

0000009400
702
SPUS42 KWBC 110448
SPECI
KMOB 110444Z 19006KT 1/2SM FG VV002 17/17 A2995=

0000010300
703
SASN34 ESWI 110420 CCA
METAR COR ESPA 110420Z 02009KT 9999 -SN BKN020 M15/M18 Q1010=

0000016700
704
FCNM40 FYWW 110500
TAF FYGF 110500Z 1106/1115 18005KT CAVOK=
TAF FYOA 110500Z 1106/1115 22005KT CAVOK=
TAF FYWE 110500Z 1106/1115 18005KT CAVOK=

0000016800
705
FTCN34 CWAO 110400 AAA
TAF AMD CYVC 110448Z 1104/1113 28005KT P6SM SCT008 OVC012 TEMPO
     1104/1113 4SM -SN BKN008
    RMK NXT FCST BY 110700Z=

0000020500
706
FTDL33 EDZO 102300 RRC
TAF EDLV 110418Z 1105/1124 19007KT 9999 SCT030 TEMPO 1105/1110 BKN006
     BECMG 1111/1113 25011KT TEMPO 1111/1116 4000 RA BKN012 BECMG
     1117/1119 24006KT=

0000020500
707
FTDL34 EDZO 102300 RRC
TAF EDLV 110418Z 1105/1124 19007KT 9999 SCT030 TEMPO 1105/1110 BKN006
     BECMG 1111/1113 25011KT TEMPO 1111/1116 4000 RA BKN012 BECMG
     1117/1119 24006KT=

0000034500
708
FTCN34 CWAO 110400 AAA
TAF AMD CYQK 110449Z 1104/1114 17005KT 1/2SM FZFG VV001 TEMPO
     1104/1108 11/2SM -FZDZ -SN BR OVC004
    FM110800 23005KT 11/2SM BR OVC003 TEMPO 1108/1110 3SM -FZDZ -SN
     BR OVC006
    FM111000 30008KT 3SM -SN BR OVC004 TEMPO 1110/1114 P6SM NSW
     OVC008
    RMK NXT FCST BY 110800Z=

00000000