0000068500
209
UDEU02 EGRR 111546
AMDAR 1114
LVR EU0083   4243N 00240W 111437 F360 MS620 345/018 TB/ S031=
LVR EU0083   4327N 00207W 111444 F360 MS630 310/012 TB/ S031=
LVR EU0083   4412N 00134W 111451 F360 MS633 268/015 TB/ S031=
LVR EU0083   4458N 00059W 111458 F360 MS630 259/025 TB/ S031=
LVR EU0083   4542N 00015W 111505 F360 MS625 262/035 TB/ S031=
LVR EU0083   4630N 00020E 111512 F360 MS623 260/040 TB/ S031=
LVR EU0083   4718N 00057E 111519 F360 MS610 268/048 TB/ S031=
LVR EU0083   4806N 00134E 111526 F380 MS593 274/040 TB/ S031=
LVR EU0083   4848N 00223E 111533 F380 MS583 270/046 TB/ S031=
LVR EU0083   4912N 00341E 111540 F380 MS578 275/051 TB/ S031=
0000016100
210
FTUK32 EGGY 102300 AAC
TAF AMD EGGP 110407Z 1104/1124 25009KT 9999 SCT020 PROB40 TEMPO
    1104/1109 7000 SHRA BKN014 PROB30 1118/1124 8000=

0000011500
211
SAKY31 RUMS 110400 RRA
METAR UCFM 110400Z VRB01MPS 4000 FU NSC M10/M16 Q1023 R08/CLRD70
NOSIG=

0000027800
212
FTCN35 CWAO 110400 AAA
TAF AMD CYHM 110409Z 1104/1124 09006KT 6SM BR SCT050 TEMPO 1104/1106
     1SM -RA BR OVC003
    FM110600 18012KT 1SM -RA BR OVC003 TEMPO 1106/1121 3SM -DZ BR
    FM112100 23015G30KT P6SM -SHRA OVC008
    RMK NXT FCST BY 110600Z=

0000008900
213
SAAT31 TAPA 110408
METAR TAPA 110400Z 08011KT 9999 SCT020 24/20 Q1018=

0000017000
214
SAIN31 EGGY 110400
METAR VOBL 110400Z NIL=
METAR VOCB 110400Z NIL=
METAR VOCI 110400Z 09003KT 4000 HZ NSC 26/19 Q1015 NOSIG=
METAR VOCL 110400Z NIL=
0000012200
215
SAMS33 WMKK 110400 RRA
METAR WMKE 110400Z 34007KT 5000 -RA FEW002 FEW016CB SCT020 OVC190
24/23 Q1014=

0000004100
216
SACZ41 LKPW 110400
NIL

0000080100
217
SAEE31 LOWM 110400
METAR UACK 110400Z 18007MPS 5000 SHSN BLSN OVC051CB M10/M12
Q1019 R20/452042 NOSIG RMK QFE741/0988=
METAR UACP 110400Z 18006MPS 8000 FEW020 OVC100 M06/M08 Q1018
R23/4/3537 NOSIG RMK QFE751/1002=
METAR UAII 110400Z 12003MPS CAVOK M04/M09 Q1024 R10/0///70
NOSIG RMK QFE732/0977=
METAR UADD 110400Z 20007MPS 9999 NSC M05/M13 Q1023 NOSIG RMK
QFE710/0946=
METAR UASK 110400Z 13002MPS 9999 SCT070 BKN230 M08/M15 Q1035
R30/820350 NOSIG RMK QFE750/1000=
METAR UASP 110400Z 15004MPS 9999 SCT046 OVC100 M10/M14 Q1030
R21/450155 NOSIG RMK QFE761/1015=
METAR UAOO 110400Z 18005MPS 3300 BR BKN130 M06/M08 Q1022
R24/3///55 NOSIG RMK QFE754/1006=
METAR UAKD 110400Z 13006MPS 6000 DRSN BR BKN013 OVC100 M09/M11
Q1021 R22491535 NOSIG RMK QFE732/0976=

0000013900
218
SAOS33 LOWM 110400
METAR LOAN 110400Z NIL=
METAR LOAV 110400Z NIL=
METAR LOIH 110400Z NIL=
METAR LOWZ 110400Z NIL=

0000009500
219
SACA32 KWBC 110400 RRA
METAR
TAPA 110400Z 08011KT 9999 SCT020 24/20 Q1018=

0000031600
220
SAIO31 KWBC 110400 RRB
METAR
VYMD 110400Z NIL=
VYYY 110400Z NIL=
WBGG 110400Z 36008KT 9999 FEW015CB BKN020 BKN150 27/24 Q1012
     NOSIG=
WBKK 110400Z 30003KT 9999 FEW015 SCT140 BKN270 31/26 Q1012
     NOSIG=
WBSB 110400Z 33007KT 9999 SCT016 FEW017CB BKN280 30/25 Q1012
     NOSIG=

0000010000
221
SANT31 KWBC 110400 RRA
METAR
LPBJ 110400Z 07003KT 5000 BCFG FEW001 07/06 Q1016=

0000049600
222
SAID31 WIII 110400
METAR WIII 110400Z 03006KT 9999 FEW018CB SCT020 33/24 Q1010 RMK CB TO
S AND SW=
METAR WIHH 110400Z 07005KT 6000 SCT017 31/23 QNH 1011 NOSIG=
METAR WIMM 110400Z 35005KT 5000 HZ BKN017 27/24 Q1013=
METAR WADD 110400Z 27007KT 9999 FEW015CB FEW017 30/25 Q1010 NOSIG=
METAR WAAA 110400Z 26004KT 9999 FEW019 31/22 Q1011=
METAR WIDD 110400Z 34007KT 9999 SCT014 29/24 Q1011=
METAR WARR 110400Z 06007KT 360V120 9999 FEW020 30/24 Q1010=
METAR WABB NIL=

0000014500
223
SACN62 CYSB 110400
METAR CYSB 110400Z 15013KT 3/4SM R22/4000VP6000FT/U -FZDZ -SN BR
 OVC002 M02/M02 A2980 RMK FG3SF5 SLP111=

0000038900
224
SAPO31 LPMG 110400
METAR LPBJ 110400Z 07003KT 5000 BCFG FEW001 07/06 Q1016=
METAR LPFR 110400Z 04006KT CAVOK 12/08 Q1015=
METAR LPMA 110400Z VRB02KT CAVOK 13/08 Q1016 RS28001KT 0530005KT
2334003KT=
METAR LPPR 110400Z VRB01KT 4000 BR FEW015 07/07 Q1016=
METAR LPPS 110400Z VRB02KT CAVOK 13/12 Q1017=
METAR LPPT 110400Z 10003KT 040V130 9999 FEW008 09/08 Q1016=

0000030400
225
SAPO32 LPMG 110400
METAR LPAZ 110400Z 22024KT 9999 SCT005 SCT021 BKN031 15/14 Q1007
RERA=
METAR LPFL 110400Z NIL=
METAR LPHR 110400Z NIL=
METAR LPLA 110400Z 24006G16KT 220V280 9999 FEW016 SCT022 15/12
Q1003=
METAR LPPD 110400Z 24014KT 9999 FEW008 SCT010 BKN040 15/15 Q1005=

0000068100
226
SAJP41 KWBC 110400
METAR
RJAF 110400Z 35004KT 320V020 9999 VCSH FEW030 M01/M09 Q1020=
RJAI NIL=
RJAK NIL=
RJAM NIL=
RJAO NIL=
RJAT NIL=
RJAW NIL=
RJBD 110400Z 32016KT 9999 FEW030 08/M03 Q1025=
RJCA NIL=
RJCB 110400Z 28006KT 230V330 9999 FEW050 BKN060 M05/M18 Q1013=
RJCJ NIL=
RJCK 110400Z 26014KT 230V290 9999 FEW030 BKN050 M05/M20 Q1013=
RJCM 110400Z 25005KT 210V290 9999 SCT030 BKN050 M07/M15 Q1012=
RJCN 110400Z 23010KT 9999 FEW035 BKN050 M06/M15 Q1012=
RJCO NIL=
RJCR NIL=
RJCT NIL=
RJCW 110400Z 29025KT 0200 R08/0650V0900D SHSN BLSN VV002 M09/M18
     Q1012=
RJDB NIL=
RJDC 110400Z 23008KT 9999 FEW040 07/M00 Q1029=

0000009800
227
SPUS42 KWBC 110407
SPECI
KBPT 110403Z AUTO 21010KT 2SM BR OVC002 19/18 A2985=

0000009400
228
SPUS42 KWBC 110407
SPECI
KBRO 110403Z 17003KT 3/4SM BR VV005 18/17 A2992=

00000000