0000072300
129
SAJP32 RJTD 110400
METAR RJFF 110400Z 33008KT 9999 FEW030 BKN040 07/M02 Q1029=
METAR RJCC 110400Z 31005KT 270V330 9999 -SHSN FEW015 M06/M12 Q1016=
METAR RJFK 110400Z 20005KT 160V260 9999 FEW030 SCT040 08/M02 Q1027=
METAR RJSN 110400Z 31015KT 9999 VCSH FEW006 SCT030 BKN040 03/M04
           Q1024=
METAR RJFT 110400Z 23005KT 170V250 9999 FEW035 BKN050 07/M05 Q1028=
METAR RJFU 110400Z 14009KT 9999 FEW040 BKN050 07/01 Q1029=
METAR RJCH 110400Z 30012KT 5000 -SHSN FEW004 SCT010 BKN015 M05/M07
           Q1018=
METAR RJSS 110400Z 29015KT 9999 FEW020 04/M08 Q1022=
METAR RJOA 110400Z 27010KT 9999 FEW030 SCT040 05/M07 Q1027=
METAR RJOB 110400Z 28010KT 9999 FEW025 SCT040 06/M03 Q1026=

0000017100
130
SAJP32 RJTD 110400 RRA
METAR RJOT 110400Z 29011KT 9999 FEW025 SCT035 05/M03 Q1027=
METAR RJFO 110400Z 33007KT 270V360 9999 FEW030 SCT040 09/M03 Q1028=

0000009200
131
SAIN90 VEBS 111530
METAR VEBS 111530Z 11003KT 2000 HZ NSC 21/18 Q1016 NOSIG=
0000062900
132
FTIN90 VILK 111500
TAF VILK 111500Z 1118/1224 05004KT 0800 MIFG SCT020 BKN100 BECMG
    1200/1202 VRB02KT 0200 FG VV/// TEMPO 1118/1203 1000 RA/TYSRA
    FEW030CB OVC090 BECMG 1203/1205 09004KT 1000 MIFG/BR BECMG
    1206/1208 2500 HZ/FU BECMG 1212/1214 VRB02KT 1000 MIFG/FU BECMG
1220/1222 0200 FG VV///=
TAF VIBN 111500Z 1118/1224 05004KT 0800 MIFG SCT020 BKN100 BECMG
    1200/1202 VRB02KT 0200 FG VV/// TEMPO 1118/1203 1000 RA/TYSRA
    FEW030CB OVC090 BECMG 1203/1205 09004KT 1000 MIFG/BR BECMG
    1206/1208 2500 HZ/FU BECMG 1212/1214 VRB02KT 1000 MIFG/FU BECMG
1220/1222 0200 FG VV///=

0000056900
133
SAMX41 MMMX 110456
METAR MMMX 110446Z 00000KT 12SM SKC 15/06 A3031 NOSIG RMK AC=
METAR MMAA 110445Z 02004KT 8SM FEW120 24/22 A2992 RMK 8/030=
METAR MMOX 110441Z 00000KT 8SM SKC 16/11 A3021 RMK=
METAR MMPB 110440Z 29004KT 10SM  SKC 09/04 A3032=
METAR MMQT 110445Z 00000KT 7SM SCT020 BKN090 BKN250 16/09 A3026 RMK
8/538=
METAR MMTM 110442Z 00000KT 5SM  SCT070 BKN200 20/18 A2993 RMK 8/038
HZY=
METAR MMTO 110445Z 00000KT 7SM  FEW015 BKN070 07/04 A3040 RMK 8/430
HZY=
METAR MMVR 110446Z 00000KT 7SM  BKN015 20/18 A2995 RMK 8/500 HZY=

0000049000
134
SAMX44 MMMD 110456
METAR MMCE 110449Z 36008KT 7SM SKC 24/23 A2992=
METAR MMCP 110454Z 00000KT 7SM  SKC 23/21 A2995 RMK HZY=
METAR MMCZ 110442Z 00000KT 7SM  FEW015 20/20 A3001 RMK 8/500=
METAR MMMD 110443Z 11007KT 7SM  SKC 22/20 A2997=
METAR MMTG 110445Z 33003KT 12SM  SKC 20/17 A2997=
METAR MMTP 110441Z 00000KT 8SM  SCT200 26/22 A2993 RMK 8/002=
METAR MMUN 110447Z 15010KT 7SM  SCT015 25/23 A3001 RMK 8/500=
METAR MMVA 110440Z 00000KT 7SM  SKC 19/17 A2995=

0000008300
135
SABZ19 SBBE 110500
METAR SBBE 110500Z 10002KT CAVOK 24/23 Q1010=

0000048200
136
FTPH41 RPLL 110500
TAF RPLL 110500Z 1106/1212 11008KT 9999 FEW025 SCT100 TX30/1106Z    
    TN22/1121Z TEMPO 1106/1112 10012KT 9000 FEW023 SCT025 BKN100     
   TEMPO 1116/1121 08005KT SCT023 SCT100 TEMPO 1200/1206 07006KT=
TAF RPVM 110500Z 1106/1212 36010KT 9999 FEW020 BKN100 OVC250 TEMPO  
    1106/1112 04014KT 7000 -RA SCT020 OVC080 TEMPO 1113/1118 34015KT 
   8000 -RA SCT020 OVC090 TEMPO 1119/1124 02008KT 9000 -SHRA         
  FEW018CB OVC090=

0000009200
137
SABZ19 SBMA 110500
METAR SBMA 110500Z 27002KT 9999 -RA NSC 22/22
Q1011=

0000010000
138
SAUK32 EGGY 110450 RRA
METAR EGNX 110450Z 30008KT 9999 SCT010 BKN022 04/03 Q1012=

0000058100
139
SASW39 LSSW 110450 RRA
METAR LSMA 110450Z AUTO 18003KT 1100NDV R01/1000VP2000D R19/P2000N
           BR SCT200 00/M00 Q1017 RMK RED=
METAR LSMD 110450Z AUTO 00000KT 0650NDV R11/1000U R29/P2000N BKN002
           OVC120 01/01 Q1018 RMK RED=
METAR LSME 110450Z AUTO 00000KT 0500NDV R04/1300V2000D R22/0600N FG
           BKN002 03/02 Q1018 RMK RED=
METAR LSMM 110450Z AUTO 08003KT 6000NDV FEW150 BKN200 M00/M01 Q1017
           RMK GRN=
METAR LSMP 110450Z AUTO 00000KT 0900NDV R05/P2000N R23/0750D FG
           SCT003 SCT120 01/01 Q1018 RMK RED=

0000063300
140
SAGR31 LGAT 110450
METAR LGAD 110450Z 00000KT 9999 BKN020 11/08 Q1022=
METAR LGAV 110450Z VRB01KT CAVOK 07/05 Q1022 NOSIG=
METAR LGIR 110450Z 17006KT 9999 FEW025 10/08 Q1021 NOSIG=
METAR LGKL 110450Z 00000KT 9999 SCT080 10/08 Q1023=
METAR LGKO 110450Z 13005KT 9999 BKN025 10/08 Q1021=
METAR LGKR 110450Z 00000KT 9999 SCT018 BKN070 11/10 Q1022 NOSIG=
METAR LGLM 110450Z NIL=
METAR LGRP 110450Z 00000KT 9999 FEW018 12/08 Q1021 NOSIG=
METAR LGSA 110450Z 26016KT 9999 FEW020 14/09 Q1021=
METAR LGSM 110450Z NIL=
METAR LGTS 110450Z 10005KT 0200 R16/0400 R34/0400 FG OVC001 05/04
      Q1022 NOSIG=

0000031800
141
SANL31 EHDB 110455
METAR EHAM 110455Z 20014KT 180V240 7000 FEW007 OVC010 05/04 Q1013
TEMPO BKN008=
METAR EHBK 110455Z AUTO 20009KT 9999 NSC 02/01 Q1015 NOSIG=
METAR EHGG 110455Z AUTO 21012KT 3500 DZ SCT007 OVC008 06/05 Q1011=
METAR EHRD 110455Z AUTO 21013KT 5000 BR OVC007 05/04 Q1013 NOSIG=

0000010500
142
SABZ22 SBBR 110500
METAR SBBR 110500Z 02012KT 9999 VCTS BKN020
FEW035CB 22/15 Q1018=

0000051000
143
FTUS41 KWBC 110457 AAA
TAF AMD
KFVE 110455Z 1105/1124 VRB03KT P6SM BKN015
     FM111300 17006KT P6SM OVC040
     FM111600 16008KT 5SM -FZRASNPL OVC010
     FM112000 16011KT 1/2SM -RA FG OVC005=
KPQI 110454Z 1105/1124 VRB03KT P6SM BKN020
     FM111200 17006KT P6SM OVC050
     FM111500 16009KT 5SM -FZRASNPL OVC020
     FM111600 16010KT 3SM -FZRAPL OVC015
     FM111800 16011KT 2SM -RA BR OVC008
     FM111900 16013KT 1SM -RA BR OVC005 AMD LTD TO CLD VIS AND
      WIND=

0000051000
144
FTUS71 KWBC 110457 AAA
TAF AMD
KFVE 110455Z 1105/1124 VRB03KT P6SM BKN015
     FM111300 17006KT P6SM OVC040
     FM111600 16008KT 5SM -FZRASNPL OVC010
     FM112000 16011KT 1/2SM -RA FG OVC005=
KPQI 110454Z 1105/1124 VRB03KT P6SM BKN020
     FM111200 17006KT P6SM OVC050
     FM111500 16009KT 5SM -FZRASNPL OVC020
     FM111600 16010KT 3SM -FZRAPL OVC015
     FM111800 16011KT 2SM -RA BR OVC008
     FM111900 16013KT 1SM -RA BR OVC005 AMD LTD TO CLD VIS AND
      WIND=

0000009800
145
SARW20 HRYR 110500
METAR
HRYR 110500Z 12003KT 5000 SCT025  16/16 Q1021 NOSIG=

0000058600
146
SAGR32 LGAT 110450
METAR LGAL 110450Z 00000KT 9999 FEW018 02/01 Q1023=
METAR LGEL 110450Z 00000KT 9999 FEW025 SCT180 06/05 Q1021=
METAR LGIO 110450Z AUTO VRB01KT //// // ////// 07/06 Q1023
     RE//=
METAR LGKV 110450Z 00000KT CAVOK 05/05 Q1022=
METAR LGMT 110450Z VRB02KT 9999 SCT018 BKN025 12/09 Q1022=
METAR LGPZ 110450Z 07004KT 9999 SCT020 BKN080 11/10 Q1023 NOSIG=
METAR LGRX 110450Z 00000KT 9999 SCT070 09/08 Q1022 NOSIG=
METAR LGSK 110450Z NIL=
METAR LGSR 110450Z AUTO 23009KT //// // ////// 15/12 Q1020
     RE//=
METAR LGZA 110450Z NIL=

0000103700
147
UDAS02 BABJ 111534
AMDAR 1115
LVR CNFOZN 3316N 12137E 111523 F331 MS455 262/131 TB/ S//1=
DES CNFOZN 3334N 12127E 111526 F308 MS440 260/110 TB/ S//1=
DES CNFOZN 3351N 12119E 111529 F277 MS410 254/087 TB/ S//1=
LVR CNFOZN 3408N 12111E 111532 F266 MS394 262/079 TB/ S//1=
DES CNFLWT 3010N 10346E 111530 F044 PS015 014/005 TB/ S//1=
DES CNFLWT 3013N 10348E 111531 F044 PS015 021/007 TB/ S//1=
DES CNFLWT 3014N 10348E 111532 F044 PS015 018/004 TB/ S//1=
DES CNFLWT 3015N 10349E 111532 F044 PS015 021/004 TB/ S//1=
LVR CNFNXQ 3722N 11148E 111524 F351 MS533 263/094 TB/ S//1=
LVR CNFNXQ 3709N 11215E 111527 F351 MS528 257/084 TB/ S//1=
DES CNFNXQ 3655N 11241E 111530 F345 MS534 260/094 TB/ S//1=
DES CNFNXQ 3639N 11259E 111533 F316 MS545 247/084 TB/ S//1=
DES CNFNZK 2516N 11840E 111530 F201 MS115 271/071 TB/ S//1=
DES CNFNZK 2513N 11837E 111531 F189 MS088 266/064 TB/ S//1=
DES CNFNZK 2509N 11833E 111532 F171 MS085 274/058 TB/ S//1=
DES CNFNZK 2505N 11829E 111533 F149 MS045 272/044 TB/ S//1=
0000029300
148
UDAS02 BABJ 111537
AMDAR 1115
DES CNFLWT 3018N 10350E 111533 F044 PS018 045/003 TB/ S//1=
DES CNFLWT 3020N 10351E 111534 F044 PS016 054/004 TB/ S//1=
DES CNFLWT 3022N 10352E 111535 F044 PS015 030/003 TB/ S//1=
DES CNFLWT 3023N 10352E 111535 F040 PS025 077/005 TB/ S//1=
00000000