0000013900
909
SACN62 CYQX 110400
METAR CYQX 110400Z 23014KT 20SM FEW020 FEW090 SCT120 BKN140 M08/M11
 A3002 RMK SC1AC1AC2AC3 SLP175=

0000013400
910
SACN61 CYTE 110400
METAR CYTE 110400Z AUTO 28014KT 9SM BKN009 M23/M26 A2950 RMK MAX WND
 28018KT AT 0318Z SLP995=

0000016800
911
FTMX31 KWBC 110400
TAF
TAF MNMG 110400Z 1106/1206 00000KT CAVOK
      BECMG 1113/1115 09008KT 9999 FEW020
      TEMPO 1117/1122 11016KT SCT020=

0000068000
912
FTUS52 KWBC 110400 AAA
TAF AMD
KMCB 110357Z 1104/1124 15008KT 3SM BR OVC002
     FM110500 23010KT 5SM -RA BR OVC005
      TEMPO 1105/1109 2SM TSRA OVC003CB
     FM111000 23010KT 5SM BR OVC005
     FM111500 30008KT P6SM SCT250
     FM111800 30012G20KT P6SM SKC=
KPSF 110359Z 1104/1124 20006KT 1SM BR OVC004
      TEMPO 1104/1107 1 1/2SM -FZDZ BR SCT004 OVC006
     FM110700 20006KT 3SM -FZRAPL BR SCT008 OVC030
      TEMPO 1107/1109 BKN008 OVC030
     FM110900 15005KT 4SM -SHRA BR BKN008 OVC040
      TEMPO 1109/1112 1SM -FZRA BR OVC010
     FM111200 18006KT 3SM -RA BR OVC010
     FM111600 18012KT 3SM -SHRA BR OVC010 WS020/19040KT=

0000024400
913
FTUK35 EGGY 102300 AAB
TAF AMD EGAA 110401Z 1104/1124 24005KT 9999 BKN014 BECMG 1104/1106
    FEW025 PROB30 TEMPO 1104/1105 5000 SHRA SHRAGS PROB30 1105/1111
    0300 FG VV/// BECMG 1118/1121 14010KT TEMPO 1120/1124 6000=

0000042400
914
SPUS70 KWBC 110400
SPECI
KCUB 110356Z AUTO 00000KT 2SM BR OVC004 11/11 A3009 RMK AO2
     T01060106 TSNO=
KGNV 110356Z AUTO 16004KT 1 1/2SM BR SCT003 SCT011 BKN020 19/19
     A3011 RMK AO2 T01940194=
KADG 110357Z AUTO 18005KT 1 1/2SM -RA BR OVC002 02/02 A2973 RMK
     AO2 P0000 TSNO=
KTVR 110357Z AUTO 16009KT 4SM -RA BR FEW008 BKN014 OVC020 17/17
     A2979 RMK AO2 P0000 T01720167 TSNO=

0000011100
915
SPUS41 KWBC 110400
SPECI
KDOV 110356Z AUTO 08005KT 3/4SM R01/1800FT BR BKN065 04/04 A3017=

0000010200
916
SAPF20 NTAA 110400
METAR NTAA 110400Z 12004KT 9999 FEW020 SCT050 28/22 Q1011 NOSIG=

0000016900
917
SACY31 LCLK 110400
METAR LCLK 110400Z 30006KT CAVOK 09/06 Q1022 NOSIG=
METAR LCPH 110400Z 02006KT 9999 SCT026 09/06 Q1022=
METAR LCNC 110400Z NIL=

0000008300
918
SAAG41 SAEZ 110400
METAR SAEZ 110400Z 20009KT CAVOK 19/13 Q1012=

0000011000
919
SAAG41 SASA 110400
METAR SASA 110400Z  36004KT 9999  SCT020 FEW045CB
BKN200  23/16 Q1015=

0000016700
920
FTUS53 KWBC 110400 AAA
TAF AMD
KHUT 110358Z 1104/1124 31007KT P6SM BKN060
     FM110600 30007KT P6SM SCT250
     FM111600 31012G20KT P6SM SKC=

0000022400
921
FTUS80 KWBC 110400
TAF
TAF AMD KLCK 110351Z 1104/1124 16009KT P6SM BKN035
     FM110500 17010KT 6SM BR VCSH OVC020
     FM110800 17012KT 4SM -RA BR OVC008
     FM111400 23014G23KT P6SM VCSH OVC012=

0000101200
922
FTUS80 KWBC 110400 AAA
TAF AMD
KHUT 110358Z 1104/1124 31007KT P6SM BKN060
     FM110600 30007KT P6SM SCT250
     FM111600 31012G20KT P6SM SKC=
KMCB 110357Z 1104/1124 15008KT 3SM BR OVC002
     FM110500 23010KT 5SM -RA BR OVC005
      TEMPO 1105/1109 2SM TSRA OVC003CB
     FM111000 23010KT 5SM BR OVC005
     FM111500 30008KT P6SM SCT250
     FM111800 30012G20KT P6SM SKC=
KMSY 110358Z 1104/1124 19008KT 5SM -RA BR BKN003 OVC006
      TEMPO 1105/1109 2SM TSRA OVC006CB
     FM110900 21012KT 3SM -RA OVC008
     FM111300 25012KT 5SM BR OVC015
     FM111600 30010KT P6SM SCT250=
KPSF 110359Z 1104/1124 20006KT 1SM BR OVC004
      TEMPO 1104/1107 1 1/2SM -FZDZ BR SCT004 OVC006
     FM110700 20006KT 3SM -FZRAPL BR SCT008 OVC030
      TEMPO 1107/1109 BKN008 OVC030
     FM110900 15005KT 4SM -SHRA BR BKN008 OVC040
      TEMPO 1109/1112 1SM -FZRA BR OVC010
     FM111200 18006KT 3SM -RA BR OVC010
     FM111600 18012KT 3SM -SHRA BR OVC010 WS020/19040KT=

0000010800
923
SPUS41 KWBC 110400
SPECI
KWRI 110356Z AUTO 08002KT 1SM R06/2200FT BR VV002 04/04 A3021=

0000010500
924
SABZ22 SBBR 110400
METAR SBBR 110400Z 17002KT 9999 VCTS SCT035
FEW040CB 22/16 Q1018=

0000009700
925
SABZ19 SBMA 110400
METAR SBMA 110400Z 23002KT 9999 -RA NSC 22/22 Q1012
RETS=

0000009200
926
SAMT20 GQPP 110400
METAR GQPP 110400Z 32003KT 7000 NSC 17/15 Q1015 NOSIG=

0000025800
927
FTUS31 KWBC 110403 AAA
TAF AMD
KDEN 110402Z 1104/1206 23007KT P6SM FEW100 SCT140 BKN200
     FM111500 28014G22KT P6SM FEW090 SCT120 BKN180
     FM111800 29018G30KT P6SM FEW090 SCT120 BKN180
     FM120000 29014KT P6SM SCT120 SCT180=

0000025200
928
FTUS43 KWBC 110403 AAA
TAF AMD
KPIA 110400Z 1104/1124 19013KT 1/4SM FG VV002
     FM110900 25011KT 2SM BR OVC003
     FM111400 26012G18KT 4SM BR OVC015
     FM111700 28013G22KT P6SM BKN025
     FM112100 27012KT P6SM SCT250=

00000000