0000026900
409
FTBZ20 SBEG 110420
TAF SBPV 110400Z 1106/1206 00000KT 9999 FEW015
TN23/1107Z TX31/1118Z 
BECMG
 1111/1113 36005KT BKN015 BECMG 1116/1118 SCT020 FEW025TCU
PROB30 111
9/1122
 5000 TS SCT020 FEW025CB BECMG 1122/1124 00000KT FEW015 RMK
PEH=

0000009400
410
SPUS42 KWBC 110421
SPECI
KBRO 110417Z 19003KT 1/2SM FG VV004 18/17 A2992=

0000012400
411
SAAK32 KWBC 110400 RRA
METAR
PADK 110416Z AUTO 20028G44KT 7SM FEW019 BKN031 OVC048 03/M01
     A2876=

0000016100
412
FCUK34 EGGY 110200 AAA
TAF AMD EGSH 110422Z 1104/1112 21010KT 9999 BKN010 PROB30 TEMPO
    1105/1109 4000 RA BECMG 1106/1109 31010KT SCT030=

0000025800
413
FTBZ20 SBEG 110420
TAF SBTT 110400Z 1106/1206 00000KT 9999 FEW010
TN23/1110Z TX30/1117Z 
BECMG
 1109/1111 09003KT BECMG 1113/1115 36003KT BKN015 BECMG
1116/1118 290
05KT
 SCT020 FEW025TCU BECMG 1121/1123 06003KT FEW015 RMK PEH=

0000026000
414
FTBZ20 SBEG 110420
TAF SBCZ 110400Z 1106/1206 00000KT 9999 SCT005
TN24/1112Z TX26/1117Z 
BECMG
 1113/1115 36005KT BKN015 BECMG 1116/1118 SCT020 PROB30
1119/1121 270
05KT
 TS SCT020 FEW025CB BECMG 1122/1124 00000KT FEW015 RMK PEH=

0000028000
415
FTBZ20 SBEG 110420
TAF SBRB 110400Z 1106/1206 00000KT 9999 FEW015
TN23/1107Z TX29/1118Z 
BECMG
 1108/1110 36003KT 5000 BR BKN005 BECMG 1111/1113 34005KT 9999
SCT015
 BECMG 1116/1118 30005KT SCT020 FEW025TCU BECMG 1121/1123
36003KT FEW
020 RMK PEH=

0000027000
416
FTBZ20 SBEG 110420
TAF SBCY 110400Z 1106/1206 00000KT 9999 FEW020
TN23/1107Z TX32/1118Z 
BECMG
 1111/1113 33005KT BECMG 1116/1118 30008KT SCT020 FEW025TCU
PROB30 11
19/1122
 5000 TS SCT020 FEW025CB BECMG 1122/1124 06003KT FEW020 RMK
PEH=

0000017900
417
FTBZ20 SBEG 110420
TAF SBTE 110400Z 1106/1118 00000KT CAVOK TN24/1107Z
TX34/1117Z BECMG 
1110/1112
 17005KT SCT015 BECMG 1114/1116 20005KT SCT030 RMK PEH=

0000021700
418
FTBZ20 SBEG 110420
TAF SBSL 110400Z 1106/1206 07005KT 9999 SCT015
TN25/1107Z TX31/1116Z 
BECMG
 1112/1114 09010KT BKN017 BECMG 1116/1118 04008KT BECMG
1122/1124 060
05KT
 FEW017 RMK PEH=

0000009500
419
SAQB31 LQSM 110430
METAR LQSA 110430Z VRB01KT 6000 BKN060 04/04 Q1022 NOSIG=

0000031200
420
FTBZ20 SBEG 110420
TAF SBBE 110400Z 1106/1206 06005KT 9999 FEW015
TN22/1107Z TX30/1116Z 
BECMG
 1110/1112 04005KT BECMG 1115/1117 36010KT BKN030 FEW035TCU
PROB30 11
18/1121
 4000 RA SCT010 BKN020 FEW025TCU BECMG 1121/1123 04005KT
SCT025 BECMG
 1202/1204 07005KT FEW015 RMK PEH=

0000025300
421
FTBZ20 SBEG 110420
TAF SBMQ 110400Z 1106/1206 36005KT 9999 FEW015
TN24/1107Z TX35/1116Z 
BECMG
 1109/1111 06005KT 5000 BKN010 BECMG 1113/1115 08005KT SCT020
BECMG 1
121/1123
 05005KT FEW015 BECMG 1203/1205 01005KT RMK PEH=

0000015400
422
FTBZ20 SBEG 110420
TAF SBOI 110400Z 1106/1118 04003KT 9999 FEW010
TN26/1112Z TX30/1117Z 
BECMG
 1112/1114 06005KT BKN015 RMK PEH=

0000026200
423
FTBZ20 SBEG 110420
TAF SBSN 110400Z 1106/1206 07005KT 9999 FEW015
TN26/1107Z TX33/1118Z 
BECMG
 1112/1114 09008KT BKN020 BECMG 1116/1118 SCT020 FEW025TCU
PROB30 112
0/1122
 TS SCT020 FEW025CB BECMG 1122/1124 14003KT FEW020 RMK PEH=

0000022700
424
FTBZ20 SBEG 110420
TAF SBMA 110400Z 1106/1118 00000KT 9999 FEW015
TN23/1107Z TX30/1117Z 
PROB30
 1106/1108 5000 TS SCT010 FEW025CB BECMG 1110/1112 34003KT
SCT020 BEC
MG
 1114/1116 10005KT RMK PEH=

0000022300
425
FTBZ20 SBEG 110420
TAF SBCJ 110400Z 1106/1118 00000KT CAVOK TN19/1108Z
TX27/1117Z BECMG 
1109/1111
 06005KT 2000 BR BKN005 BECMG 1112/1114 08005KT 9999 BKN015
BECMG 111
5/1117
 SCT025 RMK PEH=

0000130300
426
FTBZ31 KWBC 110424
TAF
TAF SBBE 110400Z 1106/1206 06005KT 9999 FEW015 TN22/1107Z
      TX30/1116Z
      BECMG 1110/1112 04005KT
      BECMG 1115/1117 36010KT BKN030 FEW035TCU PROB30 11 18/1121
      4000 RA SCT010 BKN020 FEW025TCU
      BECMG 1121/1123 04005KT SCT025
      BECMG 1202/1204 07005KT FEW015 RMK PEH=
TAF SBBV 110400Z 1106/1206 07008KT CAVOK TN24/1107Z TX32/1118Z
      BECMG 1112/1114 SCT030
      BECMG 1116/1118 05010KT SCT040 FEW050TCU
      BECMG 1121/1123 0700 5KT CAVOK RMK PEH=
TAF SBEG 110400Z 1106/1206 06005KT 9999 SCT010 TN22/1107Z
      TX30/1117Z
      BECMG 1108/1110 2000 BR BKN005
      BECMG 1111/1113 08005KT 9999 SCT010
      BECMG 1 115/1117 04005KT SCT020 FEW025TCU PROB30 1118/1120
      TS
      SCT020 FEW025CB
      BECMG 1 122/1124 00000KT FEW015 RMK PEH=
TAF SBSL 110400Z 1106/1206 07005KT 9999 SCT015 TN25/1107Z
      TX31/1116Z
      BECMG 1112/1114 09010KT BKN017
      BECMG 1116/1118 04008KT
      BECMG 1122/1124 060 05KT FEW017 RMK PEH=
TAF SBSN 110400Z 1106/1206 07005KT 9999 FEW015 TN26/1107Z
      TX33/1118Z
      BECMG 1112/1114 09008KT BKN020
      BECMG 1116/1118 SCT020 FEW025TCU PROB30 112 0/1122 TS SCT020
      FEW025CB
      BECMG 1122/1124 14003KT FEW020 RMK PEH=

0000029300
427
FTBZ31 KWBC 110424 RRA
TAF
TAF SBTT 110400Z 1106/1206 00000KT 9999 FEW010 TN23/1110Z
      TX30/1117Z
      BECMG 1109/1111 09003KT
      BECMG 1113/1115 36003KT BKN015
      BECMG 1116/1118 290 05KT SCT020 FEW025TCU
      BECMG 1121/1123 06003KT FEW015 RMK PEH=

0000068000
428
FTUS31 KWBC 110424 AAA
TAF AMD
KMSP 110422Z 1104/1206 17007KT 3SM BR OVC008
      TEMPO 1104/1108 1SM -FZDZ BR OVC005
     FM110800 26005KT 4SM BR BKN009
     FM111000 28008KT P6SM SCT015
     FM111200 29012KT P6SM SCT250
     FM111600 30012KT P6SM SCT025 BKN040
     FM112000 27008KT P6SM SCT040 SCT250
     FM120200 23004KT P6SM SCT250=
KRDU 110422Z 1104/1124 VRB02KT 2SM -RADZ BR OVC002 WS018/19030KT
     FM110500 VRB03KT 1/2SM -DZ FG VV002 WS014/19035KT
     FM111300 18010KT P6SM OVC006
     FM111500 19014G22KT P6SM BKN009 OVC020
     FM111700 20017G28KT 5SM -SHRA BR BKN012 OVC025
     FM112200 25016G23KT P6SM FEW025 BKN100=

00000000