0000074200
909
SAFR32 LFPW 110330
METAR LFBD 110330Z AUTO 22003KT 8000 OVC013 09/09 Q1016=
METAR LFBH 110330Z AUTO 20002KT 3600 BR NSC 09/08 Q1016=
METAR LFBI 110330Z AUTO 00000KT 5000 BR NSC 06/05 Q1015=
METAR LFBL 110330Z AUTO 19003KT 9999 NSC 07/05 Q1016=
METAR LFBO 110330Z AUTO 17008KT 9999 FEW018 OVC180 08/06 Q1018=
METAR LFBP 110330Z AUTO 23004KT 7000 FEW013 BKN022 OVC029 09/08
Q1017=
METAR LFBT 110330Z AUTO 25003KT 6000 FEW009 OVC019 09/07 Q1018=
METAR LFBZ 110330Z AUTO 29003KT 9999 BKN019 OVC024 12/09 Q1018=
METAR LFLB 110330Z AUTO 00000KT 2400 BR NSC 02/02 Q1018=
METAR LFLX 110330Z AUTO 23004KT 9999 NSC 06/05 Q1015=
METAR LFML 110330Z 07006KT 9999 BKN033 12/07 Q1020 NOSIG=
METAR LFCK 110330Z NIL=

0000045200
910
SAFR33 LFPW 110330
METAR LFKB 110330Z 20004KT 9999 OVC030 12/08 Q1021 NOSIG=
METAR LFKF 110330Z AUTO 06009KT 020V100 9999 SCT028/// 12/08 Q1020=
METAR LFKJ 110330Z AUTO 05006KT 9999 NCD 06/05 Q1020=
METAR LFMP 110330Z AUTO 31003KT 9999 NSC 10/07 Q1018=
METAR LFMV 110330Z AUTO 10005KT 080V140 9999 OVC031 10/07 Q1020=
METAR LFSL 110330Z AUTO 14003KT 9999 NSC 05/04 Q1017=
METAR LFKC 110330Z NIL=
METAR LFLC 110330Z NIL=

0000096800
911
SAFR34 LFPW 110330
METAR LFCR 110330Z AUTO 12007KT 9999 NSC 07/04 Q1017=
METAR LFJL 110330Z AUTO VRB03KT 7000 NSC 02/01 Q1016=
METAR LFLP 110330Z AUTO 00000KT 5000 BR NSC 02/01 Q1018=
METAR LFLS 110330Z AUTO VRB03KT 9999 OVC015 08/06 Q1018=
METAR LFLY 110330Z AUTO 18009KT 9999 NSC 08/06 Q1017=
METAR LFMU 110330Z AUTO 04007KT 9999 FEW026 OVC033 11/08 Q1019=
METAR LFOB 110330Z AUTO VRB02KT 3400 BR OVC002 05/04 Q1016=
METAR LFOH 110330Z AUTO 18004KT 9999 BKN006 OVC010 07/05 Q1015=
METAR LFOK 110330Z AUTO 08003KT 6000 NSC 02/02 Q1016=
METAR LFOP 110330Z AUTO 18004KT 0300 R22/1000D FG VV/// 05/05 Q1016=
METAR LFPB 110330Z AUTO 00000KT 6000 -RA BKN005/// BKN058///
OVC070/// ///TCU 05/05 Q1016=
METAR LFQA 110330Z AUTO VRB02KT 9000 ///TCU 02/02 Q1016=
METAR LFQB 110330Z AUTO VRB02KT 1800 BR NSC 02/02 Q1016=
METAR LFSN 110330Z AUTO 00000KT 1400 R03///// BR BKN002 BKN068
OVC090 00/00 Q1017=
METAR LFMT 110330Z NIL=

0000089400
912
SAFR35 LFPW 110330
METAR LFMI 110330Z AUTO 10007KT 9999 OVC034 11/08 Q1019=
METAR LFMK 110330Z AUTO 10007KT 080V140 9999 BKN020 OVC025 10/08
Q1018=
METAR LFOV 110330Z AUTO 36003KT 0350 FG SCT001 BKN005 BKN032 05/05
Q1015=
METAR LFRD 110330Z AUTO 21004KT 0050 R35/0350N FG VV/// 06/05 Q1016=
METAR LFRI 110330Z AUTO 00000KT 8000 FEW049 OVC084 08/07 Q1015=
METAR LFRM 110330Z AUTO VRB03KT 6000 NSC 07/06 Q1016=
METAR LFRN 110330Z AUTO VRB01KT 2800 BR FEW015 OVC025 07/07 Q1016=
METAR LFRO 110330Z AUTO 22005KT 9999 FEW036 BKN240 06/05 Q1015=
METAR LFRV 110330Z AUTO 34005KT 0150 FG VV/// 07/07 Q1016=
METAR LFRZ 110330Z AUTO VRB03KT 2100 BR SCT004 BKN009 OVC025 08/08
Q1016=
METAR LFSB 110330Z 13005KT 100V160 CAVOK 04/02 Q1017 NOSIG=
METAR LFST 110330Z AUTO 24002KT 7000 NSC M01/M01 Q1018=
METAR LFTH 110330Z AUTO 04003KT 9999 OVC030 11/08 Q1020=

0000075600
913
SAFR36 LFPW 110330
METAR LFBA 110330Z AUTO 00000KT 3400 BR BKN015 BKN160 OVC190 06/06
Q1017=
METAR LFBE 110330Z AUTO 09005KT 3900 BR OVC025 04/04 Q1017=
METAR LFGJ 110330Z AUTO 08003KT 6000 FEW017 SCT140 BKN180 02/01
Q1017=
METAR LFJR 110330Z AUTO 07003KT 2500 BR OVC002 06/06 Q1015=
METAR LFMD 110330Z AUTO VRB03KT 9999 OVC037 11/07 Q1021=
METAR LFMH 110330Z AUTO 14012KT 9999 NSC 06/04 Q1015=
METAR LFOT 110330Z VRB03KT 4000 BR FEW043 BKN100 06/05 Q1015 NOSIG=
METAR LFPN 110330Z AUTO VRB01KT 2000 -RA BR OVC003 06/05 Q1016=
METAR LFRC 110330Z AUTO 19009KT 3200 BR OVC002 07/06 Q1015=
METAR LFRG 110330Z AUTO 20008KT 8000 FEW040 BKN058 OVC078 06/05
Q1015=
METAR LFRK 110330Z AUTO 19004KT 7000 NSC 06/05 Q1015=

0000071800
914
SAFR37 LFPW 110330
METAR LFAQ 110330Z AUTO 19007KT 0150 R27/0800N FG VV/// 04/04 Q1016=
METAR LFAT 110330Z AUTO 13005KT 3700 BR OVC004 04/03 Q1015=
METAR LFLN 110330Z AUTO VRB02KT 9999 NSC 04/03 Q1015=
METAR LFPM 110330Z AUTO VRB02KT 6000 BKN003 05/05 Q1016=
METAR LFPT 110330Z AUTO 00000KT 2000 BR OVC003 05/04 Q1016=
METAR LFRH 110330Z AUTO VRB02KT 0200 0150 R25/0750N R07/0800N FG
VV/// 07/07 Q1016=
METAR LFRQ 110330Z AUTO 00000KT 1100 R28///// BR VV/// 06/06 Q1016=
METAR LFRT 110330Z AUTO 20003KT 180V240 9999 NSC 06/05 Q1015=
METAR LFSD 110330Z AUTO 00000KT 7000 BKN018 01/00 Q1017=
METAR LFTW 110330Z AUTO 09004KT 9000 FEW023 OVC034 10/06 Q1019=
METAR LFBU 110330Z NIL=

0000051600
915
SASP31 LEMM 110330
METAR LEMD 110330Z VRB01KT CAVOK 06/05 Q1016 NOSIG=
METAR LEBL 110330Z NIL=
METAR LEPA 110330Z 04006KT CAVOK 08/08 Q1017 NOSIG=
METAR LEZL 110330Z VRB02KT 8000 NSC 09/09 Q1016 NOSIG=
METAR LEMG 110330Z 29004KT 7000 FEW020 SCT070 11/11 Q1017 NOSIG=
METAR LEVC 110330Z 00000KT 6000 BKN035 10/08 Q1018 NOSIG=
METAR LEAL 110330Z 00000KT 9000 FEW015 09/07 Q1017 NOSIG=
METAR LEIB 110330Z NIL=
METAR LEVX 110330Z 00000KT 5000 BCFG FEW005 06/06 Q1016 TEMPO
3000 BCFG=

0000051100
916
SASP32 LEMM 110330
METAR LEAS 110330Z NIL=
METAR LEBB 110330Z NIL=
METAR LECO 110330Z NIL=
METAR LEGE 110330Z 00000KT 5000 BR BKN020 08/07 Q1018=
METAR LEST 110330Z VRB02KT 2000 BR NSC 05/05 Q1016 NOSIG=
METAR LEZG 110330Z 32004KT 290V350 0800 R30R/1300N R30L/1400U
BCFG VV002 05/05 Q1018=
METAR LESO 110330Z NIL=
METAR LEVT 110330Z 00000KT 6000 BKN010 BKN015 00/00 Q1018=
METAR LERS 110330Z NIL=
METAR LEMH 110330Z NIL=
METAR LEAM 110330Z NIL=
METAR LEGR 110330Z NIL=

0000025900
917
SACR31 LEMM 110330
METAR GCLP 110330Z 34010KT 9999 FEW020 15/09 Q1016 NOSIG=
METAR GCXO 110330Z NIL=
METAR GCTS 110330Z 01007KT 9999 FEW035 15/11 Q1016 NOSIG=
METAR GCRR 110330Z NIL=
METAR GCFV 110330Z NIL=
METAR GCLA 110330Z NIL=

0000010400
918
SASP39 LEMM 110330
METAR LETL 110330Z AUTO 21003KT 160V260 3300 HZ VV/// 03/03 Q1017=

0000013700
919
SASP33 LEMM 110330
METAR LEVD 110330Z NIL=
METAR LEVS 110330Z NIL=
METAR LESA 110330Z 00000KT CAVOK M01/M01 Q1016=

0000019300
920
SASP34 LEMM 110330
METAR LEDA 110330Z NIL=
METAR LEJR 110330Z VRB02KT 9999 FEW060 12/12 Q1015=
METAR LELL 110330Z NIL=
METAR LEPP 110330Z NIL=
METAR LEXJ 110330Z NIL=

0000024700
921
FTCN35 CWAO 110300 AAA
TAF AMD CYXU 110334Z 1103/1124 16006KT 1/2SM -RA FG VV002 TEMPO
     1103/1116 1/4SM -RA FG VV001
     BECMG 1109/1111 20012KT
    FM112000 24015G30KT P6SM -SHRA OVC012
    RMK NXT FCST BY 110600Z=

0000016900
922
FTDL33 EDZO 102300 RRB
TAF EDLP 110323Z 1104/1124 21008KT 9999 SCT030 TEMPO 1113/1115
     26015G25KT TEMPO 1115/1121 RA TEMPO 1115/1117 26015G30KT=

0000016900
923
FTDL34 EDZO 102300 RRB
TAF EDLP 110323Z 1104/1124 21008KT 9999 SCT030 TEMPO 1113/1115
     26015G25KT TEMPO 1115/1121 RA TEMPO 1115/1117 26015G30KT=

0000009400
924
SACZ31 LKPW 110330 RRA
METAR LKPR 110330Z 21006KT CAVOK 01/M01 Q1017 NOSIG=

0000012700
925
SACN62 CYYG 110300 CCB
METAR CYYG 110300Z CCB 22004KT 15SM FEW015 BKN200 M04/M05 A3026 RMK
 SC2CI3 SLP251=

0000026100
926
SANZ31 NZKL 110330
METAR NZAA 110330Z AUTO 25009KT 9999 OVC043/// 20/14 Q1018 NOSIG=
METAR NZWN 110330Z AUTO 33012KT 300V010 9999 NCD 21/12 Q1015 NOSIG=
METAR NZCH 110330Z AUTO 07014KT 030V100 9999 OVC019/// 17/12 Q1014
          NOSIG=

0000009500
927
SAIN90 VOHS 111540
METAR VOHS 111540Z 11003KT 5000 HZ SCT020 21/15 Q1018 NOSIG=
0000009200
928
SAIN90 VANP 111540
METAR VANP 111540Z 03005KT 4000 HZ NSC 19/14 Q1017 NOSIG=
00000000