0000089400
695
GTAC10 KWBC 111200
GRID 07001 10101
111 10400 21099 61401 71112 81012 09999
333 11513 22020
0119 000000 77777879797877777674747573737374737374
0219 000010 78787878797774737170707172727372737169
0319 000020 69727575767372686363646568687069686665
0419 000030 60646570717167666360596061616363636158
0519 000040 57586266686567656359575555555658595856
0619 000050 57565862656566646259575453515254565655
0719 000060 59606262656665666461585451515253555555
0819 000070 64656466676768666562595856545655565454
0919 000080 67676869697068676664636260595960565755
1019 000090 69707171707069696867676666656362616059
1119 000100 70717172727271717171707070696968686766
1219 000110 70717172737373737373747574747473727271
1319 000120 71727373737575757676747677777777767676
1419 000130 72727374747474747575767676777777777676
9901 000140 74
555 07001 10101
777
0000011100
696
UANT01 CWAO 111534
ARP DAH2700 4826N02317W 1533 F330 MS50 194/77 KT
7TVJZ QXT AOE 111534 J20A
0000011000
697
UANT01 CWAO 111534
ARP DLH428 5021N03724W 1534 F370 MS54 300/41 KT
DAIKP QXT AME 111534 J56A
0000011000
698
UANT01 CWAO 111534
ARP BAW60T 4907N02317W 1534 F360 MS52 188/66 KT
GVIIO QXT AOE 111534 F16A
0000033400
699
SIIR24 OIII 111500 RRB
AAXX 11151
40858 41556 81205 10128 20117 30159 40170 55005 72196 8192/ 333
1//// 8//// 8//// 8//// 555 10122 29093 66666 00124 10140 20146
40858 41556 81205 10128 20117 30159 40170 55005 72196 8192/ 333
10158 8//// 8//// 8//// 555 10122 29093 66666 00124 10140 20146
30144 50168 90192=
0000216900
700
SZNZ01 NZKL 111536
CREX++
T000103 A001 D01021 D06025++
-3683144 17478654 AUCT  2014 01 11 15 28 //// 11 07 00 01
05947 3178 05950 3178 05952 3178 05954 3177 05957 3177 05958 3176+
-4402404 -17636748 CHIT  2014 01 11 15 28 //// 11 07 00 01
05186 2089 05179 2085 05166 2076 05176 2088 05192 2108 05164 2083+
-4089929 17623168 CPIT  2014 01 11 15 28 //// 11 07 00 01
04352 2280 04349 2280 04344 2278 04314 2252 04317 2259 04312 2257+
-3618905 17548887 GBIT  2014 01 11 15 28 //// 11 07 00 01
06366 -0006 06366 -0008 06375 0000 06378 0002 06368 -0008 06365 -0013+
-3867541 17802288 GIST  2014 01 11 15 28 //// 11 07 00 01
04515 2733 04516 2736 04515 2736 04528 2752 04516 2742 04523 2751+
-4241288 17370277 KAIT  2014 01 11 15 28 //// 11 07 00 01
03739 2226 03730 2220 03720 2215 03721 2220 03707 2210 03707 2214+
-3755040 17815904 LOTT  2014 01 11 15 28 //// 11 07 00 01
04005 0187 04009 0191 04001 0184 04009 0192 04008 0191 03999 0182+
-3704657 17451175 MNKT  2014 01 11 15 28 //// 11 07 00 01
02421 -0120 02439 -0109 02463 -0092 02455 -0107 02456 -0112 02472 -0104+
-3947566 17692007 NAPT  2014 01 11 15 28 //// 11 07 00 01
03479 1988 03472 1984 03475 1989 03477 1994 03462 1982 03460 1983+
-3441483 17304870 NCPT  2014 01 11 15 28 //// 11 07 00 01
-03897 -8743 -03875 -8725 -03859 -8712 -03879 -8735 -03966 -8826 -04003 -8866+
-4581435 17062939 OTAT  2014 01 11 15 28 //// 11 07 00 01
04724 3446 04715 3444 04707 3442 04701 3442 04694 3442 04689 3443+
-2928002 -17789440 RBCT  2014 01 11 15 28 //// 11 07 00 01
06314 1966 06314 1966 06313 1964 06307 1958 06311 1961 06319 1969+
-2925114 -17790384 RFRT  2014 01 11 15 28 //// 11 07 00 01
03277 0145 03281 0148 03269 0135 03271 0137 03270 0135 03290 0154+
-4357010 17277383 SUMT  2014 01 11 15 28 //// 11 07 00 01
02365 1777 02350 1767 02353 1776 02336 1765 02340 1775 02321 1762+
-3764109 17618118 TAUT  2014 01 11 15 28 //// 11 07 00 01
05588 3957 05583 3951 05587 3953 05587 3953 05592 3956 05597 3960+
-4128448 17477985 WLGT  2014 01 11 15 28 //// 11 07 00 01
03428 2005 03428 2009 03429 2013 03421 2008 03425 2016 03419 2014++
7777
0000117600
701
SIRA22 RUHB 111500
AAXX 11151
30499 42999 32803 11318 21361 39633 40376 54000 80005=
30683 429// 30000 11317 21362 39650 40384 52004 80001=
31253 42999 80000 11306 21336 39764 40277 54000 8801/=
31295 42999 03004 11281 21353 39804 40310 52005=
31348 41998 80000 11318 21323 39970 40188 54/// 77172 80007=
31418 42998 80000 11305 21338 39905 40189 50000 80026=
31439 42999 61804 11245 21277 30088 40136 58002 84041=
31442 42997 03002 11278 21333 39884 40276 53002=
31445 42984 02903 11301 21339 39990 40274 56001=
30695 42999 03204 11276 21348 39966 40341 53005=
31474 42999 00000 11393 21436 39709 40266 58///=
31521 42981 02601 11332 21350 39947 40277 57005=
31527 42998 03001 11310 21348 39932 40272 54000=
31534 41999 80000 11341 21359 39876 40267 57001 70272 80007=
31587 42998 02701 11350 21374 30127 40296 58002=
31632 42999 60000 11322 21346 39804 40203 54/// 80004=
31702 42998 00301 11390 21434 39890 40278 57008=
31713 42999 02602 11312 21371 30108 40223 57006=
31725 42998 02804 11281 21354 30134 40205 57005=
31801 42998 00000 11313 21350 39967 40222 57///=
31832 42964 00000 11290 21318 30143 40239 57009=
0000058200
702
SIRA28 RUHB 111500
AAXX 11151
31825 42684 20000 11287 21327 39958 40189 57004 82500=
31845 42998 00000 11266 21284 30058 40239 58004=
31878 41960 80000 11171 21215 30101 40234 58008 77072 8807/=
31915 42998 02702 11164 21204 39939 40231 56007=
31921 41996 80303 11140 21170 30125 40229 56004 77187 8802/=
31969 82598 82801 11087 21194 30172 40223 57014 86541=
31981 42999 82301 11164 21213 39974 40226 57018 80005=
31987 42999 20501 11142 21204 39953 40228 57015 80001=
32069 41596 81104 11225 21243 30130 40136 58001 78582 889// 333 91005
91106=
0000242500
703
SIRA23 RUHB 111500
AAXX 11151
30669 42999 02503 11334 21385 39456 40450 51002=
30731 429// 20901 11188 21207 39737 40395 57002 80001=
30745 429// 81301 11318 21348 39155 40461 58004 80005=
30764 429// 00000 11395 21423 39554 40492 52004=
30829 42984 80000 11235 21260 39673 40433 53004 80007=
30838 42998 20000 11264 21276 39356 40450 52004 82040=
30846 41997 82701 11299 21337 39436 40463 54000 70411 80006=
30859 42999 02301 11343 21371 39509 40474 53012=
30862 42984 02703 11329 21388 39609 40455 52005=
30957 429// 40000 11313 21330 39451 40471 51002 84030=
30975 42998 00801 11338 21362 39693 40437 52008=
24076 41497 80903 11243 21268 39925 40320 54000 77172 84607=
24194 41998 60201 11228 21240 30256 40314 58003 70272 86020=
24219 NIL=
24261 42998 72802 11344 21367 39638 40337 58002 87030=
24263 41698 80000 11402 21415 30031 40351 58007 77172 86507 333
86643=
24322 42997 01802 11312 21324 39605 40307 57008=
24338 42999 01801 11445 21464 39883 40343 58012=
24361 41998 83402 11367 21388 30040 40335 58007 77172 86077=
24371 42999 00000 11477 21500 39960 40383 53004=
24449 42999 20000 11485 21505 30264 40380 57003 80001=
24462 42899 80000 11300 21330 39257 40313 57005 8801/=
24477 42999 50000 11385 21420 39389 40350 53002 85070=
24525 42999 00000 11497 21512 30001 40392 57011=
24538 42998 00000 11498 21522 30150 40368 57010=
24557 42999 00000 11492 21518 30253 40387 54000=
24585 42998 32301 11442 21469 39591 40359 52004 83030=
24588 42999 00000 11450 21467 39497 40367 52008=
24643 42999 51401 11465 21485 30262 40381 57001 80001=
24644 42998 01501 11428 21455 30205 40381 58012=
24668 42999 00000 11487 21518 30254 40396 52003=
24679 42998 20502 11285 21304 38589 48365 52004 80005=
24684 42998 00000 11459 21475 39244 40377 51004=
24691 42999 80000 11402 21416 39196 40331 58002 80006=
24725 42999 01601 11381 21423 39998 40382 57011=
24726 42999 32101 11426 21475 39869 40405 57006 80001=
24737 41996 00000 11475 21505 30190 40407 57010 71000=
24739 42999 01801 11420 21444 39944 40406 52001=
24753 41993 00000 11462 21485 30254 40394 57002 74440=
24758 42998 00000 11483 21511 30056 40415 54000=
24763 42999 50000 11450 21478 30227 40404 52002 80001=
24771 42997 00801 11494 21518 39965 40412 54000=
24826 42999 02502 11378 21412 39888 40407 57009=
24843 42998 00000 11478 21500 30105 40414 57005=
0000020800
704
SIVD15 KWNB 111500 RRO
BBXX
41009 11151 99285 70802 46/// /2009 10241 20211 40190 91520 22200
00240 333 91211 555 11100 22106 31513 42011 61519 197092 197089
198087 200087 197088 198088=
0000066600
705
SAAE31 VTBB 111530
METAR VTBS 111530Z 30002KT CAVOK 27/16 Q1015 NOSIG=
METAR VTBD 111530Z 28003KT 220V320 CAVOK 27/19 Q1015 NOSIG=
METAR VTCC 111530Z 24003KT CAVOK 20/16 Q1019 A3009 NOSIG=
METAR VTBU 111530Z 03003KT 3000 BR NSC 24/21 Q1014 A2997=
METAR VTSS 111530Z 05006KT 9999 FEW020 SCT120 BKN300 25/22 Q1014
           A2995 NOSIG=
METAR VTSP 111530Z VRB01KT 8000 FEW020 SCT120 BKN300 26/21 Q1014
A2996 NOSIG=
METAR VLVT 111530Z 34002KT 3000 BR NSC 22/18 Q1017 NOSIG=
METAR VYMD 111530Z NIL=
METAR VYYY 111530Z NIL=
METAR VDPP 111530Z 36004KT 9000 NSC 27/19 Q1013=
METAR VDSR 111530Z 04001KT 9000 FEW020 24/19 Q1014 NOSIG=
0000112400
706
UDFR01 LFPW 111535
AMDAR 1115
ASC EU4010 4327N 00511E 111518 F008 PS112 /// 114/004 TB0 S031
333 F008 VG009=
ASC EU4010 4328N 00510E 111519 F016 PS095 /// 161/004 TB3 S031
333 F016 VG120=
ASC EU4010 4328N 00509E 111519 F019 PS082 /// 158/004 TB0 S031
333 F019 VG002=
ASC EU4010 4329N 00508E 111519 F024 PS072 /// 144/005 TB2 S031
333 F024 VG053=
ASC EU4010 4330N 00507E 111520 F037 PS045 /// 149/001 TB1 S031
333 F037 VG036=
UNS EU4010 4331N 00505E 111520 F050 PS012 /// 267/000 TB2 S031
333 F050 VG056=
ASC EU4010 4333N 00503E 111521 F065 PS045 /// 264/003 TB2 S031
333 F065 VG036=
ASC EU4010 4334N 00502E 111521 F077 PS032 /// 231/004 TB0 S031
333 F077 VG003=
ASC EU4010 4335N 00501E 111521 F088 PS002 /// 209/008 TB0 S031
333 F088 VG008=
ASC EU4010 4341N 00459E 111522 F111 MS060 /// 213/015 TB0 S031
333 F111 VG006=
ASC EU4010 4344N 00500E 111523 F130 MS095 /// 237/019 TB2 S031
333 F130 VG027=
ASC EU4010 4408N 00501E 111527 F222 MS302 /// 250/033 TB0 S031
333 F222 VG005=
ASC EU4010 4427N 00501E 111529 F272 MS437 /// 237/032 TB0 S031
333 F272 VG001=
0000011100
707
SIVF21 ESWI 111500 RRC
BBXX
SBPQ 11151 99656 10222 46/// /0307 11170 40131 52005 22201 00007=
0000011100
708
SIVF21 ESWI 111500 RRD
BBXX
SDIA 11151 99656 10222 46/// /0105 11170 40132 52005 22201 00009=
0000323800
709
SICI01 KWBC 111500 RRC
AAXX 11151
50434 32/// 93202 11323 21359 40412 52005=
50527 32/// 92503 11344 21378 40444 52013=
50603 33/// 92903 11272 21360 40436 52012=
50632 32/// 92703 11298 21358 40373 52010=
50727 32/67 93401 11336 21366 40422 52015=
50915 42/65 93401 11236 21275 40428 52015=
51716 32/// 91601 11095 21136 40456 52006=
51765 32/// 92701 11122 21178 40468 57003=
51777 32/// 90000 11124 21196 40461 57003=
51811 32/// 90901 11078 21138 40446 52005=
51828 32/// 90401 11068 21123 40433 54000=
52267 42/// 92502 11100 21226 40441 57001=
52323 32/// 92506 11125 21232 38326 57005=
52495 42/// 90201 11143 21242 40462 52005=
53149 42/80 93203 11157 21254 40443 52008=
53192 32/67 93402 11205 21254 40440 52013=
53231 42/80 91604 11169 21253 38600 52006=
53336 32/// 93202 11130 21224 40439 52012=
53391 42/80 92903 11175 21250 40413 52009=
53529 42/71 93203 11111 21232 40430 52007=
53543 42/// 93402 11111 21220 40413 52010=
53723 42/64 92901 11106 21228 40430 52011=
54012 42/70 92702 11225 21275 40421 52021=
54026 32/71 92904 11157 21265 40353 52023=
54027 32/// 93402 11133 21227 40365 52023=
54208 42/// 92904 11155 21240 40385 52014=
54776 41/22 92703 10013 21056 40300 57004 705//=
56004 32/80 92704 11157 21221 35807 52010=
56033 33/// 90707 11162 21240 36002 52004=
56046 42/80 91602 11125 21160 36246 57001=
55299 32/// 92201 11099 21235 35833 52011=
56739 32/// 91403 10059 20022 38346 52014=
57328 41/19 90401 10047 20034 40337 52021 710//=
57411 33/// 91801 10068 20046 40342 52023=
57662 32/// 92901 10036 20021 40341 52012=
58314 33/// 92702 10040 20005 40323 52007=
59023 32/// 92701 10078 20071 40296 52018=
59417 32/// 91102 10138 20125 40250 52019=
59985 42/61 90406 10234 20209 40192 52007=
54836 41/22 91401 11015 21063 40320 52006 705//=
54863 31/25 92901 11014 21042 40302 57006 710//=
54929 41/27 90701 11013 21064 40316 52006 705//=
54945 33/// 92902 10011 21032 40314 52004=
55591 42/71 92902 11022 21083 36496 52006=
56951 33/// 90000 10092 20006 38544 52016=
56964 33/// 90000 10123 20105 40190 52013=
57447 43/// 92701 10044 20035 40340 52012=
57745 31/30 90702 10040 20019 40345 52019 71000=
57972 41/// 93402 10047 20029 40330 52022 760//=
58203 31/16 92501 10008 21008 40325 52011 710//=
58345 41/15 90902 10045 20035 40304 57002 710//=
58424 31335 93403 10034 20027 40315 52007 710//=
58556 41/13 90000 10059 20056 40292 57007 728//=
58569 41/24 93606 10059 20058 40283 57006 710//=
58646 41/35 91801 10080 20068 40283 57002 710//=
58754 33/// 93401 10112 20061 40272 57004=
58834 32/61 93602 10133 20080 40262 52010=
58911 31/56 92702 10108 20067 40262 52016 705//=
58926 33/// 91401 10127 20097 40257 52013=
58944 32/73 93603 10129 20090 40254 52001=
59096 33/// 91401 10119 20098 40252 52018=
59278 33/// 91801 10148 20106 40241 52013=
59456 33/45 92501 10170 20145 40236 52014=
59493 33/57 90402 10153 20124 40242 52012=
59632 33/// 93403 10135 20099 40248 52018=
59658 33/// 90703 10159 20139 40231 52011=
59673 33/// 90204 10176 20152 40236 52011=
59845 32/60 91102 10196 20168 40218 52012=
59855 32/56 93201 10200 20185 40216 52007=
0000151800
710
SIKR01 KWBC 111500
AAXX 11151
47014 42950 00000 11175 21187 39837 40276 57002=
47016 42770 10000 11174 21215 39370 40285 54000 81030=
47020 42965 00000 11142 21162 39922 40330 52009=
47022 42475 13407 11119 21191 38834 54000 81500=
47025 42960 03601 11061 21135 30217 40248 57002=
47028 42962 01801 11082 21119 30190 40290 52010=
47031 42970 03203 11107 21170 38943 57005=
47041 42970 02302 11002 21098 30220 40242 57005=
47046 42969 00000 11037 21153 30231 40255 54000=
47050 42965 60000 11072 21125 30238 40273 54000 80002=
47055 42970 12703 10008 21090 30217 40264 57005 80001=
47058 42560 71401 11025 21051 30238 40287 57006 87500=
47065 42565 80901 11011 21043 30235 40302 53005 88532=
47067 42965 00000 11052 21105 30198 40325 57002=
47069 41556 80000 11012 21045 30189 40292 57004 71022 885//=
47070 42970 00000 11043 21066 30204 40295 57014=
47003 42980 30000 11119 21146 30225 40229 58013 83030=
47005 42970 72301 11143 21186 38600 53004 87002=
47008 42970 00000 11054 21100 30167 40223 58004=
47035 41960 60000 11063 21109 30276 40285 52001 71000 86030=
47037 42970 00000 11094 21129 30172 40304 54000=
47039 41556 80502 11096 21126 30100 40303 54000 71022 85501=
47052 42565 60000 11060 21079 39937 40293 57004 86500=
47060 42760 62703 10001 21027 30226 40286 57003 86030=
47061 42980 02303 10012 21090 30218 40263 54000=
47068 41560 80703 11025 21038 30257 40293 58006 77772 83502=
47075 42980 82304 11052 21077 39968 40420 57004 80003=
0000047900
711
SIVD19 KWNB 111500 RRD
BBXX
46126 11151 99540 71666 46/// /2306 10035 49802 91506 22200 00048
1//00 70002 333 91209 555 11068 22074=
46126 11151 99540 71666 46/// /2306 10035 49802 91510 22200 00048
1//00 70002 333 91209 555 11068 22074=
46126 11151 99540 71666 46/// /2306 10035 49802 91512 22200 00048
1//00 70002 333 91209 555 11062 22067=
46126 11151 99540 71666 46/// /2306 10041 49801 91515 22200 00048
1//00 70002 333 91209 555 11062 22067=
0000042500
712
SIVD20 KWNB 111500 RRP
BBXX
44039 11151 99411 70727 46/// /1909 10094 20093 91500 333 91211
555 11108 22129=
44060 11151 99413 70721 46/// /1808 10087 20085 40138 56037 91500
22200 00043 333 91210 555 11093 22103=
44022 11151 99409 70737 46/// /1809 10111 20109 91515 333 91213
555 11108 22124=
44040 11151 99410 70736 46/// /1910 10108 20108 91515 22200 10301
70006 333 91214 555 11124 22144=
0000013600
713
SIVD17 CWVR 111500
BBXX
46181 11151 99538 71288 46/// /2602 1//// 49823 52001
22200 00040 10300 70000 333 91203 =

0000013600
714
SIVD17 CWVR 111500
BBXX
46184 11151 99539 71389 46/// /3011 10053 49933 52030
22200 00072 11107 70035 333 91214 =

00000000