0000166800
349
SAUS74 KWBC 110400 RRA
METAR
KLGB 110353Z 00000KT 4SM HZ CLR 14/11 A3008=
KLMT 110353Z 00000KT 10SM SCT039 OVC065 03/00 A3014=
KLVM 110353Z AUTO 27021KT 10SM CLR 03/M08 A2980=
KMFR 110353Z 00000KT 4SM BR CLR 06/04 A3013=
KMLS 110353Z AUTO 31009KT 10SM CLR M01/M05 A2967=
KMRY 110354Z 00000KT 5SM BR OVC002 12/11 A3020=
KMSO 110353Z 08004KT 10SM OVC060 01/M01 A2994=
KMYV 110353Z AUTO 13003KT 9SM CLR 08/03 A3020=
KNTD 110354Z 00000KT 7SM FEW220 13/11 A3007=
KOAK 110353Z 00000KT 10SM FEW250 11/08 A3021=
KOGD 110353Z 23005KT 10SM OVC055 04/M03 A3014=
KOLM 110354Z 20012G23KT 6SM -RA BR BKN013 BKN035 OVC046 09/08
     A2977=
KONT 110353Z 00000KT 6SM HZ FEW250 16/06 A3009=
KOTH 110355Z 19007KT 10SM OVC022 12/10 A3003=
KPAE 110353Z 15010G17KT 10SM SCT023 BKN035 OVC045 08/04 A2976=
KPDX 110353Z 17011KT 10SM OVC030 12/06 A2993=
KPHX 110351Z 00000KT 10SM FEW250 14/M01 A3010=
KPIH 110353Z 24019KT 10SM SCT090 02/M03 A3008=
KPMD 110353Z AUTO 00000KT 10SM CLR 09/M03 A3015=
KPRB 110353Z AUTO 00000KT 10SM CLR 11/03 A3018=
KPRC 110353Z 27004KT 10SM CLR 06/M07 A3019=
KPSP 110353Z 29003KT 10SM CLR 14/M04 A3013=
KRBL 110354Z AUTO 00000KT 10SM CLR 08/03 A3019=
KRDD 110353Z 00000KT 10SM CLR 08/03 A3018=
KRDM 110356Z 19011KT 10SM BKN070 08/M03 A2999=
KRNO 110355Z 23003KT 10SM FEW180 BKN250 06/M01 A3025=
KRNT 110353Z AUTO 13006KT 8SM -RA OVC036 08/07 A2978=
KSAC 110353Z AUTO 00000KT 10SM CLR 08/06 A3021=
KSAN 110351Z 00000KT 7SM CLR 16/08 A3010=
KSBA 110353Z 05003KT 10SM CLR 12/09 A3006=
KSBD NIL=
KSBP 110356Z 00000KT 10SM CLR 14/04 A3014=
KSCK 110355Z 00000KT 10SM CLR 09/04 A3020=

0000087000
350
SAUS74 KWBC 110400 RRB
METAR
KSEA 110353Z 14011KT 10SM -RA OVC029 08/06 A2978=
KSFF 110353Z 20008KT 10SM OVC060 05/01 A2991=
KSFO 110356Z 28009KT 10SM SCT200 11/08 A3020=
KSHR 110353Z AUTO 32021G30KT 10SM SCT075 OVC100 03/M06 A2973=
KSJC 110353Z 29003KT 10SM FEW200 12/07 A3021=
KSLC 110353Z 12007KT 10SM BKN060 OVC090 04/M01 A3014=
KSMF 110353Z 00000KT 10SM CLR 08/03 A3021=
KSMX 110351Z AUTO 34009KT 10SM CLR 14/06 A3013=
KSNA 110353Z 00000KT 4SM HZ SCT250 14/11 A3008=
KSNS 110353Z 28004KT 3SM BR OVC003 11/11 A3020=
KTIW 110353Z 14007KT 10SM -RA OVC024 08/06 A2977=
KTUS 110353Z 18003KT 10SM CLR 11/M05 A3015=
KTVL 110353Z AUTO 19003KT 10SM CLR 00/M04 A3027=
KTWF 110353Z AUTO 20008KT 10SM OVC048 04/M02 A3012=
KUKI 110356Z AUTO 00000KT 9SM CLR 08/02 A3020=
KYKM 110353Z 13006KT 10SM FEW070 08/01 A2987=
KYUM NIL=

0000167000
351
SAUS75 KWBC 110400
METAR
PABA 110401Z AUTO 28027G33KT 1/4SM +SN FZFG BKN006 OVC010 M24/M27
     A2980=
PABE 110353Z 04005KT 10SM CLR M14/M14 A2940=
PABI 110353Z 00000KT 10SM BKN024 BKN060 OVC070 M18/M20 A2947=
PABR 110353Z 30011KT 6SM BR OVC006 M23/M25 A2983=
PABT 110353Z 00000KT 10SM CLR M34/M37 A2964=
PACV 110353Z 00000KT 4SM BR OVC033 M03/M03 A2928=
PACZ 110355Z AUTO 10025G34KT 10SM FEW035 M08/M11 A2936=
PADK 110356Z AUTO 21027G36KT 10SM SCT029 BKN039 OVC080 03/M02
     A2877=
PADL NIL=
PADU 110356Z 00000KT 10SM -RA BKN020 BKN035 OVC055 04/01 A2904=
PAEH 110355Z AUTO 14016G24KT 1/2SM SN BR VV003 00/M01 A2930=
PAEI 110355Z 00000KT 10SM FEW007 M28/M32 A2955=
PAEN 110353Z 36003KT 10SM OVC006 M04/M04 A2937=
PAFA 110353Z 00000KT 10SM SCT090 M30/M34 A2957=
PAFB 110355Z 00000KT 7SM FEW100 M31/M34 A2957=
PAGA 110358Z AUTO 00000KT 10SM CLR M31/M34 A2967=
PAGK 110353Z AUTO 34005KT 4SM BR FEW050 OVC085 M12/M14 A2926=
PAGS 110356Z AUTO 09003KT 10SM BKN037 OVC044 02/00 A2933=
PAGY 110353Z AUTO 21020G25KT 10SM OVC075 03/M01 A2931=
PAHO 110353Z 04006KT 10SM BKN014 OVC030 M01/M03 A2935=
PAIL 110353Z 31003KT 10SM OVC010 M05/M06 A2942=
PAJN 110353Z 07005KT 10SM BKN040 OVC055 02/00 A2935=
PAKN 110354Z 34004KT 10SM FEW004 SCT025 BKN130 M05/M05 A2937=
PAKT 110353Z 00000KT 10SM BKN037 02/01 A2928=
PALU 110355Z AUTO 08008KT 10SM OVC009 M19/M20 A2997=
PAMC 110353Z AUTO 30003KT 10SM OVC026 M17/M19 A2954=
PANC 110353Z 34004KT 10SM FEW006 BKN014 OVC025 M04/M06 A2935=
PANT 110353Z AUTO 06008G17KT 10SM SCT050 OVC110 03/M01 A2924=
PAOM 110353Z 03012KT 10SM BLSN FEW032 SCT100 M14/M20 A2963=

0000143900
352
SAUS75 KWBC 110400 RRA
METAR
PAOM 110353Z COR 03012KT 10SM DRSN FEW032 SCT100 M14/M20 A2963=
PAOR 110353Z 00000KT 2SM -SN OVC022 M17/M19 A2934=
PAOT 110353Z 03005KT 10SM CLR M19/M25 A2975=
PAPG NIL=
PASC 110353Z 24018KT 3/4SM R05/P6000FT -SN BR OVC008 M28/M31
     A2982=
PASI 110353Z 10004KT 10SM CLR 01/00 A2932=
PASN 110353Z AUTO 09012KT 10SM CLR 01/M01 A2906=
PATA 110352Z 00000KT 10SM CLR M34/ A2964=
PATC 110355Z AUTO 03021KT 10SM SCT002 BKN003 M19/M20 A2972=
PATK 110353Z AUTO 00000KT 10SM OVC020 M07/M09 A2934=
PAUN 110356Z AUTO 09011KT 10SM CLR M15/M22 A2957=
PAVD 110356Z 10SM BKN150 M06/M09 A2930=
PAYA 110353Z AUTO 07003KT 1/2SM R11/P6000FT FZFG VV002 M01/M01
     A2931=
PGRO 110352Z COR 05018G25KT 7SM SCT030 BKN120 27/23 A2988=
PGRO 110352Z 05018G25KT 7SM SCT030 BKN120 28/23 A2988=
PGUA 110358Z AUTO 06018G24KT 10SM SCT015 28/24 A2987=
PGUM 110354Z 06015KT 10SM FEW029 SCT041 29/22 A2987=
PHJH 110350Z 02010KT 15SM FEW020 23/17 A2991=
PHLI 110353Z 03015G28KT 6SM -RA BR FEW021 BKN031 BKN042 22/20
     A2994=
PHMK 110354Z 05009G16KT 10SM CLR 23/20 A2991=
PHNL 110353Z 07009KT 10SM FEW029 SCT055 24/18 A2991=
PHNY 110356Z AUTO 12003KT 10SM CLR 22/18 A2996=
PHOG 110354Z 05011G17KT 10SM FEW030 24/19 A2990=
PHTO 110353Z 00000KT 10SM FEW024 23/19 A2992=
PMDY 110356Z AUTO 11011KT 5SM HZ CLR 22/17 A3011=
PWAK 110355Z 07011KT 10SM FEW025 28/28 A2994=

0000016700
353
SAUS75 KWBC 110300 RRF
METAR
PAHO 110335Z 05004KT 3SM -SN BKN014 OVC028 M01/M04 A2936=
PAHO 110323Z 02004KT 2SM -SN SCT012 OVC020 M01/M03 A2936=

0000027700
354
FTFR31 LFPW 102300 AAH
TAF AMD LFPO 110407Z 1104/1206 10004KT 6000 SCT005 BKN040 TEMPO
1104/1106 1500 -RA BKN004 BECMG 1105/1108 20006KT BKN016 TEMPO
1106/1109 4000 BR BKN004 BECMG 1112/1115 SCT016 BECMG 1120/1123
02004KT BKN006 TEMPO 1200/1206 BKN003=

0000039600
355
FTUS43 KWBC 110409 AAA
TAF AMD
KGRB 110408Z 1104/1124 16005KT 3SM RA BR OVC008
      TEMPO 1104/1108 2SM -FZRASN BR OVC004
     FM110800 27005KT 2SM -RASN BR OVC006
      TEMPO 1108/1110 1SM -FZRASN BR
     FM111000 24007KT 2SM -SN BR OVC006
     FM111500 30006KT 6SM -SN BKN007 OVC020
     FM111900 29010KT P6SM BKN020 BKN040
     FM112300 26008KT P6SM BKN050=

0000045900
356
FTUS72 KWBC 110409 AAA
TAF AMD
KNEW 110406Z 1104/1124 16010KT 2SM BR BKN002 OVC015
      TEMPO 1105/1109 2SM TSRA OVC006CB
     FM110900 22015KT 3SM -RA BR OVC002
     FM111200 27013KT 2SM BR OVC003
     FM111600 30012KT P6SM SCT250=
KSHV 110408Z 1104/1124 21006KT P6SM SCT020 OVC040
      TEMPO 1104/1106 OVC015
     FM110600 23012G18KT P6SM VCSH BKN020
     FM110900 27007KT P6SM SKC
     FM111700 29014G22KT P6SM SKC=

0000045900
357
FTUS42 KWBC 110409 AAA
TAF AMD
KNEW 110406Z 1104/1124 16010KT 2SM BR BKN002 OVC015
      TEMPO 1105/1109 2SM TSRA OVC006CB
     FM110900 22015KT 3SM -RA BR OVC002
     FM111200 27013KT 2SM BR OVC003
     FM111600 30012KT P6SM SCT250=
KSHV 110408Z 1104/1124 21006KT P6SM SCT020 OVC040
      TEMPO 1104/1106 OVC015
     FM110600 23012G18KT P6SM VCSH BKN020
     FM110900 27007KT P6SM SKC
     FM111700 29014G22KT P6SM SKC=

0000060400
358
FTUS73 KWBC 110409 AAA
TAF AMD
KCGI 110407Z 1104/1124 18010KT P6SM -RA OVC070
     FM110500 17012KT 3SM SHRA BR OVC015
      TEMPO 1105/1107 2SM SHRA BR OVC008
     FM110700 24012KT P6SM BKN025
     FM111200 27010KT P6SM SCT040=
KGRB 110408Z 1104/1124 16005KT 3SM RA BR OVC008
      TEMPO 1104/1108 2SM -FZRASN BR OVC004
     FM110800 27005KT 2SM -RASN BR OVC006
      TEMPO 1108/1110 1SM -FZRASN BR
     FM111000 24007KT 2SM -SN BR OVC006
     FM111500 30006KT 6SM -SN BKN007 OVC020
     FM111900 29010KT P6SM BKN020 BKN040
     FM112300 26008KT P6SM BKN050=

0000026300
359
FTBZ42 KWBC 110406
TAF
TAF SBMO 110400Z 1106/1206 32005KT 9999 SCT020 TN23/1107Z
      TX30/1114Z RMK PDG=
TAF SBVT 110400Z 1106/1206 35005KT 9999 SCT020 TN24/1107Z
      TX30/1115Z PROB30
      TEMPO 1110/1113 4000 RA SCT006 RMK PDG=

0000086900
360
FTUS54 KWBC 110406 AAA
TAF AMD
KCOE 110402Z 1104/1124 20009KT P6SM -RA SCT008 OVC040
     FM110700 20012KT 6SM RA BR OVC008 WS020/21040KT
     FM111200 20025G35KT P6SM -RA BKN010 OVC025
     FM112100 20030G42KT P6SM -RA BKN019 BKN040 AMD LTD TO CLD VIS
      AND WIND=
KLWS 110404Z 1104/1124 18006KT P6SM -RA OVC040
     FM110700 16013G22KT P6SM -SHRA BKN035 OVC040
     FM111300 17017G26KT P6SM -SHRA BKN030 OVC050
     FM112100 22020G30KT P6SM -SHRA BKN030 BKN050=
KPUW 110403Z 1104/1124 21015G20KT P6SM -RA BKN028
     FM110800 17022G34KT 6SM -SHRA BR SCT008 OVC020
     FM111600 18022G25KT 6SM -RA BR SCT005 OVC030
     FM112100 22030G42KT 6SM -RA BKN019 BKN040=
KSBA 110404Z 1104/1124 VRB03KT P6SM SCT250
     FM110800 VRB03KT 4SM BR SCT250
     FM111800 VRB03KT 5SM HZ SCT250
     FM112100 22006KT P6SM SCT250=

0000094400
361
SAAK32 KWBC 110400
METAR
PABA 110401Z AUTO 28027G33KT 1/4SM +SN FZFG BKN006 OVC010 M24/M27
     A2980=
PABI 110353Z 00000KT 10SM BKN024 BKN060 OVC070 M18/M20 A2947=
PACZ 110355Z AUTO 10025G34KT 10SM FEW035 M08/M11 A2936=
PADK 110356Z AUTO 21027G36KT 10SM SCT029 BKN039 OVC080 03/M02
     A2877=
PADL NIL=
PADQ 110353Z 00000KT 10SM FEW040 SCT250 M02/M06 A2938=
PAEH 110355Z AUTO 14016G24KT 1/2SM SN BR VV003 00/M01 A2930=
PAFB 110355Z 00000KT 7SM FEW100 M31/M34 A2957=
PAGA 110358Z AUTO 00000KT 10SM CLR M31/M34 A2967=
PAIM 110355Z AUTO 16004KT 10SM CLR M23/M26 A2954=
PALU 110355Z AUTO 08008KT 10SM OVC009 M19/M20 A2997=
PASV 110355Z AUTO 11002KT 2SM -SHSN BR VV006 M13/M13 A2934=
PASY 110356Z AUTO 33022G30KT 2 1/2SM -SN BR BKN009 OVC013 M01/M01
     A2885=
PATC 110355Z AUTO 03021KT 10SM SCT002 BKN003 M19/M20 A2972=
PATL 110355Z AUTO 09002KT 10SM -SHSN OVC018 M17/M18 A2950=
PBTI NIL=

0000009700
362
SPUS31 KWBC 110413
SPECI
KIND 110409Z 17006KT 2SM -RA BR OVC003 03/03 A2968=

0000010200
363
SPUS41 KWBC 110413
SPECI
KCEF 110410Z AUTO 03001KT 1 3/4SM BR OVC003 00/00 A3026=

0000009900
364
SPUS41 KWBC 110413
SPECI
KINT 110409Z AUTO 05005KT 3/4SM BR VV002 04/03 A3011=

0000011300
365
SPUS41 KWBC 110413
SPECI
KWRI 110410Z AUTO 08005KT 1 1/4SM R06/2400FT BR OVC003 04/04 A3020=

0000010200
366
SPUS42 KWBC 110413
SPECI
KPDK 110409Z AUTO 10004KT 1 1/4SM BR OVC002 08/07 A3003=

0000010200
367
SPEO32 EETN 110414
SPECI EETU 110414Z 29010KT 6000 -SN BKN006 OVC022 M00/M02 Q0995=

0000013300
368
SAIO31 KWBC 110400 RRC
METAR
FMMT 110400Z 00000KT 9999 VCSH SCT017 SCT033 27/26 Q1014 NOSIG=
FMNN 110400Z NIL=

00000000