0000014000
580
SNDL21 EDZW 111600 RRA
AAXX 11161
10004 46/60 /2814 10072 20028 30115 40115 53025
222// 00080
  333 55301 91118 91215=
0000022900
581
SNDL22 EDZW 111600 RRA
AAXX 11161
10007 46/60 /2913 10070 20029 30106 40106 52029
222// 00072
  333 553// 91116 91213=
10439 41565 82005 10049 20030 39925 40147 55007 75862 8587/
  333 81820 85626 88359=
0000042600
582
SNDL44 EDZW 111600 RRA
AAXX 11161
10033 42258 62808 10054 20039 30028 40069 52022 85930
  333 81705 81915 83618 91114=
10037 46/57 /2806 10050 20024 30048 40079 5/022=
10038 41470 72906 10048 20021 30060 40082 53021 76022 8582/
  333 81815 84630 86458=
10126 42475 32906 10058 20028 30106 40122 53031 82230
  333 82818=
10136 42460 53008 10058 20029 30064 40104 52029 82931
  333 81915 83071=
0000041200
583
SNDL45 EDZW 111600 RRA
AAXX 11161
10172 41358 82305 10050 20041 39988 40061 57021 76166 875//
  333 85709 87614=
10238 41356 82302 10051 20043 30015 40111 53002 76166 875//
  333 83708 87612=
10246 41345 82807 10052 20046 39995 40103 56001 75962 875//
  333 85709 87615 91013 91114=
10304 46/61 /2504 10050 20033 30093 40144 5/031=
10306 46/// ///// 1//// 2//// 3//// 4//// 5////=
0000027800
584
SNDL46 EDZW 111600 RRA
AAXX 11161
10334 46/50 /2707 10052 20041 30037 40122 5/008=
10335 41350 82808 10056 20042 30036 40129 53011 76166 875//
  333 85708 87614 91016 91116=
10343 41359 72706 10055 20042 30046 40111 55001 75866 875//
  333 83709 87612=
0000030400
585
SNDL47 EDZW 111600 RRA
AAXX 11161
10476 42775 62103 10051 20018 39997 40122 57016 83550
  333 81650 83657 85361=
10502 41468 72906 10066 20043 30021 40186 53030 72162 878//
  333 85817 87630=
10516 41050 82704 10066 20047 30065 40185 53014 76562 888//
  333 81801 84815 88630=
0000024800
586
SNDL48 EDZW 111600 RRA
AAXX 11161
10613 46/24 /2404 10045 20040 39599 40185 5/009=
10618 42680 62205 10045 20034 39732 40191 52007 85501
  333 85640=
10743 41025 82507 10038 20032 39615 40188 51005 71022 886//
  333 88701=
0000054600
587
SNDL49 EDZW 111600 RRA
AAXX 11161
10771 41230 80902 10014 20013 39676 40190 57001 76122 885//
  333 85704 88625=
10837 41657 82404 10046 20037 39545 40207 52015 72162 8653/
  333 86642 88359=
10853 41250 82501 10018 20016 39726 40202 52007 71022 875//
  333 81705 86640 87650=
10856 46/57 /2404 10066 20045 39529 40199 5/011=
10857 41462 82504 10073 20046 39456 40196 52010 76166 8782/
  333 81815 87637 88458=
10860 46/44 /9901 10015 20014 39753 40203 5/008=
10954 46/// /2605 10065 20039 39306 48494 5/008=
0000136000
588
SSVX02 KARS 111601
ZZYY 32638 11014 1425/ 522973 163937 6113/
22219 00277
444 20130 11014 1411/ 50101 80092 80009 9/015=
ZZYY 15905 11014 1505/ 510586 006589 6113/
22219 00253
444 20130 11014 1457/ 50101 80100 80008 9/015=
ZZYY 54860 11014 1425/ 326108 179355 6112/
22219 00263
444 20120 11014 1418/ 50101 80102 80012 9/015=
ZZYY 15621 11014 1501/ 519953 005002 6112/
22219 00228
444 20120 11014 1455/ 50101 80094 80056 9/015=
ZZYY 54909 11014 1400/ 560710 157734 6113/
11119 40007 54000
22219 00012
444 2013/ 11014 1429/ 50101 80118 80008 9/015=
ZZYY 54559 11014 1400/ 559300 165998 6113/
11119 49978 52002
22219 00028
444 2013/ 11014 1428/ 50101 80119 80008 9/015=
ZZYY 15913 11014 1503/ 306704 007995 6112/
22219 00278
444 20120 11014 1457/ 50101 80102 80039 9/015=
ZZYY 55908 11014 1428/ 334416 165707 6112/
22219 00202
444 20120 11014 1420/ 50101 80096 80005 9/015=
ZZYY 71675 11014 1430/ 347672 161575 6111/
11119 39985 49985
22219 00115
444 20110 11014 1427/ 50101 80060 80067 9/015=
ZZYY 51649 11014 1425/ 523271 167178 6111/
22219 00274
444 20110 11014 1411/ 50101 80075 80014 9/015=
ZZYY 54914 11014 1030/ 541777 157936 6112/
444 20120 11014 0837/ 50101 80108 80025 9/015=
ZZYY 54914 11014 1330/ 541777 157936 6112/
444 20120 11014 0837/ 50101 80108 80026 9/015=
0000011000
589
UANT01 CWAO 111603
ARP DLH410 5021N03720W 1603 F370 MS55 298/38 KT
DAIKQ QXT AME 111603 J68A
0000011000
590
UANT01 CWAO 111603
ARP BAW273 5551N01928W 1603 F320 MS58 214/73 KT
GYMMC QXT AOE 111603 F07A
0000027600
591
SSVX08 KARS 111603
ZZYY 52007 10014 1200/ 308031 164802 6112/
33311 88872 20001 33060 43420 20025 32988 43453 20050 32895 43493
20075 32764 20100 32729 20125 32589 20150 32479 20200 32075
20250 31633 20300 31285 20500 30764
444 20120 10014 1053/ 521//=
0000011000
592
UANT01 CWAO 111603
ARP BAW43C 4950N04430W 1603 F370 MS60 294/62 KT
GVIIR QXT AOE 111603 F30A
0000011500
593
SNVF25 LFPW 111600
BBXX
FVNM 11164 99477 70034 46/// /1502 10089 20069 40205 53002
22200 04110=
0000011800
594
SNVF25 LFPW 111600
BBXX
BATFR54 11164 99471 70023 46/// /0507 10087 20069 40219 55008
22253 04095=
0000011100
595
UANT01 CWAO 111604
ARP BER7450 5302N01954W 1603 F380 MS62 214/64 KT
DALPE QXT AOE 111604 J73A
0000011000
596
UANT01 CWAO 111604
ARP PIA711 5401N01617W 1603 F350 MS61 226/81 KT
APBGZ QXT AOE 111604 F30A
0000010900
597
UANT01 CWAO 111604
ARP XLF64 4749N02109W 1604 F370 MS53 203/66 KT
CGGTS QXT AOE 111604 J52A
0000011000
598
UANT99 KDDL 111603
ARP FDX32 5452N04133W 1603 F350 MS57 288/47 KT
N580FE QXT AOW 111604 F44A
0000011000
599
UANT99 KDDL 111604
ARP AFR842 4613N03217W 1604 F320 MS50 302/33 KT
FGSQX QXT AOE 111604 F32A
00000000