0000022800
609
FTUS31 KWBC 110439 AAA
TAF AMD
KMEM 110436Z 1105/1124 19010G15KT 5SM RA BR FEW005 BKN020
     FM110700 24014KT P6SM BKN012 OVC100
     FM111100 26010KT P6SM SCT020
     FM111500 28012G20KT P6SM SCT025=

0000035500
610
FTUS43 KWBC 110439 AAA
TAF AMD
KAZO 110435Z 1105/1124 16010G16KT P6SM -RA OVC008
     FM110700 19013KT 5SM -RA BR OVC005
     FM110800 20011KT 1 1/2SM -RA BR OVC003
     FM111000 20008KT 2SM -RA BR OVC004
     FM111200 22007KT 2SM -DZ BR OVC004
     FM111600 27012G22KT 2SM -SN BR OVC008
     FM112300 28013KT P6SM OVC025=

0000022800
611
FTUS72 KWBC 110439 AAA
TAF AMD
KMEM 110436Z 1105/1124 19010G15KT 5SM RA BR FEW005 BKN020
     FM110700 24014KT P6SM BKN012 OVC100
     FM111100 26010KT P6SM SCT020
     FM111500 28012G20KT P6SM SCT025=

0000097200
612
FTUS73 KWBC 110439 AAA
TAF AMD
KAZO 110435Z 1105/1124 16010G16KT P6SM -RA OVC008
     FM110700 19013KT 5SM -RA BR OVC005
     FM110800 20011KT 1 1/2SM -RA BR OVC003
     FM111000 20008KT 2SM -RA BR OVC004
     FM111200 22007KT 2SM -DZ BR OVC004
     FM111600 27012G22KT 2SM -SN BR OVC008
     FM112300 28013KT P6SM OVC025=
KJXN 110436Z 1105/1124 17010G19KT P6SM -RA OVC007
     FM110700 19013KT 5SM -RA BR OVC005
     FM110800 20011KT 1 1/2SM -RA BR OVC003
     FM111000 20008KT 2SM -RA BR OVC004
     FM111200 22007KT 2SM -DZ BR OVC004
     FM111600 27012G22KT 2SM -SN BR OVC008
     FM112300 28013KT P6SM OVC025=
KLAN 110436Z 1105/1124 15012KT 5SM RA BR BKN006 OVC012
     FM110700 19013KT 5SM -RA BR OVC005
     FM110800 20011KT 1 1/2SM -RA BR OVC003
     FM111000 20008KT 2SM -RA BR OVC004
     FM111200 22007KT 2SM -DZ BR OVC004
     FM111800 27012G22KT 2SM -SN BR OVC008
     FM112300 28013KT P6SM OVC025=

0000035100
613
FTUS73 KWBC 110439
TAF
TAF AMD KOFF 1104/1208 27006KT 0800 FZFG SCT070 QNH2956INS
      TEMPO 1104/1105 3200 BR
      BECMG 1105/1106 28006KT 9999 NSW SCT080 QNH2964INS
      BECMG 1114/1115 28009KT 9999 SCT100 510152 QNH2967INS
      BECMG 1119/1120 28009KT 9999 SCT100 QNH2968INS T06/1122Z
      TM05/1111Z AMD 110431=

0000010200
614
SAFR31 LFPW 110430 RRB
METAR LFQQ 110430Z 19008KT 4000 BR OVC002 04/03 Q1015 NOSIG=

0000099100
615
FTAG31 KWBC 110442
TAF
TAF SARE 110500Z 1106/1206 09010KT 9999 TS FEW050CB BKN100
      TX28/1119Z TN24/1109Z
      BECMG 1109/1111 14010G25KT 5000 TSRA BKN025 BKN040 FEW050CB
      OVC100
      TEMPO 1118/1122 16010KT 9999 FEW010 SCT025 BKN090=
TAF SARF 110500Z 1106/1206 36010KT CAVOK TX29/1117Z TN24/1109Z
      BECMG 1112/1115 9999 SCT030 FEW040TCU
      BECMG 1117/1120 8000 TSRA BKN030 FEW050CB BKN100
      BECMG 1201/1203 16010KT 6000 TSRA BKN040 FEW050CB OVC100=
TAF SARI 110500Z 1106/1206 02005KT 9999 FEW050CB BKN100 TX34/1118Z
      TN20/1109Z
      BECMG 1112/1115 09005KT 9999 SCT030 FEW050CB BKN100
      BECMG 1118/1120 16010G20KT 5000 TSRA BKN020 BKN040 FEW050CB
      OVC100=
TAF SARP 110500Z 1106/1206 02010KT CAVOK TX28/1119Z TN22/1109Z
      BECMG 1109/1112 9999 TS SCT020 FEW050CB BKN100
      BECMG 1115/1118 16010KT 5000 TSRA SCT020 BKN040 FEW050CB
      OVC100
      TEMPO 1123/1202 9999 FEW010 BKN020 BKN100=

0000045200
616
FTCA35 KWBC 110442
TAF
TAF MGPB 1112/1212 00000KT 9999 SCT016 SCT090 TX28/1120Z
      TN18/1112Z
      BECMG 1116/1118 02006KT SCT020 PR0B30 1200/1204 9000
      -DZ
      BKN016
      BECMG 1202/1204 00000KT SCT016 TEMP0 1208/1212 CAV0K=
TAF MGSJ 1112/1212 00000KT CAV0K TX32/1120Z TN18/1112Z
      BECMG 1116/1118 18006KT 9000 FEW020 TEMP0 1122/1124
      FEW020TCU
      FEW025CB
     FM120200 00000KT CAV0K=

0000181900
617
SPUS70 KWBC 110442
SPECI
KCRE 110438Z 20003KT 3/4SM BR BKN004 OVC018 16/15 A3011 RMK
     AO2=
KHVN 110438Z AUTO 02003KT 1 1/4SM R02/6000VP6000FT BR OVC003 02/01
     A3026 RMK AO2=
KLNS 110438Z AUTO 05003KT 1 3/4SM -RA BR OVC004 02/01 A3014 RMK
     AO2 P0002=
KMSY 110438Z 18012KT 3/4SM BR BKN003 OVC006 19/19 A2991 RMK AO2
     T01940189 RVRNO $=
KOGB 110438Z AUTO 00000KT 1 3/4SM BR OVC003 13/12 A3008 RMK AO2
     T01330122 TSNO=
KOSH 110438Z 21005KT 2 1/2SM BR OVC004 02/01 A2944 RMK AO2 RAE19
     P0000 T00170006=
KOWB 110438Z AUTO 00000KT 1 1/2SM -TSRA BR FEW005 SCT018 BKN023
     08/08 A2973 RMK AO2 LTG DSNT E TSB0357E0359B01 P0005
     PRESFR=
KRWI 110438Z AUTO 09009KT 1 3/4SM +RA BR BKN005 OVC019 16/15 A3010
     RMK AO2 LTG DSNT SE P0009 T01560150=
KTCL 110438Z AUTO 14007KT 3SM BR OVC003 13/13 A2989 RMK AO2
     PRESFR=
KBKV 110439Z AUTO 00000KT 1 1/4SM BR FEW008 17/17 A3011 RMK AO2
     VIS 1/2V4 T01720167=
KCUB 110439Z AUTO 00000KT 1 3/4SM BR OVC002 11/10 A3010 RMK AO2
     T01060100 TSNO=
KGRD 110439Z AUTO 06003KT 1 3/4SM +RA BR OVC004 08/07 A3008 RMK
     AO2 RAE07B35 P0004=
KLBX 110439Z AUTO 24006KT 10SM BKN012 BKN029 BKN040 19/18 A2987
     RMK AO2 $=
KMRB 110439Z AUTO 00000KT 1SM BR OVC003 02/01 A3013 RMK AO2
     T00170006 TSNO=
KOFP 110439Z AUTO 00000KT 1 1/2SM -RA BR OVC003 04/04 A3015 RMK
     AO2 RAB09 P0002 T00390039=
KCMI 110439Z 22008KT 1 1/4SM R32R/4500VP6000FT BR OVC003 04/04
     A2960 RMK AO2=
KDIJ 110439Z AUTO 16013KT 10SM SCT028 SCT033 BKN065 M02/M05 A3002
     RMK AO2=
KHFD 110439Z AUTO 00000KT 1/4SM -RA FG VV004 01/01 A3027 RMK AO2
     UPE35RAB03 P0001 T00110006=
KPTW 110439Z AUTO 00000KT 1 3/4SM -RA BR OVC004 01/01 A3019 RMK
     AO2 CIG 003V008 P0002 T00110011=

0000010200
618
SPUS31 KWBC 110442
SPECI
KMSY 110438Z 18012KT 3/4SM BR BKN003 OVC006 19/19 A2991=

0000011500
619
SPCN31 CWAO 110440
SPECI CYGL 110440Z 17006KT 1SM -SN BR OVC001 M05/M06 A2972 RMK ST8
 SLP079=

0000012100
620
SPUS41 KWBC 110442
SPECI
KHVN 110438Z AUTO 02003KT 1 1/4SM R02/6000VP6000FT BR OVC003 02/01
A3026=

0000022600
621
FTAP32 FAPR 110300 RRA
TAF FQMA 110400Z 1106/1212 22014KT 4000 SHRA SCT012 BKN020
    BECMG 1112/1114 14012KT 9999 BKN020 BECMG 1118/1120 23008KT 
    BECMG 1208/1210 09010KT SCT020 TX27/1112ZTN23/1202Z=

0000012900
622
FCLT33 EYVI 110500
TAF EYPA 110500Z 1106/1115 27012KT 9000 OVC010 TEMPO
1108/1112 3000 SHRA BKN005 BKN015CB=

0000026300
623
SAUS71 KWBC 110400 RRG
METAR
KLCK 110435Z AUTO 16007KT 10SM OVC027 08/06 A2978=
KMMU 110435Z AUTO 00000KT 1SM UP OVC003 02/01 A3023=
KMYR 110435Z AUTO 18006KT 10SM SCT080 17/16 A3013=
KPQI 110435Z AUTO 00000KT 10SM BKN022 M09/M12 A3021=

0000009800
624
SAUS72 KWBC 110400 RRF
METAR
KLRU 110435Z AUTO 26012KT 10SM CLR 08/M08 A3007=

0000032100
625
SAUS73 KWBC 110400 RRF
METAR
KCIU 110435Z AUTO 11009KT 2 1/2SM OVC004 M01/M01 A2958=
KELO 110433Z AUTO 21004KT 7SM OVC005 M04/M05 A2943=
KGYY 110435Z AUTO 17012G17KT 10SM OVC007 07/05 A2956=
KJAC 110435Z AUTO 17008KT 10SM OVC033 M01/M04 A2997=
KLBL 110435Z AUTO 29011KT 10SM CLR 01/M09 A2984=

0000014900
626
SAUS74 KWBC 110400 RRE
METAR
KIWA 110435Z AUTO 12004KT 10SM CLR 06/M01 A3015=
KOTH 110435Z 20011G16KT 10SM OVC022 13/11 A3000=

0000193700
627
SPUS70 KWBC 110438
SPECI
K1M4 110434Z AUTO 15012KT 1 1/4SM BR OVC001 11/11 A2986 RMK AO2
     TSE01RAE03 P0000=
KEET 110434Z AUTO 12003KT 2 1/2SM BR OVC003 12/12 A2993 RMK AO2
     RAE29 P0002 T01170117=
KEWN 110434Z AUTO 16014G22KT 10SM BKN010 OVC020 21/19 A3012 RMK
     AO2 LTG DSNT SE RAB0355E30 P0012=
KFOE 110434Z AUTO 25005KT 6SM BR BKN008 OVC016 02/01 A2964 RMK AO2
     RAB16E32UPB17E21 CIG 007V013 P0000 T00170006=
KLOU 110434Z AUTO 17006KT 10SM BKN021 BKN050 OVC110 12/09 A2971
     RMK AO2 RAE25 P0000 TSNO=
KMRH 110434Z AUTO 17014G20KT 1 1/4SM +RA BR FEW004 BKN009 OVC013
     18/18 A3014 RMK AO2 VIS 3/4V5 P0063 T01830183 TSNO=
KRXE 110434Z AUTO 20007KT 10SM BKN023 BKN080 M04/M06 A3004 RMK AO2
     T10391061=
KBEH 110434Z AUTO 19014G20KT 10SM OVC008 06/05 A2957 RMK AO2=
KHFF 110425Z 13002KT 5SM -SHRA FEW002 BKN009 11/10 A3011 RMK AO2
     SHRAB0419 P0001 T1060103=
KMLI 110434Z AUTO 22007KT 6SM BR OVC004 03/02 A2950 RMK AO2 CIG
     004V008 TSNO=
KCPS 110435Z AUTO 09006KT 1/2SM FG FEW006 BKN010 OVC013 04/04
     A2958 RMK AO2 RAE20 PRESFR P0003=
KFAY 110435Z AUTO 21003KT 2 1/2SM BR BKN014 BKN023 OVC041 16/16
     A3010 RMK AO2 RAE04 P0000=
KHDO 110435Z AUTO 34006KT 1 3/4SM BR SCT004 09/07 A2992 RMK AO2
     T00890072=
KHKS 110435Z AUTO 17012KT 10SM VCTS OVC007 18/17 A2980 RMK AO2 LTG
     DSNT ALQDS TSE34B35=
KMTO 110435Z AUTO 18014G22KT 3SM HZ OVC002 06/M01 A2959 RMK AO2
     RAE08 P0000 T00561006 TSNO=
KMVY 110435Z AUTO 18005KT 2 1/2SM BR OVC002 07/06 A3028 RMK AO2
     $=
KOTM 110435Z AUTO 30012KT 8SM BKN006 BKN030 OVC037 01/00 A2953 RMK
     AO2 T00060000 TSNO=
KPDK 110435Z AUTO 13003KT 1 3/4SM -RA BR OVC002 08/07 A3003 RMK
     AO2 P0002=
KTDZ 110435Z AUTO 15011KT 1 1/4SM -RA BR OVC004 04/03 A2971 RMK
     AO2 P0002 TSNO=
PANW 110432Z AUTO 02003KT 1/2SM FZFG OVC001 M07/M08 A2943 RMK AO2
     TSNO $=

0000011000
628
SPUS31 KWBC 110438
SPECI
KLOU 110434Z AUTO 17006KT 10SM BKN021 BKN050 OVC110 12/09 A2971=

00000000