0000013500
329
FCEE31 LOWM 110200 RRA
TAF UACP 110253Z 1104/1113 17006MPS 9999 BKN010 BKN020CB TEMPO
1104/1110 3000 -SHSN BKN007=

0000011200
330
SPIV20 DIAP 110353
SPECI DIAP 110353Z VRB02KT 9999 BKN013 OVC150 25/25 Q1010 TEMPO 
BKN009=

0000052800
331
SADN31 EKCH 110350
METAR EKCH 110350Z 25011KT 9999 BKN015 06/04 Q1007 NOSIG=
METAR EKBI 110350Z 23009KT 200V260 9999 SCT008 BKN018 06/05
Q1006=
METAR EKYT 110350Z 23015KT 9999 FEW008 SCT011 BKN016 07/06 Q1003=
METAR EKRK 110350Z AUTO 24012KT 9999NDV FEW012/// BKN140///
06/04 Q1007=
METAR EKAH 110350Z AUTO 22006KT 170V260 9999NDV OVC016/// 06/04
Q1005=
METAR EKEB 110350Z AUTO 22011KT 9999NDV BKN012/// 07/06 Q1006=
METAR EKRN 110350Z AUTO 26018KT 9999NDV FEW010/// BKN042///
06/06 Q1008=

0000016500
332
SADN32 EKCH 110350
METAR EKVJ 110353Z NIL=
METAR EKSB 110353Z NIL=
METAR EKSN 110353Z NIL=
METAR EKVD 110353Z NIL=
METAR EKOD 110353Z NIL=

0000055300
333
SADN34 EKCH 110350
METAR EKGF 110350Z 22016KT 3000 BR DZ BKN002 07/06 Q1005=
METAR EKHN 110350Z AUTO 23007G21KT 150V300 7000NDV BKN009///
BKN042/// BKN052/// ///// Q1008=
METAR EKHR 110350Z AUTO 24022KT 9999NDV NCD 08/07 Q1006=
METAR EKHA 110350Z AUTO 23025KT 2100NDV 07/07 Q1006=
METAR EKHD 110350Z AUTO 29018KT 7000NDV 07/06 Q1003=
METAR EKTE 110350Z AUTO 22017KT 4300NDV -SHRA BR OVC001 07/06 Q1005=
METAR EKGC 110350Z AUTO 23019KT 9999NDV 07/07 Q1005=
METAR EKAV 110350Z AUTO 22018KT 9999NDV BKN032/// 06/04 Q1005=

0000049200
334
SAMX45 MMMY 110353
METAR MMMY 110340Z 29005KT 12SM  SKC 16/12 A2996=
METAR MMAN 110340Z 27004KT 12SM  SKC 15/12 A3000 RMK ISOL AC=
METAR MMMA 110340Z 00000KT 8SM  SKC 19/17 A2992 RMK FU N=
METAR MMIO 110340Z 00000KT 10SM SKC 12/06 A3015=
METAR MMRX 110340Z 16005KT 7SM  SKC 18/17 A2992 RMK HZY FU=
METAR MMTC 110340Z 00000KT 10SM BKN250 15/01 A3010 RMK 8/002=
METAR MMCU 110340Z 18007KT 10SM SKC 06/M05 A3012=
METAR MMCS 110343Z 30010KT 10SM SKC 13/M02 A3000=

0000039100
335
FTCN37 CWAO 110300 AAA
TAF AMD CYZX 110353Z 1103/1124 22005KT P6SM -RA -DZ SCT006 OVC015
     TEMPO 1103/1105 4SM -RASN BR OVC006
    FM110500 22005KT 6SM -RA BR SCT005 OVC010 TEMPO 1105/1115 2SM -RA
     BR OVC005
    FM111500 20010KT P6SM -RA SCT008 OVC020 TEMPO 1115/1124 2SM -RA
     BR OVC008
     BECMG 1118/1120 20015G25KT
    RMK NXT FCST BY 110600Z=

0000023100
336
FTUS51 KWBC 110351 AAA
TAF AMD
KDAY 110348Z 1104/1124 15012KT 6SM -SHRA BR OVC020
     FM110500 17015G23KT 4SM -RA BR OVC007
     FM111200 22015G25KT P6SM VCSH OVC011
     FM111500 24016G26KT P6SM OVC015=

0000025800
337
FTUS52 KWBC 110351 AAA
TAF AMD
KVCT 110347Z 1104/1124 VRB06KT 3SM BR SCT003 BKN250
      TEMPO 1104/1107 1/2SM FG OVC003
     FM110700 24005KT 1/2SM FG OVC003
     FM111200 30005KT 3SM BR SCT006
     FM111400 34008KT P6SM SCT250=

0000104200
338
FTUS80 KWBC 110351 AAA
TAF AMD
KBRO 110348Z 1104/1124 18004KT 2SM BR SCT004 BKN015
      TEMPO 1104/1106 BKN004
     FM110600 VRB03KT 2SM BR BKN004
      TEMPO 1112/1115 1/2SM FG VV001
     FM111500 VRB04KT 5SM BR SCT004 BKN015
     FM111800 05010KT P6SM FEW015 SCT030=
KCMH 110350Z 1104/1124 14009KT P6SM BKN035
     FM110500 16010KT 6SM BR VCSH OVC020
     FM110800 17012KT 4SM -RA BR OVC008
     FM111400 23014G23KT P6SM VCSH OVC012=
KDAY 110348Z 1104/1124 15012KT 6SM -SHRA BR OVC020
     FM110500 17015G23KT 4SM -RA BR OVC007
     FM111200 22015G25KT P6SM VCSH OVC011
     FM111500 24016G26KT P6SM OVC015=
KILN 110349Z 1104/1124 17009KT 6SM BR BKN025
     FM110600 18012G18KT 3SM -RA BR OVC007
     FM111300 22014G24KT P6SM VCSH OVC013
     FM111600 24014G25KT P6SM OVC016=
KVCT 110347Z 1104/1124 VRB06KT 3SM BR SCT003 BKN250
      TEMPO 1104/1107 1/2SM FG OVC003
     FM110700 24005KT 1/2SM FG OVC003
     FM111200 30005KT 3SM BR SCT006
     FM111400 34008KT P6SM SCT250=

0000026500
339
FTUS80 KWBC 110351
TAF
TAF AMD KARA 110347Z 1104/1124 18012G18KT P6SM VCTS OVC005CB
      TEMPO 1104/1106 2SM TSRA BR OVC003CB
     FM110600 19012KT P6SM VCSH OVC004
     FM111000 27009KT 1SM BR OVC002
     FM111600 33010KT P6SM SCT006=

0000010200
340
SPUS42 KWBC 110351
SPECI
KPDK 110347Z AUTO 10003KT 1SM -RA BR OVC002 08/07 A3005=

0000010800
341
SPUS42 KWBC 110351
SPECI
KTYS 110347Z 00000KT 2 1/2SM -RA BR BKN004 OVC008 08/07 A2998=

0000011600
342
SPUS44 KWBC 110351
SPECI
KOLM 110347Z 19016G23KT 5SM -RA BR BKN013 BKN037 OVC046 09/08
A2978=

0000127500
343
SPUS70 KWBC 110352
SPECI
KDVN 110348Z AUTO 22008KT 2SM BR OVC003 03/02 A2951 RMK AO2=
KHOT 110348Z AUTO 31005KT 10SM FEW007 BKN014 OVC095 14/13 A2972
     RMK AO2 RAE13 P0000=
KLUK 110348Z 17008KT 10SM BKN024 BKN029 OVC120 11/08 A2978 RMK
     AO2=
KMEM 110348Z 16005KT 5SM RA BR FEW006 BKN018 OVC034 12/11 A2973
     RMK AO2 WSHFT 0247 TSE47 OCNL LTGIC DSNT NE-SE CB DSNT NE-SE
     P0064=
KORE 110348Z AUTO 00000KT 2 1/2SM BR OVC004 M01/M01 A3027 RMK
     AO2=
KUIN 110349Z AUTO 25007KT 1 3/4SM -RA BR OVC005 05/04 A2953 RMK
     AO2 RAB29 CIG 002V007 P0001=
KNSE 110350Z 17012KT 6SM BR BKN004 OVC015 19/19 A2998 RMK AO2
     $=
KARA 110349Z AUTO 19016G23KT 7SM TSRA OVC005 19/18 A2989 RMK AO2
     LTG DSNT W-N TSB41RAE02B20 P0008 $=
KLFT 110349Z AUTO 18010KT 2 1/2SM TSRA BR SCT006 BKN010 OVC027
     19/18 A2987 RMK AO2 LTG DSNT SW TSB44 P0022=
KM19 110349Z AUTO 18012KT 1 1/4SM RA BR SCT003 BKN020 08/08 A2968
     RMK AO2 VIS 1/2V5 P0015=
KMDH 110349Z AUTO 18014KT 10SM SCT009 SCT080 08/07 A2964 RMK AO2
     RAE17 P0000=
KSET 110349Z AUTO 11006KT 1/2SM -RA FG BKN011 OVC065 03/03 A2958
     RMK AO2 RAB0257 P0005 TSNO=
KTCL 110349Z AUTO 14004KT 5SM BR OVC005 13/12 A2993 RMK AO2 RAE49
     P0002=

0000011000
344
SPUS31 KWBC 110352
SPECI
KMEM 110348Z 16005KT 5SM RA BR FEW006 BKN018 OVC034 12/11 A2973=

0000010500
345
SPUS41 KWBC 110352
SPECI
KLUK 110348Z 17008KT 10SM BKN024 BKN029 OVC120 11/08 A2978=

0000016200
346
SAMO31 ZMUB 110400
METAR ZMUB 110400Z 00000MPS 1500NW 2000SE R14/0600N R32/P2000U FU BR

 NSC M26/M29 Q1028 NOSIG RMK QFE662.8 72 NW SE MO=

0000035700
347
SAGL31 BGSF 110350
METAR BGSF 110350Z AUTO 08008KT 9999NDV  BKN200/// M16/M23 Q0996=
METAR BGBW 110353Z NIL=
METAR BGGH 110350Z AUTO 11007KT 9999NDV  SCT180/// M08/M16 Q0993=
METAR BGJN 110350Z AUTO 10011KT 9999NDV  SCT130/// BKN160/// 
M09/M19 Q0994=
METAR BGKK 110350Z AUTO 12005KT 060V170 9999NDV  SCT043/// M03/M09 
Q0992=

0000014100
348
SAVN23 SVBC 110400
METAR SVBC 110400Z 00000KT 9999 FEW010 25/23 Q1013=
METAR SVMT 110400Z NIL=
METAR SVHG 110400Z NIL=

00000000