0000011800
360
SNVE25 LFPW 111600
BBXX
BATFR28 11164 99012 11039 46/// /0215 10262 20224 40118 50002
22262 04280=
0000011800
361
SNVD25 LFPW 111600
BBXX
BATFR43 11164 99061 70832 46/// /19// 10284 20242 40130 50008
22264 04285=
0000011800
362
SNVA25 LFPW 111600
BBXX
BATFR08 11164 99425 30525 46/// /2518 10139 20135 40025 53002
22200 04157=
0000011800
363
SNVD25 LFPW 111600
BBXX
BATEU01 11164 99471 70583 46/// /1908 10049 21020 40213 58012
22274 04014=
0000011800
364
SNVD25 LFPW 111600
BBXX
BATFR15 11164 99162 70615 46/// /0504 10282 20179 40186 58010
22200 04270=
0000011000
365
UANT99 KDDL 111600
ARP FDX38 5505N02432W 1600 F350 MS63 197/79 KT
N887FD QXT EUA 111600 F44A
0000011000
366
UANT99 KDDL 111600
ARP CRL938 4808N01242W 1600 F380 MS63 251/61 KT
FHBIL QXT AOE 111601 J13A
0000008900
367
SAIN90 VOCL 111600
METAR VOCL 111600Z 30002KT 6000 NSC 26/22 Q1013 NOSIG=
0000009200
368
SAIN90 VOCI 111600
METAR VOCI 111600Z 00000KT 4000 HZ NSC 24/21 Q1013 NOSIG=
0000008600
369
SAIN90 VAID 111600
METAR VAID 111600Z 00000KT 1500 BR NSC 13/10 Q1020=
0000009300
370
SAIN90 VOVZ 111600
METAR VOVZ 111600Z 00000KT 2500 NSC 23/20 Q1016 NOSIG =

0000027400
371
SXHW11 KWAL 111602
15D142A4 011160202":PRS 1 #1 1507 1498 1509 1509 1515 1509 1513 1519 1518 1524 :RAD 1 #1 7094 7096 7099 7101 7101 7101 7105 7108 7116 7117 :ENC 2 #5 4999 5010 5024 5030 :SW1 2 #60 0 :SW2 32 #60 0 :BAT 4 #5 12.9 :NAME 15D142A4  31+0NN 216W
0000050000
372
SNVD20 KWNB 111600 RRD
BBXX
44065 11161 99404 70737 46/// /1809 10097 40091 58037 91550 22200
00057 333 91212 555 11104 22117 31450 41812 61549 178094 182086
187086 187091 192087 189071=
44007 11161 99435 70701 46/// /1906 10071 20068 40110 58055 91550
22200 00045 10502 20502 70010 333 91208 555 11071 22081 31547
41908 61549 186063 185054 183048 182044 185041 189034=
44040 11161 99410 70736 46/// /1811 10112 20112 91545 22200 10301
70005 333 91215 555 11134 22154=
0000011200
373
SNVF25 LFPW 111600
BBXX
BATFR03 11164 99505 70009 46/// /2407 10089 20017 40225 53011
22244=
0000011800
374
SNVF25 LFPW 111600
BBXX
BATFR44 11164 99477 70034 46/// /1102 10092 20074 40216 53003
22200 04099=
0000011800
375
SNVF25 LFPW 111600
BBXX
BATFR12 11164 99486 70064 46/// /1316 10109 20067 40198 56003
22200 04149=
0000014500
376
SSVX13 LFPW 111601
ZZYY 44550 11014 1601/ 753040 014915 6113/ 11119 40078 57255 444
 20130 11014 1500/ 50101 80138 80002 9/015=
0000015700
377
SSVX13 LFPW 111600
ZZYY 41972 11014 1600/ 734570 040340 6113/ 11119 40252 57018 22219
 00194 444 20130 11014 1559/ 50101 80120 80071 9/015=
0000012000
378
SAGD31 TGPY 111600
METAR TGPY 111600Z 09018KT 9999 FEW017CB FEW019TCU 28/22 Q1016 NOSIG
CB-E TCU-NE,S=
0000015700
379
SSVX13 LFPW 111600
ZZYY 64667 11014 1600/ 763111 029181 6113/ 11119 40013 52008 22219
 00063 444 20130 11014 1600/ 50101 80154 80000 9/015=
00000000