0000012200
369
SAEU31 BKPR 110400
BKPR 110400Z 00000KT 0150 R17/0175 FZFG BKN002 M01/M02 Q1023 NOSIG
 RMK 17010095 =

0000051600
370
SAFI32 EFHK 110350
METAR EFHA 110350Z AUTO 36008KT 9999 BKN011 M07/M08
 Q0998=
EFHF 110350Z AUTO 33011KT 9999 OVC010 M03/M05 Q0996=
METAR EFKA 110350Z AUTO 03009KT 3800 -SN OVC020 
M08/M10 Q1001=
EFKK 110350Z 04009KT 8000 -SN FEW027 BKN035 OVC040 M10/M11 Q1003=
EFMA 110350Z AUTO 33003KT 9999 -SN OVC019 M01/M02 Q0999=
METAR EFPO 110350Z AUTO 01006KT 340V040 9999 FZUP OVC008/// M04/M05 
Q0999 R12/29//95=
EFSI 110350Z AUTO 03007KT 360V070 9999 -SG BKN016 OVC022 M07/M09
Q0999=

0000008900
371
SABZ21 SBAR 110400
METAR SBAR 110400Z 11012KT 9999 SCT015 26/21 Q1012=

0000009700
372
SPUS41 KWBC 110353
SPECI
KCEF 110350Z 03002KT 2SM -DZ BR OVC003 00/00 A3028=

0000026000
373
FTSP32 LEMM 110200 CCA
TAF COR LEPP 110351Z 1103/1203 VRB03KT 8000 SCT015 TX10/1115Z
TN00/1106Z PROB40 TEMPO 1103/1112 3000 BR BKN012 TEMPO 1103/1110
0350 FG VV001 PROB40 TEMPO 1200/1203 3000 BR BKN012 PROB40
TEMPO 1200/1203 0700 BCFG=

0000009600
374
SPCN31 CWAO 110350
SPECI CYQG 110350Z 14007KT 3/4SM -RA BR OVC002 RMK FG2SF6=

0000017000
375
SAUS72 KWBC 110300 RRI
METAR
KPDK 110348Z AUTO 09003KT 1SM RA BR OVC002 08/07 A3005=
KTYS 110348Z 00000KT 2 1/2SM -RA BR BKN004 OVC008 08/07 A2998=

0000009900
376
SAUS73 KWBC 110300 RRH
METAR
KGYY 110345Z 18018KT 10SM -RA OVC009 06/05 A2958=

0000015900
377
SAUS75 KWBC 110300 RRE
METAR
PADL 110345Z 02009KT 3SM -SN BR OVC010 M06/M07 A2942=
PAPG 110348Z 00000KT 10SM FEW017 BKN050 01/M01 A2934=

0000010200
378
SPCN51 CWAO 110353
SPECI CWCL 110353Z AUTO 00000KT 9SM OVC001 OVC068 M03/M07 A2955=

0000014900
379
FTAU33 YBBN 110300 AAB
TAF AMD YMLT 110354Z 1104/1118
34015G25KT 9999 FEW045
BECMG 1110/1112 VRB05KT 9999 FEW015 SCT020
RMK=

0000011100
380
SACV20 GVAC 110400
METAR GVAC 110300Z 04003KT 9999 FEW013 SCT015 BKN200 18/15 Q1015
NOSIG=

0000183000
381
SPUS70 KWBC 110354
SPECI
KAKH 110350Z AUTO 04004KT 1 1/4SM -RA BR OVC002 06/06 A3010 RMK
     AO2 RAB16 P0002=
KAOH 110350Z AUTO 16011KT 4SM -RA SCT006 OVC021 06/ A2973 RMK AO2
     PRESFR PNO $=
KDCU 110350Z AUTO 13008KT 3SM BR OVC007 10/10 A2990 RMK AO2
     RAB0258E43 CIG 006V011 P0001=
KEVW 110350Z AUTO 26037G46KT 4SM UP CLR M01/M04 A3001 RMK AO2 PK
     WND 25049/0335 UPB30 P0000=
KISW 110350Z AUTO 00000KT 3SM BR OVC004 00/M01 A2947 RMK AO2
     SNE0259 P0000=
KPLN 110350Z AUTO 13007KT 3SM FZRA BR OVC006 00/M01 A2959 RMK AO2
     CIG 004V011 P0007 I1006=
KPTK 110350Z 15009KT 3SM RA BR OVC002 03/02 A2973 RMK AO2
     P0007=
KWST 110350Z AUTO 00000KT 1/2SM -RA FG VV003 02/02 A3029 RMK AO2
     RAB03 P0000=
KNSE 110349Z COR 17012KT 6SM BR BKN004 OVC015 19/19 A2998 RMK T2
     SET AO2 T01940189 $=
K2DP 110350Z AUTO 15012G16KT 12SM FEW016 SCT021 BKN039 18/16 A3020
     RMK AO2=
KNSE 110350Z 17012KT 6SM BR BKN004 OVC015 19/19 A2998 RMK AO2
     $=
KLBT 110351Z AUTO 19006KT 3SM BR OVC003 18/18 A3012 RMK AO2 CIG
     003V006=
KMCW 110351Z AUTO 28006KT 5SM BR BKN003 BKN007 OVC022 M02/M02
     A2952 RMK AO2 SNE02B12E44 P0001 TSNO=
KTQE 110350Z AUTO 26005KT 3SM BR CLR M02/M03 A2959 RMK AO2
     I1000=
KCDW 110351Z 00000KT 3/4SM -RA BR OVC002 01/M01 A3026 RMK AO2
     UPE27RAB27 P0003=
KHKY 110351Z AUTO 00000KT 2SM -RA BR OVC003 06/06 A3011 RMK AO2
     P0005=
KHYR 110351Z AUTO 00000KT 2SM -SN BR BKN010 OVC020 M03/M04 A2948
     RMK AO2 SNB32 P0000=
PAWI 110351Z AUTO 29008KT 9SM OVC005 A2987 RMK AO2 TSNO $=
KAEX 110351Z 21004KT 4SM -RA BR FEW010 BKN033 OVC045 18/17 A2980
     RMK AO2 LTG DSNT NE-S TSE16B23E51 P0030=
KASD 110351Z AUTO 17008KT 1 1/4SM -RA BR OVC002 17/17 A2992 RMK
     AO2 RAB15E32B49 P0001 TSNO=

0000010100
382
SAFK41 EGYP 110350
METAR EGYP 110350Z 21023KT 9999 SCT022 BKN040 03/M00 Q1003 WHT=

0000010300
383
SAAK32 KWBC 110300 RRC
METAR
PADL 110345Z 02009KT 3SM -SN BR OVC010 M06/M07 A2942=

0000028500
384
FTPK31 OPKC 110350
TAF OPPS 110350Z 1106/1212 VRB03KT 4000 HZ NSC BECMG 1112/1114 2500
HZ FEW100 SCT200 BECMG
1114/1118 SCT100 SCT200 FM 111800 22006KT 4000 HZ SCT100 SCT200 TEMPO
1202/1205 2500 BR BECMG 1205/1209 SCT100 BKN200 BECMG 1209/1212
SCT100 OVC200=

0000052300
385
SAMX44 MMMD 110354
METAR MMCE 110346Z 36008KT 7SM SKC 24/22 A2992=
METAR MMCM 110345Z NIL=
METAR MMCP 110349Z 00000KT 6SM  SKC 23/21 A2995 RMK HZY=
METAR MMCZ 110342Z 00000KT 7SM  SCT015 19/19 A3002 RMK 8/500 VC TCU=
METAR MMMD 110344Z 11005KT 7SM  SKC 22/20 A2997=
METAR MMTG 110343Z 24003KT 12SM  SKC 21/16 A2996=
METAR MMTP 110347Z 00000KT 8SM  SCT200 26/22 A2993 RMK 8/001=
METAR MMUN 110348Z 13007KT 7SM  SCT015 25/23 A3002 RMK 8/500=
METAR MMVA 110342Z 00000KT 7SM  SKC 19/18 A2995=

0000037600
386
SABX31 EBBR 110350
METAR EBAW 110350Z AUTO 21008KT 9999 OVC007/// 04/02 Q1015=
METAR EBBR 110350Z 21005KT 9999 BKN011 03/02 Q1015 NOSIG=
METAR EBCI 110350Z 20008KT 9999 SCT006 04/03 Q1015 NOSIG=
METAR EBLG 110350Z NIL=
METAR EBOS 110350Z 20011KT 6000 SCT004 BKN006 04/02 Q1015 TEMPO
     BKN004=
METAR ELLX 110350Z AUTO 00000KT //// 02/01 Q1016=

0000050700
387
SAOS31 LOWM 110350
METAR LOWW 110350Z 16005KT CAVOK M01/M03 Q1020 NOSIG=
METAR LOWL 110350Z VRB02KT 1200 0350E R26/0375D FZBCFG FEW001 SCT240
M03/M03 Q1020 TEMPO BKN002=
METAR LOWS 110350Z 31003KT 9999 BKN080 01/00 Q1019 NOSIG=
METAR LOWI 110350Z 24004KT 210V270 2000 BR SCT002 BKN004 02/02 Q1020
R08/29//75 NOSIG=
METAR LOWG 110350Z VRB02KT 9999 OVC008 03/01 Q1020 R17/29//95 TEMPO
3000 BR BKN002=
METAR LOWK 110350Z 32003KT 1800 BR OVC003 01/01 Q1021 R88///////
NOSIG=

0000012100
388
SAOS32 LOWM 110350
METAR LOXZ 110350Z VRB01KT 10KM FEW003ST SCT090AC BKN220CI M02/M02
Q1019 RMK BKN=

00000000