0000084800
429
FTUS71 KWBC 110424 AAA
TAF AMD
KACY 110423Z 1104/1124 14006KT P6SM -SHRA BKN040 OVC060
     FM110600 16010KT 2SM -SHRA BR BKN004 OVC010 WS020/19050KT
     FM111500 18015G25KT 1SM RA BR BKN003 OVC010 WS020/21050KT=
KRDU 110422Z 1104/1124 VRB02KT 2SM -RADZ BR OVC002 WS018/19030KT
     FM110500 VRB03KT 1/2SM -DZ FG VV002 WS014/19035KT
     FM111300 18010KT P6SM OVC006
     FM111500 19014G22KT P6SM BKN009 OVC020
     FM111700 20017G28KT 5SM -SHRA BR BKN012 OVC025
     FM112200 25016G23KT P6SM FEW025 BKN100=
KRWI 110423Z 1104/1124 VRB02KT 3SM -RADZ BR SCT020 BKN070 OVC090
      TEMPO 1104/1106 1SM RADZ SCT005 OVC020
     FM110600 VRB02KT 1/2SM -DZ FG VV002 WS010/18035KT
     FM111000 18010KT 6SM BR OVC008
     FM111300 19013G24KT P6SM BKN009 OVC020
     FM111700 20017G28KT 5SM -SHRA BR BKN012=

0000051600
430
FTUS73 KWBC 110424 AAA
TAF AMD
KABR 110422Z 1104/1124 27008KT P6SM SKC
      TEMPO 1107/1111 BKN015
     FM111500 29015KT P6SM SKC
     FM112000 22008KT P6SM SCT250=
KMSP 110422Z 1104/1206 17007KT 3SM BR OVC008
      TEMPO 1104/1108 1SM -FZDZ BR OVC005
     FM110800 26005KT 4SM BR BKN009
     FM111000 28008KT P6SM SCT015
     FM111200 29012KT P6SM SCT250
     FM111600 30012KT P6SM SCT025 BKN040
     FM112000 27008KT P6SM SCT040 SCT250
     FM120200 23004KT P6SM SCT250=

0000011000
431
UANT99 KDDL 111543
ARP VIR15N 5106N02302W 1543 F340 MS55 186/83 KT
GVGAL DDL XXF 111543 F02A
0000011100
432
UANT99 KDDL 111543
ARP DAH2700 4838N02509W 1543 F330 MS48 186/69 KT
7TVJZ QXT AOE 111544 J22A
0000011100
433
UANT99 KDDL 111544
ARP BER7450 5303N01606W 1544 F380 MS61 234/54 KT
DALPE QXT AOE 111544 J65A
0000011000
434
UANT99 KDDL 111544
ARP AZA604 5108N02627W 1544 F380 MS51 201/50 KT
EIEJP QXT AOE 111544 J01A
0000011000
435
UANT99 KDDL 111544
ARP XLF055 4742N00923W 1544 F390 MS62 243/36 KT
FGSEU DDL BES 111544 J04A
0000015900
436
SOVI10 KWAL 111546
B110070A 011154601"P9751095 B\P~W@@j0ekO1@oS???DzDn>@oQ3@YD@@t4DT5D]6b_9HV<BM nTOkL@Y@\@_@a@a@c:AMPTEMP 31.12C  45+0NN 219E
0000011600
437
SIER20 OMAA 111500 CCA
AAXX 11154
41218 42960 43003 10202 20087 39899 40208 84030 333 58010 84363=
0000013200
438
SIVD02 CWAO 111500
BBXX
SHIP 11154 99466 70619 41/// /1509 11011 21023 40219 58011 7//// 8//// 22243 00028 2//// =
0000020300
439
SOBR10 KWAL 111546
BAB00078 011154611 :BUB 2 #1       M   0.549   0.569   0.609 :RAD 1 #1   0.504   0.469   0.500   0.491 :PRS 1 #1  -0.793  -0.791  -0.787  -0.780 :BL 12.09  34+0NF 219E
0000011100
440
UANT01 CWAO 111544
ARP GEC8221 5610N04851W 1544 F350 MS57 283/65 KT
DALCA QXT IGW 111544 F97A
0000011000
441
UANT01 CWAO 111545
ARP KLM743 4533N03633W 1544 F320 MS56 324/72 KT
PHBQP QXT AOW 111545 F30A
0000033400
442
SIXX40 ETGT 111500 RRD
AAXX 11151
40858 41556 81205 10128 20117 30159 40170 55005 72196 8192/ 333
1//// 8//// 8//// 8//// 555 10122 29093 66666 00124 10140 20146
40858 41556 81205 10128 20117 30159 40170 55005 72196 8192/ 333
10158 8//// 8//// 8//// 555 10122 29093 66666 00124 10140 20146
30144 50168 90192=
0000029700
443
SIDL22 EDZW 111500 CCC
AAXX 11151
10091 21357 82410 10050 20045 39998 40049 56027 76365 877//
  222// 06053
  333 55300 20024 30023 69937 87709 91115 91211=
10131 21281 63006 10055 20031 30072 40087 53010 72162 868//
  333 55300 20043 30042 69997 81706 86650 91116 91211=
0000011000
444
UANT01 CWAO 111545
ARP DLH410 5043N03353W 1545 F370 MS52 281/23 KT
DAIKQ QXT EUA 111545 J67A
0000019000
445
FTDN33 EKCH 102300 AAB
TAF EKKA 110422Z 1104/1124 23010KT 9999 BKN020 TEMPO 1104/1111 
3000 RADZ BR BKN006 BECMG 1109/1112 28012KT TEMPO 1114/1124 5000 
SHRA BKN020CB=

0000010100
446
SAIO31 KWBC 110400 RRE
METAR
VRMM 110400Z 07012KT 9000 FEW018 30/24 Q1014 NOSIG=

0000083400
447
SASN32 ESWI 110420
METAR ESKN 110420Z 15007KT 3000 SN VV007 M02/M02 Q0999 R26/710195=
METAR ESOE 110420Z AUTO 04007KT 5000NDV -PL FEW004/// OVC009///
M02/M03 Q0999 RESN=
METAR ESOK 110420Z AUTO 02007KT 9999 -FZDZ SCT002/// OVC007///
M01/M01 Q0998 REFZUP=
METAR ESOW 110420Z AUTO 04007KT 2100NDV -SN FEW006/// M04/M06
Q1001 RESG=
METAR ESSA 110420Z 31003KT 0600 R01L/P1500N R19R/P1500D R01R/P1500N
R19L/P1500N SN VV009 M04/M05 Q1001 R01L/510165 R08/19//58
R01R/19//68 TEMPO 4000 -SN=
METAR ESSB 110420Z AUTO VRB02KT 2900NDV -SN FEW002/// BKN035///
M04/M04 Q1000=
METAR ESSD 110420Z AUTO 05004KT 3100 -SN FEW007/// OVC015/// M08/M09
Q1001=
METAR ESSP 110420Z 10004KT 5000 -SN OVC005 M01/M01 Q0999
R27/790128=
METAR ESSV 110420Z AUTO 17004KT 9999NDV BKN011/// OVC019///
M00/M01 Q1001=

0000070400
448
SASN33 ESWI 110420
METAR ESNG 110420Z AUTO 35007KT 9999 NCD M19/M21 Q1012=
METAR ESNK 110420Z AUTO 33011KT 9999 -SN FEW017/// SCT024///
BKN035/// M10/M13 Q1005 RESG=
METAR ESNN 110420Z AUTO 32009KT 2200NDV -SN NCD M10/M12 Q1004
R16/49/79=
METAR ESNO 110420Z AUTO 35010KT 6000 -SN FEW012/// OVC017/// M12/M15
Q1003=
METAR ESNQ 110420Z AUTO 01003KT 9999NDV NCD M23/M24 Q1012 RESG=
METAR ESNS 110420Z AUTO 35013KT //// VV007 M13/M15 Q1006=
METAR ESNU 110420Z 35015KT 4000 -SN OVC035 M11/M14 Q1004 R14/49//50=
METAR ESNZ 110420Z AUTO 04003KT 360V070 9000NDV -SN FEW011///
BKN027/// M15/M17 Q1002=
METAR ESUT 110420Z AUTO VRB06KT 180V020 9000 IC VV019 M13/M18 Q1005=

00000000