0000014300
989
SACN62 CYYJ 110400
METAR CYYJ 110400Z 14011G17KT 6SM -RA BR FEW008 BKN012 OVC018 07/07
 A2964 RMK SC2SC5SC1 PRESFR SLP039=

0000011900
990
SACN62 CYYG 110400
METAR CYYG 110400Z 21005KT 15SM FEW015 BKN200 M04/M05 A3026 RMK
 SC2CI3 SLP251=

0000019400
991
FCDN34 EKCH 110400
TAF EKGF 110400Z 1104/1113 22018KT 3000 DZRA BR BKN002 TEMPO 
1104/1105 7000 NSW BKN006 BECMG 1105/1107 31018KT 9999 NSW SCT020 
TEMPO 1107/1109 BKN012=

0000011100
992
FCRO32 LROM 110200 AAA
TAF AMD LRAR 110400Z 1104/1112 VRB04KT CAVOK TEMPO 1104/1106 3000 BR=

0000011000
993
SPCN52 CWAO 110359
SPECI CWSA 110359Z AUTO 26012KT 9SM BKN023 BKN038 OVC044 01/M03
A3040=

0000010300
994
SACN61 CYDN 110400
METAR CYDN 110400Z AUTO 25013KT 9SM CLR M08/M09 A2947 RMK SLP002=

0000013900
995
SACN62 CYDF 110400
METAR CYDF 110400Z 25017G25KT 15SM SCT023 BKN070 BKN130 M05/M08 A3008
 RMK SC3AC2AC2 PRESFR SLP187=

0000010300
996
SACN61 CYDQ 110400
METAR CYDQ 110400Z AUTO 27004KT 9SM CLR M03/M09 A2945 RMK SLP018=

0000012900
997
SACN62 CYBR 110400
METAR CYBR 110400Z 27010KT 15SM FEW008 BKN070 OVC120 M08/M09 A2949
 RMK SF2AC3AC3 SLP019=

0000011200
998
SACN62 CYBK 110400
METAR CYBK 110400Z 12003KT 15SM IC SCT035 M32/M36 A2971 RMK SC4
 SLP065=

0000013100
999
SACN62 CYEG 110400
METAR CYEG 110400Z 19006KT 15SM FEW060 FEW250 M12/M13 A2960 RMK
 SC1CI2 SC TR FROIN SLP070=

0000024100
000
SALJ31 LJLJ 110400
METAR LJLJ 110400Z VRB01KT 9999 FEW030 BKN040 06/05 Q1020 NOSIG=
METAR LJMB 110400Z AUTO 00000KT 7000 OVC006/// 03/02 Q1020=
METAR LJPZ 110400Z AUTO 00000KT 2700 BR BKN004/// OVC050///
09/09 Q1022=

0000023100
001
SAFR21 LFPW 110400
METAR LFOA 110400Z AUTO VRB02KT 9000 NSC 06/04 Q1015=
METAR LFPC 110400Z AUTO 00000KT 1300 R25///// BR OVC002 05/04 Q1016=
METAR LFPV 110400Z AUTO 00000KT 1800 BR BKN003 OVC054 05/05 Q1016=

0000010600
002
SACN62 CYHZ 110400
METAR CYHZ 110400Z 22011KT 15SM OVC006 M00/M01 A3030 RMK ST8 SLP270=

0000051400
003
SAFR22 LFPW 110400
METAR LFBC 110400Z AUTO 25003KT 1400 R24///// BR FEW014 07/07 Q1017=
METAR LFBG 110400Z AUTO VRB02KT 8000 FEW011 OVC130 08/07 Q1016=
METAR LFBM 110400Z AUTO 25002KT 6000 OVC023 10/09 Q1017=
METAR LFBY 110400Z AUTO 21003KT 9999 // BKN025/// OVC031/// 10/09
Q1017=
METAR LFKS 110400Z AUTO 33002KT 9999 OVC033 12/08 Q1020=
METAR LFMO 110400Z AUTO 03001KT 5000 BR OVC032 08/07 Q1020=
METAR LFMY 110400Z AUTO 10004KT 9999 OVC027 11/07 Q1020=
METAR LFMC 110400Z NIL=

0000033800
004
SARO31 LROM 110400
METAR LRBS 110400Z 27003KT CAVOK 00/M01 Q1021 NOSIG=
METAR LRCK 110400Z 25008KT 2000 BR NSC 02/01 Q1020 NOSIG=
METAR LROP 110400Z 22006KT CAVOK M01/M02 Q1020 8819//95 NOSIG=
METAR LRSB 110400Z VRB02KT CAVOK M00/M04 Q1022 NOSIG=
METAR LRTR 110400Z 09002KT 4000 BR SCT049 00/M00 Q1022 11190095=

0000010000
005
SALJ32 LJLJ 110400
METAR LJCE 110400Z AUTO 05001KT 0400 -SN FG VV001 03/02 Q1020=

0000009500
006
SATU31 LTAA 110350 RRA
METAR LTAZ 110350Z VRB03KT 6000 BKN005 M03/M04 Q1023=

0000041600
007
SAFR23 LFPW 110400
METAR LFOC 110400Z AUTO 05004KT 3400 -RA BR OVC002/// ///TCU 06/05
Q1015=
METAR LFOE 110400Z AUTO 13003KT 0700 R22/1800D FG OVC002 05/05
Q1016=
METAR LFOJ 110400Z AUTO 05004KT 010V080 3500 BR BKN001///
OVC066/// ///TCU 05/05 Q1015=
METAR LFRJ 110400Z AUTO 22006KT 9999 OVC042 07/07 Q1016=
METAR LFRL 110400Z AUTO 19004KT 9999 // FEW025 SCT036 OVC045 08/07
Q1016=

0000010600
008
SACN61 CYGV 110400
METAR CYGV 110400Z AUTO 26003KT 9SM SCT140 M09/M12 A3005 RMK SLP178=

00000000