0000008900
869
SABA31 MYNN 110354
METAR MYNN 110400Z 10003KT 9999 FEW018 24/22 A3015=

0000099300
870
SANL33 EHDB 110355
METAR EHAK 110355Z AUTO 25022KT 4300 DZ FEW002/// BKN003/// BKN004///
07/06 Q1005=
METAR EHDV 110355Z AUTO 24021KT 5000 DZ FEW003/// BKN005/// BKN007///
07/07 Q1007=
METAR EHFD 110355Z AUTO 24028KT 9000 -RA FEW003/// SCT006///
BKN023/// 07/07 Q1006 RERA REDZ=
METAR EHFZ 110355Z AUTO 23025KT //// // ///////// 08/06 Q1008 RE//=
METAR EHJA 110355Z AUTO 21027KT 7000 -RA FEW007/// SCT011///
BKN015/// 07/06 Q1008=
METAR EHJR 110355Z NIL=
METAR EHKV 110355Z AUTO 25029KT 9999 -RA FEW011/// SCT015///
BKN029/// 09/06 Q1010 RERA REDZ=
METAR EHMA 110355Z AUTO 21020KT 4800 DZ FEW005/// BKN007/// OVC009///
07/06 Q1010=
METAR EHMG 110355Z AUTO 24024KT 5000 -RADZ FEW007/// SCT014///
BKN020/// 09/07 Q1009=
METAR EHPG 110355Z AUTO ///28KT 7000 DZ FEW006/// SCT009/// BKN012///
09/07 Q1011=
METAR EHQE 110355Z AUTO 25022KT 9999 -DZ FEW010/// SCT029///
BKN034/// 09/07 Q////=
METAR EHSA 110355Z NIL=
METAR EHSC 110355Z NIL=

0000008900
871
SABZ21 SBSV 110400
METAR SBSV 110400Z 09009KT 9999 SCT017 26/22 Q1013=

0000011500
872
SAMJ41 LWSK 110400
METAR LWSK 110400Z 02002KT 0450 R34/0600V0750N FG OVC002 01/00 Q1024
NOSIG=

0000020100
873
SPUS70 KWBC 110358
SPECI
KIGX 110353Z AUTO 00000KT 3SM RA BR OVC002 06/06 A3012 RMK AO2
     P0007=
KGVL 110355Z AUTO 08005KT 2SM RA BR OVC003 08/07 A3008 RMK AO2
     P0000=

0000009600
874
SAUS73 KWBC 110300 RRI
METAR
KBJC 110347Z 00000KT 30SM SCT080 01/M11 A2981=

0000009200
875
SAUS74 KWBC 110300 RRG
METAR
KSBD 110349Z 00000KT 10SM SKC 13/01 A3010=

0000008900
876
SATU35 LTAA 110350
METAR LCEN 110350Z 28009KT CAVOK 07/04 Q1022 NOSIG=

0000008900
877
SAID33 WALR 110400
METAR WALR 110400Z 34009KT 9000 SCT015 29/24 Q1011=

0000011500
878
SASR31 WSSL 110400
METAR WSSL 110400Z 35009KT 9999 SCT018 BKN300 30/25 Q1011 RMK 0330Z
Q1011 =

0000045500
879
SARH31 LDZM 110400
METAR LDSP 110400Z VRB03KT 9999 FEW030 SCT050 10/09 Q1022 NOSIG =
METAR LDPL 110400Z 00000KT 9000 BKN057 09/08 Q1021 NOSIG =
METAR LDDU 110400Z 05008KT CAVOK 10/05 Q1022 NOSIG =
METAR LDZA 110400Z 00000KT 0600 R05/0750V1100U R23/0700N FG VV002
03/03 Q1020 NOSIG =
METAR COR LDZD 110400Z 10004KT 9999 BKN027 OVC050 10/09 Q1022 NOSIG =
METAR LDRI 110400Z NIL=
METAR LDOS 110400Z 14008KT CAVOK 04/03 Q1022=

0000009500
880
SAQB31 LQBK 110400
METAR LQBK 110400Z 05002KT 2000 BR NSC 05/04 Q1020 NOSIG=

0000014100
881
SAXX69 EGRR 110400
METAR KQSA 110358Z VRB02KT 8000 HZ CLR M04/M10 A3036 RMK SLP380 WND
      DATA ESTMD ALSTG/SLP ESTMD=

0000011000
882
SAMR20 TFFF 110400
METAR TFFF 110400Z AUTO 06009KT 9999 FEW026 SCT050 OVC060 24/21
Q1016=

0000008300
883
SABZ18 SBGR 110400
METAR SBGR 110400Z 10002KT CAVOK 20/18 Q1017=

0000008300
884
SABZ18 SBKP 110400
METAR SBKP 110400Z 14005KT CAVOK 23/18 Q1016=

0000009200
885
SARM31 LUKK 110400
METAR LUBL 110400Z AUTO 26014KT 9999 NCD 02/M03 Q1015=

0000021200
886
SASQ31 LZIB 110400
METAR LZIB 110400Z 27002KT CAVOK 01/00 Q1020=
METAR LZKZ 110400Z 01001KT 0350 R01/0900N FZFG BKN002 M02/M02
Q1019=
METAR LZTT 110400Z VRB03KT 9999 FEW046 M02/M07 Q1017=

0000017200
887
SASQ41 LZIB 110400
METAR LZPP 110400Z NIL=
METAR LZSL 110400Z 20005KT 9999 FEW040 M01/M03 Q1019=
METAR LZZI 110400Z VRB01KT 9999 BKN057 01/M01 Q1019=

0000009900
888
SASR31 WSAP 110400
METAR WSAP 110400Z 01013KT 9999 
FEW018 BKN300 31/23 Q1011=

00000000