0000076900
729
SAFR32 LFPW 110430
METAR LFBD 110430Z AUTO 22004KT 4700 BR OVC014 09/08 Q1017=
METAR LFBH 110430Z AUTO 17004KT 3500 BR SCT009 BKN082 09/08 Q1016=
METAR LFBI 110430Z AUTO 18004KT 3500 BR NSC 05/05 Q1016=
METAR LFBL 110430Z AUTO 20006KT 9999 OVC013 07/06 Q1016=
METAR LFBO 110430Z AUTO 20004KT 160V220 9999 BKN021 BKN027 BKN160
08/06 Q1018=
METAR LFBP 110430Z AUTO 21003KT 9000 OVC030 10/08 Q1018=
METAR LFBT 110430Z AUTO 24003KT 6000 SCT009 OVC022 09/07 Q1018=
METAR LFBZ 110430Z AUTO 22001KT 9999 OVC023 12/09 Q1018=
METAR LFLB 110430Z AUTO 19003KT 1500 R18/1400U BCFG FEW012 02/01
Q1018=
METAR LFLX 110430Z AUTO 23009KT 9999 NSC 08/06 Q1015=
METAR LFML 110430Z 07009KT 9999 BKN031 12/07 Q1019 NOSIG=
METAR LFCK 110430Z NIL=

0000045400
730
SAFR33 LFPW 110430
METAR LFKB 110430Z 21004KT 9999 SCT031 SCT250 11/07 Q1020 NOSIG=
METAR LFKF 110430Z AUTO 07009KT 040V100 9999 FEW027/// 12/09 Q1020=
METAR LFKJ 110430Z AUTO 04007KT 9999 NCD 06/05 Q1019=
METAR LFMP 110430Z AUTO VRB03KT 9999 NSC 10/08 Q1018=
METAR LFMV 110430Z AUTO 17003KT 9999 OVC030 10/07 Q1020=
METAR LFSL 110430Z AUTO 14002KT 5000 BR NSC 04/03 Q1017=
METAR LFKC 110430Z NIL=
METAR LFLC 110430Z NIL=

0000104600
731
SAFR34 LFPW 110430
METAR LFCR 110430Z AUTO 12008KT 9999 NSC 07/04 Q1017=
METAR LFJL 110430Z AUTO 00000KT 5000 BR NSC 01/M00 Q1017=
METAR LFLP 110430Z AUTO 00000KT 2900 BR NSC 02/01 Q1018=
METAR LFLS 110430Z AUTO 22006KT 180V250 9999 OVC014 09/06 Q1018=
METAR LFLY 110430Z AUTO 17011KT 9999 NSC 10/05 Q1016=
METAR LFMT 110430Z 04006KT 9999 FEW030 OVC036 11/08 Q1019=
METAR LFMU 110430Z AUTO 04006KT 9999 BKN020 BKN028 BKN033 11/08
Q1019=
METAR LFOB 110430Z AUTO 21003KT 160V240 5000 BR OVC003 05/04 Q1016=
METAR LFOH 110430Z AUTO 17005KT 140V200 9999 SCT006 BKN011 BKN017
07/05 Q1015=
METAR LFOK 110430Z AUTO 36004KT 350V060 4500 BR NSC 02/02 Q1016=
METAR LFOP 110430Z AUTO 19003KT 0200 R22/0750N FG VV/// 05/05 Q1016=
METAR LFPB 110430Z AUTO VRB01KT 9000 BKN045 OVC066 05/05 Q1016=
METAR LFQA 110430Z AUTO VRB03KT 9999 -RA ///TCU 03/03 Q1016=
METAR LFQB 110430Z AUTO 28004KT 2300 BR NSC 02/02 Q1015=
METAR LFSN 110430Z AUTO VRB02KT 2200 -DZ BR FEW003/// SCT070///
OVC088/// ///TCU 01/01 Q1016=

0000094700
732
SAFR35 LFPW 110430
METAR LFMI 110430Z AUTO 10006KT 9999 OVC031 12/07 Q1019=
METAR LFMK 110430Z AUTO 12004KT 080V160 9999 SCT015 OVC021 10/08
Q1018=
METAR LFOV 110430Z AUTO 36005KT 0150 FG VV/// 05/05 Q1016=
METAR LFRD 110430Z AUTO 23003KT 0100 R35/0550N FG VV/// 04/03 Q1016=
METAR LFRI 110430Z AUTO 19002KT 4700 BR FEW006 BKN041 OVC140 08/07
Q1016=
METAR LFRM 110430Z AUTO VRB02KT 5000 BR FEW046 BKN100 BKN180 06/05
Q1015=
METAR LFRN 110430Z AUTO 30003KT 1300 R28///// BR BKN003 BKN009
OVC031 07/07 Q1016=
METAR LFRO 110430Z AUTO 22007KT 9999 BKN036 08/07 Q1016=
METAR LFRV 110430Z AUTO 33005KT 290V010 2100 BR OVC002 06/06 Q1016=
METAR LFRZ 110430Z AUTO 34005KT 2000 BR OVC003 08/08 Q1016=
METAR LFSB 110430Z 00000KT CAVOK 03/01 Q1017 NOSIG=
METAR LFST 110430Z AUTO VRB02KT 7000 BKN004/// BKN076/// OVC098///
///TCU 00/00 Q1017=
METAR LFTH 110430Z AUTO 35003KT 9999 BKN025 OVC030 11/09 Q1020=

0000078000
733
SAFR36 LFPW 110430
METAR LFBA 110430Z AUTO VRB02KT 9999 OVC010 08/08 Q1017=
METAR LFBE 110430Z AUTO 08004KT 4100 BR OVC017 04/04 Q1017=
METAR LFGJ 110430Z AUTO VRB03KT 7000 NSC 02/02 Q1016=
METAR LFJR 110430Z AUTO 08002KT 0250 R26/0900N FG VV/// 06/06 Q1016=
METAR LFMD 110430Z AUTO 01003KT 330V050 9999 OVC040 11/07 Q1020=
METAR LFMH 110430Z AUTO 16008KT 9999 NSC 06/03 Q1016=
METAR LFOT 110430Z VRB03KT 4000 BR FEW043 BKN100 06/05 Q1015 NOSIG=
METAR LFPN 110430Z AUTO 00000KT 2100 BR BKN003/// BKN048///
OVC054/// ///TCU 06/05 Q1016=
METAR LFRC 110430Z AUTO 20008KT 7000 SCT006 BKN047 07/06 Q1015=
METAR LFRG 110430Z AUTO 20005KT 6000 FEW010 BKN022 OVC027 06/05
Q1015=
METAR LFRK 110430Z AUTO 00000KT 5000 BR BKN027 OVC170 06/05 Q1015=

0000075300
734
SAFR37 LFPW 110430
METAR LFAQ 110430Z AUTO 20007KT 0800 R27///// FG VV/// 04/04 Q1016=
METAR LFAT 110430Z AUTO 15005KT 4000 BR BKN008 OVC012 04/04 Q1015=
METAR LFLN 110430Z AUTO 25001KT 4300 BR NSC 03/02 Q1016=
METAR LFPM 110430Z AUTO 00000KT 5000 -RA BR FEW003/// SCT047///
///TCU 05/05 Q1016=
METAR LFPT 110430Z AUTO 00000KT 2000 BR OVC003 05/05 Q1016=
METAR LFRH 110430Z AUTO VRB02KT 0200 0150 R25/0800N R07/0800N FG
VV/// 07/06 Q1017=
METAR LFRQ 110430Z AUTO 00000KT 0350 R28/1200N FG VV/// 06/06 Q1016=
METAR LFRT 110430Z AUTO 20003KT 170V230 9999 FEW040 06/05 Q1016=
METAR LFSD 110430Z AUTO 00000KT 9999 OVC008 03/02 Q1016=
METAR LFTW 110430Z AUTO 07003KT 9000 OVC034 10/06 Q1019=
METAR LFBU 110430Z NIL=

0000017100
735
FTCN34 CWAO 110400 AAA
TAF AMD CYBR 110434Z 1104/1112 29012KT 4SM BR BKN006 TEMPO 1104/1112
     P6SM NSW SCT006 OVC012
    RMK NXT FCST BY 110600Z=

0000057500
736
SASP31 LEMM 110430
METAR LEMD 110430Z 36003KT CAVOK 06/06 Q1016 NOSIG=
METAR LEBL 110430Z 33008KT 5000 BR SCT025 10/06 Q1018 NOSIG=
METAR LEPA 110430Z 05004KT CAVOK 09/08 Q1017 NOSIG=
METAR LEZL 110430Z 00000KT 8000 NSC 09/09 Q1016 NOSIG=
METAR LEMG 110430Z 29006KT 7000 FEW020 SCT070 10/10 Q1016 NOSIG=
METAR LEVC 110430Z VRB02KT 6000 BKN035 10/08 Q1018 NOSIG=
METAR LEAL 110430Z 29005KT 9000 FEW015 09/07 Q1017 NOSIG=
METAR LEIB 110430Z 00000KT 9999 FEW010 11/10 Q1016 NOSIG=
METAR LEVX 110430Z 00000KT 6000 NSC 06/06 Q1016 TEMPO 3000 BR=

0000069500
737
SASP32 LEMM 110430
METAR LEAS 110430Z NIL=
METAR LEBB 110430Z VRB01KT 9999 SCT021 BKN028 10/09 Q1018 NOSIG=
METAR LECO 110430Z 18003KT 0300 R21/0500N R03/0375N FG VV001
04/04 Q1017=
METAR LEGE 110430Z 00000KT 4000 BR BKN020 08/07 Q1018=
METAR LEST 110430Z VRB02KT 4000 BR NSC 04/04 Q1016 TEMPO 0700
BCFG=
METAR LEZG 110430Z 30003KT 0800 R30R/1300N R30L/1400N BCFG VV002
05/05 Q1018=
METAR LESO 110430Z VRB02KT 9999 SCT020 BKN028 10/09 Q1018=
METAR LEVT 110430Z 00000KT 4000 BR BKN010 01/01 Q1018=
METAR LERS 110430Z NIL=
METAR LEMH 110430Z 11003KT 8000 BKN008 12/12 Q1017=
METAR LEAM 110430Z 01005KT 9999 FEW020 12/08 Q1016=
METAR LEGR 110430Z NIL=

0000025700
738
SATS32 DTTA 110430
METAR DTMB 110430Z 18006KT CAVOK 11/06 Q1018 NOSIG=
METAR DTNH 110430Z 21004KT CAVOK 06/05 Q1018=
METAR DTTA 110430Z 17003KT 4000 BR SCT010 07/06 Q1018 NOSIG=
METAR DTTJ 110430Z 17004KT 6000 NSC 11/09 Q1019 NOSIG=

0000015500
739
SASP33 LEMM 110430
METAR LEVD 110430Z NIL=
METAR LEVS 110430Z NIL=
METAR LESA 110430Z 00000KT 6000 R21/1100N MIFG NSC M02/M02 Q1016=

0000025900
740
SACR31 LEMM 110430
METAR GCLP 110430Z 34008KT 9999 FEW020 15/10 Q1017 NOSIG=
METAR GCXO 110430Z NIL=
METAR GCTS 110430Z 36009KT 9999 FEW035 15/08 Q1017 NOSIG=
METAR GCRR 110430Z NIL=
METAR GCFV 110430Z NIL=
METAR GCLA 110430Z NIL=

0000028400
741
SASP34 LEMM 110430
METAR LEDA 110430Z NIL=
METAR LEJR 110430Z VRB02KT 9999 FEW060 12/11 Q1015=
METAR LELL 110430Z NIL=
METAR LEPP 110430Z 00000KT 0050 R33/0350D R15/0200N FG VV001
03/03 Q1018=
METAR LEXJ 110430Z VRB01KT 8000 -DZ SCT012 OVC018 11/10 Q1018=

0000010000
742
SASP39 LEMM 110430
METAR LETL 110430Z AUTO 16004KT 2000 HZ BKN001/// 03/03 Q1017=

0000025700
743
SATS40 DTTA 110430
METAR DTMB 110430Z 18006KT CAVOK 11/06 Q1018 NOSIG=
METAR DTNH 110430Z 21004KT CAVOK 06/05 Q1018=
METAR DTTA 110430Z 17003KT 4000 BR SCT010 07/06 Q1018 NOSIG=
METAR DTTJ 110430Z 17004KT 6000 NSC 11/09 Q1019 NOSIG=

0000013500
744
SAAK31 KWBC 110400 RRB
METAR
PAVD 110436Z 10SM BKN150 M07/M10 A2930=
PAWG 110436Z 06004KT 10SM CLR 02/M01 A2931=

0000012500
745
SAAK32 KWBC 110400 RRB
METAR
PADK 110436Z AUTO 21028G38KT 10SM SCT025 BKN035 OVC065 03/M01
     A2874=

0000025200
746
SAAO30 GOOY 110430
METAR GOOY 110430Z 01011KT 9999  FEW010 19/15 Q1013 NOSIG=
METAR GOGS 110430Z NIL=
METAR GOOK 110430Z NIL=
METAR GOSS 110430Z NIL=
METAR GOTK 110430Z NIL=
METAR GOTT 110430Z NIL=
METAR GOGG 110430Z NIL=

0000030000
747
SAAO33 GOOY 110430
METAR GQPP 110430Z NIL=
METAR GQNN 110430Z 02005KT 8000 NSC 15/13 Q1014 NOSIG=
METAR GQPA 110430Z NIL=
METAR GQNI 110430Z NIL=
METAR GQPZ 110430Z NIL=
METAR GUCY 110430Z NIL=
METAR GUXN 110430Z NIL=
METAR GULB 110430Z NIL=
METAR GUNZ 110430Z NIL=

0000065900
748
SAEE31 LOWM 110430
METAR UACK 110430Z 19006MPS 9999 -SHSN DRSN BKN013CB OVC040
M10/M12 Q1019 R20/452042 NOSIG RMK QFE741/0988=
METAR UACP 110430Z 19006MPS 7000 FEW020 OVC100 M06/M08 Q1019
R23/4/3537 NOSIG RMK QFE751/1002=
METAR UAII 110430Z VRB01MPS 7000 NSC M03/M08 Q1024
R10/0///70 NOSIG RMK QFE732/0977=
METAR UADD 110430Z 20006MPS 9999 NSC M04/M12 Q1023 NOSIG RMK
QFE710/0946=
METAR UASK 110430Z VRB01MPS 9999 SCT070 BKN230 M07/M14 Q1034
R12/820350 NOSIG RMK QFE750/1000=
METAR UASP 110430Z NIL=
METAR UAOO 110430Z 18005MPS 3300 BR BKN130 M05/M08 Q1022
R24/3///55 NOSIG RMK QFE754/1006=
METAR UAKD 110430Z NIL=

00000000