0000191500
309
SPUS70 KWBC 110412
SPECI
KAFN 110408Z AUTO 00000KT 1SM BR OVC002 M01/M01 A3024 RMK AO2
     T10061011=
KASD 110408Z AUTO 18007KT 3SM -RA BR OVC003 17/17 A2991 RMK AO2
     P0001 T01720167 TSNO=
KBFD 110408Z AUTO 16010G20KT 2SM BR OVC002 02/ A2996 RMK AO2 T0022
     TSNO $=
KBGM 110408Z 16007KT 1/2SM FG VV002 01/01 A3009 RMK AO2 RVRNO=
KCMH 110408Z 16004KT 10SM BKN028 OVC035 08/06 A2981 RMK AO2=
KDTN 110408Z AUTO 20006KT 10SM FEW009 SCT016 BKN043 17/16 A2977
     RMK AO2=
KDVN 110408Z AUTO 22008KT 1/2SM FG VV002 02/02 A2951 RMK AO2=
KFFC 110408Z AUTO 12005KT 2 1/2SM BR OVC003 09/09 A3003 RMK AO2
     T00890089=
KGNV 110408Z AUTO 18004KT 2 1/2SM BR FEW003 BKN013 OVC020 20/20
     A3011 RMK AO2 T02000200=
KLBT 110408Z AUTO 20004KT 10SM SCT004 OVC009 18/18 A3011 RMK AO2
     CIG 008V013 T01830178=
KMRH 110408Z AUTO 14013G21KT 1 3/4SM +RA BR SCT006 BKN015 OVC023
     18/18 A3014 RMK AO2 P0008 T01830183 TSNO=
KPAE 110408Z 15017G23KT 10SM SCT025 BKN032 OVC044 08/04 A2974 RMK
     AO2=
KVIH 110408Z AUTO 21009KT 10SM BKN014 BKN019 OVC024 07/07 A2956
     RMK AO2 T00670067 $=
PADU 110408Z 00000KT 10SM -RA SCT024 BKN031 OVC038 04/02 A2904 RMK
     AO2 P0000=
KDCA 110409Z 00000KT 2 1/2SM BR OVC004 03/02 A3018 RMK AO2 RAE02
     P0000=
KEAU 110409Z AUTO 00000KT 2SM -SN BR OVC034 M03/M03 A2948 RMK AO2
     SNB0359 P0000 T10281033=
KEWN 110409Z AUTO 11008KT 2SM +RA BR BKN008 OVC013 19/18 A3012 RMK
     AO2 LTG DSNT SE RAB0355 P0011=
KIND 110409Z 17006KT 2SM -RA BR OVC003 03/03 A2968 RMK AO2 P0001
     $=
KINT 110409Z AUTO 05005KT 3/4SM BR VV002 04/03 A3011 RMK AO2=
KPDK 110409Z AUTO 10004KT 1 1/4SM BR OVC002 08/07 A3003 RMK AO2
     RAE0359 P0001=
KSSF 110409Z AUTO 26003KT 3/4SM BR CLR 12/12 A2986 RMK AO2 VIS
     1/4V2 1/2=
PAAQ 110409Z AUTO 00000KT 8SM BKN005 OVC009 M04/M05 A2933 RMK AO2
     TSNO=

0000009800
310
SPUS41 KWBC 110412
SPECI
KCMH 110408Z 16004KT 10SM BKN028 OVC035 08/06 A2981=

0000011600
311
SPUS42 KWBC 110412
SPECI
KHSV 110408Z 15012KT 5SM BR FEW006 SCT010 BKN015 OVC250 11/11
A2989=

0000009700
312
SPUS42 KWBC 110412
SPECI
KTYS 110408Z 00000KT 4SM -RA BR OVC004 08/07 A2997=

0000010800
313
SPUS44 KWBC 110412
SPECI
KPAE 110408Z 15017G23KT 10SM SCT025 BKN032 OVC044 08/04 A2974=

0000036600
314
SABZ41 KWBC 110400 RRA
METAR
SBAF 110400Z 09003KT CAVOK 27/21 Q1013=
SBBH 110400Z 11006KT CAVOK 21/17 Q1017=
SBBU 110400Z 35005KT CAVOK 27/22 Q1015=
SBDN 110400Z 07009KT CAVOK 27/18 Q1013=
SBFL 110400Z 21010KT 6000 -TSRA SCT010 BKN030 FEW040CB 22/20
     Q1014=
SBIL 110400Z 27005KT 5000 VCSH SCT009 BKN015 BKN070 24/23
     Q1013=

0000032100
315
SABZ42 KWBC 110400 RRA
METAR
SBME 110400Z 03004KT 9999 SCT020 25/23 Q1014=
SBPV 110400Z 25001KT 5000 -RA VCTS SCT004 BKN015 FEW025CB BKN070
     24/23 Q1011=
SBSC 110400Z 05003KT CAVOK 25/23 Q1011=
SBUR 110400Z 03006KT CAVOK 21/17 Q1016=
SBVH 110400Z 03006KT 9999 FEW015 SCT090 21/20 Q1014=

0000045000
316
SABZ43 KWBC 110400 RRB
METAR
SBAN 110400Z 00000KT 9999 VCTS SCT030 FEW040CB 18/16 Q1018=
SBAT 110400Z 00000KT 9999 -TSRA FEW015 FEW025CB BKN090 23/22 Q1
     013=
SBAT 110400Z 00000KT 9999 -TSRA FEW015 FEW025CB BKN090 23/22
     Q1013=
SBKG 110400Z 10005KT 6000 BKN010 21/21 Q1015=
SBPJ 110400Z 13004KT 9999 FEW010 22/20 Q1012=
SBQV 110400Z 09011KT 9999 BKN009 20/18 Q1018=
SBUL 110400Z 09007KT CAVOK 20/16 Q1017=

0000040700
317
SARA33 RUMS 110400
METAR UIAA 110400Z VRB02MPS 9999 SKC M24/M31 Q1030 NOSIG RMK QFE713
29CLRD70=
METAR UIBB 110400Z 10002MPS 6000 -SHSN SCT026CB BKN100 M19/M22 Q1028
NOSIG RMK QFE727/0970 30490240=
METAR UIII 110400Z 09002MPS CAVOK M18/M20 Q1032 NOSIG RMK QFE731/0975
12490340=
METAR UIUU 110400Z 17001MPS 8000 -SN FEW033 OVC100 M15/M17 Q1032
NOSIG RMK QFE729/0972 26450545=

0000054500
318
SARA36 RUMS 110400
METAR UWUU 110400Z 19003MPS 150V220 4500 BR OVC007 M02/M02 Q1007
14620342 TEMPO 1000 SN FZRA BKN003 RMK QFE745/0993=
METAR USCC 110400Z 14002MPS 3000 BR FU BKN008 OVC070 M07/M07 Q1010
09490350 TEMPO 1100 BR FU BKN005 RMK QFE737=
METAR USNN 110400Z 04003MPS 9999 -SN OVC009 M15/M17 Q1019 NOSIG RMK
QFE760 03410232=
METAR USRR 110400Z 09004MPS 7000 FEW010 OVC070 M22/M25 Q1018 NOSIG
RMK QFE758 07////35=
METAR USSS 110400Z 14003MPS 7000 FEW010 OVC067 M05/M07 Q1008 08450137
NOSIG RMK QFE736=

0000063100
319
SARS33 RUMS 110400
METAR ULLI 110400Z 32007MPS 9999 -SN DRSN BKN014 OVC066 M04/M06 Q0991
88550536 NOSIG=
METAR UUBW 110400Z 22004MPS 9999 OVC015 03/01 Q0986 NOSIG=
METAR UUDD 110400Z 22004MPS 9999 -RA BKN007 OVC100 03/02 Q0985
64290095 14290095 NOSIG=
METAR UUDL 110400Z 18002MPS 5000 BR OVC003 01/01 Q0984 NOSIG RMK
QBB090 QFE729 23690532=
METAR UUEE 110400Z 21005MPS 7000 -RA OVC007 02/01 Q0984 75290151
25290151 NOSIG=
METAR UUWW 110400Z 22005MPS 9999 -RA BKN006 02/01 Q0984 24290045
NOSIG=
METAR UUMO 110400Z 23003MPS 9999 -RA BKN009 OVC020 02/02 Q 985 NOSIG
RMK QFE724/0965 26250550=

0000012300
320
SARA31 RUMS 110400
METAR UEEE 110400Z 00000MPS 3200 BR OVC200 M43/M48 Q1035 NOSIG RMK
QFE767 23490145=

0000107000
321
SARS32 RUMS 110400
METAR URKA 110400Z 30005G08MPS 9999 SCT013 BKN120 06/04 Q1013 NOSIG
RMK QFE755/1007 SC070=
METAR URKK 110400Z 24007G11MPS 9999 BKN038 10/05 Q1011 TEMPO
24012G17MPS RMK QFE755 SC065=
METAR URML 110400Z 17004MPS 5000 BR SCT011 01/01 Q1012 NOSIG RMK MT
OBSC QFE759/1012 SC070=
METAR URMM 110400Z VRB01MPS 9999 BKN230 M05/M06 Q1009 30CLRD70 NOSIG
RMK QFE728/0971=
METAR URMN 110400Z 20004MPS 9999 SCT260 05/M09 Q1009 NOSIG RMK QFE720
SC07=
METAR URMO 110400Z NIL=
METAR URMT 110400Z 32005MPS CAVOK 05/M01 Q1008 NOSIG RMK QFE718
SC0.60=
METAR URRR 110400Z 26008G11MPS 9999 -SHRA BKN005 SCT026CB OVC100
04/04 Q1006 22290043 TEMPO 25015G20MPS RMK QBB150 MAST OBSC=
METAR URSS 110400Z 05006MPS 9999 SCT130 BKN210 03/M02 Q1017 NOSIG RMK
R06/36001MPS QFE761 02000070 06//////=
METAR URWA 110400Z 20003MPS 9999 BKN040 01/M01 Q1013 NOSIG RMK
QFE761/1015 SC055=
METAR URWI 110400Z 20008G11MPS CAVOK 03/00 Q1008 NOSIG=
METAR URWW 110400Z 20008G11MPS 9999 -RA BKN025 OVC100 03/02 Q1003
NOSIG RMK 29290060=

0000037500
322
SARS31 RUMS 110400
METAR ULWC 110400Z 00000MPS 3600 BR OVC002 01/00 Q0981 TEMPO 1000
SNRA BR RMK QBB060 QFE726/0968 SC042=
METAR UUBP 110400Z NIL=
METAR UUOB 110400Z 26006G10MPS 9999 BKN017 03/01 Q0998 29290050
NOSIG=
METAR UUOK 110400Z NIL=
METAR UWGG 110400Z 18004MPS 4600 -SN OVC007 01/00 Q0988 TEMPO 1000
SHSNRA VV004 18691035 RMK QFE734=

0000096800
323
SARA34 RUMS 110400
METAR UNAA 110400Z 19002MPS 9000 SCT040 BKN090 M04/M09 Q1031 NOSIG
RMK QFE751 20090040=
METAR UNBB 110400Z 20004MPS 8000 -SN BKN029 M08/M10 Q1031 NOSIG RMK
QFE751/1001 24452045=
METAR UNEE 110400Z 19006MPS 2000 SN OVC006 M08/M09 Q1029 NOSIG RMK
QFE748 23452045=
METAR UNKL 110400Z 24003MPS 200V270 9999 -SHSN SCT033CB BKN083
M06/M11 Q1027 NOSIG RMK QFE745 29////40=
METAR UNNT 110400Z 21005MPS 4000 -SN DRSN BKN014 OVC030 M07/M09 Q1029
25390137 16390142 NOSIG RMK QFE762/1016=
METAR UNOO 110400Z 17005G08MPS 4500 BR BKN016 BKN033CB M08/M10 Q1023
25390137 NOSIG RMK QFE759=
METAR UNTT 110400Z 22006MPS 5000 -SHSN SCT018CB OVC066 M07/M10 Q1026
NOSIG RMK QFE755 21390032=
METAR USTR 110400Z 17004MPS 9999 BKN014CB M07/M07 Q1013 TEMPO 1500
SHSN BKN005 RMK QFE750/1000 21390050 12750029=
METAR USHH 110400Z 04002MPS 7000 -SN BKN004 OVC080 M20/M22 Q1016
TEMPO 1000 SN BKN003 RMK QBB120 QFE758 06////50=

0000012000
324
SARA35 RUMS 110400
METAR USCM 110400Z VRB02MPS 6000 OVC012 M07/M08 Q1009 NOSIG 19420150
RMK QFE719=

0000104800
325
SARS35 RUMS 110400
METAR USPP 110400Z 12004MPS 9000 OVC016 M05/M05 Q1006 21310140 NOSIG
RMK QFE744/0992=
METAR UWKD 110400Z 16010G13MPS 9999 -SNRA OVC005 M00/M01 Q0998
R11/2/0050 TEMPO 2000 OVC003 RMK QFE738/0984=
METAR UWKE 110400Z 17004MPS 9999 -SN OVC005 M04/M04 Q1003 NOSIG RMK
 QBB160 QFE735/0980 21420542=
METAR UWKS 110400Z 16009MPS 1600 SHSN OVC006CB M01/M01 Q0993 TEMPO
1000 SHSN OVC004CB RMK QBB190 QFE730 06590534=
METAR UWLW 110400Z 17011MPS 4000 DRSN BKN004 OVC011 M01/M01 Q0999
20820550 TEMPO 18012MPS OVC004 RMK QFE744=
METAR UWOR 110400Z 27003MPS 5000 BR BKN005 OVC020 M01/M03 Q1010
25450245 NOSIG RMK QBB160 QFE734/0979=
METAR UWOO 110400Z 26002MPS 3200 -FZDZ BR OVC005 M01/M02 Q1010
26830334 TEMPO 1000 BR OVC003 RMK QBB150 QFE747/0996=
METAR UWSS 110400Z 19007G10MPS 0300 R12/0800 SN FG VV002 00/00 Q0999
1219//55 NOSIG RMK QVV060 QFE737=
METAR UWWW 110400Z 18007MPS 1100 R23/P1500 BR OVC002 M01/M02 Q1003
23520540 33//99// TEMPO 0600 FZDZ FZFG VV002 RMK QBB060
QFE741/0988=

0000025200
326
SAHO31 MHTG 110400
METAR MHLC 110400Z 21002KT 9999 FEW024 BKN080 21/20 Q1015 A2997
NOSIG=
METAR MHLM 110400Z 00000KT 9999 FEW026 BKN080 23/23 Q1015 A2997
NOSIG=
METAR MHTG 110400Z 09002KT 9999 BKN024 19/15 Q1020 A3012 NOSIG= 

0000071900
327
SARA32 RUMS 110400
METAR UHBB 110400Z 01003MPS 330V050 CAVOK M26/M34 Q1022 NOSIG RMK
QFE749/0999 36410160=
METAR UHHH 110400Z 25008G12MPS 9999 DRSN SKC M22/M30 Q1018 NOSIG RMK
QFE757/1010 23090060=
METAR UHMA 110400Z 06010G15MPS 9999 DRSN SCT200 M13/M19 Q1012 NOSIG
RMK QFE755/1007=
METAR UHMD 110400Z NIL=
METAR UHMM 110400Z 03004MPS 9999 FEW066 M18/M29 Q1008 NOSIG RMK
QFE741 88820555 MOD TURB 0-1000=
METAR UHPP 110400Z 32002MPS 9999 BKN024CB M04/M13 Q0994 NOSIG RMK MT
OBSC QFE742/0990 SC05 055 055=
METAR UHSS 110400Z 36003MPS 9999 BKN040 M14/M18 Q1011 NOSIG RMK
QFE757/1009 01810366=
METAR UHWW 110400Z 00000MPS 9999 SKC M08/M22 Q1024 NOSIG RMK
QFE767/1023 25CLRD70=

0000064600
328
SARS36 RUMS 110400
METAR ULAA 110400Z 07006MPS 040V100 6000 -SN BLSN OVC008 M17/M20
Q1000 BECMG 2000 SN BLSN BKN005 RMK QFE749/0999 SC053=
METAR ULMM 110400Z 00000MPS 9999 SCT004 M34/M39 Q1017 NOSIG RMK
QBB130 OBST OBSC QFE755 31450239=
METAR ULOO 110400Z NIL=
METAR ULPB 110400Z AUTO 36005MPS 340V040 1900 NCD M12/M13 Q0991=
METAR UMKK 110400Z 26003MPS 9999 BKN021 03/01 Q1006 R24/29//60 NOSIG
RMK QFE754/1005=
METAR UUOO 110400Z 24005MPS 9999 OVC008 02/01 Q0994 NOSIG RMK
30290250=
METAR UUYY 110400Z 04003MPS 5000 -SHSN BR SCT008 BKN016CB OVC066
M12/M14 Q1001 TEMPO 0700 +SHSN 0145//33 RMK QFE742/0989=

00000000