0000011100
229
UANT01 CWAO 111542
ARP SQC7955 5417N05732W 1542 F350 MS61 292/99 KT
9VSFF QXT AOW 111542 F37A
0000011000
230
UANT01 CWAO 111542
ARP VIR75B 4912N04934W 1542 F380 MS59 300/67 KT
GVROS DDL YYT 111542 F02A
0000011000
231
UANT01 CWAO 111542
ARP AZA60U 4543N04613W 1542 F360 MS60 307/51 KT
EIISB QXT AOE 111542 F37A
0000046200
232
FTCA31 TTPP 102200 RRB
TAF TGPY 110200Z 1106/1206 09010KT 9999 SCT020 
     FM111200Z 11014KT 9999 FEW020 
     BECMG 1122/1124 08008KT FEW018 
     PROB30 
     TEMPO 1200/1206 6000 SHRA SCT017=
TAF TBPB 110200Z 1106/1206 06015KT 9999 SCT018 
     TEMPO 1106/1118 8000 SHRA BKN014 BKN038=
TAF COR TLPL 110300Z 1106/1206 08018G28KT 9999 SCT024 
     TEMPO 1106/1206 SHRA BKN022 
     PROB30 
     TEMPO 1106/1112 5000 SHRA=

0000012100
233
SPCN51 CWAO 110342
SPECI CZCP 110342Z AUTO 28024KT 2 3/4SM -SN CLR M33/ A2943 RMK VSBY
VRBL 1.7V5.0=

0000010800
234
SANT31 KWBC 110300 RRD
METAR
GVAC 110300Z 02005KT 9999 SCT013 SCT015 19/15 Q1016 NOSIG=

0000019000
235
FCUK36 EGGY 110200 AAA
TAF AMD EGPA 110343Z 1103/1112 27014KT 9999 FEW010 SCT020 TEMPO
    1103/1105 4000 BR SHRA BKN010 PROB30 TEMPO 1105/1112 5000 SHRASN
    BKN008=

0000011600
236
SPUS44 KWBC 110343
SPECI
KOLM 110339Z 19018G23KT 6SM -RA BR SCT013 BKN037 OVC046 09/08
A2978=

0000026600
237
FTUS42 KWBC 110348 CCA
TAF COR
KNEW 110345Z 1104/1124 15010KT 3SM -RA BR SCT003 OVC015
      TEMPO 1105/1109 2SM TSRA OVC006CB
     FM110900 22015KT 3SM -RA BR OVC002
     FM111200 27013KT 2SM BR OVC003
     FM111600 30012KT P6SM SCT250=

0000022700
238
FTUS41 KWBC 110348 AAA
TAF AMD
KLUK 110344Z 1104/1124 17007KT 6SM -SHRA BR OVC035
      TEMPO 1106/1109 2SM RA BR BKN006
     FM111300 21010G18KT P6SM VCSH OVC012
     FM111600 25012G22KT P6SM OVC025=

0000026000
239
FTUS31 KWBC 110348 AAA
TAF AMD
KCVG 110345Z 1104/1206 17011KT 6SM -SHRA BR OVC025
      TEMPO 1105/1108 2SM RA BKN006
     FM111200 22011G20KT P6SM VCSH OVC012
     FM111600 25016G25KT P6SM OVC025
     FM112300 26014KT P6SM BKN025=

0000008600
240
SAMX55 MMIO 110400
METAR MMIO 110340Z 00000KT 10SM SKC 12/06 A3015=

0000026600
241
FTUS42 KWBC 110348 AAA
TAF AMD
KNEW 110344Z 1104/1124 18010KT 3SM -RA BR SCT003 OVC015
      TEMPO 1105/1109 2SM TSRA OVC006CB
     FM110900 22015KT 3SM -RA BR OVC002
     FM111200 27013KT 2SM BR OVC003
     FM111600 30012KT P6SM SCT250=

0000043800
242
FTUS71 KWBC 110348 AAA
TAF AMD
KCVG 110345Z 1104/1206 17011KT 6SM -SHRA BR OVC025
      TEMPO 1105/1108 2SM RA BKN006
     FM111200 22011G20KT P6SM VCSH OVC012
     FM111600 25016G25KT P6SM OVC025
     FM112300 26014KT P6SM BKN025=
KLUK 110344Z 1104/1124 17007KT 6SM -SHRA BR OVC035
      TEMPO 1106/1109 2SM RA BR BKN006
     FM111300 21010G18KT P6SM VCSH OVC012
     FM111600 25012G22KT P6SM OVC025=

0000026600
243
FTUS72 KWBC 110348 CCA
TAF COR
KNEW 110345Z 1104/1124 15010KT 3SM -RA BR SCT003 OVC015
      TEMPO 1105/1109 2SM TSRA OVC006CB
     FM110900 22015KT 3SM -RA BR OVC002
     FM111200 27013KT 2SM BR OVC003
     FM111600 30012KT P6SM SCT250=

0000026600
244
FTUS72 KWBC 110348 AAA
TAF AMD
KNEW 110344Z 1104/1124 18010KT 3SM -RA BR SCT003 OVC015
      TEMPO 1105/1109 2SM TSRA OVC006CB
     FM110900 22015KT 3SM -RA BR OVC002
     FM111200 27013KT 2SM BR OVC003
     FM111600 30012KT P6SM SCT250=

0000031000
245
FTUS73 KWBC 110348
TAF
TAF AMD KOFF 1103/1208 27006KT 9999 SCT070 QNH2956INS
      BECMG 1105/1106 28006KT 9999 SCT080 QNH2964INS
      BECMG 1114/1115 28009KT 9999 SCT100 510152 QNH2967INS
      BECMG 1119/1120 28009KT 9999 SCT100 QNH2968INS T06/1122Z
      TM05/1111Z AMD 110331=

0000011600
246
SAGR31 LGAT 110320 RRA
METAR LGKR 110320Z 00000KT 9999 FEW014 SCT018 BKN070 11/10 Q1022
 NOSIG=

0000063900
247
FTPK31 OPKC 110400
TAF OPKC 110400Z 1106/1212 05010G20KT 7000 NSC FM111500Z 03010KT 6000
NSC TEMPO 1201/1205
03007KT 4000 FU NSC FM120700Z 06008G18KT 7000 NSC=
TAF OPNH 110330Z 1106/1212 03012KT 4000 HZ NSC FM111800Z 36007KT 3000
FU NSC FM112200Z VRB03KT 2000 FU/BR NSC TEMPO 1201/1205 00000KT 1000
BR/NSC FM120700Z 03010KT 4000 HZ NSC=
TAF OPSK 110330Z 1106/1206 05012KT 4000 HZ NSC FM111800Z 36007KT 3000
FU NSC FM112200Z VRB03KT 2000 FU/BR NSC TEMPO 1201/1205 00000KT 1000
BR NSC=
TAF OPGD 110330Z 1106/1206 06010KT 5000 HZ SCT200 FM111500Z 06010KT
4000 FU NSC TEMPO 1200/1205 VRB03KT 2500 FU NSC=

0000024800
248
FTCN37 CWAO 110300 AAA
TAF AMD CYSJ 110346Z 1103/1112 24006KT P6SM BKN008 OVC040 TEMPO
     1103/1109 SCT008 OVC040
    FM110900 VRB03KT 5SM BR BKN005 OVC012 PROB30 1109/1112 3SM -FZDZ
     BR
    RMK NXT FCST BY 110600Z=

00000000