0000016300
620
SSVX13 LFPW 111600
ZZYY 13593 11014 1600/ 738164 018543 6113/ 22219 00167 33300 88872
 20000 43616 444 20130 11014 1555/ 50101 80118 80035 9/015=
0000015700
621
SSVX13 LFPW 111600
ZZYY 62507 11014 1600/ 747402 011727 6113/ 11119 40123 57024 22219
 00119 444 20130 11014 1557/ 50101 80104 80031 9/015=
0000015700
622
SSVX13 LFPW 111600
ZZYY 62508 11014 1600/ 745929 006068 6113/ 11119 40197 57009 22219
 00130 444 20130 11014 1555/ 50101 80104 80031 9/015=
0000011200
623
UANT01 CWAO 111604
ARP FDX5081 5239N05541W 1604 F350 MS62 296/99 KT
N589FE QXS YAY 111604 F95A
0000018400
624
SSVX13 LFPW 111600
ZZYY 41800 11014 1600/ 725934 035839 6110/ 11119 40181 57024 22219
 00232 33300 88872 20000 43748 444 20100 11014 1600/ 50101 80148
 80069 9/015=
0000018400
625
SSVX13 LFPW 111600
ZZYY 62504 11014 1600/ 756172 018679 6110/ 11119 40051 57043 22219
 00102 33300 88872 20000 43535 444 20100 11014 1600/ 50101 80134
 80000 9/015=
0000018400
626
SSVX13 LFPW 111600
ZZYY 62503 11014 1600/ 745952 002458 6113/ 11119 40204 57004 22219
 00134 33300 88872 20000 43543 444 20130 11014 1500/ 50101 80100
 80000 9/015=
0000016900
627
SSVX13 LFPW 111600
ZZYY 41737 11014 1600/ 725759 037036 6113/ 11119 40183 57023 33300
 88872 20000 43753 444 20130 11014 1500/ 50101 80148 80065 9/015=
0000011000
628
UANT01 CWAO 111605
ARP ACA871 5135N03516W 1605 F330 MS55 314/31 KT
CFNNQ DDL XXN 111605 F23A
0000011100
629
UANT01 CWAO 111605
ARP AWE755 4717N04919W 1604 F380 MS61 309/65 KT
N288AY DDL XXN 111605 J06A
0000011100
630
UANT01 CWAO 111605
ARP UAL986 6305N04448W 1605 F320 MS61 184/26 KT
N646UA DDL KUS 111605 F43A
0000011000
631
UANT01 CWAO 111605
ARP AFR734 4708N02323W 1605 F340 MS52 200/78 KT
FGITD QXT AOE 111605 F38A
0000011100
632
UANT01 CWAO 111605
ARP UAL988 4939N04811W 1605 F360 MS61 297/55 KT
N776UA QXS YYT 111605 F34A
0000011000
633
UANT01 CWAO 111605
ARP DLH426 5338N03450W 1605 F360 MS56 226/18 KT
DAIGY QXT AOE 111605 J28A
0000010900
634
UANT01 CWAO 111605
ARP KLM17 5113N03828W 1605 F360 MS58 296/54 KT
PHAOC QXT AOE 111605 J45A
0000155100
635
SNIY20 LIIB 111600
AAXX 11164
16008 42560 82103 10018 21013 38550 48508 51001 887// 333 88720
      92865=
16088 41720 82404 10090 20084 30100 40219 55002 71022 8527/ 333
      85650=
16110 41696 80000 10090 20070 30211 40216 56008 71022 8358/ 333 55300
      83640 87357 555 0000/=
16134 42780 62725 10038 21035 37841 48514 56007 83018 333 55300 83450
      444 78164=
16153 42598 50209 10140 20088 39943 40206 56003 82531 333 55308 82630
      555 0213/=
16206 42670 51102 10130 20091 30208 40217 58002 83230 333 83640
      83356=
16219 42765 83006 10050 20002 38160 48542 56007 8805/ 333 55300
      88356=
16280 42497 80105 10120 20090 39988 40211 57004 882// 333 55310 88615
      555 0100/=
16310 42897 60000 10136 20110 39990 40211 54002 82011 333 55305 82458
      555 0100/=
16360 42597 60406 10132 20114 30081 40216 58003 82131 333 55300 82820
      84357 555 0000/=
16400 42498 61208 10148 20121 39922 40210 56009 82139 333 55301 82819
      83359 555 0213/=
16420 42898 42303 10148 20102 30144 40209 55001 83032 333 55304 83358
      555 0100/=
16429 42970 61407 10160 20126 30186 40197 58005 84034 333 55305
      84359=
16470 42965 61804 10174 20096 39961 40195 55001 80006 333 55307 22///
      95000=
16480 42998 11602 10174 20156 30150 40211 54000 81030 333 55308 81360
      555 0100/=
16522 42898 73504 10130 20100 39960 40204 54000 83058 333 55300 83358
      555 0200/=
16550 42598 81504 10142 20115 30035 40214 53002 8682/ 333 55300 83820
      83630 555 0200/=
0000015100
636
SSVX13 LFPW 111600
ZZYY 13661 11014 1600/ 722734 037834 6113/ 11119 54000 22219 00242
 444 20130 11014 1500/ 50101 80050 80000 9/015=
0000015700
637
SSVX13 LFPW 111600
ZZYY 14528 11014 1600/ 322169 053121 6113/ 11119 40165 52017 22219
 00270 444 20130 11014 1500/ 50101 80150 80015 9/015=
0000015700
638
SSVX13 LFPW 111600
ZZYY 44875 11014 1600/ 732079 029350 6113/ 11119 40271 52079 22219
 00204 444 20130 11014 1500/ 50101 80102 80002 9/015=
0000015700
639
SSVX13 LFPW 111600
ZZYY 14515 11014 1600/ 333205 050015 6113/ 11119 40090 52012 22219
 00204 444 20130 11014 1500/ 50101 80148 80013 9/015=
00000000