0000005900
949
FTID31 EGGY 110300
TAF WIDD 110300Z NIL=

0000015900
950
FTLB31 OLBA 110400
TAF OLBA 110400Z 1106/1212 VRB05KT 6000 BKN026 BECMG 1109/1112
    27013KT BECMG 1118/1121 20015KT TEMPO 1106/1212 -RA=

0000006500
951
SABX31 EBBR 110350 RRA
METAR EBLG 110350Z NIL=

0000059400
952
SAPR82 SPIM 110400
METAR SPHI 110400Z 17010KT CAVOK 23/21 Q1012 RMK PP000=
METAR SPIM 110400Z 16010KT CAVOK 22/19 Q1012 NOSIG RMK FEW170 PP000=
METAR SPQT 110400Z 00000KT 9999 SCT020 BKN100 24/23 Q1010
NOSIG RMK PP000=
METAR SPQU 110400Z 00000KT 9999 SCT040 SCT070 12/10 Q1025
RMK PP000=
METAR SPRU 110400Z 15007KT 9000 NSC 21/19 Q1012 RMK BR PP000=
METAR SPSO 110400Z /////KT 9999 FEW100 21/19 Q1012 RMK PP000=
METAR SPTN 110400Z VRB01KT 9999 BKN050 20/16 Q1012 RMK PP000=
METAR SPZO 110400Z 07005KT 9999 FEW030 SCT043 BKN070 10/07 Q1031 
RERA RMK PPTRZ=

0000017200
953
FCAP32 FAPR 110300 RRA
TAF FAUT 110300Z 1104/1115 VRB01KT 9999 BKN020
         PROB30 TEMPO 1112/1115 5000 SHRA BKN012
         TX24/1112ZTN17/1104Z=

0000028700
954
SAEQ01 SEQU 110400
METAR SEQM 110400Z 17002KT 8000 VCFG FEW013 SCT100 13/12 Q1026 RMK 
    A3030 NOSIG=
METAR SEGU 110400Z 24007G17KT 9999 SCT023 BKN100 25/21 Q1011 RMK 
A2986 NOSIG=
METAR SEMT 110400Z NIL=
METAR SELT 110400Z 36002KT 9999 BKN030 10/10 Q1029=

0000013700
955
FTNT31 KWBC 110400
TAF
TAF GVAC 110400Z 1106/1212 03006KT 9999 SCT013 SCT015
      BECMG 1110/1112 03012KT BKN014=

0000026300
956
FTUS31 KWBC 110400 AAA
TAF AMD
KMSY 110358Z 1104/1124 19008KT 5SM -RA BR BKN003 OVC006
      TEMPO 1105/1109 2SM TSRA OVC006CB
     FM110900 21012KT 3SM -RA OVC008
     FM111300 25012KT 5SM BR OVC015
     FM111600 30010KT P6SM SCT250=

0000009200
957
SAMX31 KWBC 110345 RRE
METAR
MMMY 110340Z 29005KT 12SM SKC 16/12 A2996=

0000006700
958
SANT31 KWBC 110300 RRF
METAR
GVAC 110300Z NIL=

0000022400
959
FTUS71 KWBC 110400
TAF
TAF AMD KLCK 110351Z 1104/1124 16009KT P6SM BKN035
     FM110500 17010KT 6SM BR VCSH OVC020
     FM110800 17012KT 4SM -RA BR OVC008
     FM111400 23014G23KT P6SM VCSH OVC012=

0000026300
960
FTUS72 KWBC 110400 AAA
TAF AMD
KMSY 110358Z 1104/1124 19008KT 5SM -RA BR BKN003 OVC006
      TEMPO 1105/1109 2SM TSRA OVC006CB
     FM110900 21012KT 3SM -RA OVC008
     FM111300 25012KT 5SM BR OVC015
     FM111600 30010KT P6SM SCT250=

0000016700
961
FTUS73 KWBC 110400 AAA
TAF AMD
KHUT 110358Z 1104/1124 31007KT P6SM BKN060
     FM110600 30007KT P6SM SCT250
     FM111600 31012G20KT P6SM SKC=

0000025900
962
FTUS75 KWBC 110400
TAF
TAF PAEI 1104/1210 VRB03KT 9999 FEW150 QNH2954INS TXM29/1204Z
      TNM42/1114Z=
TAF PAFB 1104/1210 VRB04KT 9999 SCT100 QNH2954INS TXM31/1204Z
      TNM43/1114Z
      LAST NO AMDS AFT 1106
      NEXT 1312=

0000087600
963
SATU31 LTAA 110350
METAR LTAC 110350Z 27003KT 230V310 4800 BR OVC007 M04/M05 Q1022
 NOSIG=
METAR LTAF 110350Z 04006KT CAVOK 03/M01 Q1021 BECMG TL0500 5000 BR=
METAR LTAI 110350Z 34004KT 9999 SCT020 BKN200 05/04 Q1022 NOSIG=
METAR LTAJ 110350Z 00000KT CAVOK M02/M05 Q1021 NOSIG=
METAR LTAZ 110350Z NIL=
METAR LTBA 110350Z VRB02KT CAVOK 08/06 Q1022 NOSIG=
METAR LTBJ 110350Z 10001KT 4500 BR NSC 05/03 Q1022 BECMG TL0500 1200
 BCFG=
METAR LTBS 110350Z 09005KT 9999 R01/0750 R19/P1500U NSC 04/04 Q1022
 NOSIG=
METAR LTCG 110350Z 26009KT CAVOK 12/M05 Q1018 NOSIG=
METAR LTCS 110350Z 33007KT CAVOK 02/M07 Q1021=
METAR LTFC 110350Z 00000KT 0400 R05/0450U R23/0500D FZFG VV001
 M05/M05 Q1023=
METAR LTFE 110350Z 00000KT 6000 SCT030 BKN090 09/08 Q1022 NOSIG=
METAR LTFJ 110350Z 28004KT 9999 FEW013 05/01 Q1022 BECMG TL0400 4000
 BR=

0000010300
964
SARM31 LUKK 110400
METAR LUKK 110400Z 26009KT CAVOK 03/M02 Q1017 R26/CLRD65
NOSIG=

0000045000
965
SACU31 MUHA 110400
METAR
MUHA 110355Z 12001KT 9000 NSC 18/17 Q1018=
MUVR 110350Z 08006KT 8000 FEW020 23/21 Q1019=
MUSC 110350Z 09005KT 9000 NSC 22/21 Q1019=
MUCC 110352Z 11006KT 090V150 9000 SCT020 25/21 Q1018=
MUCM 110350Z 08009KT 9000 FEW025 20/18 Q1019=
MUHG 110350Z 09008KT 9000 FEW020 24/20 Q1018=
MUCU 110351Z 33005KT 9000 FEW020 22/19 Q1018=
MUCL 110352Z 12004KT 090V150 9000 FEW018 25/22 Q1017=
MUCF  NIL=

0000018600
966
SAPR76 SPIM 110400
METAR SPCL 110400Z 02004KT 9999 FEW025 BKN070 25/24 Q1011 RMK
PP000=
METAR SPJL 110400Z NIL=
METAR SPME 110400Z NIL=
METAR SPST 110400Z NIL=

0000008400
967
SAAG41 SAZS 110400
METAR SAZS 110400Z  18005KT CAVOK 12/03 Q1022=

0000010200
968
SACG20 FCBB 110400
METAR FCBB 110400Z 23002KT 8000 FEW010 BKN018 23/22 Q1013 NOSIG=

00000000