0000026100
769
FTUS80 KWBC 110354
TAF
TAF KARA 110347Z 1104/1124 18012G18KT P6SM VCTS OVC005CB
      TEMPO 1104/1106 2SM TSRA BR OVC003CB
     FM110600 19012KT P6SM VCSH OVC004
     FM111000 27009KT 1SM BR OVC002
     FM111600 33010KT P6SM SCT006=

0000107500
770
FTUS80 KWBC 110354 AAA
TAF AMD
KABQ 110352Z 1104/1124 30012KT P6SM FEW250
      TEMPO 1104/1106 VRB05KT
     FM110600 34004KT P6SM SCT250
     FM112000 28006KT P6SM FEW250=
KATL 110352Z 1104/1206 12005KT 1SM -RADZ BR OVC002
     FM111000 16009KT 3SM -SHRA BR OVC004
     FM111400 21010G18KT 4SM -SHRA BR OVC007
     FM111900 27013G22KT P6SM BKN025
     FM112100 29014G23KT P6SM SCT040
     FM120000 28011KT P6SM SCT250=
KIND 110351Z 1104/1206 18009KT 1/2SM -RA FG VV002
     FM110600 18010KT 1SM -RA BR OVC003
     FM110900 21012KT 2SM -RA BR OVC006
     FM111400 25014G22KT 6SM -RA BR SCT007 OVC010
     FM111800 25014G24KT P6SM BKN025
     FM120000 27012KT P6SM BKN025=
KLCK 110351Z 1104/1124 16009KT P6SM BKN035
     FM110500 17010KT 6SM BR VCSH OVC020
     FM110800 17012KT 4SM -RA BR OVC008
     FM111400 23014G23KT P6SM VCSH OVC012=
KLUK 110352Z 1104/1124 17007KT 6SM -SHRA BR OVC028
      TEMPO 1106/1109 2SM RA BR BKN006
     FM111300 21010G18KT P6SM VCSH OVC012
     FM111600 25012G22KT P6SM OVC025=

0000009600
771
SPUS43 KWBC 110354
SPECI
KPTK 110350Z 15009KT 3SM RA BR OVC002 03/02 A2973=

0000044200
772
SAMX42 MMGL 110354
METAR MMAS 110340Z 08005KT 10SM  FEW100 10/02 A3025 RMK 8/030=
METAR MMGL 110348Z 27003KT 10SM  BKN030 15/04 A3018 RMK 8/500=
METAR MMLO 110347Z 00000KT 8SM  BKN030 BKN220 14/06 A3024 RMK 8/502=
METAR MMMM 110344Z 00000KT 7SM  SCT030 BKN070 15/08 A3024 RMK 8/530
CI=
METAR MMPR 110348Z 00000KT 10SM  FEW100 20/17 A2995 RMK 8/030=
METAR MMSP 110341Z 25006KT 10SM  SCT025 14/03 A3021 RMK 8/500=

0000028500
773
SAMX34 MMMD 110400
METAR MMCZ 110342Z 00000KT 7SM  SCT015 19/19 A3002 RMK 8/500 VC TCU=
METAR MMMD 110344Z 11005KT 7SM  SKC 22/20 A2997=
METAR MMTP 110347Z 00000KT 8SM  SCT200 26/22 A2993 RMK 8/001=
METAR MMUN 110348Z 13007KT 7SM  SCT015 25/23 A3002 RMK 8/500=

0000027700
774
SANO35 ENMI 110350
METAR ENMS 110350Z VRB05KT CAVOK M10/M17 Q1009 RMK WIND 412FT
           VRB06KT=
METAR ENRM 110350Z NIL=
METAR ENRS 110350Z NIL=
METAR ENSK 110350Z NIL=
METAR ENSO 110350Z NIL=
METAR ENST 110350Z NIL=
METAR ENVD 110350Z NIL=

0000009800
775
SACV20 GVNP 110400
METAR GVNP 110400Z /////KT 9999 BKN020  XX/XX Q////
NOSIG=

0000067100
776
SANO32 ENMI 110350
METAR ENAL 110350Z NIL=
METAR ENCN 110350Z AUTO 24004KT 200V290 9999NDV FEW031/// SCT110///
           05/03 Q1000=
METAR ENHD 110350Z AUTO 26018KT 9999NDV FEW034/// 07/03 Q0999=
METAR ENRO 110350Z AUTO 10009KT 9999NDV -SN SCT005/// OVC008///
           M16/M19 Q0998=
METAR ENRY 110350Z AUTO 19006KT 9999NDV FEW082/// OVC120/// 02/00
           Q0997=
METAR ENSB 110350Z 24009KT 9999 FEW018 BKN025 M01/M05 Q1008 RMK WIND
           1400FT 20016KT=
METAR ENTC 110350Z 17003KT 130V210 9999 FEW012 M12/M13 Q1017 RMK WIND
           2600FT 12009KT=
METAR ENTO 110350Z AUTO 24006KT 9999NDV OVC100/// 02/M00 Q0997=

0000022900
777
SANO34 ENMI 110350
METAR ENBN 110350Z NIL=
METAR ENBV 110350Z NIL=
METAR ENFG 110350Z NIL=
METAR ENHF 110350Z NIL=
METAR ENRA 110350Z NIL=
METAR ENSH 110350Z 07011KT 040V110 9999 FEW030 M06/M12 Q1014=

0000074000
778
SANO39 ENMI 110350
METAR ENNE 110350Z NIL=
METAR ENQR 110350Z AUTO VRB10KT 9999NDV BKN024/// BKN041/// BKN056///
           03/M02 Q0997 W///S/=
METAR ENSE 110350Z AUTO 08020KT 9999NDV -SHRA FEW022/// SCT032///
           BKN039/// 02/M02 Q0997 W///S5=
METAR ENQC 110350Z AUTO 07010KT 9999NDV BKN018/// 04/00 Q0996
           W///S4=
METAR ENQA 110350Z AUTO 07012KT 9999NDV BKN009/// OVC011/// 03/02
           Q0996 W04/S4=
METAR ENHM 110350Z AUTO 26032KT 9999NDV FEW027/// 06/02 Q0998
           W08/S/=
METAR ENVH 110350Z AUTO 31019KT 9999NDV -SHRA BKN012/// BKN034///
           07/05 Q1003 W///S4=
METAR ENLA 110350Z AUTO 30022KT 9999NDV FEW026/// BKN093/// 07/02
           Q1003 W///S4=

0000008300
779
SABZ24 SBPA 110400
METAR SBPA 110400Z 26003KT CAVOK 22/20 Q1010=

0000049400
780
SANO31 ENMI 110350
METAR ENAN 110350Z 11013KT CAVOK M06/M14 Q1016=
METAR ENBR 110350Z 26003KT 9999 FEW014 SCT023 BKN045 04/04 Q0997 RMK
           WIND 1200FT 25015KT=
METAR ENBO 110350Z 11017KT CAVOK M08/M17 Q1011=
METAR ENDU 110350Z VRB01KT CAVOK M25/M28 Q1017=
METAR ENGM 110350Z 04007KT 9999 -SN FEW005 BKN008 M02/M03 Q0997=
METAR ENOL 110350Z 08013KT CAVOK M09/M13 Q1001=
METAR ENVA 110350Z NIL=
METAR ENZV 110350Z 26007KT 9999 FEW021 BKN053 07/04 Q1000=

0000081900
781
SAIY31 LIIB 110350
METAR LIEA 110350Z 02005KT 8000 0500W MIFG NSC 06/06 Q1019=
METAR LIEE 110350Z 31005KT CAVOK 06/06 Q1019=
METAR LIEO 110350Z VRB02KT 1200 R05/0800VP1500U BR NSC 03/03 Q1021=
METAR LIMC 110350Z 00000KT 6000 BKN040 07/06 Q1022 NOSIG=
METAR LIME 110350Z 28001KT 3000 BR BKN040 08/07 Q1021=
METAR LIMF 110350Z 31003KT 7000 BKN030 07/05 Q1021=
METAR LIMJ 110350Z 04002KT 9999 FEW018 BKN040 12/10 Q1021=
METAR LIML 110350Z 23003KT 190V250 6000 SCT005 BKN030 08/07 Q1022
NOSIG=
METAR LIRA 110345Z 01001KT 9999 FEW070 06/05 Q1021=
METAR LIRF 110350Z 05004KT 5000 BR NSC 06/06 Q1022 NOSIG=
METAR LIRN 110350Z 36002KT 5000 BR SCT030 08/06 Q1021=
METAR LIRP 110345Z VRB02KT 9999 BKN045 08/07 Q1021 NOSIG=
METAR LIRQ 110350Z 21001KT 5000 BR FEW020 BKN040 11/11 Q1022=

0000063600
782
SAIY32 LIIB 110350
METAR LIBD 110350Z 23006KT 7000 NSC 06/06 Q1022=
METAR LIBR 110350Z NIL=
METAR LICC 110350Z NIL=
METAR LICJ 110350Z 06006KT CAVOK 11/08 Q1020=
METAR LIPB 110350Z NIL=
METAR LIPE 110350Z 34002KT 1500 1000W BCFG SCT001 BKN050 07/07
Q1022=
METAR LIPH 110345Z /////KT 2000 BR SCT020 BKN060 06/05 Q1021=
METAR LIPK 110350Z NIL=
METAR LIPQ 110350Z 00000KT 0200 R09/0300 FG OVC003 06/04 Q1021=
METAR LIPR 110345Z /////KT 6000 BKN050 08/08 Q1022=
METAR LIPX 110345Z 19003KT 1000 R04/P1500N BR FEW010 BKN045 08/06
      Q1022=
METAR LIPZ 110350Z VRB01KT 3500 BR BKN050 08/07 Q1021=

0000019900
783
FTNK31 MNMG 110400
TAF  
MNMG 110400Z 1106/1206 00000KT CAVOK BECMG 1113/1115 09008KT 9999
                                             FEW020 TEMPO 1117/1122
11016KT SCT020=

0000012400
784
SAUK31 EGGY 110350 CCA
METAR COR EGLL 110350Z 21009KT 9999 FEW019 BKN032 08/07 Q1012 TEMPO
     BKN010=

0000064300
785
SAGR31 LGAT 110350
METAR LGAD 110350Z 14004KT 9999 SCT020 12/09 Q1022=
METAR LGAV 110350Z VRB02KT CAVOK 07/04 Q1021 NOSIG=
METAR LGIR 110350Z 18007KT 9999 FEW025 11/09 Q1021 NOSIG=
METAR LGKL 110350Z 00000KT 9999 SCT080 10/08 Q1022=
METAR LGKO 110350Z NIL=
METAR LGKR 110350Z 00000KT 9999 FEW014 SCT018 BKN070 11/10 Q1022
 NOSIG=
METAR LGLM 110350Z 36003KT 9999 BKN018 12/10 Q1020=
METAR LGRP 110350Z 00000KT 9999 FEW018 12/08 Q1021 NOSIG=
METAR LGSA 110350Z 26014KT 9999 FEW020 14/09 Q1020=
METAR LGSM 110350Z NIL=
METAR LGTS 110350Z 10005KT 0100 R16/0350 R34/0450 FG OVC001 06/05
      Q1021 NOSIG=

0000017300
786
SAVN24 SVMG 110400
METAR SVMG 110400Z /////KT 9999 SCT010 24/22 Q1014 NOSIG=
METAR SVCU 110400Z NIL=
METAR SVCP 110400Z NIL=
METAR SVGI 110400Z NIL=

0000010200
787
SABZ20 SBEG 110355
METAR SBEG 110400Z 09009KT 9000 -RA SCT008 BKN020
23/20 Q1013=

0000064900
788
SAMX43 MMMZ 110400
METAR MMCL 110342Z 00000KT 10SM  SKC 18/13 A2998 RMK ISOL AC CI=
METAR MMCN 110340Z 28002KT 10SM  SKC 14/08 A2998 RMK HZY=
METAR MMHO 110350Z 00000KT 10SM  SKC 15/M01 A3006 RMK HZY=
METAR MMLM 110340Z 29005KT 10SM  BKN100 BKN220 16/12 A3001 RMK 8/058=
METAR MMLP 110340Z 03006KT 10SM  FEW140 17/13 A3005 
      RMK 8/030 HZY ISOL SC/CI=
METAR MMML 110341Z 00000KT 10SM  FEW200 17/M02 A3008 RMK 8/002=
METAR MMMZ 110342Z 36007KT 10SM  FEW220 16/11 A2995 
      RMK 8/002 HZY ISOL AC=
METAR MMSD 110356Z  NIL=
METAR MMSL 110356Z  NIL=
METAR MMTJ 110346Z 10003KT 5SM  SKC 14/08 A3011 RMK HZY=

00000000