0000067500
089
FTAG41 SABE 110500
TAF SABE 110500Z 1106/1206 18015KT 9999 SCT020 TX23/1118Z
TN17/1110Z BECMG 1108/1110 16015KT 9999 BKN020 BECMG 1115/1117
11015KT =
TAF SADF 110500Z 1106/1206 20015KT CAVOK TX24/1118Z TN17/1110Z
BECMG 1108/1110 16010KT 9999 BKN020 BECMG 1114/1116 11010KT =
TAF SAAR 110500Z 1106/1206 18005KT CAVOK TX29/1118Z TN16/1206Z
BECMG 1110/1112 18010KT BECMG 1116/1117 16010KT =
TAF SAZM 110500Z 1106/1206 20010KT 9999 BKN020 TX18/1118Z TN13/1110Z=
TAF SAZN 110500Z 1106/1206 05005KT CAVOK TX32/1118Z TN15/1110Z
BECMG 1114/1116 02015KT=
TAF SAZS 110500Z 1106/1206 VRB05KT CAVOK TX28/1118Z TN05/1110Z
BECMG 1113/1115 05010KT =

0000099600
090
FTPH41 RPLL 110500
TAF RPLB 110500Z 1106/1206 07010KT 9999 FEW040 TX31/1106Z TN21/1121Z
    TEMPO 1106/1112 07014G24KT 9000 VCSHRA SCT020 BKN100=
TAF RPLC 110500Z 1106/1206 08008KT 9999 SCT042 BKN100 TX29/1106Z    
    TN21/1121Z TEMPO 1106/1112 11010KT FEW042 BKN300=
TAF RPLI 110500Z 1106/1206 09010KT 9999 FEW019 TEMPO 1106/1112      
    09012G22KT 9999 FEW019 BKN290=
TAF RPVD 110500Z 1106/1206 36010KT 9999 FEW015 BKN080 OVC220 TEMPO  
    1106/1112 04014KT 7000 -RA SCT015 OVC070=
TAF RPVP 110500Z 1106/1206 06010KT 9999 FEW020 SCT080 BKN240 TEMPO  
    1106/1112 08014KT FEW017CB FEW019 BKN080=
TAF RPMR 110500Z 1106/1206 36008KT 9999 FEW018 SCT080 BKN250 TEMPO  
    1106/1112 04012KT 8000 -RA SCT018 OVC080=
TAF RPMD 110500Z 1106/1206 36007KT 9000 SCT016 BKN090 OVC290 TEMPO  
    1106/1112 03010KT 5000 -RA SCT016 OVC090=
TAF RPMZ 110500Z 1106/1206 04006KT 9999 FEW018 BKN120 TEMPO         
    1106/1112 02010KT 7000 -RA SCT018 OVC120=

0000009800
091
SAID32 WADL 110500
METAR WADL 110500Z 24004KT 8000 FEW015CB SCT016 31/24 Q1009=

0000084300
092
FTCS31 MROC 110500
MROC 110500Z  1106/1206 10010KT 9999 FEW035
           TX28/1119Z TN19/1111Z
           TEMPO 1112/1119 11012G22KT
           PROB40 TEMPO 1120/1124 24007KT SCT030 SCT120=
MRPV 110500Z  1106/1206 08012KT 9999 FEW035
           TX26/1119Z TN19/1112Z
           BECMG 1106/1108 08012G22KT CAVOK
           BECMG 1116/1118 07010KT 9999 SCT035
           PROB30 TEMPO 1121/1124 RA SCT100=
MRLB 110500Z  1106/1206 07015KT CAVOK
         TX34/1121Z TN24/1112Z
         TEMPO 1106/1114 12005KT 9999 FEW040  
         TEMPO 1115/1120 09014G24KT 9999 SCT035=
MRLM 102310Z  1106/1206 24005KT 9999 FEW030 SCT120 
          TX31/1120Z TN23/1110Z
          TEMPO 1106/1114 8000 DZ SCT020 BKN110  
          BECMG 1115/1117 07007KT SCT035
          PROB30 TEMPO 1121/1124 RA FEW020TCU=

0000010600
093
SAMG20 FMMI 110430
METAR FMMI 110430Z 00000KT 8000  FEW008  BKN230 20/20 Q1022
NOSIG=

0000011400
094
SAPH41 RPLC 110500
METAR RPLC 110500Z
08006KT 9999 SCT042 BKN100 27/15 Q1017 A3002 RMK NOSIG=

0000019700
095
SANL32 EHDB 110455
METAR EHEH 110455Z AUTO 22009KT 9999 OVC006 03/02 Q1014 
YLO=
METAR EHKD 110455Z AUTO 21018KT 5000 -RA FEW005 SCT006 BKN027 07/06
Q1011 RERA REDZ 
YLO=

0000034300
096
SAMX31 KWBC 110445 RRC
METAR
MMAA 110445Z 02004KT 8SM FEW120 24/22 A2992 RMK 8/030=
MMMX 110446Z 00000KT 12SM SKC 15/06 A3031 NOSIG RMK AC=
MMMZ 110444Z 01006KT 10SM SKC 13/09 A2996=
MMTM 110442Z 00000KT 5SM SCT070 BKN200 20/18 A2993 RMK 8/038
     HZY=
MMVR 110446Z 00000KT 7SM BKN015 20/18 A2995 RMK 8/500 HZY=

0000011900
097
SADL34 EDZO 110450 RRA
METAR EDNY 110450Z AUTO VRB03KT 0250 0200/ R24/0650N FG BKN001 02/01
Q1018=

0000013500
098
FCSN32 ESWI 110200 AAA
TAF AMD ESSP 110457Z 1105/1108 VRB02KT 5000 -RASN OVC005 TEMPO
1105/1108 4000 -FZRA OVC003=

0000015100
099
FTAB31 LATI 110455
TAF LATI 110500Z 1106/1206 VRB02KT 9999 BKN060
TEMPO 1109/1118 28006KT FEW030 SCT070
TEMPO 1118/1206 5000 BR=

0000011700
100
SPCN42 CWAO 110457
SPECI CYUA 110457Z AUTO 30020KT 2 3/4SM CLR M25/ A2973 RMK VSBY VRBL
1.3V6.0=

0000009500
101
SAID32 WIDN 110500
METAR WIDN 110500Z 32009KT 9999 BKN015 30/24 Q1011 NOSIG=

0000035000
102
SAFI34 EFHK 110450
EFET 110450Z AUTO 26001KT 9999 -SN SKC M32/M36 Q1014=
EFIV 110450Z AUTO 24003KT 9999 -SG OVC004 M29/M32 Q1016=
EFKE 110450Z 02011KT CAVOK M16/M19 Q1010=
EFKI 110450Z 04013KT 9999 BKN018 M13/M16 Q1002=
EFKS 110450Z AUTO 03008KT 320V100 CAVOK M17/M21 Q1006=
EFKT 110450Z AUTO VRB01KT CAVOK M24/M26 Q1014=

0000008300
103
SABZ23 SBGL 110455
METAR SBGL 110500Z 11004KT CAVOK 25/20 Q1012=

0000008900
104
SABZ21 SBNT 110500
METAR SBNT 110500Z 11005KT 9999 SCT023 25/21 Q1012=

0000012300
105
SACN62 CYHM 110400
METAR CYHM 110400Z 09006KT 7SM SCT050 OVC120 02/01 A2986 RMK SC3AC5
 PRESFR SLP122=

0000021900
106
SAIE32 EIDB 110400
METAR EICM 110400Z NIL=
METAR EIDL 110400Z NIL=
METAR EIKY 110400Z NIL=
METAR EIME 110400Z 23010KT 9999 FEW016 03/01 Q1013=
METAR EISG 110400Z NIL=
METAR EIWF 110400Z NIL=

0000041700
107
SAAL31 DAAA 110400
METAR DAAG 110400Z 00000KT 9999 FEW030 BKN100 10/08 Q1016=
METAR DAAT 110400Z 04002KT CAVOK 11/M05 Q1022=
METAR DABB 110400Z 20004KT CAVOK 07/06 Q1016=
METAR DABC 110400Z  20006KT CAVOK 04/00 Q1019=
METAR DAON 110400Z 24006KT 9999 FEW030 BKN100 15/04 Q1016=
METAR DAOO 110400Z 08002KT 9999 FEW026 BKN100 12/09 Q1016 RERA=
METAR DAUH 110400Z 00000KT CAVOK 09/06 Q1020=

0000008900
108
SAJM31 MKJP 110400
METAR MKJP 110400Z 02005KT 9999 FEW024 26/20 Q1016=

00000000