0000009500
969
SAUS71 KWBC 110300 RRJ
METAR
KMYR 110345Z 20007KT 10SM FEW070 17/17 A3012=

0000072700
970
SATU32 LTAA 110350
METAR LTAG 110350Z 36004KT CAVOK 03/M03 Q1021 NOSIG=
METAR LTAN 110350Z NIL=
METAR LTAP 110350Z 00000KT CAVOK M04/M06 Q1022 NOSIG=
METAR LTAT 110350Z 21003KT CAVOK M09/M10 Q1022 NOSIG=
METAR LTAU 110350Z 02001KT 1600 BCFG OVC002 M05/M06 Q1023 TEMPO 0800
 FZFG=
METAR LTBF 110350Z 23002KT 0300 R36/0500U R18/0400U FZFG VV003
 M01/M01 Q1023 NOSIG=
METAR LTBU 110350Z 36004KT 0200 R05/0150D R23/0350N FG NSC 02/02
 Q1022=
METAR LTCC 110350Z 29002KT CAVOK M05/M08 Q1020 NOSIG=
METAR LTCE 110350Z VRB02KT 0400 R26L/0900N R08R/0450U R26R/0900U
 R08L/0500U FZFG VV002 M27/M29 Q1020 NOSIG=
METAR LTCJ 110350Z 00000KT 0350 R02/0450U R20/P1500D BCFG VV002
 M06/M06 Q1021=

0000056300
971
SATU33 LTAA 110350
METAR LTAR 110350Z NIL=
METAR LTAY 110350Z VRB01KT CAVOK M05/M06 Q1021=
METAR LTBR 110350Z 05002KT 6000 NSC M04/M05 Q1024 NOSIG=
METAR LTBY 110350Z 06004KT 030V090 7000 OVC009 M01/M03 Q1023=
METAR LTCA 110350Z 29004KT CAVOK M07/M09 Q1022 NOSIG=
METAR LTCD 110350Z VRB01KT CAVOK M13/M16 Q1023 NOSIG=
METAR LTCF 110350Z 00000KT CAVOK M24/M27 Q1020=
METAR LTCI 110350Z 08002KT 6000 SCT040 M11/M12 Q1019 NOSIG=
METAR LTDA 110350Z 31004KT CAVOK M02/M02 Q1023=
METAR LTFH 110350Z 24007KT CAVOK 07/M04 Q1019 NOSIG=

0000066000
972
SATU34 LTAA 110350
METAR LTAL 110350Z NIL=
METAR LTAS 110350Z NIL=
METAR LTAW 110350Z NIL=
METAR LTBD 110350Z NIL=
METAR LTBH 110350Z NIL=
METAR LTBO 110350Z NIL=
METAR LTCK 110350Z 00000KT 0200 R29/1000U R11/0900U BCFG VV004
 M26/M28 Q1024=
METAR LTCL 110350Z NIL=
METAR LTCM 110350Z NIL=
METAR LTCN 110350Z NIL=
METAR LTCO 110350Z NIL=
METAR LTCP 110350Z 22004KT CAVOK 00/M06 Q1019=
METAR LTCR 110350Z 29002KT 9999 FEW040 05/M10 Q1021=
METAR LTCT 110350Z NIL=
METAR LTCU 110350Z NIL=
METAR LTCV 110350Z 25004KT CAVOK 01/M04 Q1017=
METAR LTFD 110350Z 08004KT 6000 NSC 06/04 Q1021=
METAR LTFG 110350Z NIL=

0000008700
973
SARH32 LDZM 110400
METAR LDLO 110400Z NIL=
METAR LDSB 110400Z NIL=

0000067300
974
SAUR31 UKMS 111530
METAR UKLR NIL=
METAR UKLI 111530Z 25004MPS CAVOK 04/M04 Q1018
         28090070 NOSIG=
METAR UKON 111530Z 28006MPS CAVOK 05/M02 Q1017 NOSIG=
METAR UKCM 111530Z 25008MPS CAVOK 06/00 Q1014
         19190062 NOSIG=
METAR UKCW 111530Z 25010MPS 9999 SCT030CB BKN040
         04/01  Q1009 2719//65 BECMG 26009G15MPS 3100
         -SHRA BKN011 BKN020CB=
METAR UKLU 111530Z 13003MPS 9999 BKN030 03/00 Q1020
         10090070 NOSIG=
METAR UKKK 111530Z 28007MPS 9999 BKN032 05/01 Q1012
         26290250  NOSIG=
METAR UKKM NIL=
METAR UKKE NIL=
METAR UKLN 111530Z 26003MPS CAVOK 06/M04 Q1018
         3309//70 NOSIG=
0000010600
975
SAUZ31 UTTW 111500 RRB
METAR UTSA 111500Z 11004MPS 7000 NSC 01/M05 Q1021 R25/CLRD70 NOSIG=
0000011500
976
SACN62 CYXL 110400
METAR CYXL 110400Z 16005KT 2SM -SN BR OVC006 M07/M07 A2942 RMK ST8
 SLP988=

0000015800
977
SACN62 CYYD 110400
METAR CYYD 110400Z 16002KT 25SM FEW065 OVC100 M05/M05 A2936 RMK
 SC2AC6 LAST STFD OBS / NEXT 111500 UTC PRESFR SLP968=

0000013100
978
SACN62 CYYB 110400
METAR CYYB 110400Z 14009KT 1SM -SN BR OVC002 M02/M02 A2986 RMK FG4SF4
 PCPN VRY LGT SLP133=

0000021600
979
SACG21 FCBB 110400
METAR FCBB 110400Z 23002KT 8000 FEW010 BKN018 23/22 Q1013 NOSIG=
METAR FCPP 110400Z VRB02KT 7000 SCT010 25/24 Q1010 NOSIG=
METAR FCPD NIL=
METAR FCOU NIL=
METAR FCOI NIL=

0000014200
980
SACN62 CYWG 110400
METAR CYWG 110400Z 29012KT 1/2SM R31/P6000FT/U R36/P6000FT/N FZFG
 VV003 M09/M10 A2946 RMK FG8 SLP992=

0000039900
981
SAPL31 EPWA 110400
METAR EPGD 110400Z 28012KT 8000 -SHRA BKN011 FEW015TCU
    04/04 Q1008 =
METAR EPKK 110400Z 25009KT 9999 BKN046 04/M01 Q1017 =
METAR EPLL 110400Z 26012KT CAVOK 04/00 Q1014 =
METAR EPPO 110400Z 24011KT 9999 SCT021 05/01 Q1014
    R10/19//95 =
METAR EPRZ 110400Z 26016KT CAVOK 05/M02 Q1016 =
METAR EPWA 110400Z 26014KT 9999 FEW023 04/01 Q1012 NOSIG=

0000038900
982
SAPL32 EPWA 110400
METAR EPBY 110400Z 24011KT 9999 FEW020 BKN048 05/03
    Q1012 =
METAR EPKT 110400Z 21008KT 9999 BKN036 02/M01 Q1016 =
METAR EPLB 110400Z NIL=
METAR EPMO 110400Z 27015KT 9999 BKN048 04/02 Q1011=
METAR EPSC 110400Z 24007KT 9999 BKN015 05/02 Q1012 =
METAR EPWR 110400Z 24006KT 200V270 9999 SCT040 05/00
    Q1017 =
METAR EPZG 110400Z NIL=

0000024600
983
SAIE31 EIDB 110400
METAR EIDW 110400Z 24010KT 9999 BKN018 03/02 Q1013 RERA NOSIG=
METAR EINN 110400Z 00000KT 9999 FEW020 03/02 Q1015 NOSIG=
METAR EICK 110400Z 29008KT 9999 FEW016 03/01 Q1015 NOSIG=
METAR EIKN 110400Z NIL=

0000009900
984
SAGR32 LGAT 110350 RRA
METAR LGRX 110350Z 00000KT 9999 BKN060 10/08 Q1022 NOSIG=

0000008400
985
SAAG41 SAZM 110400
METAR SAZM 110400Z  20010KT CAVOK 16/08 Q1015=

0000008700
986
SAAG41 SABE 110400
METAR SABE 110400Z  18015G29KT CAVOK 24/15 Q1011=

0000013500
987
SACN62 CYAM 110400
METAR CYAM 110400Z 09007KT 1SM -SN BR OVC009 M01/M02 A2963 RMK ST8
 CIG VRB 7-11 PRESFR SLP045=

0000009900
988
SACN62 CYZF 110400
METAR CYZF 110400Z 31008KT 15SM SKC M28/M31 A2954 RMK SLP034=

00000000