0000011800
829
SASQ41 LZIB 110400 RRA
METAR LZPP 110400Z AUTO 10002KT 9999 // FEW056/// BKN100/// M01/M03
Q1020=

0000011500
830
SACN62 CYOW 110400
METAR CYOW 110400Z 06008KT 8SM OVC023 M05/M07 A3008 RMK SC8 PRESFR
 SLP194=

0000061400
831
FTEG32 HECA 110500
TAF HEGN 110500Z 1106/1212 33008G18KT CAVOK=
TAF HESH 110500Z 1106/1212 01010KT 9999 SCT020=
TAF HEAR 110500Z 1106/1212 26008KT 6000 SCT025 TEMPO 1106/1108
VRB03KT 3000 BR=
TAF HESC 110500Z 1106/1212 31013KT 9999 SCT025=
TAF HEBA 110500Z 1106/1212 31010KT 9999 SCT025 TEMPO 1106/1108
VRB03KT 3000BR NSC=
TAF HEMM 110500Z 1106/1212 30011KT 9999 SCT030 TEMPO 1106/1108
VRB03KT 3000BR NSC=
TAF HEAL 110500Z 1106/1212 30011KT 9999 SCT030 TEMPO 1106/1108
VRB03KT 3000BR NSC=
TAF HEPS 110500Z 1106/1212 32010KT 9999 BKN030 TEMPO 1106/1108
VRB03KT 2000BR NSC=

0000010700
832
SABW31 VGHS 110450
METAR VGHS 110450Z 08004KT 2000 HZ NSC 18/13 Q1016 BECMG S/VIS 2500M=

0000012200
833
SAEU31 BKPR 110500
BKPR 110500Z 00000KT 0200 R17/0175 FZFG OVC002 M01/M02 Q1023 NOSIG
 RMK 17010095 =

0000017100
834
SAMP31 LMMM 110500
METAR HLLT NIL=
METAR HLLB 110445Z
00000KT 8000 SCT020 BKN080 10/08 Q1025 =
METAR LMML 110445Z 21004KT CAVOK 14/13 Q1022 NOSIG=

0000216500
835
SZNZ01 NZKL 111545
CREX++
T000103 A001 D01021 D06025++
-3683144 17478654 AUCT  2014 01 11 15 37 //// 11 07 00 01
05958 3167 05958 3165 05960 3164 05961 3164 05962 3163 05964 3163+
-4402404 -17636748 CHIT  2014 01 11 15 37 //// 11 07 00 01
05151 2083 05117 2053 05124 2064 05139 2082 05130 2076 05105 2054+
-4089929 17623168 CPIT  2014 01 11 15 37 //// 11 07 00 01
04305 2264 04295 2258 04291 2257 04288 2257 04294 2267 04286 2263+
-3618905 17548887 GBIT  2014 01 11 15 37 //// 11 07 00 01
06383 0003 06384 0003 06385 0004 06389 0007 06384 0002 06390 0007+
-3867541 17802288 GIST  2014 01 11 15 37 //// 11 07 00 01
04476 2712 04466 2704 04444 2684 04439 2682 04445 2689 04443 2690+
-4241288 17370277 KAIT  2014 01 11 15 37 //// 11 07 00 01
03705 2230 03716 2246 03708 2242 03718 2256 03707 2250 03698 2245+
-3755040 17815904 LOTT  2014 01 11 15 37 //// 11 07 00 01
04020 0205 04014 0199 03999 0185 04005 0191 04009 0195 04003 0191+
-3704657 17451175 MNKT  2014 01 11 15 37 //// 11 07 00 01
02491 -0113 02517 -0094 02520 -0098 02534 -0091 02519 -0113 02550 -0089+
-3947566 17692007 NAPT  2014 01 11 15 37 //// 11 07 00 01
03461 1996 03476 2014 03469 2010 03480 2025 03460 2008 03456 2008+
-3441483 17304870 NCPT  2014 01 11 15 37 //// 11 07 00 01
-03830 -8706 -03946 -8825 -04047 -8929 -03904 -8789 -03912 -8799 -04121 -9011+
-4581435 17062939 OTAT  2014 01 11 15 37 //// 11 07 00 01
04664 3444 04657 3443 04651 3443 04643 3442 04640 3445 04637 3449+
-2928002 -17789440 RBCT  2014 01 11 15 37 //// 11 07 00 01
06328 1976 06315 1963 06328 1976 06342 1989 06339 1987 06319 1967+
-2925114 -17790384 RFRT  2014 01 11 15 37 //// 11 07 00 01
03286 0149 03272 0135 03293 0156 03278 0140 03272 0133 03276 0137+
-4357010 17277383 SUMT  2014 01 11 15 37 //// 11 07 00 01
02328 1792 02321 1791 02313 1789 02319 1801 02301 1789 02314 1808+
-3764109 17618118 TAUT  2014 01 11 15 37 //// 11 07 00 01
05602 3962 05603 3962 05608 3965 05608 3965 05614 3970 05612 3968+
-4128448 17477985 WLGT  2014 01 11 15 37 //// 11 07 00 01
03422 2032 03425 2038 03411 2029 03403 2024 03403 2028 03391 2020++
7777
0000011200
836
SIYE70 OYSY 111500
AAXX 11154
41396 42965 31503 10265 20107 39418 40126 80001 333 58000 83070=
0000011000
837
UANT99 KDDL 111543
ARP FWI542 4655N01529W 1543 F340 MS59 225/74 KT
FORLY QXT AOE 111543 J98A
0000011000
838
UANT99 KDDL 111543
ARP DLH542 4901N01901W 1543 F360 MS62 194/85 KT
DAIHI QXT AOE 111543 J13A
0000285800
839
UEPA01 RJTD 111200
TTDD 6112/ 91165
11874 69958 22759 73558 33699 72958 44687 71158 55638 71558 66613
68559 77550 70958 88535 68759 99500 68359 11406 61360 22384 62960
33352 62560 44312 57561 55250 56562 66231 52563 77208 50964 88185
53565 99180 51765 11157 52166 22128 45369 33122 46970 44103 45574
55098 42173 66094 41774 77088 38375 88083 37977 99078 39979
31313 58708 81103=

TTDD 6112/ 91285
11959 75358 22927 72759 33765 77558 44742 75359 55709 76158 66671
72359 77639 71160 88582 70560 99539 72559 11515 68360 22476 67961
33451 66761 44445 65361 55421 65961 66400 63362 77375 62962 88311
56965 99279 57964 11223 54767 22195 55567 33182 51768 44158 53568
55150 50769 66141 51169 77136 49770 88123 40170 99117 41770 11107
41170
31313 58708 81104=

TTDD 6112/ 91334
11913 85558 22899 83359 33835 81159 44774 82359 55681 74562 66653
74562 77631 72163 88584 73962 99535 71164 11528 68365 22487 63371
33467 64372 44458 62775 55407 66577 66391 65579 77360 653// 88355
635// 99321 613// 11269 599// 22245 617// 33216 617// 44205 593//
55194 535// 66156 559// 77148 543// 88132 469// 99128 477// 11124
457// 22113 475// 33109 437// 44103 437// 55090 479// 66081 45385
31313 58708 81104=

TTDD 6112/ 91348
11889 86948 22849 84550 33811 84150 44794 80150 55718 82550 66699
78156 77671 75356 88556 69957 99532 70757 11520 67357 22492 64757
33474 66157 44444 64557 55421 65357 66392 63958 77380 61358 88334
61358 99319 59958 11279 62558 22254 60159 33205 62159 44195 56360
55186 54760 66165 55560 77140 52761 88136 50761 99129 48961 11121
48962
31313 58708 81106=

TTDD 6112/ 91376
11899 87156 22821 87956 33767 84557 44731 79558 55693 77958 66683
75358 77651 74359 88622 76358 99542 70960 11490 70760 22480 67960
33463 65961 44416 63562 55392 59363 66373 58764 77286 64962 88260
59364 99217 59765 11201 56966 22193 53368 33180 52168 44173 54368
55165 53968 66152 49370 77137 51171 88132 50371 99120 52971 11115
51172 22105 52172 33098 48372 44095 48572
31313 58708 81107=

TTDD 6112/ 91408
11943 87356 22919 80157 33861 76158 44693 79158 55679 76758 66599
73359 77592 71559 88567 70560 99545 67560 11528 67560 22498 63162
33422 65562 44406 63963 55361 65363 66334 63964 77327 62364 88305
63564 99286 61366 11254 62167 22240 59170 33231 59970 44213 56378
55201 55781 66190 52583 77161 51983 88145 53383 99135 51983
31313 58708 81101=

TTDD 6112/ 91413
11947 87157 22928 84157 33836 84157 44765 76559 55734 75359 66607
75959 77580 70761 88558 68361 99531 69561 11524 67562 22456 62364
33361 67562 44311 62564 55286 62964 66259 59567 77229 59167 88212
55971 99194 55172 11186 51975 22148 54774 33136 52977 44130 50179
55100 49580 66094 45178 77089 46178 88086 44778 99079 46979 11076
42977 22060 45578 33057 43377
31313 58708 81104=
0000015800
840
SIVD15 KWNB 111500 RRQ
BBXX
42360 11151 99267 70905 46/// /2308 10225 40170 53022 91500 22200
00225 10701 70007 333 91211 555 11084 22091=
0000371100
841
SIPH01 KWBC 111500
AAXX 11151
98325 32458 21802 10223 20190 40161 51010 81201 333 56999 81817=
98334 32468 83605 10220 20198 39986 40192 50000 8327/ 333 56999
83817 88357=
98425 32560 73201 10240 20188 40160 58002 70242 83870 333 56999
83620 87358=
98429 31560 10902 10244 20178 40162 56001 70544 81100 333 56999
81825=
98433 31460 60407 10190 20160 39430 40158 50003 71522 84970 333
56999 84911 86457=
98434 32465 80604 10240 20212 30176 40184 51006 8427/ 333 56199
84818 88358=
98440 31460 80706 10247 20202 30152 40157 58003 71544 84237 333
56199 84815 88277=
98446 32465 80402 10244 20216 30106 40152 58008 84207 333 56199
84818 88270=
98526 32570 83601 10/// 20/// 40130 5/004 82207 333 56999 82820
88274=
98546 21450 80405 10247 20243 30118 40126 58005 76086 8492/ 333
56999 60047 84915 88458=
98558 31456 80613 10256 20248 40115 58007 71522 8457/ 333 56199
83615 88357=
98851 21468 80000 10222 20212 39930 40080 51007 70262 8251/ 333
56999 60037 82618 88458=
98132 32465 20904 10217 20172 40247 5/001 82100 333 56299 82818=
98134 32465 30905 10210 20146 30018 40211 51005 82270 333 56299
82819=
98222 31575 10901 10230 20170 40156 50005 70544 81101 333 56999
81822=
98223 32462 10000 10200 20150 40162 51007 81100 333 56999 81819=
98232 31565 80405 20213 20238 40191 51008 70242 8227/ 333 56199
82820 88358=
98233 31570 80000 10210 20188 40191 51002 70544 8457/ 333 56999
84620 88358=
98324 31462 40901 10239 20211 40148 51004 70544 81151 333 56999
81816 83080=
98327 31665 63102 10196 20165 30000 40180 50003 70544 82208 333
56/// 82842 86080=
98328 31458 11401 10120 20106 38545 40152 51003 70544 81101 333
56999 81815=
98330 32475 20401 10235 20207 30130 40162 54000 81201 333 56///
81818=
98336 32468 80405 10220 20188 40193 58002 8227/ 333 56199 82815
88357=
98426 31562 10406 10237 20202 40152 55000 70544 81100 333 56999
81830=
98427 21475 63603 10230 20193 39971 40151 58009 70182 83260 333
56119 69907 83818 86357=
98428 32458 61101 10250 20193 40158 51003 82468 333 56/// 82618
84275=
98430 31558 20000 10217 20192 40157 51002 70544 82100 333 56999
82820=
98432 31568 50404 10240 20190 40166 50002 70544 82272 333 56199
82820=
98435 32470 80603 10251 20200 40174 51004 8487/ 333 561// 84618
88458=
98444 32465 80404 10252 20198 30120 40139 56005 84377 333 56199
82918 82820 86459 88270=
98531 31568 40602 10253 20210 30116 40120 51003 70544 81202 333
56199 81820 84075=
98538 31462 83605 10253 20214 30140 40145 50000 71522 83267 333
56119 83811 84357 88272=
98543 21468 80202 10250 20234 30112 40123 58003 71682 83207 333
56999 69957 83818 88272=
98548 21465 80000 10242 20237 30129 40135 51002 72582 84807 333
56999 60027 84816 88272=
98553 21460 83203 10253 20245 30111 40115 56007 78082 8597/ 333
56999 60147 81915 84618 88358=
98618 32470 83202 10255 20222 40136 51010 83277 333 56999 83819
86358 88273=
98642 21460 83202 10235 20228 30104 40113 58004 72166 8552/ 333
56999 60117 85615 88457=
98644 21462 83602 10233 20226 30078 40107 58004 76066 8452/ 333
56999 60017 84616 88457=
98646 21560 83607 10252 20230 30083 40111 58002 70262 8287/ 333
56199 60017 82820 88459=
98648 21454 83601 10236 20228 30030 40112 50000 78084 8592/ 333
56999 60057 85912 88457=
98653 21458 80407 10250 20241 30040 40085 56010 76166 8322/ 333
56199 60027 83818 88456=
98741 21465 80000 10256 20240 40105 58006 70282 8227/ 333 56999
60017 82817 88358=
98751 21465 80000 10200 20193 39401 40079 57015 76186 8491/ 333
56999 60057 84915 88456=
98752 21450 82702 10233 20225 40109 51002 76166 8452/ 333 56999
60147 84615 88457=
0000039100
842
SIPH01 KWBC 111500 RRA
AAXX 11151
98753 21458 83602 10235 20228 40089 50004 76166 8322/ 333 56999
60247 83816 88459=
98755 21458 80404 10250 20236 40090 58007 76366 8452/ 333 56199
60257 84616 88457=
98836 21460 80000 10250 20225 40099 58002 76062 8252/ 333 56999
69947 82618 88460=
98536 32465 80406 10234 20210 39941 40142 58001 8327/ 333 56199
83818 88357=
0000066100
843
UDAF01 FAPR 111544
AMDAR 1115
ASC AFZA06 4005N 11636E 111539 F-01 PS007 312/010 TB2 S031 333 F/// VG048=
ASC AFZA06 4005N 11636E 111540 F001 PS007 299/020 TB2 S031 333 F/// VG052=
ASC AFZA06 4005N 11636E 111540 F001 PS006 307/021 TB2 S031 333 F/// VG056=
ASC AFZA06 4005N 11635E 111540 F004 PS007 309/021 TB2 S031 333 F/// VG057=
ASC AFZA06 4005N 11635E 111540 F006 PS000 314/022 TB2 S031 333 F/// VG053=
ASC AFZA06 4006N 11636E 111540 F010 MS010 331/019 TB2 S031 333 F/// VG046=
ASC AFZA06 4006N 11636E 111541 F012 MS017 328/021 TB2 S031 333 F/// VG050=
ASC AFZA06 4007N 11636E 111541 F015 MS025 331/019 TB2 S031 333 F/// VG050=
0000108200
844
ULPA01 RJTD 111200
TTCC 61121 91165
70855 72958 29013 50056 68359 10008 30371 58161 10531 20630 52164
07043 10085 43373 10053
88759 73558 26527
77999
31313 58708 81103=

TTCC 61121 91334
70862 76161 18017 50060 65568 29510 30373 609// 31523 20625 569//
10003 10077 445// 09029
88913 85558 09545
77999
31313 58708 81104=

TTCC 61122 91348
70862 78156 18514 50061 65557 29015 30375 61358 29030 20627 59159
24004
88889 86948 10529
77999
31313 58708 81106=

TTCC 61121 91376
70862 77958 18514 50059 70560 22510 30374 63562 26536 20626 56366
28014 10075 49372 09532
88899 87156 10008
77999
31313 58708 81107=

TTCC 61122 91408
70862 79158 10007 50060 63362 21520 30373 62965 27026 20626 55382
06005
88943 87356 11547
77999
31313 58708 81101=

TTCC 61121 91413
70864 75559 17510 50061 66362 18003 30373 62564 28518 20627 55572
22504 10076 49580 09529
88947 87157 11038
77999
31313 58708 81104=

TTCC 1112/ 91217 NIL=
TTCC 1112/ 91275 NIL=
TTCC 1112/ 91285 NIL=
TTCC 1112/ 91366 NIL=
0000011000
845
UANT01 CWAO 111542
ARP TSO999 5829N04237W 1542 F360 MS56 246/33 KT
EIXLM QXT AOW 111542 F09A
0000011000
846
UANT01 CWAO 111542
ARP UAL16 5300N03004W 1542 F360 MS55 170/37 KT
N48127 DDL IG1 111542 F45A
0000011000
847
UANT01 CWAO 111543
ARP SAS909 6329N04314W 1542 F360 MS59 174/23 KT
LNRKM DDL XXN 111543 J86A
0000011100
848
UANT01 CWAO 111543
ARP UAL919 5238N03459W 1542 F360 MS56 260/14 KT
N778UA DDL XXN 111543 F36A
00000000