0000201100
400
SNDL48 EDZW 111600
AAXX 11161
10564 45775 82306 10029 20008 39549 40155 56007
  333 55300 88/50=
10565 45960 52304 10053 20015 39837 40136 56010
  333 55301 85/58=
10569 45767 82104 10039 20012 39684 40156 55010
  333 55300 20005 30005 88/56 88/57=
10574 45172 72706 10006 20001 39098 48442 56004
  333 55300 87/02=
10577 45881 82308 10043 20009 39640 40147 56006
  333 55300 20012 30012 82/57 88/58 91113=
10579 45/86 /2406 10034 21005 39386 40151 56010
  333 55300=
10582 42581 72306 10017 21017 39104 48432 58009 8257/
  333 55300 20006 30006 82623 85357 98888=
10591 45968 81705 10038 20005 39758 40147 58010
  333 55300 87/58 88/60=
10613 NIL=
10615 45678 72408 10054 20037 39605 40184 53007
  333 55300 20053 30052 87/39=
10618 NIL=
10628 47757 71401 10045 20033 30044 40182 53003 71000
  333 55304 87/50=
10635 47/25 /2605 10016 20016 39183 48446 55002 72030
  333 55300 20132 30129=
10646 45970 02303 10038 20030 39759 40174 56005
  333 55301=
10648 45965 12206 10040 20031 39626 40176 58003
  333 55300 20028 30028 81/80=
10658 47250 32105 10018 20018 39821 40169 58011 71000
  333 55300 81/05 83/78=
10671 47350 71601 10015 20009 39751 40176 56006 71000
  333 55300 20011 30011 87/07 87/56=
10686 47138 72104 10007 20001 39422 40176 55000 72250
  333 55300 83/02 87/20 87/44=
10704 47125 72306 10047 20045 39758 40200 53010 71000
  333 55300 20043 30043 87/02=
10706 47005 82505 10036 20036 39729 40201 53010 73030
  333 55300 88/00=
10724 47019 52608 10035 20035 39515 40187 52005 72030
  333 55300 20076 30075 84/00 85/05=
10733 47648 82306 10051 20044 39896 40190 50001 71000
  333 55300 20023 30023 81/41 88/50 88/70=
10736 47459 82603 10066 20052 39901 40198 52009 72365
  333 55300 88/14=
10739 47458 81502 10048 20038 39814 40202 53013 72365
  333 55300 20022 30022 41209 88/18=
10743 NIL=
10747 47249 82602 10042 20038 39603 40195 53011 76265
  333 55300 2//// 30003 85/05 88/13=
0000168800
401
SNDL49 EDZW 111600
AAXX 11161
10756 47240 82604 10046 20041 39615 40190 52010 75150
  333 55300 20002 30002 88/03=
10761 47461 82103 10052 20036 39679 40191 53008 72250
  333 55300 20007 88/12=
10765 46/// /2403 10041 20039 39709 40189 53004=
10771 NIL=
10777 47003 82102 10013 20012 39545 40199 53005 73065
  333 55300 88/00 88/21=
10782 45363 82402 10029 20017 39581 40187 53002
  333 55300 20003 30003 88/08=
10796 47414 81301 10012 20012 39445 40190 50000 72365
  333 4/002 55300 88/11=
10803 45668 72306 10097 20059 39925 40212 53013
  333 55300 20035 30035 87/41 87/57=
10818 47763 82306 10049 20040 39067 48499 51013 72365
  333 55300 20029 30029 86/50 88/63 88/68=
10827 46/// /2503 10055 20042 39113 48499 52015
  333 55300 20055 30055=
10837 NIL=
10838 46257 82004 10045 20040 39516 40201 51012
  333 55300 81/04 87/46 88/50=
10850 47434 81501 10023 20023 39589 40201 51011 71000
  333 55300 88/11 88/15=
10853 NIL=
10856 NIL=
10857 NIL=
10860 NIL=
10863 47660 82503 10054 20051 39617 40193 51007 76165
  333 55300 20008 30008 41257 85/43 88/50=
10865 47677 82802 10076 20055 39563 40188 51007 76165
  333 55300 88/44=
10872 47014 81701 10023 20021 39768 40200 51008 76165
  333 55300 81/00 88/18=
10875 47633 71601 10033 20031 39704 40200 51008 75765
  333 55300 20009 30009 86/41 87/49 87/50=
10945 47245 82205 10051 20037 39413 40215 53013 76265
  333 55300 83/06 87/43 88/50=
10954 NIL=
10963 45758 72601 10046 20041 39353 40209 51016
  333 4/001 55300 20011 30011 82/50 84/56 87/58=
10982 45671 81501 10051 20031 39536 40199 50014
  333 55300 20060 30059 83/49 88/59 88/60=
0000010900
402
UANT01 CWAO 111600
ARP VIR26 5310N04449W 1559 F390 MS56 288/50 KT
GVRED DDL XXW 111600 J30A
0000011000
403
UANT01 CWAO 111600
ARP AFR344 5307N02328W 1559 F330 MS59 182/80 KT
FGLZU QXT AOE 111600 J61A
0000012800
404
SNVF41 LFPW 111600
BBXX
61002 11164 99421 10047 46/// /0909 10132 20056 40198 57004
22200 00129 10402 70008=
0000015700
405
SSVX13 LFPW 111600
ZZYY 16593 11014 1600/ 338664 079108 6113/ 11119 40213 52007 22219
 00148 444 20130 11014 1559/ 50101 80120 80016 9/015=
0000011000
406
UANT01 CWAO 111600
ARP BAW33K 5036N04519W 1600 F380 MS58 288/51 KT
GVIIJ QXT AOE 111600 F31A
0000010900
407
UANT01 CWAO 111600
ARP BAW9L 5542N04358W 1600 F380 MS56 278/49 KT
GVIIS QXT AOE 111600 F24A
0000011100
408
UANT01 CWAO 111600
ARP AWE717 5121N03730W 1600 F380 MS54 288/40 KT
N274AY DDL XXN 111600 J04A
0000011000
409
UANT01 CWAO 111600
ARP UAL16 5244N03344W 1600 F360 MS56 242/15 KT
N48127 DDL IG1 111600 F50A
0000003800
410
SIVB21 BABJ 111500
NIL
0000067200
411
SXXX32 EUMS 111552 RRX
32CC9580
OT12 ID:ID-ENGG-07 DT:2014 01 11 15 51
:PRS /1 01293 01289 01286 01307 01266 01281 01279 01274 01273 01274 01244 01290 01228 01279 01262 01266 01283 01266 01269 01278 01265 01252 01270 01240 01252 01254 01254 01246 01272 01258
:PR2 /1 04751 04751 04737 04750 04728 04733 04723 04734 04736 04717 04738 04736 04723 04757 04712 04730 04716 04724 04711 04724 04731 04725 04717 04728 04721 04750 04726 04747 04737 04719
:RAD /1 05604 05602 05610 05620 05585 05588 05593 05595 05605 05594 05587 05603 05594 05601 05591 05584 05607 05579 05607 05592 05603 05583 05596 05584 05599 05595 05580 05585 05600 05589
:BAT 12.4V/
0000070400
412
SXXX32 EUMS 111552 RRX
26BED7DE

ST TRISTAN
DT 11/01/14 11/01/14
TM 15:45:00 15:15:00
RD 00000 00000 00000 00000 00000 00000 00000 00000 00000 00000 00000 00000 00000 00000 00000 00000 00000 00000 00000 00000 00000 00000 00000 00000 00000 00000 00000 00000 00000 00000
P1 00000 00000 00000 00000 00000 00000 00000 00000 00000 00000 00000 00000 00000 00000 00000 00000 00000 00000 00000 00000 00000 00000 00000 00000 00000 00000 00000 00000 00000 00000
P2 00000 00000 00000 00000 00000 00000 00000 00000 00000 00000 00000 00000 00000 00000 00000 00000 00000 00000 00000 00000 00000 00000 00000 00000 00000 00000 00000 00000 00000 00000
T1 00.0 00.0
T2 00.0 00.0
VB 14.2
0000029100
413
SXXX32 EUMS 111554 RRX
166AC436
OT12 ID:IC-COMI-10 DT:2014 01 11 15 53
:RAD /1 05162 05132 05128 05112 05161 05134 05101 05095 05108 05105 05095 05093 05093 05073 05115 05086 05080 05121 05107 05086 05112 05070 05115 05164 05113 05121 05149 05164 05120 05121
:BAT 13.1V
0000037900
414
SXXX32 EUMS 111554 RRX
12FD90D0
:PRS 1 /1 1166 1168 1193 1180 1175 1184 1169 1160 1139 1142 1116 1117 :RAD 1 /3 5727 5711 5683 5655 5637 5635 5648 5666 5690 5714 :ENC 3 /6 5467 5409 5355 5372 5416 5465 5452 5442 5468 5472 :RA2 3 /6 4625 4566 4516 4540 4585 4628 4605 4583 4599 4595 :SW1 54 /60 60 :SW2 24 /60 60 :BAT 5 /6 12.6 :WTP 5 /6 28.4 28.5 :NAME 12FD90D0
0000045100
415
SXXX32 EUMS 111554 RRX
224AD678
:PRS 2 /1 2086 2090 2091 2092 2092 2092 2099 2103 2114 2113 2113 2112 2113 2114 2119 2141 2141 2138 2139 2140 2144 2151 2154 2160 2162 2160 2160 2161 2165 2175 :RAD 4 /3 4919 4931 4941 4947 4959 4966 4973 4986 4991 5004 5015 5022 5033 5038 5049 5058 5063 5074 5077 5088 :ENC 4 /5 8431 8447 8457 8479 8491 8502 8523 8536 8544 8563 8577 8586 :SW1 54 /60 0 :SW2 24 /60 1 :BAT 14 /15 12.3 :NAME 224AD678 /
0000069800
416
SXXX32 EUMS 111554 RRX
229C0324
OT12 ID:MZ-NIH2-09 DT::014 01 11 15 44
:RAD /1 06298 06295 06291 06285 06273 06278 06275 06:61 06275 06264 06251 06272 06235 06247 06244 06221 06231 06214 06219 06229(06201 06212 06216 06210 86185 06206 06196 06982 06171 06161
:PR1 /1 ///// ///// ///// ///// ///// ///// ///// ///// ///// ///// ///// ///// ///// //'// ///// ///// ///// ///// ///// ///// ///// ///// ///// ///// ///// ///// ///// ///// ///// /////
:PR2 /1 ///// ///// ///// ///// ///// ///// '//// ////' ///'/ ///// ///// ///// ///// ///// ///// /'/// ///// ///// ///// //'// ///// ///// ///// ///// //'// /'/// ///// ///// ///// /////
:TM1 /15 /// //' /// ///
:BAT 13.8V
0000067100
417
SXXX32 EUMS 111555 RRX
366C76AC
OT12 ID:IR-CHAB-07 DT:2014 01 11 15 54
:RAD /1 ///// ///// ///// ///// ///// ///// ///// ///// ///// ///// ///// ///// ///// ///// ///// ///// ///// ///// ///// ///// ///// ///// ///// ///// ///// ///// ///// ///// ///// /////
:PR1 /1 02616 02617 02614 02621 02618 02610 02608 02611 02623 02622 02619 02623 02620 02622 02632 02632 02616 02623 02631 02635 02639 02640 02650 02654 02640 02642 02643 02663 02648 02657
:PR2 /1 02152 02154 02147 02141 02139 02142 02142 02140 02142 02132 02139 02141 02141 02142 02137 02142 02151 02143 02145 02158 02172 02177 02177 02166 02172 02175 02168 02167 02169 02162
:BAT 11.4V
0000037000
418
SXXX32 EUMS 111557 RRX
22E595B6
:PRS 1 /1 M 2993 2980 2988 2994 2984 2984 2951 2968 2975 2983 3016 3006 3038 3031 3003 3038 3006 3018 3037 3011 3033 3063 3038 3073 3027 3049 3095 3079 3122 :RAD 1 /3 6169 6171 6185 6207 6208 6211 6230 6250 6263 6264 :ENC 2 /5 4283 4284 4327 4327 4356 4394 :SW1 57 /60 60 :SW2 27 /60 60 :BAT 14 /15 12.6 :NAME 22E595B6 /
0000039900
419
SXXX32 EUMS 111557 RRX
16590056
:PRS 1 /1 2484 2490 2491 2503 2503 2513 2515 2509 2501 2500 2491 2482 :RAD 1 /1 6700 6706 6705 6714 6716 6721 6727 6717 6707 6703 6693 6685 6676 6661 6653 6647 6642 6647 :ENC 6 /6 4928 4880 4872 4897 4876 4849 4847 4871 4842 4831 :ENB 6 /6 4925 4875 4870 4894 4874 4847 4848 4870 4840 4830 :SW1 57 /60 12 :SW2 24 /60 21 :BAT 5 /6 12.5 :NAME 16590056
00000000