0000048000
289
SACA41 KWBC 110400
METAR
MKBK NIL=
MUBA NIL=
MUBY NIL=
MUCA NIL=
MUCL 110352Z 12004KT 090V150 9000 FEW018 25/22 Q1017=
MUCM 110350Z 08009KT 9000 FEW025 20/18 Q1019=
MUCU 110351Z 33005KT 9000 FEW020 22/19 Q1018=
MUGM NIL=
MUGT NIL=
MUHA 110355Z 12001KT 9000 NSC 18/17 Q1018=
MUMO NIL=
MUMZ NIL=
MUNG NIL=
MUVR 110350Z 08006KT 8000 FEW020 23/21 Q1019=
MUVT NIL=
MYEF NIL=
MYSM NIL=
TABS NIL=
TAOA NIL=
TBBI NIL=
TDCF NIL=

0000061800
290
SAJP44 KWBC 110400
METAR
RJOS NIL=
RJOT 110400Z 29011KT 9999 FEW025 SCT035 05/M03 Q1027=
RJOY 110400Z 27013KT 9999 FEW025 07/M03 Q1026=
RJOZ NIL=
RJSA 110400Z 27015G29KT 0200 R24/0800VP1800D SHSNGS BLSN VV002
     M05/M07 Q1019=
RJSC 110400Z 26007KT 4000 -SHSN FEW003 SCT015 BKN025 M00/M03
     Q1022=
RJSD NIL=
RJSH NIL=
RJSI 110400Z 27009KT 230V310 9999 FEW020 SCT050 M00/M08 Q1020=
RJSO NIL=
RJST NIL=
RJSU NIL=
RJTA NIL=
RJTC NIL=
RJTE NIL=
RJTF 110400Z VRB03G14KT 9999 FEW040 08/M09 Q1022=
RJTH NIL=
RJTI 110400Z 08004KT 040V120 9999 FEW030 08/M09 Q1022=

0000041900
291
SANM40 FYWW 110400
METAR FYGF 110400Z 18003KT CAVOK 16/05 Q1019=
METAR FYGO 110400Z AUTO 00007KT //// // ////// 17/14 Q1014=
METAR FYOA 110400Z AUTO 22005KT //// // ////// 19/09 Q1014=
METAR FYRN 110400Z 00000KT CAVOK 19/13 Q1016=
METAR FYWB 110400Z 36004KT 9999 OVC010 16/15 Q1014=
METAR FYWE 110400Z 19003KT CAVOK 18/05 Q1022=
METAR FYWH 110400Z AUTO 19007KT //// // ////// 13/02 Q1021=

0000014500
292
SATH32 VTBB 110400 RRA
METAR VTSC 110400Z 06009KT 8000 VCSH SCT016 BKN040 OVC100 26/22 
           Q1015 A2997 RWY02 INFO D=

0000008700
293
SAAF13 LFPW 110400 RRA
METAR GBYD 110400Z 01206KT CAVOK 18/12 Q1012=

0000029500
294
FTUS52 KWBC 110409 AAA
TAF AMD
KMCB 110406Z 1104/1124 15008KT 2SM -RA BR OVC002
     FM110500 23010KT 5SM -RA BR OVC005
      TEMPO 1105/1109 2SM TSRA OVC003CB
     FM111000 23010KT 5SM BR OVC005
     FM111500 30008KT P6SM SCT250
     FM111800 30012G20KT P6SM SKC=

0000025700
295
FTUS53 KWBC 110409 AAA
TAF AMD
KCGI 110407Z 1104/1124 18010KT P6SM -RA OVC070
     FM110500 17012KT 3SM SHRA BR OVC015
      TEMPO 1105/1107 2SM SHRA BR OVC008
     FM110700 24012KT P6SM BKN025
     FM111200 27010KT P6SM SCT040=

0000126000
296
FTUS80 KWBC 110409 AAA
TAF AMD
KCGI 110407Z 1104/1124 18010KT P6SM -RA OVC070
     FM110500 17012KT 3SM SHRA BR OVC015
      TEMPO 1105/1107 2SM SHRA BR OVC008
     FM110700 24012KT P6SM BKN025
     FM111200 27010KT P6SM SCT040=
KGRB 110408Z 1104/1124 16005KT 3SM RA BR OVC008
      TEMPO 1104/1108 2SM -FZRASN BR OVC004
     FM110800 27005KT 2SM -RASN BR OVC006
      TEMPO 1108/1110 1SM -FZRASN BR
     FM111000 24007KT 2SM -SN BR OVC006
     FM111500 30006KT 6SM -SN BKN007 OVC020
     FM111900 29010KT P6SM BKN020 BKN040
     FM112300 26008KT P6SM BKN050=
KMCB 110406Z 1104/1124 15008KT 2SM -RA BR OVC002
     FM110500 23010KT 5SM -RA BR OVC005
      TEMPO 1105/1109 2SM TSRA OVC003CB
     FM111000 23010KT 5SM BR OVC005
     FM111500 30008KT P6SM SCT250
     FM111800 30012G20KT P6SM SKC=
KNEW 110406Z 1104/1124 16010KT 2SM BR BKN002 OVC015
      TEMPO 1105/1109 2SM TSRA OVC006CB
     FM110900 22015KT 3SM -RA BR OVC002
     FM111200 27013KT 2SM BR OVC003
     FM111600 30012KT P6SM SCT250=
KSHV 110408Z 1104/1124 21006KT P6SM SCT020 OVC040
      TEMPO 1104/1106 OVC015
     FM110600 23012G18KT P6SM VCSH BKN020
     FM110900 27007KT P6SM SKC
     FM111700 29014G22KT P6SM SKC=

0000143600
297
SPUS70 KWBC 110410
SPECI
KAAO 110406Z AUTO 30012KT 10SM BKN008 02/02 A2969 RMK AO2=
KAMW 110406Z AUTO 28007KT 6SM BR SCT003 BKN014 OVC019 M01/M01
     A2954 RMK AO2 T10061006 $=
KBUY 110406Z AUTO 36003KT 1 1/4SM BR OVC002 04/03 A3011 RMK AO2
     T00390028=
KCUB 110406Z AUTO 00000KT 4SM BR OVC004 11/10 A3010 RMK AO2
     T01060100 TSNO=
KDEW 110406Z AUTO 14006KT 10SM SCT015 OVC060 02/01 A2988 RMK AO2
     T00220006=
KMIW 110406Z AUTO 29008KT 8SM OVC005 00/M01 A2951 RMK AO2
     T00001006 TSNO=
KPQL 110406Z AUTO 15005KT 1/4SM FG VV002 17/17 A2995 RMK AO2
     T01720167 TSNO=
KRWI 110406Z AUTO 09005KT 3SM RA BR SCT007 BKN034 OVC075 15/14
     A3010 RMK AO2 PRESFR P0002 T01500144=
KSET 110406Z AUTO 04006KT 1SM -RA BR FEW004 BKN060 OVC080 04/04
     A2957 RMK AO2 P0001 T00440044 TSNO=
KTOP 110406Z AUTO 25005KT 6SM BR BKN020 BKN025 OVC039 03/01 A2964
     RMK AO2 T00280011=
KTXK 110406Z AUTO 24007KT 10SM BKN008 BKN013 OVC018 16/15 A2974
     RMK AO2 CIG 006V011=
K1M4 110407Z AUTO 15010G19KT 4SM BR OVC001 11/11 A2988 RMK AO2
     TSE01RAE03 P0000=
KOWB 110407Z AUTO 25006KT 3SM TSRA BR FEW001 SCT010 OVC018 08/08
     A2976 RMK AO2 LTG DSNT S TSB0357E0359B01 P0002=
KPLN 110407Z AUTO 12005KT 4SM FZRA BR OVC005 00/M01 A2957 RMK AO2
     UPE01FZRAB01 PRESFR P0003 I1001 T00001011=
KPSF 110407Z AUTO 00000KT 3/4SM BR OVC002 M01/M02 A3020 RMK
     AO2=

0000077400
298
SAAG31 KWBC 110400
METAR
SAAG NIL=
SAAP NIL=
SAAR 110400Z 20004KT CAVOK 24/21 Q1010=
SABE 110400Z 18015G29KT CAVOK 24/15 Q1011=
SACO 110400Z 16010KT 9999 SCT015 BKN100 24/19 Q1016=
SADD NIL=
SAEZ 110400Z 20009KT CAVOK 19/13 Q1012=
SAME 110400Z 18006KT CAVOK 26/04 Q1016=
SARC 110400Z 09005KT 9999 FEW050CB BKN200 28/21 Q1006=
SARE 110400Z NIL=
SARF 110400Z 02008KT CAVOK 29/22 Q1007=
SARI 110400Z 05005KT CAVOK 25/23 Q1012=
SARP 110400Z 09004KT CAVOK 26/21 Q1011=
SASA 110400Z 36004KT 9999 SCT020 FEW045CB BKN200 23/16 Q1015=
SASJ 110400Z NIL=
SAWE 110400Z 25005 KT 9999 FEW020 SCT056 07/05 Q1008=
SAWG 110400Z 29009KT CAVOK 09/06 Q1012=
SAZM 110400Z 20010KT CAVOK 16/08 Q1015=
SAZS 110400Z 18005KT CAVOK 12/03 Q1022=

0000031300
299
SAAG41 KWBC 110400
METAR
SAAC NIL=
SAAV NIL=
SAGS NIL=
SANE NIL=
SANT 110400Z 18014KT 9999 BKN040 FEW045CB 27/22 Q1008=
SANU NIL=
SAOR NIL=
SARL 110400Z NIL=
SATM NIL=
SAVC 110400Z 32003KT CAVOK 15/03 Q1015=
SAVT NIL=
SAZB NIL=
SAZN 110400Z 00000KT CAVOK 22/M01 Q1015=

0000045800
300
SAPR41 KWBC 110400
METAR
SPCL 110400Z 02004KT 9999 FEW025 BKN070 25/24 Q1011 RMK PP000=
SPEC NIL=
SPEI NIL=
SPEO NIL=
SPGM NIL=
SPHI 110400Z 17010KT CAVOK 23/21 Q1012 RMK PP000=
SPHO NIL=
SPHY NIL=
SPJA NIL=
SPJI NIL=
SPJL 110400Z NIL=
SPJN NIL=
SPJR NIL=
SPME 110400Z NIL=
SPMS NIL=
SPNC NIL=
SPPY NIL=
SPRU 110400Z 15007KT 9000 NSC 21/19 Q1012 RMK BR PP000=
SPST 110400Z NIL=
SPTU NIL=
SPUR NIL=

0000014600
301
FTAU34 YBBN 110400 AAA
TAF AMD YBHM 110412Z 1104/1118
12020KT 9999 SCT025 SCT035
FM110900 12020KT 9999 SCT018 SCT025
RMK=

0000015900
302
FTME31 OLBA 110400
TAF OLBA 110400Z 1106/1212 VRB05KT 6000 BKN026 BECMG 1109/1112
    27013KT BECMG 1118/1121 20015KT TEMPO 1106/1212 -RA=

0000020900
303
FTPA31 KWBC 110412
TAF
TAF AMD PGUA 1104/1208 06012G18KT 9999 SCT020 SCT030 QNH2981INS
      TEMPO 1103/1107 06015G25KT 9000 -SHRA SCT015 BKN025
      TX29/1105Z TN25/1117Z AMD 110404=

0000059700
304
FTUS51 KWBC 110412 AAA
TAF AMD
KLYH 110410Z 1104/1124 05004KT 1SM -RA BR OVC001 WS015/18035KT
      TEMPO 1104/1106 3SM -RA BR OVC003
     FM111200 VRB03KT 2SM -DZ BR OVC006 WS015/20045KT
     FM111800 18008KT 5SM SHRA BR OVC010 WS015/20050KT=
KRDG 110410Z 1104/1124 00000KT 2SM BR OVC005
      TEMPO 1104/1107 3/4SM -SHRA BR OVC002
     FM110700 16005KT 2SM -SHRA BR OVC004 WS020/20050KT
     FM111500 18010KT 1SM RA BR BKN003 OVC010 WS020/21050KT
     FM112100 21010G20KT 1SM RA BR BKN003 OVC012 WS020/18050KT
     FM112300 26009KT 2SM RA BR BKN004 OVC025=

0000029400
305
FTUS52 KWBC 110412 AAA
TAF AMD
KVCT 110410Z 1104/1124 VRB06KT 2SM BR SCT003 BKN250
      TEMPO 1104/1108 1/4SM FG VV002
     FM110800 24005KT 1SM BR OVC003
      TEMPO 1108/1112 1/4SM FG VV002
     FM111200 30005KT 3SM BR SCT006
     FM111400 34008KT P6SM SCT250=

0000053800
306
FTUS53 KWBC 110412 AAA
TAF AMD
KAUW 110411Z 1104/1124 11003KT 4SM -SN BR OVC010
      TEMPO 1104/1108 2SM -SN BR OVC006
     FM110800 30006KT 3SM -SN BR OVC006
     FM111500 30009KT 6SM -SN BR OVC015
     FM111800 29010KT P6SM SCT020 BKN040=
KCWA 110410Z 1104/1124 11003KT 4SM -SN BR OVC010
      TEMPO 1104/1108 2SM -SN BR OVC006
     FM110800 30006KT 3SM -SN BR OVC006
     FM111500 30009KT 6SM -SN BR OVC015
     FM111800 29010KT P6SM SCT020 BKN040 AMD LTD TO CLD VIS AND
      WIND TIL 111100=

0000135000
307
FTUS80 KWBC 110412 AAA
TAF AMD
KAUW 110411Z 1104/1124 11003KT 4SM -SN BR OVC010
      TEMPO 1104/1108 2SM -SN BR OVC006
     FM110800 30006KT 3SM -SN BR OVC006
     FM111500 30009KT 6SM -SN BR OVC015
     FM111800 29010KT P6SM SCT020 BKN040=
KCWA 110410Z 1104/1124 11003KT 4SM -SN BR OVC010
      TEMPO 1104/1108 2SM -SN BR OVC006
     FM110800 30006KT 3SM -SN BR OVC006
     FM111500 30009KT 6SM -SN BR OVC015
     FM111800 29010KT P6SM SCT020 BKN040 AMD LTD TO CLD VIS AND
      WIND TIL 111100=
KLYH 110410Z 1104/1124 05004KT 1SM -RA BR OVC001 WS015/18035KT
      TEMPO 1104/1106 3SM -RA BR OVC003
     FM111200 VRB03KT 2SM -DZ BR OVC006 WS015/20045KT
     FM111800 18008KT 5SM SHRA BR OVC010 WS015/20050KT=
KMSS 110411Z 1104/1124 07006KT P6SM SCT025 OVC035
      TEMPO 1104/1108 6SM BR BKN025 OVC035
     FM110800 08008KT 5SM -FZRA BR OVC015
     FM111300 09009KT 3SM -RA BR BKN009 OVC015 WS020/20040KT
     FM111500 15010G18KT 4SM -RA BR OVC007 WS020/22040KT=
KRDG 110410Z 1104/1124 00000KT 2SM BR OVC005
      TEMPO 1104/1107 3/4SM -SHRA BR OVC002
     FM110700 16005KT 2SM -SHRA BR OVC004 WS020/20050KT
     FM111500 18010KT 1SM RA BR BKN003 OVC010 WS020/21050KT
     FM112100 21010G20KT 1SM RA BR BKN003 OVC012 WS020/18050KT
     FM112300 26009KT 2SM RA BR BKN004 OVC025=

0000029400
308
FTUS80 KWBC 110412 AAB
TAF AMD
KVCT 110410Z 1104/1124 VRB06KT 2SM BR SCT003 BKN250
      TEMPO 1104/1108 1/4SM FG VV002
     FM110800 24005KT 1SM BR OVC003
      TEMPO 1108/1112 1/4SM FG VV002
     FM111200 30005KT 3SM BR SCT006
     FM111400 34008KT P6SM SCT250=

00000000