0000050900
309
FTUS72 KWBC 110351 AAA
TAF AMD
KBRO 110348Z 1104/1124 18004KT 2SM BR SCT004 BKN015
      TEMPO 1104/1106 BKN004
     FM110600 VRB03KT 2SM BR BKN004
      TEMPO 1112/1115 1/2SM FG VV001
     FM111500 VRB04KT 5SM BR SCT004 BKN015
     FM111800 05010KT P6SM FEW015 SCT030=
KVCT 110347Z 1104/1124 VRB06KT 3SM BR SCT003 BKN250
      TEMPO 1104/1107 1/2SM FG OVC003
     FM110700 24005KT 1/2SM FG OVC003
     FM111200 30005KT 3SM BR SCT006
     FM111400 34008KT P6SM SCT250=

0000008900
310
SAMP31 LMMM 110400 RRA
METAR HLLT 110350Z
18002KT CAVOK 10/05 Q1022=

0000012400
311
SALT34 EYVI 110350
METAR EYSA 110350Z 28014KT 9999 BKN013 OVC019 00/M01 Q1002 
R14L/2/0295 R14R/2/0295=

0000164200
312
SPUS70 KWBC 110350
SPECI
KAMG 110346Z AUTO 14006KT 1 3/4SM BR OVC002 18/17 A3009 RMK AO2
     T01830172 $=
KAND 110346Z AUTO 05006KT 2 1/2SM BR OVC004 08/08 A3008 RMK
     AO2=
KEVV 110346Z 19006KT 6SM -RA BR SCT006 BKN038 OVC085 09/08 A2974
     RMK AO2 P0006 T00890078=
KFAY 110346Z AUTO 23004KT 2 1/2SM -RA BR OVC005 17/16 A3012 RMK
     AO2 RAE17B33 P0004=
KGNV 110346Z AUTO 06003KT 7SM SCT004 BKN015 OVC038 20/19 A3010 RMK
     AO2 T02000194=
KLNS 110346Z AUTO 00000KT 3/4SM -RA BR OVC004 01/01 A3019 RMK AO2
     UPB30E31 P0003=
KLOU 110346Z 17009G16KT 10SM SCT021 BKN055 OVC110 12/09 A2973 RMK
     AO2 PRESFR=
KPQL 110346Z AUTO 16003KT 3/4SM BR VV003 17/17 A2995 RMK AO2 RAE28
     P0000 T01670167 TSNO=
KCUB 110347Z AUTO 00000KT 1 3/4SM BR OVC005 11/11 A3010 RMK AO2
     RAB18E33 P0001 TSNO=
KESF 110347Z AUTO 20009KT 1 3/4SM +TSRA BR OVC006 19/18 A2980 RMK
     AO2 LTG DSNT ALQDS TSB0257 P0025=
KIOW 110347Z AUTO 25003KT 1 1/2SM BR OVC002 01/01 A2953 RMK
     AO2=
KMGJ 110347Z AUTO 00000KT 3/4SM BR VV005 00/M01 A3024 RMK AO2
     T00001011 TSNO=
KOLM 110347Z 19016G23KT 5SM -RA BR BKN013 BKN037 OVC046 09/08
     A2978 RMK AO2 P0005 T00890078=
KPDK 110347Z AUTO 10003KT 1SM -RA BR OVC002 08/07 A3005 RMK AO2
     RAB0258 P0004=
KSHN 110347Z AUTO 31003KT 2 1/2SM RA BR BKN004 OVC018 07/06 A2975
     RMK AO2 P0011 TSNO=
KTVR 110347Z AUTO 17009KT 2SM RA BR FEW008 SCT014 OVC020 17/17
     A2980 RMK AO2 RAB06 P0022 TSNO=
PABA 110343Z AUTO 27026G29KT 1/2SM SN BKN008 OVC015 M24/M27 A2980
     RMK AO2 PK WND 27031/0323 CIG 005V012 P0000 FZRANO=

0000012200
313
SAEO31 EETN 110350 CCA
METAR COR EETN 110350Z 33006KT 5000 SN OVC008 M01/M02 Q0996 
R08/590295 NOSIG=

0000010800
314
SPUS31 KWBC 110350
SPECI
KLOU 110346Z 17009G16KT 10SM SCT021 BKN055 OVC110 12/09 A2973=

0000010800
315
SPUS31 KWBC 110350
SPECI
KLIT 110346Z 22007KT 7SM -RA SCT008 BKN021 OVC065 14/13 A2969=

0000011300
316
SPUS41 KWBC 110350
SPECI
KDOV 110346Z AUTO 07005KT 1 1/4SM R01/2400FT BR SCT065 04/04 A3017=

0000009500
317
SACA35 KWBC 110300 RRA
METAR
MSLP 110250Z VRB02KT CAVOK 23/18 Q1012 A2989=

0000038800
318
FTCN31 CWAO 110300 AAA
TAF AMD CYXT 110351Z 1103/1113 34012KT P6SM FEW005 SCT025 BKN050
     TEMPO 1103/1105 5SM -RA BR SCT005 BKN020 OVC040
    FM110500 02012KT 6SM -RASN SCT005 OVC025 TEMPO 1105/1110 1SM -SN
     BR BKN005 OVC020 PROB30 1105/1110 1/2SM SHSN BKN003
    FM111000 01010KT P6SM BKN040 TEMPO 1110/1113 4SM -SN BKN020
    RMK NXT FCST BY 110700Z=

0000013000
319
SALT31 EYVI 110350
METAR EYVI 110350Z 29016G27KT 7000 -SNRA BKN013 OVC026 01/M02 Q1002
     R20/2/0195 NOSIG=

0000222700
320
KSAB31 KWBC 111544 RRA
CREX++
T000119 A001 D01021 D06021++
3002717 -09011342 NWCL1 2014 01 11 15 00 00 07 166 10148 258 0047+
2978856 -09042019 BYGL1 2014 01 11 15 00 00 07 185 10147 278 0053+
2966750 -09123761 TESL1 2014 01 11 15 00 00 07 170 10156 264 0031+
2944958 -09133811 AMRL1 2014 01 11 15 00 00 07 128 10158 273 0037+
2955500 -09230500 FRWL1 2014 01 11 15 00 00 07 146 10158 267 0055+
3022364 -09322167 LCLL1 2014 01 11 15 00 00 07 174 10165 /// ////+
2976817 -09334289 CAPL1 2014 01 11 15 00 00 07 130 10172 286 0023+
2986670 -09393000 PORT2 2014 01 11 15 00 00 07 /// 10164 315 0054+
2972840 -09387010 SBPT2 2014 01 11 15 00 00 07 158 10162 315 0036+
2968170 -09498500 MGPT2 2014 01 11 15 00 00 07 162 10168 313 0049+
2972628 -09526581 NCHT2 2014 01 11 15 00 00 07 159 10192 /// ////+
2968928 -09384181 TXPT2 2014 01 11 15 00 00 07 155 10168 291 0044+
2951500 -09451330 RLOT2 2014 01 11 15 00 00 07 163 10167 290 0033+
2948000 -09491830 EPTT2 2014 01 11 15 00 00 07 166 10169 318 0042+
2935733 -09472483 GNJT2 2014 01 11 15 00 00 07 153 10155 308 0047+
2931000 -09479330 GTOT2 2014 01 11 15 00 00 07 143 10182 /// ////+
2894331 -09530250 FCGT2 2014 01 11 15 00 00 07 159 10172 302 0050+
2840830 -09671170 SDRT2 2014 01 11 15 00 00 07 156 10182 322 0018+
2864000 -09659500 VCAT2 2014 01 11 15 00 00 07 125 10178 324 0030+
2845170 -09638830 PCNT2 2014 01 11 15 00 00 07 /// ///// 318 0057+
2811830 -09702170 CPNT2 2014 01 11 15 00 00 07 133 10190 297 0033+
2802170 -09704670 RCPT2 2014 01 11 15 00 00 07 148 10180 352 0028+
2783830 -09707330 RTAT2 2014 01 11 15 00 00 07 149 10181 269 0022+
2782170 -09720330 NGLT2 2014 01 11 15 00 00 07 150 10181 299 0011+
2763330 -09723670 PACT2 2014 01 11 15 00 00 07 153 10185 319 0025+
2758000 -09721670 MQTT2 2014 01 11 15 00 00 07 156 10177 311 0037+
2748000 -09732170 IRDT2 2014 01 11 15 00 00 07 146 10190 317 0029+
2729500 -09740500 BABT2 2014 01 11 15 00 00 07 135 10186 297 0019+
2682500 -09749170 RSJT2 2014 01 11 15 00 00 07 /// ///// 182 0009+
2607670 -09717670 PCGT2 2014 01 11 15 00 00 07 170 10186 291 0000+
2606000 -09721500 PTIT2 2014 01 11 15 00 00 07 171 10186 /// ////++
7777

0000662100
321
KSAA32 KWBC 111544
CREX++
T000119 A001 D01021 D06025++
4470286 -07549444 OBGN6 2014 01 11 14 54 //// 00 07 00 06
00423 //// 00423 //// 00423 //// 00422 //// 00423 //// 00423 ////+
4433111 -07593453 ALXN6 2014 01 11 14 54 //// 00 07 00 06
00432 //// 00430 //// 00426 //// 00422 //// 00426 //// 00429 ////+
4262100 -08252690 AGCM4 2014 01 11 14 54 //// 00 07 00 06
00351 //// 00351 //// 00352 //// 00352 //// 00353 //// 00354 ////+
4281240 -08248581 SCRM4 2014 01 11 14 54 //// 00 07 00 06
00378 //// 00375 //// 00370 //// 00370 //// 00369 //// 00369 ////+
4294530 -08244350 PHXM4 2014 01 11 14 54 //// 00 07 00 06
00273 //// 00273 //// 00282 //// 00294 //// 00302 //// 00313 ////+
4297380 -08242040 MBRM4 2014 01 11 14 54 //// 00 07 00 06
00189 //// 00199 //// 00212 //// 00221 //// 00233 //// 00241 ////+
4300250 -08242240 DUPM4 2014 01 11 14 54 //// 00 07 00 06
00066 //// 00079 //// 00085 //// 00103 //// 00108 //// 00128 ////+
4300690 -08242250 FTGM4 2014 01 11 14 54 //// 00 07 00 06
-00056 //// -00041 //// -00032 //// -00013 //// -00009 //// 00015 ////+
4247322 -08287925 SCSM4 2014 01 11 14 54 //// 00 07 00 06
00180 //// 00180 //// 00180 //// 00182 //// 00182 //// 00182 ////+
4209090 -08318600 GRTM4 2014 01 11 14 54 //// 00 07 00 06
00472 //// 00474 //// 00476 //// 00479 //// 00485 //// 00491 ////+
4220240 -08314750 WDTM4 2014 01 11 14 54 //// 00 07 00 06
00387 //// 00389 //// 00391 //// 00393 //// 00395 //// 00396 ////+
4229894 -08309258 FWNM4 2014 01 11 14 54 //// 00 07 00 06
00360 //// 00358 //// 00357 //// 00357 //// 00360 //// 00363 ////+
4235778 -08292994 WMPM4 2014 01 11 14 54 //// 00 07 00 06
00200 //// 00200 //// 00198 //// 00199 //// 00201 //// 00201 ////+
4413019 -07633197 CAVN6 2014 01 11 14 54 //// 00 07 00 06
00411 //// 00407 //// 00400 //// 00405 //// 00412 //// 00422 ////+
4346417 -07651183 OSGN6 2014 01 11 14 54 //// 00 07 00 06
00350 //// 00433 //// 00433 //// 00385 //// 00361 //// 00410 ////+
4326903 -07762575 RCRN6 2014 01 11 14 54 //// 00 07 00 06
00429 //// 00417 //// 00438 //// 00420 //// 00416 //// 00411 ////+
4333839 -07872733 OCTN6 2014 01 11 14 54 //// 00 07 00 06
00433 //// 00439 //// 00449 //// 00463 //// 00431 //// 00460 ////+
4309992 -07905992 NGAN6 2014 01 11 14 54 //// 00 07 00 06
96942 //// 96916 //// 96859 //// 96782 //// 96709 //// 96656 ////+
4308106 -07906136 AMFN6 2014 01 11 14 54 //// 00 07 00 06
170344 //// 170350 //// 170354 //// 170355 //// 170354 //// 170351 ////+
4307692 -07901389 NIAN6 2014 01 11 14 54 //// 00 07 00 06
171243 //// 171257 //// 171265 //// 171263 //// 171257 //// 171252 ////+
4287744 -07889047 BUFN6 2014 01 11 14 54 //// 00 07 00 06
00447 //// 00441 //// 00432 //// 00425 //// 00420 //// 00420 ////+
4269131 -07904733 PSTN6 2014 01 11 14 54 //// 00 07 00 06
00417 //// 00424 //// 00422 //// 00423 //// 00421 //// 00424 ////+
4215400 -08009250 EREP1 2014 01 11 14 54 //// 00 07 00 06
00474 //// 00482 //// 00479 //// 00475 //// 00475 //// 00496 ////+
4175975 -08128106 FAIO1 2014 01 11 14 54 //// 00 07 00 06
00534 //// 00535 //// 00555 //// 00555 //// 00531 //// 00508 ////+
4154086 -08163547 CNDO1 2014 01 11 14 54 //// 00 07 00 06
00480 //// 00471 //// 00480 //// 00484 //// 00482 //// 00483 ////+
4154364 -08273139 MRHO1 2014 01 11 14 54 //// 00 07 00 06
00474 //// 00474 //// 00465 //// 00461 //// 00470 //// 00475 ////+
4169356 -08347228 THRO1 2014 01 11 14 54 //// 00 07 00 06
00470 //// 00472 //// 00475 //// 00477 //// 00480 //// 00483 ////+
4196010 -08325690 FPPM4 2014 01 11 14 54 //// 00 07 00 06
00477 //// 00476 //// 00481 //// 00485 //// 00493 //// 00500 ////+
4314039 -08249389 LKPM4 2014 01 11 14 54 //// 00 07 00 06
-00069 //// -00067 //// -00079 //// -00081 //// -00087 //// -00089 ////+
4384619 -08264311 HRBM4 2014 01 11 14 54 //// 00 07 00 06
-00101 //// -00100 //// -00082 //// -00063 //// -00079 //// -00100 ////+
4364040 -08384680 ESVM4 2014 01 11 14 54 //// 00 07 00 06
-00063 //// -00059 //// -00054 //// -00048 //// -00041 //// -00034 ////+
4506300 -08342860 LPNM4 2014 01 11 14 54 //// 00 07 00 06
-00084 //// -00106 //// -00150 //// -00139 //// -00121 //// -00147 ////+
4577789 -08472533 MACM4 2014 01 11 14 54 //// 00 07 00 06
-00076 //// -00065 //// -00046 //// -00047 //// -00051 //// -00051 ////+
4599250 -08389820 DTLM4 2014 01 11 14 54 //// 00 07 00 06
-00112 //// -00125 //// -00130 //// -00128 //// -00129 //// -00132 ////+
4626480 -08419120 RCKM4 2014 01 11 14 54 //// 00 07 00 06
-00049 //// -00053 //// -00056 //// -00060 //// -00062 //// -00067 ////+
4628469 -08420981 WNEM4 2014 01 11 14 54 //// 00 07 00 06
00218 //// 00217 //// 00211 //// 00213 //// 00209 //// 00210 ////+
4648572 -08430183 LTRM4 2014 01 11 14 54 //// 00 07 00 06
00552 //// 00553 //// 00543 //// 00550 //// 00556 //// 00555 ////+
4650100 -08434030 USSM4 2014 01 11 14 54 //// 00 07 00 06
00534 //// 00522 //// 00532 //// 00527 //// 00529 //// 00535 ////+
4650111 -08437261 SWPM4 2014 01 11 14 54 //// 00 07 00 06
00113 //// 00113 //// 00086 //// 00105 //// 00091 //// 00099 ////+
4394736 -08644161 LDTM4 2014 01 11 14 54 //// 00 07 00 06
00027 //// 00032 //// 00061 //// 00091 //// 00116 //// 00116 ////+
4276811 -08620119 HLNM4 2014 01 11 14 54 //// 00 07 00 06
00072 //// 00067 //// 00047 //// 00058 //// 00060 //// 00050 ////+
4172986 -08753839 CMTI2 2014 01 11 14 54 //// 00 07 00 06
00041 //// 00031 //// 00050 //// 00005 //// 00049 //// 00018 ////+
4300200 -08788760 MLQW3 2014 01 11 14 54 //// 00 07 00 06
-00030 //// -00018 //// -00009 //// 00009 //// 00021 //// 00003 ////+
4446397 -08750103 KWNW3 2014 01 11 14 54 //// 00 07 00 06
-00017 //// -00025 //// 00002 //// 00015 //// -00028 //// -00037 ////+
4479558 -08731433 SBCW3 2014 01 11 14 54 //// 00 07 00 06
-00004 //// -00012 //// -00009 //// 00014 //// 00014 //// 00024 ////+
4454106 -08800719 GBWW3 2014 01 11 14 54 //// 00 07 00 06
-00065 //// -00063 //// -00060 //// -00056 //// -00054 //// -00053 ////+
4509589 -08758994 MNMM4 2014 01 11 14 54 //// 00 07 00 06
-00023 //// -00034 //// -00043 //// -00043 //// -00056 //// -00049 ////+
4596989 -08587150 PNLM4 2014 01 11 14 54 //// 00 07 00 06
-00016 //// -00031 //// -00010 //// -00024 //// -00019 //// -00005 ////+
4648450 -08463089 PTIM4 2014 01 11 14 54 //// 00 07 00 06
00131 //// 00132 //// 00135 //// 00144 //// 00139 //// 00141 ////+
4654558 -08737908 MCGM4 2014 01 11 14 54 //// 00 07 00 06
00126 //// 00115 //// 00113 //// 00142 //// 00129 //// 00129 ////++
7777

0000216100
322
KSAA32 KWBC 111544 RRA
CREX++
T000119 A001 D01021 D06021++
4470286 -07549444 OBGN6 2014 01 11 15 00 00 07 085 10007 /// ////+
4433111 -07593453 ALXN6 2014 01 11 15 00 00 07 /// 10011 /// ////+
4262100 -08252690 AGCM4 2014 01 11 15 00 00 07 035 09949 /// ////+
4297380 -08242040 MBRM4 2014 01 11 15 00 00 07 055 09935 /// ////+
4300690 -08242250 FTGM4 2014 01 11 15 00 00 07 052 09938 201 0041+
4346417 -07651183 OSGN6 2014 01 11 15 00 00 07 070 10017 268 0063+
4326903 -07762575 RCRN6 2014 01 11 15 00 00 07 088 09995 /// ////+
4307692 -07901389 NIAN6 2014 01 11 15 00 00 07 068 09982 /// ////+
4287744 -07889047 BUFN6 2014 01 11 15 00 00 07 061 09992 165 0029+
4269131 -07904733 PSTN6 2014 01 11 15 00 00 07 092 09989 /// ////+
4175975 -08128106 FAIO1 2014 01 11 15 00 00 07 108 09974 /// ////+
4154086 -08163547 CNDO1 2014 01 11 15 00 00 07 102 09976 184 0029+
4154364 -08273139 MRHO1 2014 01 11 15 00 00 07 070 09972 178 0022+
4169356 -08347228 THRO1 2014 01 11 15 00 00 07 057 09959 199 0046+
4384619 -08264311 HRBM4 2014 01 11 15 00 00 07 021 09926 157 0034+
4506300 -08342860 LPNM4 2014 01 11 15 00 00 07 009 09917 197 0014+
4577789 -08472533 MACM4 2014 01 11 15 00 00 07 017 09904 253 0044+
4599250 -08389820 DTLM4 2014 01 11 15 00 00 07 021 09909 214 0011+
4626480 -08419120 RCKM4 2014 01 11 15 00 00 07 /// 09904 196 0018+
4628469 -08420981 WNEM4 2014 01 11 15 00 00 07 019 09903 205 0027+
4648572 -08430183 LTRM4 2014 01 11 15 00 00 07 013 09900 278 0015+
4650111 -08437261 SWPM4 2014 01 11 15 00 00 07 012 09899 258 0032+
4394736 -08644161 LDTM4 2014 01 11 15 00 00 07 011 09951 279 0029+
4276811 -08620119 HLNM4 2014 01 11 15 00 00 07 015 09958 258 0045+
4172986 -08753839 CMTI2 2014 01 11 15 00 00 07 014 09993 241 0031+
4446500 -08749572 KWNW3 2014 01 11 15 00 00 07 000 09953 295 0050+
4509589 -08758994 MNMM4 2014 01 11 15 00 00 07 -006 ///// /// ////+
4596989 -08587150 PNLM4 2014 01 11 15 00 00 07 -005 09916 296 0037+
4648450 -08463089 PTIM4 2014 01 11 15 00 00 07 009 09898 267 0023+
4654558 -08737908 MCGM4 2014 01 11 15 00 00 07 -023 09930 331 0023++
7777

0000167500
323
KSAA31 KWBC 111544 RRA
CREX++
T000119 A001 D01021 D06021++
2664770 -08187120 FMRF1 2014 01 11 15 00 00 07 257 10191 158 0027+
2763870 -08256210 PMAF1 2014 01 11 15 00 00 07 239 10184 /// ////+
2766175 -08259953 MTBF1 2014 01 11 15 00 00 07 206 10188 205 0068+
2776060 -08262690 SAPF1 2014 01 11 15 00 00 07 217 10196 188 0073+
2785778 -08255269 OPTF1 2014 01 11 15 00 00 07 182 10186 206 0037+
2797830 -08283170 CWBF1 2014 01 11 15 00 00 07 194 10184 220 0080+
2913500 -08303170 CKYF1 2014 01 11 15 00 00 07 162 10173 180 0056+
2972670 -08498170 APCF1 2014 01 11 15 00 00 07 156 10149 217 0028+
3015228 -08566694 PACF1 2014 01 11 15 00 00 07 176 10132 194 0085+
3021330 -08587830 PCBF1 2014 01 11 15 00 00 07 181 10132 196 0121+
3040440 -08721120 PCLF1 2014 01 11 15 00 00 07 175 10138 239 0056+
3022830 -08802500 FMOA1 2014 01 11 15 00 00 07 162 10127 246 0094+
3025000 -08807500 DILA1 2014 01 11 15 00 00 07 140 10142 220 0040+
3064830 -08805830 MCGA1 2014 01 11 15 00 00 07 188 10114 261 0033+
3070830 -08804330 OBLA1 2014 01 11 15 00 00 07 185 10122 /// ////+
3021330 -08850000 PTBM6 2014 01 11 15 00 00 07 140 10128 239 0063+
3034330 -08851170 RARM6 2014 01 11 15 00 00 07 156 10125 262 0061+
3035500 -08856670 DKCM6 2014 01 11 15 00 00 07 147 10129 252 0051+
3032639 -08932578 WYCM6 2014 01 11 15 00 00 07 186 10128 297 0041+
2917830 -08925830 PILL1 2014 01 11 15 00 00 07 161 10147 275 0057+
2893220 -08940750 PSTL1 2014 01 11 15 00 00 07 169 10148 276 0125+
2986811 -08967325 SHBL1 2014 01 11 15 00 00 07 185 10142 252 0056+
2926333 -08995667 GISL1 2014 01 11 15 00 00 07 164 10153 273 0073++
7777

0000343800
324
KSAA31 KWBC 111544
CREX++
T000119 A001 D01021 D06025++
2664770 -08187120 FMRF1 2014 01 11 14 54 2904 00 07 00 06
00174 0203 00180 0203 00185 0202 00191 0202 00199 0203 00205 0203+
2763870 -08256210 PMAF1 2014 01 11 14 54 2890 00 07 00 06
00459 0253 00466 0255 00474 0259 00481 0262 00486 0263 00491 0264+
2776060 -08262690 SAPF1 2014 01 11 14 54 2910 05 07 00 06
00434 0238 00442 0238 00449 0237 00455 0236 00464 0237 00472 0238+
2785778 -08255269 OPTF1 2014 01 11 14 54 2892 00 07 00 06
00411 0297 00422 0298 00432 0297 00444 0298 00453 0297 00463 0297+
2797830 -08283170 CWBF1 2014 01 11 14 54 2875 05 07 00 06
00672 0263 00653 0243 00666 0256 00673 0263 00642 0232 00642 0232+
2913500 -08303170 CKYF1 2014 01 11 14 54 2851 05 07 00 06
00969 0306 00987 0315 01000 0321 01004 0317 01012 0318 01024 0324+
2972670 -08498170 APCF1 2014 01 11 14 54 2834 05 07 00 06
00258 0243 00279 0256 00302 0271 00308 0268 00327 0279 00336 0279+
3015228 -08566694 PACF1 2014 01 11 14 54 2852 05 07 00 06
00314 0354 00320 0357 00328 0361 00324 0353 00347 0372 00341 0362+
3021330 -08587830 PCBF1 2014 01 11 14 54 2859 05 07 00 06
00384 0380 00312 0306 00314 0305 00358 0346 00386 0372 00322 0305+
3040440 -08721120 PCLF1 2014 01 11 14 54 2829 05 07 00 06
00191 0292 00183 0281 00190 0285 00195 0287 00188 0276 00192 0277+
3041670 -08782500 WBYA1 2014 01 11 14 54 2836 05 07 00 06
00331 0393 00346 0404 00356 0410 00354 0403 00356 0401 00381 0421+
3025000 -08807500 DILA1 2014 01 11 14 54 2818 00 07 00 06
00172 0273 00175 0274 00164 0261 00162 0256 00168 0260 00205 0294+
3056517 -08808800 BYSA1 2014 01 11 14 54 //// 05 07 00 06
00227 0308 00216 0296 00220 0298 00215 0291 00218 0293 00216 0289+
3044369 -08811392 EFRA1 2014 01 11 14 54 //// 05 07 00 06
00219 0313 00246 0339 00236 0327 00229 0318 00212 0299 00204 0288+
3064830 -08805830 MCGA1 2014 01 11 14 54 2828 00 07 00 06
00287 0246 00273 0230 00262 0216 00239 0190 00222 0171 00209 0155+
3070830 -08804330 OBLA1 2014 01 11 14 54 2818 05 07 00 06
00251 0362 00253 0362 00249 0356 00240 0345 00231 0334 00233 0333+
3078189 -08807361 CIKA1 2014 01 11 14 54 //// 05 07 00 06
00220 0225 00237 0241 00254 0257 00273 0274 00290 0289 00305 0302+
3037664 -08815856 WFRA1 2014 01 11 14 54 //// 05 07 00 06
00374 0424 00372 0416 00364 0401 00344 0375 00321 0346 00304 0322+
3040567 -08824769 BLBA1 2014 01 11 14 54 //// 05 07 00 06
00304 0313 00326 0329 00350 0348 00361 0353 00378 0365 00398 0380+
3034770 -08850540 ULAM6 2014 01 11 14 54 2828 00 07 00 06
00222 0289 00230 0291 00235 0290 00229 0279 00241 0285 00253 0292+
3036790 -08856300 PNLM6 2014 01 11 14 54 2850 00 07 00 06
00204 0144 00210 0144 00210 0138 00214 0136 00211 0127 00209 0119+
3032639 -08932578 WYCM6 2014 01 11 14 54 2814 00 07 00 06
00112 0228 00105 0216 00099 0206 00095 0197 00083 0180 00085 0176+
2917830 -08925830 PILL1 2014 01 11 14 54 2793 05 07 00 06
00326 0338 00328 0338 00327 0334 00327 0331 00329 0331 00320 0319+
2893220 -08940750 PSTL1 2014 01 11 14 54 2801 05 07 00 06
00344 0345 00347 0344 00363 0356 00375 0364 00370 0355 00385 0366+
2986811 -08967325 SHBL1 2014 01 11 14 54 2809 00 07 00 06
00082 0066 00081 0067 00080 0068 00073 0063 00073 0065 00065 0059+
2926333 -08995667 GISL1 2014 01 11 14 54 2879 00 07 00 06
00124 0201 00115 0189 00117 0187 00092 0159 00087 0150 00103 0163++
7777

0000008800
325
SATU31 LTAA 110320 RRA
METAR LTCS 110320Z 35004KT CAVOK 03/M07 Q1020=

0000063800
326
SAFI31 EFHK 110350
METAR EFHK 110350Z 34014KT 9999 OVC009 M03/M05 Q0996 NOSIG=
METAR EFJY 110350Z AUTO 01008KT 9999 -SN BKN015 
M08/M10 Q0998=
METAR EFKU 110350Z AUTO 36007KT 8000 -SN OVC020 
M10/M12 Q0999=
METAR EFOU 110350Z AUTO 05008KT 010V090 9999 FEW047/// OVC054/// 
M14/M17 Q1006 12410587=
METAR EFRO 110350Z AUTO 02013KT CAVOK M18/M21 
Q1009=
METAR EFTP 110350Z AUTO 01004KT 9999 BKN007 OVC009 
M04/M05 Q0998=
METAR EFTU 110350Z AUTO VRB01KT 9999 -SN OVC007/// M03/M03 Q0998 
R08/690174=
METAR EFVA 110350Z AUTO 03007KT 340V050 9999 -SN FEW013/// OVC029/// 
M08/M10 Q1002 R16/420195=

0000071100
327
SADL31 EDZO 110350
METAR EDDF 110350Z VRB01KT 3500 1600N R25L/P2000N R25C/P2000N
     R25R/0650V1400U BCFG SCT001 SCT250 M01/M01 Q1018 TEMPO 1200
     BKN001=
METAR EDDH 110350Z 23011KT 9999 BKN010 06/04 Q1012 NOSIG=
METAR EDDK 110350Z 10003KT CAVOK 01/01 Q1016 NOSIG=
METAR EDDL 110350Z 15008KT CAVOK 02/00 Q1016 NOSIG=
METAR EDDM 110350Z 36002KT 9000 1000N R26R/0900U R26L/1300VP2000D
     BCFG NSC M03/M03 Q1018 NOSIG=
METAR EDDN 110350Z 11004KT CAVOK M02/M02 Q1018=
METAR EDDS 110350Z 06002KT 9000 BCFG MIFG NSC M02/M02 Q1017=
METAR EDDT 110350Z 25010KT 9999 FEW025 BKN040 05/02 Q1014 NOSIG=
METAR EDDV 110350Z 23006KT 210V270 9999 BKN014 05/03 Q1014 TEMPO
BKN009=

0000044200
328
SADL32 EDZO 110350
METAR EDDB 110350Z 23010KT 9999 FEW021 BKN260 03/01 Q1015 NOSIG=
METAR EDDC 110350Z 22007KT 9999 FEW032 SCT230 03/00 Q1016=
METAR EDDE 110350Z 23012KT CAVOK 02/M00 Q1016=
METAR EDDG 110350Z 22007KT 9999 BKN012 04/03 Q1014 NOSIG=
METAR EDDP 110350Z 20010KT CAVOK 03/01 Q1016 NOSIG=
METAR EDDR 110350Z 04003KT CAVOK 00/M00 Q1016=
METAR EDDW 110350Z 22010KT 8000 BKN010 06/04 Q1012 TEMPO BKN008=

00000000