0000027600
749
SAIO31 KWBC 110400 RRG
METAR
WBGG 110430Z 04009KT 9999 FEW015CB BKN020 BKN150 28/24 Q1012
     NOSIG=
WBKK 110430Z 31003KT 9999 FEW015 SCT140 BKN270 31/25 Q1011
     NOSIG=
WBSB 110430Z 33008KT 9999 SCT016 FEW017CB BKN280 30/25 Q1012
     NOSIG=

0000088600
750
FTAG41 SARE 110500
TAF SARE 110500Z 1106/1206 09010KT 9999 TS FEW050CB BKN100 TX28/1119Z
 TN24/1109Z BECMG 1109/1111 14010G25KT 5000 TSRA BKN025 BKN040
FEW050CB OVC100 TEMPO 1118/1122 16010KT 9999 FEW010 SCT025 BKN090=
TAF SARF 110500Z 1106/1206 36010KT CAVOK TX29/1117Z TN24/1109Z BECMG
1112/1115 9999 SCT030 FEW040TCU BECMG 1117/1120 8000 TSRA BKN030
FEW050CB BKN100 BECMG 1201/1203 16010KT 6000 TSRA BKN040 FEW050CB
OVC100=
TAF SARP 110500Z 1106/1206 02010KT CAVOK TX28/1119Z TN22/1109Z
BECMG 1109/1112 9999 TS SCT020 FEW050CB BKN100 BECMG 1115/1118
16010KT 5000 TSRA SCT020 BKN040 FEW050CB OVC100 TEMPO 1123/1202 9999
FEW010 BKN020 BKN100=
TAF SARI 110500Z 1106/1206 02005KT 9999 FEW050CB BKN100 TX34/1118Z
TN20/1109Z BECMG 1112/1115 09005KT 9999 SCT030 FEW050CB BKN100 BECMG
1118/1120 16010G20KT 5000 TSRA BKN020 BKN040 FEW050CB OVC100=

0000047000
751
SAID31 WIII 110430
METAR WADD 110430Z 26006KT 220V290 9999 FEW015CB SCT017 30/25 Q1009
NOSIG= 
METAR WAAA 110430Z 33007KT 9999 FEW019 31/21 Q1011= 
METAR WIII 110430Z 33008KT 9999 FEW018CB SCT020 32/25 Q1009 RMK CB TO
SW= 
METAR WIDD 110430Z 02011KT 9999 BKN014 30/23 Q1010= 
METAR WIMM 110430Z 00000KT 5000 HZ SCT017 28/24 Q1012= 
METAR WARR 110430Z 08006KT 010V140 9999 FEW020CB FEW020 30/24 Q1009= 
METAR WIHH NIL=
METAR WABB NIL=

0000009900
752
SPUS41 KWBC 110440
SPECI
KILM 110436Z AUTO 19010G16KT 10SM BKN013 21/19 A3011=

0000009100
753
SAAL41 DAMM 110400 CCA
METAR COR DAAV 110400Z 00000KT CAVOK 10/06 Q1016=

0000011500
754
SPCN51 CWAO 110441
SPECI CWUW 110441Z AUTO 16005KT 9SM BKN005 BKN047 BKN053 BKN093 M29/
A2914=

0000008700
755
SANT31 KWBC 110400 RRE
METAR
LPBJ 110430Z NIL=
LPLA 110430Z NIL=

0000012500
756
SAPA31 KWBC 110400 RRD
METAR
PKWA 110440Z AUTO 06015KT 10SM SCT034 30/20 A2973 RMK AO2
     T02990197=

0000011100
757
SPUS41 KWBC 110441
SPECI
KDOV 110437Z AUTO 09005KT 1/2SM R01/1400FT FG FEW065 04/04 A3015=

0000009700
758
SPUS43 KWBC 110441
SPECI
KGRR 110437Z 17014G21KT 9SM -RA OVC008 05/03 A2955=

0000011200
759
SPUS43 KWBC 110441
SPECI
KPIA 110437Z 19010KT 1 1/2SM R13/5000FT -RA FG OVC002 04/03 A2953=

0000010900
760
SPUS44 KWBC 110441
SPECI
KCLM 110437Z AUTO 13005KT 6SM -RA BR FEW005 OVC060 06/06 A2957=

0000010600
761
SAUS71 KWBC 110400 RRH
METAR
KMTN 110439Z AUTO 00000KT 1 1/4SM BR OVC003 03/03 A3017=

0000010100
762
SAUS72 KWBC 110400 RRG
METAR
KBQK 110435Z AUTO 18007KT 3/4SM OVC003 18/18 A3009=

0000021000
763
SAUS73 KWBC 110400 RRG
METAR
KALN 110435Z AUTO 15010KT 2SM -DZ 05/05 A2958=
KIKK 110435Z AUTO 17013KT 7SM OVC004 04/04 A2957=
KSAW 110437Z AUTO 00000KT 1 1/2SM -SN OVC008 M01/M02 A2947=

0000009500
764
SPCN46 CWAO 110444
SPECI CYGQ 110444Z 00000KT 2SM BR OVC004 RMK SF8 CIG RAG=

0000010600
765
SPCN51 CWAO 110445
SPECI CWUW 110445Z AUTO 16006KT 9SM SCT005 SCT047 SCT053 M28/ A2914=

0000008700
766
SAIY35 LIIB 110400 RRA
METAR LIRS 110355Z /////KT CAVOK 05/03 Q1022=

0000050000
767
FTUS51 KWBC 110445 AAA
TAF AMD
KDUJ 110444Z 1105/1124 13010G18KT P6SM OVC004 WS020/22045KT
     FM111300 19012KT 2SM -RA OVC005 WS020/22045KT
     FM112200 23012G24KT P6SM BKN015 OVC025=
KRWI 110443Z 1105/1124 VRB02KT 3SM -RADZ BR BKN005 OVC020
      TEMPO 1105/1106 1SM RADZ OVC005
     FM110600 VRB02KT 1/2SM -DZ FG VV002 WS010/18035KT
     FM111000 18010KT 6SM BR OVC008
     FM111300 19013G24KT P6SM BKN009 OVC020
     FM111700 20017G28KT 5SM -SHRA BR BKN012=

0000022900
768
FTUS52 KWBC 110445 AAA
TAF AMD
KJBR 110443Z 1105/1124 17010G20KT 5SM -RA BR SCT015 BKN035
     FM110700 24012KT P6SM BKN012 OVC070
     FM111000 25010KT P6SM SCT020
     FM111500 27012G20KT P6SM SCT025=

00000000