0000026900
789
SAMX31 KWBC 110345 RRC
METAR
MMCZ 110342Z 00000KT 7SM SCT015 19/19 A3002 RMK 8/500 VC TCU=
MMMD 110344Z 11005KT 7SM SKC 22/20 A2997=
MMTP 110347Z 00000KT 8SM SCT200 26/22 A2993 RMK 8/001=
MMUN 110348Z 13007KT 7SM SCT015 25/23 A3002 RMK 8/500=

0000009800
790
SABZ19 SBMQ 110400
METAR SBMQ 110400Z 03003KT 9999 FEW013 SCT080 25/23
Q1011=

0000053900
791
SAGR32 LGAT 110350
METAR LGAL 110350Z VRB03KT 9999 FEW018 03/02 Q1022=
METAR LGEL 110350Z 00000KT CAVOK 07/05 Q1020=
METAR LGIO 110350Z AUTO VRB01KT //// // ////// 06/06 Q1022
     RE//=
METAR LGKV 110350Z 00000KT CAVOK 05/05 Q1021=
METAR LGMT 110350Z 00000KT 9999 FEW015 BKN020 12/09 Q1021=
METAR LGPZ 110350Z 07004KT 9999 SCT025 BKN080 11/09 Q1023 NOSIG=
METAR LGRX 110350Z NIL=
METAR LGSK 110350Z NIL=
METAR LGSR 110350Z AUTO 24009KT //// // ////// 15/11 Q1020
     RE//=
METAR LGZA 110350Z NIL=

0000035700
792
SAFI34 EFHK 110350
EFET 110350Z AUTO 23001KT CAVOK M30/M33 Q1014=
EFIV 110350Z AUTO 25004KT 8000 OVC004 M29/M32 Q1016=
EFKE 110350Z AUTO 02011KT CAVOK M15/M19 Q1009=
EFKI 110350Z AUTO 04010KT 360V070 9999 BKN018 M13/M16 Q1002=
EFKS 110350Z AUTO 02008KT 340V070 CAVOK M18/M21 Q1006=
EFKT 110350Z AUTO 36002KT CAVOK M23/M25 Q1013=

0000011400
793
SAPH41 RPLC 110400
METAR RPLC 110400Z
07007KT 9999 SCT042 BKN100 27/17 Q1018 A3005 RMK NOSIG=

0000011200
794
SANK31 MNMG 110400
METAR  
MNMG 110400Z 11008KT 9999 FEW023 SCT070 25/21 Q1012 A2990 NOSIG=

0000076400
795
SASN31 ESWI 110350
METAR ESGG 110350Z NIL=
METAR ESGJ 110350Z AUTO 24011KT 9999 FEW008/// SCT011/// BKN014///
04/03 Q1000=
METAR ESGP 110350Z 23010KT 9999 SCT008 OVC011 06/05 Q1001
R19/19//95=
METAR ESGT 110350Z NIL=
METAR ESMK 110350Z AUTO 26011G21KT 9999NDV FEW014/// BKN039///
06/04 Q1005=
METAR ESMQ 110350Z AUTO 20006KT 9999 FEW033/// 02/02 Q1003=
METAR ESMS 110350Z 25010KT 9999 BKN009 BKN011 OVC016 05/04 Q1007
R17/29//95=
METAR ESMT 110350Z AUTO 23017KT 9999 FEW009/// BKN033/// 05/04
Q1004=
METAR ESMX 110350Z AUTO 24009KT 9999 -RA FEW006/// BKN009/// 04/03
Q1002 REDZ=
METAR ESTA 110350Z AUTO 25016KT 9999 OVC008/// 06/04 Q1005=
METAR ESTL 110350Z AUTO 25011KT 9999NDV BKN012/// OVC017/// 06/05
Q1006=

0000009600
796
SAPM31 MPTO 110400
METAR 
MPTO 110400Z 00000KT C A V O K 24/20 Q1011 NOSIG=

0000037100
797
FTUS41 KWBC 110357 AAA
TAF AMD
KALB 110356Z 1104/1124 19006KT P6SM SCT009 OVC015
      TEMPO 1105/1108 3SM BR BKN009
     FM110800 16006KT 3SM -FZRAPL BR SCT009 OVC015
      TEMPO 1108/1110 1SM -FZRAPL BR OVC009
     FM111000 16006KT 4SM -SHRA BR OVC010
     FM111200 18010KT 4SM -SHRA BR OVC010
     FM111600 18012G23KT 3SM -SHRA OVC010=

0000061400
798
FTUS71 KWBC 110357 AAA
TAF AMD
KALB 110356Z 1104/1124 19006KT P6SM SCT009 OVC015
      TEMPO 1105/1108 3SM BR BKN009
     FM110800 16006KT 3SM -FZRAPL BR SCT009 OVC015
      TEMPO 1108/1110 1SM -FZRAPL BR OVC009
     FM111000 16006KT 4SM -SHRA BR OVC010
     FM111200 18010KT 4SM -SHRA BR OVC010
     FM111600 18012G23KT 3SM -SHRA OVC010=
KPOU 110356Z 1104/1124 00000KT 1 1/2SM BR OVC007
     FM110700 16005KT 4SM -RA BR BKN007 OVC015
      TEMPO 1107/1109 1SM -FZRA BR OVC010
     FM110900 16008KT 3SM -RA BR OVC007
     FM111600 18010KT 3SM -RA BR OVC010 WS020/19040KT=

0000019200
799
FTUS74 KWBC 110357 AAA
TAF AMD
KIDA 110354Z 1104/1124 20013KT P6SM SCT050 OVC200
     FM110800 21012KT 6SM -SN OVC008
     FM111500 21020G30KT P6SM VCSH SCT015 BKN050=

0000008700
800
SAUK33 EGGY 110350 RRA
METAR EGNS 110350Z 28006KT CAVOK 04/02 Q1011=

0000010100
801
SABZ22 SBBR 110400
METAR SBBR 110400Z 17002KT 9999 SCT035 FEW040TCU
22/16 Q1018=

0000034600
802
FTCN35 CWAO 110300 AAA
TAF AMD CYTR 110357Z 1103/1124 15005KT 6SM BR SCT015 OVC140 TEMPO
     1103/1108 5SM -SHRA BR BKN015
    FM110800 16012G22KT 4SM -RA BR SCT004 OVC010 TEMPO 1108/1122 1SM
     RA BR OVC004 PROB30 1115/1122 1/2SM -RA FG VV002
    FM112200 24015G25KT P6SM -SHRA BKN025
    RMK NXT FCST BY 110600Z=

0000009600
803
SAUS74 KWBC 110300 RRF
METAR
KIWA 110347Z 09003KT 20SM FEW250 08/M02 A3013=

0000008900
804
SAID32 WADL 110400
METAR WADL 110400Z 24004KT 9000 SCT016 30/25 Q1010=

0000008900
805
SABZ24 SBCT 110400
METAR SBCT 110400Z 09003KT 9999 FEW010 18/17 Q1018=

0000014800
806
FCDN31 EKCH 110200 RRA
TAF EKEB 110400Z 1104/1112 23014KT 9999 BKN012 TEMPO 1104/1106 
BKN008 TEMPO 1106/1112 4000 RADZ BKN006=

0000016400
807
FTMX31 KWBC 110357
TAF
MNMG 110400Z 1106/1206 00000KT CAVOK
      BECMG 1113/1115 09008KT 9999 FEW020
      TEMPO 1117/1122 11016KT SCT020=

0000029200
808
FTUS51 KWBC 110357 AAA
TAF AMD
KPOU 110356Z 1104/1124 00000KT 1 1/2SM BR OVC007
     FM110700 16005KT 4SM -RA BR BKN007 OVC015
      TEMPO 1107/1109 1SM -FZRA BR OVC010
     FM110900 16008KT 3SM -RA BR OVC007
     FM111600 18010KT 3SM -RA BR OVC010 WS020/19040KT=

00000000