0000047300
929
FTUS44 KWBC 110403 AAA
TAF AMD
KGEG 110401Z 1104/1124 19010KT 6SM -RA SCT008 OVC030
     FM110700 19015KT 6SM RA BKN010 OVC020 WS015/21040KT
     FM111100 20025G35KT P6SM -RA BKN010 OVC030
     FM112100 21032G42KT P6SM -RA BKN019 BKN040=
KSFF 110401Z 1104/1124 20008KT P6SM -RA SCT020 OVC060
     FM110700 20010KT 5SM RA OVC015 WS020/21040KT
     FM111100 20025G35KT P6SM -RA BKN010 OVC030
     FM112100 21030G42KT P6SM -RA BKN019 BKN040=

0000022000
930
FTUS71 KWBC 110403
TAF
TAF KLCK 110351Z 1104/1124 16009KT P6SM BKN035
     FM110500 17010KT 6SM BR VCSH OVC020
     FM110800 17012KT 4SM -RA BR OVC008
     FM111400 23014G23KT P6SM VCSH OVC012=

0000125600
931
FTUS73 KWBC 110403 AAA
TAF AMD
KCMI 110402Z 1104/1124 16014KT 2SM -RADZ BR OVC003
     FM110700 22012KT 1SM BR OVC003
     FM111400 26012G18KT P6SM OVC015
     FM111800 27014G22KT P6SM BKN025
     FM112200 27014KT P6SM SCT250=
KDEC 110401Z 1104/1124 22010KT 6SM -RADZ BR OVC003
     FM110700 24012KT 2SM BR OVC003
     FM111400 26012G18KT P6SM OVC015
     FM111800 27014G22KT P6SM BKN025
     FM112200 27014KT P6SM SCT250=
KDEN 110402Z 1104/1206 23007KT P6SM FEW100 SCT140 BKN200
     FM111500 28014G22KT P6SM FEW090 SCT120 BKN180
     FM111800 29018G30KT P6SM FEW090 SCT120 BKN180
     FM120000 29014KT P6SM SCT120 SCT180=
KLOZ 110400Z 1104/1124 19008KT P6SM VCSH OVC020 WS020/20040KT
     FM110700 19009KT 4SM -RA OVC015 WS020/19035KT
     FM111500 24009G17KT 6SM -RA BR OVC015
     FM111700 25015G22KT 6SM BR OVC035=
KPAH 110402Z 1104/1124 17010KT 6SM -RA BR FEW007 OVC070
      TEMPO 1104/1107 4SM RA BR SCT007 OVC018
     FM110700 23011KT P6SM BKN015
     FM111200 27012KT P6SM SCT040=
KPIA 110400Z 1104/1124 19013KT 1/4SM FG VV002
     FM110900 25011KT 2SM BR OVC003
     FM111400 26012G18KT 4SM BR OVC015
     FM111700 28013G22KT P6SM BKN025
     FM112100 27012KT P6SM SCT250=

0000047300
932
FTUS74 KWBC 110403 AAA
TAF AMD
KGEG 110401Z 1104/1124 19010KT 6SM -RA SCT008 OVC030
     FM110700 19015KT 6SM RA BKN010 OVC020 WS015/21040KT
     FM111100 20025G35KT P6SM -RA BKN010 OVC030
     FM112100 21032G42KT P6SM -RA BKN019 BKN040=
KSFF 110401Z 1104/1124 20008KT P6SM -RA SCT020 OVC060
     FM110700 20010KT 5SM RA OVC015 WS020/21040KT
     FM111100 20025G35KT P6SM -RA BKN010 OVC030
     FM112100 21030G42KT P6SM -RA BKN019 BKN040=

0000037000
933
FTUS75 KWBC 110403 AAA
TAF AMD
PADL 110401Z 1104/1124 02008KT P6SM VCSH BKN015
      TEMPO 1104/1106 3SM -SHSN
     FM110600 36011KT P6SM FEW015 BKN100
     FM111500 35015KT P6SM OVC060
     FM112300 35017KT 6SM -SN OVC030=
PAEN 110400Z 1104/1124 VRB03KT P6SM OVC006
     FM111800 04008KT P6SM BKN015
     FM112100 03008KT P6SM BKN035=

0000009700
934
SPCN46 CWAO 110402
SPECI CYBN 110402Z AUTO 16008KT 1 3/4SM OVC003 01/01 A2988=

0000017000
935
SACN62 CYVT 110400
METAR CYVT 110400Z 31010G16KT 12SM -SN DRSN FEW015 OVC035 M12/M15
 A2952 RMK SC2SC6 OCNL BLSN LAST STFD OBS/NEXT 111200UTC SLP030=

0000009500
936
SABR31 TBPB 110400
METAR TBPB 110400Z 06018KT 9999 SCT016 25/20 Q1015 NOSIG=

0000011900
937
SACN62 CYUL 110400
METAR CYUL 110400Z 03007KT 10SM FEW027 OVC035 M07/M09 A3016 RMK
 SC2SC6 SLP216=

0000030700
938
SAIL31 BICC 110400
METAR BIAR 110400Z VRB02KT 9999 -SN BKN035 OVC040 01/M03 Q0996=
METAR BIEG 110400Z 08018KT 2500 -SN VV007 01/M00 Q0996 RMK
R04///99//=
METAR BIKF 110400Z 30013KT 9999 FEW042 BKN100 03/M03 Q0995=
METAR BIRK 110400Z 30010KT 9999 FEW014 SCT025 BKN055 01/M03 Q0995=

0000008900
939
SATU33 LTAA 110350 RRA
METAR LTAR 110350Z 16003KT CAVOK M09/M11 Q1019=

0000047800
940
SAYG31 LYBM 110400
METAR LYBE 110400Z 15009KT CAVOK 04/01 Q1022 NOSIG=
METAR LYBT 110400Z 14003KT CAVOK 01/01 Q1023 NOSIG=
METAR LYKV 110400Z VRB01KT 9999 SCT040 04/02 Q1023 NOSIG=
METAR LYNI 110400Z 12003KT CAVOK 00/00 Q1023=
METAR LYPG 110400Z VRB01KT 9999 FEW040 BKN100 08/07 Q1022 NOSIG=
METAR LYPR 110400Z NIL=
METAR LYTV 110400Z VRB01KT 9999 SCT050 09/08 Q1022=
METAR LYUZ 110400Z 09003KT 9999 BKN020 03/03 Q1021=
METAR LYVR 110400Z NIL=

0000008900
941
SAJM31 MKJS 110400
METAR MKJS 110400Z 12007KT 9999 FEW024 26/19 Q1016=

0000027700
942
SACZ31 LKPW 110400
METAR LKKV 110401Z VRB02KT 5000 1000W R29/2000D BR BKN001 M01/M01
Q1016=
METAR LKMT 110400Z 22009KT CAVOK 02/M00 Q1018 NOSIG=
METAR LKPR 110400Z 21009KT CAVOK 01/M01 Q1017 NOSIG=
METAR LKTB 110400Z 25003KT CAVOK 01/M01 Q1019 NOSIG=

0000014500
943
SACN61 CYZE 110400
METAR CYZE 110400Z AUTO 14013KT 4SM FZRA BR OVC005 01/00 A2971 RMK
 ICG PRESFR PCPN 3.0MM PAST HR SLP070=

0000009500
944
SAEG31 HECA 110400
METAR HECA 110400Z 00000KT 2000 BR NSC 10/08 Q1024 NOSIG=

0000011900
945
SAID31 WIII 110400
METAR WIII 110400Z 03006KT 9999 FEW018CB SCT020 33/24 Q1010 RMK CB TO
S AND SW=

0000010200
946
SASG20 GOOY 110400
METAR GOOY 110400Z 36010KT 9999 FEW010 BKN130 19/15 Q1013 NOSIG=

0000012400
947
SACN61 CYPQ 110400
METAR CYPQ 110400Z AUTO 07005KT 4SM BR SCT017 OVC150 01/00 A2995 RMK
 PRESFR SLP153=

0000010600
948
SACN61 CYBC 110400
METAR CYBC 110400Z AUTO 27005KT 9SM OVC140 M08/M11 A3014 RMK SLP207=

00000000