0000006700
249
SAJP44 KWBC 110400 RRA
METAR
RJSA 110400Z NIL=

0000046200
250
SAJP31 KWBC 110400 RRA
METAR
RJAA 110400Z 32006KT 280V360 9999 FEW030 08/M08 Q1022 NOSIG RMK
     1CU030 A3019=
RJCC 110400Z 31005KT 270V330 9999 -SHSN FEW015 M06/M12 Q1016 RMK
     2CU015 A3003=
RJFK 110400Z 20005KT 160V260 9999 FEW030 SCT040 08/M02 Q1027 RMK
     1CU030 4CU040 A3034=
RJOO 110400Z 31009KT 9999 FEW030 08/M06 Q1026 RMK 1CU030 A3031=
RJTT 110400Z 08006KT 9999 FEW030 07/M05 Q1022 NOSIG RMK 1CU030
     A3019=

0000008900
251
SASA42 KWBC 110400 RRA
METAR
SCTC 110400Z VRB01KT CAVOK 10/08 Q1020=

0000010600
252
SAAE33 VTBB 110400 RRA
METAR VVCR 110400Z 02013KT 8000 FEW017 BKN060 27/19 Q1017 NOSIG=

0000012900
253
FCSN32 ESWI 110200 RRA
TAF ESSP 110430Z 1105/1108 11005KT 7000 -RASN OVC005 TEMPO 1105/1108
4000 -RA OVC003=

0000015000
254
FCSN34 ESWI 110200 RRA
TAF ESSL 110430Z 1105/1107 21008KT 9999 FEW015 OVC030 PROB40
1105/1107 4000 -RA BKN007 RMK ISSUED BY ESSA=

0000050300
255
SAID32 WIII 110400
METAR WIPT 110400Z VRB02KT 9999 FEW020 31/23 Q1011= 
METAR WIOO 110400Z 03003KT 9999 SCT012 31/24 Q1010 NOSIG= 
METAR WAOO 110400Z 36004KT 9999 SCT020 29/25 Q1010 NOSIG= 
METAR WALL 110400Z 30005KT 9000 FEW020 BKN090 30/24 Q1010 NOSIG= 
METAR WADL 110400Z 24004KT 9000 HZ SCT016 30/25 Q1010= 
METAR WIPP 110400Z 02005KT 8000 -RA BKN015 FEW020CB 25/25 Q1011= 
METAR WIBB 110400Z 36007KT 7000 BKN015 29/25 Q1010 NOSIG= 
METAR WAMM NIL=
METAR WIDN NIL=

0000127600
256
SAAU32 YBBN 110400
METAR YAMB 110400Z AUTO 06012KT 9999 // SCT060 BKN082 29/15 Q1015=
METAR YMAV 110400Z AUTO 19013KT 9999 // NCD 22/13 Q1019=
METAR YBRM 110400Z 26009KT 9999 FEW024 SCT400 32/25 Q1009=
METAR YCIN 110400Z AUTO 27008KT //// // NCD 37/23 Q1008=
METAR YSDU 110400Z AUTO 17005KT 9999 // SCT070 30/14 Q1016=
METAR YFRT 110400Z AUTO 13013KT //// // ////// 32/07 Q1019=
METAR YGEL 110400Z 06009KT CAVOK 45/M03 Q1007=
METAR YPGV 110400Z 09013KT 9999 SHRA FEW015 BKN018 28/25 Q1006
RMK SHRA TO SE=
METAR YBHM 110400Z AUTO 12020KT 9999 // ////// 29/22 Q1012=
METAR YMHB 110400Z 16015KT 9999 FEW050 SCT220 22/10 Q1012=
METAR YPKG 110400Z AUTO 08011KT 9999 // NCD 33/05 Q1019=
METAR YMLT 110400Z AUTO 34018KT 9999 // SCT050 BKN064 25/13 Q1012=
METAR YBMA 110400Z AUTO 11009KT 9999 // SCT090 38/14 Q1009=
METAR YSNF 110400Z 12011KT 9999 FEW030 BKN280 21/13 Q1017=
METAR YPEA 110400Z AUTO 08012G23KT 9999 // NCD 39/07 Q1013=
METAR YPPD 110400Z AUTO 31010KT 9999 // NCD 35/27 Q1008=
METAR YSRI 110400Z AUTO 05008KT 9999 // NCD 34/13 Q1013=
METAR YBRK 110400Z AUTO 08011KT 9999 // SCT085 29/20 Q1013=
METAR YWLM 110400Z AUTO 13011KT //// // NCD 31/14 Q1015=
METAR YPWR 110400Z AUTO 19005G15KT 9999 // NCD 38/06 Q1015=

0000034200
257
SANG31 YBBN 110400
METAR AYPY 110400Z 23005KT 9999 FEW020CB BKN280 32/24 Q1005
RMKS. CB TO E, DIST. CB TO N=
METAR AYWK 110400Z NIL=
METAR AYVN 110400Z NIL=
METAR AYNZ 110400Z NIL=
METAR AYMH 110400Z NIL=
METAR AYGN 110400Z NIL=
METAR AYMO 110400Z NIL=
METAR AGGH 110400Z 34008KT 9999 HZ FEW020 31/24 Q1004=

0000126000
258
SAAU31 YBBN 110400
METAR YPAD 110400Z 22015KT CAVOK 26/14 Q1018
NOSIG=
METAR YBAS 110400Z 11013KT 9999 PO NSC 38/06 Q1013
RMK 5CU115=
METAR YBBN 110400Z 11009KT 9999 FEW035 28/16 Q1016=
METAR YBCS 110400Z 16011KT 7000 -SHRA SCT020 BKN050 25/24 Q1010=
METAR YSCB 110400Z 32010KT 9999 BKN050 BKN240 31/09 Q1016=
METAR YPXM 110400Z AUTO 15006KT 9999 // BKN020 OVC029 27/22 Q1012=
METAR YPCC 110400Z AUTO 14012KT 9999 // SCT027 OVC037 28/22 Q1012=
METAR YCFS 110400Z AUTO 06013KT 9999 // NCD 26/18 Q1016=
METAR YPDN 110400Z 29009KT 9999 FEW038 BKN350 31/24 Q1007=
METAR YBCG 110400Z AUTO 09012KT 9999 // NCD 28/18 Q1016=
METAR YHID 110400Z AUTO 30008KT 9999 // ////// 30/24 Q1006=
METAR YPJT 110400Z AUTO 10013KT 9999 // NCD 38/09 Q1013=
METAR YPKU 110400Z AUTO 17006KT 9999 // NCD 36/22 Q1007=
METAR YPLM 110400Z AUTO 06008KT 9999 // NCD 34/22 Q1009=
METAR YMML 110400Z 14009KT 9999 FEW022 21/12 Q1019
NOSIG=
METAR YPPH 110400Z 10016KT CAVOK 39/08 Q1013=
METAR YSSY 110400Z 04015KT CAVOK 30/16 Q1014
NOSIG=
METAR YSTW 110400Z AUTO 22009KT 9999 // SCT115 31/10 Q1016=
METAR YPTN 110400Z AUTO 11009KT 9999 // NCD 33/22 Q1007=
METAR YBTL 110400Z 08019KT 9999 FEW025 BKN120 31/21 Q1010
RMK DIST SHRA=

0000009500
259
SAFI32 EFHK 110350 CCA
EFMA 110409Z 31001KT 9999 -SHSN OVC021 M01/M01 Q0999=

0000029800
260
FTPO32 LPMG 102300 AAA
TAF AMD LPPD 110410Z 1104/1124 24013KT 9999 SCT008 SCT030 TEMPO
             1104/1106 24018G30KT 3000 RADZ BR SCT004 BKN008 BECMG
             1106/1109 32020KT 9999 SCT018 SCT035 TEMPO 1106/1124
             32025G37KT 5000 SHRAGS BKN015 FEW018TCU=

0000100700
261
FTUS80 KWBC 110406 AAB
TAF AMD
KSPI 110403Z 1104/1124 19012G20KT P6SM -RADZ OVC004
     FM110600 22012KT 1SM BR OVC002
     FM111400 26012G18KT P6SM OVC015
     FM111700 27014G22KT P6SM BKN025
     FM112100 27014KT P6SM SCT250=
KTYS 110405Z 1104/1124 VRB04KT 5SM BR SCT007 OVC018
      TEMPO 1104/1106 2SM -RA BR BKN004 OVC007
     FM110600 20006KT 4SM BR OVC012 WS020/18040KT
     FM110900 20010KT 3SM BR VCSH SCT008 OVC012 WS020/18040KT
     FM111200 22012G22KT 3SM RA BR SCT004 OVC008 WS020/20050KT
     FM112000 22015G26KT P6SM VCSH SCT016 OVC024=
PADU 110404Z 1104/1124 19008KT P6SM -SHRA SCT015 BKN035 OVC050
      TEMPO 1104/1106 BKN020
     FM110600 21013G21KT P6SM BKN035
     FM111300 21018G27KT P6SM -SHRA BKN035
     FM112100 22021G33KT P6SM -SHRA SCT035 BKN045=
PASN 110405Z 1104/1124 11013KT P6SM VCSH BKN015
      TEMPO 1104/1106 SCT015
     FM110700 09017G26KT 4SM -RASN BR BKN009 OVC015
     FM111300 13010KT 5SM -SHRASN BR OVC006=

0000183500
262
FABX31 EBBR 110300
EBBU GAMET VALID 110600/111200 EBBR-
EBBU BRUSSELS FIR BLW FL100
SECN I
SFC VIS (?=5KM):        4000 M RA DZ IN OCCLUSION ZONE FROM W EBBU,
                        1000-4000 M DZ BR IN EXTREME S EBBU
SIG CLD:                BKN 500/1500 FT AGL IN OCCLUSION ZONE FROM W
                        EBBU, BKN 200/1500 FT AGL OVER EXTREME S EBBU
ICE:                    MOD ABV FL055 IN OCCLUSION ZONE FROM W EBBU
TURB:                   MOD SFC/FL030 IN OCCLUSION ZONE FROM W EBBU
SECN II
PSYS:                   06. H 1025 HPA CENTERED OVER SE EUROPE.
                        MINOR L 1016 HPA OVER W FRANCE WITH QUASI
                        FRONTOLYSED WARM FRONT LYING OVER N-NE
                        FRANCE, MOVING ENE 15 KT. L 997 HPA OVER S 
                        NORWAY WITH ASSOCIATED OCCLUSION LYING ACROSS
                        THE NORTH SEA, EXTREME SE ENGLAND TO THE 
                        CHANNEL, MOVING ESE 15 KT: ADVECTION OF
                        MARITIME HUMID AIR FROM W, VERY HUMID IN THE
                        LOW LEVELS.
SFC WSPD (?=30KT):      06-12 KT, 12-16 KT IN COASTAL REGION 
WIND/T:                 1000 FT 06/09 250/25 KT IN W, 230/15 KT IN E:
                                09/12 280/30 KT IN W, 250/20 KT IN E:
                                PS03
                        2000 FT 06/09 260/30 KT IN W, 250/20 KT IN E:
                                09/12 290/30 KT IN W, 260/30 KT IN E:
                                PS04
                        5000 FT 270/25 KT MS00
                        10000 FT 270/35 KT MS09
SFC VIS (?5KM):         6-10 KM
CLD:                    BKN LYR SC AC 1500/ABV10000 FT AGL
FZLVL:                  4500 FT AGL, 3000 FT AGL OVER HIGHER GROUNDS
//END PART 01//

0000045700
263
SABZ43 KWBC 110400
METAR
SBAN NIL=
SBAT NIL=
SBBA NIL=
SBBQ NIL=
SBBW NIL=
SBCC NIL=
SBER NIL=
SBES NIL=
SBGA NIL=
SBIZ NIL=
SBJF NIL=
SBJP NIL=
SBKG NIL=
SBLB NIL=
SBLP NIL=
SBMK NIL=
SBMS NIL=
SBMZ NIL=
SBPB NIL=
SBPJ NIL=
SBPL 110400Z 13004KT 9999 FEW020 24/21 Q1013=
SBPN NIL=
SBQV NIL=
SBRP 110400Z 00000KT CAVOK 21/19 Q1014=
SBTF NIL=
SBTK NIL=
SBUF NIL=
SBUI NIL=
SBUL NIL=

0000083500
264
SACA32 KWBC 110400
METAR
MDLR NIL=
MDPC 110400Z 10014KT 9999 FEW018 25/21 Q1019 78=
MDPP NIL=
MDSD 110400Z 02004KT 9999 FEW018 22/20 Q1019=
MDST 110400Z 13004KT 8000 -RA BKN015 21/21 Q1020=
MTCH NIL=
MTPP NIL=
TAPA NIL=
TIST 110353Z 08009KT 10SM FEW055 25/21 A3009 RMK AO2 SLP190
     T02500206 402890239=
TISX 110353Z AUTO 05006KT 10SM FEW034 24/18 A3009 RMK AO2 SLP188
     T02390183 402940233 TSNO=
TJBQ 110350Z 10012KT 10SM SCT030 24/ A3012 RMK RWY08 ATIS P=
TJMZ NIL=
TJNR 110353Z AUTO 08006KT 10SM FEW024 26/19 A3012 RMK AO2 SLP200
     T02560194 402890250 TSNO=
TJPS 110350Z 07006KT 10SM SKC 23/18 A3010=
TJSJ 110356Z 19003KT 10SM FEW040 SCT060 25/18 A3011 RMK AO2 SLP194
     T02500183 402940239 $=
TKPK NIL=
TKPN NIL=
TQPF NIL=
TRPM NIL=
TUPJ NIL=
TUPW NIL=

0000004200
265
SAHA31 KWBC 110400
NIL=

0000073400
266
SAJP31 KWBC 110400
METAR
RJAA 110400Z 32006KT 280V360 9999 FEW030 08/M08 Q1022 NOSIG=
RJAH 110400Z 23004KT 110V280 9999 FEW030 08/M08 Q1021=
RJCC 110400Z 31005KT 270V330 9999 -SHSN FEW015 M06/M12 Q1016=
RJCH 110400Z 30012KT 5000 -SHSN FEW004 SCT010 BKN015 M05/M07
     Q1018=
RJFK 110400Z 20005KT 160V260 9999 FEW030 SCT040 08/M02 Q1027=
RJFT 110400Z 23005KT 170V250 9999 FEW035 BKN050 07/M05 Q1028=
RJFU 110400Z 14009KT 9999 FEW040 BKN050 07/01 Q1029=
RJNN NIL=
RJOO 110400Z 31009KT 9999 FEW030 08/M06 Q1026=
RJSS 110400Z 29015KT 9999 FEW020 04/M08 Q1022=
RJTT 110400Z 08006KT 9999 FEW030 07/M05 Q1022 NOSIG=
RODN 110358Z AUTO 07010KT 10SM CLR 19/09 A3030 RMK AO2 SLP268
     T01930090=

0000070200
267
SAJP43 KWBC 110400
METAR
RJKI NIL=
RJKN NIL=
RJNF NIL=
RJNG NIL=
RJNH NIL=
RJNO NIL=
RJNT 110400Z 17003KT 130V210 9999 -SHSN FEW005 BKN030 03/M01
     Q1025=
RJNY NIL=
RJOA 110400Z 27010KT 9999 FEW030 SCT040 05/M07 Q1027=
RJOB 110400Z 28010KT 9999 FEW025 SCT040 06/M03 Q1026=
RJOC 110400Z 28010KT 9999 -SHRA FEW013 SCT025 BKN035 04/00
     Q1028=
RJOE NIL=
RJOF NIL=
RJOI 110355Z VRB06KT 9999 FEW025 SCT040 08/M04 A3035 RMK SLP278
     T00781039=
RJOK 110400Z 19006KT 160V230 9999 FEW040 09/M04 Q1026=
RJOM 110400Z 33008KT 9999 FEW025 BKN045 07/M02 Q1028=
RJOP NIL=
RJOR 110400Z 26004KT 210V310 9999 FEW008 SCT020 BKN035 04/M01
     Q1027=

0000027300
268
SAJP45 KWBC 110400
METAR
RJTJ NIL=
RJTK NIL=
RJTL NIL=
RJTO 110400Z 33005KT 290V020 9999 FEW030 SCT040 08/00 Q1021=
RJTQ NIL=
RJTR NIL=
RJTU NIL=
RJTX NIL=
RJTY 110358Z AUTO VRB05KT 10SM CLR 08/M09 A3022 RMK AO2 SLP244
     T00771088=

00000000