0000009200
729
SPUS41 KWBC 110449
SPECI
KALB 110445Z 00000KT 10SM OVC009 01/M02 A3020=

0000009700
730
SPUS42 KWBC 110449
SPECI
KTYS 110445Z 13003KT 1 1/2SM BR OVC002 08/07 A2995=

0000011300
731
SPUS43 KWBC 110449
SPECI
KFNT 110445Z AUTO 16013KT 8SM -RA BKN009 BKN014 OVC049 04/02 A2965=

0000009800
732
SPUS43 KWBC 110449
SPECI
KFAR 110445Z AUTO 26010KT 10SM BKN020 M06/M08 A2947=

0000024300
733
SAUK20 EGGY 110450
METAR EGRE 110450Z NIL=
METAR EGRK 110450Z NIL=
METAR EGRM 110450Z NIL=
METAR EGRO 110450Z NIL=
METAR EGRP 110450Z NIL=
METAR EGRS 110450Z NIL=
METAR EGRV 110450Z NIL=
METAR EGRW 110450Z NIL=

0000019100
734
SAUK21 EGGY 110450
METAR EGRF 110450Z NIL=
METAR EGRG 110450Z NIL=
METAR EGRI 110450Z NIL=
METAR EGRL 110450Z NIL=
METAR EGRN 110450Z NIL=
METAR EGRT 110450Z NIL=

0000011800
735
SALV31 EVRA 110450
METAR EVRA 110450Z 28007KT 230V330 9999 OVC014 02/M00 Q1000 
R36/290158 NOSIG=

0000014200
736
SAFA31 EKCH 110450
METAR EKVG 110450Z AUTO 27014KT 9999NDV -SHRA  BKN012/// 04/02
Q0995 RMK BKN010/// WIND 850FT 29021KT=

0000011100
737
SACV20 GVAC 110500
METAR GVAC 110500Z 05005KT 9999 FEW013 SCT015 BKN200 19/14 Q1015
NOSIG=

0000009800
738
SALT32 EYVI 110450
METAR EYKA 110450Z 28009KT 250V310 9999 OVC017 01/M02 Q1004=

0000004600
739
SAMX31 KWBC 110445 RRA
NIL=

0000029600
740
FTKY31 RUMS 110400
TAF UCFM 110350Z 1106/1206 29007MPS 6000 SCT050 TEMPO 1106/1109 1500
BR FU BECMG 1111/1112 12007MPS 3000 BR TEMPO 1112/1118 1500 BR FU=
TAF UCFO 110400Z 1106/1206 27005MPS 1500 BR SCT005 BKN020 TEMPO
1106/1112 0200 FZFG VV001 BECMG 1112/1114 17005MPS =

0000067100
741
FTEG31 HECA 110500
TAF HEAX 110500Z 1106/1212 31010KT 9999 SCT025 TEMPO 1106/1108
VRB03KT 3000BR NSC=
TAF HECA 110500Z 1106/1212 30010KT 9999 SCT025 TEMPO 1106/1108
VRB03KT 3000BR NSC=
TAF HELX 110500Z 1106/1212 VRB03KT CAVOK TEMPO 1106/1109 5000 HZ NSC
=
TAF HESN 110500Z 1106/1212 36008KT CAVOK =
TAF HEBL 110500Z 1106/1212 36008KT CAVOK =
TAF HEAT 110500Z 1106/1212 36010KT CAVOK TEMPO 1106/1109 VRB03KT 5000
BR NSC =
TAF HESG 110500Z 1106/1212 35010KT CAVOK TEMPO 1106/1109 VRB03KT 5000
BR NSC =
TAF HETB 110500Z 1106/1212 25008KT 7000 SCT020 TEMPO 1106/1108
VRB03KT 2000 BR=
TAF HEMA 110500Z 1106/1212 33008G20KT CAVOK=

0000022000
742
FTEU31 BKPR 110500
TAF BKPR 110500Z 1106/1206 VRB03KT 0100 FZFG BKN002 TEMPO 1108/1110
 0250 FG BKN003 BECMG 1110/1112 3000 BR SCT008 TEMPO 1112/1116 7000
 NSW NSC BECMG 1200/1204 0300 FZFG BKN002=

0000008900
743
SPCN42 CWAO 110449
SPECI CYUA 110449Z AUTO 29019KT 3SM CLR M25/ A2974=

0000012600
744
SAEO31 EETN 110450
METAR EETN 110450Z 33006KT 5000 SN BKN009 OVC014 M01/M02 Q0997 
R08/590295 TEMPO 2000=

0000008900
745
SAIN33 VOMM 111540
METAR VOMM 111540Z 08005KT 6000 NSC 23/19 Q1015 NOSIG=
0000009500
746
SAIN90 VOTR 111540
METAR VOTV 111540Z 00000KT 4000 HZ FEW015 27/23 Q1013 NOSIG=
0000060200
747
KSAG30 KWBC 111544
CREX++
T000119 A001 D01021 D06025++
1343872 14465394 APRP7 2014 01 11 14 54 //// 05 07 00 06
///// //// 00253 0227 00261 0145 00261 0134 00295 0156 00306 0155+
1342830 14479700 PGBP7 2014 01 11 14 54 //// 00 07 00 06
00217 0129 00231 0135 00250 0147 00259 0148 00263 0144 00270 0143+
0873161 16773622 KWJP8 2014 01 11 14 54 3019 05 07 00 06
00807 0087 00796 0084 00800 0096 00786 0090 00803 0116 00804 0127+
1929000 16661800 WAKP8 2014 01 11 14 54 2985 00 07 00 06
00286 -0071 00276 -0075 00273 -0072 00264 -0075 00273 -0059 00256 -0070++
7777

0000021400
748
KSAJ30 KWBC 111544
CREX++
T000119 A001 D01021 D06025++
-1428000 -17069000 NSTP6 2014 01 11 14 54 3018 00 07 00 06
00849 0161 00874 0184 00849 0159 00852 0162 00870 0181 00846 0159++
7777

00000000