0000032800
269
FTCN31 CWAO 110300 AAA
TAF AMD CYXS 110346Z 1103/1113 18010KT P6SM OVC090
    FM110400 17010KT P6SM -SN OVC060 TEMPO 1104/1106 11/2SM -SN VV012
    FM110600 15006KT 1SM -SN VV010 TEMPO 1106/1113 3SM -SN OVC025
     PROB30 1106/1113 1/4SM +SN BKN002
    RMK FCST BASED ON AUTO OBS. NXT FCST BY 110700Z=

0000009500
270
SAAB31 LATI 110350
METAR LATI 110350Z 14003KT 6000 BKN053 10/08 Q1022 NOSIG=

0000022800
271
KSAB30 KWBC 111544 RRA
CREX++
T000119 A001 D01021 D06021++
4677570 -09209200 DULM5 2014 01 11 15 00 00 07 -010 09972 233 0024+
4774783 -09034133 GDMM5 2014 01 11 15 00 00 07 -017 09961 /// ////++
7777

0000034200
272
KSAB30 KWBC 111544
CREX++
T000119 A001 D01021 D06025++
4677570 -09209200 DULM5 2014 01 11 14 54 //// 00 07 00 06
00092 //// 00077 //// 00072 //// 00083 //// 00092 //// 00095 ////+
4774783 -09034133 GDMM5 2014 01 11 14 54 //// 00 07 00 06
00094 //// 00085 //// 00085 //// 00083 //// 00088 //// 00089 ////++
7777

0000016800
273
FTPK31 OPKC 110345
TAF OPST 110345Z 1106/1124 31006KT 4000 FU NSC TX17/1110Z TEMPO
1118/1121 VRB03KT 1500 BR NSC
BECMG 1121/1124 00000KT 0500 FG=

0000008500
274
SPCN51 CWAO 110348
SPECI CWOB 110348Z AUTO 05006KT CLR M21/ A2926=

0000013300
275
SAEO32 EETN 110350
METAR EETU 110350Z AUTO 29010KT 3400NDV -SN BKN006/// BKN009///
OVC027/// M00/M02 Q0994 RESG=

0000011500
276
SAES20 MSLP 110300
METAR MSLP 110250Z VRB02KT CAVOK 23/18 Q1012 A2989=
METAR MSSS 110250Z NIL=

0000009900
277
SPUS41 KWBC 110347
SPECI
KALB 110343Z 18005KT 10SM BKN011 OVC230 00/M02 A3024=

0000011300
278
SPUS41 KWBC 110347
SPECI
KWRI 110344Z AUTO 05002KT 1 1/4SM R06/2600FT BR OVC003 03/03 A3021=

0000126000
279
SPUS70 KWBC 110348
SPECI
KBRO 110343Z 18004KT 1SM BR VV005 17/17 A2992 RMK AO2=
KCHO 110344Z 00000KT 1 1/2SM -RA BR BKN003 OVC013 02/02 A3017 RMK
     AO2 P0001 T00170017=
KHVN 110344Z AUTO 00000KT 1SM R02/5500VP6000FT BR VV005 02/01
     A3028 RMK AO2=
KLFT 110344Z AUTO 18011G24KT 1 3/4SM +TSRA BR BKN006 OVC018 19/18
     A2987 RMK AO2 LTG DSNT SW TSB44 P0022=
KMIE 110344Z AUTO 18012G19KT 6SM -RA BR BKN005 OVC011 07/06 A2969
     RMK AO2 P0001 T00670056 TSNO=
KMKC 110344Z 28007KT 10SM OVC011 03/01 A2962 RMK AO2 T00330006=
KRHI 110344Z AUTO 00000KT 1SM -SN BR VV012 M04/M04 A2946 RMK AO2
     P0004 T10391044=
PAOH 110344Z AUTO 00000KT 1 1/4SM BR SCT004 BKN047 M01/M01 A2936
     RMK AO2 TSNO $=
KBIV 110345Z AUTO 16011KT 6SM RA BR BKN009 OVC013 05/04 A2956 RMK
     AO2 CIG 007V011 P0007 T00500044=
KFDY 110345Z AUTO 16012KT 3SM -RA BR BKN004 OVC026 04/04 A2975 RMK
     AO2 P0004=
KMIW 110345Z AUTO 29008KT 8SM OVC004 00/M01 A2951 RMK AO2
     T00001006 TSNO=
KMRH 110345Z AUTO 13014G22KT 8SM FEW008 BKN015 OVC035 18/18 A3014
     RMK AO2 RAE08B23E39 P0000 T01830178 TSNO=
KTYR 110345Z 21008KT 8SM FEW010 16/15 A2978 RMK AO2=
KVLD 110345Z 00000KT 1 3/4SM BR OVC002 20/18 A3008 RMK AO2=

0000032400
280
SASW31 LSSW 110350
METAR LSZH 110350Z 36003KT 0400 R14/0700N R16/0700N R28/0750N
    R34/0750N FG VV001 02/02 Q1018 NOSIG=
METAR LSGG 110350Z 00000KT CAVOK 02/01 Q1018 NOSIG=
METAR LSZB 110350Z AUTO 00000KT 5000 FEW130 SCT150 M01/M01 Q1017=
METAR LSZA 110350Z AUTO VRB01KT 9999 OVC044 07/06 Q1021=

0000023500
281
SASW39 LSSW 110350
METAR LSMA 110350Z NIL=
METAR LSMD 110350Z NIL=
METAR LSME 110350Z NIL=
METAR LSMM 110350Z NIL=
METAR LSMP 110350Z NIL=
METAR LSMS 110350Z AUTO VRB02KT 7000NDV BKN180 04/02 Q1018 RMK GRN=

0000010200
282
SAIS32 LLBG 110350
METAR LLBG 110350Z VRB02KT 9999 FEW032 SCT050 12/10 Q1022 NOSIG=

0000019300
283
SAIS31 LLBG 110350
METAR LLET 110350Z NIL=
METAR LLHA 110350Z NIL=
METAR LLIB 110350Z NIL=
METAR LLOV 110350Z NIL=
METAR LLSD 110350Z 11004KT 9999 SCT032 12/11 Q1021=

0000018200
284
SALV32 EVRA 110350
METAR EVLA 110350Z AUTO 28006KT 9999 -RASN SCT006 BKN011 OVC025 01/00
Q1003=
METAR EVVA 110350Z AUTO 29010KT 8000 BKN013 OVC020 01/00 Q1002=

0000107000
285
FASQ41 LZIB 110400
LZBB GAMET VALID 110500/111100 LZIB-
LZBB BRATISLAVA FIR BLW FL100
SECN I
SFC VIS:     ISOL 1500-5000M BR BCFG MIFG
             05/07 E LOC 0100-0800M FG -DZ
MT OBSC:     ABV 3000-5000FT, ISOL BTN 0100-2300FT
SIG CLD:     ISOL BKN-OVC ST 0100-1300FT/1700-2300FT AGL
ICE:         ISOL MOD FL040/FL070
TURB:        05/09 NE ISOL MOD FL030/FL060
SECN II
PSYS:        03 RIDGE OF HIGHER PRESSURE FM SW STNR NC.
WIND/T:
             2000FT          5000FT          10000FT
LZIB         210/10 KT PS03  270/20 KT PS00  310/45 KT MS05
LZZI         240/20 KT MS02  250/20 KT MS03  290/35 KT MS07
LZLU         270/15 KT PS01  270/25 KT MS02  290/30 KT MS07
LZTT         NIL             280/20 KT MS03  280/20 KT MS07
LZKZ         240/15 KT MS01  270/20 KT MS03  280/30 KT MS08
CLD:         FEW-SCT, N+NE+E ISOL BKN SC CU 3000-5000FT/6000-8000FT
             AGL
             FEW-SCT, E ISOL BKN AC CI CS 8000-10000FT/XXXXXFT AGL
FZLVL:       SW PART 3700FT - NE PART 3100FT
MNM QNH:     1016 HPA=

0000015000
286
SADN33 EKCH 110350
METAR EKKA 110350Z 23011KT 9999 FEW011 BKN019 07/05 Q1004=
METAR EKSP 110350Z 24014KT 9999 BKN007 07/06 Q1007=

0000010700
287
SABW31 VGHS 110350
METAR VGHS 110350Z 07003KT 1500 BR NSC 17/13 Q1016 BECMG S/VIS 2000M=

0000011200
288
SAEO32 EETN 110350 CCA
METAR COR EETU 110354Z 29010KT 3800 -SN BKN006 OVC027 M00/M02
Q0994=

00000000