0000020900
889
SABU31 LBSM 110400
METAR LBSF 110400Z 00000MPS 2700 BR NSC M04/M04 Q1023 NOSIG=
METAR LBWN 110400Z 30003MPS CAVOK 04/M00 Q1021 NOSIG=
METAR LBBG 110400Z VRB02MPS CAVOK 03/01 Q1021 NOSIG=

0000014600
890
SABU32 LBSM 110400
METAR LBPD 110400Z VRB02MPS CAVOK 07/02 Q1021 NOSIG=
METAR LBGO 110400Z VRB01MPS CAVOK 01/M01 Q1022 NOSIG=

0000071700
891
FTVN20 SVMI 110400
TAF SVMI 110400Z 1106/1206 00000KT 9999 FEW016 TX29/17 TN23/11Z
FM110900 VRB04KT SCT016 FM111430 05006KT 9999 FEW016=
TAF SVMC 110400Z 1106/1206 00000KT 9999 FEW020 TX34/17Z TN22/12Z
FM110900 00000KT 9999 FEW020 SCT100=
TAF SVBC 110400Z 1106/1206 00000KT 9999 FEW010 SCT090 TX34/18Z
TN20/11Z FM110730 00000KT SCT013 SCT070=
TAF SVMG 110400Z 1106/1206 09012KT 9999 BKN010 TX31/19Z TN24/11Z
FM110700 07010KT 07009KT SCT016 SCT070=
TAF SVSA 110400Z 1106/1206 00000KT 9999 SCT020 SCT070 TX32/17Z
TN18/12Z FM110900 00000KT 9000 DZ BKN020=
TAF SVJC 110400Z 1106/1206 07008KT 9999 FEW025 TX31/20Z TN23/12Z
FM110630 00000KT 9999 FEW040 FM111400 05006KT 9999 SCT016=

0000009600
892
SAHU31 LHBM 110400
METAR LHBP 110400Z VRB03KT 9999 BKN044 00/M01 Q1021 NOSIG=

0000011400
893
SACI44 ZSJN 110400
METAR ZSJN 110400Z VRB02MPS 2500 HZ NSC 05/M05 Q1031 BECMG TL0530
3000 HZ=

0000009400
894
SANC01 NWWW 110400
METAR NWWW 110400Z AUTO 13023KT 9999 FEW064 29/15 Q1009=

0000009400
895
SAMF20 TFFR 110400
METAR TFFR 110400Z AUTO 09004KT 9999 FEW032 24/20 Q1017=

0000010000
896
SAAG41 SACO 110400
METAR SACO 110400Z  16010KT 9999  SCT015 BKN100
24/19 Q1016=

0000008400
897
SAAG41 SADF 110400
METAR SADF 110400Z  20013KT CAVOK 23/14 Q1011=

0000008400
898
SAAG41 SAVC 110400
METAR SAVC 110400Z  32003KT CAVOK 15/03 Q1015=

0000010300
899
SACN61 CYFC 110400
METAR CYFC 110400Z AUTO 19004KT 9SM CLR M12/M13 A3029 RMK SLP258=

0000021300
900
SADR31 MDSD 110400
METAR
METAR MDST 110400Z 13004KT 8000 -RA BKN015 21/21 Q1020=
METAR MDPC 110400Z 10014KT 9999 FEW018 25/21 Q1019 78 =
METAR MDSD 110400Z 02004KT 9999 FEW018 22/20 Q1019=

0000014900
901
SACN61 CYAY 110400
METAR CYAY 110400Z AUTO 27010KT 240V320 9SM SCT095 M10/M13 A2990 RMK
 MAX WND 26022KT AT 0314Z PRESRR SLP127=

0000010600
902
SACN62 CYGP 110400
METAR CYGP 110400Z 32006KT 15SM FEW035 M08/M14 A3011 RMK SC1 SLP200=

0000015300
903
SACN62 CYGK 110400
METAR CYGK 110400Z 16006KT 15SM FEW030 SCT050 BKN250 01/M01 A3005 RMK
 SC2SC2CI1 LAST OBS/NEXT 111100 UTC SLP181=

0000011800
904
SACN62 CYGL 110400
METAR CYGL 110400Z 19006KT 4SM -FZDZ -SN OVC002 M06/M06 A2972 RMK ST8
 SLP081=

0000012600
905
SACN62 CYBL 110400
METAR CYBL 110400Z 15010G16KT 3SM -RA BR SCT007 OVC011 03/03 A2954
 RMK SF4SC4 SLP006=

0000067300
906
SAUK20 EGGY 110350 RRA
METAR EGRE 110350Z AUTO 07023KT 9999 -SN BKN015/// 03/M01 Q0997 RERA
     W///S5=
METAR EGRK 110350Z AUTO 27032KT 9999 SCT021/// SCT049/// 07/01 Q0998
     W///S5=
METAR EGRM 110350Z AUTO 27026KT 9999 FEW028/// 06/02 Q1001 W///S5=
METAR EGRO 110350Z AUTO 29025KT //// // ///////// 06/01 Q1003 W///S4=
METAR EGRP 110350Z AUTO 29014KT 260V320 9999 FEW029/// ///// Q1004
     W///S4=
METAR EGRS 110350Z AUTO 30023KT 9999 FEW032/// 06/00 Q1004 W///S4=
METAR EGRV 110350Z AUTO 26014KT 250V310 2400 RA OVC004/// 07/07 Q1008
     W///S4=
METAR EGRW 110350Z AUTO 23023KT 9999 OVC016/// 07/06 Q1008 RERA
     W///S4=

0000047400
907
SAUK21 EGGY 110350 RRA
METAR EGRF 110350Z AUTO 29025KT 9999 FEW024/// 06/01 Q0997 W///S5=
METAR EGRG 110350Z AUTO 10019KT 9999 BKN010/// 04/02 Q0995 RERA
     W///S5=
METAR EGRI 110350Z AUTO 27025KT 9999 SCT028/// 07/00 Q0999 RERA=
METAR EGRL 110350Z AUTO 27021G34KT 200V360 9999 NCD 06/01 Q0999
     W///S5=
METAR EGRN 110350Z AUTO 32023KT 9999 NCD 07/01 Q1005=
METAR EGRT 110350Z AUTO /////KT 8000 BKN005/// 07/05 Q1008 RERA
     W///S3=

0000081100
908
SACH10 SCSC 110400
METAR SCFA 110400Z 18005KT 9999 FEW014 20/16 Q1012 NOSIG=
METAR SCAR 110400Z 14002KT 9999 BKN045 23/17 Q1013=
METAR SCBA 110400Z AUTO 29018KT 260V320 CAVOK 09/03 Q1019=
METAR SCCF 110400Z 24006KT CAVOK 14/07 Q1025=
METAR SCIE 110400Z 23007KT CAVOK 14/09 Q1015=
METAR SCAT 110400Z AUTO VRB02KT 9999 // ///009 17/14 Q1013=
METAR SCDA 110400Z 19007KT CAVOK 22/17 Q1013=
METAR SCSE 110400Z 28003KT CAVOK 15/14 Q1011=
METAR SCJO 110400Z NIL=
METAR SCTE 110400Z 16006KT CAVOK 09/07 Q1023 NOSIG=
METAR SCNT 110400Z NIL=
METAR SCCI 110400Z 31010KT 9999 SCT030 OVC090 08/04 Q1009 NOSIG=
METAR SCEL 110400Z 14003KT CAVOK 20/06 Q1013 NOSIG=
METAR SCIP 110400Z 10004KT 9999 FEW020 BKN060 22/18 Q1021 NOSIG=
METAR SCPQ 110400Z AUTO 21005KT CAVOK 08/06 Q1023=

00000000