0000116100
535
GHCC85 KWBC 111200
GRID 07003 10101
111 10200 28599 61401 71112 81012 09999
333 11512 23020
0119 000000 153153154156156155154154154154154154154153153152151150149
0219 000010 151151153156156156156156155155155155154154153152151151150
0319 000020 156152150158158156155154154154153153153153152151149148148
0419 000030 169162157161159156154152150150148149150149147145143142141
0519 000040 159160159159158156152147144142142143143142139136134134135
0619 000050 154157157155154152148143138134133134135133128123124125127
0719 000060 155156157153152148145141135132128128129127123118116117117
0819 000070 152153152150149146144140136133129130130126125121119115110
0919 000080 145145145144144143143141139136133132131131129129127123119
1019 000090 136137138138138138138138138137137137137137137136133131128
1119 000100 132132133133134136137137138139140141142141140138136133130
1219 000110 131131132133135136137139139140140140140139138137135133130
1319 000120 133133133134134134135135136136136136135134133132130128126
1419 000130 128128128128127127127127127126126125125124124123122121121
9901 000140 125
555 07003 10101
777
0000117300
536
GHCC10 KWBC 111200
GRID 07003 10101
111 10200 21099 61401 71112 81012 09999
333 11512 23020 30000 01000
0119 000000 654654653653654655656657658659660661662662662663663662662
0219 000010 643640642643646648650651653655656656657657657658658658658
0319 000020 625625627628630634637640641643644644645645645645646647648
0419 000030 611611612613614616619621623623622625624624624623624627631
0519 000040 597598599599600601601601600600602600602600600601603607610
0619 000050 581584585587587587586585584584584584585585585586588591594
0719 000060 566569572575576576575575573573572573575577578579580583585
0819 000070 551555558562564566566567566566566568571575578579580581582
0919 000080 537540543547552555557559560561564566569572574575575576576
1019 000090 525528531535539543547550553556558561563565566567567566564
1119 000100 520522524526530533536539542545547550551552552552550548545
1219 000110 521522523524525527529531532534535536536536535534532530527
1319 000120 526525525525524525525525525525525525524524523522521519517
1419 000130 530529529528527527526525525524523523522521520519518517516
9901 000140 523
555 07003 10101
777
0000117300
537
GHDC99 KWBC 111200
GRID 07004 10101
111 10200 20099 61401 71112 81012 09999
333 11512 23020 30100 00100
0119 000000 115116118118121121119117114117116117116114113113113114113
0219 000010 115117117120121121121119121120118117117117116117116115114
0319 000020 115115117119121122121121121119117117115118117117116126120
0419 000030 118117116118120119119119118118119116117119118132135140140
0519 000040 118116117118119119119120121120116113114116119122129130131
0619 000050 117119118118117117116117117116114113115118120120121128126
0719 000060 119121120116111111112111109106106109114117119121122127128
0819 000070 117114109104099101102102099095096101108113117119122124126
0919 000080 108102103104100100099098094089091098107111114115116117119
1019 000090 108107108113111108106103101102105107112116117117116116116
1119 000100 114114114114115115114114114115116117117117117116114114116
1219 000110 115115115114113112112113114115115115113113114114114113114
1319 000120 106107107107108108107107107107107107108108108109110111113
1419 000130 102102102102102102102102102102102102102102102102103103104
9901 000140 100
555 07004 10101
777
0000117300
538
GHAC30 KWBC 111200
GRID 07001 10101
111 10200 23099 61401 71112 81012 09999
333 11512 23020 30000 00700
0119 000000 264266267267266264263261259257256257259260260261260259260
0219 000010 257260262263262261260257250244246248250253254255253250250
0319 000020 241246252256257257255248232221225230236240244246244240231
0419 000030 207207232244249251249240225211209210212219228234236229216
0519 000040 194185203225235240240233221207201198194190202223229226218
0619 000050 187173178204218225225220212201190183177171184209221223220
0719 000060 178166168181198205206201194183173166161160175199212215213
0819 000070 163157161166172177177173165156152153157161179195203204198
0919 000080 147149154156156154146141138137142153162172181187189186176
1019 000090 132137140142140136132131133136142150158165169170169168165
1119 000100 116123127129129130131134137141146151155162167172175177177
1219 000110 112116120124128132136142147151157163169174179183187189190
1319 000120 121125128133136141146150154160165170174178182185188190192
1419 000130 142144146148150152154157159162164166169171173175176178179
9901 000140 160
555 07001 10101
777
0000117300
539
GHCC30 KWBC 111200
GRID 07003 10101
111 10200 23099 61401 71112 81012 09999
333 11512 23020 30000 00700
0119 000000 265265265266267268269270271272273273273273272272271270269
0219 000010 248243245250253258260262264265266266267267266266266265263
0319 000020 225224225227230234238242246247248248247248247248249250251
0419 000030 215212212213211209209211212214214214212211211212214217223
0519 000040 206202198194190186182179178178175178176175173172172175185
0619 000050 199196189184178171162153148146146147148149149148149153160
0719 000060 192188182177170160149141137134132133136141143143142144147
0819 000070 187182175173167154145140138136135137141145147147146145143
0919 000080 174171167163161154147145146145145145147149151151149148146
1019 000090 150150151154154151148149148147147150153156158159158155152
1119 000100 135136139144149150152154155156158161163165165163160154149
1219 000110 144145146148149150152155157160161162162161159155152148145
1319 000120 155153152151150150150150150151151151151150149148147146144
1419 000130 164163162161160159158157156155155154153152151150148147145
9901 000140 160
555 07003 10101
777
0000117300
540
GHAC10 KWBC 111200
GRID 07001 10101
111 10200 21099 61401 71112 81012 09999
333 11512 23020 30000 01000
0119 000000 654655656656656655653650648646645645646647648649650651653
0219 000010 649651652654653651647643639636637639640643644645645644644
0319 000020 638639643646646643639633628625625627631634637638638636635
0419 000030 621624628632635633628623618614613615617621626629630629627
0519 000040 607607610615618618616612606602600601604608614619622623622
0619 000050 591591593596600601601597592588585586589595603609614616617
0719 000060 573573573575577579579577573569568569573581590598604608610
0819 000070 550548548549550552552550548547548552558567577586592596598
0919 000080 524523522523524524524523524526530536544553562570578582585
1019 000090 503504505506506506506507509513519526533541548556562568572
1119 000100 490492493495496498500502506510515521528534541548554559563
1219 000110 486487490492494497501504509513518523529534540545549553556
1319 000120 493494496499500503507511514518522525529533537540544546548
1419 000130 507507508510512514515517519521523525527529530532534535536
9901 000140 523
555 07001 10101
777
0000116100
541
GHCC50 KWBC 111200
GRID 07003 10101
111 10200 25099 61401 71112 81012 09999
333 11512 23020
0119 000000 583582582583584585586587588588588588589588588587587586584
0219 000010 572573573575576578579580581582583583582583582582582581581
0319 000020 569566565567567567567567569569569569569568569569570571573
0419 000030 565563562561559557555554553553554552552551550549550553560
0519 000040 560558556552548545539534531530530532532529526523524530534
0619 000050 555553547544541535525516509504504507509510511507508511516
0719 000060 550547543540534526516511506500498497504509508505503504506
0819 000070 546544539536531522515511508506503506510511511510507504503
0919 000080 536535532529526521516514515513511509508511514514512509506
1019 000090 516517520522522519516516515514515516518520522523521518515
1119 000100 501503507511517518519520521523525527529530529526522517512
1219 000110 511511513515516517519521523525526527527525524521517513510
1319 000120 515515515515515516516516516516516516516515514512511509508
1419 000130 521521520520519519518518517517517516516515514513512511510
9901 000140 522
555 07003 10101
777
0000268400
542
UKAG02 SABM 111200 RRL
TTBB 61128 87576
00016 19663 11012 17262 22987 15059 33957 13062 44952
13466 55916 15273 66890 15074 77768 06869 88753 07073
99720 05485 11701 05076 22583 04767 33484 13973 44460
16978 55366 30169 66314 37771 77276 42173 88267 41377
99249 43566 11238 46150 22228 47758 33216 49946 44161
62365 55100 67369
21212 00016 16012 11991 15515 22976 14020 33923 17038
44913 17536 55793 21025 66751 26019 77725 29023 88689
28522 99670 25523 11590 22024 22572 23520 33565 24023
44451 24549 55401 24039 66386 25033 77322 25536 88274
28094 99249 30101 11188 31133 22155 28090 33116 25562
44100 24564
31313 48008 81137
41414 00906=
TTBB 61128 87623
00998 14656 11962 11645 22950 14467 33939 14668 44904
12867 55887 13661 66865 14672 77742 04265 88679 01269
99612 04562 11563 07160 22552 06564 33423 21761 44395
24178 55296 42366 66243 51765 77160 63168 88146 56575
99101 68173
21212 00998 05005 11986 07510 22939 09523 33910 08517
44887 01508 55870 27006 66838 19511 77789 18022 88624
22533 99601 21537 11493 23029 22442 22042 33365 20037
44270 21033 55220 20051 66199 21059 77184 22047 88172
24040 99166 25545 11156 24558 22149 23551 33123 26038
44117 27542 55101 26549
31313 47908 81102
41414 00900=
TTBB 61118 87715
00988 16266 11945 13465 22919 16475 33867 15276 44804
09667 55777 08463 66738 06871 77680 01669 88671 01682
99650 00059 11573 03366 22532 07378 33489 12164 44347
30572 55275 44565 66256 47968 77204 59959 88164 66960
99137 61181 11100 66979
21212 00988 11006 11970 10010 22930 03011 33925 02510
44806 19510 55771 24019 66753 25018 77736 23018 88680
23024 99652 21524 11636 18523 22467 20040 33411 17537
44359 18546 55253 17038 66198 18531 77185 20538 88173
20043 99163 19034 11159 20028 22155 23536 33149 23552
44130 20537 55125 22032 66118 24035 77110 23539 88102
24031 99100 24533
31313 48008 81059
41414 00900=
TTBB 61128 87860
00012 14458 11011 14464 22934 09660 33753 05060 44640
01556 55618 03919 66610 03349 77543 10324 88534 09550
99460 16161 11400 25134 22384 27158 33349 32956 44327
35965 55303 40558 66293 41568 77251 50158 88225 56157
99222 56556 11212 58359 22190 63550 33188 64350 44177
63959 55162 66957 66158 63567 77144 63371 88118 61177
99100 64175 21212 00012 18001 11962 26510 22934 23512
33917 24512 44903 22013 55849 24024 66828 23028 77757
21018 88746 20020 99720 21528 11635 19535 22587 21044
33554 19047 44470 21551 55309 20550 66292 21065 77239
21568 88182 21566 99169 20051 11161 21044 22158 23050
33146 22059 44141 21053 55125 21034 66120 22540 77103
21532 88100 21534 31313 48008 81130 41414 10930=
0000018600
543
ULJP01 RJTD 111200 RRB
TTCC 61131 47827
70851 667// 23029 50057 573// 27510 30381 531// 09512 20644 501//
07541 10100 443// 09054
88999
77999
31313 72208 81237=
0000216900
544
SZNZ01 NZKL 111533
CREX++
T000103 A001 D01021 D06025++
-3683144 17478654 AUCT  2014 01 11 15 25 //// 11 07 00 01
05938 3178 05941 3178 05944 3178 05947 3178 05950 3178 05952 3178+
-4402404 -17636748 CHIT  2014 01 11 15 25 //// 11 07 00 01
05214 2108 05208 2105 05193 2093 05186 2089 05179 2085 05166 2076+
-4089929 17623168 CPIT  2014 01 11 15 25 //// 11 07 00 01
04356 2274 04361 2282 04362 2287 04352 2280 04349 2280 04344 2278+
-3618905 17548887 GBIT  2014 01 11 15 25 //// 11 07 00 01
06369 0000 06367 -0003 06363 -0009 06366 -0006 06366 -0008 06375 0000+
-3867541 17802288 GIST  2014 01 11 15 25 //// 11 07 00 01
04511 2724 04510 2724 04516 2732 04515 2733 04516 2736 04515 2736+
-4241288 17370277 KAIT  2014 01 11 15 25 //// 11 07 00 01
03759 2233 03748 2226 03741 2223 03739 2226 03730 2220 03720 2215+
-3755040 17815904 LOTT  2014 01 11 15 25 //// 11 07 00 01
04001 0183 04002 0184 04016 0198 04005 0187 04009 0191 04001 0184+
-3704657 17451175 MNKT  2014 01 11 15 25 //// 11 07 00 01
02421 -0099 02431 -0096 02433 -0101 02421 -0120 02439 -0109 02463 -0092+
-3947566 17692007 NAPT  2014 01 11 15 25 //// 11 07 00 01
03504 2005 03483 1986 03486 1992 03479 1988 03472 1984 03475 1989+
-3441483 17304870 NCPT  2014 01 11 15 25 //// 11 07 00 01
-03673 -8509 -03732 -8571 -03827 -8670 -03897 -8743 -03875 -8725 -03859 -8712+
-4581435 17062939 OTAT  2014 01 11 15 25 //// 11 07 00 01
04737 3440 04734 3443 04729 3445 04724 3446 04715 3444 04707 3442+
-2928002 -17789440 RBCT  2014 01 11 15 25 //// 11 07 00 01
06310 1963 06315 1968 06330 1982 06314 1966 06314 1966 06313 1964+
-2925114 -17790384 RFRT  2014 01 11 15 25 //// 11 07 00 01
03246 0116 03277 0146 03291 0160 03277 0145 03281 0148 03269 0135+
-4357010 17277383 SUMT  2014 01 11 15 25 //// 11 07 00 01
02400 1794 02366 1766 02358 1764 02365 1777 02350 1767 02353 1776+
-3764109 17618118 TAUT  2014 01 11 15 25 //// 11 07 00 01
05580 3953 05583 3954 05587 3957 05588 3957 05583 3951 05587 3953+
-4128448 17477985 WLGT  2014 01 11 15 25 //// 11 07 00 01
03434 2001 03426 1996 03426 2000 03428 2005 03428 2009 03429 2013++
7777
0000271800
545
SIRA27 RUHB 111500
AAXX 11151
24790 42999 70000 11317 21318 39359 40260 58002 82036=
24894 NIL=
24898 41699 80303 11240 21280 39439 40208 51002 72272 82539=
24982 42999 33603 11228 21268 39639 40175 52005 80001=
24988 42999 22903 11238 21294 39883 40155 52002 80001=
25034 42999 02402 11361 21367 30235 40269 58003 333 91104=
25378 41998 03510 11122 21231 30098 40137 58019 73630 333 91015
91117=
25503 42999 52802 11316 21339 30119 40261 54000 85030=
25627 42699 70206 11200 21226 30348 40186 54000 875//=
25648 NIL=
25705 41998 82102 11290 21301 39883 40248 52003 77172 83037=
25700 41598 81301 11321 21337 39823 40266 53007 77172 86537=
25707 41997 83202 11242 21260 39771 40247 52002 77172 8802/=
25715 41998 70103 11279 21303 39540 40224 52007 77172 83036=
25808 41997 80000 11300 21317 39283 40245 52004 77172 84037=
25820 42/// /0207 11114 21174 30086 40102 54000 333 91014 91114=
25904 41670 60202 11250 21297 39505 40209 52007 77172 83530=
25916 42699 60407 11140 21211 30002 40088 58002 86500 333 91112=
25919 42999 00110 11158 21263 30080 40097 52001 333 91013 91117=
25922 41699 70109 11134 21195 30061 40105 52004 73732 82530 333 91013
91115=
25927 41999 23607 11170 21220 30094 40101 58003 73631 80001=
25932 NIL=
25941 41598 60510 11144 21171 30064 40083 53009 73631 86500 333 91014
91114=
31083 42999 00000 11261 21279 39985 40154 52004=
31096 42699 20610 11154 21214 30027 40096 53002 82500 333 91013
91118=
31152 42998 83401 11348 21391 39893 43054 52006 80006=
31174 41594 83310 11200 21219 30136 40148 58001 77373 8802/ 333 91017
91118=
31489 42998 80000 11343 21379 30060 40193 52002 80007=
31866 42999 02403 11239 21285 30185 40189 57003=
31959 82998 02902 11138 21217 30168 40214 57008=
31989 42999 00204 11112 21206 30159 40216 58021=
32027 42599 62303 11215 21240 30108 40117 53004 82930 333 91004
91105=
32076 42998 02903 11232 21264 30103 40114 51001 333 91006 91106=
32099 42598 63607 11168 21210 30120 40128 52005 86500 333 91009
91111=
32121 41597 83108 11154 21196 30108 40132 58001 78583 86902 333 91012
91114=
32213 42498 83404 11038 21046 39914 49982 52004 8561/=
32222 42998 01401 11173 21223 30023 40048 52009=
32287 41999 80303 11087 21116 30001 40011 52006 70232 8808/=
32333 41597 83506 11071 21092 30006 40018 58003 78583 889// 333 91011
91111=
32408 41597 73609 11087 21117 39966 49996 57002 73632 85530 333 91011
91112=
32411 NIL=
32509 42598 73105 11056 21148 39951 49986 51001 84530=
32519 42598 23103 11061 21110 39963 49983 51005 82500=
32562 42598 60505 10094 21119 39950 49989 52008 86300=
32594 42998 80401 11056 21075 39945 49981 52002 80002=
0000009500
546
SAIN90 VIJP 111530
METAR VIJP 111530Z VRB03KT 2000 FU FEW100 13/03 Q1022 NOSIG=
0000008600
547
SAIN90 VIAR 111530
METAR VIAR 111530Z 00000KT 3000 BR NSC 12/10 Q1021=
0000011000
548
UANT99 KDDL 111530
ARP AFR054 5202N01603W 1531 F390 MS59 230/48 KT
FHPJF DDL BLY 111531 J16A
0000010900
549
UANT99 KDDL 111531
ARP FDX2 5551N04206W 1531 F350 MS56 272/49 KT
N858FD QXT AME 111531 F40A
0000010900
550
UANT99 KDDL 111531
ARP FDX8 5740N03415W 1531 F330 MS59 197/58 KT
N880FD QXT AME 111531 F50A
0000067200
551
SXXX32 EUMS 111522 RRX
32CC9580
OT12 ID:ID-ENGG-07 DT:2014 01 11 15 21
:PRS /1 01266 01291 01288 01276 01269 01259 01279 01252 01281 01290 01283 01283 01269 01268 01293 01290 01259 01255 01250 01304 01294 01247 01276 01270 01283 01286 01248 01284 01293 01232
:PR2 /1 04733 04750 04736 04743 04720 04719 04728 04735 04732 04727 04751 04743 04732 04725 04714 04720 04731 04715 04707 04736 04723 04713 04748 04747 04721 04712 04753 04728 04730 04698
:RAD /1 05589 05612 05607 05602 05601 05581 05600 05593 05604 05626 05608 05599 05599 05610 05600 05608 05586 05603 05584 05595 05601 05585 05596 05608 05597 05597 05599 05601 05594 05566
:BAT 12.3V/
0000070400
552
SXXX32 EUMS 111522 RRX
26BED7DE

ST TRISTAN
DT 11/01/14 11/01/14
TM 15:15:00 14:45:00
RD 00000 00000 00000 00000 00000 00000 00000 00000 00000 00000 00000 00000 00000 00000 00000 00000 00000 00000 00000 00000 00000 00000 00000 00000 00000 00000 00000 00000 00000 00000
P1 00000 00000 00000 00000 00000 00000 00000 00000 00000 00000 00000 00000 00000 00000 00000 00000 00000 00000 00000 00000 00000 00000 00000 00000 00000 00000 00000 00000 00000 00000
P2 00000 00000 00000 00000 00000 00000 00000 00000 00000 00000 00000 00000 00000 00000 00000 00000 00000 00000 00000 00000 00000 00000 00000 00000 00000 00000 00000 00000 00000 00000
T1 00.0 00.0
T2 00.0 00.0
VB 14.2
0000029100
553
SXXX32 EUMS 111524 RRX
166AC436
OT12 ID:IC-COMI-10 DT:2014 01 11 15 23
:RAD /1 05346 05333 05333 05322 05331 05353 05330 05330 05300 05317 05336 05282 05285 05311 05286 05309 05281 05301 05265 05288 05300 05269 05220 05231 05147 05164 05176 05138 05193 05151
:BAT 13.0V
0000027400
554
SXHW11 KWAL 111532
15D142A4 011153202":PRS 1 #1 1576 1586 1592 1573 1581 1571 1576 1582 1596 1583 :RAD 1 #1 7170 7175 7171 7166 7167 7164 7170 7173 7181 7178 :ENC 2 #5 5073 5076 5087 5093 :SW1 32 #60 0 :SW2 2 #60 0 :BAT 4 #5 12.9 :NAME 15D142A4  31+0NN 216W
00000000