0000015700
380
SSVX13 LFPW 111600
ZZYY 16592 11014 1600/ 346169 066582 6113/ 11119 40135 57009 22219
 00060 444 20130 11014 1559/ 50101 80118 80018 9/015=
0000011800
381
SNVF25 LFPW 111600
BBXX
BATFR09 11164 99386 70101 46/// /1906 10139 20089 40180 53002
22242 04162=
0000011800
382
SNVF25 LFPW 111600
BBXX
BATFR62 11164 99498 70005 46/// /0205 10090 20022 40225 51008
22273 04125=
0000016000
383
SSVX13 LFVW 111600
ZZYY 17572 11014 1600/ 537946 171825 6110/
11119 40152 52001
22219 00208
444 20100 11014 1556/ 50101 80110 80000 9/015=
0000011800
384
SNVF25 LFPW 111600
BBXX
BATFR61 11164 99472 70060 46/// /1610 10122 20097 40198 53001
22282 04125=
0000011800
385
SNVF25 LFPW 111600
BBXX
BATFR27 11164 99487 70021 46/// /0909 10095 20052 40215 53004
22212 04107=
0000011800
386
SNVF25 LFPW 111600
BBXX
BATFR52 11164 99494 70002 46/// /3506 10085 20034 40237 53012
22284 04094=
0000011100
387
UANT01 CWAO 111559
ARP AWE741 4841N03413W 1559 F380 MS50 283/22 KT
N289AY DDL XXN 111559 J51A
0000011000
388
UANT01 CWAO 111559
ARP BAW185 4836N04825W 1559 F380 MS61 302/73 KT
GVIIB QXS YYT 111559 F25A
0000011000
389
UANT01 CWAO 111559
ARP BAW177 5406N02750W 1559 F390 MS57 197/51 KT
GVIIY QXT AOE 111559 F16A
0000011100
390
UANT01 CWAO 111559
ARP UAL127 5242N03411W 1559 F350 MS55 255/13 KT
N17139 DDL IG1 111559 F79A
0000011000
391
UANT01 CWAO 111559
ARP ACA875 5405N02306W 1559 F360 MS61 198/59 KT
CGHKR DDL XXN 111559 J17A
0000011000
392
UANT01 CWAO 111559
ARP FDX10 5502N03800W 1559 F370 MS57 262/27 KT
N886FD QXT AME 111559 F25A
0000251500
393
SNDL21 EDZW 111600
AAXX 11161
10004 NIL=
10015 42582 42911 10069 20031 30090 40100 53024 82830
  333 55300 20035 30035 82828 83362 91115 91211=
10020 45585 63010 10061 20026 30043 40075 53017
  333 55300 20017 30017 82/28 85/63 86/65 91114=
10035 41580 72705 10045 20030 30016 40075 53020 76166 875//
  333 55300 20007 30007 41157 87623=
10055 41456 83215 10053 20028 30043 40053 55005 76166 888//
  333 55300 20000 30000 85813 88626 91121 91216=
10147 41475 73107 10050 20036 30071 40090 53009 76066 878//
  333 55300 20004 30003 41215 82811 85614 87656 91114=
10162 47434 82408 10051 20040 39988 40061 56017 75265
  333 55300 20000 30000 88/11 91113=
10184 41460 82305 10054 20037 30050 40058 56024 76166 8572/
  333 55300 20000 30000 85716 88530=
10200 45981 12907 10055 20028 30127 40125 53029
  333 55300 20036 30035 81/65=
10224 41463 72909 10055 20035 30112 40118 53023 76162 875//
  333 55300 20014 30014 83612 87623 91114=
10270 46660 72104 10059 20018 30039 40094 56021
  222// 06043
  333 55300 87/34 87/40=
10338 41350 82707 10056 20047 30044 40117 53002 76366 8652/
  333 55300 20000 30000 86609 88512=
10361 41684 82203 10065 20027 30004 40108 56019 72122 885//
  333 55300 20004 30004 83646 88656=
10393 42980 62206 10054 20019 39980 40107 58018 86050
  333 55302 20020 30014 86361=
10400 42465 52907 10067 20037 30131 40181 53029 85800
  333 55300 20032 30032 82816 84630=
10469 42583 52306 10056 20025 39961 40127 56019 81171
  333 55301 81824 83357=
10488 42783 42205 10058 20002 39854 40137 58011 81588
  333 55300 20019 30019 40947 81656 83362=
10506 41175 73006 10045 20034 39601 40190 53017 76166 8472/
  333 55300 20003 30003 84703 87515 91113=
10548 41030 81704 10013 20011 39611 40163 58009 71011 886//
  333 55300 20022 30021 88701=
10637 41256 52305 10034 20027 30040 40180 55001 71022 84531
  333 55300 81705 83650=
10685 42765 82305 10019 20001 39477 40162 55002 885//
  333 55300 20009 30009 88656=
10738 42468 70000 10036 20032 39725 40203 52010 868/2
  333 55300 82815 85623 86078=
10763 41560 72102 10044 20033 39797 40185 53005 76162 875//
  333 55300 20017 30016 87625=
10788 47325 81102 10022 20021 39756 40198 53002 76165
  333 55300 20001 30001 86/09 87/13 88/41=
10852 47650 72402 10056 20053 39622 40195 52009 76265
  333 55300 20003 30003 81/38 87/50 87/60=
10946 47676 82503 10073 20040 39373 40204 53011 76165
  333 55300 20005 30005 81/39 87/56 88/57=
0000247300
394
SNDL22 EDZW 111600
AAXX 11161
10007 NIL=
10044 46/// /2910 10052 20021 30034 40066 53012
222// 00056
  333 55300 91115 91214=
10046 47585 62805 10046 20031 30038 40073 53012 76165
  333 55300 81/21 86/56 86/57=
10091 41450 82411 10047 20044 39992 40043 56023 76366 877//
  222// 06053
  333 55300 20002 30002 87711 91114 91211=
10113 42568 43013 10067 20033 30099 40118 53028 82232
  333 55301 20050 30047 82824 91117 91214=
10124 46/// ///// 10068 20047 30059 40097 51035
222// 0////
  333 553//=
10131 41480 42908 10063 20032 30082 40097 53025 72122 81230
  333 55300 20006 30006 81816 84363=
10170 41456 82305 10055 20039 30038 40054 56019 76166 885//
  333 55300 20005 30005 88614=
10264 47567 72205 10053 20031 39966 40073 58018 75765
  333 55300 20000 30000 87/20 87/25=
10291 42986 82205 10061 20012 30019 40087 58018 8707/
  333 55300 20002 30002 87460=
10315 41582 63004 10043 20026 30090 40155 53028 76022 86500
  333 55300 20021 30021 84628 84657 91113=
10379 42780 72106 10055 20022 39981 40103 57020 8555/
  333 55300 20017 30016 41116 85650 87360=
10381 42882 82205 10058 20014 30005 40103 57017 8455/
  333 55300 84658 87362=
10382 41682 72105 10062 20014 30057 40102 56016 76122 8357/
  333 55300 20002 30002 83646 85360 87363=
10384 NIL=
10427 41/03 92712 10010 20009 39132 48432 53002 76976
  333 55300 20000 30000 91118 91212 96041=
10430 47359 72508 10056 20045 39944 40137 53006 72365
  333 55300 20000 30000 87/09 87/13 87/19=
10439 NIL=
10453 41/90 92419 11014 21014 38761 48393 56011 77374
  333 55300 91127 91220 96049 96036=
10496 45985 22204 10057 20010 30037 40123 56017
  333 55300 20010 30010 82/61=
10499 42965 32007 10040 20006 39845 40138 58017 82071
  333 55300 20013 30013 82460=
10505 41475 62607 10055 20040 39907 40192 53030 72122 86200
  333 55300 20021 30021 86819=
10513 41468 82906 10069 20046 30053 40175 53023 72562 878//
  333 55300 20015 30015 82815 87622 96280=
10532 45559 81602 10048 20040 39912 40163 55003
  333 55302 20063 30045 85/30 87/34 88/46=
10544 41/01 92408 10006 20006 39066 48440 55004 74744
  333 55300 91113=
10554 42980 52309 10045 20015 39744 40135 58016 85050
  333 55302 20045 30034 85359 91113 98884=
10567 42881 62006 10047 20013 39763 40142 57011 86030
  333 55300 20003 30003 86358=
10578 41/00 92614 11016 21016 38736 48432 56009 74944
  333 55300 20009 30009 91121 91216=
0000213500
395
SNDL23 EDZW 111600
AAXX 11161
10609 42465 72406 10063 20050 39860 40193 53008 878//
  333 55304 20130 30072 81815 87646=
10616 42380 72706 10050 20041 39577 40182 53005 878//
  333 55302 84809 87640=
10641 47356 72502 10038 20030 30031 40181 53001 71000
  333 55302 87/08=
10655 42665 32403 10040 20028 39843 40176 56001 83501
  333 55300 20044 30042 82645=
10675 47656 81603 10028 20019 39885 40182 55002 72365
  333 55300 20004 30004 81/34 88/70 88/78=
10688 47250 81702 10022 20015 39650 40183 55004 75165
  333 55300 20000 30000 86/06 88/27=
10708 41257 72405 10051 20045 39813 40204 53012 71022 876//
  333 55300 20071 30068 87704=
10729 47950 11504 10042 20035 30064 40188 50000 71000
  333 55300 20050 30048 81/73=
10731 41256 82104 10055 20048 30048 40193 50008 71022 876//
  333 55300 20016 30016 87706=
10742 47338 82702 10041 20037 39858 40195 52004 72250
  333 55300 20000 30000 88/07=
10776 47228 81602 10021 20017 39742 40196 53003 75765
  333 55300 20002 30002 87/04 88/38=
10791 41/00 92513 11004 21004 38512 48457 58001 77174
  333 55300 91117 91214 96049=
10805 42563 71904 10084 20067 30013 40205 51011 84548
  333 55300 20005 30005 81628 83656 86280=
10815 47257 82505 10051 20046 39254 48490 53008 72365
  333 55300 20001 30001 88/05=
10836 41312 82608 10049 20042 39319 40193 52010 72122 876//
  333 55300 20001 30001 87707=
10870 41665 82601 10046 20039 39654 40194 51004 76166 8652/
  333 55300 82635 86650 88459=
10895 41550 82003 10021 20017 39614 40195 50006 76166 8802/
  333 55300 20012 30007 88526 96010=
10908 47001 82311 10009 20009 38509 48504 51016 74076
  333 55300 20014 30014 87/00 87/37 88/46 91115 91212=
10929 41258 81301 10041 20039 39683 40223 51012 76022 875//
  333 55300 20012 30011 81705 87633=
10948 47576 70301 10061 20057 39266 48509 52020 72360
  333 55300 20040 30040 82/30 87/57 87/58=
10961 41/01 93307 11069 21074 37081 47050 54000 77174
  333 55300 20030 41042 91117 96949=
10962 41382 82407 10055 20030 39045 48491 50006 76166 875//
  333 55300 20014 30014 81707 84625 87650=
0000126800
396
SNDL44 EDZW 111600
AAXX 11161
10022 45980 82907 10056 20029 30066 40076 53021
  333 55300 20005 30005 82/62 88/66=
10028 42575 63009 10059 20035 30077 40091 51034 82831
  333 55300 20029 30029 81821=
10033 NIL=
10037 NIL=
10038 NIL=
10042 47688 82805 10049 20029 30064 40068 53013 72365
  333 55300 82/33 88/58 88/64=
10067 NIL=
10093 47357 82306 10048 20036 30002 40052 56022 75766
  333 55300 81/08 85/13 88/19=
10097 47557 82311 10053 20036 30039 40053 56025 76265
  222// 06045
  333 55300 87/21 87/27 88/43 91115 91212=
10126 NIL=
10129 47560 82810 10061 20036 30098 40111 53027 72365
  333 55300 20003 30003 83/27 84/42 88/61 91113=
10130 47580 83103 10048 20030 30088 40094 53026 72360
  333 55300 85/20 87/61 88/64=
10136 NIL=
10139 47583 82904 10054 20038 30092 40106 53019 72360
  333 55300 20013 30013 83/25 86/57 88/59=
10142 46688 83103 10045 20026 30057 40088 53018
  333 55300 85/34 88/61 88/63=
10146 47483 73105 10049 20037 30075 40092 53012 76165
  333 55300 86/15 87/43 87/50=
10150 47377 53006 10047 20031 30042 40076 53007 76165
  333 55300 20000 30000 81/09 83/18 85/56=
10152 47257 83108 10052 20042 30066 40068 55000 75765
  333 55300 87/03 88/08 91115=
10156 NIL=
0000163500
397
SNDL45 EDZW 111600
AAXX 11161
10161 47157 72408 10052 20042 30043 40063 55010 75765
  333 55300 20000 30000 87/01 87/07 91114=
10168 47256 82306 10052 20042 39991 40063 58019 75765
  333 55300 85/04 87/14 88/18=
10172 NIL=
10180 47456 82206 10050 20042 30046 40051 56021 76266
  333 55300 84/10 87/16 88/20=
10193 45588 82106 10067 20024 30064 40067 58025
  333 55300 20000 30000 85/29 88/50 88/62=
10210 47463 72605 10054 20040 30119 40128 53025 76265
  333 55300 20002 30002 85/19 87/30 87/59=
10235 47362 72607 10050 20040 30013 40108 53004 76165
  333 55300 20000 30000 84/09 87/19 87/25=
10238 NIL=
10246 NIL=
10249 47358 82507 10052 20041 30023 40079 56010 75165
  333 55300 20000 30000 88/09=
10253 47480 72407 10060 20038 30067 40089 56012 72365
  333 55300 87/18 87/26=
10261 41582 82306 10065 20025 30059 40087 58018 72162 875//
  333 55300 20015 30015 87626=
10267 47588 82207 10060 20025 30038 40087 57019 72365
  333 55300 88/29=
10268 46/// /2207 10051 20027 39981 40068 58020
  333 55300=
10281 465// 72207 10062 20024 39956 40069 58023
  333 55300 20001 30001 87/26=
10282 47581 82207 10056 20019 39935 40077 58020 76160
  333 55300 20007 30007 87/29 88/56 88/58=
10289 45/88 /2107 10059 20020 30009 40079 58021
  333 55300=
10304 NIL=
10305 41478 62703 10047 20032 30118 40150 53032 72322 86800
  333 55300 81814 85620 85645=
10306 NIL=
10309 47583 12602 10038 20026 30105 40163 53032 72365
  333 55302 20080 30068 81/21=
10312 47456 73005 10039 20025 30011 40140 53019 76265
  333 55300 20001 30001 82/12 87/35 87/50 91113=
0000197900
398
SNDL46 EDZW 111600
AAXX 11161
10321 41465 82807 10049 20034 30079 40132 53021 76166 875//
  333 55300 20000 30000 83615 83630 87650=
10325 47327 82803 10052 20044 39968 40136 53012 76265
  333 55300 87/08 88/13=
10334 NIL=
10335 NIL=
10343 NIL=
10348 47450 82807 10058 20037 30005 40112 55007 75865
  333 55300 20003 30003 41208 81/17 87/29 88/33=
10356 47585 72508 10061 20023 39910 40108 57013 72365
  333 55300 84/30 87/56 87/58=
10359 47581 72407 10065 20031 30044 40103 57014 76165
  333 55300 20011 30011 86/30 87/56 87/59=
10365 47675 82103 10066 20022 30061 40108 56020 76160
  333 55300 20000 30000 85/38 88/47 88/59=
10368 42778 72205 10049 20022 39878 40107 57019 8555/
  333 55300 20008 30008 85650 87358=
10376 45981 82306 10057 20020 30045 40113 56017
  333 55302 88/60=
10385 42982 62206 10053 20018 30046 40108 56019 86050
  333 55300 20008 30008 86360=
10396 45983 32105 10051 20016 30087 40103 57019
  333 55300 83/62=
10404 NIL=
10410 47368 73005 10059 20034 39993 40177 53028 72365
  333 55300 81/07 87/20 87/34=
10418 47461 82706 10043 20032 39696 40168 53017 72365
  333 55300 20003 30003 87/11 87/16 88/28 91113=
10424 47125 72708 10064 20045 30051 40157 53018 76265
  333 55300 20000 30000 82/03 86/29 87/36=
10433 47244 72604 10047 20037 39809 40125 53001 75866
  333 55300 20000 30000 87/03=
10435 47157 72608 10053 20036 39854 40142 53003 76265
  333 55300 84/02 87/34 87/56 91115=
10441 47542 82203 10050 20031 39760 40145 55004 76265
  333 55300 87/21 88/26=
10442 47260 72505 10057 20037 39946 40124 55005 76265
  333 55300 20002 30002 82/05 87/17 87/23=
10444 41560 82305 10061 20033 39927 40132 55010 76166 875//
  333 55300 20026 30026 84626 87656 96260=
10449 45684 82306 10057 20023 39702 40128 57016
  333 55300 20014 30014 84/40 86/50 88/59=
10452 47471 82204 10023 20013 39394 40123 56013 76165
  333 55300 20009 30009 86/10 87/15 88/28=
0000166900
399
SNDL47 EDZW 111600
AAXX 11161
10454 47883 72307 10067 20009 39823 40113 56017 72365
  333 55300 82/56 85/58 87/61 91115=
10458 45779 82407 10038 20020 39630 40120 56014
  333 55300 20037 30037 82/56 88/59 91113=
10460 42583 72103 10051 20023 39930 40133 56013 8115/
  333 55300 20031 30028 81821 87358=
10466 46/61 /2503 10064 20023 30008 40125 56017
  333 55300 20024 30024=
10471 45988 02103 10058 20015 39959 40128 56017
  333 55301 20024 30023 40955=
10474 45781 82103 10055 20023 39988 40118 56019
  333 55300 20014 30014 81/50 87/57 88/59=
10476 NIL=
10480 45983 82304 10047 20015 39943 40128 56014
  333 55300 20006 30006 83/61 84/78 88/80=
10490 45980 42103 10051 20015 30007 40127 56014
  333 55300 20011 30011 84/60=
10495 45982 22002 10048 20000 39984 40127 58015
  333 55300 82/61=
10500 NIL=
10502 NIL=
10516 NIL=
10519 47472 72804 10063 20047 39986 40183 53023 72365
  333 55300 81/17 86/34 87/57 91113=
10520 47463 83206 10073 20052 30084 40177 53010 76265
  333 553// 82/15 87/36 88/47=
10526 47281 73007 10032 20025 39515 40173 53010 72365
  333 55300 20001 30001 84/05 87/09 87/15 91114=
10534 47990 02105 10005 20005 39276 40168 56003 73033
  333 55300=
10537 47137 81806 10030 20030 39731 40160 55004 72365
  333 55300 87/02 88/25=
10540 45580 82404 10051 20020 39761 40142 56011
  333 55302 20049 30032 81/31 84/50 88/58=
10542 45966 81906 10052 20027 39818 40148 55009
  333 55300 20057 30055 88/58=
10552 47000 82307 11006 21006 39040 48429 56009 73533
  333 55300 88/00=
10557 41/04 92505 11001 21001 39149 48436 56003 74122
  333 55300 20001 30001=
00000000