0000009500
029
SAQB31 LQSM 110500
METAR LQSA 110500Z VRB01KT 6000 BKN060 05/05 Q1022 NOSIG=

0000070800
030
SAIY32 LIIB 110450
METAR LIBD 110450Z 24004KT 5000 NSC 05/05 Q1022=
METAR LIBR 110445Z 27003KT 8000 NSC 06/05 Q1022 NOSIG=
METAR LICC 110450Z NIL=
METAR LICJ 110450Z 16003KT CAVOK 10/08 Q1021=
METAR LIPB 110450Z VRB02KT 9999 BKN054 05/04 Q1022=
METAR LIPE 110450Z 28002KT 1200 R12/1700VP2000U BCFG SCT001 BKN050
07/07 Q1022=
METAR LIPH 110445Z /////KT 2000 BR SCT020 BKN060 06/05 Q1021=
METAR LIPK 110450Z NIL=
METAR LIPQ 110450Z 00000KT 0100 R09/0375 FG OVC003 06/03 Q1022=
METAR LIPR 110445Z /////KT 5000 BR BKN050 08/08 Q1022=
METAR LIPX 110445Z 19001KT 1000 R04/P1500N BR FEW010 BKN045 08/06
      Q1022=
METAR LIPZ 110450Z 00000KT 3500 BR BKN050 08/07 Q1022=

0000010200
031
SABZ20 SBEG 110455
METAR SBEG 110500Z 07006KT 9999 -RA SCT008 BKN025
23/20 Q1013=

0000044800
032
SAMX43 MMMZ 110500
METAR MMCL 110445Z 00000KT 10SM  SKC 16/11 A2999 RMK ISOL AC CI=
METAR MMLM 110456Z  NIL=
METAR MMLP 110440Z 00000KT 10SM  SCT140 16/12 A3006 
      RMK 8/030 HZY ISOL SC/CI=
METAR MMML 110444Z 00000KT 10SM  SKC 14/M02 A3010 RMK ISOL CI=
METAR MMMZ 110444Z 01006KT 10SM  SKC 13/09 A2996=
METAR MMSD 110456Z  NIL=
METAR MMSL 110456Z  NIL=
METAR MMTJ 110441Z 13003KT 6SM  SKC 13/07 A3013 RMK HZY=

0000026200
033
SAMX31 KWBC 110445 RRB
METAR
MMCZ 110442Z 00000KT 7SM FEW015 20/20 A3001 RMK 8/500=
MMMD 110443Z 11007KT 7SM SKC 22/20 A2997=
MMTP 110441Z 00000KT 8SM SCT200 26/22 A2993 RMK 8/002=
MMUN 110447Z 15010KT 7SM SCT015 25/23 A3001 RMK 8/500=

0000053800
034
SAUK31 EGGY 110450
METAR EGBB 110450Z 28010KT 9999 FEW017 06/04 Q1012=
METAR COR EGCC 110450Z 27005KT 9999 FEW033 03/02 Q1012 NOSIG=
METAR EGKK 110450Z 22008KT 9000 -RA SCT008 BKN012 09/07 Q1013=
METAR EGLL 110450Z 23012KT 9999 FEW012 SCT018 BKN021 09/07 Q1012=
METAR EGPF 110450Z 24007KT 9999 FEW034 02/00 Q1010=
METAR EGPH 110450Z 21015KT 9999 -RA SCT013 SCT018 BKN033 02/01
    Q1009 RERA=
METAR EGPK 110450Z 27008KT 9999 FEW028 04/01 Q1011=
METAR EGSS 110450Z 23014KT 6000 BKN005 OVC009 08/06 Q1011=

0000045400
035
SAUK32 EGGY 110450
METAR EGAA 110450Z 19005KT 150V210 9999 -RA SCT015 BKN020 01/01
    Q1012=
METAR EGAC 110450Z NIL=
METAR EGFF 110450Z 28009KT CAVOK 05/04 Q1014=
METAR EGGW 110450Z 25014KT 4400 DZ BR OVC006 08/07 Q1011=
METAR EGLC 110450Z AUTO 22008KT 9999 SHRA FEW020/// BKN026///
    09/07 Q1012=
METAR EGNM 110450Z 27008KT CAVOK 03/03 Q1010=
METAR EGNX 110450Z NIL=
METAR EGPD 110450Z 26010KT CAVOK 02/M02 Q1005=

0000032500
036
SAUK33 EGGY 110450
METAR EGGD 110450Z 26011KT CAVOK 05/04 Q1014=
METAR EGGP 110450Z 26004KT 9999 FEW031 04/04 Q1012=
METAR EGHI 110450Z NIL=
METAR EGNS 110450Z NIL=
METAR EGNT 110450Z NIL=
METAR EGNV 110450Z NIL=
METAR EGPB 110450Z AUTO 27017KT 9999 -SHRA FEW006/// SCT015///
    05/03 Q0999=

0000033400
037
SAUK34 EGGY 110450
METAR EGHE 110450Z NIL=
METAR EGHK 110450Z NIL=
METAR EGHQ 110450Z NIL=
METAR EGJA 110450Z NIL=
METAR EGJB 110450Z 24012KT 9999 -RADZ FEW006 SCT014 BKN028 09/09
    Q1015=
METAR EGJJ 110450Z 24008KT 9999 FEW010 BKN042 09/08 Q1015 TEMPO 7000
    -RA BKN007=
METAR EGTE 110450Z NIL=

0000032400
038
SAUK35 EGGY 110450
METAR EGHH 110450Z 32010KT 9999 FEW007 SCT019 BKN024 08/06 Q1014=
METAR EGKA 110450Z NIL=
METAR EGKB 110450Z NIL=
METAR EGLF 110450Z NIL=
METAR EGMC 110450Z 21010KT 9999 -RA SCT026 BKN048 08/06 Q1012=
METAR EGMD 110450Z NIL=
METAR EGMH 110450Z NIL=
METAR EGTC 110450Z NIL=

0000033100
039
SAUK36 EGGY 110450
METAR EGBE 110450Z NIL=
METAR EGBJ 110450Z NIL=
METAR EGCN 110450Z 29006KT 9999 SCT046 06/04 Q1011=
METAR EGSC 110450Z NIL=
METAR EGSD 110450Z NIL=
METAR EGSH 110450Z AUTO 21012KT 5000 DZ BKN004/// OVC008/// 08/07
    Q1010 RERA=
METAR EGVN 110450Z NIL=
METAR EGWU 110450Z NIL=

0000029700
040
SAUK37 EGGY 110450
METAR EGAE 110450Z NIL=
METAR EGNC 110450Z NIL=
METAR EGNH 110450Z NIL=
METAR EGNJ 110450Z NIL=
METAR EGNO 110450Z NIL=
METAR EGNR 110450Z NIL=
METAR EGPE 110450Z 21008KT 9999 FEW042 01/00 Q1006=
METAR EGPI 110450Z NIL=
METAR EGPN 110450Z NIL=

0000042700
041
SAUK38 EGGY 110450
METAR EGEC 110450Z NIL=
METAR EGEO 110450Z NIL=
METAR EGPA 110450Z AUTO 26007KT 9999 NCD 03/01 Q1003=
METAR EGPC 110450Z AUTO 25010KT 9999 NCD 02/M01 Q1004=
METAR EGPL 110450Z AUTO 28019KT 9999 // SCT037/// 05/02 Q1007=
METAR EGPM 110450Z AUTO 28016G27KT 9999 RA SCT011/// 05/03 Q0998
    RERA=
METAR EGPO 110450Z AUTO 26004KT 9999 NCD 01/M01 Q1005=
METAR EGPU 110450Z NIL=

0000017300
042
SAVN24 SVMG 110500
METAR SVMG 110500Z /////KT 9999 SCT010 24/22 Q1014 NOSIG=
METAR SVCU 110500Z NIL=
METAR SVCP 110500Z NIL=
METAR SVGI 110500Z NIL=

0000040900
043
SASW32 LSSW 110450
METAR LSGC 110450Z AUTO VRB02KT CAVOK 02/01 Q1016=
METAR LSGS 110450Z NIL=
METAR LSZG 110450Z AUTO 23002KT 0350 FG VV002 02/02 Q1018=
METAR LSZR 110450Z AUTO 23001KT 0150 R10/0600N BR NCD 03/02 Q1017=
METAR LSZS 110450Z NIL=
METAR LSZC 110450Z AUTO 29002KT 0300 FG BKN001 SCT200 01/01 Q1017=
METAR LSZL 110450Z AUTO 00000KT 9999NDV OVC046 06/05 Q1021 RMK WHT=

0000014100
044
SAVN23 SVBC 110500
METAR SVBC 110500Z 00000KT 9999 FEW010 23/22 Q1015=
METAR SVMT 110500Z NIL=
METAR SVHG 110500Z NIL=

0000033800
045
FTUS71 KWBC 110454 AAA
TAF AMD
KPOU 110452Z 1105/1124 00000KT 1 1/2SM BR OVC007
      TEMPO 1105/1107 3/4SM -FZDZ BR BKN004
     FM110700 16005KT 4SM -RA BR BKN007 OVC015
      TEMPO 1107/1109 1SM -FZRA BR OVC010
     FM110900 16008KT 3SM -RA BR OVC007
     FM111600 18010KT 3SM -RA BR OVC010 WS020/19040KT=

0000079200
046
SASN32 ESWI 110450
METAR ESKN 110450Z 16007KT 4800 -SN VV005 M01/M01 Q0999 R26/710195=
METAR ESOE 110450Z AUTO 06007KT 9999NDV SG OVC009/// M02/M03 Q0999
RESN REPL=
METAR ESOK 110450Z AUTO 02008KT 9999 OVC002/// M01/M01 Q0998=
METAR ESOW 110450Z AUTO 02005KT 1200NDV R01/P1500N R19/P1500N -SN
FEW006/// M04/M06 Q1001=
METAR ESSA 110450Z 31001KT 4000 -SN VV011 M04/M05 Q1000 R01L/510165
R08/19//58 R01R/19//68 TEMPO 4000=
METAR ESSB 110450Z AUTO 34003KT 0900NDV R12/P1500N R30/P1500N SN
FEW005/// M04/M04 Q1000=
METAR ESSD 110450Z AUTO 02005KT 4300 -SN FEW006/// OVC018/// M08/M09
Q1001=
METAR ESSP 110450Z 09003KT 070V130 5000 -FZRA BR OVC006 M01/M01
Q0999 R27/790136=
METAR ESSV 110450Z AUTO 18006KT 9999NDV FEW011/// BKN030///
M01/M01 Q1001=

0000073200
047
SASN33 ESWI 110450
METAR ESNG 110450Z AUTO 32007KT 9999 NCD M20/M22 Q1012=
METAR ESNK 110450Z AUTO 34013KT 9999 -SN SCT022/// OVC034/// M10/M13
Q1005=
METAR ESNN 110450Z AUTO 32010KT 3600NDV -SN NCD M10/M12 Q1004
R16/49/79=
METAR ESNO 110450Z AUTO 35011G21KT 330V040 7000 -SN FEW012///
OVC020/// M12/M15 Q1004=
METAR ESNQ 110450Z AUTO 01002KT 9999NDV FEW027/// M21/M23 Q1012=
METAR ESNS 110450Z AUTO 35013KT //// VV006 M13/M15 Q1007=
METAR ESNU 110450Z 35014KT 2700 -SN OVC030 M11/M14 Q1004 R14/49//50=
METAR ESNZ 110450Z AUTO 04003KT 9999NDV -SN SCT031/// BKN037///
BKN044/// M15/M17 Q1003=
METAR ESUT 110450Z AUTO VRB04G19KT 360V360 7000 IC FEW016///
SCT023/// OVC076/// M12/M18 Q1005=

0000008900
048
SAMA20 FIMP 110500
METAR FIMP 110500Z 09010KT 9999 SCT018 29/24 Q1017=

00000000