0000021700
389
SANO36 ENMI 110350
METAR ENBS 110350Z NIL=
METAR ENHK 110350Z NIL=
METAR ENHV 110350Z NIL=
METAR ENLK 110350Z NIL=
METAR ENMH 110350Z NIL=
METAR ENNK 110350Z NIL=
METAR ENNM 110350Z NIL=

0000067600
390
SANO33 ENMI 110350
METAR ENAT 110350Z AUTO 21005KT 9999NDV OVC001/// M15/M17 Q1019 RESG
           RMK WIND 700FT 18006KT=
METAR ENBL 110350Z NIL=
METAR ENEV 110350Z AUTO 10005KT 040V150 9999NDV NCD M08/M15 Q1015 RMK
           WIND 1400FT 10011KT=
METAR ENFL 110350Z NIL=
METAR ENKB 110350Z AUTO 12004KT 080V150 9999NDV BKN018/// M05/M08
           Q0999=
METAR ENKR 110350Z AUTO 17008KT 1800NDV -SN FEW003/// SCT012///
           BKN025/// M21/M23 Q1016 SEASMOKE NORTH OF THE FIELD RMK
           WIND 775FT 29005KT=
METAR ENML 110350Z NIL=
METAR ENNA 110350Z 19003KT 9999 OVC003 M19/M21 Q1018 RMK WIND 1800FT
           32004KT=

0000024400
391
SAEO32 EETN 110350
METAR EEKA 110350Z NIL=
METAR EEKE 110350Z AUTO 31007KT 280V350 9999NDV -RA SCT007 BKN009 
01/01 Q1000=
METAR COR EETU 110354Z 29010KT 3800 -SN BKN006 OVC027 M00/M02
Q0994=
METAR EEPU 110350Z NIL=

0000010900
392
SPUS41 KWBC 110355
SPECI
KDOV 110351Z AUTO 08005KT 1SM R01/2000FT BR BKN065 04/04 A3017=

0000009800
393
SPUS42 KWBC 110355
SPECI
KMOB 110351Z 15006KT 1/2SM -RA FG VV002 16/16 A2996=

0000010500
394
SPUS42 KWBC 110355
SPECI
KSHV 110351Z 21006KT 10SM FEW013 SCT020 OVC049 18/17 A2977=

0000047400
395
SAGR33 LGAT 110350
METAR LGBL 110350Z 28006KT 9999 FEW020 BKN180 05/03 Q1022 NOSIG=
METAR LGHI 110350Z 00000KT 9999 FEW016 BKN020 BKN070 13/12 Q1020=
METAR LGKC 110350Z NIL=
METAR LGKF 110350Z NIL=
METAR LGKP 110350Z NIL=
METAR LGKZ 110350Z AUTO VRB01KT //// // ////// 05/00 Q1021
     RE//=
METAR LGMK 110350Z NIL=
METAR LGNX 110350Z NIL=
METAR LGPA 110350Z AUTO VRB03KT //// // ////// 12/10 Q1020
     RE//=
METAR LGSO 110350Z NIL=

0000008300
396
SABZ19 SBBE 110400
METAR SBBE 110400Z 09003KT CAVOK 24/23 Q1011=

0000008300
397
SABZ23 SBGL 110355
METAR SBGL 110400Z 12005KT CAVOK 25/21 Q1012=

0000025200
398
SAHO31 MHTG 110400
METAR MHTG 110400Z 21002KT 9999 FEW024 BKN080 21/20 Q1015 A2997
NOSIG=
METAR MHLM 110400Z 00000KT 9999 FEW026 BKN080 23/23 Q1015 A2997
NOSIG=
METAR MHTG 110400Z 09002KT 9999 BKN024 19/15 Q1020 A3012 NOSIG= 

0000009500
399
SAID32 WIDN 110400
METAR WIDN 110400Z 32008KT 9999 SCT015 30/24 Q1011 NOSIG=

0000008900
400
SABZ21 SBNT 110400
METAR SBNT 110400Z 12006KT 9999 SCT021 26/21 Q1012=

0000015600
401
SARA36 RUMS 110330 CCA
METAR COR USCC 110330Z 16003MPS 5000 BR FU BKN006 OVC070 M06/M07
Q1010 09490350 TEMPO 1100 SN BKN005 RMK QFE737=

0000022000
402
FTSB31 VCBI 110350
TAF COR VCBI 110350Z 1106/1212
04012KT 9999 FEW016 TX32/1108Z TN25/1200Z
BECMG 1107/1108 34010KT PROB30
TEMPO 1112/1117 FEW020CB BECMG 1113/1114
04012KT TEMPO 1200/1203 6000=

0000010300
403
SPCN43 CWAO 110355
SPECI CWHN 110355Z AUTO 30008KT 270V330 9SM BKN010 M09/M11 A2950=

0000009100
404
SAMJ41 LWOH 110400
METAR LWOH 110400Z 31002KT 4200 BR NSC M01/M02 Q1023=

0000053200
405
SASW39 LSSW 110350 RRA
METAR LSMA 110350Z AUTO 18003KT 4000NDV BR FEW120 BKN190 00/00 Q1018
           RMK GRN=
METAR LSMD 110350Z AUTO 00000KT 0600NDV R11/0800N R29/0800N FG VV001
           01/01 Q1018 RMK RED=
METAR LSME 110350Z AUTO 21002KT 0650NDV R04/1100D R22/0750N FG VV001
           03/02 Q1018 RMK RED=
METAR LSMM 110350Z AUTO VRB02KT 6000NDV SCT150 BKN180 00/M00 Q1018
           RMK GRN=
METAR LSMP 110350Z AUTO 00000KT 5000NDV FEW003 SCT130 BKN160 M00/M00
           Q1018 RMK GRN=

0000073600
406
SPUS70 KWBC 110356
SPECI
KLNR 110352Z AUTO 00000KT 1/4SM -RA FG VV005 01/00 A2947 RMK AO2
     RAB13E23B52 P0000=
KNSE 110349Z COR 17012KT 6SM BR BKN004 OVC015 19/19 A2998 RMK T2
     SET AO2 T01940189 $=
KIMT 110352Z AUTO 10003KT 3/4SM -SN BR FEW004 OVC016 M01/M02 A2947
     RMK AO2 PRESFR P0002=
PABA 110352Z AUTO 27023G32KT 1/4SM +SN FZFG OVC008 M24/M27 A2980
     RMK AO2 PK WND 27032/0345 CIG 004V014 P0000 FZRANO=
PANW 110349Z AUTO 03003KT 3/4SM BR OVC001 M07/M08 A2943 RMK AO2
     TSNO $=
KNSE 110350Z 17012KT 6SM BR BKN004 OVC015 19/19 A2998 RMK AO2
     $=
PABA 110352Z AUTO 27023G32KT 1/4SM +SN FZFG OVC008 M24/M27 A2980
     RMK AO2 PK WND 27032/0345 CIG 004V014 P0000 FZRANO=

0000030200
407
SANL31 EHDB 110355
METAR EHAM 110355Z 21017KT 7000 FEW007 OVC008 05/04 Q1013 NOSIG=
METAR EHBK 110355Z AUTO 20010KT 9999 NSC 02/01 Q1015=
METAR EHGG 110355Z AUTO 21012KT 4500 BR BKN008 OVC010 06/05 Q1012=
METAR EHRD 110355Z AUTO 20012KT 170V240 6000 OVC008 05/04 Q1014
NOSIG=

0000049500
408
SAMX41 MMMX 110356
METAR MMMX 110349Z 09005KT 12SM FEW080 16/06 A3030 NOSIG RMK 8/030=
METAR MMAA 110342Z 00000KT 8SM SKC 25/22 A2990=
METAR MMOX 110341Z 23003KT 8SM SKC 18/12 A3019 RMK=
METAR MMQT 110345Z 00000KT 7SM SCT020 BKN090 BKN250 16/09 A3025 RMK
8/538=
METAR MMTM 110344Z 24010KT 5SM  SCT060 BKN200 21/18 A2992 RMK 8/038
HZY=
METAR MMTO 110345Z 31004KT 8SM  FEW010 SCT070 08/04 A3038 RMK 8/430=
METAR MMVR 110341Z 32003KT 7SM  SKC 20/18 A2994 RMK HZY=

00000000