0000010200
649
SACG20 FCBB 110430
METAR FCBB 110430Z 25002KT 8000 FEW010 BKN018 23/22 Q1013 NOSIG=

0000015900
650
FCUK36 EGGY 110200 AAB
TAF AMD EGPB 110429Z 1104/1112 28016KT 9999 FEW008 TEMPO 1104/1112
    4000 SHRA BKN008 BECMG 1109/1112 29025G37KT=

0000012400
651
FTAE32 VTBB 102300 RRB
TAF VYMD 102230Z 1100/1124 36005KT 8000 NSC
TEMPO 1100/1106 00000KT 4000 BR NSC=

0000115500
652
FTAL32 DAAA 110400
TAF DABB 110500Z 1106/1206 14008KT 9999 FEW033 SCT200 BECMG
         1108/1112 32012KT BECMG 1118/1122 SCT033 SCT100 TEMPO
         1200/1206 7000 -RA SCT023 FEW026TCU BKN030=
TAF DABC 110500Z 1106/1206 20006KT 9999 FEW040 SCT220 BECMG
         1108/1112 32010KT BECMG 1118/1122 SCT033 SCT100 TEMPO
         1122/1206 7000 -RA SCT026 FEW30TCU BKN033=
TAF DABS 110500Z 1106/1206 20006KT 9999 FEW046 SCT220 BECMG
         1108/1112 34010KT BECMG 1118/1122 SCT033 SCT100 TEMPO
         1200/1206 7000 -RA SCT030 FEW33TCU BKN040=
TAF DAOI 110400Z NIL=
TAF DAON 110400Z NIL=
TAF DAUA 110400Z NIL=
TAF DAUG 110500Z 1106/1206 02010KT 9999 FEW040 BECMG 1108/1110
                 32010KT BECMG 1112/1114 04010KT BECMG 1120/1122
                 12010KT BECMG 1202/1204 02010KT=
TAF DAUH 110500Z 1106/1206 VRB02KT 9999 FEW040 BECMG 1110/1112
                 02012KT BECMG 1122/1124 08012KT BECMG 1204/1206
                 34010KT=
TAF DAUZ 110500Z 1106/1206 10012KT 9999 FEW046 BECMG 1112/1114
                 16012KT BECMG 1118/1120 12012KT BECMG 1203/1206
                 02010KT=

0000021900
653
FTAL33 DAAA 110400
TAF DAUI 110500Z 1106/1206 06012KT 9999 FEW046 BECMG 1108/1110
                 12012KT BECMG 1112/1114 20014KT BECMG 1117/1120
                 VRB02KT BECMG 1122/1124 28012KT=

0000010300
654
SARM31 LUKK 110430
METAR LUKK 110430Z 26009KT CAVOK 03/M02 Q1017 R26/CLRD65
NOSIG=

0000031400
655
FCTS40 DTTA 110430
TAF DTTB 110430Z 1104/1113 VRB03KT 9999 FEW020=
TAF DTKA 110430Z 1104/1113 05006KT 8000 FEW020=
TAF DTTX 110430Z 1104/1113 22005KT CAVOK=
TAF DTTF 110430Z 1104/1113 34004KT CAVOK=
TAF DTTG 110430Z 1104/1113 25005KT 8000 NSC=
TAF DTTR 110430Z 1104/1113 16005KT CAVOK=

0000038700
656
SAHK31 VHHH 110430
METAR VHHH 110430Z 08013KT CAVOK 21/10 Q1023 WS R07L NOSIG=
METAR RCTP 110430Z 01013KT 9999 FEW020 22/13 Q1022 WS R05R NOSIG
RMK A3018=
METAR RCKH 110430Z 25008KT 220V290 9000 FEW020 23/15 Q1022 NOSIG
RMK A3020=
METAR RCSS 110430Z 12013KT 9999 FEW025 23/11 Q1022 NOSIG RMK A3019
=
METAR VMMC 110430Z 01005KT 7000 NSC 18/12 Q1023 NOSIG=

0000022300
657
FCTS42 DTTA 110430
TAF DTTB 110430Z 1104/1113 VRB03KT 9999 FEW020=
TAF DTKA 110430Z 1104/1113 05006KT 8000 FEW020=
TAF DTTX 110430Z 1104/1113 22005KT CAVOK=
TAF DTTR 110430Z 1104/1113 16005KT CAVOK=

0000012600
658
FCTS32 DTTA 110430
TAF DTTF 110430Z 1104/1113 34004KT CAVOK=
TAF DTTG 110430Z 1104/1113 25005KT 8000 NSC=

0000045100
659
SAHU41 LHBM 110430
METAR LHDC 110415Z 20006KT CAVOK M01/M02 Q1021=
METAR LHKE 110415Z 00000MPS 8000 NSC M00/M01 Q1022 NOSIG RMK BLU=
METAR LHPA 110415Z 36001MPS 9999 BKN040 03/02 Q1020 NOSIG RMK BLU=
METAR LHPP 110415Z 10005KT 9999 BKN040 05/04 Q1021=
METAR LHSM 110415Z 21004KT 0400 FG OVC003 04/04 Q1021=
METAR LHSN 110415Z 24004MPS CAVOK 02/M00 Q1021 NOSIG RMK BLU=
METAR LHUD 110415Z 17001KT 6000 SCT050 02/01 Q1022=

0000027500
660
SAMC31 GMMC 110430
METAR GMME 110430Z 15003KT 110V190 5000 SCT020 BKN100 13/11 Q1015
NOSIG=
METAR GMMN 110430Z AUTO 18007KT 9999NDV /// 11/09 Q1016=
METAR GMAD 110430Z NIL=
METAR GMFF 110430Z NIL=
METAR GMMX 110430Z NIL=
METAR GMTT 110430Z NIL=

0000009600
661
SATS32 DTTA 110400 RRA
METAR DTTF 110400Z 25002KT 8000 NSC 07/04 Q1020 NOSIG=

0000010700
662
SPUS31 KWBC 110431
SPECI
KLIT 110427Z 23008KT 7SM RA BKN013 BKN037 OVC065 14/13 A2970=

0000011100
663
SPUS42 KWBC 110431
SPECI
KHSV 110427Z 15013KT 4SM -RA BR BKN007 BKN014 BKN033 12/11 A2987=

0000009800
664
SPUS42 KWBC 110431
SPECI
KPNS 110427Z AUTO 17009KT 5SM BR OVC004 20/19 A2998=

0000010300
665
SAPF20 NTAA 110430
METAR NTAA 110430Z 06005KT 030V090 9999 FEW020 28/22 Q1012 NOSIG=

0000009600
666
SATS40 DTTA 110400 RRA
METAR DTTF 110400Z 25002KT 8000 NSC 07/04 Q1020 NOSIG=

0000010400
667
SPCN42 CWAO 110431
SPECI CYIV 110431Z 00000KT 2SM -SN BR SCT002 OVC012 RMK FG2ST2SC4=

0000011000
668
SAMJ41 LWSK 110430
METAR LWSK 110430Z 33002KT 0500 R34/0800N FG OVC002 01/00 Q1025
NOSIG=

00000000