0000011100
635
UANT01 CWAO 111532
ARP UAL121 4704N04847W 1532 F310 MS57 297/63 KT
N14107 QXS YYT 111532 F18A
0000011000
636
UANT01 CWAO 111532
ARP DLH542 4902N01707W 1532 F360 MS64 214/89 KT
DAIHI QXT AOE 111532 J11A
0000011000
637
UANT01 CWAO 111532
ARP AAL45 4813N04927W 1532 F340 MS59 306/64 KT
N363AA DDL YYT 111532 F41A
0000167100
638
SIXX40 ETGT 111500 RRC
AAXX 11151
40604 42960 30000 10110 21051 40211 53005 80001 333 830//=
40605 42960 20000 10095 20033 40184 53005 80002 333 820//=
40606 42960 12201 10088 20006 40187 57008 80001 333 810//=
40608 41958 00000 10102 20053 40204 52004 70500=
40616 42560 22001 10085 20047 40211 55004 82200 333 82825=
40621 42960 50601 10093 20068 40214 52007 85030 333 85360=
40622 41559 62302 10064 20041 40184 51003 71022 84430 333 84622
85360=
40623 42560 53003 10068 20027 40216 53005 85404 333 85622=
40629 42960 03302 10102 20072 40221 54000=
40631 42560 20000 10114 20081 40214 53013 82500 82630=
40634 42960 02803 10111 20072 40211 53005=
40637 41960 30000 10107 20104 40184 51003 72162 80002 333 830//=
40642 42560 30000 10070 20021 40224 53013 83500 333 83626=
40650 41530 80402 10112 20092 40192 52022 71022 888// 333 84830
86633=
40656 41560 60000 10097 20084 40186 52024 70252 86500 333 86630=
40658 42560 63602 10085 20085 40195 54000 86800 333 83830 84630=
40665 42960 42601 10106 20085 40185 53013 80002 333 840//=
40670 41510 83303 10096 20090 40193 52022 71022 8672/ 333 86720
88460=
40672 41530 82502 10098 20090 40189 52010 75052 886// 333 88730=
40674 41558 83504 10106 20077 40182 52009 76022 888// 333 84830
84632=
40676 42560 82304 10112 20060 40192 52009 888// 333 82828 88630=
40680 41556 72603 10109 20097 40170 53007 71022 87800 333 82830
85633=
40691 42660 62102 10132 20088 40210 52016 84230 333 84840 83360=
40882 41558 80905 10158 20148 30165 40201 52013 76062 8372/ 333
10162 83720 81925 83630 88558 555 10152 29094 66666 00146 10148
20156 30174 50176 90222=
0000055200
639
SIXX40 ETGT 111500 RRB
AAXX 11154
40100 42860 20000 10135 20067 30209 40241 53011 82070 915// 333 82357
92427=
40101 42957 12309 10088 20019 39143 48537 53010 81004 915// 333 81070
=
40103 42960 32202 10137 20051 40240 53009 80001 333 83070 92427 555
10182=
40153 43/// /2909 10080 20037 39148 48540 52010=
40179 42570 23002 10163 20089 30203 40240 52013 82800=
40183 43/// /3107 10097 20044 39303 48557 52013=
40190 46/// /3304 10138 20074 39910 40243 52010=
40199 42870 60204 10178 20081 30216 40242 52008 86030=
0000086300
640
FTXX31 AYPM 111526
TAF AYGN 111526Z 1120/1208 12008KT 9999 -SHRA BKN020
INTER 1120/1123 4000 +SHRA BKN008
Q 1007 1009 1008 1006=
TAF AYMS 111527Z 1120/1208 14010KT 9999 -SHRA SCT016 SCT120
Q 1007 1009 1008 1006=
TAF AYDU 111528Z 1120/1208 07008KT 9999 -SHRA SCT016 SCT030 BKN120
INTER 1120/1202 4000 +SHRA BKN008
Q 1006 1008 1007 1005=
TAF AYKI 111529Z 1120/1208 VRB03KT 9999 -SHRA SCT016 SCT030 OVC120
TEMPO 1120/1124 2000 +SHRA BKN008
INTER 1201/1208 3000 +SHRA BKN008
Q 1008 1010 1009 1007=
TAF AYTB 111530Z 1120/1208 VRB03KT 9999 -SHRA SCT016 SCT040 OVC120
TEMPO 1120/1124 2000 +SHRA BKN008
INTER 1201/1208 3000 +SHRA BKN008
Q 1009 1011 1010 1008=
TAF AYMR 111531Z 1120/1208 VRB03KT 9999 -SHRA SCT016 SCT030 OVC120
TEMPO 1120/1124 2000 +SHRA BKN008
INTER 1201/1208 3000 +SHRA BKN008
Q 1012 1014 1013 1011=
0000068900
641
UDEU02 EGRR 111535 RRA
AMDAR 1115
ASC EU4519   5854N 00539E 111528 F004 PS044 279/008 TB/ S031=
ASC EU4519   5854N 00539E 111528 F005 PS045 276/018 TB/ S031=
ASC EU4519   5854N 00539E 111528 F009 PS040 290/026 TB/ S031=
ASC EU4519   5854N 00539E 111528 F013 PS033 295/033 TB/ S031=
ASC EU4519   5854N 00539E 111528 F017 PS028 299/028 TB/ S031=
ASC EU4519   5855N 00539E 111529 F020 PS020 301/026 TB/ S031=
ASC EU4519   5855N 00539E 111529 F023 PS015 304/025 TB/ S031=
ASC EU4519   5855N 00539E 111529 F025 PS009 307/025 TB/ S031=
ASC EU4519   5855N 00539E 111529 F027 PS004 309/026 TB/ S031=
ASC EU4519   5856N 00539E 111529 F029 MS003 312/025 TB/ S031=
0000009700
642
SAUZ31 UTTW 111500 RRA
METAR UTSK 111400Z 07004MPS CAVOK 04/M03 Q1022 R16/CLRD70=
0000009700
643
SAUZ31 UTTW 111500 CCA
METAR UTSK 111500Z 08003MPS CAVOK 03/M03 Q1022 R16/CLRD70=
0000012300
644
SPBY31 UMMN 111500
SPECI UMMS 111524Z 28003MPS 240V340 9999 -SHRA BKN014CB
02/M00 Q1006 R31/CLRD// NOSIG=
0000009700
645
SAUZ31 UTTW 111430 RRA
METAR UTSK 111430Z 07003MPS CAVOK 04/M03 Q1022 R16/CLRD70=
0000047400
646
SAIR31 OIII 111530
METAR OIAW 111530Z NIL=
METAR OIFM 111530Z 30006KT 0150 FG VV013 M00/M01 Q1019 A3010=
METAR OIII 111530Z 28006KT 2000 BR SCT030 OVC100 01/M01 Q1019
 A3011 TEMPO 1000 BR FEW035CB SCT030 BKN100=
METAR OIKB 111530Z 30004KT 6000 -RA FEW025CB SCT030 OVC090 13/10
Q1022 A3018=
METAR OIKK 111530Z NIL=
METAR OIMM 111530Z 29006KT CAVOK 05/M11 Q1017 A3004=
METAR OISS 111530Z NIL=
METAR OITT 111530Z NIL=
METAR OIZH 111530Z NIL=
0000039400
647
SAIR32 OIII 111530
METAR OIAA 111530Z NIL=
METAR OIBK 111530Z NIL=
METAR OICC 111530Z NIL=
METAR OIGG 111530Z VRB02KT 3000 BR FEW030 BKN160 07/06
Q1013=
METAR OIIE 111530Z NIL=
METAR OITR 111530Z 00000KT 0800 R21/P2000 FG FEW035 SCT170
M09/M10 Q1019=
METAR OIYY 111530Z 32008KT 6000 FEW035 OVC100 04/M01 Q1020=
METAR OAKN 111530Z NIL=
METAR OAKB 111530Z NIL=
0000036200
648
SAIR33 OIII 111530
METAR OIBB 111530Z 13010KT 4000 TSRA FEW030CB SCT035 OVC080 13/112
Q1017 A3003=
METAR OIBP 111530Z NIL=
METAR OICK 111530Z NIL=
METAR OICS 111530Z NIL=
METAR OIHH 111530Z NIL=
METAR OINZ 111530Z 07004KT 5000 BR FEW040 BKN090 08/07 Q1014=
METAR OISR 111530Z NIL=
METAR OITL 111530Z NIL=
METAR OIZC 111530Z NIL=
0000036900
649
UDEU02 EGRR 111535 RRB
AMDAR 1115
LVR EU0225   3321N 01148W 111504 F380 MS550 289/056 TB/ S031=
LVR EU0225   3406N 01118W 111511 F380 MS550 289/047 TB/ S031=
LVR EU0225   3449N 01049W 111518 F380 MS550 296/047 TB/ S031=
LVR EU0225   3533N 01019W 111525 F380 MS550 301/045 TB/ S031=
LVR EU0225   3619N 00957W 111532 F400 MS540 301/045 TB/ S031=
0000022000
650
FTIN90 VANP 111500
TAF VANP 111500Z 1118/1300 02006KT 3500 HZ FEW100
     BECMG 1201 1203 1500 BR
     BECMG 1204 1206 05006KT 3000 HZ
     BECMG 1207 1209 4000 HZ
     BECMG 1212 1214 3000 HZ=

0000190100
651
UDEU02 EGRR 111536
AMDAR 1115
ASC EU0447   5440N 00613W 111515 F011 PS015 265/012 TB/ S031=
ASC EU0447   5439N 00612W 111515 F018 PS017 269/013 TB/ S031=
ASC EU0447   5438N 00611W 111515 F022 PS007 265/013 TB/ S031=
ASC EU0447   5437N 00610W 111515 F027 MS005 263/014 TB/ S031=
ASC EU0447   5436N 00608W 111515 F035 MS022 270/014 TB/ S031=
ASC EU0447   5435N 00607W 111515 F045 MS035 271/015 TB/ S031=
ASC EU0447   5434N 00606W 111515 F059 MS050 273/017 TB/ S031=
ASC EU0447   5432N 00605W 111515 F069 MS042 290/025 TB/ S031=
ASC EU0447   5431N 00604W 111515 F080 MS057 288/030 TB/ S031=
ASC EU0447   5430N 00602W 111515 F102 MS107 298/038 TB/ S031=
ASC EU0447   5427N 00557W 111516 F113 MS142 294/043 TB/ S031=
ASC EU0447   5425N 00551W 111516 F132 MS185 288/047 TB/ S031=
ASC EU0447   5423N 00544W 111516 F151 MS197 284/051 TB/ S031=
ASC EU0447   5420N 00537W 111517 F166 MS230 289/050 TB/ S031=
ASC EU0447   5418N 00531W 111517 F173 MS250 291/050 TB/ S031=
ASC EU0447   5415N 00524W 111517 F190 MS287 289/048 TB/ S031=
ASC EU0447   5413N 00518W 111518 F215 MS340 283/057 TB/ S031=
ASC EU0447   5410N 00511W 111518 F229 MS370 281/064 TB/ S031=
ASC EU0447   5408N 00504W 111518 F230 MS377 281/064 TB/ S031=
ASC EU0447   5406N 00458W 111519 F230 MS377 282/063 TB/ S031=
ASC EU0447   5403N 00451W 111519 F230 MS377 282/063 TB/ S031=
ASC EU0447   5401N 00445W 111519 F227 MS372 281/064 TB/ S031=
ASC EU0447   5359N 00438W 111520 F214 MS342 284/060 TB/ S031=
ASC EU0447   5356N 00432W 111520 F201 MS312 286/056 TB/ S031=
ASC EU0447   5354N 00426W 111520 F188 MS287 291/048 TB/ S031=
ASC EU0447   5351N 00420W 111521 F175 MS252 293/048 TB/ S031=
ASC EU0447   5349N 00414W 111521 F168 MS242 296/050 TB/ S031=
ASC EU0447   5347N 00408W 111521 F160 MS222 298/051 TB/ S031=
ASC EU0447   5344N 00402W 111522 F148 MS202 293/050 TB/ S031=
0000068500
652
UDAF02 EGRR 111536
AMDAR 1115
ASC EU4607   2854N 01338W 111523 F016 PS140 029/008 TB/ S031=
ASC EU4607   2852N 01339W 111524 F026 PS120 011/010 TB/ S031=
ASC EU4607   2850N 01340W 111524 F040 PS088 359/013 TB/ S031=
ASC EU4607   2849N 01343W 111525 F050 PS088 053/013 TB/ S031=
ASC EU4607   2850N 01346W 111525 F061 PS080 062/009 TB/ S031=
ASC EU4607   2852N 01350W 111526 F077 PS060 034/010 TB/ S031=
ASC EU4607   2855N 01351W 111527 F093 PS036 253/005 TB/ S031=
ASC EU4607   2858N 01352W 111527 F109 PS020 289/008 TB/ S031=
ASC EU4607   2902N 01354W 111528 F125 MS015 290/015 TB/ S031=
ASC EU4607   2905N 01355W 111528 F139 MS055 295/015 TB/ S031=
0000013600
653
SIVD17 CWVR 111500
BBXX
46205 11151 99542 71343 46/// /3512 10059 49850 52037
22200 00074 10807 70036 333 91215 =

0000068900
654
UDEU02 EGRR 111536 RRA
AMDAR 1115
DES EU0164   5928N 01702E 111526 F127 MS210 283/034 TB/ S031=
UNS EU0164   5930N 01708E 111527 F116 MS180 285/025 TB/ S031=
DES EU0164   5930N 01715E 111528 F106 MS150 288/025 TB/ S031=
DES EU0164   5929N 01722E 111528 F101 MS140 289/026 TB/ S031=
UNS EU0164   5929N 01728E 111529 F091 MS130 287/028 TB/ S031=
DES EU0164   5927N 01733E 111530 F082 MS110 281/028 TB/ S031=
DES EU0164   5926N 01739E 111530 F075 MS100 281/027 TB/ S031=
DES EU0164   5924N 01744E 111531 F068 MS100 296/019 TB/ S031=
UNS EU0164   5924N 01749E 111532 F055 MS080 276/014 TB/ S031=
UNS EU0164   5926N 01750E 111532 F047 MS070 274/005 TB/ S031=
00000000