0000011200
629
SASR31 WSSS 110430
METAR WSSS 110430Z 03009KT 330V090 9999 SCT020 BKN300 30/24 Q1010
NOSIG=

0000018600
630
FTMC31 GMMC 110400 RRA
TAF GMME 110400Z 1106/1212 22010KT 5000 SCT015 BKN100 TEMPO
     1106/1112 4000 RA BKN010 BKN015 BECMG 1118/1120
     16005KT SCT020 SCT100=

0000009600
631
SASG20 GOOY 110430
METAR GOOY 110430Z 01011KT 9999  FEW010 19/15 Q1013 NOSIG=

0000010300
632
SAIY32 LIIB 110420 RRB
METAR LIPH 110415Z /////KT 2000 BR SCT020 BKN060 06/05 Q1021=

0000042200
633
SARH31 LDZM 110430
METAR LDSP 110430Z VRB01KT 9999 FEW031 SCT050 10/08 Q1023 NOSIG =
METAR LDPL 110430Z VRB01KT 9000 FEW042 BKN058 09/09 Q1021 NOSIG =
METAR LDDU 110430Z 05007KT 9999 FEW060 10/05 Q1022 NOSIG =
METAR LDZA 110430Z 00000KT 0700 R05/1000N R23/0700V1500U FG VV002
03/03 Q1020 NOSIG =
METAR LDZD 110430Z NIL=
METAR LDRI 110430Z NIL=
METAR LDOS 110430Z 14007KT CAVOK 04/03 Q1021=

0000010700
634
SARH31 LDZM 110430 RRA
METAR LDZD 110430Z 12003KT 9999 BKN027 OVC050 09/09 Q1022 NOSIG =

0000004200
635
FTLY31 HLMC 110400
NIL=

0000083900
636
SATU31 LTAA 110420
METAR LTAC 110420Z VRB02KT 4800 BR OVC007 M04/M04 Q1022 NOSIG=
METAR LTAF 110420Z 04005KT CAVOK 03/M01 Q1022 BECMG TL0500 5000 BR=
METAR LTAI 110420Z 36006KT 9999 SCT020 BKN200 06/04 Q1022 NOSIG=
METAR LTAJ 110420Z 00000KT CAVOK M04/M06 Q1021 NOSIG=
METAR LTAZ 110420Z 13005KT 6000 BKN005 M04/M04 Q1023=
METAR LTBA 110420Z 27003KT CAVOK 08/05 Q1022 NOSIG=
METAR LTBJ 110420Z VRB02KT 4800 BR NSC 05/03 Q1022 NOSIG=
METAR LTBS 110420Z 05005KT 010V070 CAVOK 05/04 Q1022 NOSIG=
METAR LTCG 110420Z 26007KT CAVOK 11/M05 Q1019 NOSIG=
METAR LTCS 110420Z 32005KT CAVOK 03/M07 Q1021=
METAR LTFC 110420Z 00000KT 0500 R05/0550U R23/0500U FZFG VV001
 M05/M06 Q1023=
METAR LTFE 110420Z 00000KT 6000 SCT030 BKN090 09/08 Q1022 NOSIG=
METAR LTFJ 110420Z VRB02KT 9999 FEW013 06/01 Q1022 NOSIG=

0000067900
637
SATU32 LTAA 110420
METAR LTAG 110420Z 04004KT CAVOK 03/M03 Q1021 NOSIG=
METAR LTAN 110420Z NIL=
METAR LTAP 110420Z 00000KT CAVOK M04/M05 Q1023 NOSIG=
METAR LTAT 110420Z 23006KT CAVOK M09/M10 Q1022 NOSIG=
METAR LTAU 110420Z 00000KT 1600 BCFG OVC002 M05/M05 Q1023 TEMPO 0800
 FZFG=
METAR LTBF 110420Z NIL=
METAR LTBU 110420Z 36004KT 0300 R05/0300N R23/0250D FG NSC 03/03
 Q1022=
METAR LTCC 110420Z 28004KT CAVOK M06/M08 Q1020 NOSIG=
METAR LTCE 110420Z 26002KT 0200 R26L/0200U R08R/0200U R26R/0450U
 R08L/0275U FZFG NSC M27/M29 Q1021 BECMG TL0450 0400 VV002=
METAR LTCJ 110420Z 06002KT 1000 R02/P1500N R20/P1500U BCFG NSC
 M05/M05 Q1021=

0000008900
638
SATU35 LTAA 110420
METAR LCEN 110420Z 28010KT CAVOK 08/05 Q1022 NOSIG=

0000088000
639
FTAP32 FAPR 110300
TAF FACT 110400Z 1106/1212 17017KT 9999 FEW035
         TX26/1112ZTN15/1204Z=
TAF FAGG 110400Z 1106/1206 14010KT 9999 SCT030
         TX24/1112ZTN15/1204Z=
TAF FALE 110400Z 1106/1212 21012KT 9999 BKN030
    BECMG 1112/1114 14015KT 
    PROB30 TEMPO 1115/1121 5000 RA BKN015
    BECMG 1118/1120 35005KT BECMG 1206/1208 04020KT SCT030 
    TX30/1212ZTN21/1204Z=
TAF FAOR 110400Z 1106/1212 06012KT CAVOK
         BECMG 1108/1110 33011KT SCT035
         PROB30 TEMPO 1112/1118 5000 TSRA FEW030CB
         BECMG 1117/1119 03013KT CAVOK
         BECMG 1122/1124 BKN008
         TEMPO 1201/1206 4000 BR BKN005
         BECMG 1207/1209 33010KT SCT030
         TX29/1112ZTN16/1203Z=
TAF FBSK 110300Z 1106/1212 11008KT CAVOK BECMG 1112/1114
    FEW030CB BECMG 1202/1204 OVC014 BECMG 1210/1212 SCT025 
    FEW030CB=

0000009500
640
SPCN31 CWAO 110428
SPECI CYBG 110428Z 11002KT 15SM FEW025 OVC035 RMK SC2SC6=

0000010500
641
SPCN47 CWAO 110429
SPECI CYWA 110429Z AUTO 13005KT 1/2SM OVC001 M03/M03 A3000 RMK ICG=

0000011600
642
SPUS31 KWBC 110429
SPECI
KBWI 110425Z 00000KT 1/2SM R10/2400V4500FT -RA FG VV002 02/02
A3015=

0000011300
643
SPUS41 KWBC 110429
SPECI
KCEF 110425Z AUTO 05002KT 1 1/4SM R23/5000FT BR OVC002 00/00 A3026=

0000011800
644
SPUS41 KWBC 110429
SPECI
KWRI 110425Z AUTO 09003KT 1SM R06/2200FT BR BKN003 OVC033 04/04
A3019=

0000009900
645
SPUS42 KWBC 110429
SPECI
KSSI 110425Z AUTO 18005KT 1/4SM FG VV002 16/16 A3009=

0000011100
646
SPUS43 KWBC 110429
SPECI
KFNT 110425Z 16013KT 6SM -RA BR SCT011 BKN028 OVC049 04/02 A2967=

0000009400
647
SAMJ41 LWOH 110430
METAR LWOH 110430Z 33004KT 4000 BR SCT001 M01/M02 Q1023=

0000013900
648
SAXX69 EGRR 110400 RRB
METAR EQBH 110350Z 06002KT 5000 HZ FEW200 01/M01 Q1028 WHT NOSIG RMK
      A3036 PA2514 DA1454=

00000000