0000004200
709
SAJP45 KWBC 110430
NIL=

0000023300
710
SANZ31 NZKL 110430
METAR NZAA 110430Z AUTO 23010KT 9999 BKN047/// 21/13 Q1017 NOSIG=
METAR NZWN 110430Z AUTO 34014KT 9999 NCD 21/13 Q1015 NOSIG=
METAR NZCH 110430Z AUTO 06016KT 9999 OVC019/// 17/12 Q1013 NOSIG=

0000011000
711
SPUS41 KWBC 110437
SPECI
KBDL 110433Z 00000KT 1/2SM R06/3000V4500FT FG VV003 01/00 A3025=

0000010400
712
SPUS41 KWBC 110437
SPECI
KMSS 110433Z AUTO 07006KT 7SM SCT029 OVC050 M03/M06 A3010=

0000053800
713
SAMS31 WMKK 110430
METAR WBGG 110430Z 04009KT 9999 FEW015CB BKN020 BKN150 28/24 Q1012
NOSIG=
METAR WBKK 110430Z 31003KT 9999 FEW015 SCT140 BKN270 31/25 Q1011
NOSIG=
METAR WBSB 110430Z 33008KT 9999 SCT016 FEW017CB BKN280 30/25 Q1012
NOSIG=
METAR WMKK 110430Z 02004KT 330V060 9999 FEW018 SCT140 BKN280 30/24
Q1011 NOSIG=
METAR WMKP 110430Z 03009KT 350V060 9999 FEW020 BKN140 BKN270 27/23
Q1012 NOSIG=
METAR WSSL 110430Z NIL=
METAR WSSS 110430Z 03009KT 330V090 9999 SCT020 BKN300 30/24 Q1010
NOSIG=

0000017700
714
FTVN21 SVVA 110430
SVVA 110430Z 1106/1206 18005KT 9999 FEW016 TEMPO 1111/1113
05002KT 9999 FEW016 TEMPO 1116/1118 11005KT 9999 FEW016
TX 31/19Z TN 21/08Z=

0000024200
715
SALJ31 LJLJ 110430
METAR LJLJ 110430Z VRB01KT 9999 FEW030 BKN040 06/05 Q1020
R30/CLRD// NOSIG=
METAR LJMB 110430Z AUTO 00000KT 8000 OVC003/// 03/02 Q1020=
METAR LJPZ 110430Z AUTO 00000KT 2700 BR OVC004/// 09/09 Q1022=

0000009600
716
SALJ32 LJLJ 110430
METAR LJCE 110430Z AUTO 00000KT 0400 FG VV001 02/02 Q1021=

0000042500
717
FTZA31 FAPR 110300 RRB
TAF FABL 110400Z 1106/1206 02005KT CAVOK
    BECMG 1107/1109 24010KT
    TX30/1113ZTN13/1203Z=
TAF FAPE 110400Z 1106/1206 24012KT CAVOK
         BECMG 1110/1112 16010KT
         BECMG 1118/1120 07008KT          
         BECMG 1123/1201 VRB03KT 
         BECMG 1203/1205 27012KT TX25/1112ZTN16/1203Z=
TAF FYWH 110400Z 1106/1212 20005KT CAVOK BECMG 1108/1110 04008KT =

0000064100
718
FTID31 WABB 110500
TAF WABB 110500Z 1106/1212 25006KT 9999 SCT018
BECMG 1110/1112 35008KT
TEMPO 1122/1202 FEW017CB
TEMPO 1206/1210 8000 -RA=
TAF WAJJ 110500Z 1106/1206 33007KT 9999 SCT016
TEMPO 1106/1112 7000 -RA FEW014CB
TEMPO 1202/1206 7000 -RA FEW014CB=
TAF WASR 110500Z 1106/1206 07009KT 9999 SCT015 
TEMPO 1107/1111 8000 -RA FEW014CB
BECMG 1119/1121 10003KT
BECMG 1202/1204 07005KT=
TAF WABP 110500Z 1106/1206 27012KT 8000 SCT012
BECMG 1121/1123 00000KT 
BECMG 1202/1204 18005KT=
TAF WAKK 110500Z 1106/1206 30007KT 8000 SCT018
TEMPO 1106/1110 6000 -RA FEW017CB
BECMG 1116/1118 35005KT=

0000034400
719
SARO31 LROM 110430
METAR LRBS 110430Z 28003KT CAVOK M00/M01 Q1021 NOSIG=
METAR LRCK 110430Z 26006KT 3000 BR NSC 02/01 Q1020 NOSIG=
METAR LROP 110430Z 24005KT CAVOK M02/M02 Q1021 8819//95 NOSIG=
METAR LRSB 110430Z VRB02KT 9999 SCT052 M00/M04 Q1022 NOSIG=
METAR LRTR 110430Z 10005KT 5000 BR BKN048 01/00 Q1022 11190095=

0000038800
720
SARO32 LROM 110430
METAR LRAR 110430Z 16004KT CAVOK 02/02 Q1023=
METAR LRBM 110430Z AUTO 06004KT 5000 BR BKN021 01/01 Q1021=
METAR LRCL 110430Z 23004KT 180V260 9999 BKN062 M01/M02 Q1021=
METAR LROD 110430Z AUTO 19010KT 9999 BKN055 02/01 Q1022=
METAR LRSM 110430Z AUTO 23004KT 9999 NCD M01/M01 Q1021=
METAR LRTM 110430Z VRB02KT 7000 NSC M02/M02 Q1022 0719//95=

0000010300
721
SANT31 KWBC 110400 RRD
METAR
BIKF 110430Z 25013KT 9999 FEW049 BKN100 01/M01 Q0995=

0000024700
722
SAFR21 LFPW 110430
METAR LFOA 110430Z AUTO VRB02KT 8000 NSC 06/05 Q1015=
METAR LFPC 110430Z AUTO 00000KT 2800 BR OVC003 05/04 Q1016=
METAR LFPV 110430Z AUTO 00000KT 1700 BR FEW003/// BKN037///
OVC050/// ///TCU 05/05 Q1016=

0000033600
723
SARO33 LROM 110430
METAR LRBC 110430Z 28006KT 240V310 CAVOK M01/M07 Q1019 16320194=
METAR LRCV 110430Z AUTO 27004KT 9999 NCD 01/M02 Q1022=
METAR LRIA 110430Z 22004KT CAVOK 03/M01 Q1018 1519//95=
METAR LRSV 110430Z AUTO 25006KT 9999 BKN055 02/M03 Q1016=
METAR LRTC 110430Z AUTO 14002KT 3600 BR NCD 02/01 Q1021=

0000046800
724
SAFR22 LFPW 110430
METAR LFBC 110430Z AUTO 18002KT 2700 BR OVC015 08/08 Q1017=
METAR LFBG 110430Z AUTO 00000KT 6000 BKN009 BKN130 07/06 Q1016=
METAR LFBM 110430Z AUTO 25003KT 6000 OVC023 10/09 Q1018=
METAR LFKS 110430Z AUTO VRB02KT 9999 FEW025 OVC033 12/08 Q1021=
METAR LFMO 110430Z AUTO 33002KT 5000 BR OVC031 08/07 Q1020=
METAR LFMY 110430Z AUTO 08006KT 9999 FEW027 OVC034 11/06 Q1020=
METAR LFBY 110430Z NIL=
METAR LFMC 110430Z NIL=

0000041800
725
SAFR23 LFPW 110430
METAR LFOC 110430Z AUTO 05004KT 5000 BR OVC002/// ///TCU 06/05
Q1015=
METAR LFOE 110430Z AUTO 15003KT 0750 R22/1500U FG VV/// 05/05 Q1016=
METAR LFOJ 110430Z AUTO 07006KT 3300 BR BKN002/// BKN008///
OVC086/// ///TCU 05/05 Q1015=
METAR LFRJ 110430Z AUTO 22006KT 9999 FEW017 SCT026 BKN035 07/07
Q1016=
METAR LFRL 110430Z AUTO 19004KT 9999 // FEW036 OVC045 08/08 Q1016=

0000026600
726
SAFR24 LFPW 110430
METAR LFSI 110430Z AUTO VRB02KT 9999 NSC 05/03 Q1016=
METAR LFSO 110430Z AUTO VRB02KT 7000 -RA ///TCU 03/03 Q1016=
METAR LFSX 110430Z AUTO 06005KT 9999 NSC 03/02 Q1016=
METAR LFYR 110430Z AUTO 34002KT 9999 NSC 05/04 Q1015=

0000046700
727
SAFR31 LFPW 110430
METAR LFLL 110430Z 12005KT 070V190 9999 SCT021 BKN200 09/06 Q1017
NOSIG=
METAR LFMN 110430Z 33009KT 9999 OVC040 10/05 Q1020 NOSIG=
METAR LFPG 110430Z 18002KT 5000 -RA BR FEW001 SCT002 BKN043 05/05
Q1016 TEMPO 4000 BR=
METAR LFPO 110430Z 04002KT 3000 BR BKN004 BKN050 06/05 Q1016 NOSIG=
METAR LFRS 110430Z 30003KT 1500 BR FEW002 BKN015 07/07 Q1016 TEMPO
0800 BCFG=
METAR LFQQ 110430Z NIL=
METAR LFRB 110430Z NIL=

0000010300
728
SAKO31 RKSI 110430
METAR RKSI 110430Z 23004KT 9999 SCT040 BKN200 01/M15 Q1032 NOSIG=

00000000