0000011200
969
SIKZ31 UAAA 111500 RRL
AAXX 11151
35167 36/// /1904 11044 21055 39887 40196 52009 333   11034=
0000057300
970
UXIN90 VEPT 111200
TTAA 6112/ 42809 MISDA DUE SUSPENSION INSTRUCTION 
RECEIVED FROM DDGM(UI) NEW DELHI=
TTAA 6112/ 43333 MISDA DUE TO ASCENT SUSPENDED=
PPAA 6112/ 43333 NO ASCENT DUE TO LOW CLOD=
TTAA 6111/ 42492 99010 16017 70502 ASCENT SUSPENDED=
PPAA 6111/ 42492 NO BALLOON=
PPAA 6111/ 42591 LOW CLOUD=
PPAA 6112/ 42798 LOW CLOUD=
PPAA 6111/ 42498 LOW CLOUD=
TTAA 6112/  42314 RS ASCENT SUSPENDED AS PER 
DDGM(UI) ORDER DTD 07-11-2013 =
PPAA 6112/ 42314 NO ALT PBA ASCENT DUE ACUTE SHORTAGE 
OF CHEMICALS AND 30/32 GRAM BALLOONS= 
0000010300
971
UGIN90 VECC 111200
PPBB 61111 42809
90012 36004 02007 01008 90347 01005 20505 17503 =
0000007600
972
UPIN90 VECC 111200
PPAA 61111 42809
55292 00507 23508 =

0000024600
973
SIIN90 VECC 111500
AAXX 11154
42807 31995 00203 10196 20137 40173 70500
  333 58008=
42706 31495 70000 10172 20125 40176 70510 84531
  333 58023 84618 84360=
42503 31593 83201 10158 20137 40190 74244 8457/
  333 58020=
0000012700
974
SIKZ31 UAAA 111500 RRM
AAXX 11151
38313 /6960 01101 11070 21084 39938 40259 52009 333   10048 555  
60052 =
0000011200
975
SIKZ31 UAAA 111500 RRN
AAXX 11151
36871 36931 03101 11112 21156 39276 40297 52008 333   11007=
0000011200
976
SIKZ31 UAAA 111500 RRO
AAXX 11151
36883 36922 02201 11099 21149 39520 40302 52007 333   11024=
0000011200
977
SIKZ31 UAAA 111500 RRP
AAXX 11151
36856 36958 /3102 11085 21166 38816 48509 57001 333   10019=
0000011200
978
SIKZ31 UAAA 111500 RRQ
AAXX 11151
38318 36950 01403 11030 21072 39977 40309 52010 333   10048=
0000011200
979
SIKZ31 UAAA 111500 RRR
AAXX 11151
36785 36956 02602 11110 21157 39498 40301 52004 333   11002=
0000417900
980
SIPH20 RPMM 111500
AAXX 11151
98132 32465 20904 10217 20172 40247 5/001 82100 333
56299 82818=
98133 NIL=
98134 32465 30905 10210 20146 30018 40211 51005 82270
333 56299 82819=
98222 31575 10901 10230 20170 40156 50005 70544 81101
333 56999 81822=
98223 32462 10000 10200 20150 40162 51007 81100 333
56999 81819=
98232 31565 80405 20238 20213 40191 51008 70242 8227/
333 56199 82820 88358=
98233 31570 80000 10210 20188 40191 51002 70544 8457/
333 56999 84620 88358=
98324 31462 40901 10239 20211 40148 51004 70544 81151
333 56999 81816 83080=
98325 32458 21802 10223 20190 40161 51010 81201 333
56999 81817=
98327 31665 63102 10196 20165 30000 40180 50003 70544
82208 333 56/// 82842 86080=
98328 31458 11401 10120 20106 38545 40152 51003 70544
81101 333 56999 81815=
98330 32475 20401 10235 20207 30130 40162 54000 81201
333 56/// 81818=
98334 32468 83605 10220 20198 39986 40192 50000 8327/
333 56999 83817 88357=
98336 32468 80405 10220 20188 40193 58002 8227/ 333
56199 82815 88357=
98425 32560 73201 10240 20188 40160 58002 70242 83870
333 56999 83620 87358=
98426 31562 10406 10237 20202 40152 55000 70544 81100
333 56999 81830=
98427 21475 63603 10230 20193 39971 40151 58009 70182
83260 333 56119 69907 83818 86357=
98428 32458 61101 10250 20193 40158 51003 82468 333
56/// 82618 84275=
98429 31560 10902 10244 20178 40162 56001 70544 81100
333 56999 81825=
98430 31558 20000 10217 20192 40157 51002 70544 82100
333 56999 82820=
98431 NIL=
98432 31568 50404 10240 20190 40166 50002 70544 82272
333 56199 82820=
98433 31460 60407 10190 20160 39430 40158 50003 71522
84970 333 56999 84911 86457=
98434 32465 80604 10240 20212 30176 40184 51006 8427/
333 56199 84818 88358=
98435 32470 80603 10251 20200 40174 51004 8487/ 333
561// 84618 88458=
98440 31460 80706 10247 20202 30152 40157 58003 71544
84237 333 56199 84815 88277=
98442 NIL=
98444 32465 80404 10252 20198 30120 40139 56005 84377
333 56199 82918 82820 86459 88270=
98446 32465 80402 10244 20216 30106 40152 58008 84207
333 56199 84818 88270=
98447 NIL=
98526 32570 83601 10/// 20/// 40130 5/004 82207 333
56999 82820 88274=
98531 31568 40602 10253 20210 30116 40120 51003 70544
81202 333 56199 81820 84075 =
98536 32465 80406 10234 20210 39941 40142 58001 8327/
333 56199 83818 88357=
98538 31462 83605 10253 20214 30140 40145 50000 71522
83267 333 56119 83811 84357 88272=
98543 21468 80202 10250 20234 30112 40123 58003 71682
83207 333 56999 69957 83818 88272=
98546 21450 80405 10247 20243 30118 40126 58005 76086
8492/ 333 56999 60047 84915 88458=
98548 21465 80000 10242 20237 30129 40135 51002 72582
84807 333 56999 60027 84816 88272=
98550 NIL=
98553 21460 83203 10253 20245 30111 40115 56007 78082
8597/ 333 56999 60147 81915 84618 88358=
98558 31456 80613 10256 20248 40115 58007 71522 8457/
333 56199 83615 88357=
98618 32470 83202 10255 20222 40136 51010 83277 333
56999 83819 86358 88273=
98630 NIL=
98637 NIL=
98642 21460 83202 10235 20228 30104 40113 58004 72166
8552/ 333 56999 60117 85615 88457=
98644 21462 83602 10233 20226 30078 40107 58004 76066
8452/ 333 56999 60017 84616 88457=
98646 21560 83607 10252 20230 30083 40111 58002 70262
8287/ 333 56199 60017 82820 88459=
98648 21454 83601 10236 20228 30030 40112 50000 78084
8592/ 333 56999 60057 85912 88457=
98653 21458 80407 10250 20241 30040 40085 56010 76166
8322/ 333 56199 60027 83818 88456=
98741 21465 80000 10256 20240 40105 58006 70282 8227/
333 56999 60017 82817 88358=
98746 NIL=
98747 NIL=
98751 21465 80000 10200 20193 39401 40079 57015 76186
8491/ 333 56999 60057 84915 88456=
98752 21450 82702 10233 20225 40109 51002 76166 8452/
333 56999 60147 84615 88457 =
98753 21458 83602 10235 20228 40089 50004 76166 8322/
333 56999 60247 83816 88459=
98755 21458 80404 10250 20236 40090 58007 76366 8452/
333 56199 60257 84616 88457=
98836 21460 80000 10250 20225 40099 58002 76062 8252/
333 56999 69947 82618 88460 =
98851 21468 80000 10222 20212 39930 40080 51007 70262
8251/ 333 56999 60037 82618 88458=
0000048200
981
SXXX32 EUMS 111534 RRX
262AD2C2
OT12 ID:PK-ORMA-10 DT:2014 01 11 15 33
:PRS /1 08212 08199 08193 08213 08218 08204 08206 08210 08219 08204 08206 08194 08222 08221 08232 08218 08221 08225 08224 08227 08254 08239 08217 08244 08213 08224 08217 08250 08245 08259
:RAD /1 ///// ///// ///// ///// ///// ///// ///// ///// ///// ///// ///// ///// ///// ///// ///// ///// ///// ///// ///// ///// ///// ///// ///// ///// ///// ///// ///// ///// ///// /////
:BAT 12.7V/
0000065100
982
SXXX32 EUMS 111534 RRX
18D74682
OT12 ID:ZA-GOUG-13 DT:2014 01 11 15 33
:RAD /3 21179 21165 19724 21179 21177 21164 21174 21183 21179 21183 21143 21159 21165 21157 21165 21176 21171 21182 21176 21168 21182 21158 21186 21158 21154 21455 21182 21162 21162 21181 21171 21193 21186 21176 21171 21146 21167 21137 21188 21177 19718 21162 21173 21178 21185 21176 21176 20884 21186 21182 21193 21187 21187 21158 21357 01662 21191 21176 21171 21182 21176 21185 21176 21182 21197 21178 21188 21183 21203 21178 21193 21186 21186 21193 21188 21187 21201 21197 21194 21197 21188 01263 21197 21157 21187 01480 21202 21191 03673 21196
:BAT 14.2V
0000069800
983
SXXX32 EUMS 111534 RRX
26A63714
OT12 ID:CO-PNTN-06 DT:2014 01 11 15 24
:RAD /1 01075 01134 01111 01135 01145 01128 01144 11133 01144 01135 01128 01104 01092 01106 01104 01075 01119 01099 01091 01102 01083 01071 01047 01084 01089 01083 01077 01111 01103 01106
:PR1 /1 ///// ///// ///// ///// ///// ///// ///// ///// ///// ///// ///// ///// /./// ///// ///// ///// ///// /./// ///// ///// ///// ///// ///// ///// ///// ///// ///// ///// ///// /////
:PR2 /1 ///// ///// //.// ///// ///// ///// ///./ ///// ///// ///// ///// /////0///// ///// /////////// ///// ///// ///// ///// ///// ///// ///// ///// ///// ///// ///// //.// ///// /////
:TM1 /15 /// /// /// ///
:BAT 12.4V
0000037800
984
SXXX32 EUMS 111536 RRX
12FD90D0
:PRS 1 /1 1060 1059 1069 1069 1067 1085 1089 1096 1106 1106 1116 1137 :RAD 1 /3 5648 5666 5690 5714 5733 5734 5725 5714 5707 5710 :ENC 3 /6 5372 5416 5465 5452 5442 5468 5472 5451 5438 5403 :RA2 3 /6 4540 4585 4628 4605 4583 4599 4595 4574 4555 4518 :SW1 36 /60 60 :SW2 6 /60 60 :BAT 5 /6 12.6 :WTP 5 /6 28.5 28.5 :NAME 12FD90D0
0000036800
985
SXXX32 EUMS 111536 RRX
12FFB3C8
:PRS 1 /1 M 2901 2906 2909 2908 2899 2895 2894 2894 2903 2905 2916 2916 2920 2936 2946 2953 2957 2959 2953 2957 2955 2956 2935 2947 2943 2946 2949 2945 2949 :RAD 1 /3 5842 5841 5850 5867 5885 5890 5887 5882 5885 5886 :ENC 1 /5 -144 -144 -144 -144 -144 -144 :SW1 36 /60 0 :SW2 6 /60 60 :BAT 14 /15 14.2 :NAME 12FFB3C8 /
0000070500
986
SXXX32 EUMS 111536 RRX
26F364EA

ST STHELENA
DT 11/01/14 11/01/14
TM 15:30:00 15:15:00
RD 10000 10000 10000 10000 10000 10000 10000 10000 10000 10000 10000 10000 10000 10000 10000 10000 10000 10000 10000 10000 10000 10000 10000 10000 10000 10000 10000 10000 10000 10000
P1 00552 00177 00818 00653 00143 00254 00649 00665 00613 00875 01213 00329 00378 00567 00508 00932 00693 01049 00706 01064 00948 00523 00627 00562 00484 00735 01105 00888 00878 00072
P2 00021 00020 00014 00020 00021 00021 00022 00019 00021 00023 00012 00027 00026 00025 00026 00019 00018 00010 00015 00016 00018 00019 00017 00017 00017 00016 00016 00017 00017 00018
T1 00.0 00.0
T2 22.9 22.9
VB 14.0
0000069800
987
SXXX32 EUMS 111536 RRX
3601E29A
OT12 ID:DJ-BOUT-08 DT:2014 01 11 15 26
:RAD /1 02244 02246 02246 02250 02246 02262 02257 02252 02260 02264 02261 02262 02266 02264 02265 02273 02268 02269 02272 02266 02267 02268 02267 02276 02279 02278 02273 02280 02280 02281
:PR1 /1 02551 02549 02558 02554 02569 02580 02561 02570 02587 02568 02576 02571 02577 02574 02574 02576 02582 02584 02591 02581 02584 02585 02585 02587 02592 02594 02593 02592 02597 02591
:PR2 /1 00794 00801 00794 00798 00812 00809 00798 00805 00808 00804 00820 00813 00809 00811 00811 00816 00818 00823 00817 00809 00820 00821 00824 00822 00826 00821 00829 00823 00815 00824
:TM1 /15 259 259 259 259
:BAT 13.5V
0000070200
988
SXXX32 EUMS 111536 RRX
22E7E6D2
OT12 ID:ID-ROTE-11 DT:2014 01 11 15 34
:PRS /1 -10758 -10238 -10751 -10759 -10735 -10735 -10737 -10737 -10762 -10763 -10762 -10763 -10759 -10763 -10763 -10760 -10237 -10747 -10760 -10731 -10734 -10734 -10735 -10759 -10758 -10761 -10758 -10761 -10757 -10755
:PR2 /1 04001 04001 03981 03985 03969 03962 03957 03959 03944 03943 03917 03920 03888 03900 03923 03909 03873 03898 03909 03866 03901 03874 03879 03840 03857 03831 03844 03832 03846 03836
:RAD /1 05580 05588 05565 05536 05556 05552 05534 05530 05548 05533 05529 05549 05516 05468 05468 05464 05471 05492 05472 05479 05459 05447 05429 05456 05412 05440 05408 05412 05396 05416
:BAT 12.3V/
00000000