0000014000
369
SAPA31 KWBC 110400 RRA
METAR
AYPY 110400Z 23005KT 9999 FEW020CB BKN280 32/24 Q1005 RMKS/ CB TO
     E/ DIST/ CB TO N=

0000030300
370
FTCN37 CWAO 110400 AAA
TAF AMD CYQI 110414Z 1104/1112 23010KT P6SM OVC010 TEMPO 1104/1109
     5SM -RA -DZ BR OVC006 PROB30 1104/1109 OVC005
    FM110900 21010KT 3SM -DZ BR OVC004 TEMPO 1109/1112 P6SM -RA
     OVC007
     BECMG 1110/1112 18010KT
    RMK NXT FCST BY 110600Z=

0000038900
371
FTCA33 KWBC 110418
TAF
TAF TTCP 110400Z 1106/1206 00000KT 9999 FEW018
      TEMPO 1109/1113 6000 SHRA BKN018
      BECMG 1111/1113 07010G20KT SCT020
      TEMPO 1116/1121 5000 SHRA BKN016=
TAF TTPP 110400Z 1106/1206 00000KT 9999 FEW018
      TEMPO 1109/1113 6000 SHRA BKN018
      BECMG 1111/1113 07010G20KT SCT020
      TEMPO 1116/1121 5000 SHRA BKN016=

0000029900
372
FTUS41 KWBC 110418 AAA
TAF AMD
KPWM 110416Z 1104/1124 22005KT P6SM SCT015 OVC080
     FM110600 20005KT 4SM BR OVC015
     FM110800 16005KT 1SM -FZDZ BR OVC005
     FM111200 18010KT 1/2SM -RA FG VV003 WS020/19050KT
     FM111600 20012G25KT 2SM RA BR OVC005 WS020/21060KT=

0000025100
373
FTUS31 KWBC 110418 AAA
TAF AMD
KSFO 110416Z 1104/1206 29008KT P6SM FEW006 SCT200
     FM110600 27004KT P6SM OVC010
     FM111700 23012KT P6SM BKN100
     FM112100 26008KT P6SM VCSH OVC030
     FM112300 29003KT P6SM BKN060=

0000033900
374
FTUS42 KWBC 110418 AAA
TAF AMD
KRSW 110414Z 1104/1124 VRB03KT P6SM FEW060
      TEMPO 1104/1106 1 1/2SM BR OVC015
     FM110600 VRB03KT 1 1/2SM BR OVC007
     FM110900 VRB03KT 1/2SM FG OVC004
     FM111400 17007KT 3SM BR SCT007 BKN015
     FM111500 18010KT P6SM BKN025
     FM111800 23016G22KT P6SM SCT030=

0000050400
375
FTUS72 KWBC 110418 AAA
TAF AMD
KGGG 110415Z 1104/1124 23008KT P6SM SCT015 BKN040
      TEMPO 1105/1107 4SM SHRA BR OVC010
     FM110800 26006KT P6SM SKC
     FM111700 30012G18KT P6SM SKC=
KRSW 110414Z 1104/1124 VRB03KT P6SM FEW060
      TEMPO 1104/1106 1 1/2SM BR OVC015
     FM110600 VRB03KT 1 1/2SM BR OVC007
     FM110900 VRB03KT 1/2SM FG OVC004
     FM111400 17007KT 3SM BR SCT007 BKN015
     FM111500 18010KT P6SM BKN025
     FM111800 23016G22KT P6SM SCT030=

0000018200
376
FTUS73 KWBC 110418 AAA
TAF AMD
KUIN 110416Z 1104/1124 26012KT 5SM BR OVC008
      TEMPO 1104/1106 2SM -RA OVC003
     FM111500 27012G18KT P6SM SCT020 BKN250=

0000029900
377
FTUS71 KWBC 110418 AAA
TAF AMD
KPWM 110416Z 1104/1124 22005KT P6SM SCT015 OVC080
     FM110600 20005KT 4SM BR OVC015
     FM110800 16005KT 1SM -FZDZ BR OVC005
     FM111200 18010KT 1/2SM -RA FG VV003 WS020/19050KT
     FM111600 20012G25KT 2SM RA BR OVC005 WS020/21060KT=

0000025100
378
FTUS74 KWBC 110418 AAA
TAF AMD
KSFO 110416Z 1104/1206 29008KT P6SM FEW006 SCT200
     FM110600 27004KT P6SM OVC010
     FM111700 23012KT P6SM BKN100
     FM112100 26008KT P6SM VCSH OVC030
     FM112300 29003KT P6SM BKN060=

0000021200
379
SAUS71 KWBC 110400 RRE
METAR
KLCK 110415Z AUTO 18006KT 10SM OVC029 09/06 A2981=
KMMU 110415Z AUTO 00000KT 1/2SM UP OVC003 02/01 A3024=
KPQI 110415Z AUTO 00000KT 10SM OVC022 M12/M15 A3021=

0000026100
380
SAUS73 KWBC 110400 RRD
METAR
KCIU 110415Z AUTO 10008KT 3SM OVC004 M01/M01 A2959=
KELO 110413Z AUTO 20003KT 7SM OVC005 M04/M05 A2943=
KJAC 110415Z AUTO 17012KT 10SM OVC033 M01/M04 A2997=
KLBL 110415Z AUTO 29013KT 10SM CLR 02/M09 A2983=

0000009500
381
SAUS74 KWBC 110400 RRC
METAR
KOTH 110415Z 20007KT 10SM OVC022 13/11 A3002=

0000012100
382
SPUS42 KWBC 110417
SPECI
KBPT 110413Z AUTO 21009KT 1 1/2SM R12/6000VP6000FT BR OVC002 19/18
A2985=

0000011100
383
SPUS43 KWBC 110417
SPECI
KFNT 110413Z 16012KT 6SM -RA BR FEW011 SCT015 OVC049 04/02 A2968=

0000011100
384
SAAF18 LFPW 110400 RRB
METAR FMMT 110400Z 00000KT 9999 VCSH SCT017 SCT033 27/26 Q1014 NOSIG=

0000009500
385
SALC31 TLPL 110400
METAR TLPL 110400Z 07018KT 9999 FEW022 25/21 Q1016 NOSIG=

0000011400
386
SAAG05 SABM 110400 RRA
METAR SARL 110400Z 05007KT 9999 TS FEW020 FEW045CB OVC100 22/20
Q1008=

0000151000
387
SPUS70 KWBC 110414
SPECI
KCHO 110410Z 00000KT 1 3/4SM -RA BR SCT001 SCT007 OVC013 02/01
     A3014 RMK AO2 P0001 T00170006=
KCKV 110410Z AUTO 18010G17KT 10SM VCTS OVC039 13/09 A2972 RMK AO2
     LTG DSNT N TSB04=
KESF 110410Z AUTO 24011G19KT 3SM VCTS -RA BR FEW006 BKN017 OVC036
     19/18 A2980 RMK AO2 LTG DSNT NE AND E P0024=
KISW 110410Z AUTO 00000KT 2 1/2SM BR OVC004 M01/M01 A2946 RMK AO2
     T10061006=
KJMS 110410Z AUTO 29009KT 10SM BKN019 OVC032 M04/M07 A2948 RMK AO2
     T10391072=
KPOU 110410Z 00000KT 3/4SM UP BR OVC005 01/M01 A3024 RMK AO2 UPB07
     P0000=
KPTW 110410Z AUTO 00000KT 2 1/2SM -RA BR OVC006 01/01 A3021 RMK
     AO2 P0001 T00110011=
KSRC 110410Z AUTO 22005KT 9SM -RA FEW001 SCT017 BKN040 11/11 A2969
     RMK AO2 TSNO P0001=
KAUW 110411Z AUTO 00000KT 3SM BR OVC011 M02/M03 A2943 RMK AO2
     SNE0358 P0000 T10221028=
KCPS 110411Z AUTO 14003KT 1 1/4SM -RA BR SCT007 OVC011 04/04 A2961
     RMK AO2 VIS 1/2V4 P0003=
KEQY 110411Z AUTO 01003KT 4SM BR OVC002 07/06 A3009 RMK AO2=
KEYE 110411Z AUTO 17005KT 1SM -RA BR VV002 06/05 A2967 RMK AO2
     P0001 T00560050=
KHKY 110411Z AUTO 00000KT 1SM BR VV003 06/06 A3009 RMK AO2 RAE06
     P0000=
KUNO 110411Z AUTO 22010KT 10SM BKN014 08/07 A2964 RMK AO2
     T00830072=
KVIH 110411Z AUTO 21009KT 10SM FEW005 BKN016 OVC025 07/06 A2956
     RMK AO2 T00670061 $=
PAOH 110411Z AUTO 00000KT 2SM BR BKN004 BKN035 OVC043 M01/M01
     A2935 RMK AO2 TSNO BKN V SCT $=

0000011700
388
SPUS41 KWBC 110414
SPECI
KORH 110410Z AUTO 25006KT 1/2SM R11/2600V3500FT FG VV002 02/02
A3024=

00000000