0000012100
529
SALT31 EYVI 110420
METAR EYVI 110420Z 29011KT 7000 BKN014 OVC022 01/M02 Q1002
     R20/2/0195 NOSIG=

0000009300
530
SAQB31 LQSM 110400 RRA
METAR LQSA 110400Z 00000KT 6000 BKN062 04/04 Q1022=

0000034300
531
SASW31 LSSW 110420
METAR LSZH 110420Z 01003KT 0500 R14/0900N R16/0800N R28/0750N
    R34/1000U FG VV001 02/02 Q1018 NOSIG=
METAR LSGG 110420Z 00000KT 9999 MIFG NSC 01/00 Q1018 NOSIG=
METAR LSZB 110420Z AUTO VRB01KT 1700 FZFG FEW130 BKN150 M01/M01
    Q1017=
METAR LSZA 110420Z AUTO 12002KT 9999 OVC044 07/06 Q1021=

0000020800
532
FTCN33 CWAO 110400 AAA
TAF AMD CYTE 110421Z 1104/1113 28015KT P6SM SCT009 TEMPO 1104/1113
     BKN009
     BECMG 1109/1111 28010KT
    RMK FCST BASED ON AUTO OBS. NXT FCST BY 110700Z=

0000012500
533
SAPA31 KWBC 110400 RRC
METAR
PKWA 110420Z AUTO 07014KT 10SM SCT050 30/20 A2973 RMK AO2
     T03010195=

0000013500
534
SAAK31 KWBC 110400 RRA
METAR
PAVD 110416Z 10SM BKN150 M06/M07 A2930=
PAWG 110416Z 11006KT 10SM CLR 02/M02 A2933=

0000010200
535
SAIS32 LLBG 110420
METAR LLBG 110420Z VRB02KT 9999 FEW033 SCT050 11/10 Q1023 NOSIG=

0000019200
536
SALV32 EVRA 110420
METAR EVLA 110420Z AUTO 28007KT 9999 FEW008 SCT011 OVC015 01/00 
Q1004=
METAR EVVA 110420Z AUTO 29010KT 4400 +RASN FEW007 BKN012 OVC027 01/00
Q1002=

0000014300
537
SAAP32 FAPR 110400 RRB
METAR FVHA 110400Z VRB01KT 9999 FEW008 BKN090 18/18 Q1021 TEMPO
             8000 BC RMK QFE 853.5=

0000008100
538
SAEA20 HKNC 110400 RRB
METAR HKMY 110400Z 05004KT CAVOK 19/11=

0000016100
539
SADN33 EKCH 110420
METAR EKKA 110420Z 23011KT 4000 -DZRA BR FEW006 BKN012 07/06
Q1004=
METAR EKSP 110420Z 24014KT 9999 BKN007 07/06 Q1007=

0000031400
540
FTBZ20 SBEG 110420
TAF SBEG 110400Z 1106/1206 06005KT 9999 SCT010
TN22/1107Z TX30/1117Z 
BECMG
 1108/1110 2000 BR BKN005 BECMG 1111/1113 08005KT 9999 SCT010
BECMG 1
115/1117
 04005KT SCT020 FEW025TCU PROB30 1118/1120 TS SCT020 FEW025CB
BECMG 1
122/1124
 00000KT FEW015 RMK PEH=

0000029900
541
FTBZ20 SBEG 110420
TAF SBMN 110400Z 1106/1206 09003KT 9999 SCT010
TN23/1107Z TX30/1117Z 
BECMG
 1108/1110 16003KT BECMG 1112/1114 13005KT SCT015 BECMG
1116/1118 090
05KT
 SCT020 FEW025TCU PROB30 1118/1120 TS SCT020 FEW025CB BECMG
1122/1124
 07003KT FEW015 RMK PEH=

0000021900
542
FTBZ20 SBEG 110420
TAF SBBV 110400Z 1106/1206 07008KT CAVOK TN24/1107Z
TX32/1118Z BECMG 
1112/1114
 SCT030 BECMG 1116/1118 05010KT SCT040 FEW050TCU BECMG
1121/1123 0700
5KT
 CAVOK RMK PEH=

0000018700
543
FTBZ20 SBEG 110420
TAF SBTF 110400Z 1106/1118 00000KT 9999 FEW010
TN24/1112Z TX31/1117Z 
BECMG
 1111/1113 16005KT BKN010 BECMG 1115/1117 09005KT SCT020 RMK
PEH=

0000038500
544
FTSA41 KWBC 110421
TAF
TAF SEMT 110400Z 1106/1206 19005KT 9999 BKN023
     FM111300 20010KT 9999 BKN023
     FM111900 22010KT CAVOK
     FM120200 18006KT 9999 BKN023 TX30/1120Z TN23/1110Z=
SEMT 110400Z 1106/1206 19005KT 9999 BKN023
     FM111300 20010KT 9999 BKN023
     FM111900 22010KT CAVOK
     FM120200 18006KT 9999 BKN023 TX30/1120Z TN23/1110Z=

0000045900
545
FTSA42 KWBC 110421
TAF
TAF SELT 110400Z 1106/1206 03003KT 8000 BCFG FEW010 BKN100
     FM111300 19006KT 9999 BKN030 SCT100
     FM111900 18012KT 9999 VCSH BKN030 BKN100
     FM120200 36003KT 9999 BKN030 TX20/1119Z TN11/1111Z=
SELT 110400Z 1106/1206 03003KT 8000 BCFG FEW010 BKN100
     FM111300 19006KT 9999 BKN030 SCT100
     FM111900 18012KT 9999 VCSH BKN030 BKN100
     FM120200 36003KT 9999 BKN030 TX20/1119Z TN11/1111Z=

0000031900
546
FTUS52 KWBC 110421 AAA
TAF AMD
KCSV 110420Z 1104/1124 19008G15KT 4SM BR OVC003
     FM110600 19008G16KT 3SM BR BKN015 BKN030
     FM110700 17010G20KT 3SM -SHRA BR OVC002
     FM110900 18012G22KT 2SM SHRA BR OVC002
     FM111500 26010G20KT P6SM OVC015
     FM111800 27010G20KT P6SM BKN050=

0000026700
547
FTUS53 KWBC 110421 AAA
TAF AMD
KLAF 110418Z 1104/1124 17006KT 5SM -RA BR OVC006
     FM110800 23010KT 1 1/2SM BR OVC006
     FM111500 27012KT 4SM BR OVC010
     FM111800 27013G23KT P6SM OVC015 AMD LTD TO CLD VIS AND WIND
      TIL 111400=

0000106300
548
FTUS80 KWBC 110421 AAA
TAF AMD
KCSV 110420Z 1104/1124 19008G15KT 4SM BR OVC003
     FM110600 19008G16KT 3SM BR BKN015 BKN030
     FM110700 17010G20KT 3SM -SHRA BR OVC002
     FM110900 18012G22KT 2SM SHRA BR OVC002
     FM111500 26010G20KT P6SM OVC015
     FM111800 27010G20KT P6SM BKN050=
KEVW 110419Z 1104/1124 25026G40KT P6SM SCT040 BKN060
     FM110900 22020G33KT P6SM BKN060
     FM112000 22028G44KT P6SM SCT050 BKN120=
KHYR 110417Z 1104/1124 19005KT 3SM -SN BR OVC012
      TEMPO 1104/1107 2SM -FZDZ BR OVC004
     FM110700 20005KT 2SM -SN BR OVC003
     FM111600 26004KT 3SM BR OVC009=
KLAF 110418Z 1104/1124 17006KT 5SM -RA BR OVC006
     FM110800 23010KT 1 1/2SM BR OVC006
     FM111500 27012KT 4SM BR OVC010
     FM111800 27013G23KT P6SM OVC015 AMD LTD TO CLD VIS AND WIND
      TIL 111400=
KPIA 110419Z 1104/1124 19011KT 1/2SM -RADZ FG VV002
     FM110900 25011KT 2SM BR OVC003
     FM111400 26012G18KT 4SM BR OVC015
     FM111700 28013G22KT P6SM BKN025
     FM112100 27012KT P6SM SCT250=

00000000