0000024300
489
SAUK20 EGGY 110420
METAR EGRE 110420Z NIL=
METAR EGRK 110420Z NIL=
METAR EGRM 110420Z NIL=
METAR EGRO 110420Z NIL=
METAR EGRP 110420Z NIL=
METAR EGRS 110420Z NIL=
METAR EGRV 110420Z NIL=
METAR EGRW 110420Z NIL=

0000019100
490
SAUK21 EGGY 110420
METAR EGRF 110420Z NIL=
METAR EGRG 110420Z NIL=
METAR EGRI 110420Z NIL=
METAR EGRL 110420Z NIL=
METAR EGRN 110420Z NIL=
METAR EGRT 110420Z NIL=

0000014600
491
SAFA31 EKCH 110420
METAR EKVG 110420Z AUTO 25009KT 9999NDV BKN011/// 04/02 Q0995
RMK BKN013/// WIND 850FT 28009G25KT 230V340=

0000010100
492
SPCN31 CWAO 110417
SPECI CYQG 110417Z 16008KT 1SM -RA BR OVC002 RMK FG2SF6 PRESFR=

0000011600
493
SALV31 EVRA 110420
METAR EVRA 110420Z 28007KT 230V330 9999 OVC014 02/00 Q1000 R36/290158
NOSIG=

0000009800
494
SALT32 EYVI 110420
METAR EYKA 110420Z 28010KT 250V340 9999 OVC017 01/M02 Q1004=

0000011500
495
SAEO31 EETN 110420
METAR EETN 110420Z 01005KT 6000 -SN OVC010 M01/M02 Q0997 R08/590295 
NOSIG=

0000056400
496
FCZW40 FVHA 110400
TAF FVCZ 110400Z 1105/1115 VRB03KT CAVOK BECMG 1107/1109 SCT020
   BKN090 TEMPO 1109/1113 9999 SHRA BKN040=
TAF FVKB 110400Z 1105/1115 VRB03KT 9999 TS FEW025CB SCT100 BKN300
      TEMPO 1109/1113 8000 -TSRA BKN080=
TAF FVMV 110400Z 1105/1115 VRB03KT CAVOK BECMG 1107/1109 SCT020
   BKN090 TEMPO 1109/1113 9999 SHRA BKN040=
TAF FVTL 110400Z 1105/1115 VRB03KT CAVOK TEMPO 1109/1113 8000 -TSRA
         FEW025CB BKN090=
TAF FVWN 110400Z 1105/1115 VRB03KT CAVOK TEMPO 1109/1113 8000 -TSRA
       FEW025CB BKN090=

0000033100
497
FTXX69 EGRR 110400
TAF AMD KQIR 1103/1205 10012KT 8000 -SHRA SCT030 BKN050 OVC100 QNH3003INS
     TEMPO 1106/1112 13010G15KT -TSRA SCT020CB BKN030 OVC050
     BECMG 1111/1112 28012G18KT 9999 NSW BKN050 QNH3008INS
     BECMG 1123/1124 33010G15KT 9999 SCT050 QNH3008INS T20/1111Z
     T13/1203Z AMD 110300=

0000017600
498
SAEA20 HKNC 110400 RRA
METAR HKEL 110400Z  10009KT  CAVOK 11/08 Q1025=
METAR HKEM 110400Z 02007KT SKC 14/07=
METAR HKGA 110400Z 20003KT CAV0K 24/21 1012=

0000014000
499
SPCN31 CWAO 110416
SPECI CYWG 110416Z 29011KT 3/8SM R31/6000FT/D R36/6000FT/D FZFG VV003
 M09/M10 A2946 RMK FG8 SLP993=

0000031700
500
FTSA41 KWBC 110418
TAF
TAF SMJP 110400Z 1106/1206 04003KT 9000 SCT010 SCT035 TX31/1118Z
      TN23/1110Z
      TEMPO 1109/1111 3500 BR
      BECMG 1111/1113 10012KT FEW015 BKN020
      TEMPO 1116/1120 5000 SHRA
     FM120200 00000KT 9999 FEW008 SCT030=
TAF SMJP 110400Z 1106/1206 NIL=

0000060700
501
FTUS51 KWBC 110418 AAA
TAF AMD
KAUG 110416Z 1104/1124 20005KT P6SM SCT015 OVC070
     FM110600 20005KT 4SM BR OVC015
     FM110800 16005KT 1SM -FZDZ BR OVC005
     FM111300 18010KT 1/2SM -RA FG VV003 WS020/19050KT
     FM111700 20012G25KT 2SM RA BR OVC005 WS020/21060KT=
KCON 110417Z 1104/1124 00000KT P6SM SCT015 OVC040
     FM110600 00000KT 4SM BR OVC015
     FM110800 00000KT 1SM -FZDZ BR OVC005
     FM111000 00000KT 1SM -FZRA BR OVC005 WS020/19050KT
     FM111200 18008KT 1/2SM -RA FG VV003 WS020/19050KT
     FM111600 20010G20KT 2SM RA BR OVC005 WS020/21060KT=

0000075000
502
FTUS52 KWBC 110418 AAA
TAF AMD
KELD 110416Z 1104/1124 20010KT P6SM SCT025 OVC050
      TEMPO 1104/1108 2SM SHRA BR OVC007
     FM110800 22008KT P6SM SCT020 BKN040
     FM111000 25007KT P6SM SKC
     FM111800 27014G22KT P6SM SKC=
KGGG 110415Z 1104/1124 23008KT P6SM SCT015 BKN040
      TEMPO 1105/1107 4SM SHRA BR OVC010
     FM110800 26006KT P6SM SKC
     FM111700 30012G18KT P6SM SKC=
KRKD 110416Z 1104/1124 25005KT P6SM SCT015 OVC080
     FM110600 20005KT 4SM BR OVC015
     FM110800 16005KT 1SM -FZDZ BR OVC005
     FM111000 17008KT 1/2SM -RA FG VV003
     FM111400 19012KT 1/2SM RA FG VV003 WS020/19055KT
     FM111800 21015G30KT 3SM RA BR OVC005 WS020/21070KT AMD LTD TO
      CLD VIS AND WIND=

0000018200
503
FTUS53 KWBC 110418 AAA
TAF AMD
KUIN 110416Z 1104/1124 26012KT 5SM BR OVC008
      TEMPO 1104/1106 2SM -RA OVC003
     FM111500 27012G18KT P6SM SCT020 BKN250=

0000035200
504
FTUS52 KWBC 110418 CCA
TAF COR
KCKV 110416Z 1104/1124 17010G20KT P6SM VCTS SCT015CB BKN035
     FM110500 18015G25KT 6SM SHRA BR VCTS BKN015CB OVC025
     FM110600 18015G25KT 4SM SHRA BR VCTS BKN006CB OVC011
      TEMPO 1108/1110 2SM TSRA OVC005CB
     FM111200 27012G25KT P6SM OVC025
     FM111500 27012G25KT P6SM BKN050=

0000149700
505
SPUS70 KWBC 110418
SPECI
K2DP 110413Z AUTO 16012G17KT 12SM FEW015 BKN029 BKN039 18/16 A3019
     RMK AO2 CIG 029V040=
KIAD 110414Z 24006KT 1 1/2SM -RA BR OVC003 01/01 A3017 RMK AO2
     P0000=
KLNS 110414Z AUTO 05003KT 1 1/2SM -RA BR OVC004 02/01 A3016 RMK
     AO2 P0001=
KMKL 110414Z AUTO 27005G16KT 2 1/2SM VCTS +RA BR FEW009 BKN012
     OVC021 12/11 A2975 RMK AO2 LTG DSNT SW-N TSB09RAB02 P0012=
KBMG 110414Z AUTO 19014G21KT 7SM -RA BKN011 OVC018 08/07 A2970 RMK
     AO2 P0002 T00780067=
KGNV 110414Z AUTO 19003KT 9SM FEW003 BKN015 OVC020 20/20 A3011 RMK
     AO2 T02000200=
KRHI 110414Z AUTO 02003KT 3SM -SN BR FEW015 OVC029 M04/M04 A2945
     RMK AO2 P0000 T10391044=
KSBM 110414Z AUTO 18005KT 4SM -RA BR OVC003 01/01 A2947 RMK AO2
     RAB02 P0000 T00110011=
KSSF 110414Z AUTO 00000KT 2SM BR CLR 13/12 A2986 RMK AO2 VIS
     1V4=
KGRD 110415Z AUTO 03003KT 3SM BR OVC004 08/07 A3010 RMK AO2 RAE07
     P0001=
KHQM 110415Z AUTO 17026G33KT 2 1/2SM -SN OVC013 A2971 RMK AO2 PK
     WND 16036/0405 RAE0355B11E14SNB0355 P0005 TSNO $=
KMRH 110415Z AUTO 15013G21KT 3SM +RA BR FEW004 BKN015 OVC023 18/18
     A3014 RMK AO2 P0011 T01830178 TSNO=
KSHN 110415Z AUTO 03003KT 3SM RA BR SCT004 SCT015 OVC022 07/06
     A2972 RMK AO2 P0004 T00720061 TSNO=
KAMW 110415Z AUTO 28006KT 7SM FEW003 FEW014 OVC020 M01/M01 A2954
     RMK AO2 T10061006 $=
KBAF 110415Z 00000KT 2SM BR BKN005 OVC011 M01/M02 A3027 RMK AO2
     T10061017=

0000010100
506
SPUS31 KWBC 110418
SPECI
KIAD 110414Z 24006KT 1 1/2SM -RA BR OVC003 01/01 A3017=

0000010200
507
SPUS41 KWBC 110418
SPECI
KCEF 110416Z AUTO 03002KT 1 1/2SM BR OVC003 00/00 A3026=

0000012600
508
SATH32 VTBB 110400 RRB
METAR VTSH 110400Z 12008KT 7000 FEW020 SCT120 BKN300 28/23
           Q1014 A2992=

00000000