0000011100
029
UANT01 CWAO 111538
ARP UAL947 5142N04454W 1538 F340 MS63 284/68 KT
N652UA DDL XXN 111538 F70A
0000011100
030
UANT01 CWAO 111538
ARP AWE741 4859N03019W 1538 F380 MS49 210/37 KT
N289AY DDL XXN 111538 J40A
0000011000
031
UANT01 CWAO 111538
ARP BAW19V 6117N03100W 1538 F360 MS59 217/55 KT
GYMMT QXT AOE 111538 F20A
0000011000
032
UANT01 CWAO 111539
ARP DLH464 4858N01946W 1538 F340 MS58 203/98 KT
DABVM QXT EUA 111539 F83A
0000011100
033
UANT01 CWAO 111539
ARP DAL107 5201N01631W 1538 F350 MS63 221/89 KT
N195DN QXT AOE 111539 F16A
0000011000
034
UANT01 CWAO 111539
ARP UAL51 5206N02707W 1538 F320 MS51 164/63 KT
N68061 DDL XXN 111539 F65A
0000216700
035
SZNZ01 NZKL 111542
CREX++
T000103 A001 D01021 D06025++
-3683144 17478654 AUCT  2014 01 11 15 34 //// 11 07 00 01
05958 3174 05959 3172 05959 3169 05958 3167 05958 3165 05960 3164+
-4402404 -17636748 CHIT  2014 01 11 15 34 //// 11 07 00 01
05159 2082 05155 2081 05155 2084 05151 2083 05117 2053 05124 2064+
-4089929 17623168 CPIT  2014 01 11 15 34 //// 11 07 00 01
04314 2263 04318 2270 04324 2279 04305 2264 04295 2258 04291 2257+
-3618905 17548887 GBIT  2014 01 11 15 34 //// 11 07 00 01
06369 -0009 06378 -0001 06382 0003 06383 0003 06384 0003 06385 0004+
-3867541 17802288 GIST  2014 01 11 15 34 //// 11 07 00 01
04493 2722 04494 2725 04487 2720 04476 2712 04466 2704 04444 2684+
-4241288 17370277 KAIT  2014 01 11 15 34 //// 11 07 00 01
03712 2223 03695 2211 03699 2219 03705 2230 03716 2246 03708 2242+
-3755040 17815904 LOTT  2014 01 11 15 34 //// 11 07 00 01
04007 0190 04024 0208 04010 0194 04020 0205 04014 0199 03999 0185+
-3704657 17451175 MNKT  2014 01 11 15 34 //// 11 07 00 01
02483 -0100 02488 -0102 02495 -0102 02491 -0113 02517 -0094 02520 -0098+
-3947566 17692007 NAPT  2014 01 11 15 34 //// 11 07 00 01
03464 1990 03450 1979 03466 1998 03461 1996 03476 2014 03469 2010+
-3441483 17304870 NCPT  2014 01 11 15 34 //// 11 07 00 01
-03898 -8764 -03778 -8648 -03752 -8625 -03830 -8706 -03946 -8825 -04047 -8929+
-4581435 17062939 OTAT  2014 01 11 15 34 //// 11 07 00 01
04683 3443 04677 3444 04670 3443 04664 3444 04657 3443 04651 3443+
-2928002 -17789440 RBCT  2014 01 11 15 34 //// 11 07 00 01
06330 1979 06318 1967 06313 1962 06328 1976 06315 1963 06328 1976+
-2925114 -17790384 RFRT  2014 01 11 15 34 //// 11 07 00 01
03272 0137 03275 0139 03273 0136 03286 0149 03272 0135 03293 0156+
-4357010 17277383 SUMT  2014 01 11 15 34 //// 11 07 00 01
02356 1802 02333 1785 02333 1791 02328 1792 02321 1791 02313 1789+
-3764109 17618118 TAUT  2014 01 11 15 34 //// 11 07 00 01
05597 3959 05602 3963 05599 3959 05602 3962 05603 3962 05608 3965+
-4128448 17477985 WLGT  2014 01 11 15 34 //// 11 07 00 01
03418 2016 03412 2014 03417 2023 03422 2032 03425 2038 03411 2029++
7777
0000011500
036
SICN06 CWAO 111500 RRB
AAXX 11154
71841 25/// /3004 11048 21064 39540 49935 55003
333 60007=

0000036100
037
SIRA40 RUHB 111500
AAXX 11151
31152 42998 83401 11348 21391 39893 43054 52006 80006=
31163 NIL=
31285 41999 72301 11302 21332 30154 40243 58002 77172 80008=
31561 42998 00000 11353 21389 30164 40193 54001=
31683 42999 00000 11315 21345 30081 40163 58004=
32069 41596 81104 11225 21243 30130 40136 58001 78582 889// 333 91005
91106=
0000009600
038
SPCN42 CWAO 110339
SPECI CYUA 110339Z AUTO 29020G25KT 2 1/2SM CLR M24/ A2975=

0000009700
039
SPUS31 KWBC 110337
SPECI
KMSY 110333Z 21010KT 5SM -RA BR OVC004 19/18 A2992=

0000026500
040
SAPO32 LPMG 110330
METAR LPAZ 110330Z 21023KT 7000 -RADZ BKN007 BKN010 BKN020 15/14
Q1007=
METAR LPFL 110330Z NIL=
METAR LPHR 110330Z NIL=
METAR LPLA 110330Z NIL=
METAR LPPD 110330Z 24017KT 9999 -SHRA FEW008 SCT010 BKN040 15/15
Q1005=

0000046900
041
SAID31 WIII 110330
METAR WIII 110330Z 35005KT 9999 FEW018CB SCT020 33/24 Q1010 RMK CB TO
SW AND W= 
METAR WIMM 110330Z 32005KT 5000 HZ BKN017 28/24 Q1013= 
METAR WADD 110330Z 24005KT 190V280 9999 FEW015CB FEW017 29/24 Q1010
NOSIG= 
METAR WIDD 110330Z 34006KT 9999 SCT014 29/24 Q1011= 
METAR WAAA 110330Z 33004KT 9999 FEW019 30/23 Q1011= 
METAR WARR 110330Z 07008KTKT 020V110 9999 FEW020 30/24 Q1010= 
METAR WIHH NIL=
METAR WABB NIL=

0000026000
042
SAIO31 KWBC 110300 RRH
METAR
WBGG 110330Z 03005KT 9999 BKN020 BKN150 28/24 Q1012 NOSIG=
WBKK 110330Z 28002KT 9999 FEW015 SCT140 BKN270 31/25 Q1012
     NOSIG=
WBSB 110330Z 05002KT 9999 FEW016 FEW017CB BKN280 30/24 Q1013
     NOSIG=

0000022500
043
FTSB31 VCBI 110300
TAF VCBI 110340Z 1106/1212 04012KT 9999
SCT016 TX32/1108Z TN25/1200Z
BECMG 1107/1108 340V020KT 
BECMG 1112/1113 BECMG 04012KT PROB30 TEMPO 1112/1118 FEW020CB
TEMPO 1200/1203 6000=

0000018300
044
FTFR37 LFPW 102300 AAD
TAF AMD LFJL 110339Z 1103/1124 VRB02KT 7000 NSC PROB40 TEMPO
1103/1106 3000 BR BKN006 TEMPO 1104/1112 -RA BKN040 BECMG 1109/1112
22004KT=

0000050800
045
SAID32 WIII 110330
METAR WIBB 110330Z 30005KT 5000 HZ BKN010 27/25 Q1011= 
METAR WIPT 110330Z 36004KT 300V050 9999 FEW020 30/23 Q1011= 
METAR WIOO 110330Z 09003KT 9999 FEW012 30/24 Q1011 NOSIG= 
METAR WALL 110330Z 30006KT 9000 FEW020 BKN090 29/24 Q1011 NOSIG= 
METAR WADL 110330Z 30004KT 8000 HZ SCT016 30/24 Q1011= 
METAR WIPP 110330Z 03003KT 5000 -RA BKN015 FEW020CB 25/25 Q1011= 
METAR WAOO 110330Z 02004KT 9999 SCT020 29/25 Q1011 NOSIG= 
METAR WAMM NIL=
METAR WIDN NIL=

0000126400
046
SPUS70 KWBC 110338
SPECI
KLVJ 110334Z AUTO 24004KT 10SM BKN014 20/18 A2987 RMK AO2
     T02000178=
KCQX 110334Z AUTO 18003KT 10SM BKN030 BKN041 04/03 A3034 RMK AO2
     T00390028=
KTVR 110334Z AUTO 17010G17KT 1 3/4SM +RA BR SCT010 BKN016 OVC023
     17/17 A2981 RMK AO2 VIS 1V4 RAB06 P0016 T01720167 TSNO=
KVPC 110335Z AUTO 12004KT 4SM HZ OVC004 17/08 A3003 RMK AO2
     RAB13E28 P0000=
KBIV 110335Z AUTO 16013KT 8SM -RA OVC010 05/04 A2957 RMK AO2 CIG
     006V011 P0005 T00500044=
KBOS 110335Z 14005KT 1/2SM R04R/1600V5000FT FG OVC004 01/01 A3031
     RMK AO2=
KCHO 110335Z 00000KT 2SM -RA BR BKN003 OVC013 02/01 A3017 RMK AO2
     P0001 T00170006=
KEET 110335Z AUTO 00000KT 2SM BR OVC002 12/12 A2998 RMK AO2
     T01170117=
KMEB 110335Z AUTO 00000KT 1/2SM FG OVC008 14/14 A3012 RMK AO2
     RAB00E09 P0001 T01390139=
KPNS 110335Z AUTO 17008KT 1 3/4SM R17/4000VP6000FT BR BKN006
     OVC010 19/18 A2998 RMK AO2 T01890178=
KSTL 110335Z 20006KT 5SM -RA BR BKN009 BKN014 OVC055 07/06 A2961
     RMK AO2 RAB12 P0004=
KTDR 110335Z AUTO 14010KT 3SM BR OVC002 17/ A3006 RMK AO2 LTG DSNT
     E $=
KLSE 110335Z AUTO 31005KT 2 1/2SM BR OVC004 M01/M02 A2949 RMK AO2
     I1000 T10061017 PWINO FZRANO $=

0000010200
047
SPUS41 KWBC 110338
SPECI
KCEF 110335Z AUTO 01002KT 2 1/2SM BR OVC003 00/00 A3028=

0000009400
048
SPUS42 KWBC 110338
SPECI
KMGM 110334Z 10005KT 3/4SM BR VV002 12/11 A2998=

00000000