0000009300
629
SPUS42 KWBC 110438
SPECI
KBTR 110434Z 17008KT 6SM TS OVC004 19/18 A2986=

0000009700
630
SPUS42 KWBC 110438
SPECI
KMGM 110434Z 12004KT 1 1/4SM BR OVC003 12/12 A2997=

0000021100
631
SACA33 KWBC 110400 RRD
METAR
TFFF 110430Z AUTO 07010G23KT 3800 +RA HZ SCT027 SCT032 BKN047
     24/20 Q1016=
TFFR 110430Z AUTO 08002KT 9999 SCT029/// BKN034/// ///TCU 23/20
     Q1017=

0000045500
632
SAJP31 KWBC 110430 RRA
METAR
RJAA 110430Z 34009KT 9999 FEW030 08/M08 Q1022 NOSIG=
RJAA 110430Z 34009KT 9999 FEW030 08/M08 Q1022 NOSIG RMK 1CU030
     A3019=
RJCC 110430Z 29011KT 260V330 9999 FEW015 M05/M14 Q1017=
RJCC 110430Z 29011KT 260V330 9999 FEW015 M05/M14 Q1017 RMK 2CU015
     A3003=
RJTT 110430Z 09008KT 9999 FEW030 07/M05 Q1022 NOSIG=
RJTT 110430Z 09008KT 9999 FEW030 07/M05 Q1022 NOSIG RMK 1CU030
     A3018=

0000027900
633
SAUS75 KWBC 110400 RRD
METAR
PADK 110436Z AUTO 21028G38KT 10SM SCT025 BKN035 OVC065 03/M01
     A2874=
PAGS 110436Z AUTO 00000KT 10SM BKN039 OVC047 02/01 A2932=
PAUN 110436Z AUTO 12007KT 10SM CLR M16/M22 A2956=
PAVD 110436Z 10SM BKN150 M07/M10 A2930=

0000009900
634
SPCN51 CWAO 110438
SPECI CWCL 110438Z AUTO 18005KT 2 1/2SM OVC002 M03/M07 A2949=

0000024500
635
SAAO32 GOOY 110430
METAR GABS 110430Z 06003KT CAVOK 19/07 Q1013 NOSIG=
METAR GAGO 110430Z NIL=
METAR GAKY 110430Z NIL=
METAR GAKL 110430Z NIL=
METAR GAMB 110430Z NIL=
METAR GANR 110430Z NIL=
METAR GATB 110430Z NIL=

0000021500
636
SAAO31 GOOY 110430
METAR FHAW 110430Z NIL=
METAR GGOV 110430Z NIL=
METAR DIAP 110430Z 02002KT 9999 BKN013 OVC150 25/25 Q1010 TEMPO
BKN009=
METAR DIBK 110430Z NIL=
METAR DIYO 110430Z NIL=

0000023700
637
FTOS32 LOWM 102300 AAB
TAF AMD LOWK 110431Z 1104/1124 VRB02KT 6000 OVC005
    TX06/1112Z TN00/1124Z
    TEMPO 1104/1108 1200 BCFG OVC003
    TEMPO 1108/1117 9999 SCT004 BKN012
    TEMPO 1117/1124 0400 FG VV002=

0000009600
638
SAIY32 LIIB 110350 RRA
METAR LIBR 110345Z 28003KT 8000 NSC 06/05 Q1022 NOSIG=

0000056900
639
FTCA35 KWBC 110439
TAF
TAF MHLC 110425Z 1106/1206 00000KT 9999 FEW020 SCT080 TX29/1119Z
      TN19/1112Z
      BECMG 1112/1114 17004KT FEW022 SCT090
      BECMG 1120/1122 07006KT SCT024=
TAF MHLM 110425Z 1106/1206 00000KT 9999 FEW025 SCT080 TX31/1120Z
      TN19/1112Z
      BECMG 1112/1114 21004KT 8000 FEW007 SCT026
      BECMG 1120/1122 030006KT 9999 SCT028=
TAF MHTG 110425Z 1106/1206 04005KT 9999 SCT024 TX27/1120Z
      TN14/1112Z
      BECMG 1112/1114 36005KT 9000 FEW008
      BECMG 1121/1123 07006KT 8000 VCSH BKN026=

0000009100
640
FTPA31 KWBC 110439
TAF
TAF PLCH 110436Z 1106/1206 12015KT 9999 SCT020=

0000106000
641
FTPA32 KWBC 110439
TAF
TAF NFNA 110436Z 1106/1206 19005KT 9999 BKN020
      BECMG 1121/1123 16012KT
      BECMG 1205/1207 16005KT=
TAF NFTF 110435Z 1106/1206 13012KT 9999 -SHRA SCT015 BKN100
      TEMPO 1106/1112 14015G25KT 4000 TSRA BKN008 FEW018CB
      TEMPO 1112/112418025G35KT=
TAF NFTV 110437Z 1106/1206 30025KT 9999 -SHRA SCT007 BKN016
      TEMPO 1106/1112 30030G45KT 1000 +TSRA BKN006 BKN015 FEW018CB
      TEMPO 1112/1124 27015KT=
TAF NGFU 110437Z 1106/1206 35010KT 9999 -SHRA SCT018 BKN040 PROB30
      TEMPO 1106/1112 7000 SHRA BKN018 BKN040=
TAF NGTA 110436Z 1106/1206 06015KT 9999 -SHRA BKN015 OVC100
      TEMPO 1106/1112 5000 TSRA BKN015 FEW018CB=
TAF NIUE 110437Z 1106/1206 02015KT 9999 -SHRA SCT018 SCT045 BKN100
      TEMPO 1106/1112 36015G25KT 5000 SHRA SCT009 BKN015=
TAF NSFA 110436Z 1106/1206 35015KT 9999 -SHRA FEW010 SCT018 SCT030
      TEMPO 1106/1118 35015G30KT 4000 TSRA BKN015 FEW017CB=
TAF NVVV 110430Z 1106/1206 11013KT 9999 SCT020
      INTER 1106/1112 9000 -SHRA SCT018=

0000066600
642
FTUS53 KWBC 110439 AAA
TAF AMD
KJXN 110436Z 1105/1124 17010G19KT P6SM -RA OVC007
     FM110700 19013KT 5SM -RA BR OVC005
     FM110800 20011KT 1 1/2SM -RA BR OVC003
     FM111000 20008KT 2SM -RA BR OVC004
     FM111200 22007KT 2SM -DZ BR OVC004
     FM111600 27012G22KT 2SM -SN BR OVC008
     FM112300 28013KT P6SM OVC025=
KLAN 110436Z 1105/1124 15012KT 5SM RA BR BKN006 OVC012
     FM110700 19013KT 5SM -RA BR OVC005
     FM110800 20011KT 1 1/2SM -RA BR OVC003
     FM111000 20008KT 2SM -RA BR OVC004
     FM111200 22007KT 2SM -DZ BR OVC004
     FM111800 27012G22KT 2SM -SN BR OVC008
     FM112300 28013KT P6SM OVC025=

0000115100
643
FTUS80 KWBC 110439 AAA
TAF AMD
KAZO 110435Z 1105/1124 16010G16KT P6SM -RA OVC008
     FM110700 19013KT 5SM -RA BR OVC005
     FM110800 20011KT 1 1/2SM -RA BR OVC003
     FM111000 20008KT 2SM -RA BR OVC004
     FM111200 22007KT 2SM -DZ BR OVC004
     FM111600 27012G22KT 2SM -SN BR OVC008
     FM112300 28013KT P6SM OVC025=
KJXN 110436Z 1105/1124 17010G19KT P6SM -RA OVC007
     FM110700 19013KT 5SM -RA BR OVC005
     FM110800 20011KT 1 1/2SM -RA BR OVC003
     FM111000 20008KT 2SM -RA BR OVC004
     FM111200 22007KT 2SM -DZ BR OVC004
     FM111600 27012G22KT 2SM -SN BR OVC008
     FM112300 28013KT P6SM OVC025=
KLAN 110436Z 1105/1124 15012KT 5SM RA BR BKN006 OVC012
     FM110700 19013KT 5SM -RA BR OVC005
     FM110800 20011KT 1 1/2SM -RA BR OVC003
     FM111000 20008KT 2SM -RA BR OVC004
     FM111200 22007KT 2SM -DZ BR OVC004
     FM111800 27012G22KT 2SM -SN BR OVC008
     FM112300 28013KT P6SM OVC025=
KMEM 110436Z 1105/1124 19010G15KT 5SM RA BR FEW005 BKN020
     FM110700 24014KT P6SM BKN012 OVC100
     FM111100 26010KT P6SM SCT020
     FM111500 28012G20KT P6SM SCT025=

0000010900
644
SPUS41 KWBC 110439
SPECI
KCEF 110436Z AUTO 05002KT 1SM R23/4500FT BR OVC002 00/00 A3025=

0000010900
645
SPUS41 KWBC 110439
SPECI
KCEF 110437Z AUTO 05002KT 1SM R23/4000FT BR OVC002 00/00 A3025=

0000010600
646
SPUS42 KWBC 110439
SPECI
KPDK 110435Z AUTO 13003KT 1 3/4SM -RA BR OVC002 08/07 A3003=

0000011800
647
SPUS43 KWBC 110439
SPECI
KFNT 110435Z AUTO 17012KT 6SM -RA BR FEW009 BKN013 OVC049 04/02
A2967=

0000009800
648
SPUS43 KWBC 110439
SPECI
KMLI 110434Z AUTO 22007KT 6SM BR OVC004 03/02 A2950=

00000000