0000011400
480
SIMC21 GMMC 111500 RRA
AAXX 11154
60230 32558 23604 10190 20071 40165 56018 82200
  333 82826=
0000008000
481
UAPA01 KWBC 111603
ARP ACA064 51N 150W 1555 F330 MS55 286/121KT=
0000015700
482
SSVX13 LFPW 111600
ZZYY 61688 11014 1600/ 144058 029452 6113/ 11119 40220 52001 22219
 00087 444 20131 11014 1557/ 50101 80090 80002 9/015=
0000015700
483
SSVX13 LFPW 111600
ZZYY 44747 11014 1600/ 758631 045387 6113/ 11119 49929 57015 22219
 00046 444 20130 11014 1600/ 50101 80154 80000 9/015=
0000015700
484
SSVX13 LFPW 111600
ZZYY 61687 11014 1600/ 144732 029833 6113/ 11119 40217 57001 22219
 00076 444 20131 11014 1557/ 50101 80090 80003 9/015=
0000015700
485
SSVX13 LFPW 111600
ZZYY 44610 11014 1600/ 750178 040676 6113/ 11119 40062 57026 22219
 00098 444 20130 11014 1600/ 50101 80150 80002 9/015=
0000384300
486
SNFR30 LFPW 111600
AAXX 11164
07005 22/81 12905 10066 20030 30130 40222 51022 80001
  333 60005 81073 90710 91110 93100=
07015 22984 02906 10064 20017 30156 40214 53025
  333 60005 90710 91115 93100=
07020 26/// ///// 10087 20037 30209 40236 53011
  333 60005=
07027 22983 00203 10080 20035 30145 40228 51013
  333 60005 90710 91109 93100=
07037 22980 03402 10070 20021 30039 40226 53017
  333 60005 90710 91110 93100=
07072 24470 82905 10081 20056 30100 40217 53019 700//
  333 60005 90710 91117=
07110 22982 21305 10101 20036 30097 40213 53004 80002
  333 60005 82075 90710 91108 93100=
07117 26/// /0908 10089 20047 30151 40222 53008
  333 60005 90710 91113=
07130 24366 /0607 10080 20065 30169 40222 53008 700//
  333 60005 90710 91111=
07139 24470 /0502 10074 20063 30049 40226 51014 700//
  333 60005 90710 91103=
07149 22468 62804 10081 20056 30116 40227 53018 86500
  333 60005 83613 85619 90710 91113 93100=
07168 22765 72001 10068 20051 30076 40221 53010 81531
  333 60005 81650 86075 90710 91105 93100=
07181 24364 62108 10064 20055 39797 40213 51014 760//
  333 69905 90710 91112=
07190 24545 /2401 10053 20046 30023 40209 51015 710//
  333 60005 90710 91108=
07207 26/// /0908 10074 20068 30162 40215 55003
  333 60005 90710 91114=
07222 22465 30605 10099 20070 30181 40213 55001 81501
  333 60005 81616 83075 90710 91110=
07240 24359 80303 10083 20068 30085 40222 53007 700//
  333 60005 90710 91106=
07255 22350 80502 10087 20071 30023 40225 53010 887//
  333 60005 88707 90710 91105 93100=
07280 24557 82802 10085 20063 39948 40224 53011 700//
  333 60005 90710 91105=
07299 21564 70405 10083 20054 39891 40222 52015 72162 8557/
  333 69905 81626 85640 87358 90710 91109 93100=
07314 26/// /1006 10102 20081 30182 40210 54000
  333 60005 90710 91110=
07335 214// 80902 10096 20079 30069 40215 53003 71022 886//
  333 60005 88715 90710 91105 93100=
07434 224// 81303 10089 20062 39730 40212 53001 886//
  333 60005 88716 90710 91107 93100=
07460 22684 70205 10115 20051 39823 40212 51008 85531
  333 60005 85636 83360 90710 91110 93100=
07471 24570 /2502 10072 20036 39240 48824 53006 700//
  333 60005 90710 91103=
07481 22580 71502 10106 20067 39933 40222 52011 83572
  333 60005 83625 83368 85075 90710 91103 93100=
07510 224// 61004 10121 20091 30148 40206 55000 84801
  333 60005 81815 84626 85076 90710 91108 93100=
07535 24461 80102 10091 20070 39899 40214 50001 700//
  333 60005 90710 91103=
07558 24/70 /1203 10082 20068 39370 40206 53002 700//
  333 60005 90710 91106=
07577 22465 71101 10099 20087 30130 40220 56001 8687/
  333 60005 81813 86640 86358 90710 91102 93100=
07591 24/// /3402 10068 20025 39195 4//// 55003 700//
  333 60005 90710 91105=
07607 24569 81702 10129 20095 30136 40207 53002 700//
  333 60005 90710 91106=
07621 24575 80103 10104 20076 39774 40208 52008 700//
  333 60005 90710 91107=
07627 22570 73303 10102 20062 39718 40212 53007 875//
  333 60005 87620 90710 91107 93100=
07630 22565 83104 10112 20081 30029 40210 53003 875//
  333 60005 87630 90710 91106 93100=
07643 22562 80104 10120 20094 30204 40214 55000 885//
  333 60005 82621 88645 90710 91108=
07650 22670 72301 10127 20090 30170 40209 51001 878//
  333 60005 81833 87646 90710 91106 93100=
07661 26/// /0806 10126 20087 30045 40206 58002
  333 60005 90710 91111=
07690 22570 71007 10141 20095 30178 40209 55002 875//
  333 60005 83623 85633 90710 91110 93100=
07747 24468 80404 10128 20103 30154 40207 53004 700//
  333 60005 90710 91107=
07761 22980 73304 10139 20091 30194 40205 51004 85038
  333 60005 82365 84470 87276 90710 91106 93100=
07790 22582 62802 10130 20100 30196 40211 53005 82132
  333 60005 82821 83368 85075 90710 91106 93100=
0000153300
487
SNFR31 LFPW 111600
AAXX 11164
07024 24986 /1102 10072 20027 30062 40231 53011 700//
  333 60005 90710 91107=
07031 24984 /3601 10073 20039 30053 40229 51014 700//
  333 60005 90710 91106=
07100 26/// /1409 10100 20060 30125 40208 53003
  333 60005 90710 91114=
07103 26/// /1416 10088 20076 30109 40208 53004
  333 60005 90710 91119=
07107 26/// /0713 10099 20062 30196 40218 53007
  333 60005 90710 91117=
07118 24985 /0805 10090 20046 30117 40224 53008 700//
  333 60005 90710 91111=
07120 24970 /0705 10072 20042 30057 40223 53007 700//
  333 60005 90710 91111=
07125 24985 /0904 10084 20046 30153 40224 53009 700//
  333 60005 90710 91109=
07134 24264 80409 10073 20066 30102 40225 53009 700//
  333 60005 90710 91112=
07200 26/// /1311 10088 20077 30187 40210 53002
  333 60005 90710 91119=
07201 24157 81406 10080 20072 30100 40215 53005 700//
  333 60005 90710 91110=
07203 26/// /1207 10080 20071
  333 60005 90710 91112=
07205 24479 /1503 10087 20071 30163 40217 53003 700//
  333 60005 90710 91109=
07217 24962 /0104 10085 20071 30211 40215 55002 700//
  333 60005 90710 91107=
07230 22362 50303 10078 20063 30161 40220 53005 85101
  333 60005 83807 85076 90710 91107 93100=
07235 22365 70605 10082 20067 30161 40225 53013 876//
  333 60005 83707 87715 90710 91110 93100=
07300 26/// /3506 10080 20069 30169 40208 56005
  333 60005 90710 91110=
07306 22465 20804 10096 20070 30101 40210 56002 81132
  333 60005 81816 90710 91108 93100=
0000117800
488
SNFR32 LFPW 111600
AAXX 11164
07140 24363 81904 10078 20063 30068 40224 53013 700//
  333 60005 90710 91106=
07143 24370 83504 10081 20061 30037 40227 53019 700//
  333 60005 90710 91110=
07145 22962 13001 10067 20061 30013 40227 53016 80001
  333 60005 81076 90710 91104 93100=
07146 22468 23004 10065 20050 30029 40227 51019 82501
  333 60005 82615 90710 91110 93100=
07150 24961 /2503 10075 20058 30164 40225 52017 700//
  333 60005 90710 91108=
07153 24458 83004 10080 20065 30112 40225 53016 700//
  333 60005 90710 91110=
07156 24/69 /2403 10081 20059 30130 40226 51019 700//
  333 60005 90710 91110=
07157 22465 32505 10071 20057 30087 40225 53016 81501
  333 60005 81813 83076 90710 91116 93100=
07245 24/32 /1104 10071 20068 30071 40225 53009 710//
  333 60005 90710 91105=
07247 24962 /1302 10084 20059 30115 40218 50003 700//
  333 60005 90710 91104=
07249 24982 /0000 10073 20053 30071 40225 53010 700//
  333 60005 90710 91102=
07257 24459 83401 10088 20068 30007 40223 51008 700//
  333 60005 90710 91105=
07354 22356 82202 10092 20078 30027 40218 51004 886//
  333 60005 88707 90710 91103 93100=
0000049000
489
SNFR33 LFPW 111600
AAXX 11164
07093 24961 /2209 10053 20041 39895 40211 53011 700//
  333 60005 90710 91113=
07180 22465 42503 10070 20055 39951 40211 51011 81202
  333 60005 81812 83075 90710 91109 93100=
07288 22965 72302 10099 20055 39848 40221 53009 8707/
  333 60005 87360 90710 91108 93100=
07292 24424 82302 10075 20061 39890 40222 53010 761//
  333 69905 90710 91105=
07386 24561 82604 10106 20071 39986 40222 53010 700//
  333 60005 90710 91108=
0000129100
490
SNFR34 LFPW 111600
AAXX 11164
07260 24457 80000 10089 20072 30005 40220 51007 700//
  333 60005 90710 91105=
07266 24969 /2201 10087 20056 30035 40222 53011 700//
  333 60005 90710 91104=
07374 24/70 /0303 10106 20058 39916 40218 51009 700//
  333 60005 90710 91106=
07379 24680 83403 10097 20060 39927 40222 51007 700//
  333 60005 90710 91105=
07385 22665 60000 10103 20064 39959 40221 51008 83531
  333 60005 83643 84073 90710 91102 93100=
07475 22770 62803 10103 20051 39738 40217 52013 81502
  333 60005 81656 86072 90710 91105 93100=
07480 24982 /0502 10106 20063 39983 40222 52010 700//
  333 60005 90710 91103=
07482 24/70 /2801 10110 20065 39921 40224 51010 700//
  333 60005 90710 91102=
07486 24656 81106 10080 20060 39762 40227 51008 700//
  333 60005 90710 91109=
07487 26/// /0303 10068 20057 39959 40228 53008
  333 60005 90710 91103=
07491 22665 71704 10084 20057 39941 40227 52009 8357/
  333 69905 83643 83361 86466 90710 91105 93100=
07497 22970 72901 10060 20023 39209 48520 52017 8703/
  333 60005 87360 90710 91102 93100=
07549 21570 70803 10087 20047 39458 40212 53004 700// 875//
  333 60005 87621 90710 91105 93100=
07570 24/45 /3602 10086 20083 39897 40236 53002 710//
  333 60005 90710 91103=
0000146800
491
SNFR35 LFPW 111600
AAXX 11164
07316 24462 81108 10104 20076 30188 40210 53002 700//
  333 60005 90710 91111=
07330 24/57 /0905 10096 20079 30139 40214 53002 700//
  333 60005 90710 91109=
07361 24/70 /0000 10099 20049 39775 40212 50002 700//
  333 60005 90710 91103=
07412 24467 80705 10111 20085 30171 40209 58001 700//
  333 60005 90710 91107=
07438 24/60 /3002 10104 20069 30075 40217 53003 700//
  333 60005 90710 91106=
07500 26/// /3503 10115 20087 30170 40204 56001
  333 60005 90710 91112=
07503 266// 80105 10124 20099 30156 40203 57001
  333 60005 90710 91110=
07524 24557 80802 10106 20089 30126 40210 53001 700//
  333 60005 90710 91105=
07530 24562 81303 10107 20085 30147 40210 53001 700//
  333 60005 90710 91107=
07540 24/57 /0802 10107 20083 30083 40213 53002 760//
  333 69905 90710 91104=
07552 24469 83202 10092 20066 39526 40209 53002 700//
  333 60005 90710 91104=
07600 26/// /0408 10128 20103 30149 40201 56003
  333 60005 90710 91112=
07602 22670 40804 10136 20078 30114 40199 56002 81101
  333 60005 81837 84076 90710 91110 93100=
07603 26/76 /0805 10133 20081 30164 40201 56001
  333 60005 90710 91107=
07610 22670 50903 10118 20075 39985 40205 51004 84501
  333 60005 84636 84076 90710 91108 93100=
07622 24/67 /0101 10110 20080 30056 40211 53003 700//
  333 60005 90710 91103=
07632 24/62 /0801 10109 20074 30004 40211 55000 700//
  333 60005 90710 91102=
0000192400
492
SNFR36 LFPW 111600
AAXX 11164
07554 24470 82902 10073 20049 39131 4//// 53003 700//
  333 60005 90710 91103=
07560 26/// /0105 10025 20025 38448 4//// 53001
  333 60005 90710 91109=
07563 24758 83603 10113 20083 30157 40215 50001 700//
  333 60005 90710 91105=
07579 24658 83302 10107 20088 30152 40219 55000 700//
  333 60005 90710 91105=
07586 26/// /0000 10115 20074 30087 40215 55000
  333 60005 90710 91102=
07588 24970 63503 10093 20043 39665 40214 55002 700//
  333 60005 90710 91107=
07635 24661 80902 10117 20085 30056 40209 53001 700//
  333 60005 90710 91105=
07638 24357 80406 10113 20102 30193 40212 53001 700//
  333 60005 90710 91109=
07641 26/// /0106 10111 20097 30118 40212 56001
  333 69905 90710 91111=
07646 24466 80503 10123 20074 30085 40212 50000 700//
  333 60005 90710 91105=
07647 24780 83504 10134 20089 30182 40210 52001 700//
  333 60005 90710 91105=
07648 24769 83403 10129 20078 30140 40211 51001 700//
  333 60005 90710 91104=
07666 26/// /0206 10124 20111 30157 40205 53003
  333 60005 90710 91111=
07667 24685 81003 10133 20090 30202 40207 57002 700//
  333 60005 90710 91105=
07675 24/84 /0000 10125 20084 30109 40208 56004 700//
  333 60005 90710 91102=
07684 24586 72202 10136 20088 30204 40209 55002 700//
  333 60005 90710 91105=
07749 26/// /3503 10117 20094 30103 40208 53001
  333 60005 90710 91104=
07754 22575 70000 10129 20103 30138 40208 50005 85502
  333 60005 85630 86076 90710 91105 93100=
07765 24486 83503 10137 20107 30190 40211 51004 700//
  333 60005 90710 91104=
07770 26/// /0809 10132 20106 30066 40205 50003
  333 60005 90710 91114=
07775 26/// /1907 10132 20107 30120 40209 52002
  333 60005 90710 91111=
07780 24583 70505 10141 20107 30180 40208 50002 700//
  333 60005 90710 91109=
07785 26/// /1102 10132 20087 30075 40211 52003
  333 60005 90710 91108=
0000111200
493
SNFR37 LFPW 111600
AAXX 11164
07002 26/// /2906 10079 20021 30133 40217 53019
  333 60005 90710 91110=
07003 24969 /3002 10078 20025 30195 40220 51021 700//
  333 60005 90710 91106=
07010 26/// /3111 10079 20028 30191 40211 51020
  333 60005 90710 91116=
07028 26/// /3601 10077 20039 30098 40226 51014
  333 60005 90710 91107=
07038 24982 /0000 10070 20040 30058 40228 53016 700//
  333 60005 90710 91104=
07040 26/// /3204 10090 20040 30174 40223 52018
  333 60005 90710 91109=
07046 24986 /0105 10064 20023 30110 40226 51013 700//
  333 60005 90710 91108=
07055 22982 13105 10060 20019 30086 40223 53019 80001
  333 60005 81075 90710 91110 93100=
07057 24984 62702 10067 20038 30113 40222 51018 700//
  333 60005 90710 91109=
07061 24/70 /3106 10078 20047 30096 40216 53022 700//
  333 60005 90710 91111=
07075 24564 /2905 10069 20047 30030 40212 53020 761//
  333 69905 90710 91118=
07169 24972 62402 10070 20051 30050 40220 53012 700//
  333 6///5 90710 91106=
07283 24943 /2304 10060 20053 39655 40217 50010 710//
  333 69905 90710 91108=
0000011100
494
UANT01 CWAO 111603
ARP GEC8221 5641N04413W 1602 F350 MS56 274/46 KT
DALCA QXT IGW 111603 F04A
0000011000
495
UANT01 CWAO 111603
ARP VIR18Z 5248N04427W 1603 F370 MS59 294/60 KT
GVSXY DDL XXH 111603 J28A
0000015700
496
SSVX13 LFPW 111600
ZZYY 44624 11014 1600/ 746736 019996 6113/ 11119 49962 52008 22219
 00128 444 20130 11014 1557/ 50101 80098 80018 9/015=
0000015700
497
SSVX13 LFPW 111600
ZZYY 62687 11014 1600/ 166139 001357 6113/ 11119 40068 52008 22219
 00075 444 20130 11014 1557/ 50101 80098 80000 9/015=
0000015700
498
SSVX13 LFPW 111600
ZZYY 62713 11014 1600/ 733737 019440 6113/ 11119 40151 57006 22219
 00182 444 20130 11014 1557/ 50101 80098 80002 9/015=
0000015700
499
SSVX13 LFPW 111600
ZZYY 62714 11014 1600/ 734358 021700 6113/ 11119 40126 57008 22219
 00192 444 20130 11014 1557/ 50101 80100 80000 9/015=
00000000