0000172900
569
FTMZ31 FQMA 110400 RRA
TAF FQMA 110400Z 1106/1212 22014KT 4000 SHRA SCT012 BKN020 
    BECMG 1112/1114 14012KT 9999 BKN020 BECMG 1118/1120 23008KT 
    BECMG 1208/1210 09010KT SCT020 TX27/1112ZTN23/1202Z=
TAF FQBR 110400Z 1106/1212 02006KT 9999 FEW020
    BECMG 1110/1112 08010KT 9999 FEW020 BECMG
    1118/1120 14013KT BKN020 PROB30 TEMPO 1118/1122 4000 
    -SHRA SCT015 BKN020 BECMG 1208/1210 20010KT
     TX30/1112ZTN24/1202Z= 
TAF FQNP 110400Z 1106/1212 35010KT 9999 BKN020  
    BECMG 1110/1112 09012KT 4000 TSRA SCT015 BKN020 
    FEW025CB BECMG 1118/1120 VRB02KT BECMG 1206/1208 36006KT
    TX29/1112ZTN23/1202Z=
TAF FQPB 110400Z 1106/1206 34010KT 9999 SCT020 
    BECMG 1110/1112 06010KT BECMG 1118/1120 36008KT  
    TX32/1112ZTN24/1202Z=
TAF FQQL 110400Z 1106/1206 VRB02KT 9999 SCT020 BECMG 
    1110/1112 14010KT 4000 TSRA SCT012 BKN020 FEW025CB 
    BECMG 1118/1120 22010KT TX32/1112ZTN24/1202Z=
TAF FQLC 110400Z 1106/1206 35006KT 9999 BKN014 BECMG 1110/1112
    12010KT PROB30 TEMPO 1112/1118 4000 -TSRA SCT008
    BKN015 FEW025CB BECMG 1118/1120 VRB02KT
    TX26/1112ZTN16/1202Z=
TAF FQTT 110400Z 1106/1206 VRB02KT 9999 BKN020 BECMG 1108/1110
    16012KT TEMPO 1110/1116 4000
    TSRA SCT010 BKN020 FEW025CB BECMG 1118/1120 22010KT
    TX32/1112ZTN23/1202Z= 
TAF FQCH 110400Z 1106/1206 35008KT 9999 SCT018 
    BECMG 1110/1112 12010KT PROB30 TEMPO 1112/1116
    4000 -SHRA SCT010 BKN020 BECMG 1118/1120 VRB02KT 
    TX27/1112ZTN16/1202Z=
TAF FQVL 110400Z 1106/1206 35010KT 9999 FEW020
    BECMG 1110/1112 16012KT PROB30 TEMPO 1112/1116
    4000 -SHRA SCT010 BKN020 FEW025CB BECMG 1118/1120
    22020KT TX27/1112ZTN23/1202Z=      

0000020500
570
FTMZ31 FQMA 110400 RRB
TAF FQIN 110400Z 1106/1206 35010KT 9999 FEW020
    BECMG 1112/1114 16010KT 4000 -TSRA SCT010 BKN020 
    FEW025CB BECMG 1118/1120 22010KT TX29/1112ZTN22/1202Z=

0000011200
571
SPDN31 EKCH 110434
SPECI EKYT 110434Z 23014KT 4000 -RA BR FEW005 SCT010 BKN060
07/06 Q1002=

0000046300
572
FTZA31 FAPR 110300 RRC
TAF FQBR 110400Z 1106/1212 02006KT 9999 FEW020
    BECMG 1110/1112 08010KT 9999 FEW020 BECMG
    1118/1120 14013KT BKN020 PROB30 TEMPO 1118/1122 4000 
    -SHRA SCT015 BKN020 BECMG 1208/1210 20010KT
     TX30/1112ZTN24/1202Z= 
TAF FQMA 110400Z 1106/1212 22014KT 4000 SHRA SCT012 BKN020
    BECMG 1112/1114 14012KT 9999 BKN020 BECMG 1118/1120 23008KT 
    BECMG 1208/1210 09010KT SCT020 TX27/1112ZTN23/1202Z=

0000158800
573
SPUS70 KWBC 110434
SPECI
KAQW 110431Z AUTO 11008KT 10SM SCT017 OVC055 01/M01 A3022 RMK
     AO2=
KBKV 110430Z AUTO 00000KT 1/2SM FG VV008 17/16 A3011 RMK AO2
     T01720161=
KDPA 110430Z 19013KT 1SM BR OVC003 03/03 A2952 RMK AO2 SFC VIS 1
     1/2 RAE07 P0000=
KELD 110430Z AUTO 21011G18KT 10SM BKN012 BKN017 OVC110 17/16 A2975
     RMK AO2 T01670161 TSNO=
KHYR 110430Z AUTO 00000KT 2SM -SN BR FEW017 OVC029 M03/M04 A2947
     RMK AO2 P0000=
KVUO 110430Z AUTO 16010KT 10SM OVC029 12/06 A2991 RMK AO2
     T01220056=
PAMB 110430Z AUTO 05010KT 4SM BR SCT003 BKN012 OVC022 M06/M06
     A2936 RMK AO2 TSNO $=
KAGS 110431Z AUTO 00000KT 1 1/4SM BR OVC003 10/09 A3007 RMK AO2
     P0001=
KAND 110431Z AUTO 07006KT 2SM BR OVC004 08/08 A3005 RMK AO2
     P0001=
KCMX 110432Z AUTO 07003KT 1 1/2SM -SN BR SCT002 OVC018 M03/M04
     A2948 RMK AO2 P0001=
KFCM 110431Z 23003KT 1/4SM FZFG VV001 M01/M01 A2949 RMK AO2=
KFTY 110431Z 06003KT 3SM -RA BR OVC005 09/08 A3002 RMK AO2 RAB0356
     CIG 003V009 P0003=
KM19 110431Z AUTO 27009G19KT 10SM -RA SCT007 BKN031 OVC095 10/10
     A2969 RMK AO2 P0002 PRESRR=
KMEM 110431Z 19012KT 8SM RA FEW006 SCT024 OVC075 13/12 A2971 RMK
     AO2 SCT V BKN P0003=
KMSY 110431Z 17013KT 2 1/2SM BR OVC003 19/19 A2991 RMK AO2
     T01940189 $=
KOVS 110431Z AUTO 00000KT 3/4SM BR OVC004 01/00 A2948 RMK AO2
     RAE0357 P0000 T00060000=
KPIL 110431Z AUTO 20005KT 2 1/2SM BR FEW003 19/17 A2991 RMK
     AO2=
PASO 110431Z AUTO 00000KT 10SM BKN026 OVC032 M01/M02 A2935 RMK AO2
     TSNO=

0000009700
574
SAHK31 VHHH 110430
METAR VHHH 110430Z 08013KT CAVOK 21/10 Q1023 WS R07L NOSIG=

0000009700
575
SIAU24 AMMC 111500 RRA
AAXX 11154
95322 46/// /3604 10259 20109 39682 40052=

0000012300
576
SIAA80 AMMC 111500 RRA
AAXX 11154
89614 46/// /0922 11018 29001 39024 4//// 5////
  333 90700 91126=

0000015400
577
SIAU40 AMMC 111500 RRA
AAXX 11154
94289 46/// /1120 10281 30073 40080 58018 91515=
94379 46/// /1120 10256 30104 40113 57024 91526=

0000069000
578
FTGU31 MGGT 110925
TAF MGGT 1112/1212 36008KT 9999 FEW016 TX24/1120Z TN11/1112Z
BECMG 1114/1116 03010KT SCT020  BECMG 1201/1203 SCT016
TEMP0 1205/1212 CAV0K=
TAF MGPB 1112/1212  00000KT 9999 SCT016 SCT090 TX28/1120Z
TN18/1112Z  BECMG 1116/1118 02006KT SCT020  PR0B30 1200/1204
9000 -DZ BKN016  BECMG 1202/1204 00000KT SCT016  TEMP0 
1208/1212 CAV0K=
TAF MGSJ 1112/1212  00000KT CAV0K TX32/1120Z TN18/1112Z 
BECMG 1116/1118 18006KT 9000 FEW020  TEMP0 1122/1124 
FEW020TCU FEW025CB FM120200 00000KT CAV0K=
TAF MGMM 1112/1212  00000KT CAV0K TX28/1120Z TN18/1112Z
BECMG 1114/1116 VRB06KT SCT018  BECMG 1202/1204 00000KT 
FEW018 TEMP0  1206/1212 CAV0K=

0000035600
579
SAPO31 LPMG 110430
METAR LPBJ 110430Z NIL=
METAR LPFR 110430Z 04006KT CAVOK 11/08 Q1015=
METAR LPMA 110430Z VRB02KT CAVOK 13/09 Q1016 RS28001KT 0533004KT
2335003KT=
METAR LPPR 110430Z VRB01KT 6000 2400N FEW015 07/07 Q1016=
METAR LPPS 110430Z VRB02KT CAVOK 13/12 Q1016=
METAR LPPT 110430Z 31002KT 9999 VCFG FEW005 08/07 Q1015=

0000024200
580
SAPO32 LPMG 110430
METAR LPAZ 110430Z 22017KT 9999 BKN006 BKN038 16/15 Q1007=
METAR LPFL 110430Z NIL=
METAR LPHR 110430Z NIL=
METAR LPLA 110430Z NIL=
METAR LPPD 110430Z 24015KT 9999 FEW008 SCT012 BKN035 15/14 Q1005=

0000038600
581
FTPO34 LPMG 102300 AAA
TAF AMD LPAZ 110440Z 1104/1206 22018KT 9999 SCT006 SCT035 TEMPO
             1104/1106 22023G35KT 3000 RADZ BR SCT002 BKN005 BECMG
             1106/1109 27017KT TEMPO 1106/1112 27023G35KT 4000 RADZ
             BR SCT004 BKN008 BECMG 1109/1112 32020KT SCT018 SCT035
             TEMPO 1112/1206 32025G38KT 5000 SHRAGS BKN015 FEW018TCU=

0000051100
582
SAID32 WIII 110430
METAR WIPT 110430Z 23005KT 200V280 9999 FEW020 30/23 Q1011= 
METAR WIOO 110430Z 01003KT 9999 BKN012 31/24 Q1010 NOSIG= 
METAR WADL 110430Z 26008KT 9000 HZ SCT016 30/25 Q1010= 
METAR WIPP 110430Z 02006KT 8000 -RA BKN015 FEW020CB 25/25 Q1011= 
METAR WAOO 110430Z 34006KT 9999 SCT020 30/25 Q1010 NOSIG= 
METAR WIBB 110430Z 36008KT 7000 BKN015 29/25 Q1010 NOSIG= 
METAR WALL 110430Z 35006KT 9000 SCT018 BKN090 30/23 Q1010 NOSIG= 
METAR WAMM NIL=
METAR WIDN NIL=

0000127500
583
SAAU31 YBBN 110430
METAR YPAD 110430Z 18009KT CAVOK 30/06 Q1018
NOSIG=
METAR YBAS 110430Z 14014KT CAVOK 39/05 Q1012
RMK 5CU115=
METAR YBBN 110430Z 08009KT 9999 FEW035 28/16 Q1015=
METAR YBCS 110430Z 17011KT 6000 -SHRA FEW008 SCT020 BKN045 25/23
Q1009=
METAR YSCB 110430Z 26007KT 9999 BKN050 BKN240 30/09 Q1016=
METAR YPXM 110430Z NIL=
METAR YPCC 110430Z 13013KT 9999 FEW024 SCT039 29/22 Q1011=
METAR YCFS 110430Z AUTO 06014KT 9999 // NCD 26/18 Q1016=
METAR YPDN 110430Z 30006KT 9999 FEW034 BKN350 31/23 Q1006=
METAR YBCG 110430Z AUTO 09013KT 9999 // NCD 27/18 Q1016=
METAR YHID 110430Z AUTO 28007KT 9999 // ////// 30/24 Q1005=
METAR YPJT 110430Z AUTO 09012KT 9999 // NCD 39/07 Q1013=
METAR YPKU 110430Z AUTO 17007KT 9999 // NCD 37/21 Q1007=
METAR YPLM 110430Z AUTO 06009KT 9999 // NCD 34/22 Q1008=
METAR YMML 110430Z 18009KT 130V190 9999 FEW025 22/12 Q1019
NOSIG=
METAR YPPH 110430Z 06015KT CAVOK 39/07 Q1012
RMK PLUME OF SMOKE TO WEST=
METAR YSSY 110430Z 05015KT CAVOK 30/15 Q1014
RMK DISTANT CB TOPS TO SW   W
NOSIG=
METAR YSTW 110430Z AUTO 20010KT 9999 // NCD 31/10 Q1015=
METAR YPTN 110430Z AUTO 33003KT 8000 -SHRA SCT006 31/24 Q1006 RESHRA=
METAR YBTL 110430Z 08017KT 9999 FEW025 SCT120 31/21 Q1009=

0000119900
584
SAAU32 YBBN 110430
METAR YAMB 110430Z AUTO 06010KT 9999 // SCT060 SCT072 29/15 Q1014=
METAR YMAV 110430Z AUTO 18013KT 9999 // NCD 22/13 Q1019=
METAR YBRM 110430Z 26011KT 9999 FEW024 SCT400 32/25 Q1009=
METAR YCIN 110430Z NIL=
METAR YSDU 110430Z AUTO 12003KT 9999 // BKN071 31/14 Q1015=
METAR YFRT 110430Z AUTO 13013KT //// // ////// 34/06 Q1019=
METAR YGEL 110430Z 14007KT CAVOK 45/M04 Q1007=
METAR YPGV 110430Z 09015KT 9999 VCSH FEW015 BKN019 BKN300 29/24 Q1005
RMK SHRA TO SW=
METAR YBHM 110430Z AUTO 11018KT 9999 // ////// 28/22 Q1012=
METAR YMHB 110430Z 15014KT 9999 FEW050 SCT240 22/11 Q1012=
METAR YPKG 110430Z AUTO 09012KT 9999 // NCD 34/05 Q1019=
METAR YMLT 110430Z AUTO 35017KT 9999 // SCT072 27/13 Q1012=
METAR YBMA 110430Z AUTO 11007KT 9999 // SCT090 38/12 Q1008=
METAR YSNF 110430Z 13011KT 9999 FEW030 BKN280 22/12 Q1017=
METAR YPEA 110430Z NIL=
METAR YPPD 110430Z AUTO 34015KT 9999 // NCD 34/27 Q1008=
METAR YSRI 110430Z AUTO 04005KT 9999 // NCD 34/12 Q1012=
METAR YBRK 110430Z 07013KT 9999 FEW040 29/19 Q1013=
METAR YWLM 110430Z AUTO 12011KT //// // NCD 31/14 Q1014=
METAR YPWR 110430Z AUTO 18009G24KT 9999 // NCD 39/03 Q1014=

0000009600
585
SAYG31 LYBM 110430 RRA
METAR LYVR 110430Z VRB02KT 8000 NSC 02/00 Q1023 NOSIG=

0000011200
586
FCMP31 LMMM 110500
TAF LMML 110500Z 1106/1115 18008KT CAVOK =
TAF HLLT NIL=
TAF HLLB NIL=

0000010600
587
SAFR31 LFPW 110430 RRA
METAR LFRB 110436Z 19005KT 5000 SCT013 BKN020 08/08 Q1016 NOSIG=

0000009500
588
SAFR32 LFPW 110430 RRA
METAR LFCK 110430Z AUTO 12008KT 9999 NSC 10/07 Q1018=

00000000