0000011800
529
SPUS41 KWBC 110423
SPECI
KRIC 110419Z 35004KT 1SM R34/P6000FT -RA BR SCT003 OVC080 05/04
A3015=

0000011800
530
SPUS44 KWBC 110423
SPECI
KCLM 110419Z AUTO 00000KT 6SM -RA BR BKN005 BKN060 OVC080 06/06
A2961=

0000011000
531
SAUG20 HUEN 110400
METAR
HUEN 110400Z 32003KT 5000 HZ FEW018 FEW020CB SCT120 20/20 Q1018=

0000044800
532
SAUK31 EGGY 110420
METAR EGBB 110420Z 26008KT 9999 FEW045 06/05 Q1011=
METAR EGCC 110420Z AUTO 26005KT 9999 FEW044 05/03 Q1011=
METAR EGKK 110420Z 22007KT 9000 -RA SCT007 BKN010 09/07 Q1013=
METAR EGLL 110420Z 22009KT 9999 FEW017 BKN022 09/07 Q1012=
METAR EGPF 110420Z 25010KT 9999 FEW021 SCT034 03/01 Q1010=
METAR EGPH 110420Z NIL=
METAR EGPK 110420Z NIL=
METAR EGSS 110420Z 22013KT 9999 BKN008 OVC018 08/06 Q1011=

0000054100
533
SAUK32 EGGY 110420
METAR EGAA 110420Z AUTO 24008KT 9999 -RA SCT007/// BKN011///
    OVC022/// 01/01 Q1012 RERA=
METAR EGAC 110420Z NIL=
METAR EGFF 110420Z 29008KT CAVOK 05/04 Q1014=
METAR EGGW 110420Z 22010KT 6000 -DZ BKN004 BKN011 07/07 Q1011
    REDZ=
METAR EGLC 110420Z AUTO 22009KT 9999 SHRA FEW020/// BKN026///
    BKN035/// 09/07 Q1012=
METAR EGNM 110420Z 29005KT CAVOK 03/02 Q1009=
METAR EGNX 110420Z 30010KT 9999 SCT010 BKN022 06/05 Q1011=
METAR EGPD 110420Z AUTO 25010KT 9999 NCD 02/M02 Q1005=

0000033000
534
SAUK33 EGGY 110420
METAR EGGD 110420Z 26012KT 9999 FEW039 05/05 Q1013=
METAR EGGP 110420Z 25006KT 9999 FEW031 05/04 Q1012=
METAR EGHI 110420Z NIL=
METAR EGNS 110420Z NIL=
METAR EGNT 110420Z NIL=
METAR EGNV 110420Z NIL=
METAR EGPB 110420Z AUTO 29008KT 4200 SHRA FEW001/// SCT004///
    04/02 Q0999=

0000032200
535
SAUK34 EGGY 110420
METAR EGHE 110420Z NIL=
METAR EGHK 110420Z NIL=
METAR EGHQ 110420Z NIL=
METAR EGJA 110420Z NIL=
METAR EGJB 110420Z 24010KT 9999 FEW007 SCT009 BKN038 09/08 Q1015=
METAR EGJJ 110420Z 22007KT 9999 FEW010 BKN047 08/07 Q1015 TEMPO 7000
    -RA BKN007=
METAR EGTE 110420Z NIL=

0000024300
536
SAUK35 EGGY 110420
METAR EGHH 110420Z NIL=
METAR EGKA 110420Z NIL=
METAR EGKB 110420Z NIL=
METAR EGLF 110420Z NIL=
METAR EGMC 110420Z NIL=
METAR EGMD 110420Z NIL=
METAR EGMH 110420Z NIL=
METAR EGTC 110420Z NIL=

0000031800
537
SAUK36 EGGY 110420
METAR EGBE 110420Z NIL=
METAR EGBJ 110420Z NIL=
METAR EGCN 110420Z NIL=
METAR EGSC 110420Z NIL=
METAR EGSD 110420Z NIL=
METAR EGSH 110420Z AUTO 21012KT 180V240 9999 SCT008/// BKN013///
    BKN018/// 07/07 Q1010 RERA=
METAR EGVN 110420Z NIL=
METAR EGWU 110420Z NIL=

0000029700
538
SAUK37 EGGY 110420
METAR EGAE 110420Z NIL=
METAR EGNC 110420Z NIL=
METAR EGNH 110420Z NIL=
METAR EGNJ 110420Z NIL=
METAR EGNO 110420Z NIL=
METAR EGNR 110420Z NIL=
METAR EGPE 110420Z 22009KT 9999 FEW010 02/00 Q1006=
METAR EGPI 110420Z NIL=
METAR EGPN 110420Z NIL=

0000040400
539
SAUK38 EGGY 110420
METAR EGEC 110420Z NIL=
METAR EGEO 110420Z NIL=
METAR EGPA 110420Z AUTO 28008KT 9999 NCD 03/01 Q1002=
METAR EGPC 110420Z AUTO 24010KT 9999 NCD 02/M01 Q1003=
METAR EGPL 110420Z AUTO 27019KT 9999 // FEW039/// 05/01 Q1007=
METAR EGPM 110420Z AUTO 26011KT 9999 NCD 05/02 Q0998=
METAR EGPO 110420Z AUTO 28006KT 9999 NCD 01/M01 Q1005=
METAR EGPU 110420Z NIL=

0000035800
540
SASW32 LSSW 110420
METAR LSGC 110420Z AUTO 00000KT CAVOK 01/01 Q1016=
METAR LSGS 110420Z NIL=
METAR LSZG 110420Z AUTO 29001KT 0150 FG VV002 02/02 Q1018=
METAR LSZR 110420Z AUTO VRB01KT 0150 R10/0600N BR NCD 03/02 Q1018=
METAR LSZS 110420Z NIL=
METAR LSZC 110420Z AUTO 27002KT 0200 FG FEW002 01/01 Q1017=
METAR LSZL 110420Z NIL=

0000068900
541
UDEU02 EGRR 111546 RRB
AMDAR 1114
LVR EU3803   3439N 00120E 111421 F380 MS505 224/056 TB0 S031=
LVR EU3803   3348N 00106E 111428 F380 MS520 214/054 TB0 S031=
LVR EU3803   3255N 00107E 111435 F380 MS510 226/046 TB0 S031=
LVR EU3803   3201N 00110E 111442 F380 MS497 237/054 TB0 S031=
LVR EU3803   3108N 00114E 111449 F380 MS507 238/065 TB0 S031=
LVW EU3803   3015N 00117E 111456 F380 MS522 236/092 TB0 S031=
LVR EU3803   2924N 00120E 111503 F380 MS545 229/090 TB0 S031=
LVR EU3803   2833N 00123E 111510 F380 MS575 235/078 TB0 S031=
LVR EU3803   2741N 00126E 111517 F380 MS552 234/082 TB0 S031=
LVR EU3803   2649N 00129E 111524 F380 MS577 229/086 TB0 S031=
0000011100
542
SPUS31 KWBC 110432
SPECI
KIND 110428Z 16007KT 2SM -RA BR FEW003 BKN010 OVC030 04/04 A2967=

0000011300
543
SPUS41 KWBC 110432
SPECI
KCEF 110430Z AUTO 05001KT 1 1/4SM R23/4500FT BR OVC002 00/00 A3026=

0000009900
544
SPUS42 KWBC 110432
SPECI
KGLS 110428Z AUTO 22008KT 1/4SM FG VV002 16/16 A2988=

0000009300
545
SPUS42 KWBC 110432
SPECI
KRSW 110428Z 10004KT 3SM BR FEW015 20/19 A3010=

0000012500
546
SASA31 KWBC 110400 RRB
METAR
SOCA 110430Z AUTO 27002KT 9999 -RA FEW003 BKN034 BKN043 23/22
     Q1012=

0000015600
547
SAMO31 ZMUB 110430 CCB
METAR COR ZMUB 110430Z VRB01MPS 1000NW 2000SE R14/0650N BR FU NSC
 M26/M30 Q1028 NOSIG RMK QFE662.7 72 NW SE MO=

0000022700
548
SACZ31 LKPW 110430
METAR LKKV 110430Z NIL=
METAR LKMT 110430Z 22007KT CAVOK 02/M00 Q1018 NOSIG=
METAR LKPR 110430Z 21009KT CAVOK 01/M01 Q1017 NOSIG=
METAR LKTB 110430Z 11003KT CAVOK M01/M03 Q1019 NOSIG=

00000000