0000066100
469
FTUS73 KWBC 110427 AAA
TAF AMD
KATY 110424Z 1104/1124 26008KT P6SM SKC
      TEMPO 1109/1113 BKN015
     FM111500 29014KT P6SM SKC
     FM112200 22008KT P6SM SCT250=
KEAU 110424Z 1104/1124 VRB02KT 3SM -SN BR SCT015 OVC035
      TEMPO 1104/1108 1SM -FZDZSN BR BKN015
     FM110800 29007KT 3SM -SN BR BKN007 OVC012
     FM111000 30008KT P6SM SCT012 BKN020
     FM111200 30010KT P6SM SCT020 BKN040
     FM111600 29009KT P6SM BKN020
     FM112200 27006KT P6SM SCT030 SCT250=
KGRI 110426Z 1104/1124 29007KT P6SM SKC
     FM110600 29010KT 4SM BR SCT200
     FM111500 31015G21KT P6SM SKC
     FM111900 28010KT P6SM SKC=

0000025300
470
FTUS75 KWBC 110427 AAA
TAF AMD
PHLI 110423Z 1104/1124 04018G24KT P6SM VCSH FEW010 SCT022 BKN040
      TEMPO 1104/1107 4SM SHRA BKN020
     FM110800 07011KT P6SM VCSH SCT025 SCT040
     FM112100 13010KT P6SM VCSH SCT025 BKN040=

0000030500
471
SANL31 EHDB 110425
METAR EHAM 110425Z 20014KT 7000 FEW007 OVC009 05/04 Q1013 NOSIG=
METAR EHBK 110425Z AUTO 20010KT 9999 NSC 02/01 Q1015=
METAR EHGG 110425Z AUTO 21012KT 4400 BR BKN008 OVC009 06/05 Q1012=
METAR EHRD 110425Z AUTO 20011KT 170V230 5000 BR OVC008 05/04 Q1014
NOSIG=

0000007700
472
SASU01 HSSS 110430
METAR HSSS 110430Z 36009KT CAVOK Q1018=

0000010600
473
SAUS72 KWBC 110400 RRE
METAR
TNCM 110400Z 08009KT 9999 SCT017 24/21 Q1018 A3008 RERA=

0000024200
474
SADL33 EDZO 110420
METAR EDFE 110420Z NIL=
METAR EDFH 110420Z 17006KT 9999 R21/P2000N BCFG FEW010 BKN200 M00/M00
Q1015=
METAR EDFM 110420Z NIL=
METAR EDLV 110420Z 20006KT CAVOK 02/01 Q1015=
METAR EDVK 110420Z NIL=

0000026600
475
SADL34 EDZO 110420
METAR EDLP 110420Z 18004KT CAVOK 03/M01 Q1015=
METAR EDLW 110420Z 19010KT CAVOK 02/M01 Q1015=
METAR EDQM 110420Z AUTO 23012KT 7000NDV BR BKN003/// 01/M00 Q1016=
METAR EDSB 110420Z 18001KT 4000 BCFG BR SCT002 M01/M02 Q1017=

0000067700
476
SANO33 ENMI 110420
METAR ENAT 110420Z AUTO 22005KT 9999NDV OVC001/// M16/M18 Q1019 RMK
           WIND 700FT 17006KT=
METAR ENBL 110420Z NIL=
METAR ENEV 110420Z AUTO 23004KT 190V270 9999NDV NCD M08/M16 Q1015 RMK
           WIND 1400FT 09015KT=
METAR ENFL 110420Z NIL=
METAR ENKB 110420Z AUTO 11003KT 060V170 9999NDV SCT019/// M05/M08
           Q0999=
METAR ENKR 110420Z AUTO 17009KT 1400NDV ///// -SN BKN001/// BKN005///
           OVC015/// M21/M23 Q1016 SEASMOKE NORTH OF THE FIELD RMK
           WIND 775FT 22012KT=
METAR ENML 110420Z NIL=
METAR ENNA 110420Z 20004KT 9999 BKN003 M19/M21 Q1018 RMK WIND 1800FT
           02004KT=

0000060100
477
SANO38 ENMI 110420
METAR ENDR 110420Z AUTO 07026KT M04/M08 Q1001=
METAR ENEK 110420Z 31020KT 9999 FEW020 BKN060 07/04 Q1003 W08/S4=
METAR ENGC 110420Z NIL=
METAR ENHE 110420Z 10029KT 9999 BKN025 M02/M06 Q1002 W///S5=
METAR ENOA 110420Z 29018KT 9999 -RA SCT010 BKN020 04/03 Q0996
           W///S5=
METAR ENSL 110420Z AUTO 29027KT 9999NDV FEW030/// BKN045/// 07/01
           Q1001 W05/S4=
METAR ENFB 110420Z AUTO 08021KT 9999NDV OVC013/// 03/00 Q0996
           W///S5=
METAR ENSF 110420Z AUTO 09022KT 9999NDV BKN016/// BKN035/// 03/00
           Q0996 W///S5=

0000021700
478
SANO37 ENMI 110420
METAR ENNO 110420Z NIL=
METAR ENOV 110420Z NIL=
METAR ENSD 110420Z NIL=
METAR ENSG 110420Z NIL=
METAR ENSN 110420Z NIL=
METAR ENSR 110420Z NIL=
METAR ENSS 110420Z NIL=

0000025100
479
SANO36 ENMI 110420
METAR ENBS 110420Z NIL=
METAR ENHK 110420Z NIL=
METAR ENHV 110420Z NIL=
METAR ENLK 110420Z 07015G25KT 9999 FEW030 M06/M013 Q1013=
METAR ENMH 110420Z NIL=
METAR ENNK 110420Z NIL=
METAR ENNM 110420Z NIL=

0000044000
480
SAFI33 EFHK 110420
EFJO 110420Z AUTO 01013KT 340V050 9999 -SN BKN016 OVC024 M08/M10
Q0996=
EFLP 110420Z AUTO 35011KT 320V040 9999 -SG OVC013 M06/M09 Q0994=
EFMI 110420Z AUTO 36005KT 260V080 9999 -SG OVC013 M07/M08 Q0997=
EFSA 110420Z AUTO 35008KT 310V050 9999 -SG OVC016 M07/M09 Q0995=
EFUT 110420Z AUTO 35013G24KT 9999 OVC012 M06/M08 Q0995=
EFVR 110420Z AUTO 02007KT 350V060 4000 -SN BR OVC016 M07/M10 Q0997=

0000019100
481
SANO34 ENMI 110420
METAR ENBN 110420Z NIL=
METAR ENBV 110420Z NIL=
METAR ENFG 110420Z NIL=
METAR ENHF 110420Z NIL=
METAR ENRA 110420Z NIL=
METAR ENSH 110420Z NIL=

0000028100
482
FTBW31 VGEG 110500
TAF VGEG 110500Z 1106/1212 33008/12KT 4000 HZ NSC
        BECMG 1118/1120 00000KT 3100 HZ NSC
        BECMG 1200/1202 00000KT 0500 FG BKN005
        BECMG 1203/1205 06005/08KT 3200 HZ NSC
        TEMPO 1123/1202 00000KT 0100 FG BKN002=

0000073400
483
SANO39 ENMI 110420
METAR ENNE 110420Z NIL=
METAR ENQR 110420Z AUTO VRB08KT 9999NDV FEW024/// OVC038/// 03/M03
           Q0997 W///S/=
METAR ENSE 110420Z AUTO 08021KT 9999NDV FEW024/// BKN035/// OVC056///
           02/M03 Q0997 W///S5=
METAR ENQC 110420Z AUTO 05010KT 9999NDV FEW028/// BKN130/// 03/00
           Q0996 W///S4=
METAR ENQA 110420Z AUTO 05011KT 9999NDV FEW009/// SCT012/// BKN019///
           03/02 Q0996 W04/S4=
METAR ENHM 110420Z AUTO 26030KT 9999NDV FEW052/// 06/02 Q0998
           W08/S5=
METAR ENVH 110420Z AUTO 31020KT 9999NDV -SHRA BKN026/// 07/04 Q1003
           W///S4=
METAR ENLA 110420Z AUTO 29021KT 9999NDV FEW026/// BKN100/// 07/02
           Q1003 W///S4=

0000054400
484
SANO32 ENMI 110420
METAR ENAL 110420Z NIL=
METAR ENCN 110420Z AUTO 15004KT 110V180 9999NDV SCT027/// BKN110///
           04/03 Q1000=
METAR ENHD 110420Z AUTO 25020KT 9999NDV FEW038/// 06/03 Q0999=
METAR ENRO 110420Z AUTO 08008KT 9999NDV -SN FEW009/// OVC014///
           M17/M19 Q0998=
METAR ENRY 110420Z AUTO 00000KT 9999NDV SCT090/// OVC110/// 01/M00
           Q0997=
METAR ENSB 110420Z NIL=
METAR ENTC 110420Z NIL=
METAR ENTO 110420Z AUTO 22003KT 190V270 9999NDV OVC100/// 01/M00
           Q0997=

0000015300
485
FCRS34 RUMS 110200 AAA
TAF AMD UWOR 110424Z 1104/1112 27006MPS 2000 SN BR OVC006 650060
TEMPO 1104/1109 0500 FZDZ FZFG VV002 640000=

0000018000
486
FTMX65 MMMX 110425 AMD
TAF AMD MMMA 110425Z 1104/1118 00000KT 1/2SM FG VV003 
         FM111400 00000KT 1SM BR BKN015 
         FM111600 34010KT P6SM SCT020=

0000079700
487
SAIY31 LIIB 110420
METAR LIEA 110420Z 04004KT 9000 NSC 06/06 Q1020=
METAR LIEE 110420Z 35004KT CAVOK 06/06 Q1019=
METAR LIEO 110420Z 00000KT 0800 R05/1200V1400N FG NSC 03/03 Q1021=
METAR LIMC 110420Z 20002KT 7000 BKN030 07/06 Q1021 NOSIG=
METAR LIME 110420Z 25004KT 3000 BR BKN040 08/07 Q1021=
METAR LIMF 110420Z 35002KT 7000 BKN030 07/05 Q1021=
METAR LIMJ 110420Z VRB02KT 9999 FEW018 BKN040 12/10 Q1021=
METAR LIML 110420Z 24003KT 6000 SCT005 BKN030 08/07 Q1022 NOSIG=
METAR LIRA 110415Z 00000KT 9999 FEW070 05/05 Q1021=
METAR LIRF 110420Z 05004KT 5000 BR NSC 06/06 Q1022 NOSIG=
METAR LIRN 110420Z VRB01KT 5000 BR SCT030 08/06 Q1022=
METAR LIRP 110415Z 09003KT 9999 BKN045 08/07 Q1022 NOSIG=
METAR LIRQ 110420Z 00000KT 5000 BR FEW020 BKN040 11/11 Q1022=

0000056300
488
SAIY32 LIIB 110420
METAR LIBD 110420Z 23006KT 7000 NSC 06/06 Q1022=
METAR LIBR 110420Z NIL=
METAR LICC 110420Z NIL=
METAR LICJ 110420Z 18003KT 120V220 CAVOK 10/08 Q1021=
METAR LIPE 110420Z 31002KT 1200 R12/1300V1400N BCFG SCT001 BKN050
07/07 Q1022=
METAR LIPH 110420Z NIL=
METAR LIPQ 110420Z 00000KT 0150 R09/0300 FG OVC003 06/04 Q1022=
METAR LIPR 110415Z /////KT 6000 BKN050 08/08 Q1022=
METAR LIPX 110415Z 19001KT 1000 R04/P1500U BR FEW010 BKN045 08/06
      Q1022=
METAR LIPZ 110420Z 00000KT 3500 BR BKN050 08/07 Q1021=

00000000