0000014900
889
FTUS80 KWBC 110333 AAB
TAF AMD
PHNY 110331Z 1104/1124 15006KT P6SM SCT025
     FM112100 23006KT P6SM VCSH BKN025 AMD NOT SKED=

0000148900
890
FTUS80 KWBC 110333 AAA
TAF AMD
KASD 110332Z 1104/1124 16005KT 1SM -RA OVC002
     FM110800 19010KT 1SM BR OVC001
      TEMPO 1108/1112 2SM TSRA OVC006CB
     FM111500 28009KT P6SM SCT250
     FM111700 32010G18KT P6SM SKC=
KCSV 110329Z 1103/1124 19008G15KT 6SM BR OVC003
     FM110500 19008G16KT P6SM BKN015 BKN030
     FM110700 17010G20KT 4SM -SHRA BR OVC002
     FM110900 18012G22KT 2SM SHRA BR OVC002
     FM111500 26010G20KT P6SM OVC015
     FM111800 27010G20KT P6SM BKN050=
KLSE 110330Z 1104/1124 30005KT 2SM -SN BR OVC012
      TEMPO 1104/1106 1 1/2SM -FZDZ BR BKN004
     FM110600 28005KT 4SM BR OVC008
     FM111600 27009KT P6SM BKN015
     FM112100 29012G20KT P6SM SCT040=
KMLI 110331Z 1104/1124 20005KT 6SM BR BKN006 OVC015
      TEMPO 1104/1106 3/4SM -DZ BR OVC003
     FM110600 24005KT 1/4SM -DZ FG OVC002
     FM110900 28011KT 2SM -SN BR OVC004
     FM111400 28011KT 4SM BR VCSH OVC006
     FM111900 29012KT P6SM OVC020=
KMSY 110330Z 1104/1124 16008KT 5SM -RA BR BKN003 OVC006
      TEMPO 1105/1109 2SM TSRA OVC006CB
     FM110900 21012KT 3SM -RA OVC008
     FM111300 25012KT 5SM BR OVC015
     FM111600 30010KT P6SM SCT250=
KONP 110329Z 1103/1124 19022G35KT 2SM -RA BR OVC007
     FM110600 19030G45KT 2SM -RA BR SCT007 OVC015 WS015/21060KT
     FM111200 20030G45KT 1 1/2SM RA BR OVC007
     FM111600 24025G40KT 3SM SHRA BR BKN007 OVC015
     FM112000 24022G37KT 6SM -SHRA SCT012 BKN028 OVC045=

0000011700
891
SPUS31 KWBC 110333
SPECI
KIND 110329Z 15011KT 1/4SM R05L/2000V2600FT -RA FG VV002 04/04
A2967=

0000009300
892
SPUS43 KWBC 110333
SPECI
KFAR 110329Z 23009KT 10SM SCT029 M05/M08 A2946=

0000024100
893
SALJ31 LJLJ 110330
METAR LJLJ 110330Z 28002KT 9999 FEW030 BKN040 06/05 Q1020 NOSIG=
METAR LJMB 110330Z AUTO 00000KT 5000 OVC006/// 03/02 Q1020=
METAR LJPZ 110330Z AUTO VRB01KT 2800 BR BKN003/// OVC050///
09/09 Q1022=

0000009600
894
SALJ32 LJLJ 110330
METAR LJCE 110330Z AUTO 10001KT 0250 FG VV001 03/03 Q1020=

0000030600
895
FTDL31 EDZO 102300 AAA
TAF AMD EDDF 110329Z 1103/1206 VRB03KT 9999 SCT040 PROB40 TEMPO
     1103/1106 0500 BCFG BKN001 BECMG 1106/1108 SCT008 BKN012 TEMPO
     1107/1118 3000 -RA BR SCT004 BKN007 BECMG 1112/1114 23007KT
     BECMG 1118/1120 SCT025 PROB30 TEMPO 1203/1206 4000 MIFG=

0000008900
896
SPIS31 LLBG 110330
SPECI LLSD 110330Z 11005KT 9999 SCT032 12/11 Q1021=

0000010300
897
SANT31 KWBC 110300 RRB
METAR
BIKF 110330Z 26014KT 9999 FEW045 BKN100 02/M05 Q0994=

0000025500
898
SAFR21 LFPW 110330
METAR LFOA 110330Z AUTO 16003KT 9999 NSC 07/05 Q1015=
METAR LFPC 110330Z AUTO 00000KT 0650 R25/1800N FG VV/// 05/04 Q1016=
METAR LFPV 110330Z AUTO 00000KT 1000 0900 R27///// R09/1900U -RA
BCFG VV/// 05/05 Q1016=

0000010200
899
SPCN51 CWAO 110333
SPECI CWCL 110333Z AUTO 15003KT 9SM BKN004 BKN019 M03/M07 A2957=

0000008800
900
SPCN44 CWAO 110333
SPECI CYUS 110333Z AUTO 22012KT FEW018 M34/ A2947=

0000045600
901
SAFR22 LFPW 110330
METAR LFBC 110330Z AUTO VRB02KT 9999 OVC014 08/07 Q1017=
METAR LFBG 110330Z AUTO 16004KT 9000 NSC 08/07 Q1016=
METAR LFBM 110330Z AUTO VRB01KT 6000 OVC022 09/09 Q1017=
METAR LFKS 110330Z AUTO VRB02KT 9999 FEW025 OVC034 12/08 Q1021=
METAR LFMO 110330Z AUTO 02001KT 5000 BR OVC032 08/07 Q1020=
METAR LFMY 110330Z AUTO 12004KT 080V190 9999 OVC027 11/07 Q1020=
METAR LFBY 110330Z NIL=
METAR LFMC 110330Z NIL=

0000034600
902
SARO31 LROM 110330
METAR LRBS 110330Z 28003KT CAVOK 00/M01 Q1021 NOSIG=
METAR LRCK 110330Z 26009KT 2000 BR NSC 02/02 Q1020 NOSIG=
METAR LROP 110330Z 24005KT CAVOK M01/M02 Q1020 8819//95 NOSIG=
METAR LRSB 110330Z 28004KT 200V300 CAVOK M01/M04 Q1021 NOSIG=
METAR LRTR 110330Z 09006KT 4000 BR SCT048 00/M00 Q1022 11190095=

0000039000
903
SAFR23 LFPW 110330
METAR LFOC 110330Z AUTO 07004KT 360V090 2600 BR OVC002/// ///TCU
06/05 Q1015=
METAR LFOE 110330Z AUTO VRB02KT 1600 BR OVC003 05/05 Q1016=
METAR LFOJ 110330Z AUTO 05005KT 2600 BR OVC002/// ///TCU 05/05
Q1016=
METAR LFRJ 110330Z AUTO 20007KT 9999 BKN041 07/06 Q1015=
METAR LFRL 110330Z AUTO 19004KT 7000 // FEW024 SCT034 BKN044 08/07
Q1016=

0000036900
904
SARO32 LROM 110330
METAR LRAR 110330Z NIL=
METAR LRBM 110330Z AUTO 04002KT 3300 BR BKN018 BKN230 00/00 Q1021=
METAR LRCL 110330Z 26004KT 9999 SCT066 M01/M02 Q1020=
METAR LROD 110330Z AUTO 13004KT 9999 FEW060 00/M01 Q1022=
METAR LRSM 110330Z AUTO 21006KT 9999 NCD M01/M01 Q1020=
METAR LRTM 110330Z 00000KT 4600 BR NSC M02/M02 Q1021 0719//95=

0000026600
905
SAFR24 LFPW 110330
METAR LFSI 110330Z AUTO 09003KT 9999 -RA ///TCU 04/03 Q1016=
METAR LFSO 110330Z AUTO 02002KT 6000 NSC 03/02 Q1016=
METAR LFSX 110330Z AUTO 07005KT 9999 NSC 02/01 Q1016=
METAR LFYR 110330Z AUTO VRB01KT 9999 NSC 04/04 Q1015=

0000034400
906
SARO33 LROM 110330
METAR COR LRBC 110330Z 28008KT CAVOK M01/M08 Q1018 16320194=
METAR LRCV 110330Z AUTO 26006KT 9999 NCD 01/M01 Q1021=
METAR LRIA 110330Z AUTO VRB02KT 9999 BKN061 SCT077 04/M01 Q1017=
METAR LRSV 110330Z AUTO 28008KT 9999 FEW050 01/M03 Q1016=
METAR LRTC 110330Z AUTO 24006KT 5000 BR OVC070 03/01 Q1020=

0000054800
907
SAFR31 LFPW 110330
METAR LFLL 110330Z 12006KT 080V150 9999 SCT021 BKN150 10/06 Q1017
NOSIG=
METAR LFMN 110330Z 33010KT 9999 OVC036 10/05 Q1021 NOSIG=
METAR LFPG 110330Z 16003KT 5000 -RA BR FEW001 BKN040 05/05 Q1016
TEMPO 4000 BR=
METAR LFPO 110330Z 00000KT 2500 -RA BR BKN004 OVC053 06/05 Q1016
TEMPO BKN002=
METAR LFRB 110330Z 18007KT 2000 BR FEW006 SCT025 BKN040 07/07
Q1015 NOSIG=
METAR LFRS 110330Z AUTO 00000KT 1200 0750 R03/2000D R21///// BCFG
BKN012 BKN024 BKN062 07/07 Q1015=
METAR LFQQ 110330Z NIL=

0000009600
908
SAKO31 RKSI 110330
METAR RKSI 110330Z 17004KT 9999 SCT040 01/M13 Q1032 NOSIG=

00000000