0000103400
569
SANL33 EHDB 110425
METAR EHAK 110425Z AUTO 26020KT 7000 -RADZ FEW002/// SCT003///
BKN004/// 07/07 Q1004=
METAR EHDV 110425Z AUTO 25018KT 8000 -RA FEW003/// SCT004///
BKN005/// 08/07 Q1006 RERA REDZ=
METAR EHFD 110425Z AUTO 24031KT 8000 -DZ FEW003/// SCT004///
BKN005/// 07/07 Q1005 REDZ=
METAR EHFZ 110425Z AUTO 22023KT //// // ///////// 08/07 Q1008 RE//=
METAR EHJA 110425Z AUTO 22025KT 8000 -RADZ FEW005/// SCT007///
BKN008/// 07/07 Q1008=
METAR EHJR 110425Z NIL=
METAR EHKV 110425Z AUTO 24027KT 9999 -RA FEW011/// SCT026///
BKN045/// 09/06 Q1009 RERA REDZ=
METAR EHMA 110425Z AUTO 21020KT 4600 -RA FEW005/// BKN007///
OVC008/// 07/06 Q1010 RERA REDZ=
METAR EHMG 110425Z AUTO 24023KT 9000 -DZ FEW007/// SCT012///
BKN016/// 08/07 Q1009 REDZ=
METAR EHPG 110425Z AUTO ///26KT 7000 -RA FEW007/// BKN009///
BKN013/// 09/07 Q1011 RERA REDZ=
METAR EHQE 110425Z AUTO 24024KT 8000 -DZ FEW008/// SCT029///
BKN034/// 09/06 Q//// REDZ=
METAR EHSA 110425Z NIL=
METAR EHSC 110425Z NIL=

0000050800
570
SAGR33 LGAT 110420
METAR LGBL 110420Z 26006KT 9999 FEW020 BKN180 05/03 Q1022 NOSIG=
METAR LGHI 110420Z NIL=
METAR LGKC 110420Z NIL=
METAR LGKF 110420Z AUTO 09004KT //// // ////// 13/09 Q1022
     RE//=
METAR LGKP 110420Z 02003KT 9999 FEW030 11/08 Q1021=
METAR LGKZ 110420Z AUTO VRB02KT //// // ////// 05/00 Q1021
     RE//=
METAR LGMK 110420Z NIL=
METAR LGNX 110420Z NIL=
METAR LGPA 110420Z AUTO VRB03KT //// // ////// 12/10 Q1020
     RE//=
METAR LGSO 110420Z NIL=

0000025300
571
SADL36 EDZO 110420
METAR ETMN 110420Z 24012KT 4000 BR BKN008 06/05 Q1011
      GRN=
METAR ETNL 110420Z 23006KT 9999 BKN012 BKN017 05/03 Q1011
      GRN=
METAR ETSI 110420Z AUTO 07002KT 1700 // ////// M04/M04 Q1018
      ///=

0000146200
572
FTBZ42 KWBC 110424
TAF
TAF SBMA 110400Z 1106/1118 00000KT 9999 FEW015 TN23/1107Z
      TX30/1117Z PROB30 1106/1108 5000 TS SCT010 FEW025CB
      BECMG 1110/1112 34003KT SCT020 BEC MG 1114/1116 10005KT RMK
      PEH=
TAF SBMN 110400Z 1106/1206 09003KT 9999 SCT010 TN23/1107Z
      TX30/1117Z
      BECMG 1108/1110 16003KT
      BECMG 1112/1114 13005KT SCT015
      BECMG 1116/1118 090 05KT SCT020 FEW025TCU PROB30 1118/1120
      TS
      SCT020 FEW025CB
      BECMG 1122/1124 07003KT FEW015 RMK PEH=
TAF SBMQ 110400Z 1106/1206 36005KT 9999 FEW015 TN24/1107Z
      TX35/1116Z
      BECMG 1109/1111 06005KT 5000 BKN010
      BECMG 1113/1115 08005KT SCT020
      BECMG 1 121/1123 05005KT FEW015
      BECMG 1203/1205 01005KT RMK PEH=
TAF SBPV 110400Z 1106/1206 00000KT 9999 FEW015 TN23/1107Z
      TX31/1118Z
      BECMG 1111/1113 36005KT BKN015
      BECMG 1116/1118 SCT020 FEW025TCU PROB30 111 9/1122 5000 TS
      SCT020 FEW025CB
      BECMG 1122/1124 00000KT FEW015 RMK PEH=
TAF SBRB 110400Z 1106/1206 00000KT 9999 FEW015 TN23/1107Z
      TX29/1118Z
      BECMG 1108/1110 36003KT 5000 BR BKN005
      BECMG 1111/1113 34005KT 9999 SCT015
      BECMG 1116/1118 30005KT SCT020 FEW025TCU
      BECMG 1121/1123 36003KT FEW 020 RMK PEH=
TAF SBTE 110400Z 1106/1118 00000KT CAVOK TN24/1107Z TX34/1117Z
      BECMG 1110/1112 17005KT SCT015
      BECMG 1114/1116 20005KT SCT030 RMK PEH=

0000020700
573
FTBZ43 KWBC 110424
TAF
TAF SBTF 110400Z 1106/1118 00000KT 9999 FEW010 TN24/1112Z
      TX31/1117Z
      BECMG 1111/1113 16005KT BKN010
      BECMG 1115/1117 09005KT SCT020 RMK PEH=

0000051000
574
FTSA41 KWBC 110424
TAF
TAF SKBG 110400Z 110606 VRB02KT 9999 FEW017 SCT200 PROB30
      TEMPO 1110/1112 7000 MIFG SCT010
      TEMPO 1117/1123 32006KT FEW018 PROB40 1120/1123 SCT015
      TX25/1118Z TN18/1111Z=
TAF SKPE 110400Z 110606 VRB02KT 9999 SCT015 SCT090
      TEMPO 1108/1112 8000 VCFG SCT010 PROB30 1110/1113 3000 BR
      SCT008
      TEMPO 1115/1118 BKN015
      TEMPO 1119/1123 25006KT SCT018TCU PROB40 1119/1122 8000 DZRA
      SCT017CB TX25/1119Z TN17/1111Z=

0000054100
575
FTUS51 KWBC 110424 AAA
TAF AMD
KACY 110423Z 1104/1124 14006KT P6SM -SHRA BKN040 OVC060
     FM110600 16010KT 2SM -SHRA BR BKN004 OVC010 WS020/19050KT
     FM111500 18015G25KT 1SM RA BR BKN003 OVC010 WS020/21050KT=
KRWI 110423Z 1104/1124 VRB02KT 3SM -RADZ BR SCT020 BKN070 OVC090
      TEMPO 1104/1106 1SM RADZ SCT005 OVC020
     FM110600 VRB02KT 1/2SM -DZ FG VV002 WS010/18035KT
     FM111000 18010KT 6SM BR OVC008
     FM111300 19013G24KT P6SM BKN009 OVC020
     FM111700 20017G28KT 5SM -SHRA BR BKN012=

0000019200
576
FTUS54 KWBC 110424 AAA
TAF AMD
KABR 110422Z 1104/1124 27008KT P6SM SKC
      TEMPO 1107/1111 BKN015
     FM111500 29015KT P6SM SKC
     FM112000 22008KT P6SM SCT250=

0000181200
577
SPUS70 KWBC 110424
SPECI
KAAO 110420Z AUTO 30010KT 10SM SCT008 OVC080 02/02 A2970 RMK
     AO2=
KAND 110420Z AUTO 08006KT 1 3/4SM BR OVC004 08/08 A3006 RMK AO2
     P0001=
KEWN 110420Z AUTO 15009KT 7SM -RA BKN008 BKN011 OVC019 19/18 A3012
     RMK AO2 LTG DSNT SE RAB0355 P0012=
KMSS 110421Z AUTO 07003KT 7SM BKN029 OVC050 M03/M05 A3011 RMK
     AO2=
KOGB 110420Z AUTO 00000KT 4SM BR OVC003 13/12 A3009 RMK AO2
     T01330122 TSNO=
KUZA 110420Z AUTO 03005KT 1 3/4SM -RA BR OVC004 06/06 A3009 RMK
     AO2 CIG 002V006 P0000 T00610056=
PATQ 110420Z AUTO 28007KT 10SM SCT008 OVC011 M28/M31 A2985 RMK AO2
     TSNO=
PATQ 110420Z AUTO 28007KT 10SM SCT008 OVC011 M28/M31 A2985 RMK AO2
     TSNO=
KCEU 110421Z AUTO 05003KT 3/4SM BR VV002 09/08 A3007 RMK AO2
     RAE0356 P0000=
KCGI 110421Z AUTO 17008KT 6SM -RA BR BKN019 OVC075 08/07 A2966 RMK
     AO2 P0003 T00780072=
KCRE 110421Z 19005KT 1SM BR VV005 16/16 A3012 RMK AO2=
KDYL 110421Z AUTO 02003KT 2SM UP BR OVC002 00/00 A3019 RMK AO2
     P0004 T00000000 $=
KMIV 110421Z AUTO 13005KT 2SM BR OVC070 08/08 A3018 RMK AO2
     T00830083=
KOTM 110421Z AUTO 29014KT 7SM SCT005 OVC037 01/00 A2953 RMK AO2
     T00110000 TSNO=
KPYM 110421Z AUTO VRB04KT 2 1/2SM BR OVC003 04/03 A3028 RMK AO2
     T00390028=
KRHI 110421Z AUTO 02003KT 4SM -SN BR FEW015 OVC031 M04/M04 A2944
     RMK AO2 P0000 T10391044=
KSTJ 110421Z AUTO 28003KT 8SM BKN008 OVC016 01/00 A2963 RMK AO2
     CIG 007V011 T00110000=
KTXK 110421Z AUTO 31019G26KT 10SM SCT008 BKN015 OVC019 16/15 A2976
     RMK AO2 PK WND 30026/0421=
KUNO 110421Z AUTO 25007KT 10SM BKN009 OVC014 08/08 A2964 RMK AO2
     CIG 008V012 T00830078=
PASC 110421Z 24018KT 1SM R05/6000VP6000FT -SN BR OVC010 M27/M31
     A2981 RMK AO2 P0000=

0000009900
578
SPUS41 KWBC 110424
SPECI
KABE 110420Z 06003KT 1/2SM -RA BR OVC006 01/00 A3020=

0000010400
579
SPUS41 KWBC 110424
SPECI
KMSS 110421Z AUTO 07003KT 7SM BKN029 OVC050 M03/M05 A3011=

0000012200
580
SPUS41 KWBC 110424
SPECI
KWRI 110422Z AUTO 09003KT 1 1/4SM R06/2400FT BR BKN003 OVC033
04/04 A3019=

0000009300
581
SAGR31 LGAT 110420 RRA
METAR LGKO 110420Z 13005KT 9999 BKN025 10/08 Q1020=

0000013500
582
SAUK31 EGGY 110420 CCA
METAR COR EGLL 110420Z 22009KT 9999 FEW017 BKN022 09/07 Q1012 TEMPO
     4000 -RADZ BKN010=

0000019000
583
FTUS80 KWBC 110424
TAF
TAF AMD KEVW 110419Z 1104/1124 25026G40KT P6SM SCT040 BKN060
     FM110900 22020G33KT P6SM BKN060
     FM112000 22028G44KT P6SM SCT050 BKN120=

0000131500
584
FTUS80 KWBC 110424 AAA
TAF AMD
KABR 110422Z 1104/1124 27008KT P6SM SKC
      TEMPO 1107/1111 BKN015
     FM111500 29015KT P6SM SKC
     FM112000 22008KT P6SM SCT250=
KACY 110423Z 1104/1124 14006KT P6SM -SHRA BKN040 OVC060
     FM110600 16010KT 2SM -SHRA BR BKN004 OVC010 WS020/19050KT
     FM111500 18015G25KT 1SM RA BR BKN003 OVC010 WS020/21050KT=
KMSP 110422Z 1104/1206 17007KT 3SM BR OVC008
      TEMPO 1104/1108 1SM -FZDZ BR OVC005
     FM110800 26005KT 4SM BR BKN009
     FM111000 28008KT P6SM SCT015
     FM111200 29012KT P6SM SCT250
     FM111600 30012KT P6SM SCT025 BKN040
     FM112000 27008KT P6SM SCT040 SCT250
     FM120200 23004KT P6SM SCT250=
KRDU 110422Z 1104/1124 VRB02KT 2SM -RADZ BR OVC002 WS018/19030KT
     FM110500 VRB03KT 1/2SM -DZ FG VV002 WS014/19035KT
     FM111300 18010KT P6SM OVC006
     FM111500 19014G22KT P6SM BKN009 OVC020
     FM111700 20017G28KT 5SM -SHRA BR BKN012 OVC025
     FM112200 25016G23KT P6SM FEW025 BKN100=
KRWI 110423Z 1104/1124 VRB02KT 3SM -RADZ BR SCT020 BKN070 OVC090
      TEMPO 1104/1106 1SM RADZ SCT005 OVC020
     FM110600 VRB02KT 1/2SM -DZ FG VV002 WS010/18035KT
     FM111000 18010KT 6SM BR OVC008
     FM111300 19013G24KT P6SM BKN009 OVC020
     FM111700 20017G28KT 5SM -SHRA BR BKN012=

0000025300
585
FTHW31 KWBC 110427 AAA
TAF AMD
PHLI 110423Z 1104/1124 04018G24KT P6SM VCSH FEW010 SCT022 BKN040
      TEMPO 1104/1107 4SM SHRA BKN020
     FM110800 07011KT P6SM VCSH SCT025 SCT040
     FM112100 13010KT P6SM VCSH SCT025 BKN040=

0000018000
586
FTMX41 KWBC 110427 AAA
TAF AMD
TAF AMD MMMA 110425Z 1104/1118 00000KT 1/2SM FG VV003
     FM111400 00000KT 1SM BR BKN015
     FM111600 34010KT P6SM SCT020=

0000027800
587
FTUS51 KWBC 110427 AAA
TAF AMD
KMIV 110426Z 1104/1124 13005KT 1/2SM FG SCT003 OVC070
      TEMPO 1104/1107 2SM -SHRA BR OVC003
     FM110700 16005KT 2SM -RA BR BKN004 OVC010 WS020/20050KT
     FM111500 19013G24KT 1SM RA BR BKN003 OVC010 WS020/21050KT=

0000019200
588
FTUS54 KWBC 110427 AAA
TAF AMD
KATY 110424Z 1104/1124 26008KT P6SM SKC
      TEMPO 1109/1113 BKN015
     FM111500 29014KT P6SM SKC
     FM112200 22008KT P6SM SCT250=

00000000