0000036400
300
SXXX32 EUMS 111557
22E595B6
:PRS 1 /1 M 2993 2980 2988 2994 2984 2984 2951 2968 2975 2983 3016 3006 3038 3031 3003 3038 3006 3018 3037 3011 3033 3063 3038 3073 3027 3049 3095 3079 3122 :RAD 1 /3 6169 6171 6185 6207 6208 6211 6230 6250 6263 6264 :ENC 2 /5 4283 4284 4327 4327 4356 4394 :SW1 57 /60 60 :SW2 27 /60 60 :BAT 14 /15 12.6 :NAME 22E595B6
0000044500
301
SXXX32 EUMS 111558
32BD7124
:PRS 1 /1 1764 1767 1771 1775 1780 1782 1786 1790 1800 1805 1807 1807 1808 1808 1811 1813 1814 1819 1819 1819 1823 1822 1824 1827 1827 1827 1827 1827 1826 1828 :RAD 3 /3 7558 7570 7583 7592 7597 7602 7604 7609 7611 7615 7623 7635 7647 7652 7653 7647 7641 7645 7649 7661 :ENC 3 /5 4556 4579 4592 4598 4605 4609 4622 4644 4651 4640 4640 4652 :SW1 59 /60 0 :SW2 29 /60 2 :BAT 14 /15 12.4 :NAME 32BD7124
0000018400
302
FTIN90 VILK 111500
TAF VIBN 111500Z 1118/1203 05004KT 0800 MIFG SCT020 BKN100 BECMG
1200/1202 VRB02KT 0200 FG VV/// TEMPO 1118/1203 1000 RA/TSRA
FEW030CB OVC090=

0000008900
303
SAIN90 VOML 111600
METAR VOML 111600Z 35005KT 6000 NSC 25/21 Q1013 NOSIG=
0000008900
304
SAIN90 VOBL 111600
METAR VOBL 111600Z 13005KT 8000 NSC 24/15 Q1019 NOSIG=
0000009200
305
SAIN90 VOCB 111530
METAR VOCB 111530Z 00000KT 5000 HZ NSC 24/14 Q1016 NOSIG=
0000009200
306
SAIN90 VOCB 111600
METAR VOCB 111600Z 09005KT 5000 HZ NSC 24/14 Q1016 NOSIG=
0000070100
307
SXXX32 EUMS 111558 RRA
223412A2
OT12 ID:IND-SADENG DT:2014 01 11 15 57
:PRS /1 01252 01233 01232 01153 01240 01231 01220 01245 01313 01274 01160 01208 01085 01151 01177 01275 01245 01286 01210 01180 01220 01188 01206 01227 01153 01178 01192 01245 01151 01106
:ENC /1 -13523 -13519 -13516 -13553 -13496 -13476 -13519 -13499 -13463 -13476 -13506 -13496 -13603 -13589 -13559 -13506 -13479 -13466 -13549 -13573 -13543 -13583 -13523 -13499 -13559 -13526 -13519 -13473 -13549 -13569
:RAD /1 11002 10969 10964 10946 10978 11014 10972 10978 10978 10960 10986 11011 10947 10889 10907 10952 10989 10975 10932 10890 10880 10881 10901 10901 10894 10912 10932 10954 10885 10884
:BAT 11.9V
0000023800
308
SNVD17 KWNB 111600 RRB
BBXX
46061 11161 99602 71468 46/// /2901 10019 49864 58016 91550 22200
00041 11102 20301 300// 41102 70012 333 91202 555 11008 22008
31450 43003 61549 286009 263008 228011 247012 269009 305015=
0000016700
309
SOVI10 KWAL 111601
B110070A 011160101"P9751095 B\P~W@@v0ekO1@oN???ECDu>@o_3@XD@@y4DX5Da6b]9HM2?????@"??? ?TOzL@Y@T@R@V@V@Z:AMPTEMP 31.47C  51+0NN 219E
0000034300
310
SABN31 OBBI 111600
METAR OBBI 111600Z 18005KT CAVOK 17/13 Q1020 NOSIG=
METAR OEDF 111600Z 28006KT 7000 SKC 15/10 Q1020 NOSIG=
METAR OEDR 111600Z 29009KT 9999 FEW040 SCT080 16/12 Q1018 NOSIG=
METAR OTBD 111600Z VRB02KT 9999 FEW018 BKN120 9999 17/12 Q1021 RERA
NOSIG=
METAR OKBK 111600Z 28003KT CAVOK 12/09 Q1019 NOSIG=
0000003900
311
UAPF01 NTAA 111600
NIL=
0000020300
312
SOBR10 KWAL 111601
BAB00078 011160111":BUB 2 #1       M   0.599   0.559   0.619 :RAD 1 #1   0.529   0.501   0.527   0.524 :PRS 1 #1  -0.796  -0.792  -0.790  -0.783 :BL 11.93  36+0NN 219E
0000015700
313
SSVX13 LFPW 111600
ZZYY 16591 11014 1600/ 343341 064910 6113/ 11119 40162 57014 22219
 00114 444 20130 11014 1600/ 50101 80118 80018 9/015=
0000015700
314
SSVX13 LFPW 111600
ZZYY 14920 11014 1600/ 328508 067382 6113/ 11119 40236 52009 22219
 00227 444 20130 11014 1600/ 50101 80122 80015 9/015=
0000011800
315
SNVF25 LFPW 111600
BBXX
BATFR23 11164 99413 10066 46/// /0105 10139 20102 40203 53003
22234 00137=
0000015700
316
SSVX13 LFPW 111600
ZZYY 41970 11014 1600/ 730897 058793 6113/ 11119 40304 57012 22219
 00216 444 20130 11014 1600/ 50101 80118 80061 9/015=
0000018400
317
SSVX13 LFPW 111600
ZZYY 41736 11014 1600/ 712013 040323 6113/ 11119 40153 57006 22219
 00257 33300 88872 20000 43603 444 20130 11014 1600/ 50101 80112
 80019 9/015=
0000015700
318
SSVX13 LFPW 111600
ZZYY 44740 11014 1600/ 730633 030622 6113/ 11119 40176 57006 22219
 00203 444 20130 11014 1600/ 50101 80118 80019 9/015=
0000018400
319
SSVX13 LFPW 111600
ZZYY 41734 11014 1600/ 705267 039046 6113/ 11119 40121 57008 22219
 00266 33300 88872 20000 43603 444 20130 11014 1600/ 50101 80118
 80015 9/015=
00000000