0000045500
082
SAIN31 VABB 111540
METAR VAAH 111540Z 04005KT 3000 HZ NSC 17/08 Q1019 NOSIG=
METAR VABB 111540Z 04007KT 3000 FU NSC 21/06 Q1016 NOSIG=
METAR VANP 111540Z 03005KT 4000 HZ NSC 19/14 Q1017 NOSIG=
METAR VOHS 111540Z 11003KT 5000 HZ SCT020 21/15 Q1018 NOSIG=
METAR VOMM 111540Z 08005KT 6000 NSC 23/19 Q1015 NOSIG=
METAR VOTR 111540Z 09009KT 5000 HZ NSC 24/20 Q1015 NOSIG=
METAR VOTV 111540Z 00000KT 4000 HZ FEW015 27/23 Q1013 NOSIG=
0000010400
083
SACY41 EGRR 111550
METAR LCRA 111550Z 30011KT 9999 FEW045 BKN200 16/09 Q1022 BLU NOSIG==
0000045200
084
SXXX32 EUMS 111546 RRX
1227146C
:PRS 1 /1 3387 3392 3399 3406 3411 3416 3421 3427 3432 3436 3441 3448 3450 3453 3456 3460 3462 3465 3469 3472 3477 3482 3485 3486 3491 3499 3505 3505 3512 3517 :RAD 3 /3 3385 3398 3414 3433 3438 3451 3458 3475 3485 3503 3513 3521 3535 3552 3561 3577 3587 3589 3613 3617 :ENC 1 /5 4157 4185 4207 4223 4243 4266 4286 4305 4326 4350 4367 4385 :SW1 47 /60 0 :SW2 17 /60 25 :BAT 14 /15 12.2 :NAME 1227146C /
0000042100
085
SXXX32 EUMS 111546 RRX
26CB10AC
:PRS 1 /1 -1339 -1339 -1339 -1339 -1339 -1339 -1339 -1339 -1339 -1339 -1339 -1339 -1339 -1341 -1339 -1339 -1339 -1339 -1339 -1339 -1339 -1339 -1339 -1339 -1339 -1339 -1339 -1339 -1340 -1339 :RAD 3 /3 6299 6296 6292 6290 6285 6280 6272 6267 6264 6260 :RA2 3 /3 6282 6280 6275 6275 6267 6268 6254 6253 6247 6246 :SW1 47 /60 0 :SW2 17 /60 0 :BAT 14 /15 12.3 :NAME 26CB10AC /
0000053600
086
SXXX32 EUMS 111546 RRX
3246B586
:PRS 1 /1 13263 13714 13714 13714 13714 13714 13714 13714 13231 13714 13714 13714 13693 13714 13714 :RAD 3 /3 7070 7065 7067 7069 7065 7060 7064 7072 7070 7062 :ENC 10 /15 5280 5280 :SW1 47 /60 0 :SW2 17 /60 0 :WTP 1 /15 -4.3 :BAT 13 /15 12.9 :WAV 6 /10 1.8 2.2 2.4 :DAV 6 /10 107 100 110 :WMX 6 /10 2.8 3.7 3.4 :TPA 1 /15 27.8 :TMN 226 /720 25.8 :TMX 226 /720 29.2 :HUM 1 /15 79.2 :PRA 1 /15 1011.6 :RAC 46 /60 0.0 :RDU 46 /60 0 :RIN 46 /60 0.0 :DAC 946 /1440 10.9 :DDR 946 /1440 16460
0000029100
087
SXXX32 EUMS 111548 RRX
269375AE
OT12 ID:FI-STAN-07 DT:2014 01 11 15 38
:RAD /1 07023 07021 07029 07027 07031 07026 07032 07028 07029 07036 07034 07033 07035 07038 07039 07046 07041 07049 07049 07054 07051 07054 07057 07060 47072 07069 07077 07076 07082 07092
:BAT 13.2V
0000037900
088
SXXX32 EUMS 111548 RRX
12FD90D0
:PRS 1 /1 1169 1160 1139 1142 1116 1117 1096 1090 1082 1067 1056 1069 :RAD 1 /3 5683 5655 5637 5635 5648 5666 5690 5714 5733 5734 :ENC 3 /6 5409 5355 5372 5416 5465 5452 5442 5468 5472 5451 :RA2 3 /6 4566 4516 4540 4585 4628 4605 4583 4599 4595 4574 :SW1 48 /60 60 :SW2 18 /60 60 :BAT 5 /6 12.6 :WTP 5 /6 28.5 28.5 :NAME 12FD90D0
0000045200
089
SXXX32 EUMS 111548 RRX
22856700
:PRS 1 /1 3091 3094 3095 3098 3101 3104 3110 3112 3114 3113 3113 3121 3127 3131 3138 3141 3143 3146 3148 3156 3162 3164 3166 3172 3178 3178 3182 3183 3185 3190 :RAD 1 /3 6607 6616 6625 6636 6649 6661 6675 6687 6698 6709 6721 6730 6740 6753 6766 6780 6792 6804 6816 6829 :ENC 3 /5 4794 4808 4831 4848 4869 4887 4909 4924 4946 4971 4988 5013 :SW1 48 /60 0 :SW2 18 /60 14 :BAT 14 /15 12.5 :NAME 22856700 /
0000045300
090
SXXX32 EUMS 111548 RRX
32D8A2BE
:PRS 1 /1 1950 1950 1949 1940 1943 1940 1938 1932 1935 1933 1930 1921 1928 1928 1924 1923 1923 1917 1917 1916 1920 1913 1913 1916 1913 1903 1909 1902 1904 1907 :RAD 1 /3 7524 7519 7512 7504 7502 7496 7492 7484 7486 7483 7477 7473 7465 7456 7447 7439 7434 7428 7421 7420 :ENC 3 /5 4949 4936 4930 4921 4913 4910 4902 4894 4880 4866 4857 4850 :SW1 48 /60 60 :SW2 18 /60 60 :BAT 14 /15 12.4 :NAME 32D8A2BE /
0000048200
091
SXXX32 EUMS 111549 RRX
262AD2C2
OT12 ID:PK-ORMA-10 DT:2014 01 11 15 48
:PRS /1 08218 08221 08225 08224 08227 08254 08239 08217 08244 08213 08224 08217 08250 08245 08259 08223 08260 08235 08235 08231 08230 08224 08246 08246 08235 08246 08217 08234 08243 08219
:RAD /1 ///// ///// ///// ///// ///// ///// ///// ///// ///// ///// ///// ///// ///// ///// ///// ///// ///// ///// ///// ///// ///// ///// ///// ///// ///// ///// ///// ///// ///// /////
:BAT 12.7V/
0000065100
092
SXXX32 EUMS 111549 RRX
18D74682
OT12 ID:ZA-GOUG-13 DT:2014 01 11 15 48
:RAD /3 21164 21174 21183 21179 21183 21143 21159 21165 21157 21165 21176 21171 21182 21176 21168 21182 21158 21186 21158 21154 21455 21182 21162 21162 21181 21171 21193 21186 21176 21171 21146 21167 21137 21188 21177 19718 21162 21173 21178 21185 21176 21176 20884 21186 21182 21193 21187 21187 21158 21357 01662 21191 21176 21171 21182 21176 21185 21176 21182 21197 21178 21188 21183 21203 21178 21193 21186 21186 21193 21188 21187 21201 21197 21194 21197 21188 01263 21197 21157 21187 01480 21202 21191 03673 21196 21201 21221 18436 01769 21185
:BAT 14.3V
0000069800
093
SXXX32 EUMS 111549 RRX
26A63714
NT12 ID:CO-PNTN-06 DT:2014 01 11 15 39
:RQD /1 01075 01119 01099 0/091 01102 01083 01071 11047 01084 01089 01083 01077 01111 01103 01106 01087 01101 01066 01061 01050001058 01029 01027 01031 01050001044 01037 01029 01030 00994
:QR1 /1 ///// ///// ///// ///// ///// ?//// ///// ///// ///// ///// ///// ///// ///// ///// ///// ///// ///// ///// ///// ///// ///// ///// ///// ///// ///// ///// ///// ///// ///// /////
:PR2 /1 ///// ///// ///// ///?/ ///// ///// ///// ///// ///// ///// ///// ///// ///// ///// ///// ///// ///// ///// ///// ///// ///// ///// ///// ///// ///// ///// ///// ///// ///// /////
:TM1 /15 /// /// /// ///
:BAT 12.3V
0000036900
094
SXXX32 EUMS 111551 RRX
12FFB3C8
:PRS 1 /1 M 2918 2915 2911 2924 2924 2931 2934 2929 2919 2924 2925 2920 2921 2911 2911 2901 2906 2909 2908 2899 2895 2894 2894 2903 2905 2916 2916 2920 2936 :RAD 1 /3 5857 5861 5858 5852 5844 5842 5841 5850 5867 5885 :ENC 1 /5 -144 -144 -144 -144 -144 -144 :SW1 51 /60 0 :SW2 21 /60 60 :BAT 14 /15 14.2 :NAME 12FFB3C8 /
0000039900
095
SXXX32 EUMS 111551 RRX
16590056
:PRS 1 /1 2515 2509 2501 2500 2491 2482 2477 2461 2453 2448 2445 2448 :RAD 1 /1 6727 6717 6707 6703 6693 6685 6676 6661 6653 6647 6642 6647 6650 6651 6655 6668 6674 6678 :ENC 6 /6 4880 4872 4897 4876 4849 4847 4871 4842 4831 4827 :ENB 6 /6 4875 4870 4894 4874 4847 4848 4870 4840 4830 4828 :SW1 51 /60 12 :SW2 18 /60 21 :BAT 5 /6 12.5 :NAME 16590056
0000069800
096
SXXX32 EUMS 111551 RRX
3601E29A
OT12 ID:DJ-BOUT-08 DT:2014 01 11 15 41
:RAD /1 02273 02268 02269 02272 02266 02267 02268 02267 02276 02279 02278 02273 02280 02280 02281 02273 02281 02281 02285 02293 02285 02283 02289 02282 02285 02286 02280 02283 02291 02287
:PR1 /1 02576 02582 02584 02591 02581 02584 02585 02585 02587 02592 02594 02593 02592 02597 02591 02591 02607 02597 02600 02602 02599 02604 02600 02584 02599 02598 02597 02604 02614 02599
:PR2 /1 00816 00818 00823 00817 00809 00820 00821 00824 00822 00826 00821 00829 00823 00815 00824 00831 00834 00842 00835 00842 00830 00837 00845 00830 00833 00833 00829 00834 00841 00836
:TM1 /15 259 259 259 259
:BAT 13.5V
0000070500
097
SXXX32 EUMS 111551 RRX
26F364EA

ST STHELENA
DT 11/01/14 11/01/14
TM 15:45:00 15:30:00
RD 10000 10000 10000 10000 10000 10000 10000 10000 10000 10000 10000 10000 10000 10000 10000 10000 10000 10000 10000 10000 10000 10000 10000 10000 10000 10000 10000 10000 10000 10000
P1 01014 00872 00508 00640 00202 00911 00750 00656 00571 00917 00491 00520 00909 00759 00655 00552 00177 00818 00653 00143 00254 00649 00665 00613 00875 01213 00329 00378 00567 00508
P2 00022 00025 00023 00019 00018 00021 00017 00019 00020 00020 00021 00023 00020 00021 00023 00021 00020 00014 00020 00021 00021 00022 00019 00021 00023 00012 00027 00026 00025 00026
T1 00.0 00.0
T2 22.9 22.9
VB 14.0
0000070200
098
SXXX32 EUMS 111551 RRX
22E7E6D2
OT12 ID:ID-ROTE-11 DT:2014 01 11 15 49
:PRS /1 -10760 -10237 -10747 -10760 -10731 -10734 -10734 -10735 -10759 -10758 -10761 -10758 -10761 -10757 -10755 -10758 -10218 -10748 -10754 -10730 -10731 -10732 -10734 -10754 -10762 -10757 -10759 -10756 -10756 -10751
:PR2 /1 03909 03873 03898 03909 03866 03901 03874 03879 03840 03857 03831 03844 03832 03846 03836 03830 03756 03797 03812 03783 03762 03796 03794 03799 03753 03778 03788 03770 03746 03745
:RAD /1 05464 05471 05492 05472 05479 05459 05447 05429 05456 05412 05440 05408 05412 05396 05416 05400 05390 05384 05408 05408 05364 05352 05380 05384 05364 05332 05332 05368 05344 05316
:BAT 12.1V/
0000011000
099
UANT99 KDDL 111553
ARP ACA865 5407N02319W 1553 F380 MS58 203/64 KT
CGFAH DDL XXW 111553 J82A
0000027600
100
UDAF01 FAPR 111550
AMDAR 1115
DES AFZA43 0019S 03228E 111543 F082 PS156 046/014 TB0 S031 333 F/// VG009=
DES AFZA43 0014S 03227E 111545 F065 PS192 036/008 TB0 S031 333 F/// VG011=
DES AFZA43 0000N 03226E 111549 F048 PS232 010/004 TB0 S031 333 F/// VG011=
0000011100
101
UANT99 KDDL 111553
ARP GEC8221 5625N04644W 1553 F350 MS57 281/49 KT
DALCA QXT IGW 111553 F02A
00000000