0000021000
329
SAIO31 KWBC 110400 RRA
METAR
FIMR 110400Z 10014KT 9999 BKN017 29/24 Q1017=
FMCZ 110404Z 27005KT 9999 FEW021 BKN300 28/23 Q1013 NOSIG=
FMEE 110404Z 10016KT 9999 FEW026 29/21 Q1015 NOSIG=

0000048000
330
SAAM31 FCBB 110400
METAR FCBB 110400Z 23002KT 8000 FEW010 BKN018 23/22 Q1013 NOSIG=
METAR FCPP 110400Z VRB02KT 7000 SCT010 25/24 Q1010 NOSIG=
METAR FKKD 110400Z VRB01KT 5000 BR SCT013 FEW016CB BKN120 25/25 Q1010
      BECMG 2000 BR=
METAR FKYS 110400Z 00000KT 3000 BR SCT003 21/20 Q1015 BECMG 1000 BR=
METAR FKKR NIL=
METAR FKKL NIL=
METAR FKKN NIL=
METAR FEFF 110400Z VRB02KT 6000 NSC 19/17 Q1011 BECMG TL0500 4000
      BR=
METAR FEFT NIL=

0000168200
331
SAUS71 KWBC 110400
METAR
KABE 110351Z 08003KT 1/2SM -RA BR OVC004 01/00 A3022=
KACK 110353Z AUTO 15006KT 8SM BKN048 04/03 A3031=
KACY 110354Z 14006KT 7SM -RA SCT041 BKN055 OVC100 08/07 A3023=
KAGC 110353Z 13006KT 10SM BKN060 08/05 A2992=
KAGS 110353Z 00000KT 3/4SM BR VV004 10/09 A3009=
KAKR 110354Z AUTO 15007KT 10SM BKN040 OVC110 07/06 A2982=
KALB 110351Z 17003KT 10SM OVC011 00/M02 A3023=
KAND 110356Z AUTO 05004KT 2 1/2SM BR OVC004 08/08 A3008=
KAOO 110353Z AUTO 00000KT 1 3/4SM BR OVC003 01/01 A3009=
KAPG NIL=
KART 110356Z AUTO VRB03KT 10SM CLR 04/01 A3004=
KAVL 110354Z AUTO 20003KT 8SM -RA OVC003 07/07 A3008=
KAVP 110354Z AUTO 06005KT 5SM BR OVC010 02/01 A3016=
KBAF 110353Z 05003KT 2SM BR SCT005 OVC011 M01/M02 A3027=
KBDL 110351Z 00000KT 1SM R06/P6000FT BR OVC005 01/00 A3028=
KBDR 110352Z AUTO 02004KT 1SM UP BR OVC005 02/01 A3028=
KBED 110356Z 00000KT 3SM BR OVC009 02/01 A3028=
KBFD 110353Z AUTO 16010G21KT 3SM BR OVC003 02/ A2997=
KBGM 110353Z 16005KT 2SM BR OVC002 01/00 A3010=
KBGR 110353Z 00000KT 10SM FEW095 M07/M09 A3030=
KBKL 110353Z AUTO 16011KT 10SM BKN043 OVC095 07/06 A2979=
KBKW 110351Z AUTO 16016G22KT 10SM BKN006 16/07 A3000=
KBOS 110354Z 14004KT 1/4SM R04R/1200V1400FT FG VV002 01/01
     A3030=
KBTV 110354Z 17009KT 10SM OVC055 01/M03 A3018=
KBUF 110354Z 14008KT 10SM FEW030 SCT055 OVC180 05/02 A2992=
KBVY 110353Z AUTO 00000KT 4SM BR OVC007 02/01 A3029=
KBWI 110354Z 04004KT 1SM R10/P6000FT -RA BR OVC003 03/02 A3016=
KCAE 110356Z 00000KT 2SM BR OVC004 10/09 A3009=
KCAK 110351Z 16008KT 7SM BKN060 OVC110 07/07 A2984=
KCAR 110354Z AUTO 00000KT 10SM OVC019 M08/M14 A3020=

0000167300
332
SAUS71 KWBC 110400 RRA
METAR
KCEF 110358Z 00000KT 2SM -DZ BR OVC003 00/00 A3027=
KCHO 110353Z 00000KT 2SM -RA BR BKN003 OVC013 02/02 A3016=
KCHS 110356Z 13008KT 10SM CLR 18/16 A3010=
KCKB 110353Z 00000KT 10SM BKN055 09/06 A2994=
KCLE 110351Z 16012KT 10SM OVC038 07/05 A2982=
KCLT 110352Z 32005KT 1/4SM R18C/3500V4500FT -RA BR VV002 06/06
     A3011=
KCMH 110351Z 17005KT 10SM OVC035 09/07 A2983=
KCRW 110354Z 11003KT 10SM BKN210 12/09 A2988=
KCVG 110352Z 17012KT 10SM BKN021 OVC110 10/09 A2974=
KDAN 110353Z AUTO 06003KT 5SM -RA BR OVC007 04/03 A3015=
KDAY 110356Z 16012G19KT 10SM OVC026 09/08 A2973=
KDCA 110352Z 07004KT 3SM -RA BR OVC006 03/02 A3018=
KDUJ 110356Z AUTO 12013G21KT 4SM BR OVC006 02/01 A2996=
KECG 110354Z AUTO 12007KT 10SM FEW036 SCT048 OVC110 14/13
     A3019=
KEKN 110351Z AUTO 17008KT 10SM CLR 12/07 A2999=
KELM 110353Z 11005KT 7SM OVC011 02/M01 A3009=
KERI 110351Z 15018G23KT 10SM -RA BKN085 OVC110 07/03 A2982=
KEWB 110353Z AUTO 13003KT 3/4SM R05/2400V3500FT -RA BR OVC003
     04/04 A3029=
KEWN 110354Z AUTO 13007KT 7SM OVC010 19/17 A3014=
KEWR 110351Z 02006KT 1SM R04R/P6000FT -RA BR OVC003 01/01
     A3025=
KFAY 110353Z AUTO 21004KT 2SM -RA BR BKN005 OVC009 17/16 A3012=
KFLO 110353Z 00000KT 2SM BR OVC004 14/13 A3011=
KFRG 110353Z AUTO 00000KT 2SM BR OVC003 03/03 A3026=
KFVE 110353Z AUTO 00000KT 10SM OVC014 M08/M13 A3017=
KGFL 110353Z AUTO 00000KT 6SM BR SCT016 OVC027 M02/M03 A3023=
KGON 110356Z 00000KT 3/4SM R05/3500V4000FT -RA BR VV003 03/03
     A3028=
KGSO 110354Z 02003KT 3/4SM BR OVC003 03/03 A3012=
KGSP 110353Z 02005KT 1 1/4SM BR OVC002 08/07 A3008=

0000170700
333
SAUS71 KWBC 110400 RRB
METAR
KHFD 110353Z 00000KT 1/4SM UP FG VV005 02/01 A3029=
KHKY 110353Z AUTO 00000KT 2SM -RA BR OVC003 06/06 A3011=
KHPN 110356Z 12003KT 1/2SM R16/P6000FT FG VV003 01/01 A3024=
KHTS 110351Z 00000KT 10SM OVC039 10/08 A2986=
KHVN 110353Z AUTO 00000KT 1SM R02/5000V6000FT BR VV005 02/01
     A3028=
KHYA 110356Z 00000KT 9SM OVC005 04/03 A3029=
KIAD 110352Z 24005KT 1SM R01R/4500VP6000FT -RA BR OVC003 01/01
     A3018=
KIAG NIL=
KILG 110351Z AUTO 04006KT 1 1/2SM -RA BR OVC002 03/03 A3021=
KILM 110353Z AUTO 17008KT 10SM FEW015 BKN024 OVC050 20/19
     A3013=
KINT 110354Z AUTO 02005KT 1SM BR VV002 04/03 A3013=
KIPT 110354Z AUTO 06009KT 1 1/2SM BR BKN008 OVC032 01/M01
     A3015=
KISP 110356Z 00000KT 1/4SM R06/2800V4500FT FG OVC003 04/03
     A3025=
KJFK 110351Z 02005KT 1/2SM -DZ BR OVC003 03/02 A3027=
KJST 110354Z AUTO 17012KT 1/4SM FG VV002 02/02 A3000=
KLBE NIL=
KLCK 110355Z AUTO 19007KT 10SM BKN031 OVC037 08/06 A2982=
KLEB 110353Z AUTO 00000KT 10SM BKN008 OVC034 M03/M06 A3025=
KLGA 110351Z 06004KT 1 1/2SM -RA BR OVC003 01/00 A3026=
KLUK 110353Z 17008KT 10SM BKN024 BKN120 11/08 A2977=
KLWM 110354Z AUTO 00000KT 5SM BR OVC010 02/00 A3030=
KLYH 110354Z AUTO 04005KT 1SM R04/P6000FT -RA BR OVC003 03/03
     A3015=
KMDT 110356Z 00000KT 3/4SM -RA BR OVC004 01/M01 A3018=
KMFD 110352Z 16013KT 10SM SCT008 OVC027 07/07 A2980=
KMGW 110353Z 18003KT 10SM CLR 11/07 A2994=
KMHT 110353Z 35003KT 4SM BR OVC014 M02/M03 A3027=
KMIV 110354Z AUTO 00000KT 1/2SM FG SCT020 OVC070 07/07 A3020=
KMMU 110355Z AUTO 00000KT 1/2SM UP OVC003 02/00 A3025=
KMRB 110353Z AUTO 03003KT 1 1/4SM BR OVC002 02/01 A3015=

0000168600
334
SAUS71 KWBC 110400 RRC
METAR
KMSS 110353Z AUTO 06004KT 8SM FEW027 OVC055 M03/M06 A3013=
KMTN 110400Z AUTO 00000KT 2SM -RA OVC003 03/03 A3019=
KMYR NIL=
KNKT 110354Z 14009G18KT 10SM -RA BKN009 OVC019 19/18 A3014=
KOQU 110350Z 31003KT 1/4SM FG VV002 01/01 A3030=
KORF 110351Z AUTO 16009KT 10SM OVC100 14/12 A3017=
KORH 110354Z AUTO 25005KT 1/4SM R11/2200V2600FT FG VV002 02/02
     A3024=
KPHF 110354Z 15008KT 10SM -RA OVC100 16/12 A3015=
KPHL 110354Z 05004KT 1 1/2SM -RA BR OVC004 02/01 A3022=
KPIT 110351Z 11003KT 10SM BKN060 OVC120 06/05 A2991=
KPKB 110353Z 15007KT 10SM BKN050 11/07 A2990=
KPLB NIL=
KPOU 110353Z 00000KT 1SM BR OVC007 01/M01 A3025=
KPQI 110355Z AUTO 00000KT 10SM SCT022 M10/M16 A3023=
KPSM 110358Z 17001KT 4SM BR OVC012 M01/M01 A3029=
KPVD 110351Z 00000KT 1/4SM R05/1000V1400FT -RA FG VV002 01/01
     A3030=
KPWM 110351Z 00000KT 7SM OVC070 M02/M03 A3030=
KRDG 110354Z AUTO 00000KT 1 1/2SM -RA BR OVC004 01/00 A3020=
KRDU 110351Z 00000KT 1/4SM -RA BR OVC002 07/06 A3013=
KRIC 110354Z 00000KT 1SM R34/P6000FT -RA BR BKN003 OVC060 05/04
     A3017=
KROA 110354Z 00000KT 3/4SM BR BKN003 OVC013 03/03 A3016=
KROC 110354Z 16009KT 10SM BKN130 05/02 A2999=
KRWI 110353Z AUTO 04005KT 4SM RA BR FEW019 BKN042 OVC080 15/14
     A3012=
KSAV 110353Z 15003KT 1/4SM R01/3000V5000FT FG VV002 17/17
     A3009=
KSBY 110354Z AUTO 15006KT 10SM OVC100 12/09 A3018=
KSCH NIL=
KSLK 110351Z AUTO 00000KT 7SM OVC020 M02/M03 A3007=
KSWF NIL=
KSYR 110354Z 08007KT 10SM BKN060 OVC230 03/01 A3008=
KTEB 110351Z 01004KT 1 3/4SM -RA OVC005 02/00 A3025=
KTOL 110352Z 17004KT 2 1/2SM -RA OVC004 04/04 A2974=

0000030600
335
SAUS71 KWBC 110400 RRD
METAR
KTTN 110353Z AUTO 06003KT 1 1/2SM -RA BR OVC002 02/01 A3023=
KUCA NIL=
KWRI 110358Z AUTO 08003KT 1SM R06/2200FT BR VV002 04/04 A3021=
KYNG 110351Z 13012KT 10SM -RA BKN080 OVC100 06/04 A2985=
KZZV 110353Z AUTO 17009KT 10SM BKN042 OVC049 09/07 A2985=

0000167600
336
SAUS72 KWBC 110400
METAR
KABI 110352Z 13007KT 10SM CLR 09/M03 A2983=
KABQ 110352Z 01007KT 10SM FEW070 08/M11 A3009=
KABY 110353Z 14006KT 1/2SM FG VV002 17/17 A3006=
KACT 110351Z 22008KT 9SM CLR 14/13 A2980=
KAEX 110353Z 21004KT 3SM +RA BR FEW012 BKN033 OVC046 18/17
     A2980=
KAFW 110353Z 00000KT 10SM OVC060 07/02 A2981=
KAHN 110351Z AUTO 08004KT 1/2SM FG VV002 08/07 A3007=
KALI 110353Z AUTO 00000KT 10SM CLR 13/12 A2988=
KAMA 110353Z 35011KT 10SM CLR 06/M13 A2989=
KANB 110353Z AUTO 04007KT 10SM OVC013 11/10 A2999=
KAPF 110353Z 07003KT 10SM CLR 21/21 A3010=
KATL 110352Z 11004KT 1/4SM -DZ BR OVC003 08/08 A3005=
KAUS 110353Z 22005KT 10SM FEW150 15/13 A2984=
KBFM 110353Z AUTO 18007KT 1/2SM FG VV002 16/16 A2997=
KBHM 110353Z 00000KT 4SM BR OVC005 12/12 A2997=
KBNA 110353Z 18015G23KT 10SM SCT014 OVC140 13/10 A2980=
KBPT 110353Z 20010KT 3SM BR OVC002 19/18 A2985=
KBQK 110355Z AUTO 16004KT 1 1/2SM OVC003 17/17 A3011=
KBRO 110353Z 17003KT 1SM BR VV005 18/17 A2992=
KBTR 110353Z 14010KT 2 1/2SM -RA BR OVC003 17/17 A2987=
KCEW 110353Z AUTO 17005KT 1 3/4SM -RA BR OVC003 19/19 A3001=
KCHA 110353Z 18006KT 1SM -RA BR BKN004 OVC007 09/08 A2999=
KCLL 110353Z AUTO 21007KT 8SM CLR 16/16 A2983=
KCNM 110353Z AUTO 25018KT 10SM CLR 14/M09 A2990=
KCRP 110351Z 17005KT 10SM BKN250 14/14 A2989=
KCSG 110351Z AUTO 12005KT 1/2SM FG VV002 11/11 A3003=
KCSV 110353Z AUTO 18006G15KT 2 1/2SM BR OVC004 10/09 A2994=
KDAB 110353Z 00000KT 5SM BR BKN075 19/19 A3012=
KDAL 110353Z 34004KT 10SM CLR 11/04 A2981=
KDFW 110353Z 34004KT 10SM BKN070 11/03 A2981=
KDHN 110353Z AUTO 13005KT 1/2SM FG VV002 15/15 A3005=

0000170100
337
SAUS72 KWBC 110400 RRA
METAR
KDLF 110358Z AUTO 17003KT 10SM CLR 13/09 A2988=
KDMN 110353Z AUTO 28011KT 10SM CLR 08/M08 A3008=
KELP 110351Z VRB06KT 10SM CLR 13/M09 A3003=
KESF 110353Z AUTO 21012G17KT 3/4SM +TSRA BR BKN006 OVC012 19/18
     A2979=
KEYW 110353Z AUTO 11009KT 10SM FEW017 24/22 A3009=
KFLL 110353Z 12007KT 10SM SCT015 SCT190 24/23 A3011=
KFSM 110353Z 22006KT 10SM CLR 06/05 A2975=
KFTW 110353Z 00000KT 10SM BKN060 11/02 A2981=
KFTY 110353Z 05004KT 3SM BR OVC003 09/08 A3002=
KGGG 110353Z AUTO 23007KT 10SM FEW012 17/16 A2976=
KGLS 110352Z AUTO 20009KT 1/2SM FG VV002 16/16 A2987=
KGNV 110353Z AUTO 14003KT 4SM BR SCT003 BKN020 BKN038 19/19
     A3011=
KGPT 110353Z 16006KT 1/4SM FG VV002 16/15 A2994=
KGUP 110353Z AUTO 26012KT 10SM CLR M01/M10 A3015=
KGWO 110353Z AUTO 18019G29KT 10SM BKN014 OVC020 17/14 A2977=
KHOT 110353Z AUTO 29005KT 10SM BKN014 BKN065 OVC090 14/13
     A2972=
KHOU 110353Z 22010KT 10SM OVC010 21/18 A2985=
KHRL 110352Z 19006KT 9SM CLR 18/17 A2991=
KHRO 110353Z AUTO 28009G14KT 10SM CLR 08/03 A2970=
KHSV 110353Z 15010KT 3SM -RA BR OVC008 11/11 A2991=
KIAH 110353Z 22008KT 10SM BKN013 21/19 A2984=
KINK 110353Z AUTO 26012KT 10SM CLR 13/M08 A2988=
KJAN 110354Z 15010KT 5SM -RA BR OVC007 17/16 A2983=
KJAX 110356Z 14004KT 5SM BR FEW060 17/17 A3010=
KJBR 110353Z AUTO 00000KT 3/4SM -RA BR VV002 07/07 A2967=
KLBB 110353Z 02009KT 10SM CLR 06/M08 A2986=
KLCH 110353Z 19013G22KT 10SM OVC003 19/18 A2985=
KLFT 110353Z AUTO 18012G18KT 7SM -TSRA SCT006 BKN010 OVC027 19/18
     A2987=
KLIT 110353Z 23007KT 7SM -RA SCT008 BKN021 OVC065 14/13 A2969=
KLRD 110356Z 00000KT 10SM CLR 16/13 A2993=

0000171200
338
SAUS72 KWBC 110400 RRB
METAR
KLRU 110355Z AUTO 27013KT 10SM CLR 09/M08 A3005=
KMAF 110353Z 25014KT 10SM CLR 13/M07 A2988=
KMCN 110353Z AUTO 00000KT 1/4SM FG VV002 11/11 A3007=
KMCO 110353Z 14005KT 10SM BKN150 22/19 A3012=
KMEI 110358Z AUTO 18007KT 1SM R01/4500V5000FT BR OVC002 14/14
     A2990=
KMEM 110354Z 13008KT 6SM -RA BR FEW006 BKN018 OVC034 12/11
     A2972=
KMFE 110353Z 13004KT 7SM CLR 18/17 A2993=
KMGM 110353Z 00000KT 1/2SM FG VV002 12/12 A2998=
KMIA 110353Z 11008KT 10SM FEW026 SCT210 24/22 A3011=
KMKL 110353Z AUTO 21011G18KT 10SM OVC016 13/11 A2976=
KMLB 110353Z 00000KT 8SM CLR 21/20 A3012=
KMLC 110353Z AUTO 00000KT 10SM FEW080 02/01 A2977=
KMLU 110353Z AUTO 19008KT 10SM BKN010 OVC017 18/17 A2978=
KMOB 110356Z 16006KT 1/2SM -RA FG VV002 16/16 A2996=
KMSL 110353Z AUTO 15010KT 10SM OVC009 13/10 A2985=
KMSY 110353Z 18012KT 5SM BR BKN003 OVC060 19/19 A2992=
KNEW 110353Z AUTO 16009KT 3SM BR SCT003 BKN015 OVC023 17/16
     A2993=
KNGP 110356Z AUTO 18005KT 10SM CLR 17/15 A2989=
KOKC 110352Z 26009KT 10SM CLR 05/M04 A2977=
KPBI 110353Z 14008KT 10SM SCT250 24/22 A3011=
KPDK NIL=
KPFN NIL=
KPIE 110353Z 00000KT 8SM BKN038 17/17 A3010=
KPNS 110353Z AUTO 17008KT 5SM BR BKN006 OVC010 19/18 A2998=
KROW 110351Z AUTO 26010KT 10SM CLR 09/M10 A2992=
KRSW 110353Z 07003KT 4SM BR CLR 20/19 A3011=
KSAT 110351Z 25007KT 10SM FEW170 SCT250 17/14 A2987=
KSFB 110353Z AUTO 16003KT 10SM BKN070 20/20 A3012=
KSHV 110352Z 21006KT 10SM FEW013 SCT020 OVC047 18/17 A2977=
KSJT 110351Z AUTO 24009KT 10SM CLR 09/M04 A2984=
KSRQ 110353Z 09006KT 10SM SCT030 SCT036 21/19 A3009=
KSSI 110353Z AUTO 17008KT 3/4SM BR VV003 17/17 A3010=

0000102800
339
SAUS72 KWBC 110400 RRC
METAR
KTCC 110353Z AUTO 32010KT 10SM CLR 04/M12 A2990=
KTCL 110353Z AUTO 14007KT 5SM BR OVC005 13/12 A2993=
KTCS 110353Z AUTO 33009KT 10SM CLR 12/M11 A3005=
KTLH 110353Z 00000KT 1/2SM FG VV002 18/17 A3006=
KTPA 110353Z 00000KT 10SM FEW200 21/19 A3011=
KTRI 110353Z 01003KT 10SM -RA BKN055 BKN070 OVC085 08/06 A2998=
KTUL 110353Z 23007KT 10SM CLR 07/M01 A2971=
KTUP 110353Z 20016G22KT 7SM OVC005 13/ A2981=
KTXK 110353Z AUTO 20009KT 9SM SCT008 BKN013 OVC017 16/15 A2974=
KTYR 110353Z 21008KT 8SM FEW010 16/15 A2978=
KTYS NIL=
KVCT 110351Z AUTO 22004KT 1/4SM FG VV002 18/17 A2988=
KVLD 110353Z 15003KT 1 1/4SM BR OVC002 20/18 A3008=
KVRB 110353Z 13004KT 3SM BR CLR 19/19 A3012=
TIST 110353Z 08009KT 10SM FEW055 25/21 A3009=
TISX 110353Z AUTO 05006KT 10SM FEW034 24/18 A3009=
TJBQ 110350Z 10012KT 10SM SCT030 24/ A3012=
TJMZ NIL=
TJPS 110350Z 07006KT 10SM SKC 23/18 A3010=
TJSJ 110356Z 19003KT 10SM FEW040 SCT060 25/18 A3011=
TKPK NIL=
TNCM NIL=

0000010900
340
SPUS43 KWBC 110405
SPECI
KPIA 110401Z 19011KT 1/2SM R13/5000FT -RA FG VV002 04/03 A2954=

0000010800
341
SPUS44 KWBC 110405
SPECI
KPAE 110401Z 15012G20KT 10SM SCT023 BKN028 OVC046 08/04 A2974=

0000011800
342
SACN62 CYEV 110400
METAR CYEV 110400Z 28008KT 10SM -SN DRSN OVC110 M26/M29 A2972 RMK AC8
 SLP074=

0000170500
343
SAUS73 KWBC 110400
METAR
KABR 110353Z AUTO 00000KT 10SM CLR M12/M13 A2953=
KALN 110355Z AUTO 18005KT 5SM -RA 05/05 A2961=
KALN 110350Z 19007KT 10SM OVC019 05/05 A2962=
KALO 110354Z 29005KT 2 1/2SM BR OVC002 00/M01 A2950=
KAPN 110354Z AUTO 14007KT 4SM -RA BR OVC004 01/00 A2965=
KASE 110353Z 00000KT 10SM SCT009 BKN043 OVC050 M06/M07 A3002=
KATY 110353Z AUTO 27007KT 10SM CLR M09/M10 A2949=
KAXN 110353Z AUTO 24005KT 1/4SM FZFG VV001 M03/M04 A2946=
KAZO 110353Z AUTO 16010G16KT 10SM -RA OVC008 05/04 A2961=
KBDE 110353Z AUTO 22006KT 4SM BR OVC007 M03/M04 A2940=
KBFF 110353Z AUTO 29007KT 10SM OVC095 01/M07 A2974=
KBIS 110352Z 28005KT 10SM BKN028 M05/M08 A2955=
KBJC NIL=
KBKF 110355Z 16006KT 25SM FEW100 BKN200 M03/M09 A2983=
KBRL 110353Z AUTO 26006KT 2SM HZ OVC003 09/04 A2952=
KBTL 110353Z 17015G23KT 10SM -RA OVC007 05/03 A2962=
KCGI 110353Z AUTO 18010KT 10SM -RA BKN080 OVC100 08/07 A2966=
KCID 110352Z 25005KT 3/4SM BR VV002 01/00 A2949=
KCIU 110355Z AUTO 10009KT 2 1/2SM OVC005 M01/M02 A2961=
KCMI 110353Z 16014KT 2 1/2SM BR OVC003 05/04 A2958=
KCMX 110353Z AUTO 12004KT 1SM -SN BR OVC020 M03/M04 A2951=
KCOS 110354Z 03007KT 10SM SCT170 BKN200 M04/M11 A2984=
KCOU 110354Z AUTO 30010G20KT 8SM SCT005 BKN011 OVC024 07/06
     A2956=
KCPR 110353Z AUTO 25015KT 10SM CLR M04/M09 A2980=
KCYS 110353Z 29018G29KT 10SM CLR M01/M09 A2975=
KDDC 110352Z AUTO 30010KT 10SM CLR 01/M03 A2978=
KDEC 110354Z AUTO 22010KT 6SM BR OVC003 05/04 A2959=
KDEN 110353Z 23007KT 10SM SCT120 BKN200 M02/M09 A2981=
KDET 110353Z 14007KT 4SM RA BR OVC003 04/02 A2976=
KDLH 110355Z 19004KT 1/2SM R09/3000V4000FT -FZDZ FZFG VV002
     M03/M05 A2945=

0000167900
344
SAUS73 KWBC 110400 RRA
METAR
KDSM 110354Z 29006KT 5SM -SN BR BKN004 OVC015 01/M01 A2955=
KDTW 110353Z 12006KT 3/4SM RA BR BKN002 OVC012 03/03 A2976=
KEAU NIL=
KEGE 110359Z 25006KT 10SM VCSH OVC060 M02/M06 A3005=
KELO 110352Z AUTO 20003KT 7SM OVC007 M04/M05 A2943=
KEVV 110354Z 19005KT 5SM RA BR FEW014 BKN065 OVC080 09/08
     A2973=
KFAR 110353Z 24009KT 10SM FEW030 M05/M08 A2947=
KFNT 110353Z 16013KT 7SM -RA FEW009 BKN022 OVC043 04/02 A2970=
KFSD 110356Z 00000KT 5SM BR CLR M07/M08 A2955=
KFWA 110354Z 16009KT 3/4SM -RA BR VV002 03/03 A2969=
KGCK 110354Z AUTO 30008KT 10SM CLR M02/M07 A2978=
KGFK NIL=
KGJT 110353Z 03003KT 10SM FEW070 M07/M09 A3009=
KGRB 110353Z 18004KT 5SM -RA BR OVC008 02/01 A2947=
KGRI 110353Z AUTO 28008KT 10SM CLR M02/M05 A2966=
KGRR 110353Z 16016KT 9SM -RA OVC010 05/03 A2958=
KGYY 110355Z AUTO 18010G19KT 150V210 10SM -DZ OVC009 06/05
     A2958=
KHIB 110353Z AUTO 00000KT 1 1/2SM BR OVC003 M03/M04 A2945=
KHON 110355Z AUTO 25005KT 10SM CLR M05/M08 A2956=
KHUF 110353Z 18011KT 6SM -RA OVC006 06/ A2967=
KHUT 110352Z 31007KT 10SM SCT060 02/01 A2970=
KICT 110353Z 31010KT 10SM FEW046 SCT100 03/01 A2970=
KIKK 110355Z AUTO 17015G20KT 10SM OVC006 04/04 A2958=
KIND 110354Z 20006KT 1/2SM R05L/3500VP6000FT -RA FG VV002 04/04
     A2969=
KINL 110355Z AUTO 18004KT 2SM BR OVC003 M04/M05 A2943=
KIRK 110355Z AUTO 27006KT 7SM OVC005 03/02 A2955=
KJAC NIL=
KJLN 110353Z AUTO 00000KT 8SM CLR 01/M01 A2969=
KJMS 110356Z AUTO 27009KT 10SM FEW021 BKN031 M04/M07 A2947=
KJXN 110356Z 17010G19KT 8SM -RA OVC007 04/03 A2968=
KLAN 110353Z 15012KT 5SM RA BR BKN006 OVC012 03/03 A2966=

0000168800
345
SAUS73 KWBC 110400 RRB
METAR
KLAR 110353Z AUTO 29016KT 10SM BKN070 M05/M10 A2979=
KLBF 110353Z AUTO 30004KT 10SM CLR M07/M08 A2969=
KLBL 110355Z AUTO 29012KT 10SM CLR 01/M09 A2983=
KLEX 110354Z 18018G25KT 10SM OVC024 13/09 A2980=
KLNK 110354Z 27003KT 3/4SM R36/P6000FT BR CLR M03/M03 A2963=
KLOU 110353Z AUTO 18010G17KT 10SM -RA FEW021 BKN070 OVC110 12/09
     A2974=
KLOZ 110353Z AUTO 20008KT 10SM OVC021 13/09 A2991=
KLSE 110353Z AUTO 32005KT 2 1/2SM BR OVC003 M01/M02 A2949=
KMBS 110353Z 17014KT 7SM -RA BKN005 OVC038 04/03 A2967=
KMCI 110353Z 28005KT 10SM OVC006 02/01 A2961=
KMDW 110351Z 19013KT 6SM -RA BR OVC006 05/05 A2955=
KMHK 110352Z AUTO 24004KT 4SM BR FEW038 BKN049 OVC070 01/01
     A2966=
KMKC 110354Z 28006KT 10SM OVC011 03/01 A2962=
KMKE 110352Z 20012KT 8SM -RA OVC007 04/03 A2951=
KMKG 110355Z 16010KT 6SM -RA BR OVC007 05/03 A2955=
KMLI 110352Z 22007KT 8SM OVC008 03/02 A2950=
KMOT NIL=
KMSN 110353Z 20007KT 5SM -DZ BR OVC004 02/02 A2948=
KMSP 110353Z 23003KT 3SM -FZDZ BR OVC006 M01/M02 A2950=
KOFF 110358Z AUTO 30002KT 2 1/2SM R30/3500FT BR CLR M03/M03
     A2959=
KOMA 110352Z 31004KT 7SM FEW014 SCT055 M01/M02 A2960=
KORD 110351Z 18014KT 7SM -RA OVC006 04/02 A2952=
KOSH 110353Z 19006KT 4SM -RA BR OVC005 01/00 A2947=
KOTM 110353Z AUTO 28009KT 6SM BR BKN003 OVC038 01/01 A2953=
KOWB 110356Z 25007KT 1 1/2SM +RA BR FEW010 BKN018 OVC038 08/08
     A2976=
KPAH 110353Z 18008KT 6SM -RA BR FEW042 OVC070 10/08 A2969=
KPIA 110354Z 19013KT 1/4SM R13/5000FT FG VV002 04/03 A2955=
KPIR 110353Z AUTO 26012KT 10SM OVC100 01/M04 A2957=
KPLN 110354Z AUTO 12006KT 3SM UP BR OVC006 00/M01 A2958=

0000136600
346
SAUS73 KWBC 110400 RRC
METAR
KPTK 110353Z 14007KT 3SM RA BR OVC002 03/02 A2972=
KPUB 110353Z 30007KT 10SM CLR 00/M12 A2985=
KRAP 110352Z 31008KT 10SM BKN050 OVC075 02/M05 A2963=
KRFD 110354Z 18008KT 2SM -RA BR OVC004 02/02 A2953=
KRKS 110354Z AUTO 26019KT 10SM BKN031 BKN038 M02/M07 A2998=
KRST 110354Z 27003KT 1 1/4SM -SN BR BKN028 OVC038 M02/M04
     A2949=
KSAW 110356Z AUTO 13003KT 1 3/4SM -SN OVC008 M01/M02 A2951=
KSBN 110354Z 18015G20KT 8SM -RA OVC006 06/04 A2961=
KSDF 110356Z 17013KT 10SM -RA SCT021 BKN060 OVC110 13/09 A2972=
KSDM 110353Z AUTO 14004KT 7SM CLR 12/08 A3009=
KSGF 110352Z 28008KT 10SM CLR 04/02 A2966=
KSLN 110353Z 25007KT 10SM BKN080 OVC100 02/00 A2969=
KSPI 110352Z 19012G19KT 7SM -RA OVC004 05/05 A2957=
KSTC 110353Z 22003KT 1/2SM FZFG VV002 M02/M03 A2948=
KSTJ 110353Z AUTO 28004KT 8SM FEW006 SCT018 OVC055 01/00 A2962=
KSTL 110351Z 17006KT 5SM -RA BR SCT009 OVC055 07/06 A2960=
KSTP 110353Z AUTO 00000KT 3SM BR OVC006 M02/M03 A2952=
KSUS 110354Z 18008KT 10SM -RA SCT065 BKN090 OVC110 08/07 A2956=
KSUX 110352Z 29005KT 5SM BR FEW006 M06/M06 A2958=
KTVC 110353Z VRB05KT 8SM -RA BKN025 OVC032 03/01 A2953=
KUIN 110354Z AUTO 26007KT 1 1/2SM -RA BR OVC003 06/04 A2953=
KWRL 110353Z AUTO 00000KT 10SM CLR M09/M12 A2982=
KYIP 110353Z AUTO 13006KT 2 1/2SM BR OVC004 04/02 A2974=

0000116400
347
SAAG05 SABM 110400
METAR SAAR 110400Z  20004KT CAVOK 24/21 Q1010=
METAR SABE 110400Z  18015G29KT CAVOK 24/15 Q1011=
METAR SACO 110400Z  16010KT 9999  SCT015 BKN100
24/19 Q1016=
METAR SADF 110400Z  20013KT CAVOK 23/14 Q1011=
METAR SAEZ 110400Z 20009KT CAVOK 19/13 Q1012=
METAR SAME 110400Z  18006KT CAVOK 26/04 Q1016=
METAR SANT 110400Z  18014KT 9999  BKN040 FEW045CB
27/22 Q1008=
METAR SAOC 110400Z  00000KT CAVOK 20/14 Q1014=
METAR SARC 110400Z  09005KT 9999  FEW050CB BKN200
28/21 Q1006=
METAR SARE 110400Z NIL=
METAR SARF 110400Z 02008KT CAVOK 29/22 Q1007=
METAR SARI 110400Z  05005KT CAVOK 25/23 Q1012=
METAR SARL 110400Z NIL=
METAR SARP 110400Z  09004KT CAVOK 26/21 Q1011=
METAR SASA 110400Z  36004KT 9999  SCT020 FEW045CB
BKN200  23/16 Q1015=
METAR SASJ 110400Z NIL=
METAR SAVC 110400Z  32003KT CAVOK 15/03 Q1015=
METAR SAWE 110400Z
25005 KT 9999 FEW020 SCT056 07/05 Q1008=
METAR SAWG 110400Z  29009KT CAVOK 09/06 Q1012=
METAR SAWH 110400Z NIL=
METAR SAZM 110400Z  20010KT CAVOK 16/08 Q1015=
METAR SAZN 110400Z 00000KT CAVOK 22/M01 Q1015=
METAR SAZS 110400Z  18005KT CAVOK 12/03 Q1022=

0000170100
348
SAUS74 KWBC 110400
METAR
KACV 110353Z AUTO 10004KT 10SM CLR 09/08 A3016=
KALW 110353Z AUTO 17011KT 10SM -RA BKN060 OVC080 09/03 A2996=
KBFI 110353Z 13014KT 10SM -RA OVC035 09/06 A2978=
KBFL 110354Z 04005KT 9SM CLR 09/03 A3021=
KBIL 110353Z 29012KT 10SM SCT090 03/M06 A2976=
KBKE 110353Z AUTO 16003KT 10SM FEW042 SCT055 OVC070 01/M01
     A3004=
KBLI 110353Z 13023G30KT 7SM -RA BKN025 BKN031 OVC043 08/04
     A2969=
KBOI 110353Z 00000KT 10SM OVC060 03/00 A3010=
KBTM 110353Z AUTO 27007KT 10SM FEW050 BKN110 01/M08 A2988=
KBUR 110353Z 08003KT 10SM CLR 18/07 A3007=
KBYI 110353Z AUTO 23012KT 10SM BKN049 OVC060 02/M02 A3011=
KBZN 110356Z 29004KT 10SM OVC070 02/M07 A2988=
KCDC 110353Z AUTO 11005KT 10SM CLR 01/M05 A3017=
KCEC 110356Z AUTO 15011KT 8SM OVC043 10/09 A3015=
KCLM 110353Z AUTO 27003KT 6SM -RA BR BKN002 BKN026 OVC070 06/06
     A2963=
KCTB 110356Z AUTO 28008KT 10SM SCT080 M01/M06 A2971=
KCXL NIL=
KEKO 110356Z AUTO 26006KT 10SM CLR 02/M02 A3019=
KEUG 110354Z 19010KT 10SM OVC037 11/07 A3000=
KFAT 110353Z 00000KT 5SM HZ SCT200 10/05 A3022=
KFLG 110357Z AUTO 00000KT 10SM CLR 04/M07 A3020=
KGCN 110354Z AUTO 00000KT 10SM CLR M06/M11 A3023=
KGEG 110353Z 17007KT 10SM FEW055 OVC085 03/01 A2988=
KGGW 110353Z AUTO 28004KT 10SM OVC110 M06/M08 A2964=
KGTF 110353Z 22009KT 10SM CLR 02/M04 A2976=
KHLN 110353Z 27010KT 10SM OVC050 04/M05 A2986=
KHQM 110353Z AUTO 17025G32KT 5SM -RA BKN012 BKN017 OVC021
     A2973=
KIDA 110353Z AUTO 20016G22KT 10SM SCT100 01/M03 A3004=
KIWA 110355Z AUTO 08005KT 10SM CLR 07/M01 A3013=
KLAS 110356Z 21007KT 10SM SCT250 12/M02 A3012=
KLAX 110353Z 00000KT 8SM SCT200 15/12 A3008=

00000000