0000008300
589
FTMP31 LMMM 110500
TAF LMML NIL=
TAF HLLT NIL=
TAF HLLB NIL=

0000023200
590
FTMO31 ZMUB 110440
TAF ZMUB 110440Z 1106/1212 VRB02MPS 2500 FU SCT100
      BECMG 1107/1109 4000
      BECMG 1122/1124 2500
      TEMPO 1200/1206 1500 BR
      BECMG 1206/1208 4000 TXM22/1106Z TNM33/1123Z=

0000180900
591
SPUS70 KWBC 110440
SPECI
KILM 110436Z AUTO 19010G16KT 10SM BKN013 21/19 A3011 RMK AO2=
KILN 110436Z AUTO 18019G27KT 10SM FEW021 SCT090 BKN110 10/08 A2973
     RMK AO2 PK WND 18027/0432 T01000083=
KLWV 110436Z AUTO 16018KT 2 1/2SM -RA SCT004 SCT014 OVC070 07/
     A2962 RMK AO2 PRESFR P0003 T0067 $=
KMGJ 110436Z AUTO 00000KT 1 1/4SM BR OVC005 00/M01 A3021 RMK AO2
     UPB05E14 P0000 T00001006 TSNO=
KMSP 110436Z 23003KT 3SM BR OVC004 M02/M02 A2950 RMK AO2 FZDZE29
     P0000 $=
KPLN 110437Z AUTO 13006KT 5SM -FZRA BR BKN005 OVC011 01/M01 A2955
     RMK AO2 UPE01FZRAB01 P0009 I1003 T00061006=
KAHN 110436Z AUTO 00000KT 1 1/4SM +RA BR OVC003 08/07 A3006 RMK
     AO2 RAB10 P0024=
KBMG 110436Z AUTO 18010KT 4SM RA BR SCT008 BKN013 OVC018 08/07
     A2968 RMK AO2 P0004 T00780072=
KCEU 110436Z AUTO 00000KT 1 1/4SM -RA BR OVC002 09/07 A3006 RMK
     AO2 RAE0356B28 P0000=
KCHO 110436Z 00000KT 2SM -RA BR FEW003 OVC011 02/02 A3013 RMK AO2
     P0001 T00170017=
KARA 110437Z AUTO 19014G20KT 6SM BR OVC003 19/19 A2988 RMK AO2 LTG
     DSNT NE AND E TSE07RAE18 P0000 $=
KCLM 110437Z AUTO 13005KT 6SM -RA BR FEW005 OVC060 06/06 A2957 RMK
     AO2 PRESFR P0006 T00610056=
KCXY 110437Z AUTO 00000KT 1SM R08/6000VP6000FT -RA BR OVC003 01/00
     A3016 RMK AO2 P0002=
KDHN 110437Z AUTO 14003KT 1/4SM FG VV002 16/16 A3004 RMK AO2=
KGEZ 110437Z AUTO 18013KT 4SM RA BR FEW006 BKN026 OVC034 08/06
     A2969 RMK AO2 P0007 T00780061=
KHDO 110437Z AUTO 35007KT 4SM BR BKN004 09/07 A2992 RMK AO2
     T00890072=
KTOI 110437Z AUTO 20004KT 2 1/2SM -TSRA BR OVC002 17/16 A3000 RMK
     AO2 LTG DSNT N AND SW RAB28 TSB36 P0000 T01670156=
PAPB 110437Z AUTO 10018G22KT 8SM UP FEW014 SCT020 OVC027 01/01
     A2901 RMK AO2 P0000 T00110006 TSNO $=

0000009500
592
SPUS31 KWBC 110440
SPECI
KMSP 110436Z 23003KT 3SM BR OVC004 M02/M02 A2950=

0000009600
593
SAIY32 LIIB 110420 RRC
METAR LIBR 110415Z 28003KT 8000 NSC 06/05 Q1022 NOSIG=

0000046400
594
SAAL40 DAMM 110430
METAR DAAG 110430Z VRB01KT 9999 FEW030 BKN100 10/08 Q1017=
METAR DAAT 110430Z 19002KT CAVOK 11/M04 Q1022=
METAR DABB 110430Z 20004KT CAVOK 07/06 Q1016=
METAR DABC 110430Z  20006KT CAVOK 04/00 Q1019=
METAR DABS 110430Z NIL=
METAR DAON 110430Z 20004KT 9999 FEW030 BKN100 15/04 Q1016=
METAR DAOO 110430Z 05002KT 9999 FEW026 BKN100 12/09 Q1016=
METAR DAUH 110430Z 00000KT CAVOK 09/06 Q1020=
METAR DAUZ 110430Z NIL=

0000025500
595
SAIO31 KWBC 110400 RRF
METAR
FMCZ 110430Z 27005KT 9999 FEW021 BKN300 29/24 Q1013 NOSIG=
FMEE 110430Z 10017KT 9999 FEW026 29/22 Q1015 NOSIG=
VYMD 110430Z 00000KT 7000 HZ NSC 24/16 Q1018=
VYYY 110430Z 08004KT 8000 NSC 28/25 Q1016=

0000008400
596
SAEA20 HKNC 110400 RRC
METAR HKNK 110400Z  00000KT  CAVOK  10/09=

0000011500
597
SAKY31 RUMS 110430 RRA
METAR UCFM 110430Z 06001MPS 4000 FU NSC M09/M15 Q1023 R08/CLRD70
NOSIG=

0000011400
598
SARA31 RUMS 110430
METAR UEEE 110430Z 00000MPS CAVOK M43/M48 Q1035 NOSIG RMK QFE767
23490145=

0000040700
599
SARA33 RUMS 110430
METAR UIAA 110430Z VRB01MPS 9999 SKC M24/M31 Q1030 NOSIG RMK QFE713
29CLRD70=
METAR UIBB 110430Z 10001MPS 6000 -SHSN SCT030CB BKN100 M18/M21 Q1028
NOSIG RMK QFE727/0970 30490240=
METAR UIII 110430Z VRB01MPS CAVOK M17/M19 Q1032 NOSIG RMK QFE731/0974
12490340=
METAR UIUU 110430Z VRB01MPS 8000 -SN FEW033 OVC100 M17/M19 Q1032
NOSIG RMK QFE729/0972 26450545=

0000067800
600
SARA32 RUMS 110430
METAR UHBB 110430Z 36002MPS 320V030 CAVOK M26/M33 Q1022 NOSIG RMK
QFE749/0999 36410160=
METAR UHHH 110430Z 26008G12MPS 9999 DRSN SKC M22/M30 Q1018 NOSIG RMK
QFE757/1010 23090060=
METAR UHMA 110430Z NIL=
METAR UHMD 110430Z NIL=
METAR UHMM 110430Z 01002MPS 340V060 9999 FEW066 M18/M29 Q1008 NOSIG
RMK QFE741 88820555 MOD TURB 0-1000=
METAR UHPP 110430Z 31002MPS 9999 BKN026CB M04/M13 Q0995 NOSIG RMK MT
OBSC QFE742/0990 SC05 055 055=
METAR UHSS 110430Z 01003MPS 6000 -SHSN BKN033 M14/M17 Q1011 NOSIG MT
OBSC RMK QFE757/1009 01810366=
METAR UHWW 110430Z 00000MPS 9999 SKC M07/M22 Q1024 NOSIG RMK
QFE767/1023 25CLRD70=

0000066200
601
SARS33 RUMS 110430
METAR ULLI 110430Z 32005G10MPS 280V030 8000 -SN DRSN SCT011 BKN015
OVC066 M04/M06 Q0991 28550536 78550538 NOSIG=
METAR UUBW 110430Z 21003MPS 9999 OVC015 03/01 Q0985 NOSIG=
METAR UUDD 110430Z 21004MPS 9999 -RA BKN014 OVC100 03/02 Q0985
64290095 14290095 NOSIG=
METAR UUDL 110430Z 16002MPS 6000 OVC002 01/01 Q0983 NOSIG RMK QBB080
QFE729 23690532=
METAR UUEE 110430Z 21005MPS 7000 -RA OVC007 02/01 Q0984 75290151
25290151 NOSIG=
METAR UUWW 110430Z 23005MPS 9999 -RA BKN008 OVC016 02/01 Q0985
24290045 NOSIG=
METAR UUMO 110430Z 23003MPS 9999 -RA BKN008 OVC026 02/02 Q 985 NOSIG
RMK QFE724/0965 26250550=

0000038000
602
SARS31 RUMS 110430
METAR ULWC 110430Z 10001MPS 2300 BR OVC002 01/00 Q0981 TEMPO 1000
SNRA BR RMK QBB060 QFE726/0968 SC042=
METAR UUBP 110430Z NIL=
METAR UUOB 110430Z 25007MPS 9999 -SHRA BKN016CB 03/01 Q0998 29290050
NOSIG=
METAR UUOK 110430Z NIL=
METAR UWGG 110430Z 18004MPS 6000 -SN OVC007 01/00 Q0988 TEMPO 1000
SHSNRA VV004 18691035 RMK QFE734=

0000088600
603
SARS35 RUMS 110430
METAR USPP 110430Z 12003MPS 9999 OVC015 M05/M05 Q1006 21310140 NOSIG
RMK QFE744/0992=
METAR UWKD 110430Z 16011G14MPS 9999 OVC005 M00/M01 Q0997 R11/5/0245
TEMPO 2000 OVC003 RMK QFE738/0984=
METAR UWKE 110430Z 18005MPS 2300 -SN OVC006 M04/M04 Q1003 NOSIG RMK
 QBB190 QFE735/0980 21420542=
METAR UWKS 110430Z 16010MPS 1100 R06/1100D SHSN OVC006CB M01/M01
Q0993 TEMPO 1000 SHSN OVC004CB RMK QBB190 QFE730 06590534=
METAR UWLW 110430Z NIL=
METAR UWOR 110430Z NIL=
METAR UWOO 110430Z 23002MPS 3200 -FZDZ BR OVC006 M01/M02 Q1010
26830334 TEMPO 1000 BR OVC003 RMK QBB190 QFE747/0997=
METAR UWSS 110430Z 19007G10MPS 0250 R12/0700 SN FG VV002 00/00 Q0999
12590340 NOSIG RMK QVV070 QFE737=
METAR UWWW 110430Z 17008G11MPS 1100 R23/1100 BR OVC003 M01/M02 Q1003
23520540 33//99// TEMPO 0600 FZDZ FZFG VV002 RMK QBB090
QFE741/0988=

0000012000
604
SARA35 RUMS 110430
METAR USCM 110430Z VRB01MPS 6000 OVC012 M06/M08 Q1009 NOSIG 19420150
RMK QFE719=

0000057100
605
SARA36 RUMS 110430
METAR UWUU 110430Z 18003MPS 150V230 4000 BR OVC007 M01/M02 Q1007
14620342 TEMPO 1000 SN FZRA BKN003 RMK QFE745/0993=
METAR USCC 110430Z 13003MPS 3000 BR FU BKN008 OVC070 M07/M07 Q1010
09490350 TEMPO 1100 BR FU BKN005 RMK QFE737=
METAR USNN 110430Z 04003MPS 9000 -SN BKN009 OVC046 M15/M17 Q1019
NOSIG RMK QFE760 03410232=
METAR USRR 110430Z 10002MPS 070V130 7000 -SN FEW010 OVC070 M21/M24
Q1018 TEMPO BKN007 RMK QFE759 07////35=
METAR USSS 110430Z 13003MPS 7000 FEW007 OVC067 M05/M08 Q1008 08450137
NOSIG RMK QFE736=

0000095100
606
SARA34 RUMS 110430
METAR UNAA 110430Z VRB02MPS 9999 FEW043 BKN090 M04/M08 Q1031 NOSIG
RMK QFE751 20090040=
METAR UNBB 110430Z 21005MPS 9999 -SN BKN030 M08/M11 Q1031 NOSIG RMK
QFE751/1001 24452045=
METAR UNEE 110430Z 19005MPS 5000 -SN OVC012 M08/M09 Q1029 NOSIG RMK
QFE748 23452045=
METAR UNKL 110430Z 23003G06MPS 9999 -SHSN SCT033CB BKN083 M06/M11
Q1027 NOSIG RMK QFE745 29////40=
METAR UNNT 110430Z 22005MPS 6000 -SN DRSN BKN014 OVC030 M07/M09 Q1029
25390137 16390142 NOSIG RMK QFE762/1016=
METAR UNOO 110430Z 18005MPS 4500 BR BKN018 BKN033CB M08/M10 Q1023
25390137 NOSIG RMK QFE759=
METAR UNTT 110430Z 22005MPS 2600 -SHSN SCT006 BKN016CB OVC066 M07/M09
Q1027 NOSIG RMK QFE755 21390032=
METAR USTR 110430Z 17004MPS 9999 BKN015CB M07/M08 Q1013 NOSIG RMK
QFE750/1000 21390050 12750029=
METAR USHH 110430Z 04003MPS 9000 -SN BKN004 OVC080 M20/M22 Q1016
TEMPO 1000 SN BKN003 RMK QBB140 QFE758 06////50=

0000110000
607
SARS32 RUMS 110430
METAR URKA 110430Z 29004MPS 9999 SCT015 BKN120 06/04 Q1014 NOSIG RMK
QFE756/1008 SC070=
METAR URKK 110430Z 26008G11MPS 9999 BKN033 09/06 Q1012 TEMPO
24012G17MPS RMK QFE756 SC065=
METAR URML 110430Z 18003MPS 5000 BR BKN013 01/00 Q1012 NOSIG RMK MT
OBSC QFE759/1012 SC070=
METAR URMM 110430Z 00000MPS 9999 BKN230 M06/M06 Q1008 30CLRD70 NOSIG
RMK QFE728/0971=
METAR URMN 110430Z 24002MPS 9999 SCT100 SCT260 04/M09 Q1009 NOSIG RMK
QFE720 SC07=
METAR URMO 110430Z 09003MPS 9999 BKN150 M07/M08 Q1009 NOSIG RMK
QFE714/0952=
METAR URMT 110430Z 31005G08MPS CAVOK 07/M03 Q1008 NOSIG RMK QFE718
SC0.60=
METAR URRR 110430Z 27007G10MPS 9999 SCT005 FEW026CB OVC100 04/04
Q1007 22290043 TEMPO 25015G20MPS RMK QBB150 MAST OBSC=
METAR URSS 110430Z 06005G08MPS 9999 SCT130 BKN210 05/M03 Q1016 NOSIG
RMK R06/07006G11MPS QFE761 02000070 06//////=
METAR URWA 110430Z 17002MPS 9999 BKN040 01/M00 Q1013 NOSIG RMK
QFE761/1015 SC055=
METAR URWI 110430Z NIL=
METAR URWW 110430Z 20009G12MPS 9999 -RA BKN023 OVC100 03/02 Q1002
NOSIG RMK 29290060=

0000061600
608
SARS36 RUMS 110430
METAR ULAA 110430Z 07007MPS 0800 R08/1300VP2000U -SN BLSN VV007
M17/M19 Q1000 TEMPO 0600 +SN BLSN BKN003 RMK QFE749/0999 SC053=
METAR ULMM 110430Z 00000MPS 9999 SCT004 M34/M38 Q1017 NOSIG RMK
QBB130 OBST OBSC QFE755 31450239=
METAR ULOO 110430Z NIL=
METAR ULPB 110430Z NIL=
METAR UMKK 110430Z 25003MPS 9999 BKN020 03/01 Q1006 R24/29//60 NOSIG
RMK QFE753/1005=
METAR UUOO 110430Z 25005G08MPS 9999 OVC011 02/01 Q0994 NOSIG RMK
30290250=
METAR UUYY 110430Z 04003MPS 5000 -SHSN BR SCT008 BKN016CB OVC066
M12/M13 Q1001 TEMPO 0700 +SHSN 0145//35 RMK QFE742/0989=

00000000