0000047900
149
UDAS02 BABJ 111536
AMDAR 1115
DES CNFLWR 3942N 11638E 111531 F061 MS120 328/020 TB/ S//1=
DES CNFLWR 3945N 11637E 111532 F054 MS103 335/020 TB/ S//1=
DES CNFLWR 3947N 11637E 111533 F049 MS100 348/023 TB/ S//1=
LVR CNFPTK 3211N 12145E 111525 F266 MS328 262/090 TB/ S//1=
LVR CNFPTK 3232N 12142E 111528 F266 MS335 260/084 TB/ S//1=
LVR CNFPTK 3253N 12140E 111531 F266 MS353 262/078 TB/ S//1=
LVR CNFPTK 3313N 12137E 111534 F266 MS368 261/073 TB/ S//1=
0000072000
150
SICI28 BABJ 111500
AAXX 11151
55228 33/// 90000 11125 21303 36038 52022=
55578 33/// 90000 11079 21135 36349 52016=
55664 32/// 93401 11081 21230 35989 52019=
55773 32/// 91802 11130 21177 35995 52010=
56116 42/// 92901 11062 21086 36329 52010=
56137 33/// 92502 10004 21183 36780 52012=
56172 33/// 90000 10034 21083 37340 52027=
56247 32/69 92202 10082 21134 37415 52023=
56312 42/// 92201 10000 21064 37089 52010=
56462 32/80 92501 10005 21143 37130 52022=
56651 33/// 92001 10054 21078 37662 52013=
56691 32/// 90203 11032 21039 37831 52018=
56985 33/// 91603 10118 20079 40192 52018=
57633 33/// 93201 10026 20005 40339 52011=
57902 42/// 90201 10027 20021 40309 52018=
0000003800
151
SICI29 BABJ 111500
NIL
0000011100
152
UANT99 KDDL 111543
ARP BAW2153 4803N01546W 1543 F380 MS62 231/79 KT
GVIIW QXT AOE 111543 F07A
0000046900
153
SAIO31 KWBC 110400
METAR
FIMP 110400Z 09009KT 9999 SCT017 28/24 Q1017=
FIMR NIL=
FJDG 110355Z 29017G22KT 9999 SCT020 BKN050 OVC080 27/25 A2990 RMK
     SLP122 T02720252=
FMCH NIL=
FMCV NIL=
FMCZ NIL=
FMEE NIL=
FMMI 110400Z 00000KT 7000 FEW008 BKN230 20/20 Q1022 NOSIG=
FMMT NIL=
FMNN NIL=
FSIA 110400Z 00000KT 9999 FEW014CB 28/23 Q1012 NOSIG=
FSSS NIL=
VRMM NIL=
VYMD NIL=
VYYY NIL=
WBGG NIL=
WBKK NIL=
WBSB NIL=

0000011800
154
SACN62 CYXC 110400
METAR CYXC 110400Z 22006KT 20SM FEW030 OVC070 02/M02 A2977 RMK SC2AC6
 SLP119=

0000012300
155
FTBZ21 SBRF 110403
TAF SBPL 110400Z 1106/1206 12008KT 9999 FEW025
TN23/1107Z TX31/1117Z 
RMK
 PDG=

0000012300
156
FTBZ21 SBRF 110403
TAF SBPS 110400Z 1106/1206 27005KT 8000 SCT020
TN22/1107Z TX27/1117Z 
RMK
 PDG=

0000016300
157
FTBZ21 SBRF 110403
TAF SBRF 110400Z 1106/1206 15010KT 9999 SCT020
TN22/1107Z TX30/1115Z 
PROB30
 TEMPO 1106/1108 4000 SHRA SCT010 RMK PDG=

0000012300
158
FTBZ21 SBRF 110403
TAF SBSV 110400Z 1106/1206 10007KT 9999 SCT017
TN24/1108Z TX30/1115Z 
RMK
 PDG=

0000246000
159
SPUS70 KWBC 110404
SPECI
PASC 110400Z 24018KT 1 1/4SM -SN BR OVC008 M28/M31 A2982 RMK AO2
     CIG 007V010 P0000=
KAMG 110400Z AUTO 14005KT 3/4SM BR OVC002 18/17 A3008 RMK AO2
     T01830172 $=
KCHO 110400Z 00000KT 1 3/4SM -RA BR OVC013 02/02 A3014 RMK AO2
     PRESFR P0000 T00170017=
KCSV 110400Z AUTO 17008KT 3SM BR OVC004 10/09 A2994 RMK AO2=
KFRG 110400Z AUTO 00000KT 1SM BR OVC003 03/03 A3026 RMK AO2=
KGNV 110400Z AUTO 18003KT 3/4SM BR SCT003 BKN013 OVC039 19/19
     A3011 RMK AO2 T01940194=
KLFT 110400Z AUTO 19011G18KT 7SM -TSRA BKN006 OVC020 19/18 A2987
     RMK AO2 LTG DSNT NE AND E P0001=
KNEW 110400Z AUTO 16010KT 2SM BR BKN002 BKN015 OVC031 17/16 A2993
     RMK AO2 T01670161 TSNO=
KOJC 110400Z AUTO 28005KT 3SM BR OVC003 02/01 A2962 RMK AO2
     T00170011=
KOKB 110400Z AUTO 00000KT 3/4SM BR VV009 08/07 A3008 RMK AO2
     TSNO=
KPDK 110400Z AUTO 00000KT 3/4SM BR OVC002 08/07 A3004 RMK AO2
     RAE0359 P0000=
KSBM 110400Z AUTO 19006KT 5SM BR OVC005 01/01 A2948 RMK AO2 CIG
     003V009 T00110011=
KSSF 110400Z AUTO 00000KT 1 3/4SM BR CLR 12/12 A2986 RMK AO2=
KAFN 110401Z AUTO 00000KT 1 3/4SM BR OVC003 M01/M02 A3024 RMK AO2
     T10061017=
KBFD 110401Z AUTO 15012G20KT 2 1/2SM BR OVC003 02/ A2996 RMK AO2
     T0022 TSNO $=
KCEW 110401Z AUTO 17008KT 3SM -RA BR OVC003 19/19 A3001 RMK AO2
     P0000 T01940189=
KEWN 110401Z AUTO 13008KT 3SM -RA BR OVC008 19/18 A3013 RMK AO2
     RAB0355 CIG 005V011 P0003=
KOWB 110401Z AUTO 27007KT 1 3/4SM TSRA BR FEW001 BKN018 OVC023
     08/08 A2976 RMK AO2 LTG DSNT S TSB0357E0359B01 P0001=
KPAE 110401Z 15012G20KT 10SM SCT023 BKN028 OVC046 08/04 A2974 RMK
     AO2=
KSRC 110401Z AUTO 21007KT 5SM -RA BR SCT003 BKN019 OVC055 11/11
     A2968 RMK AO2 TSNO BKN V SCT P0001=
KYIP 110401Z AUTO 15007KT 3SM BR OVC004 04/02 A2973 RMK AO2 CIG
     002V006 PRESFR P0001 TSNO=
KTDR 110359Z AUTO 14009KT 1 3/4SM BR OVC002 17/ A3006 RMK AO2 VIS
     1 3/4V2 1/2 $=
PAOH 110401Z AUTO 00000KT 1 1/4SM BR SCT004 BKN035 OVC045 M01/M01
     A2935 RMK AO2 TSNO BKN V SCT $=
KBGM 110401Z 16007KT 1SM BR OVC002 01/01 A3009 RMK AO2 RVRNO=
KBRL 110401Z AUTO 25006KT 4SM HZ OVC003 09/03 A2952 RMK AO2
     T00940033=
KENW 110401Z AUTO 20011KT 2 1/2SM RA BR BKN006 BKN012 OVC017 04/03
     A2951 RMK AO2 CIG 005V010 P0002 T00440028=
KTQE 110402Z AUTO 27005KT 2SM BR CLR M03/M04 A2960 RMK AO2
     T10331044=

0000010400
160
SPUS31 KWBC 110404
SPECI
KLIT 110400Z 23008KT 7SM FEW015 BKN070 OVC090 14/13 A2970=

0000009800
161
SPUS41 KWBC 110404
SPECI
KCEF 110359Z AUTO 00000KT 2SM BR OVC003 00/00 A3027=

0000085900
162
SAEG32 HECA 110400
METAR HEAL 110400Z NIL=
METAR HEAR 110400Z 00000KT 9999 BKN025 11/10 Q1022 NOSIG=
METAR HEAX 110400Z 00000KT CAVOK       12/09 Q1023 NOSIG=
METAR HEMM 110400Z 24006KT 9999 BKN020 11/09 Q1024 NOSIG=
METAR HEPS 110400Z 36008KT 9999 FEW025 16/14 Q1023 NOSIG=
METAR HELX 110400Z 17002KT CAVOK       08/05 Q1023 NOSIG=
METAR HESN 110400Z 36003KT CAVOK       10/04 Q1023 NOSIG=
METAR HEGN 110400Z 30012KT CAVOK       13/08 Q1023 NOSIG=
METAR HESH 110400Z 35004KT 9999 FEW020 13/03 Q1022 NOSIG=
METAR HEBA 110400Z 00000KT CAVOK       10/09 Q1024 NOSIG=
METAR HEMA 110400Z 33015KT CAVOK       14/01 Q1020 NOSIG=
METAR HETB 110400Z NIL=
METAR HESC 110400Z 29006KT 9999 SCT025 05/02 Q1024 NOSIG=
METAR HEBL 110400Z NIL=
METAR HEAT 110400Z 00000KT 80000 NSC   05/04 Q1024 NOSIG=
METAR HESG 110400Z NIL=

0000055000
163
SATH33 VTBB 110400
METAR VTBO 110400Z 07014KT 6000 FEW030 SCT200 30/21 Q1016=
METAR VTUD 110400Z 07005KT 010V160 CAVOK 25/15 Q1019
A3015 INFO F RWY30=
METAR VTUI 110400Z NIL=
METAR VTUK 110400Z 06007KT 020V100 CAVOK 26/18 Q1019 A3009
RWY03 INFO F=
METAR VTUL 110400Z 28003KT 3000 HZ NSC 24/15 Q1017 A3006=
METAR VTUO 110400Z NIL=
METAR VTUQ 110400Z NIL=
METAR  VTUU 110400Z 31002KT CAVOK 26/18 Q1017 A3004 NOSIG=
METAR VTUV 110400Z NIL=
METAR VTUW 110400Z 07009KT 9999 FEW040 27/14 Q1018 A3007
RWY15 INFO D=

0000091100
164
SACI31 ZBBB 110400
METAR ZBAA 110400Z 32002MPS 220V030 CAVOK 01/M25 Q1030 NOSIG=
METAR ZBSJ 110400Z 27001MPS 1600 R33/1300N FU NSC 02/M12 Q1030
 NOSIG=
METAR ZBTJ 110400Z 19003MPS 0600 R16R/0750N HZ NSC M00/M06 Q1031
NOSIG=
METAR ZBYN 110400Z 16002MPS 3500 HZ NSC M00/M18 Q1028 NOSIG=
METAR ZGGG 110400Z VRB01MPS 5000 HZ NSC 18/09 Q1024 NOSIG=
METAR ZSHC 110400Z 09003MPS 2500 -RA BR SCT008 BKN026 06/04
Q1030
BECMG TL0500 3500 -RA=
METAR ZSPD 110400Z 05005MPS 010V080 9999 -RA NSC 07/03 Q1031 NOSIG=
METAR ZSSS 110400Z 09005MPS 070V130 9999 -RA FEW020 07/03 Q1030
NOSIG=
METAR ZWSH 110400Z 35001MPS 5000 FU NSC M07/M11 Q1035 NOSIG=
METAR ZWWW 110400Z 29002MPS 260V320 0500 R25/0650N FZFG
SCT006
M20/M23 Q1036 BECMG TL0530 0700 FZFG=
METAR ZYTL 110400Z 29006MPS 4000 HZ NSC 05/M12 Q1030 NOSIG=
METAR ZYTX 110400Z 21004MPS 170V230 CAVOK M02/M19 Q1028 NOSIG=

0000041100
165
SATH31 VTBB 110400
METAR VTCH 110400Z NIL=
METAR VTCL 110400Z NIL=
METAR VTCN 110400Z VRB02KT CAVOK 25/14 Q1019
RMK/RWY02 INFO A=
METAR VTCP 110400Z 00000KT 5000 NZ NSC 26/17 Q1018 A3008
INFO D=
METAR VTCT 110400Z 05003KT 1500 BR OVC008 19/18 Q1020 A3014
RMK/RWY03 INFO E=
METAR VTPH 110400Z NIL=
METAR VTPO 110400Z NIL=
METAR VTPP 110400Z 01004KT 7000 FEW030 28/17 Q1017=

0000100100
166
SACI32 ZBBB 110400
METAR ZGKL 110400Z VRB01MPS 2200 -RA BR FEW003 SCT010 OVC026
07/06
Q1028 NOSIG=
METAR ZGNN 110400Z 06004MPS 2500 BR SCT015 OVC026 14/11 Q1024 NOSIG=
METAR ZGOW 110400Z 11002MPS 050V160 6000 NSC 17/09 Q1025 NOSIG=
METAR ZGSZ 110400Z 32004MPS 5000 HZ NSC 18/11 Q1024 NOSIG=
METAR ZLXY 110400Z 24004MPS 4000 HZ NSC 05/M11 Q1033 NOSIG=
METAR ZMUB 110400Z 00000MPS 1500NW 2000SE R14/0600N R32/P2000U FU
BR
NSC M26/M29 Q1028 NOSIG RMK QFE662.8 72 NW SE MO=
METAR ZPPP 110400Z 24010MPS CAVOK 13/M02 Q1024 NOSIG=
METAR ZSAM 110400Z 06003MPS 360V140 CAVOK 19/12 Q1025 NOSIG=
METAR ZSFZ 110400Z 35003MPS 310V060 9999 BKN027 BKN050 15/07 Q1026
NOSIG=
METAR ZSNB 110400Z 29002MPS 2000 -RA BR FEW005 BKN020 OVC050
06/06
Q1030 NOSIG=
METAR ZSQD 110400Z VRB01MPS 1600 R17/1300N FU NSC 04/M05 Q1032
NOSIG=
METAR ZUGY 110400Z 02002MPS 9999 FEW007 BKN015 OVC030 02/01 Q1027
NOSIG=
METAR ZUUU 110400Z VRB01MPS 4000 HZ NSC 09/02 Q1029 NOSIG=

0000045600
167
SATH32 VTBB 110400
METAR VTSB 110400Z 06011KT 9999 FEW020 30/23 Q1014
A2996 INFO E / RWY 04=
METAR VTSC 110400Z NIL=
METAR VTSF 110400Z 06006KT 020V090 9999 FEW022 BKN300
30/23 Q1014 A2996 INFO E / RWY 19=
METAR VTSG 110400Z NIL=
METAR VTSH 110400Z NIL=
METAR VTSM 110400Z 12012KT 9000 FEW020 BKN300 30/23 
Q1015 A2999=
METAR VTSR 110400Z NIL=
METAR VTST 110400Z 05009KT 9000 FEW020 BKN300 31/20 Q1012 RWY08
INFO E=

0000029500
168
SAAE32 VTBB 110400
METAR VLLB 110400Z 36002KT 3000 BR OVC007 18/16 Q1020 NOSIG=
METAR VLLN 110400Z 36002KT 5000 BR SCT017 OVC100 18/16 Q1020 NOSIG=
METAR VLPS 110400Z 22004KT 8000 FEW200 27/18 Q1017 NOSIG=
METAR VLSK 110400Z 09008KT 6000 FEW020 FEW100 26/18 Q1018 NOSIG=

00000000