0000056400
349
SAUK31 EGGY 110350
METAR EGBB 110350Z AUTO 25006KT 9999 FEW047/// 07/06 Q1011 RERA=
METAR EGCC 110350Z AUTO 31005KT 9999 -RA FEW022 SCT031 BKN040
    05/03 Q1011 RERA=
METAR EGKK 110350Z 22006KT 180V250 9999 BKN008 08/07 Q1013=
METAR EGLL 110350Z 21009KT 9999 FEW019 BKN032 08/07 Q1012=
METAR EGPF 110350Z VRB03KT 9999 FEW014TCU SCT025 BKN046 01/00
    Q1009=
METAR EGPH 110350Z 26006KT 9999 FEW040 01/M00 Q1009=
METAR EGPK 110350Z 25006KT 9999 FEW028 04/02 Q1010=
METAR EGSS 110350Z 22014KT 9999 -RA BKN008 OVC017 08/06 Q1011=

0000049200
350
SAUK32 EGGY 110350
METAR EGAA 110350Z AUTO 23009KT 9999 BKN014/// 02/01 Q1012=
METAR EGAC 110350Z NIL=
METAR EGFF 110350Z 30009KT CAVOK 06/04 Q1013=
METAR EGGW 110350Z 22010KT 4800 DZ BR OVC004 07/07 Q1011=
METAR EGLC 110350Z AUTO 22009KT 9999 -SHRA BKN030/// BKN045///
    09/07 Q1012 RERA=
METAR EGNM 110350Z 30009KT 9999 FEW030 04/02 Q1009=
METAR EGNX 110350Z 26009KT 9999 SCT011 BKN019 07/06 Q1010=
METAR EGPD 110350Z AUTO 26011KT 9999 NCD 02/M02 Q1005=

0000033000
351
SAUK33 EGGY 110350
METAR EGGD 110350Z 26011KT 9999 BKN039 06/06 Q1013=
METAR EGGP 110350Z 25003KT 9999 VCSH FEW031 05/03 Q1012=
METAR EGHI 110350Z NIL=
METAR EGNS 110350Z NIL=
METAR EGNT 110350Z NIL=
METAR EGNV 110350Z NIL=
METAR EGPB 110350Z AUTO 27019KT 9999 FEW023/// SCT026/// 06/03
    Q0999=

0000031500
352
SAUK34 EGGY 110350
METAR EGHE 110350Z NIL=
METAR EGHK 110350Z NIL=
METAR EGHQ 110350Z NIL=
METAR EGJA 110350Z NIL=
METAR EGJB 110350Z 23011KT 9999 FEW007 SCT009 BKN033 09/08 Q1015=
METAR EGJJ 110350Z 21006KT 9999 FEW006 08/07 Q1015 TEMPO 7000 -RA
    BKN005=
METAR EGTE 110350Z NIL=

0000028900
353
SAUK35 EGGY 110350
METAR EGHH 110350Z NIL=
METAR EGKA 110350Z NIL=
METAR EGKB 110350Z NIL=
METAR EGLF 110350Z NIL=
METAR EGMC 110350Z 20011KT 9999 -RA FEW015 SCT026 BKN049 08/06 Q1012=
METAR EGMD 110350Z NIL=
METAR EGMH 110350Z NIL=
METAR EGTC 110350Z NIL=

0000031400
354
SAUK36 EGGY 110350
METAR EGBE 110350Z NIL=
METAR EGBJ 110350Z NIL=
METAR EGCN 110350Z NIL=
METAR EGSC 110350Z NIL=
METAR EGSD 110350Z NIL=
METAR EGSH 110350Z AUTO 21012KT 9999 -RA SCT007/// BKN012///
    BKN017/// 07/07 Q1010 RERA=
METAR EGVN 110350Z NIL=
METAR EGWU 110350Z NIL=

0000029800
355
SAUK37 EGGY 110350
METAR EGAE 110350Z NIL=
METAR EGNC 110350Z NIL=
METAR EGNH 110350Z NIL=
METAR EGNJ 110350Z NIL=
METAR EGNO 110350Z NIL=
METAR EGNR 110350Z NIL=
METAR EGPE 110350Z 22009KT 9999 FEW010 01/M00 Q1006=
METAR EGPI 110350Z NIL=
METAR EGPN 110350Z NIL=

0000044300
356
SAUK38 EGGY 110350
METAR EGEC 110350Z NIL=
METAR EGEO 110350Z NIL=
METAR EGPA 110350Z AUTO 29014KT 9999 FEW020/// SCT037/// 04/02
    Q1002=
METAR EGPC 110350Z AUTO 25013KT 9999 NCD 02/M00 Q1003=
METAR EGPL 110350Z AUTO 24009KT 9999 // FEW038/// 04/01 Q1006=
METAR EGPM 110350Z AUTO 27008KT 9999 FEW014/// 05/02 Q0998 RERA=
METAR EGPO 110350Z AUTO 28010KT 9999 SCT027/// 02/M00 Q1005=
METAR EGPU 110350Z NIL=

0000040200
357
SASW32 LSSW 110350
METAR LSGC 110350Z AUTO 00000KT CAVOK 01/01 Q1016=
METAR LSGS 110350Z NIL=
METAR LSZG 110350Z AUTO 03002KT 0250 FG VV002 02/02 Q1018=
METAR LSZR 110350Z AUTO 00000KT 0800 R10/P2000N BR NCD 03/02 Q1018=
METAR LSZS 110350Z NIL=
METAR LSZC 110350Z AUTO 27002KT 0250 FG VV002 01/01 Q1018=
METAR LSZL 110350Z AUTO VRB01KT 9999NDV OVC046 07/05 Q1021 RMK WHT=

0000072200
358
FTUS31 KWBC 110354 AAA
TAF AMD
KABQ 110352Z 1104/1124 30012KT P6SM FEW250
      TEMPO 1104/1106 VRB05KT
     FM110600 34004KT P6SM SCT250
     FM112000 28006KT P6SM FEW250=
KATL 110352Z 1104/1206 12005KT 1SM -RADZ BR OVC002
     FM111000 16009KT 3SM -SHRA BR OVC004
     FM111400 21010G18KT 4SM -SHRA BR OVC007
     FM111900 27013G22KT P6SM BKN025
     FM112100 29014G23KT P6SM SCT040
     FM120000 28011KT P6SM SCT250=
KIND 110351Z 1104/1206 18009KT 1/2SM -RA FG VV002
     FM110600 18010KT 1SM -RA BR OVC003
     FM110900 21012KT 2SM -RA BR OVC006
     FM111400 25014G22KT 6SM -RA BR SCT007 OVC010
     FM111800 25014G24KT P6SM BKN025
     FM120000 27012KT P6SM BKN025=

0000022700
359
FTUS41 KWBC 110354 AAA
TAF AMD
KLUK 110352Z 1104/1124 17007KT 6SM -SHRA BR OVC028
      TEMPO 1106/1109 2SM RA BR BKN006
     FM111300 21010G18KT P6SM VCSH OVC012
     FM111600 25012G22KT P6SM OVC025=

0000040200
360
FTUS71 KWBC 110354 AAA
TAF AMD
KLCK 110351Z 1104/1124 16009KT P6SM BKN035
     FM110500 17010KT 6SM BR VCSH OVC020
     FM110800 17012KT 4SM -RA BR OVC008
     FM111400 23014G23KT P6SM VCSH OVC012=
KLUK 110352Z 1104/1124 17007KT 6SM -SHRA BR OVC028
      TEMPO 1106/1109 2SM RA BR BKN006
     FM111300 21010G18KT P6SM VCSH OVC012
     FM111600 25012G22KT P6SM OVC025=

0000082100
361
SASN32 ESWI 110350
METAR ESKN 110350Z 14008KT 2300 SN VV014 M03/M03 Q0999 R26/710195=
METAR ESOE 110350Z AUTO 03006KT 3400NDV FZUP FEW006/// OVC008///
M02/M03 Q0998 RESN=
METAR ESOK 110350Z AUTO 02005KT 9999 OVC007/// M01/M01 Q0997=
METAR ESOW 110350Z AUTO 04005KT 2400NDV -SN NCD M04/M06 Q1001 RESG
REPL=
METAR COR ESSA 110350Z 31002KT 6000 -SN SCT012 BKN024 OVC034 M04/M05
Q1001 R01L/510165 R08/19//58 R01R/19//68 TEMPO 4000=
METAR ESSB 110350Z AUTO 00000KT 0400NDV R12/0900V1400D
R30/0800V1500D +SN VV001 M04/M05 Q1000=
METAR ESSD 110350Z AUTO 03004KT 360V070 7000 -SN FEW001/// BKN017///
OVC032/// M07/M09 Q1001=
METAR ESSP 110350Z AUTO 11005KT 5000NDV -FZDZ OVC005/// M01/M01
Q1000=
METAR ESSV 110350Z AUTO 19005KT 9999NDV FEW011/// SCT021///
BKN059/// M01/M02 Q1002=

0000069000
362
SASN33 ESWI 110350
METAR ESNG 110350Z AUTO 03003KT 320V130 9999 NCD M18/M21 Q1012=
METAR ESNK 110350Z AUTO 33011KT 9000 -SN BKN016/// OVC032/// M10/M13
Q1005 RESG=
METAR ESNN 110350Z AUTO 33009KT 3600NDV -SN FEW007/// SCT020///
M10/M12 Q1004 R16/49/79=
METAR ESNO 110350Z AUTO 35010KT 6000 -SN OVC018/// M12/M14 Q1003=
METAR ESNQ 110350Z AUTO VRB01KT 1800NDV NCD M23/M25 Q1012=
METAR ESNS 110350Z AUTO 35013KT //// VV006 M13/M15 Q1006=
METAR ESNU 110350Z AUTO 35014KT 1900 -SN VV016 M11/M14 Q1004
R14/49//50=
METAR ESNZ 110350Z AUTO 03004KT 5000NDV -SN VV024 M15/M17 Q1002=
METAR ESUT 110350Z AUTO 23010G22KT 160V280 3400 -SN ///029 M13/M19
Q1005=

0000058200
363
SASN34 ESWI 110350
METAR ESCF 110350Z AUTO 20008KT 9999NDV BKN015/// OVC019/// 01/01 
Q0999=
METAR ESDF 110350Z AUTO 23006KT 200V260 9999NDV -RA BKN014/// 
BKN019/// OVC024/// 05/04 Q1005=
METAR ESIB 110350Z AUTO 25013KT 9999NDV SCT015/// BKN027/// 05/04 
Q0999=
METAR ESMV 110350Z NIL=
METAR ESPA 110350Z AUTO 02009KT 340V040 9999NDV -IC BKN021/// 
M15/M18 Q1010=
METAR ESPE 110350Z AUTO 01009KT 9999NDV BKN054/// BKN120/// M16/M19 
Q1010=
METAR ESSL 110350Z AUTO 21008KT 9999NDV FEW015/// SCT024///
OVC030/// 01/01 Q0999 REUP R29/19//95=

0000040400
364
SASN35 ESWI 110350
METAR ESGR 110350Z NIL=
METAR ESKM 110350Z NIL=
METAR ESNL 110350Z AUTO 34007KT 6000NDV SG SCT027/// BKN035///
M13/M16 Q1006=
METAR ESNX 110350Z AUTO 02012KT 5000NDV SG ///038 M16/M19 Q1007=
METAR ESNY 110350Z NIL=
METAR ESSF 110350Z NIL=
METAR ESSK 110350Z NIL=
METAR ESUD 110350Z AUTO 36004KT 8000 -SN FEW011/// BKN032///
BKN062/// M14/M17 Q1007=

0000045800
365
FTUS72 KWBC 110354 AAA
TAF AMD
KABQ 110352Z 1104/1124 30012KT P6SM FEW250
      TEMPO 1104/1106 VRB05KT
     FM110600 34004KT P6SM SCT250
     FM112000 28006KT P6SM FEW250=
KATL 110352Z 1104/1206 12005KT 1SM -RADZ BR OVC002
     FM111000 16009KT 3SM -SHRA BR OVC004
     FM111400 21010G18KT 4SM -SHRA BR OVC007
     FM111900 27013G22KT P6SM BKN025
     FM112100 29014G23KT P6SM SCT040
     FM120000 28011KT P6SM SCT250=

0000031300
366
FTUS73 KWBC 110354 AAA
TAF AMD
KIND 110351Z 1104/1206 18009KT 1/2SM -RA FG VV002
     FM110600 18010KT 1SM -RA BR OVC003
     FM110900 21012KT 2SM -RA BR OVC006
     FM111400 25014G22KT 6SM -RA BR SCT007 OVC010
     FM111800 25014G24KT P6SM BKN025
     FM120000 27012KT P6SM BKN025=

0000020900
367
FTUS75 KWBC 110354
TAF
TAF AMD PGUA 1103/1208 06012G18KT 9999 SCT020 SCT030 QNH2981INS
      TEMPO 1103/1109 06015G25KT 9000 -SHRA SCT015 BKN025
      TX29/1105Z TN25/1117Z AMD 110350=

0000009900
368
SAQB31 LQMO 110400
METAR LQMO 110400Z 01002KT 2000 BR SCT035 OVC060 07/07 Q1022=

00000000