0000014200
849
UANT99 KDDL 111538
ARP AAL47 5614N02054W 1538 F360 5800N03000W 1620 6000N04000W MS64
 216/72 KT
N754AN DDL XXN 111538 F37A
0000045100
850
SXXX32 EUMS 111531 RRX
1227146C
:PRS 1 /1 3460 3462 3465 3469 3472 3477 3482 3485 3486 3491 3499 3505 3505 3512 3517 3520 3523 3528 3532 3534 3538 3541 3544 3551 3557 3557 3562 3569 3572 3573 :RAD 3 /3 3451 3458 3475 3485 3503 3513 3521 3535 3552 3561 3577 3587 3589 3613 3617 3636 3648 3657 3676 3681 :ENC 1 /5 4223 4243 4266 4286 4305 4326 4350 4367 4385 4406 4428 4445 :SW1 32 /60 0 :SW2 2 /60 25 :BAT 14 /15 12.2 :NAME 1227146C /
0000042000
851
SXXX32 EUMS 111531 RRX
26CB10AC
:PRS 1 /1 -1339 -1339 -1339 -1339 -1339 -1339 -1339 -1339 -1339 -1339 -1339 -1339 -1339 -1340 -1339 -1339 -1339 -1339 -1339 -1339 -1339 -1339 -1339 -1339 -1339 -1339 -1339 -1339 -1340 -1339 :RAD 3 /3 6280 6272 6267 6264 6260 6253 6248 6242 6238 6232 :RA2 3 /3 6268 6254 6253 6247 6246 6237 6235 6222 6226 6215 :SW1 32 /60 0 :SW2 2 /60 0 :BAT 14 /15 12.3 :NAME 26CB10AC /
0000053400
852
SXXX32 EUMS 111531 RRX
3246B586
:PRS 1 /1 13271 13714 13714 13263 13714 13714 13714 13714 13714 13714 13714 13714 13695 13273 13714 :RAD 3 /3 7060 7064 7072 7070 7062 7063 7068 7062 7054 7033 :ENC 10 /15 5280 5280 :SW1 32 /60 0 :SW2 2 /60 0 :WTP 1 /15 -4.2 :BAT 13 /15 12.9 :WAV 1 /10 2.2 2.4 2.7 :DAV 1 /10 100 110 73 :WMX 1 /10 3.7 3.4 5.0 :TPA 1 /15 27.8 :TMN 211 /720 25.8 :TMX 211 /720 29.2 :HUM 1 /15 78.7 :PRA 1 /15 1011.5 :RAC 31 /60 0.0 :RDU 31 /60 0 :RIN 31 /60 0.0 :DAC 931 /1440 10.9 :DDR 931 /1440 16460
0000007400
853
FCUK53 EGRR 111400 AAB
TAF AMD EGUY 111538Z 1115/1118 CNL=
0000096000
854
SAKZ31 RUMS 110330
METAR UAAA 110330Z 17002MPS 0400 R23R/0400N R23L/0400N BR FU BKN200
M13/M16 Q1025 8891//60 NOSIG=
METAR UACC 110330Z 18007MPS 9999 -SN DRSN OVC023 M08/M10 Q1023
R22/8/0040 NOSIG RMK QFE736/0981=
METAR UAKK 110330Z 17011MPS 9999 BKN021 OVC200 M15/M17 Q1026
R23/850555 NOSIG RMK QFE722/0963=
METAR UAOO 110330Z 17006MPS 3300 BR BKN130 M06/M08 Q1022 R24/3///55
NOSIG RMK QFE754/1006=
METAR UARR 110330Z 21008MPS 9000 -FZDZ OVC004 M01/M01 Q1009
R22/750245 TEMPO 1000 FZDZ BR OVC003 RMK QBB130 QFE754/1005=
METAR UATE 110330Z 12005MPS 5000 BR SCT002 OVC017 00/00 Q1017
R12/0///70 NOSIG RMK QBB070 QFE761/1014=
METAR UATG 110330Z 19005MPS 5000 BR OVC023 01/01 Q1015 R14/19//65
NOSIG RMK QFE763/1018=
METAR UATT 110330Z 24004MPS 5000 BR OVC002 M01/M01 Q1011 R13/390135
NOSIG RMK QBB080 QFE739/0985=
METAR UAUU 110330Z 18006MPS 9999 BKN033CB OVC100 M08/M10 Q1014
R15/CLRD60 NOSIG RMK QFE744/0992=

0000030800
855
FTUS31 KWBC 110336 AAA
TAF AMD
KATL 110333Z 1104/1206 13005KT 2SM -RADZ BR OVC002
     FM111000 16009KT 3SM -SHRA BR OVC004
     FM111400 21010G18KT 4SM -SHRA BR OVC007
     FM111900 27013G22KT P6SM BKN025
     FM112100 29014G23KT P6SM SCT040
     FM120000 28011KT P6SM SCT250=

0000021600
856
SAAY31 RUMS 110330
METAR UDYZ 110330Z 00000MPS 1600 -SN BR BKN007 OVC016 M10/M11 Q1026
R09/490350 NOSIG=
METAR UDSG 110330Z 00000MPS M0075 R02/0175D FZFG VV001 M18/M20 Q1020
R02/CLRD70 NOSIG=

0000020100
857
SAKY31 RUMS 110330
METAR UCFM 110330Z VRB01MPS 4000 FU NSC M10/M16 Q1024 R08/CLRD70
NOSIG=
METAR UCFO 110330Z 20003MPS 2900 BR FU NSC M05/M11 Q1026 R12/CLRD70
TEMPO 1000 BR FU=

0000023300
858
SATA31 RUMS 110330
METAR UTDD 110330Z VRB01MPS 0750 R09/0750N FZFG BKN170 M07/M08 Q1027
09CLRD70 NOSIG RMK QFE702/0936=
METAR UTDL 110330Z 06007MPS 3700 BR OVC210 M03/M07 Q1027 NOSIG RMK
QFE731/0974 8819//65=

0000009800
859
SANL33 EHDB 110325 RRA
METAR EHJR 110325Z AUTO 21027G31KT  08/06 Q1009 W10/H22=

0000010200
860
SANL33 EHDB 110325 RRB
METAR EHSC 110325Z AUTO 22023G28KT 8000 06/06 Q1013 W08/H14=

0000014000
861
SAIO31 KWBC 110300 RRF
METAR
VYMD 110330Z 00000KT 7000 HZ NSC 21/16 Q1019=
VYYY 110330Z 05006KT 8000 NSC 25/22 Q1017=

0000010200
862
SANL33 EHDB 110325 RRC
METAR EHSA 110325Z AUTO 22024G28KT 9999 07/06 Q1013 W09/H17=

0000025800
863
FTUS42 KWBC 110336 AAA
TAF AMD
KNEW 110335Z 1104/1124 11010KT 1SM RA BR OVC002
      TEMPO 1105/1109 2SM TSRA OVC006CB
     FM110900 22015KT 3SM -RA BR OVC002
     FM111200 27013KT 2SM BR OVC003
     FM111600 30012KT P6SM SCT250=

0000096900
864
FTUS72 KWBC 110336 AAA
TAF AMD
KATL 110333Z 1104/1206 13005KT 2SM -RADZ BR OVC002
     FM111000 16009KT 3SM -SHRA BR OVC004
     FM111400 21010G18KT 4SM -SHRA BR OVC007
     FM111900 27013G22KT P6SM BKN025
     FM112100 29014G23KT P6SM SCT040
     FM120000 28011KT P6SM SCT250=
KGNV 110333Z 1104/1124 00000KT 3SM BR BKN020
      TEMPO 1104/1106 1/2SM FG BKN005
     FM110600 16003KT 2SM BR BKN005 OVC010
      TEMPO 1108/1112 1/2SM FG OVC003
     FM111400 20010G18KT P6SM VCSH BKN015 OVC025
     FM111700 24014G23KT 5SM -SHRA OVC015=
KJBR 110334Z 1104/1124 VRB03KT 2SM -RA BR VCTS BKN003 BKN025CB
     FM110700 24012KT P6SM BKN012 OVC070
     FM111000 25010KT P6SM SCT020
     FM111500 27012G20KT P6SM SCT025=
KNEW 110335Z 1104/1124 11010KT 1SM RA BR OVC002
      TEMPO 1105/1109 2SM TSRA OVC006CB
     FM110900 22015KT 3SM -RA BR OVC002
     FM111200 27013KT 2SM BR OVC003
     FM111600 30012KT P6SM SCT250=

0000038200
865
FTFR31 LFPW 102300 AAG
TAF AMD LFPG 110332Z 1103/1206 VRB03KT 6000 -RA BKN040 PROB40 TEMPO
1103/1111 4000 BR BKN003 PROB30 TEMPO 1103/1111 0500 FG VV/// BECMG
1107/1109 22005KT PROB40 TEMPO 1111/1113 1200 BCFG BKN005 BECMG
1113/1115 8000 NSW BKN008 BECMG 1116/1118 CAVOK BECMG 1122/1124 3000
BR BKN005 BECMG 1200/1202 0900 FG BKN002 TX08/1113Z TN01/1124Z=

0000034200
866
SAAL31 DAAA 110330
METAR DAAG 110330Z 00000KT 9999 FEW030 SCT080 10/07 Q1016=
METAR DAAT 110330Z 07002KT CAVOK 11/M05 Q1022=
METAR DABB 110330Z 20003KT CAVOK 07/06 Q1016=
METAR DABC 110330Z  00000KT CAVOK 07/03 Q1020=
METAR DAON 110330Z NIL=
METAR DAOO 110330Z NIL=
METAR DAUH 110330Z 00000KT CAVOK 09/07 Q1020=

0000019100
867
SAIE32 EIDB 110330
METAR EICM 110330Z NIL=
METAR EIDL 110330Z NIL=
METAR EIKY 110330Z NIL=
METAR EIME 110330Z NIL=
METAR EISG 110330Z NIL=
METAR EIWF 110330Z NIL=

0000052100
868
SAAE33 VTBB 110330
METAR VVTS 110330Z VRB01KT 3900 HZ FEW017 SCT040 29/21 Q1014 NOSIG
      =
METAR VVNB 110330Z 28005KT 2400 BR FEW015 BKN050 16/12 Q1023 NOSIG=
METAR VVDN 110330Z 08007KT 8000 FEW015 BKN060 24/20 Q1020 NOSIG=
METAR VVPB 110330Z 33004KT 6000 FEW013 BKN050 22/19 Q1021 NOSIG=
METAR VVCR 110330Z 02014KT 8000 FEW017 BKN100 27/19 Q1017 NOSIG=
METAR VVCT 110330Z 05007KT 020V080 9999 FEW015 28/19 Q1015 NOSIG=
METAR VVPQ 110330Z 03006KT 350V060 9999 FEW015 28/19 Q1014 NOSIG=

00000000