0000014600
809
SPCN31 CWAO 110441 CCA
SPECI CYYJ 110441Z CCA 13018G27KT 6SM RA BR BKN008 OVC013 08/07 A2959
 RMK SC6SC2 /R12/ PRESFR SLP022=

0000256100
810
SPUS70 KWBC 110446
SPECI
KBAF 110443Z 00000KT 1 1/2SM BR OVC004 M01/M02 A3025 RMK AO2
     T10061017=
KCDW 110442Z 00000KT 3/4SM -RA BR OVC002 01/M01 A3023 RMK AO2
     P0002=
KFLO 110442Z 00000KT 1 1/2SM BR OVC002 14/13 A3009 RMK AO2=
KGNV 110442Z AUTO 00000KT 2 1/2SM BR SCT021 SCT026 OVC045 19/19
     A3010 RMK AO2 T01940194=
KHKY 110442Z AUTO 31003KT 1/2SM FG VV002 06/05 A3008 RMK AO2 RAE06
     P0000=
KHQM 110442Z AUTO 16022G39KT 3SM -SN OVC013 A2969 RMK AO2 PK WND
     16039/0432 RAE0355B11E14SNB0355 P0007 TSNO $=
KMRY 110442Z 09006KT 1/4SM FG VV002 09/09 A3020 RMK AO2=
KMTW 110442Z AUTO 18006KT 6SM -RA BR OVC004 02/02 A2947 RMK AO2
     CIG 003V007 P0002 FZRANO=
KOWB 110442Z AUTO 17006KT 1SM TSRA BR FEW016 BKN023 OVC035 08/08
     A2974 RMK AO2 BKN V SCT LTG DSNT NE AND E TSB0357E0359B01
     P0006=
KSMQ 110442Z AUTO 00000KT 3/4SM -RA BR OVC007 01/01 A3020 RMK AO2
     P0002 T00110006 TSNO=
KUIN 110442Z AUTO 27005KT 1/2SM -RA FG VV003 05/04 A2953 RMK AO2
     P0001 T00500044=
KVRB 110442Z 13005KT 10SM FEW018 SCT024 21/21 A3011 RMK AO2=
PASC 110440Z 25019KT 3/4SM R05/5000VP6000FT -SN BR OVC010 M27/M30
     A2981 RMK AO2 P0000=
KDWH 110443Z 23006KT 10SM SCT010 19/18 A2986 RMK AO2=
KFDY 110443Z AUTO 15013KT 4SM -RA BR BKN006 OVC026 05/05 A2968 RMK
     AO2 P0000=
KHDO 110443Z AUTO 35006KT 3/4SM BR VV004 09/07 A2992 RMK AO2
     T00890072=
KIMT 110443Z AUTO 00000KT 3/4SM -SN BR BKN004 OVC009 M01/M03 A2944
     RMK AO2 P0003=
KMAI 110443Z AUTO 17005KT 2SM BR OVC002 18/18 A3001 RMK AO2=
KMGJ 110443Z AUTO 00000KT 1SM BR VV004 00/M01 A3021 RMK AO2
     UPB05E14 P0000 T00001006 TSNO=
KMKE 110443Z 21010KT 5SM -RA BR SCT006 BKN021 OVC049 03/03 A2949
     RMK AO2 P0004 T00330028 $=
KMSS 110443Z AUTO 07007KT 7SM BKN029 OVC050 M03/M06 A3009 RMK AO2
     PRESFR=
KPHL 110443Z 05004KT 1 1/2SM BR OVC002 03/01 A3019 RMK AO2 RAE24
     P0001 $=
KRWI 110443Z AUTO 16007KT 2SM +RA BR BKN004 OVC020 16/15 A3010 RMK
     AO2 LTG DSNT SE P0011 T01610150=
KSDF 110443Z 21008KT 10SM BKN021 BKN026 OVC050 13/09 A2970 RMK AO2
     RAE21 P0000=
KTOI 110443Z AUTO 20006KT 1 1/2SM +TSRA BR OVC002 17/16 A3001 RMK
     AO2 LTG DSNT N AND SW RAB28 TSB36 PRESRR P0001 T01670156=
KYIP 110443Z AUTO 15006KT 3SM BR OVC004 04/02 A2970 RMK AO2 P0008
     TSNO=
PATQ 110443Z AUTO 30005KT 10SM BKN006 OVC011 M27/M30 A2985 RMK AO2
     TSNO CIG 005V009=
PATQ 110443Z AUTO 30005KT 10SM BKN006 OVC011 M27/M30 A2985 RMK AO2
     TSNO CIG 005V009=

0000009900
811
SPUS41 KWBC 110446
SPECI
KBAF 110443Z 00000KT 1 1/2SM BR OVC004 M01/M02 A3025=

0000009600
812
SPUS44 KWBC 110446
SPECI
KHQM 110442Z AUTO 16022G39KT 3SM -SN OVC013 A2969=

0000014000
813
FCNO35 ENMI 110200 RRA
TAF ENVD 110200Z 1105/1112 02008KT 9999 FEW010 BKN030 TEMPO 1105/1109
         1500 SHSN BKN005=

0000014800
814
SATU32 LTAA 110350 CCA
METAR COR LTAN 110350Z 00000KT 0800 R01/1100D R19/1000U BCFG OVC004
 M03/M03 Q1022 BECMG TL0450 1600 BR=

0000027300
815
SAFR24 LFPW 110400
METAR LFSI 110400Z AUTO 08004KT 9999 NSC 04/03 Q1016=
METAR LFSO 110400Z AUTO 14004KT 7000 -RADZ NSC 03/03 Q1016=
METAR LFSX 110400Z AUTO 07006KT 9999 NSC 03/01 Q1016=
METAR LFYR 110400Z AUTO 07004KT 040V100 9999 NSC 05/04 Q1015=

0000009300
816
SATU34 LTAA 110350 RRA
METAR LTFG 110350Z 13004KT 9999 FEW035 07/02 Q1022=

0000011900
817
SACN61 CYHU 110400
METAR CYHU 110400Z AUTO 02006KT 6SM BR OVC039 M06/M08 A3017 RMK
 PRESFR SLP219=

0000038700
818
SARO32 LROM 110400
METAR LRAR 110400Z 14004KT CAVOK 01/01 Q1022=
METAR LRBM 110400Z AUTO VRB02KT 3200 BR FEW018 BKN021 01/01 Q1021=
METAR LRCL 110400Z VRB02KT 9999 BKN066 M01/M02 Q1021=
METAR LROD 110400Z AUTO 16004KT 9999 BKN055 01/00 Q1022=
METAR LRSM 110400Z AUTO 21006KT 9999 NCD M01/M01 Q1021=
METAR LRTM 110400Z 09002KT 7000 NSC M03/M03 Q1021 0719//95=

0000013500
819
SACN62 CYKA 110400
METAR CYKA 110400Z 10012KT 30SM SCT019 BKN045 OVC100 01/M01 A2971 RMK
 SC3SC2AC3 PRESFR SLP077=

0000033900
820
SARO33 LROM 110400
METAR LRBC 110400Z 28010KT CAVOK M01/M07 Q1019 16320194=
METAR LRCV 110400Z AUTO 26006KT 9999 NCD 01/M02 Q1021=
METAR LRIA 110400Z 28004KT 250V310 CAVOK 04/M01 Q1018 1529//95=
METAR LRSV 110400Z AUTO 25008KT 9999 SCT055 01/M03 Q1016=
METAR LRTC 110400Z AUTO 25008KT 4900 BR BKN065 03/02 Q1020=

0000056100
821
SAFR31 LFPW 110400
METAR LFLL 110400Z 13007KT 9999 SCT021 BKN150 09/06 Q1017 NOSIG=
METAR LFMN 110400Z 33008KT 9999 OVC036 10/05 Q1021 NOSIG=
METAR LFPG 110400Z 15001KT 5000 -RA BR FEW001 BKN040 05/05 Q1016
TEMPO 4000 BR=
METAR LFPO 110400Z 00000KT 2500 -RA BR BKN004 OVC050 06/05 Q1016
NOSIG=
METAR LFQQ 110400Z 19008KT 6000 OVC003 04/03 Q1015 NOSIG=
METAR LFRB 110400Z 19006KT 3000 BR FEW006 SCT020 BKN033 08/07
Q1016 NOSIG=
METAR LFRS 110400Z VRB02KT 1000 R03///// R21///// BR FEW002 BKN013
06/06 Q1016 TEMPO 0800 BCFG=

0000014700
822
FTBZ21 SBRF 110403
TAF SBAR 110400Z 1106/1118 07005KT 9999 SCT017
TN27/1107Z TX29/1114Z 
BECMG
 1110/1112 11012KT RMK PDG=

0000012300
823
FTBZ21 SBRF 110403
TAF SBFN 110400Z 1106/1118 10012KT 9999 SCT017
TN26/1108Z TX30/1114Z 
RMK
 PDG=

0000012300
824
FTBZ21 SBRF 110403
TAF SBFZ 110400Z 1106/1206 06010KT 9999 BKN017
TN26/1107Z TX30/1116Z 
RMK
 PDG=

0000014700
825
FTBZ21 SBRF 110403
TAF SBJP 110400Z 1106/1206 20005KT 9999 SCT020
TN24/1107Z TX30/1114Z 
BECMG
 1110/1111 11010KT RMK PDG=

0000012300
826
FTBZ21 SBRF 110403
TAF SBMO 110400Z 1106/1206 32005KT 9999 SCT020
TN23/1107Z TX30/1114Z 
RMK
 PDG=

0000012300
827
FTBZ21 SBRF 110403
TAF SBNT 110400Z 1106/1206 14007KT 9999 BKN020
TN23/1107Z TX30/1115Z 
RMK
 PDG=

0000012300
828
FTBZ21 SBRF 110403
TAF SBPB 110400Z 1106/1206 07015KT 9999 SCT017
TN25/1109Z TX33/1114Z 
RMK
 PDG=

00000000