0000009800
069
SPUS42 KWBC 110452
SPECI
KMGM 110448Z 15003KT 2SM TSRA BR OVC003 12/12 A2996=

0000010600
070
SPUS42 KWBC 110452
SPECI
KPDK 110448Z AUTO 13003KT 2 1/2SM -RA BR OVC002 08/07 A3002=

0000011700
071
SPUS43 KWBC 110452
SPECI
KCMX 110448Z AUTO 00000KT 1 1/4SM -SN BR BKN002 OVC018 M03/M04
A2948=

0000011600
072
SPUS44 KWBC 110452
SPECI
KTIW 110448Z AUTO 17007KT 10SM -RA FEW020 BKN031 OVC055 09/07
A2972=

0000087900
073
SASN31 ESWI 110450
METAR ESGG 110450Z 22013KT 5000 -RADZ OVC004 04/04 Q1000 RERA
R21/29//95=
METAR ESGJ 110450Z AUTO 24011KT 9999 FEW008/// OVC012/// 04/03
Q1000=
METAR ESGP 110450Z 22012KT 9999 BR BKN006 BKN012 OVC016 06/05
Q1000 RERA REDZ R19/19//95=
METAR ESGT 110450Z NIL=
METAR ESMK 110450Z AUTO 25011KT 9999NDV SCT013/// BKN018///
BKN040/// 06/04 Q1005=
METAR ESMQ 110450Z AUTO 22007KT 9999 SCT024/// BKN030/// 04/03
Q1003=
METAR ESMS 110450Z 25012KT 9999 OVC008 05/04 Q1006 R17/29//95=
METAR ESMT 110450Z AUTO 24017KT 9999 DZ FEW009/// BKN030/// 06/04
Q1004=
METAR ESMX 110450Z AUTO 22009KT 200V260 7000 BR FEW007/// SCT009///
BKN011/// 04/03 Q1002=
METAR ESTA 110450Z AUTO 24017KT 9999 DZ SCT009/// BKN031///
OVC096/// 06/04 Q1005=
METAR ESTL 110450Z AUTO 24010KT 9999NDV SCT012/// BKN018///
BKN034/// 06/05 Q1005=

0000074600
074
SADL31 EDZO 110450
METAR EDDF 110450Z VRB01KT 0700 R25L/0650N R25C/0900N
     R25R/1000VP2000N FZFG BKN001 M01/M01 Q1017 TEMPO 0500=
METAR EDDH 110450Z 23012KT 9999 BKN010 06/04 Q1011 NOSIG=
METAR EDDK 110450Z 12003KT CAVOK 00/M01 Q1016 NOSIG=
METAR EDDL 110450Z 15009KT CAVOK 02/00 Q1015 NOSIG=
METAR EDDM 110450Z 00000KT 3000 1000N R26R/1100V1600U
     R26L/0800VP2000D BCFG NSC M04/M04 Q1018 TEMPO 1200 BCFG=
METAR EDDN 110450Z 10003KT 9999 R28/0900VP2000U MIFG NSC M01/M01
     Q1017=
METAR EDDS 110450Z 06001KT 9000 BCFG MIFG FEW030 SCT120 M02/M02
     Q1017=
METAR EDDT 110450Z 25007KT 9999 SCT018 BKN025 04/02 Q1014 NOSIG=
METAR EDDV 110450Z 24006KT 9999 SCT014 BKN110 05/03 Q1013 TEMPO
BKN013=

0000045600
075
SADL32 EDZO 110450
METAR EDDB 110450Z 23009KT 9999 SCT044 BKN260 04/02 Q1014 NOSIG=
METAR EDDC 110450Z 22007KT CAVOK 03/00 Q1015 NOSIG=
METAR EDDE 110450Z 22010KT CAVOK 02/M00 Q1015 NOSIG=
METAR EDDG 110450Z 21006KT 9999 BKN011 04/02 Q1014 NOSIG=
METAR EDDP 110450Z 19007KT 9999 SCT040 02/01 Q1016 NOSIG=
METAR EDDR 110450Z 06003KT CAVOK 01/00 Q1016 NOSIG=
METAR EDDW 110450Z 22011KT 8000 -RA BKN010 05/04 Q1012 TEMPO BKN008=

0000025100
076
SAHO31 MHTG 110500
METAR MHLC 110500Z 00000KT 9999 FEW026 BKN080 21/20 Q1014 A2996
NOSIG=
METAR MHLM 110500Z 14003KT 9999 FEW026 BKN080 23/23 Q1015 A2997
NOSIG=
METAR MHTG 110500Z 36004KT 9999 BKN024 19/15 Q1020 A3012 NOSIG=

0000064100
077
SAFI31 EFHK 110450
METAR EFHK 110450Z 33012KT 9999 OVC009 M04/M05 Q0997 NOSIG=
METAR EFJY 110450Z AUTO 35009KT 9999 -SN OVC015 
M08/M10 Q0999=
METAR EFKU 110450Z AUTO 36008KT 8000 -SN OVC021 
M10/M12 Q0999=
METAR EFOU 110450Z AUTO 05007KT 010V090 9999 OVC061/// M14/M17 Q1007 
12410587=
METAR EFRO 110450Z AUTO 03015KT CAVOK M18/M21 
Q1010=
METAR EFTP 110450Z AUTO 04005KT 010V080 9999 OVC008
 M04/M05 Q0998=
METAR EFTU 110450Z AUTO 31005KT 9999 -SN SCT006/// OVC008/// M03/M04 
Q0998 R08/590147=
METAR EFVA 110450Z AUTO 05009KT 8000 -SN FEW028/// SCT036/// 
OVC077/// M08/M10 Q1001 R16/420195=

0000069600
078
FTAG10 SACO 110500
TAF SACO 110500Z 1106/1206 14015KT 9999 BKN030 FEW040CB
TX30/1118Z TN19/1110Z PROB30 1105/1110 5000 TS SHRA
BKN020 FEW040CB BECMG 1110/1112 14010KT 9999 SCT030=
TAF SASA 110500Z 1106/1206 16015KT 2000 TS SHRA BKN010
SCT020CB TX28/1118Z TN19/1110Z BECMG 1113/1115 14010KT
5000 TS SHRA BKN020 FEW040CB=
TAF SASJ 110500Z 1106/1206 16010KT 5000 VCTS SHRA
SCT020TCU FEW040CB TX30/1118Z TN20/1110Z BECMG
1109/1111 18015KT 2000 TS SHRA BKN010 SCT020CB
BECMG 1113/1115 16010KT 5000 TS SHRA BKN020
FEW040CB=
TAF SANT 110500Z 1106/1206 20010KT 5000 TS SHRA BKN010
SCT020CB TX25/1118Z TN20/1110Z TEMPO 1112/1115 8000 VCTS
SHRA BKN015 FEW030CB=

0000011200
079
FTAG59 SAME 110500
TAF SAME 110500Z 1106/1206 14005KT 9999 FEW040TCU
TN18/1110Z TX32/1120Z=

0000053000
080
SADN31 EKCH 110450
METAR EKCH 110453Z NIL=
METAR EKBI 110450Z 23010KT 200V260 9999 BKN010 BKN015 06/05
Q1005=
METAR EKYT 110450Z 23013KT 4000 -RA BR FEW005 BKN010 BKN015
07/06 Q1002=
METAR EKRK 110450Z AUTO 23010KT 9999NDV FEW009/// SCT015///
BKN027/// 06/04 Q1007=
METAR EKAH 110450Z AUTO 22004KT 170V280 9999NDV OVC014/// 07/04
Q1005=
METAR EKEB 110450Z AUTO 22012KT 9999NDV -DZ  BKN010/// 07/06
Q1006=
METAR EKRN 110450Z AUTO 26019KT 9999NDV BKN009/// BKN010///
BKN040/// 06/06 Q1008=

0000016500
081
SADN32 EKCH 110450
METAR EKVJ 110453Z NIL=
METAR EKSB 110453Z NIL=
METAR EKSN 110453Z NIL=
METAR EKVD 110453Z NIL=
METAR EKOD 110453Z NIL=

0000058900
082
SADN34 EKCH 110450
METAR EKGF 110450Z 240162T 3000 BR DZ BKN003 07/06 Q1004=
METAR EKHN 110450Z AUTO VRB07G20KT 7000NDV BKN008/// BKN046///
BKN079/// ///// Q1007=
METAR EKHR 110450Z AUTO 24022KT 9999NDV FEW008/// SCT012///
08/07 Q1005=
METAR EKHA 110450Z AUTO 24022KT 2300NDV 07/07 Q1005=
METAR EKHD 110450Z AUTO 29015KT 9000NDV 07/05 Q1003=
METAR EKTE 110450Z AUTO 23015G25KT 9999NDV -SHRA FEW002 BKN004 BKN007
 07/06 Q1005=
METAR EKGC 110450Z AUTO 25020KT 9999NDV 07/07 Q1005=
METAR EKAV 110450Z AUTO 22019KT 9999NDV -SHRA  OVC030/// 06/04
Q1004=

0000033200
083
FTBA31 MYNN 110430
TAF
MYNN 110430Z 1106/1206 10003KT 9999 FEW018 BECMG 1112/1114 14020KT=
MYGF 110430Z 1106/1206 14005KT 9999 SHRA SCT015 FM11120016020KT 9999
FEW018=
MBGT 110430Z 1106/1206 10010KT 9999 SCT015 BECMG 1112/1114 10025KT=
MBPV 110430Z 1106/1206 10010KT 9999 SCT015 BECMG 1112/1114 10025KT=

0000025000
084
FTCG20 FCBB 110453
TAF FCBB 110500Z 1106/1212 26004KT 8000 SCT016 PROB30 1114/1116
         SCT020 FEW030CB=
TAF FCPP 110500Z 1106/1206 20004KT 8000 SCT013 BECMG 1107/1108 BKN015
         OVC023 BECMG 1109/1110 SCT016 BKN023=

0000036900
085
SAGL31 BGSF 110450
METAR BGSF 110450Z AUTO 06005KT 9999NDV  BKN150/// BKN220/// 
M17/M22 Q0995=
METAR BGBW 110453Z NIL=
METAR BGGH 110450Z AUTO 09004KT 9999NDV  FEW039/// BKN180/// 
BKN220/// M08/M16 Q0993=
METAR BGJN 110450Z AUTO VRB04KT 9999NDV  BKN160/// M09/M20 Q0994=
METAR BGKK 110450Z AUTO 11006KT 9999NDV  BKN050/// M04/M09 Q0993=

0000023400
086
FTMC31 GMMC 110400 CCA
TAF COR GMMN 110400Z 1106/1212 28004KT 9999 SCT016 BKN100 TEMPO
1106/1110
6000 -RA BECMG 1112/1114 26008KT 9999 SCT016 BECMG 1122/1124 14004KT
8000 PROB30 TEMPO 1202/1208 4000 BR SCT006=

0000010000
087
SPCN31 CWAO 110455
SPECI CYQQ 110455Z 15019G25KT 2SM RA BR OVC010 RMK SF8 PRESFR=

0000048900
088
SAGR33 LGAT 110450
METAR LGBL 110450Z 27005KT 9999 FEW018 SCT180 05/03 Q1022 NOSIG=
METAR LGHI 110450Z VRB02KT 9999 FEW016 BKN025 13/12 Q1020=
METAR LGKC 110450Z NIL=
METAR LGKF 110450Z AUTO 09004KT //// // ////// 13/09 Q1022
     RE//=
METAR LGKP 110450Z NIL=
METAR LGKZ 110450Z AUTO VRB03KT //// // ////// 04/00 Q1022
     RE//=
METAR LGMK 110450Z NIL=
METAR LGNX 110450Z NIL=
METAR LGPA 110450Z VRB03KT CAVOK 12/10 Q1020=
METAR LGSO 110450Z NIL=

00000000