0000115800
360
SNEO21 EEMH 111900
AAXX 11191
26038 27058 72002 11003 21003 39941 49982 57007 72476 87///
 333  11003 21016 60007 87/01
 555  1/101 21016 3/101 51008 52102=
26045 27660 81103 11024 21033 39989 49992 57004 77177 88///
 333  11011 21025 69997 88/34
 555  21025 51012=
26058 27553 70701 11044 21052 39965 40001 54001 77177 80///
 333  11027 21044 69977 80/31
 555  21044 51026=
26115 27484 70401 11004 21005 39982 49990 56003 70088 87///
 333  10013 21005 69927 87/20
 555  1/100 21005 3/100 50010=
26135 27039 81400 11005 21009 39912 49986 58009 76776 88///
 333  11005 21012 69927 88/02
 555  1/100 21012 3/101 51005 52101=
26141 27262 81201 11026 21026 39841 49991 58006 77777 88///
 333  11025 21031 69937 88/05
 555  1/102 21031 3/103 51022 52104=
26231 27030 80502 10001 20001 39971 49986 57006 77177 88///
 333  10015 20001 69997 88/01
 555  1/000 20001 3/000 50010=
26242 27223 81201 11002 21005 39904 49991 57010 76787 88///
 333  11001 21011 69937 88/06
 555  1/100 21011 3/101 51002 52102=
26247 27/27 /1802 10003 20003 39910 49990 57016 78186
 333  10011 21001 69927
 555  1/000 21001 3/100 50007=
0000012600
361
SNDL22 EDZW 111900 RRB
AAXX 11191
10384 46/// /2506 10053 20039 30035 40095 55006
  333 55300 20000 30000=
0000063600
362
SNSP21 LEMM 111900
AAXX 11194
08084 46/// /0906 10069 20052 39785 40224 53009
  555 60005=
08184 46/// /0104 10114 20103 30054 40210 53013
  555 60005=
08202 46/// /1904 10037 20027 39271 42813 51015
  555 60005=
08360 46/// /3402 10116 20093 30170 40207 53018
  555 60005=
08373 46/// /0000 10120 20102 30176 40198 51013
  555 60005=
08410 46/// /2003 10110 20085 30093 40205 53016
  555 60005=
08419 47/58 /2302 10066 20055 39541 40221 53018 71011
  555 60005=
08451 46/// /2002 10136 20136 30173 40206 51017
  555 60005=
08487 46/// /0000 10149 20117 30177 40202 53015
  555 60005=
0000011000
363
UANT01 CWAO 111911
ARP VIR23J 6247N03835W 1910 F350 MS60 184/39 KT
GVFIZ DDL KUS 111911 J44A
0000011000
364
UANT01 CWAO 111911
ARP BAW187 5402N01622W 1911 F400 MS59 346/49 KT
GZBJB QXT AOE 111911 L05A
0000081000
365
SSVX08 KARS 111910
ZZYY 28401 11014 17004 132223 144606 6111/
11119 02916
444 20110 11014 1726/ 521// 60401=
ZZYY 41139 10014 12004 720011 037854 6111/
11119 00712 10215 29077 40201
22219 00240
33311 88872 20000 32402 20001 32404 43696 20020 32402 43706
20040 32402 43702 20060 32404 43704 20080 32410 20100 32351
20120 32230 20140 32151 20180 31985 20300 31610 20500 31215
444 20110 10014 1145/ 521// 60401=
ZZYY 41139 11014 18004 720011 037855 6112/
11119 00607 10230 29072 40169
22219 00242
444 20120 11014 1831/ 521// 60401=
ZZYY 23004 10014 12004 100061 090182 6111/
11119 00702 10291 29068
22219 00297
33311 88872 20000 32965 20001 32930 43404 20080 32865 20100 32838
20120 31960 20180 31439 20300 31155 20500 30972
444 20110 10014 1216/ 521// 60401=
0000012100
366
SAIN32 VIDP 111900
METAR VIDP 111900Z 24003KT 0600 R28/P2000 R29/1600 MIFG NSC 09/08
      Q1021 NOSIG=
0000011000
367
UANT01 CWAO 111911
ARP KAC101 5302N01954W 1911 F360 MS58 193/63 KT
9KAOB QXT AOE 111911 F07A
0000011000
368
UANT01 CWAO 111911
ARP VIR11B 5144N04447W 1911 F380 MS58 298/65 KT
GVKSS DDL XXH 111911 J42A
0000013900
369
SMCN33 CWAO 111800 RRI
AAXX 11184
71378 17/// /1706 10013 20010 39764 49972 56062 60061 7//4/
333 10013 21089 70060=

0000013300
370
SMCN07 CWAO 111800 RRB
AAXX 11184
71883 45/// /0000 10001 21002 39049 49849 55009 6///1
333 10002 21039 7////=

0000012700
371
SSVX02 CWAO 111900
ZZYY 47573 11014 1900/ 770970 100709 6113/ 444 
20130 11014 1900/ 50101 80134 80001 9////=
0000015100
372
SSVX05 CWAO 111900
ZZYY 48510 11014 1900/ 778960 129491 6113/ 11119 
11287 49860 52004 444 20130 11014 1900/ 50100 80132 80001 9////=
0000014500
373
SSVX05 CWAO 111900
ZZYY 48509 11014 1900/ 775510 140964 6113/ 11131 
11203 49849 57006 444 20130 11014 1900/ 50400 80134 80001=
0000013900
374
SSVX02 CWAO 111900
ZZYY 47532 11014 1900/ 171528 000922 6113/ 11119 
10052 444 20130 11014 1900/ 50001 80170 80001 9////=
0000013900
375
SSVX02 CWAO 111900
ZZYY 47564 11014 1900/ 767112 028514 6113/ 11119 
40023 52025 444 20130 11014 1900/ 50400 80138 80001=
0000013900
376
SSVX05 CWAO 111900
ZZYY 48593 11014 1900/ 771618 176443 6113/ 11132 
40128 57005 444 20130 11014 1900/ 50400 80138 80001=
0000015100
377
SSVX02 CWAO 111900
ZZYY 47565 11014 1900/ 767349 029149 6113/ 11131 
40028 52040 22231 01043 444 20130 11014 1900/ 50400 80138 80001=
0000012700
378
SSVX02 CWAO 111900
ZZYY 47537 11014 1900/ 783291 048054 6113/ 444 
20130 11014 1900/ 50001 80136 80001 9////=
0000012100
379
SSVX05 CWAO 111900
ZZYY 48524 11014 1900/ 772257 179091 6113/ 444 
20130 11014 1900/ 50400 80140 80001=
00000000