0000011100
420
UANT99 KDDL 111911
ARP FIN1991 6038N01722W 1911 F380 MS61 238/65 KT
OHLQB QXT AOE 111912 J43A
0000011000
421
UANT99 KDDL 111912
ARP BAW297 5923N03136W 1912 F360 MS62 209/59 KT
GCIVY QXT AOE 111912 F17A
0000011600
422
SNVF51 EGRR 111900
BBXX
62095 11194 99529 70156 46/// ///// 40013 58051 22200 00100 10810
70049=
0000012800
423
SNVF51 EGRR 111900
BBXX
62170 11194 99514 10020 46/98 /2815 10078 20015 40233 52018 22200
00104 10501 70005=
0000108900
424
SOVX02 EGRR 111912
KKYY 11014 0953/ 545728 004849 88871 84660 20024 30760 43396 20030
30760 43396 20035 30760 43396 20040 30760 43396 20050 30760 43396
20060 30751 43396 20070 30731 43398 20080 30715 43399 20089 30651
43403 20099 30588 43407 20109 30558 43409 20119 30542 43410 20129
30531 43410 20139 30522 43410 20149 30518 43409 20159 30517 43409
20169 30509 43409 20178 30493 43410 20189 30489 43410 20199 30484
43410 20219 30458 43410 20238 30444 43411 20258 30435 43412 20278
30422 43412 20298 30408 43412 20327 30390 43412 20357 30382 43413
20397 30359 43413 20446 30343 43414 20496 30329 43416 20545 30322
43418 20594 30313 43420 20644 30304 43423 20694 30299 43427 20742
30293 43431 20792 30289 43434 20841 30288 43437 20891 30283 43440
20940 30278 43443 20990 30276 43446 21039 30272 43449 21087 30270
43451 21138 30266 43454 21187 30264 43456 21236 30263 43457 21286
30263 43460 21335 30262 43462 21384 30261 43464 21482 30256 43468
21581 30249 43469 21680 30248 43472 21778 30252 43475 21876 30250
43477 21961 30249 43478 Q1901318=
0000107100
425
SOVX02 EGRR 111912
KKYY 11014 0501/ 544669 003161 88871 84660 20024 30772 43394 20027
30770 43394 20035 30767 43394 20040 30758 43394 20050 30726 43394
20060 30722 43394 20069 30721 43394 20079 30685 43398 20089 30625
43406 20100 30569 43409 20110 30536 43409 20119 30527 43410 20129
30516 43409 20139 30511 43408 20149 30512 43409 20159 30505 43408
20169 30488 43408 20178 30478 43408 20188 30473 43408 20198 30466
43408 20218 30460 43411 20238 30456 43411 20258 30445 43412 20277
30429 43412 20298 30411 43412 20327 30401 43412 20357 30387 43412
20396 30366 43413 20446 30344 43415 20495 30319 43416 20545 30313
43417 20595 30308 43418 20643 30302 43421 20693 30296 43425 20742
30295 43430 20792 30293 43434 20841 30289 43437 20890 30285 43439
20940 30282 43440 20989 30278 43444 21039 30274 43447 21089 30269
43451 21138 30267 43453 21187 30264 43456 21236 30264 43457 21285
30263 43459 21335 30262 43462 21384 30262 43463 21483 30261 43466
21581 30263 43469 21680 30262 43472 21777 30257 43475 21854 30247
43476 Q1901317=
0000024100
426
SOAT10 KWAL 111913
FA8005BC 011191337 OT12 ID:KN-BASS-01 DT:2014 01 11 19 11
:RD -3152 -3158 -3154 -3183 -3141 -3161 -3151 -3160 -3162 -3172
:PR 0601 0545 0490 0621 0533 0537 0544 0480 0510 0488
:B 13.7V
 46+1NN 219E
0000011600
427
SMNO24 ENMI 111800 CCB
AAXX 11181
01380 11786 20502 11149 21169 60032 70171 81048 333 11112 91106=
0000055700
428
UDEU02 EGRR 111916
AMDAR 1118
LVR EU0020   5152N 00004E 111818 F370 MS585 276/057 TB/ S031=
LVR EU0020   5235N 00058E 111825 F370 MS578 281/062 TB/ S031=
LVR EU0020   5317N 00154E 111832 F370 MS533 289/069 TB/ S031=
LVR EU0020   5400N 00246E 111839 F370 MS515 286/052 TB/ S031=
LVR EU0020   5449N 00315E 111846 F370 MS468 284/060 TB/ S031=
LVR EU0020   5538N 00345E 111853 F370 MS473 293/043 TB/ S031=
LVR EU0020   5626N 00416E 111900 F370 MS486 283/040 TB/ S031=
DES EU0020   5714N 00448E 111907 F298 MS470 297/048 TB/ S031=
0000068500
429
UDNT02 EGRR 111916
AMDAR 1118
LVR EU2795   5957N 02943W 111807 F340 MS615 211/074 TB0 S031=
LVR EU2795   6020N 03121W 111814 F340 MS622 206/067 TB0 S031=
LVR EU2795   6043N 03302W 111821 F340 MS610 208/058 TB0 S031=
LVR EU2795   6105N 03446W 111828 F339 MS607 199/052 TB0 S031=
LVR EU2795   6126N 03634W 111835 F339 MS607 194/047 TB0 S031=
LVR EU2795   6146N 03827W 111842 F340 MS590 188/030 TB0 S031=
LVR EU2795   6204N 04021W 111849 F340 MS595 189/030 TB0 S031=
LVR EU2795   6219N 04217W 111856 F340 MS597 198/028 TB0 S031=
LVR EU2795   6232N 04415W 111903 F339 MS577 198/028 TB0 S031=
LVR EU2795   6243N 04614W 111910 F339 MS590 205/018 TB0 S031=
0000039500
430
SATR31 UTAA 111900
METAR UTAA 111900Z 00000MPS 9999 BKN230 01/M06 Q1014
12CLRD70 NOSIG=
METAR UTAK 111900Z 19004MPS 180V240 CAVOK 07/00 Q1015 NOSIG=
METAR UTAV 111900Z 12002MPS 7000 BKN200 02/05 Q1021 NOSIG=
METAR UTAM 111900Z 13004MPS 6000 SCT066 SCT100 BKN230 05/M04 Q1017
 NOSIG  RMK  SC07=
METAR UTAT 111900Z 09003MPS 4000 FEW100 M04/M06  Q1020 99CLRD70
 NOSIG=
0000067000
431
SAUR31 UKMS 111900
METAR UKLR NIL=
METAR UKLI 111900Z 22002MPS CAVOK 00/M03 Q1016
         28090070 NOSIG=
METAR UKON NIL=
METAR UKCM 111900Z 25007MPS CAVOK 05/00 Q1015
         19190062 NOSIG=
METAR UKCW 111900Z 26010MPS 230V300 9999 SCT024CB
         BKN040 04/01 Q1010 2709//70 BECMG 26009G15MPS
         3100 -SHRA  BKN011 BKN020CB=
METAR UKLU 111900Z 00000MPS 9999 BKN025 03/01 Q1019
         10090070 NOSIG=
METAR UKKK 111900Z 27006MPS CAVOK 03/M00 Q1012
         26250250  NOSIG=
METAR UKKM 111900Z 26005MPS CAVOK 03/M01 Q1012=
METAR UKKE NIL=
METAR UKLN 111900Z 21002MPS CAVOK 01/M04 Q1017
         3309//70 NOSIG=
0000175700
432
SAIR31 OIII 111900
METAR OIAA 111900Z 00000KT CAVOK 09/07 Q1020=
 METAR OIAG 111900Z 30010KT 3000 -SHRA SCT030CB BKN035 10/10 Q1020
 RESH=
 METAR OIAH 111900Z 16002KT 6000 -RA FEW035CB FEW040 OVC090 07/07
 Q1017=
 METAR OIAI 111900Z 36002KT 5000 -RA SCT030CB SCT035 OVC070 09/09
 Q1017=
METAR OIAM 111900Z 28010KT 5000 BR SCT040 10/08 Q1019=
METAR OIAW 111900Z 27004KT 7000 SCT040 10/08 Q1019=
METAR OIBA NIL=
 METAR OIBB 111900Z 31012KT 5000 BR FEW030CB SCT035 OVC080 16/13
 Q1018 A3008=
 METAR OIBK 111900Z 10008KT 8000 -RA SCT015 SCT030 OVC080 16/15
 Q1020=
METAR OIBL NIL=
METAR OIBS NIL=
 METAR OICC 111900Z 00000KT 8000 BR FEW035CB SCT040 OVC080 M01/M02
 Q1020 A3013=
METAR OICI 111900Z 12004KT CAVOK 02/01 Q1018 A3008=
METAR OICJ NIL=
 METAR OICK 111850Z 00000KT 9999 FEW035CB SCT040 OVC080 03/02
 Q1019=
METAR OICS 111900Z 01004KT 7000 FEW040 SCT080 M04/M05 Q1020=
METAR OIFK 111900Z 30004KT 4000 BR BKN020 OVC070 01/M00 Q1022=
 METAR OIFM 111900Z 00000KT 0500 FG SCT035 OVC100 M01/M01 Q1018
 A3008=
 METAR OIFS 111900Z 00000KT 1000 -SN BR FEW025CB SCT030 OVC080
 M04/M05 Q1018=
METAR OIGG 111900Z VRB02KT 2500 BR FEW030 05/05 Q1015=
METAR OIGK NIL=
METAR OIHH 111900Z 11006KT 4000 BR SCT035 OVC090 M05/M06 Q1019=
 METAR OIHM 111900Z 27006KT 1000 BR BKN035 OVC070 M03/M04 Q1019
 RESHSN=
 METAR OIIE 111900Z 29008KT 9000 FEW040 BKN180 M00/M02 Q1019 A3011
 NOSIG=
 METAR OIII 111900Z 24006KT 2000 BR SCT035 OVC100 01/M01 Q1019
 A3009 NOSIG=
METAR OIIK 111900Z 00000KT 8000 FEW040 BKN090 M01/M03 Q1020=
METAR OIIP NIL=
METAR OIIS 111900Z 36002KT 9999 SCT035 BKN100 02/M01 Q1019=
 METAR OIKB 111900Z 00000KT 6000 FEW025CB SCT030 OVC090 14/11 Q1021
 A3016=
0000133500
433
SAIR31 OIII 111900 RRA
METAR OIKK 111850Z 15006KT 9999 SCT035 SCT100 M01/M03 Q1020 A3012=
METAR OIKO NIL=
METAR OIKQ NIL=
METAR OIMB 111900Z 07010KT 9999 FEW040 M00/M11 Q1019=
METAR OIMC NIL=
METAR OIMD NIL=
METAR OIMM 111900Z 16006KT 7000 SCT030 OVC180 04/M06 Q1016 A3002=
METAR OINB 111900Z 00000KT CAVOK 08/07 Q1013=
METAR OING 111900Z 26006KT 7000 NSC 04/03 Q1015=
METAR OINK NIL=
METAR OINN 111900Z 17004KT CAVOK 05/03 Q1014=
METAR OINR 111900Z 23004KT CAVOK 07/04 Q1014=
 METAR OISA 111850Z 00000KT 5000 -SN FEW030CB SCT035 OVC080 01/00
 Q1018=
 METAR OISF 111850Z 00000KT 5000 SHRA SCT030CB SCT035 OVC090 05/04
 Q1019=
METAR OISL NIL=
 METAR OISS 111900Z 00000KT 2000-RA FEW020 FEW030CB OVC080 04/04
 Q1019 A3009=
 METAR OISY 111900Z 00000KT 1000 -SN FEW030CB SCT035 OVC070 01/00
 Q1019=
METAR OITL 111850Z 21018KT 9999 SCT090 BKN190 M02/M04 Q1017=
METAR OITR 111900Z 25004KT 2000 BR FEW035 M12/M14 Q1020=
 METAR OITT 111900Z 07006KT 3500 BR FEW035 BKN090 M08/M11 Q1021
 A3016=
METAR OITU 111850Z 00000KT 0200 FZFG FEW035 M17/M17 Q1020=
METAR OIYY 111900Z 00000KT 1000 -RA BR SCT030 OVC090 01/01 Q1021=
METAR OIZB NIL=
METAR OIZC NIL=
METAR OIZH 111900Z 15004KT CAVOK 03/M06 Q1019 A3010=
METAR OIZI 111900Z 00000KT CAVOK 11/M00 Q1023=
METAR OIZJ NIL=
0000021800
434
SAJD31 OJAI 111900
METAR OJAI 111900Z 00000KT 6000 BR SCT030 07/06 Q1026 NOSIG=
METAR OJAM 111900Z 27008KT 5000 HZ SCT025 08/05 Q1025 NOSIG=
METAR OJAQ 111900Z 04004KT 9999 BKN030 15/10 Q1025 NOSIG=
0000190500
435
UDEU02 EGRR 111916 RRA
AMDAR 1118
ASC EU0423   5322N 00217W 111854 F010 PS032 274/009 TB/ S031=
ASC EU0423   5322N 00219W 111854 F018 PS010 292/008 TB/ S031=
ASC EU0423   5322N 00221W 111854 F024 MS005 300/007 TB/ S031=
ASC EU0423   5322N 00223W 111854 F031 MS015 306/011 TB/ S031=
ASC EU0423   5322N 00226W 111854 F041 MS027 302/011 TB/ S031=
ASC EU0423   5322N 00228W 111854 F048 MS030 288/018 TB/ S031=
ASC EU0423   5322N 00230W 111854 F058 MS017 288/023 TB/ S031=
ASC EU0423   5322N 00233W 111854 F068 MS025 307/028 TB/ S031=
ASC EU0423   5322N 00235W 111854 F083 MS045 299/032 TB/ S031=
ASC EU0423   5323N 00238W 111854 F109 MS122 297/032 TB/ S031=
ASC EU0423   5325N 00243W 111855 F137 MS167 292/035 TB/ S031=
ASC EU0423   5327N 00248W 111855 F158 MS205 288/038 TB/ S031=
ASC EU0423   5329N 00253W 111855 F179 MS257 283/040 TB/ S031=
ASC EU0423   5332N 00258W 111856 F200 MS302 275/045 TB/ S031=
ASC EU0423   5334N 00304W 111856 F222 MS340 273/060 TB/ S031=
ASC EU0423   5337N 00310W 111856 F237 MS377 274/062 TB/ S031=
ASC EU0423   5339N 00315W 111857 F240 MS387 273/062 TB/ S031=
ASC EU0423   5341N 00321W 111857 F240 MS387 273/063 TB/ S031=
ASC EU0423   5344N 00327W 111857 F240 MS387 272/062 TB/ S031=
ASC EU0423   5346N 00332W 111858 F240 MS385 272/063 TB/ S031=
ASC EU0423   5349N 00338W 111858 F240 MS382 271/064 TB/ S031=
ASC EU0423   5351N 00344W 111858 F240 MS382 272/063 TB/ S031=
ASC EU0423   5354N 00350W 111859 F240 MS380 273/062 TB/ S031=
ASC EU0423   5356N 00355W 111859 F240 MS380 271/062 TB/ S031=
ASC EU0423   5359N 00401W 111859 F240 MS377 271/063 TB/ S031=
ASC EU0423   5401N 00407W 111900 F240 MS380 272/062 TB/ S031=
ASC EU0423   5403N 00412W 111900 F240 MS377 270/062 TB/ S031=
ASC EU0423   5406N 00418W 111900 F240 MS377 270/062 TB/ S031=
ASC EU0423   5408N 00423W 111901 F240 MS380 271/063 TB/ S031=
0000030500
436
UDEU02 EGRR 111916 RRB
AMDAR 1118
LVR EU0223   6228N 00920E 111853 F250 MS420 284/014 TB/ S031=
LVR EU0223   6307N 00958E 111900 F103 MS210 177/002 TB/ S031=
LVR EU0223   6327N 01035E 111907 F032 MS140 146/020 TB/ S031=
LVR EU0223   6327N 01054E 111910 F002 MS090 063/003 TB/ S031=
0000209300
437
KSAA32 KWBC 111914 RRA
CREX++
T000119 A001 D01021 D06021++
4470286 -07549444 OBGN6 2014 01 11 18 30 00 07 085 09933 /// ////+
4433111 -07593453 ALXN6 2014 01 11 18 30 00 07 /// 09937 /// ////+
4262100 -08252690 AGCM4 2014 01 11 18 30 00 07 050 09915 /// ////+
4297380 -08242040 MBRM4 2014 01 11 18 30 00 07 057 09902 /// ////+
4300690 -08242250 FTGM4 2014 01 11 18 30 00 07 054 09905 235 0049+
4346417 -07651183 OSGN6 2014 01 11 18 30 00 07 090 09939 152 0082+
4326903 -07762575 RCRN6 2014 01 11 18 30 00 07 104 09918 /// ////+
4307692 -07901389 NIAN6 2014 01 11 18 30 00 07 084 09916 /// ////+
4287744 -07889047 BUFN6 2014 01 11 18 30 00 07 069 09924 197 0047+
4269131 -07904733 PSTN6 2014 01 11 18 30 00 07 108 09926 /// ////+
4175975 -08128106 FAIO1 2014 01 11 18 30 00 07 071 09929 /// ////+
4154086 -08163547 CNDO1 2014 01 11 18 30 00 07 073 09942 247 0070+
4154364 -08273139 MRHO1 2014 01 11 18 30 00 07 053 09959 235 0044+
4169356 -08347228 THRO1 2014 01 11 18 30 00 07 049 09949 249 0069+
4384619 -08264311 HRBM4 2014 01 11 18 30 00 07 042 09889 245 0049+
4506300 -08342860 LPNM4 2014 01 11 18 30 00 07 037 09884 301 0027+
4599250 -08389820 DTLM4 2014 01 11 18 30 00 07 007 09881 264 0028+
4626480 -08419120 RCKM4 2014 01 11 18 30 00 07 /// 09879 293 0033+
4628469 -08420981 WNEM4 2014 01 11 18 30 00 07 005 09879 300 0043+
4648572 -08430183 LTRM4 2014 01 11 18 30 00 07 006 09877 297 0062+
4650111 -08437261 SWPM4 2014 01 11 18 30 00 07 003 09879 309 0083+
4394736 -08644161 LDTM4 2014 01 11 18 30 00 07 005 09956 299 0059+
4276811 -08620119 HLNM4 2014 01 11 18 30 00 07 011 09963 270 0074+
4172986 -08753839 CMTI2 2014 01 11 18 30 00 07 015 09997 252 0064+
4446500 -08749572 KWNW3 2014 01 11 18 30 00 07 -002 09954 286 0068+
4509589 -08758994 MNMM4 2014 01 11 18 30 00 07 -004 ///// /// ////+
4596989 -08587150 PNLM4 2014 01 11 18 30 00 07 000 09909 315 0057+
4648450 -08463089 PTIM4 2014 01 11 18 30 00 07 -001 09883 300 0073+
4654558 -08737908 MCGM4 2014 01 11 18 30 00 07 -017 09923 302 0030++
7777

0000161500
438
KSAB33 KWBC 111914 RRA
CREX++
T000119 A001 D01021 D06021++
5533183 -13162619 KECA2 2014 01 11 18 30 00 07 026 09865 314 0010+
5624670 -13464700 PLXA2 2014 01 11 18 30 00 07 021 09878 343 0032+
5705170 -13534200 ITKA2 2014 01 11 18 30 00 07 000 09881 /// ////+
5829830 -13441200 JNEA2 2014 01 11 18 30 00 07 -020 09872 020 0006+
5945000 -13532700 SKTA2 2014 01 11 18 30 00 07 -033 09863 /// ////+
5819472 -13634694 ELFA2 2014 01 11 18 30 00 07 005 09865 /// ////+
5954850 -13973340 YATA2 2014 01 11 18 30 00 07 /// 09860 /// ////+
6055830 -14575300 CRVA2 2014 01 11 18 30 00 07 -007 09858 084 0001+
6068330 -15139800 NKTA2 2014 01 11 18 30 00 07 -050 09886 016 0027+
6123831 -14989000 ANTA2 2014 01 11 18 30 00 07 -059 09885 035 0014+
5773170 -15251200 KDAA2 2014 01 11 18 30 00 07 -030 09859 258 0002+
5689830 -15424700 ALIA2 2014 01 11 18 30 00 07 007 09839 087 0047+
5506170 -16232700 KGCA2 2014 01 11 18 30 00 07 035 09805 125 0045+
5186330 -17663200 ADKA2 2014 01 11 18 30 00 07 030 09744 244 0155+
5223170 -17417300 ATKA2 2014 01 11 18 30 00 07 039 09743 /// ////+
5294061 -16887131 OLSA2 2014 01 11 18 30 00 07 036 09799 223 0120+
5388000 -16653700 UNLA2 2014 01 11 18 30 00 07 040 09799 227 0015+
5599000 -16056200 PMOA2 2014 01 11 18 30 00 07 031 09785 /// ////+
5712531 -17028517 VCVA2 2014 01 11 18 30 00 07 008 09735 075 0026+
6450000 -16543000 NMTA2 2014 01 11 18 30 00 07 -117 09975 026 0076+
6757670 -16406500 RDDA2 2014 01 11 18 30 00 07 -186 10004 042 0039+
7040000 -14852700 PRDA2 2014 01 11 18 30 00 07 -235 09992 260 0108++
7777

0000034200
439
KSAB30 KWBC 111914
CREX++
T000119 A001 D01021 D06025++
4677570 -09209200 DULM5 2014 01 11 18 24 //// 00 07 00 06
00092 //// 00080 //// 00083 //// 00084 //// 00078 //// 00072 ////+
4774783 -09034133 GDMM5 2014 01 11 18 24 //// 00 07 00 06
00100 //// 00097 //// 00088 //// 00098 //// 00095 //// 00088 ////++
7777

00000000