0000049500
240
SNVF11 BIRK 111900
BBXX
TFBKF 11194 99635 70202 46/// ///// 22200 10703 70014=
TFGRS 11194 99663 70182 46/// ///// 22200 10804 70020=
TFGRV 11194 99638 70225 46/// ///// 22200 10804 70020=
TFGSK 11194 99641 70229 46/// ///// 22200 10905 70024=
TFHFN 11194 99642 70152 46/// ///// 22200 10705 70026=
TFKGR 11194 99657 70136 46/// ///// 22200 10707 70034=
TFSRT 11194 99633 70203 46/// ///// 22200 10906 70030=
TFSTD 11194 99664 70234 46/// ///// 22200 10806 70028=
0000017300
241
UDEU02 EGRR 111905
AMDAR 1118
LVR EU0030   3002N 01443W 111851 F330 MS495 282/078 TB/ S031=
LVR EU0030   2914N 01501W 111858 F313 MS445 283/074 TB/ S031=
0000042900
242
UDEU02 EGRR 111906
AMDAR 1118
LVR EU0036   5543N 00346W 111824 F350 MS627 290/082 TB/ S031=
LVR EU0036   5623N 00246W 111831 F350 MS605 290/086 TB/ S031=
LVR EU0036   5702N 00144W 111838 F350 MS582 304/074 TB/ S031=
LVR EU0036   5742N 00039W 111845 F350 MS527 285/063 TB/ S031=
LVR EU0036   5822N 00030E 111852 F350 MS477 281/048 TB/ S031=
LVR EU0036   5902N 00142E 111859 F350 MS475 278/035 TB/ S031=
0000011000
243
UANT01 CWAO 111902
ARP ACA849 5257N03100W 1902 F360 MS54 212/15 KT
CGHLM DDL XXW 111902 J31A
0000021300
244
UAPA01 KWBC 111903
ARP UAL297 3304N 12431W 1852 F280 MS37 280/040KT=
ARP ASA885 3352N 12847W 1853 F350 MS52 295/057KT TB ONCL LGT CHOP=
ARP ASA837 2842N 13926W 1857 F350 MS47 260/058KT TB SMTH=
0000003900
245
UECR01 GCXO 111800
NIL=
0000003900
246
ULCR01 GCXO 111800
NIL=
0000013400
247
SNRE20 FMEE 111900
AAXX 11194
61980 22565 21111 10265 20199 40174 82830
  333 58008 60005 81823 90710 91116 924/7=
0000011100
248
UANT01 CWAO 111903
ARP UAL933 5301N01958W 1903 F340 MS59 193/86 KT
N224UA DDL XXN 111903 F34A
0000011000
249
UANT01 CWAO 111903
ARP DAL29 5120N03749W 1903 F330 MS60 294/63 KT
N172DZ QXT AOE 111903 F28A
0000050000
250
SSVX07 KARS 111902
ZZYY 48733 11014 1900/ 772950 152344 6113/
11119 11224 49957
444 20130 11014 1853/ 504//=
ZZYY 48508 11014 1900/ 772677 159225 6112/
11119 11202 49992
444 20120 11014 1853/ 504//=
ZZYY 48507 11014 1900/ 772995 134817 6112/
11119 49851
444 20120 11014 1852/ 504//=
ZZYY 48731 11014 1900/ 774089 154919 6112/
11119 11174 49954
444 20120 11014 1852/ 504//=
ZZYY 48536 11014 1900/ 175234 148581 6111/
11119 11316
444 20110 11014 1853/ 504//=
0000011100
251
UANT01 CWAO 111903
ARP AFR6724 5804N02010W 1903 F320 MS58 218/66 KT
FGIUA QXT AOE 111903 F20A
0000011000
252
UANT01 CWAO 111903
ARP BAW115 5308N02353W 1903 F360 MS54 179/50 KT
GSTBG QXT AOE 111903 F11A
0000011000
253
UANT01 CWAO 111903
ARP PIA781 6220N04727W 1903 F360 MS58 191/16 KT
APBGY QXT AOE 111903 F71A
0000011000
254
UANT01 CWAO 111903
ARP BAW189 5207N03915W 1903 F400 MS55 287/54 KT
GZBJC QXT AOW 111903 L66A
0000011100
255
UANT01 CWAO 111903
ARP IBE6253 4804N03917W 1903 F350 MS61 296/50 KT
ECLUB QXT EUA 111903 J72A
0000368100
256
SNFR30 LFPW 111900
AAXX 11194
07005 24/70 /2303 10040 20019 30149 40242 52019 700//
  333 60005 90710 91105=
07015 24964 /2202 10029 20017 30179 40238 51023 700//
  333 60005 90710 91103=
07020 26/// /1206 10039 20011 30215 40243 50006
  333 60005=
07027 24969 /1804 10036 20024 30155 40239 52010 700//
  333 60005 90710 91106=
07037 24968 /0403 10037 20019 30053 40242 51014 700//
  333 60005 90710 91104=
07072 24546 /0000 10031 20028 30123 40242 51023 710//
  333 60005 90710 91103=
07110 22575 71108 10086 20050 30100 40216 52003 875//
  333 60005 87632 90710 91112 93100=
07117 26/// /1208 10069 20042 30151 40223 54000
  333 60005 90710 91114=
07130 24457 81004 10081 20070 30180 40233 51011 700//
  333 60005 90710 91106=
07139 24901 /0000 10019 20018 30062 40243 52013 744//
  333 60005 90710 91102=
07149 21965 00000 10034 20027 30132 40245 53016 71100
  333 60005 90710 91103 93100=
07168 24459 83403 10068 20056 30101 40247 51025 700//
  333 60005 90710 91105=
07181 24360 62006 10052 20048 39825 40244 51028 700//
  333 60005 90710 91108=
07190 24643 80403 10045 20042 30054 40241 53031 710//
  333 60005 90710 91106=
07207 26/// /0810 10078 20072 30170 40223 51008
  333 60005 90710 91117=
07222 22460 70707 10080 20061 30198 40230 52017 875//
  333 60005 87613 90710 91113=
07240 22256 80608 10069 20062 30100 40238 52015 886//
  333 60005 88704 90710 91111 93100=
07255 24457 80203 10084 20069 30035 40238 53012 700//
  333 60005 90710 91105=
07280 24549 80101 10078 20059 39962 40239 53014 710//
  333 60005 90710 91104=
07299 22559 72601 10070 20051 39905 40238 53014 875//
  333 60005 81626 87640 90710 91104 93100=
07314 26/// /1005 10100 20076 30188 40216 52006
  333 60005 90710 91112=
07335 24236 80403 10087 20079 30078 40225 52009 710//
  333 60005 90710 91105=
07434 24559 81102 10079 20062 39738 40222 53008 700//
  333 60005 90710 91106=
07460 22960 72802 10089 20053 39831 40224 51008 83032
  333 60005 83362 87073 90710 91105 93100=
07471 24566 /0000 10044 20024 39248 48831 52008 700//
  333 60005 90710 91103=
07481 22560 32103 10082 20057 39938 40230 53005 81530
  333 60005 81620 83361 90710 91104 93100=
07510 224// 71105 10106 20089 30152 40211 53004 875//
  333 60005 86618 87623 90710 91107 93100=
07535 24934 /1203 10059 20052 39906 40225 51007 710//
  333 60005 90710 91104=
07558 24/70 /1504 10074 20068 39379 40218 53009 700//
  333 60005 90710 91105=
07577 24/10 /0401 10088 20076 30133 40224 51003 710//
  333 60005 90710 91102=
07591 24/// /0403 10042 20016 39205 4//// 53010 700//
  333 60005 90710 91106=
07607 24563 /1105 10093 20077 30136 40208 50000 700//
  333 60005 90710 91107=
07621 24559 80801 10084 20069 39774 40211 55000 700//
  333 60005 90710 91103=
07627 24563 81002 10093 20060 39721 40217 53003 700//
  333 60005 90710 91104=
07630 24557 80802 10106 20078 30037 40219 53008 700//
  333 60005 90710 91106=
07643 22762 80105 10111 20088 30212 40222 51008 885//
  333 60005 88650 90710 91107=
07650 22961 71403 10101 20075 30178 40217 52008 80002
  333 60005 87076 90710 91104 93100=
07661 26/// /0506 10114 20086 30055 40217 51010
  333 60005 90710 91108=
07690 22570 70304 10125 20082 30186 40218 51008 86501
  333 60005 81620 85640 90710 91111 93100=
07747 24257 80404 10116 20107 30166 40219 51012 700//
  333 69905 90710 91106=
07761 22470 70604 10098 20079 30204 40215 53010 81638
  333 60005 81716 84468 87276 90710 91108 93100=
07790 22562 62003 10096 20080 30203 40218 53007 82532
  333 60005 82621 83366 85070 90710 91105 93100=
0000148500
257
SNFR31 LFPW 111900
AAXX 11194
07024 24985 /1203 10040 20023 30071 40242 53009 700//
  333 60005 90710 91105=
07031 24906 /0000 10022 20016 30064 40243 51011 744//
  333 60005 90710 91103=
07100 26/// /1516 10087 20076 30129 40212 53004
  333 60005 90710 91122=
07103 26/// /1216 10076 20072 30115 40215 53006
  333 60005 90710 91121=
07107 26/// /1108 10080 20048 30197 40219 53001
  333 60005 90710 91115=
07118 24968 /1406 10042 20033 30118 40227 51001 700//
  333 60005 90710 91108=
07120 24966 /1502 10050 20037 30062 40229 51005 700//
  333 60005 90710 91105=
07125 24926 /1304 10033 20026 30158 40231 51005 710//
  333 60005 90710 91106=
07134 24465 80704 10076 20067 30112 40235 53010 700//
  333 60005 90710 91106=
07200 26/// /1214 10084 20072 30190 40213 50003
  333 60005 90710 91117=
07201 24236 71103 10065 20059 30104 40220 50004 710//
  333 60005 90710 91107=
07203 26/// /1110 10073 20066
  333 60005 90710 91114=
07205 24316 /1103 10063 20056 30170 40225 51007 710//
  333 60005 90710 91104=
07217 24456 80505 10073 20067 30224 40228 52013 700//
  333 60005 90710 91109=
07230 24/60 /0603 10077 20068 30176 40235 51015 700//
  333 60005 90710 91108=
07235 24567 70000 10077 20058 30175 40239 51014 700//
  333 60005 90710 91103=
07300 26/// /0605 10093 20082 30179 40218 51010
  333 60005 90710 91108=
07306 24256 80507 10079 20071 30114 40223 51013 700//
  333 60005 90710 91110=
0000113600
258
SNFR32 LFPW 111900
AAXX 11194
07140 24459 81304 10068 20059 30085 40242 51017 700//
  333 60005 90710 91107=
07143 24902 /0000 10028 20019 30051 40245 53014 744//
  333 60005 90710 91101=
07145 21920 00000 10021 20021 30028 40246 53015 71000
  333 60005 90710 91102 93100=
07146 24/01 90000 10016 20010 30045 40247 53016 745//
  333 60005 90710 91102=
07150 24/00 90000 10025 20016 30180 40242 53016 745//
  333 60005 90710 91102=
07153 24903 /0000 10039 20024 30130 40245 53018 744//
  333 60005 90710 91103=
07156 24/61 /2503 10067 20055 30146 40243 53016 700//
  333 60005 90710 91104=
07157 21905 02503 10042 20032 30104 40244 53017 74140
  333 60005 90710 91106 93100=
07245 24/16 /0704 10060 20059 30088 40243 51017 710//
  333 60005 90710 91107=
07247 24460 80503 10076 20065 30134 40238 51019 700//
  333 60005 90710 91106=
07249 24569 70705 10068 20054 30087 40241 51016 700//
  333 60005 90710 91107=
07257 24432 70102 10068 20056 30020 40237 53013 710//
  333 60005 90710 91104=
07354 24331 70405 10061 20057 30039 40233 53012 710//
  333 60005 90710 91108=
0000045400
259
SNFR33 LFPW 111900
AAXX 11194
07093 24464 82204 10054 20044 39926 40243 52031 700//
  333 60005 90710 91110=
07180 24629 /2103 10042 20041 39980 40244 51029 710//
  333 60005 90710 91105=
07288 26/// /3302 10090 20057 39863 40237 53015
  333 60005 90710 91104=
07292 24415 83002 10067 20058 39909 40242 53019 710//
  333 60005 90710 91103=
07386 24660 83003 10089 20065 39998 40235 53012 700//
  333 60005 90710 91106=
00000000