0000029700
600
SNVD11 KWBC 111900 RRA
BBXX
DPRB 11193 99169 71009 41298 20605 10307 20299 40129 57011 70200
 82100 22273 04299 20201 328// 40301 5//// 80301=
KAQP 11194 99098 71043 43/// /0914 10266 20223 40113 5//// 7////
 8//// 222// 04272 2//// 3//// 4//// 5//// 6//// 8//// ICE /////=
0000029800
601
SNVE01 KWBC 111900 RRA
BBXX
MRSA8 11194 99033 11052 41398 83412 10265 20244 40117 54000 70211
 8/25/ 22254 00270 20203 30400 40303 5//// 80250=
KAOU 11194 99043 31071 43/// /3509 10266 20235 40099 5//// 7////
 8//// 222// 04298 2//// 3//// 4//// 5//// 6//// 8//// ICE /////=
0000076300
602
SNVF01 KWBC 111900 RRB
BBXX
C6FY8 11194 99359 70083 41797 52705 10180 2015/ 40200 52010 70200
 85400 22200 0//// 20502 305// 4//// 5//// 6//// 80160 ICE /////=
62023 11193 99514 70079 46/97 /1524 10089 2//// 4//// 5//// 22200
 10604 70021 555 70031 81007=
BATUK01 11194 99577 70062 43/// /2502 10057 20009 40157 52014
 22231 04094=
LF4H 11194 99596 10022 46/98 12932 10068 21023 40034 52012 8////
 91902 22200 06076 10606 70032=
LMEL 11191 99603 10053 43/// /1304 10016 21019 40016 5//// 222/0
 04078 1//// 3//// 4//// 5////=
LDGJ 11191 99603 10053 43/// /1404 10018 21024 40017 5//// 222/0
 04078 1//// 3//// 4//// 5////=
LJIT 11191 99589 10057 43/// /3001 10026 20003 40047 5//// 222/0
 04065 1//// 3//// 4//// 5////=
0000179200
603
SASA85 EGRR 111900 RRF
METAR SAAR 111900Z 14007KT CAVOK 28/11 Q1018=
METAR SANT 111900Z 27004KT 9999 FEW035 FEW040TCU BKN100 23/20 Q1020=
METAR SARC 111900Z 18005KT 9999 BKN006 OVC100 21/20 Q1016=
METAR SARE 111900Z 00000KT 9999 BKN004 OVC045 22/20 Q1016=
METAR SARL 111900Z 23006KT 9999 SCT008 BKN100 OVC200 27/18 Q1015=
METAR SAVE 111900Z 25007KT CAVOK 26/03 Q1018=
METAR SBCY 111900Z 16003KT 9999 -TSRA SCT020 FEW025CB BKN100 23/21
      Q1 013=
METAR SBSN 111900Z 34005KT 9999 FEW017 FEW020TCU BKN100 31/21 Q1009=
METAR SKMD 111900Z 00000KT 9999 FEW035 28/15 A2999=
METAR SKRG 111900Z 06005KT 9999 SCT020TCU SCT080 20/12 A3021 RMK TCU/S/SW=
METAR SKSM 111900Z 35010KT 9999 FEW020 34/21 A2977=
METAR SLCA 111900Z 00000KT 9999 TS SCT033 FEW040CB 35/22 Q1011=
METAR SLCP 111900Z 36004KT 9999 BKN015 FEW027CB 26/24 Q1013=
METAR SLJE 111900Z 33006KT 9999 SCT017 FEW027CB 31/23 Q1011=
METAR SLJO 111900Z 32006KT 6000 TS VCSH SCT017 FEW020CB BKN070 24/23
      Q1010=
METAR SLMG 111900Z 25004KT 7000 -RA SCT007 FEW023CB OVC070 24/24 Q1012=
METAR SLOR 111900Z 09012KT 9999 FEW020 FEW023TCU 21/02 Q1034=
METAR SLRB 111900Z 35008KT 9999 SCT020 33/24 Q1011=
METAR SLRI 111900Z 03012KT 7000 VCSH BKN017 FEW020CB BKN200 33/23 Q1009=
METAR SLRQ 111900Z 33006KT 9999 SCT017 FEW020CB SCT200 31/26 Q1008=
METAR SLRY 111900Z 34008KT 9999 BKN017 32/25 Q1009=
METAR SLSA 111900Z 04012KT 8000 VCSH SCT017 FEW023CB BKN200 28/25 Q1009=
METAR SLSI 111900Z 00000KT 9999 SCT020 28/24 Q1011=
METAR SLTJ 111900Z 13014KT 9999 SCT030 FEW033CB BKN200 25/17 Q1019=
METAR SLVM 111900Z 36008KT 9999 SCT023 37/24 Q1007=
METAR SLYA 111900Z 18006KT 9999 TS SCT023 FEW027CB SCT070 BKN200 32/24
      Q1009=
METAR SVST 111900Z 00000KT CAVOK ///// Q1015=
0000171600
604
SASA85 EGRR 111900 RRG
METAR SASJ 111900Z 18016KT 9999 SCT035 BKN050 19/16 Q1021=
METAR SAWH 111900Z 32012KT 9999 BKN040 OVC100 14/07 Q1000=
METAR SAZM 111900Z 20014KT 9999 FEW020 19/08 Q1022=
METAR SBAF 111900Z 07004KT 9999 FEW025 38/19 Q1010=
METAR SBAT 111900Z 00000KT 9999 BKN030 FEW035TCU 33/21 Q1010=
METAR SBBI 111900Z 07003KT 9999 VCTS SCT020 FEW025TCU SCT100 21/21
      Q1017 RETS=
METAR SBBQ 111900Z 02004KT 9999 FEW040 FEW045TCU 28/15 Q1020=
METAR SBBU 111900Z 30010KT 9999 BKN047 35/22 Q1014=
METAR SBBW 111900Z 06004KT 9999 TS BKN020 FEW025CB 32/21 Q1011=
METAR SBCC 111900Z 24006KT 9999 SCT030 26/20 Q1011=
METAR SBCO 111900Z 32010KT 9999 VCSH FEW010 BKN040 FEW045TCU OVC100
      25/// Q1014 RETS=
METAR SBFI 111900Z 00000KT 9999 VCSH SCT025 FEW035TCU SCT050 BKN100
      29/22 Q1011=
METAR COR SBGO 111900Z 27004KT 9999 TS VCSH FEW030 FEW040CB BKN100
      23/18 Q1015=
METAR SBIL 111900Z 14008KT 9999 FEW025 28/22 Q1014=
METAR SBKG 111900Z 16009KT 9999 BKN025 BKN080 27/19 Q1014=
METAR SBME 111900Z 08013KT CAVOK 31/23 Q1012=
METAR SBMS 111900Z 03019KT 9999 FEW030 32/23 Q1009=
METAR SBMT 111900Z 20003KT 8000 BKN035 25/21 Q1016=
METAR SBPA 111900Z 29010KT 6000 -RA BKN018 FEW040TCU SCT100 24/21 Q1014=
METAR SBSM 111900Z 16004KT 9999 -RA FEW020 SCT040 BKN100 25/23 Q1014=
METAR SBST 111900Z 33003KT 9000 -TSRA SCT033CB SCT050 27/22 Q1011=
METAR SBTC 111900Z 15002KT 9999 FEW015 SCT060 32/23 Q1015=
METAR SBTK 111900Z 30008KT 9999 SCT030 31/23 Q1011=
METAR SBTU 111900Z /////KT 9999 FEW020 SCT070 ///// Q1011=
METAR SBUR 111900Z 22006KT CAVOK 30/16 Q1015=
METAR SBYS 111900Z 15002KT 9999 SCT045 FEW050TCU BKN100 31/19 Q1014=
0000126800
605
SASA85 EGRR 111900 RRH
METAR SAOC 111900Z 05005KT CAVOK 26/11 Q1020=
METAR SBAN 111900Z 32002KT 9999 SCT020 FEW025TCU BKN100 20/18 Q1017
      R ETS=
METAR SBBH 111900Z 08006KT 9999 FEW045 31/15 Q1017=
METAR SBCO 111900Z 32010KT 9999 VCSH FEW010 BKN040 FEW045TCU OVC100
      2 5/// Q1014 RETS=
METAR SBCY 111900Z 16003KT 9999 -TSRA SCT020 FEW025CB BKN100 23/21
      Q1013=
METAR SBDN 111900Z 09010KT 9999 SCT040 FEW050TCU 35/15 Q1011=
METAR SBGW 111900Z 11004KT 9999 FEW025 FEW030TCU 33/16 Q1014=
METAR SBHT 111900Z 31001KT 9999 SCT020 29/24 Q1009=
METAR SBIH 111900Z 03004KT 9999 SCT022 FEW023TCU 31/23 Q1009=
METAR SBIZ 111900Z 05005KT 9999 SCT020 FEW025TCU 30/24 Q1008=
METAR SBJF 111900Z 06008KT 9999 SCT020 30/19 Q1018=
METAR SBJR 111900Z 23003KT 9999 FEW030 37/24 Q1010=
METAR SBMK 111900Z 09010KT 9999 FEW040 SCT060 29/16 Q1017=
METAR SBPC 111900Z 05005KT 9999 TS SCT020CB 30/18 Q1020=
METAR SBRB 111900Z 03003KT 9999 VCSH BKN020 FEW025TCU SCT100 /////
      Q1010=
METAR SBSC 111900Z 03008KT 9999 FEW025 38/20 Q1010=
METAR SBUL 111900Z 04007KT 9999 SCT045 FEW050TCU 29/15 Q1016=
METAR SBVH 111900Z 10008KT 8000 -RA SCT018 BKN090 22/20 Q1013 RETS=
METAR SCEL 111900Z 21014KT CAVOK 34/03 Q1010 NOSIG=
0000009000
606
SAIR33 OIII 111900 RRA
METAR OIZC 111850Z 00000KT CAVOK 14/05 Q1021 A3017=
0000010800
607
SSVD50 LFPW 111640 RRA
ZZYY 41099 11014 1640/ 714176 060935 22219 00268 10805 20080
21026=
0000010800
608
SSVD50 LFPW 111710 RRA
ZZYY 41099 11014 1710/ 714176 060935 22219 00268 10805 20080
21025=
0000024400
609
SSVD50 LFPW 111740 RRA
ZZYY 41099 11014 1740/ 714176 060935 22219 00268 10805 20080
21026=
ZZYY 31217 11014 1740/ 704937 052194 22219 10500 20050 21002=
ZZYY 41097 11014 1740/ 714548 061097 22219 00269 10301 20030
21004=
0000031600
610
SSVD50 LFPW 111810 RRA
ZZYY 41099 11014 1810/ 714176 060935 22219 00268 10805 20080
21026=
ZZYY 31217 11014 1810/ 704937 052194 22219 10501 20050 21003=
ZZYY 41097 11014 1810/ 714548 061097 22219 00270 10301 20030
21004=
ZZYY 44050 11014 1810/ 746700 056183 22219 00002 10703 20070
21017=
0000010800
611
SSVD50 LFPW 111840 RRA
ZZYY 44050 11014 1840/ 746700 056183 22219 00002 10703 20070
21016=
0000010800
612
SSVF50 LFPW 111640 RRA
ZZYY 61289 11014 1640/ 143208 005230 22219 00140 10401 20040
21003=
0000017200
613
SSVF50 LFPW 111650 RRA
ZZYY 62078 11014 1650/ 747239 002787 22219 00069 11102 20110
21009=
ZZYY 62067 11014 1650/ 746833 002295 22219 11102 20109 21010=
0000018000
614
SSVF50 LFPW 111710 RRA
ZZYY 61289 11014 1710/ 143208 005230 22219 00140 10401 20040
21003=
ZZYY 61431 11014 1710/ 143411 004163 22219 00121 10401 20040
21004=
0000017200
615
SSVF50 LFPW 111720 RRA
ZZYY 62078 11014 1720/ 747239 002787 22219 00069 11002 20100
21009=
ZZYY 62067 11014 1720/ 746833 002295 22219 11202 20115 21010=
0000017200
616
SSVF50 LFPW 111735 RRA
ZZYY 62066 11014 1735/ 743532 001615 22219 00128 11002 20100
21009=
ZZYY 62064 11014 1735/ 744653 001447 22219 11002 20100 21012=
0000060400
617
SSVF50 LFPW 111740 RRA
ZZYY 62074 11014 1740/ 747285 003285 22219 00101 11304 20130
21018=
ZZYY 61289 11014 1740/ 143208 005230 22219 00140 10401 20040
21003=
ZZYY 62069 11014 1740/ 748290 004968 22219 00109 11304 20130
21020=
ZZYY 62068 11014 1740/ 748717 003961 22219 00109 10501 20050
21004=
ZZYY 62059 11014 1740/ 749695 001620 22219 10501 20050 21005=
ZZYY 62079 11014 1740/ 743403 001674 22219 00129 11202 20120
21012=
ZZYY 61431 11014 1740/ 143411 004163 22219 00121 10401 20040
21004=
ZZYY 61191 11014 1740/ 142917 003125 22219 00128 10401 20040
21004=
0000017200
618
SSVF50 LFPW 111805 RRA
ZZYY 62066 11014 1805/ 743532 001615 22219 00120 11102 20110
21010=
ZZYY 62064 11014 1805/ 744653 001447 22219 11002 20100 21012=
0000053200
619
SSVF50 LFPW 111810 RRA
ZZYY 62074 11014 1810/ 747285 003285 22219 00101 11204 20120
21019=
ZZYY 62079 11014 1810/ 743403 001674 22219 00130 11202 20120
21012=
ZZYY 61289 11014 1810/ 143208 005230 22219 00131 10401 20040
21003=
ZZYY 62069 11014 1810/ 748290 004968 22219 00108 11204 20120
21020=
ZZYY 61431 11014 1810/ 143411 004163 22219 00123 10401 20040
21004=
ZZYY 61191 11014 1810/ 142917 003125 22219 00128 10401 20040
21003=
ZZYY 62059 11014 1810/ 749695 001620 22219 10501 20050 21004=
00000000