0000119500
260
SNFR34 LFPW 111900
AAXX 11194
07260 24502 /0000 10055 20046 30019 40237 52014 744//
  333 60005 90710 91103=
07266 24457 83502 10069 20057 30057 40245 51022 700//
  333 60005 90710 91106=
07374 24/60 /3502 10066 20043 39925 40232 53009 700//
  333 60005 90710 91104=
07379 24956 /3601 10052 20035 39936 40236 53009 700//
  333 60005 90710 91103=
07385 24/63 /3003 10067 20050 39964 40230 51005 700//
  333 60005 90710 91106=
07475 24957 81302 10044 20027 39747 40237 52009 700//
  333 60005 90710 91103=
07480 24958 /0000 10064 20050 39989 40232 53006 700//
  333 60005 90710 91103=
07482 24/70 /0000 10060 20046 39925 40234 53004 700//
  333 60005 90710 91104=
07486 24940 /0903 10047 20034 39765 40236 53003 710//
  333 60005 90710 91104=
07487 26/// /0602 10043 20036 39965 40237 53006
  333 60005 90710 91103=
07491 24909 /1703 10039 20029 39946 40237 53005 761//
  333 69905 90710 91104=
07497 26/// /3403 10036 20011 39223 48526 51014
  333 60005 90710 91104=
07549 24938 /1004 10051 20031 39463 40228 53005 710//
  333 60005 90710 91107=
07570 24/28 /3102 10078 20075 39899 40239 53002 710//
  333 60005 90710 91103=
0000143200
261
SNFR35 LFPW 111900
AAXX 11194
07316 24569 81007 10100 20071 30194 40216 51006 700//
  333 60005 90710 91111=
07330 24/50 /0604 10092 20083 30146 40221 51007 700//
  333 60005 90710 91107=
07361 24/61 /1302 10044 20034 39784 40230 51009 700//
  333 60005 90710 91104=
07412 24558 70504 10101 20084 30181 40219 52010 700//
  333 60005 90710 91105=
07438 24/57 /1901 10078 20059 30079 40223 53004 700//
  333 60005 90710 91102=
07500 26/// /1106 10103 20095 30170 40204 55000
  333 60005 90710 91110=
07503 269// /1003 10097 20086 30156 40204 55000
  333 60005 90710 91107=
07524 24550 80903 10097 20088 30131 40215 51005 700//
  333 60005 90710 91104=
07530 24564 80902 10092 20070 30153 40217 51006 700//
  333 60005 90710 91107=
07540 24/16 /1401 10059 20052 30091 40223 51008 710//
  333 60005 90710 91103=
07552 24459 81501 10071 20054 39535 40224 53009 700//
  333 60005 90710 91103=
07600 26/// /1208 10108 20077 30145 40197 57004
  333 60005 90710 91112=
07602 24972 /1006 10097 20076 30111 40198 57003 700//
  333 60005 90710 91110=
07603 26/60 /1204 10096 20077 30164 40202 55000
  333 60005 90710 91106=
07610 24950 /1104 10070 20056 39985 40209 50000 700//
  333 60005 90710 91106=
07622 24/38 /0000 10062 20047 30059 40217 50003 710//
  333 60005 90710 91101=
07632 24/50 /1401 10095 20076 30014 40222 51010 700//
  333 60005 90710 91102=
0000190000
262
SNFR36 LFPW 111900
AAXX 11194
07554 24568 61002 10051 20038 39139 4//// 53008 700//
  333 60005 90710 91103=
07560 26/// /0208 10021 20021 38454 4//// 50006
  333 60005 90710 91111=
07563 24745 80103 10098 20086 30164 40223 51007 710//
  333 60005 90710 91104=
07579 24734 82702 10096 20085 30157 40224 53005 710//
  333 60005 90710 91103=
07586 26/// /1601 10087 20067 30094 40224 53007
  333 60005 90710 91102=
07588 24969 71003 10048 20033 39674 40233 53009 700//
  333 60005 90710 91107=
07635 24656 81004 10109 20095 30064 40218 52008 700//
  333 60005 90710 91106=
07638 24658 80105 10110 20099 30202 40222 51009 700//
  333 60005 90710 91107=
07641 26/// /3607 10114 20091 30128 40222 51010
  333 60005 90710 91111=
07646 24661 80201 10109 20068 30093 40221 51008 700//
  333 60005 90710 91103=
07647 24759 /0204 10090 20073 30190 40218 52008 700//
  333 60005 90710 91107=
07648 24961 /0000 10087 20060 30149 40221 51009 700//
  333 60005 90710 91103=
07666 26/// /0309 10117 20109 30167 40216 51010
  333 60005 90710 91114=
07667 24662 73603 10090 20073 30212 40217 51010 700//
  333 60005 90710 91104=
07675 24/62 /0000 10099 20077 30120 40220 53011 700//
  333 60005 90710 91103=
07684 24558 80202 10119 20095 30213 40218 53009 700//
  333 60005 90710 91103=
07749 26/// /3305 10118 20094 30113 40218 51010
  333 60005 90710 91106=
07754 26985 71904 10090 20076 30147 40218 53009
  333 60005 90710 91108=
07765 24681 82802 10125 20106 30197 40218 53007 700//
  333 60005 90710 91105=
07770 26/// /0909 10129 20116 30073 40213 53007
  333 60005 90710 91114=
07775 26/// /2408 10123 20102 30127 40217 53007
  333 60005 90710 91109=
07780 24482 80504 10134 20111 30188 40216 52008 700//
  333 60005 90710 91109=
07785 26/// /2507 10127 20078 30084 40220 53009
  333 60005 90710 91109=
0000110000
263
SNFR37 LFPW 111900
AAXX 11194
07002 26/// /3305 10065 20012 30154 40238 53021
  333 60005 90710 91110=
07003 24958 /1303 10013 20003 30214 40239 52019 700//
  333 60005 90710 91103=
07010 26/// /3111 10076 20019 30215 40235 53024
  333 60005 90710 91116=
07028 26/// /0204 10061 20034 30110 40239 53012
  333 60005 90710 91105=
07038 24960 /0000 10018 20015 30071 40244 51013 700//
  333 60005 90710 91102=
07040 26/// /1605 10040 20027 30191 40241 52017
  333 60005 90710 91107=
07046 24959 /0602 10034 20019 30123 40241 51013 700//
  333 60005 90710 91102=
07055 24961 /0000 10012 20003 30105 40245 51019 700//
  333 60005 90710 91104=
07057 24/12 90000 10007 21002 30132 40243 52019 710//
  333 60005 90710 91102=
07061 24/70 /3503 10034 20027 30119 40242 53023 700//
  333 60005 90710 91104=
07075 24907 /3002 10000 21006 30058 40245 51028 744//
  333 60005 90710 91103=
07169 24450 80000 10047 20041 30075 40246 53025 700//
  333 60005 90710 91103=
07283 24/09 93003 10056 20053 39681 40246 53026 745//
  333 60005 90710 91109=
0000015700
264
SSVX13 LFPW 111900
ZZYY 61688 11014 1900/ 144059 029448 6113/ 11119 40224 52004 22219
 00088 444 20131 11014 1857/ 50101 80090 80002 9/015=
0000015700
265
SSVX13 LFPW 111900
ZZYY 62713 11014 1900/ 733724 019391 6113/ 11119 40161 52010 22219
 00182 444 20130 11014 1857/ 50101 80098 80002 9/015=
0000015700
266
SSVX13 LFPW 111900
ZZYY 44762 11014 1900/ 751190 006161 6113/ 11119 40209 57001 22219
 00105 444 20130 11014 1857/ 50101 80096 80000 9/015=
0000015700
267
SSVX13 LFPW 111900
ZZYY 62687 11014 1900/ 166167 001314 6113/ 11119 40085 52017 22219
 00075 444 20130 11014 1857/ 50101 80098 80000 9/015=
0000038500
268
SSVX13 LFPW 111900
ZZYY 61690 11014 1900/ 142778 029391 6113/ 11119 40234 52008 22219
 00093 33300 88870 20000 30932 20011 30936 20013 30928 20016 30924
 20021 30932 20026 30940 20031 30936 20036 30932 20041 30932 20046
 30924 20052 30900 20057 30816 20062 30792 20067 30784 20072 30788
 20077 30800 20082 30812 444 20131 11014 1857/ 50101 80102 80010
 9/015=
0000016600
269
SSVX02 KARS 111900
ZZYY 14930 11014 1800/ 330648 031451 6112/
11119 30186 40186 52020
22219 00257
444 20120 11014 1645/ 50101 80110 80025 9/015=
0000017700
270
UDEU02 EGRR 111906 RRA
AMDAR 1118
DES EU0462   5322N 00245W 111858 F009 PS035 253/007 TB/ S031=
DES EU0462   5322N 00249W 111900 F000 PS045 170/005 TB/ S031=
0000017700
271
UDEU02 EGRR 111906 RRB
AMDAR 1118
LVR EU2618   6159N 01045E 111851 F379 MS470 294/026 TB/ S031=
DES EU2618   6108N 01046E 111858 F294 MS463 285/029 TB/ S031=
0000061600
272
SAIR31 OIII 111900
METAR OIAW 111900Z 27004KT 7000 SCT040 10/08 Q1019=
METAR OIFM 111900Z 00000KT 0500 FG SCT035 OVC100 M01/M01 Q1018
A3008=
METAR OIII 111900Z 24006KT 2000 BR SCT035 OVC100 01/M01 Q1019
 A3009=
METAR OIKB 111900Z 00000KT 6000 FEW025CB SCT030 OVC090 14/11 Q1021
A3016=
METAR OIKK 111900Z NIL=
METAR OIMM 111900Z 16006KT 7000 SCT030 OVC180 04/M06 Q1016 A3002=
METAR OISS 111900Z 00000KT 2000-RA FEW020 FEW030CB OVC080 04/04
Q1019 A3009=
METAR OITT 111900Z 07006KT 3500 BR FEW035 BKN090 M08/M11 Q1021
A3016=
METAR OIZH 111900Z 15004KT CAVOK 03/M06 Q1019 A3010=
0000051900
273
SAIR32 OIII 111900
METAR OIAA 111900Z 00000KT CAVOK 09/07 Q1020=
METAR OIBK 111900Z 10008KT 8000 -RA SCT015 SCT030 OVC080 16/15
Q1020=
METAR OICC 111900Z 00000KT 8000 BR FEW035CB SCT040 OVC080
M01/M02 Q1020 A3013=
METAR OIGG 111900Z NIL=
METAR OIIE 111900Z 29008KT 9000 FEW040 BKN180 M00/M02
Q1019 A3011 NOSIG=
METAR OITR 111900Z 25004KT 2000 BR FEW035 M12/M14 Q1020=
METAR OIYY 111900Z 00000KT 1000 -RA BR SCT030 OVC090 01/01 Q1021=
METAR OAKN 111900Z NIL=
METAR OAKB 111900Z NIL=
0000009600
274
UGIN40 DEMS 111800 RRB
PPBB 61181 43063 90023 00000 18502 23505 907// 17524 =

0000008800
275
UAPA01 KWBC 111827
ARP AAL31 3106N 13208W 1822 F320 MS46 252/046KT TB 1=
0000011000
276
UANT01 CWAO 111826
ARP DAL29 5159N03057W 1826 F330 MS52 229/16 KT
N172DZ QXT AOE 111826 F23A
0000011000
277
UANT01 CWAO 111827
ARP BAW115 5303N01621W 1826 F360 MS65 216/87 KT
GSTBG QXT AOE 111827 F06A
0000011000
278
UANT01 CWAO 111827
ARP PIA781 6320N03728W 1826 F350 MS58 190/40 KT
APBGY QXS AGM 111827 F58A
0000011000
279
UANT01 CWAO 111827
ARP BAW189 5254N03151W 1827 F390 MS53 000/24 KT
GZBJC QXT AOE 111827 L48A
00000000