0000114600
300
SNCN19 CWAO 111854
OOXX
CAP17 11161 99476 70527 ///// 01331
     26/// /0905 11004 29067 30049 91650 333 60000=
CAP17 11171 99476 70527 ///// 01331
     26/// /1005 11006 29068 30050 91700 333 60000=
CAP17 11171 99476 70527 ///// 01331
     26/// /0905 11006 29067 30046 91710 333 60000=
CAP17 11171 99476 70527 ///// 01331
     26/// /1007 11007 29068 30045 91720 333 60000=
CAP17 11171 99476 70527 ///// 01331
     26/// /1006 11005 29068 30044 91730 333 60000=
CAP17 11171 99476 70527 ///// 01331
     26/// /0907 11007 29068 30045 91740 333 60000=
CAP17 11171 99476 70527 ///// 01331
     26/// /0906 11005 29069 30045 91750 333 60000=
CAP17 11181 99476 70527 ///// 01331
     26/// /1007 11005 29069 30044 91800 333 60000=
CAP17 11181 99476 70527 ///// 01331
     26/// /1006 11005 29068 30046 91810 333 60000=
CAP17 11181 99476 70527 ///// 01331
     26/// /1006 11005 29068 30046 91820 333 60000=
CAP17 11181 99476 70527 ///// 01331
     26/// /0908 11007 29069 30045 91830 333 60000=
CAP17 11181 99476 70527 ///// 01331
     26/// /0908 11008 29069 30044 91840 333 60000=

0000114600
301
SNCN19 CWAO 111851
OOXX
CMP13 11161 99038 10102 ///// 01281
     26/// /0000 10289 29077 39960 91650 333 60000=
CMP13 11171 99038 10102 ///// 01281
     26/// /0000 10284 29079 39962 91700 333 60000=
CMP13 11171 99038 10102 ///// 01281
     26/// /0000 10281 29080 39963 91710 333 60000=
CMP13 11171 99038 10102 ///// 01281
     26/// /0000 10279 29082 39965 91720 333 60000=
CMP13 11171 99038 10102 ///// 01281
     26/// /0000 10276 29083 39966 91730 333 60000=
CMP13 11171 99038 10102 ///// 01281
     26/// /0000 10274 29084 39968 91740 333 60000=
CMP13 11171 99038 10102 ///// 01281
     26/// /0000 10272 29085 39969 91750 333 60000=
CMP13 11181 99038 10102 ///// 01281
     26/// /0000 10270 29085 39971 91800 333 60000=
CMP13 11181 99038 10102 ///// 01281
     26/// /0000 10269 29086 39974 91810 333 60000=
CMP13 11181 99038 10102 ///// 01281
     26/// /0000 10268 29086 39975 91820 333 60000=
CMP13 11181 99038 10102 ///// 01281
     26/// /0000 10266 29087 39975 91830 333 60000=
CMP13 11181 99038 10102 ///// 01281
     26/// /0000 10266 29087 39977 91840 333 60000=

0000114600
302
SNCN19 CWAO 111855
OOXX
GBP68 11161 99371 50123 ///// 00641
     26/// /0000 10214 29058 30161 91650 333 60000=
GBP68 11171 99371 50123 ///// 00641
     26/// /0000 10209 29059 30161 91700 333 60000=
GBP68 11171 99371 50123 ///// 00641
     26/// /0000 10211 29060 30161 91710 333 60000=
GBP68 11171 99371 50123 ///// 00641
     26/// /0000 10206 29057 30162 91720 333 60000=
GBP68 11171 99371 50123 ///// 00641
     26/// /0000 10203 29057 30164 91730 333 69920=
GBP68 11171 99371 50123 ///// 00641
     26/// /0000 10200 29058 30165 91740 333 60000=
GBP68 11171 99371 50123 ///// 00641
     26/// /0000 10202 29059 30167 91750 333 60000=
GBP68 11181 99371 50123 ///// 00641
     26/// /0000 10206 29054 30168 91800 333 60000=
GBP68 11181 99371 50123 ///// 00641
     26/// /0000 10202 29055 30168 91810 333 60000=
GBP68 11181 99371 50123 ///// 00641
     26/// /0000 10202 29056 30168 91820 333 60000=
GBP68 11181 99371 50123 ///// 00641
     26/// /0000 10197 29058 30168 91830 333 60000=
GBP68 11181 99371 50123 ///// 00641
     26/// /0000 10193 29061 30170 91840 333 60000=

0000003800
303
SAUK53 EGRR 111900
NIL
0000031200
304
SMVF01 EGRR 111800 RRC
BBXX
62095 11184 99529 70156 46/// /1830 10103 20053 40029 58043 22200
00111 10809 70043 333 90710 91142=
DDYL2 11183 99362 10153 41/98 /1608 10160 20144 40220 57005 70111
8//// 22264 00160 20502 80150=
3EDI6 11184 99546 10044 41598 43025 10065 40185 52045 70111=
0000307800
305
SNUK42 EGRR 111900
AAXX 11194
03002 45663 /2833 10057 20005 30012 40030 53014
  333 83/31 85/41 85/50 90710 91147=
03008 46/// /2825 10056 20010 30011 40084 51021
  333 90710 91140 91036=
03010 46/// /2829 10067 21002 40119 52018
  333 90710 91143=
03014 46/// /3034 40069 53021
  333 90710 91147=
03031 45684 /2908 10011 21009 39827 40162 51014
  333 553// 20000 87/35=
03034 45682 /2409 10048 20014 30145 40159 53017
  333 84/42=
03037 45976 /1905 10032 20005 30145 40167 51013
  333 8//99=
03039 46/// /2618 11015 21020
  333 90710 91126=
03044 47557 /2907 10023 20006 30042 40144 53021 782//
  333 553// 20000 81/29 83/35 85/50 91017=
03047 45684 /2703 10012 21010 39872 40183 53012
  333 553// 20000 82/35=
03062 45984 /2213 10020 21003 30144 40149 53017
  333 553// 20000 8//99=
03065 46/// /2731 11054 21062
  333 90710 91141=
03068 42884 12713 10028 21005 30142 40150 53016 81060
  333 81357=
03072 46/// /3035 11033 21047
  333 90710 91146 91046=
03080 45982 /2910 10021 21029 39982 40157 52016
  333 8//99=
03088 45983 /2814 10026 21025 39988 40155 52021
  333 553// 20000 8//99 90710 91125=
03105 45969 /2610 10057 20035 30167 40185 51007
  333 8//99=
03132 45977 /3103 10015 20008 30184 40198 51011
  333 8//99=
03144 45984 /2310 10028 20004 30133 40177 51015
  333 553// 20000 8//99=
03148 46/// /2613 11006 21011=
03153 45980 /2805 10026 20020 30057 40199 53013
  333 553// 20000 8//99=
03155 46480 /1909 10016 20008 39889 40195 53018
  333 82/12=
03158 45983 /2407 10022 21003 30044 40184 53020
  333 553// 20000 8//99=
03210 46971 /2508 10037 20029 30052 40206 52012
  333 8//99=
03212 45/79 /2901 10026 20010 30106 40208 51018=
03214 45974 /2608 10052 20032 30187 40206 51011
  333 8//99=
03220 46967 ///// 10016 20010 30168 40203 51019
  333 81/74=
03224 47004 /2508 10009 20009 39848 40204 51021 732//
  333 87/01=
03225 46981 /1905 10005 21015 39895 40211 51018
  333 553// 20000 8//99=
03226 45984 /0102 10007 21012 39924 40208 51017
  333 8//99=
03227 46/// /2619 11025 2////
  333 90710 91125=
03230 46979 /2502 10007 21005 39932 40196 53016
  333 8//99=
03238 45980 /2607 10016 20004 30015 40194 53018
  333 8//99=
03261 46976 /2708 10032 20002 30166 40208 51018
  333 8//99=
03265 45983 /2607 10044 21003 30177 40208 51019
  333 8//99=
03266 46980 /3302 10026 20004 30191 40209 52018
  333 8//99=
03275 45970 /2507 10013 21008 30003 40201 52019
  333 8//99=
03281 46/// /2410 10003 21016=
03901 47960 /1306 10015 20012 30098 40188 50002 710//
  333 55300 20000 87/64=
03904 45963 /1004 10010 20000 30127 40189 51002
  333 86/65 83/69=
03907 45981 /2105 10016 20002 30180 40188 51003
  333 55300 20000 85/66=
03911 46971 /0301 11003 21011 39915 40198 51001
  333 85/64=
03915 46972 /1406 10015 20006 30110 40191 52001
  333 82/65=
03916 46983 /2105 10020 21005 39996 40192 50005
  333 553// 20000 81/73=
03923 45966 /2505 10013 20011 39993 40195 55000
  333 8//99=
0000384200
306
SNUK43 EGRR 111900
AAXX 11194
03301 46976 /1904 10017 20005 30143 40218 53006
  333 8//99=
03305 45482 /2509 10005 21007 39954 40225 51005
  333 82/10=
03313 46978 /2107 10027 20004 30121 40218 51006
  333 81/75=
03316 45971 /2209 10055 20020 30204 40215 52008
  333 8//99=
03318 46/// /2404 10035 20024=
03321 45978 /2005 10019 21006 30208 40221 51010
  333 55300 20000 8//99=
03330 45971 /1501 10012 20001 39856 40228 51015
  333 81/75=
03344 45978 /2507 10028 20012 39888 40214 51015
  333 8//99=
03346 46/// /2609 10022 20009=
03351 45969 /1903 10027 20017 30176 40220 51012
  333 55300 20000 83/74=
03373 46978 /2410 10011 21002 30140 40212 50011
  333 81/70=
03379 46972 /2407 10007 21007 30142 40222 51015
  333 8//99=
03382 45982 /2807 10037 20005 30198 40207 53020
  333 55300 20000 8//99=
03385 46965 /2405 10023 20003 30202 40212 52016
  333 8//99=
03391 42975 22508 10010 21005 30207 40215 51012 80001
  333 82073=
03392 46972 /2607 10017 20006 30210 40214 50012
  333 8//99=
03405 469// /1610 10052 20018 30107 40226 53005
  333 553// 20000 8//99=
03409 46/// /3601 11006 21016 30017 40225 51007
  333 55300 2////=
03410 46980 /2404 10007 21004 39775 40223 51005
  333 553// 20000 8//99=
03469 45981 /2305 10018 20002 30215 40219 52014
  333 553// 20000 8//99=
03488 45984 /2610 10031 20012 30188 40215 51020
  333 8//99=
03503 45977 /0201 11011 21014 30142 40222 51002
  333 8//99=
03520 46959 /0701 11012 21017 30103 40229 51008
  333 553// 20000 8//99=
03522 47957 /0202 11008 21012 30136 40233 51009 710//
  333 8//99=
03529 45976 /1503 10003 21014 30191 40236 51013
  333 8//99=
03544 45980 /1803 10013 21005 30094 40230 52013
  333 553// 20000 8//99=
03560 45983 /2303 10010 21005 30124 40232 52017
  333 553// 20000 8//99=
03604 46984 /1507 10057 20020 30167 40221 53002
  333 81/61=
03605 46967 /1405 10005 21006 30217 40225 53004
  333 8//99=
03609 46/// /1505 10065 20031 30178 40231 51004=
03628 45963 /0801 10023 20014 30156 40230 51011
  333 55300 20000 8//99=
03647 46972 /2803 10010 21007 39966 40230 50011
  333 553// 20000 8//99=
03658 46966 /1001 11023 21034 30165 40238 51018
  333 8//99=
03660 45983 /2902 10022 21005 39983 40239 53017
  333 8//99=
03672 42980 22502 10013 21005 30196 40238 52021 80001
  333 82075=
03680 46/// ///// 10013 20001 30077 40239 53020
  333 553// 20000=
03684 45971 /2703 10018 20001 30122 40232 51022
  333 8//99=
03693 45965 /2905 10034 20010 30230 40233 52020
  333 8//99=
03707 45980 /0807 10026 20004 30217 40225 50004
  333 8//99=
03710 46979 /1403 10023 21006 39797 40229 50005
  333 553// 20000 8//99=
03743 46976 /2002 10017 20003 30072 40238 51015
  333 8//99=
03749 46964 /2302 10013 21001 30125 40239 52014
  333 8//99=
03761 42970 22602 10008 21008 30090 40239 51017 80001
  333 55300 20000 82075=
03768 46971 /1801 11003 21009 30157 40240 53019
  333 8//99=
03769 45967 /2501 10001 21008 30154 40240 53021
  333 55300 20000 8//99=
03770 46/// ///// 10046 20001=
03781 45978 /2603 10025 20003 30030 40243 53023
  333 553// 20000 8//99=
03784 46/// /3205 10047 20016 30230 40234 52022=
03797 45582 /2905 10036 21004 30174 40235 53019
  333 55300 20000 81/26=
03823 45977 /1307 10033 20023 39975 40225 53005
  333 553// 20000 8//99=
03839 46/// ///// 10001 21007
  333 553// 20000=
03857 45976 /0802 10064 20015 30169 40234 51014
  333 8//99=
03862 47961 /0502 10002 21002 30224 40237 51018 720//
  333 55300 20000 8//99=
03866 46/// /3604 10063 20000 30210 40235 52014=
03872 45969 ///// 10015 20002 30232 40237 52018
  333 553// 20000 8//99 91004=
03876 46/// /0402 10019 20009 30236 40238 53019=
03895 42984 01109 10045 20029 40233 52009=
0000125000
307
SREW41 EGRR 111900
03002000 03005OTR 03008002 03017002 03026000 03031000 03034000
03037000 03044006 03047000 03062000 03063000 03066000 03068000
03075000 03080000 03088000 03091000 03100000 03105000 03111000
03132000 03134000 03136000 03144000 03153000 03155000 03158000
03162000 03166000 03171000 03204000 03210000 03212000 03214000
03220000 03224000 03225000 03226000 03230000 03238000 03240000
03257000 03261000 03265000 03266000 03275000 03281000 03292000
03301000 03302000 03305000 03313000 03316000 03318000 03321000
03330000 03344000 03346000 03351000 03354000 03373000 03377000
03379000 03382000 03391000 03392000 03405000 03409000 03410000
03414000 03462000 03469000 03482000 03488000 03502OTR 03503000
03520000 03522000 03529000 03535000 03544000 03560000 03590000
03604000 03605000 03609000 03628000 03647000 03649000 03658000
03660000 03672000 03684000 03693000 03707000 03710000 03716000
03740000 03743000 03746000 03749000 03761000 03768000 03769000
03770000 03772000 03781000 03797000 03803000 03808000 03809000
03823000 03827000 03839000 03840000 03853000 03857000 03862000
03866000 03872000 03876000 03882000 03901000 03904000 03907000
03911999 03915000 03916000 03917000 03923000=
0000166800
308
SASA85 EGRR 111900 RRB
METAR SADF 111900Z 18008G20KT CAVOK 25/06 Q1019=
METAR SAZS 111900Z 29005KT CAVOK 28/04 Q1018=
METAR SBCR 111900Z 02006KT 9999 SCT030 FEW032TCU 35/20 Q1008=
METAR SBCZ 111900Z 01002KT 9999 -RA BKN010 BKN100 26/25 Q1011=
METAR SBGL 111900Z 12011KT 9999 FEW020 36/19 Q1010=
METAR SBGR 111900Z 26003KT 9999 TS SCT045 FEW050CB 24/20 Q1017=
METAR SBPP 111900Z 00000KT 9999 BKN025 FEW030TCU 28/20 Q1013=
METAR SBUG 111900Z 24006KT 9999 BKN020 BKN100 26/19 Q1015=
METAR SBVT 111900Z 07014KT 9999 FEW025 SCT080 32/23 Q1015=
METAR SEGU 111900Z 03004KT 9999 BKN023 OVC100 28/21 Q1009 RMK A2981
      NOSIG=
METAR SMJP 111900Z 20003KT 9999 SCT030 29/23 Q1012 NOSIG=
METAR SPCL 111900Z 01006KT 9999 FEW020 BKN080 29/24 Q1011 RMK BIRD
      HAZARD RWY 02/20 PP000=
METAR SPGM 111900Z /////KT 2000 RA BKN010 OVC070 22/20 Q1016 RMK PP030=
METAR SPHO 111900Z VRB05KT 9999 VCSH SCT040 SCT080 21/14 Q1022 RMK
      PP000=
METAR SPHY 111900Z 01010KT 8000 VCSH SCT012TCU BKN050 15/13 Q1033 RMK
      PP000=
METAR SPJI 111900Z 00000KT 9999 BKN030 31/23 Q1019 RMK PP000=
METAR SPLO 111900Z 12009KT CAVOK 26/21 Q1008 RMK PP000=
METAR SPME 111900Z 35006KT 9999 SCT015 BKN030 28/24 Q1009 RMK BIRD
      HAZARD RWY 32/14 PP000=
METAR SPMS 111900Z /////KT 9999 VCSH SCT020 BKN100 30/23 Q1012 RMK
      BIRD HAZARD 09/27 PP000=
METAR SPQT 111900Z 31009KT 280V350 5000 -RA SCT008 FEW030TCU BKN100
      24/23 Q1010 TEMPO 8000 -DZ RMK PP016=
METAR SPRU 111900Z 16010KT 130V190 9999 FEW013 24/19 Q1010 RMK PP000=
METAR SPTU 111900Z 25006KT 9999 BKN010 30/25 Q1007 RMK BIRD HAZARD
      RWY 01/19 PP000=
0000154700
309
SASA85 EGRR 111900 RRC
METAR SBBV 111900Z 09007KT 9999 SCT025 33/14 Q1010=
METAR SBCF 111900Z 10010KT 9999 SCT045 30/15 Q1017=
METAR SBCT 111900Z 00000KT 9999 SCT045 22/18 Q1017=
METAR SBCY 111900Z 16003KT 9999 -TSRA SCT020 FEW025CB BKN100 23/21
      Q1 013=
METAR SBGO 111900Z 27004KT 9999 TS VCSH FEW030 FEW040CB BKN100 23/18
      Q1015=
METAR SBMQ 111900Z 06006KT 9999 FEW027 FEW030TCU SCT100 31/24 Q1009=
METAR SBRB 111900Z 03003KT 9999 VCSH BKN020 FEW025TCU SCT100 /////
      Q1 010=
METAR SBRJ 111900Z 16006KT 9999 FEW025 34/24 Q1010=
METAR SELT 111900Z 09011KT 9999 BKN030 SCT100 16/10 Q1026=
METAR SEMT 111900Z 27009KT 9999 BKN020 27/22 Q1010=
METAR SKBQ 111900Z 04012KT 9999 FEW020 32/22 A2981=
METAR SPHI 111900Z 18015KT CAVOK 29/21 Q1010 RMK PP000=
METAR SPJL 111900Z 11011G26KT CAVOK 18/01 Q1036 RMK PP000=
METAR SPJR 111900Z 18008KT 9999 SCT020 SCT027 20/12 Q1025 RMK PP000=
METAR SPQU 111900Z 25011KT 200V300 9999 FEW050 21/09 Q1023 RMK NOSIG
      PP000=
METAR SPSO 111900Z /////KT CAVOK 26/21 Q1011 RMK SCT230 BIRD HAZARD
      RWY 22/04 PP000=
METAR SPST 111900Z 32012KT 9999 SCT020 BKN080 30/21 Q1010 RMK BIRD
      HAZARD RWY 17/35 PP000=
METAR SPTN 111900Z 22010KT CAVOK 27/17 Q1008 RMK PP000=
METAR SPYL 111900Z 22011KT CAVOK 30/22 Q1009 RMK PP000=
METAR SPZO 111900Z 02009KT 340V070 9999 FEW040TCU SCT046 SCT080 19/02
      Q1028 NOSIG RMK PP000=
METAR SVBM 111900Z 11010KT 9999 SCT016 30/19 Q1017=
METAR SVSP 111900Z 02018KT 9999 FEW040 XX/XX Q1014=
0000168500
310
SASA85 EGRR 111900 RRD
METAR SAEZ 111900Z 18009KT 9999 FEW040 25/06 Q1020=
METAR SARF 111900Z 14008KT 9999 -RA SCT008 SCT025 BKN050 FEW050CB 21/21
      Q1015 RETS=
METAR SARI 111900Z 27007KT 9999 BKN040 FEW050CB BKN100 29/21 Q1012
      RETS=
METAR SARP 111900Z 16003KT 9999 BKN020 OVC100 24/19 Q1015=
METAR SBJP 111900Z 16007KT 9999 SCT020 SCT070 26/22 Q1012=
METAR SBKP 111900Z 26010KT 9999 FEW045 FEW049TCU 29/17 Q1015=
METAR SBPB 111900Z 07018KT CAVOK 32/24 Q1008=
METAR SBPL 111900Z 11008KT 9999 FEW025 BKN070 32/16 Q1011=
METAR SBRP 111900Z 33006KT 9999 FEW040 FEW045TCU 32/19 Q1013=
METAR SBSV 111900Z 13009KT 9999 SCT017 29/23 Q1013=
METAR SBTE 111900Z 00000KT 9999 FEW040 33/22 Q1007=
METAR SCAR 111900Z 21012KT CAVOK 25/17 Q1009=
METAR SCDA 111900Z 20018KT CAVOK 25/16 Q1009=
METAR SKBG 111900Z 32008KT 9999 FEW020 26/17 A2992=
METAR SKCG 111900Z 01004KT 9999 FEW017 29/22 A2980=
METAR SKCL 111900Z 22006KT 9000 SCT015 BKN090 26/20 A2997 RMK / HZ=
METAR SKLT 111900Z VRB02KT 9999 BKN007 BKN080 26/24 A2988 RERA RMK
      AD OPR IMC=
METAR SKPE 111900Z 29003KT 9999 SCT017 TCU SCT090 26/18 A3003 RMK TCUNE/E=
METAR SKSP 111900Z 08013KT 9999 FEW017 28/24 A2989=
METAR SOCA 111900Z AUTO 05008KT 9999 FEW018 OVC034 27/21 Q1011=
METAR SVCR 111900Z 12015KT 9999 SCT016 33/24 Q1012=
METAR SVJC 111900Z 09021KT 9999 FEW016 32/19 Q1012=
METAR SVMC 111900Z /////KT 9999 FEW020 33/21 Q1012=
METAR SVMD 111900Z 16009KT CAVOK 25/18 Q1020=
METAR SVMI 111900Z 05003KT 9999 SCT016 28/23 Q1014 NOSIG=
METAR SVSA 111900Z /////KT 9999 FEW017 33/18 Q1013=
METAR SYCJ 111900Z 04012KT 9999 SCT023 SCT100 31/21 Q1011 NOSIG=
0000164800
311
SASA85 EGRR 111900 RRE
METAR SABE 111900Z 09015KT CAVOK 24/06 Q1019=
METAR SACO 111900Z 11007KT 9999 FEW030 28/09 Q1022=
METAR SAME 111900Z 36007KT CAVOK 32/05 Q1017=
METAR SASA 111900Z 05002KT 5000-RA FEW005 BKN015 OVC035 19/16 Q1024=
METAR SAVC 111900Z 07015KT CAVOK 21/06 Q1016=
METAR SAWE 111900Z 27020KT 9999 SCT021 17/12 Q1003=
METAR COR SBGO 111900Z 27004KT 9999 TS VCSH FEW030 FEW040CB BKN100
      23 /18 Q1015=
METAR SBLO 111900Z 07006KT 9999 VCSH SCT030 FEW040TCU 31/20 Q1014=
METAR SCBA 111900Z 31020KT CAVOK 23/05 Q1016=
METAR SCCI 111900Z 28023KT 9999 SCT035 BKN140 15/07 Q1005 NOSIG=
METAR COR SCEL 111900Z 21014KT CAVOK 34/03 Q1010 NOSIG=
METAR SCFA 111900Z 19014KT 9999 FEW027 23/17 Q1010 NOSIG=
METAR SCIE 111900Z 24011KT CAVOK 27/13 Q1010=
METAR SCSE 111900Z 28011KT 9999 FEW017 19/13 Q1013=
METAR SCTE 111900Z 14013KT CAVOK 19/08 Q1018 NOSIG=
METAR SLCB 111900Z 19008KT 9999 FEW027 FEW030CB SCT200 28/09 Q1021=
METAR SLCO 111900Z 00000KT 9999 FEW006 FEW023CB BKN080 BKN200 29/25
      Q1010=
METAR SLET 111900Z 33015G25KT 9999 BKN020 32/23 Q1008=
METAR SLLP 111900Z 10014KT 060V140 9999 SCT017 FEW020CB SCT200 17/00
      Q1036=
METAR SLPS 111900Z 00000KT 9999 BKN020 33/24 Q1007=
METAR SLSU 111900Z 02008KT 9999 SCT023 22/10 Q1028=
METAR SLTR 111900Z 34008KT 9999 SCT017 32/24 Q1010=
METAR SLVR 111900Z 34018KT 9999 BKN025 33/23 Q1010=
METAR SUAA 111900Z 18013G23KT 9999 FEW040 19/08 Q1019=
METAR SUCA 111900Z XXXXXKT 9999 FEW020 21/08 Q1017=
METAR SULS 111900Z 17019KT 9999 SCT030 20/11 Q1017=
METAR SUSO 111900Z 16014KT 9999 FEW027 BKN200 29/12 Q1015=
0000056900
312
SNVF21 ENMI 111900
BBXX
LDGJ 11191 99603 10053 43/// /1404 10018 21024 40017 5//// 222/0
      04078 1//// 3//// 4//// 5////=
LF4H 11194 99596 10022 46/98 12932 10068 21023 40034 52012 8////
      91902 22200 06076 10606 70032=
LGWS 11191 99229 30145 43/// /2203 10178 20156 40138 5//// 222/0
      04162 1//// 3//// 4//// 5////=
LJIT 11191 99589 10057 43/// /3001 10026 20003 40047 5//// 222/0
      04065 1//// 3//// 4//// 5////=
LMEL 11191 99603 10053 43/// /1304 10016 21019 40016 5//// 222/0
      04078 1//// 3//// 4//// 5////=
0000037500
313
SMCY01 LCLK 111800
AAXX 11184
17600 12565 70205 10144 20100 30225 40235 52006 60002 878//
  333 10189 20112 6///7 84823 84640=
17601 12681 53006 10146 20094 30200 40232 52009 60002 82501
  333 10186 55300 ///// 6///7 82645 85072=
17607 4//// ///// 48///=
17609 12980 13600 10119 20072 30230 40234 51015 60002 80002
  333 10191 20103 6///7 81075=
0000011100
314
UANT99 KDDL 111909
ARP UAL925 5355N03141W 1909 F370 MS55 185/23 KT
N228UA DDL XXN 111909 F04A
0000046400
315
UAPA01 KWBC 111909
ARP HAL23 2842N 13926W 1857 F360 MS47 261/064KT TB SMTH=
ARP PAL100 33N 180W 1900 F390 MS50 275/125KT=
ARP ASA847 2425N 14459W 1859 F340 MS47 240/076KT TB SMTH=
ARP ASA843 4530N 12643W 1856 F340 MS47 261/068KT=
ARP UAL333 3106N 13208W 1901 F340 MS48 275/045KT=
ARP UAL1231 2755N 13851W 1900 F350 MS44 266/057KT=
ARP ASA875 43N 138W 1857 F350 MS60 322/101KT=
ARP ASA849 2600N 14610W 1903 F380 MS49 239/087KT TB SMTH=
0000011100
316
UANT01 CWAO 111909
ARP UAE204 5238N05527W 1908 F350 MS60 293/144 KT
A6EDY QXS YAY 111909 J12A
0000011000
317
UANT01 CWAO 111909
ARP AZA650 4901N03023W 1909 F380 MS50 250/32 KT
EIEJG QXT AOE 111909 J16A
0000011000
318
UANT01 CWAO 111909
ARP DLH414 4958N03028W 1909 F360 MS49 259/23 KT
DAIHO QXT EUA 111909 J86A
0000014500
319
SSVX13 LFPW 111900
ZZYY 25622 11014 1900/ 186891 002287 6113/ 11119 40006 52011 444
 20130 11014 1800/ 50101 80130 80002 9/015=
00000000