0000064800
320
SNBX43 EBUM 111900
AAXX 11191
06418 46/// /3105 10069 20027 30214 40226 51022 333   91108 91205=
06434 46/// /2302 10040 20014 30214 40235 51023 333   91103 91202=
06439 46/// /2202 10040 20009 30219 40233 51027 333   91103 91202=
06447 46/// /2502 10035 20015 30104 40232 51025 333   91104 91202=
06455 46/// /3101 10028 20015 39939 40231 51027 333   91102 91202=
06464 46/// /2602 10021 20021 30191 40219 51030 333   91103 91202=
06472 46/// ///// 10032 20031 39874 40242 51025=
06477 46/// /2202 10024 20006 30176 40227 51029 333   91102 91202=
06484 46/// /3201 10028 20028 39839 40241 51027 333   91102 91202=
0000010800
321
UANT01 CWAO 111909
ARP ANZ1 6053N03545W 1909 F340 MS60 200/51 KT
ZKOKQ QXT EUA 111909 F45A
0000009500
322
SAIN90 VOHS 111910
METAR VOHS 111910Z 11005KT 5000 HZ SCT020 18/14 Q1017 NOSIG=
0000020300
323
SAIN34 VOMM 111900
METAR VOBL 111900Z 11004KT 6000 NSC 21/18 Q1019 NOSIG=
METAR VOCI 111900Z 00000KT 4000 HZ NSC 23/21 Q1013 NOSIG=
METAR VOMD 111900Z 05004KT 4000 HZ NSC 24/19 Q1015=
0000009200
324
SPIN90 VOTR 111910
SPECI VOTR 111910Z VRB02KT 3000 HZ NSC 22/20 Q1015 NOSIG=
0000009200
325
SAIN90 VOMM 111910
METAR VOMM 111910Z 00000KT 6000 SCT020 22/19 Q1014 NOSIG=
0000011000
326
UANT01 CWAO 111909
ARP AZA61R 5100N03029W 1909 F380 MS50 248/25 KT
EIEJJ QXT AOE 111909 J32A
0000025200
327
SNBX42 EBUM 111900
AAXX 11191
06414 46/// /2402 10041 20012 30195 40228 51021 333   91104 91203=
06459 46/// /3103 10024 20024 30045 40244 52027 333   91104 91203=
06494 46/// /3105 10012 20007 39415 40232 51028 333   91109 91206=
0000050600
328
SNSP20 LEMM 111900
AAXX 11194
08045 46/// /0000 10093 20088 39872 40183 53009
  555 60005=
08181 45/62 /0508 10131 20123 30205 40212 53013
  555 60005=
08221 42860 71201 10075 20050 39518 40209 53014 81038
  555 60005=
08284 46/// /0000 10106 20084 30134 40210 5////
  555 60005=
08306 46/// /1602 10147 20129 30184 40190 53005
  555 60005=
08314 46/// /0803 10142 2//// 3//// 4//// 5////
  555 60005=
08482 46/// /2802 10133 20114 30200 40208 53020
  555 60005=
0000011800
329
SNVF25 LFPW 111900
BBXX
BATUK01 11194 99577 70062 43/// /2502 10057 20009 40157 52014
22231 04094=
0000065700
330
SMVD01 PANC 111800 RRH
BBXX
OXES2 11184 99396 70581
41698 62808 10155 20139 40280 57010 7//22 86/5/
22265 00170 20502 332// 40704 5//// 6//// 80145 ICE /////=
3FJM9 11183 99220 71097
41/98 23607 1024/ 4019/ 7//00
22233=
C6FT7 11184 99255 70843
41898 21815 10286 2//// 40165 5//// 70200 82100
22214 0//// 20201 318// 40402 5//// 6//// 8//// ICE /////=
WHKM 11184 99373 31052
41396 83321 10170 20170 40110 57030 72052 887//
22233 0//// 2//// 3//// 4//// 5//// 6//// 80170 ICE /////=
S6AJ8 11183 99298 11246
41/// /0422 10120 2008/ 40250 54000 7//55 8////
22213 00250 20406 30404 40305 50305 6/00/ 80100 ICE /////=
0000109400
331
SSVX02 KARS 111906
ZZYY 52607 11014 1900/ 121645 119718 6111/
22219 00257
444 20110 11014 1719/ 50101 80098 80024 9/015=
ZZYY 52917 11014 1902/ 123211 122092 6111/
22219 00232
444 20110 11014 1718/ 50101 80088 80016 9/015=
ZZYY 53567 11014 1902/ 120218 115576 6112/
22219 00240
444 20120 11014 1721/ 50101 80032 80027 9/015=
ZZYY 53905 11014 1859/ 123195 122561 6112/
22219 00236
444 20120 11014 1720/ 50101 9/015=
ZZYY 53519 11014 1903/ 117348 113020 6112/
22219 00245
444 20120 11014 1412/ 50101 80042 80027 9/015=
ZZYY 52843 11014 1901/ 125890 129044 6112/
22219 00217
444 20120 11014 1719/ 50101 80048 80029 9/015=
ZZYY 52674 11014 1859/ 119569 125814 6112/
22219 00248
444 20120 11014 1720/ 50101 80094 9/015=
ZZYY 52668 11014 1903/ 125173 126725 6111/
22219 00224
444 20110 11014 1859/ 50101 80098 80039 9/015=
ZZYY 22530 11014 1903/ 121859 122622 6111/
22219 00245
444 20110 11014 1859/ 50101 80068 80015 9/015=
ZZYY 52833 11014 1900/ 121533 120875 6112/
22219 00255
444 20120 11014 1721/ 50101 80101 80022 9/015=
0000031200
332
UEPF04 NTAA 111800
TTDD 6117/ 91958 11778 791// 22493 629// 33367 617// 44238 491//
55147 479// 21212 11956 12543 22896 09529 33837 13514 44789 15524
55759 13535 66731 11530 77534 11527 88450 06023 99421 08525 11362
08519 22294 09544 33210 08021 44191 11521 55147 09541 31313 47708
81727=
0000012000
333
SMOM10 OOMS 111800 RRD
AAXX 11184
41259 36/// /2716 10055 21263 37134 40014
333 0E/// 10106 59003  =
0000012000
334
SMOM66 OOMS 111800 RRD
AAXX 11184
41259 36/// /2716 10055 21263 37134 40014
333 0E/// 10106 59003  =
0000009800
335
SAIR77 OIII 111900 RRA
METAR OIMN 111900Z 00000KT 9999 FEW040 BKN160 02/M08 Q1016=
0000009800
336
SAIR78 OIII 111900 RRA
METAR OIMN 111900Z 00000KT 9999 FEW040 BKN160 02/M08 Q1016=
0000449100
337
SNPL40 SOWR 111900
AAXX 11191
12100 41/// /2405 10048 20030 30040 40041 57017 7////
  =
12105 41467 82206 10049 20034 30002 40044 56020 76166 885//
  333 88614 91111
  555 57011=
12115 41462 82306 10051 20042 30019 40033 57020 76166 885//
  555 57006=
12120 41460 82410 10051 20039 30027 40031 56025 78082 883//
  555 57005=
12125 46/// /2206 10056 20031 39986 40036 57025 =
12135 42468 72405 10055 20040 30033 40036 57026 875//
  333 91010 91110
  555 57010=
12160 41458 72108 10035 20035 39825 40052 58024 78082 873//
  333 91013 91113
  555 57001=
12185 42563 72305 10041 20023 39927 40062 57019 875//
  555 57011=
12195 42661 62405 10030 20020 39841 40070 58014 865//
  555 57006=
12200 41462 72404 10047 20046 30042 40049 56014 72522 873//
  333 91010 91110
  555 57003=
12205 41464 72207 10048 20038 30057 40065 56012 78088 873//
  333 91013 91113
  555 57012=
12210 46/// /2305 10041 20026 39987 40051 57015=
12215 41/// /2304 10043 20015 39886 40057 57024 7////
  =
12230 42970 32203 10040 20009 39982 40073 57020 83030
  555 57016=
12235 42968 62108 10035 20020 39845 40056 57026 8603/
  555 57007=
12250 42963 22104 10042 20014 39989 40078 58026 82030
  333 91109
  555 57017=
12270 42762 72305 10044 20026 39904 40087 57019 875//
  555 57008=
12272 41460 82103 10040 20031 39899 40066 57022 72522 885//
  333 88613 91008 91109
  555 57008=
12280 42463 72204 10040 20023 39916 40073 57019 875//
  555 57009=
12285 41/// /9904 10047 20021 39973 40089 57019 700//=
12295 42564 82303 10040 20019 39906 40091 57016 885//
  555 57011=
12300 41470 82704 10046 20031 39995 40085 57015 76162 885//
  333 91109
  555 57015=
12310 41568 82306 10051 20036 30028 40095 56010 78082 879//
  555 57022=
12330 42965 52205 10035 20004 39984 40093 57021 85050
  555 57015=
12345 42960 02007 10042 20005 39956 40101 58019
  555 57017=
12360 42970 12307 10043 20008 39959 40093 58019 81030
  555 57019=
12375 42670 62103 10050 20004 39975 40106 57019 85530
  555 57026=
12385 42966 72104 10039 20011 39920 40111 57016 8707/
  555 57011=
12399 41558 62103 10035 20009 39946 40116 57014 71022 82530
  555 57018=
12400 42784 72304 10042 20007 39867 40104 57017 8555/
  555 57011=
12415 42684 72504 10055 20003 39962 40115 58019 8253/
  555 57027=
12418 42870 72203 10041 20006 39993 40108 57017 8355/
  555 57019=
12424 42982 72205 10062 20011 39968 40121 58018 8707/
  555 57026=
12435 42962 12106 10036 20001 39938 40111 57019 80001
  555 57016=
12455 42965 12304 10040 21006 39880 40128 56016 81030
  555 57027=
12465 42961 02205 10030 20002 39894 40118 58016
  555 57017=
12469 42962 42105 10031 20003 39889 40123 57017 84030
  555 57014=
12488 42664 72103 10037 21003 39966 40122 57018 8553/
  555 57019=
12495 42961 62204 10021 21005 39840 40137 56014 86050
  555 57009=
12497 42965 72104 10021 20002 39908 40131 57011 8705/
  555 57013=
12500 42983 72504 10054 21002 39709 40127 57016 8707/
  555 57031=
12510 41/90 92815 11042 21042 38284 48410 58010 74943
  555 57000 70148 80039=
12520 41582 82208 10045 20004 39707 40143 57016 76022 8357/
  333 83632
  555 57028=
12530 42860 81902 10050 20011 39934 40136 58017 8357/
  555 57021=
12540 42671 82105 10051 20008 39901 40156 56012 8657/
  555 57021=
12550 46/67 /2204 10048 21004 39777 40137 57014=
12560 42965 82205 10049 21001 39807 40150 57012 8807/
  555 57029=
12566 42960 72001 10025 21009 39854 40153 58011 8707/
  555 57020=
12570 41958 82203 10031 20002 39819 40141 58014 71022 8807/
  555 57010=
12575 42960 81902 10039 21015 39897 40155 58011 80007
  555 57025=
12580 42970 62204 10013 21008 39899 40164 57007 83032
  555 57009=
12585 41959 82003 10022 21007 39874 40146 56011 71022 8807/
  555 57011=
12595 46/70 /2105 10019 21015 39870 40149 57011 =
12600 42680 72206 10051 21016 39664 40149 58015 8357/
  555 57034=
12625 41940 70101 11007 21041 39151 42772 57008 71022 83058
  555 57015=
12650 41984 72511 11047 21157 37940 48451 58007 73833 83058
  333 91018 91118
  555 57028 70082 80037=
12660 42598 70000 10027 21026 39800 40166 57012 8157/
  555 57025=
12670 41458 72006 10000 21011 39765 40178 57008 71022 8257/
  333 91111
  555 57004=
12690 42981 71903 10016 21025 39655 40175 57010 81038
  555 57020=
12695 41/// /9903 10022 21026 39821 40167 57011 700//=
0000039000
338
USUS50 KWBC 111800 RRB
TTAA 61181 74646 99979 09661 29519 00138 ///// ///// 92780 05460
33028 85467 01860 31534 70002 09761 32047 50555 17573 32597 40718
29768 34098 30916 46567 35097 25035 54963 32101 20178 55378 31574
15361 54782 28562 10617 62780 26049 88233 58165 32112 88192 56579
30070 77234 32113 43539 31313 48008 81731 51515 10164 00091 10194
32527 31540=
0000042000
339
UKUS50 KWBC 111800 RRB
TTBB 61188 74646 00979 09661 11968 07461 22938 05660 33934 05860
44910 05660 55755 04563 66669 12759 77648 14756 88624 14924 99607
16157 11599 14381 22594 13190 33574 13781 44525 19368 55513 18765
66506 17374 77483 18178 88413 28166 99323 42765 11291 48167 22243
56561 33233 58165 44225 50782 55192 56579 66186 56981 77143 53983
88108 58781 99100 62780 31313 48008 81731=
00000000