0000023100
460
WSPR31 SPIM 111909
SPIM SIGMET 7 VALID 111910/112210 SPIM-
SPIM LIMA FIR EMBD TS FCST E OF LINE S0903 W07313 -
S0854 W07335 - S0919 W07411 - S1021 W07309 -
S1028 W07224 - S0952 W07228
TOP FL450 MOV SE INTSF=
0000030500
461
WSBZ24 SBCW 111910
SBCW SIGMET 9 VALID 111925/112225 SBCW - SBCW
CURITIBA FIR EMBD TS FC
ST
 WI S2725 W05427- S2652 W05341 - S2536 W05342- S2536 W05429 - S2405
W
05418
 - S2330 W04656 - S2304 W04600 - S2404 W04603 - S3000 W05000 -
S2725
W05427
 TOP FL420 MOV ENE 08KT NC=
0000030100
462
WTPQ20 RJTD 111800
RSMC TROPICAL CYCLONE ADVISORY
NAME  TD 
ANALYSIS
PSTN  111800UTC 05.2N 127.2E POOR
MOVE  WNW SLOWLY
PRES  1004HPA
MXWD  030KT
GUST  045KT
FORECAST
24HF  121800UTC 07.1N 125.1E 120NM 70%
MOVE  NW 07KT
PRES  1000HPA
MXWD  035KT
GUST  050KT =
0000003800
463
WTPQ20 BABJ 111800
NIL
0000011100
464
UANT01 CWAO 111913
ARP NAX7031 5531N04729W 1913 F340 MS56 289/74 KT
EILNA QXT AOW 111913 L33A
0000070300
465
SNBX40 EBBR 111900
AAXX 11191
06407 42575 13006 10066 20020 30224 40230 51021 81501
333 81625 91109 91207=
06428 45/67 /2302 10035 20021 30189 40234 51020
 333 91103 91202=
06447 NIL=
06451 42981 02503 10044 20016 30161 40229 51024
333 91104 91203=
06456 42970 19902 10020 20011 39888 40243 51025 80001
 333 81075 91103 91202=
06476 47250 83003 10025 20020 39561 40238 52024 71011
333 87/03 88/04 91106 91204=
06479 42672 32303 10030 20019 30150 40225 51027 83500
 333 83633 91104 91203=
06490 47030 72902 10024 2//// 39652 4//// 51029 71011
333 81/01 84/02 86/03 91106 91203=
06590 42465 43401 10045 20032 39774 40234 52033 82501
333 82615 91108 91202=
0000064500
466
SNBX41 EBBR 111900
AAXX 11191
06400 42580 12904 10064 20013 30227 40235 53022 81800
 333 81822 91106 91204=
06431 NIL=
06432 45/67 /2402 10025 20010 30164 40237 51022
 333 91104 91203=
06449 42966 02701 10035 20018 30005 40239 52025
333 91103 91202=
06450 42970 02603 10053 20018 30210 40227 51026
333 91105 91204=
06458 45/71 /2203 10032 20015 30092 40235 51025
 333 91104 91203=
06465 45/77 /2402 10045 20012 30164 40229 51027
 333 91105 91203=
06478 42959 02602 10019 20011 30008 40235 51030
333 91103 91202=
06496 45364 /3103 10017 20007 39547 40235 51029
 333 81/08 83/12 85/18 91108 91205=
0000151800
467
SSVX02 KARS 111910 RRA
ZZYY 53521 11014 1600/ 102969 104519 6113/
22219 00272
444 2013/ 11014 1408/ 50101 80090 80016 9/015=
ZZYY 22676 11014 1700/ 100243 108040 6113/
444 2013/ 11014 1357/ 50101 80089 80016 9/015=
ZZYY 55569 11014 1900/ 357741 164949 6113/
11119 49760
22219 00048
444 50101 80118 80009 9/015=
ZZYY 55598 11014 1900/ 356399 162533 6113/
11119 49789
22219 00052
444 50101 80116 80012 9/015=
ZZYY 22937 11014 1901/ 113788 109218 6113/
22219 00223
444 50101 80116 80026 9/015=
ZZYY 33560 11014 1905/ 549967 047366 6110/
22219 00060
444 2020/ 549967 047366 50101 80110 80027 9/015=
ZZYY 33570 11014 1903/ 552150 045101 6113/
22219 00059
444 50101 80110 80023 9/015=
ZZYY 33566 11014 1905/ 551849 047875 6110/
22219 00047
444 2020/ 551849 047875 50101 80110 80040 9/015=
ZZYY 33576 11014 1904/ 553081 051365 6113/
22219 00054
444 50101 80110 80032 9/015=
ZZYY 55595 11014 1900/ 357923 163989 6113/
11119 49745
22219 00043
444 50101 80118 80016 9/015=
ZZYY 22925 11014 1905/ 118027 112321 6110/
22219 00235
444 20100 11014 1906/ 50101 80112 80042 9/015=
ZZYY 33960 11014 1740/ 339247 072862 6112/
11119 30235 40235 52002
22219 00154
444 20120 11014 1717/ 50101 80110 80000 9/015=
ZZYY 34534 11014 1830/ 354935 014079 6112/
22219 00010
444 20120 11014 1807/ 50101 80007 80006 9////=
ZZYY 74547 11014 1900/ 359540 080292 6113/
11119 49853 52019
22219 00012
444 2013/ 11014 1858/ 50101 80111 80062 9/015=
0001494200
468
SSVX02 KARS 111910
ZZYY 21523 11014 1605/ 736145 176624 6113/
11119 40076 57021
22219 00151
444 20130 11014 1601/ 504// 80090 80006=
ZZYY 31532 11014 1800/ 529327 047262 6111/
11119 30128 40128 57009
22219 00268
444 20110 11014 1810/ 50101 80153 80004 9/015=
ZZYY 56909 11014 1740/ 347615 000976 6113/
22219 00065
444 20130 11014 1809/ 50101 80080 80036 9/015=
ZZYY 21546 11014 1530/ 145656 160334 6111/
11119 39959 49959 57011
22219 00052
444 20110 10014 0920/ 50101 80100 80051 9/015=
ZZYY 71579 11014 1420/ 552148 048183 6111/
11119 39901 49901 52027
22219 00037
444 20110 11014 0017/ 50101 80110 80029 9/015=
ZZYY 17676 11014 1720/ 349119 008648 6111/
11119 39991 49991 52031
22219 00047
444 20110 11014 1647/ 50101 80110 80030 9/015=
ZZYY 33549 11014 1600/ 537698 027624 6113/
11119 30203 40203 57007
22219 00185
444 20130 11014 1625/ 50101 80145 80012 9/015=
ZZYY 31533 11014 1730/ 521619 035759 6111/
11119 30189 40189 57006
22219 00268
444 20110 11014 1448/ 50101 80145 80007 9/015=
ZZYY 31533 11014 1830/ 521619 035759 6111/
11119 30185 40185 57011
22219 00268
444 20110 11014 1448/ 50101 80145 80006 9/015=
ZZYY 15501 11014 1700/ 533582 012328 6112/
11119 30233 40233 57002
444 20120 11014 1646/ 50101 80090 80000 9/015=
ZZYY 15501 11014 1800/ 533567 012331 6113/
11119 30235 40235 57001
444 20130 11014 1815/ 50101 80090 80000 9/015=
ZZYY 17514 11014 1821/ 528973 012293 6113/
22219 00257
444 20130 11014 1816/ 50101 80110 80000 9/015=
ZZYY 17523 11014 1823/ 529298 018442 6113/
22219 00261
444 20130 11014 1817/ 50101 80112 80000 9/015=
ZZYY 33667 11014 1819/ 526553 014421 6112/
22219 00248
444 20120 11014 1816/ 50101 80112 80000 9/015=
ZZYY 13531 11014 1834/ 726784 037443 6113/
22219 00230
444 20130 11014 1836/ 50101 80102 80027 9/015=
ZZYY 13517 11014 1836/ 708896 038306 6112/
22219 00260
444 50101 80128 80002 9/015=
ZZYY 15669 11014 1833/ 700734 028339 6112/
22219 00273
444 50101 80086 80003 9/015=
ZZYY 15670 11014 1828/ 519340 025614 6111/
22219 00257
444 20110 11014 1819/ 50101 80094 80010 9/015=
ZZYY 52667 11014 1732/ 133037 141100 6111/
22219 00198
444 20110 11014 1727/ 50101 80096 80022 9/015=
ZZYY 52669 11014 1733/ 130080 144311 6112/
22219 00195
444 50101 80098 80017 9/015=
ZZYY 52616 11014 1727/ 738653 175456 6111/
22219 00122
444 20110 11014 1735/ 50101 80096 80005 9/015=
ZZYY 52617 11014 1727/ 137732 159173 6113/
22219 00153
444 20130 11014 1737/ 50101 80088 80015 9/015=
ZZYY 31511 11014 1800/ 703460 024095 6112/
22219 00272
444 20120 11014 1635/ 50101 80115 80009 9/015=
ZZYY 31512 11014 1800/ 703590 024152 6112/
22219 00273
444 20120 11014 1824/ 50101 80121 80007 9/015=
ZZYY 31509 11014 1700/ 703637 024347 6113/
22219 00275
444 20130 11014 1832/ 50101 80121 80007 9/015=
ZZYY 31509 11014 1800/ 703637 024347 6113/
22219 00274
444 20130 11014 1832/ 50101 80121 80007 9/015=
ZZYY 52602 11014 1737/ 110762 134901 6111/
444 50101 80092 80009 9/015=
ZZYY 31510 11014 1800/ 703634 024375 6112/
22219 00275
444 20120 11014 1826/ 50101 80121 80007 9/015=
ZZYY 52664 11014 1728/ 125662 161771 6112/
22219 00224
444 20120 11014 1734/ 50101 80070 80012 9/015=
ZZYY 41559 11014 1834/ 723825 036918 6112/
22219 00238
444 20120 11014 1836/ 50101 80108 80019 9/015=
ZZYY 15914 11014 1830/ 706240 035338 6112/
22219 00273
444 20120 11014 1833/ 50101 80100 80007 9/015=
ZZYY 15623 11014 1826/ 523798 030098 6112/
22219 00267
444 20120 11014 1819/ 50101 80100 80003 9/015=
ZZYY 15937 11014 1825/ 527080 023939 6113/
22219 00270
444 20130 11014 1818/ 50101 80096 80005 9/015=
ZZYY 15617 11014 1829/ 511872 032262 6112/
22219 00273
444 20120 11014 1822/ 50101 80086 80005 9/015=
ZZYY 15616 11014 1827/ 517176 025822 6112/
22219 00256
444 20120 11014 1820/ 50101 80096 80048 9/015=
ZZYY 15638 11014 1824/ 524626 028116 6113/
22219 00269
444 20130 11014 1818/ 50101 80100 80003 9/015=
ZZYY 15632 11014 1826/ 525505 035789 6111/
22219 00266
444 20110 11014 1818/ 50101 80094 80007 9/015=
ZZYY 15508 11014 1829/ 513973 034806 6111/
22219 00276
444 20110 11014 1821/ 50101 80094 80006 9/015=
ZZYY 15631 11014 1828/ 513804 031474 6112/
22219 00271
444 20120 11014 1821/ 50101 80094 80013 9/015=
ZZYY 15630 11014 1823/ 511321 031497 6112/
22219 00272
444 50101 80102 80011 9/015=
ZZYY 13654 11014 1832/ 715856 031685 6111/
22219 00249
444 20110 11014 1834/ 50101 80100 80011 9/015=
ZZYY 15629 11014 1826/ 522152 029538 6112/
22219 00266
444 20120 11014 1819/ 50101 80100 80003 9/015=
ZZYY 15916 11014 1827/ 507215 014952 6111/
22219 00258
444 20110 11014 1822/ 50101 80100 80058 9/015=
ZZYY 51535 11014 1734/ 124840 133638 6112/
22219 00232
444 50101 80093 80009 9/015=
ZZYY 15624 11014 1828/ 514068 038346 6112/
22219 00282
444 20120 11014 1822/ 50101 80068 80008 9/015=
ZZYY 15622 11014 1827/ 520941 027129 6112/
22219 00262
444 20120 11014 1821/ 50101 80098 80008 9/015=
ZZYY 44552 11014 1800/ 732448 051471 6111/
22219 00214
444 20110 11014 1839/ 50101 80120 80009 9/015=
ZZYY 15666 11014 1826/ 519830 037265 6112/
22219 00275
444 20120 11014 1819/ 50101 80092 80018 9/015=
ZZYY 31507 11014 1800/ 703973 019634 6111/
22219 00251
444 20110 11014 1501/ 50101 80120 80009 9/015=
ZZYY 15902 11014 1826/ 521879 032515 6111/
22219 00268
444 20110 11014 1818/ 50101 80100 80011 9/015=
ZZYY 31508 11014 1700/ 705209 026171 6111/
22219 00275
444 20110 11014 1458/ 50101 80121 80004 9/015=
ZZYY 31508 11014 1800/ 705209 026171 6111/
22219 00274
444 20110 11014 1458/ 50101 80121 80004 9/015=
ZZYY 31500 11014 1800/ 704034 028297 6112/
22219 00274
444 20120 11014 1832/ 50101 80120 80010 9/015=
ZZYY 15661 11014 1824/ 522933 035610 6112/
22219 00276
444 20120 11014 1819/ 50101 80096 80018 9/015=
ZZYY 13599 11014 1800/ 709116 024440 6112/
22219 00262
444 20120 11014 1500/ 50101 80120 80025 9/015=
ZZYY 51618 11014 1725/ 729482 168199 6113/
22219 00213
444 20130 11014 1732/ 50101 80076 80005 9/015=
ZZYY 31549 11014 1700/ 519969 035128 6112/
444 20120 11014 1631/ 50101 80121 80007 9/015=
ZZYY 31549 11014 1800/ 519969 035128 6112/
444 20120 11014 1631/ 50101 80121 80007 9/015=
ZZYY 31550 11014 1700/ 518865 034204 6112/
22219 00271
444 20120 11014 1630/ 50101 80120 80008 9/015=
ZZYY 31550 11014 1800/ 518865 034204 6112/
22219 00271
444 20120 11014 1630/ 50101 80120 80008 9/015=
ZZYY 31506 11014 1700/ 704576 027147 6112/
22219 00275
444 20120 11014 1636/ 50101 80121 80009 9/015=
ZZYY 31506 11014 1800/ 704575 027136 6111/
22219 00275
444 20110 11014 1826/ 50101 80121 80008 9/015=
ZZYY 31706 11014 1832/ 716048 037071 6112/
22219 00245
444 20120 11014 1834/ 50101 80106 80043 9/015=
ZZYY 17677 11014 1730/ 517557 014270 6112/
11119 30168 40168 57008
22219 00240
444 20120 11014 1650/ 50101 80090 80000 9/015=
ZZYY 31547 11014 1826/ 518343 036486 6111/
22219 00275
444 20110 11014 1632/ 50101 80115 80014 9/015=
ZZYY 31908 11014 1800/ 704283 017309 6111/
22219 00278
444 20110 11014 1826/ 50101 80118 80006 9/015=
ZZYY 33663 11014 1810/ 546839 025409 6111/
11119 30056 40056 57029
22219 00088
444 50101 80090 80008 9/015=
ZZYY 71575 11014 1700/ 556384 006804 6112/
11119 40075
22219 00005
444 2012/ 11014 1647/ 50101 80104 80022 9/015=
ZZYY 71575 11014 1800/ 556377 006784 6113/
11119 40075
22219 00005
444 2013/ 11014 1809/ 50101 80104 80026 9/015=
ZZYY 31912 11014 1800/ 704252 014592 6111/
22219 00284
444 20110 11014 1656/ 50101 80118 80006 9/015=
ZZYY 41692 11014 1830/ 725427 035016 6113/
22219 00233
33311 88872 20000 32328 43748
444 50101 80004 80102 9/015=
ZZYY 41692 11014 1800/ 725427 035013 6113/
22219 00233
33311 88872 20000 32333 43749
444 50101 80004 80102 9/015=
ZZYY 41570 11014 1700/ 730832 048838 6111/
22219 00222
444 20110 11014 1657/ 50101 80119 80009 9/015=
ZZYY 41575 11014 1700/ 730419 046486 6113/
22219 00219
444 20130 11014 1648/ 50101 80119 80010 9/015=
ZZYY 41700 11014 1801/ 729517 042825 6113/
22219 00226
33311 88872 20000 32256 43724
444 50101 80017 80104 9/015=
ZZYY 41700 11014 1731/ 729518 042825 6113/
22219 00226
33311 88872 20000 32258 43724
444 50101 80018 80104 9/015=
ZZYY 33518 11014 1800/ 553521 021831 6111/
11119 49964
22219 00030
444 2011/ 11014 1810/ 50101 80106 80019 9/015=
ZZYY 33535 11014 1800/ 548758 031922 6113/
11119 49960
22219 00072
444 2013/ 11014 1812/ 50101 80108 80018 9/015=
ZZYY 41717 11014 1700/ 726995 044214 6113/
22219 00231
33311 88872 20000 32308 43730
444 50101 80019 80106 9/015=
ZZYY 71576 11014 1800/ 555134 039129 6112/
11119 49890
444 2012/ 11014 1805/ 50101 80102 80021 9/015=
ZZYY 41703 11014 1830/ 725076 041509 6113/
22219 00233
33311 88872 20000 32330 43738
444 50101 80013 80102 9/015=
ZZYY 41703 11014 1800/ 725075 041509 6113/
22219 00233
33311 88872 20000 32331 43739
444 50101 80011 80102 9/015=
ZZYY 21936 11014 1700/ 131809 151547 6112/
22219 00193
444 2012/ 11014 1720/ 50101 80088 80024 9/015=
ZZYY 33970 11014 1820/ 536021 029952 6112/
22219 00204
444 20120 11014 1626/ 50101 80074 80017 9/015=
ZZYY 41920 11014 1600/ 723009 050124 6111/
22219 00251
444 2011/ 11014 1647/ 50101 80090 80024 9/015=
ZZYY 41679 11014 1730/ 723860 041263 6113/
22219 00240
33311 88872 20000 32395 43745
444 50101 80006 80104 9/015=
ZZYY 41679 11014 1701/ 723859 041263 6113/
22219 00239
33311 88872 20000 32394 43745
444 50101 80006 80104 9/015=
ZZYY 52676 11014 1733/ 118959 159261 6112/
22219 00272
444 20120 11014 1729/ 50101 80098 80018 9/015=
ZZYY 52817 11014 1729/ 134770 173983 6112/
22219 00178
444 20120 11014 1725/ 50101 80104 80016 9/015=
ZZYY 52828 11014 1733/ 122094 138141 6111/
444 20110 11014 1231/ 50101 80104 80021 9/015=
ZZYY 52804 11014 1726/ 130518 173206 6113/
22219 00188
444 20130 11014 1544/ 50101 80103 80016 9/015=
ZZYY 53904 11014 1733/ 128762 158008 6112/
22219 00213
444 20120 11014 1728/ 50101 80050 80018 9/015=
ZZYY 17668 11014 1700/ 342148 006092 6112/
11119 40209 52057
22219 00115
444 20120 11014 1012/ 50101 80114 80029 9/015=
ZZYY 33590 11014 1800/ 552075 030318 6111/
11119 49908 57008
22219 00026
444 20110 11014 1814/ 50101 80116 80006 9/015=
ZZYY 17667 11014 1700/ 548836 001271 6113/
11119 40152 52029
22219 00055
444 20130 11014 1641/ 50101 80113 80011 9/015=
ZZYY 17667 11014 1800/ 548847 001258 6112/
11119 40172 52026
22219 00055
444 20120 11014 1810/ 50101 80113 80011 9/015=
ZZYY 52836 11014 1731/ 128207 175213 6111/
22219 00211
444 20110 11014 1733/ 50101 80099 80021 9/015=
ZZYY 51940 11014 1731/ 133121 171160 6112/
22219 00180
444 20120 11014 1735/ 50101 80105 80022 9/015=
ZZYY 17652 11014 1700/ 344940 011161 6112/
11119 40112 52042
22219 00081
444 20120 11014 1300/ 50101 80104 80011 9/015=
ZZYY 41689 11014 1630/ 722486 041691 6113/
22219 00244
33311 88872 20000 32441 43742
444 50101 80016 80102 9/015=
ZZYY 41689 11014 1600/ 722486 041691 6113/
22219 00244
33311 88872 20000 32442 43743
444 50101 80016 80102 9/015=
ZZYY 41690 11014 1700/ 724646 043544 6113/
22219 00236
33311 88872 20000 32359 43739
444 50101 80005 80104 9/015=
ZZYY 41605 11014 1731/ 724463 043710 6113/
22219 00239
33311 88872 20000 32388 43749
444 50101 8//// 80102 9/015=
ZZYY 41605 11014 1701/ 724466 043710 6113/
22219 00239
33311 88872 20000 32388 43749
444 50101 80012 80102 9/015=
ZZYY 41691 11014 1330/ 724752 041649 6113/
22219 00235
33311 88872 20000 32347 43738
444 50101 80007 80106 9/015=
ZZYY 41691 11014 1831/ 724760 041650 6113/
22219 00235
33311 88872 20000 32348 43733
444 50101 80011 80106 9/015=
ZZYY 41691 11014 1801/ 724760 041649 6113/
22219 00235
33311 88872 20000 32350 43732
444 50101 80008 80106 9/015=
ZZYY 17673 11014 1700/ 344239 008604 6113/
11119 40103 52018
22219 00095
444 20130 11014 1645/ 50101 80112 80010 9/015=
ZZYY 17670 11014 1817/ 342698 000038 6111/
11119 40229 52018
22219 00122
444 20110 11014 1645/ 50101 80112 80009 9/015=
ZZYY 17669 11014 1700/ 342537 010724 6113/
11119 40110 52017
22219 00108
444 20130 11014 1631/ 50101 80114 80009 9/015=
ZZYY 33568 11014 1710/ 550652 005374 6113/
11119 30167 40167 52019
22219 00027
444 20130 11014 1646/ 50101 80080 80004 9/015=
ZZYY 33568 11014 1810/ 550646 005359 6112/
11119 30170 40170 52014
22219 00027
444 50101 80080 80004 9/015=
ZZYY 46585 11014 1734/ 112500 160546 6112/
22219 00281
444 50101 80084 80021 9/015=
ZZYY 41580 11014 1700/ 722928 052640 6113/
22219 00249
33311 88872 20000 32491 43738
444 50101 80010 80084 9/015=
ZZYY 52821 11014 1733/ 126686 146072 6113/
22219 00224
444 20130 11014 1728/ 50101 80086 80019 9/015=
ZZYY 22577 11014 1700/ 128165 158071 6111/
22219 00217
444 2011/ 11014 1729/ 50101 80089 80024 9/015=
ZZYY 52607 11014 1906/ 121645 119718 6111/
22219 00257
444 20110 11014 1719/ 50101 80098 80024 9/015=
ZZYY 53516 11014 1600/ 113032 109560 6113/
22219 00233
444 2013/ 11014 1413/ 50101 80110 80016 9/015=
ZZYY 23907 11014 1700/ 114660 085861 6111/
22219 00261
444 2011/ 11014 1539/ 50101 80091 80026 9/015=
ZZYY 52917 11014 1906/ 123250 122085 6113/
22219 00232
444 20130 11014 1859/ 50101 80088 80016 9/015=
ZZYY 53570 11014 1600/ 105016 104015 6113/
22219 00270
444 2013/ 11014 1537/ 50101 80091 80026 9/015=
ZZYY 22583 11014 1800/ 100820 105406 6113/
22219 00277
444 2013/ 11014 1357/ 50101 80076 80024 9/015=
ZZYY 22583 11014 1700/ 100820 105406 6113/
22219 00277
444 2013/ 11014 1357/ 50101 80076 80022 9/015=
ZZYY 23922 11014 1900/ 101970 089495 6112/
11119 40115 57010
22219 00289
444 2012/ 11014 1631/ 50101 80119 80017 9/015=
ZZYY 14568 11014 1900/ 101553 089761 6111/
11119 40117 57010
22219 00289
444 2011/ 11014 1538/ 50101 80110 80016 9/015=
ZZYY 14567 11014 1900/ 100796 088044 6113/
11119 40118 57009
22219 00287
444 2013/ 11014 1627/ 50101 80113 80003 9/015=
ZZYY 23906 11014 1700/ 120173 091415 6113/
22219 00235
444 2013/ 11014 1541/ 50101 80089 80014 9/015=
ZZYY 14546 11014 1900/ 102091 089413 6111/
11119 40114 57011
22219 00288
444 2011/ 11014 1537/ 50101 80107 80016 9/015=
ZZYY 53519 11014 1906/ 117348 113003 6113/
22219 00245
444 20130 11014 1902/ 50101 80042 80027 9/015=
ZZYY 52674 11014 1905/ 119561 125808 6111/
22219 00248
444 20110 11014 1900/ 50101 80094 80000 9/015=
ZZYY 52668 11014 1906/ 125171 126722 6111/
22219 00224
444 20110 11014 1859/ 50101 80098 80039 9/015=
ZZYY 22530 11014 1906/ 121858 122617 6111/
22219 00245
444 20110 11014 1859/ 50101 80068 80015 9/015=
0000013800
469
SNDL21 EDZW 111900 CCA
AAXX 11191
10400 42570 12603 10044 20027 30165 40216 51034 81500
  333 55300 20000 30000 81628=
0000011000
470
UANT01 CWAO 111913
ARP BAW297 5927N03151W 1913 F360 MS63 207/61 KT
GCIVY QXT AOE 111913 F18A
0000014400
471
SNVF20 EHDB 111900 RRA
BBXX
D5DK7 11193 99447 70086 41/99 /1423 10130 20130 40170 54000 7////
8//// 22214 04140 20201 80130=
0000024900
472
SNHK22 VHHH 111900
AAXX 11191
45032 36/// /1601 10124 20116 30216 40233 54000=
45035 36/// /0702 10135 20124 30194 40237 57001=
45039 36/// /1001 10130 20121 30221 40237 57003=
45044 36/// /0703 10151 20124 30137 40233 57002=
0000190500
473
UDEU02 EGRR 111916 RRC
AMDAR 1118
ASC EU6265   5226N 00149W 111857 F010 PS035 221/008 TB/ S031=
ASC EU6265   5226N 00148W 111857 F017 PS015 228/007 TB/ S031=
ASC EU6265   5226N 00147W 111857 F023 PS002 238/004 TB/ S031=
ASC EU6265   5226N 00147W 111857 F029 MS010 338/003 TB/ S031=
ASC EU6265   5226N 00146W 111857 F039 MS002 310/013 TB/ S031=
ASC EU6265   5226N 00145W 111857 F046 MS010 291/014 TB/ S031=
ASC EU6265   5226N 00144W 111857 F055 PS000 303/023 TB/ S031=
ASC EU6265   5226N 00143W 111857 F066 MS012 320/024 TB/ S031=
ASC EU6265   5226N 00142W 111857 F082 MS045 318/022 TB/ S031=
ASC EU6265   5225N 00141W 111857 F116 MS127 283/028 TB/ S031=
ASC EU6265   5222N 00141W 111858 F130 MS152 299/032 TB/ S031=
ASC EU6265   5218N 00140W 111858 F146 MS180 298/033 TB/ S031=
ASC EU6265   5214N 00140W 111858 F163 MS215 283/039 TB/ S031=
ASC EU6265   5210N 00139W 111859 F179 MS252 272/045 TB/ S031=
ASC EU6265   5205N 00139W 111859 F194 MS277 277/050 TB/ S031=
ASC EU6265   5201N 00136W 111859 F205 MS305 275/055 TB/ S031=
ASC EU6265   5156N 00132W 111900 F220 MS340 271/057 TB/ S031=
ASC EU6265   5152N 00129W 111900 F233 MS372 272/054 TB/ S031=
ASC EU6265   5147N 00126W 111900 F244 MS400 280/054 TB/ S031=
ASC EU6265   5142N 00122W 111901 F257 MS435 291/052 TB/ S031=
ASC EU6265   5137N 00118W 111901 F271 MS462 295/055 TB/ S031=
ASC EU6265   5132N 00114W 111901 F285 MS500 302/053 TB/ S031=
ASC EU6265   5128N 00110W 111902 F300 MS535 301/057 TB/ S031=
ASC EU6265   5123N 00106W 111902 F313 MS565 307/060 TB/ S031=
ASC EU6265   5118N 00103W 111902 F324 MS582 309/070 TB/ S031=
ASC EU6265   5113N 00059W 111903 F339 MS612 305/071 TB/ S031=
ASC EU6265   5108N 00054W 111903 F350 MS602 312/062 TB/ S031=
ASC EU6265   5104N 00049W 111903 F378 MS575 280/049 TB/ S031=
ASC EU6265   5100N 00044W 111904 F389 MS572 284/060 TB/ S031=
0000092100
474
SMIV01 DIAP 111800
AAXX 11184
65528 NIL=
65536 NIL=
65545 31940 00000 10320 20155 39672 40084 70500
  333 10360 58007=
65548 NIL=
65555 NIL=
65557 31456 5//// 10307 20238 39660 40098 70244 85200
  333 10326 58011 85813 94919=
65560 32960 2//// 10306 20241 39794 40100 80002
  333 10326 58027 82076=
65562 32460 2//// 10325 20251 3//// 4//// 82500
  333 10361 5//// 82616=
65563 32956 02404 10313 20219 39857 40090
  333 10346 58014=
65578 32460 62408 10286 20253 30099 40106 84802
  333 10304 58013 81812 84620 94906=
65585 32458 4//// 10289 20245 30062 40100 81202
  333 10313 58008 81815 84076 94910=
65592 32460 7//// 10277 20250 30079 40102 81202
  333 10320 58018 81813 87076 94908=
65594 32460 72204 10285 20247 30075 40109 83232
  333 10314 58013 83613 85080 94908=
65599 32460 5//// 10276 20254 30021 40095 82202
  333 10304 58015 82615 85076 94907=
0000011100
475
UANT99 KDDL 111913
ARP AAL90P 5556N04112W 1913 F370 MS54 274/29 KT
N396AN DDL UAK 111913 F38A
0000167200
476
SNAU01 AMMC 111900
AAXX 11194
94102 15/// /2109 10291 20259 30043 40052 56016 60023=
94103 45/// /2617 10290 30054 40059 56019=
94200 NIL=
94203 155// 22409 10293 20249 30055 40065 56011 60003=
94206 15/// /0000 10296 20215 39928 40056 53003 60003=
94207 46/// /2817 10286 30059 40067 58009=
94212 15/// /2703 10274 20169 39577 40040 56015 60003=
94216 15/// /3403 10251 20235 30009 40058 50003 60073=
94300 15/// /2505 10252 20228 30069 40074 55012 60003=
94302 15/// /1001 10238 20177 30064 40070 56018 60003=
94312 15/// /2707 10278 20264 30060 40069 56013 60003=
94313 NIL=
94317 15/// /2605 10235 20029 39499 40067 56009 60003=
94319 15/// /0901 10276 21013 39737 40056 55005 60003=
94403 15/// /3105 10219 20191 30039 40073 56013 60003=
94429 15/// /0305 10323 20024 39645 40095 54000 60003=
94430 15/// /0717 10329 20164 39514 40078 56004 60003=
94449 15/// /0813 10265 20055 39611 40126 56007 60003=
94601 15/// /0819 10218 20188 30088 40104 57016 60003=
94610 13/// /0820 10303 20093 30045 40068 56017 60003=
94637 15/// /0811 10247 20117 39719 40135 56007 60003=
94638 15/// /0411 10162 20139 30131 40163 56019 60001=
94642 NIL=
94647 15/// /1110 10185 20154 30076 40185 56010 60001=
94802 153// 50511 10178 20166 30056 40138 56021 60003=
95205 15/// /2410 10283 20249 30055 40062 55005 60003=
95448 15/// /0709 10295 20035 39553 40098 56004 60003=
95634 15/// /0607 10275 20051 39726 40116 53001 60003=
95637 15/// /1803 10189 20140 39800 40126 57012 60003=
95641 15/// /1402 10176 20176 30014 40108 58015 60003=
95646 15/// /1212 10165 20163 39995 40179 56007 60003=
96995 NIL=

0000331300
477
SAWD01 OEJD 111900
METAR DAAG 111900Z 14004KT 100V170 8000 FEW026 BKN080 16/12 Q1020=
METAR DTTA 111900Z 00000KT 9999 FEW023 13/10 Q1020 NOSIG=
METAR EBBR 111850Z 25005KT CAVOK 04/02 Q1022 NOSIG=
METAR EDDH 111850Z 28011KT 250V320 9999 FEW015 SCT024CB 04/02 Q1011
TEMPO 29015G30KT SHRA=
METAR EFHK 111850Z 03007KT 9999 -SN FEW008 BKN016 M05/M06 Q0999
NOSIG=
METAR EGLL 111850Z VRB02KT CAVOK 06/01 Q1024 NOSIG=
METAR EHAM 111855Z 29011KT 9999 FEW023 06/02 Q1020 NOSIG=
METAR EIDW 111900Z 17003KT CAVOK M01/M01 Q1020 NOSIG=
METAR EKCH 111850Z 29015KT 9999 FEW018 SCT064 BKN093 05/03 Q1003
NOSIG=
METAR ELLX 111850Z VRB03KT 9999 FEW015 04/03 Q1022 NOSIG=
METAR ENFB 111850Z AUTO 30015KT 9999NDV -SHRA FEW016/// BKN022///
           BKN150/// 04/03 Q0998 W///S5=
METAR EPWA 111900Z 22009KT 9999 FEW040 05/01 Q1010 NOSIG=
METAR ESSA 111850Z 01009KT CAVOK M04/M06 Q1001 R01L/610267
R08/610262 R01R/////// NOSIG=
METAR ETBS 111900Z NIL=
METAR GMME 111900Z 11002KT 6000 R21/1100VP1500 SCT020 12/11 Q1020
NOSIG=
METAR GQNN 111900Z 34008KT 8000 NSC 20/14 Q1014 NOSIG=
METAR HAAS 111900Z NIL=
METAR HCMM 111900Z NIL=
METAR HECA 111900Z 00000KT 6000 NSC 15/07 Q1026 NOSIG=
METAR HLLT 111850Z
11005KT CAVOK 15/08 Q1022=
METAR HSSS 111900Z 36009KT CAVOK 21/M02 Q1019=
METAR KBOS 111854Z 19021G28KT 2 1/2SM R04R/6000VP6000FT -RA BR OVC012
     13/12 A2966=
METAR KIAD 111852Z 00000KT 3SM BR SCT010 OVC017 07/07 A2958=
METAR KJFH 111900Z NIL=
METAR KWBS 111900Z NIL=
METAR LEMD 111900Z 00000KT CAVOK 08/05 Q1020 NOSIG=
METAR LFPO 111900Z 00000KT 9999 R02/1300D R08/1200D MIFG NSC 03/03
Q1024 NOSIG=
METAR LGAV 111850Z VRB01KT 9999 FEW025 BKN180 09/07 Q1023 NOSIG=
METAR LIRF 111850Z 05004KT CAVOK 10/09 Q1022 NOSIG=
METAR LOWW 111850Z 17004KT 4200 BR FEW070 BKN120 02/02 Q1017 TEMPO
TL2030 2800 BECMG FM2030 28007KT=
METAR LSGG 111850Z 00000KT CAVOK 07/05 Q1022 NOSIG=
METAR LTAC 111850Z 16003KT 4400 BR BKN009 M02/M02 Q1024 NOSIG=
METAR OAKB 111850Z 31006KT 290V040 2500 HZ NSC M02/M10 Q1026 NOSIG RMK YLO YLO=
METAR OBBI 111900Z 28010KT CAVOK 16/10 Q1021 NOSIG=
METAR OJAM 111900Z 27008KT 5000 HZ SCT025 08/05 Q1025 NOSIG=
METAR OKBK 111900Z 31009KT 9999 FEW040 BKN100 11/07 Q1021 NOSIG=
METAR OLBA 111900Z 10004KT 8000 FEW026 13/02 Q1026=
METAR OMAA 111900Z 35006KT 220V020 9000 -RA SCT048 18/15 Q1021 A3015
                    NOSIG=
METAR OOMS 111850Z 09003KT 9999 FEW030 SCT100 BKN200 18/10 Q1021
NOSIG=
METAR OPKC 111859Z 05003KT 7000 NSC 11/M03 Q1022 NOSIG=
METAR OPRN 111900Z 05004KT 4000 HZ FEW100 07/02 Q1022.9/30.20=
METAR ORBB 111900Z NIL=
METAR OSDI 111900Z 27006KT CAVOK 05/02 Q1024=
METAR OTBD 111900Z VRB02KT 9999 FEW025 BKN140 16/13 Q1022 NOSIG=
METAR OYAA 111900Z 12007KT 9999 SCT018 25/19 Q1018 NOSIG=
METAR OYSN 111900Z 24005KT 9999 SCT030 15/07 Q1028=
METAR RKSS 111900Z 10001KT 9999 SCT030 M04/M09 Q1028 NOSIG=
METAR UUEE 111900Z NIL=
METAR VCBI 111900Z NIL=
METAR VGZR 111900Z NIL=
METAR VHHH 111900Z NIL=
METAR VIDP 111900Z 24003KT 0600 R28/P2000 R29/1600 MIFG NSC 09/08
      Q1021 NOSIG=
METAR WIIH 111900Z NIL=
METAR WMKK 111900Z 02004KT 9999 FEW017CB SCT140 BKN280 25/22 Q1010
NOSIG=
METAR WSSS 111900Z VRB04KT 9999 FEW016 BKN300 25/24 Q1011 NOSIG=
0000108100
478
SAAR20 OEJD 111900
METAR OBBI 111900Z 28010KT CAVOK 16/10 Q1021 NOSIG=
METAR OKBK 111900Z 31009KT 9999 FEW040 BKN100 11/07 Q1021 NOSIG=
METAR OMAA 111900Z 35006KT 220V020 9000 -RA SCT048 18/15 Q1021 A3015
                    NOSIG=
METAR OMAD 111900Z 36006KT 9999 -RA FEW045 18/15 Q1021 A3015 NOSIG=
METAR OMAL 111900Z 33004KT CAVOK 17/12 Q1022 A3017 NOSIG=
METAR OMDB 111900Z VRB04KT 9999 FEW045 19/14 Q1021 NOSIG=
METAR OMFJ 111900Z 24002KT 9999 BKN020 19/13 Q1020 A3012 RERA=
METAR OMRK 111900Z 00000KT 8000 SCT040 17/16 Q1021 A3018=
METAR OMSJ 111900Z 33004KT 310V010 9999 FEW040 17/16 Q1021=
METAR OOBR 111900Z NIL=
METAR OOKB 111900Z NIL=
METAR OOMS 111850Z 09003KT 9999 FEW030 SCT100 BKN200 18/10 Q1021
NOSIG=
METAR OOSA 111850Z 11009KT 9999 BKN025 23/15 Q1019
NOSIG  03=
METAR OOSH 111900Z NIL=
METAR OOSQ 111900Z NIL=
METAR OOSR 111900Z NIL=
METAR OOTH 111900Z NIL=
METAR OOYB 111900Z NIL=
METAR OTBD 111900Z VRB02KT 9999 FEW025 BKN140 16/13 Q1022 NOSIG=
METAR OYAA 111900Z 12007KT 9999 SCT018 25/19 Q1018 NOSIG=
0000009000
479
SAAR20 OEJD 111900 RRA
METAR OYSN 111900Z 24005KT 9999 SCT030 15/07 Q1028=
00000000