0000045100
060
SXXX32 EUMS 111818 RRA
22856700
:PRS 1 /1 2852 2851 2851 2851 2853 2856 2855 2854 2852 2854 2854 2851 2854 2853 2853 2851 2856 2861 2864 2861 2860 2859 2856 2854 2853 2855 2855 2854 2855 2854 :RAD 1 /3 6355 6357 6357 6357 6358 6360 6359 6357 6357 6358 6361 6367 6372 6374 6376 6379 6382 6385 6386 6385 :ENC 3 /5 4544 4545 4544 4552 4546 4545 4551 4559 4564 4567 4575 4575 :SW1 18 /60 60 :SW2 48 /60 60 :BAT 14 /15 12.4 :NAME 22856700
0000047700
061
SXXX32 EUMS 111819
262AD2C2
OT12 ID:PK-ORMA-10 DT:2014 01 11 18 18
:PRS /1 08005 07985 08006 07989 08008 08015 08011 07992 07982 07988 07979 07984 08004 07965 07964 07977 07991 07977 07958 07951 07965 07937 07936 07932 07921 07928 07903 07928 07908 07907
:RAD /1 ///// ///// ///// ///// ///// ///// ///// ///// ///// ///// ///// ///// ///// ///// ///// ///// ///// ///// ///// ///// ///// ///// ///// ///// ///// ///// ///// ///// ///// /////
:BAT 12.6V
0000036300
062
SXXX32 EUMS 111821
12FFB3C8
:PRS 1 /1 M 2995 3000 3005 3006 3014 3007 3009 3012 3023 3014 3016 3005 3001 3013 3009 3010 3004 3000 3000 3007 2992 2991 2983 2989 2990 2989 2989 2990 2994 :RAD 1 /3 5941 5949 5950 5945 5940 5935 5931 5926 5926 5926 :ENC 1 /5 -144 -144 -144 -144 -144 -144 :SW1 21 /60 0 :SW2 51 /60 60 :BAT 14 /15 14.2 :NAME 12FFB3C8
0000070100
063
SXXX32 EUMS 111821 RRA
22E7E6D2
OT12 ID:ID-ROTE-11 DT:2014 01 11 18 19
:PRS /1 -10737 -10163 -10723 -10742 -10712 -10712 -10714 -10714 -10738 -10738 -10734 -10736 -10738 -10736 -10733 -10740 -10158 -10719 -10739 -10711 -10713 -10712 -10712 -10736 -10740 -10734 -10736 -10739 -10738 -10733
:PR2 /1 03267 03272 03284 03283 03292 03270 03289 03277 03302 03265 03293 03272 03269 03254 03252 03284 03237 03298 03255 03259 03251 03253 03249 03269 03225 03289 03251 03271 03259 03273
:RAD /1 04891 04877 04863 04863 04875 04847 04883 04871 04855 04879 04871 04875 04875 04831 04903 04871 04881 04867 04883 04887 04883 04823 04859 04871 04871 04851 04843 04871 04859 04839
:BAT 12.3V
0000066700
064
SXXX32 EUMS 111822
32CC9580
OT12 ID:ID-ENGG-07 DT:2014 01 11 18 21
:PRS /1 01312 01319 01333 01307 01341 01309 01312 01350 01322 01318 01322 01318 01329 01331 01327 01335 01356 01329 01346 01294 01315 01355 01334 01353 01343 01346 01322 01325 01342 01337
:PR2 /1 04779 04776 04800 04789 04799 04802 04787 04790 04761 04787 04800 04784 04789 04796 04803 04792 04800 04769 04760 04783 04799 04813 04782 04809 04798 04827 04797 04804 04814 04799
:RAD /1 05625 05638 05652 05645 05650 05634 05637 05653 05648 05642 05655 05644 05647 05639 05669 05654 05675 05641 05639 05649 05645 05673 05658 05670 05662 05673 05649 05639 05658 05658
:BAT 12.2V
0000010700
065
UANT99 KDDL 111823
ARP UAL971 63N050W 1823 F320 MS60 241/13 KT
N643UA DDL XXW 111823 F18A
0000011000
066
UANT99 KDDL 111823
ARP DLH424 5206N02257W 1823 F350 MS55 177/70 KT
DAIGU QXT AOE 111824 J17A
0000011000
067
UANT99 KDDL 111824
ARP AZA610 4907N02558W 1824 F340 MS44 195/59 KT
EIDBL QXT AOE 111824 F17A
0000011000
068
UANT99 KDDL 111824
ARP NVR705 4456N03011W 1824 F370 MS47 254/39 KT
EILAX DDL XXN 111824 J77A
0000142400
069
SMEQ01 SEQU 111800
AAXX 11184
84173 31670 61410 10190 20121 70544 84335
 555 30069=
84105 32568 83704 10275 20232 39999 8361/
 333 58000 555 30078=
84072 11562 60506 10201 20132 37295 69964 70546 85303
 333 58006 555 10006 30064=
84270 31570 53608 10206 20124 70544 83552
 555 30059=
84160 31565 51502 10176 20088 37263 70544 83230
 333 58006 555 30056=
84036 32567 70408 10184 20134 84810
 555 30072=
84202 31465 83602 10266 20221 30095 40095 70544 8651/
 333 58013 555 30076=
84204 31560 70506 10286 20234 70544 84130
 555 30073=
84076 31570 53602 10194 20120 71544 84250
 555 30062=
84135 32575 80502 10272 20217 30098 8761/
 333 58008 555 30072=
84140 12580 72304 10258 20228 30024 40109 60021 87800
 333 58010 555 10015 30083=
84008 32680 21412 10278 20210 30117 40127 82500 00229
 333 58014 555 30067=
84050 11570 60000 10263 20226 69921 70542 85201
 555 10002 30080=
84088 32570 60000 10164 20113 37066 86200
 333 58005 555 30072=
84226 31670 83604 10146 20112 75042 887//
 555 30080=
84045 31556 60904 10144 20105 74044 85250
 555 30077=
84179 11457 80000 10215 20189 39073 69911 72054 8472/
 333 58017 555 10001 30085=
84142 31210 83204 10186 20183 74044 886//
 555 30098=
84132 31581 70406 10302 20196 39892 70544 81150
 333 58008 555 30053=
84143 31675 61812 10200 20101 37393 71522 86200
 333 58006 555 30053=
NNNN
0000253800
070
SMRA15 RUHB 111800
AAXX 11181
21432 NIL=
21824 41997 80000 11324 21352 30303 40313 57007 77872 86036=
21908 42999 00000 11440 21464 30198 40292 57004=
21921 42999 00000 11465 21489 30307 40360 57003=
21931 41997 80000 11256 21268 30271 40306 57005 77172 8802/=
21946 42499 80203 11256 21268 30244 40331 53001 885// 333 88613=
21978 42998 02001 11313 21330 30230 40238 58005 333 91105=
21982 11998 33314 11217 21249 30094 40123 57016 60002 73730 82031 333
21260 48015 91018 91119=
25042 42998 33301 11310 21340 30226 40246 54000 83030 333 91102=
25044 42999 02901 11318 21334 30245 40252 57006 333 91103=
25051 42998 03201 11339 21375 30238 40246 57004 333 91104=
25062 11999 02706 11349 21359 30210 40214 57016 60002 73630 333 21353
3/137 48021 91106=
25123 42996 01401 11401 21415 30237 40275 54000=
25129 42999 00000 11437 21461 30260 40273 53001 333 91100=
25138 41999 22901 11427 21455 30128 40261 58002 77670 80001 333
91102=
25147 42999 03601 11397 21422 39858 40270 57010 333 91102=
25151 NIL=
25173 NIL=
25248 NIL=
25282 12984 03003 11294 21317 30150 40157 57024 60002 333 21294 44020
55000 91105=
25325 NIL=
25335 42998 01401 11440 21463 39855 40284 54000 333 91102=
25356 12999 23202 11183 21262 30064 40158 53016 60002 80001 333 21313
47043 55000 91004=
25399 11584 20203 11223 21255 30062 40072 57020 69902 70231 82500 333
21230 3//// 47010 55000 91106=
25428 41950 00000 11450 21483 39888 40280 53003 71000 333 91100=
25469 12999 03203 11217 21274 30113 40138 57011 60002 333 21232 48022
91106=
25551 12998 02901 11347 21384 30132 40167 57006 60002 333 21348 47064
55000 91102=
25561 12999 20000 11295 21326 30144 40155 57008 60002 80001 333 21323
48021 91000=
25563 12984 03406 11213 21261 30037 40120 57010 60002 333 21220 44024
55021 91113=
25594 NIL=
25677 NIL=
25767 NIL=
31054 41997 80000 11379 21409 30074 40389 58003 77072 86026=
31087 NIL=
31123 41999 81901 11382 21409 30027 40406 53006 77172 80007=
21535 42998 22702 11263 21287 30287 40308 58004 82030=
21608 42998 01503 11381 21397 30213 40233 57002=
21636 41996 82701 11267 21279 30289 40324 57001 77172 8805/=
21711 41998 21608 11367 21404 30257 40279 56001 73630 80001 333 91011
91114=
21721 41996 01710 11361 21390 30273 40302 57012 73830 333 91014
91114=
21813 42998 02401 11421 21448 30300 40341 57005=
21821 42998 62203 11322 21359 30298 40318 57004 80001=
21937 41598 81802 11377 21405 30196 40333 57002 70272 8552/ 333
85625=
0000013000
071
SMRS13 RUMS 111800 RRA
AAXX 11181
22446 41273 80708 11165 21189 39911 40013 53005 73683 889// 333 86705
91118=
0000762500
072
SMVF01 EGRR 111800
BBXX
ZNQO3 11184 99339 10234 41498 52711 10175 20134 40254 51016 70222
852// 22224 04183 20401 327// 40501 80150=
62027 11184 99491 70022 46/// /1313 1//// 2//// 40225
51012 22200 0//// 11403 330// 70013=
62105 11184 99550 70132 46/// /1624 10090 20036 40113 56020 22200
00108 10807 70035 333 90710 91134=
62301 11184 99524 70047 46/// /1408 10072 20020 40215 50003 22200
00096 10602 70012=
62163 11184 99475 70084 46/// /1618 10113 20083 40179 53002 22200
00121 10906 70029=
62001 11184 99452 70050 46/// /1214 10119 20078 40193 58005 22200
00128 10906 70029=
62107 11184 99501 70061 46/// /1418 10096 20052 40215 53006 22200
00105 11205 70025=
64045 11184 99591 70117 46/// /2614 10069 20003 40125 53013 22200
00096 10908 70040 333 90710 91127=
62304 11184 99512 10018 46/98 /3113 10081 40207 51019 22200 10501
70003=
62305 11184 99504 70000 46/// /2906 10084 20025 40231 51013 22200
00109 10701 70006=
62103 11184 99499 70029 46/99 /1505 10091 20036 40237 53012 22200
00113 11003 70013=
62304 11184 99512 10018 46/98 /3113 10081 20029 40227 51019 22200
00101 10501 70003=
62081 11184 99521 70105 46/// /1524 10088 20042 40143 57026 22200
10905 70025 333 90710 91137=
MWYG6 11184 99603 70040 47598 /2824 40081 52026 700// 22200=
64041 11184 99607 70026 47397 /2933 40043 52021 700// 22200 1//10 70048=
63056 11184 99597 10016 47698 /2832 10064 20004 40033 50014 700// 22200 10707 70034=
63109 11184 99596 10015 46/// /3034 10063 20010 40035 51016 22200=
63110 11184 99595 10015 47698 /2924 10062 20017 40050 51018 700// 22200 10606 70032=
MQSY9 11184 99593 10015 47597 /3021 10061 20015 52022 700// 22200=
63057 11184 99592 10015 47698 /2932 10070 21022 40049 51017 700// 22200 10707 70034=
62128 11184 99587 10014 47498 /2929 10061 20014 40084 52032 700// 22200 10707 70034=
62129 11184 99584 10003 46/// /2831 10053 20006 40097 52027 22200=
62113 11184 99584 10002 47598 /2930 10050 20000 40105 52034 700// 22200=
ZQSD5 11184 99583 10008 47598 ///// 10067 20014 40086 51019 700// 22200 1//09 70043=
63115 11184 99616 10013 47295 /0616 10026 20008 49985 56009 771// 22200 10807 70035=
63114 11184 99613 10017 47199 /0912 10030 20030 49979 57015 700// 22200=
63117 11184 99613 10011 47497 /3213 49981 57011 762// 22200=
63104 11184 99612 10016 47495 /3016 10049 20024 49977 56018 763// 22200 10707 70034=
63103 11184 99612 10011 46/// ///// 10054 20026 49977 57005 22200 10708 70040=
63101 11184 99612 10009 46/// /2827 10056 20028 49978 57006 22200 10709 70045=
63107 11184 99611 10017 46/// /2829 10048 49982 56014 22200=
63112 11184 99611 10010 47497 /2933 10054 20031 49976 57010 700// 22200 10708 70042=
62111 11184 99580 70003 46/// /3132 10044 21009 40126 52020 22200 10607 70034=
PJAI 11184 99581 70014 47398 /2921 10057 21002 40117 52023 700// 22200=
62112 11184 99584 70002 47598 /2914 10060 20011 40099 52022 700// 22200=
63055 11184 99606 10016 47597 /2832 10051 20015 40018 51014 762// 22200 10607 70034=
63108 11184 99608 10017 47/97 /2934 10048 20018 49999 50000 700// 22200 10607 70034=
63106 11184 99610 10017 46/// /2729 10041 56015 22200=
63105 11184 99610 10017 47496 /2928 10081 20016 49981 56016 700// 22200=
63113 11184 99610 10017 46/// /2925 10048 20020 40002 52007 22200 10707 70037=
62142 11184 99530 10021 47998 /3017 10061 20026 40198 52024 700// 22200 10403 70016=
62145 11184 99531 10028 47498 /2920 10061 20011 40207 52024 700// 22200 10504 70022=
62144 11184 99534 10017 47998 /2819 10060 20007 40207 51024 700// 22200 10503 70017=
62121 11184 99535 10027 46/// ///// 10064 20014 40187 52025 22200=
62150 11184 99536 10007 47999 /2719 10061 20008 40217 52025 700// 22200 10503 70014=
62148 11184 99536 10015 46/// ///// 22200=
62149 11184 99537 10011 47999 /2821 10065 20004 40201 52023 700// 22200 10504 70018=
62131 11184 99539 10012 46/// /2814 10064 20014 40196 52027 22200=
62127 11184 99540 10007 47999 ///// 10060 20002 40198 52026 700// 22200 10504 70019=
62165 11184 99540 10011 47598 /2716 10062 20011 40198 52025 700// 22200 10504 70020=
62123 11184 99563 10022 47598 /3032 10067 20003 40125 52026 700// 22200 1//08 70038=
62132 11184 99564 10020 46/// /3228 10066 21007 40146 52027 22200=
62120 11184 99564 10021 47598 /3031 10060 21003 40125 52027 700// 22200=
62154 11184 99564 10022 46/// /3125 10062 21005 40121 52027 22200=
62152 11184 99570 10018 47598 /2922 10063 20008 40126 52027 700// 22200 10607 70036=
62118 11184 99577 10009 47598 /2928 10062 20019 40105 52023 700// 22200 10607 70035=
62155 11184 99577 10007 47598 /2831 10062 20008 40117 52027 700// 22200 10707 70036=
62116 11184 99576 10011 47998 /3026 10063 20006 40103 51023 700// 22200 10707 70033=
62143 11184 99577 10018 47598 /3116 10054 20005 40110 52019 762// 22200 10607 70034=
62117 11184 99579 10000 47598 /2828 10060 20000 40096 51017 700// 22200 10606 70031=
62102 11184 99579 10018 46/// /3223 10047 21001 40093 52028 22200 10706 70032=
62104 11184 99574 10013 47598 /2930 10070 20022 40105 52022 700// 22200=
62153 11184 99573 10020 47598 /2812 40107 52025 700// 22200 10607 70034=
62134 11184 99580 10014 47996 /3125 10062 20020 40097 52025 700// 22200 10707 70034=
62114 11184 99583 10000 46/// /2931 10054 20015 40092 52022 22200=
62122 11184 99573 10016 47398 /3028 10054 20017 40104 52026 700// 22200 10607 70033=
62140 11184 99573 10013 46/// ///29 10064 20009 40111 52028 22200=
62146 11184 99572 10021 47598 /2810 10051 20015 40115 52027 700// 22200 10707 70037=
62164 11184 99572 10008 47597 /2925 10066 20010 40122 52027 700// 22200 00083 10607 70034=
62133 11184 99571 10009 46/// /3127 40122 52027 22200 10607 70035=
62119 11184 99570 10019 47597 /3028 10061 20014 40124 52028 700// 22200 10707 70037=
2AUO5 11183 99606 10016 41597 62740 10050 49997 58002 76566 864//
22271 20706 329// 41012=
63119 11183 99582 70002 41/97 /3138 10050 21004 40104 53/// 700//
8//// 22200 2//// 327// 40610 5////=
AMOUK05 1118/ 99519 10041 46/// ///// 10074 20027 40211=
AMOUK06 1118/ 99508 10009 46/// ///// 10089 20025 40229=
AMOUK36 1118/ 99581 70027 46/// ///// 10052 20002 40136=
AMOUK24 1118/ 99570 70058 46/// ///// 10067 20015 40167=
AMOUK44 1118/ 99540 70029 46/// ///// 1//// 2//// 40209=
AMOUK30 1118/ 99562 70058 46/// ///// 10068 20027 40173=
AMOUK32 1118/ 99559 70047 46/// ///// 10046 20019 40177=
AMOUK11 1118/ 99533 70062 46/// ///// 10061 21003=
AMOUK28 1118/ 99576 70064 46/// ///// 1//// 2//// 40156=
AMOUK29 1118/ 99513 70072 46/// ///// 1//// 2//// 40196=
AMOUK31 1118/ 99558 70055 46/// ///// 10059 20035 40187=
AMOUK03 1118/ 99537 70003 46/// ///// 10058 20022 40203=
AMOUK43 1118/ 99546 70059 46/// ///// 10039 20018 40203=
AMOUK23 1118/ 99578 70034 46/// ///// 10042 20010 40140=
AMOUK04 1118/ 99535 70030 46/// ///// 10064 20019 40204=
AMOUK02 1118/ 99533 70062 46/// ///// 10057 21003 40212=
AMOUK14 1118/ 99533 70062 46/// ///// 10059 21004 40202=
AMOUK13 1118/ 99519 10015 46/// ///// 10066 20022 40218=
AMOUK45 1118/ 99509 70014 46/// ///// 10058 20013 40227 22200   402270108=
AMOUK34 1118/ 99519 10042 46/// ///// 10080 20025 40205=
AMOUK09 1118/ 99517 10017 46/// ///// 10071 20069 40225=
AMOUK42 1118/ 99506 70025 46/// ///// 10068 20022 40235=
AMOUK33 1118/ 99555 10084 46/// ///// 10064 20021 40069=
AMOUK26 1118/ 99503 10001 46/// ///// 10080 20028 40227=
62050 11184 99500 70044 46/// /1312 10096 20054 40221 22200 10602
70010=
64046 11184 99605 70042 46/// /3125 10072 20017 40069 333 90710 91134=
0000015800
073
SMVA01 DEMS 111800 RRB
BBXX
A8YN6 11184 99169 10654 41897 60317 10228 20127 40160 54000
70322 86070 22235 04256 29902 399// 4//03 80170=

0000042100
074
SMVF01 EGRR 111800 RRA
BBXX
62303 11184 99516 70051 46/// /1511 10078 20016 40217 22200 10803
70016=
62170 11184 99514 10020 46/98 /2717 10079 20015 40227 51023 22200
00105 10401 70006=
62095 11184 99529 70156 46/// /1830 10103 20053 40033 56043 22200
00111 10809 70043 333 90710 91142=
DIJY2 11184 99436 70102 41498 52112 10128 20091 40151 57007 70211
8477/ 22254 04127 20602 327// 40804=
0000013000
075
SMRS15 RUMS 111800 RRB
AAXX 11181
22438 41550 80817 11090 21098 39989 40013 52004 77173 885// 333 91021
91124=
0000082400
076
SMVX01 EDZW 111800
BBXX
DBBA  11181 99541 10121 46/// ///// 10052 20016 40071 52008 22220 00067=
DBBC  11181 99536 10086 46/// /2809 10056 20028 40124 52031 22250 00062=
DBBI  11181 99535 10099 46/// /2704 10051 20044 40103 52033 22240 00049=
DBEA  11181 99540 10082 46/// /2916 10069 20025 40113 52028 22260 00065=
DBEB 11185 99538 10082 45/// /2815 10064 20024 40121 52028 22231 00064=
DBFH  11181 99539 10087 46/// /2906 10065 20036 40119 52026 22260 00056=
DBFR  11181 99534 10049 46/// /3115 10070 20011 40170 52020 22213 00080=
DBJM  11181 99542 10079 46/// /2913 10067 21125 40115 52022 22210 00074=
DBKV  11181 99543 10102 46/// /2805 10048 20025 40092 52030 22210 00063=
ELUC5 11183 99234 70697 41598 30921 10260 20202 40195 56015 70111 82460 22214 04260 21002 309// 41405 80220=
0000013700
077
SMPO01 LPMG 111800 RRB
AAXX 11181
08512 11580 22909 10124 20049 30036 40129 52024 60062 70186 82800
 333 10/// 82825=
0000013800
078
SMSP01 LEMM 111800 CCA
AAXX 11184
08306 01259 70508 10148 20130 30176 40182 54000 69902 71052 82658
  333 10168 60007=
0000078900
079
SMER10 OMAE 111800
AAXX 11184
41184 41658 60906 10171 20160 40219 76062 8354/ 333 10217 59006
      83640 86360=
41194 11760 70404 10184 20142 30210 40215 60011 76162 88020 333
      10229 59005 84456 86301=
41196 41560 73402 10171 20158 30178 40219 60011 76162 8252/ 333
      10223 59006 82630 87460=
41198 12560 62802 10187 20140 40208 69913 76022 86500 333 10213
      59021 86620=
41200 11658 63604 10167 20152 30170 40223 60011 72162 8252/ 333
      10222 58004 82640 86458=
41216 41460 83606 10181 20154 30211 40215 76066 8251/ 333 10228
      58011 82615 87459=
41217 41959 73607 10175 20159 30180 40210 72162 8707/ 333 10229
      58007 84358 86460=
41218 41960 50305 10177 20118 39901 40213 72161 8503/ 333 10217
      58002 85360=
00000000