0000016000
220
SSVX02 KARS 111859
ZZYY 23688 11014 1800/ 118107 061811 6111/
11119 40188 52008
22219 00245
444 2011/ 11014 1740/ 50101 80119 80011 9/015=
0000009300
221
SAMV31 VRMG 111900
METAR VRMG 111900Z 00000KT 9999 FEW018 SCT260 26/24 Q1013=
0000034400
222
SZIO01 AMMC 111903
CREX++
T000103 A001 D01021 D06025++
-1211670 09689190 46280 2014 01 11 18 56 3018 11 07 00 01
00822 0006 00825 0008 00824 0007 00824 0006 00831 0013 00833 0014+
-1042940 10566940 46290 2014 01 11 18 56 //// 11 07 00 01
00724 -0007 00745 0012 ///// //// 00742 0007 00729 -0008 00729 -0009++
7777

0000179000
223
SZPS01 AMMC 111903
CREX++
T000103 A001 D01021 D06025++
-0204190 14737360 56130 2014 01 11 18 56 3025 11 07 00 01
00922 0115 00926 0118 00927 0117 00929 0119 00928 0117 00930 0117+
-0669280 15640860 56363 2014 01 11 18 56 //// 11 07 00 01
00575 -0041 00574 -0042 00573 -0042 00576 -0039 00576 -0039 00575 -0040+
-0942890 15995560 56670 2014 01 11 18 56 3035 11 07 00 01
00770 -0058 00771 -0058 00774 -0056 00777 -0054 00777 -0055 00780 -0053+
-1072080 16580190 57131 2014 01 11 18 56 //// 11 07 00 01
02808 2219 02597 2010 01813 1227 02312 1728 02164 1581 01813 1232+
-1551560 16718860 57210 2014 01 11 18 56 //// 11 07 00 01
00811 -0114 00804 -0119 00804 -0117 00804 -0114 00812 -0104 00790 -0124+
-1775690 16830030 57320 2014 01 11 18 56 3015 11 07 00 01
00979 -0053 00980 -0050 00979 -0049 00977 -0050 00977 -0048 00978 -0045+
-4397330 16861610 65180 2014 01 11 18 56 2880 11 07 00 01
02550 0598 02453 0497 02507 0547 02480 0517 02421 0454 02507 0536+
-2120470 -15978530 65980 2014 01 11 18 56 3008 11 07 00 01
00624 0013 00626 0017 00603 -0005 00608 0001 00603 -0002 00633 0029+
-2113810 -17518140 66600 2014 01 11 18 56 //// 11 07 00 01
01079 0093 01074 0092 01076 0097 01074 0098 01071 0099 01069 0100+
-1382670 -17176110 66840 2014 01 11 18 56 3008 11 07 00 01
00651 0067 00643 0062 00649 0070 00645 0068 00634 0060 00638 0066+
-1813250 17842750 67050 2014 01 11 18 56 3030 11 07 00 01
01207 0086 01209 0092 01206 0092 01199 0089 01195 0089 01194 0091+
-1760530 17743810 67070 2014 01 11 18 56 3028 11 07 00 01
01267 0032 01264 0033 01262 0036 01260 0038 01259 0041 ///// ////+
-0850250 17919500 67440 2014 01 11 18 56 3027 11 07 00 01
01751 -0003 01751 0001 01749 0002 01745 0001 01746 0005 01743 0005++
7777

0000192400
224
SZAU01 AMMC 111903
CREX++
T000103 A001 D01021 D06025++
-1927750 14705860 59260 2014 01 11 18 56 3020 11 07 00 01
02284 0159 02295 0160 02307 0163 02314 0160 02326 0163 02340 0167+
-2316110 15079000 59670 2014 01 11 18 56 2997 11 07 00 01
03548 0133 03558 0131 03571 0133 03576 0127 03589 0128 03597 0125+
-3447330 15091170 60420 2014 01 11 18 56 2947 11 07 00 01
01471 -0036 01470 -0038 01467 -0042 01467 -0043 01464 -0047 01466 -0046+
-4105000 14591500 60910 2014 01 11 18 56 2888 11 07 00 01
01976 -0109 01986 -0109 02003 -0101 02003 -0113 02011 -0114 02016 -0118+
-4254640 14793080 61170 2014 01 11 18 56 2903 11 07 00 01
01609 0077 01601 0068 01601 0068 01598 0065 01585 0052 01584 0051+
-3834390 14161360 61410 2014 01 11 18 56 2908 11 07 00 01
00600 -0013 00607 -0005 00606 -0005 00592 -0018 00610 0001 00588 -0020+
-3214890 13364170 62000 2014 01 11 18 56 2955 11 07 00 01
00787 0042 00782 0042 00777 0042 00772 0042 00767 0042 00761 0040+
-3387080 12189720 62080 2014 01 11 18 56 2948 11 07 00 01
00570 -0004 00558 -0015 00563 -0008 00552 -0018 00555 -0013 00561 -0006+
-3182560 11573860 62237 2014 01 11 18 56 2972 11 07 00 01
00489 0046 00499 0057 00508 0067 00511 0070 00507 0067 00503 0064+
-2422000 11339750 62385 2014 01 11 18 56 //// 11 07 00 01
00714 -0055 00718 -0051 00686 -0083 00657 -0113 00682 -0088 00687 -0083+
-2181670 11419110 62430 2014 01 11 18 56 //// 11 07 00 01
01212 -0085 01216 -0081 01205 -0093 01206 -0092 01212 -0086 01199 -0100+
-1800080 12221830 62650 2014 01 11 18 56 3043 11 07 00 01
04340 0040 04346 0041 04351 0040 04356 0040 04361 0042 04365 0037+
-1247190 13084580 63230 2014 01 11 18 56 3048 11 07 00 01
04790 0034 04785 0035 04779 0040 04773 0039 04765 0038 04761 0043+
-1386000 13641580 63511 2014 01 11 18 56 3042 11 07 00 01
01406 0124 01406 0125 01404 0124 01403 0124 01403 0126 01403 0127++
7777

0000046700
225
SZPA01 AMMC 111903
CREX++
T000103 A001 D01021 D06025++
0136250 17293000 67590 2014 01 11 18 56 3013 11 07 00 01
01385 0069 01376 0062 01374 0063 01371 0062 01365 0059 01358 0055+
0710610 17137250 67680 2014 01 11 18 56 3013 11 07 00 01
00803 0097 00802 0097 00802 0099 00802 0100 00797 0097 00796 0097+
0698060 15820000 67950 2014 01 11 18 56 3020 11 07 00 01
00638 0075 00637 0074 00639 0077 00639 0077 00641 0079 00644 0082++
7777

0000074900
226
SNVD22 KWNB 111900 RRD
BBXX
46029 11191 99462 71245 46/// /2116 10101 20072 49980 56017 91850
22200 00091 11112 20510 322// 41105 70058 333 91221 555 11172
22185 31753 41926 61849 213159 214150 211153 207165 207172 200192=
46026 11191 99378 71228 46/// ///04 10109 91850 22200 11505 20401
330// 41505 70023 333 91205 555 11039 22042=
46054 11191 99343 71205 46/// /3208 10139 40219 50005 91850 22200
00129 11305 20702 330// 41305 70027 333 91210 555 11082 22090
31758 43211 61849 319077 318080 319077 319079 317084 319088=
46025 11191 99337 71191 46/// /2002 10138 20130 40212 50009 91850
22200 00156 11302 327// 41302 70010 333 91202 555 11015 22016
31849 42002 61849 196015 222007 171003 152005 120005 081001=
0000012400
227
SNVD17 KWNB 111900 RRB
BBXX
46060 11191 99606 71468 46/// /2604 10005 49852 57006 91850 555
11047 22050=
0000172500
228
SNSQ51 LZIB 111900
AAXX 11191
11812 46/// /2404 10035 20033 39481 42785=
11813 46/// /9901 10045 20027 39830 40183=
11816 42362 80000 10043 20031 30020 40186 886//
  333 88709=
11819 46/// /0000 10030 20023 39967 40187=
11826 41658 80000 10028 20008 39984 40188 71022 885//
  333 88645=
11841 42565 80000 10022 21005 39800 40183 8457/
  333 82633 83656 88360=
11855 41658 70000 10038 20022 30018 40186 72162 83548
  333 83643 87270=
11856 46/// /1303 10040 21001 39868 40191=
11858 42675 89901 10050 20033 30038 40192 885//
  333 88646=
11867 42860 70000 10018 20005 39865 40188 8707/
  333 87357=
11880 41662 80000 10028 20015 30015 40190 76022 885//
  333 88633=
11900 46/// /0000 10023 21005 39853 40195=
11903 42870 81101 10012 21010 39805 40195 8807/
  333 88458=
11916 42689 52816 11037 21071 37937 48438 84072
  333 84440 91023 91123 93520
  444 16160=
11918 42982 72706 10012 21024 39337 42769 85058
  333 85360=
11927 42960 63601 10021 21015 39922 40190 85072
  333 85360=
11930 42589 72810 11069 21124 37304 47975 86072
  333 86330 91023 91123
  444 17101=
11933 42982 72603 11012 21067 38630 48446 81048
  333 81360 87270 91008=
11934 42984 72403 10011 21032 39340 42774 86012
  333 86460=
11938 42680 62203 11017 21030 39099 42773 82578
  333 82636 84360=
11952 46/// /1702 11012 21039 39330 42772=
11958 46/// /2011 11038 21039 3//// 4////=
11968 42465 31902 11003 21003 39906 40196 83641
  333 81712 83362=
11976 41225 81702 10008 21003 39921 40192 71022 886//
  333 88706=
11978 42560 80000 10006 20002 30062 40196 885//
  333 88623=
11993 41956 29901 11015 21022 39973 40198 71011 80001
  333 82070=
0000011400
229
SNSQ51 LZIB 111900 CCA
AAXX 11191
11858 42675 79901 10050 20033 30038 40192 875//
  333 87646=
0000011000
230
UANT99 KDDL 111901
ARP ACA849 5258N03049W 1901 F360 MS53 206/17 KT
CGHLM DDL XXW 111901 J30A
0000011000
231
UANT99 KDDL 111901
ARP BAW115 5308N02333W 1901 F360 MS55 184/52 KT
GSTBG QXT AOE 111901 F10A
0000012800
232
SNRE15 FMEE 111900
AAXX 11194
61998 26/// /0603 10052 20032 30041 40078 55002
  333 58048 60005 90710 91106=
0000011100
233
UANT99 KDDL 111901
ARP AFR6724 5758N01953W 1901 F320 MS58 218/66 KT
FGIUA QXT AOE 111902 F18A
0000011100
234
UANT99 KDDL 111901
ARP UAL933 5301N01943W 1901 F340 MS59 192/85 KT
N224UA DDL XXN 111902 F33A
0000010200
235
SAPK31 OPST 111855
METAR OPST 111900Z 00000KT 2000 BR NSC 08/05 Q1022 BECMG 1500 RH86=
0000024100
236
SOAT10 KWAL 111903
FA8005BC 011190337 OT12 ID:KN-BASS-01 DT:2014 01 11 19 01
:RD -3138 -3175 -3165 -3144 -3153 -3156 -3146 -3149 -3122 -3123
:PR 0553 0497 0469 0523 0514 0484 0503 0528 0506 0510
:B 13.7V
 46+1NN 219E
0000023800
237
SWVF12 LFPW 111900
MMXX 61002 11014 1900/ 14207 00442 00011 12300 20077 30059
11130 0005/ 1024/ 30/// 14054 11174
22225 37212 10000 30000 50000 70001 90531 16500 33264
55557 75963 93546 12625 32035 53122 73814 91610=
0000046700
238
SNVD17 KWNB 111900 RRC
BBXX
46078 11191 99560 71526 46/// /1211 10021 20021 49828 56044 91850
22200 00044 11205 20703 323// 41204 70026 333 91213 555 11112
22118 31849 41213 61849 122107 120107 120103 119101 121100 128099
81211 91840=
46066 11191 99528 71550 46/// /2513 10066 49861 53009 91850 22200
00053 10907 20907 323// 41103 70036 333 91216 555 11144 22155
31828 42617 61849 248134 246129 245129 242124 242119 240123 82514
91841=
0000168500
239
SNVD15 KWNB 111900 RRC
BBXX
42057 11191 99170 70815 46/// /0809 10274 20227 40146 58024 91850
22200 00275 10804 20804 311// 40902 70022 333 91211 555 11092
22098 31827 40811 61849 078087 078091 080089 080086 076088 080087
80810 91841=
42055 11191 99222 70940 46/// /3402 10233 40171 58011 91850 22200
00234 10702 20401 306// 40702 70009 333 91202 555 11021 22022
31815 43503 61849 339021 336021 338019 348028 344024 340020 83503
91815=
41047 11191 99275 70715 46/// /1608 10246 20229 40209 56033 91850
22200 00256 10904 20603 311// 40903 70021 333 91210 555 11089
22094 31829 41610 61849 156084 153083 151081 146077 145080 144082
81609 91843=
42003 11191 99260 70856 46/// /2108 10244 40152 58025 91850 22200
00253 10602 20602 70010 333 91211 555 11082 22086 31845 42111
61849 206075 220059 213068 209071 209070 209068 82010 91845=
41048 11191 99320 70695 46/// /1611 10212 20172 40222 56035 91850
22200 00213 10604 20604 314// 40901 70021 333 91213 555 11119
22127 31822 41514 61849 157111 156105 154109 153109 151101 148109
81512 91817=
42039 11191 99288 70860 46/// /2613 10218 20213 40120 56037 91850
22200 00212 10403 20403 70014 333 91216 555 11137 22147 31816
42619 61849 258125 250127 254131 254126 245106 232106 82616 91816=
44066 11191 99396 70726 46/// /1911 10143 20143 40048 58071 91850
22200 00111 10704 20704 70022 333 91214 555 11120 22133 61849
189110 192112 190120 195120 189111 184097=
41040 11191 99145 70530 46/// /0508 10252 20207 40153 56013 91850
22200 00262 10905 20703 308// 40904 70027 333 91210 555 11082
22086 31817 40612 61849 050077 053085 054089 057092 057088 056092
80510 91819=
00000000