0000045000
160
WSUS33 KKCI 111855
SIGW
?MKCW WST 111855
CONVECTIVE SIGMET 1W
VALID UNTIL 2055Z
OR WA AND CSTL WTRS
FROM 30ENE HQM-40WNW PDX-70N ONP-20NW HQM-30ENE HQM
AREA EMBD TS MOV FROM 24020KT. TOPS TO FL280.

OUTLOOK VALID 112055-120055
FROM TOU-PDX-40W OED-70NNW FOT-120NW FOT-40WSW ONP-80W TOU-TOU
WST ISSUANCES POSS. REFER TO MOST RECENT ACUS01 KWNS FROM STORM
PREDICTION CENTER FOR SYNOPSIS AND METEOROLOGICAL DETAILS.
0000016200
161
WSUS32 KKCI 111855
SIGC
?MKCC WST 111855
CONVECTIVE SIGMET...NONE

OUTLOOK VALID 112055-120055
TS ARE NOT EXPD TO REQUIRE WST ISSUANCES.
0000162200
162
WSUS31 KKCI 111855
SIGE
?MKCE WST 111855
CONVECTIVE SIGMET 95E
VALID UNTIL 2055Z
MA CT NY
FROM 30E ALB-20NW BDL-50NNE SAX-20SSW ALB-30E ALB
AREA EMBD TS MOV FROM 22025KT. TOPS TO FL300.

CONVECTIVE SIGMET 96E
VALID UNTIL 2055Z
CT NY NJ AND NY CT NJ DE MD VA CSTL WTRS
FROM 40NNE JFK-80SE SIE
LINE EMBD TS 40 NM WIDE MOV FROM 22025KT. TOPS TO FL360.

CONVECTIVE SIGMET 97E
VALID UNTIL 2055Z
VA NC CSTL WTRS
FROM 60SE SBY-160E ECG-110ESE ECG-60E ORF-60SE SBY
AREA EMBD TS MOV FROM 22040KT. TOPS TO FL370.

CONVECTIVE SIGMET 98E
VALID UNTIL 2055Z
NC SC CSTL WTRS
FROM 50ESE ILM-120SE ILM-100SE CHS-50ENE CHS-50ESE ILM
AREA TS MOV FROM 21020KT. TOPS TO FL400.

CONVECTIVE SIGMET 99E
VALID UNTIL 2055Z
NC SC GA
FROM 40NNW RDU-60ESE RDU-30N SAV-40S ODF-40NNW RDU
AREA SEV EMBD TS MOV FROM 27020KT. TOPS TO FL370.
TORNADOES...HAIL TO 1 IN...WIND GUSTS TO 50KT POSS.

CONVECTIVE SIGMET 01E
VALID UNTIL 2055Z
FL GA AND FL CSTL WTRS
FROM 40SE PZD-30SSE AMG-170W PIE-130S CEW-40SE PZD
AREA SEV EMBD TS MOV FROM 27025KT. TOPS TO FL400.
HAIL TO 1 IN...WIND GUSTS TO 50KT POSS.
REF INTL SIGMET DELTA SERIES.

CONVECTIVE SIGMET 02E
VALID UNTIL 2055Z
NC AND CSTL WTRS
FROM 20E ECG-70NE ILM
LINE TS 40 NM WIDE MOV FROM 23020KT. TOPS TO FL390.

OUTLOOK VALID 112055-120055
FROM BDL-ACK-180ESE SIE-160ESE SBY-190ESE ECG-150SSE ILM-210ENE
OMN-100WSW PIE-190ESE LEV-110S CEW-SAV-BDL
REF WW 1 2 3 4 5.
WST ISSUANCES EXPD. REFER TO MOST RECENT ACUS01 KWNS FROM STORM
PREDICTION CENTER FOR SYNOPSIS AND METEOROLOGICAL DETAILS.
0000128400
163
WWIN40 DEMS 111200
==================
IWB 11TH JANUARY 2014 EVE:
============================
THE WESTERN DISTURBANCE AS AN UPPER AIR CYCLONIC CIRCULATION
OVER JAMMU & KASHMIR AND NEIGHBOURHOOD IS MOVING AWAY
EASTWARDS (.)
THE WESTERN DISTURBANCE AS A TROUGH IN MID & UPPER
TROPOSPHERIC WESTERLIES WITH ITS AXIS AT 5.8 KMS A.S.L.
ROUGHLY ALONG LONG. 62 DEG E TO THE NORTH OF LAT. 35 DEG N
PERSISTS(.)
SYSTEM WOULD MOVE EASTNORTHEASTWARDS (.)
THE UPPER AIR CYCLONIC CIRCULATION EXTENDING UPTO 0.9 KMS A.S.L.
OVER EAST MADHYA PRADESH AND NEIGHBOURHOOD PERSISTS (.)
THE TROUGH EXTENDING BETWEEN 1.5 AND 3.1 KMS A.S.L FROM
EAST UTTAR PRADESH TO WEST MADHYA PRADESH PERSISTS(.)
THE TROUGH OF LOW AT MEAN SEA LEVEL OVER SOUTHEAST BAY
OF BENGAL AND ADJOINING EQUATORIAL INDIAN OCEAN PERSISTS(.)
FORECAST: RAIN OR SNOW WOULD OCCUR AT ISOLATED PLACES IN
UTTARAKHAND AND HIMACHAL PRADESH (.)
RAIN OR THUNDERSHOWERS WOULD OCCUR AT A FEW PLACES IN SUB-
HIMALAYAN WEST BENGAL & SIKKIM AND BIHAR AND AT ISOLATED
PLACES IN ANDAMAN & NICOBAR ISLANDS, ARUNACHAL PRADESH, ASSAM
& MEGHALAYA, JHARKHAND, EAST UTTAR PRADESH, EAST MADHYA
PRADESH AND NORTH CHHATTISGARH (.)
MAINLY DRY WEATHER WOULD PREVAIL OVER THE REST OF THE
COUNTRY (.) =
0000030900
164
WSBZ20 SBAZ 111902
SBAZ SIGMET 12 VALID 111900/112230 SBAZ- SBAZ
AMAZONICA FIR EMBD TS F
CST WI S0615 W06714 - S0632 W06600 - S0745
W06509 - S0840 W06530 - S
0946 W06614 - S0958 W06651 - S0945 W06756 -
S0806 W06834 - S0653 W068
28 - S0612 W06755 - S0615 W06714 TOP FL420
STNR NC=
0000024400
165
WSBZ20 SBAZ 111902
SBAZ SIGMET 13 VALID 111900/112230 SBAZ- SBAZ
AMAZONICA FIR EMBD TS F
CST WI S0634 W07310 - S0636 W07215 - S0815
W07135 - S0850 W07146 - S
0735 W07351 - S0654 W07336 - S0634 W07310
TOP FL420 STNR NC=
0000011800
166
SNVF25 LFPW 111900
BBXX
BATFR34 11194 99473 70061 46/// /1411 10114 20084 40202 53005
22261 04134=
0000011200
167
SNVF25 LFPW 111900
BBXX
BATFR66 11194 99429 10095 46/// /2907 10130 20102 40212 50001
22284=
0000011800
168
SNVF25 LFPW 111900
BBXX
BATFR09 11194 99381 70099 46/// /1810 10142 20100 40190 53010
22242 04174=
0000011500
169
SNVF25 LFPW 111900
BBXX
FVNM 11194 99477 70034 46/// /0903 10075 20062 40214 51009
22200 04100=
0000011800
170
SNVF25 LFPW 111900
BBXX
BATFR22 11194 99413 10091 46/// /0910 10139 20117 40213 53003
22274 04149=
0000011800
171
SNVF25 LFPW 111900
BBXX
BATFR54 11194 99466 70024 46/// /0910 10102 20077 40221 50002
22232 04117=
0000009600
172
SAIN90 VOVZ 111900
METAR VOVZ 111900Z VRB02KT 2000 BR NSC 20/19 Q1016 NOSIG =

0000011800
173
SNVF25 LFPW 111900
BBXX
BATFR61 11194 99472 70060 46/// /1413 10117 20092 40201 53003
22282 04122=
0000011800
174
SNVF25 LFPW 111900
BBXX
BATFR62 11194 99497 70010 46/// /1702 10084 20024 40238 53013
22253 04119=
0000011800
175
SNVF25 LFPW 111900
BBXX
BATFR46 11194 99427 10045 46/// /1203 10134 20097 40217 53004
22253 04147=
0000015700
176
SSVX13 LFPW 111900
ZZYY 16592 11014 1900/ 346147 066600 6113/ 11119 40103 57032 22219
 00060 444 20130 11014 1859/ 50101 80118 80016 9/015=
0000015700
177
SSVX13 LFPW 111900
ZZYY 64667 11014 1900/ 763112 029143 6113/ 11119 40025 52012 22219
 00062 444 20130 11014 1900/ 50101 80154 80000 9/015=
0000257500
178
SNDL21 EDZW 111900
AAXX 11191
10004 46/60 /2817 10071 20024 30134 40134 52019
222// 00080
  333 55300 91121 91217=
10015 41467 73113 10047 20019 30114 40124 53024 78081 879//
  333 55300 20000 30000 83813 82916 83823 85650 91120 91214 96288=
10020 47588 22813 10050 20014 30062 40095 53019 72360
  333 55300 20000 30000 81/26 91118 91213=
10035 41570 42804 10038 20012 30041 40100 51025 72581 84800
  333 55300 20000 30000 40968 82820 83640=
10055 42782 22812 10056 20033 30073 40083 51030 82500
  333 55300 20000 30000 82650 91115 91212=
10147 41475 42806 10042 20021 30101 40120 51030 72511 83330
  333 55300 20000 30000 41047 81815 83924=
10162 45979 32706 10041 20023 30024 40098 51036
  333 55300 20000 30000 81/62 83/66=
10184 41460 83008 10041 20031 30056 40064 53006 76166 877//
  333 55300 20000 30000 87712 91119 91212=
10200 45584 32808 10053 20020 30155 40153 51028
  333 55300 20000 30000 83/31 83/39 91113=
10224 41581 22607 10044 20028 30141 40147 51029 72522 82100
  333 55300 20000 30000 82828=
10270 46460 72907 10054 20032 30046 40101 53007
  222// 06043
  333 55300 83/14 87/28 87/36 91114=
10338 41470 62708 10048 20034 30083 40157 51039 72122 86500
  333 55300 20000 30000 86616=
10361 41486 82904 10049 20028 30031 40136 53027 72162 8381/
  333 55300 20000 30000 82818 83656 88160=
10393 41458 82408 10047 20036 39970 40097 56010 76166 875//
  333 55300 20000 30000 87616=
10400 42570 12603 10044 20027 30165 40216 51034 81500
  333 55300 20000 30000 81528=
10469 41585 72511 10062 20032 39968 40134 53007 72122 875//
  333 55300 83625 87645 91116 91211=
10488 41563 82508 10062 20019 39848 40130 55006 76122 875//
  333 55300 20000 30000 41117 87623 91114=
10506 42980 02803 10020 20010 39633 40230 52032
  333 55300 20000 30000=
10548 41580 52805 10041 20018 39636 40184 53025 72122 85200
  333 55300 20000 30000 85826=
10637 42580 32405 10055 20026 30077 40217 53037 83500
  333 55300 83625=
10685 41258 82604 10022 20011 39486 40170 53009 76066 887//
  333 55300 20000 30000 88706=
10738 41464 82903 10068 20057 39752 40225 53027 72122 878//
  333 55300 81813 83623 86628 96260=
10763 41458 82404 10058 20046 39809 40195 53012 75822 875//
  333 55300 20000 30000 83710 87614=
10788 47416 81501 10024 20024 39765 40207 51009 75165
  333 55300 20000 30000 88/16=
10852 45559 72406 10064 20054 39639 40212 53017
  333 55300 20000 30000 87/23=
10946 47763 62203 10061 20043 39383 40218 50010 72365
  333 55300 20000 30000 86/50=
0000259500
179
SNDL22 EDZW 111900
AAXX 11191
10007 46/60 /3011 10050 20024 30128 40128 51021
222// 00072
  333 553// 91121 91217=
10044 46/// /2909 10052 20015 30059 40091 52025
222// 00057
  333 55300 91116 91214=
10046 47682 12605 10046 20026 30063 40098 51025 72365
  333 55300 81/36=
10091 47461 83113 10035 20021 30002 40053 53010 76266
  333 55300 20000 30000 85/13 87/19 88/32 91120 91213=
10113 45662 32915 10066 20021 30126 40145 51027
  333 55300 20000 30000 81/33 83/46 91119 91215=
10124 46/// ///// 10060 20034 30082 40120 51024
222// 0////
  333 553//=
10131 42581 12810 10062 20019 30107 40122 51025 81100
  333 55300 20000 30000 81828 91117 91211=
10170 41582 82811 10052 20030 30066 40082 53028 72122 875//
  333 55300 20000 30000 87626 91117 91214=
10264 47488 72807 10044 20026 39993 40101 53027 72365
  333 55300 20000 30000 85/17 87/60 87/62=
10291 41470 82507 10052 20033 30010 40078 55009 76066 875//
  333 55300 20000 30000 87615 91113=
10315 42580 22504 10038 20025 30124 40190 51034 82100
  333 55300 20000 30000 82830=
10379 41570 82609 10049 20042 39982 40104 53001 76366 885//
  333 55300 20000 30000 41202 88620 91117=
10381 41465 82707 10052 20041 30000 40098 55005 76166 877//
  333 55300 87717 91115=
10382 41467 82608 10054 20042 30052 40097 55005 76366 8272/
  333 55300 20000 30000 82711 88514=
10384 NIL=
10427 41260 82909 11006 21010 39172 48463 53040 77042 877//
  333 55300 20000 30000 87704 91120 91212=
10430 45475 82505 10039 20025 39993 40189 51049
  333 55300 20000 30000 87/13 88/20 88/39=
10439 NIL=
10453 41/90 93012 11030 21030 38794 48421 53033 77174
  333 55300 91121 91218 96049 96036 96273 96238=
10496 47256 82507 10056 20027 30029 40114 55008 76260
  333 55300 20000 30000 82/05 88/50 88/58=
10499 42969 72106 10039 20012 39833 40126 57012 8705/
  333 55300 20000 30000 87360=
10505 42970 02504 10028 20016 39939 40228 51032
  333 55300 20000 30000=
10513 42580 62703 10050 20031 30091 40215 51038 86800
  333 55300 20000 30000 81823 86632=
10532 45580 12806 10052 20016 39953 40205 51041
  333 55300 20000 30000 81/27=
10544 41/00 92808 10002 20002 39090 48460 53024 74544
  333 55300 91115 96147=
10554 41480 72812 10043 20023 39772 40164 53028 72522 8487/
  333 55300 20000 30000 82815 83627 87361 91117 91212 96013 96280=
10567 41580 82507 10044 20024 39774 40154 53011 76166 8587/
  333 55300 20000 30000 82823 84656 88457=
10578 41/01 92619 11011 21011 38729 48426 55007 77174
  333 55300 20000 30000 91126 91219 96049=
00000000