0000013400
706
WSUY31 SUMU 111810
SUEO SIGMET B5 VALID 111810/111810Z SUMU-
SUEO MONTEVIDEO FIR CNL SIGMET B4 VALID 111410/111810Z=
0000067300
707
SMSP61 LEMM 111800
AAXX 11184
08094 11515 73001 10077 20076 39556 40214 52009 60002 74042 876//
  333 10108=
08112 NIL=
08117 NIL=
08157 NIL=
08223 11965 32604 10090 20061 39394 40199 52010 60002 70241 81031
  333 10126=
08233 NIL=
08285 NIL=
08335 NIL=
08359 NIL=
08383 NIL=
08391 02675 10000 10156 20110 30160 40197 51016 60002 81170
  333 10197 20086 60007=
08397 12670 29902 10155 20101 30092 40197 52015 60002 82810
  333 10193=
08417 NIL=
08429 11558 70000 10114 20098 30110 40201 53008 60042 71042 84542
  333 10141=
08433 02562 70000 10118 20097 30196 40199 53011 69902 8357/
  333 10151 60007=
08458 NIL=
0000011100
708
UANT01 CWAO 111818
ARP NAX7031 5948N03752W 1818 F340 MS58 327/42 KT
EILNA QXT AOE 111818 L29A
0000011000
709
UANT01 CWAO 111818
ARP BAW297 5600N01958W 1818 F360 MS62 210/77 KT
GCIVY QXT AOE 111818 F05A
0000022200
710
SSVX03 LFVW 111822
ZZYY 31053 11014 17001 531581 049875 6113/
11119 00000 10250 40117
22219 00261 10702 20074 21008
33311 66699 20007 23049 20030 02044 20055 25034
444 20130 11014 1628/ 518// 60371=
0000066800
711
SMKZ20 UAAA 111800
AAXX 11181
28978 NIL=
28984 119// 81204 11073 21087 39729 40231 52001 69900 72273 8802/
333   11070=
34398 125// 82305 10021 20005 30052 40065 52004 69950 889// 333  
10030=
34798 32997 82204 10035 20009 30168 40138 52009 8802/ 333   10056=
35173 115// 81403 11091 21111 39845 40240 52003 69940 70272 885//
333   11055=
35358 119// 81801 11028 21058 30028 40201 52014 69930 71022 8802/
333   11030=
35576 315// 82005 11089 21132 39788 40252 52009 77172 8802/ 333  
11082=
35699 329// 50203 11115 21177 39515 40312 56002 80004 333   11086=
36686 329// 20000 11140 21183 39850 40306 53001 80001 333   11091=
0000069000
712
SMRA20 RUNW 111800
AAXX 11181
28216 41897 81105 11026 21038 39718 49999 57018 8802/=
28428 41597 81507 11016 21031 39856 40042 57014 73632 885// 333
91111=
28451 42596 81504 11056 21078 39977 40139 55000 885//=
28655 42998 81804 11064 21082 39930 40158 58002 8807/=
28756 42997 82004 11052 21072 30026 40176 52002 8807/=
29557 41597 82202 11057 21097 30050 40324 57007 78582 8635/=
29625 42998 01902 11133 21149 30116 40305 57008=
29813 42999 31403 11150 21170 30093 40284 57008 80002=
29822 42997 31603 11124 21156 30145 40319 57005 80001=
29915 42998 11503 11142 21168 30130 40299 57007 80002=
36020 42998 71602 11123 21166 30102 40314 57007 80002=
0000041100
713
SMRA21 RUNW 111800
AAXX 11181
28383 41996 81903 11057 21079 30124 40211 52006 77172 8802/=
28586 41997 81603 11085 21096 30068 40221 54000 70272 8801/=
28588 41998 71602 11081 21099 30060 40225 52003 70272 87070=
28688 41997 80901 11076 21094 30064 40229 52002 70272 8801/=
28696 42997 81502 11106 21119 30104 40250 58002 8802/=
28791 42998 81702 11124 21137 30088 40241 52003 80005=
0000008100
714
UANT01 BIRK 111817
ARP FXI2234 6534N03435W 1649 F250 MS49 125/13=
0000023100
715
SMAZ41 LPMG 111800
AAXX 11181
08506 12/// /2907 10091 20035 30075 40148 52020 60022
333 10119 91012 91112
555 69935=
08511 12/// /3108 10097 20039 30021 40130 52021 60012
333 10131 91013 91116
555 60005=
0000091000
716
UKNO12 ENMI 111800
TTBB 11188 01001 00014 00010 11008 00628 22948 03133 33788 15704
      44777 12367 55757 13769 66713 17171 77684 18570 88668 19360
      99610 23166 11590 25363 22585 25758 33579 25750 44553 26561
      55543 27359 66535 27167 77521 27779 88481 29968 99468 31159
      11463 31164 22455 32157 33416 36762 44401 38956 55373 42159
      66366 41966 77360 42373 88320 49167 99303 52558 11260 57765
      22199 66763 33191 64764 44169 67364 55159 63568 66145 63172
      77100 68172 21212 00014 00000 11973 11505 22943 13008 33780
      13014 44720 11512 55685 10513 66598 12513 77560 11014 88545
      10015 99505 11519 11465 11026 22335 11027 33309 10526 44271
      11036 55197 11526 66191 12529 77183 14519 88/// ///// 99141
      18014 11100 19523 31313 48008 81711 41414 684// 51515 11894
      13011 22800 13013 33600 12513=
TTBB 1118/ 01028 NIL=
0000093700
717
SMGL02 EKMI 111800
AAXX 11184
04203 46/// /1519 11110 21134 39909 49927 =
04205 45/84 /1022 11070 21194 39935 49956 52007
  333 11059 21089 91133 =
04208 46/// /3011 11113 21148 39943 49989 =
04213 46/// /2508 11067 21117 39875 49986 52021
  333 11060 21080 =
04214 46/// /3611 11063 21093 39956 49989 =
04224 47646 81709 11088 21124 39952 49986 52017 78587
  333 11087 21107 88/34 =
04228 46/// /1805 11058 21093 39971 49985 =
04242 46/// /0513 11098 21158 39973 49989 =
04253 46/// /0708 11093 21164 39945 49972 =
04266 46/// /0622 11067 21121 39901 49939 =
04285 46/// /0912 11038 21126 39918 49937 =
04301 46/// /1102 11156 21189 30005 40010 =
04313 NIL =
04330 46/// /1903 11199 21245 30088 40106 =
04351 46/// /0913 11016 21023 30012 40029 =
04373 46/// /0421 11055 21059 39873 49967 =
04382 46/// /2506 11065 21131 39917 49966 =
04416 46/// ///// 11319 21335 36614 52005 =
0000024800
718
SSVX02 KARS 111819
ZZYY 13657 11014 1808/ 718237 020025 6112/
22219 00231
444 20120 11014 1705/ 50101 80068 80018 9/015=
ZZYY 13585 11014 1700/ 735379 020868 6111/
22219 00189
444 20110 11014 1707/ 50101 80117 80039 9/015=
0000138300
719
SMMO40 MNUB 111800
AAXX 11180
44210 32999 03101 11259 21302 38603 58003 333 91202=
44216 32999 00000 11351 21380 39141 40627 53003 333
91201=
44217 32998 00000 11242 21293 37881 40576 57005 333
91203=
44219 32998 50000 11284 21313 38718 40583 51006 85050=
44221 419// 60000 11305 21323 38707 40608 57004 70272
86070=
44224 32998 20000 11289 21313 38113 40618 57004 80004=
44229 32999 70000 11215 21247 37975 40497 58016 85017=
44242 329// 03201 11287 21312 39441 40471 57002 333
91201=
44243 329// 00000 11322 21358 39536 40498 58003 333
91203=
44254 329// 20000 11235 21256 39122 40450 58001 80004
333 91201=
44257 329// 70000 11252 21282 39061 40450 58004 80008
333 91200=
44263 32998 00000 11242 21297 38118 40551 56003=
44266 329// 03407 11165 21270 37800 40403 57002 333
91208=
44286 329// 01802 11200 21254 38719 40452 57003 333
91205=
44291 319// 02301 11327 21365 38825 40570 58003 70400=
44325 329// 00000 11195 21253 38951 40468 58008 333
91200=
44329 32998 03602 11181 21325 37807 40152 58015 333
91205=
44338 32999 21601 11223 21278 38552 40514 57010 80004
333 91203=
44348 329// 00000 11163 21204 38786 40447 57008=
44374 32999 02003 11135 21268 38333 40453 52012 333
91204=
44385 32999 02703 11119 21228 39026 40428 58012 333
91203=
44386 329// 03203 11184 21265 39159 40464 57007=
0000042900
720
UDAC02 EGRR 111824
AMDAR 1117
LVR EU0230   6657N 01908W 111745 F340 MS575 124/060 TB/ S031=
LVR EU0230   6703N 02139W 111752 F340 MS580 131/055 TB/ S031=
LVR EU0230   6705N 02409W 111759 F340 MS585 132/056 TB/ S031=
LVR EU0230   6705N 02638W 111806 F340 MS585 137/056 TB/ S031=
LVR EU0230   6703N 02904W 111813 F340 MS585 139/048 TB/ S031=
LVR EU0230   6703N 03128W 111820 F340 MS587 148/045 TB/ S031=
0000014600
721
SMVX01 EDZW 111800
BBXX
DBBH 11181 99173 30115 41998 21710 10191 20175 40140 52015
70300 80005 22261 04187 20402 320// 41003 =
0000068500
722
UDEU02 EGRR 111824
AMDAR 1118
DES EU0164   6333N 02032E 111816 F048 MS140 067/029 TB/ S031=
DES EU0164   6335N 02034E 111816 F045 MS140 058/030 TB/ S031=
DES EU0164   6337N 02035E 111817 F042 MS140 052/030 TB/ S031=
UNS EU0164   6339N 02034E 111818 F036 MS140 066/032 TB/ S031=
DES EU0164   6341N 02031E 111818 F029 MS140 069/031 TB/ S031=
DES EU0164   6342N 02027E 111819 F024 MS130 066/032 TB/ S031=
DES EU0164   6344N 02025E 111820 F018 MS120 056/033 TB/ S031=
DES EU0164   6345N 02022E 111820 F013 MS110 041/033 TB/ S031=
DES EU0164   6346N 02021E 111821 F008 MS110 021/025 TB/ S031=
DES EU0164   6347N 02019E 111822 F004 MS110 017/017 TB/ S031=
0000190500
723
UDEU02 EGRR 111824 RRA
AMDAR 1118
ASC EU7008   3551N 01431E 111800 F008 PS140 206/007 TB/ S031=
ASC EU7008   3551N 01430E 111800 F014 PS127 223/007 TB/ S031=
ASC EU7008   3551N 01429E 111800 F018 PS127 211/007 TB/ S031=
ASC EU7008   3551N 01428E 111800 F023 PS127 211/013 TB/ S031=
ASC EU7008   3551N 01427E 111800 F030 PS115 218/014 TB/ S031=
ASC EU7008   3551N 01426E 111800 F038 PS095 207/015 TB/ S031=
ASC EU7008   3551N 01425E 111800 F048 PS085 227/015 TB/ S031=
ASC EU7008   3551N 01424E 111800 F062 PS090 259/014 TB/ S031=
ASC EU7008   3551N 01423E 111800 F073 PS072 258/013 TB/ S031=
ASC EU7008   3551N 01421E 111800 F094 PS030 286/016 TB/ S031=
ASC EU7008   3553N 01419E 111801 F111 PS000 270/019 TB/ S031=
ASC EU7008   3556N 01416E 111801 F123 MS025 292/018 TB/ S031=
ASC EU7008   3559N 01414E 111801 F141 MS072 271/019 TB/ S031=
ASC EU7008   3602N 01411E 111802 F157 MS120 263/020 TB/ S031=
ASC EU7008   3606N 01408E 111802 F174 MS157 259/021 TB/ S031=
ASC EU7008   3609N 01405E 111802 F191 MS180 269/030 TB/ S031=
ASC EU7008   3612N 01402E 111803 F205 MS222 265/031 TB/ S031=
ASC EU7008   3616N 01400E 111803 F218 MS260 268/027 TB/ S031=
ASC EU7008   3619N 01357E 111803 F231 MS295 259/034 TB/ S031=
ASC EU7008   3623N 01354E 111804 F242 MS312 247/044 TB/ S031=
ASC EU7008   3627N 01350E 111804 F252 MS337 247/040 TB/ S031=
ASC EU7008   3630N 01347E 111804 F263 MS367 250/041 TB/ S031=
ASC EU7008   3634N 01344E 111805 F273 MS392 249/041 TB/ S031=
ASC EU7008   3638N 01341E 111805 F283 MS420 250/036 TB/ S031=
ASC EU7008   3642N 01337E 111805 F291 MS442 248/037 TB/ S031=
ASC EU7008   3646N 01334E 111806 F300 MS467 246/038 TB/ S031=
ASC EU7008   3650N 01330E 111806 F307 MS490 245/038 TB/ S031=
ASC EU7008   3654N 01327E 111806 F314 MS507 242/037 TB/ S031=
ASC EU7008   3658N 01323E 111807 F322 MS527 238/037 TB/ S031=
0000040500
724
SMVD15 KWNB 111800 RRM
BBXX
44100 11181 99363 70756 46/// ///// 1//// 91804 22200 00091 10904
20904 312// 41101 70020=
44095 11181 99358 70753 46/// ///// 1//// 91817 22200 00107 10805
20805 312// 41101 70025=
41115 11181 99184 70673 46/// ///// 1//// 91811 22200 10802 20802
301// 41101 70011=
41113 11181 99284 70805 46/// ///// 1//// 91810 22200 00184 10602
20602 70010=
0000190100
725
UDEU02 EGRR 111825
AMDAR 1118
ASC EU0530   5504N 00140W 111804 F013 PS012 268/027 TB/ S031=
ASC EU0530   5503N 00141W 111804 F021 PS000 282/026 TB/ S031=
ASC EU0530   5501N 00142W 111804 F025 MS002 288/026 TB/ S031=
ASC EU0530   5500N 00143W 111804 F032 MS007 290/029 TB/ S031=
ASC EU0530   5458N 00145W 111804 F040 MS027 292/028 TB/ S031=
ASC EU0530   5457N 00146W 111804 F050 MS045 294/028 TB/ S031=
ASC EU0530   5456N 00147W 111804 F062 MS065 304/025 TB/ S031=
ASC EU0530   5454N 00148W 111804 F069 MS085 301/029 TB/ S031=
ASC EU0530   5453N 00149W 111804 F079 MS085 303/040 TB/ S031=
ASC EU0530   5451N 00151W 111804 F100 MS115 307/049 TB/ S031=
ASC EU0530   5448N 00152W 111805 F126 MS162 294/048 TB/ S031=
ASC EU0530   5444N 00154W 111805 F145 MS202 306/047 TB/ S031=
ASC EU0530   5440N 00155W 111805 F166 MS245 299/049 TB/ S031=
ASC EU0530   5436N 00157W 111806 F187 MS297 294/055 TB/ S031=
ASC EU0530   5432N 00158W 111806 F205 MS322 292/060 TB/ S031=
ASC EU0530   5428N 00200W 111806 F219 MS352 292/066 TB/ S031=
ASC EU0530   5423N 00200W 111807 F233 MS382 284/075 TB/ S031=
ASC EU0530   5419N 00200W 111807 F247 MS415 288/080 TB/ S031=
ASC EU0530   5414N 00200W 111807 F259 MS440 290/080 TB/ S031=
ASC EU0530   5409N 00200W 111808 F270 MS470 292/078 TB/ S031=
ASC EU0530   5405N 00201W 111808 F281 MS500 294/076 TB/ S031=
ASC EU0530   5400N 00202W 111808 F290 MS522 295/078 TB/ S031=
ASC EU0530   5355N 00204W 111809 F290 MS525 296/074 TB/ S031=
ASC EU0530   5350N 00205W 111809 F293 MS530 297/075 TB/ S031=
ASC EU0530   5345N 00208W 111809 F310 MS572 297/074 TB/ S031=
ASC EU0530   5341N 00211W 111810 F319 MS587 300/079 TB/ S031=
ASC EU0530   5336N 00214W 111810 F328 MS607 302/079 TB/ S031=
ASC EU0530   5332N 00217W 111810 F339 MS627 299/081 TB/ S031=
ASC EU0530   5327N 00220W 111811 F340 MS632 299/082 TB/ S031=
00000000