0000066100
040
SMMG01 FMMD 111800
AAXX 11184
67002 32580 30402 10276 20248 30094 40129 81800
  333 10330 58001 81822 924/7=
67009 NIL=
67012 NIL=
67027 11458 82806 10284 20257 30100 40121 52024 69914 79596 8693/
  333 10325 81817 83917 85640 94979 95874
  555 82360=
67073 NIL=
67083 31470 50812 10206 20177 38776 48550 52021 71322 85900
  333 10298 82817 81917 84620 94966 95836=
67085 NIL=
67095 11465 71202 10272 20245 30154 40160 52023 69902 72162 8693/
  333 10328 81917 82817 85633 94967 95837=
67137 NIL=
67143 NIL=
67161 NIL=
67197 11460 70000 10255 20248 30147 40157 53010 60072 71562 878//
  333 10300 83816 85633=
0000003800
041
UKDL01 EDZW 111800
NIL
0000080800
042
UKDL02 EDZW 111800
TTBB ///// 10113 NIL=
TTBB ///// 10184 NIL=
TTBB 11178 10393
00996 05237 11949 02826 22926 02858 33870 00956 44839
03120 55823 03302 66733 08108 77615 17302 88606 17923
99605 17956 11604 18156 22597 17172 33589 16370 44505
26166 55492 27182 66430 33162 77380 40559 88343 46361
99303 51160 11271 53166 22217 55371 33162 50984 44133
51583 55104 56981 66100 55981
21212 00996 22005 11953 24018 22919 25513 33882 27014
44721 27520 55669 28017 66552 26528 77477 26526 88432
26035 99333 26037 11274 25542 22246 24535 33204 27527
44178 28021 55172 26520 66157 28518 77151 28022 88146
29521 99141 28019 11125 29512 22108 28516 33104 30018
44100 28520
31313 48008 81646
41414 4575/
51515 11880 27014 22800 27016 33600 26522=
TTBB ///// 10548 NIL=
0000026100
043
SMVE11 RJTD 111800
BBXX
2AKI4   11184 99106 30725
41398 62203 10272 20240 40115 52002 71398 81767
22254 00296 2//// 80250=
SHIP    11184 99349 51700
41497 41519 10205 20118 40130 52016 70111 82241
22243 04209 20304 31904 40704 50702=
0000048900
044
FKIO20 FMEE 111823
TC ADVISORY
DTG: 20140111/1800Z
TCAC: REUNION
TC:COLIN
NR:8
PSN: S1703  E07910
MOV: SW 07 KT
C: 955 HPA
MAX WIND: 95 KT
FCST PSN +06HR: 12/0000Z S1741  E07831
FCST MAX WIND +06HR: 93 KT
FCST PSN +12HR: 12/0600Z S1823  E07745
FCST MAX WIND +12HR: 90 KT
FCST PSN +18HR: 12/1200Z S1908  E07646
FCST MAX WIND +18HR: 90 KT
FCST PSN +24HR: 12/1800Z S1948  E07548
FCST MAX WIND +24HR: 90 KT
RMK : NIL
NXT MSG: 20140112/0000Z=
0000011000
045
UANT01 CWAO 111820
ARP AFR006 4841N04806W 1820 F380 MS58 311/82 KT
FHPJA QXT AOW 111820 J29A
0000005600
046
UPGO01 FOOL 111700
PPAA 61171 64500 NIL=
0000011100
047
UANT01 CWAO 111820
ARP UAL111 5306N02307W 1820 F350 MS58 186/70 KT
N33103 DDL IG1 111820 F35A
0000011100
048
UANT01 CWAO 111821
ARP XLF1670 4656N03019W 1820 F380 MS47 247/30 KT
FGRSQ DDL XXN 111821 J76A
0000011000
049
UANT01 CWAO 111821
ARP UAL44 5558N03024W 1821 F370 MS58 196/45 KT
N19141 DDL IG1 111821 F96A
0000011100
050
UANT01 CWAO 111821
ARP AAL105 5209N03856W 1821 F380 MS56 272/46 KT
N761AJ DDL XXN 111821 F51A
0000011000
051
UANT01 CWAO 111822
ARP DLH464 4430N04857W 1822 F360 MS61 318/90 KT
DABVM QXT AME 111822 F26A
0000009600
052
SMAL53 EUMS 111800 RRA
AAXX 11184
60662 36/// /0000 10183 21127
  333 10226=
0000009600
053
SMAL52 EUMS 111800 RRA
AAXX 11184
60633 36/// /0608 10190 21040
  333 10237=
0000003800
054
USDL01 EDZW 111800
NIL
0000042600
055
USDL02 EDZW 111800
TTAA ///// 10113 NIL=
TTAA ///// 10184 NIL=
TTAA 11171 10393
99996 05237 22005 00082 ///// ///// 92715 02858 25514
85393 01928 27515 70914 10506 27518 50543 26573 26529
40701 37363 25533 30893 51161 25537 25011 52568 24536
20154 53577 27025 15340 51783 28522 10601 55981 28520
88271 53166 25541 88104 56981 30018
77274 25542 40610
31313 48008 81646=
TTAA ///// 10548 NIL=
0000026100
056
SMVX11 RJTD 111800
BBXX
2AKI4   11184 99106 30725
41398 62203 10272 20240 40115 52002 71398 81767
22254 00296 2//// 80250=
SHIP    11184 99349 51700
41497 41519 10205 20118 40130 52016 70111 82241
22243 04209 20304 31904 40704 50702=
0000187800
057
SMCI05 BABJ 111800
AAXX 11181
50353 33/// 93404 11260 21347 30049 40295 52003 333 11248=
50557 33/// 92201 11301 21364 39995 40338 52004 333 11251=
50756 33/// 92702 11293 21350 39993 40330 52011 333 11221=
50949 12/// 92903 11219 21276 30162 40349 52030 69931 333
11077=
50963 33/// 92705 11256 21316 30142 40294 52020 333 11168=
50978 33/// 93206 11191 21244 39882 40246 52002 333 11118=
51087 33/// 90000 11213 21240 39351 40406 57015 333 05803
11073=
51156 33/// 93201 11148 21218 38779 40375 57014 333 05501
11069=
51644 32/// 93601 11134 21164 39082 40433 57009 333 05200
11025=
51656 32/43 92901 11102 21152 39257 40426 57012 333 05200
11032=
51886 33/// 93202 11152 21285 37160 54000 333 00354 11043=
52602 33/// 92001 11206 21340 37321 57002 333 00356 11057=
52713 42/80 90701 11195 21267 36950 57004 333 00353 11076=
52754 42/70 93201 11169 21217 36811 57001 333 00201 11075=
52818 32/63 91801 11113 21244 37291 57006 333 00401 11033=
52836 32/80 91802 11142 21209 36938 57003 333 00302 11069=
52955 32/// 91602 11170 21229 37002 57002 333 00252 11049=
53068 42/80 93201 11181 21260 39191 40420 57003 333 00653
11069=
53276 32/// 92505 11178 21255 38977 40428 57003 333 11084=
54135 32/// 93403 11166 21301 30122 40361 52023 333 11032=
54236 33/// 93606 11118 21255 30240 40352 52023 333 11006=
54539 31/03 90701 11061 21076 30313 40326 52017 70040 333
10038=
54662 32/// 93405 11005 21046 30181 40299 52007 333 10046=
54753 32/25 92201 10009 21053 30299 40307 52002 333 10037=
54857 42/37 92702 10024 21039 30213 40311 52002 333 10049=
57067 42/// 90000 11029 21069 39661 40367 52006 333 10062=
57178 33/// 92002 10030 21001 30099 40326 57002 333 10088=
57245 32/// 91401 10020 20005 39997 40363 57001 333 00451
10060=
57297 32/36 91601 10034 21028 30176 40321 57005 333 10078=
0000019000
058
SMAL51 DAMM 111800 RRB
AAXX 11181
60373 36/// /0000 10170 20073
  333 10190=
60623 36/// /0080 1020+ 21204
  333 10255=
60393 36/// /0000 10171 20102
  333 10195=
0000044600
059
SXXX32 EUMS 111818
32D8A2BE
:PRS 1 /1 2157 2155 2149 2156 2154 2161 2152 2156 2150 2154 2155 2149 2156 2155 2151 2155 2145 2152 2150 2147 2148 2150 2145 2148 2145 2140 2150 2141 2142 2142 :RAD 1 /3 7740 7738 7733 7729 7735 7734 7734 7730 7728 7723 7719 7717 7715 7711 7710 7706 7702 7696 7692 7690 :ENC 3 /5 5159 5155 5155 5153 5149 5144 5140 5135 5133 5128 5119 5112 :SW1 18 /60 1 :SW2 48 /60 15 :BAT 14 /15 12.4 :NAME 32D8A2BE
00000000