0000012800
846
SMBZ01 SBBR 111200 RRC
AAXX 11124
82353 21496 82706 10248 20232 30023 40105 70352 8672/ 333 20226 58004 69924=
0000014200
847
SMAG01 SABM 111800 RRB
AAXX 11183
87178 11570 81607 10235 20187 30006 40151 53004 60271 70296 8557/
333 56559 85620 88360=
0000119600
848
SMVD15 KWNB 111800 RRP
BBXX
41036 11181 99342 70769 46/// /2013 10225 20207 40090 91820 22200
00210 333 91215 555 11139 22151 31754 42017 61819 198130 198133
198134 199132 198124 197122=
42361 11181 99276 70925 46/// /2711 10244 20206 40163 58006 91830
555 11086 22092=
42390 11181 99261 70949 46/// ///// 10272 20206 40176 58004 91830=
42364 11181 99291 70881 46/// /2517 10189 20167 40125 58024 91830=
41108 11181 99337 70780 46/// ///// 1//// 91829 22200 00119 10804
20804 70018=
42099 11181 99273 70843 46/// ///// 1//// 91822 22200 00222 10502
20502 70009=
41114 11181 99276 70802 46/// ///// 1//// 91825 22200 00239 10503
20503 306// 41401 70013=
41112 11181 99307 70813 46/// ///// 1//// 91822 22200 00116 10802
20802 70011=
44064 11181 99370 70760 46/// /2010 1//// 40045 91830 333 91214
555 11113 22123=
44062 11181 99386 70764 46/// /1809 10062 40018 91830 333 91210
555 11102 22110=
44063 11181 99390 70764 46/// /1907 10068 49997 91830 333 91207
555 11076 22083=
44041 11181 99372 70768 46/// /2106 10176 91830 333 91209 555
11073 22079=
44042 11181 99380 70763 46/// /1605 10092 40018 91830 333 91206
555 11060 22065=
0000042300
849
SMVD17 KWNB 111800 RRI
BBXX
52211 11181 99153 11457 46/// ///// 1//// 91818 22200 00281 10906
20905 301// 41102 70029=
52202 11181 99137 11448 46/// ///// 1//// 91830 22200 00282 10905
20905 306// 41102 70026=
51205 11181 99210 71564 46/// ///// 1//// 91821 22200 00249 11106
21004 336// 41104 70029=
46239 11181 99363 71221 46/// ///// 1//// 91829 22200 00133 11506
21004 331// 41505 70031=
0000172200
850
SMCN04 KWBC 111800
AAXX 11184
71067 17/// ///// 11045 21062 69941 7//4/ 333 11036 21109 70004=
71221 17/// /0506 11051 21055 60021 7//4/ 333 11051 21205 70022=
71226 17/// /0811 11066 21075 69951 7//4/ 333 11056 21121 70005=
71283 17/// /0314 11087 21099 69961 7//4/ 333 11058 21176 70012=
71359 15/// /1210 11069 21091 60001 333 11068 21142 70000=
71383 17/// /0912 11052 21060 39380 49986 58071 60021 7//4/ 333
11051 21123 70018=
71405 15/// ///// 11029 21054 60001 333 11029 21129 70000=
71445 17/// /2801 11070 21083 39715 49997 56005 69921 7//4/ 333
11070 21096 70027=
71461 17/// /0306 11064 21071 60011 7//4/ 333 11059 21167 70013=
71483 17/// /0505 11048 21053 60021 7//4/ 333 11046 21120 70024=
71500 15/// /1407 11022 21055 60001 333 11022 21063 70000=
71504 15/// ///// 11048 21068 60001 333 11022 21099 7////=
71520 45/// /1409 11059 21060 39324 49994 58056 6///1 333 11059
21125 7////=
71521 17/// ///// 11052 21060 60041 7//4/ 333 11052 21122 70036=
71523 45/// ///// 11037 21051 39569 49940 56073 6///1 333 11036
21085 7////=
71541 15/// /0910 11051 21062 60001 333 11048 21143 70000=
71546 17/// /3204 11072 21081 60011 7//4/ 333 11053 21148 70014=
71547 17/// /0608 11064 21071 60021 7//4/ 333 11050 21114 70015=
71549 15/// ///// 11043 21053 60001 333 11043 21112 70000=
71673 15/// ///// 11052 21066 60001 333 11031 21140 7////=
71690 17/// ///// 11065 21071 60031 7//4/ 333 11043 21137 70031=
71788 15/// /1917 10046 21002 60001 333 10058 21089 70000=
71792 45/// ///// 11050 21060 6///1 333 11050 21146 7////=
71888 15/// ///// 11036 21055 60001 333 11036 21135 70000=
71895 15/// ///// 11050 21066 60001 333 11028 21133 7////=
0000062800
851
SMVA01 KWBC 111800 RRD
BBXX
UCJP 11181 99015 50200 41/98 61613 10280 40118 54000 70322 8626/
 22242 20806 335// 40904 5//// 6////=
OVSB2 11180 99149 70177 41998 30109 10197 20155 40142 57012 70200
 80005 22244 04213 20303 336// 41204 5//// 80172=
ZQDI9 11183 99291 10327 41/98 20111 10192 20114 40254 53008 70100
 8//// 22234 04188 2//// 3//// 4//// 5//// 80149=
A8PS5 11184 99153 10581 41/97 40314 10240 20240 40170 51010 703//
 84762 22264 00250 20604 80240=
VRED4 11184 99345 30100 417// 32414 10190 2010/ 40220 57010 7//00
 83483 22223 0//// 2//01 315// 4//02 5//// 6//// 80140 ICE /////=
0000052200
852
SMVB01 KWBC 111800 RRD
BBXX
DGZR2 11184 99444 11504 41298 82840 11037 21126 40127 58023 72677
 8/7// 22214 2////=
MZFC6 11181 99088 10707 41597 20308 10281 20230 40127 54000 70500
 82100 22223 00283 20402 304// 40702 80246=
MCCN6 11184 99124 11011 41/98 30000 10268 20236 40145 57008 70500
 8//// 22200 00297 2//// 80246=
AMOHK01 1118/ 99221 11143 46/// ///// 10159 20137 40233=
DIGX2 11184 99180 11117 41698 50620 10230 20201 40210 56020 70211
 8446/ 22254 04240 20807 309// 41006 80210=
0000031800
853
SMVC01 KWBC 111800 RRC
BBXX
C6NZ3 11180 99231 51150 41498 51007 10252 20206 40191 51009 70211
 83371 22273 04250 20502 80220=
AMOUK20 1118/ 99542 50367 46/// ///// 10037 20021 49899=
VRKJ7 11183 99165 50363 41598 51011 10275 20222 40154 57011 70322
 83105 22254 00300 20202 306// 40603 80239=
0000372100
854
SMVD01 KWBC 111800 RRL
BBXX
46036 11181 99484 71339 46/// /3117 10086 49979 52116 22200 00091
 11515 70076 333 91223=
44258 11181 99445 70634 46/// /1708 10032 40174 57062 22200 00019
 10402 70009 333 91210=
41052 11181 99183 70648 46/// /0809 10265 40169 91750 333 91211
 555 11096 22104=
41052 11181 99183 70648 46/// /0908 10265 40170 91740 333 91210
 555 11087 22095=
41052 11181 99183 70648 46/// /0808 10265 40167 57028 91800 22200
 00267 10803 70016 333 91210 555 11088 22096=
WDC8583 11184 99554 71321 42/98 83430 1//// 2//// 49940 5////
 7//// 8//// 222// 0//// 2//02 3//// 4//// 6////=
46146 11181 99493 71237 46/// /1413 10078 49900 57011 22200 00071
 10401 70007 333 91216=
46004 11181 99509 71361 46/// /3214 10074 49980 52086 22200 00079
 11014 70071 333 91218=
WMLF 11184 99199 70492 41498 40521 10250 20175 40200 57007 7//11
 842// 22263 00250 20404 302// 41004 5//// 6//// 80200 ICE /////=
ZCDV9 11184 99381 70353 417987 53330 10120 40195 54000 70111 85443
 22214 04190=
46183 11181 99536 71311 46/// /3109 10043 49867 52047 22200 00073
 11003 70017 333 91210=
46181 11181 99538 71288 46/// /2305 1//// 49848 52025 22200 00037
 10300 70002 333 91206=
46184 11181 99539 71389 46/// /2910 10051 49956 52023 22200 00072
 11006 70032 333 91212=
46092 11181 99368 71220 46/// /0704 10103 91811 22200 00122 555
 11041 22046=
41009 11181 99285 70802 46/// /1909 10243 20210 40155 91820 22200
 00241 333 91211 555 11099 22106 31749 41811 61819 189093 189093
 188096 188093 190086 193088=
42365 11181 99282 70891 46/// /1102 10231 20197 91830 555 11014
 22015=
46088 11181 99483 71232 46/// /1309 10079 20043 49909 91820 22200
 00074 10301 20301 70007 333 91211 555 11097 22104 31757 41613
 61819 134091 139094 150098 147092 150099 151083=
46126 11181 99540 71666 46/// /2406 10045 49798 91812 22200 00048
 10301 70004 333 91209 555 11067 22073=
46126 11181 99540 71666 46/// /2206 10045 49798 91810 22200 00048
 10301 70004 333 91210 555 11066 22072=
46126 11181 99540 71666 46/// /2406 10048 49800 91815 22200 00048
 10301 70004 333 91209 555 11067 22073=
46126 11181 99540 71666 46/// /2206 10045 49798 91806 22200 00048
 10301 70004 333 91210 555 11066 22072=
DFCX2 11183 99096 70807 41398 60607 10284 20230 40122 58008 75011
 8476/ 22262 00285 20301 304// 40404 80245=
ZCDN9 11183 99186 70511 41398 60718 10255 20101 40183 56018 70322
 85740 22253 00256 20201 399// 4//// 5////=
DDZJ2 11184 99558 71384 41598 53030 10050 20028 49920 56/// 70011
 84466 22275 04040 21012 3//// 4//// 5//// 80040=
DDSC2 11184 99204 70665 41498 63533 10260 20232 40200 50/// 70222
 8/143 22255 04260 20707 80240=
DANR 11183 99516 71437 41298 82412 10050 20039 40010 56010 70222
 8772/ 22223 20402 307// 41204 80045=
LAVD4 11183 99235 71121 415// 13107 10230 2017/ 40206 52024 7////
 816// 22273 0//// 20200 33220 40301 50301 6//// 80190=
46132 11181 99497 71279 46/// /1906 10078 49828 52016 22200 00075
 11008 70042 333 91208=
46206 11181 99488 71260 46/// /2010 10087 49859 5//// 22200 00078
 11012 70059 333 91220=
46205 11181 99542 71343 46/// /3213 10056 49895 52045 22200 00073
 10706 70032 333 91216=
WPGK 11184 99372 70741 41397 81737 10189 20172 40070 56032 74244
 886// 22234 00161 2//// 3//// 4//// 5//// 6//// 80178 ICE /////=
46185 11181 99524 71298 46/// /3403 10064 49854 52034 22200 00073
 1//// 70/// 333 91204=
44042 11181 99380 70763 46/// /1606 10088 40025 91820 333 91207
 555 11065 22070=
44063 11181 99390 70764 46/// /1907 10076 40001 91820 333 91208
 555 11080 22087=
44041 11181 99372 70768 46/// /2206 10173 91820 333 91208 555
 11068 22074=
0000055400
855
SMVD01 KWBC 111800 RRM
BBXX
44064 11181 99370 70760 46/// /2009 1//// 40047 91820 333 91213
 555 11105 22114=
44062 11181 99386 70764 46/// /1709 10063 40021 91820 333 91211
 555 11103 22112=
46087 11181 99485 71247 46/// /2114 10088 20061 49892 91820 22200
 00077 333 91216 555 11150 22161 31819 42319 61819 212138 218146
 214154 201151 205121 228121=
44059 11181 99368 70763 46/// /2207 10213 40041 91820 333 91212
 555 11083 22090=
44058 11181 99376 70763 46/// /1605 10083 40040 91820 333 91206
 555 11054 22059=
0000010200
856
SMVD11 KWBC 111800 RRD
BBXX
AMOUK17 1118/ 99134 70914 46/// ///// 10291 20239 40134=
0000044700
857
SMVE01 KWBC 111800 RRD
BBXX
ZMKA 11183 99418 31753 41599 13135 10169 20118 40069 57030 70200
 81148 22253 20502 333// 40505 80141=
VNAH 11184 99383 31416 46/// /1909 10163 20121 30191 40215 57006
 22200 85138=
VROC 11183 99246 31544 41598 30912 10250 20191 40137 57/// 70200
 8214/ 22221 2//// 80210=
SHIP 11184 99332 31136 41997 11414 10212 20196 40115 57008 70200
 81005 22273 00208 10709 20601 31719 40603 50802=
0000050000
858
SMVF01 KWBC 111800 RRG
BBXX
PDHY 11183 99453 70114 41298 71122 10119 20086 40124 57021 70282
 8677/ 22253 00130 20406 32820 41010 50604 80101=
PFFH 11183 99318 10346 41/98 82810 10176 20133 40247 52003 7//22
 8//// 22200 00181 2//// 80150=
SDIA 11181 99656 10222 46/// /0106 11162 40136 52004 22201 00010=
SBPQ 11181 99656 10222 46/// /0104 11163 40133 52002 22203 00007=
PDXQ 11184 99465 70120 41297 81828 10120 20108 40111 57010 70722
 8/7// 22253 00145 2//06 80113=
0000035300
859
UDAF01 FAPR 111835
AMDAR 1118
DES AFZA09 0643N 00324E 111829 F032 PS227 094/006 TB0 S031 333 F/// VG000=
UNS AFZA09 0641N 00320E 111832 F022 PS247 153/003 TB0 S031 333 F/// VG000=
DES AFZA09 0639N 00320E 111833 F018 PS256 137/005 TB0 S031 333 F/// VG000=
DES AFZA09 0634N 00320E 111834 F004 PS280 187/005 TB0 S031 333 F/// VG000=
0000027600
860
UDAF01 FAPR 111836
AMDAR 1118
DES AFZA63 1904N 07302E 111831 F032 PS180 171/014 TB0 S031 333 F/// VG000=
DES AFZA63 1904N 07257E 111833 F018 PS190 066/009 TB0 S031 333 F/// VG000=
DES AFZA63 1904N 07253E 111835 F004 PS185 087/004 TB0 S031 333 F/// VG000=
0000066100
861
UDAF01 FAPR 111835
AMDAR 1118
DES AFZA09 0640N 00320E 111832 F021 PS252 109/005 TB0 S031 333 F/// VG000=
DES AFZA09 0639N 00320E 111833 F018 PS256 137/005 TB0 S031 333 F/// VG000=
DES AFZA09 0638N 00320E 111833 F015 PS255 142/006 TB0 S031 333 F/// VG000=
DES AFZA09 0637N 00320E 111833 F012 PS260 157/006 TB0 S031 333 F/// VG000=
DES AFZA09 0636N 00320E 111834 F009 PS265 165/006 TB0 S031 333 F/// VG000=
DES AFZA09 0635N 00320E 111834 F006 PS272 186/006 TB0 S031 333 F/// VG000=
DES AFZA09 0634N 00320E 111834 F004 PS280 187/005 TB0 S031 333 F/// VG000=
DES AFZA09 0633N 00320E 111835 F001 PS282 272/003 TB0 S031 333 F/// VG000=
0000066100
862
UDAF01 FAPR 111836
AMDAR 1118
DES AFZA63 1904N 07258E 111832 F021 PS185 075/007 TB0 S031 333 F/// VG000=
DES AFZA63 1904N 07257E 111833 F018 PS190 066/009 TB0 S031 333 F/// VG000=
DES AFZA63 1904N 07256E 111833 F015 PS192 056/012 TB0 S031 333 F/// VG000=
DES AFZA63 1904N 07255E 111834 F012 PS186 040/015 TB0 S031 333 F/// VG000=
DES AFZA63 1904N 07255E 111834 F009 PS184 032/014 TB0 S031 333 F/// VG000=
DES AFZA63 1904N 07254E 111834 F007 PS187 038/009 TB0 S031 333 F/// VG000=
DES AFZA63 1904N 07253E 111835 F004 PS185 087/004 TB0 S031 333 F/// VG000=
DES AFZA63 1904N 07252E 111835 F001 PS187 074/005 TB0 S031 333 F/// VG000=
0000050700
863
UDAF01 FAPR 111838
AMDAR 1118
LVR AFZA09 0001S 00500E 111730 F400 MS571 181/021 TB0 S031 333 F/// VG000=
LVR AFZA09 0056N 00453E 111738 F400 MS565 193/026 TB0 S031 333 F/// VG000=
LVR AFZA09 0153N 00446E 111745 F400 MS572 205/020 TB0 S031 333 F/// VG000=
LVR AFZA09 0250N 00439E 111752 F400 MS570 213/021 TB0 S031 333 F/// VG000=
LVR AFZA09 0346N 00433E 111759 F400 MS572 234/027 TB0 S031 333 F/// VG000=
LVR AFZA09 0441N 00425E 111806 F367 MS496 224/021 TB0 S031 333 F/// VG000=
0000372600
864
SMCI01 KWBC 111800
AAXX 11181
50548 32/65 90401 11297 21355 39949 40348 52001 333 11193=
50564 33/// 92904 11277 21344 40302 52003 333 11229=
51334 32/34 92502 11217 21251 40405 57016 333 05801 11165=
51818 32/// 92001 11103 21151 40417 57004 333 05153 10002=
52378 42/80 91806 11134 21223 40436 57010 333 00455 11039=
53487 32/// 93202 11137 21239 40395 52007 333 11004=
53502 42/80 92002 11134 21236 40436 57009 333 00400 11012=
53923 32/// 93202 11065 21215 40395 57001 333 10011=
54049 33/// 90000 11201 21229 40350 52027 333 11058=
54115 32/80 92201 11184 21250 40385 52009 333 11055=
54157 32/58 91603 11159 21202 40339 52029 333 11038=
54186 32/// 92904 11131 21207 40252 52005 333 11075=
54311 32/80 90401 11163 21235 40375 52015 333 11029=
54346 32/80 93403 11092 21212 40340 52036 333 10000=
54377 42/// 93602 11141 21182 40293 57001 333 11035=
54386 33/// 90000 11190 21238 40262 57013 333 11066=
54493 32/// 90701 11132 21152 39961 40301 52009 333 11020=
54715 42/// 93601 11011 21035 40322 52010 333 10061=
54929 42/22 90000 11010 21060 40319 52004 333 10066=
54945 33/// 93201 10003 21038 40317 52003 333 10055=
56065 32/// 92201 11163 21225 36634 54000 333 00251 11035=
57193 32/55 92201 10034 21036 30242 40309 57009 333 10091=
57290 32/57 92703 10060 21019 30178 40312 57010 333 10082=
51711 32/// 92702 11139 21179 38093 57004 333 05100 11052=
51730 32/49 92001 11157 21188 40443 57007 333 05100 11013=
52112 31/57 92901 11156 21237 40407 57011 70500 333 05453 11062=
52737 32/72 91401 11154 21222 37122 57003 333 00351 11055=
52787 32/80 91402 11170 21249 37055 57009 333 00302 11113=
53352 42/69 91802 11187 21268 40441 57008 333 11073=
53593 32/24 92902 11123 21216 40388 52010 333 10008=
53705 32/64 92702 11087 21205 40424 57003 333 00400 10004=
53863 42/56 92203 11020 21203 40361 52007 333 10051=
53975 42/72 93401 10021 21211 40341 52010 333 10069=
54273 32/63 92704 11125 21209 40289 52020 333 11051=
54324 33/// 90000 11080 21233 40357 52019 333 10008=
54405 42/80 92705 11071 21225 40376 52017 333 10016=
54436 32/80 90705 11042 21200 40334 52024 333 10028=
54808 42/22 93402 11008 21056 40317 52012 333 10078=
54826 32/57 92910 11066 21105 38516 52002 333 11023=
54836 42/19 90901 11025 21063 40322 52006 333 10053=
54863 31/35 92902 10000 21034 40303 52001 70500 333 10044=
56018 33/// 92501 11081 21230 36160 54000 333 00202 11033=
56021 33/// 92901 11140 21219 36058 52007 333 00101 11061=
57071 33/// 93203 10047 21152 40332 52013 333 10093=
50658 33/// 92903 11289 21359 40335 52009 333 11198=
50888 33/// 93203 11265 21320 40263 52008 333 11152=
50983 33/// 93205 11249 21303 40253 52011 333 11139=
51053 32/// 90904 11126 21186 40365 57015 333 05905 11091=
51542 32/// 90000 11373 21406 37606 57011 333 05551 11283=
52436 32/80 92202 11160 21254 38580 40433 57012 333 00055 11024=
52908 33/// 92502 11214 21246 35752 52003 333 00351 11108=
52996 32/80 93604 11137 21243 37629 57010 333 00454 11090=
53083 42/80 91801 11233 21272 38916 40426 54000 333 00551 11115=
53764 32/// 90000 11085 21175 39220 40392 52005 333 10014=
53787 42/73 90702 11079 21210 40351 52005 333 10048=
54096 33/// 92701 11185 21199 39492 40234 52001 333 11126=
54226 32/80 93403 11126 21237 40359 52017 333 11012=
54259 33/// 93203 11118 21239 40329 52030 333 11033=
54527 31/56 93604 11022 21120 30328 40334 52017 70540 333 10024=
54534 31/07 93401 11099 21111 40328 52017 70040 333 10034=
56671 33/// 91101 10050 21023 38225 52005 333 00200 10189=
57378 33/// 93601 10043 20015 30253 40337 52003 333 10062=
57426 31/16 91101 10051 20042 40330 57005 70040 333 00500 10073=
0000118400
865
SMCI01 KWBC 111800 RRA
AAXX 11181
57476 33/25 92901 10027 20009 30290 40332 57002 333 10058=
57584 31/58 92001 10043 20031 40335 54000 71000 333 10050=
57598 12/55 92502 10041 20034 40326 52001 60011 333 10047=
57655 32/// 90000 10042 20016 40345 57004 333 10050=
57776 41/80 9//// 11035 21040 40337 57003 74964 333 10012=
58321 33/// 90000 10045 20036 40319 57002 333 10054=
58437 12/// 92903 11028 21032 38194 57005 60011 333 11009=
58556 11/07 93601 10056 20055 40287 57005 60021 74640 333 10063=
58569 12/30 93606 10062 20059 40268 57015 60011 333 10080=
58646 11/17 90000 10075 20068 40278 57005 60021 71000 333 10101=
58715 12/// 93402 10052 20043 30205 40308 52006 60041 333 10086=
58730 12/66 92903 10082 20057 40271 52001 69991 333 10117=
58731 11/17 92201 10063 20053 40275 57003 60011 71000 333 10112=
58754 33/// 92901 10107 20078 40262 57009 333 10127=
58911 32/55 92702 10095 20059 40266 52006 333 10198=
58931 33/// 92903 10053 20053 38404 57006 333 10102=
59254 32/// 91401 10118 20092 40262 52003 333 10183=
59632 33/// 93403 10125 20093 40252 52004 333 10205=
59855 32/44 93401 10186 20176 40209 57007 333 10240=
00000000