0000211100
180
SNDL23 EDZW 111900
AAXX 11191
10609 42770 13302 10053 20034 39899 40234 51039 81500
  333 55300 20000 30000 81650=
10616 42180 12905 10026 20021 39615 40228 51038 81600
  333 55300 81702=
10641 45976 02704 10053 20027 30063 40212 53032
  333 55300=
10655 41568 53006 10055 20039 39869 40201 53026 72122 85500
  333 55300 20000 30000 85620=
10675 47543 72302 10045 20038 39902 40198 53017 75765
  333 55300 20000 30000 86/26 87/35=
10688 47350 72002 10031 20026 39656 40187 53006 71000
  333 55300 20000 30000 87/07 87/10=
10708 41362 82603 10056 20048 39843 40234 51030 72022 875//
  333 55300 20000 30000 82708 87610=
10729 47565 82603 10070 20051 30101 40224 53037 72365
  333 55300 20000 30000 82/21 87/33 88/45=
10731 41556 82304 10068 20057 30080 40225 53032 71022 875//
  333 55300 20000 30000 84625 86650=
10742 45459 72706 10068 20052 39883 40217 53025
  333 55300 20000 30000 87/13 87/19=
10776 47335 81602 10030 20027 39752 40205 53010 71000
  333 55300 20000 30000 82/07 88/12=
10791 41/00 92513 11012 21012 38517 48462 53005 77174
  333 55300 91118 91214 96049=
10805 42558 83501 10067 20060 30044 40237 53031 885//
  333 55300 20000 30000 81632 88637=
10815 47120 82809 10045 20043 39277 48508 53023 71000
  333 55300 20000 30000 88/01 91113=
10836 41/02 92807 10036 20035 39339 40219 53020 74764
  333 55300 20000 30000 89/02 96261=
10870 42568 82702 10068 20058 39667 40203 53013 885//
  333 55300 88628=
10895 41220 82102 10021 20020 39622 40204 51008 76166 8372/
  333 55300 20000 30000 83706 88526 96010=
10908 47001 82512 10012 20012 38520 48515 53011 75354
  333 55300 20000 30000 88/00 91116 91212=
10929 42762 82801 10060 20054 39693 40230 53010 875//
  333 55300 20000 30000 87650=
10948 47782 81602 10046 20038 39278 48516 53012 72365
  333 55300 20000 30000 81/50 88/56 88/66=
10961 41/01 92615 11065 21069 37083 47052 53002 77174
  333 55300 20000 41039 91124 91217 96049=
10962 41582 72408 10042 20027 39056 48498 51011 72162 83508
  333 55300 20000 30000 83622 83073 87276 91116=
0000135000
181
SNDL44 EDZW 111900
AAXX 11191
10022 47563 72709 10044 20014 30089 40099 51023 76165
  333 55300 20000 30000 85/32 87/57 87/58 91115 91211=
10028 41570 42814 10053 20014 30097 40111 51020 72711 84800
  333 55300 20000 30000 81830 91122 91215 96281 96280=
10033 NIL=
10037 NIL=
10038 NIL=
10042 47142 62809 10037 20017 30091 40095 51027 76265
  333 55300 83/01 86/58 86/65 91115=
10067 NIL=
10093 47071 73109 10035 20025 30005 40055 53003 76165
  333 55300 82/00 87/09 87/15 91118=
10097 47468 82613 10049 20038 30026 40040 56013 75176
  222// 06045
  333 55300 87/12 88/18 91117 91213=
10126 NIL=
10129 47960 02708 10052 20028 30126 40139 51028 72365
  333 55300 20000 30000 91115 91212=
10130 47575 32810 10058 20032 30111 40117 51023 72360
  333 55300 82/25 83/50 91114 91211=
10136 NIL=
10139 47581 12906 10050 20029 30121 40135 51029 72365
  333 55300 20000 30000 81/28=
10142 46550 62906 10044 20015 30086 40118 51029
  333 55300 83/25 86/56 86/60=
10146 47581 62705 10045 20025 30103 40120 51028 72360
  333 55300 84/26 86/32 86/56 91113=
10150 47588 32706 10043 20022 30070 40105 51028 72360
  333 55300 20000 30000 82/27 83/56=
10152 45982 02804 10042 20025 30094 40096 51028
  333 55300=
10156 45980 02605 10038 20022 30088 40109 51036
  333 55300 20000 30000=
0000160500
182
SNDL45 EDZW 111900
AAXX 11191
10161 45982 02609 10040 20020 30078 40098 51035
  333 55300 20000 30000=
10168 47483 82906 10039 20027 30016 40089 53025 72365
  333 55300 81/19 87/62 88/66=
10172 NIL=
10180 47588 72806 10043 20028 30064 40069 53018 72476
  333 55300 83/23 87/56 87/58 91116 91211=
10193 47470 82509 10051 20035 30056 40059 55008 75165
  333 55300 20000 30000 87/14 88/20 91115=
10210 47682 12708 10047 20024 30152 40161 51033 72365
  333 55300 20000 30000 81/48 91115=
10235 47981 02606 10040 20027 30047 40143 51034 72365
  333 55300 20000 30000=
10238 NIL=
10246 NIL=
10249 45581 32705 10044 20024 30061 40118 51038
  333 55300 20000 30000 82/25 83/66=
10253 45583 72706 10054 20030 30100 40122 51033
  333 55300 85/23 87/62 87/64=
10261 41581 82908 10054 20027 30088 40117 53029 72588 878//
  333 55300 20000 30000 85822 84643 91114 91211=
10267 47281 83006 10051 20032 30057 40106 53019 75165
  333 55300 82/05 88/48 88/58 91116=
10268 46/// /2904 10036 20021 30000 40088 53019
  333 55300 91113=
10281 464// 72910 10039 20023 39966 40080 53010
  333 55300 20000 30000 87/16 87/21 91119 91212=
10282 47358 72808 10043 20034 39939 40082 53004 76166
  333 55300 20000 30000 84/08 87/13 87/22 91113=
10289 47/60 /2408 10047 20035 30003 40073 55006 76265
  333 55300=
10304 NIL=
10305 42975 02503 10039 20022 30150 40183 51032
  333 55300=
10306 NIL=
10309 45972 02604 10040 20023 30137 40195 51032
  333 55300 20000 30000=
10312 45982 02705 10041 20026 30049 40178 51038
  333 55300 20000 30000=
0000196700
183
SNDL46 EDZW 111900
AAXX 11191
10321 42481 22708 10045 20027 30113 40166 51034 82500
  333 55300 20000 30000 81616=
10325 45480 72402 10036 20025 30011 40180 51043
  333 55300 84/13 87/17 87/36=
10334 NIL=
10335 NIL=
10343 NIL=
10348 47584 72906 10044 20018 30046 40154 51041 76165
  333 55300 20000 30000 41112 83/28 87/59 87/61 91114 91211=
10356 47788 72810 10041 20006 39941 40141 53031 72365
  333 55300 83/50 87/57 87/59 91116 91212=
10359 47480 72706 10048 20034 30074 40133 53030 72365
  333 55300 20000 30000 84/14 87/22 87/32=
10365 47/64 92907 10047 20034 30083 40130 53022 76265
  333 55300 20000 30000 91118=
10368 41369 82909 10042 20031 39891 40121 53013 76066 888//
  333 55300 20000 30000 85808 88615 91116=
10376 47457 72507 10052 20041 30039 40107 55006 76265
  333 55300 85/15 86/20 87/26=
10385 41464 82509 10051 20036 30038 40100 55008 76366 875//
  333 55300 20000 30000 87613 91113=
10396 47574 82305 10056 20034 30075 40091 56012 76165
  333 55300 83/23 87/29 88/34=
10404 NIL=
10410 45974 02503 10039 20021 30028 40214 51035
  333 55300=
10418 45472 82704 10032 20020 39733 40209 51037
  333 55300 20000 30000 87/12 87/18 88/33=
10424 45577 22504 10046 20026 30094 40201 51043
  333 55300 20000 30000 81/28=
10433 45383 72705 10034 20020 39854 40173 51045
  333 55300 20000 30000 87/09 87/14=
10435 47480 42807 10040 20020 39897 40188 51043 72250
  333 55300 81/15 84/34=
10441 45481 82905 10037 20013 39804 40193 53044
  333 55300 85/17 87/22 88/37=
10442 47483 72706 10043 20021 39991 40170 51045 72365
  333 55300 20000 30000 87/16 87/25=
10444 42580 63005 10042 20019 39971 40179 53044 86800
  333 55300 20000 30000 83820 84628=
10449 47488 82805 10033 20017 39742 40174 53040 72365
  333 55300 20000 30000 85/16 87/22 88/39 91113=
10452 47211 83005 10007 21000 39425 40161 53031 77376
  333 55300 20000 30000 81/05 87/18 88/38 91114=
0000182100
184
SNDL47 EDZW 111900
AAXX 11191
10454 47482 82806 10033 20011 39870 40165 51047 75165
  333 55300 83/16 87/38 88/50 91115=
10458 47268 43106 10018 20009 39659 40154 53029 75776
  333 55300 20000 30000 84/05 91117=
10460 41488 52810 10049 20021 39953 40156 53023 78086 85800
  333 55300 20000 30000 82818 85656 91117 91211=
10466 46/57 /2605 10061 20035 30023 40141 53015
  333 55300 20000 30000=
10471 47574 72405 10062 20029 39968 40137 53009 72365
  333 55300 20000 30000 41182 82/21 86/56 87/58=
10474 47049 72604 10053 20039 39994 40124 53006 76165
  333 55300 20000 30000 83/01 87/18 87/23=
10476 NIL=
10480 47480 72409 10054 20031 39939 40123 55004 76165
  333 55300 20000 30000 82/16 87/50 87/58 91114=
10490 47564 82406 10052 20035 30000 40120 55007 76265
  333 55300 20000 30000 87/25 88/37=
10495 47260 82509 10062 20023 39976 40118 55008 76260
  333 55300 83/06 87/58 88/62 91117=
10500 NIL=
10502 NIL=
10516 NIL=
10519 475// 62803 10049 20031 30021 40219 51035 7////
  333 55300 85/31 86/38=
10520 45574 23302 10057 20028 30124 40218 51040
  333 553// 82/24=
10526 45360 73204 10018 20010 39551 40215 53036
  333 55300 20000 30000 84/07 87/12 87/18=
10534 47000 12807 10011 20011 39308 40201 53032 73033
  333 55300 81/00=
10537 45579 12907 10041 20013 39771 40201 51040
  333 55300 81/23=
10540 47484 72807 10044 20018 39797 40180 53036 72365
  333 55300 20000 30000 83/17 87/43 87/61 91114=
10542 47470 52904 10046 20024 39860 40192 53042 72365
  333 55300 20000 30000 81/12 84/17 85/37=
10552 47001 82608 10003 20003 39060 48448 53020 77175
  333 55300 88/00 91114=
10557 41/12 82909 10005 20005 39164 48451 53015 72876 876//
  333 55300 20000 30000 837// 87701 91117 96010 96271 96269 96261
      96241 98157=
0000219100
185
SNDL48 EDZW 111900
AAXX 11191
10564 47467 72707 10029 20015 39561 40168 53012 72365
  333 55300 84/12 87/56 87/59 91113=
10565 47560 72606 10055 20029 39849 40148 53012 72365
  333 55300 84/21 87/27 87/40=
10569 47468 82405 10043 20022 39690 40161 53006 72365
  333 55300 20000 30000 84/15 87/32 88/56=
10574 47270 82706 10011 20002 39097 48442 55001 77170
  333 55300 87/05 88/34 91114=
10577 47233 82511 10035 20019 39644 40153 53004 76260
  333 55300 20000 30000 81/05 87/27 88/56 91116 91212=
10579 47/87 /2506 10036 21000 39384 40148 55002 72365
  333 55300=
10582 47488 72508 10014 21006 39099 48427 55005 72470
  333 55300 20000 30000 83/14 86/50 87/57 91114=
10591 45668 71603 10039 20005 39751 40140 55007
  333 55300 82/34 83/56 87/60=
10613 NIL=
10615 45361 72904 10035 20024 39642 40228 51037
  333 55300 20000 30000 84/08 86/15 87/23=
10618 NIL=
10628 45675 22702 10057 20024 30082 40220 53038
  333 55300 82/34=
10635 47/01 /3106 10004 20004 39213 48469 51030 73033
  333 55300 20000 30000 91113=
10646 47862 22605 10042 20034 39791 40207 53032 72365
  333 55300 82/57=
10648 47260 72906 10043 20036 39664 40216 53038 72365
  333 55300 20000 30000 87/05 87/09 87/13=
10658 47474 12805 10049 20034 39850 40195 53029 72365
  333 55300 81/18=
10671 47346 72805 10024 20019 39766 40190 53015 72365
  333 55300 20000 30000 87/07 87/11 87/23=
10686 47250 72508 10031 20019 39423 40170 53001 76265
  333 55300 85/05 87/50 87/57 91115=
10704 47350 72504 10050 20048 39789 40232 53031 71000
  333 55300 20000 30000 87/09 87/15=
10706 47214 82502 10043 20043 39760 40232 53031 72250
  333 55300 87/05 88/19=
10724 47160 82708 10039 20039 39549 40223 53034 72365
  333 55300 20000 30000 86/02 87/06 88/09=
10733 47356 72704 10057 20047 39928 40222 53032 72365
  333 55300 20000 30000 81/08 86/35 87/42=
10736 45458 82505 10072 20054 39926 40223 53025
  333 55300 82/11 87/49 88/56=
10739 45458 82805 10070 20056 39838 40223 53024
  333 55300 20000 30000 41200 82/13 83/37 88/50=
10743 NIL=
10747 47133 82606 10050 20047 39625 40216 53022 71000
  333 55300 20000 30000 88/02=
0000170000
186
SNDL49 EDZW 111900
AAXX 11191
10756 47250 82605 10052 20045 39633 40208 53018 72250
  333 55300 20000 30000 88/04=
10761 45361 82504 10055 20044 39698 40210 53019
  333 55300 20000 88/09=
10765 46/// /2605 10058 20049 39724 40202 53015=
10771 NIL=
10777 47350 72603 10041 20038 39559 40207 53014 71000
  333 55300 86/07 87/11=
10782 47247 72503 10031 20025 39588 40193 53007 71000
  333 55300 20000 30000 87/06=
10796 47246 81901 10023 20022 39452 40194 51007 72365
  333 4/002 55300 87/06 88/09=
10803 45763 72304 10092 20063 39943 40231 53018
  333 55300 20000 30000 87/50=
10818 47356 42307 10039 20038 39083 48511 53016 71000
  333 55300 20000 30000 82/08 83/14=
10827 46/// /2505 10049 20037 39128 48511 53015
  333 55300 20000 30000=
10837 NIL=
10838 46460 82303 10041 20034 39537 40225 53021
  333 55300 85/18 87/24 88/29=
10850 47350 82803 10048 20048 39607 40214 53018 71000
  333 55300 87/09 88/13=
10853 NIL=
10856 NIL=
10857 NIL=
10860 NIL=
10863 45559 82607 10064 20057 39629 40204 53012
  333 55300 20000 30000 41227 88/27 88/56=
10865 47570 82605 10077 20054 39576 40202 51013 72365
  333 55300 83/32 87/50 88/57=
10872 47414 72301 10025 20024 39776 40208 52008 72365
  333 55300 86/16 87/26=
10875 47609 73301 10026 20026 39710 40208 51006 73065
  333 55300 20000 30000 86/38 87/56 87/59=
10945 47656 72105 10052 20040 39421 40224 53008 72365
  333 55300 85/48 87/50 87/66=
10954 NIL=
10963 47843 82002 10035 20033 39360 40220 53007 72365
  333 4/001 55300 20000 30000 86/58 88/66 88/77=
10982 47661 82303 10072 20043 39547 40205 53011 75765
  333 55300 20000 30000 81/37 86/45 88/50=
0000050000
187
SNVD20 KWNB 111900 RRD
BBXX
44065 11191 99404 70737 46/// /2109 10102 40017 56074 91850 22200
00059 333 91214 555 11103 22117 31832 41914 61849 208095 188119
174112 167101 165096 166103=
44007 11191 99435 70701 46/// /1812 10088 20086 40037 57073 91850
22200 00047 10604 20604 70021 333 91215 555 11127 22141 31847
41815 61849 178115 176113 178112 180111 182106 185104=
44040 11191 99410 70736 46/// /1809 10122 20122 91845 22200 10301
70006 333 91213 555 11113 22139=
0000027500
188
SXHW11 KWAL 111902
15D142A4 011190202":PRS 1 #1 1286 1283 1286 1281 1295 1295 1283 1288 1290 1286 :RAD 1 #1 6872 6873 6873 6874 6877 6877 6872 6875 6876 6872 :ENC 2 #5 4778 4776 4778 4776 :SW1 2 #60 0 :SW2 32 #60 37 :BAT 4 #5 13.3 :NAME 15D142A4  34+0NN 216W
0000011800
189
SNVD25 LFPW 111900
BBXX
BATFR43 11194 99058 70842 46/// /2804 10279 20244 40104 58026
22264 04287=
0000011200
190
SNVD25 LFPW 111900
BBXX
BATFR18 11194 99142 70455 46/// /0920 10245 40154 55005
22213 04257=
0000011800
191
SNVD25 LFPW 111900
BBXX
BATEU06 11194 99465 70521 46/// /2518 10022 21025 40220 56012
22224 04009=
0000011800
192
SNVD25 LFPW 111900
BBXX
BATEU01 11194 99476 70596 46/// /1411 10019 21036 40188 56025
22274 04007=
0000008300
193
UPIN90 VAPO 111800

PPAA 61181 43063 55292 29003 18518 77999 =

0000008900
194
UGIN90 VAPO 111800
PPBB 61181 43063 90023 00000 18502 23505 907// 17524 =
0000011800
195
SNVD25 LFPW 111900
BBXX
BATFR19 11194 99162 70608 46/// /0920 10259 20194 40157 56016
22222 04269=
0000011800
196
SNVE25 LFPW 111900
BBXX
BATFR28 11194 99013 11033 46/// /0118 10255 20222 40101 58017
22273 04285=
0000011000
197
UANT99 KDDL 111900
ARP AZA650 4905N02852W 1900 F380 MS48 233/33 KT
EIEJG QXT AOE 111901 J11A
0000028400
198
SXHW11 KWAL 111902
B15997E8 011190233"
1,140111,18:00:03,2.6,332,3.6,21.5,1013.5,0.05,13.2,
1,140111,18:15:02,2.3,321,3.6,22.4,1013.6,0.05,13.3,
1,140111,18:30:02,2.3,6,3.9,23.1,1013.7,0.05,13.6,
1,140111,18:45:02,2.8,19,5.5,23.6,1013.8,0.05,13.7, 46+0NN  30W
0000216900
199
SZNZ01 NZKL 111903
CREX++
T000103 A001 D01021 D06025++
-3683144 17478654 AUCT  2014 01 11 18 55 //// 11 07 00 01
05257 3201 05251 3203 05245 3204 05238 3204 05231 3205 05224 3206+
-4402404 -17636748 CHIT  2014 01 11 18 55 //// 11 07 00 01
04310 1906 04291 1888 04304 1902 04336 1936 04332 1934 04317 1921+
-4089929 17623168 CPIT  2014 01 11 18 55 //// 11 07 00 01
03440 2314 03433 2310 03430 2311 03430 2314 03429 2317 03420 2310+
-3618905 17548887 GBIT  2014 01 11 18 55 //// 11 07 00 01
05788 0001 05776 -0005 05763 -0013 05763 -0008 05764 -0001 05767 0006+
-3867541 17802288 GIST  2014 01 11 18 55 //// 11 07 00 01
03716 2777 03710 2775 03704 2773 03708 2781 03690 2767 03687 2768+
-4241288 17370277 KAIT  2014 01 11 18 55 //// 11 07 00 01
02807 2252 02785 2232 02767 2217 02780 2233 02772 2228 02777 2235+
-3755040 17815904 LOTT  2014 01 11 18 55 //// 11 07 00 01
03353 0211 03350 0213 03331 0198 03332 0204 03326 0203 03323 0204+
-3704657 17451175 MNKT  2014 01 11 18 55 //// 11 07 00 01
03525 -0115 03535 -0106 03526 -0116 03531 -0111 03539 -0104 03553 -0090+
-3947566 17692007 NAPT  2014 01 11 18 55 //// 11 07 00 01
02600 2059 02592 2055 02581 2048 02594 2065 02585 2060 02576 2055+
-3441483 17304870 NCPT  2014 01 11 18 55 //// 11 07 00 01
-04388 -9040 -04364 -9012 -04364 -9008 -04381 -9019 -04389 -9023 -04394 -9023+
-4581435 17062939 OTAT  2014 01 11 18 55 //// 11 07 00 01
03900 3509 03904 3513 03908 3517 03911 3520 03913 3522 03913 3521+
-2928002 -17789440 RBCT  2014 01 11 18 55 //// 11 07 00 01
06000 2054 05980 2038 05979 2040 05968 2032 05968 2035 05976 2046+
-2925114 -17790384 RFRT  2014 01 11 18 55 //// 11 07 00 01
02882 0150 02902 0173 02880 0154 02889 0167 02889 0170 02885 0170+
-4357010 17277383 SUMT  2014 01 11 18 55 //// 11 07 00 01
01220 1805 01233 1821 01208 1798 01222 1815 01195 1790 01232 1830+
-3764109 17618118 TAUT  2014 01 11 18 55 //// 11 07 00 01
05078 3988 05075 3990 05071 3990 05064 3989 05061 3991 05057 3992+
-4128448 17477985 WLGT  2014 01 11 18 55 //// 11 07 00 01
02717 2067 02706 2058 02716 2070 02712 2068 02720 2078 02722 2082++
7777
00000000