0000011100
766
UANT01 CWAO 111833
ARP UAL925 5407N02345W 1833 F370 MS58 185/60 KT
N228UA DDL XXN 111833 F24A
0000328400
767
SSVX02 KARS 111830
ZZYY 32549 11014 1822/ 709783 144614 6112/
22219 00261
444 20120 11014 1600/ 50101 80102 80017 9/015=
ZZYY 46538 11014 1800/ 732503 122053 6113/
22219 00140
444 2013/ 11014 1414/ 50101 80090 80019 9/015=
ZZYY 46909 11014 1800/ 733872 140330 6113/
22219 00186
444 20130 11014 1552/ 50101 80108 80008 9/015=
ZZYY 32706 11014 1800/ 706602 110152 6113/
22219 00273
444 20130 11014 1719/ 50101 80118 80007 9/015=
ZZYY 46620 11014 1700/ 734268 121747 6111/
22219 00138
444 2011/ 11014 1632/ 50101 80091 80022 9/015=
ZZYY 46580 11014 1800/ 734399 120524 6112/
22219 00146
444 2012/ 11014 1812/ 50101 80091 80019 9/015=
ZZYY 46580 11014 1700/ 734399 120524 6112/
22219 00146
444 2012/ 11014 1812/ 50101 80091 80019 9/015=
ZZYY 46624 11014 1700/ 731917 117618 6113/
22219 00158
444 2013/ 11014 1713/ 50101 80092 80016 9/015=
ZZYY 46563 11014 1700/ 732624 122703 6112/
22219 00136
444 2012/ 11014 1633/ 50101 80090 80029 9/015=
ZZYY 51662 11014 1821/ 712958 142773 6111/
22219 00252
444 20110 11014 1559/ 50101 80108 80026 9/015=
ZZYY 51663 11014 1800/ 707734 137138 6111/
22219 00271
444 20110 11014 1414/ 50101 80119 80013 9/015=
ZZYY 46608 11014 1800/ 732770 120156 6113/
22219 00142
444 2013/ 11014 1813/ 50101 80091 80018 9/015=
ZZYY 51658 11014 1821/ 708327 140548 6113/
22219 00264
444 20130 11014 1542/ 50101 80117 80008 9/015=
ZZYY 51654 11014 1821/ 719708 135714 6111/
444 20110 11014 1816/ 50101 80104 80041 9/015=
ZZYY 32677 11014 1800/ 705227 108501 6113/
22219 00274
444 20130 11014 1623/ 50101 80104 80012 9/015=
ZZYY 51657 11014 1821/ 708877 154318 6111/
22219 00273
444 20110 11014 1721/ 50101 80104 80014 9/015=
ZZYY 32555 11014 1820/ 712446 110931 6112/
22219 00274
444 20120 11014 1719/ 50101 80102 80025 9/015=
ZZYY 32559 11014 1820/ 706925 112714 6111/
22219 00274
444 20110 11014 1719/ 50101 80102 80031 9/015=
ZZYY 32701 11014 1800/ 710403 112985 6111/
22219 00273
444 20110 11014 1718/ 50101 80118 80011 9/015=
ZZYY 51652 11014 1820/ 717349 151622 6111/
22219 00248
444 20110 11014 1727/ 50101 80104 80064 9/015=
ZZYY 32696 11014 1800/ 702339 112762 6113/
22219 00262
444 20130 11014 1403/ 50101 80110 80009 9/015=
ZZYY 43575 11014 1822/ 715816 132990 6112/
22219 00241
444 20120 11014 1719/ 50101 80102 80039 9/015=
ZZYY 51653 11014 1821/ 723354 145503 6111/
22219 00233
444 20110 11014 1814/ 50101 80102 80046 9/015=
ZZYY 32614 11014 1822/ 712457 110238 6111/
22219 00276
444 20110 11014 1634/ 50101 80104 80050 9/015=
ZZYY 46905 11014 1800/ 750021 141727 6111/
11119 30053 40053 52010
22219 00084
444 20110 11014 1806/ 50101 80100 80030 9/015=
ZZYY 51656 11014 1821/ 717102 146878 6112/
22219 00245
444 20120 11014 1557/ 50101 80102 80031 9/015=
ZZYY 46559 11014 1700/ 731022 119859 6113/
22219 00147
444 2013/ 11014 1813/ 50101 80092 80035 9/015=
ZZYY 46559 11014 1600/ 731023 119886 6113/
22219 00146
444 2013/ 11014 1413/ 50101 80092 80029 9/015=
ZZYY 43562 11014 1821/ 715290 131315 6111/
22219 00241
444 20110 11014 1816/ 50101 80102 80045 9/015=
ZZYY 43501 11014 1820/ 721288 141044 6111/
22219 00226
444 20110 11014 1816/ 50101 80100 80050 9/015=
0000003800
768
SMKZ21 UAAA 111800
NIL
0000014500
769
SMVF01 LFPW 111800 RRB
BBXX
PDXQ 11184 99465 70120 41297 81828 10120 20108 40111 57010 70722
8/7//
22253 00145 2//06 80113=
0000011100
770
SMVF01 ESWI 111800 RRB
BBXX
SDIA 11181 99656 10222 46/// /0106 11162 40136 52004 22201 00010=
0000011100
771
SMVF01 ESWI 111800 RRC
BBXX
SBPQ 11181 99656 10222 46/// /0104 11163 40133 52002 22203 00007=
0000013800
772
SMAL01 DAMM 111800 CCA
AAXX 11184
60402 12560 70000 10152 20119 40200 53007 60002 82232
  333 10218 82823 85359 95990=
0000035700
773
SMIN05 DEMS 111800
AAXX 11184
43086 NIL=
43128 NIL=
43150 NIL=
43185 NIL=
43189 NIL=
43198 NIL=
43201 NIL=
43213 NIL=
43226 NIL=
43233 NIL=
43237 NIL=
43245 NIL=
43279 NIL=
43284 NIL=
43295 NIL=
43311 NIL=
43314 NIL=
43321 NIL=
43329 NIL=
43344 NIL=
43346 NIL=
43353 NIL=
43369 NIL=
43371 NIL=
0000023000
774
UXIN90 VIDP 111200
TTAA 6112/ 42101 NO ASCENT DUE TO HQ INSTRUCTION=
TTAA 6112/ 42339 NO ASCENT DUE TO HQ INSTRUCTION=
TTAA 6112/ 42379 NO ASCENT DUE HQ ORDER=
TTAA 6112/ 42369 NO ASCENT DUE NO RS INSTRUMENT=
0000009900
775
SAIN90 VILK 111830
METAR VILK 111830Z VRB02KT 2000  BR BKN020 BKN100 14/13
Q1019=
0000022700
776
FCIN90 VILK 111800
TAF VILK 111800Z 1121/1206 VRB02KT 0800 MIFG SCT020 SCT100 BECMG
1123/1201 0150 FG VV/// TEMPO 1121/1200 0600 RA/TSRA FEW030CB BKN090
BECMG 1205/1206 07005KT 1000 MIFG/BR FEW020 SCT100=

0000286700
777
UDFR01 LFPW 111835
AMDAR 1118
ASC EU3689 4340N 00715E 111819 F014 PS095 /// 055/009 TB2 S031
333 F014 VG092=
ASC EU3689 4339N 00716E 111820 F018 PS085 /// 062/008 TB1 S031
333 F018 VG014=
UNS EU3689 4338N 00716E 111820 F021 PS075 /// 019/005 TB1 S031
333 F021 VG017=
UNS EU3689 4337N 00716E 111820 F028 PS062 /// 013/011 TB2 S031
333 F028 VG062=
UNS EU3689 4336N 00714E 111821 F040 PS032 /// 039/016 TB1 S031
333 F040 VG012=
ASC EU3689 4336N 00713E 111821 F054 PS052 /// 154/007 TB0 S031
333 F054 VG003=
UNS EU3689 4337N 00710E 111822 F075 PS022 /// 266/005 TB0 S031
333 F075 VG004=
ASC EU3689 4338N 00708E 111822 F082 PS010 /// 227/010 TB1 S031
333 F082 VG021=
ASC EU3689 4339N 00707E 111822 F091 MS012 /// 212/011 TB0 S031
333 F091 VG005=
ASC EU3689 4340N 00705E 111823 F103 MS042 /// 231/010 TB2 S031
333 F103 VG047=
ASC EU3689 4341N 00704E 111823 F110 MS062 /// 236/012 TB1 S031
333 F110 VG017=
ASC EU3689 4343N 00702E 111823 F118 MS082 /// 228/012 TB0 S031
333 F118 VG003=
ASC EU3689 4344N 00701E 111824 F129 MS107 /// 234/018 TB1 S031
333 F129 VG009=
ASC EU3689 4346N 00659E 111824 F141 MS127 /// 252/022 TB1 S031
333 F141 VG017=
ASC EU3689 4347N 00659E 111824 F153 MS150 /// 260/019 TB1 S031
333 F153 VG008=
ASC EU3689 4349N 00657E 111825 F162 MS170 /// 266/016 TB0 S031
333 F162 VG006=
ASC EU3689 4351N 00656E 111825 F171 MS187 /// 257/017 TB1 S031
333 F171 VG015=
ASC EU3689 4353N 00655E 111825 F180 MS202 /// 261/021 TB1 S031
333 F180 VG016=
ASC EU3689 4355N 00653E 111826 F189 MS230 /// 259/023 TB0 S031
333 F189 VG004=
ASC EU3689 4356N 00652E 111826 F199 MS245 /// 274/029 TB1 S031
333 F199 VG021=
ASC EU3689 4358N 00650E 111826 F210 MS270 /// 266/032 TB1 S031
333 F210 VG020=
ASC EU3689 4359N 00649E 111827 F217 MS290 /// 263/033 TB0 S031
333 F217 VG005=
ASC EU3689 4403N 00646E 111827 F233 MS332 /// 261/034 TB0 S031
333 F233 VG001=
ASC EU3689 4405N 00644E 111828 F239 MS350 /// 258/034 TB0 S031
333 F239 VG002=
ASC EU3689 4407N 00643E 111828 F246 MS370 /// 255/033 TB0 S031
333 F246 VG006=
ASC EU3689 4408N 00641E 111828 F252 MS385 /// 252/041 TB1 S031
333 F252 VG008=
ASC EU3689 4411N 00640E 111829 F260 MS402 /// 258/047 TB0 S031
333 F260 VG001=
ASC EU3689 4413N 00638E 111829 F269 MS422 /// 256/050 TB1 S031
333 F269 VG010=
ASC EU3689 4416N 00635E 111830 F282 MS457 /// 250/052 TB0 S031
333 F282 VG003=
ASC EU3689 4418N 00634E 111830 F288 MS467 /// 247/054 TB0 S031
333 F288 VG002=
ASC EU3689 4420N 00632E 111830 F295 MS477 /// 246/045 TB0 S031
333 F295 VG004=
ASC EU3689 4422N 00631E 111831 F302 MS490 /// 250/041 TB0 S031
333 F302 VG000=
ASC EU3689 4424N 00629E 111831 F311 MS512 /// 256/045 TB0 S031
333 F311 VG003=
ASC EU3689 4426N 00628E 111831 F319 MS527 /// 247/050 TB2 S031
333 F319 VG026=
0000011000
778
UANT99 KDDL 111833
ARP VIR23J 6051N02922W 1833 F320 MS61 216/75 KT
GVFIZ DDL XXN 111833 J30A
0000100900
779
SMCI37 BABJ 111800
AAXX 11181
50658 33/// 92903 11289 21359 40335 52009 333 11198=
50888 33/// 93203 11265 21320 40263 52008 333 11152=
50983 33/// 93205 11249 21303 40253 52011 333 11139=
51053 32/// 90904 11126 21186 40365 57015 333 05905 11091=
51542 32/// 90000 11373 21406 37606 57011 333 05551 11283=
52436 32/80 92202 11160 21254 38580 40433 57012 333 00055
11024=
52908 33/// 92502 11214 21246 35752 52003 333 00351 11108=
52996 32/80 93604 11137 21243 37629 57010 333 00454 11090=
53083 42/80 91801 11233 21272 38916 40426 54000 333 00551
11115=
53764 32/// 90000 11085 21175 39220 40392 52005 333 10014=
53787 42/73 90702 11079 21210 40351 52005 333 10048=
54096 33/// 92701 11185 21199 39492 40234 52001 333 11126=
54226 32/80 93403 11126 21237 40359 52017 333 11012=
54259 33/// 93203 11118 21239 40329 52030 333 11033=
54527 31/56 93604 11022 21120 30328 40334 52017 70540 333
10024=
54534 31/07 93401 11099 21111 40328 52017 70040 333 10034=
0000010000
780
SMTA10 UTDD 111800 RRB
AAXX 11181
38719 429// 30000 11115 21256 47120 52003 80001=
0000077500
781
SMVD01 EGRR 111800
BBXX
DANR 11183 99516 71437 41298 82412 10050 20039 40010 56010 70222
8772/ 22223 20402 307// 41204 80045=
AMOUK17 1118/ 99134 70914 46/// ///// 10291 20239 40134=
DDSC2 11184 99204 70665 41498 63533 10260 20232 40200 50/// 70222
8/143 22255 04260 20707 80240=
LAVD4 11183 99235 71121 415// 13107 10230 2017/ 40206 52024 7////
816// 22273 0//// 20200 33220 40301 50301 6//// 80190=
ZCDN9 11183 99186 70511 41398 60718 10255 20101 40183 56018 70322
85740 22253 00256 20201 399// 4//// 5////=
DDZJ2 11184 99558 71384 41598 53030 10050 20028 49920 56/// 70011
84466 22275 04040 21012 3//// 4//// 5//// 80040=
DFCX2 11183 99096 70807 41398 60607 10284 20230 40122 58008 75011
8476/ 22262 00285 20301 304// 40404 80245=
0000117200
782
SASA85 EGRR 111800 RRI
METAR SASJ 111800Z 18018G44KT 7000 TSRA SCT025 BKN040 FEW045CB 19/17
      Q1020=
METAR SAWE 111800Z 27020KT 9999 SCT021 17/11 Q1003=
METAR SKBG 111800Z 30006KT 9999 FEW020 26/17 A2996=
METAR SKBQ 111800Z 09006KT 9999 FEW020 32/22 A2983=
METAR SKCG 111800Z 35006KT 9999 FEW017 29/22 A2985=
METAR SKCL 111800Z 00000KT 7000 SCT015 BKN090 26/20 A2997 RMK / HZ=
METAR SKLT 111800Z 00000KT 4000 -RA BKN007 BKN080 25/24 A2991 RERA
      RMK AD OPR IMC=
METAR SKMD 111800Z 00000KT 9999 FEW035 26/15 A3004=
METAR SKPE 111800Z 29003KT 9999 SCT017 TCU SCT090 25/18 A3006 RMK TCUE=
METAR SKRG 111800Z 07012KT 9999 SCT020 21/13 A3025=
METAR SKSM 111800Z 27004KT 9999 FEW020 30/24 A2983=
METAR SKSP 111800Z 08014KT 9999 FEW018 28/24 A2992=
METAR SVAC 111800Z 09006KT 9999 BKN020 33/22 Q1015=
METAR SVBI 111800Z 07006KT 9999 SCT023 35/20 Q1013=
METAR SVBS 111800Z 23006KT 9999 SCT013 29/18 Q1016=
METAR SVCU 111800Z 02015KT 9999 SCT013 30/14 Q1012=
METAR SVMT 111800Z 05010KT 9999 BKN013 31/22 Q1011 DZ=
METAR SVSO 111800Z 11004KT 9999 FEW023 32/18 Q1018=
METAR SVVA 111800Z 11007KT 9999 SCT016 32/21 Q1015=
0000147300
783
FTSA85 EGRR 111825 RRA
TAF SBBG 111400Z 1118/1218 25006KT 9999 SCT030 TN17/1209Z TX28/1218Z
     TEMPO 1118/1123 20016KT 5000 TSRA BKN020 FEW040CB
     RMK PCD=
TAF SBCG 111400Z 1118/1218 34006KT 9999 FEW040 TX33/1118Z TN23/1209Z
     TEMPO 1118/1203 35016KT 8000 TSRA SCT030 FEW040CB
     TEMPO 1203/1211 6000 RA BKN010 BKN030
     RMK PCD=
TAF SBCR 111400Z 1118/1218 04006KT 9999 FEW030 TX36/1118Z TN24/1209Z
     TEMPO 1118/1123 8000 TSRA BKN025 FEW030CB
     RMK PCD=
TAF SBCT 111400Z 1118/1218 05006KT 9999 SCT025 TX30/1118Z TN19/1209Z
     TEMPO 1118/1122 35015KT 6000 TSRA BKN025 FEW040CB
     PROB40 1206/1211 6000 BK N006 BKN010
     RMK PCD=
TAF SBFI 111400Z 1118/1218 06006KT 9999 FEW030 TX35/1118Z TN24/1209Z
     TEMPO 1120/1203 06015KT 6000 TSRA BKN030 FEW035CB
     PROB40 TEMPO 1203/1212 3 000 RA BKN010 BKN020
     RMK PCD=
TAF SBPA 111400Z 1118/1218 04007KT 9999 SCT035 TX28/1118Z TN21/1209Z
     TEMPO 1118/1120 35015KT 8000 TSRA BKN030 FEW040CB
     TEMPO 1123/1210 20015KT 3000 TSRA BKN010 BKN020 FEW040CB
     PROB40 1210/1215 6000 RA BKN010 BKN020 T=
TAF SBPP 111400Z 1118/1218 33006KT 9999 FEW025 TX32/1118Z TN22/1209Z
     TEMPO 1118/1123 6000 TSRA BKN020 FEW040CB
     PROB40 1206/1211 3000 BR BKN005
     RMK PCD=
TAF SBUG 111400Z 1118/1218 23008KT 9999 BKN015 TN18/1209Z TX31/1218Z
     TEMPO 1118/1122 4000 TSRA BKN010 BKN015 FEW030CB
     BECMG 1122/1124 SCT030 RM K PCD=
0000021100
784
SASA85 EGRR 111800 RRJ
METAR SBTT 111800Z 09005KT 4000 RA BR BKN014 OVC100 24/23 Q1003=
METAR SVJM 111800Z /////KT 9999 SCT020 31/08 Q1013=
METAR SVMN 111800Z 20002KT 9999 FEW020 34/// Q1013=
0000035000
785
SPSA85 EGRR 111828 RRA
SPECI SBCG 111830Z 06010KT 5000 -TSRA SCT020 BKN040 FEW045CB 21/19
      Q1015 RERA=
SPECI SBGO 111820Z 29014KT 6000 -TSRA BKN030 SCT040CB 23/17 Q1016=
SPECI SBSP 111817Z 07006KT 030V120 9999 -RA FEW045 BKN060 BKN090 25/19
      Q1017 RETSRA=
SPECI SPJR 111830Z 19006KT 9999 SCT020 SCT027 21/11 Q1025=
00000000