0000013200
746
WSUY31 SUMU 111800
SUEO SIGMET 5 VALID 111800/111800Z SUMU-
SUEO MONTEVIDEO FIR CNL SIGMET 4 VALID 111400/111800Z=
0000048500
747
WAIR31 OIII 111822
OIIX AIRMET 17 VALID 111810/112030 OIII-
OIIX TEHRAN FIR AMD AIRMET 16 ISOL CB/TCU OBS LOC OVERNW,W,SW,S,CENTRAL,SE,SSE,
      E OF IRAN TOP ABV FL150 MOV E/NE NC
SFC VIS 3000M TO 0800M DUE TO SN/RA BR/FG OBS LOC OVER W,
    NORTH PART OF SW,CENTRAL,SE,E OF IRAN AND EAST OF TEHRAN AREA
    (OVER OIFM 0400M FG,OISY 0800M SN,OIYY 0800M SN,
    OITR,OIHR,OITM 1500M BR)
SFC VIS 4000M TO 1000M DUE TO RA TSRA BR OBS LOC OVER SW,S OF IRAN=
0000019800
748
WSUY31 SUMU 111800
SUEO SIGMET A5 VALID 111800/112200 SUMU-
SUEO MONTEVIDEO FIR SEV ICE FCST WI S31W057 - S30W056 - S35W054
- S32W057 - S32W056 - S31W055 - S33W058 FL120/180  NC=
0000171200
749
WTIO20 FMEE 111822
PANPAN
HURRICANE WARNING FOR METAREA VIII (S)
ISSUED BY METEO-FRANCE/TROPICAL CYCLONE CENTER/LA REUNION 11/01/2014 AT
1800 UTC.
WARNING NUMBER: 010/6 (SOUTH-WEST INDIAN OCEAN)

10 MINUTES AVERAGE WIND SPEED IN KNOTS (KT)
(WIND GUSTS AT SEA MAY BE ABOUT 40% STRONGER THAN THE AVERAGED WIND)
MINIMUM SEA LEVEL PRESSURE IN HECTOPASCAL (HPA)
(INDICATIVE FIGURE).

HURRICANE WARNING
BEGINNING OF VALIDITY: SATURDAY 11/01/2014 AT 1800 UTC.

PHENOMENON: INTENSE TROPICAL CYCLONE 6  (COLIN)  955 HPA
POSITION: WITHIN 10 NM RADIUS OF POINT 17.1 S / 79.2 E
(SEVENTEEN    DECIMAL ONE   DEGREES SOUTH AND
SEVENTY NINE    DECIMAL TWO   DEGREES EAST) AT 1800 UTC
MOVEMENT: SOUTH-WEST 7 KT

THREAT AREAS:
SQUALLY WEATHER EXISTS WITHIN A 100 NM RADIUS FROM THE CENTRE EXTENDING UP TO 330 NM IN THE NORTHERN SECTOR, AND UP TO 350 NM IN THE SOUTH-EASTERN QUADRANT.
HURRICANE FORCE WINDS 65/95 KT AND VERY HIGH TO PHENOMENAL SEAS WITHIN A 20 NM RADIUS FROM THE CENTRE.
STORM FORCE WINDS 50/60 KT AND HIGH TO VERY HIGH SEAS WITHIN A 30 NM RADIUS FROM THE CENTRE.
GALE FORCE WINDS 35/45 KT AND VERY ROUGH TO HIGH SEAS WITHIN A 40 NM RADIUS FROM THE CENTRE, EXTENDING UP TO 50 NM IN THE SOUTHERN SEMI-CIRCLE.
NEAR GALE FORCE WINDS 30 KT AND ROUGH TO VERY ROUGH SEAS WITHIN A 90 NM RADIUS FROM THE CENTRE, EXTENDING UP TO 120 NM IN THE SOUTHERN SEMI-CIRCLE.
STRONG GUSTS UNDER SQUALLS.

FORECAST POSITION AND INTENSITY:
12H, VALID 2014/01/12 AT 06 UTC:
18.4 S / 77.8 E, MAX WIND = 90 KT, INTENSE TROPICAL CYCLONE
24H, VALID 2014/01/12 AT 18 UTC:
19.8 S / 75.8 E, MAX WIND = 90 KT, INTENSE TROPICAL CYCLONE

OTHER INFORMATIONS:
NIL
0000166000
750
WTIO21 FMEE 111822
METEO-FRANCE/CENTRE DES CYCLONES TROPICAUX DE LA REUNION
BMS MARINE LE 11/01/2014 A 1800 UTC.
NUMERO: 010/6 (SUD-OUEST DE L'OCEAN INDIEN)

VITESSES DU VENT MOYEN SUR 10 MINUTES EN NOEUDS (KT)
(LES RAFALES SUR MER PEUVENT EXCEDER D'ENVIRON 40% LA VALEUR DU VENT
MOYEN).
PRESSION MINIMALE AU NIVEAU DE LA MER EN HECTOPASCALS (HPA)
(VALEUR INDICATIVE)

AVIS D'OURAGAN
DEBUT DE VALIDITE: SAMEDI 11/01/2014 A 1800 UTC.

PHENOMENE: CYCLONE TROPICAL INTENSE 6  (COLIN)  955 HPA
POSITION: DANS UN RAYON DE 10 MN AUTOUR DU POINT 17.1 S / 79.2 E
(DIX-SEPT DEGRES UN SUD ET SOIXANTE DIX-NEUF DEGRES DEUX EST) A 1800
UTC
DEPLACEMENT:  SUD-OUEST 7 KT

ZONES MENACEES:
TEMPS A GRAIN DANS UN RAYON DE 100 MN AUTOUR DU CENTRE S'ETENDANT
JUSQUE 330 MN DANS LE SECTEUR NORD, ET JUSQUE 350 MN DANS LE QUADRANT
SUD-EST.
OURAGAN 65/95 KT ET MER TRES GROSSE A ENORME DANS UN RAYON DE 20 MN
AUTOUR DU CENTRE.
TEMPETE 50/60 KT ET MER GROSSE A TRES GROSSE DANS UN RAYON DE 30 MN
AUTOUR DU CENTRE.
COUP DE VENT 35/45 KT ET MER TRES FORTE A GROSSE DANS UN RAYON DE 40
MN AUTOUR DU CENTRE, S'ETENDANT JUSQUE 50 MN DANS LE DEMI-CERCLE SUD.
GRAND FRAIS 30 KT ET MER FORTE A TRES FORTE DANS UN RAYON DE 90 MN
AUTOUR DU CENTRE, S'ETENDANT JUSQUE 120 MN DANS LE DEMI-CERCLE SUD.
FORTES RAFALES SOUS GRAINS.

PREVISIONS: POSITION ET INTENSITE PREVUES:
A 12H POUR LE 12/01/2014 A 06 UTC:
18.4 S / 77.8 E, VENT MAX = 90 KT, CYCLONE TROPICAL INTENSE
A 24H POUR LE 12/01/2014 A 18 UTC:
19.8 S / 75.8 E, VENT MAX = 90 KT, CYCLONE TROPICAL INTENSE

INDICATIONS COMPLEMENTAIRES :
NEANT=
0000020300
751
WSMA31 FIMP 111830
FIMM SIGMET 03 VALID 111830/112230 FIMP -
FIMM MAURITIUS FIR ISOL EMBD TS OBS AT 1800Z ALONG LINE S0300 E05400
- S0600 E05900 - S1000 E06300 TOP ABV FL390 STNR WKN=
0000107400
752
WTMA20 FIMP 111900
PART 1: TTT WARNING OF INTENSE TROPICAL CYCLONE COLIN.
COLIN HAS INTENSIFIED INTO AN INTENSE TROPICAL CYCLONE  AND AT
1800UTC INTENSE TROPICAL CYCLONE COLIN 955 HPA WAS CENTRED
WITHIN 10 NM RADIUS OF POINT 17.1 S / 79.2 E (SEVENTEEN DECIMAL ONE
DEGREES SOUTH AND SEVENTY-NINE DECIMAL TWO DEGREES EAST)
MOVEMENT: SOUTH-WEST 7 KT.
SQUALLY WEATHER EXISTS WITHIN A 100 NM RADIUS FROM THE CENTRE
EXTENDING UP TO 330 NM IN THE NORTHERN SECTOR, AND UP TO 350 NM IN
THE SOUTH-EASTERN QUADRANT.
HURRICANE FORCE WINDS 65/95 KT AND VERY HIGH TO PHENOMENAL SEAS
WITHIN A 20 NM RADIUS FROM THE CENTRE.
STORM FORCE WINDS 50/60 KT AND HIGH TO VERY HIGH SEAS WITHIN A 30 NM
RADIUS FROM THE CENTRE.
GALE FORCE WINDS 35/45 KT AND VERY ROUGH TO HIGH SEAS WITHIN A 40 NM
RADIUS FROM THE CENTRE, EXTENDING UP TO 50 NM IN THE SOUTHERN
SEMI-CIRCLE.
NEAR GALE FORCE WINDS 30 KT AND ROUGH TO VERY ROUGH SEAS WITHIN A 90
NM RADIUS FROM THE CENTRE, EXTENDING UP TO 120 NM IN THE SOUTHERN
SEMI-CIRCLE.
STRONG GUSTS UNDER SQUALLS.
0000066100
753
UDAF01 FAPR 111830
AMDAR 1118
DES AFZA63 1849N 07239E 111819 F160 MS008 297/015 TB0 S031 333 F/// VG000=
DES AFZA63 1851N 07247E 111821 F142 PS027 300/023 TB0 S031 333 F/// VG000=
DES AFZA63 1851N 07248E 111821 F138 PS035 301/023 TB0 S031 333 F/// VG000=
DES AFZA63 1854N 07302E 111824 F118 PS081 269/008 TB0 S031 333 F/// VG000=
DES AFZA63 1855N 07312E 111826 F099 PS106 261/007 TB0 S031 333 F/// VG000=
DES AFZA63 1859N 07313E 111828 F081 PS117 203/011 TB0 S031 333 F/// VG000=
DES AFZA63 1901N 07312E 111828 F064 PS144 142/016 TB0 S031 333 F/// VG000=
DES AFZA63 1903N 07308E 111830 F048 PS165 185/026 TB0 S031 333 F/// VG000=
0000066100
754
UDAF01 FAPR 111831
AMDAR 1118
LVR AFZA46 2531S 02815E 111725 F192 MS085 220/014 TB0 S031 333 F/// VG011=
LVR AFZA46 2443S 02819E 111733 F287 MS262 270/021 TB0 S031 333 F/// VG010=
LVR AFZA46 2350S 02819E 111740 F360 MS440 306/023 TB0 S031 333 F/// VG010=
LVR AFZA46 2259S 02818E 111747 F370 MS457 318/018 TB0 S031 333 F/// VG011=
LVR AFZA46 2207S 02821E 111754 F370 MS465 325/017 TB0 S031 333 F/// VG011=
UNS AFZA46 2116S 02825E 111801 F370 MS472 326/015 TB0 S031 333 F/// VG011=
LVR AFZA46 2029S 02806E 111808 F370 MS472 018/009 TB0 S031 333 F/// VG011=
LVR AFZA46 1937S 02811E 111815 F370 MS462 118/012 TB0 S031 333 F/// VG011=
0000066100
755
UDAF01 FAPR 111833
AMDAR 1118
LVR AFZA26 3859N 06809W 111743 F310 MS435 282/076 TB0 S031 333 F/// VG017=
LVR AFZA26 3837N 06654W 111751 F310 MS439 291/062 TB0 S031 333 F/// VG016=
LVR AFZA26 3811N 06542W 111758 F310 MS447 289/065 TB0 S031 333 F/// VG016=
LVR AFZA26 3745N 06430W 111805 F310 MS445 296/073 TB0 S031 333 F/// VG016=
LVR AFZA26 3718N 06319W 111812 F310 MS452 300/067 TB0 S031 333 F/// VG016=
LVR AFZA26 3651N 06209W 111819 F310 MS457 303/068 TB0 S031 333 F/// VG016=
LVR AFZA26 3622N 06059W 111826 F310 MS460 309/079 TB0 S031 333 F/// VG016=
LVR AFZA26 3554N 05949W 111833 F310 MS452 316/086 TB0 S031 333 F/// VG016=
0000058400
756
UDAF01 FAPR 111830
AMDAR 1118
LVR AFZA46 2531S 02815E 111725 F192 MS085 220/014 TB0 S031 333 F/// VG011=
LVR AFZA46 2443S 02819E 111733 F287 MS262 270/021 TB0 S031 333 F/// VG010=
LVR AFZA46 2350S 02819E 111740 F360 MS440 306/023 TB0 S031 333 F/// VG010=
LVR AFZA46 2259S 02818E 111747 F370 MS457 318/018 TB0 S031 333 F/// VG011=
LVR AFZA46 2207S 02821E 111754 F370 MS465 325/017 TB0 S031 333 F/// VG011=
UNS AFZA46 2116S 02825E 111801 F370 MS472 326/015 TB0 S031 333 F/// VG011=
LVR AFZA46 2029S 02806E 111808 F370 MS472 018/009 TB0 S031 333 F/// VG011=
0000066100
757
UDAF01 FAPR 111834
AMDAR 1118
ASC AFZA04 5120N 00038W 111826 F055 MS023 320/020 TB0 S031 333 F/// VG000=
ASC AFZA04 5117N 00035W 111828 F064 MS015 309/026 TB0 S031 333 F/// VG000=
ASC AFZA04 5111N 00030W 111829 F081 MS033 297/024 TB0 S031 333 F/// VG000=
ASC AFZA04 5105N 00024W 111830 F099 MS075 278/026 TB0 S031 333 F/// VG000=
ASC AFZA04 5059N 00018W 111831 F118 MS111 271/034 TB0 S031 333 F/// VG000=
ASC AFZA04 5051N 00011W 111833 F139 MS147 287/035 TB0 S031 333 F/// VG000=
ASC AFZA04 5044N 00004W 111834 F160 MS190 274/038 TB0 S031 333 F/// VG000=
ASC AFZA04 5043N 00003W 111834 F162 MS195 274/037 TB0 S031 333 F/// VG009=
0000012100
758
SMTH41 VTBB 111800 CCA
AAXX 11184
48374 31957 00000 10200 20167 39999 40169 56002 71000 
  333 59002=
0000127700
759
SMCN04 KWBC 111800
AAXX 11184
71214 15/// /1316 11038 21058 60001 333 11031 21109 70000=
71223 15/// /1414 11037 21057 60001 333 11037 21122 70000=
71225 15/// /2023 10058 21005 60001 333 10062 21095 70000=
71259 17/// /1825 10001 21017 69961 7//4/ 333 10002 21161 70006=
71289 15/// /1720 11042 21056 60001 333 11034 21110 70000=
71353 15/// /1812 11049 21073 60001 333 11039 21076 70005=
71535 15/// /2110 10058 21006 60001 333 10064 21076 70000=
71536 15/// /2118 10081 21014 60001 333 10082 21048 70000=
71537 15/// /1722 10017 21011 60001 333 10017 21163 70000=
71010 15/// /1427 11035 21057 60001 333 11032 21101 70000=
71227 45/// /1422 11034 21055 6///1 333 11034 21131 7////=
71229 17/// /0112 11150 21168 69941 7//4/ 333 11149 21222 70012=
71257 15/// /1718 11016 21035 60001 333 11016 21119 70000=
71258 15/// /1713 10021 21023 60001 333 10022 21110 70000=
71274 15/// /1416 11038 21055 60001 333 11038 21132 70000=
71275 45/// /1114 11076 21095 6///1 333 11076 21160 7////=
71278 15/// /1417 11053 21071 60001 333 11053 21158 70000=
71286 15/// /1319 11046 21060 60001 333 11046 21157 70000=
71287 15/// /1008 11054 21071 60001 333 11054 21123 70000=
71351 45/// /1611 11021 21059 6///1 333 11011 21077 7////=
0000154200
760
SMKR01 KWBC 111800
AAXX 11181
47003 42980 00000 11110 21138 30216 40220 57009=
47005 11980 72301 11155 21192 38583 57003 69901 77072 87002=
47008 42970 01401 11061 21141 30161 40217 58005=
47014 42950 00000 11171 21183 39834 40272 57003=
47016 42970 00000 11182 21215 39357 40257 57028=
47020 42965 00000 11144 21164 39913 40321 58009=
47022 42975 03209 11124 21176 38823 58004=
47025 42960 00000 11073 21155 30212 40243 58003=
47028 42962 41801 11095 21116 30180 40281 52012 80002=
47031 42570 53201 11113 21175 38935 57008 85500=
47035 41960 60000 11057 21105 30276 40285 54000 71000 86030=
47037 42970 00000 11107 21135 30153 40285 58019=
47039 42960 00000 11112 21132 30097 40301 57003=
47041 42970 00000 11048 21120 30206 40235 57014=
47046 42969 02702 11062 21137 30223 40247 57003=
47050 42965 60000 11076 21106 30228 40263 57010 80002=
47052 42565 50000 11062 21077 39913 40267 57026 85500=
47055 42970 02702 10014 21071 30212 40258 57005=
47058 41959 00000 11042 21054 30235 40284 57003 71000=
47060 42560 42701 11001 21012 30217 40277 57009 84100=
47061 42980 03203 10009 21071 30213 40258 54000=
47065 41560 80901 11032 21049 30225 40293 58010 71020 885//=
47067 11560 80000 11060 21073 30186 40310 57013 69941 77072 8802/=
47068 12560 80901 11041 21052 30253 40290 53003 69901 82501=
47069 41556 70000 11026 21049 30182 40286 54000 71022 87500=
47070 42970 00000 11045 21058 30204 40296 57007=
47075 11580 82304 11045 21068 39962 40414 57006 69901 72272 885//=
0000028300
761
SMVD15 KWNB 111800 RRO
BBXX
41009 11181 99285 70802 46/// /1909 10243 20210 40155 91820 22200
00241 333 91211 555 11099 22106 31749 41811 61819 189093 189093
188096 188093 190086 193088=
42365 11181 99282 70891 46/// /1102 10231 20197 91830 555 11014
22015=
0000047900
762
SMVD19 KWNB 111800 RRD
BBXX
46126 11181 99540 71666 46/// /2206 10045 49798 91806 22200 00048
10301 70004 333 91210 555 11066 22072=
46126 11181 99540 71666 46/// /2206 10045 49798 91810 22200 00048
10301 70004 333 91210 555 11066 22072=
46126 11181 99540 71666 46/// /2406 10045 49798 91812 22200 00048
10301 70004 333 91209 555 11067 22073=
46126 11181 99540 71666 46/// /2406 10048 49800 91815 22200 00048
10301 70004 333 91209 555 11067 22073=
0000113200
763
SMCI01 KWBC 111800
AAXX 11181
55299 32/// 90201 11122 21278 35838 52005 333 00403 11049=
55591 33/// 93201 11028 21064 36506 52007 333 00354 10045=
56739 32/// 91601 10043 20020 38341 57005 333 00000 10180=
56951 33/// 90000 10067 20008 38544 54000 333 00151 10223=
56964 33/// 93201 10112 20104 38745 40181 52001 333 00102 10232=
57328 12/24 91101 10036 20024 39904 40331 57005 69911 333 10085=
57411 33/// 91101 10055 20043 39954 40337 57004 333 10101=
57447 13/// 92901 10038 20031 39774 40337 57003 69911 333 10060=
57662 32/// 93201 10036 20018 30145 40336 57005 333 10047=
57745 31/29 90701 10039 20018 30001 40343 57002 71000 333 10046=
57972 11/// 93201 10042 20026 30096 40330 54000 60011 760// 333
10070=
58203 32/16 92901 10009 21006 30278 40321 57004 333 10084=
58314 33/// 92901 10039 20006 30209 40320 57003 333 10064=
58424 31445 90701 10036 20027 30232 40312 57003 76085 333 10038=
59023 12/// 90401 10075 20061 39977 40299 52002 69921 333 10084=
59417 32/// 90902 10130 20117 30099 40256 52006 333 10142=
59985 32/63 90406 10232 20209 30176 40182 57010 333 10264=
0000027200
764
SABY31 UMMN 111830
METAR UMBB 111830Z NIL=
METAR UMGG 111830Z NIL=
METAR UMII 111830Z NIL=
METAR UMMG 111830Z NIL=
METAR UMMM 111830Z NIL=
METAR UMMS 111830Z 25002MPS 190V350 9999 OVC016CB 03/02
Q1006 R31/290060 NOSIG=
METAR UMOO 111830Z NIL=
0000068800
765
UKUS02 KWBC 111800
TTBB 61180 72208 00010 20812 11999 19405 22965 17800 33952 17801
44937 17824 55904 17435 66856 14022 77846 13847 88838 13223 99829
12418 11794 10223 22757 07209 33724 05225 44685 02411 55663 01260
66655 00859 77642 00543 88634 01107 99629 01304 11595 04104 22562
07520 33545 08913 44522 11127 55515 12346 66482 15345 77479 15750
88472 15748 99466 16567 11459 17393 22411 20793 33370 26771 44363
27565 55342 31368 66313 37166 77285 40971 88211 58163 99199 60762
11197 60962 22195 59362 33192 59162 44189 57163 55186 57163 66139
65761 77129 65561 88120 67761 99118 67161 11114 67961 22108 70760
33105 70160 31313 58708 81706 41414 872//=
00000000