0000010200
140
SMIN04 DEMS 111800 RRB
AAXX 11184
42921 32996 00000 10116 20045 40183
  333 58009=
0000009600
141
SMAL51 EUMS 111800 RRB
AAXX 11184
60672 36/// /0000 10198 21108
  333 10239=
0000009600
142
SMAL53 EUMS 111800 RRB
AAXX 11184
60660 36/// /1604 10227 21054
  333 10260=
0000009600
143
SMAL54 EUMS 111800 RRA
AAXX 11184
60677 36/// /0000 10154 21086
  333 10214=
0000009200
144
SMAL55 EUMS 111800
AAXX 11184
60679 36/// /1004 10105 21149
  333 10149=
0000011100
145
UANT01 CWAO 111822
ARP DAL107 4921N04601W 1822 F350 MS61 296/69 KT
N195DN QXT AOW 111822 F40A
0000011000
146
UANT01 CWAO 111823
ARP UAE205 5006N02645W 1822 F340 MS44 198/49 KT
A6ENL DDL XXF 111823 F23A
0000141400
147
SMRH80 LDZM 111800
AAXX 11181
14216 11440 80000 10110 20104 30066 40217 51/// 60002 71044 886// 333
10130 923// 924/6=
14219 12565 80901 10068 20026 39196 48508 56/// 60002 885// 333 10094
=
14232 12670 82502 10119 20054 30061 40195 58/// 60002 8357/ 333 10129
=
14234 11980 82004 10110 20048 39939 40184 58/// 69912 700// 8807/ 333
10115=
14236 12770 82503 10094 20066 39990 40187 56/// 60002 885// 333 10102
=
14244 11456 62101 10070 20064 30071 40202 56/// 60002 710// 83570 333
10094=
14248 11920 81802 10058 20058 30017 40193 57/// 60002 710// 333 10067
=
14253 11620 40000 10059 20055 30019 40194 56/// 60002 710// 84400 333
10092=
14256 12960 22404 10091 20065 39879 40197 56002 60002 82030 333 10130
=
14280 12960 31101 10070 20049 30084 40194 55002 60002 83030 333 10140
=
14308 12560 81401 10098 20087 39865 40217 54/// 60002 885// 333 10117
=
14321 12665 61302 10124 20104 30198 40222 56/// 60002 86800 333 10145
92312 92427=
14382 12960 41802 10104 20060 30074 40193 55001 60002 84030 333 10150
=
14428 12560 40902 10119 20106 30211 40218 51/// 60002 82830 333 10138
92311=
14441 11570 50202 10128 20106 30192 40216 54/// 60002 700// 85200 333
10169 92301=
14452 NIL=
14454 12766 80601 10120 20082 30162 40222 53/// 60002 81507 333 10145
92301=
14462 12568 40000 10090 20080 30223 40229 54/// 60002 81232 333 10166
=
0001338000
148
SSVX02 KARS 111822
ZZYY 31754 11014 1600/ 537360 051132 6111/
11119 30157 40157 52018
22219 00220
444 20110 11014 1626/ 50101 80145 80011 9/015=
ZZYY 31754 11014 1800/ 537360 051132 6111/
11119 30170 40170 52017
22219 00220
444 20110 11014 1626/ 50101 80145 80010 9/015=
ZZYY 31754 11014 1700/ 537360 051132 6111/
11119 30161 40161 52013
22219 00220
444 20110 11014 1626/ 50101 80145 80011 9/015=
ZZYY 31775 11014 1800/ 535743 047952 6112/
11119 30126 40126 52009
22219 00228
444 20120 11014 1810/ 50101 80145 80007 9/015=
ZZYY 31775 11014 1700/ 535747 047974 6112/
11119 30125 40125 52010
22219 00230
444 20120 11014 1627/ 50101 80145 80006 9/015=
ZZYY 33649 11014 1750/ 533197 083637 6112/
22219 00208
444 20120 11014 1809/ 50101 80007 80000 9////=
ZZYY 33649 11014 1650/ 533207 083630 6111/
22219 00207
444 20110 11014 1635/ 50101 80007 80000 9////=
ZZYY 31513 11014 1800/ 534969 044779 6112/
11119 30126 40126 52007
22219 00242
444 20120 11014 1807/ 50101 80145 80007 9/015=
ZZYY 31513 11014 1700/ 534969 044779 6112/
11119 30128 40128 52004
22219 00241
444 20120 11014 1807/ 50101 80145 80007 9/015=
ZZYY 33520 11014 1700/ 555237 039549 6113/
11119 49892
22219 00020
444 2013/ 11014 1621/ 50101 80104 80021 9/015=
ZZYY 31514 11014 1800/ 534000 046250 6112/
11119 30125 40125 52003
22219 00242
444 20120 11014 1809/ 50101 80145 80006 9/015=
ZZYY 31514 11014 1700/ 533991 046247 6113/
11119 30127 40127 52003
22219 00242
444 20130 11014 1628/ 50101 80145 80006 9/015=
ZZYY 31516 11014 1800/ 535990 051229 6111/
11119 30151 40151 52018
22219 00233
444 20110 11014 1810/ 50101 80145 80007 9/015=
ZZYY 31516 11014 1700/ 535983 051259 6112/
11119 30142 40142 52014
22219 00233
444 20120 11014 1627/ 50101 80145 80008 9/015=
ZZYY 31516 11014 1500/ 535992 051293 6111/
11119 30133 40133 52017
22219 00232
444 20110 11014 1334/ 50101 80145 80009 9/015=
ZZYY 31517 11014 1800/ 533429 051375 6111/
11119 30136 40136 52008
22219 00245
444 20110 11014 1812/ 50101 80145 80003 9/015=
ZZYY 31517 11014 1700/ 533435 051369 6112/
11119 30131 40131 52004
22219 00245
444 20120 11014 1626/ 50101 80145 80003 9/015=
ZZYY 31518 11014 1550/ 534679 050197 6112/
11119 30124 40124 52006
22219 00241
444 20120 11014 1629/ 50101 80145 80003 9/015=
ZZYY 31518 11014 1750/ 534666 050204 6113/
11119 30128 40128 52007
22219 00241
444 20130 11014 1808/ 50101 80145 80003 9/015=
ZZYY 31518 11014 1700/ 534679 050197 6112/
11119 30125 40125 52005
22219 00241
444 20120 11014 1629/ 50101 80145 80003 9/015=
ZZYY 31523 11014 1450/ 534883 051546 6112/
11119 30139 40139 52012
22219 00242
444 20120 11014 1327/ 50101 80153 80006 9/015=
ZZYY 31523 11014 1750/ 534895 051614 6112/
11119 30148 40148 52009
22219 00243
444 20120 11014 1809/ 50101 80153 80006 9/015=
ZZYY 31523 11014 1650/ 534881 051597 6111/
11119 30142 40142 52009
22219 00243
444 20110 11014 1629/ 50101 80153 80006 9/015=
ZZYY 31526 11014 1800/ 531975 045520 6112/
11119 30127 40127 57008
22219 00252
444 20120 11014 1809/ 50101 80145 80007 9/015=
ZZYY 31526 11014 1700/ 531964 045567 6111/
11119 30133 40133 57001
22219 00249
444 20110 11014 1627/ 50101 80145 80009 9/015=
ZZYY 31526 11014 1500/ 531964 045567 6111/
11119 30135 40135 57002
22219 00246
444 20110 11014 1627/ 50101 80145 80008 9/015=
ZZYY 31527 11014 1750/ 527100 045307 6112/
11119 30134 40134 57006
22219 00259
444 20120 11014 1810/ 50101 80153 80005 9/015=
ZZYY 31527 11014 1650/ 527107 045323 6111/
11119 30138 40138 54000
22219 00258
444 20110 11014 1628/ 50101 80153 80006 9/015=
ZZYY 31528 11014 1800/ 530265 045684 6112/
11119 30144 40144 52003
22219 00258
444 20120 11014 1809/ 50101 80153 80011 9/015=
ZZYY 31528 11014 1700/ 530265 045695 6111/
11119 30145 40145 52003
22219 00257
444 20110 11014 1627/ 50101 80153 80010 9/015=
ZZYY 31529 11014 1730/ 529917 048022 6112/
11119 30127 40127 57006
22219 00268
444 20120 11014 1809/ 50101 80153 80007 9/015=
ZZYY 31532 11014 1700/ 529278 047273 6112/
11119 30127 40127 57007
22219 00268
444 20120 11014 1629/ 50101 80153 80004 9/015=
ZZYY 33585 11014 1750/ 559721 061768 6111/
11119 39972 49972 57033
22219 00021
444 20110 11014 1659/ 50101 80120 80007 9/015=
ZZYY 15632 11014 1812/ 525503 035797 6112/
22219 00266
444 20120 11014 1808/ 50101 80094 80007 9/015=
ZZYY 33582 11014 1730/ 554076 046533 6112/
11119 39927 49927 52036
22219 00036
444 20120 11014 1620/ 50101 80090 80024 9/015=
ZZYY 33581 11014 1720/ 547936 035082 6111/
11119 39974 49974
22219 00070
444 20110 11014 1807/ 50101 80100 80019 9/015=
ZZYY 33531 11014 1700/ 551700 036614 6112/
11119 49909
22219 00039
444 2012/ 11014 1621/ 50101 80106 80018 9/015=
ZZYY 33535 11014 1700/ 548776 031953 6112/
11119 49965
22219 00072
444 2012/ 11014 1623/ 50101 80108 80016 9/015=
ZZYY 71574 11014 1700/ 558453 036449 6113/
22219 00001
444 2013/ 11014 1620/ 50101 80102 80022 9/015=
ZZYY 33536 11014 1700/ 549488 038857 6113/
11119 49927
22219 00051
444 2013/ 11014 1623/ 50101 80106 80022 9/015=
ZZYY 15624 11014 1815/ 514068 038334 6112/
22219 00282
444 20120 11014 1812/ 50101 80068 80006 9/015=
ZZYY 71576 11014 1700/ 555129 039129 6112/
11119 49895
444 2012/ 11014 1622/ 50101 80102 80016 9/015=
ZZYY 32736 11014 1816/ 505559 081918 6111/
22219 00233
444 20110 11014 1627/ 50101 80108 80029 9/015=
ZZYY 15666 11014 1815/ 519819 037265 6111/
22219 00275
444 20110 11014 1811/ 50101 80092 80018 9/015=
ZZYY 33580 11014 1800/ 559132 062887 6111/
11119 39952 49952 57037
22219 00015
444 20110 11014 1519/ 50101 80110 80038 9/015=
ZZYY 33571 11014 1810/ 555547 046974 6111/
11119 39952 49952 52029
22219 00031
444 20110 11014 1655/ 50101 80100 80029 9/015=
ZZYY 33663 11014 1710/ 546808 025425 6112/
11119 30064 40064 57031
22219 00088
444 20120 11014 1623/ 50101 80090 80008 9/015=
ZZYY 15661 11014 1812/ 522931 035601 6111/
22219 00276
444 20110 11014 1809/ 50101 80096 80018 9/015=
ZZYY 17681 11014 1800/ 535472 032288 6112/
11119 30189 40189 57006
22219 00210
444 20120 11014 1807/ 50101 80090 80000 9/015=
ZZYY 17681 11014 1700/ 535464 032293 6111/
11119 30192 40192 57007
22219 00210
444 20110 11014 1626/ 50101 80090 80000 9/015=
ZZYY 32711 11014 1815/ 514292 081183 6111/
22219 00236
444 20110 11014 1813/ 50101 80102 80012 9/015=
ZZYY 72832 11014 1630/ 561314 066555 6112/
22219 00009
444 20120 11014 1613/ 50101 80138 9/015=
ZZYY 33549 11014 1800/ 537698 027624 6113/
11119 30198 40198 57007
22219 00185
444 20130 11014 1625/ 50101 80145 80011 9/015=
ZZYY 33553 11014 1800/ 534482 043635 6112/
11119 30120 40120 54000
22219 00231
444 20120 11014 1808/ 50101 80145 80010 9/015=
ZZYY 33553 11014 1700/ 534495 043616 6112/
11119 30120 40120 57006
22219 00230
444 20120 11014 1625/ 50101 80145 80013 9/015=
ZZYY 33553 11014 1600/ 534495 043616 6112/
11119 30118 40118 57002
22219 00230
444 20120 11014 1625/ 50101 80145 80010 9/015=
ZZYY 44555 11014 1750/ 557967 062398 6111/
11119 39981 49981 57035
22219 00044
444 20110 11014 1658/ 50101 80153 80008 9/015=
ZZYY 71580 11014 1750/ 560698 057838 6111/
11119 30001 40001 57013
22219 00009
444 20110 11014 1658/ 50101 80145 80005 9/015=
ZZYY 33572 11014 1550/ 557196 046018 6111/
11119 39934 49934 52029
22219 00020
444 20110 11014 1618/ 50101 80145 80011 9/015=
ZZYY 33556 11014 1700/ 538922 040666 6112/
11119 30111 40111 52010
22219 00172
444 20120 11014 1627/ 50101 80145 80011 9/015=
ZZYY 33554 11014 1800/ 536530 042074 6112/
11119 30126 40126 52005
22219 00208
444 20120 11014 1808/ 50101 80145 80006 9/015=
ZZYY 33554 11014 1700/ 536510 042055 6113/
11119 30120 40120 52003
22219 00208
444 20130 11014 1627/ 50101 80145 80006 9/015=
ZZYY 31534 11014 1640/ 525657 040247 6111/
11119 30157 40157 57016
22219 00267
444 20110 11014 1629/ 50101 80145 80010 9/015=
ZZYY 31534 11014 1740/ 525663 040241 6111/
11119 30152 40152 57017
22219 00267
444 20110 11014 1810/ 50101 80145 80009 9/015=
ZZYY 34512 11014 1750/ 522435 085861 6112/
22219 00205
444 20120 11014 1629/ 50101 80007 80004 9////=
ZZYY 32684 11014 1800/ 511578 120659 6113/
22219 00258
444 20130 11014 1813/ 50101 80117 80009 9/015=
ZZYY 32650 11014 1818/ 517693 140692 6112/
22219 00276
444 20120 11014 1814/ 50101 80102 80033 9/015=
ZZYY 54546 11014 1800/ 519080 136215 6112/
22219 00276
444 20120 11014 1814/ 50101 80119 80010 9/015=
ZZYY 32549 11014 1812/ 709783 144614 6112/
22219 00261
444 20120 11014 1600/ 50101 80102 80017 9/015=
ZZYY 32551 11014 1819/ 522387 134308 6111/
22219 00271
444 20110 11014 1814/ 50101 80102 80003 9/015=
ZZYY 32638 11014 1818/ 522972 163918 6111/
22219 00277
444 20110 11014 1719/ 50101 80092 80008 9/015=
ZZYY 51647 11014 1800/ 515319 136310 6113/
22219 00277
444 20130 11014 1815/ 50101 80117 80009 9/015=
ZZYY 55614 11014 1800/ 538795 153110 6111/
11119 30129 40129 52017
22219 00176
444 20110 11014 1816/ 50101 80090 80000 9/015=
ZZYY 32630 11014 1818/ 524371 128294 6112/
22219 00266
444 20120 11014 1813/ 50101 80092 80038 9/015=
ZZYY 32802 11014 1818/ 529567 117665 6113/
22219 00251
444 20130 11014 1814/ 50101 80096 80010 9/015=
ZZYY 54548 11014 1816/ 515011 130936 6112/
22219 00272
444 20120 11014 1725/ 50101 80108 80045 9/015=
ZZYY 54550 11014 1817/ 517851 136322 6111/
22219 00279
444 20110 11014 1814/ 50101 80108 80041 9/015=
ZZYY 54553 11014 1818/ 517889 139631 6111/
22219 00278
444 20110 11014 1428/ 50101 80110 80037 9/015=
ZZYY 51658 11014 1812/ 708327 140548 6113/
22219 00264
444 20130 11014 1542/ 50101 80117 80008 9/015=
ZZYY 32698 11014 1800/ 510249 125488 6112/
22219 00264
444 20120 11014 1814/ 50101 80118 80011 9/015=
ZZYY 32521 11014 1819/ 512447 138601 6113/
22219 00279
444 20130 11014 1814/ 50101 80102 80018 9/015=
ZZYY 32699 11014 1800/ 512375 122687 6112/
22219 00261
444 20120 11014 1814/ 50101 80119 80008 9/015=
ZZYY 32690 11014 1818/ 511195 134058 6112/
22219 00274
444 20120 11014 1540/ 50101 80102 80045 9/015=
ZZYY 32708 11014 1818/ 523578 123752 6113/
22219 00257
444 20130 11014 1814/ 50101 80102 80015 9/015=
ZZYY 32673 11014 1817/ 508370 133140 6111/
22219 00269
444 20110 11014 1814/ 50101 80102 80040 9/015=
ZZYY 32687 11014 1800/ 508608 139405 6112/
22219 00276
444 20120 11014 1539/ 50101 80118 80008 9/015=
ZZYY 32674 11014 1819/ 510820 129713 6112/
22219 00270
444 20120 11014 1814/ 50101 80104 80041 9/015=
ZZYY 32808 11014 1816/ 526582 118383 6112/
22219 00255
444 20120 11014 1629/ 50101 80109 80023 9/015=
ZZYY 32667 11014 1814/ 508908 138602 6112/
22219 00277
444 50101 80102 80002 9/015=
ZZYY 32622 11014 1815/ 511385 128195 6111/
22219 00268
444 50101 80102 80021 9/015=
ZZYY 32675 11014 1818/ 512666 133338 6111/
22219 00273
444 20110 11014 1814/ 50101 80104 80037 9/015=
ZZYY 32676 11014 1817/ 507963 146546 6113/
22219 00280
444 20130 11014 1813/ 50101 80104 80026 9/015=
ZZYY 32640 11014 1818/ 511349 134022 6112/
22219 00274
444 20120 11014 1814/ 50101 80104 80036 9/015=
ZZYY 54921 11014 1800/ 529394 143332 6111/
11119 40231 52003
22219 00227
444 20110 11014 1732/ 50101 80108 80021 9/015=
ZZYY 32542 11014 1818/ 512260 133093 6112/
22219 00272
444 20120 11014 1727/ 50101 80102 80017 9/015=
ZZYY 54908 11014 1800/ 518434 136834 6113/
11119 40165 52015
22219 00277
444 20130 11014 1540/ 50101 80104 80008 9/015=
ZZYY 32724 11014 1813/ 506362 109917 6113/
22219 00242
444 20130 11014 1724/ 50101 80102 80008 9/015=
ZZYY 51645 11014 1800/ 517313 130847 6113/
22219 00270
444 20130 11014 1726/ 50101 80117 80008 9/015=
ZZYY 32557 11014 1818/ 509586 131323 6111/
22219 00270
444 20110 11014 1425/ 50101 80102 80027 9/015=
ZZYY 32721 11014 1800/ 510332 122603 6111/
22219 00262
444 20110 11014 1629/ 50101 80119 80034 9/015=
ZZYY 51648 11014 1800/ 514456 140557 6111/
22219 00281
444 20110 11014 1539/ 50101 80118 80010 9/015=
ZZYY 51665 11014 1817/ 510161 156798 6111/
22219 00291
444 20110 11014 1813/ 50101 80102 80051 9/015=
ZZYY 51666 11014 1815/ 509848 160162 6113/
22219 00291
444 20130 11014 1719/ 50101 80104 80028 9/015=
ZZYY 54952 11014 1750/ 537118 117864 6113/
22219 00176
444 20130 11014 1732/ 50101 80108 80006 9/015=
ZZYY 32920 11014 1818/ 519815 130284 6111/
22219 00273
444 20110 11014 1813/ 50101 80100 80025 9/015=
ZZYY 54951 11014 1720/ 540981 155766 6111/
11119 30099 40099 52005
22219 00176
444 20110 11014 1616/ 50101 80115 80016 9/015=
ZZYY 32918 11014 1818/ 518769 132001 6111/
22219 00274
444 20110 11014 1814/ 50101 80100 80003 9/015=
ZZYY 32919 11014 1818/ 515895 130223 6111/
22219 00270
444 20110 11014 1814/ 50101 80100 80029 9/015=
ZZYY 54914 11014 1730/ 541777 157936 6112/
444 20120 11014 0837/ 50101 80108 80026 9/015=
ZZYY 32612 11014 1819/ 516615 121094 6112/
22219 00258
444 20120 11014 1248/ 50101 80089 80021 9/015=
ZZYY 43562 11014 1811/ 715283 131315 6112/
22219 00241
444 20120 11014 1720/ 50101 80102 80045 9/015=
0000011100
149
UANT01 CWAO 111823
ARP UAE232 5429N05225W 1823 F310 MS58 296/107 KT
A6ECE DDL XXW 111823 F06A
0000011200
150
UANT01 CWAO 111823
ARP SOO097 5621N05949W 1823 F330 MS58 281/112 KT
N774SA DDL YHO 111823 F37A
0000011100
151
UANT01 CWAO 111823
ARP RCH269 5004N03933W 1823 F340 MS60 297/59 KT
33125A DDL XXW 111823 F64A
0000009200
152
UAUS31 KWBC 111824
ARP UAL420 3606N 09057W 1814 F310 TB SMTH RM A320 OV ARG=
0000008500
153
UAPA01 KWBC 111824
ARP UAL1231 2517N 14531W 1816 F350 MS43 241/081KT=
0000149600
154
SMRS42 RUMS 111800
AAXX 11181
22003 41499 72102 11066 21078 30166 40180 52002 72683 87900 333
91004=
22004 11984 00000 11206 21233 30071 40197 53004 69932 70281 333 11187
93508=
22012 11495 63608 11035 21089 30153 40165 55002 69992 78582 8690/ 333
11029 91011 91112=
22100 12/99 20000 11380 21423 30053 40223 5//// 60002 333 11300
21382=
22101 12998 02401 11257 21281 30057 40199 55001 60002 333 11216
93508=
22105 12998 00102 11285 21315 30070 40197 57005 60002 333 11282
91004=
22133 NIL=
22140 11597 70812 11106 21128 30139 40155 52004 60002 73632 87500 333
11090 91016 91118=
22213 12584 71801 11238 21261 39974 40158 54000 60002 81501 333 11238
91002 93503=
22249 11999 60605 11157 21181 39933 40134 54001 60002 73632 80030 333
11154 91011 91113=
22305 NIL=
22413 11350 80407 11116 21129 39971 40076 52003 60032 77173 8872/ 333
11117 87708 91012 91114=
22717 11456 80103 11105 21133 39788 49988 52005 69942 77172 8572/ 333
11101 85711=
22805 125// 83503 11072 21093 39979 49999 51008 60002 8653/ 333 11062
93700=
22829 11456 80000 11111 21124 39908 49961 52010 60022 77172 8572/ 333
11074=
22891 11496 83202 11070 21087 39908 49997 52006 69932 77072 886// 333
11063 88713=
22897 11471 80601 11052 21088 39989 40003 52002 60002 70262 886// 333
11052 88710=
26067 12597 70301 11066 21078 39842 40005 51004 60002 87900 333 11053
86923=
26080 12484 83003 11052 21058 39953 49986 52014 69922 886// 333
88712=
0000056100
155
SMRS41 RUMS 111800
AAXX 11181
22525 11596 80706 11088 21100 39999 40012 54001 60022 77173 8802/ 333
11078 91011 91113=
22727 11964 83603 11120 21155 39938 49988 52006 69962 77173 8807/ 333
11119 91110 92980=
26069 11499 83203 11065 21073 39891 40005 52008 69922 70282 889// 333
11053 85914=
26099 11496 80000 11103 21119 39742 49967 52014 60012 77172 8572/ 333
10000=
26179 12397 83303 11039 21047 39967 40000 52008 69922 886// 333 11026
88708=
26268 11596 82602 11015 21035 39928 40010 52003 69922 77172 8802/ 333
11012=
0000221000
156
SMRS40 RUMS 111800
AAXX 11181
22212 11464 70000 11189 21217 39998 40176 54001 69902 77172 84770 333
11189 84714 93510=
22312 11575 80408 11112 21172 30100 40123 54001 60002 73632 885// 333
11111 91015 91116=
22912 11984 83503 11103 21131 39965 49981 52019 69922 70272 8804/ 333
11103=
22913 11996 83302 11105 21133 39951 49981 52009 69902 77172 8802/ 333
11088=
22925 11468 83201 11122 21142 39826 49971 51012 60022 77172 887// 333
11043 86710=
26072 11475 82901 11061 21069 39974 49994 53006 69932 70272 886// 333
11046 88714 93703=
26157 11495 80000 11022 21028 39954 40004 58003 69962 78582 889// 333
11014=
26359 11561 72102 11001 21007 39883 40018 58006 60012 78582 87900 333
10004=
26029 27/70 /2904 10012 21006 39954 49982 58007 70086 333 10014 21010
69957=
26045 27557 81502 11025 21034 39992 49995 54001 77177 88/// 333 11011
21025 60017 88/32=
26046 27411 81300 11034 21040 39908 40000 57004 77187 88/// 333 11027
21034 60027 88/14=
26058 27458 80801 11040 21049 39965 40000 57002 77470 80/// 333 11027
21041 69957 80/15=
26124 27157 80000 10000 20000 39956 49987 58007 78587 88/// 333 10002
21004 69927 88/02=
26134 01165 82201 11003 21003 39924 49990 57005 60012 70282 886// 333
11002 21012 60007 88702=
26135 27157 81600 11005 21010 39917 49992 57005 77177 88/// 333 11005
21012 69927 88/02=
26141 01433 81402 11026 21026 39842 49992 58008 69972 77187 8872/ 333
11026 21031 69957 88511=
26145 27256 81001 11019 21025 39958 49998 58003 77177 88/// 333 11016
21026 69957 88/06=
26229 NIL=
26233 27128 81701 10000 21003 39883 49990 56011 76187 88/// 333 10002
21009 69927 88/03=
26238 NIL=
26314 NIL=
26318 NIL=
26324 NIL=
26326 NIL=
26335 NIL=
26425 NIL=
26531 11497 82303 10039 20037 40020 57011 69952 76176 8872/ 333 10039
86714 91007 91107=
26633 11470 82404 10040 20025 39909 40039 56009 69942 70262 886// 333
10041 88711 91006 91109=
26643 11363 82203 10014 20009 39879 40041 58013 69942 70272 886// 333
10021 88707=
26653 11460 82502 10006 21005 39878 40042 58005 69932 70282 886// 333
10024 88712=
26668 32570 72602 10005 21021 39839 40057 875// 333 10021 87620
91113=
0000010400
157
SMRS40 RUMS 111800 RRA
AAXX 11181
26229 33/// /2503 10039 20033 49986 57015 333 10040=
0000092100
158
SMSG01 GOOY 111800
AAXX 11184
61600 32960 53610 10216 20181 30127 40132 80002
  333 10266 58005 85073=
61612 32960 30000 10280 20083 30119 40127 80002
  333 10295 58001 83073=
61627 32960 40402 10294 20087 3//// 4//// 83082
  333 10305 5//// 83363 83073=
61630 32960 30000 10320 20129 30113 40132 80002
  333 10360 58012 83073=
61641 32960 03613 10210 20169 30102 40136
        333 10215 59001=
61666 32962 03602 10295 20076 30111 40120
  333 10310 58000=
61679 32962 03606 10310 20111 30115 40123
  333 10328 58000=
61687 32960 00104 10335 20115 30058 40110
  333 10345 58015=
61695 32962 53604 10285 20146 30102 40128 80002
  333 10315 58019 85073=
61697 32960 03408 10240 20168 30103 40118
  333 10290 58008=
61698 32960 53604 10316 20144 30098 40109 80002
  333 10340 58011 85073=
61699 32960 50806 10338 20068 39930 40118 80002
  333 10350 58034 85073=
0000072600
159
SMMG01 FMMI 111800
AAXX 11184
67002 32580 30402 10276 20248 30094 40129 81800
  333 10330 58001 81822 924/7=
67009 NIL=

67012 NIL=

67025 NIL=

67027 11458 82806 10284 20257 30100 40121 52024 69914 79596 8693/
  333 10325 81817 83917 85640 94979 95874 555 82360=
67045 NIL=

67073 NIL=

67083 31470 50812 10206 20177 38776 48550 52021 71322 85900
  333 10298 82817 81917 84620 94966 95836=
67095 11465 71202 10272 20245 30154 40160 52023 69902 72162 8693/
  333 10328 81917 82817 85633 94967 95837=
67113 NIL=

67117 NIL=

67137 NIL=

67143 NIL=

67161 NIL=

67197 11460 70000 10255 20248 30147 40157 53010 60072 71562 878//
  333 10300 83816 85633=
00000000