0000010700
200
SMBR01 TBPB 111900
METAR TBPB 111900Z 07017KT 9999 FEW016 27/20 Q1014 RERA NOSIG=



0000009700
201
SMBR01 TBPB 111900
METAR TBPB 111900Z 07017KT 9999 FEW016 27/20 Q1014 RERA NOSIG=
0000462800
202
SNVF50 EGRR 111900
BBXX
63057 11194 99592 10015 47997 /2727 10063 20004 40056 52017 700// 22200 10708 70039=
62128 11194 99587 10014 47998 /2830 10057 20010 40089 52021 700// 22200 10607 70034=
62113 11194 99584 10002 47998 /3026 10055 20005 40102 50014 700// 22200=
62112 11194 99584 70002 47598 /2914 10062 20015 40105 52022 700// 22200=
62129 11194 99584 10003 46/// /2926 10054 21000 40101 52018 22200=
62114 11194 99583 10000 46/// /2926 10054 20013 40102 52022 22200=
62148 11194 99536 10015 46/// ///// 22200=
62144 11194 99534 10017 47998 /2818 10062 20010 40215 52019 700// 22200 10503 70017=
62142 11194 99530 10021 47998 /3019 10063 20020 40209 52026 700// 22200 10503 70016=
62145 11194 99531 10028 47598 /2919 10062 20004 40214 52020 700// 22200 10504 70020=
62154 11194 99564 10022 46/// /3124 10062 21009 40129 52026 22200=
62123 11194 99563 10022 47698 /3129 10068 21002 40133 52025 700// 22200 1//07 70037=
62127 11194 99540 10007 47999 ///// 10058 20000 40203 52022 700// 22200 10504 70018=
62165 11194 99540 10011 47599 /2713 10061 20011 40204 52021 700// 22200 10604 70022=
62131 11194 99539 10012 46/// /2814 10063 20013 40201 52022 22200=
62150 11194 99536 10007 47999 /2717 10059 20010 40220 53020 700// 22200 10503 70013=
62121 11194 99535 10027 46/// ///// 10064 20017 40194 52021 22200=
64041 11194 99607 70026 47597 /3034 40053 52022 700// 22200 10909 70047=
MWYG6 11194 99603 70040 47698 /2827 40090 52026 700// 22200=
63115 11194 99616 10013 47498 /0413 10066 20021 49998 53014 700// 22200 10808 70038=
63114 11194 99613 10017 47299 /0714 10026 20026 49987 55000 700// 22200=
63117 11194 99613 10011 47398 /0412 49989 53007 700// 22200=
63101 11194 99612 10009 46/// /2824 10058 20026 49982 53001 22200 10810 70048=
63103 11194 99612 10011 46/// ///// 10057 20031 49983 57001 22200 10709 70046=
63112 11194 99611 10010 47498 /3031 10053 20026 49980 53001 700// 22200 10708 70041=
63104 11194 99612 10016 47497 /3209 10046 20022 49984 55002 700// 22200 10708 70038=
63107 11194 99611 10017 46/// /2924 10048 49983 56007 22200=
63106 11194 99610 10017 46/// /2827 10048 56006 22200=
63105 11194 99610 10017 47498 /2927 10086 20012 49981 57007 700// 22200=
63113 11194 99610 10017 46/// /2826 10056 20026 40005 51011 22200 10708 70041=
63108 11194 99608 10017 47/97 /3129 10056 20021 49999 56006 700// 22200 10708 70042=
63055 11194 99606 10016 47497 /2833 10057 20027 40013 56003 762// 22200 10708 70041=
63056 11194 99597 10016 47698 /2933 10068 21010 40036 51009 700// 22200 10707 70037=
63109 11194 99596 10015 46/// /3037 10068 20001 40038 51009 22200=
63110 11194 99595 10015 47698 /2931 10069 21006 40053 51013 700// 22200 10607 70035=
MQSY9 11194 99593 10015 47598 /2836 10071 21003 51014 700// 22200=
62118 11194 99577 10009 47597 /2928 10058 20012 40112 52019 700// 22200 10707 70036=
ZQSD5 11194 99583 10008 47598 ///// 10059 20014 40093 52019 700// 22200 1//09 70045=
PJAI 11194 99581 70014 47998 /2721 10059 21000 40124 52022 700// 22200=
62111 11194 99580 70003 46/// /3031 10058 20011 40133 52017 22200 10607 70035=
62117 11194 99579 10000 47497 /2925 10050 20005 40109 52024 700// 22200 10607 70033=
62134 11194 99580 10014 47596 /3026 10060 20017 40104 52020 700// 22200 10707 70035=
62102 11194 99579 10018 46/// /2930 10064 20015 40094 52020 22200 10707 70036=
62143 11194 99577 10018 47598 /3113 10064 20009 40123 52021 700// 22200 10607 70036=
62155 11194 99577 10007 47599 /2929 10058 21006 40120 52019 700// 22200 10607 70036=
62116 11194 99576 10011 47998 /3028 10060 20000 40110 52019 700// 22200 10707 70036=
62164 11194 99572 10008 47598 /2823 10066 20010 40128 52021 700// 22200 00083 10607 70035=
62133 11194 99571 10009 46/// /3026 40128 52022 22200 10607 70034=
62104 11194 99574 10013 47598 /3028 10070 20013 40112 52023 700// 22200=
62140 11194 99573 10013 46/// ///30 10064 20001 40116 51023 22200=
62122 11194 99573 10016 47598 /3131 10062 20007 40109 51020 700// 22200 10707 70037=
62153 11194 99573 10020 47598 /2818 40109 51021 700// 22200 10707 70035=
62146 11194 99572 10021 47598 /2608 10062 20009 40123 51027 700// 22200 10707 70035=
62152 11194 99570 10018 47998 /3020 10065 20002 40131 52023 700// 22200 10608 70038=
62119 11194 99570 10019 47597 /3129 10061 20004 40130 52023 700// 22200 10708 70038=
62120 11194 99564 10021 47598 /3126 10060 21000 40134 52027 700// 22200=
62132 11194 99564 10020 46/// /3226 10066 21012 40152 52026 22200=
62149 11194 99537 10011 47999 /2721 10066 20010 40207 52020 700// 22200 10504 70018=
0000009400
203
SAUK39 EGRR 111850 RRA
METAR EGDR 111850Z 13010KT CAVOK 04/02 Q1021 BLU NOSIG=
0000028300
204
SXHW11 KWAL 111902
B159A272 011190243"
1,140111,17:59:52,4.8,39,5.6,20.5,1014.5,0.09,13.1,
1,140111,18:14:52,3.8,35,5.0,20.9,1014.5,0.09,13.1,
1,140111,18:29:52,4.1,43,6.3,21.8,1014.6,0.09,13.1,
1,140111,18:44:52,5.8,36,7.6,22.3,1014.7,0.09,13.1, 45+0NN  30W
0000011100
205
UANT01 CWAO 111901
ARP N674RW 6146N05133W 1901 F450 MS60 075/33 KT
N674RW QXT AME 111901 A63A
0000011100
206
UANT01 CWAO 111901
ARP N803AG 5828N04136W 1901 F410 MS58 246/34 KT
N803AG QXT AOW 111901 A22A
0000010600
207
SNVF25 LFPW 111900
BBXX
BATEU08 11194 99638 70250 46/// /1007 29059 40039 53004
22263=
0000003900
208
USCR01 GCXO 111800
NIL=
0000003900
209
UKCR01 GCXO 111800
NIL=
0000015700
210
SSVX13 LFPW 111900
ZZYY 16593 11014 1900/ 338642 079126 6113/ 11119 40215 52002 22219
 00148 444 20130 11014 1900/ 50101 80120 80013 9/015=
0000015700
211
SSVX13 LFPW 111900
ZZYY 41972 11014 1900/ 734569 040338 6113/ 11119 40262 52010 22219
 00194 444 20130 11014 1858/ 50101 80120 80085 9/015=
0000015700
212
SSVX13 LFPW 111900
ZZYY 44747 11014 1900/ 758627 045422 6113/ 11119 49934 52006 22219
 00046 444 20130 11014 1900/ 50101 80154 80000 9/015=
0000011200
213
SNVF25 LFPW 111900
BBXX
BATFR21 11194 99437 10073 46/// /0810 10137 20097 40219 51006
22231=
0000011800
214
SNVF25 LFPW 111900
BBXX
BATFR44 11194 99477 70034 46/// /0902 10079 20067 40230 51014
22200 04082=
0000009200
215
SAIN90 VOCI 111900
METAR VOCI 111900Z 00000KT 4000 HZ NSC 23/21 Q1013 NOSIG=
0000011100
216
UANT01 CWAO 111901
ARP UAL959 6018N03547W 1901 F320 MS60 193/61 KT
N651UA DDL XXN 111901 F98A
0000011000
217
UANT01 CWAO 111902
ARP DLH424 5158N03053W 1901 F350 MS51 238/12 KT
DAIGU QXT AOE 111902 J27A
0000009500
218
SNAA21 ENMI 111900
AAXX 11191
89504 43/// /2203 11046 21111 38469 49937 52001=
0000015700
219
SSVX13 LFPW 111900
ZZYY 16591 11014 1900/ 343270 065041 6113/ 11119 40120 57042 22219
 00114 444 20130 11014 1858/ 50101 80118 80016 9/015=
00000000