0000011000
866
SAER41 OMAM 111827 RRF
METAR OMAM 111830Z 02006KT 9999NDV -RA SCT045 OVC090 18/15 Q1020 A3013=
0000019000
867
SMVD80 KWBC 111800 RRB
BBXX
WXY6216 11184 99448 70874 43/// /3014 00/// 11001 21022 49915
 55006 7//// 8//// 22272 0//// 2//// 3//// 4//// 5//// 6//// 81010
 ICE /////=
0000009200
868
SAIN90 VAAH 111840
METAR VAAH 111840Z 05007KT 3000 FU NSC 15/06 Q1018 NOSIG=
0000009500
869
SAIN90 VOHS 111840
METAR VOHS 111840Z 11005KT 5000 HZ SCT020 18/14 Q1017 NOSIG=
0000009200
870
SAIN90 VOMM 111840
METAR VOMM 111840Z 00000KT 6000 SCT020 22/19 Q1014 NOSIG=
0000020300
871
SAIN34 VOMM 111830
METAR VOBL 111830Z VRB03KT 6000 NSC 22/18 Q1019 NOSIG=
METAR VOCI 111830Z 00000KT 4000 HZ NSC 23/21 Q1013 NOSIG=
METAR VOMD 111830Z 05005KT 4000 HZ NSC 24/19 Q1015=
0000010300
872
SMPS02 NZKL 111800
AAXX 11184
91723 NIL=
91964 36/// /1109 10252 20217 40207 52004=
0000204200
873
UKDL03 EDZW 111800
TTBB 11178 10238
00003 04809 11963 02403 22892 02307 33832 05750 44674
15910 55628 20329 66562 26903 77501 34156 88497 34357
99489 34957 11476 35174 22431 36182 33403 39581 44353
42181 55322 46775 66277 47976 77264 45183 88213 51182
99187 48788 11100 54187
21212 00003 30002 11000 28509 22994 27511 33881 31022
44823 32020 55697 30018 66665 27518 77572 26021 88514
27023 99480 25024 11399 26031 22350 27023 33314 25031
44286 26036 55273 25531 66223 28022 77189 26025 88176
28021 99157 27517 11147 28023 22144 29020 33140 27516
44138 26016 55128 28022 66119 30019 77113 30013 88109
28017 99100 28021
31313 48008 81645
41414 753//
51515 11886 31022 22800 31520 33600 26020=
TTBB 11178 10618
00974 05012 11772 05714 22760 03179 33737 03591 44694
07586 55653 09189 66542 21777 77502 24379 88384 41567
99350 45365 11342 46559 22323 48767 33243 59560 44182
51783 55147 55182 66128 51585 77100 56182
21212 00974 22006 11959 23511 22946 27012 33899 28519
44878 29520 55818 28522 66726 27524 77661 30532 88562
29031 99473 30037 11412 28531 22347 26536 33289 26035
44255 26044 55228 26036 66218 28033 77196 26525 88185
28020 99180 27016 11156 28016 22137 28018 33129 30012
44121 27507 55119 26507 66107 28509 77100 26513
31313 48008 81645
41414 754//
51515 11861 29520 22800 28021 33600 29531=
TTBB 11178 10771
00968 01402 11961 03411 22847 00410 33750 05700 44695
07742 55684 06765 66642 09577 77536 21969 88523 22774
99485 27171 11442 32104 22410 35750 33381 38750 44362
41535 55357 41358 66306 49533 77272 52959 88229 61757
99216 61961 11209 58566 22189 56376 33187 56577 44171
49588 55144 53987 66100 54986
21212 00968 10002 11965 21505 22953 25008 33918 27013
44904 28014 55774 27023 66512 29027 77472 27525 88450
26528 99321 26538 11232 25031 22206 27029 33179 27021
44163 29018 55149 26512 66137 26515 77121 30013 88112
27015 99104 27516 11100 30014
31313 48008 81650
41414 852//
51515 11855 27019 22800 27520 33600 28524=
0000098000
874
USDL03 EDZW 111800
TTAA 11171 10238
99003 04809 30002 00096 04611 28509 92727 00208 30020
85399 04539 31021 70900 14514 30018 50536 34156 26523
40691 39382 26030 30884 46375 25533 25005 46983 27031
20152 50186 26522 15340 50988 27521 10602 54187 28021
88322 46775 25029 88213 51182 27025
77286 26036 41108
31313 48008 81645=
TTAA 11171 10618
99974 05012 22006 00161 ///// ///// 92797 03006 27014
85477 01105 29020 70009 06989 28524 50555 24779 29534
40712 38971 27533 30904 51964 26537 25020 58760 26543
20162 52578 27025 15348 54782 27516 10608 56182 26513
88243 59560 26541
77255 26044 40816
31313 48008 81645=
TTAA 11171 10771
99968 01402 10002 00152 ///// ///// 92785 02407 27012
85467 00610 27519 70001 07535 27024 50554 25771 29026
40712 36547 27033 30906 49543 26037 25023 57958 25533
20163 58771 26527 15348 53187 27012 10608 54986 30014
88229 61757 25531 88144 53987 27013
77321 26538 40406
31313 48008 81650=
0000013100
875
UAUS31 KWBC 111839
ARP UAL285 3821N 08146W 1825 F320 TB LGT TURB OCNL MOD CHOP RM
    B752 OV HVQ 80E HVQ TO HVQ=
0000020000
876
UAPA01 KWBC 111839
ARP ASA885 3536N 12556W 1826 F350 MS55 245/072KT TB LGT CHOP=
ARP AAR119 1712N 14249E 1829 F340 MS41 173/019KT=
ARP ASA813 3352N 12847W 1832 F330 MS50 262/060KT=
0000011100
877
UANT01 CWAO 111839
ARP UAL111 5306N02655W 1838 F350 MS53 172/43 KT
N33103 DDL IG1 111839 F38A
0000011100
878
UANT01 CWAO 111839
ARP XLF1670 4555N03310W 1839 F380 MS51 287/43 KT
FGRSQ DDL XXN 111839 J80A
0000011200
879
UANT01 CWAO 111839
ARP CFC4022 5117N01617W 1838 F280 MS44 205/70 KT
77702A QXT AOE 111839 F10A
0000011100
880
UANT01 CWAO 111839
ARP AAL105 5126N04216W 1839 F380 MS57 288/51 KT
N761AJ DDL XXN 111839 F54A
0000087200
881
SMVD01 PANC 111800 RRE
BBXX
WXY6216 11184 99448 70874
43/// /3014 00/// 11001 21022 49915 55006 7//// 8////
22272 0//// 2//// 3//// 4//// 5//// 6//// 81010 ICE /////=
VRDR8 11183 99313 30591
41496 60319 10220 20205 40200 52010 7//11 869//
22213 0//// 21004 304// 4//// 5//// 6//// 80210 ICE /////=
9HJG9 11183 99152 70696
41597 4//// 10290 2//// 40190 54/// 70000 8/1//
22243 04280 205// 3//// 4//// 5//// 6//// 8//// ICE /////=
2GOY3 11184 99179 11336
41697 60730 10250 2021/ 40140 57010 70222 8670/
22233 00270 21004 307// 41004 5//// 6//// 80220 ICE /////=
VRED4 11184 99345 30100
417// 32414 10190 2010/ 40220 57010 7//00 83483
22223 0//// 2//01 315// 4//02 5//// 6//// 80140 ICE /////=
WPGK 11184 99372 70741
41397 81737 10189 20172 40070 56032 74244 886//
22234 00161 2//// 3//// 4//// 5//// 6//// 80178 ICE /////=
0000039200
882
UPKN01 HKNC 111800
PPAA 6118/ 63612 NIL=
PPAA 6118/ 63619 NIL=
PPAA 6118/ 63624 NIL=
PPAA 6118/ 63641 NIL=
PPAA 6118/ 63661 NIL=
PPAA 6118/ 63695 NIL=
PPAA 6118/ 63708 NIL=
PPAA 6118/ 63714 NIL=
PPAA 6118/ 63723 NIL=
PPAA 6118/ 63737 NIL=
PPAA 6118/ 63766 NIL=
PPAA 6118/ 63772 NIL=
PPAA 6118/ 63793 NIL=
PPAA 6118/ 63799 NIL=
PPAA 6118/ 63820 NIL=
0000010600
883
SMRA15 RUHB 111800 RRA
AAXX 11181
21432 42998 52404 11293 21317 30272 40293 53001 85030=
0000203900
884
SMPH01 RPMM 111800
AAXX 11181
98134 32465 50906 10205 20141 30009 40202 58009 83270
333 56299 83819 83357 =
98223 32462 10000 10196 20149 40149 58013 81106 333
56999 81819 =
98232 31565 80403 10230 20210 40181 58010 70242 8227/
333 56199 82820 88358 =
98325 32458 31803 10215 20186 40148 58013 82270 333
56999 82817 =
98328 31458 11801 10115 20106 38531 40136 58014 70544
81101 333 56999 81815 =
98330 32475 60401 10225 20201 30119 40151 58011 83206
333 56/// 83818 86077 =
98336 32468 70407 10222 20186 30168 40173 57020 82270
333 56199 82815 87357 =
98429 31560 10801 10237 20173 40145 57017 70544 81100
333 56999 81825=
98430 31558 40000 10210 20191 40142 58015 70544 81170
333 56999 81820 83358 =
98431 31458 70601 10240 20223 30095 40142 58017 70222
83270 333 56999 83818 87459 =
98440 31458 80408 10243 20199 30140 40145 57012 71522
8427/ 333 56199 84815 88277 =
98444 11463 80404 10240 20211 30105 40124 58015 69921
78082 8537/ 333 56999 82917 83818 88270 =
98526 32570 83601 10/// 20/// 40108 58022 82207 333
56999 82820 88274=
98531 31568 40902 10260 20219 30110 40114 56006 70544
82408 333 56199 82620 87275 =
98536 32465 80406 10232 20210 39928 40128 57013 8327/
333 56199 83818 88357 =
98543 11468 80202 10248 20233 30100 40111 57012 60011
71682 83207 333 56999 83818 88272 =
98550 NIL=
98618 32470 73202 10248 20220 40116 58020 82268 333
56999 82819 84358 87273 =
98630 NIL=
98637 NIL=
98646 11557 83604 10240 20230 30068 40096 57015 60041
76166 8382/ 333 56199 83820 88459=
98653 11456 80406 10247 20239 30038 40083 58002 60321
76166 83221 333 56999 83818 88456=
98741 11460 80402 10244 20237 40099 57006 60181 76186
8352/ 333 56999 83617 88457 =
98747 NIL=
98753 11458 83602 10235 20228 40074 58015 60431 76066
8422/ 333 56899 84816 88359 =
98755 11458 80404 10250 20243 40063 57027 60571 76366
8452/ 333 56199 84616 88457 =
98836 11460 80000 10246 20227 40081 57018 60011 72162
8252/ 333 56999 82618 88460 =
0000017100
885
FCIN90 VIDP 111800
TAF VIDP 111800Z 1121/1206 00000KT 0600 MIFG NSC
     BECMG 1200/1201 0300 FG FEW030 SCT100
     BECMG 1204/1205 25004KT 1000 BR=

00000000