0000066100
020
UDAF01 FAPR 111820
AMDAR 1118
LVR AFZA70 2031S 03252E 111614 F360 MS450 191/008 TB0 S031 333 F/// VG012=
LVR AFZA70 2119S 03231E 111622 F360 MS452 143/007 TB0 S031 333 F/// VG012=
LVR AFZA70 2207S 03210E 111629 F360 MS454 071/006 TB0 S031 333 F/// VG012=
LVR AFZA70 2256S 03148E 111636 F360 MS446 291/007 TB0 S031 333 F/// VG012=
LVR AFZA70 2339S 03117E 111643 F360 MS450 312/012 TB0 S031 333 F/// VG012=
LVR AFZA70 2411S 03033E 111650 F360 MS447 310/022 TB0 S031 333 F/// VG012=
LVR AFZA70 2442S 02948E 111657 F360 MS451 295/025 TB0 S031 333 F/// VG011=
LVR AFZA70 2513S 02904E 111704 F298 MS294 293/020 TB0 S031 333 F/// VG010=
0000066100
021
UDAF01 FAPR 111820
AMDAR 1118
DES AFZA70 2540S 02835E 111709 F182 MS070 325/002 TB0 S031 333 F/// VG011=
UNS AFZA70 2546S 02830E 111711 F159 MS025 264/002 TB0 S031 333 F/// VG011=
UNS AFZA70 2546S 02830E 111711 F159 MS023 259/002 TB0 S031 333 F/// VG019=
DES AFZA70 2553S 02829E 111712 F137 PS017 222/015 TB0 S031 333 F/// VG012=
DES AFZA70 2602S 02827E 111714 F117 PS077 217/019 TB0 S031 333 F/// VG012=
DES AFZA70 2607S 02825E 111715 F099 PS122 212/008 TB0 S031 333 F/// VG013=
DES AFZA70 2615S 02821E 111717 F081 PS171 236/003 TB0 S031 333 F/// VG014=
DES AFZA70 2611S 02815E 111722 F064 PS196 354/019 TB0 S031 333 F/// VG018=
0000066100
022
UDAF01 FAPR 111822
AMDAR 1118
LVR AFZA09 0001S 00500E 111730 F400 MS571 181/021 TB0 S031 333 F/// VG000=
LVR AFZA09 0056N 00453E 111738 F400 MS565 193/026 TB0 S031 333 F/// VG000=
LVR AFZA09 0153N 00446E 111745 F400 MS572 205/020 TB0 S031 333 F/// VG000=
LVR AFZA09 0250N 00439E 111752 F400 MS570 213/021 TB0 S031 333 F/// VG000=
LVR AFZA09 0346N 00433E 111759 F400 MS572 234/027 TB0 S031 333 F/// VG000=
LVR AFZA09 0441N 00425E 111806 F367 MS496 224/021 TB0 S031 333 F/// VG000=
LVR AFZA09 0526N 00401E 111813 F234 MS146 090/004 TB0 S031 333 F/// VG000=
DES AFZA09 0544N 00351E 111816 F183 MS047 128/009 TB0 S031 333 F/// VG000=
0000066100
023
UDAF01 FAPR 111823
AMDAR 1118
LVR AFZA23 2126S 02213E 111733 F340 MS397 349/012 TB0 S031 333 F/// VG000=
LVR AFZA23 2043S 02136E 111741 F340 MS397 022/008 TB0 S031 333 F/// VG000=
LVR AFZA23 2000S 02058E 111748 F340 MS399 044/009 TB0 S031 333 F/// VG000=
LVR AFZA23 1917S 02020E 111755 F340 MS395 051/012 TB0 S031 333 F/// VG000=
LVR AFZA23 1834S 01942E 111802 F340 MS395 069/011 TB0 S031 333 F/// VG000=
LVR AFZA23 1752S 01903E 111809 F340 MS392 073/011 TB0 S031 333 F/// VG000=
LVR AFZA23 1710S 01824E 111816 F360 MS447 076/016 TB0 S031 333 F/// VG000=
LVR AFZA23 1627S 01745E 111823 F360 MS450 081/015 TB0 S031 333 F/// VG000=
0000066100
024
UDAF01 FAPR 111821
AMDAR 1118
DES AFZA70 2617S 02815E 111718 F077 PS185 133/002 TB0 S031 333 F/// VG018=
DES AFZA70 2616S 02814E 111719 F074 PS188 134/003 TB0 S031 333 F/// VG018=
DES AFZA70 2614S 02814E 111720 F071 PS192 345/011 TB0 S031 333 F/// VG018=
DES AFZA70 2612S 02814E 111721 F067 PS190 355/014 TB0 S031 333 F/// VG018=
DES AFZA70 2611S 02815E 111722 F064 PS196 354/019 TB0 S031 333 F/// VG018=
DES AFZA70 2610S 02815E 111722 F061 PS205 352/019 TB1 S031 333 F/// VG026=
DES AFZA70 2609S 02815E 111722 F058 PS212 238/020 TB1 S031 333 F/// VG025=
DES AFZA70 2608S 02816E 111723 F054 PS220 355/015 TB1 S031 333 F/// VG025=
0000066100
025
UDAF01 FAPR 111824
AMDAR 1118
DES AFZA49 2850S 03055E 111812 F139 PS015 263/024 TB0 S031 333 F/// VG010=
DES AFZA49 2855S 03058E 111814 F119 PS060 259/020 TB0 S031 333 F/// VG010=
DES AFZA49 2903S 03103E 111815 F099 PS069 277/018 TB0 S031 333 F/// VG010=
DES AFZA49 2908S 03106E 111816 F082 PS100 288/012 TB0 S031 333 F/// VG012=
DES AFZA49 2912S 03109E 111817 F065 PS122 341/014 TB0 S031 333 F/// VG012=
DES AFZA49 2918S 03113E 111819 F049 PS142 004/006 TB0 S031 333 F/// VG012=
DES AFZA49 2924S 03117E 111820 F033 PS172 024/003 TB0 S031 333 F/// VG013=
DES AFZA49 2932S 03111E 111823 F018 PS200 050/008 TB0 S031 333 F/// VG017=
0000023300
026
SMVD17 KWNB 111800 RRH
BBXX
51206 11181 99198 71550 46/// ///// 1//// 91803 22200 00246 11005
21004 310// 41102 70023=
46114 11181 99367 71223 46/// ///// 1//// 91808 22200 00126 11506
21003 331// 41505 70031=
0000012600
027
SMIQ01 KWBC 111800
AAXX 11181
40676 12560 82805 10108 20074 40204 52012 60002 8552/ 333 10122
85632 88460=
0000294900
028
SMCN04 KWBC 111800
AAXX 11184
71055 45/// /2010 11325 21358 39660 40007 55001 6///1 333 11294
21329 7////=
71107 17/// /3311 10055 20019 39748 49858 53048 60011 7//4/ 333
10069 20020 70222=
71158 15/// /2504 11078 21087 39723 40001 55006 60001 333 11077
21128 70014=
71190 45/// /0513 11005 21013 6///1 333 11003 21077 7////=
71228 15/// /1420 11035 21062 60001 333 11030 21115 70000=
71230 17/// /2905 11055 21069 38938 49813 55001 60021 7//4/ 333
11035 21057 7////=
71246 17/// /0108 11137 21152 39207 49875 56045 69941 7//4/ 333
11135 21184 70015=
71421 17/// /2005 11082 21123 39406 40135 56032 69921 7//4/ 333
11080 21161 70004=
71423 15/// /2012 30153 56034 60001 333 70000=
71439 45/// /2710 10028 20019 39669 49886 56037 6///1 333 10042
20001 7////=
71479 17/// /1307 10061 39713 49820 53017 60031 7//4/ 333 10092
20034 70224=
71488 15/// /2248 10059 21021 38334 49831 56024 60001 333 10077
21016 70000=
71501 45/// /3017 11224 21247 39977 49979 6///1 333 11224 21264
7////=
71502 15/// /2718 11222 21249 39909 49925 56021 60001 333 11216
21277 70000=
71506 15/// /0000 11287 21313 39072 40007 57010 60001 333 11272
21307 70000=
71682 17/// /3601 11224 21253 39784 40021 53006 60021 7//4/ 333
11209 21228 70027=
71683 15/// /2615 11240 21265 39854 49968 58027 60001 333 11238
21291 70000=
71974 45/// /1906 11283 21313 39742 49785 56005 6///1 333 7////=
71976 15/// /0000 11305 21333 39433 40094 58002 60001 333 11271
21305 70000=
71990 17/// /0602 11276 21304 38280 49927 50003 69981 7//4/ 333
11243 21317 70037=
71273 15/// /1407 11084 21094 39261 49918 58047 60001 333 11061
21157 7////=
71285 15/// /1316 11047 21061 60001 333 11046 21180 70000=
71322 17/// /0000 11258 21280 30001 40014 58015 60021 7//4/ 333
11257 21329 70037=
71340 15/// /1218 11034 21051 60001 333 11034 21180 70000=
71341 15/// /2628 10054 20002 60001 333 10054 21027 70000=
71342 45/// /1720 11026 21041 6///1 333 11026 21110 7////=
71344 15/// /1816 11010 21026 60001 333 11010 21101 7////=
71347 17/// /0411 11058 21069 69951 7//4/ 333 11056 21205 70005=
71348 17/// /1004 11054 21058 60011 7//4/ 333 11049 21164 70010=
71357 15/// /0501 11213 21235 30020 40027 51018 60001 333 11196
21265 70003=
71358 15/// /2504 11292 21326 39965 40001 53021 60001 333 11264
21330 70000=
71374 45/// /2513 11038 6///1 333 11036 21073 7////=
71737 17/// /0901 10004 21001 39437 49953 58059 60061 7//4/ 333
10006 21092 70061=
71743 15/// /0407 11272 21298 39854 40085 58028 60001 333 11270
21350 70002=
71823 17/// /0905 11052 21061 39601 49981 58049 69941 7//4/ 333
11050 21081 70015=
71828 17/// /1805 11095 21117 39432 40074 56021 60021 7//4/ 333
11090 21126 7////=
71829 17/// /1013 11044 21050 39890 40053 58081 60031 7//4/ 333
11039 21083 70032=
71903 17/// /3521 10050 20012 39822 49870 53045 60021 7//4/ 333
10052 20015 70130=
0000021500
029
SMNZ01 NZKL 111800 RRA
AAXX 11184
93004 NIL=
93800 16/// /0207 10138 20130 40024 57026 60481=
93805 16/// /2617 10112 20104 49999 52014 60201=
93947 16/// /2510 10053 20037 49881 57016 69981=
0000018800
030
SMVE01 NZKL 111800
BBXX
ZMENA  11184 99436 31727 46/// ///06 10196 20067 40026 57017 22200=
ZMFR   11184 99434 51773 43/// /3209 10152 20113 40132 52001 22262 
00152=
0000011800
031
SNVD15 KWNB 111700 RRS
BBXX
42022 11171 99275 70837 46/// /1307 10218 40165 91729 555 11084
22091=
0000176900
032
KSMI35 SBBR 111800 RRA
CREX++
T000113 A000 D07086++
 83 064 PORTO NACIONAL       1 2014 01 11 18 00 -1071000 -04841000 ///// ///// 09837 10108 //// // 0017 ///// ///// ///// 2570 1910 /// ///// 2000 ///// ///// ///// 100 07 04 0175 35 27 60 0000 0000 // // ///// //// ////// / /// /// ////// /// /// /////// // /// // /// /// ////////// /// /// 508 -0006 10 10  -0024 //// -0001 //// /////  -0001 00000 //// ///// ///// -0012 0000 //// -0012 0000 //// ///// 03 02 -0010 140 0021 //  -0010 /// //// //// /// //// ///// -0024 // ////  -0001 //// //// ///// ///// ///// ///// -0024 //// //// ///// ///// ///// /////+
 83 332 POSSE                1 2014 01 11 18 00 -1410000 -04636000 ///// ///// 09202 10090 //// // 0019 ///// ///// ///// 2860 2220 /// ///// 0400 ///// ///// ///// 100 07 04 0125 32 22 11 0000 0000 // // ///// //// ////// / /// /// ////// /// /// /////// // /// // /// /// ////////// /// /// 003 -0006 05 02  -0024 //// -0001 //// /////  //// ///// -0006 00003 ///// -0012 0000 //// -0012 0000 //// ///// 03 02 -0010 320 0010 //  -0010 /// //// //// /// //// ///// -0024 // ////  -0001 //// //// ///// ///// ///// ///// -0024 //// //// ///// ///// ///// /////+
 83 423 GOIANIA              1 2014 01 11 18 00 -1666000 -04925000 ///// ///// 09288 10097 //// // 0013 ///// ///// ///// 2610 1900 /// ///// 0200 ///// ///// ///// 088 07 07 0125 39 61 60 0000 0000 // // ///// //// ////// / /// /// ////// /// /// /////// // /// // /// /// ////////// /// /// 095 -0006 09 06  -0024 //// -0001 //// /////  //// ///// -0006 00050 ///// -0012 0000 //// -0012 0000 //// ///// 03 02 -0010 230 0015 //  -0010 /// //// //// /// //// ///// -0024 // ////  -0001 //// //// ///// ///// ///// ///// -0024 //// //// ///// ///// ///// /////++
7777
0000172400
033
KSME32 SBBR 111800 RRA
CREX++
T000113 A000 D07080++
 82 678 FLORIANO             1 2014 01 11 18 00 -0676667 -04301667 01234 00015 09955 10094 //// // 0005 ///// ///// 00150 3200 2350 /// ///// 0400 ///// ///// ///// 100 07 04 0080 32 23 12 0000 0000  07 /// 08 /// 09 /// // ///// ///// // ///// ///// // ///// //// 508 -0006 10 10  -0024 //// -0001 //// /////  -0001 00000 //// ///// 00150 -0012 0000 //// -0012 0000 //// ///// 03 02 -0010 140 0015 //  -0010 /// //// //// /// //// ///// -0024 // ////  -0001 //// //// ///// ///// ///// ///// -0024 //// //// ///// ///// ///// ///// //// 0000 //+
 82 784 BARBALHA             1 2014 01 11 18 00 -0731000 -03930000 04090 ///// 09634 10087 //// // 0006 ///// ///// ///// 3340 1490 /// ///// 2000 ///// ///// ///// 025 07 01 0080 31 23 10 0000 0000  07 /// 08 /// 09 /// // ///// ///// // ///// ///// // ///// //// 508 -0006 10 10  -0024 //// -0001 //// /////  -0001 00000 //// ///// ///// -0012 0000 //// -0012 0000 //// ///// 03 02 -0010 000 0000 //  -0010 /// //// //// /// //// ///// -0024 // ////  -0001 //// //// ///// ///// ///// ///// -0024 //// //// ///// ///// ///// ///// //// 0000 //+
 82 791 PATOS                1 2014 01 11 18 00 -0701000 -03726000 02490 ///// 09810 10087 //// // 0007 ///// ///// ///// 3350 1850 /// ///// 5000 ///// ///// ///// 062 07 04 0080 32 23 10 0000 0000  07 /// 08 /// 09 /// // ///// ///// // ///// ///// // ///// //// 508 -0006 10 10  -0024 //// -0001 //// /////  -0001 00000 //// ///// ///// -0012 0000 //// -0012 0000 //// ///// 03 02 -0010 140 0051 //  -0010 /// //// //// /// //// ///// -0024 // ////  -0001 //// //// ///// ///// ///// ///// -0024 //// //// ///// ///// ///// ///// //// 0000 //++
7777
0000172400
034
KSMI35 SBBR 111800 RRA
CREX++
T000113 A000 D07080++
 83 064 PORTO NACIONAL       1 2014 01 11 18 00 -1071000 -04841000 02390 ///// 09837 10108 //// // 0017 ///// ///// ///// 2570 1910 /// ///// 2000 ///// ///// ///// 100 07 04 0175 35 27 60 0000 0000  07 /// 08 /// 09 /// // ///// ///// // ///// ///// // ///// //// 508 -0006 10 10  -0024 //// -0001 //// /////  -0001 00000 //// ///// ///// -0012 0000 //// -0012 0000 //// ///// 03 02 -0010 140 0021 //  -0010 /// //// //// /// //// ///// -0024 // ////  -0001 //// //// ///// ///// ///// ///// -0024 //// //// ///// ///// ///// ///// //// 0000 //+
 83 332 POSSE                1 2014 01 11 18 00 -1410000 -04636000 08260 ///// 09202 10090 //// // 0019 ///// ///// ///// 2860 2220 /// ///// 0400 ///// ///// ///// 100 07 04 0125 32 22 11 0000 0000  07 /// 08 /// 09 /// // ///// ///// // ///// ///// // ///// //// 003 -0006 05 02  -0024 //// -0001 //// /////  //// ///// -0006 00003 ///// -0012 0000 //// -0012 0000 //// ///// 03 02 -0010 320 0010 //  -0010 /// //// //// /// //// ///// -0024 // ////  -0001 //// //// ///// ///// ///// ///// -0024 //// //// ///// ///// ///// ///// //// 0000 //+
 83 423 GOIANIA              1 2014 01 11 18 00 -1666000 -04925000 07410 ///// 09288 10097 //// // 0013 ///// ///// ///// 2610 1900 /// ///// 0200 ///// ///// ///// 088 07 07 0125 39 61 60 0000 0000  07 /// 08 /// 09 /// // ///// ///// // ///// ///// // ///// //// 095 -0006 09 06  -0024 //// -0001 //// /////  //// ///// -0006 00050 ///// -0012 0000 //// -0012 0000 //// ///// 03 02 -0010 230 0015 //  -0010 /// //// //// /// //// ///// -0024 // ////  -0001 //// //// ///// ///// ///// ///// -0024 //// //// ///// ///// ///// ///// //// 0000 //++
7777
0000038500
035
SMVS01 VNNN 111800
AAXX 11181
48918 32498 60504 10246 20209 30132 40143 58012 862// 222// 00248 2//// 333 58002 81894 86895=
48917 32598 60501 10243 20217 30120 40126 57010 82208 222// 00277 333 58003 82895 86299=
48894 32798 50000 10244 20224 30133 40137 58008 82508 333 58002 82697 85299=
48914 32698 70701 10250 20218 30137 40139 58009 875// 333 58002 87696=
0000090200
036
SMVB11 RJTD 111800
BBXX
SHIP    11184 99168 11173
41/97 /0427 10240 20196 40155 57011 70200 8////
22253 00250 80210=
SHIP    11184 99337 11370
41598 13410 10085 20026 40250 52001 70211 81400
22214 00150 80055 NNNN=
SHIP    11184 99140 11499
41697 60909 10270 20243 40136 57010 70211 86///
22283 00310 20104 306// 40104 80250=
SHIP    11184 99113 11423
41/97 20516 10269 20235 40093 57019 70111 8//// 9////
22221 06286 6//// 80244=
SHIP    11184 99377 11331
41498 62717 10080 20049 49845 54000 70222 8312/
22213 00137 80065=
H9XE    11184 99359 11410
41898 20605 10051 20001 40254 57024 70111 82235
22253 00150 20401 30705 40201 50201 80030=
SHIP    11184 99331 11367
41797 41921 10100 20060 40315 57010 702// 82241
22224 00200 80080=
SHIP    11184 99190 11182
41597 20631 10243 20202 40188 58007 70111 81581
22213 00270 20403 323// 41004=
0000012400
037
SMVS02 VNNN 111800
AAXX 11181
48806 32498 80000 10150 20133 39433 40219 54000 888// 333 58014 85894 88696=
0000362300
038
SMCI01 KWBC 111800
AAXX 11181
50136 33/// 92001 11363 21405 39765 40387 57001 333 11251=
50745 33/// 92901 11257 21321 30150 40357 52010 333 11176=
50788 33/// 92708 11278 21337 30160 40256 52004 333 11191=
53513 31/62 90000 11165 21204 39124 40432 57006 70500 333 00653
11027=
53845 32/// 93604 11059 21223 38964 40388 52003 333 00403 10016=
58040 31/14 90000 11005 21018 30307 40315 54000 71040 333 10065=
50774 33/// 90701 11338 21366 39943 40306 52010 333 11187=
51133 32/// 91104 11025 21181 39617 40289 57003 333 06112 10009=
51431 32/// 92501 11101 21134 39468 40306 52019 333 05906 10016=
51747 32/// 90701 11193 21242 39069 40457 57002 333 05151 11018=
52203 32/// 90401 11166 21224 39478 40427 57010 333 05200 11025=
52418 32/// 91601 11158 21233 39021 40446 57012 333 05159 11021=
52681 32/// 92202 11103 21224 38769 40426 57008 333 00300 11010=
53564 42/35 90901 11146 21219 39331 40420 52006 333 00301 10000=
53614 32/62 91602 11076 21208 39048 40405 52001 333 00401 10012=
53646 32/// 93602 11120 21232 38981 40398 57002 333 00354 10012=
53798 32/09 90401 10010 21090 30231 40331 52019 333 10051=
53959 32/32 92702 10001 21098 39903 40361 52008 333 10066=
54102 32/67 91102 11254 21285 39134 40430 52006 333 11084=
54161 33/// 93603 11203 21237 30022 40340 52039 333 11073=
54292 33/// 92706 11092 21203 39894 40228 57005 333 11055=
54374 33/// 90000 11163 21195 39796 40292 54000 333 11065=
54423 32/80 93403 11080 21222 39821 40363 52018 333 10006=
54471 42/80 90207 11073 21189 30338 40344 52034 333 10011=
54511 32980 90203 10001 21202 30302 40343 52022 333 10043=
54618 31/04 93401 11047 21058 30316 40335 52019 70040 333 10010=
54843 42/27 92701 11029 21065 30282 40311 52006 333 10060=
54909 42/49 92901 10015 21050 40308 52003 333 10087=
56029 33/// 92701 11098 21146 36441 54000 333 00102 11016=
57083 32/57 92704 10066 21148 30173 40312 52005 333 10087=
57127 32/// 90701 10022 20012 39731 40360 54000 333 10074=
57131 32/// 92503 10023 21162 40371 52007 333 10072=
57494 31923 92701 10042 20029 30298 40330 52002 71000 333 10052=
58238 11/11 90401 10045 20033 30267 40313 52003 69911 71040 333
10050=
58251 32/19 93402 10023 20005 30306 40312 52002 333 10059=
59117 33/49 92901 10116 20100 30108 40249 52003 333 10229=
51076 32/// 93602 11141 21204 39440 40387 57013 333 05809 11065=
54094 42/57 93404 11168 21210 39850 40254 52015 333 11100=
54401 32/80 93402 11095 21235 39417 40387 52010 333 10003=
50844 33/// 93602 11242 21315 40362 52017 333 11125=
50854 33/// 93201 11250 21320 40345 52016 333 11169=
50968 13/// 90000 11223 21301 40315 52028 69921 333 11132=
51379 32/// 90000 11260 21290 40375 57015 333 05954 11015=
51467 32/// 90000 11187 21242 38293 57008 333 05456 11036=
51495 33/// 93604 11112 21203 40428 57011 333 05203 11041=
53480 42/80 93201 11153 21253 40405 52002 333 11042=
53673 42/// 93206 11048 21228 40363 52005 333 10028=
53698 32/12 90000 11035 21115 40337 52011 333 10057=
53898 32/18 92702 10005 21064 40325 52019 333 10070=
54308 32/80 93206 11103 21232 40366 52013 333 10008=
54602 31/05 92702 11080 21099 40337 52014 70040 333 10051=
54725 41/09 90000 11036 21056 40321 52007 74440 333 10061=
54751 31/16 92705 10017 21024 40301 52002 70040 333 10031=
54916 41/13 90901 11021 21041 40326 52003 71000 333 10072=
57014 32/// 93202 11056 21161 40396 57003 333 10044=
57025 42/69 92902 11022 21178 40387 52001 333 10055=
57046 42/65 92705 11089 21189 38003 52001 333 00352 11045=
58208 32/26 92502 10032 20011 40322 57001 333 10069=
0000015600
039
SMVD11 RJTD 111800
BBXX
SHIP    11184 99152 71538
41597 81121 10250 20222 40123 54/// 703// 8675/
22264 04260 2//04 329// 4//05 80230=
00000000