0000003900
826
UENO12 ENMI 111800
NIL=
0000028000
827
SXHW11 KWAL 111839
B14101B2 011183903"
1,140111,17:30:00,1.6,5,2.9,0.0,1015.6,4.66,12.9,
1,140111,17:45:00,2.1,31,3.1,0.0,1015.7,4.66,13.0,
1,140111,18:00:00,2.5,340,3.4,0.0,1016.0,4.66,13.2,
1,140111,18:15:00,2.7,331,3.5,0.0,1016.3,4.66,13.5, 48-0NN  30W
0000096200
828
SMIN51 DEMS 111800
AAXX 11184
42027 32596 50000 11006 21025 38511 48595 83530
  333 58060=
42182 31993 00000 10106 20098 40214 71140
  333 58039=
42348 31995 20903 10100 20025 40220 70400 82031
  333 58043 82360=
42369 31595 79902 10138 20127 40206 71042 85530
  333 58052=
42410 21495 80000 10170 20154 40178 71062 8432/
  333 58000 6990/ 84618 81925 88458=
42492 21494 60504 10142 20138 40187 71062 83530
  333 58015 6004/ 83618 85360=
42623 31496 40000 10128 20098 39286 40180 70500 82530
  333 58001 82618 83360=
42667 31995 00705 10130 20108 39592 40203 71044
  333 58046=
42724 31995 60000 10158 20140 40172 71022 84031
  333 58006 84360 84070=
42867 31995 20504 10184 20131 40169 70511 82030
  333 58036 82360=
42971 31994 09004 10194 20171 40166 71000
  333 58004=
42299 NIL=
42516 NIL=
42647 NIL=
42807 NIL=
43057 NIL=
43063 NIL=
43128 NIL=
43278 NIL=
43295 NIL=
43371 NIL=
0000027900
829
SXHW11 KWAL 111839
15D13434 011183913"
1,140111,17:30:01,5.2,86,6.8,0.0,1014.1,0.00,12.8,
1,140111,17:45:01,5.0,77,7.4,0.0,1014.3,0.00,12.8,
1,140111,18:00:00,4.7,77,8.2,0.0,1014.6,0.00,12.8,
1,140111,18:15:00,4.7,75,7.3,0.0,1014.8,0.00,12.9, 50-0NN  30W
0000013000
830
SMRS42 RUMS 111800 CCA
AAXX 11181
26080 12484 83003 11052 21058 39953 49986 52014 69922 886// 333 11041
88712=
0000046700
831
SZPA01 AMMC 111839
CREX++
T000103 A001 D01021 D06025++
0136250 17293000 67590 2014 01 11 18 32 3015 11 07 00 01
01450 0068 01443 0065 01449 0074 01447 0074 01458 0088 01449 0082+
0710610 17137250 67680 2014 01 11 18 32 3013 11 07 00 01
00846 0096 00840 0092 00840 0094 00842 0098 00836 0094 00834 0094+
0698060 15820000 67950 2014 01 11 18 32 3020 11 07 00 01
00648 0077 00647 0076 00647 0077 00648 0078 00647 0078 00645 0076++
7777

0000192100
832
SZAU01 AMMC 111839
CREX++
T000103 A001 D01021 D06025++
-1927750 14705860 59260 2014 01 11 18 32 3020 11 07 00 01
02052 0160 02066 0165 02071 0159 02083 0162 02090 0158 02098 0156+
-2316110 15079000 59670 2014 01 11 18 32 2997 11 07 00 01
03260 0142 03279 0147 03295 0151 03305 0147 03322 0152 03332 0150+
-3447330 15091170 60420 2014 01 11 18 32 2945 11 07 00 01
01435 -0036 01447 -0025 01456 -0018 01443 -0033 01442 -0036 01436 -0043+
-4105000 14591500 60910 2014 01 11 18 32 2888 11 07 00 01
01722 -0117 01744 -0104 01773 -0085 01782 -0087 01784 -0095 01790 -0100+
-4254640 14793080 61170 2014 01 11 18 32 2905 11 07 00 01
01535 0013 01543 0020 01550 0026 01548 0024 01560 0035 01570 0045+
-3834390 14161360 61410 2014 01 11 18 32 2908 11 07 00 01
00646 0013 00658 0025 00611 -0021 00637 0006 00635 0005 00621 -0008+
-3214890 13364170 62000 2014 01 11 18 32 2955 11 07 00 01
00916 0047 00910 0046 00904 0045 00899 0045 00893 0045 00887 0045+
-3387080 12189720 62080 2014 01 11 18 32 2948 11 07 00 01
00581 -0027 00571 -0035 00568 -0037 00576 -0027 00582 -0020 00581 -0019+
-3182560 11573860 62237 2014 01 11 18 32 2972 11 07 00 01
00537 0076 00536 0076 00533 0073 00531 0072 00526 0068 00523 0066+
-2422000 11339750 62385 2014 01 11 18 32 //// 11 07 00 01
00662 -0100 00700 -0062 00736 -0026 00701 -0062 00702 -0060 00724 -0039+
-2181670 11419110 62430 2014 01 11 18 32 //// 11 07 00 01
01206 -0086 01220 -0072 01211 -0081 01207 -0085 01209 -0083 01202 -0090+
-1800080 12221830 62650 2014 01 11 18 32 3043 11 07 00 01
04287 0081 04287 0080 04289 0076 04291 0077 04292 0072 04295 0073+
-1247190 13084580 63230 2014 01 11 18 32 3048 11 07 00 01
04922 0001 04917 0002 04912 0004 04907 0006 04902 0007 04897 0008+
-1386000 13641580 63511 2014 01 11 18 32 3042 11 07 00 01
01439 0119 01436 0117 01435 0118 01430 0115 01428 0115 01425 0113++
7777

0000179500
833
SZPS01 AMMC 111839
CREX++
T000103 A001 D01021 D06025++
-0204190 14737360 56130 2014 01 11 18 32 3025 11 07 00 01
00877 0097 00884 0103 00887 0104 00884 0100 00885 0100 00887 0101+
-0669280 15640860 56363 2014 01 11 18 32 //// 11 07 00 01
00588 -0037 00586 -0038 00584 -0039 00585 -0038 00585 -0038 00584 -0038+
-0942890 15995560 56670 2014 01 11 18 32 3035 11 07 00 01
00747 -0053 00745 -0056 00748 -0055 00748 -0056 00747 -0058 00750 -0056+
-1072080 16580190 57131 2014 01 11 18 32 //// 11 07 00 01
02548 1919 03294 2666 02635 2009 01953 1329 02325 1702 02694 2074+
-1551560 16718860 57210 2014 01 11 18 32 //// 11 07 00 01
00859 -0123 00869 -0111 00847 -0131 00863 -0112 00864 -0108 00862 -0108+
-1775690 16830030 57320 2014 01 11 18 32 3015 11 07 00 01
01017 -0058 01012 -0061 01009 -0062 01011 -0058 01016 -0052 01017 -0049+
-4397330 16861610 65180 2014 01 11 18 32 2880 11 07 00 01
02679 0830 02348 0494 02400 0542 02358 0495 02327 0459 02334 0462+
-2120470 -15978530 65980 2014 01 11 18 32 3008 11 07 00 01
00676 0032 00649 0006 00623 -0018 00619 -0021 00663 0025 00671 0034+
-2113810 -17518140 66600 2014 01 11 18 32 //// 11 07 00 01
01173 0101 01163 0095 01165 0101 01164 0103 01156 0099 01155 0101+
-1382670 -17176110 66840 2014 01 11 18 32 3008 11 07 00 01
00713 0070 00715 0075 00710 0072 00703 0068 00703 0070 00697 0067+
-1813250 17842750 67050 2014 01 11 18 32 3030 11 07 00 01
01296 0087 01289 0084 01285 0084 01283 0086 01279 0085 01276 0085+
-1760530 17743810 67070 2014 01 11 18 32 3028 11 07 00 01
01360 0025 01356 0026 01352 0026 01348 0026 01345 0027 ///// ////+
-0850250 17919500 67440 2014 01 11 18 32 3027 11 07 00 01
01829 -0006 01829 -0002 01826 -0002 01823 -0001 01819 -0002 01815 -0002++
7777

0000034300
834
SZIO01 AMMC 111839
CREX++
T000103 A001 D01021 D06025++
-1211670 09689190 46280 2014 01 11 18 32 3018 11 07 00 01
00812 0013 00810 0010 00810 0009 00817 0015 00814 0011 00820 0017+
-1042940 10566940 46290 2014 01 11 18 32 //// 11 07 00 01
00718 0021 00657 -0042 00745 0045 00648 -0054 00720 0017 00718 0014++
7777

0000319900
835
UDFR01 LFPW 111839
AMDAR 1118
DES EU0945 4404N 00345E 111823 F140 MS134 /// 272/005 TB0 S031
333 F140 VG002=
DES EU0945 4402N 00346E 111823 F135 MS119 /// 272/005 TB0 S031
333 F135 VG001=
DES EU0945 4400N 00347E 111823 F130 MS109 /// 267/008 TB0 S031
333 F130 VG000=
DES EU0945 4358N 00347E 111824 F125 MS097 /// 267/011 TB0 S031
333 F125 VG001=
DES EU0945 4357N 00348E 111824 F120 MS089 /// 262/009 TB0 S031
333 F120 VG003=
DES EU0945 4355N 00349E 111824 F115 MS082 /// 226/003 TB0 S031
333 F115 VG000=
DES EU0945 4353N 00349E 111825 F110 MS069 /// 213/004 TB0 S031
333 F110 VG000=
DES EU0945 4352N 00350E 111825 F105 MS059 /// 204/004 TB0 S031
333 F105 VG000=
DES EU0945 4350N 00351E 111825 F101 MS047 /// 209/005 TB1 S031
333 F101 VG015=
DES EU0945 4349N 00352E 111826 F096 MS037 /// 223/004 TB1 S031
333 F096 VG010=
DES EU0945 4347N 00352E 111826 F091 MS024 /// 187/005 TB0 S031
333 F091 VG005=
DES EU0945 4346N 00353E 111826 F085 MS014 /// 169/006 TB1 S031
333 F085 VG018=
DES EU0945 4344N 00354E 111827 F080 MS002 /// 150/005 TB1 S031
333 F080 VG009=
DES EU0945 4343N 00355E 111827 F074 PS015 /// 120/002 TB1 S031
333 F074 VG010=
DES EU0945 4341N 00355E 111827 F068 PS030 /// 055/004 TB0 S031
333 F068 VG006=
DES EU0945 4340N 00355E 111828 F061 PS045 /// 034/007 TB1 S031
333 F061 VG009=
DES EU0945 4338N 00356E 111828 F055 PS055 /// 035/009 TB1 S031
333 F055 VG017=
UNS EU0945 4337N 00357E 111828 F051 PS007 /// 023/013 TB1 S031
333 F051 VG014=
DES EU0945 4337N 00359E 111829 F047 PS012 /// 002/009 TB1 S031
333 F047 VG025=
DES EU0945 4336N 00401E 111829 F042 PS025 /// 002/008 TB1 S031
333 F042 VG013=
DES EU0945 4335N 00402E 111829 F038 PS037 /// 017/007 TB1 S031
333 F038 VG027=
DES EU0945 4334N 00404E 111830 F036 PS042 /// 024/007 TB2 S031
333 F036 VG041=
DES EU0945 4334N 00405E 111830 F032 PS052 /// 025/007 TB0 S031
333 F032 VG001=
DES EU0945 4333N 00406E 111830 F026 PS057 /// 046/006 TB1 S031
333 F026 VG019=
DES EU0945 4332N 00408E 111831 F022 PS067 /// 025/004 TB1 S031
333 F022 VG011=
DES EU0945 4332N 00409E 111831 F019 PS072 /// 013/002 TB0 S031
333 F019 VG000=
UNS EU0945 4331N 00411E 111831 F017 PS077 /// 263/006 TB1 S031
333 F017 VG015=
UNS EU0945 4330N 00410E 111832 F017 PS077 /// 329/006 TB0 S031
333 F017 VG006=
UNS EU0945 4329N 00408E 111832 F017 PS077 /// 127/003 TB0 S031
333 F017 VG001=
DES EU0945 4330N 00407E 111833 F017 PS077 /// 143/004 TB0 S031
333 F017 VG004=
DES EU0945 4331N 00405E 111833 F017 PS077 /// 150/004 TB0 S031
333 F017 VG002=
DES EU0945 4331N 00404E 111833 F015 PS080 /// 141/004 TB1 S031
333 F015 VG016=
DES EU0945 4332N 00404E 111834 F011 PS090 /// 099/002 TB2 S031
333 F011 VG051=
DES EU0945 4332N 00402E 111834 F009 PS097 /// 095/003 TB1 S031
333 F009 VG021=
DES EU0945 4332N 00402E 111834 F006 PS102 /// 065/005 TB1 S031
333 F006 VG029=
DES EU0945 4333N 00401E 111835 F004 PS107 /// 069/006 TB1 S031
333 F004 VG050=
DES EU0945 4334N 00400E 111835 F002 PS107 /// 053/007 TB1 S031
333 F002 VG046=
DES EU0945 4334N 00359E 111835 F000 PS110 /// 021/009 TB0 S031
333 F000 VG011=
0000011100
836
UANT99 KDDL 111838
ARP UAL111 5307N02645W 1838 F350 MS53 174/44 KT
N33103 DDL IG1 111838 F37A
0000253500
837
SMRA13 RUNW 111800
AAXX 11181
20046 31498 72305 11065 21069 30060 40089 58014 70232 875// 333
11076=
20069 41562 82006 11176 21191 30118 40137 57010 77173 8552/ 333
85620=
20087 41998 11601 11311 21342 30174 40186 57009 70271 80001 333
93535=
20292 NIL=
20353 46/// /1202 11152 21449 30160 40164 57005=
20471 42998 30401 11349 21387 30159 40178 53006 80001 333 93584=
20476 42998 71402 11332 21362 30168 40184 52008 80001=
20667 32998 03205 11296 21325 30192 40200 52008 333 11267=
20674 41997 81905 11297 21327 30098 40164 52009 77173 8802/=
20744 42698 50501 11242 21307 30220 40240 52004 82530=
20871 42998 00903 11382 21403 30166 40174 52007=
20891 41997 82103 11348 21364 30160 40208 52009 77872 82037=
20946 NIL=
20967 42998 02903 11343 21376 30167 40194 52013=
20978 41898 20903 11342 21371 30108 40150 51006 70177 82030=
23022 42997 02301 11320 21338 30161 40235 51004=
23032 42498 52803 11263 21289 30182 40217 52010 85500 333 85618=
23058 42998 03003 11365 21402 30177 40182 52020=
23174 41897 81807 11317 21347 77173 8802/ 333 91010 91110=
23179 41997 82005 11285 21315 30086 40219 5//// 77173 80007 333
91111=
23242 41997 32806 11316 21332 30187 40205 52010 73630 80001=
23256 41996 82506 11342 21378 30156 40197 52009 73832 80006 333
91111=
23330 41993 20000 11418 21443 30204 40229 52004 70400 80001=
23345 42997 02702 11373 21407 30217 40228 52006=
23376 42/// /0000 11343 21378 30097 40244 54001=
23445 42997 01301 11422 21469 30205 40235 52007=
23463 NIL=
23527 41559 80102 11227 21245 30157 40197 52010 78582 889//=
23552 41995 00000 11362 21390 30204 40244 52004 70400=
23631 41497 80303 11193 21219 30134 40179 57005 77172 8352/ 333
83516=
23662 42998 80000 11281 21311 30194 40243 57002 80002=
23724 41997 80101 11203 21222 30089 40159 57003 77172 8802/=
23734 41996 80601 11157 21176 30065 40162 54000 77172 8802/=
23774 NIL=
23776 NIL=
23849 41443 80803 11159 21181 30102 40182 54000 77172 8452/ 333
84618=
23867 41495 81803 11051 21061 30122 40196 57002 77173 8572/=
23933 41997 80601 11146 21171 30106 40165 52002 72272 8802/=
28064 42598 81703 11059 21074 30052 40142 52003 885//=
28275 42597 81502 11053 21078 30115 40176 52004 885//=
28493 41596 81804 11084 21112 30133 40230 53005 77173 885// 333
88626=
28698 41996 81902 11097 21109 30082 40243 52001 77172 8807/=
29059 415// 80000 11062 21077 30139 40273 52003 70282 889//=
29558 41597 80000 11092 21114 39916 40332 57006 78522 85931=
0000215300
838
SMRA14 RUNW 111800
AAXX 11181
23339 42999 00000 11394 21429 30179 40233 52006=
23358 42997 02602 11386 21413 30143 40234 52006=
23426 41969 80203 11301 21325 30189 40216 52002 77171 8807/=
23431 42998 80000 11403 21438 30201 40226 52005 80002=
23443 41996 02301 11407 21438 30162 40240 52006 70400=
23453 42997 02001 11408 21444 30197 40233 53004=
23465 42998 00000 11373 21401 30204 40240 52005=
23471 41931 82102 11062 21070 30114 40184 52004 77172 8802/=
23625 41996 82701 11186 21212 30130 40167 57003 77172 8802/=
23635 42997 80802 11211 21236 30088 40206 58001 885//=
23656 41998 80902 11242 21273 30135 40228 57001 70272 8807/=
23657 42998 33601 11262 21290 30044 40228 53005 83030=
23741 42/// /0602 11225 21251 30078 40195 54001=
23748 42998 70602 11205 21224 30104 40196 57002 87070=
23758 41396 80402 11181 21200 30104 40198 57005 77172 8652/ 333
85707=
23823 42498 80801 11163 21182 30011 40161 58001 886//=
23847 41497 80502 11158 21186 30132 40177 53002 77172 8377/=
23862 NIL=
23929 42575 81102 11068 21084 30064 40132 57001 889//=
23939 41598 81903 11059 21074 30121 40163 52005 70282 885//=
23946 41996 82001 11058 21080 30124 40188 52009 77172 8807/=
23947 41996 81902 11059 21070 30102 40171 52008 77172 8807/=
28076 41497 80000 11062 21070 30094 40168 52005 70272 885//=
28097 41996 81902 11056 21074 30112 40191 52005 77172 8802/=
28165 41568 81801 11064 21080 30047 40152 54000 70272 885//=
28366 41959 81702 11052 21081 30109 40177 52003 77172 8802/=
28367 41984 81403 11060 21087 30032 40163 52001 77072 8802/=
28382 41598 81802 11051 21080 30128 40200 52006 70282 885//=
28481 42997 81803 11057 21079 30110 40211 52010 80007=
28491 41497 82002 11067 21087 30108 40221 52006 70272 885// 333
88694=
28465 42998 81805 11054 21072 30100 40179 52005 8807/=
28573 42497 81902 11056 21082 30104 40211 52006 886// 333 88710=
28593 42997 81702 11100 21120 30143 40246 53003 8807/=
28786 42997 01601 11137 21157 30070 40237 52001=
28797 41996 81601 11113 21119 30077 40243 53002 71022 80001=
28799 41997 51602 11088 21103 30108 40258 52001 85030=
0000035100
839
SMKN01 HKNC 111800
AAXX 11184
63688 32980 20706 10145 20053 48565 80001 333 10251 58003 82077=
63740 32580 00309 10196 20095 48520 333 10285 58001=
63820 32580 10612 10264 20229 40122 81100 333 10330 58000 81822=
63612 NIL=
63661 NIL=
63671 NIL=
63695 NIL=
63708 NIL=
63714 NIL=
63723 NIL=
63772 NIL=
63793 NIL=
0000033800
840
SMKN01 HKNC 111800
AAXX 11183
63612 32980 00905 10312 20120 40109 333 10367 58016=
63671 32980 21705 10307 20171 80001 333 10365 81085=
63708 32975 10000 10230 20161 48488 81030 333 10316 58008 81358=
63723 32980 40000 10304 20179 40103 80001 333 58005 84084=
63793 32980 00913 10238 20190 40137 333 10303 58006=
0000064100
841
KSME01 SBBR 111200 RRC
CREX++
T000113 A000 D07086++
 82 353 ALTAMIRA             1 2014 01 11 12 00 -0320000 -05220000 ///// ///// 10023 10105 //// // 0004 ///// ///// ///// 2480 2320 /// ///// 0400 ///// ///// ///// 100 07 06 0045 37 22 60 0000 0000 // // ///// //// ////// / /// /// ////// /// /// /////// // /// // /// /// ////////// /// /// 003 -0006 05 02  -0024 //// -0001 //// /////  //// ///// -0024 00002 ///// -0012 0000 //// -0012 0000 2260 ///// 03 02 -0010 270 0031 //  -0010 /// //// //// /// //// ///// -0024 // ////  -0001 //// //// ///// ///// ///// ///// -0024 //// //// ///// ///// ///// /////++
7777
0000120500
842
KSMI35 SBBR 111800 RRB
CREX++
T000113 A000 D07086++
 83 264 VERA (GLEBA CELESTE) 1 2014 01 11 18 00 -1220000 -05650000 ///// ///// 09673 10135 //// // 0014 ///// ///// ///// 3030 2230 /// ///// 1000 ///// ///// ///// 075 07 02 0175 32 21 14 0000 0000 // // ///// //// ////// / /// /// ////// /// /// /////// // /// // /// /// ////////// /// /// 508 -0006 10 10  -0024 //// -0001 //// /////  -0001 00000 //// ///// ///// -0012 0000 //// -0012 0000 //// ///// 03 02 -0010 050 0010 //  -0010 /// //// //// /// //// ///// -0024 // ////  -0001 //// //// ///// ///// ///// ///// -0024 //// //// ///// ///// ///// /////+
 83 358 POXOREO (POXOREU)    1 2014 01 11 18 00 -1583000 -05438000 ///// ///// 09696 10094 //// // 0022 ///// ///// ///// 2280 2160 /// ///// 2000 ///// ///// ///// 100 07 03 0080 37 29 60 0000 0000 // // ///// //// ////// / /// /// ////// /// /// /////// // /// // /// /// ////////// /// /// 002 -0006 06 02  -0024 //// -0001 //// /////  //// ///// -0006 00020 ///// -0012 0000 //// -0012 0000 //// ///// 03 02 -0010 270 0031 //  -0010 /// //// //// /// //// ///// -0024 // ////  -0001 //// //// ///// ///// ///// ///// -0024 //// //// ///// ///// ///// /////++
7777
0000117500
843
KSMI35 SBBR 111800 RRB
CREX++
T000113 A000 D07080++
 83 264 VERA (GLEBA CELESTE) 1 2014 01 11 18 00 -1220000 -05650000 04150 ///// 09673 10135 //// // 0014 ///// ///// ///// 3030 2230 /// ///// 1000 ///// ///// ///// 075 07 02 0175 32 21 14 0000 0000  07 /// 08 /// 09 /// // ///// ///// // ///// ///// // ///// //// 508 -0006 10 10  -0024 //// -0001 //// /////  -0001 00000 //// ///// ///// -0012 0000 //// -0012 0000 //// ///// 03 02 -0010 050 0010 //  -0010 /// //// //// /// //// ///// -0024 // ////  -0001 //// //// ///// ///// ///// ///// -0024 //// //// ///// ///// ///// ///// //// 0000 //+
 83 358 POXOREO (POXOREU)    1 2014 01 11 18 00 -1583000 -05438000 04500 ///// 09696 10094 //// // 0022 ///// ///// ///// 2280 2160 /// ///// 2000 ///// ///// ///// 100 07 03 0080 37 29 60 0000 0000  07 /// 08 /// 09 /// // ///// ///// // ///// ///// // ///// //// 002 -0006 06 02  -0024 //// -0001 //// /////  //// ///// -0006 00020 ///// -0012 0000 //// -0012 0000 //// ///// 03 02 -0010 270 0031 //  -0010 /// //// //// /// //// ///// -0024 // ////  -0001 //// //// ///// ///// ///// ///// -0024 //// //// ///// ///// ///// ///// //// 0000 //++
7777
0000062600
844
KSME01 SBBR 111200 RRC
CREX++
T000113 A000 D07080++
 82 353 ALTAMIRA             1 2014 01 11 12 00 -0320000 -05220000 00740 ///// 10023 10105 //// // 0004 ///// ///// ///// 2480 2320 /// ///// 0400 ///// ///// ///// 100 07 06 0045 37 22 60 0000 0000  07 /// 08 /// 09 /// // ///// ///// // ///// ///// // ///// //// 003 -0006 05 02  -0024 //// -0001 //// /////  //// ///// -0024 00002 ///// -0012 0000 //// -0012 0000 2260 ///// 03 02 -0010 270 0031 //  -0010 /// //// //// /// //// ///// -0024 // ////  -0001 //// //// ///// ///// ///// ///// -0024 //// //// ///// ///// ///// ///// //// 0000 //++
7777
0000018300
845
SMBZ35 SBBR 111800 RRB
AAXX 11184
83264 32797 60502 10303 20223 39673 40135 82214 333 58014=
83358 21598 82706 10228 20216 39696 40094 70262 8379/ 333 58022 60021=
00000000