0000020600
842
SATS40 DTTA 112230
METAR DTMB 112230Z 18003KT 7000 FEW020 12/10 Q1021 NOSIG=
METAR DTNH 112230Z AUTO 22005KT CAVOK 09/07 Q1020=
METAR DTTA 112230Z 00000KT 4000 BR FEW020 10/08 Q1020 NOSIG=
0000020800
843
SATS32 DTTA 112230
METAR DTMB 112230Z 18003KT 7000 FEW020 12/10 Q1021 NOSIG=
METAR DTNH 112230Z AUTO 22005KT CAVOK 09/07 Q1020=
METAR DTTA 112230Z 00000KT 4000 BR FEW020 10/08 Q1020 NOSIG=
0000017300
844
SARE20 FMEE 112230
METAR FMEE 112230Z AUTO 15006KT 9999 ///TCU 26/21 Q1015=
METAR FMEP 112230Z AUTO 03004KT 9999 NCD 25/20 Q1015=
METAR FMCZ 112230Z NIL=
0000039700
845
SAAO33 DRRN 112225
METAR DBBB 112230Z 18006KT 8000  FEW012 28/26 Q1012 NOSIG=
METAR DFFD 112230Z 04005KT 6000 NSC 23/03 Q1016 NOSIG=
METAR DGAA 112225Z NIL=
METAR DNKN 112225Z NIL=
METAR DNMM 112225Z NIL=
METAR DRRN 112230Z 03006KT 4000 DU NSC 22/M02 Q1016 NOSIG=
METAR DXXX 112230Z 23006KT 8000 SCT012 28/26 Q1013 NOSIG=
METAR FTTJ 112230Z 02008KT CAVOK 19/M02 Q1018 NOSIG=
0000051900
846
SAAL40 DAMM 112230
METAR DAAG 112230Z 20003KT 9999 -RA FEW026 SCT060 BKN080 14/12 Q1022=
METAR DAAT 112230Z VRB01KT CAVOK 12/M07 Q1025=
METAR DABB 112230Z 30002KT 9999 SCT040 SCT100 11/10 Q1020=
METAR DABC 112230Z 00000KT 9999 FEW040 BKN100 10/05 Q1022=
METAR DABS 112230Z 00000KT CAVOK 07/03 Q1022=
METAR DAON 112230Z 18004KT 9999 SCT030 BKN100 12/11 Q1022=
METAR DAOO 112230Z 20004KT 9999 BKN033 SCT100 13/12 Q1022=
METAR DAUH 112230Z 08006KT CAVOK 12/10 Q1020=
METAR DAUZ 112230Z NIL=
0000031000
847
SAMG20 FMMI 112200
METAR 112200Z
METAR FMMI 112200Z 09007KT  9999  FEW017 BKN020 19/19 Q1022
NOSIG=
METAR FMSD 112200Z 00000KT 9999 FEW016 SCT033 25/24 Q1015=
METAR FMMT 112200Z 12002KT 9999 VCSH SCT017 BKN033 25/24 Q1015=
METAR FMNM 112200Z 34002KT 9999  SCT017CB BKN040 27/25 Q1012=
0000019600
848
SAAO31 GOOY 112230
METAR FHAW 112230Z NIL=
METAR GGOV 112230Z NIL=
METAR DIAP 112230Z 20005KT 8000 FEW012 27/26 Q1013 NOSIG=
METAR DIBK 112230Z NIL=
METAR DIYO 112230Z NIL=
0000024200
849
SAAO30 GOOY 112230
METAR GOOY 112230Z 36009KT CAVOK 20/18 Q1015 NOSIG=
METAR GOGS 112230Z NIL=
METAR GOOK 112230Z NIL=
METAR GOSS 112230Z NIL=
METAR GOTK 112230Z NIL=
METAR GOTT 112230Z NIL=
METAR GOGG 112230Z NIL=
0000025900
850
SAAO34 GOOY 112230
METAR GBYD 112230Z NIL=
METAR GFLL 112230Z NIL=
METAR GLRB 112230Z 00000KT 8000 FEW014 26/25 Q1013 NOSIG
RMK BRVC=
METAR GVAC 112230Z NIL=
METAR GVBA 112230Z NIL=
METAR GVNP 112230Z NIL=
METAR GVSV 112230Z NIL=
0000029700
851
SAAO33 GOOY 112230
METAR GQPP 112230Z NIL=
METAR GQNN 112230Z 35006KT 8000 NSC 18/14 Q1016 NOSIG=
METAR GQPA 112230Z NIL=
METAR GQNI 112230Z NIL=
METAR GQPZ 112230Z NIL=
METAR GUCY 112230Z NIL=
METAR GUXN 112230Z NIL=
METAR GULB 112230Z NIL=
METAR GUNZ 112230Z NIL=
0000029400
852
SAMG20 FMMI 112200
METAR FMMI 112200Z 09007KT  9999  FEW017 BKN020 19/19 Q1022
NOSIG=
METAR FMSD 112200Z 00000KT 9999 FEW016 SCT033 25/24 Q1015=
METAR FMMT 112200Z 12002KT 9999 VCSH SCT017 BKN033 25/24 Q1015=
METAR FMNM 112200Z 34002KT 9999  SCT017CB BKN040 27/25 Q1012=
0000020000
853
FTMC32 GMMC 112200 RRA
TAF GMFO 112200Z 1200/1306 20006KT 8000 SCT020 BKN033 BKN100 TEMPO
1202/1207 RA BECMG 1314/1318 26017KT SCT030 SCT100 TEMPO 1301/1306
20008KT RA BKN020 SCT100=
0000008400
854
SAAL41 DAMM 112200 RRD
METAR DAAJ 112200Z 09004KT CAVOK 10/01 Q1025=
0000124300
855
FCAL40 DAMM 112200
TAF DAAE 112300Z 1200/1209 25012KT 9999 FEW023 BKN090 TEMPO
                 1200/1206 6000 -TSRA FEW026CB BKN033=
TAF DAAJ 112300Z 1200/1209 VRB02KT CAVOK=
TAF DAAP 112300Z 1200/1209 09012KT 9999 SCT046=
TAF DAAS 112300Z 1200/1209 29005KT 9999 FEW030 BKN100 TEMPO
                 1200/1206 6000 -TSRA FEW026CB BKN033=
TAF DABT 112300Z 1200/1209 30006KT 9999 FEW026 SCT100 TEMPO
                 1200/1206 6000 -TSRA FEW026CB BKN033=
TAF DAOB 112300Z 1200/1209 11010KT 8000 SCT026 BKN100 TEMPO
                 1200/1206 6000 -TSRA FEW026CB BKN030=
TAF DAOF 112300Z 1200/1209 36010KT CAVOK=
TAF DAOR 112300Z 1200/1209 VRB02KT 3000 HZ SCT033=
TAF DAUA 112300Z 1200/1209 22012KT 6000 NSC=
TAF DAUB 112300Z 1200/1209 35014KT 9999 FEW040 BKN100 TEMPO
                 1200/1206 FEW033CB BKN040=
TAF DAUE 112300Z 1200/1209 10012KT 9999 SCT040 BKN100=
TAF DAUK 112300Z 1200/1209 VRB02KT 9999 SCT040 SCT100=
TAF DAUL 112300Z 1200/1209 11010KT 8000 SCT030 PROB30 TEMPO
                 1200/1204 -TSRA FEW026CB BKN033=
TAF DAUO 112300Z 1200/1209 VRB02KT 9999 SCT040 SCT100=
TAF DAUT 112300Z 1200/1209 24012KT 6000 NSC=
TAF DAUU 112300Z 1200/1209 VRB02KT 9999 SCT046 SCT100=
0000044200
856
FCAL41 DAMM 112200
TAF DAAD 112300Z 1200/1209 CNL=
TAF DAAV 112300Z 1200/1209 27012KT 9999 FEW030 BKN100 TEMPO
                 1200/1206 6000 -TSRA FEW026CB BKN033=
TAF DAAY 112300Z 1200/1209 CNL=
TAF DAEF 112200Z NIL=
TAF DAEN 112200Z NIL=
TAF DAFH 112300Z 1200/1209 CNL=
TAF DAOY 112300Z 1200/1209 12006KT 9999 SCT030 TEMPO 1206/1209 4000
                 BR SCT016 BKN026=
TAF DATM 112300Z 1200/1209 CNL=
0000090600
857
FTAN40 FNLU 112200 RRA
TAF FNLU 112200Z 1200/1306 17006KT 9999 BKN022 PROB30 TEMPO 1205/1209
 8000 -RADZ SCT015 BKN018 BECMG 1212/1214 28010KT FEW020 BKN030 BECMG
 1218/1220 20005KT=
TAF FNCA 112200Z 1200/1212 VRB03KT 9999 SCT015 PROB30 TEMPO 1202/1206
 7000 -RA SCT010 OVC018 BECMG 1206/1208 14005KT SCT012 BKN020=
TAF FNBG 112200Z 1200/1212 VRB03KT 9999 FEW020 SCT030 BECMG 1206/1208
 30005KT=
TAF FNHU 112200Z 1200/1212 VRB03KT 5000 -TSRA SCT018 FEW025CB TEMPO
1200/1207 4000 RA SCT012 OVC018 BECMG 1207/1209 15005KT 9999 SCT020
BKN025=
TAF FNUB 112200Z 1200/1212 VRB02KT 9999 FEW020 SCT030 BECMG 1207/1209
 30010KT CAVOK=
TAF FNGI 112200Z 1200/1212 VRB02KT 9999 FEW020 SCT040 BECMG 1206/1208
 20005KT CAVOK=
TAF FNUE 112200Z 1200/1212 VRB02KT 5000 -TSRA SCT020CB BKN030 TEMPO
1200/1206 7000 -RADZ SCT015 BKN020 BECMG 1207/1209 30005KT 9999
SCT020 BKN025=
0000030300
858
SAMG20 FMMI 112200
METAR 112200Z
METAR FIMP 112200Z 32001KT 9999 SCT018 26/24 Q1016=
METAR FJDG 112155Z 30009KT 9999 FEW020 BKN050 OVC080 26/25 A2983 RMK
      SLP098 T02610250=
METAR FJDG 112200Z NIL=
METAR FMCH 112200Z NIL=
METAR FMEE 112200Z NIL=
METAR FMEP 112200Z NIL=
0000028700
859
SAMG20 FMMI 112200
METAR FIMP 112200Z 32001KT 9999 SCT018 26/24 Q1016=
METAR FJDG 112155Z 30009KT 9999 FEW020 BKN050 OVC080 26/25 A2983 RMK
      SLP098 T02610250=
METAR FJDG 112200Z NIL=
METAR FMCH 112200Z NIL=
METAR FMEE 112200Z NIL=
METAR FMEP 112200Z NIL=
0000008200
860
SAUG20 HUEN 111900
METAR
HUEN 111900Z 01004KT CAVOK 21/19 Q1018=
0000031700
861
SIIS21 LLBD 112100
AAXX 11214
40153 43/// /2712 10072 20061 39158 48547 52002 =
40179 42560 51803 10129 20095 30216 40254 52005 85200 =
40180 42660 59903 10132 20088 30211 40260 50004 85100 =
40190 46/// /0901 10081 20070 39927 40268 52005 =
40199 43/// /3401 10149 20091 30231 40258 52003 =
00000000