0000026500
862
SIIY22 LIIB 112100
AAXX 11214
16045 NIL=
16090 41510 82304 10084 20069 30150 40234 51002 71022 8253/ 333 82625
      87356=
16149 41106 83600 10090 20090 30209 40225 51003 74622 886// 333
      88702=
16261 NIL=
16453 NIL=
16560 NIL=
0000056300
863
SIGR22 LGAT 112100
AAXX 11214
16614 46/// /9902 10023 20023 39462 40262 52009 333 91105=
16627 NIL=
16667 42560 70000 10114 20094 30227 40233 51004 83156 333 83820
      85358 86068 91103 555 40000 47706 44250 50000 50104=
16675 46/// /2605 10069 2//// 30221 40235 52004 333 91107=
16710 46/// /0000 10031 20031 39476 40270 52009 333 91103=
16723 NIL=
16738 46/// /0000 10118 20099 30033 40234 52002 333 91101=
16746 42560 62611 10140 20098 30055 40238 52008 82201 333 82820
      86068 91115 555 40000 47570 44180 50000 50118=
0000037700
864
SMXX95 HECA 111800 CCH
AAXX 11184
43533 11458 30905 10271 20241 30138 40140 60001 70510 82232 333 
58010 82818=
43555 11459 20711 10276 20223 30137 40139 60001 70500 81101 333 
58007 81818=
43588 12462 70703 10272 20249 30139 40140 60001 82232 333 58009 
82818 86363=
43599 12460 50000 10260 20246 30133 40135 60001 82232 333 58002 
82818 84076=
0000034300
865
SIVD15 KWNB 112100 RRX
BBXX
42369 11211 99272 70903 46/// /2808 1//// 92040=
42375 11211 99285 70883 46/// /2614 1//// 92040 22200 10504 70019
555 11110 22120=
42392 11211 99272 70900 46/// ///// 1//// 92040 22200 10402 70011=
42887 11211 99282 70885 46/// /2911 10237 20129 92040 22200 10504
70019 555 11095 22103=
0000011000
866
UANT99 KDDL 112247
ARP TAY011 5203N03243W 2247 F350 MS50 278/29 KT
OOTSC QXT AME 112247 F24A
0000036400
867
SXXX32 EUMS 112242
22E595B6
:PRS 1 /1 M 3356 3444 3402 3392 3454 3378 3418 3371 3416 3461 3441 3480 3427 3452 3496 3433 3486 3446 3420 3475 3401 3411 3439 3397 3446 3434 3416 3423 3413 :RAD 1 /3 6596 6603 6610 6631 6625 6616 6605 6601 6597 6592 :ENC 2 /5 4713 4728 4762 4739 4726 4716 :SW1 42 /60 60 :SW2 12 /60 60 :BAT 14 /15 12.5 :NAME 22E595B6
0000069700
868
SXXX32 EUMS 112243
223412A2
OT12 ID:IND-SADENG DT:2014 01 11 22 42
:PRS /1 01607 01639 01649 01551 01575 01503 01461 01560 01650 01723 01599 01591 01626 01580 01574 01535 01596 01753 01660 01665 01515 01559 01557 01532 01623 01661 01604 01567 01607 01614
:ENC /1 -13083 -13053 -13053 -13133 -13129 -13196 -13233 -13113 -13036 -12976 -13063 -13079 -13076 -13143 -13123 -13159 -13109 -12976 -12983 -13069 -13159 -13136 -13129 -13139 -13093 -13016 -13089 -13113 -13076 -13083
:RAD /1 11316 11385 11396 14704 13506 11242 11190 11234 11390 11408 11413 11367 11315 11312 11302 11222 11253 11425 14772 13517 11260 11211 11260 11296 11285 11443 11369 11304 11349 11343
:BAT 11.6V
0000040600
869
SXXX32 EUMS 112245
262D700E
:PRS 1 /1 3130 3096 3107 3118 3083 3058 3095 3046 3026 3047 3015 3026 3059 3076 3061 3098 3088 3100 3022 3028 3071 3010 3030 3057 3049 3064 3015 3047 2994 3025 :RAD 1 /3 5522 5500 5493 5497 5486 5474 5472 5469 5466 5458 5444 5432 5438 5447 5444 :ENC 5 /5 5608 5621 5600 5582 5588 5583 5547 5565 5564 5558 5518 5536 :SW1 45 /60 0 :BAT 14 /15 12.9 :NAME 262D700E
0000044900
870
SXXX32 EUMS 112245 RRA
16289262
:PRS 1 /1 2460 2460 2484 2471 2467 2473 2460 2482 2467 2488 2480 2471 2482 2481 2491 2476 2477 2487 2487 2476 2499 2489 2502 2492 2492 2496 2497 2489 2502 2493 :RAD 1 /3 7930 7932 7937 7943 7950 7952 7958 7959 7964 7966 7970 7974 7974 7976 7977 7978 7982 7985 7983 7981 :ENC 5 /5 5302 5312 5310 5313 5313 5327 5336 5342 5348 5354 5353 5346 :SW1 45 /60 0 :SW2 15 /60 0 :BAT 14 /15 12.5 :NAME 16289262
0000045500
871
SXXX32 EUMS 112245 RRB
324DF524
:PRS 1 /1 2666 2672 2678 2684 2689 2695 2701 2707 2712 2718 2724 2731 2736 2743 2748 2754 2760 2766 2772 2778 2784 2791 2797 2802 2810 2816 2822 2828 2834 2840 :RAD 1 /3 2703 2720 2738 2758 2776 2794 2815 2835 2855 2874 2894 2915 2934 2955 2975 2996 3018 3038 3060 3084 :ENC 5 /5 1658 1687 1717 1748 1780 1810 1842 1875 1908 1946 1981 2020 :SW1 45 /60 0 0 :SW2 15 /60 60 60 :BAT 14 /15 12.1 :NAME 324DF524
0000041500
872
SXXX32 EUMS 112246
26CB10AC
:PRS 1 /1 -1340 -1340 -1340 -1340 -1340 -1340 -1340 -1340 -1340 -1340 -1340 -1340 -1340 -1341 -1340 -1340 -1340 -1340 -1340 -1340 -1340 -1340 -1340 -1340 -1340 -1340 -1340 -1340 -1341 -1340 :RAD 3 /3 6202 6199 6195 6202 6204 6206 6208 6204 6203 6196 :RA2 3 /3 6181 6189 6171 6180 6182 6181 6191 6181 6193 6171 :SW1 47 /60 0 :SW2 17 /60 0 :BAT 14 /15 12.3 :NAME 26CB10AC
0000045000
873
SXXX32 EUMS 112246 RRA
1227146C
:PRS 1 /1 3319 3318 3317 3311 3306 3304 3303 3300 3296 3291 3289 3286 3281 3277 3271 3268 3264 3262 3257 3255 3250 3246 3244 3243 3238 3236 3237 3237 3234 3226 :RAD 3 /3 3306 3291 3277 3272 3261 3243 3228 3228 3231 3220 3202 3176 3180 3168 3150 3151 3138 3116 3107 3091 :ENC 1 /5 4062 4047 4027 4007 3991 3980 3959 3943 3925 3907 3890 3868 :SW1 47 /60 0 :SW2 17 /60 60 :BAT 14 /15 12.0 :NAME 1227146C
0000071500
874
SMXX97 HECA 111800 CCA
AAXX 11184
40356 42560 43204 10040 20030 39247 48527 84500 333 10080 58055 
55005 84630=
40357 42560 43110 10064 20060 39593 40251 84600 333 1093 58072 55///
84730=
40360 42960 01806 10094 20010 39639 40244 83500 333 10150 58041 55092
83640=
40362 41656 72519 10083 20050 39691 40221 71000 87470 333 10107 58047
55/// 87640 85360=
40375 42660 40106 10110 20020 39349 40250 84200 333 10152 58039 55060
84840=
40394 42660 33314 10072 20010 39083 48544 83500 333 10112 58054 55075
83640=
40417 42960 22907 10137 20090 30197 40212 82030 333 10184 58019 55///
82360=
40420 42760 63208 10146 20110 30005 40216 81570 333 10177 58004 55///
81650 86360=
0000087700
875
SMXX95 HECA 111800 CCI
AAXX 11184
40356 42560 43204 10040 20030 39247 48527 84500 333 10080 58055 
55005 84630=
40357 42560 43110 10064 20060 39593 40251 84600 333 1093 58072 55///
84730=
40360 42960 01806 10094 20010 39639 40244 83500 333 10150 58041 55092
83640=
40361 42560 33103 10074 20010 39466 40260 83500 333 10112 58068 55///
83630=
40362 41656 72519 10083 20050 39691 40221 71000 87470 333 10107 58047
55/// 87640 85360=
40375 42660 40106 10110 20020 39349 40250 84200 333 10152 58039 55060
84840=
40394 42660 33314 10072 20010 39083 48544 83500 333 10112 58054 55075
83640=
40416 42960 42908 10142 20100 30178 40198 84030 333 10190 58008 55///
84358=
40417 42960 22907 10137 20090 30197 40212 82030 333 10184 58019 55///
82360=
40420 42760 63208 10146 20110 30005 40216 81570 333 10177 58004 55///
81650 86360=
0000070300
876
SMAF95 HECA 111800 CCL
AAXX 11184
40356 42560 43204 10040 20030 39247 48527 84500 333 10080 58055 
55005 84630=
40357 42560 43110 10064 20060 39593 40251 84600 333 1093 58072 55///
84730=
40360 42960 01806 10094 20010 39639 40244 83500 333 10150 58041 55092
83640=
40361 42560 33103 10074 20010 39466 40260 83500 333 10112 58068 55///
83630=
40375 42660 40106 10110 20020 39349 40250 84200 333 10152 58039 55060
84840=
40394 42660 33314 10072 20010 39083 48544 83500 333 10112 58054 55075
83640=
40417 42960 22907 10137 20090 30197 40212 82030 333 10184 58019 55///
82360=
40420 42760 63208 10146 20110 30005 40216 81570 333 10177 58004 55///
81650 86360=
0000144100
877
FTSD40 OEJD 112300 RRA
TAF OEAH 112230Z 1200/1306 34013KT 8000 SCT030 TEMPO 1200/1208 3500
BR/DZ
 BKN030 PROB30 1200/1205 0800 FG=
TAF OEGS 112230Z 1200/1306 36006G16KT 6000 SCT040=
TAF OEGT 112230Z 1200/1306 27006G16KT 8000 SCT030 TEMPO 1200/1208
3500 BR
 PROB30 TEMPO 1200/1206 0800 FG SCT015=
TAF OEHL 112230Z 1200/1306 32014KT 6000 SCT040 BECMG 1206/1208
04012KT=
TAF OEPA 112230Z 1200/1306 32013KT 8000 SCT035 TEMPO 1200/1208 3500
BR/DZ
BKN035 PROB30 TEMPO 1200/1206 0800 FG FEW020=
TAF OEKJ 112230Z 1200/1306 34013KT 7000 FEW040 TEMPO 1200/1212 4000
HZ=
TAF OEKK 112230Z 1200/1306 32013KT 8000 SCT035 TEMPO 1200/1208 3500
BR/DZ
BKN035 PROB30 TEMPO 1200/1206 0800 FG FEW020=
TAF OERF 112230Z 1200/1306 30006G16KT 8000 SCT030 TEMPO 1200/1208
4000 BR
 PROB30 TEMPO 1200/1204 VRB04KT 0800 FG SCT015=
TAF OERR 112230Z 1200/1306 28013KT 8000 SCT030 TEMPO 1200/1208 4000
BR
PROB30 TEMPO 1200/1204 VRB04KT 0800 FG SCT015=
TAF OEDM 112230Z 1200/1306 02006G16KT 7000 NSC TEMPO 1200/1206 4000
BR=
TAF OESK 112230Z 1200/1306 VRB04KT 8000 SCT030 TEMPO 1200/1205 3500
BR
BECMG 1206/1208 28013KT=
TAF OETB 112230Z 1200/1306 09012KT 6000 SCT040=
TAF OETR 112230Z 1200/1306 27006G16KT 8000 SCT030 TEMPO 1200/1208
3500 BR
 PROB30 TEMPO 1200/1206 0800 FG SCT015=
TAF OEJB 112230Z 1200/1306 34013KT 8000 SCT030 TEMPO 1200/1208 3500
BR/DZ
 BKN030 PROB30 1200/1205 0800 FG=
0000065300
878
SMXX95 HECA 111800 CCJ
AAXX 11184
41036 42960 00505 10120 20030 38599 48546 333 10160 58028 55065=
41055 42960 03404 10133 20120 38395 48544 333 10179 58021 55030=
41084 42960 03006 10153 20080 38895 48544 333 10210 58024 55080=
41112 42460 31904 10118 20110 37976 48549 83500 333 10159 58013 55040
83615=
41114 42960 02405 10120 20110 38007 48545 333 10155 58011 55035=
41128 42560 60306 10170 20090 38840 48545 83570 333 10270 58015 55025
83630 83359=
41136 42660 53507 10233 20070 39344 40151 83530 333 10288 58005 55080
83640 83359=
41140 42560 30000 10260 20200 30161 40173 81430 333 10311 58027 55///
81630=
0000049900
879
SMAF95 HECA 111800 CCM
AAXX 11184
41036 42960 00505 10120 20030 38599 48546 333 10160 58028 55065=
41084 42960 03006 10153 20080 38895 48544 333 10210 58024 55080=
41112 42460 31904 10118 20110 37976 48549 83500 333 10159 58013 55040
83615=
41114 42960 02405 10120 20110 38007 48545 333 10155 58011 55035=
41128 42560 60306 10170 20090 38840 48545 83570 333 10270 58015 55025
83630 83359=
41140 42560 30000 10260 20200 30161 40173 81430 333 10311 58027 55///
81630=
0000120700
880
SNVD20 KWNB 112200 RRR
BBXX
41052 11221 99183 70648 46/// /0710 10261 40169 92230 333 91212
555 11108 22118=
41052 11221 99183 70648 46/// /0709 10260 40169 92220 333 91211
555 11103 22112=
41052 11221 99183 70648 46/// /0809 10260 40168 92210 333 91212
555 11103 22112=
42085 11221 99179 70665 46/// /0809 10263 40166 92230 333 91210
555 11098 22107=
42085 11221 99179 70665 46/// /0808 10264 40166 92220 333 91211
555 11092 22099=
42085 11221 99179 70665 46/// /0909 10264 40165 92210 333 91211
555 11095 22103=
44029 11221 99425 70706 46/06 /1610 10081 49971 92204 22200 00049
10604 70018 333 91212 555 11113 22123=
44030 11221 99432 70704 46/30 /1713 10085 49961 92204 22200 00052
10604 70022 333 91215 555 11140 22152=
44032 11221 99437 70694 46/14 /1814 10090 49983 92204 22200 00047
10806 70028 333 91218 555 11155 22169=
44033 11221 99441 70690 46/05 /1910 10071 49983 92204 22200 00025
10603 70017 333 91212 555 11112 22121=
44034 11221 99441 70681 46/24 /1812 10089 40009 92204 22200 00064
10605 70026 333 91214 555 11135 22147=
44037 11221 99435 70679 46/00 /1813 10091 40034 92204 22200 00047
10605 70027 333 91215 555 11140 22152=
0000011800
881
SMAF95 HECA 111800 RRX
AAXX 11184
41941 31940 00000 10182 20160 30142 40148 70500 333
58002 70000=
00000000