0000120400
822
WWCN16 CWWG 112235
SEVERE WEATHER BULLETIN
ISSUED BY ENVIRONMENT CANADA
AT 3:35 PM MST SATURDAY 11 JANUARY 2014.
---------------------------------------------------------------------
WATCHES/WARNINGS IN EFFECT FOR NORTHERN ALBERTA...

SNOWFALL WARNING FOR:
      BONNYVILLE - ST. PAUL - COLD LAKE - LAC LA BICHE
      WABASCA - PEERLESS LAKE - GIFT LAKE - CADOTTE LAKE
      FORT MCMURRAY - FORT MACKAY.

      A FURTHER 5 TO 10 CENTIMETRES OF SNOW TONIGHT.

---------------------------------------------------------------------
WATCHES/WARNINGS ENDED FOR NORTHERN ALBERTA...

SNOWFALL WARNING ENDED FOR:
      PEACE RIVER - FAIRVIEW - HIGH PRAIRIE - MANNING.

      NO FURTHER SIGNIFICANT ACCUMULATIONS EXPECTED.

---------------------------------------------------------------------
==DISCUSSION==
A PACIFIC FRONTAL SYSTEM IS MOVING ACROSS ALBERTA TONIGHT AND
CONTINUES TO BRING SNOW TO THE WABASCA, FORT MCMURRAY AND
NORTHERN COLD LAKE REGIONS. A FURTHER 5 TO 10 CENTIMETRES OF SNOW
WILL FALL TONIGHT BEFORE THE SNOW TAPERS OFF BY TOMORROW MORNING.

PLEASE REFER TO THE LATEST PUBLIC FORECASTS FOR FURTHER DETAILS.



END
0000149200
823
WWCN15 CWWG 112238
SEVERE WEATHER BULLETIN
ISSUED BY ENVIRONMENT CANADA
AT 3:38 PM MST SATURDAY 11 JANUARY 2014.
---------------------------------------------------------------------
WATCHES/WARNINGS IN EFFECT FOR SOUTHERN ALBERTA...
WIND WARNING FOR:
=NEW= CYPRESS HILLS PROVINCIAL PARK - FOREMOST
      OKOTOKS - HIGH RIVER - CLARESHOLM
      LETHBRIDGE - TABER - MILK RIVER
      CARDSTON - FORT MACLEOD - MAGRATH
      CROWSNEST PASS - PINCHER CREEK - WATERTON LAKES NAT. PARK.
      WINDS 80 KM/H GUSTING 100 TONIGHT.
---------------------------------------------------------------------
WATCHES/WARNINGS ENDED FOR SOUTHERN ALBERTA...
SNOWFALL WARNING ENDED FOR:
      BANFF NATIONAL PARK
      KANANASKIS - CANMORE
      JASPER NATIONAL PARK.
      SNOW HAS EASED OR ENDED.
---------------------------------------------------------------------
==DISCUSSION==
A PACIFIC FRONTAL SYSTEM THAT IS MOVING ACROSS ALBERTA BROUGHT HEAVY
SNOW TO THE MOUNTAIN PARKS TODAY. THE SNOW HAS NOW EASED OR ENDED.
OVER THE SOUTHERN REGIONS OF ALBERTA WESTERLY WINDS OF 80 KM/H
GUSTING TO 100 WILL CONTINUE THIS EVENING. CONVECTIVE SNOW FLURRIES
ARE MOVING THROUGH THE AREA THIS EVENING AND MAY RESULT IN STRONGER
WIND GUSTS. WINDS ARE FORECAST TO DIMINISH BELOW WARNING CRITERIA
LATER THIS EVENING AS THE COLD FRONT PASSES BUT WILL REMAIN BRISK
THROUGH SUNDAY.
PLEASE REFER TO THE LATEST PUBLIC FORECASTS FOR FURTHER DETAILS.
END
0000022700
824
WSPN06 KKCI 112245
KZAK SIGMET FOXTROT 3 VALID 112245/120245 KKCI-
OAKLAND OCEANIC FIR FRQ TS OBS AT 2245Z WI N0830 W13230
 - N0715 W12715 - N0600 W12730 - N0645 W13245 - N0830 W13230.
TOP FL500. STNR. NC.
0000062000
825
WWCN02 CYTR 112241
WEATHER BULLETIN FOR CFB TRENTON PREPARED BY THE JOINT METEOROLOGICAL
CENTRE AT 5:41 PM EST SATURDAY 11 JANUARY 2014.
LOCATION: CFB TRENTON (CYTR)
TYPE: WHITE WIND WARNING IN EFFECT
DESCRIPTION: SURFACE WINDS GREATER THAN OR EQUAL TO 25 KNOTS
VALID: UNTIL 12/2200Z (UNTIL 12/1700 EST)
COMMENTS: STRONG AND GUSTY SOUTHWEST WINDS HAVE DEVELOPED AHEAD OF
AN APPROACHING COLD FRONT. BEHIND THE FRONT, WINDS WILL VEER TO
WESTERLY AND CONTINUE TO BE STRONG AND GUSTY THROUGH SUNDAY
AFTERNOON.
NEXT UPDATE: THIS BULLETIN WILL BE UPDATED BY 12/0445Z (11/2345 EST)
END/JMC
0000004600
826
BMDA01 DEMS 112246
HECA
NIL=
0000004600
827
BMDA01 DEMS 112247
HECA
NIL=
0000012000
828
WSUY31 SUMU 112230
SUEO SIGMET A6 VALID 112230Z SUMU-
SUEO MONTEVIDEO FIR CNL SIGMET A5 VALID 112200Z=
0000008500
829
SAKN20 HKNC 112200 RRA
METAR HKEL 112200Z  09009KT CAVOK 12/04 Q1025=
0000008800
830
SAAL41 DAMM 112200 RRC
METAR DAUI 112200Z 23010KT 5000 NSC 19/M02 Q1019=
0000124300
831
FTSD40 OEJD 112300
TAF OEAB 112230Z 1200/1316 18013KT 9999 SCT020 TEMPO 1200/1212
VRB20KT
4000 TSRA BKN020 FEW025CB PROB30 TEMPO 1200/1204 VRB04KT 0800 FG 
SCT012=
TAF OEBA 112230Z 1200/1316 06013KT 9999 SCT030 TEMPO 1200/1212 6000
FEW025CB BKN030=
TAF OEBH 112230Z 1200/1316 VRB04KT 9999 SCT030 TEMPO 1200/1212 6000
BKN030 BECMG 1206/1208 05013KT=
TAF OEGN 112230Z 1200/1316 15008KT 9999 SCT030 TEMPO 1200/1212 
VRB20KT
6000 TSRA BKN030 FEW035CB BECMG 1208/1210 24014KT=
TAF OEKM 112230Z 1200/1316 18013KT 9999 SCT020 TEMPO 1200/1212 
VRB20KT
4000 TSRA BKN020 FEW025CB PROB30 TEMPO 1200/1204 VRB04KT 0800 FG 
SCT012=
TAF OENG 112230Z 1200/1316 08013KT 8000 SCT030 TEMPO 1200/1212 
VRB20KT
4000 BLDU/TSRA FEW025CB BKN030 PROB30 TEMPO 1200/1205 VRB04KT 0800 FG
SCT015=
TAF OEWD 112230Z 1200/1316 09013KT 9999 SCT040 SCT100 TEMPO 1200/1212
6000 FEW035CB BKN040=
TAF OESH 112230Z 1200/1316 05013KT 9999 SCT040 SCT100 TEMPO 1200/1212
VRB20KT 4000 BLDU/TSRA FEW035CB BKN040=
TAF OETF 112230Z 1200/1316 09006G16KT 8000 FEW030 TEMPO 1200/1212
4000 DU/BLDU=
TAF OEYN 112230Z 1200/1316 04006G16KT 8000 SKC TEMPO 1200/1212 4000
DU/BLDU=
TAF OEWJ 112230Z 1200/1316 06010KT 7000 FEW030 BECMG 1208/1210 
32016KT=
0000009700
832
SAMC32 GMMC 111900 RRB
METAR GMTA 111900Z 18004KT 9999 SCT026 SCT100 14/10 Q1022=
0000070400
833
SASD20 OEJD 112200
METAR OEAB 112200Z 21004KT 9999 SCT018 11/10 Q1026 NOSIG=
METAR OEAH 112200Z 33005KT CAVOK 12/09 Q1022 NOSIG=
METAR OEAO 112200Z NIL=
METAR OEBA 112200Z 00000KT CAVOK 10/09 Q1024 NOSIG=
METAR OEBH 112200Z 00000KT CAVOK 14/07 Q1022 NOSIG=
METAR OEDF 112200Z 28007KT CAVOK 12/08 Q1022 NOSIG=
METAR OEDM 112200Z NIL=
METAR OEDR 112200Z 29004KT CAVOK 12/09 Q1021 NOSIG=
METAR OEGN 112200Z 00000KT 9999 FEW030 SCT100 25/20 Q1017 NOSIG=
METAR OEGS 112200Z 01005KT CAVOK 09/06 Q1024=
METAR OEGT 112200Z 29006KT 9999 FEW040 06/02 Q1024 NOSIG=
METAR OEHL 112200Z 33006KT 9999 FEW040 05/M01 Q1024 NOSIG=
METAR OEJN 112200Z 01008KT CAVOK 19/07 Q1018 NOSIG=
0000009100
834
SAAL41 DAMM 112000 RRE
METAR DAUI 112000Z 00000KT 4000 HZ NSC 18/M01 Q1019=
0000087600
835
FTTS40 DTTA 112300
TAF DTTA 112300Z 1200/1224 VRB03KT 4000 BR FEW020 PROB40 TEMPO
1202/1205 1500 BR BECMG 1207/1209 32010KT 9999 SCT023 TEMPO
1212/1218 -RA SCT026TCU BECMG 1218/1220 30006KT 7000 SCT020=
TAF DTMB 112300Z 1200/1224 VRB04KT 7000 FEW020 PROB40 TEMPO
1202/1205 3000 BR BECMG 1207/1209 34008KT 9999 SCT020 SCT100 TEMPO
1208/1218 -RA SCT023TCU BECMG 1212/1214 02014KT BECMG 1218/1220
VRB04KT 7000 SCT016=
TAF DTTJ 112300Z 1200/1224 VRB04KT 9999 FEW026 BECMG 1201/1203
26005KT 7000 SCT023 SCT100 TEMPO 1209/1217 7000 -RA BECMG 1207/1209
31010KT 9999 SCT020=
TAF DTTZ 112300Z 1200/1224 28006KT 9999 SCT030 TEMPO 1201/1206 4000
-RA SCT026TCU  VRB05KT=
TAF DTNH 112300Z 1200/1224 VRB04KT 9999 FEW020 PROB40 TEMPO
1202/1205 3000 BR BECMG 1207/1209 02010KT 9999 SCT020 SCT100 TEMPO
1208/1218 -RA SCT023TCU BECMG 1218/1220 VRB04KT 7000 SCT020=
0000089000
836
FTTS32 DTTA 112300
TAF DTTA 112300Z 1200/1224 VRB03KT 4000 BR FEW020 PROB40 TEMPO
1202/1205 1500 BR BECMG 1207/1209 32010KT 9999 SCT023 TEMPO
1212/1218 -RA SCT026TCU BECMG 1218/1220 30006KT 7000 SCT020=
TAF DTMB 112300Z 1200/1224 VRB04KT 7000 FEW020 PROB40 TEMPO
1202/1205 3000 BR BECMG 1207/1209 34008KT 9999 SCT020 SCT100 TEMPO
1208/1218 -RA SCT023TCU BECMG 1212/1214 02014KT BECMG 1218/1220
VRB04KT 7000 SCT016=
TAF DTTJ 112300Z 1200/1224 VRB04KT 9999 FEW026 BECMG 1201/1203
26005KT 7000 SCT023 SCT100 TEMPO 1209/1217 7000 -RA BECMG 1207/1209
31010KT 9999 SCT020=
TAF DTTZ 112300Z 1200/1224 28006KT 9999 SCT030 TEMPO 1201/1206 4000
-RA SCT026TCU  VRB05KT=
TAF DTNH 112300Z 1200/1224 VRB04KT 9999 FEW020 PROB40 TEMPO
1202/1205 3000 BR BECMG 1207/1209 02010KT 9999 SCT020 SCT100 TEMPO
1208/1218 -RA SCT023TCU BECMG 1218/1220 VRB04KT 7000 SCT020=
0000010300
837
SAMG20 FMMI 112230
METAR FMMI 112230Z 07009KT  9999  FEW017 BKN020 19/19 Q1022
NOSIG=
0000124700
838
FTSD40 OEJD 112300 COR
TAF OEAB 112230Z 1200/1306 18013KT 9999 SCT020 TEMPO 1200/1212
VRB20KT
4000 TSRA BKN020 FEW025CB PROB30 TEMPO 1200/1204 VRB04KT 0800 FG 
SCT012=
TAF OEBA 112230Z 1200/1306 06013KT 9999 SCT030 TEMPO 1200/1212 6000
FEW025CB BKN030=
TAF OEBH 112230Z 1200/1306 VRB04KT 9999 SCT030 TEMPO 1200/1212 6000
BKN030 BECMG 1206/1208 05013KT=
TAF OEGN 112230Z 1200/1306 15008KT 9999 SCT030 TEMPO 1200/1212 
VRB20KT
6000 TSRA BKN030 FEW035CB BECMG 1208/1210 24014KT=
TAF OEKM 112230Z 1200/1306 18013KT 9999 SCT020 TEMPO 1200/1212 
VRB20KT
4000 TSRA BKN020 FEW025CB PROB30 TEMPO 1200/1204 VRB04KT 0800 FG 
SCT012=
TAF OENG 112230Z 1200/1306 08013KT 8000 SCT030 TEMPO 1200/1212 
VRB20KT
4000 BLDU/TSRA FEW025CB BKN030 PROB30 TEMPO 1200/1205 VRB04KT 0800 FG
SCT015=
TAF OEWD 112230Z 1200/1306 09013KT 9999 SCT040 SCT100 TEMPO 1200/1212
6000 FEW035CB BKN040=
TAF OESH 112230Z 1200/1306 05013KT 9999 SCT040 SCT100 TEMPO 1200/1212
VRB20KT 4000 BLDU/TSRA FEW035CB BKN040=
TAF OETF 112230Z 1200/1306 09006G16KT 8000 FEW030 TEMPO 1200/1212
4000 DU/BLDU=
TAF OEYN 112230Z 1200/1306 04006G16KT 8000 SKC TEMPO 1200/1212 4000
DU/BLDU=
TAF OEWJ 112230Z 1200/1306 06010KT 7000 FEW030 BECMG 1208/1210 
32016KT=
0000126900
839
FTSD40 OEJD 112300 CCY
TAF OEAB 112230Z 1200/1306 18013KT 9999 SCT020 TEMPO 1200/1212
VRB20KT
4000 TSRA BKN020 FEW025CB PROB30 TEMPO 1200/1204 VRB04KT 0800 FG
SCT012=
TAF OEBA 112230Z 1200/1306 06013KT 9999 SCT030 TEMPO 1200/1212 6000
FEW025CB BKN030=
TAF OEBH 112230Z 1200/1306 VRB04KT 9999 SCT030 TEMPO 1200/1212 6000
BKN030 BECMG 1206/1208 05013KT=
TAF OEGN 112230Z 1200/1306 15008KT 9999 SCT030 TEMPO 1200/1212
VRB20KT
6000 TSRA BKN030 FEW035CB BECMG 1208/1210 24014KT=
TAF OEKM 112230Z 1200/1306 18013KT 9999 SCT020 TEMPO 1200/1212
VRB20KT
4000 TSRA BKN020 FEW025CB PROB30 TEMPO 1200/1204 VRB04KT 0800 FG
SCT012=
TAF OENG 112230Z 1200/1306 08013KT 8000 SCT030 TEMPO 1200/1212
VRB20KT
4000 BLDU/TSRA FEW025CB BKN030 PROB30 TEMPO 1200/1205 VRB04KT 0800 FG
SCT015=
TAF OEWD 112230Z 1200/1306 09013KT 9999 SCT040 SCT100 TEMPO 1200/1212
6000 FEW035CB BKN040=
TAF OESH 112230Z 1200/1306 05013KT 9999 SCT040 SCT100 TEMPO 1200/1212
VRB20KT 4000 BLDU/TSRA FEW035CB BKN040=
TAF OETF 112230Z 1200/1306 09006G16KT 8000 FEW030 TEMPO 1200/1212
4000 DU/BLDU=
TAF OEYN 112230Z 1200/1306 04006G16KT 8000 SKC TEMPO 1200/1212 4000
DU/BLDU=
TAF OEWJ 112230Z 1200/1306 06010KT 7000 FEW030 BECMG 1208/1210
32016KT=
0000089000
840
FTTS32 DTTA 112200
TAF DTMB 112300Z 1200/1224 VRB04KT 7000 FEW020 PROB40 TEMPO
1202/1205 3000 BR BECMG 1207/1209 34008KT 9999 SCT020 SCT100 TEMPO
1208/1218 -RA SCT023TCU BECMG 1212/1214 02014KT BECMG 1218/1220
VRB04KT 7000 SCT016=
TAF DTNH 112300Z 1200/1224 VRB04KT 9999 FEW020 PROB40 TEMPO
1202/1205 3000 BR BECMG 1207/1209 02010KT 9999 SCT020 SCT100 TEMPO
1208/1218 -RA SCT023TCU BECMG 1218/1220 VRB04KT 7000 SCT020=
TAF DTTA 112300Z 1200/1224 VRB03KT 4000 BR FEW020 PROB40 TEMPO
1202/1205 1500 BR BECMG 1207/1209 32010KT 9999 SCT023 TEMPO
1212/1218 -RA SCT026TCU BECMG 1218/1220 30006KT 7000 SCT020=
TAF DTTJ 112300Z 1200/1224 VRB04KT 9999 FEW026 BECMG 1201/1203
26005KT 7000 SCT023 SCT100 TEMPO 1209/1217 7000 -RA BECMG 1207/1209
31010KT 9999 SCT020=
TAF DTTZ 112300Z 1200/1224 28006KT 9999 SCT030 TEMPO 1201/1206 4000
-RA SCT026TCU  VRB05KT=
0000031500
841
SAMC31 GMMC 112230
METAR GMME 112230Z 15003KT 2500 BR FEW010 12/11 Q1022 NOSIG=
METAR GMMN 112230Z 27003KT 0350 R35R/0300V0650D FG BKN004 12/11 Q1023
 NOSIG=
METAR GMTT 112230Z 11003KT 5000 SCT016 12/10 Q1023 NOSIG=
METAR GMAD 112230Z NIL=
METAR GMFF 112230Z NIL=
METAR GMMX 112230Z NIL=
00000000