0000011800
962
SNVF25 LFPW 111900
BBXX
BATFR16 11194 99466 70111 46/// /1824 10119 20077 40126 53005
22214 00130=
0000018400
963
SSVX13 LFPW 111900
ZZYY 41736 11014 1900/ 712030 040332 6113/ 11119 40147 54000 22219
 00257 33300 88872 20000 43603 444 20130 11014 1900/ 50101 80112
 80040 9/015=
0000011800
964
SNVF25 LFPW 111900
BBXX
BATFR24 11194 99431 10054 46/// /3603 10139 20100 40224 53004
22224 00137=
0000010000
965
SNVF25 LFPW 111900
BBXX
BAREU14 11194 99519 70058 46/// ///// 40211 57002
22244=
0000012800
966
SNVF41 LFPW 111900
BBXX
61002 11194 99421 10047 46/// /0605 10128 20057 40210 52012
22200 00129 10501 70007=
0000015700
967
SSVX13 LFPW 111900
ZZYY 62684 11014 1900/ 174711 005135 6113/ 11119 40180 52009 22219
 00016 444 20130 11014 1900/ 50101 80076 80005 9/015=
0000009800
968
SNVF25 LFPW 111900
BBXX
12050 11194 99336 10319 46/// ///// 40241 52004
22241=
0000015700
969
SSVX13 LFPW 111900
ZZYY 14920 11014 1900/ 328503 067387 6113/ 11119 40236 54000 22219
 00226 444 20130 11014 1900/ 50101 80122 80015 9/015=
0000015700
970
SSVX13 LFPW 111900
ZZYY 41971 11014 1900/ 736123 058634 6113/ 11119 40299 57016 22219
 00206 444 20130 11014 1900/ 50101 80120 80003 9/015=
0000016300
971
SSVX13 LFPW 111900
ZZYY 13593 11014 1900/ 738178 018538 6113/ 22219 00166 33300 88872
 20000 43614 444 20130 11014 1900/ 50101 80118 80050 9/015=
0000011800
972
SNVF25 LFPW 111900
BBXX
BATFR31 11194 99432 10053 46/// /3405 10135 20097 40217 51007
22233 00144=
0000016300
973
SSVX13 LFPW 111900
ZZYY 13595 11014 1900/ 730274 019477 6113/ 22219 00199 33300 88872
 20000 43682 444 20130 11014 1900/ 50101 80108 80024 9/015=
0000015700
974
SSVX13 LFPW 111900
ZZYY 41969 11014 1900/ 741143 042418 6113/ 11119 40237 52009 22219
 00163 444 20130 11014 1900/ 50101 80118 80011 9/015=
0000018400
975
SSVX13 LFPW 111900
ZZYY 41734 11014 1900/ 705273 039009 6113/ 11119 40113 57004 22219
 00265 33300 88872 20000 43597 444 20130 11014 1900/ 50101 80118
 80023 9/015=
0000015700
976
SSVX13 LFPW 111900
ZZYY 44874 11014 1900/ 745781 020710 6113/ 11119 49996 52020 22219
 00131 444 20130 11014 1900/ 50101 80118 80013 9/015=
0000015700
977
SSVX13 LFPW 111900
ZZYY 44740 11014 1900/ 730624 030630 6113/ 11119 40190 52014 22219
 00203 444 20130 11014 1900/ 50101 80118 80019 9/015=
0000012900
978
UPIN90 VIJP 111800 CCA
PPAA 61171 42348 55292 02009 04505=
PPAA 61171 42165
55392 03508 03508 33516 77999=

0000027200
979
UHBW01 VGDC 111800
PPCC 6118/ 41859 NIL=
PPCC 6118/ 41883 NIL=
PPCC 6118/ 41891 NIL=
PPCC 6118/ 41907 NIL=
PPCC 6118/ 41923 NIL=
PPCC 6118/ 41936 NIL=
PPCC 6118/ 41943 NIL=
PPCC 6118/ 41950 NIL=
PPCC 6118/ 41977 NIL=
PPCC 6118/ 41992 NIL=
0000027200
980
UQBW01 VGDC 111800
PPDD 6118/ 41859 NIL=
PPDD 6118/ 41883 NIL=
PPDD 6118/ 41891 NIL=
PPDD 6118/ 41907 NIL=
PPDD 6118/ 41923 NIL=
PPDD 6118/ 41936 NIL=
PPDD 6118/ 41943 NIL=
PPDD 6118/ 41950 NIL=
PPDD 6118/ 41977 NIL=
PPDD 6118/ 41992 NIL=
0000056800
981
SAUK63 EGRR 111850
METAR EGQL 111850Z 26006KT CAVOK 00/M01 Q1017 NOSIG=
METAR EGQM 111850Z AUTO 24010KT 9999 NCD 03/M00 Q1018=
METAR EGQS 111850Z 27013KT CAVOK 03/M00 Q1015=
METAR EGVN 111850Z 20001KT CAVOK 01/M00 Q1022 NOSIG=
METAR EGVO 111850Z 26002KT CAVOK 01/M01 Q1023=
METAR EGWU 111850Z 25002KT CAVOK 01/M00 Q1023 NOSIG=
METAR EGXC 111850Z 25008KT CAVOK 01/M00 Q1021=
METAR EGXT 111850Z AUTO 27005KT 9999 FEW240/// 01/M01 Q1022=
METAR EGXV 111850Z AUTO 28007KT 9999 NCD 04/01 Q1020=
METAR EGXW 111850Z 25008KT CAVOK 04/01 Q1021=
00000000