0000029100
762
SXXX32 EUMS 112233 RRX
269375AE
OT52 ID:F/-STA/-07 DT:20/4 01 11 2/ 23
:RED /1 07374 07369/07360 03348 07/37 07328 /7318 07309 03303 07296 07292 /72/8 07287 03287 47292 07289 07288/0729/ 072/0 07295 0/297 07298/0730/ 07300 07/97/07293 07291 0768/ 07284 07/81
:BAT 13.2V
0000011800
763
SPIN90 VOBL 112233
SPECI COR VOBL 112233Z 09006KT 0050 R27/0225N FG BKN002 SCT012 18/18
Q1018 NOSIG=
0000027500
764
SSVX01 DEMS 112235
ZZYY 23097 11014 21001 114990 068986 111// 03506 10236 40145 222// 00258 1////=
ZZYY 23456 11014 21001 118814 067103 111// 00206 10207 40167 222// 00/// 1//03=
ZZYY 23460 11014 21001 107011 087978 111// 01004 10272 40111 222// 00/// 10704=

0000039700
765
SXXX32 EUMS 112233 RRX
16590056
:PRS 1 /1 2408 2410 2412 2427 2438 2441 2450 2459 2463 2464 2474 2469 :RAD 1 /1 6683 6684 6686 6699 6712 6716 6723 6732 6738 6739 6745 6741 6736 6733 6725 6724 6722 6710 :ENC 6 /6 4945 4948 4925 4962 4990 4976 4996 5023 5023 5035 :ENB 6 /6 4945 4946 4924 4962 4988 4975 4996 5024 5024 5035 :SW1 33 /60 0 :SW2 60 /60 0 :BAT 5 /6 12.4 :NAME 16590056
0000045100
766
SXXX32 EUMS 112233 RRX
32D8A2BE
:PRS 1 /1 1960 1940 1957 1944 1952 1957 1950 1956 1948 1969 1958 1975 1964 1962 1973 1966 1956 1969 1967 1964 1962 1963 1969 1961 1968 1966 1984 1986 1980 1983 :RAD 1 /3 7532 7534 7533 7537 7529 7532 7545 7548 7557 7571 7572 7580 7581 7588 7591 7592 7602 7603 7608 7618 :ENC 3 /5 4962 4968 4972 4975 4981 4991 5002 5014 5025 5034 5042 5050 :SW1 33 /60 8 :SW2 3 /60 56 :BAT 14 /15 12.4 :NAME 32D8A2BE /
0000045100
767
SXXX32 EUMS 112233 RRX
22856700
:PRS 1 /1 3264 3263 3256 3250 3249 3249 3246 3245 3250 3254 3249 3222 3237 3243 3243 3236 3233 3234 3229 3218 3217 3224 3222 3216 3215 3214 3207 3206 3204 3202 :RAD 1 /3 6753 6748 6745 6737 6734 6724 6717 6712 6703 6694 6686 6679 6675 6669 6663 6654 6646 6638 6630 6622 :ENC 3 /5 4945 4939 4934 4920 4911 4897 4881 4874 4867 4850 4838 4826 :SW1 33 /60 0 :SW2 3 /60 32 :BAT 14 /15 12.4 :NAME 22856700 /
0000061000
768
SAAE31 VTBB 112230
METAR VTBS 112230Z 03003KT 320V080 CAVOK 23/15 Q1015 NOSIG=
METAR VTBD 112230Z 00000KT CAVOK 22/18 Q1014 NOSIG=
METAR VTCC 112230Z 00000KT 8000 NSC 16/15 Q1019 A3010 NOSIG=
METAR VTBU 112230Z 00000KT 2000 BR NSC 22/15 Q1013 A2994=
METAR VTSS 112230Z 03004KT 9999 FEW020 SCT120 BKN300 25/23 Q1012
           A2990 NOSIG=
METAR VTSP 112230Z 06003KT 8000 FEW020 SCT120 BKN300 25/21 Q1012
A2989 NOSIG=
METAR VLVT 112230Z NIL=
METAR VYMD 112230Z 00000KT 5000 BR NSC 12/12 Q1015 NOSIG=
METAR VYYY 112230Z NIL=
METAR VDPP 112230Z NIL=
METAR VDSR 112230Z NIL=
0000016000
769
SSVX05 CWAO 112200
ZZYY 44690 11014 2200/ 754217 051925 6113/ 11119 
40112 52022 22219 00033 444 20130 11014 2200/ 50101 80142 80001 
9////=
0000012100
770
SSVX05 CWAO 112200
ZZYY 48524 11014 2200/ 772240 179098 6113/ 444 
20130 11014 2200/ 50400 80140 80001=
0000012700
771
SSVX05 CWAO 112200
ZZYY 47550 11014 2200/ 770787 069467 6113/ 444 
20130 11014 2200/ 50101 80132 80001 9////=
0000013600
772
SNVD17 CWVR 112200
BBXX
46183 11221 99536 71311 46/// /2912 10054 49917 52034
22200 00073 10903 70016 333 91214 =

0000013400
773
SNVD22 KWNB 112300
BBXX
46232 11231 99325 71174 46/// ///// 1//// 92233 22200 00162 11502
21001 328// 41502 70011=
0000016000
774
SSVX02 CWAO 112200
ZZYY 56538 11014 2200/ 337462 135012 6113/ 11119 
40233 52010 22219 00175 444 20130 11014 2200/ 50101 80136 80013 
9/015=
0000016000
775
SSVX02 CWAO 112200
ZZYY 56542 11014 2200/ 324461 073562 6113/ 11119 
40178 57014 22219 00251 444 20130 11014 2200/ 50101 80134 80019 
9/015=
0000016000
776
SSVX02 CWAO 112200
ZZYY 56502 11014 2200/ 331062 098475 6113/ 11119 
40187 52003 22219 00225 444 20130 11014 2200/ 50101 80144 80018 
9/015=
0000016000
777
SSVX02 CWAO 112200
ZZYY 56516 11014 2200/ 355777 116971 6112/ 11119 
40075 52018 22219 00045 444 20130 11014 2200/ 50101 80148 80023 
9/015=
0000015100
778
SSVX02 CWAO 112200
ZZYY 56504 11014 2200/ 317070 093373 6113/ 11119 
40124 57011 22219 00268 444 20130 11014 2200/ 50100 80146 80027=
0000011000
779
UANT01 CWAO 112234
ARP DAL3 4956N05020W 2233 F360 MS62 310/177 KT
N827MH QXS YYT 112234 F58A
0000055400
780
SSVX07 KARS 112232
ZZYY 48731 11014 2220/ 774067 154927 6111/
11119 11169 49943=
ZZYY 48733 11014 2220/ 772944 152334 6112/
11119 11208 49935=
ZZYY 48508 11014 2220/ 772662 159249 6112/
11119 11220 49981
444 20120 11014 2221/ 504//=
ZZYY 48508 11014 2100/ 772668 159233 6113/
11119 11216 49981 57010
444 20130 11014 2044/ 504//=
ZZYY 48536 11014 2220/ 175232 148574 6112/
11119 11327
444 20120 11014 2205/ 504//=
ZZYY 48507 11014 2100/ 772984 134780 6112/
11119 11252 49842 57008
444 20120 11014 2041/ 504//=
0000026400
781
SSVX08 KARS 112232
ZZYY 13009 10014 1200/ 707921 038091 6112/
33311 88872 20020 32610 43576 20040 32400 43600 20060 31970
20080 31678 20100 31490 20120 31356 43539 20140 31220 20180 31104
20300 30960 20500 30782
444 20120 10014 1149/ 521//=
00000000