0000017900
849
SMCI01 BABJ 111200 RRB
AAXX 11121
51243 32965 02501 11195 21222 39820 40437 57015 333 05601=
51463 31956 00702 11181 21203 39203 40405 57007 71000 333
05558=
0000010600
850
SMCI02 BABJ 111200 RRB
AAXX 11121
58847 32667 70401 10144 20086 30154 40258 52013 87///=
0000016700
851
SMCI01 BABJ 111200 RRC
AAXX 11121
51288 32980 00903 11116 21214 38407 57006 333 05203=
54511 31931 73201 11009 21134 30258 40300 52019 70500 87///=
0000010600
852
SMCI01 BABJ 111200 CCA
AAXX 11121
54401 32963 73609 11047 21227 39383 40367 52031 87///=
0000034200
853
SMCI02 BABJ 111200 RRC
AAXX 11121
57265 32961 02903 10035 20011 30159 40328 52016=
58362 11962 80703 10047 20024 30308 40316 52006 60021 76065
88///=
58752 31749 82901 10105 20065 40278 52008 70500 88///=
59134 32961 20901 10139 20107 30074 40244 52019 82///=
59758 32470 60704 10199 20177 30134 40211 52018 86///=
0000011200
854
SMCI02 BABJ 111200 CCA
AAXX 11121
59644 31758 70702 10193 20156 30205 40222 52022 70500 87///=
0000023200
855
SMCI01 BABJ 111200 RRD
AAXX 11121
51076 32980 00402 11138 21203 39465 40434 57013 333 05407=
51573 32970 02701 11076 21172 30398 40446 57002 333 00200=
52983 32980 82503 11077 21215 38214 52020 88/// 333 00651=
0000030300
856
SMCI02 BABJ 111200 RRD
AAXX 11121
58040 31917 01401 11002 21013 30303 40311 52001 71000=
58238 11412 81103 10045 20035 30265 40311 52004 69951 76066
88///=
58251 31932 71101 10039 21001 30309 40315 52006 70500 87///=
59316 31959 20701 10155 20124 30240 40249 52022 71000 82///=
0000010000
857
SMCI01 BABJ 111200 RRE
AAXX 11121
54471 42955 00901 11050 21065 30277 40283 52007=
0000017700
858
SMCI02 BABJ 111200 RRE
AAXX 11121
58457 11217 80702 10054 20047 30251 40305 52012 60041 76065
88///=
59117 32965 52901 10159 20104 30089 40231 52019 85///=
0000170700
859
SMCI03 BABJ 111200
AAXX 11121
50136 32970 02203 11291 21351 39759 40392 52007=
50745 11963 73201 11227 21273 30113 40320 52024 69911 70070
87///=
50774 32960 02203 11248 21325 39927 40291 52019=
50788 32970 02502 11269 21313 30163 40260 52007=
51133 32980 60701 11068 21148 39627 40320 57012 86/// 333
06103=
51431 32980 71101 11059 21114 39449 40301 57017 87/// 333
06203=
51747 32970 00000 11102 21204 40488 57002 333 00253=
52203 32980 00000 11106 21202 39492 40457 57003 333 00202=
52418 32980 02001 11078 21209 39037 40473 52003 333 00353=
52681 32980 02901 11072 21226 38778 40465 52014 333 00552=
53564 31916 03601 11093 21219 39306 40419 52023 70500 333
00204=
53614 32970 03402 11028 21216 39038 40408 52018 333 00401=
53646 32972 03404 11046 21236 38968 40395 52025 333 00400=
53798 31906 73201 10016 21033 30194 40295 52012 70500 87///=
53845 32965 82902 11013 21220 38945 40390 52019 88/// 333
00402=
53959 31938 72504 10048 21082 39878 40338 52019 70500 87///=
54094 42756 73401 11169 21208 39828 40243 57015 87///=
54102 31956 03602 11183 21233 39111 40409 52027 70500=
54161 32962 42502 11124 21207 39958 40275 52005 84///=
54292 32975 02702 11106 21200 39901 40242 57006=
54374 32962 00202 11138 21188 39793 40300 52003=
54423 31929 00000 11060 21177 39773 40326 52026 70500=
54618 31905 60402 11016 21032 30284 40303 52017 74240 86///=
54843 31922 00000 11014 21060 30271 40300 52006 70500=
54909 31947 21802 10032 21067 30235 40302 52011 70500 82///=
56029 33/// 91401 11044 21163 36432 52008 333 00351=
57127 32960 81101 10056 20019 39712 40341 52026 88///=
57131 32965 72204 10057 21133 40354 52027 87///=
0000011100
860
UANT99 KDDL 111217
ARP RCH242 5001N01555W 1217 F280 MS45 229/54 KT
77180A DDL XXN 111217 F54A
0000011000
861
UANT99 KDDL 111217
ARP BAW9VA 4801N01913W 1217 F380 MS58 216/75 KT
GVIIV QXT AOE 111217 F10A
0000011000
862
UANT99 KDDL 111217
ARP AZA60U 4711N00935W 1217 F340 MS59 288/50 KT
EIISB QXS LCG 111218 F08A
0000009600
863
UGIN90 VIJP 111200
PPBB 61111
42328 90012 04507 02008 02513 90360 02513 03010=
0000011600
864
SMIN90 VIJP 111200
AAXX 11124
42328 32996 30508 10164 21013 40187 80001
  333 10188 58030 83075=
0000016300
865
SMVA10 EHDB 111200 RRC
BBXX
9V2004 11124 99022 30586 41598 70211 10290 20238 40090 55012 70322
83279 22244 00275 20502 304// 40502 5//// 80252=
0000379300
866
SMKZ01 UAAA 111200
AAXX 11121
28676 41596 81402 11057 21075 30076 40206 53005 78582 889// 555  
1/106=
28766 419// 81804 11053 21074 30000 40194 52005 71032 8802/ 555  
1/106=
28867 41496 81603 11052 21077 39902 40178 57001 71073 885// 555  
1/105=
28879 419// 61704 11060 21091 39920 40215 53001 70172 86030 555  
1/108=
28952 41598 81608 11060 21095 39975 40170 52004 73633 885// 555  
1/107=
28966 415// 81306 11050 21082 39906 40195 57001 73673 885// 555  
1/107=
29802 429// 81603 11090 21119 30138 40288 53003 86031 555   1/110=
29807 415// 81503 11078 21105 30145 40267 57005 70272 885// 555  
1/110=
34691 41496 82004 10038 20018 30103 40091 57006 76062 8672/ 555  
1/002=
35067 41996 81702 11046 21062 39909 40190 53006 77177 8802/ 555  
1/104=
35078 41596 81503 11055 21062 39827 40214 54000 77772 886// 555  
1/106=
35085 41498 82004 11064 21079 39747 40235 57003 72022 886// 555  
1/107=
35108 41496 81907 10008 20000 30000 40045 57023 77372 8802/=
35188 416// 81904 11064 21084 39805 40251 57003 77173 8802/ 555  
1/107=
35217 42498 81810 10008 21006 30046 40087 57021 8802/ 555   1/000=
35229 42598 82303 11011 21027 39873 40146 53004 885// 555   1/102=
35302 41596 82009 10015 21017 30041 40060 57019 76176 886// 555  
1/000=
35357 415// 81607 11073 21107 39775 40222 57019 73632 885// 555  
1/108=
35394 42998 61402 11105 21158 39579 40286 57006 82031 555   1/113=
35406 41597 81805 10021 20008 30092 40094 57016 70262 885// 555  
1/001=
35416 41597 81604 10002 21007 30022 40142 57002 70272 885// 555  
1/000=
35426 42599 81602 11019 21037 39867 40160 54000 885// 555   1/102=
35497 419// 81106 11087 21139 39452 40278 57005 73632 8802/ 555  
1/110=
35532 41/92 92303 11019 21025 39676 40170 52002 74544 555   1/101=
35671 42598 81205 11072 21101 39781 40223 57002 885// 555   1/107=
35700 42598 82004 10024 20005 30157 40133 57007 885// 555   11002=
35746 41596 82103 10002 21001 71042 885// 555   1/100=
35796 42997 80506 11112 21151 39848 40305 57007 8807/ 555   1/113=
35849 41/93 90000 10001 21022 30115 40201 53009 74742 555   1/000=
35925 NIL=
35953 41496 82502 11019 21037 30078 40210 53004 71022 886// 555  
1/102=
35969 42999 00000 11046 21094 30058 40236 53003 555   1/109=
36003 42698 61602 11130 21167 30133 40293 57008 82570 555   1/116=
36152 429// 61204 11143 21167 30112 40312 57010 84032 555   1/116=
36177 429// 71703 11085 21150 30077 40333 57008 86031 555   1/110=
36208 429// 70802 11089 21158 39329 40346 57013 85042 555   1/113=
36397 429// 81616 11117 21189 39746 40336 57012 8807/ 333   91020
91120 555   1/112=
36428 429// 30302 11194 21217 39855 40398 57012 82041 333   95090
555   1/122=
36535 429// 50000 11184 21239 39720 40404 57016 80001 555   1/121=
36639 429// 30000 11168 21210 39676 40324 57014 80001 555   1/122=
36821 428// 71301 11086 21150 39782 40291 54000 82032=
36859 429// 50101 11073 21115 39481 40290 57015 85040 555   1/113=
36864 42899 60000 11036 21106 39373 40286 53008 84051=
36870 42997 80000 11035 21125 39234 40268 53014 82042 555   1/110=
38001 NIL=
38062 42699 42203 11004 21042 30052 40216 53008 82470 555   1/104=
38069 42998 01501 10013 21050 555   1/102=
38196 42998 02301 10001 21149 39246 40235 57004=
38198 42997 01002 11008 21066 39981 40245 57003 555   1/106=
38222 42997 60000 11052 21126 39701 40278 53007 86060 555   1/111=
38232 NIL=
38328 42999 01702 10062 21115 39505 40228 57006 555   1/102=
38334 42998 00803 10006 21128 39276 40249 57002 555   1/105=
38341 42699 21803 10004 21075 39458 40252 57002 82500 555   1/110=
38343 42698 51801 10002 21074 39406 40258 53003 83530=
38439 42997 01105 10032 21019 39890 40230 57012 555   11001=
0000049600
867
UKCN04 CWAO 111200
TTBB  61128 71909 00002 22137 11987 21136 22882 26711 33848
23122 44783 24722 55750 26903 66741 24510 77734 23550 88722
23959 99704 24957 11687 25960 22681 25968 33661 27759 44655
27765 55644 28367 66593 32957 77577 33967 88567 34968 99530
38759 11465 45958 22429 50556 33424 50956 44374 54760 55330
58959 66316 58560 77287 60962 88257 62763 99239 63363 11231
61165 22172 62774 33128 67372 44116 69771 55110 68570 66100
70170 31313 48008 81115=

0000032200
868
USCN04 CWAO 111200
TTAA  61121 71909 99002 22137 00000 00032 21543 35502 92604
23730 29017 85220 23321 28019 70633 25359 30017 50500 41959
31516 40647 52757 30031 30830 60162 29538 25943 62763 29537
20081 61971 28031 15257 65373 28029 10501 70171 28035 88257
62763 29538 88116 69771 26522 77999=

00000000