0000008900
916
SAEG31 HECA 101630
METAR HECA 101630Z 28006KT CAVOK 17/08 Q1021 NOSIG=

0000020300
917
FTSA32 KWBC 101621
TAF
TAF SCEL 101615Z 1018/1118 20013KT CAVOK TX31/1019Z TN14/1110Z
      BECMG 1101/1103 15005KT
      BECMG 1108/1110 VRB02KT
      BECMG 1114/1116 17004KT=

0000030300
918
FTSA41 KWBC 101621
TAF
TAF SKPE 101600Z 101818 VRB02KT 9000 SCT013 SCT080
      TEMPO 1018/1022 8000 VCSH SCT013TCU BKN080 PROB40
      TEMPO 1022/1102 7000 DZRA BKN012 PROB40
      TEMPO 1109/1111 6000 DZ BKN010
      TEMPO 1111/1114 5000 BCFG SCT008 TX24/1019Z TN17/1111Z=

0000045400
919
FTUS51 KWBC 101621 AAA
TAF AMD
KBLF 101618Z 1016/1112 00000KT 3/4SM BR SCT025 OVC035
     FM101900 15006KT 4SM BR SCT025 OVC040
     FM102200 15010KT P6SM OVC015
     FM110300 17012G22KT P6SM OVC007 WS010/20042KT=
KDAY 101617Z 1016/1112 17006KT 2SM BR OVC004
      TEMPO 1016/1018 3/4SM BR OVC002
     FM101800 17009KT 5SM BR OVC008
     FM110100 18012KT 4SM BR VCSH BKN012
     FM110300 17012G22KT 4SM -RA BR BKN010=

0000026200
920
FTUS53 KWBC 101621 AAA
TAF AMD
KCNU 101619Z 1016/1112 17015KT 1/4SM FG VV002
      TEMPO 1017/1018 1SM BR SCT002 OVC005
     FM101800 19015KT 2SM BR OVC004
     FM102200 23013KT 5SM BR BKN015
     FM110000 27009KT P6SM SCT020 BKN250=

0000104400
921
FTUS80 KWBC 101621 AAA
TAF AMD
KBLF 101618Z 1016/1112 00000KT 3/4SM BR SCT025 OVC035
     FM101900 15006KT 4SM BR SCT025 OVC040
     FM102200 15010KT P6SM OVC015
     FM110300 17012G22KT P6SM OVC007 WS010/20042KT=
KCMH 101619Z 1016/1112 16007KT 4SM BR OVC009
     FM101800 17009KT 5SM BR OVC015
     FM110500 17012KT P6SM VCSH BKN020
     FM110800 18012G22KT 5SM -RA BR BKN010=
KCNU 101619Z 1016/1112 17015KT 1/4SM FG VV002
      TEMPO 1017/1018 1SM BR SCT002 OVC005
     FM101800 19015KT 2SM BR OVC004
     FM102200 23013KT 5SM BR BKN015
     FM110000 27009KT P6SM SCT020 BKN250=
KDAY 101617Z 1016/1112 17006KT 2SM BR OVC004
      TEMPO 1016/1018 3/4SM BR OVC002
     FM101800 17009KT 5SM BR OVC008
     FM110100 18012KT 4SM BR VCSH BKN012
     FM110300 17012G22KT 4SM -RA BR BKN010=
KILN 101618Z 1016/1112 17007KT 2SM BR OVC004
      TEMPO 1016/1018 1/4SM FG VV002
     FM101800 17009KT 3SM BR OVC009
     FM102100 17009KT 5SM BR OVC015
     FM110500 16012KT 4SM -RA BR BKN012=

0000009300
922
SPUS31 KWBC 101620
SPECI
KDTW 101616Z 16007KT 3SM BR OVC008 01/00 A3017=

0000010900
923
SPUS41 KWBC 101620
SPECI
KDOV 101618Z AUTO 09005KT 3SM -RA BR BKN029 OVC041 02/02 A3042=

0000010000
924
SPUS41 KWBC 101620
SPECI
KRIC 101616Z 03006KT 2SM BR BKN004 OVC035 03/01 A3041=

0000009700
925
SPUS43 KWBC 101620
SPECI
KMDW 101616Z 16008KT 2 1/2SM BR OVC005 01/01 A3001=

0000010900
926
SPUS31 KWBC 101621
SPECI
KJFK 101617Z 01003KT 6SM -RA FEW019 SCT026 OVC035 01/M02 A3047=

0000010500
927
SPUS41 KWBC 101621
SPECI
KBDR 101617Z 02003KT 1 3/4SM -FZRA BR OVC022 M01/M02 A3046=

0000016600
928
SAAK31 KWBC 101600 RRA
METAR
PAVD 101616Z 10SM FEW005 BKN060 BKN080 M04/M07 A2937=
PAWG 101616Z 21005KT 10SM FEW020 SCT028 OVC035 02/M02 A2962=

0000010700
929
SAAK32 KWBC 101600 RRA
METAR
PADK 101616Z AUTO 15008KT 10SM SCT025 OVC034 03/01 A2898=

0000010000
930
SAIS32 LLBG 101620
METAR LLBG 101620Z 17006KT CAVOK 14/10 Q1019 NOSIG RMK FEW065=

0000011400
931
SPCN51 CWAO 101621
SPECI CWUW 101621Z AUTO 14014KT 1 3/4SM FEW087 M28/ A2889 RMK ICG
PAST HR=

0000027600
932
SASW31 LSSW 101620
METAR LSZH 101620Z 07002KT 9999 FEW012 BKN075 05/03 Q1019 NOSIG=
METAR LSGG 101620Z VRB02KT CAVOK 08/04 Q1018 NOSIG=
METAR LSZB 101620Z 31005KT 9999 FEW070 06/04 Q1018 NOSIG=
METAR LSZA 101620Z 14002KT 9999 SCT042 10/06 Q1019 NOSIG=

0000066200
933
FTDR31 MDSD 101600
TAF
TAF MDSD 101600Z 1018/1118 11010KT 9999 SCT020 PROB30 1018/1023 7000 
-SHRA BKN018 BECMG 1102/1104 02006KT=
TAF MDST 101600Z 1018/1118 12010KT 9999 SCT022 PROB30 1018/1022 7000 
-SHRA BKN018 BECMG 1103/1105 00000KT=
TAF MDPP 101600Z 1018/1118 11010KT 9999 SCT020 BECMG 1101/1103 
00000KT=
TAF MDPC 101600Z 1018/1118 11010KT 9999 SCT022 PROB30 1103/1109 8000 
-SHRA BKN016 SCT070=
TAF MDLR 101600Z 1018/1118 11010KT 9999 SCT022 PROB30 1018/1022 7000 
-SHRA BKN018 BECMG 1101/1103 00000KT =
TAF MDCY 101600Z 1018/1118 12010KT 9999 SCT020 PROB30 1019/1023 6000 
-SHRA BKN017 BECMG 1102/1104 00000KT=

0000013900
934
SAPA31 KWBC 101600 RRC
METAR
PKWA 101620Z AUTO 06016KT 10SM SCT028 SCT036 SCT043 27/21 A2977
     RMK AO2 T02710208=

0000018400
935
SADN33 EKCH 101620
METAR EKKA 101620Z 27014KT 8000 -SHRA FEW010 FEW012CB BKN025
06/05 Q1004=
METAR EKSP 101620Z 27015KT 6000 -SHRA SCT012CB BKN038 06/04
Q1007=

00000000