0000091400
656
SARA34 RUMS 101600
METAR UNAA 101600Z 15004MPS CAVOK M07/M12 Q1029 NOSIG RMK QFE749
20090040=
METAR UNBB 101600Z 22009G14MPS 9999 -SN DRSN BKN020 M08/M10 Q1029
NOSIG RMK QFE749/0999 24424042=
METAR UNEE 101600Z 19006MPS 2100 -SN OVC007 M08/M10 Q1024 NOSIG RMK
QFE745 23451050=
METAR UNKL 101600Z 17003MPS 9999 SCT037 OVC083 M08/M13 Q1025 NOSIG
RMK QFE743 29////55=
METAR UNNT 101600Z 21006MPS 5000 -SHSN DRSN OVC030CB M05/M07 Q1025
25490140 16390136 NOSIG RMK QFE758/1011=
METAR UNOO 101600Z 24005MPS 8000 BKN016 BKN033CB M06/M09 Q1021
25390137 NOSIG RMK QFE757=
METAR UNTT 101600Z 21008MPS 2900 -SHSN FEW008 SCT020CB OVC066 M08/M10
Q1021 NOSIG RMK QFE751=
METAR USTR 101600Z 20006MPS 9999 -SHSN BKN030CB OVC050 M02/M03 Q1012
NOSIG RMK QFE749/0999 21390045 12750029=
METAR USHH 101600Z 03002MPS 9999 SCT010 OVC080 M21/M24 Q1015 TEMPO
BKN007 RMK QFE758 06////37=

0000101800
657
SARS32 RUMS 101600
METAR URKA 101600Z 20008G13MPS 9999 BKN025 OVC120 09/05 Q1015 RMK
QFE757/1010=
METAR URKK 101600Z 22004MPS CAVOK 06/03 Q1015 NOSIG RMK QFE758 SC070=
METAR URML 101600Z 20004MPS 9999 SKC 01/M01 Q1021 NOSIG RMK
QFE766/1021 SC070=
METAR URMM 101600Z 11005G07MPS 9999 SCT230 04/M00 Q1016 12CLRD70
NOSIG RMK QFE734/0979=
METAR URMN 101600Z 24002MPS 9999 SCT260 00/M02 Q1017 NOSIG RMK QFE725
SC06=
METAR URMO 101600Z 09003MPS 9999 BKN100 M02/M04 Q1017 NOSIG RMK
QFE719/0959 SC070=
METAR URMT 101600Z 25004MPS 9999 SCT020 BKN100 02/00 Q1016 NOSIG RMK
QFE723 SC0.60=
METAR URRR 101600Z 21004MPS 9999 SCT007 OVC018 06/05 Q1013 22CLRD70
NOSIG=
METAR URSS 101600Z 05003MPS 9999 SCT230 05/02 Q1018 NOSIG RMK
R06/09003MPS QFE762 02000070 06//////=
METAR URWA 101600Z 24003MPS 8000 SCT032 04/02 Q1018 NOSIG RMK
QFE765/1020 SC055=
METAR URWI 101600Z 21004MPS 9999 OVC029 04/00 Q1017 NOSIG=
METAR URWW 101600Z 22005MPS CAVOK 01/00 Q1013 NOSIG RMK 29190060=

0000170100
658
SAUS74 KWBC 101600
METAR
KACV 101553Z AUTO 00000KT 1SM R32/4000V5500FT BR OVC003 10/09
     A3027=
KALW 101553Z 23024G32KT 10SM FEW039 SCT080 09/02 A2998=
KBFI 101553Z 19012G23KT 10SM OVC017 09/05 A3002=
KBFL 101554Z 32003KT 4SM HZ CLR 05/02 A3026=
KBIL 101553Z 25011KT 10SM BKN065 00/M07 A2959=
KBKE 101553Z AUTO 11006KT 10SM BKN110 M03/M04 A2998=
KBLI 101553Z 18009G19KT 10SM SCT016 BKN021 OVC026 08/05 A2995=
KBOI 101553Z 30004KT 10SM SCT055 03/M01 A3003=
KBTM 101553Z AUTO 00000KT 10SM SCT049 BKN055 OVC090 M02/M07
     A2970=
KBUR 101553Z 00000KT 8SM CLR 10/03 A3008=
KBYI NIL=
KBZN 101556Z 09003KT 10SM OVC065 01/M08 A2970=
KCDC 101553Z AUTO 00000KT 10SM CLR M03/M06 A3011=
KCEC 101556Z AUTO 14008KT 4SM BR OVC003 09/09 A3026=
KCLM 101553Z AUTO 30014G19KT 10SM BKN120 08/04 A2996=
KCTB 101556Z AUTO 27020G25KT 10SM CLR 00/M06 A2948=
KCXL NIL=
KEKO 101556Z AUTO 19003KT 10SM CLR 02/M03 A3012=
KEUG 101554Z 14005KT 10SM FEW028 OVC065 08/07 A3021=
KFAT 101553Z 08003KT 3SM HZ SCT200 06/03 A3027=
KFLG 101557Z 22008KT 10SM CLR 01/M07 A3009=
KGCN 101554Z 00000KT 10SM CLR M04/M09 A3011=
KGEG 101553Z 21017KT 10SM FEW025 SCT055 BKN190 OVC240 02/M01
     A2979=
KGGW 101553Z AUTO 30005KT 10SM CLR M06/M10 A2949=
KGTF 101553Z 22015KT 10SM CLR 01/M06 A2953=
KHLN 101553Z 26016G25KT 10SM BKN035 02/M04 A2962=
KHQM 101553Z AUTO 22012KT 5SM HZ OVC040 A3008=
KIDA 101553Z 20009KT 10SM OVC011 M01/M04 A2988=
KIWA NIL=
KLAS 101556Z 20006KT 10SM SCT250 08/M05 A3007=
KLAX 101553Z 00000KT 3SM BR SCT007 SCT160 BKN220 11/08 A3010=
KLGB 101553Z 00000KT 3SM BR CLR 08/07 A3010=
KLMT 101553Z 18005KT 10SM FEW050 02/M03 A3019=

0000013900
659
SARA35 RUMS 101600
METAR USCM 101600Z 17004MPS 3200 -SN VV008 M06/M07 Q1008 TEMPO 1000
SHSN VV003 19450345 RMK QFE719=

0000065400
660
SARS33 RUMS 101600
METAR ULLI 101600Z 00000MPS 4800 -SNRA BKN005 OVC018 01/01 Q0982
60////// 10620245 NOSIG RMK OBST OBSC=
METAR UUBW 101600Z 18005MPS 9999 -RA OVC010 03/01 Q0991 NOSIG=
METAR UUDD 101600Z 19006MPS 9999 -RA BKN007 OVC016 03/02 Q0991
64290195 14290194 NOSIG=
METAR UUDL 101600Z 14005MPS 4800 -RA BKN006 OVC013 01/00 Q0991 NOSIG
RMK QBB200 QFE735 23290255=
METAR UUEE 101600Z 18005MPS 8000 -RA OVC006 03/02 Q0989 75290151
25290151 NOSIG=
METAR UUWW 101600Z 19006MPS 9999 -RA OVC006 03/02 Q0990 19290045
NOSIG=
METAR UUMO 101600Z 20004MPS 9999 -RA OVC008 03/03 Q 990 NOSIG RMK
QFE728/0971 26250550=

0000067700
661
SARA32 RUMS 101600
METAR UHBB 101600Z 20001MPS CAVOK M34/M37 Q1021 NOSIG RMK QFE748/0998
36410160=
METAR UHHH 101600Z 25007MPS CAVOK M25/M31 Q1017 NOSIG RMK QFE756/1009
23090060=
METAR UHMA 101600Z 04014G19MPS 2700 -BLSN SCT080 M15/M19 Q1011 RMK
QFE755/1006=
METAR UHMD 101600Z NIL=
METAR UHMM 101600Z 03005G10MPS 9999 BKN200 M16/M27 Q1005 RMK QFE739=
METAR UHPP 101600Z 18004MPS 140V230 9999 BKN026CB M06/M10 Q0991 NOSIG
RMK QFE739/0986 SC035 037 037=
METAR UHSS 101600Z 02001MPS 3100 FU SCT030 M22/M24 Q1013 NOSIG RMK MT
OBSC QFE758/1011 19810366=
METAR UHWW 101600Z 00000MPS 9999 SKC M22/M25 Q1026 NOSIG RMK
QFE768/1025 25CLRD70=

0000013900
662
SAAE32 VTBB 101600
METAR VLLB 101600Z NIL=
METAR VLLN 101600Z NIL=
METAR VLPS 101600Z NIL=
METAR VLSK 101600Z NIL=

0000169800
663
SAUS74 KWBC 101600 RRA
METAR
KLVM 101553Z AUTO 25017KT 10SM BKN070 OVC080 01/M07 A2963=
KMFR 101553Z 00000KT 4SM BR OVC003 04/03 A3026=
KMLS 101553Z AUTO 23006KT 10SM CLR M04/M09 A2957=
KMRY 101554Z 09006KT 10SM CLR 07/03 A3026=
KMSO 101553Z 00000KT 10SM BKN055 OVC095 M01/M02 A2978=
KMYV 101553Z AUTO 00000KT 1 3/4SM BR CLR 03/03 A3028=
KNTD 101554Z 05004KT 7SM FEW008 SCT220 08/04 A3010=
KOAK 101553Z 00000KT 8SM FEW010 BKN250 07/04 A3028=
KOGD 101553Z VRB05KT 10SM OVC055 01/M05 A3000=
KOLM 101554Z 19007KT 6SM BR SCT005 BKN036 OVC050 07/06 A3010=
KONT 101553Z 00000KT 5SM HZ BKN250 10/06 A3010=
KOTH 101555Z 00000KT 9SM FEW015 OVC022 10/10 A3022=
KPAE 101553Z 19013KT 10SM OVC015 07/05 A3001=
KPDX 101553Z 20006KT 7SM -RA FEW025 BKN065 OVC080 09/06 A3017=
KPHX 101551Z 15004KT 10SM FEW250 09/M02 A3010=
KPIH 101553Z 23018KT 10SM BKN034 M01/M04 A2992=
KPMD 101553Z 00000KT 10SM CLR 03/M02 A3017=
KPRB 101553Z AUTO 01003KT 10SM CLR 01/M01 A3025=
KPRC 101553Z 21004KT 10SM CLR 01/M07 A3013=
KPSP 101553Z 32006KT 10SM CLR 11/M02 A3011=
KRBL 101554Z AUTO 35005KT 10SM CLR 03/01 A3029=
KRDD 101553Z 00000KT 7SM CLR M01/M01 A3028=
KRDM 101556Z 26015KT 10SM FEW090 06/M02 A3005=
KRNO 101555Z 16004KT 10SM SCT090 BKN120 BKN180 M02/M03 A3025=
KRNT 101553Z 16011G21KT 10SM OVC016 08/06 A3004=
KSAC 101553Z 00000KT 4SM BR CLR 03/02 A3028=
KSAN 101551Z 00000KT 6SM HZ FEW017 SCT250 12/08 A3010=
KSBA 101553Z 00000KT 10SM CLR 14/06 A3007=
KSBD 101551Z 00000KT 10SM SCT200 06/00 A3009=
KSBP 101556Z 00000KT 10SM CLR 09/03 A3019=
KSCK 101555Z 00000KT 7SM CLR 03/02 A3026=
KSEA 101553Z 19016G24KT 10SM BKN010 OVC016 08/06 A3004=

0000087200
664
SAUS74 KWBC 101600 RRB
METAR
KSFF 101553Z 00000KT 10SM FEW030 BKN060 03/00 A2983=
KSFO 101556Z 27006KT 10SM FEW005 BKN008 11/09 A3027=
KSHR 101553Z AUTO 32006KT 10SM SCT070 OVC095 M03/M07 A2961=
KSJC 101553Z 17003KT 10SM FEW160 SCT250 06/03 A3028=
KSLC 101553Z 13010KT 10SM FEW055 BKN070 BKN100 02/M05 A3002=
KSMF 101553Z 30005KT 1/4SM R16R/1000FT FG BKN001 BKN250 02/02
     A3028=
KSMX 101551Z 32010G16KT 10SM CLR 14/02 A3017=
KSNA 101553Z 00000KT 5SM BR BKN250 10/08 A3010=
KSNS 101553Z 11004KT 10SM CLR 06/03 A3026=
KTIW 101553Z 19013G19KT 10SM OVC009 07/06 A3006=
KTUS 101553Z 14003KT 10SM CLR 06/M05 A3013=
KTVL 101553Z AUTO 19003KT 10SM CLR M03/M06 A3027=
KTWF 101553Z 24014KT 10SM CLR 04/M03 A2999=
KUKI 101556Z AUTO 00000KT 10SM CLR 03/02 A3029=
KYKM 101553Z 30017G41KT 270V330 10SM CLR 12/M03 A2983=
KYUM NIL=

0000009500
665
SALI20 GLRB 101600
METAR GLRB 101600Z 22007KT 9999 SCT018 30/25 Q1008 NOSIG=

0000022700
666
SANZ31 NZKL 101600
METAR NZAA 101600Z AUTO 14003KT 9999 BKN042/// 15/12 Q1017 NOSIG=
METAR NZWN 101600Z AUTO 02004KT 9999 NCD 13/11 Q1016 NOSIG=
METAR NZCH 101600Z AUTO 00000KT 9999 NCD 09/08 Q1015 NOSIG=

0000014100
667
SACN62 CYKA 101600
METAR CYKA 101600Z 25006KT 20SM -SHGS BKN015 BKN062 OVC110 00/M02
 A2978 RMK SF5SC2AC1 PRESRR SLP100=

0000011900
668
SACN62 CYQK 101600
METAR CYQK 101600Z 17013KT 1 1/2SM -SN BR OVC002 M08/M09 A2952 RMK
 ST8 SLP023=

0000013100
669
SACN62 CYLL 101600
METAR CYLL 101600Z 25012KT 5/8SM BR SCT230 M09/M10 A2935 RMK CI4 RIME
 ON INDICATOR SLP985=

0000012000
670
SACN62 CYMX 101600 CCA
METAR CYMX 101600Z CCA 04003KT 8SM -SN OVC013 M12/M15 A3035 RMK ST8
 SLP286=

0000016500
671
SATH41 VTBB 101600
METAR VTPB 101600Z NIL=
METAR VTPM 101600Z NIL=
METAR VTSE 101600Z NIL=
METAR VTSK 101600Z NIL=
METAR VTUJ 101600Z NIL=

0000017000
672
SACN62 CYSB 101600
METAR CYSB 101600Z 17009KT 1/2SM R22/3500FT/N -FZDZ FZFG OVC001
 M06/M07 A3008 RMK FG6ST2 VIS VRB 3/8-5/8 ICE ON INDICATOR SLP210=

0000113000
673
SAUS75 KWBC 101600 RRA
METAR
PAOT 101553Z 01004KT 10SM CLR M18/M23 A2978=
PAPG 101555Z 31006KT 10SM -RA SCT011 BKN016 OVC040 02/01 A2956=
PASC 101553Z 24012KT 10SM SCT025 OVC031 M30/M33 A2988=
PASI 101553Z 10005KT 10SM FEW024 BKN033 OVC048 02/01 A2956=
PASN 101553Z 00000KT 10SM BKN021 M02/M02 A2916=
PATA 101552Z 00000KT 10SM CLR M29/M31 A2965=
PATC 101555Z AUTO 03020KT 10SM BKN100 M18/M20 A2972=
PATK 101553Z AUTO 00000KT 10SM OVC018 M06/M08 A2940=
PAUN 101556Z AUTO 08019KT 10SM CLR M13/M18 A2958=
PAVD 101556Z 00000KT 10SM FEW005 BKN060 BKN080 M04/M05 A2937=
PAYA 101553Z 13004KT 4SM BR OVC008 01/01 A2940=
PGRO NIL=
PGUA NIL=
PGUM 101554Z 06007KT 10SM FEW021 26/23 A2990=
PHJH NIL=
PHLI 101553Z 03012KT 10SM SCT022 BKN029 22/19 A3002=
PHMK 101554Z 06004KT 10SM -RA FEW022 SCT055 OVC090 21/19 A3000=
PHNL 101553Z 33004KT 10SM FEW030 20/17 A2998=
PHNY 101556Z AUTO 03014KT 10SM CLR 19/18 A3002=
PHOG 101554Z 03003KT 10SM FEW020 SCT026 SCT041 21/18 A2998=
PHTO 101553Z 24007KT 10SM CLR 17/13 A2997=
PMDY 101556Z AUTO 10016G23KT 10SM SCT041 19/12 A3022=
PWAK NIL=

0000012900
674
SACN62 CYXJ 101600
METAR CYXJ 101600Z 36007KT 15SM SCT075 BKN120 BKN200 M17/M20 A2939
 RMK AC3AC3CI1 SLP008=

0000009900
675
SACN62 CYXN 101600
METAR CYXN 101600Z 33007KT 15SM SKC M30/M34 A2959 RMK SLP021=

00000000