0000013900
736
SAFK41 EGYP 101550
METAR EGYP 101550Z 21027G40KT 9999 -SHRA FEW013 BKN017 07/01 Q0992
 WHT TEMPO 7000 SHRA SCT014 GRN=

0000009300
737
SAGR31 LGAT 101550 RRA
METAR LGAD 101550Z 00000KT 9999 SCT020 14/10 Q1021=

0000010800
738
SABZ24 SBPA 101600
METAR SBPA 101600Z 28005KT 9999 SCT048 FEW050TCU
SCT100 30/23 Q1009=

0000010800
739
SABZ21 SBSV 101600
METAR SBSV 101600Z 08011KT 9999 SCT017 FEW020TCU
BKN070 27/25 Q1013=

0000009800
740
SABZ20 SBEG 101600
METAR SBEG 101600Z 36008KT 9999 BKN017 BKN100 27/24
Q1011=

0000009800
741
SABZ20 SBTT 101600
METAR SBTT 101600Z 01004KT 9999 BKN014 BKN100 28/25
Q1012=

0000008900
742
SABZ22 SBBR 101600
METAR SBBR 101600Z 06010KT 9999 BKN040 28/14 Q1018=

0000008900
743
SABZ21 SBNT 101600
METAR SBNT 101600Z 11014KT 9999 BKN027 29/21 Q1012=

0000008900
744
SABZ24 SBCR 101600
METAR SBCR 101600Z 02008KT 9999 FEW025 32/22 Q1010=

0000009800
745
SABZ19 SBBE 101600
METAR SBBE 101600Z 03008KT 9999 BKN025 BKN100 29/20
Q1011=

0000009800
746
SABZ24 SBCT 101600
METAR SBCT 101600Z 36006KT 9999 FEW010 SCT020 30/12
Q1018=

0000009800
747
SABZ21 SBAR 101600
METAR SBAR 101600Z 08013KT 9999 SCT018 SCT100 29/21
Q1013=

0000009800
748
SABZ24 SBUG 101600
METAR SBUG 101600Z 32013KT 9999 BKN020 BKN083 34/22
Q1007=

0000060200
749
FTEG31 HECA 101600
TAF HEAX 101700Z 1018/1124 28010KT 9999 SCT020 TEMPO 1100/1106
                            VRB03KT 3000 BR NSC=
TAF HECA 101700Z 1018/1124 28007KT 9999 FEW025 TEMPO 1100/1107
                           VRB03KT 2000 BR NSC=
TAF HELX 101700Z 1018/1124 33008KT CAVOK=
TAF HESN 101700Z 1018/1124 35008KT CAVOK=
TAF HEBL 101700Z 1018/1124 36008KT CAVOK=
TAF HEAT 101700Z 1018/1124 35012KT 9999 FEW025=
TAF HESG 101700Z 1018/1124 34012KT 9999 FEW025=
TAF HETB 101700Z 1018/1124 33008KT 9999 FEW025 BKN100=
TAF HEMA 101700Z 1018/1124 35008G18KT CAVOK=

0000011400
750
SAPH41 RPLC 101600
METAR RPLC 101600Z
32003KT 9999 FEW042 SCT300 20/17 Q1018 A3005 RMK NOSIG=

0000009800
751
SPCN42 CWAO 101554
SPECI CYUA 101554Z AUTO 30025G32KT 3/8SM -SN CLR M25/ A2973=

0000008600
752
SAFI01 MBPV 101600
MBPV 101600Z 09010G22KT 9999 SCT012 28/22 Q1020=

0000012700
753
SAUK31 EGGY 101550 CCA
METAR COR EGLL 101550Z 21008KT 9999 VCSH FEW023 BKN042 09/06 Q1013
     TEMPO SHRA=

0000018200
754
FTUS80 KWBC 101554
TAF
TAF AMD KRDM 101546Z 1016/1112 26012KT P6SM SCT090 BKN130
     FM101800 20015G21KT P6SM OVC050
     FM102300 19010KT P6SM VCSH OVC050=

0000018200
755
FTUS54 KWBC 101554
TAF
TAF AMD KRDM 101546Z 1016/1112 26012KT P6SM SCT090 BKN130
     FM101800 20015G21KT P6SM OVC050
     FM102300 19010KT P6SM VCSH OVC050=

00000000