0000444000
889
SMRS12 RUMS 111200
AAXX 11121
22028 42581 71502 11160 21174 30139 40180 57004 81539 333 91003
93513=
22106 42998 00000 11344 21385 30119 40210 55001 333 93503=
22127 42998 33101 11300 21334 39960 40189 54001 83030 333 91002=
22324 41699 70306 11141 21190 30063 40116 54000 73631 84504 333 91011
91112=
22413 41998 50406 11122 21157 39968 40073 58003 73673 82032 333 91011
91112=
22525 41494 80607 11089 21107 39998 40011 54001 77573 8802/ 333 91013
91114=
22529 41961 80305 11124 21130 39983 49990 56002 77173 8802/ 333 91110
92982=
22621 41598 70102 11119 21154 39852 49998 52004 70283 86930 333
84922=
22717 41596 80204 11117 21144 39771 49972 52009 77173 8652/ 333
86620=
22727 41962 83504 11127 21162 39919 49969 52008 77173 8807/ 333 91110
92980=
22805 41598 83603 11066 21094 39960 49980 53012 70232 885// 333 91110
93702=
22831 41997 80103 11134 21169 39870 49933 52011 77172 8802/=
22892 42597 80103 11052 21093 39976 49992 52013 885// 333 88626
1/104=
22912 41967 83603 11109 21137 39935 49951 52013 77173 8802/ 91110=
22913 41996 83503 11104 21140 39925 49955 52024 77172 8802/=
22917 41498 83604 11071 21092 39943 49954 52017 77172 8872/ 333 88710
93710 91111=
22925 41466 73504 11104 21132 39794 49937 51023 77173 87700 333
86710=
26069 42497 83203 11055 21069 39870 49983 52023 889// 333 85915=
26872 NIL=
26078 42/// /3203 11053 21071 39921 49971 52027 333 91110=
26080 41499 83305 11050 21067 39924 49957 52025 70272 886// 333 88712
91010 91113=
26099 42/// /0000 11075 21086 39699 49920 52032=
26179 41497 83405 11040 21066 39939 49971 52027 70272 885// 333 88612
91112=
26268 42/// /2805 11014 21033 39909 49990 52032=
26275 41498 83205 11024 21050 39943 49973 52027 72272 8772/ 333 87713
91010 91112=
26285 41497 83205 11038 21056 39875 49955 52031 78583 889// 333 88916
91010 91112 92980=
26291 41497 83103 11046 21062 39821 49932 52038 78583 883// 333 86912
91110=
26378 42/// /2804 11006 21024 39889 49978 52029 333 91111=
26381 41496 83005 11032 21056 39886 49964 52032 78582 883// 333 86918
91112=
26389 41496 82904 11033 21052 39686 49952 52032 71082 886// 333
91111=
26393 41596 82905 11030 21039 39712 49921 52035 78582 889// 333 91010
91112=
26477 41597 82805 10011 21018 39858 49985 52027 70282 889// 333
91113=
26479 41446 83106 11009 21012 39743 49974 52029 77172 8872/ 333 88710
91010 91112=
26499 41497 82908 11012 21037 39694 49922 52033 78587 889// 333 91014
91115=
26578 41465 82606 10015 21006 39790 49993 52026 78582 889// 333 88916
91011 91114=
26585 41599 73106 11004 21014 39689 49961 52028 70272 87500 333 91013
91114=
26695 41497 82906 10005 21011 39650 49951 52028 70276 8662/ 333 86710
91114=
26784 41496 72806 10015 20006 39750 49999 53026 78082 86930 333 83914
91010 91114=
26795 41565 72705 10013 21002 39680 49970 52026 72187 87500 333
91115=
26882 41470 72809 10019 20001 39725 49999 53025 70276 87800 333 87619
91014 91117=
27108 42/// /3104 11018 21034 39713 49893 53033 333 91010 91111=
27164 41956 80000 10001 20001 39677 49861 54001 77172 8802/=
27176 41440 81404 11008 21008 39691 49886 57009 77172 885//=
27215 41596 83004 10005 20003 39664 49867 52023 78082 889// 333
88921=
27223 41460 82703 10006 20005 39702 49846 52008 76185 8802/ 333
88512=
27316 42464 82803 10019 20017 39697 49865 53016 886//=
27321 41550 82302 10018 20016 39711 49859 53011 75165 886//=
27347 41460 82101 10016 20012 39711 49864 57002 70262 8655/ 333
86610=
27417 41496 82604 10002 21008 39692 49894 53027 77176 8872/ 333
91110=
27507 41256 82805 10004 21007 39697 49934 52030 77176 8872/ 333 88705
91112=
27511 41497 82905 10009 21009 39702 49895 53026 70282 883// 333 91010
91110=
27523 41496 82402 10022 20011 39715 49877 53010 76062 8872/=
27539 41498 82202 10020 20010 39715 49880 53005 70262 8752/=
27606 41497 82706 10013 21009 39684 49924 52029 60002 72276 8772/ 333
91012 91112=
27611 41496 82904 10006 21000 39677 49908 53028 78582 889// 333
91112=
27627 41496 82804 10014 20007 39636 49903 53015 78082 889//=
27703 NIL=
27745 42498 81902 10013 20013 39760 49900 53002 886// 333 88710=
27821 41340 82603 10010 20006 39642 49921 53018 77162 8672/=
27823 41499 82503 10013 20005 39663 49917 53011 70262 8272/=
27921 41997 82706 10018 20006 39682 49948 53018 72162 8802/ 333 91011
91111=
0000062500
890
UDEU02 EGRR 111221 RRA
AMDAR 1111
LVR EU9622   3751N 00910W 111114 F370 MS593 336/050 TB/ S031=
LVR EU9622   3659N 00934W 111121 F370 MS623 337/056 TB/ S031=
LVR EU9622   3608N 00957W 111128 F370 MS615 330/057 TB/ S031=
LVR EU9622   3524N 01033W 111135 F370 MS618 329/054 TB/ S031=
LVR EU9622   3441N 01112W 111142 F370 MS618 328/059 TB/ S031=
LVR EU9622   3359N 01149W 111149 F370 MS618 314/053 TB/ S031=
LVR EU9622   3318N 01225W 111156 F370 MS613 303/054 TB/ S031=
LVR EU9622   3156N 01334W 111210 F370 MS600 296/048 TB/ S031=
LVR EU9622   3115N 01408W 111217 F370 MS585 290/048 TB/ S031=
0000190500
891
UDEU02 EGRR 111221 RRB
AMDAR 1111
ASC EU7013   5045N 00153W 111157 F009 PS047 328/010 TB/ S031=
ASC EU7013   5045N 00152W 111157 F019 PS027 326/019 TB/ S031=
ASC EU7013   5046N 00151W 111157 F027 PS030 322/020 TB/ S031=
ASC EU7013   5046N 00150W 111157 F032 PS022 312/019 TB/ S031=
ASC EU7013   5046N 00149W 111157 F036 PS017 312/020 TB/ S031=
ASC EU7013   5046N 00148W 111157 F037 PS010 307/020 TB/ S031=
ASC EU7013   5046N 00147W 111157 F038 PS007 306/021 TB/ S031=
ASC EU7013   5047N 00146W 111157 F047 PS000 305/023 TB/ S031=
ASC EU7013   5047N 00145W 111157 F058 MS027 296/023 TB/ S031=
ASC EU7013   5047N 00144W 111157 F079 MS027 300/033 TB/ S031=
ASC EU7013   5048N 00138W 111158 F096 MS065 301/036 TB/ S031=
ASC EU7013   5048N 00133W 111158 F100 MS077 303/038 TB/ S031=
ASC EU7013   5048N 00127W 111158 F100 MS077 303/039 TB/ S031=
ASC EU7013   5048N 00122W 111159 F102 MS082 304/042 TB/ S031=
ASC EU7013   5047N 00116W 111159 F112 MS107 313/044 TB/ S031=
ASC EU7013   5045N 00110W 111159 F120 MS120 308/044 TB/ S031=
ASC EU7013   5044N 00103W 111200 F120 MS122 309/045 TB/ S031=
ASC EU7013   5042N 00057W 111200 F120 MS122 309/045 TB/ S031=
ASC EU7013   5041N 00051W 111200 F123 MS125 305/044 TB/ S031=
ASC EU7013   5039N 00044W 111201 F140 MS152 296/045 TB/ S031=
ASC EU7013   5038N 00038W 111201 F162 MS205 284/054 TB/ S031=
ASC EU7013   5037N 00031W 111201 F169 MS227 286/059 TB/ S031=
ASC EU7013   5035N 00024W 111202 F185 MS262 293/059 TB/ S031=
ASC EU7013   5034N 00016W 111202 F198 MS295 292/064 TB/ S031=
ASC EU7013   5032N 00009W 111202 F211 MS330 294/066 TB/ S031=
ASC EU7013   5030N 00002W 111203 F224 MS367 299/064 TB/ S031=
ASC EU7013   5026N 00003E 111203 F237 MS402 296/061 TB/ S031=
ASC EU7013   5021N 00008E 111203 F251 MS430 292/053 TB/ S031=
ASC EU7013   5018N 00013E 111204 F275 MS485 267/054 TB/ S031=
0000068900
892
UDEU02 EGRR 111221 RRC
AMDAR 1112
DES EU2689   5058N 00044W 111202 F127 MS140 298/047 TB/ S031=
DES EU2689   5100N 00029W 111203 F117 MS115 315/053 TB/ S031=
DES EU2689   5058N 00006W 111206 F098 MS077 296/046 TB/ S031=
UNS EU2689   5103N 00006W 111209 F081 MS050 303/039 TB/ S031=
UNS EU2689   5104N 00006W 111209 F080 MS047 301/038 TB/ S031=
DES EU2689   5108N 00007E 111211 F063 MS047 289/032 TB/ S031=
DES EU2689   5114N 00013E 111213 F047 MS022 288/029 TB/ S031=
DES EU2689   5116N 00005E 111216 F034 MS002 306/020 TB/ S031=
DES EU2689   5116N 00005E 111216 F032 MS002 310/022 TB/ S031=
DES EU2689   5115N 00001W 111217 F017 PS030 311/020 TB/ S031=
0000037700
893
SMVD15 KWNB 111200 RRL
BBXX
44064 11121 99370 70760 46/// /1405 10109 40134 91210 333 91206
555 11055 22060=
44062 11121 99386 70764 46/// /1805 10058 40126 91210 333 91206
555 11059 22064=
44063 11121 99390 70764 46/// /1301 10023 40109 91210 333 91203
555 11016 22018=
44041 11121 99372 70768 46/// /1504 10129 91210 333 91205 555
11049 22053=
0000009800
894
SAME31 OLBA 111200 RRA
METAR OLBA 111200Z 25005KT 220V280 8000 FEW026 17/06 Q1024=
0000005100
895
SMBZ05 SBBR 111200
AAXX 11124
NIL
0000005100
896
SMBZ01 SBBR 111200
AAXX 11124
NIL
0000005500
897
SMBZ06 SBBR 111200 RRA
AAXX 11123
NIL
0000035600
898
SMAG01 SABM 111200 RRA
AAXX 11123
87007 32970 00502 10112 20028 36748 47150 52017 333 10166 20050=
87178 31570 80702 10280 20221 39968 40109 52016 71792 8592/ 333
10312 20251 56559 57952 84620 88545 81950=
87270 01265 81813 10214 20200 30078 40139 53020 60374 72196 8377/
333 10280 20200 32018 56579 60371 83706 88358 96260 96495=
0000005100
899
SMBZ02 SBBR 111200
AAXX 11124
NIL
0000005100
900
SMBZ03 SBBR 111200
AAXX 11124
NIL
0000005100
901
SMBZ04 SBBR 111200
AAXX 11124
NIL
0000173800
902
SMAG01 SABM 111200
AAXX 11124
87022 32960 00203 10264 20212 39567 40058 52024 333 10304 20228=
87046 32665 61406 10251 20200 39098 48499 52032 82578 333
10294 20220 56199 82640 83360=
87047 32568 73602 10230 20165 38781 48503 51031 82575 333 10253
20199 30/// 56266 82630 85360=
87097 12970 70509 10272 20201 39814 40118 50015 60024 80007 333
10278 20225 56009 87275=
87121 01218 81406 10225 20212 39617 40115 52031 79592 8792/
333 10311 20223 56449 57930 60031 86705 83945 88550=
87129 NIL=
87148 01620 81814 10205 20202 30028 40134 52065 60044 79592 8292/
333 10305 20205 32020 56459 57900 60041 82940 88545 91140 91520=
87155 01525 82007 10197 20194 30076 40136 52043 60214 79592 8392/
333 10305 20196 56579 57900 60211 82625 88540 82956=
87162 32570 82020 10293 20234 30033 40099 52013 82879 333 10314
20256 31017 56850 82620 82540 88460=
87166 01358 81416 10198 20185 30061 40132 51037 60064 79596 8292/ 333 10311 20188 56579 57900 60061 81708 88540 81945=
87217 01640 82310 10212 20206 39671 40150 52/// 60124 76166 887//
333 10310 20180 60122 56699 88735=
87222 01460 81802 10208 20196 39634 40141 52056 60384 72196 886//
333 10349 20205 56499 60321 88715=
87257 11470 81104 10238 20220 30049 40150 52035 60474 70292 8672/
333 10302 20206 32020 56569 82715 84635 86550=
87289 01356 80710 10214 20192 30038 40120 54000 60494 79599 8292/
333 10241 20200 56569 57990 60351 82708 88535 81945=
87311 32970 61608 10232 20104 39494 40158 52028 86070 333 10304
20218 56070 86360=
87320 01670 70000 10228 20206 39640 40154 52037 60014 70292 87500
333 10327 20218 56300 69961 87640=
87328 12980 00902 10225 20116 39514 40141 52021 69984 333 10285 20151 30014 95000=
0000170800
903
SMBZ06 SBBR 111200
AAXX 11124
82022 32970 50611 10256 20182 30044 40141 82031 333 20228 58007=
82193 22470 60603 10261 20232 30112 40132 82130 333 20234 58000
 60034=
82281 32570 50715 10289 20193 30060 40122 85200 333 20252 59003=
82332 22470 70503 10234 20217 30050 40144 83531 333 20218 58018
 60304=
82398 32570 41116 10295 20169 30072 40127 84100 333 20260 59004=
82400 32470 21012 10287 20203 30075 40142 82200 333 20241 59002=
82579 21470 70000 10274 20230 30050 40127 70362 85530 333 20238
 59001 60014=
82917 42270 70603 1//// 2//// 39904 4//// 84630 333 20000 58012=
82965 21262 80106 10231 20222 39811 40141 7606/ 8267/ 333 20220
 58007 60024=
82993 32570 21905 10283 20194 30012 40148 82100 333 20207 59003=
83208 22470 43506 10224 20204 39448 48540 82530 333 20207 58012
 69994=
83349 21558 71108 10284 20228 30163 40169 71562 86231 333 20226
 58011 60214=
83362 22970 33403 10269 20209 39915 40131 83030 333 20225 58006
 69924=
83378 32570 60708 10246 20155 38983 48550 82130 333 20201 58011=
83460 32470 31108 10266 20227 30113 40172 83000 333 20218 58011=
83497 NIL=
83566 32570 50810 10251 20164 39251 48570 85100 333 20196 58016=
83599 NIL=
83612 NIL=
83649 22570 53609 10303 20223 30168 40173 51011 83104 333 20229
 60044=
83650 NIL=
83780 22970 03305 10277 20171 39260 48560 53014 333 20224 69964=
83827 32970 00605 10289 20228 39850 40122 50016 333 20241=
83840 22370 50304 10225 20204 39144 48550 52015 85520 333 20179
 60054=
83899 22970 23209 10256 20214 30125 40131 50020 82030 333 20217
 60094=
83925 NIL=
83970 NIL=
83971 22970 63203 10250 20216 30122 40126 53013 82031 333 20199
 60034=
0000135500
904
SMAK01 KWBC 111200 RRA
AAXX 11124
70133 32966 0//04 11211 21261 30041 40045 56020 91153 333 21217
4/013 555 91112=
70174 32966 2//03 11378 39782 40049 58012 91153 333 21389 4/061
555 91112=
70200 32966 00417 11128 21211 30005 40009 58008 91153 333 21139
555 91112=
70219 32666 80212 11156 21167 39867 49924 58017 91153 333 21161
555 91112=
70231 32966 02603 11272 21300 39858 49993 56014 91153 333 21272
555 91112=
70261 32166 20000 11339 21372 39834 40019 58005 91153 333 21344
555 91112=
70267 35161 80000 11217 21233 39508 40017 58006 91153 333 21217
70003 555 91112=
70271 17558 83303 11133 21156 39328 49926 56011 69901 710// 91153
333 21139 70013 555 91112=
70273 32266 80000 11067 21072 39858 49917 58010 91153 333 21067
555 91112=
70316 12566 61807 10039 20022 39766 49800 56026 69981 91153 333
20017 70010 555 91112=
70326 32966 00104 11106 21112 39890 49902 58025 91154 555 91112=
70340 35966 03609 11100 21100 39867 49929 58018 91153 333 21100
555 91112=
70350 32966 00000 11067 21083 39871 49913 56019 91153 333 21067
555 91112=
70361 12232 80000 11011 21011 39860 49871 56017 60011 91153 333
21017 555 91112=
70381 31466 80403 11006 21017 39855 49864 56015 91153 333 21017
70005 555 91112=
70414 35466 83215 10000 21006 39765 49800 51006 91156 333 21006
555 91112=
0000145900
905
SMIN90 VECC 111200
AAXX 11124
42807 31995 03602 10226 20156 40150 70500
  333 10263 58004=
43333 31495 70905 10272 20231 40129 70511 84401
  333 10302 56109 58013 83616 83818 85070=
42812 32996 00000 10216 20156 40150
  333 10260 58005=
42299 21396 70000 10064 20035 38205 48518 70252 86630
  333 10081 58008 6990/ 82709 85617=
42901 32996 11101 10222 20177 40145 80001
  333 10265 58004=
42806 32996 00000 10240 20183 40150
  333 10270 58002=
42399 21595 60000 10154 20136 40164 70560 83530
  333 10164 58021 6002/=
42811 32696 20000 10234 20180 40151 81430
  333 10282 58003=
42503 31593 80000 10168 20136 40163 74444 8652/
  333 10180 58010=
42711 32994 23201 10212 20159 40162
  333 10248 58005=
42603 32595 61801 10178 20124 40172 84431
  333 10228 58007=
42709 32895 01804 10160 20130 40158
  333 10238 59004=
42810 32596 10000 10230 20165 40151 81200
  333 10245 58000=
42217 31595 40000 10102 20066 38770 48581 70522 84400
  333 10122 58015=
42706 31995 20702 10190 20130 40152 70500 80001
  333 10250 58016 82075=
42403 21595 53205 10154 20129 40165 70562 84550
  333 10203 58015 6996/=
42708 31896 83606 10194 20114 40165 70521 8807/
  333 10241 56059 58014=
42704 31595 50208 10182 20129 40168 70500 82530
  333 10248 58014=
00110 31995 09901 10214 20144 40161 70500
  333 10258 58008=
00109 31995 29902 10208 20129 40152 70500 80001
  333 10263 58008=
0000013600
906
SMVS40 VNNN 111200
AAXX 11121
48846 32798 80701 10191 20174 30193 40196 52017 885// 333 01019 10214 58002 70000 88697=
0000026000
907
UGCN02 CWAO 111200
PPBB  61128 71811 90012 36001 25010 24012 90346 24513 26525
27530 90789 25527 25535 26037 91246 26043 25548 26056 918//
27058 92059 28066 28578 29096 93056 29101 28636 28652 938//
29115 942// 28590 9501/ 28088 28089=

0000031000
908
USCN03 CWAO 111200
TTAA  61121 71913 99001 23525 28004 00036 24942 31504 92607
22356 16003 85237 16758 19008 70692 19123 22012 50513 34749
21026 40665 46943 21026 30851 56145 23026 25966 60161 24529
20104 60967 27539 15282 63772 29047 10529 66372 29060 88230
62362 26024 77103 28564=

00000000