0000010200
256
SANL33 EHDB 101625 RRC
METAR EHSA 101625Z AUTO 23020G23KT 9999 09/07 Q1015 W09/H14=

0000039800
257
SAAL31 DAAA 101630
METAR DAAG 101630Z 17006KT CAVOK 19/06 Q1016=
METAR DAAT 101630Z 18007KT CAVOK 20/M05 Q1021=
METAR DABB 101630Z 03003KT CAVOK 16/12 Q1017=
METAR DABC 101630Z 23003KT CAVOK 12/02 Q1019=
METAR DAON 101630Z 18005KT 9999 SCT026 BKN100 20/03 Q1014=
METAR DAOO 101630Z 36004KT CAVOK 18/07 Q1014=
METAR DAUH 101630Z 00000KT 9999 FEW040 SCT100 19/09 Q1020=

0000027200
258
SAIE32 EIDB 101630
METAR EICM 101630Z NIL=
METAR EIDL 101630Z NIL=
METAR EIKY 101620Z VRB02KT 9999 SCT022 BKN030 06/05 Q1009=
METAR EIME 101630Z NIL=
METAR EISG 101630Z NIL=
METAR EIWF 101630Z 28005KT 9999 FEW023 SCT025 07/06 Q1008 R21/1/////=

0000009500
259
SAUS75 KWBC 101600 RRE
METAR
PHLI 101632Z 04013KT 10SM FEW021 22/19 A3002=

0000098200
260
FTMX62 MMMX 101637
TAF MMAS 101637Z 1018/1118 22015G25KT P6SM SCT025 
         TEMPO 1021/1101 BKN025 
         FM110500 00000KT P6SM SCT010 
         FM111500 25015KT P6SM SCT030=
TAF MMEP 101637Z 1018/1118 28015KT P6SM SCT020 SCT100 
         BECMG 1101/1102 00000KT 
         FM111500 26010KT P6SM SKC=
TAF MMIA 101637Z 1018/1118 10010KT P6SM SCT035 
         BECMG 1102/1103 00000KT 
         FM111600 14010KT P6SM SKC=
TAF MMLO 101637Z 1018/1118 15010KT P6SM SCT030 SCT090 
         TEMPO 1020/1024 BKN030 
         BECMG 1101/1102 00000KT 
         FM111500 14010KT P6SM SCT010=
TAF MMPN 101637Z 1018/1118 16012KT P6SM BKN040 
         FM102100 17015KT P6SM VC SH SCT020CB BKN060 
         FM110400 00000KT 5SM HZ SCT015 
         FM111500 00000KT 5SM HZ SCT025=
TAF MMQT 101637Z 1018/1118 08010KT P6SM SCT025 
         TEMPO 1021/1101 BKN020 
         BECMG 1103/1104 00000KT 
         FM111500 15010KT 5SM HZ SKC=

0000050400
261
SAMS31 WMKK 101630
METAR WBGG 101630Z 24004KT 9999 SCT020 BKN150 23/23 Q1013 NOSIG=
METAR WBKK 101630Z 10003KT 9999 FEW014 SCT140 BKN270 24/23 Q1011
NOSIG=
METAR WBSB 101630Z 09002KT 9999 FEW015 BKN300 24/24 Q1012 NOSIG=
METAR WMKK 101630Z 33002KT 9999 FEW030 SCT140 BKN280 25/24 Q1012
NOSIG=
METAR WMKP 101630Z 00000KT 8000 -RA FEW010 SCT024 OVC260 25/25 Q1013
NOSIG=
METAR WSSL 101630Z NIL=
METAR WSSS 101630Z 36004KT 320V050 9999 FEW018 BKN140 25/24 Q1012
NOSIG=

0000007700
262
FCIY33 LIIB 101400 AAA
TAF AMD LIMW 101636Z 1015/1024 CNL=

0000019300
263
SAIO31 KWBC 101600 RRF
METAR
FMCZ 101630Z NIL=
FMEE 101630Z 11009KT 9999 FEW026 BKN300 27/23 Q1015 NOSIG=
VYMD 101630Z NIL=
VYYY 101630Z 02002KT 7000 NSC 24/19 Q1015=

0000019700
264
FTMO31 ZMUB 101638
TAF ZMUB 101638Z 1018/1124 VRB02MPS 4000 FU SCT100
    BECMG 1022/1024 3000
    TEMPO 1100/1105 1600 BR
    BECMG 1106/1108 4000 TNM33/1023Z TXM22/1106Z=

0000011300
265
SPUS41 KWBC 101637
SPECI
KDOV 101633Z AUTO 10004KT 2 1/2SM -RA BR BKN014 OVC042 02/02 A3040=

0000010200
266
SPUS41 KWBC 101637
SPECI
KWRI 101633Z AUTO 11002KT 3SM -RA BR OVC019 00/00 A3040=

0000011500
267
FTCN33 CWAO 101600
TAF CYDA 101638Z 1017/1024 VRB03KT P6SM BKN100
    RMK NXT FCST BY 101800Z=

0000015000
268
FTCN33 CWAO 101600
TAF CYRA 101638Z 1017/1101 VRB02KT 3SM -SN OVC040 TEMPO 1017/1101
     P6SM -SN
    RMK NXT FCST BY 101900Z=

0000016000
269
FTCN33 CWAO 101600
TAF CZFA 101638Z 1017/1023 27010KT P6SM SCT040 BKN070 TEMPO 1017/1020
     4SM -SN BKN040
    RMK NXT FCST BY 101800Z=

0000021900
270
FTCN32 CWAO 101600
TAF CYDL 101638Z 1017/1103 VRB03KT P6SM FEW010 BKN120 PROB30
     1017/1020 1SM BR BKN010
    FM110100 VRB03KT P6SM FEW060
    RMK FCST BASED ON AUTO OBS. NXT FCST BY 101800Z=

0000015700
271
FTCN33 CWAO 101600
TAF CYLK 101638Z 1017/1101 08006KT P6SM -SN OVC030 TEMPO 1017/1101
     2SM -SN OVC008
    RMK NXT FCST BY 101900Z=

0000012000
272
FTCN33 CWAO 101600
TAF CYHI 101638Z 1017/1101 FCST NOT AVBL DUE NO OBS
    RMK NXT FCST BY 101900Z=

0000033500
273
FTCN31 CWAO 101600
TAF CYAZ 101638Z 1017/1101 30007KT P6SM FEW007 SCT040 OVC160
    FM101800 27005KT P6SM SCT020 BKN040 OVC060 TEMPO 1018/1022 P6SM
     -SHRA BKN020
    FM102200 13012KT 6SM -RA BR OVC025 TEMPO 1022/1101 2SM -RA BR
     OVC010
     BECMG 1023/1101 13015G25KT
    RMK NXT FCST BY 101800Z=

0000008700
274
SAIE32 EIDB 101630 RRA
METAR EIDL 101630Z 29009KT CAVOK 06/02 Q1008=

0000009300
275
SAIE32 EIDB 101600 RRB
METAR EIDL 101600Z 31013KT 9999 FEW041 06/02 Q1007=

00000000