0000012000
876
SPCN44 CWAO 101653
SPECI CYZU 101653Z 28006KT 3SM -SHSN BKN035 BKN070 OVC250 RMK
SC5AC2CI0 VIS E 2=

0000061000
877
SANO38 ENMI 101650
METAR ENDR 101650Z AUTO 06031KT M03/M08 Q1001=
METAR ENEK 101650Z 24022KT 9999 FEW015 BKN140 07/06 Q1005 W08/S4=
METAR ENGC 101650Z 05015KT 9999 SCT020 BKN030 06/01 Q0999 W07/S4=
METAR ENHE 101650Z 08029KT 9999 BKN030 M02/M11 Q1002 W///S6=
METAR ENOA 101650Z 04007KT 350V090 9999 BKN022 06/04 Q0998 W///S4=
METAR ENSL 101650Z 25019KT 9999 FEW018 BKN140 08/04 Q1001 W06/S4=
METAR ENFB 101650Z AUTO 05016KT 9999NDV BKN024/// OVC053/// 06/02
           Q0999 W///S5=
METAR ENSF 101650Z AUTO 05016KT 9999NDV FEW021/// OVC027/// 06/01
           Q0999 W///S5=

0000028000
878
SADL33 EDZO 101650
METAR EDFE 101650Z NIL=
METAR EDFH 101650Z 23006KT 200V260 9999 FEW025 SCT250 04/02 Q1017=
METAR EDFM 101650Z 13002KT CAVOK 06/03 Q1019=
METAR EDLV 101650Z 21005KT CAVOK 06/03 Q1016=
METAR EDVK 101650Z 20005KT 9999 FEW041 04/00 Q1016=

0000035500
879
SADL35 EDZO 101650
METAR EDHI 101650Z 24013KT 9999 SCT023 BKN050 07/04 Q1012=
METAR EDJA 101650Z 19003KT CAVOK 02/01 Q1019=
METAR EDMO 101650Z 24006KT 9999 SCT022 02/00 Q1019=
METAR EDOP 101650Z 25016KT 9999 FEW020 BKN030 06/04 Q1011=
METAR EDTL 101650Z 12003KT CAVOK 06/04 Q1019=
METAR EDTY 101650Z 22004KT CAVOK 05/00 Q1019=

0000069400
880
SADL34 EDZO 101650
METAR EDAC 101650Z 23009KT CAVOK 05/M00 Q1016=
METAR EDBC 101650Z 24009KT CAVOK 03/01 Q1015=
METAR EDGS 101650Z 22006KT 9999 SCT009 BKN035 03/02 Q1016=
METAR EDHL 101650Z 26011KT 9999 SCT018CB SCT042 06/04 Q1011=
METAR EDLN 101650Z 22006KT 180V260 CAVOK 06/04 Q1017=
METAR EDLP 101650Z 23009KT 9999 FEW033 03/M01 Q1016=
METAR EDLW 101650Z 23012KT CAVOK 06/02 Q1016=
METAR EDMA 101650Z 23004KT 9999 SCT040 03/00 Q1020=
METAR EDNY 101650Z VRB02KT 9999 FEW063 BKN072 04/03 Q1020=
METAR EDQM 101650Z 23007KT 9999 FEW018 BKN043 03/M00 Q1017=
METAR EDRZ 101650Z 23005KT CAVOK 04/01 Q1019=
METAR EDSB 101650Z 14004KT 9999 SCT045 04/01 Q1019=

0000010000
881
SACS31 MROC 101700
METAR
MRPV 101700Z 07017G27KT 9999 FEW045 24/14 A3004 NOSIG=

0000045300
882
SANO37 ENMI 101650
METAR ENNO 101650Z NIL=
METAR ENOV 101650Z VRB03KT 9999 VCSH FEW012 SCT032 00/M02 Q0998 RMK
           WIND 2175FT 36005KT=
METAR ENSD 101650Z NIL=
METAR ENSG 101650Z 22005KT 6000 -SHSN FEW/// SCT010 BKN020 M00/M01
           Q0994 RMK WIND 4226FT 29028KT=
METAR ENSN 101650Z NIL=
METAR ENSR 101650Z NIL=
METAR ENSS 101650Z 11012KT 8000 VCSH FEW025 M05/M06 Q1015 RMK WIND
           500FT 09012KT=

0000010800
883
SABZ20 SBTT 101700
METAR SBTT 101700Z 27005KT 9999 BKN014 FEW025TCU
BKN100 29/24 Q1011=

0000022400
884
FTCN33 CWAO 101600 AAA
TAF AMD CYTE 101654Z 1016/1101 28015KT P6SM SCT012 TEMPO 1016/1019
     5SM -SN BLSN BKN009
    FM101900 27010KT P6SM SCT020 TEMPO 1019/1020 BKN020
    RMK NXT FCST BY 101900Z=

0000007700
885
FTOS33 LOWM 101100 AAC
TAF AMD LOIH 101655Z 1012/1024 CNL=

0000044500
886
SANO36 ENMI 101650
METAR ENBS 101650Z VRB03KT 6000 -SHSN FEW012 SCT035 M09/M14 Q1014 =
METAR ENHK 101650Z NIL=
METAR ENHV 101650Z 22003KT 200V270 9999 FEW027 SCT039 M05/M08 Q1016=
METAR ENLK 101650Z 05012KT 9999 SCT045 M06/M15 Q1013=
METAR ENMH 101650Z 18008KT 1200 SHSN VV004 M08/M09 Q1016=
METAR ENNK 101650Z 03014KT 360V080 9999 FEW040 M08/M14 Q1014=
METAR ENNM 101650Z 06015KT 9999 FEW040 BKN090 M08/M14 Q1003=

0000067900
887
SANO33 ENMI 101650
METAR ENAT 101650Z 14004KT 9999 -SN FEW004 OVC006 M13/M14 Q1018 RMK
           WIND 700FT 18007KT=
METAR ENBL 101650Z NIL=
METAR ENEV 101650Z 07015KT 9999 FEW044 M07/M15 Q1014 RMK WIND 1400FT
           08023G33KT=
METAR ENFL 101650Z 34008KT 9999 FEW015 SCT055 02/M00 Q0998 =
METAR ENKB 101650Z 04005KT 9999 SCT014 BKN017 M03/M06 Q0999=
METAR ENKR 101650Z 17006KT 3500 IC BR VV002 M20/M22 Q1015 SEASMOKE
           NORTH OF THE FIELD RMK WIND 775FT VRB01KT=
METAR ENML 101650Z 04004KT 9999 FEW025 BKN060 M01/M05 Q0999=
METAR ENNA 101650Z VRB02KT 9999 VCFG BKN007 BKN009 M14/M16 Q1018 RMK
           WIND 1800FT 34004KT=

0000008700
888
SAUK35 EGGY 101650 RRA
METAR EGLF 101650Z 21009KT CAVOK 08/06 Q1013=

0000079300
889
SAIY31 LIIB 101650
METAR LIEA 101650Z 01003KT CAVOK 11/10 Q1020=
METAR LIEE 101650Z 17006KT CAVOK 13/12 Q1019=
METAR LIEO 101650Z 08003KT CAVOK 11/09 Q1020=
METAR LIMC 101650Z 00000KT 9999 BKN040 11/05 Q1019 NOSIG=
METAR LIME 101650Z 12007KT 3000 BR BKN040 09/08 Q1020=
METAR LIMF 101650Z 00000KT 8000 BKN030 09/05 Q1019=
METAR LIMJ 101650Z 15007KT 9999 SCT020 BKN045 14/10 Q1020=
METAR LIML 101650Z 18003KT 150V210 9999 BKN035 09/07 Q1019 NOSIG=
METAR LIRA 101645Z 00000KT 8000 SCT030 BKN080 11/08 Q1021=
METAR LIRF 101650Z 05003KT 9999 BKN030 12/09 Q1021 NOSIG=
METAR LIRN 101650Z 33004KT 280V350 5000 BR BKN030 13/08 Q1021=
METAR LIRP 101645Z 18003KT 9999 FEW025 SCT040 11/09 Q1020 NOSIG=
METAR LIRQ 101650Z 06003KT 9999 FEW018 BKN030 12/11 Q1020=

0000074300
890
SAIY32 LIIB 101650
METAR LIBD 101650Z VRB02KT 8000 NSC 11/11 Q1021=
METAR LIBR 101645Z 23003KT 9999 FEW020 12/11 Q1020 NOSIG=
METAR LICC 101650Z NIL=
METAR LICJ 101650Z 06007KT CAVOK 14/11 Q1020=
METAR LIPB 101650Z VRB02KT 9999 BKN120 06/04 Q1020=
METAR LIPE 101650Z 09006KT 0800 R12/0800V1200U FG SCT002 07/07
Q1020=
METAR LIPH 101645Z /////KT 1900 MIFG BKN015 SCT050 06/05 Q1020=
METAR LIPK 101650Z VRB02KT 3000 BR BKN035 09/06 Q1020=
METAR LIPQ 101650Z 00000KT 3000 BR SCT007 BKN015 09/06 Q1020=
METAR LIPR 101645Z /////KT 8000 BKN050 10/08 Q1019=
METAR LIPX 101645Z 11003KT 1000 R04/P1500N BR FEW005 SCT010 BKN045
      08/06 Q1021=
METAR LIPZ 101650Z VRB02KT 2000 BR SCT010 SCT045 08/05 Q1020=

0000015000
891
FTCZ43 LKMW 101700
TAF LKKB 101700Z 1018/1118 23010KT 9999 SCT040 TEMPO 1105/1108
5000 BR TEMPO 1114/1118 7000 -RA BKN025 OVC040=

0000062800
892
FTCZ43 LKMW 101700
TAF LKCV 101700Z 1018/1118 25010KT CAVOK BECMG 1105/1107 VRB02KT
 BECMG
         1115/1117 24008KT 9999 BKN030 TEMPO 1116/1118 7000 RA
         BKN020=
TAF LKKB NIL=
TAF LKNA 101700Z 1018/1118 27010KT 9999 SCT042 TEMPO 1100/1104 3000
         BR NSC PROB30 TEMPO 1104/1107 0600 FZFG VV001
         BECMG 1109/1111 7000 SCT038=
TAF LKPD 101700Z 1018/1118 27012KT CAVOK TEMPO 1018/1024 SCT045 BECMG
         1103/1105 VRB02KT TEMPO 1104/1106 5000 MIFG BR PROB30
         TEMPO 1104/1106 1500 MIFG BR BECMG 1113/1115 27010KT BECMG
         1115/1117 SCT035 BKN080 BKN150=

0000008700
893
SAIY32 LIIB 101650 RRA
METAR LICC 101650Z 27006KT CAVOK 13/09 Q1020=

0000074400
894
SANO39 ENMI 101650
METAR ENNE 101650Z 09025KT 2700 -SHSNSG BKN012 M04/M05 Q1005 W01/S/=
METAR ENQR 101650Z AUTO 05012KT 9999NDV SCT020/// BKN060/// 06/00
           Q0999 W///S/=
METAR ENSE 101650Z AUTO 05017KT 9999NDV FEW024/// BKN056/// 05/00
           Q0999 W///S5=
METAR ENQC 101650Z AUTO 04009KT 9999NDV BKN020/// 06/02 Q0998
           W///S4=
METAR ENQA 101650Z AUTO 04006KT 9999NDV BKN021/// BKN024/// OVC039///
           05/02 Q0999 W05/S4=
METAR ENHM 101650Z 26018KT 9999 FEW014 SCT019 06/05 Q0999 W08/S4=
METAR ENVH 101650Z AUTO 25025KT 9999NDV FEW014/// BKN140/// 07/05
           Q1005 W///S4=
METAR ENLA 101650Z AUTO 25023KT 9999NDV BKN016/// BKN140/// 07/05
           Q1003 W///S4=

0000058600
895
SANO32 ENMI 101650
METAR ENAL 101650Z 05016KT 9999 FEW033 SCT045 00/M03 Q0999=
METAR ENCN 101650Z VRB01KT 9999 FEW020 01/00 Q1001=
METAR ENHD 101650Z 25011KT 9999 FEW010CB SCT014 BKN160 06/05 Q0999=
METAR ENRO 101650Z 09010KT 9000 -SN BKN006 M12/M14 Q0995=
METAR ENRY 101650Z 18005KT 110V220 9999 SCT015 00/M01 Q0999=
METAR ENSB 101650Z 22011KT 9999 FEW020 BKN025 M01/M05 Q1006 RMK WIND
           1400FT 22015KT=
METAR ENTC 101650Z 05002KT CAVOK M11/M13 Q1016 NOSIG RMK WIND 2600FT
           10013KT=
METAR ENTO 101650Z 22006KT CAVOK 00/M01 Q0998=

00000000