0000015100
436
SAUS72 KWBC 101600 RRF
METAR
KBQK 101635Z AUTO 12008KT 10SM OVC011 21/20 A3020=
KLRU 101635Z AUTO 29009KT 10SM CLR 09/M10 A3008=

0000010600
437
SAUS73 KWBC 101600 RRG
METAR
KIKK 101635Z AUTO 14009KT 2 1/2SM BR OVC006 01/00 A3001=

0000029900
438
FTAU34 YBBN 101600 AAB
TAF AMD YBHM 101642Z 1016/1106
10021KT 9999 -SHRA SCT014 BKN025
FM102200 11018KT 9999 -SHRA SCT018 BKN025
FM110000 09021KT 9999 -SHRA SCT020 BKN025
INTER 1016/1106 2000 SHRA BKN010
PROB30 TEMPO 1103/1106 VRB20G30KT 2000 TSRA BKN010 SCT030CB
RMK=

0000061000
439
FTLY31 HLMC 101700
TAF HLLT 101700Z 1018/1118 VRB02KT CAVOK BECMG 1110/1112 20010KT
BECMG 1116/1118 VRB02KT=
TAF HLLM 101700Z 1018/1118 VRB02KT 8KM NSC BECMG 1110/1112 06010KT
BECMG 1116/1118 VRB02KT=
TAF HLMS 101700Z 1018/1118 VRB02KT CAVOK BECMG 1108/1110 20010KT
BECMG 1116/1118 VRB02KT =
TAF HLLB 101700Z 1018/1118 VRB02KT 9999 SCT020 BECMG 1110/1112
25010KT BECMG 1116/1118 VRB02KT=
TAF HLLS 101700Z 1018/1118 VRB02KT CAVOK BECMG 1108/1110 12015KT
BECMG 1116/1118 VRB02KT =
TAF HLKF 101700Z 1018/1118 VRB02KT CAVOK BECMG 1108/1110 06010KT
BECMG 1116/1118 VRB02KT =

0000023300
440
FTLY31 HLMC 101600 RRA
TAF HLLT 101700Z 1018/1118 VRB02KT CAVOK BECMG 1110/1112 20010KT
BECMG 1116/1118 VRB02KT=
TAF HLLB 101700Z 1018/1118 VRB02KT 9999 SCT020 BECMG 1110/1112
25010KT BECMG 1116/1118 VRB02KT=

0000009800
441
SPCN51 CWAO 101640
SPECI CZST 101640Z 21005KT 8SM -RA BKN012 OVC045 RMK SC6SC2=

0000009100
442
FTPA31 KWBC 101642
TAF
TAF PLCH 101641Z 1018/1118 14010KT 9999 SCT020=

0000069600
443
FTPA32 KWBC 101642
TAF
TAF NCRG 101639Z 1018/1118 VRB03KT 9999 -SHRA SCT015 SCT045
      BECMG 1021/1023 05012KT
      BECMG 1104/1106 VRB03KT=
TAF NFFN 101639Z 1018/1118 16005KT 9999 FEW030
      BECMG 1022/1024 17015KT
      BECMG 1104/1106 17005KT=
TAF NFNA 101640Z 1018/1118 17008KT 9999 BKN020=
TAF NGTA 101640Z 1018/1118 06010KT 9999 -SHRA BKN015 OVC100
      TEMPO 1018/1112 5000 SHRA BKN015 BKN040=
TAF NIUE 101641Z 1018/1118 01012KT 9999 -SHRA SCT018 SCT045 BKN100
      TEMPO 1018/1112 36015G25KT 5000 SHRA SCT009 BKN015=
TAF NSFA 101640Z 1018/1118 35015KT 9999 -SHRA FEW010 SCT035
      TEMPO 1018/1118 35015G30KT 4000 TSRA BKN015 FEW017CB=

0000036900
444
FTUS52 KWBC 101642 AAA
TAF AMD
KBCB 101640Z 1017/1112 00000KT 1SM -RA BR SCT002 OVC005
     FM110100 12003KT 6SM -RA BR OVC005 WS016/20043KT
     FM110800 00000KT 4SM BR OVC003 WS010/20042KT=
KBHB 101640Z 1017/1112 22009KT P6SM BKN028 OVC090
     FM110100 25009KT P6SM BKN110
     FM110500 18005KT P6SM BKN020 AMD LTD TO CLD VIS AND WIND=

0000036900
445
FTUS80 KWBC 101642 AAA
TAF AMD
KBCB 101640Z 1017/1112 00000KT 1SM -RA BR SCT002 OVC005
     FM110100 12003KT 6SM -RA BR OVC005 WS016/20043KT
     FM110800 00000KT 4SM BR OVC003 WS010/20042KT=
KBHB 101640Z 1017/1112 22009KT P6SM BKN028 OVC090
     FM110100 25009KT P6SM BKN110
     FM110500 18005KT P6SM BKN020 AMD LTD TO CLD VIS AND WIND=

0000178800
446
SPUS70 KWBC 101642
SPECI
KAEX 101638Z 13013KT 3SM BR OVC002 13/13 A3001 RMK AO2 PRESFR=
KAGS 101638Z 34008KT 3SM RA BR OVC002 09/08 A3024 RMK AO2
     P0004=
KBRL 101638Z AUTO 15011KT 1 1/2SM BR OVC003 01/01 A2982 RMK AO2
     T00110006=
KCDW 101638Z 00000KT 4SM HZ OVC014 M02/M04 A3044 RMK AO2=
KCEU 101638Z AUTO 04004KT 1 3/4SM -RA BR BKN003 OVC010 09/07 A3028
     RMK AO2 P0002=
KCSM 101638Z 26013KT 9SM CLR 07/05 A2976 RMK AO2=
KFSM 101638Z 03007KT 2SM -RA BR BKN004 OVC025 06/05 A2983 RMK AO2
     RAB1558E10B30 P0000=
KGON 101638Z 01004KT 2 1/2SM UP BR OVC028 01/M01 A3044 RMK AO2
     UPB07 P0000=
KHIE 101638Z AUTO 00000KT 2SM -SN SCT034 BKN045 OVC060 M08/ A3033
     RMK AO2 P0000 T1083 $=
KLNR 101638Z AUTO 12006KT 2 1/2SM BR OVC006 M01/M02 A2988 RMK AO2
     T10111022=
KMIE 101638Z 18008KT 6SM BR BKN028 OVC033 03/02 A3010 RMK AO2
     T00330017=
KRKP 101638Z AUTO 17005KT 2 1/2SM -RA FEW004 BKN014 OVC050 28/19
     A2995 RMK AO2 VIS 1 1/4V5 P0002=
KSLK 101637Z AUTO 23007KT 1/2SM SN FZFG BKN021 BKN030 OVC037
     M04/M06 A3022 RMK AO2 P0001=
PABA 101636Z AUTO 28021KT 1SM -SN BR M25/M27 A2986 RMK AO2 PK WND
     28028/1618 SNB1548 FZRANO $=
KHPN 101639Z 00000KT 2SM BR FEW006 OVC014 M01/M02 A3041 RMK AO2
     SNE35 P0001=
KINT 101639Z 01005KT 3SM -RA BR OVC003 02/01 A3035 RMK AO2
     P0003=
KSGF 101639Z 15016KT 1 3/4SM +RA BR SCT003 OVC007 05/04 A2977 RMK
     AO2 LTG DSNT SE AND S RAB13 P0005 T00500044=
KSRC 101639Z AUTO 15007KT 10SM BKN030 BKN037 OVC070 08/08 A2998
     RMK AO2 TSNO BKN V SCT RAE12 P0000=
KSUX 101639Z 15010KT 3SM BR OVC007 M01/M01 A2967 RMK AO2 CIG
     004V010 I1000 T10061011=
KTXK 101639Z 19010G18KT 7SM OVC005 13/12 A2990 RMK AO2 CIG
     003V008=

0000010100
447
SPUS41 KWBC 101642
SPECI
KGON 101638Z 01004KT 2 1/2SM UP BR OVC028 01/M01 A3044=

0000010200
448
SPUS41 KWBC 101642
SPECI
KWRI 101639Z AUTO 11003KT 3SM -RA BR OVC012 00/00 A3039=

0000010600
449
SPUS41 KWBC 101642
SPECI
KPVD 101638Z 00000KT 2 1/2SM BR BKN025 OVC048 M02/M04 A3045=

0000167700
450
SPUS70 KWBC 101638
SPECI
KAKR 101634Z AUTO 18009KT 5SM BR OVC004 03/02 A3021 RMK AO2
     TSNO=
KBPK 101634Z AUTO 17007KT 2 1/2SM BR SCT003 OVC007 07/07 A2988 RMK
     AO2 LTG DSNT NW CIG 006V011=
KSGF 101634Z 16016KT 3/4SM +RA BR VV002 05/04 A2978 RMK AO2 LTG
     DSNT SE AND S AND NW RAB13 P0003 T00500044=
KTOP 101634Z 08003KT 1/2SM FG VV006 03/02 A2967 RMK AO2
     T00280017=
KMVL 101634Z AUTO 00000KT 1 3/4SM -SN BKN032 BKN042 OVC070 M09/M12
     A3035 RMK AO2 SNB23 P0000=
KALO 101634Z AUTO 14009KT 1 1/4SM R12/5500VP6000FT BR OVC005
     M01/M02 A2978 RMK AO2 FZRAE1559 P0000 I1002 T10111017
     TSNO=
KSTL 101635Z 17013G21KT 2SM R30R/5000VP6000FT -RA BKN009 OVC070
     04/01 A2991 RMK AO2 RAB25 P0000=
PAGN 101635Z AUTO 00000KT 10SM FEW004 SCT020 BKN034 A2955 RMK AO2
     TSNO BKN V SCT RAE18 P0000 $=
KBOK 101635Z AUTO VRB03KT 1/4SM FG OVC002 09/09 A3026 RMK AO2
     $=
KDAW 101635Z AUTO 18004KT 3SM -SN BR FEW031 OVC046 M06/M08 A3041
     RMK AO2 P0000 T10611083=
KFRG 101635Z 00000KT 3SM -FZRA BR FEW020 BKN025 OVC045 00/M01
     A3045 RMK AO2 UPB25E29FZRAE25B29 P0000=
KHFD 101635Z 00000KT 1 3/4SM -SN BR OVC022 M02/M04 A3045 RMK AO2
     SNB28 P0000 T10171039=
KJXN 101635Z 16007KT 1/2SM FG OVC002 01/00 A3009 RMK AO2
     T00060000=
KLWM 101635Z 21006KT 10SM SCT010 BKN022 OVC049 M02/M06 A3046 RMK
     AO2 T10221061=
KMDH 101636Z AUTO 18011KT 10SM OVC008 06/04 A3000 RMK AO2
     T00610039=
KRSL 101636Z AUTO 27006KT 1SM BR OVC002 01/01 A2963 RMK AO2
     T00110006=
PAGN 101635Z AUTO 00000KT 10SM FEW004 SCT020 BKN034 A2955 RMK AO2
     TSNO BKN V SCT RAE18 P0000 $=

0000009800
451
SPUS41 KWBC 101638
SPECI
KAKR 101634Z AUTO 18009KT 5SM BR OVC004 03/02 A3021=

0000009800
452
SPUS43 KWBC 101638
SPECI
KSGF 101634Z 16016KT 3/4SM +RA BR VV002 05/04 A2978=

0000009500
453
SABZ42 KWBC 101600 RRB
METAR
SBST 101600Z 13006KT 9999 SCT024 32/25 Q1011=

0000047400
454
SAJP31 KWBC 101630 RRA
METAR
RJAA 101630Z VRB02KT 9999 FEW025 M04/M08 Q1022 NOSIG=
RJAA 101630Z VRB02KT 9999 FEW025 M04/M08 Q1022 NOSIG RMK 1CU025
     A3021=
RJCC 101630Z 22007KT 9999 -SHSN FEW050 SCT070 M10/M13 Q1017=
RJCC 101630Z 22007KT 9999 -SHSN FEW050 SCT070 M10/M13 Q1017 RMK
     1CU050 3AC070 A3003=
RJTT 101630Z VRB03KT 9999 FEW040 03/M08 Q1022 NOSIG=
RJTT 101630Z VRB03KT 9999 FEW040 03/M08 Q1022 NOSIG RMK 1SC040
     A3020=

0000040300
455
FTCA33 KWBC 101639
TAF
TAF TGPY 101630Z 1018/1118 11015KT 9999 SCT018 SCT035
      BECMG 1100/1102 08010KT SCT020 PROB40
      TEMPO 1104/1118 6000 SHRA SCT017
      BECMG 1110/1112 11014KT FEW020=
TGPY 101630Z 1018/1118 11015KT 9999 SCT018 SCT035
      BECMG 1100/1102 08010KT SCT020 PROB40
      TEMPO 1104/1118 6000 SHRA SCT017
      BECMG 1110/1112 11014KT FEW020=

00000000