0000009300
716
SPCN51 CWAO 101613
SPECI CZCP 101613Z AUTO 28020KT 5SM -SN CLR M27/ A2934=

0000009300
717
SAIE32 EIDB 101600 RRA
METAR EISG 101600Z VRB01KT 9999 FEW039 06/03 Q1007=

0000024500
718
WHIY60 LIIB 111200
FM: CNMCA
TO: MARISTAT /MARICOGECAP
-GALE WARNING ISSUED AT 1200/UTC ON JANUARY 11
NO WARNINGS ON ITALIAN SEAS.
-AVVISO DI BURRASCA EMESSO ALLE 1200/UTC DEL 11 GENNAIO
NESSUN AVVISO SUI MARI ITALIANI.
0000083600
719
SAUR31 UKMS 111200
METAR UKLR 111200Z 28009MPS 9999 SCT026 BKN100 05/00
         Q1014 NOSIG=
METAR UKLI 111200Z 26008MPS 220V300 CAVOK 07/M04
         Q1018  28090070 NOSIG=
METAR UKON 111200Z 29009MPS 260V320 CAVOK 09/M02
         Q1016 NOSIG=
METAR UKCM 111200Z 24009MPS 9999 BKN026 06/01 Q1012
         19190062 NOSIG=
METAR UKCW 111200Z 25012MPS 9999 SCT030CB BKN040
         05/02  Q1007 2719//65 BECMG 25012G20MPS=
METAR UKLU 111200Z 10004MPS 9999 BKN016 03/01 Q1020
         10090070 NOSIG=
METAR UKKK 111200Z 27007MPS 9999 FEW015 BKN033 05/03
         Q1010  26290250 NOSIG=
METAR UKKM 111200Z 30008MPS 3200 -SHRA SCT017CB
         BKN030 04/02  Q1010 33210250 TEMPO 28012G17MPS=
METAR UKKE NIL=
METAR UKLN 111200Z 33003MPS 270V010 CAVOK 07/M03
         Q1018 3309//70 NOSIG=
0000034200
720
USRE03 FMEE 111200
TTAA 61111 61998 99003 08256 23023 00053 07656 23023 92686 01834
25524 85364 01162 25034 70901 05773 23049 50549 15756 23588 40714
26744 23591 30916 38365 23629 25040 445// 23672 20185 539// 23159
15369 545// 23608 10627 573// 22573 88163 569// 23622 88122 579//
23090 77257 23673 31313 47708 81113=
0000174600
721
SMNL21 EHDB 111200
AAXX 11121
06201 47574 33111 10073 20020 30067 40120 51019 70365 8////
333 83/21 91013 91114 91212=
06203 47568 5//08 10083 20029 30098 40149 51036 72386 8////
333 82/21 83/26 85/71 91010 91117 91213=
06204 47572 43010 10076 20022 30081 40132 51027 70165 8////
333 81/20 84/72 91013 91118 91214=
06205 47575 12911 10067 20016 30029 40088 50016 70100 8////
333 81/24 91013 91114 91212=
06208 47380 73011 10072 20031 30051 40100 53010 75186 8////
333 81/08 84/28 85/33 91013 91120 91215=
06211 47575 12812 10071 20021 30070 40126 51025 70286 8////
333 81/23 91015 91118 91213=
06212 47470 63113 10078 20027 3//// 4//// 5//// 72386 8////
333 81/19 83/22 86/59 91015 91120 91215=
06235 17576 63105 10066 20039 30125 40125 51022 60061 72386 8////
333 81/29 83/35 85/47 91009 91116 91211=
06240 17471 82910 10072 20052 30141 40136 53011 60021 72385 8////
333 85/13 87/15 88/18 91013 91113 91210=
06251 13/79 /3006 10065 20038 30110 40111 51025 60061
333 91009 91119 91213=
06258 46/// /2807
333 91009 91117 91214=
06269 17356 82406 10066 20059 30129 40123 56002 69981 75186 8////
333 82/09 84/10 85/13 91008 91112 91209=
06280 17358 82906 10062 20044 30108 40112 53001 60031 75885 8////
333 81/07 83/25 87/28 91010 91112 91209=
06310 17574 52908 10087 20048 30154 40164 53016 69911 70181 8////
333 81/22 84/33 85/80 91011 91114 91212=
06344 17477 62908 10077 20046 30154 40147 53012 69911 70185 8////
333 82/18 83/21 85/39 91014 91114 91209=
06370 17450 82407 10062 20049 30127 40153 51001 69971 78151 8////
333 82/11 86/13 88/16 91010 91110 91207=
06380 17478 82306 10084 20056 30023 40164 51001 60001 70300 8////
333 81/14 88/42 91009 91111 91208=
0000011100
722
UANT99 KDDL 111209
ARP BER7008 5005N02225W 1209 F350 MS57 193/87 KT
DALPB QXT AOE 111209 J22A
0000011000
723
UANT99 KDDL 111209
ARP FWI540 4901N01557W 1209 F320 MS56 230/66 KT
FHPTP QXT AOE 111209 J14A
0000011100
724
UANT01 CWAO 111210
ARP DAL419 5101N01941W 1210 F320 MS57 205/85 KT
N830MH QXT AOE 111210 F98A
0000013000
725
SMRO47 YRBK 110000 RRB
AAXX 11001
15296 03/// ///// 10013 21019 39521 42829 5//// 60001 333 4//// 55002
60007=
0000049200
726
SMLV10 UMRR 111200
AAXX 11121
26313 43/// /2203 10020 20011 30001 40008 57019=
26346 41397 83004 11005 21010 39772 40017 52017 72682 889// 333
86708 91111 93700=
26406 41462 82407 10053 20037 30032 40038 57006 70282 886// 333
88713 91010 91110=
26422 41460 /1803 10016 21000 30017 40030 58005 7617/=
26424 41566 82204 10026 20009 39980 40033 57013 70282 885// 333
88620=
26544 41563 72804 10007 21021 39893 40047 52016 72682 87300 333
84922 91112=
26416 NIL=
0000264100
727
SMCO01 SKBO 111200
AAXX 11121
80001 12470 40906 10270 20226 30129 40130 69944 81236 333 20255 30/// 50540 55092 5622/ 58004 70004 81818 83070=
80002 01470 40603 10266 20234 69904 7025/ 82121  333 20266 30/// 5///0 55082 56290 69902 70000 82817 =
80009 31960 10000 10222 20193 30108 40113 7050/ 80001  333 20222 30/// 50660 55085 56//0 58018 81070=
80022 31965 09901 10228 20216 30106 40108 70500  333 20228 30/// 50420 55100 58011 =
80028 31960 00702 10237 20222 30087 40122 70500  333 20232 30/// 5///0 55/// 58014=
80035 32/70 01104 10237 20210 30149 40154  333 20229 30/// 50240 55097 58013=
80036 31968 00505 10226 20197 7050/  333 20223 30/// 50990 55100 =
80063 31405 20000 10224 20221 7441/ 82670333 20210 30/// 5600/ 82712555 18020 3266/=
80084 31350 73602 10244 20241 7122/ 84530333 20230 30/// 55009 5649/ 84608 83359555 18000 3300/=
80084 31350 73602 10244 20241 7122/ 84530333 20230 30/// 55009 5649/ 84608 83359555 18000 3300/=
80091 31468 30000 10236 202224 7050/ 81830333 20232 30/// 50510 55088 569// 81615555 18000 3271/=
80094 31462 13401 10186 20173 38820 7050/ 81531 333 20177 30/// 50470 55100 56999 58015 81612=
80097 NIL=
80099 32968 00000 10202 20183 39934 40079 80001  333 20192 30/// 50640 55104 56//9 58004 81070 =
80110 01556 70000 10185 20167 38500 60094 7502/ 83570 333 20176 31/// 55034 5600/ 58007 60092 83625 85358=
80112 01450 80000 10140 20135 37909 69944 72052 8247/  333 20137 31/// 55024 56009 58011 69927 82610 88357 =
80139 32970 10307 10230 20198 30063 40099 80001 333 20219 30/// 50860 55089 58010 81070=
80144 31/05 90000 10238 20238 7474/ 89///  333 20230 30/// 50370 55077 56999 =
80149 NIL=
80210 31463 50702 10190 20168 38671 70522 82530  333 20178 30/// 50250 55027 5617/ 58001 82616 83357 =
80211 11570 50000 10180 20165 7052/ 84570333 20176 30/// 50410 55038 5682/ 84620 83360555 18010 20006 3185/=
80214 31460 63401 10204 20200 7052/ 81670 333 20203 30/// 50230 55025 5677/ 81615 86457=
80222 31460 50302 10096 20083 37521 70522 82835  333 20096 30/// 55037 56799 58002 82817=
80234 NIL=
80259 01130 80000 10214 20203 39067 60144 75155 8362/ 333 20200 31/// 50180 55020 5664/ 58007 83608 88458=
80315 01459 70000 10238 20224 39603 40104 69944 7152/ 82670 333 5622/ 58006 69941 82710 87361=
80342 01420 80000 10153 20151 38225 60534 7616/ 884// 333 20153 32/// 5RRR0 55008 564// 58012 60522 88610=
80370 02467 70000 10098 20095 37174 60054 83770 333 20090 31/// 50080 55001 5643/ 69942 83710 84457=
80398 11258 80501 10245 20238 30039 40135 60074 71522 8677/ 333 20239 30/// 50350 55032 5689/ 58018 82704 84610 86358=
0000080600
728
SMBO02 SLLP 111200
AAXX 11124
85041 12270 70000 10245 20235 39844 40111 52014 69924 81630
333 20225 30/// 55035 56770 59001 70002 81705 87358=
85140 32270 83404 10235 20221 39898 40105 52018 8752/
333 20225 31/// 55/// 56309 58010 87706 88458=
85141 11103 80000 10230 20227 39872 40101 53025 69944 75143 887//
333 20200 31/// 55020 56799 58007 70004 88702=
85151 NIL=
85152 32470 73503 10240 20225 39874 40098 52011 87500
333 20243 30/// 55055 56700 58004 87615=
85201 12156 59902 10068 20047 36307 52015 69924 84602
333 20030 30002 55084 56200 58013 70002 81703 83613 85070=
85230 NIL=
85242 32470 10808 10114 20043 36554 52007 81100
333 20052 30/// 56100 58009 81815=
85332 32970 10408 10113 20008 36588 52021 80001
333 20023 30/// 55113 56000 58006 81070=
0000005700
729
USBD01 WBSB 111200
TTAA  61121 96315 NIL=
0000009500
730
SAIQ01 ORBI 111200
METAR ORBI 111200Z VRB02KT 2600 BR BKN030 11/08 Q1017 NOSIG=
0000016500
731
SMFA01 EKMI 111200
AAXX 11124
06011 07556 72927 10035 20002 39940 40008 52029 60101 78186
  333 55300 20018 60057 81/22 85/30 87/37 91046 91146 =
0000013600
732
SMSV01 FDMS 111200
AAXX 11124
68386 36/// /1302 10285 20196 39731 48672 57011
      333 10285 20203 91006 555 91027=
0000003800
733
UETH01 VTBB 111200
NIL
0000003800
734
UKTH01 VTBB 111200
NIL
0000003800
735
ULTH01 VTBB 111200
NIL
00000000