0000046200
236
SMKY10 UAFF 111200
AAXX 11121
38353 42998 20501 10000 21110 39356 40279 53016 82030=
38613 42999 03301 10000 21081 39352 40278 57014 555 1/101=
38616 42999 00000 10008 21053 39232 40270 57015=
38345 42999 02301 10002 21078 38823 48512 57006 555 14103=
36911 42999 00702 11014 21070 39290 40282 53030 555 1/114=
36974 429// 20801 11159 21219 38021 48600 57012 80001 555
17121=
36982 42999 83203 11203 21261 36543 47209 53003 8805/=
0000014000
237
SMSC01 FSIA 111200
AAXX 11124
63980 41482 72502 10254 20244 40106 78098 84932
  333 58011 81709 81914 84816 943// 911//=
0000014500
238
SMGO01 FOOL 111200
AAXX 11124
64501 32460 71808 10280 20244 30119 40129 878//
  333 0//00 58009 83810 87630 94919 95839=
?=
0000010000
239
SAIQ01 ORBI 111200
METAR ORNI 111200Z 25010KT 2500 DZ OVC025 10/10 Q1016 TEMPO 1500=
0000011100
240
UANT99 KDDL 111208
ARP BER7402 5001N01856W 1208 F360 MS65 214/91 KT
DABXA QXT AOE 111208 J06A
0000014600
241
SMGO01 FOOL 111200
AAXX 11124
64500 31460 62008 10290 20248 30102 40116  70196 86900
333 0//00 58004 83810 81920 86640 94942 =
0000012600
242
SMAA01 KWBC 111200
AAXX 11121
89061 36/66 /0902 10010 21032 39974 49981 57016 333 10010 21018
91004 91106=
0000084700
243
SMKO01 RKSL 111200
AAXX 11124
47101 12668 42302 11007 21117 30199 40298 50001 69902 84500 333
10032 34104=
47105 369// /2907 10011 21167 30243 40276 56003 333 10048 3/101=
47108 32665 62904 10000 21155 30192 40302 54000 86500 333 10024
34000=
47115 12670 62508 10009 21076 39992 40272 57007 69902 82501 333
10032 3/000 49031 92043=
47133 11657 60000 11015 21058 30221 40310 56001 69902 70522 85500
333 10035 34102=
47138 32964 42504 10018 21088 30289 40292 58002 80001 333 10057
30101 92022=
47159 32963 23604 10019 21090 30208 40296 58003 80001 333 10062
31000 92022=
47165 32965 33402 10005 21043 30265 40314 51001 80001 333 10053
31000 92021=
47168 32968 03408 10024 21080 30214 40296 58003 333 10066 31000
92023=
47184 32668 51803 10047 21024 30282 40308 56003 85500 333 10075
31003 92021=
0000270500
244
SMMX01 KWBC 111200
AAXX 11121
76405 32940 00502 10176 20130 30144 40166 52002 91150 333 10238
20162 30158 58025 79999=
76471 32960 00000 10052 20005 37709 40172 5//// 91155 333 10180
20038 31012 55096 58038 70000=
76491 32556 32301 10130 20128 39782 40172 5//// 83100 91150 333
10272 20122 30/// 55091 56900 58027 70000 81830=
76499 31/02 93201 10150 20150 30119 40141 5//// 72844 91150 333
10295 20148 30144 58015 70000=
76543 31670 62301 10176 20173 30131 40164 53/// 7054/ 86500 91145
333 10289 20174 30/// 56300 59004 70000 86650=
76634 31970 01501 10086 20064 37861 40182 52008 70500 91150 333
10239 20084 30066 58017 79999=
76647 32870 20701 10218 20218 30135 40165 52010 82030 91150 333
10307 20216 30210 560/0 59004 79999 92358=
76662 32660 51101 10110 20089 38475 40160 52003 85400 91144 333
10260 20108 30102 56/00 58019 70000 85633=
76680 31562 03201 10097 20082 37764 40111 52007 70000 91150 333
10210 20080 30080 58021 70000=
76695 32956 00000 10188 20185 30138 40144 52007 91150 333 10322
20186 30180 59004 70000=
76698 32558 20000 10212 20208 30145 40158 5//// 82200 91150 333
10308 20208 30198 56200 58000 70023 82820=
76762 32504 23401 10130 20109 38767 40151 54003 82200 91150 333
10278 20125 30096 56300 58012 70000 82810=
76773 32940 00000 10104 20083 38429 40133 52005 91148 333 10298
20091 30082 50451 55100 59001 70000=
76843 32965 00000 10181 20159 39493 40136 52014 91145 333 10309
20175 30163 59001 70000=
76845 31/05 90000 10086 20083 37957 40193 51007 74544 89/// 91150
333 10225 20075 30070 58010 70000 89///=
76751 06/// /0901 10214 20213 30137 40149 53006 60001 7//// 8////
91150 333 0//// 10307 20209 30/// 4//// 50339 54/// 55072 56///
57/// 59009 60007 70004 8//// 8//// 8//// 9/=
76848 32950 02901 10120 20094 38385 40120 50003 91150 333 10243
20113 30076 58007 70000 96722=
76061 32970 00904 10100 20004 30136 40213 5//// 91140 333 10200
20090 30086 55089 58031 70000=
76305 32970 03402 10163 20011 30165 40173 54000 91150 333 10230
20145 30130 58027 70000=
76393 31920 02601 10132 20065 39583 40160 52012 70400 91150 333
10278 20130 03126 58045 70000 91102 91401=
76423 32960 30000 10018 21024 38173 40198 52002 80005 91155 333
10220 20016 30/// 56009 58036 70000 83070=
76571 32710 30000 10076 20028 38183 40210 55006 83400 90550 333
10228 20054 30030 56500 83650=
76612 01860 71001 10107 20095 38487 40193 5//// 69901 72421=
76625 32760 31402 10121 20072 38151 40139 5//// 83030 91140 333
10228 20117 30097 56060 58019 79999 83357=
76644 32350 21101 10211 20205 30138 40151 5//// 82500 91150 333
10322 20207 30190 55067 20807 563// 59006 70000 82620=
0000015100
245
SSVB11 RJTD 111200
ZZYY 21706 11014 1200/ 136818 168910
11109 0//// 1//// 2//// 30101 40101 5////
22209 00151 10908 20090 21039=

0000015100
246
SSVB12 RJTD 111200
ZZYY 21708 11014 1200/ 135434 154088
11109 0//// 1//// 2//// 30202 40202 5////
22209 00144 10909 20091 21046=

0000013800
247
WSRS31 RUSP 111123
ULLL SIGMET 2 VALID 111125/111500 ULLI-
ULLL SAINT-PETERSBURG FIR SEV ICE OBS S OF N6100 BLW FL30 NC=
0000015100
248
SSVB09 RJTD 111200
ZZYY 21709 11014 1200/ 127543 142165
11109 0//// 1//// 2//// 30259 40259 5////
22209 00217 10904 20085 21020=

0000140900
249
UDAS02 BABJ 111200
AMDAR 1112
ASC CNFPQK 3816N 11442E 111157 F002 PS003 350/010 TB/ S//1=
ASC CNFPQK 3816N 11443E 111157 F006 PS015 344/012 TB/ S//1=
ASC CNFPQK 3815N 11443E 111157 F012 PS031 294/007 TB/ S//1=
ASC CNFPQK 3815N 11443E 111158 F014 PS030 283/009 TB/ S//1=
LVR CNFOZL 2710N 11334E 111156 F246 MS206 250/097 TB/ S//1=
LVR CNFOZL 2716N 11334E 111157 F246 MS205 249/097 TB/ S//1=
LVR CNFOZL 2717N 11334E 111157 F246 MS208 249/097 TB/ S//1=
LVR CNFOZL 2724N 11334E 111158 F246 MS210 250/098 TB/ S//1=
LVR CNFPYN 3404N 11233E 111156 F187 MS218 265/022 TB/ S//1=
LVR CNFPYN 3404N 11236E 111156 F187 MS220 270/024 TB/ S//1=
DES CNFPYN 3406N 11244E 111157 F177 MS198 277/026 TB/ S//1=
DES CNFPYN 3410N 11251E 111158 F153 MS151 277/027 TB/ S//1=
LVR CNFPYL 2956N 11716E 111155 F236 MS235 260/079 TB/ S//1=
LVR CNFPYL 3003N 11716E 111156 F236 MS240 259/078 TB/ S//1=
LVR CNFPYL 3010N 11717E 111157 F236 MS250 260/074 TB/ S//1=
LVR CNFPYL 3016N 11717E 111158 F236 MS255 261/075 TB/ S//1=
DES CNFPXL 3839N 12136E 111149 F068 MS121 290/026 TB/ S//1=
DES CNFPXL 3850N 12143E 111152 F035 MS055 255/021 TB/ S//1=
DES CNFPXL 3857N 12143E 111155 F019 MS020 247/022 TB/ S//1=
DES CNFPXL 3858N 12135E 111158 F001 PS003 238/011 TB/ S//1=
ASC CNFPQK 3814N 11443E 111158 F017 PS023 313/010 TB/ S//1=
ASC CNFPQK 3813N 11441E 111158 F028 PS006 346/008 TB/ S//1=
0000014400
250
SMGO01 FOOL 111200
AAXX 11124
64501 32460 71808 10280 20244 30119 40129 878//
  333 0//00 58009 83810 87630 94919 95839=
?
0000090000
251
SMNL50 EHDB 111200
AAXX 11121
06206 46/// /2912 10079 20036 30065 40118 51025
333 91015 91115 91213
555 51115 51212=
06207 47463 73013 10077 20046 30053 40107 51028 72365 8////
333 82/12 85/14 86/18 91016 91117 91214
555 51117 51214=
06239 47575 62912 10071 20029 30029 40091 51020 70165 8////
333 81/24 84/50 86/64 91014 91114 91212
555 51114 51212=
06252 46/// /2811 10077 20031 30093 40139 51029 222// 00096 10604
333 91013 91116 91213
555 51113 51212=
06260 17356 82405 10067 20058 30134 40136 57001 69911 72385 8////
333 82/07 84/10 86/12 91009 91111 91206
555 51111 51206 53018=
06270 17357 83208 10057 20038 30113 40113 53014 60031 78286 8////
333 81/07 83/09 85/11 91014 91114 91210
555 51114 51208 53015=
06290 17226 82106 10047 20041 30084 40125 58013 69981 78181 8////
333 82/06 84/07 86/09 91009 91112 91207
555 51112 51207 53016=
0000211200
252
SMNL51 EHDB 111200
AAXX 11121
06201 47574 33111 10073 20020 30067 40120 51019 70365 8////
333 83/21 91013 91114 91212
555 51114 51211=
06203 47568 5//08 10083 20029 30098 40149 51036 72386 8////
333 82/21 83/26 85/71 91010 91117 91213
555 51112 51208=
06204 47572 43010 10076 20022 30081 40132 51027 70165 8////
333 81/20 84/72 91013 91118 91214
555 51113 51211=
06205 47575 12911 10067 20016 30029 40088 50016 70100 8////
333 81/24 91013 91114 91212
555 51114 51212=
06208 47380 73011 10072 20031 30051 40100 53010 75186 8////
333 81/08 84/28 85/33 91013 91120 91215
555 51120 51214=
06211 47575 12812 10071 20021 30070 40126 51025 70286 8////
333 81/23 91015 91118 91213
555 51115 51213=
06212 47470 63113 10078 20027 3//// 4//// 5//// 72386 8////
333 81/19 83/22 86/59 91015 91120 91215
555 51118 51214=
06235 17576 63105 10066 20039 30125 40125 51022 60061 72386 8////
333 81/29 83/35 85/47 91009 91116 91211
555 51115 51209 53014=
06240 17471 82910 10072 20052 30141 40136 53011 60021 72385 8////
333 85/13 87/15 88/18 91013 91113 91210
555 51113 51210 53032=
06251 13/79 /3006 10065 20038 30110 40111 51025 60061
333 91009 91119 91213
555 51114 51209 53023=
06258 46/// /2807
333 91009 91117 91214
555 51115 51212=
06269 17356 82406 10066 20059 30129 40123 56002 69981 75186 8////
333 82/09 84/10 85/13 91008 91112 91209
555 51112 51209 51851 53011=
06280 17358 82906 10062 20044 30108 40112 53001 60031 75885 8////
333 81/07 83/25 87/28 91010 91112 91209
555 51112 51209 53009=
06310 17574 52908 10087 20048 30154 40164 53016 69911 70181 8////
333 81/22 84/33 85/80 91011 91114 91212
555 51111 51208 53065=
06344 17477 62908 10077 20046 30154 40147 53012 69911 70185 8////
333 82/18 83/21 85/39 91014 91114 91209
555 51114 51208 53035=
06370 17450 82407 10062 20049 30127 40153 51001 69971 78151 8////
333 82/11 86/13 88/16 91010 91110 91207
555 51110 51207 53016=
06380 17478 82306 10084 20056 30023 40164 51001 60001 70300 8////
333 81/14 88/42 91009 91111 91208
555 51110 51207 53066=
0000105600
253
SMNL52 EHDB 111200
AAXX 11121
06210 17472 83109 10071 20045 30143 40143 53015 60011 72385 8////
333 82/13 84/16 86/19 91013 91116 91210
555 51116 51210 53029=
06225 46/// /3313
333 91015 91119 91215
555 51118 51215=
06242 47460 73109 10068 20051 30116 40118 51025 75885 8////
333 82/17 83/27 85/35 91012 91118 91214
555 51116 51213=
06257 16/// ///// 10061 20036 60021
555 53031=
06275 17248 82407 10053 20047 30080 40136 56004 69961 75281 8////
333 82/04 86/06 88/07 91011 91111 91207
555 51111 51207 53008=
06330 16/// /3114 10078 20048 30137 40151 53017 69931
333 91016 91117 91214
555 51116 51214 53057=
06340 47250 82407 10071 20063 30138 40157 50007 72381 8////
333 82/06 85/07 86/09 91009 91110 91207
555 51110 51207=
06350 17250 82504 10062 20054 30136 40151 51002 69941 72381 8////
333 82/05 85/06 87/08 91006 91109 91205
555 51109 51205 53020=
06375 17241 82406 10056 20048 30123 40148 55001 69931 78161 8////
333 81/06 83/08 85/09 91008 91110 91207
555 51109 51207 51881 53016=
0000144300
254
SMNL53 EHDB 111200
AAXX 11121
06248 46/// /3003
333 91006 91114 91211
555 51109 51205=
06249 17/56 /3113 10061 20045 60031 78285
333 91018 91118 91213
555 51118 51213 53014=
06267 17475 72705 10070 20055 60031 72385 8////
333 81/18 84/22 85/27 91008 91115 91210
555 51109 51206 53023=
06273 17/49 /2606 10064 20056 60011 76185
333 91008 91113 91209
555 51111 51208 53011=
06277 16/// /3111 10063 20039 60031
333 91014 91118 91216
555 51117 51214 53016=
06278 16/// /2407 10056 20047 69951
333 91011 91111 91207
555 51111 51207 53010=
06279 17248 82408 10056 20048 30094 40114 56007 60021 75885 8////
333 81/05 87/07 88/08 91013 91113 91208
555 51113 51208 53006=
06283 16/// /2205 10048 20043 69971
333 91008 91109 91205
555 51109 51205 53019=
06286 16/// /2310 10054 20046 60021
333 91013 91113 91210
555 51113 51210 53009=
06319 13/58 /2506 10077 20063 30164 40166 51011 69921
333 91008 91110 91207
555 51109 51207 53037=
06348 17/50 /2407 10068 20059 30141 40140 53003 69911 72385
333 91009 91112 91209
555 51112 51209 53026=
06356 163// 82407 10065 20057 30140 40141 50000 69921 8////
333 83/07 85/08 87/10 91009 91111 91208
555 51110 51207 53019=
06377 17461 82506 10070 20052 60001 75131 8////
333 82/10 83/13 85/40 91008 91110 91207
555 51110 51206 53054=
06391 16/// /2304 10065 20043 60001
333 91007 91110 91206
555 51107 51205 53035=
0000046000
255
SMNL54 EHDB 111200
AAXX 11121
06209 NIL=
06285 NIL=
06308 NIL=
06311 NIL=
06312 NIL=
06313 NIL=
06315 NIL=
06316 NIL=
06320 46/69 /3112 10079 20048 30129 40156 51027 222// 00082 10503
333 91014 91116 91214
555 51115 51212=
06321 46/72 /3111 10082 20036 30137 40161 53028 222// 00086 10503
333 91013 91116 91213
555 51113 51211=
06324 NIL=
06331 NIL=
06343 46/// /3010
333 91013 91113 91210
555 51113 51210=
00000000