0000011100
329
UANT99 KDDL 111222
ARP UAL121 4522N01638W 1222 F330 MS56 231/72 KT
N14107 DDL IG1 111222 F61A
0000011200
330
UANT99 KDDL 111222
ARP GTI8089 5401N01913W 1222 F350 MS65 224/87 KT
N640GT DDL IG1 111223 F22A
0000236700
331
SMMO02 MNUB 111200
AAXX 11120
44203 329// 62901 11327 21362 38501 40644 52004 84047
333 11309 91201=
44207 329// 81802 11143 21204 38371 40428 52003 8807/
333 11135 91206=
44212 119// 60000 11287 21320 39299 40602 52002 69902
70272 86030 333 11235 91200 555 80045 93100=
44213 32999 60000 11261 21294 38921 40576 52003 85036
333 11247 91201=
44215 32998 60000 11237 21269 38491 40554 52005 83089
333 11187 91202=
44218 329// 00000 11254 21278 38705 40563 53002 333
11202 91202=
44225 32998 80000 11292 21327 38359 40640 57001 80007
333 11258=
44230 329// 30206 11236 21282 38878 40515 54000 80004
333 11193 91207=
44232 329// 00000 11241 21277 39208 40467 54001 333
11161=
44237 32999 30000 11154 21214 38559 40413 52005 82048
333 11081=
44239 329// 03201 11178 21237 38878 40436 50001 333
11158=
44241 329// 02401 11268 21299 39382 40481 52003 333
11171 91203=
44256 32999 00000 11295 21313 39461 40436 51016 333
11207 91200=
44265 329// 20000 11181 21240 38953 40468 57004 80004
333 91201=
44272 329// 71602 11223 21280 38290 40540 57007 87070
333 11181=
44275 32998 03202 11215 21290 37773 40550 54000 333
11110 91203=
44282 31999 03202 11153 21259 38361 40424 52007 70230
333 11103=
44284 32999 00301 11290 21340 37911 40647 54000 333
11188 91203=
44285 32999 01703 11216 21269 38393 40499 53008 333
11086 91204=
44287 32999 00704 11175 21282 38186 40497 54000 333
11113 91206=
44294 329// 03603 11244 21276 38642 40516 52006 333
11151 91205=
44298 329// 03205 11165 21257 38798 40413 52005 333
11123 91206=
44302 329// 03604 11190 21239 39196 40409 53013 333
11118 91206=
44305 32999 00504 11197 21255 39142 40336 52012 333
11122 91204=
44313 12999 00000 11275 21293 39473 40416 52012 69902
333 11183 91202 555 80027 93100=
44314 11998 50501 11256 21288 39240 40461 52021 69902
70272 85080 333 11134 91205 555 80021 93100=
44317 32998 60503 11188 21237 39026 40428 52028 86030
333 11133 91205=
44336 329// 02406 11145 21254 38783 40454 52001 333
11081 91206=
44341 329// 03106 11175 21200 38690 40467 52006 333
11108 91206=
44347 32999 03203 11146 21235 38817 40467 52008 333
11091 91208=
44352 32999 03203 11174 21233 39002 40399 52020 333
11133 91203=
44358 329// 03201 11137 21259 39185 40428 52021 333
11069 91202=
0000013000
332
SMRS12 RUMS 111200 RRA
AAXX 11121
27703 41397 82806 10013 21001 39689 49931 52027 76166 8872/ 333 86707
91012=
0000011100
333
UANT99 KDDL 111222
ARP BER7210 5006N02546W 1222 F370 MS53 195/58 KT
DALPH QXT AOE 111223 J26A
0000015600
334
SMVA10 EHDB 111200 RRD
BBXX
A8GU4 11124 99227 30540 41398 31117 10260 20232 40160 54000 7//22
83160 22214 04270 20407 305// 40305 80240=
0000054600
335
UKCN04 CWAO 111200
TTBB  61128 71081 00002 35736 11978 31549 22966 31949 33945
31738 44928 31531 55909 30522 66885 27345 77884 27348 88863
24360 99800 25762 11793 25359 22773 23767 33764 24164 44758
23950 55757 23950 66752 23961 77748 23962 88733 24748 99697
25562 11662 27962 22554 37533 33456 47157 44437 49556 55428
50148 66409 51358 77360 56145 88350 56759 99340 57756 11310
61550 22282 63358 33265 63960 44231 62563 55221 63564 66211
61966 77179 65768 88175 65968 99165 64569 11100 70568 31313
48008 81122=

0000035400
336
UGCN04 CWAO 111200
PPBB  61128 71081 90012 30010 26011 23516 90345 30010 24003
27010 90678 22515 25014 24017 909// 26519 91124 24520 26017
25523 9169/ 25027 25025 92045 26029 28536 28540 9268/ 28043
29038 93035 27027 26025 26524 93679 28020 26518 27022 94023
25521 27015 26025 94456 27521 25518 26523 94789 25518 29021
28517=

0000032200
337
USCN04 CWAO 111200
TTAA  61121 71081 99002 35736 30010 00019 34949 30511 92569
31329 24015 85179 24561 27505 70592 25561 26019 50495 42348
25026 40642 52157 26530 30824 62156 28539 25936 63361 27030
20074 62568 27022 15249 65769 26021 10493 70568 28018 88282
63358 28034 88179 65768 26518 77999=

0000032400
338
KSMH01 EUMS 111221 RRA
CREX++
T00020413// A000 P00106000 U00 S001 Y20140111 H1200 D301004 D301023 D302001 D302032 D302070 B013019 B013021 B013023 B014021++
63 995 MET5                 0 0923 04612 10100 10115 -0013 07 01000 2830 2326 074 01000 0100 231 0146 226 0162 132 257 0000 00000 00000 ///++
7777
0000032000
339
KSMH01 EUMS 111218
CREX++
T00020413// A000 P00106000 U00 S001 Y20140111 H1200 D301004 D301023 D302001 D302032 D302070 B013019 B013021 B013023 B014021++
63 981 P//////              0 0434 05540 10093 10121 -0011 05 01000 2890 2270 069 01000 0100 311 0022 304 0040 208 001 0000 00000 00064 ///++
7777
0000037800
340
UGCN06 CWAO 111200
PPBB  61128 71109 90012 13506 15010 21015 90345 23521 22533
24038 90678 24536 24035 23035 909// 23039 91012 23044 23542
23036 91345 21042 21044 21057 9169/ 21051 20554 92057 20565
20114 20132 929// 20632 93034 20616 21585 21093 9359/ 22092
24565 94134 24063 25549 24555 94567 25563 27056 25540 949//
23542 95012 25555 27548 27037=

0000031000
341
USCN06 CWAO 111200
TTAA  61121 71109 99984 04600 13506 00615 ///// ///// 92521
03206 22014 85202 00900 22533 70724 11515 23039 50522 29731
21054 40677 38371 21088 30872 47965 20629 25991 50969 21589
20137 47576 23076 15326 49976 25051 10590 55975 27037 88271
51970 21109 77322 20132=

0000042200
342
UKCN06 CWAO 111200
TTBB  61128 71109 00984 04600 11972 05406 22735 07908 33703
11315 44630 16919 55590 20303 66575 22127 77505 29133 88433
38327 99426 37763 11370 39974 22352 42173 33338 41768 44321
44564 55271 51970 66257 50169 77239 51371 88231 49976 99213
46573 11198 48373 22193 47174 33176 51173 44171 48776 55165
48177 66152 50374 77142 48175 88111 51974 99100 55975 31313
48008 81117=

0000035600
343
UPMI01 GABS 111200
PPAA 61111 61202 NIL=
PPAA 61111 61214 NIL=
PPAA 61111 61223 NIL=
PPAA 61111 61226 NIL=
PPAA 61111 61233 NIL=
PPAA 61111 61257 NIL=
PPAA 61111 61265 55285 27014 20007 77999=
PPAA 61111 61272 NIL=
PPAA 61111 61291 44385 09507 10514 19516 44340 24525 27057 27569
44320 28572 25559 20025 77215 28074 40515=
0000052100
344
SMGL61 EKMI 111200
AAXX 11124
04211 47/57 /3209 11083 21090 39815 49976 52003 70088 =
04213 46/// /2815 11066 21145 39843 49954 52004 =
04224 45983 31908 11087 21130 39924 49958 52003
  333 83/61 =
04234 45/84 /1006 11106 21176 39951 49962 52010 =
04241 45984 50909 11101 21156 39927 49968 52013
  333 85/71 =
04254 45/84 /0611 11094 21176 39845 49962 52013 =
04341 464// 72103 11081 21094 30108 40123 52004
  333 81/19 87/36 =
04361 47/81 01702 11044 21113 39934 49987 52014 70087 =
0000193500
345
SMIN90 VANP 111200 RRA
AAXX 11124
42361 31994 20000 10170 20098 40175 71000 80001
  333 10204 58033 82075=
42562 32996 00202 10162 20122 40145
  333 10180 58042=
42567 31594 40202 10174 20150 40169 71000 83430
  333 10186 58044=
42754 31595 20511 10156 20114 39511 40162 70522 82500
  333 10179 58042 82620=
42559 32996 63601 10174 20076 40165 82030
  333 10192 58048 82360 86075=
42665 32996 00502 10163 20130 40163
  333 10175 58048=
42557 32996 03603 10190 20087 40166
  333 10200 58049=
42662 32995 40503 10166 20119 40156 80002
  333 10180 58036=
42571 31594 43202 10160 20131 40158 71044 82530
  333 10165 58031=
42574 21595 80000 10150 20150 4//// 70500 8553/
  333 10170 5//// 6002/=
42577 22596 80000 10162 20152 40153 8553/
  333 10192 58020 6001/=
42671 31996 20501 10158 20108 39541 40175 70500 82030
  333 10205 58058=
42674 31996 03601 10178 20136 40148 70500
  333 10208 58048=
42672 32997 01401 10192 20124 40154
  333 10224 58004=
42467 32995 63202 10174 20139 40142 84220
  333 10195 58008=
42675 31494 80000 10164 20139 40166 71044 886//
  333 10168 58044 88710=
42667 31994 00505 10170 20118 39568 40168 70500
  333 10196 58049=
42855 32996 0//// 10200 20126 4////
  333 10251 5////=
42871 32997 33202 10240 20180 4//// 83030
  333 10253 58///=
42946 32696 40000 10264 20200 40122 81130
  333 10285 58007=
43029 32996 01603 10286 20182 40126
  333 10290 58012=
42931 32997 01403 10224 20083 40128
  333 10250 58020=
42939 32996 10000 10282 20203 40121 80001
  333 10292 58016=
42937 32996 02902 10266 20209 40115
  333 10272 58014=
42935 32996 02302 10264 20121 39500 40130
  333 10284 58031=
42943 32996 01802 10270 20098 40106
  333 10290 59012=
42867 31996 22702 10260 20143 40121 70500 80001
  333 10281 58013 82075=
42933 32997 53202 10256 20086 40125 80008
  333 10286 58026 85270=
0000012100
346
UXIN90 VECC 111200
TTAA 6112/ 42809 MISDA DUE SUSPENSION INSTRUCTION RECEIVED FROM DDGM(UI) NEW DELHI=

0000016800
347
UPIN90 VECC 111200
PPAA 61111 42809
55292 00507 23508 =

UGIN90 VECC 111200
PPBB 61111 42809
90012 36004 02007 01008 90347 01005 20505 17503 =
0000209100
348
UDAS02 BABJ 111213
AMDAR 1112
DES CNFOZN 2244N 11345E 111208 F013 PS143 341/003 TB/ S//1=
DES CNFOZN 2242N 11345E 111208 F009 PS153 341/002 TB/ S//1=
DES CNFOZN 2241N 11346E 111209 F005 PS156 198/002 TB/ S//1=
DES CNFPYN 3435N 11338E 111208 F031 PS018 306/019 TB/ S//1=
DES CNFPYN 3435N 11339E 111208 F028 PS025 306/020 TB/ S//1=
DES CNFPYN 3434N 11343E 111209 F020 PS043 299/024 TB/ S//1=
DES CNFPYN 3433N 11346E 111210 F012 PS060 272/019 TB/ S//1=
ASC CNFPQK 3818N 11353E 111208 F187 MS290 270/063 TB/ S//1=
ASC CNFPQK 3817N 11349E 111209 F201 MS318 271/064 TB/ S//1=
ASC CNFPQK 3816N 11346E 111210 F214 MS344 272/069 TB/ S//1=
LVR CNFPQK 3814N 11342E 111210 F217 MS350 274/070 TB/ S//1=
DES CNFPYL 3114N 11711E 111207 F141 MS130 246/051 TB/ S//1=
DES CNFPYL 3119N 11708E 111208 F125 MS089 245/053 TB/ S//1=
DES CNFPYL 3124N 11706E 111209 F109 MS068 266/040 TB/ S//1=
DES CNFPYL 3129N 11704E 111210 F097 MS041 263/034 TB/ S//1=
LVR CNFOZM 2934N 11339E 111208 F217 MS196 258/074 TB/ S//1=
LVR CNFOZM 2928N 11339E 111209 F217 MS191 259/073 TB/ S//1=
LVR CNFOZM 2922N 11338E 111210 F217 MS190 259/071 TB/ S//1=
DES CNFNXN 3946N 11639E 111208 F055 MS095 332/024 TB/ S//1=
DES CNFNXN 3948N 11638E 111209 F050 MS088 330/023 TB/ S//1=
DES CNFNXN 3951N 11638E 111210 F040 MS060 330/024 TB/ S//1=
ASC CNFNXM 2802N 12034E 111210 F153 MS130 267/032 TB/ S//1=
ASC CNFNXM 2802N 12033E 111210 F157 MS114 271/036 TB/ S//1=
ASC CNFNXM 2802N 12030E 111210 F171 MS120 258/035 TB/ S//1=
ASC CNFNXM 2802N 12026E 111211 F189 MS144 264/056 TB/ S//1=
LVR CNFLWT 3029N 11408E 111203 F301 MS375 253/101 TB/ S//1=
LVR CNFLWT 3024N 11349E 111206 F301 MS378 252/104 TB/ S//1=
LVR CNFLWT 3018N 11330E 111209 F301 MS375 252/104 TB/ S//1=
LVR CNFLWT 3013N 11311E 111212 F301 MS365 252/106 TB/ S//1=
LVR CNFPQK 3813N 11339E 111211 F218 MS355 274/070 TB/ S//1=
ASC CNFPQK 3812N 11337E 111211 F223 MS363 277/069 TB/ S//1=
ASC CNFPQK 3812N 11335E 111211 F227 MS370 278/065 TB/ S//1=
ASC CNFPQK 3810N 11332E 111212 F237 MS380 278/074 TB/ S//1=
00000000