0000010500
596
SANK31 MNMG 101700
METAR  
MNMG 101700Z 11016KT 9999 FEW023 31/19 Q1012 A2991 NOSIG=

0000028500
597
FTKY31 RUMS 101600
TAF COR UCFM 101550Z 1018/1118 12006MPS 2000 BR FU NSC TEMPO
1018/1024 0800 FZFG FEW003 BECMG 1105/1106 30006MPS 6000 NSW=
TAF UCFO 101600Z 1018/1118 17005MPS 1500 BR SCT050 TEMPO 1018/1024
25005MPS 0300 FZFG VV001 BECMG 1102/1104 27005MPS =

0000012800
598
SALT32 EYVI 101650
METAR EYKA 101650Z 27021G31KT 240V300 9999 -SHRA BKN015CB OVC024
03/01 Q0992 R08/290095=

0000011300
599
SAEO31 EETN 101650
METAR EETN 101650Z 02012KT 9000 -DZ OVC007 02/01 Q0986 R08/290295 
NOSIG=

0000024500
600
FTJM31 MKJP 101645
TAF 
MKJP 101645Z 1018/1118 13015KT 9999 FEW024
BECMG 1102/1104 34005KT
BECMG 1115/1117 14020KT=
MKJS 101645Z 1018/1118 07015KT 9999 SCT022
BECMG 1101/1103 13005KT FEW024
BECMG 1114/1116 07012KT=

0000015500
601
FTAB31 LATI 101648
TAF LATI 101700Z 1018/1118 VRB03KT 9999 FEW050 SCT080
TEMPO 1023/1106 5000 BR NSC
TEMPO 1110/1118 30006KT SCT060=

0000010400
602
SATH33 VTBB 101600 RRB
METAR VTUU 101600Z 01004KT 8000 NSC 22/17 Q1017 A3003
NOSIG=

0000009300
603
SAAI41 FHAW 101650
METAR FHAW 101650Z 14016KT 9999 FEW022 27/18 Q1012 BLU=

0000031300
604
FTBA31 MYNN 101645
TAF
MYNN 101645Z 1018/1118 11016KT 9999 SCT016 BKN035 BKN080 PROB30
TEMPO 1022/1102 11015G25KT 8000 SHRA SCT014 BKN030 BKN070=
MYGF 101645Z 1018/1118 13015KT 9999 SCT015 BKN120=
MBGT 101645Z 1018/1118 09017KT 9999 SCT015=
MBPV 101645Z 1018/1118 09017KT 9999 SCT015=

0000008700
605
SPCN31 CWAO 101646
SPECI CYTR 101646Z 20005KT 3SM BR OVC016 RMK SC8=

0000024500
606
FTAG41 KWBC 101648
TAF
TAF SAVC 101700Z 1018/1118 14012KT 9999 SCT030 SCT090 TX19/1019Z
      TN14/1111Z PROB40
      TEMPO 1018/1021 -SHRA FEW035TCU
      BECMG 1022/1100 VRB03KT
      BECMG 1112/1114 32012KT CAVOK=

0000053100
607
FTAG31 KWBC 101648
TAF
TAF SAWE 101700Z 1018/1118 25015KT 9999 SCT015 SCT090 TX13/1018Z
      TN07/1111Z PROB40
      TEMPO 1106/1110 32020KT -RA BKN010 OVC040
      BECMG 1112/1114 27025G35KT BKN012=
TAF SAWG 101700Z 1018/1118 25020KT 9999 SCT030 SCT090 TX15/1018Z
      TN10/1111Z PROB40
      TEMPO 1018/1112 29020G30KT RA BKN025 BKN045=
TAF SAWH 101700Z 1018/1118 23020G30KT 9999 -RA BKN025 BKN045
      TX10/1018Z TN06/1111Z
      BECMG 1021/1023 VRB03KT
      BECMG 1106/1108 32018KT=

0000009800
608
FTPA31 KWBC 101648
TAF
TAF AGGH 101600Z 1018/1118 09008KT 9999 SCT020 SCT120=

0000018600
609
FTPA32 KWBC 101648
TAF
TAF NFTV 101645Z 1018/1118 03035G45KT 9999 -SHRA BKN016
      TEMPO 1018/1112 1000 +TSRA BKN015 SCT018CB
      TEMPO 1018/1024 35060G85KT=

0000028900
610
FTSA32 KWBC 101648
TAF
TAF SLLP 101620Z 1018/1118 12012KT 9999 FEW017 FEW020CB SCT070
      TX17/1020Z TN04/1110Z
      TEMPO 1019/1022 14015KT 8000 VCSH
      BECMG 1102/1104 4000 VCFG FEW002 SCT012 BKN070
      BECMG 1110/1112 10006KT 9999 NSW SCT010 SCT070=

0000038400
611
FTUS51 KWBC 101648 AAA
TAF AMD
KHLG 101646Z 1017/1112 16007KT P6SM OVC005
     FM102100 18008KT P6SM OVC010
     FM110900 18010KT 6SM -RA OVC015=
KLBE 101645Z 1017/1112 13007KT 6SM BR OVC010
     FM111000 18010KT 6SM -RA OVC015=
KMGW 101647Z 1017/1112 VRB03KT 6SM BR OVC012
     FM102200 15005KT P6SM BKN015 BKN035
     FM111000 18008KT P6SM OVC010=

0000075500
612
FTUS52 KWBC 101648 AAA
TAF AMD
KGGG 101645Z 1017/1112 17017G24KT P6SM VCSH FEW013 SCT080 BKN110
      TEMPO 1017/1019 BKN015
     FM101900 19015G25KT 6SM -TSRA BR OVC015CB
     FM110300 25010KT 5SM -RA BR VCTS OVC015CB
     FM110700 28008KT P6SM SCT015 BKN250=
KMLU 101646Z 1017/1112 16008KT 4SM BR OVC004
      TEMPO 1017/1018 6SM BR FEW006 SCT009 BKN015
     FM101800 18010KT P6SM VCSH OVC015
     FM110300 19012G18KT P6SM -RA VCTS OVC015CB
      TEMPO 1104/1107 5SM -TSRA BR
     FM110700 26010KT 5SM -TSRA BR OVC009CB=
KTYR 101647Z 1017/1112 18013KT P6SM VCSH OVC011
     FM101800 19015G25KT 6SM -TSRA BR OVC012CB
     FM110200 25010KT 5SM -RA BR VCTS OVC015CB
     FM110600 28008KT P6SM SCT015 BKN250=

0000109000
613
FTUS80 KWBC 101648 AAA
TAF AMD
KGGG 101645Z 1017/1112 17017G24KT P6SM VCSH FEW013 SCT080 BKN110
      TEMPO 1017/1019 BKN015
     FM101900 19015G25KT 6SM -TSRA BR OVC015CB
     FM110300 25010KT 5SM -RA BR VCTS OVC015CB
     FM110700 28008KT P6SM SCT015 BKN250=
KHLG 101646Z 1017/1112 16007KT P6SM OVC005
     FM102100 18008KT P6SM OVC010
     FM110900 18010KT 6SM -RA OVC015=
KLBE 101645Z 1017/1112 13007KT 6SM BR OVC010
     FM111000 18010KT 6SM -RA OVC015=
KMGW 101647Z 1017/1112 VRB03KT 6SM BR OVC012
     FM102200 15005KT P6SM BKN015 BKN035
     FM111000 18008KT P6SM OVC010=
KMLU 101646Z 1017/1112 16008KT 4SM BR OVC004
      TEMPO 1017/1018 6SM BR FEW006 SCT009 BKN015
     FM101800 18010KT P6SM VCSH OVC015
     FM110300 19012G18KT P6SM -RA VCTS OVC015CB
      TEMPO 1104/1107 5SM -TSRA BR
     FM110700 26010KT 5SM -TSRA BR OVC009CB=
KTYR 101647Z 1017/1112 18013KT P6SM VCSH OVC011
     FM101800 19015G25KT 6SM -TSRA BR OVC012CB
     FM110200 25010KT 5SM -RA BR VCTS OVC015CB
     FM110600 28008KT P6SM SCT015 BKN250=

0000174700
614
SPUS70 KWBC 101648
SPECI
KADG 101644Z AUTO 20008KT 2SM BR OVC004 01/01 A3013 RMK AO2
     TSNO=
KBTL 101644Z 18009KT 3SM BR OVC003 01/M01 A3006 RMK AO2
     T00061006=
KCRS 101644Z AUTO 20014G20KT 1 1/2SM +RA BR SCT004 BKN010 OVC041
     16/16 A2989 RMK AO2 P0025 T01610156=
KCUB 101644Z AUTO 00000KT 9SM OVC005 11/09 A3026 RMK AO2 T01110094
     TSNO=
KELZ 101644Z AUTO 19005G14KT 10SM BKN013 OVC055 01/M03 A3021 RMK
     AO2 $=
KGRI 101644Z 22007KT 5SM BR OVC005 00/M01 A2962 RMK AO2
     T00001011=
KGVL 101644Z AUTO 08008KT 1 1/2SM -RA BR OVC003 08/07 A3025 RMK
     AO2 RAB24 P0000=
KJST 101644Z AUTO 18005KT 1/4SM FG VV002 01/01 A3024 RMK AO2
     T00110011=
KLXT 101644Z AUTO 00000KT 1SM BR OVC002 03/02 A2969 RMK AO2
     T00280022=
KSHN 101644Z AUTO 22013KT 1 3/4SM -RA BR FEW008 SCT011 OVC025
     07/06 A3007 RMK AO2 P0000 T00720061 TSNO=
PAGN 101644Z AUTO 00000KT 10SM -RA FEW004 SCT014 BKN018 A2955 RMK
     AO2 TSNO RAE18B38 P0000 $=
PAGN 101644Z AUTO 00000KT 10SM -RA FEW004 SCT014 BKN018 A2955 RMK
     AO2 TSNO RAE18B38 P0000 $=
KAHN 101645Z 06007KT 2SM -RA BR OVC005 07/06 A3025 RMK AO2
     P0003=
KBKL 101645Z 16010KT 6SM BR BKN013 OVC022 03/01 A3019 RMK AO2=
KEET 101645Z AUTO 10004KT 3/4SM BR OVC002 08/08 A3019 RMK AO2
     T00830078=
KFRG 101645Z 00000KT 3SM -FZRA BR FEW020 SCT025 OVC035 01/M01
     A3044 RMK AO2 UPB25E29FZRAE25B29 P0000=
KMVL 101645Z AUTO 00000KT 1 1/4SM -SN BKN028 OVC042 M08/M11 A3035
     RMK AO2 SNB23 P0000=
KMWL 101645Z AUTO 16005KT 3SM -RA BR OVC090 13/13 A2982 RMK AO2
     P0003 T01330133=
KPWA 101645Z 22015KT 4SM HZ SCT011 11/08 A2972 RMK AO2=
PALH 101645Z 00000KT 10SM OVC015 M03/M04 A2942 RMK AO2=

0000010500
615
SPUS41 KWBC 101648
SPECI
KWRI 101644Z AUTO 09002KT 3SM BR FEW003 OVC011 00/00 A3039=

00000000