0000033000
916
SANO34 ENMI 101650
METAR ENBN 101650Z 09016KT CAVOK M06/M13 Q1005=
METAR ENBV 101650Z NIL=
METAR ENFG 101650Z NIL=
METAR ENHF 101650Z VRB01KT CAVOK M11/M13 Q1016 RMK WIND 1254FT
           09004KT=
METAR ENRA 101650Z 10015KT CAVOK M09/M19 Q1009=
METAR ENSH 101650Z 06021KT 9999 FEW040 M05/M13 Q1013=

0000009800
917
SABZ19 SBMA 101700
METAR SBMA 101700Z 12005KT 9999 SCT018 BKN080 29/22
Q1011=

0000009600
918
SAVG31 TVSV 101700
METAR TVSV 101700Z 09016KT 9999 SCT018 SCT038 28/22 Q1015=

0000009800
919
SABZ20 SBEG 101700
METAR SBEG 101700Z 36007KT 9999 BKN017 BKN100 29/24
Q1010=

0000071400
920
SANO31 ENMI 101650
METAR ENAN 101650Z 10016KT CAVOK M05/M17 Q1015 NOSIG=
METAR ENBR 101650Z VRB02KT 9999 VCSH FEW005 FEW012CB BKN018 05/04
           Q0998 TEMPO SHRA BKN008 RMK WIND 1200FT 28012KT=
METAR ENBO 101650Z 08009KT 040V120 CAVOK M07/M16 Q1010 NOSIG=
METAR ENDU 101650Z VRB01KT 9999 FEW040 M22/M24 Q1016=
METAR ENGM 101650Z 17008KT 9999 SCT012 BKN120 M01/M03 Q0997 TEMPO
           BKN012=
METAR ENOL 101650Z 06009KT 9000 -SN FEW006 BKN010 M07/M09 Q1000 TEMPO
           1500 SN VV005=
METAR ENVA 101650Z 08008KT 8000 -SN BKN026 M07/M11 Q1000 TEMPO 3000
           -SN VV012 RMK WIND 670FT 11010KT=
METAR ENZV 101650Z 24008KT 9999 FEW012 BKN030 07/05 Q1000 NOSIG=

0000010900
921
SPUS41 KWBC 101655
SPECI
KDOV 101653Z AUTO 10004KT 3SM -RA BR SCT019 BKN040 02/02 A3039=

0000009200
922
SPUS41 KWBC 101655
SPECI
KORH 101651Z 22011KT 8SM OVC004 M02/M02 A3037=

0000033200
923
SAHO31 MHTG 101700
METAR MHRO 101700Z 22005KT 9999 SCT020TCU SCT080 26/21 Q1016 A3000
NOSIG=
METAR MHLC  101700Z 33004KT 9999 SCT024 BKN070 26/21 Q1016 A3001
NOSIG=
METAR MHLM  101700Z 00000KT 9999 SCT028 27/22 Q1016 A3000 NOSIG=
METAR MHTG  101700Z 07010KT 9999 FEW020 SCT027 24/14 Q1020 A3012
NOSIG=

0000051800
924
FTAG59 SACO 101700
TAF SACO 101700Z 1018/1118 18010G20KT VCTSRA SCT020
TX29/1118Z TN21/1110Z BKN035 FEW035 FM 2100 16010KT 9999
BKN025 BECMG 1115/1118 18010KT 9999 SCT035=
TAF SASA 101700Z 1018/1118 11010KT 2000 TSRA SCT15
TX28/1118Z TN19/1110Z OVC040 FEW040CB=
TAF SASJ 101700Z 1018/1118 11010KT 5000 TSRA SCT020
TX30/1118Z TN18/1110Z BKN040 FEW040CB=
TAF SANT 101700Z 1018/1118 05005KT 9999 SCT025 FEW035
TX30/1118Z TN21/1110Z  FM 101900 18010KT 2500 TSRA
SCT020 OVC040 FEW040CB=

0000019400
925
FTAG59 SACO 101700
TAF SACO 101700Z 1018/1118 18010G20KT VCTSRA SCT020
TX29/1118Z TN21/1110Z BKN035 FEW035 FM 2100 16010KT 9999
BKN025 BECMG 1115/1118 18010KT 9999 SCT035=

0000008900
926
SABZ24 SBFI 101700
METAR SBFI 101700Z 36007KT 9999 SCT040 34/21 Q1010=

0000049500
927
SAFI33 EFHK 101650
EFJO 101650Z 02013KT 350V050 4900 -SN FEW012 BKN065 M09/M10 Q0992=
EFLP 101650Z AUTO 01012KT 350V060 1900 -SN FEW008 BKN010 OVC015
M03/M04 Q0986=
EFMI 101650Z AUTO VRB05KT 8000 -SN BKN011 M05/M06 Q0990=
EFSA 101650Z AUTO 36010KT 310V050 3500 -SN FEW014 SCT039 BKN050
M07/M08 Q0990=
EFUT 101650Z AUTO 01014KT 340V050 9999 -SN FEW009 BKN011 M02/M03
Q0987=
EFVR 101650Z AUTO 01010KT 340V040 0350 +SN FEW012 SCT016 BKN019
OVC031 M07/M09 Q0992=

0000042400
928
FTUS41 KWBC 101657
TAF
TAF AMD KCEF 1016/1117 18006KT 9999 OVC010 620109 QNH3040INS
      BECMG 1016/1017 18006KT 9999 OVC009 620099 QNH3038INS
      BECMG 1019/1020 19006KT 4800 -FZDZ OVC007 660001 620109
      QNH3036INS
      BECMG 1021/1022 19009KT 4800 -RA OVC007 620258 QNH3024INS
      BECMG 1110/1111 15006KT 1600 RA BR OVC007 620305 QNH2972INS
      T10/1117Z TM03/1016Z AMD 101654=

0000042400
929
FTUS71 KWBC 101657
TAF
TAF AMD KCEF 1016/1117 18006KT 9999 OVC010 620109 QNH3040INS
      BECMG 1016/1017 18006KT 9999 OVC009 620099 QNH3038INS
      BECMG 1019/1020 19006KT 4800 -FZDZ OVC007 660001 620109
      QNH3036INS
      BECMG 1021/1022 19009KT 4800 -RA OVC007 620258 QNH3024INS
      BECMG 1110/1111 15006KT 1600 RA BR OVC007 620305 QNH2972INS
      T10/1117Z TM03/1016Z AMD 101654=

0000017000
930
FTUS71 KWBC 101657 AAA
TAF AMD
KBFD 101656Z 1017/1112 19006KT P6SM VCSH SCT007 OVC015
     FM110400 16009KT 4SM -RA BR BKN007 OVC012 WS019/21048KT=

0000022400
931
FTUS73 KWBC 101657 AAA
TAF AMD
KBRL 101655Z 1017/1112 16010KT 1 1/2SM -RA BR OVC004
     FM110000 17008KT 1/2SM -RA FG VV001
     FM110400 19006KT 1SM BR OVC004
     FM111000 25010KT 3SM BR OVC004=

0000051100
932
SAGR33 LGAT 101650
METAR LGBL 101650Z VRB03KT 9999 FEW020 SCT180 09/07 Q1017 NOSIG=
METAR LGHI 101650Z VRB03KT 9999 SCT016 12/10 Q1019=
METAR LGKC 101650Z NIL=
METAR LGKF 101650Z VRB03KT 9999 SCT018 14/09 Q1021=
METAR LGKP 101650Z 33002KT 9999 FEW030 12/08 Q1020=
METAR LGKZ 101650Z 00000KT 9999 BKN070 BKN170 07/00 Q1018=
METAR LGMK 101650Z 22004KT 9999 FEW020 12/06 Q1018=
METAR LGNX 101650Z NIL=
METAR LGPA 101650Z NIL=
METAR LGSO 101650Z 21007KT 9999 FEW018 15/11 Q1018=

0000009500
933
SAVN22 SVMI 101700
METAR SVMI 101700Z 07003KT 9999 FEW016 29/26 Q1015 NOSIG=

0000010200
934
SACV20 GVBA 101700
METAR GVBA 101700Z 03011KT 9999 FEW015 BKN200 24/14 Q1014 NOSIG=

0000018600
935
FTAG41 KWBC 101657
TAF
TAF SANT 101700Z 1018/1118 05005KT 9999 SCT025 FEW035 TX30/1118Z
      TN21/1110Z
     FM 101900 18010KT 2500 TSRA SCT020 OVC040 FEW040CB=

00000000