0000053100
856
SACU31 MUHA 101600
METAR
MUHA 101555Z 15008KT 9000 SCT030 27/19 Q1020=
MUVR 101550Z 09009KT 050V140 9000 FEW020 27/20 Q1021=
MUSC 101550Z 12008KT 090V160 9000 BKN020 27/22 Q1020=
MUCC 101550Z 09011KT 050V110 9000 SCT020 27/22 Q1020=
MUCM 101550Z 11012KT 070V140 9999 FEW020 27/17 Q1020=
MUHG 101550Z 11014KT 070V150 9999 BKN020 29/18 Q1019=
MUCU 101550Z 31004KT 310V120 9999 FEW020 29/17 Q1019=
MUCL 101550Z 10014KT 9999 FEW020 28/22 Q1019=
MUCF 101552Z 10008KT 060V120 9000 FEW020 30/21 Q1020=

0000009800
857
SAMJ41 LWSK 101600
METAR LWSK 101600Z 23001KT 4500 BR OVC006 03/01 Q1021 NOSIG=

0000012700
858
SACG20 FCBB 101600
METAR FCBB 101600Z 14004KT 8000 FEW020 FEW030CB 26/22 Q1011 TEMPO
04015G25KT 4000 TSRA=

0000012900
859
SAXX69 EGRR 101600
METAR EQBH 101550Z 24003KT 9999 SKC 05/M01 Q1028 BLU NOSIG RMK A3036
      PA2528 DA1948=

0000009300
860
SAUK36 EGGY 101550 RRC
METAR EGVN 101550Z 19006KT CAVOK 08/06 Q1012 NOSIG=

0000012700
861
SANO39 ENMI 101550 RRA
METAR ENHM 101550Z 26012KT 9999 FEW010 SCT024 BKN160 06/05 Q0999
           W08/S4=

0000010000
862
SAUS71 KWBC 101500 RRL
METAR
KMMU 101545Z 00000KT 2SM -SN OVC008 M02/M04 A3048=

0000008400
863
SAAG41 SADF 101600
METAR SADF 101600Z  36007KT CAVOK 30/17 Q1007=

0000011400
864
SAGL31 BGSF 101550 RRA
METAR BGGH 101550Z 15015G30KT 120V180 4000 DRSN OVC020 M06/M13 
Q0992=

0000009700
865
SAUS73 KWBC 101500 RRH
METAR
KGYY 101545Z 16007KT 3SM BR OVC004 02/01 A3004=

0000008700
866
SARH32 LDZM 101600
METAR LDLO 101600Z NIL=
METAR LDSB 101600Z NIL=

0000043000
867
SARH31 LDZM 101600
METAR LDSP 101600Z VRB01KT 9999 BKN045 12/10 Q1021 NOSIG =
METAR LDPL 101600Z 09004KT 9999 BKN056 11/09 Q1020 NOSIG =
METAR LDDU 101600Z 09004KT 9999 FEW037 OVC055 12/09 Q1021 NOSIG =
METAR LDZA 101600Z VRB01KT 9999 FEW041 09/07 Q1019 NOSIG =
METAR LDZD 101600Z 11004KT 9999 FEW025 12/09 Q1020 NOSIG =
METAR LDRI 101600Z NIL=
METAR LDOS 101600Z 19006KT 3000 BR SCT033 06/05 Q1021=

0000010500
868
SAAG41 SAWG 101600
METAR SAWG 101600Z  23023G33KT 9999  SCT035 SCT040
 13/M03 Q1008=

0000010100
869
SANO31 ENMI 101550 RRA
METAR ENAN 101550Z 10017KT 9999 FEW030 M05/M16 Q1015 NOSIG=

0000010300
870
SAMT20 GQPP 101600
METAR GQPP 101600Z 25009KT 220V280 8000 FEW010 21/14 Q1014 NOSIG=

0000025100
871
SAPM31 MPTO 101600
METAR
MPBO 101600Z 26004KT  230V330 9000 FEW020TCU SCT080 Q1016=
MPDA 101600Z 23006KT 9999 SCT020 30/22 Q1010=
MPMG 101600Z 33010KT 9000 SCT020TCU 30/23 Q1011 NOSIG=
MPPA 101600Z 01012KT 9000 FEW020 Q1012=

0000008700
872
SAAL31 DAAA 101530 RRA
METAR DABB 101530Z 05006KT CAVOK 19/12 Q1016=

0000009700
873
SARM31 LUKK 101600
METAR LUBL 101600Z AUTO 29013KT 9999 ///077/// 06/03 Q1009=

0000010100
874
SAMR20 TFFF 101600
METAR TFFF 101600Z AUTO 07018KT 9999 SCT036 BKN049 28/20 Q1016=

0000010200
875
SANO36 ENMI 101550 RRA
METAR ENNM 101550Z 06014KT 9999 FEW032 BKN080 M08/M14 Q1003=

00000000