0000015000
649
SNDL23 EDZW 111000 CCC
AAXX 11101
10609 41235 82502 10016 20016 39851 40189 53013 72854 875//
  333 55300 20207 30202 82706 87640=
0000003900
650
UECE01 FEFF 111200
NIL=
0000026400
651
SMKZ01 UAAA 111200 RRA
AAXX 11121
35925 42698 62502 10022 21001 30070 40181 57004 84530 555   1/100=
38001 42997 83603 10066 20033 30154 40125 57010 8807/ 555   10005=
38232 41598 51204 10062 20032 30071 40158 57019 70241 85500 555  
1/006=
0000028600
652
SMBW40 VGDC 111200 RRB
AAXX 11124
41951 32940 00000 10190 20170 30145 40150 333 10275
58008 70000=
41958 31950 10000 10212 20150 30141 40143 70500 80001
333 10260 56009 59008 70000 81080=
41966 31930 00901 10194 20130 30070 40151 70500 333
10279 58011 70000=
0000011200
653
SMAR20 OEJD 111200 RRA
AAXX 11124
41316 36/88 /1312 10248 20151 30135 40160
333 0E020 58000=
0000099000
654
SMFJ01 NFFN 111200
AAXX 11124
91650 NIL=
91652 14/// /2202 10253 20235 39989 40062 55004 60001
  333 10334=
91656 NIL=
91659 11599 31215 10270 2022/ 40062 58004 60001 70100 83800
  333 10313 562// 81826=
91660 14/// /1107 10269 20231 39997 40058 55001 60001
  333 10336=
91669 14/// /1608 10259 20212 30046 40059 55001 60001
  333 10336=
91670 14/// /1608 10275 20235 30055 40061 50000 60001
  333 10330=
91676 14/// /1804 10259 20246 39980 40040 55007 60061
  333 10325=
91680 11698 20804 10243 20215 40066 58002 60001 70300 82800
  333 10324 569// 81830=
91682 14/// /0301 10240 20223 30062 40073 55003 60001
  333 10313=
91683 11598 31805 10259 20234 40066 58004 60001 70211 83800
  333 10312 569// 83820=
91691 14/// /1705 10274 20248 30046 40049 55006 60051
  333 10311=
91693 NIL=
91697 14/// /1503 10246 20225 30055 40060 55005 60021
  333 10305=
91699 14/// /1708 10262 20229 30021 40053 55004 60001
  333 10322=
0000022800
655
SMVE01 AMMC 111200 RRA
BBXX
VNAH 11124 99383 31416 46/// /1805 10162 20121 30201 40225 52006
22200 04176 85138=
VHAF 11124 99394 31450 41298 72419 10150 20132 40201 58005 70011
87580 22243 20301 80140=

0000233200
656
SMRA14 RUHB 111200
AAXX 11121
21802 12999 01405 11380 21402 30231 40259 58005 60002 333 11380=
24125 12998 01102 11458 21480 39982 40317 58009 60002 333 11414=
24136 12999 00000 11486 21511 30224 40346 58006 60002 333 11484=
24143 12999 00000 11460 21492 30315 40375 52008 60002 333 11435=
24266 42997 80000 11433 21454 30153 40361 58002 77171 80007=
24329 NIL=
24343 11996 51101 11475 21500 30235 40379 54000 60002 71022 82032 333
11473=
24382 41998 80000 11283 21306 30043 40321 58004 70272 8807/=
24639 11994 02401 11442 21475 30212 40395 58009 60002 71000 333
11424=
24641 12999 32401 11429 21468 30223 40393 58004 60002 80001 333
11426=
24652 12997 00601 11485 21506 30243 40394 54000 60002 333 11470=
24656 12999 00000 11485 21506 30275 40401 58001 60002 333 11459=
24671 42699 81604 11413 21431 39756 40351 53009 77172 83601=
24688 41998 00000 11483 21499 39292 40390 52008 70400=
24724 11999 02104 11399 21427 39775 40396 58006 69902 70230 333
11399=
24738 11994 01902 11401 21427 30198 40406 58008 60002 71000 333
11401=
24768 12998 00000 11451 21484 30119 40400 52002 60002 333 11437=
24923 11999 80000 11456 21492 30076 40448 57008 69902 70272 84031 333
11433=
24944 11995 62601 11437 21457 30095 40045 58003 69902 71072 80001 333
11437=
24951 11999 22502 11426 21462 30229 40429 54000 60002 70230 80001 333
11425=
24661 11997 00000 11494 21516 30071 40395 52004 60002 74000 333
11474=
24959 11995 00000 11437 21474 30244 40398 52001 60002 71000 333
11413=
24962 11995 80000 11432 21450 30180 40404 52003 60002 71022 80008 333
11432=
24966 41998 80000 11399 21434 30132 40387 52006 77172 82037=
24967 12999 80000 11435 21456 30166 40427 52005 60002 80001 333
11383=
25206 41999 60000 11388 21411 30256 40288 52005 70272 80001=
25400 41498 83303 11248 21273 30218 40279 57002 77172 8372/=
30054 11996 00000 11466 21502 30167 40461 57011 60002 71041 333
11443=
30089 12999 00000 11496 21518 30214 40490 54000 60002 333 11446=
30393 12999 23401 11384 21408 39244 40461 52001 60002 80001 333
11365=
30493 12999 01103 11353 21390 39218 40418 52014 69902 333 11338=
31004 12999 80000 11384 21413 39479 40455 52001 60002 80007 333
11339=
31137 11997 80000 11331 21341 39209 40379 52005 69902 77172 80007 333
11323=
0000023300
657
SMVS40 VNNN 111200
AAXX 11121
48866 32998 70903 10201 20159 39295 40180 52022 8703/ 333 00022 10267 58002 70000 87399=
48875 32598 80506 10218 20172 39620 40157 52020 888// 333 00024 10276 58004 70000 83895 88696=
0000050500
658
SMBZ01 SBBR 111200 RRA
AAXX 11124
82141 21798 60000 10248 20248 30110 40122 75162 84270 333 20220 59005 60324=
82181 21597 80000 10249 20227 30015 40157 70352 8192/ 333 20228 58010 69924=
82198 32495 40908 10296 20247 30068 40119 82260 333 20242 59017=
82361 21597 63602 10258 20237 30103 40141 70262 84130 333 20226 58001 60104=
82476 21595 60903 10277 20223 30004 40122 72022 85540 333 20241 59004 69944=
82861 22597 61802 10257 20235 39933 40103 84230 333 20227 58001 60174=
0000037700
659
SMVD15 KWNB 111200 RRN
BBXX
44064 11121 99370 70760 46/// /1605 10118 40133 91220 333 91206
555 11054 22059=
44062 11121 99386 70764 46/// /1806 10056 40122 91220 333 91207
555 11069 22075=
44041 11121 99372 70768 46/// /1504 10115 91220 333 91205 555
11040 22044=
44042 11121 99380 70763 46/// /1705 10086 40117 91220 333 91205
555 11052 22057=
0000033100
660
SMJD01 OJAM 111200
AAXX 11124
40250 32660 40111 10088 20041 39413 40227 57007 84800 82830 82635=
40265 31558 22404 10130 21036 39432 40237 58016 70511 82100 333
82825=
40296 32660 60000 10196 20134 40242 57006 86800 333 84830 82630=
40310 32560 63210 10094 20030 39008 48545 54002 333 86800 84825
84625=
0000032100
661
USMK01 AMMC 111200
TTAA 61111 94998 99987 04015 27021 00605 ///// ///// 92527 00224
26541 85197 04926 26542 70697 13556 26034 50520 24136 27535 40680
34948 28038 30874 46368 28544 25996 41384 26546 20148 41187 26049
15342 44985 25050 10611 48784 26029 88319 48531 28544 88163 44985
26543 77999=

0000048700
662
UKMK01 AMMC 111200
TTBB 61118 94998 00987 04015 11961 03039 22870 04107 33837 05537
44776 10502 55761 09545 66715 12559 77693 13949 88655 15571 99637
16962 11525 22572 22517 23359 33511 23137 44442 30120 55391 36156
66319 48531 77310 46562 88304 47566 99282 43177 11233 40186 22163
44985 33100 48784 21212 00987 27021 11969 27031 22915 26542 33771
26525 44642 26538 55312 29049 66281 27036 77178 25549 88162 26543
99152 25551 11100 26029 31313 48008 81116=

0000216500
663
SZNZ01 NZKL 111230
CREX++
T000103 A001 D01021 D06025++
-3683144 17478654 AUCT  2014 01 11 12 22 //// 11 07 00 01
04727 3228 04737 3229 04745 3229 04753 3229 04763 3230 04770 3229+
-4402404 -17636748 CHIT  2014 01 11 12 22 //// 11 07 00 01
05269 2063 05274 2066 05283 2072 05301 2089 05284 2069 05293 2076+
-4089929 17623168 CPIT  2014 01 11 12 22 //// 11 07 00 01
04284 2301 04289 2302 04303 2312 04292 2297 04301 2302 04318 2315+
-3618905 17548887 GBIT  2014 01 11 12 22 //// 11 07 00 01
05605 0007 05622 0019 05636 0027 05649 0035 05648 0028 05638 0012+
-3867541 17802288 GIST  2014 01 11 12 22 //// 11 07 00 01
04146 2711 04154 2714 04156 2712 04154 2705 04168 2714 04178 2719+
-4241288 17370277 KAIT  2014 01 11 12 22 //// 11 07 00 01
03845 2237 03848 2237 03852 2237 03849 2231 03858 2237 03856 2231+
-3755040 17815904 LOTT  2014 01 11 12 22 //// 11 07 00 01
03434 0214 03422 0196 03437 0206 03439 0203 03439 0198 03460 0213+
-3704657 17451175 MNKT  2014 01 11 12 22 //// 11 07 00 01
01764 -0164 01772 -0154 01764 -0160 01789 -0134 01762 -0159 01771 -0149+
-3947566 17692007 NAPT  2014 01 11 12 22 //// 11 07 00 01
03318 2033 03328 2038 03323 2029 03335 2036 03337 2034 03342 2035+
-3441483 17304870 NCPT  2014 01 11 12 22 //// 11 07 00 01
-04549 -8439 -04530 -8425 -04567 -8467 -04562 -8467 -04540 -8450 -04550 -8465+
-4581435 17062939 OTAT  2014 01 11 12 22 //// 11 07 00 01
05391 3492 05393 3493 05393 3493 05393 3492 05395 3492 05395 3492+
-2928002 -17789440 RBCT  2014 01 11 12 22 //// 11 07 00 01
05815 1958 05813 1953 05835 1971 05847 1979 05843 1972 05828 1952+
-2925114 -17790384 RFRT  2014 01 11 12 22 //// 11 07 00 01
02776 0171 02776 0167 02781 0168 02771 0154 02777 0156 02814 0190+
-4357010 17277383 SUMT  2014 01 11 12 22 //// 11 07 00 01
02723 1899 02703 1876 02718 1887 02726 1891 02711 1873 02723 1881+
-3764109 17618118 TAUT  2014 01 11 12 22 //// 11 07 00 01
04904 4045 04909 4045 04915 4046 04921 4046 04927 4047 04934 4048+
-4128448 17477985 WLGT  2014 01 11 12 22 //// 11 07 00 01
03542 2009 03545 2010 03548 2010 03555 2015 03557 2014 03561 2016++
7777
0000052000
664
UKCN01 CWAO 111200
TTBB  61128 71603 00024 04603 11974 03600 22949 04400 33829
01009 44805 00714 55766 04101 66758 03715 77752 02758 88667
08159 99628 11965 11613 11570 22595 11976 33590 12160 44587
12359 55579 12359 66557 14145 77500 18959 88436 26761 99408
29360 11393 31957 22373 34757 33355 37361 44284 50934 55254
57139 66246 58757 77217 65356 88203 64556 99158 73136 11152
73539 22148 70748 33147 68356 44145 65158 55138 62567 66131
63971 77118 63175 88100 67572 31313 48008 81115=

0000033100
665
SMJD50 OJAM 111200
AAXX 11124
40250 32660 40111 10088 20041 39413 40227 57007 84800 82830 82635=
40265 31558 22404 10130 21036 39432 40237 58016 70511 82100 333
82825=
40296 32660 60000 10196 20134 40242 57006 86800 333 84830 82630=
40310 32560 63210 10094 20030 39008 48545 54002 333 86800 84825
84625=
0000026600
666
UGCN01 CWAO 111200
PPBB  61128 71603 90012 19003 19018 21526 90345 23022 22526
25535 90678 26539 26542 27037 909// 27543 91246 27549 27545
28551 9205/ 29052 28578 93057 29582 30099 30606 939// 29084
94489 28609 30080 29069 9502/ 28069 29072=

0000031000
667
USCN01 CWAO 111200
TTAA  61121 71603 99024 04603 19003 00199 04600 19016 92833
03601 23521 85517 01600 26036 70061 05959 27544 50563 18959
29057 40725 30759 29072 30923 47746 29581 25040 57956 30095
20178 64750 29586 15349 72141 28607 10596 67572 29072 88158
73136 28600 77149 28609=

0000057200
668
SMBZ31 SBBR 111200 RRA
AAXX 11124
82098 21495 80506 10241 20230 30108 40126 76162 8597/ 333 20203 59019 60094=
82246 21496 83602 10238 20236 39940 40140 7036/ 887// 333 20213 59001 60014=
82445 21496 80000 10250 20240 30106 40158 70266 8277/ 333 20239 59011 60074=
82460 32597 20501 10281 20238 30091 40120 82200 333 20219 59006=
82562 21598 63601 10250 20231 3//// 4//// 70362 86200 333 20215 5//// 60094=
82571 32497 43602 10263 20227 39947 40121 82231 333 20237 59011=
82765 22598 60000 10270 20237 39916 40155 82130 333 20233 59004 69934=
00000000