0000011600
356
SMVF51 EGRR 111200
BBXX
62303 11124 99516 70051 46/// /3405 10077 20013 40209 22200 10603
70013=
0000014400
357
SMVF51 EGRR 111200
BBXX
62095 11124 99529 70156 46/// /1720 10094 20042 40121 57006 22200
00111 10807 70035 333 90710 91131=
0000014400
358
SMVF51 EGRR 111200
BBXX
62170 11124 99514 10020 46/98 /2821 10075 20029 40185 51036 22200
00106 10501 70006 333 90710 91125=
0000169100
359
SASA85 EGRR 111200 RRC
METAR SACO 111200Z 14010KT CAVOK 23/10 Q1021=
METAR SAEZ 111200Z 15014KT 120V190 CAVOK 19/08 Q1018=
METAR SARF 111200Z 20020KT 9999 FEW020 FEW040 29/23 Q1011=
METAR SBLO 111200Z 10004KT CAVOK 27/20 Q1017=
METAR SBMQ 111200Z 12007KT 3000 -RA BKN010 BKN080 24/23 Q1014=
METAR SBPB 111200Z 09015KT 9999 FEW020 31/23 Q1012=
METAR SBUG 111200Z 07010KT 8000 -RA BKN010 BKN014 OVC100 20/19 Q1012
      RETS=
METAR SCAR 111200Z 02003KT CAVOK 23/16 Q1011=
METAR SCCI 111200Z 27022KT 9999 SCT030 BKN100 12/06 Q1006 NOSIG=
METAR SCIE 111200Z 19005KT CAVOK 17/09 Q1013=
METAR SCTE 111200Z 15012KT 9999 BKN013 13/10 Q1021 NOSIG=
METAR SLCB 111200Z 00000KT 9000 FEW027 FEW030CB SCT200 18/10 Q1026=
METAR SLCO 111200Z 00000KT 9999 FEW005 BKN080 25/24 Q1011=
METAR SLET 111200Z 32014KT 9999 BKN006 BKN010 24/22 Q1012=
METAR SLLP 111200Z VRB02KT 6000 FEW003 SCT013 BKN200 07/05 Q1037=
METAR SLPS 111200Z 00000KT 9999 NSC 30/23 Q1011=
METAR SLSU 111200Z 00000KT 9999 FEW015 15/13 Q1030=
METAR SLTJ 111200Z 00000KT 9999 FEW030 22/18 Q1019=
METAR SLTR 111200Z 36008KT 9999 SCT080 26/24 Q1012=
METAR SLVR 111200Z 34008KT 9999 BKN007 OVC015 24/23 Q1013=
METAR SMJP 111200Z 12008KT 5000 RA FEW006 SCT040 23/22 Q1015 NOSIG=
METAR SOCA 111200Z AUTO 00000KT 9999 BKN004/// OVC008/// ///TCU 23/22
      Q1014=
METAR SPRU 111200Z 12005KT 090V150 9000 FEW005 OVC040 20/19 Q1012 RMK
      BR PP000=
METAR SVBM 111200Z 05003KT 9999 FEW016 BKN060 20/18 Q1018=
METAR SVGU 111200Z 00000KT 9999 FEW020 SCT070 21/16 Q1013=
METAR SVSP 111200Z 06010KT 8000 +HZ BKN030 XX/XX Q1014=
METAR SVVA 111200Z 02003KT 9999 FEW016 22/20 Q1017=
0000066500
360
FTMX42 KWBC 101636
TAF
TAF MMSP 101633Z 1018/1124 23015KT P6SM SCT025 TX24/1021Z
      TN03/1112Z
     FM110300 30005KT P6SM SKC
      BECMG 1109/1110 3SM BR
     FM111500 10010KT 6SM HZ SCT020 BKN080
     FM112000 11015KT P6SM SCT025 BKN100=
TAF MMTC 101635Z 1018/1118 23012KT P6SM BKN080 BKN250
     FM110100 30010KT P6SM SCT100 BKN250=
TAF MMZC 101633Z 1018/1124 24015KT P6SM SCT200 TX21/1021Z
      TN03/1112Z
     FM110300 20010KT P6SM SKC
     FM111700 15015KT P6SM SCT030 BKN080=
TAF MMZO 101633Z 1018/1118 23010KT P6SM SCT100 SCT250
     FM110300 04006KT P6SM SCT020 BKN100
     FM111500 23008KT P6SM SCT100=

0000025700
361
FTUS52 KWBC 101636 AAA
TAF AMD
KALI 101635Z 1017/1112 19011KT P6SM SCT025 BKN050
      TEMPO 1017/1020 BKN025 OVC050
     FM102200 18008KT P6SM SCT030 SCT050
     FM110300 21005KT P6SM SCT250
     FM110800 VRB03KT 2SM BR SCT250=

0000034500
362
FTUS53 KWBC 101636 AAA
TAF AMD
KCGI 101633Z 1017/1112 16008KT P6SM VCSH BKN015
      TEMPO 1017/1020 3SM SHRA BR BKN008
     FM102000 17011KT 6SM -SHRA BR BKN012
      TEMPO 1020/1024 3SM SHRA BR BKN006
     FM110000 18013KT 1SM RA BR OVC003
     FM110600 21012KT 3SM BR OVC010
     FM110900 24010KT P6SM SCT015=

0000026300
363
FTUS54 KWBC 101636 AAA
TAF AMD
KCEC 101633Z 1017/1112 16009KT 4SM BR OVC003
      TEMPO 1017/1019 1SM BR
     FM102000 16010KT 6SM -DZ SCT012 BKN025
     FM110600 17015G25KT 4SM RA BKN005 OVC020
     FM110900 17025G35KT 4SM RA OVC005=

0000028300
364
FTUS80 KWBC 101636 AAB
TAF AMD
KMEM 101633Z 1017/1112 16010KT P6SM SCT007 BKN100
     FM101800 17012G22KT P6SM SCT025 BKN080
      TEMPO 1022/1024 4SM -SHRA BKN025
     FM110000 19015G25KT 4SM -RA BR VCTS OVC008CB
     FM110800 24014KT 6SM -RA BR BKN012=

0000133200
365
FTUS80 KWBC 101636 AAA
TAF AMD
KALI 101635Z 1017/1112 19011KT P6SM SCT025 BKN050
      TEMPO 1017/1020 BKN025 OVC050
     FM102200 18008KT P6SM SCT030 SCT050
     FM110300 21005KT P6SM SCT250
     FM110800 VRB03KT 2SM BR SCT250=
KCEC 101633Z 1017/1112 16009KT 4SM BR OVC003
      TEMPO 1017/1019 1SM BR
     FM102000 16010KT 6SM -DZ SCT012 BKN025
     FM110600 17015G25KT 4SM RA BKN005 OVC020
     FM110900 17025G35KT 4SM RA OVC005=
KCGI 101633Z 1017/1112 16008KT P6SM VCSH BKN015
      TEMPO 1017/1020 3SM SHRA BR BKN008
     FM102000 17011KT 6SM -SHRA BR BKN012
      TEMPO 1020/1024 3SM SHRA BR BKN006
     FM110000 18013KT 1SM RA BR OVC003
     FM110600 21012KT 3SM BR OVC010
     FM110900 24010KT P6SM SCT015=
KCRP 101634Z 1017/1112 17015KT P6SM SCT007 BKN025 OVC040
      TEMPO 1017/1019 2SM -DZ BR BKN015
     FM102000 18013KT P6SM BKN025 OVC050
     FM110000 19008KT P6SM SCT050
     FM110400 21004KT 4SM BR SCT005 SCT035
     FM110700 VRB03KT 1SM BR BKN005=
KLIT 101634Z 1017/1112 12008KT 4SM BR VCSH BKN008 OVC015
      TEMPO 1017/1020 P6SM NSW BKN015 OVC030
     FM102000 17010G16KT 5SM -RA BR VCTS SCT005 OVC025CB
      TEMPO 1020/1024 2SM RA BR OVC005
     FM110000 22010G16KT 4SM RA BR BKN010 OVC020
     FM110900 27010KT P6SM SCT025 SCT100=

0000154000
366
SPUS70 KWBC 101636
SPECI
KTTS 101628Z AUTO 10007KT 10SM SCT007 BKN014 BKN022 24/18 A3018
     RMK AO2 CIG 014V021 $=
KACV 101632Z AUTO 15004KT 1 3/4SM R32/4500VP6000FT BR OVC004 10/09
     A3027 RMK AO2 T01000089=
KAKO 101632Z AUTO 31021G28KT 10SM BKN032 BKN041 OVC049 M01/M12
     A2967 RMK AO2 PK WND 31039/1558 SNE11 P0000 T10061117=
KHRO 101632Z AUTO 17013G23KT 2 1/2SM RA BR FEW005 BKN049 OVC065
     09/09 A2983 RMK AO2 LTG DSNT N AND NW P0002=
KMMK 101632Z AUTO 00000KT 1 1/2SM -SN BR OVC006 M02/M04 A3045 RMK
     AO2 P0000 T10221039 TSNO=
KMWL 101632Z AUTO 15007KT 1 3/4SM -RA BR OVC090 13/13 A2983 RMK
     AO2 P0002 T01280128=
KNEW 101632Z 10008KT 4SM BR OVC002 12/11 A3013 RMK AO2
     T01170111=
KY50 101632Z AUTO 15006KT 1 1/2SM BR OVC002 M03/ A2991 RMK AO2
     TSNO $=
PAMB 101632Z AUTO 04006KT 1SM BR OVC003 M03/M03 A2943 RMK AO2 TSNO
     $=
KHYI 101633Z 20011KT 5SM BKN008 BKN015 OVC021 18/16 A2996 BR=
KISW 101633Z AUTO 17009KT 2SM BR OVC004 M04/M04 A2989 RMK AO2
     T10391044=
KMEB 101633Z AUTO 08005KT 2SM RA BR BKN045 OVC065 10/10 A3029 RMK
     AO2 P0004 T01000100=
KSMQ 101633Z AUTO 35005KT 5SM BR SCT012 BKN017 OVC048 M01/M03
     A3043 RMK AO2 UPE27 P0000 T10111028 TSNO=
KTOI 101633Z AUTO 08004KT 1 3/4SM BR OVC003 11/09 A3019 RMK AO2
     T01060094=
PAJZ 101637Z AUTO 31003KT 3SM BR OVC004 M06/M07 A2952 RMK AO2
     PWINO TSNO $=
PAPB 101633Z AUTO 26005KT 10SM FEW013 BKN021 01/00 A2917 RMK AO2
     SNE02 P0000 T00060000 TSNO=

0000009300
367
SPUS42 KWBC 101636
SPECI
KNEW 101632Z 10008KT 4SM BR OVC002 12/11 A3013=

0000004200
368
SAHA31 KWBC 101630
NIL=

0000004200
369
SAJP31 KWBC 101630
NIL=

0000004200
370
SAJP41 KWBC 101630
NIL=

0000004200
371
SAJP42 KWBC 101630
NIL=

0000004200
372
SAJP43 KWBC 101630
NIL=

0000004200
373
SAJP44 KWBC 101630
NIL=

0000004200
374
SAJP45 KWBC 101630
NIL=

0000022700
375
SANZ31 NZKL 101630
METAR NZAA 101630Z AUTO 18004KT 9999 BKN042/// 16/12 Q1017 NOSIG=
METAR NZWN 101630Z AUTO 02005KT 9999 NCD 13/10 Q1016 NOSIG=
METAR NZCH 101630Z AUTO 00000KT 9999 NCD 08/08 Q1015 NOSIG=

00000000