0000011200
196
SACN62 CYMX 101600
METAR CYMX 101600Z 04003KT 8SM -SG OVC013 M12/M15 A3035 RMK ST8
 SLP286=

0000011900
197
SACN62 CYPA 101600
METAR CYPA 101600Z 22004KT 15SM SCT130 BKN250 M12/M13 A2938 RMK
 AC3CI4 SLP982=

0000011200
198
SACN62 CYND 101600
METAR CYND 101600Z 09005KT 6SM -SN OVC020 M09/M12 A3032 RMK SC8
 SLP274=

0000012500
199
SACN62 CYOW 101600
METAR CYOW 101600Z 08003KT 5SM -SN BR BKN012 OVC025 M09/M12 A3030 RMK
 SC7SC1 SLP268=

0000012300
200
SACN62 CYOJ 101600
METAR CYOJ 101600Z 00000KT 15SM -SN FEW036 BKN120 M19/M22 A2945 RMK
 SC1AC6 SLP008=

0000010300
201
SASW31 LSSW 101550 CCA
METAR COR LSZB 101550Z 30005KT 9999 FEW070 07/04 Q1018 NOSIG=

0000008900
202
SADO31 TDPD 101600
METAR TDPD 101600Z 10008KT 9999 BKN021 28/19 Q1018=

0000011100
203
SACN62 CYQL 101600
METAR CYQL 101600Z 26028G35KT 40SM SCT150 01/M06 A2944 RMK AC3
 SLP999=

0000010400
204
SASP36 LEMM 101600
METAR GEML 101600Z 05004KT 010V140 9000 SCT007 BKN010 16/14 Q1013=

0000011100
205
SACN62 CYQI 101600
METAR CYQI 101600Z 22011G16KT 15SM BKN020 00/M05 A3048 RMK SC7
 SLP326=

0000013900
206
SACN62 CYPW 101600
METAR CYPW 101600Z VRB02KT 20SM FEW006 FEW050 SCT220 01/01 A2993 RMK
 SF1SC1CI3 SF TR SC TR SLP139=

0000015700
207
SASP37 LEMM 101600
METAR LEBG 101600Z 03006KT CAVOK 11/06 Q1014=
METAR LEHC 101600Z NIL=
METAR LEBA 101600Z 00000KT CAVOK 14/07 Q1013=

0000010600
208
SACN62 CYQR 101600
METAR CYQR 101600Z 29008KT 15SM OVC014 M09/M10 A2942 RMK SC8 SLP005=

0000013500
209
SACN62 CYQM 101600
METAR CYQM 101600Z 23014KT 15SM FEW030 FEW150 FEW220 M07/M16 A3038
 RMK SC1AC1CI1 SC TR SLP293=

0000012900
210
SACN62 CYQB 101600
METAR CYQB 101600Z 25003KT 20SM FEW030 FEW090 BKN200 M15/M18 A3035
 RMK SC1AC1CI3 SLP286=

0000011200
211
SACN62 CYPL 101600
METAR CYPL 101600Z 20007KT 3SM -SN OVC007 M08/M10 A2958 RMK SF8
 SLP046=

0000011300
212
SACN61 CYPY 101600
METAR CYPY 101600Z AUTO 04005KT 7SM -SN OVC095 M17/M20 A2945 RMK
 SLP995=

0000015800
213
SATD31 TTPP 101600
METAR
TTPP 101600Z 12010KT 9999 SCT016 30/21 Q1014 NOSIG=
TTCP 101600Z 09016KT 9999 SCT015 SCT100 29/21 Q1015 NOSIG=

0000033400
214
SASP40 LEMM 101600
METAR LEGA 101600Z 00000KT 9999 FEW070 SCT110 14/02 Q1013=
METAR LEGT 101600Z 03003KT CAVOK 14/03 Q1014=
METAR LEMO 101600Z 00000KT CAVOK 14/10 Q1012
NOSIG=
METAR LERI 101600Z 00000KT 4000 BR SCT015 OVC030 12/09 Q1016
NOSIG=
METAR LERT 101600Z 05006KT 360V090 CAVOK 16/11 Q1012 NOSIG=

0000024900
215
SASP41 LEMM 101600
METAR LEAO 101600Z 00000KT CAVOK 12/06 Q1014=
METAR LEBT 101600Z NIL=
METAR LECV 101600Z 13001KT 9999 SCT070 14/M02 Q1015=
METAR LEEC 101600Z NIL=
METAR LELO 101600Z 11003KT 080V140 8000 NSC 08/06 Q1016=

00000000