0000171500
516
SASA85 EGRR 111200 RRD
METAR SABE 111200Z 14021KT CAVOK 19/06 Q1017=
METAR SAME 111200Z 18005KT CAVOK 25/05 Q1020=
METAR SARP 111200Z 07002KT 9999 TS SCT020 OVC045 FEW050CB 28/22 Q1012=
METAR SASA 111200Z 36002KT 9999 FEW030 BKN100 23/16 Q1017=
METAR SAVE 111200Z 23007KT CAVOK 10/02 Q1021=
METAR SAWE 111200Z 32012KT 9999 FEW020 SCT050 09/07 Q1005=
METAR SAZS 111200Z 00000KT CAVOK 12/05 Q1023=
METAR SBJP 111200Z 13008KT 9999 FEW006 BKN020 24/22 Q1015=
METAR SBPL 111200Z 10008KT 9999 SCT025 28/18 Q1016=
METAR SBRJ 111200Z 01005KT CAVOK 30/23 Q1014=
METAR SBSN 111200Z 00000KT 9999 SCT005 BKN100 26/22 Q1013=
METAR SBTF 111200Z 08004KT 9999 SCT008 BKN100 26/24 Q1013=
METAR SCBA 111200Z 30014KT CAVOK 10/04 Q1020=
METAR SCDA 111200Z 19002KT CAVOK 23/15 Q1012=
METAR SCEL 111200Z VRB02KT CAVOK 20/07 Q1012 NOSIG=
METAR SCFA 111200Z 26002KT CAVOK 21/16 Q1013 NOSIG=
METAR SCSE 111200Z 33003KT 9999 SCT009 OVC011 16/13 Q1013=
METAR SELT 111200Z 16007KT 6000 4000N BCFG SCT005 BKN020 11/11 Q1029=
METAR SPMS 111200Z /////KT 8000 BKN012 BKN100 24/23 Q1014 RMK RA MAD
      BIRD HAZARD 09/27 PP080=
METAR SUAA 111200Z 19015KT 9999 SCT026 BKN090 20/15 Q1015=
METAR SUCA 111200Z XXXXXKT CAVOK 21/11 Q1014=
METAR SUDU 111200Z 16019G29KT 9999 SCT017 OVC080 21/17 Q1013=
METAR SULS 111200Z 18012KT 9999 FEW023 BKN200 22/13 Q1013=
METAR SUSO 111200Z 18010KT 9999 BKN010 OVC060 23/22 Q1012=
METAR SVBC 111200Z 00000KT 9999 FEW010 22/22 Q1014=
METAR SVMC 111200Z /////KT 9999 FEW010 SCT070 22/19 Q1014=
METAR SVMD 111200Z 02008KT CAVOK 13/10 Q1021=
METAR SVSA 111200Z /////KT CAVOK 20/14 Q1012=
METAR SYCJ 111200Z 00000KT 9999 SCT016 22/22 Q1015 NOSIG=
0000011800
517
FTSA85 EGRR 111206
TAF SAME 111100Z 1112/1212 05005KT 9999 FEW040 SCT090 TX32/1120Z
     TN18/1210Z=
0000166800
518
SASA85 EGRR 111200 RRE
METAR SADF 111200Z 16012G24KT CAVOK 20/06 Q1017=
METAR SBEG 111200Z 07005KT 9999 FEW003 SCT010 BKN100 23/21 Q1014=
METAR SBPP 111200Z 30004KT CAVOK 29/19 Q1016=
METAR SBTE 111200Z 00000KT 9999 BKN012 BKN070 27/23 Q1013=
METAR SKBG 111200Z 04004KT 9999 FEW012 19/12 A3001=
METAR SKBO 111200Z 03003KT 9999 FEW017 10/08 A3031=
METAR SKBQ 111200Z 07004KT CAVOK 24/22 A2988=
METAR SKCG 111200Z VRB02KT CAVOK 23/22 A2984=
METAR SKCL 111200Z 00000KT 3000 -DZ BR SCT008 OVC080 21/20 A3001 RMK
      AD OPER IMC=
METAR SKLT 111200Z VRB02KT 8000 VCSH FEW004 SCT010 BKN080 25/24 A2993=
METAR SKMD 111200Z 00000KT 9999 6000S SCT025 BKN080 19/17 A3009 RMK
      HZ=
METAR SKPE 111200Z 07003KT 9999 FEW016 SCT070 19/17 A3010=
METAR SKSM 111200Z 00000KT 9999 NSC 22/19 A2986=
METAR SLCA 111200Z 00000KT 9999 NSC 24/21 Q1015=
METAR SLCP 111200Z 00000KT 9999 OVC004 23/23 Q1016=
METAR SLJE 111200Z 00000KT 9999 FEW010 27/23 Q1016=
METAR SLJO 111200Z 00000KT 9999 SCT020 BKN080 25/24 Q1011=
METAR SLMG 111200Z 00000KT 9999 FEW008 BKN080 25/24 Q1013=
METAR SLOR 111200Z 08008KT 9999 FEW015 11/04 Q1034=
METAR SLPO 111200Z 00000KT 9999 NSC 08/01 Q1039=
METAR SLRB 111200Z 33006KT 9999 NSC 27/24 Q1014=
METAR SLRI 111200Z 00000KT 9999 SCT008 BKN020 BKN080 25/24 Q1012=
METAR SLRQ 111200Z 00000KT 0300 -DZ OVC002 23/23 Q1011=
METAR SLRY 111200Z 34004KT 9999 BKN006 OVC080 24/22 Q1012=
METAR SLSA 111200Z 36004KT 9999 FEW010 BKN080 25/24 Q1012=
METAR SLSI 111200Z 00000KT 9999 BKN015 24/22 Q1014=
METAR SLVM 111200Z 36008KT 9999 NSC 28/22 Q1009=
METAR SLYA 111200Z 36006KT 9999 NSC 25/22 Q1010=
0000160400
519
SASA85 EGRR 111200 RRF
METAR SAAR 111200Z 14008KT CAVOK 19/11 Q1017=
METAR SANT 111200Z 14006KT 1800 +TSRA BKN005 SCT045CB OVC050 23/21
      Q1015=
METAR SAOC 111200Z 09002KT CAVOK 17/11 Q1019=
METAR SARC 111200Z 14016KT 8000 -TSRA FEW008 OVC040 FEW045CB 20/19
      Q1013=
METAR SARE 111200Z 20007KT 2500 TSRA FEW025 OVC040 FEW056CB 20/19 Q1014=
METAR SASJ 111200Z 14006KT 9999 FEW040 SCT100 25/20 Q1014=
METAR SAWG 111200Z 32014KT 8000 SCT020 BKN040 10/08 Q1011=
METAR SAZM 111200Z 20008KT 9999 BKN025 17/09 Q1019=
METAR SAZN 111200Z 05005KT CAVOK 19/02 Q1020=
METAR SBBH 111200Z 08009KT 9999 SCT030 26/17 Q1020=
METAR SBDN 111200Z 05004KT CAVOK 28/18 Q1016=
METAR SBGW 111200Z 08004KT 9999 FEW020 27/19 Q1017=
METAR SBHT 111200Z 05003KT 9999 SCT010 BKN090 25/25 Q1014=
METAR SBIH 111200Z 00000KT 9999 FEW010 BKN100 25/23 Q1013=
METAR SBIL 111200Z 11008KT 8000 VCSH SCT023 FEW030TCU BKN100 28/23
      Q1016=
METAR SBJF 111200Z 34010KT 9999 BKN018 24/20 Q1021=
METAR SBKG 111200Z 14008KT 9999 BKN025 BKN100 26/18 Q1016=
METAR SBMK 111200Z 08007KT 9999 BKN030 25/17 Q1020=
METAR SBMS 111200Z 13006KT 9999 FEW030 32/19 Q1013=
METAR SBMT 111200Z 35005KT CAVOK 28/18 Q1018=
METAR SBST 111200Z 20005KT 9999 SCT035 30/25 Q1013=
METAR SBTC 111200Z 09003KT 9999 SCT015 BKN060 31/24 Q1017=
METAR SBTK 111200Z 36003KT 9999 BKN015 BKN100 24/23 Q1014=
METAR SBTU 111200Z ///// 9999 FEW012 BKN070 ///// Q1015=
METAR SBUR 111200Z 06009KT 9999 FEW030 27/18 Q1019=
METAR SKRG 111200Z 00000KT 9999 5000S BR FEW010 OVC070 14/14 A3028
      REDZ=
0000005700
520
UGBD20 WBSB 111200
PPBB  61121 96315 NIL=
0000013700
521
SIPH20 RPMM 110900 RRC
AAXX 11091
98336 21470 70406 10218 20192 30172 40177 56006 71522
8257/ 333 56199 82615 87356 =
0000016200
522
SMDO01 TDPD 111200
AAXX 11124
78906 11476 31106 10248 20174 30165 40170 60022 7808/ 83400
  333 10289 20221 58009 70017 83818 90999=



0000015200
523
SMDO01 TDPD 111200
AAXX 11124
78906 11476 31106 10248 20174 30165 40170 60022 7808/ 83400
  333 10289 20221 58009 70017 83818 90999=
0000008600
524
SAFC21 OEJD 111200 RRA
METAR
OERF 111200Z 30023KT CAVOK 10/04 Q1017=
0000008400
525
SASD20 OEJD 111200 RRA
METAR OERF 111200Z 30023KT CAVOK 10/04 Q1017=
0000026000
526
SMVS01 VNNN 111200
AAXX 11121
48855 32597 73401 10223 20203 30188 40196 52020 878// 333 00022 10249 58005 70000 83895 87697=
48848 01597 82701 10189 20180 30193 40201 52017 60034 70262 888// 333 01019 10212 58002 60022 7003
0 85895 88697=
0000015100
527
SMVS02 VNNN 111200
AAXX 11121
48852 12598 73601 10212 20198 30183 40193 52020 60014 878// 333 01022 10241 58003 70011 82895 8669
7=
0000005700
528
UHBD01 WBSB 111200
PPCC  61121 96315 NIL=
0000021000
529
SZSR01 WSSS 111214
CREX++
T000103 A001 D01021 D06025++
0126166 10385160 00044 2014 01 11 11 30 //// 11 07 00 06
02037 -0053 02054 -0056 02073 -0057 02095 -0055 02112 -0058 02121 -0059++
7777
0000014800
530
SMNO01 ENMI 111200 RRA
AAXX 11121
01300 41598 60402 10035 21015 40001 52009 70182 85/// 22200 02058
      10805 70024 333 91108=
0000021500
531
SMNO02 ENMI 111200 RRC
AAXX 11121
01400 41599 42911 10063 20005 40069 52006 70281 84360 22200 06075
      10604 70021 333 91113=
01447 16/// /2401 11017 21028 39309 49982 57003 60001 333 91102=
0000055300
532
SMSY01 OSDI 111200
AAXX 11121
40001 NIL=
40007 NIL=
40025 32560 32204 10180 20079 40221 56012 83400 333 83630=
40045 NIL=
40061 32970 22703 10118 20034 40194 57015 80001 333 82070=
40080 32960 02802 10136 20020 39497 40221 57022 70040=
40087 NIL=
40095 NIL=
SMSY20 OSDI 111200
AAXX 11121
40009 NIL=
40016 NIL=
40022 32565 21601 10186 20086 40211 57015 82100 222// 20000 333
82830=
40030 32970 00000 10162 20022 40209 57024=
40039 NIL=
40066 32970 00000 10168 21057 40215 56010=
40072 NIL=
40083 NIL=
0000084100
533
SMDR01 MDSD 111200
AAXX 11121
78458 21466 50000 10208 20199 40190 52008 70362 82230 333 10293 
20188 31/// 56000 58003 60017 82816 83357=
78460 21459 50802 10204 20204 40196 51013 72166 85500 333 10278 
20186 31/// 56200 58010 69936 70039 85616=
78467 32466 10000 10194 20188 40186 5//// 81200 333 10282 20185 
30/// 56000 58006 81815=
78479 21458 50705 10224 20218 40191 53013 71561 85730 333 10192 
20224 31/// 56110 58004 60015 70015 85617=
78482 32466 11104 10240 20180 40177 5//// 81200 333 10310 20205 
30/// 56000 59001 81818=
78485 32466 20103 10200 20187 40188 52013 82200 333 10322 20197 
30/// 56000 58003 82818=
78486 31964 03602 10224 20203 40185 520134 70544 10310 20220 30/// 
50183 58009=
78488 2466 20000 10202 20193 40180 5//// 82500 333 10304 20164 30/// 
56000 58000 82614=
0000015600
534
SMNU01 TNCA 111200
AAXX 11124
78982 02475 50911 10252 20221 30154 40159 52023 60001 82600
333 10303 20243 58012 60007 70012 82818 84643=
0000028900
535
SMSY01 OSDI 111200
AAXX 11121
40001 NIL=
40007 NIL=
40025 32560 32204 10180 20079 40221 56012 83400 333 83630=
40045 NIL=
40061 32970 22703 10118 20034 40194 57015 80001 333 82070=
40080 32960 02802 10136 20020 39497 40221 57022 70040=
40087 NIL=
40095 NIL=
00000000