0000045600
996
SAUK38 EGGY 101620
METAR EGEC 101620Z NIL=
METAR EGEO 101620Z 25008KT 9999 FEW015 SCT030 07/03 Q1005=
METAR EGPA 101620Z 20009KT 9999 FEW012 06/04 Q1000=
METAR EGPC 101620Z 24008KT 9999 FEW025 05/02 Q1001=
METAR EGPL 101620Z 23018KT 9999 VCSH FEW012CB SCT042 05/02 Q1002=
METAR COR EGPM 101620Z 18007KT 9999 FEW010 05/04 Q0998 NOSIG=
METAR EGPO 101620Z 22009KT 9999 VCSH FEW009 SCT018CB 04/03 Q1001=
METAR EGPU 101620Z NIL=

0000043100
997
SASW32 LSSW 101620
METAR LSGC 101620Z VRB01KT 8000 NSC 03/03 Q1017=
METAR LSGS 101620Z VRB03KT 9999 SCT100 09/04 Q1018=
METAR LSZG 101620Z 08005KT 9999 SCT032 06/03 Q1019 NOSIG=
METAR LSZR 101620Z VRB01KT 9999 BKN050 06/03 Q1020 NOSIG RMK L=
METAR LSZS 101620Z VRB03KT 9999 FEW005 BKN075 M01/M01 Q1017
    R03/19//99=
METAR LSZC 101620Z AUTO VRB01KT 9999 BKN080 05/03 Q1019=
METAR LSZL 101620Z NIL=

0000018400
998
FTCN33 CWAO 101600 AAA
TAF AMD CYFS 101623Z 1016/1024 00000KT P6SM SCT020 TEMPO 1016/1024
     BKN020
     BECMG 1019/1021 32008KT
    RMK NXT FCST BY 101800Z=

0000067100
999
SASN32 ESWI 101620
METAR ESKN 101620Z 33011KT 9999 BKN011 M02/M04 Q0999 R26/710195=
METAR ESOE 101620Z 36007KT 9999 BKN014 M02/M04 Q1000=
METAR ESOK 101620Z 11002KT 9999 BKN017 M03/M04 Q1000=
METAR ESOW 101620Z 35009KT 9999 BKN013 M03/M06 Q1000 R01/750184=
METAR ESSA 101620Z 33014KT 9999 BKN007 M03/M04 Q0998 R01L/19//71
R08/19//58 R01R/19//68 BECMG OVC011=
METAR ESSB 101620Z 31013KT 6000 -SHRA OVC008 M02/M04 Q0998
R30/29//72=
METAR ESSD 101620Z AUTO 35005KT 9999 BKN017/// OVC022/// M06/M10
Q1000=
METAR ESSP 101620Z 31008KT 9999 BKN015 M02/M04 Q1000 R27/19//95=
METAR ESSV 101620Z 32017KT 9999 BKN012 00/M01 Q0998 R21/29//87=

0000011100
000
SAIO31 KWBC 101600 RRD
METAR
VRMM 101600Z 07013KT 9999 SCT018TCU BKN280 28/25 Q1013 NOSIG=

0000059800
001
FTCA32 KWBC 101624
TAF
TAF MDLR 101600Z 1018/1118 11010KT 9999 SCT022 PROB30 1018/1022
      7000 -SHRA BKN018
      BECMG 1101/1103 00000KT=
TAF MDPC 101600Z 1018/1118 11010KT 9999 SCT022 PROB30 1103/1109
      8000 -SHRA BKN016 SCT070=
TAF MDPP 101600Z 1018/1118 11010KT 9999 SCT020
      BECMG 1101/1103 00000KT=
TAF MDSD 101600Z 1018/1118 11010KT 9999 SCT020 PROB30 1018/1023
      7000 -SHRA BKN018
      BECMG 1102/1104 02006KT=
TAF MDST 101600Z 1018/1118 12010KT 9999 SCT022 PROB30 1018/1022
      7000 -SHRA BKN018
      BECMG 1103/1105 00000KT=

0000033500
002
FTCA33 KWBC 101624
TAF
TAF TBPB 101600Z 1018/1118 06020KT 9999 SCT018
      TEMPO 1100/1112 5000 SHRA BKN014 BKN035=
TAF TDPD 101600Z 1018/1118 09020KT 9999 SCT018
      TEMPO 1106/1112 5000 SHRA BKN014 BKN035=
TAF TVSV 101600Z 1018/1118 08015KT 9999 SCT018
      TEMPO 1100/1112 5000 SHRA BKN014 BKN035=

0000055500
003
FTUS41 KWBC 101624 AAA
TAF AMD
KDAY 101621Z 1016/1112 17007KT 2SM BR OVC004
      TEMPO 1016/1018 3/4SM BR VV002
     FM101800 17009KT 5SM BR OVC008
     FM110100 18012KT 4SM BR VCSH BKN012
     FM110300 17012G22KT 4SM -RA BR BKN010=
KILG 101623Z 1016/1112 05005KT 2SM -SHRA BR SCT010 OVC035
     FM101700 11004KT 2SM BR VCSH SCT010 OVC035
      TEMPO 1017/1020 4SM BR SCT005 BKN010
     FM102000 15004KT 4SM BR VCSH OVC010
     FM110000 15005KT 4SM BR OVC020
     FM110700 13010KT 2SM -RA BR OVC010 WS020/19050KT=

0000076300
004
FTUS71 KWBC 101624 AAA
TAF AMD
KDAY 101621Z 1016/1112 17007KT 2SM BR OVC004
      TEMPO 1016/1018 3/4SM BR VV002
     FM101800 17009KT 5SM BR OVC008
     FM110100 18012KT 4SM BR VCSH BKN012
     FM110300 17012G22KT 4SM -RA BR BKN010=
KILG 101623Z 1016/1112 05005KT 2SM -SHRA BR SCT010 OVC035
     FM101700 11004KT 2SM BR VCSH SCT010 OVC035
      TEMPO 1017/1020 4SM BR SCT005 BKN010
     FM102000 15004KT 4SM BR VCSH OVC010
     FM110000 15005KT 4SM BR OVC020
     FM110700 13010KT 2SM -RA BR OVC010 WS020/19050KT=
KLCK 101620Z 1016/1112 16007KT P6SM OVC005
      TEMPO 1016/1018 5SM BR OVC008
     FM101800 17009KT 5SM BR OVC012
     FM110500 17012KT P6SM VCSH BKN020
     FM110800 18012G22KT 5SM -RA BR BKN010=

0000064800
005
SASN33 ESWI 101620
METAR ESNG 101620Z 04006KT 330V070 CAVOK M16/M19 Q1010=
METAR ESNK 101620Z 33013KT 8000 -SN BKN019 M09/M13 Q1003=
METAR ESNN 101620Z 34011KT 9999 IC FEW018 SCT020 OVC030 M09/M12
Q1002 RESN RESG R16/75//63=
METAR ESNO 101620Z 35011KT 1600 SN VV015 M11/M14 Q1001=
METAR ESNQ 101620Z 01005KT 4100 -SN FEW004 OVC008 M15/M17 Q1010=
METAR ESNS 101620Z 36011KT 1700 SN VV008 M12/M13 Q1003=
METAR ESNU 101620Z 35015KT 8000 -SN OVC035 M10/M14 Q1001 R14/49//50=
METAR ESNZ 101620Z 04004KT 3900 -SN VV022 M14/M16 Q1001=
METAR ESUT 101620Z AUTO 08028G50KT 040V160 4400 -SN OVC100///
M13/M18 Q1001 RESN=

0000047400
006
SASN34 ESWI 101620
METAR ESCF 101620Z AUTO 35007KT 9999NDV OVC013/// M02/M04 Q1000=
METAR COR ESDF 101620Z 28005KT 9999 BKN020 03/01 Q1001=
METAR ESIB 101620Z AUTO 25008KT 9999NDV BKN016/// OVC072/// 00/M01 
Q1001=
METAR ESMV 101620Z NIL=
METAR ESPA 101620Z 02009KT 350V050 9999 -SN SCT024 M12/M15 Q1006=
METAR ESPE 101620Z AUTO 01010KT 6000NDV -SN OVC046/// M14/M17 
Q1007=
METAR ESSL 101620Z 33007KT 9999 OVC010 M02/M04 Q1000 R29/19//95=

0000042300
007
SASN35 ESWI 101620
METAR ESGR 101620Z NIL=
METAR ESKM 101620Z NIL=
METAR ESNL 101620Z 34011KT 9999 -SG FEW010 SCT013 OVC032 M14/M17
Q1004=
METAR ESNX 101620Z AUTO 02009KT 350V060 5000NDV -SN FEW017///
BKN033/// OVC066/// M15/M17 Q1004 RESG=
METAR ESNY 101620Z NIL=
METAR ESSF 101620Z NIL=
METAR ESSK 101620Z NIL=
METAR ESUD 101620Z AUTO 36005KT 9999 BKN022/// OVC045/// M14/M17
Q1004=

0000007700
008
FCFR23 LFPW 101400 AAB
TAF AMD LFOJ 101620Z 1016/1024 CNL=

0000009300
009
SAUK32 EGGY 101620 RRA
METAR EGPD 101620Z 23003KT CAVOK 06/04 Q1002 NOSIG=

0000010000
010
SAUK38 EGGY 101620 RRA
METAR EGEC 101620Z 26005KT 9999 FEW016 SCT042 06/03 Q1005=

0000018300
011
SAAF13 LFPW 101600 RRB
METAR GOGG 101600Z 36006KT CAVOK 29/14 Q1011=
METAR GOSS 101600Z 02008KT CAVOK 21/15 Q1012=
METAR GOTT 101600Z 36006KT CAVOK 32/11 Q1009=

0000046700
012
SASG21 GOOY 101600
METAR GOSS 101600Z 02008KT CAVOK 21/15 Q1012=
METAR GOSP 101600Z 04004KT CAVOK 23/10 Q1013=
METAR GOOG 101600Z 06004KT CAVOK 26/11 Q////=
METAR GOSM 101600Z 36006KT CAVOK 29/13 Q1011=
METAR GOOD 101600Z 36004KT CAVOK 27/09 Q1011=
METAR GOOK 101600Z 04006KT CAVOK 29/13 Q1011=
METAR GOTT 101600Z 36006KT CAVOK 32/11 Q1009=
METAR GOGG 101600Z 36006KT CAVOK 29/14 Q1011=
METAR GOGK 101600Z 36006KT CAVOK 31/12 Q1009=

0000013200
013
FCTA31 RUMS 101400 AAA
TAF AMD UTDD 101625Z 1016/1104 VRB03MPS 0300 FZFG VV002 TEMPO
1016/1104 0100 FZFG VV001=

0000007900
014
FCZA31 FAPR 101500
TAF FYWE 101400Z 1015/1024 34009KT CAVOK=

0000029200
015
FTSA41 KWBC 101624
TAF
TAF SKBG 101600Z 101818 VRB02KT 9999 FEW017 SCT200
      TEMPO 1019/1023 32008KT
      TEMPO 1018/1022 SCT017TCU
      TEMPO 1101/1105 00000KT FEW020
      TEMPO 1109/1112 8000 MIFG
      TEMPO 1113/1116 9000 BKN010 TX26/1018Z TN18/1111Z=

00000000