0000031100
716
SAHO31 MHTG 101600
METAR MHRO 101600Z 21005KT 9999 SCT020 27/22 Q1017 A3003 NOSIG=
METAR MHLC  101600Z 31003KT 9999 SCT022 BKN070 25/21 Q1017 A3003
NOSIG=
METAR MHLM  101600Z 11002KT 9999 FEW026 26/23 Q1017 A3003 NOSIG=
METAR MHTG  101600Z 01007KT 9999 BKN026 22/16 Q1021 A3015 NOSIG=

0000010500
717
SAUS71 KWBC 101500 RRK
METAR
KMTN 101545Z 00000KT 2SM -RA BKN003 OVC010 01/01 A3046=

0000172500
718
SPUS70 KWBC 101554
SPECI
PAKW 101550Z AUTO 18006KT 10SM FEW013 SCT018 OVC030 02/01 A2964
     RMK AO2 RAE50 P0003 TSNO=
KAFN 101550Z AUTO 22006KT 10SM BKN012 OVC038 M04/M07 A3041 RMK AO2
     SNE1454 P0000=
KALI 101550Z AUTO 16008KT 10SM SCT014 BKN021 OVC041 20/18 A2993
     RMK AO2 TSNO $=
KFFC 101550Z AUTO 09005KT 1 1/4SM BR OVC004 07/06 A3026 RMK
     AO2=
KMYV 101550Z AUTO 00000KT 2SM BR CLR 03/03 A3028 RMK AO2=
KROG 101550Z 18015KT 7SM VCTS RA SCT005 BKN011 OVC070 10/09 A2982
     RMK AO2 LTG DSNT ALQDS TSB13RAB05 P0017=
KASD 101551Z AUTO 10004KT 1 1/2SM BR OVC002 12/12 A3014 RMK AO2
     TSNO=
KBPI 101551Z AUTO 08011KT 4SM -SN BR SCT008 OVC021 M09/M12 A2983
     RMK AO2 P0000=
KEQY 101551Z AUTO 04006KT 2 1/2SM -RA BR OVC003 06/04 A3031 RMK
     AO2 P0000=
KPSF 101550Z AUTO 04004KT 3SM BR OVC018 M04/M06 A3037 RMK AO2
     SNB22E45 P0000=
KFWN 101551Z AUTO 00000KT 5SM BR OVC014 M03/M05 A3044 RMK AO2
     SNE09B11E49 P0000=
KGFK 101551Z 18016KT 1 1/2SM -SN BR SCT034 OVC044 M06/M08 A2946
     RMK AO2 TWR VIS 2 1/2 SNB37 P0000=
KICT 101551Z 22010G16KT 2 1/2SM BR OVC002 06/05 A2964 RMK AO2
     DZE20 CIG 003V006 P0000=
KINT 101551Z 03006KT 2SM -RA BR BKN003 OVC009 02/01 A3036 RMK AO2
     P0020=
KMMK 101551Z AUTO 00000KT 2SM -SN BR OVC023 M03/M04 A3048 RMK AO2
     SNE1455B41 P0000 TSNO=
KOWD 101551Z 00000KT 8SM SCT008 BKN026 OVC045 M02/M04 A3049 RMK
     AO2=
KFLD 101551Z AUTO 18011KT 4SM BR OVC005 M02/M03 A2996 RMK AO2=
KHOT 101551Z AUTO 07004KT 1/2SM FG OVC002 10/09 A2996 RMK AO2=
KSBM 101551Z AUTO 18011KT 2 1/2SM BR OVC005 M02/M02 A2999 RMK
     AO2=
KTYR 101551Z 18011KT 10SM OVC011 16/13 A2992 RMK AO2=

0000010000
719
SACS31 MROC 101600
METAR
MROC 101600Z 08012G22KT 9999 FEW030 25/14 A3003 NOSIG=

0000009900
720
SAQB31 LQBK 101600
METAR LQBK 101600Z 20004KT 6000 -RA BKN047 07/06 Q1020 NOSIG=

0000008900
721
SANO34 ENMI 101550 RRA
METAR ENBN 101550Z 08014KT CAVOK M06/M12 Q1005=

0000040400
722
SAFI34 EFHK 101550
EFET 101550Z AUTO 02002KT CAVOK M26/M29 Q1012=
EFIV 101550Z AUTO 23005KT 9999 -SG OVC006 M31/M34 Q1015=
EFKE 101550Z 02014KT 350V050 4000 -SN OVC034 M12/M14 Q1005=
EFKI 101550Z 05013KT 020V090 9999 -SG BKN020 BKN026 M09/M11 Q0998=
EFKS 101550Z AUTO 05006KT 350V120 3800 -SN OVC025 M15/M17 Q1004=
EFKT 101550Z 03006KT 350V070 CAVOK M18/M21 Q1011 R16/71//89=

0000010900
723
SASW39 LSSW 101550 RRA
METAR LSMP 101550Z AUTO 06003KT 9999NDV FEW074 07/04 Q1019 RMK BLU=

0000013100
724
FTTU32 LTAA 101100 AAC
TAF AMD LTFC 101554Z 1015/1112 VRB02KT 0400 FZFG VV001 BECMG
 1110/1112 2000 BR BKN005=

0000009700
725
SASN33 ESWI 101550 RRA
METAR ESNG 101550Z 05008KT 010V080 CAVOK M16/M19 Q1010=

0000031800
726
SANL31 EHDB 101555
METAR EHAM 101555Z 23011KT 9999 FEW017 07/05 Q1014 NOSIG=
METAR EHBK 101555Z AUTO 23010KT 9999 BKN019 BKN023 07/04 Q1017 NOSIG=
METAR EHGG 101555Z AUTO 24011KT 9999 NSC 06/04 Q1013 NOSIG=
METAR EHRD 101555Z AUTO 23011KT 190V260 9999 FEW016 BKN020 BKN025
08/05 Q1015 NOSIG=

0000019200
727
FTUS71 KWBC 101557 AAA
TAF AMD
KSBY 101554Z 1016/1112 VRB03KT 4SM -RA BR OVC025
      TEMPO 1016/1018 2SM -RA BR BKN003 BKN020
     FM101800 15004KT 4SM -RA BR OVC015=

0000040600
728
FTUS73 KWBC 101557 AAA
TAF AMD
KDEC 101554Z 1016/1112 15012KT 6SM BR VCSH OVC015
     FM101800 16017KT 2SM RA BR OVC002
     FM110100 18014KT 2SM -RA BR OVC004
     FM110800 23014KT 3SM -DZ BR OVC006=
KSPI 101555Z 1016/1112 16013KT 6SM BR VCSH OVC008
     FM101800 16017KT 2SM -RA BR OVC002
     FM110100 18014KT 2SM -RA BR OVC002
     FM110600 24012KT 3SM -DZ BR OVC006=

0000017800
729
FTUS74 KWBC 101557
TAF
TAF KRDM 101546Z 1016/1112 26012KT P6SM SCT090 BKN130
     FM101800 20015G21KT P6SM OVC050
     FM102300 19010KT P6SM VCSH OVC050=

0000047900
730
SPUS70 KWBC 101556
SPECI
KRST 101552Z 16011G19KT 1 1/2SM -FZRA BR OVC003 M03/M04 A2977 RMK
     AO2 UPB1456E1458FZRAB1455E1456B1458 P0000 I1002=
KWLD 101552Z AUTO 21013KT 3SM BR OVC002 07/07 A2965 RMK AO2=
KFIG 101552Z AUTO 36003KT 4SM BR OVC009 M01/M03 A3031 RMK AO2=
KLAF 101552Z 16005KT 3SM BR BKN005 OVC018 02/01 A3008 RMK AO2=
KALO 101552Z AUTO 15013KT 1SM R12/5000V5500FT -FZRA BR OVC004
     M02/M02 A2981 RMK AO2 FZRAB46 P0000 I1003 TSNO=

0000008400
731
SAAG41 SAZS 101600
METAR SAZS 101600Z  32015KT CAVOK 15/01 Q1018=

0000009700
732
SAUK36 EGGY 101550 CCB
METAR COR EGSD 101550Z 21011KT CAVOK 07/06 Q1013 NOSIG=

0000010300
733
SAMP31 LMMM 101600 RRB
METAR HLLB 101557Z
00000KT 9999 SCT020 BKN080 16/07 Q1024 =

0000011200
734
SAMF20 TFFR 101600
METAR TFFR 101600Z 08012KT 040V120 9999 SCT036 SCT066 28/19 Q1017
NOSIG=

0000063500
735
SAGR31 LGAT 101550
METAR LGAD 101550Z NIL=
METAR LGAV 101550Z 17006KT CAVOK 13/07 Q1018 NOSIG=
METAR LGIR 101550Z VRB03KT CAVOK 13/10 Q1020 NOSIG=
METAR LGKL 101550Z 02008KT 9999 FEW030 13/09 Q1021=
METAR LGKO 101550Z 00000KT 9999 SCT025 13/08 Q1020=
METAR LGKR 101550Z 00000KT 9999 SCT018 SCT025 BKN180 13/11 Q1020
      NOSIG=
METAR LGLM 101550Z 18007KT 9999 BKN016 13/10 Q1017=
METAR LGRP 101550Z 21003KT 9999 FEW018 15/09 Q1020 NOSIG=
METAR LGSA 101550Z 26008KT 9999 FEW020 14/10 Q1019=
METAR LGSM 101550Z NIL=
METAR LGTS 101550Z VRB02KT 9000 FEW020 SCT090 BKN180 11/08 Q1017
      NOSIG=

00000000