0000011500
976
SACN61 CYLW 101600
METAR CYLW 101600Z AUTO 16005KT 9SM BKN110 BKN240 00/M01 A2972 RMK
 SLP081=

0000013100
977
SACN61 CYNM 101600
METAR CYNM 101600Z AUTO 20011G17KT 190V250 9SM -SN BKN015 OVC055
 M08/M10 A2995 RMK SLP164=

0000015200
978
SACN62 CYOC 101600
METAR CYOC 101600Z VRB02KT 10SM IC VCFG FEW013 SCT021 BKN033 M37/M40
 A2966 RMK SF2ST2SC3 FROIN VIS NE 2 SLP091=

0000017700
979
SACY31 LCLK 101600
METAR LCLK 101600Z 35009KT 340V050 9999 FEW030 13/06 Q1020 NOSIG=
METAR LCPH 101600Z 01007KT CAVOK 14/00 Q1020=
METAR LCNC 101600Z NIL=

0000009400
980
SAAG41 SARI 101600
METAR SARI 101600Z  36008KT 9999  SCT030  32/22
Q1013=

0000012800
981
SACN61 CYPR 101600
METAR CYPR 101600Z AUTO 22007KT 9SM SCT028 BKN041 BKN060 BKN081 04/03
 A2974 RMK SLP073=

0000008900
982
SADO31 TDPD 101600
METAR TDCF 101600Z 22004KT 9999 FEW022 29/17 Q1016=

0000013200
983
FTFI31 EFHK 101400 AAB
TAF AMD EFOU 101602Z 1016/1115 06012KT 9999 -SN BKN035 TEMPO
     1016/1021 1200 BKN012=

0000022400
984
FTNG31 AMMC 101600
TAF AYPY 101600Z 1018/1118 VRB03KT 9999 -R ADZ Z SCT009 SCT025
     FM110500 24008KT 9999 -SHRA BKN025
     INTER 1006/1112 3000 TSRA BKN010 FEW020CB PROB40 1018/1021 0700
     FG=

0000009300
985
SAGR33 LGAT 101550 RRA
METAR LGMK 101550Z 22005KT 9999 FEW020 13/07 Q1018=

0000018800
986
FTRA33 RUMS 101400 AAB
TAF AMD UIBB 101602Z 1016/1115 10002MPS 0300 FG VV002 TEMPO 1020/1102
1400 SHSN BR BKN004 OVC010CB BECMG 1102/1103 3000 -SHSN BKN014CB
OVC100=

0000045700
987
FTCA32 KWBC 101603
TAF
TAF TAPA 101600Z 1018/1118 07015KT 9999 SCT020 PROB40
      TEMPO 1018/1106 09015G25KT SHRA BKN015=
TAF TKPN 101600Z 1018/1118 07015KT 9999 SCT020 PROB40
      TEMPO 1018/1106 09015G25KT SHRA BKN015=
TAF TQPF 101600Z 1018/1118 07015KT 9999 SCT020 PROB40
      TEMPO 1018/1024 09015G25KT SHRA BKN015=
TAF TUPJ 101600Z 1018/1118 07015KT 9999 SCT019 PROB40
      TEMPO 1018/1024 09015G25KT SHRA BKN015=

0000026100
988
SACZ31 LKPW 101600
METAR LKKV 101600Z 24007KT 9999 BKN035 03/M01 Q1016=
METAR LKMT 101600Z 22010KT CAVOK 05/M01 Q1016 NOSIG=
METAR LKPR 101600Z 24010KT 9999 BKN046 04/M01 Q1017 NOSIG=
METAR LKTB 101600Z 27009KT CAVOK 05/M02 Q1018 NOSIG=

0000045000
989
SAPL31 EPWA 101600
METAR EPGD 101600Z 29020KT 9999 -SHRA FEW011 BKN015CB
    05/03 Q1001 =
METAR EPKK 101600Z 24016KT 9999 BKN053 06/01 Q1014 =
METAR EPLL 101600Z 27018G32KT 9999 SCT028 BKN039 06/02
    Q1009 =
METAR EPPO 101600Z 26019KT 9999 -SHRA SCT021CB BKN047
    06/03 Q1010 R10/19//95 =
METAR EPRZ 101600Z 27018KT CAVOK 06/00 Q1012 =
METAR EPWA 101600Z 26020G32KT 230V290 9999 BKN023 06/03 Q1006
    NOSIG=

0000035400
990
SAIL31 BICC 101600
METAR BIAR 101600Z 33003KT 270V070 9999 BKN036 02/M02 Q0996=
METAR BIEG 101600Z 09029G41KT 9999 -RA SCT018 BKN033 BKN055 02/00
Q0997 RMK
R04/290067 RWY SANDED=
METAR BIKF 101600Z 13019G29KT 5000 RASN FEW005 BKN009 OVC017 01/00 
Q0987=
METAR BIRK 101600Z 12021KT 8000 RA FEW010 SCT018 BKN045 02/M00 Q0988=

0000046600
991
SAPL32 EPWA 101600
METAR EPBY 101600Z 26019KT 9999 BKN020 OVC027 06/04
    Q1006 =
METAR EPKT 101600Z 24016KT 9999 FEW036 05/M00 Q1013 =
METAR EPLB 101600Z 26022G32KT 9999 BKN030 06/02 Q1006 =
METAR EPMO 101600Z 26023KT 9999 BKN024 06/03 Q1005 =
METAR EPSC 101600Z 26013KT 9999 SCT021 BKN023 07/03
    Q1009 =
METAR EPWR 101600Z 27015KT CAVOK 08/M01 Q1014 =
METAR EPZG 101600Z 25014KT 220V300 9999 FEW033 SCT042
    07/02 Q1012 =

0000058800
992
SAYG31 LYBM 101600
METAR LYBE 101600Z 24005KT 7000 NSC 07/06 Q1021 NOSIG=
METAR LYBT 101600Z 26003KT 5000 BR NSC 06/06 Q1022 NOSIG=
METAR LYKV 101600Z 29004KT 260V320 9999 BKN033 10/M01 Q1021 NOSIG=
METAR LYNI 101600Z 30007KT 270V330 9999 SCT040 10/04 Q1020 NOSIG=
METAR LYPG 101600Z 12004KT 9999 SCT040 BKN080 10/08 Q1021 NOSIG=
METAR LYPR 101600Z NIL=
METAR LYTV 101600Z 00000KT 9999 FEW030 BKN043 12/10 Q1021 NOSIG=
METAR LYUZ 101600Z 02003KT 320V060 9999 BKN020 06/04 Q1020=
METAR LYVR 101600Z 06003KT 010V080 8000 FEW016 BKN043 06/01 Q1020
NOSIG=

0000025300
993
FTUS41 KWBC 101603 AAA
TAF AMD
KROC 101601Z 1016/1112 20010KT P6SM OVC050
     FM110400 16007KT P6SM BKN050 WS015/21035KT
     FM110700 16012KT 5SM BR BKN050 WS020/20050KT
     FM111000 18014KT 3SM -RA BR BKN035 WS020/21060KT=

0000081600
994
SIIN90 VARP 110300
AAXX 11034
42874 31995 20000 10196 20145 40149 70500 80001
  333 20175 59009 82075
  555 10000=
43041 31995 01802 10170 20147 39540 40172 71000
  333 20120 59006
  555 10000=
42693 31994 00902 10166 20146 39461 40157 71020
  333 20142 59005
  555 10004=
42872 31994 21804 10210 20149 40150 70511 80001
  333 20156 59006 82075
  555 10000=
42779 31996 42506 10174 20151 39450 40158 70510 80002
  333 20152 59004 84075
  555 10001=
42876 31995 20000 10186 20173 4//// 70500 80001
  333 20158 58///
  555 10000=
42783 31996 00000 10184 20153 40145 70500
  333 20142 58005
  555 10000=
42948 31996 00000 10190 20153 40160 70500
  333 20160 59002
  555 10000=
42782 31994 01402 10194 20171 4//// 71044
  333 20159 58///
  555 10001=
0000018100
995
FTUS42 KWBC 101603 AAA
TAF AMD
KMGM 101602Z 1016/1112 09007KT 2SM -DZ BR OVC004
     FM101900 14006KT 6SM BR OVC007
     FM110300 14008KT 4SM -RA BR OVC003=

00000000