0000068900
996
UDEU02 EGRR 111216 RRE
AMDAR 1112
DES EU0324   5045N 00105W 111201 F182 MS245 295/056 TB/ S031=
DES EU0324   5051N 00102W 111202 F159 MS192 286/052 TB/ S031=
DES EU0324   5058N 00059W 111204 F137 MS142 305/048 TB/ S031=
DES EU0324   5108N 00054W 111206 F119 MS107 309/050 TB/ S031=
DES EU0324   5109N 00053W 111206 F117 MS100 310/051 TB/ S031=
DES EU0324   5115N 00044W 111208 F098 MS067 305/046 TB/ S031=
DES EU0324   5117N 00033W 111209 F080 MS055 303/038 TB/ S031=
DES EU0324   5119N 00014W 111212 F063 MS035 305/034 TB/ S031=
DES EU0324   5121N 00009W 111213 F054 MS025 288/028 TB/ S031=
DES EU0324   5122N 00006W 111213 F047 MS017 293/027 TB/ S031=
0000023600
997
UGCN02 CWAO 111200
PPBB  61128 71906 90012 23009 31011 30006 90346 28011 28013
28524 90789 28525 29525 28525 91124 28030 28035 28548 9167/
28566 28075 92045 28580 28086 28585 93035 28094 28574 28081
950// 27569=

0000027800
998
UGCN04 CWAO 111200
PPBB  61128 71126 90034 08506 16024 17544 90678 17025 16525
17521 909// 19018 91123 25026 26038 26538 91467 24540 27551
28059 92045 27077 26600 26595 93058 27100 27108 27612 94125
29051 26551 27585 9479/ 27569 28084 9502/ 28574 28569=

0000031000
999
USCN04 CWAO 111200
TTAA  61121 71126 99905 08120 08506 00544 ///// ///// 92594
///// ///// 85264 03556 18541 70770 12724 19018 50530 19521
28066 40693 30719 26592 30890 47949 27099 25008 57348 27108
20145 68750 27105 15322 62371 26569 10573 59776 28569 88198
68956 27105 77193 27612=

0000043400
000
UKCN02 CWAO 111200
TTBB  61128 71906 00007 27147 11005 25531 22982 23328 33981
23326 44952 20750 55925 21556 66907 21159 77872 18958 88839
19957 99820 19958 11811 19964 22761 20962 33741 20370 44672
24771 55649 26163 66626 26772 77592 29168 88569 29779 99515
31977 11384 47569 22288 60160 33283 59559 44246 63160 55229
62759 66213 62163 77203 63966 88197 63567 99177 64369 11100
69570 31313 48008 81118=

0000027800
001
UGCN01 CWAO 111200
PPBB  61128 71815 90012 32005 27017 26019 90345 27523 27543
28536 90678 28039 29038 29041 909// 29546 91246 29045 30045
30048 919// 30552 92045 30051 29058 30059 93056 30067 31076
30581 9378/ 30072 29578 941// 30092 9501/ 29068 28576=

0000031000
002
USCN01 CWAO 111200
TTAA  61121 71815 99014 05141 32005 00166 04738 26014 92773
08757 27522 85430 07156 28540 70935 11341 29545 50545 26561
30052 40702 38365 29056 30893 54360 30064 25008 62758 30575
20144 66159 30072 15320 63171 30081 10569 63974 28576 88215
65958 30580 77164 30092=

0000064500
003
SMCH03 SCSC 111200
AAXX 11124
85864 13680 10208 10120 20049 40214 52003 60004 81100
  333 20066 30/// 55089 56600 70000 81840=
85874 12982 13014 10103 20036 39589 40214 51011 60004 80001
  333 20049 55/// 56006 70000 81070=
85930 11495 80030 10100 20096 40110 54000 60314 75155 887//
  333 20094 32/// 56800 70316 88716 91145 91535=
85931 11496 82820 10100 20072 40087 57009 69914 76122 887//
  333 20086 32/// 56600 88714=
85934 12580 82722 10118 20061 40060 57004 60004 8353/
  333 20077 56660 70000 83630 87360=
89057 12660 62406 10008 21035 40010 57010 60002 86030
  333 10005 21015 42097 56050 86337=
0000008100
004
UAAS11 RJTD 111200
AIREP
CSN329 40N 160E 1124 F350 MS42 273/50=
0000131300
005
SMLA01 VLIV 111200
AAXX 11121
48921 NIL=
48924 31956 00000 10190 20190 39519 40149 52014 71044 
 333 10265 58011=
48925 NIL=
48926 31540 13201 10227 20166 39684 40147 52008 71044 81100
 333 10278 58013=
48927 31450 50000 10144 20126 39181 48641 52013 71044 85200
 333 10190 58013=
48928 31410 80000 10157 20135 39103 48574 52017 71044 888//
 333 10205 58014=
48930 32558 30000 10210 20177 39807 40157 52004 83100
 333 10285 58008=
48935 31950 00401 10160 20127 39037 48528 52022 71044 
 333 10234 58011=
48938 31550 11402 10234 20173 39810 40144 52003 71044 81801
 333 10282 58006=
48940 31640 22701 10242 20178 39948 40144 52011 71044 82500
 333 10292 58000=
48941 NIL=
48944 31450 10000 10178 20141 39530 40124 52005 71044 81500
 333 10242 58001=
48945 31940 00000 10228 20174 39985 40166 52014 71044 
 333 10295 58007=
48946 31520 20902 10244 20223 39993 40160 52027 71044 81800
 333 10298 58005=
48947 31540 40403 10232 20159 39991 40166 52004 71044 83530
 333 10294 59009=
48948 NIL=
48952 NIL=
48953 31430 10000 10249 20192 39959 40124 52021 71044 81200
 333 10315 58007=
48955 32760 30901 10280 20177 30012 40128 52016 83500
 333 10320 58002=
48957 31540 43601 10275 20174 30019 40126 52023 71044 83202
 333 10330 58003=
0000012200
006
SNVD15 KWNB 111100 RRS
BBXX
41051 11111 99183 70650 46/// /0808 10250 91130 333 91210 555
11094 22102=
0000066100
007
UDAF01 FAPR 111211
AMDAR 1112
ASC AFZA45 1805S 02549E 111134 F034 PS275 120/010 TB1 S031 333 F/// VG028=
ASC AFZA45 1805S 02549E 111135 F036 PS265 143/010 TB1 S031 333 F/// VG031=
ASC AFZA45 1805S 02548E 111135 F038 PS255 120/018 TB1 S031 333 F/// VG030=
ASC AFZA45 1805S 02548E 111135 F039 PS253 123/017 TB1 S031 333 F/// VG037=
UNS AFZA45 1805S 02548E 111135 F042 PS246 130/016 TB1 S031 333 F/// VG039=
UNS AFZA45 1805S 02547E 111135 F045 PS235 121/013 TB1 S031 333 F/// VG032=
UNS AFZA45 1805S 02547E 111135 F048 PS225 121/007 TB1 S031 333 F/// VG031=
UNS AFZA45 1805S 02547E 111135 F052 PS212 085/010 TB1 S031 333 F/// VG029=
0000066100
008
UDAF01 FAPR 111214
AMDAR 1112
ASC AFZA44 2606S 02815E 111212 F053 PS255 214/008 TB1 S031 333 F/// VG024=
ASC AFZA44 2606S 02815E 111213 F054 PS235 353/006 TB1 S031 333 F/// VG028=
ASC AFZA44 2606S 02815E 111213 F058 PS225 237/012 TB1 S031 333 F/// VG028=
ASC AFZA44 2605S 02815E 111213 F060 PS215 353/006 TB1 S031 333 F/// VG027=
ASC AFZA44 2605S 02815E 111213 F061 PS213 350/004 TB1 S031 333 F/// VG027=
ASC AFZA44 2605S 02815E 111213 F064 PS202 021/010 TB1 S031 333 F/// VG027=
ASC AFZA44 2604S 02815E 111213 F068 PS192 338/009 TB1 S031 333 F/// VG026=
UNS AFZA44 2603S 02816E 111214 F072 PS175 116/005 TB0 S031 333 F/// VG018=
0000066100
009
UDAF01 FAPR 111209
AMDAR 1112
LVR AFZA06 3543N 11455E 111127 F371 MS538 262/108 TB0 S031 333 F/// VG000=
LVR AFZA06 3639N 11509E 111134 F371 MS540 261/099 TB0 S031 333 F/// VG000=
/// AFZA06 3706N 11525E 111138 F325 MS546 259/119 TB0 S031 333 F/// VG000=
LVR AFZA06 3732N 11540E 111141 F255 MS388 270/103 TB0 S031 333 F/// VG000=
LVR AFZA06 3818N 11605E 111148 F237 MS400 273/082 TB0 S031 333 F/// VG000=
DES AFZA06 3859N 11627E 111155 F167 MS270 274/052 TB0 S031 333 F/// VG000=
DES AFZA06 3931N 11652E 111202 F106 MS175 295/031 TB0 S031 333 F/// VG000=
DES AFZA06 3942N 11654E 111205 F064 MS120 312/018 TB0 S031 333 F/// VG000=
0000027600
010
UDAF01 FAPR 111210
AMDAR 1112
UNS AFZA45 1808S 02547E 111011 F064 PS192 149/016 TB0 S031 333 F/// VG014=
UNS AFZA45 1803S 02542E 111015 F048 PS207 206/003 TB0 S031 333 F/// VG015=
DES AFZA45 1804S 02546E 111016 F048 PS207 046/007 TB1 S031 333 F/// VG023=
0000066100
011
UDAF01 FAPR 111211
AMDAR 1112
ASC AFZA45 1806S 02547E 111135 F056 PS199 138/005 TB1 S031 333 F/// VG022=
ASC AFZA45 1807S 02547E 111136 F058 PS193 040/002 TB0 S031 333 F/// VG019=
ASC AFZA45 1807S 02547E 111136 F059 PS187 219/002 TB1 S031 333 F/// VG026=
ASC AFZA45 1808S 02548E 111136 F062 PS181 063/003 TB0 S031 333 F/// VG016=
ASC AFZA45 1808S 02548E 111136 F064 PS168 060/001 TB1 S031 333 F/// VG023=
ASC AFZA45 1810S 02549E 111137 F076 PS150 083/006 TB0 S031 333 F/// VG014=
ASC AFZA45 1812S 02550E 111137 F094 PS113 086/017 TB0 S031 333 F/// VG014=
ASC AFZA45 1815S 02552E 111138 F115 PS057 105/018 TB0 S031 333 F/// VG012=
0000066100
012
UDAF01 FAPR 111214
AMDAR 1112
ASC AFZA51 2604S 02815E 111209 F074 PS180 345/008 TB1 S031 333 F/// VG029=
ASC AFZA51 2604S 02816E 111210 F078 PS169 329/006 TB1 S031 333 F/// VG028=
ASC AFZA51 2603S 02816E 111210 F082 PS156 312/009 TB1 S031 333 F/// VG023=
ASC AFZA51 2603S 02816E 111210 F085 PS149 317/011 TB1 S031 333 F/// VG029=
ASC AFZA51 2603S 02819E 111211 F097 PS125 270/012 TB0 S031 333 F/// VG020=
ASC AFZA51 2606S 02822E 111212 F114 PS075 264/024 TB0 S031 333 F/// VG015=
ASC AFZA51 2607S 02825E 111213 F134 PS023 255/021 TB0 S031 333 F/// VG015=
UNS AFZA51 2612S 02832E 111214 F158 MS018 234/002 TB0 S031 333 F/// VG012=
0000066100
013
UDAF01 FAPR 111209
AMDAR 1112
ASC AFZA51 2607S 02815E 111208 F052 PS253 328/011 TB1 S031 333 F/// VG024=
ASC AFZA51 2606S 02815E 111209 F055 PS235 234/008 TB1 S031 333 F/// VG029=
ASC AFZA51 2606S 02815E 111209 F057 PS226 338/005 TB1 S031 333 F/// VG028=
ASC AFZA51 2606S 02815E 111209 F058 PS227 227/004 TB1 S031 333 F/// VG036=
ASC AFZA51 2606S 02815E 111209 F061 PS219 030/009 TB1 S031 333 F/// VG036=
ASC AFZA51 2605S 02815E 111209 F064 PS210 336/009 TB1 S031 333 F/// VG028=
ASC AFZA51 2605S 02815E 111209 F068 PS200 333/005 TB1 S031 333 F/// VG029=
ASC AFZA51 2605S 02815E 111209 F071 PS190 350/006 TB1 S031 333 F/// VG029=
0000367600
014
SMCN04 KWBC 111200
AAXX 11124
71129 13974 71510 11109 21124 39197 40040 58034 60001 87070 333
11077 21147 48016 70000=
71552 45/// /3006 11094 21105 6///1 333 11045 21152 7////=
71558 15/// ///// 11081 21114 30113 40151 53006 60001 333 11089
21101 70000=
71624 11140 81606 10030 20026 39793 40003 56035 60061 76166 886//
333 10027 20018 44008 70072 90973=
71709 13080 02509 11064 21082 30216 40229 57005 60001 333 42016=
71715 15/// /1604 11037 21049 39978 40163 58031 60001 333 11042
21063 4/037 70000=
71900 45/// /2705 11145 21204 30108 40121 53016 6///1 333 11096
21145 7////=
71925 11469 22709 11335 21378 39894 49937 55000 69901=
71029 15/// /1705 11364 21402 39873 49914 58009 60001 333 11251
21389 4/013 70004=
71040 45/// /0604 11062 21079 39919 40123 58048 6///1 333 11065
21113 7////=
71122 17/// /2409 11044 21046 38369 49949 58049 60011 7//4/ 333
10004 21046 4/024 70010=
71137 17/// /3001 11159 21174 39116 40077 58021 60011 7//4/ 333
11011 21170 70012=
71145 11374 83403 11103 21112 39689 49984 53006 69901 70277 886//
333 11082 21118 48036 70016 90923=
71203 17648 83606 10003 20000 39433 49945 58042 60001 761// 333
10038 20001 70000=
71215 17/// /1405 10054 20033 39626 49964 58049 60021 7//4/ 333
10050 20006 4/001 70024=
71231 15/// /1614 11032 21059 60001 333 10043 21105 70000=
71237 45/// /1513 11075 21089 39137 49956 58070 6///1 333 11060
21129 7////=
71240 15/// /1413 11072 21097 39168 40021 58046 60001 333 11047
21085 70000=
71244 15/// /2013 10010 21042 38778 49988 58047 60001 333 10033
21107 4/007 70000=
71248 15/// /1304 11078 21104 38638 49935 58060 60001 333 11025
21170 70000=
71400 15/// /2605 11064 21094 30053 40186 53006 60001 333 11049
21073 4/037 70000=
71411 15/// /2107 10026 20026 30241 40254 57012 60001 333 10021
20009 70000=
71432 17/// /1813 10073 20057 39899 49995 58042 60021 7//4/ 333
10032 20007 4/008 70029=
71441 45/// /2604 11112 21125 39711 40022 51007 6///1 333 11026
21116 7////=
71444 15/// /2502 11171 21184 39263 40033 53004 60001 333 11061
21187 4/036 70000=
71575 15/// /3103 11230 21258 39990 40057 51017 60001 333 11160
21246 70000=
71582 17562 82503 10046 20031 39788 49840 50001 60171 7614/ 333
10050 20031 70318=
71585 15/// /0905 11143 21155 60001 333 11110 21210 4/040 70002=
71600 15861 42311 10029 20014 30276 40282 58001 60001 333 10020
21005 70000=
71610 17556 80904 11017 21020 39824 40124 58056 69951 771// 333
11038 21072 70005=
71621 11569 81405 10044 20030 39921 40026 56051 60041 70265 885//
333 10029 20021 40016 70042 90931=
71628 11108 80908 11023 21029 39910 40052 57065 69941 76672 887//
333 11046 21054 44025 70006 90931=
71631 17/// /1807 10038 20038 39493 49986 56030 60071 7//4/ 333
10027 20007 4/035 70095=
71670 15/// ///// 11120 60001 333 4/063 70000=
71681 45/// /0000 11001 21003 6///1 333 11000 21017 7////=
71686 15966 60605 11151 21159 38924 49871 57022 60001 333 11042
21155 70000=
71688 17/// /1104 10005 20004 38860 49867 56043 60161 7//4/ 333
10014 21010 4/089 70331=
71689 15466 80906 11143 21159 39537 40000 56023 60001 333 11111
21196 70000=
71696 15/// /2905 11252 21277 30004 40042 56015 60001 333 11193
21285 4/002 70000=
71706 13466 72306 11054 21059 30179 40241 55009 60001 82506 333
11025 21057 44054 70000=
71914 17/// /3205 10070 20060 39700 49916 55001 60181 7//44 333
10076 20056 70281=
71940 11566 80806 11063 21080 39098 49894 58056 69901 77122 8657/
333 11009 21117 44058 79999 90910 93100=
71941 17266 81414 10001 21005 39568 49981 60011 764// 333 11039
21046 70010 555 31620 4010/=
0000369500
015
SMCN04 KWBC 111200 RRA
AAXX 11124
71947 17436 81310 11032 21039 39646 49991 58068 60011 7714/ 333
11034 21043 70010=
71005 15/// ///// 11145 21153 60001 333 11038 21152 70000=
71024 15/// /0906 11191 21208 60001 333 11144 21225 4/997 70006=
71027 15/// /2505 11006 21056 30218 40231 53002 60001 333 11012
21038 4/075 70000=
71036 15866 12615 11075 21091 39647 40025 52008 60001 333 11061
21090 70000=
71043 11880 23004 11370 21408 39979 40078 58006 69901 77177 82070
333 11238 21391 48015 70006 90983=
71066 15466 80202 11186 21208 39556 49986 58021 60001 333 11159
21230 70000=
71077 15/// /1602 11162 21179 39480 40029 58013 60001 333 11049
21162 4/034 70003=
71090 15966 /2707 11271 21300 39928 49964 53012 60001 333 11220
21325 70000=
71094 45/01 00106 11236 39028 49939 51010 6///1 333 11179 21237
7////=
71109 11362 80603 10043 20042 39830 49856 57008 60191 76166 885//
333 10069 20033 70374 90983=
71120 12974 61503 11109 21121 39345 40007 57032 60001 82071 333
11056 21132 48032 70000=
71123 13774 81414 11045 21074 39092 49953 58059 60001 8452/ 333
11010 21155 48040 79999=
71125 13674 21705 11106 21115 39428 40019 58022 60001 81501 333
47027 93100=
71135 15/// /2906 11083 21114 38978 40073 58015 60001 333 11010
21092 4/014 70000=
71140 13374 73015 11062 21072 39535 40043 53004 60001 87500 333
11070 21106 48032 70000 93100=
71185 15448 82514 11031 21059 30154 40178 55000 60001 333 11036
21049 70005=
71213 17/// /1403 10003 20003 39657 49954 56057 69971 7//4/ 333
11020 21028 4/035 70007=
71220 45/// /1620 10044 6///1 333 10057 20011 7////=
71233 17/// /1411 11032 21038 69961 7//4/ 333 10005 21099 70006=
71234 15/// /1613 10012 21024 38776 49948 57065 60001 333 10044
21089 4/005 70000=
71236 45/// /2910 10022 21026 6///1 333 10041 20006 7////=
71238 15/// /1506 11051 21080 60001 333 10014 21112 4/108 70000=
71242 15/// /1412 11045 21060 60001 333 11022 21120 70004=
71245 45/// /0000 11054 21081 6///1 333 11080 21098 7////=
71397 11324 80000 10003 20003 30208 40243 58015 69921 71087 886//
333 10010 21012 44029 70006 90923=
71430 17/// /1724 10033 20018 39928 40024 56054 69981 7//4/ 333
10019 20013 4/012 70013=
71447 15/// /2606 11098 21112 39499 40050 55002 60001 333 11020
21098 4/015 70002=
71553 15/// /2703 11110 21121 39373 40047 53005 60001 333 11075
21142 4/013 70000=
71554 15/// /1706 11037 21061 30165 40171 58031 60001 333 11058
21078 70000=
71557 45/// /0602 10007 20005 6///1 333 10070 20007 7////=
71573 17/// /1908 10073 20064 39709 49986 57034 60071 7//4/ 333
10040 20020 4/001 70119=
71578 15/// /0606 60001 333 70000=
71587 17659 83005 11089 21098 39607 49967 53001 60001 710// 333
11068 21097 70000=
71598 15/// /2204 11122 21152 30215 40222 58003 60001 333 11095
21166 4/034 70009=
71607 15/// /0000 11092 21095 30184 40218 58030 60001 333 10000
21102 4/020 70000=
71627 11256 80410 11027 21033 30036 40081 58067 69921 76662 887//
333 11045 21071 43014 70002 90921=
71633 11332 81810 10041 20037 39704 49972 56024 60061 76166 887//
333 10042 20010 44048 55000 70066 90973=
71718 13674 81611 11046 21072 30105 40172 58025 60001 85502 333
11048 21064 47052 70000=
71935 12574 20000 11326 21390 39825 40045 58011 60001 81501 333
11366 21390 48026 70006=
71936 13774 83504 11266 21295 39766 40039 56006 60001 885// 333
11224 21307 48032 70024=
71948 47914 02625 11318 39841 49959 58013 6///1 771// 333 11241
21336 7////=
71949 15/// /3002 11175 21194 39048 49926 58012 60001 333 11071
21182 70000=
71002 17666 82203 11100 21124 39577 40130 58001 60001 771// 333
11108 21121 70000=
00000000