0000009700
136
SARM31 LUKK 101630
METAR LUBL 101630Z AUTO 29015KT 9999 ///080/// 06/03 Q1010=

0000012400
137
FTAE32 VTBB 101100 RRB
TAF VYMD 101030Z 1012/1112 36002KT 8000 NSC
TEMPO 1012/1018 00000KT 4000 BR NSC=

0000197800
138
SPUS70 KWBC 101630
SPECI
KAEX 101626Z 14013KT 2 1/2SM BR OVC002 13/13 A3003 RMK AO2=
KAND 101626Z AUTO 05007KT 5SM BR OVC004 07/07 A3029 RMK AO2 RAE22
     P0001=
KBRD 101626Z AUTO 17011KT 1 1/2SM HZ OVC004 M03/M06 A2964 RMK
     AO2=
KDEQ 101626Z AUTO 13003KT 1 3/4SM -RA BR OVC006 12/12 A2990 RMK
     AO2 CIG 004V009 P0010 T01220122=
KDNL 101626Z AUTO 30006KT 1 1/4SM -RA BR OVC002 08/08 A3026 RMK
     AO2 P0006 T00830078 TSNO=
KGIF 101626Z AUTO VRB05KT 10SM SCT009 23/20 A3017 RMK AO2
     T02330200 TSNO=
KIGX 101626Z AUTO 36004KT 2 1/2SM -RA BR BKN005 OVC031 04/03 A3035
     RMK AO2 RAE11B14 P0002 T00440033=
KOKC 101626Z 21016G22KT 7SM BKN010 OVC130 12/10 A2972 RMK AO2=
KOWB 101626Z 17010KT 6SM BR SCT008 BKN034 OVC045 08/08 A3012 RMK
     AO2=
KSTL 101626Z 16013G20KT 4SM -RA BR OVC009 03/01 A2991 RMK AO2
     RAB25 P0000=
KSUX 101627Z 15007KT 2 1/2SM BR OVC007 M01/M01 A2967 RMK AO2 CIG
     003V010 I1000 T10061011=
KTTS 101623Z AUTO 10006KT 10SM SCT007 SCT015 BKN021 24/18 A3018
     RMK AO2 BKN V SCT $=
KTTS 101623Z AUTO 10006KT 10SM SCT007 SCT015 BKN021 24/18 A3018
     RMK AO2 BKN V SCT $=
PAEN 101626Z 00000KT 3/4SM BR BKN002 OVC070 M04/M04 A2942 RMK
     AO2=
KASH 101627Z 00000KT 10SM SCT018 BKN075 M03/M06 A3044 RMK AO2=
KCSG 101627Z 10008KT 1 1/4SM BR OVC003 09/08 A3021 RMK AO2=
KEST 101627Z AUTO 18015KT 1 3/4SM BR OVC004 M03/M03 A2968 RMK AO2
     I1001 T10281028=
KFUL 101627Z 09003KT 3SM HZ CLR 11/07 A3010 RMK AO2=
KGZH 101627Z AUTO 08004KT 1SM BR OVC002 11/10 A3018 RMK AO2
     T01110100=
KHRO 101627Z AUTO 17014G19KT 5SM -RA BR FEW005 BKN018 OVC070 09/09
     A2983 RMK AO2 LTG DSNT N AND NW P0002=
KMGY 101627Z AUTO 16010KT 2 1/2SM BR OVC003 04/04 A3017 RMK AO2
     T00440039=
KUZA 101627Z AUTO 03006KT 3SM -RA BR OVC003 05/04 A3030 RMK AO2
     P0003 T00500044=
PPIZ 101627Z AUTO 00000KT 1 1/4SM HZ OVC014 M28/M31 A3004 RMK AO2
     TSNO $=

0000011800
139
SAMR20 TFFF 101630
METAR TFFF 101630Z AUTO 08017KT 030V100 9999 BKN033 BKN042 OVC050
28/20 Q1016=

0000014100
140
SAAK31 KWBC 101600 RRB
METAR
PABR 101553Z COR 33011KT 9SM CLR M26/M28 A2994=
PFYU 101624Z 00000KT 10SM CLR M38/ A2966=

0000022300
141
SASQ31 LZIB 101630
METAR LZIB 101630Z 25007KT 9999 FEW038 07/02 Q1019 NOSIG=
METAR LZKZ 101630Z 00000KT 9999 FEW007 BKN009 04/04 Q1016 NOSIG=
METAR LZTT 101630Z 25014KT 9999 SCT056 03/M04 Q1014 NOSIG=

0000021600
142
SASQ41 LZIB 101630
METAR LZPP 101630Z 23003KT CAVOK 06/00 Q1018=
METAR LZSL 101630Z 26007KT 220V300 9999 SCT060 05/M02 Q1017=
METAR LZZI 101630Z 27005KT 240V310 9999 BKN039 BKN055 05/M00 Q1017=

0000024800
143
SABU31 LBSM 101630
METAR LBSF 101630Z VRB01MPS 0800 R27/P2000N BCFG SCT003 SCT005 02/02
    Q1019 TEMPO 0800 BCFG=
METAR LBWN 101630Z 24007MPS CAVOK 12/04 Q1013 NOSIG=
METAR LBBG 101630Z 27008MPS 8000 NSC 06/04 Q1015 NOSIG=

0000008900
144
SAHU31 LHBM 101630
METAR LHBP 101630Z 22009KT CAVOK 06/03 Q1019 NOSIG=

0000009400
145
SANC01 NWWW 101630
METAR NWWW 101630Z AUTO 11002KT 9999 FEW066 21/14 Q1012=

0000012300
146
SAEU31 BKPR 101630 CCB
BKPR 101630Z 00000KT 0300 R17/P1500 FG BKN005 03/02 Q1020 NOSIG RMK
 17010095 =

0000013400
147
SAFG20 SOCA 101630
METAR SOCA 101630Z AUTO 14004KT 100V170 9999 SCT023/// BKN030///
BKN039/// ///TCU 27/23 Q1011=

0000037600
148
FTUS53 KWBC 101630 AAA
TAF AMD
KGCK 101627Z 1016/1112 32011KT P6SM SKC
     FM101800 31018G26KT P6SM SCT012
     FM110000 31010KT P6SM SKC=
KRSL 101628Z 1016/1112 VRB05KT 1/4SM FG VV002
      TEMPO 1017/1019 2SM BR SCT002 OVC008
     FM101900 30017G25KT P6SM SCT020 BKN120
     FM110000 29008KT P6SM BKN020
     FM110400 27008KT P6SM SCT030=

0000049100
149
FTUS80 KWBC 101630 AAA
TAF AMD
KGCK 101627Z 1016/1112 32011KT P6SM SKC
     FM101800 31018G26KT P6SM SCT012
     FM110000 31010KT P6SM SKC=
KPEQ 101627Z 1016/1112 24011G18KT P6SM SKC
     FM101800 27022G29KT P6SM SKC
     FM110000 26011KT P6SM SKC=
KRSL 101628Z 1016/1112 VRB05KT 1/4SM FG VV002
      TEMPO 1017/1019 2SM BR SCT002 OVC008
     FM101900 30017G25KT P6SM SCT020 BKN120
     FM110000 29008KT P6SM BKN020
     FM110400 27008KT P6SM SCT030=

0000010000
150
SPUS31 KWBC 101630
SPECI
KOKC 101626Z 21016G22KT 7SM BKN010 OVC130 12/10 A2972=

0000010000
151
SPUS31 KWBC 101630
SPECI
KSTL 101626Z 16013G20KT 4SM -RA BR OVC009 03/01 A2991=

0000017100
152
SACA33 KWBC 101600 RRE
METAR
TFFR 101630Z 07014KT 040V110 9999 SCT036 SCT066 28/19 Q1016
     NOSIG=
TNCE 101600Z 06016KT 9999 SCT018 28/21 Q1019=

0000011200
153
SAGQ21 FGSL 101630
METAR FGSL 101630Z 24005KT 210V270 8000 FEW013 SCT130 28/24 Q1009
NOSIG=

0000010700
154
SAEA20 HKNC 101600 RRB
METAR HKKS 101600Z 00000KT 9999 TS  FEW021CB SCT022 BKN090 21/13=

0000235300
155
SPUS70 KWBC 101632
SPECI
KADF 101627Z AUTO 16005KT 1 1/4SM BR OVC003 11/11 A2995 RMK
     AO2=
KBRL 101628Z AUTO 15010KT 2SM BR OVC004 01/01 A2983 RMK AO2
     T00110006=
KBTL 101628Z 18009KT 2SM BR OVC002 01/M01 A3007 RMK AO2
     T00061006=
KCEW 101628Z AUTO 00000KT 3/4SM BR OVC001 13/12 A3019 RMK AO2
     T01280122=
KDMO 101628Z AUTO 15011KT 3SM BR OVC002 06/05 A2973 RMK AO2
     T00560050=
KECP 101628Z 04003KT 1/2SM FG VV002 16/15 A3015 RMK AO2=
KGFL 101628Z AUTO 21006KT 3SM -SN BR BKN015 BKN022 OVC037 M04/M06
     A3040 RMK AO2 P0001=
KGON 101628Z 00000KT 3SM UP BR SCT021 OVC030 00/M01 A3045 RMK AO2
     UPB07 P0000=
KHJO 101628Z AUTO 00000KT 2SM BR CLR 04/03 A3028 RMK AO2
     T00390033=
KLEB 101628Z 00000KT 9SM BKN026 OVC065 M08/M12 A3039 RMK AO2
     T10781122=
KLNK 101628Z 15007KT 1SM R36/6000VP6000FT BR OVC002 00/M01 A2967
     RMK AO2 T00001006=
KMKC 101628Z 07004KT 1SM BR OVC005 03/02 A2968 RMK AO2
     T00280017=
KRBG 101628Z AUTO 00000KT 2 1/2SM -RA BR FEW007 BKN085 OVC120
     07/06 A3022 RMK AO2 RAB22 P0000 T00720061=
KSRC 101628Z AUTO 16009KT 10SM BKN028 BKN041 OVC065 07/07 A2999
     RMK AO2 TSNO BKN V OVC RAE12 P0000=
KVAY 101628Z AUTO 11003KT 1 1/4SM UP BR BKN003 BKN012 OVC070
     00/M01 A3042 RMK AO2 PRESFR P0002 T00001006=
PAMB 101628Z AUTO 04007KT 1 1/2SM BR OVC003 M03/M03 A2942 RMK AO2
     TSNO $=
PAMO 101628Z AUTO 07011KT 9SM FEW016 BKN025 BKN120 M12/M14 A2952
     RMK AO2 PWINO TSNO $=
PAOO 101628Z AUTO 07018KT 2 1/2SM BR OVC006 M05/M06 A2939 RMK AO2
     TSNO $=
KCFV 101629Z AUTO 18014G21KT 1 1/4SM BR OVC002 08/08 A2970 RMK AO2
     PK WND 18026/1558 T00780078=
KFLD 101629Z AUTO 17009KT 5SM -SN BR OVC007 M01/M03 A2993 RMK AO2
     SNB04 CIG 005V012 P0000 T10111028=
KGVL 101629Z AUTO 08007KT 2SM -RA BR OVC003 08/07 A3027 RMK AO2
     RAB24 P0000=
KHRL 101629Z 17023G30KT 10SM FEW013 BKN037 23/19 A2990 RMK AO2 PK
     WND 17031/1600=
KINT 101629Z 35006KT 1 3/4SM -RA BR OVC003 02/01 A3036 RMK AO2 CIG
     003V008 P0002=
KSLN 101629Z 13007KT 3SM BR BKN005 OVC011 02/01 A2962 RMK AO2
     RAB1554E06 P0000 T00170011=
KVLD 101629Z 15007KT 10SM OVC006 22/19 A3017 RMK AO2 CIG
     003V009=
PAEG 101629Z AUTO 00000KT 10SM SCT022 OVC035 M23/M27 A2956 RMK AO2
     T12281267 TSNO=

00000000