0000033200
296
SAIN90 VANP 111200 RRA
METAR VABP 111200Z 05005KT 2000 HZ NSC 17/12 Q1018 NO SIG=
METAR VIGR 111200Z 00000KT 1500 BR FEW250 17/10 Q1017=
METAR VAJB 111200Z 00000KT 1000 BR OVC010 16/14 Q1017=
METAR VAID 111200Z 05011KT 2000 HZ FEW020 16/11 Q1017=
METAR VAKJ 111200Z 02002KT 1000 BR SCT020 SCT100 17/15 Q1017=
0000008600
297
UXIN90 VABP 111200
TTAA 6112/ 42361 NO ASCENT AS PER H.Q. ORDER=


0000131100
298
SMIR01 OIII 111200
AAXX 11121
40706 11650 62702 11028 21093 38661 40281 57019 60001 70521 82506
333 82635 85269 555 11046 29061=
40718 12965 83504 10100 20075 30171 40142 55013 60001 54077
222// 00136 20301 333 84459 88266 555 10088 29084=
40732 11657 81102 10110 20068 30162 40137 56014 60001 70522 82507
333 82645 88267 555 10090 29075=
40745 12962 43202 10110 21124 39032 40197 57013 60001 83032 333
      83361 555 10034 29018=
40754 11510 82504 10006 21016 38835 40223 58011 69921 71072
8452/ 333 84630 88459 555 11003 29085=
40766 11515 81103 11002 21008 38695 40225 56013 60051 77372 8632/
333 83930 83635 88556 555 11002 29096=
40800 11630 80000 10024 21050 38447 40217 56017 60001 70522 8251/
      333 82640 88460 555 11004 29058=
40811 11558 81204 10126 20115 30139 40166 55009 69911 72022 8632/
333 82920 84630 88557 555 10120 29093=
40841 12660 80000 10048 21028 38247 40230 55006 60001 8342/ 333
83635 88460 555 10018 29058=
40848 11515 80000 10036 20022 38529 40209 56014 60021 76166 8432/
333 81930 83635 88557 555 10030 29091=
40856 12662 71207 10057 21068 38646 40222 57014 60001 82570 333
      82635 87459 555 10013 29040=
40875 11558 83103 10155 20079 30197 40209 57004 69951 76066 8532/
333 82925 83630 88559 555 10117 29061=
0000080200
299
SMIR05 OIII 111200
AAXX 11121
40716 12660 70000 10014 21034 38919 40235 57019 60001 81176 333
81840 85360 87268 555 11004 29070=
40719 11530 73202 10100 20075 30151 40141 56017 60001 71022 84570
333 84625 86359 555 10088 29084=
40721 12960 51508 10118 21015 39613 40156 56007 60001 85030 333
      85360 555 10064 29040=
40858 11560 81308 10130 20095 30154 40165 57018 60051 76096 8592/
333 81930 84635 88558 555 10112 29079=
40872 11558 81211 10172 20137 30175 40179 56015 69921 72162 8532/
222// 0//// 20302 333 82925 83630 88459 555 10152 29080=
40877 12660 80000 10128 20018 39624 40182 57012 60001 8442/ 333
      84645 88459 555 10080 29047=
40898 12965 71405 10200 20012 30187 40197 58013 60001 80006 222//
      00226 10501 333 87269 555 10115 29028=
0000068600
300
SABN32 OBBI 111200
METAR OMAA 111200Z 25003KT 200V310 CAVOK 23/10 Q1018 A3006 NOSIG=
METAR OMAD 111200Z 29005KT 9999 -RA FEW045 22/12 Q1018 A3008 NOSIG=
METAR OMAL 111200Z 20007KT CAVOK 21/09 Q1019 A3011 BECMG 27008KT=
METAR OMDB 111200Z 25007KT CAVOK 23/10 Q1020 NOSIG=
METAR OMDW 111200Z 23008KT CAVOK 22/10 Q1020 NOSIG=
METAR OMFJ 111200Z 13006KT 100V160 9999 FEW020 SCT100 21/10 Q1018
A3008=
METAR OMRK 111200Z 10003KT 9999 FEW040 22/10 Q1019 A3011=
METAR OMSJ 111200Z 25006KT 210V310 9999 -RA SCT040 22/10 Q1020=
METAR OOMS 111150Z 06015KT 9999 FEW030 BKN200 21/09 Q1019 NOSIG=
METAR OOSA 111150Z 13012KT 080V170 9999 BKN025 25/15
Q1016 NOSIG=
0000039800
301
SWIO40 RJTD 111215
:PRS 1 #1 1715 1711 1711 1698 1728 1705 1715 1710 1705 1690 1713 1693
1698 1692 1697 1710 1686 1693 1690 1696 1696 1661 1705 1668 1685 1697
1683 1678 1697 1678 :RAD 1 #3 6093 6091 6087 6087 6077 6067 6069 6069
6067 6061 :ENC 5 #5 5085 5077 5068 5063 5060 5056 5063 5059 5056 5059
5075 5085 :SW1 15 #60 60 :SW2 45 #60 60 :BAT 14 #15 12.9 :NAME 
0650018E=
0000048900
302
FKIO20 FMEE 111213
TC ADVISORY
DTG: 20140111/1200Z
TCAC: REUNION
TC:COLIN
NR:7
PSN: S1637  E07939
MOV: SW 09 KT
C: 967 HPA
MAX WIND: 85 KT
FCST PSN +06HR: 11/1800Z S1705  E07906
FCST MAX WIND +06HR: 85 KT
FCST PSN +12HR: 12/0000Z S1739  E07828
FCST MAX WIND +12HR: 85 KT
FCST PSN +18HR: 12/0600Z S1821  E07742
FCST MAX WIND +18HR: 83 KT
FCST PSN +24HR: 12/1200Z S1906  E07656
FCST MAX WIND +24HR: 80 KT
RMK : NIL
NXT MSG: 20140111/1800Z=
0000014400
303
SMVJ10 RUML 111200
BBXX
UCKZ  11121 99660 30953 41498 71111 10011 20002 49833
58001 71582 85331 22281 01003 20402 ICE 0/2/0=
0000003800
304
USTR10 UTAA 111200
NIL
0000003800
305
UKTR10 UTAA 111200
NIL
0000014700
306
SMVB11 LFPW 111200
BBXX
CQIV 11124 99242 11184 41297 7//// 10170 20119 40250 58010 70211
8/715
22200 20806 305// 41005 80140=
0000003800
307
SMVD01 AMMC 111200
NIL
0000003800
308
SMVF01 AMMC 111200
NIL
0000023400
309
SMVJ01 AMMC 111200
BBXX
UCKZ 11121 99660 30953 41498 71111 10011 20002 49833 58001 71582
85331 22281 01003 20402 ICE 0/2/0=
FHZI 11114 99650 31403 46/// /1721 11003 21011 39895 49906 52023
22243 04000 86006=

0000231700
310
SMCZ50 OKPR 111200
AAXX 11121
11414 01680 72703 10016 20000 39443 42775 57013 60001 70341
      83570
  333 60005 83643 87357
  555 389// 50020 60018 70025 80034=
11438 02980 89902 10054 20008 39769 40165 58012 60001 8807/
  333 60005 83360 88462
  555 372// 50023 60027 70032 80048 90054=
11450 02975 79901 10050 20004 39726 40177 58015 60001 8705/
  333 60005 87359
  555 12704 372// 50022 60021 70028 80037=
11502 02467 72801 10025 21011 39708 40171 58013 60001 81552
  333 60005 81610 86359 9512/
  555 377// 50018 60022 70029 80040 90053=
11509 02775 70602 10049 20015 39972 40169 58017 60001 82570
  333 60005 82650 86360
  555 378// 50029 60028 70030 80041 90055=
11538 02981 71501 10030 20006 39567 40182 58015 60001 84031
  333 60005 84361 86070
  555 384// 50007 60024 70030 80042=
11567 02970 72003 10058 20003 39823 40171 58014 60001 82032
  333 60005 82359 87073
  555 368// 50032=
11624 02975 62003 10074 20004 39884 40175 57017 60001 80002
  333 60005 86067
  555 361// 5////=
11628 02970 61903 10051 21009 39536 40175 58015 60001 81032
  333 60005 81361 86068
  555 365// 50020 60023 70028 80040 90048=
11643 02475 72004 10018 21032 39191 42769 58014 60001 81556
  333 60005 81615 83360 85272
  555 13607 369// 50011 60014 70017=
11652 02970 62303 10072 20002 39899 40179 57014 60001 80001
  333 60005 86074
  555 361// 50039=
11669 01362 72305 10015 20003 39287 42777 58012 60001 70242
      87600
  333 60005 87707
  555 392// 50022 60027 70030 80039 90051=
11683 02470 72105 10033 21016 39299 42784 57012 60001 81132
  333 60005 81818 87070
  555 1//05 371// 50018 60016 70024 80036=
11692 02980 51804 10057 21013 39610 40187 57014 60001 81031
  333 60005 81363 85073
  555 361// 50020=
11693 02983 52103 10062 21024 39703 40189 58014 60001 82048
  333 60005 82361 85271
  555 12104 354// 50027 60033 70036 80054 90059=
11698 02980 51403 10045 21013 39779 40193 58015 60001 81036
  333 60005 81364 85073
  555 366// 50034 60035 70045 80056 90065=
11710 02582 52504 10059 21026 39561 40178 58013 60001 81102
  333 60005 81832 85071
  555 354// 50035 60034 70037 80049=
11730 01/02 92409 11034 21045 38626 48445 58004 60001 74944
  333 60005 89/01 91118 93619
  555 392//=
0000011100
311
UANT01 CWAO 111214
ARP RCH317 5106N02653W 1214 F340 MS56 178/69 KT
88196A DDL XXN 111214 F80A
0000011000
312
UANT01 CWAO 111214
ARP DAL91 5401N01615W 1214 F360 MS65 234/78 KT
N1501P QXT AOE 111214 F21A
0000010800
313
UANT01 CWAO 111215
ARP THY3 6231N04200W 1214 F360 MS59 197/18 KT
TCJNM QXT AOW 111215 J48A
0000003900
314
SMVA01 AMMC 111200
NIL=
0000003900
315
SMVC01 AMMC 111200
NIL=
00000000