0000015000
476
FTMS42 WMKK 101700
TAF WMKB 101700Z 1018/1118 07005KT 8000 FEW020 SCT140 BKN280
TEMPO 1018/1023 6000 TSRA FEW010 FEW017CB SCT023=

0000014000
477
FTMS43 WMKK 101700
TAF WMKD 101700Z 1018/1118 34005KT 9999 FEW010 SCT025 BKN260
TEMPO 1018/1106 6000 -RA FEW008 SCT020=

0000007700
478
FCIY33 LIIB 101400 AAB
TAF AMD LIMW 101636Z 1015/1024 CNL=

0000050300
479
FTAF33 OEJD 101600
TAF DTMB 101500Z 1018/1118 20013KT 9999 FEW020 TEMPO 1100/1112
18015G25KT=
TAF DTTA 101500Z 1018/1118 VRB03KT 9999 FEW026 PROB30 TEMPO 1100/1106
4000 BR BECMG 1108/1110 18010KT 9999 FEW020=
TAF DTTJ 101500Z 1018/1118 28007KT 9999 FEW026 BECMG 1103/1105
18013KT=
TAF HLLB 101700Z 1018/1118 VRB02KT 9999 SCT020 BECMG 1110/1112
25010KT BECMG 1116/1118 VRB02KT=
TAF HLLT 101700Z 1018/1118 VRB02KT CAVOK BECMG 1110/1112 20010KT
BECMG 1116/1118 VRB02KT=

0000015100
480
SAES20 MSLP 101700
METAR MSLP 101650Z 01005KT 320V090 CAVOK 32/16 Q1012 A2991=
METAR MSSS 101650Z 34006KT CAVOK 28/20 Q1017 A3006=

0000030700
481
FTUS71 KWBC 101645 AAA
TAF AMD
KAGC 101643Z 1017/1112 13007KT P6SM BKN009 OVC020
     FM102100 18008KT P6SM OVC015
     FM110900 18010KT 6SM -RA OVC015=
KPIT 101642Z 1017/1118 13007KT 6SM BR BKN006 OVC015
     FM102100 18008KT P6SM OVC015
     FM110900 18010KT 6SM -RA OVC015=

0000017700
482
FTUS41 KWBC 101645 AAA
TAF AMD
KAGC 101643Z 1017/1112 13007KT P6SM BKN009 OVC020
     FM102100 18008KT P6SM OVC015
     FM110900 18010KT 6SM -RA OVC015=

0000017900
483
FTUS31 KWBC 101645 AAA
TAF AMD
KPIT 101642Z 1017/1118 13007KT 6SM BR BKN006 OVC015
     FM102100 18008KT P6SM OVC015
     FM110900 18010KT 6SM -RA OVC015=

0000024100
484
FTUS75 KWBC 101645 AAA
TAF AMD
PAEN 101643Z 1017/1112 VRB03KT 2SM BR BKN006 OVC015
      TEMPO 1017/1021 1/2SM FZFG BKN002
     FM102200 02004KT 6SM BR SCT008 BKN025
     FM110900 36003KT 6SM BR VCFG SCT008 OVC035=

0000013700
485
FCIE32 EIDB 101400 AAA
TAF AMD EIME 101642Z 1016/1024 26008KT 9999 SCT007 BKN010
     BECMG 1018/1019 FEW015 SCT025=

0000022100
486
FTCN34 CWAO 101600 AAA
TAF AMD CYVC 101646Z 1016/1101 VRB03KT 6SM BR FEW008 OVC025 TEMPO
     1016/1020 2SM -SHSN BR BKN006 OVC012
    FM102000 25008KT P6SM -SN OVC010
    RMK NXT FCST BY 101900Z=

0000011200
487
SABZ19 SBBE 101700 RRA
METAR SBBE 101700Z 33007KT 9999 BKN025
FEW030TCU BKN100 28/23 Q1010=

0000197300
488
SPUS70 KWBC 101646
SPECI
KAJO 101642Z AUTO 00000KT 3SM BR CLR 08/08 A3013 RMK AO2 $=
KBOK 101642Z AUTO VRB04KT 1/2SM FG OVC002 09/09 A3026 RMK AO2
     $=
KCVG 101642Z 16009KT 1/2SM BR OVC003 07/06 A3015 RMK AO2 SFC VIS 3
     PRESFR=
KEWB 101642Z 00000KT 4SM BR BKN024 BKN029 OVC038 00/M02 A3044 RMK
     AO2 T00001017=
KFIG 101642Z AUTO 01003KT 2 1/2SM BR OVC007 M01/M02 A3029 RMK AO2
     T10111022=
KHFF 101635Z VRB04KT 2 1/2SM +SHRA BKN009 BKN035 10/10 A3034 RMK
     AO2 SLP266=
KHJO 101642Z AUTO 00000KT 1 1/2SM BR CLR 04/04 A3029 RMK AO2
     T00440039=
KHRO 101642Z AUTO 17017G22KT 6SM -RA BR FEW017 BKN060 OVC070 09/09
     A2982 RMK AO2 LTG DSNT N AND NE P0002=
KMAE 101642Z AUTO 00000KT 3SM BR CLR 06/04 A3029 RMK AO2
     T00610039=
KMGJ 101642Z AUTO 00000KT 3SM -SN BR BKN017 OVC026 M02/M04 A3041
     RMK AO2 P0001 T10221044 TSNO=
KPPF 101642Z AUTO 18014G22KT 1 1/4SM BR OVC002 08/07 A2968 RMK AO2
     T00830072=
KRUE 101642Z AUTO 11005KT 2SM RA BR SCT009 BKN014 OVC036 08/07
     A2989 RMK AO2 P0014=
PAOO 101642Z AUTO 07017KT 5SM BR OVC006 M05/M06 A2939 RMK AO2 TSNO
     $=
K7R3 101637Z 11008KT 7SM HZ OVC002 16/M A3009=
KBPI 101643Z AUTO 10008KT 10SM SCT013 BKN080 M09/M12 A2984 RMK AO2
     SNE03 P0000 T10891117=
KDAW 101643Z AUTO 18003KT 2 1/2SM -SN FEW031 BKN046 OVC080 M06/M08
     A3041 RMK AO2 P0000 T10561083=
KDDH 101643Z AUTO 00000KT 3SM -SN SCT018 OVC039 M01/M04 A3035 RMK
     AO2 P0000=
KFAY 101643Z AUTO 07003KT 4SM -RA BR FEW029 OVC090 10/09 A3030 RMK
     AO2 P0007=
KRKS 101643Z AUTO 29013KT 1 1/2SM -SN BR BKN013 OVC019 M04/M07
     A2987 RMK AO2 P0000 T10441067=
PABA 101643Z AUTO 28021KT 1 1/4SM -SN BR M25/M27 A2986 RMK AO2 PK
     WND 28028/1618 SNB1548 FZRANO $=
PAKW 101643Z AUTO VRB06KT 10SM SCT015 BKN040 03/01 A2966 RMK AO2
     T00280011 TSNO=
PAMB 101643Z AUTO 04006KT 1 3/4SM BR OVC003 M03/M03 A2943 RMK AO2
     TSNO $=

0000009500
489
SPUS31 KWBC 101646
SPECI
KCVG 101642Z 16009KT 1/2SM BR OVC003 07/06 A3015=

0000009800
490
SPUS31 KWBC 101646
SPECI
KJAX 101642Z 15008KT 10SM BKN013 OVC020 23/21 A3018=

0000010800
491
SPUS41 KWBC 101646
SPECI
KEWB 101642Z 00000KT 4SM BR BKN024 BKN029 OVC038 00/M02 A3044=

0000010800
492
SABZ21 SBSV 101700
METAR SBSV 101700Z 07009KT 9999 SCT017 FEW020TCU
BKN070 28/24 Q1013=

0000009300
493
SAEO32 EETN 101650
METAR EETU 101650Z 27006KT 5000 -RA OVC005 04/03 Q0981=

0000037200
494
FTNG31 YBBN 101600
TAF AYPY 101600Z 1018/1118 VRB03KT 9999 -R ADZ Z SCT009 SCT025
FM110500 24008KT 9999 -SHRA BKN025
INTER 1006/1112 3000 TSRA BKN010 FEW020CB PROB40 1018/1021
0700 FG=
TAF ANYN 101600Z 1018/1118 06010KT 9999 -SHRA SCT016 SCT030 BKN120
INTER 1018/1024 5000 +SHRA BKN010=
TAF AGGH 101600Z 1018/1118 09008KT 9999 SCT020 SCT120=

0000027500
495
FTBW31 VGEG 101700
TAF VGEG 101700Z 1018/1124 00000KT 3200 HZ NSC
        BECMG 1022/1024 03003KT 1500 BR SCT015
        BECMG 1103/1105 34007KT 4000 HZ NSC
        BECMG 1110/1112 33005KT 3500 HZ NSC
        TEMPO 1022/1103 00000KT 0800 FG BKN006=

00000000