0000025900
316
SAFR24 LFPW 101630
METAR LFSI 101630Z AUTO VRB02KT 9999 NSC 07/05 Q1018=
METAR LFSO 101630Z AUTO 13003KT 9999 NSC 05/03 Q1018=
METAR LFSX 101630Z AUTO 00000KT 9999 NSC 07/04 Q1018=
METAR LFYR 101630Z AUTO 12003KT 9999 NSC 08/04 Q1017=

0000044900
317
SARO32 LROM 101630
METAR LRAR 101630Z 24005KT 5000 BR NSC 03/03 Q1020=
METAR LRBM 101630Z VRB02KT 0800 R10/0800 - DZ FG FEW002 BKN005
03/03 Q1017 1019//95=
METAR LRCL 101630Z 05002KT 5000 BR FEW008 SCT037 02/02 Q1017=
METAR LROD 101630Z 20014KT 4600 BR NSC 03/03 Q1018=
METAR LRSM 101630Z 23004KT 7000 SCT009 OVC015 04/04 Q1017 0129//95=
METAR LRTM 101630Z 24004KT 210V310 3000 BR BKN011 OVC014 02/02
Q1017 0729//95=

0000031100
318
SARO33 LROM 101630
METAR LRBC 101630Z 02008KT 350V050 CAVOK 04/04 Q1012=
METAR LRCV 101630Z 26012KT CAVOK 08/03 Q1016=
METAR LRIA 101630Z 24004KT 200V300 9999 BKN040 04/04 Q1012=
METAR LRSV 101630Z 34008KT 270V350 9999 BKN045 05/02 Q1011=
METAR LRTC 101630Z 25016KT CAVOK 06/04 Q1011=

0000050200
319
SAFR31 LFPW 101630
METAR LFLL 101630Z 15006KT 6000 NSC 08/06 Q1018 BECMG 4000 BR=
METAR COR LFMN 101630Z VRB02KT 9999 FEW016 BKN022 BKN250 12/08
Q1019 NOSIG=
METAR LFPG 101630Z 18004KT 9999 OVC010 06/04 Q1018 NOSIG=
METAR LFPO 101630Z 19003KT 170V230 9999 BKN010 06/04 Q1018 NOSIG=
METAR LFQQ 101630Z 19008KT 9999 BKN009 05/04 Q1017 NOSIG=
METAR LFRB 101630Z 18007KT 9999 FEW020 BKN180 09/06 Q1014 NOSIG=
METAR LFRS 101630Z 07005KT 9999 FEW040 BKN100 10/09 Q1015 NOSIG=

0000068700
320
SAFR32 LFPW 101630
METAR LFBD 101630Z AUTO 11006KT 9999 NSC 12/08 Q1014=
METAR LFBH 101630Z AUTO 08006KT 9999 NSC 11/08 Q1015=
METAR LFBI 101630Z AUTO 08003KT 040V100 9999 NSC 11/07 Q1016=
METAR LFBL 101630Z AUTO 06004KT 9999 NSC 11/07 Q1015=
METAR LFBO 101630Z AUTO 13012KT 9999 NSC 11/07 Q1015=
METAR LFBP 101630Z 03003KT CAVOK 11/07 Q1013 NOSIG=
METAR LFBT 101630Z AUTO 00000KT 9999 NSC 10/06 Q1014=
METAR LFBZ 101630Z 04003KT CAVOK 13/08 Q1013 NOSIG=
METAR LFLB 101630Z 20002KT CAVOK 08/06 Q1018 NOSIG=
METAR LFLX 101630Z 08005KT 9999 FEW040 10/06 Q1016 NOSIG=
METAR LFML 101630Z 00000KT 9999 BKN026 13/08 Q1019 NOSIG=
METAR LFCK 101630Z NIL=

0000009200
321
SPCN46 CWAO 101633
SPECI CYFR 101633Z 13003KT 2 1/2SM -SN OVC040 RMK SC8=

0000051800
322
SAFR33 LFPW 101630
METAR LFKB 101630Z 13005KT 9999 FEW020 BKN031 14/10 Q1020 NOSIG=
METAR LFKC 101630Z 00000KT 9999 BKN021 13/10 Q1019 NOSIG=
METAR LFKF 101630Z AUTO 06007KT 030V100 9999 BKN019/// 13/10 Q1020=
METAR LFKJ 101630Z 00000KT 9999 FEW023 12/10 Q1019 NOSIG=
METAR LFLC 101630Z VRB02KT CAVOK 09/05 Q1016 NOSIG=
METAR LFMP 101630Z 10006KT 9999 BKN026 12/08 Q1018 NOSIG=
METAR LFMV 101630Z AUTO 27003KT 9999 NSC 10/07 Q1019=
METAR LFSL 101630Z AUTO 00000KT 9999 NSC 11/05 Q1015=

0000009700
323
SAKO31 RKSI 101630
METAR RKSI 101630Z 24003KT 9999 BKN040 M02/M05 Q1031 NOSIG=

0000092700
324
SAFR34 LFPW 101630
METAR LFCR 101630Z AUTO 13007KT 9999 NSC 12/02 Q1016=
METAR LFJL 101630Z AUTO 05003KT 040V100 9999 NSC 04/02 Q1019=
METAR LFLP 101630Z AUTO 30004KT 270V330 9999 NSC 09/06 Q1018=
METAR LFLS 101630Z AUTO 07002KT 0100 R09/0350N -RA FG VV/// 05/05
Q1018=
METAR LFLY 101630Z AUTO 13002KT 6000 NSC 08/06 Q1018=
METAR LFMU 101630Z AUTO 07006KT 9999 OVC027 12/08 Q1018=
METAR LFOB 101630Z AUTO 18008KT 9999 OVC010 06/04 Q1018=
METAR LFOH 101630Z AUTO 18008KT 150V210 9999 FEW008 BKN220 BKN240
06/04 Q1016=
METAR LFOK 101630Z AUTO 13002KT 9999 NSC 06/05 Q1018=
METAR LFOP 101630Z AUTO 15004KT 9999 OVC010 05/04 Q1017=
METAR LFPB 101630Z AUTO 16005KT 9999 OVC014 06/04 Q1018=
METAR LFQA 101630Z AUTO 21005KT 9999 OVC012 06/05 Q1018=
METAR LFQB 101630Z AUTO 35003KT 9999 NSC 07/05 Q1018=
METAR LFSN 101630Z AUTO 11002KT 9999 FEW033 05/03 Q1019=
METAR LFMT 101630Z NIL=

0000084700
325
SAFR35 LFPW 101630
METAR LFMI 101630Z AUTO 17002KT 9999 OVC025 12/08 Q1018=
METAR LFMK 101630Z AUTO 10013KT 9999 OVC022 12/07 Q1017=
METAR LFOV 101630Z AUTO 12007KT 0650 FG VV/// 06/06 Q1016=
METAR LFRD 101630Z AUTO 18005KT 5000 BR OVC003 07/06 Q1015=
METAR LFRI 101630Z AUTO 12004KT 9999 NSC 11/08 Q1015=
METAR LFRM 101630Z AUTO 07003KT 9999 OVC006 07/07 Q1017=
METAR LFRN 101630Z AUTO 12004KT 5000 BR OVC004 07/07 Q1016=
METAR LFRO 101630Z AUTO 16004KT 9999 NSC 08/05 Q1015=
METAR LFRV 101630Z AUTO 07003KT 4900 BR FEW008 BKN024 OVC040 08/07
Q1015=
METAR LFRZ 101630Z AUTO 05004KT 6000 FEW011 BKN042 BKN054 09/09
Q1015=
METAR LFSB 101630Z 12006KT 9999 BKN052 BKN230 07/03 Q1019 NOSIG=
METAR LFST 101630Z AUTO 00000KT 9999 FEW037 06/03 Q1019=
METAR LFTH 101630Z AUTO 21004KT 9999 BKN029 13/08 Q1019=

0000067200
326
SAFR36 LFPW 101630
METAR LFBA 101630Z AUTO 09006KT 9999 NSC 10/08 Q1014=
METAR LFBE 101630Z AUTO 13002KT 9999 NSC 12/08 Q1014=
METAR LFGJ 101630Z AUTO 01005KT 9999 NSC 08/04 Q1018=
METAR LFJR 101630Z AUTO 07004KT 9999 FEW006 BKN088 08/07 Q1016=
METAR LFMD 101630Z AUTO VRB02KT 9999 BKN023 11/09 Q1019=
METAR LFMH 101630Z 25002KT CAVOK 10/05 Q1017 NOSIG=
METAR LFOT 101630Z AUTO 05005KT 9999 NSC 08/06 Q1016=
METAR LFPN 101630Z 16004KT 9999 BKN010 06/04 Q1018 NOSIG=
METAR LFRC 101630Z AUTO 17008KT 9999 OVC005 07/06 Q1015=
METAR LFRG 101630Z AUTO 20010KT 9999 OVC007 05/04 Q1016=
METAR LFRK 101630Z AUTO 18006KT 9999 NSC 06/04 Q1016=

0000071700
327
SAFR37 LFPW 101630
METAR LFAQ 101630Z AUTO 19009KT 9000 OVC008 05/04 Q1017=
METAR LFAT 101630Z AUTO 18003KT 140V210 9999 NSC 06/04 Q1017=
METAR LFBU 101630Z AUTO 04006KT 9999 NSC 10/08 Q1015=
METAR LFLN 101630Z AUTO 06004KT 9999 NSC 09/05 Q1017=
METAR LFPM 101630Z AUTO VRB01KT 9999 OVC007 06/04 Q1018=
METAR LFPT 101630Z AUTO 16004KT 9999 OVC013 06/04 Q1018=
METAR LFRH 101630Z AUTO 13004KT 6000 -RA BKN004 BKN008 OVC072
09/08 Q1015=
METAR LFRQ 101630Z AUTO 14003KT 9000 OVC004 09/08 Q1014=
METAR LFRT 101630Z AUTO 18005KT 150V210 7000 BKN003 BKN008 07/06
Q1015=
METAR LFSD 101630Z AUTO 02001KT 9999 NSC 08/03 Q1018=
METAR LFTW 101630Z AUTO 15002KT 9999 OVC022 11/04 Q1018=

0000058700
328
SASP31 LEMM 101630
METAR LEMD 101630Z 00000KT CAVOK 14/04 Q1014 NOSIG=
METAR LEBL 101630Z VRB02KT 9999 FEW013 12/07 Q1018 NOSIG=
METAR LEPA 101630Z 04005KT 350V070 CAVOK 15/12 Q1017 NOSIG=
METAR LEZL 101630Z 00000KT CAVOK 15/08 Q1013 NOSIG=
METAR LEMG 101630Z 00000KT 9999 BKN030 14/11 Q1015 NOSIG=
METAR LEVC 101630Z VRB01KT 7000 OVC015 12/08 Q1018 NOSIG=
METAR LEAL 101630Z 07016KT 9999 FEW015 15/12 Q1016 NOSIG=
METAR LEIB 101630Z 04004KT 9999 SCT015 14/11 Q1016 NOSIG=
METAR LEVX 101630Z 28006KT 4000 BR FEW010 FEW015TCU OVC035 11/09
Q1015 NOSIG=

0000075800
329
SASP32 LEMM 101630
METAR LEAS 101630Z 31006KT 280V350 9999 FEW015 BKN030 11/10 Q1015
NOSIG=
METAR LEBB 101630Z VRB02KT CAVOK 12/09 Q1013 NOSIG=
METAR LECO 101630Z VRB02KT 9999 FEW019 SCT026 11/08 Q1016=
METAR LEGE 101630Z VRB02KT 7000 SCT019 09/07 Q1018=
METAR LEST 101630Z 03004KT 360V060 9999 SCT014 SCT030 10/08 Q1015
NOSIG=
METAR LEZG 101630Z 10007KT 060V130 5000 BR OVC002 06/05 Q1017=
METAR LESO 101630Z 35003KT 290V040 CAVOK 12/09 Q1013=
METAR LEVT 101630Z 23009KT CAVOK 09/05 Q1014=
METAR LERS 101630Z VRB01KT 8000 SCT021 11/07 Q1018=
METAR LEMH 101630Z VRB02KT 9999 FEW013 13/11 Q1018=
METAR LEAM 101630Z 06012KT 9999 FEW020 SCT100 15/10 Q1015=
METAR LEGR 101630Z 17005KT 120V210 9999 FEW100 14/06 Q1013=

0000038700
330
SACR31 LEMM 101630
METAR GCLP 101630Z 01015KT 9999 FEW032 21/10 Q1012 NOSIG=
METAR GCXO 101630Z 32014KT 290V350 9999 FEW012 15/10 Q1013 NOSIG=
METAR GCTS 101630Z VRB02KT 9999 FEW044 20/11 Q1012 NOSIG=
METAR GCRR 101630Z 08013KT 9999 SCT023 17/14 Q1012=
METAR GCFV 101630Z 04010KT 9999 FEW020 18/12 Q1011=
METAR GCLA 101630Z 02012KT 340V060 CAVOK 22/10 Q1012=

0000008800
331
SASP39 LEMM 101630
METAR LETL 101630Z AUTO 15006KT CAVOK 09/00 Q1016=

0000017900
332
SASP33 LEMM 101630
METAR LEVD 101630Z 09003KT CAVOK 09/06 Q1014=
METAR LEVS 101630Z 00000KT CAVOK 14/01 Q1015=
METAR LESA 101630Z 00000KT CAVOK 13/06 Q1014=

0000026500
333
SASP34 LEMM 101630
METAR LEDA 101630Z NIL=
METAR LEJR 101630Z 02006KT CAVOK 15/12 Q1012=
METAR LELL 101630Z 00000KT 8000 FEW020 11/07 Q1018=
METAR LEPP 101630Z VRB01KT CAVOK 09/06 Q1016=
METAR LEXJ 101630Z 00000KT 9999 FEW018 12/10 Q1014=

0000070400
334
SACI31 ZBBB 101630
METAR ZBAA 101630Z VRB01MPS 8000 NSC M08/M18 Q1032 NOSIG=
ZBSJ NIL=
METAR ZBTJ 101630Z 24003MPS 1300 R16R/P2000N BR NSC M02/M07 Q1032
NOSIG=
METAR ZBYN 101630Z 22001MPS 5000 HZ NSC M07/M19 Q1028 NOSIG=
METAR ZGGG 101630Z 09003MPS 5000 BR BKN050 12/08 Q1024 NOSIG=
METAR ZSHC 101630Z 09002MPS 6000 NSC 06/01 Q1030 NOSIG=
METAR ZSPD 101630Z 10004MPS 020V130 CAVOK 06/M01 Q1032 NOSIG=
METAR ZSSS 101630Z 10004MPS CAVOK 06/M02 Q1031 NOSIG=
ZWSH NIL=
METAR ZWWW 101630Z VRB01MPS 0600 R25/1000N FZFG NSC M17/M20 Q1038
NOSIG=
METAR ZYTL 101630Z 31001MPS 4000 BR SCT033 M03/M08 Q1031 NOSIG=
METAR ZYTX 101630Z 16002MPS 7000 NSC M13/M20 Q1031 NOSIG=

0000011800
335
FTFI31 EFHK 101400 AAC
TAF AMD EFRO 101636Z 1016/1115 04016KT CAVOK TEMPO 1016/1018
     1200 BR=

00000000