0000068900
896
UDEU02 EGRR 111216 RRA
AMDAR 1111
LVR EU1795   5605N 03052E 111122 F329 MS552 315/058 TB0 S031=
LVR EU1795   5553N 03240E 111129 F329 MS552 322/040 TB0 S031=
LVR EU1795   5538N 03424E 111136 F329 MS555 317/041 TB0 S031=
LVR EU1795   5543N 03601E 111143 F296 MS562 322/037 TB0 S031=
UNS EU1795   5557N 03721E 111150 F199 MS357 305/020 TB/ S031=
DES EU1795   5529N 03756E 111157 F115 MS172 317/023 TB/ S031=
UNS EU1795   5507N 03816E 111204 F052 MS055 319/026 TB/ S031=
UNS EU1795   5508N 03814E 111204 F047 MS052 309/030 TB/ S031=
DES EU1795   5518N 03759E 111209 F032 MS025 294/030 TB/ S031=
DES EU1795   5521N 03756E 111211 F021 PS002 281/023 TB/ S031=
0000015400
897
SMVS02 VNNN 111200
AAXX 11121
48823 01697 81101 10191 20174 30202 40205 52016 69904 70262 885// 333 00019 10210 58014 69902 79999 88696=
0000013600
898
SMVS01 VNNN 111200
AAXX 11121
48825 32697 83202 10174 20149 30197 40206 53010 888// 333 00018 10180 58011 70000 88696=
0000115300
899
SMOM10 OOMS 111200
AAXX 11124
41241 NIL=
41242 NIL=
41244 36/// /2406 10216 20079 39832 48246
333 0E015 59001 =
41246 NIL=
41249 36/// /3007 10201 20079 39452 40132
333 0E013 59005 =
41252 NIL=
41253 NIL=
41254 NIL=
41255 36/// /2302 10225 20046 39649 40200
333 0E016 58001 =
41256 32581 60615 10213 20089 30186 40196 81501 333 59014 81630
85070=
41257 36/// /0904 10210 20065 39708 40202
333 0E011 59007  =
41258 NIL=
41259 36/// /2610 10071 21228 37117 49991
333 0E/// 59003  =
41262 36/// /1403 10246 20069 39981 40177
333 0E017 58003 =
41263 NIL=
41265 36/// /1304 10233 21033 39584 40162
333 0E013 59009 =
41267 36/// /3610 10209 20076 30187 40203
333 0E016 59006  =
41268 36/// /0112 10212 20102 30184 48375
333 0E017 59006 =
41270 NIL=
41272 NIL=
41275 NIL=
41276 NIL=
41280 NIL=
41287 NIL=
41288 36/// /0719 10226 20113 30169 40191
333 0E019 59002 =
41291 NIL=
41293 NIL=
41295 NIL=
41304 NIL=
41314 32660 59906 10251 20090 39659 40156 82501
  333 59005 82630 84080 =
41315 36/// /1412 10185 20130 39170 42808
333 0E/// 59002  =
41316 NIL=
0000109600
900
SAAR20 OEJD 111200
METAR OBBI 111200Z 19008KT 9999 FEW020 17/14 Q1018 NOSIG=
METAR OKBK 111200Z 32013KT CAVOK 15/09 Q1017 NOSIG=
METAR OMAA 111200Z 25003KT 200V310 CAVOK 23/10 Q1018 A3006 NOSIG=
METAR OMAD 112000Z 29005KT 9999 -RA FEW045 22/12 Q1018 A3008 NOSIG=
METAR OMAL 111200Z 20007KT CAVOK 21/09 Q1019 A3011 BECMG 27008KT=
METAR OMDB 111200Z 25007KT CAVOK 23/10 Q1020 NOSIG=
METAR OMFJ 111200Z 13006KT 100V160 9999 FEW020 SCT100 21/10 Q1018
                   A3008=
METAR OMRK 111200Z 10003KT 9999 FEW040 22/10 Q1019 A3011=
METAR OMSJ 111200Z 25006KT 210V310 9999 -RA SCT040 22/10 Q1020=
METAR OOBR 111200Z NIL=
METAR OOKB 111200Z NIL=
METAR OOMS 111150Z 06015KT 9999 FEW030 BKN200 21/09 Q1019 NOSIG=
METAR OOSA 111150Z 13012KT 080V170 9999 BKN025 25/15
Q1016 NOSIG=
METAR OOSH 111200Z NIL=
METAR OOSQ 111200Z NIL=
METAR OOSR 111200Z NIL=
METAR OOTH 111200Z NIL=
METAR OOYB 111200Z NIL=
METAR OTBD 111200Z 23005KT 190V320 9999 FEW018 SCT100 OVC120 17/14
Q1019 RERA NOSIG=
METAR OYAA 111200Z 15012KT 9999 SCT020 27/18 Q1014 NOSIG=
0000010100
901
SAAR20 OEJD 111200 RRA
METAR OYSN 111200Z 27010G20KT 240V320 9999 SCT030 23/02 Q1024=
0000104600
902
SMAU01 AMMC 111200
AAXX 11124
94102 46/// /2220 10273 20247 30076 40085=
94103 46/// /2311 10295 30087 40092=
94120 46/// /2010 10275 20242 30034 40074=
94122 46/// /2005 10286 20250 30061 40069=
94131 46/// /1009 10274 20223 39936 40087=
94132 NIL=
94147 NIL=
94150 46/// /1305 10263 20246 39999 40058=
94151 46/// /1009 10278 20242 30047 4////=
94170 46/// /1404 10251 20242 30052 40074=
94200 NIL=
94203 46/// /2811 10297 20250 30062 40072=
94206 46/// /0000 10365 20133 39924 40052=
94207 46/// /2710 10292 30081 40089 53018=
94211 NIL=
94212 46/// /0604 10346 20117 39597 40060=
94216 46/// /0209 10266 20217 30014 40064=
94236 NIL=
94238 46/// /0420 10340 20147 39652 40065=
94248 46/// /1413 10273 20251 30065 40079=
94255 46/// /0606 10314 20177 39817 40073=
94268 46/// /1506 10249 20237 30078 40090=
94287 46/// /1807 10238 20226 30108 40117=
94290 NIL=
94294 46/// /1212 10278 20218 30115 40125=
94296 NIL=
94298 46/// /1018 10270 30107 40113 52006=
95641 NIL=

0000004100
903
SMNG01 AMMC 111200
NIL

0000039200
904
SMAA01 AMMC 111200
AAXX 11124
89564 41981 11304 10061 21018 39900 49920 51010 70200 81030=
89570 NIL=
89571 41980 22705 10074 21043 39869 49898 52006 70111 82080=
89573 35980 30905 10064 21030 39887 49909 52003 83040
  333 80000 00297=
89610 NIL=
89611 41408 82107 10002 21002 39839 49891 51024 77177 885/0=
89614 NIL=
89615 NIL=
89807 NIL=
89809 NIL=

0000037200
905
SAME31 OEJD 111200
METAR OJAI 111200Z 29012KT 9999 SCT030 12/06 Q1023 NOSIG=
METAR OJAM 111200Z 33010KT 5000 HZ BKN025TCU 12/04 Q1022 NOSIG=
METAR OJAQ 111200Z 35008KT 9999 SCT030 18/07 Q1023 NOSIG=
METAR OLBA 111200Z NIL=
METAR OSAP 111200Z NIL=
METAR OSDI 111200Z 28004KT CAVOK 14/02 Q1022=
METAR OSLK 111200Z 22008KT 9999 SCT030 18/08 Q1022=
0000095400
906
SMAA80 AMMC 111200
AAXX 11124
61997 06/// /3318 10110 20108 39773 49945 56039 60211
  333 4//// 60067 90710 91133=
61998 12580 12321 10079 20015 30035 40072 53009 60001 81245
  333 58035 81830 90710 91129=
68994 32598 60209 10095 20043 30009 40038 53012 83572 222// 00075
  333 10117 20065 91019=
89009 42361 70411 11235 36918 58001 87600
  333 11222 21241 87708=
89532 42/60 70403 11002 21016 39915 49942 54000 8257/
  333 10007 21030=
89542 NIL=
89564 41981 11304 10061 21018 39900 49920 51010 70200 81030=
89570 NIL=
89571 41980 22705 10074 21043 39869 49898 52006 70111 82080=
89573 35980 30905 10064 21030 39887 49909 52003 83040
  333 80000 00297=
89592 NIL=
89606 NIL=
89610 NIL=
89611 41408 82107 10002 21002 39839 49891 51024 77177 885/0=
89614 NIL=
89642 42865 71602 10015 21038 39874 49927 51012 875//
  333 10035 20015 87656=
89762 NIL=
89807 NIL=
89809 NIL=
89813 NIL=

0000004100
907
SMSO03 AMMC 111200
NIL

0000115700
908
SMVE01 AMMC 111200
BBXX
ZM2619 11123 99440 51778 41/98 21913 10149 20082 40139 54000 70211
22222 29901 322// 40703 80115=
VNSZ 11104 99407 31461 46/// /3223 10161 20121 30110 40136 52010
22276 04164 85137=
C6FS9 11104 99239 31514 46/// /1321 10256 20197 30116 40152 52009
22232 04274 85215=
VRRC 11124 99022 11319 41/98 42308 10290 20248 40091 70100 8////
22272 2//// 80260=
VNAH 11104 99383 31416 46/// /1908 10164 20114 30197 40221 52008
22200 04176 85135=
VNSZ 11114 99403 31458 46/// /2922 10153 20119 30126 40152 52023
22276 04163 85133=
VMGO 11114 99391 31466 41/97 82533 10164 20141 40180 52015 70322
897// 22263 00132 299// 80151=
C6FS9 11114 99239 31515 46/// /1122 10256 20195 30123 40159 52014
22212 04275 85214=
VNAH 11114 99383 31416 46/// /1808 10163 20123 30201 40225 52011
22200 04176 85139=
JPAT 11124 99331 31142 41898 11621 10234 20197 40113 53007 70200
81035 22253 00228 10808 20402 31621 40604 50503=
VNSZ 11124 99399 31456 46/// /2917 10150 20117 30142 40168 52046
22276 04162 85131=
C6FS9 11124 99239 31517 46/// /1221 10252 20197 30120 40156 52006
22223 04272 85214=

0000330100
909
SAWD01 OEJD 111200
METAR DAAG 111200Z 09003KT CAVOK 19/11 Q1019=
METAR DTTA 111200Z 15005KT 120V190 9999 FEW023 19/07 Q1019 NOSIG=
METAR EBBR 111150Z 25012KT 6000 -RA SCT010 BKN015 06/04 Q1017
     TEMPO BKN009=
METAR EDDH 111150Z 22013KT 8000 -RA BKN009 05/03 Q1008 BECMG
22015G25KT 4000 RA=
METAR EFHK 111150Z VRB02KT 9999 OVC008 M04/M05 Q1000 NOSIG=
METAR EGLL 111150Z 28007KT 9999 FEW016 08/04 Q1019 NOSIG=
METAR EHAM 111155Z 28018KT 250V310 9999 FEW013 SCT020 08/06 Q1013
BECMG 31018G28KT=
METAR EIDW 111200Z 23009KT 9999 FEW009 05/01 Q1019 BECMG SCT010=
METAR EKCH 111150Z 23016KT 8000 RA BKN009 BKN030 06/06 Q1004
TEMPO BKN012=
METAR ELLX 111150Z 25006KT 5000 NSC 05/04 Q1017 NOSIG=
METAR ENFB 111150Z AUTO 07006KT 050V120 9999NDV BKN023/// 04/M01
           Q0999 W///S5=
METAR EPWA 111200Z 26010KT 9999 BKN023 06/01 Q1013 NOSIG=
METAR ESSA 111150Z 01009KT 9999 BKN008 BKN012 M03/M04 Q1000
R01L/520170 R08/510165 R01R/////// NOSIG=
METAR ETBS 111200Z NIL=
METAR GMME 111200Z 18003KT 5000 -RA SCT020 BKN080 15/12 Q1019 NOSIG=
METAR GQNN 111200Z 05012KT 020V080 8000 NSC 23/12 Q1016 NOSIG=
METAR HAAS 111200Z NIL=
METAR HCMM 111200Z NIL=
METAR HECA 111200Z 32003KT 9999 FEW025 19/07 Q1024 NOSIG=
METAR HLLT 111150Z
24007KT CAVOK 22/05 Q1022=
METAR HSSS 111200Z 03012KT CAVOK 24/M03 Q1017NOSIG=
METAR KBOS 111154Z 13003KT 3/4SM R04R/2800V3000FT -RA BR FEW005 BKN045
     OVC095 04/03 A3005=
METAR KIAD 111152Z COR 00000KT 3/4SM R01R/P6000FT -RA BR OVC004 02/01
     A2987=
METAR KJFH 111200Z NIL=
METAR KWBS 111200Z NIL=
METAR LEMD 111200Z 20002KT CAVOK 11/06 Q1019 NOSIG=
METAR LFPO 111200Z 29004KT 180V320 9999 BKN006 08/06 Q1020 TEMPO
SCT006=
METAR LGAV 111150Z 05007KT 010V080 9999 SCT020 15/09 Q1022 NOSIG=
METAR LIRF 111150Z 08004KT 040V110 9000 SCT030 13/09 Q1022 NOSIG=
METAR LOWW 111150Z 16005KT 130V200 9999 FEW055 BKN280 07/02 Q1019
NOSIG=
METAR LSGG 111150Z VRB02KT 9999 FEW030 SCT220 10/06 Q1021 NOSIG=
METAR LTAC 111150Z VRB02KT 8000 OVC009 M01/M02 Q1023 NOSIG=
METAR OAKB 111150Z 15005KT 6000 FEW120 03/M14 Q1024 NOSIG RMK WHT WHT=
METAR OBBI 111200Z 19008KT 9999 FEW020 17/14 Q1018 NOSIG=
METAR OJAM 111200Z 33010KT 5000 HZ BKN025TCU 12/04 Q1022 NOSIG=
METAR OKBK 111200Z 32013KT CAVOK 15/09 Q1017 NOSIG=
METAR OLBA 111200Z NIL=
METAR OMAA 111200Z 25003KT 200V310 CAVOK 23/10 Q1018 A3006 NOSIG=
METAR OOMS 111150Z 06015KT 9999 FEW030 BKN200 21/09 Q1019 NOSIG=
METAR OPKC 111155Z 09008KT 8000 SCT200 22/M07 Q1019 NOSIG=
METAR OPRN 111200Z 27008KT 6000 FEW200 16/01 Q1020.3/30.12=
METAR ORBB 111200Z NIL=
METAR OSDI 111200Z 28004KT CAVOK 14/02 Q1022=
METAR OTBD 111200Z 23005KT 190V320 9999 FEW018 SCT100 OVC120 17/14
Q1019 RERA NOSIG=
METAR OYAA 111200Z 15012KT 9999 SCT020 27/18 Q1014 NOSIG=
METAR OYSN 111200Z 27010G20KT 240V320 9999 SCT030 23/02 Q1024=
METAR RKSS 111200Z 02001KT 9999 SCT030 M02/M12 Q1030 NOSIG=
METAR UUEE 111200Z NIL=
METAR VCBI 111210Z 33008KT 9999 FEW016 BKN300 28/23 Q1010 NOSIG=
METAR VGZR 111200Z NIL=
METAR VHHH 111200Z NIL=
METAR VIDP 111200Z 32008KT 2800 HZ NSC 16/08 Q1018 NOSIG=
METAR WIIH 111200Z NIL=
METAR WMKK 111200Z NIL=
METAR WSSS 111200Z 01006KT 290V060 9999 FEW018 SCT280 26/23 Q1010
NOSIG=
0000024700
910
SMNG02 AMMC 111200
AAXX 11123
92003 NIL=
92004 NIL=
92005 NIL=
92006 NIL=
92022 NIL=
92035 11460 80000 10250 20243 30011 40078 51001 60111 76069 8357/=
92068 NIL=
92072 NIL=
92076 NIL=
92077 NIL=
92087 NIL=

0000028700
911
SMSO02 AMMC 111200
AAXX 11123
91502 01470 80000 10257 20252 40077 50003 60261 71598 83977
  333 10314 56999 59007 60137 83814 81915 83360 87280=
91507 01465 80000 10256 20248 40076 50012 60201 72598 889//
  333 10/// 56999 59011 60207 86815 82916=
91541 NIL=

0000132000
912
SMSD10 OEJD 111200
AAXX 11124
40356 32560 63312 10070 20040 39225 48512 84520 333 58062 84630 86460 555 04410 50226=
40357 32560 83315 10089 20090 39553 40206 88600 333 58071 84720 84730=
40360 12960 02804 10134 20000 39619 40221 69952 333 58051=
40361 32560 83218 10108 20000 39428 40213 885// 333 58067 88630=
40362 32960 43023 10104 20040 39652 40178 83070 333 58056 83360=
40373 32560 22712 10142 20070 39752 40176 82100 333 58015 82830=
40375 32660 23412 10152 20020 39325 40212 82200 333 58049 82840=
40377 32660 23218 10150 20110 39699 40182 82500 333 59008 82640=
40394 32660 63318 10112 20020 39052 48519 86500 333 58058 86640 555 04410 50198=
40400 32960 02812 10230 20090 30170 40198 333 58043=
40401 32960 03606 10165 21010 39502 40216 333 58058=
40405 32660 43310  10170  20080  39428  40171  84400 333 58053  84640=
40416 12660 41913 10170 20130 30146 40166 69962 84200 333 59013 84840=
40417 31558 81913 10172 20120 30160 40175 70500 8452/ 333 59019 84630 88459=
40420 12760 52110 10177 20130 39962 40172 60032 82130 333 59014 82850 83360=
40430 32960 00304 10190 21020 39468 40197 333 58058=
40435 32960 03012 10160 20020 39124 40165 333 58023=
40437 32960 03211 10170 20100 39472 40182 333 58013=
40439 32960 02108 10244 20030 30158 40168 333 58035=
0000080400
913
SMSD12 OEJD 111200
AAXX 11124
41024 32960 03115 10260 20030 30135 40155 333 58017=
41030 32960 03004 10278 20120 39865 40139 333 58015=
41036 32560 20404 10160 20050 38569 48518 82100 333 58030 82830 555 04410 50146=
41055 32560 20000 10163 20140 38362 48510 82400 333 58013 82630 555 04410 50145=
41061 32960 01804 10240 20120 39430 40130 333 58001=
41084 NIL=
41112 12460 21810 10153 20140 37948 48518 60042 86600 333 58001 82712 84615 555 04410 50168=
41114 12560 52415 10152 20120 37980 48515 60032 85400 333 58002 85625 555 04410 50162=
41128 32560 70606 10250 20060 38790 48497 84470 333 59002 84630 86359
555 04410 50109=
41136 32660 42305 10278 20090 39304 40110 83430 333 59004 83640=
41140 32560 62312 10292 20210 30134 40143 83830 333 58014 83825 83360=
0000207900
914
SMSD20 OEJD 111200
AAXX 11124
40356 32560 63312 10070 20040 39225 48512 84520 333 58062 84630 86460 555 04410 50226=
40357 32560 83315 10089 20090 39553 40206 88600 333 58071 84720 84730=
40360 12960 02804 10134 20000 39619 40221 69952 333 58051=
40361 32560 83218 10108 20000 39428 40213 885// 333 58067 88630=
40362 32960 43023 10104 20040 39652 40178 83070 333 58056 83360=
40373 32560 22712 10142 20070 39752 40176 82100 333 58015 82830=
40375 32660 23412 10152 20020 39325 40212 82200 333 58049 82840=
40377 32660 23218 10150 20110 39699 40182 82500 333 59008 82640=
40394 32660 63318 10112 20020 39052 48519 86500 333 58058 86640 555 04410 50198=
40400 32960 02812 10230 20090 30170 40198 333 58043=
40401 32960 03606 10165 21010 39502 40216 333 58058=
40405 32660 43310  10170  20080  39428  40171  84400 333 58053  84640=
40416 12660 41913 10170 20130 30146 40166 69962 84200 333 59013 84840=
40417 31558 81913 10172 20120 30160 40175 70500 8452/ 333 59019 84630 88459=
40420 12760 52110 10177 20130 39962 40172 60032 82130 333 59014 82850 83360=
40430 32960 00304 10190 21020 39468 40197 333 58058=
40435 32960 03012 10160 20020 39124 40165 333 58023=
40437 32960 03211 10170 20100 39472 40182 333 58013=
40439 32960 02108 10244 20030 30158 40168 333 58035=
41024 32960 03115 10260 20030 30135 40155 333 58017=
41030 32960 03004 10278 20120 39865 40139 333 58015=
41036 32560 20404 10160 20050 38569 48518 82100 333 58030 82830 555 04410 50146=
41055 32560 20000 10163 20140 38362 48510 82400 333 58013 82630 555 04410 50145=
41061 32960 01804 10240 20120 39430 40130 333 58001=
41084 NIL=
41112 12460 21810 10153 20140 37948 48518 60042 86600 333 58001 82712 84615 555 04410 50168=
41114 12560 52415 10152 20120 37980 48515 60032 85400 333 58002 85625 555 04410 50162=
41128 32560 70606 10250 20060 38790 48497 84470 333 59002 84630 86359
555 04410 50109=
41136 32660 42305 10278 20090 39304 40110 83430 333 59004 83640=
41140 32560 62312 10292 20210 30134 40143 83830 333 58014 83825 83360=
0000011000
915
UANT01 CWAO 111213
ARP DAL15 5305N02701W 1213 F310 MS56 188/78 KT
N839MH QXT AOE 111213 F37A
00000000