0000009900
516
SAIQ01 ORBI 111200
METAR ORER 111200Z VRB02KT 9999 FEW030 SCT090 10/07 Q1017 NOSIG=
0000232400
517
SMBM01 VBRR 111200
AAXX 11124
48001 31220 80000 10160 20144 40166 71522 8597/ 333
10200 56779 58019=
48004 32440 30000 10189 20175 83800 333 10242 56500=
48008 32950 00000 10205 20160 40152 333 10265 58011=
48010 32020 00000 10220 20205 40151 333 10262 58015=
48018 32956 00000 10230 20163 40136 333 10290 58001=
48019 32940 00000 10210 20160 40146 333 10272 58005=
48020 32220 10000 10210 20175 81400 333 10280 56900=
48025 32440 12701 10234 20143 40151 81500 333 10267
56900 58011=
48035 31910 00000 10186 20118 40141 70500 333 10268
58020=
48037 32930 00000 10255 20179 40123 333 10291 58006=
48042 32557 10000 10265 20185 40140 81400 333 10294
56900 58025=
48045 32956 01801 10152 20111 333 10220=
48048 32940 00401 10257 20203 40137 333 10292 58011=
48051 32958 00000 10230 20160 333 10310=
48053 32950 00000 10260 20179 40138 333 10300 58012=
48060 32410 10000 10213 20143 40152 81100 333 10265
56500 58005=
48062 31550 22701 10256 20230 40142 70522 82500 333
10290 56900 58014=
48071 31956 03201 10250 20215 40140 70500 333 10278
58005=
48075 32456 20000 10220 20170 40152 82500 333 10275
56500 58009=
48077 32957 00000 10270 20172 40126 333 10322 58010=
48078 32950 10000 10212 20131 40140 80001 333 10322
56009 58016=
48080 31556 10000 10263 20229 40138 70511 81500 333
10223 56900 58009=
48085 32956 20000 10268 20226 40131 80006 333 10317
56009 58011=
48095 32950 00000 10280 20220 333 10316=
48108 31595 60000 10280 20203 40129 70522 82405 333
10343 56209 58009=
48109 32496 30401 10280 20250 40134 70322 82530 333
10314 56990 58005=
48110 31995 23202 10280 20233 40123 70511 80005 333
10340 56009 58009=
48112 32598 63602 10289 20215 40113 70522 80016 333
10317 56099 58001=
48030 32960 02201 10150 20047 333 10206=
48072 31956 00000 10230 20230 70500 333 10300=
48087 32950 10000 10258 20203 80001 333 10335 56009=
48099 32440 40401 10275 20220 40120 82831 333 10333
56999 58009=
48101 32950 10000 10271 20240 70111 80001 333 10322
56009=
48103 32430 40000 10280 20220 40126 84700 333 10340
56500 58010=
48057 32957 02201 10182 20108 333 10251=
48094 32950 10401 10260 20230 40133 80001 333 10330
56009 58008=
48097 32456 72701 10260 20203 40131 70222 82506 333
10335 56909 58010=
0000018300
518
SMNO25 ENMI 111200 RRA
AAXX 11121
01265 16/// /2902 11129 21144 39432 40043 58002 69951 333 91104=
01469 16/// /3403 11041 21060 39825 40000 50005 60001 333 91107=
0000015900
519
SMNO26 ENMI 111200 RRA
AAXX 11121
01476 46/// /2207 10043 20015 39972 49978 57007 333 91109=
01488 16/// /2901 11050 21074 69911 333 91102=
0000126200
520
SMSP02 LEMM 111200
AAXX 11124
08055 12975 21201 10093 20017 39135 48507 50004 60001 81075
  333 50100=
08075 11135 40205 10048 20045 39159 48498 50005 60001 71042 83602
  333 50021=
08084 01340 82702 10069 20047 39780 40219 50005 60001 71044 886//
  333 60007=
08171 11450 80605 10088 20069 39971 40213 58001 60001 71022 886//=
08184 02562 80402 10125 20090 30045 40200 50000 60001 885//
  333 60007=
08202 02970 31502 10132 20040 39259 42802 58001 60001 80001
  333 5///0 60007=
08235 NIL=
08238 11430 83603 10126 20090 30138 40199 51004 60001 71022 885//=
08280 11130 89902 10064 20058 39375 40207 50002 60001 71042 886//=
08330 11960 00804 10136 20118 39958 40187 50001 60001 70244=
08348 11756 70803 10091 20071 39459 40199 50005 60001 71022 86048=
08360 02662 72804 10151 20081 30154 40192 58005 60001 81516
  333 60007=
08373 02462 72107 10156 20123 30167 40188 50000 60001 81776
  333 60007=
08410 02870 60705 10135 20080 30085 40195 50002 60001 81571
  333 60007=
08419 02565 73504 10131 20082 39524 40187 50000 69911 81671
  333 69917=
08451 02980 21403 10181 20136 30160 40192 50007 60001 82030
  333 60007=
08487 02470 71502 10158 20095 30168 40193 50004 60001 83870
  333 60007=
0000135100
521
SMTU10 LTAA 111200
AAXX 11124
17022 12665 22705 10090 20058 30067 40234 57014 60001 82100
 333 82834 91108 92427=
17031 12670 63406 10110 20042 30224 40230 52001 60001 82150
 333 82836 86360 91116=
17038 12670 72916 10114 20072 30173 40225 55000 60001 83250
 333 83835 86360 91128 92438=
17050 11965 03601 10079 20073 30169 40233 57024 60001 72844
 333 91104=
17060 12960 02307 10109 20057 30193 40233 57017 60001
 333 91113=
17096 11520 31202 11128 21128 38243 48529 56011 60001 71041 83500
 333 83630=
17124 11356 80901 10000 21023 39325 40278 57012 60001 71022 886//
 333 88707 91106=
17128 11358 89902 11012 21022 39134 40282 57013 60001 71022 886//
 333 88709=
17170 11658 22903 10000 21054 38329 48505 55004 60001 70500 82500
 333 82640=
17195 11935 00000 10033 21036 39013 48522 57015 60001 70541
 333 91106=
17197 12960 3//// 10072 21003 39120 40222 56016 60001 80001
 333 83070=
17219 11558 61404 10142 20048 30075 40222 56020 60001 70511 83250 333 83830 86360=
17240 12970 53602 10072 21010 39075 40252 57011 60001 85030 333 85360 91104=
17244 11542 40000 10029 21011 39040 48524 57012 60001 71041 81501
 333 81630 84070=
17280 12970 21306 10103 21036 39398 40204 56014 60001 80001
 333 82070=
17350 12960 32009 10168 21001 30130 40210 56018 60001 83030
 333 83360=
0000129800
522
SMTU11 LTAA 111200
AAXX 11124
17026 11458 63205 10097 20095 30192 40231 57004 60001 71022 84650
 333 84710 86360 91113 92426=
17034 12670 60402 10112 20047 30190 40237 53001 60001 83250 333 83835 86360 92428=
17070 12565 22704 10118 20009 39350 40229 56020 60001 82500
 333 82630 91107=
17084 11657 83102 10011 21042 39335 40277 57012 60001 70522 8352/  333 83640 88460 91113=
17090 12965 40103 10073 21088 38744 48516 57013 60001 80001
 333 84070=
17098 12660 50000 11102 21132 38195 48523 56009 60001 85500
 333 85635 91106=
17150 11656 40000 10094 20042 30111 40238 57020 60001 71022 84100
 333 84835 91104=
17160 11440 81101 10007 21012 39073 48526 57009 60001 71022 886//
 333 88718 91106=
17184 12665 61501 10109 20028 30120 40234 57021 60001 83250
 333 83840 86360 91102=
17190 11508 71303 10010 20008 39036 48520 57013 60001 74244 84550
 333 84625 86358=
17210 12970 02402 10084 21074 39158 40209 56006 60001=
17234 12670 60903 10109 20042 30158 40227 57021 60001 83250
 333 83840 86360 91111=
17260 12960 02513 10140 21074 39372 40201 57021 60001=
17290 12670 61603 10166 20123 30191 40223 57018 60001 82250
 333 82835 86360 91109 92418=
17370 12665 63301 10173 20052 30212 40216 57015 60001 82230
 333 82835 86360 92417=
0000116700
523
SMTU12 LTAA 111200
AAXX 11124
17024 12462 82904 10094 20075 30149 40227 57009 60001 8462/
 333 84710 88460 91122 92437=
17056 11/00 91101 10076 20072 30229 40233 57019 60001 74544
 333 89/02 91105 92411=
17067 11960 02906 10118 20044 30202 40225 57021 60001 70500
 333 91111 92417=
17092 11958 40000 10015 21129 38893 48508 55015 60001 70522 84030
 333 84360 91106=
17112 11965 20507 10135 20063 30221 40223 57020 60001 70340 80001
 333 82070 91112 92427=
17115 12960 00000 10125 20034 30176 40228 57022 60001
 333 91105=
17116 12965 01103 10126 20009 30114 40237 57023 60001=
17188 12970 02105 10094 21018 39159 40235 57011 60001
 333 91108=
17202 12970 50904 10044 21041 39182 40241 56016 60001 80001
 333 85070=
17248 11965 02102 10025 21021 39024 48518 55012 60001 70240=
17292 12670 72903 10119 20070 39463 40231 57020 60001 83270
 333 83835 87360 91108=
17300 12560 51705 10160 20073 30142 40214 57015 60001 81101 333 81830 85070=
17310 12670 32705 10174 20093 30204 40211 55012 60001 81201 333 81836 83070 91107 92438=
17330 12970 50000 10171 20064 30192 40210 57021 60001 83031
 333 83360 85070=
0000102300
524
SMTU13 LTAA 111200
AAXX 11124
17042 12670 71302 10109 20053 30199 40239 53009 60001 84250
 333 84835 87360 92438=
17074 11540 60103 10003 21025 39291 40267 55007 60001 71022 84520
 333 84626 86458 91108=
17086 12970 02502 10042 21040 39516 40257 57018 60001=
17088 12670 62502 10055 21116 38805 48500 57011 60001 84550
 333 84640 86360=
17140 11907 02103 11021 21029 38739 48517 55005 60001 74644=
17155 11957 00601 10053 21021 39106 40256 57017 60001 70542
 333 91104=
17203 12970 01103 10027 21106 38892 48534 57016 60001=
17237 12970 00502 10132 21001 39720 40228 57018 60001
 333 91104=
17250 12970 02508 10074 21068 38839 48523 55009 60001=
17270 12670 22705 10139 21046 39545 40196 57016 60001 82200
 333 82840=
17295 12560 62404 10151 20093 30217 40224 57019 60001 81101
 333 81830 86068=
17320 12970 32408 10178 20093 30204 40209 57021 60001 83030
 333 83360 92438=
17375 12670 52103 10162 20095 30213 40215 57020 60001 81101
 333 81835 85070 91110 92428=
0000108000
525
SMTU14 LTAA 111200
AAXX 11124
17500 12560 42912 10178 20084 30159 40217 56019 60001 82101
333 82825 83070=
17501 12560 22722 10166 20090 30190 40209 57026 60001 82100
  333 82825 92437=
17505 12560 22712 10170 20082 30115 40227 57019 60001 82100
  333 82825=
17507 12560 42911 10169 20075 30118 40232 57023 60001 82101
333 82825 83070=
17510 12560 22812 10175 20094 30185 40195 57015 60001 82100
333 82830 92437=
17515 12560 21705 10181 20035 30058 40232 57025 60001 82100
  333 82825=
17521 12560 32704 10177 20045 30075 40216 57020 60001 82101
333 82825=
17530 12560 22305 10190 20023 30169 40225 57012 60001 82100
  333 82825=
17535 12560 22509 10185 20031 30174 40210 57022 60001 82100
  333 82825=
17540 12560 12004 10175 20045 30215 40239 57021 60001 81100
333 81830 92427=
17547 12560 11114 10153 20086 39971 40213 55019 60001 81100
333 81830 92427=
17550 12560 22707 10171 20075 30069 40214 57021 60001 82100
  333 82825 92437=
17572 12560 23014 10168 20076 30202 40226 57011 60001 82100
333 82830 92437=
0000019700
526
SMMC02 GMMC 111200 RRA
AAXX 11124
60060 32460 10207 10177 20110 40197 50012 81500
  333 81616 95300=
60210 32558 63616 10125 20042 39001 48513 50004 83270
  333 83826 85458=
0000048000
527
SMBJ01 DBBB 111200
AAXX 11124
65306 31956 51010 10313 20043 39797 40126 70522 80002
  333 0//00 59001 85076=
65319 31910 51408 10324 20146 39636 40110 70522 80002
  333 0//00 58005 85076=
65330 31910 51006 10325 20063 39674 40106 70522 80002
  333 0//00 59015 85076=
65335 32956 50000 10335 20184 39881 40101 80002
  333 0//00 59004 85076=
65344 32458 71806 10304 20252 30103 40110 85802
  333 0//00 58006 83612 83813 85076 94919 95837=

/=
0000014000
528
SMGO01 FOOL 111200
AAXX 11124
64507 32470 61503 10310 20248 3//// 40/// 86800
  333 0//00 5//// 83813 86630 94939 95839=
0000053700
529
SMPL01 SOWR 111200
AAXX 11121
12120 12470 82509 10054 20034 30079 40083 58009 60001 885//
  333 93000=
12250 12573 82303 10053 20021 30035 40124 58010 60001 885//
  333 91008 91109 93000=
12295 11673 82604 10047 20021 39930 40115 52006 69911 70282 885//
  333 91111 93091=
12330 12465 72304 10056 20019 30028 40137 58014 60001 878//
  333 93000=
12375 12570 72504 10060 20011 30010 40141 58007 60001 85232
  333 91112 93000=
12424 12999 22206 10078 20016 30006 40158 58015 60001 81032
  333 93000=
0000058300
530
SMYG10 LYBM 111200
AAXX 11121
13160 32997 42204 10121 20063 30099 40207 57019 84030=
13262 32998 00901 10149 20066 30060 40206 57026=
13272 32970 52001 10134 20050 30094 40212 57016 80002=
13285 32998 01103 10121 20012 30122 40224 57019=
13289 32598 12702 10083 21002 39018 48525 56007 81100=
13376 32997 10701 10114 20047 39962 40223 57023 80001=
13388 32697 60000 10079 20023 39988 40238 58017 86500=
13462 32660 50000 10133 20064 30191 40231 57016 83830 333 81840
84359=
13473 NIL=
13489 31695 22101 10076 20060 39694 40215 58023 72840 82500=
0000027000
531
SXHW11 KWAL 111210
B159741A 011121053 
DY DH PC VB
14/01/11 12:00 25.48
14/01/11 11:45 25.48
14/01/11 11:30 25.48
14/01/11 11:15 25.48
14/01/11 11:00 25.48
14/01/11 10:45 25.48
14/01/11 10:30 25.48
14/01/11 10:15 25.48 12.3 40-0NN  16W
0000035700
532
SAIQ01 ORBI 111200
METAR ORBI 111200Z VRB02KT 2600 BR BKN030 11/08 Q1017 NOSIG=
METAR ORBM 111200Z VRB03KT 7000 SCT040 13/04 Q1019 NOSIG=
METAR ORNI 111200Z 25010KT 2500 DZ OVC025 10/10 Q1016 TEMPO 1500=
METAR ORER 111200Z VRB02KT 9999 FEW030 SCT090 10/07 Q1017 NOSIG=
METAR ORMM 111200Z 29014KT 9999 SCT040 BKN100 14/10 Q1017 NOSIG=
0000017000
533
SOVI10 KWAL 111211
B110070A 011121101"P9751095 B\P~W@@F0ekL1@lq???CzCr>@m^3@WC}@e4DA5C?6b[9Iy<BH2?????@"??? iTLHKBpBpAqAfAcBJ:AMPTEMP 26.22C  45+0NN 219E
0000179800
534
SAIR31 OIII 111200
METAR OIAA 111200Z 31012KT 5000 HZ SCT040 BKN100
14/10 Q1017=
METAR OIAG NIL=
 METAR OIAH 111200Z 00000KT 4000 -RA FEW030CB SCT035CB OVC070 08/08
 Q1016=
METAR OIAI NIL=
 METAR OIAM 111200Z 10016KT 9999 FEW010 SCT030CB SCT035 12/12
 Q1016=
 METAR OIAW 111200Z 12008KT 8000 DZ FEW020CB SCT030 OVC070 13/12
 Q1016=
 METAR OIBA 111200Z 05008KT 3500 -RA FEW025CB FEW030 OVC080 17/14
 Q1018=
 METAR OIBB 111200Z 13016KT 9999 -RA FEW030CB SCT035 OVC080 13/10
 Q1016 A3001=
 METAR OIBK 111200Z 08016KT 8000 FEW030CB SCT025 OVC090 16/14 Q1018
 RERA=
 METAR OIBL 111200Z 03008KT 3000 BR FEW020CB SCT025 OVC080 14/13
 Q1020=
METAR OIBS 111200Z 14010KT 7000 -RA FEW030CB OVC080 19/14 Q1019=
 METAR OICC 111200Z 11006KT 1500 R11/1200U SN SCT030CB SCT035
 OVC060 M00/M01 Q1018 A3008 TEMPO SN=
 METAR OICI 111200Z 00000KT 8000 FEW015 FEW025CB SCT035 BKN090
 05/05 Q1016 A3000=
METAR OICJ NIL=
 METAR OICK 111200Z 11004KT 8000 -RA FEW010 FEW030CB BKN035 OVC080
 04/03 Q1016=
METAR OICS 111200Z 19002KT 7000 SCT035 BKN080 01/M04 Q1018=
METAR OIFK NIL=
 METAR OIFM 111200Z 31006KT 2300 HZ SCT040 OVC100 02/M02 Q1017
 A3005=
 METAR OIFS 111200Z 00000KT 0800 SN BR FEW025CB SCT030 OVC070
 M03/M04 Q1017=
METAR OIGG 111200Z 32004KT 3000 BR SCT025 BKN090 10/08
Q1013=
METAR OIGK NIL=
METAR OIHH NIL=
METAR OIHM NIL=
 METAR OIIE 111200Z VRB03KT 6000 SCT025 SCT035CB SCT045 OVC080
 02/M01 Q1019 A3012 NOSIG=
 METAR OIII 111200Z 25008KT 1000 BR SCT030 OVC090 01/M02 Q1019
 A3009 TEMPO 0800 SN FEW035CB SCT030 BKN100 TEMPO 0800 SN FEW035CB
SCT030 BKN100=
 METAR OIIK 111200Z 12004KT 6000 FEW035CB SCT040 OVC090 02/M03
 Q1019=
 METAR OIIP 111200Z 00000KT 2000 BR SCT020 SCT035 OVC080 M01/M01
 Q1018=
0000159200
535
SAIR31 OIII 111200 RRA
METAR OIIS NIL=
 METAR OIKB 111200Z 31006KT 8000 -RA FEW025CB SCT030 OVC090 16/08
 Q1020 A3014 NOSIG=
METAR OIKK 111200Z 00000KT 9999 SCT035 OVC100 05/M03 Q1019 A3011=
METAR OIKO NIL=
 METAR OIKQ 111200Z 33010KT 8000 -RA FEW025CB SCT030 BKN090 13/07
 Q1020=
METAR OIMB 111200Z 10012KT 9999 FEW030 BKN090 06/M14 Q1018=
METAR OIMC NIL=
METAR OIMD NIL=
METAR OIMM 111200Z 30006KT CAVOK 11/M12 Q1017 A3005=
METAR OINB NIL=
METAR OING 111200Z 32004KT 6000 SCT030 BKN090 12/07 Q1016=
METAR OINK NIL=
METAR OINN 111200Z 09008KT 9999 FEW020 BKN100 OVC180 11/10 Q1014=
METAR OINR 111200Z 11004KT 7000 FEW045 OVC170 11/07 Q1013=
METAR OISA NIL=
 METAR OISF 111150Z 00000KT 8000 FEW035CB SCT040 OVC100 06/02 Q1018
 RESH=
 METAR OISL 111200Z 00000KT 9999 FEW020 FEW035CB OVC090 09/05
 Q1020=
 METAR OISS 111200Z 00000KT 1500-RA BR FEW030CB SCT035 OVC070 04/02
 Q1019 A3011=
 METAR OISY 111200Z 00000KT 0200 -RA FEW030CB SCT040 OVC080 01/00
 Q1019=
METAR OITL 111150Z 20019KT 9999 SCT090 BKN190 00/M04 Q1015=
 METAR OITR 111200Z 10004KT 2000 HZ SCT035 BKN170 M04/M09 Q1019
 NOSIG=
 METAR OITT 111200Z 27004KT 5000 HZ FEW035 BKN190 M03/M09 Q1019
 A3012=
METAR OITU NIL=
METAR OIYY 111200Z 32006KT 4500 HZ FEW035 SCT100 08/M02 Q1018=
METAR OIZB 111200Z 07004KT 9999 FEW030 BKN090 10/M03 Q1022=
METAR OIZC NIL=
 METAR OIZH 111200Z 12014KT 9999 FEW035 BKN090 06/M07 Q1019 A3010
 TEMPO SHRA=
METAR OIZI 111200Z 35004KT 9999 FEW020 OVC090 16/M05 Q1019=
METAR OIZJ 111200Z 15004KT CAVOK 20/06 Q1019=
00000000