0000183100
696
SOFX05 LFPW 111208
KKYY 04014 2156/ 723288 021864 88881 84460 20000 32164 43690 20001
32163 43690 20002 32164 43690 20003 32164 43690 20004 32164 43690
20005 32164 43690 20006 32164 43690 20007 32164 43690 20008 32164
43690 20010 32164 43690 20016 32164 43690 20026 32164 43690 20035
32164 43690 20045 32165 43690 20055 32165 43690 20065 32165 43690
20075 32165 43690 20084 32165 43690 20095 32160 43688 20104 31948
43663 20114 31937 43669 20124 31911 43674 20134 31878 43671 20145
31850 43668 20155 31823 43665 20165 31802 43662 20175 31788 43660
20184 31765 43656 20194 31752 43654 20212 31713 43647 20236 31659
43638 20261 31616 43629 20286 31562 43619 20311 31505 43609 20336
31471 43604 20360 31425 43596 20385 31386 43590 20410 31338 43581
20435 31297 43575 20460 31254 43569 20483 31210 43562 20509 31171
43557 20534 31137 43552 20559 31109 43549 20583 31085 43546 20608
31053 43542 20633 31014 43537 20658 30977 43532 20684 30934 43527
20707 30894 43522 20732 30866 43520 20757 30836 43517 20782 30818
43516 20806 30797 43515 20831 30779 43514 20856 30767 43513 20881
30757 43514 20905 30745 43513 20929 30730 43512 20955 30714 43510
20979 30700 43510 21004 30692 43510 21029 30684 43511 21054 30681
43512 21078 30675 43514 21128 30667 43518 21177 30654 43519 21227
30640 43520 21276 30625 43521 21325 30601 43519 21375 30580 43518
21424 30564 43517 21449 30554 43517 21473 30541 43515 21498 30534
43515 21523 30531 43515 21547 30524 43515 21572 30518 43515 21597
30511 43514 21621 30504 43514 21646 30497 43513 21671 30487 43512
21695 30476 43511 21720 30464 43510 21745 30454 43509 21769 30443
43508 21793 30432 43507 21818 30423 43506 21843 30415 43505 21868
30409 43505 21892 30406 43505 21917 30403 43504 21941 30397 43504
21964 30393 43504 Q6901417=
0000035200
697
SMGY01 SYCJ 111200
AAXX 11120 
81001 11463 10705 10266 20217 4//// 60003 70500 81202 333 10288 20240
31021 55100 56209 57841 5//// 70000 81817=
81002 11462 40000 10224 20217 40153 60001 70500 83172 333 20190 31018
55105 56299 57862 58012 70003 83816=
81005 NIL=
81006 NIL=
81010 NIL=
81058 NIL=
81080 NIL=
81100 NIL=
0000010900
698
UANT99 KDDL 111206
ARP SWR16 5102N01921W 1206 F370 MS62 217/73 KT
HBJHJ QXT AOE 111206 J10A
0000011000
699
UANT99 KDDL 111206
ARP BAW196 5448N03253W 1206 F350 MS58 184/45 KT
GCIVH QXT AOW 111206 F63A
0000016600
700
SMFP01 LFVP 111200
AAXX 11124
71805 02584 62717 11008 21040 30231 40240 55000 60001 86500
  333 44030 60007 86623 90710 91125 93100
  555 60005=
0000068300
701
SAAE31 VTBB 111200
METAR VTBS 111200Z 06006KT 020V120 CAVOK 30/15 Q1014 NOSIG=
METAR VTBD 111200Z 33007KT 9999 FEW030 SCT300 29/18 Q1013 NOSIG=
METAR VTCC 111200Z 32002KT 9999 FEW040 23/15 Q1017 A3004 NOSIG=
METAR VTBU 111200Z 06003KT 3000 HZ NSC 28/20 Q1012 A2991=
METAR VTSS 111200Z 07009KT 9999 FEW020 BKN120 BKN300 27/21 Q1012
           A2990 NOSIG=
METAR VTSP 111200Z 33006KT 9999 FEW025 BKN300 28/21 Q1012 A2990
           NOSIG=
METAR VLVT 111200Z 27002KT 4000 BR FEW050 24/18 Q1015 NOSIG=
METAR VYMD 111200Z NIL=
METAR VYYY 111200Z NIL=
METAR VDPP 111200Z 35004KT 9000 FEW017 29/19 Q1011=
METAR VDSR 111200Z VRB01KT 9000 FEW020 29/19 Q1012 NOSIG=
0000073100
702
SMMS31 WMKK 111200
AAXX 11124
48600 11563 70408 10287 20184 30102 40110 60001 70522 82552 333 10316 82625 84364 87077=
48602 11559 70206 10251 20234 30105 40108 69901 76166 82532 333 10287 82625 85364 87077=
48603 11565 70507 10268 20210 30111 40116 60001 70522 8155/ 333 10297 81630 87364=
48618 11359 80509 10259 20238 30117 40124 60131 76162 8557/ 333 10269 82708 84622 88468=
48625 11562 70205 10260 20225 30059 40106 60001 70522 82542 333 10290 82630 85364=
48632 12266 70601 10177 20164 60001 81572 333 10201 81705 85361 87078=
48674 11560 73509 10258 20241 30062 40112 60061 70582 82535 333 10281 82624 84364 85076=
48679 12564 70104 10261 20233 30062 40105 60001 81542 333 10320 81622 87078=
0000012900
703
SMKB03 NGTT 111200
AAXX 11124
91623 11599 60912 10281 20242 40063 60001 70122 8113/ 333 10321 5629/
81820 85360 =
0000033800
704
SMSM01 SMJP 111200
AAXX 11124
81225 11250 71208 10228 20216 40158 60014 76286 83872
  333 56299 58019 82706 83640 87458=
81200 12465 70000 10249 20220 40154 60004 85872
  333 56299 58018 82815 84635 86458=
81202 12470 50508 10260 20222 40155 60004 82832
  333 56299 58013 81815 84080=
81209 NIL=
81251 NIL=
0000024700
705
SMGC01 MWCR 111200
AAXX 11124
78384 11460 21101 10239 20232 40173 60032 70180 81800
  333 10297 20235 58005 70033 81818 90999=


78383 12460 61007 10262 20225 40178 60001 84802
  333 10301 20238 58005 70000 82818 83075=
0000113700
706
SMUR10 UKMS 111200
AAXX 11121
33135 32597 72909 10050 21012 39929 40075 52016 87500 333
87632=
33317 32598 62709 10059 21009 39811 40148 52005 85531=
33345 32798 52705 10052 20020 39903 40108 52013 85500=
33393 NIL=
33506 /1597 82707 10051 20013 39888 40083 52011 70282 889//
555 69901=
33587 32697 72812 10060 21019 39887 40150 52004 87500 333
87633=
33631 32497 61104 10026 20005 30066 40212 58009 86500 333
86616=
33663 32598 63204 10080 21041 30083 40179 58005 83531=
33658 32784 63303 10066 21031 39891 40191 57007 83501 333
83650=
33711 32598 72807 10062 21006 39928 40137 52006 87500 333
87631=
33791 32597 32712 10072 21009 39987 40137 53007 83100 333
83826=
33837 32984 72703 10102 21027 30138 40189 58005 80001=
33924 32998 22705 10081 20023 30185 40197 52001 80001=
33946 32660 62609 10079 21002 39981 40202 53001 86500 333
86633=
34300 /1697 72709 10053 21021 39870 40059 52017 70282 87500
333 87645 555 69901=
34504 NIL=
34519 32560 62710 10050 20012 39822 40098 52007 86500 333
86623=
34601 32660 52910 10071 20003 39987 40123 52004 85200 333
85633=
0000122800
707
SMUR11 UKMS 111200
AAXX 11121
33088 32597 72806 10064 20003 39940 40131 52005 87500=
33177 32581 71806 10052 21006 39917 40155 51003 87500=
33261 32698 82805 10043 21017 39879 40061 52021 885// 333
88639=
33275 /1597 72810 10050 21008 39828 40050 52020 70282 85330
333 91018 555 69971=
33301 32598 72809 10050 20004 39867 40150 51004 83550=
33325 32597 62904 10058 21005 39865 40130 52010 86500 333
86630=
33377 /1597 63007 10048 20026 39898 40091 52012 72582 86300
555 69981=
33415 32697 72706 10052 21039 39774 40173 54000 85530=
33429 32697 72608 10044 21019 39741 40169 52001 84530 333
84646=
33466 32598 62706 10063 20004 39934 40121 51009 84330=
33526 32960 62507 10071 21038 39851 40191 58004 86030=
33562 32698 62807 10056 21021 39793 40155 53003 84530 333
84633=
33614 32597 83006 10057 21007 30005 40108 52008 8555/=
33761 32598 73206 10064 21027 39947 40171 52007 87500=
33902 32597 32807 10090 21018 30091 40157 56004 82201=
33983 32997 02709 10090 21007 30121 40182 52006=
34415 32570 72906 10062 20009 39975 40071 52011 87500=
34523 32598 82306 10063 20007 39999 40074 53009 885// 333
88632=
34712 32598 63408 10068 20013 30043 40128 52006 83501=
0000008900
708
SAMP31 LMMM 101600 RRA
METAR HLLT 101550Z
00000KT CAVOK 19/05 Q1022=

0000018200
709
FTUS74 KWBC 101554
TAF
TAF AMD KRDM 101546Z 1016/1112 26012KT P6SM SCT090 BKN130
     FM101800 20015G21KT P6SM OVC050
     FM102300 19010KT P6SM VCSH OVC050=

0000036100
710
FTUS73 KWBC 101554 AAA
TAF AMD
KFAR 101550Z 1016/1112 16015KT 5SM BR OVC080
     FM101800 19010KT P6SM BKN050
     FM102100 21010KT P6SM SCT200
     FM110600 31008KT P6SM BKN050=
KMOT 101552Z 1016/1112 24016KT P6SM SCT012
      TEMPO 1017/1020 BKN012
     FM102000 26012KT P6SM BKN020
     FM110300 28013KT P6SM BKN070 BKN100=

0000027200
711
FTUS75 KWBC 101554
TAF
TAF AMD PAEI 1015/1118 VRB03KT 9999 BKN010 OVC090 QNH2953INS
      BECMG 1017/1018 VRB03KT 9999 SCT015 BKN090 QNH2951INS
      BECMG 1021/1022 VRB03KT 9999 FEW020 SCT090 QNH2942INS
      TXM19/1015Z TNM29/1115Z AMD 101539=

0000036100
712
FTUS43 KWBC 101554 AAA
TAF AMD
KFAR 101550Z 1016/1112 16015KT 5SM BR OVC080
     FM101800 19010KT P6SM BKN050
     FM102100 21010KT P6SM SCT200
     FM110600 31008KT P6SM BKN050=
KMOT 101552Z 1016/1112 24016KT P6SM SCT012
      TEMPO 1017/1020 BKN012
     FM102000 26012KT P6SM BKN020
     FM110300 28013KT P6SM BKN070 BKN100=

0000012900
713
SPPR00 SPIM 101600
SPECI SPZO 101600Z VRB04KT 9999 VCSH FEW040TCU SCT050 BKN100 17/06
Q1029 NOSIG RMK PP000=

0000063000
714
FTEG32 HECA 101700
TAF HEGN 101700Z 1018/1124 32010G22KT CAVOK=
TAF HESH 101700Z 1018/1124 36008G18KT 9999 BKN020=
TAF HEAR 101700Z 1018/1124 28009KT 9999 BKN025 TEMPO 1100/1108
VRB03KT 3000 BR=
TAF HESC 101700Z 1018/1124 34009KT 9999 FEW020 BKN100=
TAF HEBA 101700Z 1018/1124 28010KT 9999 SCT020 TEMPO 1100/1106
VRB03KT 3000 BR NSC=
TAF HEMM 101700Z 1018/1124 30014KT 9999 SCT020 TEMPO 1100/1106
VRB03KT 4000 BR NSC=
TAF HEAL 101700Z 1018/1124 30014KT 9999 SCT020 TEMPO 1100/1106
VRB03KT 4000 BR NSC=
TAF HEPS 101700Z 1018/1124 35010KT 9999 SCT025 SCT070 TEMPO 1018/1112
4000 RA BKN025=

0000017400
715
SAVN34 SVSR 101600
METAR SVSR 101600Z /////KT 9999 FEW016 BKN300 30/XX Q1015=
METAR SVVP 101600Z NIL=
METAR SVCL 101600Z NIL=
METAR SVPA 101600Z NIL=

00000000