0000070200
956
SMAU13 AMMC 111200
AAXX 11124
94636 NIL=
94639 NIL=
94640 NIL=
94641 46/// /1212 10262 20115 39790 40158=
94644 NIL=
94645 NIL=
94801 NIL=
95204 NIL=
95214 NIL=
95215 NIL=
95303 NIL=
95304 NIL=
95305 NIL=
95307 NIL=
95316 NIL=
95317 46/// /1304 10325 20035 39857 40058=
95402 NIL=
95600 NIL=
95601 NIL=
95602 46/// /1916=
95603 NIL=
95604 NIL=
95606 NIL=
95607 NIL=
95608 NIL=
95610 NIL=
95611 NIL=
95612 NIL=
95613 NIL=
95614 NIL=
95615 NIL=
95616 NIL=
95617 NIL=
95618 NIL=
95621 NIL=
95622 NIL=
95623 NIL=
95624 NIL=
95625 NIL=
95626 NIL=
95627 NIL=
95628 NIL=
95629 NIL=
95630 NIL=
95645 NIL=
0000034900
957
SMAU14 AMMC 111200
AAXX 11124
95101 NIL=
95631 NIL=
95632 46/// /1303 10322 20032 39929 40136=
95635 46/// /1011 10169 20149 30154 40186=
95636 46/// /1111 10185 20161 39823 40176=
95638 NIL=
95639 46/// /1012 10288 20109=
95640 NIL=
95642 NIL=
95643 NIL=
95644 46/// /1312 10187 20165 39924 40179=
95647 NIL=
0000068900
958
UDEU02 EGRR 111216 RRB
AMDAR 1112
ASC EU4792   5941N 01803E 111206 F026 MS073 015/019 TB/ S031=
ASC EU4792   5942N 01804E 111207 F039 MS093 066/006 TB/ S031=
ASC EU4792   5945N 01804E 111207 F044 MS110 051/004 TB/ S031=
ASC EU4792   5948N 01803E 111208 F061 MS104 311/016 TB/ S031=
ASC EU4792   5950N 01804E 111209 F077 MS113 279/026 TB/ S031=
ASC EU4792   5953N 01804E 111209 F093 MS140 276/033 TB/ S031=
ASC EU4792   5956N 01805E 111210 F107 MS173 271/034 TB/ S031=
ASC EU4792   6000N 01806E 111210 F122 MS201 266/043 TB/ S031=
ASC EU4792   6003N 01806E 111211 F137 MS241 266/042 TB/ S031=
ASC EU4792   6006N 01807E 111211 F152 MS276 259/045 TB/ S031=
0000024100
959
SMMW01 FWCL 111200
AAXX 11120
67586 41659 73306 10265 20192 38780 48506 79592 8697/ 333 58010 81930 85835 87459 555 10274 29062=
67693 31558 70910 10263 20203 39249 48504 71792 879// 333 58010 82920 87825 555 10309 29069=
0000068500
960
UDAF02 EGRR 111216
AMDAR 1112
ASC EU0083   2819N 01455W 111205 F151 MS081 274/016 TB/ S031=
ASC EU0083   2822N 01452W 111205 F164 MS085 279/011 TB/ S031=
ASC EU0083   2824N 01448W 111206 F177 MS103 285/015 TB/ S031=
ASC EU0083   2826N 01444W 111206 F187 MS128 267/021 TB/ S031=
ASC EU0083   2828N 01440W 111207 F196 MS148 252/021 TB/ S031=
ASC EU0083   2831N 01436W 111208 F209 MS180 259/015 TB/ S031=
ASC EU0083   2833N 01432W 111208 F221 MS218 255/014 TB/ S031=
ASC EU0083   2836N 01428W 111209 F231 MS245 253/018 TB/ S031=
ASC EU0083   2838N 01424W 111209 F239 MS270 250/021 TB/ S031=
ASC EU0083   2841N 01420W 111210 F246 MS289 250/025 TB/ S031=
0000049700
961
UDEU02 EGRR 111216 RRC
AMDAR 1112
DES EU0130   5120N 00246W 111201 F070 MS030 301/032 TB/ S031=
DES EU0130   5121N 00236W 111203 F058 MS035 310/026 TB/ S031=
DES EU0130   5122N 00228W 111204 F048 MS015 325/025 TB/ S031=
DES EU0130   5123N 00220W 111206 F038 PS000 314/025 TB/ S031=
DES EU0130   5126N 00224W 111207 F036 PS005 313/021 TB/ S031=
DES EU0130   5126N 00231W 111209 F025 PS020 297/017 TB/ S031=
DES EU0130   5125N 00236W 111210 F013 PS030 283/010 TB/ S031=
0000110500
962
SMCH01 SCSC 111200
AAXX 11124
85406 12960 00203 10229 20163 40116 52013 60004
  333 20202 30/// 55113=
85418 12980 01902 10225 20151 40124 52012 60004
  333 20196 30/// 55115 70000=
85432 12970 00611 10128 20058 37730 48410 52010 60004
  333 20066 30/// 51360 55111 70000=
85442 12965 02602 10206 20156 40130 52016 60004
  333 20186 30/// 50770 55129 70000=
85467 12460 83205 10176 20142 40152 51022 60004 885//
  333 20169 30/// 5///0 55057 56699 70000 88615=
85469 42570 21006 10207 20175 40194 57008 82100
333 56200  82820=
85488 12360 83303 10159 20132 40134 52022 60004 885//
  333 20144 30011 50570 55113 56099 70000 83609 88611=
85500 12698 80401 10163 20140 40123 52011 60004 885//
  333 20156 30/// 56700 88637=
85556 NIL=
85558 12997 00000 10144 20127 40122 52012 60004
  333 20125 30/// 06/30=
85564 12998 01805 10132 20100 40122 54003 60004
  333 20118 30///=
85574 12960 09902 10201 20071 40114 57009 60004
  333 20144 30/// 55125 70000=
85577 12960 00000 10211 20079 39523 40115 52007 60004
333 20137 32012 50760 55121 70000=
0000105900
963
SMCH02 SCSC 111200
AAXX 11124
85585 13568 51612 10167 20099 40192 53006 60004 85800
  333 20161 30/// 55105 56300 70000 82825 83627=
85586 11930 03303 10146 20099 40125 53007 60004 70400
  333 20088 30/// 55108 70000=
85629 12970 01708 10155 20083 40121 51004 60004 333 20129 30011 50830
55109 70000=
85648 NIL=
85672 12980 02007 10138 20108 40138 54000 60004
333   20107 30/// 55135 70000=
85682 12962 01905 10170 20085 40134 50003 60004
  333 20104 30/// 50890 55125 70000=
85703 12960 01810 10152 20093 40240 52004 60004
 333 20120 30/// 70000=
85732 12997 01923 10144 20100 40151 57009 60004
  333 20124 30/// 91134 91518=
85743 12960 02404 10134 20089 40179 52001 60004
  333 20050 30/// 50500 55102 70000=
85766 13965 01506 10146 20098 40200 54000 60004
  333 20071 30/// 55134 70000=
85782 13460 41806 10120 20096 40209 57005 60002 84100
  333 20061 30/// 56400 70000 84812=
85799 12460 51512 10127 20097 40214 57008 60004 85500
  333 20069 30/// 50650 55132 56500 70000 85613=
85830 NIL=
0000224400
964
SMKW10 OKBK 111200
AAXX 11124
40550 35/70 /3408 10136 20085 40174 55002
  333 0/014 55300 00476 10000 20705 30116 41286 51400 60821 55407
40588 90069 90401 91017 91119 91209 91307=
40551 45/70 /2615 10138 20085 40178 55004
  333 0//// 90069 90401 91019 91123 91219 91315=
40552 47/70 /3017 10135 20090 40175 55004 70060
  333 0/015 55310 90069 90400 91021 91123 91219 91315=
40553 37/70 /3315 10136 20088 40175 5//// 70086
  333 0/014 55307 90069 90400 91017 91121 91217 91313=
40568 46/// /3017 10148 20101 40177 55003
  333 0//// 90401 91021 91121 91217 91311=
40569 NIL=
40570 45/66 /2911 10130 20085 40176 55010
  333 0/014 55305 90069 90400 91015 91119 91215 91311=
40571 NIL=
40572 NIL=
40573 47/69 /3012 10134 20080 40179 56009 70061
  333 0//// 90069 90401 91017 91123 91217 91315=
40580 46/// /3007 10152 20083 40179 55004
  333 0/018 553// 00809 10000 21315 30190 41104 51432 61505 55407
41125 90401 91015 91117 91209 91305=
40581 46/// /0203 10156 20092 40184 55003
  333 0//// 90400 91007 91113 91203 91303=
40582 42960 43213 10149 20086 40173 55004 84030
  333 00018 55308 00757 10000 21469 30410 41103 51411 61879 55407
41059 84360 90400 91017 91121 91215 91311=
40583 NIL=
40585 46/// /3109 10148 20090 222// 1//// 3//// 4//// 70///
  333 0//// 90401 91019 91121 91217 91309=
40586 46/// /2809 10154 20081 40180 55003
  333 0//// 90401 91015 91119 91211 91307=
40587 46/// /3012 10148 20080 40179 55002
  333 0/019 553// 00899 10000 21470 30319 41145 51398 61789 55407
41151 90401 91017 91123 91213 91311=
40588 47/70 /3213 10150 20105 40172 55005 70086
  333 0/017 55303 90069 90400 91017 91119 91215 91311=
40589 NIL=
40590 47/63 /3120 10134 20080 40181 55005 70061
  333 0//// 90069 90401 91025 91125 91219 91315=
40591 NIL=
40592 47/70 /3211 10161 20082 40174 55000 70086
  333 0/018 55309 00996 10000 21442 30152 41117 51413 61594 55407
41290 90069 90400 91019 91123 91213 91307=
40593 46/// /3512 10153 20085
  333 0//// 90401 91015 91123 91215 91309=
40594 46/// /3309 10172 20091 40175 55001
  333 0//// 90400 91019 91121 91215 91309=
40596 46/// /3115 10149 20115
  333 0//// 90400 91021 91129 91221 91313=
0000005500
965
SMAA01 SAWB 111200 RRA
AAXX 11123
NIL
0000005100
966
SMAA01 SAWB 111200
AAXX 11124
NIL
0000011600
967
SMIL01 BIRK 111200 RRA
AAXX 11124
04097 41470 81117 10019 20011 40005 52010 72372 8562/ 555 3/420=
0000016200
968
SMDL01 EDZW 111200 CCA
AAXX 11121
10400 12480 52206 10084 20051 30102 40152 58006 60001 83832
  333 31/// 55310 20985 30351 81812 83656 85363=
0000019500
969
ULVX01 EDZW 111200
UUCC ASEU05 11113 99548 70420 18542
70769 58378 24530 50983 55979 22038 30315 47783 22062
20588 /////
88999
77258 23076 418//
31313 48070 81042 90023=
0000042900
970
UEVX01 EDZW 111200
UUDD ASEU05 1111/ 99548 70420 18542
11859 56379 22711 59177 33676 56379 44578 58178 55520
55179 66475 56579 77426 50181 88411 51581 99379 50981
11360 47383 22301 47982 33285 43185 44265 41586 55244
44784
21212 11947 23525 22898 25029 33733 24528 44663 24036
55618 23029 66567 23533 77542 22029 88459 22543 99376
23553 11301 22061 22258 23076 33244 22576
31313 48070 81042 90023=
0000068900
971
UDEU02 EGRR 111216 RRD
AMDAR 1112
DES EU0218   3756N 00446W 111202 F250 MS380 020/007 TB/ S031=
DES EU0218   3752N 00447W 111203 F234 MS340 019/009 TB/ S031=
DES EU0218   3747N 00448W 111203 F217 MS300 012/012 TB/ S031=
DES EU0218   3743N 00448W 111204 F203 MS260 351/012 TB/ S031=
DES EU0218   3739N 00449W 111205 F188 MS220 001/011 TB/ S031=
DES EU0218   3735N 00449W 111205 F172 MS180 016/008 TB/ S031=
DES EU0218   3730N 00449W 111206 F158 MS150 042/002 TB/ S031=
DES EU0218   3726N 00449W 111207 F144 MS120 075/001 TB/ S031=
DES EU0218   3722N 00449W 111207 F127 MS100 065/011 TB/ S031=
DES EU0218   3718N 00450W 111208 F109 MS060 042/014 TB/ S031=
0000047300
972
SMGG10 UGGG 111200
AAXX 11121
37395 42698 82704 10110 20041 30078 40218 52005 8652/=
37409 42598 82710 10013 21042 38772 48498 52004 885//
  333 95080
  555 1/101=
37432 42697 70000 10040 21047 38920 48463 57011 87500
  555 1/105=
37514 42699 70000 11034 21087 39060 40258 54000 87500
  333 95041=
37545 42599 43208 10115 21019 39651 40157 57006 87006=
37621 42699 71101 10094 21012 39515 40148 57009 84531
  555 11007=
37484 NIL=

0000039600
973
UKCN04 CWAO 111200
TTBB  61128 71126 00905 08120 11903 04521 22891 02749 33859
03157 44838 04336 55829 04156 66805 05759 77760 09360 88724
12950 99715 12126 11589 16514 22561 18122 33508 18921 44403
30121 55286 50746 66198 68956 77194 66750 88191 64357 99183
62364 11176 61967 22161 63568 33141 60573 44126 63372 55117
61174 66105 62974 77100 59976 31313 48008 81116=

0000031000
974
USCN02 CWAO 111200
TTAA  61121 71906 99007 27147 23009 00114 25130 24509 92687
21556 28506 85314 19359 28514 70751 22968 28525 50516 33373
28074 40669 45171 28080 30855 58760 28093 25969 62560 28090
20106 63966 28078 15282 65570 28071 10526 69570 27569 88246
63160 28086 77269 28094=

0000047000
975
UKCN01 CWAO 111200
TTBB  61128 71815 00014 05141 11009 04540 22930 09912 33927
09156 44916 07960 55892 08560 66874 08357 77872 08357 88870
07759 99861 06356 11828 08135 22791 07359 33760 08934 44734
08956 55697 11342 66690 11357 77647 15356 88640 15359 99632
14370 11516 25160 22489 27960 33456 30570 44385 40761 55364
43765 66335 48559 77282 57959 88255 62558 99215 65958 11194
66160 22184 65962 33169 62567 44100 63974 31313 48008 81115=

00000000