0000012500
556
SAMP31 LMMM 101700
METAR HLLT NIL=
METAR HLLB NIL=
METAR LMML 101645Z 26006KT CAVOK 15/11 Q1022 NOSIG=

0000013400
557
SALT34 EYVI 101650
METAR EYSA 101650Z 28023G34KT 9000 -SHRA BKN008 BKN016CB 02/02 Q0989 
R14L/2/0295 R14R/2/0295=

0000009800
558
SPUS41 KWBC 101650
SPECI
KLUK 101646Z AUTO 22003KT 6SM BR OVC007 06/05 A3018=

0000013500
559
SPUS42 KWBC 101650
SPECI
KSAT 101646Z 21006KT 2 1/2SM R12R/5500VP6000FT -RA BR FEW007
BKN022 OVC030 19/17 A2995=

0000012800
560
SALT31 EYVI 101650
METAR EYVI 101650Z 26019KT 7000 -SHRA BKN011CB OVC021 03/01 Q0991
     R20/2/0295 NOSIG=

0000011700
561
SALT33 EYVI 101650 RRA
METAR EYPA 101650Z 30011G24KT 250V350 9999 OVC016 04/01 Q0996
R01/2///95=

0000023600
562
FTUY04 SUMU 101655
TAF
SUMU 101655Z 1018/1118 20008KT 9999 FEW023 TX23/1118Z
TN18/1109Z PROB30 TEMPO 1018/1100 23015G25KT 5000 TSRA BKN017        
FEW040CB OVC060 BECMG 1021/1023 14008KT BECMG 1106/1108 17020KT=

0000134300
563
FTMX54 MMMX 101651
TAF MMCZ 101651Z 1018/1124 13015KT P6SM SCT015 TX26/1018Z TN20/1110Z 
         TEMPO 1020/1024 BKN015 
         FM110300 15010KT P6SM SCT015 
         FM111700 12010KT P6SM SCT015 
         TEMPO 1120/1124 3SM TSRA BKN015CB=
TAF MMMD 101651Z 1018/1124 11012KT 6SM HZ BKN018 BKN070 TX28/1018Z
TN22/1110Z
         TEMPO 1020/1024 SCT020 BKN080 
         FM110300 13006KT 6SM HZ SCT015 
         BECMG 1109/1110 3SM BR BKN006 
         TEMPO 1110/1114 1/2SM FG VV004 
         FM111500 14008KT 4SM HZ BKN012 
         FM111700 15010KT P6SM BKN020 
         BECMG 1118/1119 35012KT 
         TEMPO 1120/1124 4SM RA BKN020 CB=
TAF MMTG 101651Z 1018/1118 32015KT P6SM SCT020 SCT080 
         FM110300 06006KT 6SM HZ SCT015 
         TEMPO 1110/1114 2SM BR HZ BKN010 
         FM111500 34010KT 6SM HZ SCT018=
TAF MMTP 101651Z 1018/1124 22010KT P6SM SCT025 TX32/1018Z TN24/1112Z 
         FM110300 01005KT P6SM SKC 
         FM111500 25008KT P6SM SKC 
         BECMG 1117/1118 SCT025=
TAF MMUN 101651Z 1018/1124 13012KT P6SM SCT015 SCT080 TX28/1018Z
TN22/1112Z
         TEMPO 1020/1024 BKN015 BKN080 
         FM110300 14010KT P6SM SCT015 
         FM111600 13010KT P6SM SCT015 
         BECMG 1118/1119 BKN015 
         TEMPO 1120/1124 2SM TSRA BKN010CB=

0000027600
564
SASW31 LSSW 101650
METAR LSZH 101650Z VRB02KT 9999 FEW009 BKN075 05/03 Q1019 NOSIG=
METAR LSGG 101650Z 01002KT CAVOK 08/04 Q1019 NOSIG=
METAR LSZB 101650Z 32003KT 9999 FEW070 05/04 Q1018 NOSIG=
METAR LSZA 101650Z VRB01KT 9999 SCT040 09/05 Q1019 NOSIG=

0000022300
565
SASW39 LSSW 101650
METAR LSMA 101650Z NIL=
METAR LSMD 101650Z NIL=
METAR LSME 101650Z NIL=
METAR LSMM 101650Z NIL=
METAR LSMP 101650Z NIL=
METAR COR LSMS 101650Z VRB01KT 9999 SCT100 08/04 Q1018=

0000071000
566
FTCA31 KWBC 101651
TAF
MBPV 101645Z 1018/1118 09017KT 9999 SCT015=
MKJP 101645Z 1018/1118 13015KT 9999 FEW024
      BECMG 1102/1104 34005KT
      BECMG 1115/1117 14020KT=
MKJS 101645Z 1018/1118 07015KT 9999 SCT022
      BECMG 1101/1103 13005KT FEW024
      BECMG 1114/1116 07012KT=
TAF MYGF 101645Z 1018/1118 13015KT 9999 SCT015 BKN120=
MYGF 101645Z 1018/1118 13015KT 9999 SCT015 BKN120=
TAF MYNN 101645Z 1018/1118 11016KT 9999 SCT016 BKN035 BKN080
      PROB30
      TEMPO 1022/1102 11015G25KT 8000 SHRA SCT014 BKN030
      BKN070=
MYNN 101645Z 1018/1118 11016KT 9999 SCT016 BKN035 BKN080 PROB30
      TEMPO 1022/1102 11015G25KT 8000 SHRA SCT014 BKN030 BKN070=

0000086000
567
FTMX41 KWBC 101651
TAF
TAF MMCV 101647Z 1018/1118 18015G25KT P6SM SKC
     FM102200 20010G20KT P6SM SKC
     FM110300 28010KT P6SM SKC
     FM111200 00000KT 2SM BR BKN005
     FM111500 30015KT P6SM BKN250=
TAF MMMA 101647Z 1018/1118 15015KT 5SM HZ OVC015
     FM102000 14015G25KT P6SM BKN030
     FM110200 14010KT P6SM SKC
     FM110900 00000KT 1/4SM FG VV001
     FM111500 30010KT 3SM BR BKN005
     FM111600 30010KT 5SM HZ SCT020 BKN250=
TAF MMNL 101647Z 1018/1118 30010KT 5SM HZ BKN020
     FM102100 30010KT P6SM SCT100 BKN250
     FM110600 34015G25KT P6SM BKN250=
TAF MMRX 101647Z 1018/1118 14010G20KT P6SM SKC
     FM110100 18010KT P6SM SCT250
     FM110600 00000KT 3SM BR BKN010
     FM110900 00000KT 1/4SM FG VV001
     FM111530 00000KT 2SM BR BKN010
     FM111600 30010KT 4SM HZ SCT020 BKN250=

0000017200
568
FTUS51 KWBC 101651 AAA
TAF AMD
KZZV 101648Z 1017/1112 15003KT 4SM BR OVC005
     FM102200 17006KT P6SM OVC009
     FM110500 18010KT 6SM -RA OVC012=

0000036400
569
FTUS52 KWBC 101651 AAA
TAF AMD
KELD 101650Z 1017/1112 15011KT 5SM BR VCSH OVC004
      TEMPO 1017/1020 6SM BR FEW007 BKN010
     FM102000 17013G18KT P6SM VCSH OVC015
     FM110000 17012KT P6SM -RA VCTS OVC005CB
      TEMPO 1102/1106 5SM -TSRA BR
     FM110600 23011KT 5SM -TSRA BR OVC005CB
     FM110900 28007KT P6SM SCT005 OVC250=

0000019300
570
FTUS54 KWBC 101651 AAA
TAF AMD
KPIH 101650Z 1017/1112 23015G25KT P6SM OVC080
     FM101800 23025G35KT P6SM VCSH BKN035
     FM110300 22015G25KT 4SM -RASN SCT010 OVC020=

0000080000
571
FTUS80 KWBC 101651 AAA
TAF AMD
KELD 101650Z 1017/1112 15011KT 5SM BR VCSH OVC004
      TEMPO 1017/1020 6SM BR FEW007 BKN010
     FM102000 17013G18KT P6SM VCSH OVC015
     FM110000 17012KT P6SM -RA VCTS OVC005CB
      TEMPO 1102/1106 5SM -TSRA BR
     FM110600 23011KT 5SM -TSRA BR OVC005CB
     FM110900 28007KT P6SM SCT005 OVC250=
KFKL 101650Z 1017/1112 18006KT 5SM BR BKN005 OVC020
     FM102000 18008KT P6SM OVC007
     FM110400 16012G18KT 4SM -RA OVC010 AMD LTD TO CLD VIS AND
      WIND=
KPIH 101650Z 1017/1112 23015G25KT P6SM OVC080
     FM101800 23025G35KT P6SM VCSH BKN035
     FM110300 22015G25KT 4SM -RASN SCT010 OVC020=
KZZV 101648Z 1017/1112 15003KT 4SM BR OVC005
     FM102200 17006KT P6SM OVC009
     FM110500 18010KT 6SM -RA OVC012=

0000009700
572
SPUS31 KWBC 101651
SPECI
KCLT 101647Z 02005KT 3SM -RA BR OVC003 05/04 A3030=

0000010900
573
SPUS31 KWBC 101651
SPECI
KLGA 101647Z 04006KT 4SM BR SCT016 BKN034 OVC050 M01/M03 A3044=

0000009500
574
SPUS41 KWBC 101651
SPECI
KBAF 101647Z 00000KT 5SM HZ OVC021 M03/M06 A3042=

0000010400
575
SPUS41 KWBC 101651
SPECI
KILG 101647Z 09003KT 1 3/4SM BR BKN004 OVC035 01/01 A3041=

00000000