0000017800
916
FTUS54 KWBC 101557
TAF
TAF KRDM 101546Z 1016/1112 26012KT P6SM SCT090 BKN130
     FM101800 20015G21KT P6SM OVC050
     FM102300 19010KT P6SM VCSH OVC050=

0000072700
917
FTUS80 KWBC 101557 AAA
TAF AMD
KBMI 101554Z 1016/1112 16014KT 1SM BR VCSH OVC002
     FM101900 17017KT 2SM RA BR OVC002
     FM110100 18017KT 2SM -RA BR OVC002
     FM110800 23014KT 3SM -DZ BR OVC006=
KDEC 101554Z 1016/1112 15012KT 6SM BR VCSH OVC015
     FM101800 16017KT 2SM RA BR OVC002
     FM110100 18014KT 2SM -RA BR OVC004
     FM110800 23014KT 3SM -DZ BR OVC006=
KSBY 101554Z 1016/1112 VRB03KT 4SM -RA BR OVC025
      TEMPO 1016/1018 2SM -RA BR BKN003 BKN020
     FM101800 15004KT 4SM -RA BR OVC015=
KSPI 101555Z 1016/1112 16013KT 6SM BR VCSH OVC008
     FM101800 16017KT 2SM -RA BR OVC002
     FM110100 18014KT 2SM -RA BR OVC002
     FM110600 24012KT 3SM -DZ BR OVC006=

0000017800
918
FTUS80 KWBC 101557
TAF
TAF KRDM 101546Z 1016/1112 26012KT P6SM SCT090 BKN130
     FM101800 20015G21KT P6SM OVC050
     FM102300 19010KT P6SM VCSH OVC050=

0000012100
919
SPCN51 CWAO 101557
SPECI CZCP 101557Z AUTO 28021KT 2 3/4SM -SN CLR M27/ A2934 RMK VSBY
VRBL 1.9V5.0=

0000011000
920
SAUK31 EGGY 101550 CCB
METAR COR EGCC 101550Z 19011KT 9999 FEW031 SCT043 07/05 Q1009 NOSIG=

0000010700
921
SAMX31 KWBC 101545 RRF
METAR
MMMZ 101547Z 01008KT 14SM SKC 16/13 A2998 RMK ISOL AC-CI=

0000070900
922
SAMX42 MMGL 101557
METAR MMAS 101545Z 20005KT 12SM  SKC 13/01 A3027 RMK ISOL SC AC=
METAR MMEP 101540Z 00000KT 12SM  SCT120 12/09 A3012 RMK 8/030=
METAR MMGL 101546Z 00000KT 10SM  SKC 14/04 A3021 RMK CI=
METAR MMIA 101540Z 00000KT 8SM  SCT150 SCT250 22/17 A3007 
      RMK 8/031 RTS=
METAR MMLO 101544Z 00000KT 10SM  SCT220 16/03 A3027 RMK 8/002=
METAR MMMM 101548Z 00000KT 8SM  SCT025 12/06 A3026 RMK 8/500 CI=
METAR MMPN 101542Z 00000KT 15SM  BKN040 15/10 A3023 RMK 8/500 AC-CI=
METAR MMPR 101545Z 01004KT 15SM  BKN100 20/14 A2998 RMK 8/030=
METAR MMZC 101543Z 25015KT 10SM  FEW200 14/M02 A3024 RMK 8/001=
METAR MMZO 101545Z 00000KT 15SM  FEW270 24/16 A2992 RMK 8/009=

0000009900
923
SAPR01 SPIM 101600
METAR SPIM 101600Z 19009KT CAVOK 24/19 Q1012 NOSIG RMK PP000=

0000010500
924
SAID31 WIII 101600
METAR WIII 101600Z VRB05KT 5000 HZ SCT020 BKN100 26/23 Q1010 NOSIG=

0000010100
925
SAMX31 KWBC 101605
METAR MNMG 101600Z 10014KT 9999 FEW023 30/19 Q1013 A2993 NOSIG=

0000012300
926
SAMX55 MMMY 101600
METAR COR MMCV 101546Z 18013G23KT 8SM SKC 22/13 A2994
RMK HZY LWR ST W SC SW AC CI=

0000058600
927
SPUS70 KWBC 101558
SPECI
KROG 101553Z 18015KT 6SM VCTS RA BR BKN005 BKN011 OVC070 10/09
     A2981 RMK AO2 LTG DSNT ALQDS TSB13RAB05 CIG 003V008 P0019=
KIAD 101554Z 33004KT 1/2SM BR OVC005 01/00 A3042 RMK AO2 SFC VIS 1
     1/2=
KEWR 101554Z 02004KT 3SM -FZRASN BR FEW010 BKN015 OVC037 M01/M02
     A3048 RMK AO2 SFC VIS 4 FZDZE53FZRAB53SNB53 P0000=
KTTS 101553Z AUTO VRB02KT 10SM FEW010 SCT027 23/19 A3019 RMK AO2
     $=
K1B7 101545Z 09008KT 1/4SM FG BKN002 12/12 A3012=
KTTS 101553Z AUTO VRB02KT 10SM FEW010 SCT027 23/19 A3019 RMK AO2
     $=

0000009500
928
SPUS31 KWBC 101558
SPECI
KIAD 101554Z 33004KT 1/2SM BR OVC005 01/00 A3042=

0000008900
929
SABZ19 SBCJ 101600
METAR SBCJ 101600Z 05004KT 9999 BKN017 26/21 Q1015=

0000008900
930
SABZ21 SBFZ 101600
METAR SBFZ 101600Z 07015KT 9999 SCT020 30/20 Q1011=

0000062900
931
FTPK31 OPKC 101600
TAF OPKC 101600Z 1018/1124 06010KT 5000 HZ NSC TEMPO 1100/1104
    06008KT 4000 FU NSC FM110600 06010G20KT 7000 NSC FM111500        
   06005G15KT 6000 NSC=
TAF OPNH 101530Z 1018/1124 36010KT 3000 FU NSC TEMPO 1100/1104       
   36005KT 2500 FU NSC FM110600 36005G15KT 4000 HZ NSC FM111500      
  36010KT 3000 FU NSC=
TAF OPSK 101530Z 1018/1118 36005KT 2500 FU NSC TEMPO 1100/1104       
   00000KT 1000 BR NSC FM110600 36005G15KT 4000 HZ NSC=
TAF OPGD 101530Z 1018/1118 36010G20KT 5000 HZ NSC TEMPO 1100/1104    
   36007KT 4000 HZ NSC FM110600 36015G25KT 2000 BLDU NSC=

0000008900
932
SABZ18 SBKP 101600
METAR SBKP 101600Z 33005KT 9999 SCT040 31/12 Q1016=

0000009800
933
SACI44 ZSJN 101600
METAR ZSJN 101600Z VRB01MPS 2000 BR NSC M05/M06 Q1033 NOSIG=

0000010100
934
SABZ18 SBGR 101600
METAR SBGR 101600Z 08008KT 9999 SCT040 FEW045TCU
31/14 Q1016=

0000009400
935
SANC01 NWWW 101600
METAR NWWW 101600Z AUTO 10003KT 9999 FEW066 20/15 Q1012=

00000000