0000011600
509
SMIN90 VICH 110000
AAXX 11004
42101 31694 13202 10070 20057 40177 71000 81500
  333 58013 81640=
0000005200
510
RRIN23 VIDP 110015
RQRPT 403-444=

0000083300
511
USAA01 NZCM 110000
TTAA 61001 89664
99997 00056 18501 00512 ///// ///// 92601 07158 18518
85255 11341 17017 70716 21114 15006 50514 33959 24513
40666 44759 24520 30855 51765 24023 25975 45585 24514
20124 43786 24513 15318 43586 26009 10592 41586 23504
88320 52361 23026
77999
31313 48008 82219=

0000069700
87361=
0000011200
87368
0000009600
87371
0000035800
87378
0000037300
87381
0000039400
87385
0000039400
87407
0000041500
87411
0000014600
87417=
0000041700
87480
0000060300
87494
0000052100
87511
0000058300
87573
0000050100
87608
0000056300
87640
0000066700
87775
0000062600
87963
0000062600
88156
0000064700
88414
0000066800
88658
0000064800
89018
0000062800
89578
0000069000
90292
0000069000
91301
0000075100
512
USAA01 NZCM 110000
TTAA 61001 89664
99997 00056 18501 00512 ///// ///// 92601 07158 18518
85255 11341 17017 70716 21114 15006 50514 33959 24513
40666 44759 24520 30855 51765 24023 25975 45585 24514
20124 43786 24513 15318 43586 26009 10592 41586 23504
88320 52361 23026
77999
31313 48008 82219=

0000069700
87361=
0000011200
87368
0000009600
87371
0000035800
87378
0000037300
87381
0000039400
87385
0000039400
87407=
0000012000
87430=
0000054100
87500
0000056200
87510
0000050100
87551
0000056300
87601=
0000050200
87911
0000060600
88090
0000060600
88369
0000068900
88634
0000064800
89035
0000064800
89613
0000066900
90297
0000071100
91304
0000070900
513
USAA01 NZCM 110000
TTAA 61001 89664
99997 00056 18501 00512 ///// ///// 92601 07158 18518
85255 11341 17017 70716 21114 15006 50514 33959 24513
40666 44759 24520 30855 51765 24023 25975 45585 24514
20124 43786 24513 15318 43586 26009 10592 41586 23504
88320 52361 23026
77999
31313 48008 82219=

0000069700
87361=
0000011200
87368
0000009600
87371
0000035800
87378
0000037300
87381=
0000039500
87413=
0000052000
87479
0000056200
87492
0000045900
87517
0000054200
87560
0000060400
87620
0000064600
87679
0000048100
87790
0000050200
87984=
0000051200
88991
0000060700
89582
0000062800
90276
0000071100
91292
0000047700
514
SMVB10 EHDB 110000
BBXX
DCPI2 11004 99506 11676 41/91 80509 10015 21014 49851 52019 78672
8//// 22264 00030 20504 30625 41010 51010 80005=
DGHX 11003 99060 10880 41397 80622 10275 20241 40100 53010 70182
887// 22224 00290 2//// 80250=
DGWD2 11004 99225 11202 41597 10307 10185 20136 40238 53013 70200
81100 22200 00230 299// 330// 40801=
VNVZ 11004 99227 11347 41598 50222 10210 20202 40236 52040 70100
81478 22283 00251 20601 40802 50601 80205=
0000073000
515
USAA01 NZCM 110000
TTAA 61001 89664
99997 00056 18501 00512 ///// ///// 92601 07158 18518
85255 11341 17017 70716 21114 15006 50514 33959 24513
40666 44759 24520 30855 51765 24023 25975 45585 24514
20124 43786 24513 15318 43586 26009 10592 41586 23504
88320 52361 23026
77999
31313 48008 82219=

0000069700
87361=
0000011200
87368=
0000015000
87382
0000012800
87386=
0000045700
87427
0000045800
87444
0000047900
87464
0000052000
87476
0000050000
87490
0000045900
87515
0000054200
87561
0000056300
87628=
0000052300
88117
0000012800
88398
0000054400
88620
0000058600
89102
0000064900
89595
0000069000
90283
0000081400
91300
0000075100
516
USAA01 NZCM 110000
TTAA 61001 89664
99997 00056 18501 00512 ///// ///// 92601 07158 18518
85255 11341 17017 70716 21114 15006 50514 33959 24513
40666 44759 24520 30855 51765 24023 25975 45585 24514
20124 43786 24513 15318 43586 26009 10592 41586 23504
88320 52361 23026
77999
31313 48008 82219=

0000069700
87361=
0000011200
87368=
0000015000
87382
0000012800
87386
0000045600
87406
0000047700
87410
0000049800
87416
0000051900
87420
0000047800
87441
0000045800
87463
0000047900
87474=
0000054200
87591
0000060500
87658=
0000058500
88222
0000060600
88476
0000058600
88706
0000064800
89033
0000077200
89633
0000071000
90323
0000062800
91284
0000079200
517
USAA01 NZCM 110000
TTAA 61001 89664
99997 00056 18501 00512 ///// ///// 92601 07158 18518
85255 11341 17017 70716 21114 15006 50514 33959 24513
40666 44759 24520 30855 51765 24023 25975 45585 24514
20124 43786 24513 15318 43586 26009 10592 41586 23504
88320 52361 23026
77999
31313 48008 82219=

0000069700
87361=
0000011200
87368=
0000015000
87382
0000012800
87386
0000045600
87406
0000047700
87410
0000049800
87416
0000051900
87420
0000047800
87441
0000045800
87463
0000047900
87474=
0000054200
87591
0000060500
87658
0000058400
87768
0000056400
87954
0000066800
88127
0000054400
88402
0000056500
88635
0000066800
89030
0000060700
89622
0000073100
90317
0000067000
91313
0000075100
518
USAA01 NZCM 110000
TTAA 61001 89664
99997 00056 18501 00512 ///// ///// 92601 07158 18518
85255 11341 17017 70716 21114 15006 50514 33959 24513
40666 44759 24520 30855 51765 24023 25975 45585 24514
20124 43786 24513 15318 43586 26009 10592 41586 23504
88320 52361 23026
77999
31313 48008 82219=

0000069700
87361=
0000011200
87368=
0000015000
87382
0000012800
87386
0000045600
87406=
0000047800
87429
0000015700
87445
0000049900
87465
0000054100
87473
0000050000
87488
0000052100
87521=
0000054300
87728
0000066700
87829
0000062600
88054
0000058500
88312
0000064800
88583
0000064800
89092
0000073100
89607
0000067000
90294
0000073200
91303
0000068900
519
USAA01 NZCM 110000
TTAA 61001 89664
99997 00056 18501 00512 ///// ///// 92601 07158 18518
85255 11341 17017 70716 21114 15006 50514 33959 24513
40666 44759 24520 30855 51765 24023 25975 45585 24514
20124 43786 24513 15318 43586 26009 10592 41586 23504
88320 52361 23026
77999
31313 48008 82219=

0000069700
87361=
0000011200
87368=
0000015000
87382
0000012800
87386
0000045600
87406=
0000047800
87429
0000015700
87445
0000049900
87465
0000054100
87473=
0000050100
87586
0000062500
87637=
0000052300
88281
0000060600
88547
0000071000
89016
0000060700
89579
0000073100
90273
0000071100
91299
0000071000
520
USAA01 NZCM 110000
TTAA 61001 89664
99997 00056 18501 00512 ///// ///// 92601 07158 18518
85255 11341 17017 70716 21114 15006 50514 33959 24513
40666 44759 24520 30855 51765 24023 25975 45585 24514
20124 43786 24513 15318 43586 26009 10592 41586 23504
88320 52361 23026
77999
31313 48008 82219=

0000069700
87361=
0000011200
87368
0000009600
87371
0000035800
87378
0000037300
87381
0000039400
87385
0000039400
87407=
0000012000
87430
0000054000
87439
0000049900
87460=
0000048000
87541=
0000054300
87724=
0000058600
88287
0000054400
88561
0000064800
89086
0000066900
89596
0000069000
90300
0000064900
91306
0000775700
521
SIIN51 VIDP 110300
AAXX 11034
00010 21994 29901 10072 20072 40193 71044 82030
  333 20056 58011 6992/
  555 00002 10003=
42027 21595 82701 10004 21009 38474 48561 70522 8452/
  333 21003 58056 6996/
  555 00006 10036=
42056 31695 10502 10056 20037 39725 71000 81500
  333 20050 58008
  555 10009=
42071 31994 00000 10018 20018 40202 71000
  333 10174 20004 58010
  555 10000=
42083 22997 00000 10010 21019 4////
  333 10108 20001 59006 6001/
  555 00013 10002=
42101 31994 00000 10070 20061 40189 71000
  333 10186 20063 58011
  555 10000=
42103 31994 03202 10084 20062 40186 71010
  333 10170 20075 58007
  555 10000=
42111 21596 73202 10090 20082 39377 40175 70262 87800
  333 10192 20083 58000 6015/ 85625 84830
  555 00145 10015=
42123 31995 02301 10048 20038 40209 71000
  333 10180 20031 58017
  555 10000=
42131 31995 02701 10054 20045 40202 71000
  333 10200 20030 58017
  555 10000=
42165 31994 20000 10050 20026 40210 70500 80001
  333 10198 20042 58036 82070
  555 10000=
42170 31995 00000 10028 20018 40216 70500
  333 10203 20022 58028
  555 10000=
42182 31992 02705 10082 20082 40187 74442
  333 10202 20071 58010
  555 10000=
42189 21695 00000 10110 20104 40178 71062
  333 10170 20084 58000 6991/
  555 00001 10003=
42273 21595 51404 10142 20124 40160 70562 85500
  333 10206 20113 59012 6002/ 85625
  555 00020 10006=
42309 31595 11402 10150 20132 40188 70500 81500
  333 20062 58006
  555 10007=
42314 31994 30000 10154 20117 40195 71044 83030
  333 20073 58006 83360
  555 10002=
42328 32996 30501 10076 20023 40203 83030
  333 10177 20055 58027 83360
  555 10000=
42339 31995 60503 10096 20031 40204 70500 80001
  333 10217 20093 58035 86070
  555 10000=
42348 31995 30205 10114 20027 40188 70500 80001
  333 10200 20072 58019 83070
  555 10000=
42361 31/93 93204 10106 20090 40191 74544 89///
  333 20098 58011
  555 10005=
42369 21/93 90000 10134 20127 40172 74544 89///
  333 10193 20100 59006
  555 00025 10012=
42379 21594 50902 10148 20106 40173 71021 83530
  333 10195 20098 56690 59001 6998/ 83620 83360
  555 00008 10001=
42410 31495 30000 10140 20126 40192 71000 81530
  333 20098 58062 81618 83359
  555 10000=
42435 32996 40000 10084 20022 40223 80001
  333 10210 20066 58033 84070
  555 10000=
42452 31993 03603 10118 20086 40195 74440
  333 10154 20114 58022
  555 10005=
42463 31/93 93202 10120 20101 40192 74344 89///
  333 10176 20108 58011
  555 10011=
42475 21/92 90904 10160 20160 4//// 74344 89///
  333 10203 20150 58/// 6037/
  555 00366 10039=
42479 21694 61404 10154 20152 40169 71062 84330
  333 10202 20146 59014 6021/ 84620 81930 86363
  555 00212 10026=
42492 21494 80506 10142 20135 40178 79596 8492/
  333 20125 58005 6006/ 84618 81930 87458
  555 00062 10007=
42542 31595 80206 10098 20057 39591 40198 70522 8352/
  333 10184 20092 58022 83630 87458
  555 10000=
42559 32595 80000 10122 20111 40180 8452/
  333 20098 58017 84620 88460
  555 10000=
42571 21592 80501 10156 20149 40159 74444 8653/
  333 20137 59005 6004/
  555 00042 10010=
42591 21994 80000 10146 20139 40189 76096 8572/
  333 20139 58008 6032/ 81710 85618 88458
  555 00321 10032=
42623 31995 00902 10122 20071 39307 40202 70500
  333 20045 58007
  555 10000=
42634 32596 00000 10104 20036 40192
  333 20090 58029
  555 10000=
42647 31995 22902 10116 20061 40180 70500
  333 20104 58024 82070
  555 10000=
42667 31090 90206 10122 20122 39570 40170 74944
  333 20119 58018
  555 10012=
42675 21493 80000 10160 20153 40161 74696 8860/
  333 20156 59001 6021/ 88710
  555 00211 10021=
42701 31994 21804 10150 20122 39427 40173 71000 82030
  333 20101 58001 82360
  555 10003=
42724 31992 00000 10136 20125 40174 74444
  333 20080 59009
  555 10000=
42737 32996 00504 10100 20042 40186
  333 20076 58015
  555 10000=
42754 31991 90000 10114 20107 39515 40177 74741 8////
  333 20067 58018
  555 10000=
42779 31996 42506 10174 20151 39450 40158 70510 80002
  333 20152 59004 84075
  555 10001=
42798 31993 00000 10164 20132 40171 74244
  333 20117 59005
  555 10000=
42809 31995 00000 10190 20138 40177 70500
  333 20108 58006
  555 10000=
42840 31995 30202 10138 20099 40180 70500 80001
  333 20125 58021 83070
  555 10000=
42867 21994 31102 10190 20174 40156 74441 82032
  333 20160 58004 6990/ 82360 83070
  555 00000 10000=
42874 31995 20000 10196 20145 40149 70500 80001
  333 20175 59009 82075
  555 10000=
42886 31993 00501 10178 20147 40168 74244
  333 20153 59005
  555 10000=
42895 31995 00000 10178 20124 40171 70500
  333 20130 59010
  555 10000=
42909 32996 40202 10118 20048 40184 80001
222// 20000
  333 20101 58021 84070
  555 10000=
42971 31994 00201 10198 20175 40172 72840
  333 20159 59004
  555 10000=
43003 31995 00000 10150 20078 40163 70400
  333 20136 58019
  555 10000=
43014 31995 20202 10132 20074 39494 40163 70544 80001
  333 20100 58012 82075
  555 10000=
43041 31995 01802 10170 20147 39540 40172 71000
  333 20120 59006
  555 10000=
43057 31995 10000 10184 20047 40164 70500 80001
  333 20160 58021
  555 10000=
43086 31596 81804 10226 20192 39976 40156 70522 84502
  333 10300 20198 59002
  555 10000=
43110 31996 00901 10204 20126 40152 70540
  333 20150 58010
  555 10000=
43117 32997 00702 10196 20121 40152
  333 20161 59002
  555 10000=
43128 31496 71404 10202 20177 39547 40161 70522 84530
  333 10292 20188 56290 58007 84615 85360
  555 10000=
43150 31595 10000 10242 20202 30094 40169 71000 81500
222// 20000
  333 10287 20201 58001 81620
  555 10000=
43185 31596 41403 10250 20204 30156 40160 70521 82530
  333 10292 20210 58000 82620 83360
  555 00000 10000=
43189 32597 39901 10246 20226 30157 40166 82502
  333 10300 20218 58010
  555 10000=
43192 31596 40503 10200 20167 40145 70500 81430
  333 20180 58006
  555 10000=
43201 32997 02302 10196 20171 39415 40144
  333 10310 20164 58004
  555 10000=
43213 31596 69902 10214 20182 39839 40161 70522 83838
  333 10322 20193 56299 58005
  555 10000=
43233 31896 40000 10204 20163 39334 40150 70510 84030
  333 10303 20154 58005
  555 10000=
43237 31996 41103 10228 20187 39760 40157 70500 82032
  333 10322 20197 58000 82360 84075
  555 10000=
43245 32997 10000 10234 20203 30137 40164 80001
  333 10307 20214 58002
  555 10000=
43279 31597 30000 10234 20197 30153 40171 70500 82501
  333 10306 20197 58004 82620
  555 10001=
43284 31596 50000 10240 20216 30023 40139 71042 82531
  333 10334 20222 58004 82620 83075
  555 10000=
43295 31997 30902 10184 20158 39130 48531 70500 80001
  333 10297 20169 58003 83075
  555 10000=
43311 32597 50505 10276 20238 40135 85400
  333 10334 20264 58007 85620
  555 10000=
43314 32597 51403 10256 20220 40141 83501
  333 10345 20246 58008
  555 10000=
43321 31495 80706 10214 20182 39714 40168 70522 82540
  333 10304 20210 58006 82615 86358
  555 10000=
43329 32597 23402 10220 20198 30145 40159 82500
  333 10300 20193 58007
  555 10000=
43333 31496 50706 10288 20233 40144 70510 84401
  333 20253 56109 58004 82618 83820
  555 10000=
43344 31495 20208 10234 20197 30062 40163 70500 81501
  333 10302 20201 58008 81618
  555 10000=
43353 31995 40703 10256 20207 40147 70100 83071
  333 10330 20216 56099 58007 82458
  555 10000=
43369 32597 33602 10278 20255 40129 82502
  333 10315 20263 58006 82620
  555 10002=
43371 31996 00000 10238 20223 30064 40137 70500
  333 10320 20222 58009
  555 10013=
0000011000
522
UANT99 KDDL 110353
ARP DAL50 4951N03622W 0353 F370 MS52 221/29 KT
N815NW DDL XXW 110353 J81A
0000011100
523
UANT99 KDDL 110353
ARP BAW176A 4850N03621W 0353 F400 MS49 235/31 KT
GZZZC QXT AOW 110353 F15A
0000211700
524
SOFX01 RJTD 110300
KKYY 11014 0038/ 125481 124517 88871 86064
20009 32372 43458 20013 32374 43458 20018 32374 43458 20023
32375 43458 20029 32374 43458 20032 32375 43458 20037 32375
43458 20042 32375 43458 20049 32375 43458 20052 32375 43458
20057 32375 43458 20063 32375 43458 20067 32375 43458 20073
32375 43458 20076 32375 43458 20082 32375 43458 20088 32376
43458 20093 32376 43458 20097 32376 43458 20107 32375 43459
20117 32375 43459 20128 32375 43459 20138 32375 43459 20146
32375 43459 20155 32375 43459 20164 32304 43469 20174 32245
43474 20183 32167 43476 20193 32019 43477 20204 31963 43476
20214 31886 43469 20225 31759 43464 20236 31719 43463 20247
31683 43461 20255 31657 43461 20266 31600 43459 20276 31544
43457 20287 31504 43456 20290 31494 43455 20301 31449 43453
20312 31394 43450 20322 31374 43448 20333 31321 43445 20343
31272 43442 20354 31229 43440 20365 31214 43439 20376 31176
43436 20384 31159 43435 20395 31128 43434 20399 31112 43434
20410 31079 43431 20421 31044 43429 20432 31030 43429 20444
31025 43428 20456 31009 43427 20463 31006 43427 20474 30977
43425 20484 30960 43424 20494 30946 43424 20504 30899 43423
20514 30880 43423 20524 30874 43422 20534 30866 43423 20544
30848 43421 20553 30848 43421 20563 30834 43420 20574 30829
43421 20584 30820 43422 20593 30800 43424 20602 30761 43422
20612 30725 43423 20622 30716 43424 20631 30702 43424 20641
30698 43424 20650 30692 43427 20660 30675 43429 20670 30657
43431 20679 30634 43433 20689 30629 43433 20699 30618 43433
20709 30615 43434 20718 30613 43434 20727 30603 43434 20742
30586 43435 20751 30569 43435 20762 30558 43436 20770 30550
43436 20778 30550 43436 20791 30543 43437 20801 30534 43437
20809 30527 43437 20821 30525 43437 20830 30522 43437 20838
30514 43438 20851 30506 43438 20858 30502 43438 20871 30494
43438 20878 30490 43438 20890 30486 43438 20901 30477 43439
20908 30475 43439 20920 30469 43439 20931 30462 43440 20940
30459 43440 20950 30459 43440 20961 30457 43440 20969 30455
43440 20979 30452 43440 20989 30450 43440
Q2902406=
0000003900
525
SIVD22 RJTD 110300
NIL=
0000047700
526
SXXX32 EUMS 110349
262AD2C2
OT12 ID:PK-ORMA-10 DT:2014 01 11 03 48
:PRS /1 07785 07799 07783 07784 07788 07786 07779 07788 07775 07769 07751 07761 07735 07741 07733 07739 07726 07731 07710 07726 07723 07705 07704 07710 07709 07698 07675 07688 07705 07672
:RAD /1 ///// ///// ///// ///// ///// ///// ///// ///// ///// ///// ///// ///// ///// ///// ///// ///// ///// ///// ///// ///// ///// ///// ///// ///// ///// ///// ///// ///// ///// /////
:BAT 13.2V
0000036300
527
SXXX32 EUMS 110351
12FFB3C8
:PRS 1 /1 M 3057 3049 3037 3034 3035 3041 3061 3069 3086 3076 3083 3074 3086 3070 3076 3063 3055 3050 3047 3059 3048 3058 3065 3047 3044 3036 3017 3008 3001 :RAD 1 /3 5986 5995 6012 6009 5999 5989 5985 5975 5956 5953 :ENC 1 /5 -144 -144 -144 -144 -144 -144 :SW1 51 /60 0 :SW2 21 /60 60 :BAT 14 /15 12.9 :NAME 12FFB3C8
0000070100
528
SXXX32 EUMS 110351 RRA
22E7E6D2
OT12 ID:ID-ROTE-11 DT:2014 01 11 03 50
:PRS /1 -10750 -10740 -10754 -10725 -10729 -10730 -10730 -10753 -10757 -10758 -10758 -10758 -10754 -10759 -10757 -10755 -10739 -10755 -10730 -10731 -10734 -10732 -10756 -10760 -10758 -10759 -10761 -10757 -10758 -10761
:PR2 /1 03781 03807 03799 03795 03802 03810 03782 03815 03774 03809 03805 03790 03794 03797 03785 03772 03771 03760 03779 03795 03789 03788 03761 03782 03787 03744 03787 03772 03773 03778
:RAD /1 05388 05397 05372 05377 05401 05384 05400 05385 05373 05385 05376 05368 05381 05360 05376 05359 05348 05344 05368 05344 05368 05360 05372 05344 05352 05364 05352 05336 05344 05384
:BAT 13.4V
00000000