0000009600
656
SPUS41 KWBC 101653
SPECI
KBAF 101649Z 00000KT 2SM -SN OVC021 M03/M06 A3042=

0000009600
657
SPUS41 KWBC 101653
SPECI
KCEF 101649Z 19002KT 7SM -SN OVC010 M02/M03 A3042=

0000010900
658
SPUS41 KWBC 101653
SPECI
KDOV 101648Z AUTO 11004KT 3SM -RA BR BKN025 BKN040 02/02 A3039=

0000010500
659
SPUS41 KWBC 101653
SPECI
KWRI 101650Z AUTO 08002KT 3SM BR SCT003 OVC010 00/00 A3038=

0000012100
660
SPUS42 KWBC 101653
SPECI
KSSI 101649Z AUTO 12008KT 1 1/4SM RA BR FEW008 BKN013 OVC019 17/17
A3019=

0000010000
661
SAIS32 LLBG 101650
METAR LLBG 101650Z 16006KT CAVOK 13/10 Q1020 NOSIG RMK SCT080=

0000011800
662
SAEU31 BKPR 101700
BKPR 101700Z 00000KT 0200 R17/0150 FG BKN002 02/00 Q1020 NOSIG RMK
 17010095 =

0000087100
663
SAMX44 MMMD 101700
METAR MMCE 101652Z 14006KT 2SM HZ OVC002 21/21 A3000
      RMK 8/6// VRB COND=
METAR MMCM 101644Z 00000KT 5SM SCT005 25/20 A3002
      RMK 8/100 HZY=
METAR MMCP 101650Z 18006KT 6SM  BKN020 BKN100 25/22 A3000 RMK 8/460=
METAR MMCT 101646Z 11010KT 8SM  BKN020 28/21 A3005 
      RMK 8/100 MSGTX MMMD=
METAR MMCZ 101641Z 11006KT 8SM  SCT015TCU 26/21 A3005 RMK 8/200 SC
AC=
METAR MMMD 101649Z 11011KT 6SM  BKN012 26/22 A3003 
      RMK 8/200 HZY LWR SC=
METAR MMMT 101641Z 00000KT 10SM  SCT040 BKN100 24/19 A2999 
      RMK 8/57/ HZ VC=
METAR MMTG 101642Z 36002KT 10SM  SKC 23/16 A3004 RMK HZY=
METAR MMTP 101640Z 00000KT 10SM  SKC 30/21 A2994=
METAR MMUN 101642Z 11007KT 7SM  SCT015 28/23 A3005 RMK 8/100 AC=
METAR MMVA 101647Z 00000KT 5SM  SCT007 BKN015 OVC060 22/19 A2998 
      RMK 8/62/ VRBL CONDS=

0000031100
664
SAGL31 BGSF 101650
METAR BGSF 101650Z AUTO 06011KT 9999NDV  SCT130/// M12/M20 Q0993=
METAR BGBW 101650Z 06012KT 9999 FEW035 BKN073 M08/M18 Q0995 RMK 
1CU 6AC =
METAR BGGH 101653Z NIL=
METAR BGJN 101653Z NIL=
METAR BGKK 101650Z AUTO 07034G53KT 0400NDV  +SN VV007/// M01/M02 
Q0986=

0000010000
665
SPCN44 CWAO 101650
SPECI CYPE 101650Z 00000KT 15SM VCSH BKN050 BKN090 RMK SC5AC2=

0000011100
666
UANT99 KDDL 110341
ARP DAL240 4542N02400W 0340 F350 MS59 221/71 KT
N176DN QXT AOE 110341 F17A
0000011000
667
UANT99 KDDL 110341
ARP MSR986 4752N03610W 0341 F330 MS48 229/29 KT
SUGDP QXT AOW 110341 F17A
0000011000
668
UANT99 KDDL 110341
ARP DLH427 5139N02439W 0341 F360 MS56 217/71 KT
DAIGZ QXT AOE 110341 J97A
0000009700
669
SPSA85 EGRR 110335 RRA
SPECI SBIZ 110330Z 34004KT 9999 FEW030 BKN080 24/23 Q1011=
0000121600
670
SIIN90 VOMM 110300
AAXX 11034
43278 32597 30000 10244 20207 30156 40163 82501
  333 10297 20209 58007
  555 10000=
43341 32996 00000 10141 20129 38980 48503
  333 10275 20095 58006
  555 10000=
43342 32596 60000 10226 20192 39956 40165 83530
  333 10324 20200 58011
  555 10000=
43340 32696 60501 10160 20143 38643 48660 85031
  333 10230 20138 58000
  555 10000=
43318 32996 01101 10166 20123 38295 48534
  333 10170 20104 58007
  555 10003=
43379 32898 20208 10240 20222 30143 40146 82070
  333 10298 20214 58006
  555 10020=
43277 32597 41802 10240 20210 30066 40167 82110
  333 10310 20170 58009
  555 10000=
43317 32597 40000 10128 20088 37813 4//// 8////
  333 10190 20072 58///
  555 10000=
43331 31596 13404 10222 20200 30116 40161 70510
  333 10301 20195 58004
  555 10001=
43302 32597 70000 10206 20197 39682 40125 82343
  333 10326 20176 59002
  555 10000=
43301 32997 10702 10208 20169 39638 40174 80001
  333 10310 20165 58015
  555 10000=
43330 32597 30501 10238 20211 30077 40161 83500
  333 10300 20222 58007
  555 10001=
43207 32996 23202 10236 20215 30152 40155 80002
  333 10308 20205 58011
  555 10000=
0000012100
671
SASA85 EGRR 110300 RRG
METAR SOCA 110330Z AUTO 25003KT 9999 -RA SCT004 SCT054 BKN066 23/22
      Q1012=
0000141000
672
FTSA85 EGRR 110337
TAF SBGL 110300Z 1106/1212 05005KT 9999 FEW020 TN24/1108Z TX35/1118Z
     BECMG 1110/1112 02005KT
     BECMG 1115/1117 08010KT
     BECMG 1118/1120 12010 KT
     BECMG 1122/1124 11005KT
     BECMG 1201/1203 04005KT
     RMK PGZ=
TAF SBSJ 110300Z 1106/1206 00000KT 9999 FEW020 TN19/1108Z TX32/1118Z
     BECMG 1108/1110 05005KT
     BECMG 1113/1115 10005KT
     BECMG 1115/1117 14005 KT SCT025
     TEMPO 1117/1121 35005KT TS SCT020 FEW025CB
     BECMG 1121/1123 12 005KT FEW025
     RMK PGZ=
TAF SGES 110320Z 1106/1206 10005KT 9999 FEW040 TX34/1119Z TN21/1110Z
     BECMG 1108/1109 VRB05KT 999 SCT027
     BECMG 1110/1112 9999 TS BKN027 FEW040CB
     PROB40 TEMPO 1114/1116 5000 TSRA OVC020 FEW040CB=
TAF SUAA 110345Z 1106/1206 17010KT 9999 FEW023 TX22/1118Z TN18/1109Z
     BECMG 1110/1112 17015G25KT 9999 BKN015=
TAF SUCA 110345Z 1106/1206 17010KT 9999 FEW023 TX22/1118Z TN18/1109Z
     BECMG 1110/1112 17015G25KT 9999 BKN015=
TAF SULS 110345Z 1106/1206 17010KT 9999 FEW023 TX22/1118Z TN18/1109Z
     BECMG 1110/1112 17015G25KT 9999 BKN015=
TAF SUMU 110345Z 1106/1206 17010KT 9999 FEW023 TX22/1118Z TN18/1109Z
     BECMG 1110/1112 17015G25KT 9999 BKN015=
TAF SURV 1106/1206 16005KT 9999 SCT023 BKN080 TX26/1118Z TN20/1109Z
     TEMPO 1106/1118 23020G30KT 5000 TSRA BKN015 FEW040CB OVC060
     BECMG 1112/1114 22010KT=
0000011000
673
UANT99 KDDL 110341
ARP TOM117 4755N01750W 0341 F400 MS55 238/41 KT
GTUIA QXT AOE 110341 L47A
0000011000
674
UANT99 KDDL 110341
ARP DLH493 5805N04621W 0341 F360 MS58 276/39 KT
DAIHE QXS UAK 110341 J22A
0000011500
675
UAAK04 KAWN 110300
YAK UA /OV YAK/TM 0322/FL004/TP B734/SK TOP004/WX FG/RM FV 1/2
 SM/ DURC/ ZAN=
00000000