0000005700
196
UEBD01 WBSB 111200
TTDD  61121 96315 NIL=
0000178900
197
SZPS01 AMMC 111212
CREX++
T000103 A001 D01021 D06025++
-0204190 14737360 56130 2014 01 11 12 05 3027 11 07 00 01
00402 0079 00400 0077 00395 0073 00393 0072 00390 0069 00389 0069+
-0669280 15640860 56363 2014 01 11 12 05 //// 11 07 00 01
00482 -0045 00482 -0046 00485 -0045 00488 -0043 00483 -0050 00486 -0048+
-0942890 15995560 56670 2014 01 11 12 05 3040 11 07 00 01
00420 -0055 00420 -0055 00420 -0055 00420 -0055 00422 -0053 00420 -0055+
-1072080 16580190 57131 2014 01 11 12 05 //// 11 07 00 01
01138 0666 00954 0480 00478 0001 00457 -0022 00473 -0008 01000 0516+
-1551560 16718860 57210 2014 01 11 12 05 //// 11 07 00 01
00523 -0153 00523 -0156 00526 -0155 00533 -0152 00551 -0137 00555 -0136+
-1775690 16830030 57320 2014 01 11 12 05 3017 11 07 00 01
00446 -0123 00447 -0124 00447 -0127 00446 -0130 00447 -0131 00447 -0133+
-4397330 16861610 65180 2014 01 11 12 05 2885 11 07 00 01
01520 0399 01513 0396 01526 0414 01530 0423 01512 0410 01478 0380+
-2120470 -15978530 65980 2014 01 11 12 05 3010 11 07 00 01
00547 0004 00546 0001 00559 0013 00584 0036 00558 0009 00565 0014+
-2113810 -17518140 66600 2014 01 11 12 05 //// 11 07 00 01
00961 0088 00967 0090 00976 0095 00975 0091 00981 0092 00983 0091+
-1382670 -17176110 66840 2014 01 11 12 05 3010 11 07 00 01
00801 0016 00812 0024 00811 0020 00817 0023 00822 0025 00834 0035+
-1813250 17842750 67050 2014 01 11 12 05 3032 11 07 00 01
01045 0107 01046 0103 01058 0112 01059 0109 01064 0109 01072 0114+
-1760530 17743810 67070 2014 01 11 12 05 3032 11 07 00 01
01047 0026 01052 0027 01059 0029 01064 0029 01069 0029 ///// ////+
-0850250 17919500 67440 2014 01 11 12 05 3027 11 07 00 01
02064 0019 02067 0018 02066 0013 02076 0020 02078 0018 02080 0016++
7777

0000014500
198
SSVX02 CWAO 111200
ZZYY 63544 11014 1200/ 179870 005028 6113/ 11119 
40052 52005 444 20130 11014 1200/ 50101 80138 80001 9////=
0000015100
199
SSVX02 CWAO 110800
ZZYY 72514 11014 0800/ 562199 058961 6113/ 11122 
40123 57038 22231 00112 444 20130 11014 0800/ 50100 80104 80001=
0000013900
200
SSVX02 CWAO 111200
ZZYY 55086 11014 1200/ 334162 172143 6113/ 11119 
40191 57002 444 20130 11014 1200/ 50100 80142 80001=
0000015100
201
SSVX02 CWAO 111200
ZZYY 26535 11014 1200/ 187308 040504 6113/ 11119 
11133 49992 57006 444 20130 11014 1200/ 50101 80134 80001 9////=
0000015100
202
SSVX05 CWAO 111200
ZZYY 48593 11014 1200/ 771638 176477 6113/ 11119 
40155 57020 22291 01094 444 20130 11014 1200/ 50400 80138 80001=
0000012100
203
SSVX05 CWAO 111200
ZZYY 48524 11014 1200/ 772286 179093 6113/ 444 
20130 11014 1200/ 50400 80140 80001=
0000017400
204
SMBR01 TBPB 111200
AAXX 11124
78954 11462 60726 10243 20214 30106 40172 60042 76086 86800
  333 10282 20218 50760 58013 70060 82814 86636 90914=



0000016400
205
SMBR01 TBPB 111200
AAXX 11124
78954 11462 60726 10243 20214 30106 40172 60042 76086 86800
  333 10282 20218 50760 58013 70060 82814 86636 90914=
0000056700
206
SMMJ20 MJSK 111200
AAXX 11121
13586 31212 80000 10015 20008 39964 40265 57018 71042 886//=
13493 42698 41802 10099 20023 39418 40228 57013 81501=
13577 42998 33203 10068 21022 38710 48532 57003 80002=
13578 41396 80000 10054 20047 37008 48527 57011 71044 886// 333
90586=
13579 31115 82301 10043 20036 39411 40261 58010 71044 886// 333
88702=
13583 41/92 90000 10019 20018 39539 40251 57015 74744=
13591 41493 80000 10027 20028 39850 40253 57017 74244 886//=
13592 41494 81801 10038 20025 30101 40260 58012 71044 886// 333
90560=
0000120800
207
SMBO03 SLLP 111200
AAXX 11124
85175 32470 53606 10242 20229 39835 40129 52012 85530
333 20224 30/// 56770 58010 85610 85357=
85195 32270 83605 10220 20220 39518 40120 52018 887//
333 20205 30/// 56899 58018 88706=
85196 12265 80000 10227 20225 39560 40143 52020 60044 887//
333 20213 31/// 56799 58001 88704=
85207 32480 50000 10236 20224 39656 40123 52015 85500
333 20219 30/// 55097 56700 58016 85615=
85210 11980 00000 10270 20236 39960 40175 52023 69924 70280
333 20220 30/// 58010 70002 555 10190 29082=
85244 12370 83508 10240 20233 39693 40123 52033 69954 885//
333 20230 55095 56800 58020 70005 86607 88615=
85245 12270 73115 10241 20225 39629 40108 52020 69944 87500
333 20232 30/// 56700 59013 70004 86706 87610=
85247 12380 20000 10270 20229 39818 40146 52028 60024 82500
333 20220 31/// 56800 58018 70021 82610=
85264 11480 83605 10170 20161 38039 52019 69944 72052 885//
333 20151 30/// 56899 58014 70004 88617=
85268 32980 03306 10270 20236 39810 40130 52015
333 20220 30/// 58016=
85289 32980 00000 10295 20233 39950 40102 52018
333 20200 30/// 58015=
85315 32984 00000 10244 20214 39214 40079 52021
333 20197 30/// 55119 58025 =
0000013600
208
UQCN04 CWAO 111200
PPDD  61128 71917 95013 15513 27002 15510 95456 12022 11041
12523 9589/ 06027 05519 961// 11017=

0000014800
209
UECN04 CWAO 111200
TTDD  6112/ 71917 11983 67969 22949 68169 33844 74767 44742
78965 55727 74566 66530 76364 51515 10190 50901=

0000008600
210
ULCN04 CWAO 111200
TTCC  61127 71917 70707 75365 12526 88999 77999=

0000016600
211
UPCB41 SACO 111200
PPAA 61128 87344
44385 16018 14034 25552 44340 28069 28076 28565 44320
30054 27569 25082
77115 27588 41642 77302 28076 40908=
0000015600
212
SIID21 WIIX 110900 RRB
AAXX 11094
96075 21457 70000 10290 20250 30078 40088 57016 76166 84971
  333 56000 57901 81915 83816 80965 80856=
0000005700
213
UPBD01 WBSB 111200
PPAA  61121 96315 NIL=
0000036100
214
SXXX32 EUMS 111206
12FFB3C8
:PRS 1 /1 M 3180 3186 3179 3175 3177 3161 3173 3170 3175 3189 3184 3185 3190 3192 3192 3183 3197 3180 3191 3198 3197 3203 3200 3225 3221 3238 3239 3243 3253 :RAD 1 /3 6116 6112 6117 6126 6132 6135 6149 6166 6185 6191 :ENC 1 /5 -144 -144 -144 -144 -144 -144 :SW1 6 /60 0 :SW2 36 /60 0 :BAT 14 /15 12.9 :NAME 12FFB3C8
0000070100
215
SXXX32 EUMS 111206 RRA
22E7E6D2
OT12 ID:ID-ROTE-11 DT:2014 01 11 12 04
:PRS /1 -10802 -10301 -10795 -10794 -10763 -/)'//)-10767 -10767 -10798 -10802 -10798 -10801 -10797 -10797 -10795 -10799 -10304 -10786 -10798 -10764 -10765 -10//////2666 -10795 -10796 -10794 -10793 -10795 -10792 -10793
:PR2 /1 04741 04756 04725 04753 04745 04736 04756 04778 04737 04763 04763 04746 04756 04758 04727 04743 04754 04754 04754 04748 04730 04703 04706 04726 04756 04723 04695 04705 04730 04744
:RAD /1 06358 06318 06310 06330 06318 06314 06314 06318 06302 06294 06330 06314 06314 06322 06318 06270 06282 06306 06306 06330 06318 06274 06254 06286 06262 06314 06350 06274 06258 06274
:BAT 12.4V
00000000