0000009000
336
SPUS44 KWBC 101541
SPECI
KSAC 101537Z 00000KT 3SM BR CLR 02/02 A3027=

0000013900
337
SAPA31 KWBC 101500 RRE
METAR
PKWA 101540Z AUTO 06017KT 10SM SCT026 SCT035 SCT049 27/21 A2977
     RMK AO2 T02710207=

0000016100
338
SAUS72 KWBC 101500 RRE
METAR
KBQK 101535Z AUTO 11006KT 10SM BKN005 OVC011 20/19 A3024=
KLRU 101535Z AUTO 28012G15KT 10SM CLR 06/M09 A3005=

0000010000
339
SAUS73 KWBC 101500 RRG
METAR
KIKK 101535Z AUTO 13008KT 10SM OVC008 01/00 A3004=

0000024700
340
FTCN31 CWAO 101500
TAF CYCG 101542Z 1016/1101 18010KT P6SM FEW005 OVC030 TEMPO 1016/1018
     5SM -SN SCT005 BKN012
    FM101800 18007KT P6SM SCT030 BKN060 TEMPO 1018/1101 5SM -SN
     BKN030
    RMK NXT FCST BY 101900Z=

0000013400
341
SIIN50 VIDP 110300 CCA
AAXX 11034
42170 31995 00000 10028 20018 40216 70500
  333 10203 20022 58028
  555 10000=
0000010300
342
SAIN90 VOTV 110340
METAR VOTV 110340Z 00000KT 4000 HZ FEW018 28/22 Q1013 BECMG 5000 HZ=
0000009200
343
SAIN90 VAAH 110340
METAR VAAH 110340Z 01004KT 2000 HZ NSC 11/05 Q1018 NOSIG=
0000013400
344
SIIN90 VIJP 110300 CCA
AAXX 11034
42170 31995 00000 10028 20018 40216 70500
  333 10203 20022 58028
  555 10000=
0000055300
345
UKIN01 DEMS 110000 RRG
TTBB 6100/ 43003
 00011 17259 11616 00881 22600 00382 33603 00081 44466 10776
 55412 17175 66363 20774 77358 22173 88334 25973 99315 29372
 11309 30571 22279 36970 33262 40569 44239 46968 55200 55966
 66181 585// 21212 00011 36003 11969 01009 22906 32006 33886
 28506 44872 25506 55856 28005 66821 26508 77786 27512 88600
 30523 99408 30031 11378 30572 22369 30036 33295 26540 44288
 27042 55257 27523 66246 29060 31313 59002 80055 41414 00900
         51515 11900 30505 22800 26509 33600 30523=

0000029300
346
USIN01 DEMS 110000 RRG
TTAA 61002 43003
 99011 17259 36003 00105 14074 00505 92759 13075 36010 85467
 12885 27506 70077 05281 27518 50576 07178 31541 40746 19174
 30038 30956 32771 27046 25081 45168 29025 20226 561// /////
 88999 77378 30572 41631 31313 59002 80055=

0000036000
347
FTCN31 CWAO 101500
TAF CYCD 101542Z 1016/1104 VRB03KT P6SM FEW020 SCT040 TEMPO 1016/1019
     5SM -SHRA BR BKN020 OVC040
    FM101900 VRB03KT P6SM SCT020 OVC100 TEMPO 1019/1022 5SM -SHRA BR
     BKN020 OVC030
    FM102200 14008KT P6SM -RA SCT006 OVC020 TEMPO 1022/1104 2SM -SHRA
     BR SCT004 OVC006
    RMK NXT FCST BY 101800Z=

0000027300
348
FTCN31 CWAO 101500
TAF CYBL 101542Z 1016/1104 VRB03KT P6SM FEW008 SCT020 BKN180 TEMPO
     1016/1021 P6SM -SHRA SCT008 BKN020
    FM102100 12007KT P6SM -RA SCT006 OVC015 TEMPO 1021/1104 2SM -SHRA
     BR SCT003 OVC006
    RMK NXT FCST BY 101900Z=

0000032300
349
FTNU31 TNCC 101600
TAF TNCC 101600Z 1018/1118 09014KT 9999 SCT020
    PROB40 TEMPO 1106/1118 7000 SHRA BKN015=
TAF TNCA 101600Z 1018/1118 08018KT 9999 SCT020
    PROB40 TEMPO 1106/1118 7000 SHRA BKN015=
TAF TNCB 101600Z 1018/1118 09016KT 9999 SCT020
    PROB40 TEMPO 1106/1118 7000 SHRA BKN015=

0000012500
350
FCFI33 EFHK 101400 AAB
TAF AMD EFKS 101542Z 1015/1023 05010KT 9999 -SN BKN025 TEMPO
     1015/1018 2000=

0000014100
351
SPCN48 CWAO 101540
SPECI CYIK 101540Z 24003KT 9SM -SN VCFG FEW012 FEW030 FEW050 BKN150
M19/ RMK CF1SC1SC2AS2 VIS W 5 FG=

0000024800
352
FTNO38 ENMI 101400 AAA
TAF AMD ENOA 101538Z 1015/1115 27015KT 9999 FEW009 BKN020 TEMPO
             1015/1021 SHRA BKN009 FEW015CB TEMPO 1021/1112 4000 RADZ
             BKN008 BECMG 1100/1104 29025KT BECMG 1106/1109 28035KT=

0000236700
353
SPUS70 KWBC 101540
SPECI
KFTY 101536Z 05005KT 2SM BR OVC004 07/06 A3026 RMK AO2=
KGVL 101536Z AUTO 08006KT 1 3/4SM -RA BR OVC003 07/06 A3029 RMK
     AO2 RAB26 P0000=
KMDW 101536Z 16009KT 1 1/2SM BR OVC002 01/00 A3003 RMK AO2 $=
KMIV 101536Z AUTO 04003KT 2 1/2SM -RA BR FEW047 OVC055 01/01 A3047
     RMK AO2 P0006 T00110006=
KMLC 101536Z AUTO 19010G17KT 4SM -RA BR FEW007 BKN012 OVC075 12/11
     A2981 RMK AO2 P0020=
KAMG 101536Z AUTO 13006KT 1SM BR OVC002 17/16 A3021 RMK AO2
     T01720161=
KBKV 101536Z 13008KT 10SM SCT013 24/19 A3019 RMK AO2 T02390194=
KDUJ 101536Z AUTO 13003KT 10SM OVC009 01/M03 A3026 RMK AO2 CIG
     008V013=
KEQY 101536Z AUTO 03008KT 3SM -RA BR OVC003 06/04 A3032 RMK AO2
     P0000=
KPNC 101536Z AUTO 21007KT 5SM BR OVC006 09/08 A2967 RMK AO2 CIG
     003V009 TSNO=
KSJT 101536Z 22008KT 6SM BR BKN011 13/12 A2991 RMK AO2=
KUGN 101536Z 14006KT 2 1/2SM BR OVC002 M01/M01 A3000 RMK AO2=
KVAY 101536Z AUTO 00000KT 1 1/2SM UP BR FEW004 BKN042 OVC055
     M01/M01 A3048 RMK AO2 UPB00FZRAE00 P0005 I1000 T10061011=
KXNA 101536Z 18013G19KT 3SM TSRA BR SCT004 BKN055 OVC070 09/09
     A2981 RMK AO2 LTG DSNT ALQDS TSB1458E31B36 P0010=
KTTS 101533Z AUTO 14002KT 10SM SCT009 BKN027 BKN042 BKN065 23/19
     A3020 RMK AO2 CIG 027V044 $=
PABA 101535Z AUTO 27021KT 3/4SM -SN BR M25/M27 A2986 RMK AO2 PK
     WND 28028/1531 SNB21 FZRANO $=
PAOH 101537Z AUTO 00000KT 5SM -SN BR FEW007 BKN013 OVC031 01/01
     A2951 RMK AO2 TSNO UPB17E36SNB36 P0000 $=
KARA 101537Z 12012KT 3SM BR OVC002 14/14 A3009 RMK AO2 SFC VIS
     6=
KCUB 101537Z AUTO 03003KT 6SM BR OVC004 10/09 A3030 RMK AO2 CIG
     003V007 T01000089 TSNO=
KDFI 101537Z AUTO 15004KT 2SM BR OVC004 02/01 A3015 RMK AO2
     PRESFR=
KESF 101537Z AUTO 13006KT 2SM BR OVC002 13/12 A3007 RMK AO2=
KFFC 101537Z AUTO 08004KT 2 1/2SM BR OVC004 06/06 A3026 RMK AO2
     T00610056=
KGFK 101537Z 18016KT 2 1/2SM -SN BR FEW034 OVC048 M06/M08 A2946
     RMK AO2 TWR VIS 3 SNB37 P0000 T10611078=
KIAD 101537Z 24004KT 1 1/2SM BR OVC005 01/M01 A3043 RMK AO2
     RAB17E31FZDZE17 P0001=
KMWL 101537Z AUTO 19004KT 3SM -RA BR FEW048 BKN080 OVC095 13/13
     A2985 RMK AO2 P0003 T01330133=
KOKB 101537Z AUTO 05004KT 3SM BR CLR 06/04 A3009 RMK AO2 TSNO=
KSAC 101537Z 00000KT 3SM BR CLR 02/02 A3027 RMK AO2=

0000009300
354
SPUS42 KWBC 101540
SPECI
KFTY 101536Z 05005KT 2SM BR OVC004 07/06 A3026=

0000009700
355
SPUS43 KWBC 101540
SPECI
KMDW 101536Z 16009KT 1 1/2SM BR OVC002 01/00 A3003=

00000000