0000011000
176
UANT99 KDDL 110346
ARP DLH439 5505N04600W 0346 F350 MS60 300/52 KT
DAIKK QXT AME 110346 J62A
0000011000
177
UANT99 KDDL 110346
ARP ACA872 5600N01900W 0346 F330 MS55 250/66 KT
CFRAM DDL XXW 110346 F24A
0000010900
178
UANT99 KDDL 110346
ARP KLM48 5604N03304W 0346 F360 MS56 218/42 KT
PHBFK QXT AOW 110346 F53A
0000011000
179
UANT99 KDDL 110346
ARP TOM035 4757N01744W 0346 F410 MS53 240/51 KT
GTUIC QXT AOE 110346 L32A
0000011000
180
UANT99 KDDL 110346
ARP EIN104 5358N02001W 0346 F380 MS54 247/54 KT
EIDUZ DDL XXW 110346 J47A
0000011100
181
UANT99 KDDL 110346
ARP DAL171 5604N03718W 0346 F370 MS54 220/31 KT
N801NW DDL XXW 110346 J09A
0000068500
182
UDAS02 EGRR 110350
AMDAR 1103
DES EU1389   2931N 04757E 110336 F026 PS105 203/029 TB/ S031=
DES EU1389   2920N 04754E 110340 F023 PS110 193/030 TB/ S031=
DES EU1389   2920N 04754E 110340 F020 PS117 192/030 TB/ S031=
DES EU1389   2919N 04755E 110341 F017 PS122 187/030 TB/ S031=
DES EU1389   2918N 04755E 110341 F014 PS127 185/029 TB/ S031=
DES EU1389   2917N 04755E 110341 F011 PS130 183/029 TB/ S031=
DES EU1389   2916N 04756E 110342 F009 PS130 189/025 TB/ S031=
DES EU1389   2915N 04756E 110342 F006 PS127 179/020 TB/ S031=
DES EU1389   2915N 04757E 110343 F003 PS122 165/015 TB/ S031=
DES EU1389   2914N 04757E 110343 F000 PS115 131/006 TB/ S031=
0000068500
183
UDSA02 EGRR 110350
AMDAR 1022
LVR EU2491   1249S 04054W 102226 F329 MS410 298/019 TB0 S031=
LVR EU2491   1155S 04028W 102233 F329 MS407 274/023 TB0 S031=
LVR EU2491   1101S 04002W 102240 F329 MS407 307/014 TB0 S031=
LVR EU2491   1008S 03937W 102247 F329 MS405 290/022 TB0 S031=
LVR EU2491   0914S 03912W 102254 F329 MS402 296/018 TB0 S031=
LVR EU2491   0819S 03847W 102301 F329 MS400 288/024 TB0 S031=
LVR EU2491   0725S 03822W 102308 F349 MS457 277/019 TB0 S031=
LVR EU2491   0630S 03757W 102315 F349 MS455 266/028 TB0 S031=
LVR EU2491   0534S 03732W 102322 F349 MS452 260/029 TB0 S031=
LVR EU2491   0441S 03703W 102329 F349 MS450 270/033 TB0 S031=
0000115500
184
SISU01 HSSS 110300
AAXX034
62600 42970 00505 10175 20025 30019 40241 58026=
62640 42970 03610 10105 20000 39810 40185 58041=
62641 42970 03211 10184 20086 30134 40184 58047=
62650 42970 03504 10040 20020 39955 40243 58015=
62660 41968 03616 10115 20040 39886 40200 70700 58030=
62680 42970 03409 10130 20020 39768 40181 58018=
62721 42970 73613 10140 20020 39202 40160 80007 56009
 59004 87275=
62730 42970 03604 10150 21020 39602 40187 59006=
62733 42970 03604 10130 20040 39619 40131 59010=
62750 42970 73407 10160 20015 39687 40128 80007 56009
 59001 87275=
62751 42970 00000 10120 21045 39700 40182 58036=
62762 42970 70204 10160 21020 39439 40154 80007 56009
 58009 87275=
62762 42970 70402 10120 20045 39656 40150 80007 56009
 58015 87275=
62771 42970 73610 10125 21010 39510 40181 80007 56009
 58005 87275=
62772 42970 73608 10160 20030 39715 40159 80007 56009
 58010 87275=
62790 42970 70511 10140 21030 39439 40188 80007 56009
 58014 87275=
62795 42970 70204 10165 21040 39638 40146 80007 56009
 58015 87275=
62805 42970 73203 10150 20070 39588 40136 80007 56009
 58003 87275=
0000034300
185
SNVD15 KWNB 110200 RRQ
BBXX
42369 11021 99272 70903 46/// /1507 1//// 90140=
42375 11021 99285 70883 46/// /1407 1//// 90140 22200 10401 70007
555 11059 22064=
42392 11021 99272 70900 46/// ///// 1//// 90140 22200 10402 70009=
42887 11021 99282 70885 46/// /1606 10219 20212 90140 22200 10502
70009 555 11051 22055=
0000120700
186
SIVD20 KWNB 110300 RRS
BBXX
41052 11031 99183 70648 46/// /0809 10260 40181 90330 333 91211
555 11103 22112=
41052 11031 99183 70648 46/// /0809 10262 40181 90320 333 91211
555 11103 22112=
41052 11031 99183 70648 46/// /0709 10261 40182 90310 333 91211
555 11095 22103=
42085 11031 99179 70665 46/// /0709 10255 40180 90330 333 91211
555 11104 22113=
42085 11031 99179 70665 46/// /0709 10256 40181 90320 333 91211
555 11099 22108=
42085 11031 99179 70665 46/// /0707 10257 40181 90310 333 91209
555 11080 22087=
44029 11031 99425 70706 46/16 /1804 10039 40259 90304 22200 00048
10401 70005 333 91205 555 11049 22053=
44030 11031 99432 70704 46/30 /2504 10021 40255 90304 22200 00053
10502 70008 333 91205 555 11049 22053=
44032 11031 99437 70694 46/30 /2506 10036 40259 90304 22200 00046
10602 70012 333 91208 555 11070 22076=
44033 11031 99441 70690 46/30 /2802 11005 40253 90304 22200 00025
10601 70007 333 91203 555 11025 22027=
44034 11031 99441 70681 46/28 /2904 10016 40264 90304 22200 00055
10602 70012 333 91205 555 11049 22053=
44037 11031 99435 70679 46/00 /2307 10053 40271 90304 22200 00049
10603 70016 333 91208 555 11075 22081=
0000082100
187
UKIN90 VICH 110000
TTBB 61028 42101
00989 03600 11966 11860 22956 12060 33893 08857 44872
08661 55803 03457 66769 01059 77759 00058 88725 03159
99685 04770 11552 18969 22514 20177 33480 19380 44316
41371 55271 44571 66250 49370 77220 52969 88196 52770
99178 57169 11168 57569 22158 56370 33131 62769 44122
64569 55118 63769 66107 67168
21212 00989 32003 11909 34510 22887 32507 33844 34511
44825 33010 55803 35005 66784 05508 77763 03008 88743
06513 99716 08507 11704 04015 22680 03008 33665 00510
44647 33509 55630 03008 66598 04009 77582 34505 88567
35006 99553 16004 11538 35504 22478 32038 33449 32559
44256 30085 55249 29574 66230 30605 77186 28592 88168
28107 99119 28568 11107 26567 22102 27570 31313 51708
80206 4141 9//// 51515 11888 32508 22800 01005 33600 04009=
 
0000009200
188
SPIN90 VECC 110350
SPECI VECC 110350Z 00000KT 1500 BR NSC 19/14 Q1017 NOSIG=
0000025700
189
SNVB01 KWBC 100400 RRF
BBXX
SHIP 10044 99213 11217 41797 60626 10220 20175 40248 52003 70322
 82343 22282 00260 20207 303// 40207 80190=
SHIP 10044 99145 11143 41697 10260 40155 50000 70311 85963 22212
 00310 20208 301// 40208 80240=
0000017900
190
SMVD01 KWBC 110000 RRX
BBXX
C6RN3 11004 99205 70727 41/98 /0724 10270 20243 40190 5//// 7////
 8//// 22274 00270 2//// 3//// 4//// 5//// 6//// 80250 ICE /////=
0000011200
191
SNVD01 PANC 100400 RRL
BBXX
WDC6055 10044 99416 70871
43/// /1712 10055 40032
2227/ 00035=
0000045800
192
SNVD15 KWNB 110400
BBXX
44064 11041 99370 70760 46/// /1406 10100 40217 90340 333 91206
555 11065 22070=
44062 11041 99386 70764 46/// /0102 10025 40222 90340 333 91202
555 11017 22019=
44063 11041 99390 70764 46/// /0102 10017 40210 90340 333 91203
555 11027 22029=
44041 11041 99372 70768 46/// /1302 10077 90340 333 91204 555
11028 22030=
44042 11041 99380 70763 46/// /1402 10054 40212 90340 333 91203
555 11028 22030=
0000020900
193
SNVD20 KWNB 110400
BBXX
44059 11041 99368 70763 46/// /1805 10137 40212 90340 333 91208
555 11062 22068=
44058 11041 99376 70763 46/// /1805 10074 40219 90340 333 91206
555 11052 22057=
0000058800
194
SIVD19 KWNB 110300 RRE
BBXX
46126 11031 99540 71666 46/// /2305 10044 49837 90300 22200 00046
1//00 70001 333 91206 555 11052 22057=
46126 11031 99540 71666 46/// /2404 10046 49837 90318 22200 00045
1//00 70001 333 91207 555 11046 22050=
46126 11031 99540 71666 46/// /2404 10046 49837 90320 22200 00045
1//00 70001 333 91207 555 11046 22050=
46126 11031 99540 71666 46/// /2204 10046 49837 90324 22200 00045
1//00 70001 333 91205 555 11039 22043=
46126 11031 99540 71666 46/// /2204 10045 49834 90330 22200 00045
1//00 70001 333 91205 555 11047 22051=
0000158500
195
SICI01 KWBC 110300 RRH
AAXX 11031
55228 32780 70000 11139 21258 36009 52021 87///=
55279 32772 62206 11090 21317 35685 52010 86///=
55472 32780 61602 11083 21356 35717 52007 86///=
55578 32880 80000 11048 21205 36368 52014 88///=
55664 32880 83601 11096 21260 35991 52014 88///=
55696 32680 70901 11061 21132 36350 52015 87///=
55773 32670 72503 11088 21148 36006 52013 87///=
56079 32780 73402 11069 21107 36685 52013 87///=
56106 32780 72206 11039 21322 36206 52025 87///=
56116 32680 71101 11057 21157 36339 52024 87///=
56137 42680 12701 11021 21174 36800 52019 81///=
56172 42980 02502 10000 21108 37344 52007=
56247 32961 03601 10031 21128 37444 52016=
56257 32980 00704 11007 21203 36271 52012=
56312 42580 61803 10017 21057 37111 52018 86///=
56374 41580 70904 11028 21061 37451 52012 78580 87///=
56385 41/01 90000 11086 21091 37030 52015 77074=
56462 32970 01602 10017 21144 37143 52005=
56651 32680 12704 10103 21084 37665 52017 81///=
56691 31463 83402 11028 21036 37817 52016 76666 88///=
56954 31929 01801 10103 20068 40245 52015 71000=
56966 32665 81403 10164 20107 40225 52018 88///=
56985 32568 01101 10198 20072 40178 52011=
57237 32965 83602 10050 21033 40329 52018 88///=
57306 31940 83401 10066 20041 40320 52018 71000 88///=
57604 41720 82501 10065 20065 40317 52016 76000 88///=
57633 42462 81101 10022 20001 40333 52016 88///=
57707 41465 80901 10011 21011 38568 52015 72166 88///=
57832 31462 80202 10025 20006 40331 52016 72166 88///=
57902 32566 80702 10029 20006 40289 52017 88///=
00000000