0000375400
096
SMCN04 KWBC 111200 RRB
AAXX 11124
71003 17466 81504 11061 21077 39683 40067 58019 60001 771// 333
11071 21074 70000=
71009 15/// /1516 11056 21067 60001 333 11022 21154 70000=
71018 15/// /1407 11336 21371 39835 49925 51015 60001 333 11268
21346 4/005 70002=
71022 17466 81508 10031 20022 39749 49792 53011 60061 70044 333
10051 20002 70075=
71026 15/// /1907 11009 21030 39153 40003 58056 60001 333 10026
21126 4/009 70000=
71030 15/// /1602 10014 20008 30127 40225 58026 60001 333 10010
21010 4/002 70000=
71032 17/// /0302 10013 20005 39104 49910 56035 69971 7//4/ 333
10058 21011 4/009 70007=
71041 15466 82104 10007 20000 30106 40251 58001 60001 333 11007
21038 70000=
71045 15/// /0000 11162 21178 39030 49892 57020 60001 333 11074
21169 4/067 70000=
71068 12674 80305 11094 21115 39236 49931 58035 60001 885// 333
11110 21173 47042 70004=
71083 11012 01104 11267 21300 30012 40057 57016 69901 77677 333
11293 21334 44035 79999 90983 93100=
71091 45/// /3106 11268 39786 40002 51016 6///1 333 7////=
71092 45564 82004 11265 39314 40000 51015 6///1 333 11227 21293
7////=
71101 45/// /2701 10012 20006 39782 49790 53010 6///1 333 10059
20012 7////=
71108 11459 8//// 10105 39846 49917 5/036 60161 76366 8372/ 333
10088 20044 70284 90983=
71403 45/// /2212 10017 30234 40254 57009 6///1 333 10012 20002
7////=
71443 15/// /2212 11079 21097 39604 40020 53006 60001 333 11054
21104 4/005 70002=
71550 15/// /2513 11078 21095 39647 40025 52008 60001 333 11062
21093 4/018 70000=
71551 15/// /2404 11120 21134 39390 40063 58009 60001 333 11033
21129 4/019 70008=
71559 15/// /3008 11114 21129 39361 40072 58003 60001 333 11026
21116 4/008 70000=
71560 15/// /3203 11073 21084 39723 40028 53009 60001 333 11032
21100 4/023 70000=
71569 15/// /2609 11151 21167 39341 40054 58005 60001 333 11064
21151 4/013 70002=
71570 15/// /2903 11108 21126 39702 40017 53014 60001 333 11041
21108 4/030 70032=
71574 13974 82701 11181 21208 30144 40222 58005 60001 80007 333
11094 21208 43040 70000=
71577 45/// ///// 11080 21087 6///1 333 11048 21110 7////=
71579 15/// /3204 11076 21087 39731 40016 53011 60001 333 11039
21095 70000=
71581 17/// /1402 10012 20007 39519 49997 56043 60081 7//4/ 333
10002 4/052 70078=
71586 15/// /2802 11143 21157 39551 40021 58003 60001 333 11052
21144 4/051 70005=
71590 15/// /0801 11131 21151 39995 40194 58029 60001 333 11061
21191 4/039 70000=
71603 11/08 /1606 10032 20032 30187 40241 58017 69921 75154 333
10034 20019 70010 90973=
71625 17238 81307 11007 21014 39859 40020 56056 60021 7644/ 333
11020 21042 70020=
71714 15/// /0702 11046 21062 30063 40139 58055 60001 333 11075
21091 4/036 70000=
71927 17/// /2105 10081 20068 39865 49921 55004 60041 7//4/ 333
10105 20058 4/997 70076=
71931 45/// /2612 11051 21093 30155 40167 53008 6///1 333 11058
21079 7////=
71945 13674 63202 11188 21217 39495 49976 56019 60001 83570 333
11148 21191 48077 70000=
71946 12574 83504 11238 21254 39816 40039 57011 60001 885// 333
11182 21243 48053 79999=
71964 43474 83306 11123 21143 39048 49906 58013 6///1 333 11102
21172=
71039 17/// /3005 11166 21184 39270 49942 58009 69921 7//4/ 333
11114 21189 4/050 70010=
71050 17/// /2102 11023 21028 38785 49835 55019 60011 7//4/ 333
11024 21035 4/027 70031=
71076 15/// /2702 11272 21301 39623 40031 56003 60001 333 11175
21274 4/035 70004=
71079 11566 80404 11199 21207 39729 40017 50001 69901 77177 885//
333 11107 21200 47050 70064 90983=
71093 45/// /2512 11237 39467 49974 51011 6///1 333 11194 21238
7////=
71104 11574 81316 11002 21020 38760 49844 55053 69901 73672 8257/
333 11008 21031 44055 70032 90962=
0000113000
097
SMMI01 GABS 111200
AAXX 11124
61202 NIL=
61214 NIL=
61223 NIL=
61226 NIL=
61230 32960 60808 10290 20015 3//// 4//// 85042
  333 0//00 5//// 85365=
61233 32960 71006 10316 20036 39838 40132 83042
  333 0//00 58019 83365 85075=
61235 32960 50410 10315 20040 30017 40129 81042
  333 0//00 58018 81365 84075=
61240 NIL=
61250 NIL=
61257 32960 40812 10300 20025 30077 40133 84042
  333 0//00 58016 84365=
61265 31958 60814 10320 21008 39822 40126 70622 80002
  333 0//00 58016 86075=
61270 32960 60804 10324 20085 39754 40122 85042
  333 0//00 58021 85365=
61272 32960 20808 10335 20081 39802 40122 80002
  333 0//00 58011 82075=
61277 32960 20808 10330 20035 39812 40130 80002
  333 0//00 58014 82075=
61285 32960 53204 10290 20072 39986 40136 83042
  333 58020 83365 85075=
61291 32960 11210 10342 20041 39701 40106 80002
  333 0//00 58013 81075=
61293 32960 01206 10330 20040 39706 40107
  333 0//00 58012=
61296 32970 51406 10336 20091 39718 40106 80002
  333 0//00 58007 85075=
61297 32960 31008 10320 20029 39655 40110 80002
  333 0//00 58021 83075=
0000374500
098
SMCN04 KWBC 111200 RRC
AAXX 11124
71201 17/// ///// 10096 20080 60331 7//4/ 333 10074 20060 70492=
71202 15/// ///// 11071 21087 60001 333 11012 21126 70000=
71212 15/// /0000 11079 21081 39321 40142 58041 60001 333 11081
21098 4/056 70003=
71218 17/// /1002 10017 20013 39520 49941 56050 60021 7//4/ 333
10022 20002 70067=
71219 45/// /1521 10050 20022 39780 49790 53014 6///1 333 10060
20016 7////=
71230 17/// /0908 11040 21052 39002 49880 58058 60011 7//4/ 333
21057 4/046 7////=
71232 15/// /2512 10002 21047 38429 49892 58068 60001 333 10018
21016 70000=
71239 15/// /2207 11083 21095 39568 40038 53002 60001 333 11027
21098 4/011 70000=
71247 15766 81807 11009 21042 39159 40010 58056 60001 333 10021
21116 70000=
71474 17040 81504 11006 21041 38661 49870 58042 60011 7//4/ 333
11009 21034 70010=
71538 11004 82011 10048 20048 39748 49975 58031 60031 74265 887//
333 10040 21029 42003 70092 90913=
71555 15/// /1816 10013 21051 38401 49934 58064 60001 333 10026
21042 70000=
71556 15/// /2604 11157 21172 39444 40062 58002 60001 333 11077
21157 70005=
71572 15/// /0602 11208 21228 39771 40008 58001 60001 333 11122
21211 4/051 70041=
71580 11566 61508 11323 21355 39952 49990 56002 69901 77177 86530
333 11309 21362 44017 70002 90983=
71623 43132 42011 10056 20055 39660 49993 56032 6///1 333 10029
20016=
71667 17/// /2604 11038 21044 39707 49952 57012 69931 7//4/ 333
11029 21045 4/027 70005=
71668 15/// /3102 11136 21147 30179 40224 58024 60001 333 11019
21139 4/027 70004=
71672 45/// /1102 10030 20030 39743 40005 58047 6///1 333 10013
20001 4/032 7////=
71675 17528 80603 11084 21095 39676 49955 58013 69981 7714/ 333
11071 21084 70013=
71679 17/// /0702 11037 21042 38817 49806 56016 60041 7//4/ 333
10006 21038 4/011 70092=
71687 17/// ///// 10001 20001 39107 49869 56047 60281 7//4/ 333
10024 20000 4/032 70352=
71691 15366 81302 11055 21070 30146 40174 58018 60001 333 11062
21109 70000=
71697 17548 81007 10032 20028 39833 40003 58044 60061 7614/ 333
10028 20015 70058=
71707 11474 62511 10002 21026 30166 40245 50000 69901 70287 86500
333 11012 21076 44046 79999 90922=
71727 12774 80912 11065 21090 39930 40132 57047 60001 8657/ 333
11067 21117 49054 79999=
71918 45/// ///// 11326 39571 40011 58001 6///1 333 11317 21355
7////=
71933 17/// /0603 11028 21034 39008 49816 56044 60051 7//4/ 333
11026 21050 4/042 70049=
71943 11566 81209 11066 21090 39066 49894 57039 69901 77122 885//
333 11036 21087 48066 79999 90921 93100=
71968 47959 02305 11263 39979 40046 58015 6///1 771// 333 11222
21266 7////=
71001 17540 83008 11158 21171 38956 49937 56007 60001 771// 333
11153 21229 70000=
71023 15264 82304 11102 21111 39230 40003 57022 60001 333 11043
21110 70005=
71028 17/// /1407 11005 21007 38835 49841 56020 60041 7//4/ 333
10031 21017 4/021 70080=
71033 15/// /2707 11174 21195 39373 40017 56006 60001 333 11119
21179 4/027 70015=
71047 15/// ///// 11102 21120 60001 333 11013 21130 70000=
71061 15/// /0906 11059 21089 39156 49932 58055 60001 333 10005
21125 4/045 70000=
71074 45/// /0000 11314 21344 39789 49868 6///1 333 21345 4/028
7////=
71088 45/// /3305 11299 6///1 333 11220 21301 7////=
71114 17/// /1005 10030 20027 39874 49921 56047 60191 7//44 333
10095 20029 70353=
71131 15/// /1804 11082 21086 38789 40052 56030 60001 333 11034
21120 4/005 70000=
71148 15/// /2906 11069 21082 39452 40037 52007 60001 333 11011
21091 4/028 70002=
71209 45/// /2327 10096 20076 6///1 333 10093 20053 7////=
71222 15/// /0603 11150 21163 38924 49886 57023 60001 333 11044
21157 70002=
71235 15/// /1602 11061 21080 60001 333 10025 21067 70000=
0000376000
099
SMCN04 KWBC 111200 RRD
AAXX 11124
71412 15/// /2103 11040 21058 30228 40238 58008 60001 333 11019
21040 4/065 70000=
71510 15/// /2407 11156 21171 39332 40054 58020 60001 333 11057
21169 4/006 70000=
71512 15/// /3503 11097 21106 30168 40182 58009 60001 333 11069
21105 70000=
71564 15/// /0303 11081 21098 39651 40022 53002 60001 333 10004
21087 4/015 70005=
71584 15966 63605 11100 21121 30134 40183 50001 60001 333 11077
21110 70000=
71609 13474 80301 11055 21067 30093 40231 58021 60001 885// 333
11007 21071 44016 70000=
71684 17264 81414 10002 20001 39659 49957 56057 60021 76144 333
11021 21029 70018=
71685 17362 81512 10008 20001 39424 49955 56060 60061 77144 333
10011 20002 70095=
71694 17/// /1504 10032 20026 39639 49998 57035 60151 7//4/ 333
10017 21004 4/069 70216=
71705 13974 71602 11094 21108 30139 40229 58014 60001 80001 333
11022 21094 44058 70000=
71719 15/// /2009 11124 21146 30209 40215 58008 60001 333 11099
21133 4/034 70000=
71725 17/// /1303 10000 21015 39571 49986 58073 60031 7//4/ 333
11040 21047 4/053 70034=
71728 12569 81104 11030 21050 39885 40109 58049 60001 885// 333
11048 21068 44046 70000=
71739 41232 81205 11022 21030 39580 49939 57053 6///1 77177 885//
333 11013 21024 90983 93108=
71753 15/// /0401 10008 20001 30213 40243 58009 60001 333 10007
21008 4/006 70000=
71784 17/// /2102 10082 20075 39716 49918 56028 60351 7//4/ 333
10067 20046 70560=
71800 15/// /2718 11018 30195 40229 52007 60001 333 11022 21049
70000=
71808 12874 62805 11093 21127 30119 40167 53007 60001 86070 333
11099 21116 40025 79999=
71810 15/// /1202 11070 21079 30117 40185 58006 60001 333 11037
21073 4/042 70000=
71920 17/// /1710 10034 20029 30242 40248 57020 69921 7//4/ 333
10031 20019 4/001 70004=
71938 11762 12512 11330 21387 39958 49989 50003 69901 77677 81500
333 11210 21334 45029 79999 90983=
71944 17/// /3602 11047 21052 39022 49841 56065 60041 7//4/ 333
11029 21053 4/086 70037=
71950 17528 81502 11038 21039 39201 49818 60001 771//=
71951 11440 80206 11004 21007 39557 49818 55005 60081 77177 885//
333 10019 21006 47012 70082 90973 93112=
71952 17/// /0000 11043 21048 38980 49817 56027 60041 7//4/ 333
11039 21096 4/047 70055=
71962 17/// /3008 11033 21042 39557 49978 53006 69921 7//4/ 333
11034 21048 4/024 70009=
71060 15/// /0101 11079 21111 38383 49895 58058 60001 333 10034
21083 4/053 7////=
71062 17/// /1312 11036 21047 38849 49920 58068 69981 7//4/ 333
10007 21095 4/057 70008=
71064 45/// /3016 11354 39714 49938 58002 6///1 333 11293 21354
7////=
71075 15/// /2504 11214 21242 39385 40012 58009 60001 333 11173
21280 4/040 70000=
71078 15966 83101 11254 21283 39572 40032 51003 60001 333 70003=
71095 17540 82110 11270 21300 39893 49976 52015 69901 7714/ 333
11192 21270 70003=
71096 45/// /0000 11218 39229 49974 51010 6///1 333 11191 21231
7////=
71098 17/// /2110 10034 20033 39464 49982 56036 60101 7//4/ 333
10011 21003 4/021 70435=
71099 17466 80808 11125 21142 39985 40006 57020 60001 771// 333
11116 21197 70000=
71150 45/// /3012 11065 21074 39348 40035 51008 6///1 333 11074
21099 7////=
71153 15/// /2008 10027 21027 60001 333 10049 21000 70000=
71157 45/// ///// 11033 21055 6///1 333 11001 21098 7////=
71167 17548 80806 11046 21051 38822 49907 58071 60001 771// 333
10006 21128 70000=
71485 17/// /1212 10060 20051 39830 49847 58005 60061 7//4/ 333
10070 20045 70092=
71487 15/// /2207 11119 21130 39195 40075 58014 60001 333 11018
21130 70000=
71489 17/// /1703 11157 21173 39228 40033 58029 69921 7//4/ 333
11060 21169 4/019 70002=
71496 15/// /1905 11128 21139 39432 40053 58003 60001 333 11063
21164 4/021 70000=
0000369700
100
SMCN04 KWBC 111200 RRE
AAXX 11124
71513 15966 03104 11097 21125 30169 40185 50008 60001 333 11054
21097 70000=
71514 15/// /2605 11147 21170 39356 40069 58005 60001 333 11075
21147 4/005 70000=
71704 17/08 /1909 10041 20040 39765 49983 56025 60041 7614/ 333
10036 20024 70268=
71730 11/04 /1710 10006 20006 39538 49959 57040 60021 76164 333
11016 21030 43028 70029 90983=
71738 11424 80000 11026 21029 39585 49934 56030 60052 7717/ 885//
333 11020 21027 48044 70045 90999 555 10014 20007 31826 40150=
71769 17/// /1704 10084 20067 39876 49891 56008 60181 7//4/ 333
10078 20061 70326=
71772 17/// /1914 10094 20065 39890 49896 55013 60181 7//4/ 333
10077 20063 70300=
71776 17/// /0000 10003 21001 39367 40002 58049 60031 7//4/ 333
10034 20002 4/013 70061=
71779 15/// /1405 10007 21007 39186 49831 56055 60001 333 10004
21037 4/060 70020=
71781 45/// /1508 10092 20068 39861 49885 53009 6///1 333 10081
20062 7////=
71785 17/// /2107 10098 20081 39919 49935 55015 60231 7//4/ 333
10094 20058 70366=
71787 15/// /2009 11047 21047 39729 40228 58017 60001 333 11025
21059 4/033 70000=
71799 11559 82114 10083 20061 39910 49933 58001 60211 76366 885//
333 10099 20068 70392 90983=
71801 13574 42612 11033 21066 30032 40210 51019 60001 81571 333
11048 21065 44088 70000=
71926 11558 71311 11282 21314 39999 40024 58024 69931 77177 87500
333 11270 21335 48011 70003 90933=
71956 17/// /2013 10021 20018 39715 49943 56031 60101 7//4/ 333
10020 20003 4/050 70198=
71966 15/// /0000 11352 21391 39534 40017 58004 60001 333 11180
21356 4/047 70000=
71970 15/// /1805 11102 21111 39426 40016 58023 60001 333 11037
21120 4/020 70000=
71971 17/// /1602 11235 21254 39888 49934 51011 69921 7//4/ 333
11102 21244 4/008 70048=
71972 45/// /2728 39569 51011 6///1 333 7////=
71973 15/// /2311 11057 21082 30011 40203 55000 60001 333 11049
21072 70000=
71984 15/// /2613 11305 21335 39978 49987 58009 60001 333 11226
21321 70005=
71987 15/// /2207 11071 21088 30211 40221 58009 60001 333 11058
21083 70000=
71059 45/// ///// 11321 39859 49953 58007 6///1 333 11236 21328
7////=
71084 45/// /2213 11255 39889 49938 56018 6///1 333 11284 21318
7////=
71158 15/// /2906 11094 21103 39721 49998 53005 60001 333 11060
21128 4/010 70014=
71171 17/// /2111 10067 20058 39892 49987 57039 60041 7//4/ 333
10039 20012 4/018 70045=
71172 17/// ///// 10034 20027 39751 49965 57035 60111 7//4/ 333
10019 21004 4/045 70115=
71177 45/// /3110 11236 39016 40052 51042 6///1 333 11177 21244
7////=
71178 15/// /2623 11036 21076 30160 40193 51012 60001 333 11047
21065 4/002 70000=
71183 15/// /0404 11025 21032 30039 40079 58067 60001 333 11040
21070 4/018 70000=
71187 17548 81105 10030 20029 39870 49917 56046 60201 76244 333
10091 20030 70373=
71188 13974 62703 11143 21157 30165 40209 57003 60001 80004 333
11055 21158 44036 70000=
71192 15666 81506 10010 21008 39187 49832 56056 60001 333 10004
21034 70023=
71196 17/// /1302 11007 21010 39817 40016 56060 69921 7//4/ 333
11026 21049 4/052 70007=
71199 15/// /3201 11207 21227 39055 49893 56020 60001 333 11062
21233 4/081 70000=
71200 17/// /2527 10076 20058 60111 7//4/ 333 10081 20065 70222=
71401 17/// /1904 10021 20015 39326 40001 58051 60031 7//4/ 333
10033 70075=
71406 45/// /2814 11060 21088 30149 40159 53004 6///1 333 11054
21070 7////=
71407 15/// /2312 11288 21321 39989 40011 58003 60001 333 11284
21333 4/001 70000=
71410 17266 83103 11101 21110 39717 49999 51001 60001 771// 333
11093 21101 70000=
71452 15/// /3304 11140 21152 39347 40071 58004 60001 333 11054
21140 4/015 70002=
0000374900
101
SMCN04 KWBC 111200 RRF
AAXX 11124
71455 15/// /2411 11116 21127 39245 40052 58018 60001 333 11047
21122 4/008 70000=
71459 15/// /1409 11089 21105 39215 40033 58043 60001 333 11046
21122 4/005 70000=
71463 45/// /1917 10051 20034 39787 40008 56036 6///1 333 10041
20015 7////=
71471 17532 81409 11051 21058 39108 49888 58045 60001 771// 333
10001 21060 70000=
71475 17/// /2901 10019 20015 39809 49901 50000 60231 7//4/ 333
10063 20010 70532=
71494 15/// /0404 11029 21038 39600 40127 58050 60001 333 11043
21062 4/044 70000=
71511 45/// /3007 11107 21114 39403 40053 58003 6///1 333 11052
21132 4/002 7////=
71516 15/// /2803 11106 21117 39157 40070 58012 60001 333 11012
21127 4/020 70000=
71701 12974 80000 11118 21132 30158 40222 57026 60001 84053 333
11020 21118 40027 70000=
71744 15/// /2703 11113 21138 30180 40223 58008 60001 333 11044
21126 4/029 70000=
71748 15/// /3107 11077 21083 39727 40017 53010 60001 333 11057
21119 4/020 70000=
71813 15/// /2804 11096 21123 30164 40179 50008 60001 333 11054
21096 4/001 70002=
71893 11774 82005 10057 20057 39848 49879 55004 60201 72162 8357/
333 10079 20054 70406 90917=
71897 12374 71820 10040 20027 3//// 4//// 54000 60051 86802 333
10066 20038 70046 90999=
71899 11462 80621 10023 20023 3//// 4//// 55008 60081 76162 887XX
333 10056 20012 70108 90973=
71912 11766 80305 11214 21250 39828 40018 58010 60011 77177 885//
333 11149 21226 47023 70036 90983 93101=
71924 11466 61611 11337 21373 39842 49935 52015 69901 77177 86500
333 11275 21347 48004 70004 90983=
71960 45/// /2717 11283 39867 40006 58013 6///1 333 11229 21344
7////=
71975 45/// /2728 11220 39234 49975 53009 6///1 333 11187 21220
7////=
71985 45/// /2717 11258 21285 30005 40011 58017 6///1 333 11213
21295 7////=
71046 45/// /2515 11238 30026 40044 58023 6///1 333 11214 21267
7////=
71072 17556 82705 11040 21046 39709 49954 57012 60001 710// 333
11028 21048 70000=
71085 15966 02619 10017 21026 38607 49962 58050 60001 333 10042
20006 70000=
71152 15/// /2818 11033 21067 30212 40225 53004 60001 333 11025
21040 4/039 70000=
71159 15/// /2805 11056 21082 30138 40212 53003 60001 333 11030
21058 70000=
71163 45/// /0302 11248 21272 39681 40038 58008 6///1 333 11233
21284 7////=
71179 45/// /2816 11175 39230 40080 50002 6///1 333 11140 21178
7////=
71184 45/// /0506 11035 21038 6///1 333 11076 21088 7////=
71189 45/// /0904 11081 6///1 333 11095 21128 7////=
71193 17/// /1205 11022 21025 39580 49938 56052 60101 7//4/ 333
11013 21024 4/044 70101=
71198 45/// /0412 11034 21043 6///1 333 11078 21096 7////=
71207 17/// /1401 10008 20006 39829 49892 56046 60431 7//4/ 333
10047 20004 70565=
71451 15/// /2501 11208 21231 39585 40024 58003 60001 333 11092
21208 4/041 70024=
71454 15/// /2901 11093 21114 39330 40027 58001 60001 333 11021
21093 4/040 70000=
71458 45/// /1606 11102 21114 39214 49989 58041 6///1 333 11015
21160 7////=
71465 45/// /1809 10030 20027 39779 49994 56024 6///1 333 10027
20012 7////=
71507 15/// /0106 11159 21174 60001 333 11128 21220 70000=
71700 15166 33302 11146 21160 30198 40225 58024 60001 333 11018
21146 70000=
71702 15/// /2209 11061 21082 30214 40230 58008 60001 333 11028
21088 4/052 70000=
71713 15/// /1709 11022 21056 30112 40151 58037 60001 333 11017
21068 4/024 70000=
71726 15/// /1406 11026 21033 39513 40056 57065 60001 333 11049
21068 4/050 70000=
71732 17/// /1609 10009 20003 60091 7//4/ 333 11008 21018 4/048
70090=
71741 15/// /1013 10021 20001 39491 49905 56048 60001 333 10018
20001 4/007 70003=
71752 17/// /1808 10065 20056 39788 40002 57037 60021 7//4/ 333
10051 20016 4/009 70031=
0000368000
102
SMCN04 KWBC 111200 RRG
AAXX 11124
71754 15/// /1702 11168 21191 39370 40049 58022 60001 333 11072
21186 4/008 70018=
71756 17/// /3402 11000 20000 38795 49859 56046 60241 7//4/ 333
10009 21010 4/062 70313=
71758 15/// /2312 10004 21020 30165 40244 51001 60001 333 11011
21074 4/028 70000=
71765 17/// /1207 10028 20022 39622 49889 56040 60121 7//4/ 333
10077 20010 70117=
71766 17/// /1603 10076 20052 39822 49891 56001 60201 7//4/ 333
10075 20046 70344=
71768 15/// /1616 10047 20014 39405 49941 58036 60001 333 10034
20006 70000=
71773 15/// /3302 11123 21132 39045 49901 56012 60001 333 11087
21148 4/045 70000=
71774 17/// ///// 10050 20039 39486 49915 55001 60301 7//4/ 333
10065 20041 70520=
71775 17/// /2009 10099 20083 39909 49915 56030 60411 7//4/ 333
10076 20037 70569=
71780 17/// /2623 10079 20061 39914 49941 53013 60171 7//4/ 333
10086 20063 70430=
71782 15/// /1709 10006 21007 38699 40005 58035 60001 333 10031
20002 4/021 70000=
71809 13574 72310 11044 21082 30170 40198 58001 60001 87500 333
11043 21062 48084 70012=
71814 15/// /2706 11066 21105 30171 40181 53006 60001 333 11059
21076 4/010 70000=
71896 17566 83506 11025 21028 39016 49828 56053 60051 7714/ 333
11001 21040 70053=
71922 11574 32703 11149 21162 39550 40023 58004 69901 70177 83500
333 11051 21149 48051 70004 90932 93100=
71928 15/// /1308 11057 21080 38774 49927 56062 60001 333 11028
21158 4/058 70000=
71097 459// 03008 11204 39537 40024 51010 6///1 333 11172 21220
7////=
71111 17366 61902 10015 20012 39786 49794 53010 60051 76144 333
10059 20013 70233=
71130 15566 82610 11078 21105 39571 40036 50010 60001 333 11061
21146 70000=
71144 45/// /3204 11087 21095 6///1 333 11062 21099 7////=
71154 15/// /2326 10040 21034 60001 333 10036 20012 70000=
71156 17/// /0705 11046 21048 38818 49899 58071 60031 7//4/ 333
10009 21121 70028=
71168 15/// /3111 11063 21080 39462 40054 53018 60001 333 11003
21072 4/002 70000=
71255 17/// ///// 11144 21165 69921 7//4/ 333 11114 21169 4/041
70008=
71301 17/// ///// 10003 20003 39559 49952 56054 60051 7//4/ 333
11027 21035 4/051 70045=
71307 17/// /2110 10060 20054 39752 49999 56024 60031 7//4/ 333
10039 20024 4/005 70124=
71312 15/// /2909 11079 21109 39567 40032 50009 60001 333 11064
21150 4/025 70012=
71332 15/// /2514 11327 21363 39947 49977 50001 60001 333 11223
21334 4/013 70000=
71337 45/// /2709 11052 21084 39916 40158 51009 6///1 333 11055
21077 7////=
71349 15/// ///// 11144 21160 60001 333 11039 21171 70000=
71393 15/// ///// 11085 21094 38683 49952 58067 60001 333 10019
21085 4/013 70000=
71415 15/// /1903 11001 21011 30236 40239 58005 60001 333 11002
21022 4/022 70000=
71427 15/// /2212 11034 21048 30166 40174 58019 60001 333 11030
21039 70000=
71428 15/// /1909 11064 21094 30174 40180 58020 60001 333 11053
21082 70000=
71446 15/// /1805 11080 21106 39064 40049 58027 60001 333 11021
21097 4/003 70000=
71449 17/// /2705 11088 21098 39600 40004 51013 69921 7//4/ 333
11016 21095 70013=
71453 15/// /2010 11014 21070 39121 40032 58044 60001 333 10016
21107 4/009 70000=
71460 45/// /2303 10017 20012 39717 49955 58038 6///1 333 10006
20000 7////=
71473 17/// /2512 10080 20068 39899 49928 53004 60161 7//4/ 333
10090 20072 70232=
71481 17/// /1305 11052 21065 69951 7//4/ 333 10003 21096 70005=
71486 17/// /1904 11038 21041 38715 49897 58053 60041 7//4/ 333
10004 21054 70039=
71493 17/// /1201 10003 20000 30200 40239 58013 69941 7//4/ 333
10011 21001 4/022 70004=
71497 45/// /0414 11204 21241 39739 40012 56018 6///1 333 11163
21205 7////=
0000373100
103
SMCN04 KWBC 111200 RRH
AAXX 11124
71505 45/// /0000 11188 21207 39181 49917 58010 6///1 333 11147
21252 4/025 7////=
71529 45/// /2401 11314 21351 39793 40030 50007 6///1 333 11202
21320 4/033 7////=
71612 15/// /3303 11032 21045 39994 40086 58064 60001 333 11031
21055 70000=
71632 15/// /3201 11255 21283 39572 40029 51003 60001 333 11112
21299 4/034 70040=
71723 15/// /0507 11040 21053 30089 40099 58068 60001 333 11075
21091 70000=
71727 12774 80912 11065 21090 39930 40132 57047 60001 8657/ 333
11064 21117 47054 79999=
71746 17/// /2008 10041 20034 39762 49980 56025 60041 7//4/ 333
10038 20024 4/004 70110=
71783 17/// /2412 10078 20057 39864 49936 53006 60131 7//4/ 333
10085 20068 70248=
71807 15/// /2619 11009 21046 30203 40222 53001 60001 333 11019
21030 4/007 70000=
71815 12574 62810 11045 21075 30188 40219 53006 60001 86500 333
11029 21047 44152 79999=
71825 11774 82008 11108 21135 39448 40137 57007 69901 77177 885//
333 11105 21125 48089 70018 90983=
71840 15/// /2817 11051 21074 60001 333 11011 21077 4/019 70005=
71967 17/// ///// 10012 20005 30001 40108 57065 60011 7//4/ 333
11027 21048 4/035 70014=
71999 17/// ///// 10003 20002 39591 49878 57044 60081 7//4/ 333
10049 20003 70086=
71139 15/// /1807 11063 21076 38572 40030 58033 60001 333 11001
21095 4/014 70000=
71147 15/// /3005 11057 21074 60001 333 11016 21142 70007=
71252 17/// /3301 11070 21077 38376 49938 58053 60031 7//4/ 333
10002 21112 4/041 70029=
71263 11359 82011 10047 20043 39710 49996 56039 60061 76188 888//
333 10025 20010 43007 70070 90973=
71268 17/// /1801 11035 21039 39203 49811 56032 60051 7//4/ 333
11025 21059 4/028 70055=
71271 15/// ///// 11063 21111 60001 333 11017 21079 70000=
71279 15/// /0504 11092 21107 30108 40176 58020 60001 333 11090
21134 4/055 70000=
71290 17/16 /3602 11048 21053 39029 49846 56065 60001 771// 333
11028 21054 70000=
71299 17/// /1003 11021 21023 39665 49933 56050 60061 7//4/ 333
11018 21022 4/058 70064=
71300 17/// /1104 11007 21014 39920 40043 56061 69921 7//4/ 333
10001 21025 4/026 70017=
71305 15566 60801 11258 21283 39733 40035 58010 60001 333 11158
21282 70000=
71306 15966 00706 11282 21311 30061 40095 58008 60001 333 11159
21290 70000=
71311 15/// /1908 10005 21009 30206 40231 58013 60001 333 10001
21033 4/049 70000=
71314 17/// /1807 10028 39649 49997 56034 60061 7//4/ 333 10012
21002 4/053 70067=
71316 15/// /2103 11124 21134 39296 49985 58029 60001 333 11035
21147 70000=
71319 45/// ///// 11050 21054 39264 40139 58034 6///1 333 11068
21095 7////=
71323 15/// /1301 11088 21105 39852 40140 58052 60001 333 11082
21116 70000=
71338 15466 83001 11195 21218 39985 49993 51012 60001 333 11171
21253 70000=
71339 15964 02304 11109 21172 30121 40136 51011 60001 333 11099
21134 70005=
71350 15/// /2204 11056 21061 30165 40232 58009 60001 333 11034
21076 4/046 70000=
71352 17/// /1909 10036 20032 39545 49994 56036 60091 7//4/ 333
10023 20014 70131=
71356 17/// /1310 11286 21317 39955 40025 56022 69951 7//4/ 333
11284 21344 4/997 70005=
71363 15/// /1704 11277 21306 39907 49963 58020 60001 333 11315
21341 4/023 70000=
71364 15/// /2604 11288 21319 39912 40051 58010 60001 333 11224
21293 4/027 70000=
71371 17232 80406 11018 21024 30054 40089 58065 60021 7654/ 333
11028 21072 70015=
71419 45/// /2410 10014 6///1 333 10004 21013 7////=
71426 15/// /1605 11027 21039 60001 333 11025 21036 70000=
71526 15/// /1415 11053 21069 60001 333 11027 21099 70000=
71539 15/// /2909 11089 21116 39360 40065 58016 60001 333 11050
21097 4/022 70000=
71545 45/// ///// 11097 21115 6///1 333 11010 21115 7////=
0000372300
104
SMCN04 KWBC 111200 RRI
AAXX 11124
71618 15966 83005 11252 21278 30006 40046 56016 60001 333 11193
21284 70000=
71819 15966 82513 11080 21114 30117 40159 53008 60001 333 11089
21099 70000=
71820 17/// /1606 10029 20018 39925 40039 56051 69961 7//4/ 333
10016 20001 4/008 70010=
71821 45/// /1209 11032 21034 39648 49994 58069 6///1 333 11034
21043 4/031 7////=
71849 15/// /3305 11076 21084 39724 40025 53009 60001 333 11046
21129 4/019 7////=
71850 11124 83108 11064 21074 39488 49989 53014 69941 77154 887//
333 11048 21064 48047 70022 90983 93100=
71861 15/// /2908 11087 21096 39315 40047 51005 60001 333 11069
21112 70000=
71865 15/// /2609 11102 21116 39358 40046 50004 60001 333 11057
21116 4/008 70010=
71878 11974 61610 11051 21074 38884 49950 57065 69901 70171 86070
333 11013 21120 47060 79999 90920=
71063 15/// /0707 11021 21022 39951 40050 56065 60001 333 11046
21056 4/034 70004=
71113 17/// /2702 10036 20033 39888 49911 56046 60221 7//4/ 333
10097 20035 70333=
71118 15/// /1605 11112 21127 39167 49996 58043 60001 333 11034
21130 4/014 70000=
71133 15/// /2308 11107 21118 39305 40016 58017 60001 333 11015
21119 4/010 70000=
71170 15/// /2814 11077 21087 60001 333 11070 21113 70000=
71253 45/// /0503 11213 21230 6///1 333 11144 21238 4/039 7////=
71261 17/// /1914 10058 20052 39716 49972 56027 60051 7//4/ 333
10049 20020 4/009 70092=
71385 45/// /1708 11032 21044 6///1 333 11033 21047 7////=
71390 45/// /0201 11069 6///1 333 11053 21090 7////=
71425 15/// /1612 11088 21113 30153 40190 56011 60001 333 11051
21098 70000=
71437 45/// /3404 10028 20023 39903 49997 56040 6///1 333 10025
20001 7////=
71448 17/// /3407 11107 21119 39678 40010 53011 69921 7//4/ 333
11032 21113 4/027 70019=
71450 15/// /2608 11127 21145 39326 40055 58009 60001 333 11051
21127 4/043 70000=
71456 15/// /3106 11070 21087 39436 40037 51010 60001 333 11057
21094 4/023 70006=
71477 17/// /0807 10030 20022 39779 49787 53011 60061 7//4/ 333
10054 20021 70120=
71491 45/// /2505 11320 21355 6///1 333 11218 21324 4/033 7////=
71499 17466 82708 11172 21192 39374 40017 55007 60001 771// 333
11118 21177 70000=
71519 15/// /1413 11033 21055 60001 333 10041 21118 70000=
71525 15/// /1715 10002 21036 60001 333 10027 21117 70000=
71527 17236 82807 11047 21048 39462 49967 56002 60001 710// 333
11055 21065 70000=
71605 17/// /0602 10069 20066 39755 49901 56035 60571 7//4/ 333
10066 20024 4/997 70869=
71617 15/// /1005 11051 21075 39960 40132 58047 60001 333 11064
21108 70000=
71634 15/// /0000 11153 21167 30062 40222 58007 60001 333 11022
21167 4/039 70002=
71710 15/// /2408 11062 21082 30216 40226 56006 60001 333 11033
21063 70000=
71716 17/59 /0406 11042 21067 39927 40138 58054 69951 7004/ 333
11068 21096 70010=
71721 17/// /1409 10004 20004 39783 40029 56071 60021 7//4/ 333
11033 21046 70020=
71724 45/// /0611 11031 21048 30106 40114 58065 6///1 333 11079
21099 7////=
71731 11116 61410 10013 20012 39530 49977 56040 60131 76166 867//
333 11004 21032 44030 70168 90983=
71742 15/// /2311 11064 21090 39997 40188 50004 60001 333 11055
21087 4/997 70000=
71747 15/// /2501 11044 21046 39490 49964 56004 60001 333 11044
21054 4/043 70000=
71751 45/// /2809 11034 21043 39684 49941 56014 6///1 333 11012
21035 7////=
71770 17/// /1509 10028 20016 39261 40025 58043 60041 7//4/ 333
10068 20012 4/006 70043=
71786 15/// /0902 11066 21070 60001 333 11045 21072 4/104 70000=
71803 13680 42312 11063 21095 39995 40187 56004 60001 81530 333
11054 21087 44077 70000=
71812 17456 81405 10029 20019 39623 49890 56039 60131 76244 333
10078 20012 70133=
0000372000
105
SMCN04 KWBC 111200 RRK
AAXX 11124
71925 11469 22709 11333 21378 39894 49937 55000 69901 77671 82500
333 11272 21335 42019 79999 90966=
71127 15/// /0905 11076 21088 39037 49941 58057 60001 333 10002
21084 4/045 70000=
71251 15/// /1813 11013 21043 39070 49992 58056 60001 333 10033
21111 70000=
71254 15/// /1308 11069 21079 60001 333 11008 21097 4/029 70000=
71270 17/// /1307 10033 20023 39763 49980 56035 60031 7//4/ 333
10021 20003 70033=
71282 45/// /1614 10041 20033 39720 49987 56036 6///1 333 10021
20003 7////=
71284 17/// ///// 11060 21076 69971 7//4/ 333 11006 21117 70013=
71295 17/// /3108 11056 21071 39528 49973 53009 69921 7//4/ 333
11055 21058 4/049 70038=
71310 15/// /2006 11057 21073 30203 40241 58010 60001 333 11023
21059 4/044 70002=
71358 15/// /2706 11279 21311 39929 49965 53013 60001 333 11226
21330 4/055 70000=
71369 15866 81107 11110 21117 39248 49956 58036 60001 333 11076
21156 70000=
71377 15/// /0404 11036 21040 30027 40076 56069 60001 333 11057
21071 4/011 70000=
71379 15/// /1209 11034 21048 39916 40088 58051 60001 333 11051
21073 4/048 70000=
71382 15/// ///// 11055 21057 39175 40126 58041 60001 333 11084
21098 70018=
71386 15/// /1705 11113 21133 39977 40190 58013 60001 333 11065
21147 70000=
71398 17540 81106 11017 21028 39959 49970 58051 60001 771// 333
11004 21019 70000=
71429 15/// /2709 11098 21122 30185 40205 56005 60001 333 11053
21100 70000=
71616 15/// /0804 11021 21035 30002 40124 57063 60001 333 11057
21081 70010=
71827 11262 81308 11043 21051 39778 40022 57029 69921 77175 887//
333 11053 21062 47016 70032 90983=
71831 11/12 90905 11020 21020 39664 49941 57050 60061 77172 333
11019 21025 48080 70064 90952 93106=
71845 11248 82705 11079 21091 39474 49949 56013 60011 771// 885//
333 44037 9099/=
71871 15966 01910 11124 21138 39200 40015 58034 60001 333 11036
21127 555 32718 4005/=
71876 17912 01702 11133 21142 39371 40048 58022 60001 771// 333
11074 21171 70000=
71879 15964 71610 11028 21100 39154 49950 58057 60001 333 10002
21106 70000=
71887 13683 80914 10018 21006 39494 49909 57047 60001 885// 333
10015 21001 47011 79999=
71115 17/// /0301 10001 20001 39369 49942 57041 69921 7//4/ 333
10016 20001 70019=
71136 15/// /3113 11061 21070 39530 40043 56001 60001 333 11069
21098 4/013 70000=
71272 15266 83302 11324 21359 39666 40041 55003 60001 333 11181
21330 70000=
71288 15/// /2809 11335 21369 39905 49931 54000 60001 333 11271
21335 4/004 70005=
71292 15366 82911 11072 21086 39431 40043 51011 60001 333 11054
21111 70000=
71297 17/// /3003 10035 20032 39868 49992 56042 60071 7//4/ 333
10003 21014 70092=
71309 15/// /1204 11019 21027 39958 49969 58051 60001 333 11004
21019 4/039 70011=
71321 17/// /2802 11240 21263 30025 40070 51018 69931 7//4/ 333
11176 21289 4/010 70009=
71357 15/// /0000 11197 21215 39985 49992 51011 60001 333 11173
21265 4/044 70003=
71370 45/// /0604 11051 21065 39970 40109 58066 6///1 333 11088
21106 7////=
71373 15/// /1407 10037 20029 60001 333 10007 21016 70011=
71376 15/// /3502 11015 21019 39774 40070 56074 60001 333 11025
21057 70000=
71389 45/// /0910 11033 21070 6///1 333 11068 21095 7////=
71395 11/08 /2007 10014 20011 30066 40248 58011 60001 74722 333
10004 21012 42003 79999=
71534 17256 81609 10026 20026 39722 49991 56035 60071 7004/ 333
10016 20001 70080=
71614 17/// /1413 10020 20007 30001 40067 56063 69921 7//4/ 333
11005 21029 4/024 70002=
71638 17/// /1206 10083 20076 39800 49902 56017 60181 7//4/ 333
10071 20046 70310=
71818 12774 72206 11123 21138 30101 40120 53012 60001 87500 333
11107 21131 48024 79999=
0000373100
106
SMCN04 KWBC 111200 RRJ
AAXX 11124
71833 45/// /1905 10039 20039 6///1 333 10022 20008 7////=
71867 11374 83212 11075 21093 39667 40004 53007 69901 77177 887//
333 11080 21088 47031 70006 90973=
71882 17/// /1509 10007 20000 39427 49956 56059 60071 7//4/ 333
10015 20001 4/064 70110=
71902 12974 03014 11181 21239 30107 40116 53009 60002 333 11115
21185 48064 70000 555 10000 20000=
71917 11874 81211 11126 21193 39904 49918 51014 60001 73622 88070
333 11160 21268 55/// 70000=
71112 17/// ///// 60331 7//4/ 333 70512=
71116 15/// /0810 11075 21089 38937 40034 58043 60001 333 10008
21113 4/003 70000=
71132 17966 12201 11252 21277 39697 40025 58005 69931 7004/ 333
11215 21273 70003=
71149 15/// /2609 11058 21090 60001 333 11084 21138 4/018 70000=
71176 45/// /2532 11226 39343 40048 53025 6///1 333 11194 21226
7////=
71180 15/// /2511 11025 21064 30192 40232 58003 60001 333 11017
21030 4/997 70000=
71191 15/// ///// 11043 60001 333 4/033 70000=
71250 15/// /2711 11032 21064 30062 40202 53009 60001 333 11044
21071 4/029 70000=
71256 45/// /1005 11087 21105 38995 49925 58060 6///1 333 10008
21090 7////=
71260 13212 80903 10006 20005 39697 49930 58029 60021 333 11003
21019 43034 70077=
71264 15/// /2205 10028 20023 30223 40255 58012 60001 333 10019
20005 4/002 70000=
71265 17528 80807 10030 20029 39911 40004 56039 60071 7614/ 333
10028 20017 70096=
71267 15966 11609 11014 21042 38891 49972 58054 60001 333 10043
21068 70000=
71273 15/// /1703 11156 21171 39346 40013 58027 60001 333 11017
21156 7////=
71294 17/// ///// 10017 20017 39609 40008 56049 60091 7//4/ 333
11002 21018 4/048 70090=
71355 15/// /2424 11094 21150 39888 49973 51030 60001 333 11053
21117 4/010 70002=
71361 15/// /0000 11327 21365 39815 40034 58011 60001 333 11198
21329 4/016 70014=
71368 17/08 /1806 10040 20037 39611 49995 56036 60071 76144 333
10018 20009 70128=
71375 45/// /3509 11068 21105 6///1 333 11042 21068 7////=
71378 15/// /1802 11050 21064 39890 40102 58071 60001 333 11071
21087 4/045 70000=
71388 45/// /0702 11075 21097 39937 40130 58046 6///1 333 11079
21128 7////=
71457 15/// /1511 11058 21075 39090 49980 57063 60001 333 10006
21155 4/030 70000=
71524 15/// /0304 11044 21053 30073 40100 58074 60001 333 11086
21098 70000=
71532 17128 81509 10023 20020 39650 49991 56039 63831 710// 333
10012 21006 73828=
71542 15/// /0712 11198 21219 60001 333 11146 21248 70004=
71543 15/// /0706 11065 21081 60001 333 11025 21146 70000=
71611 15/// /0503 11013 21018 60001 333 11043 21060 4/021 70000=
71642 11274 80000 11022 21025 39393 49932 57034 60031 7027/ 885//
333 11030 21037 48044 70060 90999=
71703 12874 61404 11092 21111 39893 40200 57027 60003 86070 333
11076 21105 43036 55/// 70000 555 10000 20000=
71712 15/// /0705 10000 21002 30000 40061 58070 60001 333 11027
21038 70000=
71720 17/// ///// 10077 20067 39735 49884 56007 60131 7//4/ 333
10060 20038 4/001 70270=
71816 12874 32513 11109 21172 30077 40140 51006 60001 82071 333
11089 21114 44015 70000=
71835 17/// /2805 11077 21088 39464 49943 56013 69921 7//4/ 333
11075 21090 4/026 70015=
71842 11248 82903 11051 21058 39490 49960 55004 69921 77177 886//
333 11063 21067 47042 70004 90983=
71854 11366 83107 11074 21089 39505 49979 53010 60031 722// 885//
333 48050 9099/=
71877 13974 21004 11087 21099 38688 49959 57067 60001 80001 333
10022 21087 42004 70000=
71894 45/// /1915 10070 39890 49898 58005 6///1 333 10085 20049
4/997 7////=
71906 12974 00000 11267 21305 30074 40128 50007 60001 333 11138
21272 44022 70014=
71911 459// 01410 11322 39928 49987 58015 6///1 333 11324 21350
7////=
0000093700
107
SMTS01 DTTA 111200
AAXX 11124
60715 12560 41505 10188 20066 30184 40191 56002 60001 82142
  333 59004 50251 81823 83073 91008 91109=
60723 12970 40702 10151 20097 30018 40206 56003 60001 81082
  333 50081 81360 84070=
60725 12962 60000 10166 20098 30021 40190 56016 60001  81082
  333 50161 81360 86070=
60735 12962 22102 10196 20056 30120 40191 56017 60001 80002
  333 50171 82070=
60745 12960 21509 10173 20046 39833 40199 56019 60001 80002
  333 50381 82070=
60748 12962 21904 10199 20023 39777 40186 57017 60001 80002
  333 50551 82070=
60750 12960 21709 10189 20091 30177 40202 56019 60001 80002
  333 5///1 82070=
60760 12560 32806 10164 20041 30111 40215 56011 60001 82202
  333 50211 82830 91008 91109=
60765 NIL=
60767 12960 32509 10188 20049 30067 40210 56015 60001 80002
  333 5//// 83070=
60769 12960 12803 10189 20083 30199 40203 56014 60001 80002
  333 50161 81070=
0000034300
108
USSD70 OERK 111046
TTAA 61111 40437
99947 17057 34011 00151 ///// ///// 92812 13056 32513
85517 08223 24013 70099 01077 25037 50571 15988 24565
40736 26977 25582 30937 41182 24600 25059 46781 24124
20204 54374 25141 15386 58581 25121 10634 71774 25078
88180 58573 25137
77199 25142 42314
31313 48008 81046=
ZCZC
0000011000
109
UANT99 KDDL 111212
ARP VIR33C 4903N01907W 1212 F380 MS59 222/77 KT
GVWAG DDL XXF 111213 J13A
0000011000
110
UANT99 KDDL 111213
ARP DAL91 5401N01559W 1213 F360 MS64 237/79 KT
N1501P QXT AOE 111213 F16A
0000011100
111
UANT99 KDDL 111213
ARP LOT6505 6059N03003W 1211 F380 MS56 339/51 KT
SPLRE DDL XXN 111213 L45A
0000011100
112
UANT99 KDDL 111213
ARP BAW17PA 4852N01551W 1213 F370 MS64 240/83 KT
GVIIT QXT AOE 111213 F05A
0000010800
113
UANT99 KDDL 111213
ARP UAL908 64N010W 1214 F320 MS52 132/26 KT
N659UA QXS FAE1 111213 F92A
0000074100
114
SMDR01 KWBC 111200
AAXX 11121
78458 21466 50000 10208 20199 40190 52008 70362 82230 333 10293
20188 31/// 56000 58003 60017 82816 83357=
78460 21459 50802 10204 20204 40196 51013 72166 85500 333 10278
20186 31/// 56200 58010 69936 70039 85616=
78467 32466 10000 10194 20188 40186 5//// 81200 333 10282 20185
30/// 56000 58006 81815=
78479 21458 50705 10224 20218 40191 53013 71561 85730 333 10192
20224 31/// 56110 58004 60015 70015 85617=
78482 32466 11104 10240 20180 40177 5//// 81200 333 10310 20205
30/// 56000 59001 81818=
78485 32466 20103 10200 20187 40188 52013 82200 333 10322 20197
30/// 56000 58003 82818=
78486 31964 03602 10224 20203 10310 20220 30/// 40185 50183 520134
58009 70544=
0000254100
115
SMCO01 KWBC 111200
AAXX 11121
80001 12470 40906 10270 20226 30129 40130 69944 81236 333 20255
30/// 50540 55092 5622/ 58004 70004 81818 83070=
80002 01470 40603 10266 20234 69904 7025/ 82121 333 20266 30///
5///0 55082 56290 69902 70000 82817=
80022 31965 09901 10228 20216 30106 40108 70500 333 20228 30///
50420 55100 58011=
80259 01130 80000 10214 20203 39067 60144 75155 8362/ 333 20200
31/// 50180 55020 5664/ 58007 83608 88458=
80009 31960 10000 10222 20193 30108 40113 7050/ 80001 333 20222
30/// 50660 55085 56//0 58018 81070=
80035 32/70 01104 10237 20210 30149 40154 333 20229 30/// 50240
55097 58013=
80036 31968 00505 10226 20197 7050/ 333 20223 30/// 50990 55100=
80063 31405 20000 10224 20221 7441/ 82670 333 20210 30/// 5600/
82712 555 18020 3266/=
80094 31462 13401 10186 20173 38820 7050/ 81531 333 20177 30///
50470 55100 56999 58015 81612=
80099 32968 00000 10202 20183 39934 40079 80001 333 20192 30///
50640 55104 56//9 58004 81070=
80112 01450 80000 10140 20135 37909 69944 72052 8247/ 333 20137
31/// 55024 56009 58011 69927 82610 88357=
80144 31/05 90000 10238 20238 7474/ 89/// 333 20230 30/// 50370
55077 56999=
80210 31463 50702 10190 20168 38671 70522 82530 333 20178 30///
50250 55027 5617/ 58001 82616 83357=
80211 11570 50000 10180 20165 7052/ 84570 333 20176 30/// 50410
55038 5682/ 84620 83360 555 18010 20006 3185/=
80214 31460 63401 10204 20200 7052/ 81670 333 20203 30/// 50230
55025 5677/ 81615 86457=
80222 31460 50302 10096 20083 37521 70522 82835 333 20096 30///
55037 56799 58002 82817=
80315 01459 70000 10238 20224 39603 40104 69944 7152/ 82670 333
5622/ 58006 69941 82710 87361=
80342 01420 80000 10153 20151 38225 60534 7616/ 884// 333 20153
32/// 5RRR0 55008 564// 58012 60522 88610=
80398 11258 80501 10245 20238 30039 40135 60074 71522 8677/ 333
20239 30/// 50350 55032 5689/ 58018 82704 84610 86358=
80028 31960 00702 10237 20222 30087 40122 70500 333 20232 30///
5///0 55/// 58014=
80084 31350 73602 10244 20241 7122/ 84530 333 20230 30/// 55009
5649/ 84608 83359 555 18000 3300/=
80091 31468 30000 10236 202224 7050/ 81830 333 20232 30/// 50510
55088 569// 81615 555 18000 3271/=
80110 01556 70000 10185 20167 38500 60094 7502/ 83570 333 20176
31/// 55034 5600/ 58007 60092 83625 85358=
80139 32970 10307 10230 20198 30063 40099 80001 333 20219 30///
50860 55089 58010 81070=
80370 02467 70000 10098 20095 37174 60054 83770 333 20090 31///
50080 55001 5643/ 69942 83710 84457=
00000000