0000010100
296
SPUS41 KWBC 101633
SPECI
KINT 101629Z 35006KT 1 3/4SM -RA BR OVC003 02/01 A3036=

0000011300
297
SPUS41 KWBC 101633
SPECI
KPSM 101628Z 22005KT 2SM -SN BR FEW011 BKN023 OVC035 M04/M05 A3044=

0000010400
298
SPUS41 KWBC 101633
SPECI
KRIC 101629Z 03004KT 1 3/4SM BR BKN004 OVC035 03/02 A3040=

0000010100
299
SPUS42 KWBC 101633
SPECI
KHRL 101629Z 17023G30KT 10SM FEW013 BKN037 23/19 A2990=

0000011100
300
SPUS43 KWBC 101633
SPECI
KSUS 101629Z 13005KT 3SM -RA BR BKN010 BKN050 OVC075 04/02 A2989=

0000009700
301
SAGR31 LGAT 101620 CCA
METAR COR LGIR 101620Z 17004KT CAVOK 13/10 Q1020 NOSIG=

0000117100
302
FTMX52 MMMX 101633
TAF MMGL 101633Z 1018/1124 24012KT P6SM SCT030 TX25/1021Z TN03/1113Z 
         FM110300 00000KT P6SM SCT080 
         BECMG 1107/1108 BKN080 
         FM111700 13008KT P6SM SCT030 BKN090=
TAF MMMM 101633Z 1018/1124 22010KT P6SM SCT025 TX24/1021Z TN03/1113Z 
         FM110300 00000KT P6SM BKN030 
         FM111000 00000KT 4SM HZ BR SCT030 
         FM111600 12008KT P6SM SCT030 BKN200=
TAF MMPR 101633Z 1018/1124 20010KT P6SM SCT120 TX27/1020Z TN17/1113Z 
         FM110300 03005KT P6SM SKC 
         BECMG 1109/1110 BKN120 
         FM111700 20008KT P6SM BKN120=
TAF MMSP 101633Z 1018/1124 23015KT P6SM SCT025 TX24/1021Z TN03/1112Z 
         FM110300 30005KT P6SM SKC 
         BECMG 1109/1110 3SM BR 
         FM111500 10010KT 6SM HZ SCT020 BKN080 
         FM112000 11015KT P6SM SCT025 BKN100=
TAF MMZC 101633Z 1018/1124 24015KT P6SM SCT200 TX21/1021Z TN03/1112Z 
         FM110300 20010KT P6SM SKC 
         FM111700 15015KT P6SM SCT030 BKN080=
TAF MMZO 101633Z 1018/1118 23010KT P6SM SCT100 SCT250 
         FM110300 04006KT P6SM SCT020 BKN100 
         FM111500 23008KT P6SM SCT100=

0000008800
303
SPCN45 CWAO 101632
SPECI CYHY 101632Z 00000KT 2SM -SN OVC030 RMK SC8=

0000020700
304
SALJ31 LJLJ 101630
METAR LJLJ 101630Z 07003KT 9999 BKN040 08/06 Q1019 NOSIG=
METAR LJMB 101630Z VRB02KT CAVOK 04/03 Q1019=
METAR LJPZ 101630Z 32002KT 3000 BR SCT005 OVC007 10/09 Q1020=

0000009100
305
SALJ32 LJLJ 101630
METAR LJCE 101630Z AUTO 27002KT 8000 NCD 08/06 Q1020=

0000041200
306
SAPL31 EPWA 101630
METAR EPGD 101630Z 29016G26KT 9999 FEW009 SCT015CB
    SCT026 04/03 Q1002 =
METAR EPKK 101630Z 25017KT 9999 BKN053 06/00 Q1014 =
METAR EPLL 101630Z 27017KT 9999 BKN030 06/02 Q1010 =
METAR EPPO 101630Z 26018G28KT 9999 BKN023 06/02 Q1010
    R10/19//95 =
METAR EPRZ 101630Z 27019KT CAVOK 06/00 Q1012 =
METAR EPWA 101630Z 26021G32KT 9999 BKN026 06/02 Q1006 NOSIG=

0000048200
307
SAPL32 EPWA 101630
METAR EPBY 101630Z 26020KT 9999 SCT019 BKN024 OVC035
    06/03 Q1006 =
METAR EPKT 101630Z 24017KT 9999 SCT040 05/M00 Q1014 =
METAR EPLB 101630Z 26020G30KT 9999 BKN030 06/02 Q1006 =
METAR EPMO 101630Z 26021G31KT 9999 -SHRA SCT022CB BKN031
    06/04 Q1005 =
METAR EPSC 101630Z 26011KT 9999 SCT019 BKN023 06/03
    Q1009 =
METAR EPWR 101630Z 27015KT 9999 BKN046 08/M01 Q1014 =
METAR EPZG 101630Z 25012KT 9999 FEW040 07/01 Q1012 =

0000022100
308
FTMX32 MMMX 101600
TAF MMPR 101633Z 1018/1124 20010KT P6SM SCT120 TX27/1020Z TN17/1113Z 
         FM110300 03005KT P6SM SKC 
         BECMG 1109/1110 BKN120 
         FM111700 20008KT P6SM BKN120=

0000022500
309
SAFR21 LFPW 101630
METAR LFOA 101630Z AUTO 08004KT 9999 NSC 08/05 Q1017=
METAR LFPC 101630Z AUTO 17005KT 140V200 9999 OVC010 06/04 Q1018=
METAR LFPV 101630Z AUTO 17004KT 140V200 9999 OVC008 06/04 Q1018=

0000012200
310
SAIO31 KWBC 101600 RRE
METAR
FMMI 101630Z 31004KT 9999 VCTS FEW017CB BKN230 21/20 Q1021
     NOSIG=

0000042900
311
SAFR22 LFPW 101630
METAR LFBC 101630Z AUTO 11004KT 9999 NSC 12/08 Q1014=
METAR LFBG 101630Z AUTO 06005KT 9999 NSC 11/08 Q1015=
METAR LFBM 101630Z AUTO 08004KT 9999 NSC 11/08 Q1014=
METAR LFKS 101630Z AUTO 19003KT 9999 OVC028 13/10 Q1020=
METAR LFMO 101630Z AUTO 18003KT 9999 NSC 10/07 Q1019=
METAR LFMY 101630Z AUTO 18002KT 9999 OVC025 11/07 Q1019=
METAR LFBY 101630Z NIL=
METAR LFMC 101630Z NIL=

0000011300
312
SANT31 KWBC 101600 RRC
METAR
BIKF 101630Z 27014KT 5000 RASN ST006 BKN010 OVC022 02/01 Q0987=

0000013200
313
SAPA31 KWBC 101600 RRE
METAR
PGSN 101631Z 04009KT 8SM -RA SCT020 BKN025 26/23 A2990 RMK AO2
     RAB23 P0000=

0000033200
314
SAFR23 LFPW 101630
METAR LFOC 101630Z AUTO 07004KT 360V110 9999 OVC005 06/05 Q1017=
METAR LFOE 101630Z AUTO 17007KT 9999 OVC011 06/05 Q1017=
METAR LFOJ 101630Z AUTO 03004KT 9999 NSC 06/05 Q1017=
METAR LFRJ 101630Z AUTO 20005KT 9999 NSC 08/05 Q1014=
METAR LFRL 101630Z AUTO 17004KT 9999 // NSC 09/07 Q1014=

0000036700
315
SARO31 LROM 101630
METAR LRBS 101630Z 27005KT 240V300 3000 BR NSC 04/04 Q1013 NOSIG=
METAR LRCK 101630Z 26019KT CAVOK 06/05 Q1011 NOSIG=
METAR LROP 101630Z 23007KT 200V260 4000 BR NSC 03/03 Q1013 BECMG
5000=
METAR LRSB 101630Z 25016KT 9999 BKN080 08/M02 Q1016=
METAR COR LRTR 101630Z 16004KT 8000 NSC 04/03 Q1020 11190095 BECMG
5000 BR=

00000000