0000029200
769
SMMG01 FMMD 111200
AAXX 11124
67009 NIL=
67012 NIL=
67019 NIL=
67025 NIL=
67027 NIL=
67045 NIL=
67072 NIL=
67073 NIL=
67083 NIL=
67085 NIL=
67095 NIL=
67113 NIL=
67117 NIL=
67137 NIL=
67143 NIL=
67152 NIL=
67157 NIL=
67161 NIL=
67197 NIL=
0000036000
770
SMRE19 FMEE 111200
AAXX 11124
61996 06/// /2516 10161 20090 30181 40216 58005 69941
  333 4//// 69947 90710 91129
  555 60005=
61997 06/// /3318 10110 20108 39773 49945 56039 60211
  333 4//// 60067 90710 91133
  555 69965=
61998 12580 12321 10079 20015 30035 40072 53009 60001 81245
  333 58035 81830 90710 91129
  555 60005=
0000011000
771
UANT99 KDDL 111229
ARP AFR077 5603N03842W 1228 F380 MS56 255/29 KT
FGSPF QXT AOW 111229 F31A
0000011000
772
UANT99 KDDL 111229
ARP DAL15 5258N03028W 1229 F310 MS55 164/63 KT
N839MH QXT AOE 111229 F43A
0000010900
773
UANT99 KDDL 111229
ARP VIR3N 5259N03011W 1229 F360 MS56 186/43 KT
GVUFO DDL XXF 111230 J88A
0000011100
774
UANT99 KDDL 111229
ARP AWE735 5303N01924W 1229 F370 MS62 216/61 KT
N286AY DDL XXN 111230 J77A
0000033600
775
USRH01 LDZM 111200
TTAA 11121 14240
99006 05600 00000 00168 05204 34001 92810 07032 24509 85500
02427 25516 70063 04758 30509 50563 21956 28523 40723 32968
28029 30919 49756 27530 25036 56960 27036 20175 62962 26029
15354 57378 28025 10612 58780 28512
88203 63162 26527
77268 27538 40808
31313 48008 81116=
0000013000
776
SMZW21 FVHA 111200 RRB
AAXX 11124
67767 41970 81002 10251 20231 3//// 48/// 76062 8807/ 333 5////
      88460=
0000031500
777
SMAA01 KARS 111200
AAXX 1112/
89869 46/// ///// 11089 39917 4//// 5////=
89866 46/// ///// 11023 39871 4//// 5////=
89828 46/// ///// 11225 36543 4//// 5////=
89879 46/// ///// 10006 39892 4//// 5//// 91210=
89799 46/// ///// 11208 4//// 5////=
89314 46/// ///// 11125 38285 4//// 5////=
0000016700
778
SOVI10 KWAL 111231
B110070A 011123101"P9751095 B\P~W@@X0ekL1@m`???D@Cw>@m{3@gC?AQ4DB5C~6b^9Ia2?????@"??? ?TL\KBwB{B}BuByAi:AMPTEMP 26.57C  45+0NN 219E
0000012200
779
SNVD20 KWNB 111100 RRX
BBXX
41024 11111 99338 70785 46/// /2104 10145 91100 333 91204 555
11051 22059=
0000018100
780
SMIN90 VABP 111200
AAXX 11124
42679 32591 73201 10158 20137 40184 74445 87500
  333 10181 58045=
42771 32795 22301 10180 20164 40139 82020
  333 10220 58017=
0000011200
781
SMNL54 EHDB 111200 RRA
AAXX 11121
06285 46/// /3212
333 91016 91117 91214
555 51117 51214=
0000011200
782
SMNL54 EHDB 111200 RRB
AAXX 11121
06315 46/// /2708
333 91010 91113 91210
555 51111 51209=
0000011200
783
SMNL54 EHDB 111200 RRC
AAXX 11121
06313 46/// /3010
333 91013 91115 91212
555 51113 51211=
0000011200
784
SMNL54 EHDB 111200 RRD
AAXX 11121
06312 46/// /3110
333 91014 91116 91213
555 51116 51212=
0000011200
785
SMNL54 EHDB 111200 RRE
AAXX 11121
06308 46/// /3009
333 91012 91113 91210
555 51112 51210=
0000011200
786
SMNL54 EHDB 111200 RRF
AAXX 11121
06209 46/// /3312
333 91015 91119 91214
555 51118 51214=
0000011100
787
SAIN90 VILK 111230
METAR VILK 111230Z 05004KT 2000 R27/P2000 SCT020 BKN100 15/13
Q1017 NOSIG=
0000308900
788
SMIN50 VIDP 111200
AAXX 11124
00010 31996 03406 10157 20072 40191 70500
  333 10189 58039=
42027 32596 31401 10044 21022 38477 48563 83400
  333 10068 58054=
42044 32596 50000 10018 21020 38339 48583 83420
  333 10067 58059=
42045 32996 03202 10046 21077 38414 48546
  333 10058 58040=
42056 32996 00000 10166 20064 39733
  333 10202 58019=
42071 31996 00000 10158 20109 40196 70500
  333 10176 58028=
42079 32696 32302 10140 20056 39195 48528 83400
  333 10189 58033 82835=
42081 32596 10000 10100 20059 38949 48516 81500
  333 10132 58041 81630=
42083 31594 70000 10044 20022 4//// 71021 87500
  333 10089 58030 87630=
42099 31994 02702 10164 20046 40192 70540
  333 10192 58033=
42101 32996 00000 10156 20090 40189
  333 10191 58033=
42103 31995 00000 10166 20091 40195 70510
  333 10179 58038=
42105 31996 03402 10162 20084 40191 70500
  333 10196 58033=
42111 21595 80000 10134 20097 39401 40186 76062 8632/
  333 10187 58026 6995/ 84620 84825 81935 86455=
42114 31195 72703 10048 20035 38118 70522 84830
  333 10085 58026 82701 83605 83646=
42123 32996 20000 10168 20067 40195 80001
  333 10191 58025 82070=
42131 32996 23401 10154 20064 40195 80001
  333 10190 58036=
42147 21/94 90502 10002 21007 37763 74577
  333 10004 58013 6004/=
42148 21596 70000 10158 20083 39911 70522 82130
  333 10194 58035 6990/ 82830 87360=
42165 31995 63201 10184 20002 40184 70522 80001
  333 10205 58039 86070=
42170 32996 40000 10172 20009 40190 80001
  333 10204 58042 84070=
42181 31995 03208 10158 20088 40193 70500
  333 10185 58045=
42182 31994 22703 10166 20115 40186 70510 80001
  333 10183 58037 82070=
42189 31994 20000 10160 20124 40175 71020 80001
  333 10172 58028 82070=
42260 31995 53205 10158 20088 40184 70510 85001
  333 10196 58033=
42273 21595 70902 10152 20141 40170 70562 85530
  333 10156 58025 6003/ 85620 87360=
42328 32996 30508 10164 21013 40187 80001
  333 10188 58030 83075=
42339 31995 33602 10190 20013 40184 70500 80002
  333 10205 58048 83070=
42343 32996 30202 10170 21034 40180 80001
  333 10191 58044=
42348 31996 23404 10176 20022 40176 70511 80001
  333 10207 58029 82070=
42369 31594 60504 10156 20135 40172 71042 84530
  333 10183 58036 84620 85360=
42372 21393 89902 10152 20149 40153 74244 8672/
  333 10180 58014 6990/ 84708 86615 88458=
42377 21594 80000 10154 20151 40184 71022 8552/
  333 10160 58038 6990/ 85625 88460=
42379 21595 70501 10168 20132 40164 71096 85520
  333 10182 56190 58021 6003/ 85625 87458=
42435 32996 40502 10194 20082 40198 80001
  333 10199 58038 84070=
42452 31994 40000 10176 20046 40180 70520 80002
  333 10190 58043=
42463 31995 20502 10168 20113 40183 70500 80001
  333 10188 58045=
42475 21493 89901 10166 20166 4//// 75165 8672/
  333 10185 56290 58/// 6997/ 83710 86625 88458=
42479 21594 70905 10174 20167 40162 71092 84330
  333 10191 58020 6006/ 84620 81930 85360=
42542 31996 40504 10168 20038 39583 40175 70500 80001
  333 10182 58047 84070=
00000000