0000010100
356
UGIN90 VANP 111200
PPBB 61111 42361 
90012 31502 33008 33512 90378 34017 32518 33517=
0000012000
357
SPUS41 KWBC 101603
SPECI
KMSS 101600Z AUTO 00000KT 4SM -SN BR BKN035 BKN045 OVC090 M07/M09
A3033=

0000020000
358
SALJ31 LJLJ 101600
METAR LJLJ 101600Z 07002KT 9999 BKN040 08/06 Q1019 NOSIG=
METAR LJMB 101600Z VRB02KT CAVOK 05/03 Q1019=
METAR LJPZ 101600Z 32002KT 3000 BR OVC006 10/09 Q1020=

0000009100
359
SALJ32 LJLJ 101600
METAR LJCE 101600Z AUTO 29004KT 9999 NCD 08/07 Q1019=

0000022500
360
SAFR21 LFPW 101600
METAR LFOA 101600Z AUTO 08005KT 9999 NSC 10/06 Q1017=
METAR LFPC 101600Z AUTO 18004KT 150V220 9999 OVC011 06/04 Q1018=
METAR LFPV 101600Z AUTO 17004KT 140V200 9999 OVC008 06/04 Q1018=

0000047300
361
SAFR22 LFPW 101600
METAR LFBC 101600Z AUTO 11004KT 9999 NSC 13/09 Q1014=
METAR LFBG 101600Z AUTO 06008KT 9999 NSC 13/09 Q1015=
METAR LFBM 101600Z AUTO 09003KT 9999 NSC 12/08 Q1014=
METAR LFBY 101600Z AUTO 09004KT 050V110 9999 // ////// 13/08 Q1013=
METAR LFKS 101600Z AUTO 17001KT 9999 OVC027 14/11 Q1020=
METAR LFMO 101600Z AUTO 17002KT 9999 NSC 11/08 Q1019=
METAR LFMY 101600Z AUTO 21001KT 9999 BKN025 12/07 Q1019=
METAR LFMC 101600Z NIL=

0000035100
362
SAFR23 LFPW 101600
METAR LFOC 101600Z AUTO 10003KT 360V140 9999 OVC005 06/05 Q1018=
METAR LFOE 101600Z AUTO 18008KT 9999 OVC011 06/05 Q1017=
METAR LFOJ 101600Z AUTO 02003KT 9999 NSC 07/05 Q1017=
METAR LFRJ 101600Z AUTO 21006KT 9999 FEW025 SCT200 BKN220 09/05
Q1014=
METAR LFRL 101600Z AUTO 18004KT 9999 // NSC 09/07 Q1015=

0000026200
363
SAFR24 LFPW 101600
METAR LFSI 101600Z AUTO 03002KT 9999 NSC 08/05 Q1018=
METAR LFSO 101600Z AUTO 13003KT 9999 FEW030 06/04 Q1018=
METAR LFSX 101600Z AUTO 13002KT 9999 NSC 09/03 Q1018=
METAR LFYR 101600Z AUTO 11003KT 9999 NSC 10/04 Q1017=

0000033100
364
SARO31 LROM 101600
METAR LRBS 101600Z 26007KT 3000 BR NSC 04/03 Q1013 NOSIG=
METAR LRCK 101600Z 27014KT CAVOK 07/06 Q1011 NOSIG=
METAR LROP 101600Z 23007KT 3500 BR NSC 03/03 Q1013 BECMG 5000=
METAR LRSB 101600Z 26014KT 9999 BKN080 08/01 Q1016=
METAR LRTR 101600Z 22003KT CAVOK 05/04 Q1020 11190095 NOSIG=

0000045100
365
SARO32 LROM 101600
METAR LRAR 101600Z 23004KT 7000 NSC 04/04 Q1020=
METAR LRBM 101600Z VRB02KT 0500 R10/0500 -DZ FG VV002 03/03 Q1017
1019//95=
METAR LRCL 101600Z 08004KT 050V110 5000 BR SCT018 BKN033 02/01
Q1016=
METAR LROD 101600Z 20014KT 4500 BR NSC 03/03 Q1018=
METAR LRSM 101600Z 25004KT 4000 BR SCT008 BKN010 OVC015 04/04 Q1017
0129//95=
METAR LRTM 101600Z VRB02KT 3000 BR BKN014 BKN045 02/02 Q1016
0729//95=

0000048800
366
SAFR31 LFPW 101600
METAR LFLL 101600Z 14003KT 7000 NSC 09/06 Q1018 NOSIG=
METAR LFMN 101600Z 09002KT 9999 FEW025 BKN250 13/09 Q1019 NOSIG=
METAR LFPG 101600Z VRB05KT 9999 FEW009 BKN010 06/04 Q1018 NOSIG=
METAR LFPO 101600Z 18003KT 130V240 9999 BKN010 06/04 Q1018 NOSIG=
METAR LFQQ 101600Z 20008KT 9999 BKN010 06/04 Q1017 NOSIG=
METAR LFRB 101600Z 19008KT 9999 FEW020 BKN180 09/06 Q1014 NOSIG=
METAR LFRS 101600Z 09005KT 9999 FEW040 BKN100 10/09 Q1015 NOSIG=

0000030200
367
SARO33 LROM 101600
METAR LRBC 101600Z VRB04KT CAVOK 03/03 Q1011=
METAR LRCV 101600Z 25014KT CAVOK 09/03 Q1016=
METAR LRIA 101600Z VRB02KT 9999 FEW017 SCT025 04/04 Q1011=
METAR LRSV 101600Z 34010KT 270V350 9999 BKN041 05/02 Q1010=
METAR LRTC 101600Z 26017KT CAVOK 07/04 Q1010=

0000068700
368
SAFR32 LFPW 101600
METAR LFBD 101600Z AUTO 11007KT 9999 NSC 13/09 Q1014=
METAR LFBH 101600Z AUTO 08007KT 9999 NSC 12/08 Q1015=
METAR LFBI 101600Z AUTO 10004KT 060V130 9999 NSC 12/07 Q1016=
METAR LFBL 101600Z AUTO 07004KT 9999 NSC 11/07 Q1015=
METAR LFBO 101600Z AUTO 13011KT 9999 NSC 12/07 Q1015=
METAR LFBP 101600Z 30002KT CAVOK 12/08 Q1014 NOSIG=
METAR LFBT 101600Z AUTO 00000KT 9999 NSC 11/06 Q1014=
METAR LFBZ 101600Z 02003KT CAVOK 13/08 Q1013 NOSIG=
METAR LFLB 101600Z 00000KT CAVOK 09/05 Q1018 NOSIG=
METAR LFLX 101551Z 08004KT 9999 FEW040 12/06 Q1016 NOSIG=
METAR LFML 101600Z 00000KT 9999 BKN026 13/08 Q1018 NOSIG=
METAR LFCK 101600Z NIL=

0000049700
369
SAFR33 LFPW 101600
METAR LFKB 101600Z 13005KT 9999 FEW020 BKN032 14/10 Q1019 NOSIG=
METAR LFKC 101600Z VRB01KT 9999 BKN023 13/11 Q1019 NOSIG=
METAR LFKF 101600Z AUTO 07007KT 040V100 9999 OVC018/// 13/10 Q1019=
METAR LFKJ 101600Z 22002KT 9999 FEW023 SCT250 13/10 Q1019 NOSIG=
METAR LFMP 101600Z 10006KT 9999 BKN027 12/08 Q1018 NOSIG=
METAR LFMV 101600Z AUTO 26003KT 9999 NSC 11/07 Q1019=
METAR LFSL 101600Z AUTO 17001KT 9999 NSC 14/06 Q1015=
METAR LFLC 101600Z NIL=

0000012300
370
SACN62 CYVT 101600
METAR CYVT 101600Z 24005KT 12SM -SN SCT006 OVC018 M08/M10 A2928 RMK
 ST3SC5 SLP943=

0000010600
371
SACN62 CYYT 101600
METAR CYYT 101600Z 29024KT 15SM BKN030 M08/M13 A3019 RMK SC6 SLP232=

0000091200
372
SAFR34 LFPW 101600
METAR LFCR 101600Z AUTO 12006KT 9999 NSC 14/03 Q1016=
METAR LFJL 101600Z AUTO VRB01KT 9999 NSC 04/01 Q1019=
METAR LFLP 101600Z AUTO 28005KT 9999 NSC 09/05 Q1018=
METAR LFLS 101600Z AUTO 00000KT 0050 R09/0225N FG VV/// 06/06 Q1018=
METAR LFLY 101600Z AUTO 11003KT 9000 NSC 09/06 Q1018=
METAR LFMT 101600Z 07005KT 9999 BKN028 13/08 Q1018 NOSIG=
METAR LFMU 101600Z AUTO 08006KT 9999 OVC027 12/08 Q1018=
METAR LFOB 101600Z AUTO 18005KT 9999 OVC010 06/04 Q1018=
METAR LFOH 101600Z AUTO 15005KT 9999 NSC 06/04 Q1016=
METAR LFOK 101600Z AUTO 00000KT 9999 NSC 06/06 Q1018=
METAR LFOP 101600Z AUTO 15004KT 9999 OVC009 05/04 Q1017=
METAR LFPB 101600Z AUTO 16006KT 9999 OVC014 07/04 Q1018=
METAR LFQA 101600Z AUTO VRB02KT 9999 OVC012 06/05 Q1018=
METAR LFQB 101600Z AUTO 34003KT 9999 NSC 07/06 Q1018=
METAR LFSN 101600Z AUTO 00000KT 9999 FEW034 06/04 Q1019=

0000084900
373
SAFR35 LFPW 101600
METAR LFMI 101600Z AUTO 17003KT 9999 OVC026 12/08 Q1018=
METAR LFMK 101600Z AUTO 10013KT 070V130 9999 OVC023 12/07 Q1017=
METAR LFOV 101600Z AUTO 11007KT 0550 FG VV/// 06/06 Q1016=
METAR LFRD 101600Z AUTO 18005KT 4900 BR OVC003 07/06 Q1016=
METAR LFRI 101600Z AUTO 12005KT 9999 NSC 11/08 Q1015=
METAR LFRM 101600Z AUTO 08004KT 9999 OVC006 07/06 Q1017=
METAR LFRN 101600Z AUTO 12005KT 5000 BR OVC003 07/07 Q1016=
METAR LFRO 101600Z AUTO 18004KT 9999 NSC 09/05 Q1015=
METAR LFRV 101600Z AUTO 00000KT 9000 FEW007 OVC027 08/07 Q1015=
METAR LFRZ 101600Z AUTO 06004KT 9999 BKN035 BKN043 OVC096 10/09
Q1015=
METAR LFSB 101600Z 12005KT 9999 FEW026 BKN060 BKN260 07/04 Q1019
NOSIG=
METAR LFST 101600Z AUTO 15002KT 9999 NSC 07/03 Q1019=
METAR LFTH 101600Z AUTO 20004KT 9999 FEW028 13/08 Q1019=

0000070500
374
SAFR36 LFPW 101600
METAR LFBA 101600Z AUTO 10005KT 9999 NSC 11/08 Q1014=
METAR LFBE 101600Z AUTO VRB02KT 9999 NSC 13/08 Q1014=
METAR LFGJ 101600Z AUTO 36004KT 9999 NSC 09/04 Q1018=
METAR LFJR 101600Z AUTO 07005KT 9999 NSC 09/08 Q1016=
METAR LFMD 101600Z AUTO VRB02KT 9999 SCT025 12/09 Q1019=
METAR LFMH 101600Z 29002KT CAVOK 11/05 Q1017 NOSIG=
METAR LFOT 101600Z AUTO 03004KT 360V070 9999 NSC 09/07 Q1016=
METAR LFPN 101600Z 18004KT 150V210 9999 OVC010 06/04 Q1018 NOSIG=
METAR LFRC 101600Z AUTO 18009KT 9999 OVC004 07/06 Q1015=
METAR LFRG 101600Z AUTO 19008KT 160V220 9999 BKN007 BKN240 06/04
Q1016=
METAR LFRK 101600Z AUTO 19007KT 9999 FEW015 BKN230 07/05 Q1016=

0000008900
375
SPAU32 YBBN 101603
SPECI YMHB 101600Z 17007KT 9999 BKN009 17/14 Q1012=

00000000