0000021900
636
SAAF20 LFPW 101600 RRA
METAR FABL 101600Z 28012G22KT 230V320 CAVOK 29/06 Q1015 NOSIG=
METAR FAEL 101600Z 22021KT 9999 SCT049 20/14 Q1014=
METAR FAGG 101600Z 22007KT 9999 FEW025 BKN030 18/12 Q1017=

0000027300
637
SAAF21 LFPW 101600 RRA
METAR FALA 101600Z 25006KT CAVOK 28/08 Q1015 NOSIG=
METAR FAMM 101600Z 24010KT 9999 FEW040 32/04 Q1014 NOSIG=
METAR FAPE 101600Z 23021KT 9999 FEW023 21/15 Q1015 NOSIG=
METAR FAUP 101600Z 19009KT 9999 FEW020 30/05 Q1014 NOSIG=

0000063700
638
SAMS38 WMKK 101600
METAR WBGB 101600Z 13002KT 9999 SCT016 BKN150 25/24 Q1012=
METAR WBGR 101600Z 10002KT 9999 SCT014 SCT150 BKN300 25/24 Q1012=
METAR WBGS 101600Z 07004KT 9999 SCT018 BKN150 23/22 Q1012=
METAR WBKL 101600Z 20001KT 9999 FEW010 BKN290 25/24 Q1011=
METAR WBKS 101600Z 08012KT 9999 FEW015 SCT045 BKN260 27/25 Q1011=
METAR WBKW 101600Z 33007KT 9999 FEW017 BKN140 25/22 Q1011=
METAR WMKD 101600Z 03003KT 9999 FEW012 SCT160 BKN260 23/22 Q1013
NOSIG=
METAR WMKL 101600Z 04007KT 320V120 9999 FEW026 SCT140 BKN280 27/21
Q1013=
METAR WMKM 101600Z 03003KT 9999 FEW030 SCT140 BKN280 24/23 Q1013=

0000009100
639
SAFP20 LFVP 101600
METAR LFVP 101600Z 28022KT 9999 BKN026 M04/M08 Q1026=

0000024300
640
SATH31 VTBB 101600
METAR VTCH 101600Z NIL=
METAR VTCL 101600Z NIL=
METAR VTCN 101600Z NIL=
METAR VTCP 101600Z NIL=
METAR VTCT 101600Z NIL=
METAR VTPH 101600Z NIL=
METAR VTPO 101600Z NIL=
METAR VTPP 101600Z NIL=

0000167100
641
SAUS73 KWBC 101600 RRA
METAR
KDLH 101555Z 17007KT 3/4SM R09/5000V6000FT -SN BR OVC004 M07/M08
     A2970=
KDSM 101554Z 12005KT 1/2SM R31/5000V5500FT -FZDZ BR OVC002 00/M01
     A2975=
KDTW 101553Z 16007KT 3SM BR OVC010 01/00 A3018=
KEAU 101556Z 15011KT 3SM BR OVC005 M04/M06 A2982=
KEGE 101550Z 00000KT 7SM VCSH OVC060 M06/M09 A2994=
KELO 101553Z AUTO 20008KT 4SM -SN OVC009 M08/M09 A2966=
KEVV 101554Z 14006KT 7SM OVC047 07/04 A3011=
KFAR 101553Z 16009KT 4SM BR BKN110 M03/M06 A2954=
KFNT 101553Z 19007KT 4SM BR OVC006 01/M02 A3013=
KFSD 101556Z 18008KT 3/4SM R03/4000V4500FT BR OVC002 M02/M02
     A2962=
KFWA 101554Z 16007KT 2 1/2SM BR OVC005 02/01 A3013=
KGCK 101554Z 32006KT 7SM SCT065 BKN090 OVC110 00/M02 A2970=
KGFK NIL=
KGJT 101553Z 00000KT 4SM BR OVC060 M06/M07 A3000=
KGRB 101553Z 18008KT 2SM BR OVC009 M03/M04 A2997=
KGRI 101553Z 21006KT 2 1/2SM BR OVC003 00/M01 A2962=
KGRR 101553Z 16007KT 1SM R26L/P6000FT BR OVC004 00/M02 A3008=
KGYY NIL=
KHIB NIL=
KHON 101555Z AUTO 20007KT 4SM BR CLR M03/M06 A2957=
KHUF 101553Z 15009KT 6SM BR OVC032 03/01 A3008=
KHUT 101552Z 25004KT 1/4SM R13/1400V1600FT FG VV002 03/02
     A2963=
KICT 101553Z 22013G17KT 2 1/2SM BR OVC004 06/05 A2964=
KIKK 101555Z AUTO 14010KT 10SM OVC008 01/00 A3003=
KIND 101554Z 14007KT 3SM BR OVC029 01/01 A3011=
KINL 101555Z AUTO VRB04KT 2 1/2SM BR OVC006 M06/M08 A2960=
KIRK 101555Z AUTO 13010KT 1 3/4SM -RA BR OVC002 01/01 A2978=
KJAC 101555Z 19006KT 10SM VCSH SCT035 BKN045 BKN050 M05/M07
     A2978=
KJLN 101553Z 17012KT 2SM -TSRA BR OVC005 10/09 A2975=
KJMS 101556Z AUTO 00000KT 7SM CLR M06/M07 A2947=

0000079200
642
SACI31 ZBBB 101600
METAR ZBAA 101600Z 06001MPS CAVOK M09/M19 Q1032 NOSIG=
METAR ZBSJ 101600Z 30001MPS 1800 FU NSC M06/M13 Q1032 NOSIG=
METAR ZBTJ 101600Z 00000MPS 1100 R16R/P2000N BR NSC M06/M08 Q1032
NOSIG=
METAR ZBYN 101600Z 17001MPS 7000 NSC M07/M20 Q1028 NOSIG=
METAR ZGGG 101600Z 09002MPS 5000 BR BKN046 12/09 Q1024 NOSIG=
METAR ZSHC 101600Z 11002MPS 6000 NSC 06/01 Q1031 NOSIG=
METAR ZSPD 101600Z 10004MPS 060V120 CAVOK 06/M01 Q1032 NOSIG=
METAR ZSSS 101600Z 10004MPS CAVOK 06/M02 Q1031 NOSIG=
METAR ZWSH 101600Z AUTO 33003MPS //// M08/M12 Q1033=
METAR ZWWW 101600Z 34001MPS 0600 R25/1000N FZFG NSC M17/M20 Q1038
NOSIG=
METAR ZYTL 101600Z 28002MPS 4000 BR SCT033 M04/M08 Q1031 NOSIG=
METAR ZYTX 101600Z 16002MPS 7000 NSC M14/M20 Q1030 NOSIG=

0000016800
643
SAIO31 KWBC 101600 RRA
METAR
FMCZ 101600Z NIL=
FMEE 101604Z 10009KT 9999 FEW026 BKN300 27/23 Q1015 NOSIG=
VYMD 101600Z NIL=
VYYY 101600Z NIL=

0000015500
644
SACN62 CYBW 101600
METAR CYBW 101600Z 29006KT 30SM FEW055 FEW100 BKN140 BKN210 M03/M10
 A2939 RMK CU1ACC1AC5CC1 CU TR ACC TR W SLP001=

0000012700
645
SARA31 RUMS 101600
METAR UEEE 101600Z 24002MPS 3200 -SN BR OVC200 M43/M48 Q1033 NOSIG
RMK QFE766 23490145=

0000049600
646
SARS31 RUMS 101600
METAR ULWC 101600Z 17003G06MPS 2500 -SN BKN002 OVC/// 00/00 Q0986
RESN TEMPO 0500 SHSNRA BKN002 RMK QBB070 QFE730/0974 SC038=
METAR UUBP 101600Z 20005MPS 6000 BKN009 OVC013 05/04 Q0995 16290055
NOSIG=
METAR UUOB 101600Z 20007G10MPS 4000 -SHRA BR BKN007CB 02/02 Q1003
29190055 NOSIG=
METAR UUOK 101600Z 19008G13MPS 6000 -RA OVC007 02/02 Q1000 NOSIG RMK
12150050=
METAR UWGG 101600Z 17007MPS 9999 OVC009 02/01 Q1000 NOSIG 18290050
RMK QFE743=

0000168000
647
SAUS73 KWBC 101600 RRB
METAR
KJXN 101556Z 16007KT 1/4SM FZFG VV003 M01/M01 A3011=
KLAN 101553Z 16006KT 3/4SM R28L/4000V6000FT BR OVC002 M01/M02
     A3011=
KLAR 101553Z AUTO 29009G18KT 10SM SCT110 M07/M12 A2967=
KLBF 101553Z AUTO 31004KT 5SM BR OVC100 M01/M03 A2958=
KLBL 101555Z AUTO 31011KT 10SM CLR 04/M03 A2975=
KLEX 101554Z AUTO 15008KT 10SM OVC006 08/07 A3021=
KLNK 101554Z 16006KT 3/4SM R36/5000VP6000FT BR OVC002 00/M01
     A2969=
KLOU 101553Z 16006KT 8SM OVC007 08/07 A3017=
KLOZ 101553Z AUTO 15003KT 10SM BKN018 OVC025 08/05 A3022=
KLSE 101553Z 15006KT 3SM BR OVC008 M02/M04 A2986=
KMBS 101553Z 17007KT 2 1/2SM BR OVC007 M01/M03 A3012=
KMCI 101553Z 14006KT 3/4SM R19R/4500V6000FT -DZ BR OVC002 02/M01
     A2969=
KMDW 101551Z 17008G18KT 1 1/2SM BR OVC003 01/00 A3002=
KMHK 101552Z 00000KT 1/2SM FG OVC004 02/02 A2967=
KMKC 101554Z 07004KT 1 1/4SM BR OVC004 03/02 A2970=
KMKE 101552Z 18006KT 4SM BR OVC004 M01/M02 A2999=
KMKG 101555Z 16008KT 1/2SM R32/3000V4000FT FZFG OVC002 M01/M02
     A3006=
KMLI 101552Z 12007KT 3SM BR OVC006 01/M01 A2989=
KMOT NIL=
KMSN 101553Z 16013KT 1SM R36/P6000FT BR OVC004 M02/M03 A2992=
KMSP 101553Z 15010KT 3SM BR OVC006 M04/M05 A2975=
KOFF 101558Z 15005KT 1SM BR OVC002 00/00 A2970=
KOMA 101552Z 16008KT 1 1/2SM BR OVC004 M01/M01 A2971=
KORD 101551Z 17010KT 1 1/2SM BR OVC004 01/M02 A3000=
KOSH 101553Z 18010KT 2SM BR OVC006 M02/M03 A2995=
KOTM 101553Z AUTO 14011KT 1 3/4SM BR OVC003 01/M01 A2979=
KOWB 101556Z 15008KT 8SM BR FEW010 OVC047 07/07 A3012=
KPAH 101553Z 16007KT 10SM BKN029 OVC036 08/06 A3007=
KPIA 101554Z 15010KT 3SM BR OVC004 01/00 A2995=

0000012500
648
SACN62 CYDF 101600
METAR CYDF 101600Z 23012G19KT 5SM -SN SCT010 OVC029 M06/M10 A3016 RMK
 SC3SC5 SLP214=

0000010600
649
SACN62 CYHZ 101600
METAR CYHZ 101600Z 22013KT 15SM BKN027 M06/M12 A3047 RMK SC7 SLP328=

0000144700
650
SAUS73 KWBC 101600 RRC
METAR
KPIR 101553Z AUTO 20003KT 10SM CLR M03/M06 A2958=
KPLN 101554Z AUTO 15006KT 4SM BR OVC005 M04/M07 A3004=
KPTK 101553Z 18005KT 1/4SM R09R/1400V1600FT FZFG VV002 M01/M01
     A3014=
KPUB NIL=
KRAP 101552Z 29006KT 10SM CLR 02/M05 A2961=
KRFD 101554Z 15013KT 3/4SM R01/3500V4500FT BR OVC002 M01/M01
     A2997=
KRKS 101554Z AUTO 27017KT 3SM -SN BR BKN035 BKN048 OVC090 M05/M07
     A2984=
KRST 101554Z 17011KT 1 1/2SM -FZRA BR OVC003 M03/M04 A2977=
KSAW 101550Z 20014KT 2SM BR OVC005 M06/M07 A2988=
KSBN 101554Z 16009KT 1/2SM FG OVC002 01/M01 A3009=
KSDF 101556Z 13006KT 6SM BR OVC008 08/06 A3016=
KSDM 101553Z 12007KT 9SM CLR 09/06 A3009=
KSGF 101552Z 15017KT 1/2SM FG VV002 04/04 A2979=
KSLN 101553Z 11004KT 1 1/2SM BR BKN005 OVC011 02/01 A2965=
KSPI 101552Z 15016G20KT 8SM BKN006 OVC016 02/01 A2995=
KSTC 101553Z 16011KT 1 1/4SM BR OVC003 M04/M06 A2968=
KSTJ 101553Z 13004KT 1 1/2SM BR OVC004 01/01 A2971=
KSTL 101551Z 15012KT 5SM HZ BKN009 OVC034 03/01 A2993=
KSTP 101553Z 16009KT 2 1/2SM BR OVC006 M04/M06 A2977=
KSUS 101554Z VRB03KT 9SM OVC010 03/02 A2991=
KSUX 101552Z 16010KT 1SM R31/5500V6000FT BR OVC003 M01/M02
     A2969=
KTVC 101553Z VRB04KT 2SM BR OVC005 M03/M05 A3003=
KUIN 101554Z AUTO 15012KT 2 1/2SM -RA BR OVC004 01/00 A2986=
KWRL 101553Z AUTO VRB03KT 10SM OVC075 M07/M10 A2968=
KYIP 101553Z 18007KT 3SM BR OVC006 02/00 A3016=

0000091200
651
SACI32 ZBBB 101600
METAR ZGKL 101600Z VRB02MPS 2000 BR OVC040 08/05 Q1024 NOSIG=
METAR ZGNN 101600Z 04002MPS 2500 BR SCT015 OVC036 13/10 Q1021 NOSIG=
METAR ZGOW 101600Z 12003MPS 8000 BKN060 13/08 Q1026 NOSIG=
METAR ZGSZ 101600Z 12003MPS 080V150 4000 HZ FEW050 15/10 Q1024
NOSIG=
METAR ZLXY 101600Z 24001MPS 2500 HZ NSC M02/M09 Q1030 NOSIG=
METAR ZMUB 101600Z VRB02MPS 5000NW FU SCT100 M29/M33 Q1023 NOSIG
RMK
QFE659.5 69 NT=
METAR ZPPP 101600Z 21005MPS CAVOK 07/02 Q1022 NOSIG=
METAR ZSAM 101600Z 02003MPS 9999 OVC030 13/08 Q1027 NOSIG=
METAR ZSFZ 101600Z 36003MPS 330V030 9999 OVC024 10/04 Q1028 NOSIG=
METAR ZSNB 101600Z VRB01MPS 6000 NSC 04/02 Q1031 NOSIG=
METAR ZSQD 101600Z 08001MPS 3000 BR NSC M03/M06 Q1033 NOSIG=
METAR ZUGY 101600Z 02003MPS 5000 -RA BR SCT003 BKN010 OVC026
01/01
Q1023 NOSIG=
METAR ZUUU 101600Z VRB01MPS 7000 BKN033 06/02 Q1027 NOSIG=

0000094300
652
SARS35 RUMS 101600
METAR USPP 101600Z 13004MPS 9999 OVC009 M02/M03 Q1007 21290250 NOSIG
RMK QFE744/0993=
METAR UWKD 101600Z 17003MPS 0300 R11/900D FZFG VV003 M00/M00 Q1005
R11/2/0050 NOSIG RMK QFE744/0992=
METAR UWKE 101600Z 22002MPS 0800 R21/P1500 FZFG BKN007 M05/M06 Q1005
NOSIG RMK  QFE737/0982 21421039=
METAR UWKS 101600Z 19005MPS 0250 R24/0800V0900U FG VV002 00/00 Q1003
NOSIG RMK QBB060 QFE738 24290250=
METAR UWLW 101600Z 25001MPS 5000 BR BKN006 OVC100 M00/M00 Q1007
20820550 NOSIG RMK QFE750=
METAR UWOR 101600Z 18007MPS 4000 -SN OVC023 M03/M04 Q1009 25450245
NOSIG RMK QFE734/0979=
METAR UWOO 101600Z 14003MPS 3200 -SN OVC011 M01/M02 Q1008 08590332
TEMPO 1000 SN RMK QFE745/0994=
METAR UWSS 101600Z 28004MPS 9999 BKN007 00/M01 Q1009 3029//55 NOSIG
RMK  QFE744=
METAR UWWW 101600Z 30002MPS 270V330 4500 BR OVC005 M01/M02 Q1007
23520540 33//99// TEMPO BKN004 RMK QBB150 QFE744/0992=

0000024300
653
SATH32 VTBB 101600
METAR VTSB 101600Z NIL=
METAR VTSC 101600Z NIL=
METAR VTSF 101600Z NIL=
METAR VTSG 101600Z NIL=
METAR VTSH 101600Z NIL=
METAR VTSM 101600Z NIL=
METAR VTSR 101600Z NIL=
METAR VTST 101600Z NIL=

0000046700
654
SARA33 RUMS 101600
METAR UIAA 101600Z 01003MPS 9999 FEW050CB BKN100 M17/M19 Q1018 NOSIG
RMK QFE705 29CLRD70=
METAR UIBB 101600Z 08002MPS 0300 R30/0800 FG VV002 M22/M23 Q1028
NOSIG RMK QBB070 QFE727/0970 30490530=
METAR UIII 101600Z 23002MPS 2600 -SHSN BKN021CB OVC100 M14/M16 Q1030
TEMPO 0300 -SHSN FG VV001 RMK QFE727/0970 30490340=
METAR UIUU 101600Z 29003MPS 5000 -SHSN BKN022CB OVC100 M12/M14 Q1026
NOSIG RMK QFE725/0966 26490842=

0000070900
655
SARS36 RUMS 101600
METAR ULAA 101600Z 08007G11MPS 5000 -SN BLSN OVC017 M18/M20 Q1003
NOSIG RMK QFE752/1002 SC050=
METAR ULMM 101600Z 00000MPS 9999 BKN002 M31/M35 Q1016 NOSIG RMK
QBB070 OBST OBSC QFE754 31490237=
METAR ULOO 101600Z 21004MPS 5000 -SHRA SCT008 BKN011CB OVC020 04/04
Q0981 19190060 NOSIG RMK QFE732=
METAR ULPB 101600Z AUTO 01003MPS 340V050 2600 NCD M06/M06 Q0989=
METAR UMKK 101600Z 31008G16MPS 270V350 9999 BKN015CB OVC100 04/01
Q0999 R24/29//60 NOSIG RMK QFE748/0997=
METAR UUOO 101600Z 19005G08MPS 5000 -RA OVC006 03/02 Q1002 NOSIG RMK
12290155=
METAR UUYY 101600Z 04004MPS 7000 BKN011 OVC066 M17/M20 Q1006 TEMPO
1000 SN BR 0145//33 RMK QFE746/0994=

00000000