0000013200
409
UAPA01 KWBC 111224
ARP CSN329 42N 170E 1213 F350 MS41 320/075KT=
ARP DAL287 2100N 13749E 1213 F350 MS42 260/035KT=
0000008200
410
SMAL52 EUMS 111200 RRA
AAXX 11124
60633 36/// /0713 10216 21018=
0000008200
411
SMAL53 EUMS 111200 RRB
AAXX 11124
60660 36/// /1610 10247 21059=
0000008200
412
SMAL51 EUMS 111200 RRB
AAXX 11124
60672 36/// /0000 10209 21112=
0000008200
413
SMAL52 EUMS 111200 RRB
AAXX 11124
60661 36/// /2402 10211 21082=
0000008200
414
SMAL54 EUMS 111200 RRA
AAXX 11124
60677 36/// /0000 10184 21051=
0000007800
415
SMAL55 EUMS 111200
AAXX 11124
60679 36/// /1808 10143 21172=
0000032000
416
SSVX08 KARS 111223
ZZYY 48400 10014 12004 750144 144847 6111/
11119 01126 10064 29092
22219 00091
33311 88872 20000 30912 20001 30906 43226
444 20110 10014 1218/ 521// 60401=
ZZYY 48400 11014 12004 750121 144810 6111/
11119 02917 10067 29075
22219 00090
444 20110 11014 1215/ 521// 60401=
0000010900
417
UANT01 CWAO 111224
ARP VIR24 5602N03919W 1224 F370 MS57 251/40 KT
GVBUG DDL XXW 111224 J09A
0000160300
418
SMMO40 MNUB 111200
AAXX 11120
44210 32999 40000 11185 21241 38603 53001 85030 333
11138 91201=
44216 32999 33201 11306 21336 39138 40594 57008 80006
333 11242 91203=
44217 32998 02601 11182 21206 37885 40519 52001 333 11111
91203=
44219 32998 60902 11206 21256 38704 40503 57001 80007
333 11155=
44221 119// 80000 11270 21297 38703 40563 53007 69912
72272 8802/ 333 11284 555 80120 93100=
44224 329// 70000 11233 21259 38119 40562 57006 87010
333 11230=
44229 32999 22302 11219 21259 37985 40497 51001 80004
333 11164=
44242 329// 03201 11264 21295 39443 40458 52006 333
11184 91201=
44243 329// 40000 11303 21337 39539 40493 53004 80004
333 11209 91201=
44254 329// 00000 11203 21261 39118 40427 53017 333
11120 91201=
44257 319// 02902 11167 21230 39060 40404 51016 70233
333 11116 91205=
44263 32998 00000 11204 21271 38126 40520 56007 333
11151=
44266 329// 23405 11147 21274 37803 40392 57001 82080
333 11101 91205=
44286 329// 02302 11213 21266 38725 40460 52008 333
11134 91204=
44291 319// 02003 11314 21349 38828 40563 51004 70400
333 11201=
44325 329// 13601 11144 21225 38957 40442 53003 80004
333 11039 91201=
44329 32998 02303 11172 21290 37822 40455 58002 333
11110 91204=
44338 32999 02102 11140 21256 38567 40463 52001 333
11082 91205=
44348 329// 00000 11147 21223 38793 40443 52009 333
11106=
44374 32999 02703 11138 21268 38345 40472 52007 333
11080 91205=
44385 32999 03204 11116 21240 39030 40428 52040 333
11063 91204=
44386 329// 03204 11127 21238 39158 40433 52014 333
11083=
0000068900
419
UDEU02 EGRR 111226 RRC
AMDAR 1112
DES EU7032   5054N 00052W 111208 F190 MS280 295/060 TB/ S031=
DES EU7032   5102N 00045W 111209 F190 MS285 293/061 TB/ S031=
DES EU7032   5109N 00037W 111211 F190 MS290 292/063 TB/ S031=
DES EU7032   5117N 00029W 111212 F188 MS285 291/066 TB/ S031=
DES EU7032   5124N 00023W 111214 F166 MS232 291/067 TB/ S031=
DES EU7032   5132N 00017W 111215 F145 MS175 298/067 TB/ S031=
DES EU7032   5139N 00012W 111217 F140 MS162 300/069 TB/ S031=
DES EU7032   5145N 00007W 111218 F131 MS145 306/071 TB/ S031=
DES EU7032   5151N 00003W 111220 F096 MS122 301/043 TB/ S031=
DES EU7032   5156N 00006E 111221 F083 MS110 297/036 TB/ S031=
0000010900
420
UANT99 KDDL 111222
ARP DAL67 5206N02613W 1222 F320 MS57 183/78 KT
N1602 QXT AOE 111223 F13A
0000011000
421
UANT99 KDDL 111223
ARP BAW274 5500N01940W 1223 F370 MS60 228/71 KT
GCIVT QXT AOE 111223 F94A
0000011100
422
UANT99 KDDL 111223
ARP RCH317 5103N02830W 1222 F340 MS50 184/69 KT
88196A DDL XXN 111223 F81A
0000011100
423
UANT99 KDDL 111223
ARP UAL125 5408N02623W 1223 F370 MS55 208/83 KT
N13138 DDL IG1 111223 F55A
0000011000
424
UANT99 KDDL 111223
ARP AAL63 4902N02913W 1223 F320 MS47 195/43 KT
N371AA DDL XXN 111223 F43A
0000011000
425
UANT99 KDDL 111223
ARP UAL28 5402N01942W 1223 F380 MS56 226/76 KT
N78004 DDL XXN 111223 F29A
0000011000
426
UANT99 KDDL 111223
ARP UAL61 5307N02632W 1223 F330 MS58 188/68 KT
N69063 DDL XXN 111223 F47A
0000190500
427
UDEU02 EGRR 111226 RRD
AMDAR 1112
ASC EU0180   5553N 00426W 111204 F010 PS027 264/013 TB/ S031=
ASC EU0180   5552N 00428W 111204 F017 PS007 271/019 TB/ S031=
ASC EU0180   5551N 00429W 111204 F023 PS000 284/023 TB/ S031=
ASC EU0180   5550N 00431W 111204 F029 MS015 276/021 TB/ S031=
ASC EU0180   5549N 00433W 111204 F040 MS037 285/027 TB/ S031=
ASC EU0180   5548N 00434W 111204 F052 MS067 286/029 TB/ S031=
ASC EU0180   5547N 00436W 111204 F064 MS092 285/029 TB/ S031=
ASC EU0180   5546N 00437W 111204 F074 MS112 293/031 TB/ S031=
ASC EU0180   5545N 00439W 111204 F080 MS120 287/032 TB/ S031=
ASC EU0180   5544N 00441W 111204 F104 MS167 283/039 TB/ S031=
ASC EU0180   5541N 00443W 111205 F114 MS192 285/040 TB/ S031=
ASC EU0180   5537N 00445W 111205 F133 MS240 292/044 TB/ S031=
ASC EU0180   5534N 00447W 111205 F148 MS227 301/076 TB/ S031=
ASC EU0180   5530N 00450W 111206 F166 MS252 301/083 TB/ S031=
ASC EU0180   5526N 00452W 111206 F182 MS292 304/083 TB/ S031=
ASC EU0180   5522N 00454W 111206 F200 MS330 298/088 TB/ S031=
ASC EU0180   5518N 00456W 111207 F213 MS365 298/086 TB/ S031=
ASC EU0180   5514N 00459W 111207 F227 MS395 298/086 TB/ S031=
ASC EU0180   5510N 00501W 111207 F243 MS430 292/093 TB/ S031=
ASC EU0180   5506N 00503W 111208 F250 MS450 291/094 TB/ S031=
ASC EU0180   5502N 00506W 111208 F259 MS465 292/099 TB/ S031=
ASC EU0180   5457N 00508W 111208 F270 MS485 292/099 TB/ S031=
ASC EU0180   5453N 00511W 111209 F280 MS510 294/098 TB/ S031=
ASC EU0180   5449N 00514W 111209 F288 MS530 296/096 TB/ S031=
ASC EU0180   5444N 00517W 111209 F296 MS550 299/093 TB/ S031=
ASC EU0180   5440N 00520W 111210 F303 MS552 300/080 TB/ S031=
ASC EU0180   5435N 00522W 111210 F325 MS580 277/093 TB/ S031=
ASC EU0180   5431N 00525W 111210 F340 MS555 294/079 TB/ S031=
ASC EU0180   5427N 00527W 111211 F347 MS555 296/073 TB/ S031=
0000181000
428
SMIN90 VEGT 111200
AAXX 11124
42410 31495 70000 10186 20170 40175 76062 83330
  333 10222 57060 59035 83618 81925 87360=
42512 31596 73203 10160 20118 48522 70522 83530
  333 10204 58012 83620 86360=
42516 31394 40000 10110 20081 38423 48520 71042 82530
  333 10171 58011=
42515 31596 80000 10160 20048 38711 48520 70522 8653/
  333 10202 58009=
42415 32496 60000 10194 20150 40179 84530
  333 10229 58011 84618 85360=
42623 31996 21801 10174 20090 39264 40141 70500 82030
  333 10253 58003 82360=
42423 31595 50000 10190 20156 40145 70522 81530
  333 10233 58002 81620 85360=
42220 32596 70000 10194 20142 40153 82530
  333 10244 58004 82620 87360=
42619 31996 60000 10210 20167 40139 70520 86030
  333 10271 59002 86360=
42404 31495 80201 10174 20154 40168 70522 8463/
  333 10204 58030 81710 84618 85360=
42314 31595 70000 10194 20135 40153 70522 83530
  333 10248 58003 83620=
42724 31595 30000 10210 20153 40155 70510 83500
  333 10262 58002 83620=
42618 31995 40000 10212 20162 40156 70500 82530
  333 10280 58002 82620 84360=
42309 21495 71802 10188 20158 40151 70520 84570
  333 10200 58009 6990/=
42408 32993 80000 10200 20174 40172 74644 83640
  333 10218 58016=
42529 31595 60000 10200 20172 49960 703// 86320
  333 10210 59001=
42527 32595 32302 10134 20033 38613 41464 82100
  333 10136 20034=
42317 32596 70000 10208 20179 49986 87251
  333 10233 58002=
42407 32796 60000 10176 20146 40122 86420
  333 10180 59026=
42523 31595 40000 10164 20124 40133 70300 82430
  333 10185 59002=
42413 21595 80000 10156 20138 40173 760// 8243/
  333 10236 59004 6990/=
42522 31191 30000 10210 20165 40165 705// 83060
  333 10210 58053=
42420 31795 60000 10200 20184 40312 705// 86570
  333 10240 58023=
00000000