0000197400
336
UKAK02 KWBC 111200
TTBB 6112/ 70086 NIL=
TTBB 61128 70133 00005 20556 11004 19958 22996 15561 33987 14363
44936 13367 55905 14768 66874 14372 77853 15368 88802 17968 99798
17964 11789 17762 22755 19757 33743 19958 44621 29950 55612 30556
66602 30959 77591 31959 88583 32756 99573 33740 11555 35350 22538
36747 33529 36749 44522 36558 55490 38760 66469 39958 77446 42557
88436 43559 31313 58208 81101 41414 80900 51515 10159=
TTBB 6112/ 70174 NIL=
TTBB 6112/ 70194 NIL=
TTBB 6112/ 70222 NIL=
TTBB 61128 70261 00985 33540 11965 22329 22961 19538 33958 18543
44942 17750 55864 18963 66792 23559 77781 22959 88761 23758 99754
22960 11708 25562 22693 26360 33668 27159 44658 27756 55652 27757
66637 28958 77625 29366 88609 30574 99536 37965 11521 38169 22473
42770 33431 44970 44411 46568 31313 58208 81103 41414 ///// 51515
10159=
TTBB 6112/ 70292 NIL=
TTBB 61128 70308 00976 01005 11971 01204 22744 10905 33699 14506
44652 18928 55639 20123 66618 22346 77507 34313 88502 34522 99495
33760 11491 34366 22484 34972 33470 36771 44446 37573 31313 58208
81101 41414 873// 51515 10159=
TTBB 61128 70316 00978 03417 11976 02807 22943 01601 33825 04106
44719 11105 55655 16915 66643 18742 77637 19558 88632 19959 99628
20365 11623 20570 22614 21374 33599 21373 44571 22957 55557 23947
66550 24561 77544 25165 88531 26165 99527 25962 11523 25156 22491
28943 33454 32327 44418 37528 31313 58208 81101 41414 854// 51515
10159=
TTBB 61128 70326 00991 10116 11990 10326 22986 09716 33978 05909
44963 06302 55956 05102 66944 04527 77929 04739 88896 06332 99893
06332 11882 06160 22863 07549 33850 07760 44834 08562 55828 08762
66822 09150 77813 09559 88809 09760 99800 10336 11768 12156 22656
21759 33642 23156 44630 24156 55576 29164 66555 31563 77527 34165
88498 35363 99493 35367 11472 37580 22428 40178 33405 41966 31313
58208 81100 41414 00900 51515 10159=
TTBB 6112/ 70414 NIL=
TTBB 6112/ 70454 NIL=
0000050400
337
ULAK02 KWBC 111200
TTCC 6112/ 70086 NIL=
TTCC 61127 70133 70782 51184 29581 88999 77999 31313 58208
81101=
TTCC 6112/ 70174 NIL=
TTCC 6112/ 70194 NIL=
TTCC 6112/ 70222 NIL=
TTCC 6112/ 70261 NIL=
TTCC 6112/ 70292 NIL=
TTCC 61127 70308 70823 43774 28027 88999 77999 31313 58208
81101=
TTCC 61127 70316 70824 46578 27530 88999 77999 31313 58208
81101=
TTCC 61127 70326 70813 46185 29050 88999 77999 31313 58208
81100=
TTCC 6112/ 70414 NIL=
TTCC 6112/ 70454 NIL=
0000052600
338
UEAK02 KWBC 111200
TTDD 6112/ 70086 NIL=
TTDD 6112/ 70133 11883 54183 22786 50784 31313 58208 81101 51515
10159=
TTDD 6112/ 70174 NIL=
TTDD 6112/ 70194 NIL=
TTDD 6112/ 70222 NIL=
TTDD 6112/ 70261 NIL=
TTDD 6112/ 70292 NIL=
TTDD 6112/ 70308 11953 44972 22864 43773 33795 46172 31313 58208
81101 51515 10159=
TTDD 6112/ 70316 11942 47377 31313 58208 81101 51515 10159=
TTDD 6112/ 70326 11800 45585 22747 47185 31313 58208 81100 51515
10159=
TTDD 6112/ 70414 NIL=
TTDD 6112/ 70454 NIL=
0000034500
339
SNVD01 KWBC 111000 RRR
BBXX
42375 11101 99285 70883 46/// /1712 1//// 91000 22200 10402 70008
 555 11094 22103=
42369 11101 99272 70903 46/// /1805 1//// 91000=
42392 11101 99272 70900 46/// ///// 1//// 91000 22200 10402 70009=
42887 11101 99282 70885 46/// /2111 10227 20207 91000 22200 10402
 70008 555 11092 22100=
0000093600
340
UGAK02 KWBC 111200 CCA
PPBB 61128 70133 90012 03004 34503 01007 90346 35011 02514 03015
90789 02516 03513 04518 91246 03014 00516 01019 92056 02025 36028
01031 93013 36028 33028 34027 9379/ 31520 32037 940// 31026 950//
29561=
PPBB 61128 70308 90012 08017 08535 09040 90346 10038 10037 12023
90789 12024 12526 12525 91245 12516 13014 12513 91679 13512 19014
18526 92015 18517 19523 21016 9279/ 20024 21527 93057 24523 22534
26029 94235 25035 26529 25522 947// 25035 950// 26528=
PPBB 61128 70316 90012 14011 15021 17519 90346 21015 21519 19518
90789 18520 18020 17520 91246 21526 22034 23532 917// 24530 92015
24550 24056 24068 928// 24060 93013 24574 24584 25564 936// 26071
94147 26039 26552 26535 950// 26545=
PPBB 61128 70326 90012 01004 04507 06008 90346 11502 16003 21007
90789 22507 22508 23507 91123 25008 25013 24516 91468 26014 26025
27538 9205/ 27044 27054 930// 26550 950// 28548=
0000096200
341
UGAK02 KWBC 111200
PPBB 6112/ 70086 NIL=
PPBB 61128 70133 90012 03004 34503 01007 90345 34510 02515 04011
90678 02516 02516 05017 909// 04518 91124 02515 03514 00516 91569
35517 01019 02523 920// 02025=
PPBB 6112/ 70174 NIL=
PPBB 6112/ 70194 NIL=
PPBB 6112/ 70222 NIL=
PPBB 61128 70261 90012 36003 02005 06513 90345 06019 04012 03509
90678 02014 35012 35016 909// 34020 91246 30520 30522 31519 920//
31025=
PPBB 6112/ 70292 NIL=
PPBB 61128 70308 90012 08017 08535 09040 90346 10038 09534 12023
90789 12024 12526 12525 91245 12516 13014 12513 916// 13512 920//
18517=
PPBB 61128 70316 90012 14011 15021 17519 90346 21015 21519 19518
90789 18520 18020 17520 91246 21526 22034 23532 9179/ 24530 24049
920// 24550=
PPBB 61128 70326 90012 01004 04507 06008 90346 11502 16003 21007
90789 22507 22508 23507 91123 25008 25510 24516 91468 26014 26025
27538 920// 27044=
PPBB 6112/ 70414 NIL=
PPBB 6112/ 70454 NIL=
0000012600
342
SNVJ01 KWBC 111000 RRB
BBXX
DBLK 11101 99770 50341 41697 /0102 11034 21061 49932 52007 7////
 22220 05019=
0000093100
343
SMGR01 LGAT 111200
AAXX 11124
16622 11458 39903 10112 20063 30229 40229 57015 60001 71041 81101
      333 81815 83069 90730 91109 555 30000 10064 20102 30096
      40092 50132 70000 77Y// 7FY//=
16641 12570 61104 10166 20106 30220 40226 58010 60001 84550 333
      84625 86357 90730 91106 555 40000 47698 44220 50000 50134=
16682 12560 69903 10172 20090 30217 40228 57014 60001 86800 333
      81825 86645 90730 91105 555 30000 10155 20135 30127 40120
      50122 60185=
16716 NIL=
16734 36/// /2611 10164 20101 30165 40226 57014 333 90730
      91115=
16743 36/// /2614 10159 20097 30016 40213 57018 333 90730
      91126=
16749 12460 70000 10160 20124 30206 40220 58013 60001 87800 333
      82818 86635 90730 91104 555 40000 47690 44240 50000 50140=
16754 12565 43111 10178 20112 30169 40215 57016 60001 81101 333
      81825 83068 90730 91117 555 40000 47657 44190 50000 50142=
0000030800
344
SMRH10 LDZM 111200
AAXX 11121
14240 11/08 91201 10065 20063 30048 40205 57014 60001 74342
  333 70000=
14258 12670 62103 10134 20070 30016 40201 57014 60001 86500
  333 70002=
14445 12675 71601 10147 20106 30073 40226 57012 60001 83570
222// 00144
  333 70000 83696 84499 92311=
0000047800
345
SMRH21 LDZM 111200
AAXX 11121
14241 11115 80000 10066 20063 30072 40204 58015 60001 72844 886//=
14284 12960 12004 10126 20073 30096 40204 57018 60001 81030=
14307 31758 70000 10127 20111 30148 40224 57006 71022 87500
  333 70000=
14317 NIL=
14431 12572 71203 10130 20101 30134 40227 58009 60001 87100
  333 82130 87550=
14444 32570 70000 10138 20101 30205 40234 57010 84870
  333=
14474 12580 61803 10148 20104 30042 40230 58011 60001 85830=
0000008000
346
UPCD01 FTTJ 111200
PPAA 61110 64700 NIL=
PPAA 61110 64750 NIL=
0000011000
347
UANT01 CWAO 111209
ARP UAL37 5344N03358W 1209 F360 MS58 195/30 KT
N21108 DDL IG1 111209 F68A
0000011000
348
UANT01 CWAO 111209
ARP DLH459 5903N04118W 1209 F350 MS56 230/34 KT
DAIHP QXS UAK 111209 J26A
0000011100
349
UANT01 CWAO 111209
ARP UAL123 5103N04701W 1209 F380 MS63 292/62 KT
N58101 DDL IG1 111209 F75A
0000034600
350
USIL01 BIRK 111200 RRA
TTAA 61111 04018
99997 01526 00000 00013 ///// ///// 92636 03133 24513
85298 09102 23512 70768 20559 23515 50517 38161 15020
40667 47370 17018 30854 53571 16034 25971 54771 16031
20113 55974 18026 15296 57375 18047 10550 59772 19049
88296 54370 16031 88129 59573 19551
77999
31313 48108 81101=
0000013800
351
SMAT01 TQPF 111207
AAXX 11124
78846 12580 10813 10255 20199 30162 40201 69951 81200
333 10270 20220 58004 79951 81821=
0000011000
352
UANT01 CWAO 111209
ARP BAW268 5606N03418W 1209 F390 MS56 219/39 KT
GXLEB QXT AME 111209 J42A
0000011100
353
UANT01 CWAO 111209
ARP DAL131 5200N01945W 1209 F320 MS57 210/66 KT
N171DZ QXT AOE 111209 F90A
0000016000
354
SSVX12 KARS 111209
ZZYY 72808 11014 1100/ 565329 172239 6112/
11119 10012 49953 57007
22219 00007
444 20120 11014 1111/ 501// 80140 80000=
0000010900
355
UANT01 CWAO 111210
ARP SWR16 5101N02000W 1209 F370 MS61 213/68 KT
HBJHJ QXT AOE 111209 J11A
00000000