0000013800
436
SPCN31 CWAO 101532
SPECI CYXX 101532Z 21016G24KT 10SM -RA BKN040 OVC080 08/ A2992 RMK
 SC5AC3 DP 5.4 VIA CYXC SLP132=

0000008600
437
SAMX55 MMIO 101600
METAR MMIO 101540Z 18008KT 10SM SKC 21/08 A3014=

0000010100
438
SPCN42 CWAO 101546
SPECI CYQD 101546Z 18004KT 1SM -SN BR VV006 RMK SN8 VIS 5/8 SE=

0000016700
439
FTCN34 CWAO 101500 AAA
TAF AMD CYRL 101547Z 1015/1102 17010KT 2SM -SN BR OVC003 TEMPO
     1015/1102 4SM -SN OVC008
    RMK NXT FCST BY 102000Z=

0000018200
440
FTPA31 PHFO 101500 AAA
TAF PHNL 101511Z 1015/1118 32005KT P6SM FEW025 SCT060
     FM102000 04011KT P6SM FEW030 SCT050
     FM110800 07007KT P6SM FEW025 SCT050=

0000040200
441
SAID32 WIII 101500
METAR WIPT 101500Z 03003KT 6000 R33/M0050N SCT019 26/24 Q1012=
METAR WIOO 101500Z 00000KT 6000 BKN010 24/24 Q1012 NOSIG=
METAR WALL 101500Z  01004KT 8000 NIL SCT018 25/24 Q1011=
METAR WIPP 101500Z 02005KT 9999 FEW015 25/24 Q1010=
METAR WADL 101500Z 00000KT 8000 HZ SCT016 25/25 Q1011=
METAR WAMM NIL=
METAR WIBB NIL=
METAR WIDN NIL=
METAR WAOO NIL=

0000025300
442
FTUS41 KWBC 101548 AAA
TAF AMD
KMDT 101539Z 1016/1112 00000KT 2SM BR BKN008 OVC030
      TEMPO 1016/1019 4SM -FZDZ BKN015 OVC035
     FM101900 VRB03KT 5SM HZ SCT012 OVC029
     FM110300 00000KT 2SM -RA BR OVC025 WS020/19045KT=

0000111200
443
FTUS71 KWBC 101548 AAA
TAF AMD
KAOO 101539Z 1016/1112 VRB03KT 6SM HZ OVC018
     FM101900 17006KT 4SM BR SCT015 OVC045
     FM110500 17010KT 4SM -RA BR OVC025 WS019/21040KT=
KBFD 101539Z 1016/1112 18006KT 6SM HZ BKN007 OVC015
      TEMPO 1016/1018 1 1/2SM -SHSN BR OVC007
     FM101800 18007KT 6SM HZ OVC012
     FM110600 16009KT 4SM -RA BR OVC025 WS019/21048KT=
KIPT 101539Z 1016/1112 09006KT 6SM HZ VCSH BKN015 OVC050
     FM101900 VRB03KT P6SM BKN024 OVC040
     FM110300 10004KT P6SM OVC025
     FM110600 09005KT 5SM BR VCSH OVC015 WS020/18045KT=
KJST 101539Z 1016/1112 19004KT 5SM BR OVC004
     FM101900 17006KT 4SM BR BKN007 OVC015
     FM110500 17010KT 4SM -RA BR OVC025 WS019/21040KT=
KMDT 101539Z 1016/1112 00000KT 2SM BR BKN008 OVC030
      TEMPO 1016/1019 4SM -FZDZ BKN015 OVC035
     FM101900 VRB03KT 5SM HZ SCT012 OVC029
     FM110300 00000KT 2SM -RA BR OVC025 WS020/19045KT=
KMFD 101547Z 1016/1112 18008KT 1/4SM FG OVC001
      TEMPO 1017/1019 1SM BR OVC003
     FM101900 16009KT 2SM BR OVC003
     FM110300 16014KT 2SM -RA BR OVC005=

0000018200
444
FTUS72 KWBC 101548 AAA
TAF AMD
KSJT 101545Z 1016/1112 22012G18KT 6SM BR BKN012
     FM101800 25018G25KT P6SM SCT030 BKN250
     FM102300 26005KT P6SM SCT250=

0000044200
445
FTUS73 KWBC 101548 AAA
TAF AMD
KASE 101547Z 1016/1112 34005KT P6SM VCSH SCT030 BKN050 OVC070
      TEMPO 1016/1019 2SM -SN BR SCT010 OVC025
     FM101900 34010G18KT 2SM -SN BLSN SCT015 BKN030
     FM110300 22006KT 5SM -SN BR SCT025 OVC035
     FM110700 21005KT P6SM VCSH SCT025 BKN040=
KUIN 101545Z 1016/1112 15008KT 3SM -RA BR OVC004
     FM110000 19011KT 4SM BR OVC007
     FM110600 26012KT 5SM BR OVC008=

0000018200
446
FTUS74 KWBC 101548 AAA
TAF AMD
KRDM 101546Z 1016/1112 26012KT P6SM SCT090 BKN130
     FM101800 20015G21KT P6SM OVC050
     FM102300 19010KT P6SM VCSH OVC050=

0000009700
447
SAUS71 KWBC 101500 RRI
METAR
KLBE 101545Z 00000KT 6SM BR OVC010 03/03 A3031=

0000026300
448
FTUS42 KWBC 101545 AAA
TAF AMD
KTUL 101542Z 1016/1112 17010KT P6SM BKN003 BKN014 OVC018
      TEMPO 1016/1018 5SM -RA BR SCT003 OVC018
     FM101800 21013KT P6SM BKN020
     FM102200 25011KT P6SM BKN020
     FM110100 27009KT P6SM SKC=

0000024400
449
FTUS43 KWBC 101545 AAA
TAF AMD
KGFK 101542Z 1016/1112 18016KT 5SM -SN BR OVC050
      TEMPO 1016/1017 2SM -SN BR
     FM101700 19010KT P6SM OVC060
     FM102100 22008KT P6SM SCT200
     FM110500 30008KT P6SM BKN050=

0000026300
450
FTUS72 KWBC 101545 AAA
TAF AMD
KTUL 101542Z 1016/1112 17010KT P6SM BKN003 BKN014 OVC018
      TEMPO 1016/1018 5SM -RA BR SCT003 OVC018
     FM101800 21013KT P6SM BKN020
     FM102200 25011KT P6SM BKN020
     FM110100 27009KT P6SM SKC=

0000042700
451
FTUS73 KWBC 101545 AAA
TAF AMD
KGFK 101542Z 1016/1112 18016KT 5SM -SN BR OVC050
      TEMPO 1016/1017 2SM -SN BR
     FM101700 19010KT P6SM OVC060
     FM102100 22008KT P6SM SCT200
     FM110500 30008KT P6SM BKN050=
KHUT 101542Z 1016/1112 VRB05KT 1/2SM FG VV002
      TEMPO 1016/1018 2SM BR SCT002 OVC007
     FM101800 27014G20KT P6SM SCT020 BKN250
     FM110000 28007KT P6SM SCT120 BKN250=

0000168200
452
SPUS70 KWBC 101544
SPECI
KAAO 101540Z AUTO 22013KT 3SM BR OVC002 06/06 A2963 RMK AO2=
KBPI 101540Z AUTO 32004KT 2SM -SN BR FEW006 OVC029 M08/M10 A2982
     RMK AO2 P0000 T10831100=
KEKQ 101540Z AUTO 14006KT 10SM OVC013 09/07 A3023 RMK AO2=
KICT 101540Z 21011KT 1 1/2SM BR OVC002 06/05 A2963 RMK AO2 SFC VIS
     1 3/4 DZE20 P0000=
KJCT 101540Z AUTO 24006KT 7SM SCT015 BKN021 17/14 A2993 RMK AO2
     TSNO=
KUIN 101540Z AUTO 14011KT 4SM -RA BR OVC004 01/00 A2986 RMK AO2
     RAB12 P0004 T00110000=
K1M4 101540Z AUTO 00000KT 1 1/2SM BR OVC002 07/07 A3019 RMK
     AO2=
KH78 101540Z 10015KT 12SM BKN030 22/14 A3011 RMK SEAS 4-5=
KSRC 101540Z AUTO 15006KT 2 1/2SM -RA BR SCT001 BKN020 OVC026
     06/06 A3002 RMK AO2 TSNO P0008=
PANW 101537Z AUTO 02004KT 4SM BR OVC001 M05/M05 A2948 RMK AO2 TSNO
     $=
KAFN 101541Z AUTO 21005KT 10SM FEW007 SCT012 OVC038 M04/M07 A3041
     RMK AO2 SNE1454 P0000 T10441067=
KAHN 101541Z 05006KT 2SM -RA BR OVC005 06/05 A3029 RMK AO2
     P0002=
KCRS 101541Z AUTO 19007KT 1 1/2SM VCTS +RA BR BKN005 OVC010 16/15
     A2991 RMK AO2 TSB1456E11 P0038 T01610150=
KIND 101541Z 13008KT 3SM BR FEW016 OVC029 01/01 A3011 RMK AO2=
KIWI 101541Z AUTO VRB04KT 9SM SCT024 BKN065 BKN100 M04/M08 A3046
     RMK AO2 SNB1459E34 P0000 T10441078=
KJAC 101515Z 14007KT 8SM VCSH SCT035 BKN045 BKN060 M06/M07
     A2978=
KTRL 101541Z AUTO 17011KT 2 1/2SM +RA BR BKN006 BKN014 OVC032
     15/15 A2989 RMK AO2 VIS 1 1/2V5 P0013 T01500150=
KYIP 101541Z 17006KT 2 1/2SM HZ OVC006 02/M01 A3017 RMK AO2
     P0002=
PAMB 101541Z AUTO 04008KT 1/4SM FZFG OVC003 M03/M03 A2943 RMK AO2
     TSNO $=

0000009700
453
SPUS43 KWBC 101544
SPECI
KICT 101540Z 21011KT 1 1/2SM BR OVC002 06/05 A2963=

0000010800
454
SACA33 KWBC 101500 RRG
METAR
TFFR 101541Z 08014KT 9999 SCT036 SCT066 28/19 Q1017 NOSIG=

0000009600
455
SPAU32 YBBN 101544
SPECI YMHB 101543Z 16008KT 9999 BKN009 BKN140 17/14 Q1012=

00000000