0000087300
096
SABZ42 KWBC 101600
METAR
SBJR NIL=
SBLO 101600Z 05004KT 9999 SCT030 32/19 Q1015=
SBMA 101600Z 16003KT 9999 BKN018 BKN080 29/23 Q1012=
SBME NIL=
SBMN 101600Z 07004KT 9999 BKN010 28/23 Q1011=
SBMO 101600Z 11014KT 9999 SCT020 SCT080 30/22 Q1013=
SBMQ 101600Z 14002KT 9999 FEW010 BKN080 29/21 Q1012=
SBMT NIL=
SBPC NIL=
SBPK NIL=
SBPP 101600Z 03010KT 9999 BKN025 30/19 Q1015=
SBPV 101600Z 00000KT 9999 SCT022 SCT090 27/22 Q1011=
SBRB 101600Z 34002KT 9999 BKN025 ///// Q1012=
SBRJ 101600Z 16009KT 9999 FEW020 31/23 Q1012=
SBSC NIL=
SBSJ NIL=
SBSM NIL=
SBSP 101600Z 34006KT 290V040 9999 BKN040 32/12 Q1017=
SBST NIL=
SBTE 101600Z 09002KT 9999 SCT030 BKN080 31/20 Q1010=
SBTU NIL=
SBUG 101600Z 32013KT 9999 BKN020 BKN083 34/22 Q1007=
SBUR NIL=
SBVH NIL=
SBVT 101600Z 35005KT 9999 BKN025 32/23 Q1015=
SBYS NIL=

0000058900
097
SABZ43 KWBC 101600
METAR
SBAN NIL=
SBAT NIL=
SBBA NIL=
SBBQ NIL=
SBBW NIL=
SBCC NIL=
SBER NIL=
SBES NIL=
SBGA NIL=
SBIZ NIL=
SBJF NIL=
SBJP 101600Z 12014KT 9999 SCT030 30/20 Q1012=
SBKG NIL=
SBLB NIL=
SBLP NIL=
SBMK NIL=
SBMS NIL=
SBMZ NIL=
SBPB 101600Z 06015KT 9999 FEW020 32/24 Q1010=
SBPJ NIL=
SBPL 101600Z 07006KT 9999 SCT025 SCT080 31/21 Q1014=
SBPN NIL=
SBQV NIL=
SBRP 101600Z 06007KT 9999 BKN040 33/14 Q1014=
SBTF 101600Z 16004KT 7000 -RA BKN006 OVC100 24/24 Q1012=
SBTK NIL=
SBUF NIL=
SBUI NIL=
SBUL NIL=

0000088500
098
SAAK32 KWBC 101600
METAR
PABA NIL=
PABI 101553Z 33003KT 5SM -SN OVC034 M17/M20 A2949=
PACZ 101555Z AUTO 04012KT 10SM BKN050 M03/M06 A2941=
PADK 101556Z AUTO 15011KT 10SM FEW018 BKN031 OVC038 03/00
     A2900=
PADL NIL=
PADQ 101553Z 27003KT 10SM FEW110 SCT250 M02/M04 A2944=
PAEH 101555Z AUTO 13017G26KT 10SM -SHRA BKN018 BKN060 02/M01
     A2936=
PAFB 101555Z 00000KT 7SM VCSH BKN065 OVC100 M19/M22 A2958=
PAGA 101558Z AUTO 34003KT 10SM CLR M20/M23 A2968=
PAIM 101555Z AUTO VRB01KT 10SM CLR M22/M27 A2957=
PALU 101555Z AUTO 11004KT 10SM BKN014 M19/M20 A3005=
PASV 101555Z AUTO VRB01KT 10SM -SN FEW065 BKN075 M12/M13 A2938=
PASY 101556Z AUTO 05033G39KT 4SM -SN BR SCT008 BKN012 OVC023 00/00
     A2882=
PATC 101555Z AUTO 03020KT 10SM BKN100 M18/M20 A2972=
PATL 101555Z AUTO 09004KT 10SM -SN FEW011 OVC050 M14/M15 A2952=
PBTI NIL=

0000067400
099
SACA31 KWBC 101600
METAR
MBJT NIL=
MBPV 101600Z 09010G22KT 9999 SCT012 28/22 Q1020=
MBSC NIL=
MKJP 101600Z 24005KT 9999 FEW024 29/21 Q1017=
MKJS NIL=
MUCM 101550Z 11012KT 070V140 9999 FEW020 27/17 Q1020=
MUCU 101550Z 31004KT 310V120 9999 FEW020 29/17 Q1019=
MUHA 101555Z 15008KT 9000 SCT030 27/19 Q1020=
MUVR 101550Z 09009KT 050V140 9000 FEW020 27/20 Q1021=
MWCB 101600Z 10010KT 9999 FEW020 28/23 Q1018=
MWCR 101600Z 10009KT 070V140 9999 FEW018 29/26 Q1018 NOSIG=
MYAM NIL=
MYAT NIL=
MYBS NIL=
MYEC NIL=
MYEG NIL=
MYEH NIL=
MYEM NIL=
MYGF NIL=
MYGW NIL=
MYNN 101600Z 12014KT 9999 SCT016 BKN035 BKN080 27/22 A3020=

0000116400
100
SACA35 KWBC 101600
METAR
MGGI NIL=
MGPB 101600Z 30004KT 9999 FEW018 26/21 Q1017 A3003=
MGSJ 101600Z 12008KT 9999 FEW018 30/20 Q1014 A2994=
MHLC 101600Z 31003KT 9999 SCT022 BKN070 25/21 Q1017 A3003
     NOSIG=
MHLM 101600Z 11002KT 9999 FEW026 26/23 Q1017 A3003 NOSIG=
MHTG 101600Z 01007KT 9999 BKN026 22/16 Q1021 A3015 NOSIG=
MNPC 101600Z 08008KT 6000 VCRA BKN016TCU 29/24 Q1013 TCURA
     NW/W/SW/W 77/=
MNPC 101600Z 08008KT 6000 VCRA BKN016TCU 29/24 Q1013 TCURA
     NW/W/SW/W 77%=
MPBO 101600Z 26004KT 230V330 9000 FEW020TCU SCT080 Q1016=
MPCH NIL=
MPDA 101600Z 23006KT 9999 SCT020 30/22 Q1010=
MPMG 101600Z 33010KT 9000 SCT020TCU 30/23 Q1011 NOSIG=
MPSA NIL=
MPTO 101600Z 00000KT 9999 SCT018TCU SCT090 30/22 Q1011 TEMPO 7000
     SHRA=
MRLB 101600Z 08017KT 9999 FEW035 30/18 A2987=
MRLM 101600Z 24005KT 9999 SCT025 28/22 A2996=
MROC 101600Z 08012G22KT 9999 FEW030 25/14 A3003 NOSIG=
MRPV 101600Z 07018KT 9999 FEW045 24/14 A3005 NOSIG=
MSLP 101550Z 02010KT 350V050 CAVOK 31/17 Q1013 A2992=
MSSS 101550Z 33008KT CAVOK 26/19 Q1017 A3006=
MZBZ 101600Z 28003KT 9999 FEW021 25/21 A3005 Q1017 NOSIG=

0000060100
101
SACA33 KWBC 101600
METAR
TBPB 101600Z 06021KT 9999 SCT014 27/21 Q1015 NOSIG=
TDPD NIL=
TDPR NIL=
TFFF 101600Z AUTO 07018KT 9999 SCT036 BKN049 28/20 Q1016=
TFFG NIL=
TFFJ NIL=
TFFR 101600Z 08012KT 040V120 9999 SCT036 SCT066 28/19 Q1017
     NOSIG=
TGPY 101600Z 12017KT 9999 FEW017 FEW///CB 27/23 Q1015 NOSIG
     CB-SE/NE=
TGPZ NIL=
TLPC NIL=
TLPL NIL=
TNCA 101600Z 09017KT 9999 FEW022 29/22 Q1014 A2996=
TNCB NIL=
TNCC NIL=
TNCE NIL=
TNCM NIL=
TTCP NIL=
TTPP NIL=
TVSM NIL=
TVSU NIL=
TVSV 101600Z 09014KT 9999 BKN017 SCT038 28/22 Q1016=

0000060200
102
SACA41 KWBC 101600
METAR
MKBK NIL=
MUBA NIL=
MUBY NIL=
MUCA NIL=
MUCL 101550Z 10014KT 9999 FEW020 28/22 Q1019=
MUCM 101550Z 11012KT 070V140 9999 FEW020 27/17 Q1020=
MUCU 101550Z 31004KT 310V120 9999 FEW020 29/17 Q1019=
MUGM 101556Z 10016G20KT 9999 FEW030 30/17 A3009 RMK SLP188
     T03000172=
MUGT NIL=
MUHA 101555Z 15008KT 9000 SCT030 27/19 Q1020=
MUMO NIL=
MUMZ NIL=
MUNG NIL=
MUVR 101550Z 09009KT 050V140 9000 FEW020 27/20 Q1021=
MUVT NIL=
MYEF NIL=
MYSM NIL=
TABS NIL=
TAOA NIL=
TBBI NIL=
TDCF 101600Z 22004KT 9999 FEW022 29/17 Q1016=

0000024700
103
SAHA31 KWBC 101600
METAR
KQHA NIL=
MTCA NIL=
MTCH NIL=
MTEG NIL=
MTJA NIL=
MTJE NIL=
MTPP 1600Z 08014KT 9999 FEW026 30/XX Q1017/9 A3006=
MTPP 1600Z 08014KT 9999 FEW026 30/XX Q1017.9 A3006=
MTPX NIL=
MTTP NIL=

0000032700
104
SAJP42 KWBC 101600
METAR
RJDK NIL=
RJDM NIL=
RJDO NIL=
RJDT NIL=
RJEB NIL=
RJEC NIL=
RJEO NIL=
RJER NIL=
RJFA NIL=
RJFC NIL=
RJFE NIL=
RJFG NIL=
RJFM NIL=
RJFN NIL=
RJFO NIL=
RJFR 101600Z 25012KT 9999 FEW020 BKN050 04/M04 Q1029=
RJFY NIL=
RJFZ NIL=
RJKA NIL=
RJKB NIL=

0000044400
105
SAJP31 KWBC 101600
METAR
RJAA 101600Z 25004KT 9999 FEW025 M04/M09 Q1022 NOSIG=
RJAH 101600Z VRB01KT 9999 FEW020 M05/M09 Q1021=
RJCC 101600Z 23006KT 9999 -SHSN FEW020 SCT050 M10/M13 Q1016=
RJCH NIL=
RJFK NIL=
RJFT NIL=
RJFU NIL=
RJNN NIL=
RJOO NIL=
RJSS NIL=
RJTT 101600Z 27004KT 180V300 9999 FEW040 02/M08 Q1022 NOSIG=
RODN 101558Z AUTO 06009KT 10SM FEW075 10/06 A3035 RMK AO2 SLP286
     T01040060=

0000033100
106
SAJP43 KWBC 101600
METAR
RJKI NIL=
RJKN NIL=
RJNF NIL=
RJNG NIL=
RJNH NIL=
RJNO NIL=
RJNT NIL=
RJNY NIL=
RJOA NIL=
RJOB NIL=
RJOC NIL=
RJOE NIL=
RJOF NIL=
RJOI 101555Z 29004KT 9999 FEW030 BKN050 01/M03 A3038 RMK SLP287
     T00061028=
RJOK NIL=
RJOM NIL=
RJOP NIL=
RJOR NIL=

0000022300
107
SAJP45 KWBC 101600
METAR
RJTJ NIL=
RJTK NIL=
RJTL NIL=
RJTO NIL=
RJTQ NIL=
RJTR NIL=
RJTU NIL=
RJTX NIL=
RJTY 101558Z AUTO 28007KT 10SM CLR M01/M06 A3024 RMK AO2 SLP251
     T10131061=

0000004200
108
SAJP44 KWBC 101600
NIL=

0000004200
109
SAJP41 KWBC 101600
NIL=

0000118900
110
SASA31 KWBC 101600
METAR
SEGU 101600Z 19005KT 9999 FEW023 BKN100 28/20 Q1011 RMK A2985
     NOSIG=
SEQU NIL=
SKBO NIL=
SKBQ NIL=
SKCG NIL=
SKCL NIL=
SKLT NIL=
SKRG NIL=
SKSP NIL=
SMNI NIL=
SMZO 101600Z 04006KT 9999 SCT035 30/20 Q1012 NOSIG=
SMZY NIL=
SOCA 101600Z AUTO 14003KT 090V180 9999 -RA FEW009/// BKN026///
     BKN040/// ///CB 26/24 Q1011=
SPIM 101600Z 19009KT CAVOK 24/19 Q1012 NOSIG RMK PP000=
SPQT 101600Z 10003KT 9999 SCT017 BKN100 28/23 Q1011 NOSIG RMK
     PP000=
SPQU 101600Z 27009KT 9999 SCT025 18/09 Q1024 RMK PP000=
SPSO 101600Z /////KT CAVOK 24/19 Q1011 RMK BKN230 BIRD HAZARD RWY
     22/04 PP000=
SPTN 101600Z 24006KT 170V250 CAVOK 27/15 Q1009 RMK PP000=
SPYL 101600Z 15016KT CAVOK 29/21 Q1011 RMK BIRD HAZARD RWY 17/35
     PP000=
SPZO 101600Z VRB04KT 9999 VCSH FEW040TCU SCT050 BKN100 17/06 Q1029
     NOSIG RMK PP000=
SVBC 101600Z 36010KT 9999 FEW010 31/19 Q1015=
SVMC 101600Z /////KT 9999 FEW016 SCT070 32/24 Q1014=
SVMG 101600Z /////KT 9999 SCT010 30/21 Q1014 NOSIG=
SVMI 101600Z 02003KT 9999 FEW016 30/21 Q1016 NOSIG=
SYCJ 101600Z 02010KT 9999 BKN022 29/21 Q1012 NOSIG=
SYTM NIL=

0000130700
111
SASA32 KWBC 101600
METAR
SCAR 101600Z 21012KT CAVOK 24/17 Q1011=
SCBA 101600Z 31026G36KT 290V350 9999 FEW040 BKN200 13/02 Q1014=
SCCF 101600Z 26014KT CAVOK 21/06 Q1023=
SCCH NIL=
SCCI 101600Z 25023KT 9999 FEW030 SCT050 BKN110 10/02 Q1008
     NOSIG=
SCDA 101600Z 21012KT CAVOK 25/15 Q1011=
SCEL 101600Z 16010KT 110V190 CAVOK 28/06 Q1013 NOSIG=
SCFA 101600Z 21013KT 9999 FEW020 23/15 Q1012 NOSIG=
SCGE NIL=
SCIE 101600Z 24012KT CAVOK 21/09 Q1016=
SCIP 101600Z 10010KT 9999 SCT020 SCT030 24/19 Q1021 NOSIG=
SCTE 101600Z 14010KT 9999 BKN040 15/06 Q1022 NOSIG=
SGAS 101600Z 02014KT 9999 SCT040 36/22 Q1009=
SGAS 101600Z 36015KT 300V040 9999 SCT040 35/22 Q1009=
SGES 101600Z 35011KT 9999 SCT033 FEW040TCU 33/24 Q1010=
SLCB 101600Z 33004KT 9999 SCT027 25/10 Q1023=
SLCZ NIL=
SLLP 101600Z 10009KT 040V140 9999 SCT016 FEW017CB BKN200 14/05
     Q1035=
SLTJ 101600Z 00000KT 9999 NSC 28/14 Q1016=
SLTR 101600Z 34006KT 9999 SCT017 BKN080 28/24 Q1011=
SLVR 101600Z 31018KT 5000 SHRA BKN022 28/21 Q1011=
SUAA NIL=
SUCA 101600Z 12005KT 9999 FEW030 28/18 Q1005=
SULS 101600Z 34005KT 9999 FEW015 SCT070 OVC200 25/19 Q1008=
SUMU 101600Z 05008KT CAVOK 25/20 Q1007 NOSIG=
SUPE NIL=
SURV NIL=
SUSO 101600Z 14016KT 9999 FEW033TCU SCT200 29/19 Q1007=

0000018900
112
SASA41 KWBC 101600
METAR
SEMT 101600Z NIL=
SEPA NIL=
SKBG NIL=
SKMD NIL=
SKPE NIL=
SKSM NIL=
SKVG NIL=
SMJP 101600Z 01006KT 9999 SCT030 29/22 Q1012 NOSIG=

0000030400
113
SASA42 KWBC 101600
METAR
SCAC NIL=
SCHA NIL=
SCSE 101600Z 27010KT 9999 SCT013 BKN250 19/14 Q1014=
SCTC NIL=
SCTI NIL=
SCVD NIL=
SELT 101600Z 10006KT 9999 BKN030 SCT100 17/11 Q1029=
SUAG NIL=
SUDU 101600Z 09012KT 9999 FEW016 BKN200 26/17 Q1006=
SUPU NIL=
SUTB NIL=

0000167700
114
SAUS71 KWBC 101600 RRA
METAR
KCAR 101554Z AUTO 17007KT 10SM CLR M13/M19 A3030=
KCEF 101558Z 15002KT 7SM -SN BKN012 OVC032 M03/M03 A3045=
KCHO 101553Z 00000KT 1 1/2SM -RA BR SCT003 BKN031 OVC036 01/00
     A3040=
KCHS 101556Z 14012KT 10SM BKN025 BKN040 BKN055 22/17 A3028=
KCKB 101553Z 00000KT 6SM BR OVC016 05/03 A3029=
KCLE 101551Z 18008KT 10SM OVC011 03/01 A3023=
KCLT 101552Z 01007KT 3SM BR OVC003 04/04 A3034=
KCMH 101551Z 16006KT 3SM BR OVC006 03/02 A3023=
KCRW 101554Z COR 00000KT 5SM SCT001 BKN025 OVC047 08/05 A3027=
KCRW 101554Z 00000KT 5SM SCT001 BKN025 OVC047 08/05 A3027=
KCVG 101552Z 15008KT 4SM BR BKN005 OVC035 06/06 A3018=
KDAN 101553Z AUTO 06005KT 4SM -RA BR BKN005 OVC014 02/01 A3039=
KDAY 101556Z 16007KT 1/4SM R06L/3000V5000FT BR OVC002 03/03
     A3019=
KDCA 101552Z 04003KT 1 1/2SM R01/6000FT -RA BR FEW005 BKN026
     OVC050 02/01 A3044=
KDUJ 101556Z AUTO 15004KT 10SM OVC007 01/M03 A3026=
KECG 101554Z 15009KT 10SM OVC110 16/09 A3038=
KEKN 101551Z AUTO 00000KT 7SM FEW003 OVC020 04/03 A3031=
KELM 101553Z 00000KT 5SM HZ OVC028 00/M03 A3032=
KERI 101551Z 17008KT 10SM OVC025 03/01 A3023=
KEWB 101553Z 00000KT 4SM BR OVC040 M01/M02 A3048=
KEWN 101554Z 16011G16KT 10SM FEW075 BKN100 21/12 A3036=
KEWR 101551Z 02004KT 3SM -FZDZ BR FEW010 BKN015 OVC035 M01/M02
     A3048=
KFAY 101553Z AUTO 01005KT 3SM -RA BR BKN080 OVC100 08/07 A3034=
KFLO 101553Z 11003KT 10SM BKN046 BKN065 OVC085 14/12 A3029=
KFRG 101553Z 00000KT 4SM -FZRA BR OVC024 00/M02 A3047=
KFVE 101553Z AUTO 20010KT 10SM CLR M12/M17 A3024=
KGFL 101553Z AUTO 00000KT 1/2SM SN FZFG BKN019 OVC033 M04/M06
     A3042=

0000169500
115
SAUS71 KWBC 101600
METAR
KABE 101551Z 00000KT 4SM HZ OVC010 M02/M04 A3045=
KACK 101553Z 16006KT 10SM OVC065 03/M01 A3050=
KACY 101554Z 04003KT 3SM -RA BR BKN027 OVC037 02/01 A3046=
KAGC 101553Z 19010KT 8SM OVC009 04/02 A3027=
KAGS 101553Z 36004KT 2 1/2SM -RA BR OVC002 09/08 A3026=
KAKR 101554Z AUTO 18005KT 7SM OVC006 02/01 A3023=
KALB 101551Z 17007KT 7SM -SN FEW031 BKN042 OVC080 M02/M06
     A3042=
KAND 101556Z AUTO 04006KT 5SM -RA BR OVC006 07/06 A3030=
KAOO 101553Z AUTO 00000KT 6SM HZ OVC014 00/M03 A3033=
KAPG NIL=
KART 101556Z AUTO 19008KT 1 1/4SM -SN BR OVC017 00/M02 A3029=
KAVL 101554Z 00000KT 2SM -RA BR BKN005 BKN014 OVC032 04/04
     A3030=
KAVP 101554Z 28009KT 7SM SCT018 OVC037 00/M04 A3039=
KBAF 101553Z 21003KT 10SM SCT016 BKN024 OVC050 M04/M07 A3046=
KBDL 101551Z 00000KT 5SM BR OVC011 M03/M06 A3046=
KBDR 101552Z 36004KT 1 1/2SM -SN BR OVC022 M01/M03 A3048=
KBED 101556Z 23008KT 7SM OVC010 M03/M05 A3047=
KBFD 101553Z AUTO 19007KT 10SM OVC014 00/M03 A3024=
KBGM 101553Z 19006KT 1/2SM -SN FZFG FEW007 BKN013 OVC027 M03/M04
     A3030=
KBGR 101553Z 34003KT 10SM BKN200 M07/M13 A3042=
KBKL 101553Z 15011KT 7SM OVC017 03/01 A3021=
KBKW 101551Z AUTO 12004KT 10SM SCT035 BKN042 OVC080 07/04
     A3028=
KBOS 101554Z 21006KT 6SM BR SCT008 BKN036 OVC050 M02/M04 A3049=
KBTV 101554Z 20009KT 10SM OVC060 M03/M07 A3036=
KBUF 101554Z 17003KT 4SM BR OVC015 01/M01 A3024=
KBVY 101553Z 22006KT 6SM HZ OVC049 M02/M04 A3047=
KBWI 101554Z 08005KT 1SM R10/P6000FT -RA BR BKN005 BKN047 OVC080
     01/M01 A3043=
KCAE 101556Z 00000KT 5SM BR OVC005 09/09 A3028=
KCAK 101551Z 18004KT 2SM BR OVC003 02/01 A3023=

00000000