0000022400
696
FTBZ21 SBRF 101609
TAF SBVT 101600Z 1018/1118 15006KT 9999 SCT025
TN24/1105Z TX31/1115Z 
BECMG
 1100/1102 31003KT PROB30 TEMPO 1108/1113 6000 SHRA
BKN016
FEW025CB BECMG 1114/1116 15006KT RMK PDU=

0000006100
697
SAUK39 EGGY 101600
METAR EGUN 101600Z NIL=

0000096000
698
FTBZ31 KWBC 101612
TAF
TAF SBFZ 101600Z 1018/1118 08011KT 9999 SCT020 TN25/1108Z
      TX30/1115Z
      BECMG 1021/1022 08007KT
      BECMG 1109/1111 08013KT RMK PDU=
TAF SBNT 101600Z 1018/1118 11010KT 9999 SCT020 TN23/1108Z
      TX30/1114Z
      BECMG 1021/1023 10005KT
      BECMG 1110/1112 12013KT BKN020
      BECMG 1115/1116 SCT025 RMK PDU=
TAF SBPS 101600Z 1018/1118 11008KT 9999 SCT020 TN22/1108Z
      TX27/1116Z PROB30
      TEMPO 1023/1105 6000 TSRA SCT010 BKN020 FEW030CB
      BECMG 1102/1104 25005KT
      BECMG 1110/1112 11008KT RMK PDU=
TAF SBRF 101600Z 1018/1118 10006KT 9999 SCT023 TN24/1107Z
      TX29/1115Z
      BECMG 1102/1104 28002KT
      BECMG 1111/1113 11009KT RMK PDU=
TAF SBSV 101600Z 1018/1118 10009KT 9999 SCT017 TN24/1108Z
      TX29/1116Z PROB30
      TEMPO 1018/1022 6000 TSRA BKN015 FEW030CB
      BECMG 1103/1105 33003KT
      BECMG 1111/1113 11010KT RMK PDU=

0000012200
699
SANT31 KWBC 101600 RRA
METAR
GVAC 101600Z 05011KT 9999 SCT013 BKN015 BKN200 23/15 Q1014
     NOSIG=

0000042800
700
FTUS43 KWBC 101612 AAA
TAF AMD
KAZO 101608Z 1016/1112 17004KT 2SM BR OVC003
      TEMPO 1016/1020 1/2SM FG
     FM102100 16008KT 2SM -RA BR OVC003
     FM110200 15012KT 1SM RA BR OVC003
     FM110600 18012KT 1/2SM -RA FG OVC004=
KSGF 101609Z 1016/1112 16015G23KT 1 1/2SM SHRA BR VCTS OVC003CB
      TEMPO 1016/1019 TSRA BR
     FM110000 21011KT P6SM BKN008
     FM110500 25010KT P6SM BKN250=

0000010700
701
FTUS44 KWBC 101612 AAA
TAF AMD
KMSO 101609Z 1016/1112 17007KT P6SM VCSH BKN050 OVC090=

0000029100
702
FTUS72 KWBC 101612 CCA
TAF COR
KGGG 101610Z 1012/1112 17017G24KT P6SM OVC009
     FM101700 18017G27KT 6SM -RA BR VCTS OVC009CB
     FM101900 19015G25KT 5SM -TSRA BR OVC009CB
     FM110300 25010KT 5SM -RA BR VCTS OVC015CB
     FM110700 28008KT P6SM SCT015 BKN250=

0000028400
703
FTUS73 KWBC 101612
TAF
TAF AMD KRFD 101605Z 1016/1112 16010KT 1/2SM -FZDZ FZFG VV001
     FM101900 17010KT 1/2SM -DZRA FZFG VV002
     FM102200 16011KT 1 1/2SM RA BR OVC005
     FM110200 20012KT 2SM -DZ BR VCSH OVC005
     FM110900 24012G18KT P6SM OVC012=

0000080700
704
FTUS73 KWBC 101612 AAA
TAF AMD
KAZO 101608Z 1016/1112 17004KT 2SM BR OVC003
      TEMPO 1016/1020 1/2SM FG
     FM102100 16008KT 2SM -RA BR OVC003
     FM110200 15012KT 1SM RA BR OVC003
     FM110600 18012KT 1/2SM -RA FG OVC004=
KBTL 101610Z 1016/1112 16006KT 2SM BR OVC002
      TEMPO 1016/1020 1/2SM FG
     FM102100 16008KT 2SM -RA BR OVC003
     FM110200 15012KT 1SM RA BR OVC003
     FM110600 18012KT 1/2SM -RA FG OVC004=
KSGF 101609Z 1016/1112 16015G23KT 1 1/2SM SHRA BR VCTS OVC003CB
      TEMPO 1016/1019 TSRA BR
     FM110000 21011KT P6SM BKN008
     FM110500 25010KT P6SM BKN250=
KSTL 101610Z 1016/1118 16015KT 3SM -RA BR VCTS OVC005CB
     FM110300 20013KT 4SM BR OVC007
     FM110700 25012KT 5SM BR OVC012
     FM111500 27013KT P6SM SCT015=

0000024000
705
FTUS74 KWBC 101612 AAA
TAF AMD
KEKO 101608Z 1016/1112 21009KT P6SM BKN040 OVC150
     FM101800 25010G20KT P6SM VCSH OVC040
     FM110100 24003KT P6SM BKN050=
KMSO 101609Z 1016/1112 17007KT P6SM VCSH BKN050 OVC090=

0000022000
706
FTUS31 KWBC 101612 AAA
TAF AMD
KSTL 101610Z 1016/1118 16015KT 3SM -RA BR VCTS OVC005CB
     FM110300 20013KT 4SM BR OVC007
     FM110700 25012KT 5SM BR OVC012
     FM111500 27013KT P6SM SCT015=

0000027800
707
FTUS42 KWBC 101612 AAA
TAF AMD
KSHV 101608Z 1016/1112 17010G18KT P6SM OVC004
     FM102000 18014G22KT P6SM -RA VCTS OVC009CB
      TEMPO 1022/1102 5SM -TSRA BR BKN015CB
     FM110200 25012KT 5SM -TSRA BR OVC009CB
     FM110700 28010KT 5SM BR BKN015=

0000078800
708
FTUS72 KWBC 101612 AAA
TAF AMD
KCLL 101610Z 1016/1112 16012KT P6SM VCSH OVC006
     FM101800 18011G17KT P6SM VCSH BKN009 OVC015
     FM102100 19012KT P6SM -SHRA BKN012 OVC020
     FM110200 21007KT P6SM VCSH SCT015 BKN250
     FM110600 21006KT P6SM OVC015
     FM110800 30005KT P6SM OVC250=
KGGG 101609Z 1016/1112 16010KT P6SM OVC009
     FM101700 18014G22KT 5SM -RA BR VCTS OVC009CB
     FM101900 19015G25KT 5SM -TSRA BR OVC015CB
     FM110300 25010KT 5SM -RA BR VCTS OVC015CB
     FM110700 28008KT P6SM SCT015 BKN250=
KSHV 101608Z 1016/1112 17010G18KT P6SM OVC004
     FM102000 18014G22KT P6SM -RA VCTS OVC009CB
      TEMPO 1022/1102 5SM -TSRA BR BKN015CB
     FM110200 25012KT 5SM -TSRA BR OVC009CB
     FM110700 28010KT 5SM BR BKN015=

0000011000
709
SAUS71 KWBC 101600 RRE
METAR
KSCH 101559Z 00000KT 7SM SCT023 SCT034 BKN048 M04/M06 A3040=

0000024600
710
FTCN31 CWAO 101600 AAA
TAF AMD CYZY 101613Z 1016/1103 17005KT P6SM FEW050 TEMPO 1016/1022
     3SM -SN BR BKN050
    FM102200 14007KT P6SM SCT050 TEMPO 1022/1103 BKN050
    RMK FCST BASED ON AUTO OBS. NXT FCST BY 101900Z=

0000012900
711
SAZS31 NSTU 101603
METAR NSTU 101557Z 34015G27KT 10SM SCT013 BKN040 OVC100 28/24 A2964
RMK SLP036 T02800241=

0000046700
712
SAVN42 KWBC 101600
METAR SVPC 101600Z NIL=
METAR SVPM 101600Z 19014KT 9999 SCT030 XX/XX Q1016=
METAR SVPR NIL=
METAR SVSA 101600Z /////KT 9999 FEW020 30/14 Q1015=
METAR SVSE NIL=
METAR SVSO 101600Z NIL=
METAR SVSP 101600Z 04015KT 9999 SCT070 XX/XX Q1015=
METAR SVST NIL=
METAR SVSZ 101600Z 00000KT 9999 BKN013 XX/XX Q1013=
METAR SVTM NIL=
METAR SVVA 101600Z 11006KT CAVOK 29/19 Q1016=
METAR SVVL 101600Z NIL=
METAR SVVP NIL=

0000010300
713
SPUS41 KWBC 101613
SPECI
KART 101609Z AUTO 19009G14KT 3SM -SN OVC017 01/M02 A3029=

0000010000
714
SPUS43 KWBC 101613
SPECI
KICT 101609Z 23013KT 6SM BR BKN007 OVC011 06/05 A2963=

0000009900
715
SPUS43 KWBC 101613
SPECI
KSUS 101609Z 15005KT 7SM VCTS -RA OVC010 04/02 A2991=

00000000