0000090900
469
SMSG01 GOOY 111200
AAXX 11124
61600 32960 60808 10235 20154 30155 40160 80002
  333 0//00 58000 86073=
61612 32960 00402 10233 20105 30152 40160
  333 0//00 59002=
61627 32960 30804 10244 20107 3//// 4//// 80009
  333 0//00 5//// 83173=
61630 32960 00204 10280 20128 30136 40155
  333 0//00 58008=
61641 32960 23613 10217 20154 30135 40168 80002
  333 0//00 58011 82073=
61666 32962 20404 10246 20112 30150 40159 80002
  333 0//00 58010 82073=
61679 32962 30408 10250 20139 30150 40158 80002
  333 0//00 58015 83073=
61687 32960 00608 10287 20098 30085 40142
  333 0//00 58014=
61695 32962 00410 10245 20101 30122 40148
  333 0//00 58006=
61697 32960 00210 10250 20117 30133 40148
  333 0//00 58011=
61698 32960 30604 10276 20108 30134 40145 80002
  333 0//00 58022 83073=
61699 33960 30606 10296 20129 39948 40137 80002
  333 0//00 58025 83073=
0000060600
470
SMIV01 DIAP 111200 RRA
AAXX 11124
65545 32456 40000 10322 20181 39696 40108 84200
  333 58005 84815 94919=
65557 31456 6//// 10285 20241 39883 40122 70144 86200
  333 58012 86813 94919=
65560 32460 6//// 10290 20242 39802 40108 86200
  333 58000 86815 94914=
65562 32460 5//// 10328 20256 3//// 4//// 85800
  333 5//// 82815 84616 94919=
65585 32458 4//// 10305 20261 30077 40114 84200
  333 58007 84813 94932=
65592 32458 6//// 10293 20240 30090 40112 83270
  333 58006 83813 85360 94918=
65599 31460 7//// 10286 20255 30035 40109 8327/
  333 58006 83815 87360=
0000011100
471
UANT99 KDDL 111224
ARP DAL415 4435N01851W 1223 F330 MS56 215/73 KT
N177DN QXT AOE 111224 F80A
0000016800
472
SIDL22 EDZW 110900 CCA
AAXX 11091
10578 41083 22413 11027 21034 38757 48450 58002 70241 81642
  333 21035 3/104 55307 20207 30147 81701 91117 91214=
0000011100
473
UANT01 CWAO 111224
ARP UAL125 5408N02637W 1224 F370 MS56 209/83 KT
N13138 DDL IG1 111224 F56A
0000011100
474
UANT01 CWAO 111224
ARP UAL993 5103N01658W 1224 F340 MS62 227/81 KT
N668UA DDL XXN 111224 F88A
0000035800
475
USIL01 BIRK 111200 RRB
TTAA 61111 04089
99997 01825 10019 00501 ///// ///// 92627 00950 11028
85295 06319 14021 70787 14764 19011 50524 34150 13019
40677 43559 11540 30867 51764 11562 25984 56769 12050
20126 53774 15538 15309 58574 18536 10563 60374 20058
88239 57968 12551 88153 58974 18534
77316 12063 41609
31313 48008 81112=
0000011000
476
UANT01 CWAO 111224
ARP UAL61 5307N02647W 1224 F330 MS58 185/67 KT
N69063 DDL XXN 111224 F48A
0000011000
477
UANT01 CWAO 111225
ARP UAL22 5146N04100W 1224 F350 MS61 307/50 KT
N17126 DDL IG1 111225 F64A
0000011000
478
UANT01 CWAO 111225
ARP AFR077 5601N03930W 1225 F380 MS57 259/30 KT
FGSPF DDL UAK 111225 F30A
0000011200
479
UANT01 CWAO 111225
ARP GTI8089 5401N01929W 1224 F350 MS66 221/87 KT
N640GT DDL IG1 111225 F23A
0000010300
480
SMIS42 LLBD 111200
AAXX 11124
40183 13/// /3206 10115 20060 39290 48550 57007 60001 =
0000005000
481
SMRH21 LDZM 111200 RRA
AAXX 11121=
0000151400
482
SMRH80 LDZM 111200
AAXX 11121
14216 11440 83401 10124 20110 30071 40221 58004 60001 71044 886// 333
70013 923// 924/6=
14219 11558 82403 10080 20028 39202 48516 58005 60001 71022 885// 333
70002=
14232 11665 82701 10104 20073 30070 40205 58012 60001 70324 885// 333
70000=
14234 11960 62801 10062 20054 39957 40206 58015 69911 72842 86030 333
70001=
14236 11815 52301 10081 20063 30002 40200 58014 60001 72844 81530 333
70000=
14244 11440 63301 10076 20072 30081 40211 58012 60001 7104/ 83670 333
70001=
14248 11310 81502 10059 20059 30030 40206 58014 60001 7284/ 886// 333
70000=
14253 11520 83501 10065 20057 30033 40208 57009 60001 71042 886// 333
70000=
14256 11960 22402 10112 20070 39892 40208 58009 60001 7024/ 80001 333
70000=
14280 12960 01902 10124 20064 30092 40200 58017 60001 333 70002=
14308 11565 83401 10109 20096 39866 40217 56007 60001 70224 8557/ 333
70000=
14321 12668 81304 10142 20093 30201 40225 58010 60001 885// 333 70000
92323 92437=
14382 11957 12302 10126 20071 30082 40200 57021 60001 7100/ 80001 333
70003=
14428 12470 71203 10134 20101 30216 40224 58008 60001 87800 333 70000
92312=
14441 12565 51803 10167 20098 30195 40219 57010 60001 85200 222//
00166 333 70000 92322=
14452 12598 41401 10144 20101 30002 40225 56006 60001 84500 333 70000
92301=
14454 12562 72101 10140 20104 30165 40224 58010 60001 87500 333 70000
92312=
14462 12570 50000 10145 20086 30227 40233 57014 60001 81250 333 70000
=
0000011000
483
UANT01 CWAO 111225
ARP TOM144 4901N02929W 1225 F370 MS48 334/46 KT
GTUIA QXT AOE 111225 L85A
0000011000
484
UANT01 CWAO 111225
ARP UAL28 5402N02000W 1225 F380 MS56 225/74 KT
N78004 DDL XXN 111225 F30A
0000010900
485
UANT01 CWAO 111225
ARP DAL67 5206N02642W 1225 F320 MS56 181/69 KT
N1602 QXT AOE 111225 F14A
0000097300
486
UKHU01 HABP 111200
TTBB  11128 12843
00004 06650 11947 03232 22932 02413 33921 02801 44833
00332 55796 02321 66746 05167 77740 05371 88732 05179
99728 05181 11723 05184 22698 06384 33675 05575 44658
06563 55636 07965 66620 09363 77564 15160 88546 16958
99537 17958 11510 20359 22447 28550 33444 28750 44421
30541 55394 33947 66242 60738 77237 61339 88220 60150
99200 59357 11190 60558 22186 61558 33180 61958 44176
59759 55170 56959 66160 55560 77141 56163 88138 57163
99124 58364 11112 59565 22108 58366
21212 00004 10001 11963 18507 22921 20504 33911 24506
44880 26506 55860 30506 66829 29014 77810 27512 88781
27517 99761 28014 11696 30518 22666 30527 33615 30522
44511 29022 55424 28524 66378 27525 77329 27022 88294
26519 99258 25522 11235 27027 22205 27036 33182 28029
44157 28520 55135 30517 66122 28524 77115 30521 88108
29019 99104 30021
31313 41708 81124
41414 755//
51515 11973 16006 22800 28016 33600 30521=
0000033700
487
USHU01 HABP 111200
TTAA  11121 12843
99004 06650 10001 00169 06450 11501 92803 02803 20004
85485 00230 30009 70021 06383 30518 50559 21559 28522
40719 33145 28524 30915 49539 26520 25031 59339 25522
20170 59357 27535 15351 55362 29520 10607 58367 29523
88237 61339 26527
77205 27036 41010
31313 41708 81124=
0000080400
488
UKFA01 EKMI 111200
TTBB 61118 06011
00994 04237 11889 03525 22627 22332 33573 27929 44468
41348 55447 41956 66425 44956 77370 45758 88345 48559
99304 49560 11292 48159 22254 49763 33245 47565 44235
47169 55231 46364 66228 46760 77212 49363 88199 48967
99184 50969 11175 49570 22161 50176 33154 50574 44146
49365 55131 53370 66125 53369 77116 57570 88110 56170
99104 57370 11102 55570
21212 11994 28024 22981 27523 33922 31034 44871 30040
55652 28540 66648 28540 77537 30528 88477 29026 99434
32017 11343 15501 22326 19510 33302 21014 44285 18516
55259 21511 66246 20516 77234 23020 88222 22013 99215
24016 11180 22524 22171 23525 33165 22528 44156 22534
55140 22026 66134 20025 77126 22526 88123 23028 99115
23545 11108 22540
31313 49908 81128
41414 883//=
00000000