0000047000
509
UKCN01 CWAO 111200
TTBB  61128 71816 00009 10156 11956 08356 22872 14529 33853
12544 44796 14941 55765 16710 66737 14956 77613 22321 88597
21556 99524 27948 11499 29558 22486 30556 33471 31763 44452
33560 55427 36956 66356 46759 77294 57750 88271 61946 99247
65756 11242 64556 22226 65756 33212 65558 44203 62162 55195
63564 66186 62568 77172 64370 88150 63173 99138 65772 11127
66372 22109 65373 33103 66773 44100 65773 31313 48008 81115=

0000025400
510
UGCN01 CWAO 111200
PPBB  61128 71816 90012 25011 26023 31022 90345 31517 31017
29520 90678 29530 29026 28536 909// 29544 91124 29554 29549
29057 916// 29058 9205/ 29075 28583 93045 29086 29597 29580
941// 28575 9501/ 28076 28086=

0000032800
511
USCN01 CWAO 111200
TTAA  61121 71816 99009 10156 25011 00103 09150 25521 92706
10750 31518 85351 12544 30018 70819 16339 29548 50529 29558
28562 40684 40756 29081 30874 56356 29085 25987 65350 29091
20123 62563 29582 15300 63373 28576 10546 65773 28086 88247
65756 29090 88138 65772 28580 77231 29597=

0000229700
512
SMRA16 RUHB 111200
AAXX 11121
25703 41696 83605 11245 21270 39950 40240 52008 77173 8351/=
25745 41698 60205 11157 21189 30076 40130 52005 73631 86500 333
91115=
25913 42999 01104 11188 21278 39962 40119 52003=
25956 42598 80404 11093 21155 30014 40020 53012 885//=
30074 11996 01401 11468 21494 30204 40459 57/// 60002 71000 333
11458=
31088 42999 23603 11213 21246 30126 40134 52015 82040=
31873 42997 02601 11207 21232 30103 40249 57010=
31909 42998 02904 11133 21251 30122 40205 57006 333 91111=
31960 82998 01001 11080 21205 39983 40228 58021=
31961 42998 01701 11118 21200 30185 40232 58018=
32053 42997 52503 11225 21265 30058 40111 52008 80002 333 91005
91109=
32061 41562 82105 11202 21228 30095 40137 51005 78582 889// 333 91007
91108=
32098 42998 43002 11292 21316 30125 40136 51005 80001 333 91002
91103=
32150 41596 70000 11156 21169 30107 40138 52010 78582 87900 333
91104=
32165 41598 53005 11081 21122 30098 40161 52007 72683 85900 333 91009
91109=
32215 41594 83412 11028 21048 39951 49980 52012 78583 889// 333 91018
91119=
32252 41598 81201 11107 21111 30015 40024 53027 60022 70282 889//=
32389 41496 82804 11107 21125 39985 40023 52009 78582 8697/ 333
83710=
32477 42998 80602 11154 21168 39963 49996 52012 80001=
32583 42999 60204 11058 21137 39951 49982 52009 81031=
32618 41598 50115 11020 21030 39875 49897 57015 73683 85800 333 91019
91120=
24856 12997 02701 11438 21456 30221 40406 52002 60002 333 11409=
24871 42997 70000 11450 21484 30186 40403 52005 80006=
24928 12999 00000 11466 21496 39989 40448 57008 60002 333 11432=
24933 12999 20000 11449 21478 30034 40414 52019 60002 80002 333
11370=
25017 42999 20101 11345 21356 30262 40286 54000 82010=
25121 42998 00000 11415 21443 30263 40281 52003=
30173 12999 00000 11486 21516 30171 40483 58003 60002 333 11429=
30198 NIL=
31005 11992 00000 11493 21522 30035 40477 58001 60002 74840 333
11467=
31011 12999 00000 11434 21469 30026 40448 53003 60002 333 11392=
31016 12999 40000 11488 21512 30104 40464 52005 60002 80006 333
11434=
31026 11997 82702 11337 21366 30125 40415 58003 69902 77172 83077 333
11336=
31041 NIL=
31062 41699 82303 11386 21420 39777 40333 52007 70272 85507 333
91110=
31102 NIL=
0000216500
513
SZNZ01 NZKL 111227
CREX++
T000103 A001 D01021 D06025++
-3683144 17478654 AUCT  2014 01 11 12 19 //// 11 07 00 01
04702 3227 04710 3227 04719 3228 04727 3228 04737 3229 04745 3229+
-4402404 -17636748 CHIT  2014 01 11 12 19 //// 11 07 00 01
05267 2068 05262 2061 05259 2056 05269 2063 05274 2066 05283 2072+
-4089929 17623168 CPIT  2014 01 11 12 19 //// 11 07 00 01
04263 2293 04281 2307 04294 2315 04284 2301 04289 2302 04303 2312+
-3618905 17548887 GBIT  2014 01 11 12 19 //// 11 07 00 01
05593 0012 05604 0017 05605 0013 05605 0007 05622 0019 05636 0027+
-3867541 17802288 GIST  2014 01 11 12 19 //// 11 07 00 01
04146 2726 04130 2705 04156 2726 04146 2711 04154 2714 04156 2712+
-4241288 17370277 KAIT  2014 01 11 12 19 //// 11 07 00 01
03844 2246 03844 2243 03850 2246 03845 2237 03848 2237 03852 2237+
-3755040 17815904 LOTT  2014 01 11 12 19 //// 11 07 00 01
03399 0195 03405 0196 03424 0209 03434 0214 03422 0196 03437 0206+
-3704657 17451175 MNKT  2014 01 11 12 19 //// 11 07 00 01
01772 -0161 01768 -0163 01778 -0151 01764 -0164 01772 -0154 01764 -0160+
-3947566 17692007 NAPT  2014 01 11 12 19 //// 11 07 00 01
03316 2045 03321 2045 03310 2030 03318 2033 03328 2038 03323 2029+
-3441483 17304870 NCPT  2014 01 11 12 19 //// 11 07 00 01
-04570 -8446 -04567 -8447 -04560 -8445 -04549 -8439 -04530 -8425 -04567 -8467+
-4581435 17062939 OTAT  2014 01 11 12 19 //// 11 07 00 01
05381 3486 05385 3489 05388 3490 05391 3492 05393 3493 05393 3493+
-2928002 -17789440 RBCT  2014 01 11 12 19 //// 11 07 00 01
05815 1969 05829 1980 05828 1975 05815 1958 05813 1953 05835 1971+
-2925114 -17790384 RFRT  2014 01 11 12 19 //// 11 07 00 01
02759 0166 02773 0176 02774 0173 02776 0171 02776 0167 02781 0168+
-4357010 17277383 SUMT  2014 01 11 12 19 //// 11 07 00 01
02686 1873 02704 1888 02729 1909 02723 1899 02703 1876 02718 1887+
-3764109 17618118 TAUT  2014 01 11 12 19 //// 11 07 00 01
04895 4052 04892 4044 04898 4045 04904 4045 04909 4045 04915 4046+
-4128448 17477985 WLGT  2014 01 11 12 19 //// 11 07 00 01
03548 2024 03551 2024 03547 2017 03542 2009 03545 2010 03548 2010++
7777
0000049800
514
SZOC40 AMMC 111227
DART 55012S 011122709


D$1I 01/11/2014 06:15:00 1534143 3272224 3272217 3272208 3272198  1* 32
D$1I 01/11/2014 07:15:00 1534143 3272185 3272171 3272155 3272138  1* 39
D$1I 01/11/2014 08:15:00 1534143 3272118 3272094 3272071 3272045  1* 34
D$1I 01/11/2014 09:15:00 1534143 3272019 3271994 3271966 3271935  1* 3E
D$1I 01/11/2014 10:15:00 1534143 3271910 3271883 3271856 3271829  1* 3C
D$1I 01/11/2014 11:15:00 1534143 3271807 3271786 3271767 3271752  1* 3E
0000012800
515
UPIN90 VANP 111200 RRA
PPAA 61111 43041
55392 20010 23010 30515 77999=
PPAA 61111 42361 55292 33513 34511 77999=
0000013700
516
WSAG31 SABE 111200
SAEF SIGMET 5 VALID 111200/111600 SABE-
SAEF EZEIZA FIR EMBD TS FCST N OF S3100 TOP FL360 MOV E NC =
0000009600
517
FCIN90 VARP 111200

TAF VARP 111200Z 1115/1124 VRB02KT 3000 HZ FEW025 SCT100 =
0000049800
518
SZIO41 AMMC 111227
DART 56003S 011122711


D$1I 01/11/2014 06:15:00 1434126 5662898 5662949 5663005 5663062  1* 36
D$1I 01/11/2014 07:15:00 1434126 5663121 5663192 5663244 5663296  1* 3C
D$1I 01/11/2014 08:15:00 1434126 5663346 5663389 5663429 5663467  1* 3D
D$1I 01/11/2014 09:15:00 1434126 5663499 5663527 5663548 5663561  1* 3A
D$1I 01/11/2014 10:15:00 1434126 5663570 5663573 5663567 5663558  1* 32
D$1I 01/11/2014 11:15:00 1434126 5663539 5663516 5663484 5663449  1* 30
0000024200
519
UGCN02 CWAO 111200
PPBB  61128 71907 90012 04505 08510 10011 90346 09016 07010
11505 90789 11004 32505 29510 91023 29518 30526 29035 9146/
30032 28036 92015 27544 27045 27556 9305/ 27069 26563 944//
27059 950// 27569=

0000039600
520
UKCN02 CWAO 111200
TTBB  61128 71907 00007 28131 11005 27550 22998 26115 33996
24910 44995 21509 55991 19944 66990 19956 77975 18759 88954
17157 99905 17361 11879 16564 22687 20568 33663 19583 44596
21981 55511 31769 66432 41157 77417 43157 88335 54534 99308
59144 11264 64956 22231 64946 33217 66950 44205 64159 55193
66560 66177 64964 77100 70568 31313 48008 81117=

0000031000
521
USCN02 CWAO 111200
TTAA  61121 71907 99007 28131 04505 00072 26725 06508 92654
17159 09511 85289 16366 07510 70737 19968 30009 50519 32967
28034 40672 44758 28048 30858 60346 27059 25970 64949 27562
20106 64760 27063 15281 66369 27061 10524 70568 27568 88264
64956 27563 77101 27569=

0000031000
522
UKCN02 CWAO 111200
TTBB  61128 71823 00969 06313 11796 13106 22785 12306 33775
09104 44757 09102 55571 22105 66556 22556 77537 23933 88522
25530 99406 38339 11369 41944 22329 48748 33287 56738 44222
67939 55207 69131 66199 66940 77190 67541 88165 64963 99100
69167 31313 48008 81117=

0000031000
523
USCN02 CWAO 111200
TTAA  61121 71823 99969 06313 16506 00061 ///// ///// 92672
07117 23013 85326 11102 23017 70819 11912 25528 50532 27932
26040 40689 38740 25563 30880 54143 25593 25995 62741 26114
20130 67338 26098 15304 65766 26581 10548 69167 27086 88207
69131 26605 77225 26132=

0000024800
524
UGCN02 CWAO 111200
PPBB  61128 71823 90023 16506 20521 18013 90456 22015 23020
26516 90789 25525 24524 26026 91024 26029 26526 25536 9156/
25537 26038 9205/ 26052 26077 93057 25602 26132 26099 942//
26578 9501/ 27086 27086=

0000013900
525
SMCN39 CWAO 111200 RRC
AAXX 11124
71979 15/// ///// 11073 21081 38213 49837 58063 60001
333 11033 21114 4/070 70000=

0000014500
526
SMCN06 CWAO 111200 RRA
AAXX 11124
71828 47/// /2307 11095 21109 39459 40103 57003 6///1 7//4/
333 11094 21105 4/023 7////=

0000039700
527
SMCN23 CWAO 111200 RRC
AAXX 11124
71334 15/// /3201 11338 21370 39694 40044 55008 60001
333 11181 21348 4/035 70002=
71343 15/// /1712 11002 21033 60001
333 10037 21059 70014=
71344 45/// /1318 11071 21082 6///1
333 10002 21084 7////=
71345 15/// /1917 10016 21042 60001
333 10038 21062 4/997 70000=
71348 15/// /0806 11055 21090 60001
333 11015 21164 70000=

0000011500
528
SMCN22 CWAO 111200 RRC
AAXX 11124
71224 15/// /2224 10018 21028 60001
333 10020 21045 70000=

00000000