0000060200
816
SAGR32 LGAT 101550
METAR LGAL 101550Z NIL=
METAR LGEL 101550Z 07004KT CAVOK 14/09 Q1017=
METAR LGIO 101550Z 30004KT 9999 FEW030 OVC170 10/06 Q1020=
METAR LGKV 101550Z 28004KT 9999 SCT020 BKN180 10/09 Q1017=
METAR LGMT 101550Z VRB02KT 9999 FEW020 11/07 Q1019=
METAR LGPZ 101550Z 00000KT 9999 FEW020 BKN040 13/10 Q1022 NOSIG=
METAR LGRX 101550Z 00000KT 9999 SCT035 13/09 Q1021 NOSIG=
METAR LGSK 101550Z 00000KT 9999 FEW018 BKN180 11/09 Q1017=
METAR LGSR 101550Z 25007KT 210V280 9999 SCT025 15/10 Q1019 NOSIG=
METAR LGZA 101550Z 00000KT 9999 SCT018 SCT080 14/11 Q1021=

0000009500
817
SAVN22 SVMI 101600
METAR SVMI 101600Z 02003KT 9999 FEW016 30/21 Q1016 NOSIG=

0000010200
818
SPCN47 CWAO 101555
SPECI CYWA 101555Z AUTO 15004KT 7SM SCT051 BKN061 M08/M10 A3024=

0000054000
819
SAGR33 LGAT 101550
METAR LGBL 101550Z 00000KT 9999 FEW020 SCT180 10/07 Q1017 NOSIG=
METAR LGHI 101550Z VRB01KT 9999 BKN016 12/10 Q1018=
METAR LGKC 101550Z NIL=
METAR LGKF 101550Z 00000KT 9999 SCT018 13/09 Q1021=
METAR LGKP 101550Z 31004KT 9999 FEW030 12/08 Q1020=
METAR LGKZ 101550Z 03004KT 290V040 9999 BKN070 BKN170 10/02 Q1017=
METAR LGMK 101550Z NIL=
METAR LGNX 101550Z NIL=
METAR LGPA 101550Z AUTO 19007KT //// // ////// 15/12 Q1019
      RE//=
METAR LGSO 101550Z VRB03KT 9999 FEW018 15/12 Q1018=

0000010400
820
SPUS41 KWBC 101555
SPECI
KINT 101551Z 03006KT 2SM -RA BR BKN003 OVC009 02/01 A3036=

0000011000
821
SPUS43 KWBC 101555
SPECI
KGFK 101551Z 18016KT 1 1/2SM -SN BR SCT034 OVC044 M06/M08 A2946=

0000010000
822
SPUS43 KWBC 101555
SPECI
KICT 101551Z 22010G16KT 2 1/2SM BR OVC002 06/05 A2964=

0000009600
823
SAQB31 LQSM 101600
METAR LQTZ 101600Z 09006KT 9999 FEW035 BKN055 08/07 Q1021=

0000010000
824
SAGR32 LGAT 101550 RRA
METAR LGAL 101550Z 27006KT 8000 SCT008 BKN015 09/07 Q1018=

0000010300
825
SAUK36 EGGY 101550 CCA
METAR COR EGSH 101550Z 20008KT 9999 FEW040 07/05 Q1013 NOSIG=

0000063800
826
FTAP32 FAPR 101500
TAF FALE 101600Z 1018/1124 20010KT 9999 FEW009 SCT015 OVC030
    TEMPO 1018/1103 5000 RA BKN009 OVC025 
    BECMG 1019/1021 26005KT FM110600 20008KT 9999 BKN025
    BECMG 1109/1111 14015KT PROB30 TEMPO 1112/1121 5000 RA BKN015
    TX25/1112ZTN21/1104Z=
TAF FBSK 101500Z 1018/1124 23013KT CAVOK BECMG
    1112/1114 FEW040CB=
TAF FWKI 101400Z 1018/1124 VRB02KT 9999 FEW///CB SCT025 BKN090 BECMG
     1106/1108 01010KT 9999 SCT020 BKN090 BECMG 1110/1112 FEW025CB
     BKN030 TEMPO 1112/1116 VRB10G25KT 2000 TSRA FEW018CB BKN020
     BKN080 BECMG 1118/1120 VRB02KT 9999 SCT025 BKN090=

0000023200
827
FTUS31 KWBC 101600 AAA
TAF AMD
KATL 101556Z 1016/1118 08008KT 2SM -RADZ BR OVC004
     FM110100 12008KT 1SM -RADZ BR OVC002
     FM110900 15008KT 1SM -RADZ BR OVC003
     FM111400 20009KT 2SM -SHRA OVC008=

0000015700
828
SAMX31 KWBC 101545 RRG
METAR
MMGL 101546Z 00000KT 10SM SKC 14/04 A3021 RMK CI=
MMPR 101545Z 01004KT 15SM BKN100 20/14 A2998 RMK 8/030=

0000010700
829
SANO38 ENMI 101550 RRA
METAR ENEK 101550Z 25024KT 9999 FEW015 BKN140 07/05 Q1005 W08/S4=

0000026600
830
FTUS43 KWBC 101600 AAA
TAF AMD
KMLI 101557Z 1016/1112 13006KT 3SM -DZ BR OVC006
     FM101700 14013KT 3SM -RA BR OVC006
     FM110000 17006KT 1/2SM -RA FG VV001
     FM110400 19006KT 2SM -RA BR OVC004
     FM111000 24012KT 3SM BR OVC006=

0000026200
831
FTUS71 KWBC 101600 AAA
TAF AMD
KELM 101559Z 1016/1112 VRB03KT 5SM BR BKN025 OVC040
      TEMPO 1016/1018 SCT025 OVC035
     FM101800 22006KT P6SM SCT015 BKN025
     FM110100 17008KT P6SM OVC015
     FM110500 17010KT 4SM -SHRA OVC012=

0000023200
832
FTUS72 KWBC 101600 AAA
TAF AMD
KATL 101556Z 1016/1118 08008KT 2SM -RADZ BR OVC004
     FM110100 12008KT 1SM -RADZ BR OVC002
     FM110900 15008KT 1SM -RADZ BR OVC003
     FM111400 20009KT 2SM -SHRA OVC008=

0000026600
833
FTUS73 KWBC 101600 AAA
TAF AMD
KMLI 101557Z 1016/1112 13006KT 3SM -DZ BR OVC006
     FM101700 14013KT 3SM -RA BR OVC006
     FM110000 17006KT 1/2SM -RA FG VV001
     FM110400 19006KT 2SM -RA BR OVC004
     FM111000 24012KT 3SM BR OVC006=

0000025100
834
FTUS75 KWBC 101600 AAA
TAF AMD
PANC 101558Z 1016/1118 VRB02KT 6SM -SN BR VCFG FEW001 OVC005
      TEMPO 1016/1020 3SM BR SCT005 OVC015
     FM102300 35003KT 6SM BR SCT005 BKN015
     FM110600 35005KT P6SM VCFG SCT010 BKN040=

0000010500
835
SARM31 LUKK 101600
METAR LUKK 101600Z 32005KT 9000 NSC 04/02 Q1010 R26/CLRD65
NOSIG=

00000000