0000022900
676
UXIN90 VANP 111200
TTAA 6112/ 42867 NO ASCENT AS PER DDGM ( UI ) INSTRUCTIONS=
PPAA 6112/ 42867 NO ASCENT DUE NO PB BALLOON= 
PPAA 61120 42675 NO ASCENT DUE TO NO GAS=
TTAA 6112/ 42361 NO ASCENT AS PER H.Q. ORDER=
0000008600
677
SAIN90 VAUD 111200
METAR VAUD 111200Z 05004KT 4000 HZ NSC 17/04 Q1018=
0000008300
678
SAIN90 VAAU 111200
METAR VAAU 111200Z 25004KT 6000 NSC 26/08 Q1014=
0000003900
679
UAIN31 VABB 111155
NIL=
0000007300
680
UPIN90 VIJP 111200
PPAA 61111 42328 55292 02512 03009=

0000009900
681
UGIN90 VIJP 111200
PPBB 61111 42328
90012 04507 02008 02513 9036/ 02513 03010=

0000014100
682
SAVN23 SVBC 101600
METAR SVBC 101600Z 36010KT 9999 FEW010 31/19 Q1015=
METAR SVMT 101600Z NIL=
METAR SVHG 101600Z NIL=

0000060200
683
SAMX31 KWBC 101545 RRE
METAR
MMAA 101543Z 00000KT 8SM SKC 27/22 A2994=
MMCZ 101544Z 11007KT 8SM SCT015TCU 25/22 A3007 RMK 8/200 SC AC=
MMMD 101545Z 09008KT 5SM OVC008 24/22 A3004 RMK 8/5// HZY
     BINOVC=
MMMX 101544Z 35004KT 5SM FEW020 15/03 A3032 NOSIG RMK 8/500 HZY
     CU=
MMMY 101546Z 00000KT 3SM HZ SCT010 17/14 A2993 RMK 8/600=
MMTM 101547Z 00000KT 5SM OVC020 21/17 A3001 RMK 8/5// BR HZ=
MMTP 101546Z 00000KT 10SM SKC 29/23 A2995=
MMUN 101544Z 14009KT 7SM SCT015 BKN080 28/23 A3007 RMK 8/130=
MMVR 101544Z 16003KT 7SM SCT070 22/17 A3001 RMK 8/050 HZY=

0000065100
684
SASN32 ESWI 101550
METAR ESKN 101550Z 34011KT 9999 BKN012 M03/M04 Q0999 R26/710166=
METAR ESOE 101550Z 31005KT 9999 BKN014 M02/M04 Q1000=
METAR ESOK 101550Z 19002KT 9999 BKN017 M02/M04 Q1000=
METAR ESOW 101550Z 35008KT 9999 BKN013 M03/M06 Q1000 R01/750184=
METAR ESSA 101550Z 33014KT 9999 OVC007 M02/M03 Q0997 R01L/19//71
R08/19//59 R01R/19//68 BECMG OVC011=
METAR ESSB 101550Z 31012KT 9999 BKN008 M02/M04 Q0997 R30/29//72=
METAR ESSD 101550Z AUTO 35006KT 9999 OVC016/// M06/M09 Q1000=
METAR ESSP 101550Z 31010KT 9999 BKN015 M02/M04 Q1000 R27/19//95=
METAR ESSV 101550Z 33017KT 9999 BKN012 00/M01 Q0997 R21/29//87=

0000064100
685
SASN33 ESWI 101550
METAR ESNG 101550Z NIL=
METAR COR ESNK 101550Z 33012KT 8000 -SN BKN019 BKN036 M09/M13 Q1002=
METAR ESNN 101550Z 34011KT 9999 SCT018 OVC026 M09/M12 Q1002
R16/75//63=
METAR ESNO 101550Z 35012KT 320V020 5000 -SN BKN024 BKN049 OVC062
M11/M14 Q1001=
METAR ESNQ 101550Z 36004KT 9999 OVC010 M16/M17 Q1010=
METAR ESNS 101550Z 35013KT 1700 SN VV010 M12/M13 Q1003=
METAR ESNU 101550Z 35015KT 7000 -SN OVC018 M10/M14 Q1001 R14/49//50=
METAR ESNZ 101550Z 05004KT 020V080 6000 -SN FEW012 OVC053 M14/M15
Q1001=
METAR ESUT 101550Z AUTO 10020G44KT 010V150 9999 BKN072/// OVC100///
M12/M18 Q1002=

0000022900
686
FTSN31 ESWI 101100 AAC
TAF AMD ESGG 101550Z 1015/1112 23005KT 9999 BKN015 TEMPO 1015/1019
BKN010 PROB40 1019/1024 4000 BR BKN004 BECMG 1100/1102 BKN006 TEMPO
1102/1108 4000 RA BKN004 BECMG 1108/1110 BKN020=

0000048000
687
SASN34 ESWI 101550
METAR ESCF 101550Z AUTO 32004KT 9999NDV OVC010/// M02/M03 Q1000=
METAR ESDF 101550Z 29005KT 9999 SCT021 04/01 Q1001=
METAR ESIB 101550Z AUTO 24008KT 9999NDV FEW011/// OVC015/// 01/M00 
Q1000=
METAR ESMV 101550Z NIL=
METAR ESPA 101550Z 02008KT 350V050 9000 -SN BKN022 M12/M15 Q1006=
METAR ESPE 101550Z AUTO 01010KT 7000NDV -SG FEW025/// OVC043/// 
M14/M17 Q1007=
METAR ESSL 101550Z 34008KT 9999 OVC010 M02/M04 Q1000 R29/19//95=

0000040600
688
SASN35 ESWI 101550
METAR ESGR 101550Z NIL=
METAR ESKM 101550Z NIL=
METAR ESNL 101550Z 35010KT 9999 -SG BKN024 OVC032 M14/M17 Q1004=
METAR ESNX 101550Z AUTO 02008KT 350V060 5000NDV IC FEW012///
BKN033/// OVC064/// M15/M17 Q1004=
METAR ESNY 101550Z NIL=
METAR ESSF 101550Z NIL=
METAR ESSK 101550Z NIL=
METAR ESUD 101550Z AUTO 36003KT 330V040 9999 OVC024/// M14/M17
Q1004=

0000016000
689
SMGO01 FOOL 111200
AAXX 11124
64570 11458 81804 10222 20213 39609 40105 6///1 79596 8692/
    333 0//52 58002 85613 83920 88460 94959 95839=
0000031900
690
SMCY01 LCLK 111200
AAXX 11124
17600 12570 52812 10180 20109 30219 40229 58010 60001 85201
  333 85830 92428=
17601 12682 52613 10186 20069 30189 40220 56015 60001 83501 91150
  333 55301 2//// 83647 84075=
17607 NIL=
17609 12580 32114 10187 20095 30216 40220 58018 60001 82802
  333 81830=
0000013000
691
SMBE01 TXKF 111202
AAXX 11124 78016 32564 40912 10171 20121 30307 40311 52002
83801 333 10188 20164 70000 =
/=
0000016500
692
SMDO01 TDPD 111200
AAXX 11124
78905 11478 71012 10265 20209 30167 40190 60042 703// 86840
    333 10278 20218 58006 70037 86817 83358 90999=
/=
0000261800
693
UDFR01 LFPW 111207
AMDAR 1111
DES EU0945 4927N 00350E 111152 F174 MS239 /// 289/038 TB0 S031
333 F174 VG001=
DES EU0945 4927N 00347E 111152 F170 MS229 /// 288/037 TB3 S031
333 F170 VG045=
UNS EU0945 4926N 00344E 111152 F160 MS202 /// 289/035 TB0 S031
333 F160 VG005=
UNS EU0945 4925N 00341E 111153 F147 MS167 /// 299/041 TB0 S031
333 F147 VG005=
DES EU0945 4924N 00338E 111153 F136 MS137 /// 300/037 TB1 S031
333 F136 VG013=
DES EU0945 4922N 00337E 111153 F124 MS117 /// 305/032 TB3 S031
333 F124 VG049=
DES EU0945 4920N 00335E 111154 F117 MS099 /// 307/032 TB0 S031
333 F117 VG001=
DES EU0945 4919N 00333E 111154 F113 MS084 /// 309/031 TB0 S031
333 F113 VG004=
DES EU0945 4917N 00331E 111154 F109 MS077 /// 302/026 TB0 S031
333 F109 VG002=
DES EU0945 4915N 00330E 111155 F106 MS069 /// 301/023 TB0 S031
333 F106 VG001=
DES EU0945 4914N 00328E 111155 F102 MS064 /// 299/020 TB1 S031
333 F102 VG011=
DES EU0945 4913N 00327E 111155 F098 MS054 /// 298/018 TB1 S031
333 F098 VG015=
DES EU0945 4911N 00325E 111156 F093 MS044 /// 283/015 TB1 S031
333 F093 VG025=
DES EU0945 4910N 00324E 111156 F088 MS044 /// 268/017 TB1 S031
333 F088 VG014=
DES EU0945 4909N 00322E 111156 F082 MS052 /// 277/017 TB0 S031
333 F082 VG004=
DES EU0945 4908N 00321E 111157 F076 MS042 /// 276/019 TB0 S031
333 F076 VG002=
UNS EU0945 4906N 00320E 111157 F071 MS032 /// 281/022 TB1 S031
333 F071 VG013=
DES EU0945 4905N 00318E 111157 F064 MS019 /// 288/021 TB0 S031
333 F064 VG007=
DES EU0945 4905N 00316E 111158 F058 MS004 /// 293/021 TB1 S031
333 F058 VG009=
DES EU0945 4904N 00314E 111158 F052 PS010 /// 293/019 TB0 S031
333 F052 VG001=
DES EU0945 4903N 00313E 111158 F045 PS007 /// 300/017 TB1 S031
333 F045 VG013=
DES EU0945 4902N 00311E 111159 F040 PS017 /// 304/016 TB1 S031
333 F040 VG019=
UNS EU0945 4902N 00309E 111159 F038 PS020 /// 310/015 TB0 S031
333 F038 VG002=
UNS EU0945 4901N 00307E 111159 F038 PS022 /// 310/017 TB0 S031
333 F038 VG004=
DES EU0945 4901N 00301E 111200 F038 PS022 /// 308/017 TB0 S031
333 F038 VG001=
DES EU0945 4901N 00259E 111201 F038 PS022 /// 308/016 TB0 S031
333 F038 VG001=
DES EU0945 4901N 00255E 111201 F038 PS025 /// 303/014 TB0 S031
333 F038 VG000=
DES EU0945 4901N 00253E 111202 F038 PS025 /// 306/015 TB1 S031
333 F038 VG028=
DES EU0945 4900N 00249E 111202 F031 PS040 /// 311/016 TB0 S031
333 F031 VG002=
DES EU0945 4900N 00244E 111203 F019 PS057 /// 286/014 TB1 S031
333 F019 VG033=
DES EU0945 4900N 00241E 111204 F013 PS067 /// 278/016 TB2 S031
333 F013 VG055=
0000011000
694
UANT99 KDDL 111205
ARP TOM144 4906N02542W 1205 F370 MS50 326/59 KT
GTUIA QXT AOE 111206 L80A
0000034300
695
SNVD15 KWNB 111000 RRQ
BBXX
42369 11101 99272 70903 46/// /1805 1//// 91000=
42375 11101 99285 70883 46/// /1712 1//// 91000 22200 10402 70008
555 11094 22103=
42392 11101 99272 70900 46/// ///// 1//// 91000 22200 10402 70009=
42887 11101 99282 70885 46/// /2111 10227 20207 91000 22200 10402
70008 555 11092 22100=
00000000