0000011200
956
SAAG41 SACO 101600
METAR SACO 101600Z  14010KT 9999 TS SCT025 SCT030
FEW040CB  25/18 Q1012=

0000011200
957
SACN61 CYZE 101600
METAR CYZE 101600Z AUTO 21011KT 6SM BR OVC009 M02/M03 A3009 RMK
 SLP200=

0000052900
958
SAVN26 SVMC 101600
METAR SVMC 101600Z /////KT 9999 FEW016 SCT070 32/24 Q1014=
METAR SVJC 101600Z 09019KT 9999 FEW013 31/19 Q1014=
METAR SVVG 101600Z 27003KT 9999 SCT013 SCT100 30/24 Q1012=
METAR SVPM 101600Z 19014KT 9999 SCT030 XX/XX Q1016=
METAR SVCR 101600Z 16012KT 9999 SCT030 XX/XX Q1015=
METAR SVSZ 101600Z 00000KT 9999 BKN013 XX/XX Q1013=
METAR SVSA 101600Z /////KT 9999 FEW020 30/14 Q1015=
METAR SVLF 101600Z 00000KT 9999 SCT030 XX/XX Q1014=
METAR SVMD 101600Z 16003KT CAVOK 24/13 Q1022=

0000010200
959
SASG20 GOOY 101600
METAR GOOY 101600Z 36016KT 9999 FEW010 SCT130 22/15 Q1012 NOSIG=

0000008900
960
SAJM31 MKJP 101600
METAR MKJP 101600Z 24005KT 9999 FEW024 29/21 Q1017=

0000058400
961
SABO41 SLLP 101600
METAR SLLP 101600Z 10009KT 040V140 9999 SCT016 FEW017CB BKN200 
14/05 Q1035=
METAR SLVR 101600Z 31018KT 5000 SHRA BKN022 28/21 Q1011=
METAR SLCB 101600Z 33004KT 9999 SCT027 25/10 Q1023=
METAR SLTJ 101600Z 00000KT 9999 NSC 28/14 Q1016=
METAR SLTR 101600Z 34006KT 9999 SCT017 BKN080 28/24 Q1011=
METAR SLSU 101600Z 23005KT 9999 FEW020 20/10 Q1028=
METAR SLCO 101600Z VRB02KT 9999 BKN015 BKN080 OVC200 27/24 
Q1012=
METAR SLPS 101600Z 06010KT 9999 SCT020 33/24 Q1009=
METAR SLET 101600Z 30010G21KT 9999 FEW012 BKN017 29/22 Q1010=

0000011200
962
SACN61 CYPQ 101600
METAR CYPQ 101600Z AUTO 00000KT 5SM BR OVC003 M07/M08 A3025 RMK
 SLP258=

0000011200
963
SACN61 CYBC 101600
METAR CYBC 101600Z AUTO 26014G20KT 9SM OVC130 M09/M12 A3019 RMK
 SLP226=

0000005900
964
FTID31 EGGY 101500
TAF WIDD 101500Z NIL=

0000009600
965
SAVG31 TVSV 101600
METAR TVSV 101600Z 09014KT 9999 BKN017 SCT038 28/22 Q1016=

0000083800
966
SATU31 LTAA 101550
METAR COR LTAC 101550Z 20003KT 150V240 2900 -SG BR OVC009 M03/M03
 Q1022 NOSIG=
METAR LTAF 101550Z 23004KT 5000 HZ NSC 11/00 Q1019 NOSIG=
METAR LTAI 101550Z 36002KT 9999 FEW030 10/08 Q1020 NOSIG=
METAR LTAJ 101550Z 36002KT CAVOK 05/M05 Q1019 NOSIG=
METAR LTAZ 101550Z 06005KT 8000 BKN011 M01/M02 Q1022=
METAR LTBA 101550Z 21009KT CAVOK 10/05 Q1016 NOSIG=
METAR LTBJ 101550Z 11006KT 7000 NSC 08/04 Q1019 NOSIG=
METAR LTBS 101550Z 10002KT CAVOK 11/08 Q1020 NOSIG=
METAR LTCG 101550Z 15004KT 080V220 CAVOK 07/03 Q1018 NOSIG=
METAR LTCS 101550Z 33003KT 310V010 CAVOK 08/M08 Q1021=
METAR LTFC 101550Z 00000KT 0300 R05/0325U R23/0325U FZFG VV001
 M01/M01 Q1021=
METAR LTFE 101550Z 22004KT 9999 FEW035 BKN200 12/08 Q1020 NOSIG=
METAR LTFJ 101550Z 20003KT CAVOK 09/01 Q1017 NOSIG=

0000064900
967
SATU32 LTAA 101550
METAR LTAG 101550Z 25007KT CAVOK 12/01 Q1019 NOSIG=
METAR LTAN 101550Z 12001KT 3800 BR BKN009 M02/M03 Q1021 NOSIG=
METAR LTAP 101550Z 24009KT CAVOK M01/M04 Q1019 NOSIG=
METAR LTAT 101550Z 23003KT 190V270 CAVOK M04/M07 Q1021 NOSIG=
METAR LTAU 101550Z 25005KT 3800 BR SCT011 M03/M04 Q1022 NOSIG=
METAR LTBF 101550Z 00000KT 4000 BR NSC 03/03 Q1019 BECMG 1200=
METAR LTBU 101550Z 25006KT 0100 R05/0100N R23/0100N FG VV000 05/05
 Q1017=
METAR LTCC 101550Z 23005KT CAVOK 03/M04 Q1020 NOSIG=
METAR LTCE 101550Z 00000KT 2800 BR NSC M18/M20 Q1021 NOSIG=
METAR LTCJ 101550Z VRB01KT CAVOK 03/M01 Q1020=

0000021600
968
FTLB31 OLBA 101600
TAF OLBA 101600Z 1018/1124 VRB06KT 8000 BKN080 BECMG 1109/1112
    20008KT SCT080 BECMG 1118/1121 18015KT 160V220 6000 BKN026 TEMPO
    1018/1106 -RA TEMPO 1115/1124 4000 BR=

0000059600
969
SATU33 LTAA 101550
METAR LTAR 101550Z 17005KT CAVOK M03/M07 Q1020=
METAR LTAY 101550Z 00000KT CAVOK 04/M02 Q1020=
METAR LTBR 101550Z 08014KT CAVOK 05/M02 Q1019 NOSIG=
METAR LTBY 101550Z 10010KT 6000 OVC009 M01/M03 Q1022=
METAR LTCA 101550Z 26002KT CAVOK M03/M07 Q1022 NOSIG=
METAR LTCD 101550Z 00000KT CAVOK M05/M10 Q1022 NOSIG=
METAR LTCF 101550Z 32001KT CAVOK M16/M18 Q1022=
METAR LTCI 101550Z 00000KT 4000 BR FEW040 BKN100 M06/M07 Q1020 BECMG
 TL1650 8000=
METAR LTDA 101550Z 33007KT CAVOK 09/01 Q1020=
METAR LTFH 101550Z 11006KT CAVOK 07/03 Q1016 NOSIG=

0000060900
970
SATU34 LTAA 101550
METAR LTAL 101550Z NIL=
METAR LTAS 101550Z NIL=
METAR LTAW 101550Z NIL=
METAR LTBD 101550Z NIL=
METAR LTBH 101550Z NIL=
METAR LTBO 101550Z NIL=
METAR LTCK 101550Z NIL=
METAR LTCL 101550Z NIL=
METAR LTCM 101550Z NIL=
METAR LTCN 101550Z NIL=
METAR LTCO 101550Z 07002KT 2000 BR NSC M17/M19 Q1023=
METAR LTCP 101550Z 00000KT CAVOK 08/M02 Q1019=
METAR LTCR 101550Z NIL=
METAR LTCT 101550Z NIL=
METAR LTCU 101550Z NIL=
METAR LTCV 101550Z NIL=
METAR LTFD 101550Z 16004KT 7000 NSC 09/03 Q1019=
METAR LTFG 101550Z 02003KT 9999 FEW035 13/08 Q1020=

0000008900
971
SATU35 LTAA 101550
METAR LCEN 101550Z 01003KT CAVOK 11/05 Q1020 NOSIG=

0000105600
972
SAPR76 SPIM 101600
METAR SPCL 101600Z 01008KT 9999 SCT020 BKN070 28/23 Q1012 RMK BIRD
HAZARD RWY 02/20 PP000=
METAR SPGM 101600Z /////KT 1000 +RA OVC010 22/21 Q1015
RMK PP020=
METAR SPHO 101600Z 07005KT 9999 SCT040 BKN110 19/11 Q1023 RMK PP000=
METAR SPHY 101600Z 36007KT 8000 SCT012TCU BKN040 14/10 Q1032  RMK
PP000=
METAR SPJI 101600Z 00000KT 9999 BKN030 30/24 Q1020 RMK PP000=
METAR SPJL 101600Z 17005KT 9999 SCT010 SCT100 14/06 Q1036 RMK PP000=
METAR SPJR 101600Z 12006KT 9999 SCT030 19/11 Q1027
RMK PP000=
METAR SPLO 101600Z 17007KT CAVOK 24/20 Q1009 RMK PP000=
METAR COR SPME 101600Z 35005KT 9999 FEW018 28/22 Q10107
RMK BIRD HAZARD RWY 32/14 PP000=
METAR SPMS 101600Z /////KT 8000 BKN013 26/23 Q1013 RMK
BIRD HAZARD 09/27 PP000=
METAR SPST 101600Z 17004KT 9999 FEW025 BKN080 29/23 Q1011 RMK BIRD
HAZARD RWY 17/35 PP000=
METAR SPTU 101600Z 33006KT 7000 BKN007 BKN020 28/24 Q1010 RMK
BIRD HAZARD RWY 01/19 PP000=
METAR SPYL 101600Z 15016KT CAVOK 29/21 Q1011 RMK BIRD HAZARD RWY
17/35 PP000=

0000064500
973
SAPR82 SPIM 101600
METAR SPHI 101600Z 20007KT 160V220 9999 BKN040 26/20 Q1012
RMK PP000=
METAR SPIM 101600Z 19009KT CAVOK 24/19 Q1012 NOSIG RMK PP000=
METAR SPQT 101600Z 10003KT 9999 SCT017 BKN100 28/23 Q1011 NOSIG
RMK PP000=
METAR SPQU 101600Z 27009KT 9999 SCT025 18/09 Q1024
RMK PP000=
METAR SPRU 101600Z 16008KT 130V190 9000 BKN010 22/20 Q1012 RMK BR
PP000=
METAR SPSO 101600Z /////KT CAVOK 24/19 Q1011 RMK BKN230 BIRD 
HAZARD RWY 22/04 PP000=
METAR SPTN 101600Z 24006KT 170V250 CAVOK 27/15 Q1009 RMK PP000=
METAR SPZO 101600Z VRB04KT 9999 VCSH FEW040TCU SCT050 BKN100 17/06
Q1029 NOSIG RMK PP000=

0000028700
974
SAEQ01 SEQU 101600
METAR SEQM 101600Z 35004KT  9999 SCT020 BKN070 18/12 Q1025 RMK A3028 
    NOSIG=
METAR SEGU 101600Z 19005KT 9999 FEW023 BKN100 28/20 Q1011 RMK 
A2985 NOSIG=
METAR SEMT 101600Z NIL=
METAR SELT 101600Z 10006KT 9999 BKN030 SCT100 17/11 Q1029=

0000011300
975
SACN61 CYNA 101600
METAR CYNA 101600Z AUTO 31008KT 6SM -SN OVC013 M12/M14 A3012 RMK
 SLP200=

00000000