0000280600
776
SMCN35 CWAO 111200
AAXX 11124
71550 15/// /2513 11078 21095 39647 40025 52008 60001
333 11062 21093 4/018 70000=
71551 15/// /2404 11120 21134 39390 40063 58009 60001
333 11033 21129 4/019 70008=
71552 45/// /3006 11094 21105 6///1
333 11045 21152 7////=
71553 15/// /2703 11110 21121 39373 40047 53005 60001
333 11075 21142 4/013 70000=
71554 15/// /1706 11037 21061 30165 40171 58031 60001
333 11058 21078 70000=
71555 15/// /1816 10013 21051 38401 49934 58064 60001
333 10026 21042 70000=
71556 15/// /2604 11157 21172 39444 40062 58002 60001
333 11077 21157 70005=
71557 45/// /0602 10007 20005 6///1
333 10070 20007 7////=
71558 15/// ///// 11081 21114 30113 40151 53006 60001
333 11089 21101 70000=
71559 15/// /3008 11114 21129 39361 40072 58003 60001
333 11026 21116 4/008 70000=
71560 15/// /3203 11073 21084 39723 40028 53009 60001
333 11032 21100 4/023 70000=
71564 15/// /0303 11081 21098 39651 40022 53002 60001
333 10004 21087 4/015 70005=
71565 NIL=
71566 NIL=
71567 NIL=
71568 45/// /1405 10038 20024 39855 49867 56014 6///1
333 10070 20007 7////=
71569 15/// /2609 11151 21167 39341 40054 58005 60001
333 11064 21151 4/013 70002=
71570 15/// /2903 11108 21126 39702 40017 53014 60001
333 11041 21108 4/030 70032=
71571 NIL=
71572 15/// /0602 11208 21228 39771 40008 58001 60001
333 11122 21211 4/051 70041=
71573 17/// /1908 10073 20064 39709 49986 57034 60071 7//4/
333 10040 20020 4/001 70119=
71574 13974 82701 11181 21208 30144 40222 58005 60001 80007
333 11094 21208 43040 70000=
71575 15/// /3103 11230 21258 39990 40057 51017 60001
333 11160 21246 70000=
71576 NIL=
71577 45/// ///// 11080 21087 6///1
333 11048 21110 7////=
71578 15/// /0606 60001
333 70000=
71579 15/// /3204 11076 21087 39731 40016 53011 60001
333 11039 21095 70000=
71580 11566 61508 11323 21355 39952 49990 56002 69901 77177
86530 333 11309 21362 44017 70002 90983=
71581 17/// /1402 10012 20007 39519 49997 56043 60081 7//4/
333 10002 4/052 70078=
71582 17562 82503 10046 20031 39788 49840 50001 60171 7614/
333 10050 20031 70318=
71584 15966 63605 11100 21121 30134 40183 50001 60001
333 11077 21110 70000=
71585 15/// /0905 11143 21155 60001
333 11110 21210 4/040 70002=
71586 15/// /2802 11143 21157 39551 40021 58003 60001
333 11052 21144 4/051 70005=
71587 17659 83005 11089 21098 39607 49967 53001 60001 710//
333 11068 21097 70000=
71588 NIL=
71589 NIL=
71590 15/// /0801 11131 21151 39995 40194 58029 60001
333 11061 21191 4/039 70000=
71592 NIL=
71593 NIL=
71597 17736 81913 11275 21304 39903 49967 58020 60001 771//
333 11313 21340 70000=
71598 15/// /2204 11122 21152 30215 40222 58003 60001
333 11095 21166 4/034 70009=
71599 NIL=

0000243600
777
SMCN20 CWAO 111200
AAXX 11124
71001 17540 83008 11158 21171 38956 49937 56007 60001 771//
333 11153 21229 70000=
71002 17666 82203 11100 21124 39577 40130 58001 60001 771//
333 11108 21121 70000=
71003 17466 81504 11061 21077 39683 40067 58019 60001 771//
333 11071 21074 70000=
71005 15/// ///// 11145 21153 60001
333 11038 21152 70000=
71006 NIL=
71007 NIL=
71008 NIL=
71009 15/// /1516 11056 21067 60001
333 11022 21154 70000=
71010 NIL=
71011 NIL=
71012 NIL=
71013 NIL=
71014 NIL=
71015 NIL=
71016 NIL=
71017 NIL=
71018 15/// /1407 11336 21371 39835 49925 51015 60001
333 11268 21346 4/005 70002=
71019 NIL=
71020 NIL=
71021 NIL=
71022 17466 81508 10031 20022 39749 49792 53011 60061 70044
333 10051 20002 70075=
71023 15264 82304 11102 21111 39230 40003 57022 60001
333 11043 21110 70005=
71024 15/// /0906 11191 21208 60001
333 11144 21225 4/997 70006=
71026 15/// /1907 11009 21030 39153 40003 58056 60001
333 10026 21126 4/009 70000=
71027 15/// /2505 11006 21056 30218 40231 53002 60001
333 11012 21038 4/075 70000=
71028 17/// /1407 11005 21007 38835 49841 56020 60041 7//4/
333 10031 21017 4/021 70080=
71029 15/// /1705 11364 21402 39873 49914 58009 60001
333 11251 21389 4/013 70004=
71030 15/// /1602 10014 20008 30127 40225 58026 60001
333 10010 21010 4/002 70000=
71032 17/// /0302 10013 20005 39104 49910 56035 69971 7//4/
333 10058 21011 4/009 70007=
71033 15/// /2707 11174 21195 39373 40017 56006 60001
333 11119 21179 4/027 70015=
71035 NIL=
71036 15866 12615 11075 21091 39647 40025 52008 60001
333 11061 21090 70000=
71038 15/// /0000 11164 21180 30163 40219 58020 60001
333 11035 21166 4/036 70000=
71039 17/// /3005 11166 21184 39270 49942 58009 69921 7//4/
333 11114 21189 4/050 70010=
71040 45/// /0604 11062 21079 39919 40123 58048 6///1
333 11065 21113 7////=
71041 15466 82104 10007 20000 30106 40251 58001 60001
333 11007 21038 70000=
71042 17/// /2008 10093 20089 39913 49917 55022 60321 7//4/
333 10086 20052 70504=
71044 NIL=
71046 45/// /2515 11238 30026 40044 58023 6///1
333 11214 21267 7////=
71047 15/// ///// 11102 21120 60001
333 11013 21130 70000=
71048 NIL=
71049 NIL=
71060 15/// /0101 11079 21111 38383 49895 58058 60001
333 10034 21083 4/053 7////=
71063 15/// /0707 11021 21022 39951 40050 56065 60001
333 11046 21056 4/034 70004=

0000136900
778
SMCN30 CWAO 111200
AAXX 11124
71051 NIL=
71055 NIL=
71056 NIL=
71057 NIL=
71059 45/// ///// 11321 39859 49953 58007 6///1
333 11236 21328 7////=
71061 15/// /0906 11059 21089 39156 49932 58055 60001
333 10005 21125 4/045 70000=
71062 17/// /1312 11036 21047 38849 49920 58068 69981 7//4/
333 10007 21095 4/057 70008=
71064 45/// /3016 11354 39714 49938 58002 6///1
333 11293 21354 7////=
71065 NIL=
71067 NIL=
71070 NIL=
71072 17556 82705 11040 21046 39709 49954 57012 60001 710//
333 11028 21048 70000=
71073 NIL=
71074 45/// /0000 11314 21344 39789 49868 6///1
333 21345 4/028 7////=
71075 15/// /2504 11214 21242 39385 40012 58009 60001
333 11173 21280 4/040 70000=
71078 15966 83101 11254 21283 39572 40032 51003 60001
333 70003=
71084 45/// /2213 11255 39889 49938 56018 6///1
333 11284 21318 7////=
71085 15966 02619 10017 21026 38607 49962 58050 60001
333 10042 20006 70000=
71087 NIL=
71088 45/// /3305 11299 6///1
333 11220 21301 7////=
71089 NIL=
71096 45/// /0000 11218 39229 49974 51010 6///1
333 11191 21231 7////=
71097 459// 03008 11204 39537 40024 51010 6///1
333 11172 21220 7////=
71098 17/// /2110 10034 20033 39464 49982 56036 60101 7//4/
333 10011 21003 4/021 70435=
71099 17466 80808 11125 21142 39985 40006 57020 60001 771//
333 11116 21197 70000=

0000155800
779
SMCN39 CWAO 111200
AAXX 11124
71950 17528 81502 11038 21039 39201 49818 60001 771//=
71952 17/// /0000 11043 21048 38980 49817 56027 60041 7//4/
333 11039 21096 4/047 70055=
71954 NIL=
71956 17/// /2013 10021 20018 39715 49943 56031 60101 7//4/
333 10020 20003 4/050 70198=
71959 NIL=
71960 45/// /2717 11283 39867 40006 58013 6///1
333 11229 21344 7////=
71962 17/// /3008 11033 21042 39557 49978 53006 69921 7//4/
333 11034 21048 4/024 70009=
71963 NIL=
71965 13656 81301 11224 21253 39337 49977 58011 69941
333 11126 21258 70014=
71967 17/// ///// 10012 20005 30001 40108 57065 60011 7//4/
333 11027 21048 4/035 70014=
71970 15/// /1805 11102 21111 39426 40016 58023 60001
333 11037 21120 4/020 70000=
71971 17/// /1602 11235 21254 39888 49934 51011 69921 7//4/
333 11102 21244 4/008 70048=
71972 45/// /2728 39569 51011 6///1
333 7////=
71973 15/// /2311 11057 21082 30011 40203 55000 60001
333 11049 21072 70000=
71974 NIL=
71975 45/// /2728 11220 39234 49975 53009 6///1
333 11187 21220 7////=
71976 NIL=
71977 NIL=
71978 NIL=
71979 NIL=
71980 NIL=
71981 NIL=
71982 NIL=
71983 NIL=
71984 15/// /2613 11305 21335 39978 49987 58009 60001
333 11226 21321 70005=
71985 45/// /2717 11258 21285 30005 40011 58017 6///1
333 11213 21295 7////=
71986 NIL=
71987 15/// /2207 11071 21088 30211 40221 58009 60001
333 11058 21083 70000=
71988 NIL=
71989 NIL=
71990 NIL=
71999 17/// ///// 10003 20002 39591 49878 57044 60081 7//4/
333 10049 20003 70086=

0000207700
780
SMCN36 CWAO 111200
AAXX 11124
71660 17/// /1308 10000 21006 38929 40006 56037 69941 7//4/
333 10054 21016 4/017 70004=
71663 15/// /2105 11098 21114 39236 40019 58027 60001
333 11053 21127 4/032 70000=
71664 15966 61407 11051 21068 39128 49946 58057 60001
333 10002 21077 70000=
71665 NIL=
71666 NIL=
71667 17/// /2604 11038 21044 39707 49952 57012 69931 7//4/
333 11029 21045 4/027 70005=
71668 15/// /3102 11136 21147 30179 40224 58024 60001
333 11019 21139 4/027 70004=
71669 NIL=
71670 15/// ///// 11120 60001
333 4/063 70000=
71671 NIL=
71672 45/// /1102 10030 20030 39743 40005 58047 6///1
333 10013 20001 4/032 7////=
71673 NIL=
71674 NIL=
71675 17528 80603 11084 21095 39676 49955 58013 69981 7714/
333 11071 21084 70013=
71678 17666 83403 11090 21098 39611 49957 57006 60001 771//
333 11069 21094 70000=
71679 17/// /0702 11037 21042 38817 49806 56016 60041 7//4/
333 10006 21038 4/011 70092=
71680 NIL=
71681 45/// /0000 11001 21003 6///1
333 11000 21017 7////=
71682 NIL=
71683 NIL=
71684 17264 81414 10002 20001 39659 49957 56057 60021 76144
333 11021 21029 70018=
71685 17362 81512 10008 20001 39424 49955 56060 60061 77144
333 10011 20002 70095=
71686 15966 60605 11151 21159 38924 49871 57022 60001
333 11042 21155 70000=
71687 17/// ///// 10001 20001 39107 49869 56047 60281 7//4/
333 10024 20000 4/032 70352=
71688 17/// /1104 10005 20004 38860 49867 56043 60161 7//4/
333 10014 21010 4/089 70331=
71689 15466 80906 11143 21159 39537 40000 56023 60001
333 11111 21196 70000=
71690 NIL=
71691 15366 81302 11055 21070 30146 40174 58018 60001
333 11062 21109 70000=
71692 NIL=
71693 NIL=
71694 17/// /1504 10032 20026 39639 49998 57035 60151 7//4/
333 10017 21004 4/069 70216=
71695 NIL=
71696 15/// /2905 11252 21277 30004 40042 56015 60001
333 11193 21285 4/002 70000=
71697 17548 81007 10032 20028 39833 40003 58044 60061 7614/
333 10028 20015 70058=
71699 15/// /0404 11015 30217 40225 58024 60001
333 10009 21047 4/010 70000=

0000256400
781
SMCN22 CWAO 111200
AAXX 11124
71201 17/// ///// 10096 20080 60331 7//4/
333 10074 20060 70492=
71202 15/// ///// 11071 21087 60001
333 11012 21126 70000=
71203 17648 83606 10003 20000 39433 49945 58042 60001 761//
333 10038 20001 70000=
71204 15/// /1605 11129 21141 39072 40069 58016 60001
333 11015 21129 4/030 70000=
71208 17/// /0602 11084 21093 39680 49958 58013 60021 7//4/
333 11071 21084 4/023 70031=
71209 45/// /2327 10096 20076 6///1
333 10093 20053 7////=
71211 47/// /1928 10098 20077 39883 49889 56039 6///1 7//4/
333 10071 20036 7////=
71212 15/// /0000 11079 21081 39321 40142 58041 60001
333 11081 21098 4/056 70003=
71213 17/// /1403 10003 20003 39657 49954 56057 69971 7//4/
333 11020 21028 4/035 70007=
71214 NIL=
71215 17/// /1405 10054 20033 39626 49964 58049 60021 7//4/
333 10050 20006 4/001 70024=
71216 NIL=
71217 NIL=
71218 17/// /1002 10017 20013 39520 49941 56050 60021 7//4/
333 10022 20002 70067=
71219 45/// /1521 10050 20022 39780 49790 53014 6///1
333 10060 20016 7////=
71220 45/// /1620 10044 6///1
333 10057 20011 7////=
71221 NIL=
71222 15/// /0603 11150 21163 38924 49886 57023 60001
333 11044 21157 70002=
71223 NIL=
71224 NIL=
71225 NIL=
71226 NIL=
71227 NIL=
71228 NIL=
71229 NIL=
71230 17/// /0908 11040 21052 39002 49880 58058 60011 7//4/
333 21057 4/046 7////=
71231 15/// /1614 11032 21059 60001
333 10043 21105 70000=
71232 15/// /2512 10002 21047 38429 49892 58068 60001
333 10018 21016 70000=
71233 17/// /1411 11032 21038 69961 7//4/
333 10005 21099 70006=
71234 15/// /1613 10012 21024 38776 49948 57065 60001
333 10044 21089 4/005 70000=
71235 15/// /1602 11061 21080 60001
333 10025 21067 70000=
71236 45/// /2910 10022 21026 6///1
333 10041 20006 7////=
71237 45/// /1513 11075 21089 39137 49956 58070 6///1
333 11060 21129 7////=
71238 15/// /1506 11051 21080 60001
333 10014 21112 4/108 70000=
71239 15/// /2207 11083 21095 39568 40038 53002 60001
333 11027 21098 4/011 70000=
71240 15/// /1413 11072 21097 39168 40021 58046 60001
333 11047 21085 70000=
71242 15/// /1412 11045 21060 60001
333 11022 21120 70004=
71243 NIL=
71244 15/// /2013 10010 21042 38778 49988 58047 60001
333 10033 21107 4/007 70000=
71245 45/// /0000 11054 21081 6///1
333 11080 21098 7////=
71246 NIL=
71247 15766 81807 11009 21042 39159 40010 58056 60001
333 10021 21116 70000=
71248 15/// /1304 11078 21104 38638 49935 58060 60001
333 11025 21170 70000=
71249 NIL=

0000252600
782
SMCN37 CWAO 111200
AAXX 11124
71744 NIL=
71750 NIL=
71751 45/// /2809 11034 21043 39684 49941 56014 6///1
333 11012 21035 7////=
71752 17/// /1808 10065 20056 39788 40002 57037 60021 7//4/
333 10051 20016 4/009 70031=
71753 15/// /0401 10008 20001 30213 40243 58009 60001
333 10007 21008 4/006 70000=
71754 15/// /1702 11168 21191 39370 40049 58022 60001
333 11072 21186 4/008 70018=
71756 17/// /3402 11000 20000 38795 49859 56046 60241 7//4/
333 10009 21010 4/062 70313=
71758 15/// /2312 10004 21020 30165 40244 51001 60001
333 11011 21074 4/028 70000=
71760 NIL=
71761 NIL=
71762 NIL=
71763 NIL=
71765 17/// /1207 10028 20022 39622 49889 56040 60121 7//4/
333 10077 20010 70117=
71766 17/// /1603 10076 20052 39822 49891 56001 60201 7//4/
333 10075 20046 70344=
71767 NIL=
71768 15/// /1616 10047 20014 39405 49941 58036 60001
333 10034 20006 70000=
71769 17/// /1704 10084 20067 39876 49891 56008 60181 7//4/
333 10078 20061 70326=
71770 17/// /1509 10028 20016 39261 40025 58043 60041 7//4/
333 10068 20012 4/006 70043=
71771 NIL=
71772 17/// /1914 10094 20065 39890 49896 55013 60181 7//4/
333 10077 20063 70300=
71773 15/// /3302 11123 21132 39045 49901 56012 60001
333 11087 21148 4/045 70000=
71774 17/// ///// 10050 20039 39486 49915 55001 60301 7//4/
333 10065 20041 70520=
71775 17/// /2009 10099 20083 39909 49915 56030 60411 7//4/
333 10076 20037 70569=
71776 17/// /0000 10003 21001 39367 40002 58049 60031 7//4/
333 10034 20002 4/013 70061=
71777 NIL=
71778 45/// /2530 10079 20064 39898 49902 53007 6///1
333 10088 20069 7////=
71779 15/// /1405 10007 21007 39186 49831 56055 60001
333 10004 21037 4/060 70020=
71780 17/// /2623 10079 20061 39914 49941 53013 60171 7//4/
333 10086 20063 70430=
71781 45/// /1508 10092 20068 39861 49885 53009 6///1
333 10081 20062 7////=
71782 15/// /1709 10006 21007 38699 40005 58035 60001
333 10031 20002 4/021 70000=
71783 17/// /2412 10078 20057 39864 49936 53006 60131 7//4/
333 10085 20068 70248=
71784 17/// /2102 10082 20075 39716 49918 56028 60351 7//4/
333 10067 20046 70560=
71785 17/// /2107 10098 20081 39919 49935 55015 60231 7//4/
333 10094 20058 70366=
71786 15/// /0902 11066 21070 60001
333 11045 21072 4/104 70000=
71787 15/// /2009 11047 21047 39729 40228 58017 60001
333 11025 21059 4/033 70000=
71788 NIL=
71789 NIL=
71791 NIL=
71792 NIL=
71793 NIL=
71794 NIL=
71795 NIL=
71796 NIL=
71797 NIL=

0000146600
783
SMCN21 CWAO 111200
AAXX 11124
71102 NIL=
71105 NIL=
71107 NIL=
71110 NIL=
71111 17366 61902 10015 20012 39786 49794 53010 60051 76144
333 10059 20013 70233=
71112 17/// ///// 60331 7//4/
333 70512=
71113 17/// /2702 10036 20033 39888 49911 56046 60221 7//4/
333 10097 20035 70333=
71115 17/// /0301 10001 20001 39369 49942 57041 69921 7//4/
333 10016 20001 70019=
71116 15/// /0810 11075 21089 38937 40034 58043 60001
333 10008 21113 4/003 70000=
71118 15/// /1605 11112 21127 39167 49996 58043 60001
333 11034 21130 4/014 70000=
71121 15964 71712 11033 21094 39134 49951 58055 60001
333 11007 21092 70000=
71127 15/// /0905 11076 21088 39037 49941 58057 60001
333 10002 21084 4/045 70000=
71130 15566 82610 11078 21105 39571 40036 50010 60001
333 11061 21146 70000=
71132 17966 12201 11252 21277 39697 40025 58005 69931 7004/
333 11215 21273 70003=
71133 15/// /2308 11107 21118 39305 40016 58017 60001
333 11015 21119 4/010 70000=
71136 15/// /3113 11061 21070 39530 40043 56001 60001
333 11069 21098 4/013 70000=
71139 15/// /1807 11063 21076 38572 40030 58033 60001
333 11001 21095 4/014 70000=
71141 NIL=
71142 15966 62008 11087 21106 39077 40053 58026 60001
333 11025 21096 70000=
71144 45/// /3204 11087 21095 6///1
333 11062 21099 7////=
71147 15/// /3005 11057 21074 60001
333 11016 21142 70007=
71149 15/// /2609 11058 21090 60001
333 11084 21138 4/018 70000=

0000265800
784
SMCN34 CWAO 111200
AAXX 11124
71450 15/// /2608 11127 21145 39326 40055 58009 60001
333 11051 21127 4/043 70000=
71451 15/// /2501 11208 21231 39585 40024 58003 60001
333 11092 21208 4/041 70024=
71452 15/// /3304 11140 21152 39347 40071 58004 60001
333 11054 21140 4/015 70002=
71453 15/// /2010 11014 21070 39121 40032 58044 60001
333 10016 21107 4/009 70000=
71454 15/// /2901 11093 21114 39330 40027 58001 60001
333 11021 21093 4/040 70000=
71455 15/// /2411 11116 21127 39245 40052 58018 60001
333 11047 21122 4/008 70000=
71456 15/// /3106 11070 21087 39436 40037 51010 60001
333 11057 21094 4/023 70006=
71457 15/// /1511 11058 21075 39090 49980 57063 60001
333 10006 21155 4/030 70000=
71458 45/// /1606 11102 21114 39214 49989 58041 6///1
333 11015 21160 7////=
71459 15/// /1409 11089 21105 39215 40033 58043 60001
333 11046 21122 4/005 70000=
71460 45/// /2303 10017 20012 39717 49955 58038 6///1
333 10006 20000 7////=
71461 NIL=
71462 NIL=
71463 45/// /1917 10051 20034 39787 40008 56036 6///1
333 10041 20015 7////=
71464 NIL=
71465 45/// /1809 10030 20027 39779 49994 56024 6///1
333 10027 20012 7////=
71466 NIL=
71468 NIL=
71470 NIL=
71471 17532 81409 11051 21058 39108 49888 58045 60001 771//
333 10001 21060 70000=
71473 17/// /2512 10080 20068 39899 49928 53004 60161 7//4/
333 10090 20072 70232=
71475 17/// /2901 10019 20015 39809 49901 50000 60231 7//4/
333 10063 20010 70532=
71476 NIL=
71477 17/// /0807 10030 20022 39779 49787 53011 60061 7//4/
333 10054 20021 70120=
71478 NIL=
71479 NIL=
71480 NIL=
71481 17/// /1305 11052 21065 69951 7//4/
333 10003 21096 70005=
71482 NIL=
71483 NIL=
71484 NIL=
71485 17/// /1212 10060 20051 39830 49847 58005 60061 7//4/
333 10070 20045 70092=
71486 17/// /1904 11038 21041 38715 49897 58053 60041 7//4/
333 10004 21054 70039=
71487 15/// /2207 11119 21130 39195 40075 58014 60001
333 11018 21130 70000=
71488 NIL=
71489 17/// /1703 11157 21173 39228 40033 58029 69921 7//4/
333 11060 21169 4/019 70002=
71490 NIL=
71491 45/// /2505 11320 21355 6///1
333 11218 21324 4/033 7////=
71492 NIL=
71493 17/// /1201 10003 20000 30200 40239 58013 69941 7//4/
333 10011 21001 4/022 70004=
71494 15/// /0404 11029 21038 39600 40127 58050 60001
333 11043 21062 4/044 70000=
71495 NIL=
71496 15/// /1905 11128 21139 39432 40053 58003 60001
333 11063 21164 4/021 70000=
71497 45/// /0414 11204 21241 39739 40012 56018 6///1
333 11163 21205 7////=
71498 NIL=
71499 17466 82708 11172 21192 39374 40017 55007 60001 771//
333 11118 21177 70000=

0000185300
785
SMCN25 CWAO 111200
AAXX 11124
71500 NIL=
71501 NIL=
71502 NIL=
71503 NIL=
71504 NIL=
71505 45/// /0000 11188 21207 39181 49917 58010 6///1
333 11147 21252 4/025 7////=
71506 NIL=
71507 15/// /0106 11159 21174 60001
333 11128 21220 70000=
71508 NIL=
71509 NIL=
71511 45/// /3007 11107 21114 39403 40053 58003 6///1
333 11052 21132 4/002 7////=
71512 15/// /3503 11097 21106 30168 40182 58009 60001
333 11069 21105 70000=
71513 15966 03104 11097 21125 30169 40185 50008 60001
333 11054 21097 70000=
71514 15/// /2605 11147 21170 39356 40069 58005 60001
333 11075 21147 4/005 70000=
71515 NIL=
71516 15/// /2803 11106 21117 39157 40070 58012 60001
333 11012 21127 4/020 70000=
71517 NIL=
71518 NIL=
71519 15/// /1413 11033 21055 60001
333 10041 21118 70000=
71520 NIL=
71521 NIL=
71522 NIL=
71523 NIL=
71524 15/// /0304 11044 21053 30073 40100 58074 60001
333 11086 21098 70000=
71525 15/// /1715 10002 21036 60001
333 10027 21117 70000=
71526 15/// /1415 11053 21069 60001
333 11027 21099 70000=
71527 17236 82807 11047 21048 39462 49967 56002 60001 710//
333 11055 21065 70000=
71528 NIL=
71529 45/// /2401 11314 21351 39793 40030 50007 6///1
333 11202 21320 4/033 7////=
71532 17128 81509 10023 20020 39650 49991 56039 63831 710//
333 10012 21006 73828=
71534 17256 81609 10026 20026 39722 49991 56035 60071 7004/
333 10016 20001 70080=
71535 NIL=
71536 NIL=
71537 NIL=
71539 15/// /2909 11089 21116 39360 40065 58016 60001
333 11050 21097 4/022 70000=
71540 NIL=
71541 NIL=
71542 15/// /0712 11198 21219 60001
333 11146 21248 70004=
71543 15/// /0706 11065 21081 60001
333 11025 21146 70000=
71544 NIL=
71545 45/// ///// 11097 21115 6///1
333 11010 21115 7////=
71546 NIL=
71547 NIL=
71548 NIL=
71549 NIL=

0000266200
786
SMCN31 CWAO 111200
AAXX 11124
71150 45/// /3012 11065 21074 39348 40035 51008 6///1
333 11074 21099 7////=
71151 NIL=
71152 15/// /2818 11033 21067 30212 40225 53004 60001
333 11025 21040 4/039 70000=
71153 15/// /2008 10027 21027 60001
333 10049 21000 70000=
71154 15/// /2326 10040 21034 60001
333 10036 20012 70000=
71155 NIL=
71156 17/// /0705 11046 21048 38818 49899 58071 60031 7//4/
333 10009 21121 70028=
71157 45/// ///// 11033 21055 6///1
333 11001 21098 7////=
71158 15/// /2906 11094 21103 39721 49998 53005 60001
333 11060 21128 4/010 70014=
71159 15/// /2805 11056 21082 30138 40212 53003 60001
333 11030 21058 70000=
71160 NIL=
71161 NIL=
71162 NIL=
71163 45/// /0302 11248 21272 39681 40038 58008 6///1
333 11233 21284 7////=
71164 NIL=
71165 NIL=
71166 NIL=
71167 17548 80806 11046 21051 38822 49907 58071 60001 771//
333 10006 21128 70000=
71168 15/// /3111 11063 21080 39462 40054 53018 60001
333 11003 21072 4/002 70000=
71170 15/// /2814 11077 21087 60001
333 11070 21113 70000=
71171 17/// /2111 10067 20058 39892 49987 57039 60041 7//4/
333 10039 20012 4/018 70045=
71172 17/// ///// 10034 20027 39751 49965 57035 60111 7//4/
333 10019 21004 4/045 70115=
71174 15966 03506 11287 21318 30032 40046 58017 60001
333 11287 21330 70000=
71175 15/// /2308 10007 21005 30214 40249 53003 60001
333 11003 21029 4/029 70000=
71176 45/// /2532 11226 39343 40048 53025 6///1
333 11194 21226 7////=
71177 45/// /3110 11236 39016 40052 51042 6///1
333 11177 21244 7////=
71178 15/// /2623 11036 21076 30160 40193 51012 60001
333 11047 21065 4/002 70000=
71179 45/// /2816 11175 39230 40080 50002 6///1
333 11140 21178 7////=
71180 15/// /2511 11025 21064 30192 40232 58003 60001
333 11017 21030 4/997 70000=
71181 NIL=
71183 15/// /0404 11025 21032 30039 40079 58067 60001
333 11040 21070 4/018 70000=
71184 45/// /0506 11035 21038 6///1
333 11076 21088 7////=
71186 NIL=
71187 17548 81105 10030 20029 39870 49917 56046 60201 76244
333 10091 20030 70373=
71189 45/// /0904 11081 6///1
333 11095 21128 7////=
71190 NIL=
71191 15/// ///// 11043 60001
333 4/033 70000=
71192 15666 81506 10010 21008 39187 49832 56056 60001
333 10004 21034 70023=
71193 17/// /1205 11022 21025 39580 49938 56052 60101 7//4/
333 11013 21024 4/044 70101=
71195 NIL=
71196 17/// /1302 11007 21010 39817 40016 56060 69921 7//4/
333 11026 21049 4/052 70007=
71197 NIL=
71198 45/// /0412 11034 21043 6///1
333 11078 21096 7////=
71199 15/// /3201 11207 21227 39055 49893 56020 60001
333 11062 21233 4/081 70000=

0000291500
787
SMCN33 CWAO 111200
AAXX 11124
71350 15/// /2204 11056 21061 30165 40232 58009 60001
333 11034 21076 4/046 70000=
71351 NIL=
71352 17/// /1909 10036 20032 39545 49994 56036 60091 7//4/
333 10023 20014 70131=
71353 NIL=
71354 NIL=
71355 15/// /2424 11094 21150 39888 49973 51030 60001
333 11053 21117 4/010 70002=
71356 17/// /1310 11286 21317 39955 40025 56022 69951 7//4/
333 11284 21344 4/997 70005=
71357 15/// /0000 11197 21215 39985 49992 51011 60001
333 11173 21265 4/044 70003=
71358 15/// /2706 11279 21311 39929 49965 53013 60001
333 11226 21330 4/055 70000=
71359 NIL=
71360 NIL=
71361 15/// /0000 11327 21365 39815 40034 58011 60001
333 11198 21329 4/016 70014=
71362 NIL=
71363 15/// /1704 11277 21306 39907 49963 58020 60001
333 11315 21341 4/023 70000=
71364 15/// /2604 11288 21319 39912 40051 58010 60001
333 11224 21293 4/027 70000=
71365 15/// /3407 11242 21266 39813 40035 57012 60001
333 11187 21266 4/037 70004=
71366 17466 82804 11229 21259 39993 40057 51018 60001 771//
333 11158 21245 70000=
71367 15/// /2308 11051 21078 39987 40196 53002 60001
333 11052 21066 4/037 70005=
71368 17/08 /1806 10040 20037 39611 49995 56036 60071 76144
333 10018 20009 70128=
71369 15866 81107 11110 21117 39248 49956 58036 60001
333 11076 21156 70000=
71370 45/// /0604 11051 21065 39970 40109 58066 6///1
333 11088 21106 7////=
71371 17232 80406 11018 21024 30054 40089 58065 60021 7654/
333 11028 21072 70015=
71372 17/// /1206 10016 20000 60021 7//4/
333 10002 21020 70016=
71373 15/// /1407 10037 20029 60001
333 10007 21016 70011=
71374 NIL=
71375 45/// /3509 11068 21105 6///1
333 11042 21068 7////=
71376 15/// /3502 11015 21019 39774 40070 56074 60001
333 11025 21057 70000=
71377 15/// /0404 11036 21040 30027 40076 56069 60001
333 11057 21071 4/011 70000=
71378 15/// /1802 11050 21064 39890 40102 58071 60001
333 11071 21087 4/045 70000=
71379 15/// /1209 11034 21048 39916 40088 58051 60001
333 11051 21073 4/048 70000=
71380 NIL=
71381 NIL=
71382 15/// ///// 11055 21057 39175 40126 58041 60001
333 11084 21098 70018=
71383 NIL=
71384 NIL=
71385 45/// /1708 11032 21044 6///1
333 11033 21047 7////=
71386 15/// /1705 11113 21133 39977 40190 58013 60001
333 11065 21147 70000=
71387 NIL=
71388 45/// /0702 11075 21097 39937 40130 58046 6///1
333 11079 21128 7////=
71389 45/// /0910 11033 21070 6///1
333 11068 21095 7////=
71390 45/// /0201 11069 6///1
333 11053 21090 7////=
71391 NIL=
71392 15/// /0605 11028 21051 60001
333 11062 21077 4/060 70000=
71393 15/// ///// 11085 21094 38683 49952 58067 60001
333 10019 21085 4/013 70000=
71395 11/08 /2007 10014 20011 30066 40248 58011 60001 74722
333 10004 21012 42003 79999=
71398 17540 81106 11017 21028 39959 49970 58051 60001 771//
333 11004 21019 70000=
71399 NIL=

0000257900
788
SMCN32 CWAO 111200
AAXX 11124
71250 15/// /2711 11032 21064 30062 40202 53009 60001
333 11044 21071 4/029 70000=
71251 15/// /1813 11013 21043 39070 49992 58056 60001
333 10033 21111 70000=
71252 17/// /3301 11070 21077 38376 49938 58053 60031 7//4/
333 10002 21112 4/041 70029=
71253 45/// /0503 11213 21230 6///1
333 11144 21238 4/039 7////=
71254 15/// /1308 11069 21079 60001
333 11008 21097 4/029 70000=
71255 17/// ///// 11144 21165 69921 7//4/
333 11114 21169 4/041 70008=
71256 45/// /1005 11087 21105 38995 49925 58060 6///1
333 10008 21090 7////=
71257 NIL=
71258 NIL=
71259 NIL=
71261 17/// /1914 10058 20052 39716 49972 56027 60051 7//4/
333 10049 20020 4/009 70092=
71263 11359 82011 10047 20043 39710 49996 56039 60061 76188 888//
333 10025 20010 43007 70070 90973=
71264 15/// /2205 10028 20023 30223 40255 58012 60001
333 10019 20005 4/002 70000=
71265 17528 80807 10030 20029 39911 40004 56039 60071 7614/
333 10028 20017 70096=
71266 NIL=
71267 15966 11609 11014 21042 38891 49972 58054 60001
333 10043 21068 70000=
71268 17/// /1801 11035 21039 39203 49811 56032 60051 7//4/
333 11025 21059 4/028 70055=
71269 NIL=
71270 17/// /1307 10033 20023 39763 49980 56035 60031 7//4/
333 10021 20003 70033=
71271 15/// ///// 11063 21111 60001
333 11017 21079 70000=
71272 15266 83302 11324 21359 39666 40041 55003 60001
333 11181 21330 70000=
71273 15/// /1703 11156 21171 39346 40013 58027 60001
333 11017 21156 7////=
71274 NIL=
71275 NIL=
71276 NIL=
71277 NIL=
71278 NIL=
71279 15/// /0504 11092 21107 30108 40176 58020 60001
333 11090 21134 4/055 70000=
71281 NIL=
71282 45/// /1614 10041 20033 39720 49987 56036 6///1
333 10021 20003 7////=
71283 NIL=
71284 17/// ///// 11060 21076 69971 7//4/
333 11006 21117 70013=
71285 NIL=
71286 NIL=
71287 NIL=
71288 15/// /2809 11335 21369 39905 49931 54000 60001
333 11271 21335 4/004 70005=
71289 NIL=
71290 17/16 /3602 11048 21053 39029 49846 56065 60001 771//
333 11028 21054 70000=
71291 NIL=
71292 15366 82911 11072 21086 39431 40043 51011 60001
333 11054 21111 70000=
71293 NIL=
71294 17/// ///// 10017 20017 39609 40008 56049 60091 7//4/
333 11002 21018 4/048 70090=
71295 17/// /3108 11056 21071 39528 49973 53009 69921 7//4/
333 11055 21058 4/049 70038=
71296 NIL=
71297 17/// /3003 10035 20032 39868 49992 56042 60071 7//4/
333 10003 21014 70092=
71298 NIL=
71299 17/// /1003 11021 21023 39665 49933 56050 60061 7//4/
333 11018 21022 4/058 70064=

0000203100
789
SMCN27 CWAO 111200
AAXX 11124
71700 15166 33302 11146 21160 30198 40225 58024 60001
333 11018 21146 70000=
71701 12974 80000 11118 21132 30158 40222 57026 60001 84053 333
11020 21118 40027 70000=
71702 15/// /2209 11061 21082 30214 40230 58008 60001
333 11028 21088 4/052 70000=
71703 12874 61404 11092 21111 39893 40200 57027 60003 86070
333 11076 21105 43036 55/// 70000 555 10000 20000=
71704 17/08 /1909 10041 20040 39765 49983 56025 60041 7614/
333 10036 20024 70268=
71710 15/// /2408 11062 21082 30216 40226 56006 60001
333 11033 21063 70000=
71712 15/// /0705 10000 21002 30000 40061 58070 60001
333 11027 21038 70000=
71713 15/// /1709 11022 21056 30112 40151 58037 60001
333 11017 21068 4/024 70000=
71716 17/59 /0406 11042 21067 39927 40138 58054 69951 7004/
333 11068 21096 70010=
71717 15266 61213 11004 21017 38568 49846 58046 60001
333 11003 21036 70000=
71720 17/// ///// 10077 20067 39735 49884 56007 60131 7//4/
333 10060 20038 4/001 70270=
71721 17/// /1409 10004 20004 39783 40029 56071 60021 7//4/
333 11033 21046 70020=
71723 15/// /0507 11040 21053 30089 40099 58068 60001
333 11075 21091 70000=
71724 45/// /0611 11031 21048 30106 40114 58065 6///1
333 11079 21099 7////=
71732 17/// /1609 10009 20003 60091 7//4/
333 11008 21018 4/048 70090=
71733 17/// /1609 10008 20006 39532 49953 56041 60091 7//4/
333 11013 21027 4/034 70100=
71734 NIL=
71736 NIL=
71737 NIL=
71741 15/// /1013 10021 20001 39491 49905 56048 60001
333 10018 20001 4/007 70003=
71742 15/// /2311 11064 21090 39997 40188 50004 60001
333 11055 21087 4/997 70000=
71743 NIL=
71744 15/// /2703 11113 21138 30180 40223 58008 60001
333 11044 21126 4/029 70000=
71745 NIL=
71746 17/// /2008 10041 20034 39762 49980 56025 60041 7//4/
333 10038 20024 4/004 70110=
71747 15/// /2501 11044 21046 39490 49964 56004 60001
333 11044 21054 4/043 70000=
71748 15/// /3107 11077 21083 39727 40017 53010 60001
333 11057 21119 4/020 70000=

0000172100
790
SMCN24 CWAO 111200
AAXX 11124
71401 17/// /1904 10021 20015 39326 40001 58051 60031 7//4/
333 10033 70075=
71402 NIL=
71404 NIL=
71405 NIL=
71406 45/// /2814 11060 21088 30149 40159 53004 6///1
333 11054 21070 7////=
71407 15/// /2312 11288 21321 39989 40011 58003 60001
333 11284 21333 4/001 70000=
71408 NIL=
71409 NIL=
71410 17266 83103 11101 21110 39717 49999 51001 60001 771//
333 11093 21101 70000=
71413 NIL=
71414 15/// ///// 11178 21195 60001
333 11035 21178 70004=
71415 15/// /1903 11001 21011 30236 40239 58005 60001
333 11002 21022 4/022 70000=
71417 NIL=
71418 NIL=
71419 45/// /2410 10014 6///1
333 10004 21013 7////=
71423 NIL=
71424 45/// /0405 6///1
333 7////=
71425 15/// /1612 11088 21113 30153 40190 56011 60001
333 11051 21098 70000=
71426 15/// /1605 11027 21039 60001
333 11025 21036 70000=
71427 15/// /2212 11034 21048 30166 40174 58019 60001
333 11030 21039 70000=
71428 15/// /1909 11064 21094 30174 40180 58020 60001
333 11053 21082 70000=
71429 15/// /2709 11098 21122 30185 40205 56005 60001
333 11053 21100 70000=
71434 NIL=
71436 17559 81407 10040 20039 39775 40007 58049 60051 7104/
333 10019 20006 70091=
71437 45/// /3404 10028 20023 39903 49997 56040 6///1
333 10025 20001 7////=
71438 NIL=
71439 NIL=
71440 NIL=
71442 15/// /2908 11076 21083 39698 40015 51005 60001
333 11071 21109 4/024 70000=
71445 NIL=
71446 15/// /1805 11080 21106 39064 40049 58027 60001
333 11021 21097 4/003 70000=
71448 17/// /3407 11107 21119 39678 40010 53011 69921 7//4/
333 11032 21113 4/027 70019=
71449 17/// /2705 11088 21098 39600 40004 51013 69921 7//4/
333 11016 21095 70013=

0000239500
791
SMCN23 CWAO 111200
AAXX 11124
71300 17/// /1104 11007 21014 39920 40043 56061 69921 7//4/
333 10001 21025 4/026 70017=
71301 17/// ///// 10003 20003 39559 49952 56054 60051 7//4/
333 11027 21035 4/051 70045=
71302 17/// /3506 11025 21029 39026 49825 56053 60061 7//4/
333 11002 21041 4/061 70064=
71303 NIL=
71304 15/// /2429 10025 21036 38514 49932 58056 60001
333 10031 20008 4/001 70000=
71305 15566 60801 11258 21283 39733 40035 58010 60001
333 11158 21282 70000=
71306 15966 00706 11282 21311 30061 40095 58008 60001
333 11159 21290 70000=
71307 17/// /2110 10060 20054 39752 49999 56024 60031 7//4/
333 10039 20024 4/005 70124=
71308 15/// /2007 10015 20000 30169 40255 58002 60001
333 10000 21035 4/010 70000=
71309 15/// /1204 11019 21027 39958 49969 58051 60001
333 11004 21019 4/039 70011=
71310 15/// /2006 11057 21073 30203 40241 58010 60001
333 11023 21059 4/044 70002=
71311 15/// /1908 10005 21009 30206 40231 58013 60001
333 10001 21033 4/049 70000=
71312 15/// /2909 11079 21109 39567 40032 50009 60001
333 11064 21150 4/025 70012=
71314 17/// /1807 10028 39649 49997 56034 60061 7//4/
333 10012 21002 4/053 70067=
71315 NIL=
71316 15/// /2103 11124 21134 39296 49985 58029 60001
333 11035 21147 70000=
71317 NIL=
71318 NIL=
71319 45/// ///// 11050 21054 39264 40139 58034 6///1
333 11068 21095 7////=
71320 NIL=
71321 17/// /2802 11240 21263 30025 40070 51018 69931 7//4/
333 11176 21289 4/010 70009=
71322 17/// /3505 11289 21315 30033 40046 58017 60021 7//4/
333 11286 21329 4/009 70018=
71323 15/// /1301 11088 21105 39852 40140 58052 60001
333 11082 21116 70000=
71331 17/// /0000 11179 21204 39634 40010 58001 69921 7//4/
333 11085 21179 4/045 70025=
71332 15/// /2514 11327 21363 39947 49977 50001 60001
333 11223 21334 4/013 70000=
71334 NIL=
71335 NIL=
71336 45/// /2725 11032 21070 30147 40170 53008 6///1
333 11029 21054 7////=
71337 45/// /2709 11052 21084 39916 40158 51009 6///1
333 11055 21077 7////=
71338 15466 83001 11195 21218 39985 49993 51012 60001
333 11171 21253 70000=
71339 15964 02304 11109 21172 30121 40136 51011 60001
333 11099 21134 70005=
71340 NIL=
71341 NIL=
71342 NIL=
71343 NIL=
71344 NIL=
71345 NIL=
71346 NIL=
71347 NIL=
71348 NIL=
71349 15/// ///// 11144 21160 60001
333 11039 21171 70000=

0000058000
792
SMCN38 CWAO 111200
AAXX 11124
71851 15/// /2607 11058 21075 39680 40018 53002 60001
333 11064 21094 4/016 70000=
71857 NIL=
71860 NIL=
71872 NIL=
71874 NIL=
71876 17912 01702 11133 21142 39371 40048 58022 60001 771//
333 11074 21171 70000=
71884 17/// /1404 10032 20028 30188 40233 58017 69931 7//4/
333 10036 20020 4/997 70007=
71885 NIL=
71886 15/// /2911 11074 21085 39433 40045 51011 60001
333 11053 21113 4/001 70000=
71888 NIL=
71890 15/// /1402 11054 21064 30145 40174 58018 60001
333 11060 21109 4/049 70000=
71895 NIL=

0000073800
793
SMCN28 CWAO 111200
AAXX 11124
71812 17456 81405 10029 20019 39623 49890 56039 60131 76244
333 10078 20012 70133=
71819 15966 82513 11080 21114 30117 40159 53008 60001
333 11089 21099 70000=
71820 17/// /1606 10029 20018 39925 40039 56051 69961 7//4/
333 10016 20001 4/008 70010=
71823 NIL=
71824 NIL=
71826 NIL=
71829 NIL=
71833 45/// /1905 10039 20039 6///1
333 10022 20008 7////=
71835 17/// /2805 11077 21088 39464 49943 56013 69921 7//4/
333 11075 21090 4/026 70015=
71837 NIL=
71839 NIL=
71840 15/// /2817 11051 21074 60001
333 11011 21077 4/019 70005=
71846 NIL=
71847 NIL=
71848 NIL=
71849 15/// /3305 11076 21084 39724 40025 53009 60001
333 11046 21129 4/019 7////=

0000151100
794
SMCN26 CWAO 111200
AAXX 11124
71604 NIL=
71605 17/// /0602 10069 20066 39755 49901 56035 60571 7//4/
333 10066 20024 4/997 70869=
71608 17/// /2016 10086 20061 39904 49907 55023 60291 7//4/
333 10083 20056 70466=
71611 15/// /0503 11013 21018 60001
333 11043 21060 4/021 70000=
71612 15/// /3303 11032 21045 39994 40086 58064 60001
333 11031 21055 70000=
71614 17/// /1413 10020 20007 30001 40067 56063 69921 7//4/
333 11005 21029 4/024 70002=
71616 15/// /0804 11021 21035 30002 40124 57063 60001
333 11057 21081 70010=
71617 15/// /1005 11051 21075 39960 40132 58047 60001
333 11064 21108 70000=
71618 15966 83005 11252 21278 30006 40046 56016 60001
333 11193 21284 70000=
71619 NIL=
71622 NIL=
71629 NIL=
71632 15/// /3201 11255 21283 39572 40029 51003 60001
333 11112 21299 4/034 70040=
71634 15/// /0000 11153 21167 30062 40222 58007 60001
333 11022 21167 4/039 70002=
71636 15/// /0902 11110 21123 39155 49930 58055 60001
333 10006 21144 4/044 70000=
71637 NIL=
71638 17/// /1206 10083 20076 39800 49902 56017 60181 7//4/
333 10071 20046 70310=
71639 11/08 91505 10027 20027 39766 40006 56036 60071 74362
333 10019 20012 43017 70086 90932=
71640 17/// /0000 11033 21036 39440 49928 56029 60041 7//4/
333 11029 21035 4/098 70040=
71642 11274 80000 11022 21025 39393 49932 57034 60031 7027/
885// 333 11030 21037 48044 70060 90999=
71644 15/// ///// 10005 21001 39403 49944 58044 60001
333 10041 21000 4/008 70000=

0000008600
795
UERA01 RUNW 101200 CCA
TTDD 1012/ 23078 11674 74123 21212 11700 26011=
00000000