0000008600
389
ULCN05 CWAO 111200
TTCC  61127 71926 70715 72768 29041 88999 77999=

0000032800
390
USCN05 CWAO 111200
TTAA  61121 71926 99996 28733 14011 00021 ///// ///// 92587
20921 21025 85212 22123 22525 70631 25719 22527 50501 38332
24541 40652 48360 25045 30835 61929 25067 25947 64759 25548
20084 63568 27037 15260 65571 27536 10504 69768 28044 88250
64759 25548 88107 70169 28039 77305 24569=

0000096000
391
SMIQ01 KWBC 111200
AAXX 11121
40604 42560 20000 10136 20013 40200 58010 82100=
40621 41558 80000 10114 20080 40190 57010 76062 888XX=
40634 42560 53102 10117 20082 40211 56005 88700=
40642 42560 63102 10070 20022 40210 58004 86800=
40650 41530 70000 10110 20090 40170 58004 71022 87800=
40656 41516 80202 10096 20085 40162 53001 75154 885XX=
40665 42960 62702 10120 20080 40172 57012 86030=
40674 42560 83506 10118 20058 40173 57013 888XX=
40680 41550 81403 10112 20102 40163 58010 72162 888XX=
40608 42960 33001 10142 20041 40196 57012 83030=
40631 41560 60602 10122 20088 40200 56005 70162 86500 86630=
40637 41558 82702 10105 20100 40182 54000 76066 888XX=
40658 42560 63603 10105 20096 40184 51006 86800=
40670 41540 82304 10099 20089 40171 56013 71022 8452/=
40672 42560 82404 10102 20068 40179 57020 888XX=
40676 42560 72307 10118 20052 40183 56013 87500=
40691 42560 72104 10144 20106 40194 55008 85520=
0000059700
392
SMCO01 KWBC 111200
AAXX 11121
80063 31405 20000 10224 20221 7441/ 82670 333 20210 30/// 5600/
82712=
80084 31350 73602 10244 20241 7122/ 84530 333 20230 30/// 55009
5649/ 84608 83359=
80091 31468 30000 10236 20224 7050/ 81830 333 20232 30/// 50510
55088 569// 81615=
80097 32570 59901 10206 20160 3//// 4//// 82131 333 20195 30///
50780 55103 56999 5//// 82820=
80211 11570 50000 10180 20165 7052/ 84570 333 20176 30/// 50410
55038 5682/ 84620 83360=
80234 32562 70000 10226 20189 39628 40120 81571 333 10324 20216
300// 50520 55094 56239 58011 81627 87359=
0000040500
393
SMVD15 KWNB 111200 RRM
BBXX
44100 11121 99363 70756 46/// ///// 1//// 91204 22200 00089 10804
20804 312// 41101 70021=
44095 11121 99358 70753 46/// ///// 1//// 91217 22200 00132 10805
20805 312// 41101 70027=
41115 11121 99184 70673 46/// ///// 1//// 91211 22200 10802 20802
301// 41101 70012=
41113 11121 99284 70805 46/// ///// 1//// 91210 22200 00180 10902
20902 70010=
0000375100
394
SMCI01 KWBC 111200
AAXX 11121
50745 11963 73201 11227 21273 30113 40320 52024 69911 70070 87///=
51747 32970 00000 11102 21204 40488 57002 333 00253=
53798 31906 73201 10016 21033 30194 40295 52012 70500 87///=
54292 32975 02702 11106 21200 39901 40242 57006=
58040 31917 01401 11002 21013 30303 40311 52001 71000=
58221 31931 50202 10030 20007 30276 40312 52008 71000 85///=
50136 32970 02203 11291 21351 39759 40392 52007=
50468 32970 03203 11270 21326 30062 40302 52006=
50774 32960 02203 11248 21325 39927 40291 52019=
50788 32970 02502 11269 21313 30163 40260 52007=
51076 32980 00402 11138 21203 39465 40434 57013 333 05407=
51133 32980 60701 11068 21148 39627 40320 57012 86/// 333 06103=
51243 32965 02501 11195 21222 39820 40437 57015 333 05601=
51288 32980 00903 11116 21214 38407 57006 333 05203=
51431 32980 71101 11059 21114 39449 40301 57017 87/// 333 06203=
51463 31956 00702 11181 21203 39203 40405 57007 71000 333 05558=
51573 32970 02701 11076 21172 30398 40446 57002 333 00200=
51709 32965 21402 11037 21114 38740 40419 57001 82/// 333 00100=
52203 32980 00000 11106 21202 39492 40457 57003 333 00202=
52418 32980 02001 11078 21209 39037 40473 52003 333 00353=
52681 32980 02901 11072 21226 38778 40465 52014 333 00552=
52983 32980 82503 11077 21215 38214 52020 88/// 333 00651=
53513 32970 01802 11102 21221 39120 40436 52021 333 00502=
53564 31916 03601 11093 21219 39306 40419 52023 70500 333 00204=
53614 32970 03402 11028 21216 39038 40408 52018 333 00401=
53646 32972 03404 11046 21236 38968 40395 52025 333 00400=
53845 32965 82902 11013 21220 38945 40390 52019 88/// 333 00402=
53959 31938 72504 10048 21082 39878 40338 52019 70500 87///=
54094 42756 73401 11169 21208 39828 40243 57015 87///=
54102 31956 03602 11183 21233 39111 40409 52027 70500=
54161 32962 42502 11124 21207 39958 40275 52005 84///=
54337 32926 00203 11052 21106 30203 40291 52017=
54374 32962 00202 11138 21188 39793 40300 52003=
54401 32963 73609 11047 21227 39383 40367 52031 87///=
54423 31929 00000 11060 21177 39773 40326 52026 70500=
54471 42955 00901 11050 21065 30277 40283 52007=
54511 31931 73201 11009 21134 30258 40300 52019 70500 87///=
54618 31905 60402 11016 21032 30284 40303 52017 74240 86///=
54843 31922 00000 11014 21060 30271 40300 52006 70500=
54909 31947 21802 10032 21067 30235 40302 52011 70500 82///=
56029 33/// 91401 11044 21163 36432 52008 333 00351=
57083 31923 72501 10055 21046 30159 40301 52010 70500 87///=
57127 32960 81101 10056 20019 39712 40341 52026 88///=
57131 32965 72204 10057 21133 40354 52027 87///=
57265 32961 02903 10035 20011 30159 40328 52016=
57494 31658 82201 10043 20028 30281 40313 52010 71000 88///=
58102 32962 01601 10042 21050 30256 40306 52006=
58238 11412 81103 10045 20035 30265 40311 52004 69951 76066 88///=
58251 31932 71101 10039 21001 30309 40315 52006 70500 87///=
58362 11962 80703 10047 20024 30308 40316 52006 60021 76065 88///=
58457 11217 80702 10054 20047 30251 40305 52012 60041 76065 88///=
58752 31749 82901 10105 20065 40278 52008 70500 88///=
58847 32667 70401 10144 20086 30154 40258 52013 87///=
59117 32965 52901 10159 20104 30089 40231 52019 85///=
59134 32961 20901 10139 20107 30074 40244 52019 82///=
59287 31950 13402 10140 20122 30142 40229 52021 71000 81///=
59316 31959 20701 10155 20124 30240 40249 52022 71000 82///=
59644 31758 70702 10193 20156 30205 40222 52022 70500 87///=
59758 32470 60704 10199 20177 30134 40211 52018 86///=
50844 32962 23602 11215 21239 30123 40317 52031 82///=
50854 11965 23603 11197 21238 40299 52018 69911 72270 82///=
50968 11662 70202 11171 21193 40269 52010 69921 77070 87/// 333
92536=
0000032800
395
SMVD17 KWNB 111200 RRG
BBXX
52211 11121 99153 11457 46/// ///// 1//// 91218 22200 00281 10806
20806 305// 41101 70031=
51206 11121 99198 71550 46/// ///// 1//// 91203 22200 00249 11105
20904 310// 41102 70025=
46114 11121 99367 71223 46/// ///// 1//// 91208 22200 00126 11506
21003 331// 41506 70032=
0000089300
396
SMCI01 KWBC 111200 RRA
AAXX 11121
51379 32980 01801 11187 21225 40427 57008 333 05603=
51467 32980 00902 11125 21233 38298 52003 333 00051=
51495 32980 00202 11083 21214 40453 57004 333 00202=
53480 42963 03205 11119 21256 40425 52032=
53673 32961 03604 11009 21223 40356 52029=
53698 31906 72501 11009 21066 40297 52019 70500 87///=
53898 31919 02203 10039 21067 40293 52010 70500=
54308 32980 03606 11059 21183 40359 52030=
54602 31907 70000 11026 21051 40305 52024 74400 87///=
54725 31915 02001 10006 21046 40299 52010 70500=
54751 31916 02203 10010 21019 40300 52008 71000=
54916 31920 01101 11005 21046 40319 52012 70500=
57014 32975 33203 10008 21190 40388 52027 83///=
57025 31955 82902 10025 21182 40376 52028 70500 88///=
57046 32966 62908 11075 21188 37994 52020 86/// 333 00452=
58208 31937 81601 10046 20007 40312 52009 70500 88///=
0000306600
397
SMCN04 KWBC 111200
AAXX 11124
71055 45/// /2109 11310 21342 39679 40025 58002 6///1 333 11230
21312 7////=
71186 45/// /0817 11063 21081 6///1 333 11104 21138 7////=
71190 45/// /0803 11015 21029 6///1 333 11037 21053 7////=
71269 15/// /0804 11093 21107 60001 333 11027 21112 70000=
71340 15/// /1009 11092 21108 60001 333 11028 21180 70000=
71341 15/// /2627 10033 21028 60001 333 10053 21027 70000=
71342 45/// /1813 11080 21090 6///1 333 11041 21110 7////=
71434 17/// /0807 11094 21107 39922 49988 58022 69961 7//4/ 333
11095 21111 4/012 70008=
71502 15/// /2717 11248 21277 39965 49981 58022 60001 333 11216
21277 70000=
71515 15/// /2811 11096 21100 39353 40064 50002 60001 333 11070
21116 4/004 70000=
71682 15/// /0302 11217 21243 39783 40019 57013 60001 333 11189
21217 4/054 70007=
71743 15/// /0000 11344 21379 39889 40120 58001 60001 333 11156
21345 4/003 70004=
71903 17/// /0617 10018 20013 39747 49795 53020 60081 7//4/ 333
10055 20016 70123=
71909 45764 42502 11242 21279 30008 40053 6///1 333 11177 21288
7////=
71916 45/// ///// 11291 21322 39773 49830 58024 6///1 333 11322
21398 7////=
71990 17/// /0602 11288 21318 38291 49923 58004 60011 7//4/ 333
11154 21288 4/068 70031=
71164 45/// /0804 11347 21384 39995 40081 57003 6///1 333 11268
21352 7////=
71285 15/// /1104 11109 21120 60001 333 11019 21180 70000=
71347 15/// /0809 11065 21091 60001 333 11053 21205 70000=
71423 15/// /2609 30197 50004 60001 333 4/015 70000=
71439 45/// /2410 10031 20022 39730 49948 58026 6///1 333 10031
20006 7////=
71506 15/// /0902 11295 21323 39096 40035 58009 60001 333 11249
21306 4/997 70000=
71508 17/// ///// 10043 20038 39870 40006 57039 60061 7//4/ 333
10041 20029 4/011 70068=
71576 17/// /2208 11271 21301 39889 49976 53015 69921 7//4/ 333
11194 21271 4/017 70006=
71683 15/// /2407 11286 21315 39910 40025 58015 60001 333 11224
21291 70000=
71823 17/// /1403 11062 21074 39683 40067 58019 69961 7//4/ 333
11071 21075 4/010 7////=
71829 15/// /0904 11052 21071 30004 40169 58016 60001 333 11056
21081 7////=
71976 15/// /2407 11295 21322 39432 40093 51010 60001 333 11218
21295 4/010 70000=
71069 15/// ///// 11110 60001 333 11078 21161 70000=
71107 17/// /2921 10038 20018 39696 49806 51008 60031 7//4/ 333
10077 20020 70212=
71228 15/// /1307 11089 21105 60001 333 11012 21115 70011=
71246 17/// /0101 11143 21155 39293 49963 57026 69951 7//4/ 333
11109 21184 4/042 70019=
71374 45/// /2721 11039 6///1 333 11039 21060 7////=
71384 15/// /0302 11012 21048 30141 40149 58047 60001 333 11040
21055 70000=
71421 15/// /1602 11123 21150 39444 40182 50000 60001 333 11118
21151 70002=
71479 17/// /2023 10068 39743 49851 58014 60021 7//4/ 333 10084
20037 70196=
71488 15/// /2126 10020 21035 38425 49947 58055 60001 333 10017
21016 4/021 70000=
71737 15/// /1307 11029 21035 39546 40070 56067 60001 333 11049
21061 4/045 70000=
71907 45/// /0604 11286 21316 30062 40093 58009 6///1 333 21297
4/024 7////=
0000137100
398
SMVS01 KWBC 111200
AAXX 11121
48840 32498 80504 10186 20176 30191 40197 52016 888// 333 00020
10221 58003 70000 83894 88696=
48845 32498 80201 10195 20185 30193 40200 52015 888// 333 00019
10208 58005 70000 82894 88697=
48870 01598 73201 10230 20199 30166 40173 52016 69934 72586 872//
333 01026 10265 58007 69932 70006 87895=
48877 32598 83605 10251 20188 30153 40158 52016 888// 333 00026
10269 58002 70000 82895 88697=
48887 32598 80702 10256 20213 30127 40133 52022 888// 333 00026
10286 58006 70000 82895 88697=
48920 12998 60204 10262 20250 30126 40129 52018 60084 80008 222//
00281 2//02 333 10285 58002 70079 86299=
48892 32598 60705 10273 20227 30133 40138 53020 869// 333 10307
58006 70000 82995 84697=
48917 32598 70501 10270 20225 30120 40126 52010 83208 222// 00286
2//00 333 00028 10300 59001 7000 0 83895 87299=
48919 32498 70710 10258 20243 30104 40126 52012 82208 22200 02261
2//04 333 10260 58001 70000 8189 4 87299=
48914 32698 70902 10266 20218 30127 40129 52016 875// 333 00027
10316 58002 70000 87696=
48916 32998 70000 10257 20235 30082 40129 53007 80008 333 00///
10287 58003 70000 87299=
48918 32498 60705 10250 20204 30128 40139 52018 82108 222// 00256
2//03 333 00025 10280 58004 7000 0 82894 86299=
48806 32998 00000 10176 20133 39418 40195 53021 333 00015 10220
58015 70000=
0000044500
399
SXXX32 EUMS 111218
22856700
:PRS 1 /1 3881 3887 3896 3895 3889 3895 3890 3896 3904 3912 3916 3924 3920 3916 3924 3921 3928 3934 3938 3940 3939 3942 3943 3946 3945 3944 3943 3945 3952 3956 :RAD 1 /3 7397 7403 7415 7425 7431 7439 7445 7449 7455 7464 7470 7476 7480 7484 7487 7491 7493 7496 7499 7506 :ENC 3 /5 5591 5607 5620 5636 5642 5653 5665 5674 5681 5685 5691 5693 :SW1 18 /60 0 :SW2 48 /60 0 :BAT 14 /15 12.5 :NAME 22856700
0000045100
400
SXXX32 EUMS 111218 RRA
32D8A2BE
:PRS 1 /1 1648 1648 1647 1640 1637 1649 1641 1641 1640 1648 1642 1643 1643 1634 1634 1642 1641 1638 1632 1638 1639 1639 1641 1638 1632 1641 1633 1637 1644 1635 :RAD 1 /3 7220 7218 7219 7219 7216 7220 7218 7219 7220 7222 7220 7217 7211 7220 7222 7222 7222 7224 7223 7223 :ENC 3 /5 4654 4652 4651 4650 4650 4651 4651 4651 4653 4651 4652 4654 :SW1 18 /60 60 :SW2 48 /60 60 :BAT 14 /15 12.9 :NAME 32D8A2BE
0000047700
401
SXXX32 EUMS 111219
262AD2C2
OT12 ID:PK-ORMA-10 DT:2014 01 11 12 18
:PRS /1 07285 07282 07259 07282 07307 07310 07335 07322 07337 07335 07345 07352 07357 07341 07375 07372 07377 07390 07395 07393 07418 07419 07424 07440 07459 07436 07452 07465 07463 07470
:RAD /1 ///// ///// ///// ///// ///// ///// ///// ///// ///// ///// ///// ///// ///// ///// ///// ///// ///// ///// ///// ///// ///// ///// ///// ///// ///// ///// ///// ///// ///// /////
:BAT 13.0V
0000036200
402
SXXX32 EUMS 111221
12FFB3C8
:PRS 1 /1 M 3162 3162 3156 3162 3148 3153 3157 3163 3170 3177 3181 3179 3194 3185 3191 3180 3186 3179 3175 3177 3161 3173 3170 3175 3189 3184 3185 3190 3192 :RAD 1 /3 6100 6102 6115 6122 6121 6116 6112 6117 6126 6132 :ENC 1 /5 -144 -144 -144 -144 -144 -144 :SW1 21 /60 0 :SW2 51 /60 0 :BAT 14 /15 12.9 :NAME 12FFB3C8
0000070100
403
SXXX32 EUMS 111221 RRA
22E7E6D2
OT12 ID:ID-ROTE-11 DT:2014 01 11 12 19
:PRS /1 -10799 -10304 -10786 -10798 -10764 -10765 -10765 -10766 -10795 -10796 -10794 -10793 -10795 -10792 -10793 -10790 -10298 -10785 -10794 -10763 -10763 -10763 -10763 -10796 -10794 -10791 -10794 -10793 -10798 -10792
:PR2 /1 04743 04754 04754 04754 04748 04730 04703 04706 04726 04756 04723 04695 04705 04730 04744 04700 04720 04708 04730 04744 04741 04728 04747 04727 04723 04712 04718 04708 04710 04714
:RAD /1 06270 06282 06306 06306 06330 06318 06274 06254 06286 06262 06314 06350 06274 06258 06274 06302 06258 06282 06274 06290 06314 06286 06290 06286 06282 06302 06274 06274 06266 06238
:BAT 12.4V
0000066700
404
SXXX32 EUMS 111222
32CC9580
OT12 ID:ID-ENGG-07 DT:2014 01 11 12 21
:PRS /1 01596 01565 01594 01593 01577 01565 01546 01606 01541 01575 01556 01601 01561 01582 01535 01550 01533 01509 01563 01538 01569 01566 01504 01567 01543 01537 01510 01559 01511 01544
:PR2 /1 05071 05036 05049 05019 05038 05030 05047 05052 04965 05014 05003 05040 04991 05025 04987 05024 04986 04974 04969 04971 05018 04983 04984 04989 04997 04980 04973 04993 04924 04970
:RAD /1 05934 05906 05923 05901 05901 05917 05889 05928 05872 05903 05877 05918 05881 05890 05865 05882 05903 05855 05868 05843 05880 05883 05844 05889 05864 05862 05841 05866 05843 05853
:BAT 12.4V
0000014800
405
SMAL51 DAMM 111200 RRC
AAXX 11121
60373 36/// /2501 10182 20064=
60623 36/// /0000 10223 21151=
60393 36/// /0000 10191 20074=
0000011000
406
UANT01 CWAO 111223
ARP DAL19 5258N03027W 1223 F330 MS55 171/45 KT
N834MH QXT AOE 111223 F47A
0000011000
407
UANT01 CWAO 111223
ARP EIN105 5201N01945W 1223 F360 MS61 213/71 KT
EIDUZ DDL XXN 111223 J82A
0000010000
408
UAUS31 KWBC 111224
ARP UAL121 45N 015W 1215 F330 MS56 242/066KT TB MOD SK IN CLOUDS=
00000000