0000017400
529
UPIN90 VABP 111200
PPAA 61111 42361 55292 33513 34511 77999=


UGIN90 VABP 111200
PPBB 61111 42361 90012 31502 33008 33512 90378 34017 32518 33517=

0000008900
530
SAIN35 VIDP 111200
METAR VAUD 111200Z 05004KT 4000 HZ NSC 17/04 Q1018=

0000066700
531
SXXX32 EUMS 110352
32CC9580
OT12 ID:ID-ENGG-07 DT:2014 01 11 03 51
:PRS /1 01434 01457 01437 01461 01477 01449 01449 01441 01456 01533 01491 01424 01456 01470 01473 01505 01500 01517 01488 01444 01485 01467 01490 01507 01547 01483 01512 01544 01491 01497
:PR2 /1 04905 04868 04895 04889 04890 04918 04892 04902 04939 04897 04898 04905 04908 04916 04887 04923 04905 04922 04887 04907 04935 04940 04941 04879 04971 04948 04934 04975 04940 04940
:RAD /1 05784 05774 05779 05759 05787 05792 05781 05797 05790 05820 05799 05786 05798 05829 05778 05810 05809 05830 05824 05778 05823 05819 05818 05806 05821 05815 05830 05850 05836 05828
:BAT 13.4V
0000021100
532
SAKU31 NCRG 110400
METAR NCRG 110400Z
04011KT 9999 BKN018 28/24 Q1009=
METAR NCAI 110400Z AUTO
///// //// //// 27/23 Q1010=
METAR NCMH 110400Z AUTO
NIL=
METAR NCPY 110400Z AUTO
NIL=
0000003900
533
SIVE22 RJTD 110300
NIL=
0000007800
534
UXIN90 VABP 111200
PPAA 61120 42675
NO ASCENT DUE TO NO GAS=
0000003900
535
SIVX22 RJTD 110300
NIL=
0000013000
536
SMRA11 RUNW 110000 CCD
AAXX 11001
24918 129// 01602 11443 21476 39998 40446 57006 60002 333 21492 47039
55019=
0000010000
537
SIAU24 AMMC 110300 RRB
AAXX 11034
96995 46/// /1805 10279 20218 39819 40114=


0000009400
538
SMTA10 UTDD 101800 RRF
AAXX 10181
38869 429// 00000 11178 21237 47130 52012=
0000011000
539
UANT01 CWAO 110351
ARP AFR347 4933N03738W 0351 F380 MS52 247/24 KT
FGLZS QXT AOW 110351 J37A
0000032800
540
SAGU31 MGGT 110400
METAR
METAR MGMM 110400Z 00000KT CAVOK 22/21 Q1016 A3000=
METAR MGHT 110400Z 00000KT CAVOK 12/09 QFE816.8=
METAR MGPB 110400Z 00000KT 9999 BKN017 23/22 Q1015 A2997=
METAR MGGT  110400Z 36008KT CAVOK 16/13 Q1025 A3027 FEW200=
METAR MGSJ 110400Z 00000KT CAVOK 23/22 Q1013 A2991 BKN080=
0000011000
541
UANT01 CWAO 110352
ARP BAW20R 5504N03818W 0352 F350 MS56 239/33 KT
GVIIJ QXT AOW 110352 F10A
0000011100
542
UANT01 CWAO 110352
ARP DAL171 5605N03602W 0352 F370 MS57 215/41 KT
N801NW DDL XXW 110352 J11A
0000011000
543
UANT01 CWAO 110352
ARP DLH475 5325N04651W 0352 F370 MS62 302/59 KT
DAIKQ QXT AME 110352 J89A
0000011100
544
UANT01 CWAO 110352
ARP UAL987 5424N05708W 0352 F330 MS62 286/84 KT
N646UA DDL YAY 110352 F30A
0000021900
545
UGIN90 VICH 110000
PPBB 61028 42101 90/23 32003 33012 34510 90456 32508 34511 33010
     9078/ 04006 03008 91023 04015 33509 03008 91456 ///// 03510 34505
     9413/ 28592 28107 9514/ 28562 27570=

0000011000
546
UANT01 CWAO 110352
ARP AFR007 4453N05146W 0352 F380 MS60 301/57 KT
FHPJD DDL YYT 110352 J60A
0000010800
547
UANT01 CWAO 110352
ARP LOT7 5950N03623W 0352 F380 MS56 347/28 KT
SPLRB DDL XXW 110352 L85A
0000011000
548
UANT01 CWAO 110352
ARP BAW40F 5239N03211W 0352 F370 MS55 213/51 KT
GBNLP QXT AOW 110352 F48A
00000000