0000017000
056
SOVI10 KWAL 110346
B110070A 011034601 P9751095 B\P~W@@j0ekC1@qe???CnCs>@qg3@GD@@P4Cs5DB6bW9K@<BM2?????@"??? nTCkLBlBkBmBfBkBm:AMPTEMP 27.29C  47-0NN 219E
0000010800
057
SAIN90 VERC 110239
METER VERC 110300Z 18004KT 1200 BR  FEW 100 15/12  Q1019 BECMG1500BR =

0000023600
058
SIIN90 VAPO 110300

  AAXX 11034 
  
    43063 31996 00000 10122 20118 39517 40162 70500 333 20071 58004
 555 10000 =
 
 00157 31996 19902 10157 20103 39491 40174 70500 80001 333 20098
 58005 555 10000 =

0000026000
059
SAIN90 VABP 110300
METAR VABP 110300Z 02006 0000 FG VV/// 12/12 Q1018 NOSIG=
METAR VAID 110300Z 00000KT 0050 FG VV/// 11/11 Q1018=
METAR VAKJ 110300Z 05002KT 0200 FG VV/// 15/14 Q1017=
METAR VAJB 110300Z 00000KT 800 FG OVC010 16/15 Q1017=
0000012600
060
SIIN22 DEMS 110300 RRC
AAXX 11033
42571 21592 80501 10156 20149 40159 74444 8653/
  333 20137 59005 6004/=
0000012000
061
SIIN23 DEMS 110300 RRA
AAXX 11034
43063 31996 00000 10122 20118 39517 40162 70500
  333 20071 58004=
0000011700
062
SAIN35 VIDP 110330
METAR VIDN 110330Z 28004KT 6000 FEW020 FEW035 SCT040 BKN080 10/09
     Q1018=

0001235200
063
SNIN01 DEMS 110300
OOXX
  SNI 11034 99221 10795 10129 02002 26/// ///// 10175 20173 39872 40105 5//// 6//// 7//// 8//// 9////   333 20151 55/// ///// 59012 6000/   555 60010 =
  SOL 11034 99233 10813 10031 04702 26/// /0801 10164 20162 39628 40171 5//// 6//// 7//// 8//// 9////   333 20153 55/// ///// 59007 6003/   555 60000 =
  SPN 11034 99336 10749 13634 19042 26/// /2102 11037 2//// 38070 48490 5//// 6//// 7//// 8//// 9////   333 21041 55/// ///// 58045 6002/   555 60000 =
  SUT 11034 99121 10768 06526 06802 26/// /0701 10200 20165 39369 40128 5//// 6//// 7//// 8//// 9////   333 20174 55/// ///// 58004 6000/   555 60033 =
  SVP 11034 99254 10776 10157 04942 26/// ///// 10115 20113 39611 40189 5//// 6//// 7//// 8//// 9////   333 20103 55/// ///// 58016 6000/   555 60000 =
  SWN 11034 99262 10843 10064 00482 26/// ///// 10135 20133 30113 40170 5//// 6//// 7//// 8//// 9////   333 20130 55/// ///// 59009 6003/   555 60000 =
  TDR 11034 99172 10776 06577 04452 26/// /2401 10191 20183 39655 40166 5//// 6//// 7//// 8//// 9////   333 20148 55/// ///// 58/// 6000/   555 60017 =
  TIU 11034 99087 10777 02987 00402 26/// /3002 10236 20208 30119 40165 5//// 6//// 7//// 8//// 9////   333 20225 55/// ///// 58006 6000/   555 60025 =
  TLG 11034 99183 10738 06583 06382 26/// /2902 10138 20082 39429 40162 5//// 6//// 7//// 8//// 9////   333 20099 55/// ///// 58003 6000/   555 60010 =
  TNK 11034 99262 10758 10165 02812 26/// /0103 10087 20086 39868 40207 5//// 6//// 7//// 8//// 9////   333 20077 55/// ///// 58021 6000/   555 60000 =
  TOL 11034 99246 10940 09944 02712 26/// /0100 10117 2//// 39799 40119 5//// 6//// 7//// 8//// 9////   333 20037 55/// ///// 58007 6000/   555 60120 =
  TRT 11034 99314 10750 13715 02242 26/// /3003 10045 2//// 39900 40173 5//// 6//// 7//// 8//// 9////   333 20036 55/// ///// 58008 6000/   555 60000 =
  TSK 11034 99259 10953 09955 01432 26/// /3501 10151 20135 30035 40204 5//// 6//// 7//// 8//// 9////   333 20087 55/// ///// 58002 6000/   555 60042 =
  TUR 11034 99255 10902 09950 02542 26/// /3401 10197 20099 39883 40177 5//// 6//// 7//// 8//// 9////   333 20163 55/// ///// 58003 6000/   555 60041 =
  TZU 11034 99279 10962 09976 02642 26/// /0700 10141 2//// 39907 40219 5//// 6//// 7//// 8//// 9////   333 20068 55/// ///// 58004 6000/   555 60000 =
  UDU 11034 99267 10921 09962 01252 26/// /1004 10152 20098 30049 40198 5//// 6//// 7//// 8//// 9////   333 20087 55/// ///// 58003 6000/   555 60057 =
  UJH 11034 99294 10770 10197 02202 26/// /3206 10080 2//// 39917 40184 5//// 6//// 7//// 8//// 9////   333 20073 55/// ///// 58010 6000/   555 60000 =
  UJN 11034 99232 10758 10135 05202 26/// /0004 10124 20122 39563 40170 5//// 6//// 7//// 8//// 9////   333 20119 55/// ///// 58018 6000/   555 60000 =
  UKR 11034 99251 10944 09954 18312 26/// /2002 10123 20121 38157 48477 5//// 6//// 7//// 8//// 9////   333 20090 55/// ///// 58012 6000/   555 60023 =
  UNA 11034 99314 10762 13716 03672 26/// /3603 10053 20056 39753 40197 5//// 6//// 7//// 8//// 9////   333 20036 55/// ///// 58009 6000/   555 60000 =
  UPR 11034 99324 10760 13726 07792 26/// /1201 10020 20019 39299 40230 5//// 6//// 7//// 8//// 9////   333 20016 55/// ///// 58018 6000/   555 60000 =
  VDN 11034 99096 10779 02997 00952 26/// /0105 10240 2//// 30057 40166 5//// 6//// 7//// 8//// 9////   333 20194 55/// ///// 58004 6000/   555 60055 =
  VDR 11034 99224 10732 10123 00452 26/// /3401 10113 20080 30116 40170 5//// 6//// 7//// 8//// 9////   333 20107 55/// ///// 58021 6000/   555 60000 =
  VID 11034 99235 10778 10137 04412 26/// /0102 10118 20020 39667 40188 5//// 6//// 7//// 8//// 9////   333 20114 55/// ///// 58016 6000/   555 60000 =
  VSL 11034 99257 10852 10055 00382 26/// /1002 10131 2//// 30142 40188 5//// 6//// 7//// 8//// 9////   333 20129 55/// ///// 58009 6003/   555 60000 =
  VZP 11034 99098 10769 02996 07152 26/// /0701 10203 2//// 39363 40162 5//// 6//// 7//// 8//// 9////   333 20175 55/// ///// 58007 6000/   555 60023 =
  WGL 11034 99180 10796 06489 02542 26/// /1810 10215 20213 39874 40167 5//// 6//// 7//// 8//// 9////   333 20210 55/// ///// 59001 6000/   555 60000 =
  WKH 11034 99261 10942 09964 12602 26/// /2601 10146 20054 38759 48513 5//// 6//// 7//// 8//// 9////   333 20111 55/// ///// 58012 6000/   555 60023 =
  WLM 11034 99255 10906 09950 02852 26/// /0100 10105 20104 30117 40465 5//// 6//// 7//// 8//// 9////   333 20081 55/// ///// 58001 6000/   555 60000 =
  WSM 11034 99201 10771 10107 05492 26/// /3304 10162 2//// 3//// 4//// 5//// 6//// 7//// 8//// 9////   333 20144 55/// ///// 58/// 6000/   555 60013 =
  YML 11034 99204 10781 10108 04802 26/// /2604 10185 20101 39631 40183 5//// 6//// 7//// 8//// 9////   333 20162 55/// ///// 58007 6000/   555 60039 =
  ALW 11034 99275 10766 10176 02462 26/// ///// 10121 20051 39886 40178 5//// 6//// 7//// 8//// 9////   333 20106 55/// ///// 58016 6000/   555 60000 =
  BKU 11034 99232 10870 10037 01312 26/// /0601 10155 2//// 30042 40197 5//// 6//// 7//// 8//// 9////   333 20127 55/// ///// 59005 6000/   555 60000 =
  BPR 11034 99271 10773 10177 01762 26/// /2202 10081 20080 39957 40171 5//// 6//// 7//// 8//// 9////   333 20071 55/// ///// 58011 6000/   555 60000 =
  BRW 11034 99232 10879 10037 00522 26/// /0902 10162 2//// 30118 40180 5//// 6//// 7//// 8//// 9////   333 20113 55/// ///// 59005 6000/   555 60002 =
  BSH 11034 99226 10889 10028 00202 26/// /0400 10159 2//// 30161 40185 5//// 6//// 7//// 8//// 9////   333 20132 55/// ///// 59001 6000/   555 60000 =
  CNG 11034 99307 10769 13706 03472 26/// /3101 10078 20077 39762 40179 5//// 6//// 7//// 8//// 9////   333 20068 55/// ///// 58012 6000/   555 6//// =
  CSR 11034 99229 10884 10028 00172 26/// /3001 10146 20144 30151 40171 5//// 6//// 7//// 8//// 9////   333 20081 55/// ///// 59002 6000/   555 60000 =
  DDN 11034 99303 10780 13708 07022 26/// /1101 10092 20089 39386 40207 5//// 6//// 7//// 8//// 9////   333 20086 55/// ///// 58004 6015/   555 6//// =
  GUL 11034 99340 10744 13644 30782 26/// /0702 1//// 2//// 3//// 47/// 5//// 6//// 7//// 8//// 9////   333 2//// 55/// ///// 58/// 6000/   555 60004 =
  GYL 11034 99273 10882 10078 17172 26/// /1201 10080 2//// 3//// 48/// 5//// 6//// 7//// 8//// 9////   333 20056 55/// ///// 58/// 6000/   555 60000 =
  HFL 11034 99252 10930 09953 06902 26/// /0201 10165 20097 39392 40173 5//// 6//// 7//// 8//// 9////   333 20123 55/// ///// 58006 6000/   555 60110 =
  HRN 11034 99340 10747 13644 15932 26/// /3301 11005 2//// 38471 48562 5//// 6//// 7//// 8//// 9////   333 21011 55/// ///// 58048 6001/   555 60000 =
  HYD 11034 99174 10785 06578 05452 26/// /1404 10199 20173 39545 40165 5//// 6//// 7//// 8//// 9////   333 20184 55/// ///// 58000 6000/   555 60120 =
  ISR 11034 99174 10747 06574 05802 26/// /1702 10158 20126 39422 40084 5//// 6//// 7//// 8//// 9////   333 2//// 55/// ///// 58/// 6000/   555 6//// =
  JPG 11034 99265 10887 10068 00852 26/// /3201 1//// 29000 3//// 4//// 5//// 6//// 7//// 8//// 9////   333 2//// 55/// ///// 58/// 6000/   555 60016 =
  JPR 11034 99268 10758 10165 03602 26/// /0201 10105 2//// 39748 40177 5//// 6//// 7//// 8//// 9////   333 20058 55/// ///// 58020 6000/   555 60000 =
  KDT 11034 99263 10800 10160 01012 26/// /3100 10125 2//// 39984 40104 5//// 6//// 7//// 8//// 9////   333 20115 55/// ///// 58000 6000/   555 60000 =
  KHW 11034 99241 10916 09941 00372 26/// /2001 10117 20115 30115 40159 5//// 6//// 7//// 8//// 9////   333 20092 55/// ///// 59004 6000/   555 60001 =
  KMP 11034 99242 10918 09941 00362 26/// /0002 10113 20111 30113 40156 5//// 6//// 7//// 8//// 9////   333 20089 55/// ///// 59003 6000/   555 60026 =
  KPL 11034 99313 10753 13715 02292 26/// /0301 10059 20058 39908 40186 5//// 6//// 7//// 8//// 9////   333 20035 55/// ///// 58009 6000/   555 60000 =
  KSN 11034 99234 10885 10038 00012 26/// /2300 10166 20155 30163 40164 5//// 6//// 7//// 8//// 9////   333 20117 55/// ///// 59004 6000/   555 60000 =
  MMG 11034 99275 10885 10078 11912 26/// /0101 10091 20053 39856 48404 5//// 6//// 7//// 8//// 9////   333 20070 55/// ///// 58014 6000/   555 60000 =
  MRM 11034 99154 10738 06553 00602 26/// /0104 10222 20158 30081 40151 5//// 6//// 7//// 8//// 9////   333 20213 55/// ///// 58009 6000/   555 60000 =
  MSB 11034 99311 10772 13717 22702 26/// /2404 11012 21015 37702 48467 5//// 6//// 7//// 8//// 9////   333 21017 55/// ///// 59004 6000/   555 60000 =
  RJJ 11034 99240 10767 10146 03602 26/// ///// 1//// 2//// 3//// 4//// 5//// 6//// 7//// 8//// 9////   333 2//// 55/// ///// 58/// 6000/   555 6//// =
  RMP 11034 99288 10790 10189 01912 26/// ///// 1//// 2//// 3//// 4//// 5//// 6//// 7//// 8//// 9////   333 2//// 55/// ///// 58/// 6003/   555 6//// =
  RCW 11034 99302 10785 13708 19642 26/// /1108 10015 2//// 38022 48495 5//// 6//// 7//// 8//// 9////   333 20007 55/// ///// 59004 6004/   555 60000 =
  RGJ 11034 99256 10881 10058 00562 26/// ///// 10140 20138 30132 40199 5//// 6//// 7//// 8//// 9////   333 20125 55/// ///// 58010 6000/   555 60000 =
  RMG 11034 99340 10748 13644 15872 26/// /3301 10000 20008 38472 48557 5//// 6//// 7//// 8//// 9////   333 20003 55/// ///// 58049 6001/   555 60000 =
  RTN 11034 99166 10732 06563 01002 26/// /3401 10206 2//// 30048 40164 5//// 6//// 7//// 8//// 9////   333 20169 55/// ///// 58012 6000/   555 6//// =
  SUR 11034 99239 10875 10037 00822 26/// /0801 10167 20129 30073 40170 5//// 6//// 7//// 8//// 9////   333 20124 55/// ///// 58000 6000/   555 60000 =
  ULB 11034 99225 10881 10028 00062 26/// /0300 10175 20173 30154 40161 5//// 6//// 7//// 8//// 9////   333 20121 55/// ///// 59004 6000/   555 60020 =
  BGG 11034 99264 10906 09960 00652 26/// /2901 10156 20066 30121 40198 5//// 6//// 7//// 8//// 9////   333 20091 55/// ///// 58003 6000/   555 60021 =
  BNR 11034 99200 10830 10003 01902 26/// /1706 10218 20184 39943 40163 5//// 6//// 7//// 8//// 9////   333 20196 55/// ///// 59005 6000/   555 60011 =
  BRN 11034 99304 10755 13705 02302 26/// /2902 10063 20044 39914 40195 5//// 6//// 7//// 8//// 9////   333 20053 55/// ///// 58016 6000/   555 60000 =
  CKN 11034 99136 10769 06536 06812 26/// /1801 10208 20158 39387 40149 5//// 6//// 7//// 8//// 9////   333 20179 55/// ///// 58003 6000/   555 60035 =
  DAA 11034 99204 10728 10102 00102 26/// /0700 10143 20072 30164 40176 5//// 6//// 7//// 8//// 9////   333 20093 55/// ///// 58/// 6000/   555 60100 =
  DHE 11034 99275 10946 09974 01062 26/// /2001 10143 2//// 30056 40182 5//// 6//// 7//// 8//// 9////   333 20086 55/// ///// 58007 6000/   555 60000 =
  DUL 11034 99209 10748 10104 02782 26/// /2001 10143 2//// 39873 40202 5//// 6//// 7//// 8//// 9////   333 20097 55/// ///// 58021 6000/   555 60022 =
  DWS 11034 99230 10760 10136 05232 26/// /0402 10128 20126 39553 40162 5//// 6//// 7//// 8//// 9////   333 20116 55/// ///// 58/// 6000/   555 60000 =
  ETH 11034 99276 10786 10178 01712 26/// /2902 10092 2//// 39971 40178 5//// 6//// 7//// 8//// 9////   333 20090 55/// ///// 58007 6000/   555 60000 =
  GDH 11034 99233 10726 10132 00972 26/// /3001 1//// 29000 30069 4//// 5//// 6//// 7//// 8//// 9////   333 2//// 55/// ///// 58024 6000/   555 60000 =
  HMR 11034 99314 10763 13716 14602 26/// /2301 10037 20077 39308 48190 5//// 6//// 7//// 8//// 9////   333 20023 55/// ///// 58011 6000/   555 60000 =
  HNW 11034 99143 10744 06544 00602 26/// /0300 10224 2//// 3//// 4//// 5//// 6//// 7//// 8//// 9////   333 20204 55/// ///// 58/// 6000/   555 6//// =
  JLD 11034 99310 10753 13715 02202 26/// /0302 10112 2//// 39896 40158 5//// 6//// 7//// 8//// 9////   333 2//// 55/// ///// 58010 6000/   555 60000 =
  KPS 11034 99168 10795 06569 01382 26/// /1407 10220 20218 30020 40180 5//// 6//// 7//// 8//// 9////   333 20206 55/// ///// 59002 6000/   555 60026 =
  NNB 11034 99214 10742 10114 02032 26/// ///// 10161 2//// 3//// 4//// 5//// 6//// 7//// 8//// 9////   333 20138 55/// ///// 58/// 6000/   555 60013 =
  NVL 11034 99140 10756 06545 06142 26/// /2301 10189 20105 39475 40173 5//// 6//// 7//// 8//// 9////   333 20184 55/// ///// 58/// 6000/   555 60008 =
  SDL 11034 99293 10754 10195 02102 26/// /2902 10046 20045 39948 40206 5//// 6//// 7//// 8//// 9////   333 20036 55/// ///// 58020 6000/   555 60000 =
  UKU 11034 99144 10788 06548 01172 26/// ///// 10226 2//// 30011 40147 5//// 6//// 7//// 8//// 9////   333 20188 55/// ///// 59004 6000/   555 60032 =

0000137500
064
SIIN90 VECC 110300
AAXX 11034
42807 31995 00000 10178 20151 40177 71000
  333 20132 59003
  555 10000=
42603 32595 01801 10168 20113 40187
  333 20108 58002
  555 10000=
42399 31496 80000 10144 20106 40187 70500 8562/
  333 20117 58009
  555 10000=
42706 31995 00000 10130 20123 40168 71000
  333 20118 59008
  555 10002=
42217 31595 70000 10084 20050 38782 48591 70522 87400
  333 20068 58002
  555 10000=
42403 31995 60000 10144 20126 40191 70511 86505
  333 20081 58004
  555 10000=
42299 31495 70000 10062 20032 38231 48544 70522 85630
  333 20052 58017 82710 85618
  555 10000=
42901 31996 03601 10160 20146 40169 70500
  333 20115 59006
  555 10000=
42806 31995 00000 10176 20166 40180 70500
  333 20133 59002
  555 10000=
42811 31994 03401 10150 20143 40179 74044
  333 20122 59006
  555 10000=
42812 31995 00000 10150 20150 40175 71000
  333 20116 59002
  555 10000=
43333 31496 50706 10288 20233 40144 70510 84401
  333 20253 56109 58004 82618 83820
  555 10000=
42711 32594 00000 10140 20136 40195
  333 20102 59001
  555 10000=
42503 21593 83602 10158 20133 40193 74454 8451/
  333 20141 58002 6990/
  555 10000=
42803 31996 03601 10154 20133 40177 70544
  333 20123
  555 10000=
42708 31995 03602 10166 20115 40184 70500
  333 20103 59002
  555 10002=
0001265600
065
SNIN02 DEMS 110300
OOXX
  NWA 11034 99258 10758 10155 ////2 26/// ///// 10092 2//// 3//// 40/// 5//// 6//// 7//// 8//// 9////   333 2//// 55/// ///// 58/// 6000/   555 6//// =
  OSI 11034 99267 10729 10162 ////2 26/// ///// 10086 2//// 3//// 40/// 5//// 6//// 7//// 8//// 9////   333 2//// 55/// ///// 58/// 6000/   555 6//// =
  PAR 11034 99172 10779 06577 ////2 26/// ///// 1//// 2//// 3//// 4//// 5//// 6//// 7//// 8//// 9////   333 2//// 55/// ///// 58/// 6000/   555 6//// =
  PAW 11034 99242 10802 10040 ////2 26/// ///// 1//// 2//// 3//// 4//// 5//// 6//// 7//// 8//// 9////   333 2//// 55/// ///// 58/// 6000/   555 6//// =
  PIS 11034 99263 10744 10164 ////2 26/// ///// 1//// 2//// 3//// 4//// 5//// 6//// 7//// 8//// 9////   333 2//// 55/// ///// 58/// 6000/   555 6//// =
  PNR 11034 99190 10742 06594 ////2 26/// ///// 1//// 2//// 3//// 4//// 5//// 6//// 7//// 8//// 9////   333 2//// 55/// ///// 58/// 6000/   555 6//// =
  PPU 11034 99263 10757 10165 ////2 26/// ///// 1//// 2//// 3//// 4//// 5//// 6//// 7//// 8//// 9////   333 2//// 55/// ///// 58/// 6000/   555 6//// =
  PTO 11034 99212 10825 10012 ////2 26/// ///// 10193 2//// 3//// 40/// 5//// 6//// 7//// 8//// 9////   333 2//// 55/// ///// 58/// 6000/   555 6//// =
  PTV 11034 99243 10823 10042 ////2 26/// ///// 1//// 2//// 3//// 4//// 5//// 6//// 7//// 8//// 9////   333 2//// 55/// ///// 58/// 6000/   555 6//// =
  PYA 11034 99120 10798 06529 ////2 26/// ///// 10224 2//// 3//// 40/// 5//// 6//// 7//// 8//// 9////   333 2//// 55/// ///// 58/// 6000/   555 6//// =
  PZI 11034 99116 10758 06515 ////2 26/// ///// 10236 2//// 3//// 40/// 5//// 6//// 7//// 8//// 9////   333 2//// 55/// ///// 58/// 6000/   555 6//// =
  RAT 11034 99254 10793 10159 ////2 26/// ///// 10112 2//// 3//// 40/// 5//// 6//// 7//// 8//// 9////   333 2//// 55/// ///// 58/// 6000/   555 6//// =
  RAW 11034 99247 10722 10142 ////2 26/// ///// 10114 2//// 3//// 40/// 5//// 6//// 7//// 8//// 9////   333 2//// 55/// ///// 58/// 6000/   555 6//// =
  RCH 11034 99233 10855 10035 ////2 26/// ///// 1//// 2//// 3//// 4//// 5//// 6//// 7//// 8//// 9////   333 2//// 55/// ///// 58/// 6000/   555 6//// =
  RCM 11034 99175 10786 06578 ////2 26/// ///// 1//// 2//// 3//// 4//// 5//// 6//// 7//// 8//// 9////   333 2//// 55/// ///// 58/// 6000/   555 6//// =
  RDU 11034 99266 10814 10061 ////2 26/// ///// 1//// 2//// 3//// 4//// 5//// 6//// 7//// 8//// 9////   333 2//// 55/// ///// 58/// 6005/   555 6//// =
  RED 11034 99246 10725 10142 ////2 26/// ///// 1//// 2//// 3//// 4//// 5//// 6//// 7//// 8//// 9////   333 2//// 55/// ///// 58/// 6000/   555 6//// =
  RHL 11034 99236 10790 10139 ////2 26/// ///// 1//// 2//// 3//// 4//// 5//// 6//// 7//// 8//// 9////   333 2//// 55/// ///// 58/// 6000/   555 6//// =
  RII 11034 99272 10767 10176 ////2 26/// ///// 1//// 2//// 3//// 4//// 5//// 6//// 7//// 8//// 9////   333 2//// 55/// ///// 58/// 6000/   555 6//// =
  RMA 11034 99294 10791 10199 ////2 26/// ///// 1//// 2//// 3//// 4//// 5//// 6//// 7//// 8//// 9////   333 2//// 55/// ///// 58/// 6000/   555 6//// =
  RMR 11034 99250 10731 10153 ////2 26/// ///// 1//// 2//// 3//// 4//// 5//// 6//// 7//// 8//// 9////   333 2//// 55/// ///// 58/// 6000/   555 6//// =
  ROS 11034 99260 10869 10066 ////2 26/// ///// 1//// 2//// 3//// 4//// 5//// 6//// 7//// 8//// 9////   333 2//// 55/// ///// 58/// 6000/   555 6//// =
  SAW 11034 99236 10740 10134 ////2 26/// ///// 10146 2//// 3//// 40/// 5//// 6//// 7//// 8//// 9////   333 2//// 55/// ///// 58/// 6000/   555 6//// =
  SBD 11034 99274 10796 10179 ////2 26/// ///// 1//// 2//// 3//// 4//// 5//// 6//// 7//// 8//// 9////   333 2//// 55/// ///// 58/// 6000/   555 6//// =
  SBL 11034 99286 10786 10188 ////2 26/// ///// 1//// 2//// 3//// 4//// 5//// 6//// 7//// 8//// 9////   333 2//// 55/// ///// 58/// 6000/   555 6//// =
  SEA 11034 99217 10751 10115 ////2 26/// ///// 1//// 2//// 3//// 4//// 5//// 6//// 7//// 8//// 9////   333 2//// 55/// ///// 58/// 6000/   555 6//// =
  SGI 11034 99298 10744 10194 ////2 26/// ///// 1//// 2//// 3//// 4//// 5//// 6//// 7//// 8//// 9////   333 2//// 55/// ///// 58/// 6000/   555 6//// =
  SHG 11034 99227 10782 10128 ////2 26/// ///// 1//// 2//// 3//// 4//// 5//// 6//// 7//// 8//// 9////   333 2//// 55/// ///// 58/// 6000/   555 6//// =
  SHM 11034 99294 10773 10197 ////2 26/// ///// 1//// 2//// 3//// 4//// 5//// 6//// 7//// 8//// 9////   333 2//// 55/// ///// 58/// 6000/   555 6//// =
  SII 11034 99213 10830 10013 ////2 26/// ///// 1//// 2//// 3//// 4//// 5//// 6//// 7//// 8//// 9////   333 2//// 55/// ///// 58/// 6000/   555 6//// =
  SIM 11034 99274 10756 10175 ////2 26/// ///// 1//// 2//// 3//// 4//// 5//// 6//// 7//// 8//// 9////   333 2//// 55/// ///// 58/// 6000/   555 6//// =
  SIN 11034 99219 10733 10113 ////2 26/// ///// 1//// 2//// 3//// 4//// 5//// 6//// 7//// 8//// 9////   333 2//// 55/// ///// 58/// 6000/   555 6//// =
  SIS 11034 99302 10788 13608 ////2 26/// ///// 10099 2//// 3//// 40/// 5//// 6//// 7//// 8//// 9////   333 2//// 55/// ///// 58/// 6001/   555 6//// =
  SJM 11034 99264 10907 09960 ////2 26/// ///// 1//// 2//// 3//// 4//// 5//// 6//// 7//// 8//// 9////   333 2//// 55/// ///// 58/// 6000/   555 6//// =
  SJP 11034 99185 10738 06583 ////2 26/// ///// 10113 2//// 3//// 40/// 5//// 6//// 7//// 8//// 9////   333 2//// 55/// ///// 58/// 6000/   555 6//// =
  SKD 11034 99264 10796 10169 ////2 26/// ///// 1//// 2//// 3//// 4//// 5//// 6//// 7//// 8//// 9////   333 2//// 55/// ///// 58/// 6000/   555 6//// =
  SNA 11034 99291 10776 10197 ////2 26/// ///// 10068 2//// 3//// 40/// 5//// 6//// 7//// 8//// 9////   333 2//// 55/// ///// 58/// 6000/   555 6//// =
  SND 11034 99270 10805 10070 ////2 26/// ///// 10126 2//// 3//// 40/// 5//// 6//// 7//// 8//// 9////   333 2//// 55/// ///// 58/// 6000/   555 6//// =
  SNP 11034 99187 10738 06583 ////2 26/// ///// 10147 2//// 3//// 40/// 5//// 6//// 7//// 8//// 9////   333 2//// 55/// ///// 58/// 6000/   555 6//// =
  SNR 11034 99236 10765 10136 ////2 26/// ///// 1//// 2//// 3//// 4//// 5//// 6//// 7//// 8//// 9////   333 2//// 55/// ///// 58/// 6000/   555 6//// =
  SOM 11034 99298 10796 10199 ////2 26/// ///// 1//// 2//// 3//// 4//// 5//// 6//// 7//// 8//// 9////   333 2//// 55/// ///// 58/// 6000/   555 6//// =
  SPU 11034 99232 10807 10030 ////2 26/// ///// 1//// 2//// 3//// 4//// 5//// 6//// 7//// 8//// 9////   333 2//// 55/// ///// 58/// 6007/   555 6//// =
  SUN 11034 99311 10770 13617 ////2 26/// ///// 1//// 2//// 3//// 4//// 5//// 6//// 7//// 8//// 9////   333 2//// 55/// ///// 58/// 6002/   555 6//// =
  TBG 11034 99266 10816 10061 ////2 26/// ///// 10128 2//// 3//// 40/// 5//// 6//// 7//// 8//// 9////   333 2//// 55/// ///// 58/// 6000/   555 6//// =
  THE 11034 99090 10770 02997 ////2 26/// ///// 1//// 2//// 3//// 4//// 5//// 6//// 7//// 8//// 9////   333 20358 55/// ///// 58/// 6000/   555 6//// =
  THL 11034 99300 10795 13609 ////2 26/// ///// 1//// 2//// 3//// 4//// 5//// 6//// 7//// 8//// 9////   333 2//// 55/// ///// 58/// 6000/   555 6//// =
  TIJ 11034 99279 10768 10176 ////2 26/// ///// 10063 2//// 3//// 40/// 5//// 6//// 7//// 8//// 9////   333 2//// 55/// ///// 58/// 6000/   555 6//// =
  TIM 11034 99224 10772 10127 ////2 26/// ///// 1//// 2//// 3//// 4//// 5//// 6//// 7//// 8//// 9////   333 2//// 55/// ///// 58/// 6000/   555 6//// =
  TRR 11034 99286 10750 10185 ////2 26/// ///// 1//// 2//// 3//// 4//// 5//// 6//// 7//// 8//// 9////   333 2//// 55/// ///// 58/// 6000/   555 6//// =
  UHR 11034 99255 10812 10051 ////2 26/// ///// 1//// 2//// 3//// 4//// 5//// 6//// 7//// 8//// 9////   333 2//// 55/// ///// 58/// 6000/   555 6//// =
  UPW 11034 99277 10755 10175 ////2 26/// ///// 1//// 2//// 3//// 4//// 5//// 6//// 7//// 8//// 9////   333 2//// 55/// ///// 58/// 6000/   555 6//// =
  VAI 11034 99092 10786 02998 ////2 26/// ///// 10229 2//// 3//// 40/// 5//// 6//// 7//// 8//// 9////   333 2//// 55/// ///// 58/// 6000/   555 6//// =
  VEP 11034 99113 10788 06518 ////2 26/// ///// 1//// 2//// 3//// 4//// 5//// 6//// 7//// 8//// 9////   333 2//// 55/// ///// 58/// 6000/   555 6//// =
  VGH 11034 99240 10808 10040 ////2 26/// ///// 1//// 2//// 3//// 4//// 5//// 6//// 7//// 8//// 9////   333 2//// 55/// ///// 58/// 6020/   555 6//// =
  VPR 11034 99260 10774 10167 ////2 26/// ///// 1//// 2//// 3//// 4//// 5//// 6//// 7//// 8//// 9////   333 2//// 55/// ///// 58/// 6000/   555 6//// =
  YAC 11034 99170 10786 06578 ////2 26/// ///// 1//// 2//// 3//// 4//// 5//// 6//// 7//// 8//// 9////   333 2//// 55/// ///// 58/// 6000/   555 6//// =
  YDU 11034 99176 10803 06470 ////2 26/// ///// 1//// 2//// 3//// 4//// 5//// 6//// 7//// 8//// 9////   333 2//// 55/// ///// 58/// 6000/   555 6//// =
  YRM 11034 99160 10793 06569 ////2 26/// ///// 1//// 2//// 3//// 4//// 5//// 6//// 7//// 8//// 9////   333 2//// 55/// ///// 58/// 6000/   555 6//// =
  AAD 11034 99176 10766 06576 ////2 26/// ///// 1//// 2//// 3//// 4//// 5//// 6//// 7//// 8//// 9////   333 2//// 55/// ///// 58/// 6000/   555 6//// =
  ARV 11034 99162 10748 06564 ////2 26/// ///// 10165 2//// 3//// 40/// 5//// 6//// 7//// 8//// 9////   333 2//// 55/// ///// 58/// 6000/   555 6//// =
  BAM 11034 99232 10837 10033 ////2 26/// ///// 1//// 2//// 3//// 4//// 5//// 6//// 7//// 8//// 9////   333 2//// 55/// ///// 58/// 6000/   555 6//// =
  BIR 11034 99208 10840 10004 ////2 26/// ///// 1//// 2//// 3//// 4//// 5//// 6//// 7//// 8//// 9////   333 2//// 55/// ///// 58/// 6000/   555 6//// =
  DEM 11034 99237 10883 10038 ////2 26/// ///// 1//// 2//// 3//// 4//// 5//// 6//// 7//// 8//// 9////   333 2//// 55/// ///// 58/// 6000/   555 6//// =
  DHO 11034 99217 10704 10110 ////2 26/// ///// 1//// 2//// 3//// 4//// 5//// 6//// 7//// 8//// 9////   333 2//// 55/// ///// 58/// 6000/   555 6//// =
  DTR 11034 99211 10858 10015 ////2 26/// ///// 1//// 2//// 3//// 4//// 5//// 6//// 7//// 8//// 9////   333 2//// 55/// ///// 58/// 6000/   555 6//// =
  GGK 11034 99189 10767 06586 ////2 26/// ///// 1//// 2//// 3//// 4//// 5//// 6//// 7//// 8//// 9////   333 2//// 55/// ///// 58/// 6000/   555 6//// =
  GHU 11034 99314 10767 13616 ////2 26/// ///// 1//// 2//// 3//// 4//// 5//// 6//// 7//// 8//// 9////   333 2//// 55/// ///// 58/// 6001/   555 6//// =
  JRN 11034 99308 10755 13605 ////2 26/// ///// 1//// 2//// 3//// 4//// 5//// 6//// 7//// 8//// 9////   333 2//// 55/// ///// 58/// 6000/   555 6//// =
  JVR 11034 99227 10881 10028 ////2 26/// ///// 1//// 2//// 3//// 4//// 5//// 6//// 7//// 8//// 9////   333 2//// 55/// ///// 58/// 6000/   555 6//// =
  KDW 11034 99337 10751 13635 ////2 26/// ///// 1//// 2//// 3//// 4//// 5//// 6//// 7//// 8//// 9////   333 20014 55/// ///// 58/// 6005/   555 6//// =
  KNI 11034 99092 10769 02996 ////2 26/// ///// 10248 2//// 3//// 40/// 5//// 6//// 7//// 8//// 9////   333 2//// 55/// ///// 58/// 6000/   555 6//// =
  KNT 11034 99238 10872 10037 ////2 26/// ///// 1//// 2//// 3//// 4//// 5//// 6//// 7//// 8//// 9////   333 2//// 55/// ///// 58/// 6000/   555 6//// =
  KUG 11034 99130 10770 06537 ////2 26/// ///// 1//// 2//// 3//// 4//// 5//// 6//// 7//// 8//// 9////   333 2//// 55/// ///// 58/// 6000/   555 6//// =
  LIL 11034 99215 10714 10111 ////2 26/// ///// 1//// 2//// 3//// 4//// 5//// 6//// 7//// 8//// 9////   333 2//// 55/// ///// 58/// 6000/   555 6//// =
  MEJ 11034 99263 10889 10068 ////2 26/// ///// 1//// 2//// 3//// 4//// 5//// 6//// 7//// 8//// 9////   333 2//// 55/// ///// 58/// 6000/   555 6//// =
  MHM 11034 99288 10761 10186 ////2 26/// ///// 10068 2//// 3//// 40/// 5//// 6//// 7//// 8//// 9////   333 2//// 55/// ///// 58/// 6000/   555 6//// =
  MHN 11034 99305 10760 13606 ////2 26/// ///// 10065 2//// 3//// 40/// 5//// 6//// 7//// 8//// 9////   333 2//// 55/// ///// 58/// 6000/   555 6//// =
  PHL 11034 99312 10758 13615 ////2 26/// ///// 10062 2//// 3//// 40/// 5//// 6//// 7//// 8//// 9////   333 2//// 55/// ///// 58/// 6000/   555 6//// =
  PHN 11034 99185 10738 06583 ////2 26/// ///// 10116 2//// 3//// 40/// 5//// 6//// 7//// 8//// 9////   333 2//// 55/// ///// 58/// 6000/   555 6//// =
  RRI 11034 99334 10743 13634 ////2 26/// ///// 1//// 2//// 3//// 4//// 5//// 6//// 7//// 8//// 9////   333 2//// 55/// ///// 58/// 6000/   555 6//// =
  UDM 11034 99329 10760 13626 ////2 26/// ///// 1//// 2//// 3//// 4//// 5//// 6//// 7//// 8//// 9////   333 2//// 55/// ///// 58/// 6001/   555 6//// =
  VZD 11034 99116 10784 06518 ////2 26/// ///// 1//// 2//// 3//// 4//// 5//// 6//// 7//// 8//// 9////   333 2//// 55/// ///// 58/// 6000/   555 6//// =
  YKM 11034 99274 10882 10078 ////2 26/// ///// 1//// 2//// 3//// 4//// 5//// 6//// 7//// 8//// 9////   333 2//// 55/// ///// 58/// 6000/   555 6//// =

0000215100
066
SIIN90 VABP 110300
AAXX 11034
42567 21/92 90502 10146 20143 40168 74544 89///
  333 20125 59004 6013/
  555 00132 10025=
42662 31/93 90501 10136 20117 40172 74544 89///
  333 20105 58016
  555 10001=
42557 32596 83602 10124 20105 40184 74344 89///
  333 20115 58016
  555 10002=
42665 31/91 90501 10126 20124 40170 74744 89///
  333 20124 58018
  555 10000=
42559 32595 80000 10122 20111 40180 8452/
  333 20098 58017 84620 88460
  555 10000=
42754 31991 90000 10114 20107 39515 40177 74741 8////
  333 20067 58018
  555 10000=
42571 21592 80501 10156 20149 40159 74444 8653/
  333 20137 59005 6004/
  555 00042 10010=
42574 21595 80000 10154 20154 4//// 71040 8553/
  333 20110 5//// 6015/
  555 00154 10024=
42577 21592 80000 10154 20147 40154 74444 8653/
  333 20130 58000 6005/
  555 00052 10030=
42671 31/92 90000 10128 20124 39532 40173 74344 89///
  333 20108 58007
  555 10003=
42674 31/92 93202 10136 20132 40154 74344
  333 20094 58003
  555 10004=
42672 31/93 80000 10124 20124 40170 74244
  333 20/// 58009
  555 10014=
42467 32995 03202 10126 20126 40177
  333 20114 58004
  555 10019=
42361 31/93 93204 10106 20090 40191 74544 89///
  333 20098 58011
  555 10005=
42667 31090 90206 10122 20122 39570 40170 74944
  333 20119 58018
  555 10012=
42675 21493 80000 10160 20153 40161 74696 8860/
  333 20156 59001 6021/ 88710
  555 00211 10021=
42562 32892 80201 10140 20122 40164 74000
  333 10187 20124 58000
  555 10011=
42459 32995 83202 10100 20080 40128
  333 10210 20074 59006
  555 10021=
42456 32994 00501 10100 20096 40174
  333 10174 20074 59031
  555 10002=
42460 32994 02701 10108 20104 40190
  333 10172 20080 59002
  555 10011=
42661 31/92 90901 10122 20118 39609 40179 74344 89///
  333 20078 58021
  555 10000=
42763 21595 73202 10150 20143 39817 40172 70522 85530
  333 20130 58016 6992/
  555 00002 10001=
42767 32896 83202 10144 20131 38961 48470 88060
  333 20114 58009
  555 10003=
42860 32996 53201 10144 20104 39407 40155 83065
  333 20130 58008
  555 10000=
0000239600
067
SIID20 WIIX 110300
AAXX 11034
96009 21456 80000 10250 20235 30104 40139 52019 79196 8492/
  333 56009 57903 69907 81915 83617 87460 80965=
96011 32560 61004 10266 20233 30117 40143 52023 82572
  333 56000 83620 83360=
96035 31450 72605 10273 20239 30125 40134 52015 70522 85876
  333 56000 57802 85817 80850=
96073 42560 60000 10270 20243 30109 40121 51009 83522
  333 56000 83660=
96091 32460 63507 10292 20244 30103 40126 50005 84231
  333 56800 57881 84817 80860=
96109 32450 83606 10262 20238 30076 40117 40117 52010 70522 86521
  333 56800 86610=
96145 32456 61503 10284 20246 30113 40116 51003 85230
  333 56800 85816 83360=
96147 31457 63310 10260 20231 30127 40134 52004 70522 83531
  333 56000 83615 83360=
96163 32560 60506 10292 20235 30106 40113 52003 82578
  333 56000 82620=
96179 32460 73408 10300 20242 30081 40118 52012 83238
  333 56000 57802 83817 87280 80850=
96195 32460 83205 10268 20235 30122 40122 52006 70522 8752/
  333 87610 83360=
96221 21450 83204 10251 20248 30102 40116 52010 76162 8592/
  333 56999 57993 60037 85615 81920 88280 80890=
96237 32460 80504 10278 20249 30078 40119 52011 87878
  333 56000 83815 84616 83360=
96249 32459 70606 10267 20251 30050 40111 52008 85932
  333 56800 57981 57881 81917 84820 80981 80863=
96253 12257 73504 10274 20229 30085 40105 50009 70262 82872
  333 56000 57800 69907 81820 84460=
96295 32460 83206 10282 20241 30010 40116 51006 8522/
  333 56009 57800 85815 88460 80800=
96509 32459 63108 10288 20238 30114 40126 58005 84171
  333 56000 84815 84461=
96581 32460 30505 10292 20244 30110 40117 57007 81131
  333 56000 81813 80860=
96633 32559 83503 10284 20234 30108 40113 58001 82472
  333 56000 82620 86359=
96645 32457 73006 10292 20255 30085 40118 52000 85232
  333 56000 57802 82812 80858=
96655 32458 80501 10284 20243 30108 40139 50002 85572
  333 56000 85612=
96685 32560 60404 10286 20248 30094 40116 50001 83511
  333 56000 83620=
96749 32560 72805 10308 20249 30093 40106 58002 85921
  333 56000 57963 57843 81920 84821 85460 80980 80859=
96781 NIL=
96805 32561 31203 10303 20235 30110 40120 51007 82211
  333 56000 57801 82820 80858=
96839 32457 70506 10300 20235 30099 40103 56005 84232
  333 56000 57802 84818 80860=
96935 32560 60807 10298 20246 30111 40118 50000 83131
  333 56000 83820=
0000283000
068
SIID21 WIIX 110300
AAXX 11034
96001 31557 70607 10276 20244 30004 40152 51021 70522 84572
  333 56200 84620=
96015 32458 70302 10267 20243 30122 40129 50009 85572
  333 56000 84615=
96033 21456 70000 10272 20237 30129 40133 52001 70522 83927
  333 56000 57903 81920 83617 80980=
96075 NIL=
96087 32460 43408 10282 20231 30089 40122 50004 82178
  333 56000 57802 82814 83360 80859=
96171 31450 73007 10266 20242 30090 40114 52004 70522 85522
  333 56000 85613=
96207 31456 70000 10239 20196 39242 40171 52014 71622 84972
  333 56000 57900 81915 83360=
96505 32460 70604 10246 20219 39095 40387 57005 86231
  333 56000 86817 85363=
96525 32460 73109 10288 20243 30116 40123 58002 82471
  333 56000 82615 85460=
96529 32460 70000 10284 20249 30115 40139 58004 83138
  333 56000 83818 87280=
96535 32460 70305 10282 20238 30109 40130 50001 83231
  333 56100 57813 83814 86362 80865=
96557 32458 70000 10274 20226 30075 40124 54000 85321
  333 56600 57961 57861 81912 84813 86460 80980 80857=
96559 32458 50000 10288 20230 30085 40123 50002 83231
  333 56300 57831 83811 80857=
96565 31350 71803 10280 20236 30085 40136 58005 70522 84131
  333 56000 84809 84357=
96595 31457 80000 10264 20231 30082 40131 50006 70522 83577
  333 56000 83659=
96607 32460 83604 10296 20238 30107 40120 57008 84421
  333 56000 84618 86460=
96615 32460 53607 10294 20230 30110 40124 58001 82231
  333 56000 57803 82812 80856=
96695 32458 71804 10282 20241 30106 40112 58006 83111
  333 56000 57802 83814 85460 80859=
96737 31450 80000 10296 20244 30066 40096 50004 70522 85221
  333 56000 57801 85818 83460 80860=
96739 32460 51803 10310 20242 30054 40111 52001 82222
  333 56000 57801 82818 80858=
96741 32458 60203 10310 20242 30106 40110 52001 83311
  333 56000 57903 57803 81918 82820 84460 80959 80858=
96745 32559 63506 10308 20245 30117 40122 52017 83521
  333 56000 83620 86460=
96751 32562 73301 10238 20194 39036 40124 54000 85210
  333 56200 57822 82820 83620 83460 80875=
96791 32460 43502 10298 20240 30049 40123 55001 83231
  333 56000 57802 83818 80860=
96797 32562 60606 10304 20237 30104 40110 50004 82231
  333 56000 57804 82820 84080 80860=
96837 31558 60406 10300 20242 30106 40107 57007 70522 84221
  333 56000 57800 84823=
96925 21565 60506 10288 20260 30104 40109 58003 72162 85232
  333 56000 57800 69957 85820 80860=
96933 32460 40704 10306 20248 30112 40116 57004 83911
  333 56600 57962 81917 82817 80965=
96937 32560 60408 10305 20252 30110 40115 58001 83219
  333 56000 57801 83820 84460 80862=
96973 21460 73309 10290 20253 30110 40118 52001 76021 84976
  333 56000 57902 60027 81919 80977 83820 80850=
96987 32459 50206 10294 20248 30070 40124 50003 83271
  333 56000 57801 83818 80859=
0000317600
069
SIID22 WIIX 110300
AAXX 11034
97014 32560 72804 10282 20233 30005 40103 58003 84871
  333 56000 57803 83820 80858=
97028 42462 80000 10255 20241 30101 40107 ///// /////
  333 56009 84819 88460 80806=
97048 32459 51803 10282 20238 30067 40091 56009 84821
  333 56000 57801 83818 80860=
97072 21457 83307 10256 20227 30032 40132 56002 76162 8432/
  333 56809 57984 69907 81917 83618 86458 80978=
97086 32460 61905 10302 20254 30072 40098 56007 83271
  333 56000 57803 83819 80859=
97096 21458 73506 10286 20239 30105 40126 52007 76022 83821
  333 56000 57802 69907 83816 84460 80860=
97120 32462 62002 10300 20251 30077 40110 58005 82231
  333 56000 57803 82818 84360 80860=
97146 32460 52106 10312 20245 30039 40094 57015 83211
  333 56000 57802 83815 80859=
97180 22160 6//// 10301 20247 30101 40120 58006 81231
  333 56000 60007 82801 84460=
97192 21458 72603 10292 20250 30063 40127 57004 72962 85972
  333 56000 57901 69927 82915 83615 85460 80959=
97230 32460 62205 10291 20244 30106 40111 58001 83931
  333 56000 57902 57802 81915 82818 84080 80980 80858=
97260 32464 73306 10300 20248 30101 40107 58003 83931
  333 56000 57902 57804 81917 82817 84080 80980 80860=
97270 NIL=
97300 32558 80105 10304 20253 30075 40111 58007 83231
  333 56000 57801 83820 85360 80858=
97340 32570 80304 10313 20256 30091 40104 58006 81102
  333 56000 81820 88080=
97372 32460 63206 10310 20257 39980 40106 57011 84231
  333 56000 84818 83080=
97430 32460 73109 10288 20238 30061 40100 57010 83232
  333 56700 57872 83818 80860=
97460 21457 62302 10286 20247 30059 40073 57009 72162 85336
  333 56600 57961 60037 81917 84818 80959=
97502 32459 51904 10308 20256 30075 40075 57018 84131
  333 56000 84812=
97530 32458 71505 10332 20266 30067 40071 58012 83232
  333 56000 57803 83814 84360 80833=
97560 32460 82604 10300 20257 30061 40076 58003 84237
  333 56000 57803 84818 86360 88280 80858=
97580 32461 70000 10296 20247 30072 40089 51001 86832
  333 56000 57802 84618 84361 80860=
97600 32560 52208 10328 20239 30080 40085 57009 83271
  333 56000 57802 82820 80860=
97686 31462 71504 10241 20174 38331 40045 57022 71622 85836
  333 56000 57802 84814 86361 80859=
97690 32462 62807 10316 20238 39963 40059 57015 83232
  333 56000 57801 83816 80862=
97724 31460 72212 10317 20243 30065 40086 52012 71522 85972
  333 56600 57961 57861 81917 82818 80974 80860=
97748 31456 72515 10300 20257 30081 40083 56007 71522 83946
  333 56600 57961 57862 82913 83815 80950 80840=
97760 31458 70000 10317 20241 30072 40081 57013 71522 84932
  333 56000 57901 81915 83617 80980=
97796 32460 73007 10320 20239 30034 40083 57011 83232
  333 56000 57802 83815 85362 80856=
97810 21462 72708 10302 20259 30064 40071 58012 70266 83832
  333 56000 57801 60117 82819 80850=
97876 32360 62804 10308 20233 30045 40079 57014 85831
  333 56000 57800 83809 82610=
97900 21466 82210 10290 20253 30049 40079 50011 72122 8497/
  333 56600 57961 60027 81917 83820 87460 80975 80850=
97980 21460 62710 10298 20248 30060 40072 56014 72122 85842
  333 56000 69907 83817 82620=
0000187300
070
SIID23 WIIX 110300
AAXX 11034
97008 21456 83305 10250 20238 30068 40079 57009 76062 8622/
  333 56709 60107 86618 87458=
97016 32463 72104 10305 20226 30088 40090 58003 82272
  333 56000 57801 83819 85460 80860=
97126 32460 72001 10292 20234 30057 40118 56015 82520
  333 56000 82618 87460=
97142 32560 52205 10302 20248 30086 40100 56003 83271
  333 56000 57801 82820 80860=
97182 32568 60000 10280 20248 30115 40117 56005 82831
  333 56000 57802 82820 83080 80865=
97240 31459 62705 10300 20237 30001 40117 57001 70521 83171
  333 56000 83816=
97284 32460 50805 10238 20210 38883 40121 50004 84231
  333 56000 57804 84814 80837=
97310 32564 70000 10318 20250 30078 40090 58006 83221
  333 56000 57803 82820 86460 80856=
97320 32565 60405 10305 20246 30071 40084 58015 82126
  333 56000 82820 84080=
97378 32560 50000 10316 20260 39936 40099 56008 84101
  333 56200 84820=
97380 32464 42907 10316 20260 30082 40104 57002 82181
  333 56000 82818=
97406 21458 82207 10264 20249 30038 40064 56005 76062 8562/
  333 56609 60027 85615 88460=
97570 32460 52812 10304 20249 30066 40073 56008 85831
  333 56600 57862 83810 83362 80859=
97630 32460 52309 10306 20255 39937 40098 57011 84932
  333 56000 57901 81910 83812 80976=
97682 32465 63007 10316 20273 30059 40067 57015 83831
  333 56000 57803 83816 86361 80860=
97698 21458 60103 10304 20247 30065 40073 56015 72582 83872
  333 56000 57802 69907 82814 83460 85077 80866=
97700 32460 72103 10296 20238 30061 40077 57011 82272
  333 56000 57803 82817 84359 80850=
97722 32463 62003 10309 20246 30079 40094 58007 83806
  333 56000 57803 82819 84034 80857=
97780 32458 72304 10228 20131 38230 40171 58012 83231
  333 56000 57803 82813 86361 80859=
97790 32461 63108 10296 20257 30062 40083 58008 84232
  333 56600 57861 84818 80858=
0000020300
071
SOBR10 KWAL 110346
BAB00078 011034611":BUB 2 #1       M   0.399   0.439   0.439 :RAD 1 #1   0.348   0.326   0.341   0.335 :PRS 1 #1  -0.816  -0.815  -0.812  -0.806 :BL 11.30  37+0NP 219E
0000003800
072
SICI29 BABJ 110300
NIL
0000083400
073
SICI38 BABJ 110300
AAXX 11031
55279 32772 62206 11090 21317 35685 52010 86///=
55472 32780 61602 11083 21356 35717 52007 86///=
55696 32680 70901 11061 21132 36350 52015 87///=
56079 32780 73402 11069 21107 36685 52013 87///=
56106 32780 72206 11039 21322 36206 52025 87///=
56257 32980 00704 11007 21203 36271 52012=
56374 41580 70904 11028 21061 37451 52012 78580 87///=
56385 41/01 90000 11086 21091 37030 52015 77074=
56954 31929 01801 10103 20068 40245 52015 71000=
56966 32665 81403 10164 20107 40225 52018 88///=
57237 32965 83602 10050 21033 40329 52018 88///=
57306 31940 83401 10066 20041 40320 52018 71000 88///=
57604 41720 82501 10065 20065 40317 52016 76000 88///=
57707 41465 80901 10011 21011 38568 52015 72166 88///=
57832 31462 80202 10025 20006 40331 52016 72166 88///=
0000003800
074
SICI39 BABJ 110300
NIL
0000079200
075
SICI28 BABJ 110300
AAXX 11031
55228 32780 70000 11139 21258 36009 52021 87///=
55578 32880 80000 11048 21205 36368 52014 88///=
55664 32880 83601 11096 21260 35991 52014 88///=
55773 32670 72503 11088 21148 36006 52013 87///=
56116 32680 71101 11057 21157 36339 52024 87///=
56137 42680 12701 11021 21174 36800 52019 81///=
56172 42980 02502 10000 21108 37344 52007=
56247 32961 03601 10031 21128 37444 52016=
56312 42580 61803 10017 21057 37111 52018 86///=
56462 32970 01602 10017 21144 37143 52005=
56651 32680 12704 10103 21084 37665 52017 81///=
56691 31463 83402 11028 21036 37817 52016 76666 88///=
56985 32568 01101 10198 20072 40178 52011=
57633 42462 81101 10022 20001 40333 52016 88///=
57902 32566 80702 10029 20006 40289 52017 88///=
00000000