0000008600
609
UQCN03 CWAO 111200
PPDD  61128 71913 957// 28562 9618/ 29581 29077=

0000011200
610
ULCN03 CWAO 111200
TTCC  61125 71913 70743 70371 28564 50941 73769 29571 88999
77569 29581=

0000030000
611
SMAA19 LFVW 111200
AAXX 11124
89646 46/// /1404 11165 29082 37663 4//// 5////=
89661 46/// /0201 11046 29084 39345 4//// 5////=
89648 46/// /2105 11252 29076 37231 4//// 5////=
89659 46/// /3010 11237 29075 37745 4//// 5////=
89666 46/// /1807 11026 29075 39803 4//// 5////=
0000009000
612
SMAA17 LFVW 111200
AAXX 11124
89578 46/// /0604 11309 36972 4//// 5////=
0000183900
613
SMMG01 FMMI 111200
AAXX 11124
67002 32580 53206 10315 20252 30081 40122 85801
  333 59003 81820 83630 84073 92418=
67009 11570 72004 10250 20232 39980 40098 60101 57021 869//
  333 0//21 86820 81920 86640 94974 94975 94976 94977 95814 95815
95816 95817
  555 10312=
67012 11570 72408 10251 20222 30082 40093 55012 60031 76062 879//
  333 0//// 85820 81920 85640 94954 94958 95834 95838=
67025 NIL=

67027 32582 42810 10321 20259 30069 40090 57028 81933
  333 0//00 81820 81920 83073 94962 95832
  555 31360=
67045 NIL=

67072 31475 51210 10/// 20/// 30120 40123 57017 71522 82903
  333 0//00 82817 81917 84075 92418 94993 94994 94996 94997 94998
95873 95874 995878=
67073 32582 42204 10296 20260 30086 40112 57021 81905
  333 0//00 81820 81923 83273 94961 94962 94967 95831 95832 95837
  555 81633=
67083 32580 70000 10292 20158 38738 48514 57022 85933
  333 0//00 83820 83073 82920 94979 95839=
67095 31465 71210 10275 20257 30115 40121 57014 71510 85932
  333 0//00 83817 81917 83633 94966 94968 95836 95838=
67113 32580 3//// 10314 20253 30/// 40/// 5//// 82802
  333 0//00 82820
  555 81640 81073=
67117 NIL=

67137 31465 70606 10260 20214 38900 48507 57013 71792 86903
  333 0//00 83817 82917 84620 94999 95879
  555 10274 81073=
67143 32582 20604 10300 20234 30113 40120 57015 82800
  333 0//00 82820 92438
  555 81633=
67152 32580 42806 10263 20183 39221 48529 57009 84330
  333 0//00 84820 81920 94996 95876
  555 81360=
67157 32580 6//// 10/// 20/// 30141 40148 57007 86900
  333 0//00 83820 82920 85640 94997 95877=
67161 32582 32604 10/// 20/// 30118 40127 56010 82832
  333 0//00 81820
  555 81640 81360 82073=
67197 32480 61208 10294 20227 30128 40138 57006 86900
  333 0//00 83816 82916 84633 94967 94968 95837 95838=
0000010900
614
SMAL51 DAMM 111200 RRE
AAXX 11124
60593 36/// /1608 10212=
60376 36/// /0000 10188 20103=
0000011100
615
UANT99 KDDL 111227
ARP BER7008 5006N02555W 1227 F350 MS53 191/67 KT
DALPB QXT AOE 111227 J25A
0000011000
616
UANT99 KDDL 111227
ARP FWI540 4901N01913W 1227 F320 MS56 199/81 KT
FHPTP QXT AOE 111227 J23A
0000034300
617
SNVD15 KWNB 111000 RRS
BBXX
42369 11101 99272 70903 46/// /1901 1//// 91020=
42375 11101 99285 70883 46/// /1712 1//// 91020 22200 10402 70008
555 11094 22103=
42392 11101 99272 70900 46/// ///// 1//// 91020 22200 10402 70009=
42887 11101 99282 70885 46/// /2311 10227 20203 91020 22200 10402
70008 555 11092 22100=
0000055200
618
UKRE01 FMEE 111200
TTBB 61118 61980 00013 30459 11929 22242 22889 21024 33794 17457
44733 13261 55713 11872 66699 10660 77668 08260 88655 07272 99651
06864 11643 06275 22594 01872 33559 01349 44541 02366 55489 05180
66454 09158 77439 11164 88413 14556 99360 22160 11323 27922 22263
39567 33124 751// 44106 787// 21212 00013 08020 11898 12023 22595
12005 33500 06015 44320 19520 55264 16512 66216 12039 77170 13037
88126 10022 99116 12026 11106 09023 31313 47708 81120 41414 18584
51515 77336 16258 12017 60458 02472 12005=
0000011100
619
UANT01 CWAO 111227
ARP UAL123 5004N04952W 1227 F380 MS61 288/61 KT
N58101 QXS YYT 111227 F81A
0000011000
620
UANT01 CWAO 111227
ARP UAL56 5022N03733W 1227 F330 MS57 319/56 KT
N66051 DDL XXN 111227 F43A
0000011000
621
UANT01 CWAO 111227
ARP UAL37 5321N03732W 1227 F360 MS56 282/33 KT
N21108 DDL IG1 111227 F69A
0000011100
622
UANT01 CWAO 111227
ARP DAL251 6335N05234W 1227 F360 MS58 212/14 KT
N864DA QXT AOW 111227 F23A
0000012100
623
UEKZ11 UAAA 111200
TTDD  11123 35229 11997 69956 22669 73156 21212 11997 28527
22770 26531 33669 27531=
0000037100
624
SMVA01 DEMS 111200
BBXX
9V2003 11123 99247 10580 41598 71210 10205 20102 40193 56015 70022
85569 22233 00240 29901 80145=
A8HS3 11123 99149 10532 41597 70818 10270 20257 40170 55020 70322
8703/ 22214 04254 20904 30000 80260=
9V2004 11124 99022 30586 41598 70211 10290 20238 40090 55012 70322
83279 22244 00275 20502 304// 40502 5//// 80252=

0000142500
625
SMIN02 DEMS 111200
AAXX 11124
42309 21495 71802 10188 20158 40151 70520 84570
  333 10200 58009 6990/=
42314 31595 70000 10194 20135 40153 70522 83530
  333 10248 58003 83620=
42410 31495 70000 10186 20170 40175 76062 83330
  333 10222 57060 59035 83618 81925 87360=
42415 32496 60000 10194 20150 40179 84530
  333 10229 58011 84618 85360=
42492 21494 70203 10160 20143 40179 76022 84520
  333 10170 58032 6002/ 84615 86458=
42587 21994 80000 10170 20167 40151 75062 85520
  333 10184 58013 6007/ 85615 88458=
42591 21494 81103 10156 20146 40157 71096 8572/
  333 10173 58009 6007/ 81710 85618 88458=
42623 31996 21801 10174 20090 39264 40141 70500 82030
  333 10253 58003 82360=
42701 31494 70505 10146 20118 39409 40154 74144 84530
  333 10190 58008 84615 87360=
42706 31995 20702 10190 20130 40152 70500 80001
  333 10250 58016 82075=
42724 31595 30000 10210 20153 40155 70510 83500
  333 10262 58002 83620=
42798 31493 70906 10194 20110 40144 70422 85430
  333 10250 58011 84615 83825 87360=
42886 31995 20902 10256 20180 40124 70500 80001
  333 10282 58002 82075=
42895 31995 00902 10220 20171 40144 70500
  333 10272 58002=
42971 31995 21406 10256 20166 40143 70500 80001
  333 10312 58005 82075=
43333 31495 70905 10272 20231 40129 70511 84401
  333 10302 56109 58013 83616 83818 85070=
42398 NIL=
42809 NIL=
42977 NIL=
43368 NIL=
0000060100
626
SMIN62 DEMS 111200
AAXX 11124
07149 02262 72904 10079 20064 30097 40207 51015 60001 876//
  333 60007 87706 90710 91108 93100=
03772 NIL=
06240 NIL=
06451 NIL=
06670 NIL=
06700 NIL=
10384 NIL=
10637 NIL=
16235 NIL=
27612 NIL=
40180 NIL=
41194 NIL=
41571 NIL=
41640 NIL=
41780 NIL=
41923 NIL=
43466 NIL=
44454 NIL=
45007 NIL=
47007 NIL=
47108 NIL=
47662 NIL=
48455 NIL=
48647 NIL=
48698 NIL=
54511 NIL=
62366 NIL=
63740 NIL=
71628 NIL=
72295 NIL=
72405 NIL=
72494 NIL=
72503 NIL=
94610 NIL=
94767 NIL=
94866 NIL=
0000044300
627
UEIN01 DEMS 111200
TTDD 6112/ 42027 NIL=
TTDD 6112/ 42101 NIL=
TTDD 6112/ 42182 NIL=
TTDD 6112/ 42339 NIL=
TTDD 6112/ 42361 NIL=
TTDD 6112/ 42369 NIL=
TTDD 6112/ 42379 NIL=
TTDD 6112/ 42397 NIL=
TTDD 6112/ 42492 NIL=
TTDD 6112/ 42647 NIL=
TTDD 6112/ 42667 NIL=
TTDD 6112/ 42867 NIL=
TTDD 6112/ 42874 NIL=
TTDD 6112/ 43003 NIL=
TTDD 6112/ 43014 NIL=
TTDD 6112/ 43041 NIL=
TTDD 6112/ 43192 NIL=

0000046700
628
UEIN02 DEMS 111200
TTDD 6112/ 42314 NIL=
TTDD 6112/ 42410 NIL=
TTDD 6112/ 42701 NIL=
TTDD 6112/ 42724 NIL=
TTDD 6112/ 42809 NIL=
TTDD 6112/ 42971 NIL=
TTDD 6112/ 43128 NIL=
TTDD 6112/ 43150 NIL=
TTDD 6112/ 43185 NIL=
TTDD 6112/ 43279 NIL=
TTDD 6112/ 43285 NIL=
TTDD 6112/ 43295 NIL=
TTDD 6112/ 43311 NIL=
TTDD 6112/ 43333 NIL=
TTDD 6112/ 43346 NIL=
TTDD 6112/ 43353 NIL=
TTDD 6112/ 43369 NIL=
TTDD 6112/ 43371 NIL=

00000000