0000060200
556
FTEG31 HECA 101700
TAF HEAX 101700Z 1018/1124 28010KT 9999 SCT020 TEMPO 1100/1106
                            VRB03KT 3000 BR NSC=
TAF HECA 101700Z 1018/1124 28007KT 9999 FEW025 TEMPO 1100/1107
                           VRB03KT 2000 BR NSC=
TAF HELX 101700Z 1018/1124 33008KT CAVOK=
TAF HESN 101700Z 1018/1124 35008KT CAVOK=
TAF HEBL 101700Z 1018/1124 36008KT CAVOK=
TAF HEAT 101700Z 1018/1124 35012KT 9999 FEW025=
TAF HESG 101700Z 1018/1124 34012KT 9999 FEW025=
TAF HETB 101700Z 1018/1124 33008KT 9999 FEW025 BKN100=
TAF HEMA 101700Z 1018/1124 35008G18KT CAVOK=

0000017800
557
SADN33 EKCH 101550
METAR EKKA 101550Z 27014KT 9999 FEW010 FEW012CB BKN020 06/05
Q1004=
METAR EKSP 101550Z 27017KT 5000 -SHRA SCT015CB BKN038 06/04
Q1007=

0000019300
558
SALV32 EVRA 101550
METAR EVLA 101550Z AUTO 30014G29KT 9999 SCT010 BKN012 OVC015 04/02 
Q0993=
METAR EVVA 101550Z AUTO 33016G26KT 9999 SCT012 BKN018 OVC027 04/03 
Q0990=

0000010000
559
SAIS32 LLBG 101550
METAR LLBG 101550Z 18005KT CAVOK 14/10 Q1019 NOSIG RMK FEW060=

0000035900
560
SAGL31 BGSF 101550
METAR BGSF 101550Z AUTO 06012KT 9999NDV  FEW140/// M11/M20 Q0993=
METAR BGBW 101550Z 06009KT 9999 FEW040 SCT050 BKN070 M09/M18 
Q0995 RMK 1CU 3SC 6AC =
METAR BGGH 101553Z NIL=
METAR BGJN 101550Z 10026KT 9999 FEW010 SCT160 M07/M19 Q0989=
METAR BGKK 101550Z AUTO 07038G54KT 0350NDV  +SN VV007/// M01/M02 
Q0987=

0000011000
561
SAIL41 BIVM 101600
METAR
BIVM 101600Z 17010KT 070V220 9000 -RA SCT010 OVC014 03/01 Q0987=

0000009500
562
SAEG31 HECA 101600
METAR HECA 101600Z 28006KT 9999 FEW025 17/08 Q1021 NOSIG=

0000013400
563
FCFR33 LFPW 101400 AAB
TAF AMD LFRH 101546Z 1015/1024 14004KT 5000 RADZ BR OVC004 BECMG
1020/1023 0700 FG OVC001=

0000018800
564
FTFR36 LFPW 101100 AAB
TAF AMD LFLS 101551Z 1015/1112 VRB02KT 0050 FG VV/// BECMG 1100/1102
3000 BR OVC005 BECMG 1102/1104 23008KT 7000 SCT012 BECMG 1106/1109
CAVOK=

0000071700
565
SAFI31 EFHK 101550
METAR EFHK 101550Z 35013KT 9999 -RA BKN007 BKN015 01/00 Q0987 TEMPO
BKN015=
METAR EFJY 101550Z AUTO 36009KT 7000 -SN OVC010 
M05/M06 Q0992=
METAR EFKU 101550Z AUTO 03013KT 9999 OVC014 M07/M09
 Q0994=
METAR EFOU 101550Z AUTO 05009KT 010V090 3700 1200SE -SN FEW017/// 
BKN021/// OVC034/// M10/M12 Q1002 1239//82=
METAR EFRO 101550Z AUTO 04018KT 6000 -SG FEW085 
OVC110 M15/M17 Q1007=
METAR EFTP 101550Z AUTO 01009KT 6000 -SN FEW006 
SCT010 BKN013 BKN016 M01/M01 Q0991=
METAR EFTU 101550Z AUTO 36007KT 340V040 9999 -SN BKN007/// BKN009/// 
01/00 Q0990 R08/29//95=
METAR EFVA 101550Z AUTO 03011KT 9999 -SHSN FEW012/// SCT016/// 
OVC038/// M06/M08 Q0997=

0000009300
566
SPUS43 KWBC 101553
SPECI
KPIA 101549Z 15011KT 3SM BR OVC004 01/00 A2995=

0000057500
567
SAUK31 EGGY 101550
METAR EGBB 101550Z 21009KT CAVOK 07/05 Q1011=
METAR EGCC 101550Z 19011KT 9999 FEW031 SCT043 07/05 Q1009=
METAR EGKK 101550Z 21007KT 160V230 9999 -RA FEW009 BKN014 BKN020
    09/07 Q1014=
METAR EGLL 101550Z 21008KT 9999 VCSH FEW023 BKN042 09/06 Q1013=
METAR EGPF 101550Z 27009KT 9999 -RA SCT022TCU BKN027 BKN033 06/04
    Q1005=
METAR EGPH 101550Z 25007KT 9999 FEW033TCU BKN049 06/05 Q1004=
METAR EGPK 101550Z 23005KT 9999 VCSH FEW007 SCT021 06/05 Q1005=
METAR EGSS 101550Z 21010KT 9999 SCT023 BKN035 BKN048 08/05 Q1013=

0000052100
568
SAUK32 EGGY 101550
METAR EGAA 101550Z 23003KT 9999 SCT044 06/05 Q1006=
METAR EGAC 101550Z VRB03KT 9999 VCSH FEW011 SCT021 BKN044 07/04
    Q1006=
METAR EGFF 101550Z 19004KT 160V220 9999 FEW031 09/06 Q1012=
METAR EGGW 101550Z 20009KT 9999 FEW020 SCT040 08/06 Q1012=
METAR EGLC 101550Z 22006KT 9999 SCT022 BKN040 10/05 Q1014=
METAR EGNM 101550Z 21008KT 9999 FEW012 SCT020 06/05 Q1008=
METAR EGNX 101550Z 22013KT 9999 FEW035 07/05 Q1010=
METAR EGPD 101550Z 22006KT CAVOK 06/04 Q1002 NOSIG=

0000038100
569
SAUK33 EGGY 101550
METAR EGGD 101550Z 21006KT 9999 FEW017 08/06 Q1012=
METAR EGGP 101550Z 18008KT 9999 FEW030 BKN038 08/05 Q1008=
METAR EGHI 101550Z NIL=
METAR EGNS 101550Z NIL=
METAR EGNT 101550Z 20009KT 9999 FEW026 08/05 Q1005=
METAR EGNV 101550Z 18013KT 9999 FEW024 SCT036 08/04 Q1007=
METAR COR EGPB 101550Z 22011KT 9999 FEW012 07/05 Q0999 NOSIG=

0000042600
570
SAUK34 EGGY 101550
METAR EGHE 101550Z 21019KT 9999 VCSH SCT025 11/08 Q1011=
METAR EGHK 101550Z NIL=
METAR EGHQ 101550Z 20011KT 9999 FEW015 09/07 Q1012=
METAR EGJA 101550Z 18012KT 9999 SCT003 09/08 Q1015=
METAR EGJB 101550Z 19008KT 9999 FEW008 09/07 Q1015=
METAR EGJJ 101550Z 17010KT 4000 BR FEW001 BKN002 07/07 Q1015 TEMPO
    BKN003=
METAR EGTE 101550Z 20007KT 9999 FEW025 SCT040 09/07 Q1012=

0000046300
571
SAUK35 EGGY 101550
METAR EGHH 101550Z 22011KT 9999 -SHRA FEW025TCU BKN042 09/07 Q1013=
METAR EGKA 101550Z 23013KT 9999 SCT011 09/07 Q1015=
METAR EGKB 101550Z NIL=
METAR EGLF 101550Z 22009KT 9999 SCT040 08/06 Q1013=
METAR EGMC 101550Z 20008KT 9999 FEW023 09/05 Q1014=
METAR EGMD 101550Z 22014KT 9999 FEW008 SCT012 09/07 Q1015=
METAR EGMH 101550Z 20010KT 9999 FEW024 08/06 Q1015 =
METAR EGTC 101550Z 21009KT 9999 FEW024 08/07 Q1012=

0000033500
572
SAUK36 EGGY 101550
METAR EGBE 101550Z 20006KT 170V230 9999 FEW012 07/05 Q1011=
METAR EGBJ 101550Z 20007KT 9999 FEW020 09/05 Q1011=
METAR EGCN 101550Z NIL=
METAR EGSC 101550Z NIL=
METAR EGSD 101550Z NIL=
METAR EGSH 101550Z 20008KT 9999 FEW040 07/05 Q1013=
METAR EGVN 101550Z NIL=
METAR EGWU 101550Z NIL=

0000055600
573
SAUK37 EGGY 101550
METAR EGAE 101550Z 23005KT 210V270 9999 FEW030 07/05 Q1006=
METAR EGNC 101550Z 21008KT 9999 -RA FEW008 SCT021 SCT032 08/06 Q1005=
METAR EGNH 101550Z 16011KT 8000 -RA SCT026 BKN033 08/06 Q1008=
METAR EGNJ 101550Z 20010KT CAVOK 06/05 Q1010=
METAR EGNO 101550Z 18008KT 9000 -RA SCT025 BKN034 07/06 Q1008=
METAR EGNR 101550Z 15009KT 9999 -DZ SCT030 08/05 Q1009=
METAR EGPE 101550Z VRB02KT 9999 FEW018 FEW040TCU 04/02 Q1002=
METAR EGPI 101550Z NIL=
METAR EGPN 101550Z 27005KT 9999 FEW018 SCT032 06/06 Q1003=

0000046100
574
SAUK38 EGGY 101550
METAR EGEC 101550Z NIL=
METAR EGEO 101550Z NIL=
METAR EGPA 101550Z 19008KT 9999 FEW012 05/04 Q1000=
METAR EGPC 101550Z 23008KT 9999 FEW025 05/03 Q1000=
METAR EGPL 101550Z 23022KT 190V250 9999 VCSH FEW012CB SCT038
    05/02 Q1002=
METAR COR EGPM 101550Z 23006KT 160V260 9999 -RA FEW010 SCT030 05/04
     Q0999 NOSIG=
METAR EGPO 101550Z 23012KT 9999 VCSH FEW009 SCT018CB 04/03 Q1001=
METAR EGPU 101550Z NIL=

0000052200
575
SASW32 LSSW 101550
METAR LSGC 101550Z VRB02KT 9999 SCT008 SCT013 05/04 Q1017=
METAR LSGS 101550Z 24004KT 9999 SCT100 09/05 Q1017=
METAR LSZG 101550Z 08005KT 9999 SCT034 SCT070 07/03 Q1019 NOSIG=
METAR LSZR 101550Z 00000KT 9999 BKN050 06/03 Q1020 NOSIG RMK L=
METAR LSZS 101550Z VRB01KT 9999 FEW005 BKN075 M00/M00 Q1017
    R03/19//99=
METAR LSZC 101550Z 08003KT 9999 FEW006 SCT012 BKN100 06/04 Q1019=
METAR LSZL 101550Z AUTO 23003KT 200V260 9999NDV FEW110 09/05 Q1018
           RMK BLU=

00000000