0000170600
349
SMCI04 BABJ 111200
AAXX 11121
56146 32780 72204 10041 21152 36692 52015 87/// 333 00203=
56444 32780 50705 10010 21099 36817 52016 85/// 333 00103=
56492 32762 80000 10078 20044 39899 40319 52031 88/// 333
00601=
56571 32680 03606 10105 21047 38389 52033 333 00658=
57799 11444 80202 10061 20052 30206 40298 52018 60021 76066
88///=
57866 11462 80404 10047 20044 30098 40314 52020 60021 76060
88///=
57957 11562 80203 10068 20038 30080 40286 52022 69911 70060
88///=
57993 31858 83402 10088 20052 30107 40278 52023 70500 88///=
58027 31940 01601 10045 21038 30252 40306 52002 70500=
58141 31907 02701 10009 21020 30293 40311 52004 70500=
58265 11955 81601 10047 20012 30306 40312 52003 69901 70560
88///=
58472 11463 80706 10067 20040 30200 40301 52005 69931 76066
88///=
58477 11465 80203 10075 20032 30250 40296 52007 69991 76066
88///=
58527 12256 80000 10058 20051 30217 40296 52012 69931 88///=
58633 11630 80702 10055 20051 30187 40292 52009 60021 76066
88///=
58666 31407 83608 10094 20091 30168 40275 52006 76040 88///=
58725 32770 83202 10109 20063 39999 40267 52017 88///=
58921 32960 71801 10138 20100 39994 40245 52019 87///=
59082 31756 72702 10128 20064 30097 40247 52023 70500 87///=
59211 31860 81402 10113 20090 30040 40254 52025 70060 88///=
59265 31858 73403 10161 20111 30094 40234 52020 70500 87///=
59293 32961 01101 10160 20114 30139 40226 52020=
59501 32962 20701 10157 20123 30216 40237 52022 82///=
59663 31956 41602 10159 20151 30115 40224 52020 71000 84///=
59838 32566 12702 10210 20191 30187 40197 52016 81///=
59948 NIL=
59981 11572 70404 10236 20209 30178 40185 52021 69921 70080
87///=
0000024900
350
SNHK22 VHHH 111215
AAXX 11121
45032 36/// /1502 10150 20118 30213 40230 52002=
45035 36/// /0802 10151 20120 30189 40231 54000=
45039 36/// /3101 10146 20119 30220 40236 52001=
45044 36/// /0804 10159 20134 30135 40230 52001=
0000191700
351
SZAU01 AMMC 111224
CREX++
T000103 A001 D01021 D06025++
-1927750 14705860 59260 2014 01 11 12 17 3018 11 07 00 01
01533 0190 01525 0190 01526 0198 01526 0205 01519 0205 01506 0199+
-2316110 15079000 59670 2014 01 11 12 17 3000 11 07 00 01
02123 0231 02114 0231 02105 0232 02100 0237 02087 0234 02083 0240+
-3447330 15091170 60420 2014 01 11 12 17 2955 11 07 00 01
00497 -0032 00497 -0031 00489 -0038 00477 -0049 00473 -0053 00464 -0061+
-4105000 14591500 60910 2014 01 11 12 17 2888 11 07 00 01
02262 -0010 02265 0001 02266 0012 02259 0013 02242 0003 02228 -0001+
-4254640 14793080 61170 2014 01 11 12 17 2897 11 07 00 01
01069 0107 01075 0113 01075 0113 01073 0111 01082 0120 01082 0120+
-3834390 14161360 61410 2014 01 11 12 17 2908 11 07 00 01
00726 0003 00733 0009 00729 0005 00747 0022 00710 -0015 00721 -0004+
-3214890 13364170 62000 2014 01 11 12 17 2957 11 07 00 01
01109 -0014 01111 -0014 01113 -0014 01116 -0013 01119 -0012 01122 -0010+
-3387080 12189720 62080 2014 01 11 12 17 2950 11 07 00 01
01088 0058 01098 0067 01087 0056 01085 0053 01089 0056 01076 0043+
-3182560 11573860 62237 2014 01 11 12 17 2972 11 07 00 01
00999 0089 00998 0088 00992 0083 00988 0080 00985 0078 00985 0079+
-2422000 11339750 62385 2014 01 11 12 17 //// 11 07 00 01
01234 -0120 01282 -0071 01279 -0071 01261 -0088 01266 -0080 01292 -0053+
-2181670 11419110 62430 2014 01 11 12 17 //// 11 07 00 01
02057 -0095 02061 -0089 02060 -0087 02066 -0079 02061 -0082 02055 -0086+
-1800080 12221830 62650 2014 01 11 12 17 3043 11 07 00 01
06586 0059 06583 0066 06580 0068 06574 0066 06568 0070 06560 0067+
-1247190 13084580 63230 2014 01 11 12 17 3050 11 07 00 01
04243 0087 04247 0087 04250 0089 04252 0089 04254 0088 04255 0086+
-1386000 13641580 63511 2014 01 11 12 17 3042 11 07 00 01
01891 0092 01894 0095 01896 0096 01894 0094 01893 0093 01893 0092++
7777

0000046700
352
SZPA01 AMMC 111224
CREX++
T000103 A001 D01021 D06025++
0136250 17293000 67590 2014 01 11 12 17 3015 11 07 00 01
01795 0019 01816 0037 01829 0048 01809 0024 01821 0033 01829 0038+
0710610 17137250 67680 2014 01 11 12 17 3013 11 07 00 01
01257 0072 01264 0077 01256 0067 01257 0065 01260 0067 01261 0066+
0698060 15820000 67950 2014 01 11 12 17 3023 11 07 00 01
00683 0051 00687 0054 00689 0056 00691 0057 00692 0057 00701 0065++
7777

0000178800
353
SZPS01 AMMC 111224
CREX++
T000103 A001 D01021 D06025++
-0204190 14737360 56130 2014 01 11 12 17 3027 11 07 00 01
00385 0069 00389 0073 00389 0073 00387 0072 00390 0075 00388 0074+
-0669280 15640860 56363 2014 01 11 12 17 //// 11 07 00 01
00497 -0048 00497 -0049 00504 -0043 00502 -0047 00505 -0045 00505 -0047+
-0942890 15995560 56670 2014 01 11 12 17 3040 11 07 00 01
00410 -0065 00411 -0064 00412 -0063 00409 -0066 00409 -0066 00408 -0067+
-1072080 16580190 57131 2014 01 11 12 17 //// 11 07 00 01
01502 1000 01009 0504 00884 0377 00737 0228 00868 0356 01191 0676+
-1551560 16718860 57210 2014 01 11 12 17 //// 11 07 00 01
00578 -0136 00570 -0147 00580 -0141 00576 -0148 00582 -0145 00584 -0147+
-1775690 16830030 57320 2014 01 11 12 17 3017 11 07 00 01
00471 -0126 00479 -0120 00483 -0119 00488 -0116 00493 -0114 00498 -0111+
-4397330 16861610 65180 2014 01 11 12 17 2885 11 07 00 01
01443 0377 01444 0382 01439 0382 01435 0382 01427 0379 01417 0373+
-2120470 -15978530 65980 2014 01 11 12 17 3010 11 07 00 01
00587 0026 00588 0025 00574 0010 00580 0015 00572 0005 00622 0054+
-2113810 -17518140 66600 2014 01 11 12 17 //// 11 07 00 01
01004 0084 01007 0083 01009 0082 01013 0081 01021 0086 01018 0079+
-1382670 -17176110 66840 2014 01 11 12 17 3008 11 07 00 01
00838 0019 00834 0012 00845 0021 00853 0026 00852 0022 00854 0021+
-1813250 17842750 67050 2014 01 11 12 17 3032 11 07 00 01
01094 0107 01101 0110 01100 0105 01101 0102 01111 0108 01112 0105+
-1760530 17743810 67070 2014 01 11 12 17 3032 11 07 00 01
01106 0030 01111 0030 01116 0031 01121 0031 01127 0032 ///// ////+
-0850250 17919500 67440 2014 01 11 12 17 3027 11 07 00 01
02095 0005 02093 -0001 02105 0008 02106 0005 02110 0005 02118 0009++
7777

0000034600
354
SZIO01 AMMC 111224
CREX++
T000103 A001 D01021 D06025++
-1211670 09689190 46280 2014 01 11 12 17 3020 11 07 00 01
00792 0031 00789 0029 00783 0025 00782 0026 00780 0026 00774 0022+
-1042940 10566940 46290 2014 01 11 12 17 //// 11 07 00 01
01037 -0054 01097 0008 01049 -0037 01073 -0010 01071 -0010 01055 -0022++
7777

0000052900
355
SMIY40 LIIB 111200
AAXX 11124
16036 11220 80000 10090 20061 30081 40225 58006 60001 71022 887// 333
      81605 84630 85735=
16114 11656 83501 10070 20048 39560 42830 53002 60001 71022 8853/ 333
      84640 84356=
16119 41/08 90208 10072 20055 39644 40228 58001 6///1 76164 333
      89/04=
16124 NIL=
16146 NIL=
16239 11558 60000 10118 20089 30099 40227 58001 60001 71011 83554
     333 55308 83630 83357=
16312 11458 71706 10110 20062 39788 40207 58008 60001 71042 87500 333
      87617=
0000077900
356
SMIY60 LIIB 111200
AAXX 11124
16064 NIL=
16099 11550 80000 10084 20072 30204 40232 51000 60001 71022 8552/ 333
      55300 85630 85456=
16125 NIL=
16197 11040 81512 10104 20093 39734 40207 58004 60001 72842 882// 333
      55300 88801=
16204 NIL=
16214 12997 60803 10130 20104 30229 40234 50000 60001 86030 333 86360
      555 0200/=
16216 11559 70304 10084 20069 39859 40232 50003 60001 71042 83142 333
      55306 83832 85357=
16234 NIL=
16243 12561 61802 10138 20100 30197 40229 58002 60001 81135 333 81830
      83358=
16244 NIL=
16316 12910 62309 10096 21037 39186 42839 58001 60001 81036 333 81358
      95000=
16332 11560 63203 10148 20121 30160 40224 58008 60001 70342 86200 333
      86620=
16541 NIL=
16542 NIL=
0000012200
357
SMIY40 LIIB 111200 RRA
AAXX 11124
16124 41/00 90000 10044 20044 39018 48518 51007 6///1 74565 333 89/00=
0000054200
358
SMGR20 LGAT 111200
AAXX 11124
16643 12560 60000 10154 20086 30239 40239 57011 60001 83250 333
      83825 86359 90730 91111=
16648 11556 50000 10116 20077 30139 40227 57018 60001 71042 81105
      333 81825 85068 90730 91105 555 30000 10092 20100 3////
      40084 50106 60124 70000 77Y// 7FY//=
16650 NIL=
16684 12460 73108 10142 20095 30196 40206 57014 60001 87600 333
      81712 86625 90730 91110=
16732 12463 40112 10156 20111 30201 40213 57012 60001 83202 333
      90730 91116 555 70000 77/// 7/I//=
0000101100
359
SMGR21 LGAT 111200
AAXX 11124
16614 12970 40904 10120 20021 39446 40217 57018 60001 80001 333
      90730 91106=
16627 12960 21013 10140 20045 30231 40235 57019 60001 80001 333
      90730 91116 555 30000 10118 20096 30080 40082 50088 6////
      40000 47708 44250 50000 50096=
16667 12560 50000 10154 20092 30219 40225 58010 60001 85500 333
      90730 91106 555 30000 20118 40000 47694 44200 50000 50122=
16675 36/// /9904 10147 20099 30204 40217 57023 333 90730
      91108=
16710 12960 61403 10142 20050 39456 40216 57018 60001 80001 333
      90730 91107 555 30000 10092 20078 30070 40058 50074 60096
      70000 77/// 7/Y//=
16723 12560 72604 10166 20098 30215 40231 53002 60001 82270 333
      82820 87360 90730 91106 555 40000 47697 44240 50000 50130=
16738 36/// /9903 10158 20107 30018 40216 57012 333 90730
      91109=
16746 12560 42716 10168 20100 30034 40215 57012 60001 81201 333
      81820 84067 90730 91126 555 40000 47555 44185 50000 50132=
0000033800
360
SMGY01 SYCJ 111224 RTD
AAXX 11120 
81001 NIL=
81002 NIL=
81005 NIL=
81006 NIL=
81010 11460 30101 10245 20231 60003 70500 82201 333 10300 20196 31019
55065 56209 57822 70002 82814=
81058 11561 40803 10278 20243 60003 70500 83202 333 10300 20223 30021
55083 56209 57841 70000 83820=
81080 NIL=
81100 NIL=
0000027500
361
SMSY20 OSDI 111200
AAXX 11121
40009 NIL=
40016 NIL=
40022 32565 21601 10186 20086 40211 57015 82100 222// 20000 333
82830=
40030 32970 00000 10162 20022 40209 57024=
40039 NIL=
40066 32970 00000 10168 21057 40215 56010=
40072 NIL=
40083 NIL=
0000023200
362
SMGR20 LGAT 111200 RRA
AAXX 11124
16650 11459 61005 10138 20100 30221 40222 57015 60001 71011 85660
      333 83712 85630 86357 90730 91108 555 30000 10090 20090
      30090 40100 50108 60120 70000 77Y// 7/Y//=
0000028700
363
SMVS02 VNNN 111200
AAXX 11121
48830 01495 83202 10140 20125 39911 40226 52021 69904 71022 888// 333 00014 10144 58015 69902 79999 83894 88697=
48808 01495 80000 10140 20136 39931 40223 52015 60014 76062 888// 333 01015 10141 58021 60012 70014 83894 88696 96010 96160=
0000025700
364
SMVS01 VNNN 111200
AAXX 11121
48839 32497 70506 10185 20178 30143 40210 53020 82108 222// 00203 2//02 333 00/// 10240 58009 70000 87299=
48826 31596 71101 10181 20169 30074 40212 53018 71022 888// 333 00019 10202 58010 70000 85895 87697=
0000009800
365
SAWD01 OEJD 111200 RRB
METAR OLBA 111200Z 25005KT 220V280 8000 FEW026 17/06 Q1024=
0000009800
366
SAME31 OEJD 111200 RRA
METAR OLBA 111200Z 25005KT 220V280 8000 FEW026 17/06 Q1024=
0000018300
367
SMOM10 OOMS 111200 RRE
AAXX 11124
41280 26/// /0510 10212 20066 30067 40208
333 0E013 59013 70000 =
41316 36/88 /1312 10248 20151 30135 40160
333 0E020 58000 =
0000178600
368
SMAR20 OEJD 111200
AAXX 11124
40582 42960 43213 10149 20086 40173 55004 84030
  333 00018 55308 00757 10000 21469 30410 41103 51411 61879 55407
41059 84360 90400 91017 91121 91215 91311=
41150 NIL=
41168 NIL=
41170 11460 82305 10165 20141 30184 40197 60152 72166
8257/ 333 59002 82618 83360 88462=
41176 NIL=
41184 32660 71003 10215 20104 40197 8152/ 333 59003 81640 87460=
41194 12860 82308 10225 20095 30194 40199 60001 88020 333 58003
      88458 84362=
41196 11660 82506 10222 20102 30160 40200 69902 76062 8352/ 333
      58002 83640 88560=
41198 32560 51306 10209 20098 40188 82530 333 59023 82620 83360=
41210
47960 01905 10227 20104 30033 40179 57011 700//
333 10128 20249=
41216 11660 72905 10223 20121 30182 40186 69902 76062 8253/ 333
      58010 82645 86360=
41217 32960 62503 10227 20096 30152 40181 8303/ 333 58009 86314=
41218 NIL=
41226 NIL=
41244 36/// /2406 10216 20079 39832 48246
333 0E015 59001=
41246 36/// /0809 10210 20134 30188 40192
333 0E018 59022=
41254 36/// /1406 10105 20012 38058 40248
333 0E002 58002=
41256 32581 60615 10213 20089 30186 40196 81501 333 59014 81630
85070=
41258 36/// /1109 10206 20074 30190 40195
333 0E/// 59011=
41268 36/// /0112 10212 20102 30184 48375
333 0E017 59006=
41312 NIL=
41314 32660 59906 10251 20090 39659 40156 82501
  333 59005 82630 84080=
41316 NIL=
41404 12560 42710 10225 20021 37860 48516 60002 84500 333 58006
84630=
41407 12960 30605 10286 20080 38917 48490 60002 80002 91316 333
59005 83068=
41431 12560 12015 10284 20205 30122 40135 60002 81100 333 58012
81830=
41466 NIL=
41477 12960 31716 10270 20207 60002 80001 333 83068=
41480 12460 31512 10269 20183 30139 40142 60002 83501 333 59002
  83620=
00000000