0000011000
736
UANT99 KDDL 110342
ARP AFR351 4948N03629W 0342 F370 MS51 231/31 KT
FGSPL QXT AOW 110342 F17A
0000028000
737
SIIN22 DEMS 110300 RRB
AAXX 11034
42779 31996 42506 10174 20151 39450 40158 70510 80002
  333 20152 59004 84075=
42874 31995 20000 10196 20145 40149 70500 80001
  333 20175 59009 82075=
43041 31995 01802 10170 20147 39540 40172 71000
  333 20120 59006=
0000012600
738
SIIN44 DEMS 110300 RRA
AAXX 11034
43317 32597 40000 10128 20088 37813 4//// 8////
  333 10190 20072 58///=
0000005200
739
RRIN23 VIDP 110342
RQRPT 776-797=

0000005200
740
RRIN23 VIDP 110343
RQRPT 856-897=

0000005200
741
RRIN23 VIDP 110343
RQRPT 956-017=

0000011400
742
SAIN90 VIDN 110330
METAR VIDN 110330Z 28004KT 6000 FEW020 FEW035 SCT040 BKN080 10/09
     Q1018=
0000005200
743
RRIN23 VECC 110343
RQRPT 605-626=

0000014400
744
SIDL21 EDZW 110300 CCA
AAXX 11031
10020 35471 82308 10069 20061 30052 40084 56011
  333 55300 20000 30000 85/10 87/17 88/64=
0000011100
745
UANT01 CWAO 110342
ARP AWE730 4952N04054W 0342 F370 MS53 302/32 KT
N273AY DDL XXN 110342 J77A
0000011000
746
UANT01 CWAO 110342
ARP KLM602 5434N05204W 0342 F350 MS65 291/91 KT
PHBFS QXS YAY 110342 F28A
0000011100
747
UANT01 CWAO 110342
ARP DAL228 4712N03436W 0342 F330 MS49 196/34 KT
N1201P QXT AOW 110342 F54A
0000011100
748
UANT01 CWAO 110342
ARP AAL290 5045N04135W 0342 F380 MS56 304/38 KT
N190AA DDL XXW 110342 F89A
0000010400
749
SIAL21 DAMM 110300 CCA
AAXX 11034
60355 42960 02210 10136 20038 40170 53004 333 95990=
0000011100
750
UANT01 CWAO 110343
ARP UAL936 4908N03459W 0342 F370 MS53 212/36 KT
N668UA DDL XXW 110343 F26A
0000011000
751
UANT01 CWAO 110343
ARP NVR712 5200N04526W 0342 F390 MS61 304/50 KT
EILAX DDL XXN 110343 J96A
0000011000
752
UANT01 CWAO 110343
ARP UAL25 4725N04815W 0343 F390 MS62 321/53 KT
N13113 DDL YYT 110343 F98A
0000011000
753
UANT01 CWAO 110343
ARP DAL98 5500N04009W 0343 F360 MS57 262/27 KT
N833MH QXT AOW 110343 F55A
0000011000
754
UANT01 CWAO 110343
ARP ACA870 4807N04506W 0343 F340 MS60 328/71 KT
CFNNQ DDL XXW 110343 F04A
0000011000
755
UANT01 CWAO 110343
ARP DLH425 4825N04806W 0343 F380 MS60 319/70 KT
DAIHY QXT AME 110343 J82A
00000000