0000017900
556
SAID33 WIII 101600
METAR WABP NIL=
METAR WAJJ NIL=
METAR WAKK NIL=
METAR WAPP NIL=
METAR WARS NIL=
METAR WATT NIL=
METAR WALR NIL=
METAR WARQ NIL=

0000039200
557
SAPO31 LPMG 101600
METAR LPBJ 101600Z 27003KT 9999 FEW040 16/09 Q1013=
METAR LPFR 101600Z 08007KT CAVOK 17/10 Q1012=
METAR LPMA 101600Z 22004KT 180V250 9999 FEW015 21/13 Q1013 RS18004KT
0520005KT 2336008KT=
METAR LPPR 101600Z 32007KT 290V350 CAVOK 13/09 Q1014=
METAR LPPS 101600Z 02012KT 9999 SCT012 18/16 Q1013=
METAR LPPT 101600Z VRB05G18KT CAVOK 16/10 Q1013=

0000009500
558
SAPA31 KWBC 101600 RRA
METAR
PHJH 101605Z 05010KT 15SM FEW030 20/18 A2999=

0000039300
559
SAPO32 LPMG 101600
METAR LPAZ 101600Z 19013KT 9999 SCT009 BKN030 16/14 Q1014=
METAR LPFL 101600Z 17012KT 150V210 9999 FEW019 13/08 Q1010=
METAR LPHR 101600Z VRB05KT 9999 FEW009 BKN015 BKN030 15/11 Q1010=
METAR LPLA 101600Z 07008KT 2000 -RADZ BR SCT004 BKN008 BKN017 11/11
      Q1012 RERADZ=
METAR LPPD 101600Z 13010KT 9999 VCSH SCT003 BKN006 BKN012 15/15
Q1012=

0000010500
560
SACV20 GVNP 101600
METAR GVNP 101600Z 02010KT EST 9999 SCT17 BKN200 21/15 Q//// NOSIG=

0000036800
561
SAID32 WIII 101600
METAR WIPT 101600Z 35003KT 6000 R33/M0050N SCT019 25/23 Q1012= 
METAR WIOO 101600Z 00000KT 6000 SCT010 24/24 Q1012 NOSIG= 
METAR WIPP 101600Z 00000KT 5000 FEW015 25/24 Q1010= 
METAR WIBB 101600Z 00000KT 7000 FEW016 25/24 Q1010 NOSIG= 
METAR WAMM NIL=
METAR WIDN NIL=
METAR WAOO NIL=
METAR WALL NIL=
METAR WADL NIL=

0000090300
562
SAEA20 HKNC 101600
METAR HKEL 101600Z  07008KT  9999 FEW023CB SCT290 19/10 Q1023=
METAR HKJK 101600Z 05013KT 9999 FEW026CB 23/12 Q1020 NOSIG=
METAR HKKT 101600Z 05003KT 9999 FEW022 BKN090 23/10=
METAR HKML 101600Z 09010KT 9999 FEW022 27/23 Q1011=
METAR HKMO 101600Z 07020KT 9999 FEW022 27/21 Q1011 NOSIG=
METAR HKNC 101600Z 07009KT 9999 FEW022CB 22/11 Q1020=
METAR HKVO 101600Z 36005KT 9999 FEW023 26/20=
METAR HKEM 101600Z NIL=
METAR HKGA 101600Z NIL=
METAR HKKG 101600Z NIL=
METAR HKKI 101600Z NIL=
METAR HKKR 101600Z NIL=
METAR HKKS 101600Z NIL=
METAR HKLO 101600Z NIL=
METAR HKLU 101600Z NIL=
METAR HKMA 101600Z NIL=
METAR HKMB 101600Z NIL=
METAR HKME 101600Z NIL=
METAR HKMU 101600Z NIL=
METAR HKMY 101600Z NIL=
METAR HKNI 101600Z NIL=
METAR HKNK 101600Z NIL=
METAR HKNO 101600Z NIL=
METAR HKNW 101600Z NIL=
METAR HKWJ 101600Z NIL=

0000127600
563
SAAU32 YBBN 101600
METAR YAMB 101600Z AUTO 20002KT 9999 // NCD 19/18 Q1017=
METAR YMAV 101600Z AUTO 21006KT 9999 // NCD 18/16 Q1016=
METAR YBRM 101600Z AUTO 29009KT 9999 // BKN017 29/25 Q1008=
METAR YCIN 101600Z AUTO 28006KT //// // NCD 28/24 Q1007=
METAR YSDU 101600Z AUTO 13006KT 9999 // NCD 17/16 Q1017=
METAR YFRT 101600Z AUTO 14009KT //// // ////// 18/18 Q1020=
METAR YGEL 101600Z AUTO 16013KT 9999 // NCD 22/20 Q1012=
METAR YPGV 101600Z AUTO 13011KT 9999 // SCT014 BKN045 OVC052 25/24
Q1007=
METAR YBHM 101600Z AUTO 10023KT 9999 // ////// 26/23 Q1012=
METAR YMHB 101600Z 17007KT 9999 BKN009 17/14 Q1012=
METAR YPKG 101600Z AUTO 10015KT 9999 // NCD 26/11 Q1019=
METAR YMLT 101600Z AUTO 30008KT 9999 // NCD 18/13 Q1013=
METAR YBMA 101600Z AUTO 13002KT 9999 // NCD 27/20 Q1009=
METAR YSNF 101600Z AUTO 11010KT 9999 // BKN036 BKN045 OVC053 19/11
Q1018=
METAR YPEA 101600Z AUTO 19001KT 9999 // NCD 22/16 Q1015=
METAR YPPD 101600Z AUTO 31007KT 9999 // NCD 28/27 Q1007=
METAR YSRI 101600Z AUTO 00000KT 9999 // NCD 16/16 Q1017=
METAR YBRK 101600Z AUTO 12007KT 9999 // SCT042 BKN050 BKN068 23/20
Q1014=
METAR YWLM 101600Z AUTO 10005KT 9999 // NCD 21/17 Q1017=
METAR YPWR 101600Z AUTO 17014KT 9999 // NCD 27/07 Q1015=

0000024300
564
SANG31 YBBN 101600
METAR AYPY 101600Z NIL=
METAR AYWK 101600Z NIL=
METAR AYVN 101600Z NIL=
METAR AYNZ 101600Z NIL=
METAR AYMH 101600Z NIL=
METAR AYGN 101600Z NIL=
METAR AYMO 101600Z NIL=
METAR AGGH 101600Z NIL=

0000116200
565
SAAU31 YBBN 101600
METAR YPAD 101600Z 15012KT CAVOK 20/06 Q1016
NOSIG=
METAR YBAS 101600Z AUTO 33006KT 9999 // NCD 22/M11 Q1014=
METAR YBBN 101600Z 21006KT 9999 FEW035 20/18 Q1017=
METAR YBCS 101600Z 17007KT 9999 VCSH SCT025 SCT060 26/23 Q1009=
METAR YSCB 101600Z AUTO 00000KT 9999 // NCD 15/12 Q1019=
METAR YPXM 101600Z AUTO 23002KT //// // ////// 24/22 Q1012=
METAR YPCC 101600Z AUTO 17015KT 9999 // SCT019 SCT028 27/22 Q1012=
METAR YCFS 101600Z AUTO 31005KT 9999 // BKN041 19/18 Q1018=
METAR YPDN 101600Z 05012KT 9999 FEW045 BKN150 24/23 Q1008=
METAR YBCG 101600Z NIL=
METAR YHID 101600Z AUTO 09007KT //// // ////// 28/25 Q1006=
METAR YPJT 101600Z AUTO 16005KT 9999 // NCD 22/16 Q1015=
METAR YPKU 101600Z AUTO 00000KT 9999 // NCD 27/22 Q1008=
METAR YPLM 101600Z AUTO 35009KT 9999 // NCD 30/23 Q1008=
METAR YMML 101600Z NIL=
METAR YPPH 101600Z 11009KT CAVOK 26/10 Q1014=
METAR YSSY 101600Z 04006KT CAVOK 21/18 Q1017
NOSIG=
METAR YSTW 101600Z AUTO 16006KT 9999 // OVC115 20/14 Q1018=
METAR YPTN 101600Z AUTO 03003KT 9999 // NCD 27/22 Q1008=
METAR YBTL 101600Z AUTO 17006KT 9999 // SCT100 26/22 Q1011=

0000009800
566
SAFR32 LFPW 101600 RRA
METAR LFCK 101600Z AUTO 12021G31KT 9999 NSC 11/06 Q1016=

0000010700
567
SAAF05 LFPW 101600 RRA
METAR DBBB 101600Z 18010KT 8000  FEW013 BKN200 30/26 Q1007 NOSIG=

0000016300
568
SAAF08 LFPW 101600 RRA
METAR DFFD 101600Z 09006KT 060V130 CAVOK 34/03 Q1011 NOSIG=
METAR GABS 101600Z 18006KT 140V200 CAVOK 35/00 Q1009 NOSIG=

0000034200
569
SAAF13 LFPW 101600 RRA
METAR GBYD 101600Z 35009KT CAVOK 26/13 Q1011=
METAR GFLL 101600Z 28008KT 9999 NSC 29/22 Q1008 NOSIG=
METAR GGOV 101600Z 34007KT 300V020 CAVOK 29/11 Q1009 NOSIG=
METAR GLRB 101600Z 22007KT 9999 SCT018 30/25 Q1008 NOSIG=
METAR GVAC 101600Z 05011KT 9999 SCT013 BKN015 BKN200 23/15 Q1014
NOSIG=

0000016200
570
SAAF14 LFPW 101600 RRA
METAR DRRN 101600Z 10009KT 4500 DU NSC 31/M03 Q1011 NOSIG=
METAR FTTJ 101600Z 04011KT 010V070 CAVOK 27/00 Q1014 NOSIG=

0000014700
571
SAAF27 LFPW 101600 RRA
METAR DGAA 101553Z 20013KT CAVOK 29/24 Q1008 NOSIG=
METAR GUCY 101600Z 18010KT CAVOK 29/22 Q1008 NOSIG=

0000037800
572
SACG21 FCBB 101600
METAR FCBB 101600Z 14004KT 8000 FEW020 FEW030CB 26/22 Q1011 TEMPO
           04015G25KT 4000 TSRA=
METAR FCPP 101600Z 18011KT 9999 SCT020 BKN026 28/24 Q1009 NOSIG=
METAR FCPD 101600Z VRB02KT 9999 FEW026TCU BKN130 28/23 Q1010=
METAR FCOU 101600Z 36004KT 9999 FEW025 BKN300 31/20 Q1008=
METAR FCOI 101600Z 00000KT CAVOK 30/22 Q1009=

0000065500
573
SANM40 FYWW 101600
METAR FYGB 101600Z AUTO 12003KT //// // ////// 32/03 Q1016=
METAR FYGO 101600Z AUTO 24010KT //// // ////// 31/16 Q1013=
METAR COR FYKT 101600Z AUTO 20011KT //// // ////// 30/06 Q1014=
METAR COR FYLZ 101600Z AUTO 20022KT //// // ////// 19/11 Q1011=
METAR COR FYML 101600Z AUTO 01002KT //// // ////// 34/01 Q1015=
METAR FYOA 101600Z AUTO 25005KT //// // ////// 34/01 Q1010=
METAR FYOO 101600Z AUTO 32005KT //// // ////// 39/01 Q1012=
METAR FYOW 101600Z AUTO 34003KT //// // ////// 32/M02 Q1014=
METAR FYWB 101600Z AUTO 25014KT //// // ////// 24/15 Q1011=
METAR FYWH 101600Z 32004KT CAVOK 30/M01 Q1017=

0000018700
574
FTCN31 CWAO 101600
TAF CZMT 101610Z 1016/1102 16005KT P6SM SCT025 BKN200
    FM102300 15012KT P6SM SCT020 OVC160 TEMPO 1023/1102 BKN020
    RMK NXT FCST BY 101900Z=

0000013200
575
SACN62 CYYG 101600
METAR CYYG 101600Z 23011G17KT 15SM FEW080 FEW120 SCT250 M07/M16 A3041
 RMK AC1AC1CS2 SLP301=

00000000