0000009200
136
SAIN90 VANP 111210
METAR VANP 111210Z 00000KT 4000 HZ NSC 25/13 Q1013 NOSIG=
0000013700
137
UGIN90 VEBS 111200
PPBB 61111 43049
90012 13506 16010 16509 9037/ 17510 24508 91257 28014
24523 26011 920// 26524=

0000016000
138
UXIN90 VEBS 111200
PPAA 6112/ 42971 NO BALLOON=
TTAA 6112/ 42971 MISDA DUE H.Q ORDER=
PPAA 6112/ 42895 NO GAS=
PPAA 6112/ 42886 NO GAS=

0000215900
139
SZNZ01 NZKL 110348
CREX++
T000103 A001 D01021 D06025++
-3683144 17478654 AUCT  2014 01 11 03 40 //// 11 07 00 01
06070 3203 06070 3203 06071 3204 06070 3204 06070 3205 06071 3206+
-4402404 -17636748 CHIT  2014 01 11 03 40 //// 11 07 00 01
05054 2093 05081 2123 05063 2109 05072 2122 05079 2132 05054 2111+
-4089929 17623168 CPIT  2014 01 11 03 40 //// 11 07 00 01
04160 2276 04148 2268 04166 2291 04159 2288 04150 2284 04145 2284+
-3618905 17548887 GBIT  2014 01 11 03 40 //// 11 07 00 01
06425 0045 06425 0047 06425 0049 06415 0040 06413 0039 06409 0037+
-3867541 17802288 GIST  2014 01 11 03 40 //// 11 07 00 01
04401 2708 04392 2703 04395 2709 04392 2710 04382 2704 04382 2707+
-4241288 17370277 KAIT  2014 01 11 03 40 //// 11 07 00 01
03437 2166 03432 2166 03441 2180 03429 2173 03418 2167 03415 2169+
-3755040 17815904 LOTT  2014 01 11 03 40 //// 11 07 00 01
04012 0209 04017 0217 04017 0219 04020 0224 04019 0226 04002 0211+
-3704657 17451175 MNKT  2014 01 11 03 40 //// 11 07 00 01
02738 -0165 02736 -0174 02754 -0163 02743 -0179 02766 -0164 02774 -0162+
-3947566 17692007 NAPT  2014 01 11 03 40 //// 11 07 00 01
03398 2052 03376 2034 03397 2060 03378 2046 03353 2025 03341 2018+
-3441483 17304870 NCPT  2014 01 11 03 40 //// 11 07 00 01
02436 -2563 02451 -2549 02480 -2521 02531 -2471 02555 -2448 02599 -2404+
-4581435 17062939 OTAT  2014 01 11 03 40 //// 11 07 00 01
04368 3409 04360 3408 04354 3408 04351 3410 04346 3412 04338 3410+
-2928002 -17789440 RBCT  2014 01 11 03 40 //// 11 07 00 01
06465 2026 06459 2021 06459 2023 06466 2031 06468 2034 06449 2016+
-2925114 -17790384 RFRT  2014 01 11 03 40 //// 11 07 00 01
03424 0223 03408 0208 03396 0198 03390 0194 03415 0219 03399 0205+
-4357010 17277383 SUMT  2014 01 11 03 40 //// 11 07 00 01
02148 1891 02132 1882 02116 1873 02107 1871 02104 1874 02105 1882+
-3764109 17618118 TAUT  2014 01 11 03 40 //// 11 07 00 01
05665 3982 05664 3981 05664 3982 05663 3983 05662 3983 05668 3990+
-4128448 17477985 WLGT  2014 01 11 03 40 //// 11 07 00 01
03319 2075 03319 2080 03312 2077 03300 2069 03287 2060 03285 2063++
7777
0000021000
140
SZSR01 WSSS 110348
CREX++
T000103 A001 D01021 D06025++
0126166 10385160 00044 2014 01 11 03 06 //// 11 07 00 06
01572 -0028 01548 -0022 01512 -0028 01482 -0018 01452 -0018 01425 -0015++
7777
0000087900
141
SAUZ31 UTTW 110330
METAR UTFN 110330Z 00000MPS 0050 R28/0050N FZFG VV000 M08/M10 Q1029
R28/CLRD70 NOSIG RMK QBB020=
METAR UTNN 110330Z 15001MPS 8000 BKN033 M03/M05 Q1021 R33/CLRD60
NOSIG=
METAR UTNU 110330Z 00000MPS 3600 BR NSC M07/M07 Q1021 R31/CLRD60
NOSIG=
METAR UTSA 110330Z 08003MPS 9000 NSC M01/M09 Q1023 R07/CLRD70 NOSIG=
METAR UTSB 110330Z 13003MPS 2500 BR NSC M03/M05 Q1023 R01/CLRD70
NOSIG=
METAR UTSK 110330Z 08001MPS 7000 NSC M06/M07 Q1023 R16/CLRD70=
METAR UTSS 110330Z 16005MPS 120V190 9999 BKN200 01/M12 Q1022
R88/CLRD70 NOSIG=
METAR UTST 110330Z 02002MPS 3000 BR NSC M05/M05 Q1027 R88/CLRD70
NOSIG=
METAR UTFA 110330Z 00000MPS M0100 R04/M0100N FZFG VV001 M06/M08 Q1029
R88/09//70=
METAR UTFF 110330Z 00000MPS 2900 BR NSC M07/M08 Q1028 R18/CLRD70=
METAR UTTT 110330Z 04002MPS CAVOK M02/M09 Q1024 R26R/CLRD70 NOSIG=
0000020800
142
FTBY31 UMMN 102300 AAA
TAF UMMS 110345Z 1104/1124 28007G11MPS 9999 BKN008 SCT015CB
           TEMPO 1104/1110 30011G16MPS 2500 -SHRASN BKN005
           TEMPO 1110/1124 1200 SHRASN BKN003=
0000063400
143
UKPH01 RPMM 110000 RRA
TTBB 11007 98618 00014 25441 11998 25657 22914 20658
33859 19060 44784 12216 55743 11857 66732 12867 77716
11061 88651 06265 99628 03844 11615 02645 22612 02448
33605 03070 44603 02862 55591 01657 66561 00959 77550
02324 88539 02956 99536 02927 11534 02947 22526 03531
33522 03357 44510 04531 55506 04540 66504 04559 77477
07756 88460 08158 99456 08166 11453 08561 22450 08371
33446 08957 44380 19516 55374 17958 66297 31356 77284
33759 88269 37157 99251 41360 11236 45343 22225 47760
33204 53364 44134 76956 55129 78556 66123 72760 77101
81147 31313 51108 82358 41414 /////=
0000011100
144
UANT01 CWAO 110346
ARP DAL401 4845N03122W 0345 F360 MS51 215/55 KT
N845MH QXT AOW 110346 F29A
0000011000
145
UANT01 CWAO 110346
ARP ACA864 4827N04809W 0346 F370 MS64 316/70 KT
CGHLM DDL YYT 110346 J99A
0000011100
146
UANT01 CWAO 110345
ARP DAL410 4704N04514W 0345 F350 MS59 328/62 KT
N195DN QXT AOW 110345 F33A
0000027400
147
SIIN22 DEMS 110300 RRD
AAXX 11034
42559 32595 80000 10122 20111 40180 8452/
  333 20098 58017 84620 88460=
42667 31090 90206 10122 20122 39570 40170 74944
  333 20119 58018=
42754 31991 90000 10114 20107 39515 40177 74741 8////
  333 20067 58018=
0000010900
148
UANT01 CWAO 110345
ARP BAW6W 5004N02932W 0345 F380 MS54 201/51 KT
GVIIA QXT AOE 110345 F19A
0000011000
149
UANT01 CWAO 110345
ARP DAL50 4928N03805W 0344 F366 MS54 257/14 KT
N815NW DDL XXW 110345 J76A
0000012800
150
SSVX12 KARS 110344
ZZYY 48520 11014 0330/ 775844 019433 6113/
11119 11281 40037 52003
444 501// 80140 80000=
0000082200
151
SSVX08 KARS 110344
ZZYY 41139 10014 12004 720011 037854 6111/
11119 00712 10215 29077 40201
22219 00240
33311 88872 20000 32402 20001 32404 43696 20020 32402 43706
20040 32402 43702 20060 32404 43704 20080 32410 20100 32351
20120 32230 20140 32151 20180 31985 20300 31610 20500 31215
444 20110 10014 1145/ 521// 60401=
ZZYY 41139 11014 03004 720006 037851 6111/
11119 00610 10222 29076 40183
22219 00240
444 20110 11014 0040/ 521// 60401=
ZZYY 13002 10014 1200/ 720444 023132 6112/
33311 88872 20001 32153 43671 20020 32152 20040 32148 43670
20080 32043 20100 31854 20120 31779 20140 31775 20180 31731
20300 31467 20500 31069
444 20120 10014 1140/ 521//=
ZZYY 13002 11014 03004 720465 023138 6111/
11119 00208 10201 29075
22219 00215
444 20110 11014 0204/ 521// 60401=
0000426800
152
SSVX11 LFVW 110346
ZZYY 52079 10014 23004 100062 147022 6111/
11119 02714 10276 40091
22219 00297
33311 88872 20000 32973 20002 32973 43390 20025 32978 43400
20050 32973 43418 20075 32959 20100 32763 43550 20125 32518 43517
20150 32268 43540 20200 31907 43540 20250 31489 43511
20300 31171 43484 20500 30862 43462 20750 30617 43453
444 20110 10014 2243/ 522// 60381=
ZZYY 52079 11014 01004 100060 147013 6111/
11119 02911 10278 40084
22219 00297
33311 88872 20000 32972 20002 32972 43388 20025 32974 43397
20050 32972 43422 20075 32957 20100 32734 43549 20125 32402 43520
20150 32252 43537 20200 31884 43537 20250 31488 43510
20300 31162 43483 20500 30853 43461 20750 30615 43453
444 20110 11014 0112/ 522// 60381=
ZZYY 52084 10014 21004 105025 155972 6112/
11119 00208 10287 29074 40087
22219 00296
33311 88872 20000 32959 20002 32959 43433 20025 32962
20050 32962 43434 20075 32974 20100 32926 43456 20125 32736 43471
20150 32360 43489 20200 31265 43455 20250 31014 43461
20300 30932 43462 20500 30762 43458 20750 30575 43453
444 20120 10014 2147/ 522// 60381=
ZZYY 52082 11014 01004 102043 156020 6112/
11119 00308 10294 29073
22219 00298
33311 88872 20000 32975 20002 32975 43436 20025 32967 43447
20050 32985 43483 20075 32978 43527 20100 32923 43535
20125 32673 43516 20150 32241 43511 20200 31276 43457
20250 31147 43480 20300 31097 43475 20500 30891
444 20120 11014 0024/ 522// 60381=
ZZYY 52088 10014 15004 302020 155956 6113/
11119 03314 10264 29084 40077
22219 00302
33311 88872 20000 33017 20002 33017 43494 20025 33015 43526
20050 33001 43539 20075 32952 20100 32937 43558 20125 32832 43566
20150 32555 43586 20200 31761 43541 20250 31133 43482
20300 31103 43479 20500 30876 43465 20750 30560 43452
444 20130 10014 1422/ 522// 60381=
ZZYY 52088 11014 00004 302019 155959 6113/
11119 02909 10286 29078 40088
22219 00301
33311 88872 20000 33013 20002 33013 43508 20025 33015 43518
20050 33006 43543 20075 32986 20100 32943 43562 20125 32867 43563
20150 32776 43569 20200 31828 43544 20250 31137 43484
20300 31074 43477 20500 30826 43462 20750 30555 43452
444 20130 10014 2338/ 522// 60381=
ZZYY 52088 11014 02004 302021 155959 6113/
11119 03009 10289 29073 40074
22219 00302
33311 88872 20000 33017 20002 33017 43507 20025 33014 43520
20050 33001 43542 20075 32952 20100 32937 43560 20125 32837 43565
20150 32549 43584 20200 31820 43546 20250 31153 43485
20300 31091 43478 20500 30864 43464 20750 30560 43452
444 20130 11014 0253/ 522// 60381=
ZZYY 52085 10014 15004 100015 156046 6113/
11119 02603 10267 40079
22219 00293
33311 88872 20000 32926 20002 32926 43319 20025 33029 43432
20050 33026 20075 33021 20100 32963 20125 32592 43542
20150 32257 43537 20200 31846 43532 20250 31392 43499
20300 31180 43484 20500 30796 43459 20750 30583 43452
444 20130 10014 1421/ 522// 60381=
ZZYY 52085 10014 17004 100013 156051 6113/
11119 02606 10270 40062
22219 00296
33311 88872 20000 32962 20002 32962 43355 20025 33026 43426
20050 33025 20075 33022 20100 33007 20125 32601 43543
20150 32252 43537 20200 31795 43526 20250 31375 43495
20300 31202 43485 20500 30805 43460 20750 30585 43452
444 20130 10014 1744/ 522// 60381=
ZZYY 52086 11014 02004 305034 156024 6113/
11119 03222 10265 40074
22219 00303
33311 88872 20000 33033 20002 33033 43470 20025 33042 43479
20050 33031 20075 32963 43513 20100 32936 20125 32773 43577
20150 32613 43606 20200 32276 43599 20250 31687 43537
20300 31216 43492 20500 30735 43453 20750 30569 43450
444 20130 11014 0253/ 522// 60381=
ZZYY 52083 10014 20004 107968 156030 6112/
11119 00610 10275 29082 40087
22219 00290
33311 88872 20000 32901 20002 32901 43380 20025 32902 43396
20050 32903 43396 20075 32899 43405 20100 32662 43476
20125 32234 43501 20150 31761 43480 20200 31304 43453
20250 31046 43455 20300 30967 43460 20750 30586 43453
444 20120 10014 1946/ 522// 60381=
ZZYY 52077 10014 1700/ 102082 146980 6113/
33311 88872 20025 33007 20050 32999 20075 32932 43529
20100 32783 43520 20125 32608 43524 20150 32436 43520 20200 31661
20250 31141 20300 31037 43473 20500 30805 43458 20750 30595 43453
444 20130 10014 1744/ 522//=
0000019800
153
SSVX03 LFVW 110346
ZZYY 31052 11014 00001 508151 034559 6112/
11119 01507 11100 21100 40122
22219 10703 20065 21013
33311 66699 20030 05///
444 20120 11014 0026/ 518// 60371=
0000041600
154
SSVX02 LFVW 110346
ZZYY 41644 11014 0342/ 730965 039713 6111/
22219 00218
33311 88872 20000 32179 43645
444 2011/ 11014 0339/ 50101 9/015=
ZZYY 41649 11014 0342/ 733915 031707 6111/
22219 00200
33311 88872 20000 31998 43631
444 2011/ 11014 0339/ 50101 9/015=
ZZYY 41645 11014 0342/ 728005 040087 6112/
22219 00226
33311 88872 20000 32258 43720
444 2012/ 11014 0032/ 50101 9/015=
0000011000
155
UANT01 CWAO 110346
ARP AAL86 4853N05124W 0346 F380 MS64 304/56 KT
N775AN DDL YYT 110346 F25A
00000000