0000012500
896
SALT32 EYVI 101620
METAR EYKA 101620Z 26023KT 240V300 9999 -SHRA BKN015CB OVC021 03/01
Q0991 R08/290095=

0000011300
897
SAEO31 EETN 101620
METAR EETN 101620Z 01012KT 9999 -DZ OVC008 02/01 Q0985 R08/290295 
NOSIG=

0000056800
898
FTXX69 EGRR 101600
TAF KQIR 1015/1121 10009KT 9999 SCT060 OVC120 QNH3012INS
     BECMG 1018/1019 10008KT 8000 -SHRA SCT030 OVC050 QNH3013INS
     TEMPO 1023/1102 13010G15KT -TSRA SCT020CB BKN030
     BECMG 1106/1107 15006KT 9999 NSW BKN050 QNH3008INS WND 21006KT
     AFT 1115 T20/1111Z T11/1103Z=
TAF KQSA 1015/1121 VRB06KT 8000 HZ SKC QNH3023INS
     BECMG 1102/1103 VRB06KT 6000 HZ SKC QNH3026INS
     BECMG 1106/1107 VRB06KT 9999 NSW SKC QNH3026INS
     BECMG 1117/1118 06009KT 9999 SCT100 QNH3027INS T07/1110Z
     TM08/1102Z=

0000009600
899
SANG31 YBBN 101600 RRA
METAR AGGH 101600Z 16002KT 9999 HZ FEW015 24/23 Q1005=

0000014600
900
FTPK31 OPKC 101600 RRA
TAF OPRN 101530Z 1018/1124 27010KT 4000 FEW040 SCT100 BECMG 1101/1105
04005KT 2000 BR FEW040
SCT100=

0000009900
901
SAAF27 LFPW 101600 RRB
METAR FGBT 101600Z 22009KT 9999 FEW010 30/25 Q1008 NOSIG=

0000010500
902
SANM40 FYWW 101600 CCB
METAR COR FYOO 101600Z AUTO 32005KT //// // ////// 43/04 Q1012=

0000018600
903
FTHW31 KWBC 101618 AAA
TAF AMD
PHLI 101616Z 1016/1112 03011KT P6SM VCSH SCT025 BKN040
      TEMPO 1016/1018 BKN025
     FM102000 05015KT P6SM VCSH SCT025 SCT050=

0000040700
904
FTSA32 KWBC 101618
TAF
TAF SGAS 101715Z 1018/1118 02014KT 9999 SCT040 TX37/1019Z
      TN23/1110Z PROB030
      TEMPO 1020/1023 8000 SHRA BKN030 FEW040TCU
      BECMG 1100/1106 03008KT CAVOK=
TAF SGES 101715Z 1018/1118 35011KT 9999 SCT033 FEW040TCU
      TX36/1019Z
      TN21/1110Z
      TEMPO 1019/1023 8000 TS SHRA BKN027 FEW040CB
      BECMG 1100/1106 07008KT CAVOK=

0000026200
905
FTUS51 KWBC 101618 AAA
TAF AMD
KDAY 101617Z 1016/1112 17006KT 2SM BR OVC004
      TEMPO 1016/1018 1/4SM FG VV002
     FM101800 17009KT 5SM BR OVC008
     FM110100 18012KT 4SM BR VCSH BKN012
     FM110300 17012G22KT 4SM -RA BR BKN010=

0000021800
906
FTUS53 KWBC 101618 AAA
TAF AMD
KDBQ 101616Z 1016/1112 15010KT 1SM BR VV002
     FM101900 14012KT 2SM -RA BR OVC004
     FM110400 16007KT 1SM -RA BR OVC002
     FM111000 25012KT 2SM BR OVC004=

0000146200
907
FTUS80 KWBC 101618 AAA
TAF AMD
KCVG 101616Z 1016/1118 16006KT 3SM BR SCT005 OVC035
      TEMPO 1016/1018 2SM BR OVC005
     FM101800 16009KT 5SM BR OVC011
     FM110000 19012KT 4SM BR VCSH OVC008
     FM110400 17014KT 4SM -SHRA BR BKN012
     FM111300 21012G22KT P6SM BKN025=
KDAY 101617Z 1016/1112 17006KT 2SM BR OVC004
      TEMPO 1016/1018 1/4SM FG VV002
     FM101800 17009KT 5SM BR OVC008
     FM110100 18012KT 4SM BR VCSH BKN012
     FM110300 17012G22KT 4SM -RA BR BKN010=
KDBQ 101616Z 1016/1112 15010KT 1SM BR VV002
     FM101900 14012KT 2SM -RA BR OVC004
     FM110400 16007KT 1SM -RA BR OVC002
     FM111000 25012KT 2SM BR OVC004=
KILN 101615Z 1016/1112 17007KT 2SM BR OVC004
      TEMPO 1016/1018 3/4SM BR VV002
     FM101800 17009KT 3SM BR OVC009
     FM102100 17009KT 5SM BR OVC015
     FM110500 16012KT 4SM -RA BR BKN012=
KLUK 101616Z 1016/1112 VRB02KT 5SM BR SCT006 OVC040
      TEMPO 1016/1018 2SM BR OVC006
     FM101800 15008KT P6SM OVC015
     FM110000 20012KT 4SM BR VCSH BKN010
     FM110400 18014KT 4SM -SHRA BR BKN015=
KSMF 101616Z 1016/1112 30005KT 1/4SM FG BKN001 BKN250
     FM101800 32005KT 3SM BR SCT003 BKN250
      TEMPO 1018/1019 BKN003
     FM102000 33008KT 6SM HZ BKN250
     FM110600 VRB02KT 4SM BR SCT050 BKN100=
PHLI 101616Z 1016/1112 03011KT P6SM VCSH SCT025 BKN040
      TEMPO 1016/1018 BKN025
     FM102000 05015KT P6SM VCSH SCT025 SCT050=

0000179700
908
SPUS70 KWBC 101618
SPECI
KAEX 101614Z 15008KT 1 1/2SM BR OVC002 12/12 A3004 RMK AO2=
KCEC 101614Z AUTO 16009KT 2SM BR OVC003 09/09 A3027 RMK AO2
     T00940089=
KCVG 101614Z 16008KT 1 1/2SM BR OVC005 06/06 A3017 RMK AO2 SFC VIS
     3=
KRKP 101614Z AUTO 19003KT 2 1/2SM -RA FEW006 BKN014 OVC025 26/18
     A2995 RMK AO2 P0000=
KPIL 101614Z AUTO 17016KT 7SM BKN007 BKN021 OVC039 22/19 A2993 RMK
     AO2 CIG 007V012=
KJKL 101614Z AUTO 00000KT 10SM OVC017 06/04 A3023 RMK AO2
     T00560044=
KLXT 101614Z AUTO 12003KT 1SM BR OVC002 03/03 A2969 RMK AO2
     T00280028=
PAFS 101614Z AUTO 00000KT 5SM -SN SCT001 OVC023 M14/M17 A2954 RMK
     AO2 TSNO P0000 $=
PAMB 101614Z AUTO 03006KT 1/2SM FZFG OVC003 M03/M03 A2943 RMK AO2
     TSNO $=
KFCI 101615Z AUTO 03003KT 2 1/2SM BKN005 OVC015 02/M03 A3041 RMK
     AO1=
KTDZ 101614Z AUTO 19009KT 5SM BR SCT008 BKN015 OVC023 02/01 A3018
     RMK AO2 TSNO=
KUIN 101614Z AUTO 14011KT 3SM -RA BR OVC004 01/01 A2983 RMK AO2
     LTG DSNT S P0004 T00110006=
KDCA 101614Z 00000KT 1 1/2SM R01/2400VP6000FT -RA BR FEW007 SCT025
     OVC050 03/01 A3042 RMK AO2 SCT V BKN P0001=
KMEB 101614Z AUTO 07007KT 2 1/2SM -RA BR BKN047 BKN055 OVC065
     09/09 A3031 RMK AO2 P0003 T00940089=
KVLD 101614Z 15009KT 4SM BR OVC004 21/19 A3018 RMK AO2=
KLFK 101615Z AUTO 17008KT 10SM OVC006 17/15 A2998 RMK AO2=
KMWL 101615Z AUTO 18006KT 3SM -RA BR OVC085 14/13 A2984 RMK AO2
     P0002 T01390133=
KPTW 101615Z AUTO 00000KT 5SM BR SCT007 OVC024 M01/M02 A3044 RMK
     AO2 T10061022=
KBEH 101615Z AUTO 15008KT 3SM BR OVC004 00/00 A3005 RMK AO2=
KCSM 101615Z 25014KT 6SM BR SCT004 07/06 A2976 RMK AO2=
K1B7 101613Z 08011KT 1/4SM FG BKN002 13/13 A3012=
K9F2 101605Z 06008KT 0SM FG VV000 A3001=

0000009700
909
SPUS31 KWBC 101618
SPECI
KCVG 101614Z 16008KT 1 1/2SM BR OVC005 06/06 A3017=

0000010900
910
SPUS41 KWBC 101618
SPECI
KWRI 101616Z AUTO 06001KT 3SM -RA BR BKN012 OVC039 00/00 A3042=

0000029500
911
SASA31 KWBC 101600 RRC
METAR
SKBQ 101600Z 06007KT CAVOK 31/24 A2987 NOSIG=
SKCG 101600Z 30006KT CAVOK 30/23 A2986=
SKLT 101600Z 00000KT 9999 FEW009 BKN013 28/25 A2989=
SKRG 101600Z 09004KT 9999 SCT020 BKN070 18/13 A3027=
SKSP 101600Z 08012KT 9999 FEW018 28/24 A2995=

0000015000
912
SASA41 KWBC 101600 RRB
METAR
SKBG 101600Z 36003KT 9999 FEW017 24/16 A2998=
SKPE 101600Z VRB02KT 9999 BKN015 SCT080 21/18 A3012=

0000007700
913
FTOS33 LOWM 101100 AAA
TAF AMD LOAN 101619Z 1012/1024 CNL=

0000007700
914
FTOS33 LOWM 101100 AAB
TAF AMD LOAV 101619Z 1012/1024 CNL=

0000009900
915
SAGQ21 FGSL 101600 RRA
METAR FGBT 101600Z 22009KT 9999 FEW010 30/25 Q1008 NOSIG=

00000000