0000012700
796
SAIO31 KWBC 101600 RRC
METAR
FMMT 101600Z 34006KT 9999 FEW017CB SCT033 BKN233 29/27 Q1011 TEMPO
     TS=

0000009800
797
SAPA31 KWBC 101600 RRB
METAR
AGGH 101600Z 16002KT 9999 HZ FEW015 24/23 Q1005=

0000039500
798
FTUS52 KWBC 101615 AAA
TAF AMD
KABY 101612Z 1016/1112 03004KT 1SM BR OVC004
     FM102200 08005KT 3SM BR OVC003
     FM110100 13003KT 1/2SM FG OVC002=
KLFK 101614Z 1016/1112 16010KT P6SM OVC004
      TEMPO 1016/1018 17012G21KT FEW007 SCT015
     FM101800 18012G18KT P6SM VCSH OVC015CB
     FM110600 25005KT P6SM OVC004
     FM111000 28006KT P6SM SCT004 BKN250=

0000028000
799
FTUS53 KWBC 101615
TAF
TAF KRFD 101605Z 1016/1112 16010KT 1/2SM -FZDZ FZFG VV001
     FM101900 17010KT 1/2SM -DZRA FZFG VV002
     FM102200 16011KT 1 1/2SM RA BR OVC005
     FM110200 20012KT 2SM -DZ BR VCSH OVC005
     FM110900 24012G18KT P6SM OVC012=

0000030100
800
FTUS53 KWBC 101615 AAA
TAF AMD
KASE 101611Z 1016/1112 VRB03KT 2SM -SN BR SCT010 OVC025
      TEMPO 1016/1019 1SM -SN BR OVC015
     FM101900 34010G18KT 2SM -SN BLSN SCT015 BKN030
     FM110300 22006KT 5SM -SN BR SCT025 OVC035
     FM110700 21005KT P6SM VCSH SCT025 BKN040=

0000134400
801
FTUS80 KWBC 101615 AAA
TAF AMD
KABY 101612Z 1016/1112 03004KT 1SM BR OVC004
     FM102200 08005KT 3SM BR OVC003
     FM110100 13003KT 1/2SM FG OVC002=
KASE 101611Z 1016/1112 VRB03KT 2SM -SN BR SCT010 OVC025
      TEMPO 1016/1019 1SM -SN BR OVC015
     FM101900 34010G18KT 2SM -SN BLSN SCT015 BKN030
     FM110300 22006KT 5SM -SN BR SCT025 OVC035
     FM110700 21005KT P6SM VCSH SCT025 BKN040=
KHOU 101614Z 1016/1112 10007KT P6SM BKN040 BKN250
     FM101900 16010KT P6SM BKN045
     FM102100 17012KT P6SM VCSH BKN040
     FM110200 17008KT 6SM BR VCSH SCT007 BKN100
     FM110900 24006KT 3SM BR VCSH BKN007=
KIAH 101614Z 1016/1118 16010KT P6SM FEW006 SCT030 BKN250
     FM101700 16010KT P6SM BKN040
     FM102100 17011KT P6SM VCSH BKN040
     FM110200 17007KT 5SM BR VCSH SCT007 BKN015
     FM110900 23007KT 3SM BR VCSH BKN007
     FM111300 27008KT 6SM BR BKN015=
KLFK 101614Z 1016/1112 16010KT P6SM OVC004
      TEMPO 1016/1018 17012G21KT FEW007 SCT015
     FM101800 18012G18KT P6SM VCSH OVC015CB
     FM110600 25005KT P6SM OVC004
     FM111000 28006KT P6SM SCT004 BKN250=
KNEW 101612Z 1016/1112 09007KT 1/4SM FG OVC002
     FM101800 13012KT 4SM BR OVC010
     FM102100 15010KT 5SM BR OVC010
      TEMPO 1104/1108 2SM TSRA OVC006CB
     FM110800 22015KT 5SM BR OVC010=

0000032900
802
FTUS80 KWBC 101615 AAB
TAF AMD
KPHL 101612Z 1016/1118 08003KT 1 1/2SM -SHRA BR SCT015 OVC040
     FM101630 11003KT 2SM BR SCT015 OVC040
      TEMPO 1017/1020 6SM BR BKN020
     FM102000 19004KT 6SM BR OVC020
     FM110200 14005KT 4SM BR OVC015
     FM110700 16005KT 3SM -RA BR OVC010 WS020/20050KT=

0000028000
803
FTUS80 KWBC 101615
TAF
TAF KRFD 101605Z 1016/1112 16010KT 1/2SM -FZDZ FZFG VV001
     FM101900 17010KT 1/2SM -DZRA FZFG VV002
     FM102200 16011KT 1 1/2SM RA BR OVC005
     FM110200 20012KT 2SM -DZ BR VCSH OVC005
     FM110900 24012G18KT P6SM OVC012=

0000010900
804
SPUS41 KWBC 101615
SPECI
KDOV 101613Z AUTO 07002KT 3SM -RA BR BKN036 OVC047 02/02 A3043=

0000009700
805
SPUS41 KWBC 101615
SPECI
KINT 101611Z 35006KT 4SM -RA BR OVC003 02/01 A3036=

0000010500
806
SPUS42 KWBC 101615
SPECI
KBRO 101611Z 17016KT 10SM FEW008 SCT022 OVC040 22/20 A2994=

0000010000
807
SPUS42 KWBC 101615
SPECI
KCHA 101611Z 00000KT 2SM BR BKN006 OVC011 07/06 A3026=

0000010100
808
SPUS42 KWBC 101615
SPECI
KMOB 101610Z 08004KT 2 1/2SM -RA BR OVC006 12/11 A3016=

0000011600
809
SPUS42 KWBC 101615
SPECI
KSAV 101610Z 14003KT 6SM BR SCT006 BKN010 BKN020 BKN130 19/17
A3023=

0000011000
810
SPUS42 KWBC 101615
SPECI
KSSI 101611Z AUTO 12010KT 10SM SCT014 BKN022 OVC030 19/18 A3021=

0000032600
811
FTCN34 CWAO 101600 AAA
TAF AMD CYBR 101617Z 1016/1024 VRB03KT 1/4SM FZFG BKN200 TEMPO
     1016/1018 2SM -SN BR SCT020 BKN200
    FM101800 25005KT 4SM BR SCT006 OVC012 TEMPO 1018/1022 11/2SM BR
     OVC006
    FM102200 29012KT P6SM BKN012 TEMPO 1022/1024 SCT012 BKN025
    RMK NXT FCST BY 101800Z=

0000013100
812
FCRO32 LROM 101400 AAA
TAF AMD LRBM 101610Z 1016/1024 VRB04KT 0800 FG VV002 TEMPO 1016/1020
0350 -DZ FG VV001=

0000012800
813
FTAI41 FHAW 101700
TAF FHAW 101630Z 1018/1112 14015KT 9999 FEW020 PROB30 TEMPO 1018/1108 7000
-SHRA SCT018=

0000086500
814
FTCA33 KWBC 101618
TAF
TAF TBPB 101600Z 1018/1118 NIL=
TAF TGPY 101600Z 1018/1118 NIL=
TAF TLPL 101600Z 1018/1118 NIL=
TAF TTCP 101600Z 1018/1118 11012KT 9999 SCT016
      TEMPO 1018/1101 VRB12G25KT 7000 SHRA SCT016 SCT038
      BECMG 1023/1101 09007KT FEW016 PROB40
      TEMPO 1105/1112 8000 SHRA SCT016 SCT038
      BECMG 1110/1112 09010KT SCT016=
TAF TTPP 101600Z 1018/1118 11012KT 9999 SCT016
      TEMPO 1018/1101 VRB12G25KT 5000 SHRA BKN015 SCT038
      BECMG 1023/1101 09007KT FEW016 PROB40
      TEMPO 1105/1112 8000 SHRA SCT016 SCT038
      BECMG 1110/1112 09010KT SCT016=
TTPP 101600Z 1018/1118 11012KT 9999 SCT016
      TEMPO 1018/1101 VRB12G25KT 5000 SHRA BKN015 SCT038
      BECMG 1023/1101 09007KT FEW016 PROB40
      TEMPO 1105/1112 8000 SHRA SCT016 SCT038
      BECMG 1110/1112 09010KT SCT016=

0000009100
815
SPUS41 KWBC 101617
SPECI
KAGC 101613Z 20010KT 10SM OVC009 04/03 A3026=

00000000