0000031000
116
USPH01 RPMM 110000 RRA
TTAA 11001 98618 99014 25441 29003 00134 25456 33502
92816 21258 05512 85546 18260 06009 70182 10062 04508
50590 04959 08011 40762 15938 07006 30973 30956 09509
25100 41759 12011 20247 54363 12025 15424 70560 13028
10658 81545 08010 88999 77999 31313 51108 82358=
0000011000
117
UANT99 KDDL 110345
ARP UAL19 4804N03944W 0345 F340 MS55 298/34 KT
N76054 DDL XXW 110345 F66A
0000011000
118
UANT99 KDDL 110345
ARP AAL64 4834N02525W 0345 F350 MS60 221/51 KT
N388AA DDL XXW 110345 F68A
0000011000
119
UANT99 KDDL 110345
ARP UAL68 5901N01953W 0339 F350 MS51 217/35 KT
N17105 DDL IG1 110345 F78A
0000053500
120
FTIN90 VIDP 110300
TAF VIDP 110300Z 1106/1212 26005KT 1200 MIFG/FU NSC
     BECMG 1108/1110 33007KT 3000 HZ
     BECMG 1115/1117 27003KT 0800 BR
     BECMG 1200/1202 VRB02KT 0300 FG
     BECMG 1103/1105 26005KT 1000 BR
     BECMG 1206/1208 32006KT 3000 HZ=
TAF VIAR 110300Z 1106/1212 VRB02KT 2000 BR NSC
     BECMG 1108/1110 29006KT 5000 HZ
     BECMG 1115/1117 00000KT 2200 BR
     BECMG 1200/1202 VRB02KT 0800 MIFG FEW040 SCT100
     BECMG 1203/1205 VRB02KT 2000 BR
     BECMG 1206/1208 30008KT 5000 HZ SCT035 BKN100=
0000259100
121
SIIN90 VECC 110300
AAXX 11034
42807 31995 00000 10178 20151 40177 71000
  333 20132 59003
  555 10000=
42603 32595 01801 10168 20113 40187
  333 20108 58002
  555 10000=
42399 31496 80000 10144 20106 40187 70500 8562/
  333 20117 58009
  555 10000=
42706 31995 00000 10130 20123 40168 71000
  333 20118 59008
  555 10002=
42217 31595 70000 10084 20050 38782 48591 70522 87400
  333 20068 58002
  555 10000=
42403 31995 60000 10144 20126 40191 70511 86505
  333 20081 58004
  555 10000=
42299 31495 70000 10062 20032 38231 48544 70522 85630
  333 20052 58017 82710 85618
  555 10000=
42901 31996 03601 10160 20146 40169 70500
  333 20115 59006
  555 10000=
42806 31995 00000 10176 20166 40180 70500
  333 20133 59002
  555 10000=
42811 31994 03401 10150 20143 40179 74044
  333 20122 59006
  555 10000=
42812 31995 00000 10150 20150 40175 71000
  333 20116 59002
  555 10000=
43333 31496 50706 10288 20233 40144 70510 84401
  333 20253 56109 58004 82618 83820
  555 10000=
42711 32594 00000 10140 20136 40195
  333 20102 59001
  555 10000=
42503 21593 83602 10158 20133 40193 74454 8451/
  333 20141 58002 6990/
  555 10000=
42803 31996 03601 10154 20133 40177 70544
  333 20123
  555 10000=
42708 31995 03602 10166 20115 40184 70500
  333 20103 59002
  555 10002=
42398 31595 70000 10128 20120 40201 71020 83431
  333 20087 58012
  555 10000=
00109 31993 09902 10148 20129 40177 74244
  333 20108 59004
  555 10000=
42704 31994 00000 10154 20126 40190 71040
  333 20090 59004
  555 10000=
00110 31194 20000 10179 20133 40185 71044 80001
  333 20109 59003
  555 10000=
42295 32396 83600 10036 20027 48543 88///
  333 20010 58000
  555=
42709 32895 02203 10166 20128 40162
  333 20110 58004
  555 10000=
42506 32595 432// 10160 20139 40120
  333 20125 59006
  555=
42900 32595 13601 10142 20091 40176 81500
  333 20090 59005
  555 10000=
42296 32492 73202 10100 20081 48533
  333 20030 58038
  555 10000=
42714 32995 03201 10130 20115 40167
  333 20120 58025
  555=
42810 32596 10000 10168 20147 40184 81200
  333 20136 59004
  555 10000=
43309 32596 23602 10262 20248 40157 82020
  333 20230 58031
  555=
43310 32596 51801 10274 20239 40152 83320
  333 20226 58010
  555=
43367 32596 59902 10275 20257 40124 83543
  333 20/// 58010
  555=
43382 22595 82305 10254 20242 40142 84400
  333 20244 58008 6018/
  555 00182=
43364 32594 632// 10288 20230 40121 82131
  333 20246 59005
  555=
0000379700
122
SIIN90 VANP 110300 RRA
AAXX 11034
42943 32996 01803 10184 20088 10156 333 20150 59014 555 10000=
42935 32996 02302 10164 20103 39521 40181 333 20158 58010 555 10000=
42939 32995 40000 10176 20156 40149 80001 333 20160 58003 555 10000=
42937 32996 02902 10170 20127 40164 333 20106 58016 555 10000=
42931 32996 03204 10144 20056 40176 333 20132 58013 555 10000=
42871 32596 52302 10200 20171 4//// 85500 333 20148 58/// 555 10003=
43029 32996 01603 10226 20208 40173 333 20205 58030 555 10000=
42855 32996 32997 0//// 10160 20112 4//// 333 20114 5//// 555 10000=
42770 22997 62701 10150 20113 40182 86220 333 20120 58000 6007/ 555
00070 10007=
42679 21695 60000 10174 20157 40169 86300 333 20154 58000 6005/ 555
00054 10005=
42715 31594 83201 10166 20156 39489 40151 74424 86520 333 10252 20123
59005 555 10009=
42771 32795 42301 10180 20164 40140 84040 333 20190 59007 555 10004=
42567 21/92 90502 10146 20143 40168 74544 89/// 333 20125 59004 6013/
555 00132 10025=
42662 31/93 90501 10136 20117 40172 74544 89/// 333 20105 58016 555
10001=
42557 32596 83602 10124 20105 40184 74344 89/// 333 20115 58016 555
10002=
42665 31/91 90501 10126 20124 40170 74744 89/// 333 20124 58018 555
10000=
42559 32595 80000 10122 20111  40180 8452/ 333 20098 58017 84620
88460 555 10000=
42754 31991 90000 10114 20107 39515 40177 74741 8//// 333 20067 58018
555 10000=
42571 21592 80501 10156 20149 40159 74444 8653/ 333 20137 59005 6004/
555 00042 10010"LOWER MINIMUM 120"=
42574 21595 80000 10154 20154 4//// 71040 8553/ 333 20110 5//// 6015/
555 00154 10024=
42577 21592 80000 10154 20147 40154 74444 8653/ 333 20130 58000 6005/
555 00052 10030=
42671 31/92 90000 10128 20124 39532 40173 74344 89/// 333 20108 58007
555 10003= 
42674 31/92 93202 10136 20132 40154 74344 333 20094 58003 555 10004= 
42672 31/93 80000 10124 20124 40170 74244 333 20/// 58009 555 10014= 
42467 32995 03202 10126 20126 40177 333 20114 58004 555 10019= 
42361 31/93 93204 10106 20090 40191 74544 89/// 333 20098 58011 555
10005=
42667 31090 90206 10122  20122 39570 40170 74944 333 20119 58018 555
10012 =
42675 21493 80000 10160 20153 40161 74696  8860/ 333 20156 59001 
6021/ 88710 555 00211 10021=
42562 32892 80201 10140 20122 40164 74000 333 10187 20124 58000 555
10011=
42459 32995 83202 10100 20080 40128 333 10210 20074 59006 555 10021=
42456 32994 00501 10100 20096 40174 333 10174 20074 59031 555 10002=
42460 32994 02701 10108 20104 40190 333 10172 20080 59002 555 10011=
42661 31/92 90901 10122 20118 39609 40179 74344 89/// 333 20078 58021
555 10000=
42763 21595 73202 10150 20143 39817 40172 70522 85530 333 20130 58016
6992/ 555 00002 10001=
42767 32896 83202 10144 20131 38961 48470 88060 333 20114 58009 555
10003=
42860 32996 53201 10144 20104 39407 40155 83065 333 20130 58008 555
10000=
42874 31995 20000 10196 20145 40149 70500 80001 333 20175 59009 82075
555 10000=
43041 31995 01802 10170 20147 39540 40172 71000 333 20120 59006 555
10000=
42693 31994 00902 10166 20146 39461 40157 71020 333 20142 59005 555
10004=
42872 31994 21804 10210 20149 40150 70511 80001 333 20156 59006 82075
555 10000=
42779 31996 42506 10174 20151 39450 40158 70510 80002 333 20152 59004
84075 555 10001=
42876 31995 20000 10186 20173 4//// 70500 80001 333 20158 58/// 555
10000=
42783 31996 00000 10184 20153 40145 70500 333 20142 58005 555 10000=
42948 31996 00000 10190 20153 40160 70500 333 20160 59002 555 10000=
42782 31994 01402 10194 20171 4//// 71044 333 20159 58/// 555 10001=
42867 21994 31102 10190 20174 40156 74441 82032 333 20160 58004
6990/ 82360 83070 555 00000 10000=
42933 32997 52903 10165 20073 40162 80008 333 20151 58015 85270 555
10000 =
0000021500
123
SIIN90 VEAT 110300
AAXX 11034
42724 31992 00000 10136 20125 40174 74444
  333 20080 59009
  555 10000=
42618 31/92 90000 10124 20117 40187 74544 89///
  333 20074 58001
  555 10000 095//=
0000008900
124
SPIN90 VAID 110345
SPECI VAID 110345Z 05005KT 0800 FG BKN005 12/11 Q1018=
0000011000
125
UANT99 KDDL 110345
ARP DAL14 4736N02513W 0345 F340 MS58 220/62 KT
N839MH QXT AOE 110345 F87A
0000011000
126
UANT99 KDDL 110345
ARP VIR46C 5011N04432W 0345 F390 MS58 311/37 KT
GVWOW DDL XXW 110345 F81A
0000011000
127
UANT99 KDDL 110345
ARP SAS926 5706N01915W 0345 F390 MS48 226/68 KT
LNRKG DDL XXN 110345 J08A
0000011000
128
UANT99 KDDL 110345
ARP SAS946 6038N03445W 0345 F370 MS56 210/33 KT
LNRKN DDL XXW 110345 J90A
0000011000
129
UANT99 KDDL 110345
ARP SWR17P 4810N02846W 0345 F390 MS53 210/64 KT
HBJHJ QXT AOW 110345 J72A
0000011100
130
UANT99 KDDL 110345
ARP DAL176 4921N04344W 0345 F370 MS58 319/45 KT
N1604R QXT AOW 110345 F27A
0000011100
131
UANT99 KDDL 110345
ARP AWE730 4958N04014W 0345 F370 MS53 297/24 KT
N273AY DDL XXN 110345 J78A
0000011000
132
UANT99 KDDL 110346
ARP DAL78 4951N03615W 0345 F390 MS53 228/36 KT
N855NW DDL XXW 110346 J95A
0000010900
133
UANT99 KDDL 110346
ARP AUA72 5602N02853W 0346 F360 MS54 221/53 KT
OELAE QXT AOE 110346 F79A
0000011200
134
SIRA24 RUHB 110300 CCA
AAXX 11031
24671 41996 71702 11407 21426 39743 40334 58002 77172 87070=
0000103700
135
UDAS02 BABJ 110338
AMDAR 1103
DES CNFLWR 2621N 10723E 110334 F146 MS055 264/042 TB/ S//1=
DES CNFLWR 2621N 10720E 110334 F142 MS045 265/042 TB/ S//1=
DES CNFLWR 2620N 10717E 110335 F139 MS035 266/042 TB/ S//1=
DES CNFLWR 2620N 10713E 110336 F128 MS009 269/046 TB/ S//1=
DES CNFPYM 3614N 11702E 110333 F118 MS155 270/023 TB/ S//1=
DES CNFPYM 3618N 11702E 110333 F109 MS143 266/023 TB/ S//1=
DES CNFPYM 3623N 11702E 110334 F098 MS125 270/029 TB/ S//1=
DES CNFPYM 3628N 11702E 110335 F087 MS120 277/022 TB/ S//1=
LVR CNFPQL 2824N 10430E 110327 F301 MS379 251/088 TB/ S//1=
LVR CNFPQL 2803N 10427E 110330 F301 MS353 259/102 TB/ S//1=
LVR CNFPQL 2744N 10421E 110333 F301 MS339 263/109 TB/ S//1=
LVR CNFPQL 2724N 10418E 110336 F301 MS335 262/114 TB/ S//1=
LVR CNFLZP 3047N 12021E 110328 F276 MS323 264/092 TB/ S//1=
LVR CNFLZP 3032N 12007E 110331 F276 MS315 263/094 TB/ S//1=
LVR CNFLZP 3015N 11955E 110334 F276 MS308 262/099 TB/ S//1=
LVR CNFLZP 2958N 11943E 110337 F276 MS303 262/106 TB/ S//1=
00000000