0000038200
689
SMIN90 VECC 111200
AAXX 11124
43309 32594 40501 10278 20243 40118 84121
  333 10304 58007=
43310 32496 40901 10280 20269 40124 82220
  333 10316 59007=
43367 22694 70000 10250 20250 40136 84621
  333 10310 58022 6033/=
43382 22494 52305 10270 20232 40116 82200
  333 10278 58009 6093/=
43367 32596 605// 10284 20231 40119 83371
  333 10326 58010=
0000068400
690
SMCN04 KWBC 111200
AAXX 11124
71343 15/// /1712 11002 21033 60001 333 10037 21059 70014=
71345 15/// /1917 10016 21042 60001 333 10038 21062 4/997 70000=
71979 15/// ///// 11073 21081 38213 49837 58063 60001 333 11033
21114 4/070 70000=
71224 15/// /2224 10018 21028 60001 333 10020 21045 70000=
71276 15/// /1507 11095 21112 60001 333 11020 21122 70000=
71334 15/// /3201 11338 21370 39694 40044 55008 60001 333 11181
21348 4/035 70002=
71344 45/// /1318 11071 21082 6///1 333 10002 21084 7////=
71348 15/// /0806 11055 21090 60001 333 11015 21164 70000=
71828 47/// /2307 11095 21109 39459 40103 57003 6///1 7//4/ 333
11094 21105 4/023 7////=
0000010000
691
SAER41 OMAM 111217 RRF
METAR OMAM 111200Z 22005KT 9999 -RA OVC090 23/10 Q1017 A3003=
0000011100
692
SAER41 OMAM 111219 RRF
METAR COR OMAM 111200Z 22005KT 9999 -RA FEW040 BKN090 23/10 Q1017 A3003=
0000010300
693
SAER41 OMAM 111221 RRF
METAR OMAM 111230Z 26004KT 9999 FEW040 BKN090 23/10 Q1018 A3006=
0000050700
694
SMVS01 KWBC 111200
AAXX 11121
48808 01495 80000 10140 20136 39931 40223 52015 60014 76062 888//
333 01015 10141 58021 60012 70014 83894 88696 96010 96160=
48826 31596 71101 10181 20169 30074 40212 53018 71022 888// 333
00019 10202 58010 70000 85895 87697=
48830 01495 83202 10140 20125 39911 40226 52021 69904 71022 888//
333 00014 10144 58015 69902 79999 83894 88697=
48839 32497 70506 10185 20178 30143 40210 53020 82108 222// 00203
2//02 333 00/// 10240 58009 70000 87299=
0000039900
695
SMVA01 KWBC 111200 RRC
BBXX
DBBH 11121 99174 30117 41998 11704 10189 20165 40144 57008 70200
 80001 22283 04171 20201 320// 41003=
A8GU4 11124 99227 30540 41398 31117 10260 20232 40160 54000 7//22
 83160 22214 04270 20407 305// 40305 80240=
ONGA 11124 99298 30396 41798 62013 10270 2020/ 40160 54/// 70311
 862// 22222 00250 20306 3//// 4//// 5//// 6//// 80220 ICE /////=
0000141800
696
SMVB01 KWBC 111200 RRC
BBXX
H9XE 11124 99311 11412 41698 70116 10030 21055 40260 52030 70211
 86145 22243 00120 20202 30606 40202 50202 80000=
A8ZE4 11124 99304 11225 41/98 /0615 10100 20061 40310 57010 76666
 8//// 22200 04105 20001 80080=
SHIP 11124 99163 11138 41597 40105 10240 20211 40191 54/// 84333
 22254 00270 301// 40206 80220=
DDZA2 11123 99359 11209 41/97 /2413 10050 20028 40310 54000 71244
 8//// 22200 04090 20501 323// 40303 80040=
ELVL8 11123 99239 11184 41497 50418 10170 20125 40230 55010 70211
 83200 22212 00170 20302 30305 40303 50404 80143=
SHIP 11124 99059 10964 41697 70610 10270 20228 40123 53011 70222
 86246 22224 00290 20403 334// 40403 80240=
SHIP 11124 99492 11565 41/96 /3135 11010 21010 49951 51055 72077
 88/// 91200 22264 00070 1//// 2////5 3//// 4//// 5//// 6///
 /81010 /////=
SHIP 11124 99320 11352 41/98 /1413 10100 20037 40288 51011 8////
 22214 00200 80070=
52211 11121 99153 11457 46/// ///// 1//// 91218 22200 00281 10806
 20806 305// 41101 70031=
JPBN 11124 99251 11292 41/97 70616 10186 20114 40262 52016 70282
 872// 22271 00237 10603 20503 399// 4//02 70014=
JGQH 11124 99304 11370 41/98 33011 10127 20010 40276 51007 70222
 83200 22242 00190 10603 20301 399// 4//02 70015=
C6XC2 11124 99096 11337 41496 80735 10270 20256 40120 52010 70222
 88976 22284 00290 20601 3//// 40601 50501 6//// 80260 ICE /////=
0000010200
697
SMVC01 KWBC 111200 RRB
BBXX
BAREU08 11124 99319 50720 46/// ///// 40129 52017 22244=
0000368800
698
SMVD01 KWBC 111200 RRJ
BBXX
46204 11121 99514 71288 46/// /2108 10078 49828 57009 22200 0////
 10905 70025 333 91210=
46131 11121 99499 71250 46/// /2108 10083 49869 57005 22200 00079
 10603 70015 333 91209=
46145 11121 99544 71324 46/// /0007 10021 49801 52024 22200 00068
 11203 70017 333 91208=
9VVD 11124 99427 71571 41/97/2721 10105 20085 40090 5/040 700//
 8//// 22224 04110 20608 80095=
WDB7815 11123 99577 71434 41497 62913 10028 2//// 49912 52010
 76062 868// 22233 00061 20602 322// 41205 5//// 6//// 8//// ICE
 /////=
46147 11121 99518 71312 46/// /2102 10046 49799 52005 22200 00076
 10907 70034 333 91203=
46215 11121 99352 71209 46/// ///// 1//// 91205 22200 00129 11204
 21002 328// 41203 70020=
46219 11121 99332 71199 46/// ///// 1//// 91210 22200 00142 11404
 20903 329// 41403 70022=
46211 11121 99469 71242 46/// ///// 1//// 91213 22200 00085 11009
 21006 322// 41106 70043=
46114 11121 99367 71223 46/// ///// 1//// 91208 22200 00126 11506
 21003 331// 41506 70032=
41115 11121 99184 70673 46/// ///// 1//// 91211 22200 10802 20802
 301// 41101 70012=
44095 11121 99358 70753 46/// ///// 1//// 91217 22200 00132 10805
 20805 312// 41101 70027=
51206 11121 99198 71550 46/// ///// 1//// 91203 22200 00249 11105
 20904 310// 41102 70025=
44100 11121 99363 70756 46/// ///// 1//// 91204 22200 00089 10804
 20804 312// 41101 70021=
41113 11121 99284 70805 46/// ///// 1//// 91210 22200 00180 10902
 20902 70010=
44099 11121 99369 70757 46/// ///// 1//// 91218 22200 00065 10703
 20703 70014=
44060 11121 99413 70721 46/// /1607 10078 20075 40175 58042 91200
 22200 00041 333 91209 555 11082 22098=
44096 11121 99370 70758 46/// ///// 1//// 91217 22200 00068 10802
 20602 315// 40801 70011=
44039 11121 99411 70727 46/// /1607 10071 20069 91200 333 91208
 555 11088 22103=
YJVM9 11124 99260 70920 41697 42013 10220 20216 40130 54000 7//00
 845/8 22200 00220 20401 319// 40502 5//// 6//// 80217 ICE /////=
ZCDV9 11124 99377 70361 41497 53227 10115 40204 52014 70111 8447/
 22214 04192=
C6JT8 11124 99242 70885 41297 11612 10240 20224 40156 70211 81500
 22233 20402 311// 40302 80229=
C6FN4 11124 99261 70860 41898 22023 10220 20174 40200 54/// 7//22
 824// 22274 04236 20404 3//// 4//// 5//// 6//// 85190 ICE /////=
WDD3825 11124 99292 70945 41195 82214 10130 2013/ 40154 53018
 75152 887// 22200 00127 20303 399// 40404 5//// 6//// 80130 ICE
 0/0//=
VREO9 11124 99227 70583 41597 40524 10260 20199 40260 52020 70100
 83163 22214 06310 20504 306// 40605 80220=
46223 11121 99335 71178 46/// ///// 1//// 91148 22200 00156 11301
 21001 327// 41301 70007=
46225 11121 99329 71174 46/// ///// 1//// 91142 22200 00154 11402
 20801 328// 41401 70010=
46216 11121 99343 71198 46/// ///// 1//// 91142 22200 00149 11302
 21001 327// 41302 70012=
46222 11121 99336 71183 46/// ///// 1//// 91133 22200 00157 11302
 21001 327// 41302 70010=
46243 11121 99462 71241 46/// ///// 1//// 91216 22200 00086 11010
 21008 322// 41105 70052=
46217 11121 99342 71194 46/// ///// 1//// 91209 22200 00153 11302
 21001 326// 41301 70010=
46246 11121 99500 71451 46/// ///// 1//// 91144 22200 00089 11112
 21008 301// 41108 70058=
46246 11121 99500 71451 46/// ///// 1//// 91214 22200 00089 11210
 21007 303// 41207 70052=
46251 11121 99338 71196 46/// ///// 1//// 91209 22200 00154 11203
 21002 327// 41202 70014=
46207 11121 99509 71299 46/// /1806 10080 49818 57011 22200 00078
 10907 70036 333 91209=
WFLG 11123 99238 71520 41498 80824 10231 20202 40167 57004 70222
 8124/ 22213 00211 2//// 3//// 4//// 5//// 6//// 80211 ICE /////=
0000096100
699
SMVD01 KWBC 111200 RRK
BBXX
WCY7054 11123 99265 70863 41398 31913 1//// 2//// 4//// 54///
 7//00 831// 22273 0//// 20401 3//// 408// 5//// 6//// 8//// ICE
 /////=
C6RN3 11124 99215 70763 41298 40921 10260 20246 40190 52005 70100
 841// 22264 0//// 2//// 309// 40705 5//// 6//// 80250 ICE /////=
PHEO 11124 99212 71582 41398 21010 10235 20212 40090 50000 70100
 822// 22263 00260 20301 80220=
44058 11121 99376 70763 46/// /1905 10076 40128 91210 333 91206
 555 11054 22059=
46126 11121 99540 71666 46/// /2405 10051 49797 58011 91200 22200
 00044 1//00 70001 333 91208 555 11057 22061=
44041 11121 99372 70768 46/// /1504 10129 91210 333 91205 555
 11049 22053=
44062 11121 99386 70764 46/// /1805 10058 40126 91210 333 91206
 555 11059 22064=
44064 11121 99370 70760 46/// /1405 10109 40134 91210 333 91206
 555 11055 22060=
44063 11121 99390 70764 46/// /1301 10023 40109 91210 333 91203
 555 11016 22018=
0000009300
700
SMVD11 KWBC 111200 RRB
BBXX
SHIP 11124 99152 71518 41/97 60917 84/// 22264=
0000108300
701
WWCN02 CYTR 111226
WEATHER BULLETIN FOR CFB SUFFIELD DRDC/BATUS AAC AND RANGE SUFFIELD
PREPARED BY THE JOINT METEOROLOGICAL CENTRE AT 5:26 AM MST SATURDAY
11 JANUARY 2014.
LOCATION: CFB SUFFIELD DRDC / BATUS ACC AND RANGE (CYSD)
TYPE: FREEZING PRECIPITATION WARNING IN EFFECT
DESCRIPTION: FREEZING RAIN
VALID: UNTIL 11/1400Z (UNTIL 11/0700 MST)
TYPE: WIND WARNING IN EFFECT
DESCRIPTION: SURFACE WIND GUSTS EQUAL TO OR GREATER THAN 30 KNOTS
VALID: 11/1600Z TO 12/1200Z (11/0900 MST TO 12/0500 MST)
COMMENTS: A WARM FRONT ASSOCIATED WITH A LOW OVER THE ROCKIES IS
EXPECTED TO GIVE LOCAL FREEZING RAIN OVER THE BASE. THE FREEZING
RAIN IS EXPECTED TO DEPART THE AREA WITHIN THE NEXT FEW HOURS.
AT THE SAME TIME, A TIGHT PRESSURE GRADIENT WILL FORM OVER THE
REGION AS THIS LOW PRESSURE SYSTEM DEEPENS. SURFACE WIND GUSTS EQUAL
TO OR GREATER THAN 30 KNOTS ARE EXPECTED TO DEVELOP IN THE MORNING
AND DISSIPATE SUNDAY MORNING WHEN THE PRESSURE GRADIENT SLACKENS.
NEXT UPDATE: THIS BULLETIN WILL BE UPDATED BY 11/1400Z (11/0700 MST)
END/JMC
0000375300
702
SMVF01 KWBC 111200 RRC
BBXX
SMLQ 11121 99656 10222 46/// /0105 11160 40126 52001 22201 0////=
BSH03 11121 99540 10081 46/// ///// 22200 00069 20704 70018=
AMOUK30 1112/ 99565 70068 46/// ///// 10070 20011 40145=
AMOUK33 1112/ 99555 10084 46/// ///// 10064 20042 40049=
AMOUK26 1112/ 99499 70024 46/// ///// 10101 20043 40212=
AMOUK42 1112/ 99506 70025 46/// ///// 10100 20039 40213=
AMOUK02 1112/ 99536 70041 46/// ///// 10067 20025 40191=
AMOUK34 1112/ 99514 10022 46/// ///// 10082 20039 40161=
AMOUK09 1112/ 99517 10018 46/// ///// 10072 20071 40183=
AMOUK43 1112/ 99543 70040 46/// ///// 10062 20024 40179=
AMOUK31 1112/ 99558 70055 46/// ///// 10063 20012 40155=
AMOUK29 1112/ 99505 70082 46/// ///// 1//// 2//// 40208=
AMOUK14 1112/ 99533 70062 46/// ///// 10067 20006 40195=
AMOUK04 1112/ 99535 70050 46/// ///// 10068 20031 40188=
AMOUK32 1112/ 99559 70047 46/// ///// 10053 20005 40148=
AMOUK45 11124 99509 70014 46/// /3005 10083 20035 40199 22200
 401990105=
AMOUK36 1112/ 99581 70013 46/// ///// 10055 20012 40078=
AMOUK44 1112/ 99545 70047 46/// ///// 1//// 2//// 40180=
AMOUK11 1112/ 99533 70046 46/// ///// 10071 20023=
AMOUK28 1112/ 99579 70068 46/// ///// 1//// 2//// 40114=
AMOUK03 1112/ 99537 70003 46/// ///// 10073 20035 40160=
AMOUK23 1112/ 99577 70020 46/// ///// 10044 20006 40087=
AMOUK13 1112/ 99512 10016 46/// ///// 10079 20042 40185=
AMOUK06 1112/ 99511 10014 46/// ///// 10086 20075 40191=
AMOUK05 1112/ 99519 10041 46/// ///// 10079 20060 40151=
AMOUK24 1112/ 99571 70067 46/// ///// 10074 21008 40110=
2AUO5 11123 99606 10016 41597 70509 10052 20035 40001 51021 7//82
 8444/ 22200 20503 33527 41005 50904 80045=
62164 11124 99572 10008 47598 /2822 10064 20014 40079 52014 700//
 22200 00084 10606 70028=
62133 11124 99571 10009 46/// /2924 40078 51013 22200 10605 70026=
GGXE 11124 99581 10000 41597 52725 10061 20037 40056 53/// 70222
 8599/ 22200 20604 329// 40604 80051=
62146 11124 99572 10021 47598 /2103 10056 20013 40075 52013 700//
 22200 10605 70024=
62140 11124 99573 10013 46/// ///22 10057 20014 40072 51013 22200=
62104 11124 99574 10013 47498 /2922 10065 20012 40066 51011 762//
 22200=
62153 11124 99573 10020 47598 /2713 40064 51008 700// 22200 10605
 70026=
62122 11124 99573 10016 47598 /2925 10059 20008 40070 51011 700//
 22200 10605 70026=
62155 11124 99577 10007 47298 /2826 10048 20014 40074 51014 762//
 22200 10606 70028=
62116 11124 99576 10011 47597 /2924 10049 20000 40064 52013 700//
 22200 10606 70029=
62143 11124 99577 10018 47598 /3113 10056 20004 40078 52016 700//
 22200 10606 70031=
62118 11124 99577 10009 47998 /2822 10051 20005 40063 51015 700//
 22200 10606 70028=
62117 11124 99579 10000 47598 /2827 10057 20008 40058 52017 700//
 22200 10605 70026=
62102 11124 99579 10018 46/// /2925 10063 20002 40048 51009 22200
 10706 70030=
ZQSD5 11124 99583 10008 47598 ///// 10061 20024 40046 52013 700//
 22200 1//07 70034=
62114 11124 99583 10000 46/// /2829 10055 20020 40051 51010 22200=
62134 11124 99580 10014 47597 /3022 10056 20014 40056 52011 700//
 22200 10606 70029=
62119 11124 99570 10019 47598 /3023 10063 20002 40080 51012 700//
 22200 10605 70023=
62154 11124 99564 10022 46/// /3016 10062 20008 40079 51010 22200=
62152 11124 99570 10018 47598 /2917 10059 21000 40082 51013 700//
 22200 10505 70026=
62123 11124 99563 10022 47598 /2922 10064 20005 40082 51010 700//
 22200 1//05 70025=
62132 11124 99564 10020 46/// /3220 10063 21000 40094 51012 22200=
62120 11124 99564 10021 47598 /2921 10058 20011 40080 51010 700//
 22200=
62165 11124 99540 10011 47598 /2816 10062 20023 40151 51019 700//
 22200 10504 70018=
0000012600
703
SMKZ01 UAAA 111200 CCA
AAXX 11121
28952 41598 81608 11060 21095 39975 40170 52004 73633 885// 555  
1/107=
0000012600
704
SMKZ01 UAAA 111200 CCB
AAXX 11121
28867 41496 81603 11052 21077 39902 40178 57001 71073 885// 555  
1/105=
0000365600
705
SMVF01 KWBC 111200 RRD
BBXX
62131 11124 99539 10012 46/// /2914 10064 20015 40147 52020 22200=
62149 11124 99537 10011 47999 /2918 10084 20020 40155 52021 700//
 22200 10503 70014=
62148 11124 99536 10015 46/// ///// 22200=
62127 11124 99540 10007 47999 ///// 10061 20002 40150 51019 700//
 22200 10503 70016=
62150 11124 99536 10007 47998 /2820 10064 20015 40169 51020 700//
 22200 10503 70013=
62121 11124 99535 10027 46/// ///// 10070 20020 40138 51028 22200=
62144 11124 99534 10017 47998 /2820 10062 20014 40163 52033 700//
 22200 10503 70015=
62145 11124 99531 10028 47998 /2918 10070 20010 40156 51036 700//
 22200 10403 70016=
62142 11124 99530 10021 47998 /2919 10067 20033 40154 52030 700//
 22200 10403 70014=
MWYG6 11124 99603 70040 47998 /2723 40038 52018 700// 22200=
63104 11124 99612 10016 47598 /0904 10026 21013 49998 51011 700//
 22200 10806 70029=
63114 11124 99613 10017 47599 /0803 10021 21030 49998 51011 700//
 22200=
63117 11124 99613 10011 47499 /1106 40000 51009 700// 22200=
63115 11124 99616 10013 47599 /0904 10025 21016 49998 51008 700//
 22200 10806 70028=
63103 11124 99612 10011 46/// ///// 10024 21000 49989 51012 22200
 10806 70028=
63101 11124 99612 10009 46/// /1208 10035 20004 49997 51010 22200
 10806 70028=
63113 11124 99610 10017 46/// /0705 10055 20006 49997 51014 22200
 10705 70027=
63112 11124 99611 10010 47498 /1506 10038 20009 49996 51015 761//
 22200 10706 70028=
63107 11124 99611 10017 46/// /0904 10031 49998 51014 22200=
63105 11124 99610 10017 47497 /0805 10050 21014 49998 51012 700//
 22200=
63106 11124 99610 10017 46/// /0905 10036 51015 22200=
62111 11124 99580 70003 46/// /2930 10055 20006 40086 52016 22200
 10605 70027=
63108 11124 99608 10017 47/99 /0703 10035 20010 49996 52015 700//
 22200 10706 70028=
62112 11124 99584 70002 47497 /2921 10065 20017 40058 51015 761//
 22200=
PJAI 11124 99581 70014 47598 /2820 10060 20001 40075 52019 700//
 22200=
63055 11124 99606 10016 47498 /0902 10049 20016 49998 51019 700//
 22200 10706 70028=
62129 11124 99584 10003 46/// /2824 10055 20019 40052 51011 22200=
64041 11124 99607 70026 47497 /2723 40015 52014 700// 22200 10909
 70044=
63056 11124 99597 10016 47498 /2721 10055 20017 40007 51013 700//
 22200 10706 70032=
62113 11124 99584 10002 47598 /2825 10056 20018 40058 52012 700//
 22200=
63109 11124 99596 10015 46/// /2924 10056 20017 40011 51016 22200=
62128 11124 99587 10014 47998 /2920 10051 20019 40041 51008 700//
 22200 10606 70031=
MQSY9 11124 99593 10015 47999 /2821 10054 20014 52015 700// 22200=
63057 11124 99592 10015 47998 /2919 10048 20008 40021 52014 700//
 22200 10706 70031=
63110 11124 99595 10015 47598 /2819 10061 20019 40023 52016 700//
 22200 10706 70032=
62304 11124 99512 10018 46/98 /3123 10080 20045 40187 51035 22200
 00103 10501 70006 333 90710 91127=
62103 11124 99499 70029 46/99 /0108 10088 20036 40221 51020 22200
 00111 10802 70012=
62305 11124 99504 70000 46/// /3114 10087 20039 40209 51029 22200
 00110 10601 70007=
64045 11124 99591 70117 46/// /2615 10062 21007 40101 53027 22200
 00096 10909 70045=
62081 11124 99521 70105 46/// /1411 10069 20036 40183 50009 22200
 10805 70026=
62304 11124 99512 10018 46/98 /3123 10080 40187 51035 22200 10501
 70006 333 90710 91127=
62107 11124 99501 70061 46/// /0905 10095 20036 40213 50005 22200
 00105 11105 70026=
62001 11124 99452 70050 46/// /0709 10120 20074 40213 50006 22200
 00128 10904 70020=
62105 11124 99550 70132 46/// /1911 10083 21001 40153 51018 22200
 00109 10907 70036=
0000033400
706
SMVF01 KWBC 111200 RRF
BBXX
BAREU14 11124 99536 70045 46/// ///// 40194 52033 22264=
BATEU10 11124 99449 70042 46/// /0817 40202 58003 22245=
BAREU65 11124 99310 70149 46/// ///// 40188 52012 22243=
2GYL6 11123 99338 70087 41497 22311 10185 20138 40186 54000 70200
 81102 22253 04180 299// 399// 4//04 80158=
0000374300
707
SMVF01 KWBC 111200 RRE
BBXX
62163 11124 99475 70084 46/// /1121 10108 20086 40189 58003 22200
 00121 10807 70034 333 90710 91129=
62159 11124 99609 70022 41497 62913 10060 20015 40010 52020 70222
 864// 22200 10708 70041=
A8CP5 11120 99498 70028 41498 53408 10105 20062 40220 51010 70222
 85164 22213 04116 20801 3//// 4//// 5//// 80085=
ZCDN2 11124 99479 70065 41598 12118 10106 20049 40193 54000 70222
 81165 22254 00110 20101 301// 40201 80080=
62301 11124 99524 70047 46/// /3108 10070 20015 40205 51015 22200
 00096 10503 70013=
62027 11124 99491 70022 46/// /1109 1//// 2//// 40217 51020 22200
 0//// 11403 326// 70014=
A8HR5 11124 99363 70022 41/97 50710 10180 20139 40200 54000 705//
 8//3/ 22224 04154 20000 306// 40302 80155=
62303 11124 99516 70051 46/// /3405 10077 20013 40209 22200 10603
 70013=
62050 11124 99500 70044 46/// /0803 10099 20040 40213 22200 10602
 70010=
62095 11124 99529 70156 46/// /1720 10094 20042 40121 57006 22200
 00111 10807 70035 333 90710 91131=
62170 11124 99514 10020 46/98 /2821 10075 20029 40185 51036 22200
 00106 10501 70006 333 90710 91125=
64046 11124 99605 70042 46/// /3123 10053 20025 40035 333 90710
 91131=
A8OF8 11123 99368 10128 41598 51820 10230 20185 40230 57010 70211
 8/544 22225 04170 20501 317// 40602 80200=
LF4C 11124 99584 10019 41598 73022 10060 20014 40040 52011 71682
 879/3 22200 00050 10706 70029 333 91132=
LF5T 11124 99660 10081 41698 50918 11032 21093 40066 54000 71672
 857// 22200 10605 70027 333 91126=
LF4B 11124 99606 10037 47/98 /0109 10020 40003 52022 700// 22200
 00037 10805 70024 333 91114=
LF3N 11124 99653 10073 41496 71023 11029 21068 40039 57001 78582
 879// 22200 00083 10708 70038 333 91129=
LF3F 11124 99643 10078 41597 70820 11043 21084 40024 54000 72687
 87/// 22200 04102 10704 70019 333 91130=
3ERR2 11124 99653 10073 43/// /1024 11033 21082 40045 52003 22200
 10706 70032 333 91132=
BATFR23 11124 99426 10057 46/// /0720 10139 20097 40202 58016
 22244 00130=
BAREU51 11124 99426 10099 46/// ///// 10156 29078 40219 57014
 22275=
61002 11124 99421 10047 46/// /1007 10131 20051 40206 52002 22200
 00129 10401 70005=
BATUK01 11124 99576 70061 43/// /2503 10057 21010 40117 51029
 22231 04094=
A8PB2 11124 99301 70118 41198 22609 10170 20146 40195 50015 7//00
 82200 22213 04190 20402 333// 40605 80155=
BATFR61 11124 99473 70060 46/// /1214 10114 20099 40202 50005
 22272 04124=
BATFR21 11124 99430 10084 46/// /3404 10127 20097 40208 58008
 22273=
BATFR52 11124 99498 70005 46/// /3513 10099 20032 40225 51037
 22234 04107=
BATFR27 11124 99487 70022 46/// /0210 10092 20044 40211 50009
 22271 04107=
BATFR09 11124 99393 70101 46/// /3401 10145 20075 40189 50008
 22242 04160=
PBEO 11123 99353 70065 41/97 51710 10177 20150 40194 53006 70111
 82565 22253 02167 20401 30000 80160=
12050 11124 99336 10319 46/// ///// 40233 57012 22200=
BATFR12 11124 99486 70064 46/// /0915 10104 20039 40206 50003
 22200 04150=
BATFR44 11124 99477 70037 46/// /1210 10077 20064 40216 51009
 22222 04084=
BATFR20 11124 99375 10097 46/// /1407 10152 20097 40186 58009
 22233=
BATFR62 11124 99498 70006 46/// /3514 10097 20037 40213 51020
 22272 04125=
BATFR03 11124 99506 70009 46/// /3414 10079 20032 40216 51022
 22284=
FVNM 11124 99477 70034 46/// /0903 10080 20074 40207 50011 22200
 04097=
BAREU72 11124 99408 10287 46/// ///// 40234 22243=
LXME 11124 99372 10122 41998 11720 10174 20145 40203 57023 70311
 80001 22264 00170 20601 30000 80156=
BATFR16 11124 99453 70137 46/// /1821 10124 20099 40130 53005
 22214 00130=
BAREU71 11124 99383 70145 46/// /1821 10158 29081 40176 57011
 22264=
0000068500
708
UDNT02 EGRR 111231
AMDAR 1111
UNS EU1334   5900N 02953W 111115 F349 MS630 219/062 TB/ S031=
LVR EU1334   5903N 02757W 111122 F350 MS605 224/061 TB0 S031=
LVR EU1334   5905N 02601W 111129 F350 MS595 227/062 TB0 S031=
LVR EU1334   5905N 02405W 111136 F349 MS615 224/069 TB0 S031=
LVR EU1334   5903N 02209W 111143 F349 MS620 235/075 TB0 S031=
LVR EU1334   5900N 02010W 111150 F349 MS595 230/072 TB0 S031=
LVR EU1334   5844N 01820W 111157 F350 MS600 235/077 TB0 S031=
LVR EU1334   5825N 01631W 111204 F350 MS632 243/080 TB0 S031=
LVR EU1334   5804N 01442W 111211 F350 MS615 248/082 TB0 S031=
LVR EU1334   5741N 01255W 111218 F349 MS597 252/085 TB0 S031=
00000000