0000074700
276
SAIN33 VIDP 110330
METAR VEBD 110330Z VRB01KT 2000 BR SCT025 BKN090 14/12 Q1020 NOSIG=
METAR VEGK 110330Z 11006KT 0800 FG FEW025 SCT090 15/14 Q1017 BECMG
     1000=
METAR VIAG 110330Z 27005KT 0600 FG SKC 09/09 Q1019 BECMG 0800=
METAR VIAL 110330Z 11008KT 0800 FG SCT012 SCT020 BKN090 17/17 Q1017
     TEMPO RA=
METAR VICG 110330Z VRB02KT 1000 BR SKC 10/10 Q1018 BECMG 1500=
METAR VIGR 110330Z 28005KT 0600 FG SKC 10/08 Q1019 BECMG 0800=
METAR VIJU 110330Z 01003KT 3000 BR FEW250 08/08 Q1018 BECMG 4000=
METAR VILH 110330Z VRB02KT 6000 FEW060 SCT090 M10/M16 Q1026 NOSIG=
METAR VISR 110330Z VRB02KT 1500 BR SCT010 SCT015 M00/M00 Q1026 NOSIG=
METAR VITX 110330Z VRB02KT 6000 SCT060 BKN090 M07/M15 Q1028 NOSIG=

0000045000
277
SXXX32 EUMS 110346 RRA
1227146C
:PRS 1 /1 2943 2946 2950 2952 2955 2958 2965 2969 2972 2975 2980 2985 2988 2992 2993 2998 3002 3005 3006 3012 3018 3024 3027 3030 3032 3038 3040 3044 3047 3050 :RAD 3 /3 2941 2950 2964 2959 2964 2987 3009 2995 3020 3026 3052 3038 3078 3074 3036 3110 3099 3092 3106 3146 :ENC 1 /5 3696 3716 3735 3754 3775 3792 3810 3829 3846 3864 3883 3901 :SW1 47 /60 0 :SW2 17 /60 60 :BAT 14 /15 12.8 :NAME 1227146C
0000054100
278
UDAS02 BABJ 110342
AMDAR 1103
DES CNFNXP 3702N 11710E 110338 F027 MS025 195/015 TB/ S//1=
DES CNFNXP 3702N 11711E 110339 F024 MS020 205/019 TB/ S//1=
DES CNFNXP 3701N 11713E 110339 F017 MS013 227/015 TB/ S//1=
DES CNFNXP 3658N 11713E 110340 F015 MS006 219/014 TB/ S//1=
LVR CNFPQK 3702N 11652E 110332 F226 MS348 258/065 TB/ S//1=
LVR CNFPQK 3650N 11714E 110335 F226 MS345 262/062 TB/ S//1=
LVR CNFPQK 3647N 11742E 110338 F226 MS345 261/064 TB/ S//1=
LVR CNFPQK 3644N 11810E 110341 F226 MS343 260/066 TB/ S//1=
0000103700
279
UDAS02 BABJ 110340
AMDAR 1103
LVR CNFPXL 2909N 11056E 110328 F301 MS343 257/105 TB/ S//1=
LVR CNFPXL 2903N 11038E 110331 F301 MS335 259/105 TB/ S//1=
LVR CNFPXL 2857N 11020E 110334 F301 MS338 260/107 TB/ S//1=
LVR CNFPXL 2851N 11003E 110337 F301 MS333 262/108 TB/ S//1=
DES CNFNXP 3651N 11706E 110335 F054 MS061 251/016 TB/ S//1=
DES CNFNXP 3652N 11707E 110336 F054 MS060 250/017 TB/ S//1=
DES CNFNXP 3655N 11708E 110336 F054 MS060 252/018 TB/ S//1=
DES CNFNXP 3658N 11709E 110337 F041 MS043 237/011 TB/ S//1=
DES CNFPYM 3629N 11702E 110336 F085 MS116 277/022 TB/ S//1=
DES CNFPYM 3633N 11702E 110336 F075 MS095 276/021 TB/ S//1=
DES CNFPYM 3637N 11702E 110337 F065 MS076 265/021 TB/ S//1=
DES CNFPYM 3642N 11702E 110338 F054 MS060 249/019 TB/ S//1=
DES CNFLWR 2620N 10708E 110337 F110 PS026 254/031 TB/ S//1=
DES CNFLWR 2619N 10705E 110337 F102 PS006 252/039 TB/ S//1=
DES CNFLWR 2619N 10703E 110338 F096 MS025 243/032 TB/ S//1=
DES CNFLWR 2619N 10658E 110339 F079 PS008 226/027 TB/ S//1=
0000066100
280
UDAF01 FAPR 110347
AMDAR 1103
LVR AFZA04 3018N 00647E 110257 F400 MS582 230/097 TB0 S031 333 F/// VG015=
LVR AFZA04 3119N 00645E 110305 F400 MS565 231/096 TB0 S031 333 F/// VG015=
LVR AFZA04 3218N 00644E 110312 F400 MS585 237/097 TB0 S031 333 F/// VG015=
LVR AFZA04 3318N 00642E 110319 F400 MS594 240/095 TB0 S031 333 F/// VG015=
LVR AFZA04 3416N 00639E 110326 F400 MS576 243/080 TB0 S031 333 F/// VG015=
LVR AFZA04 3513N 00633E 110333 F400 MS567 240/068 TB0 S031 333 F/// VG015=
LVR AFZA04 3609N 00627E 110340 F400 MS606 247/066 TB0 S031 333 F/// VG014=
LVR AFZA04 3705N 00620E 110347 F400 MS604 247/060 TB0 S031 333 F/// VG014=
0000215900
281
SZNZ01 NZKL 110351
CREX++
T000103 A001 D01021 D06025++
-3683144 17478654 AUCT  2014 01 11 03 43 //// 11 07 00 01
06070 3204 06070 3205 06071 3206 06072 3208 06071 3208 06070 3208+
-4402404 -17636748 CHIT  2014 01 11 03 43 //// 11 07 00 01
05072 2122 05079 2132 05054 2111 05048 2109 05039 2104 05032 2101+
-4089929 17623168 CPIT  2014 01 11 03 43 //// 11 07 00 01
04159 2288 04150 2284 04145 2284 04131 2274 04120 2268 04120 2272+
-3618905 17548887 GBIT  2014 01 11 03 43 //// 11 07 00 01
06415 0040 06413 0039 06409 0037 06413 0042 06420 0051 06421 0053+
-3867541 17802288 GIST  2014 01 11 03 43 //// 11 07 00 01
04392 2710 04382 2704 04382 2707 04372 2702 04382 2715 04359 2696+
-4241288 17370277 KAIT  2014 01 11 03 43 //// 11 07 00 01
03429 2173 03418 2167 03415 2169 03410 2170 03389 2153 03389 2159+
-3755040 17815904 LOTT  2014 01 11 03 43 //// 11 07 00 01
04020 0224 04019 0226 04002 0211 03997 0209 04007 0221 04010 0227+
-3704657 17451175 MNKT  2014 01 11 03 43 //// 11 07 00 01
02743 -0179 02766 -0164 02774 -0162 02787 -0156 02768 -0182 02806 -0150+
-3947566 17692007 NAPT  2014 01 11 03 43 //// 11 07 00 01
03378 2046 03353 2025 03341 2018 03337 2018 03332 2017 03327 2017+
-3441483 17304870 NCPT  2014 01 11 03 43 //// 11 07 00 01
02531 -2471 02555 -2448 02599 -2404 02533 -2471 02556 -2448 02442 -2563+
-4581435 17062939 OTAT  2014 01 11 03 43 //// 11 07 00 01
04351 3410 04346 3412 04338 3410 04332 3410 04329 3414 04325 3416+
-2928002 -17789440 RBCT  2014 01 11 03 43 //// 11 07 00 01
06466 2031 06468 2034 06449 2016 06457 2026 06462 2031 06448 2019+
-2925114 -17790384 RFRT  2014 01 11 03 43 //// 11 07 00 01
03390 0194 03415 0219 03399 0205 03405 0212 03402 0211 03411 0221+
-4357010 17277383 SUMT  2014 01 11 03 43 //// 11 07 00 01
02107 1871 02104 1874 02105 1882 02094 1877 02096 1887 02090 1887+
-3764109 17618118 TAUT  2014 01 11 03 43 //// 11 07 00 01
05663 3983 05662 3983 05668 3990 05664 3988 05662 3986 05660 3986+
-4128448 17477985 WLGT  2014 01 11 03 43 //// 11 07 00 01
03300 2069 03287 2060 03285 2063 03281 2063 03267 2053 03259 2049++
7777
0000017000
282
SOVI10 KWAL 110351
B110070A 011035101"P9751095 B\P~W@@p0ekC1@qd???CoCs>@qe3@CD@@M4Ct5DB6bV9Jx<BM2?????@"??? nTCpLBmBjBiBpBlBl:AMPTEMP 27.29C  48-0NN 219E
0000067100
283
SXXX32 EUMS 110340 RRX
366C76AC
OT12 ID:IR-CHAB-07 DT:2014 01 11 03 39
:RAD /1 01790 01810 01787 01791 01780 01771 01767 01773 01763 01768 01764 01754 01757 01758 01739 01742 01733 01718 01711 01716 01697 01684 01696 01677 01692 01676 01675 01655 01664 01653
:PR1 /1 02280 02272 02266 02262 02248 02246 02251 02248 02253 02246 02251 02237 02226 02229 02221 02211 02212 02195 02195 02183 02180 02168 02165 02158 02165 02155 02145 02135 02136 02132
:PR2 /1 01804 01811 01803 01800 01796 01799 01789 01792 01793 01788 01779 01771 01772 01758 01762 01754 01750 01736 01736 01711 01708 01708 01696 01699 01686 01684 01687 01677 01679 01670
:BAT 13.5V
0000037900
284
SXXX32 EUMS 110342 RRX
12FD90D0
:PRS 1 /1 1207 1199 1203 1199 1194 1208 1210 1205 1199 1205 1199 1216 :RAD 1 /3 5766 5771 5776 5788 5800 /811 5813 5808 5799 5795 :ENC 3 /6 5495 5505 5536 5549 5533 5537 5552 5564 5559 5557 :RA2 3 /6 4657 4669 4702 4703 4679 4693 4706 4710 4699 4690 :SW1 42 /60 60 :SW2 12 /60 60 :BAT 5 /6 12.8 :WTP 5 /6 28.2 28.2 :NAME 12FD90D0
0000037000
285
SXXX32 EUMS 110342 RRX
22E595B6
:PRS 1 /1 M 3181 3174 3185 3172 3129 3131 3129 3120 3121 3143 3134 3130 3132 3113 3118 3144 3146 3146 3149 3109 3124 3133 3093 3126 3089 3117 3141 3117 3103 :RAD 1 /3 6323 6307 6309 6310 6307 6306 6293 6289 6294 6299 :ENC 2 /5 4451 4427 4425 4431 4408 4421 :SW1 42 /60 60 :SW2 12 /60 60 :BAT 14 /15 13.9 :NAME 22E595B6 /
0000011100
286
UANT99 KDDL 110348
ARP DAL116 4806N03927W 0348 F350 MS53 302/27 KT
N175DZ QXT AOW 110348 F36A
0000065100
287
SXXX32 EUMS 110342 RRX
16AF741C
OT12 ID:SA-MAIS-07 DT:2014 01 11 03 32
:RAD /1 09038 09118 09091 08947 09146 09017 09041 08923 09108 09109 09005 09139 09028 09007 09115 08996 09278 09042 09094 09009 09254 08986 09000 08989 09086 09045 09052 09039 08980 09036 08924 08933 08973 09023 09037 08996 09064 09010 08980 09276 09006 09046 08891 09055 08971 09050 08906 09068 09018 09189 09068 09032 09025 09038 09012 09024 09018 08969 08989 08955 09167 08964 09068 08921 08908 08947 08952 09018 08957 08960 08871 08999 08937 08998 09024 08892 08914 09092 08939 08941 08892 09056 08953 08989 08986 08959 08867 09043 09019 09030
:BAT 13.0V
0000014200
288
UANT99 KDDL 110348
ARP TOM051 4451N02021W 0348 F410 4500N02000W 0349 4850N01200W MS57
 252/59 KT
GTUIB QXT AOE 110349 L26A
0000179300
289
SZPS01 AMMC 110351
CREX++
T000103 A001 D01021 D06025++
-0204190 14737360 56130 2014 01 11 03 44 3027 11 07 00 01
01165 0106 01167 0107 01165 0104 01172 0111 01172 0110 01170 0107+
-0669280 15640860 56363 2014 01 11 03 44 //// 11 07 00 01
01033 -0064 01048 -0047 01043 -0051 01036 -0056 01032 -0059 01039 -0050+
-0942890 15995560 56670 2014 01 11 03 44 3040 11 07 00 01
00943 -0040 00945 -0037 00940 -0042 00940 -0041 00943 -0037 00938 -0042+
-1072080 16580190 57131 2014 01 11 03 44 //// 11 07 00 01
03377 2273 03380 2277 03379 2278 03380 2281 03379 2282 03379 2284+
-1551560 16718860 57210 2014 01 11 03 44 //// 11 07 00 01
01317 -0117 01325 -0106 01332 -0098 01341 -0087 01322 -0105 01336 -0089+
-1775690 16830030 57320 2014 01 11 03 44 3015 11 07 00 01
01319 -0050 01317 -0051 01314 -0054 01310 -0057 01309 -0058 01308 -0058+
-4397330 16861610 65180 2014 01 11 03 44 2885 11 07 00 01
01411 0374 01389 0348 01395 0349 01424 0374 01419 0364 01406 0346+
-2120470 -15978530 65980 2014 01 11 03 44 3013 11 07 00 01
00927 0051 00907 0031 00928 0053 00917 0043 00965 0091 00900 0027+
-2113810 -17518140 66600 2014 01 11 03 44 //// 11 07 00 01
01662 0088 01659 0086 01650 0079 01647 0077 01636 0068 01639 0072+
-1382670 -17176110 66840 2014 01 11 03 44 3010 11 07 00 01
01205 0092 01193 0082 01195 0086 01184 0077 01182 0077 01192 0089+
-1813250 17842750 67050 2014 01 11 03 44 3033 11 07 00 01
01881 0094 01893 0108 01877 0093 01878 0095 01888 0107 01879 0100+
-1760530 17743810 67070 2014 01 11 03 44 3033 11 07 00 01
01984 0026 01982 0025 01984 0029 01982 0028 01981 0029 ///// ////+
-0850250 17919500 67440 2014 01 11 03 44 3030 11 07 00 01
02487 -0009 02480 -0012 02478 -0012 02467 -0020 02479 -0005 02470 -0011++
7777

0000034100
290
SZIO01 AMMC 110351
CREX++
T000103 A001 D01021 D06025++
-1211670 09689190 46280 2014 01 11 03 44 3003 11 07 00 01
00923 0044 00929 0048 00927 0044 00932 0046 00938 0050 00935 0044+
-1042940 10566940 46290 2014 01 11 03 44 //// 11 07 00 01
00971 0099 00884 0010 00984 0108 00882 0005 00962 0083 00927 0046++
7777

0000046700
291
SZPA01 AMMC 110351
CREX++
T000103 A001 D01021 D06025++
0136250 17293000 67590 2014 01 11 03 44 3015 11 07 00 01
02106 0078 02106 0080 02113 0091 02114 0094 02105 0089 02111 0097+
0710610 17137250 67680 2014 01 11 03 44 3013 11 07 00 01
01352 0057 01348 0056 01348 0058 01343 0056 01338 0054 01334 0052+
0698060 15820000 67950 2014 01 11 03 44 3023 11 07 00 01
01071 0068 01067 0065 01065 0065 01070 0071 01068 0070 01066 0069++
7777

0000191500
292
SZAU01 AMMC 110351
CREX++
T000103 A001 D01021 D06025++
-1927750 14705860 59260 2014 01 11 03 44 3028 11 07 00 01
01346 0183 01348 0185 01354 0189 01355 0189 01349 0182 01354 0185+
-2316110 15079000 59670 2014 01 11 03 44 2998 11 07 00 01
01777 0211 01774 0203 01792 0216 01793 0213 01811 0224 01813 0223+
-3447330 15091170 60420 2014 01 11 03 44 2960 11 07 00 01
00706 -0030 00710 -0028 00723 -0018 00734 -0010 00743 -0003 00751 0002+
-4105000 14591500 60910 2014 01 11 03 44 2890 11 07 00 01
00500 -0051 00492 -0058 00502 -0049 00507 -0043 00507 -0043 00514 -0036+
-4254640 14793080 61170 2014 01 11 03 44 2898 11 07 00 01
01006 0065 01008 0065 01014 0070 01012 0066 01013 0065 01010 0060+
-3834390 14161360 61410 2014 01 11 03 44 2905 11 07 00 01
00243 -0013 00281 0025 00275 0018 00282 0024 00251 -0007 00257 -0002+
-3214890 13364170 62000 2014 01 11 03 44 2958 11 07 00 01
00644 0013 00646 0014 00647 0015 00648 0015 00650 0016 00651 0017+
-3387080 12189720 62080 2014 01 11 03 44 2943 11 07 00 01
00732 0088 00740 0095 00764 0118 00757 0111 00765 0118 00756 0109+
-3182560 11573860 62237 2014 01 11 03 44 2970 11 07 00 01
00740 0077 00737 0074 00727 0063 00721 0057 00710 0045 00708 0042+
-2422000 11339750 62385 2014 01 11 03 44 //// 11 07 00 01
00923 -0105 00960 -0069 00912 -0118 00961 -0070 00976 -0056 00968 -0065+
-2181670 11419110 62430 2014 01 11 03 44 //// 11 07 00 01
01524 -0017 01537 -0004 01518 -0024 01517 -0025 01520 -0022 01525 -0018+
-1800080 12221830 62650 2014 01 11 03 44 3043 11 07 00 01
04713 0192 04713 0193 04713 0195 04713 0196 04712 0197 04711 0197+
-1247190 13084580 63230 2014 01 11 03 44 3053 11 07 00 01
04900 0030 04910 0031 04920 0032 04928 0031 04935 0030 04943 0028+
-1386000 13641580 63511 2014 01 11 03 44 3045 11 07 00 01
01269 0015 01273 0018 01275 0019 01278 0021 01280 0021 01281 0021++
7777

0000045200
293
SXXX32 EUMS 110343 RRX
32BD7124
:PRS 1 /1 1890 1888 1887 1889 1888 1885 1877 1873 1874 1873 1873 1871 1871 1871 1868 1870 1870 1872 1873 1873 1873 1872 1872 1872 1871 1868 1865 1865 1861 1860 :RAD 3 /3 7671 7663 7659 7654 7650 7653 7655 7656 7649 7641 7638 7641 7650 7650 7651 7651 7652 7652 7650 7648 :ENC 3 /5 4665 4654 4646 4651 4652 4640 4639 4646 4647 4649 4649 4646 :SW1 44 /60 0 :SW2 14 /60 60 :BAT 14 /15 13.5 :NAME 32BD7124 /
0000067100
294
SXXX32 EUMS 110343 RRX
16F152DA
OT12 ID:IR-JASK-09 DT:2014 01 11 03 33
:RAD /1 03473 03481 03468 03462 03451 03459 03442 03444 03447 03448 03425 03422 03429 03416 03422 03418 03412 03411 03410 03395 03390 03385 03368 03346 03352 03340 03325 03316 03311 03318
:PR1 /1 00732 00727 00719 00717 00712 00709 00705 00702 00689 00685 00695 00682 00678 00671 00674 00663 00672 00663 00659 00657 00646 00633 00630 00610 00609 00596 00570 00574 00565 00557
:PR2 /1 02332 02328 02321 02315 02313 02314 02303 02303 02298 02296 02287 02280 02281 02268 02277 02263 02265 02263 02251 02249 02246 02234 02220 02218 02200 02192 02177 02164 02164 02160
:BAT 13.5V
0000011100
295
UANT99 KDDL 110349
ARP DAL230 5657N03021W 0349 F370 MS57 226/44 KT
N819NW DDL XXN 110349 J75A
00000000