0000011100
576
SPUS42 KWBC 101651
SPECI
KAUS 101647Z 20012G19KT 1 1/4SM -RA BR BKN008 OVC014 18/17 A2993=

0000045200
577
FTMX34 MMMX 101600
TAF MMMD 101651Z 1018/1124 11012KT 6SM HZ BKN018 BKN070 TX28/1018Z
TN22/1110Z
         TEMPO 1020/1024 SCT020 BKN080 
         FM110300 13006KT 6SM HZ SCT015 
         BECMG 1109/1110 3SM BR BKN006 
         TEMPO 1110/1114 1/2SM FG VV004 
         FM111500 14008KT 4SM HZ BKN012 
         FM111700 15010KT P6SM BKN020 
         BECMG 1118/1119 35012KT 
         TEMPO 1120/1124 4SM RA BKN020 CB=

0000027000
578
FTMX34 MMMX 101600
TAF MMCZ 101651Z 1018/1124 13015KT P6SM SCT015 TX26/1018Z TN20/1110Z 
         TEMPO 1020/1024 BKN015 
         FM110300 15010KT P6SM SCT015 
         FM111700 12010KT P6SM SCT015 
         TEMPO 1120/1124 3SM TSRA BKN015CB=

0000023300
579
FCQB31 LQSM 101700
TAF LQSA 101700Z 1018/1103 VRB02KT 9999 BKN060
BECMG 1019/1021 3000 BR NSC=
TAF LQMO 101700Z 1018/1103 VRB02KT 6000 BKN055
BECMG 1019/1021 3000 BR NSC=
TAF AMD LQTZ 101700Z 1019/1024 CNL=

0000015900
580
SADN33 EKCH 101650
METAR EKKA 101650Z 25009KT 9999 FEW019 BKN030 06/05 Q1005=
METAR EKSP 101650Z 26015KT 8000 FEW012CB BKN038 06/04 Q1008=

0000011400
581
SAPH41 RPLC 101700
METAR RPLC 101700Z
34004KT 9999 FEW042 SCT300 20/17 Q1018 A3005 RMK NOSIG=

0000019500
582
SALV32 EVRA 101650
METAR EVLA 101650Z AUTO 30012G23KT 280V350 9999 BKN012 OVC019 04/02 
Q0994=
METAR EVVA 101650Z AUTO 33017KT 7000 -RA SCT010 BKN014 OVC025 04/03 
Q0992=

0000012800
583
SAMO31 ZMUB 101700
METAR ZMUB 101700Z VRB01MPS 5000NW FU SCT100 M32/M35 Q1024 NOSIG RMK

 QFE659.7 70 NT=

0000009700
584
SAUK36 EGGY 101620 CCA
METAR COR EGSH 101620Z 20008KT CAVOK 07/05 Q1013 NOSIG=

0000024300
585
FTUY04 SUMU 101655
TAF
SULS 101655Z 1018/1118 20008KT 9999 FEW023 SCT070 TX22/1118Z
TN18/1109Z PROB30 TEMPO 1018/1100 23015G25KT 5000 TSRA SCT017        
FEW040CB OVC060 BECMG 1022/1000 12008KT BECMG 1106/1108 18020KT=

0000010300
586
SAMP31 LMMM 101700 RRA
METAR HLLB 101652Z
00000KT 9999 SCT020 BKN080 16/08 Q1024 =

0000009400
587
SPAU32 YBBN 101652
SPECI YAMB 101652Z AUTO 20003KT 9999 // NCD 18/18 Q1017=

0000009400
588
SPAU32 AMMC 101652
SPECI YAMB 101652Z AUTO 20003KT 9999 // NCD 18/18 Q1017=

0000009500
589
SABW31 VGEG 101650
METAR VGEG 101650Z 36002KT 3500 HZ NSC 17/12 Q1014 NOSIG=

0000012000
590
SPUS41 KWBC 101649
SPECI
KRIC 101645Z 01006KT 1 1/4SM R34/5000VP6000FT -RA BR OVC004 03/02
A3038=

0000062300
591
SAUK20 EGGY 101650
METAR EGRE 101650Z AUTO 04013KT 9999 NCD 07/M02 Q0999 W///S5=
METAR EGRK 101650Z AUTO 27015KT 9999 SCT013/// SCT023/// 06/04 Q0999
     W///S4=
METAR EGRM 101650Z AUTO 25017KT 9999 NCD 07/05 Q1001 W///S4=
METAR EGRO 101650Z AUTO 26022KT 9999 FEW015/// SCT023/// 07/04 Q1002
     W///S4=
METAR EGRP 101650Z AUTO 24020KT 220V000 9999 FEW016/// SCT024///
     ///// Q1003 W///S4=
METAR EGRS 101650Z AUTO 24023KT 9999 SCT024/// 08/05 Q1003 W///S4=
METAR EGRV 101650Z AUTO 22022KT 9999 NCD 07/05 Q1010 W///S4=
METAR EGRW 101650Z AUTO 22024KT 9999 NCD 07/05 Q1011 W///S3=

0000047300
592
SAUK21 EGGY 101650
METAR EGRF 101650Z AUTO 20018KT 5000 RA FEW005/// SCT028/// 06/03
     Q0997 RERA W///S5=
METAR EGRG 101650Z AUTO 07015KT 9999 BKN018/// 06/03 Q0998 W///S4=
METAR EGRI 101650Z AUTO 20027KT 9999 FEW030/// 08/03 Q0996 RERA=
METAR EGRL 101650Z AUTO 26014KT 210V340 9999 FEW013/// 07/04 Q1000
     RERA W///S4=
METAR EGRN 101650Z AUTO 25025KT 9999 NCD 08/05 Q1005=
METAR EGRT 101650Z AUTO /////KT 9999 NCD 07/04 Q1009 W///S3=

0000014200
593
SAFA31 EKCH 101650
METAR EKVG 101650Z AUTO 11013KT 9999NDV -SHRA  BKN013/// 06/05
Q0994 RMK BKN011/// WIND 850FT 13026KT=

0000014500
594
SALV31 EVRA 101650
METAR EVRA 101650Z 31015G25KT 270V340 9999 -RA BKN007 OVC012 03/02 
Q0986 R36/290158 TEMPO BKN010 OVC012=

0000004600
595
SAMX31 KWBC 101645 RRC
NIL=

00000000