0000066100
009
UDAF01 FAPR 111216
AMDAR 1112
ASC AFZA44 2603S 02817E 111213 F075 PS165 346/012 TB0 S031 333 F/// VG016=
ASC AFZA44 2603S 02817E 111214 F076 PS163 335/010 TB1 S031 333 F/// VG023=
ASC AFZA44 2602S 02818E 111214 F079 PS157 326/006 TB1 S031 333 F/// VG023=
ASC AFZA44 2602S 02818E 111214 F082 PS153 291/007 TB0 S031 333 F/// VG014=
ASC AFZA44 2601S 02819E 111215 F086 PS135 323/010 TB0 S031 333 F/// VG014=
ASC AFZA44 2600S 02821E 111215 F096 PS117 266/012 TB0 S031 333 F/// VG012=
ASC AFZA44 2558S 02825E 111216 F114 PS060 248/022 TB0 S031 333 F/// VG012=
ASC AFZA44 2556S 02828E 111216 F135 PS005 260/019 TB0 S031 333 F/// VG011=
0000018400
010
SNVD01 KWBC 110800 RRX
BBXX
SHIP 11084 99343 71773 41497 30715 11226 2//// 49685 56023 70101
 82214/ 222215 01038 20503 30659 4//59 51562 6/123/ 80030 ICE
 /////=
0000023900
011
SNVD01 KWBC 111000 RRS
BBXX
42044 11101 99262 70971 46/// /2303 1//// 40138 91030 22200 00139
 333 91204 555 11032 22035=
42044 11101 99262 70971 46/// /2403 1//// 40138 91000 22200 00139
 333 91204 555 11034 22037=
0000031100
012
SNVE01 KWBC 111000 RRD
BBXX
VNAH 11104 99383 31416 46/// /1908 10164 20114 30197 40221 52008
 22200 04176 85135=
C6FS9 11104 99239 31514 46/// /1321 10256 20197 30116 40152 52009
 22232 04274 85215=
VNSZ 11104 99407 31461 46/// /3223 10161 20121 30110 40136 52010
 22276 04164 85137=
0000015700
013
SNVB01 KWBC 111100 RRE
BBXX
9VPY5 11113 99301 11296 41597 81411 10143 20070 40278 50002 70311
 87565 22213 00240 20302 322// 40302 80104=
0000032500
014
SNVD01 KWBC 111100 RRO
BBXX
42044 11111 99262 70971 46/// /2203 1//// 40140 52009 91100 22200
 00138 333 91204 555 11032 22035=
42044 11111 99262 70971 46/// /2302 1//// 40143 91130 22200 00138
 333 91203 555 11026 22028=
41051 11111 99183 70650 46/// /0808 10250 91130 333 91210 555
 11094 22102=
0000041200
015
SNVE01 KWBC 111100 RRD
BBXX
VNSZ 11114 99403 31458 46/// /2922 10153 20119 30126 40152 52023
 22276 04163 85133=
VMGO 11114 99391 31466 41/97 82533 10164 20141 40180 52015 70322
 897// 22263 00132 299// 80151=
C6FS9 11114 99239 31515 46/// /1122 10256 20195 30123 40159 52014
 22212 04275 85214=
VNAH 11114 99383 31416 46/// /1808 10163 20123 30201 40225 52011
 22200 04176 85139=
0000013200
016
SNVJ01 KWBC 111100 RRB
BBXX
FHZI 11114 99650 31403 46/// /1721 11003 21011 39895 49906 52023
 22243 04000 86006=
0000017300
017
SMVD80 KWBC 111200 RRA
BBXX
WUR8857 11124 99432 70877 43/// /2816 10022 49964 2226/ 00010=
WYP8657 11124 99458 70846 43/// /1805 10016 49940 2227/ 00002=
0000023700
018
SMUS22 KWBC 111200 RRA
AAXX 11124
72241 37112 92606 10167 20161 30122 40126 53017 710// 91153 333
10211 20167 70081 555 91112=
72297 31004 90000 10111 20094 30187 40200 51005 741// 91153 333
10206 20106 555 91112=
0000062500
019
SMUS23 KWBC 111200 RRA
AAXX 11124
72306 12266 82009 10167 20161 39970 40123 56030 60011 91151 333
10072 20056 70178 555 91112=
72315 11264 80000 10089 20083 39317 40091 58027 60121 761// 91154
333 10100 20067 70208 555 91112=
72320 17424 82407 10150 20144 39845 40069 55005 60321 710// 91153
333 10100 20094 70345 91023 96010 555 91112=
72332 15466 6//03 10133 20122 39956 40079 53018 60211 91153 333
10133 20106 70251 555 91112=
72375 35966 00000 11056 21083 37911 40228 50003 91157 333 10100
21056 555 91112=
72383 35/66 /3511 10117 21044 38675 40205 91148 333 10178 20089
555 91112=
0000076400
020
SMUS24 KWBC 111200 RRA
AAXX 11124
72402 17104 92010 10133 20128 30128 40141 58024 60161 730// 91154
333 10117 20061 70180 555 91112=
72405 11228 80000 10044 20028 30100 40120 56041 60041 710// 91152
333 10039 20028 70165 555 91112=
72406 11108 /1003 10028 20028 30047 40118 58040 60021 763// 91154
333 10028 20017 70137 96041 555 91112=
72423 11366 82208 10122 20106 39834 40005 56018 60171 751// 91156
333 10128 20100 70249 555 91112=
72425 11648 82203 10117 20106 39738 40035 53003 60081 763// 91151
333 10106 20078 70081 96010 555 91112=
72429 11266 82010 10100 20089 39632 49992 58033 60081 761// 91156
333 10100 20061 70089 555 91112=
72486 35966 01809 11028 21050 38129 40230 57004 91153 333 10078
21044 555 91112=
0000154600
021
SMUS25 KWBC 111200 RRA
AAXX 11124
72502 11259 81403 10100 20100 30123 40132 56048 60021 710// 91151
333 10017 20011 70061 555 91112=
72504 11458 80403 10067 20067 30140 40149 58042 60031 761// 91152
333 10017 20011 70053 96010 555 91112=
72507 11632 81604 10044 20044 30160 40179 58020 69931 710// 91151
333 10017 20006 70028 555 91112=
72513 17359 80000 10072 20061 39757 40105 58025 69951 710// 91154
333 10033 20011 70008 555 91112=
72521 11456 81908 10100 20083 39576 40018 56029 60091 763// 8/5//
91151 333 10078 20050 70091 96010 555 91112=
72529 12666 81808 10083 20050 39813 40029 58039 69931 91154 333
10050 20033 70003 555 91112=
72535 11159 82308 10044 20039 39685 49968 56019 60021 761// 91154
333 10061 20039 70226 96010 555 91112=
72536 11108 81808 10056 20056 39726 49977 58033 60021 710// 91152
333 10044 20022 555 91112=
72539 11112 91906 10044 20039 39647 49962 56024 60011 710// 91153
333 10039 20028 70114 555 91112=
72543 11348 83009 10006 20000 39716 49981 53002 69901 710// 91154
333 10028 20006 4/023 70221 555 91112=
72544 35461 82814 10006 21017 39783 40002 53016 91152 333 10044
20006 70079 91019 555 91112=
72548 31256 82909 11011 21022 39690 40008 53008 710// 91154 333
10000 21011 70020 555 91112=
72551 32966 63306 10000 21039 39637 40073 53012 91154 333 10017
21067 555 91112=
72566 35966 82805 11022 21072 38762 40144 51012 91153 333 10067
21039 555 91112=
72592 35966 00000 10039 20022 30027 40211 50000 91153 333 10172
20028 555 91112=
0000035300
022
UPNZ02 NZKL 111200
PPAA  61098 93112
55385 24006 23505 19510 55340 22006 01501 02002 55320 27019 28024
29526 77999=
PPAA  61103 93417
55385 33015 22012 26020 55340 27016 30517 32514 55320 31013 27020
26523 71570 28027=
PPAA  61103 93844
55385 31526 28535 28546 55340 27550 29060 28058 55320 26058 25048
25035 70980 29066=
0000015200
023
SMUS26 KWBC 111200 RRA
AAXX 11124
72605 17240 80000 11022 21028 30049 40179 58038 60021 710// 91151
333 11039 21089 70033 555 91112=
0000043000
024
UDAF01 FAPR 111218
AMDAR 1112
DES AFZA06 3946N 11654E 111206 F048 MS080 320/023 TB0 S031 333 F/// VG000=
DES AFZA06 3946N 11651E 111207 F033 MS037 324/028 TB0 S031 333 F/// VG000=
ASC AFZA06 3946N 11643E 111210 F026 MS017 323/030 TB0 S031 333 F/// VG000=
DES AFZA06 3947N 11642E 111211 F018 PS000 321/029 TB0 S031 333 F/// VG000=
DES AFZA06 4001N 11638E 111217 F004 PS020 297/012 TB0 S031 333 F/// VG000=
0000030500
025
UDEU02 EGRR 111221 RRH
AMDAR 1112
DES EU0365   5156N 00006W 111201 F039 MS030 307/028 TB/ S031=
DES EU0365   5154N 00012W 111203 F031 MS010 310/023 TB/ S031=
DES EU0365   5153N 00018W 111204 F018 PS020 302/018 TB/ S031=
DES EU0365   5152N 00023W 111206 F009 PS045 283/008 TB/ S031=
0000062100
026
UDAC02 EGRR 111221
AMDAR 1111
LVR EU2618   6819N 01702E 111113 F379 MS533 037/037 TB/ S031=
LVR EU2618   6731N 01559E 111120 F379 MS528 044/031 TB/ S031=
LVR EU2618   6643N 01500E 111127 F399 MS505 006/017 TB/ S031=
LVR EU2618   6554N 01405E 111134 F399 MS494 008/015 TB/ S031=
LVR EU2618   6505N 01318E 111141 F399 MS493 300/017 TB/ S031=
LVR EU2618   6416N 01234E 111148 F399 MS495 288/021 TB/ S031=
LVR EU2618   6328N 01154E 111155 F399 MS490 295/030 TB/ S031=
LVR EU2618   6238N 01120E 111202 F399 MS475 295/025 TB/ S031=
LVR EU2618   6146N 01100E 111209 F399 MS466 285/033 TB/ S031=
0000066100
027
UDAF01 FAPR 111218
AMDAR 1112
DES AFZA06 3947N 11642E 111210 F018 PS000 321/029 TB0 S031 333 F/// VG000=
DES AFZA06 3957N 11638E 111215 F015 PS007 329/021 TB0 S031 333 F/// VG000=
DES AFZA06 3958N 11638E 111216 F012 PS012 325/019 TB0 S031 333 F/// VG000=
DES AFZA06 3959N 11638E 111216 F009 PS015 316/015 TB0 S031 333 F/// VG000=
DES AFZA06 4000N 11638E 111216 F006 PS020 306/013 TB0 S031 333 F/// VG000=
DES AFZA06 4001N 11638E 111217 F004 PS020 297/012 TB0 S031 333 F/// VG000=
DES AFZA06 4001N 11638E 111217 F001 PS015 331/010 TB0 S031 333 F/// VG000=
DES AFZA06 4002N 11638E 111217 F-01 PS010 006/008 TB0 S031 333 F/// VG000=
0000066100
028
UDAF01 FAPR 111218
AMDAR 1112
ASC AFZA45 1819S 02554E 111139 F134 PS012 094/022 TB0 S031 333 F/// VG011=
ASC AFZA45 1825S 02557E 111140 F157 MS020 103/013 TB0 S031 333 F/// VG010=
LVR AFZA45 1842S 02607E 111143 F198 MS080 126/004 TB0 S031 333 F/// VG008=
LVR AFZA45 1931S 02634E 111150 F286 MS255 018/004 TB0 S031 333 F/// VG008=
LVR AFZA45 2022S 02653E 111157 F385 MS511 216/000 TB0 S031 333 F/// VG009=
LVR AFZA45 2114S 02705E 111204 F390 MS530 337/008 TB0 S031 333 F/// VG010=
LVR AFZA45 2206S 02716E 111211 F390 MS530 306/006 TB0 S031 333 F/// VG010=
LVR AFZA45 2259S 02724E 111218 F390 MS527 311/017 TB0 S031 333 F/// VG010=
00000000