0000010800
116
SARM31 LUKK 101630
METAR LUKK 101630Z 28007KT 9999 BKN041 05/02 Q1010
R08/CLRD65 NOSIG=

0000014600
117
SANO31 ENMI 101620 RRA
METAR ENOL 101620Z 06009KT 8000 -SN FEW006 SCT010 BKN020 M07/M09
           Q1000 TEMPO 1500 SN VV006=

0000012300
118
SAEU31 BKPR 101630 CCC
BKPR 101630Z 00000KT 0300 R17/P1500 FG BKN005 03/02 Q1020 NOSIG RMK
 17010095 =

0000009900
119
SPCN52 CWAO 101626
SPECI CWGZ 101626Z 15012G34KT 2SM -SN BLSN BKN035 RMK SN2SC2=

0000011300
120
SPUS41 KWBC 101631
SPECI
KDOV 101628Z AUTO 08003KT 2 1/2SM -RA BR BKN026 OVC043 02/02 A3041=

0000010200
121
SPUS41 KWBC 101631
SPECI
KWRI 101628Z AUTO 12002KT 3SM -RA BR OVC018 00/00 A3041=

0000009800
122
SPUS41 KWBC 101631
SPECI
KWRI 101629Z AUTO 12002KT 3SM BR OVC020 00/00 A3040=

0000009400
123
SPUS43 KWBC 101631
SPECI
KGRR 101627Z 17008KT 2SM BR OVC006 01/M02 A3006=

0000009900
124
SAQB31 LQBK 101630
METAR LQBK 101630Z 01002KT 6000 -RA BKN047 07/06 Q1020 NOSIG=

0000009500
125
SAPF20 NTAA 101630
METAR NTAA 101630Z 00000KT 9999 FEW020 25/21 Q1013 NOSIG=

0000008700
126
SAGR31 LGAT 101620 RRA
METAR LGIR 101620Z 17004KT CAVOK 13/10 Q1020=

0000036900
127
SAHU41 LHBM 101630
METAR LHKE 101615Z 29006MPS CAVOK 07/02 Q1020 NOSIG RMK BLU=
METAR LHPA 101615Z 23002MPS CAVOK 04/02 Q1020 NOSIG RMK BLU=
METAR LHPP 101615Z 21004KT CAVOK 05/04 Q1021=
METAR LHPR 101615Z 30007KT CAVOK 05/M00 Q1020=
METAR LHSN 101615Z 26004MPS CAVOK 07/01 Q1019 NOSIG RMK BLU=
METAR LHUD 101615Z 22005KT CAVOK 04/02 Q1021=

0000011200
128
SASR31 WSSS 101630
METAR WSSS 101630Z 36004KT 320V050 9999 FEW018 BKN140 25/24 Q1012
NOSIG=

0000009300
129
SAGR31 LGAT 101620 CCY
METAR LGIR 101620Z 17004KT CAVOK 13/10 Q1020 NOSIG=

0000009800
130
SAMJ41 LWSK 101630
METAR LWSK 101630Z 00000KT 4500 BR OVC005 03/01 Q1021 NOSIG=

0000010600
131
SAGR32 LGAT 101620 RRA
METAR LGRX 101620Z 00000KT 9999 FEW035 SCT200 13/09 Q1021 NOSIG=

0000095800
132
FTAL32 DAAA 101600
TAF DABB 101600Z NIL=
TAF DABC 101700Z 1018/1118 21010KT 9999 FEW033 SCT100 BECMG
                 1114/1116 34008KT=
TAF DABS 101600Z NIL=
TAF DAOI 101700Z 1018/1118 15008KT CAVOK TEMPO 1018/1021 06012KT
                 BECMG 1108/1112 9999 FEW030 SCT100 PROB30 TEMPO
                 1112/1116 -TSRA FEW030CB BKN100=
TAF DAON 101700Z 1018/1118 20010KT 9999 FEW030 SCT100 TEMPO
                 1018/1106 26012G22KT 6000 -TSRA FEW026CB SCT030
                 BECMG 1112/1114 26008KT BECMG 1115/1118 BKN026=
TAF DAUA 101600Z NIL=
TAF DAUG 101700Z 1018/1118 07010KT 9999 FEW040 SCT100 BECMG
       1022/1102 VRB02KT 8000 NSC BECMG 1110/1114 05013KT=
TAF DAUH 101700Z 1018/1118 08010KT 9999 FEW040 SCT100 BECMG
                1022/1102 01010KT CAVOK BECMG 1110/1114 VRB02KT=
TAF DAUZ 101700Z 1018/1118 15016KT 8000 NSC BECMG 1022/1102 SCT046
              SCT100 BECMG 1110/1114 13011KT=

0000016300
133
FTAL33 DAAA 101600
TAF DAUI 101700Z 1018/1118 08012KT 8000 FEW046 BECMG 1108/1111
          18016KT 6000 NSC PROB30 TEMPO 1112/1116 4000 DRSA=

0000009700
134
SAUS75 KWBC 101600 RRD
METAR
PABR 101553Z COR 33011KT 9SM CLR M26/M28 A2994=

0000158500
135
FTAL34 DAAA 101600
TAF DAAG 101700Z 1018/1118 VRB02KT CAVOK TEMPO 1018/1022 12010KT
                9999 FEW030 SCT100 BECMG 1023/1102 17012KT BECMG
               1110/1114 VRB02KT 8000 NSC=
TAF DAAT 101700Z 1018/1118 VRB02KT 8000 NSC BECMG 1022/1102 05012KT
               BECMG 1110/1114 13016KT 6000=
TAF DABB 101600Z NIL=
TAF DABC 101700Z 1018/1118 21010KT 9999 FEW033 SCT100 BECMG
                 1114/1116 34008KT=
TAF DABS 101600Z NIL=
TAF DAOI 101700Z 1018/1118 15008KT CAVOK TEMPO 1018/1021 06012KT
                 BECMG 1108/1112 9999 FEW030 SCT100 PROB30 TEMPO
                 1112/1116 -TSRA FEW030CB BKN100=
TAF DAON 101700Z 1018/1118 20010KT 9999 FEW030 SCT100 TEMPO
                 1018/1106 26012G22KT 6000 -TSRA FEW026CB SCT030
                 BECMG 1112/1114 26008KT BECMG 1115/1118 BKN026=
TAF DAOO 101700Z 1018/1118 22010KT 9999 SCT100 TEMPO 1018/1021
                 VRB02KT BECMG 1100/1104 FEW026 BKN100 PROB40 TEMPO
                 1100/1106 8000 -TSRA FEW026CB BECMG 1112/1115
                 SCT026=
TAF DAUG 101700Z 1018/1118 07010KT 9999 FEW040 SCT100 BECMG
       1022/1102 VRB02KT 8000 NSC BECMG 1110/1114 05013KT=
TAF DAUH 101700Z 1018/1118 08010KT 9999 FEW040 SCT100 BECMG
                1022/1102 01010KT CAVOK BECMG 1110/1114 VRB02KT=
TAF DAUI 101700Z 1018/1118 08012KT 8000 FEW046 BECMG 1108/1111
          18016KT 6000 NSC PROB30 TEMPO 1112/1116 4000 DRSA=
TAF DAUZ 101700Z 1018/1118 15016KT 8000 NSC BECMG 1022/1102 SCT046
              SCT100 BECMG 1110/1114 13011KT=

00000000