0000112900
236
FTMX55 MMMX 101635
TAF MMAN 101635Z 1018/1118 12010KT 5SM HZ SCT020 
         FM102100 24010KT P6SM SCT100 BKN250 
         FM110000 29015KT P6SM SCT100 BKN250 
         FM111200 02020KT P6SM BKN250=
TAF MMCS 101635Z 1018/1118 27010G20KT P6SM BKN250 
         FM102100 30010G20KT P6SM SCT250 
         FM110600 27012KT P6SM SCT250=
TAF MMCU 101635Z 1018/1118 24010KT P6SM SCT100 BKN250 
         FM102100 30012KT P6SM SCT100 BKN250 
         FM110000 02012KT P6SM BKN250 
         FM110600 30012KT P6SM SCT250=
TAF MMMY 101635Z 1018/1124 30010KT 5SM HZ SCT020 TX24/1021Z
TN10/1112Z
         FM102100 30012KT P6SM SCT100 BKN250 
         FM110300 30010G20KT P6SM BKN250 
         FM111200 02015KT P6SM BKN250=
TAF MMTC 101635Z 1018/1118 23012KT P6SM BKN080 BKN250 
         FM110100 30010KT P6SM SCT100 BKN250=
TAF MMIO 101635Z 1018/1118 20015KT P6SM SKC 
         FM102200 04012KT P6SM SKC 
         FM110300 23012KT P6SM BKN250=
TAF MMMV 101635Z 1018/1118 20012KT 3SM BR SCT050 
         FM102000 30010KT P6SM BKN100 BKN250 
         FM110300 30012KT P6SM BKN250=

0000011400
237
SPCN51 CWAO 101635
SPECI CWUW 101635Z AUTO 13012KT 1 1/4SM FEW086 M28/ A2890 RMK ICG
PAST HR=

0000009800
238
SPUS41 KWBC 101635
SPECI
KWRI 101632Z AUTO 12002KT 3SM BR OVC019 00/00 A3040=

0000011100
239
SPUS42 KWBC 101635
SPECI
KSAT 101631Z 20004KT 5SM -RA BR SCT009 BKN024 OVC038 19/17 A2995=

0000009300
240
SPUS42 KWBC 101635
SPECI
KPNS 101631Z 06005KT 6SM FG OVC003 13/12 A3015=

0000011200
241
SPCN31 CWAO 101634
SPECI CYZF 101634Z 09003KT 2SM -SN OVC010 M23/M26 A2951 RMK SC8
 SLP020=

0000024100
242
SATA31 RUMS 101630
METAR UTDD 101630Z VRB01MPS M0050 R09/M0050N FZFG VV002 M07/M08 Q1030
09CLRD70 NOSIG RMK QBB060 QFE704/0939=
METAR UTDL 101630Z 08008G11MPS 3600 BR SKC M01/M07 Q1030 NOSIG RMK
QFE733/0977 8809//70=

0000020000
243
FTLT31 EYVI 101700
TAF EYVI 101700Z 1018/1118 28026G38KT 8000 BKN009 OVC018 TEMPO
1018/1023 2000 SHRA BKN005 BKN012CB BECMG 1100/1102 29014KT
TEMPO 1112/1116 4000 SHRA BKN015CB=

0000022400
244
SAKY31 RUMS 101630
METAR UCFM 101630Z 12003MPS 2200 FU SKC M09/M15 Q1029 R08/CLRD70
TEMPO 1500 FU=
METAR UCFO 101630Z 17003MPS 1500 R12/P2000 BR FU NSC M05/M09 Q1029
R12/CLRD70 TEMPO 0500 FZFG VV002=

0000084800
245
SAKZ31 RUMS 101630
METAR UAAA 101630Z 16002MPS 0300 R23R/1200D R23L/0900N BR FU FEW200
M14/M17 Q1031 8891//60 NOSIG=
METAR UACC 101630Z 20007MPS 9999 -SN DRSN BKN011 OVC032 M13/M15 Q1027
R22/8/0055 NOSIG RMK QFE739/0985=
METAR UAKK 101630Z 18007MPS 9999 SCT036 OVC140 M13/M16 Q1028
R23/850555 NOSIG RMK QFE724/0965=
METAR UAOO 101630Z NIL=
METAR UARR 101630Z NIL=
METAR UATE 101630Z 00000MPS 9999 SCT014 BKN040 03/02 Q1021 R30/0///70
NOSIG RMK QFE764/1019=
METAR UATG 101630Z 27006MPS 5000 BR OVC017 02/02 Q1016 R32/19//65
NOSIG RMK QFE764/1018=
METAR UATT 101630Z 18005MPS 9000 -SHSN SCT007 BKN023CB M00/M01 Q1009
R13/491040 TEMPO 0500 FZDZ FZFG VV002 RMK QFE737/0983=
METAR UAUU 101630Z 18007MPS 3000 -SHSN BLSN BKN009 OVC036CB M08/M10
Q1015 TEMPO 19012MPS 1000 SHSN BLSN BKN005CB RMK QFE745/0994=

0000009500
246
SAHW31 KWBC 101600 RRB
METAR
PHLI 101632Z 04013KT 10SM FEW021 22/19 A3002=

0000019000
247
SAAY31 RUMS 101630
METAR UDYZ 101630Z VRB01MPS 2300 BR BKN011 M09/M11 Q1029 R09/000070
NOSIG=
METAR UDSG 101630Z VRB02MPS 3200 BR NSC M17/M20 Q1023 R02/CLRD70
NOSIG=

0000058400
248
FTUS31 KWBC 101636 AAA
TAF AMD
KLIT 101634Z 1017/1112 12008KT 4SM BR VCSH BKN008 OVC015
      TEMPO 1017/1020 P6SM NSW BKN015 OVC030
     FM102000 17010G16KT 5SM -RA BR VCTS SCT005 OVC025CB
      TEMPO 1020/1024 2SM RA BR OVC005
     FM110000 22010G16KT 4SM RA BR BKN010 OVC020
     FM110900 27010KT P6SM SCT025 SCT100=
KMEM 101633Z 1017/1112 16010KT P6SM SCT007 BKN100
     FM101800 17012G22KT P6SM SCT025 BKN080
      TEMPO 1022/1024 4SM -SHRA BKN025
     FM110000 19015G25KT 4SM -RA BR VCTS OVC008CB
     FM110800 24014KT 6SM -RA BR BKN012=

0000031300
249
FTUS42 KWBC 101636 AAA
TAF AMD
KCRP 101634Z 1017/1112 17015KT P6SM SCT007 BKN025 OVC040
      TEMPO 1017/1019 2SM -DZ BR BKN015
     FM102000 18013KT P6SM BKN025 OVC050
     FM110000 19008KT P6SM SCT050
     FM110400 21004KT 4SM BR SCT005 SCT035
     FM110700 VRB03KT 1SM BR BKN005=

0000105600
250
FTUS72 KWBC 101636 AAA
TAF AMD
KALI 101635Z 1017/1112 19011KT P6SM SCT025 BKN050
      TEMPO 1017/1020 BKN025 OVC050
     FM102200 18008KT P6SM SCT030 SCT050
     FM110300 21005KT P6SM SCT250
     FM110800 VRB03KT 2SM BR SCT250=
KCRP 101634Z 1017/1112 17015KT P6SM SCT007 BKN025 OVC040
      TEMPO 1017/1019 2SM -DZ BR BKN015
     FM102000 18013KT P6SM BKN025 OVC050
     FM110000 19008KT P6SM SCT050
     FM110400 21004KT 4SM BR SCT005 SCT035
     FM110700 VRB03KT 1SM BR BKN005=
KLIT 101634Z 1017/1112 12008KT 4SM BR VCSH BKN008 OVC015
      TEMPO 1017/1020 P6SM NSW BKN015 OVC030
     FM102000 17010G16KT 5SM -RA BR VCTS SCT005 OVC025CB
      TEMPO 1020/1024 2SM RA BR OVC005
     FM110000 22010G16KT 4SM RA BR BKN010 OVC020
     FM110900 27010KT P6SM SCT025 SCT100=
KMEM 101633Z 1017/1112 16010KT P6SM SCT007 BKN100
     FM101800 17012G22KT P6SM SCT025 BKN080
      TEMPO 1022/1024 4SM -SHRA BKN025
     FM110000 19015G25KT 4SM -RA BR VCTS OVC008CB
     FM110800 24014KT 6SM -RA BR BKN012=

0000034500
251
FTUS73 KWBC 101636 AAA
TAF AMD
KCGI 101633Z 1017/1112 16008KT P6SM VCSH BKN015
      TEMPO 1017/1020 3SM SHRA BR BKN008
     FM102000 17011KT 6SM -SHRA BR BKN012
      TEMPO 1020/1024 3SM SHRA BR BKN006
     FM110000 18013KT 1SM RA BR OVC003
     FM110600 21012KT 3SM BR OVC010
     FM110900 24010KT P6SM SCT015=

0000026300
252
FTUS74 KWBC 101636 AAA
TAF AMD
KCEC 101633Z 1017/1112 16009KT 4SM BR OVC003
      TEMPO 1017/1019 1SM BR
     FM102000 16010KT 6SM -DZ SCT012 BKN025
     FM110600 17015G25KT 4SM RA BKN005 OVC020
     FM110900 17025G35KT 4SM RA OVC005=

0000013100
253
SAMX31 KWBC 101645 RRB
METAR
MMMX 101621Z SPECI 16003KT 6SM FEW020 17/03 A3032 NOSIG RMK 8/1 00
     HZY SC=

0000009800
254
SANL33 EHDB 101625 RRA
METAR EHJR 101625Z AUTO 21024G27KT  09/05 Q1012 W10/H17=

0000010200
255
SANL33 EHDB 101625 RRB
METAR EHSC 101625Z AUTO 22022G26KT 9999 08/07 Q1014 W08/H13=

00000000