0000066300
796
SANO39 ENMI 101550
METAR ENNE 101550Z NIL=
METAR ENQR 101550Z AUTO 04014KT 9999NDV BKN064/// 05/00 Q0999
           W///S/=
METAR ENSE 101550Z AUTO 04018KT 9999NDV FEW022/// BKN061/// 05/00
           Q0999 W///S5=
METAR ENQC 101550Z AUTO 04008KT 9999NDV SCT029/// OVC041/// 06/02
           Q0998 W///S4=
METAR ENQA 101550Z AUTO 04011KT 9999NDV -SHRA FEW021/// BKN025///
           BKN029/// 04/03 Q0999 W05/S4=
METAR ENHM 101550Z NIL=
METAR ENVH 101550Z AUTO 26023KT 9999NDV FEW021/// BKN130/// 07/05
           Q1005 W///S4=
METAR ENLA 101550Z AUTO 25025KT 9999NDV SCT014/// BKN140/// 07/05
           Q1003 W///S4=

0000054700
797
SANO32 ENMI 101550
METAR ENAL 101550Z 05015KT 9999 VCSH FEW033TCU BKN045 01/M04 Q0998=
METAR ENCN 101550Z VRB01KT 9999 FEW020 01/01 Q1001=
METAR ENHD 101550Z 24010KT 9999 FEW010CB SCT014 BKN030 06/05 Q1000=
METAR ENRO 101550Z NIL=
METAR ENRY 101550Z 15005KT CAVOK M00/M02 Q0999=
METAR ENSB 101550Z 20011KT 9999 FEW020 BKN025 M01/M06 Q1006 RMK WIND
           1400FT 21013KT=
METAR ENTC 101550Z VRB01KT CAVOK M11/M13 Q1016 NOSIG RMK WIND 2600FT
           09008KT=
METAR ENTO 101550Z 21006KT CAVOK 00/M01 Q0998=

0000059600
798
SANO38 ENMI 101550
METAR ENDR 101550Z AUTO 06031KT M03/M09 Q1000=
METAR ENEK 101550Z NIL=
METAR ENGC 101550Z 04014KT 9999 SCT020 BKN030 06/01 Q0999 W07/S4=
METAR ENHE 101550Z 08030KT 9999 SCT030 M02/M09 Q1002 W///S6=
METAR ENOA 101550Z 33013KT 2300 -SHRA BKN007 BKN016 06/04 Q0998
           W///S4=
METAR ENSL 101550Z 26020KT 9999 FEW013 BKN150 07/04 Q1001 W05/S4=
METAR ENFB 101550Z AUTO 05015KT 9999NDV BKN036/// OVC058/// 06/02
           Q0999 W///S5=
METAR ENSF 101550Z AUTO 05015KT 9999NDV FEW024/// BKN041/// BKN061///
           06/02 Q0999 W///S5=

0000010300
799
SPDN33 EKCH 101555
SPECI EKSP 101555Z 28017KT 3000 SHRA SCT012CB BKN038 06/04 Q1007=

0000068300
800
SANO31 ENMI 101550
METAR ENAN 101550Z NIL=
METAR ENBR 101550Z 20004KT 160V240 9999 -SHRA FEW005 SCT013CB BKN020
           05/04 Q0998 TEMPO SHRA BKN006 RMK WIND 1200FT 27015KT=
METAR ENBO 101550Z 09012KT CAVOK M07/M16 Q1010 NOSIG=
METAR ENDU 101550Z VRB01KT 9999 FEW040 M23/M25 Q1016=
METAR ENGM 101550Z 18007KT 9999 FEW015 SCT100 M01/M03 Q0997 NOSIG=
METAR ENOL 101550Z 06009KT 6000 -SN SCT006 BKN010 M07/M09 Q1000 TEMPO
           1500 SN VV006=
METAR ENVA 101550Z 08007KT 4100 -SN VV024 M07/M11 Q1000 TEMPO VV012
           RMK WIND 670FT 10009KT=
METAR ENZV 101550Z 25005KT 9999 VCSH FEW012TCU SCT015 BKN022 06/05
           Q1000 NOSIG=

0000009700
801
SACS31 MROC 101600
METAR
MRPV 101600Z 07018KT 9999 FEW045 24/14 A3005 NOSIG=

0000009500
802
SABW31 VGEG 101550
METAR VGEG 101550Z 35005KT 3500 HZ NSC 18/12 Q1014 NOSIG=

0000010700
803
SABW31 VGHS 101550
METAR VGHS 101550Z 00000KT 2000 HZ NSC 17/12 Q1015 TEMPO S/VIS 1500M=

0000053000
804
SADR31 MDSD 101600
METAR
METAR MDPP 101600Z 09010KT 9999 SCT018 26/24 Q1019=
METAR MDST 101600Z 13008KT 9999 BKN019 25/21 Q1020=
METAR MDPC 101600Z 11011KT 9999 FEW020 28/21 Q1019= 
METAR MDBH 101600Z 11008KT 9999 FEW022 29/22 Q1019=
METAR MDJB 101600Z 06010KT 9999 SCT020 28/23 Q1019=
METAR MDSD 101600Z 08008KT 9999 BKN022 28/21 Q1018=
METAR MDLR 101600Z 09010KT 9999 BKN020 27/22 Q1018=
METAR MDCY 101600Z 09010KT 9999 SCT020 28/24 Q1019=
METAR MDAB 101600Z 09005KT 9999 BKN020 27/24 Q1020=

0000047800
805
SAFI33 EFHK 101550
EFJO 101550Z 02014KT 360V060 4600 -SN FEW013 OVC055 M09/M10 Q0992=
EFLP 101550Z AUTO 01013KT 340V050 4000 -SN BKN008 OVC013 M02/M03
Q0986=
EFMI 101550Z AUTO VRB06KT 7000 -SN SCT011 BKN041 M05/M05 Q0990=
EFSA 101550Z AUTO 36011KT 320V050 2600 -SN OVC040 M06/M07 Q0990=
EFUT 101550Z AUTO 01011KT 340V040 2700 -SN FEW006 SCT010 BKN013
OVC037 M01/M01 Q0986=
EFVR 101550Z AUTO 01009KT 0250 +SN SCT012 BKN017 OVC026 M06/M08
Q0991=

0000009600
806
SAQB31 LQMO 101600
METAR LQMO 101600Z 06002KT 7000 FEW035 OVC055 10/07 Q1021=

0000018900
807
SAUK33 EGGY 101550 RRA
METAR EGHI 101550Z 21006KT 9999 FEW030 08/05 Q1013 =
METAR EGNS 101550Z 24017KT 200V260 7000 -RADZ FEW004 BKN010 OVC025
     09/08 Q1005 NOSIG=

0000010000
808
SAUK36 EGGY 101550 RRA
METAR EGSC 101550Z 18007KT 9999 FEW025 BKN042 08/05 Q1012=

0000076100
809
SAIY31 LIIB 101550
METAR LIEA 101550Z 03006KT CAVOK 13/10 Q1019=
METAR LIEE 101550Z 18007KT CAVOK 14/12 Q1018=
METAR LIEO 101550Z 12003KT 050V180 CAVOK 13/10 Q1020=
METAR LIMC 101550Z 03001KT 9999 BKN040 11/06 Q1019 NOSIG=
METAR LIME 101550Z 16005KT 5000 BR BKN040 10/09 Q1019=
METAR LIMF 101550Z VRB02KT 9999 SCT035 10/05 Q1017=
METAR LIMJ 101550Z 17005KT 9999 SCT018 BKN035 14/10 Q1020=
METAR LIML 101550Z VRB02KT 9999 BKN035 09/08 Q1019 NOSIG=
METAR LIRA 101545Z 00000KT 8000 SCT030 BKN080 11/09 Q1021=
METAR LIRF 101550Z VRB03KT 9999 BKN030 12/09 Q1021 NOSIG=
METAR LIRN 101550Z NIL=
METAR LIRP 101545Z 21003KT 9999 FEW025 BKN040 12/09 Q1020 NOSIG=
METAR LIRQ 101550Z 00000KT 9999 FEW018 BKN030 OVC070 13/11 Q1020=

0000028500
810
FTIN90 VIDP 110300
TAF VIDP 110300Z 1106/1212 26005KT 1200 MIFG/FU NSC
     BECMG 1108/1110 33007KT 3000 HZ
     BECMG 1115/1117 27003KT 0800 BR
     BECMG 1200/1202 VRB02KT 0300 FG
     BECMG 1103/1105 26005KT 1000 BR
     BECMG 1206/1208 32006KT 3000 HZ=

0000099500
811
SAMX43 MMMZ 101600
METAR MMCL 101542Z 03005KT 10SM  OVC230 17/13 A3000 RMK 8/007=
METAR MMCN 101542Z 00000KT 10SM  FEW100 FEW200 17/08 A2997 
      RMK 8/031 HZY=
METAR MMDO 101545Z 00000KT 14SM  BKN200 07/M03 A3023 RMK 8/004=
METAR MMGM 101550Z 00000KT 10SM  SKC 17/M01 A2998 RMK HZY=
METAR MMHO 101548Z 00000KT 10SM  SKC 12/M01 A3006 RMK HZY=
METAR MMLM 101549Z 00000KT 10SM  SCT120 SCT200 15/10 A3002 
      RMK 8/032 HZY=
METAR MMLP 101542Z 00000KT 10SM  FEW040 SCT120 BKN200 15/12 A3003 
      RMK 8/536 HZY=
METAR MMLT 101543Z 28008KT 8SM  BKN120 BKN200 17/11 A3004 RMK 8/078=
METAR MMML 101543Z 32005KT 10SM  FEW200 08/M02 A3010 RMK 8/002=
METAR MMMZ 101547Z 01008KT 14SM  SKC 16/13 A2998 RMK ISOL AC-CI=
METAR MMSD 101545Z 00000KT 15SM  SCT140 BKN200 17/12 A3002 
      RMK 8/072 SC=
METAR MMSL 101542Z 00000KT 12SM  FEW120 BKN230 18/12 A2998 
      RMK 8/038 ISOL SC=
METAR MMTJ 101550Z 07003KT 8SM  FEW210 10/05 A3011 RMK 8/009 HZY=

0000075000
812
SAIY32 LIIB 101550
METAR LIBD 101550Z 00000KT CAVOK 12/12 Q1020=
METAR LIBR 101545Z 17003KT 9999 SCT020 14/13 Q1020 NOSIG=
METAR LICC 101550Z NIL=
METAR LICJ 101550Z 07007KT CAVOK 14/10 Q1020=
METAR LIPB 101550Z 32003KT 9999 SCT090 SCT120 08/05 Q1019=
METAR LIPE 101550Z 10007KT 070V130 0500 R12/1000VP2000D FG BKN001
08/07 Q1020=
METAR LIPH 101545Z /////KT 3000 BR SCT025 SCT080 07/06 Q1020=
METAR COR LIPK 101550Z 05004KT 4000 BR BKN035 10/07 Q1019=
METAR LIPQ 101550Z 00000KT 2000 BR BKN010 09/07 Q1019=
METAR LIPR 101545Z /////KT 8000 BKN060 10/09 Q1019=
METAR LIPX 101545Z 13004KT 1000 R04/P1500 BR FEW005 SCT010 BKN045
      09/06 Q1020=
METAR LIPZ 101550Z 00000KT 2500 BR SCT010 SCT045 09/06 Q1020=

0000010400
813
SPCN51 CWAO 101555
SPECI CWUW 101555Z AUTO 13016KT 2 3/4SM FEW087 M28/ A2889 RMK ICG=

0000009300
814
SAIY31 LIIB 101550 RRA
METAR LIRN 101550Z VRB02KT 6000 BKN025 14/08 Q1021=

0000008700
815
SAIY32 LIIB 101550 RRA
METAR LICC 101550Z 26006KT CAVOK 15/09 Q1020=

00000000