0000015600
629
SMLC01 TLPC 111200
AAXX 11124
78947 11578 61010 10257 20232 30175 40178 60042 70581 86400 333 05200
10280 20222 58003 70049 86822 90979=
0000070300
630
SMAA01 SAWB 111200 RRB
AAXX 11124
88963 32962 00000 10016 21038 39950 49981 57008 333 10016 21032 92407
92734=
88968 32465 81416 11006 21024 39966 49981 58004 886// 333 11002 21024
56199 88710 92427 92732 92851 94070=
89034 12460 80000 11024 21056 39614 49930 53004 60044 8367/ 333 1////
21044 41001 56009 83715 88360 92801=
89053 12462 52713 10008 21028 39994 40009 57008 69904 82531 333 10009
21013 56660 82615 83070 92427 92851 94060 94466 98562=
89055 32965 13406 10010 21062 39734 49977 56005 80008 333 10012 21034
56000 81270 92730 92880 95100=
89066 32960 20000 10016 20005 39960 49969 57019 82050 333 10022 21018
56060 82360 92406 92734 92851 94040 95000=
0000003800
631
SMVD01 ESWI 111200
NIL
0000012000
632
SMVB01 ESWI 111200
BBXX
SLKR 11124 99430 11461 43/97 33125 11049 40152 53009 22253 00027
2//// 4////=
0000003800
633
SMVA01 ESWI 111200
NIL
0000117300
634
GHCI99 KWBC 110000
GRID 07003 10101
111 10200 20099 61401 71100 81048 09999
333 11512 23020 30100 00100
0119 000000 113113113118118117115114114115115115114113113113112112111
0219 000010 114115117124123123121119118118118117116115117116116115113
0319 000020 123130126126128126127124121119118116116115117118118116114
0419 000030 132133132126127127128126122120116114110109110115116115112
0519 000040 125122124127129129126127123120115112107104100110110106105
0619 000050 124125128129129129128126125124112108091097104104101096094
0719 000060 125130131129128126128125124121116105102101098097094088089
0819 000070 125125123123123124126124122121116110105103105101098094091
0919 000080 121119117114112116119123125126123114112110108106104102098
1019 000090 121121116113114117120123121122118117120119119116111109106
1119 000100 121121121119118118120122121122122121121119118116114112108
1219 000110 120120119119118119120120121121121121119117115113110108105
1319 000120 118118118118118118118118118118117116115114113111110109108
1419 000130 110110110111111111111111110110109109108108107107106105105
9901 000140 100
555 07003 10101
777
0000117300
635
GHBG30 KWBC 110000
GRID 07002 10101
111 10200 23099 61401 71100 81036 09999
333 11512 23020 30000 00700
0119 000000 270269266261253251254257259259257257256253252253258262265
0219 000010 264262260257251250251254255255254254252249244242250256259
0319 000020 247248249249247247249251251249249249246244243241243247248
0419 000030 215223230236239239244246247246245241236228228233235237237
0519 000040 179191209221229233239243244241236230219204200215219224224
0619 000050 155164176197212221228232233230223212198182176180192204207
0719 000060 145149156166182197207211213210202191175164158159166177186
0819 000070 144143144147154164173180183180173164157153152148148154166
0919 000080 145142141141142144146148149149146143141140142144146149152
1019 000090 144141139138137136135133131129127126124124124124124125129
1119 000100 142139137135133130127124121118116114112111109107107108112
1219 000110 141138135131126122118114110107106105104104103103104107112
1319 000120 136133131128125123121120118116115114115115116117119121123
1419 000130 147146144143142141140139139139139139139139140141142143145
9901 000140 164
555 07002 10101
777
0000011500
636
SICN06 CWAO 110300 RRB
AAXX 11034
71841 25/// /1705 11047 21066 39604 40003 56013
333 60007=

0000036200
637
SARA32 RUMS 101530
METAR UHBB 101530Z NIL=
METAR UHHH 101530Z 25007MPS CAVOK M25/M31 Q1018 NOSIG RMK QFE757/1009
23090060=
METAR UHMA 101530Z NIL=
METAR UHMD 101530Z NIL=
METAR UHMM 101530Z NIL=
METAR UHPP 101530Z NIL=
METAR UHSS 101530Z NIL=
METAR UHWW 101530Z VRB01MPS 9999 SKC M23/M27 Q1026 NOSIG RMK
QFE768/1025 25CLRD70=

0000012300
638
SARA31 RUMS 101530
METAR UEEE 101530Z 23002MPS 2100 BR OVC200 M43/M48 Q1033 NOSIG RMK
QFE766 23490145=

0000058200
639
SARS33 RUMS 101530
METAR ULLI 101530Z 03001MPS 5000 -RASN BKN005 OVC018 01/01 Q0982
88620245 NOSIG RMK OBST OBSC=
METAR UUBW 101530Z 16005G10MPS 5000 -RA OVC008 03/01 Q0992 NOSIG=
METAR UUDD 101530Z 19007MPS 9999 -RA BKN007 OVC016 03/02 Q0991
64290195 14290194 NOSIG=
METAR UUDL 101530Z 13006MPS 7000 -RA BKN006 OVC013 01/00 Q0991 NOSIG
RMK QBB180 QFE735 23290255=
METAR UUEE 101530Z 18004MPS 8000 -RA OVC007 02/02 Q0990 75290151
25290151 NOSIG=
METAR UUWW 101530Z 19006MPS 9999 -RA OVC006 02/02 Q0990 19290045
NOSIG=
METAR UUMO 101530Z NIL=

0000037700
640
SARS31 RUMS 101530
METAR COR ULWC 101530Z 15004G07MPS 1300 R21/1600 SN VV002 00/00 Q0987
TEMPO 0500 SHSNRA BKN002 RMK QBB070 QFE730/0974 SC038=
METAR UUBP 101530Z NIL=
METAR UUOB 101530Z 21008G11MPS 4000 BR OVC008 03/02 Q1004 29190055
NOSIG=
METAR UUOK 101530Z NIL=
METAR UWGG 101530Z 17005MPS 9000 OVC009 02/01 Q1000 NOSIG 18290050
RMK QFE743=

0000079200
641
SARS35 RUMS 101530
METAR USPP 101530Z 14004MPS 9999 OVC009 M02/M03 Q1007 21290250 NOSIG
RMK QFE744/0993=
METAR UWKD 101530Z 18002MPS 0350 R11/0900 FZFG VV003 M00/M00 Q1005
R11/2/0050 NOSIG RMK QFE743/0991=
METAR UWKE 101530Z 00000MPS 0800 R21/P1500 FZFG SCT010 M06/M08 Q1005
NOSIG RMK  QFE737/0982 21421039=
METAR UWKS 101530Z 19004MPS 0400 R24/0900VP1500U FG VV001 00/00 Q1003
NOSIG RMK QBB050 QFE738 24290250=
METAR UWLW 101530Z NIL=
METAR UWOR 101530Z NIL=
METAR UWOO 101530Z 15003MPS 3200 -SN OVC010 M01/M02 Q1008 08590332
TEMPO 1000 SN RMK QFE745/0994=
METAR UWSS 101530Z 25004MPS 9999 BKN008 BKN066 01/M01 Q1009 3029//55
NOSIG RMK  QFE744=
METAR UWWW 101530Z 28003MPS 4500 BR OVC005 M01/M02 Q1007 23520540
33//99// NOSIG RMK QFE744/0992=

0000013800
642
SARA35 RUMS 101530
METAR USCM 101530Z 16004MPS 1600 SN VV004 M06/M07 Q1008 TEMPO 1000
SHSN VV003 19450345 RMK QFE719=

0000047300
643
SARA33 RUMS 101530
METAR UIAA 101530Z 30004MPS 9999 -SHSN FEW050CB BKN100 M17/M20 Q1018
NOSIG RMK QFE705 29CLRD70=
METAR UIBB 101530Z 10002MPS 0300 R30/0800 FG VV002 M22/M23 Q1028
NOSIG RMK QBB070 QFE727/0970 30490530=
METAR UIII 101530Z 21002MPS 4000 -SHSN BKN015CB OVC100 M15/M17 Q1030
TEMPO 0300 -SHSN FG VV001 RMK QFE727/0970 30490340=
METAR UIUU 101530Z 27004MPS 3300 -SHSN BKN022CB OVC100 M12/M14 Q1026
NOSIG RMK QFE725/0966 26490842=

0000094000
644
SARS32 RUMS 101530
METAR URKA 101530Z 21009G12MPS 9999 BKN022 OVC120 09/05 Q1015 NOSIG
RMK QFE756/1008 SC070=
METAR URKK 101530Z 25002MPS CAVOK 05/02 Q1016 NOSIG RMK QFE759 SC070=
METAR URML 101530Z 19004MPS 9999 SKC 01/M00 Q1021 NOSIG RMK
QFE766/1021 SC070=
METAR URMM 101530Z 12005G07MPS 9999 SCT160 02/00 Q1017 30CLRD70 NOSIG
RMK QFE734/0979=
METAR URMN 101530Z NIL=
METAR URMO 101530Z 08002MPS 9999 BKN100 M01/M03 Q1017 NOSIG RMK
QFE719/0959 SC070=
METAR URMT 101530Z 28003MPS 9999 SCT020 BKN100 03/01 Q1016 NOSIG RMK
QFE723 SC0.60=
METAR URRR 101530Z 20003MPS 9999 SCT008 OVC018 05/05 Q1013 22CLRD70
NOSIG=
METAR URSS 101530Z 05002MPS 9999 SCT230 05/03 Q1018 NOSIG RMK
R06/08003MPS QFE762 02000070 06//////=
METAR URWA 101530Z 26003MPS 8000 BKN040 04/02 Q1018 NOSIG RMK
QFE765/1020 SC055=
METAR URWI 101530Z NIL=
METAR URWW 101530Z 23004MPS CAVOK 01/00 Q1013 NOSIG RMK 29190060=

0000085600
645
SARA34 RUMS 101530
METAR UNAA 101530Z 15004MPS 3900 FU OVC076 M07/M12 Q1030 NOSIG RMK
QFE749 20090040=
METAR UNBB 101530Z 22009MPS 6000 -SN DRSN OVC019 M08/M10 Q1029 NOSIG
RMK QFE749/0999 24424042=
METAR UNEE 101530Z 19007MPS 2200 -SN OVC009 M08/M10 Q1024 NOSIG RMK
QFE745 23451050=
METAR UNKL 101530Z 17003MPS 9999 -SN SCT033 OVC083 M08/M13 Q1025
NOSIG RMK QFE743 29////55=
METAR UNNT 101530Z 21006MPS 6000 -SHSN DRSN SCT017 OVC052CB M05/M07
Q1024 25490140 16390136 NOSIG RMK QFE758/1011=
METAR UNOO 101530Z 24005MPS 8000 BKN015 BKN033CB M06/M09 Q1020
25390137 NOSIG RMK QFE757=
METAR UNTT 101530Z NIL=
METAR USTR 101530Z 20005MPS 9999 -SN OVC046 M02/M02 Q1012 NOSIG RMK
QFE749/0999 21390045 12750029=
METAR USHH 101530Z 04002MPS 9999 SCT011 OVC080 M20/M23 Q1015 TEMPO
2000 SN BKN005 RMK QFE758 06////37=

0000057000
646
SARA36 RUMS 101530
METAR UWUU 101530Z 16003MPS 4500 -SN OVC009 M03/M03 Q1007 14650440
TEMPO 1000 SN FZRA BKN003 RMK QFE744/0993 MOD ICE INC=
METAR USCC 101530Z 16004MPS 2400 -SHSN SCT010CB OVC070 M04/M04 Q1009
09490350 TEMPO 1100 SHSN BKN005CB RMK QFE736=
METAR USNN 101530Z 24001MPS 9999 -SN OVC067 M09/M10 Q1013 NOSIG RMK
QFE755 21491231=
METAR USRR 101530Z VRB01MPS 7000 BKN070 M24/M26 Q1015 NOSIG RMK
QFE756 25////32=
METAR USSS 101530Z 16001MPS 3200 -SN FEW006 BKN030 OVC067 M02/M04
Q1008 08590235 TEMPO 1600 SN FZRA RMK QFE736=

0000066800
647
SARS36 RUMS 101530
METAR ULAA 101530Z 08008G12MPS 5000 -SN BLSN OVC014 M18/M20 Q1004
NOSIG RMK QFE752/1003 SC050=
METAR ULMM 101530Z 00000MPS 9999 BKN002 M31/M34 Q1015 NOSIG RMK
QBB080 OBST OBSC QFE754 31490237=
METAR ULOO 101530Z 20004MPS 5000 -SHRA SCT007 BKN010CB OVC020 04/04
Q0981 19190060 NOSIG RMK QFE732=
METAR ULPB 101530Z NIL=
METAR UMKK 101530Z 31010G16MPS 270V350 9999 BKN016CB OVC100 04/01
Q0998 R24/29//60 NOSIG RMK QFE747/0997=
METAR UUOO 101530Z 20006G09MPS 5000 -RA OVC010 04/02 Q1002 NOSIG RMK
12290155=
METAR UUYY 101530Z 04004MPS 7000 BKN011 OVC066 M17/M20 Q1007 TEMPO
1000 SN BR 0145//33 RMK QFE746/0995=

0000027900
648
FTUS42 KWBC 101539 AAA
TAF AMD
KHSV 101538Z 1016/1112 13007KT 6SM BR SCT007 OVC013
     FM102100 17011KT P6SM OVC020
     FM110600 17015KT 4SM -SHRA BR OVC008
      TEMPO 1107/1110 3SM -TSRA BR BKN005CB OVC010
     FM111000 17014KT 4SM -RA BR OVC006=

00000000