0000010700
036
SACN62 CYVC 101600
METAR CYVC 101600Z 16002KT 1SM BR VV006 M06/M07 A2933 RMK FG8 SLP956=

0000010000
037
SAAL31 DAAA 101600 RRA
METAR DAUH 101600Z 04006KT 9999 FEW040 SCT100 20/09 Q1020=

0000011500
038
SACN62 CYWG 101600
METAR CYWG 101600Z 17011KT 6SM -SN BR OVC072 M08/M10 A2945 RMK AC8
 SLP990=

0000013300
039
SACN62 CYWK 101600
METAR CYWK 101600Z 22013KT 4SM -SN DRSN BKN023 OVC035 M15/M19 A2976
 RMK SC5SC3 /S02/ SLP135=

0000015200
040
SACN62 CYXC 101600
METAR CYXC 101600Z 23002KT 20SM FEW008 FEW040 BKN150 OVC240 M07/M08
 A2962 RMK SF1SC1AC4CI3 SH E+W SF TR SLP070=

0000014200
041
SACN62 CYWL 101600
METAR CYWL 101600Z 13004KT 15SM FEW010 FEW040 FEW090 M05/M06 A2967
 RMK SF1SC1AC1 AC TR PRESRR SLP091=

0000010600
042
SACN62 CYXH 101600
METAR CYXH 101600Z 19007KT 30SM BKN270 M06/M09 A2945 RMK CI6 SLP001=

0000011900
043
SACN62 CYXL 101600
METAR CYXL 101600Z 19008KT 2 1/2SM -SN BR OVC007 M08/M09 A2959 RMK
 ST8 SLP048=

0000011900
044
SACN62 CYXE 101600
METAR CYXE 101600Z 23007KT 15SM SCT130 BKN280 M12/M13 A2942 RMK
 AC3CI4 SLP001=

0000124600
045
SAAK31 KWBC 101600
METAR
PABR 101553Z 33011KT 5SM HZ FEW002 M26/M28 A2994=
PACD 101553Z 15003KT 10SM SCT040 02/M02 A2935=
PAED 101558Z 00000KT 4SM -SN BR BKN002 OVC008 M04/M04 A2940=
PAEI 101558Z AUTO 00000KT 10SM BKN010 OVC070 M19/M21 A2956=
PAEN 101553Z 05004KT 9SM BKN002 OVC070 M04/M04 A2942=
PAFA 101553Z 00000KT 8SM -SN BKN040 OVC080 M17/M20 A2957=
PAFR NIL=
PAFS 101556Z AUTO 00000KT 9SM -SN OVC021 M14/M17 A2955=
PAFY NIL=
PAJN 101553Z 08008KT 10SM -RA FEW012 BKN034 OVC044 02/01 A2949=
PAKN 101554Z 00000KT 7SM SCT004 OVC030 M03/M03 A2946=
PAKT 101553Z 17004KT 10SM BKN017 BKN050 02/02 A2968=
PANC 101553Z 34003KT 10SM -SN SCT005 OVC012 M03/M04 A2940=
PAOM 101553Z 02003KT 10SM SCT090 M12/M15 A2962=
PAOR 101553Z 31003KT 3SM -SN SCT023 OVC033 M14/M17 A2938=
PAOT 101553Z 01004KT 10SM CLR M18/M23 A2978=
PARY 101556Z AUTO 00000KT 10SM BKN050 BKN085 M18/M22 A2960=
PASC 101553Z 24012KT 10SM SCT025 OVC031 M30/M33 A2988=
PASG NIL=
PASI 101553Z 10005KT 10SM FEW024 BKN033 OVC048 02/01 A2956=
PATQ 101556Z AUTO 32005KT 10SM CLR M30/M34 A2996=
PAVD 101556Z 00000KT 10SM FEW005 BKN060 BKN080 M04/M05 A2937=
PAWG 101556Z 10010KT 10SM FEW020 SCT028 OVC035 03/M01 A2961=
PFYU NIL=

0000013400
046
SACN62 CYXT 101600
METAR CYXT 101600Z 20010KT 4SM -SN BR SCT005 BKN025 OVC060 01/M00
 A2973 RMK SF4SC2SC2 SLP077=

0000012800
047
SACN62 CYYC 101600
METAR CYYC 101600Z 34004KT 40SM FEW090 BKN130 BKN300 01/M10 A2939 RMK
 AC2AC3CI1 SLP992=

0000011100
048
SACN62 CYYB 101600
METAR CYYB 101600Z 16006KT 8SM OVC006 M07/M09 A3012 RMK ST8 BR
 SLP227=

0000012300
049
SACN62 CYXY 101600
METAR CYXY 101600Z 00000KT 12SM -SN FEW025 OVC070 M13/M14 A2930 RMK
 SF2AC6 SLP977=

0000012700
050
SACN62 CYXU 101600
METAR CYXU 101600Z 17005KT 3/8SM R15/4000FT/N FZFG VV002 M01/M01
 A3018 RMK FG8 SLP236=

0000012800
051
SACN62 CYYD 101600
METAR CYYD 101600Z 00000KT 1/2SM FZFG BKN080 M07/M08 A2965 RMK FG6AC1
 VIS LWR W SLP067=

0000010600
052
SACN62 CYYE 101600
METAR CYYE 101600Z 00000KT 15SM BKN040 M18/M20 A2941 RMK SC7 SLP997=

0000013400
053
SACN62 CYXP 101600
METAR CYXP 101600Z 00000KT 15SM VCSH FEW030 BKN090 OVC210 M18/M22
 A2917 RMK SC1AC5CI2 SLP880=

0000011600
054
SACN61 CYXS 101600
METAR CYXS 101600Z AUTO 21008KT 9SM FEW110 M03/M05 A2962 RMK PRESRR
 SLP064=

0000098200
055
FTPH41 RPLL 101700
TAF RPLC 101700Z 1018/1118 30006KT 9999 FEW042 BKN300 TX29/1106Z
    TN21/1121Z TEMPO 1018/1024 34005KT FEW042 SCT100 BKN300=
TAF RPLB 101700Z 1018/1118 07007KT 9999 FEW030 TX31/1106Z TN22/1022Z
    TEMPO 1018/1024 07007G17KT 9000 VCSHRA SCT020 BKN100=
TAF RPLI 101700Z 1018/1118 07010KT 9999 FEW019 TEMPO 1018/1024      
    09012KT 9999 FEW019 SCT290=
TAF RPVD 101700Z 1018/1118 04010KT 9999 FEW015 SCT080 TEMPO
1018/1024
    02008KT 9000 -SHRA SCT015 BKN080=
TAF RPVP 101700Z 1018/1118 07012KT 9999 FEW020 BKN080 TEMPO
1018/1024
    04010KT FEW018 SCT080=
TAF RPMR 101700Z 1018/1118 35008KT 9999 FEW016 SCT080 BKN250 TEMPO
    1018/1024 34006KT 8000 -RA SCT016 BKN090 OVC250=
TAF RPMD 101700Z 1018/1118 36006KT 9999 SCT016 BKN090 OVC290 TEMPO
    1018/1024 02008KT 8000 -RA FEW016 BKN090 OVC290=
TAF RPMZ 101700Z 1018/1118 04008KT 9999 FEW018 BKN120 TEMPO
1018/1024
    02006KT 9000 -SHRA FEW018CB OVC120=

00000000