0000009000
016
SASU01 HSSS 101600
METAR HSSS 101600Z 36010KT CAVOK 22/M03 Q1017 NOSIG=

0000010200
017
SAMF20 TFFR 101700
METAR TFFR 101700Z 10015KT 9999 SCT030 SCT047 28/18 Q1016 NOSIG=

0000009300
018
SADL35 EDZO 101650 RRA
METAR EDVE 101650Z 25011KT 9999 BKN044 06/02 Q1014=

0000003900
019
UEPA01 RJTD 110000
NIL=
0000039500
020
SIVD15 KWNB 110300 RRP
BBXX
42360 11031 99267 70905 46/// /1504 10223 40150 51015 90300 22200
00227 10702 70010 333 91205 555 11042 22046=
41051 11031 99183 70650 46/// /0706 10258 90330 333 91207 555
11061 22067=
41051 11031 99183 70650 46/// /0706 10258 90320 333 91207 555
11067 22073=
41051 11031 99183 70650 46/// /0606 10259 90310 333 91208 555
11071 22078=
0000369000
021
SIPH01 KWBC 110300
AAXX 11031
98134 32465 40704 10228 20177 30033 40225 50003 84200 333 56299
84819=
98233 31570 60000 10248 20219 40200 58002 70544 83570 333 56999
83620 86358=
98325 31462 51803 10282 20193 40167 54000 70544 83208 333 56999
83817 84079=
98327 31668 60405 10260 20194 30006 40186 58004 70544 84208 333
56/// 84248 86080=
98425 31562 72502 10274 20179 40168 50003 70544 83850 333 56999
83620 87358=
98432 31568 60803 10276 20217 40171 50000 70544 83272 333 56199
83820=
98433 31465 50409 10210 20171 39445 40177 51005 70544 83230 333
56999 83812=
98446 32470 80402 10248 20206 30124 40170 58002 84207 333 56199
84818 88270=
98538 31464 83607 10265 20226 30155 40160 50000 71544 83267 333
56119 83811 84357 88272=
98543 21475 83604 10258 20235 30125 40136 51004 71682 84207 333
56999 69967 84818 88272=
98546 21460 80407 10240 20235 30138 40146 58003 72582 84907 333
56199 60037 84915 88275=
98548 21478 82403 10261 20235 30137 40143 51002 72582 85807 333
56299 69957 85816 88272 98642 21458 83203 10252 20243 30113 40122
58002 76366 8552/ 333 56199 60057 85615 88457=
98550 21457 80404 10243 20236 40148 58004 76366 8422/ 333 56999
60117 84818 88457=
98646 11557 83608 10250 20236 30097 40125 58007 76166 8382/ 333
56899 60037 83820 88458=
98223 31462 10905 10284 20148 40174 58002 70544 81105 333 56999
81819=
98232 31570 80902 10250 20222 40203 50002 71542 8357/ 222// 20100
333 56299 83620 88358=
98324 31462 70904 10300 20264 40152 58010 70544 81101 333 56999
81816 87080=
98328 31462 71102 10176 20119 38553 40158 50002 70544 81208 333
56999 81814 87279=
98330 31475 70404 10272 20245 30148 40180 50001 70544 82208 333
56/// 82818 87285=
98334 21475 81801 10215 20201 39996 40205 50000 78082 8382/ 333
56999 69927 83817 88357=
98336 21465 83605 10220 20203 30198 40103 50002 78082 8352/ 333
56199 60020 83610 88456=
98426 31570 70809 10279 20181 40157 58005 70544 81108 333 56999
81830 87280=
98427 32472 60205 10260 20204 39980 40160 58006 83270 333 56999
83818 86357=
98428 31460 63602 10281 20213 40153 58004 70544 82471 333 561//
82618 84359=
98429 31559 70506 10282 20167 40168 58005 70544 83831 333 56999
83823 84360=
98430 31558 73604 10280 20181 40166 58003 70544 82801 333 56999
82620 85080=
98434 31468 70403 10265 20217 30178 40186 58003 70544 82238 333
56199 82818 84359 86275=
98435 32475 70607 10265 20228 40180 51006 84281 333 561// 84818
83358=
98440 31465 80706 10259 20216 30178 40183 51005 71544 83237 333
56199 83815 85358 88277=
98444 21465 80403 10258 20224 30143 40162 50000 78082 84377 333
56899 69907 81918 83820 87459 88270=
98526 32575 82101 10/// 20/// 40136 50002 82277 333 56999 82820
85358 88274=
98531 31570 70404 10320 20259 30127 40131 54000 70544 81208 333
56199 81820 87275=
98536 21470 70406 10246 20216 39948 40149 50000 70584 83268 333
56199 69907 83818 84357 85270=
98553 21460 80404 10250 20238 30130 40134 55002 78284 8698/ 333
56199 60067 85915 88358=
98558 21460 80616 10258 20253 40137 50001 78084 8452/ 222// 20608
333 56199 60017 84615 88457=
98618 32480 40203 10295 20218 40138 51002 82261 333 56999 82819
84075=
98644 31560 80245 30096 40125 58003 76162 8552/ 333 56199 60087
85616 88457=
98648 21460 80000 10240 20238 30050 40132 50000 78084 8492/ 333
56199 60097 84912 88457=
98653 21440 80407 10240 20240 30065 40110 50000 76566 8322/ 333
56199 60427 83816 88456=
98741 21462 80402 10256 20240 40117 58001 76086 8392/ 333 56199
60187 83917 88457=
98751 21470 80000 10210 20207 39428 40108 58010 76066 8491/ 333
56999 60017 84915 88456=
0000275200
022
SICI01 KWBC 110300 RRG
AAXX 11031
56144 32776 31601 11042 21158 36861 52014 83///=
56152 32980 32701 11060 21157 36298 52012 83///=
56167 32980 00901 11018 21139 37088 52007=
56182 31759 71602 11054 21098 37184 52006 77070 87///=
56357 32980 02903 10008 21237 36454 52014=
56586 31463 83402 11007 21046 38105 52013 72370 88///=
56671 32980 01601 10127 21012 38233 52014=
56748 32957 00901 10104 20002 38401 52019=
56763 32980 01605 10206 21001 40156 52015=
56768 32978 02002 10140 21004 38215 52015=
56838 31/08 91802 10103 20091 40239 52026 74344=
56886 32973 01805 10138 20073 38338 52014=
56946 32975 00701 10112 20073 40236 52017=
56959 32960 01401 10176 20121 40210 52014=
56969 31459 70201 10172 20172 40215 52017 71040 87///=
57378 41950 80203 10041 20018 40336 52009 71000 88///=
57426 41520 80201 10062 20053 40316 52016 76064 88///=
57476 32960 83602 10050 20020 40331 52008 88///=
57503 41724 82901 10073 20051 40315 52016 71000 88///=
57584 41458 83603 10036 20026 40328 52013 76066 88///=
57598 41655 83401 10043 20037 40316 52011 76066 88///=
57655 42960 80201 10046 20007 40338 52018 88///=
57731 32668 80401 10058 20030 40324 52018 88///=
57766 41461 80402 10041 20035 40324 52016 76066 88///=
57776 41/01 93602 11026 21030 40318 52013 76664=
57845 41758 80202 10041 20028 40321 52019 76066 88///=
57853 41450 80201 10047 20037 40326 52016 76066 88///=
57916 32562 80901 10087 20054 40296 52019 88///=
57922 42465 83602 10024 20011 40313 52017 88///=
57932 41256 81101 10058 20046 40320 52020 72166 88///=
58321 31650 80902 10045 20017 40327 52004 76000 88///=
58338 41456 80201 10045 20036 40312 52001 76066 88///=
58437 41/00 92505 11014 21017 38201 52001 77074=
58556 41607 82201 10051 20050 40315 57003 76064 88///=
58569 41443 80703 10074 20068 40303 57002 76066 88///=
58646 31656 80000 10094 20046 40296 57001 70500 88///=
58715 31930 83602 10069 20047 40296 52013 71060 88///=
58730 32749 82901 10097 20053 40289 52002 88///=
58731 31656 82701 10100 20052 40288 52004 70500 88///=
58754 32568 82501 10105 20042 40295 57004 88///=
58911 32958 21801 10150 20071 40270 57003 82///=
58931 31/00 92004 10060 20060 38420 52011 74440=
59007 32464 83401 10094 20085 40249 52020 88///=
59046 41441 83402 10086 20069 40280 52020 76066 88///=
59058 31820 83403 10101 20073 40272 52017 71060 88///=
59072 31858 70203 10131 20084 40276 52014 70500 87///=
59087 31758 72002 10146 20079 40263 52001 70500 87///=
59209 41321 80000 10119 20106 40249 52019 76066 88///=
59254 41656 83401 10153 20105 40259 52015 70500 88///=
59632 31756 80402 10176 20145 40242 52013 71000 88///=
59855 32570 70902 10233 20186 40223 52010 87///=
0000048400
023
SIPH01 KWBC 110300 RRA
AAXX 11031
98752 21440 82701 10230 20230 40132 50000 76166 8462/ 333 56999
60137 84715 88457=
98753 21450 83604 10237 20228 40109 58009 76166 8222/ 333 56899
60047 83816 88459=
98755 21458 83602 10242 20232 40114 58008 76166 8452/ 333 56199
60187 84616 88458=
98836 21458 80000 10281 20245 40111 57009 70584 8387/ 333 56999
69947 83818 88362=
98851 31468 83603 10260 20240 39948 40098 58002 71522 8327/ 333
56999 83818 88358=
0000003900
024
ULPA01 RJTD 110000
NIL=
0000066100
025
UDAF01 FAPR 110340
AMDAR 1103
LVR AFZA22 1554N 02025W 110245 F320 MS396 285/073 TB0 S031 333 F/// VG012=
LVR AFZA22 1620N 02107W 110253 F320 MS403 286/058 TB0 S031 333 F/// VG012=
/// AFZA22 1630N 02123W 110255 F320 MS405 286/073 TB0 S031 333 F/// VG012=
LVR AFZA22 1648N 02150W 110260 F320 MS405 284/056 TB0 S031 333 F/// VG012=
LVR AFZA22 1715N 02234W 110307 F320 MS409 280/050 TB0 S031 333 F/// VG012=
LVR AFZA22 1743N 02318W 110314 F320 MS414 277/043 TB0 S031 333 F/// VG012=
LVR AFZA22 1810N 02403W 110321 F320 MS408 281/051 TB0 S031 333 F/// VG012=
LVR AFZA22 1837N 02447W 110328 F320 MS409 281/053 TB0 S031 333 F/// VG012=
0000191300
026
SZAU01 AMMC 110345
CREX++
T000103 A001 D01021 D06025++
-1927750 14705860 59260 2014 01 11 03 38 3028 11 07 00 01
01355 0197 01355 0197 01354 0196 01354 0194 01354 0193 01350 0189+
-2316110 15079000 59670 2014 01 11 03 38 2998 11 07 00 01
01756 0218 01764 0222 01766 0218 01768 0216 01766 0210 01772 0210+
-3447330 15091170 60420 2014 01 11 03 38 2960 11 07 00 01
00676 -0045 00690 -0034 00694 -0032 00699 -0030 00701 -0030 00700 -0033+
-4105000 14591500 60910 2014 01 11 03 38 2890 11 07 00 01
00477 -0078 00473 -0081 00476 -0077 00483 -0069 00486 -0066 00495 -0056+
-4254640 14793080 61170 2014 01 11 03 38 2898 11 07 00 01
01002 0072 01004 0072 01012 0078 01006 0071 01004 0067 01007 0068+
-3834390 14161360 61410 2014 01 11 03 38 2905 11 07 00 01
00268 0017 00261 0009 00293 0040 00281 0028 00316 0062 00271 0016+
-3214890 13364170 62000 2014 01 11 03 38 2958 11 07 00 01
00642 0014 00641 0012 00643 0014 00643 0014 00643 0013 00645 0014+
-3387080 12189720 62080 2014 01 11 03 38 2943 11 07 00 01
00725 0084 00707 0066 00732 0090 00741 0098 00732 0089 00740 0096+
-3182560 11573860 62237 2014 01 11 03 38 2970 11 07 00 01
00729 0071 00738 0079 00734 0074 00744 0084 00741 0080 00745 0083+
-2422000 11339750 62385 2014 01 11 03 38 //// 11 07 00 01
00946 -0076 01018 -0005 00927 -0097 00950 -0075 00974 -0052 00943 -0084+
-2181670 11419110 62430 2014 01 11 03 38 //// 11 07 00 01
01526 -0013 01526 -0012 01537 -0002 01538 -0002 01537 -0003 01527 -0013+
-1800080 12221830 62650 2014 01 11 03 38 3043 11 07 00 01
04720 0188 04717 0187 04716 0187 04716 0190 04714 0190 04714 0191+
-1247190 13084580 63230 2014 01 11 03 38 3053 11 07 00 01
04844 0030 04853 0030 04864 0032 04874 0033 04884 0033 04892 0032+
-1386000 13641580 63511 2014 01 11 03 38 3045 11 07 00 01
01261 0014 01262 0014 01262 0013 01266 0016 01267 0016 01269 0016++
7777

0000046700
027
SZPA01 AMMC 110345
CREX++
T000103 A001 D01021 D06025++
0136250 17293000 67590 2014 01 11 03 38 3015 11 07 00 01
02118 0073 02113 0071 02111 0072 02100 0064 02114 0080 02101 0070+
0710610 17137250 67680 2014 01 11 03 38 3013 11 07 00 01
01366 0056 01368 0060 01363 0058 01353 0050 01352 0051 01354 0057+
0698060 15820000 67950 2014 01 11 03 38 3023 11 07 00 01
01079 0069 01068 0059 01068 0061 01074 0068 01077 0072 01074 0070++
7777

0000005200
028
RRIN23 VIDP 110344
RQRPT 256-277=

0000005200
029
RRIN23 VECC 110343
RQRPT 685-706=

0000348400
030
SIIN41 VOMM 110300
AAXX 11034
43086 31596 81804 10226 20192 39976 40156 70522 84502
  333 10300 20198 59002
  555 10000=
43105 32597 50000 10220 20195 30160 40167 83501
  333 10278 20185 58004
  555 10000=
43128 31496 71404 10202 20177 39547 40161 70522 84530
  333 10292 20188 56290 58007 84615 85360
  555 10000=
43149 31494 29902 10234 20210 30167 40170 71000
  333 10294 20192 56600 58000 82618
  555 10000=
43150 31595 10000 10242 20202 30094 40169 71000 81500
222// 20000
  333 10287 20201 58001 81620
  555 10000=
43181 31994 00000 10228 20213 30138 40166 71000
  333 10304 20198 58001
  555 10000=
43185 31596 41403 10250 20204 30156 40160 70521 82530
  333 10292 20210 58000 82620 83360
  555 00000 10000=
43189 32597 39901 10246 20226 30157 40166 82502
  333 10300 20218 58010
  555 10000=
43198 32496 30000 10166 20135 39312 40155 82530
  333 10306 20126 56290 58002 82618
  555 10000=
43201 32997 02302 10196 20171 39415 40144
  333 10310 20164 58004
  555 10000=
43213 31596 69902 10214 20182 39839 40161 70522 83838
  333 10322 20193 56299 58005
  555 10000=
43220 32597 30902 10234 20210 30148 40155 82530
  333 10292 20195 59001
  555 10000=
43221 32996 00000 10230 20205 30145 40158
  333 10305 20201 59002
  555 10000=
43225 31596 30000 10214 20198 30148 40153 705// 83500
  333 10326 20194 58015
  555 10000=
43226 32496 30902 10224 20202 30117 40147 84530
  333 10315 20200 58007
  555 10000=
43233 31896 40000 10204 20163 39334 40150 70510 84030
  333 10303 20154 58005
  555 10000=
43237 31996 41103 10228 20187 39760 40157 70500 82032
  333 10322 20197 58000 82360 84075
  555 10000=
43245 32997 10000 10234 20203 30137 40164 80001
  333 10307 20214 58002
  555 10000=
43279 31597 30000 10234 20197 30153 40171 70500 82501
  333 10306 20197 58004 82620
  555 10001=
43284 31596 50000 10240 20216 30023 40139 71042 82531
  333 10334 20222 58004 82620 83075
  555 10000=
43295 31997 30902 10184 20158 39130 48531 70500 80001
  333 10297 20169 58003 83075
  555 10000=
43296 31395 41405 10186 20143 39165 48539 71022 82601
  333 10288 20159 56209 58001 82708 83075
  555 10000=
43311 32597 50505 10276 20238 40135 85400
  333 10334 20264 58007 85620
  555 10000=
43314 32597 51403 10256 20220 40141 83501
  333 10345 20246 58008
  555 10000=
43321 31495 80706 10214 20182 39714 40168 70522 82540
  333 10304 20210 58006 82615 86358
  555 10000=
43329 32597 23402 10220 20198 30145 40159 82500
  333 10300 20193 58007
  555 10000=
43344 31495 20208 10234 20197 30062 40163 70500 81501
  333 10302 20201 58008 81618
  555 10000=
43346 31596 43204 10232 20204 30149 40157 70511 82501
  333 10288 20213 58014 82620 84075
  555 10007=
43347 32597 33602 10234 20216 30143 40154 82501
  333 10289 20216 58007
  555 10007=
43348 31995 20502 10230 20215 30152 40159 70521 80001
  333 10310 20191 58010
  555 10012=
43353 31995 40703 10256 20207 40147 70100 83071
  333 10330 20216 56099 58007 82458
  555 10000=
43361 32997 00000 10234 20206 30151 40157
  333 10284 20207 58008
  555 10043=
43363 32597 63608 10254 20230 30141 40154 85601
  333 10289 20235 58012
  555 10042=
43369 32597 33602 10278 20255 40129 82502
  333 10315 20263 58006 82620
  555 10002=
43371 31996 00000 10238 20223 30064 40137 70500
  333 10320 20222 58009
  555 10013=
0000041400
031
AAIN23 VOVZ 110300
FROM CWC VISAKHAPATNAM
TO NHAC NEW DELHI
LOCAL FORECAST OF VISAKHAPATNAM AND NEIGHBORHOOD:

Mainly Clear Sky. Mist / Hazy conditions would continue to prevail.

PARAMETERS   :  MAX   /   MIN     /  RAINFALL    /   RH

WLT(43150)        : 28.7  /   20.1    /    000.0        /     078
VSK(43149)        :  29.4   /  19.2   /    000.0        /     086

-- 

0000025800
032
SMIN90 VOMM 101200
AAXX 10124
43207 32997 20504 10272 20222 30099 40102 80002
  333 10308 58002=
43330 32597 30502 10270 20226 30045 40128 83500
  333 10300 58008=
43317 32597 40202 10158 20114 37816 4//// 8////
  333 10190 58///=
0000381500
033
SIIN43 VOMM 110300
AAXX 11034
43086 31596 81804 10226 20192 39976 40156 70522 84502 333 10300 20198
59002 555 10000=
43105 32597 50000 10220 20195 30160 40167 83501 333 10278 20185 58004 555
10000=
43128 31496 71404 10202 20177 39547
40161 70522 84530 333 10292 20188 56290 58007
84615 85360 555 10000=
43150 31595 10000 10242 20202 30094 40169 71000 81500 222// 20000
333 10287 20201 58001 81620 555 10000=
43181 31994 00000 10228 20213 30138 40166 71000 333 10304 20198 58001
555 10000=
43185 31596 41403 10250 20204 30156 40160 70521 82530 333
10292 20210 58000 82620 83360 555 00000 10000=
43189 32597 39901 10246 20226 30157 40166 82502 333 10300 20218 58010
555 10000=
43198 32496 30000 10166 20135 39312 40155 82530 333
10306 20126 56290 58002 82618 555 10000=
43201 32997 02302 10196 20171 39415 40144 333 10310
20164 58004 555 10000=
43213 31596 69902 10214 20182 39839 40161 70522 83838 333 10322 20193
56299 58005  555 10000=
43220 32597 30902 10234 20210 30148 40155 82530 333 10292 20195 59001 555 10000=
43221 32996 00000 10230 20205 30145 40158 333 10305 20201 59002 555
10000=
43225 31596 30000 10214 20198 30148 40153 705// 83500
333 10326 20194 58015 555 10000=
43226 32496 30902 10224 20202 30117 40147 84530 333
10315 20200 58007 555 10000=
43233 31896 40000 10204 20163 39334 40150 70510 84030
333 10303 20154 58005 555 10000=
43237 31996 41103 10228 20187 39760 40157 70500 82032 333 10322 20197
58000 82360 84075 555 10000=    
43243 32997 20000 10224 20196 30136 40161 80001 333 10297 20190
59001 555 10002=
43245 32997 10000 10234 20203 30137 40164 80001 333 10307 20214
58002 555 10000=
43278 32597 30000 10244 20207 30156 40163 82501
        333 10297 20209 58007
        555 10000=
43279 31597 30000 10234 20197 30153 40171 70500 82501 333 10306
20197 58004 82620 555 10001=
43284 31596 50000 10240 20216 30023 40139 71042 82531
333 10334 20222 58004 82620 83075 555 10000=
43295 31997 30902 10184 20158 39130 48531 70500 80001
333 10297 20169 58003 83075 555 10000=
43296 31395 41405 10186 20143 39165 48539 71022 82601
333 10288 20159 56209 58001 82708 83075 555 10000=
43311 32597 50505 10276 20238 40135 85400 333 10334 20264
58007 85620 555 10000=
43314 32597 51403 10256 20220 40141 83501 333 10345 20246
58008 555 10000=
43320 31996 10904 10240 20222 40141 70522 80001 333 10320
20222 58009 555 10000=
43321 31495 80706 10214 20182 39714 40168 70522 82540 333 10304
20210 58006 82615 86358 555 10000=
43329 32597 23402 10220 20198 30145 40159 82500 333 10300 20193 58007
555 10000=
43331 31596 13404 10222 20200 30116 40161 70510
        333 10301 20195 58004
        555 10001=
43336 31996 00000 10248 20208 40147 70500 333 10337 20220
58010 555 10000=
43344 31495 20208 10234 20197 30062 40163 70500 81501 333
10302 20201 58008 81618 555 10000=
43346 31596 43204 10232 20204 30149 40157 70511 82501 333 10288
20213 58014 82620 84075 555 10007=
43347 32597 33602 10234 20216 30143 40154 82501 333 10289 20216 58007
555 10007=
43348 31995 20502 10230 20215 30152 40159 70521 80001 333 10310
20191 58010 555 10012=
43353 31995 40703 10256 20207 40147 70100 83071 333 10330 20216 56099
58007 82458 555 10000=
43360 31996 00203 10246 20196 30004 40154 70500 333 10308 20216
58003 555 10010 =
43361 32997 00000 10234 20206 30151 40157 333 10284 20207 58008
555 10043=
43363 32597 63608 10254 20230 30141 40154 85601 333 10289 20235 58012
555 10042=
43369 32597 33602 10278 20255 40129 82502 333 10315 20263
58006 82620 555 10002=
43371 31996 00000 10238 20223 30064 40137 70500 333 10320
20222 58009 555 10013=
43372 31595 10000 10264 20219 40138 70500 81500 333 10309
20229 58014 81618 555 10010=

0000019100
034
SMIN42 VOMM 101200 RRB
AAXX 10124
43317 32597 40202 10158 20114 37816 4//// 8////
  333 10190 58///=
43330 32597 30502 10270 20226 30045 40128 83500
  333 10300 58008=
0000033600
035
SIIN90 VABP 110300
AAXX 11033
42571 21592 80501 10156 20149 40159 74444 8653/
  333 20137 59005 6004/
  555 00042 10010=
42574 21595 80000 10154 20154 4//// 71040 8553/
  333 20110 5//// 6015/
  555 00154 10024=
42577 21592 80000 10154 20147 40154 74444 8653/
  333 20130 58000 6005/
  555 00052 10030=
00000000