0000043000
076
FTUS53 KWBC 101627 AAA
TAF AMD
KFSD 101623Z 1016/1112 19009KT 1 1/2SM BR OVC004
     FM101800 21008KT 4SM BR OVC006
     FM102300 28007KT P6SM SCT015 SCT100
     FM110100 29010KT P6SM SKC=
KSLN 101626Z 1016/1112 VRB05KT 2SM BR BKN005 OVC012
      TEMPO 1017/1018 4SM BR SCT005 OVC012
     FM101800 26012KT P6SM SCT010 BKN025
     FM110000 29010KT P6SM BKN020
     FM110400 28008KT P6SM SCT030=

0000025700
077
FTUS80 KWBC 101627
TAF
TAF AMD KLCK 101620Z 1016/1112 16007KT P6SM OVC005
      TEMPO 1016/1018 5SM BR OVC008
     FM101800 17009KT 5SM BR OVC012
     FM110500 17012KT P6SM VCSH BKN020
     FM110800 18012G22KT 5SM -RA BR BKN010=

0000056700
078
FTUS80 KWBC 101627 AAA
TAF AMD
KFSD 101623Z 1016/1112 19009KT 1 1/2SM BR OVC004
     FM101800 21008KT 4SM BR OVC006
     FM102300 28007KT P6SM SCT015 SCT100
     FM110100 29010KT P6SM SKC=
KPSC 101625Z 1016/1112 22017G27KT P6SM SCT100 OVC130
     FM102300 21012KT P6SM VCSH OVC050
     FM110100 15009KT P6SM -RA OVC035=
KSLN 101626Z 1016/1112 VRB05KT 2SM BR BKN005 OVC012
      TEMPO 1017/1018 4SM BR SCT005 OVC012
     FM101800 26012KT P6SM SCT010 BKN025
     FM110000 29010KT P6SM BKN020
     FM110400 28008KT P6SM SCT030=

0000010000
079
SPUS31 KWBC 101627
SPECI
KIAD 101623Z VRB03KT 1SM BR BKN005 OVC008 01/00 A3040=

0000009500
080
SPUS41 KWBC 101627
SPECI
KBDL 101623Z 00000KT 5SM BR OVC009 M03/M05 A3044=

0000012000
081
SPUS42 KWBC 101627
SPECI
KPNS 101623Z VRB04KT 2 1/2SM R17/5500VP6000FT -RA FG OVC003 13/12
A3015=

0000011200
082
SAMF20 TFFR 101630
METAR TFFR 101630Z 07014KT 040V110 9999 SCT036 SCT066 28/19 Q1016
NOSIG=

0000010300
083
SAPA31 KWBC 101600 RRD
METAR
PHJR 101625Z 00000KT 10SM FEW002 17/16 A3000 RMK AO2=

0000021400
084
SANL32 EHDB 101625
METAR EHEH 101625Z AUTO 21009KT 9999 SCT049 BKN060 06/04 Q1016 
BLU 23010KT 9999 FEW025=
METAR EHKD 101625Z AUTO 23010KT 9999 BKN210 07/05 Q1013 
BLU 26015KT 9999 SCT015=

0000011800
085
SASN32 ESWI 101620 CCA
METAR COR ESSB 101620Z 31013KT 9000 -SHSN OVC008 M02/M04 Q0998
R30/29//69=

0000021800
086
SOAT10 KWAL 110343
14022214 011034311    +6.301   +6.282   +6.292   +6.316   +6.296   +6.278   +6.251   +6.173   +6.107   +6.065       +68      +7.8     +24.7       +71   +1017.5  +655.350  50-0NN  79E
0000013700
087
FCIE32 EIDB 101400 CCA
TAF COR EIWF 101626Z 1016/1024 29007KT 9999 SCT010 BKN015
     BECMG 1016/1018 SCT018 BKN025=

0000025200
088
FTCN31 CWAO 101600 AAA
TAF AMD CYCG 101628Z 1016/1101 18010KT P6SM FEW005 OVC040 TEMPO
     1016/1018 BKN030
    FM101800 18007KT P6SM SCT050 BKN180 TEMPO 1018/1101 5SM -RASN BR
     FEW030 BKN050
    RMK NXT FCST BY 101900Z=

0000011300
089
SPPR00 SPIM 101630
SPECI SPZO 101630Z VRB06KT 9999 VCSH FEW040TCU SCT050 BKN100
17/05 Q1028=

0000008700
090
SPCN31 CWAO 101627
SPECI CYQG 101627Z 19009KT 6SM BR OVC008 RMK SC8=

0000170600
091
SPUS70 KWBC 101628
SPECI
KALI 101624Z AUTO 19013G17KT 10SM FEW017 SCT023 OVC043 22/18 A2992
     RMK AO2 TSNO $=
KAMG 101624Z AUTO 15007KT 10SM OVC004 19/17 A3019 RMK AO2
     T01890172=
KBUY 101624Z AUTO 36004KT 4SM BR OVC004 03/02 A3034 RMK AO2 RAE22
     P0001 T00280017=
KCEU 101624Z AUTO 04005KT 2SM -RA BR BKN003 BKN010 OVC014 08/07
     A3030 RMK AO2 P0002=
KCMI 101624Z 12009KT 2SM BR BKN016 OVC021 01/01 A3000 RMK AO2=
KHKS 101624Z 12008KT 1 3/4SM BR OVC003 09/08 A3012 RMK AO2 VIS
     1V3=
KIJD 101624Z AUTO 00000KT 4SM BR BKN007 OVC013 M04/M07 A3046 RMK
     AO2 CIG 006V011 T10441067=
KLRD 101624Z 22003KT 10SM FEW008 OVC025 18/15 A2998 RMK AO2=
KMCB 101624Z AUTO 14006KT 1SM BR OVC002 11/11 A3012 RMK AO2
     T01110106=
KNEW 101624Z 10009KT 2SM BR OVC002 12/11 A3013 RMK AO2
     T01170111=
KTOI 101624Z AUTO 07003KT 3SM BR OVC003 11/09 A3020 RMK AO2
     T01060094=
KTRL 101624Z AUTO 17010KT 4SM RA BR BKN005 OVC018 15/15 A2988 RMK
     AO2 P0011 T01500150=
KAKH 101625Z AUTO 02005KT 2SM -RA BR OVC004 05/04 A3030 RMK AO2
     P0000=
KAQW 101625Z AUTO 10006KT 3SM -SN BKN023 OVC040 M02/M05 A3039 RMK
     AO2 SNB06 P0000=
KDPA 101625Z 16008KT 1/2SM R02L/1600FT FG VV002 00/00 A2997 RMK
     AO2=
KDXR 101625Z 00000KT 1/2SM SN VV010 M02/M04 A3045 RMK AO2
     P0002=
KFFC 101625Z AUTO 08003KT 3SM BR OVC004 07/06 A3024 RMK AO2
     RAB1556E20 P0001 T00720061=
KFRG 101625Z 00000KT 4SM UP BR FEW020 BKN027 OVC042 00/M01 A3045
     RMK AO2 UPB25FZRAE25 P0000=
KMIE 101625Z 18007KT 6SM BR SCT021 OVC031 03/02 A3011 RMK AO2
     T00330017=
KPSF 101625Z AUTO 05003KT 4SM BR OVC014 M04/M06 A3035 RMK AO2=

0000009800
092
SPUS42 KWBC 101628
SPECI
KLRD 101624Z 22003KT 10SM FEW008 OVC025 18/15 A2998=

0000009300
093
SPUS42 KWBC 101628
SPECI
KNEW 101624Z 10009KT 2SM BR OVC002 12/11 A3013=

0000010100
094
SACA33 KWBC 101600 RRD
METAR
TNCC 101600Z 09011KT 9999 SCT017 29/22 Q1015 NOSIG=

0000010600
095
SAEU31 BKPR 101630
BKPR 101630Z 00000KT 3000 BR SCT007 03/02 Q1020 NOSIG RMK 17010095 =

00000000