0000034200
016
SAIE32 EIDB 101600
METAR EICM 101600Z NIL=
METAR EIDL 101600Z NIL=
METAR EIKY 101550Z 31003KT 9999 -RA FEW011 SCT024CB BKN028 08/05
     Q1009=
METAR EIME 101600Z 23007KT 9999 BKN010 OVC100 07/06 Q1006=
METAR EISG 101600Z NIL=
METAR EIWF 101600Z 28006KT 250V310 9999 FEW008 SCT029 08/07 Q1008
     R21/1/////=

0000140600
017
SAPA31 KWBC 101600
METAR
AGGG NIL=
AGGH NIL=
ANAU NIL=
AYPY NIL=
PGNT NIL=
PGRO NIL=
PGSN 101554Z 04012KT 10SM FEW022 SCT048 26/23 A2991 RMK AO2
     RAB29E40 SLP150 P0000 T02610228=
PGUA NIL=
PGUM 101554Z 06007KT 10SM FEW021 26/23 A2990 RMK AO2 SLP118
     T02560228=
PGWT NIL=
PHJH NIL=
PHJR 101553Z AUTO 00000KT 10SM CLR 17/16 A3000 RMK AO2 SLP164
     T01720161 TSNO=
PHMK 101554Z 06004KT 10SM -RA FEW022 SCT055 OVC090 21/19 A3000 RMK
     AO2 RAB52 SLP160 P0000 T02110194=
PJON NIL=
PKMJ NIL=
PKMR 101554Z 04007KT 15SM SCT015 SCT300 28/21 A2973 RMK SLP068
     T02750213=
PKWA 101600Z AUTO 06019G23KT 10SM SCT028 SCT034 SCT049 27/21 A2977
     RMK AO2 T02710207=
PLCH NIL=
PMDY 101556Z AUTO 10016G23KT 10SM SCT041 19/12 A3022 RMK AO2 TSNO
     T01940116 SLP546 ?=
PTKK 101550Z 06007KT 15SM FEW014TCU BKN280 27/23 A2979 RMK TCU NW
     SLP091 T02730227=
PTKR 101550Z 10016KT 12SM -SHRA SCT017CB BKN110 OVC280 27/24 A2977
     RMK PK WND 11032/11 SHRAB04 CB NE-SE-S AND OHD SLP080
     T02720237=
PTPN NIL=
PTRO 101551Z 08012G18KT 14SM BKN015CB OVC280 27/25 A2975 RMK CB VC
     ALQDS=
PTSA NIL=
PTTP 101550Z 04007KT 15SM SCT018TCU BKN130 OVC300 27/25 A2978 RMK
     TCU NE-E SLP085 T02680246=
PTYA 101551Z 06010KT 12SM FEW016TCU SCT130 OVC300 27/23 A2980 RMK
     TCU VC SE-S SLP093 T02730225=
PWAK NIL=

0000007700
018
FCFR22 LFPW 101400 AAA
TAF AMD LFBC 101605Z 1016/1024 CNL=

0000010900
019
SPUS31 KWBC 101605
SPECI
KBOS 101601Z 21005KT 6SM HZ SCT008 BKN026 OVC046 M02/M04 A3048=

0000011700
020
SPUS31 KWBC 101605
SPECI
KEWR 101601Z 03003KT 3SM -FZDZ BR FEW010 BKN014 OVC060 M01/M02
A3047=

0000010900
021
SPUS41 KWBC 101605
SPECI
KPVD 101601Z 00000KT 4SM BR SCT003 SCT023 OVC034 M02/M04 A3048=

0000009400
022
SPUS42 KWBC 101605
SPECI
KNEW 101601Z 10008KT 1/4SM FG VV002 12/11 A3014=

0000011500
023
SACN62 CYUL 101600
METAR CYUL 101600Z 11002KT 15SM -SHSN OVC018 M06/M11 A3035 RMK SC8
 SLP279=

0000014500
024
SACN61 CYTL 101600
METAR CYTL 101600Z AUTO VRB02KT 1 3/4SM -SN SCT013 SCT018 OVC026
 M10/M11 A2957 RMK VIS VRB 3/4-3 SLP032=

0000012400
025
SACN62 CYUT 101600
METAR CYUT 101600Z 36006KT 360V140 25SM BKN100 M28/M32 A2932 RMK AC7
 PRESRR SLP934=

0000010600
026
SACN62 CYTE 101600
METAR CYTE 101600Z 27016KT 15SM SCT012 M22/M25 A2915 RMK SC3 SLP876=

0000012600
027
SACN62 CYTS 101600
METAR CYTS 101600Z 19011G16KT 15SM -SN BKN010 OVC028 M06/M08 A2993
 RMK SC6SC2 SLP158=

0000015200
028
SACN62 CYUX 101600
METAR CYUX 101600Z 27015KT 15SM IC DRSN FEW005 FEW040 BKN250 M28/M31
 A2910 RMK SF1SC1CS6 SF TR WND ESTD SLP856=

0000011700
029
SACN62 CYSN 101600
METAR CYSN 101600Z 19008KT 7SM SCT018 OVC030 01/M00 A3024 RMK SC3SC5
 SLP247=

0000035600
030
SAJP31 RJTD 101600
METAR RJAA 101600Z 25004KT 9999 FEW025 M04/M09 Q1022 NOSIG=
METAR RJBB 101600Z 31011KT 9999 FEW025 04/M06 Q1027 NOSIG=
METAR RJTT 101600Z 27004KT 180V300 9999 FEW040 02/M08 Q1022 NOSIG=
METAR ROAH 101600Z 04007KT 9999 FEW035 SCT080 14/06 Q1027=
METAR RJGG 101600Z 28014KT 9999 FEW020 SCT070 04/M02 Q1025 NOSIG=

0000011500
031
SACN62 CYVO 101600
METAR CYVO 101600Z 19011G19KT 6SM -SN OVC008 M09/M10 A3006 RMK ST8
 SLP208=

0000017300
032
SAJP32 RJTD 101600
METAR RJFF 101600Z 16007KT 9999 FEW035 SCT040 BKN050 02/M04 Q1030=
METAR RJCC 101600Z 23006KT 9999 -SHSN FEW020 SCT050 M10/M13 Q1016=

0000012700
033
SACN62 CYVR 101600
METAR CYVR 101600Z 29011KT 15SM FEW008 SCT037 OVC053 06/05 A2994 RMK
 SF1SC3SC4 SLP139=

0000011700
034
SACN62 CYVQ 101600
METAR CYVQ 101600Z 28013KT 8SM -SN DRSN OVC080 M25/M29 A2971 RMK AC8
 SLP070=

0000011300
035
SACN62 CYUY 101600
METAR CYUY 101600Z 21009KT 10SM -SN OVC007 M07/M09 A3004 RMK SF8
 SLP195=

00000000