0000047300
689
SMVA10 EHDB 111200
BBXX
A8HS3 11123 99149 10532 41597 70818 10270 20257 40170 55020 70322
8703/ 22214 04254 20904 30000 80260=
9V2003 11123 99247 10580 41598 71210 10205 20102 40193 56015 70022
85569 22233 00240 29901 80145=
A8IQ2 11123 99182 30112 41598 41713 10220 20166 40160 54000 70100
83141 22243 00220 20804 320// 40804 80185=
PHAC 11123 99055 30036 41397 31608 10262 20209 40128 50009 70200
8113/ 22233 20301 317// 40501 80225 42907=
0000042000
690
SMVB10 EHDB 111200
BBXX
DGWD2 11124 99225 11202 41497 33513 10197 20158 40218 53012 70200
83100 22200 00240 299// 399// 40803=
UEMM 11121 99717 10729 41/98 90206 11255 40139 52005 70222 22212
ICE55092=
A8PG7 11123 99388 11180 41/90 /2706 11005 21005 40290 54000 71244
8//// 22200 20301 3//// 4//// 5//// 81005=
AVBE 11123 99246 11234 41897 11419 10150 20115 40232 54000 70100
81000 22213=
0000027900
691
FTUS72 KWBC 101539 AAA
TAF AMD
KHSV 101538Z 1016/1112 13007KT 6SM BR SCT007 OVC013
     FM102100 17011KT P6SM OVC020
     FM110600 17015KT 4SM -SHRA BR OVC008
      TEMPO 1107/1110 3SM -TSRA BR BKN005CB OVC010
     FM111000 17014KT 4SM -RA BR OVC006=

0000009700
692
SPCN48 CWAO 101537
SPECI CYKG 101537Z 26020G30KT 3SM BLSN OVC046 RMK BLSN2SC6=

0000015100
693
SAUS71 KWBC 101500 RRG
METAR
KLCK 101535Z AUTO 17003KT 7SM OVC005 04/02 A3023=
KPQI 101535Z AUTO 12004KT 10SM CLR M15/M22 A3035=

0000020900
694
SAUS73 KWBC 101500 RRF
METAR
KCIU 101535Z AUTO 14009KT 5SM OVC006 M05/M05 A3001=
KELO 101533Z AUTO 20009KT 3SM BR OVC009 M08/M09 A2967=
KLBL 101535Z AUTO 31010KT 10SM CLR 03/M04 A2975=

0000010200
695
SAUS74 KWBC 101500 RRD
METAR
KOTH 101535Z 00000KT 10SM BKN010 OVC017 10/10 A3023=

0000030200
696
SAUS75 KWBC 101500 RRG
METAR
PADK 101536Z AUTO 14008G15KT 10SM SCT021 BKN028 OVC038 03/00
     A2901=
PAGS 101536Z AUTO 12006KT 8SM BKN015 OVC020 02/01 A2948=
PAUN 101536Z AUTO 09020KT 10SM FEW055 M13/M18 A2958=
PAVD 101536Z 00000KT 10SM FEW005 SCT030 BKN065 M04/M06 A2937=

0000008700
697
SPCN44 CWAO 101539
SPECI CYMJ 101539Z 31006KT 7SM BKN006 RMK SF7 BR=

0000053500
698
SAEE31 LOWM 101530
METAR UACK 101530Z 22009MPS 8000 -SHSN BLSN BKN027CB OVC070
M08/M10 Q1021 R20/450342 NOSIG RMK QFE742/0989=
METAR UACP 101530Z NIL=
METAR UAII 101530Z 11003MPS 090V150 2000 BR BKN100 M05/M09
Q1029 R10/0///70 NOSIG RMK QFE736/0982=
METAR UADD 101530Z 21005MPS 9999 NSC M08/M13 Q1028
R13/0///65 NOSIG RMK QFE713/0951=
METAR UASK 101530Z 12003MPS 9999 BKN180 M09/M16 Q1036
R12/820350 NOSIG RMK QFE751/1002=
METAR UASP 101530Z NIL=
METAR UAOO 101530Z NIL=
METAR UAKD 101530Z NIL=

0000017900
699
SAID33 WIII 101530
METAR WABP NIL=
METAR WAJJ NIL=
METAR WAKK NIL=
METAR WAPP NIL=
METAR WARS NIL=
METAR WATT NIL=
METAR WALR NIL=
METAR WARQ NIL=

0000192300
700
SPUS70 KWBC 101538
SPECI
KHDO 101534Z AUTO 19005KT 10SM OVC016 19/16 A2997 RMK AO2
     T01890156=
KAAO 101534Z AUTO 22014G22KT 1 1/2SM BR OVC002 06/05 A2963 RMK
     AO2=
KHHR 101534Z 00000KT 2 1/2SM HZ CLR 09/07 A3009 RMK AO2=
KLBT 101534Z AUTO 03005KT 2SM RA BR BKN055 OVC070 11/10 A3033 RMK
     AO2 P0011 T01110100=
KLWM 101534Z 21005KT 9SM BKN011 OVC017 M03/M07 A3049 RMK AO2 SNE09
     P0000 T10331067=
KMEI 101534Z 14003KT 3SM BR OVC002 09/08 A3018 RMK AO2=
KPAH 101534Z 18008KT 10SM BKN029 OVC035 08/06 A3008 RMK AO2
     T00830056=
KRAC 101534Z AUTO 16005KT 1 3/4SM BR OVC004 M01/M02 A3002 RMK AO2
     T10111017=
KRME 101534Z 12006KT 4SM -SN BR OVC026 M04/M06 A3037 RMK AO2 P0001
     T10391061=
KSSI 101534Z AUTO 12010KT 3SM BR SCT015 BKN019 OVC037 18/18 A3023
     RMK AO2 RAB04E14 P0000 T01780178=
PAIG 101534Z AUTO 24005KT 5SM -SN BR SCT004 OVC018 M03/M03 A2948
     RMK AO2 TSNO OVC V BKN P0000 $=
KANB 101535Z AUTO 06007KT 2 1/2SM BR OVC005 06/05 A3024 RMK AO2
     T00610050=
KCEU 101535Z AUTO 06005KT 2SM -RA BR FEW003 OVC016 08/06 A3032 RMK
     AO2 P0002=
KILN 101535Z AUTO 17006KT 1 3/4SM BR OVC002 03/03 A3021 RMK AO2
     T00330033=
KMYV 101535Z AUTO 03004KT 4SM BR CLR 04/03 A3027 RMK AO2=
KOTM 101535Z AUTO 14010KT 2 1/2SM BR OVC003 00/M01 A2980 RMK AO2
     T00001006 TSNO=
KSWO 101535Z 20008KT 6SM BR OVC010 10/09 A2971 RMK AO2 CIG
     007V013=
KTUL 101535Z 17010KT 7SM BKN003 BKN014 OVC019 07/06 A2974 RMK AO2
     DZE15 P0000 T00720061=
KY50 101535Z AUTO 17007KT 1 1/4SM BR OVC002 M03/ A2994 RMK AO2
     TSNO $=
KCSM 101535Z 22019KT 3SM -RA BR OVC002 05/05 A2974 RMK AO2
     P0000=
KDEQ 101535Z AUTO 14005KT 2 1/2SM -RA BR BKN006 OVC010 12/12 A2989
     RMK AO2 LTG DSNT W P0002 T01220122=
PABA 101535Z AUTO 27021KT 3/4SM -SN BR M25/M27 A2986 RMK AO2 PK
     WND 28028/1531 SNB21 FZRANO $=

0000009900
701
SPUS41 KWBC 101538
SPECI
KLWM 101534Z 21005KT 9SM BKN011 OVC017 M03/M07 A3049=

0000010400
702
SPUS41 KWBC 101538
SPECI
KRIC 101534Z 02005KT 2SM -RA BR SCT006 OVC032 02/01 A3044=

0000011200
703
SPUS42 KWBC 101538
SPECI
KSSI 101534Z AUTO 12010KT 3SM BR SCT015 BKN019 OVC037 18/18 A3023=

0000010100
704
SACA33 KWBC 101500 RRF
METAR
TLPL 101500Z 08020KT 9999 FEW026 28/22 Q1017 NOSIG=

0000022300
705
SAJP31 KWBC 101530 RRA
METAR
RJAA 101530Z 26003KT 240V310 9999 FEW025 M05/M08 Q1022 NOSIG=
RJCC 101530Z 23006KT 9999 FEW020 SCT080 M10/M13 Q1016=
RJTT 101530Z VRB02KT 9999 FEW040 04/M09 Q1022 NOSIG=

0000035300
706
SAPO31 LPMG 101530
METAR LPBJ 101530Z NIL=
METAR LPFR 101530Z 08007KT CAVOK 17/10 Q1012=
METAR LPMA 101530Z 15004KT 9999 FEW015 22/12 Q1013 RS17005KT
0517004KT 2301010KT=
METAR LPPR 101530Z 32007KT CAVOK 13/09 Q1014=
METAR LPPS 101530Z 02011KT 9999 SCT012 19/16 Q1013=
METAR LPPT 101530Z 10005KT 060V120 CAVOK 16/09 Q1013=

0000024400
707
SAIO31 KWBC 101500 RRG
METAR
WBGG 101530Z 22003KT 9999 SCT020 BKN150 23/23 Q1012 NOSIG=
WBKK 101530Z 12002KT 9999 FEW014 SCT140 BKN270 25/23 Q1011
     NOSIG=
WBSB 101530Z 15002KT 9999 FEW015 BKN300 25/24 Q1012 NOSIG=

0000033300
708
SAPO32 LPMG 101530
METAR LPAZ 101530Z 20012KT 9999 BKN007 BKN020 16/14 Q1014=
METAR LPFL 101530Z 17014KT 9999 FEW019 13/08 Q1010=
METAR LPHR 101530Z 06009KT 9999 FEW009 BKN015 BKN030 15/11 Q1011=
METAR LPLA 101530Z NIL=
METAR LPPD 101530Z 15010KT 120V190 7000 2000SE -DZ SCT003 BKN006
BKN012 15/15 Q1013=

00000000