0000155200
069
SMAG02 SABM 111200
AAXX 11124
87344 32962 31410 10226 20095 39610 40170 52029 82076 333 10266
20210 56055 82360=
87349 12970 31611 10206 20117 39797 40183 52025 69904 83030 333
10271 20187 30018 56050 83360=
87371 32962 61612 10235 20171 30129 40150 51031 83076 333 10260
20216 56066 83360 85270=
87374 32965 61114 10207 20161 30062 40149 52031 80006 333 10248
20190 56000 86270=
87395 11565 82305 10232 20217 30088 40132 52013 60084 70292 8357/
333 10250 20220 31020 56149 83625 88360=
87418 32965 31805 10247 20046 39381 40153 52027 83080
333 10282 20223 56060 83365=
87436 32970 00914 10260 20060 39349 40134 52027 333 10261 20220
30019=
87448 32965 00920 10200 20112 39637 40192 52028 333 10232 20110=
87467 NIL=
87480 12965 31408 10194 20109 30140 40169 52029 60024 80002 333
10276 20172 30016 56006 83070 90970=
87497 NIL=
87506 32970 00000 10170 20079 38626 48552 53013 333 10225 20094
95000=
87509 32970 01804 10210 20048 39338 40170 52023 333 10264 20131=
87532 32970 00910 10164 20096 30038 40207 52040 333 10258 20096
30006=
87534 32960 01112 10197 20046 30029 40188 52021 333 10241 20123
30009=
87548 32962 21115 10175 20065 30097 40192 52021 80008 333 10238
20132 30012 56006 82270=
87576 32960 51812 10188 20075 30161 40184 52023 80006 333 10267
20145 56006 85270=
87582 12960 41421 10190 20060 30170 40177 52025 69904 80006 333
10266 20177 30015 56007 84270=
87585 32960 51411 10196 20076 30152 40180 53028 82076 333 10280
20165 31016 56010 82360 83270=
0000014200
070
SMVS40 VNNN 111200
AAXX 11121
48907 32598 60000 10272 20226 30128 40131 52018 83208 333 00028 10295 58006 70000 83895 86299=
0000023800
071
SWVD12 LFPW 111200
MMXX 41300 11014 1200/ 71551 05728 00011 15400 20276 30101
11130 0005/ 1024/ 30/// 14054 11174
22226 99206 10001 30822 51900 75252 91813 12209 31009
51309 70810 90505 10406 30303 50302 70201 90100=
0000009400
072
SNAA17 LFVW 111100 RRB
AAXX 11114
89577 46/// /2006 11257 35906 4//// 5////=
0000102300
073
SMRH50 LDZM 111200
AAXX 11121
14235 12760 5//// 10050 20025 39044 48496 57005 60001 85030 333 70000
=
14246 11450 70701 10067 20065 39994 40198 58015 60001 7104/ 87600 333
70000=
14314 12668 71802 10145 20119 30156 40220 58007 60001 86870 333 70000
92311 92417=
14323 12670 72001 10135 20103 30186 40220 58004 60001 87500 333 70016
92311 92418=
14324 11/00 92706 10011 20011 38428 48530 58002 60001 74544 333 70000
=
14328 12560 72604 10131 20065 39802 40190 58011 60001 87240 333 70000
=
14330 12670 62702 10117 20044 39552 40216 58007 60001 86500 333 70000
=
14370 11958 00000 10120 20070 30092 40200 57022 60001 71042 333 70000
=
14438 12684 71201 10135 20101 30131 40222 58009 60001 87800 333 70000
92301=
14443 32697 418// 10143 20120 30135 40227 57008 84206 333 70000 92301
=
14447 12582 71202 10160 20091 30195 40225 58012 60001 83241 222//
00157 333 70002 92312=
14472 12670 31502 10176 20116 30170 40234 58008 60001 83200 222//
00157 333 70000 92301=
0000132000
074
SMAL01 DAMM 111200
AAXX 11124
60360 12965 72505 10193 20077 40182 58004 60001 81032 333 0//00 81360
87073 95900=
60390 12975 70903 10187 20108 40196 56008 60001 86032 333 0//00 86360
95900=
60402 12565 72612 10188 20069 40196 50001 60001 81232 333 81823 83359
85073 95900=
60419 12960 52608 10135 20052 40205 58009 60001 82032 333 82360 85073
95900=
60475 12975 50000 10160 21030 39258 48525 58002 60001 80002 333 0//00
85073 95900=
60490 11560 82004 10149 20124 40193 50009 69921 76062 8357/ 333 0//11
83630 86460 95490=
60525 NIL=
60531 11565 82408 10146 20094 40192 50005 69941 70262 8427/ 333 0//53
84826 85460 95900=
60566 12660 61004 10148 20048 40226 58010 60001 84230 333 0//00 84846
83360=
60571 11530 71208 10157 20065 39240 48507 58004 69911 8327/ 333 0//16
83833 84460 95990=
60580 NIL=
60590 12660 4//// 10160 20074 40210 58011 60001 83230 333 0//00 83833
=
60611 12860 51514 10194 20009 40193 57021 60001 82034 333 0//00 82358
85070=
60620 11950 11821 10230 21053 40155 58008 60001 70711 81030 333 0//00
81365=
60630 12770 52114 10268 21024 40181 58013 60001 84230 333 84856=
60656 12958 00106 10184 20034 40180 50012 60001 333 0//00=
60670 NIL=
60680 12980 61605 10201 21082 38677 48555 56014 60001 82032 333 82362
85073 95900=
0000142600
075
SMAL20 DAMM 111200
AAXX 11124
60353 12570 7//// 10184 20123 40190 51006 60001 84802 333 82820 83633
85070 91818 95900=
60367 12965 0//// 10170 20119 40174 51008 60001 333 0//00=
60369 12960 60000 10201 20165 40187 58009 60001 83082 333 0//00 83360
83070 91837=
60401 NIL=
60403 12970 70000 10169 20067 40201 58007 60001 82032 333 0//00 82360
86075 95900=
60425 11660 80000 10170 20083 40197 58002 69911 70326 8257/ 333 0//14
82640 87460 95900=
60461 11570 71804 10166 20106 40197 56008 69901 76062 83530 222//
20000 333 83830 85360 91808 95900=
60467 12965 70000 10136 20070 40226 54000 60001 8707/ 333 0//00 87460
95900=
60492 11565 81903 10174 20114 40196 51010 69921 70262 882// 333 0//13
88830 95900=
60515 12960 60000 10128 20085 40228 58009 60001 86070 333 0//00 86460
95900=
60517 11560 80000 10158 20137 40197 50007 69901 70262 8523/ 333 0//13
85820 86360 95900=
60522 11558 80000 10139 20094 40200 50004 60021 72161 8423/ 333 0//51
84826 84360 95970=
60557 12670 71706 10110 20034 38869 48517 58006 60001 83582 333 83633
83360 95900=
60563 12560 51506 10150 20075 39327 48535 58009 60001 83230 333 0//00
83830 83360=
60603 12660 20000 10216 20013 40197 58015 60001 82100 333 0//00 82840
=
60638 12960 3//// 10224 20015 40189 58021 60001 80001 333 0//00 83073
=
60686 11957 71818 10250 20019 40175 57018 60001 84032 333 0//00 84360
83073=
0000143800
076
SMAL02 DAMM 111200
AAXX 11124
60351 12970 60000 10201 20090 40189 50006 60001 83032 333 0//00 83360
86070 95900=
60355 12960 62206 10181 20059 40180 58009 60001 80002 333 0//00 86073
95900=
60445 12565 62807 10128 20032 39051 48528 58009 60001 82232 333 82830
83360 95900=
60468 12970 6//// 10130 20037 39250 48519 58001 85032 333 85360 83070
95900=
60507 11656 82206 10126 20107 40202 50005 60011 76066 8657/ 333 0//12
86633 84460 95970=
60511 11560 72612 10118 20077 39084 48526 58005 60041 72166 8527/ 333
0//11 85826 85359 95900=
60535 12565 7//// 10110 20041 38866 48529 58004 60001 8213/ 333 0//00
82833 86360 95900=
60536 11960 70000 10124 20077 39335 48529 50001 60011 72162 8707/ 333
0//11 87460 95900=
60549 12658 70000 10100 20055 38937 48538 50002 60001 8327/ 333 82830
85460 95900=
60550 12570 70404 10110 20011 38683 48523 58004 60001 83532 333 83630
83360 85073 95900=
60555 12670 60000 10155 20085 40228 58009 60001 82230 333 0//00 82840
85360=
60559 12960 5//// 10155 20041 40220 58010 60001 81034 333 0//00 81360
85360=
60581 12660 70206 10194 20069 40212 58010 60001 83231 333 0//00 83840
83360=
60602 12950 11012 10197 20041 40142 58005 60001 81030 333 0//00 81360
95900=
60607 12659 71812 10220 20004 40162 58010 60001 83831 333 0//00 83846
83362=
60640 12960 61404 10249 20001 40186 58028 60001 82034 333 0//00 82360
86073=
60690 NIL=
0000036500
077
SMAL51 DAMM 111200
AAXX 11121
60370 36/// /2301 10189 20063=
60371 NIL=
60372 36/// /2403 10163 20056=
60373 NIL=
60374 NIL=
60376 NIL=
60379 NIL=
60380 NIL=
60381 NIL=
60393 NIL=
60394 NIL=
60593 NIL=
60595 NIL=
60605 NIL=
60613 NIL=
60623 NIL=
AAXX 11124
60624 36/// /0000 10182 20066=
60639 NIL=
60645 NIL=
0000011000
078
SMRH75 LDZM 111200
AAXX 11121
14444 32570 70000 10138 20101 30205 40234 57010 84870
  333=
0000012200
079
SMNI01 DNKK 111200
AAXX 11124
65125 31956 51505 10334 20054 30712 40115 70522 80008
  333 59016 85280=
0000035700
080
SMBW40 VGDC 111200
AAXX 1112/
41858 NIL=
41863 NIL=
41886 NIL=
41895 NIL=
41909 NIL=
41915 NIL=
41926 NIL=
41929 NIL=
41933 NIL=
41939 NIL=
41941 NIL=
41946 NIL=
41947 NIL=
41951 NIL=
41953 NIL=
41958 NIL=
41960 NIL=
41963 NIL=
41964 NIL=
41965 NIL=
41966 NIL=
41984 NIL=
41989 NIL=
41998 NIL=
0000125000
081
SMAL03 DAMM 111200
AAXX 11124
60395 12965 6//// 10185 20083 40199 58001 60001 86030
  333 0//00 86360 95900=
60421 12965 61908 10143 20031 39170 48519 50009 60001 82032
  333 82360 85070 95990=
60423 12670 6//// 10160 20062 39221 48501 50002 60001 82232
  333 82840 84073 95900=
60430 12660 72803 10157 20064 40203 58008 60001 82532
  333 0//00 82633 85360 95900=
60437 12570 72008 10120 20084 39001 48509 50003 60001 84502
  333 0//00 84630 84070 95900=
60444 12565 52013 10138 20043 39120 48538 58003 60001 84202
  333 0//00 84830 95900=
60452 12565 82406 10177 20120 40198 53012 60001 882// 222// 2////
  333 0//00 88823 91826=
60457 12660 82203 10178 20089 40195 50010 60001 84582
  333 84826 85073 95900=
60514 12960 70000 10133 20058 39306 48547 58004 60001 84072
  333 0//00 84460 84073 95900=
60518 11560 82406 10152 20105 40180 51010 60011 8427/ 222// 29902
  333 0//11 84820 85760 91836 95900=
60520 11560 70000 10130 20100 40193 50006 69941 70262 888//
  333 0//52 85626 83830 95900=
60540 11558 82003 10112 20062 39029 48499 58001 69931 70162 8457/
  333 0//12 84633 86460 95900=
60560 11630 80000 10111 20039 38976 48528 50004 69911 76162 85282
  333 0//50 85840 95900=
0000069500
082
SMAL50 DAMM 111200
AAXX 11124
60612 36/// /0000 10194 21023=
60617 NIL=
60619 36/// /1712 10213 21036=
60621 36/// /1823 10240 21036=
60633 36/// /0713 10216 21018=
60650 NIL=
60660 36/// /1610 10247 21059=
60661 NIL=
60662 36/// /0000 10212 21155=
60663 NIL=
60664 36/// /0000 10165 21022=
60667 36/// /0000 10192 21011=
60672 36/// /0000 10209 21112=
60673 NIL=
60674 NIL=
60675 NIL=
60676 NIL=
60677 NIL=
60679 NIL=
60681 NIL=
60682 36/// /0000 10201 21068=
60683 NIL=
60685 NIL=
60688 NIL=
60689 NIL=
60691 36/// /0000 10229 21048=
60692 36/// ///03 10232 21024=
60693 NIL=
60694 NIL=
60695 36/// /1510 10217 21025=
0000011000
083
UANT99 KDDL 111218
ARP JAI230 5403N01925W 1218 F370 MS64 219/75 KT
VTJWU QXT AOE 111218 J20A
0000010900
084
UANT99 KDDL 111218
ARP VIR29 4903N01605W 1217 F360 MS64 239/79 KT
GVROY DDL XXF 111219 F78A
0000011000
085
UANT99 KDDL 111219
ARP DAL109 4526N02144W 1219 F330 MS55 205/96 KT
N1605 QXT AOE 111219 F50A
0000011000
086
UANT99 KDDL 111219
ARP KLM708 4453N01708W 1219 F350 MS60 233/77 KT
PHBVK QXT EUA 111219 F88A
0000011000
087
UANT99 KDDL 111219
ARP AZA63K 4712N00952W 1219 F300 MS49 274/50 KT
EIISO QXT AOE 111219 F05A
0000011100
088
UANT99 KDDL 111220
ARP AMX003 4650N03618W 1219 F390 MS50 302/31 KT
N961AM DDL XXW 111220 L26A
00000000