0000011000
029
SMIN90 VECC 111200
AAXX 11124
42901 32996 11101 10222 20177 40145 80001
  333 10265 58004=
0000015500
030
SAIN34 VOMM 111210
METAR VOHS 111210Z VRB02KT 5000 HZ SCT020 27/11 Q1015 NOSIG=
METAR VOTR 111210Z 10007KT 7000 FEW016 29/19 Q1012 NOSIG=
0000040800
031
UKCN05 CWAO 111200
TTBB  61128 71957 00991 28931 11953 26325 22905 26935 33805
31301 44770 29331 55746 30333 66731 30142 77723 29959 88701
30159 99678 29559 11547 37561 22520 39556 33502 40560 44489
41966 55439 47564 66410 50558 77381 54560 88352 57557 99342
56759 11313 59160 22281 56567 33247 58569 44211 55977 55201
57178 66186 55780 77116 61378 88100 61379 31313 48008 81115=

0000048500
032
SMUS27 KWBC 111200 RRA
AAXX 11124
72783 15966 81807 10083 20017 39548 40064 58034 60011 91156 333
10100 20072 70013 555 91112=
72785 11866 81616 10044 20022 39163 40015 58047 69981 761// 91153
333 10044 20028 70008 91023 555 91112=
72791 17458 82311 10089 20072 30023 40025 53007 60121 761// 91155
333 10117 20089 70201 91024 96010 555 91112=
72792 17440 82116 10106 20094 39911 49979 56020 60081 762// 91154
333 10100 20072 70203 91026 96010 555 91112=
0000030400
033
USCN05 CWAO 111200
TTAA  61121 71957 99991 28931 25005 00041 ///// ///// 92603
26929 31528 85210 29314 32019 70592 30159 34517 50494 40961
04030 40642 51959 05536 30825 58563 35522 25940 58370 30520
20081 56978 31030 15263 58179 29532 10516 61379 29546 88313
59160 01518 77999=

0000036900
034
UDEU02 EGRR 111221 RRI
AMDAR 1112
ASC EU0227   5905N 00537E 111216 F106 MS140 290/018 TB/ S031=
ASC EU0227   5906N 00536E 111216 F116 MS160 287/021 TB/ S031=
ASC EU0227   5908N 00536E 111217 F120 MS170 287/021 TB/ S031=
ASC EU0227   5910N 00535E 111217 F120 MS170 287/021 TB/ S031=
ASC EU0227   5911N 00535E 111217 F120 MS170 288/021 TB/ S031=
0000042900
035
UDEU02 EGRR 111222
AMDAR 1112
ASC EU4792   6010N 01808E 111212 F165 MS285 274/049 TB/ S031=
ASC EU4792   6013N 01809E 111213 F182 MS285 281/058 TB/ S031=
ASC EU4792   6016N 01809E 111213 F200 MS316 283/070 TB/ S031=
ASC EU4792   6020N 01810E 111214 F216 MS355 282/071 TB/ S031=
ASC EU4792   6024N 01811E 111214 F231 MS383 287/071 TB/ S031=
ASC EU4792   6027N 01812E 111215 F247 MS418 290/067 TB/ S031=
0000010000
036
SMTA10 UTDD 111200 RRA
AAXX 11121
38847 42999 40000 10032 20000 40273 57012 80004=
0000100900
037
UDEU02 EGRR 111222 RRA
AMDAR 1112
ASC EU0227   5853N 00538E 111213 F005 PS050 273/010 TB/ S031=
ASC EU0227   5853N 00538E 111213 F007 PS040 278/016 TB/ S031=
ASC EU0227   5854N 00538E 111213 F009 PS040 278/020 TB/ S031=
ASC EU0227   5854N 00538E 111213 F012 PS030 278/020 TB/ S031=
ASC EU0227   5854N 00538E 111213 F014 PS020 281/020 TB/ S031=
ASC EU0227   5854N 00538E 111213 F016 PS020 281/021 TB/ S031=
ASC EU0227   5855N 00538E 111213 F017 PS020 279/021 TB/ S031=
ASC EU0227   5855N 00538E 111213 F018 PS020 282/021 TB/ S031=
ASC EU0227   5855N 00538E 111213 F019 PS010 280/021 TB/ S031=
ASC EU0227   5855N 00538E 111213 F020 PS010 278/021 TB/ S031=
ASC EU0227   5856N 00538E 111214 F023 PS000 278/021 TB/ S031=
ASC EU0227   5856N 00538E 111214 F027 PS000 279/021 TB/ S031=
ASC EU0227   5856N 00538E 111214 F030 PS000 282/021 TB/ S031=
ASC EU0227   5857N 00538E 111214 F033 PS000 282/021 TB/ S031=
ASC EU0227   5857N 00538E 111214 F036 PS000 283/021 TB/ S031=
0000062500
038
UDEU02 EGRR 111222 RRB
AMDAR 1112
UNS EU1795   5508N 03812E 111204 F041 MS040 312/031 TB/ S031=
DES EU1795   5517N 03801E 111208 F038 MS035 299/030 TB/ S031=
DES EU1795   5518N 03800E 111209 F035 MS030 294/031 TB/ S031=
DES EU1795   5519N 03758E 111209 F029 MS017 293/032 TB/ S031=
DES EU1795   5520N 03758E 111210 F026 MS012 291/027 TB/ S031=
DES EU1795   5521N 03757E 111210 F023 MS002 293/027 TB/ S031=
DES EU1795   5521N 03756E 111211 F020 PS002 286/024 TB/ S031=
DES EU1795   5522N 03755E 111211 F017 PS007 287/020 TB/ S031=
DES EU1795   5523N 03754E 111211 F014 PS015 272/020 TB/ S031=
0000015000
039
SNDL22 EDZW 111100 CCB
AAXX 11111
10264 47467 72204 10056 20028 30004 40111 58009 76160
  333 55302 20555 30489 83/16 87/58 87/60=
0000013200
040
SNDL47 EDZW 111000 CCA
AAXX 11101
10458 45980 42306 10028 20003 39660 40153 58002
  333 55309 20705 30275 84/62=
0000011800
041
SMFI02 EFKL 111200 RRA
AAXX 11121
02984 47383 71002 11017 21030 39984 49999 54001 77187 87/// 91139=
0000146200
042
SMVD01 PANC 111200 RRD
BBXX
PBIG 11123 99138 70816
41698 40836 10267 20223 40100 55020 70200 83488
22284 00300 20304 304// 40506=
PHEO 11124 99212 71582
41398 21010 10235 20212 40090 50000 70100 822//
22263 00260 20301 80220=
WMPP 11124 99226 10375
41698 53612 10215 20134 40189 54000 70122 83130
22234 00248 20301 335// 40502 80168=
ONGA 11124 99298 30396
41798 62013 10270 2020/ 40160 54/// 70311 862//
22222 00250 20306 3//// 4//// 5//// 6//// 80220 ICE /////=
C6RN3 11124 99215 70763
41298 40921 10260 20246 40190 52005 70100 841//
22264 0//// 2//// 309// 40705 5//// 6//// 80250 ICE /////=
C6XC2 11124 99096 11337
41496 80735 10270 20256 40120 52010 70222 88976
22284 00290 20601 3//// 40601 50501 6//// 80260 ICE /////=
9V9116 11124 99206 50137
41098 30924 10240 20196 40185 51005 72161 81201
22232 0//// 20505 333// 42004 5//// 6///0 80210 ICE 0/0//=
WCY7054 11123 99265 70863
41398 31913 1//// 2//// 4//// 54/// 7//00 831//
22273 0//// 20401 3//// 408// 5//// 6//// 8//// ICE /////=
S6TE 11123 99292 70937
41/93 /2615 10160 20144 40125 52010 70244 8////
22200 00170 20302 318// 40302 5//// 6//// 80150 ICE /////=
H3GS 11124 99298 70803
41597 61820 10230 20201 40190 54000 71321 867//
22243 04237 20302 312// 40502 5//// 6//// 80210 ICE /////=
WFLG 11123 99238 71520
41498 80824 10231 20202 40167 57004 70222 8124/
22213 00211 2//// 3//// 4//// 5//// 6//// 80211 ICE /////=
0000022600
043
SMVB01 LFPW 111200
BBXX
BATFR10 11124 99247 11233 46/// /1418 10207 20119 40243 51014
22213 04239=
CQIV 11124 99242 11184 41297 7//// 10170 20119 40250 58010 70211
8/715
22200 20806 305// 41005 80140=
0000210200
044
SMVF01 LFPW 111200
BBXX
BAREU71 11124 99383 70145 46/// /1821 10158 29081 40176 57011
22264=
BAREU51 11124 99426 10099 46/// ///// 10156 29078 40219 57014
22275=
61002 11124 99421 10047 46/// /1007 10131 20051 40206 52002
22200 00129 10401 70005=
2GYL6 11123 99338 70087 41497 22311 10185 20138 40186 54000 70200
81102
22253 04180 299// 399// 4//04 80158=
BATFR23 11124 99426 10057 46/// /0720 10139 20097 40202 58016
22244 00130=
BAREU65 11124 99310 70149 46/// ///// 40188 52012
22243=
BATEU10 11124 99449 70042 46/// /0817 40202 58003
22245=
BAREU14 11124 99536 70045 46/// ///// 40194 52033
22264=
BATFR16 11124 99453 70137 46/// /1821 10124 20099 40130 53005
22214 00130=
LXME 11124 99372 10122 41998 11720 10174 20145 40203 57023 70311
80001
22264 00170 20601 30000 80156=
BAREU72 11124 99408 10287 46/// ///// 40234
22243=
FVNM 11124 99477 70034 46/// /0903 10080 20074 40207 50011
22200 04097=
BATFR03 11124 99506 70009 46/// /3414 10079 20032 40216 51022
22284=
BATFR62 11124 99498 70006 46/// /3514 10097 20037 40213 51020
22272 04125=
BATFR20 11124 99375 10097 46/// /1407 10152 20097 40186 58009
22233=
BATFR44 11124 99477 70037 46/// /1210 10077 20064 40216 51009
22222 04084=
BATFR12 11124 99486 70064 46/// /0915 10104 20039 40206 50003
22200 04150=
12050 11124 99336 10319 46/// ///// 40233 57012
22200=
PBEO 11123 99353 70065 41/97 51710 10177 20150 40194 53006 70111
82565
22253 02167 20401 30000 80160=
BATFR09 11124 99393 70101 46/// /3401 10145 20075 40189 50008
22242 04160=
BATFR27 11124 99487 70022 46/// /0210 10092 20044 40211 50009
22271 04107=
BATFR52 11124 99498 70005 46/// /3513 10099 20032 40225 51037
22234 04107=
BATFR61 11124 99473 70060 46/// /1214 10114 20099 40202 50005
22272 04124=
BATFR21 11124 99430 10084 46/// /3404 10127 20097 40208 58008
22273=
BATUK01 11124 99576 70061 43/// /2503 10057 21010 40117 51029
22231 04094=
A8PB2 11124 99301 70118 41198 22609 10170 20146 40195 50015 7//00
82200
22213 04190 20402 333// 40605 80155=
0000030500
045
UDEU02 EGRR 111222 RRC
AMDAR 1112
LVR EU0217   5859N 01119E 111200 F250 MS420 252/061 TB/ S031=
LVR EU0217   5937N 01111E 111207 F111 MS160 273/025 TB/ S031=
LVR EU0217   6002N 01059E 111214 F045 MS040 268/016 TB/ S031=
LVR EU0217   6011N 01105E 111218 F010 MS050 051/005 TB/ S031=
0000068900
046
UDEU02 EGRR 111222 RRD
AMDAR 1112
DES EU0218   3718N 00450W 111208 F109 MS060 041/014 TB/ S031=
DES EU0218   3714N 00450W 111209 F103 MS050 052/010 TB/ S031=
DES EU0218   3711N 00450W 111209 F097 MS040 014/007 TB/ S031=
DES EU0218   3708N 00450W 111210 F087 MS020 355/008 TB/ S031=
DES EU0218   3705N 00450W 111211 F079 MS010 047/002 TB/ S031=
DES EU0218   3701N 00450W 111211 F069 PS000 053/000 TB/ S031=
DES EU0218   3659N 00450W 111212 F063 PS000 316/000 TB/ S031=
UNS EU0218   3656N 00450W 111213 F058 PS010 275/001 TB/ S031=
DES EU0218   3654N 00448W 111213 F054 PS030 287/003 TB/ S031=
DES EU0218   3652N 00446W 111214 F053 PS030 299/003 TB/ S031=
0000086300
047
SMZW01 FVHA 111200 RRA
AAXX 11124
67983 41660 51209 10270 20190 38897 48528 71792 83233 333 58030
      81930 83835=
67775 42680 40706 10287 20181 38505 48509 84202 333 58015 84840=
67977 42780 21207 10331 20230 39663 48556 82200 333 58037 82850=
67765 41584 70402 10264 20198 38657 48504 71792 82972 333 58001
      82937 81708 84832 87460=
67881 42780 51201 10283 20149 38579 48509 84233 333 58023 819//
      84856 83080=
67867 41680 71204 10260 20191 38576 48506 71511 84233 333 58019
      81930 84835 87359=
67861 42680 30000 10273 20179 38727 48510 83130 333 58021 81840=
67991 42680 61203 10313 20206 39586 48511 84132 333 58047 84840=
67965 41765 60209 10259 20165 38687 48515 79598 83273 333 58021
      81948 83850=
67975 41670 71308 10281 20192 38917 48512 71791 86273 333 58025
      81935 86840 87460=
0000028300
048
SXHW11 KWAL 111220
B14036D2 011122013"
1,140111,11:15:00,10.5,81,12.6,0.0,1014.6,0.00,13.1,
1,140111,11:30:00,9.5,81,11.7,0.0,1014.4,0.00,13.1,
1,140111,11:45:00,8.7,80,10.6,0.0,1014.2,0.00,13.1,
1,140111,12:00:00,5.7,91,8.4,0.0,1014.0,0.00,13.1, 47-0NN  30W
00000000