0000113100
616
FTUS52 KWBC 101612 AAA
TAF AMD
KCLL 101610Z 1016/1112 16012KT P6SM VCSH OVC006
     FM101800 18011G17KT P6SM VCSH BKN009 OVC015
     FM102100 19012KT P6SM -SHRA BKN012 OVC020
     FM110200 21007KT P6SM VCSH SCT015 BKN250
     FM110600 21006KT P6SM OVC015
     FM110800 30005KT P6SM OVC250=
KECP 101610Z 1016/1112 07003KT 1/2SM FG VV002
      TEMPO 1016/1018 1/4SM FG
     FM101800 07004KT 3SM BR OVC003
     FM110300 15008KT 4SM -RA BR OVC003=
KGGG 101609Z 1016/1112 16010KT P6SM OVC009
     FM101700 18014G22KT 5SM -RA BR VCTS OVC009CB
     FM101900 19015G25KT 5SM -TSRA BR OVC015CB
     FM110300 25010KT 5SM -RA BR VCTS OVC015CB
     FM110700 28008KT P6SM SCT015 BKN250=
KHUM 101610Z 1016/1112 05004KT 1/4SM FG VV002
     FM101800 12010KT 2SM BR OVC004
     FM110000 15010KT 4SM BR OVC004
      TEMPO 1102/1106 1SM TSRA OVC004CB
     FM110800 19010KT 2SM BR OVC002=
KMCB 101609Z 1016/1112 12003KT 1SM BR BKN004
      TEMPO 1016/1017 1/2SM FG VV002
     FM101800 16008KT 3SM BR OVC010
      TEMPO 1102/1106 2SM TSRA OVC006CB
     FM110700 23010KT 5SM BR OVC008=

0000028400
617
FTUS53 KWBC 101612
TAF
TAF AMD KRFD 101605Z 1016/1112 16010KT 1/2SM -FZDZ FZFG VV001
     FM101900 17010KT 1/2SM -DZRA FZFG VV002
     FM102200 16011KT 1 1/2SM RA BR OVC005
     FM110200 20012KT 2SM -DZ BR VCSH OVC005
     FM110900 24012G18KT P6SM OVC012=

0000030000
618
FTUS54 KWBC 101612 AAA
TAF AMD
KEKO 101608Z 1016/1112 21009KT P6SM BKN040 OVC150
     FM101800 25010G20KT P6SM VCSH OVC040
     FM110100 24003KT P6SM BKN050=
KTPH 101608Z 1016/1112 32021KT P6SM BKN200
     FM101800 32018G28KT P6SM SCT200
     FM110100 33006KT P6SM SKC=

0000139800
619
FTUS80 KWBC 101612 AAA
TAF AMD
KASD 101611Z 1016/1112 14008KT 4SM BR OVC003
      TEMPO 1104/1108 2SM TSRA OVC006CB
     FM110800 19010KT 4SM BR OVC005=
KAZO 101608Z 1016/1112 17004KT 2SM BR OVC003
      TEMPO 1016/1020 1/2SM FG
     FM102100 16008KT 2SM -RA BR OVC003
     FM110200 15012KT 1SM RA BR OVC003
     FM110600 18012KT 1/2SM -RA FG OVC004=
KBTL 101610Z 1016/1112 16006KT 2SM BR OVC002
      TEMPO 1016/1020 1/2SM FG
     FM102100 16008KT 2SM -RA BR OVC003
     FM110200 15012KT 1SM RA BR OVC003
     FM110600 18012KT 1/2SM -RA FG OVC004=
KCLL 101610Z 1016/1112 16012KT P6SM VCSH OVC006
     FM101800 18011G17KT P6SM VCSH BKN009 OVC015
     FM102100 19012KT P6SM -SHRA BKN012 OVC020
     FM110200 21007KT P6SM VCSH SCT015 BKN250
     FM110600 21006KT P6SM OVC015
     FM110800 30005KT P6SM OVC250=
KECP 101610Z 1016/1112 07003KT 1/2SM FG VV002
      TEMPO 1016/1018 1/4SM FG
     FM101800 07004KT 3SM BR OVC003
     FM110300 15008KT 4SM -RA BR OVC003=
KEKO 101608Z 1016/1112 21009KT P6SM BKN040 OVC150
     FM101800 25010G20KT P6SM VCSH OVC040
     FM110100 24003KT P6SM BKN050=
KGGG 101609Z 1016/1112 16010KT P6SM OVC009
     FM101700 18014G22KT 5SM -RA BR VCTS OVC009CB
     FM101900 19015G25KT 5SM -TSRA BR OVC015CB
     FM110300 25010KT 5SM -RA BR VCTS OVC015CB
     FM110700 28008KT P6SM SCT015 BKN250=

0000028400
620
FTUS80 KWBC 101612
TAF
TAF AMD KRFD 101605Z 1016/1112 16010KT 1/2SM -FZDZ FZFG VV001
     FM101900 17010KT 1/2SM -DZRA FZFG VV002
     FM102200 16011KT 1 1/2SM RA BR OVC005
     FM110200 20012KT 2SM -DZ BR VCSH OVC005
     FM110900 24012G18KT P6SM OVC012=

0000029100
621
FTUS80 KWBC 101612 CCA
TAF COR
KGGG 101610Z 1012/1112 17017G24KT P6SM OVC009
     FM101700 18017G27KT 6SM -RA BR VCTS OVC009CB
     FM101900 19015G25KT 5SM -TSRA BR OVC009CB
     FM110300 25010KT 5SM -RA BR VCTS OVC015CB
     FM110700 28008KT P6SM SCT015 BKN250=

0000130000
622
FTUS80 KWBC 101612 AAB
TAF AMD
KHUM 101610Z 1016/1112 05004KT 1/4SM FG VV002
     FM101800 12010KT 2SM BR OVC004
     FM110000 15010KT 4SM BR OVC004
      TEMPO 1102/1106 1SM TSRA OVC004CB
     FM110800 19010KT 2SM BR OVC002=
KMCB 101609Z 1016/1112 12003KT 1SM BR BKN004
      TEMPO 1016/1017 1/2SM FG VV002
     FM101800 16008KT 3SM BR OVC010
      TEMPO 1102/1106 2SM TSRA OVC006CB
     FM110700 23010KT 5SM BR OVC008=
KMSO 101609Z 1016/1112 17007KT P6SM VCSH BKN050 OVC090=
KSGF 101609Z 1016/1112 16015G23KT 1 1/2SM SHRA BR VCTS OVC003CB
      TEMPO 1016/1019 TSRA BR
     FM110000 21011KT P6SM BKN008
     FM110500 25010KT P6SM BKN250=
KSHV 101608Z 1016/1112 17010G18KT P6SM OVC004
     FM102000 18014G22KT P6SM -RA VCTS OVC009CB
      TEMPO 1022/1102 5SM -TSRA BR BKN015CB
     FM110200 25012KT 5SM -TSRA BR OVC009CB
     FM110700 28010KT 5SM BR BKN015=
KSMN 101609Z 1016/1112 00000KT P6SM VCSH SCT040 OVC060 AMD LTD TO
      CLD VIS AND WIND=
KSTL 101610Z 1016/1118 16015KT 3SM -RA BR VCTS OVC005CB
     FM110300 20013KT 4SM BR OVC007
     FM110700 25012KT 5SM BR OVC012
     FM111500 27013KT P6SM SCT015=
KTPH 101608Z 1016/1112 32021KT P6SM BKN200
     FM101800 32018G28KT P6SM SCT200
     FM110100 33006KT P6SM SKC=

0000011800
623
SPCN31 CWAO 101609
SPECI CYYZ 101609Z 15004KT 1 3/4SM BR OVC005 M02/M03 A3022 RMK FG1ST7
 SLP245=

0000168000
624
SPUS70 KWBC 101612
SPECI
KEST 101607Z AUTO 17015KT 2SM BR OVC004 M03/M03 A2968 RMK AO2
     I1000 T10281033=
KGIF 101608Z AUTO 10005KT 9SM BKN008 22/20 A3018 RMK AO2 CIG
     006V011 T02220200 TSNO=
KHLG 101608Z 16005KT 7SM OVC004 04/03 A3026 RMK AO2=
KPNE 101608Z AUTO 13003KT 2SM -RA BR FEW004 BKN044 OVC070 01/M01
     A3046 RMK AO2 P0001=
KSPI 101608Z 15014G18KT 8SM BKN008 OVC014 02/01 A2994 RMK AO2=
KART 101609Z AUTO 19009G14KT 3SM -SN OVC017 01/M02 A3029 RMK AO2
     P0000=
KBOK 101609Z AUTO 14004KT M1/4SM FG OVC002 09/09 A3026 RMK AO2
     $=
KCEU 101609Z AUTO 03004KT 1 3/4SM -RA BR SCT003 OVC016 08/06 A3030
     RMK AO2 P0001=
KCMI 101609Z 12009KT 1SM BR SCT003 OVC019 01/01 A3001 RMK AO2 SFC
     VIS 1 3/4=
KEQY 101609Z AUTO 02005KT 3SM -RA BR OVC003 06/05 A3031 RMK AO2
     P0005=
KFSM 101609Z 03005KT 2SM -RA BR SCT002 OVC023 06/05 A2985 RMK AO2
     RAB1558 P0000=
KHIE 101609Z AUTO 00000KT 1 3/4SM -SN BR FEW025 OVC036 M09/M12
     A3034 RMK AO2 P0000 T10941117=
KICT 101609Z 23013KT 6SM BR BKN007 OVC011 06/05 A2963 RMK AO2=
KJST 101609Z AUTO 19005KT 3/4SM BR OVC002 01/00 A3026 RMK AO2
     T00060000=
KLWV 101609Z AUTO 17008KT 4SM BR OVC029 03/02 A3009 RMK AO2
     T00330022=
KMSL 101609Z AUTO 09005KT 5SM HZ OVC006 10/07 A3017 RMK AO2=
KRKP 101609Z AUTO 16004KT 2SM -RA FEW006 SCT012 OVC021 27/18 A2995
     RMK AO2 P0000=
KSHN 101609Z AUTO 22014KT 3SM -RA BR SCT010 OVC018 07/06 A3005 RMK
     AO2 P0000 T00720056 TSNO=
KSLK 101609Z AUTO 23008KT 1SM -SN BR SCT023 BKN031 OVC065 M04/M06
     A3023 RMK AO2 P0001=
KSMO 101609Z VRB03KT 3SM HZ CLR 11/08 A3011 RMK AO2=

0000010900
625
SPUS41 KWBC 101612
SPECI
KWRI 101610Z AUTO 00000KT 3SM -RA BR BKN010 OVC039 00/00 A3043=

0000014900
626
SAAG31 KWBC 101600 RRA
METAR
SARF 101600Z 34015KT 9999 FEW025 35/23 Q1008=
SAWE 101600Z 16008KT 9999 -SHRA SCT017 09/08 Q1004=

0000083600
627
SABZ41 KWBC 101600 RRA
METAR
SBAA 101600Z 33005KT 9999 SCT020 BKN090 ///// Q////=
SBAF 101600Z 16005KT 9999 SCT025 34/21 Q1012=
SBBG 101600Z 11007KT 4000 -TSRA BR FEW020 FEW027CB OVC070 21/21
     Q1012=
SBBH 101600Z 08005KT 9999 BKN030 28/18 Q1017=
SBBI 101600Z 34006KT 9999 BKN030 FEW035TCU 31/15 Q1018=
SBBU 101600Z 02005KT 9999 SCT030 34/22 Q1015=
SBCO 101600Z 32007KT 9999 SCT040 FEW045TCU SCT090 32/// Q1009=
SBDN 101600Z 34005KT 9999 SCT045 34/16 Q1013=
SBGW 101600Z 07004KT 9999 SCT025 FEW030TCU 33/16 Q1014=
SBHT 101600Z 11004KT 9999 BKN015 OVC100 26/24 Q1012=
SBIH 101600Z 09004KT 9999 SCT022 FEW023TCU BKN100 27/24 Q1011=
SBIL 101600Z 04005KT 2000 RA BR SCT008 BKN018 OVC070 24/23 Q101 4
     RERA=
SBIL 101600Z 04005KT 2000 RA BR SCT008 BKN018 OVC070 24/23 Q1014
     RERA=

0000068500
628
SABZ42 KWBC 101600 RRA
METAR
SBJR 101600Z 14008KT 9999 FEW025 34/23 Q1012=
SBME 101600Z 10013KT 9999 FEW030 30/23 Q1013=
SBMT 101600Z 00000KT 9999 SCT040 32/16 Q1016=
SBPC 101600Z 15004KT 9999 SCT020 30/18 Q1021=
SBPK 101600Z 04011KT 9999 -RA BKN040 OVC100 22/21 Q1009=
SBSC 101600Z 05009KT 9999 FEW035TCU FEW035 35/19 Q1012=
SBSJ 101600Z 15005KT 9999 SCT025 FEW030TCU 32/13 Q1016=
SBSM 101600Z 34011KT 9999 SCT030 FEW040TCU 35/21 Q1007=
SBTU 101600Z 05004KT 9999 SCT015 BKN020 BKN070 28/23 Q1014=
SBUR 101600Z 07009KT 9999 BKN040 30/16 Q1017=
SBVH 101600Z 08005KT 9999 BKN020 BKN100 29/22 Q1013=
SBYS 101600Z 07005KT 9999 SCT048 32/16 Q1015=

0000102900
629
SABZ43 KWBC 101600 RRA
METAR
SBAN 101600Z 10008KT 9999 BKN040 29/14 Q1018=
SBAT 101600Z 23006KT 9999 SCT022 BKN100 31/20 Q1012=
SBBQ 101600Z 06005KT 9999 BKN025 25/17 Q1021=
SBBW 101600Z 17004KT 9999 SCT020 32/21 Q1013=
SBCC 101600Z 03004KT 9999 SCT015 BKN100 27/20 Q1014=
SBES 101600Z 07019KT 9999 FEW030 31/21 Q1014=
SBIZ 101600Z 10006KT 9999 SCT020 BKN090 30/22 Q1011=
SBJF 101600Z 03005KT 9999 BKN018 FEW025TCU 27/19 Q1019=
SBKG 101600Z 11014KT 9999 SCT025 30/16 Q1014=
SBLB 101600Z 07010KT CAVOK 28/22 Q1016 W///S2=
SBLP 101600Z 06008KT 9999 SCT030 30/20 Q1014=
SBMK 101600Z 09011KT 9999 SCT045 31/14 Q1016=
SBMS 101600Z 02013KT 9999 BKN025 33/22 Q1010=
SBPJ 101600Z 02009KT 9999 TS SCT025 FEW027CB 28/22 Q1012=
SBPN 101600Z 27005KT 9999 TS FEW025 FEW027CB 32/21 Q1010=
SBQV 101600Z 11006KT 9999 BKN020 26/19 Q1018=
SBTK 101600Z 09004KT 9999 BKN020 BKN100 27/24 Q1013=
SBUF 101600Z 16007KT 9999 SCT022 BKN100 34/18 Q1013=
SBUL 101600Z 04009KT 9999 BKN035 28/17 Q1018=

0000021600
630
FTME31 OLBA 101600
TAF OLBA 101600Z 1018/1124 VRB06KT 8000 BKN080 BECMG 1109/1112
    20008KT SCT080 BECMG 1118/1121 18015KT 160V220 6000 BKN026 TEMPO
    1018/1106 -RA TEMPO 1115/1124 4000 BR=

0000070100
631
FTAP32 FAPR 101500 RRA
TAF FACT 101600Z 1018/1124 18015KT 9999 FEW035
         TX26/1112ZTN13/1104Z=
TAF FAGG 101600Z 1018/1118 24010KT 9999 SCT025 BKN035
         BECMG 1107/1109 14010KT
         TX24/1112ZTN14/1104Z=
TAF FAOR 101600Z 1018/1124 23008KT 9999 SCT045
         PROB30 TEMPO 1018/1022 -TSRA FEW045CB
         BECMG 1022/1024 17005KT CAVOK
         BECMG 1100/1102 10007KT BKN015
         PROB30 TEMPO 1102/1106 04015KT 5000 BR BKN006
         BECMG 1108/1110 34012KT BKN035
         PROB40 TEMPO 1110/1118 5000 TSRA FEW030CB
         PROB30 TEMPO 1118/1123 -TSRA FEW035CB
         BECMG 1120/1122 04007KT CAVOK
         TX27/1113ZTN15/1103Z=

0000010100
632
SABZ18 SBGR 101600
METAR SBGR 101600Z 08008KT 9999 SCT040 FEW045TCU
31/14 Q1017=

0000171300
633
SAUS73 KWBC 101600
METAR
KABR 101553Z AUTO 20007KT 7SM FEW090 M07/M09 A2956=
KALN 101550Z 13007KT 7SM OVC010 02/02 A2997=
KALO 101554Z AUTO 15012KT 1SM R12/5000V6000FT -FZRA BR OVC004
     M02/M02 A2981=
KAPN 101554Z AUTO 18007KT 4SM BR OVC022 M06/M07 A3009=
KASE 101553Z COR 00000KT 1SM -SN BR OVC016 M10/M12 A2989=
KASE 101553Z 00000KT 2SM -SN BR OVC016 M10/M12 A2989=
KATY 101553Z AUTO 21011KT 4SM BR BKN085 M03/M04 A2954=
KAXN 101553Z AUTO 16011KT 1/2SM FZFG OVC002 M04/M04 A2959=
KAZO 101553Z 16004KT 3/4SM BR OVC002 01/00 A3008=
KBDE 101553Z AUTO 18011G16KT 3SM BR OVC007 M06/M07 A2955=
KBFF 101553Z AUTO 29015G19KT 10SM BKN080 01/M09 A2968=
KBIS 101552Z 21004KT 10SM CLR M05/M07 A2952=
KBJC 101552Z 28025G35KT 60SM SCT080 BKN120 01/M13 A2967=
KBKF 101555Z 31012KT 70SM FEW070 SCT110 SCT220 00/M14 A2969=
KBRL 101553Z AUTO 15012KT 4SM BR OVC004 01/01 A2986=
KBTL 101553Z 16008KT 1 1/2SM BR OVC002 00/M01 A3008=
KCGI 101553Z 16008KT 10SM BKN013 BKN018 OVC037 06/04 A3005=
KCID 101552Z 14009KT 1 3/4SM BR OVC004 M01/M01 A2982=
KCIU 101555Z AUTO 15008KT 4SM OVC005 M04/M04 A3001=
KCMI 101553Z 12010KT 3/4SM R32R/3500VP6000FT BR OVC003 01/01
     A3002=
KCMX 101553Z AUTO 19008KT CLR M06/M09 A2979=
KCOS 101554Z 32020G27KT 10SM FEW080 FEW140 SCT200 01/M18 A2969=
KCOU 101554Z 14014KT 3/4SM -TSRA BR OVC002 03/03 A2979=
KCPR 101553Z 23017KT 10SM OVC100 M06/M12 A2967=
KCYS 101553Z 30024G35KT 10SM CLR M02/M13 A2963=
KDDC 101552Z AUTO 31018G26KT 6SM BR OVC045 01/M02 A2970=
KDEC 101554Z 15009KT 6SM BR FEW006 OVC017 02/00 A3000=
KDEN 101553Z 00000KT 10SM SCT110 SCT220 M01/M16 A2968=
KDET 101553Z 18006KT 6SM BR OVC009 02/M01 A3017=

0000010600
634
SAAF11 LFPW 101600 RRA
METAR FCPP 101600Z 18011KT 9999 SCT020 BKN026 28/24 Q1009 NOSIG=

0000010600
635
SAAF18 LFPW 101600 RRA
METAR FMEE 101604Z 10009KT 9999 FEW026 BKN300 27/23 Q1015 NOSIG=

00000000